station_id,dh_utc,temperature,pression,pression_variation_3h,humidite,point_de_rosee,visibilite,vent_moyen,vent_rafales,vent_rafales_10min,vent_direction,temperature_min,temperature_max,pluie_1h,pluie_3h,pluie_6h,pluie_12h,pluie_24h,ensoleillement,temperature_sol,temps_omm,source,radiations,neige_au_sol,nebulosite,raw_msg
07434,1996-01-01 00:00:00,8,1002.5,-0.1,100,8,0,7.408,,,210,,,,,,,,,,,wg-a,,,,AAXX 01004 07434 12/// /2104 10080 20080 39552 40025 58001 60016 90000=
07434,1996-01-01 03:00:00,8,1001.5,-1.1,93,7,0,3.704,,,160,,,,,,,,,,,wg-a,,,,AAXX 01034 07434 32/// /1602 10080 20070 39541 40015 58011 90300=
07434,1996-01-01 06:00:00,7,999.2,-2.3,100,7,700,11.112,,,130,7,8.5,,,,,6,,,47,wg-a,,,,AAXX 01064 07434 12/07 91306 10070 20070 39518 49992 58023 60064 74742 89/// 90600 333 10085 20070=
07434,1996-01-01 09:00:00,7,997.8,-1.3,93,6,4000,11.112,,,120,,,,,,,,,,1,wg-a,,,,AAXX 01094 07434 12240 71206 10070 20060 39505 49978 57013 60006 70142 8653/ 90900=
07434,1996-01-01 12:00:00,8,996.6,-1.1,87,6,15000,11.112,,,100,,,,2,,,,,,60,wg-a,,,,AAXX 01124 07434 02565 71006 10080 20060 39494 49966 58011 60026 76064 875// 91200 333 60027=
07434,1996-01-01 15:00:00,8,995.7,-0.8,93,7,10000,14.816,,,120,,,,3,,,,,,61,wg-a,,,,AAXX 01154 07434 12560 71208 10080 20070 39486 49957 55008 60037 76162 875// 91500=
07434,1996-01-01 18:00:00,8,996.5,0.8,93,7,8000,7.408,,,130,6.8,8.1,,1,,,,,,61,wg-a,,,,AAXX 01184 07434 12358 81304 10080 20070 39494 49965 53008 60017 76162 875// 91800 333 10081 20068=
07434,1996-01-01 21:00:00,9,997.2,0.9,100,9,9000,22.224,,,230,,,,5,,,,,,60,wg-a,,,,AAXX 01214 07434 12259 82312 10090 20090 39503 49972 53009 60057 76062 877// 92100=
07434,1996-01-02 00:00:00,9,998.3,1,93,8,10000,22.224,,,240,,,,3,,,,,,60,wg-a,,,,AAXX 02004 07434 02260 82412 10090 20080 39513 49983 53010 60086 76062 877// 90000 333 60037=
07434,1996-01-02 03:00:00,8,999.5,1,100,8,10000,29.632,,,240,,,,2,,,,,,61,wg-a,,,,AAXX 02034 07434 12260 82416 10080 20080 39523 49995 51010 60027 76166 877// 90300=
07434,1996-01-02 06:00:00,7,1002.2,2.4,93,6,10000,29.632,,,280,6.9,9.4,,6,,,20,,,61,wg-a,,,,AAXX 02064 07434 02260 82816 10070 20060 39547 40022 53024 60204 76166 877// 90600 333 10094 20069 60067=
07434,1996-01-02 09:00:00,6,1008.3,5.7,100,6,7000,25.928,,,310,,,,5,,,,,,61,wg-a,,,,AAXX 02094 07434 12257 83114 10060 20060 39604 40083 53057 60057 76166 877// 90900=
07434,1996-01-02 12:00:00,6,1013.4,4.8,100,6,2000,22.224,,,310,,,,3,,,,,,10,wg-a,,,,AAXX 02124 07434 02120 83112 10060 20060 39652 40134 51048 60086 71065 877// 91200 333 60037=
07434,1996-01-02 15:00:00,7,1016.3,2.8,93,6,6000,11.112,,,300,,,,0,,,,,,1,wg-a,,,,AAXX 02154 07434 12356 73006 10070 20060 39680 40163 51028 60007 70152 875// 91500=
07434,1996-01-02 18:00:00,6,1018.9,2.4,87,4,10000,11.112,,,330,5.8,6.9,,,,,,,,2,wg-a,,,,AAXX 02184 07434 32460 73306 10060 20040 39704 40189 51024 70252 875// 91800 333 10069 20058=
07434,1996-01-02 21:00:00,6,1020.8,1.8,93,5,10000,3.704,,,300,,,,,,,,,,,wg-a,,,,AAXX 02214 07434 12360 73002 10060 20050 39722 40208 52018 60006 875// 92100=
07434,1996-01-03 00:00:00,6,1021.7,0.8,93,5,0,7.408,,,280,,,,,,,,,,,wg-a,,,,AAXX 03004 07434 12/// /2804 10060 20050 39730 40217 52008 60006 90000=
07434,1996-01-03 03:00:00,5,1020.9,-0.9,93,4,3000,3.704,,,40,,,,,,,,,,10,wg-a,,,,AAXX 03034 07434 12430 20402 10050 20040 39721 40209 56009 60006 71000 82500 90300=
07434,1996-01-03 06:00:00,4,1020.7,-0.4,93,3,600,3.704,,,120,3.9,5.9,,,,,8,,,10,wg-a,,,,AAXX 03064 07434 02406 /1202 10040 20030 39717 40207 55004 60006 71041 82501 90600 333 10059 20039 60084=
07434,1996-01-03 09:00:00,5,1021.5,0.9,93,4,500,7.408,,,40,,,,,,,,,,3,wg-a,,,,AAXX 03094 07434 12400 50404 10050 20040 39726 40215 53009 60006 70341 83531 90900=
07434,1996-01-03 12:00:00,7,1020.6,-0.5,76,3,10000,11.112,,,90,,,,,,,,,,1,wg-a,,,,AAXX 03124 07434 12460 40906 10070 20030 39721 40206 58005 60006 70141 82131 91200=
07434,1996-01-03 15:00:00,9,1018.8,-1.3,71,4,15000,3.704,,,100,,,,,,,,,,,wg-a,,,,AAXX 03154 07434 12/65 41002 10090 20040 39708 40188 55013 60006 80001 91500=
07434,1996-01-03 18:00:00,6,1019.5,0.2,87,4,10000,3.704,,,80,3.1,9.5,,,,,,,,,wg-a,,,,AAXX 03184 07434 12/60 60802 10060 20040 39710 40195 51002 60006 80004 91800 333 10095 20031=
07434,1996-01-03 21:00:00,4,1019.9,0.1,93,3,10000,11.112,,,70,,,,0,,,,,,,wg-a,,,,AAXX 03214 07434 12/60 50706 10040 20030 39711 40199 50001 60007 80002 92100=
07434,1996-01-04 00:00:00,3,1018.4,-1.8,87,1,8000,11.112,,,80,,,,,,,,,,,wg-a,,,,AAXX 04004 07434 12/58 20806 10030 20010 39693 40184 58018 60006 80002 90000=
07434,1996-01-04 03:00:00,4,1015.5,-2.6,65,-2,12000,14.816,,,90,,,,,,,,,,,wg-a,,,,AAXX 04034 07434 12/62 60908 10040 21020 39667 40155 58026 60006 84032 90300=
07434,1996-01-04 06:00:00,4,1013.8,-1.6,60,-3,18000,11.112,,,100,2.5,6,,,,,,,,,wg-a,,,,AAXX 04064 07434 02/68 71006 10040 21030 39651 40138 58016 60006 8703/ 90600 333 10060 20025 60004=
07434,1996-01-04 09:00:00,6,1012.1,-1.3,49,-4,60000,11.112,,,100,,,,,,,,,,,wg-a,,,,AAXX 04094 07434 12/86 71006 10060 21040 39638 40121 57013 60006 85072 90900=
07434,1996-01-04 12:00:00,10,1010.2,-1.2,40,-3,60000,14.816,,,190,,,,,,,,,,,wg-a,,,,AAXX 04124 07434 12/86 71908 10100 21030 39626 40102 58012 60006 8507/ 91200=
07434,1996-01-04 15:00:00,9,1009.6,-0.6,46,-2,60000,18.52,,,170,,,,,,,,,,,wg-a,,,,AAXX 04154 07434 12786 71710 10090 21020 39620 40096 56006 60006 8553/ 91500=
07434,1996-01-04 18:00:00,9,1009,-0.7,53,0,500,11.112,,,140,3.1,9.7,,,,,,,,2,wg-a,,,,AAXX 04184 07434 02600 71406 10090 20000 39613 40090 58007 61000 70262 91800 333 10097 20031 ////=
07434,1996-01-04 21:00:00,8,1008.3,-0.7,71,3,10000,7.408,,,170,,,,,,,,,,60,wg-a,,,,AAXX 04214 07434 02560 71704 10080 20030 39606 40083 58007 61000 76062 8453/ 92100 333 ////=
07434,1996-01-05 00:00:00,8,1006.1,-2.1,61,1,10000,11.112,,,150,,,,,,,,,,2,wg-a,,,,AAXX 05004 07434 02660 71506 10080 20010 39585 40061 56021 61000 70262 83532 90000 333 6100=
07434,1996-01-05 03:00:00,6,1003.8,-2.5,65,0,10000,11.112,,,130,,,,,,,,,,,wg-a,,,,AAXX 05034 07434 12/60 61306 10060 20000 39560 40038 57025 60006 80002 90300=
07434,1996-01-05 06:00:00,7,1001.5,-2,66,1,10000,11.112,,,120,6,8.6,,,,,,,,,wg-a,,,,AAXX 05064 07434 02760 71206 10070 20010 39540 40015 56020 61000 85532 90600 333 10086 20060 ////=
07434,1996-01-05 09:00:00,8,1001.4,-0,71,3,11000,22.224,,,190,,,,,,,,,,,wg-a,,,,AAXX 05094 07434 12/61 /1912 10080 20030 39540 40014 55000 60006 90900=
07434,1996-01-05 12:00:00,7,1000.5,-1,93,6,500,22.224,,,190,,,,5,,,,,,63,wg-a,,,,AAXX 05124 07434 02300 81912 10070 20060 39530 40005 56010 60056 76362 875// 91200 333 60057=
07434,1996-01-05 15:00:00,7,1000.1,-0.4,93,6,3500,11.112,,,240,,,,13,,,,,,10,wg-a,,,,AAXX 05154 07434 12235 82406 10070 20060 39526 40001 55004 60137 71066 877// 91500=
07434,1996-01-05 18:00:00,6,1000.9,0.6,93,5,10000,7.408,,,50,5.4,7.9,,2,,,,,,21,wg-a,,,,AAXX 05184 07434 12360 80504 10060 20050 39532 40009 50006 60027 72162 8457/ 91800 333 10079 20054=
07434,1996-01-05 21:00:00,5,1002.7,1.7,100,5,15000,7.408,,,210,,,,0,,,,,,,wg-a,,,,AAXX 05214 07434 12365 72104 10050 20050 39549 40027 51017 60007 875// 92100=
07434,1996-01-06 00:00:00,6,1002.1,-0.6,93,5,800,3.704,,,270,,,,0,,,,,,44,wg-a,,,,AAXX 06004 07434 02208 82702 10060 20050 39543 40021 58006 60016 74486 876// 90000 333 60007=
07434,1996-01-06 03:00:00,5,1001.2,-1,93,4,10000,11.112,,,140,,,,,,,,,,28,wg-a,,,,AAXX 06034 07434 12260 81406 10050 20040 39533 40012 58010 60006 72842 876// 90300=
07434,1996-01-06 06:00:00,4,1000,-1.2,93,3,15000,14.816,,,150,4.3,5.6,,,,,20,,,1,wg-a,,,,AAXX 06064 07434 12365 71508 10040 20030 39521 40000 56012 60204 70142 875// 90600 333 10056 20043=
07434,1996-01-06 09:00:00,4,997.5,-2.4,93,3,60000,18.52,,,140,,,,,,,,,,,wg-a,,,,AAXX 06094 07434 12386 /1410 10040 20030 39497 49975 56024 60006 82132 90900=
07434,1996-01-06 12:00:00,8,993.8,-2.9,71,3,60000,25.928,,,160,,,,,,,,,,,wg-a,,,,AAXX 06124 07434 12/86 71614 10080 20030 39468 49938 58029 60006 85072 91200=
07434,1996-01-06 15:00:00,9,991.1,-2.5,61,2,60000,22.224,,,150,,,,1,,,,,,21,wg-a,,,,AAXX 06154 07434 12686 71512 10090 20020 39443 49911 58025 60017 72162 875// 91500=
07434,1996-01-06 18:00:00,7,991.2,-0.1,93,6,12000,22.224,,,170,3.6,9.3,,2,,,,,,60,wg-a,,,,AAXX 06184 07434 12462 81712 10070 20060 39442 49912 55001 60027 76062 875// 91800 333 10093 20036=
07434,1996-01-06 21:00:00,8,991.7,0.6,93,7,6000,29.632,,,180,,,,0,,,,,,61,wg-a,,,,AAXX 06214 07434 12356 81816 10080 20070 39448 49917 53006 60007 76162 877// 92100=
07434,1996-01-07 00:00:00,7,994.5,2.5,93,6,500,14.816,,40.744,250,,,,8,,,,,,61,wg-a,,,,AAXX 07004 07434 02300 82508 10070 20060 39473 49945 53025 60096 76162 875// 90000 333 60087 91022=
07434,1996-01-07 03:00:00,7,995.6,1.1,93,6,10000,22.224,,,190,,,,4,,,,,,21,wg-a,,,,AAXX 07034 07434 12360 81912 10070 20060 39484 49956 53011 60047 72162 8557/ 90300=
07434,1996-01-07 06:00:00,7,997.5,1.7,93,6,15000,18.52,,,200,6.6,8.3,,,,,16,,,1,wg-a,,,,AAXX 07064 07434 12465 /2010 10070 20060 39501 49975 53017 60164 70162 85570 90600 333 10083 20066=
07434,1996-01-07 09:00:00,7,1000.1,2.5,93,6,12000,22.224,,,200,,,,2,,,,,,25,wg-a,,,,AAXX 07094 07434 12262 72012 10070 20060 39526 40001 53025 60027 72586 84932 90900=
07434,1996-01-07 10:00:00,7,1,2.8,93,6,25000,14.816,,,220,6.2,9.1,,4,,,,,,3,wg-a,,,,AAXX 07104 07434 12475 72208 10070 20060 51028 60047 70386 875// 91000 333 10091 20062=
07434,1996-01-07 12:00:00,8,1002,2,87,6,12000,18.52,,,200,,,,0,,,,,,80,wg-a,,,,AAXX 07124 07434 02262 72010 10080 20060 39546 40020 51020 60026 78086 83932 91200 333 60007=
07434,1996-01-07 15:00:00,9,1003.8,1.9,87,7,12000,18.52,,,210,,,,,,,,,,15,wg-a,,,,AAXX 07154 07434 02562 72110 10090 20070 39565 40038 53019 61000 71582 879// 91500 333 ////=
07434,1996-01-07 18:00:00,7,1007.1,2.8,93,6,25000,14.816,,,220,6.2,9.1,,4,,,,,,3,wg-a,,,,AAXX 07184 07434 12475 72208 10070 20060 39593 40071 51028 60047 70386 875// 91800 333 10091 20062=
07434,1996-01-07 21:00:00,6,1009.9,2.6,93,5,8000,14.816,,,220,,,,1,,,,,,60,wg-a,,,,AAXX 07214 07434 12458 72208 10060 20050 39619 40099 51026 60017 76086 868// 92100=
07434,1996-01-08 00:00:00,5,1012.3,2.1,93,4,25000,11.112,,,230,,,,,,,,,,25,wg-a,,,,AAXX 08004 07434 02475 /2306 10050 20040 39640 40123 51021 60016 72586 86800 90000 333 61000=
07434,1996-01-08 03:00:00,5,1012.6,0.3,100,5,10000,7.408,,,160,,,,,,,,,,,wg-a,,,,AAXX 08034 07434 12160 71604 10050 20050 39643 40126 53003 60006 876// 90300=
07434,1996-01-08 06:00:00,5,1012.2,-0.4,100,5,10000,7.408,,,120,4.6,7.1,,,,,7,,,,wg-a,,,,AAXX 08064 07434 12160 /1204 10050 20050 39639 40122 56004 60074 83630 90600 333 10071 20046=
07434,1996-01-08 09:00:00,6,1012,-0,93,5,12000,14.816,,,130,,,,,,,,,,,wg-a,,,,AAXX 08094 07434 12/62 41308 10060 20050 39639 40120 55000 60006 81031 90900=
07434,1996-01-08 12:00:00,11,1008.8,-2.3,66,5,500,22.224,,,150,,,,,,,,,,,wg-a,,,,AAXX 08124 07434 12/00 31512 10110 20050 39616 40088 57023 60006 80001 91200=
07434,1996-01-08 15:00:00,11,1005.9,-2.8,58,3,60000,11.112,,,140,,,,,,,,,,,wg-a,,,,AAXX 08154 07434 12786 71406 10110 20030 39588 40059 56028 60006 81532 91500=
07434,1996-01-08 18:00:00,10,1004.6,-1.5,53,1,40000,14.816,,,160,4.9,11.5,,,,,,,,,wg-a,,,,AAXX 08184 07434 12782 71608 10100 20010 39573 40046 57015 60006 81532 91800 333 10115 20049=
07434,1996-01-08 21:00:00,10,1003.1,-1.3,50,0,500,18.52,,,140,,,,,,,,,,,wg-a,,,,AAXX 08214 07434 12700 71410 10100 20000 39560 40031 56013 60006 8157/ 92100=
07434,1996-01-09 00:00:00,10,1002.5,-0.7,50,0,500,18.52,,,180,,,,,,,,,,,wg-a,,,,AAXX 09004 07434 12700 71810 10100 20000 39553 40025 55007 60006 8157/ 90000=
07434,1996-01-09 03:00:00,9,1001.2,-1.2,66,3,500,18.52,,,170,,,,,,,,,,,wg-a,,,,AAXX 09034 07434 12700 71710 10090 20030 39541 40012 57012 60006 8157/ 90300=
07434,1996-01-09 06:00:00,9,1000.4,-0.7,81,6,18000,22.224,,,170,8.5,10.1,,1,,,1,,,60,wg-a,,,,AAXX 09064 07434 02668 81712 10090 20060 39534 40004 58007 60014 76062 875// 90600 333 10101 20085 60017=
07434,1996-01-09 09:00:00,9,1002.5,2,93,8,15000,14.816,,,220,,,,2,,,,,,60,wg-a,,,,AAXX 09094 07434 12465 82208 10090 20080 39554 40025 53020 60027 76062 8557/ 90900=
07434,1996-01-09 12:00:00,11,1003,0.7,87,9,12000,18.52,,,190,,,,,,,,,,1,wg-a,,,,AAXX 09124 07434 02462 81910 10110 20090 39561 40030 51007 60026 70162 8657/ 91200 333 61000=
07434,1996-01-09 15:00:00,11,1003.8,0.7,82,8,15000,18.52,,,180,,,,1,,,,,,21,wg-a,,,,AAXX 09154 07434 12465 71810 10110 20080 39568 40038 53007 60017 72162 8657/ 91500=
07434,1996-01-09 18:00:00,10,1005,1,87,8,20000,7.408,,,150,8.9,11.1,,,,,,,,2,wg-a,,,,AAXX 09184 07434 32670 71504 10100 20080 39578 40050 53010 70262 8357/ 91800 333 10111 20089=
07434,1996-01-09 21:00:00,9,1005.5,0.3,81,6,15000,14.816,,,130,,,,0,,,,,,2,wg-a,,,,AAXX 09214 07434 12665 81308 10090 20060 39581 40055 50003 60007 70262 8357/ 92100=
07434,1996-01-10 00:00:00,8,1005.4,-0.2,93,7,10000,14.816,,,110,,,,2,,,,,,61,wg-a,,,,AAXX 10004 07434 02660 81108 10080 20070 39579 40054 58002 60026 76162 8552/ 90000 333 60027=
07434,1996-01-10 03:00:00,7,1005.6,-0,93,6,8000,11.112,,,90,,,,6,,,,,,63,wg-a,,,,AAXX 10034 07434 12258 80906 10070 20060 39579 40056 55000 60067 76366 8552/ 90300=
07434,1996-01-10 06:00:00,6,1004.5,-1.2,100,6,7000,11.112,,,30,6.1,9.8,,10,,,21,,,63,wg-a,,,,AAXX 10064 07434 02257 80306 10060 20060 39567 40045 57012 60214 76366 855// 90600 333 10098 20061 60107=
07434,1996-01-10 09:00:00,7,1004.3,-0.1,93,6,500,22.224,,,20,,,,11,,,,,,63,wg-a,,,,AAXX 10094 07434 12200 80212 10070 20060 39566 40043 57001 60117 76366 875// 90900=
07434,1996-01-10 12:00:00,7,1003.2,-1,93,6,6000,14.816,,,10,,,,8,,,,,,61,wg-a,,,,AAXX 10124 07434 02256 80108 10070 20060 39556 40032 58010 60156 76166 875// 91200 333 60087=
07434,1996-01-10 15:00:00,6,1004.2,0.9,100,6,3000,18.52,,,310,,,,4,,,,,,10,wg-a,,,,AAXX 10154 07434 12130 83110 10060 20060 39565 40042 53009 60047 71066 877// 91500=
07434,1996-01-10 18:00:00,6,1007.6,3.1,93,5,8000,14.816,,,310,5.7,6.8,,4,,,,,,51,wg-a,,,,AAXX 10184 07434 12258 83108 10060 20050 39596 40076 53031 60047 75166 877// 91800 333 10068 20057=
07434,1996-01-10 21:00:00,6,1009.7,2,100,6,1200,11.112,,,190,,,,0,,,,,,10,wg-a,,,,AAXX 10214 07434 12112 81906 10060 20060 39616 40097 51020 60007 71065 877// 92100=
07434,1996-01-11 00:00:00,6,1009.6,-0.1,93,5,6000,14.816,,,190,,,,,,,,,,2,wg-a,,,,AAXX 11004 07434 12256 81908 10060 20050 39615 40096 58001 60016 70265 876// 90000=
07434,1996-01-11 03:00:00,6,1007.4,-2.1,93,5,8000,18.52,,,160,,,,,,,,,,,wg-a,,,,AAXX 11034 07434 12458 81610 10060 20050 39594 40074 58021 60006 876// 90300=
07434,1996-01-11 06:00:00,6,1005.8,-1.6,87,4,10000,22.224,,,170,5.1,6,,,,,26,,,,wg-a,,,,AAXX 11064 07434 12460 81712 10060 20040 39578 40058 56016 60264 8767/ 90600 333 10060 20051=
07434,1996-01-11 09:00:00,6,1004,-1.6,81,3,20000,25.928,,,190,,,,0,,,,,,,wg-a,,,,AAXX 11094 07434 12770 61914 10060 20030 39562 40040 56016 60007 83570 90900=
07434,1996-01-11 12:00:00,8,1001.3,-2.3,76,4,20000,25.928,,,160,,,,,,,,,,3,wg-a,,,,AAXX 11124 07434 02670 71614 10080 20040 39539 40013 58023 61000 70362 8557/ 91200 333 6100=
07434,1996-01-11 15:00:00,9,999.7,-1.3,71,4,500,22.224,,,170,,,,0,,,,,,60,wg-a,,,,AAXX 11154 07434 12600 71712 10090 20040 39526 49997 56013 60007 76062 8657/ 91500=
07434,1996-01-11 18:00:00,8,1000.8,0.8,87,6,8000,18.52,,,180,5.4,9,,3,,,,,,61,wg-a,,,,AAXX 11184 07434 12458 71810 10080 20060 39534 40008 51008 60037 76162 875// 91800 333 10090 20054=
07434,1996-01-11 21:00:00,7,1001.2,0.4,93,6,15000,18.52,,,180,,,,6,,,,,,60,wg-a,,,,AAXX 11214 07434 12365 71810 10070 20060 39538 40012 51004 60067 76066 875// 92100=
07434,1996-01-12 00:00:00,7,1001.1,-0.2,93,6,500,14.816,,,180,,,,,,,,,,1,wg-a,,,,AAXX 12004 07434 02400 71808 10070 20060 39536 40011 57002 60066 70162 8553/ 90000 333 61000=
07434,1996-01-12 03:00:00,7,1000.9,-0.2,93,6,8000,11.112,,,240,,,,1,,,,,,61,wg-a,,,,AAXX 12034 07434 12558 72406 10070 20060 39534 40009 55002 60017 76162 875// 90300=
07434,1996-01-12 06:00:00,7,1000.5,-0.4,93,6,6000,7.408,,,290,6.6,7.4,,2,,,12,,,80,wg-a,,,,AAXX 12064 07434 02256 72904 10070 20060 39530 40005 55004 60124 78086 875// 90600 333 10074 20066 60027=
07434,1996-01-12 09:00:00,6,1001.9,1.3,100,6,8000,3.704,,,300,,,,3,,,,,,1,wg-a,,,,AAXX 12094 07434 12458 73002 10060 20060 39543 40019 53013 60037 70186 875// 90900=
07434,1996-01-12 12:00:00,8,1003.6,1.9,93,7,4000,7.408,,,190,,,,,,,,,,10,wg-a,,,,AAXX 12124 07434 12340 /1904 10080 20070 39562 40036 53019 60036 71086 8467/ 91200=
07434,1996-01-12 15:00:00,10,1004.5,1.2,76,6,15000,14.816,,,230,,,,,,,,,,,wg-a,,,,AAXX 12154 07434 12465 42308 10100 20060 39574 40045 53012 60006 84201 91500=
07434,1996-01-12 18:00:00,7,1008.2,3,87,5,15000,11.112,,,210,5.6,10.2,,,,,,,,,wg-a,,,,AAXX 12184 07434 32465 32106 10070 20050 39604 40082 51030 83201 91800 333 10102 20056=
07434,1996-01-12 21:00:00,6,1010.8,2.3,93,5,15000,7.408,,,190,,,,,,,,,,,wg-a,,,,AAXX 12214 07434 12465 /1904 10060 20050 39627 40108 51023 60006 85500 92100=
07434,1996-01-13 00:00:00,5,1012.4,1.4,100,5,15000,11.112,,,210,,,,,,,,,,,wg-a,,,,AAXX 13004 07434 12465 /2106 10050 20050 39641 40124 51014 60006 83530 90000=
07434,1996-01-13 03:00:00,5,1013.8,1.3,100,5,500,7.408,,,190,,,,,,,,,,47,wg-a,,,,AAXX 13034 07434 12/05 91904 10050 20050 39654 40138 51013 60006 74742 89/// 90300=
07434,1996-01-13 06:00:00,6,1015.3,1.5,93,5,400,3.704,,,150,4.7,7.3,,,,,3,,,45,wg-a,,,,AAXX 13064 07434 02/04 91502 10060 20050 39669 40153 53015 60006 74542 89/// 90600 333 10073 20047 60034=
07434,1996-01-13 09:00:00,6,1016.7,1.4,100,6,700,11.112,,,190,,,,,,,,,,43,wg-a,,,,AAXX 13094 07434 12/07 91906 10060 20060 39683 40167 53014 60006 74344 89/// 90900=
07434,1996-01-13 12:00:00,7,1016.8,0.3,100,7,7000,11.112,,,150,,,,,,,,,,1,wg-a,,,,AAXX 13124 07434 12157 71506 10070 20070 39686 40168 50003 60006 70142 876// 91200=
07434,1996-01-13 15:00:00,10,1015.4,-0.9,76,6,25000,11.112,,,190,,,,,,,,,,,wg-a,,,,AAXX 13154 07434 12475 41906 10100 20060 39677 40154 55009 60006 84800 91500=
07434,1996-01-13 18:00:00,7,1015.9,-0,87,5,25000,11.112,,,140,5.7,9.6,,,,,,,,,wg-a,,,,AAXX 13184 07434 12/75 11406 10070 20050 39677 40159 54000 60006 81031 91800 333 10096 20057=
07434,1996-01-13 21:00:00,7,1015.5,-0.4,87,5,25000,11.112,,,130,,,,,,,,,,,wg-a,,,,AAXX 13214 07434 12/75 11306 10070 20050 39673 40155 57004 60006 81031 92100=
07434,1996-01-14 00:00:00,7,1014.7,-0.7,87,5,25000,11.112,,,140,,,,,,,,,,,wg-a,,,,AAXX 14004 07434 12/75 11406 10070 20050 39666 40147 58007 60006 81031 90000=
07434,1996-01-14 03:00:00,8,1013.5,-1,81,5,25000,14.816,,,140,,,,,,,,,,,wg-a,,,,AAXX 14034 07434 12/75 11408 10080 20050 39656 40135 56010 60006 81031 90300=
07434,1996-01-14 06:00:00,8,1013.2,-0.3,81,5,25000,14.816,,,130,6.5,8,,,,,,,,,wg-a,,,,AAXX 14064 07434 02/75 11308 10080 20050 39653 40132 55003 60006 81031 90600 333 10080 20065 60004=
07434,1996-01-14 09:00:00,10,1013.4,0.6,76,6,40000,14.816,,,140,,,,,,,,,,,wg-a,,,,AAXX 14094 07434 12/82 41408 10100 20060 39659 40134 51006 60006 80001 90900=
07434,1996-01-14 12:00:00,14,1012.6,-0.2,63,7,60000,29.632,,,170,,,,,,,,,,,wg-a,,,,AAXX 14124 07434 12786 61716 10140 20070 39657 40126 58002 60006 81132 91200=
07434,1996-01-14 15:00:00,13,1013,0.2,67,7,60000,22.224,,,160,,,,,,,,,,,wg-a,,,,AAXX 14154 07434 12686 71612 10130 20070 39659 40130 53002 60006 81132 91500=
07434,1996-01-14 18:00:00,12,1014.7,1.4,67,6,500,11.112,,,140,7.8,13.9,,,,,,,,,wg-a,,,,AAXX 14184 07434 12/00 71406 10120 20060 39673 40147 53014 60006 83032 91800 333 10139 20078=
07434,1996-01-14 21:00:00,10,1016.6,1.6,76,6,10000,14.816,,,130,,,,,,,,,,,wg-a,,,,AAXX 14214 07434 12/60 /1308 10100 20060 39689 40166 51016 60006 92100=
07434,1996-01-15 00:00:00,10,1017.4,0.7,76,6,15000,11.112,,,120,,,,,,,,,,,wg-a,,,,AAXX 15004 07434 12/65 61206 10100 20060 39696 40174 52007 60006 83032 90000=
07434,1996-01-15 06:00:00,10,1019.8,0.9,76,6,15000,11.112,,,100,9.1,11.5,,,,,,,,,wg-a,,,,AAXX 15064 07434 02/65 31006 10100 20060 39718 40198 52009 60006 81031 90600 333 10115 20091 60004=
07434,1996-01-15 09:00:00,11,1021.5,1.9,71,6,500,11.112,,,90,,,,,,,,,,,wg-a,,,,AAXX 15094 07434 12/00 50906 10110 20060 39737 40215 51019 60006 81031 90900=
07434,1996-01-15 12:00:00,13,1022.1,0.9,67,7,40000,11.112,,,140,,,,,,,,,,,wg-a,,,,AAXX 15124 07434 12/82 51406 10130 20070 39746 40221 51009 60006 81031 91200=
07434,1996-01-15 15:00:00,14,1021.8,-0,63,7,40000,7.408,,,170,,,,,,,,,,,wg-a,,,,AAXX 15154 07434 12682 /1704 10140 20070 39746 40218 55000 60006 81102 91500=
07434,1996-01-15 18:00:00,12,1023.2,0.9,71,7,25000,3.704,,,40,9.4,15,,,,,,,,,wg-a,,,,AAXX 15184 07434 12775 40402 10120 20070 39755 40232 51009 60006 815/1 91800 333 10150 20094=
07434,1996-01-15 21:00:00,10,1025.4,1.8,76,6,20000,3.704,,,70,,,,,,,,,,,wg-a,,,,AAXX 15214 07434 12/70 40702 10100 20060 39773 40254 53018 60006 80001 92100=
07434,1996-01-16 00:00:00,9,1025.9,0.3,81,6,15000,3.704,,,90,,,,,,,,,,,wg-a,,,,AAXX 16004 07434 12/65 20902 10090 20060 39776 40259 51003 60006 80001 90000=
07434,1996-01-16 03:00:00,8,1026.8,0.6,81,5,15000,3.704,,,110,,,,,,,,,,,wg-a,,,,AAXX 16034 07434 12/65 11102 10080 20050 39782 40268 53006 60006 80001 90300=
07434,1996-01-16 06:00:00,6,1027,-0,93,5,10000,7.408,,,50,6.2,11.8,,,,,,,,,wg-a,,,,AAXX 16064 07434 02/60 30504 10060 20050 39782 40270 55000 60006 80001 90600 333 10118 20062 60004=
07434,1996-01-16 09:00:00,7,1027.9,1,87,5,6000,3.704,,,80,,,,,,,,,,,wg-a,,,,AAXX 16094 07434 12/56 /0802 10070 20050 39792 40279 51010 60006 81031 90900=
07434,1996-01-16 12:00:00,12,1026.5,-0.5,71,7,12000,7.408,,,150,,,,,,,,,,,wg-a,,,,AAXX 16124 07434 12/62 51504 10120 20070 39787 40265 58005 60006 81032 91200=
07434,1996-01-16 15:00:00,13,1025.3,-1,67,7,15000,7.408,,,80,,,,,,,,,,,wg-a,,,,AAXX 16154 07434 12665 /0804 10130 20070 39777 40253 56010 60006 81832 91500=
07434,1996-01-16 18:00:00,11,1026.2,0.5,71,6,12000,7.408,,,30,5.9,13.4,,,,,,,,,wg-a,,,,AAXX 16184 07434 12662 70304 10110 20060 39782 40262 53005 60006 875// 91800 333 10134 20059=
07434,1996-01-16 21:00:00,9,1026.7,0.2,81,6,12000,7.408,,,60,,,,,,,,,,,wg-a,,,,AAXX 16214 07434 12662 50604 10090 20060 39784 40267 50002 60006 84502 92100=
07434,1996-01-17 00:00:00,7,1026.3,-0.7,87,5,10000,7.408,,,70,,,,,,,,,,,wg-a,,,,AAXX 17004 07434 12/60 30704 10070 20050 39777 40263 57007 60006 81032 90000=
07434,1996-01-17 03:00:00,6,1025.9,-0.7,87,4,10000,11.112,,,50,,,,,,,,,,,wg-a,,,,AAXX 17034 07434 12/60 40506 10060 20040 39770 40259 58007 60006 81032 90300=
07434,1996-01-17 06:00:00,5,1025.9,-0.1,81,2,12000,14.816,,,50,4.5,11.3,,,,,,,,,wg-a,,,,AAXX 17064 07434 02/62 30508 10050 20020 39769 40259 57001 60006 80002 90600 333 10113 20045 60004=
07434,1996-01-17 09:00:00,6,1026,0.3,81,3,10000,11.112,,,50,,,,,,,,,,,wg-a,,,,AAXX 17094 07434 12660 40506 10060 20030 39772 40260 51003 60006 84502 90900=
07434,1996-01-17 12:00:00,10,1024.5,-0.9,66,4,15000,7.408,,,120,,,,,,,,,,,wg-a,,,,AAXX 17124 07434 12665 /1204 10100 20040 39763 40245 58009 60006 86500 91200=
07434,1996-01-17 15:00:00,10,1023,-1.3,71,5,12000,11.112,,,140,,,,,,,,,,,wg-a,,,,AAXX 17154 07434 12662 71406 10100 20050 39750 40230 56013 60006 875// 91500=
07434,1996-01-17 18:00:00,8,1023.1,-0.4,71,3,15000,7.408,,,130,4.9,10.2,,,,,,,,,wg-a,,,,AAXX 17184 07434 12665 /1304 10080 20030 39746 40231 58004 60006 86801 91800 333 10102 20049=
07434,1996-01-17 21:00:00,6,1023.5,0.1,70,1,15000,7.408,,,110,,,,,,,,,,,wg-a,,,,AAXX 17214 07434 12/65 11104 10060 20010 39747 40235 50001 60006 80001 92100=
07434,1996-01-18 00:00:00,4,1023.6,-0.3,65,-2,15000,11.112,,,130,,,,,,,,,,,wg-a,,,,AAXX 18004 07434 12/65 01306 10040 21020 39744 40236 57003 60006 80000 90000=
07434,1996-01-18 03:00:00,4,1023.1,-0.5,65,-2,15000,11.112,,,120,,,,,,,,,,,wg-a,,,,AAXX 18034 07434 12/65 01206 10040 21020 39739 40231 57005 60006 80000 90300=
07434,1996-01-18 06:00:00,3,1022.8,-0.4,70,-2,15000,11.112,,,130,3,7.5,,,,,,,,,wg-a,,,,AAXX 18064 07434 02/65 11306 10030 21020 39735 40228 55004 60006 80001 90600 333 10075 20030 60004=
07434,1996-01-18 09:00:00,4,1022.6,0.1,70,-1,20000,11.112,,,130,,,,,,,,,,,wg-a,,,,AAXX 18094 07434 12/70 51306 10040 21010 39736 40226 53001 60006 80002 90900=
07434,1996-01-18 12:00:00,8,1021.2,-0.8,61,1,500,18.52,,,170,,,,,,,,,,,wg-a,,,,AAXX 18124 07434 12/00 61710 10080 20010 39728 40212 58008 60006 80002 91200=
07434,1996-01-18 15:00:00,9,1019.8,-1,61,2,500,14.816,,,170,,,,,,,,,,,wg-a,,,,AAXX 18154 07434 12/00 61708 10090 20020 39718 40198 56010 60006 80001 91500=
07434,1996-01-18 18:00:00,6,1020.7,0.3,70,1,25000,7.408,,,140,3,9.7,,,,,,,,,wg-a,,,,AAXX 18184 07434 12/75 31404 10060 20010 39721 40207 53003 60006 80001 91800 333 10097 20030=
07434,1996-01-18 21:00:00,5,1020.8,-0.1,70,0,25000,3.704,,,100,,,,,,,,,,,wg-a,,,,AAXX 18214 07434 12/75 31002 10050 20000 39720 40208 56001 60006 80001 92100=
07434,1996-01-19 00:00:00,3,1020.6,-0.5,81,0,25000,7.408,,,100,,,,,,,,,,,wg-a,,,,AAXX 19004 07434 12/75 31004 10030 20000 39715 40206 58005 60006 80001 90000=
07434,1996-01-19 03:00:00,2,1019.7,-1.1,80,-1,20000,7.408,,,90,,,,,,,,,,,wg-a,,,,AAXX 19034 07434 12/70 20904 10020 21010 39704 40197 58011 60006 80001 90300=
07434,1996-01-19 06:00:00,1,1018.3,-1.5,86,-1,20000,11.112,,,90,0.8,6.4,,,,,,,,,wg-a,,,,AAXX 19064 07434 02/70 20906 10010 21010 39689 40183 58015 60006 80001 90600 333 10064 20008 60004=
07434,1996-01-19 09:00:00,3,1017.3,-0.7,81,0,10000,11.112,,,60,,,,,,,,,,,wg-a,,,,AAXX 19094 07434 12760 20606 10030 20000 39682 40173 58007 60006 81501 90900=
07434,1996-01-19 12:00:00,8,1014.6,-1.6,66,2,18000,11.112,,,150,,,,,,,,,,,wg-a,,,,AAXX 19124 07434 12/68 11506 10080 20020 39666 40146 58016 60006 80001 91200=
07434,1996-01-19 18:00:00,7,1011.6,-0.8,70,2,20000,7.408,,,140,0.4,9.6,,,,,,,,,wg-a,,,,AAXX 19184 07434 12/70 11404 10070 20020 39635 40116 56008 60006 80001 91800 333 10096 20004=
07434,1996-01-19 21:00:00,5,1011,-0.8,81,2,20000,7.408,,,110,,,,,,,,,,,wg-a,,,,AAXX 19214 07434 12/70 11104 10050 20020 39627 40110 56008 60006 80001 92100=
07434,1996-01-20 00:00:00,3,1010.2,-1.1,87,1,20000,11.112,,,120,,,,,,,,,,,wg-a,,,,AAXX 20004 07434 12/70 01206 10030 20010 39616 40102 57011 60006 80000 90000=
07434,1996-01-20 03:00:00,3,1009.4,-0.9,81,0,20000,11.112,,,120,,,,,,,,,,,wg-a,,,,AAXX 20034 07434 12/70 01206 10030 20000 39607 40094 56009 60006 80000 90300=
07434,1996-01-20 06:00:00,3,1008.3,-1,81,0,20000,11.112,,,100,2.3,6.7,,,,,,,,,wg-a,,,,AAXX 20064 07434 02/70 21006 10030 20000 39597 40083 58010 60006 82030 90600 333 10067 20023 60004=
07434,1996-01-20 09:00:00,5,1007.7,-0.1,75,1,20000,11.112,,,130,,,,,,,,,,,wg-a,,,,AAXX 20094 07434 12/70 31306 10050 20010 39596 40077 55001 60006 8/030 90900=
07434,1996-01-20 12:00:00,8,1006,-1.1,66,2,10000,18.52,,,140,,,,,,,,,,,wg-a,,,,AAXX 20124 07434 12/60 /1410 10080 20020 39585 40060 58011 60006 86030 91200=
07434,1996-01-20 15:00:00,11,1004.6,-0.9,58,3,40000,11.112,,,180,,,,,,,,,,,wg-a,,,,AAXX 20154 07434 12/82 21806 10110 20030 39576 40046 56009 60006 81031 91500=
07434,1996-01-20 18:00:00,9,1005.5,0.4,66,3,20000,7.408,,,80,2.7,11.4,,,,,,,,,wg-a,,,,AAXX 20184 07434 12670 60804 10090 20030 39580 40055 53004 60006 84531 91800 333 10114 20027=
07434,1996-01-20 21:00:00,7,1006.6,0.8,76,3,20000,14.816,,,110,,,,,,,,,,,wg-a,,,,AAXX 20214 07434 12/70 11108 10070 20030 39588 40066 52008 60006 80001 92100=
07434,1996-01-21 00:00:00,7,1006.8,0.2,70,2,20000,11.112,,,110,,,,,,,,,,,wg-a,,,,AAXX 21004 07434 12/70 01106 10070 20020 39590 40068 53002 60006 80000 90000=
07434,1996-01-21 03:00:00,6,1006.7,-0.2,75,2,20000,7.408,,,90,,,,,,,,,,,wg-a,,,,AAXX 21034 07434 12/70 00904 10060 20020 39588 40067 55002 60006 80000 90300=
07434,1996-01-21 06:00:00,6,1006.5,-0.2,75,2,20000,11.112,,,90,5.9,8.8,,,,,,,,,wg-a,,,,AAXX 21064 07434 02/70 00906 10060 20020 39586 40065 55002 60006 80000 90600 333 10088 20059 60004=
07434,1996-01-21 09:00:00,8,1007,0.8,71,3,60000,18.52,,,130,,,,,,,,,,,wg-a,,,,AAXX 21094 07434 12/86 61310 10080 20030 39594 40070 53008 60006 80002 90900=
07434,1996-01-21 12:00:00,12,1005.3,-1,54,3,60000,25.928,,,150,,,,,,,,,,,wg-a,,,,AAXX 21124 07434 12686 /1514 10120 20030 39584 40053 58010 60006 81102 91200=
07434,1996-01-21 15:00:00,12,1004.8,-0.5,58,4,60000,29.632,,53.708,140,,,,,,,,,,,wg-a,,,,AAXX 21154 07434 12686 /1416 10120 20040 39579 40048 55005 60006 81102 91500 333 91029=
07434,1996-01-21 18:00:00,10,1005.4,0.3,62,3,50000,18.52,,,130,6.4,12.9,,,,,,,,,wg-a,,,,AAXX 21184 07434 12/84 71310 10100 20030 39582 40054 52003 60006 80002 91800 333 10129 20064=
07434,1996-01-21 21:00:00,10,1005,-0.5,62,3,40000,22.224,,,140,,,,,,,,,,,wg-a,,,,AAXX 21214 07434 12/82 71412 10100 20030 39577 40050 57005 60006 82032 92100=
07434,1996-01-22 00:00:00,10,1005,-0.5,62,3,40000,22.224,,38.892,140,,,,,,,,,,,wg-a,,,,AAXX 22004 07434 12/82 71412 10100 20030 39577 40050 57005 60006 82032 90000 333 91021=
07434,1996-01-22 03:00:00,11,1002.2,-2.1,62,4,40000,25.928,,,140,,,,,,,,,,,wg-a,,,,AAXX 22034 07434 12/82 71414 10110 20040 39552 40022 56021 60006 85032 90300=
07434,1996-01-22 06:00:00,11,1001.7,-0.4,62,4,500,25.928,,,150,9.2,11.1,,,,,,,,,wg-a,,,,AAXX 22064 07434 02600 71514 10110 20040 39548 40017 55004 60006 83532 90600 333 10111 20092 60004=
07434,1996-01-22 09:00:00,12,1001,-0.5,58,4,50000,25.928,,,130,,,,,,,,,,,wg-a,,,,AAXX 22094 07434 12584 71314 10120 20040 39543 40010 56005 60006 8387/ 90900=
07434,1996-01-22 12:00:00,12,1000.7,-0.3,67,6,18000,29.632,,,160,,,,,,,,,,61,wg-a,,,,AAXX 22124 07434 02568 81616 10120 20060 39540 40007 56003 61000 76162 8587/ 91200 333 6100=
07434,1996-01-22 15:00:00,7,1002.9,1.4,93,6,2000,14.816,,,270,,,,4,,,,,,10,wg-a,,,,AAXX 22154 07434 12420 82708 10070 20060 39554 40029 53014 60047 71086 879// 91500=
07434,1996-01-22 18:00:00,7,1002.9,0,100,7,500,11.112,,,50,7,12.6,,6,,,,,,10,wg-a,,,,AAXX 22184 07434 12400 80506 10070 20070 39554 40029 50000 60067 71086 8587/ 91800 333 10126 20070=
07434,1996-01-22 21:00:00,9,1001.7,-0.8,87,7,15000,14.816,,,120,,,,0,,,,,,1,wg-a,,,,AAXX 22214 07434 12665 81208 10090 20070 39546 40017 56008 60007 70162 878// 92100=
07434,1996-01-23 00:00:00,8,999.9,-2,93,7,12000,7.408,,,80,,,,3,,,,,,61,wg-a,,,,AAXX 23004 07434 02562 80804 10080 20070 39526 49999 56020 60036 76162 875// 90000 333 60037=
07434,1996-01-23 03:00:00,9,997.9,-1.7,81,6,25000,11.112,,,120,,,,0,,,,,,1,wg-a,,,,AAXX 23034 07434 12575 71206 10090 20060 39509 49979 58017 60007 70162 875// 90300=
07434,1996-01-23 06:00:00,11,995.8,-1.7,71,6,25000,29.632,,,160,7,11.2,,,,,13,,,3,wg-a,,,,AAXX 23064 07434 12575 71616 10110 20060 39492 49958 56017 60134 70362 8557/ 90600 333 10112 20070=
07434,1996-01-23 09:00:00,6,998.7,2,93,5,6000,38.892,,51.856,220,,,,1,,,,,,61,wg-a,,,,AAXX 23094 07434 12456 82221 10060 20050 39512 49987 53020 60017 76162 8657/ 90900 333 91028=
07434,1996-01-23 12:00:00,8,998.2,-0.3,81,5,500,14.816,,,140,,,,4,,,,,,3,wg-a,,,,AAXX 23124 07434 02400 61408 10080 20050 39509 49982 56003 60056 70362 84831 91200 333 60047=
07434,1996-01-23 15:00:00,11,996.8,-0.8,54,2,50000,18.52,,,180,,,,,,,,,,,wg-a,,,,AAXX 23154 07434 12584 /1810 10110 20020 39501 49968 56008 60006 85802 91500=
07434,1996-01-23 18:00:00,10,999,2,50,0,500,35.188,,,210,5.5,11.4,,,,,,,,,wg-a,,,,AAXX 23184 07434 32500 72119 10100 20000 39521 49990 52020 8687/ 91800 333 10114 20055=
07434,1996-01-23 21:00:00,9,1000.7,1.3,53,0,20000,14.816,,,180,,,,,,,,,,,wg-a,,,,AAXX 23214 07434 12770 31808 10090 20000 39534 40007 53013 60006 8353/ 92100=
07434,1996-01-24 00:00:00,7,1001.2,0.3,70,2,20000,18.52,,,190,,,,,,,,,,,wg-a,,,,AAXX 24004 07434 12/70 01910 10070 20020 39537 40012 50003 60006 80000 90000=
07434,1996-01-24 03:00:00,6,1001.8,0.4,87,4,15000,7.408,,,110,,,,,,,,,,,wg-a,,,,AAXX 24034 07434 12765 31104 10060 20040 39541 40018 53004 60006 83500 90300=
07434,1996-01-24 06:00:00,5,1001.7,-0.2,87,3,15000,3.704,,,80,5.4,10.9,,,,,5,,,,wg-a,,,,AAXX 24064 07434 02765 20802 10050 20030 39539 40017 55002 60006 82500 90600 333 10109 20054 60054=
07434,1996-01-24 09:00:00,6,1002.3,0.6,81,3,500,11.112,,,70,,,,,,,,,,,wg-a,,,,AAXX 24094 07434 12/00 70706 10060 20030 39545 40023 53006 60006 82032 90900=
07434,1996-01-24 12:00:00,9,1001.6,-0.1,66,3,50000,11.112,,,90,,,,,,,,,,,wg-a,,,,AAXX 24124 07434 12584 70906 10090 20030 39544 40016 58001 60006 81132 91200=
07434,1996-01-24 15:00:00,11,1000.2,-1,58,3,35000,7.408,,,100,,,,,,,,,,,wg-a,,,,AAXX 24154 07434 12581 71004 10110 20030 39534 40002 55010 60006 83882 91500=
07434,1996-01-24 18:00:00,9,1000.8,0.2,66,3,25000,11.112,,,40,5,11,,,,,,,,,wg-a,,,,AAXX 24184 07434 12475 70406 10090 20030 39536 40008 51002 60006 84582 91800 333 10110 20050=
07434,1996-01-24 21:00:00,8,1000.5,-0.4,66,2,10000,14.816,,,50,,,,,,,,,,,wg-a,,,,AAXX 24214 07434 12/60 /0508 10080 20020 39532 40005 57004 60006 92100=
07434,1996-01-25 00:00:00,6,1000.4,-0.4,87,4,10000,11.112,,,40,,,,3,,,,,,61,wg-a,,,,AAXX 25004 07434 02560 80406 10060 20040 39528 40004 58004 60036 76162 875// 90000 333 60037=
07434,1996-01-25 03:00:00,6,999.9,-0.4,87,4,25000,7.408,,,80,,,,0,,,,,,21,wg-a,,,,AAXX 25034 07434 12675 70804 10060 20040 39524 49999 57004 60007 72162 86501 90300=
07434,1996-01-25 06:00:00,6,1000,-0,87,4,25000,0,,,0,5.5,8.7,,,,,3,,,3,wg-a,,,,AAXX 25064 07434 12575 70000 10060 20040 39524 40000 55000 60034 70362 875// 90600 333 10087 20055=
07434,1996-01-25 09:00:00,7,1001,1.1,81,4,40000,7.408,,,100,,,,,,,,,,,wg-a,,,,AAXX 25094 07434 12682 71004 10070 20040 39535 40010 53011 60006 8453/ 90900=
07434,1996-01-25 12:00:00,8,1000.8,0,71,3,500,7.408,,,170,,,,,,,,,,,wg-a,,,,AAXX 25124 07434 12500 71704 10080 20030 39535 40008 50000 60006 878// 91200=
07434,1996-01-25 18:00:00,7,1002.7,1.6,81,4,15000,3.704,,,320,6.2,9.5,,,,,,,,,wg-a,,,,AAXX 25184 07434 12465 73202 10070 20040 39551 40027 53016 60006 878// 91800 333 10095 20062=
07434,1996-01-25 21:00:00,6,1004.6,1.6,87,4,12000,3.704,,,260,,,,1,,,,,,60,wg-a,,,,AAXX 25214 07434 12462 82602 10060 20040 39567 40046 52016 60017 76062 875// 92100=
07434,1996-01-26 00:00:00,5,1005.3,0.6,93,4,20000,7.408,,,320,,,,0,,,,,,3,wg-a,,,,AAXX 26004 07434 02570 83204 10050 20040 39573 40053 53006 60016 70386 875// 90000 333 60007=
07434,1996-01-26 03:00:00,5,1005.9,0.5,93,4,15000,7.408,,,210,,,,,,,,,,,wg-a,,,,AAXX 26034 07434 12565 82104 10050 20040 39578 40059 53005 60006 875// 90300=
07434,1996-01-26 06:00:00,5,1006.5,0.6,93,4,8000,7.408,,,210,4.7,6.7,,,,,1,,,50,wg-a,,,,AAXX 26064 07434 02258 82104 10050 20040 39584 40065 53006 60014 75052 887// 90600 333 10067 20047 61000=
07434,1996-01-26 09:00:00,4,1007.7,1.1,100,4,2000,7.408,,,140,,,,,,,,,,10,wg-a,,,,AAXX 26094 07434 02120 81404 10040 20040 39595 40077 51011 61000 71052 877// 90900 333 ////=
07434,1996-01-26 12:00:00,6,1007.7,0.3,87,4,500,7.408,,,150,,,,,,,,,,1,wg-a,,,,AAXX 26124 07434 02300 /1504 10060 20040 39598 40077 50003 61000 70152 86800 91200 333 ////=
07434,1996-01-26 15:00:00,8,1007.1,-0.4,81,5,11000,11.112,,,190,,,,,,,,,,,wg-a,,,,AAXX 26154 07434 12/61 /1906 10080 20050 39594 40071 55004 60006 91500=
07434,1996-01-26 18:00:00,7,1008,0.7,87,5,10000,7.408,,,170,4.3,7.5,,,,,,,,,wg-a,,,,AAXX 26184 07434 32360 71704 10070 20050 39601 40080 53007 878// 91800 333 10075 20043=
07434,1996-01-26 21:00:00,6,1008.9,0.8,93,5,10000,7.408,,,150,,,,0,,,,,,1,wg-a,,,,AAXX 26214 07434 12560 71504 10060 20050 39609 40089 51008 60007 70162 8683/ 92100=
07434,1996-01-27 00:00:00,5,1009.3,0.2,93,4,20000,11.112,,,150,,,,,,,,,,3,wg-a,,,,AAXX 27004 07434 12570 71506 10050 20040 39611 40093 50002 60006 70362 878// 90000=
07434,1996-01-27 03:00:00,5,1009,-0.3,93,4,20000,7.408,,,130,,,,,,,,,,,wg-a,,,,AAXX 27034 07434 12570 61304 10050 20040 39608 40090 58003 60006 8383/ 90300=
07434,1996-01-27 06:00:00,5,1009.3,0.3,93,4,10000,7.408,,,110,4.4,6.7,,,,,,,,21,wg-a,,,,AAXX 27064 07434 02560 71104 10050 20040 39611 40093 51003 60004 72162 878// 90600 333 10067 20044 61000=
07434,1996-01-27 09:00:00,6,1010.7,1.4,81,3,10000,14.816,,,130,,,,,,,,,,,wg-a,,,,AAXX 27094 07434 12760 51308 10060 20030 39625 40107 51014 60006 85500 90900=
07434,1996-01-27 12:00:00,10,1009.6,-0.3,66,4,40000,14.816,,,150,,,,,,,,,,,wg-a,,,,AAXX 27124 07434 12/82 31508 10100 20040 39622 40096 58003 60006 81031 91200=
07434,1996-01-27 15:00:00,12,1008.6,-0.7,54,3,40000,11.112,,,140,,,,,,,,,,,wg-a,,,,AAXX 27154 07434 12682 /1406 10120 20030 39615 40086 56007 60006 82101 91500=
07434,1996-01-27 18:00:00,9,1009.9,0.8,61,2,11000,7.408,,,100,4.8,11.7,,,,,,,,,wg-a,,,,AAXX 27184 07434 12/61 /1004 10090 20020 39623 40099 51008 60006 91800 333 10117 20048=
07434,1996-01-28 00:00:00,5,1010.1,-0.4,81,2,15000,14.816,,,80,,,,,,,,,,,wg-a,,,,AAXX 28004 07434 12/65 20808 10050 20020 39619 40101 55004 60006 80001 90000=
07434,1996-01-28 03:00:00,5,1008.9,-1.2,75,1,15000,18.52,,,70,,,,,,,,,,,wg-a,,,,AAXX 28034 07434 12/65 20710 10050 20010 39607 40089 58012 60006 80001 90300=
07434,1996-01-28 06:00:00,5,1007.4,-1.4,75,1,15000,18.52,,,70,4.6,9.1,,,,,,,,,wg-a,,,,AAXX 28064 07434 02/65 40710 10050 20010 39593 40074 56014 60006 80001 90600 333 10091 20046 60004=
07434,1996-01-28 09:00:00,7,1007,-0.1,70,2,40000,18.52,,,90,,,,,,,,,,,wg-a,,,,AAXX 28094 07434 12782 70910 10070 20020 39592 40070 58001 60006 81538 90900=
07434,1996-01-28 12:00:00,10,1005.9,-0.5,71,5,500,22.224,,42.596,140,,,,,,,,,,,wg-a,,,,AAXX 28124 07434 12700 71412 10100 20050 39587 40059 58005 60006 8157/ 91200 333 91023=
07434,1996-01-28 15:00:00,8,1005.6,-0.6,87,6,12000,14.816,,,90,,,,2,,,,,,61,wg-a,,,,AAXX 28154 07434 12562 80908 10080 20060 39581 40056 56006 60027 76162 875// 91500=
07434,1996-01-28 18:00:00,7,1005.7,-0,93,6,20000,14.816,,,100,5.1,10.4,,1,,,,,,21,wg-a,,,,AAXX 28184 07434 12670 71008 10070 20060 39581 40057 55000 60017 72162 875// 91800 333 10104 20051=
07434,1996-01-29 00:00:00,6,1006.4,0.2,87,4,20000,7.408,,,90,,,,,,,,,,,wg-a,,,,AAXX 29004 07434 12670 /0904 10060 20040 39585 40064 53002 60006 8253/ 90000=
07434,1996-01-29 03:00:00,6,1006.3,-0.1,87,4,15000,3.704,,,80,,,,,,,,,,,wg-a,,,,AAXX 29034 07434 12565 70802 10060 20040 39584 40063 57001 60006 875// 90300=
07434,1996-01-29 06:00:00,7,1006.8,0.6,81,4,15000,7.408,,,110,4.9,7.4,,,,,3,,,,wg-a,,,,AAXX 29064 07434 02665 71104 10070 20040 39590 40068 52006 60006 8557/ 90600 333 10074 20049 60034=
07434,1996-01-29 09:00:00,8,1008.4,1.7,76,4,60000,7.408,,,120,,,,,,,,,,,wg-a,,,,AAXX 29094 07434 12686 71204 10080 20040 39607 40084 51017 60006 85531 90900=
07434,1996-01-29 12:00:00,10,1008.3,0.3,71,5,50000,11.112,,,140,,,,,,,,,,,wg-a,,,,AAXX 29124 07434 12684 71406 10100 20050 39610 40083 50003 60006 878// 91200=
07434,1996-01-29 15:00:00,11,1008.7,0.5,71,6,50000,7.408,,,90,,,,,,,,,,,wg-a,,,,AAXX 29154 07434 12684 70904 10110 20060 39615 40087 53005 60006 878// 91500=
07434,1996-01-29 18:00:00,10,1010.4,1.5,82,7,25000,7.408,,,50,6.3,11.8,,,,,,,,,wg-a,,,,AAXX 29184 07434 12675 70504 10100 20070 39630 40104 53015 60006 8557/ 91800 333 10118 20063=
07434,1996-01-29 21:00:00,9,1011.9,1.2,81,6,25000,3.704,,,110,,,,,,,,,,,wg-a,,,,AAXX 29214 07434 12775 71102 10090 20060 39642 40119 51012 60006 875// 92100=
07434,1996-01-30 00:00:00,8,1013.2,1.1,81,5,25000,3.704,,,100,,,,,,,,,,,wg-a,,,,AAXX 30004 07434 12775 71002 10080 20050 39653 40132 51011 60006 8453/ 90000=
07434,1996-01-30 03:00:00,8,1013.9,0.6,76,4,20000,7.408,,,60,,,,,,,,,,,wg-a,,,,AAXX 30034 07434 12770 70604 10080 20040 39659 40139 51006 60006 875// 90300=
07434,1996-01-30 06:00:00,8,1014.7,0.8,71,3,20000,14.816,,,60,7.3,10.3,,,,,,,,,wg-a,,,,AAXX 30064 07434 02770 50608 10080 20030 39667 40147 53008 60006 82530 90600 333 10103 20073 60004=
07434,1996-01-30 09:00:00,8,1016.1,1.4,76,4,50000,7.408,,,80,,,,,,,,,,,wg-a,,,,AAXX 30094 07434 12784 40804 10080 20040 39681 40161 52014 60006 835/1 90900=
07434,1996-01-30 12:00:00,13,1015.8,0.5,54,4,500,11.112,,,90,,,,,,,,,,,wg-a,,,,AAXX 30124 07434 12/00 30906 10130 20040 39686 40158 50005 60006 81031 91200=
07434,1996-01-30 15:00:00,14,1015.1,-0.6,47,3,50000,14.816,,,20,,,,,,,,,,,wg-a,,,,AAXX 30154 07434 12/84 20208 10140 20030 39680 40151 55006 60006 80001 91500=
07434,1996-01-30 18:00:00,8,1016.3,0.2,61,1,40000,14.816,,,10,6.9,15,,,,,,,,,wg-a,,,,AAXX 30184 07434 12/82 20108 10080 20010 39682 40163 51002 60006 80001 91800 333 10150 20069=
07434,1996-01-30 21:00:00,5,1017.2,0.4,75,1,15000,14.816,,,60,,,,,,,,,,,wg-a,,,,AAXX 30214 07434 12/65 00608 10050 20010 39686 40172 50004 60006 80000 92100=
07434,1996-01-31 00:00:00,3,1017.2,-0.4,75,-1,10000,3.704,,,60,,,,,,,,,,,wg-a,,,,AAXX 31004 07434 12/60 00602 10030 21010 39682 40172 58004 60006 80000 90000=
07434,1996-01-31 03:00:00,3,1016,-1.2,65,-3,12000,7.408,,,40,,,,,,,,,,,wg-a,,,,AAXX 31034 07434 12/62 00404 10030 21030 39670 40160 56012 60006 80000 90300=
07434,1996-01-31 06:00:00,2,1015.6,-0.5,64,-4,12000,11.112,,,40,-0.3,8.1,,,,,,,,,wg-a,,,,AAXX 31064 07434 02/62 00406 10020 21040 39665 40156 56005 60006 80000 90600 333 10081 21003 60004=
07434,1996-01-31 09:00:00,0,1015.8,-0.1,80,-3,500,7.408,,,50,,,,,,,,,,,wg-a,,,,AAXX 31094 07434 12/00 00504 10000 21030 39664 40158 55001 60006 80000 90900=
07434,1996-01-31 12:00:00,6,1013.8,-0.9,70,1,7000,11.112,,,150,,,,,,,,,,,wg-a,,,,AAXX 31124 07434 12/57 01506 10060 20010 39655 40138 58009 60006 80000 91200=
07434,1996-01-31 15:00:00,9,1011.7,-1.5,66,3,10000,7.408,,,210,,,,,,,,,,,wg-a,,,,AAXX 31154 07434 12/60 02104 10090 20030 39640 40117 56015 60006 80000 91500=
07434,1996-01-31 18:00:00,7,1012.4,0.3,76,3,10000,3.704,,,130,-1.6,9.4,,,,,,,,,wg-a,,,,AAXX 31184 07434 12/60 11302 10070 20030 39643 40124 51003 60006 81030 91800 333 10094 21016=
07434,1996-01-31 21:00:00,6,1013.6,1,75,2,15000,18.52,,,160,,,,,,,,,,,wg-a,,,,AAXX 31214 07434 12565 /1610 10060 20020 39653 40136 53010 60006 81500 92100=
07434,1996-02-01 00:00:00,4,1014.7,0.7,75,0,15000,18.52,,,150,,,,,,,,,,,wg-a,,,,AAXX 01004 07434 12/65 01510 10040 20000 39660 40147 53007 60006 80000 90000=
07434,1996-02-01 03:00:00,3,1014.5,-0.3,75,-1,15000,11.112,,,140,,,,,,,,,,,wg-a,,,,AAXX 01034 07434 12/65 01406 10030 21010 39657 40145 56003 60006 80000 90300=
07434,1996-02-01 06:00:00,2,1014.1,-0.6,60,-5,20000,14.816,,,120,2.1,6.7,,,,,,,,,wg-a,,,,AAXX 01064 07434 02/70 01208 10020 21050 39651 40141 58006 60006 80000 90600 333 10067 20021 60004=
07434,1996-02-01 09:00:00,4,1013.7,-0.2,52,-5,25000,14.816,,,110,,,,,,,,,,,wg-a,,,,AAXX 01094 07434 12775 71108 10040 21050 39649 40137 55002 60006 8453/ 90900=
07434,1996-02-01 12:00:00,8,1011.5,-1.2,57,0,45000,18.52,,,140,,,,,,,,,,,wg-a,,,,AAXX 01124 07434 12783 51410 10080 20000 39637 40115 58012 60006 82530 91200=
07434,1996-02-01 15:00:00,8,1009.9,-1.5,66,2,35000,14.816,,,160,,,,,,,,,,,wg-a,,,,AAXX 01154 07434 12581 71608 10080 20020 39622 40099 56015 60006 875// 91500=
07434,1996-02-01 18:00:00,8,1010.6,0.6,71,3,25000,18.52,,,170,1.7,9.4,,,,,,,,,wg-a,,,,AAXX 01184 07434 12575 71710 10080 20030 39628 40106 53006 60006 875// 91800 333 10094 20017=
07434,1996-02-01 21:00:00,6,1010.3,-0.6,93,5,10000,7.408,,,80,,,,2,,,,,,61,wg-a,,,,AAXX 01214 07434 12460 80804 10060 20050 39622 40103 58006 60027 76162 888// 92100=
07434,1996-02-02 00:00:00,6,1009.9,-0.3,87,4,20000,7.408,,,120,,,,0,,,,,,61,wg-a,,,,AAXX 02004 07434 02470 81204 10060 20040 39619 40099 58003 60026 76162 888// 90000 333 60007=
07434,1996-02-02 03:00:00,6,1009.4,-0.5,93,5,20000,3.704,,,120,,,,1,,,,,,61,wg-a,,,,AAXX 02034 07434 12570 81202 10060 20050 39614 40094 57005 60017 76166 888// 90300=
07434,1996-02-02 06:00:00,6,1009.3,-0.2,93,5,10000,3.704,,,120,5.8,8,,3,,,6,,,61,wg-a,,,,AAXX 02064 07434 02460 81202 10060 20050 39612 40093 56002 60064 76166 888// 90600 333 10080 20058 60037=
07434,1996-02-02 09:00:00,6,1010.2,0.9,93,5,1000,3.704,,,20,,,,2,,,,,,10,wg-a,,,,AAXX 02094 07434 12210 80202 10060 20050 39621 40102 52009 60027 71066 875// 90900=
07434,1996-02-02 12:00:00,7,1009.9,-0.1,93,6,2500,3.704,,,140,,,,0,,,,,,10,wg-a,,,,AAXX 02124 07434 02225 81402 10070 20060 39620 40099 58001 60036 71062 875// 91200 333 60007=
07434,1996-02-02 15:00:00,7,1009.4,-0.4,100,7,1000,3.704,,,140,,,,1,,,,,,10,wg-a,,,,AAXX 02154 07434 12110 81402 10070 20070 39616 40094 56004 60017 71066 877// 91500=
07434,1996-02-02 18:00:00,7,1010.5,1,93,6,2000,3.704,,,340,5.8,7.4,,1,,,,,,10,wg-a,,,,AAXX 02184 07434 12120 83402 10070 20060 39626 40105 53010 60017 71065 877// 91800 333 10074 20058=
07434,1996-02-02 21:00:00,6,1011.7,0.9,93,5,1200,11.112,,,30,,,,2,,,,,,10,wg-a,,,,AAXX 02214 07434 12112 80306 10060 20050 39635 40117 52009 60027 71052 877// 92100=
07434,1996-02-03 00:00:00,5,1012.3,0.5,93,4,6000,11.112,,,60,,,,,,,,,,1,wg-a,,,,AAXX 03004 07434 02156 70606 10050 20040 39640 40123 53005 60026 70152 875// 90000 333 61000=
07434,1996-02-03 03:00:00,4,1011.8,-0.6,100,4,500,14.816,,,50,,,,0,,,,,,,wg-a,,,,AAXX 03034 07434 12200 /0508 10040 20040 39634 40118 56006 60007 86500 90300=
07434,1996-02-03 06:00:00,3,1012.5,0.3,93,2,6000,7.408,,,50,2.7,7,,,,,6,,,40,wg-a,,,,AAXX 03064 07434 12256 20504 10030 20020 39637 40125 53003 60064 74011 82500 90600 333 10070 20027=
07434,1996-02-03 09:00:00,4,1013.4,1.1,65,-2,8000,11.112,,,50,,,,,,,,,,,wg-a,,,,AAXX 03094 07434 12758 20506 10040 21020 39648 40134 53011 60006 82530 90900=
07434,1996-02-03 12:00:00,6,1012.7,-0.3,70,1,10000,11.112,,,10,,,,,,,,,,,wg-a,,,,AAXX 03124 07434 12460 20106 10060 20010 39645 40127 58003 60006 81130 91200=
07434,1996-02-03 15:00:00,4,1012.6,-0.5,75,0,10000,22.224,,,30,,,,,,,,,,,wg-a,,,,AAXX 03154 07434 12/60 10312 10040 20000 39640 40126 55005 60006 81030 91500=
07434,1996-02-03 18:00:00,0,1014.3,0.9,86,-2,10000,22.224,,,40,0,6.8,,,,,,,,,wg-a,,,,AAXX 03184 07434 12460 30412 10000 21020 39649 40143 53009 60006 83630 91800 333 10068 20000=
07434,1996-02-03 21:00:00,0,1014.4,0.1,80,-3,12000,25.928,,,70,,,,,,,,,,,wg-a,,,,AAXX 03214 07434 12462 70714 10000 21030 39650 40144 50001 60006 875// 92100=
07434,1996-02-04 00:00:00,-1,1014.6,0.1,86,-3,12000,11.112,,,30,,,,,,,,,,,wg-a,,,,AAXX 04004 07434 12/62 00306 11010 21030 39651 40146 53001 60006 80000 90000=
07434,1996-02-04 03:00:00,-1,1013.6,-1.1,86,-3,8000,14.816,,,30,,,,,,,,,,,wg-a,,,,AAXX 04034 07434 12/58 00308 11010 21030 39640 40136 56011 60006 80000 90300=
07434,1996-02-04 06:00:00,-1,1013.9,0.5,93,-2,500,11.112,,,20,-1.4,0.1,,,,,,,,,wg-a,,,,AAXX 04064 07434 02600 /0206 11010 21020 39645 40139 51005 60006 85500 90600 333 10001 21014 60004=
07434,1996-02-04 09:00:00,0,1015.1,1.2,93,-1,1500,18.52,,,30,,,,,,,,,,10,wg-a,,,,AAXX 04094 07434 02215 70310 10000 21010 39657 40151 52012 61000 71072 877// 90900 333 ////=
07434,1996-02-04 12:00:00,0,1015.9,0.8,86,-2,4000,18.52,,,350,,,,,,,,,,10,wg-a,,,,AAXX 04124 07434 02440 73510 10000 21020 39665 40159 52008 61000 71072 875// 91200 333 6100=
07434,1996-02-04 15:00:00,1,1015.9,-0,75,-3,6000,14.816,,,360,,,,,,,,,,70,wg-a,,,,AAXX 04154 07434 02456 73608 10010 21030 39665 40159 55000 61000 77072 878// 91500 333 ////=
07434,1996-02-04 18:00:00,-1,1017.5,1.3,86,-3,6000,11.112,,,350,-1.3,0.5,,,,,,,,3,wg-a,,,,AAXX 04184 07434 02356 73506 11010 21030 39678 40175 53013 61000 70372 878// 91800 333 10005 21013 ////=
07434,1996-02-04 21:00:00,-1,1018.1,0.5,86,-3,8000,11.112,,,360,,,,,,,,,,3,wg-a,,,,AAXX 04214 07434 02358 73606 11010 21030 39683 40181 50005 61000 70372 878// 92100 333 ////=
07434,1996-02-05 00:00:00,-2,1018,-0.2,93,-3,8000,7.408,,,330,,,,,,,,,,3,wg-a,,,,AAXX 05004 07434 02358 73304 11020 21030 39681 40180 57002 61000 70372 875// 90000 333 ////=
07434,1996-02-05 03:00:00,-2,1017.8,-0.3,80,-5,8000,7.408,,,10,,,,,,,,,,,wg-a,,,,AAXX 05034 07434 12458 70104 11020 21050 39678 40178 58003 60006 875// 90300=
07434,1996-02-05 06:00:00,-3,1017,-0.9,68,-8,10000,7.408,,,70,-3,-1,,,,,,,,,wg-a,,,,AAXX 05064 07434 02560 70704 11030 21080 39669 40170 58009 61000 875// 90600 333 11010 21030 ////=
07434,1996-02-05 09:00:00,-3,1017.1,0.1,68,-8,15000,3.704,,,100,,,,,,,,,,,wg-a,,,,AAXX 05094 07434 12465 71002 11030 21080 39670 40171 53001 60006 875// 90900=
07434,1996-02-05 12:00:00,-1,1014,-2.6,59,-8,15000,11.112,,,150,,,,,,,,,,,wg-a,,,,AAXX 05124 07434 12565 41506 11010 21080 39644 40140 58026 60006 83230 91200=
07434,1996-02-05 15:00:00,0,1009.8,-3.7,59,-7,20000,7.408,,,180,,,,,,,,,,,wg-a,,,,AAXX 05154 07434 12/70 31804 10000 21070 39607 40098 56037 60006 80001 91500=
07434,1996-02-05 18:00:00,-2,1006.9,-3.1,74,-6,15000,11.112,,,150,-3.3,1,,,,,,,,,wg-a,,,,AAXX 05184 07434 12/65 51506 11020 21060 39576 40069 58031 60006 80001 91800 333 10010 21033=
07434,1996-02-05 21:00:00,-2,1001.5,-5.2,74,-6,12000,14.816,,,140,,,,,,,,,,,wg-a,,,,AAXX 05214 07434 12/62 71408 11020 21060 39524 40015 57052 60006 83032 92100=
07434,1996-02-06 00:00:00,-1,997.8,-3.4,69,-6,12000,18.52,,,150,,,,,,,,,,,wg-a,,,,AAXX 06004 07434 12862 71510 11010 21060 39490 49978 58034 60006 8702/ 90000=
07434,1996-02-06 03:00:00,-3,993.2,-4.6,100,-3,4000,22.224,,,150,,,,3,,,,,,10,wg-a,,,,AAXX 06034 07434 12240 81512 11030 21030 39444 49932 56046 60037 71072 877// 90300=
07434,1996-02-06 06:00:00,-2,990.2,-2.7,100,-2,500,14.816,,,160,-2.8,-1.1,,3,,,6,,,10,wg-a,,4,,AAXX 06064 07434 02100 81608 11020 21020 39417 49902 58027 60064 71072 877// 90600 333 11011 21028 4/004 60037=
07434,1996-02-06 09:00:00,0,989.3,-0.5,93,-1,500,3.704,,,130,,,,4,,,,,,71,wg-a,,,,AAXX 06094 07434 12200 81302 10000 21010 39412 49893 55005 60047 77177 877// 90900=
07434,1996-02-06 12:00:00,1,992.7,3.3,93,0,800,18.52,,,310,,,,5,,,,,,45,wg-a,,,,AAXX 06124 07434 02/08 93110 10010 20000 39445 49927 53033 60096 74577 89/// 91200 333 60057=
07434,1996-02-06 15:00:00,0,997,4,100,0,1200,11.112,,,290,,,,1,,,,,,10,wg-a,,,,AAXX 06154 07434 12112 82906 10000 20000 39485 49970 51040 60017 71077 877// 91500=
07434,1996-02-06 18:00:00,2,1000.3,3.5,100,2,4500,14.816,,,310,-1.5,2.4,,4,,,,,,10,wg-a,,2,,AAXX 06184 07434 12145 83108 10020 20020 39520 40003 53035 60047 71076 877// 91800 333 10024 21015 4/002=
07434,1996-02-06 21:00:00,2,1004.8,4.2,93,1,8000,18.52,,,310,,,,,,,,,,,wg-a,,,,AAXX 06214 07434 32/58 /3110 10020 20010 39562 40048 51042 92100=
07434,1996-02-07 00:00:00,1,1006.1,1.1,93,0,8000,14.816,,,290,,,,,,,,,,1,wg-a,,,,AAXX 07004 07434 12258 82908 10010 20000 39573 40061 51011 60016 70176 875// 90000=
07434,1996-02-07 03:00:00,-1,1006.6,0.1,93,-2,9000,3.704,,,260,,,,,,,,,,,wg-a,,,,AAXX 07034 07434 12559 /2602 11010 21020 39574 40066 50001 60006 85500 90300=
07434,1996-02-07 06:00:00,-1,1003.8,-2.7,93,-2,9000,7.408,,,160,-1.6,2.3,,,,,15,,,,wg-a,,,,AAXX 07064 07434 12/59 71604 11010 21020 39547 40038 58027 60154 83022 90600 333 10023 21016=
07434,1996-02-07 09:00:00,0,999.9,-3.5,93,-1,800,18.52,,,170,,,,,,,,,,71,wg-a,,,,AAXX 07094 07434 02208 71710 10000 21010 39512 49999 56035 61000 77172 8457/ 90900 333 ////=
07434,1996-02-07 12:00:00,0,992.3,-7.1,100,0,1100,25.928,,,160,,,,2,,,,,,71,wg-a,,,,AAXX 07124 07434 02111 81614 10000 20000 39441 49923 56071 60026 77172 877// 91200 333 60027=
07434,1996-02-07 15:00:00,5,990.8,-0.7,93,4,11000,18.52,,,250,,,,1,,,,,,,wg-a,,,,AAXX 07154 07434 12/61 /2510 10050 20040 39434 49908 56007 60017 91500=
07434,1996-02-07 18:00:00,4,989.4,-1.5,87,2,6000,25.928,,44.448,250,-1.3,5.6,,1,,,,,,80,wg-a,,2,,AAXX 07184 07434 12256 72514 10040 20020 39419 49894 58015 60017 78087 878// 91800 333 10056 21013 4/002 91024=
07434,1996-02-07 21:00:00,4,986.5,-2.6,100,4,6000,35.188,,44.448,280,,,,5,,,,,,63,wg-a,,,,AAXX 07214 07434 12156 82819 10040 20040 39393 49865 55026 60057 76386 877// 92100 333 91024=
07434,1996-02-08 00:00:00,1,999.1,0.3,93,0,8000,42.596,,68.524,330,,,,3,,,,,,61,wg-a,,,,AAXX 08004 07434 02258 83323 10010 20000 39506 49991 53113 60086 76187 877// 90000 333 60037 91037=
07434,1996-02-08 03:00:00,0,1008.2,8.6,93,-1,20000,25.928,,72.228,320,,,,1,,,,,,22,wg-a,,,,AAXX 08034 07434 12470 73214 10000 21010 39592 40082 51086 60017 72276 875// 90300 333 91039=
07434,1996-02-08 06:00:00,0,1013.2,4.7,86,-2,15000,18.52,,,310,-0.2,4.4,,,,,12,,,3,wg-a,,1,,AAXX 08064 07434 12465 73110 10000 21020 39639 40132 51047 60124 70376 875// 90600 333 10044 21002 4/001=
07434,1996-02-08 09:00:00,1,1017,3.7,93,0,500,11.112,,,300,,,,,,,,,,22,wg-a,,,,AAXX 08094 07434 02300 73006 10010 20000 39676 40170 53037 61000 72272 878// 90900 333 ////=
07434,1996-02-08 12:00:00,2,1018.8,2,87,0,10000,18.52,,,330,,,,,,,,,,3,wg-a,,,,AAXX 08124 07434 02460 73310 10020 20000 39696 40188 51020 61000 70376 878// 91200 333 6100=
07434,1996-02-08 15:00:00,4,1020.2,1.7,70,-1,500,18.52,,,330,,,,,,,,,,,wg-a,,,,AAXX 08154 07434 12500 33310 10040 21010 39713 40202 52017 60006 83200 91500=
07434,1996-02-08 18:00:00,2,1023.4,2.7,69,-3,500,11.112,,,330,0,5.2,,,,,,,,1,wg-a,,,,AAXX 08184 07434 02500 33306 10020 21030 39740 40234 53027 61000 70187 83800 91800 333 10052 20000 ////=
07434,1996-02-08 21:00:00,1,1024.3,0.5,80,-2,15000,7.408,,,290,,,,,,,,,,,wg-a,,,,AAXX 08214 07434 12665 /2904 10010 21020 39745 40243 51005 60006 81500 92100=
07434,1996-02-09 00:00:00,-1,1023.7,-0.7,86,-3,15000,3.704,,,50,,,,,,,,,,,wg-a,,,,AAXX 09004 07434 12/65 00502 11010 21030 39738 40237 58007 60006 80000 90000=
07434,1996-02-09 03:00:00,-2,1022.6,-1.4,93,-3,15000,3.704,,,60,,,,,,,,,,,wg-a,,,,AAXX 09034 07434 12/65 00602 11020 21030 39724 40226 56014 60006 80000 90300=
07434,1996-02-09 06:00:00,-3,1020.7,-1.9,93,-4,15000,11.112,,,90,-3.1,2.4,,,,,,,,,wg-a,,,,AAXX 09064 07434 02/65 40906 11030 21040 39705 40207 58019 60006 80005 90600 333 10024 21031 61000=
07434,1996-02-09 09:00:00,-1,1018.9,-1.3,86,-3,500,11.112,,,110,,,,,,,,,,,wg-a,,,,AAXX 09094 07434 12/00 61106 11010 21030 39692 40189 58013 60006 81032 90900=
07434,1996-02-09 12:00:00,4,1015.1,-2.8,70,-1,50000,14.816,,,120,,,,,,,,,,,wg-a,,,,AAXX 09124 07434 12/84 71208 10040 21010 39664 40151 58028 60006 81038 91200=
07434,1996-02-09 15:00:00,7,1013.1,-1.5,39,-6,60000,14.816,,,180,,,,,,,,,,,wg-a,,,,AAXX 09154 07434 12/86 71808 10070 21060 39649 40131 56015 60006 83032 91500=
07434,1996-02-09 18:00:00,4,1013.2,-0.3,56,-4,40000,11.112,,,150,-3.1,7.5,,,,,,,,,wg-a,,,,AAXX 09184 07434 12/82 71506 10040 21040 39646 40132 56003 60006 85072 91800 333 10075 21031=
07434,1996-02-09 21:00:00,4,1013.7,0.4,65,-2,15000,14.816,,,170,,,,,,,,,,61,wg-a,,,,AAXX 09214 07434 02465 71708 10040 21020 39650 40137 50004 61000 76162 875// 92100 333 ////=
07434,1996-02-10 00:00:00,3,1014.6,0.8,93,2,15000,14.816,,,220,,,,1,,,,,,21,wg-a,,,,AAXX 10004 07434 02265 72208 10030 20020 39658 40146 51008 60016 72162 875// 90000 333 60017=
07434,1996-02-10 03:00:00,4,1015,0.5,93,3,8000,14.816,,,230,,,,1,,,,,,,wg-a,,,,AAXX 10034 07434 12258 72308 10040 20030 39663 40150 51005 60017 876// 90300=
07434,1996-02-10 06:00:00,3,1016,0.7,93,2,12000,14.816,,,220,2.5,4.6,,,,,2,,,1,wg-a,,,,AAXX 10064 07434 12162 /2208 10030 20020 39670 40160 51007 60024 70186 85830 90600 333 10046 20025=
07434,1996-02-10 09:00:00,4,1016.7,1,93,3,20000,18.52,,,220,,,,,,,,,,1,wg-a,,,,AAXX 10094 07434 02570 /2210 10040 20030 39680 40167 53010 61000 70162 85831 90900 333 ////=
07434,1996-02-10 10:00:00,5,1016.5,,93,4,8000,1.852,,,140,,,,,,,,,,10,wg-a,,,,AAXX 10104 07434 32558 81401 10050 20040 39679 40165 71022 8557/ 91000=
07434,1996-02-10 12:00:00,6,1016,-0.4,81,3,20000,25.928,,,220,,,,0,,,,,,1,wg-a,,,,AAXX 10124 07434 02570 72214 10060 20030 39676 40160 58004 60006 70186 85831 91200 333 60007=
07434,1996-02-10 15:00:00,7,1015,-0.8,81,4,20000,18.52,,,240,,,,2,,,,,,25,wg-a,,,,AAXX 10154 07434 12470 62410 10070 20040 39668 40150 55008 60027 72586 8583/ 91500=
07434,1996-02-10 18:00:00,5,1016.1,0.7,87,3,20000,22.224,,,220,2.6,7.4,,,,,,,,80,wg-a,,,,AAXX 10184 07434 02470 72212 10050 20030 39675 40161 53007 61000 78086 863// 91800 333 10074 20026 ////=
07434,1996-02-10 21:00:00,4,1017.2,0.9,93,3,500,11.112,,,250,,,,2,,,,,,80,wg-a,,,,AAXX 10214 07434 12300 72506 10040 20030 39684 40172 51009 60027 78086 873// 92100=
07434,1996-02-11 00:00:00,3,1017.6,0.3,100,3,10000,18.52,,,220,,,,1,,,,,,80,wg-a,,,,AAXX 11004 07434 02360 72210 10030 20030 39687 40176 53003 60036 78086 878// 90000 333 60017=
07434,1996-02-11 03:00:00,3,1017.4,-0.2,100,3,15000,14.816,,,230,,,,2,,,,,,25,wg-a,,,,AAXX 11034 07434 12265 72308 10030 20030 39685 40174 56002 60027 72586 876// 90300=
07434,1996-02-11 06:00:00,3,1018.3,0.8,93,2,9000,11.112,,,240,2.9,4.9,,0,,,6,,,80,wg-a,,,,AAXX 11064 07434 02259 72406 10030 20020 39693 40183 53008 60064 78086 878// 90600 333 10049 20029 60007=
07434,1996-02-11 09:00:00,3,1019.2,0.9,100,3,12000,14.816,,,240,,,,,,,,,,1,wg-a,,,,AAXX 11094 07434 02262 72408 10030 20030 39702 40192 53009 61000 70186 878// 90900 333 ////=
07434,1996-02-11 12:00:00,6,1018.8,0.1,81,3,500,18.52,,,240,,,,,,,,,,3,wg-a,,,,AAXX 11124 07434 02400 72410 10060 20030 39703 40188 50001 61000 70386 878// 91200 333 ////=
07434,1996-02-11 15:00:00,5,1018.5,-0.4,93,4,15000,14.816,,,270,,,,0,,,,,,25,wg-a,,,,AAXX 11154 07434 12365 72708 10050 20040 39699 40185 55004 60007 72586 878// 91500=
07434,1996-02-11 18:00:00,6,1019.3,0.8,81,3,25000,7.408,,,240,2.9,7.5,,,,,,,,3,wg-a,,,,AAXX 11184 07434 32475 72404 10060 20030 39707 40193 53008 70386 878// 91800 333 10075 20029=
07434,1996-02-11 21:00:00,5,1019.7,0.3,93,4,20000,7.408,,,260,,,,2,,,,,,1,wg-a,,,,AAXX 11214 07434 12270 72604 10050 20040 39710 40197 51003 60027 70186 878// 92100=
07434,1996-02-12 00:00:00,5,1018.9,-0.7,100,5,10000,14.816,,,230,,,,1,,,,,,25,wg-a,,,,AAXX 12004 07434 02160 72308 10050 20050 39703 40189 58007 60036 72586 877// 90000 333 60017=
07434,1996-02-12 03:00:00,5,1016,-2.8,100,5,8000,18.52,,,220,,,,0,,,,,,60,wg-a,,,,AAXX 12034 07434 12158 72210 10050 20050 39675 40160 58028 60007 76062 877// 90300=
07434,1996-02-12 06:00:00,6,1012.6,-3.1,93,5,8000,25.928,,,220,5,5.8,,2,,,6,,,50,wg-a,,,,AAXX 12064 07434 02158 82214 10060 20050 39644 40126 56031 60064 75065 887// 90600 333 10058 20050 60027=
07434,1996-02-12 09:00:00,7,1009.2,-3.1,93,6,500,31.484,,,220,,,,3,,,,,,61,wg-a,,,,AAXX 12094 07434 12200 82217 10070 20060 39613 40092 58031 60037 76165 887// 90900=
07434,1996-02-12 12:00:00,7,1004.4,-4.5,100,7,8000,46.3,,,220,,,,3,,,,,,51,wg-a,,,,AAXX 12124 07434 02258 82225 10070 20070 39568 40044 58045 60066 75165 877// 91200 333 60037=
07434,1996-02-12 15:00:00,6,1003,-1.5,87,4,12000,35.188,,66.672,280,,,,11,,,,,,60,wg-a,,,,AAXX 12154 07434 12362 72819 10060 20040 39553 40030 55015 60117 76066 877// 91500 333 91036=
07434,1996-02-12 18:00:00,6,1005.5,2.3,81,3,20000,29.632,,,280,5.7,8.3,,,,,,,,3,wg-a,,,,AAXX 12184 07434 02470 72816 10060 20030 39576 40055 53023 61000 70361 878// 91800 333 10083 20057 ////=
07434,1996-02-12 21:00:00,6,1005.9,0.4,81,3,20000,25.928,,46.3,270,,,,,,,,,,,wg-a,,,,AAXX 12214 07434 12470 72714 10060 20030 39580 40059 53004 60006 878// 92100 333 91025=
07434,1996-02-13 00:00:00,6,1007.6,1.6,81,3,20000,25.928,,46.3,290,,,,,,,,,,,wg-a,,,,AAXX 13004 07434 12470 72914 10060 20030 39596 40076 51016 60006 878// 90000 333 91025=
07434,1996-02-13 03:00:00,6,1008.6,0.9,81,3,20000,18.52,,,290,,,,,,,,,,,wg-a,,,,AAXX 13034 07434 12470 72910 10060 20030 39605 40086 51009 60006 8783/ 90300=
07434,1996-02-13 06:00:00,5,1009.2,0.5,81,2,20000,18.52,,,310,4.8,6.4,,,,,17,,,,wg-a,,,,AAXX 13064 07434 02470 73110 10050 20020 39610 40092 53005 60006 8783/ 90600 333 10064 20048 60174=
07434,1996-02-13 09:00:00,5,1011.2,1.8,81,2,20000,18.52,,,290,,,,,,,,,,,wg-a,,,,AAXX 13094 07434 12470 72910 10050 20020 39628 40112 51018 60006 878// 90900=
07434,1996-02-13 12:00:00,5,1011.6,0.5,70,0,500,18.52,,,310,,,,,,,,,,,wg-a,,,,AAXX 13124 07434 12400 73110 10050 20000 39633 40116 50005 60006 878// 91200=
07434,1996-02-13 15:00:00,6,1011.9,0.3,61,-1,40000,14.816,,,310,,,,,,,,,,,wg-a,,,,AAXX 13154 07434 12582 73108 10060 21010 39636 40119 53003 60006 878// 91500=
07434,1996-02-13 18:00:00,2,1014.2,1.6,93,1,500,7.408,,,340,1.7,6.7,,,,,,,,80,wg-a,,,,AAXX 13184 07434 02300 73404 10020 20010 39652 40142 53016 61000 78087 873// 91800 333 10067 20017 ////=
07434,1996-02-13 21:00:00,3,1016.3,2.1,81,0,20000,14.816,,,20,,,,,,,,,,3,wg-a,,,,AAXX 13214 07434 02470 70208 10030 20000 39673 40163 53021 61000 70386 875// 92100 333 ////=
07434,1996-02-14 00:00:00,2,1017.7,1.2,87,0,15000,14.816,,,10,,,,,,,,,,70,wg-a,,,,AAXX 14004 07434 02465 80108 10020 20000 39685 40177 53012 61000 77087 875// 90000 333 6100=
07434,1996-02-14 03:00:00,2,1018.2,0.4,80,-1,20000,22.224,,,10,,,,,,,,,,22,wg-a,,,,AAXX 14034 07434 02470 80112 10020 21010 39689 40182 53004 61000 72272 875// 90300 333 ////=
07434,1996-02-14 06:00:00,0,1020.6,2,86,-2,12000,22.224,,,20,0,2.7,,,,,,,,70,wg-a,,0,,AAXX 14064 07434 02462 80212 10000 21020 39709 40206 53020 61000 77072 875// 90600 333 10027 20000 4/9999 6100=
07434,1996-02-14 09:00:00,0,1023.7,2.9,80,-3,500,22.224,,,30,,,,,,,,,,70,wg-a,,,,AAXX 14094 07434 02400 80312 10000 21030 39738 40237 51029 61000 77072 875// 90900 333 ////=
07434,1996-02-14 12:00:00,0,1025.8,2.1,86,-2,6000,18.52,,,30,,,,,,,,,,22,wg-a,,,,AAXX 14124 07434 02456 80310 10000 21020 39759 40258 51021 61000 72272 8777/ 91200 333 6100=
07434,1996-02-14 15:00:00,0,1026.8,1,86,-2,6000,18.52,,,30,,,,,,,,,,51,wg-a,,,,AAXX 14154 07434 02456 80310 10000 21020 39769 40268 53010 61000 75176 8777/ 91500 333 ////=
07434,1996-02-14 18:00:00,0,1028.5,1.6,86,-2,8000,29.632,,,40,-0.5,0.4,,,,,,,,1,wg-a,,,,AAXX 14184 07434 02458 70416 10000 21020 39785 40285 53016 61000 70176 877// 91800 333 10004 21005 ////=
07434,1996-02-14 21:00:00,0,1030.7,2.1,80,-3,10000,25.928,,,50,,,,,,,,,,,wg-a,,,,AAXX 14214 07434 12460 70514 10000 21030 39806 40307 52021 60006 875// 92100=
07434,1996-02-15 00:00:00,0,1031.7,0.9,80,-3,8000,29.632,,,60,,,,,,,,,,,wg-a,,,,AAXX 15004 07434 12458 70616 10000 21030 39815 40317 51009 60006 875// 90000=
07434,1996-02-15 03:00:00,-1,1033.1,1.2,80,-4,8000,29.632,,,50,,,,,,,,,,,wg-a,,,,AAXX 15034 07434 12458 70516 11010 21040 39827 40331 53012 60006 875// 90300=
07434,1996-02-15 06:00:00,-1,1034.1,0.9,80,-4,12000,25.928,,,40,-0.9,0.4,,,,,,,,,wg-a,,,,AAXX 15064 07434 02462 80414 11010 21040 39836 40341 53009 60006 875// 90600 333 10004 21009 61000=
07434,1996-02-15 09:00:00,-1,1035.1,1,74,-5,12000,25.928,,,50,,,,,,,,,,,wg-a,,,,AAXX 15094 07434 12462 80514 11010 21050 39846 40351 53010 60006 875// 90900=
07434,1996-02-15 12:00:00,0,1035.1,0.1,74,-4,15000,25.928,,,50,,,,,,,,,,,wg-a,,,,AAXX 15124 07434 12465 70514 10000 21040 39847 40351 50001 60006 875// 91200=
07434,1996-02-15 15:00:00,1,1034.1,-0.8,69,-4,15000,25.928,,,50,,,,2,,,,,,,wg-a,,,,AAXX 15154 07434 12465 /0514 10010 21040 39839 40341 58008 60027 86500 91500=
07434,1996-02-15 18:00:00,-1,1035.2,0.7,74,-5,15000,14.816,,,50,-1,1.4,,,,,,,,,wg-a,,,,AAXX 15184 07434 32465 70508 11010 21050 39846 40352 53007 85501 91800 333 10014 21010=
07434,1996-02-15 21:00:00,-1,1035.2,-0.1,74,-5,15000,14.816,,,50,,,,,,,,,,,wg-a,,,,AAXX 15214 07434 12465 30508 11010 21050 39845 40352 55001 60006 82501 92100=
07434,1996-02-16 00:00:00,-2,1034.9,-0.3,86,-4,11000,14.816,,,20,,,,,,,,,,,wg-a,,,,AAXX 16004 07434 12/61 /0208 11020 21040 39842 40349 58003 60006 90000=
07434,1996-02-16 03:00:00,-3,1034.1,-0.9,93,-4,11000,3.704,,,20,,,,,,,,,,,wg-a,,,,AAXX 16034 07434 12/61 /0202 11030 21040 39833 40341 58009 60006 90300=
07434,1996-02-16 06:00:00,-3,1034.2,-0,93,-4,500,11.112,,,330,-3.5,-0.7,,,,,,,,,wg-a,,,,AAXX 16064 07434 02700 /3306 11030 21040 39833 40342 55000 60006 85500 90600 333 11007 21035 60004=
07434,1996-02-16 09:00:00,-1,1034.9,1.1,86,-3,4000,7.408,,,340,,,,,,,,,,10,wg-a,,,,AAXX 16094 07434 12740 /3404 11010 21030 39844 40349 51011 60006 71022 8653/ 90900=
07434,1996-02-16 12:00:00,1,1034.1,-0.5,86,-1,6000,11.112,,,290,,,,,,,,,,,wg-a,,,,AAXX 16124 07434 12456 72906 10010 21010 39839 40341 58005 60006 875// 91200=
07434,1996-02-16 15:00:00,1,1032.2,-1.7,100,1,1100,7.408,,,270,,,,,,,,,,,wg-a,,,,AAXX 16154 07434 32/11 /2704 10010 20010 39822 40322 56017 91500=
07434,1996-02-16 18:00:00,2,1032.5,0.4,93,1,1000,7.408,,,270,-3,2,,,,,,,,50,wg-a,,,,AAXX 16184 07434 02210 72704 10020 20010 39826 40325 53004 61000 75052 875// 91800 333 10020 21030 ////=
07434,1996-02-16 21:00:00,3,1032.2,-0.2,93,2,600,3.704,,,260,,,,,,,,,,45,wg-a,,,,AAXX 16214 07434 32/06 92602 10030 20020 39824 40322 58002 74555 89/// 92100=
07434,1996-02-17 00:00:00,4,1031.7,-0.1,100,4,400,11.112,,,290,,,,,,,,,,45,wg-a,,,,AAXX 17004 07434 12/04 92906 10040 20040 39823 40317 55001 60016 74554 89/// 90000=
07434,1996-02-17 03:00:00,5,1030.7,-0.9,93,4,400,11.112,,,290,,,,,,,,,,45,wg-a,,,,AAXX 17034 07434 32/04 92906 10050 20040 39814 40307 56009 74554 89/// 90300=
07434,1996-02-17 06:00:00,5,1029.9,-0.8,93,4,3000,14.816,,,280,2,4.7,,,,,1,,,10,wg-a,,,,AAXX 17064 07434 02130 82808 10050 20040 39806 40299 56008 60014 71054 877// 90600 333 10047 20020 61000=
07434,1996-02-17 09:00:00,4,1030.1,0.1,93,3,6000,11.112,,,300,,,,,,,,,,,wg-a,,,,AAXX 17094 07434 12356 83006 10040 20030 39807 40301 53001 60006 875// 90900=
07434,1996-02-17 12:00:00,5,1030.4,0.5,87,3,8000,14.816,,,320,,,,,,,,,,20,wg-a,,,,AAXX 17124 07434 02458 83208 10050 20030 39812 40304 50005 61000 72052 875// 91200 333 6100=
07434,1996-02-17 15:00:00,6,1029.1,-1.2,81,3,9000,14.816,,,290,,,,,,,,,,,wg-a,,,,AAXX 17154 07434 12459 72908 10060 20030 39800 40291 55012 60006 878// 91500=
07434,1996-02-17 18:00:00,5,1029.7,0.5,93,4,8000,7.408,,,260,3.9,6.1,,,,,,,,,wg-a,,,,AAXX 17184 07434 32458 82604 10050 20040 39805 40297 52005 875// 91800 333 10061 20039=
07434,1996-02-18 00:00:00,4,1027.8,-1.6,93,3,7000,11.112,,,270,,,,,,,,,,,wg-a,,,,AAXX 18004 07434 12357 82706 10040 20030 39785 40278 57016 60006 875// 90000=
07434,1996-02-18 06:00:00,4,1021.8,-2.6,87,2,9000,11.112,,,220,3.5,5,,,,,,,,,wg-a,,,,AAXX 18064 07434 02359 82206 10040 20020 39727 40218 58026 60006 875// 90600 333 10050 20035 61000=
07434,1996-02-18 12:00:00,6,1014.1,-5.4,81,3,10000,29.632,,,230,,,,,,,,,,,wg-a,,,,AAXX 18124 07434 12460 82316 10060 20030 39658 40141 56054 60006 875// 91200=
07434,1996-02-18 15:00:00,6,1008.9,-5,93,5,3000,31.484,,,240,,,,2,,,,,,61,wg-a,,,,AAXX 18154 07434 12130 82417 10060 20050 39608 40089 56050 60027 76162 877// 91500=
07434,1996-02-18 18:00:00,4,1008,-1.2,87,2,6000,25.928,,46.3,270,3.5,6.4,,8,,,,,,61,wg-a,,,,AAXX 18184 07434 12356 82714 10040 20020 39596 40080 57012 60087 76187 878// 91800 333 10064 20035 91025=
07434,1996-02-18 21:00:00,4,1006.2,-1.7,93,3,10000,14.816,,,250,,,,,,,,,,3,wg-a,,,,AAXX 18214 07434 02360 82508 10040 20030 39579 40062 58017 61000 70362 878// 92100 333 ////=
07434,1996-02-19 00:00:00,4,1004,-2.1,87,2,10000,14.816,,,260,,,,,,,,,,3,wg-a,,,,AAXX 19004 07434 02260 82608 10040 20020 39558 40040 56021 61000 70362 877// 90000 333 ////=
07434,1996-02-19 03:00:00,2,1002.2,-2,93,1,7000,18.52,,,260,,,,0,,,,,,,wg-a,,,,AAXX 19034 07434 12257 82610 10020 20010 39538 40022 57020 60007 876// 90300=
07434,1996-02-19 06:00:00,2,1001.1,-1.1,93,1,10000,7.408,,,230,1.3,3.8,,0,,,10,,,3,wg-a,,,,AAXX 19064 07434 02260 72304 10020 20010 39527 40011 58011 60104 70386 877// 90600 333 10038 20013 60007=
07434,1996-02-19 09:00:00,3,1000,-0.9,93,2,7000,18.52,,,240,,,,0,,,,,,80,wg-a,,,,AAXX 19094 07434 12257 82410 10030 20020 39518 40000 56009 60007 78086 872// 90900=
07434,1996-02-19 12:00:00,2,1000.8,0.7,100,2,4000,11.112,,,330,,,,3,,,,,,10,wg-a,,,,AAXX 19124 07434 02240 83306 10020 20020 39525 40008 51007 60046 71087 877// 91200 333 60037=
07434,1996-02-19 15:00:00,1,1002.5,1.4,86,-1,20000,25.928,,38.892,360,,,,1,,,,,,26,wg-a,,,,AAXX 19154 07434 12470 73614 10010 21010 39539 40025 53014 60017 72662 878// 91500 333 91021=
07434,1996-02-19 18:00:00,-1,1006.3,3.3,93,-2,2000,18.52,,,10,-0.9,3.1,,1,,,,,,10,wg-a,,,,AAXX 19184 07434 12/20 /0110 11010 21020 39572 40063 51033 60017 710// 91800 333 10031 21009=
07434,1996-02-19 21:00:00,-2,1009.6,3,74,-6,500,18.52,,,350,,,,,,,,,,70,wg-a,,,,AAXX 19214 07434 02300 73510 11020 21060 39602 40096 51030 61000 77077 878// 92100 333 ////=
07434,1996-02-20 00:00:00,-4,1011.4,1.3,74,-8,10000,7.408,,,330,,,,,,,,,,1,wg-a,,,,AAXX 20004 07434 02660 /3304 11040 21080 39615 40114 51013 61000 70171 81500 90000 333 6100=
07434,1996-02-20 03:00:00,-5,1011.6,-0.1,86,-7,10000,11.112,,,290,,,,,,,,,,,wg-a,,,,AAXX 20034 07434 12660 /2906 11050 21070 39614 40116 58001 60006 81500 90300=
07434,1996-02-20 06:00:00,-5,1011.6,-0,93,-6,10000,3.704,,,320,-5.9,-0.7,,,,,5,,,,wg-a,,1,,AAXX 20064 07434 12260 /3202 11050 21060 39614 40116 54000 60054 86600 90600 333 11007 21059 4/001=
07434,1996-02-20 09:00:00,-4,1012.1,0.7,93,-5,12000,3.704,,,240,,,,,,,,,,,wg-a,,,,AAXX 20094 07434 12362 /2402 11040 21050 39621 40121 51007 60006 86800 90900=
07434,1996-02-20 12:00:00,-2,1012.1,0.4,74,-6,20000,7.408,,,310,,,,,,,,,,,wg-a,,,,AAXX 20124 07434 12570 73104 11020 21060 39625 40121 50004 60006 878// 91200=
07434,1996-02-20 15:00:00,-2,1012.5,0.4,80,-5,8000,14.816,,,330,,,,,,,,,,70,wg-a,,,,AAXX 20154 07434 02458 83308 11020 21050 39629 40125 53004 61000 77087 888// 91500 333 ////=
07434,1996-02-20 18:00:00,-3,1013.6,0.8,93,-4,3000,14.816,,,10,-5.6,-1.2,,0,,,,,,71,wg-a,,1,,AAXX 20184 07434 12330 80108 11030 21040 39637 40136 53008 60007 77187 888// 91800 333 11012 21056 4/001=
07434,1996-02-20 21:00:00,-4,1014.7,0.9,86,-6,8000,14.816,,,10,,,,,,,,,,71,wg-a,,,,AAXX 20214 07434 02358 80108 11040 21060 39646 40147 51009 61000 77177 875// 92100 333 ////=
07434,1996-02-21 00:00:00,-4,1014.9,0.2,86,-6,8000,14.816,,,20,,,,,,,,,,70,wg-a,,,,AAXX 21004 07434 02358 80208 11040 21060 39648 40149 51002 60016 77077 877// 90000 333 61000=
07434,1996-02-21 03:00:00,-4,1014.7,-0.2,93,-5,500,18.52,,,10,,,,0,,,,,,71,wg-a,,,,AAXX 21034 07434 12300 80110 11040 21050 39646 40147 58002 60007 77177 877// 90300=
07434,1996-02-21 06:00:00,-4,1014.5,-0.2,93,-5,6000,25.928,,,10,-4.3,-3,,0,,,1,,,10,wg-a,,3,,AAXX 21064 07434 02356 80114 11040 21050 39644 40145 56002 60014 71077 877// 90600 333 11030 21043 4/003 60007=
07434,1996-02-21 12:00:00,-4,1017.5,1.2,86,-6,6000,25.928,,42.596,20,,,,,,,,,,70,wg-a,,,,AAXX 21124 07434 02356 70214 11040 21060 39672 40175 51012 61000 77077 875// 91200 333 6100 91023=
07434,1996-02-21 15:00:00,-5,1018.6,1,86,-7,6000,22.224,,38.892,20,,,,,,,,,,22,wg-a,,,,AAXX 21154 07434 02456 70212 11050 21070 39682 40186 53010 61000 72272 875// 91500 333 //// 91021=
07434,1996-02-21 18:00:00,-5,1021,2.1,73,-9,8000,22.224,,53.708,30,-5.4,-4,,,,,,,,1,wg-a,,3,,AAXX 21184 07434 32458 70312 11050 21090 39703 40210 53021 70172 875// 91800 333 11040 21054 4/003 91029=
07434,1996-02-21 21:00:00,-5,1022.5,1.4,73,-9,8000,22.224,,,30,,,,,,,,,,,wg-a,,,,AAXX 21214 07434 12458 80312 11050 21090 39717 40225 51014 60006 885// 92100=
07434,1996-02-22 00:00:00,-6,1024.1,1.4,73,-10,10000,18.52,,,30,,,,,,,,,,,wg-a,,,,AAXX 22004 07434 12560 70310 11060 21100 39731 40241 51014 60006 875// 90000=
07434,1996-02-22 03:00:00,-9,1025.5,0.7,85,-11,10000,14.816,,,340,,,,,,,,,,,wg-a,,,,AAXX 22034 07434 12660 33408 11090 21110 39738 40255 53007 60006 83500 90300=
07434,1996-02-22 06:00:00,-10,1026.6,0.9,92,-11,12000,11.112,,,330,-10.4,-5.2,,,,,,,,,wg-a,,3,,AAXX 22064 07434 02662 23306 11100 21110 39747 40266 53009 60006 81501 90600 333 11052 21104 4/003 61000=
07434,1996-02-22 09:00:00,-7,1027.8,1.8,86,-9,8000,11.112,,,330,,,,,,,,,,,wg-a,,,,AAXX 22094 07434 12258 23306 11070 21090 39765 40278 51018 60006 82501 90900=
07434,1996-02-22 12:00:00,-2,1027.4,0.4,54,-10,20000,7.408,,,290,,,,,,,,,,,wg-a,,,,AAXX 22124 07434 12470 42904 11020 21100 39769 40274 50004 60006 84800 91200=
07434,1996-02-22 15:00:00,-1,1025.6,-1.5,69,-6,12000,14.816,,,260,,,,,,,,,,70,wg-a,,,,AAXX 22154 07434 02562 72608 11010 21060 39754 40256 57015 61000 77071 85572 91500 333 ////=
07434,1996-02-22 18:00:00,-3,1024.7,,100,-3,800,14.816,,,210,-10.3,-0.7,,0,,,,,,71,wg-a,,2,,AAXX 22184 07434 12108 82108 11030 21030 39743 40247 60007 77174 875// 91800 333 11007 21103 4/002=
07434,1996-02-22 21:00:00,-3,1022.5,-2.1,93,-4,900,11.112,,,170,,,,0,,,,,,71,wg-a,,,,AAXX 22214 07434 12109 81706 11030 21040 39722 40225 57021 60007 77177 877// 92100=
07434,1996-02-23 00:00:00,-2,1019.6,-2.6,93,-3,900,11.112,,,140,,,,0,,,,,,71,wg-a,,,,AAXX 23004 07434 02109 81406 11020 21030 39696 40196 58026 60036 77177 877// 90000 333 60007=
07434,1996-02-23 03:00:00,-2,1018.2,-1.4,93,-3,900,3.704,,,100,,,,0,,,,,,44,wg-a,,,,AAXX 23034 07434 12109 81002 11020 21030 39682 40182 56014 60007 74474 877// 90300=
07434,1996-02-23 09:00:00,0,1019.3,1.3,100,0,300,7.408,,,290,,,,1,,,,,,43,wg-a,,,,AAXX 23094 07434 12/03 92904 10000 20000 39697 40193 51013 60017 74374 89/// 90900=
07434,1996-02-23 12:00:00,2,1019.1,0.1,87,0,8000,14.816,,,290,,,,,,,,,,1,wg-a,,,,AAXX 23124 07434 12258 72908 10020 20000 39698 40191 50001 60006 70174 875// 91200=
07434,1996-02-23 15:00:00,3,1018,-0.8,70,-2,20000,3.704,,,290,,,,,,,,,,,wg-a,,,,AAXX 23154 07434 12470 72902 10030 21020 39690 40180 56008 60006 878// 91500=
07434,1996-02-23 18:00:00,2,1018.7,0.5,75,-2,25000,3.704,,,260,-1.8,3.4,,,,,,,,,wg-a,,2,,AAXX 23184 07434 32675 72602 10020 21020 39695 40187 53005 875// 91800 333 10034 21018 4/002=
07434,1996-02-23 21:00:00,2,1019.2,0.4,75,-2,25000,3.704,,,250,,,,,,,,,,,wg-a,,,,AAXX 23214 07434 12675 72502 10020 21020 39699 40192 51004 60006 875// 92100=
07434,1996-02-24 00:00:00,1,1018.8,-0.5,86,-1,13000,3.704,,,160,,,,,,,,,,,wg-a,,,,AAXX 24004 07434 12663 71602 10010 21010 39694 40188 58005 60006 875// 90000=
07434,1996-02-24 03:00:00,1,1018,-0.8,86,-1,12000,3.704,,,140,,,,,,,,,,,wg-a,,,,AAXX 24034 07434 12562 71402 10010 21010 39686 40180 58008 60006 8557/ 90300=
07434,1996-02-24 06:00:00,1,1017.1,-0.8,86,-1,13000,11.112,,,150,0.7,2.3,,,,,,,,,wg-a,,1,,AAXX 24064 07434 02463 71506 10010 21010 39678 40171 56008 60006 8557/ 90600 333 10023 20007 4/001 61000=
07434,1996-02-24 09:00:00,3,1016.5,-0.3,75,-1,13000,14.816,,,170,,,,,,,,,,,wg-a,,,,AAXX 24094 07434 12463 71708 10030 21010 39675 40165 58003 60006 8557/ 90900=
07434,1996-02-24 12:00:00,6,1015.1,-0.8,75,2,15000,22.224,,,190,,,,,,,,,,,wg-a,,,,AAXX 24124 07434 12465 /1912 10060 20020 39667 40151 58008 60006 85572 91200=
07434,1996-02-24 15:00:00,7,1013.2,-1.6,76,3,15000,18.52,,,190,,,,,,,,,,,wg-a,,,,AAXX 24154 07434 12465 51910 10070 20030 39651 40132 56016 60006 85572 91500=
07434,1996-02-24 18:00:00,6,1012.6,-0.7,87,4,500,14.816,,,200,1.3,7.6,,,,,,,,,wg-a,,,,AAXX 24184 07434 12500 52008 10060 20040 39644 40126 56007 60006 85572 91800 333 10076 20013=
07434,1996-02-24 21:00:00,6,1012.2,-0.4,81,3,500,22.224,,,190,,,,,,,,,,,wg-a,,,,AAXX 24214 07434 12500 71912 10060 20030 39640 40122 57004 60006 86501 92100=
07434,1996-02-25 00:00:00,5,1012.2,-0.2,81,2,500,22.224,,,190,,,,,,,,,,,wg-a,,,,AAXX 25004 07434 12500 41912 10050 20020 39638 40122 58002 60006 82201 90000=
07434,1996-02-25 03:00:00,3,1011.3,-1.2,87,1,500,18.52,,,180,,,,,,,,,,,wg-a,,,,AAXX 25034 07434 12/00 51810 10030 20010 39626 40113 58012 60006 82031 90300=
07434,1996-02-25 06:00:00,3,1010.3,-0.9,81,0,500,14.816,,,170,2.4,6.5,,,,,,,,,wg-a,,,,AAXX 25064 07434 02/00 61708 10030 20000 39617 40103 56009 60006 83031 90600 333 10065 20024 60004=
07434,1996-02-25 09:00:00,6,1010,0.2,75,2,40000,14.816,,,170,,,,,,,,,,,wg-a,,,,AAXX 25094 07434 12/82 51708 10060 20020 39619 40100 50002 60006 80001 90900=
07434,1996-02-25 12:00:00,11,1008,-1.1,58,3,60000,31.484,,,190,,,,,,,,,,,wg-a,,,,AAXX 25124 07434 12/86 51917 10110 20030 39608 40080 58011 60006 80001 91200=
07434,1996-02-25 14:00:00,13,1005.6,-1.9,51,3,60000,29.632,,53.708,180,,,,,,,,,,,wg-a,,,,AAXX 25144 07434 12586 31816 10130 20030 39589 40056 56019 60006 81101 91400 333 91029=
07434,1996-02-25 15:00:00,13,1005.6,-1.9,51,3,60000,29.632,,,180,,,,,,,,,,,wg-a,,,,AAXX 25154 07434 12586 31816 10130 20030 39589 40056 56019 60006 81101 91500=
07434,1996-02-25 18:00:00,10,1006.7,0.5,57,2,40000,25.928,,,170,2.9,13.5,,,,,,,,,wg-a,,,,AAXX 25184 07434 12/82 21714 10100 20020 39594 40067 53005 60006 80001 91800 333 10135 20029=
07434,1996-02-25 21:00:00,8,1007.3,0.3,66,2,40000,29.632,,,170,,,,,,,,,,,wg-a,,,,AAXX 25214 07434 12/82 31716 10080 20020 39597 40073 53003 60006 80001 92100=
07434,1996-02-26 00:00:00,8,1007.5,0.1,61,1,25000,31.484,,,170,,,,,,,,,,,wg-a,,,,AAXX 26004 07434 12/75 11717 10080 20010 39598 40075 53001 60006 80001 90000=
07434,1996-02-26 03:00:00,7,1007.7,0.1,66,1,25000,25.928,,,180,,,,,,,,,,,wg-a,,,,AAXX 26034 07434 12/75 31814 10070 20010 39599 40077 51001 60006 81031 90300=
07434,1996-02-26 06:00:00,7,1009.8,1.9,76,3,25000,25.928,,,190,6.4,9.8,,,,,,,,,wg-a,,,,AAXX 26064 07434 02675 71914 10070 20030 39618 40098 53019 60006 875// 90600 333 10098 20064 60004=
07434,1996-02-26 09:00:00,6,1011.5,1.5,87,4,15000,14.816,,,210,,,,0,,,,,,60,wg-a,,,,AAXX 26094 07434 12465 72108 10060 20040 39633 40115 51015 60007 76062 8757/ 90900=
07434,1996-02-26 12:00:00,8,1011.4,0.3,81,5,50000,18.52,,,180,,,,,,,,,,1,wg-a,,,,AAXX 26124 07434 02584 71810 10080 20050 39636 40114 50003 60016 70162 8787/ 91200 333 61000=
07434,1996-02-26 15:00:00,7,1011.6,-0,81,4,40000,18.52,,,280,,,,,,,,,,,wg-a,,,,AAXX 26154 07434 12482 72810 10070 20040 39636 40116 55000 60006 86830 91500=
07434,1996-02-26 18:00:00,5,1013.6,1.6,87,3,11000,3.704,,,300,5.2,8.3,,,,,,,,,wg-a,,,,AAXX 26184 07434 32/61 /3002 10050 20030 39652 40136 53016 91800 333 10083 20052=
07434,1996-02-26 21:00:00,5,1015.1,1.3,81,2,15000,7.408,,,350,,,,,,,,,,,wg-a,,,,AAXX 26214 07434 12565 73504 10050 20020 39665 40151 51013 60006 81532 92100=
07434,1996-02-27 00:00:00,5,1015.5,0.5,87,3,20000,7.408,,,360,,,,,,,,,,,wg-a,,,,AAXX 27004 07434 12570 63604 10050 20030 39670 40155 51005 60006 83531 90000=
07434,1996-02-27 03:00:00,4,1016,0.3,93,3,10000,11.112,,,10,,,,,,,,,,,wg-a,,,,AAXX 27034 07434 12560 70106 10040 20030 39673 40160 51003 60006 8553/ 90300=
07434,1996-02-27 06:00:00,4,1016.7,0.6,93,3,3000,7.408,,,20,3.9,5.3,,,,,,,,10,wg-a,,,,AAXX 27064 07434 02130 80204 10040 20030 39679 40167 53006 60006 71022 886// 90600 333 10053 20039 60004=
07434,1996-02-27 09:00:00,4,1018,1.3,100,4,1100,7.408,,,20,,,,,,,,,,28,wg-a,,,,AAXX 27094 07434 12111 90204 10040 20040 39692 40180 51013 60006 72842 896// 90900=
07434,1996-02-27 12:00:00,6,1018.1,,87,4,12000,3.704,,,30,,,,,,,,,,1,wg-a,,,,AAXX 27124 07434 32362 80302 10060 20040 39696 40181 70164 875// 91200=
07434,1996-02-27 15:00:00,6,1017.8,-0.3,87,4,12000,7.408,,,10,,,,,,,,,,,wg-a,,,,AAXX 27154 07434 12362 80104 10060 20040 39693 40178 56003 60006 875// 91500=
07434,1996-02-27 18:00:00,6,1018.7,0.8,81,3,15000,7.408,,,10,3.9,6,,,,,,,,,wg-a,,,,AAXX 27184 07434 32665 70104 10060 20030 39701 40187 53008 875// 91800 333 10060 20039=
07434,1996-02-27 21:00:00,5,1019.9,1.1,93,4,10000,7.408,,,10,,,,,,,,,,,wg-a,,,,AAXX 27214 07434 12460 70104 10050 20040 39712 40199 51011 60006 875// 92100=
07434,1996-02-28 00:00:00,5,1019.9,-0.1,93,4,10000,7.408,,,50,,,,,,,,,,,wg-a,,,,AAXX 28004 07434 12460 70504 10050 20040 39711 40199 57001 60006 875// 90000=
07434,1996-02-28 03:00:00,5,1019.6,-0.3,93,4,10000,3.704,,,30,,,,,,,,,,,wg-a,,,,AAXX 28034 07434 12560 70302 10050 20040 39708 40196 58003 60006 875// 90300=
07434,1996-02-28 06:00:00,4,1020.1,0.5,100,4,10000,7.408,,,10,4.2,5.6,,,,,,,,,wg-a,,,,AAXX 28064 07434 02460 70104 10040 20040 39713 40201 53005 60006 875// 90600 333 10056 20042 61000=
07434,1996-02-28 09:00:00,6,1021.2,1.3,93,5,500,7.408,,,360,,,,,,,,,,,wg-a,,,,AAXX 28094 07434 12100 33604 10060 20050 39726 40212 53013 60006 83500 90900=
07434,1996-02-28 12:00:00,8,1021.1,0.2,81,5,12000,11.112,,,340,,,,,,,,,,,wg-a,,,,AAXX 28124 07434 12462 63406 10080 20050 39728 40211 50002 60006 86800 91200=
07434,1996-02-28 15:00:00,8,1021,-0,81,5,13000,18.52,,,360,,,,,,,,,,,wg-a,,,,AAXX 28154 07434 12463 53610 10080 20050 39728 40210 55000 60006 85800 91500=
07434,1996-02-28 18:00:00,6,1022.7,1.2,87,4,9000,14.816,,,30,4.1,9,,,,,,,,,wg-a,,,,AAXX 28184 07434 12459 70308 10060 20040 39740 40227 53012 60006 875// 91800 333 10090 20041=
07434,1996-02-28 21:00:00,6,1023.5,0.8,93,5,6000,11.112,,,30,,,,,,,,,,,wg-a,,,,AAXX 28214 07434 12256 80306 10060 20050 39748 40235 53008 60006 886// 92100=
07434,1996-02-29 03:00:00,4,1023.5,-0.3,100,4,7000,11.112,,,30,,,,,,,,,,,wg-a,,,,AAXX 29034 07434 12157 80306 10040 20040 39744 40235 58003 60006 886// 90300=
07434,1996-02-29 06:00:00,4,1023.8,0.3,100,4,2000,14.816,,,40,3.8,6.2,,,,,,,,10,wg-a,,,,AAXX 29064 07434 02120 80408 10040 20040 39747 40238 53003 60006 71022 886// 90600 333 10062 20038 60004=
07434,1996-02-29 09:00:00,6,1024.9,1.4,87,4,4000,22.224,,,70,,,,,,,,,,10,wg-a,,,,AAXX 29094 07434 12340 70712 10060 20040 39761 40249 53014 60006 71022 878// 90900=
07434,1996-02-29 12:00:00,9,1025.3,0.9,71,4,9000,18.52,,,60,,,,,,,,,,,wg-a,,,,AAXX 29124 07434 12459 /0610 10090 20040 39770 40253 52009 60006 86800 91200=
07434,1996-02-29 15:00:00,8,1025.9,0.3,76,4,10000,18.52,,,40,,,,,,,,,,,wg-a,,,,AAXX 29154 07434 12460 70410 10080 20040 39773 40259 53003 60006 875// 91500=
07434,1996-02-29 18:00:00,5,1028,1.6,81,2,3000,18.52,,,50,3.9,9.2,,,,,,,,,wg-a,,,,AAXX 29184 07434 12230 70510 10050 20020 39789 40280 53016 60006 875// 91800 333 10092 20039=
07434,1996-02-29 21:00:00,3,1028.7,0.4,93,2,0,7.408,,,60,,,,,,,,,,,wg-a,,,,AAXX 29214 07434 12/// 00604 10030 20020 39793 40287 50004 60006 80000 92100=
07434,1996-03-01 00:00:00,4,1028.9,0.3,81,1,0,14.816,,,40,,,,,,,,,,,wg-a,,,,AAXX 01004 07434 12/// 00408 10040 20010 39796 40289 53003 60006 80000 90000=
07434,1996-03-01 03:00:00,3,1028.5,-0.6,81,0,0,14.816,,,30,,,,,,,,,,,wg-a,,,,AAXX 01034 07434 12/// 00308 10030 20000 39790 40285 57006 60006 80000 90300=
07434,1996-03-01 06:00:00,1,1029.5,0.5,93,0,800,18.52,,,20,0.6,5.3,,,,,,,,41,wg-a,,,,AAXX 01064 07434 02108 30210 10010 20000 39795 40295 53005 60006 74140 83600 90600 333 10053 20006 60004=
07434,1996-03-01 09:00:00,3,1030.4,1.3,81,0,0,25.928,,,40,,,,,,,,,,1,wg-a,,,,AAXX 01094 07434 124// 50414 10030 20000 39808 40304 51013 60006 70141 85801 90900=
07434,1996-03-01 12:00:00,2,1030.3,-0.2,93,1,0,22.224,,,40,,,,,,,,,,3,wg-a,,,,AAXX 01124 07434 122// 80412 10020 20010 39806 40303 58002 60006 70341 885// 91200=
07434,1996-03-01 15:00:00,6,1028.4,-1.3,70,1,20000,25.928,,,30,,,,,,,,,,,wg-a,,,,AAXX 01154 07434 12470 /0314 10060 20010 39793 40284 56013 60006 86800 91500=
07434,1996-03-01 16:00:00,6,1027.6,,75,2,8000,0,,,0,,,,,,,,,,0,wg-a,,,,AAXX 01164 07434 32/58 /0000 10060 20020 39787 40276 7//38 87717 91600=
07434,1996-03-01 18:00:00,5,1027.8,-0.6,81,2,20000,14.816,,,20,0.8,6.6,,,,,,,,,wg-a,,,,AAXX 01184 07434 12470 70208 10050 20020 39787 40278 55006 60006 875// 91800 333 10066 20008=
07434,1996-03-01 21:00:00,5,1026.9,-0.9,87,3,7000,14.816,,,10,,,,,,,,,,50,wg-a,,,,AAXX 01214 07434 02357 80108 10050 20030 39778 40269 58009 61000 75052 877// 92100 333 ////=
07434,1996-03-02 00:00:00,4,1025.8,-1.1,93,3,8000,14.816,,,10,,,,0,,,,,,3,wg-a,,,,AAXX 02004 07434 02358 70108 10040 20030 39767 40258 58011 60006 70352 875// 90000 333 60007=
07434,1996-03-02 03:00:00,4,1024,-1.9,93,3,500,18.52,,,20,,,,,,,,,,50,wg-a,,,,AAXX 02034 07434 02300 80210 10040 20030 39748 40240 56019 61000 75052 877// 90300 333 ////=
07434,1996-03-02 06:00:00,3,1023.3,-0.7,93,2,8000,14.816,,,20,3,5,,0,,,,,,50,wg-a,,,,AAXX 02064 07434 02358 80208 10030 20020 39741 40233 56007 60004 75065 877// 90600 333 10050 20030 60007=
07434,1996-03-02 09:00:00,3,1023.9,0.4,87,1,10000,14.816,,,20,,,,,,,,,,1,wg-a,,,,AAXX 02094 07434 02360 70208 10030 20010 39745 40239 51004 61000 70152 877// 90900 333 ////=
07434,1996-03-02 12:00:00,4,1023.7,0,65,-2,10000,22.224,,,40,,,,,,,,,,1,wg-a,,,,AAXX 02124 07434 02460 /0412 10040 21020 39745 40237 50000 61000 70176 86800 91200 333 6100=
07434,1996-03-02 15:00:00,5,1022.3,-1.2,52,-4,15000,25.928,,,40,,,,,,,,,,,wg-a,,,,AAXX 02154 07434 12665 30414 10050 21040 39733 40223 56012 60006 83100 91500=
07434,1996-03-02 18:00:00,3,1023.1,0.4,56,-5,15000,14.816,,,40,2.4,5.2,,,,,,,,,wg-a,,,,AAXX 02184 07434 32765 20408 10030 21050 39737 40231 53004 81401 91800 333 10052 20024=
07434,1996-03-02 21:00:00,1,1023.5,0.1,59,-6,10000,14.816,,,30,,,,,,,,,,,wg-a,,,,AAXX 02214 07434 12/60 00308 10010 21060 39738 40235 51001 60006 80000 92100=
07434,1996-03-03 00:00:00,-1,1023.3,-0.5,69,-6,10000,11.112,,,50,,,,,,,,,,,wg-a,,,,AAXX 03004 07434 12/60 30506 11010 21060 39733 40233 56005 60006 80002 90000=
07434,1996-03-03 03:00:00,-1,1022.1,-1.2,74,-5,7000,11.112,,,10,,,,,,,,,,,wg-a,,,,AAXX 03034 07434 12/57 80106 11010 21050 39721 40221 58012 60006 8801/ 90300=
07434,1996-03-03 06:00:00,-2,1021.4,-0.7,80,-5,6000,3.704,,,30,-1.5,2.5,,,,,,,,,wg-a,,,,AAXX 03064 07434 02656 70302 11020 21050 39714 40214 55007 60006 8357/ 90600 333 10025 21015 61000=
07434,1996-03-03 09:00:00,-1,1021.7,0.5,80,-4,7000,7.408,,,360,,,,,,,,,,,wg-a,,,,AAXX 03094 07434 12557 73604 11010 21040 39719 40217 53005 60006 875// 90900=
07434,1996-03-03 12:00:00,0,1021.2,-0.3,86,-2,7000,11.112,,,350,,,,,,,,,,22,wg-a,,,,AAXX 03124 07434 02357 83506 10000 21020 39716 40212 58003 61000 72272 8672/ 91200 333 6100=
07434,1996-03-03 15:00:00,2,1020,-1,80,-1,12000,14.816,,,350,,,,,,,,,,3,wg-a,,,,AAXX 03154 07434 02362 83508 10020 21010 39706 40200 55010 61000 70372 877// 91500 333 ////=
07434,1996-03-03 18:00:00,1,1020.6,0.5,86,-1,4000,7.408,,,10,-1.8,2,,,,,,,,10,wg-a,,,,AAXX 03184 07434 32240 80104 10010 21010 39711 40206 53005 71072 886// 91800 333 10020 21018=
07434,1996-03-03 21:00:00,1,1020.4,-0.2,93,0,3000,7.408,,,310,,,,,,,,,,10,wg-a,,,,AAXX 03214 07434 12130 83104 10010 20000 39709 40204 58002 60006 71022 886// 92100=
07434,1996-03-04 00:00:00,0,1020.6,0.1,100,0,2000,0,,,0,,,,2,,,,,,3,wg-a,,,,AAXX 04004 07434 02220 80000 10000 20000 39710 40206 50001 60026 70376 887// 90000 333 60027=
07434,1996-03-04 03:00:00,1,1020.2,-0.3,93,0,1100,3.704,,,60,,,,1,,,,,,10,wg-a,,,,AAXX 04034 07434 12111 80602 10010 20000 39707 40202 57003 60017 71022 887// 90300=
07434,1996-03-04 06:00:00,0,1020.8,0.5,100,0,8000,11.112,,,70,0,1,,,,,3,,,,wg-a,,0,,AAXX 04064 07434 12458 70706 10000 20000 39712 40208 53005 60034 875// 90600 333 10010 20000 4/9999=
07434,1996-03-04 09:00:00,1,1022.3,1.5,69,-4,9000,14.816,,,90,,,,,,,,,,,wg-a,,,,AAXX 04094 07434 12459 /0908 10010 21040 39727 40223 51015 60006 81100 90900=
07434,1996-03-04 12:00:00,5,1021.6,-0.1,48,-5,8000,11.112,,,40,,,,,,,,,,,wg-a,,,,AAXX 04124 07434 12558 /0406 10050 21050 39726 40216 58001 60006 81100 91200=
07434,1996-03-04 15:00:00,6,1020.7,-0.6,45,-5,15000,11.112,,,20,,,,,,,,,,,wg-a,,,,AAXX 04154 07434 12/65 00206 10060 21050 39720 40207 56006 60006 80000 91500=
07434,1996-03-04 18:00:00,3,1022.6,1.3,56,-5,10000,11.112,,,20,-0.2,6.2,,,,,,,,,wg-a,,,,AAXX 04184 07434 12/60 00206 10030 21050 39733 40226 53013 60006 80000 91800 333 10062 21002=
07434,1996-03-04 21:00:00,1,1024.4,1.3,64,-5,12000,7.408,,,30,,,,,,,,,,,wg-a,,,,AAXX 04214 07434 12/62 00304 10010 21050 39746 40244 51013 60006 80000 92100=
07434,1996-03-05 00:00:00,1,1024.7,0.3,64,-5,8000,7.408,,,20,,,,,,,,,,,wg-a,,,,AAXX 05004 07434 12658 60204 10010 21050 39749 40247 53003 60006 86500 90000=
07434,1996-03-05 03:00:00,1,1024.7,0.1,75,-3,8000,7.408,,,340,,,,,,,,,,,wg-a,,,,AAXX 05034 07434 12558 83404 10010 21030 39750 40247 50001 60006 875// 90300=
07434,1996-03-05 06:00:00,1,1025.7,0.9,69,-4,12000,7.408,,,10,0.2,2.6,,,,,,,,,wg-a,,,,AAXX 05064 07434 02562 80104 10010 21040 39759 40257 53009 60006 878// 90600 333 10026 20002 60004=
07434,1996-03-05 09:00:00,2,1026.9,1.3,87,0,2000,11.112,,,10,,,,,,,,,,10,wg-a,,,,AAXX 05094 07434 12220 80106 10020 20000 39772 40269 51013 60006 71022 876// 90900=
07434,1996-03-05 12:00:00,3,1026.9,0.3,81,0,3000,7.408,,,50,,,,,,,,,,10,wg-a,,,,AAXX 05124 07434 12430 80504 10030 20000 39775 40269 50003 60006 71022 878// 91200=
07434,1996-03-05 15:00:00,4,1026,-0.8,70,-1,10000,14.816,,,40,,,,,,,,,,,wg-a,,,,AAXX 05154 07434 12560 70408 10040 21010 39767 40260 56008 60006 878// 91500=
07434,1996-03-05 18:00:00,3,1026.3,0.2,81,0,12000,11.112,,,30,0.7,4.5,,,,,,,,,wg-a,,,,AAXX 05184 07434 12562 /0306 10030 20000 39769 40263 52002 60006 85800 91800 333 10045 20007=
07434,1996-03-05 21:00:00,2,1026.9,0.3,80,-1,10000,14.816,,,40,,,,,,,,,,,wg-a,,,,AAXX 05214 07434 12/60 /0408 10020 21010 39772 40269 50003 60006 92100=
07434,1996-03-06 00:00:00,1,1026.6,-0.3,80,-2,10000,11.112,,,20,,,,,,,,,,,wg-a,,,,AAXX 06004 07434 12/60 10206 10010 21020 39769 40266 57003 60006 81030 90000=
07434,1996-03-06 03:00:00,-1,1026,-1,93,-2,9000,11.112,,,60,,,,,,,,,,,wg-a,,,,AAXX 06034 07434 12/59 /0606 11010 21020 39759 40260 58010 60006 81030 90300=
07434,1996-03-06 06:00:00,0,1025.3,-0.5,86,-2,6000,14.816,,,50,-0.9,3,,,,,,,,,wg-a,,,,AAXX 06064 07434 02/56 /0508 10000 21020 39754 40253 56005 60006 81030 90600 333 10030 21009 60004=
07434,1996-03-06 09:00:00,4,1024.4,-0.2,70,-1,3000,22.224,,,60,,,,,,,,,,10,wg-a,,,,AAXX 06094 07434 12430 /0612 10040 21010 39752 40244 58002 60006 71000 81100 90900=
07434,1996-03-06 12:00:00,7,1022.3,-1.5,49,-3,15000,29.632,,,70,,,,,,,,,,,wg-a,,,,AAXX 06124 07434 12565 /0716 10070 21030 39737 40223 58015 60006 86800 91200=
07434,1996-03-06 15:00:00,6,1021,-1.5,52,-3,20000,29.632,,,60,,,,,,,,,,,wg-a,,,,AAXX 06154 07434 12570 70616 10060 21030 39722 40210 56015 60006 878// 91500=
07434,1996-03-06 18:00:00,3,1020.8,-0.5,81,0,10000,18.52,,,50,-0.5,7.1,,,,,,,,,wg-a,,,,AAXX 06184 07434 12460 70510 10030 20000 39717 40208 56005 60006 878// 91800 333 10071 21005=
07434,1996-03-06 21:00:00,2,1020.5,-0.4,87,0,9000,18.52,,,60,,,,,,,,,,,wg-a,,,,AAXX 06214 07434 12459 70610 10020 20000 39713 40205 58004 60006 875// 92100=
07434,1996-03-07 00:00:00,1,1019.4,-1.3,86,-1,6000,18.52,,,50,,,,,,,,,,,wg-a,,,,AAXX 07004 07434 12456 80510 10010 21010 39700 40194 58013 60006 875// 90000=
07434,1996-03-07 03:00:00,0,1016.8,-2.7,86,-2,6000,18.52,,,40,,,,,,,,,,,wg-a,,,,AAXX 07034 07434 12456 30410 10000 21020 39673 40168 58027 60006 83500 90300=
07434,1996-03-07 06:00:00,0,1015.1,-1.7,80,-3,500,14.816,,,60,-0.5,3.3,,,,,,,,,wg-a,,,,AAXX 07064 07434 02500 30608 10000 21030 39656 40151 56017 60006 83500 90600 333 10033 21005 60004=
07434,1996-03-07 09:00:00,2,1013.7,-1,69,-3,6000,14.816,,,70,,,,,,,,,,,wg-a,,,,AAXX 07094 07434 12556 /0708 10020 21030 39646 40137 58010 60006 85530 90900=
07434,1996-03-07 12:00:00,3,1012.1,-1.2,60,-4,12000,14.816,,,80,,,,,,,,,,,wg-a,,,,AAXX 07124 07434 12562 70808 10030 21040 39634 40121 56012 60006 8553/ 91200=
07434,1996-03-07 15:00:00,3,1011.2,-1,65,-3,12000,18.52,,,80,,,,,,,,,,,wg-a,,,,AAXX 07154 07434 12562 70810 10030 21030 39624 40112 56010 60006 875// 91500=
07434,1996-03-07 18:00:00,2,1011.9,0.5,75,-2,10000,11.112,,,80,-0.2,3.8,,,,,,,,,wg-a,,,,AAXX 07184 07434 12560 70806 10020 21020 39629 40119 53005 60006 8557/ 91800 333 10038 21002=
07434,1996-03-07 21:00:00,1,1012.7,0.7,80,-2,15000,3.704,,,90,,,,,,,,,,,wg-a,,,,AAXX 07214 07434 12665 70902 10010 21020 39636 40127 51007 60006 8357/ 92100=
07434,1996-03-08 00:00:00,3,1012.8,0.4,75,-1,15000,7.408,,,110,,,,,,,,,,,wg-a,,,,AAXX 08004 07434 12665 71104 10030 21010 39640 40128 50004 60006 875// 90000=
07434,1996-03-08 03:00:00,5,1013.1,0.6,75,1,15000,14.816,,,170,,,,,,,,,,,wg-a,,,,AAXX 08034 07434 12665 71708 10050 20010 39646 40131 51006 60006 875// 90300=
07434,1996-03-08 06:00:00,4,1014.4,1.2,81,1,20000,14.816,,,180,1.1,5,,,,,,,,,wg-a,,,,AAXX 08064 07434 02570 71808 10040 20010 39658 40144 53012 60006 8557/ 90600 333 10050 20011 60004=
07434,1996-03-08 12:00:00,10,1014.8,0.8,53,1,500,38.892,,55.56,180,,,,,,,,,,,wg-a,,,,AAXX 08124 07434 12500 /1821 10100 20010 39671 40148 52008 60006 83831 91200 333 91030=
07434,1996-03-08 15:00:00,10,1014.3,-0.4,53,1,25000,29.632,,,170,,,,,,,,,,,wg-a,,,,AAXX 08154 07434 12675 71716 10100 20010 39667 40143 58004 60006 83272 91500=
07434,1996-03-08 18:00:00,8,1015.9,1.1,61,1,25000,18.52,,,160,4.2,11.4,,,,,,,,,wg-a,,,,AAXX 08184 07434 12/75 11610 10080 20010 39678 40159 53011 60006 80001 91800 333 10114 20042=
07434,1996-03-08 21:00:00,6,1017,0.8,70,1,20000,18.52,,,140,,,,,,,,,,,wg-a,,,,AAXX 08214 07434 12/70 01410 10060 20010 39686 40170 51008 60006 80000 92100=
07434,1996-03-09 00:00:00,5,1017.9,0.6,70,0,20000,14.816,,,130,,,,,,,,,,,wg-a,,,,AAXX 09004 07434 12/70 01308 10050 20000 39692 40179 51006 60006 80000 90000=
07434,1996-03-09 03:00:00,5,1017.9,0,75,1,15000,14.816,,,130,,,,,,,,,,,wg-a,,,,AAXX 09034 07434 12/65 01308 10050 20010 39692 40179 50000 60006 80000 90300=
07434,1996-03-09 06:00:00,4,1018,0,75,0,15000,14.816,,,120,4.1,7.9,,,,,,,,,wg-a,,,,AAXX 09064 07434 02/65 01208 10040 20000 39692 40180 50000 60006 80000 90600 333 10079 20041 60004=
07434,1996-03-09 09:00:00,8,1017.9,0.6,66,2,25000,18.52,,,150,,,,,,,,,,,wg-a,,,,AAXX 09094 07434 12/75 21510 10080 20020 39698 40179 51006 60006 80001 90900=
07434,1996-03-09 12:00:00,13,1016.3,-0.8,54,4,500,25.928,,,170,,,,,,,,,,,wg-a,,,,AAXX 09124 07434 12500 21714 10130 20040 39690 40163 58008 60006 82101 91200=
07434,1996-03-09 18:00:00,10,1016.7,0.6,62,3,25000,11.112,,,210,4,13.2,,,,,,,,,wg-a,,,,AAXX 09184 07434 12675 32106 10100 20030 39690 40167 53006 60006 83801 91800 333 10132 20040=
07434,1996-03-09 21:00:00,8,1018.2,1.1,61,1,20000,7.408,,,150,,,,,,,,,,,wg-a,,,,AAXX 09214 07434 12770 31504 10080 20010 39701 40182 51011 60006 83500 92100=
07434,1996-03-10 00:00:00,7,1018.8,0.2,61,0,20000,7.408,,,130,,,,,,,,,,,wg-a,,,,AAXX 10004 07434 12/70 11304 10070 20000 39703 40188 50002 60006 81030 90000=
07434,1996-03-10 03:00:00,5,1019.3,0.3,75,1,15000,3.704,,,70,,,,,,,,,,,wg-a,,,,AAXX 10034 07434 12/65 10702 10050 20010 39706 40193 50003 60006 81030 90300=
07434,1996-03-10 06:00:00,3,1020.2,0.4,81,0,15000,3.704,,,80,2.8,10.2,,,,,,,,,wg-a,,,,AAXX 10064 07434 02/65 00802 10030 20000 39710 40202 51004 60006 80000 90600 333 10102 20028 60004=
07434,1996-03-10 09:00:00,9,1019.8,0.7,57,1,15000,11.112,,,30,,,,,,,,,,,wg-a,,,,AAXX 10094 07434 12/65 30306 10090 20010 39717 40198 51007 60006 83031 90900=
07434,1996-03-10 12:00:00,13,1018.4,-0.6,33,-3,15000,25.928,,,50,,,,,,,,,,,wg-a,,,,AAXX 10124 07434 12665 20514 10130 21030 39711 40184 58006 60006 82131 91200=
07434,1996-03-10 15:00:00,13,1017.5,-1,28,-5,15000,22.224,,,30,,,,,,,,,,,wg-a,,,,AAXX 10154 07434 12665 20312 10130 21050 39701 40175 56010 60006 82131 91500=
07434,1996-03-10 21:00:00,4,1019.7,0.3,56,-4,15000,18.52,,,50,,,,,,,,,,,wg-a,,,,AAXX 10214 07434 12/65 10510 10040 21040 39707 40197 51003 60006 80001 92100=
07434,1996-03-11 03:00:00,0,1018.8,-0.7,74,-4,12000,11.112,,,40,,,,,,,,,,,wg-a,,,,AAXX 11034 07434 12/62 00406 10000 21040 39692 40188 56007 60006 80000 90300=
07434,1996-03-11 06:00:00,-1,1019,-0,80,-4,9000,11.112,,,10,-1.5,8,,,,,,,,,wg-a,,,,AAXX 11064 07434 02/59 00106 11010 21040 39692 40190 55000 60006 80000 90600 333 10080 21015 60004=
07434,1996-03-11 09:00:00,2,1019.4,0.9,64,-4,2000,18.52,,,20,,,,,,,,,,10,wg-a,,,,AAXX 11094 07434 12/20 00210 10020 21040 39701 40194 53009 60006 71000 80000 90900=
07434,1996-03-11 12:00:00,8,1017.7,-0.6,42,-4,8000,14.816,,,90,,,,,,,,,,,wg-a,,,,AAXX 11124 07434 12/58 /0908 10080 21040 39695 40177 57006 60006 80001 91200=
07434,1996-03-11 21:00:00,4,1015.8,-0.4,52,-5,10000,14.816,,,30,,,,,,,,,,,wg-a,,,,AAXX 11214 07434 12/60 10308 10040 21050 39671 40158 58004 60006 80001 92100=
07434,1996-03-12 00:00:00,2,1014.9,-1.2,55,-6,10000,3.704,,,90,,,,,,,,,,,wg-a,,,,AAXX 12004 07434 12/60 /0902 10020 21060 39659 40149 58012 60006 90000=
07434,1996-03-12 03:00:00,0,1012.8,-2.4,69,-5,20000,7.408,,,60,,,,,,,,,,,wg-a,,,,AAXX 12034 07434 12/70 10604 10000 21050 39635 40128 58024 60006 80001 90300=
07434,1996-03-12 06:00:00,-1,1011.4,-1.5,69,-6,12000,7.408,,,60,-1,6.5,,,,,,,,,wg-a,,,,AAXX 12064 07434 02/62 10604 11010 21060 39620 40114 56015 60006 80001 90600 333 10065 21010 60004=
07434,1996-03-12 09:00:00,3,1010,-0.7,56,-5,4000,7.408,,,100,,,,,,,,,,,wg-a,,,,AAXX 12094 07434 12/40 /1004 10030 21050 39613 40100 56007 60006 90900=
07434,1996-03-12 12:00:00,9,1006.9,-1.9,34,-6,8000,7.408,,,90,,,,,,,,,,,wg-a,,,,AAXX 12124 07434 12/58 50904 10090 21060 39594 40069 58019 60006 80009 91200=
07434,1996-03-12 15:00:00,12,1003.6,-2.7,28,-6,10000,3.704,,,340,,,,,,,,,,,wg-a,,,,AAXX 12154 07434 12/60 73402 10120 21060 39567 40036 56027 60006 80002 91500=
07434,1996-03-12 18:00:00,9,1002.4,-1.6,34,-6,10000,14.816,,,80,-1,12.3,,,,,,,,,wg-a,,,,AAXX 12184 07434 12/60 70808 10090 21060 39551 40024 57016 60006 82032 91800 333 10123 21010=
07434,1996-03-13 00:00:00,3,1002.2,-0.4,56,-5,12000,11.112,,,80,,,,,,,,,,,wg-a,,,,AAXX 13004 07434 12/62 80806 10030 21050 39539 40022 56004 60006 8705/ 90000=
07434,1996-03-13 03:00:00,2,1001.4,-1,51,-7,12000,11.112,,,60,,,,,,,,,,,wg-a,,,,AAXX 13034 07434 12/62 60606 10020 21070 39529 40014 58010 60006 80001 90300=
07434,1996-03-13 06:00:00,2,1000.6,-0.7,51,-7,8000,7.408,,,50,1.3,8.8,,,,,,,,,wg-a,,,,AAXX 13064 07434 02/58 /0504 10020 21070 39522 40006 55007 60006 80001 90600 333 10088 20013 60004=
07434,1996-03-13 09:00:00,6,1000.1,0.2,45,-5,10000,7.408,,,100,,,,,,,,,,,wg-a,,,,AAXX 13094 07434 12/60 61004 10060 21050 39524 40001 53002 60006 80001 90900=
07434,1996-03-13 15:00:00,15,997.1,-0.9,21,-7,25000,14.816,,,170,,,,,,,,,,,wg-a,,,,AAXX 13154 07434 12/75 21708 10150 21070 39509 49971 56009 60006 80001 91500=
07434,1996-03-13 18:00:00,11,998.2,0.6,40,-2,20000,7.408,,,200,1.6,14.8,,,,,,,,,wg-a,,,,AAXX 13184 07434 12/70 22004 10110 21020 39515 49982 53006 60006 81031 91800 333 10148 20016=
07434,1996-03-13 21:00:00,9,1000.4,1.7,57,1,20000,11.112,,,140,,,,,,,,,,,wg-a,,,,AAXX 13214 07434 12/70 21406 10090 20010 39532 40004 51017 60006 81031 92100=
07434,1996-03-14 00:00:00,7,1001.2,0.4,70,2,20000,11.112,,,130,,,,,,,,,,,wg-a,,,,AAXX 14004 07434 12/70 01306 10070 20020 39536 40012 51004 60006 80000 90000=
07434,1996-03-14 03:00:00,7,1000.9,-0.2,70,2,15000,7.408,,,140,,,,,,,,,,,wg-a,,,,AAXX 14034 07434 12/65 71404 10070 20020 39534 40009 58002 60006 8707/ 90300=
07434,1996-03-14 06:00:00,6,1001.1,-0,70,1,15000,7.408,,,110,5.7,11.7,,,,,,,,,wg-a,,,,AAXX 14064 07434 02/65 51104 10060 20010 39534 40011 55000 60006 84031 90600 333 10117 20057 60004=
07434,1996-03-14 09:00:00,9,1001.4,0.8,66,3,25000,18.52,,,160,,,,,,,,,,,wg-a,,,,AAXX 14094 07434 12/75 21610 10090 20030 39542 40014 52008 60006 81031 90900=
07434,1996-03-14 12:00:00,11,1001.4,0.3,58,3,11000,14.816,,,170,,,,,,,,,,,wg-a,,,,AAXX 14124 07434 12/61 /1708 10110 20030 39545 40014 51003 60006 91200=
07434,1996-03-14 15:00:00,13,1000.6,-0.4,51,3,500,3.704,,,190,,,,,,,,,,,wg-a,,,,AAXX 14154 07434 12500 /1902 10130 20030 39541 40006 58004 60006 83801 91500=
07434,1996-03-14 18:00:00,10,1002.1,0.9,66,4,25000,11.112,,,180,5.8,13.3,,,,,,,,,wg-a,,,,AAXX 14184 07434 12675 71806 10100 20040 39550 40021 53009 60006 81281 91800 333 10133 20058=
07434,1996-03-14 21:00:00,8,1003.7,1.3,81,5,15000,3.704,,,200,,,,,,,,,,21,wg-a,,,,AAXX 14214 07434 02665 /2002 10080 20050 39563 40037 51013 61000 72162 8357/ 92100 333 ////=
07434,1996-03-15 00:00:00,7,1004.2,0.3,93,6,8000,7.408,,,310,,,,,,,,,,3,wg-a,,,,AAXX 15004 07434 02658 83104 10070 20060 39566 40042 50003 61000 70362 8457/ 90000 333 ////=
07434,1996-03-15 03:00:00,6,1004.3,-0.1,100,6,6000,0,,,0,,,,,,,,,,,wg-a,,,,AAXX 15034 07434 12256 80000 10060 20060 39565 40043 58001 60006 885// 90300=
07434,1996-03-15 06:00:00,6,1004.5,0.2,100,6,2000,7.408,,,330,5.9,10,,1,,,1,,,50,wg-a,,,,AAXX 15064 07434 02320 83304 10060 20060 39567 40045 53002 60014 75065 887// 90600 333 10100 20059 60017=
07434,1996-03-15 09:00:00,6,1005.4,0.9,100,6,1000,7.408,,,310,,,,1,,,,,,50,wg-a,,,,AAXX 15094 07434 12210 83104 10060 20060 39576 40054 51009 60017 75055 887// 90900=
07434,1996-03-15 12:00:00,7,1005.5,0.3,93,6,6000,11.112,,,280,,,,1,,,,,,21,wg-a,,,,AAXX 15124 07434 02256 82806 10070 20060 39579 40055 51003 60026 72165 887// 91200 333 60017=
07434,1996-03-15 18:00:00,7,1006.5,1.1,93,6,1200,11.112,,,310,6,7.7,,0,,,,,,60,wg-a,,,,AAXX 15184 07434 12212 83106 10070 20060 39587 40065 53011 60007 76062 887// 91800 333 10077 20060=
07434,1996-03-15 21:00:00,6,1007.3,0.7,100,6,1500,11.112,,,310,,,,2,,,,,,51,wg-a,,,,AAXX 15214 07434 12115 83106 10060 20060 39594 40073 52007 60027 75166 877// 92100=
07434,1996-03-16 00:00:00,5,1008.1,0.5,93,4,6000,11.112,,,300,,,,2,,,,,,51,wg-a,,,,AAXX 16004 07434 02256 83006 10050 20040 39599 40081 51005 60046 75166 875// 90000 333 60027=
07434,1996-03-16 03:00:00,4,1008.9,0.7,100,4,7000,11.112,,,280,,,,1,,,,,,51,wg-a,,,,AAXX 16034 07434 12257 82806 10040 20040 39606 40089 51007 60017 75166 875// 90300=
07434,1996-03-16 06:00:00,5,1009.8,0.9,93,4,2000,7.408,,,290,4.2,6.5,,0,,,8,,,10,wg-a,,,,AAXX 16064 07434 02120 72904 10050 20040 39615 40098 53009 60084 71065 875// 90600 333 10065 20042 60007=
07434,1996-03-16 09:00:00,5,1011.5,1.7,100,5,8000,7.408,,,300,,,,1,,,,,,10,wg-a,,,,AAXX 16094 07434 12258 73004 10050 20050 39632 40115 53017 60017 71065 877// 90900=
07434,1996-03-16 12:00:00,7,1012.4,1.1,76,3,50000,14.816,,,300,,,,,,,,,,1,wg-a,,,,AAXX 16124 07434 02484 73008 10070 20030 39643 40124 51011 60016 70165 858// 91200 333 61000=
07434,1996-03-16 15:00:00,8,1012.4,0.2,71,3,50000,11.112,,,310,,,,,,,,,,,wg-a,,,,AAXX 16154 07434 12584 73106 10080 20030 39645 40124 52002 60006 8683/ 91500=
07434,1996-03-16 18:00:00,7,1014.1,1.5,61,0,40000,11.112,,,290,4.5,9.2,,,,,,,,,wg-a,,,,AAXX 16184 07434 32582 /2906 10070 20000 39660 40141 53015 82830 91800 333 10092 20045=
07434,1996-03-16 21:00:00,6,1016.1,1.6,81,3,15000,14.816,,,290,,,,,,,,,,,wg-a,,,,AAXX 16214 07434 12665 52908 10060 20030 39676 40161 51016 60006 83530 92100=
07434,1996-03-17 00:00:00,5,1017.3,1,81,2,11000,14.816,,,300,,,,,,,,,,,wg-a,,,,AAXX 17004 07434 12/61 /3008 10050 20020 39686 40173 51010 60006 90000=
07434,1996-03-17 03:00:00,2,1018,0.3,93,1,15000,14.816,,,310,,,,,,,,,,,wg-a,,,,AAXX 17034 07434 12565 23108 10020 20010 39689 40180 51003 60006 82500 90300=
07434,1996-03-17 06:00:00,1,1019.2,0.8,93,0,10000,7.408,,,300,0.7,7.4,,,,,1,,,,wg-a,,,,AAXX 17064 07434 02560 /3004 10010 20000 39697 40192 53008 60006 85500 90600 333 10074 20007 60014=
07434,1996-03-17 09:00:00,6,1018.9,0.7,75,2,15000,3.704,,,300,,,,,,,,,,,wg-a,,,,AAXX 17094 07434 12465 /3002 10060 20020 39704 40189 51007 60006 86801 90900=
07434,1996-03-17 12:00:00,9,1018.4,0,53,0,15000,3.704,,,340,,,,,,,,,,,wg-a,,,,AAXX 17124 07434 12565 43402 10090 20000 39704 40184 50000 60006 84801 91200=
07434,1996-03-17 15:00:00,10,1017.1,-1.2,46,-1,500,3.704,,,360,,,,,,,,,,,wg-a,,,,AAXX 17154 07434 12600 /3602 10100 21010 39692 40171 56012 60006 86401 91500=
07434,1996-03-17 18:00:00,8,1017.7,0.3,49,-2,25000,3.704,,,10,0.6,10.9,,,,,,,,,wg-a,,,,AAXX 17184 07434 12675 30102 10080 21020 39695 40177 53003 60006 82801 91800 333 10109 20006=
07434,1996-03-17 21:00:00,6,1018.5,0.4,52,-3,20000,7.408,,,350,,,,,,,,,,,wg-a,,,,AAXX 17214 07434 12/70 13504 10060 21030 39699 40185 51004 60006 80001 92100=
07434,1996-03-18 00:00:00,3,1019.2,0.3,65,-3,20000,7.408,,,360,,,,,,,,,,,wg-a,,,,AAXX 18004 07434 12670 33604 10030 21030 39702 40192 53003 60006 83500 90000=
07434,1996-03-18 03:00:00,2,1018.6,-0.8,80,-1,20000,3.704,,,50,,,,,,,,,,,wg-a,,,,AAXX 18034 07434 12/70 00502 10020 21010 39694 40186 58008 60006 80000 90300=
07434,1996-03-18 06:00:00,1,1019,0.2,86,-1,20000,7.408,,,50,0.9,8,,,,,,,,,wg-a,,,,AAXX 18064 07434 02/70 50504 10010 21010 39696 40190 53002 60006 82031 90600 333 10080 20009 60004=
07434,1996-03-18 09:00:00,6,1019,0.8,70,1,12000,7.408,,,90,,,,,,,,,,,wg-a,,,,AAXX 18094 07434 12/62 60904 10060 20010 39704 40190 53008 60006 83031 90900=
07434,1996-03-18 12:00:00,11,1017.5,-0.6,43,-1,500,3.704,,,20,,,,,,,,,,,wg-a,,,,AAXX 18124 07434 12500 50202 10110 21010 39698 40175 58006 60006 84801 91200=
07434,1996-03-18 15:00:00,10,1016.4,-1.1,46,-1,60000,7.408,,,360,,,,,,,,,,,wg-a,,,,AAXX 18154 07434 12686 73604 10100 21010 39687 40164 56011 60006 8783/ 91500=
07434,1996-03-18 18:00:00,9,1016.7,-0,49,-1,40000,3.704,,,350,0.7,12.2,,,,,,,,,wg-a,,,,AAXX 18184 07434 12782 43502 10090 21010 39687 40167 55000 60006 83531 91800 333 10122 20007=
07434,1996-03-18 21:00:00,7,1017.4,0.3,57,-1,25000,11.112,,,60,,,,,,,,,,,wg-a,,,,AAXX 18214 07434 12/75 10606 10070 21010 39690 40174 52003 60006 80001 92100=
07434,1996-03-19 00:00:00,4,1017.7,-0.1,65,-2,25000,7.408,,,80,,,,,,,,,,,wg-a,,,,AAXX 19004 07434 12/75 10804 10040 21020 39689 40177 58001 60006 80001 90000=
07434,1996-03-19 03:00:00,3,1016.4,-1.4,70,-2,25000,11.112,,,80,,,,,,,,,,,wg-a,,,,AAXX 19034 07434 12/75 30806 10030 21020 39675 40164 58014 60006 80001 90300=
07434,1996-03-19 06:00:00,2,1015.9,-0.7,75,-2,500,14.816,,,70,2.1,8.7,,,,,,,,,wg-a,,,,AAXX 19064 07434 02/00 30708 10020 21020 39668 40159 56007 60006 80001 90600 333 10087 20021 60004=
07434,1996-03-19 12:00:00,12,1011.6,-1.8,40,-1,500,11.112,,,110,,,,,,,,,,,wg-a,,,,AAXX 19124 07434 12/00 41106 10120 21010 39643 40116 58018 60006 80001 91200=
07434,1996-03-19 15:00:00,13,1009,-2.2,35,-2,500,11.112,,,170,,,,,,,,,,,wg-a,,,,AAXX 19154 07434 12/00 41706 10130 21020 39621 40090 56022 60006 80001 91500=
07434,1996-03-19 18:00:00,11,1008.5,-0.8,40,-2,500,3.704,,,200,2.1,13.6,,,,,,,,,wg-a,,,,AAXX 19184 07434 12/00 42002 10110 21020 39613 40085 56008 60006 80001 91800 333 10136 20021=
07434,1996-03-19 21:00:00,9,1008.2,-0.6,57,1,25000,7.408,,,60,,,,,,,,,,,wg-a,,,,AAXX 19214 07434 12/75 40604 10090 20010 39607 40082 58006 60006 82031 92100=
07434,1996-03-20 00:00:00,8,1008.1,-0.4,61,1,25000,7.408,,,90,,,,,,,,,,,wg-a,,,,AAXX 20004 07434 12/75 70904 10080 20010 39603 40081 56004 60006 8705/ 90000=
07434,1996-03-20 06:00:00,6,1008.6,0.7,87,4,12000,7.408,,,130,6,11,,2,,,2,,,61,wg-a,,,,AAXX 20064 07434 02462 81304 10060 20040 39606 40086 53007 60024 76162 875// 90600 333 10110 20060 60027=
07434,1996-03-20 09:00:00,6,1010.4,1.8,93,5,6000,11.112,,,190,,,,1,,,,,,21,wg-a,,,,AAXX 20094 07434 12256 81906 10060 20050 39624 40104 53018 60017 72162 875// 90900=
07434,1996-03-20 12:00:00,11,1010.3,0.6,82,8,11000,22.224,,,200,,,,,,,,,,,wg-a,,,,AAXX 20124 07434 12/61 /2012 10110 20080 39630 40103 51006 60026 91200=
07434,1996-03-20 15:00:00,12,1009.9,-0.2,54,3,20000,22.224,,,250,,,,,,,,,,,wg-a,,,,AAXX 20154 07434 12670 52512 10120 20030 39628 40099 56002 60006 85800 91500=
07434,1996-03-20 18:00:00,11,1010.9,0.8,54,2,500,3.704,,,270,6,13,,,,,,,,,wg-a,,,,AAXX 20184 07434 32600 52702 10110 20020 39636 40109 53008 84431 91800 333 10130 20060=
07434,1996-03-20 21:00:00,8,1011.8,0.4,71,3,15000,7.408,,,180,,,,,,,,,,,wg-a,,,,AAXX 20214 07434 12765 51804 10080 20030 39640 40118 51004 60006 815/1 92100=
07434,1996-03-21 00:00:00,7,1011.5,-0.5,81,4,15000,7.408,,,110,,,,,,,,,,,wg-a,,,,AAXX 21004 07434 12/65 71104 10070 20040 39635 40115 58005 60006 85031 90000=
07434,1996-03-21 03:00:00,7,1010.9,-0.6,81,4,13000,11.112,,,130,,,,,,,,,,,wg-a,,,,AAXX 21034 07434 12/63 71306 10070 20040 39629 40109 58006 60006 85031 90300=
07434,1996-03-21 06:00:00,7,1011.7,0.8,87,5,12000,14.816,,,190,6.1,11,,,,,2,,,,wg-a,,,,AAXX 21064 07434 02/62 71908 10070 20050 39637 40117 53008 60006 84031 90600 333 10110 20061 60024=
07434,1996-03-21 09:00:00,9,1012.7,1.3,81,6,12000,22.224,,,210,,,,,,,,,,,wg-a,,,,AAXX 21094 07434 12562 72112 10090 20060 39650 40127 53013 60006 875// 90900=
07434,1996-03-21 12:00:00,13,1012.8,0.8,62,6,20000,29.632,,,240,,,,,,,,,,,wg-a,,,,AAXX 21124 07434 12570 72416 10130 20060 39658 40128 51008 60006 86801 91200=
07434,1996-03-21 15:00:00,15,1012.6,-0,51,5,25000,18.52,,,260,,,,,,,,,,,wg-a,,,,AAXX 21154 07434 12675 72610 10150 20050 39658 40126 54000 60006 85801 91500=
07434,1996-03-21 18:00:00,12,1014.3,1.3,67,6,25000,7.408,,,260,6.8,15,,,,,,,,,wg-a,,,,AAXX 21184 07434 12675 72604 10120 20060 39671 40143 53013 60006 84532 91800 333 10150 20068=
07434,1996-03-21 21:00:00,11,1015.6,1,76,7,15000,7.408,,,250,,,,,,,,,,,wg-a,,,,AAXX 21214 07434 12665 72504 10110 20070 39681 40156 52010 60006 84532 92100=
07434,1996-03-22 00:00:00,10,1016.5,0.6,82,7,11000,3.704,,,220,,,,,,,,,,,wg-a,,,,AAXX 22004 07434 02/61 /2202 10100 20070 39687 40165 53006 61000 90000 333 ////=
07434,1996-03-22 06:00:00,9,1016.9,0.5,87,7,40000,3.704,,,170,8.9,12.4,,,,,,,,,wg-a,,,,AAXX 22064 07434 12782 71702 10090 20070 39690 40169 53005 60004 8557/ 90600 333 10124 20089=
07434,1996-03-22 09:00:00,13,1017,0.8,72,8,18000,11.112,,,170,,,,,,,,,,,wg-a,,,,AAXX 22094 07434 12768 41706 10130 20080 39698 40170 53008 60006 83531 90900=
07434,1996-03-22 12:00:00,18,1016.2,-0.1,49,7,25000,11.112,,,230,,,,,,,,,,,wg-a,,,,AAXX 22124 07434 12/75 52306 10180 20070 39697 40162 58001 60006 82031 91200=
07434,1996-03-22 15:00:00,19,1015.1,-0.8,46,7,25000,11.112,,,220,,,,,,,,,,,wg-a,,,,AAXX 22154 07434 12675 32206 10190 20070 39689 40151 57008 60006 82131 91500=
07434,1996-03-22 18:00:00,17,1015.9,0.4,48,6,25000,3.704,,,300,8.9,19.6,,,,,,,,,wg-a,,,,AAXX 22184 07434 12775 23002 10170 20060 39693 40159 53004 60006 81101 91800 333 10196 20089=
07434,1996-03-22 21:00:00,14,1016.8,0.5,58,6,25000,0,,,0,,,,,,,,,,,wg-a,,,,AAXX 22214 07434 12/75 20000 10140 20060 39698 40168 52005 60006 80001 92100=
07434,1996-03-23 00:00:00,12,1017.1,-0.1,71,7,0,7.408,,,50,,,,,,,,,,,wg-a,,,,AAXX 23004 07434 12/// /0504 10120 20070 39697 40171 58001 60006 90000=
07434,1996-03-23 06:00:00,9,1017,-0.1,81,6,20000,7.408,,,80,8.7,16.8,,,,,,,,,wg-a,,,,AAXX 23064 07434 02/70 30804 10090 20060 39691 40170 55001 60006 81031 90600 333 10168 20087 60004=
07434,1996-03-23 09:00:00,15,1016.2,0.3,59,7,15000,11.112,,,120,,,,,,,,,,,wg-a,,,,AAXX 23094 07434 12/65 11206 10150 20070 39694 40162 51003 60006 80001 90900=
07434,1996-03-23 12:00:00,20,1014.4,-1,40,6,40000,11.112,,,160,,,,,,,,,,,wg-a,,,,AAXX 23124 07434 12582 /1606 10200 20060 39684 40144 58010 60006 81102 91200=
07434,1996-03-23 15:00:00,21,1013.2,-1,38,6,50000,14.816,,,210,,,,,,,,,,,wg-a,,,,AAXX 23154 07434 12/84 62108 10210 20060 39674 40132 56010 60006 81032 91500=
07434,1996-03-23 18:00:00,18,1013.7,-0,42,5,35000,3.704,,,170,8.8,21.9,,,,,,,,,wg-a,,,,AAXX 23184 07434 12/81 61702 10180 20050 39674 40137 55000 60006 81032 91800 333 10219 20088=
07434,1996-03-23 21:00:00,16,1015,0.9,45,4,35000,7.408,,,170,,,,,,,,,,,wg-a,,,,AAXX 23214 07434 12/81 61704 10160 20040 39683 40150 53009 60006 81032 92100=
07434,1996-03-24 00:00:00,13,1016.3,0.7,51,3,35000,11.112,,,120,,,,,,,,,,,wg-a,,,,AAXX 24004 07434 12/81 21206 10130 20030 39690 40163 53007 60006 80001 90000=
07434,1996-03-24 03:00:00,11,1016.8,0.2,58,3,25000,14.816,,,140,,,,,,,,,,,wg-a,,,,AAXX 24034 07434 12/75 21408 10110 20030 39692 40168 53002 60006 80001 90300=
07434,1996-03-24 06:00:00,10,1017.6,0.6,62,3,25000,14.816,,,130,9.6,18.3,,,,,,,,,wg-a,,,,AAXX 24064 07434 02/75 21308 10100 20030 39698 40176 53006 60006 80001 90600 333 10183 20096 60004=
07434,1996-03-24 09:00:00,15,1016.5,-0.2,51,5,500,14.816,,,110,,,,,,,,,,,wg-a,,,,AAXX 24094 07434 12/00 31108 10150 20050 39696 40165 55002 60006 80002 90900=
07434,1996-03-24 12:00:00,21,1015.2,-0.3,38,6,40000,14.816,,,150,,,,,,,,,,,wg-a,,,,AAXX 24124 07434 12/82 41508 10210 20060 39693 40152 58003 60006 80002 91200=
07434,1996-03-24 15:00:00,21,1014.2,-1,40,7,40000,11.112,,,180,,,,,,,,,,,wg-a,,,,AAXX 24154 07434 12/82 71806 10210 20070 39683 40142 58010 60006 86054 91500=
07434,1996-03-24 21:00:00,15,1012.5,-2.2,59,7,25000,7.408,,,100,,,,,,,,,,,wg-a,,,,AAXX 24214 07434 12/75 11004 10150 20070 39658 40125 58022 60006 81031 92100=
07434,1996-03-25 00:00:00,14,1014.3,1.6,72,9,20000,11.112,,,200,,,,,,,,,,,wg-a,,,,AAXX 25004 07434 12770 72006 10140 20090 39674 40143 53016 60006 878// 90000=
07434,1996-03-25 03:00:00,12,1015.4,0.7,82,9,20000,7.408,,,260,,,,,,,,,,,wg-a,,,,AAXX 25034 07434 12670 72604 10120 20090 39681 40154 53007 60006 8557/ 90300=
07434,1996-03-25 06:00:00,10,1016.1,0.3,82,7,12000,11.112,,,180,9.6,17.5,,,,,,,,,wg-a,,,,AAXX 25064 07434 02662 41806 10100 20070 39684 40161 53003 60006 81531 90600 333 10175 20096 60004=
07434,1996-03-25 09:00:00,13,1016.4,0.8,72,8,15000,22.224,,,200,,,,,,,,,,,wg-a,,,,AAXX 25094 07434 12/65 12012 10130 20080 39692 40164 51008 60006 80001 90900=
07434,1996-03-25 12:00:00,18,1015.3,-0.2,49,7,40000,14.816,,,270,,,,,,,,,,,wg-a,,,,AAXX 25124 07434 12682 42708 10180 20070 39690 40153 58002 60006 83201 91200=
07434,1996-03-25 15:00:00,18,1014.6,-0.8,49,7,60000,11.112,,,290,,,,,,,,,,,wg-a,,,,AAXX 25154 07434 12686 52906 10180 20070 39682 40146 58008 60006 84801 91500=
07434,1996-03-25 18:00:00,16,1014.4,-0.4,51,6,60000,3.704,,,340,9.5,19.1,,,,,,,,,wg-a,,,,AAXX 25184 07434 12786 43402 10160 20060 39678 40144 56004 60006 81831 91800 333 10191 20095=
07434,1996-03-25 21:00:00,14,1014.8,0.1,63,7,40000,11.112,,,20,,,,,,,,,,,wg-a,,,,AAXX 25214 07434 12782 10206 10140 20070 39679 40148 52001 60006 81501 92100=
07434,1996-03-26 00:00:00,11,1014.4,-0.9,76,7,500,7.408,,,70,,,,,,,,,,,wg-a,,,,AAXX 26004 07434 12/00 00704 10110 20070 39670 40144 56009 60006 80000 90000=
07434,1996-03-26 03:00:00,10,1012.5,-2,82,7,500,11.112,,,80,,,,,,,,,,,wg-a,,,,AAXX 26034 07434 12/00 20806 10100 20070 39650 40125 57020 60006 81082 90300=
07434,1996-03-26 06:00:00,11,1011.8,-0.5,76,7,15000,0,,,0,9.8,15.9,,,,,,,,80,wg-a,,,,AAXX 26064 07434 02/65 70000 10110 20070 39645 40118 57005 61000 78086 8709/ 90600 333 10159 20098 6100=
07434,1996-03-26 09:00:00,9,1012.7,0.6,93,8,6000,3.704,,,70,,,,6,,,,,,61,wg-a,,,,AAXX 26094 07434 12556 80702 10090 20080 39651 40127 50006 60067 76186 8582/ 90900=
07434,1996-03-26 12:00:00,10,1012.5,-0,100,10,1500,3.704,,,200,,,,2,,,,,,10,wg-a,,,,AAXX 26124 07434 02115 82002 10100 20100 39651 40125 54000 60076 71086 877// 91200 333 60027=
07434,1996-03-26 15:00:00,11,1011,-1.3,94,10,12000,7.408,,,260,,,,,,,,,,21,wg-a,,,,AAXX 26154 07434 02262 82604 10110 20100 39638 40110 58013 61000 72162 875// 91500 333 ////=
07434,1996-03-26 18:00:00,11,1011.3,0.2,94,10,500,7.408,,,290,8.3,11.3,,,,,,,,61,wg-a,,,,AAXX 26184 07434 02200 82904 10110 20100 39640 40113 53002 61000 76162 875// 91800 333 10113 20083 ////=
07434,1996-03-26 21:00:00,10,1012.3,0.8,93,9,500,18.52,,,340,,,,,,,,,,61,wg-a,,,,AAXX 26214 07434 02200 83410 10100 20090 39648 40123 52008 61000 76166 889// 92100 333 ////=
07434,1996-03-27 00:00:00,9,1012.5,0.1,100,9,6000,11.112,,,340,,,,,,,,,,60,wg-a,,,,AAXX 27004 07434 02256 83406 10090 20090 39649 40125 50001 61000 76066 887// 90000 333 6100=
07434,1996-03-27 03:00:00,9,1012.3,-0.2,100,9,7000,7.408,,,20,,,,,,,,,,60,wg-a,,,,AAXX 27034 07434 02257 80204 10090 20090 39647 40123 57002 61000 76066 887// 90300 333 ////=
07434,1996-03-27 06:00:00,7,1013.4,0.6,93,6,3000,18.52,,,30,6.9,10.6,,,,,7,,,10,wg-a,,,,AAXX 27064 07434 02230 80310 10070 20060 39653 40134 53006 60074 71064 887// 90600 333 10106 20069 61000=
07434,1996-03-27 09:00:00,7,1014.6,1.1,93,6,2000,18.52,,,70,,,,2,,,,,,10,wg-a,,,,AAXX 27094 07434 12220 80710 10070 20060 39664 40146 51011 60027 71042 886// 90900=
07434,1996-03-27 12:00:00,6,1015.6,0.8,87,4,3000,25.928,,,40,,,,,,,,,,10,wg-a,,,,AAXX 27124 07434 12330 70414 10060 20040 39672 40156 51008 60006 71042 876// 91200=
07434,1996-03-27 15:00:00,6,1015.7,0.2,75,2,7000,18.52,,,60,,,,,,,,,,,wg-a,,,,AAXX 27154 07434 12457 70610 10060 20020 39674 40157 52002 60006 8753/ 91500=
07434,1996-03-27 18:00:00,5,1017.2,1.2,75,1,8000,22.224,,,50,4.9,7.7,,,,,,,,,wg-a,,,,AAXX 27184 07434 12458 70512 10050 20010 39686 40172 53012 60006 875// 91800 333 10077 20049=
07434,1996-03-27 21:00:00,4,1018.6,1,75,0,8000,14.816,,,40,,,,,,,,,,,wg-a,,,,AAXX 27214 07434 12558 30408 10040 20000 39696 40186 51010 60006 83500 92100=
07434,1996-03-28 00:00:00,4,1018.3,-0.2,70,-1,8000,18.52,,,50,,,,,,,,,,,wg-a,,,,AAXX 28004 07434 12558 70510 10040 21010 39694 40183 58002 60006 875// 90000=
07434,1996-03-28 03:00:00,1,1018.4,-0.4,86,-1,6000,11.112,,,20,,,,,,,,,,,wg-a,,,,AAXX 28034 07434 12/56 00206 10010 21010 39690 40184 56004 60006 80000 90300=
07434,1996-03-28 06:00:00,-1,1019.5,0.7,86,-3,4000,11.112,,,350,-1,4.9,,,,,,,,10,wg-a,,,,AAXX 28064 07434 02/40 03506 11010 21030 39697 40195 53007 60006 71011 80000 90600 333 10049 21010 60004=
07434,1996-03-28 09:00:00,3,1019.6,0.8,60,-4,4000,18.52,,,30,,,,,,,,,,10,wg-a,,,,AAXX 28094 07434 12/40 00310 10030 21040 39705 40196 51008 60006 71000 80000 90900=
07434,1996-03-28 12:00:00,7,1018.7,-0.2,49,-3,15000,7.408,,,310,,,,,,,,,,,wg-a,,,,AAXX 28124 07434 12/65 33104 10070 21030 39703 40187 58002 60006 80001 91200=
07434,1996-03-28 15:00:00,9,1017.6,-0.7,43,-3,15000,14.816,,,290,,,,,,,,,,,wg-a,,,,AAXX 28154 07434 12/65 32908 10090 21030 39696 40176 55007 60006 80001 91500=
07434,1996-03-28 18:00:00,7,1018.1,0.1,49,-3,12000,7.408,,,310,-1.1,9.3,,,,,,,,,wg-a,,,,AAXX 28184 07434 12/62 13104 10070 21030 39697 40181 53001 60006 80001 91800 333 10093 21011=
07434,1996-03-29 03:00:00,1,1019.1,-0.9,86,-1,10000,11.112,,,360,,,,,,,,,,,wg-a,,,,AAXX 29034 07434 12/60 03606 10010 21010 39696 40191 57009 60006 80000 90300=
07434,1996-03-29 06:00:00,0,1019.2,0.1,93,-1,6000,7.408,,,340,-1.1,6.6,,,,,,,,,wg-a,,,,AAXX 29064 07434 02556 73404 10000 21010 39697 40192 53001 60006 875// 90600 333 10066 21011 60004=
07434,1996-03-29 09:00:00,3,1019.6,0.8,65,-3,4000,0,,,0,,,,,,,,,,10,wg-a,,,,AAXX 29094 07434 12440 50000 10030 21030 39705 40196 51008 60006 71011 851// 90900=
07434,1996-03-29 12:00:00,7,1018.1,-0.8,57,-1,12000,3.704,,,320,,,,,,,,,,,wg-a,,,,AAXX 29124 07434 12562 /3202 10070 21010 39697 40181 58008 60006 861// 91200=
07434,1996-03-29 15:00:00,8,1016.3,-1.5,49,-2,20000,14.816,,,20,,,,,,,,,,,wg-a,,,,AAXX 29154 07434 12670 40208 10080 21020 39682 40163 56015 60006 841// 91500=
07434,1996-03-29 18:00:00,6,1015.6,-1,56,-2,20000,7.408,,,360,0.3,9.3,,,,,,,,,wg-a,,,,AAXX 29184 07434 12770 13604 10060 21020 39672 40156 56010 60006 81500 91800 333 10093 20003=
07434,1996-03-29 21:00:00,5,1015.8,0,56,-3,20000,7.408,,,20,,,,,,,,,,,wg-a,,,,AAXX 29214 07434 12670 /0204 10050 21030 39672 40158 50000 60006 85501 92100=
07434,1996-03-30 00:00:00,4,1014.5,-1.3,65,-2,18000,7.408,,,20,,,,,,,,,,,wg-a,,,,AAXX 30004 07434 12768 10204 10040 21020 39659 40145 56013 60006 81501 90000=
07434,1996-03-30 03:00:00,2,1013.9,-1,80,-1,15000,7.408,,,50,,,,,,,,,,,wg-a,,,,AAXX 30034 07434 12/65 10504 10020 21010 39649 40139 58010 60006 81031 90300=
07434,1996-03-30 06:00:00,3,1013.7,-0.1,81,0,10000,11.112,,,20,1.6,6.3,,,,,,,,,wg-a,,,,AAXX 30064 07434 02760 10206 10030 20000 39648 40137 55001 60006 81531 90600 333 10063 20016 60004=
07434,1996-03-30 09:00:00,7,1013.9,1,66,1,10000,14.816,,,60,,,,,,,,,,,wg-a,,,,AAXX 30094 07434 12560 30608 10070 20010 39658 40139 51010 60006 83100 90900=
07434,1996-03-30 12:00:00,7,1014.8,0.9,49,-3,20000,22.224,,,20,,,,,,,,,,,wg-a,,,,AAXX 30124 07434 12670 /0212 10070 21030 39667 40148 53009 60006 85500 91200=
07434,1996-03-30 15:00:00,8,1015.1,0.4,42,-4,11000,18.52,,,30,,,,,,,,,,,wg-a,,,,AAXX 30154 07434 12/61 /0310 10080 21040 39671 40151 51004 60006 91500=
07434,1996-03-30 18:00:00,6,1016.8,1.3,49,-4,25000,18.52,,,40,1.8,8.7,,,,,,,,,wg-a,,,,AAXX 30184 07434 12775 40410 10060 21040 39684 40168 53013 60006 83530 91800 333 10087 20018=
07434,1996-03-30 21:00:00,4,1018.4,1.1,56,-4,25000,14.816,,,40,,,,,,,,,,,wg-a,,,,AAXX 30214 07434 12775 20408 10040 21040 39695 40184 51011 60006 82530 92100=
07434,1996-03-31 00:00:00,2,1019,0.2,60,-5,20000,14.816,,,60,,,,,,,,,,,wg-a,,,,AAXX 31004 07434 12/70 00608 10020 21050 39697 40190 50002 60006 80000 90000=
07434,1996-03-31 03:00:00,1,1018.2,-1,59,-6,20000,7.408,,,40,,,,,,,,,,,wg-a,,,,AAXX 31034 07434 12/70 00404 10010 21060 39687 40182 58010 60006 80000 90300=
07434,1996-03-31 12:00:00,9,1014.3,-1.8,37,-5,25000,7.408,,,210,,,,,,,,,,,wg-a,,,,AAXX 31124 07434 12/75 52104 10090 21050 39664 40143 58018 60006 80001 91200=
07434,1996-03-31 15:00:00,10,1012.1,-1.8,34,-5,40000,7.408,,,160,,,,,,,,,,,wg-a,,,,AAXX 31154 07434 12/82 61604 10100 21050 39646 40121 57018 60006 83031 91500=
07434,1996-03-31 18:00:00,9,1010.6,-1.6,34,-6,40000,7.408,,,190,-0.6,11.4,,,,,,,,,wg-a,,,,AAXX 31184 07434 12782 61904 10090 21060 39630 40106 56016 60006 83531 91800 333 10114 21006=
07434,1996-03-31 21:00:00,6,1010.1,-1,52,-3,40000,3.704,,,90,,,,,,,,,,,wg-a,,,,AAXX 31214 07434 12782 60902 10060 21030 39620 40101 56010 60006 82531 92100=
07434,1996-04-01 00:00:00,4,1008.7,-1.7,56,-4,25000,7.408,,,50,,,,,,,,,,,wg-a,,,,AAXX 01004 07434 12775 70504 10040 21040 39603 40087 57017 60006 82531 90000=
07434,1996-04-01 03:00:00,4,1005.6,-3,60,-3,20000,7.408,,,70,,,,,,,,,,,wg-a,,,,AAXX 01034 07434 12770 70704 10040 21030 39573 40056 56030 60006 82531 90300=
07434,1996-04-01 06:00:00,4,1003.6,-1.8,65,-2,20000,11.112,,,70,3.5,9.3,,,,,,,,21,wg-a,,,,AAXX 01064 07434 02570 70706 10040 21020 39555 40036 58018 61000 72162 8557/ 90600 333 10093 20035 6100=
07434,1996-04-01 09:00:00,4,1003.4,-0.2,87,2,500,11.112,,,70,,,,3,,,,,,61,wg-a,,,,AAXX 01094 07434 12500 80706 10040 20020 39553 40034 56002 60037 76162 855// 90900=
07434,1996-04-01 12:00:00,6,1001.8,-1.3,87,4,6000,22.224,,,60,,,,6,,,,,,61,wg-a,,,,AAXX 01124 07434 02356 80612 10060 20040 39540 40018 58013 60106 76162 8552/ 91200 333 60067=
07434,1996-04-01 15:00:00,4,1001.6,-0.4,93,3,8000,25.928,,,40,,,,4,,,,,,61,wg-a,,,,AAXX 01154 07434 12358 80414 10040 20030 39536 40016 58004 60047 76166 855// 91500=
07434,1996-04-01 21:00:00,3,1005.6,2.1,81,0,10000,25.928,,,60,,,,,,,,,,,wg-a,,,,AAXX 01214 07434 12/60 70614 10030 20000 39573 40056 52021 60006 84031 92100=
07434,1996-04-02 00:00:00,2,1007.5,1.5,80,-1,10000,22.224,,,30,,,,,,,,,,,wg-a,,,,AAXX 02004 07434 12/60 70312 10020 21010 39588 40075 51015 60006 84031 90000=
07434,1996-04-02 03:00:00,0,1009.7,1.8,69,-5,10000,22.224,,,30,,,,,,,,,,,wg-a,,,,AAXX 02034 07434 12/60 50312 10000 21050 39606 40097 53018 60006 80001 90300=
07434,1996-04-02 06:00:00,-2,1012.9,2.7,69,-7,15000,18.52,,,20,-1.6,3.6,,,,,14,,,,wg-a,,,,AAXX 02064 07434 02/65 20210 11020 21070 39633 40129 53027 60006 81031 90600 333 10036 21016 60144=
07434,1996-04-02 09:00:00,2,1015.2,2.8,60,-5,12000,22.224,,,30,,,,,,,,,,,wg-a,,,,AAXX 02094 07434 12/62 00312 10020 21050 39661 40152 51028 60006 80000 90900=
07434,1996-04-02 12:00:00,6,1016.2,1.6,42,-6,15000,22.224,,,30,,,,,,,,,,,wg-a,,,,AAXX 02124 07434 12/65 00312 10060 21060 39677 40162 51016 60006 80000 91200=
07434,1996-04-02 15:00:00,7,1016.4,0.4,39,-6,12000,29.632,,,40,,,,,,,,,,,wg-a,,,,AAXX 02154 07434 12/62 00416 10070 21060 39681 40164 50004 60006 80000 91500=
07434,1996-04-02 18:00:00,5,1018.7,1.8,41,-7,15000,18.52,,,10,-1.7,7.4,,,,,,,,,wg-a,,,,AAXX 02184 07434 12/65 00110 10050 21070 39699 40187 53018 60006 80000 91800 333 10074 21017=
07434,1996-04-02 21:00:00,2,1021.4,2,51,-7,15000,11.112,,,10,,,,,,,,,,,wg-a,,,,AAXX 02214 07434 12/65 00106 10020 21070 39719 40214 51020 60006 80000 92100=
07434,1996-04-03 00:00:00,0,1021.8,0.1,64,-6,12000,14.816,,,10,,,,,,,,,,,wg-a,,,,AAXX 03004 07434 12/62 00108 10000 21060 39720 40218 50001 60006 80000 90000=
07434,1996-04-03 03:00:00,-1,1022.3,0.3,86,-3,12000,14.816,,,10,,,,,,,,,,,wg-a,,,,AAXX 03034 07434 12462 /0108 11010 21030 39723 40223 51003 60006 81501 90300=
07434,1996-04-03 06:00:00,-1,1023.3,0.9,80,-4,10000,14.816,,,10,-1.3,4.9,,,,,,,,,wg-a,,,,AAXX 03064 07434 02460 /0108 11010 21040 39732 40233 53009 60006 86500 90600 333 10049 21013 60004=
07434,1996-04-03 09:00:00,1,1024.1,1.2,64,-5,6000,18.52,,,30,,,,,,,,,,,wg-a,,,,AAXX 03094 07434 12456 20310 10010 21050 39744 40241 51012 60006 82100 90900=
07434,1996-04-03 12:00:00,4,1023.8,0.2,44,-7,10000,25.928,,,30,,,,,,,,,,,wg-a,,,,AAXX 03124 07434 12660 50314 10040 21070 39746 40238 51002 60006 85800 91200=
07434,1996-04-03 15:00:00,4,1023.7,-0,44,-7,11000,22.224,,,30,,,,,,,,,,,wg-a,,,,AAXX 03154 07434 32/61 /0312 10040 21070 39746 40237 55000 91500=
07434,1996-04-03 18:00:00,4,1024.7,0.9,48,-6,15000,14.816,,,20,-1.4,5.2,,,,,,,,3,wg-a,,,,AAXX 03184 07434 32665 40208 10040 21060 39755 40247 53009 70387 84800 91800 333 10052 21014=
07434,1996-04-04 03:00:00,-1,1026.3,-0.9,64,-7,12000,14.816,,,20,,,,,,,,,,,wg-a,,,,AAXX 04034 07434 12/62 00208 11010 21070 39762 40263 58009 60006 80000 90300=
07434,1996-04-04 06:00:00,-2,1026.5,-0,69,-7,8000,11.112,,,10,-2.7,3.8,,,,,,,,,wg-a,,,,AAXX 04064 07434 02/58 00106 11020 21070 39762 40265 55000 60006 80000 90600 333 10038 21027 61000=
07434,1996-04-04 09:00:00,5,1024.8,-0.5,48,-5,10000,18.52,,,80,,,,,,,,,,,wg-a,,,,AAXX 04094 07434 12/60 00810 10050 21050 39757 40248 58005 60006 80000 90900=
07434,1996-04-04 12:00:00,8,1022.6,-1.6,42,-4,10000,22.224,,,30,,,,,,,,,,,wg-a,,,,AAXX 04124 07434 12/60 00312 10080 21040 39741 40226 58016 60006 80000 91200=
07434,1996-04-04 15:00:00,9,1021,-1.3,43,-3,15000,25.928,,,40,,,,,,,,,,,wg-a,,,,AAXX 04154 07434 12665 /0414 10090 21030 39728 40210 56013 60006 81100 91500=
07434,1996-04-04 18:00:00,6,1020.9,-0.6,52,-3,15000,22.224,,,60,-1.7,9.2,,,,,,,,,wg-a,,,,AAXX 04184 07434 12665 30612 10060 21030 39722 40209 58006 60006 83500 91800 333 10092 21017=
07434,1996-04-04 21:00:00,3,1021,-0.5,60,-4,10000,18.52,,,60,,,,,,,,,,,wg-a,,,,AAXX 04214 07434 12/60 00610 10030 21040 39717 40210 58005 60006 80000 92100=
07434,1996-04-05 00:00:00,1,1019.4,-1.7,69,-4,10000,14.816,,,60,,,,,,,,,,,wg-a,,,,AAXX 05004 07434 12/60 00608 10010 21040 39700 40194 58017 60006 80000 90000=
07434,1996-04-05 03:00:00,0,1017.6,-1.9,74,-4,10000,18.52,,,70,,,,,,,,,,,wg-a,,,,AAXX 05034 07434 12/60 00710 10000 21040 39681 40176 56019 60006 80000 90300=
07434,1996-04-05 06:00:00,0,1016.4,-1.1,74,-4,10000,18.52,,,70,-0.3,5.9,,,,,,,,,wg-a,,,,AAXX 05064 07434 02/60 00710 10000 21040 39670 40164 56011 60006 80000 90600 333 10059 21003 60004=
07434,1996-04-05 09:00:00,5,1015,-0.5,56,-3,12000,14.816,,,100,,,,,,,,,,,wg-a,,,,AAXX 05094 07434 12/62 01008 10050 21030 39665 40150 56005 60006 80000 90900=
07434,1996-04-05 12:00:00,10,1013,-1.1,50,0,15000,7.408,,,120,,,,,,,,,,,wg-a,,,,AAXX 05124 07434 12/65 01204 10100 20000 39654 40130 58011 60006 80000 91200=
07434,1996-04-05 15:00:00,13,1012,-0.6,38,-1,20000,11.112,,,140,,,,,,,,,,,wg-a,,,,AAXX 05154 07434 12/70 11406 10130 21010 39648 40120 58006 60006 80001 91500=
07434,1996-04-05 18:00:00,12,1011.9,-0.2,44,0,20000,0,,,0,0.4,13.4,,,,,,,,,wg-a,,,,AAXX 05184 07434 12/70 20000 10120 20000 39646 40119 55002 60006 80001 91800 333 10134 20004=
07434,1996-04-05 21:00:00,8,1013.6,1,61,1,20000,11.112,,,50,,,,,,,,,,,wg-a,,,,AAXX 05214 07434 12/70 40506 10080 20010 39656 40136 51010 60006 80001 92100=
07434,1996-04-06 00:00:00,6,1014.3,0.4,70,1,12000,7.408,,,70,,,,,,,,,,,wg-a,,,,AAXX 06004 07434 12/62 50704 10060 20010 39660 40143 53004 60006 80001 90000=
07434,1996-04-06 03:00:00,5,1014.6,0.1,70,0,10000,3.704,,,100,,,,,,,,,,,wg-a,,,,AAXX 06034 07434 12/60 51002 10050 20000 39661 40146 53001 60006 80001 90300=
07434,1996-04-06 06:00:00,4,1015.9,1.1,70,-1,9000,7.408,,,120,4.1,11.5,,,,,,,,,wg-a,,,,AAXX 06064 07434 02/59 /1204 10040 21010 39672 40159 53011 60006 81032 90600 333 10115 20041 60004=
07434,1996-04-06 09:00:00,9,1016.2,1.1,57,1,10000,18.52,,,180,,,,,,,,,,,wg-a,,,,AAXX 06094 07434 12/60 71810 10090 20010 39683 40162 51011 60006 83032 90900=
07434,1996-04-06 12:00:00,13,1015.4,0,54,4,15000,18.52,,,170,,,,,,,,,,,wg-a,,,,AAXX 06124 07434 12665 /1710 10130 20040 39683 40154 50000 60006 81131 91200=
07434,1996-04-06 15:00:00,16,1015,-0.1,45,4,15000,18.52,,,210,,,,,,,,,,,wg-a,,,,AAXX 06154 07434 12665 42110 10160 20040 39682 40150 56001 60006 83231 91500=
07434,1996-04-06 18:00:00,14,1016,0.7,44,2,15000,7.408,,,270,4.2,15.7,,,,,,,,,wg-a,,,,AAXX 06184 07434 12665 /2704 10140 20020 39689 40160 53007 60006 81400 91800 333 10157 20042=
07434,1996-04-06 21:00:00,9,1018.3,1.5,66,3,10000,7.408,,,320,,,,,,,,,,,wg-a,,,,AAXX 06214 07434 12760 13204 10090 20030 39704 40183 51015 60006 81500 92100=
07434,1996-04-07 00:00:00,7,1019,0.3,70,2,15000,7.408,,,290,,,,,,,,,,,wg-a,,,,AAXX 07004 07434 12/65 02904 10070 20020 39707 40190 51003 60006 80000 90000=
07434,1996-04-07 03:00:00,6,1019.3,-0,75,2,15000,3.704,,,40,,,,,,,,,,,wg-a,,,,AAXX 07034 07434 12/65 00402 10060 20020 39707 40193 54000 60006 80000 90300=
07434,1996-04-07 06:00:00,4,1020.9,1.2,81,1,9000,3.704,,,340,3.6,13.7,,,,,,,,,wg-a,,,,AAXX 07064 07434 02/59 /3402 10040 20010 39719 40209 53012 60006 80001 90600 333 10137 20036 60004=
07434,1996-04-07 09:00:00,10,1021.3,1.4,62,3,8000,3.704,,,200,,,,,,,,,,,wg-a,,,,AAXX 07094 07434 12/58 /2002 10100 20030 39733 40213 51014 60006 80001 90900=
07434,1996-04-07 12:00:00,13,1021,0.2,51,3,8000,7.408,,,280,,,,,,,,,,,wg-a,,,,AAXX 07124 07434 12/58 32804 10130 20030 39735 40210 50002 60006 83031 91200=
07434,1996-04-07 15:00:00,14,1021.1,0.3,51,4,8000,11.112,,,290,,,,,,,,,,,wg-a,,,,AAXX 07154 07434 12/58 32906 10140 20040 39738 40211 52003 60006 83031 91500=
07434,1996-04-07 18:00:00,12,1022.3,0.8,54,3,8000,7.408,,,320,3.6,14.3,,,,,,,,,wg-a,,,,AAXX 07184 07434 12858 73204 10120 20030 39746 40223 53008 60006 85032 91800 333 10143 20036=
07434,1996-04-07 21:00:00,11,1024.1,1.5,58,3,6000,7.408,,,310,,,,,,,,,,,wg-a,,,,AAXX 07214 07434 12856 73104 10110 20030 39761 40241 51015 60006 85032 92100=
07434,1996-04-08 00:00:00,8,1025.3,0.7,66,2,0,11.112,,,320,,,,,,,,,,,wg-a,,,,AAXX 08004 07434 12/// /3206 10080 20020 39768 40253 53007 60006 90000=
07434,1996-04-08 03:00:00,7,1025.7,0.2,76,3,6000,14.816,,,10,,,,,,,,,,,wg-a,,,,AAXX 08034 07434 12856 /0108 10070 20030 39770 40257 53002 60006 83032 90300=
07434,1996-04-08 06:00:00,7,1026.6,0.9,70,2,500,11.112,,,40,6.8,11.9,,,,,,,,,wg-a,,,,AAXX 08064 07434 02/00 00406 10070 20020 39779 40266 53009 60006 80000 90600 333 10119 20068 60004=
07434,1996-04-08 09:00:00,12,1027.3,1.5,54,3,500,7.408,,,50,,,,,,,,,,,wg-a,,,,AAXX 08094 07434 12/00 00504 10120 20030 39794 40273 51015 60006 80000 90900=
07434,1996-04-08 12:00:00,13,1027.3,0.2,58,5,8000,18.52,,,20,,,,,,,,,,,wg-a,,,,AAXX 08124 07434 12658 30210 10130 20050 39796 40273 50002 60006 83100 91200=
07434,1996-04-08 15:00:00,14,1026.7,-0.4,55,5,8000,14.816,,,330,,,,,,,,,,,wg-a,,,,AAXX 08154 07434 12658 23308 10140 20050 39792 40267 57004 60006 82100 91500=
07434,1996-04-08 18:00:00,12,1027.3,0.2,58,4,7000,14.816,,,360,7.1,14.4,,,,,,,,,wg-a,,,,AAXX 08184 07434 12/57 33608 10120 20040 39797 40273 53002 60006 80001 91800 333 10144 20071=
07434,1996-04-08 21:00:00,9,1028.6,0.8,66,3,9000,11.112,,,40,,,,,,,,,,,wg-a,,,,AAXX 08214 07434 12/59 30406 10090 20030 39802 40286 51008 60006 80001 92100=
07434,1996-04-09 03:00:00,5,1027.6,-1.3,81,2,9000,18.52,,,80,,,,,,,,,,,wg-a,,,,AAXX 09034 07434 12/59 50810 10050 20020 39785 40276 56013 60006 80002 90300=
07434,1996-04-09 06:00:00,5,1026.8,-0.7,81,2,8000,22.224,,,70,4.8,11.9,,,,,,,,,wg-a,,,,AAXX 09064 07434 02/58 /0712 10050 20020 39778 40268 56007 60006 80002 90600 333 10119 20048 60004=
07434,1996-04-09 09:00:00,10,1026,0,57,2,8000,25.928,,,90,,,,,,,,,,,wg-a,,,,AAXX 09094 07434 12/58 /0914 10100 20020 39778 40260 50000 60006 80002 90900=
07434,1996-04-09 12:00:00,15,1024.1,-1.1,44,3,8000,11.112,,,40,,,,,,,,,,,wg-a,,,,AAXX 09124 07434 12/58 /0406 10150 20030 39767 40241 58011 60006 80001 91200=
07434,1996-04-09 15:00:00,16,1022.2,-1.5,42,3,8000,11.112,,,350,,,,,,,,,,,wg-a,,,,AAXX 09154 07434 12/58 /3506 10160 20030 39752 40222 56015 60006 81031 91500=
07434,1996-04-09 18:00:00,14,1022.1,-0.5,51,4,12000,11.112,,,20,5.2,16.6,,,,,,,,,wg-a,,,,AAXX 09184 07434 12/62 60206 10140 20040 39747 40221 56005 60006 80002 91800 333 10166 20052=
07434,1996-04-09 21:00:00,10,1022.9,0.2,66,4,8000,11.112,,,50,,,,,,,,,,,wg-a,,,,AAXX 09214 07434 12/58 40506 10100 20040 39749 40229 53002 60006 80002 92100=
07434,1996-04-10 00:00:00,8,1022.4,-0.8,76,4,7000,7.408,,,60,,,,,,,,,,,wg-a,,,,AAXX 10004 07434 12/57 40604 10080 20040 39741 40224 58008 60006 80002 90000=
07434,1996-04-10 03:00:00,7,1021.7,-1,76,3,7000,3.704,,,70,,,,,,,,,,,wg-a,,,,AAXX 10034 07434 12/57 /0702 10070 20030 39731 40217 56010 60006 80002 90300=
07434,1996-04-10 06:00:00,5,1021.2,-0.7,87,3,3500,7.408,,,50,5.2,13.7,,,,,,,,,wg-a,,,,AAXX 10064 07434 02/35 /0504 10050 20030 39724 40212 56007 60006 90600 333 10137 20052 60004=
07434,1996-04-10 09:00:00,11,1020.8,0.6,71,6,4000,0,,,0,,,,,,,,,,10,wg-a,,,,AAXX 10094 07434 12/40 70000 10110 20060 39730 40208 52006 60006 71022 85032 90900=
07434,1996-04-10 12:00:00,15,1019.1,-0.9,55,6,500,11.112,,,240,,,,,,,,,,,wg-a,,,,AAXX 10124 07434 12500 /2406 10150 20060 39721 40191 58009 60006 81132 91200=
07434,1996-04-10 15:00:00,11,1019.2,-0.5,82,8,3000,14.816,,,290,,,,0,,,,,,61,wg-a,,,,AAXX 10154 07434 12430 82908 10110 20080 39716 40192 56005 60007 76162 8552/ 91500=
07434,1996-04-10 18:00:00,11,1019.1,-0.2,94,10,2000,7.408,,,260,4.9,16,,1,,,,,,10,wg-a,,,,AAXX 10184 07434 12220 82604 10110 20100 39714 40191 58002 60017 71065 877// 91800 333 10160 20049=
07434,1996-04-10 21:00:00,11,1019,-0.1,94,10,3000,7.408,,,280,,,,1,,,,,,10,wg-a,,,,AAXX 10214 07434 12230 82804 10110 20100 39713 40190 58001 60017 71052 875// 92100=
07434,1996-04-11 00:00:00,9,1018.7,-0.5,100,9,0,3.704,,,310,,,,,,,,,,,wg-a,,,,AAXX 11004 07434 12/// /3102 10090 20090 39708 40187 58005 60016 90000=
07434,1996-04-11 03:00:00,8,1018.1,-0.8,100,8,500,7.408,,,270,,,,,,,,,,,wg-a,,,,AAXX 11034 07434 12100 82704 10080 20080 39700 40181 58008 60006 877// 90300=
07434,1996-04-11 06:00:00,8,1018,-0,100,8,600,3.704,,,330,7.9,10.7,,,,,2,,,45,wg-a,,,,AAXX 11064 07434 12/06 93302 10080 20080 39700 40180 55000 60024 74542 89/// 90600 333 10107 20079=
07434,1996-04-11 09:00:00,10,1017.8,0.1,82,7,4000,3.704,,,330,,,,,,,,,,10,wg-a,,,,AAXX 11094 07434 12340 73302 10100 20070 39701 40178 52001 60006 71042 87700 90900=
07434,1996-04-11 12:00:00,13,1016,-1.3,72,8,20000,7.408,,,290,,,,,,,,,,1,wg-a,,,,AAXX 11124 07434 12570 52904 10130 20080 39688 40160 56013 60006 70142 85800 91200=
07434,1996-04-11 15:00:00,15,1014.4,-1.3,55,6,20000,11.112,,,30,,,,,,,,,,,wg-a,,,,AAXX 11154 07434 12670 30306 10150 20060 39675 40144 58013 60006 83101 91500=
07434,1996-04-11 18:00:00,13,1014.1,-0.5,62,6,20000,14.816,,,360,8.1,14.9,,,,,,,,,wg-a,,,,AAXX 11184 07434 12/70 33608 10130 20060 39670 40141 56005 60006 80001 91800 333 10149 20081=
07434,1996-04-11 21:00:00,10,1014.7,0.1,71,5,15000,11.112,,,30,,,,,,,,,,,wg-a,,,,AAXX 11214 07434 12/65 20306 10100 20050 39671 40147 51001 60006 80001 92100=
07434,1996-04-12 00:00:00,9,1014.8,-0.1,71,4,15000,11.112,,,60,,,,,,,,,,,wg-a,,,,AAXX 12004 07434 12/65 40606 10090 20040 39670 40148 57001 60006 80001 90000=
07434,1996-04-12 03:00:00,8,1013.9,-1.1,76,4,12000,7.408,,,70,,,,,,,,,,,wg-a,,,,AAXX 12034 07434 12/62 60704 10080 20040 39659 40139 57011 60006 80002 90300=
07434,1996-04-12 06:00:00,7,1013.9,-0,81,4,7000,3.704,,,50,7.3,13,,,,,,,,,wg-a,,,,AAXX 12064 07434 02/57 70502 10070 20040 39659 40139 55000 60006 80002 90600 333 10130 20073 60004=
07434,1996-04-12 09:00:00,12,1013.6,0.5,62,5,8000,7.408,,,90,,,,,,,,,,,wg-a,,,,AAXX 12094 07434 12/58 /0904 10120 20050 39664 40136 51005 60006 80002 90900=
07434,1996-04-12 12:00:00,16,1011.6,-1.3,45,4,10000,11.112,,,90,,,,,,,,,,,wg-a,,,,AAXX 12124 07434 12560 20906 10160 20040 39651 40116 58013 60006 81101 91200=
07434,1996-04-12 15:00:00,18,1010.5,-0.8,37,3,15000,14.816,,,350,,,,,,,,,,,wg-a,,,,AAXX 12154 07434 12/65 33508 10180 20030 39643 40105 57008 60006 80001 91500=
07434,1996-04-12 18:00:00,15,1011.5,0.4,44,3,20000,11.112,,,350,7.2,18.1,,,,,,,,,wg-a,,,,AAXX 12184 07434 12/70 63506 10150 20030 39647 40115 53004 60006 80001 91800 333 10181 20072=
07434,1996-04-12 21:00:00,12,1012.6,0.7,50,2,20000,11.112,,,50,,,,,,,,,,,wg-a,,,,AAXX 12214 07434 12/70 40506 10120 20020 39654 40126 51007 60006 80001 92100=
07434,1996-04-13 03:00:00,11,1012.6,-0.5,50,1,20000,7.408,,,50,,,,,,,,,,,wg-a,,,,AAXX 13034 07434 12/70 50504 10110 20010 39652 40126 56005 60006 80001 90300=
07434,1996-04-13 06:00:00,9,1014.4,1.4,61,2,15000,3.704,,,60,8.7,14.6,,,,,,,,,wg-a,,,,AAXX 13064 07434 02/65 70602 10090 20020 39666 40144 53014 60006 8707/ 90600 333 10146 20087 60004=
07434,1996-04-13 07:00:00,9,1014.4,1.4,61,2,10000,3.704,,,60,8.7,14.6,,,,,,,,,wg-a,,,,AAXX 13074 07434 02/60 /0602 10090 20020 39666 40144 53014 60006 90700 333 10146 20087 60004=
07434,1996-04-13 09:00:00,12,1014.8,0.9,62,5,15000,0,,,0,,,,,,,,,,21,wg-a,,,,AAXX 13094 07434 02/65 70000 10120 20050 39675 40148 53009 61000 72162 8707/ 90900 333 ////=
07434,1996-04-13 12:00:00,16,1014.4,0.2,45,4,0,14.816,,,310,,,,,,,,,,,wg-a,,,,AAXX 13124 07434 02/// /3108 10160 20040 39677 40144 52002 61000 91200 333 ////=
07434,1996-04-13 14:00:00,11,1016,1.1,82,8,15000,11.112,,,350,9,16.1,,,,,,,,25,wg-a,,,,AAXX 13144 07434 02465 23506 10110 20080 39685 40160 53011 61000 72586 82800 91400 333 10161 20090 ////=
07434,1996-04-13 15:00:00,14,1014.4,-0.3,58,6,15000,11.112,,,330,,,,,,,,,,21,wg-a,,,,AAXX 13154 07434 02765 73306 10140 20060 39674 40144 58003 61000 72162 8357/ 91500 333 ////=
07434,1996-04-13 18:00:00,11,1015.9,1.1,82,8,15000,11.112,,,350,9,16.1,,,,,,,,25,wg-a,,,,AAXX 13184 07434 02465 23506 10110 20080 39685 40159 53011 61000 72586 82800 91800 333 10161 20090 ////=
07434,1996-04-13 21:00:00,9,1017.8,1.4,87,7,20000,7.408,,,70,,,,,,,,,,,wg-a,,,,AAXX 13214 07434 12670 20704 10090 20070 39699 40178 50014 60006 82501 92100=
07434,1996-04-14 00:00:00,9,1018.8,0.9,87,7,15000,3.704,,,160,,,,,,,,,,,wg-a,,,,AAXX 14004 07434 12465 /1602 10090 20070 39708 40188 51009 60006 86501 90000=
07434,1996-04-14 03:00:00,9,1018.6,-0.1,93,8,7000,0,,,0,,,,,,,,,,61,wg-a,,,,AAXX 14034 07434 02457 80000 10090 20080 39707 40186 58001 61000 76162 875// 90300 333 ////=
07434,1996-04-14 06:00:00,9,1019.6,0.8,93,8,300,3.704,,,10,7.7,11.3,,,,,,,,10,wg-a,,,,AAXX 14064 07434 02/03 90102 10090 20080 39715 40196 53008 61000 71064 89/// 90600 333 10113 20077 6100=
07434,1996-04-14 09:00:00,10,1020.5,1.1,93,9,200,7.408,,,300,,,,0,,,,,,44,wg-a,,,,AAXX 14094 07434 12102 93004 10100 20090 39726 40205 51011 60007 74444 896// 90900=
07434,1996-04-14 12:00:00,13,1020.3,0.3,77,9,18000,11.112,,,290,,,,,,,,,,1,wg-a,,,,AAXX 14124 07434 02568 72906 10130 20090 39729 40203 50003 60006 70184 84232 91200 333 61000=
07434,1996-04-14 15:00:00,14,1019.9,-0.3,55,5,25000,14.816,,,310,,,,,,,,,,,wg-a,,,,AAXX 14154 07434 12675 73108 10140 20050 39726 40199 56003 60006 83202 91500=
07434,1996-04-14 18:00:00,12,1021,0.8,62,5,25000,14.816,,,340,8.5,14.3,,,,,,,,,wg-a,,,,AAXX 14184 07434 32575 73408 10120 20050 39734 40210 53008 81235 91800 333 10143 20085=
07434,1996-04-14 21:00:00,9,1023.3,1.7,76,5,25000,7.408,,,350,,,,,,,,,,,wg-a,,,,AAXX 14214 07434 12575 /3504 10090 20050 39751 40233 51017 60006 82502 92100=
07434,1996-04-15 00:00:00,10,1023.6,0.4,66,4,20000,7.408,,,30,,,,,,,,,,,wg-a,,,,AAXX 15004 07434 12770 70304 10100 20040 39755 40236 51004 60006 875// 90000=
07434,1996-04-15 03:00:00,9,1023.5,-0.2,71,4,20000,3.704,,,20,,,,,,,,,,,wg-a,,,,AAXX 15034 07434 12770 70202 10090 20040 39753 40235 55002 60006 875// 90300=
07434,1996-04-15 06:00:00,8,1024.3,0.6,66,2,8000,0,,,0,7.9,11.8,,,,,,,,,wg-a,,,,AAXX 15064 07434 02/58 30000 10080 20020 39759 40243 53006 60006 80001 90600 333 10118 20079 61000=
07434,1996-04-15 09:00:00,13,1024.6,1.1,51,3,9000,11.112,,,50,,,,,,,,,,,wg-a,,,,AAXX 15094 07434 12/59 20506 10130 20030 39770 40246 53011 60006 80001 90900=
07434,1996-04-15 12:00:00,15,1023.7,-0.5,39,1,12000,11.112,,,130,,,,,,,,,,,wg-a,,,,AAXX 15124 07434 12662 31306 10150 20010 39765 40237 58005 60006 83101 91200=
07434,1996-04-15 15:00:00,17,1022.3,-1.2,36,2,14000,7.408,,,350,,,,,,,,,,,wg-a,,,,AAXX 15154 07434 12664 33504 10170 20020 39753 40223 58012 60006 83101 91500=
07434,1996-04-15 21:00:00,11,1023.1,0.4,40,-2,20000,14.816,,,60,,,,,,,,,,,wg-a,,,,AAXX 15214 07434 12/70 20608 10110 21020 39752 40231 50004 60006 80001 92100=
07434,1996-04-16 00:00:00,8,1022.5,-1.1,46,-3,20000,11.112,,,70,,,,,,,,,,,wg-a,,,,AAXX 16004 07434 12/70 10706 10080 21030 39741 40225 58011 60006 80001 90000=
07434,1996-04-16 03:00:00,7,1020,-2.5,45,-4,20000,11.112,,,80,,,,,,,,,,,wg-a,,,,AAXX 16034 07434 12/70 10806 10070 21040 39716 40200 57025 60006 80001 90300=
07434,1996-04-16 06:00:00,6,1018.4,-1.7,49,-4,20000,7.408,,,80,6.1,14.6,,,,,,,,,wg-a,,,,AAXX 16064 07434 02/70 50804 10060 21040 39699 40184 56017 60006 81031 90600 333 10146 20061 60004=
07434,1996-04-16 09:00:00,13,1015.8,-1.4,35,-2,20000,7.408,,,120,,,,,,,,,,,wg-a,,,,AAXX 16094 07434 12/70 61204 10130 21020 39685 40158 58014 60006 80002 90900=
07434,1996-04-16 12:00:00,17,1012.3,-2.7,23,-4,500,11.112,,,170,,,,,,,,,,,wg-a,,,,AAXX 16124 07434 12/00 71706 10170 21040 39658 40123 58027 60006 80002 91200=
07434,1996-04-16 15:00:00,20,1009.2,-2.5,23,-2,40000,14.816,,,160,,,,,,,,,,,wg-a,,,,AAXX 16154 07434 12/82 71608 10200 21020 39633 40092 56025 60006 81082 91500=
07434,1996-04-16 18:00:00,17,1008.4,-1.3,27,-2,500,0,,,0,6.3,19.5,,,,,,,,,wg-a,,,,AAXX 16184 07434 12/00 70000 10170 21020 39620 40084 58013 60006 84082 91800 333 10195 20063=
07434,1996-04-17 00:00:00,11,1009.3,0.6,87,9,15000,18.52,,,290,,,,,,,,,,,wg-a,,,,AAXX 17004 07434 12465 72910 10110 20090 39621 40093 53006 60006 8757/ 90000=
07434,1996-04-17 03:00:00,9,1010,0.4,100,9,15000,18.52,,,270,,,,9,,,,,,61,wg-a,,,,AAXX 17034 07434 12465 72710 10090 20090 39625 40100 53004 60097 76162 8757/ 90300=
07434,1996-04-17 06:00:00,8,1012.8,2.4,93,7,20000,14.816,,,290,7.6,16.5,,,,,9,,,3,wg-a,,,,AAXX 17064 07434 02370 72908 10080 20070 39649 40128 53024 60094 70362 875// 90600 333 10165 20076 61000=
07434,1996-04-17 09:00:00,10,1014.4,1.9,82,7,15000,18.52,,,290,,,,,,,,,,,wg-a,,,,AAXX 17094 07434 12465 /2910 10100 20070 39668 40144 51019 60006 86200 90900=
07434,1996-04-17 12:00:00,12,1014.5,0.4,58,4,500,18.52,,,290,,,,,,,,,,,wg-a,,,,AAXX 17124 07434 12400 62910 10120 20040 39672 40145 51004 60006 85801 91200=
07434,1996-04-17 15:00:00,11,1016,1.2,71,6,500,18.52,,,280,,,,,,,,,,25,wg-a,,,,AAXX 17154 07434 02400 72810 10110 20060 39684 40160 53012 61000 72522 86301 91500 333 ////=
07434,1996-04-17 18:00:00,10,1018.1,1.9,82,7,500,11.112,,,250,7.6,13,,1,,,,,,25,wg-a,,,,AAXX 17184 07434 12400 52506 10100 20070 39703 40181 53019 60017 72587 83963 91800 333 10130 20076=
07434,1996-04-17 21:00:00,7,1020.9,2.2,87,5,500,14.816,,,290,,,,,,,,,,,wg-a,,,,AAXX 17214 07434 12600 22908 10070 20050 39725 40209 51022 60006 82500 92100=
07434,1996-04-18 03:00:00,6,1022,0.1,100,6,600,7.408,,,310,,,,,,,,,,45,wg-a,,,,AAXX 18034 07434 12/06 93104 10060 20060 39734 40220 52001 60006 74541 89/// 90300=
07434,1996-04-18 12:00:00,12,1021,-1.3,62,5,500,7.408,,,220,,,,,,,,,,,wg-a,,,,AAXX 18124 07434 12500 /2204 10120 20050 39734 40210 58013 60006 85201 91200=
07434,1996-04-18 15:00:00,15,1019.2,-1.3,41,2,50000,3.704,,,210,,,,,,,,,,,wg-a,,,,AAXX 18154 07434 12684 /2102 10150 20020 39721 40192 58013 60006 82101 91500=
07434,1996-04-18 18:00:00,14,1018.5,-0.8,51,4,50000,3.704,,,240,6.3,15.1,,,,,,,,,wg-a,,,,AAXX 18184 07434 12/84 62402 10140 20040 39713 40185 56008 60006 80002 91800 333 10151 20063=
07434,1996-04-18 21:00:00,11,1019.1,0.2,62,4,500,7.408,,,30,,,,,,,,,,,wg-a,,,,AAXX 18214 07434 12/00 40304 10110 20040 39715 40191 51002 60006 80002 92100=
07434,1996-04-19 00:00:00,9,1019.2,-0.3,76,5,500,3.704,,,70,,,,,,,,,,,wg-a,,,,AAXX 19004 07434 12/00 30702 10090 20050 39712 40192 58003 60006 80001 90000=
07434,1996-04-19 03:00:00,6,1018.8,-0.8,87,4,20000,7.408,,,60,,,,,,,,,,,wg-a,,,,AAXX 19034 07434 12/70 30604 10060 20040 39704 40188 56008 60006 80001 90300=
07434,1996-04-19 06:00:00,7,1018.8,0.1,81,4,40000,7.408,,,60,6.3,13.7,,,,,,,,,wg-a,,,,AAXX 19064 07434 02/82 40604 10070 20040 39705 40188 53001 60006 80001 90600 333 10137 20063 60004=
07434,1996-04-19 09:00:00,14,1017.4,-0.2,63,7,500,14.816,,,140,,,,,,,,,,,wg-a,,,,AAXX 19094 07434 12/00 41408 10140 20070 39703 40174 58002 60006 80001 90900=
07434,1996-04-19 12:00:00,19,1015.2,-1.3,37,4,50000,22.224,,,160,,,,,,,,,,,wg-a,,,,AAXX 19124 07434 12/84 51612 10190 20040 39690 40152 58013 60006 80001 91200=
07434,1996-04-19 15:00:00,21,1013.5,-1.4,33,4,45000,22.224,,,190,,,,,,,,,,,wg-a,,,,AAXX 19154 07434 12/83 61912 10210 20040 39676 40135 56014 60006 80001 91500=
07434,1996-04-19 18:00:00,19,1012.8,-0.9,32,2,60000,14.816,,,170,7.5,21.2,,,,,,,,,wg-a,,,,AAXX 19184 07434 12/86 71708 10190 20020 39667 40128 56009 60006 81032 91800 333 10212 20075=
07434,1996-04-19 21:00:00,15,1014.2,0.7,33,-1,500,18.52,,,150,,,,,,,,,,,wg-a,,,,AAXX 19214 07434 12/00 51510 10150 21010 39674 40142 51007 60006 80002 92100=
07434,1996-04-20 00:00:00,12,1014,-0.7,35,-3,500,11.112,,,140,,,,,,,,,,,wg-a,,,,AAXX 20004 07434 12/00 41406 10120 21030 39667 40140 57007 60006 80001 90000=
07434,1996-04-20 03:00:00,11,1012.9,-1.2,37,-3,500,18.52,,,150,,,,,,,,,,,wg-a,,,,AAXX 20034 07434 12/00 41510 10110 21030 39655 40129 56012 60006 80001 90300=
07434,1996-04-20 06:00:00,11,1013.1,0.2,47,0,60000,14.816,,,140,10.2,19,,,,,,,,,wg-a,,,,AAXX 20064 07434 02/86 61408 10110 20000 39657 40131 53002 60006 80001 90600 333 10190 20102 60004=
07434,1996-04-20 09:00:00,16,1012.3,-0.1,39,2,60000,18.52,,,170,,,,,,,,,,,wg-a,,,,AAXX 20094 07434 12/86 41710 10160 20020 39656 40123 58001 60006 80001 90900=
07434,1996-04-20 12:00:00,18,1011.2,-0.6,39,4,60000,31.484,,,190,,,,,,,,,,,wg-a,,,,AAXX 20124 07434 12/86 51917 10180 20040 39650 40112 58006 60006 80002 91200=
07434,1996-04-20 15:00:00,19,1010.1,-1,37,4,60000,25.928,,,160,,,,,,,,,,,wg-a,,,,AAXX 20154 07434 12/86 51614 10190 20040 39640 40101 58010 60006 83032 91500=
07434,1996-04-20 18:00:00,17,1009.6,-0.8,34,1,60000,25.928,,,170,11.1,20,,,,,,,,,wg-a,,,,AAXX 20184 07434 12/86 41714 10170 20010 39632 40096 56008 60006 80002 91800 333 10200 20111=
07434,1996-04-20 21:00:00,14,1010,-0.1,38,0,500,18.52,,,150,,,,,,,,,,,wg-a,,,,AAXX 20214 07434 12/00 51510 10140 20000 39631 40100 58001 60006 82082 92100=
07434,1996-04-21 00:00:00,12,1009.5,-0.7,40,-1,20000,18.52,,,140,,,,,,,,,,,wg-a,,,,AAXX 21004 07434 12/70 61410 10120 21010 39624 40095 56007 60006 83032 90000=
07434,1996-04-21 03:00:00,13,1008.2,-1.1,41,0,20000,22.224,,,150,,,,,,,,,,,wg-a,,,,AAXX 21034 07434 12/70 61512 10130 20000 39613 40082 56011 60006 83032 90300=
07434,1996-04-21 06:00:00,13,1008.3,-0,44,1,20000,22.224,,,150,12.1,16.8,,,,,,,,,wg-a,,,,AAXX 21064 07434 02/70 31512 10130 20010 39613 40083 55000 60006 81032 90600 333 10168 20121 60004=
07434,1996-04-21 09:00:00,17,1007,-0.4,42,4,25000,35.188,,55.56,160,,,,,,,,,,,wg-a,,,,AAXX 21094 07434 12/75 11619 10170 20040 39609 40070 58004 60006 80001 90900 333 91030=
07434,1996-04-21 12:00:00,20,1006.4,-0.1,40,6,500,38.892,,,180,,,,,,,,,,,wg-a,,,,AAXX 21124 07434 12/00 11821 10200 20060 39608 40064 58001 60006 80001 91200=
07434,1996-04-21 15:00:00,21,1006.1,-0.2,40,7,500,31.484,,,170,,,,,,,,,,,wg-a,,,,AAXX 21154 07434 12600 31717 10210 20070 39606 40061 58002 60006 81102 91500=
07434,1996-04-21 18:00:00,19,1007.1,0.6,40,5,500,22.224,,,180,12.7,22.1,,,,,,,,,wg-a,,,,AAXX 21184 07434 12700 61812 10190 20050 39612 40071 53006 60006 81432 91800 333 10221 20127=
07434,1996-04-21 21:00:00,15,1009.2,1.4,48,4,20000,14.816,,,180,,,,,,,,,,,wg-a,,,,AAXX 21214 07434 12770 61808 10150 20040 39626 40092 51014 60006 83432 92100=
07434,1996-04-22 03:00:00,12,1006.6,-1.8,58,4,20000,11.112,,,130,,,,,,,,,,,wg-a,,,,AAXX 22034 07434 12770 61306 10120 20040 39597 40066 56018 60006 83432 90300=
07434,1996-04-22 06:00:00,12,1006.3,-0.3,62,5,20000,3.704,,,180,11.7,18.9,,,,,,,,,wg-a,,,,AAXX 22064 07434 02/70 71802 10120 20050 39594 40063 55003 60006 80002 90600 333 10189 20117 60004=
07434,1996-04-22 09:00:00,18,1005.1,-0.3,52,8,20000,31.484,,50.004,170,,,,,,,,,,,wg-a,,,,AAXX 22094 07434 12/70 11717 10180 20080 39591 40051 55003 60006 80001 90900 333 91027=
07434,1996-04-22 12:00:00,19,1003.9,-0.9,49,8,25000,38.892,,,170,,,,,,,,,,,wg-a,,,,AAXX 22124 07434 12675 /1721 10190 20080 39582 40039 55009 60006 86201 91200=
07434,1996-04-22 15:00:00,19,1001.9,-1.9,52,9,25000,35.188,,66.672,160,,,,,,,,,,,wg-a,,,,AAXX 22154 07434 12675 71619 10190 20090 39563 40019 56019 60006 83206 91500 333 91036=
07434,1996-04-22 18:00:00,15,1002.6,0.1,63,8,20000,29.632,,,180,12.3,20.4,,,,,,,,,wg-a,,,,AAXX 22184 07434 12470 71816 10150 20080 39564 40026 53001 60006 84836 91800 333 10204 20123=
07434,1996-04-22 21:00:00,11,1006.9,3.4,94,10,6000,14.816,,,170,,,,8,,,,,,61,wg-a,,,,AAXX 22214 07434 12156 81708 10110 20100 39598 40069 51034 60087 76162 878// 92100=
07434,1996-04-23 00:00:00,11,1007.4,0.5,94,10,6000,14.816,,,190,,,,5,,,,,,61,wg-a,,,,AAXX 23004 07434 02156 81908 10110 20100 39603 40074 53005 60136 76162 873// 90000 333 60057=
07434,1996-04-23 03:00:00,9,1008.8,1,93,8,6000,11.112,,,240,,,,4,,,,,,61,wg-a,,,,AAXX 23034 07434 12156 82406 10090 20080 39613 40088 53010 60047 76166 873// 90300=
07434,1996-04-23 06:00:00,9,1010.8,1.9,93,8,15000,18.52,,,220,8.7,15.2,,0,,,17,,,1,wg-a,,,,AAXX 23064 07434 02365 72210 10090 20080 39632 40108 53019 60174 70162 878// 90600 333 10152 20087 60007=
07434,1996-04-23 09:00:00,10,1012.6,1.9,82,7,20000,18.52,,,220,,,,,,,,,,,wg-a,,,,AAXX 23094 07434 12470 72210 10100 20070 39651 40126 52019 60006 878// 90900=
07434,1996-04-23 12:00:00,10,1013.2,0.6,87,8,25000,14.816,,,240,,,,2,,,,,,25,wg-a,,,,AAXX 23124 07434 02475 /2408 10100 20080 39657 40132 53006 60026 72586 86900 91200 333 60027=
07434,1996-04-23 15:00:00,10,1014.5,1.2,82,7,25000,14.816,,,280,,,,1,,,,,,2,wg-a,,,,AAXX 23154 07434 12475 /2808 10100 20070 39669 40145 53012 60017 70287 86900 91500=
07434,1996-04-23 18:00:00,10,1016.1,1.4,71,5,40000,11.112,,,250,8.3,13.4,,,,,,,,1,wg-a,,,,AAXX 23184 07434 32582 52506 10100 20050 39683 40161 51014 70187 85902 91800 333 10134 20083=
07434,1996-04-23 21:00:00,7,1018.8,2.2,87,5,40000,3.704,,,190,,,,,,,,,,,wg-a,,,,AAXX 23214 07434 12/82 21902 10070 20050 39705 40188 52022 60006 81031 92100=
07434,1996-04-24 00:00:00,7,1020.2,1.2,81,4,20000,3.704,,,190,,,,,,,,,,,wg-a,,,,AAXX 24004 07434 12570 61902 10070 20040 39717 40202 51012 60006 85801 90000=
07434,1996-04-24 03:00:00,5,1020.7,0.2,93,4,20000,3.704,,,60,,,,,,,,,,,wg-a,,,,AAXX 24034 07434 12570 40602 10050 20040 39719 40207 53002 60006 83801 90300=
07434,1996-04-24 06:00:00,6,1021.5,1,100,6,500,3.704,,,190,4.8,9.8,,,,,3,,,,wg-a,,,,AAXX 24064 07434 02400 /1902 10060 20060 39729 40215 53010 60006 85800 90600 333 10098 20048 60034=
07434,1996-04-24 09:00:00,10,1022,1.2,82,7,50000,14.816,,,280,,,,,,,,,,,wg-a,,,,AAXX 24094 07434 12484 /2808 10100 20070 39741 40220 51012 60006 85200 90900=
07434,1996-04-24 12:00:00,13,1022.3,0.7,62,6,50000,14.816,,,280,,,,,,,,,,,wg-a,,,,AAXX 24124 07434 12584 52808 10130 20060 39748 40223 51007 60006 85900 91200=
07434,1996-04-24 15:00:00,14,1022.1,-0.1,47,3,50000,18.52,,,290,,,,0,,,,,,1,wg-a,,,,AAXX 24154 07434 12584 52910 10140 20030 39747 40221 58001 60007 70186 85900 91500=
07434,1996-04-24 18:00:00,12,1023,0.6,67,6,50000,7.408,,,300,6.2,14,,,,,,,,3,wg-a,,,,AAXX 24184 07434 32684 53004 10120 20060 39753 40230 53006 70386 85800 91800 333 10140 20062=
07434,1996-04-24 21:00:00,9,1025.5,1.8,76,5,500,7.408,,,350,,,,,,,,,,,wg-a,,,,AAXX 24214 07434 12700 13504 10090 20050 39771 40255 51018 60006 81501 92100=
07434,1996-04-25 00:00:00,7,1026,0.2,87,5,500,11.112,,,320,,,,,,,,,,,wg-a,,,,AAXX 25004 07434 12700 13206 10070 20050 39773 40260 50002 60006 81501 90000=
07434,1996-04-25 03:00:00,6,1025.5,-0.6,93,5,500,11.112,,,360,,,,,,,,,,,wg-a,,,,AAXX 25034 07434 12/00 13606 10060 20050 39767 40255 56006 60006 80001 90300=
07434,1996-04-25 06:00:00,5,1026.7,1,93,4,1500,3.704,,,110,4.9,12.6,,,,,,,,40,wg-a,,,,AAXX 25064 07434 02/15 /1102 10050 20040 39777 40267 53010 60006 74040 80001 90600 333 10126 20049 60004=
07434,1996-04-25 09:00:00,11,1026.3,0.6,71,6,15000,11.112,,,20,,,,,,,,,,,wg-a,,,,AAXX 25094 07434 12565 40206 10110 20060 39783 40263 51006 60006 84200 90900=
07434,1996-04-25 12:00:00,13,1024.9,-1,54,4,500,11.112,,,20,,,,,,,,,,,wg-a,,,,AAXX 25124 07434 12600 40206 10130 20040 39773 40249 58010 60006 84100 91200=
07434,1996-04-25 15:00:00,13,1024,-0.9,47,2,40000,14.816,,,20,,,,,,,,,,,wg-a,,,,AAXX 25154 07434 12682 30208 10130 20020 39764 40240 58009 60006 83400 91500=
07434,1996-04-25 18:00:00,13,1023.8,-0.3,51,3,40000,11.112,,,20,5.4,14.6,,,,,,,,,wg-a,,,,AAXX 25184 07434 12782 10206 10130 20030 39761 40238 56003 60006 81501 91800 333 10146 20054=
07434,1996-04-25 21:00:00,9,1024.8,0.5,66,3,10000,14.816,,,20,,,,,,,,,,,wg-a,,,,AAXX 25214 07434 12/60 /0208 10090 20030 39766 40248 53005 60006 92100=
07434,1996-04-26 00:00:00,8,1024.3,-0.8,66,2,20000,14.816,,,40,,,,,,,,,,,wg-a,,,,AAXX 26004 07434 12/70 00408 10080 20020 39758 40243 58008 60006 80000 90000=
07434,1996-04-26 03:00:00,8,1022.2,-2,66,2,20000,14.816,,,40,,,,,,,,,,,wg-a,,,,AAXX 26034 07434 12/70 00408 10080 20020 39738 40222 57020 60006 80000 90300=
07434,1996-04-26 06:00:00,8,1021.6,-0.5,71,3,20000,11.112,,,70,6.6,12.6,,,,,,,,,wg-a,,,,AAXX 26064 07434 02/70 00706 10080 20030 39733 40216 56005 60006 80000 90600 333 10126 20066 60004=
07434,1996-04-26 09:00:00,14,1020,-0.5,47,3,20000,22.224,,,70,,,,,,,,,,,wg-a,,,,AAXX 26094 07434 12670 20712 10140 20030 39728 40200 58005 60006 81102 90900=
07434,1996-04-26 12:00:00,17,1017.7,-1.8,42,4,40000,22.224,,,40,,,,,,,,,,,wg-a,,,,AAXX 26124 07434 12782 50412 10170 20040 39710 40177 58018 60006 82102 91200=
07434,1996-04-26 15:00:00,17,1016,-1.6,42,4,40000,22.224,,,50,,,,,,,,,,,wg-a,,,,AAXX 26154 07434 12782 60512 10170 20040 39694 40160 58016 60006 83102 91500=
07434,1996-04-26 18:00:00,15,1015.1,-1.1,48,4,40000,18.52,,,40,8.1,17.5,,,,,,,,,wg-a,,,,AAXX 26184 07434 12/82 60410 10150 20040 39683 40151 58011 60006 80002 91800 333 10175 20081=
07434,1996-04-26 21:00:00,13,1015.9,0.4,54,4,500,18.52,,,40,,,,,,,,,,,wg-a,,,,AAXX 26214 07434 12/00 60410 10130 20040 39687 40159 52004 60006 80002 92100=
07434,1996-04-27 00:00:00,12,1015.3,-0.8,54,3,25000,18.52,,,60,,,,,,,,,,,wg-a,,,,AAXX 27004 07434 12/75 60610 10120 20030 39679 40153 58008 60006 80002 90000=
07434,1996-04-27 03:00:00,10,1014.1,-1.4,62,3,25000,11.112,,,90,,,,,,,,,,,wg-a,,,,AAXX 27034 07434 12/75 70906 10100 20030 39665 40141 56014 60006 82032 90300=
07434,1996-04-27 06:00:00,10,1013.7,-0.4,66,4,25000,11.112,,,70,9,15.2,,,,,,,,,wg-a,,,,AAXX 27064 07434 02/75 70706 10100 20040 39661 40137 55004 60006 80002 90600 333 10152 20090 60004=
07434,1996-04-27 09:00:00,16,1012.2,-0.4,48,5,20000,11.112,,,70,,,,,,,,,,,wg-a,,,,AAXX 27094 07434 12/70 40706 10160 20050 39657 40122 56004 60006 80001 90900=
07434,1996-04-27 12:00:00,19,1010.7,-1.1,34,3,20000,11.112,,,110,,,,,,,,,,,wg-a,,,,AAXX 27124 07434 12670 71106 10190 20030 39646 40107 58011 60006 81106 91200=
07434,1996-04-27 15:00:00,18,1009.6,-1.1,52,8,500,11.112,,,180,,,,,,,,,,,wg-a,,,,AAXX 27154 07434 12600 71806 10180 20080 39635 40096 56011 60006 83832 91500=
07434,1996-04-27 18:00:00,15,1010.4,0.4,63,8,10000,11.112,,,230,10.3,20.2,,,,,,,,,wg-a,,,,AAXX 27184 07434 12/60 /2306 10150 20080 39639 40104 53004 60006 91800 333 10202 20103=
07434,1996-04-27 21:00:00,14,1011.7,0.9,67,8,20000,3.704,,,220,,,,,,,,,,,wg-a,,,,AAXX 27214 07434 12770 72202 10140 20080 39648 40117 51009 60006 83532 92100=
07434,1996-04-28 00:00:00,13,1010.9,-0.8,77,9,20000,0,,,0,,,,,,,,,,,wg-a,,,,AAXX 28004 07434 12770 70000 10130 20090 39640 40109 58008 60006 83532 90000=
07434,1996-04-28 03:00:00,12,1009.9,-1.1,82,9,20000,3.704,,,60,,,,,,,,,,,wg-a,,,,AAXX 28034 07434 12770 70602 10120 20090 39629 40099 57011 60006 8353/ 90300=
07434,1996-04-28 06:00:00,12,1010,-0,88,10,10000,3.704,,,40,11.6,15.3,,,,,,,,60,wg-a,,,,AAXX 28064 07434 02760 70402 10120 20100 39629 40100 55000 61000 76062 8557/ 90600 333 10153 20116 6100=
07434,1996-04-28 09:00:00,14,1009.4,-0.2,77,10,10000,0,,,0,,,,0,,,,,,21,wg-a,,,,AAXX 28094 07434 12460 70000 10140 20100 39627 40094 58002 60007 72162 8587/ 90900=
07434,1996-04-28 12:00:00,15,1008.3,-0.9,77,11,15000,3.704,,,320,,,,,,,,,,1,wg-a,,,,AAXX 28124 07434 12565 73202 10150 20110 39618 40083 58009 60016 70162 8587/ 91200=
07434,1996-04-28 15:00:00,17,1006.4,-1.5,59,9,15000,14.816,,,10,,,,,,,,,,,wg-a,,,,AAXX 28154 07434 12665 70108 10170 20090 39603 40064 58015 60006 85830 91500=
07434,1996-04-28 18:00:00,15,1006.3,-0.4,63,8,11000,11.112,,,350,11.5,17.1,,,,,,,,,wg-a,,,,AAXX 28184 07434 32/61 /3506 10150 20080 39599 40063 56004 91800 333 10171 20115=
07434,1996-04-28 21:00:00,14,1006.8,0.3,67,8,15000,11.112,,,20,,,,,,,,,,,wg-a,,,,AAXX 28214 07434 12765 70206 10140 20080 39602 40068 50003 60006 8658/ 92100=
07434,1996-04-29 00:00:00,13,1007,0,72,8,15000,11.112,,,30,,,,,,,,,,,wg-a,,,,AAXX 29004 07434 12765 70306 10130 20080 39602 40070 50000 60006 8653/ 90000=
07434,1996-04-29 03:00:00,12,1006,-1.1,76,8,10000,11.112,,,30,,,,,,,,,,,wg-a,,,,AAXX 29034 07434 12760 80306 10120 20080 39591 40060 56011 60006 8653/ 90300=
07434,1996-04-29 06:00:00,11,1006.5,0.3,87,9,4500,11.112,,,340,10.5,15.2,,,,,,,,10,wg-a,,,,AAXX 29064 07434 02645 73406 10110 20090 39594 40065 53003 60006 71022 8653/ 90600 333 10152 20105 60004=
07434,1996-04-29 09:00:00,12,1006.6,0.4,82,9,4500,7.408,,,10,,,,,,,,,,10,wg-a,,,,AAXX 29094 07434 12645 70104 10120 20090 39598 40066 52004 60006 71022 8358/ 90900=
07434,1996-04-29 12:00:00,15,1005.5,-0.6,72,10,500,11.112,,,350,,,,,,,,,,1,wg-a,,,,AAXX 29124 07434 02500 /3506 10150 20100 39592 40055 58006 61000 70162 81102 91200 333 6100=
07434,1996-04-29 15:00:00,17,1003.8,-1.3,55,8,12000,14.816,,,10,,,,,,,,,,,wg-a,,,,AAXX 29154 07434 12662 40108 10170 20080 39579 40038 56013 60006 83202 91500=
07434,1996-04-29 18:00:00,15,1004.2,-0,59,7,15000,11.112,,,30,10.5,17.7,,,,,,,,,wg-a,,,,AAXX 29184 07434 32665 40306 10150 20070 39579 40042 54000 82232 91800 333 10177 20105=
07434,1996-04-29 21:00:00,11,1006,1.1,82,8,10000,11.112,,,20,,,,,,,,,,17,wg-a,,,,AAXX 29214 07434 12660 70206 10110 20080 39590 40060 51011 60006 71791 879// 92100=
07434,1996-04-30 00:00:00,9,1006.3,-0.1,87,7,0,11.112,,,340,,,,,,,,,,,wg-a,,,,AAXX 30004 07434 12/// /3406 10090 20070 39589 40063 58001 60016 90000=
07434,1996-04-30 03:00:00,8,1005.6,-0.9,93,7,2000,0,,,0,,,,,,,,,,10,wg-a,,,,AAXX 30034 07434 32/20 00000 10080 20070 39580 40056 56009 71011 80000 90300=
07434,1996-04-30 04:00:00,8,1005.9,0.3,93,7,100,3.704,,,130,,,,,,,,,,45,wg-a,,,,AAXX 30044 07434 32/01 91302 10080 20070 39583 40059 53003 74541 89/// 90400=
07434,1996-04-30 06:00:00,8,1005.9,0.3,93,7,100,3.704,,,130,5.9,15.2,,,,,1,,,45,wg-a,,,,AAXX 30064 07434 12/01 91302 10080 20070 39583 40059 53003 60014 74541 89/// 90600 333 10152 20059=
07434,1996-04-30 09:00:00,9,1006.4,0.7,93,8,600,7.408,,,260,,,,,,,,,,,wg-a,,,,AAXX 30094 07434 12/06 /2604 10090 20080 39590 40064 51007 60006 90900=
07434,1996-04-30 12:00:00,12,1004.7,-1.1,71,7,10000,14.816,,,210,,,,,,,,,,3,wg-a,,,,AAXX 30124 07434 12460 52108 10120 20070 39579 40047 58011 60006 70342 84201 91200=
07434,1996-04-30 15:00:00,14,1002.9,-1.5,51,4,20000,18.52,,,230,,,,,,,,,,,wg-a,,,,AAXX 30154 07434 12670 42310 10140 20040 39564 40029 57015 60006 83801 91500=
07434,1996-04-30 18:00:00,12,1002.5,-0.6,50,2,500,7.408,,,250,7.3,14.8,,,,,,,,,wg-a,,,,AAXX 30184 07434 12600 /2504 10120 20020 39558 40025 56006 60006 85801 91800 333 10148 20073=
07434,1996-04-30 21:00:00,9,1004.1,0.9,66,3,20000,14.816,,,290,,,,,,,,,,,wg-a,,,,AAXX 30214 07434 12670 72908 10090 20030 39567 40041 53009 60006 84532 92100=
07434,1996-05-01 00:00:00,7,1004,-0.3,81,4,12000,7.408,,,280,,,,,,,,,,21,wg-a,,,,AAXX 01004 07434 02662 82804 10070 20040 39564 40040 58003 61000 72162 8557/ 90000 333 6100=
07434,1996-05-01 03:00:00,7,1003.1,-1,87,5,10000,7.408,,,180,,,,0,,,,,,21,wg-a,,,,AAXX 01034 07434 12560 81804 10070 20050 39554 40031 56010 60007 72162 875// 90300=
07434,1996-05-01 06:00:00,6,1002.6,-0.5,93,5,12000,7.408,,,180,6,12.3,,,,,,,,1,wg-a,,,,AAXX 01064 07434 12362 71804 10060 20050 39549 40026 55005 60004 70162 84832 90600 333 10123 20060=
07434,1996-05-01 09:00:00,9,1001.9,-0.2,76,5,20000,14.816,,,190,,,,,,,,,,,wg-a,,,,AAXX 01094 07434 12470 71908 10090 20050 39547 40019 58002 60006 878// 90900=
07434,1996-05-01 12:00:00,11,1000.6,-0.9,66,5,500,18.52,,,180,,,,,,,,,,,wg-a,,,,AAXX 01124 07434 12500 71810 10110 20050 39538 40006 58009 60006 85202 91200=
07434,1996-05-01 15:00:00,9,999.6,-1.3,81,6,25000,14.816,,,280,,,,3,,,,,,25,wg-a,,,,AAXX 01154 07434 12375 72808 10090 20060 39525 49996 58013 60037 72586 872// 91500=
07434,1996-05-01 18:00:00,10,998.2,-1.2,82,7,40000,11.112,,,140,6.1,11.8,,2,,,,,,1,wg-a,,,,AAXX 01184 07434 12582 21406 10100 20070 39513 49982 58012 60027 70186 81232 91800 333 10118 20061=
07434,1996-05-01 21:00:00,8,998.1,-0.4,87,6,25000,11.112,,,130,,,,,,,,,,,wg-a,,,,AAXX 01214 07434 12/75 11306 10080 20060 39509 49981 58004 60006 80001 92100=
07434,1996-05-02 00:00:00,7,998,-0.2,93,6,8000,14.816,,,190,,,,2,,,,,,61,wg-a,,,,AAXX 02004 07434 02358 81908 10070 20060 39507 49980 55002 60026 76161 875// 90000 333 60027=
07434,1996-05-02 03:00:00,6,997.8,-0.4,87,4,20000,22.224,,,200,,,,2,,,,,,21,wg-a,,,,AAXX 02034 07434 12270 72012 10060 20040 39503 49978 58004 60027 72162 875// 90300=
07434,1996-05-02 06:00:00,6,998,0.1,93,5,20000,22.224,,,200,5.7,9.9,,,,,9,,,25,wg-a,,,,AAXX 02064 07434 02270 72012 10060 20050 39504 49980 53001 60094 72586 878// 90600 333 10099 20057 61000=
07434,1996-05-02 09:00:00,8,998.3,0.6,81,5,500,22.224,,,190,,,,,,,,,,,wg-a,,,,AAXX 02094 07434 12400 71912 10080 20050 39510 49983 50006 60006 878// 90900=
07434,1996-05-02 12:00:00,9,997.8,-0.3,71,4,12000,29.632,,,210,,,,0,,,,,,80,wg-a,,,,AAXX 02124 07434 02462 72116 10090 20040 39507 49978 56003 60006 78086 8733/ 91200 333 60007=
07434,1996-05-02 15:00:00,11,997.7,0.3,71,6,10000,22.224,,,230,,,,1,,,,,,25,wg-a,,,,AAXX 02154 07434 12460 72312 10110 20060 39510 49977 53003 60017 72586 879// 91500=
07434,1996-05-02 18:00:00,9,997.7,-0.2,76,5,500,29.632,,,200,5.7,10.6,,,,,,,,25,wg-a,,,,AAXX 02184 07434 02400 72016 10090 20050 39508 49977 58002 61000 72586 8633/ 91800 333 10106 20057 ////=
07434,1996-05-02 21:00:00,6,998.2,0,93,5,15000,25.928,,,190,,,,0,,,,,,1,wg-a,,,,AAXX 02214 07434 12365 71914 10060 20050 39508 49982 50000 60007 70186 878// 92100=
07434,1996-05-03 00:00:00,6,997.3,-0.9,93,5,15000,29.632,,,190,,,,0,,,,,,25,wg-a,,,,AAXX 03004 07434 02365 71916 10060 20050 39499 49973 58009 60016 72586 878// 90000 333 60007=
07434,1996-05-03 03:00:00,6,997,-0.3,100,6,12000,18.52,,,230,,,,3,,,,,,25,wg-a,,,,AAXX 03034 07434 12262 72310 10060 20060 39496 49970 55003 60037 72522 878// 90300=
07434,1996-05-03 06:00:00,7,999,2,93,6,8000,14.816,,,260,6,9.4,,1,,,5,,,80,wg-a,,,,AAXX 03064 07434 02258 72608 10070 20060 39516 49990 53020 60054 78086 873// 90600 333 10094 20060 60017=
07434,1996-05-03 09:00:00,7,1001.7,2.6,100,7,4000,18.52,,,250,,,,1,,,,,,60,wg-a,,,,AAXX 03094 07434 12240 82510 10070 20070 39542 40017 53026 60017 76086 878// 90900=
07434,1996-05-03 12:00:00,10,1003.1,1.9,82,7,25000,18.52,,,280,,,,0,,,,,,1,wg-a,,,,AAXX 03124 07434 02475 72810 10100 20070 39561 40031 51019 60026 70186 878// 91200 333 60007=
07434,1996-05-03 15:00:00,10,1004.6,1.3,76,6,25000,22.224,,,360,,,,,,,,,,80,wg-a,,,,AAXX 03154 07434 02475 73612 10100 20060 39574 40046 53013 61000 78086 872// 91500 333 ////=
07434,1996-05-03 18:00:00,9,1006.8,2.1,87,7,18000,7.408,,,300,6.6,13.6,,2,,,,,,16,wg-a,,,,AAXX 03184 07434 12468 43004 10090 20070 39595 40068 51021 60027 71687 84800 91800 333 10136 20066=
07434,1996-05-03 21:00:00,8,1009.4,2.1,93,7,15000,3.704,,,290,,,,,,,,,,,wg-a,,,,AAXX 03214 07434 12565 /2902 10080 20070 39616 40094 53021 60006 85830 92100=
07434,1996-05-04 00:00:00,7,1010.2,0.7,93,6,15000,3.704,,,90,,,,,,,,,,,wg-a,,,,AAXX 04004 07434 12665 60902 10070 20060 39623 40102 51007 60006 84530 90000=
07434,1996-05-04 03:00:00,6,1010.9,0.4,93,5,700,0,,,0,,,,,,,,,,44,wg-a,,,,AAXX 04034 07434 12607 20000 10060 20050 39627 40109 53004 60006 74441 81530 90300=
07434,1996-05-04 06:00:00,7,1012,1.3,93,6,2500,7.408,,,50,4.7,9.3,,,,,4,,,10,wg-a,,,,AAXX 04064 07434 02/25 /0504 10070 20060 39640 40120 53013 60006 71041 80001 90600 333 10093 20047 60044=
07434,1996-05-04 09:00:00,12,1012.8,1.5,71,7,3000,7.408,,,80,,,,,,,,,,10,wg-a,,,,AAXX 04094 07434 12330 30804 10120 20070 39655 40128 51015 60006 71000 83201 90900=
07434,1996-05-04 12:00:00,14,1012.7,0.3,58,6,15000,3.704,,,360,,,,,,,,,,,wg-a,,,,AAXX 04124 07434 12565 43602 10140 20060 39658 40127 50003 60006 84200 91200=
07434,1996-05-04 15:00:00,15,1012.1,-0.5,51,5,25000,3.704,,,30,,,,,,,,,,,wg-a,,,,AAXX 04154 07434 12675 40302 10150 20050 39653 40121 56005 60006 84200 91500=
07434,1996-05-04 18:00:00,13,1012.7,0.4,62,6,25000,14.816,,,30,6.8,15.8,,,,,,,,,wg-a,,,,AAXX 04184 07434 12675 10308 10130 20060 39657 40127 53004 60006 81101 91800 333 10158 20068=
07434,1996-05-04 21:00:00,10,1014.2,0.8,71,5,20000,14.816,,,50,,,,,,,,,,,wg-a,,,,AAXX 04214 07434 12/70 40508 10100 20050 39665 40142 51008 60006 80001 92100=
07434,1996-05-05 00:00:00,8,1014.4,-0.1,76,4,20000,18.52,,,70,,,,,,,,,,,wg-a,,,,AAXX 05004 07434 12/70 40710 10080 20040 39664 40144 56001 60006 80001 90000=
07434,1996-05-05 03:00:00,7,1013.7,-0.8,81,4,15000,11.112,,,60,,,,,,,,,,,wg-a,,,,AAXX 05034 07434 12/65 30606 10070 20040 39656 40137 57008 60006 80001 90300=
07434,1996-05-05 06:00:00,8,1013.7,0.2,81,5,20000,11.112,,,60,6.5,13.1,,,,,,,,,wg-a,,,,AAXX 05064 07434 02/70 30606 10080 20050 39658 40137 53002 60006 81033 90600 333 10131 20065 60004=
07434,1996-05-05 09:00:00,15,1012.5,0,59,7,25000,7.408,,,120,,,,,,,,,,,wg-a,,,,AAXX 05094 07434 12/75 31204 10150 20070 39658 40125 50000 60006 80002 90900=
07434,1996-05-05 12:00:00,18,1011,-0.9,39,4,500,11.112,,,200,,,,,,,,,,,wg-a,,,,AAXX 05124 07434 12600 42006 10180 20040 39649 40110 58009 60006 83102 91200=
07434,1996-05-05 15:00:00,20,1009.4,-1.3,37,5,40000,3.704,,,120,,,,,,,,,,,wg-a,,,,AAXX 05154 07434 12782 41202 10200 20050 39636 40094 58013 60006 84100 91500=
07434,1996-05-05 18:00:00,19,1008.8,-0.8,34,3,40000,3.704,,,40,8.3,20.6,,,,,,,,,wg-a,,,,AAXX 05184 07434 12782 20402 10190 20030 39628 40088 56008 60006 81101 91800 333 10206 20083=
07434,1996-05-05 21:00:00,14,1009.9,0.4,67,8,40000,14.816,,,70,,,,,,,,,,,wg-a,,,,AAXX 05214 07434 12782 20708 10140 20080 39632 40099 51004 60006 81101 92100=
07434,1996-05-06 00:00:00,12,1010.2,-0.1,71,7,500,11.112,,,90,,,,,,,,,,,wg-a,,,,AAXX 06004 07434 12/00 10906 10120 20070 39631 40102 58001 60006 80001 90000=
07434,1996-05-06 03:00:00,11,1008.7,-1.6,66,5,500,11.112,,,100,,,,,,,,,,,wg-a,,,,AAXX 06034 07434 12/00 11006 10110 20050 39615 40087 56016 60006 80001 90300=
07434,1996-05-06 06:00:00,12,1008.2,-0.3,62,5,60000,11.112,,,120,10.4,18.9,,,,,,,,,wg-a,,,,AAXX 06064 07434 02/86 21206 10120 20050 39612 40082 55003 60006 81031 90600 333 10189 20104 60004=
07434,1996-05-06 09:00:00,17,1007,-0.4,55,8,50000,18.52,,,150,,,,,,,,,,,wg-a,,,,AAXX 06094 07434 12/84 41510 10170 20080 39608 40070 58004 60006 82031 90900=
07434,1996-05-06 12:00:00,20,1005.5,-0.9,49,9,50000,18.52,,,150,,,,,,,,,,,wg-a,,,,AAXX 06124 07434 12684 21510 10200 20090 39599 40055 56009 60006 81101 91200=
07434,1996-05-06 15:00:00,21,1003.9,-1.3,53,11,50000,14.816,,,190,,,,,,,,,,,wg-a,,,,AAXX 06154 07434 12684 51908 10210 20110 39586 40039 57013 60006 84201 91500=
07434,1996-05-06 18:00:00,20,1004.1,-0.1,49,9,50000,11.112,,,180,11.9,21.8,,,,,,,,,wg-a,,,,AAXX 06184 07434 12684 51806 10200 20090 39585 40041 55001 60006 82201 91800 333 10218 20119=
07434,1996-05-06 21:00:00,15,1005.7,0.9,67,9,500,11.112,,,130,,,,,,,,,,,wg-a,,,,AAXX 06214 07434 12600 /1306 10150 20090 39594 40057 51009 60006 83501 92100=
07434,1996-05-07 00:00:00,13,1005.8,-0.4,67,7,20000,11.112,,,70,,,,,,,,,,,wg-a,,,,AAXX 07004 07434 12/70 60706 10130 20070 39590 40058 58004 60006 81032 90000=
07434,1996-05-07 03:00:00,13,1004.9,-0.8,58,5,15000,11.112,,,120,,,,,,,,,,,wg-a,,,,AAXX 07034 07434 12/65 51206 10130 20050 39582 40049 56008 60006 80002 90300=
07434,1996-05-07 06:00:00,13,1005.3,0.3,62,6,20000,11.112,,,110,11.8,19.5,,,,,,,,,wg-a,,,,AAXX 07064 07434 02770 71106 10130 20060 39585 40053 53003 60006 81532 90600 333 10195 20118 60004=
07434,1996-05-07 09:00:00,15,1005.1,0.2,63,8,25000,14.816,,,160,,,,,,,,,,,wg-a,,,,AAXX 07094 07434 12675 71608 10150 20080 39587 40051 53002 60006 85582 90900=
07434,1996-05-07 12:00:00,13,1005.8,0.5,88,11,12000,18.52,,,160,,,,0,,,,,,60,wg-a,,,,AAXX 07124 07434 02562 71610 10130 20110 39592 40058 51005 60016 76062 8557/ 91200 333 60007=
07434,1996-05-07 15:00:00,15,1005,-0.5,77,11,12000,11.112,,,120,,,,1,,,,,,15,wg-a,,,,AAXX 07154 07434 12462 71206 10150 20110 39587 40050 58005 60017 71562 8423/ 91500=
07434,1996-05-07 18:00:00,13,1006.1,0.7,88,11,12000,11.112,,,250,12.5,15.5,,0,,,,,,1,wg-a,,,,AAXX 07184 07434 12462 72506 10130 20110 39594 40061 53007 60007 70162 849// 91800 333 10155 20125=
07434,1996-05-07 21:00:00,12,1008.6,2.2,94,11,10000,14.816,,,190,,,,2,,,,,,60,wg-a,,,,AAXX 07214 07434 12160 71908 10120 20110 39616 40086 51022 60027 76062 878// 92100=
07434,1996-05-08 00:00:00,11,1009.6,0.8,94,10,10000,7.408,,,200,,,,0,,,,,,1,wg-a,,,,AAXX 08004 07434 02260 /2004 10110 20100 39624 40096 51008 60036 70162 86500 90000 333 60007=
07434,1996-05-08 03:00:00,10,1010.4,0.7,100,10,10000,3.704,,,90,,,,0,,,,,,,wg-a,,,,AAXX 08034 07434 12660 70902 10100 20100 39631 40104 53007 60007 875// 90300=
07434,1996-05-08 06:00:00,11,1011.3,0.9,87,9,500,3.704,,,100,9.8,12.9,,,,,4,,,1,wg-a,,,,AAXX 08064 07434 12600 51002 10110 20090 39640 40113 53009 60044 70162 83831 90600 333 10129 20098=
07434,1996-05-08 09:00:00,15,1011.4,0.8,77,11,500,7.408,,,170,,,,,,,,,,,wg-a,,,,AAXX 08094 07434 12400 61704 10150 20110 39648 40114 51008 60006 84231 90900=
07434,1996-05-08 12:00:00,18,1010.6,-0.3,59,10,40000,7.408,,,200,,,,,,,,,,1,wg-a,,,,AAXX 08124 07434 02582 62004 10180 20100 39645 40106 58003 61000 70186 86301 91200 333 6100=
07434,1996-05-08 15:00:00,13,1011.4,0,88,11,15000,11.112,,,350,,,,3,,,,,,80,wg-a,,,,AAXX 08154 07434 12465 73506 10130 20110 39645 40114 50000 60037 78098 879// 91500=
07434,1996-05-08 18:00:00,14,1011.5,0.2,82,11,40000,14.816,,,10,10.5,18.3,,,,,,,,1,wg-a,,,,AAXX 08184 07434 02682 70108 10140 20110 39647 40115 53002 61000 70198 8583/ 91800 333 10183 20105 ////=
07434,1996-05-08 21:00:00,13,1012.8,1,88,11,500,14.816,,,40,,,,,,,,,,,wg-a,,,,AAXX 08214 07434 12600 70408 10130 20110 39657 40128 51010 60006 8583/ 92100=
07434,1996-05-09 00:00:00,11,1012.5,-0.5,94,10,900,14.816,,,20,,,,,,,,,,44,wg-a,,,,AAXX 09004 07434 12209 70208 10110 20100 39652 40125 57005 60006 74442 876// 90000=
07434,1996-05-09 03:00:00,9,1012.2,-0.7,93,8,900,18.52,,,30,,,,,,,,,,44,wg-a,,,,AAXX 09034 07434 12209 70310 10090 20080 39645 40122 58007 60006 74444 876// 90300=
07434,1996-05-09 06:00:00,8,1012.4,0.1,100,8,1000,22.224,,,40,8.3,13.7,,,,,14,,,10,wg-a,,,,AAXX 09064 07434 02210 70412 10080 20080 39646 40124 53001 60006 71042 876// 90600 333 10137 20083 60144=
07434,1996-05-09 09:00:00,8,1012.9,0.5,93,7,2000,22.224,,,50,,,,,,,,,,10,wg-a,,,,AAXX 09094 07434 12220 70512 10080 20070 39651 40129 50005 60006 71042 876// 90900=
07434,1996-05-09 12:00:00,9,1012.2,-0.5,87,7,3000,22.224,,,30,,,,,,,,,,10,wg-a,,,,AAXX 09124 07434 12330 70312 10090 20070 39646 40122 56005 60006 71042 876// 91200=
07434,1996-05-09 15:00:00,9,1011.8,-0.5,87,7,1500,18.52,,,30,,,,,,,,,,10,wg-a,,,,AAXX 09154 07434 12315 70310 10090 20070 39641 40118 58005 60006 71022 876// 91500=
07434,1996-05-09 18:00:00,10,1011.1,-0.5,76,6,8000,22.224,,,50,7.8,9.9,,,,,,,,,wg-a,,,,AAXX 09184 07434 12558 70512 10100 20060 39636 40111 57005 60006 878// 91800 333 10099 20078=
07434,1996-05-09 21:00:00,8,1011.2,-0.2,81,5,12000,14.816,,,50,,,,,,,,,,,wg-a,,,,AAXX 09214 07434 12662 70508 10080 20050 39634 40112 58002 60006 875// 92100=
07434,1996-05-10 00:00:00,8,1010.1,-1.1,76,4,10000,18.52,,,50,,,,,,,,,,,wg-a,,,,AAXX 10004 07434 12560 /0510 10080 20040 39623 40101 58011 60006 85501 90000=
07434,1996-05-10 03:00:00,5,1009.1,-1.4,87,3,10000,14.816,,,50,,,,,,,,,,,wg-a,,,,AAXX 10034 07434 12560 /0508 10050 20030 39609 40091 56014 60006 81501 90300=
07434,1996-05-10 06:00:00,5,1009,-0.1,87,3,7000,18.52,,,30,5,9.9,,,,,,,,,wg-a,,,,AAXX 10064 07434 02457 70310 10050 20030 39608 40090 56001 60006 875// 90600 333 10099 20050 60004=
07434,1996-05-10 09:00:00,10,1007.8,-0.3,57,2,15000,29.632,,,70,,,,,,,,,,,wg-a,,,,AAXX 10094 07434 12565 60716 10100 20020 39605 40078 58003 60006 82882 90900=
07434,1996-05-10 12:00:00,12,1006.7,-0.7,54,3,25000,29.632,,,50,,,,,,,,,,,wg-a,,,,AAXX 10124 07434 12575 /0516 10120 20030 39598 40067 58007 60006 83802 91200=
07434,1996-05-10 15:00:00,12,1006.7,0,54,3,500,25.928,,,40,,,,,,,,,,,wg-a,,,,AAXX 10154 07434 12600 70414 10120 20030 39598 40067 50000 60006 85502 91500=
07434,1996-05-10 18:00:00,11,1007.3,0.3,58,3,11000,22.224,,,50,5.2,13,,,,,,,,,wg-a,,,,AAXX 10184 07434 12/61 /0512 10110 20030 39601 40073 53003 60006 91800 333 10130 20052=
07434,1996-05-10 21:00:00,8,1009.1,1.3,71,3,20000,14.816,,,30,,,,,,,,,,,wg-a,,,,AAXX 10214 07434 12670 20308 10080 20030 39614 40091 53013 60006 81501 92100=
07434,1996-05-11 00:00:00,7,1008.7,-0.6,81,4,20000,11.112,,,20,,,,,,,,,,,wg-a,,,,AAXX 11004 07434 12/70 00206 10070 20040 39608 40087 56006 60006 80000 90000=
07434,1996-05-11 03:00:00,7,1008.3,-0.4,81,4,15000,14.816,,,60,,,,,,,,,,,wg-a,,,,AAXX 11034 07434 12/65 70608 10070 20040 39604 40083 55004 60006 8703/ 90300=
07434,1996-05-11 06:00:00,7,1008.8,0.6,87,5,12000,18.52,,,70,6.4,10.5,,,,,,,,,wg-a,,,,AAXX 11064 07434 02762 50710 10070 20050 39610 40088 53006 60006 81531 90600 333 10105 20064 60004=
07434,1996-05-11 09:00:00,13,1008.2,0.3,58,5,15000,18.52,,,50,,,,,,,,,,,wg-a,,,,AAXX 11094 07434 12565 60510 10130 20050 39613 40082 53003 60006 83831 90900=
07434,1996-05-11 12:00:00,13,1008.3,0.2,58,5,18000,22.224,,,40,,,,,,,,,,,wg-a,,,,AAXX 11124 07434 12568 70412 10130 20050 39615 40083 53002 60006 878// 91200=
07434,1996-05-11 15:00:00,14,1008.3,-0,51,4,20000,14.816,,,30,,,,,,,,,,,wg-a,,,,AAXX 11154 07434 12670 70308 10140 20040 39615 40083 55000 60006 81272 91500=
07434,1996-05-11 18:00:00,12,1009.8,1.2,54,3,18000,18.52,,,10,7.4,14.7,,,,,,,,,wg-a,,,,AAXX 11184 07434 12/68 70110 10120 20030 39627 40098 53012 60006 8707/ 91800 333 10147 20074=
07434,1996-05-11 21:00:00,9,1012.7,2.3,66,3,15000,18.52,,,360,,,,,,,,,,,wg-a,,,,AAXX 11214 07434 12/65 73610 10090 20030 39650 40127 51023 60006 8707/ 92100=
07434,1996-05-12 00:00:00,8,1013.8,0.8,66,2,15000,18.52,,,20,,,,,,,,,,,wg-a,,,,AAXX 12004 07434 12665 70210 10080 20020 39658 40138 51008 60006 8357/ 90000=
07434,1996-05-12 03:00:00,5,1014.9,0.6,87,3,12000,11.112,,,350,,,,,,,,,,,wg-a,,,,AAXX 12034 07434 12662 73506 10050 20030 39664 40149 53006 60006 8157/ 90300=
07434,1996-05-12 06:00:00,5,1017.1,2.1,93,4,4000,11.112,,,360,4.5,12,,,,,,,,10,wg-a,,,,AAXX 12064 07434 02240 73606 10050 20040 39685 40171 53021 60006 71022 84632 90600 333 10120 20045 60004=
07434,1996-05-12 09:00:00,9,1017.8,1.4,76,5,6000,18.52,,,340,,,,,,,,,,,wg-a,,,,AAXX 12094 07434 12456 73410 10090 20050 39699 40178 51014 60006 85832 90900=
07434,1996-05-12 12:00:00,10,1018.9,1.2,66,4,9000,14.816,,,330,,,,,,,,,,,wg-a,,,,AAXX 12124 07434 12559 73308 10100 20040 39711 40189 53012 60006 8587/ 91200=
07434,1996-05-12 15:00:00,9,1020.8,1.6,71,4,9000,14.816,,,340,,,,,,,,,,,wg-a,,,,AAXX 12154 07434 12259 73408 10090 20040 39727 40208 52016 60006 8557/ 91500=
07434,1996-05-12 18:00:00,10,1021.7,1,66,4,10000,11.112,,,330,5,10.5,,,,,,,,,wg-a,,,,AAXX 12184 07434 12660 73306 10100 20040 39737 40217 53010 60006 8557/ 91800 333 10105 20050=
07434,1996-05-12 21:00:00,8,1023.3,1.3,71,3,12000,7.408,,,310,,,,,,,,,,,wg-a,,,,AAXX 12214 07434 12762 73104 10080 20030 39750 40233 51013 60006 875// 92100=
07434,1996-05-13 00:00:00,8,1023.9,0.4,76,4,8000,7.408,,,350,,,,,,,,,,,wg-a,,,,AAXX 13004 07434 12658 73504 10080 20040 39754 40239 51004 60006 875// 90000=
07434,1996-05-13 03:00:00,7,1024,-0,81,4,8000,11.112,,,360,,,,,,,,,,,wg-a,,,,AAXX 13034 07434 12458 83606 10070 20040 39754 40240 55000 60006 875// 90300=
07434,1996-05-13 06:00:00,7,1024.2,0.1,87,5,3500,11.112,,,350,6.4,9.6,,,,,,,,10,wg-a,,,,AAXX 13064 07434 02335 83506 10070 20050 39755 40242 53001 60006 71022 876// 90600 333 10096 20064 60004=
07434,1996-05-13 09:00:00,9,1023.6,-0.2,61,2,8000,14.816,,,20,,,,,,,,,,,wg-a,,,,AAXX 13094 07434 12458 /0208 10090 20020 39753 40236 58002 60006 86800 90900=
07434,1996-05-13 12:00:00,9,1023.1,-0.4,66,3,10000,14.816,,,10,,,,,,,,,,,wg-a,,,,AAXX 13124 07434 12560 /0108 10090 20030 39749 40231 56004 60006 86800 91200=
07434,1996-05-13 15:00:00,10,1022.4,-0.6,62,3,10000,11.112,,,20,,,,,,,,,,,wg-a,,,,AAXX 13154 07434 12560 /0206 10100 20030 39743 40224 58006 60006 86800 91500=
07434,1996-05-13 18:00:00,9,1021.9,-0.5,71,4,10000,11.112,,,30,6.5,9.9,,,,,,,,,wg-a,,,,AAXX 13184 07434 12660 70306 10090 20040 39738 40219 56005 60006 8653/ 91800 333 10099 20065=
07434,1996-05-13 21:00:00,9,1021.5,-0.5,71,4,10000,7.408,,,20,,,,,,,,,,,wg-a,,,,AAXX 13214 07434 12660 70204 10090 20040 39733 40215 57005 60006 8653/ 92100=
07434,1996-05-14 00:00:00,8,1021,-0.6,81,5,10000,7.408,,,330,,,,,,,,,,,wg-a,,,,AAXX 14004 07434 12560 73304 10080 20050 39727 40210 56006 60006 875// 90000=
07434,1996-05-14 03:00:00,8,1018.7,-2.2,76,4,10000,11.112,,,50,,,,,,,,,,,wg-a,,,,AAXX 14034 07434 12560 70506 10080 20040 39705 40187 58022 60006 875// 90300=
07434,1996-05-14 06:00:00,8,1017.4,-1.2,76,4,10000,14.816,,,50,7.7,9.4,,,,,,,,,wg-a,,,,AAXX 14064 07434 02460 70508 10080 20040 39693 40174 58012 60006 875// 90600 333 10094 20077 60004=
07434,1996-05-14 09:00:00,11,1015.5,-1.2,71,6,13000,22.224,,,80,,,,,,,,,,,wg-a,,,,AAXX 14094 07434 12563 20812 10110 20060 39681 40155 56012 60006 82501 90900=
07434,1996-05-14 12:00:00,14,1013.2,-1.7,67,8,15000,18.52,,,30,,,,,,,,,,,wg-a,,,,AAXX 14124 07434 12565 /0310 10140 20080 39664 40132 58017 60006 86101 91200=
07434,1996-05-14 15:00:00,14,1012.7,-0.6,63,7,11000,25.928,,,40,,,,,,,,,,,wg-a,,,,AAXX 14154 07434 12/61 /0414 10140 20070 39658 40127 56006 60006 91500=
07434,1996-05-14 18:00:00,12,1012.4,-0.6,71,7,15000,25.928,,,40,7.9,15,,,,,,,,,wg-a,,,,AAXX 14184 07434 12565 20414 10120 20070 39652 40124 57006 60006 81101 91800 333 10150 20079=
07434,1996-05-14 21:00:00,10,1012.5,-0.2,82,7,15000,18.52,,,50,,,,,,,,,,,wg-a,,,,AAXX 14214 07434 12/65 30510 10100 20070 39650 40125 57002 60006 80001 92100=
07434,1996-05-15 00:00:00,9,1012.1,-0.6,87,7,15000,14.816,,,30,,,,,,,,,,,wg-a,,,,AAXX 15004 07434 12/65 30308 10090 20070 39644 40121 58006 60006 80001 90000=
07434,1996-05-15 03:00:00,9,1010.9,-1.1,87,7,15000,14.816,,,40,,,,,,,,,,,wg-a,,,,AAXX 15034 07434 12465 50408 10090 20070 39633 40109 57011 60006 83501 90300=
07434,1996-05-15 06:00:00,10,1010.9,0.2,87,8,4000,11.112,,,50,8.2,11.8,,,,,,,,10,wg-a,,,,AAXX 15064 07434 02/40 /0506 10100 20080 39635 40109 53002 60006 71011 81030 90600 333 10118 20082 60004=
07434,1996-05-15 09:00:00,12,1010.7,0.2,76,8,12000,14.816,,,40,,,,,,,,,,,wg-a,,,,AAXX 15094 07434 12462 70408 10120 20080 39637 40107 50002 60006 878// 90900=
07434,1996-05-15 12:00:00,14,1010.2,-0.3,67,8,15000,11.112,,,20,,,,,,,,,,,wg-a,,,,AAXX 15124 07434 12465 70206 10140 20080 39634 40102 57003 60006 878// 91200=
07434,1996-05-15 15:00:00,15,1009.5,-0.5,72,10,12000,14.816,,,10,,,,,,,,,,,wg-a,,,,AAXX 15154 07434 12562 70108 10150 20100 39629 40095 56005 60006 875// 91500=
07434,1996-05-15 18:00:00,13,1008.8,-0.9,82,10,7000,14.816,,,30,10,15.3,,,,,,,,,wg-a,,,,AAXX 15184 07434 12657 /0308 10130 20100 39620 40088 56009 60006 81530 91800 333 10153 20100=
07434,1996-05-15 21:00:00,12,1009.3,0.2,88,10,3500,14.816,,,40,,,,,,,,,,10,wg-a,,,,AAXX 15214 07434 12/35 00408 10120 20100 39622 40093 53002 60006 71000 80000 92100=
07434,1996-05-16 00:00:00,11,1008.7,-0.6,94,10,3500,14.816,,,60,,,,,,,,,,10,wg-a,,,,AAXX 16004 07434 12/35 00608 10110 20100 39616 40087 58006 60006 71000 80000 90000=
07434,1996-05-16 03:00:00,10,1007.5,-1.3,93,9,3000,11.112,,,70,,,,,,,,,,10,wg-a,,,,AAXX 16034 07434 12/30 00706 10100 20090 39603 40075 58013 60006 71000 80000 90300=
07434,1996-05-16 06:00:00,13,1006.7,-0.3,82,10,8000,11.112,,,100,9.8,13.2,,,,,,,,,wg-a,,,,AAXX 16064 07434 02/58 /1006 10130 20100 39600 40067 55003 60006 81081 90600 333 10132 20098 60004=
07434,1996-05-16 09:00:00,16,1006,-0.3,72,11,10000,7.408,,,110,,,,,,,,,,15,wg-a,,,,AAXX 16094 07434 12660 71104 10160 20110 39597 40060 58003 60006 71511 8498/ 90900=
07434,1996-05-16 12:00:00,17,1006,0.3,77,13,20000,11.112,,,200,,,,,,,,,,21,wg-a,,,,AAXX 16124 07434 02570 72006 10170 20130 39600 40060 51003 61000 72161 8583/ 91200 333 6100=
07434,1996-05-16 15:00:00,20,1004.8,-0.7,53,10,15000,14.816,,,240,,,,,,,,,,15,wg-a,,,,AAXX 16154 07434 12665 /2408 10200 20100 39593 40048 58007 60006 71522 86901 91500=
07434,1996-05-16 18:00:00,15,1006.3,0.6,88,13,20000,7.408,,,180,12.9,20.6,,3,,,,,,1,wg-a,,,,AAXX 16184 07434 12570 /1804 10150 20130 39599 40063 50006 60037 70198 86931 91800 333 10206 20129=
07434,1996-05-16 21:00:00,13,1008.2,1.5,88,11,12000,3.704,,,170,,,,,,,,,,,wg-a,,,,AAXX 16214 07434 12/62 41702 10130 20110 39614 40082 51015 60006 81031 92100=
07434,1996-05-17 00:00:00,12,1008.3,0,94,11,15000,7.408,,,190,,,,0,,,,,,,wg-a,,,,AAXX 17004 07434 02/65 31904 10120 20110 39614 40083 50000 60006 81031 90000 333 60007=
07434,1996-05-17 03:00:00,12,1006.9,-1.4,94,11,12000,7.408,,,140,,,,,,,,,,,wg-a,,,,AAXX 17034 07434 12462 71404 10120 20110 39600 40069 58014 60006 875// 90300=
07434,1996-05-17 06:00:00,12,1005.1,-1.7,88,10,12000,14.816,,,120,11,15,,,,,3,,,,wg-a,,,,AAXX 17064 07434 02562 /1208 10120 20100 39583 40051 58017 60006 82383 90600 333 10150 20110 60034=
07434,1996-05-17 12:00:00,16,1004.8,-0.5,77,12,500,25.928,,,220,,,,2,,,,,,25,wg-a,,,,AAXX 17124 07434 02500 62214 10160 20120 39586 40048 58005 60026 72586 86200 91200 333 60027=
07434,1996-05-17 15:00:00,19,1003.4,-0.8,64,12,500,25.928,,,200,,,,,,,,,,1,wg-a,,,,AAXX 17154 07434 02500 52014 10190 20120 39578 40034 58008 61000 70198 83383 91500 333 ////=
07434,1996-05-17 18:00:00,17,1002.6,-1,72,12,20000,7.408,,,170,11.7,19.4,,,,,,,,15,wg-a,,,,AAXX 17184 07434 32670 71704 10170 20120 39568 40026 56010 71598 84983 91800 333 10194 20117=
07434,1996-05-17 21:00:00,13,1003.9,0.5,88,11,10000,11.112,,,130,,,,1,,,,,,29,wg-a,,,,AAXX 17214 07434 12260 71306 10130 20110 39573 40039 50005 60017 72996 8297/ 92100=
07434,1996-05-18 00:00:00,12,1003.4,-0.6,94,11,12000,11.112,,,150,,,,,,,,,,1,wg-a,,,,AAXX 18004 07434 12662 71506 10120 20110 39567 40034 56006 60016 70196 8487/ 90000=
07434,1996-05-18 03:00:00,12,1002,-1.4,88,10,12000,14.816,,,180,,,,,,,,,,,wg-a,,,,AAXX 18034 07434 12662 71808 10120 20100 39553 40020 57014 60006 8757/ 90300=
07434,1996-05-18 06:00:00,12,1001.7,-0.3,94,11,500,11.112,,,140,11,17.3,,,,,2,,,,wg-a,,,,AAXX 18064 07434 12300 61406 10120 20110 39550 40017 55003 60024 83972 90600 333 10173 20110=
07434,1996-05-18 09:00:00,18,1000.2,-0.5,68,12,500,18.52,,,160,,,,0,,,,,,,wg-a,,,,AAXX 18094 07434 12500 61610 10180 20120 39545 40002 58005 60007 83182 90900=
07434,1996-05-18 12:00:00,19,998.5,-1.3,68,13,500,22.224,,,180,,,,,,,,,,,wg-a,,,,AAXX 18124 07434 12500 61812 10190 20130 39532 49985 58013 60006 83982 91200=
07434,1996-05-18 15:00:00,13,1000.1,0.4,82,10,10000,22.224,,,250,,,,3,,,,,,80,wg-a,,,,AAXX 18154 07434 12460 62512 10130 20100 39536 40001 53004 60037 78098 83982 91500=
07434,1996-05-18 18:00:00,13,1002.3,2.2,82,10,20000,22.224,,,260,11.7,20.3,,0,,,,,,3,wg-a,,,,AAXX 18184 07434 12470 62612 10130 20100 39558 40023 53022 60007 70398 83982 91800 333 10203 20117=
07434,1996-05-18 21:00:00,10,1005.1,2.2,82,7,25000,18.52,,,260,,,,,,,,,,,wg-a,,,,AAXX 18214 07434 12475 62610 10100 20070 39580 40051 52022 60006 8583/ 92100=
07434,1996-05-19 00:00:00,8,1006.3,0.8,87,6,20000,14.816,,,220,,,,,,,,,,,wg-a,,,,AAXX 19004 07434 12470 72208 10080 20060 39588 40063 50008 60006 878// 90000=
07434,1996-05-19 03:00:00,8,1006.4,0.1,87,6,20000,18.52,,,220,,,,,,,,,,,wg-a,,,,AAXX 19034 07434 12470 72210 10080 20060 39589 40064 53001 60006 878// 90300=
07434,1996-05-19 06:00:00,8,1007.4,0.9,93,7,20000,18.52,,,220,7.2,13.2,,0,,,4,,,,wg-a,,,,AAXX 19064 07434 02370 72210 10080 20070 39598 40074 53009 60044 8583/ 90600 333 10132 20072 60007=
07434,1996-05-19 09:00:00,9,1008.6,1.4,81,6,11000,18.52,,,230,,,,,,,,,,,wg-a,,,,AAXX 19094 07434 32/61 /2310 10090 20060 39612 40086 51014 90900=
07434,1996-05-19 12:00:00,13,1008.3,0.2,62,6,40000,22.224,,,220,,,,,,,,,,3,wg-a,,,,AAXX 19124 07434 12582 /2212 10130 20060 39614 40083 50002 60036 70386 85901 91200=
07434,1996-05-19 15:00:00,13,1008.5,0.2,54,4,40000,14.816,,,270,,,,,,,,,,,wg-a,,,,AAXX 19154 07434 12682 /2708 10130 20040 39616 40085 50002 60006 86201 91500=
07434,1996-05-19 17:00:00,12,1009.4,0.7,58,4,40000,11.112,,,240,,,,,,,,,,1,wg-a,,,,AAXX 19174 07434 02682 52406 10120 20040 39623 40094 53007 61000 70186 85200 91700 333 ////=
07434,1996-05-19 18:00:00,12,1009.4,0.7,58,4,40000,11.112,,,240,6.7,13.8,,,,,,,,1,wg-a,,,,AAXX 19184 07434 02682 /2406 10120 20040 39623 40094 53007 61000 70186 85200 91800 333 10138 20067 ////=
07434,1996-05-19 21:00:00,9,1011.5,1.6,76,5,40000,7.408,,,40,,,,,,,,,,,wg-a,,,,AAXX 19214 07434 12682 30404 10090 20050 39639 40115 53016 60006 83201 92100=
07434,1996-05-20 00:00:00,7,1012.4,0.4,87,5,40000,7.408,,,60,,,,,,,,,,,wg-a,,,,AAXX 20004 07434 12682 30604 10070 20050 39643 40124 52004 60006 83201 90000=
07434,1996-05-20 03:00:00,6,1013.5,0.9,87,4,40000,3.704,,,110,,,,,,,,,,,wg-a,,,,AAXX 20034 07434 12682 41102 10060 20040 39652 40135 53009 60006 83202 90300=
07434,1996-05-20 06:00:00,7,1015.5,2.1,81,4,40000,3.704,,,110,4.9,12,,,,,3,,,,wg-a,,,,AAXX 20064 07434 02682 71102 10070 20040 39673 40155 53021 60006 8557/ 90600 333 10120 20049 60034=
07434,1996-05-20 09:00:00,11,1016.7,1.9,76,7,500,11.112,,,200,,,,,,,,,,,wg-a,,,,AAXX 20094 07434 12400 72006 10110 20070 39692 40167 51019 60006 8388/ 90900=
07434,1996-05-20 12:00:00,13,1017,0.5,62,6,40000,18.52,,,210,,,,,,,,,,,wg-a,,,,AAXX 20124 07434 12582 72110 10130 20060 39697 40170 51005 60006 8583/ 91200=
07434,1996-05-20 15:00:00,12,1017.9,0.8,71,7,25000,22.224,,,240,,,,,,,,,,15,wg-a,,,,AAXX 20154 07434 12575 72412 10120 20070 39705 40179 52008 60006 71522 878// 91500=
07434,1996-05-20 18:00:00,12,1018.7,0.8,76,8,40000,7.408,,,250,6.6,13.5,,0,,,,,,1,wg-a,,,,AAXX 20184 07434 12582 32504 10120 20080 39713 40187 51008 60007 70186 82832 91800 333 10135 20066=
07434,1996-05-20 21:00:00,9,1021.3,1.8,87,7,500,3.704,,,210,,,,,,,,,,,wg-a,,,,AAXX 20214 07434 12600 22102 10090 20070 39731 40213 53018 60006 82200 92100=
07434,1996-05-21 00:00:00,8,1022.1,0.6,87,6,11000,7.408,,,230,,,,,,,,,,,wg-a,,,,AAXX 21004 07434 12/61 /2304 10080 20060 39737 40221 51006 60006 90000=
07434,1996-05-21 03:00:00,7,1022.4,0.2,93,6,500,0,,,0,,,,,,,,,,,wg-a,,,,AAXX 21034 07434 12400 70000 10070 20060 39739 40224 53002 60006 875// 90300=
07434,1996-05-21 06:00:00,8,1023.2,0.9,93,7,10000,3.704,,,140,6.3,12.6,,,,,,,,,wg-a,,,,AAXX 21064 07434 02360 /1402 10080 20070 39748 40232 53009 60006 84830 90600 333 10126 20063 60004=
07434,1996-05-21 09:00:00,9,1024,1,93,8,8000,14.816,,,220,,,,4,,,,,,61,wg-a,,,,AAXX 21094 07434 12358 /2208 10090 20080 39758 40240 51010 60047 76186 86900 90900=
07434,1996-05-21 12:00:00,11,1023.9,0.3,82,8,25000,18.52,,,250,,,,1,,,,,,25,wg-a,,,,AAXX 21124 07434 02475 52510 10110 20080 39761 40239 53003 60056 72586 84903 91200 333 60017=
07434,1996-05-21 15:00:00,8,1026,1.4,87,6,8000,18.52,,,260,,,,3,,,,,,61,wg-a,,,,AAXX 21154 07434 12558 72610 10080 20060 39775 40260 52014 60037 76186 879// 91500=
07434,1996-05-21 18:00:00,12,1025.8,0.5,71,7,500,11.112,,,260,7.5,12.8,,,,,,,,16,wg-a,,,,AAXX 21184 07434 02500 /2606 10120 20070 39780 40258 53005 61000 71686 84802 91800 333 10128 20075 ////=
07434,1996-05-21 21:00:00,8,1028.5,1.9,81,5,20000,11.112,,,290,,,,,,,,,,,wg-a,,,,AAXX 21214 07434 12/70 22906 10080 20050 39799 40285 53019 60006 80002 92100=
07434,1996-05-22 00:00:00,6,1029.2,0.4,93,5,18000,3.704,,,280,,,,,,,,,,,wg-a,,,,AAXX 22004 07434 12/68 42802 10060 20050 39803 40292 50004 60006 80002 90000=
07434,1996-05-22 03:00:00,5,1028.3,-1.1,93,4,18000,0,,,0,,,,,,,,,,,wg-a,,,,AAXX 22034 07434 12/68 50000 10050 20040 39792 40283 56011 60006 80002 90300=
07434,1996-05-22 06:00:00,6,1028.1,-0.1,93,5,4000,3.704,,,90,3.7,12.3,,,,,8,,,28,wg-a,,,,AAXX 22064 07434 02/40 50902 10060 20050 39791 40281 56001 60006 72841 80002 90600 333 10123 20037 60084=
07434,1996-05-22 09:00:00,11,1027.1,-0.1,71,6,15000,7.408,,,160,,,,,,,,,,,wg-a,,,,AAXX 22094 07434 12/65 61604 10110 20060 39790 40271 58001 60006 83036 90900=
07434,1996-05-22 12:00:00,15,1024.7,-1.5,51,5,500,14.816,,,200,,,,,,,,,,,wg-a,,,,AAXX 22124 07434 12500 /2008 10150 20050 39775 40247 58015 60006 81132 91200=
07434,1996-05-22 18:00:00,16,1022.7,-0.4,51,6,45000,14.816,,,240,5.6,17.9,,,,,,,,,wg-a,,,,AAXX 22184 07434 12/83 42408 10160 20060 39757 40227 56004 60006 83032 91800 333 10179 20056=
07434,1996-05-22 21:00:00,13,1024.5,1.1,44,1,25000,11.112,,,280,,,,,,,,,,,wg-a,,,,AAXX 22214 07434 12575 72806 10130 20010 39768 40245 53011 60006 875// 92100=
07434,1996-05-23 00:00:00,11,1024.4,-0.3,66,5,25000,14.816,,,240,,,,,,,,,,,wg-a,,,,AAXX 23004 07434 12475 72408 10110 20050 39765 40244 56003 60006 875// 90000=
07434,1996-05-23 03:00:00,10,1024.5,-0,93,9,6000,14.816,,,220,,,,,,,,,,50,wg-a,,,,AAXX 23034 07434 02356 72208 10100 20090 39765 40245 55000 61000 75052 877// 90300 333 ////=
07434,1996-05-23 06:00:00,11,1024.9,0.5,94,10,8000,14.816,,,220,10.2,16.4,,,,,,,,50,wg-a,,,,AAXX 23064 07434 02158 82208 10110 20100 39770 40249 53005 61000 75052 877// 90600 333 10164 20102 6100=
07434,1996-05-23 09:00:00,13,1024.8,0.3,88,11,500,11.112,,,230,,,,,,,,,,1,wg-a,,,,AAXX 23094 07434 02400 72306 10130 20110 39773 40248 51003 61000 70152 875// 90900 333 ////=
07434,1996-05-23 12:00:00,14,1024.3,-0.4,82,11,500,14.816,,,200,,,,,,,,,,3,wg-a,,,,AAXX 23124 07434 02400 72008 10140 20110 39769 40243 57004 61000 70352 878// 91200 333 ////=
07434,1996-05-23 15:00:00,17,1022.1,-1.6,68,11,40000,11.112,,,170,,,,,,,,,,,wg-a,,,,AAXX 23154 07434 12582 71706 10170 20110 39753 40221 56016 60006 85802 91500=
07434,1996-05-23 18:00:00,18,1020.4,-1.5,64,11,40000,7.408,,,190,10.9,18.4,,,,,,,,,wg-a,,,,AAXX 23184 07434 32582 31904 10180 20110 39738 40204 56015 81102 91800 333 10184 20109=
07434,1996-05-23 21:00:00,14,1020.3,-0.6,82,11,500,3.704,,,120,,,,,,,,,,,wg-a,,,,AAXX 23214 07434 12/00 21202 10140 20110 39732 40203 56006 60006 80001 92100=
07434,1996-05-24 00:00:00,12,1019.5,-1.2,88,10,20000,7.408,,,90,,,,,,,,,,,wg-a,,,,AAXX 24004 07434 12/70 10904 10120 20100 39720 40195 58012 60006 80001 90000=
07434,1996-05-24 03:00:00,11,1018,-1.6,87,9,20000,7.408,,,70,,,,,,,,,,,wg-a,,,,AAXX 24034 07434 12/70 20704 10110 20090 39704 40180 56016 60006 80001 90300=
07434,1996-05-24 06:00:00,14,1017.2,-0.3,77,10,40000,7.408,,,110,10.7,17.9,,,,,,,,,wg-a,,,,AAXX 24064 07434 02/82 51104 10140 20100 39701 40172 55003 60006 81032 90600 333 10179 20107 61000=
07434,1996-05-24 09:00:00,20,1015.1,-0.9,60,12,40000,11.112,,,160,,,,,,,,,,,wg-a,,,,AAXX 24094 07434 12/82 31606 10200 20120 39692 40151 58009 60006 83080 90900=
07434,1996-05-24 12:00:00,22,1014.2,-0.7,57,13,40000,14.816,,,260,,,,,,,,,,,wg-a,,,,AAXX 24124 07434 12682 52608 10220 20130 39685 40142 58007 60006 84282 91200=
07434,1996-05-24 15:00:00,21,1013.6,-0.7,64,14,40000,14.816,,,240,,,,,,,,,,,wg-a,,,,AAXX 24154 07434 12682 /2408 10210 20140 39678 40136 58007 60006 84282 91500=
07434,1996-05-24 18:00:00,20,1013.5,-0.2,60,12,40000,14.816,,,280,13.5,22.8,,,,,,,,,wg-a,,,,AAXX 24184 07434 12/82 32808 10200 20120 39676 40135 56002 60006 80001 91800 333 10228 20135=
07434,1996-05-24 21:00:00,14,1015.8,1.2,82,11,15000,14.816,,,290,,,,,,,,,,,wg-a,,,,AAXX 24214 07434 12/65 12908 10140 20110 39688 40158 53012 60006 80001 92100=
07434,1996-05-25 00:00:00,11,1017.2,0.9,94,10,8000,11.112,,,260,,,,,,,,,,,wg-a,,,,AAXX 25004 07434 12358 72606 10110 20100 39697 40172 53009 60006 875// 90000=
07434,1996-05-25 03:00:00,11,1016.2,-1,94,10,12000,7.408,,,210,,,,,,,,,,,wg-a,,,,AAXX 25034 07434 12262 82104 10110 20100 39687 40162 58010 60006 876// 90300=
07434,1996-05-25 06:00:00,11,1015.8,-0.3,94,10,8000,14.816,,,190,10.6,20.1,,,,,,,,,wg-a,,,,AAXX 25064 07434 02258 81908 10110 20100 39684 40158 57003 60006 876// 90600 333 10201 20106 60004=
07434,1996-05-25 09:00:00,14,1015,-0.4,82,11,15000,25.928,,,220,,,,,,,,,,,wg-a,,,,AAXX 25094 07434 12365 82214 10140 20110 39680 40150 58004 60006 888// 90900=
07434,1996-05-25 12:00:00,14,1015.8,0.8,88,12,10000,14.816,,,240,,,,,,,,,,50,wg-a,,,,AAXX 25124 07434 02260 82408 10140 20120 39688 40158 51008 61000 75052 888// 91200 333 6100=
07434,1996-05-25 18:00:00,13,1016.4,0.2,100,13,8000,18.52,,,230,11.2,14,,,,,,,,,wg-a,,,,AAXX 25184 07434 32/58 /2310 10130 20130 39693 40164 53002 91800 333 10140 20112=
07434,1996-05-26 00:00:00,12,1018.3,0.7,100,12,500,14.816,,,280,,,,4,,,,,,60,wg-a,,,,AAXX 26004 07434 02200 82808 10120 20120 39710 40183 53007 60036 76066 888// 90000 333 60047=
07434,1996-05-26 06:00:00,12,1020.5,1.4,94,11,1500,14.816,,,260,11.4,13.1,,4,,,7,,,10,wg-a,,,,AAXX 26064 07434 02215 82608 10120 20110 39729 40205 53014 60074 71065 877// 90600 333 10131 20114 60047=
07434,1996-05-26 09:00:00,13,1021.7,1.3,94,12,500,11.112,,,250,,,,,,,,,,50,wg-a,,,,AAXX 26094 07434 32300 72506 10130 20120 39742 40217 51013 75052 878// 90900=
07434,1996-05-26 12:00:00,16,1021.8,0.6,68,10,40000,22.224,,,240,,,,,,,,,,1,wg-a,,,,AAXX 26124 07434 12482 72412 10160 20100 39748 40218 51006 60016 70152 86801 91200=
07434,1996-05-26 15:00:00,16,1021.2,-0.5,68,10,40000,22.224,,,240,,,,,,,,,,,wg-a,,,,AAXX 26154 07434 12582 /2412 10160 20100 39743 40212 58005 60006 86801 91500=
07434,1996-05-26 18:00:00,15,1020.7,-0.6,77,11,40000,14.816,,,240,11.5,16.9,,,,,,,,,wg-a,,,,AAXX 26184 07434 32582 72408 10150 20110 39737 40207 56006 875// 91800 333 10169 20115=
07434,1996-05-26 21:00:00,13,1021,-0,88,11,20000,22.224,,,250,,,,,,,,,,,wg-a,,,,AAXX 26214 07434 12370 82512 10130 20110 39737 40210 55000 60006 888// 92100=
07434,1996-05-27 00:00:00,13,1019.5,-1.5,88,11,15000,22.224,,,220,,,,,,,,,,,wg-a,,,,AAXX 27004 07434 12365 82212 10130 20110 39722 40195 58015 60006 888// 90000=
07434,1996-05-27 03:00:00,12,1018.4,-1.1,100,12,15000,22.224,,,240,,,,0,,,,,,21,wg-a,,,,AAXX 27034 07434 12265 82412 10120 20120 39711 40184 58011 60007 72122 887// 90300=
07434,1996-05-27 06:00:00,10,1020.3,1.4,100,10,10000,18.52,,,280,10.4,15.3,,0,,,1,,,80,wg-a,,,,AAXX 27064 07434 02260 82810 10100 20100 39725 40203 53014 60014 78086 888// 90600 333 10153 20104 60007=
07434,1996-05-27 12:00:00,13,1020.5,0.2,82,10,15000,22.224,,,270,,,,0,,,,,,25,wg-a,,,,AAXX 27124 07434 02465 72712 10130 20100 39731 40205 53002 60006 72586 878// 91200 333 60007=
07434,1996-05-27 15:00:00,12,1021.7,1,88,10,15000,18.52,,,280,,,,0,,,,,,25,wg-a,,,,AAXX 27154 07434 12365 72810 10120 20100 39741 40217 53010 60007 72586 878// 91500=
07434,1996-05-27 18:00:00,11,1022.4,0.6,94,10,15000,14.816,,,280,10.3,13,,,,,,,,50,wg-a,,,,AAXX 27184 07434 02265 72808 10110 20100 39747 40224 53006 61000 75086 878// 91800 333 10130 20103 ////=
07434,1996-05-27 21:00:00,10,1024.3,1.6,100,10,15000,11.112,,,260,,,,,,,,,,3,wg-a,,,,AAXX 27214 07434 02265 72606 10100 20100 39763 40243 53016 61000 70352 877// 92100 333 ////=
07434,1996-05-28 00:00:00,10,1025.3,0.9,93,9,0,11.112,,,280,,,,,,,,,,,wg-a,,,,AAXX 28004 07434 02/// /2806 10100 20090 39772 40253 53009 61000 90000 333 ////=
07434,1996-05-28 03:00:00,10,1025.1,-0.2,93,9,3000,3.704,,,310,,,,,,,,,,10,wg-a,,,,AAXX 28034 07434 12130 73102 10100 20090 39770 40251 58002 60006 71022 876// 90300=
07434,1996-05-28 06:00:00,10,1026.1,1,93,9,500,7.408,,,340,9.8,11.2,,,,,1,,,1,wg-a,,,,AAXX 28064 07434 12300 73404 10100 20090 39780 40261 53010 60014 70142 876// 90600 333 10112 20098=
07434,1996-05-28 09:00:00,13,1026.4,0.8,77,9,500,7.408,,,310,,,,,,,,,,,wg-a,,,,AAXX 28094 07434 12400 73104 10130 20090 39788 40264 50008 60006 878// 90900=
07434,1996-05-28 12:00:00,16,1025.8,-0.2,55,7,40000,11.112,,,320,,,,,,,,,,,wg-a,,,,AAXX 28124 07434 12582 53206 10160 20070 39786 40258 57002 60006 84801 91200=
07434,1996-05-28 15:00:00,17,1024.7,-0.9,55,8,50000,11.112,,,360,,,,,,,,,,,wg-a,,,,AAXX 28154 07434 12684 43606 10170 20080 39777 40247 57009 60006 84101 91500=
07434,1996-05-28 18:00:00,17,1023.8,-0.8,55,8,50000,11.112,,,20,10.2,17.6,,,,,,,,,wg-a,,,,AAXX 28184 07434 12784 10206 10170 20080 39769 40238 55008 60006 81501 91800 333 10176 20102=
07434,1996-05-28 21:00:00,14,1024.7,0.3,67,8,50000,11.112,,,20,,,,,,,,,,,wg-a,,,,AAXX 28214 07434 12/84 10206 10140 20080 39772 40247 53003 60006 80001 92100=
07434,1996-05-29 00:00:00,13,1024.2,-0.7,67,7,10000,11.112,,,50,,,,,,,,,,,wg-a,,,,AAXX 29004 07434 12/60 /0506 10130 20070 39765 40242 58007 60006 90000=
07434,1996-05-29 03:00:00,10,1023.4,-1.1,76,6,40000,7.408,,,60,,,,,,,,,,,wg-a,,,,AAXX 29034 07434 12/82 10604 10100 20060 39754 40234 56011 60006 80001 90300=
07434,1996-05-29 06:00:00,13,1023.1,0.2,62,6,500,14.816,,,60,10.2,16.7,,,,,,,,,wg-a,,,,AAXX 29064 07434 02/00 00608 10130 20060 39756 40231 52002 60006 80000 90600 333 10167 20102 60004=
07434,1996-05-29 09:00:00,18,1022.5,0.1,42,5,40000,18.52,,,60,,,,,,,,,,,wg-a,,,,AAXX 29094 07434 12/82 00610 10180 20050 39757 40225 50001 60006 80000 90900=
07434,1996-05-29 12:00:00,22,1020.5,-1.2,33,5,50000,7.408,,,70,,,,,,,,,,,wg-a,,,,AAXX 29124 07434 12/84 00704 10220 20050 39745 40205 58012 60006 80000 91200=
07434,1996-05-29 15:00:00,24,1018.8,-1.3,38,9,50000,11.112,,,20,,,,,,,,,,,wg-a,,,,AAXX 29154 07434 12/84 00206 10240 20090 39732 40188 58013 60006 80000 91500=
07434,1996-05-29 18:00:00,23,1018,-0.9,38,8,50000,11.112,,,60,13,24.3,,,,,,,,,wg-a,,,,AAXX 29184 07434 12/84 00606 10230 20080 39723 40180 56009 60006 80000 91800 333 10243 20130=
07434,1996-05-29 21:00:00,18,1019.2,0.4,45,6,40000,14.816,,,40,,,,,,,,,,,wg-a,,,,AAXX 29214 07434 12/82 00408 10180 20060 39727 40192 53004 60006 80000 92100=
07434,1996-05-30 00:00:00,16,1018.6,-1,48,5,40000,11.112,,,60,,,,,,,,,,,wg-a,,,,AAXX 30004 07434 12/82 00606 10160 20050 39717 40186 58010 60006 80000 90000=
07434,1996-05-30 03:00:00,13,1017.7,-1.3,62,6,10000,7.408,,,60,,,,,,,,,,,wg-a,,,,AAXX 30034 07434 12/60 /0604 10130 20060 39704 40177 56013 60006 90300=
07434,1996-05-30 06:00:00,15,1017.6,0.3,63,8,50000,11.112,,,110,12.5,23.1,,,,,,,,,wg-a,,,,AAXX 30064 07434 02/84 11106 10150 20080 39707 40176 53003 60006 80001 90600 333 10231 20125 60004=
07434,1996-05-30 09:00:00,22,1016.9,0.4,43,9,50000,14.816,,,170,,,,,,,,,,,wg-a,,,,AAXX 30094 07434 12/84 11708 10220 20090 39711 40169 51004 60006 80001 90900=
07434,1996-05-30 12:00:00,26,1015.3,-0.9,37,10,50000,18.52,,,180,,,,,,,,,,,wg-a,,,,AAXX 30124 07434 12/84 11810 10260 20100 39702 40153 58009 60006 80001 91200=
07434,1996-05-30 15:00:00,27,1014.4,-0.7,37,11,50000,22.224,,,180,,,,,,,,,,,wg-a,,,,AAXX 30154 07434 12/84 11812 10270 20110 39695 40144 56007 60006 80001 91500=
07434,1996-05-30 18:00:00,26,1014.4,-0.1,39,11,0,18.52,,,180,15.1,27.5,,,,,,,,,wg-a,,,,AAXX 30184 07434 12/// /1810 10260 20110 39694 40144 55001 60006 91800 333 10275 20151=
07434,1996-05-30 21:00:00,22,1016.7,1.4,43,9,40000,14.816,,,180,,,,,,,,,,,wg-a,,,,AAXX 30214 07434 12/82 21808 10220 20090 39708 40167 53014 60006 80001 92100=
07434,1996-05-31 00:00:00,18,1018.3,1,49,7,40000,11.112,,,160,,,,,,,,,,,wg-a,,,,AAXX 31004 07434 12/82 21606 10180 20070 39718 40183 51010 60006 80001 90000=
07434,1996-05-31 03:00:00,15,1020.1,1.2,55,6,500,11.112,,,180,,,,,,,,,,,wg-a,,,,AAXX 31034 07434 12/00 01806 10150 20060 39730 40201 52012 60006 80000 90300=
07434,1996-05-31 06:00:00,14,1021.9,1.6,88,12,4000,11.112,,,280,13,26.2,,,,,,,,10,wg-a,,,,AAXX 31064 07434 02240 52806 10140 20120 39746 40219 52016 60006 71011 83680 90600 333 10262 20130 60004=
07434,1996-05-31 09:00:00,14,1023.5,1.6,88,12,6000,7.408,,,270,,,,,,,,,,,wg-a,,,,AAXX 31094 07434 12356 72704 10140 20120 39762 40235 52016 60006 8568/ 90900=
07434,1996-05-31 12:00:00,16,1023,-0.2,77,12,11000,3.704,,,230,,,,,,,,,,,wg-a,,,,AAXX 31124 07434 12/61 /2302 10160 20120 39760 40230 58002 60006 91200=
07434,1996-05-31 15:00:00,16,1022.7,-0.3,77,12,15000,7.408,,,280,,,,,,,,,,,wg-a,,,,AAXX 31154 07434 12465 72804 10160 20120 39757 40227 57003 60006 878// 91500=
07434,1996-05-31 18:00:00,14,1022.3,-0.7,94,13,3000,7.408,,,330,13,16.5,,3,,,,,,60,wg-a,,,,AAXX 31184 07434 12430 73304 10140 20130 39750 40223 57007 60037 76062 878// 91800 333 10165 20130=
07434,1996-05-31 21:00:00,13,1023.6,1.1,94,12,8000,3.704,,,330,,,,15,,,,,,61,wg-a,,,,AAXX 31214 07434 12258 83302 10130 20120 39761 40236 50011 60157 76166 877// 92100=
07434,1996-06-01 00:00:00,12,1024.4,0.6,94,11,6000,11.112,,,280,,,,2,,,,,,60,wg-a,,,,AAXX 01004 07434 02156 82806 10120 20110 39767 40244 51006 60176 76066 887// 90000 333 60027=
07434,1996-06-01 03:00:00,10,1024.2,-0.5,100,10,8000,11.112,,,310,,,,,,,,,,21,wg-a,,,,AAXX 01034 07434 02258 83106 10100 20100 39762 40242 56005 61000 72162 887// 90300 333 ////=
07434,1996-06-01 06:00:00,9,1025.6,1.1,93,8,8000,11.112,,,320,8.3,13.8,,,,,20,,,1,wg-a,,,,AAXX 01064 07434 12258 83206 10090 20080 39773 40256 53011 60204 70162 886// 90600 333 10138 20083=
07434,1996-06-01 09:00:00,12,1025.5,0.3,62,5,500,11.112,,,310,,,,,,,,,,,wg-a,,,,AAXX 01094 07434 12400 73106 10120 20050 39776 40255 50003 60006 84231 90900=
07434,1996-06-01 12:00:00,15,1023.9,-1,55,6,40000,7.408,,,10,,,,,,,,,,,wg-a,,,,AAXX 01124 07434 12682 60104 10150 20060 39766 40239 58010 60006 84202 91200=
07434,1996-06-01 15:00:00,15,1023.5,-0.3,51,5,40000,7.408,,,310,,,,,,,,,,,wg-a,,,,AAXX 01154 07434 12682 /3104 10150 20050 39763 40235 58003 60006 84202 91500=
07434,1996-06-01 18:00:00,14,1022.1,-1.5,63,7,500,7.408,,,320,8.6,16.5,,,,,,,,,wg-a,,,,AAXX 01184 07434 12600 /3204 10140 20070 39748 40221 56015 60006 83232 91800 333 10165 20086=
07434,1996-06-01 21:00:00,11,1022.2,-0.3,82,8,500,7.408,,,350,,,,,,,,,,,wg-a,,,,AAXX 01214 07434 12/00 73504 10110 20080 39745 40222 56003 60006 85032 92100=
07434,1996-06-02 00:00:00,11,1020.5,-1.8,82,8,25000,7.408,,,340,,,,,,,,,,,wg-a,,,,AAXX 02004 07434 12/75 73404 10110 20080 39727 40205 58018 60006 85032 90000=
07434,1996-06-02 03:00:00,10,1018.8,-1.7,87,8,25000,11.112,,,340,,,,,,,,,,,wg-a,,,,AAXX 02034 07434 12675 73406 10100 20080 39710 40188 58017 60006 85532 90300=
07434,1996-06-02 06:00:00,10,1018.1,-0.6,87,8,15000,3.704,,,340,9.2,14,,,,,,,,,wg-a,,,,AAXX 02064 07434 02665 73402 10100 20080 39704 40181 56006 60006 875// 90600 333 10140 20092 60004=
07434,1996-06-02 09:00:00,11,1017.2,-0.7,87,9,20000,14.816,,,320,,,,,,,,,,,wg-a,,,,AAXX 02094 07434 12470 73208 10110 20090 39697 40172 55007 60006 8627/ 90900=
07434,1996-06-02 12:00:00,13,1016.2,-0.7,72,8,20000,14.816,,,350,,,,,,,,,,,wg-a,,,,AAXX 02124 07434 12470 83508 10130 20080 39690 40162 57007 60006 8582/ 91200=
07434,1996-06-02 15:00:00,13,1016.2,-0,72,8,10000,11.112,,,10,,,,0,,,,,,60,wg-a,,,,AAXX 02154 07434 12460 80106 10130 20080 39690 40162 55000 60007 76062 8322/ 91500=
07434,1996-06-02 18:00:00,11,1017,0.4,87,9,8000,7.408,,,310,10,13.7,,1,,,,,,61,wg-a,,,,AAXX 02184 07434 12258 73104 10110 20090 39694 40170 53004 60017 76162 8652/ 91800 333 10137 20100=
07434,1996-06-02 21:00:00,11,1018.1,1.2,82,8,10000,3.704,,,20,,,,0,,,,,,1,wg-a,,,,AAXX 02214 07434 12760 70202 10110 20080 39706 40181 53012 60007 70162 8552/ 92100=
07434,1996-06-03 00:00:00,10,1018.6,0.3,93,9,10000,7.408,,,310,,,,1,,,,,,60,wg-a,,,,AAXX 03004 07434 02460 73104 10100 20090 39709 40186 50003 60016 76062 8552/ 90000 333 60017=
07434,1996-06-03 03:00:00,10,1019.1,0.4,93,9,10000,7.408,,,320,,,,,,,,,,,wg-a,,,,AAXX 03034 07434 32/60 /3204 10100 20090 39713 40191 53004 90300=
07434,1996-06-03 06:00:00,11,1020.8,1.7,94,10,12000,11.112,,,350,10,11.4,,,,,2,,,1,wg-a,,,,AAXX 03064 07434 12762 73506 10110 20100 39730 40208 53017 60024 70162 8357/ 90600 333 10114 20100=
07434,1996-06-03 12:00:00,18,1021.4,0.3,59,10,500,11.112,,,20,,,,,,,,,,,wg-a,,,,AAXX 03124 07434 12500 30206 10180 20100 39748 40214 51003 60006 83201 91200=
07434,1996-06-03 15:00:00,18,1021.6,0.1,56,9,40000,11.112,,,20,,,,,,,,,,,wg-a,,,,AAXX 03154 07434 12682 /0206 10180 20090 39749 40216 50001 60006 86800 91500=
07434,1996-06-03 18:00:00,17,1022.4,0.6,59,9,500,7.408,,,340,10.5,19.1,,,,,,,,,wg-a,,,,AAXX 03184 07434 12600 73404 10170 20090 39756 40224 53006 60006 8583/ 91800 333 10191 20105=
07434,1996-06-03 21:00:00,15,1024.2,1.5,67,9,25000,7.408,,,10,,,,,,,,,,,wg-a,,,,AAXX 03214 07434 12775 10104 10150 20090 39770 40242 53015 60006 8153/ 92100=
07434,1996-06-04 00:00:00,12,1025.2,0.5,82,9,20000,11.112,,,330,,,,,,,,,,,wg-a,,,,AAXX 04004 07434 12/70 13306 10120 20090 39775 40252 50005 60006 81030 90000=
07434,1996-06-04 03:00:00,13,1025.4,0.2,72,8,20000,11.112,,,360,,,,,,,,,,,wg-a,,,,AAXX 04034 07434 12/70 13606 10130 20080 39777 40254 53002 60006 81030 90300=
07434,1996-06-04 06:00:00,14,1026.3,1.1,72,9,15000,7.408,,,50,10.3,17.6,,,,,1,,,,wg-a,,,,AAXX 04064 07434 02/65 00504 10140 20090 39788 40263 51011 60006 80000 90600 333 10176 20103 60014=
07434,1996-06-04 09:00:00,19,1025.7,0.3,56,10,15000,11.112,,,100,,,,,,,,,,,wg-a,,,,AAXX 04094 07434 12665 21006 10190 20100 39791 40257 50003 60006 82100 90900=
07434,1996-06-04 12:00:00,22,1024.5,-0.8,41,8,25000,14.816,,,70,,,,,,,,,,,wg-a,,,,AAXX 04124 07434 12675 20708 10220 20080 39783 40245 58008 60006 82100 91200=
07434,1996-06-04 15:00:00,23,1023.7,-0.6,44,10,25000,14.816,,,50,,,,,,,,,,,wg-a,,,,AAXX 04154 07434 12775 10508 10230 20100 39777 40237 57006 60006 81500 91500=
07434,1996-06-04 18:00:00,22,1023.4,-0.4,46,10,25000,14.816,,,60,14,22.8,,,,,,,,,wg-a,,,,AAXX 04184 07434 12/75 00608 10220 20100 39773 40234 55004 60006 80000 91800 333 10228 20140=
07434,1996-06-04 21:00:00,17,1024.5,0.3,59,9,20000,14.816,,,50,,,,,,,,,,,wg-a,,,,AAXX 04214 07434 12/70 00508 10170 20090 39776 40245 53003 60006 80000 92100=
07434,1996-06-05 00:00:00,16,1024.2,-0.5,68,10,18000,11.112,,,60,,,,,,,,,,,wg-a,,,,AAXX 05004 07434 12/68 00606 10160 20100 39771 40242 58005 60006 80000 90000=
07434,1996-06-05 03:00:00,15,1023.1,-1.2,72,10,15000,11.112,,,60,,,,,,,,,,,wg-a,,,,AAXX 05034 07434 12/65 00606 10150 20100 39759 40231 56012 60006 80000 90300=
07434,1996-06-05 06:00:00,16,1022.6,-0.2,68,10,15000,11.112,,,80,14.3,21.6,,,,,,,,,wg-a,,,,AAXX 05064 07434 02/65 00806 10160 20100 39757 40226 57002 60006 80000 90600 333 10216 20143 60004=
07434,1996-06-05 09:00:00,21,1021.4,-0.4,56,12,15000,7.408,,,130,,,,,,,,,,,wg-a,,,,AAXX 05094 07434 12/65 01304 10210 20120 39753 40214 58004 60006 80000 90900=
07434,1996-06-05 12:00:00,25,1020.5,-0.3,47,13,500,7.408,,,170,,,,,,,,,,,wg-a,,,,AAXX 05124 07434 12/00 01704 10250 20130 39750 40205 58003 60006 80000 91200=
07434,1996-06-05 15:00:00,27,1019.4,-0.8,45,14,40000,7.408,,,160,,,,,,,,,,,wg-a,,,,AAXX 05154 07434 12/82 01604 10270 20140 39742 40194 56008 60006 80000 91500=
07434,1996-06-05 18:00:00,26,1018.9,-0.5,45,13,40000,7.408,,,190,16.4,27.2,,,,,,,,,wg-a,,,,AAXX 05184 07434 12/82 01904 10260 20130 39737 40189 56005 60006 80000 91800 333 10272 20164=
07434,1996-06-05 21:00:00,23,1019.6,0.1,50,12,500,0,,,0,,,,,,,,,,,wg-a,,,,AAXX 05214 07434 12/00 00000 10230 20120 39738 40196 52001 60006 80000 92100=
07434,1996-06-06 00:00:00,19,1019.9,-0.3,68,13,0,7.408,,,60,,,,,,,,,,,wg-a,,,,AAXX 06004 07434 12/// /0604 10190 20130 39735 40199 56003 60006 90000=
07434,1996-06-06 03:00:00,16,1020,-0.3,82,13,25000,11.112,,,90,,,,,,,,,,,wg-a,,,,AAXX 06034 07434 12/75 00906 10160 20130 39732 40200 58003 60006 80000 90300=
07434,1996-06-06 06:00:00,19,1020,0.4,60,11,500,11.112,,,100,16.3,26.2,,,,,,,,,wg-a,,,,AAXX 06064 07434 02/00 01006 10190 20110 39736 40200 53004 60006 80000 90600 333 10262 20163 60004=
07434,1996-06-06 09:00:00,25,1019.2,0.2,50,14,500,22.224,,,180,,,,,,,,,,,wg-a,,,,AAXX 06094 07434 12/00 01812 10250 20140 39738 40192 51002 60006 80000 90900=
07434,1996-06-06 12:00:00,27,1018.4,-0.4,48,15,500,25.928,,,200,,,,,,,,,,,wg-a,,,,AAXX 06124 07434 12700 12014 10270 20150 39734 40184 58004 60006 81100 91200=
07434,1996-06-06 15:00:00,29,1017.7,-0.5,43,15,500,22.224,,,190,,,,,,,,,,,wg-a,,,,AAXX 06154 07434 12700 11912 10290 20150 39729 40177 58005 60006 81100 91500=
07434,1996-06-06 18:00:00,27,1017.1,-0.7,48,15,500,14.816,,,180,18.8,28.9,,,,,,,,,wg-a,,,,AAXX 06184 07434 12/00 11808 10270 20150 39722 40171 56007 60006 80001 91800 333 10289 20188=
07434,1996-06-06 21:00:00,23,1018.3,0.5,57,14,500,7.408,,,150,,,,,,,,,,,wg-a,,,,AAXX 06214 07434 12/00 11504 10230 20140 39727 40183 53005 60006 80001 92100=
07434,1996-06-07 00:00:00,21,1018.4,-0.3,56,12,15000,11.112,,,140,,,,,,,,,,,wg-a,,,,AAXX 07004 07434 12/65 01406 10210 20120 39724 40184 58003 60006 80000 90000=
07434,1996-06-07 03:00:00,19,1017.9,-0.8,64,12,20000,11.112,,,130,,,,,,,,,,,wg-a,,,,AAXX 07034 07434 12/70 01306 10190 20120 39716 40179 57008 60006 80000 90300=
07434,1996-06-07 06:00:00,20,1017.7,-0,60,12,20000,14.816,,,120,18.2,27.5,,,,,,,,,wg-a,,,,AAXX 07064 07434 02/70 01208 10200 20120 39716 40177 55000 60006 80000 90600 333 10275 20182 60004=
07434,1996-06-07 09:00:00,25,1017,0.1,47,13,500,25.928,,,180,,,,,,,,,,,wg-a,,,,AAXX 07094 07434 12/00 01814 10250 20130 39717 40170 50001 60006 80000 90900=
07434,1996-06-07 12:00:00,27,1015.9,-0.7,45,14,500,22.224,,,180,,,,,,,,,,,wg-a,,,,AAXX 07124 07434 12/00 01812 10270 20140 39710 40159 58007 60006 80000 91200=
07434,1996-06-07 15:00:00,29,1015,-0.7,40,14,500,22.224,,,180,,,,,,,,,,,wg-a,,,,AAXX 07154 07434 12/00 01812 10290 20140 39703 40150 56007 60006 80000 91500=
07434,1996-06-07 18:00:00,26,1014.4,-0.9,48,14,500,14.816,,,160,19.9,28.9,,,,,,,,,wg-a,,,,AAXX 07184 07434 12/00 21608 10260 20140 39694 40144 57009 60006 80002 91800 333 10289 20199=
07434,1996-06-07 21:00:00,22,1015.7,0.7,57,13,500,14.816,,,170,,,,,,,,,,,wg-a,,,,AAXX 07214 07434 12/00 41708 10220 20130 39701 40157 53007 60006 80002 92100=
07434,1996-06-08 00:00:00,20,1017.1,0.9,56,11,20000,11.112,,,180,,,,,,,,,,,wg-a,,,,AAXX 08004 07434 12/70 61806 10200 20110 39710 40171 53009 60006 82092 90000=
07434,1996-06-08 03:00:00,15,1019.8,1.9,88,13,11000,11.112,,,280,,,,,,,,,,,wg-a,,,,AAXX 08034 07434 12/61 /2806 10150 20130 39729 40198 51019 60006 90300=
07434,1996-06-08 06:00:00,16,1021.1,1.3,88,14,11000,14.816,,,220,15,25.8,,,,,,,,,wg-a,,,,AAXX 08064 07434 02/61 /2208 10160 20140 39742 40211 53013 60006 90600 333 10258 20150 60004=
07434,1996-06-08 09:00:00,18,1021.5,0.7,77,14,15000,18.52,,,240,,,,0,,,,,,1,wg-a,,,,AAXX 08094 07434 12465 /2410 10180 20140 39749 40215 52007 60007 70186 86880 90900=
07434,1996-06-08 12:00:00,18,1022.4,0.9,73,13,20000,14.816,,,240,,,,,,,,,,3,wg-a,,,,AAXX 08124 07434 12570 72408 10180 20130 39758 40224 51009 60016 70386 878// 91200=
07434,1996-06-08 15:00:00,20,1021.6,-0.4,64,13,25000,14.816,,,210,,,,,,,,,,,wg-a,,,,AAXX 08154 07434 12575 /2108 10200 20130 39754 40216 57004 60006 86800 91500=
07434,1996-06-08 18:00:00,21,1021,-0.5,69,15,25000,7.408,,,240,15.4,21.6,,,,,,,,,wg-a,,,,AAXX 08184 07434 32575 22404 10210 20150 39749 40210 56005 82800 91800 333 10216 20154=
07434,1996-06-08 21:00:00,17,1022.5,0.9,82,14,20000,7.408,,,300,,,,,,,,,,,wg-a,,,,AAXX 08214 07434 12/70 03004 10170 20140 39758 40225 53009 60006 80000 92100=
07434,1996-06-09 00:00:00,17,1022.4,-0.2,82,14,18000,11.112,,,20,,,,,,,,,,,wg-a,,,,AAXX 09004 07434 12768 30206 10170 20140 39756 40224 58002 60006 835/0 90000=
07434,1996-06-09 03:00:00,15,1021.9,-0.8,94,14,13000,7.408,,,60,,,,,,,,,,,wg-a,,,,AAXX 09034 07434 12763 30604 10150 20140 39748 40219 57008 60006 83500 90300=
07434,1996-06-09 06:00:00,16,1021.9,0.2,88,14,7000,7.408,,,60,14.3,20.5,,,,,,,,,wg-a,,,,AAXX 09064 07434 02/57 /0604 10160 20140 39750 40219 50002 60006 81031 90600 333 10205 20143 60004=
07434,1996-06-09 09:00:00,23,1020.8,0,57,14,12000,3.704,,,110,,,,,,,,,,,wg-a,,,,AAXX 09094 07434 12562 /1102 10230 20140 39750 40208 50000 60006 81100 90900=
07434,1996-06-09 12:00:00,24,1020.2,-0.4,54,14,20000,3.704,,,130,,,,,,,,,,,wg-a,,,,AAXX 09124 07434 12670 31302 10240 20140 39746 40202 58004 60006 83200 91200=
07434,1996-06-09 15:00:00,26,1018.9,-0.9,51,15,20000,7.408,,,100,,,,,,,,,,,wg-a,,,,AAXX 09154 07434 12670 31004 10260 20150 39737 40189 57009 60006 83200 91500=
07434,1996-06-09 18:00:00,25,1018.7,-0.4,54,15,20000,3.704,,,20,15.9,26.6,,,,,,,,,wg-a,,,,AAXX 09184 07434 12770 10202 10250 20150 39733 40187 55004 60006 81200 91800 333 10266 20159=
07434,1996-06-09 21:00:00,21,1020.1,0.8,69,15,20000,7.408,,,30,,,,,,,,,,,wg-a,,,,AAXX 09214 07434 12/70 00304 10210 20150 39741 40201 53008 60006 80000 92100=
07434,1996-06-10 00:00:00,19,1019.9,-0.5,73,14,15000,7.408,,,80,,,,,,,,,,,wg-a,,,,AAXX 10004 07434 12/65 00804 10190 20140 39736 40199 58005 60006 80000 90000=
07434,1996-06-10 03:00:00,18,1020,-0.1,83,15,10000,3.704,,,70,,,,,,,,,,,wg-a,,,,AAXX 10034 07434 12/60 /0702 10180 20150 39735 40200 56001 60006 90300=
07434,1996-06-10 06:00:00,18,1021,1,83,15,15000,3.704,,,70,16.9,24.9,,,,,,,,,wg-a,,,,AAXX 10064 07434 02/65 40702 10180 20150 39745 40210 53010 60006 82081 90600 333 10249 20169 60004=
07434,1996-06-10 09:00:00,24,1020.4,0.4,61,16,20000,7.408,,,130,,,,,,,,,,,wg-a,,,,AAXX 10094 07434 12/70 11304 10240 20160 39749 40204 51004 60006 80001 90900=
07434,1996-06-10 12:00:00,25,1019.7,-0.5,65,18,15000,3.704,,,70,,,,3,,,,,,25,wg-a,,,,AAXX 10124 07434 02565 /0702 10250 20180 39744 40197 58005 60036 72586 86900 91200 333 60037=
07434,1996-06-10 15:00:00,23,1019.5,-0.5,61,15,20000,7.408,,,60,,,,1,,,,,,17,wg-a,,,,AAXX 10154 07434 12670 /0604 10230 20150 39739 40195 58005 60017 71798 86900 91500=
07434,1996-06-10 18:00:00,25,1019.6,0.4,61,17,15000,3.704,,,360,18.1,27,,0,,,,,,3,wg-a,,,,AAXX 10184 07434 12665 33602 10250 20170 39743 40196 53004 60007 70398 83901 91800 333 10270 20181=
07434,1996-06-10 21:00:00,19,1022.3,1.6,83,16,15000,0,,,0,,,,,,,,,,3,wg-a,,,,AAXX 10214 07434 12/65 40000 10190 20160 39759 40223 51016 60006 70391 81081 92100=
07434,1996-06-11 00:00:00,19,1022.4,0.1,78,15,15000,7.408,,,320,,,,,,,,,,3,wg-a,,,,AAXX 11004 07434 12/65 33204 10190 20150 39760 40224 53001 60006 70391 81031 90000=
07434,1996-06-11 03:00:00,17,1022.7,-0,82,14,12000,7.408,,,60,,,,,,,,,,,wg-a,,,,AAXX 11034 07434 12/62 20604 10170 20140 39760 40227 55000 60006 81031 90300=
07434,1996-06-11 06:00:00,20,1023.2,0.9,78,16,8000,3.704,,,60,16.5,25.4,,,,,4,,,,wg-a,,,,AAXX 11064 07434 02/58 /0602 10200 20160 39769 40232 53009 60006 80001 90600 333 10254 20165 60044=
07434,1996-06-11 09:00:00,24,1023.4,0.9,65,17,8000,3.704,,,170,,,,,,,,,,,wg-a,,,,AAXX 11094 07434 12/58 21702 10240 20170 39778 40234 51009 60006 80001 90900=
07434,1996-06-11 12:00:00,27,1022.9,-0.1,62,19,12000,3.704,,,290,,,,,,,,,,,wg-a,,,,AAXX 11124 07434 12662 32902 10270 20190 39777 40229 58001 60006 83200 91200=
07434,1996-06-11 18:00:00,27,1022.2,-0,62,19,15000,7.408,,,300,19.7,28.2,,,,,,,,,wg-a,,,,AAXX 11184 07434 12665 /3004 10270 20190 39771 40222 55000 60006 81200 91800 333 10282 20197=
07434,1996-06-11 21:00:00,22,1024.7,1.6,78,18,15000,11.112,,,330,,,,,,,,,,,wg-a,,,,AAXX 11214 07434 12/65 13306 10220 20180 39787 40247 53016 60006 80001 92100=
07434,1996-06-12 00:00:00,19,1025.8,0.5,83,16,15000,7.408,,,330,,,,,,,,,,,wg-a,,,,AAXX 12004 07434 12/65 13304 10190 20160 39792 40258 50005 60006 80001 90000=
07434,1996-06-12 03:00:00,18,1026.1,0.1,77,14,10000,14.816,,,10,,,,,,,,,,,wg-a,,,,AAXX 12034 07434 12/60 /0108 10180 20140 39793 40261 53001 60006 90300=
07434,1996-06-12 06:00:00,16,1027.8,1.4,82,13,15000,11.112,,,20,15.6,26.9,,,,,,,,,wg-a,,,,AAXX 12064 07434 02565 40206 10160 20130 39807 40278 53014 60006 84801 90600 333 10269 20156 60004=
07434,1996-06-12 09:00:00,20,1028.1,0.8,60,12,20000,14.816,,,10,,,,,,,,,,,wg-a,,,,AAXX 12094 07434 12/70 10108 10200 20120 39815 40281 51008 60006 81031 90900=
07434,1996-06-12 12:00:00,23,1027.5,-0.1,57,14,25000,11.112,,,360,,,,,,,,,,,wg-a,,,,AAXX 12124 07434 12/75 03606 10230 20140 39814 40275 57001 60006 80000 91200=
07434,1996-06-12 15:00:00,24,1026.7,-0.6,54,14,500,14.816,,,350,,,,,,,,,,,wg-a,,,,AAXX 12154 07434 12700 13508 10240 20140 39808 40267 56006 60006 81200 91500=
07434,1996-06-12 18:00:00,22,1026.5,-0.4,65,15,10000,14.816,,,10,16.3,24.4,,,,,,,,,wg-a,,,,AAXX 12184 07434 12/60 /0108 10220 20150 39804 40265 56004 60006 91800 333 10244 20163=
07434,1996-06-12 21:00:00,19,1028.4,1.2,68,13,500,14.816,,,30,,,,,,,,,,,wg-a,,,,AAXX 12214 07434 12/00 00308 10190 20130 39816 40284 53012 60006 80000 92100=
07434,1996-06-13 00:00:00,16,1028.5,-0.3,82,13,25000,14.816,,,30,,,,,,,,,,,wg-a,,,,AAXX 13004 07434 12/75 00308 10160 20130 39813 40285 58003 60006 80000 90000=
07434,1996-06-13 03:00:00,15,1028.3,-0.4,82,12,15000,18.52,,,50,,,,,,,,,,,wg-a,,,,AAXX 13034 07434 12/65 00510 10150 20120 39809 40283 56004 60006 80000 90300=
07434,1996-06-13 06:00:00,15,1028.3,-0,77,11,12000,22.224,,,70,13.6,22.2,,,,,,,,,wg-a,,,,AAXX 13064 07434 02/62 00712 10150 20110 39809 40283 54000 60006 80000 90600 333 10222 20136 60004=
07434,1996-06-13 09:00:00,19,1027.7,0.1,60,11,500,25.928,,,70,,,,,,,,,,,wg-a,,,,AAXX 13094 07434 12/00 00714 10190 20110 39810 40277 52001 60006 80000 90900=
07434,1996-06-13 12:00:00,22,1026.9,-0.4,46,10,500,25.928,,,50,,,,,,,,,,,wg-a,,,,AAXX 13124 07434 12/00 00514 10220 20100 39806 40269 58004 60006 80000 91200=
07434,1996-06-13 15:00:00,23,1025.2,-1.5,36,7,500,22.224,,,30,,,,,,,,,,,wg-a,,,,AAXX 13154 07434 12/00 00312 10230 20070 39791 40252 58015 60006 80000 91500=
07434,1996-06-13 18:00:00,21,1024.9,-0.6,33,4,35000,29.632,,,50,15.1,22.9,,,,,,,,,wg-a,,,,AAXX 13184 07434 12/81 00516 10210 20040 39785 40249 56006 60006 80000 91800 333 10229 20151=
07434,1996-06-13 21:00:00,16,1026.5,0.8,45,4,15000,18.52,,,60,,,,,,,,,,,wg-a,,,,AAXX 13214 07434 12/65 00610 10160 20040 39793 40265 53008 60006 80000 92100=
07434,1996-06-14 00:00:00,15,1025.7,-0.9,51,5,15000,25.928,,,70,,,,,,,,,,,wg-a,,,,AAXX 14004 07434 12/65 00714 10150 20050 39784 40257 58009 60006 80000 90000=
07434,1996-06-14 03:00:00,13,1024.5,-1.4,58,5,15000,22.224,,,70,,,,,,,,,,,wg-a,,,,AAXX 14034 07434 12/65 00712 10130 20050 39770 40245 58014 60006 80000 90300=
07434,1996-06-14 06:00:00,14,1024.6,0.2,58,6,50000,18.52,,,70,12.3,20.7,,,,,,,,,wg-a,,,,AAXX 14064 07434 02/84 00710 10140 20060 39772 40246 53002 60006 80000 90600 333 10207 20123 60004=
07434,1996-06-14 09:00:00,20,1023.6,-0.1,46,8,50000,29.632,,,60,,,,,,,,,,,wg-a,,,,AAXX 14094 07434 12/84 00616 10200 20080 39771 40236 58001 60006 80000 90900=
07434,1996-06-14 12:00:00,24,1022.6,-0.4,31,6,50000,29.632,,,60,,,,,,,,,,,wg-a,,,,AAXX 14124 07434 12/84 00616 10240 20060 39767 40226 58004 60006 80000 91200=
07434,1996-06-14 15:00:00,24,1021.5,-1,34,7,50000,31.484,,,40,,,,,,,,,,,wg-a,,,,AAXX 14154 07434 12/84 30417 10240 20070 39757 40215 56010 60006 80001 91500=
07434,1996-06-14 18:00:00,22,1021.2,-0.5,38,7,50000,29.632,,,60,14.1,24.5,,,,,,,,,wg-a,,,,AAXX 14184 07434 12/84 30616 10220 20070 39752 40212 56005 60006 80001 91800 333 10245 20141=
07434,1996-06-14 21:00:00,18,1022.4,0.6,45,6,40000,25.928,,,70,,,,,,,,,,,wg-a,,,,AAXX 14214 07434 12/82 10714 10180 20060 39758 40224 51006 60006 80001 92100=
07434,1996-06-15 00:00:00,16,1022,-0.7,51,6,500,22.224,,,70,,,,,,,,,,,wg-a,,,,AAXX 15004 07434 12/00 10712 10160 20060 39751 40220 58007 60006 80001 90000=
07434,1996-06-15 03:00:00,15,1021.3,-1,55,6,500,25.928,,,70,,,,,,,,,,,wg-a,,,,AAXX 15034 07434 12/00 10714 10150 20060 39741 40213 58010 60006 80001 90300=
07434,1996-06-15 06:00:00,16,1021,-0,55,7,500,18.52,,,80,14.4,22.4,,,,,,,,,wg-a,,,,AAXX 15064 07434 02/00 10810 10160 20070 39741 40210 55000 60006 80001 90600 333 10224 20144 60004=
07434,1996-06-15 09:00:00,23,1020,0,36,7,40000,25.928,,,70,,,,,,,,,,,wg-a,,,,AAXX 15094 07434 12/82 10714 10230 20070 39741 40200 50000 60006 80001 90900=
07434,1996-06-15 12:00:00,25,1019.4,-0.2,32,7,40000,25.928,,,60,,,,,,,,,,,wg-a,,,,AAXX 15124 07434 12/82 10614 10250 20070 39739 40194 58002 60006 80001 91200=
07434,1996-06-15 15:00:00,27,1018.2,-0.9,26,6,60000,25.928,,,70,,,,,,,,,,,wg-a,,,,AAXX 15154 07434 12/86 10714 10270 20060 39730 40182 57009 60006 80001 91500=
07434,1996-06-15 18:00:00,25,1017.9,-0.5,36,9,60000,18.52,,,60,16.4,27.2,,,,,,,,,wg-a,,,,AAXX 15184 07434 12786 10610 10250 20090 39725 40179 55005 60006 81201 91800 333 10272 20164=
07434,1996-06-15 21:00:00,20,1019.5,0.8,49,9,40000,18.52,,,60,,,,,,,,,,,wg-a,,,,AAXX 15214 07434 12/82 20610 10200 20090 39733 40195 53008 60006 80001 92100=
07434,1996-06-16 00:00:00,18,1019.2,-0.7,49,7,500,22.224,,,60,,,,,,,,,,,wg-a,,,,AAXX 16004 07434 12/00 00612 10180 20070 39726 40192 58007 60006 80000 90000=
07434,1996-06-16 03:00:00,17,1018.6,-0.7,55,8,500,18.52,,,70,,,,,,,,,,,wg-a,,,,AAXX 16034 07434 12/00 00710 10170 20080 39719 40186 57007 60006 80000 90300=
07434,1996-06-16 06:00:00,18,1018.6,0.2,52,8,35000,18.52,,,80,16.5,24.6,,,,,,,,,wg-a,,,,AAXX 16064 07434 02/81 00810 10180 20080 39721 40186 53002 60006 80000 90600 333 10246 20165 60004=
07434,1996-06-16 09:00:00,23,1018,0.2,38,8,35000,22.224,,,80,,,,,,,,,,,wg-a,,,,AAXX 16094 07434 12/81 00812 10230 20080 39723 40180 50002 60006 80000 90900=
07434,1996-06-16 12:00:00,27,1017.3,-0.2,32,9,35000,22.224,,,60,,,,,,,,,,,wg-a,,,,AAXX 16124 07434 12/81 00612 10270 20090 39721 40173 58002 60006 80000 91200=
07434,1996-06-16 15:00:00,27,1016.1,-1,28,7,40000,18.52,,,50,,,,,,,,,,,wg-a,,,,AAXX 16154 07434 12782 10510 10270 20070 39711 40161 58010 60006 81100 91500=
07434,1996-06-16 18:00:00,25,1015.7,-0.6,36,9,40000,22.224,,,50,18.2,27.8,,,,,,,,,wg-a,,,,AAXX 16184 07434 12782 10512 10250 20090 39705 40157 56006 60006 81100 91800 333 10278 20182=
07434,1996-06-16 21:00:00,20,1017.3,0.7,49,9,40000,14.816,,,50,,,,,,,,,,,wg-a,,,,AAXX 16214 07434 12/82 20508 10200 20090 39712 40173 53007 60006 80001 92100=
07434,1996-06-17 00:00:00,18,1017.9,0.2,49,7,500,14.816,,,80,,,,,,,,,,,wg-a,,,,AAXX 17004 07434 12/00 10808 10180 20070 39714 40179 51002 60006 80001 90000=
07434,1996-06-17 03:00:00,16,1017.4,-0.8,59,8,500,14.816,,,70,,,,,,,,,,,wg-a,,,,AAXX 17034 07434 12/00 00708 10160 20080 39706 40174 56008 60006 80000 90300=
07434,1996-06-17 06:00:00,18,1017.3,0.2,56,9,50000,7.408,,,70,15,25.4,,,,,,,,,wg-a,,,,AAXX 17064 07434 02/84 10704 10180 20090 39708 40173 52002 60006 80001 90600 333 10254 20150 60004=
07434,1996-06-17 09:00:00,25,1016.5,0.3,34,8,50000,11.112,,,80,,,,,,,,,,,wg-a,,,,AAXX 17094 07434 12/84 30806 10250 20080 39711 40165 51003 60006 80001 90900=
07434,1996-06-17 12:00:00,27,1015.8,-0.4,32,9,50000,7.408,,,70,,,,,,,,,,,wg-a,,,,AAXX 17124 07434 12/84 20704 10270 20090 39707 40158 57004 60006 80001 91200=
07434,1996-06-17 15:00:00,27,1015.2,-0.5,23,4,50000,7.408,,,360,,,,,,,,,,,wg-a,,,,AAXX 17154 07434 12/84 43604 10270 20040 39702 40152 56005 60006 80001 91500=
07434,1996-06-17 18:00:00,26,1014.9,-0.4,32,8,50000,7.408,,,350,17.7,27.8,,,,,,,,,wg-a,,,,AAXX 17184 07434 12/84 33504 10260 20080 39698 40149 55004 60006 80001 91800 333 10278 20177=
07434,1996-06-17 21:00:00,22,1016.1,0.5,35,6,50000,11.112,,,20,,,,,,,,,,,wg-a,,,,AAXX 17214 07434 12/84 30206 10220 20060 39703 40161 53005 60006 80001 92100=
07434,1996-06-18 00:00:00,20,1016.3,-0.1,40,6,40000,7.408,,,40,,,,,,,,,,,wg-a,,,,AAXX 18004 07434 12/82 30404 10200 20060 39702 40163 58001 60006 80001 90000=
07434,1996-06-18 03:00:00,16,1016.2,-0.7,63,9,40000,7.408,,,60,,,,,,,,,,,wg-a,,,,AAXX 18034 07434 12/82 50604 10160 20090 39695 40162 58007 60006 80001 90300=
07434,1996-06-18 06:00:00,16,1016.3,0.2,72,11,20000,3.704,,,80,14.8,26.1,,,,,,,,,wg-a,,,,AAXX 18064 07434 02/70 70802 10160 20110 39697 40163 53002 60006 80002 90600 333 10261 20148 60004=
07434,1996-06-18 09:00:00,22,1015.7,0.3,60,14,18000,3.704,,,160,,,,,,,,,,,wg-a,,,,AAXX 18094 07434 12/68 71602 10220 20140 39700 40157 51003 60006 80002 90900=
07434,1996-06-18 12:00:00,25,1014.7,-0.5,34,8,500,7.408,,,290,,,,,,,,,,,wg-a,,,,AAXX 18124 07434 12/00 12904 10250 20080 39695 40147 58005 60006 80002 91200=
07434,1996-06-18 15:00:00,27,1013.7,-0.7,30,8,40000,11.112,,,310,,,,,,,,,,,wg-a,,,,AAXX 18154 07434 12782 23106 10270 20080 39688 40137 56007 60006 81101 91500=
07434,1996-06-18 18:00:00,27,1012.7,-1.1,28,7,45000,7.408,,,20,16.5,27.6,,,,,,,,,wg-a,,,,AAXX 18184 07434 12783 10204 10270 20070 39677 40127 56011 60006 81201 91800 333 10276 20165=
07434,1996-06-18 21:00:00,23,1013.6,0.4,36,7,40000,7.408,,,340,,,,,,,,,,,wg-a,,,,AAXX 18214 07434 12782 33404 10230 20070 39681 40136 53004 60006 81201 92100=
07434,1996-06-19 00:00:00,19,1014.2,0,52,9,40000,14.816,,,310,,,,,,,,,,,wg-a,,,,AAXX 19004 07434 12/82 43108 10190 20090 39681 40142 50000 60006 80001 90000=
07434,1996-06-19 03:00:00,16,1013.7,-1,68,10,500,7.408,,,40,,,,,,,,,,,wg-a,,,,AAXX 19034 07434 12/00 40404 10160 20100 39671 40137 58010 60006 80001 90300=
07434,1996-06-19 12:00:00,26,1012.5,-0.5,37,10,40000,11.112,,,260,,,,,,,,,,,wg-a,,,,AAXX 19124 07434 12782 62606 10260 20100 39675 40125 58005 60006 81182 91200=
07434,1996-06-19 15:00:00,26,1011.7,-0.8,37,10,40000,11.112,,,250,,,,,,,,,,,wg-a,,,,AAXX 19154 07434 12782 62506 10260 20100 39667 40117 58008 60006 81582 91500=
07434,1996-06-19 18:00:00,25,1010.6,-1.2,39,10,40000,7.408,,,260,15.8,26.5,,,,,,,,,wg-a,,,,AAXX 19184 07434 12/82 42604 10250 20100 39655 40106 56012 60006 83082 91800 333 10265 20158=
07434,1996-06-19 21:00:00,19,1012.1,0.6,78,15,20000,18.52,,,290,,,,,,,,,,,wg-a,,,,AAXX 19214 07434 12/70 32910 10190 20150 39661 40121 53006 60006 81031 92100=
07434,1996-06-20 00:00:00,16,1012.6,0,88,14,8000,11.112,,,290,,,,,,,,,,,wg-a,,,,AAXX 20004 07434 12358 82906 10160 20140 39661 40126 50000 60006 876// 90000=
07434,1996-06-20 03:00:00,14,1012.4,-0.5,94,13,12000,7.408,,,300,,,,2,,,,,,21,wg-a,,,,AAXX 20034 07434 12262 83004 10140 20130 39656 40124 56005 60027 72122 875// 90300=
07434,1996-06-20 06:00:00,14,1012.4,0,94,13,6000,11.112,,,250,13.7,24.8,,,,,2,,,1,wg-a,,,,AAXX 20064 07434 12356 72506 10140 20130 39656 40124 50000 60024 70162 877// 90600 333 10248 20137=
07434,1996-06-20 09:00:00,16,1012.1,0.1,82,13,25000,14.816,,,230,,,,,,,,,,,wg-a,,,,AAXX 20094 07434 12475 72308 10160 20130 39657 40121 50001 60006 878// 90900=
07434,1996-06-20 12:00:00,19,1011.6,-0.2,52,9,25000,14.816,,,270,,,,,,,,,,,wg-a,,,,AAXX 20124 07434 12575 72708 10190 20090 39655 40116 56002 60006 85802 91200=
07434,1996-06-20 15:00:00,20,1010.6,-0.8,53,10,40000,11.112,,,230,,,,,,,,,,,wg-a,,,,AAXX 20154 07434 12582 /2306 10200 20100 39647 40106 58008 60006 83132 91500=
07434,1996-06-20 18:00:00,19,1009.3,-1.2,64,12,50000,11.112,,,290,14,20.3,,,,,,,,,wg-a,,,,AAXX 20184 07434 12684 72906 10190 20120 39635 40093 56012 60006 81132 91800 333 10203 20140=
07434,1996-06-20 21:00:00,16,1010,0.2,77,12,500,3.704,,,280,,,,,,,,,,,wg-a,,,,AAXX 20214 07434 12/00 42802 10160 20120 39637 40100 53002 60006 81031 92100=
07434,1996-06-21 00:00:00,15,1008.9,-1.2,82,12,500,7.408,,,340,,,,,,,,,,,wg-a,,,,AAXX 21004 07434 12700 73404 10150 20120 39625 40089 56012 60006 83532 90000=
07434,1996-06-21 03:00:00,14,1007.1,-1.9,88,12,20000,11.112,,,40,,,,,,,,,,,wg-a,,,,AAXX 21034 07434 12770 70406 10140 20120 39606 40071 58019 60006 81532 90300=
07434,1996-06-21 06:00:00,14,1006.2,-0.9,82,11,15000,11.112,,,20,13.5,19.4,,,,,,,,,wg-a,,,,AAXX 21064 07434 02765 70206 10140 20110 39597 40062 56009 60006 8352/ 90600 333 10194 20135 60004=
07434,1996-06-21 12:00:00,15,1005.9,0.3,94,14,7000,11.112,,,310,,,,2,,,,,,61,wg-a,,,,AAXX 21124 07434 02257 83106 10150 20140 39596 40059 51003 60026 76162 8652/ 91200 333 60027=
07434,1996-06-21 18:00:00,13,1008.1,1.2,94,12,1100,11.112,,,290,,,,,,,,,,10,wg-a,,,,AAXX 21184 07434 32111 82906 10130 20120 39613 40081 53012 71062 877// 91800=
07434,1996-06-21 21:00:00,13,1010.1,1.9,88,11,8000,11.112,,,30,,,,4,,,,,,21,wg-a,,,,AAXX 21214 07434 12358 70306 10130 20110 39632 40101 53019 60047 72162 8557/ 92100=
07434,1996-06-22 00:00:00,11,1012,1.6,87,9,12000,14.816,,,30,,,,,,,,,,3,wg-a,,,,AAXX 22004 07434 12662 80308 10110 20090 39648 40120 51016 60046 70362 875// 90000=
07434,1996-06-22 03:00:00,10,1014.4,2,93,9,8000,11.112,,,360,,,,,,,,,,,wg-a,,,,AAXX 22034 07434 12/58 53606 10100 20090 39668 40144 51020 60006 84031 90300=
07434,1996-06-22 06:00:00,10,1016.5,2.1,87,8,6000,7.408,,,40,9.6,,,,,,9,,,,wg-a,,,,AAXX 22064 07434 12/56 00404 10100 20080 39689 40165 53021 60094 80000 90600 333 10129 20096=
07434,1996-06-22 09:00:00,14,1018.4,2.3,55,5,12000,3.704,,,80,,,,,,,,,,,wg-a,,,,AAXX 22094 07434 12562 20802 10140 20050 39712 40184 51023 60006 82100 90900=
07434,1996-06-22 12:00:00,15,1019.7,1.4,48,4,20000,14.816,,,340,,,,,,,,,,,wg-a,,,,AAXX 22124 07434 12670 /3408 10150 20040 39726 40197 51014 60006 85200 91200=
07434,1996-06-22 15:00:00,16,1020.3,0.7,45,4,500,11.112,,,10,,,,,,,,,,,wg-a,,,,AAXX 22154 07434 12600 /0106 10160 20040 39733 40203 51007 60006 86800 91500=
07434,1996-06-22 18:00:00,15,1020.5,0.2,55,6,500,7.408,,,350,10.3,16.4,,,,,,,,,wg-a,,,,AAXX 22184 07434 12600 /3504 10150 20060 39735 40205 52002 60006 82130 91800 333 10164 20103=
07434,1996-06-22 21:00:00,14,1021.6,0.8,58,6,15000,3.704,,,290,,,,,,,,,,,wg-a,,,,AAXX 22214 07434 12765 72902 10140 20060 39743 40216 53008 60006 875// 92100=
07434,1996-06-23 00:00:00,12,1021.5,-0.4,71,7,12000,7.408,,,290,,,,,,,,,,,wg-a,,,,AAXX 23004 07434 12762 72904 10120 20070 39739 40215 58004 60006 875// 90000=
07434,1996-06-23 03:00:00,10,1020.8,-0.9,87,8,12000,11.112,,,290,,,,,,,,,,,wg-a,,,,AAXX 23034 07434 12762 72906 10100 20080 39730 40208 58009 60006 875// 90300=
07434,1996-06-23 06:00:00,11,1021.2,0.4,82,8,10000,3.704,,,340,10,15.4,,,,,,,,,wg-a,,,,AAXX 23064 07434 02760 63402 10110 20080 39734 40212 53004 60006 86500 90600 333 10154 20100 60004=
07434,1996-06-23 09:00:00,13,1022.3,1.5,67,7,12000,18.52,,,90,,,,,,,,,,,wg-a,,,,AAXX 23094 07434 12462 /0910 10130 20070 39749 40223 53015 60006 86800 90900=
07434,1996-06-23 12:00:00,15,1022.6,0.6,55,6,40000,14.816,,,40,,,,0,,,,,,3,wg-a,,,,AAXX 23124 07434 02682 40408 10150 20060 39755 40226 50006 60006 70386 84800 91200 333 60007=
07434,1996-06-23 15:00:00,16,1022.3,-0.2,48,5,40000,14.816,,,20,,,,,,,,,,,wg-a,,,,AAXX 23154 07434 12682 50208 10160 20050 39753 40223 57002 60006 85800 91500=
07434,1996-06-23 18:00:00,15,1023.1,0.6,55,6,500,14.816,,,20,10.7,16.7,,,,,,,,2,wg-a,,,,AAXX 23184 07434 02600 /0208 10150 20060 39759 40231 52006 61000 70286 85800 91800 333 10167 20107 ////=
07434,1996-06-23 21:00:00,13,1024.5,1,62,6,500,7.408,,,20,,,,,,,,,,,wg-a,,,,AAXX 23214 07434 12700 40204 10130 20060 39769 40245 53010 60006 84500 92100=
07434,1996-06-24 00:00:00,12,1025.1,0.3,67,6,20000,7.408,,,40,,,,,,,,,,,wg-a,,,,AAXX 24004 07434 12770 60404 10120 20060 39772 40251 50003 60006 865/0 90000=
07434,1996-06-24 03:00:00,10,1025.2,-0.1,76,6,20000,7.408,,,10,,,,,,,,,,,wg-a,,,,AAXX 24034 07434 12670 /0104 10100 20060 39771 40252 58001 60006 86800 90300=
07434,1996-06-24 06:00:00,10,1026.2,0.9,82,7,15000,14.816,,,10,9.7,15.1,,,,,,,,,wg-a,,,,AAXX 24064 07434 02665 70108 10100 20070 39780 40262 53009 60006 87800 90600 333 10151 20097 60004=
07434,1996-06-24 09:00:00,12,1026.5,0.6,67,6,15000,14.816,,,40,,,,,,,,,,,wg-a,,,,AAXX 24094 07434 12465 /0408 10120 20060 39786 40265 51006 60006 86800 90900=
07434,1996-06-24 12:00:00,15,1025.9,-0.1,55,6,20000,11.112,,,20,,,,,,,,,,,wg-a,,,,AAXX 24124 07434 12570 /0206 10150 20060 39785 40259 58001 60006 86800 91200=
07434,1996-06-24 15:00:00,15,1025.3,-0.5,55,6,20000,14.816,,,20,,,,,,,,,,,wg-a,,,,AAXX 24154 07434 12570 /0208 10150 20060 39780 40253 58005 60006 86800 91500=
07434,1996-06-24 18:00:00,14,1024.8,-0.6,67,8,20000,7.408,,,20,9.9,15.6,,,,,,,,,wg-a,,,,AAXX 24184 07434 12570 /0204 10140 20080 39774 40248 58006 60006 86800 91800 333 10156 20099=
07434,1996-06-25 00:00:00,11,1025.3,-0.3,94,10,10000,7.408,,,30,,,,1,,,,,,21,wg-a,,,,AAXX 25004 07434 02260 20304 10110 20100 39773 40253 58003 60016 72161 82600 90000 333 60017=
07434,1996-06-25 03:00:00,10,1025,-0.4,93,9,10000,11.112,,,30,,,,,,,,,,,wg-a,,,,AAXX 25034 07434 12360 70306 10100 20090 39769 40250 58004 60006 8457/ 90300=
07434,1996-06-25 06:00:00,10,1025.2,0.2,87,8,10000,11.112,,,30,9.5,14.3,,,,,1,,,,wg-a,,,,AAXX 25064 07434 12360 70306 10100 20080 39771 40252 53002 60014 878// 90600 333 10143 20095=
07434,1996-06-25 09:00:00,13,1025.1,0.3,72,8,20000,14.816,,,30,,,,,,,,,,,wg-a,,,,AAXX 25094 07434 12470 /0308 10130 20080 39774 40251 50003 60006 86800 90900=
07434,1996-06-25 12:00:00,14,1024.5,-0.3,67,8,20000,18.52,,,350,,,,,,,,,,,wg-a,,,,AAXX 25124 07434 12570 73510 10140 20080 39771 40245 58003 60006 87800 91200=
07434,1996-06-25 15:00:00,14,1024.3,-0.2,67,8,20000,14.816,,,30,,,,,,,,,,,wg-a,,,,AAXX 25154 07434 12570 70308 10140 20080 39769 40243 57002 60006 87800 91500=
07434,1996-06-25 18:00:00,14,1023.9,-0.4,72,9,20000,7.408,,,30,9.9,15,,,,,,,,,wg-a,,,,AAXX 25184 07434 12570 70304 10140 20090 39765 40239 57004 60006 87800 91800 333 10150 20099=
07434,1996-06-25 21:00:00,12,1024.2,-0,82,9,20000,7.408,,,300,,,,,,,,,,,wg-a,,,,AAXX 25214 07434 12670 /3004 10120 20090 39765 40242 55000 60006 85530 92100=
07434,1996-06-26 00:00:00,13,1024,-0.1,77,9,20000,7.408,,,300,,,,,,,,,,,wg-a,,,,AAXX 26004 07434 12670 /3004 10130 20090 39764 40240 57001 60006 86530 90000=
07434,1996-06-26 03:00:00,13,1022.7,-1.2,77,9,20000,7.408,,,320,,,,,,,,,,,wg-a,,,,AAXX 26034 07434 12670 /3204 10130 20090 39752 40227 58012 60006 86530 90300=
07434,1996-06-26 06:00:00,13,1022.6,-0.1,82,10,12000,7.408,,,100,11.2,14.2,,,,,,,,,wg-a,,,,AAXX 26064 07434 02662 51004 10130 20100 39751 40226 55001 60006 84530 90600 333 10142 20112 60004=
07434,1996-06-26 09:00:00,18,1022.4,0.6,56,9,20000,3.704,,,360,,,,,,,,,,,wg-a,,,,AAXX 26094 07434 12570 /3602 10180 20090 39757 40224 51006 60006 84132 90900=
07434,1996-06-26 12:00:00,19,1022.1,-0.1,52,9,20000,14.816,,,20,,,,,,,,,,,wg-a,,,,AAXX 26124 07434 12670 /0208 10190 20090 39756 40221 58001 60006 85202 91200=
07434,1996-06-26 15:00:00,19,1021.9,-0.1,56,10,20000,11.112,,,20,,,,,,,,,,,wg-a,,,,AAXX 26154 07434 12670 /0206 10190 20100 39755 40219 57001 60006 86200 91500=
07434,1996-06-26 18:00:00,20,1021.7,-0.1,56,11,20000,3.704,,,340,12.9,20.9,,,,,,,,,wg-a,,,,AAXX 26184 07434 12670 /3402 10200 20110 39754 40217 57001 60006 85800 91800 333 10209 20129=
07434,1996-06-26 21:00:00,17,1023.4,1.1,72,12,15000,11.112,,,280,,,,,,,,,,,wg-a,,,,AAXX 26214 07434 12665 72806 10170 20120 39765 40234 53011 60006 86532 92100=
07434,1996-06-27 00:00:00,13,1024.4,0.3,82,10,15000,14.816,,,300,,,,,,,,,,,wg-a,,,,AAXX 27004 07434 12665 43008 10130 20100 39768 40244 50003 60006 83532 90000=
07434,1996-06-27 03:00:00,11,1024.4,-0.3,94,10,13000,7.408,,,330,,,,,,,,,,,wg-a,,,,AAXX 27034 07434 12663 /3304 10110 20100 39765 40244 57003 60006 83532 90300=
07434,1996-06-27 06:00:00,13,1024.9,0.9,88,11,8000,3.704,,,60,10.3,19.6,,,,,,,,,wg-a,,,,AAXX 27064 07434 02/58 40602 10130 20110 39774 40249 53009 60006 80002 90600 333 10196 20103 60004=
07434,1996-06-27 09:00:00,19,1024.7,0.7,64,12,9000,7.408,,,180,,,,,,,,,,,wg-a,,,,AAXX 27094 07434 12/59 31804 10190 20120 39781 40247 51007 60006 80001 90900=
07434,1996-06-27 12:00:00,21,1023.9,-0.4,53,11,15000,7.408,,,290,,,,,,,,,,,wg-a,,,,AAXX 27124 07434 12665 42904 10210 20110 39777 40239 58004 60006 84201 91200=
07434,1996-06-27 15:00:00,24,1022.7,-0.8,44,11,11000,7.408,,,320,,,,,,,,,,,wg-a,,,,AAXX 27154 07434 12/61 /3204 10240 20110 39769 40227 58008 60006 91500=
07434,1996-06-27 18:00:00,23,1022.4,-0.4,44,10,25000,7.408,,,320,13.3,23.5,,,,,,,,,wg-a,,,,AAXX 27184 07434 12775 33204 10230 20100 39765 40224 56004 60006 81201 91800 333 10235 20133=
07434,1996-06-27 21:00:00,19,1023.6,0.5,56,10,20000,7.408,,,340,,,,,,,,,,,wg-a,,,,AAXX 27214 07434 12/70 63404 10190 20100 39770 40236 53005 60006 80001 92100=
07434,1996-06-28 00:00:00,18,1023,-0.7,56,9,18000,3.704,,,20,,,,,,,,,,,wg-a,,,,AAXX 28004 07434 12/68 20202 10180 20090 39763 40230 58007 60006 80001 90000=
07434,1996-06-28 03:00:00,15,1022.5,-0.9,77,11,15000,3.704,,,40,,,,,,,,,,,wg-a,,,,AAXX 28034 07434 12/65 60402 10150 20110 39754 40225 57009 60006 80004 90300=
07434,1996-06-28 06:00:00,15,1022.7,0.2,82,12,8000,3.704,,,70,13.7,22.6,,,,,,,,,wg-a,,,,AAXX 28064 07434 02/58 /0702 10150 20120 39756 40227 53002 60006 80001 90600 333 10226 20137 60004=
07434,1996-06-28 09:00:00,21,1021.7,0,53,11,12000,11.112,,,240,,,,,,,,,,,wg-a,,,,AAXX 28094 07434 12662 22406 10210 20110 39756 40217 50000 60006 81101 90900=
07434,1996-06-28 12:00:00,24,1019.9,-1.3,44,11,25000,14.816,,,220,,,,,,,,,,,wg-a,,,,AAXX 28124 07434 12675 /2208 10240 20110 39743 40199 58013 60006 81101 91200=
07434,1996-06-28 15:00:00,25,1018.7,-1.1,41,11,500,14.816,,,260,,,,,,,,,,,wg-a,,,,AAXX 28154 07434 12700 62608 10250 20110 39732 40187 56011 60006 81132 91500=
07434,1996-06-28 18:00:00,23,1017.8,-1,47,11,500,14.816,,,280,14.8,25.3,,,,,,,,,wg-a,,,,AAXX 28184 07434 12/00 62808 10230 20110 39722 40178 56010 60006 82082 91800 333 10253 20148=
07434,1996-06-28 21:00:00,17,1019.7,0.8,68,11,10000,11.112,,,290,,,,,,,,,,,wg-a,,,,AAXX 28214 07434 12/60 /2906 10170 20110 39730 40197 53008 60006 92100=
07434,1996-06-29 00:00:00,13,1020.9,0.5,82,10,25000,11.112,,,280,,,,,,,,,,,wg-a,,,,AAXX 29004 07434 12/75 12806 10130 20100 39735 40209 51005 60006 80001 90000=
07434,1996-06-29 03:00:00,13,1020.3,-0.5,94,12,12000,7.408,,,240,,,,,,,,,,,wg-a,,,,AAXX 29034 07434 12262 72404 10130 20120 39730 40203 57005 60006 876// 90300=
07434,1996-06-29 06:00:00,14,1020.4,0.3,100,14,1000,14.816,,,270,12.1,23.1,,1,,,1,,,10,wg-a,,,,AAXX 29064 07434 02110 82708 10140 20140 39733 40204 53003 60014 71065 887// 90600 333 10231 20121 60017=
07434,1996-06-29 09:00:00,14,1021.1,0.7,94,13,12000,14.816,,,290,,,,1,,,,,,21,wg-a,,,,AAXX 29094 07434 12362 72908 10140 20130 39740 40211 53007 60017 72165 877// 90900=
07434,1996-06-29 12:00:00,17,1021,0.3,59,9,12000,22.224,,40.744,260,,,,0,,,,,,1,wg-a,,,,AAXX 29124 07434 02462 /2612 10170 20090 39743 40210 51003 60016 70165 86700 91200 333 60007 91022=
07434,1996-06-29 15:00:00,19,1020.4,-0.3,49,8,500,14.816,,,290,,,,,,,,,,,wg-a,,,,AAXX 29154 07434 12600 42908 10190 20080 39740 40204 58003 60006 84200 91500=
07434,1996-06-29 18:00:00,19,1020.3,-0.2,52,9,500,18.52,,,290,13.9,19.8,,,,,,,,,wg-a,,,,AAXX 29184 07434 32600 42910 10190 20090 39738 40203 55002 84200 91800 333 10198 20139=
07434,1996-06-29 21:00:00,14,1022.8,1.6,72,9,500,14.816,,,280,,,,,,,,,,,wg-a,,,,AAXX 29214 07434 12/00 02808 10140 20090 39754 40228 53016 60006 80000 92100=
07434,1996-06-30 00:00:00,11,1023.5,0.2,87,9,500,14.816,,,290,,,,,,,,,,,wg-a,,,,AAXX 30004 07434 12/00 02908 10110 20090 39756 40235 50002 60006 80000 90000=
07434,1996-06-30 03:00:00,9,1023.1,-0.6,100,9,15000,11.112,,,300,,,,,,,,,,,wg-a,,,,AAXX 30034 07434 12/65 03006 10090 20090 39750 40231 57006 60006 80000 90300=
07434,1996-06-30 06:00:00,9,1023.1,-0,100,9,600,7.408,,,140,8.7,18.7,,,,,1,,,44,wg-a,,,,AAXX 30064 07434 02/06 91404 10090 20090 39750 40231 55000 60006 74441 89/// 90600 333 10187 20087 60014=
07434,1996-06-30 09:00:00,14,1022.3,0,82,11,15000,7.408,,,170,,,,,,,,,,1,wg-a,,,,AAXX 30094 07434 12265 51704 10140 20110 39750 40223 50000 60006 70142 84201 90900=
07434,1996-06-30 12:00:00,19,1020.1,-1.3,56,10,25000,11.112,,,250,,,,,,,,,,1,wg-a,,,,AAXX 30124 07434 12675 22506 10190 20100 39737 40201 56013 60006 70141 82100 91200=
07434,1996-06-30 15:00:00,21,1018,-1.7,49,10,500,18.52,,,260,,,,,,,,,,,wg-a,,,,AAXX 30154 07434 12600 /2610 10210 20100 39720 40180 58017 60006 81100 91500=
07434,1996-06-30 18:00:00,20,1016.9,-1.1,56,11,500,14.816,,,260,9.4,21.8,,,,,,,,,wg-a,,,,AAXX 30184 07434 12600 22608 10200 20110 39709 40169 56011 60006 82400 91800 333 10218 20094=
07434,1996-06-30 21:00:00,16,1017.7,-0,72,11,500,11.112,,,280,,,,,,,,,,,wg-a,,,,AAXX 30214 07434 12/00 42806 10160 20110 39709 40177 55000 60006 83075 92100=
07434,1996-07-01 00:00:00,13,1016.8,-1.2,88,11,500,11.112,,,260,,,,,,,,,,,wg-a,,,,AAXX 01004 07434 12400 62606 10130 20110 39697 40168 58012 60006 83575 90000=
07434,1996-07-01 03:00:00,12,1015.3,-1.7,94,11,2000,11.112,,,240,,,,0,,,,,,60,wg-a,,,,AAXX 01034 07434 12220 72406 10120 20110 39680 40153 58017 60007 76062 877// 90300=
07434,1996-07-01 06:00:00,12,1014.7,-0.5,100,12,800,11.112,,,240,11.9,20.4,,2,,,2,,,51,wg-a,,,,AAXX 01064 07434 02108 72406 10120 20120 39675 40147 56005 60024 75165 877// 90600 333 10204 20119 60027=
07434,1996-07-01 09:00:00,14,1014.7,0.2,88,12,20000,11.112,,,260,,,,1,,,,,,1,wg-a,,,,AAXX 01094 07434 12470 72606 10140 20120 39677 40147 50002 60017 70154 8717/ 90900=
07434,1996-07-01 12:00:00,15,1014.4,0,72,10,500,11.112,,,280,,,,,,,,,,3,wg-a,,,,AAXX 01124 07434 12400 72806 10150 20100 39677 40144 50000 60016 70354 8587/ 91200=
07434,1996-07-01 15:00:00,17,1013.7,-0.4,68,11,35000,11.112,,,280,,,,,,,,,,,wg-a,,,,AAXX 01154 07434 12581 62806 10170 20110 39673 40137 57004 60006 84231 91500=
07434,1996-07-01 18:00:00,16,1,-0.8,68,10,35000,14.816,,,270,12,,,,,,,,,,wg-a,,,,AAXX 01184 07434 32581 52708 10160 20100 39665 56008 84231 91800 333 20120=
07434,1996-07-02 00:00:00,12,1014.8,-0.3,76,8,20000,3.704,,,270,,,,,,,,,,,wg-a,,,,AAXX 02004 07434 12670 72702 10120 20080 39674 40148 56003 60006 83532 90000=
07434,1996-07-02 03:00:00,11,1014.1,-0.7,87,9,15000,3.704,,,260,,,,,,,,,,,wg-a,,,,AAXX 02034 07434 12465 72602 10110 20090 39667 40141 56007 60006 8483/ 90300=
07434,1996-07-02 06:00:00,11,1014.6,0.5,94,10,15000,7.408,,,250,10.6,16.2,,,,,1,,,,wg-a,,,,AAXX 02064 07434 02465 72504 10110 20100 39672 40146 52005 60006 8683/ 90600 333 10162 20106 60014=
07434,1996-07-02 09:00:00,13,1014.7,0.4,77,9,500,7.408,,,230,,,,,,,,,,,wg-a,,,,AAXX 02094 07434 12400 72304 10130 20090 39676 40147 50004 60006 8683/ 90900=
07434,1996-07-02 12:00:00,15,1014.8,0.4,67,9,40000,7.408,,,240,,,,,,,,,,,wg-a,,,,AAXX 02124 07434 12582 72404 10150 20090 39680 40148 50004 60006 878// 91200=
07434,1996-07-02 15:00:00,17,1013.8,-0.6,55,8,50000,11.112,,,290,,,,,,,,,,,wg-a,,,,AAXX 02154 07434 12684 /2906 10170 20080 39674 40138 58006 60006 86800 91500=
07434,1996-07-02 18:00:00,15,1014.1,-0,77,11,15000,11.112,,,250,11.3,18.8,,1,,,,,,80,wg-a,,,,AAXX 02184 07434 12565 72506 10150 20110 39674 40141 55000 60017 78086 878// 91800 333 10188 20113=
07434,1996-07-02 21:00:00,13,1015.2,0.7,82,10,10000,7.408,,,230,,,,,,,,,,,wg-a,,,,AAXX 02214 07434 32/60 /2304 10130 20100 39681 40152 53007 92100=
07434,1996-07-03 00:00:00,11,1015.2,-0.3,94,10,35000,0,,,0,,,,,,,,,,1,wg-a,,,,AAXX 03004 07434 12/81 00000 10110 20100 39678 40152 58003 60006 70186 80000 90000=
07434,1996-07-03 03:00:00,10,1014.5,-0.9,93,9,400,0,,,0,,,,,,,,,,44,wg-a,,,,AAXX 03034 07434 12/04 00000 10100 20090 39669 40145 58009 60006 74440 80000 90300=
07434,1996-07-03 06:00:00,10,1014.6,0.2,100,10,800,7.408,,,150,9.1,15.2,,0,,,1,,,44,wg-a,,,,AAXX 03064 07434 02108 /1504 10100 20100 39671 40146 51002 60014 74441 8663/ 90600 333 10152 20091 60007=
07434,1996-07-03 09:00:00,14,1014.7,0.7,88,12,500,18.52,,,190,,,,,,,,,,3,wg-a,,,,AAXX 03094 07434 12400 71910 10140 20120 39678 40147 51007 60006 70342 878// 90900=
07434,1996-07-03 12:00:00,17,1013.7,-0.5,77,13,500,25.928,,,210,,,,,,,,,,3,wg-a,,,,AAXX 03124 07434 12400 72114 10170 20130 39673 40137 58005 60006 70342 8683/ 91200=
07434,1996-07-03 15:00:00,18,1013.2,-0.3,83,15,500,25.928,,,210,,,,0,,,,,,3,wg-a,,,,AAXX 03154 07434 12400 72114 10180 20150 39670 40132 58003 60007 70362 878// 91500=
07434,1996-07-03 18:00:00,18,1013,-0.2,83,15,40000,18.52,,,240,10.3,18.3,,0,,,,,,25,wg-a,,,,AAXX 03184 07434 12482 72410 10180 20150 39668 40130 55002 60007 72586 878// 91800 333 10183 20103=
07434,1996-07-03 21:00:00,17,1014,0.8,82,14,20000,22.224,,,220,,,,,,,,,,,wg-a,,,,AAXX 03214 07434 12470 72212 10170 20140 39676 40140 53008 60006 8353/ 92100=
07434,1996-07-04 00:00:00,16,1014.4,0.3,88,14,0,22.224,,,220,,,,,,,,,,,wg-a,,,,AAXX 04004 07434 12/// /2212 10160 20140 39679 40144 51003 60006 90000=
07434,1996-07-04 03:00:00,16,1014.2,-0.2,88,14,20000,18.52,,,240,,,,,,,,,,,wg-a,,,,AAXX 04034 07434 12470 72410 10160 20140 39677 40142 58002 60006 875// 90300=
07434,1996-07-04 06:00:00,16,1014.7,0.4,94,15,3000,18.52,,,230,15.5,17.9,,,,,1,,,51,wg-a,,,,AAXX 04064 07434 02230 82310 10160 20150 39681 40147 53004 60014 75165 877// 90600 333 10179 20155 61000=
07434,1996-07-04 09:00:00,18,1015.4,1,77,14,500,22.224,,,250,,,,0,,,,,,20,wg-a,,,,AAXX 04094 07434 12400 /2512 10180 20140 39691 40154 51010 60007 72065 85830 90900=
07434,1996-07-04 12:00:00,20,1015.5,0.4,64,13,500,22.224,,40.744,240,,,,,,,,,,1,wg-a,,,,AAXX 04124 07434 12500 72412 10200 20130 39695 40155 51004 60006 70165 8683/ 91200 333 91022=
07434,1996-07-04 15:00:00,20,1015.2,-0.2,68,14,500,22.224,,,250,,,,,,,,,,,wg-a,,,,AAXX 04154 07434 12500 72512 10200 20140 39693 40152 56002 60006 8687/ 91500=
07434,1996-07-04 18:00:00,20,1014.4,-0.8,68,14,500,22.224,,,220,15.5,21.3,,,,,,,,,wg-a,,,,AAXX 04184 07434 32500 72212 10200 20140 39685 40144 56008 8587/ 91800 333 10213 20155=
07434,1996-07-05 00:00:00,16,1013.6,-1.2,88,14,20000,14.816,,,220,,,,,,,,,,,wg-a,,,,AAXX 05004 07434 12670 72208 10160 20140 39671 40136 57012 60006 878// 90000=
07434,1996-07-05 03:00:00,15,1011.4,-2.2,88,13,20000,3.704,,,270,,,,,,,,,,,wg-a,,,,AAXX 05034 07434 12570 62702 10150 20130 39649 40114 58022 60006 8483/ 90300=
07434,1996-07-05 06:00:00,15,1010.8,-0.7,94,14,2000,14.816,,,260,14.4,19.9,,13,,,13,,,17,wg-a,,,,AAXX 05064 07434 02220 82608 10150 20140 39642 40108 55007 60134 71796 879// 90600 333 10199 20144 60137=
07434,1996-07-05 09:00:00,16,1009.5,-1,94,15,10000,18.52,,,240,,,,4,,,,,,21,wg-a,,,,AAXX 05094 07434 12260 82410 10160 20150 39632 40095 56010 60047 72162 878// 90900=
07434,1996-07-05 12:00:00,19,1009.3,0.2,78,15,10000,18.52,,,250,,,,,,,,,,1,wg-a,,,,AAXX 05124 07434 12460 /2510 10190 20150 39634 40093 50002 60046 70162 86800 91200=
07434,1996-07-05 15:00:00,14,1010.7,0.6,88,12,10000,11.112,,,230,,,,6,,,,,,81,wg-a,,,,AAXX 05154 07434 12460 /2306 10140 20120 39640 40107 53006 60067 78198 86902 91500=
07434,1996-07-05 18:00:00,17,1009.6,-0.6,88,15,15000,11.112,,,260,13.8,19.7,,2,,,,,,25,wg-a,,,,AAXX 05184 07434 12565 62606 10170 20150 39634 40096 55006 60027 72598 86902 91800 333 10197 20138=
07434,1996-07-05 21:00:00,14,1010.5,0.4,94,13,20000,11.112,,,260,,,,,,,,,,,wg-a,,,,AAXX 05214 07434 12670 62606 10140 20130 39638 40105 52004 60006 84570 92100=
07434,1996-07-06 00:00:00,11,1011.5,0.4,94,10,6000,3.704,,,350,,,,3,,,,,,61,wg-a,,,,AAXX 06004 07434 02256 83502 10110 20100 39642 40115 50004 60036 76162 875// 90000 333 60037=
07434,1996-07-06 03:00:00,10,1012.9,1.2,93,9,6000,7.408,,,270,,,,0,,,,,,2,wg-a,,,,AAXX 06034 07434 12156 82704 10100 20090 39654 40129 52012 60007 70262 886// 90300=
07434,1996-07-06 06:00:00,10,1014.5,1.4,93,9,7000,3.704,,,280,9.1,,,,,,15,,,,wg-a,,,,AAXX 06064 07434 12/57 /2802 10100 20090 39668 40145 51014 60154 90600 333 20091=
07434,1996-07-06 09:00:00,14,1014.2,0.4,72,9,20000,7.408,,,260,,,,,,,,,,,wg-a,,,,AAXX 06094 07434 12470 72604 10140 20090 39672 40142 51004 60006 85201 90900=
07434,1996-07-06 12:00:00,15,1013.8,-0.2,59,7,50000,14.816,,,300,,,,,,,,,,,wg-a,,,,AAXX 06124 07434 12684 53008 10150 20070 39670 40138 57002 60006 84201 91200=
07434,1996-07-06 15:00:00,16,1012.9,-0.7,51,6,50000,7.408,,,260,,,,,,,,,,,wg-a,,,,AAXX 06154 07434 12684 72604 10160 20060 39663 40129 57007 60006 84804 91500=
07434,1996-07-06 18:00:00,16,1011.5,-1.4,59,8,50000,3.704,,,300,9.5,16.8,,,,,,,,,wg-a,,,,AAXX 06184 07434 12684 73002 10160 20080 39649 40115 58014 60006 81838 91800 333 10168 20095=
07434,1996-07-06 21:00:00,14,1010.5,-1.2,67,8,25000,3.704,,,70,,,,,,,,,,,wg-a,,,,AAXX 06214 07434 12675 /0702 10140 20080 39637 40105 58012 60006 8683/ 92100=
07434,1996-07-07 00:00:00,13,1009.1,-1.5,82,10,18000,3.704,,,360,,,,,,,,,,60,wg-a,,,,AAXX 07004 07434 02668 /3602 10130 20100 39622 40091 58015 61000 76062 8683/ 90000 333 6100=
07434,1996-07-07 03:00:00,11,1006.4,-2.8,94,10,18000,7.408,,,40,,,,2,,,,,,60,wg-a,,,,AAXX 07034 07434 12668 70404 10110 20100 39594 40064 56028 60027 76066 8783/ 90300=
07434,1996-07-07 06:00:00,11,1004.5,-1.9,94,10,12000,14.816,,,50,10.6,15.5,,4,,,5,,,61,wg-a,,,,AAXX 07064 07434 02562 70508 10110 20100 39575 40045 56019 60054 76166 878// 90600 333 10155 20106 60047=
07434,1996-07-07 09:00:00,11,1002.6,-1.7,94,10,8000,18.52,,,60,,,,3,,,,,,61,wg-a,,,,AAXX 07094 07434 12358 70610 10110 20100 39558 40026 58017 60037 76166 878// 90900=
07434,1996-07-07 12:00:00,12,1002.5,-0,94,11,8000,7.408,,,360,,,,3,,,,,,61,wg-a,,,,AAXX 07124 07434 02158 73604 10120 20110 39558 40025 55000 60066 76166 875// 91200 333 60037=
07434,1996-07-07 15:00:00,11,1004.6,1.8,94,10,3000,18.52,,,360,,,,2,,,,,,10,wg-a,,,,AAXX 07154 07434 12130 73610 10110 20100 39576 40046 53018 60027 71062 877// 91500=
07434,1996-07-07 18:00:00,10,1007.8,3,93,9,4000,22.224,,,340,10,12.2,,7,,,,,,10,wg-a,,,,AAXX 07184 07434 12140 73412 10100 20090 39606 40078 53030 60077 71062 875// 91800 333 10122 20100=
07434,1996-07-07 21:00:00,10,1012.1,4,93,9,15000,14.816,,,340,,,,2,,,,,,60,wg-a,,,,AAXX 07214 07434 12265 83408 10100 20090 39646 40121 51040 60027 76066 877// 92100=
07434,1996-07-08 00:00:00,10,1014.4,2.2,93,9,12000,11.112,,,310,,,,,,,,,,21,wg-a,,,,AAXX 08004 07434 02262 83106 10100 20090 39668 40144 51022 60026 72162 877// 90000 333 61000=
07434,1996-07-08 03:00:00,9,1016.4,1.7,93,8,12000,11.112,,,320,,,,,,,,,,,wg-a,,,,AAXX 08034 07434 12362 33206 10090 20080 39685 40164 53017 60006 83601 90300=
07434,1996-07-08 06:00:00,9,1019.5,2.9,93,8,2500,3.704,,,330,7.6,10.1,,,,,17,,,10,wg-a,,,,AAXX 08064 07434 12225 /3302 10090 20080 39714 40195 53029 60174 71011 81130 90600 333 10101 20076=
07434,1996-07-08 09:00:00,13,1021.3,2.5,77,9,20000,11.112,,,310,,,,,,,,,,,wg-a,,,,AAXX 08094 07434 12470 /3106 10130 20090 39739 40213 51025 60006 85200 90900=
07434,1996-07-08 12:00:00,16,1022.4,1.5,59,8,500,14.816,,,300,,,,,,,,,,,wg-a,,,,AAXX 08124 07434 12500 53008 10160 20080 39754 40224 51015 60006 8/800 91200=
07434,1996-07-08 15:00:00,17,1022.9,0.6,59,9,500,14.816,,,300,,,,0,,,,,,1,wg-a,,,,AAXX 08154 07434 12600 63008 10170 20090 39760 40229 51006 60007 70186 85830 91500=
07434,1996-07-08 18:00:00,18,1023.4,0.6,49,7,35000,18.52,,,310,8.5,18.5,,,,,,,,1,wg-a,,,,AAXX 08184 07434 32681 /3110 10180 20070 39766 40234 53006 70186 86800 91800 333 10185 20085=
07434,1996-07-08 21:00:00,14,1025.9,1.8,77,10,35000,11.112,,,280,,,,,,,,,,,wg-a,,,,AAXX 08214 07434 12781 42806 10140 20100 39784 40259 53018 60006 84500 92100=
07434,1996-07-09 00:00:00,12,1027.1,0.9,88,10,25000,7.408,,,300,,,,,,,,,,25,wg-a,,,,AAXX 09004 07434 02675 /3004 10120 20100 39793 40271 51009 61000 72586 85800 90000 333 6100=
07434,1996-07-09 03:00:00,10,1027.5,0,93,9,20000,11.112,,,290,,,,,,,,,,,wg-a,,,,AAXX 09034 07434 12770 42906 10100 20090 39793 40275 50000 60006 84500 90300=
07434,1996-07-09 06:00:00,10,1028.4,0.8,93,9,600,11.112,,,290,9.1,17.9,,,,,,,,42,wg-a,,,,AAXX 09064 07434 12106 92906 10100 20090 39801 40284 52008 60004 74241 895// 90600 333 10179 20091=
07434,1996-07-09 09:00:00,14,1028.5,0.8,82,11,10000,7.408,,,270,,,,,,,,,,1,wg-a,,,,AAXX 09094 07434 12460 42704 10140 20110 39809 40285 51008 60006 70141 84800 90900=
07434,1996-07-09 12:00:00,18,1027.6,-0.2,56,9,500,14.816,,,280,,,,,,,,,,1,wg-a,,,,AAXX 09124 07434 12600 /2808 10180 20090 39807 40276 58002 60006 70141 85200 91200=
07434,1996-07-09 15:00:00,19,1026.9,-0.5,52,9,40000,11.112,,,270,,,,,,,,,,,wg-a,,,,AAXX 09154 07434 12682 /2706 10190 20090 39802 40269 56005 60006 85200 91500=
07434,1996-07-09 18:00:00,18,1026.6,-0.4,56,9,40000,7.408,,,300,9.6,19.7,,,,,,,,,wg-a,,,,AAXX 09184 07434 12682 /3004 10180 20090 39798 40266 57004 60006 85200 91800 333 10197 20096=
07434,1996-07-09 21:00:00,14,1027.5,0.2,77,10,25000,3.704,,,300,,,,,,,,,,,wg-a,,,,AAXX 09214 07434 12775 13002 10140 20100 39800 40275 53002 60006 81501 92100=
07434,1996-07-10 00:00:00,13,1027.8,0,88,11,20000,7.408,,,280,,,,,,,,,,,wg-a,,,,AAXX 10004 07434 12670 72804 10130 20110 39800 40278 50000 60006 875// 90000=
07434,1996-07-10 03:00:00,12,1026.8,-0.9,94,11,15000,3.704,,,300,,,,,,,,,,,wg-a,,,,AAXX 10034 07434 12365 73002 10120 20110 39791 40268 56009 60006 875// 90300=
07434,1996-07-10 06:00:00,13,1026.9,0.1,94,12,1000,11.112,,,210,12.2,18.5,,1,,,2,,,10,wg-a,,,,AAXX 10064 07434 02/10 /2106 10130 20120 39792 40269 51001 60024 710// 90600 333 10185 20122 60017=
07434,1996-07-10 09:00:00,14,1026.8,0.2,100,14,400,11.112,,,280,,,,1,,,,,,51,wg-a,,,,AAXX 10094 07434 12104 82806 10140 20140 39794 40268 51002 60017 75155 887// 90900=
07434,1996-07-10 12:00:00,16,1025.7,-0.7,88,14,20000,11.112,,,290,,,,0,,,,,,1,wg-a,,,,AAXX 10124 07434 02370 82906 10160 20140 39787 40257 58007 60016 70186 878// 91200 333 60007=
07434,1996-07-10 15:00:00,18,1025.2,-0.3,73,13,500,11.112,,,320,,,,,,,,,,,wg-a,,,,AAXX 10154 07434 12400 73206 10180 20130 39784 40252 57003 60006 878// 91500=
07434,1996-07-10 18:00:00,17,1025.1,-0.2,77,13,11000,7.408,,,350,12.7,18,,,,,,,,,wg-a,,,,AAXX 10184 07434 32/61 /3504 10170 20130 39782 40251 55002 91800 333 10180 20127=
07434,1996-07-10 21:00:00,14,1025.6,0.1,88,12,20000,11.112,,,340,,,,,,,,,,,wg-a,,,,AAXX 10214 07434 12670 33406 10140 20120 39783 40256 53001 60006 83500 92100=
07434,1996-07-11 00:00:00,15,1025.3,-0.3,82,12,20000,7.408,,,340,,,,,,,,,,,wg-a,,,,AAXX 11004 07434 12670 /3404 10150 20120 39780 40253 56003 60006 85500 90000=
07434,1996-07-11 03:00:00,12,1024.8,-0.9,94,11,10000,3.704,,,330,,,,,,,,,,,wg-a,,,,AAXX 11034 07434 12/60 03302 10120 20110 39771 40248 58009 60006 80000 90300=
07434,1996-07-11 06:00:00,13,1024.7,0.1,94,12,3000,3.704,,,20,11.4,16.8,,,,,1,,,10,wg-a,,,,AAXX 11064 07434 02/30 00202 10130 20120 39772 40247 51001 60006 71011 80000 90600 333 10168 20114 60014=
07434,1996-07-11 09:00:00,19,1023.8,0,64,12,15000,7.408,,,100,,,,,,,,,,,wg-a,,,,AAXX 11094 07434 12565 21004 10190 20120 39772 40238 50000 60006 82200 90900=
07434,1996-07-11 12:00:00,21,1022.5,-0.8,56,12,20000,14.816,,,20,,,,0,,,,,,,wg-a,,,,AAXX 11124 07434 02670 30208 10210 20120 39764 40225 58008 60006 83100 91200 333 60007=
07434,1996-07-11 18:00:00,22,1021.1,-0.4,57,13,20000,7.408,,,30,13.2,22.8,,,,,,,,,wg-a,,,,AAXX 11184 07434 32670 40304 10220 20130 39751 40211 56004 84500 91800 333 10228 20132=
07434,1996-07-11 21:00:00,18,1021.9,0.3,68,12,12000,3.704,,,180,,,,,,,,,,,wg-a,,,,AAXX 11214 07434 12662 21802 10180 20120 39754 40219 53003 60006 82500 92100=
07434,1996-07-12 00:00:00,17,1021.5,-0.6,77,13,12000,11.112,,,280,,,,,,,,,,,wg-a,,,,AAXX 12004 07434 12762 22806 10170 20130 39748 40215 58006 60006 82500 90000=
07434,1996-07-12 03:00:00,14,1021,-0.9,94,13,12000,0,,,0,,,,,,,,,,,wg-a,,,,AAXX 12034 07434 12762 20000 10140 20130 39739 40210 58009 60006 82500 90300=
07434,1996-07-12 06:00:00,15,1021.1,0.2,94,14,3000,3.704,,,50,13.7,21.6,,,,,,,,,wg-a,,,,AAXX 12064 07434 02/30 /0502 10150 20140 39741 40211 53002 60006 90600 333 10216 20137 60004=
07434,1996-07-12 09:00:00,20,1020.9,0.6,73,15,7000,7.408,,,290,,,,,,,,,,,wg-a,,,,AAXX 12094 07434 12457 22904 10200 20150 39747 40209 52006 60006 82801 90900=
07434,1996-07-12 12:00:00,22,1020.1,-0.4,73,17,20000,14.816,,,280,,,,,,,,,,,wg-a,,,,AAXX 12124 07434 12570 52808 10220 20170 39743 40201 58004 60006 85801 91200=
07434,1996-07-12 15:00:00,22,1019.6,-0.5,65,15,20000,14.816,,,300,,,,,,,,,,,wg-a,,,,AAXX 12154 07434 12670 53008 10220 20150 39738 40196 56005 60006 85202 91500=
07434,1996-07-12 18:00:00,21,1019.7,-0,64,14,25000,11.112,,,290,14.9,23.3,,,,,,,,,wg-a,,,,AAXX 12184 07434 12675 52906 10210 20140 39738 40197 55000 60006 82231 91800 333 10233 20149=
07434,1996-07-12 21:00:00,19,1021.1,0.9,78,15,15000,7.408,,,280,,,,,,,,,,,wg-a,,,,AAXX 12214 07434 12/65 62804 10190 20150 39747 40211 53009 60006 84031 92100=
07434,1996-07-13 00:00:00,16,1021.7,0.1,77,12,15000,7.408,,,340,,,,,,,,,,,wg-a,,,,AAXX 13004 07434 12/65 23404 10160 20120 39748 40217 51001 60006 82030 90000=
07434,1996-07-13 06:00:00,16,1021.8,0.7,82,13,15000,3.704,,,60,14.5,21.4,,,,,,,,,wg-a,,,,AAXX 13064 07434 02/65 40602 10160 20130 39750 40218 53007 60006 81031 90600 333 10214 20145 60004=
07434,1996-07-13 12:00:00,23,1022.1,0.4,53,13,40000,3.704,,,310,,,,,,,,,,,wg-a,,,,AAXX 13124 07434 12682 /3102 10230 20130 39763 40221 51004 60006 83132 91200=
07434,1996-07-13 15:00:00,24,1021.8,-0.2,54,14,40000,7.408,,,280,,,,,,,,,,,wg-a,,,,AAXX 13154 07434 12682 /2804 10240 20140 39761 40218 57002 60006 85100 91500=
07434,1996-07-13 18:00:00,24,1021.9,0.1,54,14,40000,7.408,,,10,16.5,24.7,,,,,,,,,wg-a,,,,AAXX 13184 07434 12782 20104 10240 20140 39762 40219 53001 60006 81501 91800 333 10247 20165=
07434,1996-07-14 00:00:00,19,1024.3,0.5,64,12,15000,11.112,,,30,,,,,,,,,,,wg-a,,,,AAXX 14004 07434 12/65 10306 10190 20120 39778 40243 50005 60006 80001 90000=
07434,1996-07-14 06:00:00,20,1024.7,0.7,64,13,15000,7.408,,,50,18.5,24,,,,,,,,,wg-a,,,,AAXX 14064 07434 02/65 10504 10200 20130 39783 40247 53007 60006 80001 90600 333 10240 20185 60004=
07434,1996-07-14 09:00:00,24,1024.8,0.8,54,14,20000,11.112,,,60,,,,,,,,,,,wg-a,,,,AAXX 14094 07434 12670 /0606 10240 20140 39791 40248 51008 60006 81100 90900=
07434,1996-07-14 12:00:00,26,1024.2,-0.4,51,15,500,7.408,,,310,,,,,,,,,,,wg-a,,,,AAXX 14124 07434 12600 33104 10260 20150 39787 40242 58004 60006 83100 91200=
07434,1996-07-14 15:00:00,28,1022.8,-1,45,15,40000,7.408,,,340,,,,,,,,,,,wg-a,,,,AAXX 14154 07434 12782 43404 10280 20150 39777 40228 57010 60006 83201 91500=
07434,1996-07-14 18:00:00,27,1022.5,-0.4,54,17,40000,11.112,,,360,19.9,28.4,,,,,,,,,wg-a,,,,AAXX 14184 07434 12782 53606 10270 20170 39773 40225 56004 60006 83201 91800 333 10284 20199=
07434,1996-07-14 21:00:00,23,1023.4,0.3,57,14,40000,11.112,,,20,,,,,,,,,,,wg-a,,,,AAXX 14214 07434 12/82 50206 10230 20140 39776 40234 53003 60006 80001 92100=
07434,1996-07-15 00:00:00,21,1023.4,-0.4,60,13,40000,11.112,,,40,,,,,,,,,,,wg-a,,,,AAXX 15004 07434 12/82 30406 10210 20130 39772 40234 58004 60006 80001 90000=
07434,1996-07-15 03:00:00,20,1022.9,-0.7,64,13,40000,11.112,,,50,,,,,,,,,,,wg-a,,,,AAXX 15034 07434 12/82 00506 10200 20130 39765 40229 56007 60006 80000 90300=
07434,1996-07-15 06:00:00,20,1023.1,0.3,68,14,40000,7.408,,,50,18.8,26.8,,,,,,,,,wg-a,,,,AAXX 15064 07434 02/82 10504 10200 20140 39768 40231 53003 60006 80001 90600 333 10268 20188 60004=
07434,1996-07-15 09:00:00,25,1022.3,0,57,16,40000,11.112,,,30,,,,,,,,,,,wg-a,,,,AAXX 15094 07434 12682 /0306 10250 20160 39768 40223 50000 60006 81101 90900=
07434,1996-07-15 12:00:00,26,1021.2,-0.8,54,16,40000,14.816,,,20,,,,,,,,,,,wg-a,,,,AAXX 15124 07434 12682 /0208 10260 20160 39760 40212 58008 60006 81101 91200=
07434,1996-07-15 15:00:00,27,1020.6,-0.5,51,16,500,18.52,,,40,,,,,,,,,,,wg-a,,,,AAXX 15154 07434 12600 20410 10270 20160 39755 40206 58005 60006 82200 91500=
07434,1996-07-15 18:00:00,26,1020,-0.8,51,15,40000,18.52,,,40,20,27.6,,,,,,,,,wg-a,,,,AAXX 15184 07434 12/82 00410 10260 20150 39747 40200 57008 60006 80000 91800 333 10276 20200=
07434,1996-07-15 21:00:00,22,1021.5,0.9,69,16,25000,14.816,,,30,,,,,,,,,,,wg-a,,,,AAXX 15214 07434 12/75 00308 10220 20160 39756 40215 53009 60006 80000 92100=
07434,1996-07-16 00:00:00,20,1021.6,-0.2,78,16,25000,25.928,,,60,,,,,,,,,,,wg-a,,,,AAXX 16004 07434 12/75 00614 10200 20160 39754 40216 58002 60006 80000 90000=
07434,1996-07-16 03:00:00,18,1021.1,-0.8,83,15,20000,18.52,,,60,,,,,,,,,,,wg-a,,,,AAXX 16034 07434 12/70 00610 10180 20150 39746 40211 57008 60006 80000 90300=
07434,1996-07-16 06:00:00,19,1020.9,-0.1,83,16,8000,22.224,,,70,17.7,25.8,,,,,,,,,wg-a,,,,AAXX 16064 07434 02/58 00712 10190 20160 39745 40209 57001 60006 80000 90600 333 10258 20177 60004=
07434,1996-07-16 09:00:00,24,1020.4,0.3,61,16,10000,22.224,,,70,,,,,,,,,,,wg-a,,,,AAXX 16094 07434 12/60 00712 10240 20160 39748 40204 51003 60006 80000 90900=
07434,1996-07-16 12:00:00,27,1019.4,-0.4,51,16,20000,25.928,,,60,,,,,,,,,,,wg-a,,,,AAXX 16124 07434 12670 /0614 10270 20160 39744 40194 58004 60006 81200 91200=
07434,1996-07-16 15:00:00,28,1018.3,-0.9,55,18,20000,25.928,,,50,,,,,,,,,,,wg-a,,,,AAXX 16154 07434 12770 10514 10280 20180 39735 40183 58009 60006 81100 91500=
07434,1996-07-16 18:00:00,26,1018.1,-0.6,54,16,20000,22.224,,,50,18.5,28.1,,,,,,,,,wg-a,,,,AAXX 16184 07434 12/70 00512 10260 20160 39729 40181 56006 60006 80000 91800 333 10281 20185=
07434,1996-07-16 21:00:00,22,1019.5,0.8,65,15,15000,18.52,,,50,,,,,,,,,,,wg-a,,,,AAXX 16214 07434 12/65 00510 10220 20150 39737 40195 52008 60006 80000 92100=
07434,1996-07-17 00:00:00,20,1019.2,-0.7,60,12,15000,18.52,,,70,,,,,,,,,,,wg-a,,,,AAXX 17004 07434 12/65 00710 10200 20120 39730 40192 58007 60006 80000 90000=
07434,1996-07-17 06:00:00,18,1018.8,0.3,77,14,10000,18.52,,,50,17,25.6,,,,,,,,,wg-a,,,,AAXX 17064 07434 02/60 60510 10180 20140 39724 40188 53003 60006 80001 90600 333 10256 20170 60004=
07434,1996-07-17 09:00:00,23,1018,-0,50,12,500,25.928,,,80,,,,,,,,,,,wg-a,,,,AAXX 17094 07434 12/00 30814 10230 20120 39724 40180 55000 60006 80001 90900=
07434,1996-07-17 12:00:00,26,1017.5,-0.1,42,12,40000,18.52,,,80,,,,,,,,,,,wg-a,,,,AAXX 17124 07434 12/82 10810 10260 20120 39723 40175 58001 60006 80001 91200=
07434,1996-07-17 15:00:00,26,1016.8,-0.6,42,12,60000,22.224,,,50,,,,,,,,,,,wg-a,,,,AAXX 17154 07434 12786 10512 10260 20120 39717 40168 58006 60006 81100 91500=
07434,1996-07-17 18:00:00,25,1016.3,-0.7,44,12,60000,22.224,,,60,18.3,26.5,,,,,,,,,wg-a,,,,AAXX 17184 07434 12/86 00612 10250 20120 39710 40163 57007 60006 80000 91800 333 10265 20183=
07434,1996-07-17 21:00:00,21,1018.1,1.1,43,8,15000,18.52,,,50,,,,,,,,,,,wg-a,,,,AAXX 17214 07434 12/65 00510 10210 20080 39721 40181 53011 60006 80000 92100=
07434,1996-07-18 00:00:00,18,1018.4,-0.1,56,9,10000,18.52,,,60,,,,,,,,,,,wg-a,,,,AAXX 18004 07434 12/60 /0610 10180 20090 39720 40184 57001 60006 90000=
07434,1996-07-18 03:00:00,17,1018.2,-0.5,63,10,15000,25.928,,,70,,,,,,,,,,,wg-a,,,,AAXX 18034 07434 12/65 00714 10170 20100 39715 40182 56005 60006 80000 90300=
07434,1996-07-18 06:00:00,18,1018.2,0.2,56,9,10000,25.928,,,70,15.5,25,,,,,,,,,wg-a,,,,AAXX 18064 07434 02/60 /0714 10180 20090 39717 40182 53002 60006 90600 333 10250 20155 60004=
07434,1996-07-18 09:00:00,23,1018.3,0.9,38,8,40000,25.928,,,70,,,,,,,,,,,wg-a,,,,AAXX 18094 07434 12/82 00714 10230 20080 39726 40183 51009 60006 80000 90900=
07434,1996-07-18 15:00:00,27,1017.8,0,32,9,60000,22.224,,,50,,,,,,,,,,,wg-a,,,,AAXX 18154 07434 12/86 40512 10270 20090 39727 40178 50000 60006 80001 91500=
07434,1996-07-18 18:00:00,25,1018.1,0.1,36,9,60000,22.224,,,50,17.9,27.7,,,,,,,,,wg-a,,,,AAXX 18184 07434 12/86 20512 10250 20090 39728 40181 53001 60006 80001 91800 333 10277 20179=
07434,1996-07-18 21:00:00,21,1019.6,0.8,46,9,40000,14.816,,,50,,,,,,,,,,,wg-a,,,,AAXX 18214 07434 12/82 00508 10210 20090 39736 40196 51008 60006 80000 92100=
07434,1996-07-19 00:00:00,19,1020.3,0.2,40,5,25000,18.52,,,80,,,,,,,,,,,wg-a,,,,AAXX 19004 07434 12/75 00810 10190 20050 39738 40203 50002 60006 80000 90000=
07434,1996-07-19 03:00:00,16,1020.4,-0.3,48,5,15000,18.52,,,70,,,,,,,,,,,wg-a,,,,AAXX 19034 07434 12/65 00710 10160 20050 39735 40204 55003 60006 80000 90300=
07434,1996-07-19 06:00:00,18,1021,0.8,49,7,500,14.816,,,60,15.6,25.4,,,,,,,,,wg-a,,,,AAXX 19064 07434 02/00 10608 10180 20070 39743 40210 52008 60006 80001 90600 333 10254 20156 60004=
07434,1996-07-19 09:00:00,23,1020.5,0.3,36,7,500,22.224,,,70,,,,,,,,,,,wg-a,,,,AAXX 19094 07434 12/00 10712 10230 20070 39746 40205 53003 60006 80001 90900=
07434,1996-07-19 12:00:00,26,1019.8,-0.2,30,7,40000,18.52,,,60,,,,,,,,,,,wg-a,,,,AAXX 19124 07434 12/82 10610 10260 20070 39744 40198 58002 60006 80002 91200=
07434,1996-07-19 15:00:00,27,1019.3,-0.4,23,4,40000,18.52,,,60,,,,,,,,,,,wg-a,,,,AAXX 19154 07434 12/82 10610 10270 20040 39740 40193 56004 60006 80002 91500=
07434,1996-07-19 18:00:00,25,1019.2,-0.2,39,10,45000,11.112,,,40,17.7,26.9,,,,,,,,,wg-a,,,,AAXX 19184 07434 12/83 10406 10250 20100 39738 40192 55002 60006 80002 91800 333 10269 20177=
07434,1996-07-19 21:00:00,21,1020.3,0.3,40,7,500,14.816,,,50,,,,,,,,,,,wg-a,,,,AAXX 19214 07434 12/00 10508 10210 20070 39741 40203 51003 60006 80002 92100=
07434,1996-07-20 00:00:00,19,1020.6,0,43,6,25000,14.816,,,50,,,,,,,,,,,wg-a,,,,AAXX 20004 07434 12/75 00508 10190 20060 39741 40206 50000 60006 80000 90000=
07434,1996-07-20 03:00:00,17,1020.2,-0.7,48,6,15000,11.112,,,60,,,,,,,,,,,wg-a,,,,AAXX 20034 07434 12/65 00606 10170 20060 39734 40202 56007 60006 80000 90300=
07434,1996-07-20 06:00:00,18,1020.7,0.6,49,7,60000,7.408,,,50,16.8,25,,,,,,,,,wg-a,,,,AAXX 20064 07434 02/86 10504 10180 20070 39740 40207 53006 60006 81030 90600 333 10250 20168 60004=
07434,1996-07-20 15:00:00,27,1019.5,-0.3,24,5,60000,18.52,,,50,,,,,,,,,,,wg-a,,,,AAXX 20154 07434 12/86 10510 10270 20050 39742 40195 57003 60006 80001 91500=
07434,1996-07-20 18:00:00,25,1019.6,-0.1,30,6,60000,14.816,,,40,17.5,26.7,,,,,,,,,wg-a,,,,AAXX 20184 07434 12/86 10408 10250 20060 39741 40196 55001 60006 80001 91800 333 10267 20175=
07434,1996-07-20 21:00:00,21,1020.8,0.5,43,8,40000,11.112,,,50,,,,,,,,,,,wg-a,,,,AAXX 20214 07434 12/82 10506 10210 20080 39746 40208 53005 60006 80001 92100=
07434,1996-07-21 00:00:00,19,1021.2,0.1,52,9,40000,7.408,,,60,,,,,,,,,,,wg-a,,,,AAXX 21004 07434 12/82 10604 10190 20090 39747 40212 53001 60006 80001 90000=
07434,1996-07-21 03:00:00,16,1021,-0.6,63,9,40000,7.408,,,60,,,,,,,,,,,wg-a,,,,AAXX 21034 07434 12/82 10604 10160 20090 39741 40210 56006 60006 80001 90300=
07434,1996-07-21 06:00:00,18,1020.9,0.2,56,9,60000,11.112,,,60,15.6,25.1,,,,,,,,,wg-a,,,,AAXX 21064 07434 02/86 10606 10180 20090 39743 40209 53002 60006 80001 90600 333 10251 20156 60004=
07434,1996-07-21 09:00:00,23,1020.5,0.4,36,7,60000,11.112,,,100,,,,,,,,,,,wg-a,,,,AAXX 21094 07434 12/86 11006 10230 20070 39747 40205 50004 60006 80001 90900=
07434,1996-07-21 12:00:00,27,1019.2,-0.7,23,4,75000,14.816,,,80,,,,,,,,,,,wg-a,,,,AAXX 21124 07434 12/89 10808 10270 20040 39740 40192 56007 60006 80001 91200=
07434,1996-07-22 06:00:00,19,1017.2,-0.1,56,10,20000,14.816,,,110,17.2,26.7,,,,,,,,,wg-a,,,,AAXX 22064 07434 02/70 01108 10190 20100 39710 40172 56001 60006 80000 90600 333 10267 20172 60004=
07434,1996-07-22 09:00:00,25,1015.9,-0.4,41,11,500,14.816,,,140,,,,,,,,,,,wg-a,,,,AAXX 22094 07434 12/00 01408 10250 20110 39706 40159 58004 60006 80000 90900=
07434,1996-07-22 12:00:00,30,1013.9,-1.2,27,9,500,18.52,,,160,,,,,,,,,,,wg-a,,,,AAXX 22124 07434 12/00 01610 10300 20090 39694 40139 57012 60006 80000 91200=
07434,1996-07-22 15:00:00,31,1012.7,-1,31,12,20000,22.224,,,200,,,,,,,,,,,wg-a,,,,AAXX 22154 07434 12/70 02012 10310 20120 39684 40127 56010 60006 80000 91500=
07434,1996-07-22 18:00:00,30,1012.3,-0.5,38,14,20000,18.52,,,170,19.3,31.3,,,,,,,,,wg-a,,,,AAXX 22184 07434 12/70 01710 10300 20140 39679 40123 56005 60006 80000 91800 333 10313 20193=
07434,1996-07-23 00:00:00,22,1015.5,0.5,50,11,15000,14.816,,,170,,,,,,,,,,,wg-a,,,,AAXX 23004 07434 12/65 01708 10220 20110 39697 40155 51005 60006 80000 90000=
07434,1996-07-23 03:00:00,19,1016.2,0.3,56,10,15000,14.816,,,170,,,,,,,,,,,wg-a,,,,AAXX 23034 07434 12/65 01708 10190 20100 39700 40162 50003 60006 80000 90300=
07434,1996-07-23 06:00:00,19,1016.1,-0.1,73,14,10000,18.52,,,190,18.2,29.9,,,,,,,,,wg-a,,,,AAXX 23064 07434 02460 71910 10190 20140 39699 40161 58001 60006 875// 90600 333 10299 20182 60004=
07434,1996-07-23 09:00:00,18,1016.6,0.4,94,17,1000,14.816,,,180,,,,,,,,,,10,wg-a,,,,AAXX 23094 07434 02210 71808 10180 20170 39703 40166 50004 61000 71086 877// 90900 333 ////=
07434,1996-07-23 12:00:00,19,1016.6,0.2,94,18,3000,14.816,,,190,,,,0,,,,,,10,wg-a,,,,AAXX 23124 07434 02230 71908 10190 20180 39705 40166 53002 60016 71086 877// 91200 333 60007=
07434,1996-07-23 15:00:00,21,1016,-0.3,88,19,500,14.816,,,240,,,,,,,,,,10,wg-a,,,,AAXX 23154 07434 02300 72408 10210 20190 39702 40160 55003 61000 71052 878// 91500 333 ////=
07434,1996-07-23 18:00:00,23,1015.3,-0.4,73,18,10000,14.816,,,240,17.6,23,,,,,,,,1,wg-a,,,,AAXX 23184 07434 32560 /2408 10230 20180 39698 40153 55004 70152 82231 91800 333 10230 20176=
07434,1996-07-23 21:00:00,20,1016.2,0.5,83,17,9000,7.408,,,270,,,,,,,,,,,wg-a,,,,AAXX 23214 07434 12559 72704 10200 20170 39703 40162 53005 60006 8553/ 92100=
07434,1996-07-24 00:00:00,17,1016.8,0.1,88,15,9000,7.408,,,310,,,,0,,,,,,17,wg-a,,,,AAXX 24004 07434 02359 73104 10170 20150 39704 40168 53001 60016 71798 8497/ 90000 333 60007=
07434,1996-07-24 03:00:00,14,1017.3,0,94,13,9000,7.408,,,300,,,,,,,,,,2,wg-a,,,,AAXX 24034 07434 12559 53004 10140 20130 39704 40173 50000 60006 70292 83530 90300=
07434,1996-07-24 06:00:00,15,1017.8,0.5,88,13,7000,3.704,,,360,13.4,22.8,,,,,1,,,1,wg-a,,,,AAXX 24064 07434 12557 33602 10150 20130 39709 40178 53005 60014 70198 81201 90600 333 10228 20134=
07434,1996-07-24 12:00:00,22,1017.2,0.3,57,13,40000,7.408,,,310,,,,,,,,,,,wg-a,,,,AAXX 24124 07434 12682 33104 10220 20130 39715 40172 50003 60006 81101 91200=
07434,1996-07-24 15:00:00,24,1016.9,-0.1,44,11,50000,11.112,,,340,,,,,,,,,,,wg-a,,,,AAXX 24154 07434 12684 33406 10240 20110 39714 40169 55001 60006 81101 91500=
07434,1996-07-24 18:00:00,23,1016.5,-0.5,47,11,50000,7.408,,,10,14.6,24.5,,,,,,,,,wg-a,,,,AAXX 24184 07434 12/84 10104 10230 20110 39709 40165 58005 60006 80001 91800 333 10245 20146=
07434,1996-07-24 21:00:00,20,1018.5,1.4,53,10,40000,11.112,,,360,,,,,,,,,,,wg-a,,,,AAXX 24214 07434 12/82 33606 10200 20100 39723 40185 53014 60006 81031 92100=
07434,1996-07-25 00:00:00,19,1018.9,0.2,56,10,40000,14.816,,,20,,,,,,,,,,,wg-a,,,,AAXX 25004 07434 12/82 40208 10190 20100 39725 40189 50002 60006 82031 90000=
07434,1996-07-25 03:00:00,16,1019.4,0.1,68,10,500,11.112,,,40,,,,,,,,,,,wg-a,,,,AAXX 25034 07434 12/00 40406 10160 20100 39726 40194 50001 60006 82031 90300=
07434,1996-07-25 06:00:00,17,1019.1,-0.2,68,11,500,11.112,,,50,15.1,23.2,,,,,,,,,wg-a,,,,AAXX 25064 07434 02/00 30506 10170 20110 39724 40191 56002 60006 82032 90600 333 10232 20151 60004=
07434,1996-07-25 09:00:00,22,1019,0.7,50,11,500,18.52,,,80,,,,,,,,,,,wg-a,,,,AAXX 25094 07434 12/00 30810 10220 20110 39731 40190 51007 60006 82032 90900=
07434,1996-07-25 12:00:00,25,1018.6,0,41,11,40000,14.816,,,50,,,,,,,,,,,wg-a,,,,AAXX 25124 07434 12/82 10508 10250 20110 39731 40186 50000 60006 80001 91200=
07434,1996-07-25 15:00:00,25,1015.4,-3,41,11,40000,25.928,,,60,,,,,,,,,,,wg-a,,,,AAXX 25154 07434 12/82 50614 10250 20110 39701 40154 58030 60006 80001 91500=
07434,1996-07-25 18:00:00,24,1014.8,-0.7,44,11,40000,29.632,,,70,16.5,25.7,,,,,,,,,wg-a,,,,AAXX 25184 07434 12/82 20716 10240 20110 39694 40148 57007 60006 80001 91800 333 10257 20165=
07434,1996-07-25 21:00:00,21,1017,1.6,46,9,20000,18.52,,,60,,,,,,,,,,,wg-a,,,,AAXX 25214 07434 12/70 70610 10210 20090 39710 40170 51016 60006 84082 92100=
07434,1996-07-26 00:00:00,20,1015.8,-1.2,49,9,20000,22.224,,,60,,,,,,,,,,,wg-a,,,,AAXX 26004 07434 12/70 70612 10200 20090 39698 40158 58012 60006 84082 90000=
07434,1996-07-26 03:00:00,19,1014.7,-1.3,52,9,20000,22.224,,,80,,,,,,,,,,,wg-a,,,,AAXX 26034 07434 12/70 30812 10190 20090 39685 40147 56013 60006 80001 90300=
07434,1996-07-26 06:00:00,19,1015.8,1,52,9,20000,22.224,,,80,17.6,23.7,,,,,,,,,wg-a,,,,AAXX 26064 07434 02/70 60812 10190 20090 39695 40158 51010 60006 82082 90600 333 10237 20176 60004=
07434,1996-07-26 09:00:00,22,1015.4,0.2,46,10,25000,18.52,,,60,,,,,,,,,,,wg-a,,,,AAXX 26094 07434 12/75 50610 10220 20100 39697 40154 51002 60006 80002 90900=
07434,1996-07-26 12:00:00,26,1014.4,-0.3,45,13,500,14.816,,,50,,,,,,,,,,,wg-a,,,,AAXX 26124 07434 12/00 40508 10260 20130 39694 40144 57003 60006 80002 91200=
07434,1996-07-26 15:00:00,27,1013.9,-0.3,42,13,500,18.52,,,40,,,,,,,,,,,wg-a,,,,AAXX 26154 07434 12600 /0410 10270 20130 39691 40139 56003 60006 81202 91500=
07434,1996-07-26 18:00:00,26,1014.1,-0.1,42,12,500,14.816,,,50,18.4,28.2,,,,,,,,,wg-a,,,,AAXX 26184 07434 12600 /0508 10260 20120 39690 40141 55001 60006 82282 91800 333 10282 20184=
07434,1996-07-26 21:00:00,23,1015,0.4,44,10,500,18.52,,,40,,,,,,,,,,,wg-a,,,,AAXX 26214 07434 12600 40410 10230 20100 39694 40150 53004 60006 82282 92100=
07434,1996-07-27 00:00:00,20,1015.6,0.2,56,11,500,18.52,,,10,,,,,,,,,,,wg-a,,,,AAXX 27004 07434 12600 60110 10200 20110 39696 40156 50002 60006 82582 90000=
07434,1996-07-27 03:00:00,19,1015,-0.7,60,11,500,14.816,,,20,,,,,,,,,,,wg-a,,,,AAXX 27034 07434 12600 60208 10190 20110 39689 40150 58007 60006 82582 90300=
07434,1996-07-27 06:00:00,19,1015.4,0.4,64,12,11000,22.224,,,30,17.9,25.7,,1,,,1,,,,wg-a,,,,AAXX 27064 07434 02/61 /0312 10190 20120 39693 40154 50004 60014 90600 333 10257 20179 60017=
07434,1996-07-27 09:00:00,20,1017,1.6,68,14,25000,11.112,,,280,,,,0,,,,,,29,wg-a,,,,AAXX 27094 07434 12675 /2806 10200 20140 39709 40170 53016 60007 72998 81982 90900=
07434,1996-07-27 12:00:00,25,1016.2,0,47,13,11000,14.816,,,10,,,,,,,,,,,wg-a,,,,AAXX 27124 07434 12/61 /0108 10250 20130 39709 40162 50000 60016 91200=
07434,1996-07-27 15:00:00,27,1014.9,-0.9,39,12,25000,11.112,,,10,,,,,,,,,,1,wg-a,,,,AAXX 27154 07434 12775 /0106 10270 20120 39700 40149 58009 60006 70192 82982 91500=
07434,1996-07-27 18:00:00,26,1015.7,0.6,39,11,20000,7.408,,,10,17,27.7,,,,,,,,3,wg-a,,,,AAXX 27184 07434 32770 /0104 10260 20110 39706 40157 53006 70392 81982 91800 333 10277 20170=
07434,1996-07-27 21:00:00,23,1017.3,1.1,44,10,15000,7.408,,,360,,,,,,,,,,,wg-a,,,,AAXX 27214 07434 12/65 63604 10230 20100 39717 40173 53011 60006 84082 92100=
07434,1996-07-28 00:00:00,19,1018.2,0.3,64,12,15000,7.408,,,350,,,,,,,,,,,wg-a,,,,AAXX 28004 07434 12/65 53504 10190 20120 39720 40182 50003 60006 83082 90000=
07434,1996-07-28 03:00:00,16,1018.3,-0.4,88,14,15000,3.704,,,20,,,,,,,,,,,wg-a,,,,AAXX 28034 07434 12/65 40202 10160 20140 39716 40183 58004 60006 81082 90300=
07434,1996-07-28 06:00:00,16,1019.4,1,88,14,15000,11.112,,,340,15.2,26.3,,,,,,,,,wg-a,,,,AAXX 28064 07434 02/65 23406 10160 20140 39726 40194 51010 60006 80001 90600 333 10263 20152 60004=
07434,1996-07-28 09:00:00,21,1019.5,0.9,69,15,20000,11.112,,,280,,,,,,,,,,,wg-a,,,,AAXX 28094 07434 12570 /2806 10210 20150 39735 40195 51009 60006 81100 90900=
07434,1996-07-28 12:00:00,24,1019,-0.1,50,13,50000,14.816,,,280,,,,,,,,,,,wg-a,,,,AAXX 28124 07434 12684 42808 10240 20130 39734 40190 58001 60006 84200 91200=
07434,1996-07-28 15:00:00,25,1018.3,-0.5,44,12,50000,7.408,,,280,,,,,,,,,,,wg-a,,,,AAXX 28154 07434 12784 42804 10250 20120 39729 40183 57005 60006 84100 91500=
07434,1996-07-28 18:00:00,25,1017.2,-1.1,47,13,50000,14.816,,,280,16,26,,,,,,,,,wg-a,,,,AAXX 28184 07434 12784 22808 10250 20130 39718 40172 56011 60006 82100 91800 333 10260 20160=
07434,1996-07-28 21:00:00,21,1018.9,1.1,64,14,40000,3.704,,,270,,,,,,,,,,,wg-a,,,,AAXX 28214 07434 12782 32702 10210 20140 39729 40189 51011 60006 83500 92100=
07434,1996-07-29 00:00:00,17,1019.4,-0.2,77,13,40000,11.112,,,300,,,,,,,,,,,wg-a,,,,AAXX 29004 07434 12/82 03006 10170 20130 39727 40194 57002 60006 80000 90000=
07434,1996-07-29 03:00:00,15,1018.1,-1.4,88,13,20000,0,,,0,,,,,,,,,,,wg-a,,,,AAXX 29034 07434 12/70 00000 10150 20130 39713 40181 56014 60006 80000 90300=
07434,1996-07-29 06:00:00,15,1018.5,0.4,88,13,25000,3.704,,,90,14.7,24.6,,,,,,,,,wg-a,,,,AAXX 29064 07434 02/75 10902 10150 20130 39717 40185 51004 60006 80001 90600 333 10246 20147 60004=
07434,1996-07-29 09:00:00,21,1017.7,0.1,64,14,500,11.112,,,220,,,,,,,,,,,wg-a,,,,AAXX 29094 07434 12600 52206 10210 20140 39718 40177 50001 60006 83831 90900=
07434,1996-07-29 12:00:00,23,1016.8,-0.5,57,14,20000,14.816,,,250,,,,,,,,,,,wg-a,,,,AAXX 29124 07434 12570 52508 10230 20140 39713 40168 58005 60006 85800 91200=
07434,1996-07-29 15:00:00,24,1016,-0.8,54,14,20000,14.816,,,270,,,,,,,,,,,wg-a,,,,AAXX 29154 07434 12670 /2708 10240 20140 39705 40160 57008 60006 83801 91500=
07434,1996-07-29 18:00:00,22,1015.7,-0.5,57,13,11000,11.112,,,260,15.4,24.1,,,,,,,,,wg-a,,,,AAXX 29184 07434 12/61 /2606 10220 20130 39700 40157 56005 60006 91800 333 10241 20154=
07434,1996-07-29 21:00:00,18,1017.7,1.3,73,13,500,11.112,,,290,,,,,,,,,,,wg-a,,,,AAXX 29214 07434 12/00 22906 10180 20130 39713 40177 53013 60006 80002 92100=
07434,1996-07-30 00:00:00,15,1019.2,1,82,12,0,7.408,,,300,,,,,,,,,,,wg-a,,,,AAXX 30004 07434 12/// /3004 10150 20120 39723 40192 51010 60006 90000=
07434,1996-07-30 03:00:00,14,1019,-0.4,94,13,500,7.408,,,300,,,,,,,,,,,wg-a,,,,AAXX 30034 07434 12100 83004 10140 20130 39719 40190 56004 60006 886// 90300=
07434,1996-07-30 06:00:00,14,1019.7,0.8,100,14,12000,3.704,,,270,13.7,22.1,,,,,,,,,wg-a,,,,AAXX 30064 07434 02262 82702 10140 20140 39727 40197 52008 60006 876// 90600 333 10221 20137 60004=
07434,1996-07-30 09:00:00,18,1019.7,0.5,73,13,15000,11.112,,,270,,,,,,,,,,,wg-a,,,,AAXX 30094 07434 12465 72706 10180 20130 39732 40197 51005 60006 878// 90900=
07434,1996-07-30 12:00:00,19,1019.8,0.3,68,13,25000,14.816,,,270,,,,,,,,,,,wg-a,,,,AAXX 30124 07434 12575 72708 10190 20130 39735 40198 52003 60006 878// 91200=
07434,1996-07-30 15:00:00,21,1019.7,0.1,60,13,50000,7.408,,,290,,,,,,,,,,,wg-a,,,,AAXX 30154 07434 12684 72904 10210 20130 39736 40197 52001 60006 878// 91500=
07434,1996-07-30 18:00:00,21,1019.5,-0.2,56,12,50000,3.704,,,320,14.4,22.3,,,,,,,,,wg-a,,,,AAXX 30184 07434 12684 53202 10210 20120 39734 40195 56002 60006 85800 91800 333 10223 20144=
07434,1996-07-30 21:00:00,17,1020.6,0.5,72,12,40000,7.408,,,310,,,,,,,,,,,wg-a,,,,AAXX 30214 07434 12782 23104 10170 20120 39739 40206 53005 60006 82500 92100=
07434,1996-07-31 00:00:00,15,1020.8,-0.1,77,11,500,7.408,,,300,,,,,,,,,,,wg-a,,,,AAXX 31004 07434 12/00 03004 10150 20110 39738 40208 58001 60006 80000 90000=
07434,1996-07-31 03:00:00,13,1020.3,-0.8,88,11,20000,0,,,0,,,,,,,,,,,wg-a,,,,AAXX 31034 07434 12/70 00000 10130 20110 39730 40203 58008 60006 80000 90300=
07434,1996-07-31 06:00:00,13,1020.1,-0.2,94,12,20000,3.704,,,60,12.1,21.4,,,,,,,,,wg-a,,,,AAXX 31064 07434 02/70 00602 10130 20120 39728 40201 55002 60006 80000 90600 333 10214 20121 60004=
07434,1996-07-31 09:00:00,20,1019.3,0.3,64,13,20000,7.408,,,230,,,,,,,,,,,wg-a,,,,AAXX 31094 07434 12670 /2304 10200 20130 39731 40193 50003 60006 81100 90900=
07434,1996-07-31 12:00:00,24,1018.1,-0.6,44,11,40000,7.408,,,270,,,,,,,,,,,wg-a,,,,AAXX 31124 07434 12782 12704 10240 20110 39725 40181 58006 60006 81100 91200=
07434,1996-07-31 15:00:00,25,1016.9,-0.9,44,12,40000,7.408,,,230,,,,,,,,,,,wg-a,,,,AAXX 31154 07434 12782 12304 10250 20120 39716 40169 57009 60006 81100 91500=
07434,1996-07-31 18:00:00,25,1016.2,-0.7,44,12,40000,7.408,,,300,13,25.8,,,,,,,,,wg-a,,,,AAXX 31184 07434 12/82 03004 10250 20120 39709 40162 57007 60006 80000 91800 333 10258 20130=
07434,1996-07-31 21:00:00,19,1017.7,0.6,60,11,500,11.112,,,330,,,,,,,,,,,wg-a,,,,AAXX 31214 07434 12/00 13306 10190 20110 39715 40177 53006 60006 80001 92100=
07434,1996-08-01 00:00:00,16,1018.5,0.2,72,11,500,7.408,,,330,,,,,,,,,,,wg-a,,,,AAXX 01004 07434 12/00 03304 10160 20110 39717 40185 52002 60006 80000 90000=
07434,1996-08-01 03:00:00,14,1018.2,-0.6,82,11,25000,3.704,,,340,,,,,,,,,,,wg-a,,,,AAXX 01034 07434 12/75 03402 10140 20110 39711 40182 56006 60006 80000 90300=
07434,1996-08-01 04:00:00,15,1018,-0,82,12,500,3.704,,,50,13.5,,,,,,,,,,wg-a,,,,AAXX 01044 07434 02/00 10502 10150 20120 39711 40180 55000 60006 80001 90400 333 20135 60004=
07434,1996-08-01 06:00:00,15,1018,-0,82,12,500,3.704,,,50,13.5,24.7,,,,,,,,,wg-a,,,,AAXX 01064 07434 02/00 10502 10150 20120 39711 40180 55000 60006 80001 90600 333 10247 20135 60004=
07434,1996-08-01 09:00:00,22,1017.3,0.4,50,11,35000,11.112,,,270,,,,,,,,,,,wg-a,,,,AAXX 01094 07434 12/81 02706 10220 20110 39715 40173 52004 60006 80000 90900=
07434,1996-08-01 12:00:00,25,1016.7,-0.1,41,11,45000,11.112,,,250,,,,,,,,,,,wg-a,,,,AAXX 01124 07434 12683 /2506 10250 20110 39714 40167 58001 60006 81100 91200=
07434,1996-08-01 15:00:00,26,1016.3,-0.2,32,8,50000,11.112,,,270,,,,,,,,,,,wg-a,,,,AAXX 01154 07434 12784 12706 10260 20080 39712 40163 56002 60006 81100 91500=
07434,1996-08-01 18:00:00,25,1016.6,0.1,39,10,40000,7.408,,,270,14.7,26.9,,,,,,,,,wg-a,,,,AAXX 01184 07434 12/82 02704 10250 20100 39713 40166 53001 60006 80000 91800 333 10269 20147=
07434,1996-08-01 21:00:00,20,1019,1.6,60,12,40000,11.112,,,330,,,,,,,,,,,wg-a,,,,AAXX 01214 07434 12/82 03306 10200 20120 39729 40190 53016 60006 80000 92100=
07434,1996-08-02 00:00:00,17,1020.4,0.8,72,12,500,11.112,,,340,,,,,,,,,,,wg-a,,,,AAXX 02004 07434 12/00 03406 10170 20120 39737 40204 51008 60006 80000 90000=
07434,1996-08-02 03:00:00,16,1020.3,-0.3,68,10,10000,14.816,,,20,,,,,,,,,,,wg-a,,,,AAXX 02034 07434 12/60 /0208 10160 20100 39734 40203 56003 60006 90300=
07434,1996-08-02 06:00:00,15,1020.2,-0.1,77,11,500,7.408,,,60,14.9,25.3,,,,,,,,,wg-a,,,,AAXX 02064 07434 02500 50604 10150 20110 39733 40202 58001 60006 83881 90600 333 10253 20149 60004=
07434,1996-08-02 09:00:00,18,1021.8,1.9,73,13,15000,3.704,,,10,,,,,,,,,,,wg-a,,,,AAXX 02094 07434 12665 70102 10180 20130 39752 40218 51019 60006 82933 90900=
07434,1996-08-02 12:00:00,19,1022,0.3,68,13,20000,11.112,,,360,,,,,,,,,,,wg-a,,,,AAXX 02124 07434 12670 73606 10190 20130 39755 40220 50003 60006 81233 91200=
07434,1996-08-02 15:00:00,23,1020.8,-0.5,57,14,20000,7.408,,,340,,,,,,,,,,,wg-a,,,,AAXX 02154 07434 12670 63404 10230 20140 39750 40208 58005 60006 84831 91500=
07434,1996-08-02 18:00:00,22,1021,0.1,53,12,500,7.408,,,340,15.4,23.4,,,,,,,,,wg-a,,,,AAXX 02184 07434 12700 73404 10220 20120 39751 40210 53001 60006 85831 91800 333 10234 20154=
07434,1996-08-02 21:00:00,19,1022.8,1.3,73,14,25000,3.704,,,270,,,,,,,,,,,wg-a,,,,AAXX 02214 07434 12675 72702 10190 20140 39764 40228 53013 60006 875// 92100=
07434,1996-08-03 00:00:00,18,1023.1,0.1,64,11,25000,7.408,,,10,,,,,,,,,,,wg-a,,,,AAXX 03004 07434 12775 70104 10180 20110 39765 40231 50001 60006 8653/ 90000=
07434,1996-08-03 03:00:00,16,1023.1,-0.4,59,8,25000,14.816,,,30,,,,,,,,,,,wg-a,,,,AAXX 03034 07434 12775 60308 10160 20080 39761 40231 57004 60006 84531 90300=
07434,1996-08-03 06:00:00,15,1024.1,0.8,67,9,20000,14.816,,,30,14.4,22.2,,,,,,,,,wg-a,,,,AAXX 03064 07434 02670 /0308 10150 20090 39769 40241 52008 60006 81800 90600 333 10222 20144 60004=
07434,1996-08-03 09:00:00,21,1023.4,0.2,49,10,20000,11.112,,,20,,,,,,,,,,,wg-a,,,,AAXX 03094 07434 12/70 00206 10210 20100 39771 40234 50002 60006 80000 90900=
07434,1996-08-03 12:00:00,24,1022.4,-0.5,34,7,500,3.704,,,260,,,,,,,,,,,wg-a,,,,AAXX 03124 07434 12600 32602 10240 20070 39766 40224 58005 60006 83101 91200=
07434,1996-08-03 15:00:00,25,1021,-1.1,34,8,50000,14.816,,,30,,,,,,,,,,,wg-a,,,,AAXX 03154 07434 12784 20308 10250 20080 39755 40210 56011 60006 82101 91500=
07434,1996-08-03 18:00:00,24,1020.5,-0.6,34,7,50000,11.112,,,40,15.2,25.8,,,,,,,,,wg-a,,,,AAXX 03184 07434 12784 20406 10240 20070 39749 40205 56006 60006 81501 91800 333 10258 20152=
07434,1996-08-03 21:00:00,21,1021.3,0.2,43,8,40000,11.112,,,20,,,,,,,,,,,wg-a,,,,AAXX 03214 07434 12/82 10206 10210 20080 39751 40213 50002 60006 80001 92100=
07434,1996-08-04 00:00:00,18,1021.1,-0.6,49,7,40000,14.816,,,70,,,,,,,,,,,wg-a,,,,AAXX 04004 07434 12/82 00708 10180 20070 39745 40211 57006 60006 80000 90000=
07434,1996-08-04 03:00:00,16,1020.3,-1.1,55,7,500,18.52,,,70,,,,,,,,,,,wg-a,,,,AAXX 04034 07434 12/00 10710 10160 20070 39734 40203 57011 60006 80001 90300=
07434,1996-08-04 06:00:00,17,1019.9,-0.3,52,7,20000,14.816,,,60,15.2,24.3,,,,,,,,,wg-a,,,,AAXX 04064 07434 02/70 50608 10170 20070 39731 40199 56003 60006 80002 90600 333 10243 20152 60004=
07434,1996-08-04 09:00:00,22,1018,-1,38,7,20000,18.52,,,90,,,,,,,,,,,wg-a,,,,AAXX 04094 07434 12/70 40910 10220 20070 39721 40180 58010 60006 80002 90900=
07434,1996-08-04 12:00:00,24,1015.4,-2.1,36,8,20000,18.52,,,70,,,,,,,,,,,wg-a,,,,AAXX 04124 07434 12/70 60710 10240 20080 39700 40154 58021 60006 80004 91200=
07434,1996-08-04 15:00:00,26,1013.2,-1.9,30,7,25000,11.112,,,50,,,,,,,,,,,wg-a,,,,AAXX 04154 07434 12/75 60506 10260 20070 39681 40132 57019 60006 82032 91500=
07434,1996-08-04 18:00:00,24,1011.8,-1.5,36,8,500,18.52,,,60,16.7,26.4,,,,,,,,,wg-a,,,,AAXX 04184 07434 12/00 60610 10240 20080 39666 40118 58015 60006 83032 91800 333 10264 20167=
07434,1996-08-04 21:00:00,20,1012.4,-0.2,46,8,25000,14.816,,,60,,,,,,,,,,,wg-a,,,,AAXX 04214 07434 12/75 30608 10200 20080 39664 40124 56002 60006 80001 92100=
07434,1996-08-05 00:00:00,18,1012.4,-0.3,49,7,25000,7.408,,,70,,,,,,,,,,,wg-a,,,,AAXX 05004 07434 12/75 70704 10180 20070 39661 40124 56003 60006 80002 90000=
07434,1996-08-05 03:00:00,15,1011.9,-0.8,63,8,20000,0,,,0,,,,,,,,,,,wg-a,,,,AAXX 05034 07434 12/70 40000 10150 20080 39653 40119 56008 60006 80001 90300=
07434,1996-08-05 06:00:00,15,1012.5,0.5,77,11,20000,3.704,,,120,13.4,24.3,,,,,,,,,wg-a,,,,AAXX 05064 07434 02/70 41202 10150 20110 39658 40125 53005 60006 83031 90600 333 10243 20134 60004=
07434,1996-08-05 09:00:00,19,1011.6,-0.1,83,16,15000,14.816,,,190,,,,,,,,,,,wg-a,,,,AAXX 05094 07434 12465 71908 10190 20160 39657 40116 56001 60006 855// 90900=
07434,1996-08-05 12:00:00,19,1011.6,-0,83,16,15000,14.816,,,200,,,,,,,,,,25,wg-a,,,,AAXX 05124 07434 02465 72008 10190 20160 39657 40116 54000 61000 72586 855// 91200 333 6100=
07434,1996-08-05 15:00:00,18,1012.1,0.3,94,17,10000,14.816,,,190,,,,13,,,,,,60,wg-a,,,,AAXX 05154 07434 12260 71908 10180 20170 39660 40121 50003 60137 76096 8512/ 91500=
07434,1996-08-05 18:00:00,19,1011.6,-0.3,83,16,15000,11.112,,,220,14.8,19.9,,,,,,,,3,wg-a,,,,AAXX 05184 07434 02365 52206 10190 20160 39657 40116 58003 61000 70396 83230 91800 333 10199 20148 ////=
07434,1996-08-05 21:00:00,18,1012.9,1,94,17,10000,7.408,,,200,,,,,,,,,,,wg-a,,,,AAXX 05214 07434 12360 /2004 10180 20170 39667 40129 51010 60006 85830 92100=
07434,1996-08-06 00:00:00,17,1013.2,0.1,94,16,8000,3.704,,,250,,,,,,,,,,,wg-a,,,,AAXX 06004 07434 12258 /2502 10170 20160 39668 40132 50001 60006 85530 90000=
07434,1996-08-06 03:00:00,16,1012.8,-0.4,100,16,4000,3.704,,,190,,,,,,,,,,10,wg-a,,,,AAXX 06034 07434 12140 /1902 10160 20160 39664 40128 58004 60006 71022 86530 90300=
07434,1996-08-06 06:00:00,16,1012.4,-0.3,100,16,700,7.408,,,140,16,19.2,,,,,13,,,43,wg-a,,,,AAXX 06064 07434 02/07 91404 10160 20160 39661 40124 56003 60006 74342 89/// 90600 333 10192 20160 60134=
07434,1996-08-06 09:00:00,17,1013.3,1,100,17,2500,7.408,,,170,,,,0,,,,,,10,wg-a,,,,AAXX 06094 07434 12125 81704 10170 20170 39671 40133 53010 60007 71064 885// 90900=
07434,1996-08-06 12:00:00,16,1014.5,0.9,100,16,3000,11.112,,,300,,,,13,,,,,,10,wg-a,,,,AAXX 06124 07434 02230 83006 10160 20160 39680 40145 53009 60146 71064 887// 91200 333 60137=
07434,1996-08-06 18:00:00,18,1015.6,0.4,94,17,18000,7.408,,,250,16,18.2,,0,,,,,,3,wg-a,,,,AAXX 06184 07434 12468 72504 10180 20170 39693 40156 53004 60007 70362 8583/ 91800 333 10182 20160=
07434,1996-08-06 21:00:00,17,1017.4,1.6,94,16,8000,7.408,,,280,,,,,,,,,,,wg-a,,,,AAXX 06214 07434 12258 72804 10170 20160 39709 40174 51016 60006 877// 92100=
07434,1996-08-07 00:00:00,15,1018.4,0.6,94,14,8000,11.112,,,300,,,,,,,,,,,wg-a,,,,AAXX 07004 07434 12458 73006 10150 20140 39715 40184 53006 60006 8353/ 90000=
07434,1996-08-07 03:00:00,14,1018.3,-0.3,88,12,12000,11.112,,,350,,,,,,,,,,,wg-a,,,,AAXX 07034 07434 12462 73506 10140 20120 39712 40183 58003 60006 8553/ 90300=
07434,1996-08-07 06:00:00,13,1019,0.6,88,11,15000,7.408,,,30,12.7,17.8,,,,,18,,,,wg-a,,,,AAXX 07064 07434 02565 70304 10130 20110 39718 40190 51006 60006 8553/ 90600 333 10178 20127 60184=
07434,1996-08-07 09:00:00,17,1019.2,0.7,77,13,15000,3.704,,,100,,,,,,,,,,,wg-a,,,,AAXX 07094 07434 12665 71002 10170 20130 39725 40192 53007 60006 8157/ 90900=
07434,1996-08-07 12:00:00,19,1018.3,-0.4,73,14,25000,7.408,,,350,,,,,,,,,,,wg-a,,,,AAXX 07124 07434 12475 73504 10190 20140 39721 40183 56004 60006 878// 91200=
07434,1996-08-07 15:00:00,21,1017.2,-0.8,60,13,25000,11.112,,,330,,,,,,,,,,,wg-a,,,,AAXX 07154 07434 12575 53306 10210 20130 39713 40172 58008 60006 82232 91500=
07434,1996-08-07 18:00:00,21,1016.4,-0.8,53,11,40000,7.408,,,10,13.4,22.2,,,,,,,,,wg-a,,,,AAXX 07184 07434 12682 30104 10210 20110 39705 40164 55008 60006 81232 91800 333 10222 20134=
07434,1996-08-07 21:00:00,17,1017.7,0.6,59,9,40000,14.816,,,10,,,,,,,,,,,wg-a,,,,AAXX 07214 07434 12/82 40108 10170 20090 39711 40177 51006 60006 83032 92100=
07434,1996-08-08 00:00:00,16,1017,-0.9,59,8,500,7.408,,,40,,,,,,,,,,,wg-a,,,,AAXX 08004 07434 12/00 40404 10160 20080 39702 40170 57009 60006 82032 90000=
07434,1996-08-08 03:00:00,15,1015.6,-1.4,63,8,20000,11.112,,,40,,,,,,,,,,,wg-a,,,,AAXX 08034 07434 12/70 30406 10150 20080 39688 40156 56014 60006 80002 90300=
07434,1996-08-08 06:00:00,16,1015.1,-0.3,68,10,25000,3.704,,,80,14.8,20.9,,,,,,,,,wg-a,,,,AAXX 08064 07434 02/75 10802 10160 20100 39685 40151 56003 60006 81031 90600 333 10209 20148 60004=
07434,1996-08-08 09:00:00,21,1014.5,0.3,60,13,500,7.408,,,270,,,,,,,,,,,wg-a,,,,AAXX 08094 07434 12500 /2704 10210 20130 39688 40145 51003 60006 81131 90900=
07434,1996-08-08 12:00:00,24,1014.5,0.3,34,7,40000,11.112,,,250,,,,,,,,,,,wg-a,,,,AAXX 08124 07434 12682 42506 10240 20070 39691 40145 50003 60006 81201 91200=
07434,1996-08-08 15:00:00,25,1013.7,-0.6,39,10,50000,7.408,,,270,,,,,,,,,,,wg-a,,,,AAXX 08154 07434 12784 52704 10250 20100 39685 40137 58006 60006 81401 91500=
07434,1996-08-08 18:00:00,24,1014.2,0.3,38,9,40000,11.112,,,280,16.1,25.3,,,,,,,,,wg-a,,,,AAXX 08184 07434 12/82 72806 10240 20090 39688 40142 53003 60006 80001 91800 333 10253 20161=
07434,1996-08-08 21:00:00,19,1016.3,1.3,56,10,500,14.816,,,290,,,,,,,,,,,wg-a,,,,AAXX 08214 07434 12/00 22908 10190 20100 39701 40163 51013 60006 80001 92100=
07434,1996-08-09 00:00:00,17,1016.7,0,63,10,500,3.704,,,90,,,,,,,,,,,wg-a,,,,AAXX 09004 07434 12/00 10902 10170 20100 39701 40167 50000 60006 80001 90000=
07434,1996-08-09 03:00:00,15,1016.2,-0.7,77,11,25000,3.704,,,30,,,,,,,,,,,wg-a,,,,AAXX 09034 07434 12/75 60302 10150 20110 39694 40162 56007 60006 80001 90300=
07434,1996-08-09 06:00:00,15,1016,-0.3,77,11,25000,3.704,,,80,14.4,23.6,,,,,,,,,wg-a,,,,AAXX 09064 07434 02/75 50802 10150 20110 39691 40160 56003 60006 83032 90600 333 10236 20144 60004=
07434,1996-08-09 12:00:00,25,1013,-1,47,13,25000,14.816,,,170,,,,,,,,,,,wg-a,,,,AAXX 09124 07434 12775 31708 10250 20130 39679 40130 57010 60006 81131 91200=
07434,1996-08-09 18:00:00,26,1011.2,-0.3,51,15,35000,14.816,,,220,14.6,27.2,,,,,,,,,wg-a,,,,AAXX 09184 07434 12781 62208 10260 20150 39663 40112 55003 60006 81182 91800 333 10272 20146=
07434,1996-08-09 21:00:00,21,1012.5,0.6,73,16,20000,11.112,,,310,,,,,,,,,,,wg-a,,,,AAXX 09214 07434 12/70 13106 10210 20160 39669 40125 53006 60006 80001 92100=
07434,1996-08-10 00:00:00,19,1012.4,-0.5,83,16,20000,14.816,,,320,,,,,,,,,,,wg-a,,,,AAXX 10004 07434 12/70 33208 10190 20160 39664 40124 57005 60006 81031 90000=
07434,1996-08-10 03:00:00,17,1011.7,-0.9,88,15,20000,3.704,,,10,,,,1,,,,,,21,wg-a,,,,AAXX 10034 07434 12670 30102 10170 20150 39655 40117 58009 60017 72100 81531 90300=
07434,1996-08-10 06:00:00,17,1011.6,-0.1,77,13,8000,7.408,,,310,16.6,25.7,,,,,1,,,17,wg-a,,,,AAXX 10064 07434 12258 73104 10170 20130 39654 40116 55001 60014 71796 83981 90600 333 10257 20166=
07434,1996-08-10 09:00:00,19,1011.4,-0,73,14,20000,7.408,,,40,,,,,,,,,,,wg-a,,,,AAXX 10094 07434 12670 70404 10190 20140 39654 40114 55000 60006 8683/ 90900=
07434,1996-08-10 12:00:00,21,1010.9,-0.2,64,14,20000,3.704,,,40,,,,,,,,,,,wg-a,,,,AAXX 10124 07434 12570 70402 10210 20140 39652 40109 56002 60006 878// 91200=
07434,1996-08-10 15:00:00,16,1011.8,0.2,88,14,20000,18.52,,,280,,,,0,,,,,,21,wg-a,,,,AAXX 10154 07434 12570 72810 10160 20140 39654 40118 50002 60007 72162 8693/ 91500=
07434,1996-08-10 18:00:00,18,1010.7,-0.7,77,14,500,22.224,,,250,15.6,20.8,,1,,,,,,1,wg-a,,,,AAXX 10184 07434 12500 72512 10180 20140 39647 40107 56007 60017 70198 8583/ 91800 333 10208 20156=
07434,1996-08-10 21:00:00,15,1012.5,1.2,82,12,500,18.52,,,240,,,,,,,,,,,wg-a,,,,AAXX 10214 07434 12500 72410 10150 20120 39659 40125 53012 60006 8583/ 92100=
07434,1996-08-11 00:00:00,14,1012.4,-0.2,94,13,25000,11.112,,,240,,,,0,,,,,,25,wg-a,,,,AAXX 11004 07434 02575 72406 10140 20130 39657 40124 58002 60016 72586 8583/ 90000 333 60007=
07434,1996-08-11 03:00:00,14,1010.5,-1.8,94,13,25000,22.224,,,220,,,,1,,,,,,,wg-a,,,,AAXX 11034 07434 12375 72212 10140 20130 39639 40105 57018 60017 8683/ 90300=
07434,1996-08-11 06:00:00,14,1009.7,-0.8,100,14,8000,18.52,,,190,13.5,18.2,,7,,,8,,,60,wg-a,,,,AAXX 11064 07434 02158 71910 10140 20140 39631 40097 58008 60084 76086 878// 90600 333 10182 20135 60077=
07434,1996-08-11 09:00:00,15,1009.3,-0.2,100,15,15000,29.632,,,220,,,,7,,,,,,21,wg-a,,,,AAXX 11094 07434 12265 72216 10150 20150 39629 40093 58002 60077 72162 878// 90900=
07434,1996-08-11 12:00:00,18,1008.9,0.1,73,13,500,22.224,,,280,,,,0,,,,,,1,wg-a,,,,AAXX 11124 07434 02400 52812 10180 20130 39630 40089 50001 60076 70162 85800 91200 333 60007=
07434,1996-08-11 15:00:00,20,1009.1,0.3,53,10,500,25.928,,,260,,,,,,,,,,,wg-a,,,,AAXX 11154 07434 12500 /2614 10200 20100 39633 40091 53003 60006 85800 91500=
07434,1996-08-11 18:00:00,17,1010.2,0.7,68,11,500,18.52,,,250,14.1,20.6,,,,,,,,,wg-a,,,,AAXX 11184 07434 32500 72510 10170 20110 39640 40102 53007 878// 91800 333 10206 20141=
07434,1996-08-11 21:00:00,15,1012,1.3,88,13,15000,14.816,,,250,,,,0,,,,,,3,wg-a,,,,AAXX 11214 07434 12365 72508 10150 20130 39653 40120 51013 60007 70386 878// 92100=
07434,1996-08-12 00:00:00,14,1012.4,0.3,94,13,11000,11.112,,,260,,,,,,,,,,,wg-a,,,,AAXX 12004 07434 12/61 /2606 10140 20130 39656 40124 50003 60016 90000=
07434,1996-08-12 03:00:00,13,1012.4,-0.2,88,11,20000,14.816,,,290,,,,,,,,,,,wg-a,,,,AAXX 12034 07434 12470 /2908 10130 20110 39654 40124 56002 60006 86800 90300=
07434,1996-08-12 06:00:00,12,1013.6,1,100,12,12000,3.704,,,270,11.6,17.2,,,,,8,,,,wg-a,,,,AAXX 12064 07434 12262 72702 10120 20120 39664 40136 53010 60084 878// 90600 333 10172 20116=
07434,1996-08-12 09:00:00,15,1014.3,1.1,72,10,15000,14.816,,,290,,,,,,,,,,,wg-a,,,,AAXX 12094 07434 12465 72908 10150 20100 39675 40143 51011 60006 878// 90900=
07434,1996-08-12 12:00:00,17,1014.5,0.5,59,9,40000,18.52,,,280,,,,,,,,,,,wg-a,,,,AAXX 12124 07434 12682 /2810 10170 20090 39680 40145 51005 60006 85800 91200=
07434,1996-08-12 15:00:00,20,1013.8,-0.2,53,10,40000,14.816,,,290,,,,,,,,,,,wg-a,,,,AAXX 12154 07434 12682 /2908 10200 20100 39678 40138 57002 60006 85200 91500=
07434,1996-08-12 18:00:00,17,1014.4,0.2,72,12,40000,11.112,,,300,12.1,19.9,,,,,,,,25,wg-a,,,,AAXX 12184 07434 02682 /3006 10170 20120 39680 40144 53002 61000 72586 86800 91800 333 10199 20121 ////=
07434,1996-08-12 21:00:00,15,1016.1,1.3,77,11,25000,11.112,,,280,,,,,,,,,,,wg-a,,,,AAXX 12214 07434 12675 42806 10150 20110 39693 40161 53013 60006 84800 92100=
07434,1996-08-13 00:00:00,13,1016.6,0.1,88,11,20000,11.112,,,280,,,,,,,,,,,wg-a,,,,AAXX 13004 07434 12670 /2806 10130 20110 39694 40166 50001 60006 86500 90000=
07434,1996-08-13 03:00:00,13,1015.8,-0.7,94,12,200,11.112,,,290,,,,,,,,,,47,wg-a,,,,AAXX 13034 07434 12/02 92906 10130 20120 39687 40158 57007 60006 74742 89/// 90300=
07434,1996-08-13 06:00:00,13,1016.6,0.7,94,12,500,7.408,,,270,12.6,16.9,,,,,,,,,wg-a,,,,AAXX 13064 07434 02/05 /2704 10130 20120 39694 40166 53007 60006 90600 333 10169 20126 61000=
07434,1996-08-13 09:00:00,15,1017.2,1,88,13,4000,11.112,,,270,,,,,,,,,,,wg-a,,,,AAXX 13094 07434 32/40 /2706 10150 20130 39704 40172 51010 90900=
07434,1996-08-13 12:00:00,18,1016.7,0,68,12,15000,11.112,,,300,,,,,,,,,,1,wg-a,,,,AAXX 13124 07434 02565 63006 10180 20120 39704 40167 50000 61000 70154 86200 91200 333 ////=
07434,1996-08-13 15:00:00,20,1016,-0.4,64,13,25000,7.408,,,300,,,,,,,,,,,wg-a,,,,AAXX 13154 07434 12675 63004 10200 20130 39700 40160 58004 60006 86800 91500=
07434,1996-08-13 18:00:00,20,1015.8,-0.2,56,11,0,7.408,,,340,12.8,21.3,,,,,,,,,wg-a,,,,AAXX 13184 07434 32/// /3404 10200 20110 39698 40158 55002 91800 333 10213 20128=
07434,1996-08-13 21:00:00,17,1017.5,1.1,68,11,500,3.704,,,310,,,,,,,,,,,wg-a,,,,AAXX 13214 07434 12700 63102 10170 20110 39709 40175 52011 60006 865/1 92100=
07434,1996-08-14 00:00:00,15,1018.1,0.2,82,12,500,11.112,,,290,,,,,,,,,,,wg-a,,,,AAXX 14004 07434 12700 52906 10150 20120 39711 40181 51002 60006 85233 90000=
07434,1996-08-14 03:00:00,14,1017.3,-0.8,82,11,20000,3.704,,,50,,,,,,,,,,,wg-a,,,,AAXX 14034 07434 12770 50502 10140 20110 39703 40173 58008 60006 855/1 90300=
07434,1996-08-14 06:00:00,13,1017.9,0.4,88,11,8000,3.704,,,70,12.5,20,,,,,,,,,wg-a,,,,AAXX 14064 07434 02/58 30702 10130 20110 39707 40179 53004 60006 82031 90600 333 10200 20125 61000=
07434,1996-08-14 09:00:00,18,1017.9,0.8,73,13,9000,3.704,,,70,,,,,,,,,,,wg-a,,,,AAXX 14094 07434 12459 60702 10180 20130 39715 40179 51008 60006 84531 90900=
07434,1996-08-14 12:00:00,20,1017,-0.6,64,13,12000,11.112,,,30,,,,,,,,,,,wg-a,,,,AAXX 14124 07434 12562 70306 10200 20130 39709 40170 58006 60006 85831 91200=
07434,1996-08-14 15:00:00,20,1016.9,-0.1,64,13,12000,14.816,,,30,,,,,,,,,,,wg-a,,,,AAXX 14154 07434 12562 70308 10200 20130 39708 40169 55001 60006 878// 91500=
07434,1996-08-14 18:00:00,19,1016.5,-0.4,68,13,8000,14.816,,,60,13,20.4,,,,,,,,,wg-a,,,,AAXX 14184 07434 12/58 20608 10190 20130 39704 40165 58004 60006 80001 91800 333 10204 20130=
07434,1996-08-14 21:00:00,17,1017.6,0.7,77,13,8000,7.408,,,30,,,,,,,,,,,wg-a,,,,AAXX 14214 07434 12/58 /0304 10170 20130 39711 40176 53007 60006 80001 92100=
07434,1996-08-15 00:00:00,15,1018.3,0.3,88,13,10000,7.408,,,70,,,,,,,,,,,wg-a,,,,AAXX 15004 07434 12/60 00704 10150 20130 39714 40183 51003 60006 80000 90000=
07434,1996-08-15 03:00:00,15,1017.8,-0.5,82,12,10000,7.408,,,40,,,,,,,,,,,wg-a,,,,AAXX 15034 07434 12/60 00404 10150 20120 39709 40178 56005 60006 80000 90300=
07434,1996-08-15 06:00:00,15,1018.7,0.9,88,13,3000,7.408,,,50,14.3,19.3,,,,,,,,10,wg-a,,,,AAXX 15064 07434 02/30 00504 10150 20130 39718 40187 53009 60006 71000 80000 90600 333 10193 20143 60004=
07434,1996-08-15 09:00:00,19,1019,0.9,68,13,8000,18.52,,,90,,,,,,,,,,,wg-a,,,,AAXX 15094 07434 12/58 00910 10190 20130 39727 40190 52009 60006 80000 90900=
07434,1996-08-15 10:00:00,22,1017.6,-0.3,53,12,35000,14.816,,,20,14.8,23.8,,,,,,,,,wg-a,,,,AAXX 15104 07434 12/81 /0208 10220 20120 39717 40176 55003 60006 80000 91000 333 10238 20148=
07434,1996-08-15 12:00:00,23,1018.3,-0.2,44,10,20000,18.52,,,30,,,,,,,,,,,wg-a,,,,AAXX 15124 07434 12670 30310 10230 20100 39725 40183 58002 60006 83100 91200=
07434,1996-08-15 15:00:00,23,1017.6,-0.5,50,12,500,14.816,,,30,,,,,,,,,,,wg-a,,,,AAXX 15154 07434 12600 20308 10230 20120 39720 40176 58005 60006 82800 91500=
07434,1996-08-15 18:00:00,22,1017.6,-0.3,53,12,500,14.816,,,20,14.8,23.8,,,,,,,,,wg-a,,,,AAXX 15184 07434 12/00 00208 10220 20120 39717 40176 55003 60006 80000 91800 333 10238 20148=
07434,1996-08-15 21:00:00,18,1019.4,1.1,64,11,18000,11.112,,,50,,,,,,,,,,,wg-a,,,,AAXX 15214 07434 12/68 00506 10180 20110 39728 40194 53011 60006 80000 92100=
07434,1996-08-16 00:00:00,16,1019.4,-0.2,72,11,18000,14.816,,,70,,,,,,,,,,,wg-a,,,,AAXX 16004 07434 12/68 00708 10160 20110 39726 40194 56002 60006 80000 90000=
07434,1996-08-16 03:00:00,15,1019.1,-0.5,77,11,15000,14.816,,,60,,,,,,,,,,,wg-a,,,,AAXX 16034 07434 12/65 00608 10150 20110 39721 40191 58005 60006 80000 90300=
07434,1996-08-16 06:00:00,15,1019.2,0.2,82,12,8000,18.52,,,70,14.1,21.5,,,,,,,,,wg-a,,,,AAXX 16064 07434 02/58 00710 10150 20120 39723 40192 53002 60006 80000 90600 333 10215 20141 60004=
07434,1996-08-16 09:00:00,21,1018.9,0.6,56,12,10000,18.52,,,80,,,,,,,,,,,wg-a,,,,AAXX 16094 07434 12/60 /0810 10210 20120 39729 40189 53006 60006 90900=
07434,1996-08-16 12:00:00,24,1018,-0.4,47,12,20000,18.52,,,50,,,,,,,,,,,wg-a,,,,AAXX 16124 07434 12/70 00510 10240 20120 39725 40180 58004 60006 80000 91200=
07434,1996-08-16 15:00:00,25,1017.2,-0.6,39,10,500,11.112,,,30,,,,,,,,,,,wg-a,,,,AAXX 16154 07434 12/00 00306 10250 20100 39719 40172 56006 60006 80000 91500=
07434,1996-08-16 18:00:00,24,1017.2,-0.1,41,10,10000,11.112,,,50,15.2,25.8,,,,,,,,,wg-a,,,,AAXX 16184 07434 12/60 /0506 10240 20100 39718 40172 55001 60006 91800 333 10258 20152=
07434,1996-08-16 21:00:00,21,1018.8,1,46,9,500,14.816,,,40,,,,,,,,,,,wg-a,,,,AAXX 16214 07434 12/00 00408 10210 20090 39728 40188 53010 60006 80000 92100=
07434,1996-08-17 00:00:00,18,1019.1,-0.1,59,10,20000,11.112,,,60,,,,,,,,,,,wg-a,,,,AAXX 17004 07434 12/70 00606 10180 20100 39727 40191 58001 60006 80000 90000=
07434,1996-08-17 06:00:00,18,1019.8,0.4,56,9,18000,11.112,,,60,17,24.3,,,,,,,,,wg-a,,,,AAXX 17064 07434 02/68 00606 10180 20090 39732 40198 53004 60006 80000 90600 333 10243 20170 60004=
07434,1996-08-17 09:00:00,23,1019.6,0.6,47,11,20000,18.52,,,70,,,,,,,,,,,wg-a,,,,AAXX 17094 07434 12/70 00710 10230 20110 39738 40196 51006 60006 80000 90900=
07434,1996-08-17 12:00:00,25,1018.7,-0.5,41,11,25000,18.52,,,60,,,,,,,,,,,wg-a,,,,AAXX 17124 07434 12775 10610 10250 20110 39733 40187 58005 60006 81100 91200=
07434,1996-08-17 15:00:00,26,1017.7,-0.7,42,12,500,7.408,,,30,,,,,,,,,,,wg-a,,,,AAXX 17154 07434 12700 10304 10260 20120 39726 40177 56007 60006 81100 91500=
07434,1996-08-17 18:00:00,24,1017.9,-0.2,47,12,500,11.112,,,10,17.8,26.6,,,,,,,,,wg-a,,,,AAXX 17184 07434 12/00 00106 10240 20120 39724 40179 55002 60006 80000 91800 333 10266 20178=
07434,1996-08-17 21:00:00,22,1018.7,0.4,46,10,500,14.816,,,30,,,,,,,,,,,wg-a,,,,AAXX 17214 07434 12/00 00308 10220 20100 39728 40187 51004 60006 80000 92100=
07434,1996-08-18 00:00:00,19,1018.8,-0.3,60,11,15000,11.112,,,60,,,,,,,,,,,wg-a,,,,AAXX 18004 07434 12/65 00606 10190 20110 39725 40188 58003 60006 80000 90000=
07434,1996-08-18 03:00:00,18,1017.8,-1.1,64,11,15000,11.112,,,70,,,,,,,,,,,wg-a,,,,AAXX 18034 07434 12/65 00706 10180 20110 39714 40178 56011 60006 80000 90300=
07434,1996-08-18 06:00:00,18,1017.8,-0.1,64,11,15000,7.408,,,60,16.9,24.3,,,,,,,,,wg-a,,,,AAXX 18064 07434 02/65 00604 10180 20110 39713 40178 56001 60006 80000 90600 333 10243 20169 60004=
07434,1996-08-18 09:00:00,24,1016.8,0,50,13,15000,7.408,,,90,,,,,,,,,,,wg-a,,,,AAXX 18094 07434 12/65 00904 10240 20130 39713 40168 50000 60006 80000 90900=
07434,1996-08-18 12:00:00,26,1015.4,-1,39,11,15000,14.816,,,80,,,,,,,,,,,wg-a,,,,AAXX 18124 07434 12665 /0808 10260 20110 39703 40154 58010 60006 81100 91200=
07434,1996-08-18 15:00:00,27,1014.1,-1.1,34,10,20000,7.408,,,80,,,,,,,,,,,wg-a,,,,AAXX 18154 07434 12670 /0804 10270 20100 39692 40141 58011 60006 81100 91500=
07434,1996-08-18 18:00:00,26,1013.1,-1.1,37,10,500,7.408,,,20,17.7,27.7,,,,,,,,,wg-a,,,,AAXX 18184 07434 12/00 00204 10260 20100 39681 40131 56011 60006 80000 91800 333 10277 20177=
07434,1996-08-18 21:00:00,23,1013.5,-0,44,10,25000,14.816,,,40,,,,,,,,,,,wg-a,,,,AAXX 18214 07434 12/75 00408 10230 20100 39681 40135 54000 60006 80000 92100=
07434,1996-08-19 00:00:00,19,1013.8,-0.4,52,9,25000,11.112,,,80,,,,,,,,,,,wg-a,,,,AAXX 19004 07434 12/75 00806 10190 20090 39677 40138 58004 60006 80000 90000=
07434,1996-08-19 03:00:00,19,1013.2,-0.7,49,8,25000,7.408,,,80,,,,,,,,,,,wg-a,,,,AAXX 19034 07434 12/75 00804 10190 20080 39670 40132 55007 60006 80000 90300=
07434,1996-08-19 09:00:00,23,1013,0.5,53,13,25000,7.408,,,160,,,,,,,,,,,wg-a,,,,AAXX 19094 07434 12/75 01604 10230 20130 39675 40130 51005 60006 80000 90900=
07434,1996-08-19 12:00:00,27,1011.8,-0.5,,,500,14.816,,,200,,,,,,,,,,,wg-a,,,,AAXX 19124 07434 12600 22008 10270 2//// 39670 40118 57005 60006 82100 91200=
07434,1996-08-19 18:00:00,25,1011.1,-0.2,50,14,500,14.816,,,220,17.2,28.4,,,,,,,,,wg-a,,,,AAXX 19184 07434 12/00 52208 10250 20140 39661 40111 55002 60006 84082 91800 333 10284 20172=
07434,1996-08-19 21:00:00,22,1012.3,0.6,69,16,25000,11.112,,,300,,,,,,,,,,,wg-a,,,,AAXX 19214 07434 12/75 43006 10220 20160 39667 40123 51006 60006 84031 92100=
07434,1996-08-20 00:00:00,18,1012.8,0,83,15,20000,14.816,,,320,,,,,,,,,,,wg-a,,,,AAXX 20004 07434 12770 53208 10180 20150 39667 40128 50000 60006 81582 90000=
07434,1996-08-20 03:00:00,16,1014,0.9,100,16,20000,7.408,,,150,,,,5,,,,,,81,wg-a,,,,AAXX 20034 07434 12270 81504 10160 20160 39676 40140 50009 60057 78196 879// 90300=
07434,1996-08-20 06:00:00,16,1013.7,-0.4,94,15,4000,7.408,,,130,15.8,24.9,,6,,,11,,,80,wg-a,,,,AAXX 20064 07434 02540 81304 10160 20150 39672 40137 55004 60114 78098 8592/ 90600 333 10249 20158 60067=
07434,1996-08-20 09:00:00,17,1014.1,0.5,94,16,10000,7.408,,,180,,,,1,,,,,,21,wg-a,,,,AAXX 20094 07434 12160 71804 10170 20160 39677 40141 50005 60017 72196 8598/ 90900=
07434,1996-08-20 12:00:00,17,1014.5,0.4,94,16,7000,7.408,,,160,,,,1,,,,,,61,wg-a,,,,AAXX 20124 07434 02157 81604 10170 20160 39681 40145 50004 60026 76196 8697/ 91200 333 60017=
07434,1996-08-20 15:00:00,19,1013.5,-0.5,88,17,12000,7.408,,,190,,,,1,,,,,,1,wg-a,,,,AAXX 20154 07434 12262 71904 10190 20170 39676 40135 55005 60017 70162 8567/ 91500=
07434,1996-08-20 18:00:00,19,1013,-0.6,83,16,25000,7.408,,,170,15.8,19.8,,,,,,,,3,wg-a,,,,AAXX 20184 07434 32575 61704 10190 20160 39670 40130 58006 70362 84831 91800 333 10198 20158=
07434,1996-08-20 21:00:00,18,1014.4,1.1,88,16,20000,7.408,,,160,,,,,,,,,,,wg-a,,,,AAXX 20214 07434 12570 /1604 10180 20160 39681 40144 51011 60006 84881 92100=
07434,1996-08-21 00:00:00,17,1014.1,-0.3,94,16,500,11.112,,,220,,,,10,,,,,,81,wg-a,,,,AAXX 21004 07434 02200 72206 10170 20160 39678 40141 58003 60106 78186 878// 90000 333 60107=
07434,1996-08-21 03:00:00,17,1013.1,-1,94,16,15000,0,,,0,,,,1,,,,,,1,wg-a,,,,AAXX 21034 07434 12465 70000 10170 20160 39668 40131 56010 60017 70186 878// 90300=
07434,1996-08-21 06:00:00,16,1012.8,-0.5,94,15,2000,7.408,,,70,15.8,19,,,,,14,,,10,wg-a,,,,AAXX 21064 07434 12120 70704 10160 20150 39663 40128 56005 60144 71084 8458/ 90600 333 10190 20158=
07434,1996-08-21 09:00:00,16,1013.1,0.4,94,15,500,7.408,,,170,,,,2,,,,,,61,wg-a,,,,AAXX 21094 07434 12200 81704 10160 20150 39667 40131 51004 60027 76162 8557/ 90900=
07434,1996-08-21 12:00:00,15,1014,0.7,94,14,8000,11.112,,,310,,,,2,,,,,,21,wg-a,,,,AAXX 21124 07434 02258 83106 10150 20140 39674 40140 51007 60046 72162 877// 91200 333 60027=
07434,1996-08-21 15:00:00,17,1013.2,-0.6,88,15,15000,14.816,,,300,,,,6,,,,,,15,wg-a,,,,AAXX 21154 07434 12365 73008 10170 20150 39668 40132 56006 60067 71562 8593/ 91500=
07434,1996-08-21 18:00:00,16,1013.9,0.5,82,13,500,7.408,,,310,14.7,18.4,,,,,,,,1,wg-a,,,,AAXX 21184 07434 32400 73104 10160 20130 39673 40139 53005 70162 83571 91800 333 10184 20147=
07434,1996-08-21 21:00:00,15,1015.5,1.4,94,14,12000,7.408,,,250,,,,,,,,,,,wg-a,,,,AAXX 21214 07434 12762 72504 10150 20140 39687 40155 53014 60006 875// 92100=
07434,1996-08-22 00:00:00,14,1016.1,0.4,94,13,12000,11.112,,,270,,,,,,,,,,,wg-a,,,,AAXX 22004 07434 12262 72706 10140 20130 39691 40161 51004 60006 875// 90000=
07434,1996-08-22 03:00:00,13,1016,-0.2,94,12,500,7.408,,,270,,,,,,,,,,,wg-a,,,,AAXX 22034 07434 12100 72704 10130 20120 39689 40160 56002 60006 876// 90300=
07434,1996-08-22 06:00:00,12,1016.5,0.2,94,11,12000,7.408,,,260,11.3,15.8,,,,,10,,,10,wg-a,,,,AAXX 22064 07434 02/62 52604 10120 20110 39691 40165 53002 60006 71022 82031 90600 333 10158 20113 60104=
07434,1996-08-22 09:00:00,17,1016.5,0.8,63,10,500,7.408,,,250,,,,,,,,,,,wg-a,,,,AAXX 22094 07434 12500 22504 10170 20100 39699 40165 50008 60006 82100 90900=
07434,1996-08-22 12:00:00,20,1015.9,-0.1,56,11,40000,11.112,,,250,,,,,,,,,,,wg-a,,,,AAXX 22124 07434 12682 42506 10200 20110 39698 40159 58001 60006 84100 91200=
07434,1996-08-22 15:00:00,20,1014.7,-1,56,11,60000,7.408,,,270,,,,,,,,,,,wg-a,,,,AAXX 22154 07434 12686 /2704 10200 20110 39688 40147 58010 60006 85100 91500=
07434,1996-08-22 18:00:00,19,1014.3,-0.5,60,11,60000,11.112,,,230,11.5,21.7,,,,,,,,,wg-a,,,,AAXX 22184 07434 12686 /2306 10190 20110 39683 40143 55005 60006 81500 91800 333 10217 20115=
07434,1996-08-22 21:00:00,16,1014.9,0,77,12,500,7.408,,,170,,,,,,,,,,,wg-a,,,,AAXX 22214 07434 12/00 11704 10160 20120 39683 40149 50000 60006 80001 92100=
07434,1996-08-23 00:00:00,14,1014.3,-0.9,88,12,500,7.408,,,110,,,,,,,,,,,wg-a,,,,AAXX 23004 07434 12/00 21104 10140 20120 39674 40143 58009 60006 80001 90000=
07434,1996-08-23 03:00:00,13,1012.6,-1.7,88,11,25000,7.408,,,120,,,,,,,,,,,wg-a,,,,AAXX 23034 07434 12775 71204 10130 20110 39657 40126 57017 60006 8353/ 90300=
07434,1996-08-23 06:00:00,14,1011.9,-0.5,82,11,500,7.408,,,110,13.2,19.4,,,,,,,,,wg-a,,,,AAXX 23064 07434 02700 71104 10140 20110 39652 40119 56005 60006 8257/ 90600 333 10194 20132 60004=
07434,1996-08-23 09:00:00,19,1012.3,1,73,14,25000,18.52,,,230,,,,,,,,,,,wg-a,,,,AAXX 23094 07434 12475 72310 10190 20140 39662 40123 53010 60006 8458/ 90900=
07434,1996-08-23 12:00:00,19,1013.4,1.1,73,14,20000,22.224,,,250,,,,,,,,,,,wg-a,,,,AAXX 23124 07434 12470 72512 10190 20140 39673 40134 51011 60006 8783/ 91200=
07434,1996-08-23 15:00:00,20,1013.5,0.3,53,10,50000,14.816,,,280,,,,,,,,,,,wg-a,,,,AAXX 23154 07434 12584 52808 10200 20100 39676 40135 51003 60006 85800 91500=
07434,1996-08-23 18:00:00,18,1014.3,0.5,64,11,25000,14.816,,,250,14.3,21.3,,,,,,,,,wg-a,,,,AAXX 23184 07434 12575 42508 10180 20110 39681 40143 53005 60006 84830 91800 333 10213 20143=
07434,1996-08-23 21:00:00,15,1016.2,1.2,77,11,25000,11.112,,,230,,,,,,,,,,,wg-a,,,,AAXX 23214 07434 12575 22306 10150 20110 39693 40162 51012 60006 82800 92100=
07434,1996-08-24 00:00:00,13,1016,-0.4,94,12,0,14.816,,,230,,,,,,,,,,,wg-a,,,,AAXX 24004 07434 12/// /2308 10130 20120 39689 40160 58004 60006 90000=
07434,1996-08-24 03:00:00,13,1015.3,-0.7,94,12,15000,11.112,,,190,,,,,,,,,,,wg-a,,,,AAXX 24034 07434 12265 71906 10130 20120 39682 40153 57007 60006 875// 90300=
07434,1996-08-24 06:00:00,13,1014.8,-0.5,94,12,12000,7.408,,,180,12.4,18.2,,,,,,,,,wg-a,,,,AAXX 24064 07434 02262 71804 10130 20120 39677 40148 56005 60006 8653/ 90600 333 10182 20124 61000=
07434,1996-08-24 09:00:00,17,1014.7,0.5,77,13,20000,25.928,,,220,,,,,,,,,,3,wg-a,,,,AAXX 24094 07434 02470 /2214 10170 20130 39682 40147 51005 61000 70352 86201 90900 333 ////=
07434,1996-08-24 12:00:00,15,1014.2,-0.6,94,14,4000,11.112,,,260,,,,2,,,,,,25,wg-a,,,,AAXX 24124 07434 02140 72606 10150 20140 39676 40142 55006 60026 72586 872// 91200 333 60027=
07434,1996-08-24 15:00:00,18,1013.4,-0.3,77,14,15000,18.52,,,250,,,,1,,,,,,25,wg-a,,,,AAXX 24154 07434 12465 /2510 10180 20140 39673 40134 58003 60017 72586 85901 91500=
07434,1996-08-24 18:00:00,17,1014,0.3,72,12,500,14.816,,,250,13,19,,,,,,,,1,wg-a,,,,AAXX 24184 07434 32500 32508 10170 20120 39676 40140 52003 70186 83801 91800 333 10190 20130=
07434,1996-08-24 21:00:00,15,1016.2,1.7,82,12,25000,14.816,,,250,,,,,,,,,,,wg-a,,,,AAXX 24214 07434 12475 42508 10150 20120 39693 40162 51017 60006 84800 92100=
07434,1996-08-25 00:00:00,13,1016.9,0.5,94,12,18000,11.112,,,240,,,,,,,,,,,wg-a,,,,AAXX 25004 07434 12268 72406 10130 20120 39698 40169 52005 60006 876// 90000=
07434,1996-08-25 03:00:00,13,1016.3,-0.6,94,12,18000,11.112,,,220,,,,,,,,,,,wg-a,,,,AAXX 25034 07434 12168 72206 10130 20120 39692 40163 56006 60006 876// 90300=
07434,1996-08-25 06:00:00,13,1016.6,0.2,94,12,15000,7.408,,,200,12.2,17.2,,,,,3,,,,wg-a,,,,AAXX 25064 07434 02365 52004 10130 20120 39694 40166 53002 60006 84801 90600 333 10172 20122 60034=
07434,1996-08-25 09:00:00,15,1016.6,0.5,88,13,10000,14.816,,,200,,,,,,,,,,,wg-a,,,,AAXX 25094 07434 12360 72008 10150 20130 39699 40166 51005 60006 868// 90900=
07434,1996-08-25 12:00:00,18,1015.5,-0.7,68,12,15000,18.52,,,210,,,,,,,,,,,wg-a,,,,AAXX 25124 07434 12465 72110 10180 20120 39692 40155 58007 60006 868// 91200=
07434,1996-08-25 15:00:00,15,1015.5,-0.4,88,13,15000,14.816,,,310,,,,,,,,,,80,wg-a,,,,AAXX 25154 07434 02465 63108 10150 20130 39688 40155 55004 61000 78086 86901 91500 333 ////=
07434,1996-08-25 18:00:00,16,1015,-0.4,82,13,25000,3.704,,,190,12.6,19.3,,0,,,,,,1,wg-a,,,,AAXX 25184 07434 12575 51902 10160 20130 39684 40150 57004 60007 70186 85831 91800 333 10193 20126=
07434,1996-08-25 21:00:00,15,1015.9,0.7,82,12,15000,3.704,,,200,,,,,,,,,,,wg-a,,,,AAXX 25214 07434 12665 /2002 10150 20120 39691 40159 51007 60006 84506 92100=
07434,1996-08-26 00:00:00,13,1015.8,-0.5,88,11,15000,0,,,0,,,,,,,,,,,wg-a,,,,AAXX 26004 07434 12165 40000 10130 20110 39686 40158 58005 60006 81601 90000=
07434,1996-08-26 03:00:00,13,1015.3,-0.4,94,12,500,0,,,0,,,,,,,,,,,wg-a,,,,AAXX 26034 07434 12/05 /0000 10130 20120 39682 40153 55004 60006 90300=
07434,1996-08-26 06:00:00,12,1015.8,0.4,100,12,1200,3.704,,,50,12.2,16,,,,,,,,10,wg-a,,,,AAXX 26064 07434 02012 70502 10120 20120 39686 40158 53004 60006 71041 84671 90600 333 10160 20122 60004=
07434,1996-08-26 09:00:00,16,1016.3,1.1,82,13,15000,3.704,,,100,,,,,,,,,,1,wg-a,,,,AAXX 26094 07434 12365 71002 10160 20130 39697 40163 52011 60006 70142 8583/ 90900=
07434,1996-08-26 12:00:00,18,1015.7,-0.3,59,10,500,7.408,,,210,,,,,,,,,,1,wg-a,,,,AAXX 26124 07434 12500 72104 10180 20100 39694 40157 58003 60006 70142 8483/ 91200=
07434,1996-08-26 15:00:00,17,1015.4,-0.4,82,14,500,7.408,,,240,,,,0,,,,,,25,wg-a,,,,AAXX 26154 07434 12300 72404 10170 20140 39690 40154 58004 60007 72586 878// 91500=
07434,1996-08-26 18:00:00,16,1015.5,0,88,14,25000,3.704,,,270,12.3,19,,0,,,,,,1,wg-a,,,,AAXX 26184 07434 12575 72702 10160 20140 39690 40155 50000 60007 70186 8583/ 91800 333 10190 20123=
07434,1996-08-26 21:00:00,15,1016.7,0.9,94,14,25000,3.704,,,300,,,,,,,,,,,wg-a,,,,AAXX 26214 07434 12775 33002 10150 20140 39699 40167 51009 60006 83531 92100=
07434,1996-08-27 00:00:00,15,1016.6,-0.1,94,14,12000,3.704,,,40,,,,,,,,,,,wg-a,,,,AAXX 27004 07434 12462 70402 10150 20140 39698 40166 58001 60006 8753/ 90000=
07434,1996-08-27 03:00:00,14,1016,-0.8,88,12,12000,7.408,,,10,,,,,,,,,,,wg-a,,,,AAXX 27034 07434 12462 /0104 10140 20120 39690 40160 58008 60006 86530 90300=
07434,1996-08-27 06:00:00,13,1016.3,0.2,94,12,4000,7.408,,,320,12.8,16.4,,,,,1,,,10,wg-a,,,,AAXX 27064 07434 02240 73204 10130 20120 39692 40163 53002 60006 71011 8653/ 90600 333 10164 20128 60014=
07434,1996-08-27 09:00:00,15,1016.6,0.6,82,12,25000,7.408,,,340,,,,1,,,,,,25,wg-a,,,,AAXX 27094 07434 12475 63404 10150 20120 39698 40166 53006 60017 72586 86801 90900=
07434,1996-08-27 12:00:00,18,1016.3,0.1,64,11,500,14.816,,,320,,,,,,,,,,1,wg-a,,,,AAXX 27124 07434 12500 63208 10180 20110 39699 40163 50001 60016 70186 85201 91200=
07434,1996-08-27 15:00:00,19,1016.3,0.1,52,9,50000,14.816,,,290,,,,,,,,,,,wg-a,,,,AAXX 27154 07434 12684 /2908 10190 20090 39700 40163 53001 60006 84801 91500=
07434,1996-08-27 21:00:00,13,1020,2,77,9,500,11.112,,,280,,,,,,,,,,,wg-a,,,,AAXX 27214 07434 12700 12806 10130 20090 39726 40200 51020 60006 81530 92100=
07434,1996-08-28 00:00:00,11,1020.7,0.3,87,9,25000,7.408,,,280,,,,,,,,,,,wg-a,,,,AAXX 28004 07434 12775 12804 10110 20090 39729 40207 51003 60006 81530 90000=
07434,1996-08-28 03:00:00,9,1020.1,-0.7,93,8,20000,7.408,,,290,,,,,,,,,,,wg-a,,,,AAXX 28034 07434 12/70 12904 10090 20080 39722 40201 57007 60006 81031 90300=
07434,1996-08-28 06:00:00,9,1020.5,0.3,100,9,20000,0,,,0,9.1,16.6,,,,,1,,,,wg-a,,,,AAXX 28064 07434 02/70 10000 10090 20090 39725 40205 53003 60006 81031 90600 333 10166 20091 60014=
07434,1996-08-28 09:00:00,14,1020.2,0.5,77,10,500,11.112,,,260,,,,,,,,,,,wg-a,,,,AAXX 28094 07434 12400 /2606 10140 20100 39730 40202 50005 60006 86200 90900=
07434,1996-08-28 12:00:00,17,1019.1,-0.7,55,8,500,14.816,,,280,,,,,,,,,,,wg-a,,,,AAXX 28124 07434 12600 /2808 10170 20080 39723 40191 58007 60006 86800 91200=
07434,1996-08-28 15:00:00,18,1018.1,-0.7,52,8,50000,11.112,,,260,,,,,,,,,,,wg-a,,,,AAXX 28154 07434 12684 62606 10180 20080 39716 40181 56007 60006 86800 91500=
07434,1996-08-28 18:00:00,16,1018.2,-0.2,59,8,50000,11.112,,,270,9.4,18.8,,,,,,,,,wg-a,,,,AAXX 28184 07434 12684 /2706 10160 20080 39714 40182 55002 60006 86800 91800 333 10188 20094=
07434,1996-08-28 21:00:00,13,1019.6,0.9,82,10,500,7.408,,,260,,,,,,,,,,,wg-a,,,,AAXX 28214 07434 12600 /2604 10130 20100 39723 40196 51009 60006 85800 92100=
07434,1996-08-29 00:00:00,12,1019.3,-0.4,88,10,25000,7.408,,,250,,,,,,,,,,,wg-a,,,,AAXX 29004 07434 12575 72504 10120 20100 39719 40193 56004 60006 87800 90000=
07434,1996-08-29 03:00:00,11,1018.6,-0.9,94,10,10000,7.408,,,280,,,,,,,,,,,wg-a,,,,AAXX 29034 07434 12460 /2804 10110 20100 39710 40186 58009 60006 86800 90300=
07434,1996-08-29 06:00:00,12,1018.7,0.2,94,11,700,7.408,,,270,10.8,16.2,,,,,,,,45,wg-a,,,,AAXX 29064 07434 02107 92704 10120 20110 39712 40187 53002 61000 74542 896// 90600 333 10162 20108 ////=
07434,1996-08-29 09:00:00,13,1019.5,1,82,10,3000,11.112,,,280,,,,,,,,,,10,wg-a,,,,AAXX 29094 07434 12330 52806 10130 20100 39722 40195 53010 60006 71042 85801 90900=
07434,1996-08-29 12:00:00,17,1018.2,-0.6,63,10,12000,14.816,,,280,,,,,,,,,,1,wg-a,,,,AAXX 29124 07434 12562 /2808 10170 20100 39716 40182 58006 60006 70142 85200 91200=
07434,1996-08-29 15:00:00,18,1017.5,-0.6,56,9,20000,11.112,,,290,,,,,,,,,,25,wg-a,,,,AAXX 29154 07434 02570 /2906 10180 20090 39710 40175 58006 61000 72586 85282 91500 333 ////=
07434,1996-08-29 18:00:00,16,1018,0.2,63,9,20000,7.408,,,280,11.4,18.1,,,,,,,,1,wg-a,,,,AAXX 29184 07434 32670 /2804 10160 20090 39712 40180 53002 70186 85231 91800 333 10181 20114=
07434,1996-08-29 21:00:00,14,1020.1,1.6,77,10,20000,7.408,,,300,,,,,,,,,,,wg-a,,,,AAXX 29214 07434 12670 53004 10140 20100 39728 40201 51016 60006 84830 92100=
07434,1996-08-30 00:00:00,12,1020.3,0,88,10,15000,7.408,,,280,,,,,,,,,,,wg-a,,,,AAXX 30004 07434 12665 /2804 10120 20100 39728 40203 50000 60006 82530 90000=
07434,1996-08-30 03:00:00,11,1020.5,0.1,94,10,7000,11.112,,,300,,,,,,,,,,,wg-a,,,,AAXX 30034 07434 12257 73006 10110 20100 39729 40205 53001 60006 84602 90300=
07434,1996-08-30 06:00:00,11,1021.3,0.7,100,11,1100,0,,,0,10.6,15.7,,,,,,,,28,wg-a,,,,AAXX 30064 07434 02011 90000 10110 20110 39736 40213 53007 60006 72842 896// 90600 333 10157 20106 61000=
07434,1996-08-30 09:00:00,14,1022.1,1.2,88,12,3000,3.704,,,80,,,,,,,,,,10,wg-a,,,,AAXX 30094 07434 12230 80802 10140 20120 39748 40221 53012 60006 71022 886// 90900=
07434,1996-08-30 12:00:00,16,1021.9,0.2,68,10,25000,11.112,,,310,,,,,,,,,,,wg-a,,,,AAXX 30124 07434 12575 /3106 10160 20100 39750 40219 52002 60006 86200 91200=
07434,1996-08-30 15:00:00,17,1021.8,-0,63,10,25000,11.112,,,340,,,,,,,,,,,wg-a,,,,AAXX 30154 07434 12675 53406 10170 20100 39750 40218 55000 60006 85800 91500=
07434,1996-08-30 18:00:00,16,1022.3,0.4,63,9,11000,3.704,,,350,11,18,,,,,,,,,wg-a,,,,AAXX 30184 07434 12/61 /3502 10160 20090 39754 40223 52004 60006 91800 333 10180 20110=
07434,1996-08-30 21:00:00,13,1024,1.1,72,8,25000,7.408,,,350,,,,,,,,,,,wg-a,,,,AAXX 30214 07434 12775 13504 10130 20080 39765 40240 51011 60006 81501 92100=
07434,1996-08-31 00:00:00,12,1024.5,0.3,71,7,25000,7.408,,,350,,,,,,,,,,,wg-a,,,,AAXX 31004 07434 12/75 13504 10120 20070 39768 40245 51003 60006 80001 90000=
07434,1996-08-31 03:00:00,10,1024.8,-0.2,82,7,20000,0,,,0,,,,,,,,,,,wg-a,,,,AAXX 31034 07434 12/70 20000 10100 20070 39766 40248 58002 60006 80001 90300=
07434,1996-08-31 06:00:00,8,1025.8,0.8,93,7,10000,0,,,0,7.9,16.4,,,,,,,,,wg-a,,,,AAXX 31064 07434 02/60 20000 10080 20070 39774 40258 53008 60006 80001 90600 333 10164 20079 60004=
07434,1996-08-31 09:00:00,16,1025.2,0.6,68,10,15000,11.112,,,20,,,,,,,,,,,wg-a,,,,AAXX 31094 07434 12/65 10206 10160 20100 39780 40252 53006 60006 80001 90900=
07434,1996-08-31 12:00:00,17,1024.7,-0.2,63,10,15000,14.816,,,20,,,,,,,,,,,wg-a,,,,AAXX 31124 07434 12565 /0208 10170 20100 39778 40247 58002 60006 85201 91200=
07434,1996-08-31 15:00:00,18,1024.3,-0.3,52,8,25000,11.112,,,10,,,,,,,,,,,wg-a,,,,AAXX 31154 07434 12675 /0106 10180 20080 39775 40243 57003 60006 85801 91500=
07434,1996-08-31 18:00:00,17,1024.1,-0.3,63,10,35000,7.408,,,10,8.3,18.9,,,,,,,,,wg-a,,,,AAXX 31184 07434 12681 /0104 10170 20100 39772 40241 56003 60006 82231 91800 333 10189 20083=
07434,1996-08-31 21:00:00,15,1025.3,0.8,67,9,500,11.112,,,10,,,,,,,,,,,wg-a,,,,AAXX 31214 07434 12/00 30106 10150 20090 39780 40253 51008 60006 83031 92100=
07434,1996-09-01 00:00:00,14,1025.3,-0.2,72,9,500,7.408,,,50,,,,,,,,,,,wg-a,,,,AAXX 01004 07434 12/00 30504 10140 20090 39778 40253 58002 60006 83031 90000=
07434,1996-09-01 03:00:00,11,1025.8,0.1,82,8,500,7.408,,,60,,,,,,,,,,,wg-a,,,,AAXX 01034 07434 12/00 30604 10110 20080 39779 40258 53001 60006 81031 90300=
07434,1996-09-01 06:00:00,11,1026,0.2,76,7,9000,11.112,,,50,10.8,16.8,,,,,,,,,wg-a,,,,AAXX 01064 07434 02/59 30506 10110 20070 39781 40260 53002 60006 81031 90600 333 10168 20108 60004=
07434,1996-09-01 09:00:00,17,1025.5,0.4,55,8,15000,11.112,,,80,,,,,,,,,,,wg-a,,,,AAXX 01094 07434 12/65 40806 10170 20080 39785 40255 52004 60006 80001 90900=
07434,1996-09-01 12:00:00,17,1024.9,-0.5,55,8,20000,22.224,,,30,,,,,,,,,,,wg-a,,,,AAXX 01124 07434 12670 /0312 10170 20080 39780 40249 58005 60006 85201 91200=
07434,1996-09-01 15:00:00,18,1023.6,-1.1,49,7,500,11.112,,,20,,,,,,,,,,,wg-a,,,,AAXX 01154 07434 12600 50206 10180 20070 39769 40236 58011 60006 85800 91500=
07434,1996-09-01 18:00:00,16,1024,-0,51,6,500,14.816,,,30,11.3,18.9,,,,,,,,,wg-a,,,,AAXX 01184 07434 12700 30308 10160 20060 39769 40240 55000 60006 82502 91800 333 10189 20113=
07434,1996-09-01 21:00:00,13,1025.1,0.5,54,4,500,18.52,,,50,,,,,,,,,,,wg-a,,,,AAXX 01214 07434 12700 40510 10130 20040 39774 40251 52005 60006 815/2 92100=
07434,1996-09-02 00:00:00,12,1024.4,-0.9,58,4,20000,18.52,,,50,,,,,,,,,,,wg-a,,,,AAXX 02004 07434 12770 50510 10120 20040 39765 40244 56009 60006 815/2 90000=
07434,1996-09-02 03:00:00,10,1023.6,-0.9,76,6,20000,14.816,,,30,,,,,,,,,,,wg-a,,,,AAXX 02034 07434 12/70 60308 10100 20060 39756 40236 57009 60006 80002 90300=
07434,1996-09-02 06:00:00,10,1023.2,-0.4,71,5,25000,11.112,,,20,9.7,16,,,,,,,,,wg-a,,,,AAXX 02064 07434 02/75 40206 10100 20050 39752 40232 56004 60006 81032 90600 333 10160 20097 60004=
07434,1996-09-02 09:00:00,15,1022,-0.3,48,4,500,25.928,,,50,,,,,,,,,,,wg-a,,,,AAXX 02094 07434 12600 /0514 10150 20040 39749 40220 56003 60006 81130 90900=
07434,1996-09-02 10:00:00,16,1019.9,-0.4,42,3,50000,22.224,,,30,10,18.8,,,,,,,,,wg-a,,,,AAXX 02104 07434 12/84 /0312 10160 20030 39730 40199 55004 60006 81032 91000 333 10188 20100=
07434,1996-09-02 12:00:00,18,1020.8,-0.8,37,3,50000,31.484,,53.708,40,,,,,,,,,,,wg-a,,,,AAXX 02124 07434 12684 /0417 10180 20030 39741 40208 58008 60006 81100 91200 333 91029=
07434,1996-09-02 15:00:00,18,1020.1,-0.7,39,4,50000,31.484,,,50,,,,,,,,,,,wg-a,,,,AAXX 02154 07434 12784 20517 10180 20040 39734 40201 56007 60006 82100 91500=
07434,1996-09-02 18:00:00,16,1019.9,-0.4,45,4,50000,22.224,,,30,10,18.8,,,,,,,,,wg-a,,,,AAXX 02184 07434 12/84 10312 10160 20040 39730 40199 55004 60006 81032 91800 333 10188 20100=
07434,1996-09-02 21:00:00,14,1021,0.7,55,5,500,18.52,,,30,,,,,,,,,,,wg-a,,,,AAXX 02214 07434 12/00 40310 10140 20050 39737 40210 53007 60006 82032 92100=
07434,1996-09-03 00:00:00,12,1020.2,-1,67,6,20000,14.816,,,30,,,,,,,,,,,wg-a,,,,AAXX 03004 07434 12/70 40308 10120 20060 39727 40202 58010 60006 80002 90000=
07434,1996-09-03 03:00:00,10,1019,-1.5,76,6,20000,18.52,,,20,,,,,,,,,,,wg-a,,,,AAXX 03034 07434 12/70 20210 10100 20060 39712 40190 57015 60006 80002 90300=
07434,1996-09-03 06:00:00,10,1018.1,-0.9,76,6,12000,11.112,,,20,9.5,16.2,,,,,,,,,wg-a,,,,AAXX 03064 07434 02762 50206 10100 20060 39703 40181 55009 60006 85502 90600 333 10162 20095 60004=
07434,1996-09-03 09:00:00,14,1016.9,-0.4,67,8,20000,11.112,,,40,,,,,,,,,,,wg-a,,,,AAXX 03094 07434 12/70 40406 10140 20080 39699 40169 55004 60006 82032 90900=
07434,1996-09-03 12:00:00,17,1015.5,-0.9,59,9,500,14.816,,,40,,,,,,,,,,,wg-a,,,,AAXX 03124 07434 12600 70408 10170 20090 39690 40155 56009 60006 86802 91200=
07434,1996-09-03 15:00:00,16,1015.6,-0,63,9,500,18.52,,,40,,,,,,,,,,,wg-a,,,,AAXX 03154 07434 12500 70410 10160 20090 39690 40156 55000 60006 878// 91500=
07434,1996-09-03 18:00:00,15,1015.6,-0.2,67,9,500,11.112,,,50,9.8,17.2,,,,,,,,,wg-a,,,,AAXX 03184 07434 12500 /0506 10150 20090 39688 40156 56002 60006 86800 91800 333 10172 20098=
07434,1996-09-03 21:00:00,14,1016.3,0.4,72,9,500,14.816,,,40,,,,,,,,,,,wg-a,,,,AAXX 03214 07434 12600 30408 10140 20090 39692 40163 51004 60006 83500 92100=
07434,1996-09-04 00:00:00,13,1015.9,-0.4,77,9,11000,11.112,,,40,,,,,,,,,,,wg-a,,,,AAXX 04004 07434 12/61 /0406 10130 20090 39688 40159 58004 60006 90000=
07434,1996-09-04 03:00:00,12,1015.9,-0.2,82,9,500,11.112,,,20,,,,,,,,,,,wg-a,,,,AAXX 04034 07434 12700 20206 10120 20090 39686 40159 55002 60006 82500 90300=
07434,1996-09-04 06:00:00,12,1015.9,-0,82,9,6000,3.704,,,60,11.1,15.3,,,,,,,,,wg-a,,,,AAXX 04064 07434 02/56 00602 10120 20090 39686 40159 55000 60006 80000 90600 333 10153 20111 60004=
07434,1996-09-04 09:00:00,17,1014.7,-0.3,72,12,6000,7.408,,,90,,,,,,,,,,,wg-a,,,,AAXX 04094 07434 12/56 00904 10170 20120 39683 40147 55003 60006 80000 90900=
07434,1996-09-04 12:00:00,20,1014.1,-0.1,56,11,10000,14.816,,,70,,,,,,,,,,,wg-a,,,,AAXX 04124 07434 12660 /0708 10200 20110 39682 40141 58001 60006 86200 91200=
07434,1996-09-04 15:00:00,21,1013.8,-0.3,53,11,15000,14.816,,,90,,,,,,,,,,,wg-a,,,,AAXX 04154 07434 12665 /0908 10210 20110 39679 40138 57003 60006 86800 91500=
07434,1996-09-04 18:00:00,19,1013.5,-0.5,60,11,15000,3.704,,,50,11.8,21.8,,,,,,,,,wg-a,,,,AAXX 04184 07434 12765 10502 10190 20110 39674 40135 56005 60006 81500 91800 333 10218 20118=
07434,1996-09-04 21:00:00,17,1014.7,0.9,68,11,15000,7.408,,,60,,,,,,,,,,,wg-a,,,,AAXX 04214 07434 12765 50604 10170 20110 39683 40147 51009 60006 85500 92100=
07434,1996-09-05 00:00:00,16,1014.2,-0.7,63,9,12000,11.112,,,40,,,,,,,,,,,wg-a,,,,AAXX 05004 07434 12/62 00406 10160 20090 39676 40142 57007 60006 80000 90000=
07434,1996-09-05 03:00:00,14,1014.2,-0.4,77,10,12000,14.816,,,70,,,,,,,,,,,wg-a,,,,AAXX 05034 07434 12/62 00708 10140 20100 39672 40142 55004 60006 80000 90300=
07434,1996-09-05 06:00:00,14,1014.6,0.4,77,10,7000,11.112,,,50,12.7,19,,,,,,,,,wg-a,,,,AAXX 05064 07434 02657 /0506 10140 20100 39676 40146 53004 60006 86500 90600 333 10190 20127 60004=
07434,1996-09-05 09:00:00,19,1014.3,0.6,60,11,8000,11.112,,,90,,,,,,,,,,,wg-a,,,,AAXX 05094 07434 12/58 00906 10190 20110 39682 40143 53006 60006 80000 90900=
07434,1996-09-05 12:00:00,23,1013.3,-0.3,47,11,10000,22.224,,,60,,,,,,,,,,,wg-a,,,,AAXX 05124 07434 12660 40612 10230 20110 39679 40133 58003 60006 84100 91200=
07434,1996-09-05 15:00:00,24,1012.4,-0.8,44,11,15000,14.816,,,30,,,,,,,,,,,wg-a,,,,AAXX 05154 07434 12665 20308 10240 20110 39671 40124 58008 60006 82200 91500=
07434,1996-09-05 18:00:00,21,1013.3,0.4,56,12,15000,11.112,,,10,13.7,24.4,,,,,,,,,wg-a,,,,AAXX 05184 07434 12665 20106 10210 20120 39675 40133 53004 60006 82800 91800 333 10244 20137=
07434,1996-09-05 21:00:00,19,1015.2,1.5,60,11,15000,14.816,,,30,,,,,,,,,,,wg-a,,,,AAXX 05214 07434 12765 20308 10190 20110 39690 40152 51015 60006 82500 92100=
07434,1996-09-06 00:00:00,17,1016.2,0.7,68,11,12000,7.408,,,60,,,,,,,,,,,wg-a,,,,AAXX 06004 07434 12762 30604 10170 20110 39697 40162 51007 60006 83500 90000=
07434,1996-09-06 03:00:00,16,1016.4,0.1,68,10,12000,7.408,,,10,,,,,,,,,,,wg-a,,,,AAXX 06034 07434 12762 10104 10160 20100 39698 40164 52001 60006 81500 90300=
07434,1996-09-06 06:00:00,14,1017.5,0.6,77,10,10000,3.704,,,20,13.8,20.8,,,,,,,,,wg-a,,,,AAXX 06064 07434 02/60 00202 10140 20100 39704 40175 53006 60006 80000 90600 333 10208 20138 60004=
07434,1996-09-06 09:00:00,19,1017.7,1,64,12,10000,14.816,,,20,,,,,,,,,,,wg-a,,,,AAXX 06094 07434 12/60 00208 10190 20120 39714 40177 51010 60006 80000 90900=
07434,1996-09-06 12:00:00,22,1016.8,-0.5,43,9,25000,7.408,,,320,,,,,,,,,,,wg-a,,,,AAXX 06124 07434 12675 /3204 10220 20090 39709 40168 56005 60006 81100 91200=
07434,1996-09-06 15:00:00,23,1015.3,-1.1,44,10,25000,11.112,,,10,,,,,,,,,,,wg-a,,,,AAXX 06154 07434 12775 10106 10230 20100 39698 40153 58011 60006 81100 91500=
07434,1996-09-06 18:00:00,20,1016,0.1,46,8,25000,11.112,,,10,12.9,23.4,,,,,,,,,wg-a,,,,AAXX 06184 07434 12/75 00106 10200 20080 39699 40160 53001 60006 80000 91800 333 10234 20129=
07434,1996-09-06 21:00:00,18,1017.3,0.9,39,4,10000,11.112,,,40,,,,,,,,,,,wg-a,,,,AAXX 06214 07434 12/60 /0406 10180 20040 39708 40173 51009 60006 92100=
07434,1996-09-07 00:00:00,15,1018.6,0.7,44,3,20000,11.112,,,60,,,,,,,,,,,wg-a,,,,AAXX 07004 07434 12/70 00606 10150 20030 39715 40186 51007 60006 80000 90000=
07434,1996-09-07 03:00:00,13,1018.1,-0.7,51,3,20000,18.52,,,60,,,,,,,,,,,wg-a,,,,AAXX 07034 07434 12/70 00610 10130 20030 39708 40181 57007 60006 80000 90300=
07434,1996-09-07 06:00:00,12,1018.8,0.5,58,4,40000,7.408,,,40,11.5,20.2,,,,,,,,,wg-a,,,,AAXX 07064 07434 02/82 00404 10120 20040 39713 40188 53005 60006 80000 90600 333 10202 20115 60004=
07434,1996-09-07 09:00:00,17,1018.6,0.7,52,7,40000,22.224,,,70,,,,,,,,,,,wg-a,,,,AAXX 07094 07434 12/82 00712 10170 20070 39720 40186 52007 60006 80000 90900=
07434,1996-09-07 12:00:00,20,1017.9,-0.3,37,5,50000,22.224,,,70,,,,,,,,,,,wg-a,,,,AAXX 07124 07434 12/84 00712 10200 20050 39717 40179 58003 60006 80000 91200=
07434,1996-09-07 18:00:00,18,1018.4,0.3,39,4,50000,11.112,,,40,12.3,21.3,,,,,,,,,wg-a,,,,AAXX 07184 07434 12/84 00406 10180 20040 39719 40184 53003 60006 80000 91800 333 10213 20123=
07434,1996-09-07 21:00:00,15,1019.6,0.5,39,1,15000,18.52,,,30,,,,,,,,,,,wg-a,,,,AAXX 07214 07434 12/65 00310 10150 20010 39724 40196 50005 60006 80000 92100=
07434,1996-09-08 00:00:00,13,1019.5,-0.4,38,-1,15000,22.224,,,80,,,,,,,,,,,wg-a,,,,AAXX 08004 07434 12/65 00812 10130 21010 39720 40195 55004 60006 80000 90000=
07434,1996-09-08 03:00:00,11,1019,-0.7,50,1,15000,22.224,,,70,,,,,,,,,,,wg-a,,,,AAXX 08034 07434 12/65 00712 10110 20010 39713 40190 58007 60006 80000 90300=
07434,1996-09-08 06:00:00,11,1018.3,-0.7,50,1,60000,22.224,,,70,10.3,18.1,,,,,,,,,wg-a,,,,AAXX 08064 07434 02/86 20712 10110 20010 39706 40183 56007 60006 80001 90600 333 10181 20103 60004=
07434,1996-09-08 09:00:00,15,1017.9,0.3,39,1,75000,31.484,,,70,,,,,,,,,,,wg-a,,,,AAXX 08094 07434 12/89 50717 10150 20010 39709 40179 53003 60006 81031 90900=
07434,1996-09-08 12:00:00,19,1017.3,0,28,0,75000,25.928,,,50,,,,,,,,,,,wg-a,,,,AAXX 08124 07434 12/89 50514 10190 20000 39709 40173 50000 60006 81081 91200=
07434,1996-09-08 15:00:00,20,1015.9,-1.2,28,1,75000,25.928,,,40,,,,,,,,,,,wg-a,,,,AAXX 08154 07434 12/89 40414 10200 20010 39697 40159 57012 60006 80002 91500=
07434,1996-09-08 18:00:00,16,1016.4,-0,39,2,60000,25.928,,,40,10.7,20.1,,,,,,,,,wg-a,,,,AAXX 08184 07434 12/86 10414 10160 20020 39697 40164 55000 60006 80002 91800 333 10201 20107=
07434,1996-09-08 21:00:00,13,1017.6,0.6,51,3,40000,22.224,,,50,,,,,,,,,,,wg-a,,,,AAXX 08214 07434 12/82 10512 10130 20030 39703 40176 50006 60006 80002 92100=
07434,1996-09-09 00:00:00,11,1017.2,-0.7,58,3,40000,22.224,,,50,,,,,,,,,,,wg-a,,,,AAXX 09004 07434 12/82 30512 10110 20030 39696 40172 58007 60006 80002 90000=
07434,1996-09-09 03:00:00,9,1017.1,-0.4,61,2,40000,14.816,,,30,,,,,,,,,,,wg-a,,,,AAXX 09034 07434 12/82 40308 10090 20020 39692 40171 56004 60006 80001 90300=
07434,1996-09-09 06:00:00,8,1018.2,0.9,71,3,40000,14.816,,,30,8.2,16.4,,,,,,,,,wg-a,,,,AAXX 09064 07434 02/82 60308 10080 20030 39701 40182 53009 60006 81032 90600 333 10164 20082 60004=
07434,1996-09-09 09:00:00,14,1017.5,0.3,47,3,25000,31.484,,,60,,,,,,,,,,,wg-a,,,,AAXX 09094 07434 12/75 10617 10140 20030 39704 40175 51003 60006 81032 90900=
07434,1996-09-09 12:00:00,18,1016.4,-0.5,32,1,60000,38.892,,,70,,,,,,,,,,,wg-a,,,,AAXX 09124 07434 12/86 10721 10180 20010 39699 40164 57005 60006 81031 91200=
07434,1996-09-09 15:00:00,19,1015.8,-0.4,32,2,60000,29.632,,,50,,,,,,,,,,,wg-a,,,,AAXX 09154 07434 12786 10516 10190 20020 39695 40158 57004 60006 81100 91500=
07434,1996-09-09 18:00:00,17,1016.7,0.5,36,2,60000,18.52,,,40,8.3,19.2,,,,,,,,,wg-a,,,,AAXX 09184 07434 12/86 00410 10170 20020 39700 40167 53005 60006 80000 91800 333 10192 20083=
07434,1996-09-10 00:00:00,12,1019.2,-0.1,50,2,25000,14.816,,,40,,,,,,,,,,,wg-a,,,,AAXX 10004 07434 12/75 00408 10120 20020 39716 40192 58001 60006 80000 90000=
07434,1996-09-10 03:00:00,10,1018.8,-0.6,57,2,25000,14.816,,,60,,,,,,,,,,,wg-a,,,,AAXX 10034 07434 12/75 00608 10100 20020 39710 40188 57006 60006 80000 90300=
07434,1996-09-10 06:00:00,10,1018.9,-0,62,3,60000,14.816,,,60,9.3,16.5,,,,,,,,,wg-a,,,,AAXX 10064 07434 02/86 00608 10100 20030 39710 40189 55000 60006 80000 90600 333 10165 20093 60004=
07434,1996-09-10 09:00:00,16,1018.6,0.7,42,3,60000,22.224,,,80,,,,,,,,,,,wg-a,,,,AAXX 10094 07434 12/86 10812 10160 20030 39717 40186 51007 60006 80001 90900=
07434,1996-09-10 12:00:00,19,1017.4,-0.7,34,3,10000,18.52,,,80,,,,,,,,,,,wg-a,,,,AAXX 10124 07434 12/60 /0810 10190 20030 39710 40174 58007 60006 91200=
07434,1996-09-10 15:00:00,20,1015.8,-1.3,30,2,60000,14.816,,,100,,,,,,,,,,,wg-a,,,,AAXX 10154 07434 12/86 11008 10200 20020 39697 40158 58013 60006 80001 91500=
07434,1996-09-10 18:00:00,17,1016.3,-0,42,4,60000,11.112,,,20,9.5,20,,,,,,,,,wg-a,,,,AAXX 10184 07434 12/86 10206 10170 20040 39697 40163 54000 60006 80001 91800 333 10200 20095=
07434,1996-09-10 21:00:00,15,1017.2,0.5,41,2,500,11.112,,,30,,,,,,,,,,,wg-a,,,,AAXX 10214 07434 12/00 00306 10150 20020 39702 40172 51005 60006 80000 92100=
07434,1996-09-11 00:00:00,13,1017.1,-0.4,58,5,25000,18.52,,,70,,,,,,,,,,,wg-a,,,,AAXX 11004 07434 12/75 00710 10130 20050 39698 40171 58004 60006 80000 90000=
07434,1996-09-11 03:00:00,11,1016.7,-0.7,62,4,15000,14.816,,,70,,,,,,,,,,,wg-a,,,,AAXX 11034 07434 12/65 00708 10110 20040 39691 40167 58007 60006 80000 90300=
07434,1996-09-11 06:00:00,10,1015.9,-0.9,62,3,10000,14.816,,,60,9.5,17.1,,,,,,,,,wg-a,,,,AAXX 11064 07434 02/60 /0608 10100 20030 39682 40159 56009 60006 90600 333 10171 20095 60004=
07434,1996-09-11 09:00:00,16,1014.9,0.1,48,5,40000,18.52,,,90,,,,,,,,,,,wg-a,,,,AAXX 11094 07434 12/82 10910 10160 20050 39683 40149 53001 60006 80001 90900=
07434,1996-09-11 12:00:00,20,1012.8,-1.5,37,5,40000,18.52,,,90,,,,,,,,,,,wg-a,,,,AAXX 11124 07434 12782 10910 10200 20050 39668 40128 58015 60006 81101 91200=
07434,1996-09-11 15:00:00,21,1011.3,-1.3,35,5,60000,11.112,,,20,,,,,,,,,,,wg-a,,,,AAXX 11154 07434 12786 20206 10210 20050 39655 40113 58013 60006 81101 91500=
07434,1996-09-11 18:00:00,17,1011.1,-0.7,48,6,40000,14.816,,,20,10,21.4,,,,,,,,,wg-a,,,,AAXX 11184 07434 12/82 20208 10170 20060 39648 40111 56007 60006 80001 91800 333 10214 20100=
07434,1996-09-11 21:00:00,14,1012.6,0.8,55,5,15000,18.52,,,30,,,,,,,,,,,wg-a,,,,AAXX 11214 07434 12/65 20310 10140 20050 39656 40126 51008 60006 80001 92100=
07434,1996-09-12 00:00:00,12,1011.7,-1.1,62,5,15000,18.52,,,60,,,,,,,,,,,wg-a,,,,AAXX 12004 07434 12/65 20610 10120 20050 39645 40117 58011 60006 80001 90000=
07434,1996-09-12 03:00:00,11,1010.5,-1.3,66,5,15000,14.816,,,40,,,,,,,,,,,wg-a,,,,AAXX 12034 07434 12/65 20408 10110 20050 39632 40105 57013 60006 80001 90300=
07434,1996-09-12 06:00:00,10,1010.2,-0.4,71,5,15000,11.112,,,20,9.5,17.1,,,,,,,,,wg-a,,,,AAXX 12064 07434 02/65 10206 10100 20050 39628 40102 55004 60006 80001 90600 333 10171 20095 60004=
07434,1996-09-12 12:00:00,18,1009.3,-0.1,45,6,20000,25.928,,,50,,,,,,,,,,,wg-a,,,,AAXX 12124 07434 12670 /0514 10180 20060 39632 40093 58001 60006 81101 91200=
07434,1996-09-12 15:00:00,18,1008.9,-0.4,45,6,20000,14.816,,,360,,,,,,,,,,,wg-a,,,,AAXX 12154 07434 12770 33608 10180 20060 39628 40089 57004 60006 83101 91500=
07434,1996-09-12 18:00:00,16,1009.8,0.5,48,5,500,7.408,,,340,9.9,18.5,,,,,,,,,wg-a,,,,AAXX 12184 07434 12700 33404 10160 20050 39633 40098 53005 60006 82101 91800 333 10185 20099=
07434,1996-09-12 21:00:00,14,1012,1.9,67,8,500,11.112,,,340,,,,,,,,,,,wg-a,,,,AAXX 12214 07434 12800 73406 10140 20080 39652 40120 51019 60006 875// 92100=
07434,1996-09-13 00:00:00,12,1013.2,0.8,82,9,10000,11.112,,,340,,,,,,,,,,,wg-a,,,,AAXX 13004 07434 12/60 /3406 10120 20090 39660 40132 53008 60006 90000=
07434,1996-09-13 03:00:00,11,1013.9,0.4,82,8,20000,11.112,,,360,,,,,,,,,,,wg-a,,,,AAXX 13034 07434 12770 63606 10110 20080 39664 40139 51004 60006 83530 90300=
07434,1996-09-13 06:00:00,9,1015.1,1,81,6,20000,7.408,,,350,9.4,15.7,,,,,,,,,wg-a,,,,AAXX 13064 07434 02570 43504 10090 20060 39674 40151 53010 60006 83530 90600 333 10157 20094 60004=
07434,1996-09-13 09:00:00,13,1015.8,1.3,67,7,25000,11.112,,,340,,,,,,,,,,,wg-a,,,,AAXX 13094 07434 12575 33406 10130 20070 39687 40158 51013 60006 83800 90900=
07434,1996-09-13 12:00:00,15,1016.2,0.5,51,5,500,14.816,,,20,,,,,,,,,,,wg-a,,,,AAXX 13124 07434 12600 /0208 10150 20050 39692 40162 51005 60006 85200 91200=
07434,1996-09-13 15:00:00,14,1015.9,-0.3,47,3,40000,14.816,,,340,,,,,,,,,,,wg-a,,,,AAXX 13154 07434 12682 43408 10140 20030 39689 40159 57003 60006 84200 91500=
07434,1996-09-13 18:00:00,13,1017.4,1.2,47,2,500,7.408,,,20,9.4,16,,,,,,,,,wg-a,,,,AAXX 13184 07434 12700 10204 10130 20020 39701 40174 53012 60006 81400 91800 333 10160 20094=
07434,1996-09-13 21:00:00,12,1019.3,1.6,47,1,500,7.408,,,360,,,,,,,,,,,wg-a,,,,AAXX 13214 07434 12/00 13604 10120 20010 39717 40193 51016 60006 80001 92100=
07434,1996-09-14 00:00:00,10,1020.3,0.7,53,1,500,7.408,,,20,,,,,,,,,,,wg-a,,,,AAXX 14004 07434 12/00 10204 10100 20010 39724 40203 53007 60006 80001 90000=
07434,1996-09-14 03:00:00,8,1021,0.3,71,3,500,7.408,,,50,,,,,,,,,,,wg-a,,,,AAXX 14034 07434 12/00 10504 10080 20030 39727 40210 53003 60006 80001 90300=
07434,1996-09-14 06:00:00,8,1021.6,0.6,71,3,20000,7.408,,,40,6.5,13.1,,,,,,,,,wg-a,,,,AAXX 14064 07434 02/70 10404 10080 20030 39733 40216 53006 60006 80001 90600 333 10131 20065 60004=
07434,1996-09-14 09:00:00,13,1021.9,1.1,62,6,15000,11.112,,,90,,,,,,,,,,,wg-a,,,,AAXX 14094 07434 12565 /0906 10130 20060 39744 40219 51011 60006 81100 90900=
07434,1996-09-14 12:00:00,15,1021.1,-0.4,48,4,500,18.52,,,50,,,,,,,,,,,wg-a,,,,AAXX 14124 07434 12600 40510 10150 20040 39740 40211 58004 60006 84100 91200=
07434,1996-09-14 15:00:00,16,1020.4,-0.6,48,5,40000,22.224,,,40,,,,,,,,,,,wg-a,,,,AAXX 14154 07434 12682 /0412 10160 20050 39734 40204 58006 60006 85100 91500=
07434,1996-09-14 18:00:00,14,1020.5,-0.2,55,5,40000,11.112,,,40,7.3,17.1,,,,,,,,,wg-a,,,,AAXX 14184 07434 12682 30406 10140 20050 39732 40205 56002 60006 83500 91800 333 10171 20073=
07434,1996-09-14 21:00:00,12,1021.5,0.6,62,5,500,14.816,,,40,,,,,,,,,,,wg-a,,,,AAXX 14214 07434 12/00 00408 10120 20050 39738 40215 50006 60006 80000 92100=
07434,1996-09-15 00:00:00,10,1022.1,0.3,71,5,500,14.816,,,60,,,,,,,,,,,wg-a,,,,AAXX 15004 07434 12/00 00608 10100 20050 39741 40221 51003 60006 80000 90000=
07434,1996-09-15 03:00:00,9,1021.8,-0.4,81,6,25000,11.112,,,60,,,,,,,,,,,wg-a,,,,AAXX 15034 07434 12/75 00606 10090 20060 39737 40218 57004 60006 80000 90300=
07434,1996-09-15 06:00:00,9,1021.5,-0.4,76,5,500,18.52,,,60,8.1,13.6,,,,,,,,,wg-a,,,,AAXX 15064 07434 02/00 00610 10090 20050 39733 40215 56004 60006 80000 90600 333 10136 20081 60004=
07434,1996-09-15 09:00:00,14,1020.9,0.4,58,6,500,25.928,,,70,,,,,,,,,,,wg-a,,,,AAXX 15094 07434 12/00 00714 10140 20060 39737 40209 53004 60006 80000 90900=
07434,1996-09-15 12:00:00,18,1020,-0.2,45,6,40000,25.928,,,70,,,,,,,,,,,wg-a,,,,AAXX 15124 07434 12/82 00714 10180 20060 39735 40200 58002 60006 80000 91200=
07434,1996-09-15 15:00:00,20,1019.1,-0.7,40,6,40000,22.224,,,50,,,,,,,,,,,wg-a,,,,AAXX 15154 07434 12/82 00512 10200 20060 39728 40191 56007 60006 80000 91500=
07434,1996-09-15 18:00:00,16,1019.5,-0.1,51,6,40000,11.112,,,40,8.6,19.9,,,,,,,,,wg-a,,,,AAXX 15184 07434 12/82 00406 10160 20060 39727 40195 56001 60006 80000 91800 333 10199 20086=
07434,1996-09-15 21:00:00,14,1020.4,0.4,51,4,500,22.224,,,70,,,,,,,,,,,wg-a,,,,AAXX 15214 07434 12/00 00712 10140 20040 39731 40204 52004 60006 80000 92100=
07434,1996-09-16 00:00:00,12,1020.3,-0.5,58,4,20000,22.224,,,70,,,,,,,,,,,wg-a,,,,AAXX 16004 07434 12/70 00712 10120 20040 39726 40203 58005 60006 80000 90000=
07434,1996-09-16 03:00:00,10,1018.8,-1.6,66,4,15000,18.52,,,70,,,,,,,,,,,wg-a,,,,AAXX 16034 07434 12/65 00710 10100 20040 39710 40188 56016 60006 80000 90300=
07434,1996-09-16 06:00:00,9,1018.4,-0.5,76,5,18000,18.52,,,70,9.2,16.4,,,,,,,,,wg-a,,,,AAXX 16064 07434 02/68 00710 10090 20050 39705 40184 56005 60006 80000 90600 333 10164 20092 60004=
07434,1996-09-16 09:00:00,15,1017,-0.4,55,6,20000,18.52,,,90,,,,,,,,,,,wg-a,,,,AAXX 16094 07434 12/70 00910 10150 20060 39701 40170 56004 60006 80000 90900=
07434,1996-09-16 12:00:00,20,1015.2,-1,43,7,500,14.816,,,70,,,,,,,,,,,wg-a,,,,AAXX 16124 07434 12/00 00708 10200 20070 39691 40152 57010 60006 80000 91200=
07434,1996-09-16 15:00:00,22,1013.1,-1.7,35,6,40000,3.704,,,50,,,,,,,,,,,wg-a,,,,AAXX 16154 07434 12/82 00502 10220 20060 39674 40131 57017 60006 80000 91500=
07434,1996-09-16 18:00:00,19,1012.1,-1.5,43,6,35000,14.816,,,70,9.4,22.4,,,,,,,,,wg-a,,,,AAXX 16184 07434 12/81 10708 10190 20060 39659 40121 56015 60006 80001 91800 333 10224 20094=
07434,1996-09-16 21:00:00,15,1012.2,-0.5,51,5,500,18.52,,,70,,,,,,,,,,,wg-a,,,,AAXX 16214 07434 12/00 20710 10150 20050 39654 40122 58005 60006 80001 92100=
07434,1996-09-17 00:00:00,12,1011.2,-1.3,62,5,500,7.408,,,80,,,,,,,,,,,wg-a,,,,AAXX 17004 07434 12/00 20804 10120 20050 39641 40112 58013 60006 80001 90000=
07434,1996-09-17 03:00:00,12,1010,-1.1,71,7,20000,11.112,,,110,,,,,,,,,,,wg-a,,,,AAXX 17034 07434 12/70 31106 10120 20070 39630 40100 57011 60006 80001 90300=
07434,1996-09-17 06:00:00,12,1009.8,-0.2,71,7,20000,7.408,,,120,11.6,18.5,,,,,,,,,wg-a,,,,AAXX 17064 07434 02/70 31204 10120 20070 39628 40098 55002 60006 80001 90600 333 10185 20116 60004=
07434,1996-09-17 09:00:00,16,1009.5,0.3,63,9,20000,18.52,,,170,,,,,,,,,,,wg-a,,,,AAXX 17094 07434 12/70 51710 10160 20090 39631 40095 52003 60006 80002 90900=
07434,1996-09-17 12:00:00,20,1008.4,-0.4,56,11,20000,11.112,,,250,,,,,,,,,,,wg-a,,,,AAXX 17124 07434 12/70 62506 10200 20110 39627 40084 56004 60006 811// 91200=
07434,1996-09-17 15:00:00,19,1008.2,-0.3,60,11,20000,11.112,,,230,,,,,,,,,,,wg-a,,,,AAXX 17154 07434 12670 /2306 10190 20110 39624 40082 56003 60006 83182 91500=
07434,1996-09-17 18:00:00,16,1008.8,0.2,77,12,500,11.112,,,220,12.2,20.8,,,,,,,,,wg-a,,,,AAXX 17184 07434 12600 62206 10160 20120 39626 40088 53002 60006 83882 91800 333 10208 20122=
07434,1996-09-17 21:00:00,14,1009.8,0.5,88,12,20000,11.112,,,240,,,,,,,,,,,wg-a,,,,AAXX 17214 07434 12770 62406 10140 20120 39631 40098 50005 60006 81531 92100=
07434,1996-09-18 00:00:00,13,1009.5,-0.4,94,12,8000,7.408,,,180,,,,,,,,,,,wg-a,,,,AAXX 18004 07434 12258 81804 10130 20120 39627 40095 58004 60006 876// 90000=
07434,1996-09-18 03:00:00,12,1008.5,-1.1,100,12,4000,11.112,,,170,,,,,,,,,,10,wg-a,,,,AAXX 18034 07434 12140 81706 10120 20120 39616 40085 58011 60006 71022 886// 90300=
07434,1996-09-18 06:00:00,13,1007.5,-0.8,94,12,500,3.704,,,150,12.3,16.7,,,,,,,,,wg-a,,,,AAXX 18064 07434 02200 81502 10130 20120 39608 40075 56008 60006 886// 90600 333 10167 20123 60004=
07434,1996-09-18 09:00:00,14,1006.5,-0.8,88,12,500,11.112,,,150,,,,,,,,,,,wg-a,,,,AAXX 18094 07434 12300 81506 10140 20120 39600 40065 56008 60006 886// 90900=
07434,1996-09-18 12:00:00,18,1004.7,-1.2,68,12,20000,7.408,,,140,,,,,,,,,,,wg-a,,,,AAXX 18124 07434 12570 71404 10180 20120 39588 40047 58012 60006 8423/ 91200=
07434,1996-09-18 15:00:00,19,1002.3,-2.1,60,11,40000,11.112,,,220,,,,,,,,,,,wg-a,,,,AAXX 18154 07434 12582 72206 10190 20110 39567 40023 58021 60006 8483/ 91500=
07434,1996-09-18 18:00:00,16,1001.6,-1,72,11,20000,3.704,,,310,12.7,18.7,,,,,,,,,wg-a,,,,AAXX 18184 07434 12570 73102 10160 20110 39557 40016 56010 60006 8597/ 91800 333 10187 20127=
07434,1996-09-18 21:00:00,13,1001.9,-0.3,94,12,15000,7.408,,,130,,,,5,,,,,,21,wg-a,,,,AAXX 18214 07434 12365 71304 10130 20120 39554 40019 58003 60057 72198 8558/ 92100=
07434,1996-09-19 00:00:00,13,1001.2,-0.7,94,12,12000,7.408,,,160,,,,1,,,,,,21,wg-a,,,,AAXX 19004 07434 02262 71604 10130 20120 39547 40012 57007 60066 72198 867// 90000 333 60017=
07434,1996-09-19 03:00:00,12,1000.4,-0.8,100,12,10000,11.112,,,190,,,,,,,,,,,wg-a,,,,AAXX 19034 07434 12260 71906 10120 20120 39539 40004 58008 60006 867// 90300=
07434,1996-09-19 06:00:00,12,1000.3,-0.2,94,11,2000,3.704,,,160,11.9,16.2,,0,,,6,,,10,wg-a,,,,AAXX 19064 07434 02120 71602 10120 20110 39537 40003 55002 60064 71022 8753/ 90600 333 10162 20119 60007=
07434,1996-09-19 09:00:00,14,1000.1,0.2,88,12,15000,7.408,,,230,,,,,,,,,,,wg-a,,,,AAXX 19094 07434 12265 52304 10140 20120 39539 40001 52002 60006 83830 90900=
07434,1996-09-19 12:00:00,14,1000.8,0.6,88,12,6000,14.816,,,290,,,,0,,,,,,60,wg-a,,,,AAXX 19124 07434 02256 72908 10140 20120 39545 40008 52006 60006 76062 878// 91200 333 60007=
07434,1996-09-19 15:00:00,11,1002.3,0.9,94,10,4000,11.112,,,290,,,,6,,,,,,61,wg-a,,,,AAXX 19154 07434 12240 82906 10110 20100 39554 40023 53009 60067 76198 888// 91500=
07434,1996-09-19 18:00:00,10,1004.4,1.9,93,9,11000,7.408,,,250,10,15.3,,,,,,,,,wg-a,,,,AAXX 19184 07434 32/61 /2504 10100 20090 39573 40044 51019 91800 333 10153 20100=
07434,1996-09-19 21:00:00,8,1006.7,1.9,100,8,8000,11.112,,,240,,,,1,,,,,,25,wg-a,,,,AAXX 19214 07434 12358 /2406 10080 20080 39592 40067 52019 60017 72586 8587/ 92100=
07434,1996-09-20 00:00:00,7,1006.9,0,100,7,4000,11.112,,,190,,,,,,,,,,10,wg-a,,,,AAXX 20004 07434 12240 81906 10070 20070 39592 40069 50000 60016 71086 875// 90000=
07434,1996-09-20 03:00:00,8,1006,-0.8,93,7,4000,7.408,,,180,,,,,,,,,,10,wg-a,,,,AAXX 20034 07434 12140 81804 10080 20070 39584 40060 58008 60006 71022 886// 90300=
07434,1996-09-20 06:00:00,8,1005.6,-0.3,93,7,400,0,,,0,6.8,10,,0,,,8,,,44,wg-a,,,,AAXX 20064 07434 02204 50000 10080 20070 39581 40056 56003 60084 74442 83632 90600 333 10100 20068 60007=
07434,1996-09-20 09:00:00,12,1004.8,-0.1,88,10,4500,14.816,,,180,,,,,,,,,,,wg-a,,,,AAXX 20094 07434 12/45 /1808 10120 20100 39580 40048 58001 60006 90900=
07434,1996-09-20 12:00:00,15,1003.8,-0.5,67,9,20000,18.52,,,170,,,,,,,,,,3,wg-a,,,,AAXX 20124 07434 12670 /1710 10150 20090 39575 40038 57005 60006 70342 83201 91200=
07434,1996-09-20 15:00:00,15,1003,-0.7,59,7,25000,7.408,,,170,,,,,,,,,,,wg-a,,,,AAXX 20154 07434 12675 71704 10150 20070 39568 40030 56007 60006 82132 91500=
07434,1996-09-20 18:00:00,13,1003.1,-0.3,72,8,10000,7.408,,,180,7.7,15.5,,,,,,,,,wg-a,,,,AAXX 20184 07434 12660 71804 10130 20080 39565 40031 58003 60006 8257/ 91800 333 10155 20077=
07434,1996-09-21 06:00:00,12,1000.1,-0,88,10,8000,7.408,,,90,11.1,13,,,,,,,,,wg-a,,,,AAXX 21064 07434 02658 70904 10120 20100 39535 40001 55000 60006 8757/ 90600 333 10130 20111 60004=
07434,1996-09-21 09:00:00,14,1000.2,0.4,77,10,10000,11.112,,,110,,,,,,,,,,,wg-a,,,,AAXX 21094 07434 12560 71106 10140 20100 39539 40002 53004 60006 8657/ 90900=
07434,1996-09-21 12:00:00,15,1000.3,0.3,82,12,12000,7.408,,,100,,,,,,,,,,20,wg-a,,,,AAXX 21124 07434 02462 71004 10150 20120 39542 40003 51003 61000 72065 8767/ 91200 333 6100=
07434,1996-09-21 15:00:00,14,1000.5,0.1,94,13,8000,7.408,,,110,,,,1,,,,,,61,wg-a,,,,AAXX 21154 07434 12258 71104 10140 20130 39543 40005 53001 60017 76165 877// 91500=
07434,1996-09-21 18:00:00,14,1001.2,0.8,94,13,8000,7.408,,,40,11.6,14.8,,,,,,,,60,wg-a,,,,AAXX 21184 07434 32258 70404 10140 20130 39549 40012 52008 76065 877// 91800 333 10148 20116=
07434,1996-09-21 21:00:00,13,1002.7,1.3,94,12,10000,11.112,,,10,,,,0,,,,,,60,wg-a,,,,AAXX 21214 07434 12360 70106 10130 20120 39562 40027 51013 60007 76062 8557/ 92100=
07434,1996-09-22 00:00:00,10,1003.6,0.4,93,9,13000,14.816,,,360,,,,,,,,,,1,wg-a,,,,AAXX 22004 07434 02663 43608 10100 20090 39566 40036 53004 60006 70161 81532 90000 333 61000=
07434,1996-09-22 03:00:00,9,1004.6,0.7,93,8,11000,18.52,,,30,,,,,,,,,,,wg-a,,,,AAXX 22034 07434 12/61 /0310 10090 20080 39573 40046 51007 60006 90300=
07434,1996-09-22 06:00:00,8,1006.2,1.4,100,8,2000,11.112,,,10,8.1,13.7,,,,,,,,10,wg-a,,,,AAXX 22064 07434 32120 80106 10080 20080 39587 40062 53014 71011 876// 90600 333 10137 20081=
07434,1996-09-22 09:00:00,9,1007.9,1.7,93,8,2000,7.408,,,20,,,,,,,,,,10,wg-a,,,,AAXX 22094 07434 02220 80204 10090 20080 39604 40079 53017 61000 71054 887// 90900 333 ////=
07434,1996-09-22 12:00:00,11,1008.7,1.1,87,9,3500,11.112,,,350,,,,0,,,,,,10,wg-a,,,,AAXX 22124 07434 02335 73506 10110 20090 39615 40087 51011 60006 71054 877// 91200 333 60007=
07434,1996-09-22 15:00:00,11,1009.2,0.5,87,9,2600,11.112,,,310,,,,,,,,,,50,wg-a,,,,AAXX 22154 07434 02326 73106 10110 20090 39620 40092 52005 61000 75052 877// 91500 333 ////=
07434,1996-09-22 18:00:00,9,1010.4,0.9,93,8,3000,3.704,,,10,8.1,10.9,,,,,,,,10,wg-a,,,,AAXX 22184 07434 02430 70102 10090 20080 39629 40104 53009 61000 71052 8783/ 91800 333 10109 20081 ////=
07434,1996-09-22 21:00:00,7,1011.7,0.9,93,6,4000,7.408,,,360,,,,,,,,,,10,wg-a,,,,AAXX 22214 07434 12/40 /3604 10070 20060 39638 40117 51009 60006 71011 81030 92100=
07434,1996-09-23 00:00:00,8,1011.5,-0.1,93,7,3000,3.704,,,190,,,,,,,,,,10,wg-a,,,,AAXX 23004 07434 12530 71902 10080 20070 39637 40115 58001 60006 71011 875// 90000=
07434,1996-09-23 03:00:00,8,1010.8,-0.7,93,7,800,0,,,0,,,,0,,,,,,44,wg-a,,,,AAXX 23034 07434 12208 70000 10080 20070 39630 40108 58007 60007 74442 875// 90300=
07434,1996-09-23 06:00:00,7,1011.2,0.3,100,7,200,3.704,,,80,7,9.3,,,,,,,,44,wg-a,,,,AAXX 23064 07434 02/02 90802 10070 20070 39633 40112 53003 60006 74442 89/// 90600 333 10093 20070 60004=
07434,1996-09-23 09:00:00,9,1011.8,0.9,93,8,1500,7.408,,,30,,,,,,,,,,28,wg-a,,,,AAXX 23094 07434 12315 70304 10090 20080 39642 40118 52009 60006 72842 876// 90900=
07434,1996-09-23 12:00:00,13,1010.9,-0.2,58,5,6000,7.408,,,320,,,,,,,,,,1,wg-a,,,,AAXX 23124 07434 12356 73204 10130 20050 39640 40109 58002 60006 70142 8523/ 91200=
07434,1996-09-23 15:00:00,15,1010.5,-0.2,59,7,15000,7.408,,,340,,,,,,,,,,,wg-a,,,,AAXX 23154 07434 12665 53404 10150 20070 39638 40105 55002 60006 85201 91500=
07434,1996-09-23 18:00:00,12,1011.7,0.8,71,7,12000,3.704,,,330,7.1,15.4,,,,,,,,,wg-a,,,,AAXX 23184 07434 12662 63302 10120 20070 39646 40117 53008 60006 86831 91800 333 10154 20071=
07434,1996-09-23 21:00:00,11,1012.8,0.9,76,7,12000,0,,,0,,,,,,,,,,,wg-a,,,,AAXX 23214 07434 12/62 60000 10110 20070 39655 40128 51009 60006 86030 92100=
07434,1996-09-24 00:00:00,10,1012.8,-0.2,87,8,12000,0,,,0,,,,,,,,,,,wg-a,,,,AAXX 24004 07434 12762 70000 10100 20080 39653 40128 58002 60006 875// 90000=
07434,1996-09-24 03:00:00,8,1012.4,-0.7,93,7,8000,7.408,,,50,,,,,,,,,,,wg-a,,,,AAXX 24034 07434 12658 20504 10080 20070 39646 40124 58007 60006 82500 90300=
07434,1996-09-24 06:00:00,7,1013.3,0.6,93,6,500,7.408,,,50,6.8,12.3,,0,,,,,,,wg-a,,,,AAXX 24064 07434 02600 20504 10070 20060 39652 40133 53006 60004 82500 90600 333 10123 20068 60007=
07434,1996-09-24 09:00:00,13,1013,0.7,72,8,6000,3.704,,,130,,,,,,,,,,,wg-a,,,,AAXX 24094 07434 12556 /1302 10130 20080 39659 40130 52007 60006 81100 90900=
07434,1996-09-24 12:00:00,16,1012.5,0.1,48,5,15000,7.408,,,250,,,,,,,,,,,wg-a,,,,AAXX 24124 07434 12665 32504 10160 20050 39660 40125 51001 60006 83100 91200=
07434,1996-09-24 18:00:00,14,1012.3,0.1,63,7,15000,3.704,,,270,6.8,17.7,,,,,,,,,wg-a,,,,AAXX 24184 07434 12/65 62702 10140 20070 39654 40123 52001 60006 84072 91800 333 10177 20068=
07434,1996-09-24 21:00:00,13,1012.1,-0.3,77,9,15000,0,,,0,,,,,,,,,,,wg-a,,,,AAXX 24214 07434 12/65 60000 10130 20090 39651 40121 58003 60006 86072 92100=
07434,1996-09-25 00:00:00,12,1010.7,-1.5,94,11,900,3.704,,,150,,,,2,,,,,,61,wg-a,,,,AAXX 25004 07434 02209 71502 10120 20110 39636 40107 58015 60026 76162 877// 90000 333 60027=
07434,1996-09-25 03:00:00,12,1009.5,-1.1,100,12,10000,18.52,,,260,,,,5,,,,,,21,wg-a,,,,AAXX 25034 07434 12260 72610 10120 20120 39625 40095 56011 60057 72162 877// 90300=
07434,1996-09-25 06:00:00,12,1009.5,-0,94,11,8000,11.112,,,260,11.6,14,,,,,6,,,3,wg-a,,,,AAXX 25064 07434 12258 82606 10120 20110 39625 40095 55000 60064 70362 877// 90600 333 10140 20116=
07434,1996-09-25 09:00:00,12,1010.8,1.2,94,11,40000,14.816,,,230,,,,7,,,,,,1,wg-a,,,,AAXX 25094 07434 12282 72308 10120 20110 39637 40108 51012 60077 70162 876// 90900=
07434,1996-09-25 12:00:00,15,1010.1,-0.2,82,12,25000,14.816,,,230,,,,,,,,,,15,wg-a,,,,AAXX 25124 07434 12475 72308 10150 20120 39635 40101 58002 60076 71562 84803 91200=
07434,1996-09-25 15:00:00,14,1010.4,0.2,82,11,20000,11.112,,,300,,,,1,,,,,,80,wg-a,,,,AAXX 25154 07434 12270 73006 10140 20110 39637 40104 53002 60017 78098 8597/ 91500=
07434,1996-09-25 18:00:00,11,1014.1,3.1,94,10,15000,11.112,,,210,11.3,16.5,,1,,,,,,60,wg-a,,,,AAXX 25184 07434 12465 72106 10110 20100 39668 40141 51031 60017 76098 8197/ 91800 333 10165 20113=
07434,1996-09-25 21:00:00,10,1016.7,2.1,93,9,12000,3.704,,,220,,,,,,,,,,1,wg-a,,,,AAXX 25214 07434 02/62 12202 10100 20090 39689 40167 51021 61000 70161 81030 92100 333 ////=
07434,1996-09-26 00:00:00,9,1018.5,1.7,100,9,800,0,,,0,,,,,,,,,,47,wg-a,,,,AAXX 26004 07434 02/08 90000 10090 20090 39706 40185 51017 61000 74764 89/// 90000 333 ////=
07434,1996-09-26 03:00:00,9,1019.3,0.7,93,8,300,3.704,,,100,,,,,,,,,,45,wg-a,,,,AAXX 26034 07434 32/03 91002 10090 20080 39713 40193 51007 74544 89/// 90300=
07434,1996-09-26 06:00:00,9,1020.7,1.4,100,9,300,3.704,,,130,8.4,11.3,,0,,,9,,,45,wg-a,,,,AAXX 26064 07434 02/03 91302 10090 20090 39727 40207 53014 60094 74544 89/// 90600 333 10113 20084 60007=
07434,1996-09-26 09:00:00,10,1021.8,1.2,100,10,400,7.408,,,160,,,,,,,,,,45,wg-a,,,,AAXX 26094 07434 12/04 91604 10100 20100 39739 40218 53012 60006 74544 89/// 90900=
07434,1996-09-26 12:00:00,15,1020.3,-0.6,82,12,15000,11.112,,,190,,,,,,,,,,1,wg-a,,,,AAXX 26124 07434 12465 /1906 10150 20120 39733 40203 58006 60006 70142 86200 91200=
07434,1996-09-26 15:00:00,16,1019,-1.1,68,10,500,11.112,,,190,,,,,,,,,,,wg-a,,,,AAXX 26154 07434 12500 81906 10160 20100 39722 40190 57011 60006 86802 91500=
07434,1996-09-26 18:00:00,14,1019.2,-0.1,82,11,20000,7.408,,,200,9.1,16.9,,,,,,,,,wg-a,,,,AAXX 26184 07434 12670 82004 10140 20110 39721 40192 55001 60006 8357/ 91800 333 10169 20091=
07434,1996-09-26 21:00:00,13,1018.3,-1,94,12,12000,18.52,,,190,,,,1,,,,,,21,wg-a,,,,AAXX 26214 07434 12662 71910 10130 20120 39711 40183 58010 60017 72162 8257/ 92100=
07434,1996-09-27 00:00:00,13,1018.6,0.2,88,11,500,22.224,,,210,,,,,,,,,,51,wg-a,,,,AAXX 27004 07434 02400 82112 10130 20110 39713 40186 50002 60016 75165 877// 90000 333 61000=
07434,1996-09-27 03:00:00,12,1018,-0.7,100,12,800,14.816,,,190,,,,,,,,,,45,wg-a,,,,AAXX 27034 07434 32/08 91908 10120 20120 39706 40180 57007 74565 89/// 90300=
07434,1996-09-27 06:00:00,13,1018.8,0.9,94,12,6000,7.408,,,250,12,14.1,,1,,,3,,,1,wg-a,,,,AAXX 27064 07434 02156 82504 10130 20120 39715 40188 53009 60034 70165 887// 90600 333 10141 20120 60017=
07434,1996-09-27 09:00:00,14,1019,0.5,100,14,6000,11.112,,,200,,,,,,,,,,1,wg-a,,,,AAXX 27094 07434 02156 82006 10140 20140 39720 40190 51005 61000 70154 887// 90900 333 ////=
07434,1996-09-27 12:00:00,16,1018.9,0.1,94,15,10000,18.52,,,250,,,,1,,,,,,20,wg-a,,,,AAXX 27124 07434 02260 82510 10160 20150 39721 40189 53001 60016 72054 878// 91200 333 60017=
07434,1996-09-27 15:00:00,18,1018.9,0.3,73,13,25000,18.52,,,260,,,,1,,,,,,1,wg-a,,,,AAXX 27154 07434 12675 42610 10180 20130 39724 40189 50003 60017 70151 84800 91500=
07434,1996-09-27 18:00:00,14,1021.9,2.2,82,11,500,11.112,,,270,12.7,17.9,,,,,,,,1,wg-a,,,,AAXX 27184 07434 32500 42706 10140 20110 39746 40219 51022 70151 83830 91800 333 10179 20127=
07434,1996-09-27 20:00:00,14,1021.9,2.2,82,11,500,11.112,,,270,,17.9,,,,,,,,1,wg-a,,,,AAXX 27204 07434 32500 42706 10140 20110 39746 40219 51022 70151 83830 92000 333 10179=
07434,1996-09-27 21:00:00,12,1024.7,2.4,94,11,12000,11.112,,,290,,,,,,,,,,,wg-a,,,,AAXX 27214 07434 12262 72906 10120 20110 39770 40247 51024 60006 876// 92100=
07434,1996-09-28 00:00:00,12,1025.9,1.2,94,11,12000,7.408,,,290,,,,,,,,,,,wg-a,,,,AAXX 28004 07434 12262 72904 10120 20110 39782 40259 51012 60006 875// 90000=
07434,1996-09-28 03:00:00,11,1026.5,0.3,100,11,8000,3.704,,,260,,,,,,,,,,,wg-a,,,,AAXX 28034 07434 12358 72602 10110 20110 39785 40265 53003 60006 875// 90300=
07434,1996-09-28 06:00:00,11,1027.5,0.9,94,10,8000,3.704,,,60,10.4,13.9,,,,,2,,,,wg-a,,,,AAXX 28064 07434 02258 70602 10110 20100 39794 40275 51009 60006 875// 90600 333 10139 20104 60024=
07434,1996-09-28 12:00:00,17,1026.8,0.4,59,9,20000,3.704,,,110,,,,,,,,,,,wg-a,,,,AAXX 28124 07434 12570 /1102 10170 20090 39798 40268 50004 60006 83201 91200=
07434,1996-09-28 15:00:00,18,1025.3,-1.3,52,8,500,3.704,,,190,,,,,,,,,,,wg-a,,,,AAXX 28154 07434 12600 /1902 10180 20080 39785 40253 58013 60006 81401 91500=
07434,1996-09-28 18:00:00,15,1026.1,0.2,67,9,0,3.704,,,340,10.4,18.8,,,,,,,,,wg-a,,,,AAXX 28184 07434 12/// /3402 10150 20090 39787 40261 50002 60006 91800 333 10188 20104=
07434,1996-09-28 21:00:00,13,1026.3,-0,77,9,500,3.704,,,50,,,,,,,,,,,wg-a,,,,AAXX 28214 07434 12/00 40502 10130 20090 39787 40263 55000 60006 80001 92100=
07434,1996-09-29 00:00:00,11,1026.4,-0.3,82,8,500,3.704,,,60,,,,,,,,,,,wg-a,,,,AAXX 29004 07434 12/00 30602 10110 20080 39784 40264 56003 60006 80001 90000=
07434,1996-09-29 03:00:00,8,1026.1,-0.7,93,7,15000,11.112,,,40,,,,,,,,,,,wg-a,,,,AAXX 29034 07434 12/65 40406 10080 20070 39777 40261 56007 60006 80001 90300=
07434,1996-09-29 06:00:00,8,1026.4,0.2,93,7,6000,3.704,,,70,7.9,14.6,,,,,,,,,wg-a,,,,AAXX 29064 07434 02/56 40702 10080 20070 39779 40264 53002 60006 80001 90600 333 10146 20079 60004=
07434,1996-09-29 09:00:00,14,1026.6,1.2,77,10,10000,3.704,,,140,,,,,,,,,,,wg-a,,,,AAXX 29094 07434 12/60 51402 10140 20100 39791 40266 51012 60006 80001 90900=
07434,1996-09-29 12:00:00,18,1025.2,-0.7,64,11,500,7.408,,,220,,,,,,,,,,,wg-a,,,,AAXX 29124 07434 12/00 32204 10180 20110 39784 40252 58007 60006 80001 91200=
07434,1996-09-29 15:00:00,21,1023.8,-0.9,49,10,40000,7.408,,,250,,,,,,,,,,,wg-a,,,,AAXX 29154 07434 12/82 02504 10210 20100 39775 40238 56009 60006 80000 91500=
07434,1996-09-29 18:00:00,16,1023.4,-1,72,11,40000,7.408,,,220,7.8,20.9,,,,,,,,,wg-a,,,,AAXX 29184 07434 12/82 02204 10160 20110 39765 40234 56010 60006 80000 91800 333 10209 20078=
07434,1996-09-29 21:00:00,14,1024,0.1,77,10,500,3.704,,,220,,,,,,,,,,,wg-a,,,,AAXX 29214 07434 12/00 02202 10140 20100 39766 40240 50001 60006 80000 92100=
07434,1996-09-30 00:00:00,13,1023.2,-0.9,82,10,25000,0,,,0,,,,,,,,,,,wg-a,,,,AAXX 30004 07434 12/75 00000 10130 20100 39757 40232 58009 60006 80000 90000=
07434,1996-09-30 03:00:00,11,1021.5,-2,87,9,25000,3.704,,,70,,,,,,,,,,,wg-a,,,,AAXX 30034 07434 32/75 00702 10110 20090 39737 40215 58020 80000 90300=
07434,1996-09-30 06:00:00,10,1020.5,-1.1,87,8,20000,7.408,,,80,9.9,16.4,,,,,,,,,wg-a,,,,AAXX 30064 07434 12/70 10804 10100 20080 39726 40205 56011 60004 80001 90600 333 10164 20099=
07434,1996-09-30 09:00:00,15,1018.1,-1.4,72,10,20000,11.112,,,140,,,,,,,,,,,wg-a,,,,AAXX 30094 07434 12/70 11406 10150 20100 39712 40181 58014 60006 80001 90900=
07434,1996-09-30 12:00:00,21,1014.3,-2.8,49,10,500,22.224,,,180,,,,,,,,,,,wg-a,,,,AAXX 30124 07434 12/00 11812 10210 20100 39684 40143 58028 60006 80001 91200=
07434,1996-09-30 15:00:00,22,1010.4,-3.5,50,11,500,22.224,,,180,,,,,,,,,,,wg-a,,,,AAXX 30154 07434 12/00 11812 10220 20110 39649 40104 56035 60006 80001 91500=
07434,1996-09-30 18:00:00,19,1008.9,-1.9,60,11,500,7.408,,,160,10,22.4,,,,,,,,,wg-a,,,,AAXX 30184 07434 12/00 31604 10190 20110 39630 40089 56019 60006 82083 91800 333 10224 20100=
07434,1996-10-01 00:00:00,15,1007.8,-0.4,100,15,10000,18.52,,,220,,,,1,,,,,,61,wg-a,,,,AAXX 01004 07434 02260 72210 10150 20150 39615 40078 56004 60016 76196 878// 90000 333 60017=
07434,1996-10-01 03:00:00,15,1004.8,-3,94,14,500,18.52,,,220,,,,,,,,,,,wg-a,,,,AAXX 01034 07434 32/05 /2210 10150 20140 39585 40048 56030 90300=
07434,1996-10-01 06:00:00,12,1004.7,-0.5,100,12,8000,18.52,,,290,12.1,18.7,,7,,,18,,,80,wg-a,,,,AAXX 01064 07434 02258 82910 10120 20120 39580 40047 55005 60184 78098 879// 90600 333 10187 20121 60077=
07434,1996-10-01 09:00:00,12,1007.7,2.7,94,11,500,18.52,,,230,,,,15,,,,,,10,wg-a,,,,AAXX 01094 07434 12200 82310 10120 20110 39607 40077 51027 60157 71096 877// 90900=
07434,1996-10-01 12:00:00,11,1010.2,2.2,94,10,11000,18.52,,37.04,340,,,,,,,,,,,wg-a,,,,AAXX 01124 07434 12/61 /3410 10110 20100 39629 40102 53022 60246 91200 333 91020=
07434,1996-10-01 15:00:00,12,1014.1,3.9,88,10,500,14.816,,,330,,,,1,,,,,,21,wg-a,,,,AAXX 01154 07434 12400 73308 10120 20100 39668 40141 53039 60017 72162 86830 91500=
07434,1996-10-01 18:00:00,11,1016.3,2,87,9,500,3.704,,,310,10,12.3,,5,,,,,,63,wg-a,,,,AAXX 01184 07434 12400 83102 10110 20090 39688 40163 53020 60057 76386 879// 91800 333 10123 20100=
07434,1996-10-01 21:00:00,10,1018.1,1.5,93,9,15000,7.408,,,260,,,,,,,,,,3,wg-a,,,,AAXX 01214 07434 02465 52604 10100 20090 39703 40181 51015 61000 70362 8528/ 92100 333 ////=
07434,1996-10-02 00:00:00,8,1017.8,-0.6,93,7,15000,7.408,,,240,,,,0,,,,,,3,wg-a,,,,AAXX 02004 07434 02565 52404 10080 20070 39697 40178 58006 60006 70362 8528/ 90000 333 60007=
07434,1996-10-02 03:00:00,8,1016,-1.7,100,8,500,11.112,,,210,,,,,,,,,,,wg-a,,,,AAXX 02034 07434 12300 /2106 10080 20080 39680 40160 58017 60006 8668/ 90300=
07434,1996-10-02 06:00:00,9,1014.8,-1,93,8,4000,7.408,,,180,7.5,10.7,,1,,,31,,,60,wg-a,,,,AAXX 02064 07434 02240 81804 10090 20080 39670 40148 58010 60314 76086 887// 90600 333 10107 20075 60017=
07434,1996-10-02 09:00:00,9,1014.5,-0.2,100,9,20000,11.112,,,150,,,,6,,,,,,28,wg-a,,,,AAXX 02094 07434 12270 71506 10090 20090 39668 40145 55002 60067 72865 877// 90900=
07434,1996-10-02 12:00:00,11,1016,1.7,94,10,9000,3.704,,,70,,,,2,,,,,,50,wg-a,,,,AAXX 02124 07434 02259 80702 10110 20100 39685 40160 53017 60096 75065 888// 91200 333 60027=
07434,1996-10-02 18:00:00,11,1021.7,3.1,87,9,40000,11.112,,,360,8.5,13.6,,,,,,,,1,wg-a,,,,AAXX 02184 07434 32582 73606 10110 20090 39739 40217 53031 70152 878// 91800 333 10136 20085=
07434,1996-10-02 21:00:00,10,1024.8,2.7,87,8,40000,7.408,,,30,,,,,,,,,,,wg-a,,,,AAXX 02214 07434 12/82 00304 10100 20080 39766 40248 53027 60006 80000 92100=
07434,1996-10-03 00:00:00,8,1026.7,1.6,93,7,20000,11.112,,,330,,,,,,,,,,,wg-a,,,,AAXX 03004 07434 12/70 03306 10080 20070 39782 40267 53016 60006 80000 90000=
07434,1996-10-03 03:00:00,8,1027,0.3,93,7,500,11.112,,,350,,,,,,,,,,,wg-a,,,,AAXX 03034 07434 12/00 03506 10080 20070 39785 40270 51003 60006 80000 90300=
07434,1996-10-03 06:00:00,4,1028.9,1.1,100,4,300,0,,,0,4.3,10.9,,0,,,9,,,44,wg-a,,,,AAXX 03064 07434 02103 40000 10040 20040 39796 40289 53011 60094 74440 84600 90600 333 10109 20043 60007=
07434,1996-10-03 09:00:00,8,1029.7,1.5,100,8,400,3.704,,,120,,,,,,,,,,42,wg-a,,,,AAXX 03094 07434 12104 41202 10080 20080 39811 40297 51015 60006 74244 84600 90900=
07434,1996-10-03 12:00:00,14,1028.3,-0.4,77,10,12000,7.408,,,270,,,,,,,,,,3,wg-a,,,,AAXX 03124 07434 12462 /2704 10140 20100 39807 40283 58004 60006 70341 82101 91200=
07434,1996-10-03 15:00:00,15,1027,-1.1,67,9,20000,7.408,,,280,,,,,,,,,,,wg-a,,,,AAXX 03154 07434 12570 /2804 10150 20090 39796 40270 56011 60006 82101 91500=
07434,1996-10-03 18:00:00,12,1027.2,-0.3,82,9,20000,3.704,,,280,4.3,15.2,,,,,,,,,wg-a,,,,AAXX 03184 07434 12/70 52802 10120 20090 39793 40272 55003 60006 80001 91800 333 10152 20043=
07434,1996-10-03 21:00:00,11,1027.5,0.2,82,8,20000,7.408,,,270,,,,,,,,,,,wg-a,,,,AAXX 03214 07434 12/70 32704 10110 20080 39795 40275 53002 60006 80001 92100=
07434,1996-10-04 00:00:00,8,1027,-1,93,7,400,0,,,0,,,,,,,,,,44,wg-a,,,,AAXX 04004 07434 12104 /0000 10080 20070 39785 40270 58010 60006 74441 86601 90000=
07434,1996-10-04 03:00:00,8,1026,-1,100,8,500,0,,,0,,,,0,,,,,,42,wg-a,,,,AAXX 04034 07434 12205 70000 10080 20080 39775 40260 56010 60007 74244 876// 90300=
07434,1996-10-04 06:00:00,8,1025.3,-0.7,93,7,700,0,,,0,7.3,11.7,,,,,,,,45,wg-a,,,,AAXX 04064 07434 12/07 90000 10080 20070 39768 40253 58007 60004 74542 89/// 90600 333 10117 20073=
07434,1996-10-04 09:00:00,9,1025,0,100,9,1100,3.704,,,150,,,,,,,,,,,wg-a,,,,AAXX 04094 07434 12/11 /1502 10090 20090 39768 40250 50000 60006 90900=
07434,1996-10-04 12:00:00,11,1023.4,-1.2,100,11,1200,11.112,,,230,,,,0,,,,,,10,wg-a,,,,AAXX 04124 07434 02112 82306 10110 20110 39756 40234 57012 60016 71054 887// 91200 333 60007=
07434,1996-10-04 15:00:00,12,1021,-2.2,94,11,2000,14.816,,,230,,,,1,,,,,,51,wg-a,,,,AAXX 04154 07434 12120 82308 10120 20110 39734 40210 56022 60017 75152 887// 91500=
07434,1996-10-04 18:00:00,10,1021.1,-0.3,93,9,3000,11.112,,,330,7.6,12,,3,,,,,,61,wg-a,,,,AAXX 04184 07434 12030 83306 10100 20090 39731 40211 55003 60037 76165 887// 91800 333 10120 20076=
07434,1996-10-04 21:00:00,9,1021,-0.2,93,8,800,7.408,,,270,,,,0,,,,,,42,wg-a,,,,AAXX 04214 07434 12208 92704 10090 20080 39729 40210 55002 60007 74264 896// 92100=
07434,1996-10-05 00:00:00,8,1019.8,-1.2,100,8,2500,14.816,,,290,,,,,,,,,,10,wg-a,,,,AAXX 05004 07434 12225 72908 10080 20080 39717 40198 58012 60006 71064 876// 90000=
07434,1996-10-05 03:00:00,7,1019.1,-0.9,100,7,500,3.704,,,260,,,,,,,,,,,wg-a,,,,AAXX 05034 07434 12200 42602 10070 20070 39708 40191 57009 60006 84830 90300=
07434,1996-10-05 06:00:00,7,1018.7,-0.4,100,7,7000,7.408,,,280,6.7,9.5,,0,,,5,,,40,wg-a,,,,AAXX 05064 07434 02157 72804 10070 20070 39704 40187 56004 60054 74011 876// 90600 333 10095 20067 60007=
07434,1996-10-05 09:00:00,8,1019.9,1.3,100,8,7000,11.112,,,310,,,,,,,,,,,wg-a,,,,AAXX 05094 07434 12257 /3106 10080 20080 39717 40199 51013 60006 86600 90900=
07434,1996-10-05 12:00:00,11,1019.1,-0.3,76,7,500,11.112,,,340,,,,,,,,,,,wg-a,,,,AAXX 05124 07434 12500 63406 10110 20070 39714 40191 58003 60006 86801 91200=
07434,1996-10-05 15:00:00,10,1018.4,-0.8,76,6,20000,11.112,,,340,,,,1,,,,,,16,wg-a,,,,AAXX 05154 07434 12470 53406 10100 20060 39706 40184 55008 60017 71686 83903 91500=
07434,1996-10-05 18:00:00,9,1019.3,0.7,71,4,25000,14.816,,,350,7,12.4,,,,,,,,1,wg-a,,,,AAXX 05184 07434 32575 /3508 10090 20040 39713 40193 53007 70186 85930 91800 333 10124 20070=
07434,1996-10-05 21:00:00,6,1020.9,1,93,5,15000,11.112,,,350,,,,,,,,,,,wg-a,,,,AAXX 05214 07434 12/65 03506 10060 20050 39723 40209 51010 60006 80000 92100=
07434,1996-10-06 00:00:00,6,1020.7,-0.3,93,5,15000,18.52,,,10,,,,,,,,,,,wg-a,,,,AAXX 06004 07434 12165 /0110 10060 20050 39720 40207 58003 60006 85600 90000=
07434,1996-10-06 03:00:00,5,1020.4,-0.4,93,4,10000,14.816,,,360,,,,,,,,,,,wg-a,,,,AAXX 06034 07434 12160 73608 10050 20040 39716 40204 58004 60006 876// 90300=
07434,1996-10-06 06:00:00,5,1021,0.6,93,4,500,14.816,,,10,4.3,9.4,,,,,1,,,,wg-a,,,,AAXX 06064 07434 02300 70108 10050 20040 39722 40210 51006 60006 875// 90600 333 10094 20043 60014=
07434,1996-10-06 09:00:00,7,1021.7,1,93,6,500,14.816,,,20,,,,,,,,,,,wg-a,,,,AAXX 06094 07434 12200 70208 10070 20060 39732 40217 52010 60006 876// 90900=
07434,1996-10-06 12:00:00,8,1021.3,-0.1,81,5,15000,18.52,,,20,,,,,,,,,,,wg-a,,,,AAXX 06124 07434 12465 70210 10080 20050 39731 40213 58001 60006 878// 91200=
07434,1996-10-06 15:00:00,9,1021.3,0.1,76,5,20000,14.816,,,30,,,,,,,,,,,wg-a,,,,AAXX 06154 07434 12570 70308 10090 20050 39732 40213 53001 60006 878// 91500=
07434,1996-10-06 18:00:00,8,1022.2,,81,5,15000,11.112,,,360,5.1,9.2,,,,,,,,,wg-a,,,,AAXX 06184 07434 12565 33606 10080 20050 39739 40222 60006 83800 91800 333 10092 20051=
07434,1996-10-06 21:00:00,7,1022.5,0.1,87,5,10000,18.52,,,20,,,,,,,,,,,wg-a,,,,AAXX 06214 07434 12460 30210 10070 20050 39740 40225 50001 60006 83500 92100=
07434,1996-10-07 00:00:00,7,1022.4,-0.2,87,5,10000,14.816,,,20,,,,,,,,,,,wg-a,,,,AAXX 07004 07434 12660 20208 10070 20050 39738 40224 58002 60006 82500 90000=
07434,1996-10-07 03:00:00,5,1021.7,-0.9,93,4,8000,14.816,,,360,,,,,,,,,,,wg-a,,,,AAXX 07034 07434 12/58 03608 10050 20040 39729 40217 58009 60006 80000 90300=
07434,1996-10-07 06:00:00,4,1021.5,-0.3,100,4,1200,14.816,,,360,4.3,8,,,,,,,,10,wg-a,,,,AAXX 07064 07434 02112 23608 10040 20040 39726 40215 57003 60006 71041 82600 90600 333 10080 20043 60004=
07434,1996-10-07 09:00:00,7,1021.8,0.8,93,6,6000,14.816,,,10,,,,,,,,,,,wg-a,,,,AAXX 07094 07434 12256 20108 10070 20060 39734 40218 52008 60006 82600 90900=
07434,1996-10-07 12:00:00,12,1020.1,-0.9,62,5,12000,22.224,,,30,,,,,,,,,,,wg-a,,,,AAXX 07124 07434 12562 /0312 10120 20050 39725 40201 58009 60006 85200 91200=
07434,1996-10-07 15:00:00,12,1020.2,0.1,67,6,25000,7.408,,,20,,,,,,,,,,,wg-a,,,,AAXX 07154 07434 12575 70204 10120 20060 39726 40202 53001 60006 878// 91500=
07434,1996-10-07 18:00:00,11,1020.9,0.5,76,7,18000,7.408,,,340,4.3,12.3,,,,,,,,,wg-a,,,,AAXX 07184 07434 12668 73404 10110 20070 39731 40209 53005 60006 875// 91800 333 10123 20043=
07434,1996-10-07 21:00:00,9,1021.7,0.5,81,6,15000,11.112,,,340,,,,,,,,,,,wg-a,,,,AAXX 07214 07434 12665 43406 10090 20060 39736 40217 52005 60006 84500 92100=
07434,1996-10-08 00:00:00,7,1021.8,-0.2,81,4,10000,14.816,,,340,,,,,,,,,,,wg-a,,,,AAXX 08004 07434 12660 23408 10070 20040 39734 40218 58002 60006 82500 90000=
07434,1996-10-08 03:00:00,7,1021.2,-0.7,93,6,10000,11.112,,,350,,,,,,,,,,,wg-a,,,,AAXX 08034 07434 12760 13506 10070 20060 39727 40212 58007 60006 81500 90300=
07434,1996-10-08 06:00:00,7,1022.1,0.9,93,6,600,11.112,,,340,6.5,10.6,,,,,,,,43,wg-a,,,,AAXX 08064 07434 02/06 93406 10070 20060 39736 40221 53009 60006 74341 89/// 90600 333 10106 20065 60004=
07434,1996-10-08 09:00:00,8,1022,-0,93,7,3000,18.52,,,330,,,,0,,,,,,10,wg-a,,,,AAXX 08094 07434 12130 /3310 10080 20070 39736 40220 55000 60007 71041 81600 90900=
07434,1996-10-08 12:00:00,12,1021.1,0,71,7,15000,18.52,,,350,,,,,,,,,,1,wg-a,,,,AAXX 08124 07434 12565 /3510 10120 20070 39736 40211 50000 60006 70141 81100 91200=
07434,1996-10-08 15:00:00,14,1020.4,-0.4,63,7,40000,14.816,,,10,,,,,,,,,,,wg-a,,,,AAXX 08154 07434 12582 20108 10140 20070 39732 40204 56004 60006 82100 91500=
07434,1996-10-08 18:00:00,12,1021.7,0.8,76,8,15000,7.408,,,340,6,14.6,,,,,,,,,wg-a,,,,AAXX 08184 07434 32565 /3404 10120 20080 39740 40217 53008 81101 91800 333 10146 20060=
07434,1996-10-08 21:00:00,10,1022.5,0.6,93,9,15000,11.112,,,340,,,,,,,,,,,wg-a,,,,AAXX 08214 07434 12765 33406 10100 20090 39746 40225 51006 60006 83500 92100=
07434,1996-10-09 00:00:00,10,1022.3,-0.3,93,9,8000,11.112,,,340,,,,,,,,,,,wg-a,,,,AAXX 09004 07434 12758 /3406 10100 20090 39743 40223 58003 60006 81500 90000=
07434,1996-10-09 03:00:00,9,1021.8,-0.5,100,9,400,11.112,,,300,,,,,,,,,,45,wg-a,,,,AAXX 09034 07434 32/04 93006 10090 20090 39738 40218 56005 74541 89/// 90300=
07434,1996-10-09 06:00:00,9,1022.2,0.3,93,8,300,3.704,,,110,8,11.5,,,,,1,,,45,wg-a,,,,AAXX 09064 07434 12/03 91102 10090 20080 39741 40222 52003 60014 74541 89/// 90600 333 10115 20080=
07434,1996-10-09 09:00:00,10,1023.1,1,93,9,400,7.408,,,290,,,,,,,,,,45,wg-a,,,,AAXX 09094 07434 12/04 92904 10100 20090 39751 40231 52010 60006 74544 89/// 90900=
07434,1996-10-09 12:00:00,12,1022.2,-0.5,94,11,2500,11.112,,,290,,,,,,,,,,10,wg-a,,,,AAXX 09124 07434 12225 /2906 10120 20110 39746 40222 58005 60006 71042 876// 91200=
07434,1996-10-09 15:00:00,13,1021.4,-0.6,88,11,6000,7.408,,,310,,,,,,,,,,,wg-a,,,,AAXX 09154 07434 12356 73104 10130 20110 39740 40214 56006 60006 878// 91500=
07434,1996-10-09 18:00:00,12,1022.1,0.5,88,10,8000,3.704,,,300,8.8,13.1,,,,,,,,,wg-a,,,,AAXX 09184 07434 12658 73002 10120 20100 39745 40221 53005 60006 878// 91800 333 10131 20088=
07434,1996-10-09 21:00:00,11,1022.9,0.7,94,10,8000,7.408,,,320,,,,,,,,,,,wg-a,,,,AAXX 09214 07434 12558 83204 10110 20100 39752 40229 51007 60006 885// 92100=
07434,1996-10-10 00:00:00,11,1022.6,-0.4,100,11,8000,3.704,,,270,,,,,,,,,,,wg-a,,,,AAXX 10004 07434 12358 82702 10110 20110 39748 40226 58004 60006 885// 90000=
07434,1996-10-10 03:00:00,11,1022.1,-0.5,94,10,7000,11.112,,,20,,,,,,,,,,,wg-a,,,,AAXX 10034 07434 12157 /0206 10110 20100 39743 40221 58005 60006 86600 90300=
07434,1996-10-10 06:00:00,9,1022.9,0.4,93,8,6000,11.112,,,30,8.6,12,,,,,,,,,wg-a,,,,AAXX 10064 07434 02156 /0306 10090 20080 39747 40229 53004 60006 86600 90600 333 10120 20086 60004=
07434,1996-10-10 09:00:00,9,1024,1.2,100,9,8000,7.408,,,10,,,,,,,,,,,wg-a,,,,AAXX 10094 07434 12258 /0104 10090 20090 39759 40240 51012 60006 86600 90900=
07434,1996-10-10 12:00:00,12,1023.2,-0.3,82,9,9000,3.704,,,180,,,,,,,,,,,wg-a,,,,AAXX 10124 07434 12459 /1802 10120 20090 39756 40232 58003 60006 86500 91200=
07434,1996-10-10 15:00:00,12,1022.1,-1.1,76,8,15000,11.112,,,10,,,,,,,,,,,wg-a,,,,AAXX 10154 07434 12565 /0106 10120 20080 39745 40221 56011 60006 85102 91500=
07434,1996-10-10 18:00:00,10,1022.7,0.3,87,8,20000,11.112,,,20,8.8,13.8,,,,,,,,,wg-a,,,,AAXX 10184 07434 12570 /0206 10100 20080 39748 40227 53003 60006 83502 91800 333 10138 20088=
07434,1996-10-10 21:00:00,9,1023.4,0.4,93,8,12000,11.112,,,60,,,,,,,,,,,wg-a,,,,AAXX 10214 07434 12662 20606 10090 20080 39752 40234 51004 60006 81502 92100=
07434,1996-10-11 00:00:00,8,1022.4,-1.1,93,7,9000,14.816,,,60,,,,,,,,,,,wg-a,,,,AAXX 11004 07434 12/59 00608 10080 20070 39741 40224 57011 60006 80000 90000=
07434,1996-10-11 03:00:00,8,1021.3,-1.1,93,7,8000,11.112,,,80,,,,,,,,,,,wg-a,,,,AAXX 11034 07434 12/58 00806 10080 20070 39730 40213 58011 60006 80000 90300=
07434,1996-10-11 06:00:00,7,1021.2,-0.2,93,6,500,7.408,,,60,7,10.2,,0,,,1,,,,wg-a,,,,AAXX 11064 07434 02/00 00604 10070 20060 39728 40212 56002 60014 80000 90600 333 10102 20070 60007=
07434,1996-10-11 09:00:00,12,1020.9,0.5,71,7,8000,11.112,,,110,,,,,,,,,,,wg-a,,,,AAXX 11094 07434 12/58 21106 10120 20070 39733 40209 53005 60006 80002 90900=
07434,1996-10-11 12:00:00,16,1018.8,-1.3,59,8,25000,7.408,,,190,,,,,,,,,,,wg-a,,,,AAXX 11124 07434 12575 31904 10160 20080 39720 40188 58013 60006 81102 91200=
07434,1996-10-11 15:00:00,17,1017.3,-1.3,52,7,500,7.408,,,200,,,,,,,,,,,wg-a,,,,AAXX 11154 07434 12600 32004 10170 20070 39707 40173 56013 60006 81102 91500=
07434,1996-10-11 18:00:00,13,1017.7,-0.3,72,8,25000,3.704,,,220,7.1,17.6,,,,,,,,,wg-a,,,,AAXX 11184 07434 12/75 62202 10130 20080 39704 40177 56003 60006 80002 91800 333 10176 20071=
07434,1996-10-11 21:00:00,11,1017.6,-0.4,87,9,15000,0,,,0,,,,,,,,,,,wg-a,,,,AAXX 11214 07434 12/65 40000 10110 20090 39700 40176 57004 60006 80002 92100=
07434,1996-10-12 00:00:00,9,1016.9,-1,87,7,15000,7.408,,,70,,,,,,,,,,,wg-a,,,,AAXX 12004 07434 12/65 20704 10090 20070 39690 40169 56010 60006 80002 90000=
07434,1996-10-12 03:00:00,8,1016.2,-0.8,93,7,15000,3.704,,,120,,,,,,,,,,,wg-a,,,,AAXX 12034 07434 12/65 21202 10080 20070 39682 40162 56008 60006 80002 90300=
07434,1996-10-12 06:00:00,8,1015.5,-0.7,87,6,15000,7.408,,,100,7.7,12.6,,,,,,,,,wg-a,,,,AAXX 12064 07434 02/65 21004 10080 20060 39675 40155 57007 60006 80001 90600 333 10126 20077 60004=
07434,1996-10-12 09:00:00,12,1014.7,-0,76,8,10000,11.112,,,150,,,,0,,,,,,,wg-a,,,,AAXX 12094 07434 12/60 11506 10120 20080 39675 40147 55000 60007 80001 90900=
07434,1996-10-12 12:00:00,18,1012.7,-1.1,59,10,20000,22.224,,,170,,,,,,,,,,,wg-a,,,,AAXX 12124 07434 12/70 11712 10180 20100 39664 40127 58011 60006 80001 91200=
07434,1996-10-12 15:00:00,18,1011.2,-1.4,59,10,10000,18.52,,,170,,,,,,,,,,,wg-a,,,,AAXX 12154 07434 12/60 /1710 10180 20100 39650 40112 56014 60006 91500=
07434,1996-10-12 18:00:00,15,1011.2,-0.4,67,9,15000,18.52,,,150,7.7,18.1,,,,,,,,,wg-a,,,,AAXX 12184 07434 32/65 11510 10150 20090 39646 40112 55004 80001 91800 333 10181 20077=
07434,1996-10-12 21:00:00,13,1011.5,-0.1,77,9,15000,14.816,,,150,,,,,,,,,,,wg-a,,,,AAXX 12214 07434 12/65 21508 10130 20090 39645 40115 56001 60006 80001 92100=
07434,1996-10-13 00:00:00,12,1010.3,-1.3,76,8,15000,14.816,,,140,,,,,,,,,,,wg-a,,,,AAXX 13004 07434 12/65 01408 10120 20080 39632 40103 58013 60006 80000 90000=
07434,1996-10-13 03:00:00,12,1008.8,-1.4,82,9,15000,14.816,,,150,,,,,,,,,,,wg-a,,,,AAXX 13034 07434 12/65 01508 10120 20090 39618 40088 56014 60006 80000 90300=
07434,1996-10-13 06:00:00,13,1007.7,-0.9,72,8,20000,14.816,,,130,11.6,15,,,,,,,,,wg-a,,,,AAXX 13064 07434 02/70 51308 10130 20080 39609 40077 58009 60006 84082 90600 333 10150 20116 60004=
07434,1996-10-13 09:00:00,16,1006.7,-0.4,63,9,20000,22.224,,,150,,,,,,,,,,,wg-a,,,,AAXX 13094 07434 12/70 31512 10160 20090 39605 40067 56004 60006 81082 90900=
07434,1996-10-13 12:00:00,19,1004.3,-1.9,56,10,25000,31.484,,55.56,170,,,,,,,,,,,wg-a,,,,AAXX 13124 07434 12675 41717 10190 20100 39586 40043 58019 60006 82102 91200 333 91030=
07434,1996-10-13 15:00:00,19,1003.6,-0.6,52,9,25000,25.928,,46.3,170,,,,,,,,,,,wg-a,,,,AAXX 13154 07434 12675 31714 10190 20090 39580 40036 56006 60006 81102 91500 333 91025=
07434,1996-10-13 18:00:00,16,1003.8,-0.3,63,9,25000,25.928,,,160,12.7,20,,,,,,,,,wg-a,,,,AAXX 13184 07434 12775 41614 10160 20090 39577 40038 57003 60006 81102 91800 333 10200 20127=
07434,1996-10-13 21:00:00,14,1004,-0.2,72,9,20000,18.52,,,140,,,,,,,,,,,wg-a,,,,AAXX 13214 07434 12/70 21410 10140 20090 39575 40040 56002 60006 80001 92100=
07434,1996-10-14 00:00:00,14,1003.6,-0.3,77,10,15000,18.52,,,150,,,,,,,,,,,wg-a,,,,AAXX 14004 07434 12/65 61510 10140 20100 39572 40036 58003 60006 83032 90000=
07434,1996-10-14 03:00:00,15,1002.3,-1.1,72,10,15000,18.52,,,150,,,,,,,,,,,wg-a,,,,AAXX 14034 07434 12765 71510 10150 20100 39561 40023 58011 60006 8353/ 90300=
07434,1996-10-14 06:00:00,15,1002.3,-0,67,9,20000,18.52,,,150,13.6,16,,,,,,,,,wg-a,,,,AAXX 14064 07434 02/70 61510 10150 20090 39561 40023 55000 60006 83082 90600 333 10160 20136 60004=
07434,1996-10-14 09:00:00,16,1003.8,1.6,68,10,40000,18.52,,,170,,,,,,,,,,,wg-a,,,,AAXX 14094 07434 12682 71710 10160 20100 39577 40038 52016 60006 82572 90900=
07434,1996-10-14 12:00:00,17,1003.3,-0.3,68,11,20000,31.484,,50.004,170,,,,,,,,,,,wg-a,,,,AAXX 14124 07434 12570 81717 10170 20110 39574 40033 58003 60006 8652/ 91200 333 91027=
07434,1996-10-14 15:00:00,14,1003.6,-0.1,94,13,7000,7.408,,,150,,,,0,,,,,,60,wg-a,,,,AAXX 14154 07434 12357 81504 10140 20130 39573 40036 55001 60007 76062 8657/ 91500=
07434,1996-10-14 18:00:00,13,1005.3,1.4,100,13,6000,11.112,,,280,13.3,17.2,,11,,,,,,61,wg-a,,,,AAXX 14184 07434 12256 82806 10130 20130 39587 40053 53014 60117 76162 875// 91800 333 10172 20133=
07434,1996-10-14 21:00:00,12,1007.2,1.7,100,12,10000,7.408,,,240,,,,,,,,,,1,wg-a,,,,AAXX 14214 07434 02360 72404 10120 20120 39604 40072 53017 61000 70162 8657/ 92100 333 ////=
07434,1996-10-15 00:00:00,12,1008.2,0.8,94,11,9000,7.408,,,210,,,,,,,,,,1,wg-a,,,,AAXX 15004 07434 02259 72104 10120 20110 39612 40082 51008 61000 70162 8657/ 90000 333 ////=
07434,1996-10-15 03:00:00,11,1009,0.7,100,11,10000,14.816,,,290,,,,1,,,,,,25,wg-a,,,,AAXX 15034 07434 12360 72908 10110 20110 39619 40090 52007 60017 72522 8687/ 90300=
07434,1996-10-15 06:00:00,11,1010.5,1.3,94,10,10000,11.112,,,290,10.5,13.3,,,,,12,,,3,wg-a,,,,AAXX 15064 07434 12260 72906 10110 20100 39632 40105 52013 60124 70386 8767/ 90600 333 10133 20105=
07434,1996-10-15 09:00:00,11,1012.1,1.7,100,11,15000,11.112,,,290,,,,,,,,,,,wg-a,,,,AAXX 15094 07434 12165 72906 10110 20110 39649 40121 53017 60006 85130 90900=
07434,1996-10-15 12:00:00,13,1012.5,0.7,82,10,50000,14.816,,,290,,,,,,,,,,1,wg-a,,,,AAXX 15124 07434 02584 /2908 10130 20100 39656 40125 50007 61000 70186 85201 91200 333 6100=
07434,1996-10-15 15:00:00,13,1012.5,0.7,,,50000,14.816,,,290,,,,,,,,,,1,wg-a,,,,AAXX 15154 07434 02584 62908 10130 2//// 39656 40125 50007 61000 70186 85201 91500 333 6100=
07434,1996-10-15 18:00:00,13,1013.3,1.3,72,8,15000,3.704,,,260,10.5,15.3,,,,,,,,,wg-a,,,,AAXX 15184 07434 32565 72602 10130 20080 39662 40133 53013 878// 91800 333 10153 20105=
07434,1996-10-15 21:00:00,11,1014.1,0.4,94,10,10000,18.52,,,290,,,,0,,,,,,1,wg-a,,,,AAXX 15214 07434 12360 82910 10110 20100 39666 40141 53004 60007 70186 875// 92100=
07434,1996-10-16 00:00:00,7,1014.6,-0.1,87,5,10000,7.408,,,320,,,,,,,,,,1,wg-a,,,,AAXX 16004 07434 12560 23204 10070 20050 39665 40146 55001 60016 70186 82500 90000=
07434,1996-10-16 03:00:00,5,1015,0,93,4,7000,7.408,,,300,,,,,,,,,,,wg-a,,,,AAXX 16034 07434 12657 23004 10050 20040 39665 40150 50000 60006 82500 90300=
07434,1996-10-16 06:00:00,4,1015.1,0,100,4,10000,3.704,,,300,4.2,12.9,,,,,,,,,wg-a,,,,AAXX 16064 07434 12660 /3002 10040 20040 39665 40151 50000 60004 81801 90600 333 10129 20042=
07434,1996-10-16 09:00:00,8,1014.5,0.1,87,6,10000,7.408,,,130,,,,,,,,,,,wg-a,,,,AAXX 16094 07434 12660 71304 10080 20060 39666 40145 50001 60006 878// 90900=
07434,1996-10-16 12:00:00,12,1012.8,-1,67,6,40000,11.112,,,290,,,,,,,,,,,wg-a,,,,AAXX 16124 07434 12682 /2906 10120 20060 39656 40128 58010 60006 86800 91200=
07434,1996-10-16 15:00:00,11,1012,-0.9,82,8,25000,11.112,,,230,,,,,,,,,,80,wg-a,,,,AAXX 16154 07434 02575 72306 10110 20080 39647 40120 56009 61000 78086 878// 91500 333 ////=
07434,1996-10-16 18:00:00,9,1012.5,0.1,93,8,11000,7.408,,,230,4.1,13.2,,,,,,,,1,wg-a,,,,AAXX 16184 07434 32/61 /2304 10090 20080 39648 40125 52001 70186 91800 333 10132 20041=
07434,1996-10-17 00:00:00,9,1011.4,-1,93,8,0,11.112,,,190,,,,,,,,,,,wg-a,,,,AAXX 17004 07434 12/// /1906 10090 20080 39638 40114 57010 60006 90000=
07434,1996-10-17 06:00:00,8,1010.2,0.8,100,8,2000,14.816,,,270,7.9,9.2,,4,,,7,,,10,wg-a,,,,AAXX 17064 07434 02120 72708 10080 20080 39625 40102 53008 60074 71011 876// 90600 333 10092 20079 60047=
07434,1996-10-17 09:00:00,9,1011.7,1.5,87,7,40000,11.112,,,300,,,,,,,,,,,wg-a,,,,AAXX 17094 07434 12382 /3006 10090 20070 39640 40117 51015 60006 85100 90900=
07434,1996-10-17 12:00:00,11,1011.8,0.4,71,6,50000,11.112,,,280,,,,,,,,,,,wg-a,,,,AAXX 17124 07434 12584 42806 10110 20060 39644 40118 50004 60006 84200 91200=
07434,1996-10-17 15:00:00,13,1011.4,-0,58,5,50000,14.816,,,330,,,,,,,,,,,wg-a,,,,AAXX 17154 07434 12584 23308 10130 20050 39644 40114 55000 60006 82200 91500=
07434,1996-10-17 18:00:00,9,1013.2,1,71,4,50000,3.704,,,320,7.2,13.1,,,,,,,,,wg-a,,,,AAXX 17184 07434 12/84 03202 10090 20040 39654 40132 53010 60006 80000 91800 333 10131 20072=
07434,1996-10-17 21:00:00,7,1014.3,0.8,81,4,40000,3.704,,,70,,,,,,,,,,,wg-a,,,,AAXX 17214 07434 12/82 10702 10070 20040 39662 40143 51008 60006 80001 92100=
07434,1996-10-18 00:00:00,5,1014.8,0.1,93,4,10000,7.408,,,40,,,,,,,,,,,wg-a,,,,AAXX 18004 07434 12/60 10404 10050 20040 39663 40148 53001 60006 80001 90000=
07434,1996-10-18 03:00:00,4,1015,-0.1,87,2,10000,7.408,,,60,,,,,,,,,,,wg-a,,,,AAXX 18034 07434 12/60 00604 10040 20020 39662 40150 58001 60006 80000 90300=
07434,1996-10-18 06:00:00,4,1015.3,0.3,87,2,500,7.408,,,90,3.2,8.9,,,,,,,,,wg-a,,,,AAXX 18064 07434 02/00 60904 10040 20020 39665 40153 53003 60006 86051 90600 333 10089 20032 60004=
07434,1996-10-18 09:00:00,7,1015.4,0.7,87,5,11000,11.112,,,120,,,,,,,,,,,wg-a,,,,AAXX 18094 07434 12/61 /1206 10070 20050 39672 40154 51007 60006 90900=
07434,1996-10-18 12:00:00,10,1015.3,0.4,93,9,6000,11.112,,,180,,,,1,,,,,,50,wg-a,,,,AAXX 18124 07434 02256 81806 10100 20090 39676 40153 50004 60016 75065 877// 91200 333 60017=
07434,1996-10-18 15:00:00,10,1015.1,0,100,10,500,14.816,,,170,,,,1,,,,,,50,wg-a,,,,AAXX 18154 07434 12100 81708 10100 20100 39676 40151 50000 60017 75065 887// 91500=
07434,1996-10-18 18:00:00,11,1016.9,1.9,100,11,12000,11.112,,,240,3.5,12.1,,1,,,,,,3,wg-a,,,,AAXX 18184 07434 12462 62406 10110 20110 39695 40169 53019 60017 70365 85801 91800 333 10121 20035=
07434,1996-10-18 21:00:00,11,1019,1.9,94,10,8000,14.816,,,240,,,,,,,,,,,wg-a,,,,AAXX 18214 07434 12258 72408 10110 20100 39714 40190 53019 60006 876// 92100=
07434,1996-10-19 00:00:00,11,1019.5,0.5,100,11,6000,14.816,,,220,,,,,,,,,,,wg-a,,,,AAXX 19004 07434 12156 72208 10110 20110 39719 40195 51005 60006 876// 90000=
07434,1996-10-19 03:00:00,12,1020,0.6,100,12,8000,18.52,,,250,,,,0,,,,,,21,wg-a,,,,AAXX 19034 07434 12158 72510 10120 20120 39725 40200 52006 60007 72122 876// 90300=
07434,1996-10-19 06:00:00,12,1021.6,1.5,94,11,9000,18.52,,,280,11,12.1,,1,,,3,,,3,wg-a,,,,AAXX 19064 07434 02259 72810 10120 20110 39740 40216 53015 60034 70362 877// 90600 333 10121 20110 60017=
07434,1996-10-19 09:00:00,12,1024.2,2.5,94,11,9000,11.112,,,290,,,,,,,,,,,wg-a,,,,AAXX 19094 07434 12359 72906 10120 20110 39765 40242 51025 60006 877// 90900=
07434,1996-10-19 12:00:00,14,1026.1,2.1,77,10,15000,14.816,,,290,,,,,,,,,,,wg-a,,,,AAXX 19124 07434 12465 /2908 10140 20100 39786 40261 51021 60006 86230 91200=
07434,1996-10-19 15:00:00,14,1026.7,0.6,72,9,20000,11.112,,,290,,,,,,,,,,,wg-a,,,,AAXX 19154 07434 12570 52906 10140 20090 39792 40267 53006 60006 85230 91500=
07434,1996-10-19 18:00:00,12,1028.4,1.3,82,9,20000,3.704,,,260,11.6,15.6,,,,,,,,,wg-a,,,,AAXX 19184 07434 12570 52602 10120 20090 39805 40284 53013 60006 85830 91800 333 10156 20116=
07434,1996-10-19 21:00:00,12,1029.5,1,82,9,18000,3.704,,,300,,,,,,,,,,,wg-a,,,,AAXX 19214 07434 12668 73002 10120 20090 39815 40295 53010 60006 84531 92100=
07434,1996-10-20 00:00:00,10,1029.1,-0.7,93,9,15000,3.704,,,50,,,,,,,,,,,wg-a,,,,AAXX 20004 07434 12/65 20502 10100 20090 39808 40291 58007 60006 80001 90000=
07434,1996-10-20 06:00:00,7,1028.6,-0,93,6,8000,7.408,,,60,6.7,12.4,,0,,,,,,,wg-a,,,,AAXX 20064 07434 02/58 30604 10070 20060 39798 40286 55000 60004 81031 90600 333 10124 20067 60007=
07434,1996-10-20 12:00:00,16,1026.3,-1.1,68,10,10000,11.112,,,180,,,,,,,,,,,wg-a,,,,AAXX 20124 07434 12/60 /1806 10160 20100 39791 40263 58011 60006 91200=
07434,1996-10-20 15:00:00,17,1024.7,-1.3,63,10,40000,11.112,,,180,,,,,,,,,,,wg-a,,,,AAXX 20154 07434 12/82 71806 10170 20100 39778 40247 56013 60006 85031 91500=
07434,1996-10-20 18:00:00,15,1025.3,0.1,67,9,50000,11.112,,,210,6.6,18,,,,,,,,,wg-a,,,,AAXX 20184 07434 12/84 72106 10150 20090 39779 40253 53001 60006 85031 91800 333 10180 20066=
07434,1996-10-20 21:00:00,13,1025.7,0.2,82,10,500,7.408,,,210,,,,,,,,,,,wg-a,,,,AAXX 20214 07434 12/00 42104 10130 20100 39781 40257 53002 60006 84031 92100=
07434,1996-10-21 00:00:00,13,1025.4,-0.3,94,12,9000,11.112,,,250,,,,,,,,,,,wg-a,,,,AAXX 21004 07434 12359 72506 10130 20120 39778 40254 56003 60006 8773/ 90000=
07434,1996-10-21 03:00:00,13,1024.5,-0.9,94,12,800,3.704,,,200,,,,0,,,,,,44,wg-a,,,,AAXX 21034 07434 12208 72002 10130 20120 39769 40245 58009 60007 74442 876// 90300=
07434,1996-10-21 06:00:00,14,1024.3,0,94,13,800,11.112,,,240,12.5,14.5,,0,,,1,,,51,wg-a,,,,AAXX 21064 07434 02108 72406 10140 20130 39769 40243 50000 60014 75154 877// 90600 333 10145 20125 60007=
07434,1996-10-21 09:00:00,14,1024.5,0.3,100,14,1200,14.816,,,250,,,,2,,,,,,10,wg-a,,,,AAXX 21094 07434 12112 72508 10140 20140 39772 40245 52003 60027 71065 877// 90900=
07434,1996-10-21 12:00:00,15,1024.1,-0.2,100,15,1200,11.112,,,290,,,,1,,,,,,10,wg-a,,,,AAXX 21124 07434 02112 72906 10150 20150 39770 40241 58002 60036 71065 877// 91200 333 60017=
07434,1996-10-21 15:00:00,16,1023.6,-0.3,100,16,500,7.408,,,310,,,,1,,,,,,20,wg-a,,,,AAXX 21154 07434 12200 73104 10160 20160 39767 40236 58003 60017 72052 877// 91500=
07434,1996-10-21 18:00:00,15,1024.4,0.5,94,14,12000,3.704,,,10,13.4,16.2,,,,,,,,11,wg-a,,,,AAXX 21184 07434 32462 20102 10150 20140 39772 40244 53005 71151 82100 91800 333 10162 20134=
07434,1996-10-21 21:00:00,14,1025.2,0.6,94,13,300,7.408,,,310,,,,,,,,,,44,wg-a,,,,AAXX 21214 07434 32/03 93104 10140 20130 39778 40252 52006 74441 89/// 92100=
07434,1996-10-22 00:00:00,14,1024.3,-0.9,94,13,700,0,,,0,,,,,,,,,,44,wg-a,,,,AAXX 22004 07434 12107 70000 10140 20130 39769 40243 58009 60006 74441 876// 90000=
07434,1996-10-22 03:00:00,12,1023.7,-0.8,100,12,500,7.408,,,80,,,,0,,,,,,44,wg-a,,,,AAXX 22034 07434 12005 70804 10120 20120 39761 40237 56008 60007 74444 876// 90300=
07434,1996-10-22 06:00:00,11,1024,0.1,100,11,400,11.112,,,90,11.2,14.8,,,,,4,,,45,wg-a,,,,AAXX 22064 07434 12/04 90906 10110 20110 39762 40240 53001 60044 74542 89/// 90600 333 10148 20112=
07434,1996-10-22 09:00:00,12,1024,0.1,100,12,700,11.112,,,60,,,,,,,,,,43,wg-a,,,,AAXX 22094 07434 12/07 90606 10120 20120 39763 40240 52001 60006 74344 89/// 90900=
07434,1996-10-22 15:00:00,20,1019.5,-1.5,46,8,40000,18.52,,,60,,,,,,,,,,,wg-a,,,,AAXX 22154 07434 12/82 10610 10200 20080 39732 40195 56015 60006 80001 91500=
07434,1996-10-22 18:00:00,15,1019.9,-0.3,63,8,40000,22.224,,,70,10.9,20,,,,,,,,,wg-a,,,,AAXX 22184 07434 12/82 30712 10150 20080 39729 40199 56003 60006 80001 91800 333 10200 20109=
07434,1996-10-22 21:00:00,14,1019.9,-0.3,63,7,40000,18.52,,,70,,,,,,,,,,,wg-a,,,,AAXX 22214 07434 12/82 10710 10140 20070 39726 40199 58003 60006 80001 92100=
07434,1996-10-23 00:00:00,13,1019,-1,51,3,40000,14.816,,,80,,,,,,,,,,,wg-a,,,,AAXX 23004 07434 12/82 00808 10130 20030 39716 40190 58010 60006 80000 90000=
07434,1996-10-23 03:00:00,14,1018.1,-0.7,38,0,20000,7.408,,,50,,,,,,,,,,,wg-a,,,,AAXX 23034 07434 12/70 00504 10140 20000 39709 40181 57007 60006 80000 90300=
07434,1996-10-23 06:00:00,11,1018.6,-0,54,2,20000,7.408,,,60,10.6,15.5,,,,,,,,,wg-a,,,,AAXX 23064 07434 02/70 20604 10110 20020 39709 40186 55000 60006 80001 90600 333 10155 20106 60004=
07434,1996-10-23 12:00:00,21,1017.6,-0.3,40,7,500,14.816,,,160,,,,,,,,,,,wg-a,,,,AAXX 23124 07434 12/00 11608 10210 20070 39716 40176 58003 60006 80001 91200=
07434,1996-10-23 15:00:00,23,1016.4,-0.8,41,9,10000,11.112,,,140,,,,,,,,,,,wg-a,,,,AAXX 23154 07434 12/60 /1406 10230 20090 39708 40164 56008 60006 91500=
07434,1996-10-23 18:00:00,18,1018.1,0.8,49,7,500,7.408,,,180,10.7,23.4,,,,,,,,,wg-a,,,,AAXX 23184 07434 12/00 11804 10180 20070 39716 40181 53008 60006 80001 91800 333 10234 20107=
07434,1996-10-23 21:00:00,16,1018.9,0.5,59,8,500,3.704,,,140,,,,,,,,,,,wg-a,,,,AAXX 23214 07434 12/00 01402 10160 20080 39721 40189 53005 60006 80000 92100=
07434,1996-10-24 00:00:00,13,1019.5,0.1,67,7,20000,7.408,,,110,,,,,,,,,,,wg-a,,,,AAXX 24004 07434 12/70 01104 10130 20070 39722 40195 51001 60006 80000 90000=
07434,1996-10-24 03:00:00,12,1020,0.3,76,8,20000,7.408,,,90,,,,,,,,,,,wg-a,,,,AAXX 24034 07434 12/70 00904 10120 20080 39725 40200 50003 60006 80000 90300=
07434,1996-10-24 06:00:00,12,1020.1,-0,67,6,10000,7.408,,,110,11.2,18.2,,,,,,,,,wg-a,,,,AAXX 24064 07434 02/60 /1104 10120 20060 39725 40201 54000 60006 90600 333 10182 20112 60004=
07434,1996-10-24 09:00:00,15,1020.2,0.6,55,6,500,14.816,,,130,,,,,,,,,,,wg-a,,,,AAXX 24094 07434 12/00 41308 10150 20060 39731 40202 50006 60006 80001 90900=
07434,1996-10-24 12:00:00,19,1018.5,-0.9,52,9,500,14.816,,,180,,,,,,,,,,,wg-a,,,,AAXX 24124 07434 12/00 51808 10190 20090 39722 40185 58009 60006 80002 91200=
07434,1996-10-24 15:00:00,19,1017.6,-0.8,56,10,20000,14.816,,,190,,,,,,,,,,,wg-a,,,,AAXX 24154 07434 12/70 31908 10190 20100 39714 40176 55008 60006 80001 91500=
07434,1996-10-24 18:00:00,16,1018.7,0.5,72,11,10000,7.408,,,160,11.5,20.1,,,,,,,,,wg-a,,,,AAXX 24184 07434 12/60 /1604 10160 20110 39719 40187 53005 60006 91800 333 10201 20115=
07434,1996-10-24 21:00:00,14,1019.2,0.2,82,11,15000,11.112,,,130,,,,,,,,,,,wg-a,,,,AAXX 24214 07434 12/65 61306 10140 20110 39721 40192 53002 60006 84032 92100=
07434,1996-10-25 00:00:00,13,1019.6,0.1,82,10,15000,7.408,,,150,,,,,,,,,,,wg-a,,,,AAXX 25004 07434 12/65 51504 10130 20100 39722 40196 52001 60006 84032 90000=
07434,1996-10-25 03:00:00,12,1019.8,0.1,82,9,10000,7.408,,,140,,,,,,,,,,,wg-a,,,,AAXX 25034 07434 12660 71404 10120 20090 39723 40198 50001 60006 82532 90300=
07434,1996-10-25 06:00:00,12,1021.3,1.4,82,9,6000,11.112,,,200,11.3,15.8,,,,,,,,,wg-a,,,,AAXX 25064 07434 02756 72006 10120 20090 39737 40213 53014 60006 8157/ 90600 333 10158 20113 60004=
07434,1996-10-25 12:00:00,14,1024.1,0.6,82,11,9000,11.112,,,210,,,,,,,,,,,wg-a,,,,AAXX 25124 07434 12459 72106 10140 20110 39767 40241 50006 60006 87532 91200=
07434,1996-10-25 18:00:00,12,1025.9,1.4,94,11,12000,3.704,,,220,11.3,15.1,,,,,,,,,wg-a,,,,AAXX 25184 07434 12662 52202 10120 20110 39781 40259 53014 60006 85832 91800 333 10151 20113=
07434,1996-10-26 00:00:00,10,1027.7,0.2,100,10,7000,7.408,,,230,,,,,,,,,,,wg-a,,,,AAXX 26004 07434 12257 72304 10100 20100 39795 40277 51002 60006 876// 90000=
07434,1996-10-26 06:00:00,9,1027.9,0.1,100,9,500,0,,,0,9.1,11.9,,,,,,,,1,wg-a,,,,AAXX 26064 07434 12100 /0000 10090 20090 39795 40279 50001 60004 70142 876// 90600 333 10119 20091=
07434,1996-10-26 12:00:00,14,1027.9,-0.4,72,9,20000,14.816,,,230,,,,,,,,,,,wg-a,,,,AAXX 26124 07434 12570 /2308 10140 20090 39803 40279 58004 60006 85202 91200=
07434,1996-10-26 15:00:00,14,1027,-0.8,72,9,20000,11.112,,,220,,,,,,,,,,,wg-a,,,,AAXX 26154 07434 12570 72206 10140 20090 39795 40270 55008 60006 85802 91500=
07434,1996-10-26 18:00:00,13,1027.3,0.1,82,10,20000,7.408,,,210,8.9,14.5,,,,,,,,,wg-a,,,,AAXX 26184 07434 12570 72104 10130 20100 39796 40273 53001 60006 8657/ 91800 333 10145 20089=
07434,1996-10-26 21:00:00,12,1027,-0.5,88,10,20000,7.408,,,190,,,,,,,,,,,wg-a,,,,AAXX 26214 07434 12670 71904 10120 20100 39791 40270 58005 60006 82502 92100=
07434,1996-10-27 00:00:00,11,1027,-0.1,94,10,18000,0,,,0,,,,,,,,,,,wg-a,,,,AAXX 27004 07434 12668 70000 10110 20100 39790 40270 57001 60006 8151/ 90000=
07434,1996-10-27 03:00:00,10,1025.4,-1.7,93,9,15000,0,,,0,,,,,,,,,,,wg-a,,,,AAXX 27034 07434 12/65 70000 10100 20090 39773 40254 56017 60006 85031 90300=
07434,1996-10-27 06:00:00,10,1025.2,-0.3,93,9,12000,3.704,,,70,9.5,12.7,,,,,,,,,wg-a,,,,AAXX 27064 07434 02/62 70702 10100 20090 39770 40252 58003 60006 83072 90600 333 10127 20095 60004=
07434,1996-10-27 09:00:00,12,1024.5,-0.2,82,9,9000,7.408,,,150,,,,,,,,,,,wg-a,,,,AAXX 27094 07434 12/59 71504 10120 20090 39768 40245 58002 60006 82032 90900=
07434,1996-10-27 12:00:00,16,1023.2,-0.7,63,9,20000,14.816,,,200,,,,,,,,,,,wg-a,,,,AAXX 27124 07434 12/70 62008 10160 20090 39761 40232 58007 60006 82032 91200=
07434,1996-10-27 15:00:00,16,1021.6,-1.5,68,10,25000,14.816,,,200,,,,,,,,,,,wg-a,,,,AAXX 27154 07434 12/75 72008 10160 20100 39746 40216 56015 60006 80001 91500=
07434,1996-10-27 18:00:00,13,1021.7,-0.3,82,10,25000,11.112,,,200,9.2,16.6,,,,,,,,,wg-a,,,,AAXX 27184 07434 12/75 42006 10130 20100 39743 40217 56003 60006 80001 91800 333 10166 20092=
07434,1996-10-27 21:00:00,11,1021.7,-0.3,87,9,15000,3.704,,,180,,,,,,,,,,,wg-a,,,,AAXX 27214 07434 12/65 41802 10110 20090 39740 40217 56003 60006 80001 92100=
07434,1996-10-28 00:00:00,10,1020.8,-1.1,87,8,12000,7.408,,,150,,,,,,,,,,,wg-a,,,,AAXX 28004 07434 12/62 31504 10100 20080 39729 40208 58011 60006 80001 90000=
07434,1996-10-28 03:00:00,10,1019.8,-1,87,8,9000,18.52,,,180,,,,,,,,,,,wg-a,,,,AAXX 28034 07434 12/59 /1810 10100 20080 39719 40198 58010 60006 80002 90300=
07434,1996-10-28 06:00:00,9,1018.7,-1.1,93,8,10000,11.112,,,170,9.1,13.2,,0,,,,,,,wg-a,,,,AAXX 28064 07434 02/60 61706 10090 20080 39708 40187 56011 60004 83032 90600 333 10132 20091 60007=
07434,1996-10-28 09:00:00,12,1018.4,0.1,82,9,12000,25.928,,,190,,,,,,,,,,,wg-a,,,,AAXX 28094 07434 12/62 71914 10120 20090 39709 40184 53001 60006 8705/ 90900=
07434,1996-10-28 12:00:00,13,1017.2,-0.9,88,11,6000,22.224,,,220,,,,,,,,,,51,wg-a,,,,AAXX 28124 07434 02356 82212 10130 20110 39700 40172 58009 61000 75165 875// 91200 333 6100=
07434,1996-10-28 15:00:00,13,1016,-1.1,94,12,1500,22.224,,,210,,,,1,,,,,,10,wg-a,,,,AAXX 28154 07434 12115 82112 10130 20120 39689 40160 56011 60017 71066 877// 91500=
07434,1996-10-28 18:00:00,14,1015.5,-0.4,94,13,1000,22.224,,,230,9.1,13.7,,1,,,,,,50,wg-a,,,,AAXX 28184 07434 12110 82312 10140 20130 39685 40155 56004 60017 75065 887// 91800 333 10137 20091=
07434,1996-10-28 21:00:00,14,1015.1,-0.4,94,13,10000,22.224,,,240,,,,0,,,,,,20,wg-a,,,,AAXX 28214 07434 12360 72412 10140 20130 39681 40151 55004 60007 72052 877// 92100=
07434,1996-10-29 00:00:00,12,1015.4,-0,94,11,10000,22.224,,48.152,270,,,,1,,,,,,60,wg-a,,,,AAXX 29004 07434 02260 72712 10120 20110 39681 40154 55000 60026 76065 877// 90000 333 60017 91026=
07434,1996-10-29 03:00:00,11,1016.1,0.5,87,9,10000,18.52,,,250,,,,,,,,,,21,wg-a,,,,AAXX 29034 07434 02460 72510 10110 20090 39686 40161 52005 61000 72162 877// 90300 333 ////=
07434,1996-10-29 06:00:00,10,1017,0.7,93,9,15000,14.816,,,270,10.2,13.7,,,,,4,,,3,wg-a,,,,AAXX 29064 07434 12465 72708 10100 20090 39693 40170 53007 60044 70362 8787/ 90600 333 10137 20102=
07434,1996-10-29 09:00:00,11,1018.9,1.9,94,10,20000,14.816,,,270,,,,1,,,,,,25,wg-a,,,,AAXX 29094 07434 12470 72708 10110 20100 39712 40189 51019 60017 72586 872// 90900=
07434,1996-10-29 12:00:00,12,1019.4,0.7,76,8,25000,22.224,,,290,,,,,,,,,,1,wg-a,,,,AAXX 29124 07434 02475 /2912 10120 20080 39719 40194 50007 60016 70186 86800 91200 333 61000=
07434,1996-10-29 15:00:00,13,1020,0.6,54,4,500,14.816,,,300,,,,,,,,,,,wg-a,,,,AAXX 29154 07434 12500 53008 10130 20040 39725 40200 53006 60006 84231 91500=
07434,1996-10-29 18:00:00,10,1023.1,2.5,82,7,20000,7.408,,,330,9.5,12.8,,,,,,,,,wg-a,,,,AAXX 29184 07434 32570 73304 10100 20070 39750 40231 53025 878// 91800 333 10128 20095=
07434,1996-10-30 00:00:00,8,1027.4,1.6,93,7,18000,14.816,,,350,,,,,,,,,,3,wg-a,,,,AAXX 30004 07434 12268 73508 10080 20070 39789 40274 51016 60016 70362 876// 90000=
07434,1996-10-30 03:00:00,7,1028.7,1.1,100,7,18000,3.704,,,320,,,,,,,,,,,wg-a,,,,AAXX 30034 07434 12468 73202 10070 20070 39800 40287 53011 60006 875// 90300=
07434,1996-10-30 06:00:00,6,1029.6,0.6,93,5,12000,0,,,0,5.9,9.6,,,,,2,,,,wg-a,,,,AAXX 30064 07434 12562 30000 10060 20050 39806 40296 53006 60024 81501 90600 333 10096 20059=
07434,1996-10-30 09:00:00,9,1030.9,1.7,87,7,12000,3.704,,,210,,,,,,,,,,,wg-a,,,,AAXX 30094 07434 12462 /2102 10090 20070 39823 40309 52017 60006 81101 90900=
07434,1996-10-30 12:00:00,10,1030.9,0.1,66,4,25000,7.408,,,360,,,,,,,,,,,wg-a,,,,AAXX 30124 07434 12575 73604 10100 20040 39824 40309 50001 60006 86801 91200=
07434,1996-10-30 15:00:00,11,1030.2,-0.4,58,3,500,11.112,,,40,,,,,,,,,,,wg-a,,,,AAXX 30154 07434 12600 50406 10110 20030 39820 40302 56004 60006 84801 91500=
07434,1996-10-30 18:00:00,8,1030.1,-0.7,71,3,20000,11.112,,,50,5.8,11.3,,,,,,,,,wg-a,,,,AAXX 30184 07434 12/70 30506 10080 20030 39813 40301 57007 60006 80001 91800 333 10113 20058=
07434,1996-10-30 21:00:00,6,1030.3,-0,75,2,15000,11.112,,,40,,,,,,,,,,,wg-a,,,,AAXX 30214 07434 12/65 20406 10060 20020 39813 40303 54000 60006 80001 92100=
07434,1996-10-31 00:00:00,5,1029.5,-1,81,2,10000,7.408,,,80,,,,,,,,,,,wg-a,,,,AAXX 31004 07434 12/60 /0804 10050 20020 39803 40295 58010 60006 90000=
07434,1996-10-31 03:00:00,2,1029,-1,93,1,15000,3.704,,,70,,,,,,,,,,,wg-a,,,,AAXX 31034 07434 12/65 30702 10020 20010 39793 40290 57010 60006 80001 90300=
07434,1996-10-31 06:00:00,2,1028.9,-0.1,93,1,10000,3.704,,,70,1.5,7.5,,,,,,,,,wg-a,,,,AAXX 31064 07434 02/60 20702 10020 20010 39792 40289 55001 60006 80001 90600 333 10075 20015 60004=
07434,1996-10-31 09:00:00,6,1029,0.8,81,3,9000,3.704,,,160,,,,,,,,,,,wg-a,,,,AAXX 31094 07434 12/59 21602 10060 20030 39800 40290 51008 60006 80001 90900=
07434,1996-10-31 12:00:00,11,1027.5,-0.6,66,5,12000,14.816,,,220,,,,,,,,,,,wg-a,,,,AAXX 31124 07434 12/62 22208 10110 20050 39794 40275 57006 60006 81031 91200=
07434,1996-10-31 15:00:00,12,1026.3,-1,67,6,500,18.52,,,210,,,,,,,,,,,wg-a,,,,AAXX 31154 07434 12/00 32110 10120 20060 39784 40263 56010 60006 82031 91500=
07434,1996-10-31 18:00:00,9,1027.3,0.5,81,6,10000,22.224,,,220,1.9,12.1,,,,,,,,21,wg-a,,,,AAXX 31184 07434 02460 72212 10090 20060 39789 40273 50005 61000 72161 86532 91800 333 10121 20019 ////=
07434,1996-10-31 21:00:00,10,1028,0.9,87,8,10000,14.816,,,240,,,,,,,,,,20,wg-a,,,,AAXX 31214 07434 02160 72408 10100 20080 39798 40280 53009 61000 72052 877// 92100 333 ////=
07434,1996-11-01 00:00:00,10,1027.8,-0.2,100,10,8000,7.408,,,230,,,,,,,,,,3,wg-a,,,,AAXX 01004 07434 02158 82304 10100 20100 39796 40278 55002 61000 70365 887// 90000 333 6100=
07434,1996-11-01 03:00:00,11,1027.9,0.3,100,11,6000,14.816,,,280,,,,0,,,,,,,wg-a,,,,AAXX 01034 07434 12156 82808 10110 20110 39799 40279 53003 60007 887// 90300=
07434,1996-11-01 06:00:00,11,1029.3,1.3,100,11,8000,14.816,,,280,9.2,11.2,,,,,,,,50,wg-a,,,,AAXX 01064 07434 02158 72808 10110 20110 39812 40293 52013 60004 75052 877// 90600 333 10112 20092 61000=
07434,1996-11-01 09:00:00,12,1031.3,2,94,11,6000,11.112,,,270,,,,0,,,,,,50,wg-a,,,,AAXX 01094 07434 12156 82706 10120 20110 39832 40313 51020 60007 75055 877// 90900=
07434,1996-11-01 12:00:00,13,1031.1,0.1,94,12,13000,11.112,,,300,,,,1,,,,,,20,wg-a,,,,AAXX 01124 07434 02363 73006 10130 20120 39833 40311 50001 60016 72052 878// 91200 333 60017=
07434,1996-11-01 15:00:00,13,1031.1,-0.1,94,12,8000,7.408,,,310,,,,0,,,,,,50,wg-a,,,,AAXX 01154 07434 12358 73104 10130 20120 39832 40311 55001 60007 75052 878// 91500=
07434,1996-11-01 18:00:00,12,1031.9,0.7,100,12,13000,7.408,,,300,10.9,13.4,,,,,,,,3,wg-a,,,,AAXX 01184 07434 02263 73004 10120 20120 39839 40319 53007 61000 70352 875// 91800 333 10134 20109 ////=
07434,1996-11-01 21:00:00,12,1032.5,0.5,94,11,9000,7.408,,,280,,,,0,,,,,,50,wg-a,,,,AAXX 01214 07434 12259 72804 10120 20110 39844 40325 53005 60007 75052 875// 92100=
07434,1996-11-02 00:00:00,11,1032.5,-0.1,100,11,10000,7.408,,,300,,,,1,,,,,,50,wg-a,,,,AAXX 02004 07434 02360 73004 10110 20110 39843 40325 58001 60016 75052 875// 90000 333 60017=
07434,1996-11-02 03:00:00,11,1031.9,-0.7,94,10,10000,7.408,,,310,,,,,,,,,,20,wg-a,,,,AAXX 02034 07434 02260 73104 10110 20100 39836 40319 58007 61000 72052 875// 90300 333 ////=
07434,1996-11-02 06:00:00,10,1031.7,-0.3,100,10,10000,0,,,0,10,12,,,,,2,,,3,wg-a,,,,AAXX 02064 07434 12360 70000 10100 20100 39833 40317 56003 60024 70352 875// 90600 333 10120 20100=
07434,1996-11-02 09:00:00,11,1032.3,0.7,87,9,8000,3.704,,,310,,,,,,,,,,,wg-a,,,,AAXX 02094 07434 12058 83102 10110 20090 39840 40323 52007 60006 888// 90900=
07434,1996-11-02 12:00:00,11,1031.6,-0.6,87,9,500,3.704,,,340,,,,,,,,,,,wg-a,,,,AAXX 02124 07434 12300 83402 10110 20090 39834 40316 58006 60006 888// 91200=
07434,1996-11-02 15:00:00,11,1030.3,-1.2,94,10,500,3.704,,,320,,,,,,,,,,,wg-a,,,,AAXX 02154 07434 12400 83202 10110 20100 39822 40303 56012 60006 888// 91500=
07434,1996-11-02 18:00:00,11,1030.1,-0.2,87,9,25000,3.704,,,10,9.8,11.6,,,,,,,,,wg-a,,,,AAXX 02184 07434 12475 70102 10110 20090 39820 40301 55002 60006 878// 91800 333 10116 20098=
07434,1996-11-02 21:00:00,8,1030.6,-0.1,100,8,13000,7.408,,,340,,,,0,,,,,,,wg-a,,,,AAXX 02214 07434 12563 /3404 10080 20080 39819 40306 55001 60007 81500 92100=
07434,1996-11-03 00:00:00,7,1030.2,-0.6,93,6,500,0,,,0,,,,,,,,,,46,wg-a,,,,AAXX 03004 07434 12/05 00000 10070 20060 39813 40302 56006 60006 74641 80000 90000=
07434,1996-11-03 03:00:00,4,1029.4,-1.3,100,4,200,7.408,,,50,,,,,,,,,,44,wg-a,,,,AAXX 03034 07434 12/02 00504 10040 20040 39800 40294 56013 60006 74440 80000 90300=
07434,1996-11-03 06:00:00,6,1029.3,0.3,100,6,1000,0,,,0,3.6,11.2,,,,,,,,10,wg-a,,,,AAXX 03064 07434 12110 80000 10060 20060 39803 40293 52003 60004 71041 885// 90600 333 10112 20036=
07434,1996-11-03 09:00:00,7,1029.9,0.8,100,7,2500,0,,,0,,,,,,,,,,10,wg-a,,,,AAXX 03094 07434 12125 80000 10070 20070 39811 40299 51008 60006 71022 885// 90900=
07434,1996-11-03 12:00:00,9,1028.8,-0.7,93,8,10000,11.112,,,180,,,,,,,,,,,wg-a,,,,AAXX 03124 07434 12360 71806 10090 20080 39804 40288 58007 60006 878// 91200=
07434,1996-11-03 15:00:00,10,1027.6,-1,87,8,15000,3.704,,,170,,,,,,,,,,,wg-a,,,,AAXX 03154 07434 12465 71702 10100 20080 39794 40276 57010 60006 878// 91500=
07434,1996-11-03 18:00:00,9,1026.8,-1,87,7,15000,7.408,,,150,5.7,9.9,,,,,,,,,wg-a,,,,AAXX 03184 07434 12465 71504 10090 20070 39784 40268 57010 60006 875// 91800 333 10099 20057=
07434,1996-11-03 21:00:00,8,1026.2,-0.6,93,7,10000,3.704,,,150,,,,,,,,,,,wg-a,,,,AAXX 03214 07434 12460 71502 10080 20070 39778 40262 58006 60006 878// 92100=
07434,1996-11-04 00:00:00,8,1024.4,-1.9,93,7,10000,7.408,,,160,,,,,,,,,,,wg-a,,,,AAXX 04004 07434 12360 71604 10080 20070 39759 40244 58019 60006 878// 90000=
07434,1996-11-04 03:00:00,7,1022.2,-2.2,93,6,7000,14.816,,,170,,,,,,,,,,,wg-a,,,,AAXX 04034 07434 12257 81708 10070 20060 39737 40222 56022 60006 886// 90300=
07434,1996-11-04 06:00:00,6,1020.5,-1.7,100,6,10000,14.816,,,190,6.3,8.8,,,,,,,,,wg-a,,,,AAXX 04064 07434 02260 81908 10060 20060 39720 40205 56017 60006 886// 90600 333 10088 20063 60004=
07434,1996-11-04 09:00:00,7,1020.2,-0.3,93,6,12000,22.224,,,190,,,,,,,,,,28,wg-a,,,,AAXX 04094 07434 12262 81912 10070 20060 39717 40202 55003 60006 72842 886// 90900=
07434,1996-11-04 12:00:00,9,1017.4,-2.2,93,8,12000,18.52,,,190,,,,,,,,,,1,wg-a,,,,AAXX 04124 07434 12262 71910 10090 20080 39695 40174 56022 60006 70142 876// 91200=
07434,1996-11-04 15:00:00,11,1013.9,-3,87,9,15000,14.816,,,190,,,,,,,,,,,wg-a,,,,AAXX 04154 07434 12365 81908 10110 20090 39665 40139 57030 60006 885// 91500=
07434,1996-11-04 18:00:00,12,1011.6,-2,88,10,10000,22.224,,,190,6.1,12.2,,,,,,,,61,wg-a,,,,AAXX 04184 07434 02460 81912 10120 20100 39645 40116 57020 61000 76162 8557/ 91800 333 10122 20061 ////=
07434,1996-11-04 21:00:00,11,1012.3,0.4,94,10,500,25.928,,,210,,,,,,,,,,,wg-a,,,,AAXX 04214 07434 32/00 /2114 10110 20100 39649 40123 53004 92100=
07434,1996-11-05 00:00:00,10,1012,-0.3,100,10,6000,14.816,,,240,,,,5,,,,,,60,wg-a,,,,AAXX 05004 07434 02256 82408 10100 20100 39646 40120 55003 60116 76062 877// 90000 333 60057=
07434,1996-11-05 03:00:00,10,1013.6,1.4,93,9,10000,14.816,,,270,,,,0,,,,,,1,wg-a,,,,AAXX 05034 07434 12260 72708 10100 20090 39660 40136 53014 60007 70162 875// 90300=
07434,1996-11-05 06:00:00,8,1016.6,2.6,93,7,10000,11.112,,,250,7.9,11.9,,,,,12,,,1,wg-a,,,,AAXX 05064 07434 12260 /2506 10080 20070 39686 40166 53026 60124 70161 85500 90600 333 10119 20079=
07434,1996-11-05 09:00:00,9,1019.3,2.7,93,8,10000,14.816,,,280,,,,0,,,,,,1,wg-a,,,,AAXX 05094 07434 12260 72808 10090 20080 39713 40193 53027 60007 70186 87500 90900=
07434,1996-11-05 12:00:00,12,1020.8,1.9,62,5,11000,18.52,,,290,,,,,,,,,,,wg-a,,,,AAXX 05124 07434 12/61 /2910 10120 20050 39732 40208 51019 60006 91200=
07434,1996-11-05 15:00:00,11,1021.7,0.7,66,5,20000,14.816,,,290,,,,,,,,,,,wg-a,,,,AAXX 05154 07434 12670 32908 10110 20050 39739 40217 53007 60006 83200 91500=
07434,1996-11-05 18:00:00,7,1024.9,2.4,70,2,20000,3.704,,,310,7.1,12,,,,,,,,,wg-a,,,,AAXX 05184 07434 32670 33102 10070 20020 39763 40249 53024 81531 91800 333 10120 20071=
07434,1996-11-05 21:00:00,6,1025.9,0.7,81,3,20000,7.408,,,240,,,,,,,,,,,wg-a,,,,AAXX 05214 07434 12/70 12404 10060 20030 39770 40259 51007 60006 80001 92100=
07434,1996-11-06 00:00:00,5,1026.3,0.2,87,3,18000,3.704,,,150,,,,,,,,,,,wg-a,,,,AAXX 06004 07434 12568 21502 10050 20030 39772 40263 51002 60006 81501 90000=
07434,1996-11-06 03:00:00,4,1025.9,-0.5,93,3,18000,3.704,,,150,,,,,,,,,,,wg-a,,,,AAXX 06034 07434 12568 71502 10040 20030 39767 40259 58005 60006 86501 90300=
07434,1996-11-06 06:00:00,6,1025,-0.5,93,5,12000,7.408,,,190,3.9,7.1,,,,,,,,,wg-a,,,,AAXX 06064 07434 02462 71904 10060 20050 39762 40250 56005 60006 875// 90600 333 10071 20039 60004=
07434,1996-11-06 09:00:00,8,1024.7,-0,93,7,2500,11.112,,,180,,,,0,,,,,,10,wg-a,,,,AAXX 06094 07434 12125 81806 10080 20070 39762 40247 54000 60007 71065 887// 90900=
07434,1996-11-06 12:00:00,10,1023.7,-0.6,93,9,7000,25.928,,,210,,,,,,,,,,50,wg-a,,,,AAXX 06124 07434 02157 82114 10100 20090 39756 40237 58006 60016 75065 887// 91200 333 61000=
07434,1996-11-06 15:00:00,11,1022.5,-1,94,10,400,25.928,,,220,,,,,,,,,,45,wg-a,,,,AAXX 06154 07434 32/04 92214 10110 20100 39746 40225 58010 74554 89/// 91500=
07434,1996-11-06 18:00:00,11,1022.9,0.6,100,11,10000,22.224,,,230,6.2,11.4,,0,,,,,,20,wg-a,,,,AAXX 06184 07434 12260 82312 10110 20110 39752 40229 53006 60007 72054 887// 91800 333 10114 20062=
07434,1996-11-06 21:00:00,11,1022.5,-0.5,94,10,7000,22.224,,,210,,,,0,,,,,,50,wg-a,,,,AAXX 06214 07434 12257 82112 10110 20100 39747 40225 58005 60007 75052 877// 92100=
07434,1996-11-07 00:00:00,12,1021,-1.3,94,11,7000,22.224,,,220,,,,,,,,,,20,wg-a,,,,AAXX 07004 07434 02257 82212 10120 20110 39734 40210 58013 60006 72052 877// 90000 333 61000=
07434,1996-11-07 03:00:00,11,1019.1,-1.8,100,11,500,25.928,,,200,,,,0,,,,,,51,wg-a,,,,AAXX 07034 07434 12100 82014 10110 20110 39716 40191 56018 60007 75152 877// 90300=
07434,1996-11-07 06:00:00,12,1018.5,-0.5,100,12,800,25.928,,,220,11,12.1,,1,,,2,,,53,wg-a,,,,AAXX 07064 07434 02108 82214 10120 20120 39711 40185 56005 60024 75354 877// 90600 333 10121 20110 60017=
07434,1996-11-07 09:00:00,13,1019.2,0.8,94,12,4000,25.928,,,230,,,,1,,,,,,10,wg-a,,,,AAXX 07094 07434 12140 82314 10130 20120 39719 40192 53008 60017 71055 877// 90900=
07434,1996-11-07 12:00:00,11,1020.2,0.7,100,11,2500,22.224,,,290,,,,5,,,,,,10,wg-a,,,,AAXX 07124 07434 02325 82912 10110 20110 39726 40202 53007 60066 71065 877// 91200 333 60057=
07434,1996-11-07 15:00:00,11,1021.3,1,94,10,3500,14.816,,,250,,,,1,,,,,,25,wg-a,,,,AAXX 07154 07434 12435 72508 10110 20100 39736 40213 51010 60017 72586 878// 91500=
07434,1996-11-07 18:00:00,9,1023.9,2.1,93,8,10000,11.112,,,250,8.9,13.4,,,,,,,,1,wg-a,,,,AAXX 07184 07434 32660 32506 10090 20080 39757 40239 53021 70186 83500 91800 333 10134 20089=
07434,1996-11-07 21:00:00,8,1025.9,1.7,93,7,10000,7.408,,,250,,,,,,,,,,,wg-a,,,,AAXX 07214 07434 12460 42504 10080 20070 39774 40259 51017 60006 84800 92100=
07434,1996-11-08 00:00:00,7,1027.4,1.2,93,6,10000,7.408,,,250,,,,0,,,,,,,wg-a,,,,AAXX 08004 07434 02560 /2504 10070 20060 39786 40274 51012 60006 81800 90000 333 60007=
07434,1996-11-08 03:00:00,5,1028.3,0.6,100,5,300,0,,,0,,,,,,,,,,45,wg-a,,,,AAXX 08034 07434 12/03 90000 10050 20050 39792 40283 51006 60006 74541 89/// 90300=
07434,1996-11-08 06:00:00,5,1029.2,0.7,93,4,500,3.704,,,60,4.5,8.8,,,,,7,,,45,wg-a,,,,AAXX 08064 07434 12/05 90602 10050 20040 39799 40292 51007 60074 74541 89/// 90600 333 10088 20045=
07434,1996-11-08 09:00:00,6,1030.6,1.7,100,6,100,7.408,,,150,,,,,,,,,,45,wg-a,,,,AAXX 08094 07434 12/01 91504 10060 20060 39816 40306 51017 60006 74544 89/// 90900=
07434,1996-11-08 12:00:00,9,1030.5,0.3,93,8,15000,3.704,,,210,,,,,,,,,,1,wg-a,,,,AAXX 08124 07434 12365 /2102 10090 20080 39819 40305 50003 60006 70141 86100 91200=
07434,1996-11-08 15:00:00,9,1030,-0.4,81,6,8000,11.112,,,270,,,,1,,,,,,81,wg-a,,,,AAXX 08154 07434 12358 52706 10090 20060 39815 40300 55004 60017 78186 85800 91500=
07434,1996-11-08 18:00:00,8,1031,0.8,93,7,10000,7.408,,,240,4.3,11.9,,0,,,,,,61,wg-a,,,,AAXX 08184 07434 12560 /2404 10080 20070 39823 40310 53008 60007 76186 86800 91800 333 10119 20043=
07434,1996-11-08 21:00:00,7,1032,0.8,100,7,15000,7.408,,,250,,,,0,,,,,,1,wg-a,,,,AAXX 08214 07434 12565 /2504 10070 20070 39831 40320 53008 60007 70161 81501 92100=
07434,1996-11-09 00:00:00,6,1032.8,0.5,93,5,400,3.704,,,70,,,,,,,,,,45,wg-a,,,,AAXX 09004 07434 12/04 90702 10060 20050 39836 40328 51005 60006 74564 89/// 90000=
07434,1996-11-09 03:00:00,5,1032.1,-0.8,100,5,300,7.408,,,80,,,,,,,,,,45,wg-a,,,,AAXX 09034 07434 12/03 90804 10050 20050 39828 40321 57008 60006 74544 89/// 90300=
07434,1996-11-09 06:00:00,5,1032.2,0.1,100,5,100,11.112,,,90,4.8,8.1,,,,,2,,,45,wg-a,,,,AAXX 09064 07434 12/01 90906 10050 20050 39829 40322 52001 60024 74544 89/// 90600 333 10081 20048=
07434,1996-11-09 09:00:00,5,1032.4,0.3,100,5,100,7.408,,,110,,,,,,,,,,45,wg-a,,,,AAXX 09094 07434 12/01 91104 10050 20050 39832 40324 50003 60006 74544 89/// 90900=
07434,1996-11-09 12:00:00,7,1030.7,-1.4,100,7,3000,3.704,,,150,,,,,,,,,,28,wg-a,,,,AAXX 09124 07434 12130 /1502 10070 20070 39818 40307 58014 60006 72842 877// 91200=
07434,1996-11-09 15:00:00,10,1028,-2,76,6,15000,3.704,,,200,,,,,,,,,,,wg-a,,,,AAXX 09154 07434 12565 /2002 10100 20060 39798 40280 57020 60006 81232 91500=
07434,1996-11-09 18:00:00,8,1027.1,-1.3,71,3,15000,3.704,,,40,4.7,11.6,,,,,,,,,wg-a,,,,AAXX 09184 07434 12/65 60402 10080 20030 39785 40271 58013 60006 81032 91800 333 10116 20047=
07434,1996-11-09 21:00:00,7,1025.9,-1.3,76,3,12000,7.408,,,60,,,,0,,,,,,,wg-a,,,,AAXX 09214 07434 12/62 60604 10070 20030 39772 40259 57013 60007 85032 92100=
07434,1996-11-10 00:00:00,5,1023.7,-2.4,87,3,12000,3.704,,,70,,,,,,,,,,,wg-a,,,,AAXX 10004 07434 12/62 60702 10050 20030 39748 40237 58024 60006 81032 90000=
07434,1996-11-10 03:00:00,5,1021,-2.7,87,3,12000,3.704,,,80,,,,,,,,,,,wg-a,,,,AAXX 10034 07434 12662 70802 10050 20030 39721 40210 57027 60006 85532 90300=
07434,1996-11-10 06:00:00,5,1018.3,-2.4,93,4,12000,3.704,,,140,4.2,8.1,,,,,,,,,wg-a,,,,AAXX 10064 07434 12562 71402 10050 20040 39697 40183 58024 60004 8553/ 90600 333 10081 20042=
07434,1996-11-10 09:00:00,7,1016.4,-1.4,93,6,12000,18.52,,,190,,,,,,,,,,,wg-a,,,,AAXX 10094 07434 12362 81910 10070 20060 39683 40164 58014 60006 8457/ 90900=
07434,1996-11-10 12:00:00,9,1013.2,-2.9,87,7,8000,18.52,,,190,,,,,,,,,,61,wg-a,,,,AAXX 10124 07434 02358 81910 10090 20070 39654 40132 58029 61000 76162 8657/ 91200 333 6100=
07434,1996-11-10 15:00:00,8,1011,-2.2,100,8,4000,18.52,,,220,,,,1,,,,,,10,wg-a,,,,AAXX 10154 07434 12140 82210 10080 20080 39632 40110 56022 60017 71066 877// 91500=
07434,1996-11-10 18:00:00,8,1009.3,-1.6,93,7,6000,14.816,,,190,5.4,8.7,,1,,,,,,60,wg-a,,,,AAXX 10184 07434 12156 81908 10080 20070 39616 40093 56016 60017 76066 877// 91800 333 10087 20054=
07434,1996-11-10 21:00:00,8,1006.9,-2.3,100,8,12000,7.408,,,150,,,,0,,,,,,60,wg-a,,,,AAXX 10214 07434 12262 71504 10080 20080 39593 40069 58023 60007 76062 877// 92100=
07434,1996-11-11 00:00:00,8,1002.3,-4.3,100,8,1400,11.112,,,130,,,,5,,,,,,21,wg-a,,,,AAXX 11004 07434 02214 71306 10080 20080 39550 40023 58043 60056 72162 877// 90000 333 60057=
07434,1996-11-11 03:00:00,8,997.1,-5,100,8,9000,7.408,,,140,,,,0,,,,,,60,wg-a,,,,AAXX 11034 07434 12359 71404 10080 20080 39500 49971 56050 60007 76062 877// 90300=
07434,1996-11-11 06:00:00,8,994.9,-2.1,93,7,9000,22.224,,,210,7.7,8.5,,8,,,15,,,61,wg-a,,,,AAXX 11064 07434 02459 72112 10080 20070 39479 49949 57021 60154 76162 878// 90600 333 10085 20077 60087=
07434,1996-11-11 09:00:00,8,993.4,-1.5,93,7,500,11.112,,,160,,,,1,,,,,,3,wg-a,,,,AAXX 11094 07434 12300 71606 10080 20070 39464 49934 58015 60017 70362 81631 90900=
07434,1996-11-11 12:00:00,10,991,-2,87,8,12000,7.408,,,140,,,,0,,,,,,61,wg-a,,,,AAXX 11124 07434 02562 81404 10100 20080 39444 49910 58020 60016 76162 8382/ 91200 333 60007=
07434,1996-11-11 15:00:00,11,989.6,-1.1,82,8,12000,25.928,,,220,,,,1,,,,,,15,wg-a,,,,AAXX 11154 07434 12462 72214 10110 20080 39433 49896 55011 60017 71562 81221 91500=
07434,1996-11-11 18:00:00,9,991.5,1.5,87,7,20000,3.704,,,150,6.8,11.8,,,,,,,,1,wg-a,,,,AAXX 11184 07434 32770 41502 10090 20070 39448 49915 53015 70161 825/1 91800 333 10118 20068=
07434,1996-11-11 21:00:00,7,992.9,1.1,93,6,20000,11.112,,,60,,,,,,,,,,,wg-a,,,,AAXX 11214 07434 12770 70606 10070 20060 39459 49929 51011 60006 855/2 92100=
07434,1996-11-12 00:00:00,8,993.3,0.4,87,6,15000,7.408,,,50,,,,,,,,,,,wg-a,,,,AAXX 12004 07434 12765 70504 10080 20060 39463 49933 53004 60006 84572 90000=
07434,1996-11-12 03:00:00,8,992.5,-0.7,87,6,10000,14.816,,,10,,,,,,,,,,,wg-a,,,,AAXX 12034 07434 12660 70108 10080 20060 39456 49925 56007 60006 84572 90300=
07434,1996-11-12 06:00:00,8,993.6,1.1,87,6,8000,7.408,,,30,7.1,8.9,,0,,,2,,,60,wg-a,,,,AAXX 12064 07434 02558 80304 10080 20060 39467 49936 53011 60024 76062 8457/ 90600 333 10089 20071 60007=
07434,1996-11-12 09:00:00,8,996.2,2.4,93,7,15000,3.704,,,70,,,,0,,,,,,21,wg-a,,,,AAXX 12094 07434 12365 80702 10080 20070 39491 49962 51024 60007 72162 8557/ 90900=
07434,1996-11-12 12:00:00,8,998.2,2,100,8,2000,3.704,,,150,,,,0,,,,,,10,wg-a,,,,AAXX 12124 07434 02320 81502 10080 20080 39511 49982 52020 60016 71062 8657/ 91200 333 60007=
07434,1996-11-12 15:00:00,9,999.7,1.6,100,9,10000,3.704,,,130,,,,,,,,,,1,wg-a,,,,AAXX 12154 07434 02460 71302 10090 20090 39527 49997 53016 61000 70162 86870 91500 333 ////=
07434,1996-11-12 18:00:00,8,1001.4,1.4,100,8,10000,3.704,,,140,7.4,9.3,,,,,,,,1,wg-a,,,,AAXX 12184 07434 32660 71402 10080 20080 39541 40014 51014 70162 83570 91800 333 10093 20074=
07434,1996-11-12 21:00:00,8,1003.2,1.7,100,8,7000,0,,,0,,,,,,,,,,,wg-a,,,,AAXX 12214 07434 12757 80000 10080 20080 39558 40032 53017 60006 8257/ 92100=
07434,1996-11-13 00:00:00,8,1005.4,2.1,100,8,800,3.704,,,160,,,,,,,,,,44,wg-a,,,,AAXX 13004 07434 12108 81602 10080 20080 39579 40054 53021 60006 74442 886// 90000=
07434,1996-11-13 03:00:00,8,1006.5,1.1,100,8,800,3.704,,,190,,,,0,,,,,,61,wg-a,,,,AAXX 13034 07434 12108 81902 10080 20080 39590 40065 53011 60007 76164 886// 90300=
07434,1996-11-13 06:00:00,7,1008.5,1.7,100,7,600,7.408,,,270,7,8.3,,1,,,2,,,10,wg-a,,,,AAXX 13064 07434 02/06 92704 10070 20070 39607 40085 53017 60024 71064 89/// 90600 333 10083 20070 60017=
07434,1996-11-13 09:00:00,8,1011.1,2.6,93,7,3500,3.704,,,40,,,,3,,,,,,10,wg-a,,,,AAXX 13094 07434 12335 70402 10080 20070 39633 40111 51026 60037 71064 878// 90900=
07434,1996-11-13 12:00:00,10,1011.8,1.1,87,8,15000,7.408,,,70,,,,,,,,,,1,wg-a,,,,AAXX 13124 07434 12465 /0704 10100 20080 39644 40118 50011 60036 70164 85831 91200=
07434,1996-11-13 15:00:00,8,1012.8,0.5,93,7,20000,18.52,,,20,,,,,,,,,,,wg-a,,,,AAXX 13154 07434 12470 /0210 10080 20070 39649 40128 53005 60006 8693/ 91500=
07434,1996-11-13 18:00:00,7,1014.7,1.7,93,6,20000,18.52,,,30,7,10.7,,,,,,,,,wg-a,,,,AAXX 13184 07434 32470 /0310 10070 20060 39666 40147 53017 8683/ 91800 333 10107 20070=
07434,1996-11-13 21:00:00,6,1016.1,1.1,87,4,10000,22.224,,,40,,,,,,,,,,21,wg-a,,,,AAXX 13214 07434 02460 70412 10060 20040 39677 40161 51011 61000 72162 875// 92100 333 ////=
07434,1996-11-14 00:00:00,5,1016.8,0.6,87,3,10000,22.224,,,60,,,,,,,,,,1,wg-a,,,,AAXX 14004 07434 02460 70612 10050 20030 39683 40168 52006 61000 70162 875// 90000 333 ////=
07434,1996-11-14 03:00:00,3,1017.2,0,87,1,15000,18.52,,,40,,,,,,,,,,,wg-a,,,,AAXX 14034 07434 12565 30410 10030 20010 39683 40172 50000 60006 83500 90300=
07434,1996-11-14 06:00:00,3,1018.1,0.8,87,1,15000,14.816,,,40,1.9,7.1,,,,,3,,,,wg-a,,,,AAXX 14064 07434 12465 /0408 10030 20010 39691 40181 53008 60034 86500 90600 333 10071 20019=
07434,1996-11-14 09:00:00,5,1018.6,0.8,75,1,20000,22.224,,,50,,,,,,,,,,,wg-a,,,,AAXX 14094 07434 12470 20512 10050 20010 39699 40186 50008 60006 82800 90900=
07434,1996-11-14 12:00:00,6,1018.2,-0.2,61,-1,25000,29.632,,,50,,,,,,,,,,,wg-a,,,,AAXX 14124 07434 12575 /0516 10060 21010 39697 40182 58002 60006 81100 91200=
07434,1996-11-14 15:00:00,5,1018.4,-0,65,-1,11000,22.224,,,30,,,,,,,,,,,wg-a,,,,AAXX 14154 07434 12/61 /0312 10050 21010 39697 40184 55000 60006 91500=
07434,1996-11-14 18:00:00,3,1019.3,0.4,70,-2,25000,31.484,,,40,2.4,6.5,,,,,,,,,wg-a,,,,AAXX 14184 07434 12575 30417 10030 21020 39701 40193 51004 60006 83500 91800 333 10065 20024=
07434,1996-11-14 21:00:00,2,1019.1,-0.2,75,-2,25000,18.52,,,40,,,,,,,,,,,wg-a,,,,AAXX 14214 07434 12575 30410 10020 21020 39699 40191 57002 60006 83500 92100=
07434,1996-11-15 00:00:00,2,1018.5,-0.7,80,-1,20000,14.816,,,20,,,,,,,,,,,wg-a,,,,AAXX 15004 07434 12570 30208 10020 21010 39692 40185 57007 60006 83500 90000=
07434,1996-11-15 03:00:00,1,1017.6,-0.9,86,-1,20000,11.112,,,40,,,,,,,,,,,wg-a,,,,AAXX 15034 07434 12470 40406 10010 21010 39683 40176 56009 60006 84500 90300=
07434,1996-11-15 06:00:00,0,1016.9,-0.8,86,-2,20000,14.816,,,40,0.4,2.6,,,,,,,,,wg-a,,,,AAXX 15064 07434 02570 30408 10000 21020 39675 40169 56008 60006 83500 90600 333 10026 20004 60004=
07434,1996-11-15 09:00:00,1,1017.8,1,86,-1,10000,14.816,,,70,,,,,,,,,,1,wg-a,,,,AAXX 15094 07434 02360 /0708 10010 21010 39685 40178 52010 61000 70171 85500 90900 333 ////=
07434,1996-11-15 12:00:00,5,1016.6,-0.6,65,-1,20000,11.112,,,90,,,,,,,,,,3,wg-a,,,,AAXX 15124 07434 02470 /0906 10050 21010 39679 40166 58006 61000 70371 85202 91200 333 ////=
07434,1996-11-15 15:00:00,5,1016.7,0.1,65,-1,20000,11.112,,,80,,,,,,,,,,,wg-a,,,,AAXX 15154 07434 12570 70806 10050 21010 39680 40167 53001 60006 8583/ 91500=
07434,1996-11-15 18:00:00,3,1018.3,1.3,81,0,12000,14.816,,,60,0.2,5,,,,,,,,,wg-a,,,,AAXX 15184 07434 32662 80608 10030 20000 39693 40183 52013 8357/ 91800 333 10050 20002=
07434,1996-11-15 21:00:00,3,1019.6,1.1,87,1,10000,7.408,,,70,,,,,,,,,,,wg-a,,,,AAXX 15214 07434 12660 70704 10030 20010 39704 40196 51011 60006 8557/ 92100=
07434,1996-11-16 00:00:00,3,1019.4,-0.1,87,1,9000,7.408,,,40,,,,,,,,,,,wg-a,,,,AAXX 16004 07434 12559 80404 10030 20010 39703 40194 57001 60006 875// 90000=
07434,1996-11-16 03:00:00,2,1019.8,0.3,100,2,9000,3.704,,,360,,,,2,,,,,,,wg-a,,,,AAXX 16034 07434 12559 83602 10020 20020 39706 40198 51003 60027 875// 90300=
07434,1996-11-16 06:00:00,2,1019.9,0.1,100,2,6000,7.408,,,300,1.9,3.3,,1,,,2,,,50,wg-a,,,,AAXX 16064 07434 02356 83004 10020 20020 39707 40199 52001 60024 75052 875// 90600 333 10033 20019 60017=
07434,1996-11-16 09:00:00,2,1021.5,1.5,100,2,1500,3.704,,,290,,,,,,,,,,28,wg-a,,,,AAXX 16094 07434 02115 72902 10020 20020 39722 40215 51015 61000 72854 876// 90900 333 ////=
07434,1996-11-16 12:00:00,4,1020.6,-0.6,93,3,2500,7.408,,,340,,,,,,,,,,10,wg-a,,,,AAXX 16124 07434 02225 73404 10040 20030 39716 40206 58006 61000 71054 876// 91200 333 ////=
07434,1996-11-16 15:00:00,5,1019.5,-0.8,93,4,6000,14.816,,,40,,,,,,,,,,,wg-a,,,,AAXX 16154 07434 12356 70408 10050 20040 39708 40195 58008 60006 8657/ 91500=
07434,1996-11-16 18:00:00,5,1018.8,-0.7,93,4,500,11.112,,,30,1.6,5.2,,,,,,,,,wg-a,,,,AAXX 16184 07434 32200 70306 10050 20040 39701 40188 58007 876// 91800 333 10052 20016=
07434,1996-11-16 21:00:00,4,1017.7,-1.1,100,4,500,11.112,,,20,,,,,,,,,,,wg-a,,,,AAXX 16214 07434 12200 80206 10040 20040 39690 40177 56011 60006 875// 92100=
07434,1996-11-17 00:00:00,4,1016,-1.7,93,3,500,18.52,,,360,,,,,,,,,,,wg-a,,,,AAXX 17004 07434 12200 83610 10040 20030 39673 40160 56017 60006 8657/ 90000=
07434,1996-11-17 03:00:00,3,1014.2,-1.8,100,3,500,14.816,,,360,,,,,,,,,,,wg-a,,,,AAXX 17034 07434 12700 83608 10030 20030 39655 40142 56018 60006 875// 90300=
07434,1996-11-17 06:00:00,3,1012.8,-1.5,93,2,500,14.816,,,360,2.8,4.5,,,,,,,,,wg-a,,,,AAXX 17064 07434 02200 73608 10030 20020 39640 40128 56015 60006 8657/ 90600 333 10045 20028 61000=
07434,1996-11-17 09:00:00,3,1011.8,-0.9,93,2,3000,7.408,,,40,,,,,,,,,,10,wg-a,,,,AAXX 17094 07434 12130 70404 10030 20020 39631 40118 56009 60006 71022 8453/ 90900=
07434,1996-11-17 12:00:00,4,1010.1,-1.5,87,2,500,11.112,,,340,,,,,,,,,,,wg-a,,,,AAXX 17124 07434 12300 73406 10040 20020 39616 40101 58015 60006 875// 91200=
07434,1996-11-17 15:00:00,4,1008.9,-1.1,93,3,3000,7.408,,,10,,,,,,,,,,10,wg-a,,,,AAXX 17154 07434 32/30 /0104 10040 20030 39605 40089 57011 710// 91500=
07434,1996-11-17 18:00:00,3,1008.6,-0.4,100,3,800,7.408,,,320,2.2,4.2,,,,,,,,45,wg-a,,,,AAXX 17184 07434 32/08 93204 10030 20030 39601 40086 55004 74564 89/// 91800 333 10042 20022=
07434,1996-11-17 21:00:00,3,1008.4,-0.3,93,2,600,3.704,,,340,,,,,,,,,,45,wg-a,,,,AAXX 17214 07434 32/06 93402 10030 20020 39598 40084 55003 74565 89/// 92100=
07434,1996-11-18 00:00:00,2,1006.9,-1.5,100,2,500,3.704,,,290,,,,0,,,,,,60,wg-a,,,,AAXX 18004 07434 02100 82902 10020 20020 39583 40069 56015 60016 76065 887// 90000 333 60007=
07434,1996-11-18 03:00:00,2,1005.9,-1,93,1,600,14.816,,,330,,,,,,,,,,45,wg-a,,,,AAXX 18034 07434 32/06 93308 10020 20010 39573 40059 56010 74564 89/// 90300=
07434,1996-11-18 06:00:00,2,1006.6,0.7,100,2,500,18.52,,,340,1.5,3,,1,,,1,,,10,wg-a,,,,AAXX 18064 07434 02200 83410 10020 20020 39580 40066 51007 60014 71065 887// 90600 333 10030 20015 60017=
07434,1996-11-18 09:00:00,3,1008.5,1.9,93,2,9000,22.224,,,330,,,,2,,,,,,21,wg-a,,,,AAXX 18094 07434 12359 73312 10030 20020 39599 40085 53019 60027 72162 877// 90900=
07434,1996-11-18 12:00:00,3,1009.3,0.9,93,2,25000,18.52,,,300,,,,,,,,,,1,wg-a,,,,AAXX 18124 07434 12375 73010 10030 20020 39608 40093 50009 60026 70162 876// 91200=
07434,1996-11-18 18:00:00,4,1011.7,1.1,75,0,25000,11.112,,,290,2.3,4.2,,,,,,,,,wg-a,,,,AAXX 18184 07434 32575 72906 10040 20000 39631 40117 52011 878// 91800 333 10042 20023=
07434,1996-11-18 21:00:00,1,1013.1,0.8,86,-1,25000,7.408,,,280,,,,,,,,,,,wg-a,,,,AAXX 18214 07434 12575 22804 10010 21010 39639 40131 53008 60006 82500 92100=
07434,1996-11-19 00:00:00,0,1012.7,-0.5,93,-1,20000,7.408,,,240,,,,,,,,,,,wg-a,,,,AAXX 19004 07434 12/70 02404 10000 21010 39634 40127 58005 60006 80000 90000=
07434,1996-11-19 03:00:00,-1,1010.7,-2.1,93,-2,1500,7.408,,,150,,,,,,,,,,10,wg-a,,,,AAXX 19034 07434 12115 71504 11010 21020 39613 40107 58021 60006 71011 877// 90300=
07434,1996-11-19 09:00:00,2,1000,-5.3,100,2,7000,35.188,,,180,,,,0,,,,,,10,wg-a,,,,AAXX 19094 07434 12257 81819 10020 20020 39517 40000 58053 60007 71065 887// 90900=
07434,1996-11-19 12:00:00,3,993.7,-5.8,93,2,10000,35.188,,57.412,190,,,,6,,,,,,61,wg-a,,,,AAXX 19124 07434 02260 81919 10030 20020 39459 49937 58058 60066 76176 877// 91200 333 60067 91031=
07434,1996-11-19 15:00:00,5,990.9,-2.4,93,4,12000,31.484,,64.82,220,,,,4,,,,,,61,wg-a,,,,AAXX 19154 07434 12262 82217 10050 20040 39435 49909 55024 60047 76166 877// 91500 333 91035=
07434,1996-11-19 18:00:00,5,990.7,-0.1,93,4,8000,31.484,,,240,0.4,6.1,,3,,,,,,61,wg-a,,,,AAXX 19184 07434 12358 82417 10050 20040 39434 49907 55001 60037 76162 8687/ 91800 333 10061 20004=
07434,1996-11-19 21:00:00,6,990.8,0.2,87,4,10000,38.892,,59.264,230,,,,1,,,,,,80,wg-a,,,,AAXX 19214 07434 12360 52321 10060 20040 39436 49908 51002 60017 78086 85800 92100 333 91032=
07434,1996-11-20 00:00:00,5,990.9,-0.1,93,4,10000,22.224,,,240,,,,5,,,,,,60,wg-a,,,,AAXX 20004 07434 02360 62412 10050 20040 39435 49909 55001 60066 76086 86800 90000 333 60057=
07434,1996-11-20 03:00:00,4,990.7,-0.2,93,3,10000,29.632,,48.152,240,,,,3,,,,,,21,wg-a,,,,AAXX 20034 07434 12460 62416 10040 20030 39433 49907 58002 60037 72162 86800 90300 333 91026=
07434,1996-11-20 06:00:00,4,992.8,2,100,4,15000,14.816,,,260,3.3,5.9,,1,,,23,,,25,wg-a,,,,AAXX 20064 07434 02465 72608 10040 20040 39453 49928 53020 60234 72586 878// 90600 333 10059 20033 60017=
07434,1996-11-20 09:00:00,5,996.2,3.2,93,4,8000,18.52,,,250,,,,1,,,,,,25,wg-a,,,,AAXX 20094 07434 12358 62510 10050 20040 39485 49962 51032 60017 72586 85802 90900=
07434,1996-11-20 12:00:00,6,998.5,2.5,81,3,15000,25.928,,,270,,,,2,,,,,,1,wg-a,,,,AAXX 20124 07434 02465 62714 10060 20030 39510 49985 51025 60036 70186 86800 91200 333 60027=
07434,1996-11-20 15:00:00,6,1001.4,2.7,75,2,25000,22.224,,40.744,270,,,,,,,,,,,wg-a,,,,AAXX 20154 07434 12575 52712 10060 20020 39537 40014 53027 60006 85800 91500 333 91022=
07434,1996-11-20 18:00:00,4,1005.5,3.6,81,1,15000,11.112,,,270,3.7,6.5,,,,,,,,,wg-a,,,,AAXX 20184 07434 32565 /2706 10040 20010 39573 40055 53036 86800 91800 333 10065 20037=
07434,1996-11-20 21:00:00,3,1008.2,2.3,81,0,20000,11.112,,,270,,,,,,,,,,,wg-a,,,,AAXX 20214 07434 12670 /2706 10030 20000 39596 40082 51023 60006 81501 92100=
07434,1996-11-21 00:00:00,2,1009.7,1.2,87,0,18000,3.704,,,260,,,,,,,,,,,wg-a,,,,AAXX 21004 07434 12668 /2602 10020 20000 39608 40097 51012 60006 86501 90000=
07434,1996-11-21 03:00:00,1,1011,1.1,86,-1,15000,7.408,,,250,,,,,,,,,,,wg-a,,,,AAXX 21034 07434 12/65 12504 10010 21010 39619 40110 53011 60006 80001 90300=
07434,1996-11-21 06:00:00,1,1012.1,1.1,86,-1,12000,7.408,,,260,0.5,4,,,,,3,,,,wg-a,,,,AAXX 21064 07434 02/62 62604 10010 21010 39630 40121 51011 60006 80004 90600 333 10040 20005 60034=
07434,1996-11-21 09:00:00,1,1013.1,1,86,-1,50000,0,,,0,,,,,,,,,,,wg-a,,,,AAXX 21094 07434 12/84 60000 10010 21010 39640 40131 53010 60006 80005 90900=
07434,1996-11-21 12:00:00,3,1012.4,-0.3,87,1,20000,7.408,,,130,,,,,,,,,,,wg-a,,,,AAXX 21124 07434 12570 71304 10030 20010 39637 40124 58003 60006 86575 91200=
07434,1996-11-21 15:00:00,4,1009.1,-2.9,93,3,15000,11.112,,,150,,,,,,,,,,,wg-a,,,,AAXX 21154 07434 12365 71506 10040 20030 39608 40091 56029 60006 8652/ 91500=
07434,1996-11-21 18:00:00,2,1006.2,-3.2,93,1,8000,18.52,,,120,0.3,4.3,,3,,,,,,61,wg-a,,,,AAXX 21184 07434 12258 71210 10020 20010 39576 40062 56032 60037 76162 867// 91800 333 10043 20003=
07434,1996-11-21 21:00:00,0,1001.3,-5,100,0,2000,31.484,,,80,,,,6,,,,,,70,wg-a,,,,AAXX 21214 07434 12220 80817 10000 20000 39526 40013 56050 60067 77076 877// 92100=
07434,1996-11-22 00:00:00,1,1003.6,2.3,93,0,6000,22.224,,,30,,,,2,,,,,,51,wg-a,,,,AAXX 22004 07434 02256 70312 10010 20000 39549 40036 53023 60086 75176 877// 90000 333 60027=
07434,1996-11-22 03:00:00,1,1010.5,6.6,93,0,10000,22.224,,40.744,20,,,,,,,,,,2,wg-a,,,,AAXX 22034 07434 02260 70212 10010 20000 39615 40105 53066 61000 70272 876// 90300 333 //// 91022=
07434,1996-11-22 06:00:00,1,1015.4,4.6,86,-1,9000,18.52,,,50,0.3,2.4,,,,,11,,,2,wg-a,,1,,AAXX 22064 07434 02359 70510 10010 21010 39661 40154 51046 60114 70272 876// 90600 333 10024 20003 4/001 61000=
07434,1996-11-22 09:00:00,1,1018.4,3,86,-1,25000,3.704,,,100,,,,,,,,,,,wg-a,,,,AAXX 22094 07434 12475 71002 10010 21010 39691 40184 51030 60006 875// 90900=
07434,1996-11-22 12:00:00,4,1017.1,-0.8,70,-1,50000,14.816,,,120,,,,,,,,,,,wg-a,,,,AAXX 22124 07434 12484 /1208 10040 21010 39683 40171 58008 60006 81500 91200=
07434,1996-11-22 15:00:00,5,1015.4,-1.4,65,-1,60000,3.704,,,160,,,,,,,,,,,wg-a,,,,AAXX 22154 07434 12586 41602 10050 21010 39669 40154 58014 60006 81502 91500=
07434,1996-11-22 18:00:00,2,1015.2,-0.7,80,-1,500,3.704,,,10,0.6,6.1,,,,,,,,,wg-a,,,,AAXX 22184 07434 12/00 60102 10020 21010 39662 40152 58007 60006 80002 91800 333 10061 20006=
07434,1996-11-22 21:00:00,1,1014.6,-0.8,86,-1,15000,7.408,,,50,,,,,,,,,,,wg-a,,,,AAXX 22214 07434 12/65 70504 10010 21010 39654 40146 58008 60006 85032 92100=
07434,1996-11-23 00:00:00,0,1013.3,-1.4,86,-2,10000,3.704,,,90,,,,,,,,,,,wg-a,,,,AAXX 23004 07434 12/60 /0902 10000 21020 39640 40133 56014 60006 90000=
07434,1996-11-23 03:00:00,0,1013.5,0.1,86,-2,15000,3.704,,,80,,,,,,,,,,,wg-a,,,,AAXX 23034 07434 12765 30802 10000 21020 39641 40135 51001 60006 82530 90300=
07434,1996-11-23 06:00:00,0,1014.5,1,86,-2,10000,0,,,0,-0.5,2.5,,,,,,,,,wg-a,,,,AAXX 23064 07434 02/60 /0000 10000 21020 39651 40145 53010 60006 90600 333 10025 21005 60004=
07434,1996-11-23 09:00:00,1,1015.4,1,86,-1,12000,3.704,,,140,,,,,,,,,,22,wg-a,,,,AAXX 23094 07434 02462 71402 10010 21010 39661 40154 53010 61000 72272 875// 90900 333 ////=
07434,1996-11-23 12:00:00,3,1016.5,1.4,93,2,600,11.112,,,260,,,,,,,,,,44,wg-a,,,,AAXX 23124 07434 02106 82606 10030 20020 39675 40165 50014 61000 74475 886// 91200 333 6100=
07434,1996-11-23 15:00:00,6,1017.5,1.5,70,1,500,18.52,,,300,,,,,,,,,,1,wg-a,,,,AAXX 23154 07434 12400 /3010 10060 20010 39690 40175 53015 60006 70142 86800 91500=
07434,1996-11-23 18:00:00,3,1021.7,3.5,93,2,20000,7.408,,,330,-0.2,6.1,,2,,,,,,25,wg-a,,,,AAXX 23184 07434 12570 /3304 10030 20020 39725 40217 53035 60027 72586 85200 91800 333 10061 21002=
07434,1996-11-23 21:00:00,1,1024.3,2.2,100,1,13000,7.408,,,280,,,,,,,,,,,wg-a,,,,AAXX 23214 07434 12463 /2804 10010 20010 39747 40243 51022 60006 81201 92100=
07434,1996-11-24 00:00:00,0,1026.2,1.6,100,0,8000,7.408,,,280,,,,,,,,,,,wg-a,,,,AAXX 24004 07434 12/58 32804 10000 20000 39763 40262 51016 60006 80001 90000=
07434,1996-11-24 03:00:00,0,1027.5,1.1,93,-1,6000,3.704,,,240,,,,,,,,,,,wg-a,,,,AAXX 24034 07434 12656 52402 10000 21010 39774 40275 50011 60006 84501 90300=
07434,1996-11-24 06:00:00,-3,1028.9,0.9,100,-3,300,3.704,,,80,-2.8,2.7,,,,,2,,,48,wg-a,,,,AAXX 24064 07434 02/03 /0802 11030 21030 39783 40289 53009 60006 74841 89000 90600 333 10027 21028 60024=
07434,1996-11-24 09:00:00,-2,1029.8,1,100,-2,200,3.704,,,90,,,,,,,,,,49,wg-a,,,,AAXX 24094 07434 12/02 90902 11020 21020 39793 40298 51010 60006 74944 89/// 90900=
07434,1996-11-24 12:00:00,0,1027.9,-1.4,93,-1,100,11.112,,,110,,,,,,,,,,47,wg-a,,,,AAXX 24124 07434 12/01 91106 10000 21010 39779 40279 58014 60006 74744 89/// 91200=
07434,1996-11-24 15:00:00,2,1024.6,-2.8,100,2,8000,11.112,,,150,,,,,,,,,,28,wg-a,,,,AAXX 24154 07434 12258 71506 10020 20020 39751 40246 58028 60006 72842 85632 91500=
07434,1996-11-24 18:00:00,1,1023.1,-1.6,100,1,12000,7.408,,,150,-3.5,2.3,,,,,,,,1,wg-a,,,,AAXX 24184 07434 12362 71504 10010 20010 39735 40231 56016 60006 70142 81632 91800 333 10023 21035=
07434,1996-11-24 21:00:00,2,1020.2,-2.7,93,1,15000,11.112,,,160,,,,,,,,,,,wg-a,,,,AAXX 24214 07434 12/65 71606 10020 20010 39708 40202 58027 60006 84026 92100=
07434,1996-11-25 00:00:00,3,1018,,75,-1,15000,18.52,,,180,,,,,,,,,,,wg-a,,,,AAXX 25004 07434 12/65 81810 10030 21010 39690 40180 60006 86027 90000=
07434,1996-11-25 03:00:00,3,1013.8,-4,93,2,8000,22.224,,,180,,,,6,,,,,,61,wg-a,,,,AAXX 25034 07434 12258 81812 10030 20020 39650 40138 58040 60067 76162 887// 90300=
07434,1996-11-25 06:00:00,5,1009.7,-3.5,100,5,8000,18.52,,,190,1.1,5.5,,4,,,10,,,61,wg-a,,,,AAXX 25064 07434 02158 81910 10050 20050 39615 40097 56035 60104 76162 887// 90600 333 10055 20011 60047=
07434,1996-11-25 09:00:00,8,1007.3,-1.7,100,8,1200,18.52,,,220,,,,3,,,,,,10,wg-a,,,,AAXX 25094 07434 12112 82210 10080 20080 39598 40073 56017 60037 71065 887// 90900=
07434,1996-11-25 12:00:00,10,1005.5,-1.5,93,9,6000,25.928,,,300,,,,10,,,,,,10,wg-a,,,,AAXX 25124 07434 02256 83014 10100 20090 39583 40055 55015 60136 71065 887// 91200 333 60107=
07434,1996-11-25 15:00:00,8,1005.1,-0.7,93,7,10000,7.408,,,250,,,,0,,,,,,21,wg-a,,,,AAXX 25154 07434 12360 82504 10080 20070 39576 40051 58007 60007 72162 8682/ 91500=
07434,1996-11-25 18:00:00,8,1004.1,-1,93,7,6000,25.928,,,300,5.4,11.2,,3,,,,,,58,wg-a,,,,AAXX 25184 07434 12156 83014 10080 20070 39566 40041 56010 60037 75865 885// 91800 333 10112 20054=
07434,1996-11-25 21:00:00,7,1005.6,1.3,93,6,8000,29.632,,,320,,,,4,,,,,,61,wg-a,,,,AAXX 25214 07434 12258 83216 10070 20060 39579 40056 53013 60047 76186 887// 92100=
07434,1996-11-26 00:00:00,7,1007.8,2,93,6,15000,18.52,,,310,,,,1,,,,,,3,wg-a,,,,AAXX 26004 07434 02265 73110 10070 20060 39599 40078 53020 60046 70386 876// 90000 333 60017=
07434,1996-11-26 03:00:00,5,1010,1.9,100,5,12000,14.816,,,300,,,,,,,,,,,wg-a,,,,AAXX 26034 07434 12162 73008 10050 20050 39618 40100 53019 60006 876// 90300=
07434,1996-11-26 06:00:00,5,1011.7,1.6,100,5,8000,14.816,,,310,4.9,8,,,,,21,,,,wg-a,,,,AAXX 26064 07434 12158 83108 10050 20050 39634 40117 51016 60214 886// 90600 333 10080 20049=
07434,1996-11-26 09:00:00,5,1014.3,2.4,87,3,10000,14.816,,,310,,,,,,,,,,,wg-a,,,,AAXX 26094 07434 12360 73108 10050 20030 39658 40143 53024 60006 875// 90900=
07434,1996-11-26 12:00:00,7,1014.6,0.6,70,2,12000,11.112,,,310,,,,,,,,,,,wg-a,,,,AAXX 26124 07434 12562 73106 10070 20020 39664 40146 51006 60006 85232 91200=
07434,1996-11-26 15:00:00,6,1014.7,0,75,2,12000,11.112,,,290,,,,,,,,,,,wg-a,,,,AAXX 26154 07434 12562 72906 10060 20020 39664 40147 50000 60006 83234 91500=
07434,1996-11-26 18:00:00,5,1015.9,0.9,81,2,20000,3.704,,,300,4.6,7.7,,,,,,,,,wg-a,,,,AAXX 26184 07434 12570 73002 10050 20020 39673 40159 51009 60006 82532 91800 333 10077 20046=
07434,1996-11-26 21:00:00,3,1016.3,-0,93,2,15000,7.408,,,320,,,,,,,,,,,wg-a,,,,AAXX 26214 07434 12/65 43204 10030 20020 39673 40163 55000 60006 84050 92100=
07434,1996-11-27 00:00:00,3,1016.2,-0.1,93,2,15000,3.704,,,120,,,,,,,,,,,wg-a,,,,AAXX 27004 07434 12/65 71202 10030 20020 39672 40162 57001 60006 8707/ 90000=
07434,1996-11-27 03:00:00,2,1014.2,-2,100,2,8000,3.704,,,130,,,,,,,,,,,wg-a,,,,AAXX 27034 07434 12658 71302 10020 20020 39652 40142 58020 60006 8457/ 90300=
07434,1996-11-27 06:00:00,2,1012.5,-1.5,100,2,4000,7.408,,,120,2,4.6,,2,,,2,,,10,wg-a,,,,AAXX 27064 07434 02540 81204 10020 20020 39637 40125 56015 60024 71062 875// 90600 333 10046 20020 60027=
07434,1996-11-27 09:00:00,3,1009.1,-3.2,93,2,1500,18.52,,,150,,,,5,,,,,,10,wg-a,,,,AAXX 27094 07434 12115 81510 10030 20020 39605 40091 56032 60057 71065 875// 90900=
07434,1996-11-27 12:00:00,5,1004.4,-4,100,5,900,22.224,,,200,,,,,,,,,,10,wg-a,,,,AAXX 27124 07434 12/09 92012 10050 20050 39565 40044 58040 60076 71065 89/// 91200=
07434,1996-11-27 15:00:00,9,1002.5,-1.2,93,8,15000,38.892,,62.968,290,,,,1,,,,,,25,wg-a,,,,AAXX 27154 07434 12265 72921 10090 20080 39553 40025 55012 60017 72586 878// 91500 333 91034=
07434,1996-11-27 18:00:00,7,1005.7,2.6,87,5,15000,25.928,,,280,2.4,10.1,,2,,,,,,1,wg-a,,,,AAXX 27184 07434 12365 72814 10070 20050 39579 40057 51026 60027 70186 878// 91800 333 10101 20024=
07434,1996-11-28 00:00:00,3,1007.7,0.1,93,2,6000,25.928,,,10,,,,1,,,,,,80,wg-a,,,,AAXX 28004 07434 02256 70114 10030 20020 39592 40077 53001 60016 78086 876// 90000 333 60017=
07434,1996-11-28 03:00:00,0,1013.5,5,93,-1,10000,22.224,,,10,,,,2,,,,,,70,wg-a,,,,AAXX 28034 07434 12160 70112 10000 21010 39642 40135 53050 60027 77087 877// 90300=
07434,1996-11-28 06:00:00,0,1018.1,4.3,86,-2,8000,14.816,,,350,-0.3,6.5,,,,,13,,,1,wg-a,,,,AAXX 28064 07434 02358 73508 10000 21020 39685 40181 53043 60134 70187 876// 90600 333 10065 21003 61000=
07434,1996-11-28 09:00:00,0,1021.6,3.3,86,-2,10000,11.112,,,340,,,,,,,,,,,wg-a,,,,AAXX 28094 07434 12460 73406 10000 21020 39718 40216 52033 60006 875// 90900=
07434,1996-11-28 12:00:00,2,1022.4,1.1,75,-2,10000,14.816,,,310,,,,,,,,,,,wg-a,,,,AAXX 28124 07434 12460 23108 10020 21020 39729 40224 50011 60006 82100 91200=
07434,1996-11-28 15:00:00,2,1022.9,0.6,80,-1,10000,11.112,,,320,,,,,,,,,,,wg-a,,,,AAXX 28154 07434 12560 53206 10020 21010 39735 40229 53006 60006 85800 91500=
07434,1996-11-28 18:00:00,1,1024.3,1.1,86,-1,10000,3.704,,,290,-0.6,3.4,,,,,,,,,wg-a,,,,AAXX 28184 07434 12660 /2902 10010 21010 39746 40243 51011 60006 86500 91800 333 10034 21006=
07434,1996-11-28 21:00:00,0,1025,0.5,93,-1,9000,7.408,,,290,,,,,,,,,,,wg-a,,,,AAXX 28214 07434 12/59 02904 10000 21010 39751 40250 50005 60006 80000 92100=
07434,1996-11-29 00:00:00,0,1025.6,0.6,93,-1,3000,7.408,,,290,,,,,,,,,,10,wg-a,,,,AAXX 29004 07434 12/30 12904 10000 21010 39757 40256 52006 60006 71011 80002 90000=
07434,1996-11-29 03:00:00,-1,1024.7,-1.1,93,-2,200,3.704,,,100,,,,,,,,,,49,wg-a,,,,AAXX 29034 07434 12/02 91002 11010 21020 39746 40247 56011 60006 74941 89/// 90300=
07434,1996-11-29 06:00:00,-1,1023,-1.5,100,-1,400,7.408,,,170,-1.6,1,,,,,,,,49,wg-a,,,,AAXX 29064 07434 02/04 91704 11010 21010 39731 40230 57015 60006 74941 89/// 90600 333 10010 21016 60004=
07434,1996-11-29 09:00:00,1,1021.2,-1.4,100,1,2000,25.928,,,200,,,,2,,,,,,10,wg-a,,,,AAXX 29094 07434 12220 82014 10010 20010 39717 40212 57014 60027 71065 887// 90900=
07434,1996-11-29 12:00:00,4,1018.2,-2.4,93,3,1200,22.224,,,230,,,,6,,,,,,10,wg-a,,,,AAXX 29124 07434 02112 82312 10040 20030 39693 40182 58024 60086 71065 887// 91200 333 60067=
07434,1996-11-29 15:00:00,8,1015,-2.2,100,8,10000,22.224,,,260,,,,4,,,,,,21,wg-a,,,,AAXX 29154 07434 12260 82612 10080 20080 39671 40150 56022 60047 72164 887// 91500=
07434,1996-11-29 18:00:00,9,1014.2,-0.7,93,8,6000,22.224,,35.188,270,-0.7,9.1,,,,,,,,51,wg-a,,,,AAXX 29184 07434 02256 82712 10090 20080 39664 40142 58007 61000 75165 885// 91800 333 10091 21007 //// 91019=
07434,1996-11-29 21:00:00,9,1012.7,-1.3,100,9,4000,25.928,,,260,,,,,,,,,,10,wg-a,,,,AAXX 29214 07434 32/40 /2614 10090 20090 39651 40127 58013 710// 92100=
07434,1996-11-30 00:00:00,10,1010.5,-1.9,100,10,4000,25.928,,,250,,,,0,,,,,,10,wg-a,,,,AAXX 30004 07434 02140 82514 10100 20100 39632 40105 57019 60016 71065 885// 90000 333 60007=
07434,1996-11-30 03:00:00,10,1009.5,-1,100,10,4000,25.928,,42.596,280,,,,3,,,,,,10,wg-a,,,,AAXX 30034 07434 12140 82814 10100 20100 39622 40095 58010 60037 71066 887// 90300 333 91023=
07434,1996-11-30 09:00:00,10,1009.4,0.4,93,9,4000,22.224,,,300,,,,7,,,,,,10,wg-a,,,,AAXX 30094 07434 12140 83012 10100 20090 39620 40094 51004 60077 71066 887// 90900=
07434,1996-11-30 12:00:00,9,1010.4,0.8,93,8,3000,22.224,,,330,,,,7,,,,,,10,wg-a,,,,AAXX 30124 07434 02130 83312 10090 20080 39628 40104 50008 60146 71066 887// 91200 333 60077=
07434,1996-11-30 15:00:00,8,1010.9,0.4,100,8,500,18.52,,,340,,,,3,,,,,,80,wg-a,,,,AAXX 30154 07434 12100 83410 10080 20080 39632 40109 53004 60037 78086 872// 91500=
07434,1996-11-30 18:00:00,7,1013.4,2.2,93,6,15000,18.52,,,320,7.4,9.9,,0,,,,,,1,wg-a,,,,AAXX 30184 07434 12365 /3210 10070 20060 39654 40134 53022 60007 70186 86200 91800 333 10099 20074=
07434,1996-11-30 21:00:00,6,1017,3.2,87,4,20000,14.816,,,340,,,,,,,,,,,wg-a,,,,AAXX 30214 07434 12570 /3408 10060 20040 39686 40170 51032 60006 86800 92100=
07434,1996-12-01 00:00:00,5,1020,2.6,87,3,20000,14.816,,,330,,,,,,,,,,,wg-a,,,,AAXX 01004 07434 12570 23308 10050 20030 39712 40200 53026 60006 82500 90000=
07434,1996-12-01 03:00:00,4,1022,1.8,100,4,8000,7.408,,,350,,,,,,,,,,,wg-a,,,,AAXX 01034 07434 12258 83504 10040 20040 39730 40220 51018 60006 886// 90300=
07434,1996-12-01 06:00:00,4,1023.8,1.7,93,3,500,11.112,,,360,3.7,7.5,,,,,17,,,,wg-a,,,,AAXX 01064 07434 02100 73606 10040 20030 39747 40238 53017 60006 876// 90600 333 10075 20037 60174=
07434,1996-12-01 09:00:00,3,1025.4,1.4,100,3,900,3.704,,,210,,,,,,,,,,43,wg-a,,,,AAXX 01094 07434 12/09 92102 10030 20030 39761 40254 52014 60006 74342 89/// 90900=
07434,1996-12-01 12:00:00,5,1025.2,0.1,93,4,4000,7.408,,,190,,,,,,,,,,10,wg-a,,,,AAXX 01124 07434 12240 71904 10050 20040 39762 40252 50001 60006 71042 876// 91200=
07434,1996-12-01 15:00:00,6,1023.5,-1.4,93,5,3000,14.816,,,220,,,,0,,,,,,10,wg-a,,,,AAXX 01154 07434 12130 82208 10060 20050 39748 40235 56014 60007 71065 877// 91500=
07434,1996-12-01 18:00:00,6,1023.4,-0.2,93,5,800,14.816,,,210,3.2,6.4,,,,,,,,10,wg-a,,,,AAXX 01184 07434 32/08 92108 10060 20050 39746 40234 58002 71065 89/// 91800 333 10064 20032=
07434,1996-12-01 21:00:00,8,1021.8,-1,100,8,800,7.408,,,250,,,,,,,,,,45,wg-a,,,,AAXX 01214 07434 32/08 92504 10080 20080 39736 40218 56010 74555 89/// 92100=
07434,1996-12-02 00:00:00,9,1021,-0.6,100,9,10000,18.52,,,290,,,,1,,,,,,20,wg-a,,,,AAXX 02004 07434 02160 82910 10090 20090 39730 40210 58006 60026 72054 877// 90000 333 60017=
07434,1996-12-02 03:00:00,8,1022.5,1.1,93,7,8000,11.112,,,300,,,,,,,,,,,wg-a,,,,AAXX 02034 07434 12258 83006 10080 20070 39741 40225 51011 60006 877// 90300=
07434,1996-12-02 06:00:00,6,1024.2,1.4,93,5,8000,14.816,,,310,5.7,9.8,,,,,5,,,,wg-a,,,,AAXX 02064 07434 12258 83108 10060 20050 39755 40242 53014 60054 877// 90600 333 10098 20057=
07434,1996-12-02 09:00:00,5,1025.9,1.5,100,5,8000,11.112,,,300,,,,,,,,,,,wg-a,,,,AAXX 02094 07434 12258 83006 10050 20050 39770 40259 52015 60006 85732 90900=
07434,1996-12-02 12:00:00,7,1025.6,0,87,5,10000,14.816,,,300,,,,,,,,,,,wg-a,,,,AAXX 02124 07434 12460 73008 10070 20050 39770 40256 50000 60006 84232 91200=
07434,1996-12-02 15:00:00,7,1024.9,-0.7,76,3,15000,14.816,,,300,,,,,,,,,,,wg-a,,,,AAXX 02154 07434 12565 53008 10070 20030 39763 40249 56007 60006 83831 91500=
07434,1996-12-02 18:00:00,5,1025.7,0.4,87,3,10000,7.408,,,250,5.2,8.4,,,,,,,,,wg-a,,,,AAXX 02184 07434 12460 52504 10050 20030 39767 40257 51004 60006 84830 91800 333 10084 20052=
07434,1996-12-02 21:00:00,4,1025.3,-0.5,93,3,15000,7.408,,,280,,,,,,,,,,,wg-a,,,,AAXX 02214 07434 12665 72804 10040 20030 39762 40253 58005 60006 8357/ 92100=
07434,1996-12-03 00:00:00,4,1023.7,-1.6,93,3,15000,7.408,,,230,,,,,,,,,,,wg-a,,,,AAXX 03004 07434 12665 72304 10040 20030 39746 40237 56016 60006 8157/ 90000=
07434,1996-12-03 03:00:00,4,1021.8,-1.8,93,3,15000,0,,,0,,,,,,,,,,,wg-a,,,,AAXX 03034 07434 12565 70000 10040 20030 39728 40218 56018 60006 8553/ 90300=
07434,1996-12-03 06:00:00,4,1019,-2.7,93,3,15000,11.112,,,190,3.8,5.4,,,,,,,,,wg-a,,,,AAXX 03064 07434 02265 71906 10040 20030 39701 40190 56027 60006 875// 90600 333 10054 20038 60004=
07434,1996-12-03 09:00:00,5,1017,-1.7,93,4,15000,22.224,,,200,,,,,,,,,,,wg-a,,,,AAXX 03094 07434 12265 72012 10050 20040 39684 40170 56017 60006 875// 90900=
07434,1996-12-03 12:00:00,6,1013.7,-3,87,4,10000,25.928,,,190,,,,,,,,,,,wg-a,,,,AAXX 03124 07434 12360 71914 10060 20040 39654 40137 58030 60006 877// 91200=
07434,1996-12-03 15:00:00,7,1009.6,-3.6,81,4,10000,22.224,,,190,,,,,,,,,,,wg-a,,,,AAXX 03154 07434 12560 71912 10070 20040 39618 40096 56036 60006 8/500 91500=
07434,1996-12-03 18:00:00,7,1008.3,-1.4,76,3,10000,29.632,,,190,3.9,7.6,,,,,,,,,wg-a,,,,AAXX 03184 07434 12660 71916 10070 20030 39604 40083 58014 60006 875// 91800 333 10076 20039=
07434,1996-12-03 21:00:00,6,1006.9,-1.5,75,2,10000,18.52,,,180,,,,,,,,,,,wg-a,,,,AAXX 03214 07434 12560 31810 10060 20020 39589 40069 58015 60006 81532 92100=
07434,1996-12-04 00:00:00,7,1006.7,0,70,2,10000,18.52,,,190,,,,,,,,,,,wg-a,,,,AAXX 04004 07434 12560 71910 10070 20020 39589 40067 50000 60006 875// 90000=
07434,1996-12-04 03:00:00,7,1006.1,-0.6,66,1,10000,18.52,,,200,,,,,,,,,,,wg-a,,,,AAXX 04034 07434 12560 72010 10070 20010 39583 40061 55006 60006 875// 90300=
07434,1996-12-04 06:00:00,7,1005.7,-0.3,81,4,10000,14.816,,,230,5.4,7.3,,,,,,,,,wg-a,,,,AAXX 04064 07434 02560 72308 10070 20040 39580 40057 55003 60006 875// 90600 333 10073 20054 60004=
07434,1996-12-04 09:00:00,7,1007.1,1.2,81,4,15000,14.816,,,230,,,,,,,,,,,wg-a,,,,AAXX 04094 07434 12465 72308 10070 20040 39592 40071 53012 60006 878// 90900=
07434,1996-12-04 12:00:00,7,1006.8,-0.2,87,5,15000,3.704,,,190,,,,,,,,,,,wg-a,,,,AAXX 04124 07434 12465 81902 10070 20050 39590 40068 58002 60006 875// 91200=
07434,1996-12-04 15:00:00,7,1006.2,-0.5,93,6,8000,3.704,,,320,,,,,,,,,,60,wg-a,,,,AAXX 04154 07434 02458 83202 10070 20060 39585 40062 55005 61000 76062 8752/ 91500 333 ////=
07434,1996-12-04 18:00:00,6,1007,0.5,93,5,500,14.816,,,10,5.7,7.4,,1,,,,,,10,wg-a,,,,AAXX 04184 07434 12100 80108 10060 20050 39590 40070 50005 60017 71062 877// 91800 333 10074 20057=
07434,1996-12-04 21:00:00,6,1009,1.9,93,5,500,7.408,,,100,,,,3,,,,,,63,wg-a,,,,AAXX 04214 07434 12100 81004 10060 20050 39609 40090 51019 60037 76366 877// 92100=
07434,1996-12-05 00:00:00,6,1009.4,0.4,93,5,4000,11.112,,,100,,,,5,,,,,,10,wg-a,,,,AAXX 05004 07434 02140 81006 10060 20050 39613 40094 50004 60086 71066 8677/ 90000 333 60057=
07434,1996-12-05 03:00:00,6,1008.9,-0.5,93,5,6000,7.408,,,50,,,,0,,,,,,2,wg-a,,,,AAXX 05034 07434 12256 80504 10060 20050 39608 40089 58005 60007 70265 8657/ 90300=
07434,1996-12-05 06:00:00,5,1009.1,0.1,100,5,3500,14.816,,,10,5.1,5.7,,2,,,12,,,10,wg-a,,,,AAXX 05064 07434 02135 80108 10050 20050 39609 40091 50001 60124 71065 877// 90600 333 10057 20051 60027=
07434,1996-12-05 09:00:00,6,1009.7,0.8,93,5,20000,18.52,,,30,,,,1,,,,,,21,wg-a,,,,AAXX 05094 07434 12270 70310 10060 20050 39617 40097 53008 60017 72162 878// 90900=
07434,1996-12-05 12:00:00,6,1009.4,-0.3,100,6,20000,11.112,,,30,,,,1,,,,,,60,wg-a,,,,AAXX 05124 07434 02270 80306 10060 20060 39614 40094 58003 60026 76062 888// 91200 333 60017=
07434,1996-12-05 15:00:00,7,1008.4,-0.8,93,6,11000,14.816,,,50,,,,,,,,,,,wg-a,,,,AAXX 05154 07434 32/61 /0508 10070 20060 39606 40084 56008 91500=
07434,1996-12-05 18:00:00,8,1008.8,0.5,93,7,15000,14.816,,,30,5.2,8,,8,,,,,,21,wg-a,,,,AAXX 05184 07434 12365 80308 10080 20070 39611 40088 52005 60087 72162 888// 91800 333 10080 20052=
07434,1996-12-05 21:00:00,8,1009.3,0.4,87,6,20000,14.816,,,60,,,,,,,,,,,wg-a,,,,AAXX 05214 07434 12670 80608 10080 20060 39615 40093 51004 60006 8557/ 92100=
07434,1996-12-06 00:00:00,7,1009.5,0.2,93,6,20000,14.816,,,70,,,,,,,,,,,wg-a,,,,AAXX 06004 07434 12670 80708 10070 20060 39617 40095 50002 60006 8257/ 90000=
07434,1996-12-06 03:00:00,7,1009.6,0.1,93,6,12000,11.112,,,100,,,,1,,,,,,60,wg-a,,,,AAXX 06034 07434 12662 81006 10070 20060 39618 40096 53001 60017 76062 875// 90300=
07434,1996-12-06 06:00:00,7,1009.3,-0.3,93,6,8000,14.816,,,80,7,8.1,,3,,,16,,,61,wg-a,,,,AAXX 06064 07434 02458 80808 10070 20060 39615 40093 55003 60164 76162 878// 90600 333 10081 20070 60037=
07434,1996-12-06 09:00:00,9,1010.7,1.6,81,6,15000,11.112,,,120,,,,0,,,,,,2,wg-a,,,,AAXX 06094 07434 12665 71206 10090 20060 39631 40107 52016 60007 70262 875// 90900=
07434,1996-12-06 12:00:00,11,1011.4,1,76,7,40000,14.816,,,160,,,,,,,,,,1,wg-a,,,,AAXX 06124 07434 12682 71608 10110 20070 39641 40114 51010 60006 70162 86572 91200=
07434,1996-12-06 15:00:00,11,1012.3,0.8,76,7,50000,11.112,,,160,,,,,,,,,,,wg-a,,,,AAXX 06154 07434 12684 71606 10110 20070 39649 40123 53008 60006 86502 91500=
07434,1996-12-06 18:00:00,10,1014.3,1.8,76,6,10000,3.704,,,140,7.4,11.4,,,,,,,,,wg-a,,,,AAXX 06184 07434 32/60 /1402 10100 20060 39667 40143 51018 91800 333 10114 20074=
07434,1996-12-06 21:00:00,9,1015.9,1.4,81,6,20000,7.408,,,60,,,,,,,,,,,wg-a,,,,AAXX 06214 07434 12670 80604 10090 20060 39681 40159 51014 60006 8653/ 92100=
07434,1996-12-07 00:00:00,8,1016.4,0.3,87,6,10000,14.816,,,80,,,,,,,,,,60,wg-a,,,,AAXX 07004 07434 02560 80808 10080 20060 39684 40164 50003 61000 76062 8687/ 90000 333 6100=
07434,1996-12-07 03:00:00,8,1016.3,-0.1,93,7,10000,18.52,,,70,,,,2,,,,,,61,wg-a,,,,AAXX 07034 07434 12460 80710 10080 20070 39683 40163 55001 60027 76166 888// 90300=
07434,1996-12-07 06:00:00,8,1016.5,0.2,93,7,10000,14.816,,,70,7.8,9.9,,1,,,3,,,61,wg-a,,,,AAXX 07064 07434 02560 80708 10080 20070 39685 40165 53002 60034 76166 888// 90600 333 10099 20078 60017=
07434,1996-12-07 09:00:00,9,1018.1,1.6,87,7,40000,11.112,,,90,,,,0,,,,,,1,wg-a,,,,AAXX 07094 07434 12782 60906 10090 20070 39701 40181 51016 60007 70162 81532 90900=
07434,1996-12-07 12:00:00,13,1017.9,0.6,72,8,50000,11.112,,,110,,,,,,,,,,3,wg-a,,,,AAXX 07124 07434 12784 51106 10130 20080 39707 40179 51006 60006 70362 81532 91200=
07434,1996-12-07 15:00:00,15,1018.6,0.8,59,7,40000,14.816,,,140,,,,,,,,,,,wg-a,,,,AAXX 07154 07434 12682 71408 10150 20070 39715 40186 53008 60006 81132 91500=
07434,1996-12-07 18:00:00,11,1020.2,1.1,76,7,25000,7.408,,,50,8.2,15,,,,,,,,,wg-a,,,,AAXX 07184 07434 32/75 10504 10110 20070 39726 40202 52011 81031 91800 333 10150 20082=
07434,1996-12-07 21:00:00,10,1021.6,1,76,6,20000,7.408,,,70,,,,,,,,,,,wg-a,,,,AAXX 07214 07434 12/70 20704 10100 20060 39736 40216 51010 60006 80001 92100=
07434,1996-12-08 00:00:00,10,1021.2,-0.4,71,5,18000,11.112,,,50,,,,,,,,,,,wg-a,,,,AAXX 08004 07434 12/68 20506 10100 20050 39732 40212 57004 60006 80001 90000=
07434,1996-12-08 03:00:00,8,1021,-0.4,81,5,8000,11.112,,,80,,,,,,,,,,,wg-a,,,,AAXX 08034 07434 12/58 /0806 10080 20050 39728 40210 58004 60006 83032 90300=
07434,1996-12-08 06:00:00,7,1020.4,-0.9,66,1,13000,7.408,,,100,6.7,11.5,,,,,,,,,wg-a,,,,AAXX 08064 07434 02/63 31004 10070 20010 39719 40204 55009 60006 81032 90600 333 10115 20067 60004=
07434,1996-12-08 09:00:00,8,1020.2,0,53,-1,50000,11.112,,,70,,,,,,,,,,,wg-a,,,,AAXX 08094 07434 12/84 30706 10080 21010 39719 40202 50000 60006 81032 90900=
07434,1996-12-08 12:00:00,14,1018.5,-0.7,33,-2,50000,14.816,,,90,,,,,,,,,,,wg-a,,,,AAXX 08124 07434 12/84 30908 10140 21020 39712 40185 58007 60006 81032 91200=
07434,1996-12-08 15:00:00,13,1017.9,-0.6,54,4,50000,3.704,,,30,,,,,,,,,,,wg-a,,,,AAXX 08154 07434 12/84 30302 10130 20040 39706 40179 56006 60006 81032 91500=
07434,1996-12-08 18:00:00,8,1019.1,0.3,66,2,15000,11.112,,,360,6.5,14.1,,,,,,,,,wg-a,,,,AAXX 08184 07434 12/65 23606 10080 20020 39709 40191 53003 60006 81031 91800 333 10141 20065=
07434,1996-12-08 21:00:00,6,1019.9,0.4,81,3,15000,3.704,,,30,,,,,,,,,,,wg-a,,,,AAXX 08214 07434 12765 70302 10060 20030 39713 40199 51004 60006 8355/ 92100=
07434,1996-12-09 00:00:00,4,1020.2,0,87,2,8000,0,,,0,,,,,,,,,,,wg-a,,,,AAXX 09004 07434 12/58 60000 10040 20020 39713 40202 50000 60006 83031 90000=
07434,1996-12-09 03:00:00,5,1018.5,-1.6,81,2,8000,11.112,,,330,,,,,,,,,,,wg-a,,,,AAXX 09034 07434 12758 83306 10050 20020 39697 40185 56016 60006 875// 90300=
07434,1996-12-09 06:00:00,1,1018.6,-0.6,93,0,7000,14.816,,,340,0.6,8.6,,,,,,,,,wg-a,,,,AAXX 09064 07434 02857 53408 10010 20000 39691 40186 56006 60006 84031 90600 333 10086 20006 60004=
07434,1996-12-09 09:00:00,0,1018.2,-0.4,100,0,1500,11.112,,,350,,,,,,,,,,10,wg-a,,,,AAXX 09094 07434 12015 73506 10000 20000 39687 40182 56004 60006 71041 84631 90900=
07434,1996-12-09 12:00:00,1,1016.9,-1.2,93,0,1200,11.112,,,30,,,,,,,,,,10,wg-a,,,,AAXX 09124 07434 12012 70306 10010 20000 39675 40169 58012 60006 71041 876// 91200=
07434,1996-12-09 15:00:00,1,1015.3,-1.5,93,0,3000,11.112,,,20,,,,,,,,,,10,wg-a,,,,AAXX 09154 07434 12130 70206 10010 20000 39660 40153 56015 60006 71022 8663/ 91500=
07434,1996-12-09 18:00:00,2,1016.3,1.1,87,0,8000,11.112,,,110,-0.5,2.8,,,,,,,,,wg-a,,,,AAXX 09184 07434 12258 71106 10020 20000 39671 40163 53011 60006 8367/ 91800 333 10028 21005=
07434,1996-12-09 21:00:00,3,1016,-0,93,2,10000,7.408,,,120,,,,,,,,,,,wg-a,,,,AAXX 09214 07434 12460 71204 10030 20020 39671 40160 54000 60006 8467/ 92100=
07434,1996-12-10 00:00:00,4,1014.9,-0.8,93,3,11000,7.408,,,120,,,,,,,,,,,wg-a,,,,AAXX 10004 07434 12/61 /1204 10040 20030 39663 40149 58008 60006 90000=
07434,1996-12-10 03:00:00,4,1013.7,-1.2,93,3,10000,3.704,,,90,,,,,,,,,,,wg-a,,,,AAXX 10034 07434 12/60 00902 10040 20030 39651 40137 58012 60006 80000 90300=
07434,1996-12-10 06:00:00,3,1013.6,-0.3,93,2,10000,7.408,,,70,1.6,5,,,,,,,,1,wg-a,,,,AAXX 10064 07434 02460 /0704 10030 20020 39648 40136 58003 60006 70141 81600 90600 333 10050 20016 60004=
07434,1996-12-10 12:00:00,8,1012.7,-0.7,76,4,6000,3.704,,,70,,,,,,,,,,,wg-a,,,,AAXX 10124 07434 12/56 /0702 10080 20040 39648 40127 58007 60006 85031 91200=
07434,1996-12-10 15:00:00,9,1011.7,-0.8,81,6,8000,7.408,,,330,,,,,,,,,,,wg-a,,,,AAXX 10154 07434 12/58 /3304 10090 20060 39640 40117 55008 60006 82031 91500=
07434,1996-12-10 18:00:00,7,1013,1,81,4,7000,11.112,,,40,2,9.5,,,,,,,,,wg-a,,,,AAXX 10184 07434 12/57 70406 10070 20040 39650 40130 51010 60006 85031 91800 333 10095 20020=
07434,1996-12-10 21:00:00,6,1013.5,0.2,75,2,8000,11.112,,,80,,,,,,,,,,,wg-a,,,,AAXX 10214 07434 12/58 40806 10060 20020 39652 40135 51002 60006 81031 92100=
07434,1996-12-11 00:00:00,5,1013.8,0.1,70,0,15000,14.816,,,80,,,,,,,,,,,wg-a,,,,AAXX 11004 07434 12/65 30808 10050 20000 39653 40138 51001 60006 80001 90000=
07434,1996-12-11 03:00:00,5,1013.1,-0.6,65,-1,15000,7.408,,,70,,,,,,,,,,,wg-a,,,,AAXX 11034 07434 12/65 30704 10050 21010 39647 40131 58006 60006 81031 90300=
07434,1996-12-11 06:00:00,3,1013.7,0.2,81,0,15000,7.408,,,50,2.5,7.1,,,,,,,,,wg-a,,,,AAXX 11064 07434 02/65 00504 10030 20000 39649 40137 53002 60006 80000 90600 333 10071 20025 60004=
07434,1996-12-11 09:00:00,5,1013.8,0.4,75,1,25000,11.112,,,90,,,,,,,,,,,wg-a,,,,AAXX 11094 07434 12/75 10906 10050 20010 39653 40138 53004 60006 80001 90900=
07434,1996-12-11 12:00:00,11,1011.4,-1.2,62,4,25000,14.816,,,150,,,,,,,,,,,wg-a,,,,AAXX 11124 07434 12/75 11508 10110 20040 39641 40114 58012 60006 80001 91200=
07434,1996-12-11 15:00:00,12,1010.1,-1.1,58,4,25000,14.816,,,120,,,,,,,,,,,wg-a,,,,AAXX 11154 07434 12/75 11208 10120 20040 39630 40101 58011 60006 80001 91500=
07434,1996-12-11 18:00:00,9,1011.2,0.5,71,4,25000,11.112,,,140,2.5,12.2,,,,,,,,,wg-a,,,,AAXX 11184 07434 12/75 21406 10090 20040 39635 40112 51005 60006 80001 91800 333 10122 20025=
07434,1996-12-11 21:00:00,8,1009.4,-1.9,71,3,25000,18.52,,,120,,,,,,,,,,,wg-a,,,,AAXX 11214 07434 12/75 31210 10080 20030 39616 40094 58019 60006 80001 92100=
07434,1996-12-12 00:00:00,7,1010.1,0.6,76,3,20000,14.816,,,130,,,,,,,,,,,wg-a,,,,AAXX 12004 07434 12/70 51308 10070 20030 39622 40101 50006 60006 80002 90000=
07434,1996-12-12 03:00:00,7,1008.8,-1.3,76,3,20000,11.112,,,110,,,,,,,,,,,wg-a,,,,AAXX 12034 07434 12770 71106 10070 20030 39609 40088 56013 60006 875// 90300=
07434,1996-12-12 06:00:00,8,1009.3,0.6,76,4,20000,7.408,,,140,6.2,8.6,,,,,,,,,wg-a,,,,AAXX 12064 07434 02670 81404 10080 20040 39615 40093 51006 60006 878// 90600 333 10086 20062 60004=
07434,1996-12-12 09:00:00,7,1010.2,0.8,93,6,8000,11.112,,,160,,,,1,,,,,,60,wg-a,,,,AAXX 12094 07434 12658 81606 10070 20060 39623 40102 53008 60017 76062 855// 90900=
07434,1996-12-12 12:00:00,10,1008.6,-1.1,87,8,40000,11.112,,,170,,,,,,,,,,3,wg-a,,,,AAXX 12124 07434 02682 71706 10100 20080 39612 40086 58011 60016 70362 855// 91200 333 61000=
07434,1996-12-12 15:00:00,11,1007.3,-1.1,82,8,11000,14.816,,,190,,,,,,,,,,,wg-a,,,,AAXX 12154 07434 12/61 /1908 10110 20080 39601 40073 56011 60006 91500=
07434,1996-12-12 18:00:00,9,1007.2,-0.3,87,7,15000,7.408,,,180,7.1,11.3,,,,,,,,,wg-a,,,,AAXX 12184 07434 32765 71804 10090 20070 39598 40072 55003 855// 91800 333 10113 20071=
07434,1996-12-12 21:00:00,10,1006.3,-0.8,93,9,12000,11.112,,,180,,,,0,,,,,,60,wg-a,,,,AAXX 12214 07434 12662 71806 10100 20090 39590 40063 57008 60007 76062 86572 92100=
07434,1996-12-13 00:00:00,9,1005.4,-1,93,8,12000,7.408,,,140,,,,2,,,,,,21,wg-a,,,,AAXX 13004 07434 02462 71404 10090 20080 39580 40054 56010 60036 72162 875// 90000 333 60027=
07434,1996-12-13 03:00:00,9,1003.3,-2,93,8,12000,11.112,,,140,,,,1,,,,,,,wg-a,,,,AAXX 13034 07434 12662 71406 10090 20080 39560 40033 56020 60017 875// 90300=
07434,1996-12-13 06:00:00,9,1001.8,-1.4,93,8,12000,7.408,,,180,8.3,9.7,,1,,,5,,,1,wg-a,,,,AAXX 13064 07434 02362 71804 10090 20080 39546 40018 56014 60054 70162 875// 90600 333 10097 20083 60017=
07434,1996-12-13 09:00:00,9,1001.3,-0.4,93,8,12000,11.112,,,180,,,,,,,,,,,wg-a,,,,AAXX 13094 07434 12562 71806 10090 20080 39542 40013 55004 60006 875// 90900=
07434,1996-12-13 12:00:00,11,999.8,-1.2,87,9,20000,14.816,,,200,,,,,,,,,,,wg-a,,,,AAXX 13124 07434 12370 72008 10110 20090 39530 49998 58012 60006 878// 91200=
07434,1996-12-13 15:00:00,11,998.8,-0.9,87,9,20000,7.408,,,210,,,,,,,,,,,wg-a,,,,AAXX 13154 07434 12470 72104 10110 20090 39521 49988 56009 60006 875// 91500=
07434,1996-12-13 18:00:00,10,998.8,-0.1,93,9,10000,3.704,,,180,8.8,11.4,,,,,,,,21,wg-a,,,,AAXX 13184 07434 02260 71802 10100 20090 39520 49988 55001 61000 72162 875// 91800 333 10114 20088 ////=
07434,1996-12-13 21:00:00,10,998.6,-0.3,93,9,2000,3.704,,,150,,,,0,,,,,,21,wg-a,,,,AAXX 13214 07434 12120 71502 10100 20090 39517 49986 57003 60007 72162 877// 92100=
07434,1996-12-14 00:00:00,9,998.7,-0,100,9,600,7.408,,,10,,,,0,,,,,,44,wg-a,,,,AAXX 14004 07434 02106 80104 10090 20090 39517 49987 55000 60016 74464 887// 90000 333 60007=
07434,1996-12-14 03:00:00,6,999.7,0.5,100,6,10000,18.52,,,30,,,,,,,,,,1,wg-a,,,,AAXX 14034 07434 12160 80310 10060 20060 39522 49997 53005 60006 70142 886// 90300=
07434,1996-12-14 06:00:00,5,1001.2,1.2,93,4,10000,14.816,,,30,4.9,9.9,,,,,1,,,1,wg-a,,,,AAXX 14064 07434 12160 70308 10050 20040 39534 40012 51012 60014 70142 876// 90600 333 10099 20049=
07434,1996-12-14 09:00:00,3,1004.2,2.5,100,3,7000,25.928,,,40,,,,,,,,,,,wg-a,,,,AAXX 14094 07434 12157 70414 10030 20030 39559 40042 53025 60006 876// 90900=
07434,1996-12-14 12:00:00,3,1006.6,2.2,93,2,4000,22.224,,,40,,,,,,,,,,10,wg-a,,,,AAXX 14124 07434 12140 70412 10030 20020 39581 40066 51022 60006 71042 876// 91200=
07434,1996-12-14 15:00:00,2,1008.7,1.8,93,1,10000,22.224,,,40,,,,,,,,,,,wg-a,,,,AAXX 14154 07434 12160 70412 10020 20010 39599 40087 53018 60006 876// 91500=
07434,1996-12-14 18:00:00,1,1011.5,2.5,93,0,15000,18.52,,,40,0.9,4.9,,,,,,,,,wg-a,,,,AAXX 14184 07434 12265 70410 10010 20000 39624 40115 51025 60006 876// 91800 333 10049 20009=
07434,1996-12-14 21:00:00,1,1013.3,1.7,86,-1,15000,18.52,,,50,,,,,,,,,,,wg-a,,,,AAXX 14214 07434 12365 70510 10010 21010 39641 40133 51017 60006 876// 92100=
07434,1996-12-15 00:00:00,1,1014.5,1.1,86,-1,15000,11.112,,,30,,,,,,,,,,,wg-a,,,,AAXX 15004 07434 12365 70306 10010 21010 39652 40145 51011 60006 876// 90000=
07434,1996-12-15 03:00:00,-1,1016,1.1,86,-3,12000,7.408,,,50,,,,,,,,,,,wg-a,,,,AAXX 15034 07434 12362 /0504 11010 21030 39663 40160 51011 60006 85500 90300=
07434,1996-12-15 06:00:00,-2,1016.5,0.4,93,-3,12000,11.112,,,80,-2,1,,,,,,,,,wg-a,,,,AAXX 15064 07434 02362 30806 11020 21030 39667 40165 53004 60006 83500 90600 333 10010 21020 60004=
07434,1996-12-15 09:00:00,0,1017.9,1.7,86,-2,7000,7.408,,,60,,,,,,,,,,,wg-a,,,,AAXX 15094 07434 12457 /0604 10000 21020 39684 40179 53017 60006 81530 90900=
07434,1996-12-15 12:00:00,4,1016.7,-0.5,70,-1,11000,7.408,,,100,,,,,,,,,,,wg-a,,,,AAXX 15124 07434 12/61 /1004 10040 21010 39679 40167 58005 60006 91200=
07434,1996-12-15 15:00:00,5,1016,-0.5,70,0,20000,7.408,,,360,,,,,,,,,,,wg-a,,,,AAXX 15154 07434 12/70 03604 10050 20000 39674 40160 55005 60006 80000 91500=
07434,1996-12-15 18:00:00,1,1017.1,0.4,80,-2,25000,14.816,,,60,-1.9,5.6,,,,,,,,,wg-a,,,,AAXX 15184 07434 12/75 00608 10010 21020 39678 40171 53004 60006 80000 91800 333 10056 21019=
07434,1996-12-15 21:00:00,0,1016.9,-0.4,86,-2,20000,7.408,,,100,,,,,,,,,,,wg-a,,,,AAXX 15214 07434 12/70 01004 10000 21020 39674 40169 55004 60006 80000 92100=
07434,1996-12-16 00:00:00,-1,1016.8,-0.3,93,-2,12000,3.704,,,80,,,,,,,,,,,wg-a,,,,AAXX 16004 07434 12/62 00802 11010 21020 39671 40168 58003 60006 80000 90000=
07434,1996-12-16 03:00:00,0,1016.3,-0.3,93,-1,500,11.112,,,160,,,,,,,,,,45,wg-a,,,,AAXX 16034 07434 12/05 91606 10000 21010 39668 40163 55003 60006 74541 89/// 90300=
07434,1996-12-16 06:00:00,0,1015.4,-0.8,93,-1,600,14.816,,,150,-1.5,1.4,,,,,,,,49,wg-a,,,,AAXX 16064 07434 02/06 91508 10000 21010 39660 40154 55008 60006 74941 89/// 90600 333 10014 21015 60004=
07434,1996-12-16 09:00:00,1,1015.8,0.5,93,0,1500,14.816,,,140,,,,,,,,,,10,wg-a,,,,AAXX 16094 07434 12015 81408 10010 20000 39665 40158 50005 60006 71042 886// 90900=
07434,1996-12-16 12:00:00,2,1015,-0.6,93,1,2000,14.816,,,130,,,,,,,,,,10,wg-a,,,,AAXX 16124 07434 12120 81308 10020 20010 39659 40150 58006 60006 71042 886// 91200=
07434,1996-12-16 15:00:00,5,1013.2,-1.1,87,3,9000,14.816,,,150,,,,,,,,,,,wg-a,,,,AAXX 16154 07434 12259 /1508 10050 20030 39648 40132 58011 60006 85601 91500=
07434,1996-12-16 18:00:00,4,1014,0.6,87,2,10000,11.112,,,170,-0.1,5.1,,,,,,,,,wg-a,,,,AAXX 16184 07434 12/60 51706 10040 20020 39654 40140 53006 60006 80004 91800 333 10051 21001=
07434,1996-12-16 21:00:00,4,1014.7,0.6,87,2,10000,11.112,,,180,,,,,,,,,,,wg-a,,,,AAXX 16214 07434 12/60 51806 10040 20020 39660 40147 53006 60006 80004 92100=
07434,1996-12-17 00:00:00,4,1014.2,-0.5,81,1,10000,11.112,,,160,,,,,,,,,,,wg-a,,,,AAXX 17004 07434 12/60 31606 10040 20010 39655 40142 58005 60006 81031 90000=
07434,1996-12-17 03:00:00,4,1014.2,0.1,93,3,10000,11.112,,,160,,,,,,,,,,,wg-a,,,,AAXX 17034 07434 12/60 21606 10040 20030 39656 40142 53001 60006 80001 90300=
07434,1996-12-17 06:00:00,7,1014.2,0.4,81,4,12000,11.112,,,180,3.4,6.5,,,,,,,,,wg-a,,,,AAXX 17064 07434 02662 71806 10070 20040 39660 40142 53004 60006 875// 90600 333 10065 20034 60004=
07434,1996-12-17 09:00:00,8,1014.4,0.5,81,5,500,18.52,,,170,,,,,,,,,,,wg-a,,,,AAXX 17094 07434 12600 71710 10080 20050 39665 40144 53005 60006 83531 90900=
07434,1996-12-17 12:00:00,12,1013.5,-0.3,67,6,40000,22.224,,,180,,,,,,,,,,,wg-a,,,,AAXX 17124 07434 12782 61812 10120 20060 39662 40135 58003 60006 81531 91200=
07434,1996-12-17 15:00:00,12,1012.6,-0.8,67,6,500,14.816,,,170,,,,,,,,,,,wg-a,,,,AAXX 17154 07434 12/00 11708 10120 20060 39654 40126 55008 60006 81031 91500=
07434,1996-12-17 18:00:00,9,1012.5,-0.5,76,5,20000,11.112,,,120,6.4,12.8,,,,,,,,,wg-a,,,,AAXX 17184 07434 12/70 11206 10090 20050 39649 40125 56005 60006 80001 91800 333 10128 20064=
07434,1996-12-17 21:00:00,8,1012.2,-0.5,76,4,20000,14.816,,,140,,,,,,,,,,,wg-a,,,,AAXX 17214 07434 12/70 21408 10080 20040 39644 40122 58005 60006 80001 92100=
07434,1996-12-18 00:00:00,7,1011.5,-0.9,81,4,10000,14.816,,,130,,,,,,,,,,,wg-a,,,,AAXX 18004 07434 12/60 /1308 10070 20040 39635 40115 56009 60006 90000=
07434,1996-12-18 03:00:00,7,1009.9,-1.6,81,4,15000,14.816,,,120,,,,,,,,,,,wg-a,,,,AAXX 18034 07434 12/65 01208 10070 20040 39619 40099 57016 60006 80000 90300=
07434,1996-12-18 06:00:00,7,1008.6,-1.2,81,4,15000,14.816,,,130,6.4,9.3,,,,,,,,,wg-a,,,,AAXX 18064 07434 02/65 21308 10070 20040 39607 40086 57012 60006 81031 90600 333 10093 20064 60004=
07434,1996-12-18 09:00:00,9,1007.5,-0.7,76,5,500,14.816,,,140,,,,,,,,,,,wg-a,,,,AAXX 18094 07434 12/00 41408 10090 20050 39600 40075 56007 60006 81031 90900=
07434,1996-12-18 12:00:00,12,1005.6,-1.2,,,500,18.52,,,170,,,,,,,,,,,wg-a,,,,AAXX 18124 07434 12/00 61710 10120 2//// 39589 40056 58012 60006 85032 91200=
07434,1996-12-18 15:00:00,13,1003.7,-1.7,72,8,50000,11.112,,,160,,,,,,,,,,,wg-a,,,,AAXX 18154 07434 12684 71606 10130 20080 39571 40037 56017 60006 8453/ 91500=
07434,1996-12-18 18:00:00,12,1003.2,-0.6,76,8,40000,18.52,,,180,6.7,12.9,,,,,,,,,wg-a,,,,AAXX 18184 07434 12682 71810 10120 20080 39565 40032 58006 60006 8653/ 91800 333 10129 20067=
07434,1996-12-18 21:00:00,10,1004.2,0.6,93,9,12000,18.52,,,200,,,,5,,,,,,61,wg-a,,,,AAXX 18214 07434 12462 82010 10100 20090 39571 40042 50006 60057 76162 878// 92100=
07434,1996-12-19 00:00:00,10,1003.5,-0.7,93,9,12000,7.408,,,180,,,,4,,,,,,61,wg-a,,,,AAXX 19004 07434 02262 81804 10100 20090 39564 40035 56007 60086 76162 877// 90000 333 60047=
07434,1996-12-19 03:00:00,9,1002.4,-1.1,100,9,20000,7.408,,,160,,,,1,,,,,,21,wg-a,,,,AAXX 19034 07434 12170 81604 10090 20090 39553 40024 56011 60017 72162 887// 90300=
07434,1996-12-19 06:00:00,9,1001.6,-0.8,100,9,12000,7.408,,,190,9.2,12.4,,,,,,,,20,wg-a,,,,AAXX 19064 07434 02162 81904 10090 20090 39545 40016 56008 61000 72065 887// 90600 333 10124 20092 6010=
07434,1996-12-19 09:00:00,10,1001.4,-0.1,93,9,3000,7.408,,,150,,,,,,,,,,,wg-a,,,,AAXX 19094 07434 32/30 /1504 10100 20090 39544 40014 56001 90900=
07434,1996-12-19 12:00:00,10,1000.3,-1,100,10,2000,11.112,,,190,,,,3,,,,,,10,wg-a,,,,AAXX 19124 07434 02120 81906 10100 20100 39534 40003 58010 60036 71065 877// 91200 333 60037=
07434,1996-12-19 15:00:00,11,999.3,-0.8,94,10,10000,14.816,,,210,,,,,,,,,,,wg-a,,,,AAXX 19154 07434 12360 72108 10110 20100 39526 49993 56008 60006 878// 91500=
07434,1996-12-19 18:00:00,9,1000.5,0.8,100,9,15000,14.816,,,210,8.8,11.4,,,,,,,,,wg-a,,,,AAXX 19184 07434 12665 72108 10090 20090 39534 40005 52008 60006 878// 91800 333 10114 20088=
07434,1996-12-19 21:00:00,9,1000.9,0.3,93,8,15000,14.816,,,240,,,,,,,,,,,wg-a,,,,AAXX 19214 07434 12265 52408 10090 20080 39537 40009 51003 60006 85500 92100=
07434,1996-12-20 00:00:00,8,1001,0.1,100,8,15000,14.816,,,210,,,,,,,,,,,wg-a,,,,AAXX 20004 07434 12265 72108 10080 20080 39538 40010 50001 60006 875// 90000=
07434,1996-12-20 06:00:00,6,1000.1,-0.5,100,6,15000,11.112,,,150,6.2,9.2,,,,,3,,,,wg-a,,,,AAXX 20064 07434 02165 81506 10060 20060 39526 40001 58005 60006 886// 90600 333 10092 20062 60034=
07434,1996-12-20 09:00:00,7,1001.3,1.2,93,6,6000,11.112,,,120,,,,,,,,,,,wg-a,,,,AAXX 20094 07434 12256 71206 10070 20060 39538 40013 52012 60006 876// 90900=
07434,1996-12-20 12:00:00,10,1000.6,-0.2,82,7,15000,14.816,,,130,,,,,,,,,,,wg-a,,,,AAXX 20124 07434 12465 /1308 10100 20070 39536 40006 58002 60006 81102 91200=
07434,1996-12-20 15:00:00,10,999.8,-0.7,76,6,500,3.704,,,120,,,,,,,,,,,wg-a,,,,AAXX 20154 07434 12/00 71202 10100 20060 39529 49998 56007 60006 84032 91500=
07434,1996-12-20 18:00:00,9,1000.6,0.5,76,5,500,7.408,,,80,6.1,11.3,,,,,,,,,wg-a,,,,AAXX 20184 07434 12/00 70804 10090 20050 39534 40006 51005 60006 86072 91800 333 10113 20061=
07434,1996-12-20 21:00:00,7,1001,0.1,87,5,500,11.112,,,70,,,,,,,,,,,wg-a,,,,AAXX 20214 07434 12/00 30706 10070 20050 39535 40010 50001 60006 83072 92100=
07434,1996-12-21 00:00:00,6,1001,-0.2,87,4,500,11.112,,,80,,,,,,,,,,,wg-a,,,,AAXX 21004 07434 12/00 30806 10060 20040 39533 40010 58002 60006 83031 90000=
07434,1996-12-21 03:00:00,5,999.8,-1.2,87,3,25000,11.112,,,70,,,,,,,,,,,wg-a,,,,AAXX 21034 07434 12/75 60706 10050 20030 39521 49998 56012 60006 86031 90300=
07434,1996-12-21 06:00:00,7,998.9,-0.7,76,3,25000,11.112,,,70,5.1,8.7,,,,,,,,,wg-a,,,,AAXX 21064 07434 02/75 60706 10070 20030 39514 49989 56007 60006 86031 90600 333 10087 20051 60004=
07434,1996-12-21 09:00:00,8,999.2,0.5,66,2,50000,11.112,,,90,,,,,,,,,,14,wg-a,,,,AAXX 21094 07434 12/84 80906 10080 20020 39519 49992 53005 60006 71422 8707/ 90900=
07434,1996-12-21 12:00:00,10,998.1,-0.7,71,5,20000,11.112,,,100,,,,,,,,,,60,wg-a,,,,AAXX 21124 07434 02770 81006 10100 20050 39512 49981 58007 61000 76062 8152/ 91200 333 6100=
07434,1996-12-21 15:00:00,10,999,0.9,87,8,500,7.408,,,40,,,,1,,,,,,21,wg-a,,,,AAXX 21154 07434 12500 70404 10100 20080 39521 49990 51009 60017 72162 8583/ 91500=
07434,1996-12-21 18:00:00,9,999.8,0.7,93,8,18000,11.112,,,70,6.1,10,,,,,,,,3,wg-a,,,,AAXX 21184 07434 12568 60706 10090 20080 39528 49998 53007 60006 70386 83531 91800 333 10100 20061=
07434,1996-12-21 21:00:00,10,1000.8,1,87,8,15000,7.408,,,100,,,,,,,,,,,wg-a,,,,AAXX 21214 07434 12/65 61004 10100 20080 39538 40008 51010 60006 80002 92100=
07434,1996-12-22 00:00:00,10,1002.3,1.4,87,8,15000,7.408,,,90,,,,,,,,,,,wg-a,,,,AAXX 22004 07434 12/65 30904 10100 20080 39552 40023 51014 60006 83030 90000=
07434,1996-12-22 03:00:00,10,1002.1,-0.1,87,8,15000,7.408,,,80,,,,,,,,,,,wg-a,,,,AAXX 22034 07434 12/65 70804 10100 20080 39551 40021 56001 60006 80002 90300=
07434,1996-12-22 06:00:00,11,1001.6,-0.4,82,8,15000,11.112,,,80,9,10.6,,,,,1,,,,wg-a,,,,AAXX 22064 07434 02/65 70806 10110 20080 39547 40016 56004 60006 86072 90600 333 10106 20090 60014=
07434,1996-12-22 09:00:00,10,1001.1,-0.5,87,8,40000,14.816,,,90,,,,,,,,,,,wg-a,,,,AAXX 22094 07434 12/82 70908 10100 20080 39542 40011 56005 60006 86072 90900=
07434,1996-12-22 12:00:00,12,1001.3,0.5,82,9,50000,3.704,,,160,,,,0,,,,,,60,wg-a,,,,AAXX 22124 07434 02684 81602 10120 20090 39547 40013 53005 60006 76062 8552/ 91200 333 60007=
07434,1996-12-22 15:00:00,12,1000.2,-1,82,9,500,7.408,,,120,,,,,,,,,,60,wg-a,,,,AAXX 22154 07434 02700 81204 10120 20090 39537 40002 56010 61000 76062 8551/ 91500 333 ////=
07434,1996-12-22 18:00:00,11,1000.2,-0.2,82,8,20000,11.112,,,120,10.2,13.1,,,,,,,,60,wg-a,,,,AAXX 22184 07434 02670 81206 10110 20080 39535 40002 58002 61000 76062 8552/ 91800 333 10131 20102 6000=
07434,1996-12-22 21:00:00,10,999.9,-0.6,93,9,8000,7.408,,,90,,,,5,,,,,,61,wg-a,,,,AAXX 22214 07434 12558 80904 10100 20090 39529 49999 58006 60057 76166 875// 92100=
07434,1996-12-23 00:00:00,9,998.9,-1,100,9,1200,3.704,,,80,,,,2,,,,,,10,wg-a,,,,AAXX 23004 07434 02112 80802 10090 20090 39519 49989 58010 60076 71066 887// 90000 333 60027=
07434,1996-12-23 03:00:00,9,998.1,-0.8,100,9,800,0,,,0,,,,,,,,,,45,wg-a,,,,AAXX 23034 07434 32/08 90000 10090 20090 39511 49981 56008 74566 89/// 90300=
07434,1996-12-23 06:00:00,9,997.9,-0.2,93,8,900,0,,,0,8.6,11.1,,,,,,,,61,wg-a,,,,AAXX 23064 07434 02109 80000 10090 20080 39509 49979 56002 61000 76166 887// 90600 333 10111 20086 6012=
07434,1996-12-23 09:00:00,9,998.5,0.5,93,8,1100,3.704,,,180,,,,0,,,,,,28,wg-a,,,,AAXX 23094 07434 12211 71802 10090 20080 39514 49985 52005 60007 72864 8553/ 90900=
07434,1996-12-23 12:00:00,10,997.9,-0.3,100,10,15000,11.112,,,180,,,,0,,,,,,3,wg-a,,,,AAXX 23124 07434 02465 71806 10100 20100 39511 49979 58003 60016 70364 8683/ 91200 333 60007=
07434,1996-12-23 15:00:00,10,997.2,-0.7,93,9,11000,7.408,,,160,,,,,,,,,,,wg-a,,,,AAXX 23154 07434 12/61 /1604 10100 20090 39504 49972 55007 60006 91500=
07434,1996-12-23 18:00:00,9,997.3,-0.1,93,8,20000,3.704,,,130,8.3,10.9,,,,,,,,,wg-a,,,,AAXX 23184 07434 12670 71302 10090 20080 39503 49973 56001 60006 8453/ 91800 333 10109 20083=
07434,1996-12-23 21:00:00,8,997.2,-0.3,93,7,4000,3.704,,,140,,,,,,,,,,10,wg-a,,,,AAXX 23214 07434 12240 71402 10080 20070 39500 49972 58003 60006 71022 875// 92100=
07434,1996-12-24 00:00:00,7,996.5,-0.8,100,7,500,3.704,,,90,,,,,,,,,,45,wg-a,,,,AAXX 24004 07434 12/05 90902 10070 20070 39492 49965 56008 60006 74542 89/// 90000=
07434,1996-12-24 03:00:00,7,995.3,-1.1,100,7,6000,0,,,0,,,,,,,,,,1,wg-a,,,,AAXX 24034 07434 12656 70000 10070 20070 39481 49953 56011 60006 70142 875// 90300=
07434,1996-12-24 06:00:00,7,994.8,-0.4,100,7,15000,11.112,,,190,6.6,8.6,,,,,,,,21,wg-a,,,,AAXX 24064 07434 02265 71906 10070 20070 39477 49948 56004 61000 72164 875// 90600 333 10086 20066 6001=
07434,1996-12-24 09:00:00,8,995.6,0.8,93,7,15000,7.408,,,130,,,,0,,,,,,,wg-a,,,,AAXX 24094 07434 12265 71304 10080 20070 39485 49956 52008 60007 8677/ 90900=
07434,1996-12-24 12:00:00,9,995.8,0.4,87,7,20000,7.408,,,150,,,,,,,,,,,wg-a,,,,AAXX 24124 07434 12470 71504 10090 20070 39489 49958 51004 60006 8377/ 91200=
07434,1996-12-24 15:00:00,9,996.2,0.4,87,7,10000,7.408,,,160,,,,0,,,,,,60,wg-a,,,,AAXX 24154 07434 12460 81604 10090 20070 39493 49962 53004 60007 76062 878// 91500=
07434,1996-12-24 18:00:00,8,998.1,1.6,93,7,12000,3.704,,,60,7.2,9.4,,2,,,,,,1,wg-a,,,,AAXX 24184 07434 02462 80602 10080 20070 39509 49981 51016 60006 70162 875// 91800 333 10094 20072 60027=
07434,1996-12-24 21:00:00,8,999.9,1.7,93,7,9000,3.704,,,30,,,,1,,,,,,60,wg-a,,,,AAXX 24214 07434 12259 80302 10080 20070 39526 49999 52017 60017 76062 875// 92100=
07434,1996-12-25 00:00:00,7,1001.6,1.5,93,6,700,7.408,,,20,,,,,,,,,,44,wg-a,,,,AAXX 25004 07434 02007 80204 10070 20060 39541 40016 51015 60016 74464 885// 90000 333 61000=
07434,1996-12-25 03:00:00,6,1003.3,1.4,93,5,700,7.408,,,360,,,,,,,,,,45,wg-a,,,,AAXX 25034 07434 12/07 93604 10060 20050 39555 40033 53014 60006 74544 89/// 90300=
07434,1996-12-25 06:00:00,3,1005.6,1.7,100,3,900,14.816,,,340,3.2,7.9,,,,,,,,45,wg-a,,,,AAXX 25064 07434 02/09 93408 10030 20030 39572 40056 51017 61000 74554 89/// 90600 333 10079 20032 6003=
07434,1996-12-25 12:00:00,0,1011.1,2.2,100,0,700,11.112,,,340,,,,,,,,,,44,wg-a,,,,AAXX 25124 07434 02207 73406 10000 20000 39619 40111 51022 60006 74464 877// 91200 333 61000=
07434,1996-12-25 15:00:00,-2,1014.3,2.7,100,-2,700,0,,,0,,,,,,,,,,44,wg-a,,,,AAXX 25154 07434 12207 70000 11020 21020 39646 40143 53027 60006 74444 877// 91500=
07434,1996-12-25 18:00:00,-3,1017.9,3.3,100,-3,900,0,,,0,-2.8,3.2,,,,,,,,50,wg-a,,,,AAXX 25184 07434 02209 70000 11030 21030 39679 40179 51033 61000 75054 877// 91800 333 10032 21028 6100=
07434,1996-12-25 21:00:00,-5,1021.2,2.7,93,-6,8000,0,,,0,,,,,,,,,,1,wg-a,,,,AAXX 25214 07434 02358 /0000 11050 21060 39706 40212 51027 61000 70154 85600 92100 333 ////=
07434,1996-12-26 00:00:00,-5,1023.6,2.2,86,-7,0,0,,,0,,,,,,,,,,,wg-a,,,,AAXX 26004 07434 02/// /0000 11050 21070 39728 40236 52022 61000 90000 333 ////=
07434,1996-12-26 03:00:00,-6,1025.9,2,86,-8,6000,0,,,0,,,,,,,,,,,wg-a,,,,AAXX 26034 07434 12456 /0000 11060 21080 39748 40259 51020 60006 81500 90300=
07434,1996-12-26 06:00:00,-7,1028.1,2,86,-9,10000,0,,,0,-6.9,-2.7,,,,,,,,,wg-a,,,,AAXX 26064 07434 02/60 00000 11070 21090 39768 40281 53020 60006 80000 90600 333 11027 21069 60004=
07434,1996-12-26 09:00:00,-6,1030.2,2.2,79,-9,10000,0,,,0,,,,,,,,,,,wg-a,,,,AAXX 26094 07434 12/60 00000 11060 21090 39790 40302 53022 60006 80000 90900=
07434,1996-12-26 12:00:00,-4,1031.6,1.6,80,-7,15000,0,,,0,,,,,,,,,,,wg-a,,,,AAXX 26124 07434 12465 1//// 11040 21070 39806 40316 51016 60006 81500 91200=
07434,1996-12-26 15:00:00,-4,1033,1.4,74,-8,20000,0,,,0,,,,,,,,,,,wg-a,,,,AAXX 26154 07434 12470 1//// 11040 21080 39820 40330 53014 60006 81501 91500=
07434,1996-12-26 18:00:00,-5,1033.4,0.1,73,-9,15000,0,,,0,-7.1,-3.1,,,,,,,,,wg-a,,,,AAXX 26184 07434 12/65 0//// 11050 21090 39821 40334 50001 60006 80000 91800 333 11031 21071=
07434,1996-12-26 21:00:00,-6,1033.6,0.1,73,-10,15000,0,,,0,,,,,,,,,,,wg-a,,,,AAXX 26214 07434 12/65 0//// 11060 21100 39822 40336 51001 60006 80000 92100=
07434,1996-12-27 00:00:00,-6,1033.2,-0.5,68,-11,15000,0,,,0,,,,,,,,,,,wg-a,,,,AAXX 27004 07434 12/65 0//// 11060 21110 39817 40332 58005 60006 80000 90000=
07434,1996-12-27 03:00:00,-6,1030.9,-2.1,58,-13,15000,0,,,0,,,,,,,,,,,wg-a,,,,AAXX 27034 07434 12/65 0//// 11060 21130 39796 40309 56021 60006 80000 90300=
07434,1996-12-27 06:00:00,-4,1029.4,-1.2,46,-14,25000,0,,,0,-6.5,-3.6,,,,,,,,,wg-a,,,,AAXX 27064 07434 02/75 3//// 11040 21140 39784 40294 57012 60006 80008 90600 333 11036 21065 60004=
07434,1996-12-27 09:00:00,-3,1026.8,-2.2,39,-15,15000,0,,,0,,,,,,,,,,,wg-a,,,,AAXX 27094 07434 12/65 4//// 11030 21150 39762 40268 56022 60006 81042 90900=
07434,1996-12-27 12:00:00,2,1023.9,-1.8,55,-6,10000,3.704,,,180,,,,,,,,,,,wg-a,,,,AAXX 27124 07434 12/60 11802 10020 21060 39744 40239 58018 60006 81031 91200=
07434,1996-12-27 15:00:00,2,1021.5,-2.3,60,-5,10000,14.816,,,330,,,,,,,,,,,wg-a,,,,AAXX 27154 07434 12/60 13308 10020 21050 39721 40215 56023 60006 81031 91500=
07434,1996-12-27 18:00:00,-2,1020.6,-1.6,74,-6,12000,22.224,,,10,-5.6,3,,,,,,,,,wg-a,,,,AAXX 27184 07434 12/62 70112 11020 21060 39705 40206 56016 60006 8703/ 91800 333 10030 21056=
07434,1996-12-27 21:00:00,-4,1019.5,-1.4,80,-7,12000,0,,,0,,,,,,,,,,,wg-a,,,,AAXX 27214 07434 12/62 50000 11040 21070 39691 40195 58014 60006 85030 92100=
07434,1996-12-28 00:00:00,-6,1018.5,-1.3,79,-9,10000,0,,,0,,,,,,,,,,,wg-a,,,,AAXX 28004 07434 12/60 2//// 11060 21090 39678 40185 58013 60006 82030 90000=
07434,1996-12-28 03:00:00,-6,1017.6,-0.9,62,-12,10000,0,,,0,,,,,,,,,,,wg-a,,,,AAXX 28034 07434 12660 2//// 11060 21120 39669 40176 56009 60006 82500 90300=
07434,1996-12-28 06:00:00,-5,1016.5,-0.8,42,-16,10000,0,,,0,-6.5,-2,,,,,,,,,wg-a,,,,AAXX 28064 07434 02560 5//// 11050 21160 39661 40165 56008 60006 85500 90600 333 11020 21065 60004=
07434,1996-12-28 09:00:00,-6,1017,0.3,68,-11,0,0,,,0,,,,,,,,,,,wg-a,,,,AAXX 28094 07434 12/// ///// 11060 21110 39664 40170 53003 60006 90900=
07434,1996-12-28 12:00:00,-3,1015.7,-0.8,58,-10,15000,0,,,0,,,,,,,,,,,wg-a,,,,AAXX 28124 07434 12/65 1//// 11030 21100 39656 40157 58008 60006 81030 91200=
07434,1996-12-28 18:00:00,-8,1015.7,-0,79,-11,8000,22.224,,,40,-8.1,-2.9,,,,,,,,,wg-a,,,,AAXX 28184 07434 12458 /0412 11080 21110 39647 40157 55000 60006 81530 91800 333 11029 21081=
07434,1996-12-28 21:00:00,-9,1016,0.2,79,-12,8000,18.52,,,60,,,,,,,,,,,wg-a,,,,AAXX 28214 07434 12458 /0610 11090 21120 39649 40160 50002 60006 81500 92100=
07434,1996-12-29 00:00:00,-9,1014.8,-1.2,79,-12,10000,14.816,,,40,,,,,,,,,,,wg-a,,,,AAXX 29004 07434 12/60 10408 11090 21120 39637 40148 56012 60006 81030 90000=
07434,1996-12-29 03:00:00,-9,1013.9,-0.9,85,-11,10000,14.816,,,80,,,,,,,,,,,wg-a,,,,AAXX 29034 07434 12/60 10808 11090 21110 39628 40139 57009 60006 81030 90300=
07434,1996-12-29 06:00:00,-10,1013.8,-0.1,85,-12,10000,14.816,,,50,-9.8,-8.1,,,,,,,,,wg-a,,,,AAXX 29064 07434 02/60 10508 11100 21120 39627 40138 56001 60006 80001 90600 333 11081 21098 60004=
07434,1996-12-29 09:00:00,-8,1014.6,1,85,-10,6000,18.52,,,70,,,,,,,,,,,wg-a,,,,AAXX 29094 07434 12/56 /0710 11080 21100 39637 40146 53010 60006 80001 90900=
07434,1996-12-29 12:00:00,-4,1013.5,-0.2,68,-9,7000,14.816,,,60,,,,,,,,,,,wg-a,,,,AAXX 29124 07434 12/57 10608 11040 21090 39635 40135 58002 60006 80001 91200=
07434,1996-12-29 15:00:00,-3,1012.9,-0.4,63,-9,9000,14.816,,,20,,,,,,,,,,,wg-a,,,,AAXX 29154 07434 12/59 00208 11030 21090 39631 40129 56004 60006 80000 91500=
07434,1996-12-29 18:00:00,-6,1013.4,-0.1,79,-9,15000,18.52,,,70,-9.9,-1.9,,,,,,,,,wg-a,,,,AAXX 29184 07434 12/65 00710 11060 21090 39630 40134 58001 60006 80000 91800 333 11019 21099=
07434,1996-12-29 21:00:00,-6,1012.5,-1,73,-10,10000,25.928,,,70,,,,,,,,,,,wg-a,,,,AAXX 29214 07434 12/60 00714 11060 21100 39620 40125 58010 60006 80000 92100=
07434,1996-12-30 00:00:00,-7,1011.8,-0.7,79,-10,10000,22.224,,,50,,,,,,,,,,,wg-a,,,,AAXX 30004 07434 12/60 00512 11070 21100 39613 40118 58007 60006 80000 90000=
07434,1996-12-30 03:00:00,-6,1010.4,-1.2,62,-12,10000,7.408,,,40,,,,,,,,,,,wg-a,,,,AAXX 30034 07434 12/60 00404 11060 21120 39601 40104 56012 60006 80000 90300=
07434,1996-12-30 06:00:00,-6,1009.1,-1.3,49,-15,10000,7.408,,,20,-7.7,-5.6,,,,,,,,,wg-a,,,,AAXX 30064 07434 02/60 00204 11060 21150 39588 40091 56013 60006 80000 90600 333 11056 21077 60004=
07434,1996-12-30 09:00:00,-5,1007.7,-1,73,-9,8000,7.408,,,320,,,,,,,,,,,wg-a,,,,AAXX 30094 07434 12258 73204 11050 21090 39578 40077 56010 60006 875// 90900=
07434,1996-12-30 12:00:00,-4,1007,-0.6,93,-5,1500,14.816,,,10,,,,,,,,,,71,wg-a,,,,AAXX 30124 07434 02115 70108 11040 21050 39572 40070 58006 61000 77174 877// 91200 333 6100=
07434,1996-12-30 15:00:00,-3,1006.5,-0.2,86,-5,500,11.112,,,10,,,,,,,,,,1,wg-a,,,,AAXX 30154 07434 02400 70106 11030 21050 39570 40065 55002 61000 70172 875// 91500 333 ////=
07434,1996-12-30 18:00:00,-4,1007.4,0.6,86,-6,10000,7.408,,,60,-6,-2.6,,,,,,,,1,wg-a,,0,,AAXX 30184 07434 12660 70604 11040 21060 39576 40074 51006 60006 70172 875// 91800 333 11026 21060 4/9999=
07434,1996-12-30 21:00:00,-5,1008.1,0.5,86,-7,20000,11.112,,,30,,,,,,,,,,,wg-a,,,,AAXX 30214 07434 12570 20306 11050 21070 39581 40081 53005 60006 82500 92100=
07434,1996-12-31 00:00:00,-6,1008.1,-0.2,79,-9,20000,18.52,,,40,,,,,,,,,,,wg-a,,,,AAXX 31004 07434 12/70 10410 11060 21090 39579 40081 58002 60006 80001 90000=
07434,1996-12-31 03:00:00,-7,1008.8,0.4,79,-10,20000,7.408,,,80,,,,,,,,,,,wg-a,,,,AAXX 31034 07434 12/70 10804 11070 21100 39583 40088 52004 60006 80001 90300=
07434,1996-12-31 06:00:00,-7,1008.4,-0.4,79,-10,20000,18.52,,,40,-8.2,-3.9,,,,,,,,,wg-a,,0,,AAXX 31064 07434 02/70 10410 11070 21100 39579 40084 58004 60006 80001 90600 333 11039 21082 4/9999 61000=
07434,1996-12-31 09:00:00,-5,1009.1,1.1,68,-10,15000,18.52,,,60,,,,,,,,,,,wg-a,,,,AAXX 31094 07434 12765 10610 11050 21100 39590 40091 51011 60006 81500 90900=
07434,1996-12-31 12:00:00,-2,1007.9,-0.5,54,-10,20000,14.816,,,90,,,,,,,,,,,wg-a,,,,AAXX 31124 07434 12870 20908 11020 21100 39585 40079 58005 60006 81501 91200=
07434,1996-12-31 15:00:00,-2,1007.9,-0,54,-10,20000,18.52,,,70,,,,,,,,,,,wg-a,,,,AAXX 31154 07434 12/70 60710 11020 21100 39585 40079 55000 60006 81036 91500=
07434,1996-12-31 18:00:00,-5,1008.5,0,68,-10,25000,18.52,,,50,-8.2,-0.7,,,,,,,,,wg-a,,,,AAXX 31184 07434 12/75 70510 11050 21100 39585 40085 50000 60006 8705/ 91800 333 11007 21082=
