station_id,dh_utc,temperature,pression,pression_variation_3h,humidite,point_de_rosee,visibilite,vent_moyen,vent_rafales,vent_rafales_10min,vent_direction,temperature_min,temperature_max,pluie_1h,pluie_3h,pluie_6h,pluie_12h,pluie_24h,ensoleillement,temperature_sol,temps_omm,source,radiations,neige_au_sol,nebulosite,raw_msg
07434,1997-01-01 00:00:00,-7,1008.7,-0.1,79,-10,11000,3.704,,,20,,,,,,,,,,,wg-a,,,,AAXX 01004 07434 12/61 60202 11070 21100 39584 40087 55001 60006 85032 90000=
07434,1997-01-01 03:00:00,-7,1009.2,0.4,86,-9,9000,11.112,,,10,,,,,,,,,,,wg-a,,,,AAXX 01034 07434 12759 /0106 11070 21090 39588 40092 53004 60006 83532 90300=
07434,1997-01-01 06:00:00,-7,1010.6,1.3,86,-9,6000,0,,,0,-7.2,-4.6,,,,,,,,,wg-a,,,,AAXX 01064 07434 02756 /0000 11070 21090 39601 40106 53013 60006 83532 90600 333 11046 21072 60004=
07434,1997-01-01 09:00:00,-6,1012.8,2.3,79,-9,4000,3.704,,,90,,,,,,,,,,10,wg-a,,,,AAXX 01094 07434 12/40 /0902 11060 21090 39624 40128 53023 60006 71011 81031 90900=
07434,1997-01-01 12:00:00,-2,1013.6,1.4,63,-8,6000,7.408,,,170,,,,,,,,,,,wg-a,,,,AAXX 01124 07434 12756 71704 11020 21080 39638 40136 51014 60006 82531 91200=
07434,1997-01-01 15:00:00,-1,1014.3,1,64,-7,10000,11.112,,,140,,,,,,,,,,,wg-a,,,,AAXX 01154 07434 12560 21406 11010 21070 39648 40143 53010 60006 82500 91500=
07434,1997-01-01 18:00:00,-4,1016.4,1.4,86,-6,12000,7.408,,,130,-8.1,0,,,,,,,,,wg-a,,,,AAXX 01184 07434 12/62 11304 11040 21060 39662 40164 51014 60006 81030 91800 333 10000 21081=
07434,1997-01-01 21:00:00,-5,1017.4,0.8,93,-6,12000,7.408,,,130,,,,,,,,,,,wg-a,,,,AAXX 01214 07434 12/62 01304 11050 21060 39670 40174 52008 60006 80000 92100=
07434,1997-01-02 00:00:00,-5,1017.1,-0.3,93,-6,10000,7.408,,,70,,,,,,,,,,,wg-a,,,,AAXX 02004 07434 12/60 00704 11050 21060 39667 40171 58003 60006 80000 90000=
07434,1997-01-02 03:00:00,-4,1015.6,-1.2,86,-6,15000,11.112,,,40,,,,,,,,,,,wg-a,,,,AAXX 02034 07434 12/65 50406 11040 21060 39655 40156 56012 60006 80002 90300=
07434,1997-01-02 06:00:00,-3,1013.5,-1.8,74,-7,15000,14.816,,,60,-5,-2.1,,,,,,,,,wg-a,,,,AAXX 02064 07434 02/65 50608 11030 21070 39637 40135 56018 60006 80002 90600 333 11021 21050 60004=
07434,1997-01-02 09:00:00,-2,1012.2,-1.1,74,-6,15000,14.816,,,50,,,,,,,,,,,wg-a,,,,AAXX 02094 07434 12/65 70508 11020 21060 39626 40122 56011 60006 8707/ 90900=
07434,1997-01-02 12:00:00,1,1009.5,-2.1,75,-3,12000,18.52,,,50,,,,,,,,,,,wg-a,,,,AAXX 02124 07434 12/62 70510 10010 21030 39605 40095 58021 60006 8707/ 91200=
07434,1997-01-02 15:00:00,0,1008.6,-1,80,-3,500,18.52,,,50,,,,,,,,,,70,wg-a,,,,AAXX 02154 07434 02400 80510 10000 21030 39595 40086 58010 61000 77072 8552/ 91500 333 ////=
07434,1997-01-02 18:00:00,0,1007.4,-1.1,93,-1,7000,22.224,,,70,-2.6,1.4,,,,,,,,71,wg-a,,0,,AAXX 02184 07434 02357 80712 10000 21010 39584 40074 56011 61000 77172 8272/ 91800 333 10014 21026 4/9999 6100=
07434,1997-01-02 21:00:00,-1,1005.9,-1.6,93,-2,12000,18.52,,,70,,,,,,,,,,3,wg-a,,,,AAXX 02214 07434 02662 /0710 11010 21020 39568 40059 56016 61000 70371 86500 92100 333 ////=
07434,1997-01-03 00:00:00,-1,1005.8,-0.2,86,-3,10000,18.52,,,50,,,,,,,,,,1,wg-a,,,,AAXX 03004 07434 02660 /0510 11010 21030 39566 40058 56002 61000 70171 86500 90000 333 ////=
07434,1997-01-03 03:00:00,-3,1003.7,-2.3,86,-5,8000,18.52,,,40,,,,,,,,,,,wg-a,,,,AAXX 03034 07434 12658 70410 11030 21050 39543 40037 58023 60006 875// 90300=
07434,1997-01-03 06:00:00,-2,1001.7,-1.7,86,-4,7000,14.816,,,50,-3.6,0.4,,,,,,,,,wg-a,,0,,AAXX 03064 07434 02557 80508 11020 21040 39526 40017 57017 60006 875// 90600 333 10004 21036 4/9999 61000=
07434,1997-01-03 09:00:00,-1,1001.3,-0.2,80,-4,9000,7.408,,,20,,,,,,,,,,,wg-a,,,,AAXX 03094 07434 12659 70204 11010 21040 39524 40013 58002 60006 875// 90900=
07434,1997-01-03 12:00:00,0,998.6,-2.3,93,-1,4000,18.52,,,40,,,,,,,,,,60,wg-a,,,,AAXX 03124 07434 02440 70410 10000 21010 39501 49986 58023 61000 76062 875// 91200 333 6100=
07434,1997-01-03 15:00:00,1,995,-3.3,93,0,3000,14.816,,,20,,,,0,,,,,,60,wg-a,,,,AAXX 03154 07434 12430 70208 10010 20000 39468 49950 56033 60007 76062 875// 91500=
07434,1997-01-03 18:00:00,1,993.3,-1.7,93,0,2000,14.816,,,20,-2.4,2.3,,,,,,,,61,wg-a,,,,AAXX 03184 07434 02420 70208 10010 20000 39451 49933 58017 61000 76162 875// 91800 333 10023 21024 6002=
07434,1997-01-03 21:00:00,3,993.6,0.6,81,0,10000,25.928,,,60,,,,,,,,,,1,wg-a,,,,AAXX 03214 07434 02460 /0614 10030 20000 39457 49936 51006 61000 70162 83530 92100 333 ////=
07434,1997-01-04 00:00:00,3,994.4,0.9,87,1,10000,18.52,,,60,,,,,,,,,,3,wg-a,,,,AAXX 04004 07434 02660 70610 10030 20010 39466 49944 53009 61000 70362 875// 90000 333 ////=
07434,1997-01-04 03:00:00,-3,997.9,2.3,100,-3,600,14.816,,,340,,,,,,,,,,49,wg-a,,,,AAXX 04034 07434 12/06 93408 11030 21030 39489 49979 52023 60006 74942 89/// 90300=
07434,1997-01-04 06:00:00,-3,999.5,1.4,100,-3,800,18.52,,,10,-2.9,3.9,,,,,2,,,49,wg-a,,,,AAXX 04064 07434 02/08 90110 11030 21030 39503 49995 53014 60006 74942 89/// 90600 333 10039 21029 60024=
07434,1997-01-04 09:00:00,-3,1002.2,2.5,93,-4,1000,7.408,,,10,,,,,,,,,,49,wg-a,,,,AAXX 04094 07434 02110 90104 11030 21040 39528 40022 52025 61000 74974 897// 90900 333 ////=
07434,1997-01-04 15:00:00,-4,1004.8,1.5,93,-5,600,7.408,,,300,,,,3,,,,,,48,wg-a,,,,AAXX 04154 07434 12206 83004 11040 21050 39551 40048 53015 60037 74877 885// 91500=
07434,1997-01-04 18:00:00,-5,1006.9,1.9,93,-6,600,11.112,,,290,-4.9,-2.9,,,,,,,,48,wg-a,,8,,AAXX 04184 07434 02206 82906 11050 21060 39570 40069 51019 61000 74877 885// 91800 333 11029 21049 4/008 6002=
07434,1997-01-04 21:00:00,-4,1008,1.2,93,-5,900,11.112,,,270,,,,1,,,,,,48,wg-a,,,,AAXX 04214 07434 12209 72706 11040 21050 39582 40080 51012 60017 74877 875// 92100=
07434,1997-01-05 00:00:00,-3,1008.2,0.5,100,-3,600,7.408,,,270,,,,0,,,,,,48,wg-a,,,,AAXX 05004 07434 02106 72704 11030 21030 39587 40082 51005 60016 74874 877// 90000 333 60007=
07434,1997-01-05 03:00:00,-2,1008.6,0.5,100,-2,700,11.112,,,250,,,,0,,,,,,48,wg-a,,,,AAXX 05034 07434 12107 72506 11020 21020 39592 40086 53005 60007 74844 877// 90300=
07434,1997-01-05 06:00:00,-2,1008.4,-0.2,100,-2,800,7.408,,,260,-4.9,-1.5,,,,,8,,,48,wg-a,,9,,AAXX 05064 07434 02108 72604 11020 21020 39590 40084 55002 60006 74844 877// 90600 333 11015 21049 4/009 60084=
07434,1997-01-05 09:00:00,-1,1009.5,1.1,93,-2,900,7.408,,,260,,,,,,,,,,,wg-a,,,,AAXX 05094 07434 32/09 /2604 11010 21020 39601 40095 53011 90900=
07434,1997-01-05 12:00:00,-1,1009.8,0.4,100,-1,1200,7.408,,,250,,,,,,,,,,10,wg-a,,,,AAXX 05124 07434 02112 82504 11010 21010 39605 40098 51004 61000 71074 887// 91200 333 ////=
07434,1997-01-05 15:00:00,0,1010.1,0.4,93,-1,3000,7.408,,,230,,,,,,,,,,10,wg-a,,,,AAXX 05154 07434 12230 82304 10000 21010 39609 40101 53004 60006 71022 887// 91500=
07434,1997-01-05 18:00:00,-1,1011,0.8,100,-1,4000,3.704,,,170,-1.6,-0.3,,,,,,,,10,wg-a,,10,,AAXX 05184 07434 12240 81702 11010 21010 39617 40110 51008 60006 71022 875// 91800 333 11003 21016 4/010=
07434,1997-01-05 21:00:00,-1,1012,1,100,-1,1200,3.704,,,200,,,,,,,,,,10,wg-a,,,,AAXX 05214 07434 12112 82002 11010 21010 39627 40120 51010 60006 71022 885// 92100=
07434,1997-01-06 00:00:00,0,1012.7,0.6,93,-1,1500,3.704,,,90,,,,,,,,,,10,wg-a,,,,AAXX 06004 07434 12115 80902 10000 21010 39633 40127 51006 60006 71022 875// 90000=
07434,1997-01-06 03:00:00,-1,1013.2,0.5,100,-1,1500,3.704,,,100,,,,,,,,,,10,wg-a,,,,AAXX 06034 07434 12115 81002 11010 21010 39638 40132 53005 60006 71022 885// 90300=
07434,1997-01-06 06:00:00,0,1013.4,0.2,93,-1,3000,3.704,,,50,-0.6,-0.3,,,,,,,,10,wg-a,,8,,AAXX 06064 07434 02530 80502 10000 21010 39640 40134 53002 60006 71022 885// 90600 333 11003 21006 4/008 61000=
07434,1997-01-06 09:00:00,0,1014.1,0.8,93,-1,10000,7.408,,,30,,,,,,,,,,,wg-a,,,,AAXX 06094 07434 12560 70304 10000 21010 39648 40141 53008 60006 875// 90900=
07434,1997-01-06 12:00:00,0,1014.5,0.4,86,-2,15000,7.408,,,40,,,,,,,,,,,wg-a,,,,AAXX 06124 07434 12565 70404 10000 21020 39652 40145 50004 60006 875// 91200=
07434,1997-01-06 15:00:00,0,1014.2,-0.3,93,-1,15000,7.408,,,350,,,,,,,,,,,wg-a,,,,AAXX 06154 07434 12565 73504 10000 21010 39649 40142 55003 60006 875// 91500=
07434,1997-01-06 18:00:00,-1,1015.4,1,100,-1,800,11.112,,,20,-0.8,0.5,,,,,,,,10,wg-a,,8,,AAXX 06184 07434 12108 80206 11010 21010 39659 40154 53010 60006 71042 886// 91800 333 10005 21008 4/008=
07434,1997-01-06 21:00:00,-2,1016.5,0.8,100,-2,4000,11.112,,,20,,,,,,,,,,10,wg-a,,,,AAXX 06214 07434 12240 /0206 11020 21020 39667 40165 53008 60006 71041 84600 92100=
07434,1997-01-07 00:00:00,-2,1016.8,0.2,86,-4,4000,18.52,,,60,,,,,,,,,,10,wg-a,,,,AAXX 07004 07434 12440 70610 11020 21040 39669 40168 50002 60006 71041 875// 90000=
07434,1997-01-07 03:00:00,-2,1017,0.2,93,-3,3000,7.408,,,20,,,,,,,,,,10,wg-a,,,,AAXX 07034 07434 12230 70204 11020 21030 39671 40170 53002 60006 71022 875// 90300=
07434,1997-01-07 06:00:00,-3,1016.9,-0.2,93,-4,4000,18.52,,,70,-3.3,-0.7,,,,,,,,10,wg-a,,8,,AAXX 07064 07434 02140 /0710 11030 21040 39669 40169 56002 60006 71022 85500 90600 333 11007 21033 4/008 60004=
07434,1997-01-07 09:00:00,-3,1017.3,0.4,86,-5,4500,14.816,,,70,,,,,,,,,,10,wg-a,,,,AAXX 07094 07434 12445 20708 11030 21050 39673 40173 51004 60006 71011 82500 90900=
07434,1997-01-07 12:00:00,0,1016,-0.7,74,-4,6000,11.112,,,90,,,,,,,,,,,wg-a,,,,AAXX 07124 07434 12/56 00906 10000 21040 39666 40160 58007 60006 80000 91200=
07434,1997-01-07 15:00:00,0,1014.4,-1.6,74,-4,12000,11.112,,,150,,,,,,,,,,,wg-a,,,,AAXX 07154 07434 12562 41506 10000 21040 39650 40144 56016 60006 84500 91500=
07434,1997-01-07 18:00:00,-1,1013.2,-1.3,80,-4,10000,11.112,,,100,-3.8,0.9,,,,,,,,,wg-a,,4,,AAXX 07184 07434 12460 71006 11010 21040 39637 40132 58013 60006 875// 91800 333 10009 21038 4/004=
07434,1997-01-07 21:00:00,-3,1012.2,-1.3,86,-5,10000,3.704,,,120,,,,,,,,,,,wg-a,,,,AAXX 07214 07434 12460 31202 11030 21050 39624 40122 57013 60006 82501 92100=
07434,1997-01-08 00:00:00,-5,1010.2,-2.3,93,-6,9000,11.112,,,90,,,,,,,,,,,wg-a,,,,AAXX 08004 07434 12/59 50906 11050 21060 39601 40102 56023 60006 84031 90000=
07434,1997-01-08 03:00:00,-2,1007.3,-2.2,80,-5,9000,7.408,,,110,,,,,,,,,,,wg-a,,,,AAXX 08034 07434 12/59 71104 11020 21050 39579 40073 56022 60006 8707/ 90300=
07434,1997-01-08 06:00:00,0,1004.8,-2.1,74,-4,9000,7.408,,,100,-4.9,-0.4,,,,,,,,,wg-a,,4,,AAXX 08064 07434 02/59 71004 10000 21040 39558 40048 56021 60006 8707/ 90600 333 11004 21049 4/004 60004=
07434,1997-01-08 09:00:00,2,1004.2,-0.2,80,-1,9000,3.704,,,110,,,,,,,,,,,wg-a,,,,AAXX 08094 07434 12759 81102 10020 21010 39556 40042 55002 60006 8657/ 90900=
07434,1997-01-08 12:00:00,2,1003.4,-0.7,80,-1,8000,3.704,,,180,,,,,,,,,,61,wg-a,,,,AAXX 08124 07434 02458 81802 10020 21010 39549 40034 58007 61000 76162 875// 91200 333 6100=
07434,1997-01-08 15:00:00,2,1001.6,-1.7,93,1,500,7.408,,,100,,,,0,,,,,,3,wg-a,,,,AAXX 08154 07434 12500 81004 10020 20010 39532 40016 56017 60007 70362 875// 91500=
07434,1997-01-08 17:00:00,2,1001.3,-0.2,93,1,500,3.704,,,110,,,,,,,,,,0,wg-a,,,,AAXX 08174 07434 32400 81102 10020 20010 39530 40013 58002 700// 91700=
07434,1997-01-08 18:00:00,2,1001.3,-0.2,93,1,500,3.704,,,110,-0.5,2.4,,,,,,,,3,wg-a,,4,,AAXX 08184 07434 12400 81102 10020 20010 39530 40013 58002 60006 70362 875// 91800 333 10024 21005 4/004=
07434,1997-01-08 21:00:00,2,1001.4,-0,93,1,6000,3.704,,,100,,,,,,,,,,,wg-a,,,,AAXX 08214 07434 12356 /1002 10020 20010 39530 40014 55000 60006 86500 92100=
07434,1997-01-09 00:00:00,2,1001.3,-0.1,93,1,4500,7.408,,,90,,,,,,,,,,11,wg-a,,,,AAXX 09004 07434 12345 70904 10020 20010 39529 40013 56001 60006 71141 875// 90000=
07434,1997-01-09 03:00:00,2,1001.2,-0,100,2,6000,7.408,,,70,,,,,,,,,,,wg-a,,,,AAXX 09034 07434 12556 70704 10020 20020 39529 40012 55000 60006 875// 90300=
07434,1997-01-09 06:00:00,3,1000.8,-0.3,93,2,8000,11.112,,,70,1.5,2.7,,,,,,,,,wg-a,,4,,AAXX 09064 07434 02558 70706 10030 20020 39526 40008 55003 60006 875// 90600 333 10027 20015 4/004 60004=
07434,1997-01-09 09:00:00,3,1002.3,1.4,93,2,20000,7.408,,,100,,,,,,,,,,,wg-a,,,,AAXX 09094 07434 12470 71004 10030 20020 39540 40023 51014 60006 8583/ 90900=
07434,1997-01-09 12:00:00,4,1003.8,1.7,87,2,25000,3.704,,,160,,,,,,,,,,,wg-a,,,,AAXX 09124 07434 12675 71602 10040 20020 39557 40038 51017 60006 8553/ 91200=
07434,1997-01-09 15:00:00,5,1005.1,1.4,87,3,20000,3.704,,,160,,,,,,,,,,,wg-a,,,,AAXX 09154 07434 12770 61602 10050 20030 39571 40051 53014 60006 86531 91500=
07434,1997-01-09 18:00:00,3,1007.8,2.1,93,2,600,18.52,,,280,2.6,6.8,,,,,,,,46,wg-a,,,,AAXX 09184 07434 02106 82810 10030 20020 39592 40078 53021 60006 74664 887// 91800 333 10068 20026 61000=
07434,1997-01-09 21:00:00,-1,1010.3,1.8,100,-1,6000,3.704,,,250,,,,,,,,,,1,wg-a,,,,AAXX 09214 07434 02256 72502 11010 21010 39610 40103 52018 61000 70154 875// 92100 333 ////=
07434,1997-01-10 00:00:00,-1,1012.1,1.7,100,-1,500,7.408,,,300,,,,,,,,,,45,wg-a,,,,AAXX 10004 07434 02/05 93004 11010 21010 39627 40121 51017 61000 74554 89/// 90000 333 ////=
07434,1997-01-10 03:00:00,-1,1014.4,2.2,100,-1,600,7.408,,,310,,,,,,,,,,45,wg-a,,,,AAXX 10034 07434 12/06 93104 11010 21010 39649 40144 53022 60006 74542 89/// 90300=
07434,1997-01-10 06:00:00,-1,1016.2,1.7,100,-1,600,7.408,,,300,-1,2.6,,,,,,,,49,wg-a,,2,,AAXX 10064 07434 02/06 93004 11010 21010 39666 40162 53017 60006 74942 89/// 90600 333 10026 21010 4/002 61000=
07434,1997-01-10 09:00:00,-1,1018.7,2.4,100,-1,400,3.704,,,270,,,,,,,,,,49,wg-a,,,,AAXX 10094 07434 12/04 92702 11010 21010 39690 40187 53024 60006 74944 89/// 90900=
07434,1997-01-10 12:00:00,0,1019.9,1.2,93,-1,200,7.408,,,290,,,,,,,,,,49,wg-a,,,,AAXX 10124 07434 12/02 92904 10000 21010 39702 40199 51012 60006 74944 89/// 91200=
07434,1997-01-10 15:00:00,0,1021,1.1,100,0,200,7.408,,,320,,,,,,,,,,45,wg-a,,,,AAXX 10154 07434 12/02 93204 10000 20000 39713 40210 53011 60006 74544 89/// 91500=
07434,1997-01-10 18:00:00,0,1022.1,1.1,100,0,600,0,,,0,-0.9,0,,,,,,,,43,wg-a,,0,,AAXX 10184 07434 12/06 90000 10000 20000 39724 40221 53011 60006 74344 89/// 91800 333 10000 21009 4/000=
07434,1997-01-10 21:00:00,0,1023.5,1.3,100,0,1200,3.704,,,40,,,,,,,,,,28,wg-a,,,,AAXX 10214 07434 12112 80402 10000 20000 39737 40235 53013 60006 72842 876// 92100=
07434,1997-01-11 00:00:00,0,1024,0.4,93,-1,200,3.704,,,350,,,,,,,,,,45,wg-a,,,,AAXX 11004 07434 12/02 93502 10000 21010 39741 40240 53004 60006 74542 89/// 90000=
07434,1997-01-11 03:00:00,0,1024.1,0.2,100,0,3000,3.704,,,60,,,,,,,,,,10,wg-a,,,,AAXX 11034 07434 12130 /0602 10000 20000 39743 40241 53002 60006 71042 86500 90300=
07434,1997-01-11 06:00:00,-1,1024.6,0.2,93,-2,300,3.704,,,250,-1.2,0.1,,,,,,,,44,wg-a,,0,,AAXX 11064 07434 02/03 92502 11010 21020 39745 40246 53002 60006 74441 89/// 90600 333 10001 21012 4/9999 60004=
07434,1997-01-11 09:00:00,-2,1026.8,2,100,-2,300,3.704,,,70,,,,,,,,,,49,wg-a,,,,AAXX 11094 07434 12/03 90702 11020 21020 39765 40268 51020 60006 74944 89/// 90900=
07434,1997-01-11 12:00:00,0,1026.4,0,100,0,1000,7.408,,,90,,,,,,,,,,28,wg-a,,,,AAXX 11124 07434 12410 90904 10000 20000 39765 40264 50000 60006 72842 896// 91200=
07434,1997-01-11 15:00:00,2,1026.1,0.1,100,2,7000,3.704,,,40,,,,,,,,,,,wg-a,,,,AAXX 11154 07434 12457 70402 10020 20020 39766 40261 53001 60006 875// 91500=
07434,1997-01-11 18:00:00,3,1026.4,0.4,93,2,4500,7.408,,,30,-2.8,3.2,,,,,,,,10,wg-a,,0,,AAXX 11184 07434 12445 70304 10030 20020 39770 40264 51004 60006 71022 875// 91800 333 10032 21028 4/9999=
07434,1997-01-11 21:00:00,4,1026.8,0.5,75,0,6000,3.704,,,60,,,,,,,,,,,wg-a,,,,AAXX 11214 07434 12656 70602 10040 20000 39775 40268 53005 60006 87500 92100=
07434,1997-01-12 00:00:00,2,1027.5,0.4,75,-2,8000,7.408,,,60,,,,,,,,,,,wg-a,,,,AAXX 12004 07434 12/58 00604 10020 21020 39779 40275 51004 60006 80000 90000=
07434,1997-01-12 03:00:00,4,1027,-0.3,32,-11,10000,3.704,,,50,,,,,,,,,,,wg-a,,,,AAXX 12034 07434 12/60 00502 10040 21110 39776 40270 55003 60006 80000 90300=
07434,1997-01-12 06:00:00,2,1027.3,-0.1,55,-6,8000,3.704,,,70,1.2,4.5,,,,,,,,,wg-a,,0,,AAXX 12064 07434 02/58 00702 10020 21060 39775 40273 55001 60006 80000 90600 333 10045 20012 4/9999 60004=
07434,1997-01-12 12:00:00,9,1025.4,-0.7,37,-5,50000,18.52,,,70,,,,,,,,,,,wg-a,,,,AAXX 12124 07434 12/84 30710 10090 21050 39771 40254 58007 60006 80001 91200=
07434,1997-01-12 15:00:00,10,1024.1,-1.2,37,-4,50000,22.224,,,70,,,,,,,,,,,wg-a,,,,AAXX 12154 07434 12/84 20712 10100 21040 39759 40241 55012 60006 80001 91500=
07434,1997-01-12 18:00:00,6,1024.5,-0.3,42,-6,50000,18.52,,,60,1.3,10.2,,,,,,,,,wg-a,,,,AAXX 12184 07434 12/84 10610 10060 21060 39756 40245 57003 60006 80001 91800 333 10102 20013=
07434,1997-01-12 21:00:00,6,1024.1,-0.4,31,-10,500,22.224,,,80,,,,,,,,,,,wg-a,,,,AAXX 12214 07434 12/00 10812 10060 21100 39752 40241 58004 60006 80001 92100=
07434,1997-01-13 00:00:00,5,1023.7,-0.5,26,-13,500,14.816,,,70,,,,,,,,,,,wg-a,,,,AAXX 13004 07434 12/00 20708 10050 21130 39747 40237 57005 60006 80001 90000=
07434,1997-01-13 03:00:00,3,1023.3,-0.8,32,-12,500,7.408,,,90,,,,,,,,,,,wg-a,,,,AAXX 13034 07434 12/00 10904 10030 21120 39739 40233 56008 60006 80001 90300=
07434,1997-01-13 06:00:00,2,1023.2,-0.2,37,-11,500,7.408,,,50,2,6.4,,,,,,,,,wg-a,,,,AAXX 13064 07434 02/00 10504 10020 21110 39737 40232 57002 60006 80001 90600 333 10064 20020 60004=
07434,1997-01-13 09:00:00,4,1023.2,0.3,32,-11,50000,11.112,,,80,,,,,,,,,,,wg-a,,,,AAXX 13094 07434 12/84 10806 10040 21110 39740 40232 53003 60006 80001 90900=
07434,1997-01-13 12:00:00,10,1021.7,-0.3,29,-7,50000,11.112,,,140,,,,,,,,,,,wg-a,,,,AAXX 13124 07434 12/84 01406 10100 21070 39737 40217 58003 60006 80000 91200=
07434,1997-01-13 15:00:00,12,1020.4,-0.9,32,-4,50000,7.408,,,160,,,,,,,,,,,wg-a,,,,AAXX 13154 07434 12/84 01604 10120 21040 39728 40204 56009 60006 80000 91500=
07434,1997-01-13 18:00:00,9,1021.3,0.3,37,-5,50000,3.704,,,90,2,12.5,,,,,,,,,wg-a,,,,AAXX 13184 07434 12/84 00902 10090 21050 39731 40213 53003 60006 80000 91800 333 10125 20020=
07434,1997-01-13 21:00:00,7,1022.3,0.6,42,-5,50000,7.408,,,100,,,,,,,,,,,wg-a,,,,AAXX 13214 07434 12/84 01004 10070 21050 39737 40223 53006 60006 80000 92100=
07434,1997-01-14 00:00:00,5,1022.1,-0.5,45,-6,500,7.408,,,120,,,,,,,,,,,wg-a,,,,AAXX 14004 07434 12/00 01204 10050 21060 39732 40221 56005 60006 80000 90000=
07434,1997-01-14 03:00:00,5,1021.9,-0.3,45,-6,25000,7.408,,,120,,,,,,,,,,,wg-a,,,,AAXX 14034 07434 12/75 01204 10050 21060 39729 40219 56003 60006 80000 90300=
07434,1997-01-14 06:00:00,4,1021.7,-0.3,48,-6,25000,7.408,,,110,3.8,9,,,,,,,,,wg-a,,,,AAXX 14064 07434 02/75 01104 10040 21060 39726 40217 55003 60006 80000 90600 333 10090 20038 60004=
07434,1997-01-14 09:00:00,7,1021.7,0.5,36,-7,50000,11.112,,,130,,,,,,,,,,,wg-a,,,,AAXX 14094 07434 12/84 01306 10070 21070 39731 40217 53005 60006 80000 90900=
07434,1997-01-14 12:00:00,11,1020.6,-0.3,37,-3,50000,18.52,,,160,,,,,,,,,,,wg-a,,,,AAXX 14124 07434 12/84 01610 10110 21030 39728 40206 58003 60006 80000 91200=
07434,1997-01-14 15:00:00,12,1020.3,-0.2,38,-2,50000,14.816,,,190,,,,,,,,,,,wg-a,,,,AAXX 14154 07434 12/84 01908 10120 21020 39726 40203 55002 60006 80000 91500=
07434,1997-01-14 18:00:00,8,1021.4,0.5,49,-2,15000,7.408,,,160,4,12,,,,,,,,,wg-a,,,,AAXX 14184 07434 12/65 01604 10080 21020 39731 40214 53005 60006 80000 91800 333 10120 20040=
07434,1997-01-15 00:00:00,5,1023.5,1.1,56,-3,15000,11.112,,,100,,,,,,,,,,,wg-a,,,,AAXX 15004 07434 12/65 01006 10050 21030 39746 40235 51011 60006 80000 90000=
07434,1997-01-15 06:00:00,6,1023.3,-0,52,-3,20000,11.112,,,100,5.1,8.1,,,,,,,,,wg-a,,,,AAXX 15064 07434 02/70 01006 10060 21030 39745 40233 54000 60006 80000 90600 333 10081 20051 60004=
07434,1997-01-15 09:00:00,9,1023.3,0.5,43,-3,75000,14.816,,,120,,,,,,,,,,,wg-a,,,,AAXX 15094 07434 12/89 01208 10090 21030 39750 40233 51005 60006 80000 90900=
07434,1997-01-15 12:00:00,12,1022.3,-0.4,38,-2,50000,14.816,,,150,,,,,,,,,,,wg-a,,,,AAXX 15124 07434 12/84 01508 10120 21020 39746 40223 58004 60006 80000 91200=
07434,1997-01-15 15:00:00,14,1020.6,-1.4,33,-2,60000,11.112,,,150,,,,,,,,,,,wg-a,,,,AAXX 15154 07434 12/86 01506 10140 21020 39732 40206 56014 60006 80000 91500=
07434,1997-01-15 18:00:00,11,1020.9,-0.2,40,-2,40000,7.408,,,80,6.1,14.2,,,,,,,,,wg-a,,,,AAXX 15184 07434 12/82 00804 10110 21020 39730 40209 55002 60006 80000 91800 333 10142 20061=
07434,1997-01-15 21:00:00,8,1021.6,0.3,46,-3,15000,11.112,,,150,,,,,,,,,,,wg-a,,,,AAXX 15214 07434 12/65 01506 10080 21030 39733 40216 51003 60006 80000 92100=
07434,1997-01-16 00:00:00,7,1021.8,-0.1,49,-3,15000,11.112,,,150,,,,,,,,,,,wg-a,,,,AAXX 16004 07434 12/65 01506 10070 21030 39732 40218 58001 60006 80000 90000=
07434,1997-01-16 03:00:00,6,1020.9,-1,52,-3,15000,7.408,,,140,,,,,,,,,,,wg-a,,,,AAXX 16034 07434 12/65 01404 10060 21030 39722 40209 56010 60006 80000 90300=
07434,1997-01-16 06:00:00,5,1020.2,-0.9,65,-1,15000,7.408,,,150,4.1,10.8,,,,,,,,,wg-a,,,,AAXX 16064 07434 02/65 01504 10050 21010 39713 40202 56009 60006 80000 90600 333 10108 20041 60004=
07434,1997-01-16 09:00:00,6,1020.4,0.4,70,1,20000,11.112,,,120,,,,,,,,,,,wg-a,,,,AAXX 16094 07434 12/70 01206 10060 20010 39717 40204 53004 60006 80000 90900=
07434,1997-01-16 12:00:00,11,1018.5,-0.9,62,4,20000,18.52,,,170,,,,,,,,,,,wg-a,,,,AAXX 16124 07434 12/70 01710 10110 20040 39708 40185 58009 60006 80000 91200=
07434,1997-01-16 15:00:00,12,1016.8,-1.5,58,4,15000,18.52,,,150,,,,,,,,,,,wg-a,,,,AAXX 16154 07434 12/65 01510 10120 20040 39693 40168 56015 60006 80000 91500=
07434,1997-01-16 18:00:00,8,1017.3,-0.1,71,3,20000,14.816,,,150,3.6,12,,,,,,,,,wg-a,,,,AAXX 16184 07434 12/70 11508 10080 20030 39692 40173 55001 60006 80001 91800 333 10120 20036=
07434,1997-01-16 21:00:00,6,1017.3,-0.3,75,2,20000,14.816,,,130,,,,,,,,,,,wg-a,,,,AAXX 16214 07434 12/70 01308 10060 20020 39689 40173 58003 60006 80000 92100=
07434,1997-01-17 00:00:00,6,1016.1,-1.2,75,2,18000,14.816,,,130,,,,,,,,,,,wg-a,,,,AAXX 17004 07434 12/68 11308 10060 20020 39677 40161 58012 60006 80001 90000=
07434,1997-01-17 03:00:00,6,1015.6,-0.6,75,2,18000,14.816,,,130,,,,,,,,,,,wg-a,,,,AAXX 17034 07434 12/68 11308 10060 20020 39671 40156 56006 60006 80001 90300=
07434,1997-01-17 06:00:00,6,1014.4,-1,75,2,20000,18.52,,,130,5.2,8.2,,,,,,,,,wg-a,,,,AAXX 17064 07434 02/70 21310 10060 20020 39661 40144 58010 60006 81031 90600 333 10082 20052 60004=
07434,1997-01-17 09:00:00,8,1015.7,1.5,76,4,15000,14.816,,,150,,,,,,,,,,,wg-a,,,,AAXX 17094 07434 12/65 61508 10080 20040 39676 40157 53015 60006 85072 90900=
07434,1997-01-17 12:00:00,10,1015.7,0.4,76,6,20000,14.816,,,180,,,,,,,,,,,wg-a,,,,AAXX 17124 07434 12470 81808 10100 20060 39680 40157 50004 60006 8557/ 91200=
07434,1997-01-17 15:00:00,8,1016.1,0.1,93,7,500,14.816,,,210,,,,1,,,,,,61,wg-a,,,,AAXX 17154 07434 12400 82108 10080 20070 39681 40161 53001 60017 76162 875// 91500=
07434,1997-01-17 18:00:00,7,1017.8,1.5,100,7,1100,11.112,,,270,6,9.8,,,,,,,,51,wg-a,,,,AAXX 17184 07434 02011 82706 10070 20070 39696 40178 53015 61000 75165 877// 91800 333 10098 20060 6002=
07434,1997-01-17 21:00:00,7,1019.9,1.9,93,6,4000,7.408,,,320,,,,0,,,,,,10,wg-a,,,,AAXX 17214 07434 12140 83204 10070 20060 39715 40199 51019 60007 71065 877// 92100=
07434,1997-01-18 00:00:00,6,1020.9,0.8,100,6,800,3.704,,,300,,,,,,,,,,44,wg-a,,,,AAXX 18004 07434 02208 73002 10060 20060 39723 40209 51008 60006 74465 877// 90000 333 61000=
07434,1997-01-18 03:00:00,5,1020.7,-0.3,100,5,800,3.704,,,310,,,,0,,,,,,44,wg-a,,,,AAXX 18034 07434 12208 73102 10050 20050 39720 40207 57003 60007 74444 877// 90300=
07434,1997-01-18 06:00:00,4,1020,-0.9,100,4,600,11.112,,,100,4.3,7.5,,,,,4,,,44,wg-a,,,,AAXX 18064 07434 02206 71006 10040 20040 39711 40200 56009 60006 74444 877// 90600 333 10075 20043 60044=
07434,1997-01-18 09:00:00,4,1019.5,-0.4,100,4,700,7.408,,,90,,,,,,,,,,42,wg-a,,,,AAXX 18094 07434 12307 90904 10040 20040 39707 40195 58004 60006 74244 896// 90900=
07434,1997-01-18 12:00:00,8,1015.1,-3.6,93,7,10000,14.816,,,140,,,,,,,,,,1,wg-a,,,,AAXX 18124 07434 12460 71408 10080 20070 39671 40151 58036 60006 70142 875// 91200=
07434,1997-01-18 15:00:00,10,1012.1,-2.5,76,6,20000,18.52,,,160,,,,,,,,,,,wg-a,,,,AAXX 18154 07434 12570 71610 10100 20060 39646 40121 56025 60006 81552 91500=
07434,1997-01-18 18:00:00,10,1011,-1.1,76,6,20000,18.52,,,170,3.9,10,,,,,,,,,wg-a,,,,AAXX 18184 07434 12570 71710 10100 20060 39635 40110 55011 60006 8457/ 91800 333 10100 20039=
07434,1997-01-18 21:00:00,8,1011.2,-0,93,7,15000,22.224,,,180,,,,1,,,,,,21,wg-a,,,,AAXX 18214 07434 12565 81812 10080 20070 39635 40112 55000 60017 72162 875// 92100=
07434,1997-01-19 00:00:00,8,1010.7,-0.5,93,7,12000,14.816,,,180,,,,,,,,,,1,wg-a,,,,AAXX 19004 07434 02662 81808 10080 20070 39630 40107 57005 60016 70162 875// 90000 333 61000=
07434,1997-01-19 03:00:00,8,1010.4,-0.4,93,7,10000,11.112,,,190,,,,,,,,,,61,wg-a,,,,AAXX 19034 07434 02360 81906 10080 20070 39626 40104 56004 61000 76162 875// 90300 333 ////=
07434,1997-01-19 06:00:00,7,1010,-0.5,93,6,10000,7.408,,,210,6.8,9.7,,,,,,,,61,wg-a,,,,AAXX 19064 07434 02260 82104 10070 20060 39621 40100 55005 61000 76162 875// 90600 333 10097 20068 6003=
07434,1997-01-19 09:00:00,7,1011.5,1.4,93,6,15000,14.816,,,230,,,,0,,,,,,3,wg-a,,,,AAXX 19094 07434 12265 82308 10070 20060 39635 40115 53014 60007 70386 876// 90900=
07434,1997-01-19 12:00:00,7,1011.8,0.3,93,6,15000,11.112,,,180,,,,1,,,,,,15,wg-a,,,,AAXX 19124 07434 02165 71806 10070 20060 39638 40118 50003 60016 71586 878// 91200 333 60017=
07434,1997-01-19 15:00:00,9,1011.4,-0.1,81,6,20000,7.408,,,160,,,,,,,,,,,wg-a,,,,AAXX 19154 07434 12470 71604 10090 20060 39637 40114 55001 60006 84801 91500=
07434,1997-01-19 18:00:00,7,1012.3,0.5,93,6,10000,7.408,,,60,6,8.7,,,,,,,,,wg-a,,,,AAXX 19184 07434 12/60 60604 10070 20060 39642 40123 51005 60006 80001 91800 333 10087 20060=
07434,1997-01-19 21:00:00,6,1013.3,0.8,93,5,8000,7.408,,,60,,,,,,,,,,40,wg-a,,,,AAXX 19214 07434 12758 /0604 10060 20050 39650 40133 53008 60006 74022 83501 92100=
07434,1997-01-20 00:00:00,5,1013.1,-0.3,93,4,8000,11.112,,,50,,,,,,,,,,40,wg-a,,,,AAXX 20004 07434 12758 70506 10050 20040 39647 40131 58003 60006 74022 81537 90000=
07434,1997-01-20 03:00:00,7,1011.2,-1.5,81,4,10000,22.224,,,60,,,,,,,,,,,wg-a,,,,AAXX 20034 07434 12760 70612 10070 20040 39632 40112 58015 60006 8357/ 90300=
07434,1997-01-20 06:00:00,7,1011.4,0.1,76,3,15000,22.224,,,70,5,7,,,,,1,,,,wg-a,,,,AAXX 20064 07434 02765 70712 10070 20030 39633 40114 50001 60006 8357/ 90600 333 10070 20050 60014=
07434,1997-01-20 09:00:00,6,1013.3,1.8,81,3,25000,18.52,,,70,,,,,,,,,,,wg-a,,,,AAXX 20094 07434 12775 70710 10060 20030 39651 40133 53018 60006 8157/ 90900=
07434,1997-01-20 12:00:00,8,1013.9,0.8,71,3,15000,29.632,,,70,,,,,,,,,,60,wg-a,,,,AAXX 20124 07434 02/65 70716 10080 20030 39659 40139 50008 61000 76062 8707/ 91200 333 6100=
07434,1997-01-20 15:00:00,7,1013.6,-0.4,76,3,25000,29.632,,48.152,70,,,,,,,,,,21,wg-a,,,,AAXX 20154 07434 02575 70716 10070 20030 39655 40136 56004 61000 72162 875// 91500 333 //// 91026=
07434,1997-01-20 18:00:00,6,1015.3,1.5,81,3,25000,29.632,,,70,6,7.9,,,,,,,,1,wg-a,,,,AAXX 20184 07434 12675 70716 10060 20030 39670 40153 53015 60006 70162 875// 91800 333 10079 20060=
07434,1997-01-20 21:00:00,5,1016.4,0.9,93,4,8000,29.632,,,70,,,,1,,,,,,21,wg-a,,,,AAXX 20214 07434 12358 70716 10050 20040 39679 40164 51009 60017 72162 875// 92100=
07434,1997-01-21 00:00:00,5,1017.2,0.6,87,3,0,25.928,,,70,,,,,,,,,,,wg-a,,,,AAXX 21004 07434 12/// /0714 10050 20030 39685 40172 51006 60026 90000=
07434,1997-01-21 06:00:00,5,1015.7,-0.4,93,4,20000,22.224,,,70,4.5,6,,,,,4,,,1,wg-a,,,,AAXX 21064 07434 02670 70712 10050 20040 39672 40157 56004 60006 70162 85502 90600 333 10060 20045 60044=
07434,1997-01-21 09:00:00,7,1015.3,-0.1,87,5,11000,18.52,,,80,,,,,,,,,,,wg-a,,,,AAXX 21094 07434 12/61 /0810 10070 20050 39671 40153 57001 60006 90900=
07434,1997-01-21 12:00:00,12,1013.5,-0.8,76,8,40000,14.816,,,110,,,,,,,,,,,wg-a,,,,AAXX 21124 07434 12782 51108 10120 20080 39663 40135 58008 60006 81532 91200=
07434,1997-01-21 15:00:00,14,1012.8,-0.4,67,8,500,18.52,,,170,,,,,,,,,,,wg-a,,,,AAXX 21154 07434 12500 71710 10140 20080 39659 40128 55004 60006 82132 91500=
07434,1997-01-21 18:00:00,12,1013.6,0.5,67,6,500,18.52,,,170,5.1,15.3,,,,,,,,,wg-a,,,,AAXX 21184 07434 12/00 71710 10120 20060 39664 40136 51005 60006 83032 91800 333 10153 20051=
07434,1997-01-21 21:00:00,12,1013.5,-0.2,67,6,500,25.928,,44.448,160,,,,,,,,,,,wg-a,,,,AAXX 21214 07434 12/00 51614 10120 20060 39662 40135 55002 60006 80002 92100 333 91024=
07434,1997-01-22 00:00:00,12,1014.6,1,67,6,25000,22.224,,,180,,,,,,,,,,,wg-a,,,,AAXX 22004 07434 12/75 11812 10120 20060 39672 40146 53010 60006 81010 90000=
07434,1997-01-22 03:00:00,11,1015.6,1,76,7,20000,14.816,,,210,,,,,,,,,,,wg-a,,,,AAXX 22034 07434 12/70 72108 10110 20070 39682 40156 51010 60006 80002 90300=
07434,1997-01-22 06:00:00,10,1016.9,0.9,87,8,15000,7.408,,,220,9.7,12.5,,,,,,,,60,wg-a,,,,AAXX 22064 07434 02565 82204 10100 20080 39691 40169 51009 61000 76061 875// 90600 333 10125 20097 6100=
07434,1997-01-22 09:00:00,10,1017.6,0.8,87,8,12000,14.816,,,170,,,,,,,,,,1,wg-a,,,,AAXX 22094 07434 02562 51708 10100 20080 39699 40176 52008 61000 70162 85800 90900 333 ////=
07434,1997-01-22 12:00:00,14,1017.5,0.5,72,9,11000,25.928,,,180,,,,,,,,,,,wg-a,,,,AAXX 22124 07434 02/61 /1814 10140 20090 39704 40175 50005 61000 91200 333 ////=
07434,1997-01-22 15:00:00,15,1017.3,-0.1,63,8,20000,18.52,,,200,,,,,,,,,,,wg-a,,,,AAXX 22154 07434 12570 32010 10150 20080 39703 40173 56001 60006 83200 91500=
07434,1997-01-22 18:00:00,12,1018.4,0.7,76,8,15000,11.112,,,210,9.4,14.6,,,,,,,,,wg-a,,,,AAXX 22184 07434 12565 72106 10120 20080 39710 40184 53007 60006 878// 91800 333 10146 20094=
07434,1997-01-22 21:00:00,11,1019.5,0.8,87,9,10000,7.408,,,200,,,,0,,,,,,60,wg-a,,,,AAXX 22214 07434 12560 82004 10110 20090 39718 40195 51008 60007 76062 888// 92100=
07434,1997-01-23 00:00:00,11,1019.8,0.3,82,8,10000,11.112,,,200,,,,0,,,,,,1,wg-a,,,,AAXX 23004 07434 02560 82006 10110 20080 39721 40198 50003 60016 70162 888// 90000 333 60007=
07434,1997-01-23 03:00:00,10,1019.1,-0.8,87,8,10000,7.408,,,100,,,,,,,,,,,wg-a,,,,AAXX 23034 07434 12560 81004 10100 20080 39713 40191 56008 60006 888// 90300=
07434,1997-01-23 06:00:00,10,1019.3,0.1,82,7,15000,7.408,,,90,9.8,12.2,,,,,1,,,,wg-a,,,,AAXX 23064 07434 02565 80904 10100 20070 39714 40193 53001 60006 888// 90600 333 10122 20098 60014=
07434,1997-01-23 09:00:00,10,1019.6,0.3,76,6,20000,11.112,,,110,,,,,,,,,,1,wg-a,,,,AAXX 23094 07434 02670 81106 10100 20060 39717 40196 50003 61000 70162 81537 90900 333 ////=
07434,1997-01-23 12:00:00,14,1019.4,0.4,63,7,20000,14.816,,,170,,,,,,,,,,1,wg-a,,,,AAXX 23124 07434 02/70 71708 10140 20070 39721 40194 50004 61000 70162 82038 91200 333 ////=
07434,1997-01-23 18:00:00,12,1020.4,0.6,67,6,20000,14.816,,,160,9.3,14.3,,,,,,,,1,wg-a,,,,AAXX 23184 07434 02/70 71608 10120 20060 39728 40204 51006 60006 70162 8707/ 91800 333 10143 20093 61000=
07434,1997-01-23 21:00:00,11,1022,1.3,66,5,15000,7.408,,,120,,,,,,,,,,,wg-a,,,,AAXX 23214 07434 12/65 71204 10110 20050 39741 40220 53013 60006 8707/ 92100=
07434,1997-01-24 00:00:00,10,1022.5,0.4,66,4,15000,11.112,,,90,,,,,,,,,,,wg-a,,,,AAXX 24004 07434 12/65 70906 10100 20040 39745 40225 51004 60006 8707/ 90000=
07434,1997-01-24 03:00:00,10,1022.7,0.2,71,5,15000,7.408,,,120,,,,,,,,,,,wg-a,,,,AAXX 24034 07434 12/65 71204 10100 20050 39747 40227 50002 60006 8707/ 90300=
07434,1997-01-24 06:00:00,10,1023.1,0.4,71,5,15000,7.408,,,110,9.7,11.9,,,,,,,,,wg-a,,,,AAXX 24064 07434 02/65 71104 10100 20050 39751 40231 53004 60006 8707/ 90600 333 10119 20097 61000=
07434,1997-01-24 09:00:00,10,1024.6,1.4,71,5,12000,11.112,,,110,,,,,,,,,,,wg-a,,,,AAXX 24094 07434 12/62 81106 10100 20050 39765 40246 51014 60006 83037 90900=
07434,1997-01-24 12:00:00,12,1024.9,0.6,71,7,12000,14.816,,,150,,,,,,,,,,,wg-a,,,,AAXX 24124 07434 12/62 81508 10120 20070 39771 40249 50006 60006 8807/ 91200=
07434,1997-01-24 15:00:00,12,1024.7,-0.1,71,7,12000,14.816,,,160,,,,,,,,,,,wg-a,,,,AAXX 24154 07434 12562 81608 10120 20070 39770 40247 55001 60006 875// 91500=
07434,1997-01-24 18:00:00,10,1026.3,1.1,87,8,10000,7.408,,,90,9.7,12.3,,1,,,,,,60,wg-a,,,,AAXX 24184 07434 12660 80904 10100 20080 39781 40263 51011 60017 76062 8252/ 91800 333 10123 20097=
07434,1997-01-25 00:00:00,9,1027.8,0.3,93,8,7000,3.704,,,80,,,,0,,,,,,60,wg-a,,,,AAXX 25004 07434 02657 70802 10090 20080 39794 40278 50003 60016 76062 8657/ 90000 333 60007=
07434,1997-01-25 03:00:00,8,1027.7,-0.3,93,7,8000,7.408,,,90,,,,0,,,,,,2,wg-a,,,,AAXX 25034 07434 12/58 /0904 10080 20070 39791 40277 56003 60007 70262 86070 90300=
07434,1997-01-25 06:00:00,8,1027.3,-0.3,87,6,8000,7.408,,,50,7.8,9.7,,,,,2,,,1,wg-a,,,,AAXX 25064 07434 02658 70504 10080 20060 39788 40273 56003 60006 70162 8357/ 90600 333 10097 20078 60024=
07434,1997-01-25 09:00:00,9,1027.9,0.8,81,6,500,3.704,,,90,,,,,,,,,,,wg-a,,,,AAXX 25094 07434 12/00 30902 10090 20060 39796 40279 53008 60006 82031 90900=
07434,1997-01-25 12:00:00,14,1026.5,-0.7,63,7,8000,3.704,,,120,,,,,,,,,,,wg-a,,,,AAXX 25124 07434 12658 21202 10140 20070 39789 40265 58007 60006 81102 91200=
07434,1997-01-25 15:00:00,13,1025.7,-0.9,62,6,12000,7.408,,,70,,,,,,,,,,,wg-a,,,,AAXX 25154 07434 12662 /0704 10130 20060 39780 40257 56009 60006 81132 91500=
07434,1997-01-25 18:00:00,11,1025.8,-0.2,71,6,15000,11.112,,,40,8,14.1,,,,,,,,,wg-a,,,,AAXX 25184 07434 12/65 60406 10110 20060 39778 40258 57002 60006 82032 91800 333 10141 20080=
07434,1997-01-25 21:00:00,9,1026.4,0.3,76,5,15000,7.408,,,90,,,,,,,,,,,wg-a,,,,AAXX 25214 07434 12/65 40904 10090 20050 39781 40264 51003 60006 80002 92100=
07434,1997-01-26 00:00:00,7,1026.5,-0.2,87,5,12000,11.112,,,60,,,,,,,,,,,wg-a,,,,AAXX 26004 07434 12/62 10606 10070 20050 39779 40265 58002 60006 80002 90000=
07434,1997-01-26 03:00:00,7,1025.6,-1,81,4,12000,7.408,,,60,,,,,,,,,,,wg-a,,,,AAXX 26034 07434 12/62 00604 10070 20040 39769 40256 58010 60006 80000 90300=
07434,1997-01-26 06:00:00,4,1025.9,-0.2,93,3,6000,0,,,0,3.8,10.9,,,,,,,,,wg-a,,,,AAXX 26064 07434 02756 30000 10040 20030 39767 40259 56002 60006 83501 90600 333 10109 20038 60004=
07434,1997-01-26 09:00:00,5,1026.1,0.4,93,4,2000,3.704,,,50,,,,,,,,,,10,wg-a,,,,AAXX 26094 07434 12320 50502 10050 20040 39771 40261 53004 60006 71011 82601 90900=
07434,1997-01-26 12:00:00,8,1025.6,0,81,5,500,7.408,,,50,,,,,,,,,,,wg-a,,,,AAXX 26124 07434 12/00 /0504 10080 20050 39771 40256 50000 60006 91200=
07434,1997-01-26 15:00:00,6,1025.2,-0.8,87,4,2500,14.816,,,340,,,,,,,,,,10,wg-a,,,,AAXX 26154 07434 12325 /3408 10060 20040 39763 40252 56008 60006 71011 84602 91500=
07434,1997-01-26 18:00:00,4,1026,0.5,93,3,600,14.816,,,360,3.6,9.7,,,,,,,,43,wg-a,,,,AAXX 26184 07434 12/06 93608 10040 20030 39768 40260 53005 60006 74341 89/// 91800 333 10097 20036=
07434,1997-01-26 21:00:00,3,1027,0.8,100,3,600,7.408,,,70,,,,,,,,,,45,wg-a,,,,AAXX 26214 07434 12/06 90704 10030 20030 39776 40270 51008 60006 74544 89/// 92100=
07434,1997-01-27 00:00:00,2,1027.2,0.1,100,2,400,3.704,,,10,,,,,,,,,,45,wg-a,,,,AAXX 27004 07434 12/04 90102 10020 20020 39777 40272 51001 60006 74544 89/// 90000=
07434,1997-01-27 03:00:00,2,1027.8,0.4,93,1,700,7.408,,,70,,,,,,,,,,43,wg-a,,,,AAXX 27034 07434 12/07 90704 10020 20010 39781 40278 53004 60006 74344 89/// 90300=
07434,1997-01-27 06:00:00,2,1028.2,0.4,93,1,1200,11.112,,,60,1.6,3.8,,,,,,,,28,wg-a,,,,AAXX 27064 07434 02012 90606 10020 20010 39785 40282 53004 60006 72842 896// 90600 333 10038 20016 60004=
07434,1997-01-27 09:00:00,2,1029.9,1.6,93,1,6000,11.112,,,50,,,,,,,,,,,wg-a,,,,AAXX 27094 07434 12256 80506 10020 20010 39801 40299 51016 60006 886// 90900=
07434,1997-01-27 12:00:00,3,1030.6,,87,1,9000,11.112,,,30,,,,,,,,,,,wg-a,,,,AAXX 27124 07434 12359 80306 10030 20010 39809 40306 60006 885// 91200=
07434,1997-01-27 15:00:00,4,1030.6,0.2,75,0,10000,14.816,,,50,,,,,,,,,,,wg-a,,,,AAXX 27154 07434 12460 /0508 10040 20000 39811 40306 53002 60006 875// 91500=
07434,1997-01-27 18:00:00,3,1032.4,1.5,81,0,8000,18.52,,,50,1.2,3.5,,,,,,,,,wg-a,,,,AAXX 27184 07434 12458 80510 10030 20000 39826 40324 53015 60006 885// 91800 333 10035 20012=
07434,1997-01-27 21:00:00,2,1033.8,1.2,80,-1,11000,18.52,,,60,,,,,,,,,,,wg-a,,,,AAXX 27214 07434 12/61 /0610 10020 21010 39838 40338 51012 60006 92100=
07434,1997-01-28 00:00:00,0,1034.4,0.3,86,-2,10000,11.112,,,40,,,,,,,,,,,wg-a,,,,AAXX 28004 07434 12460 /0406 10000 21020 39841 40344 52003 60006 86500 90000=
07434,1997-01-28 03:00:00,-2,1034.2,-0.6,86,-4,10000,14.816,,,30,,,,,,,,,,,wg-a,,,,AAXX 28034 07434 12460 /0308 11020 21040 39835 40342 58006 60006 85500 90300=
07434,1997-01-28 06:00:00,-2,1034.5,0.2,80,-5,10000,18.52,,,60,-2.7,2.6,,,,,,,,,wg-a,,,,AAXX 28064 07434 02460 /0610 11020 21050 39837 40345 50002 60006 86500 90600 333 10026 21027 60004=
07434,1997-01-28 09:00:00,-1,1034.1,-0.2,74,-5,10000,22.224,,,40,,,,,,,,,,,wg-a,,,,AAXX 28094 07434 12460 80412 11010 21050 39835 40341 57002 60006 885// 90900=
07434,1997-01-28 12:00:00,-1,1033,-0.9,80,-4,7000,18.52,,,30,,,,,,,,,,70,wg-a,,,,AAXX 28124 07434 02457 70310 11010 21040 39826 40330 58009 61000 77072 878// 91200 333 6100=
07434,1997-01-28 15:00:00,0,1032.9,-0,69,-5,10000,25.928,,,80,,,,,,,,,,22,wg-a,,,,AAXX 28154 07434 02560 70814 10000 21050 39826 40329 55000 61000 72272 878// 91500 333 ////=
07434,1997-01-28 18:00:00,-1,1033.9,0.8,74,-5,12000,22.224,,,70,-2.2,0.3,,,,,,,,1,wg-a,,,,AAXX 28184 07434 12662 /0712 11010 21050 39834 40339 53008 60006 70171 81500 91800 333 10003 21022=
07434,1997-01-28 21:00:00,-1,1034.6,0.6,80,-4,12000,18.52,,,70,,,,,,,,,,,wg-a,,,,AAXX 28214 07434 12/62 00710 11010 21040 39840 40346 51006 60006 80000 92100=
07434,1997-01-29 00:00:00,-2,1035.1,0.3,86,-4,8000,14.816,,,70,,,,,,,,,,,wg-a,,,,AAXX 29004 07434 12/58 00708 11020 21040 39843 40351 53003 60006 80000 90000=
07434,1997-01-29 03:00:00,-1,1034.5,-0.3,86,-3,8000,14.816,,,50,,,,,,,,,,,wg-a,,,,AAXX 29034 07434 12/58 00508 11010 21030 39840 40345 57003 60006 80000 90300=
07434,1997-01-29 06:00:00,0,1033.7,-0.6,80,-3,8000,11.112,,,50,-2.1,0.3,,,,,,,,,wg-a,,,,AAXX 29064 07434 02/58 00506 10000 21030 39834 40337 58006 60006 80000 90600 333 10003 21021 61000=
07434,1997-01-29 09:00:00,3,1033.9,0.7,75,-1,6000,11.112,,,90,,,,,,,,,,,wg-a,,,,AAXX 29094 07434 12/56 00906 10030 21010 39841 40339 53007 60006 80000 90900=
07434,1997-01-29 12:00:00,10,1032.1,-0.5,57,2,10000,11.112,,,80,,,,,,,,,,,wg-a,,,,AAXX 29124 07434 12/60 00806 10100 20020 39836 40321 58005 60006 80000 91200=
07434,1997-01-29 15:00:00,12,1030.3,-1.3,50,2,20000,7.408,,,90,,,,,,,,,,,wg-a,,,,AAXX 29154 07434 12/70 00904 10120 20020 39823 40303 56013 60006 80000 91500=
07434,1997-01-29 18:00:00,8,1031.5,0.4,66,2,12000,14.816,,,10,-0.1,12.3,,,,,,,,,wg-a,,,,AAXX 29184 07434 12/62 00108 10080 20020 39827 40315 53004 60006 80000 91800 333 10123 21001=
07434,1997-01-29 21:00:00,5,1032.4,0.4,75,1,15000,11.112,,,60,,,,,,,,,,,wg-a,,,,AAXX 29214 07434 12/65 00606 10050 20010 39831 40324 52004 60006 80000 92100=
07434,1997-01-30 00:00:00,4,1032.5,-0.1,81,1,12000,7.408,,,50,,,,,,,,,,,wg-a,,,,AAXX 30004 07434 12/62 00504 10040 20010 39830 40325 55001 60006 80000 90000=
07434,1997-01-30 03:00:00,4,1032.3,-0.2,75,0,10000,7.408,,,70,,,,,,,,,,,wg-a,,,,AAXX 30034 07434 12/60 00704 10040 20000 39828 40323 58002 60006 80000 90300=
07434,1997-01-30 06:00:00,3,1032.2,-0.4,81,0,12000,7.408,,,60,2.6,8,,,,,,,,,wg-a,,,,AAXX 30064 07434 02/62 00604 10030 20000 39824 40322 57004 60006 80000 90600 333 10080 20026 60004=
07434,1997-01-30 09:00:00,5,1032.7,0.9,75,1,12000,7.408,,,80,,,,,,,,,,,wg-a,,,,AAXX 30094 07434 12/62 10804 10050 20010 39833 40327 53009 60006 80001 90900=
07434,1997-01-30 12:00:00,12,1031.2,-0.3,62,5,10000,3.704,,,140,,,,,,,,,,,wg-a,,,,AAXX 30124 07434 12/60 01402 10120 20050 39830 40312 58003 60006 80000 91200=
07434,1997-01-30 15:00:00,14,1029.1,-1.6,51,4,10000,3.704,,,210,,,,,,,,,,,wg-a,,,,AAXX 30154 07434 12/60 /2102 10140 20040 39814 40291 57016 60006 91500=
07434,1997-01-30 18:00:00,7,1030,-0.2,76,3,10000,11.112,,,20,2.5,13.8,,,,,,,,,wg-a,,,,AAXX 30184 07434 12/60 10206 10070 20030 39812 40300 55002 60006 80001 91800 333 10138 20025=
07434,1997-01-31 00:00:00,5,1030,-0.4,52,-4,10000,7.408,,,60,,,,,,,,,,,wg-a,,,,AAXX 31004 07434 12/60 00604 10050 21040 39807 40300 58004 60006 80000 90000=
07434,1997-01-31 03:00:00,3,1030,-0.3,60,-4,10000,7.408,,,50,,,,,,,,,,,wg-a,,,,AAXX 31034 07434 12/60 00504 10030 21040 39804 40300 58003 60006 80000 90300=
07434,1997-01-31 09:00:00,5,1029.7,0.5,56,-3,12000,7.408,,,60,,,,,,,,,,,wg-a,,,,AAXX 31094 07434 12/62 00604 10050 21030 39804 40297 53005 60006 80000 90900=
07434,1997-01-31 12:00:00,12,1027.4,-1,50,2,8000,3.704,,,120,,,,,,,,,,,wg-a,,,,AAXX 31124 07434 12/58 01202 10120 20020 39794 40274 58010 60006 80000 91200=
07434,1997-01-31 15:00:00,11,1026.5,-1,54,2,8000,14.816,,,340,,,,,,,,,,,wg-a,,,,AAXX 31154 07434 12/58 03408 10110 20020 39784 40265 56010 60006 80000 91500=
07434,1997-01-31 18:00:00,7,1027.2,-0,57,-1,12000,11.112,,,20,0.6,12,,,,,,,,,wg-a,,,,AAXX 31184 07434 12/62 10206 10070 21010 39784 40272 55000 60006 80001 91800 333 10120 20006=
07434,1997-01-31 21:00:00,6,1027.7,0.3,49,-4,12000,7.408,,,50,,,,,,,,,,,wg-a,,,,AAXX 31214 07434 12/62 10504 10060 21040 39787 40277 51003 60006 80001 92100=
07434,1997-02-01 00:00:00,3,1028.2,0,65,-3,10000,7.408,,,40,,,,,,,,,,,wg-a,,,,AAXX 01004 07434 12/60 10404 10030 21030 39787 40282 50000 60006 80001 90000=
07434,1997-02-01 03:00:00,1,1028.4,-0.2,75,-3,8000,7.408,,,50,,,,,,,,,,,wg-a,,,,AAXX 01034 07434 12/58 20504 10010 21030 39785 40284 58002 60006 80001 90300=
07434,1997-02-01 06:00:00,0,1028.8,0.2,69,-5,8000,3.704,,,60,0,7.3,,,,,,,,,wg-a,,,,AAXX 01064 07434 02/58 20602 10000 21050 39787 40288 51002 60006 80001 90600 333 10073 20000 60004=
07434,1997-02-01 09:00:00,2,1029,0.6,64,-4,10000,3.704,,,60,,,,,,,,,,,wg-a,,,,AAXX 01094 07434 12/60 20602 10020 21040 39793 40290 52006 60006 81031 90900=
07434,1997-02-01 12:00:00,8,1028,0.1,61,1,8000,7.408,,,190,,,,,,,,,,,wg-a,,,,AAXX 01124 07434 12758 51904 10080 20010 39794 40280 50001 60006 84531 91200=
07434,1997-02-01 15:00:00,9,1027.2,-0.6,71,4,8000,3.704,,,280,,,,,,,,,,,wg-a,,,,AAXX 01154 07434 12558 72802 10090 20040 39788 40272 56006 60006 8553/ 91500=
07434,1997-02-01 18:00:00,7,1028,0.4,81,4,500,3.704,,,290,-0.4,9.2,,,,,,,,,wg-a,,,,AAXX 01184 07434 12300 82902 10070 20040 39792 40280 52004 60006 886// 91800 333 10092 21004=
07434,1997-02-01 21:00:00,6,1027.9,-0.2,93,5,500,3.704,,,270,,,,,,,,,,,wg-a,,,,AAXX 01214 07434 12200 82702 10060 20050 39790 40279 58002 60006 886// 92100=
07434,1997-02-02 06:00:00,5,1026.4,-0.3,93,4,400,3.704,,,300,4.7,7,,,,,,,,43,wg-a,,,,AAXX 02064 07434 02/04 93002 10050 20040 39773 40264 56003 60006 74344 89/// 90600 333 10070 20047 60004=
07434,1997-02-02 09:00:00,5,1026.2,-0.1,100,5,500,0,,,0,,,,,,,,,,44,wg-a,,,,AAXX 02094 07434 12105 80000 10050 20050 39772 40262 57001 60006 74444 886// 90900=
07434,1997-02-02 12:00:00,6,1026.2,0.2,100,6,8000,0,,,0,,,,,,,,,,1,wg-a,,,,AAXX 02124 07434 12158 70000 10060 20060 39774 40262 50002 60006 70142 876// 91200=
07434,1997-02-02 15:00:00,7,1025.5,-0.5,87,5,15000,3.704,,,270,,,,,,,,,,,wg-a,,,,AAXX 02154 07434 12365 72702 10070 20050 39769 40255 56005 60006 875// 91500=
07434,1997-02-02 18:00:00,6,1026.1,0.3,93,5,4000,7.408,,,10,4.8,7.4,,,,,,,,10,wg-a,,,,AAXX 02184 07434 12140 80104 10060 20050 39772 40261 53003 60006 71022 875// 91800 333 10074 20048=
07434,1997-02-02 21:00:00,4,1026.9,0.5,93,3,3000,14.816,,,10,,,,1,,,,,,10,wg-a,,,,AAXX 02214 07434 12130 80108 10040 20030 39777 40269 53005 60017 71062 875// 92100=
07434,1997-02-03 00:00:00,3,1027.2,0.1,93,2,10000,7.408,,,50,,,,1,,,,,,21,wg-a,,,,AAXX 03004 07434 02160 80504 10030 20020 39778 40272 50001 60026 72165 8757/ 90000 333 60017=
07434,1997-02-03 03:00:00,3,1026.5,-0.7,93,2,10000,7.408,,,40,,,,,,,,,,,wg-a,,,,AAXX 03034 07434 12760 70404 10030 20020 39771 40265 56007 60006 875// 90300=
07434,1997-02-03 06:00:00,1,1027.8,0.8,93,0,8000,14.816,,,20,0.7,5.7,,,,,2,,,,wg-a,,,,AAXX 03064 07434 02658 20208 10010 20000 39779 40278 52008 60006 82500 90600 333 10057 20007 60024=
07434,1997-02-03 09:00:00,2,1029,1.4,87,0,7000,11.112,,,70,,,,,,,,,,,wg-a,,,,AAXX 03094 07434 12757 30706 10020 20000 39793 40290 51014 60006 81530 90900=
07434,1997-02-03 12:00:00,7,1028.1,0,66,1,11000,14.816,,,40,,,,,,,,,,,wg-a,,,,AAXX 03124 07434 12461 20408 10070 20010 39793 40281 50000 60006 82130 91200=
07434,1997-02-03 15:00:00,7,1027.6,-0.4,70,2,500,14.816,,,10,,,,,,,,,,,wg-a,,,,AAXX 03154 07434 12600 20108 10070 20020 39789 40276 55004 60006 81101 91500=
07434,1997-02-03 18:00:00,4,1028.7,0.4,87,2,12000,11.112,,,20,0.7,8.3,,,,,,,,,wg-a,,,,AAXX 03184 07434 12/62 30206 10040 20020 39793 40287 52004 60006 81034 91800 333 10083 20007=
07434,1997-02-03 21:00:00,1,1029.7,0.5,100,1,3000,11.112,,,40,,,,,,,,,,28,wg-a,,,,AAXX 03214 07434 12130 30406 10010 20010 39798 40297 50005 60006 72841 83600 92100=
07434,1997-02-04 00:00:00,-4,1029.6,-0.3,100,-4,400,3.704,,,110,-3.6,3.6,,,,,800,,,48,wg-a,,,,AAXX 04004 07434 02104 61102 11040 21040 39788 40296 56003 60006 74844 8/600 90000 333 10036 21036 68004=
07434,1997-02-04 03:00:00,-3,1029.8,-0.5,100,-3,200,3.704,,,110,,,,,,,,,,49,wg-a,,,,AAXX 04034 07434 12/02 91102 11030 21030 39791 40298 58005 60006 74944 89/// 90300=
07434,1997-02-04 06:00:00,-3,1029.6,-0.3,93,-4,400,3.704,,,110,-3.6,3.6,,,,,,,,48,wg-a,,,,AAXX 04064 07434 02104 /1102 11030 21040 39788 40296 56003 60006 74844 85600 90600 333 10036 21036 60004=
07434,1997-02-04 09:00:00,-1,1029.2,0.2,100,-1,200,7.408,,,130,,,,,,,,,,49,wg-a,,,,AAXX 04094 07434 12/02 91304 11010 21010 39790 40292 53002 60006 74944 89/// 90900=
07434,1997-02-04 12:00:00,2,1027.7,-0.9,100,2,1800,11.112,,,160,,,,,,,,,,10,wg-a,,,,AAXX 04124 07434 12118 81606 10020 20020 39781 40277 58009 60006 71042 91200=
07434,1997-02-04 15:00:00,4,1025.6,-1.7,93,3,4500,11.112,,,180,,,,,,,,,,10,wg-a,,,,AAXX 04154 07434 12245 71806 10040 20030 39764 40256 56017 60006 71022 876// 91500=
07434,1997-02-04 18:00:00,3,1025.7,-0.1,93,2,4000,18.52,,,200,-3.6,3.9,,,,,,,,10,wg-a,,,,AAXX 04184 07434 12240 72010 10030 20020 39763 40257 55001 60006 71022 876// 91800 333 10039 21036=
07434,1997-02-04 21:00:00,3,1025.9,0.2,93,2,8000,18.52,,,210,,,,,,,,,,,wg-a,,,,AAXX 04214 07434 12358 82110 10030 20020 39765 40259 53002 60006 886// 92100=
07434,1997-02-05 00:00:00,3,1025.5,-0.4,93,2,8000,18.52,,,190,,,,,,,,,,,wg-a,,,,AAXX 05004 07434 12358 81910 10030 20020 39761 40255 56004 60006 885// 90000=
07434,1997-02-05 03:00:00,3,1024.2,-1.2,100,3,7000,18.52,,,190,,,,,,,,,,,wg-a,,,,AAXX 05034 07434 12257 81910 10030 20030 39749 40242 58012 60006 886// 90300=
07434,1997-02-05 06:00:00,4,1023,-0.9,100,4,3000,22.224,,,200,2.5,4.1,,,,,,,,10,wg-a,,,,AAXX 05064 07434 02130 82012 10040 20040 39740 40230 57009 61000 71065 887// 90600 333 10041 20025 6001=
07434,1997-02-05 09:00:00,6,1023.4,0.7,100,6,3000,11.112,,,240,,,,1,,,,,,10,wg-a,,,,AAXX 05094 07434 12130 82406 10060 20060 39747 40234 53007 60017 71055 887// 90900=
07434,1997-02-05 12:00:00,9,1024,1,93,8,4000,22.224,,,290,,,,2,,,,,,10,wg-a,,,,AAXX 05124 07434 02140 82912 10090 20080 39757 40240 53010 60036 71065 887// 91200 333 60027=
07434,1997-02-05 15:00:00,10,1025.7,1.8,71,5,25000,25.928,,,330,,,,,,,,,,1,wg-a,,,,AAXX 05154 07434 02475 43314 10100 20050 39775 40257 53018 61000 70165 8/800 91500 333 ////=
07434,1997-02-05 18:00:00,6,1029.4,2.8,75,2,20000,7.408,,,340,4.1,10.8,,,,,,,,1,wg-a,,,,AAXX 05184 07434 12670 /3404 10060 20020 39803 40294 53028 60006 70165 81501 91800 333 10108 20041=
07434,1997-02-05 21:00:00,5,1032,2.3,81,2,15000,7.408,,,10,,,,,,,,,,,wg-a,,,,AAXX 05214 07434 12565 20104 10050 20020 39826 40320 51023 60006 82500 92100=
07434,1997-02-06 00:00:00,4,1033.4,1.2,87,2,15000,7.408,,,40,,,,,,,,,,,wg-a,,,,AAXX 06004 07434 12/65 00404 10040 20020 39838 40334 53012 60006 80000 90000=
07434,1997-02-06 06:00:00,1,1033.3,-0.1,93,0,500,7.408,,,70,0.6,5.7,,,,,3,,,11,wg-a,,,,AAXX 06064 07434 02/00 00704 10010 20000 39832 40333 56001 60006 71100 80000 90600 333 10057 20006 60034=
07434,1997-02-06 09:00:00,3,1033.3,0.3,87,1,3000,7.408,,,100,,,,,,,,,,10,wg-a,,,,AAXX 06094 07434 12/30 31004 10030 20010 39835 40333 52003 60006 71000 83031 90900=
07434,1997-02-06 12:00:00,8,1032,-0.3,53,-1,10000,7.408,,,140,,,,,,,,,,,wg-a,,,,AAXX 06124 07434 12/60 11404 10080 21010 39832 40320 58003 60006 81031 91200=
07434,1997-02-06 15:00:00,12,1029.6,-1.6,40,-1,60000,11.112,,,130,,,,,,,,,,,wg-a,,,,AAXX 06154 07434 12/86 11306 10120 21010 39816 40296 58016 60006 81031 91500=
07434,1997-02-06 18:00:00,9,1029.5,-0.7,46,-2,50000,3.704,,,40,0.4,12.4,,,,,,,,,wg-a,,,,AAXX 06184 07434 12/84 10402 10090 21020 39809 40295 56007 60006 81031 91800 333 10124 20004=
07434,1997-02-06 21:00:00,7,1029.2,-0.6,53,-2,500,7.408,,,80,,,,,,,,,,,wg-a,,,,AAXX 06214 07434 12/00 10804 10070 21020 39803 40292 58006 60006 80001 92100=
07434,1997-02-07 00:00:00,5,1030,0.5,56,-3,500,3.704,,,90,,,,,,,,,,,wg-a,,,,AAXX 07004 07434 12/00 00902 10050 21030 39808 40300 53005 60006 80000 90000=
07434,1997-02-07 03:00:00,5,1029.7,-0.4,52,-4,500,7.408,,,100,,,,,,,,,,,wg-a,,,,AAXX 07034 07434 12/00 01004 10050 21040 39804 40297 58004 60006 80000 90300=
07434,1997-02-07 06:00:00,5,1030,0.3,45,-6,40000,11.112,,,120,4.6,9.4,,,,,,,,,wg-a,,,,AAXX 07064 07434 02/82 01206 10050 21060 39807 40300 53003 60006 80000 90600 333 10094 20046 60004=
07434,1997-02-07 09:00:00,5,1031.2,1.2,48,-5,60000,7.408,,,130,,,,,,,,,,,wg-a,,,,AAXX 07094 07434 12/86 71304 10050 21050 39819 40312 52012 60006 87030 90900=
07434,1997-02-07 12:00:00,12,1030.6,0.5,35,-3,60000,11.112,,,180,,,,,,,,,,,wg-a,,,,AAXX 07124 07434 12/86 61806 10120 21030 39824 40306 50005 60006 86030 91200=
07434,1997-02-07 15:00:00,14,1029.7,-0.5,36,-1,60000,11.112,,,170,,,,,,,,,,,wg-a,,,,AAXX 07154 07434 12/86 41706 10140 21010 39819 40297 56005 60006 83031 91500=
07434,1997-02-07 18:00:00,10,1031.3,1,46,-1,60000,3.704,,,50,3.8,14.1,,,,,,,,,wg-a,,,,AAXX 07184 07434 12/86 10502 10100 21010 39829 40313 53010 60006 81031 91800 333 10141 20038=
07434,1997-02-07 21:00:00,10,1032.3,0.8,43,-2,15000,3.704,,,110,,,,,,,,,,,wg-a,,,,AAXX 07214 07434 12/65 21102 10100 21020 39837 40323 51008 60006 82031 92100=
07434,1997-02-08 00:00:00,7,1033.4,0.6,49,-3,15000,3.704,,,100,,,,,,,,,,,wg-a,,,,AAXX 08004 07434 12/65 11002 10070 21030 39843 40334 51006 60006 81031 90000=
07434,1997-02-08 03:00:00,6,1033.1,-0.5,45,-5,15000,7.408,,,100,,,,,,,,,,,wg-a,,,,AAXX 08034 07434 12/65 11004 10060 21050 39838 40331 58005 60006 80001 90300=
07434,1997-02-08 06:00:00,5,1033.5,0.3,41,-7,25000,3.704,,,90,4.8,10.7,,,,,,,,,wg-a,,,,AAXX 08064 07434 02/75 10902 10050 21070 39841 40335 53003 60006 80001 90600 333 10107 20048 60004=
07434,1997-02-08 09:00:00,7,1034,0.8,39,-6,25000,3.704,,,80,,,,,,,,,,,wg-a,,,,AAXX 08094 07434 12/75 10802 10070 21060 39849 40340 51008 60006 80001 90900=
07434,1997-02-08 12:00:00,11,1032.6,-0.7,32,-5,25000,7.408,,,170,,,,,,,,,,,wg-a,,,,AAXX 08124 07434 12/75 11704 10110 21050 39842 40326 58007 60006 80001 91200=
07434,1997-02-08 15:00:00,14,1030.5,-1.5,31,-3,25000,7.408,,,150,,,,,,,,,,,wg-a,,,,AAXX 08154 07434 12/75 21504 10140 21030 39827 40305 56015 60006 80001 91500=
07434,1997-02-08 18:00:00,9,1031.4,0.1,43,-3,25000,0,,,0,5.2,13.9,,,,,,,,,wg-a,,,,AAXX 08184 07434 12/75 20000 10090 21030 39828 40314 53001 60006 80001 91800 333 10139 20052=
07434,1997-02-08 21:00:00,7,1032.1,0.3,49,-3,15000,3.704,,,210,,,,,,,,,,,wg-a,,,,AAXX 08214 07434 12/65 02102 10070 21030 39831 40321 53003 60006 80000 92100=
07434,1997-02-09 00:00:00,4,1032.8,0.2,65,-2,15000,7.408,,,50,,,,,,,,,,,wg-a,,,,AAXX 09004 07434 12/65 00504 10040 21020 39833 40328 52002 60006 80000 90000=
07434,1997-02-09 03:00:00,3,1032.1,-0.8,65,-3,15000,3.704,,,70,,,,,,,,,,,wg-a,,,,AAXX 09034 07434 12/65 00702 10030 21030 39825 40321 58008 60006 80000 90300=
07434,1997-02-09 06:00:00,2,1031.9,-0.4,69,-3,10000,7.408,,,80,2.3,9.2,,,,,,,,,wg-a,,,,AAXX 09064 07434 02/60 /0804 10020 21030 39821 40319 57004 60006 90600 333 10092 20023 60004=
07434,1997-02-09 09:00:00,5,1032.1,0.6,65,-1,15000,7.408,,,90,,,,,,,,,,,wg-a,,,,AAXX 09094 07434 12/65 10904 10050 21010 39827 40321 51006 60006 80001 90900=
07434,1997-02-09 12:00:00,11,1031.2,0.2,62,4,12000,7.408,,,190,,,,,,,,,,,wg-a,,,,AAXX 09124 07434 12/62 11904 10110 20040 39829 40312 50002 60006 80001 91200=
07434,1997-02-09 15:00:00,14,1029.2,-1.4,44,2,20000,7.408,,,190,,,,,,,,,,,wg-a,,,,AAXX 09154 07434 12/70 11904 10140 20020 39815 40292 56014 60006 80001 91500=
07434,1997-02-09 18:00:00,10,1030,0.2,53,1,20000,14.816,,,220,2.2,14.3,,,,,,,,,wg-a,,,,AAXX 09184 07434 12/70 02208 10100 20010 39817 40300 53002 60006 80000 91800 333 10143 20022=
07434,1997-02-09 21:00:00,8,1030.6,0.1,61,1,20000,3.704,,,180,,,,,,,,,,,wg-a,,,,AAXX 09214 07434 12/70 01802 10080 20010 39818 40306 51001 60006 80000 92100=
07434,1997-02-10 00:00:00,6,1030.5,-0.3,70,1,12000,3.704,,,170,,,,,,,,,,,wg-a,,,,AAXX 10004 07434 12/62 01702 10060 20010 39815 40305 57003 60006 80000 90000=
07434,1997-02-10 03:00:00,5,1029.2,-1.6,75,1,10000,3.704,,,110,,,,,,,,,,,wg-a,,,,AAXX 10034 07434 12/60 01102 10050 20010 39799 40292 58016 60006 80000 90300=
07434,1997-02-10 06:00:00,4,1028.5,-0.8,75,0,9000,7.408,,,130,3.9,10.4,,,,,,,,,wg-a,,,,AAXX 10064 07434 02/59 31304 10040 20000 39791 40285 56008 60006 80001 90600 333 10104 20039 60004=
07434,1997-02-10 09:00:00,4,1028.5,-0.8,75,0,9000,7.408,,,130,3.9,10.4,,,,,,,,,wg-a,,,,AAXX 10094 07434 02/59 31304 10040 20000 39791 40285 56008 60006 80001 90900 333 10104 20039 60004=
07434,1997-02-10 12:00:00,13,1025.3,-1.6,41,0,25000,31.484,,,200,,,,,,,,,,,wg-a,,,,AAXX 10124 07434 12/75 52017 10130 20000 39775 40253 58016 60006 80001 91200=
07434,1997-02-10 18:00:00,11,1025,0.4,54,2,20000,14.816,,,230,3.3,13.9,,,,,,,,,wg-a,,,,AAXX 10184 07434 12570 82308 10110 20020 39769 40250 53004 60006 8/53/ 91800 333 10139 20033=
07434,1997-02-10 21:00:00,8,1026.2,0.8,93,7,1200,14.816,,,220,,,,1,,,,,,51,wg-a,,,,AAXX 10214 07434 12112 82208 10080 20070 39777 40262 51008 60017 75165 887// 92100=
07434,1997-02-11 00:00:00,8,1026.9,0.7,100,8,600,11.112,,,230,,,,,,,,,,45,wg-a,,,,AAXX 11004 07434 12/06 92306 10080 20080 39784 40269 53007 60026 74565 89/// 90000=
07434,1997-02-11 03:00:00,8,1026.3,-0.6,93,7,6000,3.704,,,250,,,,1,,,,,,28,wg-a,,,,AAXX 11034 07434 12156 82502 10080 20070 39778 40263 58006 60017 72854 887// 90300=
07434,1997-02-11 06:00:00,7,1027,0.5,100,7,12000,7.408,,,290,6.9,10.5,,,,,,,,21,wg-a,,,,AAXX 11064 07434 02262 82904 10070 20070 39783 40270 50005 61000 72165 877// 90600 333 10105 20069 6003=
07434,1997-02-11 09:00:00,7,1027.7,0.7,100,7,10000,7.408,,,200,,,,,,,,,,28,wg-a,,,,AAXX 11094 07434 12260 92004 10070 20070 39790 40277 53007 60006 72842 897// 90900=
07434,1997-02-11 12:00:00,9,1027,-0.4,93,8,10000,18.52,,,220,,,,,,,,,,10,wg-a,,,,AAXX 11124 07434 02360 72210 10090 20080 39786 40270 58004 61000 71065 877// 91200 333 6100=
07434,1997-02-11 15:00:00,9,1026.5,-0.4,81,6,15000,14.816,,,250,,,,0,,,,,,61,wg-a,,,,AAXX 11154 07434 12465 72508 10090 20060 39782 40265 57004 60007 76165 8587/ 91500=
07434,1997-02-11 18:00:00,8,1026,-0.6,100,8,6000,22.224,,,210,6.8,9.5,,,,,,,,51,wg-a,,,,AAXX 11184 07434 02256 72112 10080 20080 39776 40260 56006 61000 75165 877// 91800 333 10095 20068 6001=
07434,1997-02-11 21:00:00,9,1026,0.1,100,9,700,18.52,,,250,,,,1,,,,,,10,wg-a,,,,AAXX 11214 07434 12107 82510 10090 20090 39777 40260 52001 60017 71065 887// 92100=
07434,1997-02-12 03:00:00,9,1026.2,-0.2,100,9,8000,14.816,,,240,,,,0,,,,,,61,wg-a,,,,AAXX 12034 07434 12158 82408 10090 20090 39779 40262 58002 60007 76162 887// 90300=
07434,1997-02-12 06:00:00,9,1025.8,-0.4,93,8,8000,14.816,,,250,8.2,9.4,,,,,,,,50,wg-a,,,,AAXX 12064 07434 02158 82508 10090 20080 39775 40258 57004 61000 75065 887// 90600 333 10094 20082 6003=
07434,1997-02-12 09:00:00,9,1025.7,0,93,8,12000,18.52,,,240,,,,,,,,,,2,wg-a,,,,AAXX 12094 07434 02362 72410 10090 20080 39775 40257 50000 61000 70252 877// 90900 333 ////=
07434,1997-02-12 12:00:00,11,1023.5,-1.8,76,7,20000,18.52,,,250,,,,,,,,,,1,wg-a,,,,AAXX 12124 07434 02470 72510 10110 20070 39757 40235 58018 61000 70152 87800 91200 333 ////=
07434,1997-02-12 15:00:00,11,1021.2,-2.3,76,7,11000,22.224,,,240,,,,,,,,,,,wg-a,,,,AAXX 12154 07434 12/61 /2412 10110 20070 39734 40212 56023 60006 91500=
07434,1997-02-12 18:00:00,10,1019.8,-1.5,82,7,20000,22.224,,,220,8.8,11.3,,,,,,,,61,wg-a,,,,AAXX 12184 07434 02570 72212 10100 20070 39719 40198 56015 61000 76162 875// 91800 333 10113 20088 6100=
07434,1997-02-12 21:00:00,9,1018.8,-1,93,8,8000,31.484,,50.004,230,,,,1,,,,,,51,wg-a,,,,AAXX 12214 07434 12258 82317 10090 20080 39709 40188 58010 60017 75165 877// 92100 333 91027=
07434,1997-02-13 00:00:00,9,1018.8,-0.1,87,7,12000,29.632,,59.264,260,,,,5,,,,,,21,wg-a,,,,AAXX 13004 07434 02362 52616 10090 20070 39708 40188 55001 60076 72165 85500 90000 333 60057 91032=
07434,1997-02-13 03:00:00,8,1017.6,-1.3,93,7,12000,14.816,,,250,,,,3,,,,,,21,wg-a,,,,AAXX 13034 07434 12362 72508 10080 20070 39695 40176 57013 60037 72122 875// 90300=
07434,1997-02-13 06:00:00,8,1015.9,-1.6,87,6,15000,29.632,,44.448,240,7.2,9.8,,,,,,,,60,wg-a,,,,AAXX 13064 07434 02465 82416 10080 20060 39679 40159 58016 61000 76062 875// 90600 333 10098 20072 6009 91024=
07434,1997-02-13 09:00:00,8,1016.5,0.6,87,6,500,29.632,,48.152,270,,,,6,,,,,,25,wg-a,,,,AAXX 13094 07434 12300 72716 10080 20060 39685 40165 53006 60067 72586 878// 90900 333 91026=
07434,1997-02-13 12:00:00,7,1019.7,2.8,66,1,9000,35.188,,55.56,290,,,,0,,,,,,1,wg-a,,,,AAXX 13124 07434 02459 62919 10070 20010 39713 40197 51028 60066 70186 86831 91200 333 60007 91030=
07434,1997-02-13 18:00:00,5,1021.5,0.3,81,2,15000,7.408,,,270,4.6,8.2,,,,,,,,,wg-a,,,,AAXX 13184 07434 12465 72704 10050 20020 39726 40215 53003 60006 8783/ 91800 333 10082 20046=
07434,1997-02-13 21:00:00,5,1019.7,-1.6,87,3,10000,11.112,,,220,,,,,,,,,,,wg-a,,,,AAXX 13214 07434 12560 72206 10050 20030 39710 40197 57016 60006 83531 92100=
07434,1997-02-14 00:00:00,4,1015.7,-4,100,4,6000,22.224,,,180,,,,1,,,,,,51,wg-a,,,,AAXX 14004 07434 02256 71812 10040 20040 39670 40157 58040 60016 75165 877// 90000 333 60017=
07434,1997-02-14 03:00:00,7,1011.2,-3.8,93,6,6000,25.928,,,220,,,,4,,,,,,61,wg-a,,,,AAXX 14034 07434 12156 82214 10070 20060 39632 40112 56038 60047 76166 887// 90300=
07434,1997-02-14 06:00:00,10,1008.6,-1.9,100,10,3000,22.224,,,260,4.2,10,,,,,,,,63,wg-a,,,,AAXX 14064 07434 02130 82612 10100 20100 39613 40086 56019 61000 76366 887// 90600 333 10100 20042 6019=
07434,1997-02-14 09:00:00,10,1010,1.3,93,9,6000,18.52,,,270,,,,5,,,,,,61,wg-a,,,,AAXX 14094 07434 12156 82710 10100 20090 39626 40100 51013 60057 76166 877// 90900=
07434,1997-02-14 12:00:00,11,1009.3,-0.4,82,8,10000,29.632,,46.3,260,,,,1,,,,,,1,wg-a,,,,AAXX 14124 07434 02460 72616 10110 20080 39622 40093 56004 60056 70165 87800 91200 333 60017 91025=
07434,1997-02-14 15:00:00,10,1007.8,-1.7,93,9,10000,25.928,,42.596,250,,,,2,,,,,,25,wg-a,,,,AAXX 14154 07434 12360 72514 10100 20090 39605 40078 58017 60027 72586 877// 91500 333 91023=
07434,1997-02-14 18:00:00,9,1006.4,-1.5,87,7,8000,25.928,,44.448,240,8.6,12,,,,,,,,80,wg-a,,,,AAXX 14184 07434 02258 72414 10090 20070 39590 40064 56015 61000 78086 877// 91800 333 10120 20086 6100 91024=
07434,1997-02-14 21:00:00,9,1005.6,-0.8,87,7,10000,22.224,,,250,,,,,,,,,,2,wg-a,,,,AAXX 14214 07434 02360 72512 10090 20070 39582 40056 56008 61000 70286 87700 92100 333 ////=
07434,1997-02-15 00:00:00,9,1004.6,-1,87,7,10000,22.224,,,250,,,,1,,,,,,21,wg-a,,,,AAXX 15004 07434 02360 72512 10090 20070 39572 40046 56010 60016 72186 87700 90000 333 60017=
07434,1997-02-15 03:00:00,8,1005,0.3,93,7,10000,18.52,,,270,,,,3,,,,,,80,wg-a,,,,AAXX 15034 07434 12260 72710 10080 20070 39575 40050 53003 60037 78086 87700 90300=
07434,1997-02-15 06:00:00,6,1010.6,5,93,5,9000,35.188,,57.412,340,6,8.8,,,,,,,,60,wg-a,,,,AAXX 15064 07434 02259 73419 10060 20050 39625 40106 53050 61000 76086 87700 90600 333 10088 20060 6012 91031=
07434,1997-02-15 09:00:00,4,1020.2,8.7,87,2,10000,25.928,,,360,,,,0,,,,,,21,wg-a,,,,AAXX 15094 07434 12260 83614 10040 20020 39712 40202 51087 60007 72162 888// 90900=
07434,1997-02-15 12:00:00,6,1023.1,3.1,61,-1,40000,22.224,,,350,,,,,,,,,,1,wg-a,,,,AAXX 15124 07434 12582 23512 10060 21010 39743 40231 51031 60016 70161 82100 91200=
07434,1997-02-15 18:00:00,3,1026.8,1.3,70,-2,60000,7.408,,,340,3.3,6.8,,,,,,,,,wg-a,,,,AAXX 15184 07434 12686 /3404 10030 21020 39774 40268 53013 60006 81101 91800 333 10068 20033=
07434,1997-02-15 21:00:00,3,1026.9,0,70,-2,500,7.408,,,30,,,,,,,,,,,wg-a,,,,AAXX 15214 07434 12/00 10304 10030 21020 39774 40269 50000 60006 80001 92100=
07434,1997-02-16 00:00:00,2,1026.4,-0.6,75,-2,25000,7.408,,,60,,,,,,,,,,,wg-a,,,,AAXX 16004 07434 12/75 10604 10020 21020 39768 40264 56006 60006 80001 90000=
07434,1997-02-16 03:00:00,-1,1025.3,-1.5,93,-2,18000,7.408,,,100,,,,,,,,,,,wg-a,,,,AAXX 16034 07434 12/68 11004 11010 21020 39753 40253 58015 60006 80001 90300=
07434,1997-02-16 06:00:00,0,1024.1,-1.1,80,-3,500,14.816,,,90,-1.2,3.4,,,,,,,,,wg-a,,,,AAXX 16064 07434 02/00 40908 10000 21030 39742 40241 56011 60006 80001 90600 333 10034 21012 60004=
07434,1997-02-16 09:00:00,2,1023.3,-0.4,69,-3,500,11.112,,,100,,,,,,,,,,,wg-a,,,,AAXX 16094 07434 12/00 41006 10020 21030 39738 40233 58004 60006 80001 90900=
07434,1997-02-16 12:00:00,8,1021.3,-0.9,46,-3,50000,11.112,,,150,,,,,,,,,,,wg-a,,,,AAXX 16124 07434 12/84 51506 10080 21030 39729 40213 57009 60006 81021 91200=
07434,1997-02-16 15:00:00,9,1020.1,-0.9,40,-4,50000,7.408,,,180,,,,,,,,,,,wg-a,,,,AAXX 16154 07434 12/84 71804 10090 21040 39720 40201 56009 60006 85072 91500=
07434,1997-02-16 18:00:00,7,1021.1,0.5,49,-3,500,11.112,,,220,-0.7,9.5,,,,,,,,,wg-a,,,,AAXX 16184 07434 12/00 62206 10070 21030 39725 40211 53005 60006 85072 91800 333 10095 21007=
07434,1997-02-16 21:00:00,5,1022.9,1.5,81,2,10000,3.704,,,250,,,,0,,,,,,21,wg-a,,,,AAXX 16214 07434 12560 72502 10050 20020 39740 40229 51015 60007 72162 8457/ 92100=
07434,1997-02-17 00:00:00,5,1023.8,0.8,87,3,10000,0,,,0,,,,,,,,,,3,wg-a,,,,AAXX 17004 07434 12360 80000 10050 20030 39748 40238 51008 60006 70362 8657/ 90000=
07434,1997-02-17 03:00:00,5,1024,0.2,93,4,6000,3.704,,,160,,,,0,,,,,,,wg-a,,,,AAXX 17034 07434 12256 81602 10050 20040 39750 40240 51002 60007 887// 90300=
07434,1997-02-17 06:00:00,5,1024.5,0.6,100,5,500,11.112,,,200,4.5,6.6,,,,,2,,,10,wg-a,,,,AAXX 17064 07434 02/05 92006 10050 20050 39756 40245 53006 60006 71084 89/// 90600 333 10066 20045 60024=
07434,1997-02-17 09:00:00,6,1025.4,1,100,6,500,14.816,,,210,,,,0,,,,,,10,wg-a,,,,AAXX 17094 07434 12200 82108 10060 20060 39766 40254 53010 60007 71065 885// 90900=
07434,1997-02-17 12:00:00,9,1025.4,0.5,76,5,500,14.816,,,260,,,,0,,,,,,1,wg-a,,,,AAXX 17124 07434 02400 62608 10090 20050 39771 40254 51005 60016 70186 85801 91200 333 60007=
07434,1997-02-17 15:00:00,10,1024.2,-0.9,66,4,500,18.52,,,250,,,,,,,,,,,wg-a,,,,AAXX 17154 07434 12500 72510 10100 20040 39762 40242 56009 60006 8583/ 91500=
07434,1997-02-17 18:00:00,7,1025.9,1.1,93,6,25000,7.408,,,240,5.4,10.6,,0,,,,,,2,wg-a,,,,AAXX 17184 07434 02475 72404 10070 20060 39773 40259 53011 60006 70286 8587/ 91800 333 10106 20054 60007=
07434,1997-02-17 21:00:00,7,1026.7,0.7,93,6,10000,14.816,,,240,,,,0,,,,,,2,wg-a,,,,AAXX 17214 07434 12360 82408 10070 20060 39780 40267 51007 60007 70286 876// 92100=
07434,1997-02-18 00:00:00,7,1025.8,-0.9,93,6,6000,18.52,,,220,,,,0,,,,,,51,wg-a,,,,AAXX 18004 07434 02256 82210 10070 20060 39771 40258 58009 60016 75186 877// 90000 333 60007=
07434,1997-02-18 03:00:00,7,1024.2,-1.5,93,6,6000,22.224,,,210,,,,,,,,,,2,wg-a,,,,AAXX 18034 07434 02256 82112 10070 20060 39756 40242 58015 61000 70252 877// 90300 333 ////=
07434,1997-02-18 06:00:00,7,1024.1,-0.1,87,5,6000,29.632,,,230,6.7,7.3,,,,,,,,51,wg-a,,,,AAXX 18064 07434 02456 82316 10070 20050 39755 40241 55001 61000 75152 877// 90600 333 10073 20067 6001=
07434,1997-02-18 09:00:00,7,1024.5,0.4,93,6,6000,29.632,,,220,,,,,,,,,,51,wg-a,,,,AAXX 18094 07434 02256 82216 10070 20060 39759 40245 50004 61000 75165 877// 90900 333 ////=
07434,1997-02-18 12:00:00,9,1024.9,0.7,93,8,10000,22.224,,,240,,,,1,,,,,,21,wg-a,,,,AAXX 18124 07434 02360 /2412 10090 20080 39766 40249 51007 60016 72165 877// 91200 333 60017=
07434,1997-02-18 15:00:00,11,1025.1,0.6,71,6,10000,29.632,,57.412,270,,,,,,,,,,,wg-a,,,,AAXX 18154 07434 12560 /2716 10110 20060 39772 40251 53006 60006 85202 91500 333 91031=
07434,1997-02-18 18:00:00,8,1029.1,3.3,81,5,10000,18.52,,,280,6.7,11.5,,,,,,,,2,wg-a,,,,AAXX 18184 07434 02560 /2810 10080 20050 39805 40291 53033 60006 70286 85800 91800 333 10115 20067 61000=
07434,1997-02-18 21:00:00,6,1032.4,2.8,87,4,15000,14.816,,,290,,,,,,,,,,,wg-a,,,,AAXX 18214 07434 12565 22908 10060 20040 39833 40324 51028 60006 82500 92100=
07434,1997-02-19 00:00:00,4,1034.2,1.4,93,3,12000,11.112,,,270,,,,,,,,,,,wg-a,,,,AAXX 19004 07434 12/62 62706 10040 20030 39847 40342 51014 60006 81034 90000=
07434,1997-02-19 03:00:00,3,1034.8,0.3,100,3,12000,7.408,,,230,,,,,,,,,,,wg-a,,,,AAXX 19034 07434 12/62 12304 10030 20030 39850 40348 50003 60006 81031 90300=
07434,1997-02-19 06:00:00,2,1035,0,100,2,8000,7.408,,,60,2.2,8.2,,,,,1,,,11,wg-a,,,,AAXX 19064 07434 02/58 /0604 10020 20020 39850 40350 50000 60006 71111 81031 90600 333 10082 20022 60014=
07434,1997-02-19 09:00:00,4,1034.4,-0.3,93,3,4000,11.112,,,150,,,,,,,,,,10,wg-a,,,,AAXX 19094 07434 12/40 51506 10040 20030 39847 40344 58003 60006 71041 81035 90900=
07434,1997-02-19 12:00:00,9,1030.9,-2.4,66,3,10000,22.224,,,170,,,,,,,,,,1,wg-a,,,,AAXX 19124 07434 12460 41712 10090 20030 39823 40309 58024 60006 70141 82132 91200=
07434,1997-02-19 15:00:00,11,1027.4,-3,62,4,10000,22.224,,,180,,,,,,,,,,,wg-a,,,,AAXX 19154 07434 12/60 61812 10110 20040 39793 40274 56030 60006 83035 91500=
07434,1997-02-19 18:00:00,8,1027.9,-0,76,4,10000,14.816,,,190,1.7,10.7,,,,,,,,,wg-a,,,,AAXX 19184 07434 12/60 61908 10080 20040 39793 40279 55000 60006 80005 91800 333 10107 20017=
07434,1997-02-19 21:00:00,8,1028.5,0.6,81,5,8000,18.52,,,220,,,,,,,,,,51,wg-a,,,,AAXX 19214 07434 02458 82210 10080 20050 39799 40285 53006 61000 75165 875// 92100 333 ////=
07434,1997-02-20 00:00:00,9,1029.2,0.8,93,8,8000,14.816,,,250,,,,0,,,,,,21,wg-a,,,,AAXX 20004 07434 02158 82508 10090 20080 39807 40292 53008 60006 72165 877// 90000 333 60007=
07434,1997-02-20 03:00:00,9,1029.6,0.5,100,9,8000,18.52,,,280,,,,1,,,,,,,wg-a,,,,AAXX 20034 07434 12258 72810 10090 20090 39812 40296 50005 60017 875// 90300=
07434,1997-02-20 06:00:00,7,1031.2,1.1,100,7,8000,7.408,,,270,7.2,9.3,,,,,1,,,1,wg-a,,,,AAXX 20064 07434 02258 52704 10070 20070 39823 40312 51011 60006 70162 85600 90600 333 10093 20072 60014=
07434,1997-02-20 12:00:00,11,1031.9,-0.5,66,5,15000,11.112,,,270,,,,,,,,,,,wg-a,,,,AAXX 20124 07434 12565 /2706 10110 20050 39836 40319 58005 60006 85200 91200=
07434,1997-02-20 18:00:00,10,1030.3,-0.1,66,4,15000,7.408,,,250,6.7,12.4,,,,,,,,,wg-a,,,,AAXX 20184 07434 12665 /2504 10100 20040 39819 40303 55001 60006 86500 91800 333 10124 20067=
07434,1997-02-20 21:00:00,8,1031,0.4,71,3,15000,7.408,,,230,,,,,,,,,,,wg-a,,,,AAXX 20214 07434 12665 /2304 10080 20030 39823 40310 51004 60006 86500 92100=
07434,1997-02-21 00:00:00,8,1031.3,0.3,81,5,15000,3.704,,,250,,,,,,,,,,,wg-a,,,,AAXX 21004 07434 12665 /2502 10080 20050 39826 40313 52003 60006 86500 90000=
07434,1997-02-21 03:00:00,7,1031.3,-0.3,76,3,12000,3.704,,,270,,,,,,,,,,,wg-a,,,,AAXX 21034 07434 12662 /2702 10070 20030 39823 40313 57003 60006 85500 90300=
07434,1997-02-21 06:00:00,7,1031.7,0.4,87,5,12000,7.408,,,210,6.5,10,,,,,,,,21,wg-a,,,,AAXX 21064 07434 02362 72104 10070 20050 39827 40317 53004 61000 72162 877// 90600 333 10100 20065 6000=
07434,1997-02-21 12:00:00,11,1033.4,0.8,82,8,20000,11.112,,,270,,,,,,,,,,,wg-a,,,,AAXX 21124 07434 12470 /2706 10110 20080 39850 40334 50008 60006 86200 91200=
07434,1997-02-21 15:00:00,12,1031.7,-1.3,71,7,40000,11.112,,,280,,,,,,,,,,,wg-a,,,,AAXX 21154 07434 12582 72806 10120 20070 39837 40317 56013 60006 86801 91500=
07434,1997-02-21 18:00:00,11,1032.4,0.4,76,7,500,3.704,,,310,6.6,12.8,,,,,,,,,wg-a,,,,AAXX 21184 07434 12500 /3102 10110 20070 39841 40324 53004 60006 86800 91800 333 10128 20066=
07434,1997-02-21 21:00:00,10,1033,0.3,82,7,10000,0,,,0,,,,,,,,,,,wg-a,,,,AAXX 21214 07434 12560 /0000 10100 20070 39844 40330 51003 60006 86500 92100=
07434,1997-02-22 00:00:00,7,1032.4,-1,93,6,10000,3.704,,,50,,,,,,,,,,,wg-a,,,,AAXX 22004 07434 12/60 30502 10070 20060 39834 40324 58010 60006 80002 90000=
07434,1997-02-22 03:00:00,6,1031.5,-1.1,87,4,10000,3.704,,,60,,,,,,,,,,,wg-a,,,,AAXX 22034 07434 12/60 20602 10060 20040 39823 40315 58011 60006 80002 90300=
07434,1997-02-22 06:00:00,6,1029.8,-1.6,81,3,10000,7.408,,,50,5,10.7,,,,,,,,,wg-a,,,,AAXX 22064 07434 02/60 00504 10060 20030 39807 40298 58016 60006 80000 90600 333 10107 20050 60004=
07434,1997-02-22 09:00:00,6,1029.5,-0.2,81,3,8000,3.704,,,110,,,,,,,,,,,wg-a,,,,AAXX 22094 07434 12/58 31102 10060 20030 39805 40295 55002 60006 80001 90900=
07434,1997-02-22 12:00:00,12,1026.9,-1.4,58,4,15000,18.52,,,160,,,,,,,,,,,wg-a,,,,AAXX 22124 07434 12/65 51610 10120 20040 39791 40269 58014 60006 80001 91200=
07434,1997-02-22 15:00:00,14,1024.2,-2.3,47,3,500,18.52,,,200,,,,,,,,,,,wg-a,,,,AAXX 22154 07434 12/00 72010 10140 20030 39768 40242 56023 60006 81032 91500=
07434,1997-02-22 18:00:00,12,1023.8,-0.8,58,4,25000,11.112,,,200,2.9,14.9,,,,,,,,,wg-a,,,,AAXX 22184 07434 12/75 52006 10120 20040 39760 40238 56008 60006 81031 91800 333 10149 20029=
07434,1997-02-22 21:00:00,9,1023.6,-0.6,66,3,25000,7.408,,,180,,,,,,,,,,,wg-a,,,,AAXX 22214 07434 12/75 21804 10090 20030 39754 40236 58006 60006 80001 92100=
07434,1997-02-23 00:00:00,8,1023.2,-0.6,76,4,10000,14.816,,,180,,,,,,,,,,,wg-a,,,,AAXX 23004 07434 12/60 /1808 10080 20040 39748 40232 58006 60006 90000=
07434,1997-02-23 03:00:00,8,1021.7,-1.4,76,4,20000,22.224,,,180,,,,,,,,,,,wg-a,,,,AAXX 23034 07434 12/70 61812 10080 20040 39734 40217 57014 60006 81031 90300=
07434,1997-02-23 06:00:00,8,1021.3,-0.5,76,4,20000,7.408,,,160,7.1,11.6,,,,,,,,,wg-a,,,,AAXX 23064 07434 02/70 71604 10080 20040 39729 40213 56005 60006 85032 90600 333 10116 20071 60004=
07434,1997-02-23 09:00:00,9,1021.3,0.3,76,5,15000,14.816,,,160,,,,,,,,,,,wg-a,,,,AAXX 23094 07434 12/65 71608 10090 20050 39732 40213 51003 60006 85032 90900=
07434,1997-02-23 12:00:00,11,1019.9,-1.1,71,6,15000,22.224,,,180,,,,,,,,,,,wg-a,,,,AAXX 23124 07434 12765 71812 10110 20060 39721 40199 58011 60006 85532 91200=
07434,1997-02-23 15:00:00,9,1017.8,-2.2,93,8,4500,14.816,,,180,,,,1,,,,,,60,wg-a,,,,AAXX 23154 07434 12445 71808 10090 20080 39699 40178 58022 60017 76062 85532 91500=
07434,1997-02-23 18:00:00,10,1016.7,-0.9,87,8,8000,18.52,,,210,7.6,10.7,,0,,,,,,3,wg-a,,,,AAXX 23184 07434 02458 72110 10100 20080 39690 40167 55009 60006 70362 875// 91800 333 10107 20076 60007=
07434,1997-02-23 21:00:00,10,1016.5,-0.2,87,8,12000,18.52,,,200,,,,0,,,,,,1,wg-a,,,,AAXX 23214 07434 12362 72010 10100 20080 39688 40165 58002 60007 70162 875// 92100=
07434,1997-02-24 00:00:00,9,1015.3,-1.2,93,8,12000,18.52,,,190,,,,,,,,,,1,wg-a,,,,AAXX 24004 07434 12262 71910 10090 20080 39676 40153 58012 60016 70162 875// 90000=
07434,1997-02-24 06:00:00,8,1013,-0.7,93,7,6000,25.928,,,200,8,10,,,,,,,,60,wg-a,,,,AAXX 24064 07434 02256 82014 10080 20070 39652 40130 58007 61000 76065 877// 90600 333 10100 20080 6003=
07434,1997-02-24 09:00:00,8,1013.5,0.5,100,8,4000,22.224,,,200,,,,3,,,,,,61,wg-a,,,,AAXX 24094 07434 12240 82012 10080 20080 39657 40135 51005 60037 76166 877// 90900=
07434,1997-02-24 12:00:00,9,1013.5,0.1,93,8,6000,29.632,,,200,,,,2,,,,,,60,wg-a,,,,AAXX 24124 07434 02256 82016 10090 20080 39658 40135 50001 60056 76062 875// 91200 333 60027=
07434,1997-02-24 15:00:00,10,1011.6,-1.6,87,8,8000,31.484,,,210,,,,1,,,,,,60,wg-a,,,,AAXX 24154 07434 12358 82117 10100 20080 39642 40116 56016 60017 76066 875// 91500=
07434,1997-02-24 18:00:00,10,1011.7,0.1,93,9,6000,31.484,,,200,8,10.2,,,,,,,,60,wg-a,,,,AAXX 24184 07434 02256 82017 10100 20090 39643 40117 53001 61000 76066 877// 91800 333 10102 20080 6000=
07434,1997-02-25 00:00:00,10,1012.1,0.4,100,10,10000,35.188,,,220,,,,7,,,,,,61,wg-a,,,,AAXX 25004 07434 02260 82219 10100 20100 39647 40121 53004 60096 76166 877// 90000 333 60077=
07434,1997-02-25 03:00:00,11,1012.3,0.4,100,11,15000,31.484,,,230,,,,1,,,,,,21,wg-a,,,,AAXX 25034 07434 12265 82317 10110 20110 39651 40123 50004 60017 72162 877// 90300=
07434,1997-02-25 06:00:00,12,1012.9,0.6,88,10,15000,29.632,,,240,10.1,12,,,,,,,,25,wg-a,,,,AAXX 25064 07434 02365 72416 10120 20100 39657 40129 51006 61000 72586 878// 90600 333 10120 20101 6017=
07434,1997-02-25 12:00:00,11,1015.6,0.9,94,10,1100,25.928,,,220,,,,1,,,,,,10,wg-a,,,,AAXX 25124 07434 02111 82214 10110 20100 39681 40156 50009 60026 71065 877// 91200 333 60017=
07434,1997-02-25 15:00:00,12,1015.3,-0.1,82,9,15000,25.928,,44.448,240,,,,0,,,,,,1,wg-a,,,,AAXX 25154 07434 12465 82414 10120 20090 39680 40153 55001 60007 70165 878// 91500 333 91024=
07434,1997-02-25 18:00:00,12,1016.3,1,76,8,20000,22.224,,,250,10.6,12.3,,,,,,,,1,wg-a,,,,AAXX 25184 07434 12470 72512 10120 20080 39690 40163 53010 60006 70165 878// 91800 333 10123 20106=
07434,1997-02-26 00:00:00,10,1017.9,0.1,87,8,20000,29.632,,50.004,240,,,,,,,,,,61,wg-a,,,,AAXX 26004 07434 02270 72416 10100 20080 39702 40179 50001 61000 76162 875// 90000 333 6100 91027=
07434,1997-02-26 03:00:00,10,1017.8,-0.2,93,9,7000,31.484,,,240,,,,2,,,,,,61,wg-a,,,,AAXX 26034 07434 12257 82417 10100 20090 39700 40178 58002 60027 76162 875// 90300=
07434,1997-02-26 06:00:00,8,1019.7,1.6,100,8,10000,25.928,,,250,8.2,11.9,,,,,,,,21,wg-a,,,,AAXX 26064 07434 02260 72514 10080 20080 39716 40197 53016 61000 72162 878// 90600 333 10119 20082 6009=
07434,1997-02-26 09:00:00,10,1021.8,2.2,82,7,25000,18.52,,,260,,,,2,,,,,,1,wg-a,,,,AAXX 26094 07434 12475 32610 10100 20070 39738 40218 53022 60027 70161 82830 90900=
07434,1997-02-26 12:00:00,9,1023.2,1.2,76,5,20000,22.224,,,260,,,,,,,,,,25,wg-a,,,,AAXX 26124 07434 02470 72612 10090 20050 39750 40232 52012 60026 72586 878// 91200 333 61000=
07434,1997-02-26 15:00:00,8,1024.5,1,81,5,25000,25.928,,51.856,270,,,,1,,,,,,25,wg-a,,,,AAXX 26154 07434 12475 62714 10080 20050 39760 40245 53010 60017 72586 85830 91500 333 91028=
07434,1997-02-26 18:00:00,7,1028,3.2,76,3,500,31.484,,,280,5.7,10.5,,1,,,,,,1,wg-a,,,,AAXX 26184 07434 12400 62817 10070 20030 39792 40280 53032 60017 70186 86200 91800 333 10105 20057=
07434,1997-02-27 00:00:00,5,1034.2,2,87,3,20000,14.816,,,280,,,,,,,,,,,wg-a,,,,AAXX 27004 07434 12470 /2808 10050 20030 39848 40342 51020 60006 86800 90000=
07434,1997-02-27 03:00:00,4,1037,2.5,93,3,12000,11.112,,,300,,,,,,,,,,,wg-a,,,,AAXX 27034 07434 12462 33006 10040 20030 39873 40370 53025 60006 83800 90300=
07434,1997-02-27 06:00:00,2,1038.3,0.9,100,2,12000,3.704,,,260,2.4,6.6,,,,,4,,,,wg-a,,,,AAXX 27064 07434 02462 /2602 10020 20020 39882 40383 51009 60006 81500 90600 333 10066 20024 60044=
07434,1997-02-27 09:00:00,5,1039.9,1.9,93,4,8000,3.704,,,190,,,,,,,,,,10,wg-a,,,,AAXX 27094 07434 12158 61902 10050 20040 39901 40399 52019 60006 71041 86600 90900=
07434,1997-02-27 12:00:00,9,1038.2,-0.8,66,3,500,7.408,,,230,,,,,,,,,,1,wg-a,,,,AAXX 27124 07434 12400 22304 10090 20030 39893 40382 56008 60006 70141 82100 91200=
07434,1997-02-28 00:00:00,5,1035.5,-1.2,75,1,500,7.408,,,100,,,,,,,,,,,wg-a,,,,AAXX 28004 07434 12/00 01004 10050 20010 39859 40355 58012 60006 80000 90000=
07434,1997-02-28 03:00:00,4,1033.2,-2.2,70,-1,500,11.112,,,100,,,,,,,,,,,wg-a,,,,AAXX 28034 07434 12/00 11006 10040 21010 39837 40332 58022 60006 80001 90300=
07434,1997-02-28 06:00:00,5,1032.5,-0.6,52,-4,40000,11.112,,,90,3.7,8,,,,,,,,,wg-a,,,,AAXX 28064 07434 02/82 10906 10050 21040 39831 40325 58006 60006 80001 90600 333 10080 20037 60004=
07434,1997-02-28 09:00:00,11,1032,0.5,35,-4,40000,11.112,,,120,,,,,,,,,,,wg-a,,,,AAXX 28094 07434 12/82 11206 10110 21040 39836 40320 53005 60006 80001 90900=
07434,1997-02-28 12:00:00,18,1029.7,-1,26,-2,40000,18.52,,,180,,,,,,,,,,,wg-a,,,,AAXX 28124 07434 12/82 51810 10180 21020 39826 40297 58010 60006 80001 91200=
07434,1997-02-28 18:00:00,15,1029.2,0.5,33,-1,40000,7.408,,,220,4.9,19.7,,,,,,,,,wg-a,,,,AAXX 28184 07434 12/82 52204 10150 21010 39817 40292 53005 60006 80002 91800 333 10197 20049=
07434,1997-02-28 21:00:00,14,1029.5,0.1,38,0,15000,7.408,,,200,,,,,,,,,,,wg-a,,,,AAXX 28214 07434 12/65 72004 10140 20000 39818 40295 50001 60006 86072 92100=
07434,1997-03-01 00:00:00,12,1030,0.1,44,0,15000,7.408,,,200,,,,,,,,,,,wg-a,,,,AAXX 01004 07434 12/65 72004 10120 20000 39819 40300 50001 60006 82032 90000=
07434,1997-03-01 03:00:00,10,1029.8,-0.5,50,0,15000,3.704,,,70,,,,,,,,,,,wg-a,,,,AAXX 01034 07434 12/65 70702 10100 20000 39814 40298 58005 60006 85032 90300=
07434,1997-03-01 06:00:00,9,1029.8,-0.2,53,0,15000,3.704,,,70,8.2,15.3,,,,,,,,,wg-a,,,,AAXX 01064 07434 02765 70702 10090 20000 39812 40298 55002 60006 83572 90600 333 10153 20082 60004=
07434,1997-03-01 09:00:00,11,1030.4,0.9,50,1,10000,3.704,,,120,,,,,,,,,,,wg-a,,,,AAXX 01094 07434 12/60 /1202 10110 20010 39821 40304 53009 60006 90900=
07434,1997-03-01 12:00:00,15,1028.6,-0.9,44,3,500,7.408,,,120,,,,,,,,,,,wg-a,,,,AAXX 01124 07434 12/00 61204 10150 20030 39812 40286 58009 60006 80001 91200=
07434,1997-03-01 15:00:00,16,1026.4,-2,36,1,500,7.408,,,170,,,,,,,,,,,wg-a,,,,AAXX 01154 07434 12/00 61704 10160 20010 39792 40264 56020 60006 80001 91500=
07434,1997-03-01 18:00:00,14,1026.6,-0.2,41,1,500,7.408,,,180,8.3,16.9,,,,,,,,,wg-a,,,,AAXX 01184 07434 12/00 71804 10140 20010 39790 40266 55002 60006 80001 91800 333 10169 20083=
07434,1997-03-01 21:00:00,12,1026.7,-0.2,44,0,500,7.408,,,190,,,,,,,,,,,wg-a,,,,AAXX 01214 07434 12/00 71904 10120 20000 39788 40267 56002 60006 80001 92100=
07434,1997-03-02 00:00:00,10,1026.6,-0.4,57,2,500,3.704,,,160,,,,,,,,,,,wg-a,,,,AAXX 02004 07434 12/00 71602 10100 20020 39784 40266 57004 60006 80001 90000=
07434,1997-03-02 03:00:00,9,1026.3,-0.6,57,1,500,7.408,,,130,,,,,,,,,,,wg-a,,,,AAXX 02034 07434 12/00 41304 10090 20010 39778 40263 56006 60006 80001 90300=
07434,1997-03-02 06:00:00,8,1027.4,1,61,1,15000,3.704,,,150,7.6,13.9,,,,,,,,,wg-a,,,,AAXX 02064 07434 02/65 11502 10080 20010 39788 40274 51010 60006 80001 90600 333 10139 20076 60004=
07434,1997-03-02 09:00:00,11,1028.9,1.9,62,4,15000,3.704,,,110,,,,,,,,,,,wg-a,,,,AAXX 02094 07434 12/65 61102 10110 20040 39807 40289 51019 60006 80002 90900=
07434,1997-03-02 12:00:00,15,1029,0.8,59,7,18000,14.816,,,280,,,,,,,,,,,wg-a,,,,AAXX 02124 07434 12/68 22808 10150 20070 39815 40290 53008 60006 80002 91200=
07434,1997-03-02 15:00:00,16,1028.6,-0.2,59,8,25000,18.52,,,280,,,,,,,,,,,wg-a,,,,AAXX 02154 07434 12575 /2810 10160 20080 39813 40286 55002 60006 81202 91500=
07434,1997-03-02 18:00:00,12,1030.9,1.6,76,8,15000,7.408,,,250,7.6,16.6,,,,,,,,,wg-a,,,,AAXX 02184 07434 12565 /2504 10120 20080 39829 40309 52016 60006 81532 91800 333 10166 20076=
07434,1997-03-02 21:00:00,10,1032.6,1.3,87,8,15000,7.408,,,280,,,,,,,,,,,wg-a,,,,AAXX 02214 07434 12/65 62804 10100 20080 39842 40326 51013 60006 83032 92100=
07434,1997-03-03 00:00:00,8,1033.3,0.3,93,7,15000,7.408,,,240,,,,,,,,,,,wg-a,,,,AAXX 03004 07434 12/65 32404 10080 20070 39845 40333 50003 60006 80001 90000=
07434,1997-03-03 03:00:00,8,1033.9,0.6,100,8,800,3.704,,,80,,,,,,,,,,44,wg-a,,,,AAXX 03034 07434 12208 70802 10080 20080 39851 40339 51006 60006 74441 876// 90300=
07434,1997-03-03 06:00:00,7,1034.7,0.4,93,6,500,7.408,,,80,6.5,12.3,,,,,,,,44,wg-a,,,,AAXX 03064 07434 02205 70804 10070 20060 39855 40347 51004 60006 74441 876// 90600 333 10123 20065 60004=
07434,1997-03-03 09:00:00,8,1035.3,0.9,100,8,200,7.408,,,90,,,,,,,,,,45,wg-a,,,,AAXX 03094 07434 32/02 90904 10080 20080 39864 40353 51009 74544 89/// 90900=
07434,1997-03-03 12:00:00,14,1033.6,-0.6,67,8,20000,11.112,,,190,,,,,,,,,,1,wg-a,,,,AAXX 03124 07434 12/70 41906 10140 20080 39858 40336 58006 60006 70141 80001 91200=
07434,1997-03-03 15:00:00,17,1031.5,-1.5,59,9,20000,11.112,,,210,,,,,,,,,,,wg-a,,,,AAXX 03154 07434 12/70 32106 10170 20090 39843 40315 56015 60006 80001 91500=
07434,1997-03-03 18:00:00,15,1032,-0,59,7,20000,7.408,,,180,6,17.7,,,,,,,,,wg-a,,,,AAXX 03184 07434 12/70 41804 10150 20070 39843 40320 55000 60006 82031 91800 333 10177 20060=
07434,1997-03-03 21:00:00,13,1032,-0.2,67,7,18000,3.704,,,120,,,,,,,,,,,wg-a,,,,AAXX 03214 07434 12/68 51202 10130 20070 39841 40320 58002 60006 81031 92100=
07434,1997-03-04 00:00:00,11,1031.7,-0.6,76,7,15000,7.408,,,100,,,,,,,,,,,wg-a,,,,AAXX 04004 07434 12/65 41004 10110 20070 39835 40317 58006 60006 81031 90000=
07434,1997-03-04 03:00:00,11,1030.9,-0.8,71,6,15000,7.408,,,90,,,,,,,,,,,wg-a,,,,AAXX 04034 07434 12/65 60904 10110 20060 39827 40309 56008 60006 82031 90300=
07434,1997-03-04 06:00:00,12,1030.4,-0.4,62,5,15000,7.408,,,100,10.7,14.7,,,,,,,,,wg-a,,,,AAXX 04064 07434 02/65 71004 10120 20050 39823 40304 56004 60006 86031 90600 333 10147 20107 60004=
07434,1997-03-04 09:00:00,15,1029.9,-0,48,4,15000,11.112,,,130,,,,,,,,,,,wg-a,,,,AAXX 04094 07434 12/65 61306 10150 20040 39823 40299 55000 60006 85031 90900=
07434,1997-03-04 12:00:00,20,1028,-1,32,3,10000,25.928,,,210,,,,,,,,,,,wg-a,,,,AAXX 04124 07434 12/60 /2114 10200 20030 39813 40280 56010 60006 91200=
07434,1997-03-04 15:00:00,18,1027.2,-1,45,6,20000,14.816,,,220,,,,,,,,,,,wg-a,,,,AAXX 04154 07434 12/70 72208 10180 20060 39803 40272 56010 60006 86012 91500=
07434,1997-03-04 18:00:00,14,1028.3,0.4,72,9,3000,11.112,,,290,11.8,19.7,,,,,,,,10,wg-a,,,,AAXX 04184 07434 02630 82906 10140 20090 39807 40283 53004 61000 71062 8652/ 91800 333 10197 20118 6100=
07434,1997-03-04 21:00:00,10,1029.1,0.2,93,9,3000,22.224,,,290,,,,,,,,,,10,wg-a,,,,AAXX 04214 07434 02230 /2912 10100 20090 39809 40291 53002 61000 71062 85630 92100 333 ////=
07434,1997-03-05 00:00:00,9,1029.8,0.5,100,9,3000,11.112,,,250,,,,,,,,,,10,wg-a,,,,AAXX 05004 07434 02130 82506 10090 20090 39814 40298 50005 61000 71065 887// 90000 333 6100=
07434,1997-03-05 03:00:00,7,1030.8,0.5,87,5,10000,11.112,,,290,,,,,,,,,,0,wg-a,,,,AAXX 05034 07434 02360 72906 10070 20050 39819 40308 51005 61000 70052 875// 90300 333 ////=
07434,1997-03-05 06:00:00,6,1031.8,0.8,81,3,500,3.704,,,240,6.1,13.7,,,,,,,,1,wg-a,,,,AAXX 05064 07434 02400 72402 10060 20030 39827 40318 51008 60006 70152 875// 90600 333 10137 20061 61000=
07434,1997-03-05 09:00:00,8,1032.1,0.5,71,3,500,11.112,,,230,,,,,,,,,,,wg-a,,,,AAXX 05094 07434 12500 72306 10080 20030 39832 40321 51005 60006 875// 90900=
07434,1997-03-05 12:00:00,10,1031.6,0,66,4,500,14.816,,,250,,,,,,,,,,,wg-a,,,,AAXX 05124 07434 12500 /2508 10100 20040 39832 40316 50000 60006 86501 91200=
07434,1997-03-05 15:00:00,9,1031.9,0.1,76,5,500,11.112,,,270,,,,,,,,,,,wg-a,,,,AAXX 05154 07434 12500 72706 10090 20050 39833 40319 52001 60006 875// 91500=
07434,1997-03-05 18:00:00,8,1031.9,-0.1,87,6,15000,3.704,,,290,5.9,10.4,,,,,,,,21,wg-a,,,,AAXX 05184 07434 02465 72902 10080 20060 39832 40319 55001 61000 72162 875// 91800 333 10104 20059 6100=
07434,1997-03-06 00:00:00,8,1031.6,-0.3,87,6,0,3.704,,,190,,,,,,,,,,,wg-a,,,,AAXX 06004 07434 02/// /1902 10080 20060 39828 40316 58003 61000 90000 333 ////=
07434,1997-03-06 03:00:00,7,1031.8,0.1,100,7,10000,3.704,,,240,,,,0,,,,,,21,wg-a,,,,AAXX 06034 07434 12360 72402 10070 20070 39829 40318 50001 60007 72162 877// 90300=
07434,1997-03-06 06:00:00,7,1031.9,0.1,100,7,6000,0,,,0,7.1,8.2,,,,,,,,21,wg-a,,,,AAXX 06064 07434 02456 70000 10070 20070 39830 40319 53001 61000 72162 8557/ 90600 333 10082 20071 6000=
07434,1997-03-06 12:00:00,10,1032,0.6,87,8,0,7.408,,,320,,,,,,,,,,,wg-a,,,,AAXX 06124 07434 12/// /3204 10100 20080 39837 40320 50006 60006 91200=
07434,1997-03-06 18:00:00,11,1031,0.2,82,8,0,7.408,,,10,6.9,12.5,,,,,,,,,wg-a,,,,AAXX 06184 07434 12/// /0104 10110 20080 39828 40310 53002 60006 91800 333 10125 20069=
07434,1997-03-07 00:00:00,9,1031.1,-0.6,81,6,0,7.408,,,50,,,,,,,,,,,wg-a,,,,AAXX 07004 07434 12/// /0504 10090 20060 39825 40311 58006 60006 90000=
07434,1997-03-07 06:00:00,9,1029.9,-0.3,71,4,0,14.816,,,70,8.4,10.7,,,,,,,,,wg-a,,,,AAXX 07064 07434 02/// /0708 10090 20040 39814 40299 57003 60006 90600 333 10107 20084 60004=
07434,1997-03-07 09:00:00,11,1030.1,0.4,62,4,500,22.224,,,70,,,,,,,,,,,wg-a,,,,AAXX 07094 07434 12/00 00712 10110 20040 39818 40301 52004 60006 80000 90900=
07434,1997-03-07 12:00:00,14,1028.3,-1.2,47,3,50000,14.816,,,90,,,,,,,,,,,wg-a,,,,AAXX 07124 07434 12/84 10908 10140 20030 39806 40283 56012 60006 80001 91200=
07434,1997-03-07 15:00:00,16,1026.3,-1.6,42,3,50000,14.816,,,100,,,,,,,,,,,wg-a,,,,AAXX 07154 07434 12/84 11008 10160 20030 39790 40263 56016 60006 80001 91500=
07434,1997-03-07 18:00:00,13,1027.1,0.3,51,3,40000,11.112,,,40,8.2,16,,,,,,,,,wg-a,,,,AAXX 07184 07434 12/82 00406 10130 20030 39793 40271 53003 60006 80000 91800 333 10160 20082=
07434,1997-03-07 21:00:00,10,1028.3,0.7,62,3,25000,11.112,,,60,,,,,,,,,,,wg-a,,,,AAXX 07214 07434 12/75 00606 10100 20030 39800 40283 51007 60006 80000 92100=
07434,1997-03-08 00:00:00,9,1029,0.4,61,2,20000,11.112,,,50,,,,,,,,,,,wg-a,,,,AAXX 08004 07434 12/70 00506 10090 20020 39804 40290 52004 60006 80000 90000=
07434,1997-03-08 03:00:00,7,1029.5,0.3,70,2,20000,14.816,,,50,,,,,,,,,,,wg-a,,,,AAXX 08034 07434 12/70 00508 10070 20020 39807 40295 51003 60006 80000 90300=
07434,1997-03-08 06:00:00,5,1031.1,1,81,2,15000,7.408,,,80,4.6,12.6,,,,,,,,,wg-a,,,,AAXX 08064 07434 02/65 00804 10050 20020 39817 40311 53010 60006 80000 90600 333 10126 20046 60004=
07434,1997-03-08 09:00:00,10,1031.6,1.5,66,4,8000,11.112,,,100,,,,,,,,,,,wg-a,,,,AAXX 08094 07434 12/58 /1006 10100 20040 39832 40316 51015 60006 80001 90900=
07434,1997-03-08 12:00:00,16,1030.2,-0.4,45,4,18000,7.408,,,120,,,,,,,,,,,wg-a,,,,AAXX 08124 07434 12/68 11204 10160 20040 39828 40302 57004 60006 80001 91200=
07434,1997-03-08 15:00:00,18,1029,-0.9,45,6,25000,7.408,,,310,,,,,,,,,,,wg-a,,,,AAXX 08154 07434 12/75 03104 10180 20060 39819 40290 56009 60006 80000 91500=
07434,1997-03-08 18:00:00,14,1030,0.4,51,4,20000,11.112,,,20,4.6,17.9,,,,,,,,,wg-a,,,,AAXX 08184 07434 12/70 10206 10140 20040 39823 40300 53004 60006 80001 91800 333 10179 20046=
07434,1997-03-08 21:00:00,11,1030.8,0.2,66,5,20000,14.816,,,70,,,,,,,,,,,wg-a,,,,AAXX 08214 07434 12/70 10708 10110 20050 39825 40308 51002 60006 80001 92100=
07434,1997-03-09 00:00:00,9,1030.8,-0.3,71,4,10000,11.112,,,50,,,,,,,,,,,wg-a,,,,AAXX 09004 07434 12/60 /0506 10090 20040 39822 40308 56003 60006 90000=
07434,1997-03-09 03:00:00,8,1030.2,-0.7,76,4,15000,7.408,,,90,,,,,,,,,,,wg-a,,,,AAXX 09034 07434 12/65 10904 10080 20040 39815 40302 58007 60006 80001 90300=
07434,1997-03-09 06:00:00,6,1030.7,0.1,75,2,15000,7.408,,,50,5.6,14,,,,,,,,,wg-a,,,,AAXX 09064 07434 02/65 00504 10060 20020 39816 40307 53001 60006 80000 90600 333 10140 20056 60004=
07434,1997-03-09 09:00:00,10,1031.2,1.2,66,4,15000,7.408,,,110,,,,,,,,,,,wg-a,,,,AAXX 09094 07434 12/65 01104 10100 20040 39828 40312 51012 60006 80000 90900=
07434,1997-03-09 12:00:00,17,1029.3,-0.7,39,3,500,7.408,,,280,,,,,,,,,,,wg-a,,,,AAXX 09124 07434 12/00 12804 10170 20030 39821 40293 58007 60006 80001 91200=
07434,1997-03-09 15:00:00,19,1028.1,-0.9,37,4,500,7.408,,,340,,,,,,,,,,,wg-a,,,,AAXX 09154 07434 12/00 33404 10190 20040 39812 40281 56009 60006 80001 91500=
07434,1997-03-09 18:00:00,15,1028.8,0.1,48,4,500,7.408,,,350,4.6,19,,,,,,,,,wg-a,,,,AAXX 09184 07434 12/00 33504 10150 20040 39813 40288 52001 60006 80001 91800 333 10190 20046=
07434,1997-03-09 21:00:00,13,1029.9,0.7,54,4,25000,7.408,,,60,,,,,,,,,,,wg-a,,,,AAXX 09214 07434 12/75 10604 10130 20040 39820 40299 52007 60006 80001 92100=
07434,1997-03-10 00:00:00,10,1030.4,0.1,62,3,20000,7.408,,,50,,,,,,,,,,,wg-a,,,,AAXX 10004 07434 12/70 00504 10100 20030 39821 40304 52001 60006 80000 90000=
07434,1997-03-10 03:00:00,8,1031.3,0.4,66,2,20000,7.408,,,90,,,,,,,,,,,wg-a,,,,AAXX 10034 07434 12/70 00904 10080 20020 39825 40313 50004 60006 80000 90300=
07434,1997-03-10 06:00:00,8,1032.5,1.2,66,2,15000,7.408,,,90,7.2,14.6,,,,,,,,,wg-a,,,,AAXX 10064 07434 02/65 00904 10080 20020 39837 40325 53012 60006 80000 90600 333 10146 20072 60004=
07434,1997-03-10 09:00:00,12,1033.1,1.2,54,3,10000,11.112,,,100,,,,,,,,,,,wg-a,,,,AAXX 10094 07434 12/60 01006 10120 20030 39849 40331 51012 60006 80000 90900=
07434,1997-03-10 12:00:00,18,1031,-1.1,28,-1,500,7.408,,,180,,,,,,,,,,,wg-a,,,,AAXX 10124 07434 12/00 01804 10180 21010 39838 40310 58011 60006 80000 91200=
07434,1997-03-10 15:00:00,20,1029.4,-1.2,24,-1,40000,7.408,,,150,,,,,,,,,,,wg-a,,,,AAXX 10154 07434 12/82 01504 10200 21010 39826 40294 56012 60006 80000 91500=
07434,1997-03-10 18:00:00,17,1029.9,-0,36,2,40000,11.112,,,10,7.3,20.7,,,,,,,,,wg-a,,,,AAXX 10184 07434 12/82 00106 10170 20020 39826 40299 55000 60006 80000 91800 333 10207 20073=
07434,1997-03-10 21:00:00,14,1030.8,0.4,55,5,15000,18.52,,,70,,,,,,,,,,,wg-a,,,,AAXX 10214 07434 12/65 00710 10140 20050 39830 40308 52004 60006 80000 92100=
07434,1997-03-11 00:00:00,12,1030.4,-0.7,54,3,15000,14.816,,,70,,,,,,,,,,,wg-a,,,,AAXX 11004 07434 12/65 00708 10120 20030 39823 40304 58007 60006 80000 90000=
07434,1997-03-11 03:00:00,11,1029.9,-0.6,47,0,15000,11.112,,,70,,,,,,,,,,,wg-a,,,,AAXX 11034 07434 12/65 00706 10110 20000 39817 40299 56006 60006 80000 90300=
07434,1997-03-11 06:00:00,9,1030.2,-0.1,57,1,40000,14.816,,,60,9,16.9,,,,,,,,,wg-a,,,,AAXX 11064 07434 02/82 00608 10090 20010 39816 40302 56001 60006 80000 90600 333 10169 20090 60004=
07434,1997-03-11 09:00:00,13,1029.7,0.3,51,3,20000,11.112,,,90,,,,,,,,,,,wg-a,,,,AAXX 11094 07434 12/70 00906 10130 20030 39819 40297 51003 60006 80000 90900=
07434,1997-03-11 12:00:00,19,1028.2,-0.5,34,3,500,7.408,,,240,,,,,,,,,,,wg-a,,,,AAXX 11124 07434 12/00 02404 10190 20030 39814 40282 58005 60006 80000 91200=
07434,1997-03-11 15:00:00,21,1026.7,-1.2,33,4,40000,14.816,,,330,,,,,,,,,,,wg-a,,,,AAXX 11154 07434 12/82 03308 10210 20040 39802 40267 56012 60006 80000 91500=
07434,1997-03-11 18:00:00,17,1027.2,-0.1,48,6,500,11.112,,,10,8.9,21.1,,,,,,,,,wg-a,,,,AAXX 11184 07434 12/00 00106 10170 20060 39801 40272 55001 60006 80000 91800 333 10211 20089=
07434,1997-03-12 00:00:00,12,1029.1,0,58,4,20000,14.816,,,80,,,,,,,,,,,wg-a,,,,AAXX 12004 07434 12/70 00808 10120 20040 39811 40291 50000 60006 80000 90000=
07434,1997-03-12 03:00:00,10,1029.7,0.3,66,4,15000,7.408,,,90,,,,,,,,,,,wg-a,,,,AAXX 12034 07434 12/65 00904 10100 20040 39814 40297 53003 60006 80000 90300=
07434,1997-03-12 06:00:00,7,1032.1,1.7,70,2,15000,14.816,,,160,7.2,16.9,,,,,,,,,wg-a,,,,AAXX 12064 07434 02/65 01608 10070 20020 39831 40321 53017 60006 80000 90600 333 10169 20072 60004=
07434,1997-03-12 09:00:00,11,1032.9,1.5,58,3,10000,25.928,,,180,,,,,,,,,,,wg-a,,,,AAXX 12094 07434 12/60 21814 10110 20030 39846 40329 51015 60006 80001 90900=
07434,1997-03-12 12:00:00,16,1032,-0.1,48,5,15000,11.112,,,220,,,,,,,,,,,wg-a,,,,AAXX 12124 07434 12/65 12206 10160 20050 39845 40320 58001 60006 80001 91200=
07434,1997-03-12 15:00:00,18,1030.4,-1.2,34,2,20000,11.112,,,270,,,,,,,,,,,wg-a,,,,AAXX 12154 07434 12/70 12706 10180 20020 39833 40304 56012 60006 80001 91500=
07434,1997-03-12 18:00:00,14,1031.3,0.3,55,5,20000,3.704,,,320,6.9,18,,,,,,,,,wg-a,,,,AAXX 12184 07434 12/70 13202 10140 20050 39836 40313 53003 60006 80001 91800 333 10180 20069=
07434,1997-03-12 21:00:00,11,1032.2,0.4,66,5,13000,7.408,,,310,,,,,,,,,,,wg-a,,,,AAXX 12214 07434 12/63 23104 10110 20050 39840 40322 53004 60006 80001 92100=
07434,1997-03-13 00:00:00,10,1032.1,-0.4,71,5,12000,0,,,0,,,,,,,,,,,wg-a,,,,AAXX 13004 07434 12/62 20000 10100 20050 39836 40321 58004 60006 80001 90000=
07434,1997-03-13 03:00:00,9,1031.2,-1,76,5,10000,11.112,,,30,,,,,,,,,,,wg-a,,,,AAXX 13034 07434 12/60 20306 10090 20050 39826 40312 58010 60006 80001 90300=
07434,1997-03-13 06:00:00,6,1031.2,-0.5,87,4,6000,7.408,,,60,5.6,14.1,,,,,,,,,wg-a,,,,AAXX 13064 07434 02/56 10604 10060 20040 39821 40312 55005 60006 80001 90600 333 10141 20056 60004=
07434,1997-03-13 12:00:00,15,1029.2,-0.8,59,7,9000,11.112,,,320,,,,,,,,,,,wg-a,,,,AAXX 13124 07434 12/59 /3206 10150 20070 39817 40292 58008 60006 80001 91200=
07434,1997-03-13 18:00:00,9,1027.9,-0.6,87,7,6000,14.816,,,340,5.7,16,,,,,,,,,wg-a,,,,AAXX 13184 07434 12/56 /3408 10090 20070 39795 40279 56006 60006 80001 91800 333 10160 20057=
07434,1997-03-13 21:00:00,6,1028.4,-0.1,93,5,3000,14.816,,,360,,,,,,,,,,10,wg-a,,,,AAXX 13214 07434 12/30 03608 10060 20050 39794 40284 55001 60006 71000 80000 92100=
07434,1997-03-14 00:00:00,3,1028.1,-0.7,100,3,500,7.408,,,360,,,,,,,,,,45,wg-a,,,,AAXX 14004 07434 12/05 93604 10030 20030 39787 40281 56007 60006 74541 89/// 90000=
07434,1997-03-14 06:00:00,4,1028.5,0.8,100,4,600,7.408,,,320,2.8,9.2,,,,,,,,47,wg-a,,,,AAXX 14064 07434 02/06 93204 10040 20040 39792 40285 53008 60006 74742 89/// 90600 333 10092 20028 60004=
07434,1997-03-14 09:00:00,5,1029.5,1.2,100,5,500,7.408,,,300,,,,,,,,,,50,wg-a,,,,AAXX 14094 07434 02105 83004 10050 20050 39804 40295 51012 61000 75054 887// 90900 333 ////=
07434,1997-03-14 12:00:00,7,1029,-0.3,93,6,1800,11.112,,,230,,,,,,,,,,10,wg-a,,,,AAXX 14124 07434 02218 82306 10070 20060 39806 40290 58003 61000 71054 887// 91200 333 6100=
07434,1997-03-14 15:00:00,8,1028,-0.7,87,6,6000,11.112,,,280,,,,,,,,,,1,wg-a,,,,AAXX 14154 07434 02456 82806 10080 20060 39794 40280 58007 61000 70152 875// 91500 333 ////=
07434,1997-03-14 18:00:00,8,1028.3,0.3,93,7,4000,11.112,,,280,3.9,8.3,,,,,,,,50,wg-a,,,,AAXX 14184 07434 02240 82806 10080 20070 39797 40283 53003 61000 75052 875// 91800 333 10083 20039 6100=
07434,1997-03-14 21:00:00,8,1029,0.7,100,8,2000,11.112,,,280,,,,0,,,,,,10,wg-a,,,,AAXX 14214 07434 12120 82806 10080 20080 39804 40290 53007 60007 71065 887// 92100=
07434,1997-03-15 00:00:00,8,1028.8,-0.1,100,8,0,7.408,,,300,,,,,,,,,,,wg-a,,,,AAXX 15004 07434 12/// /3004 10080 20080 39803 40288 58001 60016 90000=
07434,1997-03-15 06:00:00,7,1029.2,0.8,100,7,500,3.704,,,290,6.4,8.4,,,,,1,,,44,wg-a,,,,AAXX 15064 07434 02/05 92902 10070 20070 39804 40292 53008 60006 74441 89/// 90600 333 10084 20064 60014=
07434,1997-03-15 09:00:00,9,1029.9,0.9,93,8,2000,3.704,,,310,,,,,,,,,,28,wg-a,,,,AAXX 15094 07434 12220 /3102 10090 20080 39813 40299 52009 60006 72842 878// 90900=
07434,1997-03-15 12:00:00,11,1029.7,0.2,87,9,500,7.408,,,280,,,,,,,,,,21,wg-a,,,,AAXX 15124 07434 02300 82804 10110 20090 39815 40297 51002 61000 72164 878// 91200 333 6100=
07434,1997-03-15 15:00:00,12,1028.6,-0.9,82,9,20000,3.704,,,360,,,,,,,,,,,wg-a,,,,AAXX 15154 07434 12470 73602 10120 20090 39806 40286 56009 60006 878// 91500=
07434,1997-03-15 18:00:00,11,1028.7,-0,87,9,15000,3.704,,,330,7,12,,,,,,,,,wg-a,,,,AAXX 15184 07434 12465 73302 10110 20090 39806 40287 55000 60006 875// 91800 333 10120 20070=
07434,1997-03-15 21:00:00,10,1030,1.1,100,10,15000,11.112,,,340,,,,,,,,,,,wg-a,,,,AAXX 15214 07434 12465 73406 10100 20100 39817 40300 53011 60006 875// 92100=
07434,1997-03-16 00:00:00,10,1029.9,-0.2,93,9,12000,14.816,,,10,,,,,,,,,,,wg-a,,,,AAXX 16004 07434 12262 80108 10100 20090 39815 40299 58002 60006 885// 90000=
07434,1997-03-16 03:00:00,8,1029.8,-0.3,100,8,12000,7.408,,,70,,,,,,,,,,,wg-a,,,,AAXX 16034 07434 12262 70704 10080 20080 39812 40298 58003 60006 875// 90300=
07434,1997-03-16 06:00:00,8,1030.3,0.4,87,6,10000,11.112,,,20,7.7,10.8,,,,,,,,,wg-a,,,,AAXX 16064 07434 02560 70206 10080 20060 39816 40303 52004 60006 875// 90600 333 10108 20077 61000=
07434,1997-03-16 12:00:00,13,1028.8,-1.2,58,5,25000,3.704,,,350,,,,,,,,,,,wg-a,,,,AAXX 16124 07434 12/75 33502 10130 20050 39810 40288 58012 60006 80001 91200=
07434,1997-03-16 18:00:00,13,1027.1,-0,62,6,25000,11.112,,,20,7.9,16.1,,,,,,,,,wg-a,,,,AAXX 16184 07434 12/75 10206 10130 20060 39794 40271 55000 60006 80001 91800 333 10161 20079=
07434,1997-03-16 21:00:00,10,1027.7,0,76,6,20000,14.816,,,30,,,,,,,,,,,wg-a,,,,AAXX 16214 07434 12/70 00308 10100 20060 39794 40277 50000 60006 80000 92100=
07434,1997-03-17 00:00:00,8,1027.8,-0.1,81,5,15000,11.112,,,60,,,,,,,,,,,wg-a,,,,AAXX 17004 07434 12/65 00606 10080 20050 39793 40278 57001 60006 80000 90000=
07434,1997-03-17 03:00:00,9,1026.8,-1,76,5,15000,14.816,,,60,,,,,,,,,,,wg-a,,,,AAXX 17034 07434 12/65 00608 10090 20050 39783 40268 58010 60006 80000 90300=
07434,1997-03-17 06:00:00,8,1027.4,0.4,81,5,50000,14.816,,,70,7.5,12.8,,,,,,,,,wg-a,,,,AAXX 17064 07434 02/84 10708 10080 20050 39787 40274 53004 60006 80001 90600 333 10128 20075 60004=
07434,1997-03-17 12:00:00,20,1024.9,-0.9,37,5,40000,7.408,,,90,,,,,,,,,,,wg-a,,,,AAXX 17124 07434 12/82 10904 10200 20050 39784 40249 57009 60006 80001 91200=
07434,1997-03-17 15:00:00,21,1023.4,-1.3,43,8,60000,14.816,,,340,,,,,,,,,,,wg-a,,,,AAXX 17154 07434 12/86 13408 10210 20080 39771 40234 57013 60006 80001 91500=
07434,1997-03-17 21:00:00,13,1023.7,-0.3,67,7,40000,7.408,,,60,,,,,,,,,,,wg-a,,,,AAXX 17214 07434 12/82 00604 10130 20070 39762 40237 58003 60006 80000 92100=
07434,1997-03-18 00:00:00,12,1023.1,-0.8,71,7,25000,3.704,,,100,,,,,,,,,,,wg-a,,,,AAXX 18004 07434 12/75 01002 10120 20070 39754 40231 57008 60006 80000 90000=
07434,1997-03-18 03:00:00,9,1022.2,-1.4,81,6,20000,7.408,,,60,,,,,,,,,,,wg-a,,,,AAXX 18034 07434 12/70 00604 10090 20060 39740 40222 57014 60006 80000 90300=
07434,1997-03-18 06:00:00,7,1022,-0.5,87,5,20000,0,,,0,6.9,16.6,,,,,,,,,wg-a,,,,AAXX 18064 07434 02/70 00000 10070 20050 39735 40220 56005 60006 80000 90600 333 10166 20069 60004=
07434,1997-03-18 12:00:00,13,1021,-0.1,77,9,12000,22.224,,,280,,,,,,,,,,,wg-a,,,,AAXX 18124 07434 12462 /2812 10130 20090 39736 40210 56001 60006 81101 91200=
07434,1997-03-18 15:00:00,8,1020.9,-1,87,6,7000,22.224,,,290,,,,,,,,,,,wg-a,,,,AAXX 18154 07434 12357 72912 10080 20060 39726 40209 55010 60006 867// 91500=
07434,1997-03-18 18:00:00,8,1019.2,-1.5,87,6,7000,14.816,,,240,6.9,14.6,,,,,,,,,wg-a,,,,AAXX 18184 07434 12357 72408 10080 20060 39711 40192 58015 60006 867// 91800 333 10146 20069=
07434,1997-03-18 21:00:00,8,1019.2,-0,87,6,10000,18.52,,,280,,,,,,,,,,,wg-a,,,,AAXX 18214 07434 12360 72810 10080 20060 39711 40192 54000 60006 877// 92100=
07434,1997-03-19 00:00:00,8,1018.5,-0.8,87,6,8000,22.224,,,280,,,,,,,,,,,wg-a,,,,AAXX 19004 07434 12358 72812 10080 20060 39703 40185 58008 60006 876// 90000=
07434,1997-03-19 06:00:00,5,1017.7,-0.1,93,4,15000,14.816,,,290,4.9,8.6,,,,,,,,,wg-a,,,,AAXX 19064 07434 02365 82908 10050 20040 39691 40177 55001 60006 885// 90600 333 10086 20049 60004=
07434,1997-03-19 12:00:00,9,1017,-0.2,66,3,40000,25.928,,,290,,,,,,,,,,,wg-a,,,,AAXX 19124 07434 12582 72914 10090 20030 39690 40170 58002 60006 878// 91200=
07434,1997-03-19 15:00:00,9,1016.3,-0.7,66,3,40000,18.52,,37.04,290,,,,,,,,,,,wg-a,,,,AAXX 19154 07434 12582 72910 10090 20030 39683 40163 56007 60006 878// 91500 333 91020=
07434,1997-03-19 18:00:00,8,1017.5,1,66,2,500,14.816,,,330,4.8,9,,,,,,,,,wg-a,,,,AAXX 19184 07434 12500 73308 10080 20020 39693 40175 53010 60006 878// 91800 333 10090 20048=
07434,1997-03-19 21:00:00,6,1019.8,2,75,2,25000,11.112,,,320,,,,,,,,,,,wg-a,,,,AAXX 19214 07434 12575 73206 10060 20020 39713 40198 52020 60006 875// 92100=
07434,1997-03-20 00:00:00,4,1020.9,0.6,87,2,20000,14.816,,,320,,,,,,,,,,,wg-a,,,,AAXX 20004 07434 12570 /3208 10040 20020 39719 40209 51006 60006 81500 90000=
07434,1997-03-20 03:00:00,3,1021.3,0.2,93,2,18000,7.408,,,70,,,,,,,,,,,wg-a,,,,AAXX 20034 07434 12268 40704 10030 20020 39721 40213 50002 60006 84600 90300=
07434,1997-03-20 06:00:00,3,1021.8,0.5,93,2,500,7.408,,,40,2.3,7.7,,,,,,,,,wg-a,,,,AAXX 20064 07434 02300 /0404 10030 20020 39726 40218 51005 60006 81630 90600 333 10077 20023 60004=
07434,1997-03-20 09:00:00,7,1022.1,1,81,4,500,3.704,,,180,,,,,,,,,,,wg-a,,,,AAXX 20094 07434 12300 21802 10070 20040 39736 40221 53010 60006 82601 90900=
07434,1997-03-20 12:00:00,10,1020.9,-0.6,50,0,10000,14.816,,,40,,,,,,,,,,,wg-a,,,,AAXX 20124 07434 12560 30408 10100 20000 39730 40209 58006 60006 83101 91200=
07434,1997-03-20 15:00:00,11,1020,-0.8,50,1,15000,14.816,,,20,,,,,,,,,,,wg-a,,,,AAXX 20154 07434 12665 30208 10110 20010 39722 40200 56008 60006 83101 91500=
07434,1997-03-20 18:00:00,9,1020.3,-0,53,0,15000,11.112,,,40,2.6,11.6,,,,,,,,,wg-a,,,,AAXX 20184 07434 12665 30406 10090 20000 39722 40203 55000 60006 83101 91800 333 10116 20026=
07434,1997-03-20 21:00:00,6,1021.5,0.7,65,0,15000,11.112,,,50,,,,,,,,,,,wg-a,,,,AAXX 20214 07434 12/65 00506 10060 20000 39729 40215 51007 60006 80000 92100=
07434,1997-03-21 00:00:00,5,1021.6,-0.1,70,0,15000,7.408,,,50,,,,,,,,,,,wg-a,,,,AAXX 21004 07434 12/65 00504 10050 20000 39728 40216 58001 60006 80000 90000=
07434,1997-03-21 03:00:00,4,1021.2,-0.6,70,-1,15000,11.112,,,60,,,,,,,,,,,wg-a,,,,AAXX 21034 07434 12/65 10606 10040 21010 39722 40212 58006 60006 80001 90300=
07434,1997-03-21 06:00:00,4,1021.6,0.3,70,-1,12000,11.112,,,50,3.3,8.9,,,,,,,,,wg-a,,,,AAXX 21064 07434 02/62 40506 10040 21010 39725 40216 53003 60006 80001 90600 333 10089 20033 60004=
07434,1997-03-21 09:00:00,9,1021.3,0.7,53,0,10000,18.52,,,60,,,,,,,,,,,wg-a,,,,AAXX 21094 07434 12/60 50610 10090 20000 39732 40213 51007 60006 80002 90900=
07434,1997-03-21 12:00:00,13,1020.7,0,35,-2,500,25.928,,,90,,,,,,,,,,,wg-a,,,,AAXX 21124 07434 12/00 60914 10130 21020 39732 40207 50000 60006 80002 91200=
07434,1997-03-21 15:00:00,14,1020,-0.5,41,1,50000,18.52,,,40,,,,,,,,,,,wg-a,,,,AAXX 21154 07434 12/84 60410 10140 20010 39727 40200 56005 60006 80002 91500=
07434,1997-03-21 18:00:00,11,1021.2,0.7,54,2,500,18.52,,,40,3.6,14.3,,,,,,,,,wg-a,,,,AAXX 21184 07434 12/00 60410 10110 20020 39734 40212 53007 60006 80002 91800 333 10143 20036=
07434,1997-03-21 21:00:00,9,1022.2,0.6,57,1,500,14.816,,,30,,,,,,,,,,,wg-a,,,,AAXX 21214 07434 12/00 50308 10090 20010 39740 40222 51006 60006 80002 92100=
07434,1997-03-22 00:00:00,7,1022.6,0.1,81,4,500,22.224,,,70,,,,,,,,,,,wg-a,,,,AAXX 22004 07434 12/00 30712 10070 20040 39741 40226 50001 60006 80002 90000=
07434,1997-03-22 06:00:00,4,1023.1,0.3,87,2,6000,18.52,,,70,3.7,11.2,,,,,,,,,wg-a,,,,AAXX 22064 07434 02/56 30710 10040 20020 39740 40231 53003 60006 80002 90600 333 10112 20037 60004=
07434,1997-03-22 09:00:00,8,1023.2,0.8,57,0,8000,18.52,,,80,,,,,,,,,,,wg-a,,,,AAXX 22094 07434 12/58 /0810 10080 20000 39748 40232 52008 60006 80002 90900=
07434,1997-03-22 12:00:00,12,1021.9,-0.6,35,-3,15000,18.52,,,80,,,,,,,,,,,wg-a,,,,AAXX 22124 07434 12/65 10810 10120 21030 39742 40219 58006 60006 80002 91200=
07434,1997-03-22 15:00:00,14,1020.5,-1,31,-3,25000,22.224,,,70,,,,,,,,,,,wg-a,,,,AAXX 22154 07434 12/75 30712 10140 21030 39732 40205 57010 60006 80002 91500=
07434,1997-03-22 18:00:00,11,1020.9,-0.2,40,-2,500,14.816,,,70,3.8,14,,,,,,,,,wg-a,,,,AAXX 22184 07434 12/00 10708 10110 21020 39730 40209 57002 60006 80002 91800 333 10140 20038=
07434,1997-03-22 21:00:00,7,1021.4,-0.1,53,-2,20000,18.52,,,70,,,,,,,,,,,wg-a,,,,AAXX 22214 07434 12/70 00710 10070 21020 39729 40214 58001 60006 80000 92100=
07434,1997-03-23 00:00:00,6,1020.5,-1.1,52,-3,12000,11.112,,,80,,,,,,,,,,,wg-a,,,,AAXX 23004 07434 12/62 20806 10060 21030 39718 40205 58011 60006 80002 90000=
07434,1997-03-23 03:00:00,5,1019.3,-1.3,56,-3,15000,7.408,,,80,,,,,,,,,,,wg-a,,,,AAXX 23034 07434 12/65 40804 10050 21030 39705 40193 58013 60006 80002 90300=
07434,1997-03-23 06:00:00,4,1019.4,-0.1,56,-4,15000,3.704,,,90,3.5,10.5,,,,,,,,,wg-a,,,,AAXX 23064 07434 02/65 60902 10040 21040 39704 40194 57001 60006 80002 90600 333 10105 20035 60004=
07434,1997-03-23 09:00:00,8,1018.8,0.1,53,-1,25000,11.112,,,190,,,,,,,,,,,wg-a,,,,AAXX 23094 07434 12/75 71906 10080 21010 39705 40188 50001 60006 80002 90900=
07434,1997-03-23 12:00:00,13,1016.8,-1.1,35,-2,500,11.112,,,270,,,,,,,,,,,wg-a,,,,AAXX 23124 07434 12/00 72706 10130 21020 39694 40168 58011 60006 80002 91200=
07434,1997-03-23 15:00:00,14,1015.5,-1,38,0,40000,14.816,,,300,,,,,,,,,,,wg-a,,,,AAXX 23154 07434 12/82 63008 10140 20000 39684 40155 56010 60006 80002 91500=
07434,1997-03-23 18:00:00,12,1014.4,-1.4,38,-2,500,14.816,,,260,3.5,14.4,,,,,,,,,wg-a,,,,AAXX 23184 07434 12800 72608 10120 21020 39670 40144 56014 60006 8457/ 91800 333 10144 20035=
07434,1997-03-23 21:00:00,10,1015.2,0.4,57,2,20000,22.224,,,290,,,,,,,,,,,wg-a,,,,AAXX 23214 07434 12470 72912 10100 20020 39674 40152 53004 60006 875// 92100=
07434,1997-03-24 00:00:00,8,1014.4,-0.9,93,7,15000,11.112,,,290,,,,,,,,,,,wg-a,,,,AAXX 24004 07434 12265 72906 10080 20070 39665 40144 58009 60006 876// 90000=
07434,1997-03-24 03:00:00,8,1013.8,-0.7,87,6,13000,7.408,,,310,,,,,,,,,,,wg-a,,,,AAXX 24034 07434 12263 73104 10080 20060 39658 40138 58007 60006 876// 90300=
07434,1997-03-24 06:00:00,5,1014.3,0.1,87,3,15000,7.408,,,350,5.4,11.8,,,,,,,,,wg-a,,,,AAXX 24064 07434 02465 73504 10050 20030 39659 40143 53001 60006 875// 90600 333 10118 20054 60004=
07434,1997-03-24 09:00:00,8,1014.3,0.5,71,3,15000,7.408,,,350,,,,,,,,,,,wg-a,,,,AAXX 24094 07434 12465 /3504 10080 20030 39664 40143 51005 60006 86830 90900=
07434,1997-03-24 12:00:00,11,1013,-0.9,62,4,20000,11.112,,,310,,,,,,,,,,,wg-a,,,,AAXX 24124 07434 12570 73106 10110 20040 39655 40130 58009 60006 8553/ 91200=
07434,1997-03-24 15:00:00,8,1012.5,-0.8,93,7,1500,11.112,,,280,,,,0,,,,,,10,wg-a,,,,AAXX 24154 07434 12215 82806 10080 20070 39647 40125 56008 60007 71065 875// 91500=
07434,1997-03-24 18:00:00,8,1011.7,-0.8,100,8,3000,3.704,,,220,5.2,10.9,,,,,,,,10,wg-a,,,,AAXX 24184 07434 02130 82202 10080 20080 39639 40117 56008 61000 71065 877// 91800 333 10109 20052 6001=
07434,1997-03-24 21:00:00,8,1012.3,0.6,100,8,2000,7.408,,,240,,,,3,,,,,,10,wg-a,,,,AAXX 24214 07434 12120 82404 10080 20080 39645 40123 53006 60037 71066 877// 92100=
07434,1997-03-25 00:00:00,8,1012.9,0.5,100,8,4000,14.816,,,20,,,,0,,,,,,10,wg-a,,,,AAXX 25004 07434 02240 80208 10080 20080 39650 40129 53005 60046 71065 877// 90000 333 60007=
07434,1997-03-25 03:00:00,7,1014.2,1.2,100,7,8000,14.816,,,10,,,,,,,,,,0,wg-a,,,,AAXX 25034 07434 02258 70108 10070 20070 39662 40142 53012 61000 70052 876// 90300 333 ////=
07434,1997-03-25 06:00:00,7,1016.4,2,93,6,10000,7.408,,,20,7,8.3,,,,,,,,21,wg-a,,,,AAXX 25064 07434 02260 80204 10070 20060 39682 40164 53020 61000 72165 875// 90600 333 10083 20070 6005=
07434,1997-03-25 09:00:00,9,1017.8,1.6,87,7,10000,18.52,,,340,,,,,,,,,,,wg-a,,,,AAXX 25094 07434 12360 73410 10090 20070 39698 40178 51016 60006 878// 90900=
07434,1997-03-25 12:00:00,10,1018.5,0.9,76,6,11000,14.816,,,330,,,,,,,,,,,wg-a,,,,AAXX 25124 07434 12/61 /3308 10100 20060 39707 40185 51009 60006 91200=
07434,1997-03-25 15:00:00,11,1018.6,0.2,71,6,40000,14.816,,,360,,,,,,,,,,,wg-a,,,,AAXX 25154 07434 12582 73608 10110 20060 39709 40186 52002 60006 878// 91500=
07434,1997-03-25 18:00:00,10,1020,1.2,71,5,25000,11.112,,,350,6.9,11.1,,,,,,,,,wg-a,,,,AAXX 25184 07434 12575 73506 10100 20050 39721 40200 53012 60006 8683/ 91800 333 10111 20069=
07434,1997-03-25 21:00:00,8,1022,1.5,81,5,10000,3.704,,,20,,,,,,,,,,,wg-a,,,,AAXX 25214 07434 12760 20202 10080 20050 39736 40220 53015 60006 82500 92100=
07434,1997-03-26 00:00:00,6,1022.8,0.4,87,4,10000,3.704,,,310,,,,,,,,,,,wg-a,,,,AAXX 26004 07434 12/60 03102 10060 20040 39740 40228 51004 60006 80000 90000=
07434,1997-03-26 03:00:00,4,1022.7,-0.3,100,4,400,3.704,,,30,,,,,,,,,,44,wg-a,,,,AAXX 26034 07434 12/04 20302 10040 20040 39737 40227 56003 60006 74440 80001 90300=
07434,1997-03-26 06:00:00,2,1024.5,1.2,93,1,400,7.408,,,50,,,,,,,,,,44,wg-a,,,,AAXX 26064 07434 12104 30504 10020 20010 39749 40245 53012 60006 744// 90600=
07434,1997-03-26 12:00:00,13,1023.5,0.5,51,3,20000,11.112,,,290,,,,,,,,,,3,wg-a,,,,AAXX 26124 07434 12570 52906 10130 20030 39759 40235 51005 60006 70341 82131 91200=
07434,1997-03-26 18:00:00,13,1023.4,0.7,62,6,35000,7.408,,,290,1.6,15.2,,,,,,,,,wg-a,,,,AAXX 26184 07434 12/81 72904 10130 20060 39758 40234 53007 60006 86072 91800 333 10152 20016=
07434,1997-03-26 21:00:00,10,1025.2,1.2,66,4,20000,7.408,,,320,,,,,,,,,,,wg-a,,,,AAXX 26214 07434 12/70 33204 10100 20040 39770 40252 53012 60006 82031 92100=
07434,1997-03-27 00:00:00,9,1025.8,0.4,71,4,10000,7.408,,,310,,,,,,,,,,,wg-a,,,,AAXX 27004 07434 12/60 /3104 10090 20040 39774 40258 51004 60006 90000=
07434,1997-03-27 03:00:00,8,1025.5,-0.4,76,4,15000,3.704,,,300,,,,,,,,,,,wg-a,,,,AAXX 27034 07434 12765 73002 10080 20040 39770 40255 56004 60006 8153/ 90300=
07434,1997-03-27 06:00:00,8,1026.2,0.7,76,4,25000,3.704,,,320,8,12.9,,,,,,,,,wg-a,,,,AAXX 27064 07434 02575 73202 10080 20040 39777 40262 53007 60006 8453/ 90600 333 10129 20080 60004=
07434,1997-03-27 09:00:00,12,1026.4,0.8,67,6,20000,7.408,,,340,,,,,,,,,,,wg-a,,,,AAXX 27094 07434 12470 73404 10120 20060 39785 40264 51008 60006 8653/ 90900=
07434,1997-03-27 12:00:00,16,1024.5,-1.1,68,10,25000,3.704,,,280,,,,,,,,,,,wg-a,,,,AAXX 27124 07434 12575 52802 10160 20100 39774 40245 58011 60006 85800 91200=
07434,1997-03-27 15:00:00,17,1023.2,-1.1,68,11,40000,11.112,,,310,,,,,,,,,,,wg-a,,,,AAXX 27154 07434 12582 53106 10170 20110 39763 40232 56011 60006 85400 91500=
07434,1997-03-27 18:00:00,15,1022.9,-0.5,72,10,40000,11.112,,,310,8.3,18.2,,,,,,,,,wg-a,,,,AAXX 27184 07434 12582 23106 10150 20100 39758 40229 55005 60006 82500 91800 333 10182 20083=
07434,1997-03-27 21:00:00,12,1023.6,0.1,88,10,20000,11.112,,,360,,,,,,,,,,,wg-a,,,,AAXX 27214 07434 12/70 03606 10120 20100 39759 40236 50001 60006 80000 92100=
07434,1997-03-28 00:00:00,11,1022.7,-1,94,10,8000,3.704,,,340,,,,,,,,,,,wg-a,,,,AAXX 28004 07434 12358 73402 10110 20100 39749 40227 58010 60006 876// 90000=
07434,1997-03-28 03:00:00,10,1021.3,-1.4,100,10,7000,3.704,,,280,,,,,,,,,,,wg-a,,,,AAXX 28034 07434 12257 82802 10100 20100 39735 40213 58014 60006 886// 90300=
07434,1997-03-28 06:00:00,10,1021.3,-0.1,100,10,1500,14.816,,,320,9.9,15,,,,,,,,28,wg-a,,,,AAXX 28064 07434 02115 93208 10100 20100 39734 40213 55001 60006 72854 897// 90600 333 10150 20099 61000=
07434,1997-03-28 09:00:00,9,1022.4,0.9,100,9,10000,18.52,,,360,,,,1,,,,,,20,wg-a,,,,AAXX 28094 07434 12260 83610 10090 20090 39743 40224 51009 60017 72054 887// 90900=
07434,1997-03-28 12:00:00,12,1022,0.1,62,5,50000,22.224,,,350,,,,,,,,,,1,wg-a,,,,AAXX 28124 07434 12684 43512 10120 20050 39744 40220 50001 60016 70154 84200 91200=
07434,1997-03-28 15:00:00,12,1022,0,47,1,60000,22.224,,38.892,10,,,,,,,,,,,wg-a,,,,AAXX 28154 07434 12686 20112 10120 20010 39744 40220 50000 60006 82100 91500 333 91021=
07434,1997-03-28 18:00:00,9,1023.3,0.6,46,-2,50000,18.52,,,360,9,12.5,,,,,,,,,wg-a,,,,AAXX 28184 07434 12684 /3610 10090 21020 39750 40233 53006 60006 81800 91800 333 10125 20090=
07434,1997-03-28 21:00:00,6,1025.8,1.9,56,-2,50000,14.816,,,10,,,,,,,,,,,wg-a,,,,AAXX 28214 07434 12/84 00108 10060 21020 39769 40258 53019 60006 80000 92100=
07434,1997-03-29 00:00:00,4,1026,-0.1,60,-3,40000,18.52,,,20,,,,,,,,,,,wg-a,,,,AAXX 29004 07434 12/82 00210 10040 21030 39768 40260 58001 60006 80000 90000=
07434,1997-03-29 03:00:00,2,1026.6,0.2,75,-2,40000,11.112,,,20,,,,,,,,,,,wg-a,,,,AAXX 29034 07434 12/82 00206 10020 21020 39770 40266 51002 60006 80000 90300=
07434,1997-03-29 06:00:00,2,1026.7,-0,80,-1,40000,14.816,,,10,1.4,8.9,,,,,1,,,,wg-a,,,,AAXX 29064 07434 02/82 00108 10020 21010 39770 40267 55000 60006 80000 90600 333 10089 20014 60014=
07434,1997-03-29 09:00:00,6,1026.6,0.8,65,0,15000,14.816,,,20,,,,,,,,,,,wg-a,,,,AAXX 29094 07434 12565 /0208 10060 20000 39778 40266 51008 60006 81100 90900=
07434,1997-03-29 12:00:00,9,1025.7,-0.4,46,-2,500,18.52,,,20,,,,,,,,,,,wg-a,,,,AAXX 29124 07434 12600 30210 10090 21020 39774 40257 58004 60006 83200 91200=
07434,1997-03-29 15:00:00,10,1024,-1.5,43,-2,500,18.52,,,10,,,,,,,,,,,wg-a,,,,AAXX 29154 07434 12600 20110 10100 21020 39759 40240 57015 60006 82100 91500=
07434,1997-03-29 18:00:00,8,1024.6,0.3,49,-2,25000,14.816,,,30,1.4,10.4,,,,,,,,,wg-a,,,,AAXX 29184 07434 12675 20308 10080 21020 39762 40246 53003 60006 82500 91800 333 10104 20014=
07434,1997-03-29 21:00:00,6,1025.3,0.3,56,-2,20000,14.816,,,20,,,,,,,,,,,wg-a,,,,AAXX 29214 07434 12/70 10208 10060 21020 39765 40253 53003 60006 80001 92100=
07434,1997-03-30 00:00:00,5,1025.1,-0.4,60,-2,20000,18.52,,,40,,,,,,,,,,,wg-a,,,,AAXX 30004 07434 12/70 00410 10050 21020 39761 40251 56004 60006 80000 90000=
07434,1997-03-30 03:00:00,4,1025.1,-0.2,65,-2,18000,18.52,,,60,,,,,,,,,,,wg-a,,,,AAXX 30034 07434 12/68 00610 10040 21020 39759 40251 58002 60006 80000 90300=
07434,1997-03-30 06:00:00,3,1025.8,0.5,75,-1,15000,18.52,,,60,3,8.4,,,,,,,,,wg-a,,,,AAXX 30064 07434 02/65 00610 10030 21010 39764 40258 53005 60006 80000 90600 333 10084 20030 60004=
07434,1997-03-30 09:00:00,8,1025.6,0.6,57,0,20000,22.224,,,90,,,,,,,,,,,wg-a,,,,AAXX 30094 07434 12/70 00912 10080 20000 39770 40256 51006 60006 80000 90900=
07434,1997-03-30 12:00:00,12,1024.1,-0.8,40,-1,50000,31.484,,,60,,,,,,,,,,,wg-a,,,,AAXX 30124 07434 12584 /0617 10120 21010 39762 40241 58008 60006 81100 91200=
07434,1997-03-30 15:00:00,13,1022.7,-1.1,38,-1,50000,31.484,,,60,,,,,,,,,,,wg-a,,,,AAXX 30154 07434 12684 /0617 10130 21010 39751 40227 56011 60006 81100 91500=
07434,1997-03-30 18:00:00,11,1023.1,-0,47,0,50000,25.928,,,60,3,13.1,,,,,,,,,wg-a,,,,AAXX 30184 07434 12784 10614 10110 20000 39751 40231 55000 60006 814/0 91800 333 10131 20030=
07434,1997-03-30 21:00:00,8,1023.7,0.2,53,-1,500,18.52,,,40,,,,,,,,,,,wg-a,,,,AAXX 30214 07434 12/00 00410 10080 21010 39753 40237 50002 60006 80000 92100=
07434,1997-03-31 00:00:00,7,1023.4,-0.6,61,0,20000,22.224,,,70,,,,,,,,,,,wg-a,,,,AAXX 31004 07434 12/70 00712 10070 20000 39747 40234 56006 60006 80000 90000=
07434,1997-03-31 06:00:00,4,1022.8,0.1,75,0,25000,18.52,,,60,4.2,10.6,,,,,,,,,wg-a,,,,AAXX 31064 07434 02/75 00610 10040 20000 39738 40228 53001 60006 80000 90600 333 10106 20042 60004=
07434,1997-03-31 09:00:00,10,1022.2,0.3,46,-1,50000,22.224,,,90,,,,,,,,,,,wg-a,,,,AAXX 31094 07434 12/84 00912 10100 21010 39741 40222 52003 60006 80000 90900=
07434,1997-03-31 12:00:00,14,1020.7,-0.7,38,0,50000,11.112,,,100,,,,,,,,,,,wg-a,,,,AAXX 31124 07434 12/84 01006 10140 20000 39734 40207 58007 60006 80000 91200=
07434,1997-03-31 15:00:00,17,1019,-1.1,34,1,50000,14.816,,,90,,,,,,,,,,,wg-a,,,,AAXX 31154 07434 12/84 00908 10170 20010 39723 40190 56011 60006 80000 91500=
07434,1997-03-31 18:00:00,15,1019.4,-0.1,41,2,50000,14.816,,,80,4.2,17.4,,,,,,,,,wg-a,,,,AAXX 31184 07434 12/84 00808 10150 20020 39722 40194 55001 60006 80000 91800 333 10174 20042=
07434,1997-03-31 21:00:00,10,1020.5,0.4,57,2,15000,14.816,,,70,,,,,,,,,,,wg-a,,,,AAXX 31214 07434 12/65 00708 10100 20020 39726 40205 51004 60006 80000 92100=
07434,1997-04-01 00:00:00,9,1020,-0.7,57,1,15000,14.816,,,80,,,,,,,,,,,wg-a,,,,AAXX 01004 07434 12/65 00808 10090 20010 39719 40200 58007 60006 80000 90000=
07434,1997-04-01 03:00:00,7,1019.7,-0.7,66,1,15000,7.408,,,70,,,,,,,,,,,wg-a,,,,AAXX 01034 07434 12/65 00704 10070 20010 39712 40197 56007 60006 80000 90300=
07434,1997-04-01 06:00:00,6,1020.4,0.6,70,1,20000,7.408,,,60,5.9,14.5,,,,,,,,,wg-a,,,,AAXX 01064 07434 02/70 00604 10060 20010 39718 40204 53006 60006 80000 90600 333 10145 20059 60004=
07434,1997-04-01 09:00:00,12,1020.1,0.7,54,3,25000,7.408,,,120,,,,,,,,,,,wg-a,,,,AAXX 01094 07434 12/75 01204 10120 20030 39725 40201 51007 60006 80000 90900=
07434,1997-04-01 12:00:00,17,1018.9,-0.4,36,2,40000,3.704,,,100,,,,,,,,,,,wg-a,,,,AAXX 01124 07434 12/82 01002 10170 20020 39721 40189 57004 60006 80000 91200=
07434,1997-04-01 15:00:00,20,1016.5,-1.8,37,5,50000,7.408,,,280,,,,,,,,,,,wg-a,,,,AAXX 01154 07434 12/84 02804 10200 20050 39703 40165 58018 60006 80000 91500=
07434,1997-04-01 18:00:00,17,1017.1,0.1,34,1,50000,18.52,,,60,6.1,20,,,,,,,,,wg-a,,,,AAXX 01184 07434 12/84 00610 10170 20010 39704 40171 53001 60006 80000 91800 333 10200 20061=
07434,1997-04-01 21:00:00,14,1018.3,0.7,44,2,500,14.816,,,50,,,,,,,,,,,wg-a,,,,AAXX 01214 07434 12/00 00508 10140 20020 39711 40183 51007 60006 80000 92100=
07434,1997-04-02 00:00:00,12,1018.5,-0.1,54,3,25000,14.816,,,60,,,,,,,,,,,wg-a,,,,AAXX 02004 07434 12/75 00608 10120 20030 39710 40185 58001 60006 80000 90000=
07434,1997-04-02 03:00:00,11,1018,-0.7,58,3,20000,11.112,,,60,,,,,,,,,,,wg-a,,,,AAXX 02034 07434 12/70 00606 10110 20030 39703 40180 58007 60006 80000 90300=
07434,1997-04-02 06:00:00,9,1018.8,0.5,66,3,20000,11.112,,,90,9.2,17,,,,,,,,,wg-a,,,,AAXX 02064 07434 02/70 00906 10090 20030 39708 40188 53005 60006 80000 90600 333 10170 20092 60004=
07434,1997-04-02 12:00:00,20,1016.6,-0.9,28,1,45000,11.112,,,50,,,,,,,,,,,wg-a,,,,AAXX 02124 07434 12/83 00506 10200 20010 39703 40166 58009 60006 80000 91200=
07434,1997-04-02 18:00:00,17,1016.1,0.3,39,3,50000,14.816,,,30,8.9,20.5,,,,,,,,,wg-a,,,,AAXX 02184 07434 12784 10308 10170 20030 39695 40161 53003 60006 81500 91800 333 10205 20089=
07434,1997-04-02 21:00:00,15,1017.8,1.2,44,3,20000,14.816,,,20,,,,,,,,,,,wg-a,,,,AAXX 02214 07434 12/70 00208 10150 20030 39707 40178 51012 60006 80000 92100=
07434,1997-04-03 00:00:00,13,1017.9,-0.1,47,2,20000,11.112,,,20,,,,,,,,,,,wg-a,,,,AAXX 03004 07434 12/70 00206 10130 20020 39706 40179 58001 60006 80000 90000=
07434,1997-04-03 03:00:00,12,1017.6,-0.5,50,2,15000,3.704,,,40,,,,,,,,,,,wg-a,,,,AAXX 03034 07434 12/65 00402 10120 20020 39701 40176 56005 60006 80000 90300=
07434,1997-04-03 06:00:00,8,1018.9,0.5,66,2,15000,0,,,0,7.5,17,,,,,,,,,wg-a,,,,AAXX 03064 07434 02/65 00000 10080 20020 39706 40189 53005 60006 80000 90600 333 10170 20075 60004=
07434,1997-04-03 09:00:00,15,1018.8,1.1,51,5,6000,14.816,,,340,,,,,,,,,,,wg-a,,,,AAXX 03094 07434 12/56 03408 10150 20050 39717 40188 53011 60006 80000 90900=
07434,1997-04-03 12:00:00,17,1018.1,-0.2,45,5,15000,18.52,,,340,,,,,,,,,,,wg-a,,,,AAXX 03124 07434 12665 /3410 10170 20050 39715 40181 58002 60006 81100 91200=
07434,1997-04-03 15:00:00,17,1017.2,-0.9,45,5,15000,18.52,,,310,,,,,,,,,,,wg-a,,,,AAXX 03154 07434 12665 23110 10170 20050 39706 40172 57009 60006 82100 91500=
07434,1997-04-03 18:00:00,13,1018.8,0.8,58,5,18000,18.52,,,350,7.5,18.2,,,,,,,,,wg-a,,,,AAXX 03184 07434 12/68 53510 10130 20050 39714 40188 53008 60006 80004 91800 333 10182 20075=
07434,1997-04-04 00:00:00,7,1022.6,0.9,81,4,15000,14.816,,,360,,,,,,,,,,,wg-a,,,,AAXX 04004 07434 12765 33608 10070 20040 39740 40226 51009 60006 815/1 90000=
07434,1997-04-04 03:00:00,5,1023.3,0.5,93,4,12000,14.816,,,350,,,,,,,,,,,wg-a,,,,AAXX 04034 07434 12562 73508 10050 20040 39745 40233 53005 60006 84501 90300=
07434,1997-04-04 06:00:00,5,1025.4,1.9,93,4,10000,14.816,,,360,4.8,12.8,,,,,,,,,wg-a,,,,AAXX 04064 07434 02360 73608 10050 20040 39764 40254 53019 60006 875// 90600 333 10128 20048 60004=
07434,1997-04-04 09:00:00,7,1026.7,1.6,76,3,12000,11.112,,,20,,,,,,,,,,,wg-a,,,,AAXX 04094 07434 12462 /0206 10070 20030 39780 40267 51016 60006 85100 90900=
07434,1997-04-04 12:00:00,10,1026.3,0.1,53,1,15000,18.52,,,10,,,,,,,,,,,wg-a,,,,AAXX 04124 07434 12665 40110 10100 20010 39781 40263 50001 60006 84100 91200=
07434,1997-04-04 18:00:00,9,1026.7,0.5,43,-3,50000,18.52,,,30,5.2,12,,,,,,,,,wg-a,,,,AAXX 04184 07434 12/84 20310 10090 21030 39783 40267 53005 60006 80001 91800 333 10120 20052=
07434,1997-04-04 21:00:00,7,1028.4,1.2,49,-3,500,11.112,,,20,,,,,,,,,,,wg-a,,,,AAXX 04214 07434 12/00 10206 10070 21030 39795 40284 51012 60006 80001 92100=
07434,1997-04-05 00:00:00,5,1028.6,0,56,-3,20000,11.112,,,20,,,,,,,,,,,wg-a,,,,AAXX 05004 07434 12/70 00206 10050 21030 39795 40286 50000 60006 80000 90000=
07434,1997-04-05 03:00:00,5,1027.8,-0.9,48,-5,15000,3.704,,,60,,,,,,,,,,,wg-a,,,,AAXX 05034 07434 12/65 00602 10050 21050 39786 40278 56009 60006 80000 90300=
07434,1997-04-05 06:00:00,3,1028.9,0.7,60,-4,15000,3.704,,,230,2.7,9.4,,,,,,,,,wg-a,,,,AAXX 05064 07434 02/65 32302 10030 21040 39793 40289 53007 60006 80001 90600 333 10094 20027 60004=
07434,1997-04-05 09:00:00,9,1028.3,0.4,43,-3,15000,7.408,,,290,,,,,,,,,,,wg-a,,,,AAXX 05094 07434 12/65 32904 10090 21030 39797 40283 50004 60006 80001 90900=
07434,1997-04-05 12:00:00,13,1025.8,-1.6,44,1,15000,11.112,,,350,,,,,,,,,,,wg-a,,,,AAXX 05124 07434 12/65 33506 10130 20010 39781 40258 58016 60006 80001 91200=
07434,1997-04-05 15:00:00,15,1023.2,-2.2,44,3,15000,11.112,,,340,,,,,,,,,,,wg-a,,,,AAXX 05154 07434 12/65 33406 10150 20030 39759 40232 57022 60006 80001 91500=
07434,1997-04-05 18:00:00,12,1023.1,-0.5,54,3,25000,7.408,,,310,2.6,15,,,,,,,,,wg-a,,,,AAXX 05184 07434 12/75 53104 10120 20030 39754 40231 57005 60006 80001 91800 333 10150 20026=
07434,1997-04-05 21:00:00,10,1024.4,0.9,66,4,25000,11.112,,,310,,,,,,,,,,,wg-a,,,,AAXX 05214 07434 12/75 23106 10100 20040 39763 40244 53009 60006 80001 92100=
07434,1997-04-06 00:00:00,7,1024.3,-0.6,87,5,15000,14.816,,,320,,,,,,,,,,,wg-a,,,,AAXX 06004 07434 12/65 13208 10070 20050 39757 40243 56006 60006 80001 90000=
07434,1997-04-06 03:00:00,7,1023.5,-0.8,93,6,6000,11.112,,,30,,,,,,,,,,,wg-a,,,,AAXX 06034 07434 12256 /0306 10070 20060 39749 40235 56008 60006 86600 90300=
07434,1997-04-06 06:00:00,7,1023.1,-0.3,87,5,10000,14.816,,,50,6.4,12.4,,,,,,,,,wg-a,,,,AAXX 06064 07434 02460 70508 10070 20050 39746 40231 56003 60006 875// 90600 333 10124 20064 60004=
07434,1997-04-06 09:00:00,9,1023.9,1.1,81,6,15000,14.816,,,30,,,,,,,,,,,wg-a,,,,AAXX 06094 07434 12465 70308 10090 20060 39757 40239 52011 60006 875// 90900=
07434,1997-04-06 12:00:00,13,1022.9,-0.3,67,7,15000,7.408,,,40,,,,,,,,,,,wg-a,,,,AAXX 06124 07434 12565 /0404 10130 20070 39754 40229 58003 60006 86100 91200=
07434,1997-04-06 15:00:00,15,1021,-1.5,55,6,40000,29.632,,,60,,,,,,,,,,,wg-a,,,,AAXX 06154 07434 12582 30616 10150 20060 39739 40210 58015 60006 83100 91500=
07434,1997-04-06 18:00:00,13,1021.5,0.1,62,6,40000,18.52,,,70,7,15.4,,,,,,,,,wg-a,,,,AAXX 06184 07434 12682 20710 10130 20060 39740 40215 50001 60006 82100 91800 333 10154 20070=
07434,1997-04-06 21:00:00,10,1022.3,0.4,71,5,40000,18.52,,,50,,,,,,,,,,,wg-a,,,,AAXX 06214 07434 12/82 20510 10100 20050 39744 40223 50004 60006 80001 92100=
07434,1997-04-07 00:00:00,8,1021.8,-0.9,49,-2,40000,25.928,,,70,,,,,,,,,,,wg-a,,,,AAXX 07004 07434 12/82 20714 10080 21020 39735 40218 56009 60006 80001 90000=
07434,1997-04-07 03:00:00,6,1021.6,-0.6,52,-3,40000,25.928,,,80,,,,,,,,,,,wg-a,,,,AAXX 07034 07434 12/82 20814 10060 21030 39729 40216 58006 60006 80001 90300=
07434,1997-04-07 06:00:00,5,1022.1,0.3,56,-3,20000,25.928,,,70,4.6,12.7,,,,,,,,,wg-a,,,,AAXX 07064 07434 02/70 20714 10050 21030 39732 40221 53003 60006 80001 90600 333 10127 20046 60004=
07434,1997-04-07 12:00:00,17,1019.3,-0.6,16,-9,40000,29.632,,,70,,,,,,,,,,,wg-a,,,,AAXX 07124 07434 12/82 30716 10170 21090 39725 40193 58006 60006 80001 91200=
07434,1997-04-07 15:00:00,18,1018.3,-0.8,19,-6,50000,31.484,,,70,,,,,,,,,,,wg-a,,,,AAXX 07154 07434 12/84 30717 10180 21060 39717 40183 58008 60006 80001 91500=
07434,1997-04-07 18:00:00,15,1018.8,-0,23,-6,50000,29.632,,,80,4.7,19.1,,,,,,,,,wg-a,,,,AAXX 07184 07434 12/84 50816 10150 21060 39717 40188 55000 60006 80001 91800 333 10191 20047=
07434,1997-04-07 21:00:00,12,1020.6,1.2,28,-6,15000,25.928,,,90,,,,,,,,,,,wg-a,,,,AAXX 07214 07434 12/65 20914 10120 21060 39729 40206 51012 60006 80001 92100=
07434,1997-04-08 00:00:00,9,1021.5,0.4,34,-6,15000,22.224,,,90,,,,,,,,,,,wg-a,,,,AAXX 08004 07434 12/65 20912 10090 21060 39733 40215 53004 60006 80001 90000=
07434,1997-04-08 03:00:00,8,1021.3,-0.4,39,-5,15000,11.112,,,80,,,,,,,,,,,wg-a,,,,AAXX 08034 07434 12/65 20806 10080 21050 39729 40213 55004 60006 80001 90300=
07434,1997-04-08 06:00:00,10,1022.3,1.3,40,-3,500,11.112,,,90,7.5,15.1,,,,,,,,,wg-a,,,,AAXX 08064 07434 02/00 40906 10100 21030 39742 40223 51013 60006 80002 90600 333 10151 20075 60004=
07434,1997-04-08 09:00:00,15,1022.5,1,31,-2,500,22.224,,,130,,,,,,,,,,,wg-a,,,,AAXX 08094 07434 12/00 61312 10150 21020 39752 40225 51010 60006 80002 90900=
07434,1997-04-08 12:00:00,18,1021.6,-0.4,30,0,40000,18.52,,,160,,,,,,,,,,,wg-a,,,,AAXX 08124 07434 12/82 51610 10180 20000 39748 40216 58004 60006 80002 91200=
07434,1997-04-08 15:00:00,19,1020.9,-0.5,32,2,40000,11.112,,,180,,,,,,,,,,,wg-a,,,,AAXX 08154 07434 12/82 41806 10190 20020 39743 40209 58005 60006 80002 91500=
07434,1997-04-08 18:00:00,18,1021.2,0.2,37,3,40000,3.704,,,60,9.7,19,,,,,,,,,wg-a,,,,AAXX 08184 07434 12/82 30602 10180 20030 39745 40212 53002 60006 80001 91800 333 10190 20097=
07434,1997-04-08 21:00:00,13,1023.8,1.8,51,3,500,14.816,,,180,,,,,,,,,,,wg-a,,,,AAXX 08214 07434 12/00 31808 10130 20030 39763 40238 51018 60006 80001 92100=
07434,1997-04-09 00:00:00,9,1025.9,1.3,71,4,20000,11.112,,,140,,,,,,,,,,,wg-a,,,,AAXX 09004 07434 12/70 21406 10090 20040 39776 40259 51013 60006 80001 90000=
07434,1997-04-09 03:00:00,8,1026.3,0.1,71,3,15000,11.112,,,130,,,,,,,,,,,wg-a,,,,AAXX 09034 07434 12/65 21306 10080 20030 39777 40263 51001 60006 80001 90300=
07434,1997-04-09 06:00:00,7,1027.3,0.9,70,2,15000,11.112,,,140,7.3,17.9,,,,,,,,,wg-a,,,,AAXX 09064 07434 02/65 21406 10070 20020 39786 40273 53009 60006 80001 90600 333 10179 20073 60004=
07434,1997-04-09 09:00:00,12,1027.7,1.2,58,4,15000,14.816,,,170,,,,,,,,,,,wg-a,,,,AAXX 09094 07434 12/65 21708 10120 20040 39798 40277 51012 60006 80001 90900=
07434,1997-04-09 12:00:00,17,1026.8,-0.1,42,4,20000,11.112,,,140,,,,,,,,,,,wg-a,,,,AAXX 09124 07434 12/70 21406 10170 20040 39797 40268 58001 60006 80001 91200=
07434,1997-04-09 15:00:00,20,1025.3,-1,37,5,20000,7.408,,,150,,,,,,,,,,,wg-a,,,,AAXX 09154 07434 12770 21504 10200 20050 39787 40253 56010 60006 81101 91500=
07434,1997-04-09 18:00:00,18,1026,0.4,45,6,20000,7.408,,,310,7.3,20.1,,,,,,,,,wg-a,,,,AAXX 09184 07434 12770 23104 10180 20060 39791 40260 53004 60006 81401 91800 333 10201 20073=
07434,1997-04-09 21:00:00,13,1028.4,1.5,62,6,500,7.408,,,240,,,,,,,,,,,wg-a,,,,AAXX 09214 07434 12/00 12404 10130 20060 39806 40284 53015 60006 80001 92100=
07434,1997-04-10 00:00:00,11,1030.1,1.3,58,3,0,7.408,,,160,,,,,,,,,,,wg-a,,,,AAXX 10004 07434 12/// /1604 10110 20030 39819 40301 52013 60006 90000=
07434,1997-04-10 03:00:00,9,1030.1,-0.3,66,3,20000,3.704,,,110,,,,,,,,,,,wg-a,,,,AAXX 10034 07434 12/70 01102 10090 20030 39816 40301 58003 60006 80000 90300=
07434,1997-04-10 06:00:00,8,1030.5,0.2,71,3,15000,3.704,,,50,8,17.8,,,,,,,,,wg-a,,,,AAXX 10064 07434 02/65 10502 10080 20030 39818 40305 53002 60006 80001 90600 333 10178 20080 60004=
07434,1997-04-10 09:00:00,16,1029.5,0.3,48,5,15000,3.704,,,70,,,,,,,,,,,wg-a,,,,AAXX 10094 07434 12/65 10702 10160 20050 39821 40295 52003 60006 80001 90900=
07434,1997-04-10 12:00:00,21,1027.4,-1.3,35,5,25000,14.816,,,60,,,,,,,,,,,wg-a,,,,AAXX 10124 07434 12/75 10608 10210 20050 39808 40274 58013 60006 80001 91200=
07434,1997-04-10 15:00:00,22,1025.8,-1.3,29,3,500,14.816,,,90,,,,,,,,,,,wg-a,,,,AAXX 10154 07434 12/00 10908 10220 20030 39795 40258 56013 60006 80001 91500=
07434,1997-04-10 18:00:00,19,1026.4,0.1,34,3,500,18.52,,,30,8,21.7,,,,,,,,,wg-a,,,,AAXX 10184 07434 12/00 10310 10190 20030 39796 40264 53001 60006 80001 91800 333 10217 20080=
07434,1997-04-10 21:00:00,16,1027.9,1,36,1,500,14.816,,,40,,,,,,,,,,,wg-a,,,,AAXX 10214 07434 12/00 10408 10160 20010 39806 40279 52010 60006 80001 92100=
07434,1997-04-11 00:00:00,14,1027.9,-0.4,36,-1,25000,11.112,,,50,,,,,,,,,,,wg-a,,,,AAXX 11004 07434 12/75 00506 10140 21010 39802 40279 56004 60006 80000 90000=
07434,1997-04-11 03:00:00,12,1027,-1.1,40,-1,25000,11.112,,,50,,,,,,,,,,,wg-a,,,,AAXX 11034 07434 12/75 00506 10120 21010 39791 40270 56011 60006 80000 90300=
07434,1997-04-11 06:00:00,12,1026.4,-0.6,40,-1,25000,7.408,,,40,11.8,18.7,,,,,,,,,wg-a,,,,AAXX 11064 07434 02/75 00404 10120 21010 39785 40264 56006 60006 80000 90600 333 10187 20118 60004=
07434,1997-04-11 09:00:00,17,1025.5,-0,32,0,25000,11.112,,,100,,,,,,,,,,,wg-a,,,,AAXX 11094 07434 12/75 01006 10170 20000 39785 40255 54000 60006 80000 90900=
07434,1997-04-11 12:00:00,20,1023.4,-1.6,23,-2,25000,18.52,,,40,,,,,,,,,,,wg-a,,,,AAXX 11124 07434 12/75 00410 10200 21020 39769 40234 58016 60006 80000 91200=
07434,1997-04-11 18:00:00,17,1021.4,-0.5,34,1,25000,11.112,,,20,12,20.9,,,,,,,,,wg-a,,,,AAXX 11184 07434 12/75 00206 10170 20010 39746 40214 57005 60006 80000 91800 333 10209 20120=
07434,1997-04-11 21:00:00,14,1021.9,0,36,-1,15000,11.112,,,20,,,,,,,,,,,wg-a,,,,AAXX 11214 07434 12/65 20206 10140 21010 39746 40219 50000 60006 80001 92100=
07434,1997-04-12 00:00:00,10,1022.8,0.1,71,5,15000,22.224,,,40,,,,,,,,,,,wg-a,,,,AAXX 12004 07434 12/65 20412 10100 20050 39747 40228 52001 60006 80001 90000=
07434,1997-04-12 03:00:00,8,1022.5,-0.6,71,3,15000,18.52,,,40,,,,,,,,,,,wg-a,,,,AAXX 12034 07434 12465 70410 10080 20030 39741 40225 57006 60006 8557/ 90300=
07434,1997-04-12 06:00:00,3,1023.5,0.1,75,-1,12000,25.928,,,40,3.2,17.4,,,,,,,,,wg-a,,,,AAXX 12064 07434 02/62 10414 10030 21010 39742 40235 53001 60006 80001 90600 333 10174 20032 60004=
07434,1997-04-12 09:00:00,7,1023.8,1,49,-3,20000,22.224,,,40,,,,,,,,,,,wg-a,,,,AAXX 12094 07434 12/70 20412 10070 21030 39752 40238 53010 60006 80001 90900=
07434,1997-04-12 12:00:00,12,1022.6,-0.4,24,-8,40000,35.188,,,60,,,,,,,,,,,wg-a,,,,AAXX 12124 07434 12/82 40619 10120 21080 39748 40226 58004 60006 80001 91200=
07434,1997-04-12 15:00:00,13,1021.7,-0.7,22,-8,60000,25.928,,,50,,,,,,,,,,,wg-a,,,,AAXX 12154 07434 12/86 10514 10130 21080 39741 40217 56007 60006 80001 91500=
07434,1997-04-12 18:00:00,10,1022.7,0.5,37,-4,75000,25.928,,,60,3.2,13.1,,,,,,,,,wg-a,,,,AAXX 12184 07434 12/89 10614 10100 21040 39746 40227 51005 60006 80001 91800 333 10131 20032=
07434,1997-04-12 21:00:00,7,1023.4,0.2,49,-3,35000,25.928,,,50,,,,,,,,,,,wg-a,,,,AAXX 12214 07434 12/81 00514 10070 21030 39748 40234 50002 60006 80000 92100=
07434,1997-04-13 00:00:00,5,1023.7,-0.1,56,-3,35000,25.928,,,70,,,,,,,,,,,wg-a,,,,AAXX 13004 07434 12/81 00714 10050 21030 39747 40237 58001 60006 80000 90000=
07434,1997-04-13 03:00:00,3,1023.1,-0.8,70,-2,35000,22.224,,,70,,,,,,,,,,,wg-a,,,,AAXX 13034 07434 12/81 00712 10030 21020 39739 40231 56008 60006 80000 90300=
07434,1997-04-13 06:00:00,3,1023.5,0.3,65,-3,20000,18.52,,,60,2.4,9.8,,,,,,,,,wg-a,,,,AAXX 13064 07434 02/70 00610 10030 21030 39742 40235 53003 60006 80000 90600 333 10098 20024 60004=
07434,1997-04-13 09:00:00,8,1022.5,-0.1,46,-3,500,29.632,,,80,,,,,,,,,,,wg-a,,,,AAXX 13094 07434 12/00 00816 10080 21030 39741 40225 58001 60006 80000 90900=
07434,1997-04-13 12:00:00,12,1020.8,-1,35,-3,40000,29.632,,,60,,,,,,,,,,,wg-a,,,,AAXX 13124 07434 12/82 00616 10120 21030 39731 40208 58010 60006 80000 91200=
07434,1997-04-13 18:00:00,12,1019.8,-0.4,35,-3,40000,25.928,,,60,3,14.1,,,,,,,,,wg-a,,,,AAXX 13184 07434 12/82 00614 10120 21030 39722 40198 55004 60006 80000 91800 333 10141 20030=
07434,1997-04-13 21:00:00,9,1020.8,0.4,46,-2,500,18.52,,,40,,,,,,,,,,,wg-a,,,,AAXX 13214 07434 12/00 00410 10090 21020 39726 40208 50004 60006 80000 92100=
07434,1997-04-14 00:00:00,7,1020.5,-0.5,53,-2,10000,18.52,,,70,,,,,,,,,,,wg-a,,,,AAXX 14004 07434 12/60 /0710 10070 21020 39721 40205 57005 60006 90000=
07434,1997-04-14 03:00:00,6,1020.6,-0.2,56,-2,20000,22.224,,,70,,,,,,,,,,,wg-a,,,,AAXX 14034 07434 12/70 00712 10060 21020 39719 40206 55002 60006 80000 90300=
07434,1997-04-14 06:00:00,6,1020.7,0.2,56,-2,500,18.52,,,80,5.5,12.2,,,,,,,,,wg-a,,,,AAXX 14064 07434 02/00 00810 10060 21020 39721 40207 53002 60006 80000 90600 333 10122 20055 60004=
07434,1997-04-14 09:00:00,13,1020.3,0.7,35,-2,500,29.632,,,80,,,,,,,,,,,wg-a,,,,AAXX 14094 07434 12/00 00816 10130 21020 39728 40203 51007 60006 80000 90900=
07434,1997-04-14 12:00:00,18,1019.2,-0.3,26,-2,500,14.816,,,70,,,,,,,,,,,wg-a,,,,AAXX 14124 07434 12/00 00708 10180 21020 39725 40192 58003 60006 80000 91200=
07434,1997-04-14 15:00:00,19,1017.9,-1,28,0,500,22.224,,,50,,,,,,,,,,,wg-a,,,,AAXX 14154 07434 12/00 00512 10190 20000 39715 40179 56010 60006 80000 91500=
07434,1997-04-14 18:00:00,16,1019.1,0.6,34,0,40000,18.52,,,40,6.2,19.3,,,,,,,,,wg-a,,,,AAXX 14184 07434 12/82 00410 10160 20000 39721 40191 53006 60006 80000 91800 333 10193 20062=
07434,1997-04-14 21:00:00,12,1020.9,1.2,40,-1,40000,18.52,,,40,,,,,,,,,,,wg-a,,,,AAXX 14214 07434 12/82 00410 10120 21010 39733 40209 51012 60006 80000 92100=
07434,1997-04-15 00:00:00,10,1021.6,0.3,53,1,500,18.52,,,70,,,,,,,,,,,wg-a,,,,AAXX 15004 07434 12/00 00710 10100 20010 39736 40216 53003 60006 80000 90000=
07434,1997-04-15 03:00:00,9,1021.2,-0.6,61,2,20000,22.224,,,60,,,,,,,,,,,wg-a,,,,AAXX 15034 07434 12/70 00612 10090 20020 39730 40212 56006 60006 80000 90300=
07434,1997-04-15 06:00:00,8,1022.3,1,71,3,15000,14.816,,,70,7.6,15.6,,,,,,,,,wg-a,,,,AAXX 15064 07434 02/65 00708 10080 20030 39740 40223 53010 60006 80000 90600 333 10156 20076 60004=
07434,1997-04-15 09:00:00,13,1022.2,0.7,51,3,15000,29.632,,,50,,,,,,,,,,,wg-a,,,,AAXX 15094 07434 12/65 00516 10130 20030 39747 40222 51007 60006 80000 90900=
07434,1997-04-15 12:00:00,15,1021.9,0,44,3,15000,22.224,,40.744,40,,,,,,,,,,,wg-a,,,,AAXX 15124 07434 12465 /0412 10150 20030 39747 40219 50000 60006 81100 91200 333 91022=
07434,1997-04-15 15:00:00,15,1020.9,-0.9,48,4,20000,25.928,,,40,,,,,,,,,,,wg-a,,,,AAXX 15154 07434 12/70 00414 10150 20040 39738 40209 56009 60006 80000 91500=
07434,1997-04-15 18:00:00,13,1021.6,0.3,38,-1,40000,29.632,,,40,8.2,15.9,,,,,,,,,wg-a,,,,AAXX 15184 07434 12/82 00416 10130 21010 39741 40216 53003 60006 80000 91800 333 10159 20082=
07434,1997-04-15 21:00:00,9,1023.6,1.1,49,-1,20000,22.224,,,50,,,,,,,,,,,wg-a,,,,AAXX 15214 07434 12/70 00512 10090 21010 39752 40236 51011 60006 80000 92100=
07434,1997-04-16 00:00:00,6,1023.1,-0.8,56,-2,20000,22.224,,,60,,,,,,,,,,,wg-a,,,,AAXX 16004 07434 12/70 00612 10060 21020 39744 40231 56008 60006 80000 90000=
07434,1997-04-16 03:00:00,5,1022.2,-1.1,56,-3,15000,29.632,,,60,,,,,,,,,,,wg-a,,,,AAXX 16034 07434 12/65 00616 10050 21030 39733 40222 56011 60006 80000 90300=
07434,1997-04-16 06:00:00,4,1022.3,-0,60,-3,500,18.52,,,70,3.9,13,,,,,,,,,wg-a,,,,AAXX 16064 07434 02/00 00710 10040 21030 39733 40223 55000 60006 80000 90600 333 10130 20039 60004=
07434,1997-04-16 09:00:00,10,1021.5,0.1,34,-5,500,31.484,,,80,,,,,,,,,,,wg-a,,,,AAXX 16094 07434 12/00 00817 10100 21050 39734 40215 53001 60006 80000 90900=
07434,1997-04-16 12:00:00,14,1019.3,-1.4,24,-6,40000,29.632,,,80,,,,,,,,,,,wg-a,,,,AAXX 16124 07434 12/82 00816 10140 21060 39720 40193 58014 60006 80000 91200=
07434,1997-04-16 15:00:00,15,1017,-1.9,29,-3,40000,25.928,,,70,,,,,,,,,,,wg-a,,,,AAXX 16154 07434 12/82 00714 10150 21030 39701 40170 58019 60006 80000 91500=
07434,1997-04-16 18:00:00,12,1017.3,-0.3,35,-3,40000,25.928,,,40,4.2,15.9,,,,,,,,,wg-a,,,,AAXX 16184 07434 12/82 00414 10120 21030 39698 40173 57003 60006 80000 91800 333 10159 20042=
07434,1997-04-16 21:00:00,8,1017.6,-0.3,42,-4,500,22.224,,,70,,,,,,,,,,,wg-a,,,,AAXX 16214 07434 12/00 00712 10080 21040 39695 40176 58003 60006 80000 92100=
07434,1997-04-17 00:00:00,6,1017,-0.9,45,-5,0,25.928,,,60,,,,,,,,,,,wg-a,,,,AAXX 17004 07434 12/// /0614 10060 21050 39686 40170 57009 60006 90000=
07434,1997-04-17 03:00:00,4,1015.8,-1.6,52,-5,500,18.52,,,70,,,,,,,,,,,wg-a,,,,AAXX 17034 07434 12/00 00710 10040 21050 39670 40158 56016 60006 80000 90300=
07434,1997-04-17 06:00:00,4,1016.1,0.2,48,-6,500,22.224,,,70,3,12,,,,,,,,,wg-a,,,,AAXX 17064 07434 02/00 10712 10040 21060 39672 40161 53002 60006 80001 90600 333 10120 20030 60004=
07434,1997-04-17 09:00:00,8,1015.4,0.1,31,-8,500,31.484,,51.856,80,,,,,,,,,,,wg-a,,,,AAXX 17094 07434 12/00 30817 10080 21080 39673 40154 50001 60006 80001 90900 333 91028=
07434,1997-04-17 12:00:00,11,1013.9,-0.9,24,-9,500,29.632,,,80,,,,,,,,,,,wg-a,,,,AAXX 17124 07434 12/00 10816 10110 21090 39664 40139 58009 60006 80001 91200=
07434,1997-04-17 15:00:00,12,1013,-0.7,22,-9,500,31.484,,,80,,,,,,,,,,,wg-a,,,,AAXX 17154 07434 12/00 10817 10120 21090 39657 40130 58007 60006 80001 91500=
07434,1997-04-17 18:00:00,11,1013.7,0.4,24,-9,500,29.632,,,70,3.5,12.9,,,,,,,,,wg-a,,,,AAXX 17184 07434 12/00 10716 10110 21090 39661 40137 53004 60006 80001 91800 333 10129 20035=
07434,1997-04-17 21:00:00,8,1016.3,2,29,-9,500,22.224,,,90,,,,,,,,,,,wg-a,,,,AAXX 17214 07434 12/00 10912 10080 21090 39681 40163 53020 60006 80001 92100=
07434,1997-04-18 00:00:00,6,1017.9,1.3,36,-8,20000,14.816,,,90,,,,,,,,,,,wg-a,,,,AAXX 18004 07434 12/70 10908 10060 21080 39694 40179 51013 60006 80001 90000=
07434,1997-04-18 03:00:00,4,1017.7,-0.6,44,-7,15000,11.112,,,60,,,,,,,,,,,wg-a,,,,AAXX 18034 07434 12/65 10606 10040 21070 39688 40177 56006 60006 80001 90300=
07434,1997-04-18 06:00:00,3,1018.3,0.5,52,-6,500,7.408,,,80,2.7,10.6,,,,,,,,,wg-a,,,,AAXX 18064 07434 02/00 00804 10030 21060 39693 40183 53005 60006 80000 90600 333 10106 20027 60004=
07434,1997-04-18 12:00:00,15,1014.2,-2,23,-6,50000,11.112,,,110,,,,,,,,,,,wg-a,,,,AAXX 18124 07434 12/84 11106 10150 21060 39672 40142 58020 60006 81030 91200=
07434,1997-04-18 15:00:00,17,1011.2,-2.4,19,-7,50000,11.112,,,110,,,,,,,,,,,wg-a,,,,AAXX 18154 07434 12784 11106 10170 21070 39648 40112 56024 60006 81130 91500=
07434,1997-04-18 18:00:00,15,1011,-0.6,23,-6,10000,14.816,,,40,3.4,17.7,,,,,,,,,wg-a,,,,AAXX 18184 07434 12/60 /0408 10150 21060 39642 40110 56006 60006 91800 333 10177 20034=
07434,1997-04-18 21:00:00,11,1012.6,0.9,32,-5,500,18.52,,,70,,,,,,,,,,,wg-a,,,,AAXX 18214 07434 12/00 20710 10110 21050 39651 40126 51009 60006 81032 92100=
07434,1997-04-19 00:00:00,8,1012.6,-0.4,42,-4,500,7.408,,,60,,,,,,,,,,,wg-a,,,,AAXX 19004 07434 12/00 20604 10080 21040 39647 40126 58004 60006 81032 90000=
07434,1997-04-19 03:00:00,7,1010.8,-1.9,42,-5,500,11.112,,,50,,,,,,,,,,,wg-a,,,,AAXX 19034 07434 12/00 20506 10070 21050 39628 40108 57019 60006 81032 90300=
07434,1997-04-19 06:00:00,6,1010.9,-0.2,52,-3,500,7.408,,,60,5.1,14.9,,,,,,,,,wg-a,,,,AAXX 19064 07434 02/00 10604 10060 21030 39626 40109 55002 60006 81031 90600 333 10149 20051 60004=
07434,1997-04-19 12:00:00,17,1006.4,-1.8,22,-5,40000,14.816,,,130,,,,,,,,,,,wg-a,,,,AAXX 19124 07434 12/82 21308 10170 21050 39601 40064 58018 60006 8/030 91200=
07434,1997-04-19 18:00:00,13,1005.7,0.4,58,5,11000,14.816,,,190,5.6,18.6,,,,,,,,,wg-a,,,,AAXX 19184 07434 12/61 /1908 10130 20050 39590 40057 53004 60006 91800 333 10186 20056=
07434,1997-04-19 21:00:00,10,1007.9,1.6,71,5,20000,7.408,,,30,,,,,,,,,,,wg-a,,,,AAXX 19214 07434 12670 20304 10100 20050 39606 40079 51016 60006 82500 92100=
07434,1997-04-20 00:00:00,7,1008.7,0.3,70,2,15000,18.52,,,40,,,,,,,,,,,wg-a,,,,AAXX 20004 07434 12/65 00410 10070 20020 39609 40087 53003 60006 80000 90000=
07434,1997-04-20 03:00:00,4,1009,-0.3,70,-1,15000,18.52,,,40,,,,,,,,,,,wg-a,,,,AAXX 20034 07434 12765 30410 10040 21010 39606 40090 58003 60006 83500 90300=
07434,1997-04-20 06:00:00,3,1009.7,0.4,65,-3,15000,22.224,,,50,2.1,12.9,,,,,,,,,wg-a,,,,AAXX 20064 07434 02/65 50512 10030 21030 39610 40097 53004 60006 80002 90600 333 10129 20021 60004=
07434,1997-04-20 09:00:00,7,1009.6,0.7,53,-2,15000,31.484,,,40,,,,,,,,,,,wg-a,,,,AAXX 20094 07434 12/65 40417 10070 21020 39617 40096 50007 60006 80002 90900=
07434,1997-04-20 12:00:00,10,1009,-0.1,34,-5,18000,31.484,,,30,,,,,,,,,,,wg-a,,,,AAXX 20124 07434 12/68 20317 10100 21050 39616 40090 58001 60006 80002 91200=
07434,1997-04-20 15:00:00,11,1008.4,-0.5,32,-5,20000,42.596,,,50,,,,,,,,,,,wg-a,,,,AAXX 20154 07434 12/70 10523 10110 21050 39611 40084 58005 60006 80002 91500=
07434,1997-04-20 18:00:00,9,1008.9,0.2,37,-5,25000,31.484,,,60,2.6,11.6,,,,,,,,,wg-a,,,,AAXX 20184 07434 12/75 10617 10090 21050 39613 40089 53002 60006 80002 91800 333 10116 20026=
07434,1997-04-20 21:00:00,6,1010.8,1.3,45,-5,20000,25.928,,,50,,,,,,,,,,,wg-a,,,,AAXX 20214 07434 12/70 10514 10060 21050 39626 40108 51013 60006 80002 92100=
07434,1997-04-21 00:00:00,4,1010.6,-0.5,44,-7,20000,22.224,,,60,,,,,,,,,,,wg-a,,,,AAXX 21004 07434 12/70 00612 10040 21070 39621 40106 58005 60006 80000 90000=
07434,1997-04-21 03:00:00,3,1010.2,-0.7,48,-7,20000,22.224,,,60,,,,,,,,,,,wg-a,,,,AAXX 21034 07434 12/70 00612 10030 21070 39614 40102 58007 60006 80000 90300=
07434,1997-04-21 06:00:00,3,1009.9,-0.2,48,-7,20000,22.224,,,50,1.8,9.1,,,,,,,,,wg-a,,,,AAXX 21064 07434 02/70 00512 10030 21070 39612 40099 56002 60006 80000 90600 333 10091 20018 60004=
07434,1997-04-21 09:00:00,7,1009,-0.1,33,-8,500,31.484,,,60,,,,,,,,,,,wg-a,,,,AAXX 21094 07434 12/00 00617 10070 21080 39611 40090 58001 60006 80000 90900=
07434,1997-04-21 12:00:00,11,1007.9,-0.4,24,-9,40000,35.188,,,60,,,,,,,,,,,wg-a,,,,AAXX 21124 07434 12/82 00619 10110 21090 39607 40079 58004 60006 80000 91200=
07434,1997-04-21 15:00:00,12,1007,-0.7,24,-8,40000,31.484,,,40,,,,,,,,,,,wg-a,,,,AAXX 21154 07434 12/82 00417 10120 21080 39600 40070 58007 60006 80000 91500=
07434,1997-04-21 18:00:00,10,1008.2,0.8,25,-9,40000,22.224,,,30,2.7,12.4,,,,,,,,,wg-a,,,,AAXX 21184 07434 12/82 00312 10100 21090 39608 40082 53008 60006 80000 91800 333 10124 20027=
07434,1997-04-21 21:00:00,6,1010.5,1.6,42,-6,500,14.816,,,30,,,,,,,,,,,wg-a,,,,AAXX 21214 07434 12/00 00308 10060 21060 39624 40105 51016 60006 80000 92100=
07434,1997-04-22 00:00:00,5,1010.8,0,41,-7,500,14.816,,,30,,,,,,,,,,,wg-a,,,,AAXX 22004 07434 12/00 00308 10050 21070 39624 40108 50000 60006 80000 90000=
07434,1997-04-22 03:00:00,3,1011,-0.2,48,-7,500,14.816,,,10,,,,,,,,,,,wg-a,,,,AAXX 22034 07434 12/00 00108 10030 21070 39622 40110 55002 60006 80000 90300=
07434,1997-04-22 06:00:00,3,1012.2,1.2,48,-7,500,14.816,,,20,1.4,10.2,,,,,,,,,wg-a,,,,AAXX 22064 07434 02/00 00208 10030 21070 39634 40122 53012 60006 80000 90600 333 10102 20014 60004=
07434,1997-04-22 12:00:00,12,1012.2,0.4,28,-6,500,18.52,,,30,,,,,,,,,,,wg-a,,,,AAXX 22124 07434 12/00 00310 10120 21060 39649 40122 51004 60006 80000 91200=
07434,1997-04-22 15:00:00,13,1011.8,-0.2,30,-4,25000,22.224,,42.596,20,,,,,,,,,,,wg-a,,,,AAXX 22154 07434 12/75 00212 10130 21040 39647 40118 58002 60006 80000 91500 333 91023=
07434,1997-04-22 18:00:00,11,1013.1,0.9,35,-4,25000,18.52,,,40,2.9,13.1,,,,,,,,,wg-a,,,,AAXX 22184 07434 12/75 00410 10110 21040 39656 40131 53009 60006 80000 91800 333 10131 20029=
07434,1997-04-22 21:00:00,8,1015.6,1.9,46,-3,15000,14.816,,,20,,,,,,,,,,,wg-a,,,,AAXX 22214 07434 12/65 00208 10080 21030 39675 40156 51019 60006 80000 92100=
07434,1997-04-23 00:00:00,5,1016.9,0.8,60,-2,15000,14.816,,,60,,,,,,,,,,,wg-a,,,,AAXX 23004 07434 12/65 00608 10050 21020 39683 40169 51008 60006 80000 90000=
07434,1997-04-23 03:00:00,4,1017.1,-0,60,-3,15000,11.112,,,60,,,,,,,,,,,wg-a,,,,AAXX 23034 07434 12/65 00606 10040 21030 39683 40171 55000 60006 80000 90300=
07434,1997-04-23 06:00:00,5,1018.1,1.1,56,-3,20000,7.408,,,50,3.7,10.9,,,,,,,,,wg-a,,,,AAXX 23064 07434 02/70 00504 10050 21030 39694 40181 53011 60006 80000 90600 333 10109 20037 60004=
07434,1997-04-23 09:00:00,10,1017.8,0.6,40,-3,15000,14.816,,,100,,,,,,,,,,,wg-a,,,,AAXX 23094 07434 12665 /1008 10100 21030 39700 40178 51006 60006 81101 90900=
07434,1997-04-23 12:00:00,13,1017.1,-0.2,33,-3,500,11.112,,,20,,,,,,,,,,,wg-a,,,,AAXX 23124 07434 12/00 00206 10130 21030 39698 40171 58002 60006 80000 91200=
07434,1997-04-23 15:00:00,14,1016.4,-0.5,33,-2,500,14.816,,,340,,,,,,,,,,,wg-a,,,,AAXX 23154 07434 12/00 03408 10140 21020 39693 40164 56005 60006 80000 91500=
07434,1997-04-23 18:00:00,13,1017.6,0.9,33,-3,40000,14.816,,,340,4.8,14.9,,,,,,,,,wg-a,,,,AAXX 23184 07434 12/82 23408 10130 21030 39702 40176 53009 60006 80001 91800 333 10149 20048=
07434,1997-04-23 21:00:00,9,1020,1.7,40,-4,20000,14.816,,,20,,,,,,,,,,,wg-a,,,,AAXX 23214 07434 12/70 30208 10090 21040 39719 40200 51017 60006 80001 92100=
07434,1997-04-24 00:00:00,8,1020.3,0.1,39,-5,20000,7.408,,,30,,,,,,,,,,,wg-a,,,,AAXX 24004 07434 12/70 10304 10080 21050 39720 40203 50001 60006 80001 90000=
07434,1997-04-24 03:00:00,5,1020.4,-0.4,52,-4,18000,3.704,,,70,,,,,,,,,,,wg-a,,,,AAXX 24034 07434 12/68 10702 10050 21040 39716 40204 56004 60006 80001 90300=
07434,1997-04-24 06:00:00,5,1021.4,0.9,52,-4,12000,3.704,,,60,3.6,12.5,,,,,,,,,wg-a,,,,AAXX 24064 07434 02/62 00602 10050 21040 39725 40214 53009 60006 80000 90600 333 10125 20036 60004=
07434,1997-04-24 12:00:00,16,1019.3,-0.8,29,-2,500,11.112,,,220,,,,,,,,,,,wg-a,,,,AAXX 24124 07434 12/00 02206 10160 21020 39724 40193 58008 60006 80000 91200=
07434,1997-04-24 18:00:00,17,1017.8,-0.3,22,-5,40000,11.112,,,230,4.7,19.3,,,,,,,,,wg-a,,,,AAXX 24184 07434 12/82 52306 10170 21050 39711 40178 56003 60006 80001 91800 333 10193 20047=
07434,1997-04-24 21:00:00,13,1019.3,0.8,24,-7,15000,0,,,0,,,,,,,,,,,wg-a,,,,AAXX 24214 07434 12/65 20000 10130 21070 39719 40193 52008 60006 80001 92100=
07434,1997-04-25 00:00:00,11,1019.4,-0.3,37,-3,15000,7.408,,,60,,,,,,,,,,,wg-a,,,,AAXX 25004 07434 12/65 20604 10110 21030 39716 40194 56003 60006 80001 90000=
07434,1997-04-25 03:00:00,8,1019.5,-0.4,53,-1,15000,7.408,,,110,,,,,,,,,,,wg-a,,,,AAXX 25034 07434 12/65 21104 10080 21010 39712 40195 57004 60006 80001 90300=
07434,1997-04-25 06:00:00,8,1019.8,0.3,61,1,15000,7.408,,,120,6.8,17.4,,,,,,,,,wg-a,,,,AAXX 25064 07434 02/65 61204 10080 20010 39715 40198 53003 60006 80001 90600 333 10174 20068 60004=
07434,1997-04-25 09:00:00,15,1018.7,0.3,55,6,25000,22.224,,,190,,,,,,,,,,,wg-a,,,,AAXX 25094 07434 12/75 61912 10150 20060 39718 40187 51003 60006 80002 90900=
07434,1997-04-25 12:00:00,20,1017,-1,40,6,25000,22.224,,,220,,,,,,,,,,,wg-a,,,,AAXX 25124 07434 12/75 52212 10200 20060 39708 40170 58010 60006 80002 91200=
07434,1997-04-25 15:00:00,21,1015.8,-1,38,6,20000,22.224,,,240,,,,,,,,,,,wg-a,,,,AAXX 25154 07434 12670 62412 10210 20060 39698 40158 58010 60006 82232 91500=
07434,1997-04-25 18:00:00,17,1017.4,0.9,48,6,15000,18.52,,,280,7.9,21.1,,,,,,,,,wg-a,,,,AAXX 25184 07434 12765 72810 10170 20060 39707 40174 52009 60006 8553/ 91800 333 10211 20079=
07434,1997-04-25 21:00:00,12,1019.3,1.1,76,8,15000,3.704,,,270,,,,,,,,,,,wg-a,,,,AAXX 25214 07434 12765 72702 10120 20080 39718 40193 51011 60006 8157/ 92100=
07434,1997-04-26 00:00:00,11,1019.1,-0.3,66,5,15000,7.408,,,240,,,,,,,,,,,wg-a,,,,AAXX 26004 07434 12465 72404 10110 20050 39715 40191 58003 60006 875// 90000=
07434,1997-04-26 06:00:00,10,1018,-0.5,93,9,2500,7.408,,,180,9.4,16.6,,,,,,,,10,wg-a,,,,AAXX 26064 07434 02125 81804 10100 20090 39702 40180 56005 60006 71052 877// 90600 333 10166 20094 61000=
07434,1997-04-26 09:00:00,12,1016.8,-0.8,88,10,12000,11.112,,,200,,,,,,,,,,60,wg-a,,,,AAXX 26094 07434 02362 82006 10120 20100 39694 40168 56008 61000 76062 875// 90900 333 ////=
07434,1997-04-26 12:00:00,12,1015,-1.7,94,11,11000,22.224,,,200,,,,,,,,,,,wg-a,,,,AAXX 26124 07434 12/61 /2012 10120 20110 39677 40150 58017 60026 91200=
07434,1997-04-26 15:00:00,13,1012.6,-2.1,94,12,12000,29.632,,,230,,,,1,,,,,,80,wg-a,,,,AAXX 26154 07434 12262 72316 10130 20120 39656 40126 58021 60017 78086 8527/ 91500=
07434,1997-04-26 18:00:00,12,1012.5,-0.3,88,10,18000,22.224,,,250,9.6,13.4,,1,,,,,,1,wg-a,,,,AAXX 26184 07434 12468 72512 10120 20100 39653 40125 55003 60017 70186 84832 91800 333 10134 20096=
07434,1997-04-26 21:00:00,11,1012.7,0.1,87,9,15000,14.816,,,240,,,,,,,,,,25,wg-a,,,,AAXX 26214 07434 02465 82408 10110 20090 39654 40127 50001 61000 72522 8583/ 92100 333 ////=
07434,1997-04-27 00:00:00,10,1012.5,-0.5,87,8,12000,22.224,,,250,,,,1,,,,,,60,wg-a,,,,AAXX 27004 07434 02462 82512 10100 20080 39649 40125 58005 60016 76086 8587/ 90000 333 60017=
07434,1997-04-27 03:00:00,9,1011,-1.4,100,9,10000,11.112,,,270,,,,2,,,,,,21,wg-a,,,,AAXX 27034 07434 12260 82706 10090 20090 39635 40110 56014 60027 72162 877// 90300=
07434,1997-04-27 06:00:00,9,1012.7,1.5,93,8,15000,11.112,,,270,8.5,11.9,,,,,7,,,2,wg-a,,,,AAXX 27064 07434 02265 82706 10090 20080 39650 40127 53015 60006 70262 877// 90600 333 10119 20085 60074=
07434,1997-04-27 09:00:00,11,1014.5,2,87,9,20000,18.52,,,280,,,,,,,,,,,wg-a,,,,AAXX 27094 07434 12370 72810 10110 20090 39670 40145 51020 60006 878// 90900=
07434,1997-04-27 12:00:00,14,1014.5,0.5,77,10,20000,18.52,,,280,,,,3,,,,,,21,wg-a,,,,AAXX 27124 07434 02470 62810 10140 20100 39675 40145 50005 60036 72186 86800 91200 333 60037=
07434,1997-04-27 18:00:00,12,1017.2,1.6,76,8,25000,14.816,,,280,8.6,13.7,,,,,,,,1,wg-a,,,,AAXX 27184 07434 12575 52808 10120 20080 39698 40172 52016 60006 70186 85800 91800 333 10137 20086=
07434,1997-04-27 21:00:00,10,1020,2.4,87,8,18000,11.112,,,270,,,,,,,,,,,wg-a,,,,AAXX 27214 07434 12468 72706 10100 20080 39722 40200 51024 60006 875// 92100=
07434,1997-04-28 00:00:00,10,1020.3,0.2,93,9,8000,11.112,,,260,,,,1,,,,,,61,wg-a,,,,AAXX 28004 07434 02158 82606 10100 20090 39724 40203 51002 60016 76162 887// 90000 333 60017=
07434,1997-04-28 03:00:00,10,1019.6,-0.6,100,10,700,11.112,,,220,,,,,,,,,,45,wg-a,,,,AAXX 28034 07434 32/07 92206 10100 20100 39718 40196 56006 74566 89/// 90300=
07434,1997-04-28 06:00:00,11,1019.5,-0,94,10,800,14.816,,,220,9.7,12.1,,,,,,,,44,wg-a,,,,AAXX 28064 07434 02108 82208 10110 20100 39718 40195 55000 61000 74465 887// 90600 333 10121 20097 6008=
07434,1997-04-28 12:00:00,13,1018.9,-0.5,100,13,3000,18.52,,,270,,,,2,,,,,,10,wg-a,,,,AAXX 28124 07434 02230 72710 10130 20130 39717 40189 58005 60026 71065 877// 91200 333 60027=
07434,1997-04-28 15:00:00,14,1018.8,0,88,12,0,29.632,,,270,,,,2,,,,,,,wg-a,,,,AAXX 28154 07434 12/// /2716 10140 20120 39717 40188 50000 60027 91500=
07434,1997-04-28 18:00:00,12,1018.4,-0.7,88,10,15000,18.52,,,260,10.6,14.5,,,,,,,,1,wg-a,,,,AAXX 28184 07434 12465 72610 10120 20100 39710 40184 58007 60006 70165 878// 91800 333 10145 20106=
07434,1997-04-28 21:00:00,11,1020.1,1.4,87,9,10000,14.816,,,270,,,,,,,,,,,wg-a,,,,AAXX 28214 07434 12460 72708 10110 20090 39724 40201 51014 60006 878// 92100=
07434,1997-04-29 03:00:00,9,1019.8,-0.3,87,7,10000,18.52,,,290,,,,,,,,,,,wg-a,,,,AAXX 29034 07434 12360 72910 10090 20070 39718 40198 55003 60006 878// 90300=
07434,1997-04-29 06:00:00,8,1020.9,0.9,100,8,6000,11.112,,,300,8.2,12.1,,,,,,,,21,wg-a,,,,AAXX 29064 07434 02356 73006 10080 20080 39727 40209 53009 61000 72162 878// 90600 333 10121 20082 6004=
07434,1997-04-29 12:00:00,11,1021.4,0.4,76,7,20000,11.112,,,280,,,,,,,,,,,wg-a,,,,AAXX 29124 07434 12570 72806 10110 20070 39737 40214 50004 60006 878// 91200=
07434,1997-04-29 18:00:00,12,1020.9,0.3,76,8,20000,11.112,,,300,8.4,13,,,,,,,,,wg-a,,,,AAXX 29184 07434 12570 73006 10120 20080 39733 40209 51003 60006 878// 91800 333 10130 20084=
07434,1997-04-30 00:00:00,10,1022.3,0.1,87,8,15000,7.408,,,310,,,,,,,,,,,wg-a,,,,AAXX 30004 07434 12465 /3104 10100 20080 39743 40223 53001 60006 86800 90000=
07434,1997-04-30 03:00:00,8,1022.6,-0,87,6,15000,14.816,,,20,,,,,,,,,,,wg-a,,,,AAXX 30034 07434 12665 50208 10080 20060 39743 40226 55000 60006 85830 90300=
07434,1997-04-30 06:00:00,8,1023.8,1.1,87,6,500,7.408,,,30,6.5,12.1,,,,,,,,,wg-a,,,,AAXX 30064 07434 02/00 10304 10080 20060 39754 40238 53011 60006 81030 90600 333 10121 20065 60004=
07434,1997-04-30 09:00:00,13,1023.7,0.8,72,8,40000,11.112,,,50,,,,,,,,,,,wg-a,,,,AAXX 30094 07434 12582 30506 10130 20080 39762 40237 50008 60006 83100 90900=
07434,1997-04-30 12:00:00,15,1023.6,0.2,55,6,40000,22.224,,,30,,,,,,,,,,,wg-a,,,,AAXX 30124 07434 12682 40312 10150 20060 39764 40236 51002 60006 84200 91200=
07434,1997-04-30 15:00:00,16,1023.5,-0,51,6,40000,22.224,,,40,,,,,,,,,,,wg-a,,,,AAXX 30154 07434 12682 50412 10160 20060 39764 40235 54000 60006 85800 91500=
07434,1997-04-30 18:00:00,15,1023.8,0.2,55,6,40000,11.112,,,50,7.9,17,,,,,,,,,wg-a,,,,AAXX 30184 07434 12682 /0506 10150 20060 39766 40238 53002 60006 81400 91800 333 10170 20079=
07434,1997-04-30 21:00:00,12,1025.2,0.8,67,6,500,14.816,,,40,,,,,,,,,,,wg-a,,,,AAXX 30214 07434 12/00 10408 10120 20060 39774 40252 51008 60006 80001 92100=
07434,1997-05-01 00:00:00,10,1025.5,-0.1,76,6,20000,14.816,,,70,,,,,,,,,,,wg-a,,,,AAXX 01004 07434 12/70 00708 10100 20060 39773 40255 55001 60006 80000 90000=
07434,1997-05-01 03:00:00,8,1025.3,-0.5,81,5,15000,11.112,,,70,,,,,,,,,,,wg-a,,,,AAXX 01034 07434 12/65 00706 10080 20050 39768 40253 56005 60006 80000 90300=
07434,1997-05-01 06:00:00,9,1025.3,0.2,76,5,12000,22.224,,,70,7.4,15,,,,,,,,,wg-a,,,,AAXX 01064 07434 02/62 00712 10090 20050 39770 40253 53002 60006 80000 90600 333 10150 20074 60004=
07434,1997-05-01 12:00:00,19,1022.9,-0.7,37,4,40000,22.224,,,80,,,,,,,,,,,wg-a,,,,AAXX 01124 07434 12/82 10812 10190 20040 39763 40229 58007 60006 80001 91200=
07434,1997-05-01 15:00:00,21,1021.4,-1.2,33,4,50000,22.224,,,80,,,,,,,,,,,wg-a,,,,AAXX 01154 07434 12/84 10812 10210 20040 39751 40214 57012 60006 80001 91500=
07434,1997-05-01 18:00:00,19,1021.4,-0.3,37,4,50000,25.928,,,70,9.1,20.8,,,,,,,,,wg-a,,,,AAXX 01184 07434 12/84 10714 10190 20040 39748 40214 56003 60006 80001 91800 333 10208 20091=
07434,1997-05-02 00:00:00,13,1023,-0.3,54,4,15000,18.52,,,110,,,,,,,,,,,wg-a,,,,AAXX 02004 07434 12/65 01110 10130 20040 39754 40230 56003 60006 80000 90000=
07434,1997-05-02 03:00:00,11,1023.1,-0.2,62,4,15000,14.816,,,80,,,,,,,,,,,wg-a,,,,AAXX 02034 07434 12/65 00808 10110 20040 39752 40231 58002 60006 80000 90300=
07434,1997-05-02 06:00:00,13,1023,0.2,54,4,500,11.112,,,90,10.5,18.5,,,,,,,,,wg-a,,,,AAXX 02064 07434 02/00 10906 10130 20040 39754 40230 53002 60006 80001 90600 333 10185 20105 60004=
07434,1997-05-02 09:00:00,20,1022.1,0.2,32,3,40000,18.52,,,150,,,,,,,,,,,wg-a,,,,AAXX 02094 07434 12/82 11510 10200 20030 39756 40221 50002 60006 80001 90900=
07434,1997-05-02 12:00:00,23,1020.1,-1.4,23,1,40000,22.224,,,160,,,,,,,,,,,wg-a,,,,AAXX 02124 07434 12/82 11612 10230 20010 39742 40201 58014 60006 80001 91200=
07434,1997-05-02 15:00:00,25,1018.5,-1.2,21,1,50000,18.52,,,160,,,,,,,,,,,wg-a,,,,AAXX 02154 07434 12/84 21610 10250 20010 39730 40185 58012 60006 80001 91500=
07434,1997-05-02 18:00:00,23,1018.7,-0.2,29,4,50000,14.816,,,170,12.8,24.9,,,,,,,,,wg-a,,,,AAXX 02184 07434 12/84 31708 10230 20040 39728 40187 57002 60006 80001 91800 333 10249 20128=
07434,1997-05-02 21:00:00,17,1020.3,0.8,39,3,40000,11.112,,,170,,,,,,,,,,,wg-a,,,,AAXX 02214 07434 12/82 11706 10170 20030 39736 40203 53008 60006 80001 92100=
07434,1997-05-03 00:00:00,14,1021.2,0.3,44,2,500,11.112,,,140,,,,,,,,,,,wg-a,,,,AAXX 03004 07434 12/00 01406 10140 20020 39739 40212 51003 60006 80000 90000=
07434,1997-05-03 06:00:00,13,1020,-0.1,47,2,500,11.112,,,110,11.7,22.5,,,,,,,,,wg-a,,,,AAXX 03064 07434 02/00 11106 10130 20020 39726 40200 55001 60006 80001 90600 333 10225 20117 60004=
07434,1997-05-03 09:00:00,18,1019.1,-0,49,7,500,18.52,,,170,,,,,,,,,,,wg-a,,,,AAXX 03094 07434 12/00 21710 10180 20070 39726 40191 55000 60006 80001 90900=
07434,1997-05-03 12:00:00,20,1018.3,-0.4,56,11,500,22.224,,,220,,,,,,,,,,,wg-a,,,,AAXX 03124 07434 12/00 52212 10200 20110 39722 40183 58004 60006 80004 91200=
07434,1997-05-03 18:00:00,19,1017.2,-0.7,64,12,25000,7.408,,,270,12.9,20.9,,,,,,,,,wg-a,,,,AAXX 03184 07434 12775 52704 10190 20120 39710 40172 58007 60006 84881 91800 333 10209 20129=
07434,1997-05-03 21:00:00,16,1018.7,0.9,72,11,25000,11.112,,,280,,,,,,,,,,,wg-a,,,,AAXX 03214 07434 12775 42806 10160 20110 39719 40187 53009 60006 835/1 92100=
07434,1997-05-04 00:00:00,13,1018.3,-0.9,88,11,25000,11.112,,,280,,,,,,,,,,,wg-a,,,,AAXX 04004 07434 12775 42806 10130 20110 39710 40183 58009 60006 835/1 90000=
07434,1997-05-04 03:00:00,11,1016.4,-2.1,94,10,10000,0,,,0,,,,,,,,,,,wg-a,,,,AAXX 04034 07434 12/60 /0000 10110 20100 39689 40164 56021 60006 90300=
07434,1997-05-04 06:00:00,11,1015.5,-0.9,94,10,800,3.704,,,90,10.6,18.8,,,,,,,,40,wg-a,,,,AAXX 04064 07434 02/08 /0902 10110 20100 39680 40155 56009 60006 74041 81082 90600 333 10188 20106 60004=
07434,1997-05-04 09:00:00,18,1012.6,-1.5,68,12,15000,11.112,,,150,,,,,,,,,,3,wg-a,,,,AAXX 04094 07434 12765 41506 10180 20120 39665 40126 58015 60006 70341 81102 90900=
07434,1997-05-04 12:00:00,23,1009.7,-2.1,53,13,20000,14.816,,,190,,,,,,,,,,3,wg-a,,,,AAXX 04124 07434 12670 41908 10230 20130 39644 40097 56021 60006 70341 81182 91200=
07434,1997-05-04 15:00:00,21,1007.3,-2.5,69,15,15000,14.816,,35.188,260,,,,3,,,,,,17,wg-a,,,,AAXX 04154 07434 12565 72608 10210 20150 39619 40073 58025 60037 71798 8698/ 91500 333 91019=
07434,1997-05-04 18:00:00,20,1006,-1.4,78,16,25000,7.408,,,210,10.8,23.3,,3,,,,,,1,wg-a,,,,AAXX 04184 07434 02575 42104 10200 20160 39605 40060 58014 60006 70198 82231 91800 333 10233 20108 60037=
07434,1997-05-05 00:00:00,12,1005.1,-0.7,94,11,10000,7.408,,25.928,270,,,,2,,,,,,80,wg-a,,,,AAXX 05004 07434 02560 72704 10120 20110 39584 40051 55007 60026 78098 8693/ 90000 333 60027 91014=
07434,1997-05-05 03:00:00,11,1003.4,-1.9,100,11,10000,11.112,,,250,,,,14,,,,,,61,wg-a,,,,AAXX 05034 07434 12560 72506 10110 20110 39565 40034 55019 60147 76196 8693/ 90300=
07434,1997-05-05 06:00:00,10,1002.8,-0.7,93,9,25000,14.816,,,180,10.1,20.1,,2,,,24,,,1,wg-a,,,,AAXX 05064 07434 02275 71808 10100 20090 39558 40028 56007 60244 70198 85532 90600 333 10201 20101 60027=
07434,1997-05-05 09:00:00,13,1001.7,-0.6,77,9,20000,22.224,,,250,,,,,,,,,,80,wg-a,,,,AAXX 05094 07434 02370 72512 10130 20090 39552 40017 58006 61000 78086 85201 90900 333 ////=
07434,1997-05-05 12:00:00,15,1000.1,-1.2,72,10,15000,22.224,,,240,,,,,,,,,,3,wg-a,,,,AAXX 05124 07434 02565 72412 10150 20100 39540 40001 58012 61000 70386 878// 91200 333 6100=
07434,1997-05-05 15:00:00,13,998.8,-1.5,77,9,15000,25.928,,,250,,,,3,,,,,,29,wg-a,,,,AAXX 05154 07434 12465 72514 10130 20090 39525 49988 58015 60037 72996 849// 91500=
07434,1997-05-05 18:00:00,16,997.1,-1.3,59,8,40000,22.224,,,250,10.2,17.2,,,,,,,,1,wg-a,,,,AAXX 05184 07434 02682 42512 10160 20080 39512 49971 56013 60006 70198 81831 91800 333 10172 20102 61000=
07434,1997-05-05 21:00:00,12,996.4,-1.2,82,9,11000,14.816,,,210,,,,,,,,,,,wg-a,,,,AAXX 05214 07434 12/61 /2108 10120 20090 39500 49964 56012 60006 92100=
07434,1997-05-06 00:00:00,9,995.6,-1.2,100,9,8000,11.112,,,260,,,,7,,,,,,61,wg-a,,,,AAXX 06004 07434 02258 82606 10090 20090 39488 49956 55012 60076 76161 875// 90000 333 60077=
07434,1997-05-06 06:00:00,7,995.3,-0.3,100,7,8000,22.224,,,220,6.8,15.5,,,,,,,,21,wg-a,,,,AAXX 06064 07434 02258 72212 10070 20070 39481 49953 58003 61000 72162 878// 90600 333 10155 20068 6014=
07434,1997-05-06 09:00:00,7,995.4,0.1,93,6,8000,14.816,,,240,,,,3,,,,,,80,wg-a,,,,AAXX 06094 07434 12258 72408 10070 20060 39482 49954 53001 60037 78086 879// 90900=
07434,1997-05-06 12:00:00,8,997.1,1.8,93,7,8000,22.224,,,280,,,,2,,,,,,80,wg-a,,,,AAXX 06124 07434 02258 82812 10080 20070 39500 49971 53018 60056 78086 883// 91200 333 60027=
07434,1997-05-06 15:00:00,7,1002.3,4.7,81,4,20000,18.52,,,280,,,,1,,,,,,25,wg-a,,,,AAXX 06154 07434 12470 72810 10070 20040 39547 40023 51047 60017 72586 86303 91500=
07434,1997-05-06 18:00:00,5,1005.6,2.8,81,2,12000,22.224,,44.448,290,4.8,9.6,,,,,,,,80,wg-a,,,,AAXX 06184 07434 02462 72912 10050 20020 39575 40056 53028 61000 78087 86903 91800 333 10096 20048 6000 91024=
07434,1997-05-07 00:00:00,3,1006.5,-1.2,87,1,10000,3.704,,,260,,,,,,,,,,,wg-a,,,,AAXX 07004 07434 12/60 /2602 10030 20010 39580 40065 58012 60006 90000=
07434,1997-05-07 03:00:00,1,1004.1,-2.5,100,1,10000,11.112,,,130,,,,,,,,,,,wg-a,,,,AAXX 07034 07434 12560 71306 10010 20010 39555 40041 58025 60006 875// 90300=
07434,1997-05-07 06:00:00,3,1001.6,-2.2,93,2,7000,22.224,,,190,1,4.7,,,,,,,,61,wg-a,,,,AAXX 07064 07434 02157 81912 10030 20020 39533 40016 56022 61000 76176 887// 90600 333 10047 20010 6011=
07434,1997-05-07 09:00:00,6,1000.6,-0.3,93,5,15000,14.816,,,230,,,,0,,,,,,21,wg-a,,,,AAXX 07094 07434 12265 /2308 10060 20050 39530 40006 55003 60007 72176 86200 90900=
07434,1997-05-07 12:00:00,7,1001.4,0.8,81,4,500,18.52,,,300,,,,1,,,,,,1,wg-a,,,,AAXX 07124 07434 02400 73010 10070 20040 39538 40014 53008 60016 70187 873// 91200 333 60017=
07434,1997-05-07 15:00:00,5,1003.6,1.8,75,1,500,14.816,,,360,,,,,,,,,,,wg-a,,,,AAXX 07154 07434 12400 73608 10050 20010 39556 40036 51018 60006 84263 91500=
07434,1997-05-07 18:00:00,6,1005.4,1.9,70,1,500,14.816,,,310,2.6,7.8,,,,,,,,,wg-a,,,,AAXX 07184 07434 12500 73108 10060 20010 39575 40054 53019 60006 83862 91800 333 10078 20026=
07434,1997-05-07 21:00:00,3,1009.7,3.6,87,1,20000,7.408,,,310,,,,,,,,,,,wg-a,,,,AAXX 07214 07434 12670 /3104 10030 20010 39611 40097 53036 60006 81501 92100=
07434,1997-05-08 00:00:00,1,1011.4,1.3,100,1,20000,7.408,,,270,,,,,,,,,,,wg-a,,,,AAXX 08004 07434 12/70 12704 10010 20010 39624 40114 53013 60006 81031 90000=
07434,1997-05-08 03:00:00,1,1011.8,0.3,93,0,18000,7.408,,,260,,,,,,,,,,,wg-a,,,,AAXX 08034 07434 12/68 12604 10010 20000 39627 40118 52003 60006 80001 90300=
07434,1997-05-08 06:00:00,1,1011.8,0.1,100,1,10000,7.408,,,200,-0.2,6.1,,,,,1,,,,wg-a,,,,AAXX 08064 07434 02/60 42004 10010 20010 39628 40118 53001 60006 81031 90600 333 10061 21002 60014=
07434,1997-05-08 09:00:00,7,1010.8,0,76,3,25000,25.928,,,220,,,,,,,,,,,wg-a,,,,AAXX 08094 07434 12575 72214 10070 20030 39628 40108 50000 60006 86802 90900=
07434,1997-05-08 12:00:00,7,1010.2,-0.5,87,5,11000,18.52,,,230,,,,,,,,,,,wg-a,,,,AAXX 08124 07434 12/61 /2310 10070 20050 39623 40102 57005 60016 91200=
07434,1997-05-08 15:00:00,8,1008.7,-1.2,93,7,8000,22.224,,40.744,240,,,,2,,,,,,80,wg-a,,,,AAXX 08154 07434 12458 72412 10080 20070 39611 40087 56012 60027 78086 8683/ 91500 333 91022=
07434,1997-05-08 18:00:00,9,1008.6,-0.1,93,8,6000,22.224,,,230,1.2,10.5,,,,,,,,60,wg-a,,,,AAXX 08184 07434 02256 82312 10090 20080 39610 40086 56001 61000 76087 91800 333 10105 20012 6001=
07434,1997-05-09 00:00:00,9,1007.3,-0.8,93,8,11000,22.224,,,240,,,,,,,,,,,wg-a,,,,AAXX 09004 07434 12/61 /2412 10090 20080 39598 40073 58008 60036 90000=
07434,1997-05-09 03:00:00,8,1006.2,-1.1,93,7,6000,18.52,,,240,,,,5,,,,,,61,wg-a,,,,AAXX 09034 07434 12156 82410 10080 20070 39587 40062 56011 60057 76162 875// 90300=
07434,1997-05-09 06:00:00,8,1007,0.7,100,8,13000,18.52,,,240,7.3,8.9,,,,,,,,21,wg-a,,,,AAXX 09064 07434 02163 /2410 10080 20080 39594 40070 53007 61000 72162 875// 90600 333 10089 20073 6017=
07434,1997-05-09 09:00:00,8,1008.8,1.8,100,8,8000,14.816,,,240,,,,,,,,,,,wg-a,,,,AAXX 09094 07434 32/58 /2408 10080 20080 39612 40088 51018 90900=
07434,1997-05-09 12:00:00,10,1009.8,1.2,82,7,20000,18.52,,,250,,,,1,,,,,,25,wg-a,,,,AAXX 09124 07434 02470 52510 10100 20070 39624 40098 53012 60016 72586 84802 91200 333 60017=
07434,1997-05-09 15:00:00,12,1010.7,1.2,71,7,500,22.224,,46.3,250,,,,0,,,,,,3,wg-a,,,,AAXX 09154 07434 12400 62512 10120 20070 39636 40107 51012 60007 70386 86800 91500 333 91025=
07434,1997-05-09 18:00:00,11,1012.3,1.3,76,7,500,18.52,,,230,7.7,13,,,,,,,,1,wg-a,,,,AAXX 09184 07434 12400 52310 10110 20070 39649 40123 52013 60006 70186 85800 91800 333 10130 20077=
07434,1997-05-09 21:00:00,7,1014.4,1.5,93,6,25000,7.408,,,250,,,,2,,,,,,25,wg-a,,,,AAXX 09214 07434 12575 32504 10070 20060 39664 40144 51015 60027 72586 83801 92100=
07434,1997-05-10 00:00:00,7,1015,0.4,87,5,20000,11.112,,,230,,,,,,,,,,1,wg-a,,,,AAXX 10004 07434 12570 22306 10070 20050 39668 40150 50004 60026 70186 81201 90000=
07434,1997-05-10 03:00:00,7,1014.6,-0.3,100,7,15000,7.408,,,180,,,,,,,,,,,wg-a,,,,AAXX 10034 07434 12265 81804 10070 20070 39665 40146 57003 60006 886// 90300=
07434,1997-05-10 06:00:00,8,1014.2,-0.2,100,8,4500,18.52,,,180,6.4,10.6,,,,,3,,,10,wg-a,,,,AAXX 10064 07434 02145 81810 10080 20080 39663 40142 55002 60006 71041 886// 90600 333 10106 20064 60034=
07434,1997-05-10 09:00:00,13,1013.5,0.1,72,8,25000,25.928,,,190,,,,,,,,,,,wg-a,,,,AAXX 10094 07434 12475 /1914 10130 20080 39664 40135 52001 60006 85870 90900=
07434,1997-05-10 12:00:00,13,1012.7,-0.7,82,10,25000,18.52,,,210,,,,,,,,,,21,wg-a,,,,AAXX 10124 07434 02575 72110 10130 20100 39657 40127 58007 61000 72162 8582/ 91200 333 6100=
07434,1997-05-10 15:00:00,16,1010.7,-1.4,63,9,25000,22.224,,,190,,,,,,,,,,80,wg-a,,,,AAXX 10154 07434 02575 71912 10160 20090 39643 40107 56014 61000 78086 8528/ 91500 333 ////=
07434,1997-05-10 18:00:00,16,1009.6,-1.2,59,8,500,14.816,,,250,8.1,17.4,,,,,,,,15,wg-a,,,,AAXX 10184 07434 02600 72508 10160 20080 39631 40096 57012 60006 71586 8298/ 91800 333 10174 20081 61000=
07434,1997-05-10 21:00:00,13,1012,1.9,82,10,12000,14.816,,,220,,,,1,,,,,,80,wg-a,,,,AAXX 10214 07434 12462 72208 10130 20100 39650 40120 53019 60017 78098 8599/ 92100=
07434,1997-05-11 00:00:00,11,1011.7,-0.6,87,9,15000,7.408,,,150,,,,0,,,,,,3,wg-a,,,,AAXX 11004 07434 02565 71504 10110 20090 39644 40117 58006 60016 70398 8487/ 90000 333 60007=
07434,1997-05-11 03:00:00,11,1011.3,-0.4,87,9,500,11.112,,,150,,,,1,,,,,,61,wg-a,,,,AAXX 11034 07434 12300 81506 10110 20090 39640 40113 58004 60017 76162 875// 90300=
07434,1997-05-11 06:00:00,9,1012.1,0.4,93,8,12000,11.112,,,160,8.5,15.6,,,,,,,,61,wg-a,,,,AAXX 11064 07434 02262 81606 10090 20080 39644 40121 53004 61000 76162 875// 90600 333 10156 20085 6007=
07434,1997-05-11 09:00:00,10,1012.4,0.5,87,8,12000,18.52,,,170,,,,0,,,,,,60,wg-a,,,,AAXX 11094 07434 12362 81710 10100 20080 39649 40124 53005 60007 76066 875// 90900=
07434,1997-05-11 12:00:00,10,1013,0.6,93,9,6000,14.816,,,310,,,,1,,,,,,80,wg-a,,,,AAXX 11124 07434 02156 73108 10100 20090 39655 40130 53006 60026 78086 869// 91200 333 60017=
07434,1997-05-11 18:00:00,11,1016.1,1.1,82,8,50000,11.112,,,250,8.5,12.7,,,,,,,,1,wg-a,,,,AAXX 11184 07434 12484 62506 10110 20080 39686 40161 52011 60006 70198 84101 91800 333 10127 20085=
07434,1997-05-11 21:00:00,9,1018.8,2.2,87,7,20000,11.112,,,220,,,,,,,,,,,wg-a,,,,AAXX 11214 07434 12570 42206 10090 20070 39708 40188 53022 60006 83230 92100=
07434,1997-05-12 03:00:00,7,1020.3,0.3,100,7,15000,3.704,,,220,,,,,,,,,,,wg-a,,,,AAXX 12034 07434 12665 /2202 10070 20070 39720 40203 53003 60006 85530 90300=
07434,1997-05-12 06:00:00,8,1021.6,1.3,93,7,1600,3.704,,,80,6.5,11.6,,,,,7,,,40,wg-a,,,,AAXX 12064 07434 02216 30802 10080 20070 39733 40216 53013 60006 74041 83800 90600 333 10116 20065 60074=
07434,1997-05-12 09:00:00,12,1021.7,0.8,71,7,20000,3.704,,,210,,,,,,,,,,1,wg-a,,,,AAXX 12094 07434 12470 /2102 10120 20070 39741 40217 51008 60006 70141 83232 90900=
07434,1997-05-12 12:00:00,13,1022.1,0.5,62,6,25000,7.408,,,230,,,,,,,,,,60,wg-a,,,,AAXX 12124 07434 02475 82304 10130 20060 39746 40221 51005 61000 76064 8322/ 91200 333 6100=
07434,1997-05-12 15:00:00,15,1020.8,-0.9,51,5,500,7.408,,,310,,,,,,,,,,3,wg-a,,,,AAXX 12154 07434 02500 73104 10150 20050 39737 40208 58009 61000 70362 8153/ 91500 333 ////=
07434,1997-05-12 18:00:00,14,1020.4,-0.5,63,7,40000,3.704,,,20,7.4,15.8,,,,,,,,2,wg-a,,,,AAXX 12184 07434 12682 70202 10140 20070 39732 40204 55005 60006 70262 8253/ 91800 333 10158 20074=
07434,1997-05-12 21:00:00,13,1021.5,0.8,62,6,15000,7.408,,,30,,,,,,,,,,,wg-a,,,,AAXX 12214 07434 12665 70304 10130 20060 39740 40215 51008 60006 8453/ 92100=
07434,1997-05-13 00:00:00,12,1021,-0.5,67,6,15000,7.408,,,20,,,,,,,,,,,wg-a,,,,AAXX 13004 07434 12665 /0204 10120 20060 39735 40210 56005 60006 8653/ 90000=
07434,1997-05-13 03:00:00,11,1020.7,-0.5,76,7,15000,3.704,,,60,,,,,,,,,,,wg-a,,,,AAXX 13034 07434 12665 /0602 10110 20070 39730 40207 58005 60006 8653/ 90300=
07434,1997-05-13 06:00:00,11,1020.6,-0.1,87,9,15000,3.704,,,40,10.1,14.3,,,,,,,,,wg-a,,,,AAXX 13064 07434 02365 80402 10110 20090 39729 40206 56001 60006 873// 90600 333 10143 20101 61000=
07434,1997-05-13 09:00:00,15,1019.6,-0.3,82,12,20000,7.408,,,110,,,,,,,,,,3,wg-a,,,,AAXX 13094 07434 02470 /1104 10150 20120 39726 40196 55003 61000 70386 83882 90900 333 ////=
07434,1997-05-13 12:00:00,19,1017.7,-1.2,64,12,40000,7.408,,,200,,,,,,,,,,1,wg-a,,,,AAXX 13124 07434 02582 /2004 10190 20120 39714 40177 58012 61000 70186 85201 91200 333 ////=
07434,1997-05-13 15:00:00,21,1015.5,-1.8,53,11,40000,3.704,,,270,,,,,,,,,,,wg-a,,,,AAXX 13154 07434 12582 62702 10210 20110 39696 40155 58018 60006 84903 91500=
07434,1997-05-13 18:00:00,15,1016.7,0.2,77,11,4000,18.52,,,10,10.8,20.8,,,,,,,,16,wg-a,,,,AAXX 13184 07434 12540 80110 10150 20110 39698 40167 53002 60006 71692 879// 91800 333 10208 20108=
07434,1997-05-13 21:00:00,11,1018.4,1,94,10,7000,22.224,,,310,,,,23,,,,,,61,wg-a,,,,AAXX 13214 07434 12257 83112 10110 20100 39708 40184 50010 60237 76198 8597/ 92100=
07434,1997-05-14 00:00:00,11,1020.5,2,94,10,6000,3.704,,,280,,,,2,,,,,,61,wg-a,,,,AAXX 14004 07434 02456 82802 10110 20100 39728 40205 51020 60246 76198 8557/ 90000 333 60027=
07434,1997-05-14 03:00:00,10,1019.8,-0.8,93,9,10000,3.704,,,30,,,,0,,,,,,21,wg-a,,,,AAXX 14034 07434 12660 70302 10100 20090 39720 40198 55008 60007 72162 8557/ 90300=
07434,1997-05-14 06:00:00,10,1020.5,0.7,100,10,6000,11.112,,,20,9.8,14.6,,,,,,,,40,wg-a,,,,AAXX 14064 07434 02156 80206 10100 20100 39727 40205 53007 61000 74065 85570 90600 333 10146 20098 6025=
07434,1997-05-14 09:00:00,12,1021,0.7,94,11,9000,18.52,,,80,,,,0,,,,,,60,wg-a,,,,AAXX 14094 07434 12159 80810 10120 20110 39734 40210 52007 60007 76065 85870 90900=
07434,1997-05-14 12:00:00,14,1019.6,-0.9,88,12,20000,11.112,,,90,,,,1,,,,,,21,wg-a,,,,AAXX 14124 07434 02370 80906 10140 20120 39725 40196 58009 60026 72165 8487/ 91200 333 60017=
07434,1997-05-14 15:00:00,16,1018.3,-1,72,11,40000,18.52,,,60,,,,,,,,,,,wg-a,,,,AAXX 14154 07434 12482 70610 10160 20110 39715 40183 56010 60006 82136 91500=
07434,1997-05-14 18:00:00,15,1017.6,-0.7,82,12,500,11.112,,,20,10.2,16,,,,,,,,,wg-a,,,,AAXX 14184 07434 12500 70206 10150 20120 39708 40176 56007 60006 81182 91800 333 10160 20102=
07434,1997-05-14 21:00:00,14,1017.9,0,82,11,18000,18.52,,,70,,,,0,,,,,,21,wg-a,,,,AAXX 14214 07434 12468 80710 10140 20110 39708 40179 50000 60007 72122 8487/ 92100=
07434,1997-05-15 00:00:00,13,1016.4,-1.5,82,10,20000,14.816,,,70,,,,,,,,,,3,wg-a,,,,AAXX 15004 07434 02770 70708 10130 20100 39693 40164 57015 60006 70362 875// 90000 333 61000=
07434,1997-05-15 03:00:00,12,1015.1,-1.5,88,10,20000,7.408,,,80,,,,,,,,,,,wg-a,,,,AAXX 15034 07434 12770 70804 10120 20100 39678 40151 56015 60006 83531 90300=
07434,1997-05-15 06:00:00,12,1015,-0,94,11,18000,0,,,0,12,15.4,,,,,2,,,,wg-a,,,,AAXX 15064 07434 02768 70000 10120 20110 39678 40150 55000 60006 81531 90600 333 10154 20120 60024=
07434,1997-05-15 09:00:00,17,1014.6,0.3,68,11,18000,11.112,,,140,,,,,,,,,,,wg-a,,,,AAXX 15094 07434 12768 71406 10170 20110 39681 40146 51003 60006 81581 90900=
07434,1997-05-15 12:00:00,20,1013.5,-0.6,53,10,500,11.112,,,190,,,,,,,,,,,wg-a,,,,AAXX 15124 07434 12700 51906 10200 20100 39675 40135 58006 60006 81581 91200=
07434,1997-05-15 15:00:00,22,1012.2,-1,41,8,500,18.52,,,200,,,,,,,,,,,wg-a,,,,AAXX 15154 07434 12600 /2010 10220 20080 39665 40122 56010 60006 81132 91500=
07434,1997-05-15 18:00:00,22,1011.9,-0.3,46,10,500,0,,,0,12.4,22.5,,,,,,,,,wg-a,,,,AAXX 15184 07434 12/00 70000 10220 20100 39662 40119 55003 60006 81092 91800 333 10225 20124=
07434,1997-05-15 21:00:00,18,1013.4,0.8,68,12,15000,7.408,,,210,,,,,,,,,,,wg-a,,,,AAXX 15214 07434 12665 72104 10180 20120 39670 40134 53008 60006 8293/ 92100=
07434,1997-05-16 00:00:00,16,1012.6,-1,72,11,10000,7.408,,,80,,,,,,,,,,,wg-a,,,,AAXX 16004 07434 12660 70804 10160 20110 39660 40126 58010 60006 82532 90000=
07434,1997-05-16 03:00:00,15,1011.5,-1.2,77,11,10000,7.408,,,60,,,,,,,,,,,wg-a,,,,AAXX 16034 07434 12660 70604 10150 20110 39648 40115 56012 60006 83532 90300=
07434,1997-05-16 06:00:00,15,1012.2,0.6,67,9,20000,7.408,,,130,14.1,21.4,,,,,,,,,wg-a,,,,AAXX 16064 07434 02770 41304 10150 20090 39654 40122 53006 60006 82532 90600 333 10214 20141 60004=
07434,1997-05-16 09:00:00,19,1011.9,0.3,49,8,500,22.224,,,170,,,,,,,,,,,wg-a,,,,AAXX 16094 07434 12/00 31712 10190 20080 39657 40119 51003 60006 82032 90900=
07434,1997-05-16 12:00:00,22,1011.3,-0.1,43,9,500,25.928,,,200,,,,,,,,,,,wg-a,,,,AAXX 16124 07434 12/00 62014 10220 20090 39656 40113 56001 60006 83082 91200=
07434,1997-05-16 18:00:00,20,1010.2,-0.2,56,11,500,11.112,,,200,14.6,21.9,,,,,,,,,wg-a,,,,AAXX 16184 07434 12700 42006 10200 20110 39643 40102 55002 60006 84282 91800 333 10219 20146=
07434,1997-05-16 21:00:00,18,1011.6,1,64,11,25000,7.408,,,40,,,,,,,,,,,wg-a,,,,AAXX 16214 07434 12775 50404 10180 20110 39653 40116 51010 60006 81831 92100=
07434,1997-05-17 00:00:00,16,1011.5,-0.4,68,10,25000,11.112,,,120,,,,,,,,,,,wg-a,,,,AAXX 17004 07434 12675 51206 10160 20100 39649 40115 58004 60006 83842 90000=
07434,1997-05-17 03:00:00,14,1011.4,-0.4,72,9,20000,11.112,,,150,,,,,,,,,,,wg-a,,,,AAXX 17034 07434 12/70 21506 10140 20090 39645 40114 58004 60006 80001 90300=
07434,1997-05-17 06:00:00,14,1011.8,0.4,77,10,20000,11.112,,,140,13.4,20.1,,,,,,,,,wg-a,,,,AAXX 17064 07434 02670 71406 10140 20100 39649 40118 51004 60006 8583/ 90600 333 10201 20134 60004=
07434,1997-05-17 09:00:00,16,1012.7,1.1,72,11,25000,18.52,,,180,,,,,,,,,,,wg-a,,,,AAXX 17094 07434 12575 71810 10160 20110 39660 40127 53011 60006 8687/ 90900=
07434,1997-05-17 12:00:00,12,1013.6,0.3,94,11,3000,25.928,,,250,,,,6,,,,,,10,wg-a,,,,AAXX 17124 07434 02230 82514 10120 20110 39663 40136 53003 60066 71086 878// 91200 333 60067=
07434,1997-05-17 15:00:00,12,1013.1,-0.4,94,11,15000,11.112,,,120,,,,3,,,,,,61,wg-a,,,,AAXX 17154 07434 12265 71206 10120 20110 39659 40131 58004 60037 76162 8682/ 91500=
07434,1997-05-17 18:00:00,12,1013,-0.1,100,12,15000,7.408,,,140,11.8,16.3,,,,,,,,21,wg-a,,,,AAXX 17184 07434 02165 71404 10120 20120 39658 40130 55001 61000 72162 8672/ 91800 333 10163 20118 6001=
07434,1997-05-18 00:00:00,12,1014.8,0.5,94,11,15000,14.816,,,200,,,,,,,,,,1,wg-a,,,,AAXX 18004 07434 02165 82008 10120 20110 39674 40148 51005 61000 70162 876// 90000 333 ////=
07434,1997-05-18 03:00:00,10,1014.5,-0.7,93,9,12000,11.112,,,220,,,,0,,,,,,,wg-a,,,,AAXX 18034 07434 12362 /2206 10100 20090 39667 40145 56007 60007 82601 90300=
07434,1997-05-18 06:00:00,10,1014.7,0.4,93,9,20000,7.408,,,170,9.6,12.2,,,,,10,,,,wg-a,,,,AAXX 18064 07434 02370 71704 10100 20090 39671 40147 51004 60006 875// 90600 333 10122 20096 60104=
07434,1997-05-18 09:00:00,13,1014.7,0.3,77,9,20000,14.816,,,190,,,,,,,,,,,wg-a,,,,AAXX 18094 07434 12470 /1908 10130 20090 39674 40147 50003 60006 86800 90900=
07434,1997-05-18 12:00:00,17,1012.8,-1,59,9,35000,14.816,,,180,,,,,,,,,,,wg-a,,,,AAXX 18124 07434 12581 41808 10170 20090 39664 40128 57010 60006 84100 91200=
07434,1997-05-18 18:00:00,18,1009.6,-1.4,56,9,35000,7.408,,,160,10.2,20.1,,,,,,,,,wg-a,,,,AAXX 18184 07434 12881 41604 10180 20090 39634 40096 57014 60006 83054 91800 333 10201 20102=
07434,1997-05-18 21:00:00,16,1010,0.1,63,9,35000,7.408,,,110,,,,,,,,,,,wg-a,,,,AAXX 18214 07434 12881 41104 10160 20090 39635 40100 50001 60006 83032 92100=
07434,1997-05-19 00:00:00,14,1009.6,-0.7,72,9,500,14.816,,,150,,,,,,,,,,,wg-a,,,,AAXX 19004 07434 12800 51508 10140 20090 39628 40096 55007 60006 81032 90000=
07434,1997-05-19 03:00:00,13,1007.5,-2.1,72,8,500,11.112,,,110,,,,,,,,,,,wg-a,,,,AAXX 19034 07434 12800 71106 10130 20080 39607 40075 56021 60006 85072 90300=
07434,1997-05-19 06:00:00,14,1006.6,-0.8,72,9,20000,18.52,,,120,13.2,18.4,,,,,,,,3,wg-a,,,,AAXX 19064 07434 02670 81210 10140 20090 39599 40066 58008 60006 70362 8457/ 90600 333 10184 20132 61000=
07434,1997-05-19 12:00:00,15,1009.5,0.3,67,9,25000,18.52,,,200,,,,,,,,,,1,wg-a,,,,AAXX 19124 07434 02575 72010 10150 20090 39629 40095 51003 61000 70162 82272 91200 333 ////=
07434,1997-05-19 15:00:00,17,1008.9,-0.3,72,12,25000,22.224,,,210,,,,,,,,,,25,wg-a,,,,AAXX 19154 07434 02575 72112 10170 20120 39626 40089 56003 61000 72586 8598/ 91500 333 ////=
07434,1997-05-19 18:00:00,17,1008.3,-0.5,68,11,20000,11.112,,,180,13.6,18.7,,,,,,,,15,wg-a,,,,AAXX 19184 07434 12570 71806 10170 20110 39621 40083 55005 60006 71586 8598/ 91800 333 10187 20136=
07434,1997-05-19 21:00:00,14,1009,0.1,77,10,20000,3.704,,,140,,,,0,,,,,,,wg-a,,,,AAXX 19214 07434 12570 61402 10140 20100 39622 40090 53001 60007 84831 92100=
07434,1997-05-20 00:00:00,11,1010.4,0.9,94,10,500,22.224,,42.596,250,,,,3,,,,,,63,wg-a,,,,AAXX 20004 07434 02200 82512 10110 20100 39631 40104 53009 60036 76361 879// 90000 333 60037 91023=
07434,1997-05-20 03:00:00,11,1008.9,-1.4,94,10,20000,18.52,,,190,,,,1,,,,,,21,wg-a,,,,AAXX 20034 07434 12670 71910 10110 20100 39617 40089 55014 60017 72196 875// 90300=
07434,1997-05-20 06:00:00,11,1010.6,1.5,87,9,500,18.52,,,230,10.5,17.1,,,,,4,,,1,wg-a,,,,AAXX 20064 07434 02600 32310 10110 20090 39632 40106 53015 60006 70196 83282 90600 333 10171 20105 60044=
07434,1997-05-20 09:00:00,13,1010.7,0.5,77,9,500,25.928,,,220,,,,,,,,,,,wg-a,,,,AAXX 20094 07434 12500 /2214 10130 20090 39637 40107 51005 60006 85282 90900=
07434,1997-05-20 12:00:00,11,1011.7,0.7,87,9,500,14.816,,,260,,,,2,,,,,,80,wg-a,,,,AAXX 20124 07434 02400 72608 10110 20090 39644 40117 53007 60026 78098 86931 91200 333 60027=
07434,1997-05-20 15:00:00,16,1010.4,-0.6,55,7,500,29.632,,48.152,250,,,,1,,,,,,1,wg-a,,,,AAXX 20154 07434 12600 52516 10160 20070 39638 40104 55006 60017 70198 85231 91500 333 91026=
07434,1997-05-20 18:00:00,15,1011.5,0.9,59,7,40000,22.224,,,250,10.9,16.8,,,,,,,,1,wg-a,,,,AAXX 20184 07434 12682 52512 10150 20070 39647 40115 52009 60006 70198 85201 91800 333 10168 20109=
07434,1997-05-20 21:00:00,11,1013.2,1.1,76,7,20000,14.816,,,240,,,,,,,,,,,wg-a,,,,AAXX 20214 07434 12670 22408 10110 20070 39658 40132 53011 60006 82200 92100=
07434,1997-05-21 00:00:00,11,1013.4,0.1,87,9,10000,14.816,,,230,,,,,,,,,,,wg-a,,,,AAXX 21004 07434 12460 72308 10110 20090 39659 40134 51001 60006 875// 90000=
07434,1997-05-21 03:00:00,10,1013.3,-0.2,93,9,8000,14.816,,,240,,,,,,,,,,,wg-a,,,,AAXX 21034 07434 12358 72408 10100 20090 39657 40133 58002 60006 876// 90300=
07434,1997-05-21 06:00:00,11,1013.7,0.5,87,9,20000,14.816,,,240,10.1,14.7,,,,,,,,25,wg-a,,,,AAXX 21064 07434 02370 72408 10110 20090 39662 40137 53005 61000 72522 878// 90600 333 10147 20101 6002=
07434,1997-05-21 12:00:00,14,1014.4,0.4,72,9,500,25.928,,,250,,,,,,,,,,25,wg-a,,,,AAXX 21124 07434 02500 72514 10140 20090 39673 40144 50004 61000 72586 878// 91200 333 6100=
07434,1997-05-21 15:00:00,15,1013.8,-0.3,63,8,50000,22.224,,38.892,250,,,,,,,,,,,wg-a,,,,AAXX 21154 07434 12584 62512 10150 20080 39670 40138 56003 60006 84801 91500 333 91021=
07434,1997-05-21 18:00:00,14,1015,0.9,67,8,40000,14.816,,35.188,280,10.4,15.6,,,,,,,,,wg-a,,,,AAXX 21184 07434 12582 /2808 10140 20080 39679 40150 53009 60006 86800 91800 333 10156 20104 91019=
07434,1997-05-21 21:00:00,11,1017.3,1.6,82,8,11000,14.816,,,290,,,,,,,,,,,wg-a,,,,AAXX 21214 07434 12461 22908 10110 20080 39695 40173 51016 60006 82800 92100=
07434,1997-05-22 00:00:00,9,1017.7,0.2,93,8,500,11.112,,,290,,,,,,,,,,,wg-a,,,,AAXX 22004 07434 12400 32906 10090 20080 39697 40177 50002 60006 83300 90000=
07434,1997-05-22 03:00:00,8,1017.6,-0.2,100,8,15000,7.408,,,280,,,,,,,,,,,wg-a,,,,AAXX 22034 07434 12465 32804 10080 20080 39695 40176 56002 60006 83500 90300=
07434,1997-05-22 06:00:00,9,1017.7,0.4,100,9,2000,3.704,,,260,8.3,13.7,,,,,,,,,wg-a,,,,AAXX 22064 07434 02/20 /2602 10090 20090 39699 40177 53004 60006 90600 333 10137 20083 61000=
07434,1997-05-22 09:00:00,12,1018.2,0.8,76,8,40000,7.408,,,260,,,,,,,,,,,wg-a,,,,AAXX 22094 07434 12582 62604 10120 20080 39707 40182 53008 60006 86801 90900=
07434,1997-05-22 12:00:00,16,1017.2,-0.5,55,7,40000,7.408,,,170,,,,,,,,,,,wg-a,,,,AAXX 22124 07434 12582 71704 10160 20070 39702 40172 58005 60006 878// 91200=
07434,1997-05-22 18:00:00,15,1015.5,-0.4,67,9,40000,7.408,,,320,9.1,17.1,,,,,,,,,wg-a,,,,AAXX 22184 07434 12682 63204 10150 20090 39686 40155 57004 60006 84830 91800 333 10171 20091=
07434,1997-05-22 21:00:00,13,1016.2,0.3,72,8,500,11.112,,,30,,,,,,,,,,,wg-a,,,,AAXX 22214 07434 12/00 40306 10130 20080 39689 40162 50003 60006 81031 92100=
07434,1997-05-23 00:00:00,11,1015.6,-0.9,82,8,25000,11.112,,,80,,,,,,,,,,,wg-a,,,,AAXX 23004 07434 12/75 40806 10110 20080 39680 40156 58009 60006 80001 90000=
07434,1997-05-23 03:00:00,10,1014.9,-0.9,82,7,25000,11.112,,,70,,,,,,,,,,,wg-a,,,,AAXX 23034 07434 12/75 40706 10100 20070 39671 40149 58009 60006 81031 90300=
07434,1997-05-23 06:00:00,12,1014.7,0.2,71,7,50000,7.408,,,60,9.6,15,,,,,,,,,wg-a,,,,AAXX 23064 07434 02/84 60604 10120 20070 39673 40147 53002 60006 83032 90600 333 10150 20096 60004=
07434,1997-05-23 09:00:00,16,1013.9,-0.1,59,8,50000,11.112,,,130,,,,,,,,,,,wg-a,,,,AAXX 23094 07434 12584 /1306 10160 20080 39672 40139 58001 60006 81132 90900=
07434,1997-05-23 12:00:00,20,1012.6,-0.7,49,9,50000,11.112,,,110,,,,,,,,,,,wg-a,,,,AAXX 23124 07434 12684 71106 10200 20090 39665 40126 58007 60006 81132 91200=
07434,1997-05-23 15:00:00,22,1011.6,-0.7,41,8,50000,7.408,,,90,,,,,,,,,,,wg-a,,,,AAXX 23154 07434 12784 50904 10220 20080 39658 40116 58007 60006 81132 91500=
07434,1997-05-23 21:00:00,16,1012.8,1,68,10,40000,18.52,,,80,,,,,,,,,,,wg-a,,,,AAXX 23214 07434 12/82 40810 10160 20100 39662 40128 51010 60006 81031 92100=
07434,1997-05-24 00:00:00,15,1013.1,-0,72,10,500,18.52,,,80,,,,,,,,,,,wg-a,,,,AAXX 24004 07434 12/00 30810 10150 20100 39662 40131 55000 60006 81031 90000=
07434,1997-05-24 03:00:00,14,1012.8,-0.4,77,10,500,7.408,,,60,,,,,,,,,,,wg-a,,,,AAXX 24034 07434 12/00 50604 10140 20100 39658 40128 58004 60006 84031 90300=
07434,1997-05-24 06:00:00,14,1013.5,0.7,77,10,500,11.112,,,80,13.1,20.4,,,,,,,,,wg-a,,,,AAXX 24064 07434 12700 70806 10140 20100 39665 40135 51007 60006 8357/ 90600 333 10204 20131=
07434,1997-05-24 09:00:00,17,1014.6,1.6,72,12,20000,3.704,,,150,,,,,,,,,,,wg-a,,,,AAXX 24094 07434 12770 71502 10170 20120 39681 40146 51016 60006 8358/ 90900=
07434,1997-05-24 12:00:00,16,1015,0.2,88,14,18000,14.816,,,30,,,,2,,,,,,21,wg-a,,,,AAXX 24124 07434 02568 70308 10160 20140 39683 40150 50002 60026 72162 8488/ 91200 333 60027=
07434,1997-05-24 15:00:00,19,1015.3,0.8,78,15,12000,25.928,,,50,,,,,,,,,,,wg-a,,,,AAXX 24154 07434 12462 50514 10190 20150 39691 40153 50008 60006 84802 91500=
07434,1997-05-24 18:00:00,19,1015.4,-0,73,14,15000,25.928,,,70,13.5,19.6,,,,,,,,,wg-a,,,,AAXX 24184 07434 12565 30714 10190 20140 39691 40154 55000 60006 81102 91800 333 10196 20135=
07434,1997-05-25 00:00:00,15,1017.2,-0.1,88,13,10000,18.52,,,70,,,,,,,,,,,wg-a,,,,AAXX 25004 07434 12/60 50710 10150 20130 39702 40172 58001 60006 80002 90000=
07434,1997-05-25 03:00:00,14,1017.1,-0.2,88,12,10000,18.52,,,70,,,,,,,,,,,wg-a,,,,AAXX 25034 07434 12/60 40710 10140 20120 39700 40171 58002 60006 80001 90300=
07434,1997-05-25 06:00:00,15,1017.4,0.3,82,12,8000,18.52,,,70,13.3,18.5,,,,,2,,,,wg-a,,,,AAXX 25064 07434 02/58 70710 10150 20120 39703 40174 50003 60006 81032 90600 333 10185 20133 60024=
07434,1997-05-25 09:00:00,19,1016.9,0.3,73,14,10000,14.816,,,70,,,,,,,,,,,wg-a,,,,AAXX 25094 07434 12/60 70708 10190 20140 39706 40169 51003 60006 82032 90900=
07434,1997-05-25 12:00:00,24,1015.8,-0.3,44,11,500,14.816,,,70,,,,,,,,,,,wg-a,,,,AAXX 25124 07434 12600 /0708 10240 20110 39703 40158 58003 60006 81182 91200=
07434,1997-05-25 15:00:00,24,1015.2,-0.5,57,15,40000,18.52,,,60,,,,,,,,,,,wg-a,,,,AAXX 25154 07434 12682 70610 10240 20150 39698 40152 57005 60006 83232 91500=
07434,1997-05-25 18:00:00,22,1016.5,0.8,60,14,500,18.52,,,70,14.5,25,,,,,,,,,wg-a,,,,AAXX 25184 07434 12600 70710 10220 20140 39706 40165 53008 60006 84202 91800 333 10250 20145=
07434,1997-05-25 21:00:00,19,1018.2,1.3,73,14,18000,14.816,,,70,,,,,,,,,,,wg-a,,,,AAXX 25214 07434 12668 70708 10190 20140 39719 40182 51013 60006 82538 92100=
07434,1997-05-26 00:00:00,16,1018.6,-0.1,72,11,18000,14.816,,,80,,,,,,,,,,,wg-a,,,,AAXX 26004 07434 12/68 30808 10160 20110 39718 40186 58001 60006 81031 90000=
07434,1997-05-26 06:00:00,16,1018.8,0.8,72,11,500,14.816,,,60,13.7,21.4,,,,,,,,,wg-a,,,,AAXX 26064 07434 02/00 30608 10160 20110 39718 40188 51008 60006 80001 90600 333 10214 20137 60004=
07434,1997-05-26 09:00:00,22,1018.3,0.5,53,12,10000,14.816,,,100,,,,,,,,,,,wg-a,,,,AAXX 26094 07434 12/60 /1008 10220 20120 39723 40183 51005 60006 90900=
07434,1997-05-26 12:00:00,25,1017.4,-0.3,44,12,500,11.112,,,40,,,,,,,,,,,wg-a,,,,AAXX 26124 07434 12/00 10406 10250 20120 39720 40174 57003 60006 80001 91200=
07434,1997-05-26 15:00:00,26,1016.6,-0.7,48,14,40000,14.816,,,30,,,,,,,,,,,wg-a,,,,AAXX 26154 07434 12682 /0308 10260 20140 39713 40166 56007 60006 81201 91500=
07434,1997-05-26 18:00:00,24,1016.1,-0.7,50,13,40000,22.224,,,60,15.6,26.4,,,,,,,,,wg-a,,,,AAXX 26184 07434 12/82 00612 10240 20130 39706 40161 56007 60006 80000 91800 333 10264 20156=
07434,1997-05-26 21:00:00,19,1017,0.1,60,11,500,22.224,,,70,,,,,,,,,,,wg-a,,,,AAXX 26214 07434 12/00 00712 10190 20110 39707 40170 51001 60006 80000 92100=
07434,1997-05-27 00:00:00,17,1016.9,-0.5,55,8,20000,22.224,,,80,,,,,,,,,,,wg-a,,,,AAXX 27004 07434 12/70 00812 10170 20080 39702 40169 58005 60006 80000 90000=
07434,1997-05-27 03:00:00,16,1015.9,-1.2,51,6,15000,18.52,,,70,,,,,,,,,,,wg-a,,,,AAXX 27034 07434 12/65 00710 10160 20060 39690 40159 58012 60006 80000 90300=
07434,1997-05-27 06:00:00,17,1016,0.3,55,8,40000,14.816,,,70,15.7,23.9,,,,,,,,,wg-a,,,,AAXX 27064 07434 02/82 00708 10170 20080 39693 40160 53003 60006 80000 90600 333 10239 20157 60004=
07434,1997-05-27 08:00:00,17,1016,0.3,55,8,40000,14.816,,,70,15.7,23.9,,,,,,,,,wg-a,,,,AAXX 27084 07434 02/82 00708 10170 20080 39693 40160 53003 60006 80000 90800 333 10239 20157 60004=
07434,1997-05-27 09:00:00,22,1015.7,0.6,53,12,40000,7.408,,,70,,,,,,,,,,,wg-a,,,,AAXX 27094 07434 12/82 00704 10220 20120 39699 40157 51006 60006 80000 90900=
07434,1997-05-27 12:00:00,26,1014.4,-0.7,48,14,10000,7.408,,,80,,,,,,,,,,,wg-a,,,,AAXX 27124 07434 12/60 /0804 10260 20140 39692 40144 58007 60006 91200=
07434,1997-05-27 18:00:00,23,1014,-0.1,44,10,60000,25.928,,,60,16.5,26.6,,,,,,,,,wg-a,,,,AAXX 27184 07434 12/86 00614 10230 20100 39684 40140 56001 60006 80000 91800 333 10266 20165=
07434,1997-05-28 00:00:00,16,1016.6,0.5,72,11,500,22.224,,,70,,,,,,,,,,,wg-a,,,,AAXX 28004 07434 12/00 10712 10160 20110 39698 40166 51005 60006 80001 90000=
07434,1997-05-28 03:00:00,14,1016.5,-0.4,72,9,25000,22.224,,,70,,,,,,,,,,,wg-a,,,,AAXX 28034 07434 12/75 10712 10140 20090 39694 40165 58004 60006 80001 90300=
07434,1997-05-28 06:00:00,14,1016.8,0.3,67,8,500,25.928,,,80,13.6,23.1,,,,,,,,,wg-a,,,,AAXX 28064 07434 02/00 20814 10140 20080 39697 40168 53003 60006 81031 90600 333 10231 20136 60004=
07434,1997-05-28 09:00:00,18,1016.7,0.5,45,6,40000,29.632,,,80,,,,,,,,,,,wg-a,,,,AAXX 28094 07434 12/82 10816 10180 20060 39702 40167 53005 60006 80001 90900=
07434,1997-05-28 12:00:00,22,1016.6,0.4,38,7,40000,29.632,,,50,,,,,,,,,,,wg-a,,,,AAXX 28124 07434 12/82 10516 10220 20070 39706 40166 51004 60006 80001 91200=
07434,1997-05-28 18:00:00,20,1016.9,0.5,43,7,40000,29.632,,,60,14.3,22.5,,,,,,,,,wg-a,,,,AAXX 28184 07434 12/82 20616 10200 20070 39706 40169 53005 60006 80003 91800 333 10225 20143=
07434,1997-05-28 21:00:00,15,1018.4,0.7,48,4,40000,29.632,,,70,,,,,,,,,,,wg-a,,,,AAXX 28214 07434 12/82 20716 10150 20040 39713 40184 51007 60006 80001 92100=
07434,1997-05-29 00:00:00,13,1018.5,-0.2,51,3,500,29.632,,,70,,,,,,,,,,,wg-a,,,,AAXX 29004 07434 12/00 30716 10130 20030 39711 40185 56002 60006 80001 90000=
07434,1997-05-29 03:00:00,11,1018.3,-0.6,58,3,500,25.928,,,70,,,,,,,,,,,wg-a,,,,AAXX 29034 07434 12/00 40714 10110 20030 39705 40183 57006 60006 80001 90300=
07434,1997-05-29 06:00:00,11,1018.8,0.5,58,3,40000,14.816,,,60,9.9,19.5,,,,,,,,,wg-a,,,,AAXX 29064 07434 02/82 30608 10110 20030 39710 40188 53005 60006 80001 90600 333 10195 20099 60004=
07434,1997-05-29 09:00:00,20,1018.5,1.1,43,7,40000,11.112,,,100,,,,,,,,,,,wg-a,,,,AAXX 29094 07434 12/82 31006 10200 20070 39721 40185 51011 60006 80001 90900=
07434,1997-05-29 12:00:00,24,1017.9,0.2,47,12,40000,11.112,,,150,,,,,,,,,,,wg-a,,,,AAXX 29124 07434 12/82 21506 10240 20120 39723 40179 51002 60006 80001 91200=
07434,1997-05-29 15:00:00,26,1017.2,-0.4,37,10,40000,11.112,,,180,,,,,,,,,,,wg-a,,,,AAXX 29154 07434 12/82 21806 10260 20100 39719 40172 58004 60006 80001 91500=
07434,1997-05-29 18:00:00,23,1017.8,0.2,50,12,40000,22.224,,,70,11.2,26.8,,,,,,,,,wg-a,,,,AAXX 29184 07434 12/82 20712 10230 20120 39721 40178 53002 60006 80001 91800 333 10268 20112=
07434,1997-05-29 21:00:00,19,1019.6,1,56,10,15000,18.52,,,80,,,,,,,,,,,wg-a,,,,AAXX 29214 07434 12/65 20810 10190 20100 39731 40196 53010 60006 80001 92100=
07434,1997-05-30 00:00:00,17,1020.2,0.2,55,8,15000,18.52,,,80,,,,,,,,,,,wg-a,,,,AAXX 30004 07434 12/65 20810 10170 20080 39733 40202 50002 60006 80001 90000=
07434,1997-05-30 03:00:00,16,1019.9,-0.5,59,8,15000,7.408,,,70,,,,,,,,,,,wg-a,,,,AAXX 30034 07434 12/65 20704 10160 20080 39728 40199 58005 60006 80001 90300=
07434,1997-05-30 06:00:00,16,1020.2,0.4,63,9,35000,7.408,,,70,14.8,23.4,,,,,,,,,wg-a,,,,AAXX 30064 07434 02/81 50704 10160 20090 39732 40202 51004 60006 80001 90600 333 10234 20148 60004=
07434,1997-05-30 09:00:00,21,1019,-0.3,60,13,35000,7.408,,,90,,,,,,,,,,,wg-a,,,,AAXX 30094 07434 12/81 60904 10210 20130 39729 40190 58003 60006 80002 90900=
07434,1997-05-30 12:00:00,24,1017.3,-1.1,47,12,500,22.224,,,70,,,,,,,,,,,wg-a,,,,AAXX 30124 07434 12600 70712 10240 20120 39718 40173 58011 60006 81102 91200=
07434,1997-05-30 15:00:00,25,1016,-1.2,32,7,35000,31.484,,,70,,,,,,,,,,,wg-a,,,,AAXX 30154 07434 12681 /0717 10250 20070 39706 40160 58012 60006 81202 91500=
07434,1997-05-30 18:00:00,23,1015.1,-1.2,38,8,35000,29.632,,,60,16,25.7,,,,,,,,,wg-a,,,,AAXX 30184 07434 12/81 60616 10230 20080 39694 40151 56012 60006 80002 91800 333 10257 20160=
07434,1997-05-31 00:00:00,17,1014.8,-1.3,48,6,20000,29.632,,,80,,,,,,,,,,,wg-a,,,,AAXX 31004 07434 12/70 50816 10170 20060 39681 40148 58013 60006 80002 90000=
07434,1997-05-31 03:00:00,14,1013.7,-1.4,55,5,15000,25.928,,,80,,,,,,,,,,,wg-a,,,,AAXX 31034 07434 12/65 50814 10140 20050 39667 40137 56014 60006 80002 90300=
07434,1997-05-31 06:00:00,15,1012.9,-0.7,55,6,25000,18.52,,,80,13.2,23.2,,,,,,,,,wg-a,,,,AAXX 31064 07434 02/75 30810 10150 20060 39660 40129 56007 60006 80002 90600 333 10232 20132 60004=
07434,1997-05-31 12:00:00,24,1009.8,-0.9,41,10,11000,11.112,,,100,,,,,,,,,,,wg-a,,,,AAXX 31124 07434 12/61 /1006 10240 20100 39645 40098 56009 60006 91200=
07434,1997-05-31 15:00:00,24,1008.5,-1.2,41,10,25000,22.224,,,60,,,,,,,,,,,wg-a,,,,AAXX 31154 07434 12675 /0612 10240 20100 39633 40085 58012 60006 81104 91500=
07434,1997-05-31 18:00:00,21,1008.5,-0.5,46,9,25000,22.224,,,60,14.8,24.7,,,,,,,,,wg-a,,,,AAXX 31184 07434 12/75 40612 10210 20090 39628 40085 56005 60006 81082 91800 333 10247 20148=
07434,1997-06-01 00:00:00,16,1007.9,-1.6,48,5,25000,14.816,,,80,,,,,,,,,,,wg-a,,,,AAXX 01004 07434 12775 50808 10160 20050 39614 40079 58016 60006 81532 90000=
07434,1997-06-01 03:00:00,15,1006.8,-1.3,51,5,20000,14.816,,,70,,,,,,,,,,,wg-a,,,,AAXX 01034 07434 12770 70708 10150 20050 39601 40068 56013 60006 8553/ 90300=
07434,1997-06-01 06:00:00,12,1006.3,-0.8,71,7,12000,11.112,,,90,11.8,20.8,,,,,,,,25,wg-a,,,,AAXX 01064 07434 02562 80906 10120 20070 39593 40063 58008 61000 72586 8637/ 90600 333 10208 20118 6100=
07434,1997-06-01 09:00:00,12,1006.2,-0.1,76,8,20000,14.816,,,60,,,,0,,,,,,3,wg-a,,,,AAXX 01094 07434 12570 80608 10120 20080 39592 40062 58001 60007 70362 8487/ 90900=
07434,1997-06-01 12:00:00,11,1006.7,0.2,66,5,500,31.484,,,60,,,,,,,,,,3,wg-a,,,,AAXX 01124 07434 12500 80617 10110 20050 39594 40067 50002 60006 70362 8587/ 91200=
07434,1997-06-01 15:00:00,10,1006.6,-0.2,76,6,20000,22.224,,,80,,,,,,,,,,60,wg-a,,,,AAXX 01154 07434 02570 80812 10100 20060 39592 40066 58002 61000 76062 8587/ 91500 333 ////=
07434,1997-06-01 18:00:00,10,1006.6,0.1,76,6,15000,25.928,,,80,9.9,12.1,,,,,,,,60,wg-a,,,,AAXX 01184 07434 02565 80814 10100 20060 39593 40066 53001 61000 76062 8683/ 91800 333 10121 20099 6000=
07434,1997-06-01 21:00:00,10,1007.1,0.4,82,7,10000,14.816,,,70,,,,0,,,,,,61,wg-a,,,,AAXX 01214 07434 12660 80708 10100 20070 39597 40071 51004 60007 76162 8657/ 92100=
07434,1997-06-02 00:00:00,9,1006.6,-0.6,93,8,10000,11.112,,,80,,,,,,,,,,3,wg-a,,,,AAXX 02004 07434 02460 80806 10090 20080 39591 40066 58006 60006 70362 8657/ 90000 333 61000=
07434,1997-06-02 06:00:00,10,1008.4,1.3,100,10,800,3.704,,,190,8.9,10.3,,,,,,,,44,wg-a,,,,AAXX 02064 07434 02108 81902 10100 20100 39610 40084 53013 61000 74454 887// 90600 333 10103 20089 6001=
07434,1997-06-02 09:00:00,12,1010.2,2.1,88,10,500,7.408,,,190,,,,,,,,,,1,wg-a,,,,AAXX 02094 07434 02200 /1904 10120 20100 39631 40102 51021 61000 70154 871// 90900 333 ////=
07434,1997-06-02 12:00:00,16,1011,1.4,68,10,25000,11.112,,,200,,,,,,,,,,1,wg-a,,,,AAXX 02124 07434 02575 /2006 10160 20100 39645 40110 51014 61000 70154 86800 91200 333 ////=
07434,1997-06-02 15:00:00,17,1011.6,0.7,63,10,500,7.408,,,180,,,,,,,,,,,wg-a,,,,AAXX 02154 07434 12500 61804 10170 20100 39652 40116 52007 60006 86800 91500=
07434,1997-06-02 18:00:00,18,1012.1,0.6,59,10,500,3.704,,,280,10,18.5,,,,,,,,,wg-a,,,,AAXX 02184 07434 12500 32802 10180 20100 39658 40121 53006 60006 83801 91800 333 10185 20100=
07434,1997-06-02 21:00:00,15,1013.7,1,63,8,20000,0,,,0,,,,,,,,,,,wg-a,,,,AAXX 02214 07434 12770 40000 10150 20080 39668 40137 53010 60006 81531 92100=
07434,1997-06-03 00:00:00,13,1014.7,0.6,62,6,20000,11.112,,,360,,,,,,,,,,,wg-a,,,,AAXX 03004 07434 12/70 33606 10130 20060 39674 40147 51006 60006 81031 90000=
07434,1997-06-03 03:00:00,11,1014.7,-0.3,66,5,15000,3.704,,,70,,,,,,,,,,,wg-a,,,,AAXX 03034 07434 12/65 50702 10110 20050 39671 40147 56003 60006 82031 90300=
07434,1997-06-03 06:00:00,11,1016,1.2,76,7,15000,7.408,,,310,10.1,18.2,,,,,,,,21,wg-a,,,,AAXX 03064 07434 02665 73104 10110 20070 39683 40160 52012 61000 72186 83570 90600 333 10182 20101 6000=
07434,1997-06-03 09:00:00,16,1016.2,1,59,8,15000,7.408,,,260,,,,,,,,,,,wg-a,,,,AAXX 03094 07434 12465 /2604 10160 20080 39693 40162 52010 60006 81880 90900=
07434,1997-06-03 12:00:00,18,1016,0.2,52,8,15000,3.704,,,280,,,,,,,,,,,wg-a,,,,AAXX 03124 07434 12665 42802 10180 20080 39695 40160 50002 60006 8/800 91200=
07434,1997-06-03 15:00:00,20,1015.5,-0.2,49,9,25000,11.112,,,250,,,,,,,,,,,wg-a,,,,AAXX 03154 07434 12675 42506 10200 20090 39693 40155 58002 60006 84200 91500=
07434,1997-06-03 18:00:00,20,1014.9,-0.6,46,8,500,3.704,,,310,10.6,20.6,,,,,,,,,wg-a,,,,AAXX 03184 07434 12700 23102 10200 20080 39687 40149 57006 60006 82201 91800 333 10206 20106=
07434,1997-06-03 21:00:00,16,1016.2,0.7,51,6,500,11.112,,,20,,,,,,,,,,,wg-a,,,,AAXX 03214 07434 12/00 20206 10160 20060 39694 40162 51007 60006 80001 92100=
07434,1997-06-04 00:00:00,15,1016.2,-0.1,63,8,500,7.408,,,40,,,,,,,,,,,wg-a,,,,AAXX 04004 07434 12/00 50404 10150 20080 39693 40162 58001 60006 82031 90000=
07434,1997-06-04 03:00:00,13,1015.4,-1.2,77,9,20000,7.408,,,60,,,,,,,,,,,wg-a,,,,AAXX 04034 07434 12/70 30604 10130 20090 39681 40154 56012 60006 81031 90300=
07434,1997-06-04 06:00:00,14,1013.8,-1.4,82,11,20000,7.408,,,60,12.2,19.8,,,,,,,,,wg-a,,,,AAXX 04064 07434 02670 /0604 10140 20110 39667 40138 56014 60006 82531 90600 333 10198 20122 60004=
07434,1997-06-04 09:00:00,20,1011.8,-0.9,60,12,20000,14.816,,,90,,,,,,,,,,,wg-a,,,,AAXX 04094 07434 12570 /0908 10200 20120 39658 40118 58009 60006 81102 90900=
07434,1997-06-04 12:00:00,24,1009.9,-1.3,36,8,20000,11.112,,,150,,,,,,,,,,,wg-a,,,,AAXX 04124 07434 12670 /1506 10240 20080 39645 40099 58013 60006 83232 91200=
07434,1997-06-04 15:00:00,24,1007.5,-2.2,41,10,20000,11.112,,,110,,,,,,,,,,,wg-a,,,,AAXX 04154 07434 12670 71106 10240 20100 39623 40075 58022 60006 81135 91500=
07434,1997-06-04 18:00:00,22,1006.4,-1.3,57,13,20000,11.112,,,150,13.5,25,,,,,,,,,wg-a,,,,AAXX 04184 07434 12670 71506 10220 20130 39610 40064 56013 60006 83275 91800 333 10250 20135=
07434,1997-06-04 21:00:00,20,1006,-0.7,60,12,15000,11.112,,,120,,,,,,,,,,,wg-a,,,,AAXX 04214 07434 12665 71206 10200 20120 39603 40060 56007 60006 8227/ 92100=
07434,1997-06-05 00:00:00,18,1004.6,-1.7,64,11,15000,14.816,,,140,,,,,,,,,,,wg-a,,,,AAXX 05004 07434 12765 61408 10180 20110 39586 40046 58017 60006 84530 90000=
07434,1997-06-05 03:00:00,16,1003.7,-1,77,12,15000,29.632,,,170,,,,0,,,,,,,wg-a,,,,AAXX 05034 07434 12565 /1716 10160 20120 39576 40037 56010 60007 84530 90300=
07434,1997-06-05 06:00:00,17,1003.1,-0.6,68,11,25000,22.224,,,160,15.9,22,,,,,,,,,wg-a,,,,AAXX 05064 07434 02675 71612 10170 20110 39570 40031 55006 60006 8587/ 90600 333 10220 20159 60004=
07434,1997-06-05 09:00:00,16,1004.2,1,77,12,500,18.52,,,190,,,,,,,,,,,wg-a,,,,AAXX 05094 07434 12400 71910 10160 20120 39580 40042 51010 60006 8683/ 90900=
07434,1997-06-05 12:00:00,19,1003.9,0.2,64,12,60000,22.224,,,180,,,,,,,,,,,wg-a,,,,AAXX 05124 07434 12686 71812 10190 20120 39582 40039 53002 60006 85831 91200=
07434,1997-06-05 18:00:00,20,1003.7,0.5,64,13,75000,14.816,,,180,15.4,21.6,,,,,,,,,wg-a,,,,AAXX 05184 07434 12689 61808 10200 20130 39581 40037 53005 60006 82231 91800 333 10216 20154=
07434,1997-06-05 21:00:00,18,1005.7,1.6,73,13,25000,7.408,,,170,,,,,,,,,,,wg-a,,,,AAXX 05214 07434 12775 71704 10180 20130 39597 40057 53016 60006 84432 92100=
07434,1997-06-06 00:00:00,16,1006.5,0.4,82,13,25000,7.408,,,150,,,,,,,,,,,wg-a,,,,AAXX 06004 07434 12775 61504 10160 20130 39601 40065 51004 60006 86501 90000=
07434,1997-06-06 06:00:00,15,1008.4,1.4,88,13,40000,11.112,,,130,14.3,19.5,,,,,,,,,wg-a,,,,AAXX 06064 07434 02/82 61306 10150 20130 39619 40084 53014 60006 81081 90600 333 10195 20143 60004=
07434,1997-06-06 09:00:00,20,1008.4,0.8,68,14,40000,18.52,,,180,,,,,,,,,,,wg-a,,,,AAXX 06094 07434 12582 71810 10200 20140 39627 40084 51008 60006 81131 90900=
07434,1997-06-06 12:00:00,23,1008.3,0.3,57,14,40000,22.224,,,180,,,,,,,,,,,wg-a,,,,AAXX 06124 07434 12682 /1812 10230 20140 39630 40083 50003 60006 83102 91200=
07434,1997-06-06 15:00:00,25,1007.3,-0.6,50,14,60000,22.224,,,170,,,,,,,,,,,wg-a,,,,AAXX 06154 07434 12686 31712 10250 20140 39624 40073 58006 60006 83101 91500=
07434,1997-06-06 18:00:00,25,1006.9,-0.4,47,13,60000,18.52,,,170,15.4,25.8,,,,,,,,,wg-a,,,,AAXX 06184 07434 12686 /1710 10250 20130 39620 40069 56004 60006 81101 91800 333 10258 20154=
07434,1997-06-07 00:00:00,20,1008.1,-0.1,68,14,500,14.816,,,150,,,,,,,,,,,wg-a,,,,AAXX 07004 07434 12/00 31508 10200 20140 39623 40081 58001 60006 80002 90000=
07434,1997-06-07 03:00:00,18,1008.3,-0.1,68,12,500,11.112,,,170,,,,,,,,,,,wg-a,,,,AAXX 07034 07434 12500 /1706 10180 20120 39622 40083 55001 60006 83832 90300=
07434,1997-06-07 06:00:00,18,1008.8,0.5,64,11,50000,11.112,,,130,17,25.1,,,,,,,,17,wg-a,,,,AAXX 07064 07434 02584 71306 10180 20110 39627 40088 53005 60006 71791 8797/ 90600 333 10251 20170 60004=
07434,1997-06-07 12:00:00,24,1008.8,0.5,57,15,50000,11.112,,,250,,,,,,,,,,3,wg-a,,,,AAXX 07124 07434 12684 52506 10240 20150 39637 40088 50005 60016 70398 84101 91200=
07434,1997-06-07 15:00:00,22,1009.4,0.3,73,17,11000,7.408,,,190,,,,,,,,,,,wg-a,,,,AAXX 07154 07434 32/61 /1904 10220 20170 39640 40094 53003 91500=
07434,1997-06-07 18:00:00,21,1009.6,-0.1,64,14,11000,3.704,,,70,16.8,25.6,,,,,,,,,wg-a,,,,AAXX 07184 07434 12/61 /0702 10210 20140 39639 40096 56001 60006 91800 333 10256 20168=
07434,1997-06-07 21:00:00,16,1012.2,1.8,88,14,12000,14.816,,,120,,,,2,,,,,,17,wg-a,,,,AAXX 07214 07434 12662 71208 10160 20140 39657 40122 53018 60027 71799 879// 92100=
07434,1997-06-08 00:00:00,14,1014.1,1.4,94,13,15000,3.704,,,170,,,,,,,,,,1,wg-a,,,,AAXX 08004 07434 02765 21702 10140 20130 39671 40141 50014 60026 70198 82501 90000 333 61000=
07434,1997-06-08 03:00:00,14,1015.2,1,88,12,15000,7.408,,,260,,,,,,,,,,,wg-a,,,,AAXX 08034 07434 12765 62604 10140 20120 39681 40152 53010 60006 86500 90300=
07434,1997-06-08 06:00:00,14,1016.6,1.4,100,14,3000,7.408,,,140,13.2,21.1,,,,,5,,,10,wg-a,,,,AAXX 08064 07434 02230 71404 10140 20140 39695 40166 53014 60006 71011 876// 90600 333 10211 20132 60054=
07434,1997-06-08 09:00:00,18,1016.6,0.7,83,15,15000,7.408,,,160,,,,,,,,,,,wg-a,,,,AAXX 08094 07434 12465 61604 10180 20150 39702 40166 51007 60006 84231 90900=
07434,1997-06-08 12:00:00,21,1016.7,0.5,53,11,15000,25.928,,,210,,,,0,,,,,,15,wg-a,,,,AAXX 08124 07434 02565 62114 10210 20110 39707 40167 53005 60006 71522 85982 91200 333 60007=
07434,1997-06-08 15:00:00,22,1017.8,1.1,46,10,40000,22.224,,,250,,,,,,,,,,,wg-a,,,,AAXX 08154 07434 12582 52512 10220 20100 39718 40178 51011 60006 84832 91500=
07434,1997-06-08 18:00:00,21,1019.6,1.6,53,11,40000,11.112,,,280,14,22.3,,,,,,,,,wg-a,,,,AAXX 08184 07434 12682 /2806 10210 20110 39734 40196 52016 60006 81801 91800 333 10223 20140=
07434,1997-06-09 00:00:00,14,1022.4,0.1,82,11,15000,3.704,,,50,,,,,,,,,,,wg-a,,,,AAXX 09004 07434 12/65 00502 10140 20110 39751 40224 51001 60006 80000 90000=
07434,1997-06-09 03:00:00,12,1022.1,-0.6,94,11,15000,11.112,,,50,,,,,,,,,,,wg-a,,,,AAXX 09034 07434 12/65 20506 10120 20110 39745 40221 57006 60006 80001 90300=
07434,1997-06-09 06:00:00,14,1022,0.1,82,11,50000,7.408,,,70,12.1,20.9,,,,,,,,,wg-a,,,,AAXX 09064 07434 02/84 50704 10140 20110 39746 40220 53001 60006 82031 90600 333 10209 20121 60004=
07434,1997-06-09 09:00:00,21,1021.4,0.5,53,11,60000,11.112,,,90,,,,,,,,,,,wg-a,,,,AAXX 09094 07434 12/86 60906 10210 20110 39751 40214 50005 60006 81031 90900=
07434,1997-06-09 12:00:00,24,1019.8,-1,36,8,60000,11.112,,,60,,,,,,,,,,,wg-a,,,,AAXX 09124 07434 12786 60606 10240 20080 39741 40198 56010 60006 81132 91200=
07434,1997-06-09 15:00:00,26,1018.2,-1.3,32,8,60000,11.112,,,160,,,,,,,,,,,wg-a,,,,AAXX 09154 07434 12/86 61606 10260 20080 39728 40182 57013 60006 81032 91500=
07434,1997-06-09 18:00:00,25,1017.2,-1.1,44,12,60000,11.112,,,70,13.8,25.9,,,,,,,,,wg-a,,,,AAXX 09184 07434 12/86 70706 10250 20120 39717 40172 56011 60006 83082 91800 333 10259 20138=
07434,1997-06-09 21:00:00,21,1017.1,-0.6,56,12,40000,18.52,,,70,,,,,,,,,,,wg-a,,,,AAXX 09214 07434 12782 60710 10210 20120 39711 40171 57006 60006 81232 92100=
07434,1997-06-10 00:00:00,19,1016.2,-1.2,73,14,10000,11.112,,,90,,,,,,,,,,,wg-a,,,,AAXX 10004 07434 12/60 /0906 10190 20140 39699 40162 58012 60006 90000=
07434,1997-06-10 06:00:00,20,1013.8,-0.5,56,11,40000,11.112,,,100,18.1,24.5,,,,,,,,,wg-a,,,,AAXX 10064 07434 02/82 71006 10200 20110 39677 40138 56005 60006 81082 90600 333 10245 20181 60004=
07434,1997-06-10 09:00:00,23,1012.3,-1,47,11,40000,14.816,,,130,,,,,,,,,,,wg-a,,,,AAXX 10094 07434 12/82 71308 10230 20110 39667 40123 56010 60006 81083 90900=
07434,1997-06-10 12:00:00,25,1012.6,0.7,50,14,35000,11.112,,,260,,,,,,,,,,,wg-a,,,,AAXX 10124 07434 12781 72606 10250 20140 39674 40126 53007 60006 85983 91200=
07434,1997-06-10 15:00:00,25,1010.7,-1.8,54,15,35000,11.112,,,120,,,,,,,,,,,wg-a,,,,AAXX 10154 07434 12781 71206 10250 20150 39656 40107 58018 60006 81983 91500=
07434,1997-06-10 18:00:00,24,1009.4,-1.3,61,16,500,18.52,,,160,19.5,25.5,,,,,,,,,wg-a,,,,AAXX 10184 07434 12/00 71610 10240 20160 39643 40094 55013 60006 85093 91800 333 10255 20195=
07434,1997-06-10 21:00:00,22,1009.7,-0.1,60,14,500,11.112,,,160,,,,,,,,,,,wg-a,,,,AAXX 10214 07434 12/00 61606 10220 20140 39642 40097 55001 60006 84083 92100=
07434,1997-06-11 00:00:00,20,1010.8,0.7,64,13,500,11.112,,,230,,,,,,,,,,,wg-a,,,,AAXX 11004 07434 12/00 72306 10200 20130 39649 40108 51007 60006 85083 90000=
07434,1997-06-11 03:00:00,17,1009.8,-1.3,88,15,15000,11.112,,,140,,,,,,,,,,61,wg-a,,,,AAXX 11034 07434 02665 71406 10170 20150 39636 40098 58013 61000 76162 8357/ 90300 333 ////=
07434,1997-06-11 06:00:00,17,1009.2,-0.6,82,14,500,3.704,,,90,16.6,24.4,,,,,1,,,1,wg-a,,,,AAXX 11064 07434 02600 30902 10170 20140 39630 40092 55006 60006 70186 81281 90600 333 10244 20166 60014=
07434,1997-06-11 09:00:00,22,1009.5,1,60,14,25000,18.52,,,190,,,,,,,,,,,wg-a,,,,AAXX 11094 07434 12675 /1910 10220 20140 39640 40095 51010 60006 81281 90900=
07434,1997-06-11 12:00:00,25,1008.8,-0.3,50,14,11000,22.224,,,230,,,,,,,,,,,wg-a,,,,AAXX 11124 07434 12/61 /2312 10250 20140 39637 40088 57003 60006 91200=
07434,1997-06-11 18:00:00,21,1011,1,56,12,11000,14.816,,,290,17.3,25.7,,,,,,,,,wg-a,,,,AAXX 11184 07434 12/61 /2908 10210 20120 39652 40110 51010 60006 91800 333 10257 20173=
07434,1997-06-11 21:00:00,17,1013.3,1.6,72,12,500,7.408,,,330,,,,,,,,,,,wg-a,,,,AAXX 11214 07434 12/00 13304 10170 20120 39668 40133 53016 60006 81031 92100=
07434,1997-06-12 00:00:00,15,1013.9,0.3,82,12,25000,7.408,,,330,,,,,,,,,,,wg-a,,,,AAXX 12004 07434 12/75 33304 10150 20120 39671 40139 52003 60006 80001 90000=
07434,1997-06-12 03:00:00,15,1012.8,-1.1,82,12,25000,3.704,,,90,,,,,,,,,,,wg-a,,,,AAXX 12034 07434 12/75 60902 10150 20120 39660 40128 57011 60006 84032 90300=
07434,1997-06-12 06:00:00,16,1013,0.4,82,13,25000,3.704,,,360,13.4,21,,,,,,,,,wg-a,,,,AAXX 12064 07434 02/75 73602 10160 20130 39664 40130 53004 60006 82086 90600 333 10210 20134 60004=
07434,1997-06-12 09:00:00,20,1012.2,-0.2,64,13,18000,3.704,,,360,,,,,,,,,,,wg-a,,,,AAXX 12094 07434 12868 73602 10200 20130 39662 40122 58002 60006 81032 90900=
07434,1997-06-12 12:00:00,23,1010.7,-1,50,12,40000,7.408,,,40,,,,,,,,,,,wg-a,,,,AAXX 12124 07434 12682 /0404 10230 20120 39652 40107 58010 60006 81289 91200=
07434,1997-06-12 15:00:00,23,1009.5,-1,53,13,40000,7.408,,,290,,,,,,,,,,,wg-a,,,,AAXX 12154 07434 12682 72904 10230 20130 39642 40095 56010 60006 878// 91500=
07434,1997-06-12 18:00:00,20,1010.1,0.1,73,15,500,14.816,,,330,16.3,24.6,,,,,,,,3,wg-a,,,,AAXX 12184 07434 02600 73308 10200 20150 39643 40101 53001 60006 70386 81282 91800 333 10246 20163 61000=
07434,1997-06-13 00:00:00,16,1011,-0.5,88,14,12000,7.408,,,20,,,,,,,,,,,wg-a,,,,AAXX 13004 07434 12562 80204 10160 20140 39645 40110 58005 60006 875// 90000=
07434,1997-06-13 06:00:00,16,1009,-0.7,88,14,8000,7.408,,,40,14.4,19.7,,,,,,,,,wg-a,,,,AAXX 13064 07434 02658 70404 10160 20140 39625 40090 57007 60006 81572 90600 333 10197 20144 61000=
07434,1997-06-13 09:00:00,17,1008.8,-0,88,15,3000,7.408,,,120,,,,1,,,,,,17,wg-a,,,,AAXX 13094 07434 12330 81204 10170 20150 39625 40088 55000 60017 71798 879// 90900=
07434,1997-06-13 12:00:00,17,1007.8,-0.8,94,16,12000,14.816,,,110,,,,2,,,,,,60,wg-a,,,,AAXX 13124 07434 02462 81108 10170 20160 39617 40078 58008 60046 76098 8483/ 91200 333 60027=
07434,1997-06-13 15:00:00,21,1006.9,-0.3,69,15,50000,3.704,,,250,,,,,,,,,,3,wg-a,,,,AAXX 13154 07434 02584 72502 10210 20150 39614 40069 57003 61000 70362 8587/ 91500 333 ////=
07434,1997-06-13 18:00:00,18,1008,0.5,88,16,12000,7.408,,,280,15.6,20.9,,2,,,,,,17,wg-a,,,,AAXX 13184 07434 02262 72804 10180 20160 39619 40080 53005 60006 71798 82971 91800 333 10209 20156 60027=
07434,1997-06-14 00:00:00,15,1010.1,0.4,94,14,12000,14.816,,,250,,,,,,,,,,3,wg-a,,,,AAXX 14004 07434 12362 72508 10150 20140 39635 40101 51004 60006 70391 876// 90000=
07434,1997-06-14 03:00:00,14,1011.2,0.9,100,14,12000,7.408,,,240,,,,0,,,,,,60,wg-a,,,,AAXX 14034 07434 12362 82404 10140 20140 39644 40112 51009 60007 76062 877// 90300=
07434,1997-06-14 06:00:00,14,1012.7,1.5,100,14,12000,11.112,,,240,14,19,,,,,6,,,1,wg-a,,,,AAXX 14064 07434 02262 72406 10140 20140 39659 40127 53015 60006 70162 877// 90600 333 10190 20140 60064=
07434,1997-06-14 09:00:00,16,1014.3,1.8,82,13,25000,14.816,,,280,,,,,,,,,,1,wg-a,,,,AAXX 14094 07434 02475 /2808 10160 20130 39677 40143 51018 61000 70186 86800 90900 333 ////=
07434,1997-06-14 12:00:00,18,1015.3,1.2,64,11,40000,18.52,,,260,,,,,,,,,,1,wg-a,,,,AAXX 14124 07434 02582 52610 10180 20110 39689 40153 51012 61000 70186 85800 91200 333 ////=
07434,1997-06-14 15:00:00,19,1016,0.8,60,11,50000,14.816,,,270,,,,,,,,,,,wg-a,,,,AAXX 14154 07434 12684 42708 10190 20110 39697 40160 51008 60006 84800 91500=
07434,1997-06-14 18:00:00,18,1016.9,0.7,56,9,50000,14.816,,,290,14.3,19.4,,,,,,,,,wg-a,,,,AAXX 14184 07434 12684 32908 10180 20090 39704 40169 52007 60006 83800 91800 333 10194 20143=
07434,1997-06-14 21:00:00,14,1019.4,1.7,77,10,40000,7.408,,,280,,,,,,,,,,,wg-a,,,,AAXX 14214 07434 12/82 12804 10140 20100 39721 40194 52017 60006 80001 92100=
07434,1997-06-15 00:00:00,12,1020,0.3,88,10,20000,11.112,,,320,,,,,,,,,,,wg-a,,,,AAXX 15004 07434 12/70 13206 10120 20100 39724 40200 50003 60006 80001 90000=
07434,1997-06-15 06:00:00,12,1019.8,0.2,88,10,6000,7.408,,,70,9.9,18.1,,,,,,,,,wg-a,,,,AAXX 15064 07434 02/56 /0704 10120 20100 39721 40198 53002 60006 80001 90600 333 10181 20099 60004=
07434,1997-06-15 09:00:00,17,1018.9,0,63,10,40000,7.408,,,170,,,,,,,,,,,wg-a,,,,AAXX 15094 07434 12582 41704 10170 20100 39721 40189 50000 60006 84100 90900=
07434,1997-06-15 12:00:00,19,1017.5,-0.9,56,10,60000,7.408,,,290,,,,,,,,,,,wg-a,,,,AAXX 15124 07434 12686 /2904 10190 20100 39712 40175 58009 60006 81100 91200=
07434,1997-06-15 18:00:00,21,1016.6,0.1,49,10,60000,7.408,,,330,11.5,21.7,,,,,,,,,wg-a,,,,AAXX 15184 07434 12786 53304 10210 20100 39705 40166 53001 60006 82830 91800 333 10217 20115=
07434,1997-06-15 21:00:00,18,1017.8,0.7,56,9,40000,11.112,,,10,,,,,,,,,,,wg-a,,,,AAXX 15214 07434 12782 30106 10180 20090 39712 40178 53007 60006 82501 92100=
07434,1997-06-16 00:00:00,16,1017.7,-0.4,63,9,40000,7.408,,,20,,,,,,,,,,,wg-a,,,,AAXX 16004 07434 12782 30204 10160 20090 39708 40177 57004 60006 83500 90000=
07434,1997-06-16 03:00:00,15,1016.5,-1.4,67,9,500,7.408,,,50,,,,,,,,,,,wg-a,,,,AAXX 16034 07434 12700 70504 10150 20090 39694 40165 58014 60006 835/2 90300=
07434,1997-06-16 06:00:00,14,1017,0.4,77,10,500,7.408,,,130,13.7,20.6,,,,,,,,,wg-a,,,,AAXX 16064 07434 02700 71304 10140 20100 39698 40170 53004 60006 8358/ 90600 333 10206 20137 60004=
07434,1997-06-16 09:00:00,17,1016.2,-0.2,68,11,20000,7.408,,,130,,,,,,,,,,,wg-a,,,,AAXX 16094 07434 12770 71304 10170 20110 39696 40162 56002 60006 8158/ 90900=
07434,1997-06-16 12:00:00,15,1016.9,0.4,94,14,15000,14.816,,,220,,,,0,,,,,,61,wg-a,,,,AAXX 16124 07434 02565 72208 10150 20140 39700 40169 50004 60006 76162 8488/ 91200 333 60007=
07434,1997-06-16 15:00:00,19,1015.5,-0.7,60,11,20000,11.112,,,200,,,,0,,,,,,3,wg-a,,,,AAXX 16154 07434 12570 72006 10190 20110 39693 40155 58007 60007 70362 8498/ 91500=
07434,1997-06-16 18:00:00,14,1017.2,0.7,82,11,12000,18.52,,,320,13.4,19.9,,2,,,,,,15,wg-a,,,,AAXX 16184 07434 02262 73210 10140 20110 39700 40172 53007 60006 71598 879// 91800 333 10199 20134 60027=
07434,1997-06-16 21:00:00,12,1018.9,1.3,94,11,1000,7.408,,,250,,,,2,,,,,,10,wg-a,,,,AAXX 16214 07434 12210 72504 10120 20110 39713 40189 53013 60027 71086 85730 92100=
07434,1997-06-17 00:00:00,12,1018.9,0,94,11,8000,7.408,,,230,,,,,,,,,,3,wg-a,,,,AAXX 17004 07434 12258 72304 10120 20110 39713 40189 50000 60026 70386 877// 90000=
07434,1997-06-17 03:00:00,11,1018.4,-0.5,100,11,300,7.408,,,240,,,,,,,,,,45,wg-a,,,,AAXX 17034 07434 12/03 92404 10110 20110 39708 40184 56005 60006 74542 89/// 90300=
07434,1997-06-17 06:00:00,12,1019,0.6,100,12,2500,3.704,,,160,11,13.6,,,,,4,,,10,wg-a,,,,AAXX 17064 07434 02225 71602 10120 20120 39714 40190 51006 60006 71042 876// 90600 333 10136 20110 60044=
07434,1997-06-17 12:00:00,16,1018.8,0.2,77,12,20000,11.112,,,250,,,,2,,,,,,1,wg-a,,,,AAXX 17124 07434 02470 72506 10160 20120 39720 40188 50002 60026 70186 85831 91200 333 60027=
07434,1997-06-17 15:00:00,17,1018,-0.7,72,12,25000,7.408,,,30,,,,1,,,,,,,wg-a,,,,AAXX 17154 07434 12475 70304 10170 20120 39713 40180 56007 60017 878// 91500=
07434,1997-06-17 18:00:00,16,1017.9,-0.2,82,13,20000,7.408,,,280,11.9,17.8,,,,,,,,1,wg-a,,,,AAXX 17184 07434 12470 72804 10160 20130 39711 40179 55002 60006 70186 86802 91800 333 10178 20119=
07434,1997-06-17 21:00:00,14,1019.6,1.2,88,12,20000,7.408,,,320,,,,,,,,,,,wg-a,,,,AAXX 17214 07434 12670 33204 10140 20120 39723 40196 53012 60006 81530 92100=
07434,1997-06-18 00:00:00,12,1019.8,-0,88,10,20000,0,,,0,,,,,,,,,,,wg-a,,,,AAXX 18004 07434 12/70 20000 10120 20100 39723 40198 55000 60006 82030 90000=
07434,1997-06-18 06:00:00,12,1019.6,0.3,94,11,700,3.704,,,90,11.1,16.3,,,,,3,,,40,wg-a,,,,AAXX 18064 07434 02107 50902 10120 20110 39720 40196 53003 60006 74041 85730 90600 333 10163 20111 60034=
07434,1997-06-18 09:00:00,17,1018.8,0,77,13,10000,7.408,,,280,,,,,,,,,,1,wg-a,,,,AAXX 18094 07434 12460 42804 10170 20130 39720 40188 50000 60006 70141 84200 90900=
07434,1997-06-18 12:00:00,19,1017.5,-0.8,56,10,25000,7.408,,,300,,,,,,,,,,1,wg-a,,,,AAXX 18124 07434 12675 43004 10190 20100 39712 40175 58008 60006 70141 84200 91200=
07434,1997-06-18 15:00:00,21,1015.8,-1.4,56,12,25000,14.816,,,330,,,,,,,,,,,wg-a,,,,AAXX 18154 07434 12675 33308 10210 20120 39698 40158 58014 60006 83800 91500=
07434,1997-06-18 18:00:00,21,1014.7,-1.1,53,11,25000,7.408,,,20,11.7,21.4,,,,,,,,,wg-a,,,,AAXX 18184 07434 12675 40204 10210 20110 39687 40147 57011 60006 84800 91800 333 10214 20117=
07434,1997-06-18 21:00:00,17,1015.1,-0.2,68,11,18000,7.408,,,30,,,,,,,,,,,wg-a,,,,AAXX 18214 07434 12/68 60304 10170 20110 39685 40151 55002 60006 81031 92100=
07434,1997-06-19 00:00:00,16,1014,-1.2,72,11,15000,0,,,0,,,,,,,,,,,wg-a,,,,AAXX 19004 07434 12765 60000 10160 20110 39673 40140 58012 60006 83531 90000=
07434,1997-06-19 03:00:00,12,1012.4,-2.1,94,11,7000,11.112,,,290,,,,,,,,,,,wg-a,,,,AAXX 19034 07434 12/57 42906 10120 20110 39652 40124 56021 60006 80001 90300=
07434,1997-06-19 06:00:00,12,1012.5,0.1,100,12,1200,7.408,,,280,11.4,20.4,,,,,,,,10,wg-a,,,,AAXX 19064 07434 02212 /2804 10120 20120 39653 40125 53001 60006 71011 85631 90600 333 10204 20114 60004=
07434,1997-06-19 12:00:00,18,1011,-0.3,56,9,25000,14.816,,,290,,,,,,,,,,,wg-a,,,,AAXX 19124 07434 12675 52908 10180 20090 39648 40110 58003 60006 84232 91200=
07434,1997-06-19 15:00:00,17,1010.5,-0.6,59,9,25000,22.224,,,270,,,,,,,,,,,wg-a,,,,AAXX 19154 07434 12675 /2712 10170 20090 39642 40105 56006 60006 86800 91500=
07434,1997-06-19 18:00:00,13,1011.3,0.1,94,12,20000,14.816,,,290,12.1,18.9,,,,,,,,25,wg-a,,,,AAXX 19184 07434 02370 72908 10130 20120 39643 40113 51001 61000 72586 8587/ 91800 333 10189 20121 6001=
07434,1997-06-19 21:00:00,11,1012.7,1,100,11,7000,11.112,,,270,,,,2,,,,,,10,wg-a,,,,AAXX 19214 07434 12357 82706 10110 20110 39653 40127 53010 60027 71062 877// 92100=
07434,1997-06-20 00:00:00,12,1012.4,-0.2,94,11,7000,11.112,,,210,,,,0,,,,,,21,wg-a,,,,AAXX 20004 07434 02157 72106 10120 20110 39651 40124 58002 60036 72162 877// 90000 333 60007=
07434,1997-06-20 03:00:00,11,1011.5,-0.9,100,11,6000,11.112,,,220,,,,1,,,,,,50,wg-a,,,,AAXX 20034 07434 12156 82206 10110 20110 39642 40115 58009 60017 75052 877// 90300=
07434,1997-06-20 06:00:00,12,1011.5,-0,94,11,10000,14.816,,,210,11.1,13.2,,,,,,,,10,wg-a,,,,AAXX 20064 07434 02260 72108 10120 20110 39642 40115 54000 61000 71065 877// 90600 333 10132 20111 6004=
07434,1997-06-20 09:00:00,13,1011.2,-0.1,88,11,10000,18.52,,,230,,,,,,,,,,25,wg-a,,,,AAXX 20094 07434 02360 72310 10130 20110 39641 40112 58001 61000 72586 875// 90900 333 ////=
07434,1997-06-20 12:00:00,16,1009.4,-1.1,72,11,15000,25.928,,,220,,,,,,,,,,1,wg-a,,,,AAXX 20124 07434 02565 72214 10160 20110 39630 40094 57011 61000 70186 86830 91200 333 6100=
07434,1997-06-20 18:00:00,16,1006.8,-1.2,72,11,10000,14.816,,,220,11.5,18,,,,,,,,21,wg-a,,,,AAXX 20184 07434 02660 72208 10160 20110 39604 40068 57012 61000 72162 8457/ 91800 333 10180 20115 6100=
07434,1997-06-20 21:00:00,13,1007.3,0.1,88,11,8000,14.816,,,240,,,,1,,,,,,21,wg-a,,,,AAXX 20214 07434 12458 72408 10130 20110 39605 40073 53001 60017 72162 845// 92100=
07434,1997-06-21 00:00:00,13,1006.3,-1,94,12,4000,18.52,,,200,,,,3,,,,,,10,wg-a,,,,AAXX 21004 07434 02140 82010 10130 20120 39595 40063 58010 60036 71062 877// 90000 333 60037=
07434,1997-06-21 03:00:00,13,1005,-1.1,100,13,4000,22.224,,,230,,,,3,,,,,,10,wg-a,,,,AAXX 21034 07434 12140 82312 10130 20130 39584 40050 56011 60037 71062 877// 90300=
07434,1997-06-21 06:00:00,14,1005.3,0.3,88,12,15000,18.52,,,210,12.5,16.1,,,,,7,,,3,wg-a,,,,AAXX 21064 07434 02265 82110 10140 20120 39587 40053 51003 60006 70362 8657/ 90600 333 10161 20125 60074=
07434,1997-06-21 12:00:00,13,1005.4,0,94,12,500,18.52,,,230,,,,3,,,,,,61,wg-a,,,,AAXX 21124 07434 02200 82310 10130 20120 39586 40054 50000 60036 76186 875// 91200 333 60037=
07434,1997-06-21 18:00:00,13,1004.5,-0.5,88,11,15000,14.816,,,230,12.4,14,,,,,,,,25,wg-a,,,,AAXX 21184 07434 02465 72308 10130 20110 39578 40045 58005 61000 72586 8592/ 91800 333 10140 20124 6001=
07434,1997-06-21 21:00:00,12,1007.1,2.3,82,9,10000,14.816,,,250,,,,,,,,,,,wg-a,,,,AAXX 21214 07434 12460 72508 10120 20090 39601 40071 53023 60006 8682/ 92100=
07434,1997-06-22 00:00:00,11,1007.1,-0.1,100,11,10000,14.816,,,240,,,,3,,,,,,80,wg-a,,,,AAXX 22004 07434 02260 72408 10110 20110 39600 40071 58001 60036 78086 878// 90000 333 60037=
07434,1997-06-22 03:00:00,11,1006.7,-0.5,94,10,10000,14.816,,,230,,,,3,,,,,,63,wg-a,,,,AAXX 22034 07434 12260 72308 10110 20100 39595 40067 58005 60037 76386 878// 90300=
07434,1997-06-22 06:00:00,11,1007,0.4,100,11,12000,18.52,,,220,9.9,13,,,,,16,,,1,wg-a,,,,AAXX 22064 07434 02262 /2210 10110 20110 39599 40070 53004 60006 70186 86800 90600 333 10130 20099 60164=
07434,1997-06-22 09:00:00,13,1007.8,1,82,10,15000,14.816,,,250,,,,0,,,,,,80,wg-a,,,,AAXX 22094 07434 12465 /2508 10130 20100 39609 40078 53010 60007 78086 86800 90900=
07434,1997-06-22 12:00:00,12,1009.2,1.2,88,10,8000,18.52,,,280,,,,4,,,,,,25,wg-a,,,,AAXX 22124 07434 02458 62810 10120 20100 39621 40092 53012 60046 72586 86800 91200 333 60047=
07434,1997-06-22 15:00:00,14,1009.8,0.8,77,10,8000,31.484,,57.412,280,,,,1,,,,,,80,wg-a,,,,AAXX 22154 07434 12458 /2817 10140 20100 39629 40098 52008 60017 78086 86900 91500 333 91031=
07434,1997-06-22 18:00:00,13,1010.8,0.8,77,9,20000,18.52,,,260,10.8,16,,,,,,,,25,wg-a,,,,AAXX 22184 07434 02470 62610 10130 20090 39637 40108 53008 61000 72586 86900 91800 333 10160 20108 6100=
07434,1997-06-22 21:00:00,11,1013.1,1.9,87,9,10000,14.816,,,240,,,,,,,,,,,wg-a,,,,AAXX 22214 07434 12460 62408 10110 20090 39656 40131 53019 60006 86800 92100=
07434,1997-06-23 00:00:00,11,1013.5,0.4,94,10,0,11.112,,,240,,,,,,,,,,51,wg-a,,,,AAXX 23004 07434 02/// /2406 10110 20100 39660 40135 51004 61000 75152 90000 333 ////=
07434,1997-06-23 06:00:00,11,1013.8,0.7,94,10,500,11.112,,,240,10.6,13.1,,,,,,,,80,wg-a,,,,AAXX 23064 07434 02200 72406 10110 20100 39663 40138 53007 61000 78086 877// 90600 333 10131 20106 6007=
07434,1997-06-23 09:00:00,13,1014.9,1.4,94,12,8000,14.816,,,250,,,,0,,,,,,1,wg-a,,,,AAXX 23094 07434 12358 72508 10130 20120 39677 40149 52014 60007 70186 8623/ 90900=
07434,1997-06-23 12:00:00,16,1014.8,0.4,72,11,25000,14.816,,,260,,,,,,,,,,1,wg-a,,,,AAXX 23124 07434 12575 72608 10160 20110 39681 40148 50004 60016 70186 8483/ 91200=
07434,1997-06-23 15:00:00,15,1015.5,0.5,82,12,12000,11.112,,,270,,,,4,,,,,,80,wg-a,,,,AAXX 23154 07434 12462 62706 10150 20120 39686 40155 51005 60047 78086 85230 91500=
07434,1997-06-23 18:00:00,13,1016.4,0.6,94,12,8000,11.112,,,260,10.7,16.3,,,,,,,,25,wg-a,,,,AAXX 23184 07434 02358 72606 10130 20120 39692 40164 51006 61000 72586 8497/ 91800 333 10163 20107 6003=
07434,1997-06-24 00:00:00,12,1018.8,0.5,94,11,6000,11.112,,,270,,,,1,,,,,,2,wg-a,,,,AAXX 24004 07434 02256 72706 10120 20110 39712 40188 51005 60026 70286 877// 90000 333 60017=
07434,1997-06-24 03:00:00,12,1018.8,-0,94,11,500,7.408,,,280,,,,,,,,,,,wg-a,,,,AAXX 24034 07434 12100 72804 10120 20110 39712 40188 55000 60006 876// 90300=
07434,1997-06-24 06:00:00,11,1019.6,0.7,100,11,2000,7.408,,,270,11.2,13.1,,,,,9,,,10,wg-a,,,,AAXX 24064 07434 02220 72704 10110 20110 39719 40196 53007 60006 71022 875// 90600 333 10131 20112 60094=
07434,1997-06-24 09:00:00,13,1019.9,0.6,88,11,10000,11.112,,,260,,,,0,,,,,,1,wg-a,,,,AAXX 24094 07434 12360 72606 10130 20110 39725 40199 52006 60007 70186 878// 90900=
07434,1997-06-24 12:00:00,15,1019.4,-0.2,67,9,20000,14.816,,,280,,,,,,,,,,1,wg-a,,,,AAXX 24124 07434 12570 /2808 10150 20090 39723 40194 57002 60006 70186 86800 91200=
07434,1997-06-24 15:00:00,17,1018.2,-0.8,63,10,20000,11.112,,,310,,,,,,,,,,,wg-a,,,,AAXX 24154 07434 12570 53106 10170 20100 39715 40182 56008 60006 85800 91500=
07434,1997-06-24 18:00:00,16,1017.4,-0.9,59,8,500,14.816,,,340,11.3,17.7,,,,,,,,,wg-a,,,,AAXX 24184 07434 12600 33408 10160 20080 39706 40174 56009 60006 82802 91800 333 10177 20113=
07434,1997-06-24 21:00:00,13,1018,-0,67,7,500,7.408,,,10,,,,,,,,,,,wg-a,,,,AAXX 24214 07434 12700 40104 10130 20070 39706 40180 55000 60006 825/2 92100=
07434,1997-06-25 00:00:00,11,1017.2,-1.1,82,8,10000,3.704,,,50,,,,,,,,,,,wg-a,,,,AAXX 25004 07434 12/60 30502 10110 20080 39695 40172 58011 60006 80002 90000=
07434,1997-06-25 03:00:00,9,1015.3,-2.2,87,7,9000,7.408,,,50,,,,,,,,,,,wg-a,,,,AAXX 25034 07434 12/59 70504 10090 20070 39673 40153 58022 60006 80002 90300=
07434,1997-06-25 06:00:00,9,1013.9,-1.2,93,8,10000,3.704,,,80,8.2,16.4,,,,,,,,,wg-a,,,,AAXX 25064 07434 02660 80802 10090 20080 39661 40139 58012 60006 83532 90600 333 10164 20082 60004=
07434,1997-06-25 12:00:00,15,1011,-0.9,72,10,20000,14.816,,,230,,,,,,,,,,,wg-a,,,,AAXX 25124 07434 12570 82308 10150 20100 39642 40110 58009 60006 8627/ 91200=
07434,1997-06-25 15:00:00,15,1008.6,-2.2,77,11,15000,14.816,,,200,,,,0,,,,,,61,wg-a,,,,AAXX 25154 07434 12465 82008 10150 20110 39620 40086 58022 60007 76162 8527/ 91500=
07434,1997-06-25 18:00:00,15,1006.6,-2,72,10,9000,22.224,,,230,9.1,16,,,,,,,,61,wg-a,,,,AAXX 25184 07434 02459 82312 10150 20100 39600 40066 56020 61000 76162 8257/ 91800 333 10160 20091 ////=
07434,1997-06-25 21:00:00,12,1006,-0.9,100,12,2500,22.224,,,230,,,,2,,,,,,10,wg-a,,,,AAXX 25214 07434 12125 82312 10120 20120 39591 40060 55009 60027 71066 887// 92100=
07434,1997-06-26 00:00:00,12,1005.1,-0.9,94,11,8000,18.52,,,240,,,,2,,,,,,61,wg-a,,,,AAXX 26004 07434 02258 82410 10120 20110 39582 40051 58009 60046 76165 887// 90000 333 60027=
07434,1997-06-26 03:00:00,11,1003.3,-1.9,94,10,20000,11.112,,,240,,,,1,,,,,,21,wg-a,,,,AAXX 26034 07434 12270 82406 10110 20100 39563 40033 56019 60017 72162 877// 90300=
07434,1997-06-26 06:00:00,11,1002.2,-1,100,11,500,18.52,,,230,10.8,14.5,,,,,,,,60,wg-a,,,,AAXX 26064 07434 02100 82310 10110 20110 39553 40022 58010 61000 76086 887// 90600 333 10145 20108 6006=
07434,1997-06-26 12:00:00,13,999.9,-0.9,94,12,10000,22.224,,,250,,,,2,,,,,,25,wg-a,,,,AAXX 26124 07434 02360 72512 10130 20120 39535 49999 56009 60036 72586 878// 91200 333 60027=
07434,1997-06-26 15:00:00,15,998.9,-0.8,82,12,500,18.52,,,250,,,,0,,,,,,1,wg-a,,,,AAXX 26154 07434 12400 72510 10150 20120 39527 49989 58008 60007 70186 878// 91500=
07434,1997-06-26 18:00:00,12,999.5,0.1,88,10,10000,14.816,,,270,11.1,15.4,,2,,,,,,3,wg-a,,,,AAXX 26184 07434 02260 72708 10120 20100 39528 49995 53001 60006 70386 878// 91800 333 10154 20111 60027=
07434,1997-06-26 21:00:00,11,1000.1,0.5,87,9,10000,14.816,,,240,,,,,,,,,,80,wg-a,,,,AAXX 26214 07434 02460 72408 10110 20090 39533 40001 53005 61000 78086 878// 92100 333 ////=
07434,1997-06-27 00:00:00,9,999.9,-0.5,93,8,0,22.224,,,230,,,,,,,,,,,wg-a,,,,AAXX 27004 07434 12/// /2312 10090 20080 39528 49999 58005 60016 90000=
07434,1997-06-27 03:00:00,9,999.3,-0.7,93,8,6000,22.224,,,230,,,,,,,,,,61,wg-a,,,,AAXX 27034 07434 02356 82312 10090 20080 39521 49993 58007 61000 76162 877// 90300 333 ////=
07434,1997-06-27 06:00:00,9,999.4,0.1,93,8,3500,25.928,,,220,8.7,11.9,,,,,,,,10,wg-a,,,,AAXX 27064 07434 02235 82214 10090 20080 39522 49994 53001 61000 71065 877// 90600 333 10119 20087 6007=
07434,1997-06-27 09:00:00,10,999.8,0.6,100,10,20000,25.928,,,220,,,,1,,,,,,21,wg-a,,,,AAXX 27094 07434 12270 72214 10100 20100 39528 49998 51006 60017 72162 877// 90900=
07434,1997-06-27 12:00:00,11,1001,1.4,94,10,7000,22.224,,,230,,,,,,,,,,80,wg-a,,,,AAXX 27124 07434 02357 82312 10110 20100 39542 40010 52014 60016 78086 878// 91200 333 61000=
07434,1997-06-27 15:00:00,13,1001.4,0.6,88,11,13000,18.52,,,220,,,,0,,,,,,25,wg-a,,,,AAXX 27154 07434 12263 72210 10130 20110 39548 40014 51006 60007 72586 878// 91500=
07434,1997-06-27 18:00:00,12,1003,1.5,94,11,9000,14.816,,,250,8.8,12.7,,,,,,,,61,wg-a,,,,AAXX 27184 07434 02359 72508 10120 20110 39563 40030 51015 61000 76186 878// 91800 333 10127 20088 ////=
07434,1997-06-28 00:00:00,9,1006.3,0.6,100,9,10000,18.52,,,200,,,,,,,,,,1,wg-a,,,,AAXX 28004 07434 12460 /2010 10090 20090 39589 40063 52006 60016 70186 85530 90000=
07434,1997-06-28 06:00:00,8,1007.4,0.7,100,8,15000,11.112,,,160,7.4,12,,,,,4,,,,wg-a,,,,AAXX 28064 07434 02265 71606 10080 20080 39598 40074 53007 60006 878// 90600 333 10120 20074 60044=
07434,1997-06-28 09:00:00,13,1007.7,1,77,9,11000,18.52,,,180,,,,,,,,,,,wg-a,,,,AAXX 28094 07434 12/61 /1810 10130 20090 39608 40077 51010 60006 90900=
07434,1997-06-28 12:00:00,16,1007.3,0,59,8,40000,11.112,,,180,,,,,,,,,,,wg-a,,,,AAXX 28124 07434 12582 71806 10160 20080 39608 40073 50000 60006 86802 91200=
07434,1997-06-28 15:00:00,18,1006.2,-0.7,49,7,40000,3.704,,,200,,,,,,,,,,,wg-a,,,,AAXX 28154 07434 12682 72002 10180 20070 39601 40062 58007 60006 82202 91500=
07434,1997-06-28 18:00:00,16,1006,-0.5,72,11,11000,3.704,,,320,8.4,18.4,,,,,,,,,wg-a,,,,AAXX 28184 07434 12/61 /3202 10160 20110 39596 40060 55005 60006 91800 333 10184 20084=
07434,1997-06-28 21:00:00,13,1006,-0.5,82,10,10000,11.112,,,30,,,,2,,,,,,61,wg-a,,,,AAXX 28214 07434 12460 80306 10130 20100 39591 40060 57005 60027 76166 8582/ 92100=
07434,1997-06-29 00:00:00,11,1004,-2.1,94,10,8000,14.816,,,20,,,,5,,,,,,61,wg-a,,,,AAXX 29004 07434 02258 80208 10110 20100 39570 40040 56021 60076 76166 875// 90000 333 60057=
07434,1997-06-29 03:00:00,12,1001.5,-2.3,94,11,15000,11.112,,,30,,,,2,,,,,,1,wg-a,,,,AAXX 29034 07434 12465 70306 10120 20110 39547 40015 56023 60027 70162 8557/ 90300=
07434,1997-06-29 06:00:00,12,1001.1,-0.3,94,11,12000,7.408,,,50,11,15.4,,,,,9,,,3,wg-a,,,,AAXX 29064 07434 02162 70504 10120 20110 39544 40011 57003 60006 70362 875// 90600 333 10154 20110 60094=
07434,1997-06-29 09:00:00,13,1001.4,0.4,94,12,8000,3.704,,,190,,,,1,,,,,,51,wg-a,,,,AAXX 29094 07434 12158 81902 10130 20120 39548 40014 51004 60017 75165 887// 90900=
07434,1997-06-29 12:00:00,14,1000.7,-0.4,88,12,7000,7.408,,,330,,,,0,,,,,,15,wg-a,,,,AAXX 29124 07434 02257 73304 10140 20120 39544 40007 58004 60026 71565 879// 91200 333 60007=
07434,1997-06-29 15:00:00,13,1002.6,1.6,94,12,12000,11.112,,,310,,,,5,,,,,,61,wg-a,,,,AAXX 29154 07434 12262 83106 10130 20120 39560 40026 51016 60057 76196 877// 91500=
07434,1997-06-29 18:00:00,11,1005,1.9,94,10,12000,25.928,,,290,10.8,15,,,,,,,,61,wg-a,,,,AAXX 29184 07434 02262 82914 10110 20100 39579 40050 53019 61000 76196 887// 91800 333 10150 20108 6007=
07434,1997-06-29 21:00:00,10,1007.5,2.3,100,10,9000,18.52,,,250,,,,2,,,,,,61,wg-a,,,,AAXX 29214 07434 12159 82510 10100 20100 39602 40075 53023 60027 76166 885// 92100=
07434,1997-06-30 00:00:00,10,1007.5,0,100,10,10000,14.816,,,240,,,,1,,,,,,1,wg-a,,,,AAXX 30004 07434 02260 82408 10100 20100 39602 40075 50000 60046 70162 887// 90000 333 60017=
07434,1997-06-30 03:00:00,11,1006.7,-0.7,100,11,8000,14.816,,,210,,,,1,,,,,,60,wg-a,,,,AAXX 30034 07434 12258 82108 10110 20110 39595 40067 58007 60017 76062 887// 90300=
07434,1997-06-30 06:00:00,11,1007,0.4,100,11,3000,11.112,,,250,9.9,11.2,,,,,,,,10,wg-a,,,,AAXX 30064 07434 02130 82506 10110 20110 39599 40070 53004 61000 71065 887// 90600 333 10112 20099 6021=
07434,1997-06-30 09:00:00,14,1007.4,0.8,88,12,25000,14.816,,,260,,,,,,,,,,,wg-a,,,,AAXX 30094 07434 12475 /2608 10140 20120 39607 40074 52008 60006 86800 90900=
07434,1997-06-30 12:00:00,15,1007.5,0.3,77,11,20000,18.52,,,250,,,,2,,,,,,25,wg-a,,,,AAXX 30124 07434 02470 /2510 10150 20110 39610 40075 50003 60026 72586 86801 91200 333 60027=
07434,1997-06-30 15:00:00,13,1008.5,0.6,94,12,500,11.112,,,270,,,,5,,,,,,80,wg-a,,,,AAXX 30154 07434 12400 72706 10130 20120 39616 40085 52006 60057 78086 879// 91500=
07434,1997-06-30 18:00:00,12,1009.8,1,94,11,500,11.112,,,230,11.2,16.4,,,,,,,,10,wg-a,,,,AAXX 30184 07434 02200 72306 10120 20110 39626 40098 50010 61000 71098 879// 91800 333 10164 20112 6005=
07434,1997-06-30 21:00:00,12,1011.3,1.5,94,11,18000,11.112,,,250,,,,1,,,,,,25,wg-a,,,,AAXX 30214 07434 12368 72506 10120 20110 39641 40113 53015 60017 72586 877// 92100=
07434,1997-07-01 00:00:00,12,1012,0.6,94,11,8000,14.816,,,240,,,,0,,,,,,3,wg-a,,,,AAXX 01004 07434 02158 82408 10120 20110 39647 40120 51006 60016 70386 876// 90000 333 60007=
07434,1997-07-01 03:00:00,11,1011.9,-0.2,94,10,12000,11.112,,,230,,,,0,,,,,,,wg-a,,,,AAXX 01034 07434 12262 72306 10110 20100 39645 40119 58002 60007 876// 90300=
07434,1997-07-01 06:00:00,11,1012.2,0.4,100,11,500,11.112,,,220,10.8,12.2,,,,,,,,61,wg-a,,,,AAXX 01064 07434 02100 82206 10110 20110 39649 40122 53004 61000 76162 877// 90600 333 10122 20108 6013=
07434,1997-07-01 12:00:00,15,1011.4,-0.6,82,12,500,14.816,,,250,,,,1,,,,,,3,wg-a,,,,AAXX 01124 07434 02400 72508 10150 20120 39647 40114 58006 60016 70386 8683/ 91200 333 60017=
07434,1997-07-01 15:00:00,17,1010.4,-0.6,68,11,500,25.928,,,230,,,,3,,,,,,3,wg-a,,,,AAXX 01154 07434 12400 62314 10170 20110 39641 40104 58006 60037 70386 84231 91500=
07434,1997-07-01 18:00:00,16,1010.7,0.1,68,10,500,11.112,,,240,11.3,18.5,,,,,,,,3,wg-a,,,,AAXX 01184 07434 12500 62406 10160 20100 39642 40107 53001 60006 70386 84201 91800 333 10185 20113=
07434,1997-07-01 21:00:00,13,1011.7,0.5,94,12,11000,7.408,,,170,,,,,,,,,,,wg-a,,,,AAXX 01214 07434 12/61 /1704 10130 20120 39647 40117 53005 60006 92100=
07434,1997-07-02 00:00:00,13,1011.2,-0.5,94,12,0,7.408,,,140,,,,,,,,,,,wg-a,,,,AAXX 02004 07434 32/// /1404 10130 20120 39642 40112 56005 90000=
07434,1997-07-02 03:00:00,13,1008.8,-2.4,94,12,1200,11.112,,,90,,,,8,,,,,,63,wg-a,,,,AAXX 02034 07434 12012 80906 10130 20120 39618 40088 58024 60087 76362 887// 90300=
07434,1997-07-02 06:00:00,13,1007.9,-0.8,94,12,2000,7.408,,,150,12.4,16.9,,,,,,,,10,wg-a,,,,AAXX 02064 07434 02120 81504 10130 20120 39610 40079 55008 61000 71066 887// 90600 333 10169 20124 6018=
07434,1997-07-02 09:00:00,11,1008.8,0.6,100,11,6000,14.816,,,300,,,,3,,,,,,61,wg-a,,,,AAXX 02094 07434 12156 83008 10110 20110 39616 40088 53006 60037 76166 887// 90900=
07434,1997-07-02 12:00:00,12,1011,2.1,94,11,12000,7.408,,,210,,,,8,,,,,,61,wg-a,,,,AAXX 02124 07434 02262 82104 10120 20110 39637 40110 53021 60116 76166 877// 91200 333 60087=
07434,1997-07-02 15:00:00,13,1011.4,0.7,88,11,500,14.816,,,210,,,,1,,,,,,1,wg-a,,,,AAXX 02154 07434 12300 72108 10130 20110 39644 40114 51007 60017 70162 8683/ 91500=
07434,1997-07-02 18:00:00,12,1012.7,1.1,94,11,25000,7.408,,,180,10.9,13.8,,3,,,,,,3,wg-a,,,,AAXX 02184 07434 02475 71804 10120 20110 39655 40127 53011 60006 70362 878// 91800 333 10138 20109 60037=
07434,1997-07-02 21:00:00,12,1015,2.1,94,11,15000,7.408,,,210,,,,,,,,,,25,wg-a,,,,AAXX 02214 07434 02565 72104 10120 20110 39676 40150 53021 61000 72522 85831 92100 333 ////=
07434,1997-07-03 00:00:00,10,1016,0.6,87,8,15000,7.408,,,250,,,,,,,,,,3,wg-a,,,,AAXX 03004 07434 02665 32504 10100 20080 39682 40160 51006 61000 70386 82531 90000 333 ////=
07434,1997-07-03 03:00:00,8,1015.7,-0.5,100,8,15000,3.704,,,220,,,,,,,,,,,wg-a,,,,AAXX 03034 07434 12765 42202 10080 20080 39677 40157 58005 60006 81531 90300=
07434,1997-07-03 06:00:00,10,1015.9,0.5,93,9,25000,11.112,,,180,8.3,12.8,,,,,15,,,,wg-a,,,,AAXX 03064 07434 02475 61806 10100 20090 39682 40159 51005 60006 85830 90600 333 10128 20083 60154=
07434,1997-07-03 12:00:00,15,1016.1,-0.1,63,8,40000,25.928,,,210,,,,,,,,,,,wg-a,,,,AAXX 03124 07434 12582 72114 10150 20080 39692 40161 58001 60006 872// 91200=
07434,1997-07-03 15:00:00,15,1016.9,0.7,72,10,500,14.816,,,230,,,,2,,,,,,1,wg-a,,,,AAXX 03154 07434 12600 72308 10150 20100 39699 40169 51007 60027 70186 8583/ 91500=
07434,1997-07-03 18:00:00,14,1017.2,0.1,82,11,15000,7.408,,,260,10.1,16.5,,,,,,,,25,wg-a,,,,AAXX 03184 07434 02565 62604 10140 20110 39700 40172 53001 61000 72586 85930 91800 333 10165 20101 6000=
07434,1997-07-03 21:00:00,12,1018.7,1.1,88,10,20000,11.112,,,210,,,,0,,,,,,1,wg-a,,,,AAXX 03214 07434 12570 /2106 10120 20100 39711 40187 53011 60007 70186 81131 92100=
07434,1997-07-04 00:00:00,10,1018.8,-0.1,100,10,18000,0,,,0,,,,,,,,,,1,wg-a,,,,AAXX 04004 07434 12/68 10000 10100 20100 39710 40188 58001 60006 70186 80001 90000=
07434,1997-07-04 06:00:00,11,1019.2,0.9,94,10,8000,3.704,,,200,9.2,14.2,,,,,2,,,,wg-a,,,,AAXX 04064 07434 02758 /2002 10110 20100 39714 40192 53009 60006 84531 90600 333 10142 20092 60024=
07434,1997-07-04 09:00:00,13,1019.8,1,88,11,25000,11.112,,,190,,,,,,,,,,,wg-a,,,,AAXX 04094 07434 12475 71906 10130 20110 39724 40198 52010 60006 8757/ 90900=
07434,1997-07-04 12:00:00,16,1019.5,0.2,72,11,15000,14.816,,,230,,,,,,,,,,15,wg-a,,,,AAXX 04124 07434 12565 72308 10160 20110 39726 40195 50002 60006 71522 85972 91200=
07434,1997-07-04 15:00:00,15,1019.4,-0.3,88,13,10000,18.52,,,220,,,,3,,,,,,25,wg-a,,,,AAXX 04154 07434 12260 72210 10150 20130 39723 40194 58003 60037 72586 8697/ 91500=
07434,1997-07-04 18:00:00,12,1020.5,0.6,94,11,10000,3.704,,,300,10.5,16.2,,,,,,,,25,wg-a,,,,AAXX 04184 07434 02260 73002 10120 20110 39729 40205 52006 61000 72586 8697/ 91800 333 10162 20105 6004=
07434,1997-07-04 21:00:00,12,1021.9,1.3,94,11,6000,0,,,0,,,,6,,,,,,81,wg-a,,,,AAXX 04214 07434 12256 70000 10120 20110 39742 40219 53013 60067 78186 879// 92100=
07434,1997-07-05 00:00:00,11,1022.9,0.7,94,10,7000,11.112,,,280,,,,3,,,,,,80,wg-a,,,,AAXX 05004 07434 02257 72806 10110 20100 39749 40229 53007 60096 78086 878// 90000 333 60037=
07434,1997-07-05 06:00:00,11,1024.1,1.2,100,11,2000,11.112,,,310,10.2,12.5,,,,,16,,,10,wg-a,,,,AAXX 05064 07434 02120 73106 10110 20110 39762 40241 53012 60006 71086 877// 90600 333 10125 20102 60164=
07434,1997-07-05 09:00:00,13,1025.7,1.7,88,11,500,14.816,,,290,,,,,,,,,,,wg-a,,,,AAXX 05094 07434 12200 72908 10130 20110 39779 40257 51017 60006 876// 90900=
07434,1997-07-05 12:00:00,15,1025.9,0.6,72,10,15000,11.112,,,320,,,,,,,,,,,wg-a,,,,AAXX 05124 07434 12565 /3206 10150 20100 39785 40259 51006 60006 86800 91200=
07434,1997-07-05 15:00:00,17,1025.7,0.1,68,11,15000,14.816,,,350,,,,,,,,,,,wg-a,,,,AAXX 05154 07434 12565 /3508 10170 20110 39786 40257 51001 60006 86800 91500=
07434,1997-07-05 18:00:00,17,1026.4,0.7,68,11,15000,11.112,,,340,11,18,,,,,,,,,wg-a,,,,AAXX 05184 07434 12665 43406 10170 20110 39793 40264 52007 60006 84800 91800 333 10180 20110=
07434,1997-07-05 21:00:00,14,1028.8,1.8,88,12,11000,3.704,,,310,,,,,,,,,,,wg-a,,,,AAXX 05214 07434 32/61 /3102 10140 20120 39811 40288 53018 92100=
07434,1997-07-06 00:00:00,12,1029.6,0.5,94,11,8000,7.408,,,290,,,,0,,,,,,2,wg-a,,,,AAXX 06004 07434 02158 32904 10120 20110 39816 40296 51005 60016 70286 83500 90000 333 60007=
07434,1997-07-06 03:00:00,12,1029.2,-0.5,94,11,300,11.112,,,300,,,,,,,,,,45,wg-a,,,,AAXX 06034 07434 12/03 93006 10120 20110 39811 40292 57005 60006 74541 89/// 90300=
07434,1997-07-06 06:00:00,11,1029.8,0.5,100,11,500,7.408,,,20,9.7,16.9,,,,,1,,,43,wg-a,,,,AAXX 06064 07434 02/05 90204 10110 20110 39816 40298 53005 60006 74341 89/// 90600 333 10169 20097 60014=
07434,1997-07-06 09:00:00,16,1029.4,0.4,77,12,8000,11.112,,,20,,,,,,,,,,3,wg-a,,,,AAXX 06094 07434 12558 40206 10160 20120 39820 40294 51004 60006 70341 84100 90900=
07434,1997-07-06 12:00:00,19,1028.8,-0.2,52,9,25000,14.816,,,20,,,,0,,,,,,1,wg-a,,,,AAXX 06124 07434 02675 30208 10190 20090 39818 40288 58002 60006 70141 83200 91200 333 60007=
07434,1997-07-06 18:00:00,19,1027.3,-0.5,56,10,500,14.816,,,20,11.3,20.2,,,,,,,,,wg-a,,,,AAXX 06184 07434 12600 /0208 10190 20100 39805 40273 57005 60006 81100 91800 333 10202 20113=
07434,1997-07-06 21:00:00,16,1028.2,0.4,68,10,500,11.112,,,10,,,,,,,,,,,wg-a,,,,AAXX 06214 07434 12/00 20106 10160 20100 39809 40282 53004 60006 80001 92100=
07434,1997-07-07 00:00:00,16,1027.9,-0.4,72,11,500,11.112,,,30,,,,,,,,,,,wg-a,,,,AAXX 07004 07434 12/00 20306 10160 20110 39805 40279 58004 60006 80001 90000=
07434,1997-07-07 03:00:00,15,1026.9,-1,77,11,500,7.408,,,30,,,,,,,,,,,wg-a,,,,AAXX 07034 07434 12/00 30304 10150 20110 39795 40269 57010 60006 80001 90300=
07434,1997-07-07 06:00:00,16,1026.7,-0.1,72,11,9000,7.408,,,60,13.8,19.3,,,,,,,,,wg-a,,,,AAXX 07064 07434 02/59 20604 10160 20110 39794 40267 58001 60006 80001 90600 333 10193 20138 60004=
07434,1997-07-07 09:00:00,20,1025.5,-0.5,60,12,15000,18.52,,,30,,,,,,,,,,,wg-a,,,,AAXX 07094 07434 12565 30310 10200 20120 39789 40255 57005 60006 83100 90900=
07434,1997-07-07 12:00:00,21,1024.7,-0.6,53,11,25000,22.224,,,60,,,,,,,,,,,wg-a,,,,AAXX 07124 07434 12675 60612 10210 20110 39783 40247 56006 60006 86800 91200=
07434,1997-07-07 15:00:00,22,1023.3,-1.2,50,11,40000,18.52,,,50,,,,,,,,,,,wg-a,,,,AAXX 07154 07434 12682 40510 10220 20110 39771 40233 58012 60006 84800 91500=
07434,1997-07-07 18:00:00,21,1022.3,-1,53,11,40000,25.928,,,40,15.7,22.9,,,,,,,,,wg-a,,,,AAXX 07184 07434 12682 30414 10210 20110 39761 40223 57010 60006 83200 91800 333 10229 20157=
07434,1997-07-07 21:00:00,18,1022.8,-0.1,68,12,500,11.112,,,30,,,,,,,,,,,wg-a,,,,AAXX 07214 07434 12/00 00306 10180 20120 39760 40228 55001 60006 80000 92100=
07434,1997-07-08 00:00:00,17,1022.5,-0.4,68,11,500,14.816,,,40,,,,,,,,,,,wg-a,,,,AAXX 08004 07434 12/00 00408 10170 20110 39756 40225 57004 60006 80000 90000=
07434,1997-07-08 06:00:00,16,1021,-0.1,77,12,25000,11.112,,,50,14.3,21.3,,,,,,,,,wg-a,,,,AAXX 08064 07434 02/75 00506 10160 20120 39741 40210 55001 60006 80000 90600 333 10213 20143 60004=
07434,1997-07-08 09:00:00,20,1019.9,-0.5,56,11,500,22.224,,,70,,,,,,,,,,,wg-a,,,,AAXX 08094 07434 12600 /0712 10200 20110 39736 40199 58005 60006 81100 90900=
07434,1997-07-08 12:00:00,23,1018.5,-1,47,11,500,29.632,,,60,,,,,,,,,,,wg-a,,,,AAXX 08124 07434 12600 /0616 10230 20110 39726 40185 58010 60006 81100 91200=
07434,1997-07-08 15:00:00,24,1016.9,-1.3,47,12,500,29.632,,,60,,,,,,,,,,,wg-a,,,,AAXX 08154 07434 12600 /0616 10240 20120 39713 40169 57013 60006 81100 91500=
07434,1997-07-08 18:00:00,23,1016,-1,47,11,40000,22.224,,,80,16.4,24.3,,,,,,,,,wg-a,,,,AAXX 08184 07434 12782 10812 10230 20110 39703 40160 56010 60006 81100 91800 333 10243 20164=
07434,1997-07-09 00:00:00,18,1016.1,-0.7,68,12,25000,18.52,,,70,,,,,,,,,,,wg-a,,,,AAXX 09004 07434 12/75 00710 10180 20120 39696 40161 56007 60006 80000 90000=
07434,1997-07-09 03:00:00,16,1015.3,-1,77,12,25000,14.816,,,60,,,,,,,,,,,wg-a,,,,AAXX 09034 07434 12/75 00608 10160 20120 39686 40153 56010 60006 80000 90300=
07434,1997-07-09 06:00:00,17,1014.8,-0.3,77,13,25000,18.52,,,60,15.5,23,,,,,,,,,wg-a,,,,AAXX 09064 07434 02/75 20610 10170 20130 39683 40148 55003 60006 80002 90600 333 10230 20155 60004=
07434,1997-07-09 12:00:00,25,1012.4,-0.9,41,11,25000,25.928,,,80,,,,,,,,,,,wg-a,,,,AAXX 09124 07434 12675 30814 10250 20110 39671 40124 56009 60006 81132 91200=
07434,1997-07-09 15:00:00,26,1011.4,-0.8,42,12,25000,14.816,,,70,,,,,,,,,,,wg-a,,,,AAXX 09154 07434 12775 60708 10260 20120 39663 40114 56008 60006 82204 91500=
07434,1997-07-09 18:00:00,24,1011.4,-0.3,54,14,25000,11.112,,,40,17.2,26,,,,,,,,,wg-a,,,,AAXX 09184 07434 12775 /0406 10240 20140 39660 40114 55003 60006 83934 91800 333 10260 20172=
07434,1997-07-10 00:00:00,19,1012.2,-0.6,68,13,500,11.112,,,40,,,,,,,,,,,wg-a,,,,AAXX 10004 07434 12700 20406 10190 20130 39661 40122 58006 60006 81201 90000=
07434,1997-07-10 03:00:00,16,1012.1,-0.5,88,14,2000,7.408,,,90,,,,,,,,,,,wg-a,,,,AAXX 10034 07434 12720 40904 10160 20140 39656 40121 56005 60006 82201 90300=
07434,1997-07-10 06:00:00,16,1012.3,0.1,94,15,4500,11.112,,,140,15.4,23.6,,,,,,,,10,wg-a,,,,AAXX 10064 07434 02245 71406 10160 20150 39657 40123 53001 60006 71041 876// 90600 333 10236 20154 60004=
07434,1997-07-10 09:00:00,17,1012.9,0.8,88,15,4500,7.408,,,170,,,,,,,,,,10,wg-a,,,,AAXX 10094 07434 12245 81704 10170 20150 39665 40129 51008 60006 71022 886// 90900=
07434,1997-07-10 12:00:00,21,1012.3,0,73,16,10000,7.408,,,180,,,,,,,,,,,wg-a,,,,AAXX 10124 07434 12460 /1804 10210 20160 39665 40123 50000 60006 86200 91200=
07434,1997-07-10 15:00:00,23,1011.5,-0.4,65,16,10000,7.408,,,270,,,,,,,,,,,wg-a,,,,AAXX 10154 07434 12560 52704 10230 20160 39661 40115 56004 60006 84903 91500=
07434,1997-07-10 18:00:00,16,1013.6,0.9,88,14,6000,14.816,,,100,15.3,24.4,,,,,,,,80,wg-a,,,,AAXX 10184 07434 02256 71008 10160 20140 39670 40136 53009 61000 78096 8797/ 91800 333 10244 20153 6015=
07434,1997-07-11 00:00:00,15,1014.8,0,94,14,12000,7.408,,,240,,,,,,,,,,1,wg-a,,,,AAXX 11004 07434 12562 72404 10150 20140 39679 40148 50000 60016 70196 8197/ 90000=
07434,1997-07-11 03:00:00,14,1015,0.2,100,14,600,3.704,,,70,,,,,,,,,,45,wg-a,,,,AAXX 11034 07434 12/06 90702 10140 20140 39681 40150 53002 60006 74541 89/// 90300=
07434,1997-07-11 06:00:00,15,1015.8,0.9,100,15,1100,7.408,,,190,14.2,16,,,,,16,,,10,wg-a,,,,AAXX 11064 07434 02111 81904 10150 20150 39690 40158 51009 60006 71041 886// 90600 333 10160 20142 60164=
07434,1997-07-11 12:00:00,20,1016.6,0.7,83,17,0,14.816,,,290,,,,,,,,,,,wg-a,,,,AAXX 11124 07434 12/// /2908 10200 20170 39705 40166 51007 60026 91200=
07434,1997-07-11 15:00:00,22,1016,-0.3,69,16,10000,18.52,,,280,,,,,,,,,,,wg-a,,,,AAXX 11154 07434 12560 /2810 10220 20160 39702 40160 58003 60006 85230 91500=
07434,1997-07-11 18:00:00,20,1016.3,-0,73,15,10000,14.816,,,280,15.2,22.2,,,,,,,,,wg-a,,,,AAXX 11184 07434 12460 52808 10200 20150 39702 40163 55000 60006 8423/ 91800 333 10222 20152=
07434,1997-07-11 21:00:00,16,1018.2,1.2,88,14,8000,11.112,,,290,,,,,,,,,,,wg-a,,,,AAXX 11214 07434 12558 32906 10160 20140 39714 40182 52012 60006 8350/ 92100=
07434,1997-07-12 00:00:00,14,1018.5,-0.1,94,13,8000,7.408,,,300,,,,,,,,,,,wg-a,,,,AAXX 12004 07434 12/58 03004 10140 20130 39713 40185 58001 60006 80000 90000=
07434,1997-07-12 03:00:00,13,1018.4,-0.2,100,13,400,3.704,,,40,,,,,,,,,,45,wg-a,,,,AAXX 12034 07434 32/04 90402 10130 20130 39711 40184 56002 74541 89/// 90300=
07434,1997-07-12 06:00:00,13,1018.5,0.1,100,13,200,3.704,,,90,12.4,19.8,,,,,2,,,45,wg-a,,,,AAXX 12064 07434 02/02 90902 10130 20130 39712 40185 51001 60006 74541 89/// 90600 333 10198 20124 60024=
07434,1997-07-12 09:00:00,16,1018.2,0.2,94,15,3000,7.408,,,180,,,,,,,,,,10,wg-a,,,,AAXX 12094 07434 12530 /1804 10160 20150 39714 40182 50002 60006 71042 86200 90900=
07434,1997-07-12 12:00:00,21,1016.8,-0.6,64,14,20000,3.704,,,160,,,,,,,,,,1,wg-a,,,,AAXX 12124 07434 12570 31602 10210 20140 39708 40168 58006 60006 70141 83100 91200=
07434,1997-07-12 15:00:00,23,1015.6,-0.9,53,13,20000,7.408,,,220,,,,,,,,,,,wg-a,,,,AAXX 12154 07434 12670 22204 10230 20130 39699 40156 58009 60006 82101 91500=
07434,1997-07-12 18:00:00,24,1014.6,-0.8,50,13,500,3.704,,,220,13,24,,,,,,,,,wg-a,,,,AAXX 12184 07434 12600 /2202 10240 20130 39691 40146 56008 60006 81101 91800 333 10240 20130=
07434,1997-07-12 21:00:00,20,1016.3,1,68,14,40000,11.112,,,10,,,,,,,,,,,wg-a,,,,AAXX 12214 07434 12/82 10106 10200 20140 39701 40163 53010 60006 80001 92100=
07434,1997-07-13 00:00:00,18,1016.3,-0.3,73,13,500,11.112,,,50,,,,,,,,,,,wg-a,,,,AAXX 13004 07434 12/00 20506 10180 20130 39698 40163 58003 60006 80001 90000=
07434,1997-07-13 03:00:00,17,1016.3,-0.1,82,14,20000,7.408,,,70,,,,,,,,,,,wg-a,,,,AAXX 13034 07434 12/70 70704 10170 20140 39697 40163 58001 60006 83032 90300=
07434,1997-07-13 06:00:00,17,1016.8,0.5,77,13,18000,3.704,,,90,15.1,23.9,,,,,,,,,wg-a,,,,AAXX 13064 07434 02/68 70902 10170 20130 39702 40168 53005 60006 81086 90600 333 10239 20151 60004=
07434,1997-07-13 09:00:00,21,1017.2,1,69,15,20000,7.408,,,160,,,,,,,,,,,wg-a,,,,AAXX 13094 07434 12/70 61604 10210 20150 39712 40172 51010 60006 81032 90900=
07434,1997-07-13 12:00:00,25,1016,-0.6,50,14,25000,7.408,,,140,,,,,,,,,,,wg-a,,,,AAXX 13124 07434 12575 /1404 10250 20140 39706 40160 57006 60006 81132 91200=
07434,1997-07-13 15:00:00,26,1015.6,-0.2,51,15,500,11.112,,,340,,,,,,,,,,,wg-a,,,,AAXX 13154 07434 12600 73406 10260 20150 39704 40156 58002 60006 81822 91500=
07434,1997-07-13 18:00:00,23,1016.4,0.3,69,17,20000,7.408,,,310,16,26.3,,,,,,,,,wg-a,,,,AAXX 13184 07434 12670 73104 10230 20170 39707 40164 51003 60006 8196/ 91800 333 10263 20160=
07434,1997-07-13 21:00:00,20,1017.8,1,83,17,15000,11.112,,,300,,,,,,,,,,,wg-a,,,,AAXX 13214 07434 12/65 73006 10200 20170 39717 40178 53010 60006 81032 92100=
07434,1997-07-14 00:00:00,19,1018.1,0.1,88,17,12000,7.408,,,360,,,,,,,,,,,wg-a,,,,AAXX 14004 07434 12762 73604 10190 20170 39718 40181 51001 60006 82232 90000=
07434,1997-07-14 03:00:00,18,1018.1,-0.1,94,17,12000,3.704,,,70,,,,,,,,,,,wg-a,,,,AAXX 14034 07434 12762 70702 10180 20170 39717 40181 58001 60006 8553/ 90300=
07434,1997-07-14 06:00:00,17,1019.6,1.3,94,16,6000,7.408,,,340,17.1,22.7,,,,,,,,,wg-a,,,,AAXX 14064 07434 02256 73404 10170 20160 39730 40196 53013 60006 8558/ 90600 333 10227 20171 60004=
07434,1997-07-14 09:00:00,22,1019.8,0.8,69,16,15000,7.408,,,80,,,,,,,,,,,wg-a,,,,AAXX 14094 07434 12465 60804 10220 20160 39738 40198 53008 60006 84882 90900=
07434,1997-07-14 12:00:00,24,1019.6,0.2,57,15,25000,3.704,,,50,,,,,,,,,,,wg-a,,,,AAXX 14124 07434 12575 /0502 10240 20150 39740 40196 50002 60006 85202 91200=
07434,1997-07-14 15:00:00,25,1019.4,-0.1,57,16,500,11.112,,,300,,,,,,,,,,,wg-a,,,,AAXX 14154 07434 12600 63006 10250 20160 39739 40194 55001 60006 85202 91500=
07434,1997-07-14 18:00:00,23,1020.3,0.6,65,16,500,11.112,,,330,17.3,25.5,,,,,,,,,wg-a,,,,AAXX 14184 07434 12600 53306 10230 20160 39745 40203 53006 60006 85800 91800 333 10255 20173=
07434,1997-07-14 21:00:00,19,1022.2,1.2,78,15,20000,7.408,,,320,,,,,,,,,,,wg-a,,,,AAXX 14214 07434 12/70 33204 10190 20150 39757 40222 53012 60006 82031 92100=
07434,1997-07-15 00:00:00,17,1022.8,0.3,82,14,18000,7.408,,,310,,,,,,,,,,,wg-a,,,,AAXX 15004 07434 12/68 13104 10170 20140 39760 40228 51003 60006 80001 90000=
07434,1997-07-15 03:00:00,15,1023,-0.2,88,13,15000,11.112,,,10,,,,,,,,,,,wg-a,,,,AAXX 15034 07434 12/65 10106 10150 20130 39758 40230 58002 60006 80001 90300=
07434,1997-07-15 06:00:00,15,1023.3,0.3,94,14,10000,0,,,0,14.7,22.6,,,,,,,,,wg-a,,,,AAXX 15064 07434 02/60 20000 10150 20140 39761 40233 53003 60006 80001 90600 333 10226 20147 60004=
07434,1997-07-15 12:00:00,24,1021.8,-0.7,50,13,20000,7.408,,,90,,,,,,,,,,,wg-a,,,,AAXX 15124 07434 12670 30904 10240 20130 39761 40218 58007 60006 81101 91200=
07434,1997-07-15 18:00:00,24,1019.3,-1.3,54,14,25000,11.112,,,30,15.1,25.7,,,,,,,,,wg-a,,,,AAXX 15184 07434 12/75 40306 10240 20140 39737 40193 56013 60006 80002 91800 333 10257 20151=
07434,1997-07-15 21:00:00,20,1019.9,-0.1,64,13,25000,18.52,,,60,,,,,,,,,,,wg-a,,,,AAXX 15214 07434 12/75 50610 10200 20130 39736 40199 56001 60006 80002 92100=
07434,1997-07-16 00:00:00,19,1019.6,-0.5,68,13,20000,14.816,,,60,,,,,,,,,,,wg-a,,,,AAXX 16004 07434 12/70 60608 10190 20130 39731 40196 58005 60006 80002 90000=
07434,1997-07-16 03:00:00,18,1018,-1.7,68,12,15000,18.52,,,50,,,,,,,,,,,wg-a,,,,AAXX 16034 07434 12/65 40510 10180 20120 39714 40180 56017 60006 80002 90300=
07434,1997-07-16 06:00:00,19,1016.9,-0.8,64,12,15000,22.224,,,60,17.2,24.4,,,,,,,,,wg-a,,,,AAXX 16064 07434 02/65 30612 10190 20120 39706 40169 58008 60006 80002 90600 333 10244 20172 60004=
07434,1997-07-16 09:00:00,24,1016.2,0,50,13,15000,14.816,,,80,,,,,,,,,,,wg-a,,,,AAXX 16094 07434 12/65 60808 10240 20130 39706 40162 50000 60006 80004 90900=
07434,1997-07-16 12:00:00,26,1014.6,-1.2,48,14,15000,18.52,,,80,,,,,,,,,,,wg-a,,,,AAXX 16124 07434 12/65 80810 10260 20140 39694 40146 56012 60006 80002 91200=
07434,1997-07-16 18:00:00,25,1012.2,-0.7,54,15,35000,14.816,,,50,19,27.8,,,,,,,,15,wg-a,,,,AAXX 16184 07434 12/81 70508 10250 20150 39670 40122 55007 60006 71522 85072 91800 333 10278 20190=
07434,1997-07-16 21:00:00,23,1013.1,0.6,61,15,35000,11.112,,,30,,,,,,,,,,,wg-a,,,,AAXX 16214 07434 12781 70306 10230 20150 39676 40131 53006 60006 84572 92100=
07434,1997-07-17 00:00:00,21,1012.1,-1.2,69,15,35000,22.224,,,20,,,,,,,,,,,wg-a,,,,AAXX 17004 07434 12781 70212 10210 20150 39664 40121 58012 60006 865/1 90000=
07434,1997-07-17 03:00:00,18,1012,-0.6,88,16,15000,14.816,,,30,,,,,,,,,,,wg-a,,,,AAXX 17034 07434 12765 50308 10180 20160 39658 40120 55006 60006 825/1 90300=
07434,1997-07-17 06:00:00,17,1012.7,0.6,88,15,8000,11.112,,,30,17,24.5,,,,,,,,,wg-a,,,,AAXX 17064 07434 02358 40306 10170 20150 39664 40127 53006 60006 81131 90600 333 10245 20170 60004=
07434,1997-07-17 09:00:00,18,1013.3,0.7,88,16,10000,11.112,,,30,,,,,,,,,,,wg-a,,,,AAXX 17094 07434 12360 70306 10180 20160 39671 40133 51007 60006 8588/ 90900=
07434,1997-07-17 12:00:00,20,1013.5,0.4,78,16,12000,14.816,,,10,,,,0,,,,,,25,wg-a,,,,AAXX 17124 07434 02462 60108 10200 20160 39675 40135 52004 60016 72586 81831 91200 333 60007=
07434,1997-07-17 15:00:00,23,1013.1,0,57,14,25000,14.816,,,320,,,,,,,,,,,wg-a,,,,AAXX 17154 07434 12675 33208 10230 20140 39675 40131 50000 60006 83101 91500=
07434,1997-07-17 18:00:00,22,1013.7,0.5,53,12,500,11.112,,,320,16.7,23.2,,,,,,,,,wg-a,,,,AAXX 17184 07434 12600 23206 10220 20120 39680 40137 53005 60006 81101 91800 333 10232 20167=
07434,1997-07-18 00:00:00,16,1016.7,0.1,88,14,15000,14.816,,,270,,,,,,,,,,,wg-a,,,,AAXX 18004 07434 12365 62708 10160 20140 39699 40167 50001 60006 86500 90000=
07434,1997-07-18 06:00:00,14,1017.8,0.8,94,13,12000,7.408,,,300,14.3,22.2,,,,,,,,,wg-a,,,,AAXX 18064 07434 02362 73004 10140 20130 39707 40178 53008 60006 878// 90600 333 10222 20143 60004=
07434,1997-07-18 09:00:00,16,1018.1,0.5,72,11,500,14.816,,,310,,,,,,,,,,,wg-a,,,,AAXX 18094 07434 12500 53108 10160 20110 39712 40181 51005 60006 85800 90900=
07434,1997-07-18 12:00:00,19,1018.4,0.7,68,13,40000,14.816,,,310,,,,,,,,,,,wg-a,,,,AAXX 18124 07434 12682 53108 10190 20130 39719 40184 51007 60006 85800 91200=
07434,1997-07-18 15:00:00,19,1018.6,0.3,64,12,40000,14.816,,,340,,,,,,,,,,,wg-a,,,,AAXX 18154 07434 12682 43408 10190 20120 39722 40186 53003 60006 84800 91500=
07434,1997-07-18 18:00:00,19,1018.8,0.2,56,10,40000,7.408,,,10,14.3,20.5,,,,,,,,,wg-a,,,,AAXX 18184 07434 12682 60104 10190 20100 39724 40188 53002 60006 85830 91800 333 10205 20143=
07434,1997-07-18 21:00:00,16,1021.1,1.7,68,10,25000,11.112,,,340,,,,,,,,,,,wg-a,,,,AAXX 18214 07434 12775 13406 10160 20100 39741 40211 53017 60006 81530 92100=
07434,1997-07-19 00:00:00,14,1021.9,0.5,72,9,20000,11.112,,,20,,,,,,,,,,,wg-a,,,,AAXX 19004 07434 12/70 10206 10140 20090 39746 40219 51005 60006 81030 90000=
07434,1997-07-19 03:00:00,14,1022,-0.1,67,8,18000,7.408,,,20,,,,,,,,,,,wg-a,,,,AAXX 19034 07434 12/68 10204 10140 20080 39745 40220 57001 60006 80001 90300=
07434,1997-07-19 06:00:00,13,1023.2,1.1,82,10,500,3.704,,,320,11.4,19.5,,,,,,,,,wg-a,,,,AAXX 19064 07434 02700 63202 10130 20100 39756 40232 52011 60006 86500 90600 333 10195 20114 60004=
07434,1997-07-19 09:00:00,17,1023.4,0.8,68,11,20000,7.408,,,290,,,,,,,,,,,wg-a,,,,AAXX 19094 07434 12570 /2904 10170 20110 39764 40234 51008 60006 85800 90900=
07434,1997-07-19 12:00:00,18,1023.6,0.4,68,12,20000,11.112,,,330,,,,,,,,,,,wg-a,,,,AAXX 19124 07434 12570 /3306 10180 20120 39768 40236 51004 60006 86800 91200=
07434,1997-07-19 15:00:00,18,1023.5,-0,73,13,20000,11.112,,,350,,,,,,,,,,,wg-a,,,,AAXX 19154 07434 12570 73506 10180 20130 39768 40235 54000 60006 878// 91500=
07434,1997-07-19 18:00:00,19,1023.3,-0.1,68,13,0,7.408,,,10,13.2,19.5,,,,,,,,,wg-a,,,,AAXX 19184 07434 12/// /0104 10190 20130 39767 40233 58001 60006 91800 333 10195 20132=
07434,1997-07-19 21:00:00,15,1024.7,0.7,88,13,20000,7.408,,,300,,,,,,,,,,,wg-a,,,,AAXX 19214 07434 12/70 03004 10150 20130 39774 40247 53007 60006 80000 92100=
07434,1997-07-20 00:00:00,15,1023.8,-0.8,82,12,20000,11.112,,,330,,,,,,,,,,,wg-a,,,,AAXX 20004 07434 12/70 13306 10150 20120 39766 40238 58008 60006 80001 90000=
07434,1997-07-20 03:00:00,15,1023,-0.9,82,12,15000,7.408,,,20,,,,,,,,,,,wg-a,,,,AAXX 20034 07434 12/65 10204 10150 20120 39757 40230 58009 60006 80001 90300=
07434,1997-07-20 06:00:00,14,1023.1,0.1,88,12,8000,3.704,,,60,13.4,19.1,,,,,,,,,wg-a,,,,AAXX 20064 07434 02/58 30602 10140 20120 39758 40231 53001 60006 80001 90600 333 10191 20134 60004=
07434,1997-07-20 09:00:00,19,1022.3,-0,73,14,12000,11.112,,,330,,,,,,,,,,,wg-a,,,,AAXX 20094 07434 12562 33306 10190 20140 39758 40223 54000 60006 81201 90900=
07434,1997-07-20 12:00:00,22,1021.1,-0.8,50,11,25000,11.112,,,20,,,,,,,,,,,wg-a,,,,AAXX 20124 07434 12675 40206 10220 20110 39750 40211 58008 60006 84201 91200=
07434,1997-07-20 15:00:00,23,1020,-1,38,8,500,14.816,,,30,,,,,,,,,,,wg-a,,,,AAXX 20154 07434 12600 40308 10230 20080 39740 40200 56010 60006 82201 91500=
07434,1997-07-20 18:00:00,21,1019.6,-0.6,49,10,40000,14.816,,,30,14.5,22.8,,,,,,,,,wg-a,,,,AAXX 20184 07434 12782 60308 10210 20100 39734 40196 56006 60006 81102 91800 333 10228 20145=
07434,1997-07-20 21:00:00,17,1020.6,0.3,59,9,40000,11.112,,,40,,,,,,,,,,,wg-a,,,,AAXX 20214 07434 12/82 50406 10170 20090 39737 40206 52003 60006 80001 92100=
07434,1997-07-21 00:00:00,15,1020.2,-0.6,67,9,500,14.816,,,50,,,,,,,,,,,wg-a,,,,AAXX 21004 07434 12/00 30508 10150 20090 39731 40202 58006 60006 80001 90000=
07434,1997-07-21 06:00:00,15,1019.7,0.1,67,9,15000,7.408,,,80,13.8,20.9,,,,,,,,,wg-a,,,,AAXX 21064 07434 02/65 50804 10150 20090 39726 40197 53001 60006 81032 90600 333 10209 20138 60004=
07434,1997-07-21 09:00:00,20,1019,-0,56,11,15000,22.224,,,70,,,,,,,,,,,wg-a,,,,AAXX 21094 07434 12/65 50712 10200 20110 39726 40190 54000 60006 81032 90900=
07434,1997-07-21 12:00:00,22,1017.7,-0.9,43,9,500,18.52,,,90,,,,,,,,,,,wg-a,,,,AAXX 21124 07434 12600 30910 10220 20090 39717 40177 56009 60006 81101 91200=
07434,1997-07-21 15:00:00,23,1016.6,-0.8,41,9,40000,18.52,,,80,,,,,,,,,,,wg-a,,,,AAXX 21154 07434 12782 30810 10230 20090 39709 40166 56008 60006 81101 91500=
07434,1997-07-21 18:00:00,22,1015.9,-0.9,46,10,40000,18.52,,,60,15.3,23.6,,,,,,,,,wg-a,,,,AAXX 21184 07434 12/82 30610 10220 20100 39700 40159 56009 60006 80001 91800 333 10236 20153=
07434,1997-07-21 21:00:00,18,1017.1,0.6,59,10,500,18.52,,,60,,,,,,,,,,,wg-a,,,,AAXX 21214 07434 12/00 20610 10180 20100 39706 40171 53006 60006 80001 92100=
07434,1997-07-22 00:00:00,17,1016.6,-0.6,63,10,500,18.52,,,70,,,,,,,,,,,wg-a,,,,AAXX 22004 07434 12/00 10710 10170 20100 39700 40166 58006 60006 80001 90000=
07434,1997-07-22 03:00:00,16,1016.1,-0.7,68,10,500,18.52,,,70,,,,,,,,,,,wg-a,,,,AAXX 22034 07434 12/00 30710 10160 20100 39693 40161 56007 60006 80002 90300=
07434,1997-07-22 06:00:00,17,1016.1,0.1,63,10,20000,14.816,,,80,15.9,21.9,,,,,,,,,wg-a,,,,AAXX 22064 07434 02/70 60808 10170 20100 39694 40161 52001 60006 82082 90600 333 10219 20159 60004=
07434,1997-07-22 09:00:00,22,1015.5,0.2,50,11,20000,14.816,,,110,,,,,,,,,,,wg-a,,,,AAXX 22094 07434 12/70 61108 10220 20110 39696 40155 50002 60006 82082 90900=
07434,1997-07-22 12:00:00,25,1014.8,-0.2,44,12,500,3.704,,,20,,,,,,,,,,,wg-a,,,,AAXX 22124 07434 12/00 60202 10250 20120 39694 40148 58002 60006 82082 91200=
07434,1997-07-22 15:00:00,26,1014.7,0.1,45,13,500,11.112,,,180,,,,,,,,,,,wg-a,,,,AAXX 22154 07434 12/00 71806 10260 20130 39695 40147 53001 60006 84082 91500=
07434,1997-07-22 18:00:00,23,1014.7,-0.3,61,15,500,3.704,,,280,16.8,26.2,,,,,,,,,wg-a,,,,AAXX 22184 07434 12600 72802 10230 20150 39692 40147 56003 60006 81982 91800 333 10262 20168=
07434,1997-07-22 21:00:00,22,1016,1,65,15,15000,7.408,,,50,,,,,,,,,,,wg-a,,,,AAXX 22214 07434 12/65 50504 10220 20150 39702 40160 52010 60006 85082 92100=
07434,1997-07-23 00:00:00,20,1016,-0.3,73,15,15000,7.408,,,70,,,,,,,,,,,wg-a,,,,AAXX 23004 07434 12665 50704 10200 20150 39699 40160 58003 60006 84582 90000=
07434,1997-07-23 03:00:00,19,1015.9,-0.2,78,15,15000,3.704,,,60,,,,,,,,,,,wg-a,,,,AAXX 23034 07434 12665 /0602 10190 20150 39697 40159 55002 60006 83582 90300=
07434,1997-07-23 06:00:00,19,1016.6,0.6,78,15,15000,3.704,,,90,18.5,23.4,,,,,,,,60,wg-a,,,,AAXX 23064 07434 02665 70902 10190 20150 39703 40166 52006 61000 76062 8357/ 90600 333 10234 20185 6100=
07434,1997-07-23 09:00:00,23,1016.9,0.9,65,16,15000,7.408,,,180,,,,,,,,,,1,wg-a,,,,AAXX 23094 07434 02/65 51804 10230 20160 39712 40169 51009 61000 70162 84082 90900 333 ////=
07434,1997-07-23 12:00:00,24,1016.9,0.2,69,18,15000,7.408,,,190,,,,0,,,,,,80,wg-a,,,,AAXX 23124 07434 02665 71904 10240 20180 39714 40169 53002 60006 78086 82282 91200 333 60007=
07434,1997-07-23 18:00:00,24,1016,-0.4,65,17,15000,0,,,0,18.6,26.1,,,,,,,,17,wg-a,,,,AAXX 23184 07434 12665 60000 10240 20170 39705 40160 55004 60006 71798 83983 91800 333 10261 20186=
07434,1997-07-24 00:00:00,20,1016.7,-0.6,88,18,12000,3.704,,,130,,,,,,,,,,3,wg-a,,,,AAXX 24004 07434 02/62 41302 10200 20180 39706 40167 58006 61000 70396 80001 90000 333 ////=
07434,1997-07-24 03:00:00,18,1016.2,-0.8,94,17,8000,3.704,,,80,,,,,,,,,,,wg-a,,,,AAXX 24034 07434 12/58 /0802 10180 20170 39698 40162 56008 60006 80001 90300=
07434,1997-07-24 06:00:00,18,1016.7,0.5,94,17,4000,3.704,,,50,16.9,24,,,,,1,,,10,wg-a,,,,AAXX 24064 07434 02740 20502 10180 20170 39703 40167 53005 60006 71000 81231 90600 333 10240 20169 60014=
07434,1997-07-24 09:00:00,22,1016.7,0.7,73,17,12000,11.112,,,270,,,,,,,,,,,wg-a,,,,AAXX 24094 07434 12/62 62706 10220 20170 39710 40167 51007 60006 80002 90900=
07434,1997-07-24 12:00:00,24,1016.7,0.3,61,16,20000,14.816,,,270,,,,,,,,,,,wg-a,,,,AAXX 24124 07434 12670 /2708 10240 20160 39713 40167 52003 60006 81232 91200=
07434,1997-07-24 15:00:00,25,1016.4,-0.3,47,13,500,22.224,,,270,,,,,,,,,,,wg-a,,,,AAXX 24154 07434 12600 /2712 10250 20130 39710 40164 56003 60006 81202 91500=
07434,1997-07-24 18:00:00,22,1017.4,0.4,46,10,40000,22.224,,,270,18.1,25.2,,,,,,,,,wg-a,,,,AAXX 24184 07434 12782 52712 10220 20100 39714 40174 53004 60006 81201 91800 333 10252 20181=
07434,1997-07-25 00:00:00,15,1019.7,-0.1,94,14,8000,14.816,,,240,,,,0,,,,,,60,wg-a,,,,AAXX 25004 07434 02258 72408 10150 20140 39726 40197 58001 60016 76061 8777/ 90000 333 60007=
07434,1997-07-25 03:00:00,15,1018.9,-0.6,100,15,12000,14.816,,,280,,,,1,,,,,,21,wg-a,,,,AAXX 25034 07434 12262 72808 10150 20150 39720 40189 56006 60017 72162 8777/ 90300=
07434,1997-07-25 06:00:00,16,1019.5,0.6,94,15,12000,14.816,,,290,14.5,21.6,,,,,,,,21,wg-a,,,,AAXX 25064 07434 02262 72908 10160 20150 39726 40195 53006 61000 72162 877// 90600 333 10216 20145 6001=
07434,1997-07-25 12:00:00,17,1020.2,0.1,82,14,20000,11.112,,,260,,,,,,,,,,1,wg-a,,,,AAXX 25124 07434 02470 72606 10170 20140 39734 40202 50001 61000 70165 878// 91200 333 6100=
07434,1997-07-25 15:00:00,18,1019.4,-0.6,83,15,20000,18.52,,,260,,,,,,,,,,16,wg-a,,,,AAXX 25154 07434 12470 82610 10180 20150 39728 40194 57006 60006 71622 875// 91500=
07434,1997-07-25 18:00:00,17,1019.3,-0.2,94,16,1500,18.52,,,250,15.4,18.3,,,,,,,,10,wg-a,,,,AAXX 25184 07434 02215 82510 10170 20160 39726 40193 56002 61000 71065 877// 91800 333 10183 20154 6001=
07434,1997-07-25 21:00:00,17,1019.9,0.6,100,17,500,14.816,,,270,,,,1,,,,,,60,wg-a,,,,AAXX 25214 07434 12100 82708 10170 20170 39732 40199 53006 60017 76066 877// 92100=
07434,1997-07-26 00:00:00,16,1020.5,0.5,100,16,15000,14.816,,,260,,,,1,,,,,,61,wg-a,,,,AAXX 26004 07434 02165 82608 10160 20160 39737 40205 51005 60026 76166 887// 90000 333 60017=
07434,1997-07-26 03:00:00,15,1021,0.3,100,15,15000,11.112,,,290,,,,0,,,,,,21,wg-a,,,,AAXX 26034 07434 12265 82906 10150 20150 39740 40210 53003 60007 72162 887// 90300=
07434,1997-07-26 06:00:00,15,1021.7,0.6,100,15,2000,11.112,,,280,15.1,17,,,,,,,,10,wg-a,,,,AAXX 26064 07434 02120 82806 10150 20150 39746 40217 53006 61000 71065 887// 90600 333 10170 20151 6004=
07434,1997-07-26 09:00:00,16,1022.6,1.1,100,16,15000,11.112,,,250,,,,1,,,,,,20,wg-a,,,,AAXX 26094 07434 12265 72506 10160 20160 39757 40226 51011 60017 72052 877// 90900=
07434,1997-07-26 12:00:00,20,1022.3,0.2,68,14,25000,14.816,,,280,,,,0,,,,,,1,wg-a,,,,AAXX 26124 07434 02575 62808 10200 20140 39759 40223 51002 60016 70186 86800 91200 333 60007=
07434,1997-07-26 18:00:00,21,1020.9,-0.3,73,16,500,7.408,,,270,15.2,22.6,,,,,,,,,wg-a,,,,AAXX 26184 07434 12500 72704 10210 20160 39747 40209 56003 60006 878// 91800 333 10226 20152=
07434,1997-07-26 21:00:00,19,1021.8,0.6,88,17,500,7.408,,,290,,,,,,,,,,,wg-a,,,,AAXX 26214 07434 12600 72904 10190 20170 39753 40218 53006 60006 875// 92100=
07434,1997-07-27 00:00:00,18,1021.8,-0.1,94,17,500,7.408,,,300,,,,,,,,,,,wg-a,,,,AAXX 27004 07434 12600 73004 10180 20170 39752 40218 57001 60006 878// 90000=
07434,1997-07-27 03:00:00,17,1021.9,-0.2,94,16,8000,7.408,,,290,,,,,,,,,,,wg-a,,,,AAXX 27034 07434 12158 /2904 10170 20160 39750 40219 55002 60006 84501 90300=
07434,1997-07-27 06:00:00,16,1022.3,0.3,100,16,4000,3.704,,,10,16,20.8,,,,,1,,,10,wg-a,,,,AAXX 27064 07434 02240 70102 10160 20160 39753 40223 52003 60006 71042 876// 90600 333 10208 20160 60014=
07434,1997-07-27 09:00:00,21,1021.7,0.2,60,13,15000,3.704,,,290,,,,,,,,,,,wg-a,,,,AAXX 27094 07434 12565 42902 10210 20130 39755 40217 51002 60006 83201 90900=
07434,1997-07-27 12:00:00,22,1021.8,0.3,65,15,25000,11.112,,,330,,,,,,,,,,,wg-a,,,,AAXX 27124 07434 12675 /3306 10220 20150 39758 40218 53003 60006 85801 91200=
07434,1997-07-27 15:00:00,22,1021.5,-0.3,69,16,40000,7.408,,,360,,,,,,,,,,,wg-a,,,,AAXX 27154 07434 12682 /3604 10220 20160 39755 40215 56003 60006 85801 91500=
07434,1997-07-27 18:00:00,22,1020.9,-0.6,69,16,40000,3.704,,,10,16,22.9,,,,,,,,,wg-a,,,,AAXX 27184 07434 12682 50102 10220 20160 39749 40209 58006 60006 83801 91800 333 10229 20160=
07434,1997-07-28 00:00:00,18,1021.9,-0.4,88,16,20000,11.112,,,10,,,,,,,,,,,wg-a,,,,AAXX 28004 07434 12/70 40106 10180 20160 39753 40219 58004 60006 80002 90000=
07434,1997-07-28 03:00:00,17,1021.6,-0.6,94,16,10000,11.112,,,30,,,,,,,,,,,wg-a,,,,AAXX 28034 07434 12/60 50306 10170 20160 39747 40216 56006 60006 80002 90300=
07434,1997-07-28 06:00:00,19,1021.2,-0,83,16,10000,11.112,,,40,16.6,21.7,,,,,,,,11,wg-a,,,,AAXX 28064 07434 02/60 /0406 10190 20160 39747 40212 54000 60006 71111 80002 90600 333 10217 20166 60004=
07434,1997-07-28 09:00:00,22,1020.9,0.3,69,16,40000,11.112,,,90,,,,,,,,,,,wg-a,,,,AAXX 28094 07434 12582 30906 10220 20160 39750 40209 51003 60006 81201 90900=
07434,1997-07-28 12:00:00,25,1020.2,-0.4,50,14,60000,11.112,,,10,,,,,,,,,,,wg-a,,,,AAXX 28124 07434 12586 30106 10250 20140 39746 40202 58004 60006 83201 91200=
07434,1997-07-28 15:00:00,26,1019,-0.9,51,15,75000,11.112,,,30,,,,,,,,,,,wg-a,,,,AAXX 28154 07434 12689 30306 10260 20150 39737 40190 57009 60006 83201 91500=
07434,1997-07-28 18:00:00,25,1018.4,-0.7,54,15,75000,7.408,,,10,18.8,26.5,,,,,,,,,wg-a,,,,AAXX 28184 07434 12689 /0104 10250 20150 39730 40184 56007 60006 81101 91800 333 10265 20188=
07434,1997-07-28 21:00:00,22,1019.8,0.9,65,15,500,11.112,,,10,,,,,,,,,,,wg-a,,,,AAXX 28214 07434 12/00 10106 10220 20150 39739 40198 52009 60006 81031 92100=
07434,1997-07-29 00:00:00,21,1019.9,-0.2,60,13,0,11.112,,,20,,,,,,,,,,,wg-a,,,,AAXX 29004 07434 12/// /0206 10210 20130 39737 40199 58002 60006 90000=
07434,1997-07-29 03:00:00,18,1019.5,-0.7,77,14,20000,3.704,,,330,,,,,,,,,,,wg-a,,,,AAXX 29034 07434 12/70 03302 10180 20140 39730 40195 56007 60006 80000 90300=
07434,1997-07-29 06:00:00,18,1020.3,0.6,77,14,25000,3.704,,,90,16.8,25.4,,,,,,,,,wg-a,,,,AAXX 29064 07434 02/75 40902 10180 20140 39736 40203 53006 60006 81031 90600 333 10254 20168 60004=
07434,1997-07-29 09:00:00,24,1019.8,0.5,61,16,25000,7.408,,,330,,,,,,,,,,,wg-a,,,,AAXX 29094 07434 12/75 23304 10240 20160 39741 40198 51005 60006 80001 90900=
07434,1997-07-29 12:00:00,27,1018.7,-0.5,48,15,25000,3.704,,,320,,,,,,,,,,,wg-a,,,,AAXX 29124 07434 12675 43202 10270 20150 39736 40187 58005 60006 82101 91200=
07434,1997-07-29 15:00:00,28,1017.9,-0.7,48,16,35000,11.112,,,260,,,,,,,,,,,wg-a,,,,AAXX 29154 07434 12681 32606 10280 20160 39729 40179 58007 60006 82101 91500=
07434,1997-07-29 18:00:00,27,1017.9,-0.2,48,15,35000,7.408,,,320,17.7,28.4,,,,,,,,,wg-a,,,,AAXX 29184 07434 12781 23204 10270 20150 39727 40179 55002 60006 81101 91800 333 10284 20177=
07434,1997-07-29 21:00:00,23,1019,0.5,53,13,40000,7.408,,,360,,,,,,,,,,,wg-a,,,,AAXX 29214 07434 12/82 23604 10230 20130 39732 40190 53005 60006 80001 92100=
07434,1997-07-30 00:00:00,19,1019.6,0,78,15,40000,14.816,,,310,,,,,,,,,,,wg-a,,,,AAXX 30004 07434 12/82 13108 10190 20150 39732 40196 50000 60006 80001 90000=
07434,1997-07-30 03:00:00,17,1019.4,-0.5,88,15,500,3.704,,,320,,,,,,,,,,,wg-a,,,,AAXX 30034 07434 12/00 33202 10170 20150 39727 40194 58005 60006 80001 90300=
07434,1997-07-30 06:00:00,17,1019.8,0.3,88,15,500,7.408,,,50,16.2,26.8,,,,,,,,,wg-a,,,,AAXX 30064 07434 02/00 50504 10170 20150 39730 40198 53003 60006 81035 90600 333 10268 20162 60004=
07434,1997-07-30 09:00:00,23,1019.3,0.6,69,17,500,7.408,,,280,,,,,,,,,,,wg-a,,,,AAXX 30094 07434 12800 52804 10230 20170 39736 40193 51006 60006 83082 90900=
07434,1997-07-30 12:00:00,25,1018.8,-0.1,65,18,500,18.52,,,280,,,,,,,,,,,wg-a,,,,AAXX 30124 07434 12500 52810 10250 20180 39735 40188 58001 60006 83202 91200=
07434,1997-07-30 15:00:00,26,1018.4,-0.4,42,12,500,14.816,,,280,,,,,,,,,,,wg-a,,,,AAXX 30154 07434 12600 42808 10260 20120 39731 40184 58004 60006 82205 91500=
07434,1997-07-30 18:00:00,23,1018.5,-0.4,47,11,500,7.408,,,320,16.6,26.7,,,,,,,,,wg-a,,,,AAXX 30184 07434 12600 /3204 10230 20110 39727 40185 56004 60006 81202 91800 333 10267 20166=
07434,1997-07-30 21:00:00,20,1020.2,1.3,73,15,500,7.408,,,310,,,,,,,,,,,wg-a,,,,AAXX 30214 07434 12/00 53104 10200 20150 39740 40202 53013 60006 82032 92100=
07434,1997-07-31 00:00:00,19,1020.5,0,78,15,500,7.408,,,10,,,,,,,,,,,wg-a,,,,AAXX 31004 07434 12/00 30104 10190 20150 39740 40205 50000 60006 82032 90000=
07434,1997-07-31 03:00:00,17,1020.4,-0.4,88,15,500,11.112,,,20,,,,,,,,,,,wg-a,,,,AAXX 31034 07434 12/00 40206 10170 20150 39736 40204 56004 60006 84032 90300=
07434,1997-07-31 06:00:00,16,1020.9,0.4,88,14,15000,11.112,,,20,16,23.2,,,,,,,,,wg-a,,,,AAXX 31064 07434 02565 80206 10160 20140 39740 40209 53004 60006 86532 90600 333 10232 20160 60004=
07434,1997-07-31 09:00:00,19,1021.3,0.8,78,15,20000,11.112,,,330,,,,,,,,,,,wg-a,,,,AAXX 31094 07434 12570 63306 10190 20150 39748 40213 52008 60006 84232 90900=
07434,1997-07-31 12:00:00,22,1020,-0.8,57,13,500,7.408,,,20,,,,,,,,,,,wg-a,,,,AAXX 31124 07434 12600 /0204 10220 20130 39740 40200 58008 60006 84202 91200=
07434,1997-07-31 15:00:00,23,1019.3,-0.6,47,11,500,14.816,,,310,,,,,,,,,,,wg-a,,,,AAXX 31154 07434 12600 /3108 10230 20110 39734 40193 57006 60006 81202 91500=
07434,1997-07-31 18:00:00,21,1018.7,-0.8,53,11,50000,7.408,,,330,16,23,,,,,,,,,wg-a,,,,AAXX 31184 07434 12/84 63304 10210 20110 39726 40187 58008 60006 80002 91800 333 10230 20160=
07434,1997-08-01 00:00:00,17,1019.3,-0.7,59,9,40000,7.408,,,10,,,,,,,,,,,wg-a,,,,AAXX 01004 07434 12/82 40104 10170 20090 39724 40193 58007 60006 80002 90000=
07434,1997-08-01 03:00:00,13,1018.7,-1.1,82,10,20000,11.112,,,300,,,,,,,,,,,wg-a,,,,AAXX 01034 07434 12/70 23006 10130 20100 39713 40187 56011 60006 80001 90300=
07434,1997-08-01 06:00:00,13,1018.7,-0,82,10,20000,3.704,,,60,11.7,21.4,,,,,,,,,wg-a,,,,AAXX 01064 07434 02/70 10602 10130 20100 39713 40187 55000 60006 80001 90600 333 10214 20117 60004=
07434,1997-08-01 09:00:00,19,1018.3,0.5,68,13,20000,7.408,,,260,,,,,,,,,,,wg-a,,,,AAXX 01094 07434 12570 /2604 10190 20130 39718 40183 51005 60006 81100 90900=
07434,1997-08-01 12:00:00,22,1017.2,-0.6,50,11,20000,11.112,,,280,,,,,,,,,,,wg-a,,,,AAXX 01124 07434 12/70 12806 10220 20110 39712 40172 58006 60006 80001 91200=
07434,1997-08-01 15:00:00,23,1016.4,-0.5,50,12,35000,11.112,,,350,,,,,,,,,,,wg-a,,,,AAXX 01154 07434 12681 /3506 10230 20120 39707 40164 56005 60006 81101 91500=
07434,1997-08-01 18:00:00,23,1016.1,-0.3,50,12,35000,11.112,,,340,13.2,23.6,,,,,,,,,wg-a,,,,AAXX 01184 07434 12/81 13406 10230 20120 39704 40161 55003 60006 80001 91800 333 10236 20132=
07434,1997-08-01 21:00:00,19,1018,1.2,56,10,500,7.408,,,330,,,,,,,,,,,wg-a,,,,AAXX 01214 07434 12/00 13304 10190 20100 39716 40180 53012 60006 80001 92100=
07434,1997-08-02 00:00:00,17,1018.2,-0.1,68,11,500,3.704,,,180,,,,,,,,,,,wg-a,,,,AAXX 02004 07434 12/00 01802 10170 20110 39715 40182 58001 60006 80000 90000=
07434,1997-08-02 03:00:00,15,1018.1,-0.4,72,10,500,7.408,,,330,,,,,,,,,,,wg-a,,,,AAXX 02034 07434 12/00 13304 10150 20100 39711 40181 56004 60006 80001 90300=
07434,1997-08-02 06:00:00,17,1018,0.2,72,12,40000,0,,,0,15,22.8,,,,,,,,,wg-a,,,,AAXX 02064 07434 02/82 20000 10170 20120 39713 40180 53002 60006 80001 90600 333 10228 20150 60004=
07434,1997-08-02 09:00:00,23,1017.2,0.1,57,14,40000,11.112,,,80,,,,,,,,,,,wg-a,,,,AAXX 02094 07434 12/82 20806 10230 20140 39714 40172 50001 60006 80001 90900=
07434,1997-08-02 12:00:00,26,1015.7,-0.9,54,16,40000,11.112,,,40,,,,,,,,,,,wg-a,,,,AAXX 02124 07434 12682 20406 10260 20160 39705 40157 58009 60006 81101 91200=
07434,1997-08-02 15:00:00,26,1015.2,-0.4,54,16,40000,7.408,,,340,,,,,,,,,,,wg-a,,,,AAXX 02154 07434 12682 43404 10260 20160 39701 40152 58004 60006 84101 91500=
07434,1997-08-02 18:00:00,25,1014.7,-0.7,61,17,35000,11.112,,,20,16.8,27.2,,,,,,,,,wg-a,,,,AAXX 02184 07434 12681 40206 10250 20170 39694 40147 56007 60006 84101 91800 333 10272 20168=
07434,1997-08-02 21:00:00,23,1015.6,0.6,69,17,12000,11.112,,,30,,,,,,,,,,,wg-a,,,,AAXX 02214 07434 12/62 10306 10230 20170 39700 40156 53006 60006 81030 92100=
07434,1997-08-03 00:00:00,21,1015.4,-0.5,78,17,12000,11.112,,,60,,,,,,,,,,,wg-a,,,,AAXX 03004 07434 12/62 00606 10210 20170 39695 40154 57005 60006 80000 90000=
07434,1997-08-03 03:00:00,20,1014.9,-0.6,83,17,12000,11.112,,,60,,,,,,,,,,,wg-a,,,,AAXX 03034 07434 12/62 00606 10200 20170 39689 40149 56006 60006 80000 90300=
07434,1997-08-03 06:00:00,19,1015.1,0.1,88,17,40000,7.408,,,70,19.2,25,,,,,,,,,wg-a,,,,AAXX 03064 07434 02/82 40704 10190 20170 39690 40151 53001 60006 82081 90600 333 10250 20192 60004=
07434,1997-08-03 09:00:00,24,1014.6,0.3,65,17,40000,3.704,,,130,,,,,,,,,,,wg-a,,,,AAXX 03094 07434 12/82 21302 10240 20170 39693 40146 53003 60006 82081 90900=
07434,1997-08-03 12:00:00,28,1013.7,-0.3,48,16,40000,11.112,,,200,,,,,,,,,,,wg-a,,,,AAXX 03124 07434 12682 22006 10280 20160 39690 40137 58003 60006 82100 91200=
07434,1997-08-03 15:00:00,30,1012.7,-0.8,38,14,40000,11.112,,,200,,,,,,,,,,,wg-a,,,,AAXX 03154 07434 12682 /2006 10300 20140 39682 40127 56008 60006 81101 91500=
07434,1997-08-03 18:00:00,29,1012.3,-0.4,43,15,50000,7.408,,,230,19.1,30,,,,,,,,,wg-a,,,,AAXX 03184 07434 12784 22304 10290 20150 39678 40123 56004 60006 81183 91800 333 10300 20191=
07434,1997-08-03 21:00:00,26,1013.3,0.4,51,15,50000,7.408,,,60,,,,,,,,,,,wg-a,,,,AAXX 03214 07434 12/84 10604 10260 20150 39682 40133 52004 60006 80002 92100=
07434,1997-08-04 00:00:00,22,1013.9,0,69,16,15000,7.408,,,40,,,,,,,,,,,wg-a,,,,AAXX 04004 07434 12/65 00404 10220 20160 39682 40139 50000 60006 80000 90000=
07434,1997-08-04 03:00:00,20,1013.6,-0.6,78,16,15000,11.112,,,50,,,,,,,,,,,wg-a,,,,AAXX 04034 07434 12/65 00506 10200 20160 39676 40136 57006 60006 80000 90300=
07434,1997-08-04 06:00:00,20,1014.1,0.5,73,15,15000,7.408,,,80,18.8,29.4,,,,,,,,,wg-a,,,,AAXX 04064 07434 02/65 10804 10200 20150 39681 40141 53005 60006 80002 90600 333 10294 20188 60004=
07434,1997-08-04 12:00:00,28,1013.3,-1.1,55,18,10000,7.408,,,170,,,,,,,,,,,wg-a,,,,AAXX 04124 07434 12/60 /1704 10280 20180 39687 40133 58011 60006 91200=
07434,1997-08-04 15:00:00,26,1013.8,0.2,65,19,25000,7.408,,,280,,,,,,,,,,21,wg-a,,,,AAXX 04154 07434 02775 62804 10260 20190 39689 40138 50002 61000 72161 85282 91500 333 ////=
07434,1997-08-04 18:00:00,26,1012.8,-1.1,70,20,15000,0,,,0,20,29.1,,,,,,,,1,wg-a,,,,AAXX 04184 07434 12765 30000 10260 20200 39678 40128 58011 60006 70161 83182 91800 333 10291 20200=
07434,1997-08-04 21:00:00,23,1014.8,1.5,83,20,10000,0,,,0,,,,,,,,,,,wg-a,,,,AAXX 04214 07434 12860 40000 10230 20200 39693 40148 51015 60006 83082 92100=
07434,1997-08-05 00:00:00,20,1015,-0.2,94,19,500,18.52,,,310,,,,,,,,,,,wg-a,,,,AAXX 05004 07434 12200 /3110 10200 20190 39691 40150 58002 60006 85600 90000=
07434,1997-08-05 03:00:00,19,1015.1,-0.2,94,18,3000,3.704,,,300,,,,,,,,,,10,wg-a,,,,AAXX 05034 07434 12230 73002 10190 20180 39689 40151 55002 60006 71022 8658/ 90300=
07434,1997-08-05 06:00:00,20,1014.3,-0.6,88,18,6000,11.112,,,40,18.3,25.9,,,,,,,,,wg-a,,,,AAXX 05064 07434 02456 70406 10200 20180 39683 40143 58006 60006 85582 90600 333 10259 20183 61000=
07434,1997-08-05 09:00:00,19,1015.6,1.2,100,19,900,11.112,,,200,,,,1,,,,,,10,wg-a,,,,AAXX 05094 07434 12209 72006 10190 20190 39695 40156 51012 60017 71098 85982 90900=
07434,1997-08-05 12:00:00,20,1015,-0.5,88,18,10000,7.408,,,150,,,,4,,,,,,60,wg-a,,,,AAXX 05124 07434 02260 81504 10200 20180 39690 40150 55005 60056 76098 8657/ 91200 333 60047=
07434,1997-08-05 15:00:00,20,1014.4,-0.6,94,19,4000,11.112,,,290,,,,0,,,,,,10,wg-a,,,,AAXX 05154 07434 12340 82906 10200 20190 39684 40144 56006 60007 71062 8557/ 91500=
07434,1997-08-05 18:00:00,18,1014.1,-0.5,100,18,3000,11.112,,,300,18.2,20.8,,14,,,,,,10,wg-a,,,,AAXX 05184 07434 02130 83006 10180 20180 39679 40141 55005 60006 71096 8598/ 91800 333 10208 20182 60147=
07434,1997-08-05 21:00:00,18,1014.8,0.6,94,17,3000,7.408,,,320,,,,1,,,,,,10,wg-a,,,,AAXX 05214 07434 12230 73204 10180 20170 39685 40148 53006 60017 71064 857// 92100=
07434,1997-08-06 00:00:00,17,1014.7,-0.2,100,17,6000,7.408,,,320,,,,0,,,,,,61,wg-a,,,,AAXX 06004 07434 02356 83204 10170 20170 39683 40147 58002 60016 76164 8583/ 90000 333 60007=
07434,1997-08-06 03:00:00,17,1013.8,-0.9,100,17,400,3.704,,,260,,,,,,,,,,45,wg-a,,,,AAXX 06034 07434 32/04 92602 10170 20170 39674 40138 58009 74564 89/// 90300=
07434,1997-08-06 06:00:00,17,1013.6,-0.1,100,17,300,7.408,,,260,16.5,18.3,,,,,21,,,45,wg-a,,,,AAXX 06064 07434 02/03 92604 10170 20170 39673 40136 57001 60006 74564 89/// 90600 333 10183 20165 60214=
07434,1997-08-06 09:00:00,19,1013.9,0.5,88,17,7000,3.704,,,270,,,,,,,,,,1,wg-a,,,,AAXX 06094 07434 12357 82702 10190 20170 39678 40139 53005 60006 70142 888// 90900=
07434,1997-08-06 12:00:00,23,1012.8,-0.4,73,18,10000,7.408,,,340,,,,,,,,,,1,wg-a,,,,AAXX 06124 07434 12560 73404 10230 20180 39674 40128 58004 60006 70142 86801 91200=
07434,1997-08-06 15:00:00,24,1011.4,-1.3,65,17,11000,11.112,,,20,,,,,,,,,,,wg-a,,,,AAXX 06154 07434 12/61 /0206 10240 20170 39661 40114 58013 60006 91500=
07434,1997-08-06 18:00:00,23,1010.8,-0.6,69,17,20000,11.112,,,40,17.4,24.5,,,,,,,,,wg-a,,,,AAXX 06184 07434 12570 60406 10230 20170 39655 40108 56006 60006 82289 91800 333 10245 20174=
07434,1997-08-06 21:00:00,21,1012.2,0.9,73,16,18000,18.52,,,40,,,,,,,,,,,wg-a,,,,AAXX 06214 07434 12/68 70410 10210 20160 39664 40122 53009 60006 8705/ 92100=
07434,1997-08-07 00:00:00,19,1012.9,0.4,88,17,12000,3.704,,,130,,,,2,,,,,,61,wg-a,,,,AAXX 07004 07434 02662 81302 10190 20170 39668 40129 50004 60026 76196 875// 90000 333 60027=
07434,1997-08-07 03:00:00,18,1012.1,-0.9,88,16,20000,11.112,,,360,,,,0,,,,,,21,wg-a,,,,AAXX 07034 07434 12770 83606 10180 20160 39659 40121 56009 60007 72162 875// 90300=
07434,1997-08-07 06:00:00,18,1012.6,0.4,94,17,6000,11.112,,,320,17.5,23.3,,,,,2,,,17,wg-a,,,,AAXX 07064 07434 02656 73206 10180 20170 39663 40126 53004 60006 71796 8593/ 90600 333 10233 20175 60024=
07434,1997-08-07 09:00:00,18,1012.5,0.1,94,17,15000,11.112,,,190,,,,5,,,,,,1,wg-a,,,,AAXX 07094 07434 12265 /1906 10180 20170 39664 40125 53001 60057 70196 8586/ 90900=
07434,1997-08-07 12:00:00,24,1011.3,-0.3,61,16,11000,11.112,,,140,,,,,,,,,,,wg-a,,,,AAXX 07124 07434 12/61 /1406 10240 20160 39661 40113 55003 60056 91200=
07434,1997-08-07 15:00:00,26,1010.5,-0.5,54,16,50000,3.704,,,220,,,,,,,,,,,wg-a,,,,AAXX 07154 07434 12684 22202 10260 20160 39656 40105 57005 60006 82201 91500=
07434,1997-08-07 18:00:00,26,1010.4,-0.1,54,16,50000,3.704,,,10,17.1,26.9,,,,,,,,,wg-a,,,,AAXX 07184 07434 12684 30102 10260 20160 39655 40104 55001 60006 82201 91800 333 10269 20171=
07434,1997-08-07 21:00:00,22,1012.6,1.5,73,17,20000,11.112,,,50,,,,,,,,,,,wg-a,,,,AAXX 07214 07434 12670 /0506 10220 20170 39670 40126 51015 60006 81202 92100=
07434,1997-08-08 00:00:00,21,1014.4,1.5,78,17,8000,7.408,,,140,,,,,,,,,,17,wg-a,,,,AAXX 08004 07434 02358 71404 10210 20170 39685 40144 53015 61000 71798 8698/ 90000 333 6100=
07434,1997-08-08 03:00:00,19,1014.7,-0,88,17,10000,7.408,,,70,,,,1,,,,,,1,wg-a,,,,AAXX 08034 07434 12/60 40704 10190 20170 39685 40147 55000 60017 70198 82082 90300=
07434,1997-08-08 09:00:00,24,1016.2,1.5,69,18,10000,7.408,,,180,,,,,,,,,,,wg-a,,,,AAXX 08094 07434 12/60 31804 10240 20180 39708 40162 53015 60006 80001 90900=
07434,1997-08-08 12:00:00,27,1015.3,-0.4,62,19,25000,7.408,,,330,,,,,,,,,,,wg-a,,,,AAXX 08124 07434 12675 /3304 10270 20190 39704 40153 58004 60006 81101 91200=
07434,1997-08-08 15:00:00,29,1014.1,-0.9,48,17,25000,7.408,,,20,,,,,,,,,,,wg-a,,,,AAXX 08154 07434 12675 /0204 10290 20170 39695 40141 58009 60006 81101 91500=
07434,1997-08-08 18:00:00,27,1014.6,0.2,62,19,500,11.112,,,30,18.6,29,,,,,,,,,wg-a,,,,AAXX 08184 07434 12/00 10306 10270 20190 39697 40146 53002 60006 80001 91800 333 10290 20186=
07434,1997-08-09 00:00:00,22,1016.9,0.4,69,16,500,11.112,,,80,,,,,,,,,,,wg-a,,,,AAXX 09004 07434 12/00 30806 10220 20160 39712 40169 53004 60006 80001 90000=
07434,1997-08-09 06:00:00,22,1016.6,0.4,69,16,40000,11.112,,,80,21,27,,,,,,,,,wg-a,,,,AAXX 09064 07434 02/82 50806 10220 20160 39708 40166 51004 60006 83032 90600 333 10270 20210 60004=
07434,1997-08-09 09:00:00,26,1016.6,0.6,61,18,500,18.52,,,80,,,,,,,,,,,wg-a,,,,AAXX 09094 07434 12/00 50810 10260 20180 39714 40166 51006 60006 81032 90900=
07434,1997-08-09 12:00:00,29,1015,-1,48,17,25000,18.52,,,50,,,,,,,,,,,wg-a,,,,AAXX 09124 07434 12675 /0510 10290 20170 39704 40150 58010 60006 81102 91200=
07434,1997-08-09 15:00:00,30,1014,-0.8,46,17,25000,14.816,,,60,,,,,,,,,,,wg-a,,,,AAXX 09154 07434 12675 30608 10300 20170 39696 40140 58008 60006 81101 91500=
07434,1997-08-09 18:00:00,28,1013.9,-0.4,55,18,500,14.816,,,50,21.6,30.4,,,,,,,,,wg-a,,,,AAXX 09184 07434 12700 20508 10280 20180 39692 40139 56004 60006 81401 91800 333 10304 20216=
07434,1997-08-09 21:00:00,25,1014.6,0.1,54,15,500,18.52,,,70,,,,,,,,,,,wg-a,,,,AAXX 09214 07434 12/00 30710 10250 20150 39693 40146 53001 60006 80001 92100=
07434,1997-08-10 00:00:00,23,1014.8,-0.1,61,15,500,14.816,,,70,,,,,,,,,,,wg-a,,,,AAXX 10004 07434 12/00 30708 10230 20150 39692 40148 55001 60006 80001 90000=
07434,1997-08-10 03:00:00,22,1013.2,-1.6,60,14,500,11.112,,,80,,,,,,,,,,,wg-a,,,,AAXX 10034 07434 12/00 30806 10220 20140 39676 40132 56016 60006 80001 90300=
07434,1997-08-10 06:00:00,22,1013.8,0.4,65,15,25000,7.408,,,80,21,28,,,,,,,,,wg-a,,,,AAXX 10064 07434 02/75 60804 10220 20150 39680 40138 53004 60006 80004 90600 333 10280 20210 60004=
07434,1997-08-10 09:00:00,27,1012.6,-0.2,58,18,20000,11.112,,,130,,,,,,,,,,,wg-a,,,,AAXX 10094 07434 12/70 41306 10270 20180 39678 40126 58002 60006 80002 90900=
07434,1997-08-10 12:00:00,30,1011.2,-0.9,46,17,25000,14.816,,,160,,,,,,,,,,,wg-a,,,,AAXX 10124 07434 12/75 21608 10300 20170 39669 40112 56009 60006 80002 91200=
07434,1997-08-10 15:00:00,30,1010.3,-0.8,49,18,18000,14.816,,,200,,,,,,,,,,,wg-a,,,,AAXX 10154 07434 12/68 72008 10300 20180 39661 40103 55008 60006 80002 91500=
07434,1997-08-10 18:00:00,27,1010.1,-0.6,66,20,15000,3.704,,,270,21.5,31.4,,,,,,,,,wg-a,,,,AAXX 10184 07434 12765 72702 10270 20200 39655 40101 56006 60006 81232 91800 333 10314 20215=
07434,1997-08-10 21:00:00,20,1013.1,1.7,78,16,8000,18.52,,,320,,,,0,,,,,,80,wg-a,,,,AAXX 10214 07434 12658 73210 10200 20160 39672 40131 51017 60007 78098 8499/ 92100=
07434,1997-08-11 00:00:00,18,1013.9,0.5,94,17,10000,14.816,,,210,,,,2,,,,,,21,wg-a,,,,AAXX 11004 07434 02460 72108 10180 20170 39677 40139 53005 60026 72198 85832 90000 333 60027=
07434,1997-08-11 03:00:00,18,1013.9,-0.1,94,17,8000,7.408,,,210,,,,,,,,,,61,wg-a,,,,AAXX 11034 07434 02358 82104 10180 20170 39676 40139 56001 61000 76162 878// 90300 333 ////=
07434,1997-08-11 06:00:00,18,1013.2,-0.7,94,17,7000,3.704,,,100,17.6,27.4,,,,,3,,,1,wg-a,,,,AAXX 11064 07434 02257 71002 10180 20170 39669 40132 55007 60006 70162 8487/ 90600 333 10274 20176 60034=
07434,1997-08-11 09:00:00,21,1013.1,0.5,83,18,10000,14.816,,,330,,,,,,,,,,,wg-a,,,,AAXX 11094 07434 12360 /3308 10210 20180 39674 40131 50005 60006 8487/ 90900=
07434,1997-08-11 12:00:00,23,1013.8,1,69,17,20000,14.816,,,360,,,,,,,,,,,wg-a,,,,AAXX 11124 07434 12570 73608 10230 20170 39684 40138 53010 60006 84872 91200=
07434,1997-08-11 15:00:00,24,1015.1,1.3,69,18,15000,11.112,,,20,,,,0,,,,,,25,wg-a,,,,AAXX 11154 07434 12565 70206 10240 20180 39697 40151 53013 60007 72586 8587/ 91500=
07434,1997-08-11 18:00:00,22,1017,1.5,83,19,500,7.408,,,180,17.7,23.9,,,,,,,,3,wg-a,,,,AAXX 11184 07434 12500 71804 10220 20190 39712 40170 53015 60006 70386 8693/ 91800 333 10239 20177=
07434,1997-08-11 21:00:00,20,1019.2,1.8,88,18,15000,7.408,,,240,,,,,,,,,,,wg-a,,,,AAXX 11214 07434 12565 /2404 10200 20180 39730 40192 51018 60006 83803 92100=
07434,1997-08-12 00:00:00,19,1020.3,0.9,94,18,500,3.704,,,200,,,,,,,,,,45,wg-a,,,,AAXX 12004 07434 12/05 92002 10190 20180 39739 40203 51009 60006 74541 89/// 90000=
07434,1997-08-12 03:00:00,18,1020.6,0.2,100,18,700,3.704,,,110,,,,,,,,,,44,wg-a,,,,AAXX 12034 07434 12107 81102 10180 20180 39741 40206 53002 60006 74444 886// 90300=
07434,1997-08-12 06:00:00,17,1021.8,1,100,17,1500,7.408,,,160,17.1,21.8,,,,,,,,28,wg-a,,,,AAXX 12064 07434 02115 /1604 10170 20170 39751 40218 53010 60006 72842 86600 90600 333 10218 20171 60004=
07434,1997-08-12 09:00:00,22,1021.5,0.4,78,18,40000,7.408,,,170,,,,,,,,,,,wg-a,,,,AAXX 12094 07434 12382 /1704 10220 20180 39755 40215 52004 60006 81600 90900=
07434,1997-08-12 12:00:00,26,1020,-0.8,58,17,50000,3.704,,,120,,,,,,,,,,,wg-a,,,,AAXX 12124 07434 12684 /1202 10260 20170 39747 40200 58008 60006 81100 91200=
07434,1997-08-12 15:00:00,27,1019.1,-0.7,54,17,50000,3.704,,,100,,,,,,,,,,,wg-a,,,,AAXX 12154 07434 12684 41002 10270 20170 39740 40191 58007 60006 84200 91500=
07434,1997-08-12 18:00:00,26,1019,-0.3,61,18,40000,7.408,,,210,17.2,27.7,,,,,,,,,wg-a,,,,AAXX 12184 07434 12682 22104 10260 20180 39737 40190 55003 60006 81201 91800 333 10277 20172=
07434,1997-08-12 21:00:00,22,1020.5,0.9,78,18,20000,7.408,,,260,,,,,,,,,,,wg-a,,,,AAXX 12214 07434 12/70 22604 10220 20180 39746 40205 53009 60006 80001 92100=
07434,1997-08-13 00:00:00,20,1021,0.2,88,18,15000,3.704,,,70,,,,,,,,,,,wg-a,,,,AAXX 13004 07434 12/65 30702 10200 20180 39748 40210 51002 60006 81032 90000=
07434,1997-08-13 03:00:00,19,1021.2,0,94,18,10000,3.704,,,100,,,,,,,,,,,wg-a,,,,AAXX 13034 07434 12/60 31002 10190 20180 39748 40212 50000 60006 80002 90300=
07434,1997-08-13 06:00:00,19,1022.6,1.3,94,18,1800,3.704,,,50,18.3,25.6,,,,,,,,12,wg-a,,,,AAXX 13064 07434 02118 20502 10190 20180 39761 40226 52013 60006 71240 81632 90600 333 10256 20183 60004=
07434,1997-08-13 09:00:00,24,1022.5,0.6,74,19,9000,7.408,,,150,,,,,,,,,,,wg-a,,,,AAXX 13094 07434 12559 21504 10240 20190 39767 40225 51006 60006 81102 90900=
07434,1997-08-13 12:00:00,26,1022.1,-0,61,18,500,7.408,,,330,,,,,,,,,,,wg-a,,,,AAXX 13124 07434 12600 /3304 10260 20180 39767 40221 55000 60006 85231 91200=
07434,1997-08-13 18:00:00,27,1022,-0,58,18,11000,11.112,,,340,18.9,28.1,,,,,,,,,wg-a,,,,AAXX 13184 07434 12/61 /3406 10270 20180 39767 40220 55000 60006 91800 333 10281 20189=
07434,1997-08-13 21:00:00,24,1023.3,0.8,74,19,40000,11.112,,,20,,,,,,,,,,,wg-a,,,,AAXX 13214 07434 12/82 10206 10240 20190 39775 40233 51008 60006 80001 92100=
07434,1997-08-14 00:00:00,22,1023.5,-0.1,73,17,40000,11.112,,,50,,,,,,,,,,,wg-a,,,,AAXX 14004 07434 12/82 10506 10220 20170 39774 40235 58001 60006 80001 90000=
07434,1997-08-14 03:00:00,21,1023.1,-0.6,73,16,10000,11.112,,,50,,,,,,,,,,,wg-a,,,,AAXX 14034 07434 12/60 /0506 10210 20160 39768 40231 57006 60006 90300=
07434,1997-08-14 06:00:00,20,1022.9,-0.2,78,16,500,11.112,,,80,19.7,26.7,,,,,,,,,wg-a,,,,AAXX 14064 07434 02/00 00806 10200 20160 39766 40229 58002 60006 80000 90600 333 10267 20197 60004=
07434,1997-08-14 09:00:00,26,1022.2,0.1,58,17,11000,7.408,,,90,,,,,,,,,,,wg-a,,,,AAXX 14094 07434 12/61 /0904 10260 20170 39767 40222 51001 60006 90900=
07434,1997-08-14 12:00:00,29,1020.3,-1.3,52,18,500,11.112,,,100,,,,,,,,,,,wg-a,,,,AAXX 14124 07434 12600 21006 10290 20180 39754 40203 58013 60006 82200 91200=
07434,1997-08-14 15:00:00,30,1018.7,-1.3,46,17,500,7.408,,,140,,,,,,,,,,,wg-a,,,,AAXX 14154 07434 12600 21404 10300 20170 39741 40187 56013 60006 82200 91500=
07434,1997-08-14 18:00:00,29,1018.2,-0.8,48,17,500,3.704,,,50,20.3,31.1,,,,,,,,,wg-a,,,,AAXX 14184 07434 12700 20502 10290 20170 39733 40182 55008 60006 82200 91800 333 10311 20203=
07434,1997-08-14 21:00:00,24,1019.8,0.9,69,18,500,11.112,,,40,,,,,,,,,,,wg-a,,,,AAXX 14214 07434 12700 20406 10240 20180 39742 40198 51009 60006 81201 92100=
07434,1997-08-15 00:00:00,22,1019.7,-0.4,73,17,500,14.816,,,80,,,,,,,,,,,wg-a,,,,AAXX 15004 07434 12/00 10808 10220 20170 39738 40197 58004 60006 80001 90000=
07434,1997-08-15 03:00:00,20,1019.2,-0.7,78,16,500,7.408,,,60,,,,,,,,,,,wg-a,,,,AAXX 15034 07434 12/00 30604 10200 20160 39731 40192 58007 60006 80001 90300=
07434,1997-08-15 06:00:00,21,1019.1,-0,78,17,500,3.704,,,60,20.3,28.6,,,,,,,,,wg-a,,,,AAXX 15064 07434 02/00 70602 10210 20170 39731 40191 55000 60006 81081 90600 333 10286 20203 60004=
07434,1997-08-15 12:00:00,26,1019.2,-0,61,18,15000,7.408,,,310,,,,,,,,,,,wg-a,,,,AAXX 15124 07434 12665 73104 10260 20180 39740 40192 55000 60006 8387/ 91200=
07434,1997-08-15 15:00:00,26,1018.5,-0.8,70,20,20000,11.112,,,350,,,,,,,,,,17,wg-a,,,,AAXX 15154 07434 12670 73506 10260 20200 39732 40185 56008 60006 71792 83982 91500=
07434,1997-08-15 18:00:00,25,1017.7,-0.8,74,20,20000,7.408,,,60,21.4,27.7,,,,,,,,1,wg-a,,,,AAXX 15184 07434 12670 70604 10250 20200 39724 40177 55008 60006 70192 84892 91800 333 10277 20214=
07434,1997-08-15 21:00:00,23,1017.5,-0.6,78,19,12000,7.408,,,110,,,,,,,,,,,wg-a,,,,AAXX 15214 07434 12/62 31104 10230 20190 39718 40175 58006 60006 80001 92100=
07434,1997-08-16 00:00:00,22,1017.7,0.1,78,18,12000,3.704,,,90,,,,,,,,,,,wg-a,,,,AAXX 16004 07434 12/62 50902 10220 20180 39719 40177 50001 60006 85400 90000=
07434,1997-08-16 03:00:00,20,1016.9,-1.1,78,16,12000,7.408,,,50,,,,,,,,,,,wg-a,,,,AAXX 16034 07434 12562 /0504 10200 20160 39708 40169 58011 60006 83901 90300=
07434,1997-08-16 06:00:00,19,1018.8,1.7,100,19,1200,11.112,,,150,18.5,25.2,,,,,,,,10,wg-a,,,,AAXX 16064 07434 02012 81506 10190 20190 39725 40188 52017 60006 71094 886// 90600 333 10252 20185 60004=
07434,1997-08-16 09:00:00,19,1018.4,-0.4,78,15,20000,7.408,,,170,,,,,,,,,,16,wg-a,,,,AAXX 16094 07434 12470 71704 10190 20150 39721 40184 58004 60006 71692 81233 90900=
07434,1997-08-16 12:00:00,24,1018.4,0.7,61,16,40000,7.408,,,150,,,,,,,,,,1,wg-a,,,,AAXX 16124 07434 12582 41504 10240 20160 39728 40184 50007 60006 70191 81981 91200=
07434,1997-08-16 15:00:00,25,1017.3,-0.9,65,18,35000,14.816,,,300,,,,,,,,,,29,wg-a,,,,AAXX 16154 07434 12581 73008 10250 20180 39719 40173 56009 60006 72991 84931 91500=
07434,1997-08-16 18:00:00,24,1017.2,-0.3,57,15,500,7.408,,,280,18.5,25.6,,,,,,,,3,wg-a,,,,AAXX 16184 07434 12500 42804 10240 20150 39716 40172 55003 60006 70391 82901 91800 333 10256 20185=
07434,1997-08-16 21:00:00,20,1018.9,1.1,78,16,20000,7.408,,,80,,,,,,,,,,,wg-a,,,,AAXX 16214 07434 12670 40804 10200 20160 39727 40189 52011 60006 82802 92100=
07434,1997-08-17 00:00:00,18,1019.3,-0,77,14,12000,0,,,0,,,,,,,,,,,wg-a,,,,AAXX 17004 07434 12662 30000 10180 20140 39727 40193 55000 60006 81802 90000=
07434,1997-08-17 03:00:00,17,1019.1,-0.4,88,15,10000,7.408,,,50,,,,,,,,,,,wg-a,,,,AAXX 17034 07434 12360 70504 10170 20150 39723 40191 58004 60006 876// 90300=
07434,1997-08-17 06:00:00,16,1019.8,0.6,88,14,15000,3.704,,,80,15.9,23.6,,,,,,,,,wg-a,,,,AAXX 17064 07434 02265 /0802 10160 20140 39729 40198 53006 60006 84531 90600 333 10236 20159 60004=
07434,1997-08-17 09:00:00,22,1019.2,0.4,65,15,18000,3.704,,,130,,,,,,,,,,,wg-a,,,,AAXX 17094 07434 12568 21302 10220 20150 39733 40192 51004 60006 81101 90900=
07434,1997-08-17 12:00:00,25,1018.1,-0.6,61,17,25000,7.408,,,260,,,,,,,,,,,wg-a,,,,AAXX 17124 07434 12575 52604 10250 20170 39727 40181 56006 60006 83201 91200=
07434,1997-08-17 15:00:00,24,1017.2,-1,61,16,25000,11.112,,,270,,,,,,,,,,,wg-a,,,,AAXX 17154 07434 12575 /2706 10240 20160 39717 40172 58010 60006 82202 91500=
07434,1997-08-17 18:00:00,23,1017.1,-0.2,69,17,25000,3.704,,,320,15.9,25.2,,,,,,,,,wg-a,,,,AAXX 17184 07434 12675 53202 10230 20170 39715 40171 58002 60006 81232 91800 333 10252 20159=
07434,1997-08-17 21:00:00,21,1018.5,1,73,16,18000,7.408,,,360,,,,,,,,,,,wg-a,,,,AAXX 17214 07434 12/68 13604 10210 20160 39725 40185 52010 60006 81031 92100=
07434,1997-08-18 00:00:00,19,1018.4,-0.4,83,16,18000,7.408,,,350,,,,,,,,,,,wg-a,,,,AAXX 18004 07434 12768 73504 10190 20160 39721 40184 58004 60006 8553/ 90000=
07434,1997-08-18 03:00:00,19,1017.7,-0.6,88,17,15000,7.408,,,350,,,,,,,,,,,wg-a,,,,AAXX 18034 07434 12665 83504 10190 20170 39715 40177 57006 60006 878// 90300=
07434,1997-08-18 06:00:00,20,1017.3,-0.4,83,17,500,0,,,0,18.2,23.3,,,,,,,,,wg-a,,,,AAXX 18064 07434 02600 70000 10200 20170 39711 40173 55004 60006 82801 90600 333 10233 20182 60004=
07434,1997-08-18 09:00:00,24,1017.2,0.6,65,17,12000,11.112,,,70,,,,,,,,,,,wg-a,,,,AAXX 18094 07434 12662 30706 10240 20170 39717 40172 52006 60006 81201 90900=
07434,1997-08-18 12:00:00,27,1016.1,-0.6,48,15,25000,11.112,,,160,,,,,,,,,,,wg-a,,,,AAXX 18124 07434 12675 41606 10270 20150 39711 40161 58006 60006 84201 91200=
07434,1997-08-18 15:00:00,22,1016.9,-0.1,69,16,4000,7.408,,,30,,,,,,,,,,17,wg-a,,,,AAXX 18154 07434 02640 70304 10220 20160 39710 40169 55001 61000 71798 879// 91500 333 ////=
07434,1997-08-18 18:00:00,23,1015.9,-0.6,69,17,25000,3.704,,,40,19.6,28.1,,0,,,,,,3,wg-a,,,,AAXX 18184 07434 02675 70402 10230 20170 39704 40159 58006 60006 70398 81202 91800 333 10281 20196 60007=
07434,1997-08-18 21:00:00,21,1017.5,1.1,83,18,15000,3.704,,,90,,,,,,,,,,,wg-a,,,,AAXX 18214 07434 12/65 50902 10210 20180 39715 40175 53011 60006 83082 92100=
07434,1997-08-19 00:00:00,19,1017.4,-0.4,88,17,10000,7.408,,,60,,,,,,,,,,,wg-a,,,,AAXX 19004 07434 12/60 /0604 10190 20170 39711 40174 58004 60006 90000=
07434,1997-08-19 03:00:00,18,1016.8,-0.7,88,16,10000,7.408,,,50,,,,,,,,,,,wg-a,,,,AAXX 19034 07434 12/60 40504 10180 20160 39704 40168 56007 60006 83031 90300=
07434,1997-08-19 06:00:00,17,1017.2,0.2,88,15,8000,7.408,,,60,16.8,23.4,,,,,,,,,wg-a,,,,AAXX 19064 07434 02/58 70604 10170 20150 39706 40172 53002 60006 84031 90600 333 10234 20168 60004=
07434,1997-08-19 09:00:00,24,1016.5,0.4,65,17,12000,3.704,,,100,,,,,,,,,,,wg-a,,,,AAXX 19094 07434 12562 /1002 10240 20170 39710 40165 52004 60006 81131 90900=
07434,1997-08-19 12:00:00,26,1015.7,-0.4,61,18,22000,7.408,,,280,,,,,,,,,,,wg-a,,,,AAXX 19124 07434 12572 72804 10260 20180 39706 40157 58004 60006 8123/ 91200=
07434,1997-08-19 15:00:00,25,1015.3,-0.5,69,19,25000,7.408,,,310,,,,,,,,,,,wg-a,,,,AAXX 19154 07434 12675 73104 10250 20190 39701 40153 58005 60006 83831 91500=
07434,1997-08-19 18:00:00,22,1015.8,-0.1,69,16,500,11.112,,,60,16.9,26.2,,,,,,,,,wg-a,,,,AAXX 19184 07434 12500 70606 10220 20160 39700 40158 55001 60006 84931 91800 333 10262 20169=
07434,1997-08-19 21:00:00,19,1017.1,0.8,73,14,20000,7.408,,,60,,,,,,,,,,,wg-a,,,,AAXX 19214 07434 12770 40604 10190 20140 39708 40171 52008 60006 81531 92100=
07434,1997-08-20 00:00:00,18,1016.6,-0.6,83,15,15000,11.112,,,60,,,,,,,,,,,wg-a,,,,AAXX 20004 07434 12/65 20606 10180 20150 39702 40166 57006 60006 82031 90000=
07434,1997-08-20 03:00:00,17,1016.5,-0.2,88,15,15000,7.408,,,60,,,,,,,,,,,wg-a,,,,AAXX 20034 07434 12/65 10604 10170 20150 39700 40165 56002 60006 80001 90300=
07434,1997-08-20 06:00:00,17,1017.4,0.7,82,14,20000,7.408,,,40,16.3,21.9,,,,,,,,,wg-a,,,,AAXX 20064 07434 02/70 40404 10170 20140 39707 40174 51007 60006 83031 90600 333 10219 20163 60004=
07434,1997-08-20 09:00:00,22,1017.1,0.6,65,15,20000,7.408,,,100,,,,,,,,,,,wg-a,,,,AAXX 20094 07434 12/70 31004 10220 20150 39713 40171 52006 60006 82039 90900=
07434,1997-08-20 12:00:00,28,1015.9,-0.4,42,14,500,11.112,,,100,,,,,,,,,,,wg-a,,,,AAXX 20124 07434 12700 21006 10280 20140 39709 40159 58004 60006 81230 91200=
07434,1997-08-20 15:00:00,29,1014.8,-0.8,37,13,10000,3.704,,,170,,,,,,,,,,,wg-a,,,,AAXX 20154 07434 12/60 /1702 10290 20130 39701 40148 58008 60006 91500=
07434,1997-08-20 18:00:00,27,1015.2,0.1,51,16,500,11.112,,,50,16.7,29.8,,,,,,,,,wg-a,,,,AAXX 20184 07434 12700 30506 10270 20160 39702 40152 53001 60006 81201 91800 333 10298 20167=
07434,1997-08-20 21:00:00,23,1016.8,1,65,16,20000,11.112,,,50,,,,,,,,,,,wg-a,,,,AAXX 20214 07434 12/70 30506 10230 20160 39712 40168 51010 60006 80002 92100=
07434,1997-08-21 00:00:00,22,1017.3,0.2,65,15,18000,11.112,,,50,,,,,,,,,,,wg-a,,,,AAXX 21004 07434 12/68 70506 10220 20150 39714 40173 50002 60006 80001 90000=
07434,1997-08-21 03:00:00,21,1017.4,-0.1,64,14,18000,11.112,,,60,,,,,,,,,,,wg-a,,,,AAXX 21034 07434 12/68 60606 10210 20140 39713 40174 58001 60006 80001 90300=
07434,1997-08-21 06:00:00,19,1018.9,1.2,78,15,10000,3.704,,,80,17.3,26.8,,,,,,,,,wg-a,,,,AAXX 21064 07434 02/60 40802 10190 20150 39725 40189 53012 60006 82081 90600 333 10268 20173 60004=
07434,1997-08-21 07:00:00,19,1018.9,1.2,78,15,10000,3.704,,,80,17.3,26.8,,,,,,,,,wg-a,,,,AAXX 21074 07434 02/60 40802 10190 20150 39725 40189 53012 60006 82081 90700 333 10268 20173 60004=
07434,1997-08-21 09:00:00,25,1018.4,0.4,61,17,10000,3.704,,,80,,,,,,,,,,,wg-a,,,,AAXX 21094 07434 12/60 20802 10250 20170 39729 40184 50004 60006 81031 90900=
07434,1997-08-21 12:00:00,29,1017.5,-0.2,48,17,10000,3.704,,,240,,,,,,,,,,,wg-a,,,,AAXX 21124 07434 12660 32402 10290 20170 39727 40175 58002 60006 82201 91200=
07434,1997-08-21 18:00:00,27,1017.9,0.6,58,18,25000,11.112,,,300,18.8,30.2,,,,,,,,,wg-a,,,,AAXX 21184 07434 12775 33006 10270 20180 39728 40179 53006 60006 81231 91800 333 10302 20188=
07434,1997-08-22 00:00:00,21,1020.2,0.2,83,18,3000,3.704,,,340,,,,,,,,,,,wg-a,,,,AAXX 22004 07434 12/30 43402 10210 20180 39741 40202 50002 60006 80001 90000=
07434,1997-08-22 06:00:00,18,1021.1,0.5,83,15,8000,7.408,,,50,17.7,26.4,,,,,,,,40,wg-a,,,,AAXX 22064 07434 02/58 20504 10180 20150 39745 40211 53005 60006 74000 81031 90600 333 10264 20177 60004=
07434,1997-08-22 09:00:00,25,1020.5,0.6,61,17,10000,3.704,,,130,,,,,,,,,,,wg-a,,,,AAXX 22094 07434 12/60 31302 10250 20170 39751 40205 51006 60006 80001 90900=
07434,1997-08-22 12:00:00,29,1019.4,-0.6,43,15,25000,7.408,,,20,,,,,,,,,,,wg-a,,,,AAXX 22124 07434 12775 40204 10290 20150 39745 40194 58006 60006 81101 91200=
07434,1997-08-22 15:00:00,30,1018.2,-1,43,16,500,0,,,0,,,,,,,,,,,wg-a,,,,AAXX 22154 07434 12700 30000 10300 20160 39735 40182 56010 60006 81201 91500=
07434,1997-08-22 18:00:00,29,1017.7,-0.7,45,16,500,3.704,,,20,18,30.5,,,,,,,,,wg-a,,,,AAXX 22184 07434 12700 10202 10290 20160 39728 40177 56007 60006 81101 91800 333 10305 20180=
07434,1997-08-22 21:00:00,25,1018.7,0.4,54,15,20000,7.408,,,50,,,,,,,,,,,wg-a,,,,AAXX 22214 07434 12/70 10504 10250 20150 39732 40187 51004 60006 80001 92100=
07434,1997-08-23 00:00:00,22,1018.1,-0.9,69,16,18000,7.408,,,50,,,,,,,,,,,wg-a,,,,AAXX 23004 07434 12/68 00504 10220 20160 39723 40181 58009 60006 80000 90000=
07434,1997-08-23 03:00:00,20,1017.8,-0.6,73,15,15000,7.408,,,60,,,,,,,,,,,wg-a,,,,AAXX 23034 07434 12/65 00604 10200 20150 39717 40178 58006 60006 80000 90300=
07434,1997-08-23 06:00:00,19,1017.9,-0.1,78,15,20000,3.704,,,80,19.2,28.5,,,,,,,,,wg-a,,,,AAXX 23064 07434 02/70 00802 10190 20150 39716 40179 56001 60006 80000 90600 333 10285 20192 60004=
07434,1997-08-23 09:00:00,26,1017.2,0.3,51,15,20000,7.408,,,150,,,,,,,,,,,wg-a,,,,AAXX 23094 07434 12/70 01504 10260 20150 39719 40172 53003 60006 80000 90900=
07434,1997-08-23 12:00:00,30,1015.6,-0.9,46,17,20000,7.408,,,120,,,,,,,,,,,wg-a,,,,AAXX 23124 07434 12/70 01204 10300 20170 39710 40156 58009 60006 80000 91200=
07434,1997-08-23 15:00:00,31,1014.3,-1.1,43,17,20000,7.408,,,200,,,,,,,,,,,wg-a,,,,AAXX 23154 07434 12770 22004 10310 20170 39699 40143 58011 60006 82100 91500=
07434,1997-08-23 18:00:00,28,1014.1,-0.6,51,17,20000,11.112,,,190,19.3,30.9,,,,,,,,,wg-a,,,,AAXX 23184 07434 12/70 01906 10280 20170 39693 40141 58006 60006 80000 91800 333 10309 20193=
07434,1997-08-23 21:00:00,24,1015,0.4,65,17,20000,3.704,,,180,,,,,,,,,,,wg-a,,,,AAXX 23214 07434 12/70 01802 10240 20170 39697 40150 51004 60006 80000 92100=
07434,1997-08-24 00:00:00,21,1015.2,-0.3,83,18,15000,3.704,,,60,,,,,,,,,,,wg-a,,,,AAXX 24004 07434 12/65 00602 10210 20180 39694 40152 56003 60006 80000 90000=
07434,1997-08-24 03:00:00,20,1015.3,-0.2,83,17,15000,3.704,,,60,,,,,,,,,,,wg-a,,,,AAXX 24034 07434 12/65 00602 10200 20170 39692 40153 56002 60006 80000 90300=
07434,1997-08-24 06:00:00,19,1015.9,0.5,88,17,15000,7.408,,,80,18.3,27.9,,,,,,,,,wg-a,,,,AAXX 24064 07434 02/65 00804 10190 20170 39697 40159 53005 60006 80000 90600 333 10279 20183 60004=
07434,1997-08-24 09:00:00,25,1015,-0,61,17,25000,11.112,,,160,,,,,,,,,,,wg-a,,,,AAXX 24094 07434 12/75 01606 10250 20170 39697 40150 54000 60006 80000 90900=
07434,1997-08-24 12:00:00,29,1013.4,-0.9,48,17,500,14.816,,,180,,,,,,,,,,,wg-a,,,,AAXX 24124 07434 12600 /1808 10290 20170 39688 40134 58009 60006 81200 91200=
07434,1997-08-24 15:00:00,30,1011.9,-1.3,43,16,500,7.408,,,220,,,,,,,,,,,wg-a,,,,AAXX 24154 07434 12600 /2204 10300 20160 39675 40119 58013 60006 81200 91500=
07434,1997-08-24 18:00:00,28,1010.6,-1.6,48,16,35000,7.408,,,160,18.7,30.3,,,,,,,,,wg-a,,,,AAXX 24184 07434 12681 /1604 10280 20160 39659 40106 56016 60006 81230 91800 333 10303 20187=
07434,1997-08-24 21:00:00,25,1011,-0.1,57,16,10000,3.704,,,60,,,,,,,,,,,wg-a,,,,AAXX 24214 07434 12/60 /0602 10250 20160 39658 40110 56001 60006 92100=
07434,1997-08-25 00:00:00,21,1010.9,-0.5,73,16,15000,11.112,,,130,,,,,,,,,,,wg-a,,,,AAXX 25004 07434 12/65 01306 10210 20160 39653 40109 56005 60006 80000 90000=
07434,1997-08-25 03:00:00,20,1010.2,-1,60,12,15000,11.112,,,150,,,,,,,,,,,wg-a,,,,AAXX 25034 07434 12/65 21506 10200 20120 39643 40102 58010 60006 80001 90300=
07434,1997-08-25 06:00:00,18,1010.3,-0.2,59,10,25000,14.816,,,170,18.2,27.6,,,,,,,,,wg-a,,,,AAXX 25064 07434 02/75 41708 10180 20100 39641 40103 55002 60006 82041 90600 333 10276 20182 60004=
07434,1997-08-25 09:00:00,23,1010.1,0.6,57,14,25000,25.928,,,190,,,,,,,,,,,wg-a,,,,AAXX 25094 07434 12/75 61914 10230 20140 39647 40101 53006 60006 83032 90900=
07434,1997-08-25 12:00:00,21,1010.9,0.6,78,17,25000,18.52,,,230,,,,,,,,,,25,wg-a,,,,AAXX 25124 07434 02475 72310 10210 20170 39653 40109 52006 61000 72586 8587/ 91200 333 6100=
07434,1997-08-25 15:00:00,21,1010.4,-0.5,78,17,15000,7.408,,,280,,,,,,,,,,,wg-a,,,,AAXX 25154 07434 12565 72804 10210 20170 39648 40104 58005 60006 8227/ 91500=
07434,1997-08-25 18:00:00,19,1011.3,0.6,94,18,6000,11.112,,,290,18.3,23.5,,,,,,,,61,wg-a,,,,AAXX 25184 07434 02456 72906 10190 20180 39654 40113 52006 61000 76162 8387/ 91800 333 10235 20183 6000=
07434,1997-08-26 00:00:00,18,1012,-0.4,94,17,8000,3.704,,,360,,,,1,,,,,,60,wg-a,,,,AAXX 26004 07434 02258 83602 10180 20170 39659 40120 58004 60016 76062 888// 90000 333 60017=
07434,1997-08-26 03:00:00,17,1011.9,-0.3,100,17,6000,3.704,,,300,,,,20,,,,,,61,wg-a,,,,AAXX 26034 07434 12156 83002 10170 20170 39656 40119 57003 60207 76166 887// 90300=
07434,1997-08-26 06:00:00,17,1012.3,0.3,94,16,900,3.704,,,300,16.4,19.1,,,,,22,,,44,wg-a,,,,AAXX 26064 07434 02209 /3002 10170 20160 39659 40123 53003 60006 74464 876// 90600 333 10191 20164 60224=
07434,1997-08-26 09:00:00,19,1012.4,0.4,83,16,8000,7.408,,,260,,,,0,,,,,,1,wg-a,,,,AAXX 26094 07434 12458 /2604 10190 20160 39663 40124 52004 60007 70142 85800 90900=
07434,1997-08-26 12:00:00,22,1011.1,-0.7,57,13,25000,7.408,,,250,,,,,,,,,,1,wg-a,,,,AAXX 26124 07434 12575 /2504 10220 20130 39656 40111 58007 60006 70142 85800 91200=
07434,1997-08-26 15:00:00,22,1010.3,-0.9,57,13,35000,11.112,,,230,,,,,,,,,,,wg-a,,,,AAXX 26154 07434 12681 /2306 10220 20130 39647 40103 58009 60006 85801 91500=
07434,1997-08-26 18:00:00,20,1009.8,-0.7,64,13,35000,7.408,,,230,16.7,22.6,,,,,,,,,wg-a,,,,AAXX 26184 07434 12781 52304 10200 20130 39640 40098 58007 60006 84532 91800 333 10226 20167=
07434,1997-08-26 21:00:00,19,1009.6,-0.5,68,13,20000,7.408,,,210,,,,,,,,,,,wg-a,,,,AAXX 26214 07434 12/70 52104 10190 20130 39635 40096 58005 60006 83032 92100=
07434,1997-08-27 00:00:00,17,1008.3,-1.5,77,13,20000,3.704,,,90,,,,,,,,,,,wg-a,,,,AAXX 27004 07434 12770 20902 10170 20130 39620 40083 57015 60006 81532 90000=
07434,1997-08-27 06:00:00,18,1005.8,-0.7,83,15,25000,7.408,,,150,16.1,20.4,,,,,,,,,wg-a,,,,AAXX 27064 07434 02375 71504 10180 20150 39598 40058 56007 60006 85632 90600 333 10204 20161 60004=
07434,1997-08-27 09:00:00,20,1005.7,0.3,83,17,15000,22.224,,,190,,,,1,,,,,,1,wg-a,,,,AAXX 27094 07434 12565 71912 10200 20170 39601 40057 51003 60017 70162 81232 90900=
07434,1997-08-27 12:00:00,20,1006.3,0.6,78,16,10000,22.224,,,230,,,,,,,,,,60,wg-a,,,,AAXX 27124 07434 02560 72312 10200 20160 39607 40063 51006 60016 76062 8527/ 91200 333 61000=
07434,1997-08-27 15:00:00,18,1005.7,-0.9,88,16,20000,18.52,,,180,,,,1,,,,,,3,wg-a,,,,AAXX 27154 07434 12370 71810 10180 20160 39598 40057 58009 60017 70362 8587/ 91500=
07434,1997-08-27 18:00:00,17,1005.8,-0.1,88,15,11000,22.224,,,210,16.6,20.6,,,,,,,,60,wg-a,,,,AAXX 27184 07434 02461 72112 10170 20150 39597 40058 55001 61000 76062 8627/ 91800 333 10206 20166 6000=
07434,1997-08-27 21:00:00,15,1005.3,-0.7,100,15,10000,7.408,,,180,,,,2,,,,,,60,wg-a,,,,AAXX 27214 07434 12460 71804 10150 20150 39590 40053 56007 60027 76066 877// 92100=
07434,1997-08-28 00:00:00,16,1003.2,-2,94,15,10000,18.52,,,190,,,,0,,,,,,25,wg-a,,,,AAXX 28004 07434 02460 71910 10160 20150 39570 40032 56020 60026 72562 877// 90000 333 60007=
07434,1997-08-28 06:00:00,13,1005.8,0.4,94,12,10000,18.52,,,210,12.1,16.5,,,,,,,,21,wg-a,,,,AAXX 28064 07434 02360 72110 10130 20120 39590 40058 50004 61000 72186 85230 90600 333 10165 20121 6013=
07434,1997-08-28 09:00:00,14,1007.6,2,88,12,10000,18.52,,,240,,,,0,,,,,,25,wg-a,,,,AAXX 28094 07434 12360 /2410 10140 20120 39610 40076 51020 60007 72586 85903 90900=
07434,1997-08-28 12:00:00,14,1009.2,1.4,82,11,15000,22.224,,,250,,,,2,,,,,,80,wg-a,,,,AAXX 28124 07434 02465 /2512 10140 20110 39624 40092 53014 60026 78086 86903 91200 333 60027=
07434,1997-08-28 18:00:00,14,1012.4,2,88,12,10000,18.52,,,230,12.7,16.2,,1,,,,,,15,wg-a,,,,AAXX 28184 07434 02560 62310 10140 20120 39654 40124 51020 60006 71586 84932 91800 333 10162 20127 60017=
07434,1997-08-28 21:00:00,12,1015.2,2.4,94,11,15000,14.816,,,230,,,,2,,,,,,,wg-a,,,,AAXX 28214 07434 12365 52308 10120 20110 39678 40152 51024 60027 85200 92100=
07434,1997-08-29 00:00:00,12,1016.9,1.7,94,11,15000,11.112,,,230,,,,,,,,,,25,wg-a,,,,AAXX 29004 07434 02365 72306 10120 20110 39695 40169 51017 60026 72586 877// 90000 333 61000=
07434,1997-08-29 03:00:00,12,1017.4,0.5,100,12,12000,18.52,,,240,,,,0,,,,,,25,wg-a,,,,AAXX 29034 07434 12262 72410 10120 20120 39700 40174 51005 60007 72522 877// 90300=
07434,1997-08-29 06:00:00,12,1018.9,1.3,94,11,15000,11.112,,,220,11.8,13.7,,,,,8,,,1,wg-a,,,,AAXX 29064 07434 02265 /2206 10120 20110 39713 40189 51013 60006 70186 85501 90600 333 10137 20118 60084=
07434,1997-08-29 09:00:00,14,1020,1.5,94,13,10000,14.816,,,280,,,,1,,,,,,,wg-a,,,,AAXX 29094 07434 12460 /2808 10140 20130 39728 40200 51015 60017 85200 90900=
07434,1997-08-29 12:00:00,18,1019.2,-0.2,64,11,10000,22.224,,,240,,,,,,,,,,,wg-a,,,,AAXX 29124 07434 12460 /2412 10180 20110 39726 40192 58002 60016 85202 91200=
07434,1997-08-29 15:00:00,17,1019.5,0.2,77,13,25000,22.224,,,220,,,,,,,,,,15,wg-a,,,,AAXX 29154 07434 12475 72212 10170 20130 39728 40195 51002 60006 71522 86232 91500=
07434,1997-08-29 18:00:00,16,1019.8,0.1,82,13,15000,14.816,,,240,11.8,18.6,,0,,,,,,1,wg-a,,,,AAXX 29184 07434 02365 /2408 10160 20130 39729 40198 52001 60006 70186 84232 91800 333 10186 20118 60007=
07434,1997-08-30 00:00:00,14,1020.4,-0.3,94,13,0,14.816,,,200,,,,,,,,,,,wg-a,,,,AAXX 30004 07434 12/// /2008 10140 20130 39732 40204 58003 60006 90000=
07434,1997-08-30 03:00:00,14,1019.8,-0.7,94,13,8000,14.816,,,190,,,,1,,,,,,51,wg-a,,,,AAXX 30034 07434 12158 81908 10140 20130 39725 40198 58007 60017 75165 887// 90300=
07434,1997-08-30 06:00:00,15,1019.9,0.2,82,12,20000,11.112,,,210,13.4,16.3,,,,,3,,,3,wg-a,,,,AAXX 30064 07434 02470 72106 10150 20120 39727 40199 53002 60006 70365 875// 90600 333 10163 20134 60034=
07434,1997-08-30 09:00:00,16,1020.2,0.6,88,14,20000,14.816,,,220,,,,,,,,,,,wg-a,,,,AAXX 30094 07434 12470 72208 10160 20140 39733 40202 53006 60006 875// 90900=
07434,1997-08-30 12:00:00,19,1019.7,0,83,16,20000,18.52,,,230,,,,,,,,,,,wg-a,,,,AAXX 30124 07434 12570 72310 10190 20160 39733 40197 50000 60006 875// 91200=
07434,1997-08-30 15:00:00,22,1018.6,-0.5,69,16,20000,11.112,,,230,,,,,,,,,,,wg-a,,,,AAXX 30154 07434 12570 /2306 10220 20160 39728 40186 58005 60006 86200 91500=
07434,1997-08-30 18:00:00,22,1017.7,-1,69,16,500,0,,,0,14.6,23.5,,,,,,,,,wg-a,,,,AAXX 30184 07434 12/00 30000 10220 20160 39718 40177 57010 60006 80001 91800 333 10235 20146=
07434,1997-08-30 21:00:00,18,1017.7,-0.5,88,16,20000,11.112,,,120,,,,,,,,,,,wg-a,,,,AAXX 30214 07434 12/70 21206 10180 20160 39713 40177 58005 60006 80002 92100=
07434,1997-08-31 00:00:00,16,1016.6,-1.4,94,15,0,7.408,,,80,,,,,,,,,,,wg-a,,,,AAXX 31004 07434 12/// /0804 10160 20150 39699 40166 58014 60006 90000=
07434,1997-08-31 03:00:00,17,1015.2,-1.3,82,14,20000,7.408,,,100,,,,,,,,,,,wg-a,,,,AAXX 31034 07434 12/70 01004 10170 20140 39686 40152 56013 60006 80000 90300=
07434,1997-08-31 06:00:00,18,1014.5,-0.5,77,14,25000,11.112,,,110,15.8,21.9,,,,,,,,,wg-a,,,,AAXX 31064 07434 02/75 21106 10180 20140 39681 40145 56005 60006 80001 90600 333 10219 20158 60004=
07434,1997-08-31 12:00:00,26,1013.7,0.2,54,16,40000,18.52,,,210,,,,,,,,,,,wg-a,,,,AAXX 31124 07434 12/82 32110 10260 20160 39686 40137 52002 60006 80001 91200=
07434,1997-08-31 15:00:00,26,1014,0.3,61,18,40000,18.52,,,270,,,,,,,,,,,wg-a,,,,AAXX 31154 07434 12682 32710 10260 20180 39689 40140 53003 60006 81101 91500=
07434,1997-08-31 18:00:00,22,1015.3,0.7,69,16,25000,11.112,,,280,17.6,26.8,,,,,,,,,wg-a,,,,AAXX 31184 07434 12/75 52806 10220 20160 39696 40153 51007 60006 80001 91800 333 10268 20176=
07434,1997-08-31 21:00:00,18,1017.7,1.6,83,15,25000,11.112,,,320,,,,,,,,,,,wg-a,,,,AAXX 31214 07434 12/75 53206 10180 20150 39712 40177 52016 60006 80001 92100=
07434,1997-09-01 00:00:00,16,1018.1,0,88,14,25000,3.704,,,360,,,,,,,,,,,wg-a,,,,AAXX 01004 07434 12/75 53602 10160 20140 39712 40181 50000 60006 80001 90000=
07434,1997-09-01 03:00:00,15,1017.9,-0.2,94,14,25000,7.408,,,360,,,,,,,,,,,wg-a,,,,AAXX 01034 07434 12475 /3604 10150 20140 39710 40179 55002 60006 86601 90300=
07434,1997-09-01 06:00:00,15,1017.1,-0.8,94,14,25000,18.52,,,30,15,22.4,,,,,,,,,wg-a,,,,AAXX 01064 07434 02275 80310 10150 20140 39702 40171 57008 60006 8678/ 90600 333 10224 20150 60004=
07434,1997-09-01 09:00:00,16,1017.1,0.1,88,14,8000,22.224,,,100,,,,1,,,,,,17,wg-a,,,,AAXX 01094 07434 12158 81012 10160 20140 39703 40171 52001 60017 71796 8597/ 90900=
07434,1997-09-01 12:00:00,16,1017.1,0.1,94,15,10000,11.112,,,60,,,,6,,,,,,29,wg-a,,,,AAXX 01124 07434 02260 80606 10160 20150 39704 40171 50001 60076 72996 8397/ 91200 333 60067=
07434,1997-09-01 15:00:00,17,1016.8,-0.2,94,16,10000,7.408,,,60,,,,1,,,,,,21,wg-a,,,,AAXX 01154 07434 12160 80604 10170 20160 39702 40168 58002 60017 72162 8487/ 91500=
07434,1997-09-01 18:00:00,16,1017.4,0.4,94,15,7000,14.816,,,300,15.1,17.6,,,,,,,,61,wg-a,,,,AAXX 01184 07434 02157 83008 10160 20150 39706 40174 53004 61000 76162 8557/ 91800 333 10176 20151 6005=
07434,1997-09-01 21:00:00,14,1018.8,1,94,13,8000,18.52,,,360,,,,0,,,,,,20,wg-a,,,,AAXX 01214 07434 12158 83610 10140 20130 39716 40188 53010 60007 72065 887// 92100=
07434,1997-09-02 00:00:00,13,1019.2,0.3,100,13,3000,11.112,,,340,,,,,,,,,,10,wg-a,,,,AAXX 02004 07434 02130 83406 10130 20130 39719 40192 51003 60006 71065 887// 90000 333 61000=
07434,1997-09-02 03:00:00,14,1019.3,0.1,94,13,500,14.816,,,350,,,,1,,,,,,50,wg-a,,,,AAXX 02034 07434 12100 83508 10140 20130 39720 40193 50001 60017 75052 887// 90300=
07434,1997-09-02 06:00:00,13,1020.5,1,94,12,2000,14.816,,,350,12.7,15.7,,,,,,,,10,wg-a,,,,AAXX 02064 07434 02120 83508 10130 20120 39730 40205 53010 61000 71065 887// 90600 333 10157 20127 6018=
07434,1997-09-02 09:00:00,13,1021.9,1.5,100,13,2500,11.112,,,350,,,,0,,,,,,50,wg-a,,,,AAXX 02094 07434 12225 83506 10130 20130 39745 40219 53015 60007 75065 887// 90900=
07434,1997-09-02 12:00:00,14,1022.6,0.8,100,14,2000,14.816,,,340,,,,1,,,,,,10,wg-a,,,,AAXX 02124 07434 02220 83408 10140 20140 39753 40226 51008 60016 71065 887// 91200 333 60017=
07434,1997-09-02 18:00:00,16,1022.2,0.1,88,14,10000,3.704,,,30,12.7,15.9,,,,,,,,1,wg-a,,,,AAXX 02184 07434 12660 70302 10160 20140 39751 40222 50001 60006 70152 875// 91800 333 10159 20127=
07434,1997-09-02 21:00:00,15,1023.2,0.9,94,14,8000,0,,,0,,,,,,,,,,,wg-a,,,,AAXX 02214 07434 12658 70000 10150 20140 39760 40232 51009 60006 8457/ 92100=
07434,1997-09-03 00:00:00,14,1022.8,-0.5,88,12,500,3.704,,,40,,,,,,,,,,,wg-a,,,,AAXX 03004 07434 12/00 /0402 10140 20120 39755 40228 58005 60006 85030 90000=
07434,1997-09-03 03:00:00,13,1022.1,-1,94,12,500,11.112,,,330,,,,,,,,,,,wg-a,,,,AAXX 03034 07434 12/00 03306 10130 20120 39745 40221 57010 60006 80000 90300=
07434,1997-09-03 06:00:00,12,1022.1,,94,11,400,3.704,,,80,12,15.6,,,,,1,,,44,wg-a,,,,AAXX 03064 07434 02/04 40802 10120 20110 39745 40221 60006 74441 80001 90600 333 10156 20120 60014=
07434,1997-09-03 09:00:00,16,1021.8,0.2,82,13,3000,7.408,,,110,,,,,,,,,,10,wg-a,,,,AAXX 03094 07434 12230 21104 10160 20130 39747 40218 50002 60006 71040 82101 90900=
07434,1997-09-03 12:00:00,20,1020,-1,60,12,25000,7.408,,,110,,,,,,,,,,1,wg-a,,,,AAXX 03124 07434 12475 21104 10200 20120 39737 40200 57010 60006 70140 82101 91200=
07434,1997-09-03 18:00:00,21,1019.3,-0,56,12,50000,7.408,,,290,11.4,22.5,,,,,,,,,wg-a,,,,AAXX 03184 07434 12/84 32904 10210 20120 39731 40193 55000 60006 80001 91800 333 10225 20114=
07434,1997-09-03 21:00:00,18,1020.2,0.5,73,13,25000,3.704,,,20,,,,,,,,,,,wg-a,,,,AAXX 03214 07434 12/75 00202 10180 20130 39736 40202 50005 60006 80000 92100=
07434,1997-09-04 00:00:00,16,1020.1,-0.4,88,14,10000,7.408,,,40,,,,,,,,,,,wg-a,,,,AAXX 04004 07434 12/60 00404 10160 20140 39732 40201 56004 60006 80000 90000=
07434,1997-09-04 03:00:00,15,1020,-0.3,88,13,10000,3.704,,,50,,,,,,,,,,,wg-a,,,,AAXX 04034 07434 12/60 00502 10150 20130 39729 40200 58003 60006 80000 90300=
07434,1997-09-04 06:00:00,13,1020.7,0.4,94,12,8000,7.408,,,50,13.3,20.6,,,,,,,,40,wg-a,,,,AAXX 04064 07434 02/58 50504 10130 20120 39733 40207 53004 60006 74011 84081 90600 333 10206 20133 60004=
07434,1997-09-04 09:00:00,20,1020.5,0.9,73,15,10000,3.704,,,130,,,,,,,,,,,wg-a,,,,AAXX 04094 07434 12760 31302 10200 20150 39742 40205 53009 60006 81181 90900=
07434,1997-09-04 15:00:00,25,1018.4,-0.8,44,12,40000,7.408,,,240,,,,,,,,,,,wg-a,,,,AAXX 04154 07434 12782 42404 10250 20120 39729 40184 56008 60006 81181 91500=
07434,1997-09-04 18:00:00,22,1018.7,-0.1,65,15,40000,7.408,,,320,13.3,25.3,,,,,,,,,wg-a,,,,AAXX 04184 07434 12/82 53204 10220 20150 39728 40187 55001 60006 82081 91800 333 10253 20133=
07434,1997-09-04 21:00:00,20,1019.8,0.7,64,13,25000,7.408,,,20,,,,,,,,,,,wg-a,,,,AAXX 04214 07434 12/75 30204 10200 20130 39735 40198 51007 60006 80001 92100=
07434,1997-09-05 00:00:00,17,1019.9,-0.3,88,15,20000,3.704,,,40,,,,,,,,,,,wg-a,,,,AAXX 05004 07434 12/70 10402 10170 20150 39732 40199 56003 60006 80001 90000=
07434,1997-09-05 03:00:00,16,1019.3,-0.8,82,13,18000,7.408,,,50,,,,,,,,,,,wg-a,,,,AAXX 05034 07434 12/68 10504 10160 20130 39724 40193 58008 60006 80001 90300=
07434,1997-09-05 06:00:00,15,1019.3,-0.2,88,13,10000,7.408,,,70,14.6,22,,,,,,,,,wg-a,,,,AAXX 05064 07434 02/60 30704 10150 20130 39722 40193 56002 60006 81031 90600 333 10220 20146 60004=
07434,1997-09-05 12:00:00,25,1017.9,-0.6,50,14,500,7.408,,,220,,,,,,,,,,,wg-a,,,,AAXX 05124 07434 12600 22204 10250 20140 39724 40179 56006 60006 82200 91200=
07434,1997-09-05 15:00:00,25,1017.3,-0.5,54,15,50000,7.408,,,270,,,,,,,,,,,wg-a,,,,AAXX 05154 07434 12684 42704 10250 20150 39719 40173 58005 60006 82280 91500=
07434,1997-09-05 18:00:00,22,1018.2,0.5,73,17,35000,11.112,,,350,14.7,25.9,,,,,,,,,wg-a,,,,AAXX 05184 07434 12681 63506 10220 20170 39724 40182 53005 60006 83289 91800 333 10259 20147=
07434,1997-09-05 21:00:00,20,1020,1.3,78,16,25000,11.112,,,20,,,,,,,,,,,wg-a,,,,AAXX 05214 07434 12675 40206 10200 20160 39737 40200 51013 60006 81582 92100=
07434,1997-09-06 00:00:00,18,1020.9,0.5,88,16,20000,14.816,,,20,,,,,,,,,,,wg-a,,,,AAXX 06004 07434 12570 60208 10180 20160 39742 40209 50005 60006 84582 90000=
07434,1997-09-06 03:00:00,15,1021,-0.3,88,13,15000,14.816,,,30,,,,,,,,,,,wg-a,,,,AAXX 06034 07434 12665 70308 10150 20130 39739 40210 56003 60006 8557/ 90300=
07434,1997-09-06 06:00:00,14,1021.8,0.6,88,12,13000,14.816,,,10,14.1,22,,,,,,,,25,wg-a,,,,AAXX 06064 07434 02563 70108 10140 20120 39745 40218 53006 61000 72586 8687/ 90600 333 10220 20141 6000=
07434,1997-09-06 09:00:00,14,1023.5,1.5,94,13,10000,14.816,,,20,,,,1,,,,,,25,wg-a,,,,AAXX 06094 07434 12260 80208 10140 20130 39760 40235 51015 60017 72586 878// 90900=
07434,1997-09-06 12:00:00,15,1024.2,0.9,88,13,15000,14.816,,,30,,,,,,,,,,1,wg-a,,,,AAXX 06124 07434 12365 70308 10150 20130 39769 40242 52009 60016 70186 878// 91200=
07434,1997-09-06 15:00:00,17,1023.8,0,82,14,20000,14.816,,,40,,,,,,,,,,,wg-a,,,,AAXX 06154 07434 12470 /0408 10170 20140 39769 40238 50000 60006 86800 91500=
07434,1997-09-06 18:00:00,16,1024.1,0.1,77,12,20000,14.816,,,40,13.2,18.1,,,,,,,,,wg-a,,,,AAXX 06184 07434 12/70 20408 10160 20120 39770 40241 53001 60006 81031 91800 333 10181 20132=
07434,1997-09-06 21:00:00,14,1025.6,1.1,82,11,15000,14.816,,,40,,,,,,,,,,,wg-a,,,,AAXX 06214 07434 12/65 10408 10140 20110 39781 40256 51011 60006 80001 92100=
07434,1997-09-07 00:00:00,14,1025.2,-0.4,82,11,15000,14.816,,,40,,,,,,,,,,,wg-a,,,,AAXX 07004 07434 12/65 10408 10140 20110 39777 40252 56004 60006 80001 90000=
07434,1997-09-07 03:00:00,13,1025,-0.3,82,10,15000,14.816,,,10,,,,,,,,,,,wg-a,,,,AAXX 07034 07434 12/65 20108 10130 20100 39774 40250 55003 60006 80001 90300=
07434,1997-09-07 06:00:00,13,1025.9,0.8,88,11,20000,14.816,,,30,12.4,15.9,,,,,1,,,,wg-a,,,,AAXX 07064 07434 02/70 10308 10130 20110 39782 40259 53008 60006 80001 90600 333 10159 20124 60014=
07434,1997-09-07 09:00:00,18,1026.2,1,59,10,500,22.224,,,50,,,,,,,,,,,wg-a,,,,AAXX 07094 07434 12500 /0512 10180 20100 39792 40262 52010 60006 81101 90900=
07434,1997-09-07 12:00:00,20,1025.7,-0.2,49,9,40000,14.816,,,20,,,,,,,,,,,wg-a,,,,AAXX 07124 07434 12682 /0208 10200 20090 39790 40257 58002 60006 81101 91200=
07434,1997-09-07 18:00:00,18,1025.6,0.2,59,10,10000,11.112,,,30,13,20.9,,,,,,,,,wg-a,,,,AAXX 07184 07434 12/60 /0306 10180 20100 39787 40256 53002 60006 91800 333 10209 20130=
07434,1997-09-07 21:00:00,16,1026.7,0.7,68,10,50000,14.816,,,30,,,,,,,,,,,wg-a,,,,AAXX 07214 07434 12/84 00308 10160 20100 39794 40267 50007 60006 80000 92100=
07434,1997-09-08 00:00:00,15,1026.7,-0.2,67,9,500,14.816,,,40,,,,,,,,,,,wg-a,,,,AAXX 08004 07434 12/00 00408 10150 20090 39792 40267 58002 60006 80000 90000=
07434,1997-09-08 06:00:00,14,1026.7,0.5,72,9,500,11.112,,,50,13,18,,,,,,,,,wg-a,,,,AAXX 08064 07434 02/00 00506 10140 20090 39790 40267 53005 60006 80000 90600 333 10180 20130 60004=
07434,1997-09-08 09:00:00,18,1025.8,-0.1,64,11,500,29.632,,,60,,,,,,,,,,,wg-a,,,,AAXX 08094 07434 12/00 00616 10180 20110 39789 40258 58001 60006 80000 90900=
07434,1997-09-08 12:00:00,21,1024.8,-0.5,49,10,50000,18.52,,,80,,,,,,,,,,,wg-a,,,,AAXX 08124 07434 12/84 10810 10210 20100 39784 40248 58005 60006 80001 91200=
07434,1997-09-08 15:00:00,22,1023.7,-0.9,53,12,50000,14.816,,,30,,,,,,,,,,,wg-a,,,,AAXX 08154 07434 12784 10308 10220 20120 39775 40237 56009 60006 81101 91500=
07434,1997-09-08 18:00:00,19,1024,-0.1,68,13,50000,11.112,,,40,13.5,22.5,,,,,,,,,wg-a,,,,AAXX 08184 07434 12/84 00406 10190 20130 39774 40240 56001 60006 80000 91800 333 10225 20135=
07434,1997-09-08 21:00:00,17,1024.5,0,72,12,15000,14.816,,,60,,,,,,,,,,,wg-a,,,,AAXX 08214 07434 12/65 00608 10170 20120 39774 40245 50000 60006 80000 92100=
07434,1997-09-09 03:00:00,15,1023.4,-0.6,82,12,15000,7.408,,,40,,,,,,,,,,,wg-a,,,,AAXX 09034 07434 12/65 00404 10150 20120 39761 40234 56006 60006 80000 90300=
07434,1997-09-09 06:00:00,14,1022.8,-0.6,88,12,20000,11.112,,,60,14.1,19.1,,,,,,,,,wg-a,,,,AAXX 09064 07434 02/70 20606 10140 20120 39755 40228 56006 60006 80001 90600 333 10191 20141 60004=
07434,1997-09-09 09:00:00,20,1022.4,0.5,68,14,25000,14.816,,,90,,,,,,,,,,,wg-a,,,,AAXX 09094 07434 12/75 00908 10200 20140 39760 40224 51005 60006 80000 90900=
07434,1997-09-09 12:00:00,23,1021.2,-0.7,57,14,40000,11.112,,,30,,,,,,,,,,,wg-a,,,,AAXX 09124 07434 12/82 10306 10230 20140 39753 40212 58007 60006 80001 91200=
07434,1997-09-09 18:00:00,20,1020.1,-0.3,73,15,40000,11.112,,,30,14.3,23.6,,,,,,,,,wg-a,,,,AAXX 09184 07434 12/82 10306 10200 20150 39738 40201 57003 60006 80001 91800 333 10236 20143=
07434,1997-09-10 00:00:00,14,1021.1,-0.7,88,12,40000,18.52,,,70,,,,,,,,,,,wg-a,,,,AAXX 10004 07434 12/82 00710 10140 20120 39738 40211 58007 60006 80000 90000=
07434,1997-09-10 03:00:00,12,1020.3,-1.1,88,10,40000,22.224,,,80,,,,,,,,,,,wg-a,,,,AAXX 10034 07434 12/82 00812 10120 20100 39727 40203 58011 60006 80000 90300=
07434,1997-09-10 06:00:00,12,1019.7,-0.6,88,10,500,22.224,,,80,11.8,19.9,,,,,,,,,wg-a,,,,AAXX 10064 07434 02/00 /0812 10120 20100 39721 40197 55006 60006 80001 90600 333 10199 20118 60004=
07434,1997-09-10 09:00:00,17,1019,0.1,59,9,15000,25.928,,,80,,,,,,,,,,,wg-a,,,,AAXX 10094 07434 12/65 00814 10170 20090 39722 40190 53001 60006 80000 90900=
07434,1997-09-10 12:00:00,22,1017.8,-0.4,43,9,500,25.928,,,60,,,,,,,,,,,wg-a,,,,AAXX 10124 07434 12/00 00614 10220 20090 39718 40178 58004 60006 80000 91200=
07434,1997-09-10 18:00:00,19,1016.6,-0.4,56,10,500,18.52,,,50,12,23.2,,,,,,,,,wg-a,,,,AAXX 10184 07434 12/00 00510 10190 20100 39702 40166 56004 60006 80000 91800 333 10232 20120=
07434,1997-09-11 00:00:00,14,1016.1,-0.7,77,10,18000,11.112,,,70,,,,,,,,,,,wg-a,,,,AAXX 11004 07434 12/68 10706 10140 20100 39690 40161 58007 60006 80001 90000=
07434,1997-09-11 03:00:00,13,1015.4,-0.9,77,9,18000,7.408,,,80,,,,,,,,,,,wg-a,,,,AAXX 11034 07434 12/68 10804 10130 20090 39681 40154 58009 60006 80001 90300=
07434,1997-09-11 06:00:00,12,1015.9,0.3,82,9,20000,3.704,,,90,11.7,18.9,,,,,,,,,wg-a,,,,AAXX 11064 07434 02/70 10902 10120 20090 39684 40159 53003 60006 80001 90600 333 10189 20117 60004=
07434,1997-09-11 09:00:00,18,1015.1,0.4,68,12,20000,7.408,,,150,,,,,,,,,,,wg-a,,,,AAXX 11094 07434 12/70 11504 10180 20120 39688 40151 51004 60006 80001 90900=
07434,1997-09-11 12:00:00,24,1013.4,-0.8,54,14,500,14.816,,,170,,,,,,,,,,,wg-a,,,,AAXX 11124 07434 12/00 11708 10240 20140 39680 40134 58008 60006 80001 91200=
07434,1997-09-11 15:00:00,25,1011.7,-1.5,47,13,500,18.52,,,170,,,,,,,,,,,wg-a,,,,AAXX 11154 07434 12/00 11710 10250 20130 39665 40117 58015 60006 80001 91500=
07434,1997-09-11 18:00:00,23,1011.3,-0.7,61,15,500,7.408,,,180,11.7,25.1,,,,,,,,,wg-a,,,,AAXX 11184 07434 12/00 11804 10230 20150 39658 40113 56007 60006 80001 91800 333 10251 20117=
07434,1997-09-12 00:00:00,17,1013.4,0.4,88,15,20000,7.408,,,280,,,,,,,,,,,wg-a,,,,AAXX 12004 07434 12/70 12804 10170 20150 39669 40134 53004 60006 80001 90000=
07434,1997-09-12 03:00:00,15,1013.1,-0.5,94,14,3000,0,,,0,,,,,,,,,,10,wg-a,,,,AAXX 12034 07434 12730 30000 10150 20140 39664 40131 58005 60006 71000 83500 90300=
07434,1997-09-12 06:00:00,15,1012.5,-0.6,94,14,7000,7.408,,,140,14.7,22.5,,,,,,,,,wg-a,,,,AAXX 12064 07434 02457 71404 10150 20140 39658 40125 56006 60006 875// 90600 333 10225 20147 60004=
07434,1997-09-12 09:00:00,17,1012.7,0.4,88,15,8000,11.112,,,220,,,,,,,,,,,wg-a,,,,AAXX 12094 07434 12458 72206 10170 20150 39662 40127 53004 60006 875// 90900=
07434,1997-09-12 12:00:00,15,1012.7,-0.1,100,15,1200,11.112,,,290,,,,,,,,,,10,wg-a,,,,AAXX 12124 07434 02112 82906 10150 20150 39661 40127 55001 61000 71052 887// 91200 333 6100=
07434,1997-09-12 15:00:00,15,1013.2,0.4,100,15,1500,11.112,,,290,,,,,,,,,,10,wg-a,,,,AAXX 12154 07434 02215 82906 10150 20150 39665 40132 51004 61000 71055 877// 91500 333 ////=
07434,1997-09-12 18:00:00,15,1012.5,-0.7,100,15,2500,3.704,,,300,15.1,17.6,,,,,,,,10,wg-a,,,,AAXX 12184 07434 02225 83002 10150 20150 39658 40125 58007 61000 71065 8677/ 91800 333 10176 20151 6100=
07434,1997-09-12 21:00:00,15,1015.1,2.4,94,14,3000,7.408,,,270,,,,,,,,,,10,wg-a,,,,AAXX 12214 07434 12230 82704 10150 20140 39682 40151 51024 60006 71022 887// 92100=
07434,1997-09-13 00:00:00,14,1015.3,0.1,100,14,0,3.704,,,250,,,,,,,,,,,wg-a,,,,AAXX 13004 07434 12/// /2502 10140 20140 39683 40153 50001 60006 90000=
07434,1997-09-13 03:00:00,14,1015.3,-0,94,13,4000,11.112,,,280,,,,2,,,,,,10,wg-a,,,,AAXX 13034 07434 12140 82806 10140 20130 39683 40153 54000 60027 71022 877// 90300=
07434,1997-09-13 06:00:00,10,1017.7,1.5,93,9,4000,18.52,,,350,9.8,15,,,,,,,,10,wg-a,,,,AAXX 13064 07434 02140 83510 10100 20090 39698 40177 53015 61000 71065 887// 90600 333 10150 20098 6003=
07434,1997-09-13 09:00:00,13,1019.7,2.4,77,9,40000,11.112,,,340,,,,0,,,,,,1,wg-a,,,,AAXX 13094 07434 12482 /3406 10130 20090 39722 40197 52024 60007 70152 84831 90900=
07434,1997-09-13 12:00:00,15,1020.5,1,55,6,60000,14.816,,,360,,,,,,,,,,1,wg-a,,,,AAXX 13124 07434 12586 /3608 10150 20060 39732 40205 51010 60006 70152 82202 91200=
07434,1997-09-13 15:00:00,16,1020.6,0.3,48,5,60000,14.816,,,340,,,,,,,,,,,wg-a,,,,AAXX 13154 07434 12686 /3408 10160 20050 39735 40206 51003 60006 82102 91500=
07434,1997-09-13 18:00:00,14,1021.8,0.8,55,5,60000,7.408,,,350,9.8,16.4,,,,,,,,,wg-a,,,,AAXX 13184 07434 12686 33504 10140 20050 39743 40218 53008 60006 81101 91800 333 10164 20098=
07434,1997-09-14 00:00:00,12,1024,0,58,4,500,11.112,,,20,,,,,,,,,,,wg-a,,,,AAXX 14004 07434 12700 10206 10120 20040 39761 40240 50000 60006 81501 90000=
07434,1997-09-14 03:00:00,10,1024.3,-0.1,66,4,500,3.704,,,40,,,,,,,,,,,wg-a,,,,AAXX 14034 07434 12/00 00402 10100 20040 39760 40243 55001 60006 80000 90300=
07434,1997-09-14 06:00:00,8,1025.1,0.6,81,5,500,7.408,,,50,7.1,13.8,,,,,,,,,wg-a,,,,AAXX 14064 07434 02/00 20504 10080 20050 39766 40251 52006 60006 80001 90600 333 10138 20071 60004=
07434,1997-09-14 12:00:00,16,1025,0,48,5,500,14.816,,,70,,,,,,,,,,,wg-a,,,,AAXX 14124 07434 12600 30708 10160 20050 39777 40250 50000 60006 81101 91200=
07434,1997-09-14 15:00:00,16,1023.7,-1.2,51,6,40000,22.224,,,50,,,,,,,,,,,wg-a,,,,AAXX 14154 07434 12/82 40512 10160 20060 39765 40237 56012 60006 80001 91500=
07434,1997-09-14 18:00:00,13,1024.4,0.1,58,5,40000,18.52,,,60,8.4,16.4,,,,,,,,,wg-a,,,,AAXX 14184 07434 12/82 30610 10130 20050 39766 40244 53001 60006 80001 91800 333 10164 20084=
07434,1997-09-14 21:00:00,10,1025.1,0.3,66,4,40000,14.816,,,60,,,,,,,,,,,wg-a,,,,AAXX 14214 07434 12/82 10608 10100 20040 39769 40251 50003 60006 80001 92100=
07434,1997-09-15 00:00:00,10,1024.3,-0.8,71,5,500,25.928,,,70,,,,,,,,,,,wg-a,,,,AAXX 15004 07434 12/00 10714 10100 20050 39761 40243 57008 60006 80001 90000=
07434,1997-09-15 03:00:00,8,1023.3,-1.3,76,4,500,18.52,,,80,,,,,,,,,,,wg-a,,,,AAXX 15034 07434 12/00 10810 10080 20040 39748 40233 58013 60006 80001 90300=
07434,1997-09-15 06:00:00,9,1022.5,-0.6,71,4,60000,22.224,,,60,8,12.7,,,,,,,,,wg-a,,,,AAXX 15064 07434 02/86 00612 10090 20040 39742 40225 55006 60006 80000 90600 333 10127 20080 60004=
07434,1997-09-15 09:00:00,14,1022.6,1,58,6,60000,14.816,,,80,,,,,,,,,,,wg-a,,,,AAXX 15094 07434 12/86 00808 10140 20060 39752 40226 53010 60006 80000 90900=
07434,1997-09-15 12:00:00,20,1021.6,-0.1,40,6,60000,7.408,,,150,,,,,,,,,,,wg-a,,,,AAXX 15124 07434 12/86 11504 10200 20060 39751 40216 58001 60006 80001 91200=
07434,1997-09-15 18:00:00,19,1021.2,0.2,37,4,60000,3.704,,,50,8.7,22.4,,,,,,,,,wg-a,,,,AAXX 15184 07434 12/86 40502 10190 20040 39745 40212 50002 60006 80001 91800 333 10224 20087=
07434,1997-09-15 21:00:00,14,1022.8,0.9,72,9,40000,7.408,,,70,,,,,,,,,,,wg-a,,,,AAXX 15214 07434 12/82 20704 10140 20090 39754 40228 51009 60006 80001 92100=
07434,1997-09-16 03:00:00,12,1022.7,-0.5,82,9,40000,7.408,,,60,,,,,,,,,,,wg-a,,,,AAXX 16034 07434 12/82 40604 10120 20090 39749 40227 58005 60006 83031 90300=
07434,1997-09-16 06:00:00,12,1022.8,0.1,88,10,500,7.408,,,70,11.1,18.6,,,,,,,,,wg-a,,,,AAXX 16064 07434 02/00 60704 10120 20100 39750 40228 53001 60006 81032 90600 333 10186 20111 60004=
07434,1997-09-16 09:00:00,17,1022.2,0.4,72,12,10000,11.112,,,140,,,,,,,,,,,wg-a,,,,AAXX 16094 07434 12/60 /1406 10170 20120 39754 40222 50004 60006 90900=
07434,1997-09-16 15:00:00,23,1018.8,-1.4,53,13,50000,14.816,,,160,,,,,,,,,,,wg-a,,,,AAXX 16154 07434 12/84 21608 10230 20130 39731 40188 56014 60006 80002 91500=
07434,1997-09-16 18:00:00,20,1019.4,0.1,64,13,50000,3.704,,,150,11.7,23.5,,,,,,,,,wg-a,,,,AAXX 16184 07434 12/84 51502 10200 20130 39732 40194 53001 60006 80001 91800 333 10235 20117=
07434,1997-09-16 21:00:00,18,1020.6,0.8,77,14,500,7.408,,,140,,,,,,,,,,,wg-a,,,,AAXX 16214 07434 12/00 51404 10180 20140 39740 40206 53008 60006 80001 92100=
07434,1997-09-17 00:00:00,16,1021.5,0.4,77,12,500,7.408,,,130,,,,,,,,,,,wg-a,,,,AAXX 17004 07434 12/00 21304 10160 20120 39744 40215 51004 60006 80001 90000=
07434,1997-09-17 06:00:00,13,1022.6,0.6,82,10,18000,11.112,,,100,12.9,20.3,,,,,,,,,wg-a,,,,AAXX 17064 07434 02/68 41006 10130 20100 39750 40226 53006 60006 80002 90600 333 10203 20129 60004=
07434,1997-09-17 12:00:00,23,1021.9,-0.2,47,11,500,11.112,,,190,,,,,,,,,,,wg-a,,,,AAXX 17124 07434 12/00 71906 10230 20110 39759 40219 58002 60006 80002 91200=
07434,1997-09-17 15:00:00,24,1021.1,-0.6,44,11,35000,7.408,,,140,,,,,,,,,,,wg-a,,,,AAXX 17154 07434 12/81 71404 10240 20110 39753 40211 56006 60006 80002 91500=
07434,1997-09-17 18:00:00,21,1021.7,0.1,53,11,35000,0,,,0,13,24.2,,,,,,,,,wg-a,,,,AAXX 17184 07434 12/81 60000 10210 20110 39754 40217 53001 60006 80002 91800 333 10242 20130=
07434,1997-09-18 00:00:00,16,1023.2,-0,82,13,0,11.112,,,40,,,,,,,,,,,wg-a,,,,AAXX 18004 07434 12/// /0406 10160 20130 39761 40232 54000 60006 90000=
07434,1997-09-18 06:00:00,13,1024.1,0.6,82,10,20000,7.408,,,60,12.5,20.8,,,,,,,,,wg-a,,,,AAXX 18064 07434 02/70 10604 10130 20100 39765 40241 52006 60006 80001 90600 333 10208 20125 60004=
07434,1997-09-18 09:00:00,19,1023.6,0.5,60,11,20000,11.112,,,90,,,,,,,,,,,wg-a,,,,AAXX 18094 07434 12/70 00906 10190 20110 39770 40236 51005 60006 80000 90900=
07434,1997-09-18 12:00:00,25,1022.2,-0.6,30,6,500,7.408,,,160,,,,,,,,,,,wg-a,,,,AAXX 18124 07434 12/00 01604 10250 20060 39764 40222 58006 60006 80000 91200=
07434,1997-09-18 15:00:00,26,1020.5,-1.4,30,7,40000,3.704,,,150,,,,,,,,,,,wg-a,,,,AAXX 18154 07434 12/82 01502 10260 20070 39750 40205 56014 60006 80000 91500=
07434,1997-09-18 18:00:00,22,1021,-0.1,46,10,40000,7.408,,,280,13.1,26.5,,,,,,,,,wg-a,,,,AAXX 18184 07434 12/82 12804 10220 20100 39749 40210 55001 60006 80001 91800 333 10265 20131=
07434,1997-09-19 00:00:00,17,1022.2,-0.2,59,9,25000,11.112,,,60,,,,,,,,,,,wg-a,,,,AAXX 19004 07434 12/75 00606 10170 20090 39752 40222 58002 60006 80000 90000=
07434,1997-09-19 03:00:00,16,1021.8,-0.5,63,9,25000,7.408,,,50,,,,,,,,,,,wg-a,,,,AAXX 19034 07434 12/75 00504 10160 20090 39747 40218 57005 60006 80000 90300=
07434,1997-09-19 06:00:00,14,1022.6,0.4,72,9,50000,7.408,,,50,12.8,21.8,,,,,,,,,wg-a,,,,AAXX 19064 07434 12/84 00504 10140 20090 39751 40226 53004 60006 80000 90600 333 10218 20128=
07434,1997-09-19 09:00:00,19,1022.2,0.6,56,10,40000,7.408,,,90,,,,,,,,,,,wg-a,,,,AAXX 19094 07434 12/82 00904 10190 20100 39757 40222 52006 60006 80000 90900=
07434,1997-09-19 12:00:00,25,1020.6,-0.7,34,8,40000,7.408,,,80,,,,,,,,,,,wg-a,,,,AAXX 19124 07434 12/82 00804 10250 20080 39750 40206 58007 60006 80000 91200=
07434,1997-09-19 15:00:00,26,1019.1,-1.3,28,6,40000,11.112,,,70,,,,,,,,,,,wg-a,,,,AAXX 19154 07434 12/82 00706 10260 20060 39737 40191 57013 60006 80000 91500=
07434,1997-09-19 18:00:00,22,1019.7,-0,50,11,40000,11.112,,,40,13.5,27,,,,,,,,,wg-a,,,,AAXX 19184 07434 12/82 00406 10220 20110 39737 40197 55000 60006 80000 91800 333 10270 20135=
07434,1997-09-20 00:00:00,18,1020.4,-0.6,68,12,500,14.816,,,70,,,,,,,,,,,wg-a,,,,AAXX 20004 07434 12/00 00708 10180 20120 39737 40204 58006 60006 80000 90000=
07434,1997-09-20 03:00:00,16,1020,-0.6,77,12,500,14.816,,,70,,,,,,,,,,,wg-a,,,,AAXX 20034 07434 12/00 00708 10160 20120 39731 40200 57006 60006 80000 90300=
07434,1997-09-20 06:00:00,16,1020.5,0.4,77,12,10000,7.408,,,80,15.6,22.1,,,,,,,,,wg-a,,,,AAXX 20064 07434 02/60 /0804 10160 20120 39735 40205 53004 60006 90600 333 10221 20156 60004=
07434,1997-09-20 09:00:00,21,1020.5,0.8,64,14,15000,11.112,,,130,,,,,,,,,,,wg-a,,,,AAXX 20094 07434 12/65 11306 10210 20140 39743 40205 51008 60006 81030 90900=
07434,1997-09-20 12:00:00,25,1019.7,-0.2,44,12,500,0,,,0,,,,,,,,,,,wg-a,,,,AAXX 20124 07434 12/00 10000 10250 20120 39741 40197 58002 60006 81030 91200=
07434,1997-09-20 18:00:00,21,1019.5,0.3,69,15,20000,11.112,,,40,15.5,26.5,,,,,,,,,wg-a,,,,AAXX 20184 07434 12670 30406 10210 20150 39734 40195 53003 60006 82230 91800 333 10265 20155=
07434,1997-09-20 21:00:00,18,1020.7,0.7,77,14,12000,11.112,,,80,,,,,,,,,,,wg-a,,,,AAXX 20214 07434 12/62 00806 10180 20140 39741 40207 51007 60006 80000 92100=
07434,1997-09-21 00:00:00,17,1020.9,-0.1,77,13,12000,7.408,,,60,,,,,,,,,,,wg-a,,,,AAXX 21004 07434 12/62 00604 10170 20130 39740 40209 57001 60006 80000 90000=
07434,1997-09-21 03:00:00,15,1020.7,-0.4,88,13,8000,3.704,,,70,,,,,,,,,,,wg-a,,,,AAXX 21034 07434 12/58 50702 10150 20130 39736 40207 58004 60006 82031 90300=
07434,1997-09-21 06:00:00,14,1021,0.1,94,13,4000,3.704,,,60,13.7,21,,,,,,,,10,wg-a,,,,AAXX 21064 07434 02/40 50602 10140 20130 39737 40210 53001 60006 71011 82031 90600 333 10210 20137 60004=
07434,1997-09-21 09:00:00,18,1021,0.6,83,15,500,7.408,,,130,,,,,,,,,,,wg-a,,,,AAXX 21094 07434 12/00 21304 10180 20150 39743 40210 53006 60006 81031 90900=
07434,1997-09-21 12:00:00,22,1019.9,-0.3,65,15,10000,7.408,,,210,,,,,,,,,,,wg-a,,,,AAXX 21124 07434 12560 32104 10220 20150 39740 40199 58003 60006 81181 91200=
07434,1997-09-21 15:00:00,23,1018.9,-0.8,61,15,20000,11.112,,,270,,,,,,,,,,,wg-a,,,,AAXX 21154 07434 12670 32706 10230 20150 39732 40189 56008 60006 83380 91500=
07434,1997-09-21 18:00:00,20,1020.1,0.6,73,15,20000,3.704,,,280,13.6,23.9,,,,,,,,17,wg-a,,,,AAXX 21184 07434 12670 52802 10200 20150 39738 40201 53006 60006 71791 83903 91800 333 10239 20136=
07434,1997-09-21 21:00:00,18,1021.2,0.7,77,14,15000,3.704,,,60,,,,,,,,,,,wg-a,,,,AAXX 21214 07434 12665 50602 10180 20140 39745 40212 50007 60006 85303 92100=
07434,1997-09-22 00:00:00,15,1021.5,-0.1,94,14,10000,3.704,,,40,,,,,,,,,,,wg-a,,,,AAXX 22004 07434 12660 40402 10150 20140 39744 40215 58001 60006 83803 90000=
07434,1997-09-22 03:00:00,14,1021.4,-0.3,88,12,10000,7.408,,,60,,,,,,,,,,,wg-a,,,,AAXX 22034 07434 12660 50604 10140 20120 39741 40214 58003 60006 83832 90300=
07434,1997-09-22 09:00:00,18,1021.4,0.7,77,14,10000,3.704,,,120,,,,,,,,,,,wg-a,,,,AAXX 22094 07434 12/60 21202 10180 20140 39747 40214 51007 60006 82031 90900=
07434,1997-09-22 12:00:00,23,1019.9,-0.6,61,15,18000,7.408,,,40,,,,,,,,,,,wg-a,,,,AAXX 22124 07434 12568 60404 10230 20150 39741 40199 58006 60006 85930 91200=
07434,1997-09-22 15:00:00,18,1020.5,-0.2,83,15,20000,7.408,,,60,,,,2,,,,,,29,wg-a,,,,AAXX 22154 07434 12670 70604 10180 20150 39739 40205 55002 60027 72996 81931 91500=
07434,1997-09-22 18:00:00,17,1020.2,-0.5,72,12,25000,14.816,,,40,13.5,23,,,,,,,,3,wg-a,,,,AAXX 22184 07434 02675 70408 10170 20120 39734 40202 55005 60006 70396 81561 91800 333 10230 20135 61000=
07434,1997-09-22 21:00:00,16,1020.8,0.4,77,12,20000,7.408,,,100,,,,,,,,,,,wg-a,,,,AAXX 22214 07434 12/70 61004 10160 20120 39738 40208 50004 60006 86030 92100=
07434,1997-09-23 00:00:00,15,1020.5,-0.5,82,12,20000,11.112,,,60,,,,,,,,,,,wg-a,,,,AAXX 23004 07434 12/70 30606 10150 20120 39733 40205 57005 60006 83030 90000=
07434,1997-09-23 06:00:00,15,1019.8,-0.1,77,11,15000,7.408,,,70,14.4,16.7,,,,,2,,,,wg-a,,,,AAXX 23064 07434 02/65 20704 10150 20110 39726 40198 55001 60006 81031 90600 333 10167 20144 60024=
07434,1997-09-23 09:00:00,19,1019.6,0.6,64,12,15000,7.408,,,90,,,,,,,,,,,wg-a,,,,AAXX 23094 07434 12/65 20904 10190 20120 39732 40196 52006 60006 80001 90900=
07434,1997-09-23 12:00:00,23,1018.3,-0.7,47,11,25000,11.112,,,70,,,,,,,,,,,wg-a,,,,AAXX 23124 07434 12675 20706 10230 20110 39725 40183 57007 60006 81101 91200=
07434,1997-09-23 15:00:00,25,1017,-0.9,41,11,500,3.704,,,60,,,,,,,,,,,wg-a,,,,AAXX 23154 07434 12600 40602 10250 20110 39716 40170 57009 60006 84901 91500=
07434,1997-09-23 18:00:00,20,1018.1,0.4,68,14,500,11.112,,,40,14.5,25.4,,,,,,,,,wg-a,,,,AAXX 23184 07434 12600 20406 10200 20140 39720 40181 53004 60006 82800 91800 333 10254 20145=
07434,1997-09-23 21:00:00,18,1019.1,0.6,73,13,20000,18.52,,,70,,,,,,,,,,,wg-a,,,,AAXX 23214 07434 12/70 10710 10180 20130 39726 40191 51006 60006 80001 92100=
07434,1997-09-24 00:00:00,17,1019.1,-0.3,77,13,18000,14.816,,,80,,,,,,,,,,,wg-a,,,,AAXX 24004 07434 12/68 00808 10170 20130 39723 40191 58003 60006 80000 90000=
07434,1997-09-24 06:00:00,15,1019.4,0.2,82,12,12000,7.408,,,60,14.9,20.3,,,,,,,,,wg-a,,,,AAXX 24064 07434 02/62 00604 10150 20120 39723 40194 53002 60006 80000 90600 333 10203 20149 60004=
07434,1997-09-24 09:00:00,20,1019.2,0.5,60,12,12000,14.816,,,90,,,,,,,,,,,wg-a,,,,AAXX 24094 07434 12/62 00908 10200 20120 39728 40192 51005 60006 80000 90900=
07434,1997-09-24 12:00:00,24,1018.2,-0.3,38,9,25000,11.112,,,80,,,,,,,,,,,wg-a,,,,AAXX 24124 07434 12575 /0806 10240 20090 39725 40182 58003 60006 81100 91200=
07434,1997-09-24 15:00:00,25,1016.9,-1.1,39,10,11000,11.112,,,40,,,,,,,,,,,wg-a,,,,AAXX 24154 07434 12/61 /0406 10250 20100 39714 40169 57011 60006 91500=
07434,1997-09-24 18:00:00,20,1017.9,0.3,60,12,40000,11.112,,,50,14.8,24.9,,,,,,,,,wg-a,,,,AAXX 24184 07434 12/82 10506 10200 20120 39717 40179 53003 60006 80001 91800 333 10249 20148=
07434,1997-09-24 21:00:00,18,1019.1,0.7,56,9,25000,18.52,,,70,,,,,,,,,,,wg-a,,,,AAXX 24214 07434 12/75 10710 10180 20090 39724 40191 52007 60006 80001 92100=
07434,1997-09-25 00:00:00,16,1019.1,-0.3,63,9,25000,11.112,,,60,,,,,,,,,,,wg-a,,,,AAXX 25004 07434 12/75 00606 10160 20090 39721 40191 58003 60006 80000 90000=
07434,1997-09-25 03:00:00,15,1019.3,0.1,67,9,15000,7.408,,,80,,,,,,,,,,,wg-a,,,,AAXX 25034 07434 12/65 00804 10150 20090 39722 40193 53001 60006 80000 90300=
07434,1997-09-25 06:00:00,14,1020.4,0.8,72,9,25000,11.112,,,60,13.5,20.3,,,,,,,,,wg-a,,,,AAXX 25064 07434 02/75 10606 10140 20090 39730 40204 53008 60006 80001 90600 333 10203 20135 60004=
07434,1997-09-25 09:00:00,20,1020.6,1.2,53,10,20000,7.408,,,130,,,,,,,,,,,wg-a,,,,AAXX 25094 07434 12/70 11304 10200 20100 39742 40206 52012 60006 80001 90900=
07434,1997-09-25 12:00:00,24,1020.1,0.2,44,11,500,7.408,,,140,,,,,,,,,,,wg-a,,,,AAXX 25124 07434 12/00 11404 10240 20110 39744 40201 50002 60006 80001 91200=
07434,1997-09-25 15:00:00,26,1019.2,-0.7,30,7,40000,7.408,,,210,,,,,,,,,,,wg-a,,,,AAXX 25154 07434 12/82 12104 10260 20070 39737 40192 56007 60006 80001 91500=
07434,1997-09-26 00:00:00,17,1021.5,-0.4,68,11,15000,7.408,,,50,,,,,,,,,,,wg-a,,,,AAXX 26004 07434 12/65 00504 10170 20110 39746 40215 58004 60006 80000 90000=
07434,1997-09-26 06:00:00,14,1021.8,-0,82,11,0,7.408,,,70,13.6,21.7,,,,,,,,,wg-a,,,,AAXX 26064 07434 02/// 00704 10140 20110 39744 40218 55000 60006 80000 90600 333 10217 20136 60004=
07434,1997-09-26 09:00:00,19,1021.4,0.5,60,11,15000,7.408,,,90,,,,,,,,,,,wg-a,,,,AAXX 26094 07434 12/65 00904 10190 20110 39749 40214 51005 60006 80000 90900=
07434,1997-09-26 12:00:00,25,1019.4,-1.1,34,8,15000,7.408,,,90,,,,,,,,,,,wg-a,,,,AAXX 26124 07434 12/65 00904 10250 20080 39738 40194 58011 60006 80000 91200=
07434,1997-09-26 18:00:00,22,1017.8,-0.5,46,10,500,11.112,,,50,13.6,26.6,,,,,,,,,wg-a,,,,AAXX 26184 07434 12/00 10506 10220 20100 39718 40178 56005 60006 80001 91800 333 10266 20136=
07434,1997-09-26 21:00:00,20,1017.8,-0.3,49,9,500,7.408,,,70,,,,,,,,,,,wg-a,,,,AAXX 26214 07434 12/00 00704 10200 20090 39715 40178 58003 60006 80000 92100=
07434,1997-09-27 00:00:00,17,1017.5,-0.7,68,11,20000,7.408,,,60,,,,,,,,,,,wg-a,,,,AAXX 27004 07434 12/70 00604 10170 20110 39708 40175 57007 60006 80000 90000=
07434,1997-09-27 03:00:00,14,1017.2,-0.7,82,11,20000,7.408,,,70,,,,,,,,,,,wg-a,,,,AAXX 27034 07434 12/70 00704 10140 20110 39701 40172 58007 60006 80000 90300=
07434,1997-09-27 06:00:00,13,1016.9,-0.4,82,10,500,7.408,,,60,13.4,21.8,,,,,,,,,wg-a,,,,AAXX 27064 07434 02/00 20604 10130 20100 39697 40169 55004 60006 80001 90600 333 10218 20134 60004=
07434,1997-09-27 09:00:00,19,1016.1,0.1,60,11,500,7.408,,,130,,,,,,,,,,,wg-a,,,,AAXX 27094 07434 12/00 21304 10190 20110 39698 40161 50001 60006 80001 90900=
07434,1997-09-27 12:00:00,24,1014.4,-0.8,47,12,500,7.408,,,220,,,,,,,,,,,wg-a,,,,AAXX 27124 07434 12/00 22204 10240 20120 39690 40144 57008 60006 80001 91200=
07434,1997-09-27 15:00:00,25,1012.9,-1.4,34,8,500,3.704,,,50,,,,,,,,,,,wg-a,,,,AAXX 27154 07434 12/00 20502 10250 20080 39676 40129 56014 60006 80001 91500=
07434,1997-09-27 18:00:00,21,1013.8,0.2,46,9,500,0,,,0,13.4,25.7,,,,,,,,,wg-a,,,,AAXX 27184 07434 12/00 40000 10210 20090 39678 40138 53002 60006 80001 91800 333 10257 20134=
07434,1997-09-27 21:00:00,20,1013.8,-0.1,49,9,500,3.704,,,70,,,,,,,,,,,wg-a,,,,AAXX 27214 07434 12/00 30702 10200 20090 39677 40138 58001 60006 80001 92100=
07434,1997-09-28 00:00:00,16,1014.1,-0.3,72,11,20000,3.704,,,50,,,,,,,,,,,wg-a,,,,AAXX 28004 07434 12/70 20502 10160 20110 39674 40141 57003 60006 80001 90000=
07434,1997-09-28 03:00:00,15,1014.1,-0.2,72,10,20000,3.704,,,70,,,,,,,,,,,wg-a,,,,AAXX 28034 07434 12/70 20702 10150 20100 39672 40141 55002 60006 80001 90300=
07434,1997-09-28 06:00:00,13,1014.8,0.4,82,10,18000,7.408,,,80,13,21.1,,,,,,,,,wg-a,,,,AAXX 28064 07434 02/68 30804 10130 20100 39676 40148 52004 60006 81031 90600 333 10211 20130 60004=
07434,1997-09-28 12:00:00,24,1013.8,-0.3,41,10,20000,7.408,,,80,,,,,,,,,,,wg-a,,,,AAXX 28124 07434 12670 /0804 10240 20100 39683 40138 58003 60006 81101 91200=
07434,1997-09-28 15:00:00,26,1013.1,-0.4,39,11,25000,3.704,,,300,,,,,,,,,,,wg-a,,,,AAXX 28154 07434 12675 /3002 10260 20110 39679 40131 56004 60006 81101 91500=
07434,1997-09-28 18:00:00,21,1014.7,0.9,53,11,25000,3.704,,,30,13,25.7,,,,,,,,,wg-a,,,,AAXX 28184 07434 12775 10302 10210 20110 39688 40147 53009 60006 81501 91800 333 10257 20130=
07434,1997-09-28 21:00:00,19,1016.2,1.1,56,10,15000,3.704,,,50,,,,,,,,,,,wg-a,,,,AAXX 28214 07434 12/65 00502 10190 20100 39699 40162 51011 60006 80000 92100=
07434,1997-09-29 00:00:00,17,1017.2,0.6,68,11,15000,7.408,,,50,,,,,,,,,,,wg-a,,,,AAXX 29004 07434 12/65 00504 10170 20110 39705 40172 53006 60006 80000 90000=
07434,1997-09-29 03:00:00,15,1017.9,0.3,72,10,15000,3.704,,,60,,,,,,,,,,,wg-a,,,,AAXX 29034 07434 12/65 00602 10150 20100 39708 40179 51003 60006 80000 90300=
07434,1997-09-29 06:00:00,14,1019.4,1.3,77,10,15000,3.704,,,70,13.4,21.3,,,,,,,,,wg-a,,,,AAXX 29064 07434 02/65 50702 10140 20100 39721 40194 53013 60006 80001 90600 333 10213 20134 60004=
07434,1997-09-29 09:00:00,20,1020.3,1.8,56,11,15000,7.408,,,90,,,,,,,,,,,wg-a,,,,AAXX 29094 07434 12/65 40904 10200 20110 39739 40203 51018 60006 80001 90900=
07434,1997-09-29 12:00:00,25,1019.6,0.1,44,12,15000,11.112,,,60,,,,,,,,,,,wg-a,,,,AAXX 29124 07434 12/65 60606 10250 20120 39740 40196 53001 60006 80002 91200=
07434,1997-09-29 15:00:00,25,1019.4,-0.1,39,10,20000,14.816,,,40,,,,,,,,,,,wg-a,,,,AAXX 29154 07434 12/70 60408 10250 20100 39739 40194 56001 60006 80002 91500=
07434,1997-09-29 18:00:00,21,1021.1,0.9,53,11,20000,11.112,,,20,13.5,25.5,,,,,,,,,wg-a,,,,AAXX 29184 07434 12/70 60206 10210 20110 39748 40211 53009 60006 80002 91800 333 10255 20135=
07434,1997-09-29 21:00:00,18,1022.3,0.8,56,9,20000,7.408,,,40,,,,,,,,,,,wg-a,,,,AAXX 29214 07434 12/70 30404 10180 20090 39756 40223 51008 60006 80002 92100=
07434,1997-09-30 00:00:00,17,1022.7,0.1,55,8,18000,11.112,,,60,,,,,,,,,,,wg-a,,,,AAXX 30004 07434 12/68 20606 10170 20080 39757 40227 53001 60006 80001 90000=
07434,1997-09-30 03:00:00,15,1023.5,0.4,63,8,18000,11.112,,,60,,,,,,,,,,,wg-a,,,,AAXX 30034 07434 12/68 10606 10150 20080 39761 40235 51004 60006 80001 90300=
07434,1997-09-30 06:00:00,13,1023.7,-0,77,9,18000,7.408,,,60,13.1,20.6,,,,,,,,,wg-a,,,,AAXX 30064 07434 02/68 10604 10130 20090 39761 40237 55000 60006 80001 90600 333 10206 20131 60004=
07434,1997-09-30 09:00:00,19,1023.4,0.6,60,11,13000,11.112,,,100,,,,,,,,,,,wg-a,,,,AAXX 30094 07434 12/63 11006 10190 20110 39767 40234 52006 60006 80001 90900=
07434,1997-09-30 12:00:00,25,1022.4,0,36,9,25000,3.704,,,50,,,,,,,,,,,wg-a,,,,AAXX 30124 07434 12/75 10502 10250 20090 39767 40224 50000 60006 80001 91200=
07434,1997-09-30 15:00:00,26,1021.5,-0.7,39,11,25000,11.112,,,10,,,,,,,,,,,wg-a,,,,AAXX 30154 07434 12/75 10106 10260 20110 39760 40215 56007 60006 80001 91500=
07434,1997-09-30 18:00:00,21,1021.8,-0.4,53,11,500,14.816,,,30,12.4,26.4,,,,,,,,,wg-a,,,,AAXX 30184 07434 12/00 10308 10210 20110 39756 40218 58004 60006 80001 91800 333 10264 20124=
07434,1997-10-01 00:00:00,17,1022,-0.8,63,10,500,14.816,,,70,,,,,,,,,,,wg-a,,,,AAXX 01004 07434 12/00 10708 10170 20100 39750 40220 57008 60006 80001 90000=
07434,1997-10-01 03:00:00,17,1021.3,-0.6,63,10,20000,14.816,,,50,,,,,,,,,,,wg-a,,,,AAXX 01034 07434 12/70 00508 10170 20100 39744 40213 58006 60006 80000 90300=
07434,1997-10-01 06:00:00,13,1021.9,-0.1,82,10,25000,3.704,,,110,12.7,21.3,,,,,,,,,wg-a,,,,AAXX 01064 07434 02/75 21102 10130 20100 39743 40219 55001 60006 80001 90600 333 10213 20127 60004=
07434,1997-10-01 12:00:00,25,1019.3,-0.4,34,8,25000,14.816,,,70,,,,,,,,,,,wg-a,,,,AAXX 01124 07434 12/75 20708 10250 20080 39737 40193 58004 60006 80001 91200=
07434,1997-10-01 15:00:00,25,1018.1,-1.1,39,10,35000,14.816,,,50,,,,,,,,,,,wg-a,,,,AAXX 01154 07434 12/81 10508 10250 20100 39726 40181 56011 60006 80001 91500=
07434,1997-10-01 18:00:00,21,1018.7,-0,53,11,25000,11.112,,,20,12.4,26.3,,,,,,,,,wg-a,,,,AAXX 01184 07434 12/75 10206 10210 20110 39726 40187 55000 60006 80001 91800 333 10263 20124=
07434,1997-10-02 00:00:00,18,1018.2,-0.5,56,9,25000,7.408,,,30,,,,,,,,,,,wg-a,,,,AAXX 02004 07434 12/75 00304 10180 20090 39716 40182 58005 60006 80000 90000=
07434,1997-10-02 03:00:00,18,1017.6,-0.6,56,9,25000,11.112,,,40,,,,,,,,,,,wg-a,,,,AAXX 02034 07434 12/75 00406 10180 20090 39710 40176 56006 60006 80000 90300=
07434,1997-10-02 06:00:00,17,1017.2,-0.5,55,8,10000,7.408,,,50,16.4,21,,,,,,,,,wg-a,,,,AAXX 02064 07434 02/60 00504 10170 20080 39705 40172 56005 60006 80000 90600 333 10210 20164 60004=
07434,1997-10-02 12:00:00,23,1016.8,-0.1,53,13,20000,14.816,,,20,,,,,,,,,,,wg-a,,,,AAXX 02124 07434 12/70 00208 10230 20130 39711 40168 58001 60006 80000 91200=
07434,1997-10-02 15:00:00,23,1016.2,-0.5,57,14,20000,11.112,,,30,,,,,,,,,,,wg-a,,,,AAXX 02154 07434 12670 /0306 10230 20140 39706 40162 56005 60006 81100 91500=
07434,1997-10-02 18:00:00,18,1017,-0,77,14,20000,14.816,,,350,16.8,23.7,,,,,,,,,wg-a,,,,AAXX 02184 07434 12/70 13508 10180 20140 39706 40170 55000 60006 80001 91800 333 10237 20168=
07434,1997-10-02 21:00:00,15,1018.3,0.8,88,13,20000,18.52,,,30,,,,,,,,,,,wg-a,,,,AAXX 02214 07434 12/70 00310 10150 20130 39714 40183 51008 60006 80000 92100=
07434,1997-10-03 00:00:00,15,1017.8,-0.6,88,13,10000,11.112,,,30,,,,,,,,,,,wg-a,,,,AAXX 03004 07434 12/60 /0306 10150 20130 39708 40178 57006 60006 90000=
07434,1997-10-03 03:00:00,15,1017.2,-0.6,82,12,20000,14.816,,,60,,,,,,,,,,,wg-a,,,,AAXX 03034 07434 12/70 00608 10150 20120 39702 40172 58006 60006 80000 90300=
07434,1997-10-03 06:00:00,15,1017.6,0.3,77,11,20000,14.816,,,50,14,18.3,,,,,,,,,wg-a,,,,AAXX 03064 07434 02/70 00508 10150 20110 39705 40176 53003 60006 80000 90600 333 10183 20140 60004=
07434,1997-10-03 09:00:00,19,1017.8,0.9,64,12,10000,22.224,,,70,,,,,,,,,,,wg-a,,,,AAXX 03094 07434 12/60 /0712 10190 20120 39714 40178 51009 60006 90900=
07434,1997-10-03 12:00:00,23,1017.2,0,47,11,25000,7.408,,,20,,,,,,,,,,,wg-a,,,,AAXX 03124 07434 12/75 00204 10230 20110 39714 40172 50000 60006 80000 91200=
07434,1997-10-03 15:00:00,23,1016.4,-0.7,50,12,500,14.816,,,20,,,,,,,,,,,wg-a,,,,AAXX 03154 07434 12/00 00208 10230 20120 39707 40164 56007 60006 80000 91500=
07434,1997-10-03 18:00:00,18,1018.3,1.1,68,12,25000,14.816,,,40,14.6,23.8,,,,,,,,,wg-a,,,,AAXX 03184 07434 12/75 00408 10180 20120 39718 40183 53011 60006 80000 91800 333 10238 20146=
07434,1997-10-03 21:00:00,16,1019.6,0.8,63,9,20000,14.816,,,60,,,,,,,,,,,wg-a,,,,AAXX 03214 07434 12/70 00608 10160 20090 39726 40196 51008 60006 80000 92100=
07434,1997-10-04 00:00:00,14,1020,0.1,67,8,15000,14.816,,,50,,,,,,,,,,,wg-a,,,,AAXX 04004 07434 12/65 00508 10140 20080 39727 40200 50001 60006 80000 90000=
07434,1997-10-04 03:00:00,14,1020.4,0.3,63,7,10000,11.112,,,50,,,,,,,,,,,wg-a,,,,AAXX 04034 07434 12/60 00506 10140 20070 39730 40204 51003 60006 80000 90300=
07434,1997-10-04 06:00:00,13,1020.9,0.3,67,7,15000,11.112,,,60,12.7,18.4,,,,,,,,,wg-a,,,,AAXX 04064 07434 02/65 00606 10130 20070 39733 40209 53003 60006 80000 90600 333 10184 20127 60004=
07434,1997-10-04 09:00:00,17,1021.3,1,52,7,20000,22.224,,,90,,,,,,,,,,,wg-a,,,,AAXX 04094 07434 12/70 00912 10170 20070 39743 40213 52010 60006 80000 90900=
07434,1997-10-04 12:00:00,21,1020.1,-0.4,49,10,500,11.112,,,30,,,,,,,,,,,wg-a,,,,AAXX 04124 07434 12/00 00306 10210 20100 39739 40201 58004 60006 80000 91200=
07434,1997-10-04 18:00:00,17,1019.5,-0.3,59,9,500,11.112,,,40,12.8,21.9,,,,,,,,,wg-a,,,,AAXX 04184 07434 12/00 00406 10170 20090 39726 40195 55003 60006 80000 91800 333 10219 20128=
07434,1997-10-04 21:00:00,15,1019.3,-0.5,59,7,500,14.816,,,50,,,,,,,,,,,wg-a,,,,AAXX 04214 07434 12/00 00508 10150 20070 39721 40193 56005 60006 80000 92100=
07434,1997-10-05 00:00:00,13,1018.6,-1,72,8,500,7.408,,,70,,,,,,,,,,,wg-a,,,,AAXX 05004 07434 12/00 00704 10130 20080 39711 40186 58010 60006 80000 90000=
07434,1997-10-05 03:00:00,11,1017.5,-1.2,76,7,500,7.408,,,70,,,,,,,,,,,wg-a,,,,AAXX 05034 07434 12/00 00704 10110 20070 39699 40175 58012 60006 80000 90300=
07434,1997-10-05 06:00:00,12,1016.7,-0.7,71,7,20000,7.408,,,90,10.9,16.5,,,,,,,,,wg-a,,,,AAXX 05064 07434 02/70 00904 10120 20070 39692 40167 56007 60006 80000 90600 333 10165 20109 60004=
07434,1997-10-05 09:00:00,17,1016,0.2,63,10,25000,11.112,,,120,,,,,,,,,,,wg-a,,,,AAXX 05094 07434 12/75 01206 10170 20100 39694 40160 50002 60006 80000 90900=
07434,1997-10-05 12:00:00,23,1014,-1,50,12,25000,11.112,,,150,,,,,,,,,,,wg-a,,,,AAXX 05124 07434 12/75 01506 10230 20120 39684 40140 58010 60006 80000 91200=
07434,1997-10-05 15:00:00,24,1011.2,-2.5,47,12,40000,11.112,,,130,,,,,,,,,,,wg-a,,,,AAXX 05154 07434 12/82 01306 10240 20120 39659 40112 56025 60006 80000 91500=
07434,1997-10-05 18:00:00,21,1010.7,-1,56,12,25000,3.704,,,110,11.9,24.1,,,,,,,,,wg-a,,,,AAXX 05184 07434 12/75 31102 10210 20120 39649 40107 56010 60006 80002 91800 333 10241 20119=
07434,1997-10-05 21:00:00,18,1011,-0.2,73,13,20000,11.112,,,130,,,,,,,,,,,wg-a,,,,AAXX 05214 07434 12/70 21306 10180 20130 39647 40110 57002 60006 80001 92100=
07434,1997-10-06 00:00:00,16,1010.4,-0.8,82,13,15000,11.112,,,130,,,,,,,,,,,wg-a,,,,AAXX 06004 07434 12/65 21306 10160 20130 39639 40104 56008 60006 80001 90000=
07434,1997-10-06 03:00:00,15,1008.9,-1.5,88,13,15000,11.112,,,120,,,,,,,,,,,wg-a,,,,AAXX 06034 07434 12/65 21206 10150 20130 39624 40089 57015 60006 80001 90300=
07434,1997-10-06 06:00:00,16,1008,-0.7,82,13,12000,11.112,,,140,15,20.8,,,,,,,,,wg-a,,,,AAXX 06064 07434 02/62 71406 10160 20130 39617 40080 56007 60006 80009 90600 333 10208 20150 60004=
07434,1997-10-06 09:00:00,20,1007.7,0.2,73,15,12000,14.816,,,160,,,,,,,,,,,wg-a,,,,AAXX 06094 07434 12/62 71608 10200 20150 39619 40077 53002 60006 82088 90900=
07434,1997-10-06 12:00:00,20,1007.2,-0.4,73,15,12000,25.928,,,180,,,,,,,,,,61,wg-a,,,,AAXX 06124 07434 02562 81814 10200 20150 39615 40072 58004 61000 76162 8118/ 91200 333 6100=
07434,1997-10-06 15:00:00,19,1005.9,-1.3,83,16,15000,14.816,,,190,,,,,,,,,,3,wg-a,,,,AAXX 06154 07434 02465 81908 10190 20160 39602 40059 56013 61000 70362 8598/ 91500 333 ////=
07434,1997-10-06 18:00:00,16,1006,-0.4,94,15,12000,7.408,,,180,15.9,20.7,,,,,,,,60,wg-a,,,,AAXX 06184 07434 02762 81804 10160 20150 39598 40060 58004 61000 76098 8257/ 91800 333 10207 20159 6010=
07434,1997-10-06 21:00:00,16,1005.8,-0.3,94,15,1100,7.408,,,150,,,,,,,,,,10,wg-a,,,,AAXX 06214 07434 02111 81504 10160 20150 39595 40058 56003 61000 71062 887// 92100 333 ////=
07434,1997-10-07 00:00:00,15,1005.6,-0.2,100,15,0,11.112,,,170,,,,,,,,,,,wg-a,,,,AAXX 07004 07434 02/// /1706 10150 20150 39593 40056 55002 61000 90000 333 ////=
07434,1997-10-07 06:00:00,15,1006,0.9,100,15,3000,11.112,,,210,15.2,15.9,,,,,,,,25,wg-a,,,,AAXX 07064 07434 02230 82106 10150 20150 39596 40060 53009 61000 72598 877// 90600 333 10159 20152 6023=
07434,1997-10-07 12:00:00,19,1008.6,1.1,78,15,15000,25.928,,,220,,,,,,,,,,,wg-a,,,,AAXX 07124 07434 12565 72214 10190 20150 39626 40086 51011 60006 878// 91200=
07434,1997-10-07 15:00:00,19,1009.5,0.9,78,15,20000,22.224,,,270,,,,4,,,,,,25,wg-a,,,,AAXX 07154 07434 12570 52712 10190 20150 39635 40095 53009 60047 72586 85803 91500=
07434,1997-10-07 18:00:00,15,1012.2,1.9,82,12,25000,11.112,,,250,14.8,18.9,,,,,,,,1,wg-a,,,,AAXX 07184 07434 12575 42506 10150 20120 39654 40122 53019 60006 70186 81802 91800 333 10189 20148=
07434,1997-10-07 21:00:00,14,1013.7,1.3,94,13,15000,11.112,,,210,,,,,,,,,,,wg-a,,,,AAXX 07214 07434 12465 42106 10140 20130 39667 40137 51013 60006 82501 92100=
07434,1997-10-08 00:00:00,14,1014.5,0.8,94,13,15000,3.704,,,170,,,,,,,,,,,wg-a,,,,AAXX 08004 07434 12765 71702 10140 20130 39675 40145 50008 60006 875// 90000=
07434,1997-10-08 03:00:00,14,1014.7,0.2,94,13,15000,7.408,,,190,,,,,,,,,,,wg-a,,,,AAXX 08034 07434 12765 71904 10140 20130 39677 40147 52002 60006 875// 90300=
07434,1997-10-08 06:00:00,14,1014.5,-0.3,94,13,12000,3.704,,,150,13.2,14.8,,,,,4,,,,wg-a,,,,AAXX 08064 07434 02662 71502 10140 20130 39674 40145 56003 60006 875// 90600 333 10148 20132 60044=
07434,1997-10-08 12:00:00,20,1013.2,-0.8,78,16,15000,29.632,,,220,,,,,,,,,,,wg-a,,,,AAXX 08124 07434 12565 72216 10200 20160 39673 40132 58008 60006 85232 91200=
07434,1997-10-08 18:00:00,18,1014.4,0.9,77,14,20000,7.408,,,240,13.5,21.8,,,,,,,,,wg-a,,,,AAXX 08184 07434 12/70 62404 10180 20140 39681 40144 53009 60006 82032 91800 333 10218 20135=
07434,1997-10-08 21:00:00,16,1015.7,0.8,77,12,25000,11.112,,,230,,,,,,,,,,,wg-a,,,,AAXX 08214 07434 12/75 32306 10160 20120 39689 40157 53008 60006 81031 92100=
07434,1997-10-09 00:00:00,15,1015.3,-0.6,82,12,20000,3.704,,,70,,,,,,,,,,,wg-a,,,,AAXX 09004 07434 12/70 20702 10150 20120 39683 40153 58006 60006 80001 90000=
07434,1997-10-09 03:00:00,15,1015.3,0.1,82,12,18000,11.112,,,180,,,,,,,,,,,wg-a,,,,AAXX 09034 07434 12868 71806 10150 20120 39684 40153 52001 60006 86031 90300=
07434,1997-10-09 06:00:00,17,1016.3,1.3,88,15,12000,18.52,,,240,13.6,17.8,,,,,,,,,wg-a,,,,AAXX 09064 07434 02/62 72410 10170 20150 39697 40163 53013 60006 8707/ 90600 333 10178 20136 60004=
07434,1997-10-09 12:00:00,17,1018.7,0.3,94,16,15000,18.52,,,230,,,,1,,,,,,1,wg-a,,,,AAXX 09124 07434 02365 72310 10170 20160 39721 40187 50003 60036 70165 875// 91200 333 60017=
07434,1997-10-09 15:00:00,18,1018.2,-0.3,94,17,10000,14.816,,,250,,,,,,,,,,20,wg-a,,,,AAXX 09154 07434 02360 72508 10180 20170 39718 40182 56003 61000 72065 875// 91500 333 ////=
07434,1997-10-09 18:00:00,17,1019.1,0.7,94,16,12000,11.112,,,230,15.4,18.5,,0,,,,,,1,wg-a,,,,AAXX 09184 07434 02362 /2306 10170 20160 39725 40191 53007 60006 70186 86800 91800 333 10185 20154 60007=
07434,1997-10-09 21:00:00,17,1019.2,0,94,16,12000,11.112,,,210,,,,,,,,,,,wg-a,,,,AAXX 09214 07434 12262 72106 10170 20160 39725 40192 50000 60006 878// 92100=
07434,1997-10-10 00:00:00,17,1017.7,-1.4,100,17,0,18.52,,,230,,,,,,,,,,,wg-a,,,,AAXX 10004 07434 12/// /2310 10170 20170 39711 40177 58014 60016 90000=
07434,1997-10-10 03:00:00,17,1016.1,-1.6,94,16,8000,11.112,,,200,,,,,,,,,,,wg-a,,,,AAXX 10034 07434 12158 72006 10170 20160 39695 40161 58016 60006 875// 90300=
07434,1997-10-10 06:00:00,16,1014,-2,100,16,8000,18.52,,,200,16.4,17.4,,,,,3,,,,wg-a,,,,AAXX 10064 07434 02158 72010 10160 20160 39675 40140 58020 60006 8657/ 90600 333 10174 20164 60034=
07434,1997-10-10 09:00:00,16,1013.8,-0.3,94,15,1800,18.52,,,230,,,,2,,,,,,10,wg-a,,,,AAXX 10094 07434 12118 82310 10160 20150 39672 40138 56003 60027 71062 875// 90900=
07434,1997-10-10 12:00:00,18,1012.6,-0.8,94,17,800,18.52,,,240,,,,2,,,,,,44,wg-a,,,,AAXX 10124 07434 02108 82410 10180 20170 39664 40126 56008 60046 74465 877// 91200 333 60027=
07434,1997-10-10 15:00:00,19,1012.4,-0.1,94,18,12000,14.816,,,270,,,,2,,,,,,3,wg-a,,,,AAXX 10154 07434 12262 72708 10190 20180 39663 40124 55001 60027 70365 878// 91500=
07434,1997-10-10 18:00:00,17,1014.3,1.6,100,17,6000,14.816,,,280,16,18.8,,,,,,,,50,wg-a,,,,AAXX 10184 07434 02156 72808 10170 20170 39679 40143 53016 61000 75086 877// 91800 333 10188 20160 6001=
07434,1997-10-10 21:00:00,16,1016.5,1.9,100,16,12000,22.224,,,290,,,,,,,,,,2,wg-a,,,,AAXX 10214 07434 02262 72912 10160 20160 39698 40165 53019 61000 70252 877// 92100 333 ////=
07434,1997-10-11 00:00:00,15,1016.7,-0.1,94,14,13000,14.816,,,270,,,,,,,,,,2,wg-a,,,,AAXX 11004 07434 02263 72708 10150 20140 39697 40167 58001 61000 70252 877// 90000 333 ////=
07434,1997-10-11 03:00:00,12,1016,-1,100,12,500,3.704,,,260,,,,,,,,,,44,wg-a,,,,AAXX 11034 07434 12105 82602 10120 20120 39687 40160 58010 60006 74442 886// 90300=
07434,1997-10-11 06:00:00,11,1015.8,-0.4,100,11,800,3.704,,,250,11.2,17.2,,,,,7,,,10,wg-a,,,,AAXX 11064 07434 02108 72502 10110 20110 39683 40158 58004 60006 71042 876// 90600 333 10172 20112 60074=
07434,1997-10-11 12:00:00,15,1012.1,-3.1,88,13,20000,14.816,,,190,,,,,,,,,,15,wg-a,,,,AAXX 11124 07434 02370 71908 10150 20130 39654 40121 58031 61000 71564 875// 91200 333 6100=
07434,1997-10-11 15:00:00,16,1008.8,-3,94,15,2000,14.816,,,200,,,,2,,,,,,51,wg-a,,,,AAXX 11154 07434 12120 82008 10160 20150 39624 40088 58030 60027 75165 887// 91500=
07434,1997-10-11 18:00:00,17,1007.6,-0.9,94,16,15000,22.224,,38.892,270,11.2,17.4,,,,,,,,60,wg-a,,,,AAXX 11184 07434 02265 82712 10170 20160 39615 40076 55009 61000 76065 877// 91800 333 10174 20112 6002 91021=
07434,1997-10-11 21:00:00,16,1008.2,0.3,94,15,12000,29.632,,50.004,280,,,,0,,,,,,61,wg-a,,,,AAXX 11214 07434 12262 82816 10160 20150 39618 40082 51003 60007 76162 877// 92100 333 91027=
07434,1997-10-12 00:00:00,14,1007.4,-1,94,13,12000,31.484,,51.856,290,,,,1,,,,,,1,wg-a,,,,AAXX 12004 07434 02362 72917 10140 20130 39608 40074 55010 60026 70162 878// 90000 333 60017 91028=
07434,1997-10-12 03:00:00,12,1008.5,0.6,94,11,8000,25.928,,48.152,270,,,,0,,,,,,,wg-a,,,,AAXX 12034 07434 12458 72714 10120 20110 39614 40085 50006 60007 878// 90300 333 91026=
07434,1997-10-12 06:00:00,11,1008.1,-0.6,94,10,10000,18.52,,40.744,260,10.6,16.9,,,,,,,,21,wg-a,,,,AAXX 12064 07434 02260 82610 10110 20100 39608 40081 56006 61000 72162 875// 90600 333 10169 20106 6006 91022=
07434,1997-10-12 09:00:00,12,1009.8,1.8,88,10,12000,22.224,,,270,,,,3,,,,,,61,wg-a,,,,AAXX 12094 07434 12462 72712 10120 20100 39626 40098 51018 60037 76165 872// 90900=
07434,1997-10-12 12:00:00,13,1011.7,2,82,10,20000,18.52,,,300,,,,,,,,,,1,wg-a,,,,AAXX 12124 07434 12470 73010 10130 20100 39646 40117 51020 60036 70165 91200=
07434,1997-10-12 18:00:00,11,1016.4,2,87,9,500,11.112,,,320,10.6,13.9,,,,,,,,,wg-a,,,,AAXX 12184 07434 12400 73206 10110 20090 39688 40164 53020 60006 878// 91800 333 10139 20106=
07434,1997-10-12 21:00:00,9,1018.2,1.4,100,9,18000,11.112,,,330,,,,1,,,,,,60,wg-a,,,,AAXX 12214 07434 12268 83306 10090 20090 39702 40182 51014 60017 76062 877// 92100=
07434,1997-10-13 00:00:00,9,1018.5,0.3,93,8,18000,11.112,,,10,,,,,,,,,,21,wg-a,,,,AAXX 13004 07434 02268 70106 10090 20080 39705 40185 51003 60016 72162 876// 90000 333 61000=
07434,1997-10-13 03:00:00,8,1018.7,-0.1,93,7,15000,11.112,,,360,,,,,,,,,,,wg-a,,,,AAXX 13034 07434 12365 /3606 10080 20070 39704 40187 55001 60006 86600 90300=
07434,1997-10-13 06:00:00,7,1020.1,1.1,93,6,15000,11.112,,,360,6.6,11.3,,,,,4,,,,wg-a,,,,AAXX 13064 07434 02265 /3606 10070 20060 39715 40201 53011 60006 85630 90600 333 10113 20066 60044=
07434,1997-10-13 09:00:00,8,1020.8,0.9,87,6,15000,7.408,,,310,,,,,,,,,,,wg-a,,,,AAXX 13094 07434 12265 73104 10080 20060 39724 40208 53009 60006 878// 90900=
07434,1997-10-13 12:00:00,9,1020.4,-0.2,87,7,25000,11.112,,,310,,,,,,,,,,25,wg-a,,,,AAXX 13124 07434 02475 73106 10090 20070 39722 40204 58002 61000 72586 878// 91200 333 6100=
07434,1997-10-13 15:00:00,11,1019.5,-0.6,62,4,20000,18.52,,,310,,,,0,,,,,,3,wg-a,,,,AAXX 13154 07434 12570 73110 10110 20040 39716 40195 56006 60007 70386 878// 91500=
07434,1997-10-13 18:00:00,8,1021,1.1,87,6,20000,11.112,,,310,6.3,10.8,,,,,,,,1,wg-a,,,,AAXX 13184 07434 12570 73106 10080 20060 39727 40210 53011 60006 70186 878// 91800 333 10108 20063=
07434,1997-10-13 21:00:00,7,1021.3,0.1,93,6,20000,7.408,,,290,,,,,,,,,,,wg-a,,,,AAXX 13214 07434 12570 72904 10070 20060 39728 40213 53001 60006 875// 92100=
07434,1997-10-14 00:00:00,7,1021.8,0.4,93,6,10000,14.816,,,20,,,,1,,,,,,20,wg-a,,,,AAXX 14004 07434 02360 70208 10070 20060 39732 40218 53004 60016 72052 877// 90000 333 60017=
07434,1997-10-14 03:00:00,6,1022.9,0.9,93,5,10000,11.112,,,10,,,,,,,,,,,wg-a,,,,AAXX 14034 07434 12360 /0106 10060 20050 39741 40229 53009 60006 85600 90300=
07434,1997-10-14 06:00:00,5,1024.8,1.7,93,4,10000,7.408,,,30,5.3,8.3,,,,,1,,,,wg-a,,,,AAXX 14064 07434 02460 70304 10050 20040 39758 40248 53017 60006 875// 90600 333 10083 20053 60014=
07434,1997-10-14 09:00:00,7,1026.3,1.6,87,5,500,14.816,,,40,,,,,,,,,,,wg-a,,,,AAXX 14094 07434 12400 70408 10070 20050 39774 40263 51016 60006 875// 90900=
07434,1997-10-14 12:00:00,9,1026.5,0.6,71,4,500,14.816,,,340,,,,,,,,,,,wg-a,,,,AAXX 14124 07434 12400 73408 10090 20040 39780 40265 51006 60006 878// 91200=
07434,1997-10-14 15:00:00,10,1025.3,-1,62,3,500,11.112,,,20,,,,,,,,,,,wg-a,,,,AAXX 14154 07434 12500 /0206 10100 20030 39770 40253 58010 60006 85800 91500=
07434,1997-10-14 18:00:00,8,1025.8,0.1,71,3,500,7.408,,,340,5.3,11.2,,,,,,,,,wg-a,,,,AAXX 14184 07434 12600 23404 10080 20030 39771 40258 53001 60006 82500 91800 333 10112 20053=
07434,1997-10-14 21:00:00,6,1026.6,0.5,81,3,10000,7.408,,,320,,,,,,,,,,,wg-a,,,,AAXX 14214 07434 12/60 /3204 10060 20030 39776 40266 52005 60006 92100=
07434,1997-10-15 00:00:00,6,1025.6,-1,81,3,20000,7.408,,,300,,,,,,,,,,,wg-a,,,,AAXX 15004 07434 12770 73004 10060 20030 39766 40256 58010 60006 8357/ 90000=
07434,1997-10-15 03:00:00,6,1023.7,-1.8,87,4,15000,7.408,,,250,,,,,,,,,,,wg-a,,,,AAXX 15034 07434 12765 72504 10060 20040 39748 40237 57018 60006 8757/ 90300=
07434,1997-10-15 06:00:00,6,1022,-1.6,87,4,7000,11.112,,,240,5.2,7.4,,,,,,,,61,wg-a,,,,AAXX 15064 07434 02357 82406 10060 20040 39732 40220 56016 61000 76162 888// 90600 333 10074 20052 6000=
07434,1997-10-15 09:00:00,6,1021.3,-0.7,93,5,2000,22.224,,,220,,,,5,,,,,,10,wg-a,,,,AAXX 15094 07434 12220 82212 10060 20050 39725 40213 58007 60057 71066 885// 90900=
07434,1997-10-15 12:00:00,7,1018.6,,100,7,2500,18.52,,,220,,,,,,,,,,10,wg-a,,,,AAXX 15124 07434 02125 82210 10070 20070 39703 40186 61000 71066 885// 91200 333 ////=
07434,1997-10-15 18:00:00,11,1014.7,-1,94,10,2000,11.112,,,220,5.2,10.5,,,,,,,,10,wg-a,,,,AAXX 15184 07434 02120 82206 10110 20100 39671 40147 56010 61000 71065 887// 91800 333 10105 20052 6006=
07434,1997-10-15 21:00:00,12,1014.9,0.5,100,12,800,7.408,,,270,,,,1,,,,,,44,wg-a,,,,AAXX 15214 07434 12108 82704 10120 20120 39676 40149 52005 60017 74454 887// 92100=
07434,1997-10-16 00:00:00,12,1015,0.1,100,12,75000,7.408,,,340,,,,,,,,,,1,wg-a,,,,AAXX 16004 07434 02289 73404 10120 20120 39677 40150 51001 60016 70154 878// 90000 333 61000=
07434,1997-10-16 03:00:00,11,1015.1,-0.1,100,11,10000,7.408,,,320,,,,,,,,,,,wg-a,,,,AAXX 16034 07434 12260 73204 10110 20110 39676 40151 58001 60006 878// 90300=
07434,1997-10-16 06:00:00,11,1016.1,0.9,100,11,1000,7.408,,,300,10.2,12.7,,,,,,,,10,wg-a,,,,AAXX 16064 07434 12110 83004 10110 20110 39685 40161 53009 60006 71022 877// 90600 333 10127 20102=
07434,1997-10-16 09:00:00,11,1017.4,1.3,100,11,900,7.408,,,310,,,,0,,,,,,10,wg-a,,,,AAXX 16094 07434 12109 83104 10110 20110 39698 40174 53013 60007 71054 877// 90900=
07434,1997-10-16 12:00:00,13,1017.1,0,88,11,15000,11.112,,,290,,,,,,,,,,1,wg-a,,,,AAXX 16124 07434 02365 72906 10130 20110 39698 40171 50000 60006 70154 878// 91200 333 61000=
07434,1997-10-16 15:00:00,14,1016.2,-0.7,77,10,25000,7.408,,,280,,,,,,,,,,,wg-a,,,,AAXX 16154 07434 12475 62804 10140 20100 39691 40162 56007 60006 85801 91500=
07434,1997-10-16 18:00:00,12,1017.1,0.5,88,10,500,7.408,,,310,10.8,14.6,,,,,,,,,wg-a,,,,AAXX 16184 07434 12400 43104 10120 20100 39696 40171 53005 60006 83801 91800 333 10146 20108=
07434,1997-10-17 00:00:00,8,1016.4,-1.2,100,8,500,7.408,,,80,,,,0,,,,,,44,wg-a,,,,AAXX 17004 07434 02005 /0804 10080 20080 39683 40164 58012 60006 74441 86600 90000 333 60007=
07434,1997-10-17 06:00:00,8,1014.5,-0.7,93,7,40000,11.112,,,100,7.6,12,,,,,1,,,3,wg-a,,,,AAXX 17064 07434 02/82 51006 10080 20070 39664 40145 57007 60006 70341 80004 90600 333 10120 20076 60014=
07434,1997-10-17 09:00:00,13,1014.3,0.7,77,9,45000,18.52,,,130,,,,,,,,,,,wg-a,,,,AAXX 17094 07434 12/83 61310 10130 20090 39671 40143 51007 60006 80002 90900=
07434,1997-10-17 12:00:00,19,1012.8,-0.6,52,9,50000,18.52,,,150,,,,,,,,,,,wg-a,,,,AAXX 17124 07434 12/84 61510 10190 20090 39665 40128 58006 60006 80001 91200=
07434,1997-10-17 15:00:00,19,1012.1,-0.5,56,10,50000,18.52,,,160,,,,,,,,,,,wg-a,,,,AAXX 17154 07434 12/84 61610 10190 20100 39660 40121 56005 60006 80001 91500=
07434,1997-10-17 18:00:00,16,1013.6,0.9,68,10,500,18.52,,,150,7.8,19.4,,,,,,,,,wg-a,,,,AAXX 17184 07434 12/00 41510 10160 20100 39669 40136 53009 60006 80001 91800 333 10194 20078=
07434,1997-10-17 21:00:00,14,1015,1,72,9,20000,14.816,,,140,,,,,,,,,,,wg-a,,,,AAXX 17214 07434 12/70 21408 10140 20090 39679 40150 52010 60006 80001 92100=
07434,1997-10-18 00:00:00,13,1015.2,0.1,72,8,20000,18.52,,,140,,,,,,,,,,,wg-a,,,,AAXX 18004 07434 12/70 01410 10130 20080 39680 40152 51001 60006 80000 90000=
07434,1997-10-18 03:00:00,13,1016.1,0.7,77,9,20000,14.816,,,140,,,,,,,,,,,wg-a,,,,AAXX 18034 07434 12/70 11408 10130 20090 39687 40161 51007 60006 80001 90300=
07434,1997-10-18 06:00:00,13,1017.2,1.2,82,10,500,18.52,,,130,12.3,16,,,,,,,,,wg-a,,,,AAXX 18064 07434 02/00 21310 10130 20100 39699 40172 53012 60006 80001 90600 333 10160 20123 60004=
07434,1997-10-18 09:00:00,17,1018.1,1.6,72,12,500,22.224,,,150,,,,,,,,,,,wg-a,,,,AAXX 18094 07434 12/00 21512 10170 20120 39715 40181 51016 60006 80001 90900=
07434,1997-10-18 12:00:00,21,1017.3,-0.2,60,13,40000,25.928,,,180,,,,,,,,,,,wg-a,,,,AAXX 18124 07434 12/82 21814 10210 20130 39713 40173 58002 60006 80001 91200=
07434,1997-10-18 15:00:00,21,1016.7,-0.6,60,13,40000,25.928,,,160,,,,,,,,,,,wg-a,,,,AAXX 18154 07434 12/82 21614 10210 20130 39707 40167 56006 60006 80001 91500=
07434,1997-10-18 18:00:00,18,1017.7,0.4,68,12,500,18.52,,,150,13.4,21.6,,,,,,,,,wg-a,,,,AAXX 18184 07434 12/00 21510 10180 20120 39711 40177 52004 60006 80001 91800 333 10216 20134=
07434,1997-10-18 21:00:00,15,1018.3,0.2,77,11,25000,18.52,,,140,,,,,,,,,,,wg-a,,,,AAXX 18214 07434 12/75 01410 10150 20110 39713 40183 52002 60006 80000 92100=
07434,1997-10-19 00:00:00,14,1017.7,-0.8,72,9,25000,14.816,,,130,,,,,,,,,,,wg-a,,,,AAXX 19004 07434 12/75 01308 10140 20090 39705 40177 58008 60006 80000 90000=
07434,1997-10-19 03:00:00,13,1016.8,-1,77,9,25000,14.816,,,140,,,,,,,,,,,wg-a,,,,AAXX 19034 07434 12/75 11408 10130 20090 39695 40168 56010 60006 80001 90300=
07434,1997-10-19 06:00:00,12,1016.6,-0.4,76,8,40000,14.816,,,130,12,17.6,,,,,,,,,wg-a,,,,AAXX 19064 07434 02/82 31308 10120 20080 39691 40166 55004 60006 80001 90600 333 10176 20120 60004=
07434,1997-10-19 09:00:00,16,1016.3,0.3,68,10,500,14.816,,,140,,,,,,,,,,,wg-a,,,,AAXX 19094 07434 12/00 61408 10160 20100 39694 40163 50003 60006 81032 90900=
07434,1997-10-19 12:00:00,18,1015.5,-0.4,68,12,10000,14.816,,,160,,,,,,,,,,,wg-a,,,,AAXX 19124 07434 12760 71608 10180 20120 39690 40155 58004 60006 81132 91200=
07434,1997-10-19 15:00:00,19,1015.4,0.1,68,13,40000,7.408,,,150,,,,,,,,,,,wg-a,,,,AAXX 19154 07434 12/82 71504 10190 20130 39691 40154 53001 60006 85032 91500=
07434,1997-10-19 18:00:00,17,1015.4,-0.3,77,13,25000,7.408,,,90,11.9,18.8,,,,,,,,,wg-a,,,,AAXX 19184 07434 12775 70904 10170 20130 39688 40154 58003 60006 8257/ 91800 333 10188 20119=
07434,1997-10-20 00:00:00,15,1014.5,-0.3,82,12,15000,11.112,,,150,,,,,,,,,,,wg-a,,,,AAXX 20004 07434 12765 81506 10150 20120 39676 40145 56003 60006 8357/ 90000=
07434,1997-10-20 03:00:00,14,1013,-1.5,88,12,10000,11.112,,,130,,,,,,,,,,,wg-a,,,,AAXX 20034 07434 12/60 51306 10140 20120 39661 40130 56015 60006 85070 90300=
07434,1997-10-20 06:00:00,14,1011.6,-1.3,88,12,10000,11.112,,,120,13.8,16.7,,,,,,,,,wg-a,,,,AAXX 20064 07434 02/60 /1206 10140 20120 39648 40116 58013 60006 90600 333 10167 20138 60004=
07434,1997-10-20 09:00:00,17,1011,-0.2,77,13,500,14.816,,,110,,,,,,,,,,,wg-a,,,,AAXX 20094 07434 12/00 61108 10170 20130 39646 40110 55002 60006 81031 90900=
07434,1997-10-20 12:00:00,20,1008.7,-1.6,68,14,40000,18.52,,,130,,,,,,,,,,,wg-a,,,,AAXX 20124 07434 12/82 71310 10200 20140 39630 40087 58016 60006 84032 91200=
07434,1997-10-20 15:00:00,20,1007.5,-1.3,68,14,500,7.408,,,130,,,,,,,,,,,wg-a,,,,AAXX 20154 07434 12/00 71304 10200 20140 39617 40075 56013 60006 8703/ 91500=
07434,1997-10-20 18:00:00,18,1008.1,0.4,77,14,500,7.408,,,60,14.2,20.6,,,,,,,,,wg-a,,,,AAXX 20184 07434 12800 70604 10180 20140 39621 40081 53004 60006 8253/ 91800 333 10206 20142=
07434,1997-10-20 21:00:00,17,1007.6,-0.7,88,15,20000,7.408,,,50,,,,,,,,,,,wg-a,,,,AAXX 20214 07434 12/70 70504 10170 20150 39614 40076 56007 60006 8707/ 92100=
07434,1997-10-21 03:00:00,15,1007.6,-0.5,100,15,10000,7.408,,,120,,,,3,,,,,,,wg-a,,,,AAXX 21034 07434 12260 71204 10150 20150 39611 40076 56005 60037 875// 90300=
07434,1997-10-21 06:00:00,15,1007.2,-0.4,94,14,10000,14.816,,,30,14.5,18.2,,,,,4,,,1,wg-a,,,,AAXX 21064 07434 02360 70308 10150 20140 39607 40072 55004 60006 70162 8657/ 90600 333 10182 20145 60044=
07434,1997-10-21 09:00:00,15,1008.8,1.5,94,14,2000,3.704,,,40,,,,16,,,,,,10,wg-a,,,,AAXX 21094 07434 12120 80402 10150 20140 39622 40088 53015 60167 71062 8752/ 90900=
07434,1997-10-21 12:00:00,17,1008.1,-0.3,88,15,10000,7.408,,,70,,,,,,,,,,1,wg-a,,,,AAXX 21124 07434 02460 70704 10170 20150 39619 40081 58003 60166 70162 878// 91200 333 61000=
07434,1997-10-21 15:00:00,18,1008.5,0.5,83,15,15000,7.408,,,20,,,,,,,,,,,wg-a,,,,AAXX 21154 07434 12465 70204 10180 20150 39624 40085 52005 60006 878// 91500=
07434,1997-10-21 18:00:00,15,1009.9,0.9,94,14,0,7.408,,,10,14.4,18.6,,,,,,,,,wg-a,,,,AAXX 21184 07434 32/// /0104 10150 20140 39633 40099 53009 91800 333 10186 20144=
07434,1997-10-22 06:00:00,12,1009.7,-0.7,94,11,800,7.408,,,80,11.7,14.9,,,,,17,,,45,wg-a,,,,AAXX 22064 07434 02/08 90804 10120 20110 39625 40097 56007 60006 74544 89/// 90600 333 10149 20117 60174=
07434,1997-10-22 09:00:00,13,1010.2,0.7,100,13,100,7.408,,,160,,,,,,,,,,45,wg-a,,,,AAXX 22094 07434 12/01 91604 10130 20130 39632 40102 53007 60006 74544 89/// 90900=
07434,1997-10-22 12:00:00,14,1009.6,-0.3,100,14,1500,3.704,,,140,,,,,,,,,,10,wg-a,,,,AAXX 22124 07434 12015 81402 10140 20140 39629 40096 58003 60006 71042 886// 91200=
07434,1997-10-22 15:00:00,15,1009,-0.4,100,15,4500,0,,,0,,,,,,,,,,10,wg-a,,,,AAXX 22154 07434 02145 80000 10150 20150 39625 40090 56004 61000 71062 8667/ 91500 333 ////=
07434,1997-10-22 18:00:00,15,1009.6,0.5,94,14,4000,3.704,,,10,11.6,15.6,,,,,,,,10,wg-a,,,,AAXX 22184 07434 12140 80102 10150 20140 39630 40096 53005 60006 71062 876// 91800 333 10156 20116=
07434,1997-10-22 21:00:00,14,1010.1,0.3,94,13,7000,7.408,,,30,,,,,,,,,,,wg-a,,,,AAXX 22214 07434 12357 70304 10140 20130 39633 40101 53003 60006 8553/ 92100=
07434,1997-10-23 00:00:00,14,1010.2,-0,94,13,500,3.704,,,30,,,,,,,,,,,wg-a,,,,AAXX 23004 07434 12200 80302 10140 20130 39633 40102 55000 60006 876// 90000=
07434,1997-10-23 03:00:00,13,1010.1,-0.2,94,12,300,7.408,,,330,,,,,,,,,,45,wg-a,,,,AAXX 23034 07434 32/03 93304 10130 20120 39631 40101 56002 74542 89/// 90300=
07434,1997-10-23 06:00:00,12,1009.3,-0.9,100,12,800,7.408,,,340,12,14.9,,,,,4,,,41,wg-a,,,,AAXX 23064 07434 02108 73404 10120 20120 39622 40093 56009 60006 74164 86963 90600 333 10149 20120 60044=
07434,1997-10-23 12:00:00,16,1010.1,0,88,14,10000,11.112,,,340,,,,,,,,,,3,wg-a,,,,AAXX 23124 07434 12360 73406 10160 20140 39636 40101 50000 60006 70342 8583/ 91200=
07434,1997-10-23 18:00:00,13,1012.1,1.6,94,12,2500,7.408,,,10,11.4,16.1,,,,,,,,10,wg-a,,,,AAXX 23184 07434 12225 70104 10130 20120 39651 40121 53016 60006 71022 876// 91800 333 10161 20114=
07434,1997-10-23 21:00:00,12,1013.2,0.8,94,11,4000,11.112,,,30,,,,,,,,,,10,wg-a,,,,AAXX 23214 07434 12340 70306 10120 20110 39659 40132 52008 60006 71022 876// 92100=
07434,1997-10-24 00:00:00,12,1014.2,0.9,88,10,6000,7.408,,,30,,,,,,,,,,,wg-a,,,,AAXX 24004 07434 12456 80304 10120 20100 39668 40142 51009 60006 875// 90000=
07434,1997-10-24 03:00:00,10,1015,0.5,93,9,4000,11.112,,,20,,,,,,,,,,10,wg-a,,,,AAXX 24034 07434 12140 80206 10100 20090 39673 40150 52005 60006 71022 876// 90300=
07434,1997-10-24 06:00:00,9,1016.8,1.5,93,8,4000,7.408,,,40,9,13,,,,,,,,10,wg-a,,,,AAXX 24064 07434 02140 80404 10090 20080 39688 40168 53015 60006 71022 876// 90600 333 10130 20090 60004=
07434,1997-10-24 09:00:00,9,1018.7,1.8,76,5,500,11.112,,,20,,,,,,,,,,,wg-a,,,,AAXX 24094 07434 12/00 00206 10090 20050 39706 40187 52018 60006 80000 90900=
07434,1997-10-24 12:00:00,12,1018.8,0.5,58,4,18000,18.52,,,90,,,,,,,,,,,wg-a,,,,AAXX 24124 07434 12/68 00910 10120 20040 39711 40188 51005 60006 80000 91200=
07434,1997-10-24 15:00:00,10,1020.1,1,62,3,20000,25.928,,,40,,,,,,,,,,,wg-a,,,,AAXX 24154 07434 12/70 00414 10100 20030 39721 40201 51010 60006 80000 91500=
07434,1997-10-24 18:00:00,8,1021.6,1,71,3,20000,31.484,,,60,7.3,12,,,,,,,,,wg-a,,,,AAXX 24184 07434 12/70 00617 10080 20030 39731 40216 51010 60006 80000 91800 333 10120 20073=
07434,1997-10-24 21:00:00,6,1022.7,0.8,75,2,20000,25.928,,,70,,,,,,,,,,,wg-a,,,,AAXX 24214 07434 12/70 00714 10060 20020 39739 40227 51008 60006 80000 92100=
07434,1997-10-25 00:00:00,6,1022.5,-0.3,75,2,20000,25.928,,,70,,,,,,,,,,,wg-a,,,,AAXX 25004 07434 12/70 00714 10060 20020 39736 40225 56003 60006 80000 90000=
07434,1997-10-25 03:00:00,5,1023.1,0.4,75,1,20000,29.632,,,70,,,,,,,,,,,wg-a,,,,AAXX 25034 07434 12/70 00716 10050 20010 39740 40231 51004 60006 80000 90300=
07434,1997-10-25 06:00:00,4,1023.6,0.4,75,0,20000,25.928,,,80,4.3,7.4,,,,,,,,,wg-a,,,,AAXX 25064 07434 02/70 00814 10040 20000 39744 40236 52004 60006 80000 90600 333 10074 20043 60004=
07434,1997-10-25 09:00:00,7,1024.1,0.9,57,-1,20000,29.632,,,80,,,,,,,,,,,wg-a,,,,AAXX 25094 07434 12/70 00816 10070 21010 39753 40241 51009 60006 80000 90900=
07434,1997-10-25 12:00:00,12,1022.9,-0.3,44,0,500,25.928,,,60,,,,,,,,,,,wg-a,,,,AAXX 25124 07434 12/00 00614 10120 20000 39750 40229 58003 60006 80000 91200=
07434,1997-10-25 15:00:00,13,1022,-0.6,41,0,40000,14.816,,,70,,,,,,,,,,,wg-a,,,,AAXX 25154 07434 12/82 00708 10130 20000 39744 40220 55006 60006 80000 91500=
07434,1997-10-25 18:00:00,9,1022.9,0.1,57,1,40000,18.52,,,70,4.2,13.5,,,,,,,,,wg-a,,,,AAXX 25184 07434 12/82 00710 10090 20010 39745 40229 53001 60006 80000 91800 333 10135 20042=
07434,1997-10-25 21:00:00,7,1023.4,0.1,61,0,500,25.928,,,80,,,,,,,,,,,wg-a,,,,AAXX 25214 07434 12/00 00814 10070 20000 39746 40234 51001 60006 80000 92100=
07434,1997-10-26 00:00:00,6,1022.9,-0.6,65,0,500,14.816,,,60,,,,,,,,,,,wg-a,,,,AAXX 26004 07434 12/00 00608 10060 20000 39740 40229 56006 60006 80000 90000=
07434,1997-10-26 03:00:00,6,1021.8,-1,61,-1,20000,11.112,,,70,,,,,,,,,,,wg-a,,,,AAXX 26034 07434 12/70 00706 10060 21010 39730 40218 58010 60006 80000 90300=
07434,1997-10-26 06:00:00,5,1021.6,-0.3,60,-2,50000,7.408,,,80,5.2,8.5,,,,,,,,,wg-a,,,,AAXX 26064 07434 02/84 00804 10050 21020 39727 40216 56003 60006 80000 90600 333 10085 20052 60004=
07434,1997-10-26 09:00:00,11,1020.9,0.3,47,0,50000,7.408,,,80,,,,,,,,,,,wg-a,,,,AAXX 26094 07434 12/84 00804 10110 20000 39730 40209 51003 60006 80000 90900=
07434,1997-10-26 12:00:00,18,1019,-0.7,39,4,40000,3.704,,,80,,,,,,,,,,,wg-a,,,,AAXX 26124 07434 12/82 00802 10180 20040 39723 40190 58007 60006 80000 91200=
07434,1997-10-26 15:00:00,19,1017.6,-1.2,46,7,40000,3.704,,,40,,,,,,,,,,,wg-a,,,,AAXX 26154 07434 12/82 00402 10190 20070 39711 40176 57012 60006 80000 91500=
07434,1997-10-26 18:00:00,13,1018.8,0.2,58,5,10000,14.816,,,70,5.2,19.6,,,,,,,,,wg-a,,,,AAXX 26184 07434 12/60 /0708 10130 20050 39713 40188 53002 60006 91800 333 10196 20052=
07434,1997-10-26 21:00:00,10,1019,-0.3,62,3,40000,11.112,,,60,,,,,,,,,,,wg-a,,,,AAXX 26214 07434 12/82 10606 10100 20030 39710 40190 56003 60006 80001 92100=
07434,1997-10-27 00:00:00,9,1018.7,-0.5,61,2,40000,7.408,,,60,,,,,,,,,,,wg-a,,,,AAXX 27004 07434 12/82 00604 10090 20020 39705 40187 58005 60006 80000 90000=
07434,1997-10-27 03:00:00,7,1018.2,-0.7,70,2,40000,7.408,,,60,,,,,,,,,,,wg-a,,,,AAXX 27034 07434 12/82 00604 10070 20020 39698 40182 56007 60006 80000 90300=
07434,1997-10-27 06:00:00,7,1017.6,-0.6,66,1,40000,11.112,,,50,6.4,12.7,,,,,,,,,wg-a,,,,AAXX 27064 07434 02/82 00506 10070 20010 39692 40176 57006 60006 80000 90600 333 10127 20064 60004=
07434,1997-10-27 09:00:00,12,1017.1,0.4,50,2,40000,18.52,,,70,,,,,,,,,,,wg-a,,,,AAXX 27094 07434 12/82 00710 10120 20020 39696 40171 51004 60006 80000 90900=
07434,1997-10-27 12:00:00,16,1015.7,-1.4,34,0,500,20.372,,,80,,,,,,,,,,,wg-a,,,,AAXX 27124 07434 12/00 00811 10160 20000 39688 40157 58014 60006 80000 91200=
07434,1997-10-27 18:00:00,10,1016,0.7,62,3,40000,29.632,,,70,6.9,17.2,,,,,,,,,wg-a,,,,AAXX 27184 07434 12/82 10716 10100 20030 39687 40160 53007 60006 80001 91800 333 10172 20069=
07434,1997-10-27 21:00:00,9,1016.8,0,61,2,10000,31.484,,,80,,,,,,,,,,,wg-a,,,,AAXX 27214 07434 12/60 /0817 10090 20020 39687 40168 50000 60006 92100=
07434,1997-10-28 00:00:00,7,1016.8,-0.2,70,2,40000,25.928,,,70,,,,,,,,,,,wg-a,,,,AAXX 28004 07434 12/82 10714 10070 20020 39685 40168 57002 60006 80001 90000=
07434,1997-10-28 03:00:00,5,1017,-0.2,81,2,500,22.224,,,70,,,,,,,,,,,wg-a,,,,AAXX 28034 07434 12/00 30712 10050 20020 39683 40170 58002 60006 80001 90300=
07434,1997-10-28 06:00:00,5,1017.2,0.1,70,0,20000,25.928,,,60,4.5,9.7,,,,,,,,,wg-a,,,,AAXX 28064 07434 02/70 40614 10050 20000 39684 40172 53001 60006 80002 90600 333 10097 20045 60004=
07434,1997-10-28 12:00:00,8,1018.8,0.7,49,-2,20000,25.928,,,70,,,,,,,,,,,wg-a,,,,AAXX 28124 07434 12/70 10714 10080 21020 39705 40188 51007 60006 80002 91200=
07434,1997-10-28 15:00:00,7,1020.8,1.6,53,-2,20000,25.928,,,40,,,,,,,,,,,wg-a,,,,AAXX 28154 07434 12/70 10414 10070 21020 39721 40208 53016 60006 80002 91500=
07434,1997-10-28 18:00:00,3,1024.3,2.7,65,-3,20000,29.632,,,70,2.6,8.4,,,,,,,,,wg-a,,,,AAXX 28184 07434 12/70 10716 10030 21030 39748 40243 51027 60006 80001 91800 333 10084 20026=
07434,1997-10-28 21:00:00,3,1025.4,1,52,-6,20000,25.928,,,80,,,,,,,,,,,wg-a,,,,AAXX 28214 07434 12/70 00814 10030 21060 39758 40254 52010 60006 80000 92100=
07434,1997-10-29 00:00:00,1,1026.2,0.5,51,-8,20000,25.928,,,70,,,,,,,,,,,wg-a,,,,AAXX 29004 07434 12/70 00714 10010 21080 39763 40262 51005 60006 80000 90000=
07434,1997-10-29 03:00:00,0,1026.7,0.3,55,-8,20000,22.224,,,70,,,,,,,,,,,wg-a,,,,AAXX 29034 07434 12/70 00712 10000 21080 39766 40267 50003 60006 80000 90300=
07434,1997-10-29 06:00:00,-1,1027.9,0.9,59,-8,15000,25.928,,,70,-1,2.8,,,,,,,,,wg-a,,,,AAXX 29064 07434 02/65 00714 11010 21080 39775 40279 51009 60006 80000 90600 333 10028 21010 60004=
07434,1997-10-29 09:00:00,2,1028.4,1.1,55,-6,40000,25.928,,,70,,,,,,,,,,,wg-a,,,,AAXX 29094 07434 12/82 00714 10020 21060 39786 40284 51011 60006 80000 90900=
07434,1997-10-29 12:00:00,8,1027.4,0.1,42,-4,40000,18.52,,,70,,,,,,,,,,,wg-a,,,,AAXX 29124 07434 12/82 00710 10080 21040 39787 40274 50001 60006 80000 91200=
07434,1997-10-29 15:00:00,9,1027.3,-0.1,46,-2,40000,18.52,,,30,,,,,,,,,,,wg-a,,,,AAXX 29154 07434 12/82 00310 10090 21020 39786 40273 55001 60006 80000 91500=
07434,1997-10-29 18:00:00,3,1028.9,0.7,60,-4,15000,18.52,,,50,-1.2,9.6,,,,,,,,,wg-a,,,,AAXX 29184 07434 12/65 00510 10030 21040 39793 40289 53007 60006 80000 91800 333 10096 21012=
07434,1997-10-29 21:00:00,2,1029.3,0.2,60,-5,15000,14.816,,,70,,,,,,,,,,,wg-a,,,,AAXX 29214 07434 12/65 00708 10020 21050 39795 40293 52002 60006 80000 92100=
07434,1997-10-30 00:00:00,2,1029,-0.4,55,-6,15000,18.52,,,70,,,,,,,,,,,wg-a,,,,AAXX 30004 07434 12/65 00710 10020 21060 39791 40290 55004 60006 80000 90000=
07434,1997-10-30 03:00:00,1,1028,-1,55,-7,15000,11.112,,,50,,,,,,,,,,,wg-a,,,,AAXX 30034 07434 12/65 00506 10010 21070 39781 40280 56010 60006 80000 90300=
07434,1997-10-30 06:00:00,2,1027.2,-0.7,47,-8,15000,18.52,,,70,-0.1,3.2,,,,,,,,,wg-a,,,,AAXX 30064 07434 02/65 00710 10020 21080 39774 40272 57007 60006 80000 90600 333 10032 21001 60004=
07434,1997-10-30 09:00:00,6,1026.8,0.3,36,-8,25000,3.704,,,70,,,,,,,,,,,wg-a,,,,AAXX 30094 07434 12/75 00702 10060 21080 39777 40268 51003 60006 80000 90900=
07434,1997-10-30 12:00:00,9,1025.2,-1,31,-7,500,14.816,,,20,,,,,,,,,,,wg-a,,,,AAXX 30124 07434 12/00 00208 10090 21070 39767 40252 58010 60006 80000 91200=
07434,1997-10-30 18:00:00,4,1026.6,1.1,52,-5,20000,18.52,,,20,1.7,9.6,,,,,,,,,wg-a,,,,AAXX 30184 07434 12/70 30210 10040 21050 39771 40266 53011 60006 80002 91800 333 10096 20017=
07434,1997-10-30 21:00:00,2,1026.7,-0.1,60,-5,20000,11.112,,,60,,,,,,,,,,,wg-a,,,,AAXX 30214 07434 12/70 10606 10020 21050 39770 40267 58001 60006 80001 92100=
07434,1997-10-31 00:00:00,3,1025.9,-0.7,52,-6,20000,18.52,,,40,,,,,,,,,,,wg-a,,,,AAXX 31004 07434 12/70 10410 10030 21060 39763 40259 58007 60006 80001 90000=
07434,1997-10-31 03:00:00,1,1026.2,-0.1,59,-6,20000,3.704,,,30,,,,,,,,,,,wg-a,,,,AAXX 31034 07434 12/70 10302 10010 21060 39762 40262 55001 60006 80001 90300=
07434,1997-10-31 06:00:00,1,1026.3,0.1,59,-6,20000,11.112,,,40,0,3.7,,,,,,,,,wg-a,,,,AAXX 31064 07434 02/70 20406 10010 21060 39763 40263 50001 60006 80001 90600 333 10037 20000 60004=
07434,1997-10-31 12:00:00,9,1024,-1.3,49,-1,20000,18.52,,,40,,,,,,,,,,,wg-a,,,,AAXX 31124 07434 12/70 20410 10090 21010 39756 40240 58013 60006 80001 91200=
07434,1997-10-31 15:00:00,9,1023.3,-0.6,46,-2,20000,18.52,,,30,,,,,,,,,,,wg-a,,,,AAXX 31154 07434 12/70 10310 10090 21020 39750 40233 56006 60006 80001 91500=
07434,1997-10-31 18:00:00,5,1024.9,0.7,65,-1,15000,14.816,,,30,0.7,10,,,,,,,,,wg-a,,,,AAXX 31184 07434 12/65 10308 10050 21010 39757 40249 53007 60006 80001 91800 333 10100 20007=
07434,1997-10-31 21:00:00,4,1024.5,-0.6,70,-1,15000,14.816,,,40,,,,,,,,,,,wg-a,,,,AAXX 31214 07434 12/65 10408 10040 21010 39751 40245 58006 60006 80001 92100=
07434,1997-11-01 00:00:00,2,1023.6,-1.1,69,-3,15000,18.52,,,60,,,,,,,,,,,wg-a,,,,AAXX 01004 07434 12/65 10610 10020 21030 39740 40236 56011 60006 80001 90000=
07434,1997-11-01 03:00:00,2,1022.4,-1.2,69,-3,10000,11.112,,,40,,,,,,,,,,,wg-a,,,,AAXX 01034 07434 12/60 00406 10020 21030 39728 40224 58012 60006 80000 90300=
07434,1997-11-01 06:00:00,0,1022.5,-0.2,80,-3,7000,7.408,,,80,-0.2,4.8,,,,,,,,,wg-a,,,,AAXX 01064 07434 02/57 /0804 10000 21030 39726 40225 57002 60006 80001 90600 333 10048 21002 60004=
07434,1997-11-01 09:00:00,2,1022.7,0.6,75,-2,4000,7.408,,,80,,,,,,,,,,10,wg-a,,,,AAXX 01094 07434 12/40 /0804 10020 21020 39732 40227 51006 60006 71000 80001 90900=
07434,1997-11-01 12:00:00,8,1021,-0.6,57,0,8000,11.112,,,160,,,,,,,,,,,wg-a,,,,AAXX 01124 07434 12/58 /1606 10080 20000 39726 40210 58006 60006 80001 91200=
07434,1997-11-01 15:00:00,11,1020.1,-0.5,43,-1,10000,3.704,,,170,,,,,,,,,,,wg-a,,,,AAXX 01154 07434 12/60 11702 10110 21010 39721 40201 56005 60006 80001 91500=
07434,1997-11-01 18:00:00,6,1020.8,-0.1,56,-2,10000,7.408,,,230,-0.8,10.7,,,,,,,,,wg-a,,,,AAXX 01184 07434 12/60 12304 10060 21020 39720 40208 58001 60006 80001 91800 333 10107 21008=
07434,1997-11-01 21:00:00,4,1021,-0.1,70,-1,8000,7.408,,,50,,,,,,,,,,,wg-a,,,,AAXX 01214 07434 12/58 /0504 10040 21010 39719 40210 55001 60006 92100=
07434,1997-11-02 00:00:00,3,1020.9,-0.4,75,-1,8000,11.112,,,50,,,,,,,,,,,wg-a,,,,AAXX 02004 07434 12/58 00506 10030 21010 39715 40209 58004 60006 80000 90000=
07434,1997-11-02 03:00:00,2,1019.8,-1.2,75,-2,8000,11.112,,,50,,,,,,,,,,,wg-a,,,,AAXX 02034 07434 12/58 00506 10020 21020 39703 40198 58012 60006 80000 90300=
07434,1997-11-02 06:00:00,1,1019.3,-0.5,80,-2,8000,11.112,,,50,0.6,5.7,,,,,,,,,wg-a,,,,AAXX 02064 07434 02/58 00506 10010 21020 39698 40193 58005 60006 80000 90600 333 10057 20006 60004=
07434,1997-11-02 12:00:00,14,1015.5,-1.5,41,1,9000,3.704,,,120,,,,,,,,,,,wg-a,,,,AAXX 02124 07434 12/59 01202 10140 20010 39683 40155 58015 60006 80000 91200=
07434,1997-11-02 15:00:00,16,1013,-2.1,25,-4,15000,3.704,,,120,,,,,,,,,,,wg-a,,,,AAXX 02154 07434 12/65 01202 10160 21040 39662 40130 57021 60006 80000 91500=
07434,1997-11-02 18:00:00,12,1013.3,-0.4,35,-3,15000,11.112,,,50,1.1,16.5,,,,,,,,,wg-a,,,,AAXX 02184 07434 12/65 20506 10120 21030 39658 40133 55004 60006 80002 91800 333 10165 20011=
07434,1997-11-02 21:00:00,8,1013.8,-0.1,53,-1,15000,7.408,,,60,,,,,,,,,,,wg-a,,,,AAXX 02214 07434 12/65 20604 10080 21010 39657 40138 57001 60006 80002 92100=
07434,1997-11-03 00:00:00,7,1013,-0.9,57,-1,15000,11.112,,,80,,,,,,,,,,,wg-a,,,,AAXX 03004 07434 12/65 20806 10070 21010 39648 40130 57009 60006 80002 90000=
07434,1997-11-03 06:00:00,7,1010.7,-0.8,81,4,15000,11.112,,,60,5.9,11.8,,,,,,,,,wg-a,,,,AAXX 03064 07434 02/65 10606 10070 20040 39626 40107 58008 60006 80002 90600 333 10118 20059 60004=
07434,1997-11-03 09:00:00,13,1008.7,-0.9,67,7,20000,18.52,,,130,,,,,,,,,,,wg-a,,,,AAXX 03094 07434 12/70 21310 10130 20070 39617 40087 56009 60006 80002 90900=
07434,1997-11-03 15:00:00,17,1005,-1.4,55,8,40000,22.224,,,150,,,,,,,,,,,wg-a,,,,AAXX 03154 07434 12682 51512 10170 20080 39589 40050 56014 60006 83132 91500=
07434,1997-11-03 18:00:00,14,1005.4,-0.2,67,8,40000,14.816,,,150,7,17.8,,,,,,,,,wg-a,,,,AAXX 03184 07434 12/82 61508 10140 20080 39587 40054 55002 60006 82032 91800 333 10178 20070=
07434,1997-11-03 21:00:00,13,1005.3,-0.3,72,8,500,14.816,,,140,,,,,,,,,,,wg-a,,,,AAXX 03214 07434 12500 /1408 10130 20080 39584 40053 57003 60006 84532 92100=
07434,1997-11-04 00:00:00,12,1004.3,-1,82,9,15000,11.112,,,130,,,,,,,,,,,wg-a,,,,AAXX 04004 07434 12565 71306 10120 20090 39574 40043 57010 60006 85532 90000=
07434,1997-11-04 03:00:00,12,1003.6,-0.7,88,10,15000,11.112,,,110,,,,0,,,,,,,wg-a,,,,AAXX 04034 07434 12565 71106 10120 20100 39567 40036 58007 60007 85532 90300=
07434,1997-11-04 06:00:00,13,1003.8,0.4,82,10,20000,14.816,,,160,11.6,13.7,,,,,,,,3,wg-a,,,,AAXX 04064 07434 02570 /1608 10130 20100 39571 40038 53004 60006 70362 86530 90600 333 10137 20116 60004=
07434,1997-11-04 12:00:00,14,1005.9,0.6,88,12,20000,14.816,,,190,,,,0,,,,,,21,wg-a,,,,AAXX 04124 07434 02270 81908 10140 20120 39593 40059 50006 60016 72165 875// 91200 333 60007=
07434,1997-11-04 18:00:00,11,1008.3,1.3,100,11,4000,11.112,,,210,10.9,14,,,,,,,,10,wg-a,,,,AAXX 04184 07434 02140 82106 10110 20110 39611 40083 53013 61000 71064 877// 91800 333 10140 20109 6004=
07434,1997-11-04 21:00:00,11,1008.2,-0.1,100,11,1200,7.408,,,150,,,,2,,,,,,10,wg-a,,,,AAXX 04214 07434 12112 81504 10110 20110 39610 40082 55001 60027 71062 887// 92100=
07434,1997-11-05 00:00:00,10,1008.3,-0.1,100,10,6000,7.408,,,160,,,,0,,,,,,3,wg-a,,,,AAXX 05004 07434 02156 81604 10100 20100 39609 40083 57001 60026 70362 887// 90000 333 60007=
07434,1997-11-05 03:00:00,10,1007.4,-0.9,93,9,200,7.408,,,160,,,,,,,,,,47,wg-a,,,,AAXX 05034 07434 12/02 91604 10100 20090 39600 40074 57009 60006 74742 89/// 90300=
07434,1997-11-05 06:00:00,9,1006.3,-1.1,100,9,400,11.112,,,130,9.2,10.9,,,,,19,,,45,wg-a,,,,AAXX 05064 07434 02/04 91306 10090 20090 39589 40063 57011 60006 74542 89/// 90600 333 10109 20092 60194=
07434,1997-11-05 12:00:00,14,1001.1,-2.7,77,10,500,14.816,,,170,,,,,,,,,,1,wg-a,,,,AAXX 05124 07434 12/00 71708 10140 20100 39547 40011 58027 60006 70142 81035 91200=
07434,1997-11-05 15:00:00,14,997.9,-3.1,72,9,35000,7.408,,,150,,,,,,,,,,,wg-a,,,,AAXX 05154 07434 12/81 81504 10140 20090 39516 49979 58031 60006 84077 91500=
07434,1997-11-05 18:00:00,11,996.8,-1.4,94,10,8000,11.112,,,240,9.1,14.2,,,,,,,,61,wg-a,,,,AAXX 05184 07434 02258 82406 10110 20100 39502 49968 55014 61000 76162 878// 91800 333 10142 20091 6008=
07434,1997-11-05 21:00:00,11,996,-0.8,100,11,4000,14.816,,,210,,,,1,,,,,,10,wg-a,,,,AAXX 05214 07434 12140 82108 10110 20110 39494 49960 55008 60017 71065 877// 92100=
07434,1997-11-06 00:00:00,11,994.6,-1.4,94,10,0,3.704,,,190,,,,,,,,,,,wg-a,,,,AAXX 06004 07434 12/// /1902 10110 20100 39480 49946 58014 60016 90000=
07434,1997-11-06 03:00:00,11,990.1,-4.3,100,11,3000,3.704,,,10,,,,5,,,,,,10,wg-a,,,,AAXX 06034 07434 12130 80102 10110 20110 39437 49901 58043 60057 71062 878// 90300=
07434,1997-11-06 06:00:00,10,989.9,-0.4,93,9,4000,11.112,,,30,9.2,11.6,,,,,,,,10,wg-a,,,,AAXX 06064 07434 02240 80306 10100 20090 39433 49899 56004 61000 71065 875// 90600 333 10116 20092 6021=
07434,1997-11-06 12:00:00,10,985.6,-3.7,93,9,15000,18.52,,,30,,,,3,,,,,,60,wg-a,,,,AAXX 06124 07434 02265 80310 10100 20090 39392 49856 58037 60066 76066 875// 91200 333 60037=
07434,1997-11-06 15:00:00,9,982,-3.5,100,9,4000,18.52,,,10,,,,3,,,,,,61,wg-a,,,,AAXX 06154 07434 12140 80110 10090 20090 39357 49820 58035 60037 76162 877// 91500=
07434,1997-11-06 18:00:00,9,986.5,4.2,93,8,13000,25.928,,53.708,360,8.4,9.7,,,,,,,,21,wg-a,,,,AAXX 06184 07434 02163 83614 10090 20080 39399 49865 50042 61000 72196 877// 91800 333 10097 20084 6012 91029=
07434,1997-11-06 21:00:00,8,992.9,5.9,93,7,500,14.816,,,290,,,,1,,,,,,58,wg-a,,,,AAXX 06214 07434 12100 72908 10080 20070 39458 49929 51059 60017 75865 877// 92100=
07434,1997-11-07 00:00:00,7,995,2,100,7,10000,11.112,,,210,,,,0,,,,,,1,wg-a,,,,AAXX 07004 07434 02160 82106 10070 20070 39478 49950 53020 60016 70165 887// 90000 333 60007=
07434,1997-11-07 03:00:00,8,996.8,1.8,93,7,10000,18.52,,,210,,,,1,,,,,,,wg-a,,,,AAXX 07034 07434 12160 82110 10080 20070 39496 49968 51018 60017 886// 90300=
07434,1997-11-07 06:00:00,8,998.3,1.4,93,7,15000,18.52,,,200,7.3,8.6,,,,,22,,,,wg-a,,,,AAXX 07064 07434 02165 72010 10080 20070 39510 49983 51014 60006 876// 90600 333 10086 20073 60224=
07434,1997-11-07 09:00:00,8,1000.2,1.9,100,8,15000,22.224,,,190,,,,,,,,,,,wg-a,,,,AAXX 07094 07434 12265 71912 10080 20080 39529 40002 51019 60006 87100 90900=
07434,1997-11-07 12:00:00,11,998.9,-0.9,82,8,11000,22.224,,,200,,,,,,,,,,,wg-a,,,,AAXX 07124 07434 12/61 /2012 10110 20080 39520 49989 58009 60006 91200=
07434,1997-11-07 18:00:00,9,997.7,-0,87,7,25000,14.816,,,170,7.7,12.3,,,,,,,,,wg-a,,,,AAXX 07184 07434 12775 61708 10090 20070 39506 49977 55000 60006 82532 91800 333 10123 20077=
07434,1997-11-08 00:00:00,10,997.7,0.7,93,9,10000,22.224,,,230,,,,3,,,,,,25,wg-a,,,,AAXX 08004 07434 02260 82312 10100 20090 39508 49977 53007 60046 72586 875// 90000 333 60037=
07434,1997-11-08 03:00:00,10,1000.2,2.3,93,9,13000,25.928,,,250,,,,1,,,,,,25,wg-a,,,,AAXX 08034 07434 12363 72514 10100 20090 39531 40002 52023 60017 72522 878// 90300=
07434,1997-11-08 06:00:00,9,1003.1,2.6,93,8,13000,18.52,,,220,8.4,10.7,,,,,6,,,1,wg-a,,,,AAXX 08064 07434 02363 72210 10090 20080 39557 40031 52026 60006 70186 878// 90600 333 10107 20084 60064=
07434,1997-11-08 09:00:00,9,1005.6,2.4,93,8,500,18.52,,,220,,,,0,,,,,,3,wg-a,,,,AAXX 08094 07434 12200 72210 10090 20080 39581 40056 51024 60007 70386 8683/ 90900=
07434,1997-11-08 12:00:00,12,1004.9,-0.2,82,9,20000,25.928,,,210,,,,,,,,,,1,wg-a,,,,AAXX 08124 07434 12470 72114 10120 20090 39579 40049 58002 60006 70186 85801 91200=
07434,1997-11-08 15:00:00,12,1002.8,-2,76,8,500,29.632,,,190,,,,,,,,,,,wg-a,,,,AAXX 08154 07434 12400 71916 10120 20080 39559 40028 58020 60006 85801 91500=
07434,1997-11-08 18:00:00,11,1000.9,-1.9,82,8,25000,25.928,,,180,7.5,12.4,,,,,,,,,wg-a,,,,AAXX 08184 07434 12775 81814 10110 20080 39540 40009 56019 60006 8457/ 91800 333 10124 20075=
07434,1997-11-08 21:00:00,9,1000.4,-0.8,93,8,10000,25.928,,,190,,,,2,,,,,,61,wg-a,,,,AAXX 08214 07434 12560 81914 10090 20080 39532 40004 58008 60027 76162 8652/ 92100=
07434,1997-11-09 00:00:00,10,1000.2,-0.1,93,9,10000,18.52,,,210,,,,6,,,,,,63,wg-a,,,,AAXX 09004 07434 02260 72110 10100 20090 39531 40002 55001 60086 76362 875// 90000 333 60067=
07434,1997-11-09 03:00:00,9,1000.3,0,93,8,11000,25.928,,,220,,,,,,,,,,25,wg-a,,,,AAXX 09034 07434 32/61 /2214 10090 20080 39531 40003 50000 72586 90300=
07434,1997-11-09 06:00:00,7,1002.1,1.3,93,6,6000,22.224,,,220,6.7,11,,,,,,,,25,wg-a,,,,AAXX 09064 07434 02456 72212 10070 20060 39544 40021 53013 61000 72586 8587/ 90600 333 10110 20067 6015=
07434,1997-11-09 09:00:00,7,1004,1.9,93,6,10000,29.632,,,220,,,,1,,,,,,25,wg-a,,,,AAXX 09094 07434 12460 72216 10070 20060 39563 40040 51019 60017 72586 873// 90900=
07434,1997-11-09 12:00:00,10,1003.1,-0.5,76,6,11000,38.892,,48.152,230,,,,1,,,,,,,wg-a,,,,AAXX 09124 07434 02/61 /2321 10100 20060 39558 40031 58005 60016 91200 333 60017 91026=
07434,1997-11-09 15:00:00,9,1002.6,-0.6,87,7,500,35.188,,,220,,,,1,,,,,,3,wg-a,,,,AAXX 09154 07434 12400 72219 10090 20070 39552 40026 56006 60017 70386 879// 91500=
07434,1997-11-09 18:00:00,7,1005.2,,87,5,7000,25.928,,,240,,10.4,,,,,,,,80,wg-a,,,,AAXX 09184 07434 02557 72414 10070 20050 39574 40052 61000 78098 879// 91800 333 10104 6002=
07434,1997-11-09 21:00:00,7,1006.1,0.9,93,6,20000,25.928,,50.004,210,,,,5,,,,,,21,wg-a,,,,AAXX 09214 07434 12370 72114 10070 20060 39583 40061 51009 60057 72186 876// 92100 333 91027=
07434,1997-11-10 00:00:00,7,1006.1,-0.1,93,6,12000,18.52,,,210,,,,0,,,,,,61,wg-a,,,,AAXX 10004 07434 02462 72110 10070 20060 39582 40061 57001 60066 76186 878// 90000 333 60007=
07434,1997-11-10 03:00:00,7,1004.7,-1.2,93,6,20000,18.52,,,210,,,,0,,,,,,1,wg-a,,,,AAXX 10034 07434 12470 72110 10070 20060 39570 40047 58012 60007 70162 878// 90300=
07434,1997-11-10 06:00:00,7,1003.2,-1.5,93,6,20000,25.928,,,200,6.4,7.5,,,,,,,,25,wg-a,,,,AAXX 10064 07434 02370 72014 10070 20060 39555 40032 58015 61000 72562 86801 90600 333 10075 20064 6009=
07434,1997-11-10 09:00:00,7,1003.8,0.6,93,6,15000,25.928,,,210,,,,7,,,,,,25,wg-a,,,,AAXX 10094 07434 12465 72114 10070 20060 39561 40038 52006 60077 72586 8687/ 90900=
07434,1997-11-10 12:00:00,8,1004,0.3,87,6,20000,29.632,,,220,,,,0,,,,,,80,wg-a,,,,AAXX 10124 07434 02470 72216 10080 20060 39564 40040 52003 60076 78086 8687/ 91200 333 60007=
07434,1997-11-10 15:00:00,7,1004.1,-0,93,6,20000,18.52,,,220,,,,3,,,,,,25,wg-a,,,,AAXX 10154 07434 12570 52210 10070 20060 39564 40041 55000 60037 72586 85802 91500=
07434,1997-11-10 18:00:00,7,1004.9,0.7,87,5,500,22.224,,,220,5.9,8,,,,,,,,2,wg-a,,,,AAXX 10184 07434 12400 52212 10070 20050 39571 40049 53007 60006 70286 85932 91800 333 10080 20059=
07434,1997-11-10 21:00:00,6,1003.6,-1.4,93,5,10000,14.816,,,180,,,,0,,,,,,25,wg-a,,,,AAXX 10214 07434 12460 71808 10060 20050 39557 40036 58014 60007 72586 879// 92100=
07434,1997-11-11 00:00:00,6,1001.4,-2.1,93,5,12000,18.52,,,160,,,,,,,,,,60,wg-a,,,,AAXX 11004 07434 02462 81610 10060 20050 39536 40014 58021 60006 76086 878// 90000 333 61000=
07434,1997-11-11 03:00:00,6,1000.4,-0.9,100,6,8000,18.52,,,200,,,,3,,,,,,61,wg-a,,,,AAXX 11034 07434 12258 82010 10060 20060 39527 40004 56009 60037 76162 877// 90300=
07434,1997-11-11 06:00:00,7,999.6,-0.7,93,6,10000,22.224,,,190,5.7,6.8,,,,,,,,61,wg-a,,,,AAXX 11064 07434 02360 81912 10070 20060 39520 49996 58007 61000 76162 878// 90600 333 10068 20057 6013=
07434,1997-11-11 12:00:00,7,998.6,-1.1,93,6,8000,14.816,,,190,,,,1,,,,,,61,wg-a,,,,AAXX 11124 07434 02258 71908 10070 20060 39512 49986 58011 60026 76162 878// 91200 333 60017=
07434,1997-11-11 15:00:00,7,997.6,-1.1,93,6,8000,14.816,,,220,,,,3,,,,,,61,wg-a,,,,AAXX 11154 07434 12258 72208 10070 20060 39501 49976 56011 60037 76166 878// 91500=
07434,1997-11-11 18:00:00,6,998,0.3,93,5,10000,11.112,,,190,5.9,7.5,,,,,,,,21,wg-a,,,,AAXX 11184 07434 02260 71906 10060 20050 39504 49980 53003 61000 72162 878// 91800 333 10075 20059 6000=
07434,1997-11-11 21:00:00,6,998.8,0.8,93,5,8000,11.112,,,200,,,,,,,,,,,wg-a,,,,AAXX 11214 07434 12258 72006 10060 20050 39512 49988 53008 60006 878// 92100=
07434,1997-11-12 00:00:00,6,998.3,-0.5,100,6,4000,11.112,,,210,,,,0,,,,,,10,wg-a,,,,AAXX 12004 07434 02140 82106 10060 20060 39507 49983 58005 60016 71052 877// 90000 333 60007=
07434,1997-11-12 03:00:00,6,999.2,0.8,93,5,8000,7.408,,,210,,,,,,,,,,1,wg-a,,,,AAXX 12034 07434 02258 72104 10060 20050 39515 49992 51008 61000 70152 876// 90300 333 ////=
07434,1997-11-12 06:00:00,6,1000.3,1,93,5,3000,7.408,,,190,5.6,6.3,,,,,,,,58,wg-a,,,,AAXX 12064 07434 02130 81904 10060 20050 39525 40003 53010 61000 75865 877// 90600 333 10063 20056 6006=
07434,1997-11-12 09:00:00,6,1002.3,2,100,6,15000,14.816,,,200,,,,0,,,,,,60,wg-a,,,,AAXX 12094 07434 12265 82008 10060 20060 39545 40023 53020 60007 76065 877// 90900=
07434,1997-11-12 12:00:00,7,1003.4,1.2,93,6,8000,7.408,,,250,,,,1,,,,,,61,wg-a,,,,AAXX 12124 07434 02258 82504 10070 20060 39557 40034 51012 60016 76165 877// 91200 333 60017=
07434,1997-11-12 18:00:00,6,1007.3,2.2,93,5,12000,7.408,,,290,5.7,7.7,,0,,,,,,3,wg-a,,,,AAXX 12184 07434 02262 72904 10060 20050 39592 40073 52022 60006 70362 875// 91800 333 10077 20057 60007=
07434,1997-11-12 21:00:00,6,1008.9,1.5,93,5,3000,7.408,,,210,,,,0,,,,,,10,wg-a,,,,AAXX 12214 07434 12130 82104 10060 20050 39607 40089 51015 60007 71022 886// 92100=
07434,1997-11-13 00:00:00,6,1009,0.1,100,6,900,11.112,,,210,,,,,,,,,,42,wg-a,,,,AAXX 13004 07434 12109 82106 10060 20060 39608 40090 50001 60006 74242 886// 90000=
07434,1997-11-13 03:00:00,6,1008.4,-0.6,93,5,8000,14.816,,,230,,,,,,,,,,1,wg-a,,,,AAXX 13034 07434 12158 82308 10060 20050 39602 40084 58006 60006 70142 886// 90300=
07434,1997-11-13 06:00:00,6,1008,-0.4,93,5,10000,7.408,,,200,5.5,6.1,,,,,2,,,1,wg-a,,,,AAXX 13064 07434 02160 82004 10060 20050 39598 40080 57004 60006 70142 886// 90600 333 10061 20055 60024=
07434,1997-11-13 09:00:00,6,1008.3,0.4,100,6,12000,11.112,,,180,,,,,,,,,,,wg-a,,,,AAXX 13094 07434 12162 81806 10060 20060 39602 40083 53004 60006 886// 90900=
07434,1997-11-13 12:00:00,7,1007.8,-0.3,93,6,20000,11.112,,,180,,,,,,,,,,,wg-a,,,,AAXX 13124 07434 12270 81806 10070 20060 39599 40078 58003 60006 886// 91200=
07434,1997-11-13 15:00:00,8,1007.4,-0.2,87,6,20000,3.704,,,150,,,,,,,,,,21,wg-a,,,,AAXX 13154 07434 02370 71502 10080 20060 39597 40074 55002 61000 72162 878// 91500 333 ////=
07434,1997-11-13 18:00:00,6,1008.8,0.9,93,5,20000,3.704,,,220,5.6,7.9,,,,,,,,1,wg-a,,,,AAXX 13184 07434 12470 /2202 10060 20050 39606 40088 53009 60006 70162 81801 91800 333 10079 20056=
07434,1997-11-13 21:00:00,6,1010.2,1.4,100,6,4000,0,,,0,,,,,,,,,,10,wg-a,,,,AAXX 13214 07434 12740 70000 10060 20060 39620 40102 52014 60006 71022 875// 92100=
07434,1997-11-14 00:00:00,4,1012,1.3,100,4,400,7.408,,,40,,,,,,,,,,42,wg-a,,,,AAXX 14004 07434 12104 70404 10040 20040 39633 40120 52013 60006 74241 8263/ 90000=
07434,1997-11-14 03:00:00,4,1012.5,0.6,100,4,300,3.704,,,130,,,,,,,,,,45,wg-a,,,,AAXX 14034 07434 12/03 91302 10040 20040 39639 40125 53006 60006 74544 89/// 90300=
07434,1997-11-14 06:00:00,4,1014.2,1.6,100,4,100,7.408,,,110,3.5,6,,,,,,,,45,wg-a,,,,AAXX 14064 07434 02/01 91104 10040 20040 39655 40142 53016 60006 74544 89/// 90600 333 10060 20035 61000=
07434,1997-11-14 09:00:00,5,1015.8,1.6,93,4,100,7.408,,,100,,,,,,,,,,45,wg-a,,,,AAXX 14094 07434 12/01 91004 10050 20040 39671 40158 53016 60006 74544 89/// 90900=
07434,1997-11-14 12:00:00,6,1016.7,1,93,5,2000,7.408,,,130,,,,,,,,,,10,wg-a,,,,AAXX 14124 07434 12220 71304 10060 20050 39681 40167 50010 60006 71042 876// 91200=
07434,1997-11-14 15:00:00,9,1016.4,0.4,87,7,12000,3.704,,,120,,,,,,,,,,,wg-a,,,,AAXX 14154 07434 12462 31202 10090 20070 39685 40164 53004 60006 82201 91500=
07434,1997-11-14 18:00:00,7,1018.2,1.2,93,6,10000,3.704,,,180,4.3,9.5,,,,,,,,,wg-a,,,,AAXX 14184 07434 12/60 /1802 10070 20060 39697 40182 53012 60006 91800 333 10095 20043=
07434,1997-11-15 00:00:00,5,1020.4,0.5,100,5,4000,3.704,,,80,,,,,,,,,,10,wg-a,,,,AAXX 15004 07434 12540 70802 10050 20050 39715 40204 51005 60006 71041 875// 90000=
07434,1997-11-15 03:00:00,5,1020.7,0.3,93,4,6000,7.408,,,80,,,,,,,,,,,wg-a,,,,AAXX 15034 07434 12456 70804 10050 20040 39718 40207 50003 60006 875// 90300=
07434,1997-11-15 06:00:00,5,1021.5,0.7,93,4,10000,3.704,,,110,4.4,6.6,,,,,,,,,wg-a,,,,AAXX 15064 07434 02660 31102 10050 20040 39725 40215 52007 60006 81501 90600 333 10066 20044 60004=
07434,1997-11-15 09:00:00,7,1021.6,0.6,87,5,10000,7.408,,,140,,,,,,,,,,,wg-a,,,,AAXX 15094 07434 12660 31404 10070 20050 39731 40216 51006 60006 81501 90900=
07434,1997-11-15 12:00:00,12,1020.6,-0.2,82,9,20000,14.816,,,200,,,,,,,,,,,wg-a,,,,AAXX 15124 07434 12670 62008 10120 20090 39729 40206 58002 60006 84501 91200=
07434,1997-11-15 15:00:00,12,1020.2,-0.4,82,9,20000,11.112,,,190,,,,,,,,,,,wg-a,,,,AAXX 15154 07434 12570 71906 10120 20090 39725 40202 55004 60006 8653/ 91500=
07434,1997-11-15 18:00:00,11,1020.4,0.1,87,9,20000,3.704,,,140,4.3,12.1,,,,,,,,,wg-a,,,,AAXX 15184 07434 12570 71402 10110 20090 39726 40204 53001 60006 8653/ 91800 333 10121 20043=
07434,1997-11-15 21:00:00,9,1020.2,-0.5,93,8,15000,7.408,,,90,,,,,,,,,,,wg-a,,,,AAXX 15214 07434 12565 40904 10090 20080 39721 40202 56005 60006 81532 92100=
07434,1997-11-16 00:00:00,8,1020.1,-0.4,93,7,10000,7.408,,,90,,,,,,,,,,,wg-a,,,,AAXX 16004 07434 12/60 40904 10080 20070 39717 40201 56004 60006 81032 90000=
07434,1997-11-16 03:00:00,7,1019.3,-0.8,100,7,9000,7.408,,,80,,,,,,,,,,,wg-a,,,,AAXX 16034 07434 12/59 /0804 10070 20070 39709 40193 57008 60006 80002 90300=
07434,1997-11-16 06:00:00,6,1018.7,-0.7,100,6,15000,7.408,,,60,6.4,10.9,,,,,,,,,wg-a,,,,AAXX 16064 07434 02/65 40604 10060 20060 39702 40187 56007 60006 80002 90600 333 10109 20064 60004=
07434,1997-11-16 09:00:00,9,1018.3,0.1,93,8,9000,7.408,,,90,,,,0,,,,,,11,wg-a,,,,AAXX 16094 07434 12/59 40904 10090 20080 39703 40183 52001 60007 71100 81032 90900=
07434,1997-11-16 12:00:00,15,1016.2,-1.1,63,8,40000,7.408,,,120,,,,,,,,,,,wg-a,,,,AAXX 16124 07434 12/82 51204 10150 20080 39692 40162 58011 60006 81032 91200=
07434,1997-11-16 15:00:00,16,1015.4,-0.6,63,9,40000,3.704,,,150,,,,,,,,,,,wg-a,,,,AAXX 16154 07434 12/82 61502 10160 20090 39686 40154 56006 60006 81032 91500=
07434,1997-11-16 18:00:00,13,1016.6,0.6,77,9,10000,0,,,0,6.2,16.4,,,,,,,,,wg-a,,,,AAXX 16184 07434 12/60 50000 10130 20090 39692 40166 52006 60006 82031 91800 333 10164 20062=
07434,1997-11-16 21:00:00,11,1016.8,-0,87,9,10000,3.704,,,70,,,,,,,,,,,wg-a,,,,AAXX 16214 07434 12/60 50702 10110 20090 39692 40168 55000 60006 82031 92100=
07434,1997-11-17 00:00:00,11,1016.9,0,87,9,15000,0,,,0,,,,,,,,,,,wg-a,,,,AAXX 17004 07434 12865 50000 10110 20090 39692 40169 50000 60006 85031 90000=
07434,1997-11-17 03:00:00,9,1016.5,-0.7,93,8,15000,7.408,,,70,,,,,,,,,,,wg-a,,,,AAXX 17034 07434 12865 40704 10090 20080 39685 40165 57007 60006 83031 90300=
07434,1997-11-17 06:00:00,9,1016.5,0,93,8,15000,7.408,,,50,8,12.6,,,,,,,,,wg-a,,,,AAXX 17064 07434 02865 30504 10090 20080 39685 40165 50000 60006 82031 90600 333 10126 20080 60004=
07434,1997-11-17 09:00:00,10,1015.6,-0.6,87,8,8000,14.816,,,90,,,,,,,,,,40,wg-a,,,,AAXX 17094 07434 12/58 /0908 10100 20080 39679 40156 58006 60006 74011 81032 90900=
07434,1997-11-17 12:00:00,15,1012.5,-2.2,77,11,500,7.408,,,100,,,,,,,,,,,wg-a,,,,AAXX 17124 07434 12/00 71004 10150 20110 39657 40125 58022 60006 81032 91200=
07434,1997-11-17 15:00:00,16,1011,-1.2,72,11,60000,0,,,0,,,,,,,,,,,wg-a,,,,AAXX 17154 07434 12/86 70000 10160 20110 39645 40110 56012 60006 84038 91500=
07434,1997-11-17 18:00:00,15,1010.5,-0.8,77,11,25000,7.408,,,130,8.2,17.4,,,,,,,,,wg-a,,,,AAXX 17184 07434 12/75 61304 10150 20110 39637 40105 56008 60006 81038 91800 333 10174 20082=
07434,1997-11-17 21:00:00,13,1008.5,-2.1,88,11,10000,11.112,,,110,,,,,,,,,,,wg-a,,,,AAXX 17214 07434 12/60 61106 10130 20110 39616 40085 57021 60006 8603/ 92100=
07434,1997-11-18 00:00:00,13,1007.5,-1,82,10,10000,11.112,,,150,,,,,,,,,,,wg-a,,,,AAXX 18004 07434 12760 61506 10130 20100 39606 40075 56010 60006 86500 90000=
07434,1997-11-18 06:00:00,11,1006.9,0.2,82,8,10000,18.52,,,150,10.7,14.5,,,,,,,,,wg-a,,,,AAXX 18064 07434 02760 51510 10110 20080 39597 40069 53002 60006 82531 90600 333 10145 20107 60004=
07434,1997-11-18 09:00:00,12,1007.6,0.8,76,8,20000,22.224,,,170,,,,,,,,,,,wg-a,,,,AAXX 18094 07434 12/70 71712 10120 20080 39605 40076 53008 60006 86032 90900=
07434,1997-11-18 12:00:00,12,1007.8,0.3,88,10,15000,14.816,,,180,,,,0,,,,,,21,wg-a,,,,AAXX 18124 07434 02665 81808 10120 20100 39608 40078 53003 60016 72162 8657/ 91200 333 60007=
07434,1997-11-18 15:00:00,12,1007.8,-0.1,88,10,10000,11.112,,,170,,,,1,,,,,,61,wg-a,,,,AAXX 18154 07434 12460 81706 10120 20100 39607 40078 55001 60017 76162 8552/ 91500=
07434,1997-11-18 18:00:00,11,1008.2,0.2,94,10,4000,14.816,,,180,10.6,12.6,,,,,,,,10,wg-a,,,,AAXX 18184 07434 02140 81808 10110 20100 39609 40082 52002 61000 71062 875// 91800 333 10126 20106 6006=
07434,1997-11-19 00:00:00,11,1006,-1.2,100,11,700,7.408,,,200,,,,,,,,,,43,wg-a,,,,AAXX 19004 07434 12/07 92004 10110 20110 39589 40060 56012 60036 74365 89/// 90000=
07434,1997-11-19 06:00:00,9,1003.3,-1.3,100,9,400,7.408,,,200,9.4,10.8,,,,,10,,,45,wg-a,,,,AAXX 19064 07434 02004 92004 10090 20090 39560 40033 56013 60006 74542 896// 90600 333 10108 20094 60104=
07434,1997-11-19 09:00:00,9,1003.5,0.1,100,9,300,11.112,,,170,,,,,,,,,,45,wg-a,,,,AAXX 19094 07434 12/03 91706 10090 20090 39561 40035 53001 60006 74544 89/// 90900=
07434,1997-11-19 12:00:00,10,1003,-0.2,100,10,9000,11.112,,,170,,,,1,,,,,,21,wg-a,,,,AAXX 19124 07434 02259 71706 10100 20100 39559 40030 58002 60016 72164 8673/ 91200 333 60017=
07434,1997-11-19 15:00:00,11,1002.3,-0.5,94,10,20000,11.112,,,180,,,,,,,,,,,wg-a,,,,AAXX 19154 07434 12370 71806 10110 20100 39554 40023 57005 60006 8483/ 91500=
07434,1997-11-19 18:00:00,10,1003,0.5,93,9,10000,14.816,,,220,8.4,11.2,,,,,,,,25,wg-a,,,,AAXX 19184 07434 02460 72208 10100 20090 39559 40030 53005 61000 72586 8583/ 91800 333 10112 20084 6100=
07434,1997-11-19 21:00:00,9,1003.6,0.4,93,8,12000,14.816,,,220,,,,0,,,,,,25,wg-a,,,,AAXX 19214 07434 12262 72208 10090 20080 39563 40036 52004 60007 72586 878// 92100=
07434,1997-11-20 00:00:00,8,1003.1,-0.6,100,8,2500,11.112,,,180,,,,0,,,,,,10,wg-a,,,,AAXX 20004 07434 02125 71806 10080 20080 39557 40031 56006 60016 71086 876// 90000 333 60007=
07434,1997-11-20 03:00:00,9,1001,-2,93,8,6000,22.224,,,180,,,,,,,,,,,wg-a,,,,AAXX 20034 07434 12256 71812 10090 20080 39537 40010 56020 60006 877// 90300=
07434,1997-11-20 06:00:00,8,1000.9,-0.1,93,7,8000,22.224,,,200,8,10.6,,,,,,,,61,wg-a,,,,AAXX 20064 07434 02458 82012 10080 20070 39536 40009 55001 61000 76162 878// 90600 333 10106 20080 6002=
07434,1997-11-20 09:00:00,8,1001.7,0.7,100,8,6000,18.52,,,210,,,,,,,,,,,wg-a,,,,AAXX 20094 07434 32/56 /2110 10080 20080 39543 40017 53007 90900=
07434,1997-11-20 12:00:00,11,1002.1,0.8,71,6,25000,29.632,,,240,,,,1,,,,,,1,wg-a,,,,AAXX 20124 07434 02475 /2416 10110 20060 39551 40021 50008 60066 70186 86830 91200 333 60017=
07434,1997-11-20 15:00:00,9,1003.6,1.1,81,6,25000,29.632,,,240,,,,1,,,,,,25,wg-a,,,,AAXX 20154 07434 12475 /2416 10090 20060 39562 40036 53011 60017 72586 86830 91500=
07434,1997-11-20 18:00:00,8,1006.3,2.4,93,7,15000,18.52,,,230,7.9,11.2,,,,,,,,2,wg-a,,,,AAXX 20184 07434 12465 /2310 10080 20070 39586 40063 53024 60006 70286 86800 91800 333 10112 20079=
07434,1997-11-20 21:00:00,7,1008.2,1.7,93,6,500,11.112,,,240,,,,2,,,,,,80,wg-a,,,,AAXX 20214 07434 12100 72406 10070 20060 39603 40082 52017 60027 78086 878// 92100=
07434,1997-11-21 00:00:00,6,1008.7,0.3,100,6,1100,7.408,,,180,,,,1,,,,,,10,wg-a,,,,AAXX 21004 07434 02111 /1804 10060 20060 39606 40087 52003 60046 71086 86700 90000 333 60017=
07434,1997-11-21 03:00:00,7,1009.1,0.5,93,6,1400,14.816,,,180,,,,1,,,,,,10,wg-a,,,,AAXX 21034 07434 12014 81808 10070 20060 39611 40091 53005 60017 71042 876// 90300=
07434,1997-11-21 06:00:00,7,1009.2,0.1,93,6,3000,7.408,,,150,5.9,7.9,,,,,11,,,10,wg-a,,,,AAXX 21064 07434 02130 81504 10070 20060 39612 40092 52001 60006 71064 876// 90600 333 10079 20059 60114=
07434,1997-11-21 09:00:00,7,1010.2,1,100,7,12000,14.816,,,180,,,,,,,,,,,wg-a,,,,AAXX 21094 07434 12262 81808 10070 20070 39622 40102 53010 60006 875// 90900=
07434,1997-11-21 12:00:00,10,1009.3,-0.4,82,7,20000,14.816,,,180,,,,,,,,,,,wg-a,,,,AAXX 21124 07434 12470 71808 10100 20070 39618 40093 58004 60006 873// 91200=
07434,1997-11-21 15:00:00,10,1009.3,-0.1,82,7,11000,7.408,,,220,,,,,,,,,,,wg-a,,,,AAXX 21154 07434 32/61 /2204 10100 20070 39617 40093 55001 91500=
07434,1997-11-21 18:00:00,7,1010.5,0.8,100,7,11000,3.704,,,170,6.7,10.6,,,,,,,,,wg-a,,,,AAXX 21184 07434 12/61 /1702 10070 20070 39625 40105 51008 60006 91800 333 10106 20067=
07434,1997-11-21 21:00:00,7,1010.9,0.4,100,7,3000,7.408,,,130,,,,1,,,,,,10,wg-a,,,,AAXX 21214 07434 12130 81304 10070 20070 39629 40109 51004 60017 71086 876// 92100=
07434,1997-11-22 00:00:00,7,1011.2,0.2,100,7,1500,7.408,,,170,,,,1,,,,,,10,wg-a,,,,AAXX 22004 07434 02115 71704 10070 20070 39631 40112 53002 60026 71086 875// 90000 333 60017=
07434,1997-11-22 03:00:00,7,1011.2,-0,93,6,8000,3.704,,,360,,,,0,,,,,,,wg-a,,,,AAXX 22034 07434 12158 73602 10070 20060 39631 40112 55000 60007 875// 90300=
07434,1997-11-22 06:00:00,6,1011.8,0.5,100,6,8000,3.704,,,10,6.4,7.2,,,,,10,,,1,wg-a,,,,AAXX 22064 07434 02258 70102 10060 20060 39636 40118 53005 60006 70186 876// 90600 333 10072 20064 60104=
07434,1997-11-22 09:00:00,7,1013.4,1.5,93,6,4000,3.704,,,340,,,,,,,,,,10,wg-a,,,,AAXX 22094 07434 12240 73402 10070 20060 39651 40134 51015 60006 71042 878// 90900=
07434,1997-11-22 12:00:00,8,1013.8,0.6,87,6,9000,7.408,,,290,,,,,,,,,,1,wg-a,,,,AAXX 22124 07434 12459 /2904 10080 20060 39657 40138 51006 60006 70142 83231 91200=
07434,1997-11-22 15:00:00,8,1014,0.3,87,6,40000,11.112,,,310,,,,,,,,,,,wg-a,,,,AAXX 22154 07434 12582 /3106 10080 20060 39660 40140 50003 60006 82231 91500=
07434,1997-11-22 18:00:00,6,1016.2,1.7,93,5,20000,3.704,,,340,5.7,8.4,,,,,,,,,wg-a,,,,AAXX 22184 07434 12670 /3402 10060 20050 39677 40162 53017 60006 81231 91800 333 10084 20057=
07434,1997-11-23 00:00:00,4,1018.6,0.5,100,4,300,3.704,,,70,,,,,,,,,,44,wg-a,,,,AAXX 23004 07434 12003 70702 10040 20040 39697 40186 51005 60006 74441 876// 90000=
07434,1997-11-23 06:00:00,4,1019.9,0.7,93,3,300,7.408,,,110,3.3,5.9,,,,,,,,45,wg-a,,,,AAXX 23064 07434 02/03 91104 10040 20030 39708 40199 53007 60006 74544 89/// 90600 333 10059 20033 60004=
07434,1997-11-23 09:00:00,4,1021.1,1.2,93,3,100,11.112,,,120,,,,,,,,,,45,wg-a,,,,AAXX 23094 07434 12/01 91206 10040 20030 39720 40211 53012 60006 74544 89/// 90900=
07434,1997-11-23 12:00:00,4,1020.7,-0.4,100,4,100,11.112,,,130,,,,,,,,,,45,wg-a,,,,AAXX 23124 07434 12/01 91306 10040 20040 39716 40207 58004 60006 74544 89/// 91200=
07434,1997-11-23 15:00:00,4,1019.8,-0.7,100,4,300,7.408,,,150,,,,,,,,,,43,wg-a,,,,AAXX 23154 07434 12/03 91504 10040 20040 39709 40198 58007 60006 74344 89/// 91500=
07434,1997-11-23 18:00:00,4,1018.9,-0.9,100,4,500,7.408,,,120,3.5,4.7,,,,,,,,45,wg-a,,,,AAXX 23184 07434 12/05 91204 10040 20040 39700 40189 55009 60006 74544 89/// 91800 333 10047 20035=
07434,1997-11-23 21:00:00,4,1018.3,-0.7,93,3,300,7.408,,,110,,,,,,,,,,45,wg-a,,,,AAXX 23214 07434 12/03 91104 10040 20030 39693 40183 56007 60006 74544 89/// 92100=
07434,1997-11-24 00:00:00,2,1016.9,-1.6,100,2,400,7.408,,,100,,,,,,,,,,45,wg-a,,,,AAXX 24004 07434 12/04 91004 10020 20020 39677 40169 56016 60006 74544 89/// 90000=
07434,1997-11-24 03:00:00,3,1014.2,-2.5,93,2,10000,11.112,,,80,,,,,,,,,,28,wg-a,,,,AAXX 24034 07434 12/60 60806 10030 20020 39652 40142 57025 60006 72842 84031 90300=
07434,1997-11-24 06:00:00,4,1011.5,-2.3,75,0,500,7.408,,,90,1.9,4.3,,,,,,,,1,wg-a,,,,AAXX 24064 07434 02/00 60904 10040 20000 39629 40115 56023 60006 70142 84031 90600 333 10043 20019 60004=
07434,1997-11-24 12:00:00,10,1006.6,-2.2,50,0,40000,11.112,,,130,,,,,,,,,,,wg-a,,,,AAXX 24124 07434 12/82 71306 10100 20000 39591 40066 58022 60006 8707/ 91200=
07434,1997-11-24 15:00:00,11,1003.1,-3.1,43,-1,40000,11.112,,,120,,,,,,,,,,,wg-a,,,,AAXX 24154 07434 12/82 71206 10110 21010 39560 40031 56031 60006 8707/ 91500=
07434,1997-11-24 18:00:00,10,1004.9,1.5,46,-1,25000,14.816,,,190,3.1,11.4,,,,,,,,,wg-a,,,,AAXX 24184 07434 12775 71908 10100 21010 39575 40049 53015 60006 8357/ 91800 333 10114 20031=
07434,1997-11-24 21:00:00,9,1005.8,0.7,71,4,20000,18.52,,,180,,,,,,,,,,,wg-a,,,,AAXX 24214 07434 12/70 71810 10090 20040 39582 40058 51007 60006 84072 92100=
07434,1997-11-25 00:00:00,8,1005.8,0,81,5,15000,11.112,,,180,,,,,,,,,,,wg-a,,,,AAXX 25004 07434 12/65 61806 10080 20050 39582 40058 50000 60006 84032 90000=
07434,1997-11-25 03:00:00,8,1005.8,-0,87,6,15000,11.112,,,180,,,,,,,,,,,wg-a,,,,AAXX 25034 07434 12665 71806 10080 20060 39582 40058 55000 60006 8553/ 90300=
07434,1997-11-25 06:00:00,8,1005.4,-0.4,87,6,13000,11.112,,,180,7.4,9.7,,,,,,,,,wg-a,,,,AAXX 25064 07434 02663 71806 10080 20060 39578 40054 58004 60006 8553/ 90600 333 10097 20074 60004=
07434,1997-11-25 09:00:00,10,1004.8,-0.3,82,7,15000,11.112,,,130,,,,,,,,,,,wg-a,,,,AAXX 25094 07434 12/65 21306 10100 20070 39575 40048 57003 60006 81031 90900=
07434,1997-11-25 12:00:00,13,1003,-1.2,67,7,40000,18.52,,,150,,,,,,,,,,,wg-a,,,,AAXX 25124 07434 12582 21510 10130 20070 39563 40030 58012 60006 81101 91200=
07434,1997-11-25 18:00:00,11,1000.4,-0.8,71,6,500,11.112,,,90,7.9,13.9,,,,,,,,,wg-a,,,,AAXX 25184 07434 12/00 60906 10110 20060 39535 40004 56008 60006 80002 91800 333 10139 20079=
07434,1997-11-25 21:00:00,10,1000.3,-0.2,76,6,20000,7.408,,,110,,,,,,,,,,,wg-a,,,,AAXX 25214 07434 12/70 61104 10100 20060 39533 40003 56002 60006 80002 92100=
07434,1997-11-26 00:00:00,10,999.9,-0.5,71,5,10000,11.112,,,120,,,,,,,,,,,wg-a,,,,AAXX 26004 07434 12/60 /1206 10100 20050 39528 49999 57005 60006 90000=
07434,1997-11-26 03:00:00,10,1000.2,0.3,71,5,20000,11.112,,,160,,,,,,,,,,,wg-a,,,,AAXX 26034 07434 12/70 61606 10100 20050 39531 40002 52003 60006 86032 90300=
07434,1997-11-26 06:00:00,11,1000.7,0.6,66,5,20000,7.408,,,110,9.1,11.1,,,,,,,,,wg-a,,,,AAXX 26064 07434 02770 71104 10110 20050 39537 40007 53006 60006 8657/ 90600 333 10111 20091 60004=
07434,1997-11-26 09:00:00,11,1003.2,2.5,76,7,40000,14.816,,,190,,,,,,,,,,,wg-a,,,,AAXX 26094 07434 12682 71908 10110 20070 39562 40032 53025 60006 8557/ 90900=
07434,1997-11-26 12:00:00,11,1004.5,1.2,87,9,10000,11.112,,,160,,,,1,,,,,,61,wg-a,,,,AAXX 26124 07434 02560 71606 10110 20090 39574 40045 51012 60016 76162 8557/ 91200 333 60017=
07434,1997-11-26 15:00:00,11,1004.8,0.3,94,10,10000,11.112,,,120,,,,1,,,,,,60,wg-a,,,,AAXX 26154 07434 12560 71206 10110 20100 39577 40048 53003 60017 76066 8587/ 91500=
07434,1997-11-26 18:00:00,11,1006.8,1.9,87,9,10000,14.816,,,150,10.5,11.4,,,,,,,,1,wg-a,,,,AAXX 26184 07434 02660 71508 10110 20090 39596 40068 51019 60006 70162 8557/ 91800 333 10114 20105 61000=
07434,1997-11-26 21:00:00,10,1008.6,1.6,87,8,15000,11.112,,,180,,,,,,,,,,3,wg-a,,,,AAXX 26214 07434 02565 71806 10100 20080 39612 40086 53016 61000 70362 8557/ 92100 333 ////=
07434,1997-11-27 00:00:00,10,1009.8,1.1,82,7,12000,14.816,,,180,,,,,,,,,,2,wg-a,,,,AAXX 27004 07434 02562 71808 10100 20070 39623 40098 51011 61000 70262 8557/ 90000 333 ////=
07434,1997-11-27 03:00:00,10,1010.6,0.7,87,8,12000,18.52,,,190,,,,,,,,,,,wg-a,,,,AAXX 27034 07434 12462 71910 10100 20080 39630 40106 52007 60006 875// 90300=
07434,1997-11-27 06:00:00,9,1011.9,1.2,100,9,3000,11.112,,,190,9.2,10.9,,,,,,,,51,wg-a,,,,AAXX 27064 07434 02130 81906 10090 20090 39642 40119 53012 61000 75165 877// 90600 333 10109 20092 6002=
07434,1997-11-27 09:00:00,9,1011.9,1.2,100,9,3000,11.112,,,190,9.2,18.9,,1,,,2,,,10,wg-a,,,,AAXX 27094 07434 02130 81906 10090 20090 39660 40119 53012 60024 71065 877// 90900 333 10189 20092 60017=
07434,1997-11-27 12:00:00,11,1014.6,0.9,87,9,25000,11.112,,,240,,,,,,,,,,1,wg-a,,,,AAXX 27124 07434 12475 72406 10110 20090 39671 40146 51009 60016 70165 8783/ 91200=
07434,1997-11-27 15:00:00,12,1014.7,0.1,76,8,500,7.408,,,220,,,,,,,,,,,wg-a,,,,AAXX 27154 07434 12500 /2204 10120 20080 39672 40147 53001 60006 82131 91500=
07434,1997-11-27 18:00:00,9,1015.5,0.3,93,8,20000,3.704,,,180,8.7,12,,,,,,,,,wg-a,,,,AAXX 27184 07434 12/70 21802 10090 20080 39675 40155 52003 60006 81031 91800 333 10120 20087=
07434,1997-11-27 21:00:00,7,1015.3,-0.4,100,7,15000,7.408,,,140,,,,,,,,,,,wg-a,,,,AAXX 27214 07434 12/65 31404 10070 20070 39671 40153 58004 60006 80001 92100=
07434,1997-11-28 00:00:00,7,1013.4,-1.9,93,6,800,11.112,,,120,,,,,,,,,,43,wg-a,,,,AAXX 28004 07434 12/08 91206 10070 20060 39652 40134 58019 60006 74341 89/// 90000=
07434,1997-11-28 03:00:00,7,1013,-0.4,93,6,10000,11.112,,,170,,,,,,,,,,1,wg-a,,,,AAXX 28034 07434 12260 /1706 10070 20060 39648 40130 58004 60006 70142 83631 90300=
07434,1997-11-28 06:00:00,8,1012.4,-0.4,93,7,10000,14.816,,,170,6.7,8.7,,,,,,,,61,wg-a,,,,AAXX 28064 07434 02760 71708 10080 20070 39644 40124 55004 61000 76164 8557/ 90600 333 10087 20067 6001=
07434,1997-11-28 09:00:00,8,1012.6,0.2,93,7,3000,14.816,,,160,,,,5,,,,,,10,wg-a,,,,AAXX 28094 07434 12130 81608 10080 20070 39646 40126 50002 60057 71066 875// 90900=
07434,1997-11-28 12:00:00,8,1012.6,0.1,100,8,2500,18.52,,,200,,,,5,,,,,,10,wg-a,,,,AAXX 28124 07434 02125 82010 10080 20080 39647 40126 50001 60106 71066 877// 91200 333 60057=
07434,1997-11-28 15:00:00,9,1012.1,-0.3,100,9,7000,18.52,,,220,,,,,,,,,,,wg-a,,,,AAXX 28154 07434 32/57 /2210 10090 20090 39644 40121 56003 91500=
07434,1997-11-28 18:00:00,10,1012.5,0.5,100,10,15000,18.52,,,210,7.4,10.1,,,,,,,,25,wg-a,,,,AAXX 28184 07434 02265 72110 10100 20100 39649 40125 53005 61000 72586 878// 91800 333 10101 20074 6001=
07434,1997-11-28 21:00:00,10,1013.1,0.5,93,9,20000,22.224,,,220,,,,,,,,,,,wg-a,,,,AAXX 28214 07434 12270 72212 10100 20090 39654 40131 50005 60006 876// 92100=
07434,1997-11-29 00:00:00,9,1012.9,-0.2,100,9,15000,18.52,,,220,,,,,,,,,,25,wg-a,,,,AAXX 29004 07434 02365 72210 10090 20090 39652 40129 58002 61000 72582 878// 90000 333 6100=
07434,1997-11-29 03:00:00,9,1012.6,-0.5,93,8,15000,14.816,,,240,,,,0,,,,,,25,wg-a,,,,AAXX 29034 07434 12265 /2408 10090 20080 39647 40126 58005 60007 72522 86600 90300=
07434,1997-11-29 06:00:00,8,1012,-0.6,93,7,20000,14.816,,,230,8,10.7,,,,,12,,,,wg-a,,,,AAXX 29064 07434 02270 72308 10080 20070 39641 40120 56006 60006 875// 90600 333 10107 20080 60124=
07434,1997-11-29 09:00:00,8,1011.8,-0.2,100,8,15000,22.224,,,220,,,,,,,,,,,wg-a,,,,AAXX 29094 07434 12165 82212 10080 20080 39639 40118 57002 60006 877// 90900=
07434,1997-11-29 15:00:00,9,1009.5,-1,87,7,20000,14.816,,,230,,,,,,,,,,2,wg-a,,,,AAXX 29154 07434 02470 72308 10090 20070 39619 40095 56010 61000 70286 85202 91500 333 ////=
07434,1997-11-29 18:00:00,6,1010.8,0.6,93,5,10000,7.408,,,240,5.5,10.3,,,,,,,,25,wg-a,,,,AAXX 29184 07434 02460 /2404 10060 20050 39625 40108 51006 61000 72587 82201 91800 333 10103 20055 6013=
07434,1997-11-29 21:00:00,7,1011.6,1,93,6,8000,11.112,,,270,,,,,,,,,,,wg-a,,,,AAXX 29214 07434 12158 82706 10070 20060 39635 40116 51010 60006 886// 92100=
07434,1997-11-30 00:00:00,7,1013,1.3,93,6,500,11.112,,,290,,,,,,,,,,,wg-a,,,,AAXX 30004 07434 12100 82906 10070 20060 39648 40130 53013 60006 886// 90000=
07434,1997-11-30 03:00:00,6,1013.8,0.7,100,6,2000,11.112,,,280,,,,,,,,,,10,wg-a,,,,AAXX 30034 07434 12120 82806 10060 20060 39655 40138 51007 60006 71022 886// 90300=
07434,1997-11-30 06:00:00,6,1014.3,0.5,100,6,6000,14.816,,,290,5.1,6.7,,,,,15,,,,wg-a,,,,AAXX 30064 07434 02156 82908 10060 20060 39660 40143 51005 60006 886// 90600 333 10067 20051 60154=
07434,1997-11-30 09:00:00,6,1015.4,1,100,6,2500,14.816,,,290,,,,,,,,,,10,wg-a,,,,AAXX 30094 07434 12125 82908 10060 20060 39670 40154 53010 60006 71022 886// 90900=
07434,1997-11-30 12:00:00,8,1015.3,0.2,93,7,10000,18.52,,,290,,,,,,,,,,,wg-a,,,,AAXX 30124 07434 12260 82910 10080 20070 39672 40153 50002 60006 876// 91200=
07434,1997-11-30 15:00:00,8,1015.5,0.2,93,7,12000,11.112,,,300,,,,1,,,,,,1,wg-a,,,,AAXX 30154 07434 12362 83006 10080 20070 39674 40155 53002 60017 70186 878// 91500=
07434,1997-11-30 18:00:00,8,1016,0.4,93,7,12000,14.816,,,290,6.3,8.1,,,,,,,,2,wg-a,,,,AAXX 30184 07434 12362 82908 10080 20070 39678 40160 51004 60006 70286 878// 91800 333 10081 20063=
07434,1997-11-30 21:00:00,7,1017.4,1.2,93,6,10000,14.816,,,320,,,,1,,,,,,25,wg-a,,,,AAXX 30214 07434 12160 83208 10070 20060 39690 40174 53012 60017 72586 877// 92100=
07434,1997-12-01 00:00:00,7,1018,0.6,93,6,10000,14.816,,,320,,,,,,,,,,3,wg-a,,,,AAXX 01004 07434 12260 83208 10070 20060 39696 40180 53006 60016 70386 877// 90000=
07434,1997-12-01 03:00:00,6,1018.8,0.6,93,5,10000,11.112,,,330,,,,0,,,,,,,wg-a,,,,AAXX 01034 07434 12260 83306 10060 20050 39702 40188 51006 60007 877// 90300=
07434,1997-12-01 06:00:00,5,1018.7,-0.2,100,5,10000,7.408,,,330,5.4,8,,,,,2,,,,wg-a,,,,AAXX 01064 07434 02160 83304 10050 20050 39700 40187 57002 60006 876// 90600 333 10080 20054 60024=
07434,1997-12-01 09:00:00,5,1019.4,0.6,100,5,8000,0,,,0,,,,,,,,,,,wg-a,,,,AAXX 01094 07434 12358 70000 10050 20050 39706 40194 53006 60006 84831 90900=
07434,1997-12-01 12:00:00,8,1016.3,-2.4,81,5,25000,7.408,,,160,,,,,,,,,,,wg-a,,,,AAXX 01124 07434 12475 41604 10080 20050 39682 40163 58024 60006 83231 91200=
07434,1997-12-01 15:00:00,8,1013.7,-2.6,71,3,500,14.816,,,180,,,,,,,,,,,wg-a,,,,AAXX 01154 07434 12500 71808 10080 20030 39656 40137 58026 60006 8683/ 91500=
07434,1997-12-01 18:00:00,6,1011.7,-2.1,87,4,15000,14.816,,,170,5,8.7,,,,,,,,60,wg-a,,,,AAXX 01184 07434 02365 81708 10060 20040 39635 40117 57021 61000 76061 8687/ 91800 333 10087 20050 6100=
07434,1997-12-01 21:00:00,6,1008.5,-3.2,93,5,500,14.816,,,160,,,,0,,,,,,51,wg-a,,,,AAXX 01214 07434 12100 81608 10060 20050 39603 40085 58032 60007 75166 877// 92100=
07434,1997-12-02 00:00:00,7,1005.1,-3.1,93,6,500,18.52,,,210,,,,,,,,,,10,wg-a,,,,AAXX 02004 07434 12/05 92110 10070 20060 39572 40051 58031 60036 71065 89/// 90000=
07434,1997-12-02 03:00:00,9,1000.8,-3.6,93,8,9000,25.928,,50.004,270,,,,3,,,,,,61,wg-a,,,,AAXX 02034 07434 12359 82714 10090 20080 39536 40008 56036 60037 76165 877// 90300 333 91027=
07434,1997-12-02 06:00:00,7,1000.6,-0.6,93,6,10000,22.224,,,280,5.5,9.1,,,,,8,,,1,wg-a,,,,AAXX 02064 07434 02360 82812 10070 20060 39530 40006 55006 60006 70165 877// 90600 333 10091 20055 60084=
07434,1997-12-02 09:00:00,5,1003.5,2.4,81,2,500,18.52,,40.744,310,,,,,,,,,,,wg-a,,,,AAXX 02094 07434 12400 73110 10050 20020 39554 40035 53024 60006 878// 90900 333 91022=
07434,1997-12-02 12:00:00,3,1006.4,2.5,87,1,50000,22.224,,,310,,,,,,,,,,,wg-a,,,,AAXX 02124 07434 12484 73112 10030 20010 39579 40064 51025 60006 878// 91200=
07434,1997-12-02 15:00:00,3,1007,0.6,87,1,15000,25.928,,,320,,,,0,,,,,,1,wg-a,,,,AAXX 02154 07434 12365 83214 10030 20010 39585 40070 53006 60007 70162 878// 91500=
07434,1997-12-02 18:00:00,1,1009.9,2.4,93,0,6000,22.224,,,310,0.8,6.7,,,,,,,,68,wg-a,,,,AAXX 02184 07434 02356 83112 10010 20000 39609 40099 51024 61000 76887 878// 91800 333 10067 20008 6002=
07434,1997-12-02 21:00:00,1,1011.7,1.6,86,-1,10000,18.52,,,310,,,,0,,,,,,22,wg-a,,,,AAXX 02214 07434 12360 83110 10010 21010 39625 40117 51016 60007 72276 875// 92100=
07434,1997-12-03 00:00:00,0,1012.1,0.2,86,-2,12000,18.52,,,290,,,,,,,,,,1,wg-a,,,,AAXX 03004 07434 12662 72910 10000 21020 39627 40121 50002 60016 70176 8357/ 90000=
07434,1997-12-03 06:00:00,-1,1012.7,1.1,93,-2,10000,14.816,,,330,-1.1,1.3,,,,,,,,22,wg-a,,1,,AAXX 03064 07434 02360 /3308 11010 21020 39632 40127 53011 61000 72272 85600 90600 333 10013 21011 4/001 6003=
07434,1997-12-03 12:00:00,1,1015.3,0.8,80,-2,500,14.816,,,340,,,,,,,,,,,wg-a,,,,AAXX 03124 07434 12400 /3408 10010 21020 39660 40153 50008 60006 83100 91200=
07434,1997-12-03 15:00:00,2,1015.8,0.6,64,-4,40000,14.816,,,350,,,,,,,,,,,wg-a,,,,AAXX 03154 07434 12582 23508 10020 21040 39666 40158 53006 60006 82100 91500=
07434,1997-12-03 18:00:00,-1,1017.1,0.7,80,-4,25000,11.112,,,340,-1.2,2.9,,,,,,,,,wg-a,,,,AAXX 03184 07434 12/75 03406 11010 21040 39673 40171 51007 60006 80000 91800 333 10029 21012=
07434,1997-12-03 21:00:00,-1,1017.3,0.2,80,-4,500,14.816,,,20,,,,,,,,,,,wg-a,,,,AAXX 03214 07434 12/00 00208 11010 21040 39675 40173 52002 60006 80000 92100=
07434,1997-12-04 00:00:00,-2,1017.6,-0,86,-4,20000,11.112,,,10,,,,,,,,,,,wg-a,,,,AAXX 04004 07434 12/70 00106 11020 21040 39675 40176 55000 60006 80000 90000=
07434,1997-12-04 03:00:00,-3,1017.7,-0,93,-4,15000,11.112,,,30,,,,,,,,,,,wg-a,,,,AAXX 04034 07434 12/65 30306 11030 21040 39675 40177 55000 60006 82031 90300=
07434,1997-12-04 06:00:00,-3,1017,-0.6,93,-4,8000,11.112,,,20,-3.7,-0.5,,,,,,,,,wg-a,,,,AAXX 04064 07434 02258 70206 11030 21040 39669 40170 57006 60006 875// 90600 333 11005 21037 60004=
07434,1997-12-04 09:00:00,-2,1016.6,-0.2,93,-3,4000,11.112,,,330,,,,,,,,,,10,wg-a,,,,AAXX 04094 07434 12340 73306 11020 21030 39667 40166 56002 60006 71022 875// 90900=
07434,1997-12-04 12:00:00,-1,1016.3,-0.2,93,-2,1000,11.112,,,20,,,,,,,,,,,wg-a,,,,AAXX 04124 07434 02/10 /0206 11010 21020 39665 40163 58002 61000 91200 333 ////=
07434,1997-12-04 15:00:00,0,1015.7,-0.4,93,-1,3000,7.408,,,10,,,,,,,,,,10,wg-a,,,,AAXX 04154 07434 02230 80104 10000 21010 39661 40157 55004 61000 71072 887// 91500 333 ////=
07434,1997-12-04 18:00:00,0,1016.7,1,86,-2,8000,14.816,,,40,-2.5,0,,0,,,,,,1,wg-a,,,,AAXX 04184 07434 02458 70408 10000 21020 39671 40167 53010 60006 70172 875// 91800 333 10000 21025 60007=
07434,1997-12-04 21:00:00,0,1018.2,1.4,86,-2,8000,18.52,,,60,,,,,,,,,,,wg-a,,,,AAXX 04214 07434 12358 70610 10000 21020 39685 40182 51014 60006 875// 92100=
07434,1997-12-05 00:00:00,0,1018.9,0.6,86,-2,10000,11.112,,,40,,,,,,,,,,,wg-a,,,,AAXX 05004 07434 12460 70406 10000 21020 39691 40189 51006 60006 875// 90000=
07434,1997-12-05 03:00:00,0,1019,0.2,80,-3,10000,18.52,,,60,,,,,,,,,,,wg-a,,,,AAXX 05034 07434 12460 70610 10000 21030 39693 40190 53002 60006 875// 90300=
07434,1997-12-05 06:00:00,-1,1020,0.8,86,-3,10000,22.224,,,70,-0.5,0.1,,,,,,,,,wg-a,,,,AAXX 05064 07434 02460 70712 11010 21030 39701 40200 53008 60006 875// 90600 333 10001 21005 60004=
07434,1997-12-05 09:00:00,0,1021.8,1.9,80,-3,10000,18.52,,,70,,,,,,,,,,,wg-a,,,,AAXX 05094 07434 12460 20710 10000 21030 39720 40218 51019 60006 82800 90900=
07434,1997-12-05 12:00:00,4,1022.2,0.9,60,-3,20000,25.928,,,60,,,,,,,,,,,wg-a,,,,AAXX 05124 07434 12/70 10614 10040 21030 39729 40222 51009 60006 81030 91200=
07434,1997-12-05 15:00:00,3,1022.6,0.4,65,-3,20000,18.52,,,70,,,,,,,,,,,wg-a,,,,AAXX 05154 07434 12/70 10710 10030 21030 39733 40226 53004 60006 80001 91500=
07434,1997-12-05 18:00:00,0,1024.5,1.1,86,-2,20000,14.816,,,20,-0.7,4,,,,,,,,,wg-a,,,,AAXX 05184 07434 12/70 00208 10000 21020 39744 40245 52011 60006 80000 91800 333 10040 21007=
07434,1997-12-05 21:00:00,-2,1026.1,1.3,93,-3,8000,11.112,,,30,,,,,,,,,,,wg-a,,,,AAXX 05214 07434 12458 20306 11020 21030 39757 40261 51013 60006 82500 92100=
07434,1997-12-06 00:00:00,-3,1026.8,0.5,93,-4,8000,7.408,,,50,,,,,,,,,,,wg-a,,,,AAXX 06004 07434 12/58 00504 11030 21040 39762 40268 50005 60006 80000 90000=
07434,1997-12-06 03:00:00,-3,1026.8,-0,93,-4,8000,11.112,,,30,,,,,,,,,,,wg-a,,,,AAXX 06034 07434 12/58 00306 11030 21040 39762 40268 55000 60006 80000 90300=
07434,1997-12-06 06:00:00,-3,1026.5,-0.3,93,-4,8000,11.112,,,40,-3.5,-0.4,,,,,,,,,wg-a,,,,AAXX 06064 07434 02/58 00406 11030 21040 39759 40265 55003 60006 80000 90600 333 11004 21035 60004=
07434,1997-12-06 12:00:00,2,1025.2,-0.9,75,-2,10000,3.704,,,40,,,,,,,,,,,wg-a,,,,AAXX 06124 07434 12/60 00402 10020 21020 39756 40252 58009 60006 80000 91200=
07434,1997-12-06 15:00:00,4,1024,-0.8,65,-2,10000,11.112,,,350,,,,,,,,,,,wg-a,,,,AAXX 06154 07434 12/60 03506 10040 21020 39748 40240 56008 60006 80000 91500=
07434,1997-12-06 18:00:00,1,1024.8,0.2,75,-3,10000,11.112,,,20,-3,4.1,,,,,,,,,wg-a,,,,AAXX 06184 07434 12/60 20206 10010 21030 39750 40248 53002 60006 80001 91800 333 10041 21030=
07434,1997-12-06 21:00:00,0,1024.6,-0.5,74,-4,13000,11.112,,,60,,,,,,,,,,,wg-a,,,,AAXX 06214 07434 12/63 30606 10000 21040 39745 40246 58005 60006 80001 92100=
07434,1997-12-07 00:00:00,-2,1023.8,-1,86,-4,12000,11.112,,,100,,,,,,,,,,,wg-a,,,,AAXX 07004 07434 12/62 21006 11020 21040 39735 40238 58010 60006 80001 90000=
07434,1997-12-07 06:00:00,-2,1020.6,-1.7,74,-6,8000,7.408,,,80,-2.3,1.6,,,,,,,,,wg-a,,,,AAXX 07064 07434 02/58 00804 11020 21060 39705 40206 56017 60006 80000 90600 333 10016 21023 60004=
07434,1997-12-07 09:00:00,0,1020.5,0.2,69,-5,10000,3.704,,,90,,,,,,,,,,,wg-a,,,,AAXX 07094 07434 12/60 10902 10000 21050 39707 40205 53002 60006 80001 90900=
07434,1997-12-07 12:00:00,7,1017.8,-1.4,45,-4,15000,7.408,,,140,,,,,,,,,,,wg-a,,,,AAXX 07124 07434 12/65 21404 10070 21040 39693 40178 57014 60006 80001 91200=
07434,1997-12-07 15:00:00,9,1015.6,-1.8,40,-4,20000,7.408,,,150,,,,,,,,,,,wg-a,,,,AAXX 07154 07434 12/70 51504 10090 21040 39675 40156 56018 60006 80002 91500=
07434,1997-12-07 18:00:00,6,1015.3,-0.8,45,-5,20000,7.408,,,140,-2.6,8.6,,,,,,,,,wg-a,,,,AAXX 07184 07434 12/70 31404 10060 21050 39667 40153 58008 60006 81032 91800 333 10086 21026=
07434,1997-12-07 21:00:00,4,1016,0.4,52,-5,15000,11.112,,,170,,,,,,,,,,,wg-a,,,,AAXX 07214 07434 12665 /1706 10040 21050 39671 40160 51004 60006 85530 92100=
07434,1997-12-08 00:00:00,4,1015.6,-0.4,60,-3,12000,7.408,,,140,,,,,,,,,,60,wg-a,,,,AAXX 08004 07434 02662 71404 10040 21030 39667 40156 56004 61000 76061 86530 90000 333 6100=
07434,1997-12-08 03:00:00,3,1014.6,-1,70,-2,15000,11.112,,,120,,,,,,,,,,1,wg-a,,,,AAXX 08034 07434 02/65 71206 10030 21020 39657 40146 56010 61000 70162 8707/ 90300 333 ////=
07434,1997-12-08 06:00:00,3,1014.8,0.1,75,-1,15000,7.408,,,140,2.7,5.8,,,,,,,,21,wg-a,,,,AAXX 08064 07434 02465 /1404 10030 21010 39658 40148 50001 61000 72161 85500 90600 333 10058 20027 6000=
07434,1997-12-08 09:00:00,4,1015.5,0.9,75,0,10000,7.408,,,150,,,,0,,,,,,3,wg-a,,,,AAXX 08094 07434 12360 71504 10040 20000 39667 40155 53009 60007 70362 875// 90900=
07434,1997-12-08 12:00:00,6,1013.9,-1.2,87,4,10000,7.408,,,150,,,,,,,,,,3,wg-a,,,,AAXX 08124 07434 12360 71504 10060 20040 39655 40139 58012 60006 70362 877// 91200=
07434,1997-12-08 15:00:00,7,1012.5,-1.2,93,6,10000,14.816,,,180,,,,,,,,,,,wg-a,,,,AAXX 08154 07434 12360 71808 10070 20060 39643 40125 56012 60006 877// 91500=
07434,1997-12-08 18:00:00,7,1012.4,-0.1,93,6,4000,14.816,,,190,2.9,7.1,,,,,,,,61,wg-a,,,,AAXX 08184 07434 02140 81908 10070 20060 39642 40124 55001 61000 76162 877// 91800 333 10071 20029 6000=
07434,1997-12-08 21:00:00,7,1012.6,0.2,93,6,6000,14.816,,,200,,,,2,,,,,,61,wg-a,,,,AAXX 08214 07434 12156 82008 10070 20060 39644 40126 53002 60027 76166 887// 92100=
07434,1997-12-09 00:00:00,7,1013.8,1.2,100,7,7000,11.112,,,230,,,,2,,,,,,28,wg-a,,,,AAXX 09004 07434 02157 82306 10070 20070 39656 40138 51012 60046 72862 887// 90000 333 60027=
07434,1997-12-09 03:00:00,7,1014.6,0.8,100,7,500,7.408,,,240,,,,,,,,,,,wg-a,,,,AAXX 09034 07434 12100 82404 10070 20070 39664 40146 53008 60006 886// 90300=
07434,1997-12-09 06:00:00,7,1016.2,1.5,100,7,600,7.408,,,240,6.5,7.4,,,,,4,,,47,wg-a,,,,AAXX 09064 07434 02/06 92404 10070 20070 39679 40162 51015 60006 74742 89/// 90600 333 10074 20065 60044=
07434,1997-12-09 09:00:00,7,1018.3,2,100,7,9000,11.112,,,250,,,,,,,,,,2,wg-a,,,,AAXX 09094 07434 12159 72506 10070 20070 39699 40183 53020 60006 70242 877// 90900=
07434,1997-12-09 12:00:00,9,1018.2,0.2,93,8,12000,11.112,,,240,,,,1,,,,,,1,wg-a,,,,AAXX 09124 07434 02362 72406 10090 20080 39701 40182 50002 60016 70186 878// 91200 333 60017=
07434,1997-12-09 18:00:00,8,1019.4,0.3,93,7,10000,11.112,,,190,6.8,9.1,,0,,,,,,3,wg-a,,,,AAXX 09184 07434 02260 81906 10080 20070 39711 40194 50003 60006 70386 877// 91800 333 10091 20068 60007=
07434,1997-12-10 00:00:00,8,1019.1,-0.3,100,8,600,11.112,,,180,,,,,,,,,,45,wg-a,,,,AAXX 10004 07434 12/06 91806 10080 20080 39709 40191 58003 60006 74542 89/// 90000=
07434,1997-12-10 06:00:00,9,1017.5,-0.9,100,9,6000,18.52,,,200,7.8,8.9,,,,,,,,60,wg-a,,,,AAXX 10064 07434 02156 82010 10090 20090 39695 40175 56009 61000 76065 887// 90600 333 10089 20078 6002=
07434,1997-12-10 09:00:00,8,1017.9,0.3,100,8,10000,25.928,,,200,,,,0,,,,,,60,wg-a,,,,AAXX 10094 07434 12360 82014 10080 20080 39698 40179 53003 60007 76066 8687/ 90900=
07434,1997-12-10 12:00:00,8,1017.5,-0.5,93,7,7000,29.632,,,210,,,,2,,,,,,63,wg-a,,,,AAXX 10124 07434 02357 82116 10080 20070 39693 40175 58005 60026 76366 888// 91200 333 60027=
07434,1997-12-10 18:00:00,8,1018.2,1.1,100,8,7000,14.816,,,180,7.9,9,,,,,,,,50,wg-a,,,,AAXX 10184 07434 02157 81808 10080 20080 39701 40182 51011 61000 75065 887// 91800 333 10090 20079 6000=
07434,1997-12-10 21:00:00,9,1018.8,0.6,100,9,700,11.112,,,170,,,,,,,,,,10,wg-a,,,,AAXX 10214 07434 32/07 91706 10090 20090 39707 40188 50006 71065 89/// 92100=
07434,1997-12-11 00:00:00,10,1018.3,-0.3,100,10,900,11.112,,,200,,,,,,,,,,10,wg-a,,,,AAXX 11004 07434 12/09 92006 10100 20100 39704 40183 58003 60036 71065 89/// 90000=
07434,1997-12-11 03:00:00,12,1017.1,-0.7,100,12,2000,18.52,,,240,,,,1,,,,,,10,wg-a,,,,AAXX 11034 07434 12120 82410 10120 20120 39697 40171 56007 60017 71054 887// 90300=
07434,1997-12-11 06:00:00,13,1016.3,-0.7,94,12,10000,22.224,,,240,8.4,12.7,,,,,,,,50,wg-a,,,,AAXX 11064 07434 02260 82412 10130 20120 39690 40163 56007 61000 75065 877// 90600 333 10127 20084 6008=
07434,1997-12-11 09:00:00,13,1016.7,0.4,88,11,20000,25.928,,42.596,250,,,,,,,,,,1,wg-a,,,,AAXX 11094 07434 02470 82514 10130 20110 39694 40167 50004 61000 70165 877// 90900 333 //// 91023=
07434,1997-12-11 12:00:00,12,1015.3,-1.5,94,11,500,25.928,,,230,,,,1,,,,,,61,wg-a,,,,AAXX 11124 07434 02200 82314 10120 20110 39679 40153 58015 60016 76165 877// 91200 333 60017=
07434,1997-12-11 15:00:00,12,1014.1,-1.1,100,12,4000,18.52,,,250,,,,3,,,,,,61,wg-a,,,,AAXX 11154 07434 12140 82510 10120 20120 39668 40141 56011 60037 76166 877// 91500=
07434,1997-12-11 18:00:00,12,1014,-0.1,94,11,10000,29.632,,,270,11.6,13,,,,,,,,21,wg-a,,,,AAXX 11184 07434 02160 82716 10120 20110 39667 40140 56001 61000 72162 877// 91800 333 10130 20116 6008=
07434,1997-12-11 21:00:00,10,1015.5,1.1,93,9,15000,18.52,,,260,,,,,,,,,,21,wg-a,,,,AAXX 11214 07434 02365 82610 10100 20090 39678 40155 51011 61000 72162 888// 92100 333 ////=
07434,1997-12-12 00:00:00,9,1017.1,1.3,93,8,15000,22.224,,,290,,,,0,,,,,,3,wg-a,,,,AAXX 12004 07434 02465 82912 10090 20080 39691 40171 53013 60006 70386 888// 90000 333 60007=
07434,1997-12-12 03:00:00,8,1018.2,0.9,100,8,11000,18.52,,,280,,,,2,,,,,,,wg-a,,,,AAXX 12034 07434 12661 82810 10080 20080 39700 40182 53009 60027 888// 90300=
07434,1997-12-12 06:00:00,6,1020.1,1.5,100,6,15000,11.112,,,310,6.3,11.9,,,,,14,,,1,wg-a,,,,AAXX 12064 07434 02465 43106 10060 20060 39715 40201 52015 60006 70186 82230 90600 333 10119 20063 60144=
07434,1997-12-12 12:00:00,7,1023.6,0.8,87,5,12000,14.816,,,310,,,,,,,,,,,wg-a,,,,AAXX 12124 07434 12462 73108 10070 20050 39750 40236 51008 60006 872// 91200=
07434,1997-12-12 18:00:00,5,1027.9,2.6,87,3,20000,11.112,,,320,4.8,8.1,,,,,,,,,wg-a,,,,AAXX 12184 07434 12470 43206 10050 20030 39786 40279 52026 60006 84801 91800 333 10081 20048=
07434,1997-12-12 21:00:00,4,1029.8,1.6,93,3,10000,7.408,,,320,,,,,,,,,,,wg-a,,,,AAXX 12214 07434 12560 23204 10040 20030 39802 40298 51016 60006 82500 92100=
07434,1997-12-13 00:00:00,4,1030.6,0.8,93,3,10000,11.112,,,340,,,,,,,,,,,wg-a,,,,AAXX 13004 07434 12660 /3406 10040 20030 39810 40306 51008 60006 81501 90000=
07434,1997-12-13 06:00:00,3,1031.4,0.2,93,2,6000,11.112,,,10,1.1,4.9,,,,,,,,28,wg-a,,,,AAXX 13064 07434 02056 50106 10030 20020 39816 40314 53002 60006 72842 83630 90600 333 10049 20011 60004=
07434,1997-12-13 09:00:00,4,1032.4,1.2,93,3,500,11.112,,,20,,,,,,,,,,40,wg-a,,,,AAXX 13094 07434 12400 /0206 10040 20030 39828 40324 52012 60006 74022 85830 90900=
07434,1997-12-13 12:00:00,6,1032.3,0.2,75,2,4500,11.112,,,30,,,,,,,,,,10,wg-a,,,,AAXX 13124 07434 12345 /0306 10060 20020 39830 40323 50002 60006 71011 86200 91200=
07434,1997-12-13 15:00:00,5,1032.2,-0.2,81,2,40000,11.112,,,360,,,,,,,,,,,wg-a,,,,AAXX 13154 07434 12482 33606 10050 20020 39828 40322 55002 60006 83201 91500=
07434,1997-12-13 18:00:00,3,1033.3,0.6,87,1,10000,11.112,,,20,2.5,6.5,,,,,,,,,wg-a,,,,AAXX 13184 07434 12/60 20206 10030 20010 39834 40333 53006 60006 80001 91800 333 10065 20025=
07434,1997-12-14 00:00:00,0,1033.2,-0.7,93,-1,10000,14.816,,,70,,,,,,,,,,,wg-a,,,,AAXX 14004 07434 12/60 00708 10000 21010 39828 40332 58007 60006 80000 90000=
07434,1997-12-14 03:00:00,0,1031.9,-1.2,93,-1,12000,18.52,,,60,,,,,,,,,,,wg-a,,,,AAXX 14034 07434 12/62 20610 10000 21010 39816 40319 58012 60006 80001 90300=
07434,1997-12-14 06:00:00,1,1030,-1.7,86,-1,13000,22.224,,,80,-0.2,2.6,,,,,,,,,wg-a,,,,AAXX 14064 07434 02/63 20812 10010 21010 39799 40300 56017 60006 80001 90600 333 10026 21002 60004=
07434,1997-12-14 09:00:00,2,1029.5,-0.2,75,-2,18000,22.224,,,80,,,,,,,,,,,wg-a,,,,AAXX 14094 07434 12/68 10812 10020 21020 39797 40295 58002 60006 81031 90900=
07434,1997-12-14 12:00:00,7,1027.2,-1.5,49,-3,50000,25.928,,,90,,,,,,,,,,,wg-a,,,,AAXX 14124 07434 12/84 10914 10070 21030 39782 40272 58015 60006 81031 91200=
07434,1997-12-14 15:00:00,8,1025.3,-1.6,46,-3,75000,14.816,,,90,,,,,,,,,,,wg-a,,,,AAXX 14154 07434 12/89 10908 10080 21030 39766 40253 56016 60006 81030 91500=
07434,1997-12-14 18:00:00,4,1024.8,-1.1,65,-2,25000,14.816,,,50,0.3,8,,,,,,,,,wg-a,,,,AAXX 14184 07434 12/75 10508 10040 21020 39755 40248 57011 60006 81030 91800 333 10080 20003=
07434,1997-12-14 21:00:00,4,1023.8,-1,60,-3,15000,22.224,,,70,,,,,,,,,,,wg-a,,,,AAXX 14214 07434 12/65 70712 10040 21030 39745 40238 58010 60006 8703/ 92100=
07434,1997-12-15 00:00:00,2,1023.2,-0.9,87,0,9000,14.816,,,60,,,,,,,,,,,wg-a,,,,AAXX 15004 07434 12/59 /0608 10020 20000 39736 40232 56009 60006 85032 90000=
07434,1997-12-15 03:00:00,2,1021.5,-1.5,93,1,9000,14.816,,,70,,,,,,,,,,22,wg-a,,,,AAXX 15034 07434 02459 70708 10020 20010 39721 40215 56015 61000 72272 875// 90300 333 ////=
07434,1997-12-15 06:00:00,1,1020.7,-1,80,-2,9000,25.928,,,60,0.7,4.2,,,,,,,,1,wg-a,,,,AAXX 15064 07434 02359 70614 10010 21020 39711 40207 56010 60006 70171 875// 90600 333 10042 20007 61000=
07434,1997-12-15 09:00:00,1,1020.2,-0.4,86,-1,12000,18.52,,,40,,,,,,,,,,22,wg-a,,,,AAXX 15094 07434 02462 70410 10010 21010 39707 40202 55004 61000 72272 878// 90900 333 ////=
07434,1997-12-15 12:00:00,1,1019.4,-0.9,69,-4,500,31.484,,,40,,,,,,,,,,2,wg-a,,,,AAXX 15124 07434 02500 70417 10010 21040 39698 40194 58009 61000 70272 875// 91200 333 ////=
07434,1997-12-15 15:00:00,1,1018.4,-0.9,75,-3,500,25.928,,,40,,,,,,,,,,,wg-a,,,,AAXX 15154 07434 12500 70414 10010 21030 39689 40184 55009 60006 878// 91500=
07434,1997-12-15 18:00:00,1,1017.9,-0.6,80,-2,20000,29.632,,,40,0.3,2.8,,,,,,,,70,wg-a,,,,AAXX 15184 07434 02370 70416 10010 21020 39683 40179 58006 61000 77072 878// 91800 333 10028 20003 6100=
07434,1997-12-16 00:00:00,0,1015.7,-1.5,74,-4,18000,25.928,,,70,,,,,,,,,,1,wg-a,,,,AAXX 16004 07434 02568 /0714 10000 21040 39662 40157 58015 61000 70171 81500 90000 333 ////=
07434,1997-12-16 03:00:00,-1,1014,-1.8,80,-4,15000,22.224,,,70,,,,,,,,,,,wg-a,,,,AAXX 16034 07434 12/65 10712 11010 21040 39644 40140 56018 60006 80001 90300=
07434,1997-12-16 06:00:00,-2,1012.3,-1.8,100,-2,2000,22.224,,,80,-1.6,1.3,,,,,,,,10,wg-a,,1,,AAXX 16064 07434 02120 80812 11020 21020 39626 40123 56018 61000 71071 877// 90600 333 10013 21016 4/001 6100=
07434,1997-12-16 15:00:00,3,1003,-3,87,1,8000,29.632,,48.152,140,,,,0,,,,,,60,wg-a,,,,AAXX 16154 07434 12358 71416 10030 20010 39546 40030 56030 60007 76062 877// 91500 333 91026=
07434,1997-12-16 18:00:00,6,999.5,-2.9,61,-1,12000,25.928,,,130,-1.9,5.9,,,,,,,,60,wg-a,,,,AAXX 16184 07434 02462 71314 10060 21010 39517 49995 56029 61000 76062 877// 91800 333 10059 21019 6001=
07434,1997-12-16 21:00:00,6,998.8,-0.6,70,1,25000,35.188,,59.264,150,,,,,,,,,,21,wg-a,,,,AAXX 16214 07434 02475 81519 10060 20010 39511 49988 56006 61000 72162 888// 92100 333 //// 91032=
07434,1997-12-17 00:00:00,6,997.9,-0.8,75,2,25000,25.928,,,160,,,,,,,,,,1,wg-a,,,,AAXX 17004 07434 02475 81614 10060 20020 39503 49979 56008 61000 70162 888// 90000 333 ////=
07434,1997-12-17 03:00:00,4,998.3,0.1,93,3,15000,14.816,,,230,,,,1,,,,,,61,wg-a,,,,AAXX 17034 07434 12465 82308 10040 20030 39504 49983 50001 60017 76162 888// 90300=
07434,1997-12-17 06:00:00,5,998.4,0.2,100,5,8000,11.112,,,200,4.3,6.4,,,,,,,,61,wg-a,,,,AAXX 17064 07434 02258 82006 10050 20050 39506 49984 50002 61000 76162 888// 90600 333 10064 20043 6007=
07434,1997-12-17 09:00:00,7,998.2,0.1,93,6,8000,25.928,,51.856,170,,,,2,,,,,,60,wg-a,,,,AAXX 17094 07434 12258 81714 10070 20060 39507 49982 53001 60027 76062 887// 90900 333 91028=
07434,1997-12-17 12:00:00,9,997.3,-0.5,87,7,10000,29.632,,,170,,,,2,,,,,,60,wg-a,,,,AAXX 17124 07434 02260 81716 10090 20070 39502 49973 58005 60056 76062 877// 91200 333 60027=
07434,1997-12-17 18:00:00,12,996.5,0.4,76,8,10000,31.484,,,170,4.7,12.3,,,,,,,,1,wg-a,,,,AAXX 17184 07434 12660 71717 10120 20080 39500 49965 53004 60006 70162 8257/ 91800 333 10123 20047=
07434,1997-12-17 21:00:00,13,996.5,0.1,72,8,15000,35.188,,59.264,160,,,,,,,,,,,wg-a,,,,AAXX 17214 07434 12665 71619 10130 20080 39501 49965 53001 60006 8257/ 92100 333 91032=
07434,1997-12-18 00:00:00,13,995.8,-0.7,72,8,15000,31.484,,51.856,160,,,,,,,,,,,wg-a,,,,AAXX 18004 07434 12665 71617 10130 20080 39494 49958 58007 60006 8257/ 90000 333 91028=
07434,1997-12-18 03:00:00,12,996.3,0.4,82,9,15000,38.892,,59.264,160,,,,,,,,,,60,wg-a,,,,AAXX 18034 07434 02565 71621 10120 20090 39498 49963 51004 61000 76062 8257/ 90300 333 //// 91032=
07434,1997-12-18 06:00:00,12,994.5,-1.7,82,9,15000,31.484,,55.56,160,11.3,13.5,,,,,,,,21,wg-a,,,,AAXX 18064 07434 02465 71617 10120 20090 39481 49945 58017 61000 72162 8257/ 90600 333 10135 20113 6005 91030=
07434,1997-12-18 09:00:00,12,997.1,2.4,82,9,8000,25.928,,48.152,180,,,,1,,,,,,61,wg-a,,,,AAXX 18094 07434 12458 81814 10120 20090 39505 49971 51024 60017 76162 8587/ 90900 333 91026=
07434,1997-12-18 12:00:00,10,997.7,0.4,100,10,3500,7.408,,,260,,,,13,,,,,,10,wg-a,,,,AAXX 18124 07434 02235 82604 10100 20100 39509 49977 50004 60146 71062 858// 91200 333 60137=
07434,1997-12-18 15:00:00,11,996.6,-1,94,10,500,14.816,,,200,,,,3,,,,,,61,wg-a,,,,AAXX 18154 07434 12300 82008 10110 20100 39499 49966 55010 60037 76162 878// 91500=
07434,1997-12-18 18:00:00,9,996.6,-0.3,93,8,7000,7.408,,,130,8.9,12.8,,,,,,,,63,wg-a,,,,AAXX 18184 07434 02457 81304 10090 20080 39496 49966 58003 61000 76362 8587/ 91800 333 10128 20089 6008=
07434,1997-12-18 21:00:00,8,997.9,1,93,7,10000,7.408,,,150,,,,2,,,,,,21,wg-a,,,,AAXX 18214 07434 12260 81504 10080 20070 39506 49979 50010 60027 72162 8557/ 92100=
07434,1997-12-19 03:00:00,6,999.5,-0.2,93,5,10000,7.408,,,150,,,,,,,,,,,wg-a,,,,AAXX 19034 07434 12260 21504 10060 20050 39518 49995 58002 60006 81601 90300=
07434,1997-12-19 06:00:00,6,999.1,-0.4,93,5,10000,7.408,,,70,5.4,8.8,,,,,27,,,,wg-a,,,,AAXX 19064 07434 02760 70704 10060 20050 39514 49991 55004 60006 8557/ 90600 333 10088 20054 60274=
07434,1997-12-19 09:00:00,7,999.9,1,87,5,25000,0,,,0,,,,,,,,,,,wg-a,,,,AAXX 19094 07434 12675 /0000 10070 20050 39524 49999 53010 60006 86800 90900=
07434,1997-12-19 12:00:00,10,999,-0.3,87,8,25000,11.112,,,130,,,,0,,,,,,1,wg-a,,,,AAXX 19124 07434 02575 41306 10100 20080 39521 49990 58003 60006 70186 81831 91200 333 60007=
07434,1997-12-19 15:00:00,12,998.5,-0.3,76,8,40000,11.112,,,180,,,,,,,,,,,wg-a,,,,AAXX 19154 07434 12582 /1806 10120 20080 39518 49985 55003 60006 81231 91500=
07434,1997-12-19 18:00:00,9,999.8,0.8,87,7,25000,7.408,,,180,5.7,11.9,,,,,,,,,wg-a,,,,AAXX 19184 07434 12/75 61804 10090 20070 39526 49998 53008 60006 85071 91800 333 10119 20057=
07434,1997-12-19 21:00:00,9,1000.3,0.5,81,6,500,14.816,,,210,,,,,,,,,,,wg-a,,,,AAXX 19214 07434 12600 72108 10090 20060 39531 40003 53005 60006 875// 92100=
07434,1997-12-20 00:00:00,8,1000.3,-0.2,87,6,15000,7.408,,,250,,,,0,,,,,,25,wg-a,,,,AAXX 20004 07434 02465 52504 10080 20060 39529 40003 58002 60016 72522 84830 90000 333 60007=
07434,1997-12-20 03:00:00,7,1001.2,0.7,93,6,12000,7.408,,,200,,,,,,,,,,,wg-a,,,,AAXX 20034 07434 12362 72004 10070 20060 39536 40012 53007 60006 875// 90300=
07434,1997-12-20 06:00:00,7,1002.1,0.8,93,6,6000,14.816,,,210,6.2,9.6,,,,,,,,25,wg-a,,,,AAXX 20064 07434 02156 72108 10070 20060 39544 40021 53008 61000 72586 878// 90600 333 10096 20062 6001=
07434,1997-12-20 09:00:00,6,1004,1.8,100,6,6000,18.52,,,220,,,,,,,,,,,wg-a,,,,AAXX 20094 07434 12156 72210 10060 20060 39562 40040 53018 60006 872// 90900=
07434,1997-12-20 15:00:00,8,1003.8,-0.4,93,7,12000,22.224,,,200,,,,,,,,,,25,wg-a,,,,AAXX 20154 07434 02362 /2012 10080 20070 39563 40038 55004 61000 72586 85830 91500 333 ////=
07434,1997-12-20 18:00:00,7,1004.7,0.7,93,6,12000,18.52,,,190,6.3,9.1,,,,,,,,61,wg-a,,,,AAXX 20184 07434 02262 81910 10070 20060 39570 40047 52007 61000 76186 877// 91800 333 10091 20063 6100=
07434,1997-12-20 21:00:00,6,1004.9,0,100,6,10000,18.52,,,160,,,,4,,,,,,61,wg-a,,,,AAXX 20214 07434 12160 81610 10060 20060 39570 40049 50000 60047 76166 875// 92100=
07434,1997-12-21 00:00:00,7,1004.6,-0.1,100,7,1500,7.408,,,180,,,,3,,,,,,10,wg-a,,,,AAXX 21004 07434 02115 81804 10070 20070 39569 40046 56001 60086 71066 877// 90000 333 60037=
07434,1997-12-21 03:00:00,8,1005.3,0.7,93,7,1500,18.52,,,260,,,,1,,,,,,10,wg-a,,,,AAXX 21034 07434 12115 72610 10080 20070 39576 40053 53007 60017 71062 877// 90300=
07434,1997-12-21 06:00:00,7,1008.6,3,93,6,600,22.224,,,330,6.3,8,,,,,14,,,45,wg-a,,,,AAXX 21064 07434 02/06 93312 10070 20060 39606 40086 53030 60006 74564 89/// 90600 333 10080 20063 60144=
07434,1997-12-21 09:00:00,6,1012.2,3.3,100,6,8000,14.816,,,350,,,,0,,,,,,21,wg-a,,,,AAXX 21094 07434 12258 73508 10060 20060 39639 40122 52033 60007 72164 877// 90900=
07434,1997-12-21 12:00:00,7,1013.1,1.1,100,7,9000,7.408,,,290,,,,,,,,,,2,wg-a,,,,AAXX 21124 07434 12259 72904 10070 20070 39650 40131 50011 60016 70264 875// 91200=
07434,1997-12-21 15:00:00,8,1013.2,0.2,93,7,12000,3.704,,,290,,,,,,,,,,,wg-a,,,,AAXX 21154 07434 12462 72902 10080 20070 39652 40132 53002 60006 878// 91500=
07434,1997-12-21 18:00:00,7,1014,0.6,93,6,10000,3.704,,,50,6.1,8.4,,,,,,,,,wg-a,,,,AAXX 21184 07434 12460 70502 10070 20060 39658 40140 51006 60006 878// 91800 333 10084 20061=
07434,1997-12-21 21:00:00,6,1014.3,0.1,93,5,200,3.704,,,70,,,,,,,,,,44,wg-a,,,,AAXX 21214 07434 12/02 90702 10060 20050 39659 40143 50001 60006 74441 89/// 92100=
07434,1997-12-22 00:00:00,5,1014.1,-0.4,100,5,200,11.112,,,80,,,,,,,,,,45,wg-a,,,,AAXX 22004 07434 12/02 90806 10050 20050 39655 40141 58004 60006 74541 89/// 90000=
07434,1997-12-22 06:00:00,1,1012.6,-1.7,100,1,500,7.408,,,100,1,6.9,,,,,1,,,10,wg-a,,,,AAXX 22064 07434 02/00 31004 10010 20010 39634 40126 57017 60006 71041 80001 90600 333 10069 20010 60014=
07434,1997-12-22 09:00:00,2,1013,0.6,93,1,500,7.408,,,90,,,,,,,,,,2,wg-a,,,,AAXX 22094 07434 12/00 30904 10020 20010 39640 40130 51006 60006 70240 80001 90900=
07434,1997-12-22 12:00:00,7,1010.9,-1.2,70,2,25000,11.112,,,100,,,,,,,,,,2,wg-a,,,,AAXX 22124 07434 12/75 51006 10070 20020 39628 40109 58012 60006 70241 81031 91200=
07434,1997-12-22 15:00:00,7,1010.4,-0.4,76,3,40000,7.408,,,130,,,,,,,,,,,wg-a,,,,AAXX 22154 07434 12/82 71304 10070 20030 39624 40104 55004 60006 83031 91500=
07434,1997-12-22 18:00:00,7,1011.4,0.9,76,3,20000,7.408,,,130,0.4,7.5,,,,,,,,,wg-a,,,,AAXX 22184 07434 12670 81304 10070 20030 39633 40114 53009 60006 8483/ 91800 333 10075 20004=
07434,1997-12-22 21:00:00,7,1012.9,1.5,76,3,11000,3.704,,,210,,,,,,,,,,,wg-a,,,,AAXX 22214 07434 12/61 /2102 10070 20030 39648 40129 51015 60006 92100=
07434,1997-12-23 00:00:00,6,1015,1.7,93,5,9000,3.704,,,180,,,,1,,,,,,60,wg-a,,,,AAXX 23004 07434 02359 71802 10060 20050 39665 40150 52017 60016 76062 8757/ 90000 333 60017=
07434,1997-12-23 03:00:00,6,1016.9,1.9,100,6,500,7.408,,,250,,,,2,,,,,,44,wg-a,,,,AAXX 23034 07434 12205 72504 10060 20060 39684 40169 53019 60027 74464 877// 90300=
07434,1997-12-23 06:00:00,6,1019.5,2.5,100,6,1500,11.112,,,300,5.7,7.4,,,,,,,,50,wg-a,,,,AAXX 23064 07434 02215 73006 10060 20060 39709 40195 53025 61000 75065 877// 90600 333 10074 20057 6004=
07434,1997-12-23 12:00:00,8,1024.7,1.5,93,7,8000,11.112,,,250,,,,,,,,,,3,wg-a,,,,AAXX 23124 07434 12358 72506 10080 20070 39762 40247 51015 60016 70354 878// 91200=
07434,1997-12-23 15:00:00,9,1025.7,1.1,81,6,15000,7.408,,,240,,,,,,,,,,,wg-a,,,,AAXX 23154 07434 12565 /2404 10090 20060 39773 40257 53011 60006 86800 91500=
07434,1997-12-23 18:00:00,8,1027.2,1.3,87,6,15000,11.112,,,190,6.3,9.9,,,,,,,,,wg-a,,,,AAXX 23184 07434 32465 71906 10080 20060 39786 40272 53013 878// 91800 333 10099 20063=
07434,1997-12-23 21:00:00,9,1028.4,1.2,87,7,10000,11.112,,,200,,,,,,,,,,50,wg-a,,,,AAXX 23214 07434 02360 82006 10090 20070 39798 40284 51012 61000 75065 885// 92100 333 ////=
07434,1997-12-24 00:00:00,9,1028.7,0.3,93,8,8000,18.52,,,210,,,,0,,,,,,2,wg-a,,,,AAXX 24004 07434 02158 82110 10090 20080 39801 40287 50003 60016 70265 887// 90000 333 60007=
07434,1997-12-24 03:00:00,9,1029.1,0.4,93,8,10000,7.408,,,200,,,,,,,,,,,wg-a,,,,AAXX 24034 07434 12460 82004 10090 20080 39805 40291 53004 60006 885// 90300=
07434,1997-12-24 09:00:00,8,1028.5,0.6,93,7,15000,11.112,,,130,,,,,,,,,,,wg-a,,,,AAXX 24094 07434 12665 71306 10080 20070 39797 40285 50006 60006 85532 90900=
07434,1997-12-24 12:00:00,9,1026.4,-1.7,87,7,500,14.816,,,150,,,,,,,,,,,wg-a,,,,AAXX 24124 07434 12700 71508 10090 20070 39780 40264 58017 60006 83532 91200=
07434,1997-12-24 15:00:00,10,1024.9,-1.3,87,8,500,14.816,,,190,,,,,,,,,,,wg-a,,,,AAXX 24154 07434 12700 61908 10100 20080 39767 40249 55013 60006 84532 91500=
07434,1997-12-24 21:00:00,9,1026.3,0.1,93,8,12000,11.112,,,180,,,,3,,,,,,21,wg-a,,,,AAXX 24214 07434 12262 71806 10090 20080 39778 40263 51001 60037 72162 875// 92100=
07434,1997-12-25 00:00:00,9,1025.9,-0.2,100,9,10000,7.408,,,200,,,,0,,,,,,51,wg-a,,,,AAXX 25004 07434 02160 72004 10090 20090 39776 40259 58002 60036 75165 876// 90000 333 60007=
07434,1997-12-25 06:00:00,9,1023.6,-1.3,100,9,12000,11.112,,,180,8.7,9.7,,,,,3,,,3,wg-a,,,,AAXX 25064 07434 02262 71806 10090 20090 39754 40236 56013 60006 70352 877// 90600 333 10097 20087 60034=
07434,1997-12-25 09:00:00,10,1022.9,-0.6,87,8,20000,14.816,,,180,,,,,,,,,,,wg-a,,,,AAXX 25094 07434 12670 71808 10100 20080 39748 40229 57006 60006 8657/ 90900=
07434,1997-12-25 12:00:00,13,1020.1,-2.2,72,8,40000,29.632,,,200,,,,,,,,,,,wg-a,,,,AAXX 25124 07434 12682 72016 10130 20080 39726 40201 58022 60006 8657/ 91200=
07434,1997-12-25 15:00:00,13,1018.5,-1.6,72,8,500,22.224,,,200,,,,,,,,,,60,wg-a,,,,AAXX 25154 07434 02600 72012 10130 20080 39710 40185 56016 61000 76062 8657/ 91500 333 ////=
07434,1997-12-25 18:00:00,12,1018.7,0.1,82,9,10000,18.52,,,240,9.2,13.5,,,,,,,,21,wg-a,,,,AAXX 25184 07434 02360 82410 10120 20090 39711 40187 50001 61000 72162 8657/ 91800 333 10135 20092 6001=
07434,1997-12-25 21:00:00,9,1019.4,0.2,93,8,15000,14.816,,,240,,,,2,,,,,,60,wg-a,,,,AAXX 25214 07434 12665 82408 10090 20080 39713 40194 50002 60027 76062 8552/ 92100=
07434,1997-12-26 00:00:00,9,1019.3,-0.1,93,8,15000,14.816,,,240,,,,0,,,,,,21,wg-a,,,,AAXX 26004 07434 02365 82408 10090 20080 39712 40193 55001 60026 72162 875// 90000 333 60007=
07434,1997-12-26 03:00:00,9,1018.3,-1,87,7,15000,18.52,,,220,,,,,,,,,,21,wg-a,,,,AAXX 26034 07434 02365 82210 10090 20070 39702 40183 56010 61000 72122 875// 90300 333 ////=
07434,1997-12-26 06:00:00,8,1016.7,-1.8,87,6,15000,14.816,,,250,7.5,11.9,,,,,,,,25,wg-a,,,,AAXX 26064 07434 02365 72508 10080 20060 39684 40167 58018 61000 72586 878// 90600 333 10119 20075 6003=
07434,1997-12-26 09:00:00,8,1016.7,0.1,87,6,15000,18.52,,,230,,,,,,,,,,,wg-a,,,,AAXX 26094 07434 12565 72310 10080 20060 39685 40167 53001 60006 878// 90900=
07434,1997-12-26 12:00:00,9,1015.2,-1.2,81,6,20000,25.928,,42.596,250,,,,2,,,,,,25,wg-a,,,,AAXX 26124 07434 02470 72514 10090 20060 39673 40152 58012 60026 72586 86901 91200 333 60027 91023=
07434,1997-12-26 18:00:00,6,1015.4,0.3,93,5,15000,11.112,,,240,5.8,9.5,,0,,,,,,3,wg-a,,,,AAXX 26184 07434 02465 62406 10060 20050 39670 40154 53003 60006 70386 85901 91800 333 10095 20058 60007=
07434,1997-12-26 21:00:00,6,1015.8,0.3,93,5,10000,14.816,,,260,,,,,,,,,,25,wg-a,,,,AAXX 26214 07434 02260 72608 10060 20050 39673 40158 51003 61000 72586 877// 92100 333 ////=
07434,1997-12-27 00:00:00,5,1016.1,0.2,100,5,12000,11.112,,,260,,,,,,,,,,2,wg-a,,,,AAXX 27004 07434 02262 72606 10050 20050 39675 40161 52002 61000 70286 877// 90000 333 6100=
07434,1997-12-27 03:00:00,5,1015.8,-0.4,93,4,9000,11.112,,,250,,,,0,,,,,,25,wg-a,,,,AAXX 27034 07434 12159 82506 10050 20040 39671 40158 56004 60007 72586 877// 90300=
07434,1997-12-27 06:00:00,5,1015.9,0.1,93,4,6000,11.112,,,260,4.6,6.4,,,,,,,,80,wg-a,,,,AAXX 27064 07434 02156 82606 10050 20040 39672 40159 53001 61000 78086 877// 90600 333 10064 20046 6006=
07434,1997-12-27 09:00:00,5,1017,1.1,100,5,7000,14.816,,,270,,,,1,,,,,,50,wg-a,,,,AAXX 27094 07434 12157 82708 10050 20050 39683 40170 53011 60017 75086 877// 90900=
07434,1997-12-27 12:00:00,6,1017.1,0.3,93,5,500,18.52,,,290,,,,,,,,,,1,wg-a,,,,AAXX 27124 07434 02200 72910 10060 20050 39686 40171 50003 60016 70186 878// 91200 333 61000=
07434,1997-12-27 15:00:00,7,1017,-0,81,4,500,18.52,,,290,,,,,,,,,,,wg-a,,,,AAXX 27154 07434 12400 /2910 10070 20040 39686 40170 55000 60006 86901 91500=
07434,1997-12-27 18:00:00,4,1019,1.4,93,3,500,7.408,,,260,3.7,7.4,,,,,,,,1,wg-a,,,,AAXX 27184 07434 02600 42604 10040 20030 39700 40190 53014 60006 70186 84801 91800 333 10074 20037 61000=
07434,1997-12-27 21:00:00,3,1019.8,0.6,100,3,500,7.408,,,260,,,,,,,,,,,wg-a,,,,AAXX 27214 07434 12500 52604 10030 20030 39706 40198 51006 60006 85801 92100=
07434,1997-12-28 00:00:00,4,1019.6,-0.1,93,3,20000,7.408,,,270,,,,,,,,,,,wg-a,,,,AAXX 28004 07434 12270 72704 10040 20030 39705 40196 55001 60006 865// 90000=
07434,1997-12-28 03:00:00,4,1019.2,-0.4,93,3,20000,3.704,,,230,,,,,,,,,,,wg-a,,,,AAXX 28034 07434 12270 72302 10040 20030 39701 40192 58004 60006 866// 90300=
07434,1997-12-28 06:00:00,3,1018.6,-0.6,100,3,600,7.408,,,250,2.9,3.7,,,,,1,,,44,wg-a,,,,AAXX 28064 07434 02106 72504 10030 20030 39695 40186 56006 60006 74442 876// 90600 333 10037 20029 60014=
07434,1997-12-28 09:00:00,4,1018.9,0.3,93,3,500,7.408,,,160,,,,,,,,,,43,wg-a,,,,AAXX 28094 07434 12/05 91604 10040 20030 39698 40189 53003 60006 74344 89/// 90900=
07434,1997-12-28 12:00:00,5,1017,-1.5,100,5,9000,11.112,,,190,,,,,,,,,,1,wg-a,,,,AAXX 28124 07434 12259 71906 10050 20050 39683 40170 58015 60006 70142 876// 91200=
07434,1997-12-28 15:00:00,6,1015.4,-1.4,87,4,11000,11.112,,,190,,,,,,,,,,,wg-a,,,,AAXX 28154 07434 12/61 /1906 10060 20040 39669 40154 56014 60006 91500=
07434,1997-12-28 18:00:00,5,1015.2,-0.3,93,4,15000,7.408,,,160,3.3,5.7,,,,,,,,,wg-a,,,,AAXX 28184 07434 12365 /1604 10050 20040 39666 40152 56003 60006 84601 91800 333 10057 20033=
07434,1997-12-28 21:00:00,4,1014.3,-1,93,3,10000,7.408,,,140,,,,,,,,,,,wg-a,,,,AAXX 28214 07434 12360 81404 10040 20030 39656 40143 58010 60006 886// 92100=
07434,1997-12-29 00:00:00,3,1013.6,-0.9,100,3,11000,3.704,,,120,,,,,,,,,,,wg-a,,,,AAXX 29004 07434 12/61 /1202 10030 20030 39647 40136 57009 60006 90000=
07434,1997-12-29 03:00:00,2,1013.5,-0.3,100,2,10000,7.408,,,110,,,,,,,,,,,wg-a,,,,AAXX 29034 07434 12660 /1104 10020 20020 39644 40135 58003 60006 81500 90300=
07434,1997-12-29 06:00:00,1,1013.1,-0.6,93,0,15000,7.408,,,70,0.8,5,,,,,,,,,wg-a,,,,AAXX 29064 07434 02/65 10704 10010 20000 39638 40131 55006 60006 80001 90600 333 10050 20008 60004=
07434,1997-12-29 09:00:00,2,1013.3,0.4,87,0,20000,11.112,,,90,,,,,,,,,,40,wg-a,,,,AAXX 29094 07434 12/70 20906 10020 20000 39642 40133 52004 60006 74000 80001 90900=
07434,1997-12-29 12:00:00,7,1011.4,-0.9,70,2,25000,11.112,,,140,,,,,,,,,,,wg-a,,,,AAXX 29124 07434 12/75 21406 10070 20020 39633 40114 58009 60006 80001 91200=
07434,1997-12-29 15:00:00,9,1010.3,-0.8,61,2,50000,11.112,,,160,,,,,,,,,,,wg-a,,,,AAXX 29154 07434 12/84 21606 10090 20020 39625 40103 55008 60006 80001 91500=
07434,1997-12-29 18:00:00,6,1010.5,-0.3,70,1,40000,7.408,,,120,0.6,8.7,,,,,,,,,wg-a,,,,AAXX 29184 07434 12/82 21204 10060 20010 39622 40105 56003 60006 81031 91800 333 10087 20006=
07434,1997-12-29 21:00:00,4,1011.2,0.4,81,1,25000,7.408,,,130,,,,,,,,,,,wg-a,,,,AAXX 29214 07434 12/75 31304 10040 20010 39626 40112 50004 60006 82031 92100=
07434,1997-12-30 00:00:00,4,1011.2,-0.1,81,1,20000,11.112,,,160,,,,,,,,,,,wg-a,,,,AAXX 30004 07434 12/70 41606 10040 20010 39625 40112 58001 60006 83031 90000=
07434,1997-12-30 03:00:00,4,1012.1,0.9,75,0,20000,11.112,,,130,,,,,,,,,,,wg-a,,,,AAXX 30034 07434 12670 71306 10040 20000 39634 40121 51009 60006 81531 90300=
07434,1997-12-30 06:00:00,4,1012.1,-0,75,0,20000,11.112,,,130,3,6,,,,,,,,,wg-a,,,,AAXX 30064 07434 02670 /1306 10040 20000 39634 40121 55000 60006 82531 90600 333 10060 20030 60004=
07434,1997-12-30 09:00:00,6,1013,1.2,81,3,40000,7.408,,,150,,,,,,,,,,,wg-a,,,,AAXX 30094 07434 12582 71504 10060 20030 39646 40130 53012 60006 8453/ 90900=
07434,1997-12-30 12:00:00,8,1012.2,-0.4,81,5,500,18.52,,,180,,,,,,,,,,,wg-a,,,,AAXX 30124 07434 12500 71810 10080 20050 39642 40122 58004 60006 8353/ 91200=
07434,1997-12-30 15:00:00,7,1011.6,-0.7,93,6,12000,18.52,,,180,,,,1,,,,,,21,wg-a,,,,AAXX 30154 07434 12462 81810 10070 20060 39635 40116 56007 60017 72165 878// 91500=
07434,1997-12-30 18:00:00,7,1011.8,0.2,93,6,8000,18.52,,,180,3.6,7.9,,,,,,,,20,wg-a,,,,AAXX 30184 07434 02158 81810 10070 20060 39637 40118 51002 61000 72065 877// 91800 333 10079 20036 6001=
07434,1997-12-30 21:00:00,7,1011,-0.7,100,7,10000,14.816,,,170,,,,1,,,,,,21,wg-a,,,,AAXX 30214 07434 12260 81708 10070 20070 39630 40110 58007 60017 72162 877// 92100=
07434,1997-12-31 00:00:00,8,1009.2,-1.7,87,6,15000,18.52,,,170,,,,,,,,,,2,wg-a,,,,AAXX 31004 07434 12465 /1710 10080 20060 39613 40092 58017 60016 70262 86800 90000=
07434,1997-12-31 06:00:00,8,1008.6,0.1,87,6,15000,22.224,,,210,6.7,8.3,,,,,,,,60,wg-a,,,,AAXX 31064 07434 02465 /2112 10080 20060 39608 40086 53001 61000 76062 8653/ 90600 333 10083 20067 6002=
07434,1997-12-31 09:00:00,8,1009.9,1.2,93,7,10000,22.224,,,190,,,,1,,,,,,61,wg-a,,,,AAXX 31094 07434 12260 81912 10080 20070 39620 40099 53012 60017 76166 875// 90900=
07434,1997-12-31 12:00:00,8,1010.3,0.5,100,8,4000,18.52,,,230,,,,5,,,,,,10,wg-a,,,,AAXX 31124 07434 02240 82310 10080 20080 39625 40103 51005 60066 71066 877// 91200 333 60057=
07434,1997-12-31 15:00:00,7,1011.5,1,100,7,10000,3.704,,,290,,,,5,,,,,,60,wg-a,,,,AAXX 31154 07434 12260 82902 10070 20070 39635 40115 53010 60057 76066 875// 91500=
07434,1997-12-31 18:00:00,7,1013.3,1.6,93,6,700,7.408,,,290,6.7,8.1,,0,,,,,,10,wg-a,,,,AAXX 31184 07434 02107 72904 10070 20060 39651 40133 51016 60006 71064 8583/ 91800 333 10081 20067 60007=
07434,1997-12-31 21:00:00,6,1014.7,1.2,93,5,3000,7.408,,,230,,,,0,,,,,,10,wg-a,,,,AAXX 31214 07434 12230 82304 10060 20050 39663 40147 53012 60007 71065 8653/ 92100=
