station_id,dh_utc,temperature,pression,pression_variation_3h,humidite,point_de_rosee,visibilite,vent_moyen,vent_rafales,vent_rafales_10min,vent_direction,temperature_min,temperature_max,pluie_1h,pluie_3h,pluie_6h,pluie_12h,pluie_24h,ensoleillement,temperature_sol,temps_omm,source,radiations,neige_au_sol,nebulosite,raw_msg
07434,1998-01-01 00:00:00,5,1015.5,0.6,100,5,10000,0,,,0,,,,0,,,,,,61,wg-a,,,,AAXX 01004 07434 02360 80000 10050 20050 39669 40155 52006 60016 76165 8553/ 90000 333 60007=
07434,1998-01-01 03:00:00,5,1016.3,0.8,100,5,500,3.704,,,110,,,,2,,,,,,21,wg-a,,,,AAXX 01034 07434 12200 81102 10050 20050 39677 40163 51008 60027 72162 877// 90300=
07434,1998-01-01 06:00:00,5,1017.3,0.8,93,4,8000,3.704,,,140,4.7,6.9,,,,,13,,,1,wg-a,,,,AAXX 01064 07434 02258 81402 10050 20040 39685 40173 53008 60006 70162 8553/ 90600 333 10069 20047 60134=
07434,1998-01-01 09:00:00,5,1018.8,1.5,100,5,4000,11.112,,,200,,,,,,,,,,10,wg-a,,,,AAXX 01094 07434 12140 82006 10050 20050 39700 40188 53015 60006 71022 886// 90900=
07434,1998-01-01 12:00:00,6,1018.3,-0.4,93,5,15000,14.816,,,210,,,,,,,,,,1,wg-a,,,,AAXX 01124 07434 12265 72108 10060 20050 39696 40183 58004 60006 70142 876// 91200=
07434,1998-01-01 18:00:00,4,1015.3,-1.9,93,3,15000,22.224,,,190,4.2,6.1,,,,,,,,,wg-a,,,,AAXX 01184 07434 12265 71912 10040 20030 39666 40153 57019 60006 85601 91800 333 10061 20042=
07434,1998-01-01 21:00:00,6,1014.2,-0.8,93,5,12000,31.484,,,210,,,,,,,,,,,wg-a,,,,AAXX 01214 07434 12362 72117 10060 20050 39658 40142 58008 60006 876// 92100=
07434,1998-01-02 00:00:00,6,1012.3,-1.9,87,4,13000,35.188,,,200,,,,,,,,,,1,wg-a,,,,AAXX 02004 07434 02463 72019 10060 20040 39639 40123 55019 61000 70162 875// 90000 333 6100=
07434,1998-01-02 06:00:00,6,1007.2,-3.4,81,3,15000,29.632,,,190,4.3,6.2,,,,,,,,,wg-a,,,,AAXX 02064 07434 02465 71916 10060 20030 39591 40072 57034 60006 875// 90600 333 10062 20043 61000=
07434,1998-01-02 09:00:00,6,1001.6,-5.3,93,5,6000,31.484,,,190,,,,1,,,,,,91,wg-a,,,,AAXX 02094 07434 12356 81917 10060 20050 39538 40016 56053 60017 79196 879// 90900=
07434,1998-01-02 12:00:00,6,1003.1,1.4,87,4,25000,22.224,,46.3,220,,,,7,,,,,,21,wg-a,,,,AAXX 02124 07434 02375 /2212 10060 20040 39552 40031 50014 60096 72196 85870 91200 333 60077 91025=
07434,1998-01-02 15:00:00,7,1005.8,2.8,87,5,10000,14.816,,,270,,,,0,,,,,,1,wg-a,,,,AAXX 02154 07434 12360 62708 10070 20050 39580 40058 53028 60007 70186 86800 91500=
07434,1998-01-02 18:00:00,6,1010.6,4.4,93,5,25000,18.52,,,280,5.3,7.6,,0,,,,,,3,wg-a,,,,AAXX 02184 07434 02575 72810 10060 20050 39624 40106 51044 60006 70386 84832 91800 333 10076 20053 60007=
07434,1998-01-02 21:00:00,6,1013,2.3,93,5,10000,11.112,,,260,,,,,,,,,,,wg-a,,,,AAXX 02214 07434 12660 72606 10060 20050 39647 40130 51023 60006 8457/ 92100=
07434,1998-01-03 00:00:00,6,1014.3,1.2,93,5,10000,11.112,,,210,,,,,,,,,,,wg-a,,,,AAXX 03004 07434 12460 82106 10060 20050 39659 40143 50012 60006 8457/ 90000=
07434,1998-01-03 03:00:00,7,1013.8,-0.4,93,6,6000,11.112,,,220,,,,3,,,,,,61,wg-a,,,,AAXX 03034 07434 12156 82206 10070 20060 39655 40138 58004 60037 76162 877// 90300=
07434,1998-01-03 06:00:00,7,1012.5,-1.1,61,0,3000,22.224,,,200,5.8,7.3,,,,,,,,51,wg-a,,,,AAXX 03064 07434 02130 82012 10070 20000 39644 40125 55011 61000 75165 887// 90600 333 10073 20058 6015=
07434,1998-01-03 09:00:00,9,1011.8,-0.3,100,9,7000,31.484,,51.856,220,,,,2,,,,,,60,wg-a,,,,AAXX 03094 07434 12257 82217 10090 20090 39641 40118 55003 60027 76065 877// 90900 333 91028=
07434,1998-01-03 12:00:00,11,1010.5,-1,94,10,4000,25.928,,,230,,,,1,,,,,,10,wg-a,,,,AAXX 03124 07434 02240 82314 10110 20100 39631 40105 58010 60026 71065 877// 91200 333 60017=
07434,1998-01-03 15:00:00,11,1009.5,-0.8,100,11,2000,25.928,,,240,,,,3,,,,,,10,wg-a,,,,AAXX 03154 07434 12120 82414 10110 20110 39623 40095 55008 60037 71066 877// 91500=
07434,1998-01-03 21:00:00,6,1018.6,3.2,93,5,12000,11.112,,,250,,,,,,,,,,,wg-a,,,,AAXX 03214 07434 12662 /2506 10060 20050 39701 40186 51032 60006 81500 92100=
07434,1998-01-04 00:00:00,6,1020.5,1.6,93,5,8000,7.408,,,200,,,,,,,,,,,wg-a,,,,AAXX 04004 07434 12258 52004 10060 20050 39717 40205 50016 60006 85500 90000=
07434,1998-01-04 09:00:00,6,1014.1,-2.6,93,5,12000,25.928,,,180,,,,,,,,,,,wg-a,,,,AAXX 04094 07434 12262 81814 10060 20050 39657 40141 56026 60006 876// 90900=
07434,1998-01-04 12:00:00,9,1011.4,-2,93,8,18000,31.484,,,210,,,,,,,,,,,wg-a,,,,AAXX 04124 07434 12468 72117 10090 20080 39637 40114 58020 60006 86101 91200=
07434,1998-01-05 00:00:00,6,1018.2,2.2,81,3,15000,14.816,,,260,,,,,,,,,,,wg-a,,,,AAXX 05004 07434 12565 32608 10060 20030 39696 40182 51022 60006 83800 90000=
07434,1998-01-05 03:00:00,5,1018.5,0.1,87,3,20000,11.112,,,190,,,,,,,,,,,wg-a,,,,AAXX 05034 07434 12670 /1906 10050 20030 39697 40185 50001 60006 81500 90300=
07434,1998-01-05 06:00:00,5,1017.7,-0.8,93,4,15000,22.224,,,200,3.8,7.4,,,,,3,,,,wg-a,,,,AAXX 05064 07434 02565 22012 10050 20040 39689 40177 56008 60006 82500 90600 333 10074 20038 60034=
07434,1998-01-05 09:00:00,6,1017.3,-0.2,87,4,12000,25.928,,,200,,,,,,,,,,,wg-a,,,,AAXX 05094 07434 12362 72014 10060 20040 39687 40173 55002 60006 8683/ 90900=
07434,1998-01-05 12:00:00,8,1015.1,-1.7,87,6,8000,35.188,,,210,,,,0,,,,,,25,wg-a,,,,AAXX 05124 07434 02458 72119 10080 20060 39670 40151 58017 60016 72586 878// 91200 333 60007=
07434,1998-01-05 15:00:00,9,1012.7,-2.1,81,6,15000,31.484,,,220,,,,0,,,,,,25,wg-a,,,,AAXX 05154 07434 12465 72217 10090 20060 39649 40127 56021 60007 72586 879// 91500=
07434,1998-01-05 21:00:00,8,1015.1,1.7,100,8,12000,22.224,,51.856,260,,,,4,,,,,,61,wg-a,,,,AAXX 05214 07434 12262 82612 10080 20080 39671 40151 53017 60047 76162 877// 92100 333 91028=
07434,1998-01-06 00:00:00,8,1017.9,2.5,93,7,15000,22.224,,,280,,,,1,,,,,,60,wg-a,,,,AAXX 06004 07434 02365 82812 10080 20070 39696 40179 51025 60056 76062 887// 90000 333 60017=
07434,1998-01-06 06:00:00,8,1018.3,-0.4,100,8,12000,14.816,,,230,6.4,9.2,,,,,,,,60,wg-a,,,,AAXX 06064 07434 02262 82308 10080 20080 39701 40183 55004 61000 76062 887// 90600 333 10092 20064 6009=
07434,1998-01-06 09:00:00,9,1019.5,1.3,93,8,10000,18.52,,,240,,,,2,,,,,,60,wg-a,,,,AAXX 06094 07434 12260 72410 10090 20080 39714 40195 51013 60027 76062 875// 90900=
07434,1998-01-06 12:00:00,10,1020.3,0.9,93,9,10000,18.52,,,250,,,,0,,,,,,21,wg-a,,,,AAXX 06124 07434 02260 72510 10100 20090 39723 40203 50009 60026 72162 872// 91200 333 60007=
07434,1998-01-06 18:00:00,9,1021,0.9,93,8,15000,18.52,,,220,7.9,10.8,,0,,,,,,1,wg-a,,,,AAXX 06184 07434 02565 72210 10090 20080 39728 40210 52009 60006 70186 878// 91800 333 10108 20079 60007=
07434,1998-01-07 00:00:00,8,1020.9,-0.4,87,6,15000,14.816,,,180,,,,,,,,,,1,wg-a,,,,AAXX 07004 07434 12665 /1808 10080 20060 39726 40209 57004 60006 70186 86500 90000=
07434,1998-01-07 03:00:00,8,1020.2,-0.7,81,5,15000,18.52,,,180,,,,,,,,,,,wg-a,,,,AAXX 07034 07434 12765 71810 10080 20050 39719 40202 56007 60006 875// 90300=
07434,1998-01-07 09:00:00,8,1021.8,1.9,81,5,40000,18.52,,,210,,,,,,,,,,,wg-a,,,,AAXX 07094 07434 12782 72110 10080 20050 39733 40218 53019 60006 875// 90900=
07434,1998-01-07 12:00:00,8,1022.9,1.2,87,6,10000,14.816,,,210,,,,0,,,,,,60,wg-a,,,,AAXX 07124 07434 02460 72108 10080 20060 39745 40229 50012 60006 76062 875// 91200 333 60007=
07434,1998-01-07 15:00:00,10,1022.9,0.3,87,8,25000,18.52,,,210,,,,,,,,,,1,wg-a,,,,AAXX 07154 07434 02475 22110 10100 20080 39748 40229 53003 61000 70161 82801 91500 333 ////=
07434,1998-01-07 18:00:00,9,1024.3,1.1,87,7,15000,14.816,,,200,7.4,10.7,,,,,,,,1,wg-a,,,,AAXX 07184 07434 12665 52008 10090 20070 39759 40243 51011 60006 70161 84501 91800 333 10107 20074=
07434,1998-01-07 21:00:00,8,1025.5,1.1,87,6,15000,18.52,,,220,,,,,,,,,,,wg-a,,,,AAXX 07214 07434 12665 /2210 10080 20060 39770 40255 52011 60006 86500 92100=
07434,1998-01-08 00:00:00,8,1027.3,1.6,87,6,15000,14.816,,,220,,,,,,,,,,,wg-a,,,,AAXX 08004 07434 12665 42208 10080 20060 39786 40273 51016 60006 84500 90000=
07434,1998-01-08 03:00:00,6,1028.3,0.7,100,6,15000,3.704,,,160,,,,,,,,,,,wg-a,,,,AAXX 08034 07434 12765 71602 10060 20060 39793 40283 51007 60006 875// 90300=
07434,1998-01-08 06:00:00,6,1028.4,-0,93,5,15000,3.704,,,120,5.9,8.7,,,,,,,,,wg-a,,,,AAXX 08064 07434 02765 51202 10060 20050 39793 40284 55000 60006 85500 90600 333 10087 20059 60004=
07434,1998-01-08 09:00:00,7,1029.2,1,93,6,10000,11.112,,,150,,,,,,,,,,,wg-a,,,,AAXX 08094 07434 12/60 /1506 10070 20060 39803 40292 53010 60006 90900=
07434,1998-01-08 15:00:00,12,1028.4,-0.1,71,7,25000,14.816,,,190,,,,,,,,,,,wg-a,,,,AAXX 08154 07434 12875 51908 10120 20070 39803 40284 55001 60006 83032 91500=
07434,1998-01-08 18:00:00,9,1029.6,0.7,81,6,25000,3.704,,,150,5.9,11.9,,,,,,,,,wg-a,,,,AAXX 08184 07434 12875 51502 10090 20060 39810 40296 53007 60006 83032 91800 333 10119 20059=
07434,1998-01-09 00:00:00,7,1031.2,0.3,87,5,0,7.408,,,90,,,,,,,,,,,wg-a,,,,AAXX 09004 07434 12/// /0904 10070 20050 39822 40312 50003 60006 90000=
07434,1998-01-09 03:00:00,7,1030.5,-0.7,81,4,15000,11.112,,,90,,,,,,,,,,,wg-a,,,,AAXX 09034 07434 12/65 10906 10070 20040 39815 40305 58007 60006 80001 90300=
07434,1998-01-09 06:00:00,6,1029.9,-0.7,81,3,15000,11.112,,,80,5.6,9.3,,,,,,,,,wg-a,,,,AAXX 09064 07434 02/65 00806 10060 20030 39808 40299 55007 60006 80000 90600 333 10093 20056 60004=
07434,1998-01-09 09:00:00,8,1029.6,-0,66,2,20000,11.112,,,90,,,,,,,,,,,wg-a,,,,AAXX 09094 07434 12/70 20906 10080 20020 39808 40296 55000 60006 80001 90900=
07434,1998-01-09 12:00:00,13,1028.2,-0.5,44,1,60000,11.112,,,140,,,,,,,,,,,wg-a,,,,AAXX 09124 07434 12/86 21406 10130 20010 39803 40282 58005 60006 80001 91200=
07434,1998-01-09 18:00:00,11,1026.8,-0.2,50,1,40000,11.112,,,130,6,14.7,,,,,,,,,wg-a,,,,AAXX 09184 07434 12/82 21306 10110 20010 39786 40268 55002 60006 80001 91800 333 10147 20060=
07434,1998-01-10 00:00:00,7,1027.7,-0.1,76,3,500,11.112,,,160,,,,,,,,,,,wg-a,,,,AAXX 10004 07434 12/00 21606 10070 20030 39789 40277 56001 60006 80001 90000=
07434,1998-01-10 03:00:00,7,1027.4,-0.5,70,2,500,11.112,,,130,,,,,,,,,,,wg-a,,,,AAXX 10034 07434 12/00 21306 10070 20020 39784 40274 57005 60006 80001 90300=
07434,1998-01-10 06:00:00,6,1026.9,-0.5,75,2,500,11.112,,,130,5.7,11.1,,,,,,,,,wg-a,,,,AAXX 10064 07434 02/00 31306 10060 20020 39779 40269 56005 60006 80001 90600 333 10111 20057 60004=
07434,1998-01-10 09:00:00,8,1027.1,0.4,66,2,500,14.816,,,110,,,,,,,,,,,wg-a,,,,AAXX 10094 07434 12/00 41108 10080 20020 39783 40271 51004 60006 81031 90900=
07434,1998-01-10 12:00:00,12,1024.9,-1.3,58,4,500,14.816,,,130,,,,,,,,,,,wg-a,,,,AAXX 10124 07434 12/00 51308 10120 20040 39770 40249 58013 60006 80001 91200=
07434,1998-01-10 15:00:00,14,1022.8,-1.8,55,5,50000,11.112,,,150,,,,,,,,,,,wg-a,,,,AAXX 10154 07434 12/84 51506 10140 20050 39752 40228 56018 60006 80001 91500=
07434,1998-01-10 18:00:00,11,1021.7,-1.4,66,5,50000,14.816,,,140,5.8,14,,,,,,,,,wg-a,,,,AAXX 10184 07434 12/84 41408 10110 20050 39738 40217 56014 60006 80001 91800 333 10140 20058=
07434,1998-01-10 21:00:00,9,1021.4,-0.7,71,4,40000,14.816,,,140,,,,,,,,,,,wg-a,,,,AAXX 10214 07434 12/82 31408 10090 20040 39731 40214 58007 60006 80001 92100=
07434,1998-01-11 00:00:00,8,1020.5,-1,66,2,40000,14.816,,,130,,,,,,,,,,,wg-a,,,,AAXX 11004 07434 12/82 41308 10080 20020 39721 40205 57010 60006 80001 90000=
07434,1998-01-11 06:00:00,7,1021.1,0.2,76,3,40000,11.112,,,170,7,10.9,,,,,,,,,wg-a,,,,AAXX 11064 07434 02/82 61706 10070 20030 39725 40211 53002 60006 81031 90600 333 10109 20070 60004=
07434,1998-01-11 09:00:00,8,1021.1,0.3,76,4,40000,11.112,,,120,,,,,,,,,,,wg-a,,,,AAXX 11094 07434 12/82 61206 10080 20040 39728 40211 51003 60006 81032 90900=
07434,1998-01-11 12:00:00,12,1020.7,0.3,67,6,500,11.112,,,170,,,,,,,,,,,wg-a,,,,AAXX 11124 07434 12/00 61706 10120 20060 39731 40207 51003 60006 82032 91200=
07434,1998-01-11 15:00:00,12,1019.7,-1,67,6,500,22.224,,,160,,,,,,,,,,,wg-a,,,,AAXX 11154 07434 12/00 71612 10120 20060 39721 40197 57010 60006 82032 91500=
07434,1998-01-11 18:00:00,11,1020.1,0.1,71,6,500,18.52,,,160,6.7,13.2,,,,,,,,,wg-a,,,,AAXX 11184 07434 12/00 71610 10110 20060 39722 40201 53001 60006 82032 91800 333 10132 20067=
07434,1998-01-12 00:00:00,9,1020.2,-0.6,76,5,500,11.112,,,130,,,,,,,,,,,wg-a,,,,AAXX 12004 07434 12/00 61306 10090 20050 39720 40202 58006 60006 84032 90000=
07434,1998-01-12 03:00:00,9,1019.4,-0.7,76,5,500,14.816,,,150,,,,,,,,,,,wg-a,,,,AAXX 12034 07434 12/00 71508 10090 20050 39713 40194 58007 60006 85032 90300=
07434,1998-01-12 06:00:00,9,1018.9,-0.6,76,5,500,11.112,,,150,8.5,10.5,,,,,,,,,wg-a,,,,AAXX 12064 07434 02/00 71506 10090 20050 39707 40189 56006 60006 8707/ 90600 333 10105 20085 60004=
07434,1998-01-12 09:00:00,9,1018.8,-0.1,76,5,40000,11.112,,,150,,,,,,,,,,,wg-a,,,,AAXX 12094 07434 12/82 81506 10090 20050 39706 40188 56001 60006 83078 90900=
07434,1998-01-12 12:00:00,12,1017.1,-1.1,67,6,500,25.928,,,170,,,,,,,,,,,wg-a,,,,AAXX 12124 07434 12/00 71714 10120 20060 39695 40171 58011 60006 81038 91200=
07434,1998-01-12 15:00:00,12,1015.7,-1.2,71,7,40000,25.928,,,170,,,,,,,,,,,wg-a,,,,AAXX 12154 07434 12582 71714 10120 20070 39683 40157 56012 60006 8113/ 91500=
07434,1998-01-12 17:00:00,10,1014.3,,76,6,20000,18.52,,,140,,,,,,,,,,,wg-a,,,,AAXX 12174 07434 12/70 31410 10100 20060 39668 40143 60006 80/70 91700=
07434,1998-01-12 18:00:00,10,1014.5,-1.5,76,6,20000,18.52,,,140,8.2,12.7,,,,,,,,,wg-a,,,,AAXX 12184 07434 12/70 31410 10100 20060 39668 40145 58015 60006 81031 91800 333 10127 20082=
07434,1998-01-12 21:00:00,10,1012.3,-2.2,76,6,20000,22.224,,,150,,,,,,,,,,,wg-a,,,,AAXX 12214 07434 12/70 51512 10100 20060 39646 40123 58022 60006 80001 92100=
07434,1998-01-13 00:00:00,10,1009.3,-2.7,76,6,20000,29.632,,,150,,,,,,,,,,,wg-a,,,,AAXX 13004 07434 12/70 51516 10100 20060 39619 40093 56027 60006 80001 90000=
07434,1998-01-13 12:00:00,13,1006.3,0,72,8,25000,31.484,,,180,,,,0,,,,,,25,wg-a,,,,AAXX 13124 07434 02575 71817 10130 20080 39594 40063 50000 60006 72586 8119/ 91200 333 60007=
07434,1998-01-13 15:00:00,11,1007,0.4,58,3,500,31.484,,59.264,240,,,,1,,,,,,1,wg-a,,,,AAXX 13154 07434 12400 72417 10110 20030 39598 40070 53004 60017 70162 878// 91500 333 91032=
07434,1998-01-13 21:00:00,7,1009.8,0.6,81,4,20000,25.928,,,230,,,,,,,,,,,wg-a,,,,AAXX 13214 07434 12570 72314 10070 20040 39618 40098 53006 60006 875// 92100=
07434,1998-01-14 00:00:00,7,1011.2,1.2,87,5,25000,22.224,,,220,,,,,,,,,,,wg-a,,,,AAXX 14004 07434 12375 82212 10070 20050 39630 40112 51012 60006 875// 90000=
07434,1998-01-14 06:00:00,5,1014.2,1.5,93,4,15000,14.816,,,250,5.3,9,,,,,,,,60,wg-a,,,,AAXX 14064 07434 02265 82508 10050 20040 39657 40142 53015 61000 76062 877// 90600 333 10090 20053 6002=
07434,1998-01-14 09:00:00,5,1018.2,3.7,93,4,15000,11.112,,,230,,,,0,,,,,,2,wg-a,,,,AAXX 14094 07434 12565 62306 10050 20040 39694 40182 53037 60007 70262 83531 90900=
07434,1998-01-14 12:00:00,8,1019.8,2.1,81,5,500,14.816,,,270,,,,,,,,,,1,wg-a,,,,AAXX 14124 07434 12400 /2708 10080 20050 39715 40198 51021 60016 70161 85200 91200=
07434,1998-01-14 15:00:00,8,1021.3,1.4,71,3,500,14.816,,,280,,,,,,,,,,,wg-a,,,,AAXX 14154 07434 12500 /2808 10080 20030 39729 40213 53014 60006 85200 91500=
07434,1998-01-14 18:00:00,4,1024.2,2.1,93,3,15000,7.408,,,260,4.1,9.3,,0,,,,,,1,wg-a,,,,AAXX 14184 07434 02565 22604 10040 20030 39750 40242 52021 60006 70186 82801 91800 333 10093 20041 60007=
07434,1998-01-14 21:00:00,4,1025.7,1.3,93,3,15000,7.408,,,250,,,,,,,,,,,wg-a,,,,AAXX 14214 07434 12/65 32504 10040 20030 39763 40257 51013 60006 83030 92100=
07434,1998-01-15 00:00:00,3,1026.3,0.4,93,2,900,0,,,0,,,,,,,,,,41,wg-a,,,,AAXX 15004 07434 12/09 /0000 10030 20020 39767 40263 50004 60006 74141 84032 90000=
07434,1998-01-15 06:00:00,4,1025,-1,93,3,1500,11.112,,,160,2.1,4.3,,,,,,,,45,wg-a,,,,AAXX 15064 07434 02015 91606 10040 20030 39757 40250 57010 61000 74564 896// 90600 333 10043 20021 6001=
07434,1998-01-15 09:00:00,5,1025.3,0.4,93,4,4000,18.52,,,190,,,,2,,,,,,10,wg-a,,,,AAXX 15094 07434 12240 81910 10050 20040 39761 40253 51004 60027 71066 877// 90900=
07434,1998-01-15 12:00:00,6,1024.6,-0.5,93,5,10000,18.52,,,200,,,,1,,,,,,21,wg-a,,,,AAXX 15124 07434 02160 82010 10060 20050 39756 40246 58005 60026 72162 877// 91200 333 60017=
07434,1998-01-15 15:00:00,6,1023.1,-1.3,100,6,3000,22.224,,,200,,,,0,,,,,,50,wg-a,,,,AAXX 15154 07434 12130 82012 10060 20060 39743 40231 56013 60007 75052 877// 91500=
07434,1998-01-16 03:00:00,7,1017.3,-2.2,100,7,8000,25.928,,,200,,,,5,,,,,,61,wg-a,,,,AAXX 16034 07434 12158 82014 10070 20070 39689 40173 57022 60057 76162 887// 90300=
07434,1998-01-16 06:00:00,7,1015.2,-1.9,100,7,8000,18.52,,,210,6.5,7.2,,,,,,,,61,wg-a,,,,AAXX 16064 07434 02158 82110 10070 20070 39670 40152 56019 61000 76162 887// 90600 333 10072 20065 6025=
07434,1998-01-16 09:00:00,8,1014.9,-0.2,87,6,12000,25.928,,,240,,,,2,,,,,,80,wg-a,,,,AAXX 16094 07434 12262 72414 10080 20060 39668 40149 55002 60027 78086 873// 90900=
07434,1998-01-16 12:00:00,6,1016.5,1.3,100,6,11000,22.224,,,270,,,,5,,,,,,,wg-a,,,,AAXX 16124 07434 02/61 /2712 10060 20060 39681 40165 53013 60076 91200 333 60057=
07434,1998-01-16 15:00:00,6,1018.9,2.2,93,5,12000,25.928,,,300,,,,2,,,,,,25,wg-a,,,,AAXX 16154 07434 12162 73014 10060 20050 39703 40189 53022 60027 72586 878// 91500=
07434,1998-01-17 00:00:00,3,1028.8,2,100,3,15000,11.112,,,290,,,,,,,,,,3,wg-a,,,,AAXX 17004 07434 12265 /2906 10030 20030 39792 40288 51020 60016 70386 85100 90000=
07434,1998-01-17 03:00:00,3,1030,1.1,93,2,500,7.408,,,300,,,,,,,,,,45,wg-a,,,,AAXX 17034 07434 12/05 93004 10030 20020 39803 40300 52011 60006 74542 89/// 90300=
07434,1998-01-17 06:00:00,3,1030.8,0.8,100,3,1200,3.704,,,350,2.6,,,,,,10,,,10,wg-a,,,,AAXX 17064 07434 02112 73502 10030 20030 39811 40308 51008 60006 71042 876// 90600 333 10060 20026 60104=
07434,1998-01-17 09:00:00,3,1031.7,0.9,100,3,600,7.408,,,140,,,,,,,,,,44,wg-a,,,,AAXX 17094 07434 12106 81404 10030 20030 39820 40317 51009 60006 74442 886// 90900=
07434,1998-01-17 12:00:00,7,1030,-1,76,3,15000,3.704,,,200,,,,,,,,,,1,wg-a,,,,AAXX 17124 07434 12465 52002 10070 20030 39810 40300 58010 60006 70142 85202 91200=
07434,1998-01-17 21:00:00,3,1024.4,-2.6,93,2,25000,11.112,,,150,,,,,,,,,,,wg-a,,,,AAXX 17214 07434 12/75 61506 10030 20020 39750 40244 56026 60006 80004 92100=
07434,1998-01-18 00:00:00,3,1022.4,-2,87,1,20000,11.112,,,130,,,,,,,,,,,wg-a,,,,AAXX 18004 07434 12/70 71306 10030 20010 39730 40224 58020 60006 85032 90000=
07434,1998-01-18 03:00:00,3,1019.3,-2.9,75,-1,18000,11.112,,,160,,,,,,,,,,,wg-a,,,,AAXX 18034 07434 12/68 71606 10030 21010 39701 40193 56029 60006 8703/ 90300=
07434,1998-01-18 06:00:00,4,1016.3,-2.7,65,-2,20000,14.816,,,170,2.1,4.7,,,,,,,,,wg-a,,,,AAXX 18064 07434 02/70 71708 10040 21020 39674 40163 58027 60006 86032 90600 333 10047 20021 60004=
07434,1998-01-18 09:00:00,3,1015.2,-1.1,93,2,8000,22.224,,,180,,,,2,,,,,,61,wg-a,,,,AAXX 18094 07434 12358 81812 10030 20020 39663 40152 58011 60027 76162 8652/ 90900=
07434,1998-01-18 12:00:00,5,1012.9,-1.9,100,5,6000,29.632,,,210,,,,3,,,,,,61,wg-a,,,,AAXX 18124 07434 02156 82116 10050 20050 39644 40129 58019 60056 76162 877// 91200 333 60037=
07434,1998-01-18 15:00:00,8,1011.9,-0.5,87,6,15000,22.224,,,240,,,,4,,,,,,60,wg-a,,,,AAXX 18154 07434 12365 82412 10080 20060 39639 40119 58005 60047 76066 8477/ 91500=
07434,1998-01-18 18:00:00,7,1011.6,-0.3,93,6,6000,22.224,,37.04,230,3,8,,,,,,,,61,wg-a,,,,AAXX 18184 07434 02256 82312 10070 20060 39636 40116 58003 61000 76166 877// 91800 333 10080 20030 6004 91020=
07434,1998-01-18 21:00:00,8,1008.7,-2.8,93,7,8000,25.928,,,250,,,,7,,,,,,61,wg-a,,,,AAXX 18214 07434 12258 82514 10080 20070 39608 40087 58028 60077 76166 877// 92100=
07434,1998-01-19 00:00:00,10,1003.4,-4.7,87,8,12000,38.892,,59.264,260,,,,7,,,,,,61,wg-a,,,,AAXX 19004 07434 02362 82621 10100 20080 39561 40034 56047 60146 76166 877// 90000 333 60077 91032=
07434,1998-01-19 06:00:00,4,1007.4,0.9,93,3,12000,11.112,,,270,3.7,9.5,,,,,,,,61,wg-a,,,,AAXX 19064 07434 02462 72706 10040 20030 39589 40074 51009 61000 76166 875// 90600 333 10095 20037 6046=
07434,1998-01-19 09:00:00,4,1008.3,0.9,100,4,12000,7.408,,,250,,,,2,,,,,,1,wg-a,,,,AAXX 19094 07434 12562 72504 10040 20040 39598 40083 53009 60027 70162 8552/ 90900=
07434,1998-01-19 15:00:00,8,1011.6,1.3,76,4,20000,22.224,,,290,,,,,,,,,,,wg-a,,,,AAXX 19154 07434 12470 42912 10080 20040 39636 40116 53013 60006 84800 91500=
07434,1998-01-19 18:00:00,6,1014.1,2.1,81,3,25000,14.816,,,280,3.4,8,,,,,,,,,wg-a,,,,AAXX 19184 07434 12675 72808 10060 20030 39657 40141 51021 60006 875// 91800 333 10080 20034=
07434,1998-01-20 00:00:00,6,1015.6,0.6,93,5,20000,18.52,,,300,,,,1,,,,,,21,wg-a,,,,AAXX 20004 07434 02270 83010 10060 20050 39671 40156 53006 60016 72186 877// 90000 333 60017=
07434,1998-01-20 03:00:00,3,1019.5,3.1,87,1,25000,22.224,,,10,,,,0,,,,,,,wg-a,,,,AAXX 20034 07434 12475 70112 10030 20010 39702 40195 53031 60007 878// 90300=
07434,1998-01-20 06:00:00,0,1023.8,3.7,86,-2,500,22.224,,,360,0.1,6.3,,,,,3,,,,wg-a,,,,AAXX 20064 07434 02400 /3612 10000 21020 39739 40238 53037 60006 83100 90600 333 10063 20001 60034=
07434,1998-01-20 09:00:00,0,1027.8,3.7,86,-2,20000,18.52,,,340,,,,,,,,,,,wg-a,,,,AAXX 20094 07434 12470 33410 10000 21020 39776 40278 53037 60006 83100 90900=
07434,1998-01-20 12:00:00,1,1029.5,1.9,80,-2,25000,18.52,,,360,,,,,,,,,,,wg-a,,,,AAXX 20124 07434 12475 73610 10010 21020 39795 40295 53019 60006 87800 91200=
07434,1998-01-20 21:00:00,2,1032.6,1,80,-1,15000,11.112,,,320,,,,,,,,,,22,wg-a,,,,AAXX 20214 07434 02565 73206 10020 21010 39825 40326 52010 61000 72272 875// 92100 333 ////=
07434,1998-01-21 00:00:00,0,1033.5,0.6,86,-2,15000,14.816,,,350,,,,,,,,,,1,wg-a,,,,AAXX 21004 07434 02465 33508 10000 21020 39831 40335 50006 61000 70171 83500 90000 333 6100=
07434,1998-01-21 03:00:00,-1,1033.7,0.1,100,-1,10000,14.816,,,360,,,,,,,,,,,wg-a,,,,AAXX 21034 07434 12260 /3608 11010 21010 39832 40337 53001 60006 86500 90300=
07434,1998-01-21 06:00:00,0,1034,0.3,93,-1,10000,11.112,,,30,-0.8,1.6,,,,,,,,,wg-a,,,,AAXX 21064 07434 02260 /0306 10000 21010 39835 40340 53003 60006 86500 90600 333 10016 21008 61000=
07434,1998-01-21 09:00:00,0,1035,1,86,-2,10000,11.112,,,40,,,,,,,,,,,wg-a,,,,AAXX 21094 07434 12460 /0406 10000 21020 39845 40350 51010 60006 86100 90900=
07434,1998-01-21 12:00:00,1,1034.5,-0.3,75,-3,18000,14.816,,,20,,,,,,,,,,,wg-a,,,,AAXX 21124 07434 12468 /0208 10010 21030 39842 40345 58003 60006 86200 91200=
07434,1998-01-21 15:00:00,2,1033.6,-0.7,75,-2,20000,18.52,,,30,,,,,,,,,,,wg-a,,,,AAXX 21154 07434 12570 /0310 10020 21020 39835 40336 56007 60006 86100 91500=
07434,1998-01-21 21:00:00,0,1032.7,-0.8,74,-4,500,18.52,,,70,,,,,,,,,,,wg-a,,,,AAXX 21214 07434 12100 40710 10000 21040 39823 40327 57008 60006 84500 92100=
07434,1998-01-22 00:00:00,-2,1031.9,-1,86,-4,11000,11.112,,,40,,,,,,,,,,,wg-a,,,,AAXX 22004 07434 12/61 /0406 11020 21040 39813 40319 57010 60006 90000=
07434,1998-01-22 03:00:00,-2,1030.9,-1.1,80,-5,20000,11.112,,,30,,,,,,,,,,,wg-a,,,,AAXX 22034 07434 12570 20306 11020 21050 39802 40309 58011 60006 82500 90300=
07434,1998-01-22 06:00:00,-3,1029.4,-1.5,86,-5,20000,14.816,,,50,-3,0.6,,,,,,,,,wg-a,,,,AAXX 22064 07434 02670 /0508 11030 21050 39787 40294 56015 60006 81500 90600 333 10006 21030 60004=
07434,1998-01-22 09:00:00,-2,1028.8,-0.4,80,-5,12000,18.52,,,50,,,,,,,,,,,wg-a,,,,AAXX 22094 07434 12462 20510 11020 21050 39783 40288 58004 60006 82100 90900=
07434,1998-01-22 12:00:00,1,1026.6,-1.6,64,-5,18000,22.224,,,60,,,,,,,,,,,wg-a,,,,AAXX 22124 07434 12468 /0612 10010 21050 39767 40266 58016 60006 81100 91200=
07434,1998-01-22 15:00:00,1,1024.3,-2.2,59,-6,25000,25.928,,,60,,,,,,,,,,,wg-a,,,,AAXX 22154 07434 12575 /0614 10010 21060 39745 40243 56022 60006 81100 91500=
07434,1998-01-22 18:00:00,-2,1024.2,-0.6,74,-6,20000,18.52,,,60,-2.7,1.6,,,,,,,,,wg-a,,,,AAXX 22184 07434 12/70 00610 11020 21060 39739 40242 58006 60006 80000 91800 333 10016 21027=
07434,1998-01-23 03:00:00,-1,1020.8,-1.1,74,-5,20000,29.632,,46.3,80,,,,,,,,,,,wg-a,,,,AAXX 23034 07434 12570 70816 11010 21050 39707 40208 58011 60006 875// 90300 333 91025=
07434,1998-01-23 06:00:00,-2,1019.9,-0.9,80,-5,20000,18.52,,,70,-2.5,-1.2,,,,,,,,,wg-a,,,,AAXX 23064 07434 02/70 00710 11020 21050 39698 40199 56009 60006 80000 90600 333 11012 21025 60004=
07434,1998-01-23 09:00:00,-1,1020.6,0.8,74,-5,15000,14.816,,,70,,,,,,,,,,,wg-a,,,,AAXX 23094 07434 12/65 00708 11010 21050 39706 40206 53008 60006 80000 90900=
07434,1998-01-23 12:00:00,4,1019.4,-0.3,56,-4,15000,14.816,,,60,,,,,,,,,,,wg-a,,,,AAXX 23124 07434 12/65 00608 10040 21040 39703 40194 58003 60006 80000 91200=
07434,1998-01-23 15:00:00,7,1018.5,-0.3,49,-3,15000,14.816,,,60,,,,,,,,,,,wg-a,,,,AAXX 23154 07434 12/65 00608 10070 21030 39700 40185 55003 60006 80000 91500=
07434,1998-01-23 18:00:00,3,1020.3,1,65,-3,15000,22.224,,,70,-2.3,7.2,,,,,,,,,wg-a,,,,AAXX 23184 07434 12/65 00712 10030 21030 39710 40203 53010 60006 80000 91800 333 10072 21023=
07434,1998-01-23 21:00:00,1,1021.4,0.7,75,-3,15000,11.112,,,60,,,,,,,,,,,wg-a,,,,AAXX 23214 07434 12/65 00606 10010 21030 39717 40214 52007 60006 80000 92100=
07434,1998-01-24 00:00:00,1,1021.6,0.2,75,-3,12000,7.408,,,70,,,,,,,,,,,wg-a,,,,AAXX 24004 07434 12/62 00704 10010 21030 39719 40216 51002 60006 80000 90000=
07434,1998-01-24 03:00:00,0,1021.8,0,80,-3,12000,11.112,,,60,,,,,,,,,,,wg-a,,,,AAXX 24034 07434 12/62 00606 10000 21030 39719 40218 50000 60006 80000 90300=
07434,1998-01-24 06:00:00,-1,1021.7,-0.3,80,-4,10000,18.52,,,50,-1.5,2.5,,,,,,,,,wg-a,,,,AAXX 24064 07434 02/60 00510 11010 21040 39716 40217 55003 60006 80000 90600 333 10025 21015 60004=
07434,1998-01-24 09:00:00,0,1022.4,0.9,74,-4,8000,29.632,,,70,,,,,,,,,,,wg-a,,,,AAXX 24094 07434 12/58 00716 10000 21040 39725 40224 51009 60006 80000 90900=
07434,1998-01-24 12:00:00,1,1021.7,-0.6,75,-3,10000,29.632,,50.004,80,,,,,,,,,,,wg-a,,,,AAXX 24124 07434 12460 70816 10010 21030 39719 40217 58006 60006 875// 91200 333 91027=
07434,1998-01-24 15:00:00,0,1021.2,-0.5,86,-2,9000,25.928,,,50,,,,,,,,,,,wg-a,,,,AAXX 24154 07434 12259 70514 10000 21020 39714 40212 55005 60006 875// 91500=
07434,1998-01-24 18:00:00,-1,1021.5,0.1,86,-3,8000,35.188,,,50,-1.6,0.7,,,,,,,,,wg-a,,,,AAXX 24184 07434 12458 70519 11010 21030 39715 40215 53001 60006 875// 91800 333 10007 21016=
07434,1998-01-24 21:00:00,-1,1021.2,-0.3,93,-2,8000,31.484,,,40,,,,,,,,,,,wg-a,,,,AAXX 24214 07434 12258 80417 11010 21020 39712 40212 58003 60006 886// 92100=
07434,1998-01-25 00:00:00,0,1020.7,-0.4,80,-3,10000,22.224,,,30,,,,,,,,,,,wg-a,,,,AAXX 25004 07434 12560 70312 10000 21030 39708 40207 58004 60006 875// 90000=
07434,1998-01-25 03:00:00,-1,1019.9,-0.8,86,-3,10000,18.52,,,30,,,,,,,,,,70,wg-a,,,,AAXX 25034 07434 02460 80310 11010 21030 39700 40199 56008 61000 77072 885// 90300 333 ////=
07434,1998-01-25 06:00:00,-1,1019.4,-0.6,86,-3,8000,14.816,,,30,-1.2,0,,,,,,,,70,wg-a,,0,,AAXX 25064 07434 02358 80308 11010 21030 39694 40194 55006 61000 77072 887// 90600 333 10000 21012 4/9999 6100=
07434,1998-01-25 09:00:00,-2,1020.1,0.7,93,-3,7000,14.816,,,20,,,,,,,,,,70,wg-a,,,,AAXX 25094 07434 02257 80208 11020 21030 39701 40201 52007 61000 77077 888// 90900 333 ////=
07434,1998-01-25 12:00:00,0,1019.8,0,86,-2,12000,14.816,,,30,,,,,,,,,,22,wg-a,,,,AAXX 25124 07434 02462 70308 10000 21020 39701 40198 50000 61000 72272 878// 91200 333 6100=
07434,1998-01-25 15:00:00,0,1020,0.1,86,-2,20000,18.52,,,50,,,,,,,,,,70,wg-a,,,,AAXX 25154 07434 02470 70510 10000 21020 39702 40200 53001 61000 77087 87801 91500 333 ////=
07434,1998-01-25 18:00:00,-1,1021.1,0.9,80,-4,20000,18.52,,,60,-1.6,1.4,,0,,,,,,1,wg-a,,,,AAXX 25184 07434 02570 30610 11010 21040 39711 40211 53009 60006 70187 82801 91800 333 10014 21016 60007=
07434,1998-01-25 21:00:00,-1,1022.7,1.5,80,-4,13000,14.816,,,70,,,,,,,,,,,wg-a,,,,AAXX 25214 07434 12663 40708 11010 21040 39726 40227 53015 60006 84501 92100=
07434,1998-01-26 00:00:00,0,1023.4,0.8,80,-3,13000,14.816,,,70,,,,,,,,,,,wg-a,,,,AAXX 26004 07434 12663 70708 10000 21030 39734 40234 53008 60006 875// 90000=
07434,1998-01-26 03:00:00,0,1023.6,0.2,80,-3,10000,11.112,,,70,,,,,,,,,,,wg-a,,,,AAXX 26034 07434 12560 70706 10000 21030 39736 40236 52002 60006 875// 90300=
07434,1998-01-26 06:00:00,0,1023.9,0.3,86,-2,9000,7.408,,,50,-1.6,0.9,,,,,,,,,wg-a,,,,AAXX 26064 07434 02559 60504 10000 21020 39739 40239 53003 60006 86500 90600 333 10009 21016 60004=
07434,1998-01-26 09:00:00,1,1024.3,0.6,80,-2,9000,11.112,,,40,,,,,,,,,,,wg-a,,,,AAXX 26094 07434 12559 70406 10010 21020 39745 40243 51006 60006 87500 90900=
07434,1998-01-26 12:00:00,7,1022.8,-0.4,57,-1,9000,14.816,,,60,,,,,,,,,,,wg-a,,,,AAXX 26124 07434 12/59 30608 10070 21010 39741 40228 58004 60006 80002 91200=
07434,1998-01-26 15:00:00,7,1021.4,-1.3,61,0,15000,14.816,,,20,,,,,,,,,,,wg-a,,,,AAXX 26154 07434 12/65 10208 10070 20000 39728 40214 56013 60006 80001 91500=
07434,1998-01-26 18:00:00,1,1021.8,-0.7,80,-2,15000,14.816,,,30,-0.9,7.8,,,,,,,,,wg-a,,,,AAXX 26184 07434 12/65 10308 10010 21020 39721 40218 58007 60006 80001 91800 333 10078 21009=
07434,1998-01-26 21:00:00,-2,1022.4,0,86,-4,10000,18.52,,,70,,,,,,,,,,,wg-a,,,,AAXX 26214 07434 12/60 10710 11020 21040 39721 40224 50000 60006 80001 92100=
07434,1998-01-27 00:00:00,-3,1021.7,-0.8,93,-4,10000,14.816,,,70,,,,,,,,,,,wg-a,,,,AAXX 27004 07434 12/60 /0708 11030 21040 39713 40217 58008 60006 90000=
07434,1998-01-27 03:00:00,-4,1020.4,-1.4,93,-5,10000,11.112,,,90,,,,,,,,,,,wg-a,,,,AAXX 27034 07434 12/60 00906 11040 21050 39699 40204 58014 60006 80000 90300=
07434,1998-01-27 06:00:00,-3,1019.3,-1,86,-5,500,7.408,,,80,-3.7,0.9,,,,,,,,,wg-a,,,,AAXX 27064 07434 02/00 /0804 11030 21050 39689 40193 56010 60006 90600 333 10009 21037 60004=
07434,1998-01-27 09:00:00,-1,1018.9,0.2,86,-3,500,3.704,,,60,,,,,,,,,,,wg-a,,,,AAXX 27094 07434 12/00 00602 11010 21030 39691 40189 53002 60006 80000 90900=
07434,1998-01-27 12:00:00,7,1016.8,-0.8,66,1,8000,7.408,,,150,,,,,,,,,,,wg-a,,,,AAXX 27124 07434 12/58 01504 10070 20010 39683 40168 58008 60006 80000 91200=
07434,1998-01-27 18:00:00,3,1015.8,-0.1,81,0,12000,11.112,,,20,-3.6,9.4,,,,,,,,,wg-a,,,,AAXX 27184 07434 12/62 20206 10030 20000 39668 40158 55001 60006 82030 91800 333 10094 21036=
07434,1998-01-27 21:00:00,3,1016.3,0.4,75,-1,15000,11.112,,,50,,,,,,,,,,,wg-a,,,,AAXX 27214 07434 12/65 20506 10030 21010 39672 40163 51004 60006 82030 92100=
07434,1998-01-28 00:00:00,2,1016.5,0.1,87,0,15000,11.112,,,70,,,,,,,,,,,wg-a,,,,AAXX 28004 07434 12/65 20706 10020 20000 39673 40165 50001 60006 82030 90000=
07434,1998-01-28 03:00:00,1,1016.4,-0.2,86,-1,15000,11.112,,,60,,,,,,,,,,,wg-a,,,,AAXX 28034 07434 12/65 20606 10010 21010 39671 40164 58002 60006 82030 90300=
07434,1998-01-28 06:00:00,1,1015.9,-0.6,86,-1,15000,11.112,,,90,0.9,4,,,,,,,,,wg-a,,,,AAXX 28064 07434 02/65 20906 10010 21010 39665 40159 57006 60006 80001 90600 333 10040 20009 60004=
07434,1998-01-28 12:00:00,7,1015.3,-0.4,61,0,12000,7.408,,,100,,,,,,,,,,,wg-a,,,,AAXX 28124 07434 12/62 51004 10070 20000 39670 40153 58004 60006 80002 91200=
07434,1998-01-28 15:00:00,9,1013.5,-1.4,46,-2,15000,11.112,,,90,,,,,,,,,,,wg-a,,,,AAXX 28154 07434 12/65 40906 10090 21020 39656 40135 56014 60006 80002 91500=
07434,1998-01-28 18:00:00,3,1014.5,-0,81,0,10000,18.52,,,20,0.7,9.2,,,,,,,,,wg-a,,,,AAXX 28184 07434 12/60 30210 10030 20000 39656 40145 55000 60006 80002 91800 333 10092 20007=
07434,1998-01-28 21:00:00,2,1015.6,0.8,80,-1,10000,11.112,,,60,,,,,,,,,,,wg-a,,,,AAXX 28214 07434 12/60 20606 10020 21010 39664 40156 51008 60006 80002 92100=
07434,1998-01-29 00:00:00,1,1015.9,0.2,86,-1,10000,11.112,,,60,,,,,,,,,,,wg-a,,,,AAXX 29004 07434 12/60 20606 10010 21010 39666 40159 51002 60006 80002 90000=
07434,1998-01-29 06:00:00,1,1016.2,0.1,86,-1,10000,11.112,,,60,0.8,3.3,,,,,,,,,wg-a,,,,AAXX 29064 07434 02/60 00606 10010 21010 39668 40162 53001 60006 80000 90600 333 10033 20008 60004=
07434,1998-01-29 12:00:00,7,1016.6,0.3,61,0,12000,14.816,,,90,,,,,,,,,,,wg-a,,,,AAXX 29124 07434 12/62 20908 10070 20000 39682 40166 50003 60006 80001 91200=
07434,1998-01-29 15:00:00,8,1015.5,-0.8,61,1,20000,11.112,,,340,,,,,,,,,,,wg-a,,,,AAXX 29154 07434 12/70 23406 10080 20010 39674 40155 56008 60006 80001 91500=
07434,1998-01-29 18:00:00,3,1017.1,0.6,75,-1,12000,11.112,,,40,0.4,9.3,,,,,,,,,wg-a,,,,AAXX 29184 07434 12/62 10406 10030 21010 39680 40171 53006 60006 80001 91800 333 10093 20004=
07434,1998-01-29 21:00:00,0,1018,0.3,80,-3,10000,11.112,,,60,,,,,,,,,,,wg-a,,,,AAXX 29214 07434 12/60 10606 10000 21030 39683 40180 51003 60006 80001 92100=
07434,1998-01-30 00:00:00,-1,1018.2,0.1,74,-5,10000,11.112,,,60,,,,,,,,,,,wg-a,,,,AAXX 30004 07434 12/60 00606 11010 21050 39684 40182 52001 60006 80000 90000=
07434,1998-01-30 03:00:00,0,1018.2,0.1,69,-5,10000,7.408,,,70,,,,,,,,,,,wg-a,,,,AAXX 30034 07434 12/60 00704 10000 21050 39685 40182 50001 60006 80000 90300=
07434,1998-01-30 06:00:00,0,1018.1,-0.1,69,-5,10000,7.408,,,80,-0.8,3,,,,,,,,,wg-a,,,,AAXX 30064 07434 02/60 00804 10000 21050 39684 40181 58001 60006 80000 90600 333 10030 21008 60004=
07434,1998-01-30 09:00:00,2,1018.3,0.5,75,-2,10000,7.408,,,90,,,,,,,,,,,wg-a,,,,AAXX 30094 07434 12/60 10904 10020 21020 39689 40183 52005 60006 80001 90900=
07434,1998-01-30 11:00:00,8,1016.2,,61,1,12000,9.26,,,120,,,,,,,,,,,wg-a,,,,AAXX 30114 07434 12/62 11205 10080 20010 39689 40162 60006 80001 91100=
07434,1998-01-30 21:00:00,4,1013.6,-0.6,81,1,10000,14.816,,,40,,,,,,,,,,,wg-a,,,,AAXX 30214 07434 12/60 00408 10040 20010 39648 40136 58006 60006 80000 92100=
07434,1998-01-31 03:00:00,2,1012.3,-1.1,87,0,500,11.112,,,50,,,,,,,,,,,wg-a,,,,AAXX 31034 07434 12500 30506 10020 20000 39633 40123 58011 60006 83500 90300=
07434,1998-01-31 06:00:00,2,1011.4,-0.8,87,0,8000,11.112,,,40,0.9,4.8,,,,,,,,,wg-a,,,,AAXX 31064 07434 02/58 00406 10020 20000 39625 40114 56008 60006 80000 90600 333 10048 20009 60004=
07434,1998-01-31 12:00:00,6,1010.3,-1,75,2,6000,7.408,,,40,,,,,,,,,,,wg-a,,,,AAXX 31124 07434 12/56 00404 10060 20020 39621 40103 58010 60006 80000 91200=
07434,1998-01-31 15:00:00,3,1009.7,-1.2,81,0,7000,18.52,,,20,,,,,,,,,,,wg-a,,,,AAXX 31154 07434 12/57 00210 10030 20000 39609 40097 56012 60006 80000 91500=
07434,1998-01-31 18:00:00,1,1010.8,0.7,80,-2,6000,18.52,,,70,-0.3,7.1,,,,,,,,,wg-a,,,,AAXX 31184 07434 12/56 /0710 10010 21020 39616 40108 52007 60006 80001 91800 333 10071 21003=
07434,1998-02-01 00:00:00,-1,1011.3,-0.1,93,-2,7000,11.112,,,70,,,,,,,,,,,wg-a,,,,AAXX 01004 07434 12/57 00706 11010 21020 39619 40113 58001 60006 80000 90000=
07434,1998-02-01 03:00:00,0,1010.8,-0.5,86,-2,6000,11.112,,,60,,,,,,,,,,,wg-a,,,,AAXX 01034 07434 12/56 /0606 10000 21020 39614 40108 58005 60006 81030 90300=
07434,1998-02-01 06:00:00,-1,1010.9,0.1,93,-2,7000,7.408,,,50,-1.1,0.7,,,,,,,,,wg-a,,,,AAXX 01064 07434 02/57 /0504 11010 21020 39615 40109 51001 60006 80001 90600 333 10007 21011 60004=
07434,1998-02-01 09:00:00,1,1011.8,1.1,80,-2,7000,7.408,,,60,,,,,,,,,,,wg-a,,,,AAXX 01094 07434 12/57 /0604 10010 21020 39626 40118 51011 60006 81030 90900=
07434,1998-02-01 12:00:00,8,1010.9,0.4,66,2,10000,3.704,,,190,,,,,,,,,,,wg-a,,,,AAXX 01124 07434 12/60 01902 10080 20020 39630 40109 50004 60006 80000 91200=
07434,1998-02-01 15:00:00,9,1010.2,-0.6,66,3,12000,11.112,,,360,,,,,,,,,,,wg-a,,,,AAXX 01154 07434 12562 /3606 10090 20030 39624 40102 55006 60006 81100 91500=
07434,1998-02-01 18:00:00,5,1011.2,0.3,75,1,10000,11.112,,,10,-0.8,10.1,,,,,,,,,wg-a,,,,AAXX 01184 07434 12/60 00106 10050 20010 39627 40112 53003 60006 80000 91800 333 10101 21008=
07434,1998-02-01 21:00:00,2,1011.9,0.2,87,0,8000,7.408,,,40,,,,,,,,,,,wg-a,,,,AAXX 01214 07434 12/58 00404 10020 20000 39629 40119 51002 60006 80000 92100=
07434,1998-02-02 00:00:00,2,1011.7,-0.2,87,0,8000,7.408,,,60,,,,,,,,,,,wg-a,,,,AAXX 02004 07434 12/58 00604 10020 20000 39627 40117 57002 60006 80000 90000=
07434,1998-02-02 03:00:00,2,1010.6,-1.1,87,0,7000,7.408,,,50,,,,,,,,,,,wg-a,,,,AAXX 02034 07434 12557 40504 10020 20000 39616 40106 57011 60006 84500 90300=
07434,1998-02-02 06:00:00,1,1010,-0.7,86,-1,7000,7.408,,,70,0.7,4.9,,,,,,,,,wg-a,,,,AAXX 02064 07434 02557 40704 10010 21010 39609 40100 57007 60006 84500 90600 333 10049 20007 60004=
07434,1998-02-02 09:00:00,2,1010,0.2,87,0,10000,7.408,,,60,,,,,,,,,,,wg-a,,,,AAXX 02094 07434 12560 70604 10020 20000 39611 40100 53002 60006 8453/ 90900=
07434,1998-02-02 12:00:00,8,1008.5,-0.5,71,3,9000,3.704,,,140,,,,,,,,,,,wg-a,,,,AAXX 02124 07434 12/59 /1402 10080 20030 39606 40085 57005 60006 80001 91200=
07434,1998-02-02 15:00:00,4,1007.7,-1.4,81,1,12000,18.52,,,10,,,,,,,,,,,wg-a,,,,AAXX 02154 07434 12/62 60110 10040 20010 39592 40077 56014 60006 80001 91500=
07434,1998-02-02 18:00:00,3,1008.7,0.7,81,0,10000,14.816,,,40,0.8,8.3,,,,,,,,,wg-a,,,,AAXX 02184 07434 12/60 40408 10030 20000 39599 40087 53007 60006 81031 91800 333 10083 20008=
07434,1998-02-02 21:00:00,1,1009.1,0.1,86,-1,10000,14.816,,,30,,,,,,,,,,,wg-a,,,,AAXX 02214 07434 12/60 60308 10010 21010 39600 40091 51001 60006 82031 92100=
07434,1998-02-03 00:00:00,0,1008.6,-0.6,86,-2,8000,11.112,,,40,,,,,,,,,,,wg-a,,,,AAXX 03004 07434 12/58 /0406 10000 21020 39594 40086 56006 60006 82031 90000=
07434,1998-02-03 03:00:00,-1,1009,0.1,86,-3,8000,7.408,,,40,,,,,,,,,,,wg-a,,,,AAXX 03034 07434 12/58 /0404 11010 21030 39595 40090 51001 60006 83031 90300=
07434,1998-02-03 06:00:00,-1,1008,-0.9,86,-3,8000,14.816,,,50,-2.1,2.5,,,,,,,,,wg-a,,,,AAXX 03064 07434 02/58 /0508 11010 21030 39586 40080 56009 60006 83031 90600 333 10025 21021 60004=
07434,1998-02-03 09:00:00,0,1007.9,0.2,93,-1,8000,18.52,,,60,,,,,,,,,,,wg-a,,,,AAXX 03094 07434 12/58 /0610 10000 21010 39588 40079 50002 60006 82032 90900=
07434,1998-02-03 12:00:00,4,1007.2,0,70,-1,12000,25.928,,,80,,,,,,,,,,,wg-a,,,,AAXX 03124 07434 12/62 50814 10040 21010 39588 40072 50000 60006 80001 91200=
07434,1998-02-03 15:00:00,5,1006.3,-0.7,60,-2,15000,25.928,,,70,,,,,,,,,,,wg-a,,,,AAXX 03154 07434 12/65 50714 10050 21020 39581 40063 55007 60006 81031 91500=
07434,1998-02-03 18:00:00,0,1008.2,1,69,-5,15000,25.928,,,70,-1.6,6.5,,,,,,,,,wg-a,,,,AAXX 03184 07434 12/65 60714 10000 21050 39591 40082 52010 60006 82031 91800 333 10065 21016=
07434,1998-02-03 21:00:00,0,1008.6,0.3,69,-5,20000,29.632,,,70,,,,,,,,,,,wg-a,,,,AAXX 03214 07434 12/70 20716 10000 21050 39594 40086 51003 60006 80001 92100=
07434,1998-02-04 00:00:00,-1,1008.6,-0.2,69,-6,20000,25.928,,,80,,,,,,,,,,,wg-a,,,,AAXX 04004 07434 12/70 00814 11010 21060 39592 40086 58002 60006 80000 90000=
07434,1998-02-04 06:00:00,0,1008.8,-0,55,-8,20000,14.816,,,40,-2,0.4,,,,,,,,,wg-a,,,,AAXX 04064 07434 02/70 00408 10000 21080 39595 40088 55000 60006 80000 90600 333 10004 21020 60004=
07434,1998-02-04 09:00:00,1,1010.5,1.8,55,-7,12000,14.816,,,50,,,,,,,,,,,wg-a,,,,AAXX 04094 07434 12/62 30508 10010 21070 39613 40105 53018 60006 80001 90900=
07434,1998-02-04 12:00:00,6,1010.7,1,45,-5,20000,11.112,,,30,,,,,,,,,,,wg-a,,,,AAXX 04124 07434 12/70 10306 10060 21050 39623 40107 51010 60006 80001 91200=
07434,1998-02-04 15:00:00,5,1011.9,1,56,-3,15000,18.52,,,20,,,,,,,,,,,wg-a,,,,AAXX 04154 07434 12/65 20210 10050 21030 39633 40119 53010 60006 80001 91500=
07434,1998-02-04 18:00:00,-1,1015.3,2.3,74,-5,12000,22.224,,,40,-2.3,6.5,,,,,,,,,wg-a,,,,AAXX 04184 07434 12/62 20412 11010 21050 39656 40153 52023 60006 80001 91800 333 10065 21023=
07434,1998-02-05 00:00:00,-3,1018.4,0.8,80,-6,10000,3.704,,,40,,,,,,,,,,,wg-a,,,,AAXX 05004 07434 12/60 00402 11030 21060 39682 40184 51008 60006 80000 90000=
07434,1998-02-05 03:00:00,-4,1019.1,0.4,80,-7,10000,7.408,,,20,,,,,,,,,,,wg-a,,,,AAXX 05034 07434 12/60 00204 11040 21070 39686 40191 50004 60006 80000 90300=
07434,1998-02-05 06:00:00,-4,1019.8,0.7,80,-7,7000,7.408,,,50,-4.1,-0.6,,,,,,,,,wg-a,,,,AAXX 05064 07434 02/57 00504 11040 21070 39693 40198 53007 60006 80000 90600 333 11006 21041 60004=
07434,1998-02-05 09:00:00,0,1021,1.8,64,-6,4000,18.52,,,70,,,,,,,,,,10,wg-a,,,,AAXX 05094 07434 12/40 00710 10000 21060 39711 40210 51018 60006 71000 80000 90900=
07434,1998-02-05 12:00:00,6,1020.1,0.3,42,-6,8000,14.816,,,70,,,,,,,,,,,wg-a,,,,AAXX 05124 07434 12/58 00708 10060 21060 39714 40201 50003 60006 80000 91200=
07434,1998-02-05 15:00:00,8,1019.5,-0.3,34,-7,12000,11.112,,,40,,,,,,,,,,,wg-a,,,,AAXX 05154 07434 12/62 00406 10080 21070 39711 40195 55003 60006 80000 91500=
07434,1998-02-05 18:00:00,3,1021.8,1.3,52,-6,15000,11.112,,,40,-3.8,8.3,,,,,,,,,wg-a,,,,AAXX 05184 07434 12/65 00406 10030 21060 39724 40218 53013 60006 80000 91800 333 10083 21038=
07434,1998-02-06 06:00:00,1,1022.1,-0.1,51,-8,12000,14.816,,,70,0.1,2.9,,,,,,,,,wg-a,,,,AAXX 06064 07434 02/62 00708 10010 21080 39724 40221 55001 60006 80000 90600 333 10029 20001 60004=
07434,1998-02-06 12:00:00,8,1022.1,0,31,-8,10000,3.704,,,140,,,,,,,,,,,wg-a,,,,AAXX 06124 07434 12/60 01402 10080 21080 39736 40221 50000 60006 80000 91200=
07434,1998-02-06 15:00:00,10,1021.1,-0.6,29,-7,10000,7.408,,,290,,,,,,,,,,,wg-a,,,,AAXX 06154 07434 12/60 02904 10100 21070 39730 40211 56006 60006 80000 91500=
07434,1998-02-06 18:00:00,5,1022.4,0.3,45,-6,10000,11.112,,,330,-1.2,10.8,,,,,,,,,wg-a,,,,AAXX 06184 07434 12/60 /3306 10050 21060 39733 40224 53003 60006 91800 333 10108 21012=
07434,1998-02-06 21:00:00,3,1023.6,0.9,56,-5,10000,3.704,,,180,,,,,,,,,,,wg-a,,,,AAXX 06214 07434 12/60 01802 10030 21050 39742 40236 52009 60006 80000 92100=
07434,1998-02-07 00:00:00,1,1024.9,0.9,64,-5,9000,3.704,,,130,,,,,,,,,,,wg-a,,,,AAXX 07004 07434 12/59 31302 10010 21050 39751 40249 53009 60006 80001 90000=
07434,1998-02-07 03:00:00,0,1025.4,0.2,69,-5,8000,3.704,,,90,,,,,,,,,,,wg-a,,,,AAXX 07034 07434 12/58 30902 10000 21050 39753 40254 50002 60006 80001 90300=
07434,1998-02-07 06:00:00,-1,1025.9,0.4,74,-5,8000,7.408,,,150,-0.9,4.7,,,,,,,,,wg-a,,,,AAXX 07064 07434 02/58 /1504 11010 21050 39757 40259 50004 60006 80002 90600 333 10047 21009 60004=
07434,1998-02-07 09:00:00,1,1028.1,2.3,69,-4,9000,3.704,,,170,,,,,,,,,,,wg-a,,,,AAXX 07094 07434 12459 71702 10010 21040 39780 40281 53023 60006 8553/ 90900=
07434,1998-02-07 12:00:00,4,1027.5,0.1,75,0,500,7.408,,,130,,,,,,,,,,,wg-a,,,,AAXX 07124 07434 12400 71304 10040 20000 39781 40275 51001 60006 875// 91200=
07434,1998-02-07 15:00:00,7,1027.2,0.2,76,3,7000,14.816,,,220,,,,,,,,,,,wg-a,,,,AAXX 07154 07434 12457 72208 10070 20030 39783 40272 53002 60006 875// 91500=
07434,1998-02-07 18:00:00,5,1029.1,1.5,93,4,4000,7.408,,,210,-1.2,6.8,,,,,,,,10,wg-a,,,,AAXX 07184 07434 02340 82104 10050 20040 39798 40291 53015 61000 71065 885// 91800 333 10068 21012 6000=
07434,1998-02-07 21:00:00,4,1030.2,0.9,100,4,600,3.704,,,90,,,,0,,,,,,10,wg-a,,,,AAXX 07214 07434 12106 80902 10040 20040 39807 40302 51009 60007 71064 886// 92100=
07434,1998-02-08 00:00:00,4,1030.4,0.2,100,4,800,3.704,,,70,,,,,,,,,,44,wg-a,,,,AAXX 08004 07434 12108 80702 10040 20040 39809 40304 50002 60016 74464 886// 90000=
07434,1998-02-08 03:00:00,4,1030.3,-0.1,100,4,200,7.408,,,70,,,,,,,,,,45,wg-a,,,,AAXX 08034 07434 12/02 90704 10040 20040 39808 40303 57001 60006 74544 89/// 90300=
07434,1998-02-08 06:00:00,4,1029.8,-0.5,100,4,200,7.408,,,100,3.9,4.9,,,,,1,,,45,wg-a,,,,AAXX 08064 07434 02/02 91004 10040 20040 39803 40298 58005 60006 74544 89/// 90600 333 10049 20039 60014=
07434,1998-02-08 09:00:00,3,1030.8,0.7,93,2,200,14.816,,,110,,,,,,,,,,45,wg-a,,,,AAXX 08094 07434 12/02 91108 10030 20020 39810 40308 51007 60006 74544 89/// 90900=
07434,1998-02-08 12:00:00,6,1028.8,-1.3,100,6,4000,11.112,,,100,,,,,,,,,,10,wg-a,,,,AAXX 08124 07434 12140 /1006 10060 20060 39797 40288 58013 60006 71042 81601 91200=
07434,1998-02-08 15:00:00,12,1026.7,-1.1,54,3,15000,7.408,,,120,,,,,,,,,,,wg-a,,,,AAXX 08154 07434 12/65 61204 10120 20030 39786 40267 56011 60006 80001 91500=
07434,1998-02-08 18:00:00,8,1027.3,-0,66,2,500,7.408,,,350,2.6,11.9,,,,,,,,,wg-a,,,,AAXX 08184 07434 12/00 63504 10080 20020 39786 40273 55000 60006 80001 91800 333 10119 20026=
07434,1998-02-08 21:00:00,7,1027.1,-0.4,45,-4,25000,7.408,,,70,,,,,,,,,,,wg-a,,,,AAXX 08214 07434 12/75 40704 10070 21040 39782 40271 56004 60006 80001 92100=
07434,1998-02-09 00:00:00,5,1027.1,-0.3,52,-4,10000,7.408,,,90,,,,,,,,,,,wg-a,,,,AAXX 09004 07434 12/60 /0904 10050 21040 39779 40271 58003 60006 90000=
07434,1998-02-09 03:00:00,5,1026.6,-0.5,45,-6,25000,11.112,,,120,,,,,,,,,,,wg-a,,,,AAXX 09034 07434 12/75 31206 10050 21060 39774 40266 58005 60006 80001 90300=
07434,1998-02-09 06:00:00,5,1026.7,-0,45,-6,500,11.112,,,120,4.7,9.2,,,,,,,,,wg-a,,,,AAXX 09064 07434 02/00 21206 10050 21060 39774 40267 55000 60006 80001 90600 333 10092 20047 60004=
07434,1998-02-09 09:00:00,8,1027.7,1.5,31,-8,10000,11.112,,,130,,,,,,,,,,,wg-a,,,,AAXX 09094 07434 12/60 /1306 10080 21080 39789 40277 51015 60006 90900=
07434,1998-02-09 12:00:00,13,1026.6,-0.1,33,-3,45000,22.224,,,180,,,,,,,,,,,wg-a,,,,AAXX 09124 07434 12/83 21812 10130 21030 39788 40266 58001 60006 80001 91200=
07434,1998-02-09 15:00:00,14,1026.1,-0.3,33,-2,45000,22.224,,,210,,,,,,,,,,,wg-a,,,,AAXX 09154 07434 12/83 22112 10140 21020 39785 40261 55003 60006 80001 91500=
07434,1998-02-09 18:00:00,10,1027.6,0.7,53,1,45000,14.816,,,160,4.6,14.9,,,,,,,,,wg-a,,,,AAXX 09184 07434 12/83 21608 10100 20010 39792 40276 52007 60006 80001 91800 333 10149 20046=
07434,1998-02-09 21:00:00,9,1029.1,1.2,53,0,40000,11.112,,,150,,,,,,,,,,,wg-a,,,,AAXX 09214 07434 12/82 01506 10090 20000 39804 40291 51012 60006 80000 92100=
07434,1998-02-10 00:00:00,6,1030.2,0.7,61,-1,40000,11.112,,,150,,,,,,,,,,,wg-a,,,,AAXX 10004 07434 12/82 01506 10060 21010 39811 40302 53007 60006 80000 90000=
07434,1998-02-10 03:00:00,5,1030.4,-0.2,56,-3,40000,11.112,,,130,,,,,,,,,,,wg-a,,,,AAXX 10034 07434 12/82 01306 10050 21030 39809 40304 57002 60006 80000 90300=
07434,1998-02-10 06:00:00,4,1030.7,0.2,65,-2,40000,11.112,,,120,3.8,10.3,,,,,,,,,wg-a,,,,AAXX 10064 07434 02/82 01206 10040 21020 39811 40307 53002 60006 80000 90600 333 10103 20038 60004=
07434,1998-02-10 12:00:00,12,1030.8,-0.1,50,2,18000,7.408,,,160,,,,,,,,,,,wg-a,,,,AAXX 10124 07434 12/68 11604 10120 20020 39826 40308 58001 60006 80001 91200=
07434,1998-02-10 15:00:00,14,1028.9,-1.5,44,2,25000,7.408,,,190,,,,,,,,,,,wg-a,,,,AAXX 10154 07434 12/75 11904 10140 20020 39811 40289 56015 60006 80001 91500=
07434,1998-02-10 18:00:00,10,1030,0.4,50,0,20000,11.112,,,180,3.8,14.4,,,,,,,,,wg-a,,,,AAXX 10184 07434 12/70 11806 10100 20000 39815 40300 53004 60006 80001 91800 333 10144 20038=
07434,1998-02-10 21:00:00,10,1031.4,1.3,53,1,500,3.704,,,100,,,,,,,,,,,wg-a,,,,AAXX 10214 07434 12/00 11002 10100 20010 39828 40314 51013 60006 80001 92100=
07434,1998-02-11 00:00:00,7,1032.4,0.4,66,1,500,7.408,,,110,,,,,,,,,,,wg-a,,,,AAXX 11004 07434 12/00 11104 10070 20010 39832 40324 52004 60006 80001 90000=
07434,1998-02-11 03:00:00,5,1032.1,-0.6,70,0,500,7.408,,,120,,,,,,,,,,,wg-a,,,,AAXX 11034 07434 12/00 11204 10050 20000 39826 40321 58006 60006 80001 90300=
07434,1998-02-11 06:00:00,4,1032.3,0.1,60,-3,500,7.408,,,100,3.7,10.4,,,,,,,,,wg-a,,,,AAXX 11064 07434 02/00 11004 10040 21030 39827 40323 52001 60006 80001 90600 333 10104 20037 60004=
07434,1998-02-11 09:00:00,7,1033.3,1.4,45,-4,20000,7.408,,,120,,,,,,,,,,,wg-a,,,,AAXX 11094 07434 12/70 11204 10070 21040 39841 40333 51014 60006 80001 90900=
07434,1998-02-11 12:00:00,12,1031.8,-0.6,47,1,500,14.816,,,160,,,,,,,,,,,wg-a,,,,AAXX 11124 07434 12/00 11608 10120 20010 39835 40318 58006 60006 80001 91200=
07434,1998-02-11 15:00:00,15,1030.1,-1.1,41,2,500,11.112,,,170,,,,,,,,,,,wg-a,,,,AAXX 11154 07434 12/00 11706 10150 20020 39824 40301 56011 60006 80001 91500=
07434,1998-02-11 18:00:00,11,1031.7,0.9,47,0,25000,7.408,,,180,3.5,15.3,,,,,,,,,wg-a,,,,AAXX 11184 07434 12/75 11804 10110 20000 39833 40317 52009 60006 80001 91800 333 10153 20035=
07434,1998-02-11 21:00:00,10,1032.5,0.6,50,0,20000,3.704,,,110,,,,,,,,,,,wg-a,,,,AAXX 11214 07434 12/70 11102 10100 20000 39839 40325 52006 60006 80001 92100=
07434,1998-02-12 00:00:00,7,1033.4,0.3,61,0,20000,7.408,,,100,,,,,,,,,,,wg-a,,,,AAXX 12004 07434 12/70 01004 10070 20000 39842 40334 53003 60006 80000 90000=
07434,1998-02-12 03:00:00,7,1033.2,-0.2,66,1,20000,3.704,,,70,,,,,,,,,,,wg-a,,,,AAXX 12034 07434 12/70 10702 10070 20010 39840 40332 56002 60006 80001 90300=
07434,1998-02-12 06:00:00,5,1033.7,0.1,70,0,500,7.408,,,80,4.5,11,,,,,,,,,wg-a,,,,AAXX 12064 07434 02/00 10804 10050 20000 39841 40337 51001 60006 80001 90600 333 10110 20045 60004=
07434,1998-02-12 09:00:00,8,1034.1,0.9,57,0,50000,3.704,,,80,,,,,,,,,,,wg-a,,,,AAXX 12094 07434 12/84 10802 10080 20000 39850 40341 53009 60006 80001 90900=
07434,1998-02-12 12:00:00,14,1032.9,-0.2,33,-2,50000,11.112,,,160,,,,,,,,,,,wg-a,,,,AAXX 12124 07434 12/84 11606 10140 21020 39848 40329 58002 60006 80001 91200=
07434,1998-02-12 15:00:00,17,1031.1,-0,25,-3,50000,3.704,,,150,,,,,,,,,,,wg-a,,,,AAXX 12154 07434 12/84 11502 10170 21030 39836 40311 54000 60006 80001 91500=
07434,1998-02-12 18:00:00,12,1032.3,0.4,40,-1,15000,7.408,,,330,4.5,17.1,,,,,,,,,wg-a,,,,AAXX 12184 07434 12/65 03304 10120 21010 39840 40323 53004 60006 80000 91800 333 10171 20045=
07434,1998-02-12 21:00:00,11,1032.9,0.4,50,1,15000,7.408,,,80,,,,,,,,,,,wg-a,,,,AAXX 12214 07434 12/65 00804 10110 20010 39844 40329 53004 60006 80000 92100=
07434,1998-02-13 00:00:00,9,1033.5,0.2,57,1,15000,7.408,,,50,,,,,,,,,,,wg-a,,,,AAXX 13004 07434 12/65 00504 10090 20010 39846 40335 53002 60006 80000 90000=
07434,1998-02-13 03:00:00,8,1033.4,-0.3,61,1,12000,7.408,,,60,,,,,,,,,,,wg-a,,,,AAXX 13034 07434 12/62 00604 10080 20010 39843 40334 58003 60006 80000 90300=
07434,1998-02-13 09:00:00,9,1034.4,1.1,57,1,25000,3.704,,,60,,,,,,,,,,,wg-a,,,,AAXX 13094 07434 12/75 00602 10090 20010 39855 40344 52011 60006 80000 90900=
07434,1998-02-13 12:00:00,18,1032.1,-0.7,32,1,25000,3.704,,,80,,,,,,,,,,,wg-a,,,,AAXX 13124 07434 12/75 00802 10180 20010 39848 40321 58007 60006 80000 91200=
07434,1998-02-13 15:00:00,19,1030.5,-1.3,37,4,500,7.408,,,320,,,,,,,,,,,wg-a,,,,AAXX 13154 07434 12/00 03204 10190 20040 39835 40305 56013 60006 80000 91500=
07434,1998-02-13 18:00:00,13,1031.6,0.1,54,4,20000,14.816,,,350,5.7,19.6,,,,,,,,,wg-a,,,,AAXX 13184 07434 12/70 03508 10130 20040 39836 40316 53001 60006 80000 91800 333 10196 20057=
07434,1998-02-13 21:00:00,13,1032.3,0.6,47,2,15000,11.112,,,60,,,,,,,,,,,wg-a,,,,AAXX 13214 07434 12/65 00606 10130 20020 39842 40323 51006 60006 80000 92100=
07434,1998-02-14 00:00:00,10,1032.9,-0,57,2,12000,7.408,,,60,,,,,,,,,,,wg-a,,,,AAXX 14004 07434 12/62 00604 10100 20020 39842 40329 55000 60006 80000 90000=
07434,1998-02-14 03:00:00,9,1033,-0.1,53,0,12000,7.408,,,70,,,,,,,,,,,wg-a,,,,AAXX 14034 07434 12/62 00704 10090 20000 39841 40330 55001 60006 80000 90300=
07434,1998-02-14 06:00:00,7,1033.4,0.1,57,-1,12000,7.408,,,60,6.8,14,,,,,,,,,wg-a,,,,AAXX 14064 07434 02/62 00604 10070 21010 39842 40334 53001 60006 80000 90600 333 10140 20068 60004=
07434,1998-02-14 09:00:00,10,1033.8,0.8,50,0,18000,3.704,,,90,,,,,,,,,,,wg-a,,,,AAXX 14094 07434 12/68 00902 10100 20000 39850 40338 51008 60006 80000 90900=
07434,1998-02-14 12:00:00,17,1032.1,-0.3,39,3,20000,3.704,,,120,,,,,,,,,,,wg-a,,,,AAXX 14124 07434 12/70 01202 10170 20030 39847 40321 58003 60006 80000 91200=
07434,1998-02-14 15:00:00,19,1031.2,-0.6,30,1,500,7.408,,,310,,,,,,,,,,,wg-a,,,,AAXX 14154 07434 12/00 13104 10190 20010 39841 40312 57006 60006 81030 91500=
07434,1998-02-14 18:00:00,14,1032.7,0.6,51,4,500,11.112,,,350,6.4,19.5,,,,,,,,,wg-a,,,,AAXX 14184 07434 12/00 13506 10140 20040 39847 40327 53006 60006 81030 91800 333 10195 20064=
07434,1998-02-14 21:00:00,13,1033.3,0.4,51,3,25000,7.408,,,50,,,,,,,,,,,wg-a,,,,AAXX 14214 07434 12/75 10504 10130 20030 39851 40333 51004 60006 81030 92100=
07434,1998-02-15 00:00:00,12,1033.2,-0.2,54,3,25000,7.408,,,60,,,,,,,,,,,wg-a,,,,AAXX 15004 07434 12/75 10604 10120 20030 39849 40332 58002 60006 80001 90000=
07434,1998-02-15 03:00:00,8,1032.7,-1.1,71,3,25000,11.112,,,70,,,,,,,,,,,wg-a,,,,AAXX 15034 07434 12/75 10706 10080 20030 39838 40327 58011 60006 80001 90300=
07434,1998-02-15 06:00:00,8,1032.8,0.1,61,1,25000,7.408,,,50,7.9,14.9,,,,,,,,,wg-a,,,,AAXX 15064 07434 02/75 10504 10080 20010 39839 40328 53001 60006 80001 90600 333 10149 20079 60004=
07434,1998-02-15 09:00:00,11,1032.7,0.3,50,1,20000,7.408,,,60,,,,,,,,,,,wg-a,,,,AAXX 15094 07434 12/70 60604 10110 20010 39842 40327 53003 60006 80001 90900=
07434,1998-02-15 12:00:00,19,1030.5,-0.8,28,0,20000,7.408,,,80,,,,,,,,,,,wg-a,,,,AAXX 15124 07434 12/70 50804 10190 20000 39834 40305 58008 60006 80001 91200=
07434,1998-02-15 15:00:00,21,1028.7,-1.4,21,-2,20000,7.408,,,290,,,,,,,,,,,wg-a,,,,AAXX 15154 07434 12/70 52904 10210 21020 39820 40287 57014 60006 80001 91500=
07434,1998-02-15 18:00:00,16,1029.4,-0.1,31,-1,40000,11.112,,,340,7.5,22,,,,,,,,,wg-a,,,,AAXX 15184 07434 12/82 63406 10160 21010 39819 40294 56001 60006 80001 91800 333 10220 20075=
07434,1998-02-15 21:00:00,14,1029.2,-0.5,44,2,40000,3.704,,,50,,,,,,,,,,,wg-a,,,,AAXX 15214 07434 12/82 50502 10140 20020 39814 40292 56005 60006 80001 92100=
07434,1998-02-16 00:00:00,11,1029.3,-0.4,47,0,500,3.704,,,50,,,,,,,,,,,wg-a,,,,AAXX 16004 07434 12/00 60502 10110 20000 39810 40293 58004 60006 80002 90000=
07434,1998-02-16 03:00:00,10,1029,-0.5,50,0,25000,7.408,,,40,,,,,,,,,,,wg-a,,,,AAXX 16034 07434 12/75 60404 10100 20000 39805 40290 58005 60006 81032 90300=
07434,1998-02-16 06:00:00,9,1029.3,0.1,53,0,25000,3.704,,,80,8.8,16.3,,,,,,,,,wg-a,,,,AAXX 16064 07434 02/75 70802 10090 20000 39806 40293 50001 60006 85017 90600 333 10163 20088 60004=
07434,1998-02-16 09:00:00,10,1030.2,1,50,0,25000,3.704,,,50,,,,,,,,,,,wg-a,,,,AAXX 16094 07434 12/75 70502 10100 20000 39816 40302 52010 60006 81017 90900=
07434,1998-02-16 12:00:00,12,1029.9,0.2,62,5,15000,14.816,,,290,,,,,,,,,,,wg-a,,,,AAXX 16124 07434 12665 82908 10120 20050 39818 40299 50002 60006 82837 91200=
07434,1998-02-16 15:00:00,10,1030.2,-0,93,9,7000,14.816,,,290,,,,,,,,,,50,wg-a,,,,AAXX 16154 07434 02257 82908 10100 20090 39818 40302 55000 61000 75052 888// 91500 333 ////=
07434,1998-02-16 18:00:00,9,1030.8,0.4,100,9,8000,3.704,,,310,7.4,12.4,,,,,,,,3,wg-a,,,,AAXX 16184 07434 02258 83102 10090 20090 39822 40308 53004 60006 70352 888// 91800 333 10124 20074 61000=
07434,1998-02-16 21:00:00,8,1032,0.9,93,7,9000,11.112,,,330,,,,,,,,,,,wg-a,,,,AAXX 16214 07434 12459 /3306 10080 20070 39831 40320 51009 60006 86800 92100=
07434,1998-02-17 00:00:00,7,1033.1,0.8,81,4,10000,11.112,,,30,,,,,,,,,,,wg-a,,,,AAXX 17004 07434 12560 /0306 10070 20040 39839 40331 51008 60006 85500 90000=
07434,1998-02-17 03:00:00,5,1033.5,0.1,87,3,10000,7.408,,,30,,,,,,,,,,,wg-a,,,,AAXX 17034 07434 12560 /0304 10050 20030 39840 40335 50001 60006 86500 90300=
07434,1998-02-17 06:00:00,4,1034.1,0.4,87,2,10000,11.112,,,20,4.1,9.3,,,,,,,,,wg-a,,,,AAXX 17064 07434 02560 40206 10040 20020 39844 40341 53004 60006 84500 90600 333 10093 20041 61000=
07434,1998-02-17 09:00:00,7,1034.7,1.1,81,4,15000,14.816,,,30,,,,,,,,,,,wg-a,,,,AAXX 17094 07434 12665 20308 10070 20040 39855 40347 50011 60006 82500 90900=
07434,1998-02-17 12:00:00,10,1034.9,0.6,71,5,20000,14.816,,,20,,,,,,,,,,,wg-a,,,,AAXX 17124 07434 12470 60208 10100 20050 39861 40349 51006 60006 85830 91200=
07434,1998-02-17 15:00:00,10,1034.2,-0.6,66,4,20000,29.632,,,60,,,,,,,,,,,wg-a,,,,AAXX 17154 07434 12570 60616 10100 20040 39855 40342 56006 60006 85830 91500=
07434,1998-02-17 18:00:00,6,1034.8,-0,81,3,20000,11.112,,,40,4.1,10.7,,,,,,,,,wg-a,,,,AAXX 17184 07434 12670 20406 10060 20030 39855 40348 55000 60006 82530 91800 333 10107 20041=
07434,1998-02-17 21:00:00,5,1034.8,-0.3,81,2,20000,14.816,,,50,,,,,,,,,,,wg-a,,,,AAXX 17214 07434 12/70 10508 10050 20020 39852 40348 58003 60006 81030 92100=
07434,1998-02-18 00:00:00,5,1033.4,-1.4,81,2,10000,22.224,,,80,,,,,,,,,,,wg-a,,,,AAXX 18004 07434 12/60 /0812 10050 20020 39838 40334 58014 60006 90000=
07434,1998-02-18 03:00:00,3,1031.8,-1.7,87,1,15000,14.816,,,90,,,,,,,,,,,wg-a,,,,AAXX 18034 07434 12/65 10908 10030 20010 39821 40318 56017 60006 80001 90300=
07434,1998-02-18 06:00:00,3,1031.9,-0,75,-1,20000,7.408,,,50,2.5,6.4,,,,,,,,,wg-a,,,,AAXX 18064 07434 02/70 10504 10030 21010 39821 40319 55000 60006 80001 90600 333 10064 20025 60004=
07434,1998-02-18 09:00:00,7,1031.9,0.7,49,-3,40000,11.112,,,110,,,,,,,,,,,wg-a,,,,AAXX 18094 07434 12/82 11106 10070 21030 39828 40319 53007 60006 80001 90900=
07434,1998-02-18 12:00:00,15,1029.8,-0.6,36,0,40000,14.816,,,180,,,,,,,,,,,wg-a,,,,AAXX 18124 07434 12/82 31808 10150 20000 39822 40298 58006 60006 80001 91200=
07434,1998-02-18 15:00:00,17,1029.3,-0.3,29,-1,40000,18.52,,,210,,,,,,,,,,,wg-a,,,,AAXX 18154 07434 12/82 52110 10170 21010 39819 40293 57003 60006 80001 91500=
07434,1998-02-18 18:00:00,13,1030.2,0.3,44,1,25000,11.112,,,180,2.3,17.4,,,,,,,,,wg-a,,,,AAXX 18184 07434 12/75 31806 10130 20010 39822 40302 53003 60006 80001 91800 333 10174 20023=
07434,1998-02-18 21:00:00,11,1031.6,0.9,54,2,20000,18.52,,,220,,,,,,,,,,,wg-a,,,,AAXX 18214 07434 12/70 22210 10110 20020 39831 40316 53009 60006 80001 92100=
07434,1998-02-19 00:00:00,7,1032.9,0.8,100,7,100,3.704,,,290,,,,,,,,,,45,wg-a,,,,AAXX 19004 07434 12/01 92902 10070 20070 39839 40329 51008 60006 74541 89/// 90000=
07434,1998-02-19 03:00:00,7,1032.9,-0.2,87,5,20000,3.704,,,90,,,,,,,,,,1,wg-a,,,,AAXX 19034 07434 12/70 10902 10070 20050 39837 40329 58002 60006 70141 80001 90300=
07434,1998-02-19 06:00:00,6,1033,-0,87,4,6000,3.704,,,60,5.1,13,,,,,,,,40,wg-a,,,,AAXX 19064 07434 02/56 40602 10060 20040 39837 40330 55000 60006 74041 80001 90600 333 10130 20051 60004=
07434,1998-02-19 09:00:00,8,1033.2,0.5,81,5,500,7.408,,,90,,,,,,,,,,,wg-a,,,,AAXX 19094 07434 12/00 20904 10080 20050 39842 40332 53005 60006 80001 90900=
07434,1998-02-19 12:00:00,14,1031.1,-1,51,4,9000,7.408,,,100,,,,,,,,,,,wg-a,,,,AAXX 19124 07434 12/59 41004 10140 20040 39832 40311 58010 60006 80001 91200=
07434,1998-02-19 15:00:00,17,1028.3,-2.1,48,6,12000,3.704,,,70,,,,,,,,,,,wg-a,,,,AAXX 19154 07434 12/62 60702 10170 20060 39811 40283 56021 60006 80002 91500=
07434,1998-02-19 18:00:00,14,1027.8,-1,63,7,12000,7.408,,,20,5.7,17.7,,,,,,,,,wg-a,,,,AAXX 19184 07434 12/62 60204 10140 20070 39801 40278 56010 60006 80002 91800 333 10177 20057=
07434,1998-02-19 21:00:00,12,1027,-1.1,71,7,12000,7.408,,,60,,,,,,,,,,,wg-a,,,,AAXX 19214 07434 12/62 40604 10120 20070 39790 40270 56011 60006 80001 92100=
07434,1998-02-20 00:00:00,10,1025.8,-1.4,82,7,12000,7.408,,,50,,,,,,,,,,,wg-a,,,,AAXX 20004 07434 12/62 40504 10100 20070 39776 40258 58014 60006 80001 90000=
07434,1998-02-20 03:00:00,11,1023.8,-1.8,71,6,12000,7.408,,,90,,,,,,,,,,,wg-a,,,,AAXX 20034 07434 12/62 40904 10110 20060 39758 40238 56018 60006 80001 90300=
07434,1998-02-20 06:00:00,9,1022.6,-1.5,71,4,12000,11.112,,,90,9.2,14.2,,,,,,,,,wg-a,,,,AAXX 20064 07434 02/62 40906 10090 20040 39743 40226 56015 60006 80001 90600 333 10142 20092 60004=
07434,1998-02-20 09:00:00,12,1021.6,-0.4,54,3,12000,7.408,,,100,,,,,,,,,,,wg-a,,,,AAXX 20094 07434 12/62 41004 10120 20030 39739 40216 57004 60006 80001 90900=
07434,1998-02-20 12:00:00,18,1019.5,-1.1,37,3,10000,14.816,,,170,,,,,,,,,,,wg-a,,,,AAXX 20124 07434 12/60 /1708 10180 20030 39728 40195 58011 60006 91200=
07434,1998-02-20 15:00:00,19,1017.4,-1.9,34,3,15000,14.816,,,210,,,,,,,,,,,wg-a,,,,AAXX 20154 07434 12/65 62108 10190 20030 39709 40174 56019 60006 80001 91500=
07434,1998-02-20 18:00:00,15,1018.2,0.2,44,3,20000,11.112,,,210,9.2,19.7,,,,,,,,,wg-a,,,,AAXX 20184 07434 12/70 62106 10150 20030 39711 40182 53002 60006 80001 91800 333 10197 20092=
07434,1998-02-20 21:00:00,13,1020.2,1.5,51,3,20000,18.52,,,210,,,,,,,,,,,wg-a,,,,AAXX 20214 07434 12/70 42110 10130 20030 39726 40202 51015 60006 80001 92100=
07434,1998-02-21 00:00:00,9,1020.8,0,71,4,20000,11.112,,,180,,,,,,,,,,,wg-a,,,,AAXX 21004 07434 12/70 21806 10090 20040 39726 40208 50000 60006 80001 90000=
07434,1998-02-21 03:00:00,7,1019.8,-1.3,76,3,15000,11.112,,,140,,,,,,,,,,,wg-a,,,,AAXX 21034 07434 12/65 21406 10070 20030 39713 40198 58013 60006 80001 90300=
07434,1998-02-21 06:00:00,8,1018.8,-0.8,76,4,15000,18.52,,,160,6.9,15.3,,,,,,,,,wg-a,,,,AAXX 21064 07434 02/65 61610 10080 20040 39705 40188 56008 60006 80002 90600 333 10153 20069 60004=
07434,1998-02-21 09:00:00,10,1018.9,0.4,71,5,15000,25.928,,,180,,,,,,,,,,,wg-a,,,,AAXX 21094 07434 12/65 71814 10100 20050 39709 40189 53004 60006 84032 90900=
07434,1998-02-21 12:00:00,12,1019.3,0.8,71,7,15000,7.408,,,200,,,,,,,,,,,wg-a,,,,AAXX 21124 07434 12565 82004 10120 20070 39717 40193 51008 60006 8557/ 91200=
07434,1998-02-21 15:00:00,10,1019.7,-0,93,9,6000,18.52,,,220,,,,1,,,,,,61,wg-a,,,,AAXX 21154 07434 12156 82210 10100 20090 39717 40197 55000 60017 76162 875// 91500=
07434,1998-02-21 18:00:00,8,1021.2,1.2,100,8,7000,14.816,,,260,7.6,12.2,,,,,,,,61,wg-a,,,,AAXX 21184 07434 02257 82608 10080 20080 39729 40212 53012 61000 76162 875// 91800 333 10122 20076 6002=
07434,1998-02-21 21:00:00,7,1021.8,0.4,100,7,10000,7.408,,,200,,,,0,,,,,,21,wg-a,,,,AAXX 21214 07434 12260 72004 10070 20070 39733 40218 51004 60007 72162 8657/ 92100=
07434,1998-02-22 00:00:00,7,1021.6,-0.3,100,7,10000,11.112,,,220,,,,,,,,,,3,wg-a,,,,AAXX 22004 07434 12360 72206 10070 20070 39730 40216 56003 60006 70362 878// 90000=
07434,1998-02-22 03:00:00,6,1021.3,-0.4,93,5,10000,14.816,,,210,,,,0,,,,,,60,wg-a,,,,AAXX 22034 07434 12360 72108 10060 20050 39726 40213 58004 60007 76062 878// 90300=
07434,1998-02-22 06:00:00,5,1022.6,1.1,100,5,12000,11.112,,,260,5.1,8.3,,,,,,,,21,wg-a,,,,AAXX 22064 07434 02362 72606 10050 20050 39737 40226 53011 61000 72162 878// 90600 333 10083 20051 6005=
07434,1998-02-22 09:00:00,5,1024.4,1.7,93,4,15000,25.928,,,240,,,,1,,,,,,25,wg-a,,,,AAXX 22094 07434 12265 /2414 10050 20040 39754 40244 51017 60017 72586 86800 90900=
07434,1998-02-22 12:00:00,4,1025.3,0.6,93,3,12000,18.52,,,270,,,,1,,,,,,25,wg-a,,,,AAXX 22124 07434 02262 72710 10040 20030 39760 40253 51006 60026 72586 878// 91200 333 60017=
07434,1998-02-22 15:00:00,4,1026.8,1.5,87,2,25000,14.816,,,320,,,,3,,,,,,27,wg-a,,,,AAXX 22154 07434 12275 73208 10040 20020 39775 40268 52015 60037 72787 879// 91500=
07434,1998-02-22 18:00:00,3,1029.4,2.2,93,2,25000,7.408,,,300,1.7,6.1,,1,,,,,,1,wg-a,,,,AAXX 22184 07434 02475 53004 10030 20020 39797 40294 51022 60006 70187 85900 91800 333 10061 20017 60017=
07434,1998-02-22 21:00:00,3,1032.3,2.7,93,2,15000,14.816,,,320,,,,1,,,,,,1,wg-a,,,,AAXX 22214 07434 12465 73208 10030 20020 39824 40323 51027 60017 70186 878// 92100=
07434,1998-02-23 00:00:00,3,1034,1.7,93,2,8000,14.816,,,340,,,,,,,,,,26,wg-a,,,,AAXX 23004 07434 02358 73408 10030 20020 39841 40340 51017 60016 72687 878// 90000 333 61000=
07434,1998-02-23 03:00:00,2,1034.6,0.4,93,1,4500,11.112,,,360,,,,,,,,,,10,wg-a,,,,AAXX 23034 07434 12145 83606 10020 20010 39845 40346 50004 60006 71022 886// 90300=
07434,1998-02-23 06:00:00,2,1035.7,1,93,1,4000,11.112,,,340,1.5,3.5,,,,,7,,,10,wg-a,,,,AAXX 23064 07434 02140 83406 10020 20010 39855 40357 51010 60006 71022 886// 90600 333 10035 20015 60074=
07434,1998-02-23 09:00:00,2,1037.1,1.4,100,2,3500,14.816,,,350,,,,,,,,,,10,wg-a,,,,AAXX 23094 07434 12135 /3508 10020 20020 39869 40371 52014 60006 71022 876// 90900=
07434,1998-02-23 12:00:00,5,1037.1,0.5,87,3,12000,11.112,,,360,,,,,,,,,,,wg-a,,,,AAXX 23124 07434 12462 33606 10050 20030 39874 40371 50005 60006 83101 91200=
07434,1998-02-23 15:00:00,8,1035.6,-0.9,61,1,35000,22.224,,,350,,,,,,,,,,,wg-a,,,,AAXX 23154 07434 12581 43512 10080 20010 39865 40356 56009 60006 84101 91500=
07434,1998-02-23 18:00:00,5,1037.1,0.9,70,0,25000,11.112,,,350,1.1,8.4,,,,,,,,,wg-a,,,,AAXX 23184 07434 12675 /3506 10050 20000 39874 40371 53009 60006 81101 91800 333 10084 20011=
07434,1998-02-23 21:00:00,4,1037.8,0.4,75,0,20000,11.112,,,360,,,,,,,,,,,wg-a,,,,AAXX 23214 07434 12/70 13606 10040 20000 39878 40378 52004 60006 80001 92100=
07434,1998-02-24 00:00:00,3,1037.9,0.1,81,0,10000,7.408,,,360,,,,,,,,,,,wg-a,,,,AAXX 24004 07434 12/60 /3604 10030 20000 39879 40379 52001 60006 90000=
07434,1998-02-24 03:00:00,3,1037.4,-0.6,87,1,18000,11.112,,,340,,,,,,,,,,,wg-a,,,,AAXX 24034 07434 12568 73406 10030 20010 39873 40374 58006 60006 875// 90300=
07434,1998-02-24 06:00:00,5,1037.4,0.3,81,2,15000,7.408,,,10,2.1,5.1,,,,,,,,,wg-a,,,,AAXX 24064 07434 02465 70104 10050 20020 39876 40374 53003 60006 878// 90600 333 10051 20021 60004=
07434,1998-02-24 09:00:00,6,1038.1,0.9,87,4,15000,11.112,,,350,,,,,,,,,,,wg-a,,,,AAXX 24094 07434 12565 /3506 10060 20040 39885 40381 53009 60006 86500 90900=
07434,1998-02-24 12:00:00,7,1037.8,-0.1,87,5,15000,11.112,,,30,,,,,,,,,,,wg-a,,,,AAXX 24124 07434 12365 70306 10070 20050 39884 40378 58001 60006 875// 91200=
07434,1998-02-24 15:00:00,8,1035.8,-1.6,87,6,12000,14.816,,,30,,,,,,,,,,,wg-a,,,,AAXX 24154 07434 12362 70308 10080 20060 39868 40358 56016 60006 878// 91500=
07434,1998-02-24 18:00:00,8,1036.6,0.6,93,7,8000,14.816,,,30,3.2,8.3,,,,,,,,50,wg-a,,,,AAXX 24184 07434 02258 70308 10080 20070 39874 40366 53006 61000 75052 875// 91800 333 10083 20032 6100=
07434,1998-02-24 21:00:00,7,1037.3,0.6,100,7,10000,11.112,,,10,,,,,,,,,,50,wg-a,,,,AAXX 24214 07434 02460 70106 10070 20070 39880 40373 51006 61000 75052 875// 92100 333 ////=
07434,1998-02-25 00:00:00,7,1036.5,-0.7,93,6,10000,7.408,,,30,,,,,,,,,,50,wg-a,,,,AAXX 25004 07434 02360 70304 10070 20060 39873 40365 58007 61000 75052 875// 90000 333 6100=
07434,1998-02-25 03:00:00,7,1035.3,-1.2,87,5,12000,18.52,,,50,,,,,,,,,,20,wg-a,,,,AAXX 25034 07434 02462 70510 10070 20050 39861 40353 58012 61000 72052 875// 90300 333 ////=
07434,1998-02-25 06:00:00,6,1035.5,-0,81,3,12000,14.816,,,60,6,7.6,,,,,,,,3,wg-a,,,,AAXX 25064 07434 02562 40608 10060 20030 39861 40355 55000 60006 70351 84500 90600 333 10076 20060 61000=
07434,1998-02-25 12:00:00,10,1034.3,-0.8,76,6,12000,22.224,,,80,,,,,,,,,,,wg-a,,,,AAXX 25124 07434 12562 40812 10100 20060 39857 40343 58008 60006 84200 91200=
07434,1998-02-25 18:00:00,10,1032.9,0.2,76,6,9000,22.224,,,60,5.8,12.6,,,,,,,,,wg-a,,,,AAXX 25184 07434 12459 70612 10100 20060 39842 40329 53002 60006 878// 91800 333 10126 20058=
07434,1998-02-25 21:00:00,10,1033,0.1,76,6,10000,22.224,,,70,,,,,,,,,,,wg-a,,,,AAXX 25214 07434 12460 70712 10100 20060 39843 40330 52001 60006 875// 92100=
07434,1998-02-26 00:00:00,8,1033.1,-0.2,87,6,10000,14.816,,,60,,,,,,,,,,,wg-a,,,,AAXX 26004 07434 12460 20608 10080 20060 39841 40331 56002 60006 82500 90000=
07434,1998-02-26 03:00:00,7,1032.8,-0.4,93,6,7000,7.408,,,80,,,,,,,,,,,wg-a,,,,AAXX 26034 07434 12/57 00804 10070 20060 39837 40328 58004 60006 80000 90300=
07434,1998-02-26 06:00:00,6,1033.1,0.1,100,6,400,7.408,,,80,6.2,9.5,,,,,,,,44,wg-a,,,,AAXX 26064 07434 02/04 00804 10060 20060 39838 40331 53001 60006 74440 80000 90600 333 10095 20062 60004=
07434,1998-02-26 09:00:00,8,1033.4,0.7,87,6,3000,7.408,,,90,,,,0,,,,,,10,wg-a,,,,AAXX 26094 07434 12/30 /0904 10080 20060 39845 40334 51007 60007 71040 81030 90900=
07434,1998-02-26 12:00:00,13,1032.2,-0.3,72,8,8000,7.408,,,170,,,,,,,,,,3,wg-a,,,,AAXX 26124 07434 12558 /1704 10130 20080 39842 40322 58003 60006 70340 81100 91200=
07434,1998-02-26 15:00:00,14,1030.7,-1.3,63,7,15000,7.408,,,260,,,,,,,,,,,wg-a,,,,AAXX 26154 07434 12565 32604 10140 20070 39829 40307 56013 60006 83100 91500=
07434,1998-02-27 00:00:00,6,1032,-0.7,100,6,300,3.704,,,280,,,,,,,,,,10,wg-a,,,,AAXX 27004 07434 12103 62802 10060 20060 39828 40320 58007 60006 71041 8660/ 90000=
07434,1998-02-27 03:00:00,3,1032.2,-0.4,100,3,200,7.408,,,50,,,,,,,,,,45,wg-a,,,,AAXX 27034 07434 12/02 90504 10030 20030 39824 40322 57004 60006 74544 89/// 90300=
07434,1998-02-27 06:00:00,3,1031.2,-0.9,100,3,800,3.704,,,50,2.2,10.1,,,,,,,,42,wg-a,,,,AAXX 27064 07434 02108 90502 10030 20030 39815 40312 56009 60006 74244 896// 90600 333 10101 20022 60004=
07434,1998-02-27 09:00:00,5,1031.2,0.2,93,4,1200,3.704,,,90,,,,,,,,,,10,wg-a,,,,AAXX 27094 07434 12112 80902 10050 20040 39817 40312 52002 60006 71042 885// 90900=
07434,1998-02-27 12:00:00,7,1029.8,-0.8,100,7,1500,18.52,,,220,,,,,,,,,,10,wg-a,,,,AAXX 27124 07434 12115 82210 10070 20070 39809 40298 58008 60006 71042 876// 91200=
07434,1998-02-27 15:00:00,7,1028.5,-1.3,93,6,3000,7.408,,,250,,,,,,,,,,10,wg-a,,,,AAXX 27154 07434 12130 82504 10070 20060 39796 40285 58013 60006 71022 875// 91500=
07434,1998-02-27 18:00:00,6,1027.8,-0.8,100,6,2000,11.112,,,230,3.2,7.1,,,,,,,,10,wg-a,,,,AAXX 27184 07434 02120 82306 10060 20060 39788 40278 56008 61000 71052 887// 91800 333 10071 20032 6100=
07434,1998-02-27 21:00:00,6,1027.5,-0.4,93,5,3000,7.408,,,210,,,,,,,,,,10,wg-a,,,,AAXX 27214 07434 32/30 /2104 10060 20050 39784 40275 57004 710// 92100=
07434,1998-02-28 00:00:00,6,1025.9,-1.5,93,5,4000,7.408,,,210,,,,,,,,,,10,wg-a,,,,AAXX 28004 07434 12540 82104 10060 20050 39769 40259 58015 60006 71052 885// 90000=
07434,1998-02-28 03:00:00,6,1023.9,-1.9,93,5,4000,11.112,,,210,,,,,,,,,,10,wg-a,,,,AAXX 28034 07434 12240 82106 10060 20050 39750 40239 58019 60006 71022 885// 90300=
07434,1998-02-28 06:00:00,6,1022.9,-1,93,5,2000,11.112,,,230,5.5,6.3,,,,,,,,10,wg-a,,,,AAXX 28064 07434 02220 82306 10060 20050 39740 40229 57010 61000 71065 885// 90600 333 10063 20055 6001=
07434,1998-02-28 09:00:00,7,1022.7,0.1,93,6,2000,14.816,,,250,,,,,,,,,,10,wg-a,,,,AAXX 28094 07434 12220 82508 10070 20060 39741 40227 50001 60006 71022 885// 90900=
07434,1998-02-28 12:00:00,6,1022.9,-0,100,6,3500,11.112,,,310,,,,2,,,,,,10,wg-a,,,,AAXX 28124 07434 02235 73106 10060 20060 39741 40229 54000 60026 71062 875// 91200 333 60027=
07434,1998-02-28 15:00:00,9,1020.2,-2.1,76,5,15000,14.816,,,260,,,,,,,,,,2,wg-a,,,,AAXX 28154 07434 02365 72608 10090 20050 39720 40202 56021 61000 70262 878// 91500 333 ////=
07434,1998-02-28 18:00:00,7,1020.8,0.2,81,4,15000,7.408,,,260,5.7,9.1,,,,,,,,2,wg-a,,,,AAXX 28184 07434 12465 62604 10070 20040 39722 40208 53002 60006 70262 86902 91800 333 10091 20057=
07434,1998-02-28 21:00:00,6,1021.1,0.2,93,5,15000,11.112,,,260,,,,,,,,,,,wg-a,,,,AAXX 28214 07434 12465 72606 10060 20050 39724 40211 51002 60006 878// 92100=
07434,1998-03-01 00:00:00,6,1021.2,0.1,93,5,8000,14.816,,,270,,,,0,,,,,,50,wg-a,,,,AAXX 01004 07434 02258 82708 10060 20050 39725 40212 53001 60006 75052 877// 90000 333 60007=
07434,1998-03-01 03:00:00,5,1021.1,-0.2,100,5,12000,11.112,,,280,,,,1,,,,,,1,wg-a,,,,AAXX 01034 07434 12362 72806 10050 20050 39723 40211 57002 60017 70152 878// 90300=
07434,1998-03-01 06:00:00,5,1021.7,0.4,93,4,9000,7.408,,,250,4.7,6.6,,,,,3,,,1,wg-a,,,,AAXX 01064 07434 02259 72504 10050 20040 39727 40217 51004 60006 70165 878// 90600 333 10066 20047 60034=
07434,1998-03-01 09:00:00,5,1023.3,1.6,93,4,10000,7.408,,,260,,,,,,,,,,,wg-a,,,,AAXX 01094 07434 12360 72604 10050 20040 39743 40233 51016 60006 875// 90900=
07434,1998-03-01 12:00:00,7,1023.5,0.6,81,4,15000,11.112,,,270,,,,0,,,,,,80,wg-a,,,,AAXX 01124 07434 02565 72706 10070 20040 39749 40235 51006 60006 78086 878// 91200 333 60007=
07434,1998-03-01 15:00:00,10,1022.2,-0.9,62,3,50000,11.112,,,280,,,,0,,,,,,3,wg-a,,,,AAXX 01154 07434 12584 72806 10100 20030 39740 40222 56009 60007 70386 878// 91500=
07434,1998-03-01 18:00:00,7,1023.4,0.7,87,5,25000,7.408,,,240,4.6,10.1,,,,,,,,2,wg-a,,,,AAXX 01184 07434 12575 /2404 10070 20050 39747 40234 51007 60006 70286 86800 91800 333 10101 20046=
07434,1998-03-02 00:00:00,5,1025.7,0.6,87,3,25000,3.704,,,270,,,,,,,,,,,wg-a,,,,AAXX 02004 07434 12675 /2702 10050 20030 39765 40257 51006 60006 86500 90000=
07434,1998-03-02 03:00:00,5,1025.1,-0.5,93,4,25000,3.704,,,230,,,,,,,,,,,wg-a,,,,AAXX 02034 07434 12675 /2302 10050 20040 39760 40251 58005 60006 86500 90300=
07434,1998-03-02 06:00:00,5,1025.4,0.2,93,4,25000,11.112,,,230,4.3,6.7,,,,,,,,,wg-a,,,,AAXX 02064 07434 02675 /2306 10050 20040 39762 40254 53002 60006 86500 90600 333 10067 20043 60004=
07434,1998-03-02 09:00:00,7,1026.1,1.1,87,5,500,7.408,,,210,,,,0,,,,,,1,wg-a,,,,AAXX 02094 07434 12500 52104 10070 20050 39773 40261 51011 60007 70186 84830 90900=
07434,1998-03-02 15:00:00,10,1024.1,-1.4,62,3,11000,14.816,,,220,,,,,,,,,,,wg-a,,,,AAXX 02154 07434 12/61 /2208 10100 20030 39758 40241 56014 60006 91500=
07434,1998-03-02 18:00:00,8,1024.2,-0.2,71,3,60000,11.112,,,200,4.6,10.4,,,,,,,,,wg-a,,,,AAXX 02184 07434 12686 32006 10080 20030 39756 40242 55002 60006 83501 91800 333 10104 20046=
07434,1998-03-02 21:00:00,6,1024.7,0.1,75,2,40000,11.112,,,190,,,,,,,,,,,wg-a,,,,AAXX 02214 07434 12/82 31906 10060 20020 39757 40247 52001 60006 80001 92100=
07434,1998-03-03 00:00:00,6,1024.2,-0.5,75,2,40000,11.112,,,180,,,,,,,,,,,wg-a,,,,AAXX 03004 07434 12/82 61806 10060 20020 39752 40242 55005 60006 83032 90000=
07434,1998-03-03 03:00:00,5,1022.5,-1.7,81,2,40000,14.816,,,150,,,,,,,,,,,wg-a,,,,AAXX 03034 07434 12/82 21508 10050 20020 39735 40225 56017 60006 80001 90300=
07434,1998-03-03 06:00:00,5,1022,-0.5,81,2,40000,14.816,,,140,4.6,7.8,,,,,,,,,wg-a,,,,AAXX 03064 07434 02/82 51408 10050 20020 39730 40220 58005 60006 84031 90600 333 10078 20046 60004=
07434,1998-03-03 09:00:00,8,1021.9,0.4,71,3,50000,22.224,,,170,,,,,,,,,,,wg-a,,,,AAXX 03094 07434 12784 71712 10080 20030 39734 40219 50004 60006 8557/ 90900=
07434,1998-03-03 12:00:00,13,1020.6,-0.3,51,3,500,22.224,,,190,,,,,,,,,,,wg-a,,,,AAXX 03124 07434 12/00 61912 10130 20030 39731 40206 58003 60006 83031 91200=
07434,1998-03-03 15:00:00,15,1019.7,-0.5,51,5,500,22.224,,,210,,,,,,,,,,,wg-a,,,,AAXX 03154 07434 12/00 72112 10150 20050 39726 40197 56005 60006 85031 91500=
07434,1998-03-03 18:00:00,14,1019.9,-0.1,51,4,20000,18.52,,,190,4.9,16.3,,,,,,,,,wg-a,,,,AAXX 03184 07434 12/70 71910 10140 20040 39725 40199 55001 60006 84082 91800 333 10163 20049=
07434,1998-03-03 21:00:00,13,1019.2,-0.7,47,2,20000,18.52,,,180,,,,,,,,,,,wg-a,,,,AAXX 03214 07434 12/70 71810 10130 20020 39718 40192 58007 60006 83032 92100=
07434,1998-03-04 00:00:00,12,1017.6,-1.8,50,2,20000,18.52,,,170,,,,,,,,,,,wg-a,,,,AAXX 04004 07434 12/70 51710 10120 20020 39700 40176 58018 60006 81031 90000=
07434,1998-03-04 03:00:00,12,1015.3,-2.2,50,2,15000,22.224,,,180,,,,,,,,,,,wg-a,,,,AAXX 04034 07434 12465 71812 10120 20020 39678 40153 58022 60006 81531 90300=
07434,1998-03-04 06:00:00,11,1014.5,-1,54,2,20000,18.52,,,180,10.4,14,,,,,,,,,wg-a,,,,AAXX 04064 07434 02/70 41810 10110 20020 39668 40145 56010 60006 81031 90600 333 10140 20104 60004=
07434,1998-03-04 09:00:00,12,1014.8,0.6,62,5,20000,29.632,,,200,,,,,,,,,,,wg-a,,,,AAXX 04094 07434 12/70 72016 10120 20050 39674 40148 50006 60006 84031 90900=
07434,1998-03-04 12:00:00,15,1014.3,-0.1,51,5,10000,29.632,,,200,,,,,,,,,,,wg-a,,,,AAXX 04124 07434 12/60 /2016 10150 20050 39673 40143 56001 60006 91200=
07434,1998-03-04 15:00:00,15,1012.9,-1.2,51,5,12000,31.484,,,210,,,,,,,,,,,wg-a,,,,AAXX 04154 07434 12/62 72117 10150 20050 39661 40129 56012 60006 85072 91500=
07434,1998-03-04 18:00:00,13,1014.4,1.1,72,8,6000,18.52,,,240,10.3,16.1,,,,,,,,61,wg-a,,,,AAXX 04184 07434 02556 72410 10130 20080 39672 40144 53011 61000 76162 8557/ 91800 333 10161 20103 6100=
07434,1998-03-04 21:00:00,11,1015.8,1,94,10,12000,25.928,,,250,,,,4,,,,,,61,wg-a,,,,AAXX 04214 07434 12362 82514 10110 20100 39682 40158 51010 60047 76166 875// 92100=
07434,1998-03-05 00:00:00,8,1018.8,2.3,93,7,20000,14.816,,,280,,,,3,,,,,,21,wg-a,,,,AAXX 05004 07434 02370 82808 10080 20070 39705 40188 51023 60076 72162 875// 90000 333 60037=
07434,1998-03-05 03:00:00,6,1022.8,3.5,93,5,20000,14.816,,,280,,,,,,,,,,,wg-a,,,,AAXX 05034 07434 12470 22808 10060 20050 39740 40228 51035 60006 82100 90300=
07434,1998-03-05 06:00:00,5,1026,2.8,93,4,18000,7.408,,,260,4.5,12.8,,,,,7,,,,wg-a,,,,AAXX 05064 07434 02568 /2604 10050 20040 39768 40260 51028 60006 81231 90600 333 10128 20045 60074=
07434,1998-03-05 09:00:00,7,1028.4,2.6,81,4,12000,14.816,,,280,,,,,,,,,,,wg-a,,,,AAXX 05094 07434 12462 32808 10070 20040 39794 40284 53026 60006 83202 90900=
07434,1998-03-05 12:00:00,10,1028.9,0.9,46,-1,40000,7.408,,,340,,,,,,,,,,,wg-a,,,,AAXX 05124 07434 12682 /3404 10100 21010 39803 40289 51009 60006 81100 91200=
07434,1998-03-05 15:00:00,11,1027.5,-1,43,-1,40000,3.704,,,240,,,,,,,,,,,wg-a,,,,AAXX 05154 07434 12682 /2402 10110 21010 39793 40275 56010 60006 81100 91500=
07434,1998-03-05 18:00:00,9,1028.3,0.3,49,-1,40000,0,,,0,4.2,11.5,,,,,,,,,wg-a,,,,AAXX 05184 07434 12/82 50000 10090 21010 39796 40283 53003 60006 80002 91800 333 10115 20042=
07434,1998-03-05 21:00:00,7,1029.4,0.7,61,0,15000,3.704,,,260,,,,,,,,,,,wg-a,,,,AAXX 05214 07434 12/65 52602 10070 20000 39803 40294 53007 60006 80001 92100=
07434,1998-03-06 00:00:00,5,1029,-0.6,65,-1,12000,3.704,,,50,,,,,,,,,,,wg-a,,,,AAXX 06004 07434 12762 60502 10050 21010 39797 40290 56006 60006 86500 90000=
07434,1998-03-06 03:00:00,4,1028.3,-0.9,70,-1,12000,3.704,,,150,,,,,,,,,,,wg-a,,,,AAXX 06034 07434 12662 31502 10040 21010 39788 40283 58009 60006 82501 90300=
07434,1998-03-06 06:00:00,3,1028.6,0.2,81,0,12000,3.704,,,140,3.1,8.5,,,,,,,,,wg-a,,,,AAXX 06064 07434 02/62 51402 10030 20000 39790 40286 53002 60006 84031 90600 333 10085 20031 60004=
07434,1998-03-06 09:00:00,6,1028.9,0.8,75,2,15000,7.408,,,170,,,,,,,,,,,wg-a,,,,AAXX 06094 07434 12/65 41704 10060 20020 39798 40289 53008 60006 81031 90900=
07434,1998-03-06 12:00:00,12,1027,-0.8,62,5,40000,25.928,,,220,,,,,,,,,,,wg-a,,,,AAXX 06124 07434 12582 42214 10120 20050 39790 40270 57008 60006 81101 91200=
07434,1998-03-06 15:00:00,15,1024.3,-2.2,51,5,50000,18.52,,,220,,,,,,,,,,,wg-a,,,,AAXX 06154 07434 12/84 42210 10150 20050 39768 40243 57022 60006 80001 91500=
07434,1998-03-06 18:00:00,12,1024.4,-0.3,58,4,500,11.112,,,230,2.5,15.2,,,,,,,,,wg-a,,,,AAXX 06184 07434 12/00 32306 10120 20040 39765 40244 56003 60006 80001 91800 333 10152 20025=
07434,1998-03-06 21:00:00,9,1024.4,-0.5,66,3,500,11.112,,,220,,,,,,,,,,,wg-a,,,,AAXX 06214 07434 12/00 22206 10090 20030 39760 40244 58005 60006 80001 92100=
07434,1998-03-07 00:00:00,8,1023.9,-0.6,76,4,20000,14.816,,,240,,,,,,,,,,,wg-a,,,,AAXX 07004 07434 12/70 12408 10080 20040 39754 40239 57006 60006 80001 90000=
07434,1998-03-07 03:00:00,7,1023,-1,93,6,12000,11.112,,,210,,,,,,,,,,,wg-a,,,,AAXX 07034 07434 12362 72106 10070 20060 39744 40230 58010 60006 876// 90300=
07434,1998-03-07 06:00:00,8,1023,0.2,100,8,1500,18.52,,,230,6.5,11.8,,,,,,,,10,wg-a,,,,AAXX 07064 07434 02115 82310 10080 20080 39746 40230 53002 61000 71051 877// 90600 333 10118 20065 6100=
07434,1998-03-07 12:00:00,10,1022.2,-0.8,100,10,4500,22.224,,,230,,,,1,,,,,,60,wg-a,,,,AAXX 07124 07434 02245 82312 10100 20100 39742 40222 58008 60016 76065 888// 91200 333 60017=
07434,1998-03-07 15:00:00,11,1020.6,-1.3,94,10,15000,29.632,,,270,,,,1,,,,,,80,wg-a,,,,AAXX 07154 07434 12265 72716 10110 20100 39729 40206 56013 60017 78086 878// 91500=
07434,1998-03-07 18:00:00,10,1020.6,-0.2,87,8,25000,22.224,,,250,8,11.6,,0,,,,,,1,wg-a,,,,AAXX 07184 07434 02475 72512 10100 20080 39727 40206 56002 60006 70186 878// 91800 333 10116 20080 60007=
07434,1998-03-07 21:00:00,9,1021.9,0.9,87,7,20000,18.52,,,250,,,,,,,,,,,wg-a,,,,AAXX 07214 07434 12470 72510 10090 20070 39736 40219 51009 60006 875// 92100=
07434,1998-03-08 00:00:00,9,1020.6,-1.2,87,7,12000,25.928,,,250,,,,,,,,,,,wg-a,,,,AAXX 08004 07434 12462 72514 10090 20070 39724 40206 58012 60006 875// 90000=
07434,1998-03-08 03:00:00,9,1019.2,-1.3,87,7,10000,18.52,,37.04,260,,,,0,,,,,,61,wg-a,,,,AAXX 08034 07434 12460 82610 10090 20070 39711 40192 58013 60007 76162 875// 90300 333 91020=
07434,1998-03-08 06:00:00,8,1017.4,-1.9,93,7,4000,18.52,,,270,8,10.5,,,,,,,,10,wg-a,,,,AAXX 08064 07434 02240 82710 10080 20070 39692 40174 56019 61000 71062 877// 90600 333 10105 20080 6008=
07434,1998-03-08 09:00:00,8,1014.8,-2.5,100,8,12000,22.224,,,240,,,,5,,,,,,60,wg-a,,,,AAXX 08094 07434 12262 82412 10080 20080 39667 40148 58025 60057 76066 877// 90900=
07434,1998-03-08 12:00:00,10,1010.6,-3.5,100,10,6000,22.224,,,250,,,,3,,,,,,10,wg-a,,,,AAXX 08124 07434 02156 82512 10100 20100 39632 40106 58035 60086 71066 887// 91200 333 60037=
07434,1998-03-08 15:00:00,10,1009.7,-1,93,9,7000,35.188,,59.264,270,,,,2,,,,,,16,wg-a,,,,AAXX 08154 07434 12357 72719 10100 20090 39622 40097 56010 60027 71662 877// 91500 333 91032=
07434,1998-03-08 18:00:00,8,1011.9,1.8,100,8,4000,14.816,,,340,7.6,11.7,,,,,,,,60,wg-a,,,,AAXX 08184 07434 02240 83408 10080 20080 39640 40119 53018 61000 76062 877// 91800 333 10117 20076 6005=
07434,1998-03-08 21:00:00,7,1014.6,2.3,93,6,15000,11.112,,,330,,,,0,,,,,,21,wg-a,,,,AAXX 08214 07434 12265 73306 10070 20060 39663 40146 51023 60007 72162 875// 92100=
07434,1998-03-09 03:00:00,6,1018.2,1.8,93,5,15000,11.112,,,350,,,,,,,,,,,wg-a,,,,AAXX 09034 07434 12265 73506 10060 20050 39696 40182 51018 60006 875// 90300=
07434,1998-03-09 06:00:00,5,1019.6,1.2,100,5,15000,14.816,,,330,5.3,8.1,,,,,15,,,,wg-a,,,,AAXX 09064 07434 02165 73308 10050 20050 39708 40196 53012 60006 876// 90600 333 10081 20053 60154=
07434,1998-03-09 09:00:00,5,1021.7,2,93,4,25000,11.112,,,350,,,,0,,,,,,1,wg-a,,,,AAXX 09094 07434 12275 73506 10050 20040 39728 40217 52020 60007 70164 878// 90900=
07434,1998-03-09 12:00:00,6,1023.6,1.9,81,3,20000,18.52,,,30,,,,,,,,,,1,wg-a,,,,AAXX 09124 07434 12470 70310 10060 20030 39747 40236 51019 60006 70164 878// 91200=
07434,1998-03-09 18:00:00,3,1027.8,2.6,60,-4,25000,14.816,,,50,3,6.9,,,,,,,,,wg-a,,,,AAXX 09184 07434 12/75 10508 10030 21040 39782 40278 53026 60006 80001 91800 333 10069 20030=
07434,1998-03-09 21:00:00,2,1030.6,2.4,55,-6,20000,11.112,,,20,,,,,,,,,,,wg-a,,,,AAXX 09214 07434 12/70 10206 10020 21060 39806 40306 53024 60006 80001 92100=
07434,1998-03-10 00:00:00,0,1031.9,1,51,-9,500,14.816,,,70,,,,,,,,,,,wg-a,,,,AAXX 10004 07434 12/00 20708 10000 21090 39816 40319 52010 60006 80001 90000=
07434,1998-03-10 03:00:00,0,1032.6,0.5,51,-9,500,11.112,,,50,,,,,,,,,,,wg-a,,,,AAXX 10034 07434 12/00 10506 10000 21090 39821 40326 50005 60006 80001 90300=
07434,1998-03-10 06:00:00,0,1032.2,-0.4,55,-8,50000,22.224,,,90,-0.8,3,,,,,,,,,wg-a,,,,AAXX 10064 07434 02/84 10912 10000 21080 39817 40322 58004 60006 80001 90600 333 10030 21008 60004=
07434,1998-03-10 09:00:00,2,1032.1,0.4,47,-8,50000,14.816,,,100,,,,,,,,,,,wg-a,,,,AAXX 10094 07434 12/84 41008 10020 21080 39821 40321 51004 60006 80001 90900=
07434,1998-03-10 12:00:00,8,1030,-1,31,-8,60000,14.816,,,160,,,,,,,,,,,wg-a,,,,AAXX 10124 07434 12/86 41608 10080 21080 39811 40300 58010 60006 80001 91200=
07434,1998-03-10 15:00:00,9,1027.2,-2.5,31,-7,60000,18.52,,,200,,,,,,,,,,,wg-a,,,,AAXX 10154 07434 12/86 72010 10090 21070 39786 40272 56025 60006 81032 91500=
07434,1998-03-10 18:00:00,7,1025.8,-1.7,42,-5,40000,11.112,,,210,-0.7,10.2,,,,,,,,,wg-a,,,,AAXX 10184 07434 12/82 72106 10070 21050 39769 40258 56017 60006 85032 91800 333 10102 21007=
07434,1998-03-10 21:00:00,6,1023.6,-2.2,49,-4,25000,11.112,,,210,,,,,,,,,,,wg-a,,,,AAXX 10214 07434 12/75 72106 10060 21040 39747 40236 56022 60006 85032 92100=
07434,1998-03-11 00:00:00,4,1020.6,-3.2,87,2,7000,18.52,,,190,,,,1,,,,,,60,wg-a,,,,AAXX 11004 07434 02257 81910 10040 20020 39715 40206 58032 60016 76062 885// 90000 333 60017=
07434,1998-03-11 03:00:00,4,1015.5,-4.9,93,3,4000,18.52,,,170,,,,4,,,,,,60,wg-a,,,,AAXX 11034 07434 12240 81710 10040 20030 39666 40155 56049 60047 76062 887// 90300=
07434,1998-03-11 06:00:00,4,1012.7,-2.5,100,4,2000,3.704,,,190,3.5,6.8,,,,,,,,25,wg-a,,,,AAXX 11064 07434 02020 81902 10040 20040 39641 40127 56025 61000 72586 887// 90600 333 10068 20035 6006=
07434,1998-03-11 09:00:00,7,1012.3,0.1,100,7,6000,14.816,,,280,,,,1,,,,,,10,wg-a,,,,AAXX 11094 07434 12156 72808 10070 20070 39642 40123 53001 60017 71086 877// 90900=
07434,1998-03-11 12:00:00,8,1012.6,0.4,87,6,9000,18.52,,,330,,,,3,,,,,,80,wg-a,,,,AAXX 11124 07434 02359 73310 10080 20060 39646 40126 53004 60046 78086 878// 91200 333 60037=
07434,1998-03-11 15:00:00,6,1014.2,1.2,93,5,7000,22.224,,,330,,,,4,,,,,,80,wg-a,,,,AAXX 11154 07434 12257 73312 10060 20050 39658 40142 53012 60047 78087 872// 91500=
07434,1998-03-11 18:00:00,5,1016.7,2.3,93,4,8000,14.816,,,320,4.4,9.4,,,,,,,,25,wg-a,,,,AAXX 11184 07434 02358 73208 10050 20040 39681 40167 53023 61000 72587 878// 91800 333 10094 20044 6001=
07434,1998-03-11 21:00:00,5,1019,2,93,4,6000,22.224,,,340,,,,2,,,,,,61,wg-a,,,,AAXX 11214 07434 12256 83412 10050 20040 39701 40190 51020 60027 76186 878// 92100=
07434,1998-03-12 00:00:00,4,1021.1,1.8,93,3,8000,14.816,,,360,,,,1,,,,,,60,wg-a,,,,AAXX 12004 07434 02258 83608 10040 20030 39719 40211 53018 60036 76086 878// 90000 333 60017=
07434,1998-03-12 03:00:00,3,1021.8,0.6,87,1,10000,14.816,,,350,,,,,,,,,,1,wg-a,,,,AAXX 12034 07434 02460 73508 10030 20010 39725 40218 51006 61000 70162 878// 90300 333 ////=
07434,1998-03-12 06:00:00,1,1023.6,1.3,86,-1,15000,11.112,,,20,1,5.3,,,,,13,,,1,wg-a,,,,AAXX 12064 07434 02465 30206 10010 21010 39738 40236 53013 60006 70161 82830 90600 333 10053 20010 60134=
07434,1998-03-12 09:00:00,3,1024.9,1.6,75,-1,15000,18.52,,,20,,,,,,,,,,,wg-a,,,,AAXX 12094 07434 12465 40210 10030 21010 39754 40249 51016 60006 84100 90900=
07434,1998-03-12 12:00:00,5,1025.5,1,65,-1,500,18.52,,,350,,,,,,,,,,,wg-a,,,,AAXX 12124 07434 12500 /3510 10050 21010 39764 40255 51010 60006 85800 91200=
07434,1998-03-12 15:00:00,5,1025.6,-0,75,1,15000,11.112,,,10,,,,0,,,,,,20,wg-a,,,,AAXX 12154 07434 12165 /0106 10050 20010 39764 40256 55000 60007 72076 85800 91500=
07434,1998-03-12 18:00:00,4,1026.9,1.1,70,-1,15000,11.112,,,350,0.6,5.9,,0,,,,,,1,wg-a,,,,AAXX 12184 07434 02565 /3506 10040 21010 39775 40269 53011 60006 70176 86800 91800 333 10059 20006 60007=
07434,1998-03-12 21:00:00,3,1028.7,1.5,75,-1,15000,7.408,,,350,,,,,,,,,,,wg-a,,,,AAXX 12214 07434 12665 73504 10030 21010 39790 40287 51015 60006 878// 92100=
07434,1998-03-13 00:00:00,2,1029.2,0.3,80,-1,10000,11.112,,,360,,,,,,,,,,,wg-a,,,,AAXX 13004 07434 12660 33606 10020 21010 39793 40292 51003 60006 83500 90000=
07434,1998-03-13 03:00:00,0,1029.3,-0.2,86,-2,10000,11.112,,,360,,,,,,,,,,,wg-a,,,,AAXX 13034 07434 12660 33606 10000 21020 39791 40293 58002 60006 83500 90300=
07434,1998-03-13 06:00:00,-1,1029.7,0.3,93,-2,9000,11.112,,,10,-0.6,4,,,,,,,,,wg-a,,,,AAXX 13064 07434 02/59 /0106 11010 21020 39794 40297 53003 60006 80002 90600 333 10040 21006 60004=
07434,1998-03-13 09:00:00,4,1030,1,65,-2,10000,11.112,,,10,,,,,,,,,,,wg-a,,,,AAXX 13094 07434 12/60 30106 10040 21020 39804 40300 51010 60006 80002 90900=
07434,1998-03-13 12:00:00,7,1029.4,0,49,-3,15000,7.408,,,190,,,,,,,,,,,wg-a,,,,AAXX 13124 07434 12565 21904 10070 21030 39804 40294 50000 60006 82102 91200=
07434,1998-03-13 15:00:00,9,1027.9,-1.2,53,0,20000,11.112,,,340,,,,,,,,,,,wg-a,,,,AAXX 13154 07434 12670 23406 10090 20000 39792 40279 56012 60006 82102 91500=
07434,1998-03-13 18:00:00,6,1028.7,0.3,61,-1,500,11.112,,,340,-0.5,9.2,,,,,,,,,wg-a,,,,AAXX 13184 07434 12/00 13406 10060 21010 39795 40287 53003 60006 81032 91800 333 10092 21005=
07434,1998-03-13 21:00:00,5,1030,1.1,65,-1,15000,11.112,,,10,,,,,,,,,,,wg-a,,,,AAXX 13214 07434 12/65 60106 10050 21010 39806 40300 51011 60006 8603/ 92100=
07434,1998-03-14 00:00:00,4,1030.3,0.2,81,1,15000,0,,,0,,,,,,,,,,,wg-a,,,,AAXX 14004 07434 12765 70000 10040 20010 39808 40303 51002 60006 8757/ 90000=
07434,1998-03-14 03:00:00,4,1030,-0.3,75,0,15000,7.408,,,340,,,,,,,,,,,wg-a,,,,AAXX 14034 07434 12465 73404 10040 20000 39805 40300 58003 60006 8557/ 90300=
07434,1998-03-14 06:00:00,5,1030.3,0.4,75,1,10000,7.408,,,20,3.9,5.7,,,,,,,,,wg-a,,,,AAXX 14064 07434 02260 80204 10050 20010 39809 40303 53004 60006 886// 90600 333 10057 20039 60004=
07434,1998-03-14 09:00:00,6,1031.2,1,87,4,9000,11.112,,,30,,,,,,,,,,,wg-a,,,,AAXX 14094 07434 12359 80306 10060 20040 39819 40312 52010 60006 886// 90900=
07434,1998-03-14 12:00:00,8,1031.1,0.3,76,4,9000,18.52,,,30,,,,,,,,,,,wg-a,,,,AAXX 14124 07434 12459 70310 10080 20040 39822 40311 52003 60006 878// 91200=
07434,1998-03-14 15:00:00,8,1030.3,-0.7,71,3,12000,14.816,,,10,,,,,,,,,,,wg-a,,,,AAXX 14154 07434 12562 70108 10080 20030 39815 40303 56007 60006 875// 91500=
07434,1998-03-14 18:00:00,7,1031,0.5,81,4,12000,7.408,,,10,4.7,8.9,,,,,,,,,wg-a,,,,AAXX 14184 07434 12562 /0104 10070 20040 39820 40310 53005 60006 86800 91800 333 10089 20047=
07434,1998-03-14 21:00:00,7,1031.4,0.4,81,4,12000,14.816,,,30,,,,,,,,,,,wg-a,,,,AAXX 14214 07434 12562 70308 10070 20040 39824 40314 51004 60006 878// 92100=
07434,1998-03-15 00:00:00,7,1031.8,0.2,81,4,8000,14.816,,,30,,,,,,,,,,,wg-a,,,,AAXX 15004 07434 12658 70308 10070 20040 39826 40318 51002 60006 875// 90000=
07434,1998-03-15 03:00:00,7,1031.2,-0.5,76,3,10000,22.224,,,50,,,,,,,,,,,wg-a,,,,AAXX 15034 07434 12560 70512 10070 20030 39821 40312 58005 60006 875// 90300=
07434,1998-03-15 06:00:00,7,1031.9,0.6,76,3,15000,14.816,,,30,6.4,7.6,,,,,,,,,wg-a,,,,AAXX 15064 07434 02565 70308 10070 20030 39827 40319 53006 60006 875// 90600 333 10076 20064 60004=
07434,1998-03-15 09:00:00,7,1033,1.2,70,2,15000,29.632,,,50,,,,,,,,,,,wg-a,,,,AAXX 15094 07434 12565 70516 10070 20020 39839 40330 53012 60006 875// 90900=
07434,1998-03-15 12:00:00,11,1032,-0.3,58,3,20000,25.928,,,40,,,,,,,,,,,wg-a,,,,AAXX 15124 07434 12/70 00414 10110 20030 39836 40320 58003 60006 80000 91200=
07434,1998-03-15 15:00:00,12,1030.8,-1,54,3,15000,18.52,,,30,,,,,,,,,,,wg-a,,,,AAXX 15154 07434 12/65 00310 10120 20030 39826 40308 56010 60006 80000 91500=
07434,1998-03-15 18:00:00,10,1031,-0.2,66,4,10000,7.408,,,30,6.5,12.1,,,,,,,,,wg-a,,,,AAXX 15184 07434 12/60 10304 10100 20040 39824 40310 57002 60006 80001 91800 333 10121 20065=
07434,1998-03-15 21:00:00,7,1031.7,0.2,81,4,8000,14.816,,,10,,,,,,,,,,,wg-a,,,,AAXX 15214 07434 12/58 00108 10070 20040 39826 40317 53002 60006 80000 92100=
07434,1998-03-16 00:00:00,5,1032.1,-0,87,3,8000,14.816,,,40,,,,,,,,,,,wg-a,,,,AAXX 16004 07434 12458 40408 10050 20030 39826 40321 55000 60006 84500 90000=
07434,1998-03-16 06:00:00,5,1031.1,0.1,87,3,6000,11.112,,,50,4.2,9.7,,,,,,,,,wg-a,,,,AAXX 16064 07434 02456 70506 10050 20030 39817 40311 53001 60006 875// 90600 333 10097 20042 60004=
07434,1998-03-16 09:00:00,7,1031,0.3,76,3,7000,25.928,,,70,,,,,,,,,,,wg-a,,,,AAXX 16094 07434 12457 /0714 10070 20030 39820 40310 50003 60006 86500 90900=
07434,1998-03-16 12:00:00,10,1030.4,-0.1,71,5,8000,18.52,,,80,,,,,,,,,,,wg-a,,,,AAXX 16124 07434 12658 /0810 10100 20050 39819 40304 55001 60006 81100 91200=
07434,1998-03-16 15:00:00,13,1028.3,-1.4,62,6,15000,11.112,,,360,,,,,,,,,,,wg-a,,,,AAXX 16154 07434 12765 13606 10130 20060 39805 40283 58014 60006 81100 91500=
07434,1998-03-16 18:00:00,10,1029.5,0.5,76,6,15000,14.816,,,30,5.2,13.6,,,,,,,,,wg-a,,,,AAXX 16184 07434 12/65 00308 10100 20060 39810 40295 52005 60006 80000 91800 333 10136 20052=
07434,1998-03-17 00:00:00,6,1030.5,-0.1,87,4,0,14.816,,,40,,,,,,,,,,,wg-a,,,,AAXX 17004 07434 12/// /0408 10060 20040 39813 40305 58001 60006 90000=
07434,1998-03-17 03:00:00,5,1030.4,-0.2,87,3,8000,14.816,,,40,,,,,,,,,,,wg-a,,,,AAXX 17034 07434 12/58 00408 10050 20030 39811 40304 56002 60006 80000 90300=
07434,1998-03-17 06:00:00,4,1030.7,0.1,93,3,4000,14.816,,,20,4.4,9.6,,,,,,,,10,wg-a,,,,AAXX 17064 07434 02440 20208 10040 20030 39812 40307 53001 60006 71000 82500 90600 333 10096 20044 60004=
07434,1998-03-17 09:00:00,8,1031,1,76,4,7000,18.52,,,50,,,,,,,,,,,wg-a,,,,AAXX 17094 07434 12457 /0510 10080 20040 39822 40310 52010 60006 81500 90900=
07434,1998-03-17 12:00:00,12,1030.2,-0.1,58,4,8000,11.112,,,30,,,,,,,,,,,wg-a,,,,AAXX 17124 07434 12/58 00306 10120 20040 39821 40302 58001 60006 80000 91200=
07434,1998-03-17 15:00:00,14,1029.2,-0.7,55,5,10000,14.816,,,30,,,,,,,,,,,wg-a,,,,AAXX 17154 07434 12/60 00308 10140 20050 39814 40292 56007 60006 80000 91500=
07434,1998-03-17 18:00:00,11,1030.2,0.4,66,5,18000,18.52,,,30,4.4,14.1,,,,,,,,,wg-a,,,,AAXX 17184 07434 12/68 00310 10110 20050 39818 40302 53004 60006 80000 91800 333 10141 20044=
07434,1998-03-17 21:00:00,8,1031.5,0.8,76,4,10000,11.112,,,30,,,,,,,,,,,wg-a,,,,AAXX 17214 07434 12/60 00306 10080 20040 39826 40315 51008 60006 80000 92100=
07434,1998-03-18 00:00:00,5,1032,0,87,3,7000,18.52,,,30,,,,,,,,,,,wg-a,,,,AAXX 18004 07434 12/57 00310 10050 20030 39826 40320 50000 60006 80000 90000=
07434,1998-03-18 03:00:00,5,1031.7,-0.4,81,2,500,22.224,,,60,,,,,,,,,,,wg-a,,,,AAXX 18034 07434 12/00 00612 10050 20020 39822 40317 58004 60006 80000 90300=
07434,1998-03-18 06:00:00,4,1032.1,0.2,87,2,4000,14.816,,,40,3.6,10.8,,,,,,,,10,wg-a,,,,AAXX 18064 07434 02440 /0408 10040 20020 39824 40321 53002 60006 71000 81500 90600 333 10108 20036 60004=
07434,1998-03-18 09:00:00,7,1032.9,1.4,76,3,3000,22.224,,,70,,,,,,,,,,10,wg-a,,,,AAXX 18094 07434 12430 20712 10070 20030 39838 40329 51014 60006 71000 81501 90900=
07434,1998-03-18 12:00:00,12,1032.3,0.2,58,4,10000,18.52,,,80,,,,,,,,,,,wg-a,,,,AAXX 18124 07434 12/60 00810 10120 20040 39840 40323 50002 60006 80000 91200=
07434,1998-03-18 15:00:00,14,1031.4,-0.5,55,5,10000,22.224,,,40,,,,,,,,,,,wg-a,,,,AAXX 18154 07434 12/60 00412 10140 20050 39835 40314 56005 60006 80000 91500=
07434,1998-03-18 18:00:00,11,1032.6,0.6,62,4,10000,22.224,,,60,3.6,14.2,,,,,,,,,wg-a,,,,AAXX 18184 07434 12/60 00612 10110 20040 39841 40326 53006 60006 80000 91800 333 10142 20036=
07434,1998-03-18 21:00:00,9,1034,1,71,4,12000,22.224,,,70,,,,,,,,,,,wg-a,,,,AAXX 18214 07434 12/62 00712 10090 20040 39851 40340 51010 60006 80000 92100=
07434,1998-03-19 00:00:00,7,1034.7,0.3,81,4,7000,22.224,,,60,,,,,,,,,,,wg-a,,,,AAXX 19004 07434 12/57 00612 10070 20040 39854 40347 51003 60006 80000 90000=
07434,1998-03-19 03:00:00,6,1034.2,-0.6,87,4,6000,29.632,,,60,,,,,,,,,,,wg-a,,,,AAXX 19034 07434 12/56 00616 10060 20040 39848 40342 58006 60006 80000 90300=
07434,1998-03-19 06:00:00,5,1035.7,1.3,87,3,4000,25.928,,,60,5.2,10.6,,,,,,,,10,wg-a,,,,AAXX 19064 07434 02/40 /0614 10050 20030 39861 40357 51013 60006 71000 80001 90600 333 10106 20052 60004=
07434,1998-03-19 09:00:00,9,1036.1,1,66,3,500,29.632,,,80,,,,,,,,,,,wg-a,,,,AAXX 19094 07434 12/00 00816 10090 20030 39871 40361 53010 60006 80000 90900=
07434,1998-03-19 12:00:00,12,1035.7,0.2,58,4,8000,22.224,,,70,,,,,,,,,,,wg-a,,,,AAXX 19124 07434 12/58 00712 10120 20040 39873 40357 50002 60006 80000 91200=
07434,1998-03-19 15:00:00,14,1034.1,-1.2,47,3,10000,25.928,,,50,,,,,,,,,,,wg-a,,,,AAXX 19154 07434 12/60 10514 10140 20030 39861 40341 56012 60006 80001 91500=
07434,1998-03-19 18:00:00,10,1035.1,0.3,53,1,25000,22.224,,,50,5.2,14.3,,,,,,,,,wg-a,,,,AAXX 19184 07434 12/75 20512 10100 20010 39864 40351 53003 60006 80001 91800 333 10143 20052=
07434,1998-03-19 21:00:00,7,1036.5,0.7,57,-1,15000,18.52,,,60,,,,,,,,,,,wg-a,,,,AAXX 19214 07434 12/65 00610 10070 21010 39871 40365 51007 60006 80000 92100=
07434,1998-03-20 00:00:00,6,1036.2,-0.5,56,-2,0,22.224,,,70,,,,,,,,,,,wg-a,,,,AAXX 20004 07434 12/// /0712 10060 21020 39866 40362 58005 60006 90000=
07434,1998-03-20 03:00:00,4,1035.2,-1.1,60,-3,12000,22.224,,,70,,,,,,,,,,,wg-a,,,,AAXX 20034 07434 12/62 00712 10040 21030 39855 40352 56011 60006 80000 90300=
07434,1998-03-20 06:00:00,5,1035.1,-0.1,52,-4,50000,29.632,,,70,4.3,10.4,,,,,,,,,wg-a,,,,AAXX 20064 07434 02/84 10716 10050 21040 39854 40351 57001 60006 80001 90600 333 10104 20043 60004=
07434,1998-03-20 09:00:00,8,1034.6,0.1,42,-4,50000,31.484,,,70,,,,,,,,,,,wg-a,,,,AAXX 20094 07434 12/84 00717 10080 21040 39855 40346 53001 60006 80000 90900=
07434,1998-03-20 12:00:00,11,1033.6,-0.4,40,-2,50000,25.928,,,80,,,,,,,,,,,wg-a,,,,AAXX 20124 07434 12/84 00814 10110 21020 39851 40336 58004 60006 80000 91200=
07434,1998-03-20 15:00:00,12,1032,-1.4,38,-2,50000,29.632,,,40,,,,,,,,,,,wg-a,,,,AAXX 20154 07434 12/84 00416 10120 21020 39837 40320 56014 60006 80000 91500=
07434,1998-03-20 18:00:00,9,1032.3,-0.3,43,-3,50000,25.928,,,50,4.4,12.1,,,,,,,,,wg-a,,,,AAXX 20184 07434 12/84 00514 10090 21030 39834 40323 55003 60006 80000 91800 333 10121 20044=
07434,1998-03-20 21:00:00,7,1033.1,0.5,53,-2,40000,22.224,,,50,,,,,,,,,,,wg-a,,,,AAXX 20214 07434 12/82 00512 10070 21020 39839 40331 51005 60006 80000 92100=
07434,1998-03-21 00:00:00,6,1033.1,-0.2,61,-1,10000,22.224,,,60,,,,,,,,,,,wg-a,,,,AAXX 21004 07434 12/60 /0612 10060 21010 39837 40331 56002 60006 90000=
07434,1998-03-21 03:00:00,5,1032,-1.1,70,0,25000,18.52,,,70,,,,,,,,,,,wg-a,,,,AAXX 21034 07434 12/75 00710 10050 20000 39826 40320 58011 60006 80000 90300=
07434,1998-03-21 06:00:00,5,1031.3,-0.8,81,2,7000,14.816,,,40,4.1,8.7,,,,,,,,,wg-a,,,,AAXX 21064 07434 02557 30408 10050 20020 39818 40313 56008 60006 83500 90600 333 10087 20041 60004=
07434,1998-03-21 09:00:00,7,1030.6,-0.2,76,3,12000,25.928,,,50,,,,,,,,,,,wg-a,,,,AAXX 21094 07434 12462 70514 10070 20030 39816 40306 55002 60006 875// 90900=
07434,1998-03-21 12:00:00,7,1030.2,-0.3,81,4,18000,25.928,,,50,,,,,,,,,,,wg-a,,,,AAXX 21124 07434 12468 70514 10070 20040 39813 40302 58003 60006 875// 91200=
07434,1998-03-21 15:00:00,8,1029.3,-0.9,76,4,20000,22.224,,,50,,,,,,,,,,,wg-a,,,,AAXX 21154 07434 12470 70512 10080 20040 39804 40293 56009 60006 875// 91500=
07434,1998-03-21 18:00:00,7,1028.6,-0.7,76,3,25000,18.52,,,30,4.7,7.8,,,,,,,,,wg-a,,,,AAXX 21184 07434 12575 /0310 10070 20030 39797 40286 56007 60006 81500 91800 333 10078 20047=
07434,1998-03-21 21:00:00,6,1028.9,-0,81,3,11000,18.52,,,20,,,,,,,,,,,wg-a,,,,AAXX 21214 07434 12/61 /0210 10060 20030 39797 40289 55000 60006 92100=
07434,1998-03-22 00:00:00,4,1028.4,-0.7,75,0,25000,22.224,,,60,,,,,,,,,,,wg-a,,,,AAXX 22004 07434 12675 /0612 10040 20000 39790 40284 58007 60006 81500 90000=
07434,1998-03-22 03:00:00,3,1027.9,-0.7,65,-3,25000,22.224,,,70,,,,,,,,,,,wg-a,,,,AAXX 22034 07434 12675 /0712 10030 21030 39783 40279 58007 60006 81500 90300=
07434,1998-03-22 06:00:00,2,1028.7,0.5,64,-4,25000,18.52,,,70,1.6,7,,,,,,,,,wg-a,,,,AAXX 22064 07434 02/75 10710 10020 21040 39788 40287 52005 60006 80001 90600 333 10070 20016 60004=
07434,1998-03-22 12:00:00,11,1027.3,-0.3,19,-12,40000,29.632,,,80,,,,,,,,,,,wg-a,,,,AAXX 22124 07434 12/82 00816 10110 21120 39789 40273 58003 60006 80000 91200=
07434,1998-03-22 15:00:00,12,1025.8,-1.2,24,-8,50000,25.928,,,70,,,,,,,,,,,wg-a,,,,AAXX 22154 07434 12/84 00714 10120 21080 39777 40258 56012 60006 80000 91500=
07434,1998-03-22 18:00:00,9,1026.9,0.6,37,-5,50000,22.224,,,70,1.6,12.1,,,,,,,,,wg-a,,,,AAXX 22184 07434 12/84 00712 10090 21050 39783 40269 53006 60006 80000 91800 333 10121 20016=
07434,1998-03-22 21:00:00,6,1027.8,0.4,45,-5,500,25.928,,,60,,,,,,,,,,,wg-a,,,,AAXX 22214 07434 12/00 00614 10060 21050 39787 40278 53004 60006 80000 92100=
07434,1998-03-23 00:00:00,5,1027.5,-0.5,48,-5,25000,25.928,,,70,,,,,,,,,,,wg-a,,,,AAXX 23004 07434 12/75 00714 10050 21050 39782 40275 57005 60006 80000 90000=
07434,1998-03-23 03:00:00,4,1027.4,-0.3,48,-6,25000,25.928,,,70,,,,,,,,,,,wg-a,,,,AAXX 23034 07434 12/75 00714 10040 21060 39779 40274 58003 60006 80000 90300=
07434,1998-03-23 06:00:00,3,1027.6,0.1,52,-6,40000,18.52,,,70,2.7,8.7,,,,,,,,,wg-a,,,,AAXX 23064 07434 02/82 10710 10030 21060 39780 40276 53001 60006 80001 90600 333 10087 20027 60004=
07434,1998-03-23 09:00:00,8,1027.3,0.5,42,-4,25000,29.632,,,60,,,,,,,,,,,wg-a,,,,AAXX 23094 07434 12/75 30616 10080 21040 39785 40273 51005 60006 80001 90900=
07434,1998-03-23 12:00:00,10,1026.4,-0.5,46,-1,500,22.224,,,70,,,,,,,,,,,wg-a,,,,AAXX 23124 07434 12600 30712 10100 21010 39780 40264 58005 60006 81101 91200=
07434,1998-03-23 15:00:00,9,1025.6,-0.9,49,-1,25000,29.632,,,50,,,,,,,,,,,wg-a,,,,AAXX 23154 07434 12575 /0516 10090 21010 39771 40256 56009 60006 85801 91500=
07434,1998-03-23 18:00:00,7,1026,0.1,57,-1,15000,22.224,,,30,3.2,10.6,,,,,,,,,wg-a,,,,AAXX 23184 07434 12665 /0312 10070 21010 39772 40260 53001 60006 86800 91800 333 10106 20032=
07434,1998-03-23 21:00:00,6,1026.5,0.3,70,1,13000,14.816,,,20,,,,,,,,,,,wg-a,,,,AAXX 23214 07434 12563 70208 10060 20010 39775 40265 51003 60006 875// 92100=
07434,1998-03-24 00:00:00,4,1026.2,-0.6,87,2,9000,11.112,,,350,,,,,,,,,,,wg-a,,,,AAXX 24004 07434 12559 73506 10040 20020 39769 40262 58006 60006 875// 90000=
07434,1998-03-24 03:00:00,4,1025.9,-0.3,87,2,10000,11.112,,,350,,,,,,,,,,,wg-a,,,,AAXX 24034 07434 12460 73506 10040 20020 39766 40259 58003 60006 875// 90300=
07434,1998-03-24 06:00:00,2,1027.4,1,80,-1,9000,14.816,,,20,2.1,7,,,,,,,,,wg-a,,,,AAXX 24064 07434 02459 50208 10020 21010 39776 40274 53010 60006 85500 90600 333 10070 20021 60004=
07434,1998-03-24 09:00:00,4,1029.1,1.9,60,-3,10000,14.816,,,40,,,,,,,,,,,wg-a,,,,AAXX 24094 07434 12560 /0408 10040 21030 39795 40291 51019 60006 81100 90900=
07434,1998-03-24 12:00:00,6,1029.1,0.5,49,-4,500,18.52,,,30,,,,,,,,,,,wg-a,,,,AAXX 24124 07434 12600 40310 10060 21040 39800 40291 51005 60006 81101 91200=
07434,1998-03-24 15:00:00,7,1028.9,-0,42,-5,500,25.928,,,50,,,,,,,,,,,wg-a,,,,AAXX 24154 07434 12600 /0514 10070 21050 39800 40289 55000 60006 81100 91500=
07434,1998-03-24 18:00:00,6,1030.2,0.9,45,-5,500,14.816,,,40,1.2,7.8,,,,,,,,,wg-a,,,,AAXX 24184 07434 12/00 20408 10060 21050 39809 40302 53009 60006 80001 91800 333 10078 20012=
07434,1998-03-24 21:00:00,3,1031.9,1.2,60,-4,20000,11.112,,,30,,,,,,,,,,,wg-a,,,,AAXX 24214 07434 12/70 00306 10030 21040 39821 40319 51012 60006 80000 92100=
07434,1998-03-25 00:00:00,2,1031.3,-0.8,64,-4,15000,7.408,,,60,,,,,,,,,,,wg-a,,,,AAXX 25004 07434 12/65 00604 10020 21040 39813 40313 58008 60006 80000 90000=
07434,1998-03-25 03:00:00,1,1030.6,-0.8,69,-4,15000,7.408,,,70,,,,,,,,,,,wg-a,,,,AAXX 25034 07434 12/65 00704 10010 21040 39805 40306 58008 60006 80000 90300=
07434,1998-03-25 06:00:00,1,1030.7,0.1,69,-4,9000,7.408,,,40,0.8,5.5,,,,,,,,,wg-a,,,,AAXX 25064 07434 02/59 20404 10010 21040 39806 40307 53001 60006 81031 90600 333 10055 20008 60004=
07434,1998-03-25 09:00:00,5,1029.6,-0.4,52,-4,10000,18.52,,,70,,,,,,,,,,,wg-a,,,,AAXX 25094 07434 12/60 /0710 10050 21040 39802 40296 58004 60006 90900=
07434,1998-03-25 12:00:00,10,1027.4,-1.2,34,-5,25000,7.408,,,340,,,,,,,,,,,wg-a,,,,AAXX 25124 07434 12/75 53404 10100 21050 39790 40274 58012 60006 80001 91200=
07434,1998-03-25 15:00:00,11,1025.3,-1.9,28,-7,500,14.816,,,360,,,,,,,,,,,wg-a,,,,AAXX 25154 07434 12/00 73608 10110 21070 39771 40253 56019 60006 81032 91500=
07434,1998-03-25 18:00:00,9,1025.4,-0.3,34,-6,500,14.816,,,30,1,11.7,,,,,,,,,wg-a,,,,AAXX 25184 07434 12/00 70308 10090 21060 39768 40254 55003 60006 85032 91800 333 10117 20010=
07434,1998-03-25 21:00:00,7,1024.9,-0.8,45,-4,20000,11.112,,,70,,,,,,,,,,,wg-a,,,,AAXX 25214 07434 12/70 70706 10070 21040 39760 40249 58008 60006 85032 92100=
07434,1998-03-26 00:00:00,6,1024.1,-0.9,45,-5,20000,11.112,,,50,,,,,,,,,,,wg-a,,,,AAXX 26004 07434 12/70 70506 10060 21050 39751 40241 58009 60006 84032 90000=
07434,1998-03-26 03:00:00,5,1023.1,-1.1,45,-6,20000,3.704,,,100,,,,,,,,,,,wg-a,,,,AAXX 26034 07434 12/70 31002 10050 21060 39740 40231 56011 60006 81031 90300=
07434,1998-03-26 06:00:00,3,1023.7,0.3,52,-6,20000,3.704,,,70,2.2,8.5,,,,,,,,,wg-a,,,,AAXX 26064 07434 02/70 60702 10030 21060 39743 40237 53003 60006 82032 90600 333 10085 20022 60004=
07434,1998-03-26 09:00:00,7,1023.3,0.3,49,-3,25000,7.408,,,170,,,,,,,,,,,wg-a,,,,AAXX 26094 07434 12/75 31704 10070 21030 39746 40233 50003 60006 81031 90900=
07434,1998-03-26 12:00:00,13,1021.6,-0.7,33,-3,25000,7.408,,,240,,,,,,,,,,,wg-a,,,,AAXX 26124 07434 12/75 52404 10130 21030 39739 40216 58007 60006 82031 91200=
07434,1998-03-26 15:00:00,14,1019.9,-1.4,33,-2,40000,11.112,,,290,,,,,,,,,,,wg-a,,,,AAXX 26154 07434 12/82 52906 10140 21020 39725 40199 58014 60006 81031 91500=
07434,1998-03-26 18:00:00,12,1020.8,0.5,44,0,500,7.408,,,290,2.3,14.4,,,,,,,,,wg-a,,,,AAXX 26184 07434 12/00 72904 10120 20000 39730 40208 53005 60006 85032 91800 333 10144 20023=
07434,1998-03-26 21:00:00,10,1021.3,0.2,50,0,20000,7.408,,,300,,,,,,,,,,,wg-a,,,,AAXX 26214 07434 12/70 73004 10100 20000 39732 40213 52002 60006 86072 92100=
07434,1998-03-27 00:00:00,9,1021.7,0.2,57,1,20000,7.408,,,310,,,,,,,,,,,wg-a,,,,AAXX 27004 07434 12/70 73104 10090 20010 39734 40217 51002 60006 8707/ 90000=
07434,1998-03-27 03:00:00,8,1021,-0.9,57,0,15000,3.704,,,210,,,,,,,,,,,wg-a,,,,AAXX 27034 07434 12665 72102 10080 20000 39725 40210 58009 60006 8757/ 90300=
07434,1998-03-27 06:00:00,8,1021.5,0.5,53,-1,10000,0,,,0,7.3,11.5,,,,,,,,,wg-a,,,,AAXX 27064 07434 02660 70000 10080 21010 39730 40215 53005 60006 875// 90600 333 10115 20073 60004=
07434,1998-03-27 09:00:00,12,1021.3,0.5,40,-1,8000,3.704,,,150,,,,,,,,,,,wg-a,,,,AAXX 27094 07434 12558 /1502 10120 21010 39735 40213 51005 60006 81531 90900=
07434,1998-03-27 12:00:00,16,1019.9,-0.7,45,4,20000,7.408,,,200,,,,,,,,,,,wg-a,,,,AAXX 27124 07434 12/70 62004 10160 20040 39728 40199 58007 60006 81031 91200=
07434,1998-03-27 15:00:00,19,1017.7,-1.6,40,5,25000,3.704,,,230,,,,,,,,,,,wg-a,,,,AAXX 27154 07434 12/75 62302 10190 20050 39712 40177 56016 60006 80001 91500=
07434,1998-03-27 18:00:00,17,1016.5,-1.5,42,4,500,7.408,,,90,7.8,19.1,,,,,,,,,wg-a,,,,AAXX 27184 07434 12/00 20904 10170 20040 39697 40165 58015 60006 80001 91800 333 10191 20078=
07434,1998-03-27 21:00:00,13,1016.3,-0.7,62,6,25000,18.52,,,80,,,,,,,,,,,wg-a,,,,AAXX 27214 07434 12/75 10810 10130 20060 39690 40163 58007 60006 81031 92100=
07434,1998-03-28 00:00:00,11,1016.2,-0.4,71,6,0,11.112,,,90,,,,,,,,,,,wg-a,,,,AAXX 28004 07434 12/// /0906 10110 20060 39686 40162 58004 60006 90000=
07434,1998-03-28 03:00:00,10,1015.8,-0.6,71,5,15000,11.112,,,120,,,,,,,,,,,wg-a,,,,AAXX 28034 07434 12/65 51206 10100 20050 39680 40158 58006 60006 83031 90300=
07434,1998-03-28 06:00:00,11,1014.6,-1,62,4,40000,11.112,,,140,9.7,16.7,,,,,,,,,wg-a,,,,AAXX 28064 07434 02/82 61406 10110 20040 39670 40146 56010 60006 83032 90600 333 10167 20097 60004=
07434,1998-03-28 09:00:00,14,1014.8,0.7,51,4,500,18.52,,,160,,,,,,,,,,,wg-a,,,,AAXX 28094 07434 12/00 71610 10140 20040 39677 40148 52007 60006 82032 90900=
07434,1998-03-28 12:00:00,18,1013.3,-0.8,45,6,500,25.928,,,170,,,,,,,,,,,wg-a,,,,AAXX 28124 07434 12/00 61714 10180 20060 39669 40133 58008 60006 81032 91200=
07434,1998-03-28 15:00:00,18,1012.5,-0.7,49,7,500,22.224,,,170,,,,,,,,,,,wg-a,,,,AAXX 28154 07434 12/00 71712 10180 20070 39662 40125 56007 60006 81032 91500=
07434,1998-03-28 18:00:00,16,1011.9,-0.9,59,8,15000,14.816,,,170,10.7,19,,,,,,,,,wg-a,,,,AAXX 28184 07434 12/65 71708 10160 20080 39653 40119 56009 60006 85032 91800 333 10190 20107=
07434,1998-03-28 21:00:00,13,1012.5,0.1,67,7,18000,11.112,,,170,,,,,,,,,,,wg-a,,,,AAXX 28214 07434 12/68 21706 10130 20070 39654 40125 52001 60006 80001 92100=
07434,1998-03-29 00:00:00,11,1012.1,-0.8,71,6,15000,11.112,,,140,,,,,,,,,,,wg-a,,,,AAXX 29004 07434 12/65 11406 10110 20060 39646 40121 56008 60006 80001 90000=
07434,1998-03-29 03:00:00,11,1010,-2,62,4,15000,11.112,,,140,,,,,,,,,,,wg-a,,,,AAXX 29034 07434 12/65 21406 10110 20040 39626 40100 57020 60006 80001 90300=
07434,1998-03-29 06:00:00,10,1009.3,-0.9,66,4,12000,14.816,,,130,9.7,16.2,,,,,,,,,wg-a,,,,AAXX 29064 07434 02/62 61308 10100 20040 39617 40093 56009 60006 81032 90600 333 10162 20097 60004=
07434,1998-03-29 09:00:00,14,1008.1,-0.4,55,5,20000,18.52,,,160,,,,,,,,,,,wg-a,,,,AAXX 29094 07434 12/70 71610 10140 20050 39613 40081 58004 60006 84032 90900=
07434,1998-03-29 12:00:00,18,1007,-0.5,45,6,25000,25.928,,,170,,,,,,,,,,,wg-a,,,,AAXX 29124 07434 12/75 61714 10180 20060 39608 40070 58005 60006 83032 91200=
07434,1998-03-29 15:00:00,17,1006.9,-0.2,52,7,20000,25.928,,,190,,,,,,,,,,,wg-a,,,,AAXX 29154 07434 12/70 71914 10170 20070 39606 40069 57002 60006 83012 91500=
07434,1998-03-29 18:00:00,15,1007.9,0.7,55,6,20000,14.816,,,190,9.7,17.6,,,,,,,,,wg-a,,,,AAXX 29184 07434 12/70 71908 10150 20060 39613 40079 51007 60006 84012 91800 333 10176 20097=
07434,1998-03-29 21:00:00,12,1010.2,1.7,62,5,20000,11.112,,,180,,,,,,,,,,,wg-a,,,,AAXX 29214 07434 12/70 71806 10120 20050 39630 40102 52017 60006 80002 92100=
07434,1998-03-30 00:00:00,11,1012.1,1.6,66,5,15000,11.112,,,180,,,,,,,,,,,wg-a,,,,AAXX 30004 07434 12/65 71806 10110 20050 39646 40121 53016 60006 81032 90000=
07434,1998-03-30 15:00:00,12,1017.4,0.2,82,9,15000,7.408,,,240,,,,,,,,,,,wg-a,,,,AAXX 30154 07434 12465 72404 10120 20090 39698 40174 53002 60006 8557/ 91500=
07434,1998-03-30 18:00:00,10,1018.2,0.6,93,9,15000,7.408,,,320,8.7,12.4,,,,,,,,,wg-a,,,,AAXX 30184 07434 12665 73204 10100 20090 39704 40182 53006 60006 8557/ 91800 333 10124 20087=
07434,1998-03-30 21:00:00,10,1018.4,0.2,93,9,10000,7.408,,,40,,,,,,,,,,,wg-a,,,,AAXX 30214 07434 12660 80404 10100 20090 39706 40184 50002 60006 8357/ 92100=
07434,1998-03-31 00:00:00,10,1018.5,-0,93,9,9000,7.408,,,80,,,,,,,,,,,wg-a,,,,AAXX 31004 07434 12759 80804 10100 20090 39706 40185 54000 60006 8357/ 90000=
07434,1998-03-31 03:00:00,10,1016.9,-1.6,87,8,10000,7.408,,,90,,,,,,,,,,,wg-a,,,,AAXX 31034 07434 12760 80904 10100 20080 39690 40169 58016 60006 8253/ 90300=
07434,1998-03-31 06:00:00,9,1016.6,-0.4,76,5,20000,7.408,,,100,9,10.4,,,,,,,,,wg-a,,,,AAXX 31064 07434 02/70 61004 10090 20050 39686 40166 56004 60006 83032 90600 333 10104 20090 60004=
07434,1998-03-31 09:00:00,13,1015.3,-0.6,54,4,20000,14.816,,,150,,,,,,,,,,,wg-a,,,,AAXX 31094 07434 12/70 71508 10130 20040 39680 40153 58006 60006 84038 90900=
07434,1998-03-31 12:00:00,15,1013.9,-1,39,1,10000,18.52,,,170,,,,,,,,,,,wg-a,,,,AAXX 31124 07434 12/60 /1710 10150 20010 39670 40139 58010 60006 91200=
07434,1998-03-31 15:00:00,17,1012.2,-1.4,39,3,50000,14.816,,,160,,,,,,,,,,,wg-a,,,,AAXX 31154 07434 12/84 71608 10170 20030 39656 40122 58014 60006 8703/ 91500=
07434,1998-03-31 18:00:00,16,1012,-0.3,48,5,40000,11.112,,,160,9.2,16.6,,,,,,,,,wg-a,,,,AAXX 31184 07434 12782 61606 10160 20050 39653 40120 57003 60006 81531 91800 333 10166 20092=
07434,1998-03-31 21:00:00,13,1014.5,1.9,62,6,40000,18.52,,,180,,,,,,,,,,,wg-a,,,,AAXX 31214 07434 12782 61810 10130 20060 39672 40145 53019 60006 81531 92100=
07434,1998-04-01 00:00:00,11,1015.2,0.4,87,9,12000,14.816,,,190,,,,,,,,,,60,wg-a,,,,AAXX 01004 07434 02562 71908 10110 20090 39676 40152 50004 61000 76062 85531 90000 333 6100=
07434,1998-04-01 03:00:00,10,1015,-0.4,87,8,12000,14.816,,,170,,,,0,,,,,,21,wg-a,,,,AAXX 01034 07434 12462 71708 10100 20080 39672 40150 58004 60007 72162 8557/ 90300=
07434,1998-04-01 06:00:00,9,1015.8,0.7,100,9,500,7.408,,,180,9.4,15.6,,,,,,,,3,wg-a,,,,AAXX 01064 07434 02200 81804 10090 20090 39679 40158 53007 60006 70362 887// 90600 333 10156 20094 60004=
07434,1998-04-01 09:00:00,11,1016.4,0.9,94,10,8000,11.112,,,220,,,,,,,,,,,wg-a,,,,AAXX 01094 07434 12258 72206 10110 20100 39688 40164 51009 60006 878// 90900=
07434,1998-04-01 12:00:00,15,1014.9,-0.8,63,8,25000,14.816,,,280,,,,,,,,,,,wg-a,,,,AAXX 01124 07434 12575 62808 10150 20080 39680 40149 58008 60006 86801 91200=
07434,1998-04-01 15:00:00,14,1014.3,-0.7,72,9,500,11.112,,,260,,,,,,,,,,25,wg-a,,,,AAXX 01154 07434 02500 72606 10140 20090 39673 40143 58007 61000 72586 8583/ 91500 333 ////=
07434,1998-04-01 18:00:00,12,1014.9,0.2,88,10,20000,7.408,,,180,9.4,15.8,,1,,,,,,1,wg-a,,,,AAXX 01184 07434 02470 71804 10120 20100 39675 40149 53002 60006 70186 81831 91800 333 10158 20094 60017=
07434,1998-04-01 21:00:00,10,1015,-0.2,93,9,13000,7.408,,,180,,,,,,,,,,,wg-a,,,,AAXX 01214 07434 12563 71804 10100 20090 39673 40150 58002 60006 8253/ 92100=
07434,1998-04-02 00:00:00,9,1013.9,-1.2,93,8,13000,7.408,,,160,,,,,,,,,,,wg-a,,,,AAXX 02004 07434 12563 71604 10090 20080 39661 40139 58012 60006 875// 90000=
07434,1998-04-02 03:00:00,9,1011,-2.9,87,7,15000,11.112,,,140,,,,,,,,,,,wg-a,,,,AAXX 02034 07434 12665 71406 10090 20070 39632 40110 56029 60006 8453/ 90300=
07434,1998-04-02 06:00:00,9,1009.4,-1.4,93,8,6000,18.52,,,190,8.1,11.7,,,,,,,,61,wg-a,,,,AAXX 02064 07434 02456 81910 10090 20080 39618 40094 55014 61000 76162 8557/ 90600 333 10117 20081 6002=
07434,1998-04-02 09:00:00,10,1009.4,0.2,100,10,8000,14.816,,,210,,,,6,,,,,,58,wg-a,,,,AAXX 02094 07434 12158 82108 10100 20100 39620 40094 53002 60067 75866 8677/ 90900=
07434,1998-04-02 12:00:00,14,1008.2,-0.6,77,10,15000,25.928,,,240,,,,0,,,,,,25,wg-a,,,,AAXX 02124 07434 02465 72414 10140 20100 39614 40082 58006 60066 72586 85802 91200 333 60007=
07434,1998-04-02 15:00:00,13,1006.8,-1.5,72,8,15000,25.928,,46.3,230,,,,0,,,,,,1,wg-a,,,,AAXX 02154 07434 12565 72314 10130 20080 39599 40068 58015 60007 70186 8582/ 91500 333 91025=
07434,1998-04-02 18:00:00,10,1007.2,-0.1,93,9,12000,14.816,,,210,9.1,14,,,,,,,,60,wg-a,,,,AAXX 02184 07434 02462 72108 10100 20090 39598 40072 57001 61000 76086 8582/ 91800 333 10140 20091 6100=
07434,1998-04-02 21:00:00,10,1006,-1.1,93,9,20000,22.224,,,180,,,,1,,,,,,21,wg-a,,,,AAXX 02214 07434 12270 81812 10100 20090 39587 40060 58011 60017 72165 877// 92100=
07434,1998-04-03 00:00:00,11,1003.9,-1.8,94,10,20000,25.928,,,190,,,,,,,,,,1,wg-a,,,,AAXX 03004 07434 12270 81914 10110 20100 39569 40039 56018 60016 70165 876// 90000=
07434,1998-04-03 03:00:00,12,1001.9,-1.8,88,10,15000,22.224,,,190,,,,,,,,,,,wg-a,,,,AAXX 03034 07434 12765 81912 10120 20100 39551 40019 56018 60006 8557/ 90300=
07434,1998-04-03 06:00:00,12,1001.7,-0.2,88,10,15000,22.224,,,200,9.6,12,,,,,7,,,,wg-a,,,,AAXX 03064 07434 02465 72012 10120 20100 39549 40017 55002 60006 85531 90600 333 10120 20096 60074=
07434,1998-04-03 09:00:00,15,1000.6,-0.6,72,10,15000,31.484,,,210,,,,,,,,,,,wg-a,,,,AAXX 03094 07434 12465 /2117 10150 20100 39543 40006 58006 60006 81132 90900=
07434,1998-04-03 12:00:00,16,998.4,-1.9,59,8,40000,35.188,,,220,,,,,,,,,,,wg-a,,,,AAXX 03124 07434 12582 72219 10160 20080 39524 49984 58019 60006 8687/ 91200=
07434,1998-04-03 15:00:00,11,998.4,-0.7,87,9,12000,18.52,,,300,,,,,,,,,,1,wg-a,,,,AAXX 03154 07434 02462 83010 10110 20090 39517 49984 58007 61000 70162 875// 91500 333 ////=
07434,1998-04-03 18:00:00,7,1001.2,1.9,93,6,12000,18.52,,,290,6.9,17,,,,,,,,61,wg-a,,,,AAXX 03184 07434 02262 82910 10070 20060 39536 40012 53019 61000 76162 875// 91800 333 10170 20069 6004=
07434,1998-04-03 21:00:00,5,1002.8,1.2,100,5,500,14.816,,,230,,,,6,,,,,,61,wg-a,,,,AAXX 03214 07434 12200 82308 10050 20050 39548 40028 52012 60067 76166 877// 92100=
07434,1998-04-04 00:00:00,5,1003.5,0.6,93,4,8000,18.52,,,170,,,,7,,,,,,61,wg-a,,,,AAXX 04004 07434 02158 81710 10050 20040 39554 40035 51006 60136 76166 877// 90000 333 60077=
07434,1998-04-04 03:00:00,6,1003.5,0.1,93,5,15000,25.928,,40.744,190,,,,,,,,,,1,wg-a,,,,AAXX 04034 07434 02365 71914 10060 20050 39555 40035 53001 61000 70162 875// 90300 333 //// 91022=
07434,1998-04-04 06:00:00,6,1004.4,1,93,5,15000,25.928,,,210,4.6,6.9,,,,,16,,,15,wg-a,,,,AAXX 04064 07434 02465 /2114 10060 20050 39565 40044 52010 60006 71562 86200 90600 333 10069 20046 60164=
07434,1998-04-04 09:00:00,9,1005,1.1,81,6,500,31.484,,,220,,,,,,,,,,,wg-a,,,,AAXX 04094 07434 12400 /2217 10090 20060 39576 40050 51011 60006 86200 90900=
07434,1998-04-04 12:00:00,11,1004.5,-0.3,66,5,500,35.188,,53.708,220,,,,,,,,,,,wg-a,,,,AAXX 04124 07434 12500 72219 10110 20050 39573 40045 58003 60006 879// 91200 333 91029=
07434,1998-04-04 15:00:00,11,1005.2,0.8,62,4,25000,25.928,,,240,,,,1,,,,,,25,wg-a,,,,AAXX 04154 07434 12575 62414 10110 20040 39581 40052 50008 60017 72586 84980 91500=
07434,1998-04-04 18:00:00,8,1006.1,0.4,87,6,500,7.408,,,200,5.8,11.9,,2,,,,,,3,wg-a,,,,AAXX 04184 07434 02500 52004 10080 20060 39585 40061 53004 60006 70386 85800 91800 333 10119 20058 60027=
07434,1998-04-04 21:00:00,7,1006.6,0.3,81,4,25000,11.112,,,230,,,,,,,,,,,wg-a,,,,AAXX 04214 07434 12675 72306 10070 20040 39588 40066 50003 60006 82530 92100=
07434,1998-04-05 00:00:00,7,1004.7,-1.9,81,4,20000,7.408,,,150,,,,,,,,,,,wg-a,,,,AAXX 05004 07434 12670 71504 10070 20040 39569 40047 58019 60006 8353/ 90000=
07434,1998-04-05 03:00:00,7,1003.3,-1.3,76,3,20000,3.704,,,130,,,,,,,,,,,wg-a,,,,AAXX 05034 07434 12670 71302 10070 20030 39556 40033 56013 60006 875// 90300=
07434,1998-04-05 06:00:00,5,1006,2.2,93,4,15000,0,,,0,4.5,8.9,,,,,,,,21,wg-a,,,,AAXX 05064 07434 02365 8//// 10050 20040 39578 40060 51022 61000 72162 878// 90600 333 10089 20045 6004=
07434,1998-04-05 09:00:00,7,1007.5,1.9,93,6,15000,3.704,,,130,,,,,,,,,,,wg-a,,,,AAXX 05094 07434 12465 71302 10070 20060 39597 40075 53019 60006 878// 90900=
07434,1998-04-05 12:00:00,10,1008,0.9,76,6,25000,0,,,0,,,,,,,,,,,wg-a,,,,AAXX 05124 07434 12475 7//// 10100 20060 39606 40080 51009 60006 878// 91200=
07434,1998-04-05 15:00:00,10,1009.5,1.3,66,4,25000,0,,,0,,,,2,,,,,,25,wg-a,,,,AAXX 05154 07434 12475 ///// 10100 20040 39619 40095 51013 60027 72586 86902 91500=
07434,1998-04-05 18:00:00,9,1011.1,1.4,81,6,25000,0,,,0,4.8,10.7,,,,,,,,3,wg-a,,,,AAXX 05184 07434 12575 5//// 10090 20060 39633 40111 53014 60006 70386 85201 91800 333 10107 20048=
07434,1998-04-05 21:00:00,6,1012.9,1.3,93,5,15000,0,,,0,,,,1,,,,,,1,wg-a,,,,AAXX 05214 07434 12565 6//// 10060 20050 39646 40129 51013 60017 70186 84802 92100=
07434,1998-04-06 06:00:00,7,1012.3,-0,93,6,15000,0,,,0,6.2,8.7,,,,,3,,,1,wg-a,,,,AAXX 06064 07434 02365 7//// 10070 20060 39641 40123 55000 60006 70186 878// 90600 333 10087 20062 60034=
07434,1998-04-06 09:00:00,7,1012.3,-0,93,6,7000,29.632,,,220,,,,2,,,,,,61,wg-a,,,,AAXX 06094 07434 12157 82216 10070 20060 39641 40123 55000 60027 76162 877// 90900=
07434,1998-04-06 12:00:00,8,1010.4,-1.6,93,7,15000,31.484,,,230,,,,1,,,,,,61,wg-a,,,,AAXX 06124 07434 02365 82317 10080 20070 39625 40104 58016 60036 76162 878// 91200 333 60017=
07434,1998-04-06 15:00:00,9,1008.5,-1.6,93,8,12000,22.224,,,220,,,,1,,,,,,60,wg-a,,,,AAXX 06154 07434 12462 82212 10090 20080 39609 40085 56016 60017 76062 878// 91500=
07434,1998-04-06 21:00:00,8,1004.8,-2.4,100,8,8000,14.816,,,170,,,,3,,,,,,61,wg-a,,,,AAXX 06214 07434 12358 81708 10080 20080 39572 40048 58024 60037 76166 887// 92100=
07434,1998-04-07 00:00:00,8,1001.8,-2.8,93,7,12000,18.52,,,180,,,,3,,,,,,61,wg-a,,,,AAXX 07004 07434 02362 81810 10080 20070 39544 40018 56028 60076 76166 887// 90000 333 60037=
07434,1998-04-07 03:00:00,8,998.3,-3.5,93,7,12000,25.928,,,180,,,,4,,,,,,61,wg-a,,,,AAXX 07034 07434 12362 81814 10080 20070 39509 49983 56035 60047 76166 887// 90300=
07434,1998-04-07 06:00:00,6,1001.6,2.9,93,5,500,18.52,,38.892,260,5.9,8.4,,,,,,,,21,wg-a,,,,AAXX 07064 07434 02400 72610 10060 20050 39538 40016 53029 61000 72162 878// 90600 333 10084 20059 6018 91021=
07434,1998-04-07 12:00:00,8,1005.8,1.2,87,6,15000,14.816,,46.3,270,,,,1,,,,,,25,wg-a,,,,AAXX 07124 07434 02465 72708 10080 20060 39581 40058 51012 60016 72586 879// 91200 333 60017 91025=
07434,1998-04-07 15:00:00,7,1007,1.1,93,6,11000,14.816,,,270,,,,,,,,,,,wg-a,,,,AAXX 07154 07434 32/61 /2708 10070 20060 39592 40070 51011 91500=
07434,1998-04-07 18:00:00,8,1007.6,0.6,87,6,12000,11.112,,,270,5.7,9.7,,,,,,,,25,wg-a,,,,AAXX 07184 07434 02362 /2706 10080 20060 39598 40076 53006 61000 72586 86900 91800 333 10097 20057 6000=
07434,1998-04-07 21:00:00,6,1010.1,2.1,93,5,25000,11.112,,,250,,,,1,,,,,,21,wg-a,,,,AAXX 07214 07434 12475 /2506 10060 20050 39619 40101 51021 60017 72162 85200 92100=
07434,1998-04-08 00:00:00,6,1010.5,0.3,93,5,18000,14.816,,,230,,,,0,,,,,,1,wg-a,,,,AAXX 08004 07434 02368 72308 10060 20050 39622 40105 51003 60016 70186 878// 90000 333 60007=
07434,1998-04-08 03:00:00,6,1009.6,-0.9,93,5,12000,14.816,,,210,,,,0,,,,,,,wg-a,,,,AAXX 08034 07434 12162 82108 10060 20050 39613 40096 58009 60007 876// 90300=
07434,1998-04-08 06:00:00,5,1009.2,-0.5,93,4,13000,11.112,,,210,4.7,7.8,,,,,5,,,,wg-a,,,,AAXX 08064 07434 02263 /2106 10050 20040 39608 40092 55005 60006 83830 90600 333 10078 20047 60054=
07434,1998-04-08 09:00:00,8,1008.4,-0.2,87,6,18000,18.52,,,200,,,,,,,,,,,wg-a,,,,AAXX 08094 07434 12468 72010 10080 20060 39606 40084 58002 60006 879// 90900=
07434,1998-04-08 12:00:00,8,1006.8,-1.4,93,7,8000,22.224,,,210,,,,1,,,,,,25,wg-a,,,,AAXX 08124 07434 02458 72112 10080 20070 39592 40068 56014 60016 72586 879// 91200 333 60017=
07434,1998-04-08 15:00:00,8,1005.2,-1.6,87,6,10000,11.112,,,270,,,,1,,,,,,80,wg-a,,,,AAXX 08154 07434 12260 72706 10080 20060 39576 40052 58016 60017 78086 879// 91500=
07434,1998-04-08 18:00:00,7,1004.6,-0.8,87,5,25000,14.816,,,230,4.8,10.6,,2,,,,,,3,wg-a,,,,AAXX 08184 07434 02475 62308 10070 20050 39568 40046 57008 60006 70386 86900 91800 333 10106 20048 60027=
07434,1998-04-08 21:00:00,6,1005,0.2,93,5,500,11.112,,,230,,,,1,,,,,,25,wg-a,,,,AAXX 08214 07434 12300 /2306 10060 20050 39570 40050 50002 60017 72586 85200 92100=
07434,1998-04-09 00:00:00,6,1002.9,-2,93,5,15000,18.52,,,210,,,,1,,,,,,80,wg-a,,,,AAXX 09004 07434 02265 72110 10060 20050 39550 40029 58020 60016 78086 877// 90000 333 60017=
07434,1998-04-09 03:00:00,5,1000.1,-2.8,100,5,15000,22.224,,,210,,,,2,,,,,,80,wg-a,,,,AAXX 09034 07434 12265 72112 10050 20050 39522 40001 56028 60027 78088 877// 90300=
07434,1998-04-09 06:00:00,5,998.3,-1.8,93,4,15000,25.928,,,200,4.5,7.1,,,,,,,,60,wg-a,,,,AAXX 09064 07434 02265 82014 10050 20040 39504 49983 56018 61000 76086 875// 90600 333 10071 20045 6007=
07434,1998-04-09 09:00:00,4,998.6,0.1,93,3,15000,18.52,,,200,,,,3,,,,,,23,wg-a,,,,AAXX 09094 07434 12365 72010 10040 20030 39505 49986 50001 60037 72376 878// 90900=
07434,1998-04-09 12:00:00,6,997.4,-0.6,87,4,8000,31.484,,,200,,,,0,,,,,,16,wg-a,,,,AAXX 09124 07434 02458 72017 10060 20040 39499 49974 58006 60036 71687 8693/ 91200 333 60007=
07434,1998-04-09 15:00:00,7,996.4,-0.9,81,4,20000,29.632,,,210,,,,3,,,,,,1,wg-a,,,,AAXX 09154 07434 12470 72116 10070 20040 39490 49964 58009 60037 70186 879// 91500=
07434,1998-04-09 18:00:00,5,996.1,-0.6,87,3,20000,22.224,,,180,2.1,7.7,,1,,,,,,1,wg-a,,,,AAXX 09184 07434 02470 71812 10050 20030 39484 49961 57006 60006 70186 878// 91800 333 10077 20021 60017=
07434,1998-04-09 21:00:00,3,996.9,0.5,93,2,15000,14.816,,,190,,,,1,,,,,,25,wg-a,,,,AAXX 09214 07434 12265 71908 10030 20020 39489 49969 50005 60017 72586 878// 92100=
07434,1998-04-10 00:00:00,3,996,-0.9,93,2,15000,18.52,,,200,,,,,,,,,,1,wg-a,,,,AAXX 10004 07434 12265 /2010 10030 20020 39480 49960 56009 60016 70186 85801 90000=
07434,1998-04-10 03:00:00,3,994.3,-1.6,100,3,15000,14.816,,,190,,,,,,,,,,,wg-a,,,,AAXX 10034 07434 12265 71908 10030 20030 39464 49943 57016 60006 878// 90300=
07434,1998-04-10 06:00:00,3,993.6,-0.7,93,2,15000,22.224,,,190,2.1,5.2,,,,,8,,,,wg-a,,,,AAXX 10064 07434 02365 71912 10030 20020 39457 49936 56007 60006 876// 90600 333 10052 20021 60084=
07434,1998-04-10 09:00:00,4,993,-0.4,93,3,12000,25.928,,,180,,,,0,,,,,,60,wg-a,,,,AAXX 10094 07434 12362 71814 10040 20030 39453 49930 56004 60007 76065 878// 90900=
07434,1998-04-10 12:00:00,5,993.1,0.3,87,3,20000,25.928,,,210,,,,1,,,,,,25,wg-a,,,,AAXX 10124 07434 02170 72114 10050 20030 39456 49931 50003 60016 72586 876// 91200 333 60017=
07434,1998-04-10 15:00:00,6,993.6,0.6,87,4,11000,18.52,,,240,,,,,,,,,,,wg-a,,,,AAXX 10154 07434 32/61 /2410 10060 20040 39462 49936 51006 91500=
07434,1998-04-10 18:00:00,5,995.7,1.8,93,4,12000,11.112,,,250,3.3,7.7,,,,,,,,27,wg-a,,,,AAXX 10184 07434 02562 72506 10050 20040 39480 49957 52018 61000 72787 879// 91800 333 10077 20033 6001=
07434,1998-04-11 00:00:00,3,1000,1.2,100,3,0,11.112,,,240,,,,,,,,,,,wg-a,,,,AAXX 11004 07434 12/// /2406 10030 20030 39518 40000 51012 60016 90000=
07434,1998-04-11 03:00:00,2,1000.2,-0,93,1,15000,22.224,,,220,,,,,,,,,,,wg-a,,,,AAXX 11034 07434 12365 72212 10020 20010 39518 40002 54000 60006 85802 90300=
07434,1998-04-11 06:00:00,1,1001.2,0.7,93,0,20000,18.52,,,200,1,5.3,,,,,4,,,,wg-a,,,,AAXX 11064 07434 02270 62010 10010 20000 39525 40012 53007 60006 85831 90600 333 10053 20010 60044=
07434,1998-04-11 09:00:00,4,1001.4,0.7,87,2,25000,25.928,,,220,,,,0,,,,,,1,wg-a,,,,AAXX 11094 07434 12475 72214 10040 20020 39532 40014 53007 60007 70187 878// 90900=
07434,1998-04-11 12:00:00,6,1000.6,-0.3,70,1,500,25.928,,44.448,250,,,,,,,,,,1,wg-a,,,,AAXX 11124 07434 02400 72514 10060 20010 39529 40006 58003 60006 70187 878// 91200 333 61000 91024=
07434,1998-04-11 18:00:00,3,1002.1,0.9,93,2,500,14.816,,,220,1,8.1,,0,,,,,,3,wg-a,,,,AAXX 11184 07434 02300 72208 10030 20020 39538 40021 52009 60006 70386 878// 91800 333 10081 20010 60007=
07434,1998-04-12 00:00:00,4,1004.5,0.6,93,3,10000,14.816,,,280,,,,2,,,,,,21,wg-a,,,,AAXX 12004 07434 02160 82808 10040 20030 39561 40045 51006 60036 72162 887// 90000 333 60027=
07434,1998-04-12 03:00:00,3,1005.1,0.5,100,3,10000,14.816,,,280,,,,0,,,,,,21,wg-a,,,,AAXX 12034 07434 12160 82808 10030 20030 39566 40051 53005 60007 72122 887// 90300=
07434,1998-04-12 06:00:00,3,1005.8,0.6,93,2,8000,14.816,,,270,2.6,3.7,,,,,,,,61,wg-a,,,,AAXX 12064 07434 02258 82708 10030 20020 39572 40058 53006 61000 76162 877// 90600 333 10037 20026 6004=
07434,1998-04-12 09:00:00,3,1007.3,1.6,100,3,8000,14.816,,,270,,,,,,,,,,21,wg-a,,,,AAXX 12094 07434 02258 82708 10030 20030 39588 40073 52016 61000 72162 877// 90900 333 ////=
07434,1998-04-12 12:00:00,3,1009.1,1.6,93,2,9000,14.816,,,320,,,,2,,,,,,21,wg-a,,,,AAXX 12124 07434 02359 83208 10030 20020 39604 40091 51016 60026 72162 877// 91200 333 60027=
07434,1998-04-12 15:00:00,2,1011.2,1.7,93,1,8000,7.408,,,320,,,,2,,,,,,22,wg-a,,,,AAXX 12154 07434 12358 83204 10020 20010 39621 40112 51017 60027 72276 877// 91500=
07434,1998-04-12 18:00:00,1,1011.6,0.2,93,0,4000,7.408,,,320,0.5,4.2,,,,,,,,80,wg-a,,,,AAXX 12184 07434 02340 73204 10010 20000 39623 40116 53002 61000 78087 879// 91800 333 10042 20005 6001=
07434,1998-04-12 21:00:00,0,1011.9,0.3,100,0,1100,3.704,,,250,,,,1,,,,,,85,wg-a,,,,AAXX 12214 07434 12111 82502 10000 20000 39626 40119 50003 60017 78587 887// 92100=
07434,1998-04-13 00:00:00,0,1011.7,-0.3,93,-1,1100,0,,,0,,,,1,,,,,,22,wg-a,,,,AAXX 13004 07434 02211 70000 10000 21010 39623 40117 56003 60026 72287 877// 90000 333 60017=
07434,1998-04-13 03:00:00,0,1010.8,-0.8,93,-1,7000,0,,,0,,,,,,,,,,,wg-a,,,,AAXX 13034 07434 12157 70000 10000 21010 39615 40108 56008 60006 877// 90300=
07434,1998-04-13 06:00:00,0,1010.8,-0,100,0,2500,0,,,0,-0.4,0.5,,,,,,,,10,wg-a,,2,,AAXX 13064 07434 02125 80000 10000 20000 39615 40108 55000 61000 71087 887// 90600 333 10005 21004 4/002 6006=
07434,1998-04-13 09:00:00,1,1012.3,1.5,93,0,3500,7.408,,,270,,,,1,,,,,,10,wg-a,,,,AAXX 13094 07434 12135 82704 10010 20000 39630 40123 53015 60017 71077 887// 90900=
07434,1998-04-13 12:00:00,4,1011.7,0.1,75,0,20000,14.816,,,320,,,,0,,,,,,27,wg-a,,,,AAXX 13124 07434 02470 /3208 10040 20000 39631 40117 50001 60016 72787 86900 91200 333 60007=
07434,1998-04-13 15:00:00,5,1011.3,-0.3,75,1,20000,14.816,,,340,,,,0,,,,,,26,wg-a,,,,AAXX 13154 07434 12470 /3408 10050 20010 39628 40113 58003 60007 72687 86900 91500=
07434,1998-04-13 18:00:00,3,1011.5,-0.1,75,-1,20000,11.112,,,40,-0.1,6.4,,,,,,,,3,wg-a,,,,AAXX 13184 07434 12170 /0406 10030 21010 39627 40115 55001 60006 70387 86900 91800 333 10064 21001=
07434,1998-04-13 21:00:00,0,1012.9,0.8,86,-2,20000,7.408,,,240,,,,,,,,,,,wg-a,,,,AAXX 13214 07434 12570 32404 10000 21020 39635 40129 51008 60006 83200 92100=
07434,1998-04-14 00:00:00,-1,1012.1,-0.9,93,-2,20000,3.704,,,180,,,,,,,,,,,wg-a,,,,AAXX 14004 07434 12570 31802 11010 21020 39626 40121 58009 60006 83500 90000=
07434,1998-04-14 03:00:00,-2,1010.7,-1.5,93,-3,20000,3.704,,,120,,,,,,,,,,,wg-a,,,,AAXX 14034 07434 12/70 01202 11020 21030 39611 40107 56015 60006 80000 90300=
07434,1998-04-14 06:00:00,-2,1009.9,-0.7,100,-2,15000,7.408,,,130,-1.9,3.3,,,,,2,,,,wg-a,,,,AAXX 14064 07434 02765 31304 11020 21020 39604 40099 56007 60006 815/1 90600 333 10033 21019 60024=
07434,1998-04-14 09:00:00,4,1008.1,-0.8,70,-1,20000,22.224,,,180,,,,,,,,,,,wg-a,,,,AAXX 14094 07434 12570 /1812 10040 21010 39596 40081 58008 60006 85802 90900=
07434,1998-04-14 12:00:00,7,1005.9,-1.6,57,-1,40000,25.928,,,180,,,,,,,,,,,wg-a,,,,AAXX 14124 07434 12582 51814 10070 21010 39580 40059 58016 60006 84202 91200=
07434,1998-04-14 15:00:00,9,1002.8,-2.5,53,0,50000,22.224,,,170,,,,,,,,,,,wg-a,,,,AAXX 14154 07434 12684 51712 10090 20000 39555 40028 56025 60006 85101 91500=
07434,1998-04-14 18:00:00,9,1000.8,-1.9,53,0,50000,14.816,,,180,-1.5,10.1,,,,,,,,,wg-a,,,,AAXX 14184 07434 12684 71808 10090 20000 39536 40008 56019 60006 83432 91800 333 10101 21015=
07434,1998-04-14 21:00:00,8,1000.6,-0.4,61,1,15000,22.224,,,190,,,,,,,,,,60,wg-a,,,,AAXX 14214 07434 02265 71912 10080 20010 39532 40006 57004 61000 76062 8557/ 92100 333 ////=
07434,1998-04-15 00:00:00,7,999.3,-1.4,66,1,15000,22.224,,,160,,,,,,,,,,1,wg-a,,,,AAXX 15004 07434 02665 71612 10070 20010 39518 49993 58014 61000 70162 875// 90000 333 6100=
07434,1998-04-15 03:00:00,6,998,-1.4,87,4,12000,22.224,,,200,,,,0,,,,,,61,wg-a,,,,AAXX 15034 07434 12562 72012 10060 20040 39504 49980 55014 60007 76162 875// 90300=
07434,1998-04-15 06:00:00,6,997.6,-0.4,93,5,9000,18.52,,,200,5.8,9.4,,,,,,,,61,wg-a,,,,AAXX 15064 07434 02459 82010 10060 20050 39500 49976 55004 61000 76162 888// 90600 333 10094 20058 6002=
07434,1998-04-15 09:00:00,7,997.4,-0.1,93,6,9000,22.224,,,210,,,,2,,,,,,61,wg-a,,,,AAXX 15094 07434 12259 82112 10070 20060 39499 49974 56001 60027 76166 887// 90900=
07434,1998-04-15 12:00:00,9,996.5,-0.5,81,6,500,22.224,,,240,,,,1,,,,,,21,wg-a,,,,AAXX 15124 07434 02400 72412 10090 20060 39494 49965 58005 60036 72162 878// 91200 333 60017=
07434,1998-04-15 15:00:00,4,999.4,1.9,93,3,15000,22.224,,,330,,,,2,,,,,,25,wg-a,,,,AAXX 15154 07434 12365 73312 10040 20030 39513 49994 53019 60027 72586 879// 91500=
07434,1998-04-15 18:00:00,5,1002,2.6,60,-2,40000,18.52,,,290,3.8,9.9,,,,,,,,1,wg-a,,,,AAXX 15184 07434 12582 62910 10050 21020 39539 40020 53026 60006 70186 86830 91800 333 10099 20038=
07434,1998-04-15 21:00:00,3,1005.7,3.2,81,0,40000,11.112,,,250,,,,,,,,,,,wg-a,,,,AAXX 15214 07434 12582 22506 10030 20000 39571 40057 52032 60006 82600 92100=
07434,1998-04-16 00:00:00,1,1006.8,0.8,86,-1,500,11.112,,,230,,,,,,,,,,,wg-a,,,,AAXX 16004 07434 12600 22306 10010 21010 39579 40068 51008 60006 82600 90000=
07434,1998-04-16 06:00:00,1,1003.6,-1.9,100,1,8000,11.112,,,150,0.4,4.9,,,,,5,,,,wg-a,,,,AAXX 16064 07434 02258 71506 10010 20010 39549 40036 58019 60006 86501 90600 333 10049 20004 60054=
07434,1998-04-16 12:00:00,7,995.9,-4.3,76,3,25000,29.632,,,180,,,,,,,,,,,wg-a,,,,AAXX 16124 07434 12475 71816 10070 20030 39485 49959 58043 60006 8657/ 91200=
07434,1998-04-16 15:00:00,6,992.9,-2.9,93,5,25000,31.484,,,180,,,,1,,,,,,21,wg-a,,,,AAXX 16154 07434 12475 71817 10060 20050 39456 49929 58029 60017 72162 8657/ 91500=
07434,1998-04-16 18:00:00,7,990.1,-2.6,93,6,15000,18.52,,,210,1.2,7.4,,,,,,,,80,wg-a,,,,AAXX 16184 07434 02465 72110 10070 20060 39430 49901 56026 61000 78098 8697/ 91800 333 10074 20012 6003=
07434,1998-04-16 21:00:00,6,985.8,-4.2,93,5,11000,31.484,,,170,,,,,,,,,,,wg-a,,,,AAXX 16214 07434 32/61 /1717 10060 20050 39388 49858 58042 92100=
07434,1998-04-17 00:00:00,7,985.9,0.2,93,6,12000,25.928,,57.412,260,,,,6,,,,,,63,wg-a,,,,AAXX 17004 07434 02262 82614 10070 20060 39390 49859 53002 60086 76386 888// 90000 333 60067 91031=
07434,1998-04-17 03:00:00,5,989.2,2.9,93,4,10000,35.188,,61.116,270,,,,2,,,,,,61,wg-a,,,,AAXX 17034 07434 12060 82719 10050 20040 39419 49892 53029 60027 76162 888// 90300 333 91033=
07434,1998-04-17 06:00:00,4,993.8,4.1,93,3,15000,25.928,,,280,4.1,7.6,,,,,,,,25,wg-a,,,,AAXX 17064 07434 02365 72814 10040 20030 39460 49938 51041 61000 72586 878// 90600 333 10076 20041 6014=
07434,1998-04-17 09:00:00,6,995.6,2.1,81,3,25000,29.632,,50.004,260,,,,,,,,,,1,wg-a,,,,AAXX 17094 07434 02475 /2616 10060 20030 39481 49956 51021 61000 70186 85200 90900 333 //// 91027=
07434,1998-04-17 12:00:00,8,996.1,0.7,57,0,40000,29.632,,,260,,,,,,,,,,3,wg-a,,,,AAXX 17124 07434 02682 /2616 10080 20000 39488 49961 51007 61000 70386 86800 91200 333 ////=
07434,1998-04-17 15:00:00,4,998.6,1.8,93,3,10000,22.224,,44.448,270,,,,1,,,,,,61,wg-a,,,,AAXX 17154 07434 12460 72712 10040 20030 39506 49986 52018 60017 76187 873// 91500 333 91024=
07434,1998-04-17 18:00:00,4,1000.6,1.9,93,3,500,18.52,,,300,3.2,8,,,,,,,,61,wg-a,,,,AAXX 17184 07434 02300 83010 10040 20030 39525 40006 53019 61000 76187 878// 91800 333 10080 20032 6002=
07434,1998-04-18 00:00:00,3,1006,2,100,3,9000,14.816,,,290,,,,0,,,,,,21,wg-a,,,,AAXX 18004 07434 02359 72908 10030 20030 39575 40060 51020 60036 72162 875// 90000 333 60007=
07434,1998-04-18 03:00:00,3,1007.4,1.2,93,2,12000,18.52,,,280,,,,0,,,,,,,wg-a,,,,AAXX 18034 07434 12362 72810 10030 20020 39587 40074 51012 60007 875// 90300=
07434,1998-04-18 09:00:00,5,1009.5,1.2,81,2,20000,22.224,,,270,,,,,,,,,,3,wg-a,,,,AAXX 18094 07434 02470 72712 10050 20020 39612 40095 52012 61000 70387 878// 90900 333 ////=
07434,1998-04-18 12:00:00,8,1009.3,0.2,71,3,20000,25.928,,,280,,,,0,,,,,,1,wg-a,,,,AAXX 18124 07434 02570 72814 10080 20030 39614 40093 50002 60006 70187 878// 91200 333 60007=
07434,1998-04-18 15:00:00,7,1009.5,0.2,81,4,25000,25.928,,,280,,,,1,,,,,,25,wg-a,,,,AAXX 18154 07434 12575 72814 10070 20040 39616 40095 50002 60017 72587 873// 91500=
07434,1998-04-18 18:00:00,6,1010.5,0.7,87,4,500,14.816,,,270,1.1,8.7,,1,,,,,,1,wg-a,,,,AAXX 18184 07434 02300 /2708 10060 20040 39623 40105 51007 60006 70187 81832 91800 333 10087 20011 60017=
07434,1998-04-18 21:00:00,5,1012.2,1.4,81,2,25000,14.816,,,270,,,,,,,,,,,wg-a,,,,AAXX 18214 07434 12675 52708 10050 20020 39637 40122 53014 60006 82501 92100=
07434,1998-04-19 00:00:00,4,1012.5,0.1,87,2,20000,7.408,,,250,,,,,,,,,,,wg-a,,,,AAXX 19004 07434 12470 42504 10040 20020 39638 40125 50001 60006 81501 90000=
07434,1998-04-19 03:00:00,3,1012.2,-0.5,93,2,18000,7.408,,,220,,,,,,,,,,,wg-a,,,,AAXX 19034 07434 12468 72204 10030 20020 39633 40122 58005 60006 8453/ 90300=
07434,1998-04-19 06:00:00,4,1012.6,0.6,93,3,10000,0,,,0,2.5,6.2,,,,,2,,,1,wg-a,,,,AAXX 19064 07434 02360 /0000 10040 20030 39639 40126 53006 60006 70186 86830 90600 333 10062 20025 60024=
07434,1998-04-19 09:00:00,8,1012.4,0.5,81,5,20000,11.112,,,200,,,,,,,,,,,wg-a,,,,AAXX 19094 07434 12370 72006 10080 20050 39644 40124 51005 60006 86802 90900=
07434,1998-04-19 12:00:00,10,1012,-0.1,71,5,50000,14.816,,,190,,,,,,,,,,3,wg-a,,,,AAXX 19124 07434 02584 71908 10100 20050 39643 40120 58001 61000 70386 878// 91200 333 6100=
07434,1998-04-19 15:00:00,11,1011.7,-0.1,71,6,50000,18.52,,,180,,,,,,,,,,,wg-a,,,,AAXX 19154 07434 12584 71810 10110 20060 39642 40117 58001 60006 878// 91500=
07434,1998-04-19 18:00:00,11,1011.7,-0,71,6,50000,14.816,,,200,3.5,11.5,,,,,,,,,wg-a,,,,AAXX 19184 07434 12584 72008 10110 20060 39642 40117 54000 60006 878// 91800 333 10115 20035=
07434,1998-04-19 21:00:00,10,1012.8,0.9,76,6,20000,7.408,,,170,,,,,,,,,,,wg-a,,,,AAXX 19214 07434 12670 71704 10100 20060 39651 40128 53009 60006 878// 92100=
07434,1998-04-20 00:00:00,9,1013.1,0.1,76,5,20000,7.408,,,160,,,,,,,,,,,wg-a,,,,AAXX 20004 07434 12770 51604 10090 20050 39652 40131 51001 60006 85500 90000=
07434,1998-04-20 06:00:00,8,1013.5,0.6,81,5,20000,7.408,,,160,7.8,11,,,,,,,,21,wg-a,,,,AAXX 20064 07434 02570 71604 10080 20050 39655 40135 53006 61000 72162 8657/ 90600 333 10110 20078 6000=
07434,1998-04-20 09:00:00,9,1015.1,1.6,87,7,8000,11.112,,,200,,,,0,,,,,,61,wg-a,,,,AAXX 20094 07434 12458 82006 10090 20070 39671 40151 51016 60007 76162 875// 90900=
07434,1998-04-20 12:00:00,10,1015.9,1.1,93,9,20000,14.816,,,220,,,,1,,,,,,21,wg-a,,,,AAXX 20124 07434 02270 82208 10100 20090 39682 40159 51011 60016 72162 875// 91200 333 60017=
07434,1998-04-20 15:00:00,11,1016,0.2,94,10,10000,11.112,,,200,,,,1,,,,,,80,wg-a,,,,AAXX 20154 07434 12260 72006 10110 20100 39684 40160 51002 60017 78086 878// 91500=
07434,1998-04-20 18:00:00,11,1016.6,0.5,94,10,500,0,,,0,7.9,11.6,,,,,,,,25,wg-a,,,,AAXX 20184 07434 02200 70000 10110 20100 39689 40166 50005 61000 72586 878// 91800 333 10116 20079 6006=
07434,1998-04-21 00:00:00,9,1018.8,0,93,8,6000,3.704,,,170,,,,,,,,,,3,wg-a,,,,AAXX 21004 07434 12156 71702 10090 20080 39707 40188 50000 60026 70386 876// 90000=
07434,1998-04-21 03:00:00,9,1018.1,-0.7,93,8,300,7.408,,,150,,,,,,,,,,45,wg-a,,,,AAXX 21034 07434 12/03 91504 10090 20080 39700 40181 56007 60006 74542 89/// 90300=
07434,1998-04-21 06:00:00,8,1018.2,-0,100,8,300,7.408,,,110,7.9,10.5,,,,,11,,,45,wg-a,,,,AAXX 21064 07434 02/03 91104 10080 20080 39700 40182 55000 60006 74542 89/// 90600 333 10105 20079 60114=
07434,1998-04-21 09:00:00,12,1017.7,0.2,88,10,10000,11.112,,,140,,,,,,,,,,1,wg-a,,,,AAXX 21094 07434 12760 61406 10120 20100 39702 40177 51002 60006 70141 835/1 90900=
07434,1998-04-21 12:00:00,18,1015,-1.7,59,10,500,18.52,,,180,,,,,,,,,,1,wg-a,,,,AAXX 21124 07434 12500 /1810 10180 20100 39685 40150 58017 60006 70141 81101 91200=
07434,1998-04-21 15:00:00,20,1013.2,-1.4,53,10,500,18.52,,,200,,,,,,,,,,,wg-a,,,,AAXX 21154 07434 12600 42010 10200 20100 39671 40132 57014 60006 84101 91500=
07434,1998-04-21 18:00:00,18,1012.6,-0.8,52,8,500,7.408,,,170,8.1,20.1,,,,,,,,,wg-a,,,,AAXX 21184 07434 12/00 21704 10180 20080 39663 40126 58008 60006 80002 91800 333 10201 20081=
07434,1998-04-21 21:00:00,16,1013,0,51,6,500,7.408,,,100,,,,,,,,,,,wg-a,,,,AAXX 21214 07434 12/00 41004 10160 20060 39663 40130 50000 60006 82032 92100=
07434,1998-04-22 00:00:00,13,1013.2,-0.3,62,6,25000,11.112,,,120,,,,,,,,,,,wg-a,,,,AAXX 22004 07434 12/75 21206 10130 20060 39660 40132 57003 60006 81032 90000=
07434,1998-04-22 03:00:00,11,1011.9,-1.5,71,6,25000,11.112,,,110,,,,,,,,,,,wg-a,,,,AAXX 22034 07434 12/75 31106 10110 20060 39645 40119 57015 60006 81032 90300=
07434,1998-04-22 06:00:00,11,1012,0.1,66,5,40000,11.112,,,110,10,18,,,,,,,,,wg-a,,,,AAXX 22064 07434 02582 /1106 10110 20050 39646 40120 51001 60006 81182 90600 333 10180 20100 60004=
07434,1998-04-22 09:00:00,16,1010.1,-1,48,5,50000,18.52,,,150,,,,,,,,,,,wg-a,,,,AAXX 22094 07434 12/84 11510 10160 20050 39636 40101 56010 60006 80001 90900=
07434,1998-04-22 12:00:00,20,1008.7,-0.8,46,8,50000,18.52,,,210,,,,,,,,,,,wg-a,,,,AAXX 22124 07434 12/84 32110 10200 20080 39628 40087 58008 60006 82081 91200=
07434,1998-04-22 15:00:00,21,1008.7,0.1,40,7,50000,18.52,,,230,,,,,,,,,,,wg-a,,,,AAXX 22154 07434 12784 62310 10210 20070 39629 40087 53001 60006 81281 91500=
07434,1998-04-22 18:00:00,18,1010,0.8,45,6,50000,11.112,,,290,11.3,21,,,,,,,,,wg-a,,,,AAXX 22184 07434 12784 52906 10180 20060 39637 40100 53008 60006 81281 91800 333 10210 20113=
07434,1998-04-22 21:00:00,13,1012.7,1.9,77,9,50000,14.816,,,300,,,,,,,,,,,wg-a,,,,AAXX 22214 07434 12/84 53008 10130 20090 39656 40127 51019 60006 81081 92100=
07434,1998-04-23 00:00:00,11,1014.8,1.7,94,10,50000,7.408,,,280,,,,,,,,,,,wg-a,,,,AAXX 23004 07434 12784 72804 10110 20100 39673 40148 53017 60006 82531 90000=
07434,1998-04-23 03:00:00,10,1016.4,1.3,93,9,500,11.112,,,260,,,,,,,,,,,wg-a,,,,AAXX 23034 07434 12100 72606 10100 20090 39686 40164 52013 60006 876// 90300=
07434,1998-04-23 06:00:00,10,1017.7,1.2,93,9,4000,11.112,,,260,9.7,17.6,,,,,,,,10,wg-a,,,,AAXX 23064 07434 02240 72606 10100 20090 39698 40177 53012 60006 71022 877// 90600 333 10176 20097 60004=
07434,1998-04-23 09:00:00,11,1018.6,1.1,82,8,25000,11.112,,,270,,,,,,,,,,,wg-a,,,,AAXX 23094 07434 12575 72706 10110 20080 39709 40186 53011 60006 875// 90900=
07434,1998-04-23 12:00:00,16,1017.4,-0.5,59,8,25000,22.224,,,230,,,,,,,,,,,wg-a,,,,AAXX 23124 07434 12675 32312 10160 20080 39704 40174 58005 60006 83201 91200=
07434,1998-04-23 15:00:00,15,1017.3,-0.1,55,6,25000,22.224,,,240,,,,,,,,,,,wg-a,,,,AAXX 23154 07434 12875 62412 10150 20060 39703 40173 55001 60006 86031 91500=
07434,1998-04-23 18:00:00,11,1019.7,1.6,82,8,25000,11.112,,,260,9.8,16.3,,,,,,,,,wg-a,,,,AAXX 23184 07434 12575 72606 10110 20080 39719 40197 53016 60006 86531 91800 333 10163 20098=
07434,1998-04-23 21:00:00,10,1020.9,1,93,9,500,14.816,,,230,,,,0,,,,,,50,wg-a,,,,AAXX 23214 07434 12100 82308 10100 20090 39729 40209 51010 60007 75052 877// 92100=
07434,1998-04-24 00:00:00,10,1021.8,0.8,93,9,10000,11.112,,,260,,,,0,,,,,,3,wg-a,,,,AAXX 24004 07434 02260 72606 10100 20090 39737 40218 53008 60016 70352 877// 90000 333 60007=
07434,1998-04-24 03:00:00,9,1022.3,0.4,93,8,8000,14.816,,,260,,,,,,,,,,50,wg-a,,,,AAXX 24034 07434 02258 82608 10090 20080 39741 40223 52004 61000 75052 877// 90300 333 ////=
07434,1998-04-24 06:00:00,9,1023.6,1.2,93,8,9000,7.408,,,240,8.8,11,,,,,,,,50,wg-a,,,,AAXX 24064 07434 02259 72404 10090 20080 39753 40236 53012 61000 75052 875// 90600 333 10110 20088 6000=
07434,1998-04-24 09:00:00,12,1024.3,1.1,76,8,20000,14.816,,,250,,,,,,,,,,1,wg-a,,,,AAXX 24094 07434 02470 72508 10120 20080 39764 40243 51011 61000 70152 878// 90900 333 ////=
07434,1998-04-24 12:00:00,14,1023.8,-0.1,72,9,20000,14.816,,,260,,,,,,,,,,3,wg-a,,,,AAXX 24124 07434 02470 72608 10140 20090 39763 40238 58001 61000 70352 878// 91200 333 ////=
07434,1998-04-24 18:00:00,13,1023.4,-0.6,88,11,25000,11.112,,,230,9.1,13.8,,0,,,,,,3,wg-a,,,,AAXX 24184 07434 02375 72306 10130 20110 39758 40234 56006 60006 70352 878// 91800 333 10138 20091 60007=
07434,1998-04-25 00:00:00,10,1023.3,-1.2,93,9,15000,7.408,,,240,,,,,,,,,,1,wg-a,,,,AAXX 25004 07434 02365 /2404 10100 20090 39752 40233 58012 61000 70161 81600 90000 333 ////=
07434,1998-04-25 06:00:00,10,1021.2,-0.3,100,10,12000,11.112,,,180,9,12.9,,,,,,,,,wg-a,,,,AAXX 25064 07434 02162 71806 10100 20100 39733 40212 56003 60006 876// 90600 333 10129 20090 60004=
07434,1998-04-25 12:00:00,15,1017.6,-1.9,77,11,12000,14.816,,,120,,,,,,,,,,,wg-a,,,,AAXX 25124 07434 12462 71208 10150 20110 39705 40176 58019 60006 8783/ 91200=
07434,1998-04-25 18:00:00,17,1013.1,-2.3,72,12,15000,11.112,,,90,10.2,17.7,,,,,,,,,wg-a,,,,AAXX 25184 07434 12765 60906 10170 20120 39666 40131 56023 60006 86532 91800 333 10177 20102=
07434,1998-04-26 00:00:00,13,1012.6,1.5,100,13,4000,3.704,,,340,,,,13,,,,,,10,wg-a,,,,AAXX 26004 07434 02240 83402 10130 20130 39655 40126 50015 60136 71098 879// 90000 333 60137=
07434,1998-04-26 06:00:00,11,1009,-0.9,100,11,6000,7.408,,,340,10.9,17,,,,,,,,21,wg-a,,,,AAXX 26064 07434 02156 73404 10110 20110 39617 40090 55009 61000 72162 877// 90600 333 10170 20109 6032=
07434,1998-04-26 12:00:00,9,1009.1,-0.9,93,8,20000,14.816,,,330,,,,,,,,,,1,wg-a,,,,AAXX 26124 07434 02270 73308 10090 20080 39615 40091 58009 60016 70162 856// 91200 333 61000=
07434,1998-04-26 18:00:00,8,1007.7,-0.6,100,8,8000,3.704,,,260,7.8,11,,,,,,,,21,wg-a,,,,AAXX 26184 07434 02258 72602 10080 20080 39600 40077 58006 61000 72162 857// 91800 333 10110 20078 6002=
07434,1998-04-27 00:00:00,7,1006.7,-1.2,100,7,10000,14.816,,,280,,,,,,,,,,,wg-a,,,,AAXX 27004 07434 12360 72808 10070 20070 39589 40067 56012 60006 877// 90000=
07434,1998-04-27 06:00:00,7,1005.6,-0.5,93,6,500,7.408,,,290,6.5,8.2,,,,,6,,,,wg-a,,,,AAXX 27064 07434 02200 72904 10070 20060 39577 40056 56005 60006 877// 90600 333 10082 20065 60064=
07434,1998-04-27 09:00:00,9,1006.3,1,81,6,500,14.816,,,260,,,,0,,,,,,,wg-a,,,,AAXX 27094 07434 12300 /2608 10090 20060 39587 40063 53010 60007 86801 90900=
07434,1998-04-27 12:00:00,11,1006.1,0.2,66,5,15000,18.52,,,260,,,,,,,,,,25,wg-a,,,,AAXX 27124 07434 02365 52610 10110 20050 39589 40061 50002 60006 72586 83903 91200 333 61000=
07434,1998-04-27 15:00:00,9,1007.1,0.7,76,5,20000,18.52,,,300,,,,0,,,,,,25,wg-a,,,,AAXX 27154 07434 12470 73010 10090 20050 39596 40071 51007 60007 72587 86903 91500=
07434,1998-04-27 18:00:00,9,1008.2,0.9,76,5,40000,14.816,,,270,6.5,12.1,,,,,,,,1,wg-a,,,,AAXX 27184 07434 02482 52708 10090 20050 39605 40082 53009 60006 70187 84801 91800 333 10121 20065 61000=
07434,1998-04-27 21:00:00,7,1010.1,1.6,87,5,500,7.408,,,260,,,,,,,,,,,wg-a,,,,AAXX 27214 07434 12200 62604 10070 20050 39621 40101 51016 60006 86802 92100=
07434,1998-04-28 00:00:00,6,1010.3,-0.1,93,5,11000,7.408,,,240,,,,,,,,,,,wg-a,,,,AAXX 28004 07434 12/61 /2404 10060 20050 39620 40103 58001 60006 90000=
07434,1998-04-28 03:00:00,5,1010,-0.3,100,5,15000,7.408,,,240,,,,1,,,,,,,wg-a,,,,AAXX 28034 07434 12265 72404 10050 20050 39617 40100 55003 60017 878// 90300=
07434,1998-04-28 06:00:00,5,1010.5,0.4,93,4,8000,11.112,,,220,4.4,8.6,,,,,,,,21,wg-a,,,,AAXX 28064 07434 02258 72206 10050 20040 39621 40105 53004 61000 72186 879// 90600 333 10086 20044 6002=
07434,1998-04-28 09:00:00,8,1010.1,0.1,87,6,500,11.112,,,230,,,,0,,,,,,1,wg-a,,,,AAXX 28094 07434 12400 72306 10080 20060 39622 40101 51001 60007 70186 878// 90900=
07434,1998-04-28 12:00:00,11,1008.6,-0.9,66,5,40000,22.224,,,210,,,,,,,,,,1,wg-a,,,,AAXX 28124 07434 12582 62112 10110 20050 39613 40086 58009 60006 70186 86800 91200=
07434,1998-04-28 15:00:00,12,1007.2,-1.2,58,4,15000,11.112,,,190,,,,1,,,,,,15,wg-a,,,,AAXX 28154 07434 12565 41906 10120 20040 39601 40072 58012 60017 71586 84900 91500=
07434,1998-04-28 18:00:00,11,1006.3,-1,66,5,50000,3.704,,,130,4.7,12.9,,1,,,,,,1,wg-a,,,,AAXX 28184 07434 02584 31302 10110 20050 39591 40063 58010 60006 70186 83401 91800 333 10129 20047 60017=
07434,1998-04-28 21:00:00,9,1006.1,-0.5,81,6,500,7.408,,,150,,,,,,,,,,,wg-a,,,,AAXX 28214 07434 12/00 41504 10090 20060 39586 40061 58005 60006 83031 92100=
07434,1998-04-29 00:00:00,8,1004,-2.1,87,6,15000,11.112,,,140,,,,0,,,,,,61,wg-a,,,,AAXX 29004 07434 02465 81406 10080 20060 39565 40040 56021 60006 76161 8587/ 90000 333 60007=
07434,1998-04-29 03:00:00,9,1001.5,-2.3,76,5,20000,14.816,,,140,,,,,,,,,,1,wg-a,,,,AAXX 29034 07434 02670 81408 10090 20050 39542 40015 56023 61000 70162 8357/ 90300 333 ////=
07434,1998-04-29 06:00:00,8,1000.9,-0.8,87,6,8000,11.112,,,190,7.5,10.8,,,,,,,,63,wg-a,,,,AAXX 29064 07434 02558 81906 10080 20060 39534 40009 55008 61000 76362 885// 90600 333 10108 20075 6005=
07434,1998-04-29 09:00:00,10,999.9,-0.6,87,8,15000,14.816,,,200,,,,2,,,,,,1,wg-a,,,,AAXX 29094 07434 12265 /2008 10100 20080 39528 49999 55006 60027 70162 86830 90900=
07434,1998-04-29 12:00:00,12,999.6,0.1,76,8,25000,18.52,,,220,,,,,,,,,,3,wg-a,,,,AAXX 29124 07434 12575 72210 10120 20080 39529 49996 50001 60026 70362 878// 91200=
07434,1998-04-29 18:00:00,10,1000.9,0.3,87,8,8000,3.704,,,170,7.2,12.5,,,,,,,,61,wg-a,,,,AAXX 29184 07434 02558 81702 10100 20080 39539 40009 53003 61000 76186 8582/ 91800 333 10125 20072 6000=
07434,1998-04-29 21:00:00,9,1001.8,0.7,93,8,10000,3.704,,,110,,,,1,,,,,,60,wg-a,,,,AAXX 29214 07434 12560 81102 10090 20080 39546 40018 53007 60017 76062 8482/ 92100=
07434,1998-04-30 00:00:00,9,1002.4,0.4,93,8,8000,3.704,,,160,,,,3,,,,,,61,wg-a,,,,AAXX 30004 07434 02258 81602 10090 20080 39550 40024 51004 60056 76162 888// 90000 333 60037=
07434,1998-04-30 03:00:00,8,1002.2,-0.3,93,7,7000,3.704,,,240,,,,1,,,,,,61,wg-a,,,,AAXX 30034 07434 12357 82402 10080 20070 39547 40022 56003 60017 76162 888// 90300=
07434,1998-04-30 06:00:00,8,1002.8,0.6,93,7,2000,7.408,,,170,7.3,10.2,,,,,,,,61,wg-a,,,,AAXX 30064 07434 02120 81704 10080 20070 39553 40028 53006 61000 76162 888// 90600 333 10102 20073 6010=
07434,1998-04-30 09:00:00,10,1003.6,1.1,93,9,7000,7.408,,,150,,,,1,,,,,,21,wg-a,,,,AAXX 30094 07434 12257 81504 10100 20090 39564 40036 51011 60017 72162 878// 90900=
07434,1998-04-30 12:00:00,12,1003.9,0.7,82,9,20000,7.408,,,130,,,,0,,,,,,21,wg-a,,,,AAXX 30124 07434 02470 71304 10120 20090 39571 40039 51007 60016 72186 878// 91200 333 60007=
07434,1998-04-30 15:00:00,10,1005.5,1.1,82,7,7000,3.704,,,110,,,,1,,,,,,80,wg-a,,,,AAXX 30154 07434 12357 71102 10100 20070 39582 40055 53011 60017 78086 8687/ 91500=
07434,1998-04-30 18:00:00,11,1006.5,1.1,87,9,15000,3.704,,,360,7.7,12.8,,,,,,,,21,wg-a,,,,AAXX 30184 07434 02265 83602 10110 20090 39593 40065 51011 61000 72186 8587/ 91800 333 10128 20077 6002=
07434,1998-04-30 21:00:00,10,1008.4,1.6,87,8,15000,11.112,,,20,,,,,,,,,,,wg-a,,,,AAXX 30214 07434 12665 70206 10100 20080 39609 40084 53016 60006 8557/ 92100=
07434,1998-05-01 00:00:00,10,1009.3,0.9,87,8,0,3.704,,,40,,,,,,,,,,,wg-a,,,,AAXX 01004 07434 12/// /0402 10100 20080 39618 40093 51009 60006 90000=
07434,1998-05-01 03:00:00,9,1009.7,0.3,93,8,15000,14.816,,,30,,,,,,,,,,,wg-a,,,,AAXX 01034 07434 12365 70308 10090 20080 39621 40097 53003 60006 8467/ 90300=
07434,1998-05-01 06:00:00,9,1010.7,1,93,8,15000,11.112,,,30,9.2,10.5,,,,,4,,,,wg-a,,,,AAXX 01064 07434 02465 70306 10090 20080 39631 40107 53010 60006 8557/ 90600 333 10105 20092 60044=
07434,1998-05-01 09:00:00,11,1011.6,1,87,9,20000,7.408,,,10,,,,,,,,,,,wg-a,,,,AAXX 01094 07434 12370 70104 10110 20090 39641 40116 51010 60006 878// 90900=
07434,1998-05-01 12:00:00,10,1011.9,0.3,93,9,4000,11.112,,,20,,,,0,,,,,,10,wg-a,,,,AAXX 01124 07434 02240 70206 10100 20090 39644 40119 51003 60006 71065 878// 91200 333 60007=
07434,1998-05-01 15:00:00,11,1011.1,-0.6,87,9,8000,14.816,,,10,,,,,,,,,,1,wg-a,,,,AAXX 01154 07434 02358 70108 10110 20090 39638 40111 58006 61000 70162 878// 91500 333 ////=
07434,1998-05-01 18:00:00,9,1011.6,0.1,93,8,4000,11.112,,,30,9.3,11.9,,,,,,,,10,wg-a,,,,AAXX 01184 07434 02340 80306 10090 20080 39639 40116 53001 61000 71062 877// 91800 333 10119 20093 6100=
07434,1998-05-01 21:00:00,9,1012.5,0.8,93,8,8000,7.408,,,50,,,,,,,,,,1,wg-a,,,,AAXX 01214 07434 02458 70504 10090 20080 39647 40125 52008 61000 70162 875// 92100 333 ////=
07434,1998-05-02 00:00:00,9,1012.2,-0.3,93,8,7000,11.112,,,350,,,,,,,,,,1,wg-a,,,,AAXX 02004 07434 02557 83506 10090 20080 39644 40122 57003 61000 70162 875// 90000 333 ////=
07434,1998-05-02 03:00:00,9,1011.7,-0.5,93,8,3000,11.112,,,10,,,,,,,,,,10,wg-a,,,,AAXX 02034 07434 12130 80106 10090 20080 39639 40117 56005 60006 71022 886// 90300=
07434,1998-05-02 06:00:00,9,1012.5,0.8,93,8,3000,11.112,,,10,8.7,9.4,,,,,,,,10,wg-a,,,,AAXX 02064 07434 02230 70106 10090 20080 39647 40125 53008 60006 71022 875// 90600 333 10094 20087 60004=
07434,1998-05-02 09:00:00,10,1013.5,1.1,87,8,7000,14.816,,,20,,,,,,,,,,,wg-a,,,,AAXX 02094 07434 12257 70208 10100 20080 39658 40135 51011 60006 875// 90900=
07434,1998-05-02 12:00:00,13,1013,0,77,9,9000,11.112,,,360,,,,,,,,,,,wg-a,,,,AAXX 02124 07434 12459 73606 10130 20090 39658 40130 50000 60006 878// 91200=
07434,1998-05-02 15:00:00,13,1012.2,-0.7,72,8,15000,14.816,,,30,,,,,,,,,,,wg-a,,,,AAXX 02154 07434 12465 70308 10130 20080 39651 40122 58007 60006 878// 91500=
07434,1998-05-02 18:00:00,12,1012.6,0.2,71,7,25000,14.816,,,350,8.9,13.5,,,,,,,,,wg-a,,,,AAXX 02184 07434 12575 43508 10120 20070 39653 40126 53002 60006 83831 91800 333 10135 20089=
07434,1998-05-02 21:00:00,9,1013.8,0.7,87,7,20000,11.112,,,20,,,,,,,,,,,wg-a,,,,AAXX 02214 07434 12770 50206 10090 20070 39660 40138 52007 60006 85500 92100=
07434,1998-05-03 03:00:00,7,1012,-1.5,93,6,500,11.112,,,30,,,,,,,,,,44,wg-a,,,,AAXX 03034 07434 12105 80306 10070 20060 39639 40120 58015 60006 74441 886// 90300=
07434,1998-05-03 06:00:00,7,1011.3,-0.6,100,7,4000,0,,,0,6.8,11.8,,,,,,,,10,wg-a,,,,AAXX 03064 07434 02340 70000 10070 20070 39633 40113 55006 60006 71041 878// 90600 333 10118 20068 60004=
07434,1998-05-03 09:00:00,9,1011,0,93,8,10000,7.408,,,340,,,,,,,,,,,wg-a,,,,AAXX 03094 07434 12360 73404 10090 20080 39633 40110 50000 60006 878// 90900=
07434,1998-05-03 12:00:00,9,1010.8,-0.2,93,8,15000,14.816,,,10,,,,0,,,,,,1,wg-a,,,,AAXX 03124 07434 02265 70108 10090 20080 39631 40108 57002 60016 70152 878// 91200 333 60007=
07434,1998-05-03 15:00:00,8,1010.9,-0.1,87,6,10000,25.928,,,30,,,,,,,,,,,wg-a,,,,AAXX 03154 07434 12260 80314 10080 20060 39630 40109 58001 60006 888// 91500=
07434,1998-05-03 18:00:00,7,1011.3,0.2,93,6,4000,18.52,,,30,6.9,9.4,,,,,,,,,wg-a,,,,AAXX 03184 07434 12/40 /0310 10070 20060 39632 40113 51002 60006 91800 333 10094 20069=
07434,1998-05-03 21:00:00,8,1012.5,1.3,93,7,4000,22.224,,,30,,,,,,,,,,10,wg-a,,,,AAXX 03214 07434 12240 80312 10080 20070 39645 40125 53013 60006 71022 886// 92100=
07434,1998-05-04 00:00:00,8,1012.5,0,87,6,7000,18.52,,,30,,,,,,,,,,,wg-a,,,,AAXX 04004 07434 12357 70310 10080 20060 39645 40125 50000 60006 876// 90000=
07434,1998-05-04 03:00:00,7,1011.9,-0.7,93,6,6000,18.52,,,20,,,,,,,,,,,wg-a,,,,AAXX 04034 07434 12356 70210 10070 20060 39638 40119 57007 60006 876// 90300=
07434,1998-05-04 06:00:00,6,1013,0.9,93,5,7000,18.52,,,20,6.2,8,,,,,,,,50,wg-a,,,,AAXX 04064 07434 02357 80210 10060 20050 39647 40130 53009 61000 75052 877// 90600 333 10080 20062 6000=
07434,1998-05-04 09:00:00,6,1013.9,0.9,93,5,500,14.816,,,20,,,,,,,,,,1,wg-a,,,,AAXX 04094 07434 02200 80208 10060 20050 39656 40139 52009 61000 70152 887// 90900 333 ////=
07434,1998-05-04 12:00:00,8,1013.9,0.2,87,6,7000,22.224,,,360,,,,,,,,,,3,wg-a,,,,AAXX 04124 07434 02357 73612 10080 20060 39658 40139 50002 61000 70352 876// 91200 333 ////=
07434,1998-05-04 15:00:00,7,1014.6,0.6,87,5,15000,18.52,,,10,,,,,,,,,,,wg-a,,,,AAXX 04154 07434 12465 70110 10070 20050 39664 40146 51006 60006 875// 91500=
07434,1998-05-04 18:00:00,10,1014.6,0.4,71,5,25000,11.112,,,350,6.1,10.3,,,,,,,,,wg-a,,,,AAXX 04184 07434 12575 23506 10100 20050 39668 40146 51004 60006 82500 91800 333 10103 20061=
07434,1998-05-04 21:00:00,7,1016.2,1.1,81,4,20000,11.112,,,350,,,,,,,,,,,wg-a,,,,AAXX 04214 07434 12/70 03506 10070 20040 39679 40162 53011 60006 80000 92100=
07434,1998-05-05 00:00:00,6,1016.5,0.1,87,4,0,11.112,,,350,,,,,,,,,,,wg-a,,,,AAXX 05004 07434 12/// /3506 10060 20040 39680 40165 50001 60006 90000=
07434,1998-05-05 03:00:00,4,1016.3,-0.5,93,3,15000,11.112,,,350,,,,,,,,,,,wg-a,,,,AAXX 05034 07434 12/65 03506 10040 20030 39675 40163 58005 60006 80000 90300=
07434,1998-05-05 06:00:00,6,1016.5,0.5,87,4,4500,11.112,,,20,3.6,10,,,,,,,,10,wg-a,,,,AAXX 05064 07434 02/45 30206 10060 20040 39680 40165 53005 60006 71011 80001 90600 333 10100 20036 61000=
07434,1998-05-05 09:00:00,10,1016.6,0.7,71,5,500,11.112,,,330,,,,,,,,,,,wg-a,,,,AAXX 05094 07434 12400 23306 10100 20050 39687 40166 51007 60006 82101 90900=
07434,1998-05-05 12:00:00,13,1015.9,-0.1,62,6,15000,7.408,,,50,,,,,,,,,,,wg-a,,,,AAXX 05124 07434 12565 40504 10130 20060 39686 40159 58001 60006 84201 91200=
07434,1998-05-05 15:00:00,13,1015.6,-0.3,62,6,15000,14.816,,,330,,,,,,,,,,,wg-a,,,,AAXX 05154 07434 12665 73308 10130 20060 39683 40156 58003 60006 878// 91500=
07434,1998-05-05 18:00:00,12,1015.8,0.1,67,6,15000,7.408,,,320,5.9,13.7,,,,,,,,,wg-a,,,,AAXX 05184 07434 12665 73204 10120 20060 39684 40158 53001 60006 878// 91800 333 10137 20059=
07434,1998-05-05 21:00:00,9,1017.1,0.7,81,6,12000,11.112,,,280,,,,,,,,,,,wg-a,,,,AAXX 05214 07434 12662 52806 10090 20060 39691 40171 53007 60006 85500 92100=
07434,1998-05-06 00:00:00,7,1017.6,0.2,100,7,7000,14.816,,,280,,,,,,,,,,,wg-a,,,,AAXX 06004 07434 12257 72808 10070 20070 39693 40176 50002 60006 876// 90000=
07434,1998-05-06 03:00:00,7,1017,-0.6,93,6,8000,7.408,,,260,,,,,,,,,,,wg-a,,,,AAXX 06034 07434 12358 82604 10070 20060 39687 40170 58006 60006 876// 90300=
07434,1998-05-06 06:00:00,8,1018,1,93,7,10000,11.112,,,250,7.2,12.2,,,,,,,,,wg-a,,,,AAXX 06064 07434 02260 82506 10080 20070 39697 40180 53010 60006 876// 90600 333 10122 20072 60004=
07434,1998-05-06 09:00:00,10,1018,0.3,76,6,20000,14.816,,,240,,,,,,,,,,,wg-a,,,,AAXX 06094 07434 12470 72408 10100 20060 39700 40180 51003 60006 878// 90900=
07434,1998-05-06 12:00:00,10,1018.3,0.5,82,7,25000,14.816,,,260,,,,,,,,,,,wg-a,,,,AAXX 06124 07434 12475 72608 10100 20070 39705 40183 51005 60006 878// 91200=
07434,1998-05-06 15:00:00,11,1018.1,-0.1,76,7,25000,14.816,,,260,,,,,,,,,,3,wg-a,,,,AAXX 06154 07434 02575 72608 10110 20070 39704 40181 58001 61000 70352 878// 91500 333 ////=
07434,1998-05-06 18:00:00,12,1018,-0,71,7,25000,11.112,,,250,7.6,12.1,,,,,,,,1,wg-a,,,,AAXX 06184 07434 12575 72506 10120 20070 39704 40180 55000 60006 70152 87800 91800 333 10121 20076=
07434,1998-05-06 21:00:00,9,1019.6,1.1,87,7,15000,11.112,,,240,,,,,,,,,,,wg-a,,,,AAXX 06214 07434 12665 32406 10090 20070 39715 40196 52011 60006 83500 92100=
07434,1998-05-07 00:00:00,7,1019.9,-0.1,93,6,15000,3.704,,,180,,,,,,,,,,,wg-a,,,,AAXX 07004 07434 12/65 01802 10070 20060 39714 40199 55001 60006 80000 90000=
07434,1998-05-07 03:00:00,6,1019.3,-0.7,100,6,6000,3.704,,,50,,,,,,,,,,,wg-a,,,,AAXX 07034 07434 12/56 00502 10060 20060 39707 40193 56007 60006 80000 90300=
07434,1998-05-07 06:00:00,6,1020,0.6,100,6,900,7.408,,,80,5.2,11.8,,,,,,,,41,wg-a,,,,AAXX 07064 07434 02/09 /0804 10060 20060 39713 40200 53006 60006 74140 80001 90600 333 10118 20052 61000=
07434,1998-05-07 09:00:00,13,1019.8,1,72,8,9000,11.112,,,170,,,,,,,,,,1,wg-a,,,,AAXX 07094 07434 12459 /1706 10130 20080 39723 40198 51010 60006 70140 81100 90900=
07434,1998-05-07 12:00:00,18,1018.6,-0.3,52,8,25000,14.816,,,160,,,,,,,,,,1,wg-a,,,,AAXX 07124 07434 12675 /1608 10180 20080 39720 40186 57003 60006 70140 81100 91200=
07434,1998-05-07 15:00:00,21,1017.2,-0.9,38,6,40000,11.112,,,190,,,,,,,,,,,wg-a,,,,AAXX 07154 07434 12782 11906 10210 20060 39711 40172 56009 60006 81100 91500=
07434,1998-05-07 18:00:00,20,1017.2,-0.2,37,5,40000,7.408,,,180,6.1,20.8,,,,,,,,,wg-a,,,,AAXX 07184 07434 12/82 01804 10200 20050 39709 40172 55002 60006 80000 91800 333 10208 20061=
07434,1998-05-07 21:00:00,17,1018.7,0.9,42,4,25000,7.408,,,80,,,,,,,,,,,wg-a,,,,AAXX 07214 07434 12/75 00804 10170 20040 39718 40187 53009 60006 80000 92100=
07434,1998-05-08 00:00:00,14,1019.7,0.5,55,5,20000,14.816,,,140,,,,,,,,,,,wg-a,,,,AAXX 08004 07434 12/70 01408 10140 20050 39723 40197 52005 60006 80000 90000=
07434,1998-05-08 03:00:00,12,1019.7,-0.3,62,5,20000,11.112,,,120,,,,,,,,,,,wg-a,,,,AAXX 08034 07434 12/70 31206 10120 20050 39720 40197 56003 60006 80001 90300=
07434,1998-05-08 06:00:00,13,1020,0.5,54,4,500,18.52,,,120,11.7,19.7,,,,,,,,,wg-a,,,,AAXX 08064 07434 02/00 61210 10130 20040 39725 40200 53005 60006 82031 90600 333 10197 20117 60004=
07434,1998-05-08 09:00:00,18,1019.6,0.5,49,7,40000,22.224,,,160,,,,,,,,,,,wg-a,,,,AAXX 08094 07434 12/82 11612 10180 20070 39730 40196 51005 60006 80001 90900=
07434,1998-05-08 12:00:00,21,1018.7,-0.4,43,8,500,22.224,,,180,,,,,,,,,,,wg-a,,,,AAXX 08124 07434 12/00 41812 10210 20080 39726 40187 58004 60006 80001 91200=
07434,1998-05-08 15:00:00,21,1018.5,-0.2,46,9,500,29.632,,,180,,,,,,,,,,,wg-a,,,,AAXX 08154 07434 12/00 71816 10210 20090 39724 40185 56002 60006 82032 91500=
07434,1998-05-08 18:00:00,20,1019.2,0.4,49,9,500,22.224,,,170,12.9,22.2,,,,,,,,,wg-a,,,,AAXX 08184 07434 12/00 51712 10200 20090 39728 40192 52004 60006 80001 91800 333 10222 20129=
07434,1998-05-08 21:00:00,16,1021.3,1.4,48,5,500,18.52,,,160,,,,,,,,,,,wg-a,,,,AAXX 08214 07434 12/00 51610 10160 20050 39742 40213 51014 60006 81031 92100=
07434,1998-05-09 00:00:00,14,1021.2,-0.4,51,4,20000,14.816,,,130,,,,,,,,,,,wg-a,,,,AAXX 09004 07434 12/70 71308 10140 20040 39738 40212 57004 60006 84032 90000=
07434,1998-05-09 03:00:00,14,1021.7,0.4,55,5,25000,14.816,,,200,,,,,,,,,,,wg-a,,,,AAXX 09034 07434 12/75 62008 10140 20050 39742 40217 53004 60006 82032 90300=
07434,1998-05-09 06:00:00,13,1022.3,0.5,62,6,500,11.112,,,120,12.4,19.8,,,,,,,,,wg-a,,,,AAXX 09064 07434 02/00 51206 10130 20060 39747 40223 53005 60006 82082 90600 333 10198 20124 60004=
07434,1998-05-09 09:00:00,19,1021.8,0.5,46,7,500,14.816,,,150,,,,,,,,,,,wg-a,,,,AAXX 09094 07434 12/00 21508 10190 20070 39752 40218 51005 60006 82082 90900=
07434,1998-05-09 12:00:00,23,1020.1,-1,36,7,40000,11.112,,,170,,,,,,,,,,,wg-a,,,,AAXX 09124 07434 12/82 11706 10230 20070 39742 40201 58010 60006 81080 91200=
07434,1998-05-09 15:00:00,25,1018.5,-1.3,36,9,40000,14.816,,,180,,,,,,,,,,,wg-a,,,,AAXX 09154 07434 12682 31808 10250 20090 39729 40185 58013 60006 81101 91500=
07434,1998-05-09 18:00:00,23,1017.8,-0.9,41,9,40000,14.816,,,200,12.9,24.7,,,,,,,,,wg-a,,,,AAXX 09184 07434 12/82 42008 10230 20090 39720 40178 56009 60006 80001 91800 333 10247 20129=
07434,1998-05-10 00:00:00,16,1018.7,-0.8,55,7,12000,11.112,,,130,,,,,,,,,,,wg-a,,,,AAXX 10004 07434 12/62 01306 10160 20070 39718 40187 58008 60006 80000 90000=
07434,1998-05-10 03:00:00,15,1017.8,-1.1,55,6,12000,11.112,,,100,,,,,,,,,,,wg-a,,,,AAXX 10034 07434 12/62 11006 10150 20060 39707 40178 58011 60006 80001 90300=
07434,1998-05-10 06:00:00,15,1017.5,-0.3,51,5,50000,11.112,,,110,13,23,,,,,,,,,wg-a,,,,AAXX 10064 07434 02/84 31106 10150 20050 39704 40175 56003 60006 80002 90600 333 10230 20130 60004=
07434,1998-05-10 09:00:00,21,1015.9,-0.6,40,7,50000,18.52,,,170,,,,,,,,,,,wg-a,,,,AAXX 10094 07434 12/84 31710 10210 20070 39698 40159 56006 60006 80001 90900=
07434,1998-05-10 12:00:00,25,1014.2,-1,36,9,50000,14.816,,,170,,,,,,,,,,,wg-a,,,,AAXX 10124 07434 12/84 41708 10250 20090 39688 40142 58010 60006 80001 91200=
07434,1998-05-10 15:00:00,27,1011.7,-2,32,9,50000,7.408,,,150,,,,,,,,,,,wg-a,,,,AAXX 10154 07434 12/84 41504 10270 20090 39668 40117 58020 60006 80001 91500=
07434,1998-05-10 18:00:00,24,1011.7,-0.4,47,12,50000,14.816,,,220,14.7,27.4,,,,,,,,,wg-a,,,,AAXX 10184 07434 12/84 52208 10240 20120 39664 40117 56004 60006 80001 91800 333 10274 20147=
07434,1998-05-10 21:00:00,21,1012.9,0.6,46,9,20000,11.112,,,160,,,,,,,,,,,wg-a,,,,AAXX 10214 07434 12/70 61606 10210 20090 39670 40129 53006 60006 80001 92100=
07434,1998-05-11 00:00:00,17,1012.8,-0.7,45,5,20000,14.816,,,140,,,,,,,,,,,wg-a,,,,AAXX 11004 07434 12/70 51408 10170 20050 39663 40128 58007 60006 80001 90000=
07434,1998-05-11 03:00:00,17,1012.5,-0.4,34,1,20000,18.52,,,140,,,,,,,,,,,wg-a,,,,AAXX 11034 07434 12/70 51410 10170 20010 39659 40125 55004 60006 80001 90300=
07434,1998-05-11 06:00:00,16,1013.2,0.6,42,3,20000,7.408,,,130,15.6,24.4,,,,,,,,,wg-a,,,,AAXX 11064 07434 02/70 71304 10160 20030 39665 40132 53006 60006 84082 90600 333 10244 20156 60004=
07434,1998-05-11 09:00:00,20,1013.3,0.8,43,7,40000,14.816,,,170,,,,,,,,,,,wg-a,,,,AAXX 11094 07434 12/82 71708 10200 20070 39673 40133 51008 60006 81082 90900=
07434,1998-05-11 12:00:00,25,1012.2,-0.4,32,7,40000,18.52,,,200,,,,,,,,,,,wg-a,,,,AAXX 11124 07434 12/82 62010 10250 20070 39669 40122 58004 60006 84082 91200=
07434,1998-05-11 15:00:00,25,1011.5,-0.6,36,9,40000,7.408,,,260,,,,,,,,,,,wg-a,,,,AAXX 11154 07434 12782 72604 10250 20090 39663 40115 58006 60006 81282 91500=
07434,1998-05-11 18:00:00,23,1011.8,0,47,11,40000,7.408,,,310,16.4,25.5,,,,,,,,,wg-a,,,,AAXX 11184 07434 12/82 63104 10230 20110 39663 40118 50000 60006 84082 91800 333 10255 20164=
07434,1998-05-11 21:00:00,17,1015,2,63,10,25000,18.52,,,300,,,,,,,,,,,wg-a,,,,AAXX 11214 07434 12/75 73010 10170 20100 39683 40150 53020 60006 85082 92100=
07434,1998-05-12 00:00:00,15,1015.7,0.4,63,8,20000,7.408,,,40,,,,,,,,,,,wg-a,,,,AAXX 12004 07434 12/70 60404 10150 20080 39687 40157 51004 60006 85082 90000=
07434,1998-05-12 03:00:00,15,1015.7,0,67,9,20000,7.408,,,70,,,,,,,,,,,wg-a,,,,AAXX 12034 07434 12/70 70704 10150 20090 39687 40157 50000 60006 85082 90300=
07434,1998-05-12 06:00:00,14,1016.4,0.6,63,7,25000,7.408,,,100,13.6,22.8,,,,,,,,,wg-a,,,,AAXX 12064 07434 02/75 61004 10140 20070 39693 40164 53006 60006 84082 90600 333 10228 20136 60004=
07434,1998-05-12 12:00:00,23,1015.5,0,41,9,500,11.112,,,160,,,,,,,,,,,wg-a,,,,AAXX 12124 07434 12/00 61606 10230 20090 39697 40155 50000 60006 80002 91200=
07434,1998-05-12 15:00:00,23,1014.9,-0.5,38,8,10000,7.408,,,150,,,,,,,,,,,wg-a,,,,AAXX 12154 07434 12/60 /1504 10230 20080 39692 40149 58005 60006 91500=
07434,1998-05-12 18:00:00,22,1015.7,0.7,43,9,500,7.408,,,140,14.3,23.6,,,,,,,,,wg-a,,,,AAXX 12184 07434 12/00 71404 10220 20090 39699 40157 53007 60006 83082 91800 333 10236 20143=
07434,1998-05-12 21:00:00,20,1017.2,1.1,49,9,500,3.704,,,140,,,,,,,,,,,wg-a,,,,AAXX 12214 07434 12/00 71402 10200 20090 39710 40172 53011 60006 83082 92100=
07434,1998-05-13 00:00:00,17,1018.2,0.5,63,10,500,3.704,,,110,,,,,,,,,,,wg-a,,,,AAXX 13004 07434 12/00 71102 10170 20100 39715 40182 50005 60006 83082 90000=
07434,1998-05-13 03:00:00,16,1018.1,-0.2,68,10,500,3.704,,,80,,,,,,,,,,,wg-a,,,,AAXX 13034 07434 12/00 60802 10160 20100 39713 40181 58002 60006 81082 90300=
07434,1998-05-13 06:00:00,16,1018.4,0.2,72,11,20000,7.408,,,60,15.6,22,,,,,,,,25,wg-a,,,,AAXX 13064 07434 02870 70604 10160 20110 39715 40184 53002 61000 72586 84592 90600 333 10220 20156 6100=
07434,1998-05-13 09:00:00,19,1018.4,0.4,56,10,500,7.408,,,90,,,,,,,,,,,wg-a,,,,AAXX 13094 07434 12800 70904 10190 20100 39719 40184 50004 60006 83592 90900=
07434,1998-05-13 12:00:00,24,1016.9,-0.6,36,8,50000,3.704,,,290,,,,,,,,,,,wg-a,,,,AAXX 13124 07434 12/84 52902 10240 20080 39713 40169 58006 60006 82082 91200=
07434,1998-05-13 15:00:00,26,1015.5,-1.1,42,12,50000,7.408,,,40,,,,,,,,,,,wg-a,,,,AAXX 13154 07434 12684 /0404 10260 20120 39702 40155 57011 60006 82382 91500=
07434,1998-05-13 18:00:00,23,1016.1,0.2,53,13,11000,11.112,,,30,15.7,25.9,,,,,,,,,wg-a,,,,AAXX 13184 07434 12/61 /0306 10230 20130 39704 40161 53002 60006 91800 333 10259 20157=
07434,1998-05-13 21:00:00,20,1017.2,0.6,60,12,40000,7.408,,,70,,,,,,,,,,,wg-a,,,,AAXX 13214 07434 12782 /0704 10200 20120 39710 40172 51006 60006 81383 92100=
07434,1998-05-14 00:00:00,19,1017.2,-0.2,56,10,500,7.408,,,50,,,,,,,,,,,wg-a,,,,AAXX 14004 07434 12/00 40504 10190 20100 39708 40172 58002 60006 81032 90000=
07434,1998-05-14 03:00:00,18,1016.6,-0.7,59,10,500,7.408,,,70,,,,,,,,,,,wg-a,,,,AAXX 14034 07434 12/00 60704 10180 20100 39701 40166 56007 60006 84032 90300=
07434,1998-05-14 06:00:00,18,1016.9,0.3,64,11,500,3.704,,,40,16.6,23.1,,,,,,,,,wg-a,,,,AAXX 14064 07434 02/00 30402 10180 20110 39704 40169 51003 60006 81031 90600 333 10231 20166 60004=
07434,1998-05-14 09:00:00,24,1015.8,-0.2,44,11,500,14.816,,,40,,,,,,,,,,,wg-a,,,,AAXX 14094 07434 12/00 40408 10240 20110 39702 40158 58002 60006 80001 90900=
07434,1998-05-14 12:00:00,26,1014.6,-0.7,45,13,40000,11.112,,,10,,,,,,,,,,,wg-a,,,,AAXX 14124 07434 12782 50106 10260 20130 39695 40146 58007 60006 81201 91200=
07434,1998-05-14 15:00:00,26,1013.5,-1.1,45,13,40000,18.52,,,30,,,,,,,,,,,wg-a,,,,AAXX 14154 07434 12782 50310 10260 20130 39684 40135 56011 60006 84901 91500=
07434,1998-05-14 18:00:00,18,1015.2,0.4,77,14,10000,11.112,,,250,17.9,27.5,,,,,,,,17,wg-a,,,,AAXX 14184 07434 02660 72506 10180 20140 39688 40152 50004 60006 71798 83963 91800 333 10275 20179 61000=
07434,1998-05-14 21:00:00,15,1017,1.2,88,13,6000,25.928,,,110,,,,4,,,,,,81,wg-a,,,,AAXX 14214 07434 12256 71114 10150 20130 39700 40170 53012 60047 78198 879// 92100=
07434,1998-05-15 00:00:00,15,1015.2,-1.7,88,13,20000,7.408,,,60,,,,2,,,,,,29,wg-a,,,,AAXX 15004 07434 02770 80604 10150 20130 39683 40152 58017 60066 72996 8357/ 90000 333 60027=
07434,1998-05-15 06:00:00,15,1016,1.2,77,11,20000,11.112,,,50,12.7,19.5,,,,,6,,,,wg-a,,,,AAXX 15064 07434 02770 70506 10150 20110 39691 40160 51012 60006 865/1 90600 333 10195 20127 60064=
07434,1998-05-15 09:00:00,20,1015.4,0.2,60,12,15000,11.112,,,80,,,,,,,,,,,wg-a,,,,AAXX 15094 07434 12765 30806 10200 20120 39693 40154 50002 60006 825/1 90900=
07434,1998-05-15 12:00:00,24,1013.8,-0.9,57,15,20000,7.408,,,20,,,,,,,,,,,wg-a,,,,AAXX 15124 07434 12670 50204 10240 20150 39684 40138 56009 60006 83201 91200=
07434,1998-05-15 15:00:00,24,1012.2,-1.5,57,15,20000,14.816,,,360,,,,,,,,,,,wg-a,,,,AAXX 15154 07434 12670 53608 10240 20150 39669 40122 56015 60006 84901 91500=
07434,1998-05-15 18:00:00,22,1012.9,0.3,57,13,25000,7.408,,,20,14.8,24.8,,,,,,,,29,wg-a,,,,AAXX 15184 07434 12675 30204 10220 20130 39672 40129 52003 60006 72991 82202 91800 333 10248 20148=
07434,1998-05-15 21:00:00,19,1015.2,1.6,40,5,25000,11.112,,,20,,,,,,,,,,,wg-a,,,,AAXX 15214 07434 12675 /0206 10190 20050 39688 40152 53016 60006 81101 92100=
07434,1998-05-16 00:00:00,17,1015.1,-0.3,52,7,25000,14.816,,,10,,,,,,,,,,,wg-a,,,,AAXX 16004 07434 12/75 00108 10170 20070 39685 40151 58003 60006 80000 90000=
07434,1998-05-16 03:00:00,14,1014.9,-0.6,63,7,15000,7.408,,,10,,,,,,,,,,,wg-a,,,,AAXX 16034 07434 12/65 10104 10140 20070 39679 40149 57006 60006 80001 90300=
07434,1998-05-16 06:00:00,12,1015.9,0.6,88,10,18000,0,,,0,11.3,22.5,,,,,,,,,wg-a,,,,AAXX 16064 07434 02/68 10000 10120 20100 39685 40159 53006 60006 80001 90600 333 10225 20113 60004=
07434,1998-05-16 09:00:00,19,1015.2,0.4,56,10,18000,11.112,,,20,,,,,,,,,,,wg-a,,,,AAXX 16094 07434 12/68 10206 10190 20100 39689 40152 51004 60006 80001 90900=
07434,1998-05-16 12:00:00,23,1014.5,-0.1,41,9,40000,14.816,,,40,,,,,,,,,,,wg-a,,,,AAXX 16124 07434 12682 /0408 10230 20090 39688 40145 58001 60006 81100 91200=
07434,1998-05-16 15:00:00,23,1014.7,0.2,41,9,40000,14.816,,,30,,,,,,,,,,,wg-a,,,,AAXX 16154 07434 12782 10308 10230 20090 39690 40147 50002 60006 81200 91500=
07434,1998-05-16 18:00:00,21,1015.1,0.1,43,8,40000,14.816,,,40,12.3,23.4,,,,,,,,,wg-a,,,,AAXX 16184 07434 12/82 00408 10210 20080 39691 40151 53001 60006 80000 91800 333 10234 20123=
07434,1998-05-16 21:00:00,17,1017.1,1.2,48,6,500,11.112,,,40,,,,,,,,,,,wg-a,,,,AAXX 16214 07434 12/00 00406 10170 20060 39703 40171 52012 60006 80000 92100=
07434,1998-05-17 00:00:00,15,1017.3,-0.1,59,7,25000,14.816,,,50,,,,,,,,,,,wg-a,,,,AAXX 17004 07434 12/75 00508 10150 20070 39702 40173 58001 60006 80000 90000=
07434,1998-05-17 03:00:00,13,1017.1,-0.4,62,6,20000,11.112,,,40,,,,,,,,,,,wg-a,,,,AAXX 17034 07434 12/70 00406 10130 20060 39698 40171 58004 60006 80000 90300=
07434,1998-05-17 06:00:00,14,1018.1,1,63,7,20000,7.408,,,50,11.7,20.9,,,,,,,,,wg-a,,,,AAXX 17064 07434 02/70 10504 10140 20070 39708 40181 52010 60006 80001 90600 333 10209 20117 60004=
07434,1998-05-17 09:00:00,19,1017.9,0.6,43,6,500,18.52,,,40,,,,,,,,,,,wg-a,,,,AAXX 17094 07434 12/00 00410 10190 20060 39714 40179 50006 60006 80000 90900=
07434,1998-05-17 12:00:00,21,1017.4,-0.1,38,6,500,14.816,,,70,,,,,,,,,,,wg-a,,,,AAXX 17124 07434 12/00 00708 10210 20060 39713 40174 58001 60006 80000 91200=
07434,1998-05-17 15:00:00,22,1017,-0.3,33,5,50000,18.52,,,50,,,,,,,,,,,wg-a,,,,AAXX 17154 07434 12/84 00510 10220 20050 39710 40170 56003 60006 80000 91500=
07434,1998-05-17 18:00:00,21,1017.5,0.3,40,7,50000,14.816,,,40,13.7,22.6,,,,,,,,,wg-a,,,,AAXX 17184 07434 12/84 10408 10210 20070 39713 40175 52003 60006 80001 91800 333 10226 20137=
07434,1998-05-17 21:00:00,17,1019.4,1.3,52,7,25000,14.816,,,20,,,,,,,,,,,wg-a,,,,AAXX 17214 07434 12/75 00208 10170 20070 39726 40194 51013 60006 80000 92100=
07434,1998-05-18 00:00:00,15,1020.2,0.3,59,7,20000,14.816,,,60,,,,,,,,,,,wg-a,,,,AAXX 18004 07434 12/70 00608 10150 20070 39729 40202 51003 60006 80000 90000=
07434,1998-05-18 03:00:00,13,1020.8,0.3,62,6,20000,14.816,,,60,,,,,,,,,,,wg-a,,,,AAXX 18034 07434 12/70 00608 10130 20060 39732 40208 51003 60006 80000 90300=
07434,1998-05-18 06:00:00,13,1021.5,0.8,62,6,40000,18.52,,,80,11.8,20.5,,,,,,,,,wg-a,,,,AAXX 18064 07434 02/82 00810 10130 20060 39740 40215 52008 60006 80000 90600 333 10205 20118 60004=
07434,1998-05-18 09:00:00,18,1021.3,0.4,37,3,40000,22.224,,,70,,,,,,,,,,,wg-a,,,,AAXX 18094 07434 12/82 10712 10180 20030 39744 40213 51004 60006 80001 90900=
07434,1998-05-18 12:00:00,20,1020.6,-0.2,32,3,40000,22.224,,,100,,,,,,,,,,,wg-a,,,,AAXX 18124 07434 12/82 11012 10200 20030 39742 40206 58002 60006 80001 91200=
07434,1998-05-18 15:00:00,22,1019.8,-0.5,35,6,50000,22.224,,,50,,,,,,,,,,,wg-a,,,,AAXX 18154 07434 12/84 10512 10220 20060 39737 40198 56005 60006 80001 91500=
07434,1998-05-18 18:00:00,20,1019.8,-0.2,40,6,40000,25.928,,,60,13.3,22.2,,,,,,,,,wg-a,,,,AAXX 18184 07434 12/82 10614 10200 20060 39735 40198 55002 60006 80001 91800 333 10222 20133=
07434,1998-05-18 21:00:00,16,1021.6,1,48,5,40000,14.816,,,60,,,,,,,,,,,wg-a,,,,AAXX 18214 07434 12/82 00608 10160 20050 39745 40216 52010 60006 80000 92100=
07434,1998-05-19 00:00:00,15,1021.8,-0,48,4,40000,18.52,,,80,,,,,,,,,,,wg-a,,,,AAXX 19004 07434 12/82 00810 10150 20040 39745 40218 55000 60006 80000 90000=
07434,1998-05-19 03:00:00,13,1021.7,-0.4,58,5,40000,18.52,,,70,,,,,,,,,,,wg-a,,,,AAXX 19034 07434 12/82 00710 10130 20050 39741 40217 56004 60006 80000 90300=
07434,1998-05-19 06:00:00,14,1022,0.5,58,6,40000,14.816,,,70,12.8,20.3,,,,,,,,,wg-a,,,,AAXX 19064 07434 02/82 00708 10140 20060 39746 40220 53005 60006 80000 90600 333 10203 20128 60004=
07434,1998-05-19 09:00:00,19,1021.3,0.1,37,4,40000,25.928,,,80,,,,,,,,,,,wg-a,,,,AAXX 19094 07434 12/82 00814 10190 20040 39747 40213 50001 60006 80000 90900=
07434,1998-05-19 12:00:00,22,1020,-0.9,27,2,40000,25.928,,,80,,,,,,,,,,,wg-a,,,,AAXX 19124 07434 12/82 00814 10220 20020 39738 40200 58009 60006 80000 91200=
07434,1998-05-19 15:00:00,22,1018.6,-1.2,35,6,40000,22.224,,,70,,,,,,,,,,,wg-a,,,,AAXX 19154 07434 12/82 00712 10220 20060 39726 40186 56012 60006 80000 91500=
07434,1998-05-19 18:00:00,21,1018.3,-0.5,38,6,40000,18.52,,,70,14.1,23.1,,,,,,,,,wg-a,,,,AAXX 19184 07434 12/82 00710 10210 20060 39721 40183 55005 60006 80000 91800 333 10231 20141=
07434,1998-05-19 21:00:00,18,1019.6,0.8,45,6,40000,14.816,,,40,,,,,,,,,,,wg-a,,,,AAXX 19214 07434 12/82 10408 10180 20060 39729 40196 51008 60006 80001 92100=
07434,1998-05-20 00:00:00,15,1019,-1,55,6,500,14.816,,,60,,,,,,,,,,,wg-a,,,,AAXX 20004 07434 12/00 00608 10150 20060 39719 40190 58010 60006 80000 90000=
07434,1998-05-20 03:00:00,15,1018.4,-0.6,55,6,500,14.816,,,70,,,,,,,,,,,wg-a,,,,AAXX 20034 07434 12/00 00708 10150 20060 39713 40184 58006 60006 80000 90300=
07434,1998-05-20 06:00:00,15,1018.6,0.2,59,7,500,18.52,,,80,14.2,21,,,,,,,,,wg-a,,,,AAXX 20064 07434 02/00 00810 10150 20070 39715 40186 53002 60006 80000 90600 333 10210 20142 60004=
07434,1998-05-20 09:00:00,20,1017.8,0.1,43,7,500,18.52,,,70,,,,,,,,,,,wg-a,,,,AAXX 20094 07434 12/00 10710 10200 20070 39716 40178 50001 60006 80002 90900=
07434,1998-05-20 12:00:00,23,1017,-0.4,31,5,40000,14.816,,,100,,,,,,,,,,,wg-a,,,,AAXX 20124 07434 12682 /1008 10230 20050 39712 40170 58004 60006 81202 91200=
07434,1998-05-20 15:00:00,24,1016.2,-0.7,31,6,40000,18.52,,,50,,,,,,,,,,,wg-a,,,,AAXX 20154 07434 12782 10510 10240 20060 39705 40162 58007 60006 81102 91500=
07434,1998-05-20 18:00:00,22,1016.4,-0.1,38,7,40000,18.52,,,50,15.2,24,,,,,,,,,wg-a,,,,AAXX 20184 07434 12782 10510 10220 20070 39704 40164 55001 60006 81102 91800 333 10240 20152=
07434,1998-05-20 21:00:00,18,1017.7,0.8,49,7,40000,14.816,,,40,,,,,,,,,,,wg-a,,,,AAXX 20214 07434 12/82 00408 10180 20070 39712 40177 53008 60006 80000 92100=
07434,1998-05-21 00:00:00,16,1018,-0.1,59,8,40000,14.816,,,60,,,,,,,,,,,wg-a,,,,AAXX 21004 07434 12/82 00608 10160 20080 39711 40180 57001 60006 80000 90000=
07434,1998-05-21 03:00:00,15,1017.9,-0.2,59,7,40000,11.112,,,40,,,,,,,,,,,wg-a,,,,AAXX 21034 07434 12/82 00406 10150 20070 39709 40179 56002 60006 80000 90300=
07434,1998-05-21 06:00:00,16,1018.5,0.6,59,8,15000,7.408,,,60,14.8,21.6,,,,,,,,,wg-a,,,,AAXX 21064 07434 02/65 00604 10160 20080 39715 40185 53006 60006 80000 90600 333 10216 20148 60004=
07434,1998-05-21 09:00:00,20,1018.4,0.7,53,10,20000,14.816,,,40,,,,,,,,,,,wg-a,,,,AAXX 21094 07434 12/70 30408 10200 20100 39722 40184 51007 60006 80001 90900=
07434,1998-05-21 12:00:00,22,1018,-0.1,41,8,20000,14.816,,,70,,,,,,,,,,,wg-a,,,,AAXX 21124 07434 12670 30708 10220 20080 39721 40180 58001 60006 83101 91200=
07434,1998-05-21 15:00:00,22,1017.5,-0.5,43,9,500,14.816,,,20,,,,,,,,,,,wg-a,,,,AAXX 21154 07434 12700 30208 10220 20090 39716 40175 58005 60006 83100 91500=
07434,1998-05-21 18:00:00,21,1017.5,-0.2,46,9,500,14.816,,,30,15.8,22.7,,,,,,,,,wg-a,,,,AAXX 21184 07434 12700 10308 10210 20090 39714 40175 56002 60006 81100 91800 333 10227 20158=
07434,1998-05-21 21:00:00,17,1019.4,1.2,59,9,25000,14.816,,,30,,,,,,,,,,,wg-a,,,,AAXX 21214 07434 12775 20308 10170 20090 39726 40194 53012 60006 82500 92100=
07434,1998-05-22 00:00:00,15,1019.9,0.1,72,10,20000,14.816,,,20,,,,,,,,,,,wg-a,,,,AAXX 22004 07434 12/70 00208 10150 20100 39727 40199 50001 60006 80000 90000=
07434,1998-05-22 03:00:00,13,1020,-0.1,82,10,15000,7.408,,,20,,,,,,,,,,,wg-a,,,,AAXX 22034 07434 12/65 00204 10130 20100 39726 40200 56001 60006 80000 90300=
07434,1998-05-22 06:00:00,12,1020.8,0.6,94,11,3500,11.112,,,30,11.4,21,,,,,,,,10,wg-a,,,,AAXX 22064 07434 02335 /0306 10120 20110 39732 40208 53006 60006 71000 81600 90600 333 10210 20114 60004=
07434,1998-05-22 09:00:00,15,1020.9,0.5,77,11,7000,14.816,,,10,,,,,,,,,,,wg-a,,,,AAXX 22094 07434 12457 50108 10150 20110 39737 40209 51005 60006 84101 90900=
07434,1998-05-22 12:00:00,17,1020.7,0.1,55,8,10000,18.52,,,40,,,,,,,,,,,wg-a,,,,AAXX 22124 07434 12560 50410 10170 20080 39738 40207 50001 60006 84101 91200=
07434,1998-05-22 15:00:00,18,1019.8,-0.7,49,7,20000,22.224,,,50,,,,,,,,,,,wg-a,,,,AAXX 22154 07434 12670 30512 10180 20070 39731 40198 58007 60006 82101 91500=
07434,1998-05-22 18:00:00,16,1019.9,-0.2,48,5,35000,18.52,,,40,12.4,17.9,,,,,,,,,wg-a,,,,AAXX 22184 07434 12/81 20410 10160 20050 39729 40199 55002 60006 80001 91800 333 10179 20124=
07434,1998-05-22 21:00:00,12,1021,0.4,62,5,25000,18.52,,,40,,,,,,,,,,,wg-a,,,,AAXX 22214 07434 12/75 00410 10120 20050 39733 40210 53004 60006 80000 92100=
07434,1998-05-23 00:00:00,9,1021.2,-0.3,71,4,12000,22.224,,,70,,,,,,,,,,,wg-a,,,,AAXX 23004 07434 12/62 00712 10090 20040 39730 40212 58003 60006 80000 90000=
07434,1998-05-23 06:00:00,8,1020.3,-0,71,3,15000,14.816,,,40,6.5,15.9,,,,,,,,,wg-a,,,,AAXX 23064 07434 02/65 20408 10080 20030 39719 40203 54000 60006 80001 90600 333 10159 20065 60004=
07434,1998-05-23 09:00:00,13,1019.3,-0.1,54,4,15000,25.928,,,40,,,,,,,,,,,wg-a,,,,AAXX 23094 07434 12/65 10414 10130 20040 39718 40193 56001 60006 80001 90900=
07434,1998-05-23 12:00:00,15,1018.2,-0.7,48,4,15000,18.52,,,30,,,,,,,,,,,wg-a,,,,AAXX 23124 07434 12/65 20310 10150 20040 39711 40182 58007 60006 80001 91200=
07434,1998-05-23 15:00:00,17,1016.9,-0.9,45,5,20000,22.224,,,40,,,,,,,,,,,wg-a,,,,AAXX 23154 07434 12/70 10412 10170 20050 39702 40169 57009 60006 80001 91500=
07434,1998-05-23 18:00:00,16,1016.4,-0.7,48,5,20000,18.52,,,60,8,17.5,,,,,,,,,wg-a,,,,AAXX 23184 07434 12/70 10610 10160 20050 39695 40164 55007 60006 80001 91800 333 10175 20080=
07434,1998-05-23 21:00:00,12,1017.7,0.6,62,5,18000,14.816,,,30,,,,,,,,,,,wg-a,,,,AAXX 23214 07434 12/68 10308 10120 20050 39701 40177 53006 60006 80001 92100=
07434,1998-05-24 00:00:00,10,1017.3,-0.6,66,4,15000,14.816,,,50,,,,,,,,,,,wg-a,,,,AAXX 24004 07434 12/65 10508 10100 20040 39695 40173 58006 60006 80001 90000=
07434,1998-05-24 03:00:00,9,1016.1,-1.4,66,3,15000,11.112,,,40,,,,,,,,,,,wg-a,,,,AAXX 24034 07434 12/65 00406 10090 20030 39681 40161 56014 60006 80000 90300=
07434,1998-05-24 06:00:00,10,1016,-0,71,5,500,11.112,,,10,9,15.7,,,,,,,,,wg-a,,,,AAXX 24064 07434 02/00 10106 10100 20050 39681 40160 55000 60006 80001 90600 333 10157 20090 60004=
07434,1998-05-24 09:00:00,15,1015.2,0.1,48,4,40000,22.224,,,40,,,,,,,,,,,wg-a,,,,AAXX 24094 07434 12682 /0412 10150 20040 39682 40152 50001 60006 81100 90900=
07434,1998-05-24 12:00:00,16,1014.5,-0.5,45,4,40000,18.52,,,50,,,,,,,,,,,wg-a,,,,AAXX 24124 07434 12682 /0510 10160 20040 39677 40145 56005 60006 86800 91200=
07434,1998-05-24 15:00:00,16,1013.7,-0.7,51,6,40000,11.112,,,30,,,,,,,,,,,wg-a,,,,AAXX 24154 07434 12682 /0306 10160 20060 39670 40137 56007 60006 86800 91500=
07434,1998-05-24 18:00:00,16,1013,-0.7,55,7,40000,11.112,,,30,9.5,16.9,,,,,,,,,wg-a,,,,AAXX 24184 07434 12682 50306 10160 20070 39663 40130 56007 60006 85800 91800 333 10169 20095=
07434,1998-05-24 21:00:00,13,1014.5,0.9,67,7,20000,7.408,,,350,,,,,,,,,,,wg-a,,,,AAXX 24214 07434 12/70 03504 10130 20070 39672 40145 53009 60006 80000 92100=
07434,1998-05-25 00:00:00,12,1014.4,-0.2,71,7,15000,7.408,,,10,,,,,,,,,,,wg-a,,,,AAXX 25004 07434 12/65 00104 10120 20070 39670 40144 58002 60006 80000 90000=
07434,1998-05-25 03:00:00,10,1013.9,-0.8,87,8,10000,3.704,,,30,,,,,,,,,,,wg-a,,,,AAXX 25034 07434 12/60 00302 10100 20080 39662 40139 58008 60006 80000 90300=
07434,1998-05-25 06:00:00,10,1014.1,0.2,87,8,8000,3.704,,,90,9.1,15.7,,,,,,,,,wg-a,,,,AAXX 25064 07434 02/58 00902 10100 20080 39664 40141 53002 60006 80000 90600 333 10157 20091 60004=
07434,1998-05-25 09:00:00,15,1013.4,0.2,72,10,9000,3.704,,,310,,,,,,,,,,,wg-a,,,,AAXX 25094 07434 12659 /3102 10150 20100 39666 40134 51002 60006 81100 90900=
07434,1998-05-25 12:00:00,19,1012.2,-0.7,46,7,12000,11.112,,,320,,,,,,,,,,,wg-a,,,,AAXX 25124 07434 12662 /3206 10190 20070 39659 40122 58007 60006 85200 91200=
07434,1998-05-25 15:00:00,19,1011,-1,49,8,12000,11.112,,,340,,,,,,,,,,,wg-a,,,,AAXX 25154 07434 12662 /3406 10190 20080 39649 40110 58010 60006 85230 91500=
07434,1998-05-25 18:00:00,16,1010.8,-0.7,72,11,12000,7.408,,,320,9.9,19.5,,,,,,,,25,wg-a,,,,AAXX 25184 07434 02662 53204 10160 20110 39642 40108 56007 61000 72586 84830 91800 333 10195 20099 6001=
07434,1998-05-25 21:00:00,14,1011.9,0.7,67,8,10000,11.112,,,290,,,,,,,,,,,wg-a,,,,AAXX 25214 07434 12660 42906 10140 20080 39649 40119 53007 60006 84800 92100=
07434,1998-05-26 00:00:00,11,1012.2,-0.1,87,9,10000,7.408,,,270,,,,,,,,,,,wg-a,,,,AAXX 26004 07434 12560 42704 10110 20090 39648 40122 57001 60006 84500 90000=
07434,1998-05-26 03:00:00,10,1011.4,-1,93,9,10000,7.408,,,250,,,,,,,,,,,wg-a,,,,AAXX 26034 07434 12660 72504 10100 20090 39638 40114 58010 60006 875// 90300=
07434,1998-05-26 06:00:00,10,1011.2,-0.1,93,9,9000,3.704,,,170,9.7,15.9,,,,,1,,,3,wg-a,,,,AAXX 26064 07434 02359 81702 10100 20090 39637 40112 57001 60006 70361 878// 90600 333 10159 20097 60014=
07434,1998-05-26 09:00:00,12,1011,0.1,88,10,15000,18.52,,,220,,,,,,,,,,1,wg-a,,,,AAXX 26094 07434 02365 82210 10120 20100 39638 40110 50001 61000 70152 878// 90900 333 ////=
07434,1998-05-26 12:00:00,13,1010.5,-0.3,88,11,8000,14.816,,,240,,,,0,,,,,,80,wg-a,,,,AAXX 26124 07434 02458 72408 10130 20110 39635 40105 58003 60016 78086 878// 91200 333 60007=
07434,1998-05-26 15:00:00,14,1009.9,-0.4,82,11,20000,18.52,,,220,,,,3,,,,,,3,wg-a,,,,AAXX 26154 07434 12570 72210 10140 20110 39631 40099 58004 60037 70386 8583/ 91500=
07434,1998-05-26 18:00:00,12,1009.9,-0.3,88,10,6000,7.408,,,300,10.2,15,,,,,,,,80,wg-a,,,,AAXX 26184 07434 02456 73004 10120 20100 39628 40099 57003 61000 78086 879// 91800 333 10150 20102 6100=
07434,1998-05-26 21:00:00,11,1010.8,0.7,94,10,10000,7.408,,,230,,,,0,,,,,,1,wg-a,,,,AAXX 26214 07434 12560 /2304 10110 20100 39635 40108 53007 60007 70186 86900 92100=
07434,1998-05-27 00:00:00,11,1010.3,-0.5,94,10,10000,14.816,,,230,,,,,,,,,,1,wg-a,,,,AAXX 27004 07434 12560 /2308 10110 20100 39630 40103 58005 60006 70186 86800 90000=
07434,1998-05-27 03:00:00,10,1009.3,-1.1,100,10,11000,11.112,,,200,,,,,,,,,,,wg-a,,,,AAXX 27034 07434 12/61 /2006 10100 20100 39619 40093 56011 60006 90300=
07434,1998-05-27 06:00:00,11,1009.2,-0,94,10,6000,11.112,,,180,10.3,12.7,,,,,3,,,,wg-a,,,,AAXX 27064 07434 02156 71806 10110 20100 39619 40092 55000 60006 876// 90600 333 10127 20103 60034=
07434,1998-05-27 09:00:00,12,1008.6,-0.3,88,10,15000,18.52,,,190,,,,,,,,,,16,wg-a,,,,AAXX 27094 07434 02365 71910 10120 20100 39616 40086 56003 61000 71682 85231 90900 333 ////=
07434,1998-05-27 12:00:00,17,1006.6,-1.3,63,10,40000,18.52,,,180,,,,,,,,,,1,wg-a,,,,AAXX 27124 07434 02582 51810 10170 20100 39603 40066 58013 61000 70186 84801 91200 333 ////=
07434,1998-05-27 15:00:00,17,1005.4,-1,59,9,20000,14.816,,,260,,,,,,,,,,15,wg-a,,,,AAXX 27154 07434 12670 72608 10170 20090 39593 40054 58010 60006 71522 878// 91500=
07434,1998-05-27 18:00:00,15,1005.4,-0.3,67,9,500,7.408,,,260,10.4,17.1,,,,,,,,1,wg-a,,,,AAXX 27184 07434 02600 72604 10150 20090 39590 40054 57003 60006 70186 84831 91800 333 10171 20104 61000=
07434,1998-05-27 21:00:00,12,1006.8,0.9,88,10,20000,7.408,,,360,,,,,,,,,,,wg-a,,,,AAXX 27214 07434 12670 73604 10120 20100 39599 40068 53009 60006 85801 92100=
07434,1998-05-28 00:00:00,11,1006.6,-0.4,94,10,9000,3.704,,,230,,,,2,,,,,,25,wg-a,,,,AAXX 28004 07434 02559 /2302 10110 20100 39595 40066 58004 60026 72586 86800 90000 333 60027=
07434,1998-05-28 03:00:00,11,1006.3,-0.4,94,10,3000,7.408,,,240,,,,,,,,,,10,wg-a,,,,AAXX 28034 07434 12330 82404 10110 20100 39591 40063 56004 60006 71022 875// 90300=
07434,1998-05-28 06:00:00,11,1006.9,0.6,94,10,4000,7.408,,,210,10.2,15.3,,,,,,,,10,wg-a,,,,AAXX 28064 07434 02140 72104 10110 20100 39597 40069 53006 61000 71062 877// 90600 333 10153 20102 6002=
07434,1998-05-28 09:00:00,12,1007.4,0.7,82,9,500,11.112,,,240,,,,0,,,,,,1,wg-a,,,,AAXX 28094 07434 12400 72406 10120 20090 39604 40074 52007 60007 70186 8687/ 90900=
07434,1998-05-28 12:00:00,14,1007,-0.1,77,10,10000,7.408,,,220,,,,0,,,,,,80,wg-a,,,,AAXX 28124 07434 02560 72204 10140 20100 39603 40070 58001 60016 78086 872// 91200 333 60007=
07434,1998-05-28 15:00:00,16,1007.1,0.4,59,8,20000,14.816,,,280,,,,0,,,,,,1,wg-a,,,,AAXX 28154 07434 12570 72808 10160 20080 39607 40071 51004 60007 70186 87800 91500=
07434,1998-05-28 18:00:00,15,1008.1,0.8,55,6,500,18.52,,,280,10.5,16.8,,,,,,,,1,wg-a,,,,AAXX 28184 07434 02500 22810 10150 20060 39615 40081 53008 60006 70186 82860 91800 333 10168 20105 61000=
07434,1998-05-28 21:00:00,11,1011,2.1,76,7,25000,7.408,,,260,,,,,,,,,,,wg-a,,,,AAXX 28214 07434 12575 /2604 10110 20070 39636 40110 53021 60006 81130 92100=
07434,1998-05-29 00:00:00,9,1012.2,0.7,81,6,18000,7.408,,,260,,,,,,,,,,,wg-a,,,,AAXX 29004 07434 12/68 02604 10090 20060 39643 40122 51007 60006 80000 90000=
07434,1998-05-29 03:00:00,7,1012.7,0.3,93,6,12000,0,,,0,,,,,,,,,,,wg-a,,,,AAXX 29034 07434 12562 20000 10070 20060 39646 40127 53003 60006 82500 90300=
07434,1998-05-29 06:00:00,8,1013.5,0.9,93,7,10000,3.704,,,90,6.8,15.3,,,,,1,,,,wg-a,,,,AAXX 29064 07434 02460 70902 10080 20070 39655 40135 53009 60006 8653/ 90600 333 10153 20068 60014=
07434,1998-05-29 09:00:00,14,1012.9,0.3,67,8,500,7.408,,,180,,,,,,,,,,,wg-a,,,,AAXX 29094 07434 12400 /1804 10140 20080 39658 40129 51003 60006 85231 90900=
07434,1998-05-29 12:00:00,17,1011.7,-0.6,52,7,40000,11.112,,,190,,,,,,,,,,,wg-a,,,,AAXX 29124 07434 12682 51906 10170 20070 39652 40117 57006 60006 84201 91200=
07434,1998-05-29 15:00:00,19,1010.2,-1.1,46,7,40000,11.112,,,160,,,,,,,,,,,wg-a,,,,AAXX 29154 07434 12682 /1606 10190 20070 39641 40102 58011 60006 82801 91500=
07434,1998-05-29 18:00:00,18,1009.6,-0.8,39,4,50000,7.408,,,150,8.2,19.6,,,,,,,,,wg-a,,,,AAXX 29184 07434 12684 /1504 10180 20040 39633 40096 56008 60006 81802 91800 333 10196 20082=
07434,1998-05-29 21:00:00,14,1010,-0.1,72,9,500,11.112,,,70,,,,,,,,,,,wg-a,,,,AAXX 29214 07434 12/00 30706 10140 20090 39632 40100 56001 60006 80002 92100=
07434,1998-05-30 00:00:00,12,1009.3,-1,76,8,20000,11.112,,,90,,,,,,,,,,,wg-a,,,,AAXX 30004 07434 12/70 30906 10120 20080 39622 40093 58010 60006 80001 90000=
07434,1998-05-30 03:00:00,13,1007.9,-1.3,62,6,15000,11.112,,,100,,,,,,,,,,,wg-a,,,,AAXX 30034 07434 12/65 51006 10130 20060 39609 40079 57013 60006 82032 90300=
07434,1998-05-30 06:00:00,14,1007,-0.6,67,8,40000,18.52,,,130,11.7,17.9,,,,,,,,,wg-a,,,,AAXX 30064 07434 02/82 61310 10140 20080 39603 40070 56006 60006 82032 90600 333 10179 20117 60004=
07434,1998-05-30 09:00:00,16,1007.7,1,68,10,40000,14.816,,,190,,,,,,,,,,,wg-a,,,,AAXX 30094 07434 12/82 71908 10160 20100 39613 40077 53010 60006 86072 90900=
07434,1998-05-30 12:00:00,16,1008.5,0.7,68,10,40000,14.816,,,230,,,,,,,,,,,wg-a,,,,AAXX 30124 07434 12582 72308 10160 20100 39620 40085 51007 60006 8657/ 91200=
07434,1998-05-30 15:00:00,13,1010.3,1.3,94,12,8000,7.408,,,250,,,,2,,,,,,60,wg-a,,,,AAXX 30154 07434 12458 72504 10130 20120 39633 40103 52013 60027 76062 8687/ 91500=
07434,1998-05-30 18:00:00,12,1011.4,0.9,94,11,10000,7.408,,,150,11.5,16.9,,,,,,,,21,wg-a,,,,AAXX 30184 07434 02460 71504 10120 20110 39642 40114 52009 61000 72162 8687/ 91800 333 10169 20115 6004=
07434,1998-05-30 21:00:00,11,1013,1.3,94,10,15000,7.408,,,190,,,,,,,,,,3,wg-a,,,,AAXX 30214 07434 02265 /1904 10110 20100 39655 40130 51013 61000 70362 84830 92100 333 ////=
07434,1998-05-31 00:00:00,10,1013.2,0.1,100,10,1000,7.408,,,180,,,,,,,,,,10,wg-a,,,,AAXX 31004 07434 02110 71804 10100 20100 39656 40132 50001 61000 71062 87600 90000 333 ////=
07434,1998-05-31 03:00:00,10,1013.1,-0.2,93,9,300,3.704,,,170,,,,,,,,,,45,wg-a,,,,AAXX 31034 07434 12/03 91702 10100 20090 39654 40131 56002 60006 74542 89/// 90300=
07434,1998-05-31 06:00:00,9,1013.3,0.1,100,9,200,7.408,,,100,9.1,12.1,,,,,6,,,45,wg-a,,,,AAXX 31064 07434 02/02 91004 10090 20090 39655 40133 50001 60006 74542 89/// 90600 333 10121 20091 60064=
07434,1998-05-31 09:00:00,11,1013.7,0.6,94,10,7000,11.112,,,250,,,,,,,,,,1,wg-a,,,,AAXX 31094 07434 12257 82506 10110 20100 39661 40137 53006 60006 70142 876// 90900=
07434,1998-05-31 12:00:00,12,1014.3,0.8,88,10,13000,14.816,,,200,,,,1,,,,,,25,wg-a,,,,AAXX 31124 07434 02363 72008 10120 20100 39669 40143 51008 60016 72542 8597/ 91200 333 60017=
07434,1998-05-31 15:00:00,16,1012.9,-0.6,59,8,40000,11.112,,,260,,,,,,,,,,,wg-a,,,,AAXX 31154 07434 12582 42606 10160 20080 39663 40129 56006 60006 84200 91500=
07434,1998-05-31 18:00:00,15,1013.5,0.3,59,7,50000,3.704,,,270,9,16.8,,,,,,,,,wg-a,,,,AAXX 31184 07434 12684 32702 10150 20070 39666 40135 53003 60006 83200 91800 333 10168 20090=
07434,1998-05-31 21:00:00,13,1014.5,0.6,67,7,40000,3.704,,,110,,,,,,,,,,,wg-a,,,,AAXX 31214 07434 12/82 31102 10130 20070 39672 40145 51006 60006 80001 92100=
07434,1998-06-01 00:00:00,10,1014.5,-0.4,87,8,40000,7.408,,,90,,,,,,,,,,,wg-a,,,,AAXX 01004 07434 12/82 30904 10100 20080 39668 40145 58004 60006 80001 90000=
07434,1998-06-01 03:00:00,10,1013.1,-1.4,82,7,500,11.112,,,60,,,,,,,,,,,wg-a,,,,AAXX 01034 07434 12/00 50606 10100 20070 39654 40131 56014 60006 80001 90300=
07434,1998-06-01 06:00:00,12,1011.8,-0.9,71,7,50000,11.112,,,80,9.3,15.4,,,,,1,,,,wg-a,,,,AAXX 01064 07434 02784 70806 10120 20070 39645 40118 56009 60006 83578 90600 333 10154 20093 60014=
07434,1998-06-01 09:00:00,16,1010.6,-0.4,68,10,50000,14.816,,,170,,,,,,,,,,,wg-a,,,,AAXX 01094 07434 12784 71708 10160 20100 39641 40106 58004 60006 83578 90900=
07434,1998-06-01 12:00:00,18,1010.5,0.2,68,12,40000,14.816,,,150,,,,,,,,,,3,wg-a,,,,AAXX 01124 07434 02682 71508 10180 20120 39643 40105 51002 61000 70362 85578 91200 333 6100=
07434,1998-06-01 15:00:00,19,1009.4,-0.8,73,14,40000,22.224,,,200,,,,,,,,,,21,wg-a,,,,AAXX 01154 07434 02582 72012 10190 20140 39635 40094 58008 61000 72162 8587/ 91500 333 ////=
07434,1998-06-01 18:00:00,18,1008.4,-1.1,77,14,40000,18.52,,,170,11.5,19.6,,,,,,,,3,wg-a,,,,AAXX 01184 07434 12582 71710 10180 20140 39624 40084 57011 60006 70362 8583/ 91800 333 10196 20115=
07434,1998-06-02 00:00:00,14,1009.8,0.7,94,13,13000,11.112,,,120,,,,11,,,,,,29,wg-a,,,,AAXX 02004 07434 02163 71206 10140 20130 39630 40098 50007 60116 72998 8686/ 90000 333 60117=
07434,1998-06-02 06:00:00,14,1011.6,2.1,100,14,8000,18.52,,,200,13.6,18.1,,,,,,,,60,wg-a,,,,AAXX 02064 07434 02258 72010 10140 20140 39648 40116 51021 61000 76086 877// 90600 333 10181 20136 6012=
07434,1998-06-02 09:00:00,15,1013.1,1.5,94,14,20000,18.52,,,190,,,,,,,,,,21,wg-a,,,,AAXX 02094 07434 02270 71910 10150 20140 39663 40131 51015 61000 72162 878// 90900 333 ////=
07434,1998-06-02 12:00:00,16,1012.8,0,88,14,25000,18.52,,,180,,,,,,,,,,25,wg-a,,,,AAXX 02124 07434 02475 71810 10160 20140 39663 40128 50000 61000 72586 878// 91200 333 6100=
07434,1998-06-02 15:00:00,14,1013.9,0.7,100,14,3000,14.816,,,180,,,,4,,,,,,10,wg-a,,,,AAXX 02154 07434 12230 81808 10140 20140 39670 40139 52007 60047 71062 877// 91500=
07434,1998-06-02 18:00:00,15,1013.6,-0.1,94,14,15000,14.816,,,220,14.2,17.1,,1,,,,,,1,wg-a,,,,AAXX 02184 07434 02365 /2208 10150 20140 39669 40136 55001 60006 70162 84800 91800 333 10171 20142 60017=
07434,1998-06-02 21:00:00,13,1016.5,2.3,94,12,7000,3.704,,,200,,,,,,,,,,,wg-a,,,,AAXX 02214 07434 12157 72002 10130 20120 39692 40165 53023 60006 876// 92100=
07434,1998-06-03 00:00:00,11,1017.5,0.7,100,11,600,7.408,,,190,,,,,,,,,,45,wg-a,,,,AAXX 03004 07434 12/06 91904 10110 20110 39699 40175 51007 60006 74541 89/// 90000=
07434,1998-06-03 03:00:00,11,1017.3,-0.2,100,11,600,3.704,,,150,,,,,,,,,,45,wg-a,,,,AAXX 03034 07434 32/06 91502 10110 20110 39697 40173 57002 74544 89/// 90300=
07434,1998-06-03 06:00:00,11,1018.3,0.9,94,10,500,7.408,,,110,10.3,15.4,,,,,5,,,42,wg-a,,,,AAXX 03064 07434 02005 /1104 10110 20100 39706 40183 51009 60006 74244 86600 90600 333 10154 20103 60054=
07434,1998-06-03 09:00:00,16,1017.8,0.4,72,11,20000,0,,,0,,,,,,,,,,1,wg-a,,,,AAXX 03094 07434 12470 40000 10160 20110 39710 40178 51004 60006 70141 82101 90900=
07434,1998-06-03 12:00:00,20,1016.7,-0.5,46,8,500,3.704,,,170,,,,,,,,,,1,wg-a,,,,AAXX 03124 07434 12600 41702 10200 20080 39705 40167 58005 60006 70141 81101 91200=
07434,1998-06-03 15:00:00,21,1015.6,-0.8,46,9,50000,7.408,,,300,,,,,,,,,,,wg-a,,,,AAXX 03154 07434 12684 /3004 10210 20090 39697 40156 58008 60006 82102 91500=
07434,1998-06-03 18:00:00,21,1015.8,0.1,43,8,50000,3.704,,,300,10.6,22.1,,,,,,,,,wg-a,,,,AAXX 03184 07434 12784 63002 10210 20080 39698 40158 53001 60006 81102 91800 333 10221 20106=
07434,1998-06-03 21:00:00,17,1017.6,1.1,59,9,50000,11.112,,,20,,,,,,,,,,,wg-a,,,,AAXX 03214 07434 12/84 30206 10170 20090 39709 40176 53011 60006 81082 92100=
07434,1998-06-04 00:00:00,16,1017.8,0,63,9,500,18.52,,,20,,,,,,,,,,,wg-a,,,,AAXX 04004 07434 12700 50210 10160 20090 39709 40178 50000 60006 81102 90000=
07434,1998-06-04 03:00:00,15,1017.7,-0.2,67,9,20000,11.112,,,40,,,,,,,,,,,wg-a,,,,AAXX 04034 07434 12/70 60406 10150 20090 39707 40177 56002 60006 83032 90300=
07434,1998-06-04 06:00:00,16,1017.3,-0.3,68,10,40000,18.52,,,80,14.4,21.5,,,,,,,,,wg-a,,,,AAXX 04064 07434 02782 40810 10160 20100 39704 40173 55003 60006 845/2 90600 333 10215 20144 60004=
07434,1998-06-04 09:00:00,20,1017.2,0.6,64,13,500,7.408,,,140,,,,,,,,,,,wg-a,,,,AAXX 04094 07434 12700 71404 10200 20130 39710 40172 53006 60006 8258/ 90900=
07434,1998-06-04 12:00:00,23,1015.3,-1.3,53,13,35000,7.408,,,120,,,,,,,,,,,wg-a,,,,AAXX 04124 07434 12681 71204 10230 20130 39697 40153 56013 60006 85882 91200=
07434,1998-06-04 15:00:00,25,1013,-1.9,50,14,40000,11.112,,,70,,,,,,,,,,,wg-a,,,,AAXX 04154 07434 12/82 30706 10250 20140 39678 40130 56019 60006 81082 91500=
07434,1998-06-04 18:00:00,24,1011.8,-1.3,57,15,40000,22.224,,,80,15.6,25.9,,,,,,,,,wg-a,,,,AAXX 04184 07434 12/82 10812 10240 20150 39665 40118 56013 60006 80001 91800 333 10259 20156=
07434,1998-06-04 21:00:00,21,1011.2,-1,73,16,500,18.52,,,70,,,,,,,,,,,wg-a,,,,AAXX 04214 07434 12/00 30710 10210 20160 39655 40112 58010 60006 81082 92100=
07434,1998-06-05 00:00:00,20,1012.3,0.9,73,15,15000,11.112,,,220,,,,0,,,,,,80,wg-a,,,,AAXX 05004 07434 02665 82206 10200 20150 39664 40123 53009 60006 78086 879// 90000 333 60007=
07434,1998-06-05 03:00:00,17,1010.9,-1.8,94,16,15000,7.408,,,100,,,,,,,,,,29,wg-a,,,,AAXX 05034 07434 02665 71004 10170 20160 39646 40109 57018 61000 72998 839// 90300 333 ////=
07434,1998-06-05 06:00:00,18,1010.7,-0.1,83,15,25000,11.112,,,100,16.8,24.2,,,,,,,,3,wg-a,,,,AAXX 05064 07434 02/75 71006 10180 20150 39645 40107 55001 60006 70398 82082 90600 333 10242 20168 60004=
07434,1998-06-05 09:00:00,23,1011,1.1,65,16,25000,18.52,,,180,,,,,,,,,,,wg-a,,,,AAXX 05094 07434 12/75 51810 10230 20160 39656 40110 51011 60006 80001 90900=
07434,1998-06-05 12:00:00,25,1010.5,-0.1,57,16,25000,22.224,,,200,,,,,,,,,,,wg-a,,,,AAXX 05124 07434 12675 32012 10250 20160 39655 40105 58001 60006 82201 91200=
07434,1998-06-05 15:00:00,26,1009.6,-0.8,58,17,25000,3.704,,,190,,,,,,,,,,,wg-a,,,,AAXX 05154 07434 12675 71902 10260 20170 39647 40096 58008 60006 81282 91500=
07434,1998-06-05 18:00:00,25,1009.3,-0.4,57,16,25000,7.408,,,220,17.8,26.3,,,,,,,,,wg-a,,,,AAXX 05184 07434 12775 62204 10250 20160 39643 40093 58004 60006 81132 91800 333 10263 20178=
07434,1998-06-05 21:00:00,23,1010.9,1.2,65,16,18000,0,,,0,,,,,,,,,,,wg-a,,,,AAXX 05214 07434 12/68 70000 10230 20160 39655 40109 51012 60006 81032 92100=
07434,1998-06-06 00:00:00,20,1011.1,-0.3,68,14,15000,7.408,,,160,,,,,,,,,,,wg-a,,,,AAXX 06004 07434 12/65 51604 10200 20140 39652 40111 55003 60006 83031 90000=
07434,1998-06-06 03:00:00,19,1010.6,-0.7,64,12,15000,3.704,,,80,,,,,,,,,,,wg-a,,,,AAXX 06034 07434 12/65 60802 10190 20120 39645 40106 56007 60006 81031 90300=
07434,1998-06-06 06:00:00,18,1011.1,0.4,73,13,500,11.112,,,190,17.1,24.8,,,,,,,,,wg-a,,,,AAXX 06064 07434 02/00 71906 10180 20130 39649 40111 53004 60006 82032 90600 333 10248 20171 60004=
07434,1998-06-06 09:00:00,18,1012.6,1.4,88,16,10000,18.52,,,170,,,,,,,,,,20,wg-a,,,,AAXX 06094 07434 02360 71710 10180 20160 39663 40126 51014 61000 72052 871// 90900 333 ////=
07434,1998-06-06 12:00:00,18,1012.9,0.4,94,17,10000,18.52,,,200,,,,,,,,,,2,wg-a,,,,AAXX 06124 07434 02360 72010 10180 20170 39667 40129 50004 61000 70265 871// 91200 333 6100=
07434,1998-06-06 15:00:00,19,1012,-0.7,88,17,12000,7.408,,,270,,,,,,,,,,,wg-a,,,,AAXX 06154 07434 12262 /2704 10190 20170 39660 40120 58007 60006 86200 91500=
07434,1998-06-06 18:00:00,18,1012.1,-0.1,88,16,20000,11.112,,,300,17.5,20.5,,,,,,,,,wg-a,,,,AAXX 06184 07434 12470 /3006 10180 20160 39659 40121 56001 60006 84282 91800 333 10205 20175=
07434,1998-06-06 21:00:00,17,1013.8,1.4,88,15,20000,7.408,,,270,,,,,,,,,,,wg-a,,,,AAXX 06214 07434 12470 /2704 10170 20150 39673 40138 53014 60006 84582 92100=
07434,1998-06-07 00:00:00,15,1014.6,0.4,88,13,11000,18.52,,,270,,,,,,,,,,,wg-a,,,,AAXX 07004 07434 12/61 /2710 10150 20130 39677 40146 52004 60006 90000=
07434,1998-06-07 03:00:00,14,1014.9,0.1,94,13,11000,18.52,,,250,,,,,,,,,,,wg-a,,,,AAXX 07034 07434 12/61 /2510 10140 20130 39678 40149 53001 60006 90300=
07434,1998-06-07 06:00:00,14,1015.7,0.9,94,13,10000,11.112,,,260,13.2,18.2,,,,,,,,25,wg-a,,,,AAXX 07064 07434 02360 72606 10140 20130 39687 40157 53009 61000 72586 878// 90600 333 10182 20132 6100=
07434,1998-06-07 09:00:00,15,1017.6,1.9,72,10,40000,14.816,,,280,,,,0,,,,,,1,wg-a,,,,AAXX 07094 07434 12582 /2808 10150 20100 39706 40176 51019 60007 70186 86800 90900=
07434,1998-06-07 12:00:00,17,1018.1,0.7,55,8,40000,14.816,,,270,,,,,,,,,,1,wg-a,,,,AAXX 07124 07434 12582 52708 10170 20080 39713 40181 51007 60006 70186 85800 91200=
07434,1998-06-07 15:00:00,18,1018.2,0.3,52,8,50000,22.224,,,270,,,,,,,,,,,wg-a,,,,AAXX 07154 07434 12684 52712 10180 20080 39716 40182 53003 60006 85800 91500=
07434,1998-06-07 18:00:00,15,1019.6,0.9,72,10,50000,14.816,,,280,13.2,18.5,,,,,,,,,wg-a,,,,AAXX 07184 07434 12684 72808 10150 20100 39725 40196 53009 60006 87800 91800 333 10185 20132=
07434,1998-06-07 21:00:00,13,1021.8,1.8,82,10,40000,3.704,,,250,,,,,,,,,,,wg-a,,,,AAXX 07214 07434 12582 /2502 10130 20100 39743 40218 51018 60006 86800 92100=
07434,1998-06-08 00:00:00,13,1022.2,0.3,82,10,20000,7.408,,,260,,,,,,,,,,,wg-a,,,,AAXX 08004 07434 12570 /2604 10130 20100 39746 40222 50003 60006 86800 90000=
07434,1998-06-08 03:00:00,12,1022.2,-0.1,94,11,8000,7.408,,,280,,,,,,,,,,,wg-a,,,,AAXX 08034 07434 12258 72804 10120 20110 39745 40222 55001 60006 876// 90300=
07434,1998-06-08 06:00:00,12,1022.3,0.2,94,11,11000,7.408,,,260,11.7,15.2,,,,,,,,,wg-a,,,,AAXX 08064 07434 02/61 /2604 10120 20110 39747 40223 53002 60006 90600 333 10152 20117 60004=
07434,1998-06-08 09:00:00,15,1022.8,0.8,72,10,500,7.408,,,270,,,,,,,,,,,wg-a,,,,AAXX 08094 07434 12500 72704 10150 20100 39755 40228 53008 60006 86801 90900=
07434,1998-06-08 12:00:00,19,1021.9,-0.3,56,10,60000,11.112,,,210,,,,,,,,,,,wg-a,,,,AAXX 08124 07434 12686 /2106 10190 20100 39752 40219 58003 60006 85201 91200=
07434,1998-06-08 15:00:00,19,1020.5,-1.3,52,9,75000,14.816,,,220,,,,,,,,,,,wg-a,,,,AAXX 08154 07434 12689 /2208 10190 20090 39739 40205 56013 60006 85201 91500=
07434,1998-06-08 18:00:00,18,1020.6,-0,56,9,75000,7.408,,,250,12.2,19.7,,,,,,,,,wg-a,,,,AAXX 08184 07434 12789 52504 10180 20090 39739 40206 55000 60006 81531 91800 333 10197 20122=
07434,1998-06-08 21:00:00,16,1021.5,0.5,68,10,50000,3.704,,,240,,,,,,,,,,,wg-a,,,,AAXX 08214 07434 12784 62402 10160 20100 39744 40215 53005 60006 84531 92100=
07434,1998-06-09 03:00:00,13,1020.1,-0.9,88,11,50000,3.704,,,150,,,,,,,,,,,wg-a,,,,AAXX 09034 07434 12/84 71502 10130 20110 39727 40201 56009 60006 86032 90300=
07434,1998-06-09 06:00:00,14,1019.7,-0.3,82,11,500,7.408,,,180,12.6,18.5,,,,,,,,,wg-a,,,,AAXX 09064 07434 02800 61804 10140 20110 39724 40197 57003 60006 81532 90600 333 10185 20126 60004=
07434,1998-06-09 09:00:00,20,1017.9,-0.8,53,10,40000,14.816,,,200,,,,,,,,,,,wg-a,,,,AAXX 09094 07434 12/82 42008 10200 20100 39716 40179 58008 60006 82032 90900=
07434,1998-06-09 12:00:00,24,1015.1,-2,54,14,45000,22.224,,,200,,,,,,,,,,,wg-a,,,,AAXX 09124 07434 12/83 32012 10240 20140 39696 40151 58020 60006 81032 91200=
07434,1998-06-09 15:00:00,25,1012.8,-1.9,54,15,40000,25.928,,,220,,,,,,,,,,,wg-a,,,,AAXX 09154 07434 12682 42214 10250 20150 39677 40128 56019 60006 81182 91500=
07434,1998-06-09 18:00:00,24,1011.4,-1.6,54,14,40000,18.52,,,240,13.8,25.6,,,,,,,,,wg-a,,,,AAXX 09184 07434 12782 22410 10240 20140 39661 40114 56016 60006 81132 91800 333 10256 20138=
07434,1998-06-09 21:00:00,21,1011.2,-0.6,69,15,40000,11.112,,,270,,,,,,,,,,,wg-a,,,,AAXX 09214 07434 12682 /2706 10210 20150 39655 40112 56006 60006 84532 92100=
07434,1998-06-10 00:00:00,15,1012.1,0,100,15,40000,11.112,,,250,,,,3,,,,,,60,wg-a,,,,AAXX 10004 07434 02482 72506 10150 20150 39655 40121 50000 60036 76061 8453/ 90000 333 60037=
07434,1998-06-10 03:00:00,15,1011.5,-0.7,94,14,10000,11.112,,,240,,,,5,,,,,,21,wg-a,,,,AAXX 10034 07434 12360 72406 10150 20140 39648 40115 56007 60057 72162 875// 90300=
07434,1998-06-10 06:00:00,13,1012.3,0.5,94,12,20000,14.816,,,250,13.1,24.3,,,,,,,,60,wg-a,,,,AAXX 10064 07434 02370 72508 10130 20120 39653 40123 53005 61000 76062 878// 90600 333 10243 20131 6009=
07434,1998-06-10 09:00:00,16,1012.8,0.8,72,11,40000,14.816,,,250,,,,,,,,,,1,wg-a,,,,AAXX 10094 07434 02482 62508 10160 20110 39661 40128 51008 61000 70162 86200 90900 333 ////=
07434,1998-06-10 12:00:00,17,1011.8,-0.7,59,9,60000,18.52,,,260,,,,,,,,,,1,wg-a,,,,AAXX 10124 07434 02586 62610 10170 20090 39654 40118 56007 61000 70162 86200 91200 333 ////=
07434,1998-06-10 15:00:00,18,1010.6,-1,64,11,60000,18.52,,,260,,,,,,,,,,,wg-a,,,,AAXX 10154 07434 12686 52610 10180 20110 39644 40106 56010 60006 85800 91500=
07434,1998-06-10 18:00:00,14,1011.4,0.1,77,10,40000,14.816,,,250,12.6,18.9,,,,,,,,25,wg-a,,,,AAXX 10184 07434 02582 42508 10140 20100 39645 40114 50001 61000 72586 83830 91800 333 10189 20126 6001=
07434,1998-06-10 21:00:00,12,1012.1,0.4,88,10,20000,18.52,,,250,,,,0,,,,,,3,wg-a,,,,AAXX 10214 07434 12470 72510 10120 20100 39649 40121 53004 60007 70386 878// 92100=
07434,1998-06-11 00:00:00,11,1011.2,-1.1,94,10,20000,18.52,,,250,,,,2,,,,,,21,wg-a,,,,AAXX 11004 07434 02270 72510 10110 20100 39638 40112 58011 60036 72186 8573/ 90000 333 60027=
07434,1998-06-11 03:00:00,10,1011.1,-0.3,93,9,20000,18.52,,,280,,,,1,,,,,,,wg-a,,,,AAXX 11034 07434 12370 72810 10100 20090 39635 40111 55003 60017 85631 90300=
07434,1998-06-11 06:00:00,10,1011.9,0.8,93,9,18000,18.52,,,280,9.6,14.3,,,,,5,,,3,wg-a,,,,AAXX 11064 07434 02368 72810 10100 20090 39643 40119 53008 60006 70386 877// 90600 333 10143 20096 60054=
07434,1998-06-11 09:00:00,10,1012.6,0.7,93,9,20000,14.816,,,270,,,,1,,,,,,25,wg-a,,,,AAXX 11094 07434 12470 62708 10100 20090 39650 40126 51007 60017 72586 86800 90900=
07434,1998-06-11 12:00:00,10,1013.5,0.9,93,9,15000,14.816,,,270,,,,2,,,,,,25,wg-a,,,,AAXX 11124 07434 02465 /2708 10100 20090 39659 40135 53009 60036 72586 85940 91200 333 60027=
07434,1998-06-11 15:00:00,9,1013.9,0.1,87,7,25000,3.704,,,320,,,,3,,,,,,17,wg-a,,,,AAXX 11154 07434 12375 73202 10090 20070 39660 40139 53001 60037 71798 879// 91500=
07434,1998-06-11 18:00:00,10,1015.5,1.7,82,7,25000,18.52,,,290,7.7,13.8,,6,,,,,,1,wg-a,,,,AAXX 11184 07434 02375 72910 10100 20070 39677 40155 52017 60006 70198 879// 91800 333 10138 20077 60067=
07434,1998-06-11 21:00:00,8,1018.2,2.2,87,6,500,14.816,,,290,,,,,,,,,,,wg-a,,,,AAXX 11214 07434 12400 72908 10080 20060 39699 40182 52022 60006 874// 92100=
07434,1998-06-12 00:00:00,8,1019.6,1.3,87,6,20000,14.816,,,300,,,,,,,,,,60,wg-a,,,,AAXX 12004 07434 02470 83008 10080 20060 39712 40196 53013 61000 76062 888// 90000 333 6100=
07434,1998-06-12 03:00:00,7,1020.6,0.9,93,6,20000,14.816,,,310,,,,,,,,,,3,wg-a,,,,AAXX 12034 07434 02470 83108 10070 20060 39721 40206 51009 61000 70362 888// 90300 333 ////=
07434,1998-06-12 06:00:00,7,1023.1,2.4,93,6,15000,7.408,,,300,7.1,10.2,,,,,12,,,3,wg-a,,,,AAXX 12064 07434 02365 83004 10070 20060 39745 40231 51024 60006 70362 888// 90600 333 10102 20071 60124=
07434,1998-06-12 09:00:00,10,1024.1,1.5,71,5,35000,11.112,,,320,,,,,,,,,,,wg-a,,,,AAXX 12094 07434 12581 /3206 10100 20050 39760 40241 51015 60006 86800 90900=
07434,1998-06-12 12:00:00,13,1024.4,0.7,54,4,50000,11.112,,,310,,,,,,,,,,,wg-a,,,,AAXX 12124 07434 12684 /3106 10130 20040 39767 40244 51007 60006 86800 91200=
07434,1998-06-12 15:00:00,14,1023.9,-0.4,55,5,50000,11.112,,,280,,,,,,,,,,,wg-a,,,,AAXX 12154 07434 12684 52806 10140 20050 39763 40239 58004 60006 85800 91500=
07434,1998-06-12 18:00:00,13,1023.5,-0.4,62,6,50000,18.52,,,280,7.2,15.6,,,,,,,,,wg-a,,,,AAXX 12184 07434 12784 42810 10130 20060 39759 40235 57004 60006 84800 91800 333 10156 20072=
07434,1998-06-12 21:00:00,10,1024.4,0.4,76,6,500,11.112,,,280,,,,,,,,,,,wg-a,,,,AAXX 12214 07434 12/00 52806 10100 20060 39763 40244 53004 60006 84031 92100=
07434,1998-06-13 00:00:00,8,1024.3,-0.5,87,6,25000,7.408,,,300,,,,,,,,,,,wg-a,,,,AAXX 13004 07434 12/75 53004 10080 20060 39758 40243 58005 60006 84031 90000=
07434,1998-06-13 03:00:00,7,1022.7,-1.7,93,6,15000,7.408,,,250,,,,,,,,,,,wg-a,,,,AAXX 13034 07434 12/65 22504 10070 20060 39741 40227 56017 60006 81031 90300=
07434,1998-06-13 06:00:00,8,1021.5,-1.1,87,6,15000,3.704,,,100,6.7,13.4,,,,,,,,,wg-a,,,,AAXX 13064 07434 02/65 41002 10080 20060 39730 40215 56011 60006 83031 90600 333 10134 20067 60004=
07434,1998-06-13 12:00:00,12,1018.7,-1.2,76,8,25000,18.52,,,200,,,,0,,,,,,21,wg-a,,,,AAXX 13124 07434 02475 82010 10120 20080 39711 40187 58012 60006 72161 8682/ 91200 333 60007=
07434,1998-06-13 15:00:00,10,1017.5,-1.4,93,9,500,22.224,,,190,,,,3,,,,,,61,wg-a,,,,AAXX 13154 07434 12100 81912 10100 20090 39697 40175 57014 60037 76162 875// 91500=
07434,1998-06-13 18:00:00,11,1015.9,-1.4,94,10,7000,22.224,,,190,7.6,11.9,,,,,,,,58,wg-a,,,,AAXX 13184 07434 02257 81912 10110 20100 39683 40159 58014 61000 75865 877// 91800 333 10119 20076 6100=
07434,1998-06-13 21:00:00,11,1016.2,0.3,100,11,6000,11.112,,,230,,,,2,,,,,,20,wg-a,,,,AAXX 13214 07434 12156 82306 10110 20110 39686 40162 53003 60027 72065 887// 92100=
07434,1998-06-14 00:00:00,11,1016.5,0.3,100,11,10000,14.816,,,250,,,,,,,,,,1,wg-a,,,,AAXX 14004 07434 12260 72508 10110 20110 39689 40165 53003 60026 70165 877// 90000=
07434,1998-06-14 03:00:00,11,1015.9,-0.6,94,10,6000,11.112,,,250,,,,0,,,,,,51,wg-a,,,,AAXX 14034 07434 12256 72506 10110 20100 39683 40159 56006 60007 75152 877// 90300=
07434,1998-06-14 06:00:00,11,1015.6,-0.3,94,10,12000,11.112,,,280,10.2,11.6,,,,,,,,25,wg-a,,,,AAXX 14064 07434 02262 72806 10110 20100 39680 40156 56003 61000 72586 878// 90600 333 10116 20102 6006=
07434,1998-06-14 09:00:00,13,1015.3,0.1,88,11,20000,14.816,,,240,,,,,,,,,,1,wg-a,,,,AAXX 14094 07434 02470 72408 10130 20110 39681 40153 51001 61000 70186 878// 90900 333 ////=
07434,1998-06-14 12:00:00,14,1014.8,-0.3,88,12,20000,14.816,,,240,,,,0,,,,,,25,wg-a,,,,AAXX 14124 07434 02470 62408 10140 20120 39678 40148 58003 60006 72586 86330 91200 333 60007=
07434,1998-06-14 15:00:00,13,1015.3,0.3,82,10,500,29.632,,51.856,260,,,,2,,,,,,25,wg-a,,,,AAXX 14154 07434 12400 72616 10130 20100 39681 40153 53003 60027 72586 878// 91500 333 91028=
07434,1998-06-14 18:00:00,14,1014.8,-0.3,77,10,500,18.52,,,250,10.9,15.5,,,,,,,,1,wg-a,,,,AAXX 14184 07434 12400 /2510 10140 20100 39678 40148 58003 60006 70186 86800 91800 333 10155 20109=
07434,1998-06-15 00:00:00,10,1016.7,0,93,9,10000,11.112,,,220,,,,0,,,,,,3,wg-a,,,,AAXX 15004 07434 02360 72206 10100 20090 39689 40167 50000 60016 70386 878// 90000 333 60007=
07434,1998-06-15 03:00:00,10,1015.8,-0.8,100,10,500,14.816,,,220,,,,,,,,,,,wg-a,,,,AAXX 15034 07434 12100 82208 10100 20100 39681 40158 57008 60006 877// 90300=
07434,1998-06-15 06:00:00,11,1016.2,0.4,94,10,10000,11.112,,,240,9.8,14.3,,,,,3,,,1,wg-a,,,,AAXX 15064 07434 02160 82406 10110 20100 39685 40162 52004 60006 70186 877// 90600 333 10143 20098 60034=
07434,1998-06-15 09:00:00,12,1016.2,0.3,94,11,12000,18.52,,,240,,,,1,,,,,,16,wg-a,,,,AAXX 15094 07434 12362 72410 10120 20110 39688 40162 51003 60017 71686 878// 90900=
07434,1998-06-15 12:00:00,14,1016.4,0.5,82,11,500,18.52,,,240,,,,1,,,,,,1,wg-a,,,,AAXX 15124 07434 02400 72410 10140 20110 39693 40164 51005 60026 70186 87801 91200 333 60017=
07434,1998-06-15 15:00:00,15,1016.7,0.5,82,12,40000,11.112,,,260,,,,3,,,,,,29,wg-a,,,,AAXX 15154 07434 12582 62606 10150 20120 39698 40167 53005 60037 72998 86903 91500=
07434,1998-06-15 18:00:00,16,1017.6,0.8,59,8,60000,18.52,,,280,10.7,16.3,,2,,,,,,1,wg-a,,,,AAXX 15184 07434 02586 32810 10160 20080 39706 40176 53008 60006 70198 82901 91800 333 10163 20107 60027=
07434,1998-06-15 21:00:00,12,1020.5,2.3,88,10,20000,11.112,,,280,,,,,,,,,,,wg-a,,,,AAXX 15214 07434 12470 52806 10120 20100 39729 40205 53023 60006 85800 92100=
07434,1998-06-16 00:00:00,10,1022,1,93,9,10000,11.112,,,280,,,,,,,,,,,wg-a,,,,AAXX 16004 07434 12560 32806 10100 20090 39739 40220 51010 60006 83500 90000=
07434,1998-06-16 03:00:00,9,1022.5,0.4,100,9,500,11.112,,,280,,,,,,,,,,,wg-a,,,,AAXX 16034 07434 12100 82806 10090 20090 39743 40225 53004 60006 876// 90300=
07434,1998-06-16 06:00:00,9,1024.1,1.4,93,8,4000,3.704,,,190,8.5,15.5,,,,,7,,,10,wg-a,,,,AAXX 16064 07434 02240 71902 10090 20080 39757 40241 53014 60006 71041 876// 90600 333 10155 20085 60074=
07434,1998-06-16 09:00:00,11,1025.1,1.4,94,10,8000,11.112,,,230,,,,,,,,,,,wg-a,,,,AAXX 16094 07434 12258 /2306 10110 20100 39771 40251 51014 60006 86800 90900=
07434,1998-06-16 12:00:00,16,1024.5,0.2,55,7,35000,14.816,,,290,,,,,,,,,,,wg-a,,,,AAXX 16124 07434 12681 /2908 10160 20070 39773 40245 51002 60006 85100 91200=
07434,1998-06-16 15:00:00,17,1024.7,0.3,52,7,40000,14.816,,,280,,,,,,,,,,,wg-a,,,,AAXX 16154 07434 12682 /2808 10170 20070 39776 40247 53003 60006 85800 91500=
07434,1998-06-16 18:00:00,16,1025.1,0.3,59,8,50000,7.408,,,290,8.7,17.5,,,,,,,,,wg-a,,,,AAXX 16184 07434 12684 52904 10160 20080 39779 40251 53003 60006 84801 91800 333 10175 20087=
07434,1998-06-16 21:00:00,12,1027.3,1.5,71,7,40000,7.408,,,300,,,,,,,,,,,wg-a,,,,AAXX 16214 07434 12682 23004 10120 20070 39794 40273 53015 60006 81201 92100=
07434,1998-06-17 00:00:00,10,1028.2,0.4,82,7,25000,11.112,,,300,,,,,,,,,,,wg-a,,,,AAXX 17004 07434 12/75 13006 10100 20070 39798 40282 50004 60006 80001 90000=
07434,1998-06-17 03:00:00,8,1028.4,-0.1,93,7,20000,0,,,0,,,,,,,,,,,wg-a,,,,AAXX 17034 07434 12/70 40000 10080 20070 39797 40284 55001 60006 80001 90300=
07434,1998-06-17 06:00:00,9,1028.7,0.4,93,8,10000,3.704,,,80,7.7,16.1,,,,,,,,,wg-a,,,,AAXX 17064 07434 02/60 40802 10090 20080 39801 40287 53004 60006 80001 90600 333 10161 20077 60004=
07434,1998-06-17 09:00:00,15,1027.8,0.2,63,8,25000,7.408,,,100,,,,,,,,,,,wg-a,,,,AAXX 17094 07434 12575 41004 10150 20080 39803 40278 50002 60006 82101 90900=
07434,1998-06-17 12:00:00,18,1027.5,0.2,52,8,50000,7.408,,,220,,,,,,,,,,,wg-a,,,,AAXX 17124 07434 12684 /2204 10180 20080 39805 40275 53002 60006 83101 91200=
07434,1998-06-17 15:00:00,19,1026.4,-0.9,52,9,50000,7.408,,,200,,,,,,,,,,,wg-a,,,,AAXX 17154 07434 12684 52004 10190 20090 39796 40264 56009 60006 83131 91500=
07434,1998-06-17 18:00:00,20,1025.7,-0.6,46,8,50000,7.408,,,300,8.9,20,,,,,,,,,wg-a,,,,AAXX 17184 07434 12684 43004 10200 20080 39790 40257 56006 60006 81101 91800 333 10200 20089=
07434,1998-06-17 21:00:00,15,1027,0.6,63,8,40000,7.408,,,360,,,,,,,,,,,wg-a,,,,AAXX 17214 07434 12/82 23604 10150 20080 39796 40270 53006 60006 80001 92100=
07434,1998-06-18 00:00:00,14,1027,-0.3,67,8,500,3.704,,,80,,,,,,,,,,,wg-a,,,,AAXX 18004 07434 12/00 10802 10140 20080 39793 40270 58003 60006 80001 90000=
07434,1998-06-18 03:00:00,12,1026.6,-0.6,82,9,25000,7.408,,,50,,,,,,,,,,,wg-a,,,,AAXX 18034 07434 12/75 20504 10120 20090 39787 40266 56006 60006 80001 90300=
07434,1998-06-18 06:00:00,13,1026.6,0.1,77,9,500,7.408,,,70,10.7,19.7,,,,,,,,,wg-a,,,,AAXX 18064 07434 02/00 40704 10130 20090 39788 40266 51001 60006 83031 90600 333 10197 20107 60004=
07434,1998-06-18 09:00:00,19,1025.8,0.3,52,9,500,7.408,,,150,,,,,,,,,,,wg-a,,,,AAXX 18094 07434 12/00 51504 10190 20090 39791 40258 50003 60006 81031 90900=
07434,1998-06-18 12:00:00,23,1025,-0.3,44,10,500,3.704,,,130,,,,,,,,,,,wg-a,,,,AAXX 18124 07434 12/00 51302 10230 20100 39788 40250 57003 60006 81032 91200=
07434,1998-06-18 15:00:00,24,1023.9,-0.8,38,9,50000,7.408,,,300,,,,,,,,,,,wg-a,,,,AAXX 18154 07434 12/84 53004 10240 20090 39780 40239 58008 60006 81032 91500=
07434,1998-06-18 18:00:00,23,1023.4,-0.6,44,10,50000,7.408,,,360,12.9,24.5,,,,,,,,,wg-a,,,,AAXX 18184 07434 12/84 63604 10230 20100 39774 40234 56006 60006 80002 91800 333 10245 20129=
07434,1998-06-18 21:00:00,20,1024,0.1,49,9,25000,11.112,,,30,,,,,,,,,,,wg-a,,,,AAXX 18214 07434 12/75 50306 10200 20090 39775 40240 53001 60006 80002 92100=
07434,1998-06-19 00:00:00,18,1023.9,-0.5,56,9,25000,7.408,,,60,,,,,,,,,,,wg-a,,,,AAXX 19004 07434 12/75 00604 10180 20090 39770 40239 57005 60006 80000 90000=
07434,1998-06-19 03:00:00,15,1023.2,-1.1,72,10,25000,7.408,,,50,,,,,,,,,,,wg-a,,,,AAXX 19034 07434 12/75 00504 10150 20100 39759 40232 57011 60006 80000 90300=
07434,1998-06-19 06:00:00,16,1023.1,0.1,72,11,60000,7.408,,,60,13.5,23.3,,,,,,,,,wg-a,,,,AAXX 19064 07434 02/86 10604 10160 20110 39760 40231 52001 60006 80001 90600 333 10233 20135 60004=
07434,1998-06-19 09:00:00,23,1022.2,0.2,50,12,500,7.408,,,80,,,,,,,,,,,wg-a,,,,AAXX 19094 07434 12/00 40804 10230 20120 39762 40222 53002 60006 80001 90900=
07434,1998-06-19 12:00:00,26,1021.3,-0.4,34,9,500,3.704,,,130,,,,,,,,,,,wg-a,,,,AAXX 19124 07434 12/00 41302 10260 20090 39758 40213 58004 60006 80001 91200=
07434,1998-06-19 15:00:00,29,1020,-0.9,23,6,500,7.408,,,130,,,,,,,,,,,wg-a,,,,AAXX 19154 07434 12/00 21304 10290 20060 39749 40200 57009 60006 80001 91500=
07434,1998-06-19 18:00:00,28,1019,-1,25,6,500,3.704,,,100,15.7,28.8,,,,,,,,,wg-a,,,,AAXX 19184 07434 12/00 21002 10280 20060 39739 40190 56010 60006 80001 91800 333 10288 20157=
07434,1998-06-19 21:00:00,23,1019.7,-0.1,50,12,25000,11.112,,,60,,,,,,,,,,,wg-a,,,,AAXX 19214 07434 12/75 30606 10230 20120 39738 40197 57001 60006 80001 92100=
07434,1998-06-20 00:00:00,19,1019.7,-0.5,68,13,25000,11.112,,,60,,,,,,,,,,,wg-a,,,,AAXX 20004 07434 12/75 30606 10190 20130 39733 40197 57005 60006 80001 90000=
07434,1998-06-20 03:00:00,18,1019.6,-0.4,68,12,25000,7.408,,,60,,,,,,,,,,,wg-a,,,,AAXX 20034 07434 12/75 40604 10180 20120 39729 40196 55004 60006 80001 90300=
07434,1998-06-20 06:00:00,19,1019.8,0.4,64,12,50000,11.112,,,90,17.3,28.2,,,,,,,,,wg-a,,,,AAXX 20064 07434 02/84 30906 10190 20120 39733 40198 51004 60006 80001 90600 333 10282 20173 60004=
07434,1998-06-20 09:00:00,26,1018.9,0.2,42,12,50000,14.816,,,140,,,,,,,,,,,wg-a,,,,AAXX 20094 07434 12/84 21408 10260 20120 39735 40189 51002 60006 80001 90900=
07434,1998-06-20 12:00:00,30,1017.4,-0.8,35,13,50000,18.52,,,160,,,,,,,,,,,wg-a,,,,AAXX 20124 07434 12/84 21610 10300 20130 39727 40174 58008 60006 80001 91200=
07434,1998-06-20 15:00:00,31,1016.9,-0.3,38,15,50000,18.52,,,180,,,,,,,,,,,wg-a,,,,AAXX 20154 07434 12/84 31810 10310 20150 39724 40169 56003 60006 80001 91500=
07434,1998-06-20 18:00:00,30,1017.1,-0,38,14,50000,11.112,,,160,18.6,31.1,,,,,,,,,wg-a,,,,AAXX 20184 07434 12/84 21606 10300 20140 39724 40171 54000 60006 80001 91800 333 10311 20186=
07434,1998-06-20 21:00:00,24,1019,1,50,13,50000,11.112,,,160,,,,,,,,,,,wg-a,,,,AAXX 20214 07434 12/84 21606 10240 20130 39734 40190 53010 60006 80001 92100=
07434,1998-06-21 00:00:00,21,1020.2,0.5,49,10,50000,11.112,,,130,,,,,,,,,,,wg-a,,,,AAXX 21004 07434 12/84 21306 10210 20100 39739 40202 50005 60006 80001 90000=
07434,1998-06-21 03:00:00,18,1020.5,-0.1,49,7,40000,11.112,,,130,,,,,,,,,,,wg-a,,,,AAXX 21034 07434 12/82 21306 10180 20070 39738 40205 57001 60006 80001 90300=
07434,1998-06-21 06:00:00,18,1021.2,0.7,52,8,50000,7.408,,,140,17.5,29.7,,,,,,,,,wg-a,,,,AAXX 21064 07434 02/84 61404 10180 20080 39745 40212 53007 60006 80004 90600 333 10297 20175 60004=
07434,1998-06-21 09:00:00,22,1021.1,0.6,50,11,40000,18.52,,,170,,,,,,,,,,,wg-a,,,,AAXX 21094 07434 12/82 61710 10220 20110 39751 40211 51006 60006 80002 90900=
07434,1998-06-21 12:00:00,25,1021.1,0.4,54,15,40000,14.816,,,220,,,,,,,,,,,wg-a,,,,AAXX 21124 07434 12882 72208 10250 20150 39755 40211 53004 60006 8458/ 91200=
07434,1998-06-21 15:00:00,26,1020.5,-0.4,58,17,500,14.816,,,210,,,,,,,,,,,wg-a,,,,AAXX 21154 07434 12/00 62108 10260 20170 39751 40205 55004 60006 80002 91500=
07434,1998-06-21 18:00:00,21,1022.4,1.2,78,17,15000,14.816,,,290,18.4,26.3,,,,,,,,,wg-a,,,,AAXX 21184 07434 12565 /2908 10210 20170 39763 40224 53012 60006 82182 91800 333 10263 20184=
07434,1998-06-21 21:00:00,18,1025,1.9,83,15,12000,11.112,,,290,,,,,,,,,,,wg-a,,,,AAXX 21214 07434 12/62 42906 10180 20150 39782 40250 53019 60006 82082 92100=
07434,1998-06-22 00:00:00,14,1026.8,1.1,94,13,10000,7.408,,,300,,,,,,,,,,,wg-a,,,,AAXX 22004 07434 12260 73004 10140 20130 39793 40268 50011 60006 876// 90000=
07434,1998-06-22 03:00:00,13,1026.5,-0.5,94,12,8000,7.408,,,280,,,,,,,,,,,wg-a,,,,AAXX 22034 07434 12158 72804 10130 20120 39788 40265 58005 60006 876// 90300=
07434,1998-06-22 06:00:00,13,1027,0.4,88,11,8000,0,,,0,12.4,21.4,,,,,,,,,wg-a,,,,AAXX 22064 07434 02258 70000 10130 20110 39792 40270 53004 60006 876// 90600 333 10214 20124 60004=
07434,1998-06-22 09:00:00,18,1026.3,0.2,77,14,12000,3.704,,,60,,,,,,,,,,,wg-a,,,,AAXX 22094 07434 12462 /0602 10180 20140 39794 40263 50002 60006 84100 90900=
07434,1998-06-22 12:00:00,21,1025,-0.8,53,11,25000,11.112,,,330,,,,,,,,,,,wg-a,,,,AAXX 22124 07434 12575 33306 10210 20110 39786 40250 56008 60006 83101 91200=
07434,1998-06-22 15:00:00,22,1024,-0.8,53,12,50000,11.112,,,330,,,,,,,,,,,wg-a,,,,AAXX 22154 07434 12684 43306 10220 20120 39778 40240 56008 60006 84101 91500=
07434,1998-06-22 18:00:00,21,1023.5,-0.6,56,12,40000,7.408,,,320,12.8,22.4,,,,,,,,,wg-a,,,,AAXX 22184 07434 12682 /3204 10210 20120 39772 40235 58006 60006 86801 91800 333 10224 20128=
07434,1998-06-22 21:00:00,18,1024.8,0.7,64,11,25000,7.408,,,310,,,,,,,,,,,wg-a,,,,AAXX 22214 07434 12775 73104 10180 20110 39779 40248 53007 60006 86501 92100=
07434,1998-06-23 00:00:00,15,1025.2,-0.1,77,11,20000,14.816,,,330,,,,,,,,,,,wg-a,,,,AAXX 23004 07434 12770 13308 10150 20110 39778 40252 58001 60006 81501 90000=
07434,1998-06-23 03:00:00,12,1024.7,-0.9,82,9,18000,3.704,,,330,,,,,,,,,,,wg-a,,,,AAXX 23034 07434 12768 63302 10120 20090 39769 40247 55009 60006 815/1 90300=
07434,1998-06-23 06:00:00,14,1024.3,-0.1,72,9,500,11.112,,,20,11.4,21,,,,,,,,,wg-a,,,,AAXX 23064 07434 02700 20206 10140 20090 39768 40243 56001 60006 81501 90600 333 10210 20114 60004=
07434,1998-06-23 09:00:00,18,1023.2,-0.3,64,11,500,7.408,,,320,,,,,,,,,,,wg-a,,,,AAXX 23094 07434 12500 23204 10180 20110 39765 40232 58003 60006 81801 90900=
07434,1998-06-23 12:00:00,20,1022.1,-0.8,56,11,500,7.408,,,290,,,,,,,,,,,wg-a,,,,AAXX 23124 07434 12600 52904 10200 20110 39757 40221 57008 60006 83201 91200=
07434,1998-06-23 15:00:00,23,1020.1,-1.5,47,11,500,11.112,,,300,,,,,,,,,,,wg-a,,,,AAXX 23154 07434 12600 43006 10230 20110 39742 40201 57015 60006 82101 91500=
07434,1998-06-23 18:00:00,23,1019.2,-0.9,44,10,500,7.408,,,340,13.9,23.1,,,,,,,,,wg-a,,,,AAXX 23184 07434 12600 /3404 10230 20100 39733 40192 58009 60006 81402 91800 333 10231 20139=
07434,1998-06-23 21:00:00,18,1019.6,-0.3,52,8,500,11.112,,,350,,,,,,,,,,,wg-a,,,,AAXX 23214 07434 12/00 63506 10180 20080 39730 40196 56003 60006 80002 92100=
07434,1998-06-24 00:00:00,17,1018.5,-1.3,52,7,500,3.704,,,70,,,,,,,,,,,wg-a,,,,AAXX 24004 07434 12/00 50702 10170 20070 39717 40185 58013 60006 80001 90000=
07434,1998-06-24 03:00:00,15,1017.5,-1.2,67,9,500,3.704,,,60,,,,,,,,,,,wg-a,,,,AAXX 24034 07434 12/00 40602 10150 20090 39705 40175 58012 60006 80001 90300=
07434,1998-06-24 06:00:00,16,1016.8,-0.5,68,10,500,7.408,,,80,14,22.6,,,,,,,,,wg-a,,,,AAXX 24064 07434 02/00 30804 10160 20100 39700 40168 56005 60006 80001 90600 333 10226 20140 60004=
07434,1998-06-24 09:00:00,22,1015.4,-0.4,50,11,500,7.408,,,140,,,,,,,,,,,wg-a,,,,AAXX 24094 07434 12/00 31404 10220 20110 39696 40154 58004 60006 80001 90900=
07434,1998-06-24 12:00:00,25,1013.6,-1.3,41,11,500,7.408,,,90,,,,,,,,,,,wg-a,,,,AAXX 24124 07434 12/00 10904 10250 20110 39683 40136 58013 60006 80001 91200=
07434,1998-06-24 15:00:00,26,1012.2,-1.1,45,13,500,7.408,,,290,,,,,,,,,,,wg-a,,,,AAXX 24154 07434 12600 22904 10260 20130 39672 40122 58011 60006 82101 91500=
07434,1998-06-24 18:00:00,26,1011.6,-0.7,42,12,500,11.112,,,280,15.9,26.9,,,,,,,,,wg-a,,,,AAXX 24184 07434 12/00 22806 10260 20120 39665 40116 56007 60006 80001 91800 333 10269 20159=
07434,1998-06-24 21:00:00,18,1013.7,0.9,73,13,500,14.816,,,310,,,,,,,,,,,wg-a,,,,AAXX 24214 07434 12700 53108 10180 20130 39674 40137 53009 60006 82581 92100=
07434,1998-06-25 00:00:00,15,1014.6,0.3,77,11,20000,11.112,,,300,,,,,,,,,,,wg-a,,,,AAXX 25004 07434 12/70 33006 10150 20110 39677 40146 51003 60006 80002 90000=
07434,1998-06-25 03:00:00,12,1015.1,0.1,94,11,15000,3.704,,,290,,,,,,,,,,,wg-a,,,,AAXX 25034 07434 12665 /2902 10120 20110 39678 40151 53001 60006 84502 90300=
07434,1998-06-25 09:00:00,14,1017.2,1.4,94,13,4000,11.112,,,330,,,,1,,,,,,10,wg-a,,,,AAXX 25094 07434 12140 83306 10140 20130 39700 40172 51014 60017 71052 887// 90900=
07434,1998-06-25 12:00:00,16,1017.3,0.4,82,13,15000,7.408,,,290,,,,,,,,,,1,wg-a,,,,AAXX 25124 07434 02465 72904 10160 20130 39704 40173 52004 60016 70152 878// 91200 333 61000=
07434,1998-06-25 15:00:00,17,1016.6,-0.5,63,10,40000,3.704,,,320,,,,,,,,,,,wg-a,,,,AAXX 25154 07434 12582 73202 10170 20100 39699 40166 58005 60006 878// 91500=
07434,1998-06-25 18:00:00,16,1016.6,-0.1,72,11,40000,7.408,,,280,13.4,17.1,,,,,,,,,wg-a,,,,AAXX 25184 07434 12682 72804 10160 20110 39698 40166 56001 60006 875// 91800 333 10171 20134=
07434,1998-06-25 21:00:00,15,1017.5,0.7,82,12,40000,3.704,,,270,,,,,,,,,,,wg-a,,,,AAXX 25214 07434 12682 72702 10150 20120 39705 40175 53007 60006 875// 92100=
07434,1998-06-26 00:00:00,14,1017.7,0.1,88,12,500,3.704,,,290,,,,,,,,,,,wg-a,,,,AAXX 26004 07434 12600 72902 10140 20120 39706 40177 53001 60006 875// 90000=
07434,1998-06-26 06:00:00,14,1017.1,0.2,77,10,500,3.704,,,50,11.9,16.2,,,,,1,,,,wg-a,,,,AAXX 26064 07434 02600 /0502 10140 20100 39699 40171 53002 60006 82501 90600 333 10162 20119 60014=
07434,1998-06-26 09:00:00,18,1016.6,0.2,59,10,500,7.408,,,230,,,,,,,,,,,wg-a,,,,AAXX 26094 07434 12500 /2304 10180 20100 39701 40166 51002 60006 83831 90900=
07434,1998-06-26 12:00:00,20,1016.1,-0.2,56,11,40000,11.112,,,240,,,,,,,,,,,wg-a,,,,AAXX 26124 07434 12682 42406 10200 20110 39699 40161 57002 60006 82101 91200=
07434,1998-06-26 15:00:00,21,1015.1,-0.7,49,10,40000,11.112,,,270,,,,,,,,,,,wg-a,,,,AAXX 26154 07434 12682 /2706 10210 20100 39692 40151 58007 60006 83101 91500=
07434,1998-06-26 18:00:00,20,1015,-0.3,53,10,40000,7.408,,,280,13.9,21.8,,,,,,,,,wg-a,,,,AAXX 26184 07434 12682 /2804 10200 20100 39689 40150 55003 60006 81101 91800 333 10218 20139=
07434,1998-06-26 21:00:00,17,1016.3,0.7,68,11,40000,7.408,,,310,,,,,,,,,,,wg-a,,,,AAXX 26214 07434 12/82 53104 10170 20110 39696 40163 53007 60006 80001 92100=
07434,1998-06-27 00:00:00,16,1015.9,-0.5,77,12,15000,3.704,,,320,,,,,,,,,,,wg-a,,,,AAXX 27004 07434 12665 73202 10160 20120 39691 40159 58005 60006 875// 90000=
07434,1998-06-27 03:00:00,14,1015.7,-0.5,82,11,15000,3.704,,,340,,,,,,,,,,,wg-a,,,,AAXX 27034 07434 12665 /3402 10140 20110 39686 40157 58005 60006 85500 90300=
07434,1998-06-27 09:00:00,17,1015.3,0.2,72,12,500,11.112,,,240,,,,,,,,,,,wg-a,,,,AAXX 27094 07434 12600 72406 10170 20120 39688 40153 53002 60006 875// 90900=
07434,1998-06-27 12:00:00,17,1015.6,0.3,72,12,500,11.112,,,280,,,,,,,,,,,wg-a,,,,AAXX 27124 07434 12500 72806 10170 20120 39691 40156 53003 60006 875// 91200=
07434,1998-06-27 15:00:00,21,1014.7,-0.4,60,13,25000,14.816,,,200,,,,,,,,,,,wg-a,,,,AAXX 27154 07434 12675 /2008 10210 20130 39687 40147 58004 60006 85530 91500=
07434,1998-06-27 18:00:00,20,1015.2,0.4,60,12,500,18.52,,,280,14.5,21.2,,,,,,,,,wg-a,,,,AAXX 27184 07434 12600 42810 10200 20120 39691 40152 53004 60006 83230 91800 333 10212 20145=
07434,1998-06-27 21:00:00,16,1018,2,72,11,15000,11.112,,,250,,,,,,,,,,,wg-a,,,,AAXX 27214 07434 12565 52506 10160 20110 39711 40180 53020 60006 84530 92100=
07434,1998-06-28 00:00:00,15,1018.9,0.8,88,13,15000,11.112,,,250,,,,,,,,,,,wg-a,,,,AAXX 28004 07434 12465 72506 10150 20130 39719 40189 51008 60006 875// 90000=
07434,1998-06-28 03:00:00,13,1020,0.6,94,12,8000,11.112,,,310,,,,0,,,,,,50,wg-a,,,,AAXX 28034 07434 12258 83106 10130 20120 39725 40200 53006 60007 75052 887// 90300=
07434,1998-06-28 06:00:00,13,1021.3,1.2,88,11,25000,3.704,,,340,12,20,,,,,,,,1,wg-a,,,,AAXX 28064 07434 02375 73402 10130 20110 39737 40213 52012 60006 70165 875// 90600 333 10200 20120 60004=
07434,1998-06-28 09:00:00,16,1021.5,0.8,68,10,40000,11.112,,,300,,,,,,,,,,,wg-a,,,,AAXX 28094 07434 12582 33006 10160 20100 39745 40215 52008 60006 83201 90900=
07434,1998-06-28 12:00:00,18,1021.2,0,59,10,40000,11.112,,,280,,,,,,,,,,,wg-a,,,,AAXX 28124 07434 12582 52806 10180 20100 39745 40212 50000 60006 85800 91200=
07434,1998-06-28 18:00:00,20,1020.5,-0.3,53,10,11000,7.408,,,280,12.6,20.9,,,,,,,,,wg-a,,,,AAXX 28184 07434 12/61 /2804 10200 20100 39741 40205 56003 60006 91800 333 10209 20126=
07434,1998-06-28 21:00:00,16,1021.7,0.6,68,10,40000,0,,,0,,,,,,,,,,,wg-a,,,,AAXX 28214 07434 12782 10000 10160 20100 39747 40217 53006 60006 81501 92100=
07434,1998-06-29 00:00:00,14,1022.1,0,82,11,500,7.408,,,330,,,,,,,,,,,wg-a,,,,AAXX 29004 07434 12/00 13304 10140 20110 39747 40221 50000 60006 80001 90000=
07434,1998-06-29 06:00:00,13,1021.8,0.1,82,10,20000,7.408,,,60,10.7,20.2,,,,,,,,,wg-a,,,,AAXX 29064 07434 02670 20604 10130 20100 39742 40218 53001 60006 81130 90600 333 10202 20107 60004=
07434,1998-06-29 09:00:00,19,1020.8,0,64,12,35000,7.408,,,250,,,,,,,,,,,wg-a,,,,AAXX 29094 07434 12581 22504 10190 20120 39742 40208 50000 60006 82100 90900=
07434,1998-06-29 12:00:00,22,1019.4,-0.8,46,10,40000,7.408,,,200,,,,,,,,,,,wg-a,,,,AAXX 29124 07434 12682 22004 10220 20100 39734 40194 58008 60006 81101 91200=
07434,1998-06-29 15:00:00,24,1017.9,-1.1,41,10,40000,7.408,,,320,,,,,,,,,,,wg-a,,,,AAXX 29154 07434 12782 23204 10240 20100 39723 40179 56011 60006 81101 91500=
07434,1998-06-29 18:00:00,24,1017.1,-0.8,41,10,40000,7.408,,,290,12.8,24.6,,,,,,,,,wg-a,,,,AAXX 29184 07434 12782 42904 10240 20100 39715 40171 56008 60006 815/1 91800 333 10246 20128=
07434,1998-06-29 21:00:00,18,1019.2,1.1,64,11,500,7.408,,,300,,,,,,,,,,,wg-a,,,,AAXX 29214 07434 12/00 23004 10180 20110 39726 40192 53011 60006 80001 92100=
07434,1998-06-30 00:00:00,15,1019.5,-0.2,77,11,25000,7.408,,,340,,,,,,,,,,,wg-a,,,,AAXX 30004 07434 12/75 63404 10150 20110 39724 40195 56002 60006 82084 90000=
07434,1998-06-30 03:00:00,15,1017.4,-1.9,77,11,25000,11.112,,,30,,,,,,,,,,,wg-a,,,,AAXX 30034 07434 12675 70306 10150 20110 39705 40174 56019 60006 875// 90300=
07434,1998-06-30 06:00:00,14,1017.7,0.1,82,11,25000,11.112,,,290,14,23.8,,,,,,,,,wg-a,,,,AAXX 30064 07434 02675 /2906 10140 20110 39706 40177 53001 60006 86500 90600 333 10238 20140 60004=
07434,1998-06-30 09:00:00,19,1017.5,0.5,64,12,500,11.112,,,260,,,,,,,,,,,wg-a,,,,AAXX 30094 07434 12500 52606 10190 20120 39711 40175 51005 60006 82502 90900=
07434,1998-06-30 12:00:00,21,1017.1,-0.1,56,12,500,11.112,,,300,,,,,,,,,,,wg-a,,,,AAXX 30124 07434 12600 53006 10210 20120 39710 40171 57001 60006 84102 91200=
07434,1998-06-30 15:00:00,21,1016.7,-0.4,53,11,40000,7.408,,,280,,,,,,,,,,,wg-a,,,,AAXX 30154 07434 12682 /2804 10210 20110 39706 40167 58004 60006 83102 91500=
07434,1998-06-30 18:00:00,21,1014.8,-1.7,49,10,40000,7.408,,,290,14.5,22.1,,,,,,,,,wg-a,,,,AAXX 30184 07434 12782 52904 10210 20100 39689 40148 56017 60006 814/2 91800 333 10221 20145=
07434,1998-06-30 21:00:00,17,1015.9,0.4,72,12,40000,7.408,,,260,,,,,,,,,,,wg-a,,,,AAXX 30214 07434 12/82 52604 10170 20120 39693 40159 53004 60006 80002 92100=
07434,1998-07-01 00:00:00,14,1016.1,-0.3,88,12,15000,3.704,,,250,,,,,,,,,,,wg-a,,,,AAXX 01004 07434 12/65 72502 10140 20120 39690 40161 55003 60006 85032 90000=
07434,1998-07-01 03:00:00,14,1011,-4.9,88,12,15000,14.816,,,40,,,,,,,,,,,wg-a,,,,AAXX 01034 07434 12765 70408 10140 20120 39641 40110 58049 60006 8357/ 90300=
07434,1998-07-01 06:00:00,14,1009.5,-1.4,88,12,15000,22.224,,,50,12.7,21.3,,,,,,,,61,wg-a,,,,AAXX 01064 07434 02765 70512 10140 20120 39627 40095 58014 61000 76162 82572 90600 333 10213 20127 6100=
07434,1998-07-01 09:00:00,18,1009.3,0.5,77,14,20000,11.112,,,120,,,,0,,,,,,3,wg-a,,,,AAXX 01094 07434 12/70 71206 10180 20140 39632 40093 50005 60007 70362 86071 90900=
07434,1998-07-01 12:00:00,24,1005.1,-3.1,50,13,40000,18.52,,,40,,,,,,,,,,1,wg-a,,,,AAXX 01124 07434 12/82 20410 10240 20130 39601 40051 58031 60006 70161 81081 91200=
07434,1998-07-01 15:00:00,21,1006.3,0.7,69,15,20000,11.112,,,300,,,,,,,,,,60,wg-a,,,,AAXX 01154 07434 02670 83006 10210 20150 39608 40063 53007 61000 76061 8397/ 91500 333 ////=
07434,1998-07-01 18:00:00,19,1005.9,-0.6,83,16,18000,7.408,,,50,13.6,25.7,,,,,,,,16,wg-a,,,,AAXX 01184 07434 02668 70504 10190 20160 39602 40059 55006 61000 71686 8597/ 91800 333 10257 20136 6000=
07434,1998-07-01 21:00:00,18,1007.2,1,83,15,15000,11.112,,,80,,,,,,,,,,,wg-a,,,,AAXX 01214 07434 12765 70806 10180 20150 39612 40072 53010 60006 8557/ 92100=
07434,1998-07-02 00:00:00,17,1008.1,0.7,88,15,15000,3.704,,,90,,,,,,,,,,,wg-a,,,,AAXX 02004 07434 12465 70902 10170 20150 39619 40081 53007 60006 875// 90000=
07434,1998-07-02 03:00:00,17,1008.3,0.2,94,16,9000,3.704,,,140,,,,,,,,,,,wg-a,,,,AAXX 02034 07434 12259 81402 10170 20160 39621 40083 51002 60006 876// 90300=
07434,1998-07-02 06:00:00,17,1009.5,1.1,88,15,6000,14.816,,,220,16.3,19.5,,,,,1,,,,wg-a,,,,AAXX 02064 07434 02256 82208 10170 20150 39632 40095 52011 60006 878// 90600 333 10195 20163 60014=
07434,1998-07-02 09:00:00,19,1010.4,1.2,73,14,25000,14.816,,,200,,,,,,,,,,,wg-a,,,,AAXX 02094 07434 12475 72008 10190 20140 39644 40104 51012 60006 878// 90900=
07434,1998-07-02 12:00:00,22,1010.6,0.6,60,14,40000,18.52,,,180,,,,,,,,,,,wg-a,,,,AAXX 02124 07434 12582 51810 10220 20140 39650 40106 51006 60006 83231 91200=
07434,1998-07-02 18:00:00,22,1010.6,0.1,50,11,60000,14.816,,,250,16.5,23.7,,,,,,,,,wg-a,,,,AAXX 02184 07434 12686 32508 10220 20110 39650 40106 52001 60006 83203 91800 333 10237 20165=
07434,1998-07-03 00:00:00,15,1013.6,0.3,94,14,800,11.112,,,340,,,,,,,,,,46,wg-a,,,,AAXX 03004 07434 12108 /3406 10150 20140 39668 40136 51003 60006 74641 86600 90000=
07434,1998-07-03 03:00:00,14,1013.9,0.1,94,13,300,3.704,,,190,,,,,,,,,,45,wg-a,,,,AAXX 03034 07434 32/03 91902 10140 20130 39669 40139 52001 74542 89/// 90300=
07434,1998-07-03 06:00:00,14,1015.7,1.8,100,14,400,7.408,,,320,13.8,22.3,,,,,,,,45,wg-a,,,,AAXX 03064 07434 02/04 93204 10140 20140 39687 40157 53018 60006 74542 89/// 90600 333 10223 20138 60004=
07434,1998-07-03 09:00:00,18,1016.6,1.4,73,13,15000,14.816,,,270,,,,,,,,,,1,wg-a,,,,AAXX 03094 07434 12465 62708 10180 20130 39701 40166 53014 60006 70142 85201 90900=
07434,1998-07-03 12:00:00,21,1017.6,1.4,56,12,20000,14.816,,,280,,,,,,,,,,1,wg-a,,,,AAXX 03124 07434 12570 72808 10210 20120 39715 40176 51014 60006 70142 86803 91200=
07434,1998-07-03 15:00:00,20,1018.8,1,64,13,20000,11.112,,,310,,,,,,,,,,,wg-a,,,,AAXX 03154 07434 12570 73106 10200 20130 39725 40188 51010 60006 878// 91500=
07434,1998-07-03 18:00:00,20,1019.8,1,64,13,20000,11.112,,,340,14.2,21.4,,,,,,,,,wg-a,,,,AAXX 03184 07434 12570 33406 10200 20130 39735 40198 53010 60006 83800 91800 333 10214 20142=
07434,1998-07-04 00:00:00,15,1023.6,0.9,88,13,10000,7.408,,,360,,,,,,,,,,,wg-a,,,,AAXX 04004 07434 12660 43604 10150 20130 39764 40236 51009 60006 84800 90000=
07434,1998-07-04 03:00:00,14,1023.5,-0.4,82,11,15000,11.112,,,40,,,,,,,,,,,wg-a,,,,AAXX 04034 07434 12765 20406 10140 20110 39760 40235 56004 60006 81501 90300=
07434,1998-07-04 06:00:00,15,1024.2,0.8,77,11,10000,7.408,,,40,13.7,19.9,,,,,,,,,wg-a,,,,AAXX 04064 07434 02660 40404 10150 20110 39768 40242 53008 60006 84500 90600 333 10199 20137 60004=
07434,1998-07-04 09:00:00,19,1024.3,0.8,60,11,15000,11.112,,,30,,,,,,,,,,,wg-a,,,,AAXX 04094 07434 12665 20306 10190 20110 39776 40243 51008 60006 82100 90900=
07434,1998-07-04 12:00:00,21,1024.2,0.3,49,10,25000,11.112,,,270,,,,,,,,,,,wg-a,,,,AAXX 04124 07434 12675 /2706 10210 20100 39779 40242 51003 60006 85100 91200=
07434,1998-07-04 15:00:00,22,1023.1,-1,53,12,25000,11.112,,,310,,,,,,,,,,,wg-a,,,,AAXX 04154 07434 12675 33106 10220 20120 39769 40231 58010 60006 83400 91500=
07434,1998-07-04 18:00:00,22,1022.8,-0.3,43,9,25000,11.112,,,10,14.6,22.8,,,,,,,,,wg-a,,,,AAXX 04184 07434 12775 10106 10220 20090 39766 40228 55003 60006 81500 91800 333 10228 20146=
07434,1998-07-04 21:00:00,18,1023.7,0.3,56,9,20000,7.408,,,360,,,,,,,,,,,wg-a,,,,AAXX 04214 07434 12/70 13604 10180 20090 39769 40237 52003 60006 80001 92100=
07434,1998-07-05 00:00:00,16,1024,-0,68,10,18000,11.112,,,20,,,,,,,,,,,wg-a,,,,AAXX 05004 07434 12/68 10206 10160 20100 39769 40240 54000 60006 80001 90000=
07434,1998-07-05 03:00:00,14,1023.8,-0.6,77,10,15000,7.408,,,30,,,,,,,,,,,wg-a,,,,AAXX 05034 07434 12/65 00304 10140 20100 39763 40238 56006 60006 80000 90300=
07434,1998-07-05 06:00:00,15,1023.6,-0,77,11,10000,3.704,,,60,13,21.9,,,,,,,,,wg-a,,,,AAXX 05064 07434 02/60 00602 10150 20110 39763 40236 54000 60006 80000 90600 333 10219 20130 60004=
07434,1998-07-05 09:00:00,19,1023,0.1,64,12,15000,7.408,,,320,,,,,,,,,,,wg-a,,,,AAXX 05094 07434 12565 33204 10190 20120 39764 40230 50001 60006 83100 90900=
07434,1998-07-05 12:00:00,22,1021.8,-0.7,50,11,20000,11.112,,,280,,,,,,,,,,,wg-a,,,,AAXX 05124 07434 12670 /2806 10220 20110 39757 40218 58007 60006 81100 91200=
07434,1998-07-05 15:00:00,24,1020.3,-1.2,47,12,25000,11.112,,,320,,,,,,,,,,,wg-a,,,,AAXX 05154 07434 12/75 03206 10240 20120 39745 40203 56012 60006 80000 91500=
07434,1998-07-05 18:00:00,23,1019.1,-1.2,47,11,500,11.112,,,310,14.8,24.1,,,,,,,,,wg-a,,,,AAXX 05184 07434 12/00 03106 10230 20110 39733 40191 56012 60006 80000 91800 333 10241 20148=
07434,1998-07-05 21:00:00,19,1019.3,-0.5,60,11,25000,7.408,,,350,,,,,,,,,,,wg-a,,,,AAXX 05214 07434 12/75 03504 10190 20110 39728 40193 56005 60006 80000 92100=
07434,1998-07-06 00:00:00,17,1018.9,-0.7,68,11,25000,11.112,,,20,,,,,,,,,,,wg-a,,,,AAXX 06004 07434 12/75 00206 10170 20110 39721 40189 58007 60006 80000 90000=
07434,1998-07-06 03:00:00,15,1017.3,-1.8,77,11,25000,7.408,,,50,,,,,,,,,,,wg-a,,,,AAXX 06034 07434 12/75 00504 10150 20110 39703 40173 58018 60006 80000 90300=
07434,1998-07-06 06:00:00,15,1016.5,-0.8,77,11,20000,7.408,,,50,13.2,23.2,,,,,,,,,wg-a,,,,AAXX 06064 07434 02/70 00504 10150 20110 39695 40165 56008 60006 80000 90600 333 10232 20132 60004=
07434,1998-07-06 12:00:00,24,1012.7,-1.6,44,11,40000,7.408,,,260,,,,,,,,,,,wg-a,,,,AAXX 06124 07434 12/82 02604 10240 20110 39674 40127 58016 60006 80000 91200=
07434,1998-07-06 15:00:00,27,1010.5,-1.8,37,11,40000,7.408,,,290,,,,,,,,,,,wg-a,,,,AAXX 06154 07434 12/82 02904 10270 20110 39656 40105 56018 60006 80000 91500=
07434,1998-07-06 18:00:00,27,1008.4,-2,34,10,40000,3.704,,,320,14.8,27.2,,,,,,,,,wg-a,,,,AAXX 06184 07434 12/82 03202 10270 20100 39636 40084 56020 60006 80000 91800 333 10272 20148=
07434,1998-07-06 21:00:00,21,1009.6,0.3,53,11,500,14.816,,,20,,,,,,,,,,,wg-a,,,,AAXX 06214 07434 12/00 30208 10210 20110 39639 40096 53003 60006 83080 92100=
07434,1998-07-07 00:00:00,18,1010,-0.1,68,12,20000,11.112,,,20,,,,,,,,,,,wg-a,,,,AAXX 07004 07434 12670 70206 10180 20120 39638 40100 56001 60006 8227/ 90000=
07434,1998-07-07 03:00:00,15,1008.7,-1.7,82,12,15000,11.112,,,20,,,,,,,,,,,wg-a,,,,AAXX 07034 07434 12665 80206 10150 20120 39621 40087 57017 60006 8227/ 90300=
07434,1998-07-07 06:00:00,14,1010.2,1.3,88,12,500,7.408,,,160,12.8,26.7,,,,,,,,,wg-a,,,,AAXX 07064 07434 02600 71604 10140 20120 39634 40102 53013 60006 83872 90600 333 10267 20128 60004=
07434,1998-07-07 09:00:00,17,1011.2,1.5,77,13,500,14.816,,,350,,,,,,,,,,,wg-a,,,,AAXX 07094 07434 12500 43508 10170 20130 39649 40112 51015 60006 81802 90900=
07434,1998-07-07 12:00:00,18,1012.3,1.2,68,12,11000,11.112,,,320,,,,,,,,,,,wg-a,,,,AAXX 07124 07434 12/61 /3206 10180 20120 39661 40123 53012 60006 91200=
07434,1998-07-07 15:00:00,21,1012.4,0.5,53,11,500,14.816,,,320,,,,,,,,,,,wg-a,,,,AAXX 07154 07434 12600 53208 10210 20110 39666 40124 53005 60006 85800 91500=
07434,1998-07-07 18:00:00,18,1014.1,1.1,59,10,500,18.52,,,330,13.8,21,,,,,,,,,wg-a,,,,AAXX 07184 07434 12500 73310 10180 20100 39677 40141 53011 60006 878// 91800 333 10210 20138=
07434,1998-07-07 21:00:00,16,1016.8,2.3,77,12,500,7.408,,,290,,,,,,,,,,,wg-a,,,,AAXX 07214 07434 12500 72904 10160 20120 39700 40168 53023 60006 875// 92100=
07434,1998-07-08 00:00:00,15,1017.4,0.4,94,14,20000,11.112,,,290,,,,,,,,,,,wg-a,,,,AAXX 08004 07434 12270 72906 10150 20140 39704 40174 50004 60006 875// 90000=
07434,1998-07-08 03:00:00,15,1016.5,-0.8,94,14,20000,11.112,,,290,,,,,,,,,,,wg-a,,,,AAXX 08034 07434 12270 72906 10150 20140 39696 40165 56008 60006 876// 90300=
07434,1998-07-08 06:00:00,15,1017.4,0.8,94,14,4000,7.408,,,320,14.4,17.8,,,,,4,,,10,wg-a,,,,AAXX 08064 07434 02240 73204 10150 20140 39704 40174 53008 60006 71086 878// 90600 333 10178 20144 60044=
07434,1998-07-08 09:00:00,17,1017.8,0.8,82,14,10000,11.112,,,300,,,,,,,,,,,wg-a,,,,AAXX 08094 07434 12460 73006 10170 20140 39712 40178 51008 60006 878// 90900=
07434,1998-07-08 12:00:00,20,1017.6,0.2,60,12,25000,14.816,,,320,,,,,,,,,,,wg-a,,,,AAXX 08124 07434 12575 53208 10200 20120 39714 40176 52002 60006 85800 91200=
07434,1998-07-08 15:00:00,20,1017.4,-0.2,60,12,500,14.816,,,290,,,,,,,,,,,wg-a,,,,AAXX 08154 07434 12600 52908 10200 20120 39712 40174 55002 60006 85800 91500=
07434,1998-07-08 18:00:00,20,1017.3,-0.2,53,10,500,14.816,,,310,14.5,21,,,,,,,,,wg-a,,,,AAXX 08184 07434 12600 /3108 10200 20100 39710 40173 55002 60006 85801 91800 333 10210 20145=
07434,1998-07-08 21:00:00,16,1019.3,1.4,68,10,20000,7.408,,,280,,,,,,,,,,,wg-a,,,,AAXX 08214 07434 12670 72804 10160 20100 39724 40193 53014 60006 8355/ 92100=
07434,1998-07-09 00:00:00,13,1019.9,0,88,11,18000,11.112,,,300,,,,,,,,,,,wg-a,,,,AAXX 09004 07434 12/68 13006 10130 20110 39724 40199 50000 60006 80001 90000=
07434,1998-07-09 03:00:00,11,1019.7,-0.4,94,10,8000,14.816,,,300,,,,0,,,,,,,wg-a,,,,AAXX 09034 07434 12/58 /3008 10110 20100 39720 40197 57004 60007 80001 90300=
07434,1998-07-09 06:00:00,12,1020.1,0.5,94,11,2000,0,,,0,10.7,20,,,,,,,,10,wg-a,,,,AAXX 09064 07434 02/20 /0000 10120 20110 39725 40201 53005 60006 71000 80001 90600 333 10200 20107 60004=
07434,1998-07-09 09:00:00,17,1019.8,0.5,68,11,10000,11.112,,,250,,,,,,,,,,,wg-a,,,,AAXX 09094 07434 12460 /2506 10170 20110 39730 40198 51005 60006 85200 90900=
07434,1998-07-09 12:00:00,17,1019.7,-0,68,11,20000,14.816,,,260,,,,,,,,,,,wg-a,,,,AAXX 09124 07434 12570 72608 10170 20110 39730 40197 55000 60006 878// 91200=
07434,1998-07-09 15:00:00,18,1019.5,-0.2,68,12,15000,11.112,,,270,,,,,,,,,,,wg-a,,,,AAXX 09154 07434 12565 72706 10180 20120 39728 40195 57002 60006 878// 91500=
07434,1998-07-09 18:00:00,17,1019.3,-0.3,68,11,15000,11.112,,,270,11.9,18.2,,,,,,,,,wg-a,,,,AAXX 09184 07434 12565 72706 10170 20110 39725 40193 57003 60006 878// 91800 333 10182 20119=
07434,1998-07-09 21:00:00,15,1020.2,0.6,72,10,20000,3.704,,,270,,,,,,,,,,,wg-a,,,,AAXX 09214 07434 12570 72702 10150 20100 39731 40202 51006 60006 875// 92100=
07434,1998-07-10 00:00:00,14,1020.4,-0.1,77,10,15000,11.112,,,250,,,,,,,,,,,wg-a,,,,AAXX 10004 07434 12565 72506 10140 20100 39730 40204 58001 60006 875// 90000=
07434,1998-07-10 03:00:00,13,1019.9,-0.5,82,10,15000,11.112,,,240,,,,,,,,,,,wg-a,,,,AAXX 10034 07434 12265 72406 10130 20100 39725 40199 58005 60006 875// 90300=
07434,1998-07-10 06:00:00,12,1020.1,-0,94,11,3000,11.112,,,210,11.9,16.8,,,,,,,,51,wg-a,,,,AAXX 10064 07434 02130 82106 10120 20110 39725 40201 55000 61000 75152 877// 90600 333 10168 20119 6100=
07434,1998-07-10 09:00:00,14,1020.2,0.4,94,13,2000,11.112,,,220,,,,0,,,,,,10,wg-a,,,,AAXX 10094 07434 12120 82206 10140 20130 39729 40202 51004 60007 71055 877// 90900=
07434,1998-07-10 12:00:00,17,1019.7,0.1,82,14,500,14.816,,,260,,,,,,,,,,1,wg-a,,,,AAXX 10124 07434 02300 82608 10170 20140 39730 40197 51001 60006 70152 878// 91200 333 61000=
07434,1998-07-10 15:00:00,19,1018.5,-0.8,68,13,40000,14.816,,,250,,,,,,,,,,,wg-a,,,,AAXX 10154 07434 12482 72508 10190 20130 39722 40185 58008 60006 868// 91500=
07434,1998-07-10 18:00:00,19,1018.5,-0.1,73,14,40000,14.816,,,270,12,19.8,,,,,,,,,wg-a,,,,AAXX 10184 07434 12582 72708 10190 20140 39721 40185 55001 60006 878// 91800 333 10198 20120=
07434,1998-07-10 21:00:00,16,1019.9,0.9,88,14,500,7.408,,,270,,,,,,,,,,,wg-a,,,,AAXX 10214 07434 12400 72704 10160 20140 39730 40199 53009 60006 878// 92100=
07434,1998-07-11 00:00:00,15,1019.8,-0.2,94,14,500,11.112,,,260,,,,,,,,,,,wg-a,,,,AAXX 11004 07434 12300 72606 10150 20140 39728 40198 56002 60006 877// 90000=
07434,1998-07-11 03:00:00,14,1019.7,-0.3,100,14,2000,11.112,,,260,,,,0,,,,,,10,wg-a,,,,AAXX 11034 07434 12120 82606 10140 20140 39725 40197 57003 60007 71052 877// 90300=
07434,1998-07-11 06:00:00,15,1019.8,0.2,94,14,1100,11.112,,,250,14.2,18.6,,,,,,,,50,wg-a,,,,AAXX 11064 07434 02111 82506 10150 20140 39727 40198 53002 61000 75054 887// 90600 333 10186 20142 6002=
07434,1998-07-11 09:00:00,16,1019.9,0.4,100,16,15000,14.816,,,280,,,,0,,,,,,20,wg-a,,,,AAXX 11094 07434 12265 52808 10160 20160 39731 40199 51004 60007 72052 85801 90900=
07434,1998-07-11 12:00:00,20,1019.2,-0.2,64,13,50000,18.52,,,280,,,,,,,,,,1,wg-a,,,,AAXX 11124 07434 12584 /2810 10200 20130 39729 40192 58002 60006 70152 85801 91200=
07434,1998-07-11 15:00:00,21,1019.2,0.1,53,11,50000,18.52,,,250,,,,,,,,,,,wg-a,,,,AAXX 11154 07434 12684 /2510 10210 20110 39730 40192 52001 60006 84101 91500=
07434,1998-07-11 18:00:00,21,1018.4,-0.7,49,10,50000,11.112,,,260,14.5,21.5,,,,,,,,,wg-a,,,,AAXX 11184 07434 12684 32606 10210 20100 39723 40184 56007 60006 81402 91800 333 10215 20145=
07434,1998-07-11 21:00:00,17,1019.8,0.7,68,11,40000,11.112,,,270,,,,,,,,,,,wg-a,,,,AAXX 11214 07434 12/82 32706 10170 20110 39730 40198 53007 60006 81031 92100=
07434,1998-07-12 00:00:00,14,1019.6,-0.7,88,12,40000,11.112,,,260,,,,,,,,,,,wg-a,,,,AAXX 12004 07434 12/82 42606 10140 20120 39723 40196 58007 60006 81031 90000=
07434,1998-07-12 03:00:00,13,1019.7,-0,94,12,10000,11.112,,,250,,,,,,,,,,,wg-a,,,,AAXX 12034 07434 12360 72506 10130 20120 39723 40197 55000 60006 875// 90300=
07434,1998-07-12 06:00:00,13,1019.2,-0.4,94,12,15000,14.816,,,240,12.8,20.7,,,,,,,,,wg-a,,,,AAXX 12064 07434 02265 72408 10130 20120 39719 40192 58004 60006 875// 90600 333 10207 20128 60004=
07434,1998-07-12 09:00:00,14,1019.2,0.1,100,14,500,14.816,,,210,,,,,,,,,,10,wg-a,,,,AAXX 12094 07434 02100 72108 10140 20140 39720 40192 50001 61000 71052 875// 90900 333 ////=
07434,1998-07-12 12:00:00,18,1017.9,-0.6,83,15,25000,14.816,,,250,,,,,,,,,,1,wg-a,,,,AAXX 12124 07434 02475 /2508 10180 20150 39714 40179 58006 61000 70152 86100 91200 333 ////=
07434,1998-07-12 15:00:00,21,1016.2,-1.1,69,15,40000,11.112,,,240,,,,,,,,,,,wg-a,,,,AAXX 12154 07434 12582 42406 10210 20150 39703 40162 58011 60006 84500 91500=
07434,1998-07-12 18:00:00,23,1014.2,-1.7,61,15,40000,11.112,,,260,13.4,22.8,,,,,,,,,wg-a,,,,AAXX 12184 07434 12/82 12606 10230 20150 39686 40142 56017 60006 80001 91800 333 10228 20134=
07434,1998-07-12 21:00:00,18,1015.4,0.4,83,15,500,11.112,,,300,,,,,,,,,,,wg-a,,,,AAXX 12214 07434 12/00 13006 10180 20150 39690 40154 53004 60006 80001 92100=
07434,1998-07-13 00:00:00,15,1014.6,-1.2,94,14,20000,14.816,,,290,,,,,,,,,,,wg-a,,,,AAXX 13004 07434 12/70 22908 10150 20140 39678 40146 56012 60006 80001 90000=
07434,1998-07-13 06:00:00,14,1013.8,0.6,94,13,700,11.112,,,260,13.2,22.5,,,,,,,,42,wg-a,,,,AAXX 13064 07434 02007 82606 10140 20130 39668 40138 53006 60006 74241 876// 90600 333 10225 20132 60004=
07434,1998-07-13 09:00:00,15,1013.9,0.3,94,14,10000,11.112,,,230,,,,,,,,,,2,wg-a,,,,AAXX 13094 07434 12260 82306 10150 20140 39671 40139 53003 60006 70242 876// 90900=
07434,1998-07-13 12:00:00,18,1013.4,0.1,83,15,25000,22.224,,,220,,,,,,,,,,1,wg-a,,,,AAXX 13124 07434 12475 82212 10180 20150 39672 40134 50001 60006 70142 8552/ 91200=
07434,1998-07-13 15:00:00,18,1013.7,0.2,83,15,12000,18.52,,,230,,,,0,,,,,,61,wg-a,,,,AAXX 13154 07434 12462 82310 10180 20150 39674 40137 53002 60007 76162 8652/ 91500=
07434,1998-07-13 18:00:00,16,1014.6,0.6,94,15,15000,11.112,,,350,13.6,19,,,,,,,,21,wg-a,,,,AAXX 13184 07434 02265 73506 10160 20150 39680 40146 53006 61000 72162 878// 91800 333 10190 20136 6007=
07434,1998-07-13 21:00:00,14,1016.5,1.5,94,13,15000,3.704,,,350,,,,,,,,,,,wg-a,,,,AAXX 13214 07434 12565 43502 10140 20130 39695 40165 53015 60006 84800 92100=
07434,1998-07-14 00:00:00,12,1017.3,0.4,100,12,12000,7.408,,,320,,,,,,,,,,,wg-a,,,,AAXX 14004 07434 12662 33204 10120 20120 39699 40173 51004 60006 83500 90000=
07434,1998-07-14 03:00:00,11,1017.4,-0.1,100,11,10000,7.408,,,360,,,,0,,,,,,,wg-a,,,,AAXX 14034 07434 12660 /3604 10110 20110 39698 40174 58001 60007 85500 90300=
07434,1998-07-14 06:00:00,12,1018.3,0.9,88,10,6000,0,,,0,11.1,16.2,,,,,7,,,,wg-a,,,,AAXX 14064 07434 02656 30000 10120 20100 39707 40183 53009 60006 83500 90600 333 10162 20111 60074=
07434,1998-07-14 09:00:00,16,1018.7,1,63,9,20000,7.408,,,20,,,,,,,,,,,wg-a,,,,AAXX 14094 07434 12570 40204 10160 20090 39717 40187 51010 60006 84800 90900=
07434,1998-07-14 12:00:00,18,1018.2,-0.1,52,8,40000,14.816,,,330,,,,,,,,,,,wg-a,,,,AAXX 14124 07434 12682 43308 10180 20080 39716 40182 58001 60006 84200 91200=
07434,1998-07-14 15:00:00,19,1017.6,-0.5,46,7,50000,14.816,,,300,,,,,,,,,,,wg-a,,,,AAXX 14154 07434 12684 43008 10190 20070 39711 40176 58005 60006 84100 91500=
07434,1998-07-14 18:00:00,17,1017.8,-0.1,52,7,50000,7.408,,,320,11.4,19.4,,,,,,,,,wg-a,,,,AAXX 14184 07434 12784 43204 10170 20070 39710 40178 55001 60006 83101 91800 333 10194 20114=
07434,1998-07-14 21:00:00,14,1019.2,0.9,58,6,500,7.408,,,320,,,,,,,,,,,wg-a,,,,AAXX 14214 07434 12/00 33204 10140 20060 39719 40192 53009 60006 80001 92100=
07434,1998-07-15 00:00:00,11,1020.3,0.6,87,9,15000,14.816,,,300,,,,,,,,,,,wg-a,,,,AAXX 15004 07434 12/65 33008 10110 20090 39725 40203 51006 60006 80001 90000=
07434,1998-07-15 03:00:00,10,1020.1,-0.4,93,9,10000,3.704,,,310,,,,,,,,,,,wg-a,,,,AAXX 15034 07434 12/60 33102 10100 20090 39721 40201 56004 60006 80001 90300=
07434,1998-07-15 06:00:00,10,1020.5,0.4,93,9,12000,3.704,,,110,9.2,17.9,,,,,,,,,wg-a,,,,AAXX 15064 07434 02/62 21102 10100 20090 39725 40205 53004 60006 80001 90600 333 10179 20092 60004=
07434,1998-07-15 09:00:00,16,1019.9,0.5,72,11,20000,7.408,,,220,,,,,,,,,,,wg-a,,,,AAXX 15094 07434 12670 32204 10160 20110 39730 40199 50005 60006 82201 90900=
07434,1998-07-15 12:00:00,18,1019.8,0.2,56,9,40000,11.112,,,290,,,,,,,,,,,wg-a,,,,AAXX 15124 07434 12682 72906 10180 20090 39732 40198 53002 60006 86201 91200=
07434,1998-07-15 15:00:00,20,1018.4,-1.1,53,10,40000,7.408,,,260,,,,,,,,,,,wg-a,,,,AAXX 15154 07434 12682 62604 10200 20100 39721 40184 56011 60006 84202 91500=
07434,1998-07-15 18:00:00,20,1018,-0.4,49,9,40000,11.112,,,270,10.2,20.7,,,,,,,,,wg-a,,,,AAXX 15184 07434 12782 32706 10200 20090 39717 40180 58004 60006 81131 91800 333 10207 20102=
07434,1998-07-15 21:00:00,15,1019.5,0.6,63,8,500,11.112,,,310,,,,,,,,,,,wg-a,,,,AAXX 15214 07434 12/00 53106 10150 20080 39723 40195 53006 60006 83031 92100=
07434,1998-07-16 00:00:00,13,1018.8,-0.9,72,8,20000,7.408,,,270,,,,,,,,,,,wg-a,,,,AAXX 16004 07434 12/70 52704 10130 20080 39714 40188 57009 60006 84031 90000=
07434,1998-07-16 03:00:00,13,1017.8,-1,77,9,20000,3.704,,,250,,,,,,,,,,,wg-a,,,,AAXX 16034 07434 12570 72502 10130 20090 39704 40178 56010 60006 8653/ 90300=
07434,1998-07-16 06:00:00,12,1018.2,0.3,88,10,20000,11.112,,,240,10.8,20.1,,,,,,,,,wg-a,,,,AAXX 16064 07434 02/70 12406 10120 20100 39707 40182 53003 60006 80001 90600 333 10201 20108 60004=
07434,1998-07-16 09:00:00,17,1017.8,0.3,68,11,11000,18.52,,,240,,,,,,,,,,,wg-a,,,,AAXX 16094 07434 12/61 /2410 10170 20110 39710 40178 53003 60006 90900=
07434,1998-07-16 12:00:00,19,1017.6,0.2,68,13,20000,18.52,,,240,,,,,,,,,,,wg-a,,,,AAXX 16124 07434 12470 72410 10190 20130 39712 40176 50002 60006 878// 91200=
07434,1998-07-16 18:00:00,18,1017.4,-0.3,88,16,20000,18.52,,,250,12.3,19.4,,,,,,,,,wg-a,,,,AAXX 16184 07434 12570 72510 10180 20160 39709 40174 55003 60006 878// 91800 333 10194 20123=
07434,1998-07-17 00:00:00,15,1019.1,0.2,94,14,10000,11.112,,,240,,,,,,,,,,3,wg-a,,,,AAXX 17004 07434 12260 72406 10150 20140 39721 40191 50002 60016 70362 878// 90000=
07434,1998-07-17 03:00:00,15,1018.8,-0.3,94,14,10000,7.408,,,270,,,,,,,,,,,wg-a,,,,AAXX 17034 07434 12360 72704 10150 20140 39718 40188 56003 60006 878// 90300=
07434,1998-07-17 06:00:00,15,1019.3,0.4,88,13,25000,11.112,,,250,14.5,17.8,,,,,1,,,,wg-a,,,,AAXX 17064 07434 02375 72506 10150 20130 39722 40193 53004 60006 875// 90600 333 10178 20145 60014=
07434,1998-07-17 09:00:00,16,1019.7,0.6,82,13,25000,18.52,,,230,,,,,,,,,,,wg-a,,,,AAXX 17094 07434 12475 72310 10160 20130 39728 40197 51006 60006 878// 90900=
07434,1998-07-17 12:00:00,18,1019.5,0.2,77,14,25000,22.224,,,230,,,,,,,,,,,wg-a,,,,AAXX 17124 07434 12475 72312 10180 20140 39730 40195 50002 60006 878// 91200=
07434,1998-07-17 15:00:00,19,1018.9,-0.4,78,15,35000,18.52,,,220,,,,,,,,,,,wg-a,,,,AAXX 17154 07434 12581 72210 10190 20150 39726 40189 58004 60006 878// 91500=
07434,1998-07-17 18:00:00,21,1017.9,-0.8,73,16,35000,11.112,,,250,14.6,21,,,,,,,,,wg-a,,,,AAXX 17184 07434 12581 /2506 10210 20160 39718 40179 56008 60006 86800 91800 333 10210 20146=
07434,1998-07-17 21:00:00,18,1018.8,0.5,83,15,40000,7.408,,,270,,,,,,,,,,,wg-a,,,,AAXX 17214 07434 12582 42704 10180 20150 39723 40188 53005 60006 84800 92100=
07434,1998-07-18 00:00:00,15,1018.8,-0.5,94,14,40000,7.408,,,280,,,,,,,,,,,wg-a,,,,AAXX 18004 07434 12482 42804 10150 20140 39718 40188 58005 60006 84500 90000=
07434,1998-07-18 03:00:00,15,1017.9,-0.9,94,14,25000,3.704,,,260,,,,,,,,,,,wg-a,,,,AAXX 18034 07434 12475 /2602 10150 20140 39709 40179 58009 60006 86500 90300=
07434,1998-07-18 06:00:00,15,1018.1,0.2,100,15,500,7.408,,,260,14.7,20.5,,,,,,,,,wg-a,,,,AAXX 18064 07434 02100 72604 10150 20150 39711 40181 52002 60006 876// 90600 333 10205 20147 60004=
07434,1998-07-18 09:00:00,18,1017.8,0.2,83,15,500,3.704,,,250,,,,,,,,,,,wg-a,,,,AAXX 18094 07434 12300 72502 10180 20150 39713 40178 51002 60006 876// 90900=
07434,1998-07-18 12:00:00,22,1016.3,-0.8,69,16,40000,7.408,,,250,,,,,,,,,,,wg-a,,,,AAXX 18124 07434 12582 /2504 10220 20160 39705 40163 58008 60006 85100 91200=
07434,1998-07-18 15:00:00,26,1014.4,-1.2,54,16,40000,3.704,,,320,,,,,,,,,,,wg-a,,,,AAXX 18154 07434 12682 53202 10260 20160 39693 40144 56012 60006 82181 91500=
07434,1998-07-18 18:00:00,25,1014,-0.5,54,15,40000,11.112,,,340,14.9,25.9,,,,,,,,,wg-a,,,,AAXX 18184 07434 12/82 53406 10250 20150 39688 40140 55005 60006 83082 91800 333 10259 20149=
07434,1998-07-18 21:00:00,21,1015.3,0.6,64,14,40000,11.112,,,10,,,,,,,,,,,wg-a,,,,AAXX 18214 07434 12/82 50106 10210 20140 39694 40153 51006 60006 85082 92100=
07434,1998-07-19 00:00:00,19,1015.1,-0.5,73,14,40000,11.112,,,40,,,,,,,,,,,wg-a,,,,AAXX 19004 07434 12/82 30406 10190 20140 39689 40151 58005 60006 83080 90000=
07434,1998-07-19 06:00:00,18,1013.6,-0.4,83,15,40000,7.408,,,80,17.2,25,,,,,,,,,wg-a,,,,AAXX 19064 07434 02/82 50804 10180 20150 39674 40136 56004 60006 81082 90600 333 10250 20172 60004=
07434,1998-07-19 09:00:00,25,1012.6,0,57,16,50000,14.816,,,170,,,,,,,,,,,wg-a,,,,AAXX 19094 07434 12/84 01708 10250 20160 39674 40126 50000 60006 80000 90900=
07434,1998-07-19 12:00:00,30,1011,-0.7,46,17,50000,18.52,,,190,,,,,,,,,,,wg-a,,,,AAXX 19124 07434 12/84 01910 10300 20170 39667 40110 58007 60006 80000 91200=
07434,1998-07-19 15:00:00,32,1009.7,-1,43,18,40000,18.52,,,170,,,,,,,,,,,wg-a,,,,AAXX 19154 07434 12782 41710 10320 20180 39657 40097 56010 60006 83980 91500=
07434,1998-07-19 18:00:00,28,1009.9,-0.3,55,18,500,7.408,,,280,18.3,32.7,,0,,,,,,29,wg-a,,,,AAXX 19184 07434 02700 52804 10280 20180 39654 40099 55003 60006 72998 83980 91800 333 10327 20183 60007=
07434,1998-07-19 21:00:00,26,1011.4,1,61,18,20000,7.408,,,260,,,,,,,,,,,wg-a,,,,AAXX 19214 07434 12/70 22604 10260 20180 39664 40114 53010 60006 82080 92100=
07434,1998-07-20 03:00:00,22,1011.3,-1,73,17,10000,7.408,,,130,,,,,,,,,,17,wg-a,,,,AAXX 20034 07434 12760 81304 10220 20170 39658 40113 58010 60006 71791 8398/ 90300=
07434,1998-07-20 06:00:00,23,1010.5,-0.8,50,12,40000,18.52,,,130,21.2,29,,,,,1,,,1,wg-a,,,,AAXX 20064 07434 02782 71310 10230 20120 39650 40105 58008 60006 70198 8488/ 90600 333 10290 20212 60014=
07434,1998-07-20 09:00:00,26,1009.8,-0.2,42,12,500,11.112,,,150,,,,,,,,,,,wg-a,,,,AAXX 20094 07434 12700 71506 10260 20120 39648 40098 58002 60006 83531 90900=
07434,1998-07-20 12:00:00,31,1007.6,-1.4,31,12,20000,18.52,,,170,,,,,,,,,,,wg-a,,,,AAXX 20124 07434 12/70 71710 10310 20120 39634 40076 58014 60006 86081 91200=
07434,1998-07-20 15:00:00,35,1004.6,-2.3,20,9,35000,29.632,,,190,,,,,,,,,,,wg-a,,,,AAXX 20154 07434 12/81 11916 10350 20090 39611 40046 57023 60006 81030 91500=
07434,1998-07-20 18:00:00,31,1004.2,-0.8,29,11,35000,25.928,,,170,22.5,35.3,,,,,,,,,wg-a,,,,AAXX 20184 07434 12781 51714 10310 20110 39603 40042 55008 60006 85230 91800 333 10353 20225=
07434,1998-07-20 21:00:00,22,1010.1,4.2,60,14,15000,25.928,,,300,,,,,,,,,,,wg-a,,,,AAXX 20214 07434 12765 63014 10220 20140 39645 40101 53042 60006 83980 92100=
07434,1998-07-21 00:00:00,16,1010.8,-0.2,94,15,15000,7.408,,,40,,,,3,,,,,,80,wg-a,,,,AAXX 21004 07434 02765 70404 10160 20150 39643 40108 58002 60036 78098 8598/ 90000 333 60037=
07434,1998-07-21 03:00:00,16,1013.4,2.5,94,15,6000,14.816,,,190,,,,8,,,,,,80,wg-a,,,,AAXX 21034 07434 12556 81908 10160 20150 39668 40134 51025 60087 78096 8697/ 90300=
07434,1998-07-21 06:00:00,16,1014.1,0.6,94,15,8000,11.112,,,200,15.4,31.4,,,,,,,,80,wg-a,,,,AAXX 21064 07434 02258 72006 10160 20150 39674 40141 53006 61000 78098 8687/ 90600 333 10314 20154 6014=
07434,1998-07-21 09:00:00,16,1015.7,1.7,100,16,8000,14.816,,,210,,,,4,,,,,,60,wg-a,,,,AAXX 21094 07434 12158 72108 10160 20160 39691 40157 51017 60047 76086 877// 90900=
07434,1998-07-21 12:00:00,19,1016.4,1.1,83,16,25000,11.112,,,250,,,,0,,,,,,25,wg-a,,,,AAXX 21124 07434 02475 62506 10190 20160 39702 40164 53011 60046 72586 86800 91200 333 60007=
07434,1998-07-21 15:00:00,21,1016.6,0.5,64,14,40000,14.816,,,280,,,,,,,,,,,wg-a,,,,AAXX 21154 07434 12682 /2808 10210 20140 39707 40166 52005 60006 85130 91500=
07434,1998-07-21 18:00:00,21,1017.2,0.5,56,12,40000,14.816,,,280,15.6,22.3,,,,,,,,,wg-a,,,,AAXX 21184 07434 12682 42808 10210 20120 39712 40172 53005 60006 84100 91800 333 10223 20156=
07434,1998-07-21 21:00:00,16,1019.2,1.2,82,13,25000,7.408,,,290,,,,,,,,,,,wg-a,,,,AAXX 21214 07434 12/75 12904 10160 20130 39724 40192 51012 60006 80001 92100=
07434,1998-07-22 00:00:00,15,1020.4,0.8,82,12,20000,3.704,,,10,,,,,,,,,,,wg-a,,,,AAXX 22004 07434 12/70 10102 10150 20120 39732 40204 51008 60006 80001 90000=
07434,1998-07-22 03:00:00,13,1020.1,-0.6,94,12,15000,11.112,,,60,,,,,,,,,,,wg-a,,,,AAXX 22034 07434 12/65 10606 10130 20120 39726 40201 56006 60006 80001 90300=
07434,1998-07-22 06:00:00,13,1019.6,-0.4,94,12,12000,11.112,,,80,12.5,21.1,,,,,4,,,,wg-a,,,,AAXX 22064 07434 02/62 20806 10130 20120 39722 40196 58004 60006 80001 90600 333 10211 20125 60044=
07434,1998-07-22 09:00:00,20,1019.1,0.6,60,12,500,11.112,,,220,,,,,,,,,,,wg-a,,,,AAXX 22094 07434 12400 22206 10200 20120 39728 40191 53006 60006 81101 90900=
07434,1998-07-22 12:00:00,23,1017.7,-0.8,44,10,40000,14.816,,,210,,,,,,,,,,,wg-a,,,,AAXX 22124 07434 12682 42108 10230 20100 39720 40177 57008 60006 81102 91200=
07434,1998-07-22 15:00:00,25,1016.6,-0.8,47,13,40000,11.112,,,250,,,,,,,,,,,wg-a,,,,AAXX 22154 07434 12/82 72506 10250 20130 39712 40166 56008 60006 80002 91500=
07434,1998-07-22 18:00:00,25,1016.3,-0.3,47,13,40000,7.408,,,240,13.4,25.3,,1,,,,,,,wg-a,,,,AAXX 22184 07434 02/82 52404 10250 20130 39709 40163 55003 60006 82032 91800 333 10253 20134 60017=
07434,1998-07-22 21:00:00,21,1017.4,0.5,60,13,40000,7.408,,,250,,,,,,,,,,,wg-a,,,,AAXX 22214 07434 12/82 42504 10210 20130 39714 40174 53005 60006 82032 92100=
07434,1998-07-23 00:00:00,19,1017.5,-0.2,73,14,15000,14.816,,,290,,,,,,,,,,,wg-a,,,,AAXX 23004 07434 12/65 52908 10190 20140 39712 40175 56002 60006 85032 90000=
07434,1998-07-23 03:00:00,16,1017.7,-0.3,88,14,10000,11.112,,,290,,,,,,,,,,,wg-a,,,,AAXX 23034 07434 12/60 /2906 10160 20140 39709 40177 58003 60006 90300=
07434,1998-07-23 06:00:00,16,1018,0.3,94,15,12000,3.704,,,210,15.1,24.7,,,,,1,,,,wg-a,,,,AAXX 23064 07434 02262 62102 10160 20150 39712 40180 53003 60006 82631 90600 333 10247 20151 60014=
07434,1998-07-23 09:00:00,21,1017.9,0.6,64,14,20000,3.704,,,210,,,,,,,,,,,wg-a,,,,AAXX 23094 07434 12470 52102 10210 20140 39718 40179 50006 60006 81131 90900=
07434,1998-07-23 12:00:00,24,1017.3,0,65,17,500,14.816,,,280,,,,,,,,,,,wg-a,,,,AAXX 23124 07434 12600 62808 10240 20170 39718 40173 50000 60006 84231 91200=
07434,1998-07-23 15:00:00,24,1017.6,0.3,61,16,40000,18.52,,,280,,,,,,,,,,,wg-a,,,,AAXX 23154 07434 12682 /2810 10240 20160 39721 40176 53003 60006 85230 91500=
07434,1998-07-23 18:00:00,23,1018.1,0.4,65,16,40000,7.408,,,250,16.1,25.3,,,,,,,,,wg-a,,,,AAXX 23184 07434 12682 52504 10230 20160 39725 40181 53004 60006 84801 91800 333 10253 20161=
07434,1998-07-23 21:00:00,20,1019.8,1,73,15,20000,3.704,,,290,,,,,,,,,,,wg-a,,,,AAXX 23214 07434 12670 /2902 10200 20150 39735 40198 53010 60006 85801 92100=
07434,1998-07-24 00:00:00,17,1020.6,0.4,82,14,15000,3.704,,,270,,,,,,,,,,,wg-a,,,,AAXX 24004 07434 12565 /2702 10170 20140 39739 40206 50004 60006 85500 90000=
07434,1998-07-24 03:00:00,16,1020.2,-0.6,94,15,12000,3.704,,,150,,,,,,,,,,,wg-a,,,,AAXX 24034 07434 12362 71502 10160 20150 39733 40202 56006 60006 876// 90300=
07434,1998-07-24 06:00:00,16,1020.3,0.1,100,16,3000,7.408,,,180,15.5,23.5,,,,,,,,10,wg-a,,,,AAXX 24064 07434 02130 71804 10160 20160 39734 40203 53001 61000 71065 877// 90600 333 10235 20155 6001=
07434,1998-07-24 09:00:00,19,1019.9,0.2,83,16,12000,7.408,,,170,,,,,,,,,,1,wg-a,,,,AAXX 24094 07434 02462 /1704 10190 20160 39736 40199 50002 61000 70152 85200 90900 333 ////=
07434,1998-07-24 12:00:00,22,1019.4,-0.2,60,14,500,11.112,,,230,,,,,,,,,,1,wg-a,,,,AAXX 24124 07434 02600 /2306 10220 20140 39734 40194 57002 61000 70152 85201 91200 333 ////=
07434,1998-07-24 15:00:00,24,1018.8,-0.2,54,14,40000,11.112,,,240,,,,,,,,,,,wg-a,,,,AAXX 24154 07434 12682 52406 10240 20140 39732 40188 58002 60006 85201 91500=
07434,1998-07-24 18:00:00,22,1018.7,-0.3,65,15,40000,7.408,,,290,16,24.5,,,,,,,,,wg-a,,,,AAXX 24184 07434 12682 62904 10220 20150 39729 40187 55003 60006 85801 91800 333 10245 20160=
07434,1998-07-24 21:00:00,19,1020.4,1.1,88,17,9000,11.112,,,290,,,,1,,,,,,80,wg-a,,,,AAXX 24214 07434 12459 72906 10190 20170 39740 40204 53011 60017 78086 878// 92100=
07434,1998-07-25 00:00:00,16,1020.8,-0.1,94,15,9000,11.112,,,290,,,,,,,,,,1,wg-a,,,,AAXX 25004 07434 02659 32906 10160 20150 39739 40208 58001 60016 70186 83500 90000 333 61000=
07434,1998-07-25 03:00:00,16,1020.1,-0.6,100,16,500,7.408,,,40,,,,,,,,,,,wg-a,,,,AAXX 25034 07434 12200 80404 10160 20160 39733 40201 58006 60006 876// 90300=
07434,1998-07-25 06:00:00,16,1020.2,0.1,100,16,4000,3.704,,,90,15.6,22.3,,,,,1,,,10,wg-a,,,,AAXX 25064 07434 02240 80902 10160 20160 39734 40202 53001 60006 71011 875// 90600 333 10223 20156 60014=
07434,1998-07-25 09:00:00,19,1020,0.2,88,17,18000,3.704,,,30,,,,,,,,,,,wg-a,,,,AAXX 25094 07434 12468 70302 10190 20170 39736 40200 50002 60006 878// 90900=
07434,1998-07-25 12:00:00,23,1018.8,-0.6,61,15,25000,14.816,,,70,,,,,,,,,,,wg-a,,,,AAXX 25124 07434 12575 50708 10230 20150 39730 40188 58006 60006 85800 91200=
07434,1998-07-25 15:00:00,25,1017.1,-1.2,54,15,500,11.112,,,60,,,,,,,,,,,wg-a,,,,AAXX 25154 07434 12600 40606 10250 20150 39718 40171 58012 60006 84200 91500=
07434,1998-07-25 18:00:00,24,1016.3,-1,54,14,35000,11.112,,,40,16.4,25.4,,,,,,,,,wg-a,,,,AAXX 25184 07434 12681 /0406 10240 20140 39708 40163 58010 60006 81132 91800 333 10254 20164=
07434,1998-07-25 21:00:00,21,1017,0.2,56,12,35000,14.816,,,40,,,,,,,,,,,wg-a,,,,AAXX 25214 07434 12/81 20408 10210 20120 39710 40170 52002 60006 80001 92100=
07434,1998-07-26 00:00:00,20,1016.5,-0.7,53,10,35000,11.112,,,40,,,,,,,,,,,wg-a,,,,AAXX 26004 07434 12881 20406 10200 20100 39703 40165 58007 60006 81031 90000=
07434,1998-07-26 06:00:00,17,1015.5,-0.6,59,9,40000,3.704,,,90,17.4,23.9,,,,,,,,,wg-a,,,,AAXX 26064 07434 02/82 40902 10170 20090 39689 40155 56006 60006 80001 90600 333 10239 20174 60004=
07434,1998-07-26 09:00:00,22,1014.3,-0.4,57,13,20000,7.408,,,150,,,,,,,,,,,wg-a,,,,AAXX 26094 07434 12/70 61504 10220 20130 39685 40143 58004 60006 80002 90900=
07434,1998-07-26 12:00:00,25,1013.1,-0.6,47,13,20000,7.408,,,200,,,,,,,,,,,wg-a,,,,AAXX 26124 07434 12670 72004 10250 20130 39679 40131 58006 60006 82132 91200=
07434,1998-07-26 15:00:00,26,1012.3,-0.7,51,15,20000,7.408,,,260,,,,,,,,,,,wg-a,,,,AAXX 26154 07434 12670 72604 10260 20150 39672 40123 56007 60006 81182 91500=
07434,1998-07-26 18:00:00,23,1011.9,-0.7,57,14,25000,7.408,,,330,17.4,26.3,,,,,,,,,wg-a,,,,AAXX 26184 07434 12775 73304 10230 20140 39665 40119 56007 60006 8118/ 91800 333 10263 20174=
07434,1998-07-26 21:00:00,22,1012.9,0.7,60,14,20000,7.408,,,340,,,,,,,,,,,wg-a,,,,AAXX 26214 07434 12670 83404 10220 20140 39672 40129 53007 60006 875// 92100=
07434,1998-07-27 00:00:00,19,1012.7,-0.6,78,15,18000,11.112,,,300,,,,,,,,,,,wg-a,,,,AAXX 27004 07434 12668 73006 10190 20150 39666 40127 58006 60006 875// 90000=
07434,1998-07-27 03:00:00,17,1012.3,-0.6,82,14,15000,11.112,,,270,,,,,,,,,,,wg-a,,,,AAXX 27034 07434 12665 82706 10170 20140 39660 40123 55006 60006 875// 90300=
07434,1998-07-27 06:00:00,15,1013.6,0.9,94,14,7000,14.816,,,270,15.3,23.4,,,,,,,,3,wg-a,,,,AAXX 27064 07434 02257 82708 10150 20140 39669 40136 53009 60006 70362 8687/ 90600 333 10234 20153 60004=
07434,1998-07-27 09:00:00,17,1014.6,1.1,72,12,500,11.112,,,270,,,,,,,,,,,wg-a,,,,AAXX 27094 07434 12400 52706 10170 20120 39680 40146 51011 60006 84880 90900=
07434,1998-07-27 12:00:00,19,1015.4,1.2,64,12,40000,18.52,,,270,,,,,,,,,,,wg-a,,,,AAXX 27124 07434 12582 72710 10190 20120 39692 40154 51012 60006 86801 91200=
07434,1998-07-27 15:00:00,20,1015.1,-0.1,64,13,40000,11.112,,,270,,,,,,,,,,,wg-a,,,,AAXX 27154 07434 12582 72706 10200 20130 39691 40151 58001 60006 879// 91500=
07434,1998-07-27 18:00:00,17,1016.7,1,88,15,500,11.112,,,300,14.8,21.8,,,,,,,,81,wg-a,,,,AAXX 27184 07434 02200 83006 10170 20150 39701 40167 51010 61000 78186 879// 91800 333 10218 20148 6004=
07434,1998-07-27 21:00:00,15,1018,0.9,88,13,20000,11.112,,,270,,,,1,,,,,,1,wg-a,,,,AAXX 27214 07434 12470 32706 10150 20130 39710 40180 51009 60017 70186 83800 92100=
07434,1998-07-28 00:00:00,14,1019.1,0.8,88,12,15000,18.52,,,290,,,,,,,,,,1,wg-a,,,,AAXX 28004 07434 12665 /2910 10140 20120 39718 40191 51008 60016 70186 85500 90000=
07434,1998-07-28 03:00:00,13,1018.6,-0.5,100,13,10000,11.112,,,280,,,,,,,,,,,wg-a,,,,AAXX 28034 07434 12260 72806 10130 20130 39713 40186 57005 60006 876// 90300=
07434,1998-07-28 06:00:00,13,1018.8,0.1,94,12,10000,7.408,,,260,12.7,16.7,,,,,5,,,,wg-a,,,,AAXX 28064 07434 02260 72604 10130 20120 39714 40188 51001 60006 876// 90600 333 10167 20127 60054=
07434,1998-07-28 09:00:00,16,1018.8,0.6,77,12,15000,11.112,,,270,,,,,,,,,,,wg-a,,,,AAXX 28094 07434 12465 72706 10160 20120 39720 40188 51006 60006 84232 90900=
07434,1998-07-28 12:00:00,18,1018,-0.6,68,12,15000,14.816,,,240,,,,,,,,,,,wg-a,,,,AAXX 28124 07434 12565 72408 10180 20120 39714 40180 56006 60006 85232 91200=
07434,1998-07-28 15:00:00,16,1017.3,-0.9,88,14,10000,11.112,,,240,,,,0,,,,,,21,wg-a,,,,AAXX 28154 07434 12460 82406 10160 20140 39705 40173 56009 60007 72165 8457/ 91500=
07434,1998-07-28 18:00:00,15,1016.8,-0.6,100,15,7000,14.816,,,210,13,19,,,,,,,,50,wg-a,,,,AAXX 28184 07434 02257 82108 10150 20150 39699 40168 56006 61000 75065 8577/ 91800 333 10190 20130 6000=
07434,1998-07-28 21:00:00,15,1016.9,0.1,100,15,9000,7.408,,,240,,,,0,,,,,,50,wg-a,,,,AAXX 28214 07434 12159 82404 10150 20150 39700 40169 53001 60007 75052 887// 92100=
07434,1998-07-29 00:00:00,15,1016.7,-0.2,94,14,8000,7.408,,,250,,,,,,,,,,3,wg-a,,,,AAXX 29004 07434 02258 82504 10150 20140 39698 40167 58002 60016 70352 887// 90000 333 61000=
07434,1998-07-29 03:00:00,15,1016.6,-0.2,94,14,9000,11.112,,,270,,,,0,,,,,,60,wg-a,,,,AAXX 29034 07434 12259 82706 10150 20140 39696 40166 55002 60007 76062 888// 90300=
07434,1998-07-29 06:00:00,14,1017,0.3,94,13,20000,7.408,,,260,13.8,15.7,,,,,,,,20,wg-a,,,,AAXX 29064 07434 02270 72604 10140 20130 39699 40170 53003 61000 72065 878// 90600 333 10157 20138 6002=
07434,1998-07-29 09:00:00,15,1017.8,1,88,13,20000,14.816,,,280,,,,,,,,,,,wg-a,,,,AAXX 29094 07434 12470 72808 10150 20130 39709 40178 51010 60006 8/800 90900=
07434,1998-07-29 12:00:00,18,1017,-0.3,64,11,11000,18.52,,,240,,,,,,,,,,,wg-a,,,,AAXX 29124 07434 12/61 /2410 10180 20110 39706 40170 58003 60006 91200=
07434,1998-07-29 15:00:00,20,1015.5,-1.1,60,12,20000,18.52,,,260,,,,,,,,,,,wg-a,,,,AAXX 29154 07434 12570 42610 10200 20120 39695 40155 58011 60006 84500 91500=
07434,1998-07-29 18:00:00,20,1014.8,-0.7,64,13,20000,14.816,,,250,13.8,21.4,,,,,,,,,wg-a,,,,AAXX 29184 07434 12670 22508 10200 20130 39688 40148 55007 60006 82500 91800 333 10214 20138=
07434,1998-07-29 21:00:00,17,1016.1,0.6,77,13,20000,7.408,,,270,,,,,,,,,,,wg-a,,,,AAXX 29214 07434 12570 32704 10170 20130 39694 40161 53006 60006 81530 92100=
07434,1998-07-30 00:00:00,15,1016,-0.3,94,14,18000,7.408,,,250,,,,,,,,,,60,wg-a,,,,AAXX 30004 07434 02468 82504 10150 20140 39691 40160 58003 61000 76061 888// 90000 333 6100=
07434,1998-07-30 03:00:00,15,1014.8,-1.1,94,14,4000,11.112,,,220,,,,,,,,,,10,wg-a,,,,AAXX 30034 07434 02240 82206 10150 20140 39680 40148 58011 61000 71065 887// 90300 333 ////=
07434,1998-07-30 06:00:00,15,1014.6,-0.2,100,15,9000,14.816,,,220,15,20.5,,,,,,,,20,wg-a,,,,AAXX 30064 07434 02159 82208 10150 20150 39678 40146 55002 61000 72065 887// 90600 333 10205 20150 6100=
07434,1998-07-30 09:00:00,17,1014.5,0.2,94,16,8000,18.52,,,230,,,,,,,,,,50,wg-a,,,,AAXX 30094 07434 02258 82310 10170 20160 39680 40145 51002 61000 75052 887// 90900 333 ////=
07434,1998-07-30 12:00:00,16,1015.1,0.4,94,15,2000,11.112,,,320,,,,2,,,,,,58,wg-a,,,,AAXX 30124 07434 02220 83206 10160 20150 39684 40151 53004 60026 75865 877// 91200 333 60027=
07434,1998-07-30 18:00:00,17,1015.3,-0.1,88,15,20000,7.408,,,230,14.9,17.2,,0,,,,,,1,wg-a,,,,AAXX 30184 07434 02270 72304 10170 20150 39688 40153 55001 60006 70165 86801 91800 333 10172 20149 60007=
07434,1998-07-30 21:00:00,14,1017.1,1.2,94,13,20000,7.408,,,250,,,,,,,,,,,wg-a,,,,AAXX 30214 07434 12670 32504 10140 20130 39700 40171 53012 60006 83500 92100=
07434,1998-07-31 00:00:00,12,1018.4,0.8,88,10,20000,11.112,,,290,,,,0,,,,,,,wg-a,,,,AAXX 31004 07434 02670 32906 10120 20100 39708 40184 51008 60006 83500 90000 333 60007=
07434,1998-07-31 06:00:00,11,1018.7,0.5,94,10,1000,7.408,,,310,9.8,16.9,,,,,6,,,10,wg-a,,,,AAXX 31064 07434 02110 73104 10110 20100 39709 40187 53005 60006 71011 877// 90600 333 10169 20098 60064=
07434,1998-07-31 09:00:00,14,1018.7,0.6,88,12,10000,3.704,,,360,,,,,,,,,,1,wg-a,,,,AAXX 31094 07434 12460 73602 10140 20120 39715 40187 50006 60006 70142 871// 90900=
07434,1998-07-31 12:00:00,17,1018.3,0.1,68,11,500,7.408,,,330,,,,,,,,,,1,wg-a,,,,AAXX 31124 07434 12500 73304 10170 20110 39716 40183 50001 60006 70142 85801 91200=
07434,1998-07-31 15:00:00,19,1017.7,-0.3,52,9,40000,7.408,,,10,,,,,,,,,,,wg-a,,,,AAXX 31154 07434 12682 /0104 10190 20090 39713 40177 58003 60006 83802 91500=
07434,1998-07-31 18:00:00,19,1017.3,-0.4,56,10,40000,3.704,,,330,10.5,19.9,,,,,,,,,wg-a,,,,AAXX 31184 07434 12682 /3302 10190 20100 39709 40173 57004 60006 82802 91800 333 10199 20105=
07434,1998-07-31 21:00:00,16,1018.3,0.5,63,9,20000,3.704,,,20,,,,,,,,,,,wg-a,,,,AAXX 31214 07434 12/70 50202 10160 20090 39714 40183 53005 60006 80002 92100=
07434,1998-08-01 00:00:00,14,1017.7,-0.9,82,11,20000,7.408,,,340,,,,,,,,,,,wg-a,,,,AAXX 01004 07434 12/70 63404 10140 20110 39705 40177 58009 60006 80002 90000=
07434,1998-08-01 03:00:00,14,1016.2,-1.4,82,11,20000,14.816,,,10,,,,,,,,,,,wg-a,,,,AAXX 01034 07434 12/70 70108 10140 20110 39691 40162 56014 60006 84082 90300=
07434,1998-08-01 06:00:00,13,1015.8,-0.5,88,11,25000,3.704,,,60,12.8,18.6,,,,,,,,,wg-a,,,,AAXX 01064 07434 02775 70602 10130 20110 39686 40158 56005 60006 8357/ 90600 333 10186 20128 60004=
07434,1998-08-01 09:00:00,16,1016.1,0.7,77,12,25000,3.704,,,170,,,,,,,,,,,wg-a,,,,AAXX 01094 07434 12675 71702 10160 20120 39693 40161 51007 60006 82871 90900=
07434,1998-08-01 12:00:00,19,1015.1,-0.5,56,10,500,3.704,,,310,,,,,,,,,,,wg-a,,,,AAXX 01124 07434 12600 73102 10190 20100 39688 40151 58005 60006 85331 91200=
07434,1998-08-01 15:00:00,15,1016.5,0.8,88,13,10000,14.816,,,270,,,,1,,,,,,60,wg-a,,,,AAXX 01154 07434 12560 72708 10150 20130 39696 40165 53008 60017 76086 8637/ 91500=
07434,1998-08-01 18:00:00,16,1016.6,0.2,82,13,40000,7.408,,,260,13,19.7,,0,,,,,,3,wg-a,,,,AAXX 01184 07434 02682 72604 10160 20130 39698 40166 53002 60006 70386 8137/ 91800 333 10197 20130 60007=
07434,1998-08-01 21:00:00,15,1017.6,0.8,77,11,20000,3.704,,,100,,,,,,,,,,1,wg-a,,,,AAXX 01214 07434 02670 51002 10150 20110 39706 40176 53008 61000 70186 84830 92100 333 ////=
07434,1998-08-02 00:00:00,14,1017.7,-0.1,88,12,20000,3.704,,,170,,,,,,,,,,3,wg-a,,,,AAXX 02004 07434 02670 71702 10140 20120 39705 40177 58001 61000 70386 868// 90000 333 ////=
07434,1998-08-02 03:00:00,13,1018.2,0.3,94,12,10000,0,,,0,,,,,,,,,,,wg-a,,,,AAXX 02034 07434 12760 70000 10130 20120 39708 40182 53003 60006 8553/ 90300=
07434,1998-08-02 06:00:00,12,1018.7,0.4,100,12,1000,3.704,,,330,11.9,16,,,,,1,,,10,wg-a,,,,AAXX 02064 07434 02110 73302 10120 20120 39712 40187 53004 60006 71011 876// 90600 333 10160 20119 60014=
07434,1998-08-02 09:00:00,15,1018.9,0.7,88,13,8000,3.704,,,20,,,,,,,,,,1,wg-a,,,,AAXX 02094 07434 12258 /0202 10150 20130 39719 40189 53007 60006 70142 86100 90900=
07434,1998-08-02 12:00:00,19,1018.1,-0.2,68,13,15000,3.704,,,320,,,,,,,,,,1,wg-a,,,,AAXX 02124 07434 12665 /3202 10190 20130 39717 40181 58002 60006 70141 85200 91200=
07434,1998-08-02 15:00:00,19,1018.9,0.8,56,10,25000,14.816,,,20,,,,,,,,,,1,wg-a,,,,AAXX 02154 07434 12675 40208 10190 20100 39725 40189 51008 60006 70191 83980 91500=
07434,1998-08-02 18:00:00,19,1019.6,0.6,60,11,25000,3.704,,,110,12.3,19.8,,,,,,,,3,wg-a,,,,AAXX 02184 07434 12675 51102 10190 20110 39731 40196 53006 60006 70391 85930 91800 333 10198 20123=
07434,1998-08-02 21:00:00,14,1022.1,1.7,82,11,25000,11.112,,,350,,,,,,,,,,,wg-a,,,,AAXX 02214 07434 12675 43506 10140 20110 39748 40221 51017 60006 82830 92100=
07434,1998-08-03 00:00:00,14,1023.3,1.1,82,11,25000,11.112,,,10,,,,,,,,,,,wg-a,,,,AAXX 03004 07434 12/75 00106 10140 20110 39759 40233 51011 60006 80000 90000=
07434,1998-08-03 03:00:00,13,1024.2,0.6,82,10,25000,7.408,,,350,,,,,,,,,,,wg-a,,,,AAXX 03034 07434 12/75 03504 10130 20100 39765 40242 51006 60006 80000 90300=
07434,1998-08-03 06:00:00,12,1025.2,0.8,94,11,10000,0,,,0,11.4,18.5,,,,,,,,,wg-a,,,,AAXX 03064 07434 02/60 00000 10120 20110 39773 40252 53008 60006 80000 90600 333 10185 20114 60004=
07434,1998-08-03 09:00:00,17,1025.2,0.9,77,13,10000,11.112,,,340,,,,,,,,,,,wg-a,,,,AAXX 03094 07434 12/60 /3406 10170 20130 39782 40252 53009 60006 90900=
07434,1998-08-03 12:00:00,20,1024.7,0,56,11,500,14.816,,,360,,,,,,,,,,,wg-a,,,,AAXX 03124 07434 12600 43608 10200 20110 39782 40247 50000 60006 84101 91200=
07434,1998-08-03 18:00:00,21,1024.2,-0,53,11,500,11.112,,,340,11.9,22.3,,,,,,,,,wg-a,,,,AAXX 03184 07434 12600 /3406 10210 20110 39778 40242 55000 60006 83201 91800 333 10223 20119=
07434,1998-08-03 21:00:00,17,1025.5,0.6,72,12,500,14.816,,,320,,,,,,,,,,,wg-a,,,,AAXX 03214 07434 12/00 53208 10170 20120 39784 40255 53006 60006 80001 92100=
07434,1998-08-04 00:00:00,14,1026.6,0.6,82,11,20000,14.816,,,300,,,,,,,,,,,wg-a,,,,AAXX 04004 07434 12/70 53008 10140 20110 39790 40266 50006 60006 80001 90000=
07434,1998-08-04 03:00:00,12,1027.3,0.4,94,11,10000,3.704,,,250,,,,0,,,,,,,wg-a,,,,AAXX 04034 07434 12/60 72502 10120 20110 39794 40273 53004 60007 84032 90300=
07434,1998-08-04 06:00:00,13,1027,-0.1,94,12,500,11.112,,,300,12,20.7,,,,,,,,,wg-a,,,,AAXX 04064 07434 02200 73006 10130 20120 39793 40270 55001 60006 8653/ 90600 333 10207 20120 60004=
07434,1998-08-04 09:00:00,15,1027.5,0.8,94,14,8000,11.112,,,290,,,,,,,,,,,wg-a,,,,AAXX 04094 07434 12158 82906 10150 20140 39801 40275 53008 60006 887// 90900=
07434,1998-08-04 12:00:00,17,1027.7,0.5,94,16,2000,11.112,,,280,,,,0,,,,,,10,wg-a,,,,AAXX 04124 07434 02220 82806 10170 20160 39806 40277 51005 60006 71052 887// 91200 333 60007=
07434,1998-08-04 15:00:00,18,1027,-0.5,94,17,10000,11.112,,,310,,,,0,,,,,,1,wg-a,,,,AAXX 04154 07434 12260 83106 10180 20170 39801 40270 58005 60007 70152 887// 91500=
07434,1998-08-04 18:00:00,18,1027.1,0.2,94,17,15000,11.112,,,350,13,18.7,,,,,,,,20,wg-a,,,,AAXX 04184 07434 02365 73506 10180 20170 39803 40271 53002 61000 72052 875// 91800 333 10187 20130 6000=
07434,1998-08-04 21:00:00,18,1028.6,1.3,94,17,15000,7.408,,,360,,,,0,,,,,,21,wg-a,,,,AAXX 04214 07434 12365 73604 10180 20170 39816 40286 53013 60007 72162 8753/ 92100=
07434,1998-08-05 00:00:00,16,1028.3,-0.5,100,16,15000,11.112,,,10,,,,,,,,,,1,wg-a,,,,AAXX 05004 07434 12265 40106 10160 20160 39811 40283 57005 60006 70161 84530 90000=
07434,1998-08-05 03:00:00,14,1027.9,-0.8,94,13,15000,18.52,,,360,,,,0,,,,,,,wg-a,,,,AAXX 05034 07434 12665 33610 10140 20130 39803 40279 56008 60007 83530 90300=
07434,1998-08-05 06:00:00,14,1028.9,1,88,12,20000,11.112,,,50,13.2,18.3,,,,,1,,,,wg-a,,,,AAXX 05064 07434 02/70 00506 10140 20120 39813 40289 53010 60006 80000 90600 333 10183 20132 60014=
07434,1998-08-05 09:00:00,19,1028.8,0.7,83,16,20000,11.112,,,350,,,,,,,,,,,wg-a,,,,AAXX 05094 07434 12470 /3506 10190 20160 39820 40288 51007 60006 81100 90900=
07434,1998-08-05 12:00:00,21,1028.6,0,60,13,500,22.224,,,60,,,,,,,,,,,wg-a,,,,AAXX 05124 07434 12500 20612 10210 20130 39820 40286 50000 60006 82200 91200=
07434,1998-08-05 15:00:00,23,1026.9,-1.3,44,10,40000,18.52,,,40,,,,,,,,,,,wg-a,,,,AAXX 05154 07434 12/82 00410 10230 20100 39807 40269 58013 60006 80000 91500=
07434,1998-08-05 18:00:00,23,1026.3,-0.6,41,9,40000,18.52,,,40,14.2,23.6,,,,,,,,,wg-a,,,,AAXX 05184 07434 12/82 00410 10230 20090 39801 40263 56006 60006 80000 91800 333 10236 20142=
07434,1998-08-05 21:00:00,19,1027.1,0.2,56,10,40000,14.816,,,20,,,,,,,,,,,wg-a,,,,AAXX 05214 07434 12/82 00208 10190 20100 39803 40271 53002 60006 80000 92100=
07434,1998-08-06 00:00:00,18,1026.3,-1,56,9,500,18.52,,,50,,,,,,,,,,,wg-a,,,,AAXX 06004 07434 12/00 00510 10180 20090 39793 40263 58010 60006 80000 90000=
07434,1998-08-06 03:00:00,16,1025.9,-0.7,68,10,500,18.52,,,60,,,,,,,,,,,wg-a,,,,AAXX 06034 07434 12/00 00610 10160 20100 39786 40259 58007 60006 80000 90300=
07434,1998-08-06 06:00:00,17,1025.4,-0.3,63,10,500,14.816,,,60,15.1,22.5,,,,,,,,,wg-a,,,,AAXX 06064 07434 02/00 00608 10170 20100 39783 40254 57003 60006 80000 90600 333 10225 20151 60004=
07434,1998-08-06 09:00:00,23,1024.3,-0.1,47,11,500,25.928,,,60,,,,,,,,,,,wg-a,,,,AAXX 06094 07434 12/00 00614 10230 20110 39782 40243 58001 60006 80000 90900=
07434,1998-08-06 12:00:00,26,1023.1,-0.7,39,11,40000,18.52,,,60,,,,,,,,,,,wg-a,,,,AAXX 06124 07434 12782 10610 10260 20110 39775 40231 57007 60006 81100 91200=
07434,1998-08-06 15:00:00,27,1021.8,-1.1,34,10,50000,18.52,,,60,,,,,,,,,,,wg-a,,,,AAXX 06154 07434 12/84 10610 10270 20100 39764 40218 58011 60006 80001 91500=
07434,1998-08-06 18:00:00,26,1021.6,-0.4,39,11,50000,18.52,,,40,16.7,27.5,,,,,,,,,wg-a,,,,AAXX 06184 07434 12/84 20410 10260 20110 39760 40216 56004 60006 80001 91800 333 10275 20167=
07434,1998-08-06 21:00:00,22,1022.5,0.3,43,9,40000,14.816,,,40,,,,,,,,,,,wg-a,,,,AAXX 06214 07434 12/82 30408 10220 20090 39763 40225 53003 60006 80002 92100=
07434,1998-08-07 00:00:00,21,1021.6,-1.1,43,8,500,11.112,,,50,,,,,,,,,,,wg-a,,,,AAXX 07004 07434 12/00 00506 10210 20080 39752 40216 58011 60006 80000 90000=
07434,1998-08-07 03:00:00,19,1021.3,-0.5,49,8,500,11.112,,,50,,,,,,,,,,,wg-a,,,,AAXX 07034 07434 12/00 00506 10190 20080 39747 40213 56005 60006 80000 90300=
07434,1998-08-07 06:00:00,19,1021.3,-0,56,10,500,14.816,,,50,17.3,25.4,,,,,,,,,wg-a,,,,AAXX 07064 07434 02/00 00508 10190 20100 39747 40213 55000 60006 80000 90600 333 10254 20173 60004=
07434,1998-08-07 09:00:00,24,1020.4,-0.1,41,10,40000,22.224,,,80,,,,,,,,,,,wg-a,,,,AAXX 07094 07434 12/82 00812 10240 20100 39746 40204 58001 60006 80000 90900=
07434,1998-08-07 12:00:00,28,1019,-0.7,35,11,40000,14.816,,,80,,,,,,,,,,,wg-a,,,,AAXX 07124 07434 12/82 10808 10280 20110 39739 40190 58007 60006 80001 91200=
07434,1998-08-07 15:00:00,30,1017.4,-1.2,29,10,40000,14.816,,,60,,,,,,,,,,,wg-a,,,,AAXX 07154 07434 12/82 10608 10300 20100 39727 40174 58012 60006 80001 91500=
07434,1998-08-07 18:00:00,29,1017.1,-0.4,29,9,40000,11.112,,,60,18.5,30.6,,,,,,,,,wg-a,,,,AAXX 07184 07434 12/82 10606 10290 20090 39723 40171 55004 60006 80001 91800 333 10306 20185=
07434,1998-08-07 21:00:00,25,1018.3,0.4,36,9,40000,11.112,,,50,,,,,,,,,,,wg-a,,,,AAXX 07214 07434 12/82 00506 10250 20090 39727 40183 53004 60006 80000 92100=
07434,1998-08-08 00:00:00,22,1017.8,-0.9,41,8,40000,7.408,,,70,,,,,,,,,,,wg-a,,,,AAXX 08004 07434 12/82 00704 10220 20080 39718 40178 58009 60006 80000 90000=
07434,1998-08-08 03:00:00,19,1017.5,-0.6,49,8,500,7.408,,,80,,,,,,,,,,,wg-a,,,,AAXX 08034 07434 12/00 00804 10190 20080 39712 40175 56006 60006 80000 90300=
07434,1998-08-08 09:00:00,26,1016.5,-0,48,14,50000,7.408,,,150,,,,,,,,,,,wg-a,,,,AAXX 08094 07434 12/84 01504 10260 20140 39712 40165 54000 60006 80000 90900=
07434,1998-08-08 12:00:00,31,1015.2,-0.5,31,12,50000,7.408,,,170,,,,,,,,,,,wg-a,,,,AAXX 08124 07434 12/84 01704 10310 20120 39707 40152 58005 60006 80000 91200=
07434,1998-08-08 15:00:00,33,1013.7,-1.2,19,6,50000,11.112,,,160,,,,,,,,,,,wg-a,,,,AAXX 08154 07434 12/84 01606 10330 20060 39695 40137 56012 60006 80000 91500=
07434,1998-08-08 18:00:00,32,1013.4,-0.4,24,9,10000,7.408,,,200,19.8,33.6,,,,,,,,,wg-a,,,,AAXX 08184 07434 12/60 /2004 10320 20090 39691 40134 56004 60006 91800 333 10336 20198=
07434,1998-08-08 21:00:00,27,1014.9,0.8,34,10,500,7.408,,,350,,,,,,,,,,,wg-a,,,,AAXX 08214 07434 12/00 03504 10270 20100 39699 40149 53008 60006 80000 92100=
07434,1998-08-09 00:00:00,23,1015.4,-0.2,47,11,500,11.112,,,50,,,,,,,,,,,wg-a,,,,AAXX 09004 07434 12/00 00506 10230 20110 39697 40154 58002 60006 80000 90000=
07434,1998-08-09 03:00:00,21,1015.5,-0.2,53,11,500,7.408,,,90,,,,,,,,,,,wg-a,,,,AAXX 09034 07434 12/00 00904 10210 20110 39695 40155 56002 60006 80000 90300=
07434,1998-08-09 06:00:00,20,1015.8,0.2,60,12,25000,7.408,,,60,19.6,31.9,,,,,,,,,wg-a,,,,AAXX 09064 07434 02/75 00604 10200 20120 39697 40158 53002 60006 80000 90600 333 10319 20196 60004=
07434,1998-08-09 09:00:00,27,1015.2,0.5,42,13,40000,7.408,,,170,,,,,,,,,,,wg-a,,,,AAXX 09094 07434 12/82 01704 10270 20130 39702 40152 51005 60006 80000 90900=
07434,1998-08-09 12:00:00,33,1013.9,-0.5,26,11,40000,11.112,,,150,,,,,,,,,,,wg-a,,,,AAXX 09124 07434 12/82 01506 10330 20110 39697 40139 58005 60006 80000 91200=
07434,1998-08-09 15:00:00,34,1012.7,-1,23,10,50000,11.112,,,160,,,,,,,,,,,wg-a,,,,AAXX 09154 07434 12/84 01606 10340 20100 39687 40127 58010 60006 80000 91500=
07434,1998-08-09 18:00:00,33,1012.1,-0.7,26,11,40000,7.408,,,260,20.5,34.3,,,,,,,,,wg-a,,,,AAXX 09184 07434 12/82 02604 10330 20110 39680 40121 56007 60006 80000 91800 333 10343 20205=
07434,1998-08-09 21:00:00,28,1013.9,1.1,37,12,25000,7.408,,,330,,,,,,,,,,,wg-a,,,,AAXX 09214 07434 12/75 03304 10280 20120 39691 40139 52011 60006 80000 92100=
07434,1998-08-10 00:00:00,24,1014.7,0.2,54,14,25000,7.408,,,50,,,,,,,,,,,wg-a,,,,AAXX 10004 07434 12/75 00504 10240 20140 39693 40147 50002 60006 80000 90000=
07434,1998-08-10 03:00:00,20,1015.3,-0,68,14,25000,11.112,,,60,,,,,,,,,,,wg-a,,,,AAXX 10034 07434 12/75 00606 10200 20140 39693 40153 54000 60006 80000 90300=
07434,1998-08-10 06:00:00,21,1016.2,0.9,60,13,500,7.408,,,70,20.2,32.6,,,,,,,,,wg-a,,,,AAXX 10064 07434 02/00 10704 10210 20130 39702 40162 53009 60006 80001 90600 333 10326 20202 60004=
07434,1998-08-10 09:00:00,26,1016.4,1,51,15,500,11.112,,,120,,,,,,,,,,,wg-a,,,,AAXX 10094 07434 12/00 01206 10260 20150 39712 40164 51010 60006 80000 90900=
07434,1998-08-10 12:00:00,33,1015.5,0.1,34,15,500,7.408,,,160,,,,,,,,,,,wg-a,,,,AAXX 10124 07434 12/00 11604 10330 20150 39713 40155 50001 60006 80001 91200=
07434,1998-08-10 15:00:00,35,1014.5,-0.6,30,15,500,3.704,,,300,,,,,,,,,,,wg-a,,,,AAXX 10154 07434 12/00 13002 10350 20150 39707 40145 58006 60006 81030 91500=
07434,1998-08-10 18:00:00,33,1014.8,-0,34,15,500,3.704,,,280,20.9,34.9,,,,,,,,,wg-a,,,,AAXX 10184 07434 12/00 12802 10330 20150 39707 40148 55000 60006 81080 91800 333 10349 20209=
07434,1998-08-10 21:00:00,29,1016.6,1.1,43,15,500,3.704,,,70,,,,,,,,,,,wg-a,,,,AAXX 10214 07434 12/00 10702 10290 20150 39718 40166 51011 60006 81080 92100=
07434,1998-08-11 00:00:00,25,1017.5,0.3,57,16,10000,3.704,,,90,,,,,,,,,,,wg-a,,,,AAXX 11004 07434 12/60 /0902 10250 20160 39721 40175 50003 60006 90000=
07434,1998-08-11 03:00:00,21,1017.6,-0.4,78,17,25000,7.408,,,70,,,,,,,,,,,wg-a,,,,AAXX 11034 07434 12/75 10704 10210 20170 39717 40176 58004 60006 80001 90300=
07434,1998-08-11 06:00:00,22,1018.1,0.5,65,15,20000,7.408,,,80,20.9,32.8,,,,,,,,,wg-a,,,,AAXX 11064 07434 02/70 00804 10220 20150 39722 40181 53005 60006 80000 90600 333 10328 20209 60004=
07434,1998-08-11 09:00:00,28,1018.1,0.9,51,17,20000,7.408,,,210,,,,,,,,,,,wg-a,,,,AAXX 11094 07434 12/70 02104 10280 20170 39731 40181 51009 60006 80000 90900=
07434,1998-08-11 12:00:00,34,1016.7,-0.5,39,18,20000,11.112,,,230,,,,,,,,,,,wg-a,,,,AAXX 11124 07434 12/70 02306 10340 20180 39726 40167 58005 60006 80000 91200=
07434,1998-08-11 15:00:00,35,1015.5,-1,37,18,25000,11.112,,,250,,,,,,,,,,,wg-a,,,,AAXX 11154 07434 12/75 12506 10350 20180 39716 40155 57010 60006 81082 91500=
07434,1998-08-11 18:00:00,31,1016,-0,43,17,25000,7.408,,,310,22.1,34.9,,,,,,,,,wg-a,,,,AAXX 11184 07434 12/75 63104 10310 20170 39716 40160 55000 60006 84083 91800 333 10349 20221=
07434,1998-08-11 21:00:00,29,1016.8,0.4,48,17,25000,11.112,,,350,,,,,,,,,,,wg-a,,,,AAXX 11214 07434 12/75 73506 10290 20170 39720 40168 52004 60006 8708/ 92100=
07434,1998-08-12 00:00:00,25,1017,-0.3,61,17,20000,11.112,,,290,,,,,,,,,,,wg-a,,,,AAXX 12004 07434 12/70 62906 10250 20170 39717 40170 58003 60006 8603/ 90000=
07434,1998-08-12 03:00:00,24,1016.3,-0.9,61,16,20000,3.704,,,30,,,,,,,,,,,wg-a,,,,AAXX 12034 07434 12/70 50302 10240 20160 39708 40163 58009 60006 83031 90300=
07434,1998-08-12 06:00:00,20,1017.1,0.2,83,17,15000,0,,,0,20.2,33.3,,,,,,,,,wg-a,,,,AAXX 12064 07434 02/65 40000 10200 20170 39710 40171 51002 60006 84082 90600 333 10333 20202 60004=
07434,1998-08-12 09:00:00,26,1016.6,0.5,58,17,15000,3.704,,,170,,,,,,,,,,,wg-a,,,,AAXX 12094 07434 12/65 41702 10260 20170 39715 40166 51005 60006 81081 90900=
07434,1998-08-12 12:00:00,28,1016.3,-0.1,55,18,15000,14.816,,,300,,,,,,,,,,,wg-a,,,,AAXX 12124 07434 12/65 43008 10280 20180 39714 40163 58001 60006 81081 91200=
07434,1998-08-12 18:00:00,26,1016,0.6,54,16,15000,14.816,,,350,20.2,29.7,,,,,,,,,wg-a,,,,AAXX 12184 07434 12665 63508 10260 20160 39709 40160 53006 60006 81582 91800 333 10297 20202=
07434,1998-08-12 21:00:00,22,1017,0.3,65,15,15000,18.52,,,340,,,,,,,,,,25,wg-a,,,,AAXX 12214 07434 02865 /3410 10220 20150 39712 40170 53003 61000 72586 82382 92100 333 ////=
07434,1998-08-13 00:00:00,20,1017.7,0.3,60,12,15000,14.816,,,360,,,,,,,,,,1,wg-a,,,,AAXX 13004 07434 02665 /3608 10200 20120 39715 40177 53003 61000 70186 85580 90000 333 ////=
07434,1998-08-13 03:00:00,17,1017.7,-0.4,77,13,15000,11.112,,,20,,,,,,,,,,,wg-a,,,,AAXX 13034 07434 12765 60206 10170 20130 39711 40177 57004 60006 85570 90300=
07434,1998-08-13 09:00:00,20,1018.4,0.4,60,12,40000,7.408,,,60,,,,,,,,,,,wg-a,,,,AAXX 13094 07434 12/82 10604 10200 20120 39721 40184 50004 60006 81030 90900=
07434,1998-08-13 12:00:00,23,1017.4,-0.4,53,13,40000,14.816,,,20,,,,,,,,,,,wg-a,,,,AAXX 13124 07434 12682 /0208 10230 20130 39717 40174 57004 60006 81101 91200=
07434,1998-08-13 15:00:00,25,1016.5,-0.6,44,12,40000,11.112,,,20,,,,,,,,,,,wg-a,,,,AAXX 13154 07434 12/82 10206 10250 20120 39711 40165 56006 60006 80001 91500=
07434,1998-08-13 18:00:00,23,1015.8,-1,33,6,40000,11.112,,,20,15.4,25.2,,,,,,,,,wg-a,,,,AAXX 13184 07434 12/82 10206 10230 20060 39701 40158 56010 60006 80001 91800 333 10252 20154=
07434,1998-08-13 21:00:00,19,1017.6,1.1,43,6,500,11.112,,,20,,,,,,,,,,,wg-a,,,,AAXX 13214 07434 12/00 10206 10190 20060 39712 40176 52011 60006 80001 92100=
07434,1998-08-14 00:00:00,18,1017.1,-0.7,45,6,500,11.112,,,20,,,,,,,,,,,wg-a,,,,AAXX 14004 07434 12/00 00206 10180 20060 39705 40171 58007 60006 80000 90000=
07434,1998-08-14 03:00:00,17,1016.3,-0.9,48,6,500,14.816,,,40,,,,,,,,,,,wg-a,,,,AAXX 14034 07434 12/00 00408 10170 20060 39696 40163 56009 60006 80000 90300=
07434,1998-08-14 06:00:00,17,1016.1,-0.3,48,6,25000,11.112,,,60,15.6,23.2,,,,,,,,,wg-a,,,,AAXX 14064 07434 02/75 20606 10170 20060 39693 40161 55003 60006 80001 90600 333 10232 20156 60004=
07434,1998-08-14 09:00:00,22,1014.9,-0.3,38,7,500,14.816,,,80,,,,,,,,,,,wg-a,,,,AAXX 14094 07434 12/00 10808 10220 20070 39690 40149 58003 60006 80001 90900=
07434,1998-08-14 12:00:00,26,1013.1,-1.1,34,9,40000,7.408,,,10,,,,,,,,,,,wg-a,,,,AAXX 14124 07434 12/82 20104 10260 20090 39679 40131 58011 60006 80001 91200=
07434,1998-08-14 15:00:00,28,1011.3,-1.4,27,7,50000,7.408,,,60,,,,,,,,,,,wg-a,,,,AAXX 14154 07434 12/84 10604 10280 20070 39665 40113 58014 60006 80001 91500=
07434,1998-08-15 03:00:00,17,1013.5,0.2,55,8,15000,7.408,,,90,,,,,,,,,,,wg-a,,,,AAXX 15034 07434 12/65 00904 10170 20080 39670 40135 53002 60006 80000 90300=
07434,1998-08-15 06:00:00,17,1014.3,0.7,55,8,50000,3.704,,,50,16,26.6,,,,,,,,,wg-a,,,,AAXX 15064 07434 02/84 40502 10170 20080 39677 40143 53007 60006 81031 90600 333 10266 20160 60004=
07434,1998-08-15 09:00:00,24,1014.7,1.4,41,10,50000,3.704,,,160,,,,,,,,,,,wg-a,,,,AAXX 15094 07434 12/84 41602 10240 20100 39691 40147 51014 60006 81081 90900=
07434,1998-08-15 12:00:00,28,1014.9,0.8,27,7,50000,3.704,,,290,,,,,,,,,,,wg-a,,,,AAXX 15124 07434 12/84 62902 10280 20070 39699 40149 51008 60006 82081 91200=
07434,1998-08-15 15:00:00,29,1014.6,-0.2,27,8,50000,7.408,,,330,,,,,,,,,,,wg-a,,,,AAXX 15154 07434 12/84 63304 10290 20080 39697 40146 56002 60006 84082 91500=
07434,1998-08-15 18:00:00,28,1015.4,0.7,28,8,50000,7.408,,,320,16.9,29.2,,,,,,,,,wg-a,,,,AAXX 15184 07434 12/84 63204 10280 20080 39704 40154 53007 60006 84082 91800 333 10292 20169=
07434,1998-08-16 15:00:00,29,1017.8,-0.9,40,14,40000,7.408,,,350,,,,,,,,,,,wg-a,,,,AAXX 16154 07434 12782 43504 10290 20140 39730 40178 57009 60006 83201 91500=
07434,1998-08-16 21:00:00,24,1019.2,1,54,14,15000,7.408,,,360,,,,,,,,,,,wg-a,,,,AAXX 16214 07434 12/65 33604 10240 20140 39736 40192 51010 60006 82082 92100=
07434,1998-08-17 00:00:00,23,1018.7,-0.7,57,14,15000,7.408,,,30,,,,,,,,,,,wg-a,,,,AAXX 17004 07434 12/65 20304 10230 20140 39729 40187 58007 60006 81031 90000=
07434,1998-08-17 03:00:00,20,1018.5,-0.6,73,15,12000,7.408,,,50,,,,,,,,,,,wg-a,,,,AAXX 17034 07434 12/62 00504 10200 20150 39723 40185 56006 60006 80000 90300=
07434,1998-08-17 06:00:00,19,1019.1,0.4,73,14,25000,3.704,,,50,18.1,27.4,,,,,,,,,wg-a,,,,AAXX 17064 07434 02/75 10502 10190 20140 39727 40191 53004 60006 81030 90600 333 10274 20181 60004=
07434,1998-08-17 09:00:00,25,1018.5,0.3,54,15,20000,3.704,,,190,,,,,,,,,,,wg-a,,,,AAXX 17094 07434 12/70 01902 10250 20150 39730 40185 51003 60006 80000 90900=
07434,1998-08-17 12:00:00,28,1017.2,-0.8,45,15,20000,11.112,,,230,,,,,,,,,,,wg-a,,,,AAXX 17124 07434 12670 /2306 10280 20150 39722 40172 58008 60006 85201 91200=
07434,1998-08-17 15:00:00,30,1015.3,-1.5,43,16,25000,14.816,,,300,,,,,,,,,,29,wg-a,,,,AAXX 17154 07434 12775 53008 10300 20160 39707 40153 58015 60006 72992 85901 91500=
07434,1998-08-17 18:00:00,27,1015.2,-0.5,45,14,25000,11.112,,,300,18.7,29.8,,,,,,,,3,wg-a,,,,AAXX 17184 07434 12775 33006 10270 20140 39702 40152 56005 60006 70391 83301 91800 333 10298 20187=
07434,1998-08-17 21:00:00,22,1017.4,1.3,60,14,20000,7.408,,,290,,,,,,,,,,,wg-a,,,,AAXX 17214 07434 12770 22904 10220 20140 39715 40174 51013 60006 81201 92100=
07434,1998-08-18 00:00:00,18,1017.4,-0.5,73,13,15000,3.704,,,160,,,,,,,,,,,wg-a,,,,AAXX 18004 07434 12/65 31602 10180 20130 39710 40174 57005 60006 80001 90000=
07434,1998-08-18 03:00:00,16,1017.2,-0.5,82,13,15000,3.704,,,20,,,,,,,,,,,wg-a,,,,AAXX 18034 07434 12/65 20202 10160 20130 39705 40172 55005 60006 80001 90300=
07434,1998-08-18 06:00:00,16,1017.4,-0,68,10,10000,14.816,,,360,15.3,26.9,,,,,,,,,wg-a,,,,AAXX 18064 07434 02/60 63608 10160 20100 39705 40174 55000 60006 82032 90600 333 10269 20153 60004=
07434,1998-08-18 09:00:00,20,1017.6,0.9,64,13,15000,11.112,,,330,,,,,,,,,,,wg-a,,,,AAXX 18094 07434 12/65 63306 10200 20130 39714 40176 53009 60006 80002 90900=
07434,1998-08-18 12:00:00,25,1017,0.1,44,12,500,14.816,,,350,,,,,,,,,,,wg-a,,,,AAXX 18124 07434 12700 43508 10250 20120 39715 40170 51001 60006 81202 91200=
07434,1998-08-18 15:00:00,26,1016.2,-0.6,39,11,500,11.112,,,330,,,,,,,,,,,wg-a,,,,AAXX 18154 07434 12700 23306 10260 20110 39709 40162 57006 60006 81202 91500=
07434,1998-08-18 18:00:00,25,1016.3,-0.1,44,12,500,11.112,,,340,15.6,26.1,,,,,,,,,wg-a,,,,AAXX 18184 07434 12/00 13406 10250 20120 39708 40163 56001 60006 80001 91800 333 10261 20156=
07434,1998-08-18 21:00:00,21,1018.6,1.6,49,10,25000,11.112,,,360,,,,,,,,,,,wg-a,,,,AAXX 18214 07434 12/75 13606 10210 20100 39724 40186 53016 60006 80001 92100=
07434,1998-08-19 00:00:00,19,1019.3,0.3,49,8,15000,7.408,,,10,,,,,,,,,,,wg-a,,,,AAXX 19004 07434 12/65 10104 10190 20080 39727 40193 52003 60006 80001 90000=
07434,1998-08-19 03:00:00,16,1019.2,-0.4,63,9,15000,11.112,,,360,,,,,,,,,,,wg-a,,,,AAXX 19034 07434 12/65 03606 10160 20090 39723 40192 56004 60006 80000 90300=
07434,1998-08-19 06:00:00,17,1019.7,0.5,63,10,15000,3.704,,,30,15.7,24.5,,,,,,,,,wg-a,,,,AAXX 19064 07434 02/65 10302 10170 20100 39728 40197 53005 60006 80001 90600 333 10245 20157 60004=
07434,1998-08-19 09:00:00,23,1019.2,0.5,47,11,18000,7.408,,,350,,,,,,,,,,,wg-a,,,,AAXX 19094 07434 12/68 13504 10230 20110 39733 40192 51005 60006 80001 90900=
07434,1998-08-19 12:00:00,26,1018.2,-0.5,39,11,500,7.408,,,10,,,,,,,,,,,wg-a,,,,AAXX 19124 07434 12700 20104 10260 20110 39728 40182 58005 60006 82401 91200=
07434,1998-08-19 15:00:00,27,1017,-0.9,34,10,35000,3.704,,,40,,,,,,,,,,,wg-a,,,,AAXX 19154 07434 12781 30402 10270 20100 39719 40170 57009 60006 82401 91500=
07434,1998-08-19 18:00:00,25,1017,-0.3,39,10,35000,7.408,,,340,16.6,27.3,,,,,,,,,wg-a,,,,AAXX 19184 07434 12781 13404 10250 20100 39716 40170 56003 60006 81401 91800 333 10273 20166=
07434,1998-08-19 21:00:00,22,1018.7,1.1,50,11,25000,11.112,,,10,,,,,,,,,,,wg-a,,,,AAXX 19214 07434 12/75 10106 10220 20110 39727 40187 52011 60006 80001 92100=
07434,1998-08-20 00:00:00,19,1019,-0.1,60,11,20000,11.112,,,30,,,,,,,,,,,wg-a,,,,AAXX 20004 07434 12/70 10306 10190 20110 39726 40190 58001 60006 80001 90000=
07434,1998-08-20 03:00:00,18,1018.8,-0.4,64,11,20000,11.112,,,30,,,,,,,,,,,wg-a,,,,AAXX 20034 07434 12/70 20306 10180 20110 39722 40188 58004 60006 80001 90300=
07434,1998-08-20 06:00:00,18,1019.5,0.6,68,12,25000,3.704,,,40,15.7,25.3,,,,,,,,,wg-a,,,,AAXX 20064 07434 02675 50402 10180 20120 39728 40195 53006 60006 81282 90600 333 10253 20157 60004=
07434,1998-08-20 09:00:00,22,1019.4,0.7,57,13,500,7.408,,,320,,,,,,,,,,,wg-a,,,,AAXX 20094 07434 12/00 23204 10220 20130 39735 40194 51007 60006 81082 90900=
07434,1998-08-20 12:00:00,25,1018.6,-0.4,44,12,40000,14.816,,,260,,,,,,,,,,,wg-a,,,,AAXX 20124 07434 12682 42608 10250 20120 39731 40186 58004 60006 84201 91200=
07434,1998-08-20 15:00:00,25,1018.1,-0.5,41,11,40000,14.816,,,290,,,,,,,,,,,wg-a,,,,AAXX 20154 07434 12682 42908 10250 20110 39726 40181 56005 60006 84201 91500=
07434,1998-08-20 18:00:00,23,1017.9,-0.5,47,11,40000,14.816,,,290,17.6,26.5,,,,,,,,,wg-a,,,,AAXX 20184 07434 12/82 32908 10230 20110 39721 40179 56005 60006 80001 91800 333 10265 20176=
07434,1998-08-20 21:00:00,17,1020,1.2,68,11,25000,14.816,,,290,,,,,,,,,,,wg-a,,,,AAXX 20214 07434 12/75 62908 10170 20110 39733 40200 52012 60006 80004 92100=
07434,1998-08-21 00:00:00,14,1020.6,0,77,10,20000,11.112,,,260,,,,,,,,,,,wg-a,,,,AAXX 21004 07434 12/70 72606 10140 20100 39733 40206 50000 60006 82034 90000=
07434,1998-08-21 03:00:00,13,1020,-0.8,88,11,15000,7.408,,,250,,,,,,,,,,,wg-a,,,,AAXX 21034 07434 12265 72504 10130 20110 39725 40200 56008 60006 83604 90300=
07434,1998-08-21 06:00:00,14,1019.9,0.1,94,13,18000,14.816,,,230,12,22.9,,,,,,,,,wg-a,,,,AAXX 21064 07434 02268 82308 10140 20130 39726 40199 53001 60006 876// 90600 333 10229 20120 60004=
07434,1998-08-21 09:00:00,17,1019.4,0.1,77,13,500,22.224,,,240,,,,,,,,,,,wg-a,,,,AAXX 21094 07434 12400 72412 10170 20130 39727 40194 51001 60006 84131 90900=
07434,1998-08-21 12:00:00,20,1018.4,-0.6,60,12,40000,25.928,,44.448,240,,,,,,,,,,,wg-a,,,,AAXX 21124 07434 12582 72414 10200 20120 39721 40184 58006 60006 8583/ 91200 333 91024=
07434,1998-08-21 15:00:00,17,1018.6,-0.2,88,15,12000,22.224,,,250,,,,,,,,,,60,wg-a,,,,AAXX 21154 07434 02562 82512 10170 20150 39719 40186 56002 61000 76062 875// 91500 333 ////=
07434,1998-08-21 18:00:00,17,1017.3,-1.2,94,16,4500,18.52,,,240,13.5,20.4,,,,,,,,10,wg-a,,,,AAXX 21184 07434 02145 82410 10170 20160 39707 40173 56012 61000 71065 887// 91800 333 10204 20135 6000=
07434,1998-08-21 21:00:00,17,1018.1,0.8,100,17,4500,18.52,,,270,,,,,,,,,,10,wg-a,,,,AAXX 21214 07434 32/45 /2710 10170 20170 39715 40181 52008 710// 92100=
07434,1998-08-22 00:00:00,17,1018.4,0.2,94,16,2000,11.112,,,270,,,,4,,,,,,10,wg-a,,,,AAXX 22004 07434 02120 82706 10170 20160 39717 40184 50002 60076 71065 887// 90000 333 60047=
07434,1998-08-22 03:00:00,16,1017.6,-0.8,100,16,2000,18.52,,,290,,,,3,,,,,,10,wg-a,,,,AAXX 22034 07434 12120 82910 10160 20160 39709 40176 56008 60037 710// 887// 90300=
07434,1998-08-22 06:00:00,16,1017.9,0.3,100,16,1000,11.112,,,270,16.1,17.1,,,,,,,,10,wg-a,,,,AAXX 22064 07434 02110 82706 10160 20160 39712 40179 51003 61000 71065 887// 90600 333 10171 20161 6013=
07434,1998-08-22 09:00:00,18,1017.5,-0.1,100,18,500,14.816,,,280,,,,2,,,,,,10,wg-a,,,,AAXX 22094 07434 12200 /2808 10180 20180 39711 40175 57001 60027 71065 878// 90900=
07434,1998-08-22 12:00:00,18,1017.9,0.3,94,17,4000,14.816,,,280,,,,,,,,,,10,wg-a,,,,AAXX 22124 07434 02240 82808 10180 20170 39714 40179 53003 60026 71065 887// 91200 333 61000=
07434,1998-08-22 15:00:00,19,1016.7,-0.9,94,18,8000,14.816,,,270,,,,0,,,,,,51,wg-a,,,,AAXX 22154 07434 12258 82708 10190 20180 39705 40167 58009 60007 75165 877// 91500=
07434,1998-08-22 18:00:00,18,1017.3,0.3,94,17,3000,18.52,,,280,16.2,19,,,,,,,,51,wg-a,,,,AAXX 22184 07434 02230 82810 10180 20170 39708 40173 53003 61000 75165 887// 91800 333 10190 20162 6001=
07434,1998-08-22 21:00:00,17,1018.2,0.8,100,17,3000,14.816,,,260,,,,1,,,,,,10,wg-a,,,,AAXX 22214 07434 12130 82608 10170 20170 39716 40182 51008 60017 71055 887// 92100=
07434,1998-08-23 00:00:00,17,1018.4,0.2,100,17,2000,18.52,,,280,,,,3,,,,,,10,wg-a,,,,AAXX 23004 07434 02120 82810 10170 20170 39718 40184 53002 60036 71065 887// 90000 333 60037=
07434,1998-08-23 03:00:00,16,1018.6,0,100,16,2000,18.52,,,290,,,,2,,,,,,10,wg-a,,,,AAXX 23034 07434 12120 82910 10160 20160 39718 40186 50000 60027 71066 887// 90300=
07434,1998-08-23 06:00:00,16,1019,0.3,100,16,800,11.112,,,280,15.7,17.6,,,,,,,,50,wg-a,,,,AAXX 23064 07434 02108 82806 10160 20160 39721 40190 53003 61000 75065 887// 90600 333 10176 20157 6009=
07434,1998-08-23 09:00:00,17,1019.9,1.1,94,16,6000,14.816,,,330,,,,1,,,,,,51,wg-a,,,,AAXX 23094 07434 12156 73308 10170 20160 39732 40199 51011 60017 75154 877// 90900=
07434,1998-08-23 12:00:00,20,1019.6,0.1,73,15,50000,11.112,,,290,,,,,,,,,,1,wg-a,,,,AAXX 23124 07434 02484 42906 10200 20150 39733 40196 50001 60016 70186 84200 91200 333 61000=
07434,1998-08-23 15:00:00,23,1018.2,-0.9,53,13,60000,14.816,,,290,,,,,,,,,,,wg-a,,,,AAXX 23154 07434 12686 22908 10230 20130 39724 40182 58009 60006 82101 91500=
07434,1998-08-23 18:00:00,22,1017.7,-0.6,60,14,50000,11.112,,,270,15.7,22.9,,,,,,,,,wg-a,,,,AAXX 23184 07434 12784 12706 10220 20140 39718 40177 56006 60006 81101 91800 333 10229 20157=
07434,1998-08-23 21:00:00,17,1019.4,0.8,77,13,25000,11.112,,,280,,,,,,,,,,,wg-a,,,,AAXX 23214 07434 12/75 12806 10170 20130 39726 40194 51008 60006 80001 92100=
07434,1998-08-24 00:00:00,13,1019.6,-0.3,100,13,15000,11.112,,,250,,,,,,,,,,,wg-a,,,,AAXX 24004 07434 12265 /2506 10130 20130 39723 40196 58003 60006 85600 90000=
07434,1998-08-24 03:00:00,14,1018.9,-0.5,100,14,8000,7.408,,,250,,,,,,,,,,,wg-a,,,,AAXX 24034 07434 12258 82504 10140 20140 39718 40189 56005 60006 8/600 90300=
07434,1998-08-24 06:00:00,15,1018.6,-0.2,94,14,7000,14.816,,,250,13.4,21.7,,,,,,,,20,wg-a,,,,AAXX 24064 07434 02257 82508 10150 20140 39716 40186 55002 61000 72052 8/700 90600 333 10217 20134 6001=
07434,1998-08-24 09:00:00,16,1018.6,0.2,100,16,10000,18.52,,,250,,,,,,,,,,50,wg-a,,,,AAXX 24094 07434 02160 82510 10160 20160 39718 40186 53002 61000 75052 8/700 90900 333 ////=
07434,1998-08-24 12:00:00,17,1018.6,0.1,94,16,1500,18.52,,,310,,,,3,,,,,,10,wg-a,,,,AAXX 24124 07434 02115 83110 10170 20160 39719 40186 53001 60036 71065 887// 91200 333 60037=
07434,1998-08-24 15:00:00,18,1019,0.6,88,16,15000,7.408,,,290,,,,0,,,,,,3,wg-a,,,,AAXX 24154 07434 12465 72904 10180 20160 39725 40190 50006 60007 70365 878// 91500=
07434,1998-08-24 18:00:00,19,1018.9,-0,78,15,25000,3.704,,,330,14.9,19.4,,,,,,,,1,wg-a,,,,AAXX 24184 07434 12475 53302 10190 20150 39725 40189 55000 60006 70165 85800 91800 333 10194 20149=
07434,1998-08-24 21:00:00,16,1020.8,1.3,82,13,25000,11.112,,,280,,,,,,,,,,,wg-a,,,,AAXX 24214 07434 12675 42806 10160 20130 39738 40208 51013 60006 84500 92100=
07434,1998-08-25 00:00:00,14,1021.6,0.4,88,12,12000,14.816,,,300,,,,,,,,,,,wg-a,,,,AAXX 25004 07434 12662 33008 10140 20120 39742 40216 51004 60006 83500 90000=
07434,1998-08-25 03:00:00,12,1021.5,-0.4,94,11,10000,0,,,0,,,,,,,,,,,wg-a,,,,AAXX 25034 07434 32/60 00000 10120 20110 39738 40215 56004 80000 90300=
07434,1998-08-25 06:00:00,11,1021.9,0.3,100,11,200,7.408,,,60,10.9,18.6,,,,,3,,,44,wg-a,,,,AAXX 25064 07434 02/02 90604 10110 20110 39741 40219 53003 60006 74441 89/// 90600 333 10186 20109 60034=
07434,1998-08-25 09:00:00,15,1022.1,0.8,94,14,1500,7.408,,,120,,,,0,,,,,,28,wg-a,,,,AAXX 25094 07434 12115 91204 10150 20140 39749 40221 51008 60007 72842 89800 90900=
07434,1998-08-25 12:00:00,21,1020.6,-0.4,56,12,500,7.408,,,60,,,,,,,,,,3,wg-a,,,,AAXX 25124 07434 12600 40604 10210 20120 39745 40206 58004 60006 70341 8420/ 91200=
07434,1998-08-25 15:00:00,23,1019.3,-1.1,53,13,40000,3.704,,,70,,,,,,,,,,,wg-a,,,,AAXX 25154 07434 12682 30702 10230 20130 39734 40193 58011 60006 8310/ 91500=
07434,1998-08-25 18:00:00,22,1018.7,-0.7,53,12,40000,3.704,,,310,11.2,23.2,,,,,,,,,wg-a,,,,AAXX 25184 07434 12782 13102 10220 20120 39727 40187 56007 60006 8110/ 91800 333 10232 20112=
07434,1998-08-25 21:00:00,18,1019.9,0.5,64,11,25000,7.408,,,310,,,,,,,,,,,wg-a,,,,AAXX 25214 07434 12/75 03104 10180 20110 39732 40199 53005 60006 80000 92100=
07434,1998-08-26 00:00:00,15,1019.6,-0.6,82,12,18000,3.704,,,40,,,,,,,,,,,wg-a,,,,AAXX 26004 07434 12/68 00402 10150 20120 39726 40196 58006 60006 80000 90000=
07434,1998-08-26 03:00:00,13,1019,-0.9,94,12,20000,7.408,,,40,,,,,,,,,,,wg-a,,,,AAXX 26034 07434 12/70 00404 10130 20120 39717 40190 56009 60006 80000 90300=
07434,1998-08-26 06:00:00,12,1019.1,-0.1,94,11,12000,7.408,,,50,11.9,21.9,,,,,,,,,wg-a,,,,AAXX 26064 07434 02/62 10504 10120 20110 39716 40191 55001 60006 80001 90600 333 10219 20119 60004=
07434,1998-08-26 09:00:00,20,1017.9,0.1,64,13,12000,3.704,,,170,,,,,,,,,,,wg-a,,,,AAXX 26094 07434 12/62 01702 10200 20130 39717 40179 53001 60006 80000 90900=
07434,1998-08-26 12:00:00,23,1016.8,-0.6,50,12,45000,7.408,,,270,,,,,,,,,,,wg-a,,,,AAXX 26124 07434 12783 12704 10230 20120 39711 40168 58006 60006 81100 91200=
07434,1998-08-26 15:00:00,25,1014.9,-1.5,47,13,45000,7.408,,,300,,,,,,,,,,,wg-a,,,,AAXX 26154 07434 12783 13004 10250 20130 39696 40149 58015 60006 81101 91500=
07434,1998-08-26 18:00:00,24,1014.1,-1,44,11,45000,3.704,,,340,12.2,25.1,,,,,,,,,wg-a,,,,AAXX 26184 07434 12/83 13402 10240 20110 39686 40141 56010 60006 80001 91800 333 10251 20122=
07434,1998-08-26 21:00:00,20,1015.6,0.8,53,10,500,14.816,,,20,,,,,,,,,,,wg-a,,,,AAXX 26214 07434 12/00 50208 10200 20100 39694 40156 53008 60006 80002 92100=
07434,1998-08-27 00:00:00,17,1016.4,0.3,68,11,500,11.112,,,30,,,,,,,,,,,wg-a,,,,AAXX 27004 07434 12/00 50306 10170 20110 39697 40164 51003 60006 80002 90000=
07434,1998-08-27 03:00:00,15,1015.8,-0.8,77,11,25000,11.112,,,30,,,,,,,,,,,wg-a,,,,AAXX 27034 07434 12/75 30306 10150 20110 39689 40158 58008 60006 80003 90300=
07434,1998-08-27 06:00:00,14,1016.8,0.8,77,10,50000,3.704,,,30,13.7,23.7,,,,,,,,,wg-a,,,,AAXX 27064 07434 02/84 20302 10140 20100 39697 40168 53008 60006 80001 90600 333 10237 20137 60004=
07434,1998-08-27 09:00:00,17,1017.4,1,68,11,35000,22.224,,,60,,,,,,,,,,,wg-a,,,,AAXX 27094 07434 12581 30612 10170 20110 39707 40174 51010 60006 83201 90900=
07434,1998-08-27 12:00:00,19,1017.4,0.3,60,11,35000,22.224,,,50,,,,,,,,,,,wg-a,,,,AAXX 27124 07434 12581 /0512 10190 20110 39710 40174 50003 60006 85200 91200=
07434,1998-08-27 15:00:00,19,1017.7,0.2,49,8,40000,18.52,,37.04,30,,,,,,,,,,,wg-a,,,,AAXX 27154 07434 12682 30310 10190 20080 39712 40177 51002 60006 83100 91500 333 91020=
07434,1998-08-27 18:00:00,16,1018.1,-0,51,6,40000,22.224,,38.892,30,14.2,19.7,,,,,,,,,wg-a,,,,AAXX 27184 07434 12/82 10312 10160 20060 39712 40181 55000 60006 80001 91800 333 10197 20142 91021=
07434,1998-08-27 21:00:00,12,1020.5,1.7,62,5,25000,14.816,,,40,,,,,,,,,,,wg-a,,,,AAXX 27214 07434 12/75 10408 10120 20050 39729 40205 51017 60006 80001 92100=
07434,1998-08-28 00:00:00,11,1020.5,-0.2,66,5,20000,22.224,,,50,,,,,,,,,,,wg-a,,,,AAXX 28004 07434 12/70 00512 10110 20050 39727 40205 58002 60006 80000 90000=
07434,1998-08-28 03:00:00,9,1020.8,0,81,6,20000,22.224,,,40,,,,,,,,,,,wg-a,,,,AAXX 28034 07434 12/70 00412 10090 20060 39727 40208 50000 60006 80000 90300=
07434,1998-08-28 06:00:00,9,1021.8,0.8,81,6,18000,14.816,,,30,8.2,16,,,,,,,,,wg-a,,,,AAXX 28064 07434 02/68 00308 10090 20060 39735 40218 53008 60006 80000 90600 333 10160 20082 60004=
07434,1998-08-28 09:00:00,14,1021.9,0.9,55,5,25000,29.632,,,40,,,,,,,,,,,wg-a,,,,AAXX 28094 07434 12575 /0416 10140 20050 39744 40219 53009 60006 81100 90900=
07434,1998-08-28 12:00:00,17,1021.2,-0.2,45,5,50000,31.484,,,60,,,,,,,,,,,wg-a,,,,AAXX 28124 07434 12684 20617 10170 20050 39742 40212 58002 60006 82100 91200=
07434,1998-08-28 15:00:00,17,1020.7,-0.5,42,4,40000,29.632,,53.708,50,,,,,,,,,,,wg-a,,,,AAXX 28154 07434 12782 50516 10170 20040 39737 40207 58005 60006 855/0 91500 333 91029=
07434,1998-08-28 18:00:00,16,1020.8,-0,51,6,40000,11.112,,,40,8.8,17.4,,,,,,,,,wg-a,,,,AAXX 28184 07434 12782 10406 10160 20060 39737 40208 55000 60006 815/1 91800 333 10174 20088=
07434,1998-08-28 21:00:00,13,1021.8,0.6,62,6,15000,11.112,,,30,,,,,,,,,,,wg-a,,,,AAXX 28214 07434 12765 10306 10130 20060 39743 40218 52006 60006 81501 92100=
07434,1998-08-29 00:00:00,12,1021.5,-0.6,62,5,15000,11.112,,,50,,,,,,,,,,,wg-a,,,,AAXX 29004 07434 12/65 00506 10120 20050 39737 40215 58006 60006 80000 90000=
07434,1998-08-29 03:00:00,10,1021,-0.8,66,4,15000,11.112,,,60,,,,,,,,,,,wg-a,,,,AAXX 29034 07434 12/65 00606 10100 20040 39729 40210 56008 60006 80000 90300=
07434,1998-08-29 06:00:00,10,1020.8,-0.1,62,3,500,14.816,,,60,9.8,15.5,,,,,,,,,wg-a,,,,AAXX 29064 07434 02/00 10608 10100 20030 39728 40208 55001 60006 80001 90600 333 10155 20098 60004=
07434,1998-08-29 09:00:00,15,1020.7,0.6,48,4,500,25.928,,,70,,,,,,,,,,,wg-a,,,,AAXX 29094 07434 12/00 10714 10150 20040 39734 40207 51006 60006 80001 90900=
07434,1998-08-29 12:00:00,17,1019.5,-0.8,42,4,500,22.224,,,80,,,,,,,,,,,wg-a,,,,AAXX 29124 07434 12/00 10812 10170 20040 39726 40195 58008 60006 80001 91200=
07434,1998-08-29 15:00:00,19,1018,-1.1,40,5,40000,18.52,,,50,,,,,,,,,,,wg-a,,,,AAXX 29154 07434 12/82 10510 10190 20050 39715 40180 56011 60006 80001 91500=
07434,1998-08-29 18:00:00,17,1018.2,-0.2,42,4,40000,18.52,,,60,10.1,18.9,,,,,,,,,wg-a,,,,AAXX 29184 07434 12/82 10610 10170 20040 39713 40182 58002 60006 80001 91800 333 10189 20101=
07434,1998-08-29 21:00:00,14,1018.8,0.2,47,3,500,18.52,,,40,,,,,,,,,,,wg-a,,,,AAXX 29214 07434 12/00 20410 10140 20030 39715 40188 50002 60006 80001 92100=
07434,1998-08-30 00:00:00,12,1018.3,-0.8,58,4,500,14.816,,,80,,,,,,,,,,,wg-a,,,,AAXX 30004 07434 12/00 00808 10120 20040 39707 40183 58008 60006 80000 90000=
07434,1998-08-30 03:00:00,11,1017.6,-0.8,62,4,500,14.816,,,70,,,,,,,,,,,wg-a,,,,AAXX 30034 07434 12/00 00708 10110 20040 39699 40176 56008 60006 80000 90300=
07434,1998-08-30 06:00:00,11,1018.1,0.4,62,4,40000,11.112,,,70,10.4,16.6,,,,,,,,,wg-a,,,,AAXX 30064 07434 02/82 50706 10110 20040 39703 40181 53004 60006 80002 90600 333 10166 20104 60004=
07434,1998-08-30 09:00:00,17,1017.3,0.2,48,6,25000,14.816,,,100,,,,,,,,,,,wg-a,,,,AAXX 30094 07434 12/75 51008 10170 20060 39705 40173 51002 60006 80002 90900=
07434,1998-08-30 12:00:00,22,1016.2,-0.3,41,8,500,11.112,,,120,,,,,,,,,,,wg-a,,,,AAXX 30124 07434 12/00 41206 10220 20080 39702 40162 58003 60006 80002 91200=
07434,1998-08-30 15:00:00,23,1014.9,-1.1,29,4,40000,7.408,,,70,,,,,,,,,,,wg-a,,,,AAXX 30154 07434 12/82 40704 10230 20040 39691 40149 56011 60006 80002 91500=
07434,1998-08-30 18:00:00,22,1014.3,-0.6,33,5,50000,7.408,,,50,10.7,23.6,,,,,,,,,wg-a,,,,AAXX 30184 07434 12/84 10504 10220 20050 39685 40143 56006 60006 80001 91800 333 10236 20107=
07434,1998-08-30 21:00:00,17,1015.4,0.3,48,6,50000,14.816,,,60,,,,,,,,,,,wg-a,,,,AAXX 30214 07434 12/84 10608 10170 20060 39688 40154 53003 60006 80001 92100=
07434,1998-08-31 00:00:00,15,1014.9,-0.8,51,5,40000,11.112,,,70,,,,,,,,,,,wg-a,,,,AAXX 31004 07434 12/82 10706 10150 20050 39680 40149 58008 60006 80001 90000=
07434,1998-08-31 03:00:00,14,1014.4,-0.7,55,5,40000,7.408,,,80,,,,,,,,,,,wg-a,,,,AAXX 31034 07434 12/82 10804 10140 20050 39673 40144 56007 60006 80001 90300=
07434,1998-08-31 06:00:00,14,1013.9,-0.4,63,7,40000,7.408,,,70,13.4,22.3,,,,,,,,,wg-a,,,,AAXX 31064 07434 02/82 30704 10140 20070 39669 40139 55004 60006 81031 90600 333 10223 20134 60004=
07434,1998-08-31 09:00:00,20,1013.3,0.4,49,9,40000,11.112,,,120,,,,,,,,,,,wg-a,,,,AAXX 31094 07434 12/82 61206 10200 20090 39673 40133 51004 60006 82031 90900=
07434,1998-08-31 12:00:00,26,1011.3,-1,30,7,40000,11.112,,,130,,,,,,,,,,,wg-a,,,,AAXX 31124 07434 12/82 51306 10260 20070 39663 40113 58010 60006 83031 91200=
07434,1998-08-31 15:00:00,28,1009.8,-1.2,28,8,40000,3.704,,,130,,,,,,,,,,,wg-a,,,,AAXX 31154 07434 12/82 61302 10280 20080 39651 40098 58012 60006 82082 91500=
07434,1998-08-31 18:00:00,25,1009.7,-0.5,39,10,40000,7.408,,,140,14.3,28.9,,,,,,,,,wg-a,,,,AAXX 31184 07434 12/82 71404 10250 20100 39646 40097 58005 60006 83082 91800 333 10289 20143=
07434,1998-08-31 21:00:00,23,1010.5,0.4,50,12,500,7.408,,,90,,,,,,,,,,,wg-a,,,,AAXX 31214 07434 12/00 70904 10230 20120 39650 40105 53004 60006 84082 92100=
07434,1998-09-01 00:00:00,20,1011.6,0.7,64,13,500,7.408,,,160,,,,,,,,,,,wg-a,,,,AAXX 01004 07434 12/00 41604 10200 20130 39657 40116 53007 60006 82082 90000=
07434,1998-09-01 03:00:00,18,1011.3,-0.5,73,13,25000,11.112,,,140,,,,,,,,,,,wg-a,,,,AAXX 01034 07434 12/75 51406 10180 20130 39652 40113 56005 60006 83082 90300=
07434,1998-09-01 06:00:00,18,1013,1.6,77,14,25000,3.704,,,250,17.9,25.4,,,,,,,,,wg-a,,,,AAXX 01064 07434 02/75 72502 10180 20140 39668 40130 53016 60006 85082 90600 333 10254 20179 60004=
07434,1998-09-01 09:00:00,20,1014.4,1.5,78,16,8000,7.408,,,110,,,,,,,,,,60,wg-a,,,,AAXX 01094 07434 02758 71104 10200 20160 39683 40144 51015 61000 76062 8457/ 90900 333 ////=
07434,1998-09-01 12:00:00,19,1014.5,0,94,18,4000,3.704,,,130,,,,2,,,,,,10,wg-a,,,,AAXX 01124 07434 02740 81302 10190 20180 39683 40145 50000 60026 71062 8452/ 91200 333 60027=
07434,1998-09-01 15:00:00,23,1012.4,-1.3,73,18,10000,11.112,,,150,,,,0,,,,,,1,wg-a,,,,AAXX 01154 07434 12760 71506 10230 20180 39670 40124 55013 60007 70162 81581 91500=
07434,1998-09-01 18:00:00,22,1012.2,-0.3,88,20,15000,3.704,,,110,18.2,23.6,,,,,,,,1,wg-a,,,,AAXX 01184 07434 12/65 71102 10220 20200 39667 40122 58003 60006 70162 84082 91800 333 10236 20182=
07434,1998-09-01 21:00:00,21,1013.2,0.8,83,18,15000,11.112,,,30,,,,,,,,,,,wg-a,,,,AAXX 01214 07434 12765 60306 10210 20180 39675 40132 51008 60006 81532 92100=
07434,1998-09-02 00:00:00,21,1013.2,-0.1,78,17,18000,3.704,,,100,,,,,,,,,,,wg-a,,,,AAXX 02004 07434 12/68 61002 10210 20170 39674 40132 58001 60006 81032 90000=
07434,1998-09-02 06:00:00,16,1013.9,0.7,88,14,8000,11.112,,,140,16.3,22.1,,,,,,,,61,wg-a,,,,AAXX 02064 07434 02758 81406 10160 20140 39673 40139 51007 61000 76162 8457/ 90600 333 10221 20163 6003=
07434,1998-09-02 09:00:00,18,1013,-0.6,88,16,15000,18.52,,,130,,,,3,,,,,,21,wg-a,,,,AAXX 02094 07434 12265 71310 10180 20160 39667 40130 58006 60037 72162 8657/ 90900=
07434,1998-09-02 12:00:00,22,1011.4,-0.9,78,18,15000,14.816,,,130,,,,,,,,,,21,wg-a,,,,AAXX 02124 07434 02665 71308 10220 20180 39658 40114 58009 60036 72162 8557/ 91200 333 61000=
07434,1998-09-02 15:00:00,25,1010.4,-0.5,65,18,15000,18.52,,,190,,,,0,,,,,,1,wg-a,,,,AAXX 02154 07434 12765 71910 10250 20180 39653 40104 57005 60007 70162 8453/ 91500=
07434,1998-09-02 18:00:00,24,1010.6,0.2,69,18,15000,14.816,,,240,16.2,25.7,,,,,,,,1,wg-a,,,,AAXX 02184 07434 12665 42408 10240 20180 39655 40106 51002 60006 70161 82831 91800 333 10257 20162=
07434,1998-09-02 21:00:00,19,1013.7,2.2,94,18,8000,14.816,,,240,,,,0,,,,,,17,wg-a,,,,AAXX 02214 07434 12458 82408 10190 20180 39677 40137 53022 60007 71798 879// 92100=
07434,1998-09-03 00:00:00,18,1014.9,0.9,94,17,8000,22.224,,,220,,,,0,,,,,,60,wg-a,,,,AAXX 03004 07434 02/58 /2212 10180 20170 39686 40149 50009 60016 76098 80000 90000 333 60007=
07434,1998-09-03 03:00:00,16,1015.8,0.4,88,14,15000,18.52,,,250,,,,,,,,,,1,wg-a,,,,AAXX 03034 07434 02465 82510 10160 20140 39690 40158 53004 61000 70162 878// 90300 333 ////=
07434,1998-09-03 06:00:00,14,1017.3,1.2,94,13,20000,14.816,,,250,14.1,24.3,,,,,,,,25,wg-a,,,,AAXX 03064 07434 02470 /2508 10140 20130 39702 40173 53012 61000 72586 86800 90600 333 10243 20141 6004=
07434,1998-09-03 09:00:00,15,1018.6,1.5,94,14,20000,11.112,,,250,,,,,,,,,,1,wg-a,,,,AAXX 03094 07434 02370 72506 10150 20140 39717 40186 51015 61000 70152 878// 90900 333 ////=
07434,1998-09-03 12:00:00,19,1017.7,-0.4,68,13,50000,11.112,,,230,,,,,,,,,,1,wg-a,,,,AAXX 03124 07434 02584 /2306 10190 20130 39713 40177 58004 61000 70152 85200 91200 333 ////=
07434,1998-09-03 15:00:00,20,1016.6,-0.9,60,12,50000,7.408,,,250,,,,,,,,,,,wg-a,,,,AAXX 03154 07434 12684 /2504 10200 20120 39704 40166 58009 60006 84401 91500=
07434,1998-09-03 18:00:00,19,1015.9,-0.7,64,12,50000,3.704,,,270,14.2,21.4,,,,,,,,,wg-a,,,,AAXX 03184 07434 12784 62702 10190 20120 39697 40159 56007 60006 82531 91800 333 10214 20142=
07434,1998-09-04 00:00:00,14,1014.9,-1.6,88,12,0,11.112,,,60,,,,,,,,,,,wg-a,,,,AAXX 04004 07434 12/// /0606 10140 20120 39679 40149 56016 60006 90000=
07434,1998-09-04 06:00:00,14,1011,-1.6,82,11,500,7.408,,,60,13.8,19.4,,,,,,,,,wg-a,,,,AAXX 04064 07434 02700 70604 10140 20110 39642 40110 56016 60006 8657/ 90600 333 10194 20138 61000=
07434,1998-09-04 09:00:00,15,1010.8,0,82,12,40000,7.408,,,130,,,,,,,,,,,wg-a,,,,AAXX 04094 07434 12782 71304 10150 20120 39642 40108 50000 60006 8558/ 90900=
07434,1998-09-04 12:00:00,17,1009.3,-1.1,88,15,25000,7.408,,,160,,,,1,,,,,,60,wg-a,,,,AAXX 04124 07434 02675 71604 10170 20150 39631 40093 56011 60016 76062 8558/ 91200 333 60017=
07434,1998-09-04 15:00:00,16,1009.1,-0.4,94,15,500,18.52,,,250,,,,7,,,,,,61,wg-a,,,,AAXX 04154 07434 12300 72510 10160 20150 39627 40091 58004 60077 76166 8587/ 91500=
07434,1998-09-04 18:00:00,15,1008.4,-0.8,94,14,2500,11.112,,,230,14.4,17.3,,,,,,,,61,wg-a,,,,AAXX 04184 07434 02325 72306 10150 20140 39619 40084 58008 61000 76166 8587/ 91800 333 10173 20144 6005=
07434,1998-09-04 21:00:00,15,1009.7,1.3,100,15,8000,11.112,,,250,,,,5,,,,,,21,wg-a,,,,AAXX 04214 07434 12258 82506 10150 20150 39632 40097 51013 60057 72162 878// 92100=
07434,1998-09-05 00:00:00,15,1010.8,0.9,94,14,12000,11.112,,,260,,,,,,,,,,3,wg-a,,,,AAXX 05004 07434 12262 72606 10150 20140 39641 40108 51009 60056 70362 878// 90000=
07434,1998-09-05 03:00:00,14,1011.7,0.8,100,14,10000,7.408,,,260,,,,,,,,,,,wg-a,,,,AAXX 05034 07434 12260 72604 10140 20140 39649 40117 53008 60006 878// 90300=
07434,1998-09-05 06:00:00,14,1012.5,0.7,94,13,15000,14.816,,,250,13.6,15.4,,,,,17,,,,wg-a,,,,AAXX 05064 07434 02265 72508 10140 20130 39656 40125 53007 60006 862// 90600 333 10154 20136 60174=
07434,1998-09-05 09:00:00,17,1013.5,1.4,82,14,15000,22.224,,37.04,260,,,,,,,,,,1,wg-a,,,,AAXX 05094 07434 02365 72612 10170 20140 39670 40135 51014 61000 70186 872// 90900 333 //// 91020=
07434,1998-09-05 12:00:00,16,1014.2,0.5,88,14,12000,18.52,,,250,,,,1,,,,,,25,wg-a,,,,AAXX 05124 07434 02362 72510 10160 20140 39675 40142 53005 60016 72586 878// 91200 333 60017=
07434,1998-09-05 15:00:00,19,1013.8,0.1,60,11,40000,22.224,,,270,,,,,,,,,,3,wg-a,,,,AAXX 05154 07434 02582 52712 10190 20110 39676 40138 53001 61000 70386 85801 91500 333 ////=
07434,1998-09-05 18:00:00,17,1015.2,1,72,12,40000,11.112,,,260,13.8,19.6,,,,,,,,3,wg-a,,,,AAXX 05184 07434 12582 62606 10170 20120 39686 40152 51010 60006 70386 85801 91800 333 10196 20138=
07434,1998-09-05 21:00:00,14,1016.9,1.2,88,12,40000,3.704,,,250,,,,,,,,,,,wg-a,,,,AAXX 05214 07434 12682 32502 10140 20120 39698 40169 51012 60006 83501 92100=
07434,1998-09-06 00:00:00,13,1016.4,-0.7,94,12,40000,7.408,,,240,,,,,,,,,,,wg-a,,,,AAXX 06004 07434 12782 32404 10130 20120 39691 40164 58007 60006 82501 90000=
07434,1998-09-06 03:00:00,13,1015.6,-0.8,94,12,400,3.704,,,120,,,,,,,,,,44,wg-a,,,,AAXX 06034 07434 12204 71202 10130 20120 39683 40156 56008 60006 74441 876// 90300=
07434,1998-09-06 06:00:00,12,1014.7,-0.9,100,12,500,11.112,,,140,12.1,16.6,,,,,1,,,44,wg-a,,,,AAXX 06064 07434 02105 71406 10120 20120 39674 40147 56009 60006 74441 876// 90600 333 10166 20121 60014=
07434,1998-09-06 09:00:00,17,1013.5,-0.4,82,14,40000,11.112,,,150,,,,,,,,,,1,wg-a,,,,AAXX 06094 07434 12482 21506 10170 20140 39670 40135 58004 60006 70141 82100 90900=
07434,1998-09-06 12:00:00,21,1011,-1.7,53,11,50000,14.816,,,170,,,,,,,,,,3,wg-a,,,,AAXX 06124 07434 12/84 31708 10210 20110 39653 40110 58017 60006 70341 80001 91200=
07434,1998-09-06 15:00:00,24,1008.7,-1.9,47,12,50000,11.112,,,190,,,,,,,,,,,wg-a,,,,AAXX 06154 07434 12/84 51906 10240 20120 39634 40087 58019 60006 80001 91500=
07434,1998-09-06 18:00:00,21,1008.3,-0.7,56,12,50000,7.408,,,190,12.4,23.9,,,,,,,,,wg-a,,,,AAXX 06184 07434 12/84 61904 10210 20120 39627 40083 56007 60006 81032 91800 333 10239 20124=
07434,1998-09-06 21:00:00,19,1008.4,-0.2,64,12,40000,3.704,,,40,,,,,,,,,,,wg-a,,,,AAXX 06214 07434 12/82 70402 10190 20120 39625 40084 58002 60006 85082 92100=
07434,1998-09-07 00:00:00,17,1007.5,-1.2,77,13,500,3.704,,,60,,,,,,,,,,,wg-a,,,,AAXX 07004 07434 12/00 80602 10170 20130 39613 40075 58012 60006 8707/ 90000=
07434,1998-09-07 03:00:00,15,1007.4,-0.3,94,14,6000,7.408,,,40,,,,2,,,,,,63,wg-a,,,,AAXX 07034 07434 12556 80404 10150 20140 39610 40074 56003 60027 76362 8597/ 90300=
07434,1998-09-07 06:00:00,14,1007.4,-0.2,100,14,500,7.408,,,100,14.4,21.1,,,,,4,,,1,wg-a,,,,AAXX 07064 07434 02500 71004 10140 20140 39608 40074 55002 60006 70162 84972 90600 333 10211 20144 60044=
07434,1998-09-07 09:00:00,15,1008.1,0.8,94,14,8000,7.408,,,280,,,,0,,,,,,61,wg-a,,,,AAXX 07094 07434 12158 72804 10150 20140 39616 40081 53008 60007 76186 8487/ 90900=
07434,1998-09-07 12:00:00,16,1008.4,0.5,94,15,8000,11.112,,,220,,,,9,,,,,,60,wg-a,,,,AAXX 07124 07434 02358 72206 10160 20150 39621 40084 51005 60096 76098 879// 91200 333 60097=
07434,1998-09-07 15:00:00,19,1007.5,-0.4,68,13,500,11.112,,,260,,,,,,,,,,1,wg-a,,,,AAXX 07154 07434 02500 52606 10190 20130 39617 40075 55004 61000 70162 84201 91500 333 ////=
07434,1998-09-07 18:00:00,18,1009,1.2,73,13,500,11.112,,,280,14.4,19.9,,,,,,,,1,wg-a,,,,AAXX 07184 07434 02500 52806 10180 20130 39629 40090 53012 61000 70186 83801 91800 333 10199 20144 ////=
07434,1998-09-07 21:00:00,14,1012.2,2.4,88,12,12000,7.408,,,250,,,,,,,,,,,wg-a,,,,AAXX 07214 07434 12/62 02504 10140 20120 39653 40122 51024 60006 80000 92100=
07434,1998-09-08 03:00:00,14,1013.2,0.1,94,13,10000,14.816,,,240,,,,,,,,,,,wg-a,,,,AAXX 08034 07434 12260 72408 10140 20130 39662 40132 53001 60006 876// 90300=
07434,1998-09-08 06:00:00,13,1014.2,0.8,94,12,10000,11.112,,,220,12.7,17.9,,,,,9,,,,wg-a,,,,AAXX 08064 07434 02260 72206 10130 20120 39670 40142 53008 60006 876// 90600 333 10179 20127 60094=
07434,1998-09-08 09:00:00,17,1014.4,0.9,82,14,20000,18.52,,,230,,,,,,,,,,,wg-a,,,,AAXX 08094 07434 12470 72310 10170 20140 39679 40144 52009 60006 87131 90900=
07434,1998-09-08 12:00:00,17,1014.7,0.3,82,14,20000,14.816,,,240,,,,,,,,,,21,wg-a,,,,AAXX 08124 07434 02470 72408 10170 20140 39682 40147 53003 61000 72161 8653/ 91200 333 6100=
07434,1998-09-08 15:00:00,17,1014.3,-0.3,88,15,20000,18.52,,,220,,,,,,,,,,3,wg-a,,,,AAXX 08154 07434 02470 72210 10170 20150 39679 40143 56003 61000 70362 8653/ 91500 333 ////=
07434,1998-09-08 18:00:00,16,1014.9,0.4,100,16,1200,14.816,,,250,12.9,17.9,,,,,,,,10,wg-a,,,,AAXX 08184 07434 02212 72508 10160 20160 39683 40149 52004 61000 71065 877// 91800 333 10179 20129 6000=
07434,1998-09-08 21:00:00,16,1015.3,0.4,100,16,4000,14.816,,,200,,,,0,,,,,,10,wg-a,,,,AAXX 08214 07434 12340 72008 10160 20160 39687 40153 51004 60007 71052 876// 92100=
07434,1998-09-09 00:00:00,15,1014.2,-1.2,100,15,500,11.112,,,170,,,,,,,,,,1,wg-a,,,,AAXX 09004 07434 12300 /1706 10150 20150 39675 40142 58012 60006 70152 85500 90000=
07434,1998-09-09 03:00:00,15,1012.8,-1.5,94,14,8000,14.816,,,190,,,,,,,,,,,wg-a,,,,AAXX 09034 07434 12658 /1908 10150 20140 39660 40128 58015 60006 82530 90300=
07434,1998-09-09 06:00:00,15,1011.9,-0.9,94,14,15000,11.112,,,140,14.1,16.3,,,,,,,,,wg-a,,,,AAXX 09064 07434 02/65 71406 10150 20140 39651 40119 56009 60006 87032 90600 333 10163 20141 60004=
07434,1998-09-09 09:00:00,20,1011,-0,73,15,20000,18.52,,,180,,,,,,,,,,,wg-a,,,,AAXX 09094 07434 12/70 51810 10200 20150 39651 40110 55000 60006 81032 90900=
07434,1998-09-09 12:00:00,25,1008.9,-1.2,54,15,500,25.928,,,210,,,,,,,,,,,wg-a,,,,AAXX 09124 07434 12/00 42114 10250 20150 39639 40089 58012 60006 83032 91200=
07434,1998-09-09 15:00:00,25,1009.3,0.3,54,15,500,22.224,,,260,,,,,,,,,,,wg-a,,,,AAXX 09154 07434 12600 42612 10250 20150 39642 40093 51003 60006 83132 91500=
07434,1998-09-09 18:00:00,22,1009.3,-0.4,69,16,500,11.112,,,250,14.5,25.5,,,,,,,,,wg-a,,,,AAXX 09184 07434 12600 /2506 10220 20160 39638 40093 58004 60006 81131 91800 333 10255 20145=
07434,1998-09-09 21:00:00,18,1011.1,1.1,77,14,500,11.112,,,270,,,,,,,,,,,wg-a,,,,AAXX 09214 07434 12/00 12706 10180 20140 39649 40111 51011 60006 81031 92100=
07434,1998-09-10 00:00:00,17,1011.1,-0.1,77,13,10000,11.112,,,240,,,,,,,,,,,wg-a,,,,AAXX 10004 07434 12/60 /2406 10170 20130 39648 40111 56001 60006 90000=
07434,1998-09-10 03:00:00,16,1011.3,0.1,88,14,500,14.816,,,230,,,,,,,,,,,wg-a,,,,AAXX 10034 07434 12600 72308 10160 20140 39649 40113 50001 60006 87531 90300=
07434,1998-09-10 06:00:00,16,1011.9,0.5,94,15,12000,14.816,,,230,16.2,21.5,,,,,,,,,wg-a,,,,AAXX 10064 07434 02462 72308 10160 20150 39654 40119 53005 60006 8553/ 90600 333 10215 20162 60004=
07434,1998-09-10 09:00:00,16,1012.7,0.7,94,15,10000,14.816,,,230,,,,,,,,,,60,wg-a,,,,AAXX 10094 07434 02460 72308 10160 20150 39661 40127 53007 61000 76062 875// 90900 333 ////=
07434,1998-09-10 12:00:00,17,1012.6,0.1,82,14,25000,18.52,,,230,,,,0,,,,,,1,wg-a,,,,AAXX 10124 07434 02475 72310 10170 20140 39662 40126 50001 60006 70162 8587/ 91200 333 60007=
07434,1998-09-10 15:00:00,16,1012.8,0,88,14,15000,18.52,,,230,,,,,,,,,,21,wg-a,,,,AAXX 10154 07434 02465 /2310 10160 20140 39662 40128 50000 61000 72162 8583/ 91500 333 ////=
07434,1998-09-10 18:00:00,16,1012.8,-0,88,14,25000,14.816,,,220,15.1,18.1,,,,,,,,1,wg-a,,,,AAXX 10184 07434 12575 42208 10160 20140 39662 40128 55000 60006 70161 83230 91800 333 10181 20151=
07434,1998-09-10 21:00:00,15,1013.8,0.8,88,13,20000,7.408,,,220,,,,,,,,,,,wg-a,,,,AAXX 10214 07434 12470 32204 10150 20130 39670 40138 51008 60006 83800 92100=
07434,1998-09-11 00:00:00,14,1013.3,-0.7,94,13,15000,7.408,,,210,,,,,,,,,,,wg-a,,,,AAXX 11004 07434 12265 72104 10140 20130 39663 40133 58007 60006 876// 90000=
07434,1998-09-11 03:00:00,13,1011.9,-1.4,100,13,10000,7.408,,,220,,,,0,,,,,,,wg-a,,,,AAXX 11034 07434 12160 72204 10130 20130 39649 40119 58014 60007 876// 90300=
07434,1998-09-11 06:00:00,13,1010.2,-1.7,94,12,8000,11.112,,,210,12.9,16.2,,,,,,,,60,wg-a,,,,AAXX 11064 07434 02158 82106 10130 20120 39632 40102 56017 61000 76086 8577/ 90600 333 10162 20129 6000=
07434,1998-09-11 09:00:00,14,1009.1,-0.9,94,13,15000,11.112,,,240,,,,3,,,,,,1,wg-a,,,,AAXX 11094 07434 12265 82406 10140 20130 39623 40091 56009 60037 70162 877// 90900=
07434,1998-09-11 12:00:00,14,1006.8,-2.1,94,13,20000,18.52,,,210,,,,0,,,,,,21,wg-a,,,,AAXX 11124 07434 02370 82110 10140 20130 39602 40068 58021 60036 72162 8587/ 91200 333 60007=
07434,1998-09-11 15:00:00,15,1004,-2.6,77,11,20000,29.632,,,220,,,,,,,,,,15,wg-a,,,,AAXX 11154 07434 02570 72216 10150 20110 39576 40040 58026 61000 71562 878// 91500 333 ////=
07434,1998-09-11 18:00:00,12,1001.7,-2.6,100,12,4000,25.928,,,210,12.1,15.3,,,,,,,,63,wg-a,,,,AAXX 11184 07434 02240 82114 10120 20120 39550 40017 58026 61000 76362 887// 91800 333 10153 20121 6009=
07434,1998-09-12 00:00:00,10,1006.2,1.7,93,9,15000,14.816,,,290,,,,1,,,,,,3,wg-a,,,,AAXX 12004 07434 02265 72908 10100 20090 39589 40062 51017 60016 70386 875// 90000 333 60017=
07434,1998-09-12 03:00:00,9,1007,0.6,93,8,10000,18.52,,,290,,,,,,,,,,,wg-a,,,,AAXX 12034 07434 12260 72910 10090 20080 39595 40070 53006 60006 875// 90300=
07434,1998-09-12 06:00:00,8,1008.3,1.1,100,8,10000,14.816,,,290,8.2,12.4,,,,,14,,,,wg-a,,,,AAXX 12064 07434 02260 /2908 10080 20080 39606 40083 53011 60006 877// 90600 333 10124 20082 60144=
07434,1998-09-12 09:00:00,11,1008.8,0.9,87,9,10000,14.816,,,280,,,,,,,,,,,wg-a,,,,AAXX 12094 07434 12460 72808 10110 20090 39615 40088 51009 60006 878// 90900=
07434,1998-09-12 12:00:00,13,1008,-0.4,67,7,20000,22.224,,,280,,,,,,,,,,,wg-a,,,,AAXX 12124 07434 12570 72812 10130 20070 39611 40080 58004 60006 87832 91200=
07434,1998-09-12 15:00:00,11,1006.4,-1.8,94,10,12000,18.52,,,230,,,,2,,,,,,21,wg-a,,,,AAXX 12154 07434 12462 72310 10110 20100 39593 40064 58018 60027 72162 878// 91500=
07434,1998-09-12 18:00:00,11,1002.9,-3.3,100,11,3000,11.112,,,260,8.2,13.6,,,,,,,,10,wg-a,,,,AAXX 12184 07434 02230 82606 10110 20110 39560 40029 56033 61000 71062 877// 91800 333 10136 20082 6010=
07434,1998-09-12 21:00:00,9,1003.9,0.6,93,8,500,14.816,,,290,,,,0,,,,,,1,wg-a,,,,AAXX 12214 07434 12400 42908 10090 20080 39566 40039 50006 60007 70161 84800 92100=
07434,1998-09-13 00:00:00,8,1004.3,0.1,100,8,15000,11.112,,,310,,,,0,,,,,,2,wg-a,,,,AAXX 13004 07434 02265 73106 10080 20080 39567 40043 51001 60016 70261 876// 90000 333 60007=
07434,1998-09-13 03:00:00,7,1004.6,0.2,100,7,6000,7.408,,,270,,,,,,,,,,,wg-a,,,,AAXX 13034 07434 12156 72704 10070 20070 39569 40046 52002 60006 876// 90300=
07434,1998-09-13 06:00:00,5,1005.2,0.2,100,5,1000,7.408,,,230,4.7,11.4,,,,,12,,,40,wg-a,,,,AAXX 13064 07434 02210 52304 10050 20050 39571 40052 53002 60006 74041 84530 90600 333 10114 20047 60124=
07434,1998-09-13 09:00:00,8,1004.4,-0.2,93,7,15000,14.816,,,240,,,,0,,,,,,25,wg-a,,,,AAXX 13094 07434 12265 72408 10080 20070 39569 40044 56002 60007 72586 878// 90900=
07434,1998-09-13 12:00:00,13,1002.2,-1.4,82,10,20000,22.224,,,280,,,,0,,,,,,1,wg-a,,,,AAXX 13124 07434 02470 62812 10130 20100 39555 40022 58014 60016 70186 86800 91200 333 60007=
07434,1998-09-13 15:00:00,13,1004.5,2.3,62,6,40000,22.224,,,300,,,,1,,,,,,1,wg-a,,,,AAXX 13154 07434 12582 53012 10130 20060 39578 40045 53023 60017 70186 83801 91500=
07434,1998-09-13 18:00:00,12,1007.5,2.6,58,4,40000,11.112,,,310,5.4,14.3,,,,,,,,3,wg-a,,,,AAXX 13184 07434 12582 /3106 10120 20040 39604 40075 53026 60006 70386 86801 91800 333 10143 20054=
07434,1998-09-13 21:00:00,9,1009.2,1.2,76,5,40000,7.408,,,270,,,,,,,,,,,wg-a,,,,AAXX 13214 07434 12782 42704 10090 20050 39616 40092 51012 60006 84501 92100=
07434,1998-09-14 00:00:00,9,1009.2,0,93,8,500,7.408,,,240,,,,,,,,,,,wg-a,,,,AAXX 14004 07434 12300 72404 10090 20080 39616 40092 50000 60006 876// 90000=
07434,1998-09-14 03:00:00,9,1009,-0.2,100,9,6000,11.112,,,280,,,,1,,,,,,21,wg-a,,,,AAXX 14034 07434 12356 72806 10090 20090 39614 40090 58002 60017 72122 875// 90300=
07434,1998-09-14 06:00:00,8,1010.3,1,93,7,10000,7.408,,,280,7.9,12.1,,,,,3,,,,wg-a,,,,AAXX 14064 07434 02260 72804 10080 20070 39624 40103 53010 60006 876// 90600 333 10121 20079 60034=
07434,1998-09-14 09:00:00,11,1010.8,1,82,8,500,14.816,,,270,,,,,,,,,,,wg-a,,,,AAXX 14094 07434 12400 /2708 10110 20080 39634 40108 52010 60006 86830 90900=
07434,1998-09-14 12:00:00,13,1010.8,0.3,72,8,50000,14.816,,,280,,,,,,,,,,,wg-a,,,,AAXX 14124 07434 12584 72808 10130 20080 39637 40108 51003 60006 87800 91200=
07434,1998-09-14 15:00:00,15,1010.9,0.5,63,8,50000,22.224,,,280,,,,,,,,,,,wg-a,,,,AAXX 14154 07434 12584 52812 10150 20080 39642 40109 53005 60006 85800 91500=
07434,1998-09-14 18:00:00,13,1012.8,1.5,77,9,20000,14.816,,,260,7.9,15.9,,,,,,,,15,wg-a,,,,AAXX 14184 07434 02570 /2608 10130 20090 39657 40128 53015 61000 71522 86800 91800 333 10159 20079 ////=
07434,1998-09-14 21:00:00,11,1015.4,2.2,87,9,25000,14.816,,,270,,,,,,,,,,1,wg-a,,,,AAXX 14214 07434 02575 52708 10110 20090 39679 40154 53022 61000 70186 85800 92100 333 ////=
07434,1998-09-15 00:00:00,10,1016.7,1,93,9,20000,14.816,,,280,,,,,,,,,,3,wg-a,,,,AAXX 15004 07434 02370 /2808 10100 20090 39689 40167 51010 61000 70386 86800 90000 333 ////=
07434,1998-09-15 03:00:00,9,1017.3,0.4,100,9,8000,11.112,,,270,,,,,,,,,,,wg-a,,,,AAXX 15034 07434 12158 72706 10090 20090 39693 40173 53004 60006 876// 90300=
07434,1998-09-15 06:00:00,8,1018.7,1.2,100,8,10000,7.408,,,230,8.4,13,,,,,,,,,wg-a,,,,AAXX 15064 07434 02260 72304 10080 20080 39705 40187 53012 60006 876// 90600 333 10130 20084 61000=
07434,1998-09-15 09:00:00,11,1019.4,1.2,87,9,500,14.816,,,250,,,,,,,,,,,wg-a,,,,AAXX 15094 07434 12300 72508 10110 20090 39717 40194 53012 60006 878// 90900=
07434,1998-09-15 12:00:00,12,1019.1,-0.2,94,11,500,18.52,,,200,,,,1,,,,,,20,wg-a,,,,AAXX 15124 07434 02100 72010 10120 20110 39715 40191 58002 60016 72052 878// 91200 333 60017=
07434,1998-09-15 15:00:00,13,1017.4,-1.3,100,13,12000,18.52,,,220,,,,1,,,,,,21,wg-a,,,,AAXX 15154 07434 12262 82210 10130 20130 39702 40174 58013 60017 72162 888// 91500=
07434,1998-09-16 00:00:00,14,1016.6,0.1,94,13,10000,14.816,,,270,,,,2,,,,,,1,wg-a,,,,AAXX 16004 07434 02560 72708 10140 20130 39695 40166 53001 60036 70165 875// 90000 333 60027=
07434,1998-09-16 06:00:00,13,1016.1,-0,94,12,8000,3.704,,,250,12.5,14.3,,,,,,,,50,wg-a,,,,AAXX 16064 07434 02258 82502 10130 20120 39688 40161 55000 61000 75065 877// 90600 333 10143 20125 6006=
07434,1998-09-16 09:00:00,13,1017.1,1,88,11,9000,18.52,,,290,,,,1,,,,,,50,wg-a,,,,AAXX 16094 07434 12259 72910 10130 20110 39698 40171 52010 60017 75052 875// 90900=
07434,1998-09-16 12:00:00,14,1017,0.1,77,10,500,14.816,,,290,,,,,,,,,,1,wg-a,,,,AAXX 16124 07434 02400 72908 10140 20100 39699 40170 51001 60016 70152 878// 91200 333 61000=
07434,1998-09-16 18:00:00,14,1016.7,0.1,77,10,500,3.704,,,300,12.2,16,,,,,,,,,wg-a,,,,AAXX 16184 07434 12500 63002 10140 20100 39696 40167 53001 60006 85802 91800 333 10160 20122=
07434,1998-09-17 00:00:00,10,1018.4,0.2,100,10,15000,7.408,,,300,,,,,,,,,,,wg-a,,,,AAXX 17004 07434 12665 23004 10100 20100 39706 40184 50002 60006 82500 90000=
07434,1998-09-17 03:00:00,10,1018.5,-0,93,9,500,7.408,,,290,,,,0,,,,,,,wg-a,,,,AAXX 17034 07434 12200 72904 10100 20090 39706 40185 54000 60007 876// 90300=
07434,1998-09-17 09:00:00,11,1020,1.4,100,11,4000,3.704,,,340,,,,,,,,,,10,wg-a,,,,AAXX 17094 07434 12240 83402 10110 20110 39723 40200 51014 60006 71042 876// 90900=
07434,1998-09-17 12:00:00,16,1018.9,-0.3,77,12,20000,11.112,,,300,,,,,,,,,,1,wg-a,,,,AAXX 17124 07434 12470 63006 10160 20120 39720 40189 58003 60006 70142 84831 91200=
07434,1998-09-17 15:00:00,18,1018.2,-0.4,64,11,40000,14.816,,,320,,,,,,,,,,,wg-a,,,,AAXX 17154 07434 12582 53208 10180 20110 39716 40182 56004 60006 83801 91500=
07434,1998-09-17 18:00:00,16,1019,0.5,72,11,40000,3.704,,,350,9.8,18.3,,,,,,,,,wg-a,,,,AAXX 17184 07434 12682 73502 10160 20110 39721 40190 53005 60006 81432 91800 333 10183 20098=
07434,1998-09-17 21:00:00,14,1020.5,1.1,77,10,25000,7.408,,,30,,,,,,,,,,,wg-a,,,,AAXX 17214 07434 12/75 40304 10140 20100 39732 40205 51011 60006 80002 92100=
07434,1998-09-18 00:00:00,12,1021.4,0.5,82,9,15000,3.704,,,80,,,,,,,,,,,wg-a,,,,AAXX 18004 07434 12/65 30802 10120 20090 39737 40214 51005 60006 80002 90000=
07434,1998-09-18 03:00:00,10,1021.4,-0.4,93,9,8000,7.408,,,40,,,,,,,,,,11,wg-a,,,,AAXX 18034 07434 12/58 00404 10100 20090 39733 40214 58004 60006 71100 80000 90300=
07434,1998-09-18 06:00:00,11,1022,0.8,82,8,9000,7.408,,,50,9.2,16,,,,,,,,,wg-a,,,,AAXX 18064 07434 02/59 00504 10110 20080 39741 40220 53008 60006 80000 90600 333 10160 20092 60004=
07434,1998-09-18 12:00:00,19,1022.6,0.3,49,8,500,14.816,,,30,,,,,,,,,,,wg-a,,,,AAXX 18124 07434 12/00 00308 10190 20080 39759 40226 50003 60006 80000 91200=
07434,1998-09-18 15:00:00,21,1021.6,-0.6,46,9,500,18.52,,,70,,,,,,,,,,,wg-a,,,,AAXX 18154 07434 12/00 00710 10210 20090 39753 40216 58006 60006 80000 91500=
07434,1998-09-18 18:00:00,17,1022.9,0.7,59,9,500,11.112,,,40,10.8,20.8,,,,,,,,,wg-a,,,,AAXX 18184 07434 12/00 00406 10170 20090 39760 40229 53007 60006 80000 91800 333 10208 20108=
07434,1998-09-18 21:00:00,15,1024.8,1.4,67,9,500,18.52,,,70,,,,,,,,,,,wg-a,,,,AAXX 18214 07434 12/00 00710 10150 20090 39774 40248 51014 60006 80000 92100=
07434,1998-09-19 00:00:00,14,1025.1,0.1,72,9,500,25.928,,,80,,,,,,,,,,,wg-a,,,,AAXX 19004 07434 12/00 00814 10140 20090 39775 40251 50001 60006 80000 90000=
07434,1998-09-19 03:00:00,13,1024.6,-0.6,77,9,500,18.52,,,70,,,,,,,,,,,wg-a,,,,AAXX 19034 07434 12/00 00710 10130 20090 39769 40246 56006 60006 80000 90300=
07434,1998-09-19 06:00:00,13,1025,0.4,72,8,500,25.928,,,70,12.5,17.2,,,,,,,,,wg-a,,,,AAXX 19064 07434 02/00 00714 10130 20080 39773 40250 53004 60006 80000 90600 333 10172 20125 60004=
07434,1998-09-19 09:00:00,17,1025.5,1.1,48,6,40000,18.52,,,80,,,,,,,,,,,wg-a,,,,AAXX 19094 07434 12/82 20810 10170 20060 39784 40255 53011 60006 80001 90900=
07434,1998-09-19 12:00:00,22,1025.1,0.3,38,7,40000,11.112,,,50,,,,,,,,,,,wg-a,,,,AAXX 19124 07434 12/82 10506 10220 20070 39787 40251 51003 60006 80001 91200=
07434,1998-09-19 15:00:00,23,1023.5,-1.3,41,9,40000,22.224,,,40,,,,,,,,,,,wg-a,,,,AAXX 19154 07434 12/82 10412 10230 20090 39774 40235 56013 60006 80001 91500=
07434,1998-09-19 18:00:00,18,1024.8,0.5,45,6,60000,18.52,,,50,13.1,23.6,,,,,,,,,wg-a,,,,AAXX 19184 07434 12/86 00510 10180 20060 39779 40248 53005 60006 80000 91800 333 10236 20131=
07434,1998-09-19 21:00:00,16,1025.7,0.5,59,8,500,25.928,,,80,,,,,,,,,,,wg-a,,,,AAXX 19214 07434 12/00 00814 10160 20080 39784 40257 52005 60006 80000 92100=
07434,1998-09-20 00:00:00,15,1026.1,0.2,59,7,500,22.224,,,70,,,,,,,,,,,wg-a,,,,AAXX 20004 07434 12/00 00712 10150 20070 39786 40261 51002 60006 80000 90000=
07434,1998-09-20 03:00:00,13,1025.6,-0.8,67,7,25000,22.224,,,70,,,,,,,,,,,wg-a,,,,AAXX 20034 07434 12/75 00712 10130 20070 39778 40256 58008 60006 80000 90300=
07434,1998-09-20 06:00:00,12,1025.9,0.2,71,7,40000,25.928,,,80,11.8,18.1,,,,,,,,,wg-a,,,,AAXX 20064 07434 02/82 00814 10120 20070 39780 40259 53002 60006 80000 90600 333 10181 20118 60004=
07434,1998-09-20 09:00:00,16,1026.1,0.9,51,6,10000,25.928,,,80,,,,,,,,,,,wg-a,,,,AAXX 20094 07434 12/60 /0814 10160 20060 39789 40261 51009 60006 90900=
07434,1998-09-20 12:00:00,20,1024.9,-0.6,43,7,50000,29.632,,,80,,,,,,,,,,,wg-a,,,,AAXX 20124 07434 12/84 00816 10200 20070 39783 40249 58006 60006 80000 91200=
07434,1998-09-20 15:00:00,20,1023.7,-1.1,46,8,50000,29.632,,,50,,,,,,,,,,,wg-a,,,,AAXX 20154 07434 12/84 00516 10200 20080 39772 40237 56011 60006 80000 91500=
07434,1998-09-20 18:00:00,17,1024.1,-0.1,55,8,50000,18.52,,,70,12.1,21.2,,,,,,,,,wg-a,,,,AAXX 20184 07434 12/84 00710 10170 20080 39771 40241 55001 60006 80000 91800 333 10212 20121=
07434,1998-09-20 21:00:00,15,1024.7,0.2,63,8,500,22.224,,,90,,,,,,,,,,,wg-a,,,,AAXX 20214 07434 12/00 00912 10150 20080 39773 40247 51002 60006 80000 92100=
07434,1998-09-21 00:00:00,13,1024.7,-0.2,72,8,25000,18.52,,,90,,,,,,,,,,,wg-a,,,,AAXX 21004 07434 12/75 00910 10130 20080 39771 40247 55002 60006 80000 90000=
07434,1998-09-21 03:00:00,12,1024.3,-0.6,76,8,20000,14.816,,,70,,,,,,,,,,,wg-a,,,,AAXX 21034 07434 12/70 00708 10120 20080 39765 40243 58006 60006 80000 90300=
07434,1998-09-21 06:00:00,12,1024.5,0.2,76,8,20000,11.112,,,70,11.8,16.8,,,,,,,,,wg-a,,,,AAXX 21064 07434 02/70 00706 10120 20080 39767 40245 51002 60006 80000 90600 333 10168 20118 60004=
07434,1998-09-21 09:00:00,18,1023.4,-0.2,59,10,25000,7.408,,,100,,,,,,,,,,,wg-a,,,,AAXX 21094 07434 12/75 01004 10180 20100 39765 40234 58002 60006 80000 90900=
07434,1998-09-21 12:00:00,21,1021.4,-1.3,46,9,500,7.408,,,80,,,,,,,,,,,wg-a,,,,AAXX 21124 07434 12700 10804 10210 20090 39752 40214 58013 60006 81100 91200=
07434,1998-09-21 15:00:00,22,1019.8,-1.4,46,10,500,7.408,,,80,,,,,,,,,,,wg-a,,,,AAXX 21154 07434 12700 10804 10220 20100 39738 40198 56014 60006 81100 91500=
07434,1998-09-21 18:00:00,18,1020.2,-0.3,64,11,500,18.52,,,60,11.9,22.6,,,,,,,,,wg-a,,,,AAXX 21184 07434 12/00 10610 10180 20110 39735 40202 55003 60006 80001 91800 333 10226 20119=
07434,1998-09-21 21:00:00,15,1020.6,0,72,10,20000,14.816,,,70,,,,,,,,,,,wg-a,,,,AAXX 21214 07434 12/70 20708 10150 20100 39735 40206 50000 60006 80001 92100=
07434,1998-09-22 00:00:00,14,1020.2,-0.5,82,11,20000,14.816,,,80,,,,,,,,,,,wg-a,,,,AAXX 22004 07434 12/70 30808 10140 20110 39730 40202 57005 60006 80001 90000=
07434,1998-09-22 03:00:00,13,1019,-1.4,88,11,20000,7.408,,,70,,,,,,,,,,,wg-a,,,,AAXX 22034 07434 12/70 30704 10130 20110 39716 40190 57014 60006 80001 90300=
07434,1998-09-22 06:00:00,13,1018.7,-0.3,82,10,20000,7.408,,,80,12.6,17.7,,,,,,,,,wg-a,,,,AAXX 22064 07434 02/70 30804 10130 20100 39713 40187 55003 60006 80001 90600 333 10177 20126 60004=
07434,1998-09-22 09:00:00,17,1018.1,0.1,59,9,500,11.112,,,130,,,,,,,,,,,wg-a,,,,AAXX 22094 07434 12/00 21306 10170 20090 39714 40181 50001 60006 80001 90900=
07434,1998-09-22 12:00:00,21,1016,-1.4,43,8,500,11.112,,,180,,,,,,,,,,,wg-a,,,,AAXX 22124 07434 12/00 21806 10210 20080 39700 40160 56014 60006 80001 91200=
07434,1998-09-22 15:00:00,22,1014.8,-1,46,10,40000,11.112,,,170,,,,,,,,,,,wg-a,,,,AAXX 22154 07434 12782 41706 10220 20100 39690 40148 57010 60006 84832 91500=
07434,1998-09-22 18:00:00,20,1014.9,-0.2,53,10,40000,3.704,,,160,12.9,22.4,,,,,,,,,wg-a,,,,AAXX 22184 07434 12682 61602 10200 20100 39688 40149 56002 60006 86882 91800 333 10224 20129=
07434,1998-09-22 21:00:00,17,1016.4,0.9,59,9,25000,14.816,,,170,,,,0,,,,,,,wg-a,,,,AAXX 22214 07434 12575 51708 10170 20090 39697 40164 51009 60007 81882 92100=
07434,1998-09-23 00:00:00,15,1017.1,0.3,63,8,25000,11.112,,,130,,,,,,,,,,,wg-a,,,,AAXX 23004 07434 12/75 51306 10150 20080 39700 40171 51003 60006 84082 90000=
07434,1998-09-23 03:00:00,14,1017.2,-0.1,63,7,20000,11.112,,,120,,,,,,,,,,,wg-a,,,,AAXX 23034 07434 12/70 51206 10140 20070 39699 40172 55001 60006 82082 90300=
07434,1998-09-23 06:00:00,13,1017.5,0.2,67,7,20000,7.408,,,110,12.7,19.9,,,,,,,,,wg-a,,,,AAXX 23064 07434 02/70 31104 10130 20070 39701 40175 53002 60006 81082 90600 333 10199 20127 60004=
07434,1998-09-23 09:00:00,17,1017.4,0.6,55,8,20000,18.52,,,150,,,,,,,,,,,wg-a,,,,AAXX 23094 07434 12/70 31510 10170 20080 39707 40174 52006 60006 82031 90900=
07434,1998-09-23 12:00:00,20,1016.4,-0.5,53,10,18000,14.816,,,150,,,,,,,,,,,wg-a,,,,AAXX 23124 07434 12/68 51508 10200 20100 39702 40164 58005 60006 82031 91200=
07434,1998-09-23 15:00:00,20,1015.7,-0.6,56,11,20000,11.112,,,190,,,,,,,,,,,wg-a,,,,AAXX 23154 07434 12670 71906 10200 20110 39696 40157 58006 60006 82156 91500=
07434,1998-09-23 18:00:00,18,1015.7,-0.3,68,12,18000,7.408,,,150,12.7,21.2,,,,,,,,,wg-a,,,,AAXX 23184 07434 12868 71504 10180 20120 39693 40157 56003 60006 85072 91800 333 10212 20127=
07434,1998-09-23 21:00:00,17,1016.2,0.2,72,12,15000,3.704,,,130,,,,,,,,,,,wg-a,,,,AAXX 23214 07434 12865 61302 10170 20120 39695 40162 53002 60006 85072 92100=
07434,1998-09-24 00:00:00,15,1015.6,-0.8,77,11,15000,3.704,,,110,,,,,,,,,,,wg-a,,,,AAXX 24004 07434 12865 61102 10150 20110 39687 40156 57008 60006 85072 90000=
07434,1998-09-24 03:00:00,14,1015.4,-0.4,77,10,15000,7.408,,,110,,,,,,,,,,,wg-a,,,,AAXX 24034 07434 12665 /1104 10140 20100 39683 40154 57004 60006 85572 90300=
07434,1998-09-24 06:00:00,14,1015.1,-0.2,77,10,15000,11.112,,,130,13.7,18.2,,,,,,,,,wg-a,,,,AAXX 24064 07434 02665 71306 10140 20100 39681 40151 55002 60006 875// 90600 333 10182 20137 60004=
07434,1998-09-24 09:00:00,17,1014.7,0,68,11,20000,14.816,,,150,,,,,,,,,,,wg-a,,,,AAXX 24094 07434 12570 71508 10170 20110 39681 40147 50000 60006 875// 90900=
07434,1998-09-24 12:00:00,17,1014.5,-0.1,72,12,15000,14.816,,,160,,,,,,,,,,21,wg-a,,,,AAXX 24124 07434 02565 81608 10170 20120 39680 40145 58001 61000 72162 8657/ 91200 333 6100=
07434,1998-09-24 15:00:00,18,1012.7,-1.5,73,13,20000,22.224,,,150,,,,0,,,,,,1,wg-a,,,,AAXX 24154 07434 12570 61512 10180 20130 39665 40127 58015 60007 70186 84932 91500=
07434,1998-09-24 18:00:00,17,1012.2,-0.8,77,13,12000,11.112,,,130,14.3,18.6,,,,,,,,3,wg-a,,,,AAXX 24184 07434 12562 61306 10170 20130 39657 40122 56008 60006 70386 85902 91800 333 10186 20143=
07434,1998-09-24 21:00:00,15,1012.9,0.5,82,12,18000,14.816,,,140,,,,,,,,,,,wg-a,,,,AAXX 24214 07434 12768 61408 10150 20120 39662 40129 51005 60006 86501 92100=
07434,1998-09-25 00:00:00,15,1012.4,-0.6,77,11,18000,11.112,,,130,,,,,,,,,,,wg-a,,,,AAXX 25004 07434 12/68 11306 10150 20110 39656 40124 58006 60006 80001 90000=
07434,1998-09-25 03:00:00,14,1010.9,-1.6,77,10,15000,14.816,,,130,,,,,,,,,,,wg-a,,,,AAXX 25034 07434 12/65 11308 10140 20100 39640 40109 57016 60006 80001 90300=
07434,1998-09-25 06:00:00,14,1009.6,-1.2,77,10,15000,14.816,,,130,13.4,16.4,,,,,,,,,wg-a,,,,AAXX 25064 07434 02/65 61308 10140 20100 39628 40096 56012 60006 81031 90600 333 10164 20134 60004=
07434,1998-09-25 09:00:00,17,1009,-0,72,12,20000,18.52,,,160,,,,,,,,,,,wg-a,,,,AAXX 25094 07434 12770 71610 10170 20120 39628 40090 55000 60006 8453/ 90900=
07434,1998-09-25 12:00:00,18,1007.5,-1.3,77,14,20000,22.224,,,150,,,,,,,,,,21,wg-a,,,,AAXX 25124 07434 02570 71512 10180 20140 39615 40075 58013 61000 72162 878// 91200 333 6100=
07434,1998-09-25 15:00:00,22,1005.9,-1,60,14,500,25.928,,,160,,,,,,,,,,,wg-a,,,,AAXX 25154 07434 12600 51614 10220 20140 39605 40059 58010 60006 85201 91500=
07434,1998-09-25 18:00:00,19,1005.3,-0.9,73,14,500,14.816,,,150,14,21.9,,,,,,,,,wg-a,,,,AAXX 25184 07434 12500 51508 10190 20140 39596 40053 56009 60006 82201 91800 333 10219 20140=
07434,1998-09-25 21:00:00,17,1005.1,-0.6,77,13,20000,18.52,,,150,,,,,,,,,,,wg-a,,,,AAXX 25214 07434 12/70 71510 10170 20130 39590 40051 58006 60006 84032 92100=
07434,1998-09-26 00:00:00,17,1002.9,-2.1,77,13,20000,14.816,,,120,,,,,,,,,,,wg-a,,,,AAXX 26004 07434 12670 81208 10170 20130 39569 40029 58021 60006 8357/ 90000=
07434,1998-09-26 03:00:00,17,1000.3,-2.4,82,14,15000,14.816,,,120,,,,,,,,,,,wg-a,,,,AAXX 26034 07434 12665 81208 10170 20140 39545 40003 58024 60006 8457/ 90300=
07434,1998-09-26 06:00:00,14,1001.7,0.8,94,13,20000,11.112,,,150,14,19.1,,,,,,,,29,wg-a,,,,AAXX 26064 07434 02270 81506 10140 20130 39553 40017 51008 61000 72996 8597/ 90600 333 10191 20140 6003=
07434,1998-09-26 09:00:00,15,1001.7,0.2,88,13,500,11.112,,,220,,,,1,,,,,,1,wg-a,,,,AAXX 26094 07434 12400 72206 10150 20130 39555 40017 53002 60017 70186 8387/ 90900=
07434,1998-09-26 12:00:00,19,1000.8,-0.4,56,10,40000,25.928,,,210,,,,,,,,,,3,wg-a,,,,AAXX 26124 07434 12582 62114 10190 20100 39551 40008 58004 60016 70386 82831 91200=
07434,1998-09-26 15:00:00,18,999.5,-1.3,52,8,20000,22.224,,,240,,,,,,,,,,80,wg-a,,,,AAXX 26154 07434 02470 72412 10180 20080 39538 49995 55013 61000 78086 85331 91500 333 ////=
07434,1998-09-26 21:00:00,14,1001.5,0.9,82,11,10000,22.224,,,190,,,,0,,,,,,60,wg-a,,,,AAXX 26214 07434 12460 71912 10140 20110 39551 40015 53009 60007 76062 8787/ 92100=
07434,1998-09-27 00:00:00,12,1000.9,-0.8,94,11,10000,22.224,,,180,,,,2,,,,,,21,wg-a,,,,AAXX 27004 07434 02560 71812 10120 20110 39543 40009 58008 60026 72162 875// 90000 333 60027=
07434,1998-09-27 03:00:00,13,999.3,-1.4,94,12,6000,31.484,,,210,,,,0,,,,,,61,wg-a,,,,AAXX 27034 07434 12456 72117 10130 20120 39529 49993 55014 60007 76162 875// 90300=
07434,1998-09-27 06:00:00,13,1001.2,1.8,94,12,10000,29.632,,48.152,230,12.1,14.9,,,,,,,,25,wg-a,,,,AAXX 27064 07434 02260 72316 10130 20120 39547 40012 53018 61000 72586 878// 90600 333 10149 20121 6005 91026=
07434,1998-09-27 09:00:00,14,1003.7,2.6,88,12,10000,29.632,,,230,,,,,,,,,,,wg-a,,,,AAXX 27094 07434 12460 72316 10140 20120 39573 40037 51026 60006 878// 90900=
07434,1998-09-27 12:00:00,15,1004.5,0.8,82,12,15000,25.928,,,230,,,,1,,,,,,25,wg-a,,,,AAXX 27124 07434 02465 72314 10150 20120 39581 40045 51008 60016 72586 878// 91200 333 60017=
07434,1998-09-27 15:00:00,16,1005.2,0.9,82,13,20000,11.112,,,260,,,,0,,,,,,25,wg-a,,,,AAXX 27154 07434 12470 /2606 10160 20130 39590 40052 51009 60007 72586 86800 91500=
07434,1998-09-27 18:00:00,14,1007.3,1.7,94,13,12000,14.816,,,230,13,16.4,,,,,,,,25,wg-a,,,,AAXX 27184 07434 02462 72308 10140 20130 39607 40073 53017 61000 72586 878// 91800 333 10164 20130 6001=
07434,1998-09-27 21:00:00,13,1008.8,1.3,100,13,10000,14.816,,,240,,,,,,,,,,,wg-a,,,,AAXX 27214 07434 12360 72408 10130 20130 39620 40088 51013 60006 871// 92100=
07434,1998-09-28 00:00:00,14,1008.3,-0.5,94,13,10000,14.816,,,250,,,,,,,,,,,wg-a,,,,AAXX 28004 07434 12260 72508 10140 20130 39615 40083 58005 60006 875// 90000=
07434,1998-09-28 03:00:00,14,1007.4,-0.8,94,13,8000,14.816,,,240,,,,,,,,,,,wg-a,,,,AAXX 28034 07434 12258 72408 10140 20130 39607 40074 58008 60006 875// 90300=
07434,1998-09-28 06:00:00,13,1008.3,0.8,100,13,2000,14.816,,,260,13.2,14.1,,,,,,,,60,wg-a,,,,AAXX 28064 07434 02220 82608 10130 20130 39615 40083 53008 61000 76086 888// 90600 333 10141 20132 6006=
07434,1998-09-28 09:00:00,14,1009.5,1.2,94,13,4000,14.816,,,250,,,,2,,,,,,10,wg-a,,,,AAXX 28094 07434 12240 82508 10140 20130 39627 40095 51012 60027 71066 888// 90900=
07434,1998-09-28 12:00:00,17,1009.4,0.4,72,12,12000,14.816,,,280,,,,1,,,,,,1,wg-a,,,,AAXX 28124 07434 02362 72808 10170 20120 39631 40094 51004 60026 70162 878// 91200 333 60017=
07434,1998-09-28 15:00:00,17,1009.2,-0.2,72,12,25000,14.816,,,290,,,,,,,,,,,wg-a,,,,AAXX 28154 07434 12575 72908 10170 20120 39629 40092 55002 60006 87800 91500=
07434,1998-09-28 18:00:00,15,1010.6,1,77,11,25000,11.112,,,270,13.1,18.8,,,,,,,,,wg-a,,,,AAXX 28184 07434 12575 52706 10150 20110 39639 40106 53010 60006 85800 91800 333 10188 20131=
07434,1998-09-29 00:00:00,12,1012.7,0.1,100,12,8000,7.408,,,280,,,,,,,,,,,wg-a,,,,AAXX 29004 07434 12258 72804 10120 20120 39655 40127 51001 60006 875// 90000=
07434,1998-09-29 03:00:00,12,1011.6,-1.1,94,11,1200,3.704,,,110,,,,,,,,,,10,wg-a,,,,AAXX 29034 07434 12112 71102 10120 20110 39644 40116 58011 60006 71022 876// 90300=
07434,1998-09-29 06:00:00,11,1010.8,-0.9,100,11,900,11.112,,,200,11.1,14.8,,,,,2,,,43,wg-a,,,,AAXX 29064 07434 02/09 92006 10110 20110 39635 40108 58009 60006 74342 89/// 90600 333 10148 20111 60024=
07434,1998-09-29 09:00:00,13,1009.3,-1.1,94,12,4000,11.112,,,160,,,,,,,,,,,wg-a,,,,AAXX 29094 07434 12/40 /1606 10130 20120 39624 40093 57011 60006 90900=
07434,1998-09-29 12:00:00,16,1006.2,-2.6,77,12,20000,18.52,,,140,,,,,,,,,,1,wg-a,,,,AAXX 29124 07434 12470 71410 10160 20120 39598 40062 58026 60006 70142 8383/ 91200=
07434,1998-09-29 15:00:00,16,1003.6,-2.4,82,13,20000,11.112,,,150,,,,,,,,,,60,wg-a,,,,AAXX 29154 07434 02670 81506 10160 20130 39574 40036 56024 61000 76062 8457/ 91500 333 ////=
07434,1998-09-29 21:00:00,15,1002.5,-0.4,88,13,15000,18.52,,,200,,,,1,,,,,,60,wg-a,,,,AAXX 29214 07434 12265 82010 10150 20130 39561 40025 56004 60017 76066 875// 92100=
07434,1998-09-30 00:00:00,14,1003.9,1.3,94,13,15000,22.224,,38.892,250,,,,2,,,,,,21,wg-a,,,,AAXX 30004 07434 02265 72512 10140 20130 39574 40039 51013 60036 72162 878// 90000 333 60027 91021=
07434,1998-09-30 03:00:00,13,1004.7,0.6,94,12,15000,18.52,,,240,,,,,,,,,,,wg-a,,,,AAXX 30034 07434 12465 72410 10130 20120 39580 40047 51006 60006 878// 90300=
07434,1998-09-30 06:00:00,12,1005.4,0.5,94,11,15000,14.816,,,230,11.9,16.4,,,,,3,,,3,wg-a,,,,AAXX 30064 07434 02465 /2308 10120 20110 39585 40054 51005 60006 70386 84100 90600 333 10164 20119 60034=
07434,1998-09-30 12:00:00,16,1004.8,-0.5,68,10,500,29.632,,,220,,,,,,,,,,25,wg-a,,,,AAXX 30124 07434 02500 52216 10160 20100 39586 40048 58005 61000 72586 85800 91200 333 6100=
07434,1998-09-30 15:00:00,16,1004.4,-0.5,68,10,500,29.632,,,230,,,,,,,,,,1,wg-a,,,,AAXX 30154 07434 02500 52316 10160 20100 39581 40044 56005 61000 70186 85900 91500 333 ////=
07434,1998-09-30 18:00:00,12,1006.4,1.2,82,9,500,14.816,,,220,11.5,17.4,,1,,,,,,1,wg-a,,,,AAXX 30184 07434 02500 42208 10120 20090 39593 40064 51012 60006 70186 83930 91800 333 10174 20115 60017=
07434,1998-09-30 21:00:00,11,1006.4,-0.1,87,9,500,14.816,,,200,,,,,,,,,,,wg-a,,,,AAXX 30214 07434 12500 32008 10110 20090 39592 40064 58001 60006 83500 92100=
07434,1998-10-01 00:00:00,10,1006,-0.5,93,9,15000,18.52,,,200,,,,,,,,,,,wg-a,,,,AAXX 01004 07434 12565 22010 10100 20090 39587 40060 58005 60006 81530 90000=
07434,1998-10-01 03:00:00,10,1005.2,-0.8,93,9,15000,18.52,,,180,,,,,,,,,,,wg-a,,,,AAXX 01034 07434 12365 /1810 10100 20090 39579 40052 58008 60006 86600 90300=
07434,1998-10-01 06:00:00,10,1004.7,-0.4,93,9,20000,22.224,,,190,9.6,11.8,,,,,1,,,,wg-a,,,,AAXX 01064 07434 02370 71912 10100 20090 39575 40047 56004 60006 878// 90600 333 10118 20096 60014=
07434,1998-10-01 09:00:00,11,1004.3,-0.3,94,10,15000,22.224,,,180,,,,0,,,,,,20,wg-a,,,,AAXX 01094 07434 12165 71812 10110 20100 39572 40043 57003 60007 72052 878// 90900=
07434,1998-10-01 12:00:00,11,1003.8,-0.4,94,10,20000,29.632,,,190,,,,0,,,,,,21,wg-a,,,,AAXX 01124 07434 02370 71916 10110 20100 39568 40038 56004 60016 72165 878// 91200 333 60007=
07434,1998-10-01 18:00:00,12,1002.3,-0.4,94,11,8000,14.816,,,190,10.1,12.3,,,,,,,,50,wg-a,,,,AAXX 01184 07434 02158 71908 10120 20110 39555 40023 56004 61000 75086 877// 91800 333 10123 20101 6004=
07434,1998-10-01 21:00:00,11,1002.5,0.1,100,11,8000,11.112,,,180,,,,3,,,,,,60,wg-a,,,,AAXX 01214 07434 12258 81806 10110 20110 39556 40025 52001 60037 76086 877// 92100=
07434,1998-10-02 00:00:00,11,1002.2,-0.3,100,11,0,14.816,,,190,,,,,,,,,,,wg-a,,,,AAXX 02004 07434 12/// /1908 10110 20110 39553 40022 56003 60066 90000=
07434,1998-10-02 03:00:00,12,1000.1,-1.9,94,11,4000,14.816,,,160,,,,4,,,,,,10,wg-a,,,,AAXX 02034 07434 12240 81608 10120 20110 39534 40001 58019 60047 71066 877// 90300=
07434,1998-10-02 06:00:00,12,998.7,-1.4,94,11,500,18.52,,,180,11.3,11.7,,,,,,,,61,wg-a,,,,AAXX 02064 07434 02100 81810 10120 20110 39520 49987 56014 61000 76165 887// 90600 333 10117 20113 6022=
07434,1998-10-02 09:00:00,12,1001.6,2.8,94,11,6000,25.928,,,330,,,,6,,,,,,61,wg-a,,,,AAXX 02094 07434 12156 83314 10120 20110 39548 40016 53028 60067 76166 887// 90900=
07434,1998-10-02 12:00:00,12,1004.4,2.7,94,11,8000,22.224,,,330,,,,,,,,,,,wg-a,,,,AAXX 02124 07434 12/58 /3312 10120 20110 39575 40044 51027 60106 91200=
07434,1998-10-02 15:00:00,13,1005.9,1.6,94,12,8000,18.52,,,330,,,,1,,,,,,80,wg-a,,,,AAXX 02154 07434 12258 73310 10130 20120 39591 40059 51016 60017 78086 878// 91500=
07434,1998-10-02 18:00:00,12,1008.5,2.4,94,11,10000,14.816,,,340,11.3,12.9,,,,,,,,25,wg-a,,,,AAXX 02184 07434 02260 73408 10120 20110 39615 40085 53024 61000 72586 879// 91800 333 10129 20113 6004=
07434,1998-10-02 21:00:00,12,1011.1,2.4,94,11,8000,18.52,,,350,,,,2,,,,,,25,wg-a,,,,AAXX 02214 07434 12158 83510 10120 20110 39639 40111 51024 60027 72586 887// 92100=
07434,1998-10-03 00:00:00,10,1012.5,1,93,9,500,7.408,,,20,,,,,,,,,,1,wg-a,,,,AAXX 03004 07434 12200 80204 10100 20090 39649 40125 51010 60026 70186 887// 90000=
07434,1998-10-03 03:00:00,9,1013.9,1.2,93,8,500,7.408,,,330,,,,,,,,,,,wg-a,,,,AAXX 03034 07434 12200 83304 10090 20080 39661 40139 51012 60006 886// 90300=
07434,1998-10-03 06:00:00,8,1014.6,0.5,100,8,400,11.112,,,290,7.3,12.1,,,,,17,,,45,wg-a,,,,AAXX 03064 07434 02/04 92906 10080 20080 39666 40146 53005 60006 74541 89/// 90600 333 10121 20073 60174=
07434,1998-10-03 09:00:00,10,1015.3,0.9,93,9,2000,3.704,,,300,,,,,,,,,,10,wg-a,,,,AAXX 03094 07434 12220 73002 10100 20090 39675 40153 51009 60006 71042 875// 90900=
07434,1998-10-03 12:00:00,12,1014.2,-0.6,82,9,12000,7.408,,,240,,,,,,,,,,2,wg-a,,,,AAXX 03124 07434 12462 72404 10120 20090 39669 40142 57006 60006 70242 878// 91200=
07434,1998-10-03 18:00:00,12,1011.6,-0.9,88,10,10000,7.408,,,240,7.9,14.6,,,,,,,,,wg-a,,,,AAXX 03184 07434 12560 72404 10120 20100 39643 40116 56009 60006 8783/ 91800 333 10146 20079=
07434,1998-10-03 21:00:00,11,1011.3,-0.4,94,10,8000,7.408,,,250,,,,,,,,,,,wg-a,,,,AAXX 03214 07434 12458 72504 10110 20100 39639 40113 58004 60006 875// 92100=
07434,1998-10-04 00:00:00,10,1009.8,-1.6,93,9,6000,7.408,,,240,,,,,,,,,,,wg-a,,,,AAXX 04004 07434 12256 72404 10100 20090 39623 40098 58016 60006 85532 90000=
07434,1998-10-04 03:00:00,10,1007.5,-2.1,100,10,2000,3.704,,,250,,,,,,,,,,10,wg-a,,,,AAXX 04034 07434 12120 72502 10100 20100 39602 40075 56021 60006 71022 875// 90300=
07434,1998-10-04 06:00:00,10,1006.3,-1.2,100,10,900,3.704,,,180,9.9,11.9,,,,,,,,10,wg-a,,,,AAXX 04064 07434 02/09 91802 10100 20100 39590 40063 56012 61000 71065 89/// 90600 333 10119 20099 6001=
07434,1998-10-04 09:00:00,10,1005.8,-0.4,100,10,1200,14.816,,,220,,,,1,,,,,,10,wg-a,,,,AAXX 04094 07434 12112 82208 10100 20100 39586 40058 55004 60017 71065 887// 90900=
07434,1998-10-04 12:00:00,12,1004.8,-0.8,88,10,20000,14.816,,,250,,,,1,,,,,,21,wg-a,,,,AAXX 04124 07434 02270 72508 10120 20100 39578 40048 56008 60016 72165 8783/ 91200 333 60017=
07434,1998-10-04 15:00:00,12,1004,-0.6,88,10,20000,7.408,,,310,,,,0,,,,,,80,wg-a,,,,AAXX 04154 07434 12470 73104 10120 20100 39572 40040 56006 60007 78086 878// 91500=
07434,1998-10-04 18:00:00,11,1004.5,0.3,94,10,11000,3.704,,,110,9.9,13.5,,,,,,,,,wg-a,,,,AAXX 04184 07434 12/61 /1102 10110 20100 39575 40045 53003 60006 91800 333 10135 20099=
07434,1998-10-04 21:00:00,11,1005.1,0.5,94,10,500,3.704,,,60,,,,0,,,,,,61,wg-a,,,,AAXX 04214 07434 12400 80602 10110 20100 39580 40051 52005 60007 76162 875// 92100=
07434,1998-10-05 00:00:00,10,1004.8,-0.4,93,9,900,3.704,,,170,,,,6,,,,,,10,wg-a,,,,AAXX 05004 07434 02209 71702 10100 20090 39576 40048 57004 60066 71064 8563/ 90000 333 60067=
07434,1998-10-05 03:00:00,10,1004.7,-0.2,93,9,1500,3.704,,,130,,,,0,,,,,,10,wg-a,,,,AAXX 05034 07434 12115 81302 10100 20090 39574 40047 55002 60007 71042 886// 90300=
07434,1998-10-05 06:00:00,10,1004.7,-0,100,10,300,3.704,,,100,9.5,11,,,,,8,,,45,wg-a,,,,AAXX 05064 07434 02/03 91002 10100 20100 39574 40047 55000 60006 74542 89/// 90600 333 10110 20095 60084=
07434,1998-10-05 09:00:00,11,1005.8,1.2,94,10,7000,3.704,,,50,,,,1,,,,,,60,wg-a,,,,AAXX 05094 07434 12257 80502 10110 20100 39586 40058 51012 60017 76064 888// 90900=
07434,1998-10-05 12:00:00,14,1005.2,0,72,9,25000,7.408,,,50,,,,,,,,,,1,wg-a,,,,AAXX 05124 07434 02575 70504 10140 20090 39586 40052 50000 60016 70164 878// 91200 333 61000=
07434,1998-10-05 15:00:00,14,1004.9,-0.3,77,10,40000,7.408,,,10,,,,,,,,,,,wg-a,,,,AAXX 05154 07434 12582 70104 10140 20100 39583 40049 55003 60006 84231 91500=
07434,1998-10-05 18:00:00,12,1006.1,0.8,88,10,500,11.112,,,10,9.8,14.3,,,,,,,,,wg-a,,,,AAXX 05184 07434 12600 70106 10120 20100 39591 40061 53008 60006 82236 91800 333 10143 20098=
07434,1998-10-05 21:00:00,11,1007,0.7,87,9,20000,11.112,,,50,,,,,,,,,,,wg-a,,,,AAXX 05214 07434 12670 /0506 10110 20090 39598 40070 51007 60006 86530 92100=
07434,1998-10-06 00:00:00,10,1007,-0.1,87,8,20000,11.112,,,50,,,,,,,,,,,wg-a,,,,AAXX 06004 07434 12670 /0506 10100 20080 39597 40070 58001 60006 82532 90000=
07434,1998-10-06 03:00:00,10,1006.5,-0.5,87,8,20000,11.112,,,40,,,,,,,,,,,wg-a,,,,AAXX 06034 07434 12770 60406 10100 20080 39592 40065 58005 60006 83532 90300=
07434,1998-10-06 06:00:00,9,1007.3,0.5,87,7,12000,11.112,,,20,8.3,11.7,,,,,1,,,,wg-a,,,,AAXX 06064 07434 02762 70206 10090 20070 39597 40073 53005 60006 8257/ 90600 333 10117 20083 60014=
07434,1998-10-06 09:00:00,10,1009.1,2,87,8,8000,11.112,,,30,,,,,,,,,,,wg-a,,,,AAXX 06094 07434 12458 70306 10100 20080 39617 40091 53020 60006 8187/ 90900=
07434,1998-10-06 12:00:00,13,1009.3,0.6,77,9,12000,14.816,,,10,,,,,,,,,,,wg-a,,,,AAXX 06124 07434 12462 70108 10130 20090 39623 40093 51006 60006 8127/ 91200=
07434,1998-10-06 15:00:00,13,1010.5,1.1,77,9,15000,11.112,,,350,,,,,,,,,,,wg-a,,,,AAXX 06154 07434 12565 73506 10130 20090 39634 40105 53011 60006 8383/ 91500=
07434,1998-10-06 18:00:00,10,1013,2,87,8,10000,11.112,,,20,8.2,14.1,,,,,,,,,wg-a,,,,AAXX 06184 07434 12460 70206 10100 20080 39654 40130 53020 60006 85831 91800 333 10141 20082=
07434,1998-10-06 21:00:00,8,1014.7,1.2,87,6,8000,3.704,,,30,,,,,,,,,,,wg-a,,,,AAXX 06214 07434 12358 50302 10080 20060 39666 40147 51012 60006 84631 92100=
07434,1998-10-07 00:00:00,8,1015.3,0.6,93,7,6000,7.408,,,320,,,,,,,,,,,wg-a,,,,AAXX 07004 07434 12456 73204 10080 20070 39672 40153 52006 60006 875// 90000=
07434,1998-10-07 03:00:00,8,1015.7,0.4,100,8,2000,11.112,,,340,,,,,,,,,,10,wg-a,,,,AAXX 07034 07434 12120 73406 10080 20080 39676 40157 53004 60006 71022 876// 90300=
07434,1998-10-07 06:00:00,8,1016.8,1,93,7,3000,7.408,,,350,6.8,10.1,,,,,,,,10,wg-a,,,,AAXX 07064 07434 02130 83504 10080 20070 39686 40168 53010 60006 71022 876// 90600 333 10101 20068 60004=
07434,1998-10-07 09:00:00,8,1018.5,1.7,100,8,1600,7.408,,,310,,,,,,,,,,10,wg-a,,,,AAXX 07094 07434 12116 83104 10080 20080 39703 40185 51017 60006 71022 886// 90900=
07434,1998-10-07 12:00:00,11,1018.1,0,82,8,9000,11.112,,,320,,,,,,,,,,,wg-a,,,,AAXX 07124 07434 12459 73206 10110 20080 39703 40181 50000 60006 878// 91200=
07434,1998-10-07 15:00:00,10,1019.2,1,82,7,10000,11.112,,,340,,,,,,,,,,,wg-a,,,,AAXX 07154 07434 12460 73406 10100 20070 39713 40192 53010 60006 878// 91500=
07434,1998-10-07 18:00:00,9,1020.5,1,87,7,8000,7.408,,,350,7.8,11.4,,0,,,,,,3,wg-a,,,,AAXX 07184 07434 02258 83504 10090 20070 39723 40205 53010 60006 70386 888// 91800 333 10114 20078 60007=
07434,1998-10-07 21:00:00,9,1020.8,0.3,87,7,8000,11.112,,,340,,,,,,,,,,,wg-a,,,,AAXX 07214 07434 12458 83406 10090 20070 39726 40208 50003 60006 885// 92100=
07434,1998-10-08 00:00:00,8,1020.9,0,100,8,8000,11.112,,,340,,,,,,,,,,,wg-a,,,,AAXX 08004 07434 12258 83406 10080 20080 39726 40209 50000 60006 885// 90000=
07434,1998-10-08 03:00:00,8,1020.3,-0.6,93,7,8000,11.112,,,340,,,,,,,,,,,wg-a,,,,AAXX 08034 07434 12158 83406 10080 20070 39720 40203 58006 60006 886// 90300=
07434,1998-10-08 06:00:00,8,1020.4,0.1,93,7,6000,11.112,,,330,8.2,8.9,,,,,,,,,wg-a,,,,AAXX 08064 07434 02156 83306 10080 20070 39721 40204 52001 60006 886// 90600 333 10089 20082 60004=
07434,1998-10-08 09:00:00,9,1021.4,1,93,8,6000,14.816,,,320,,,,0,,,,,,50,wg-a,,,,AAXX 08094 07434 12256 83208 10090 20080 39731 40214 53010 60007 75065 887// 90900=
07434,1998-10-08 12:00:00,9,1021.6,0.3,93,8,3000,14.816,,,330,,,,,,,,,,10,wg-a,,,,AAXX 08124 07434 12/30 /3308 10090 20080 39734 40216 52003 60016 710// 91200=
07434,1998-10-08 15:00:00,9,1020.6,-0.9,100,9,4000,14.816,,,310,,,,2,,,,,,10,wg-a,,,,AAXX 08154 07434 12140 83108 10090 20090 39725 40206 58009 60027 71065 887// 91500=
07434,1998-10-08 18:00:00,9,1020.7,0.1,100,9,3000,11.112,,,320,8.1,9.6,,,,,,,,51,wg-a,,,,AAXX 08184 07434 02230 83206 10090 20090 39726 40207 53001 61000 75165 887// 91800 333 10096 20081 6003=
07434,1998-10-09 00:00:00,8,1019.6,-1.1,100,8,2000,7.408,,,270,,,,3,,,,,,10,wg-a,,,,AAXX 09004 07434 02120 82704 10080 20080 39714 40196 58011 60086 71065 887// 90000 333 60037=
07434,1998-10-09 03:00:00,8,1019.1,-0.5,100,8,700,3.704,,,240,,,,3,,,,,,44,wg-a,,,,AAXX 09034 07434 12107 82402 10080 20080 39709 40191 56005 60037 74465 887// 90300=
07434,1998-10-09 06:00:00,8,1020,0.9,100,8,800,11.112,,,170,8,9.2,,,,,,,,10,wg-a,,,,AAXX 09064 07434 02/08 91706 10080 20080 39718 40200 53009 61000 71065 89/// 90600 333 10092 20080 6018=
07434,1998-10-09 09:00:00,9,1021.9,1.9,93,8,20000,11.112,,,170,,,,,,,,,,1,wg-a,,,,AAXX 09094 07434 02370 71706 10090 20080 39737 40219 51019 61000 70154 875// 90900 333 ////=
07434,1998-10-09 12:00:00,11,1021.9,0.3,82,8,40000,11.112,,,190,,,,,,,,,,1,wg-a,,,,AAXX 09124 07434 02482 71906 10110 20080 39740 40219 50003 61000 70154 878// 91200 333 ////=
07434,1998-10-09 15:00:00,11,1020.9,-0.9,82,8,40000,11.112,,,190,,,,,,,,,,,wg-a,,,,AAXX 09154 07434 12482 71906 10110 20080 39731 40209 55009 60006 878// 91500=
07434,1998-10-09 18:00:00,10,1021.4,0.2,87,8,15000,11.112,,,230,8.4,11.5,,,,,,,,80,wg-a,,,,AAXX 09184 07434 02465 82306 10100 20080 39733 40214 53002 61000 78086 875// 91800 333 10115 20084 6100=
07434,1998-10-10 00:00:00,9,1020.7,-1.3,93,8,10000,14.816,,,230,,,,,,,,,,3,wg-a,,,,AAXX 10004 07434 02160 82308 10090 20080 39725 40207 57013 61000 70386 886// 90000 333 ////=
07434,1998-10-10 03:00:00,9,1019.5,-1.1,93,8,6000,14.816,,,220,,,,0,,,,,,,wg-a,,,,AAXX 10034 07434 12156 82208 10090 20080 39714 40195 56011 60007 886// 90300=
07434,1998-10-10 06:00:00,9,1019.3,-0.2,93,8,6000,11.112,,,190,8.6,9.7,,,,,,,,,wg-a,,,,AAXX 10064 07434 02256 81906 10090 20080 39712 40193 58002 60006 886// 90600 333 10097 20086 60004=
07434,1998-10-10 09:00:00,10,1019.2,-0,93,9,500,22.224,,,190,,,,0,,,,,,58,wg-a,,,,AAXX 10094 07434 12100 81912 10100 20090 39712 40192 55000 60007 75865 887// 90900=
07434,1998-10-10 12:00:00,11,1017.9,-1,94,10,6000,22.224,,,190,,,,2,,,,,,58,wg-a,,,,AAXX 10124 07434 02156 81912 10110 20100 39702 40179 58010 60026 75865 887// 91200 333 60027=
07434,1998-10-10 15:00:00,12,1016.5,-1.2,94,11,4000,18.52,,,190,,,,5,,,,,,58,wg-a,,,,AAXX 10154 07434 12140 81910 10120 20110 39690 40165 56012 60057 75866 887// 91500=
07434,1998-10-10 18:00:00,11,1018.3,1.5,94,10,3000,14.816,,,290,8.8,11.9,,,,,,,,10,wg-a,,,,AAXX 10184 07434 02130 82908 10110 20100 39705 40183 53015 61000 71065 887// 91800 333 10119 20088 6003=
07434,1998-10-11 06:00:00,10,1021.9,0.5,93,9,800,11.112,,,220,9.6,10.5,,,,,12,,,45,wg-a,,,,AAXX 11064 07434 02/08 92206 10100 20090 39738 40219 52005 60006 74542 89/// 90600 333 10105 20096 60124=
07434,1998-10-11 09:00:00,11,1023.1,1.3,94,10,15000,11.112,,,250,,,,,,,,,,1,wg-a,,,,AAXX 11094 07434 12265 /2506 10110 20100 39751 40231 52013 60006 70142 85102 90900=
07434,1998-10-11 12:00:00,13,1021.3,-1.3,82,10,25000,18.52,,,240,,,,,,,,,,1,wg-a,,,,AAXX 11124 07434 12475 72410 10130 20100 39738 40213 58013 60006 70142 85872 91200=
07434,1998-10-11 15:00:00,12,1020.1,-1.3,94,11,1200,22.224,,,230,,,,1,,,,,,58,wg-a,,,,AAXX 11154 07434 12212 72312 10120 20110 39725 40201 57013 60017 75865 875// 91500=
07434,1998-10-11 18:00:00,12,1018.5,-1.5,100,12,6000,22.224,,,240,9.6,13.6,,,,,,,,51,wg-a,,,,AAXX 11184 07434 02156 82412 10120 20120 39710 40185 56015 61000 75165 887// 91800 333 10136 20096 6003=
07434,1998-10-11 21:00:00,13,1017.6,-0.6,100,13,3000,14.816,,,250,,,,6,,,,,,10,wg-a,,,,AAXX 11214 07434 12130 82508 10130 20130 39704 40176 56006 60067 71066 887// 92100=
07434,1998-10-12 00:00:00,14,1016.9,-0.6,100,14,12000,14.816,,,300,,,,1,,,,,,51,wg-a,,,,AAXX 12004 07434 02262 73008 10140 20140 39698 40169 56006 60086 75165 877// 90000 333 60017=
07434,1998-10-12 03:00:00,12,1017,-0.2,100,12,8000,11.112,,,310,,,,,,,,,,,wg-a,,,,AAXX 12034 07434 12258 73106 10120 20120 39696 40170 58002 60006 876// 90300=
07434,1998-10-12 06:00:00,9,1019.1,1.4,93,8,18000,11.112,,,340,9,13.9,,,,,11,,,,wg-a,,,,AAXX 12064 07434 02368 /3406 10090 20080 39710 40191 53014 60006 86801 90600 333 10139 20090 60114=
07434,1998-10-12 09:00:00,11,1021,2.1,82,8,15000,11.112,,,330,,,,,,,,,,,wg-a,,,,AAXX 12094 07434 12465 33306 10110 20080 39731 40210 51021 60006 82131 90900=
07434,1998-10-12 12:00:00,12,1021.3,0.6,82,9,20000,14.816,,,310,,,,,,,,,,,wg-a,,,,AAXX 12124 07434 12570 73108 10120 20090 39737 40213 50006 60006 86801 91200=
07434,1998-10-12 15:00:00,12,1022.1,0.7,82,9,20000,11.112,,,310,,,,,,,,,,,wg-a,,,,AAXX 12154 07434 12570 73106 10120 20090 39744 40221 53007 60006 878// 91500=
07434,1998-10-12 18:00:00,10,1023.4,0.9,93,9,20000,7.408,,,290,8.6,13.2,,,,,,,,,wg-a,,,,AAXX 12184 07434 12570 32904 10100 20090 39753 40234 53009 60006 82801 91800 333 10132 20086=
07434,1998-10-12 21:00:00,9,1024.9,1.3,93,8,15000,3.704,,,290,,,,,,,,,,,wg-a,,,,AAXX 12214 07434 12665 72902 10090 20080 39766 40249 51013 60006 875// 92100=
07434,1998-10-13 00:00:00,10,1025.1,0.2,87,8,15000,7.408,,,20,,,,,,,,,,,wg-a,,,,AAXX 13004 07434 12565 70204 10100 20080 39768 40251 50002 60006 875// 90000=
07434,1998-10-13 03:00:00,9,1025.3,-0,93,8,12000,3.704,,,300,,,,,,,,,,,wg-a,,,,AAXX 13034 07434 12662 83002 10090 20080 39768 40253 55000 60006 885// 90300=
07434,1998-10-13 06:00:00,7,1025.8,0.2,93,6,500,7.408,,,50,6.7,9.9,,,,,,,,44,wg-a,,,,AAXX 13064 07434 02105 60504 10070 20060 39770 40258 53002 60006 74441 86500 90600 333 10099 20067 60004=
07434,1998-10-13 09:00:00,9,1026.6,1.2,100,9,600,3.704,,,110,,,,,,,,,,42,wg-a,,,,AAXX 13094 07434 12106 31102 10090 20090 39782 40266 52012 60006 74241 82601 90900=
07434,1998-10-13 12:00:00,13,1026,0,72,8,15000,7.408,,,290,,,,,,,,,,1,wg-a,,,,AAXX 13124 07434 12465 72904 10130 20080 39782 40260 50000 60006 70141 87800 91200=
07434,1998-10-13 15:00:00,14,1024.9,-0.8,72,9,500,11.112,,,240,,,,,,,,,,,wg-a,,,,AAXX 13154 07434 12500 52406 10140 20090 39774 40249 58008 60006 84830 91500=
07434,1998-10-13 18:00:00,12,1025.3,0,82,9,25000,7.408,,,230,6.6,14.3,,,,,,,,,wg-a,,,,AAXX 13184 07434 12575 72304 10120 20090 39774 40253 50000 60006 8253/ 91800 333 10143 20066=
07434,1998-10-13 21:00:00,11,1026.3,0.8,87,9,20000,7.408,,,220,,,,,,,,,,,wg-a,,,,AAXX 13214 07434 12570 72204 10110 20090 39782 40263 51008 60006 875// 92100=
07434,1998-10-14 00:00:00,11,1026.2,-0.1,87,9,18000,3.704,,,250,,,,,,,,,,3,wg-a,,,,AAXX 14004 07434 02568 82502 10110 20090 39781 40262 58001 61000 70362 885// 90000 333 6100=
07434,1998-10-14 03:00:00,11,1025.5,-0.7,87,9,18000,3.704,,,200,,,,,,,,,,,wg-a,,,,AAXX 14034 07434 12568 72002 10110 20090 39774 40255 58007 60006 875// 90300=
07434,1998-10-14 06:00:00,11,1026.1,0.6,87,9,25000,3.704,,,200,10.5,11.9,,,,,,,,,wg-a,,,,AAXX 14064 07434 02575 72002 10110 20090 39780 40261 51006 60006 875// 90600 333 10119 20105 61000=
07434,1998-10-14 12:00:00,15,1026.4,-0.3,82,12,15000,7.408,,,250,,,,,,,,,,,wg-a,,,,AAXX 14124 07434 12265 72504 10150 20120 39789 40264 58003 60006 878// 91200=
07434,1998-10-14 15:00:00,16,1025.7,-0.5,77,12,500,11.112,,,260,,,,,,,,,,,wg-a,,,,AAXX 14154 07434 12400 72606 10160 20120 39784 40257 56005 60006 878// 91500=
07434,1998-10-14 18:00:00,14,1027.1,1,88,12,20000,3.704,,,270,10.6,15.8,,,,,,,,,wg-a,,,,AAXX 14184 07434 12470 72702 10140 20120 39794 40271 53010 60006 878// 91800 333 10158 20106=
07434,1998-10-14 21:00:00,12,1027.6,0.3,94,11,20000,7.408,,,250,,,,,,,,,,,wg-a,,,,AAXX 14214 07434 12570 32504 10120 20110 39797 40276 52003 60006 83500 92100=
07434,1998-10-15 00:00:00,13,1027.2,-0.3,94,12,20000,7.408,,,270,,,,,,,,,,,wg-a,,,,AAXX 15004 07434 12370 72704 10130 20120 39794 40272 58003 60006 875// 90000=
07434,1998-10-15 03:00:00,12,1026.1,-1.1,100,12,600,0,,,0,,,,,,,,,,45,wg-a,,,,AAXX 15034 07434 12/06 90000 10120 20120 39783 40261 58011 60006 74542 89/// 90300=
07434,1998-10-15 06:00:00,12,1026,-0.2,100,12,500,3.704,,,120,11.9,13.5,,,,,,,,43,wg-a,,,,AAXX 15064 07434 02/05 91202 10120 20120 39781 40260 56002 60006 74342 89/// 90600 333 10135 20119 60004=
07434,1998-10-15 09:00:00,14,1026.1,0.5,100,14,3000,7.408,,,180,,,,,,,,,,10,wg-a,,,,AAXX 15094 07434 12230 /1804 10140 20140 39786 40261 51005 60006 71041 81801 90900=
07434,1998-10-15 12:00:00,17,1024.8,-0.8,72,12,40000,7.408,,,240,,,,,,,,,,3,wg-a,,,,AAXX 15124 07434 12582 /2404 10170 20120 39778 40248 58008 60006 70341 85201 91200=
07434,1998-10-15 15:00:00,17,1023.1,-1.6,72,12,15000,7.408,,,280,,,,,,,,,,,wg-a,,,,AAXX 15154 07434 12565 62804 10170 20120 39762 40231 56016 60006 85401 91500=
07434,1998-10-15 18:00:00,15,1023.3,-0.1,88,13,20000,7.408,,,10,12,17.9,,,,,,,,,wg-a,,,,AAXX 15184 07434 12470 70104 10150 20130 39761 40233 55001 60006 875// 91800 333 10179 20120=
07434,1998-10-15 21:00:00,15,1023.5,0.1,82,12,20000,7.408,,,40,,,,,,,,,,,wg-a,,,,AAXX 15214 07434 12470 70404 10150 20120 39762 40235 51001 60006 875// 92100=
07434,1998-10-16 00:00:00,13,1022.4,-1.3,94,12,13000,7.408,,,20,,,,,,,,,,,wg-a,,,,AAXX 16004 07434 12463 20204 10130 20120 39749 40224 58013 60006 82500 90000=
07434,1998-10-16 03:00:00,11,1021.5,-1.2,100,11,400,3.704,,,80,,,,,,,,,,41,wg-a,,,,AAXX 16034 07434 12/04 00802 10110 20110 39737 40215 58012 60006 74100 80000 90300=
07434,1998-10-16 06:00:00,10,1020.8,-1,93,9,500,7.408,,,100,9.5,15.2,,,,,,,,42,wg-a,,,,AAXX 16064 07434 02105 91004 10100 20090 39727 40208 57010 60006 74241 8960/ 90600 333 10152 20095 60004=
07434,1998-10-16 09:00:00,13,1020.1,-0.1,88,11,6000,7.408,,,140,,,,0,,,,,,2,wg-a,,,,AAXX 16094 07434 12/56 /1404 10130 20110 39726 40201 57001 60007 70242 80002 90900=
07434,1998-10-16 12:00:00,18,1017.4,-1.6,73,13,25000,14.816,,,190,,,,,,,,,,1,wg-a,,,,AAXX 16124 07434 12475 /1908 10180 20130 39710 40174 58016 60006 70142 81102 91200=
07434,1998-10-16 15:00:00,19,1015.3,-2,64,12,40000,14.816,,,180,,,,,,,,,,,wg-a,,,,AAXX 16154 07434 12/82 51808 10190 20120 39690 40153 56020 60006 80002 91500=
07434,1998-10-16 18:00:00,15,1015,-0.8,88,13,15000,7.408,,,170,9.4,20.4,,,,,,,,,wg-a,,,,AAXX 16184 07434 12/65 51704 10150 20130 39682 40150 56008 60006 80002 91800 333 10204 20094=
07434,1998-10-16 21:00:00,14,1014.9,-0.2,88,12,15000,14.816,,,180,,,,,,,,,,,wg-a,,,,AAXX 16214 07434 12/65 31808 10140 20120 39680 40149 58002 60006 80002 92100=
07434,1998-10-17 00:00:00,13,1014.4,-0.7,88,11,15000,22.224,,,170,,,,,,,,,,,wg-a,,,,AAXX 17004 07434 12/65 11712 10130 20110 39673 40144 58007 60006 80001 90000=
07434,1998-10-17 03:00:00,13,1013.3,-1.2,88,11,15000,18.52,,,180,,,,,,,,,,,wg-a,,,,AAXX 17034 07434 12465 21810 10130 20110 39661 40133 58012 60006 82501 90300=
07434,1998-10-17 06:00:00,13,1012.4,-0.8,88,11,12000,22.224,,,190,12.7,15.3,,,,,,,,,wg-a,,,,AAXX 17064 07434 02562 51912 10130 20110 39653 40124 57008 60006 82501 90600 333 10153 20127 60004=
07434,1998-10-17 09:00:00,15,1012.8,0.7,82,12,12000,29.632,,,200,,,,,,,,,,,wg-a,,,,AAXX 17094 07434 12462 /2016 10150 20120 39660 40128 52007 60006 84501 90900=
07434,1998-10-17 12:00:00,16,1013.1,0.5,82,13,15000,18.52,,,240,,,,,,,,,,,wg-a,,,,AAXX 17124 07434 12465 72410 10160 20130 39665 40131 50005 60006 878// 91200=
07434,1998-10-17 15:00:00,14,1013.4,-0,94,13,3000,14.816,,,220,,,,2,,,,,,10,wg-a,,,,AAXX 17154 07434 12130 72208 10140 20130 39665 40134 55000 60027 71065 8657/ 91500=
07434,1998-10-17 18:00:00,12,1015.9,2.1,94,11,10000,11.112,,,290,12.3,17.1,,,,,,,,21,wg-a,,,,AAXX 17184 07434 02260 72906 10120 20110 39686 40159 53021 61000 72165 875// 91800 333 10171 20123 6003=
07434,1998-10-17 21:00:00,10,1019.2,2.7,93,9,15000,11.112,,,290,,,,,,,,,,,wg-a,,,,AAXX 17214 07434 12265 72906 10100 20090 39713 40192 53027 60006 875// 92100=
07434,1998-10-18 00:00:00,7,1021.1,1.2,93,6,15000,3.704,,,280,,,,,,,,,,,wg-a,,,,AAXX 18004 07434 12565 22802 10070 20060 39725 40211 51012 60006 82500 90000=
07434,1998-10-18 03:00:00,6,1021.3,0.1,93,5,10000,3.704,,,260,,,,,,,,,,,wg-a,,,,AAXX 18034 07434 12/60 02602 10060 20050 39726 40213 50001 60006 80000 90300=
07434,1998-10-18 06:00:00,4,1022.5,0.8,100,4,300,3.704,,,50,4.2,12.3,,,,,5,,,44,wg-a,,,,AAXX 18064 07434 02003 50502 10040 20040 39734 40225 51008 60006 74441 84601 90600 333 10123 20042 60054=
07434,1998-10-18 09:00:00,6,1022.8,0.6,100,6,200,7.408,,,70,,,,,,,,,,45,wg-a,,,,AAXX 18094 07434 12/02 90704 10060 20060 39740 40228 51006 60006 74544 89/// 90900=
07434,1998-10-18 12:00:00,12,1020.7,-1,71,7,20000,3.704,,,320,,,,,,,,,,1,wg-a,,,,AAXX 18124 07434 12570 73202 10120 20070 39730 40207 58010 60006 70142 82802 91200=
07434,1998-10-18 15:00:00,12,1019,-1.6,67,6,500,3.704,,,310,,,,,,,,,,,wg-a,,,,AAXX 18154 07434 12500 73102 10120 20060 39714 40190 56016 60006 83802 91500=
07434,1998-10-18 18:00:00,10,1019.2,-0.2,76,6,11000,7.408,,,20,3.5,13.8,,,,,,,,,wg-a,,,,AAXX 18184 07434 12/61 /0204 10100 20060 39712 40192 55002 60006 91800 333 10138 20035=
07434,1998-10-18 21:00:00,9,1019.2,-0.1,76,5,10000,11.112,,,40,,,,,,,,,,,wg-a,,,,AAXX 18214 07434 12/60 00406 10090 20050 39711 40192 57001 60006 80000 92100=
07434,1998-10-19 00:00:00,8,1018.4,-0.9,81,5,10000,7.408,,,30,,,,,,,,,,,wg-a,,,,AAXX 19004 07434 12/60 50304 10080 20050 39702 40184 58009 60006 85030 90000=
07434,1998-10-19 03:00:00,7,1018,-0.6,81,4,10000,3.704,,,50,,,,,,,,,,,wg-a,,,,AAXX 19034 07434 12/60 40502 10070 20040 39696 40180 58006 60006 84030 90300=
07434,1998-10-19 06:00:00,6,1019.1,0.9,93,5,12000,3.704,,,270,5.9,10,,,,,,,,,wg-a,,,,AAXX 19064 07434 02562 32702 10060 20050 39705 40191 53009 60006 82501 90600 333 10100 20059 60004=
07434,1998-10-19 09:00:00,10,1020.5,2,76,6,12000,7.408,,,20,,,,,,,,,,,wg-a,,,,AAXX 19094 07434 12462 50204 10100 20060 39725 40205 53020 60006 84830 90900=
07434,1998-10-19 12:00:00,13,1020.8,0.7,67,7,500,14.816,,,340,,,,,,,,,,,wg-a,,,,AAXX 19124 07434 12500 53408 10130 20070 39732 40208 50007 60006 85830 91200=
07434,1998-10-19 15:00:00,13,1020.8,-0,58,5,500,11.112,,,340,,,,,,,,,,,wg-a,,,,AAXX 19154 07434 12500 33406 10130 20050 39732 40208 55000 60006 83800 91500=
07434,1998-10-19 18:00:00,9,1023,1.5,81,6,25000,7.408,,,320,6,13.3,,,,,,,,,wg-a,,,,AAXX 19184 07434 12575 23204 10090 20060 39747 40230 53015 60006 82800 91800 333 10133 20060=
07434,1998-10-19 21:00:00,8,1024.9,1.6,81,5,25000,7.408,,,320,,,,,,,,,,,wg-a,,,,AAXX 19214 07434 12675 33204 10080 20050 39763 40249 51016 60006 83500 92100=
07434,1998-10-20 00:00:00,6,1025.7,0.4,93,5,0,3.704,,,330,,,,,,,,,,,wg-a,,,,AAXX 20004 07434 12/// /3302 10060 20050 39767 40257 50004 60006 90000=
07434,1998-10-20 06:00:00,2,1026.8,0.9,100,2,100,3.704,,,80,2.3,9,,,,,,,,44,wg-a,,,,AAXX 20064 07434 02/01 00802 10020 20020 39771 40268 52009 60006 74440 80000 90600 333 10090 20023 60004=
07434,1998-10-20 09:00:00,5,1028,1.6,93,4,100,3.704,,,90,,,,,,,,,,44,wg-a,,,,AAXX 20094 07434 12001 /0902 10050 20040 39787 40280 53016 60006 74444 81600 90900=
07434,1998-10-20 12:00:00,11,1026.1,-0.7,71,6,10000,7.408,,,180,,,,,,,,,,3,wg-a,,,,AAXX 20124 07434 12460 21804 10110 20060 39780 40261 58007 60006 70341 82101 91200=
07434,1998-10-20 15:00:00,12,1025.4,-0.5,58,4,60000,3.704,,,20,,,,,,,,,,,wg-a,,,,AAXX 20154 07434 12686 30202 10120 20040 39775 40254 56005 60006 83101 91500=
07434,1998-10-20 18:00:00,9,1025.3,-0.6,71,4,40000,0,,,0,1.4,13.5,,,,,,,,,wg-a,,,,AAXX 20184 07434 12/82 20000 10090 20040 39769 40253 55006 60006 80001 91800 333 10135 20014=
07434,1998-10-20 21:00:00,7,1025.5,-0.2,81,4,25000,3.704,,,60,,,,,,,,,,,wg-a,,,,AAXX 20214 07434 12/75 00602 10070 20040 39767 40255 58002 60006 80000 92100=
07434,1998-10-21 00:00:00,5,1024.6,-1.2,87,3,18000,3.704,,,130,,,,,,,,,,,wg-a,,,,AAXX 21004 07434 12/68 21302 10050 20030 39755 40246 58012 60006 80001 90000=
07434,1998-10-21 03:00:00,5,1024.3,-0.4,87,3,18000,3.704,,,100,,,,,,,,,,,wg-a,,,,AAXX 21034 07434 12/68 51002 10050 20030 39751 40243 58004 60006 80004 90300=
07434,1998-10-21 06:00:00,4,1024.3,-0,87,2,20000,3.704,,,90,3.9,9.2,,,,,,,,,wg-a,,,,AAXX 21064 07434 02/70 60902 10040 20020 39751 40243 55000 60006 80002 90600 333 10092 20039 60004=
07434,1998-10-21 09:00:00,7,1024.9,1.1,76,3,50000,7.408,,,140,,,,,,,,,,,wg-a,,,,AAXX 21094 07434 12/84 71404 10070 20030 39762 40249 53011 60006 80002 90900=
07434,1998-10-21 12:00:00,14,1023.5,,47,3,60000,25.928,,,200,,,,,,,,,,,wg-a,,,,AAXX 21124 07434 12/86 32014 10140 20030 39760 40235 60006 82032 91200=
07434,1998-10-21 15:00:00,16,1022.8,-0.4,48,5,60000,14.816,,,200,,,,,,,,,,,wg-a,,,,AAXX 21154 07434 12/86 52008 10160 20050 39756 40228 56004 60006 80001 91500=
07434,1998-10-21 18:00:00,11,1024.7,1.1,71,6,40000,7.408,,,180,4.2,16.2,,,,,,,,,wg-a,,,,AAXX 21184 07434 12/82 71804 10110 20060 39767 40247 53011 60006 80002 91800 333 10162 20042=
07434,1998-10-21 21:00:00,10,1025.8,0.9,71,5,500,7.408,,,200,,,,,,,,,,,wg-a,,,,AAXX 21214 07434 12/00 42004 10100 20050 39776 40258 51009 60006 80001 92100=
07434,1998-10-22 00:00:00,8,1027.1,0.8,81,5,20000,3.704,,,120,,,,,,,,,,,wg-a,,,,AAXX 22004 07434 12/70 21202 10080 20050 39784 40271 51008 60006 80001 90000=
07434,1998-10-22 03:00:00,8,1026.6,-0.5,81,5,20000,11.112,,,120,,,,,,,,,,,wg-a,,,,AAXX 22034 07434 12/70 11206 10080 20050 39779 40266 58005 60006 80001 90300=
07434,1998-10-22 06:00:00,8,1027,0.4,81,5,15000,7.408,,,140,7.1,11.2,,,,,,,,,wg-a,,,,AAXX 22064 07434 12565 41404 10080 20050 39783 40270 51004 60006 81501 90600 333 10112 20071=
07434,1998-10-22 09:00:00,11,1027.4,1,76,7,20000,11.112,,,130,,,,,,,,,,,wg-a,,,,AAXX 22094 07434 12/70 61306 10110 20070 39793 40274 51010 60006 81031 90900=
07434,1998-10-22 12:00:00,17,1025.9,-0.6,68,11,25000,18.52,,,180,,,,,,,,,,,wg-a,,,,AAXX 22124 07434 12/75 21810 10170 20110 39787 40259 58006 60006 82031 91200=
07434,1998-10-22 15:00:00,17,1024.7,-1,63,10,500,14.816,,,180,,,,,,,,,,,wg-a,,,,AAXX 22154 07434 12/00 11808 10170 20100 39777 40247 58010 60006 81030 91500=
07434,1998-10-22 18:00:00,14,1026.1,0.8,77,10,15000,11.112,,,180,7.4,17.7,,,,,,,,,wg-a,,,,AAXX 22184 07434 12/65 41806 10140 20100 39785 40261 51008 60006 81031 91800 333 10177 20074=
07434,1998-10-22 21:00:00,12,1026.8,0.4,88,10,15000,3.704,,,180,,,,,,,,,,,wg-a,,,,AAXX 22214 07434 12/65 41802 10120 20100 39789 40268 53004 60006 81031 92100=
07434,1998-10-23 00:00:00,12,1026.2,-0.7,88,10,12000,11.112,,,170,,,,,,,,,,,wg-a,,,,AAXX 23004 07434 12/62 71706 10120 20100 39782 40262 58007 60006 8703/ 90000=
07434,1998-10-23 03:00:00,11,1025.3,-1,87,9,12000,18.52,,,190,,,,,,,,,,,wg-a,,,,AAXX 23034 07434 12/62 11910 10110 20090 39772 40253 56010 60006 80001 90300=
07434,1998-10-23 06:00:00,10,1024.2,-1.1,87,8,15000,14.816,,,160,10.2,13.6,,,,,,,,,wg-a,,,,AAXX 23064 07434 02/65 51608 10100 20080 39761 40242 57011 60006 80002 90600 333 10136 20102 60004=
07434,1998-10-23 09:00:00,13,1024.6,0.8,82,10,20000,18.52,,,190,,,,,,,,,,,wg-a,,,,AAXX 23094 07434 12/70 71910 10130 20100 39769 40246 51008 60006 84032 90900=
07434,1998-10-23 12:00:00,14,1023.4,-0.9,82,11,25000,14.816,,,190,,,,,,,,,,,wg-a,,,,AAXX 23124 07434 12475 71908 10140 20110 39760 40234 58009 60006 8583/ 91200=
07434,1998-10-23 15:00:00,16,1021.5,-1.6,82,13,20000,22.224,,,210,,,,,,,,,,,wg-a,,,,AAXX 23154 07434 12470 82112 10160 20130 39744 40215 58016 60006 8683/ 91500=
07434,1998-10-23 18:00:00,14,1022.2,0.4,94,13,8000,14.816,,,230,10,15.5,,,,,,,,21,wg-a,,,,AAXX 23184 07434 02158 72308 10140 20130 39748 40222 53004 61000 72162 878// 91800 333 10155 20100 6005=
07434,1998-10-23 21:00:00,14,1022.8,0.6,94,13,10000,18.52,,,280,,,,,,,,,,,wg-a,,,,AAXX 23214 07434 12260 72810 10140 20130 39754 40228 53006 60006 876// 92100=
07434,1998-10-24 00:00:00,12,1023.9,0.7,94,11,10000,11.112,,,270,,,,,,,,,,,wg-a,,,,AAXX 24004 07434 12260 /2706 10120 20110 39761 40239 51007 60006 85600 90000=
07434,1998-10-24 03:00:00,12,1023.7,-0.3,94,11,10000,7.408,,,270,,,,,,,,,,,wg-a,,,,AAXX 24034 07434 12160 72704 10120 20110 39758 40237 58003 60006 876// 90300=
07434,1998-10-24 06:00:00,11,1022.7,-1,94,10,7000,11.112,,,200,10.8,14,,,,,5,,,,wg-a,,,,AAXX 24064 07434 02157 72006 10110 20100 39748 40227 56010 60006 876// 90600 333 10140 20108 60054=
07434,1998-10-24 09:00:00,12,1021.2,-1.3,94,11,8000,18.52,,,170,,,,,,,,,,21,wg-a,,,,AAXX 24094 07434 02158 81710 10120 20110 39735 40212 58013 61000 72162 8572/ 90900 333 ////=
07434,1998-10-24 12:00:00,13,1017.7,-3.2,82,10,20000,22.224,,,200,,,,,,,,,,21,wg-a,,,,AAXX 24124 07434 02470 82012 10130 20100 39703 40177 58032 61000 72162 8387/ 91200 333 6100=
07434,1998-10-24 15:00:00,12,1014.9,-2.7,100,12,2500,25.928,,,200,,,,0,,,,,,10,wg-a,,,,AAXX 24154 07434 12225 82014 10120 20120 39676 40149 56027 60007 71065 887// 91500=
07434,1998-10-24 18:00:00,15,1010.2,-4,94,14,20000,35.188,,,230,10.5,15.1,,,,,,,,21,wg-a,,,,AAXX 24184 07434 02270 82319 10150 20140 39636 40102 56040 61000 72165 877// 91800 333 10151 20105 6000=
07434,1998-10-24 21:00:00,16,1006.4,-3.5,82,13,10000,38.892,,,230,,,,,,,,,,61,wg-a,,,,AAXX 24214 07434 02260 82321 10160 20130 39601 40064 58035 61000 76162 887// 92100 333 ////=
07434,1998-10-25 00:00:00,14,1005.7,-1,94,13,6000,31.484,,46.3,280,,,,16,,,,,,61,wg-a,,,,AAXX 25004 07434 02156 82817 10140 20130 39591 40057 55010 60166 76162 887// 90000 333 60167 91025=
07434,1998-10-25 03:00:00,10,1008,1.5,93,9,8000,18.52,,,270,,,,5,,,,,,61,wg-a,,,,AAXX 25034 07434 12258 82710 10100 20090 39606 40080 51015 60057 76166 888// 90300=
07434,1998-10-25 06:00:00,11,1009.1,1.2,94,10,15000,14.816,,,270,9.8,15.8,,,,,22,,,1,wg-a,,,,AAXX 25064 07434 02165 82708 10110 20100 39618 40091 53012 60006 70162 887// 90600 333 10158 20098 60224=
07434,1998-10-25 09:00:00,11,1011.1,2,94,10,4000,14.816,,,270,,,,1,,,,,,25,wg-a,,,,AAXX 25094 07434 12240 82708 10110 20100 39638 40111 53020 60017 72586 878// 90900=
07434,1998-10-25 12:00:00,11,1011.6,0.5,94,10,4000,14.816,,,270,,,,3,,,,,,15,wg-a,,,,AAXX 25124 07434 02340 82708 10110 20100 39643 40116 53005 60046 71586 878// 91200 333 60037=
07434,1998-10-25 15:00:00,12,1011.7,0.2,88,10,15000,14.816,,,290,,,,2,,,,,,3,wg-a,,,,AAXX 25154 07434 12465 62908 10120 20100 39645 40117 53002 60027 70386 86300 91500=
07434,1998-10-25 18:00:00,9,1014.2,1.9,93,8,15000,11.112,,,260,9.4,12.2,,3,,,,,,1,wg-a,,,,AAXX 25184 07434 02565 /2606 10090 20080 39664 40142 53019 60006 70186 81200 91800 333 10122 20094 60037=
07434,1998-10-25 21:00:00,9,1016,1.6,93,8,20000,7.408,,,250,,,,,,,,,,,wg-a,,,,AAXX 25214 07434 12570 22504 10090 20080 39680 40160 51016 60006 82530 92100=
07434,1998-10-26 00:00:00,8,1016.7,0.5,93,7,12000,7.408,,,250,,,,0,,,,,,,wg-a,,,,AAXX 26004 07434 02762 12504 10080 20070 39685 40167 52005 60006 81500 90000 333 60007=
07434,1998-10-26 03:00:00,7,1017.2,0.4,100,7,12000,7.408,,,240,,,,0,,,,,,,wg-a,,,,AAXX 26034 07434 12562 /2404 10070 20070 39689 40172 50004 60007 81500 90300=
07434,1998-10-26 06:00:00,8,1018.2,1,93,7,15000,11.112,,,230,6.7,9.4,,,,,,,,80,wg-a,,,,AAXX 26064 07434 02465 72306 10080 20070 39699 40182 51010 61000 78086 8583/ 90600 333 10094 20067 6010=
07434,1998-10-26 09:00:00,9,1018.7,0.7,93,8,8000,18.52,,,220,,,,0,,,,,,60,wg-a,,,,AAXX 26094 07434 12158 72210 10090 20080 39706 40187 50007 60007 76086 877// 90900=
07434,1998-10-26 12:00:00,11,1017.7,-0.6,87,9,10000,22.224,,,240,,,,1,,,,,,80,wg-a,,,,AAXX 26124 07434 02260 72412 10110 20090 39700 40177 58006 60016 78086 878// 91200 333 60017=
07434,1998-10-26 18:00:00,9,1022.8,2.8,81,6,12000,18.52,,,290,7.2,11.7,,,,,,,,3,wg-a,,,,AAXX 26184 07434 12562 22910 10090 20060 39745 40228 53028 60006 70386 82400 91800 333 10117 20072=
07434,1998-10-27 00:00:00,7,1026.8,1.3,93,6,10000,7.408,,,270,,,,,,,,,,,wg-a,,,,AAXX 27004 07434 12260 /2704 10070 20060 39780 40268 51013 60006 85600 90000=
07434,1998-10-27 03:00:00,5,1027,-0.1,100,5,12000,7.408,,,250,,,,,,,,,,,wg-a,,,,AAXX 27034 07434 12/62 02504 10050 20050 39779 40270 58001 60006 80000 90300=
07434,1998-10-27 06:00:00,5,1027.8,0.7,93,4,1500,3.704,,,110,4.8,9.1,,,,,5,,,40,wg-a,,,,AAXX 27064 07434 02015 71102 10050 20040 39786 40278 50007 60006 74041 875// 90600 333 10091 20048 60054=
07434,1998-10-27 09:00:00,8,1028.2,0.9,93,7,600,14.816,,,180,,,,,,,,,,43,wg-a,,,,AAXX 27094 07434 12/06 91808 10080 20070 39795 40282 51009 60006 74342 89/// 90900=
07434,1998-10-27 12:00:00,11,1026.4,-1.2,87,9,12000,22.224,,,210,,,,,,,,,,1,wg-a,,,,AAXX 27124 07434 12462 72112 10110 20090 39783 40264 56012 60006 70142 86202 91200=
07434,1998-10-27 15:00:00,12,1024.5,-1.6,82,9,20000,25.928,,,220,,,,,,,,,,,wg-a,,,,AAXX 27154 07434 12470 72214 10120 20090 39767 40245 56016 60006 84232 91500=
07434,1998-10-27 18:00:00,11,1024.1,-0.6,87,9,20000,18.52,,,200,4.9,12.4,,,,,,,,,wg-a,,,,AAXX 27184 07434 12570 82010 10110 20090 39761 40241 56006 60006 875// 91800 333 10124 20049=
07434,1998-10-27 21:00:00,10,1023.8,-0.4,93,9,12000,18.52,,,200,,,,,,,,,,,wg-a,,,,AAXX 27214 07434 12562 /2010 10100 20090 39757 40238 58004 60006 85500 92100=
07434,1998-10-28 00:00:00,10,1023.5,-0.3,93,9,8000,25.928,,,210,,,,,,,,,,,wg-a,,,,AAXX 28004 07434 12358 82114 10100 20090 39754 40235 56003 60006 887// 90000=
07434,1998-10-28 03:00:00,10,1022.1,-1.3,93,9,3000,25.928,,,210,,,,1,,,,,,51,wg-a,,,,AAXX 28034 07434 12130 82114 10100 20090 39741 40221 58013 60017 75165 887// 90300=
07434,1998-10-28 06:00:00,11,1022,0.1,100,11,4000,25.928,,,220,9.3,11.2,,,,,,,,50,wg-a,,,,AAXX 28064 07434 02140 82214 10110 20110 39742 40220 53001 61000 75065 887// 90600 333 10112 20093 6002=
07434,1998-10-28 09:00:00,13,1022.6,0.8,94,12,800,25.928,,,220,,,,0,,,,,,44,wg-a,,,,AAXX 28094 07434 12108 82214 10130 20120 39750 40226 53008 60007 74455 887// 90900=
07434,1998-10-28 12:00:00,15,1022.2,0,88,13,4000,25.928,,,240,,,,1,,,,,,10,wg-a,,,,AAXX 28124 07434 02240 82414 10150 20130 39750 40222 50000 60026 71054 887// 91200 333 60017=
07434,1998-10-28 18:00:00,14,1021.8,0.2,94,13,9000,25.928,,,220,11.2,15.5,,,,,,,,60,wg-a,,,,AAXX 28184 07434 02359 72214 10140 20130 39744 40218 53002 61000 76065 877// 91800 333 10155 20112 6100=
07434,1998-10-28 21:00:00,14,1020.8,-0.9,94,13,7000,22.224,,,220,,,,0,,,,,,10,wg-a,,,,AAXX 28214 07434 12157 82212 10140 20130 39735 40208 58009 60007 71065 877// 92100=
07434,1998-10-29 00:00:00,13,1019.5,-1.3,100,13,2500,25.928,,,220,,,,1,,,,,,10,wg-a,,,,AAXX 29004 07434 02025 82214 10130 20130 39722 40195 58013 60016 71065 877// 90000 333 60017=
07434,1998-10-29 06:00:00,14,1016,-1.5,94,13,2500,25.928,,44.448,230,13.3,13.8,,,,,,,,10,wg-a,,,,AAXX 29064 07434 02125 82314 10140 20130 39689 40160 56015 61000 71065 877// 90600 333 10138 20133 6005 91024=
07434,1998-10-29 09:00:00,9,1022.6,5.5,93,8,4000,14.816,,,320,,,,8,,,,,,10,wg-a,,,,AAXX 29094 07434 12140 83208 10090 20080 39744 40226 53055 60087 71066 888// 90900=
07434,1998-10-29 12:00:00,11,1025,2.6,87,9,500,18.52,,,280,,,,2,,,,,,1,wg-a,,,,AAXX 29124 07434 02400 62810 10110 20090 39770 40250 51026 60106 70165 86201 91200 333 60027=
07434,1998-10-29 18:00:00,8,1028.7,1.6,87,6,500,7.408,,,280,7.9,13.6,,,,,,,,,wg-a,,,,AAXX 29184 07434 12600 32804 10080 20060 39800 40287 51016 60006 83201 91800 333 10136 20079=
07434,1998-10-29 21:00:00,7,1029.7,0.7,87,5,500,7.408,,,270,,,,,,,,,,,wg-a,,,,AAXX 29214 07434 12600 32704 10070 20050 39807 40297 51007 60006 82501 92100=
07434,1998-10-30 00:00:00,5,1030.2,0.2,100,5,500,7.408,,,270,,,,,,,,,,,wg-a,,,,AAXX 30004 07434 12600 22704 10050 20050 39809 40302 50002 60006 82500 90000=
07434,1998-10-30 06:00:00,4,1029.1,-0.5,93,3,8000,0,,,0,3.3,8.1,,,,,10,,,28,wg-a,,,,AAXX 30064 07434 02258 30000 10040 20030 39795 40291 58005 60006 72841 83601 90600 333 10081 20033 60104=
07434,1998-10-30 12:00:00,10,1026.9,-1.1,82,7,18000,18.52,,,280,,,,,,,,,,,wg-a,,,,AAXX 30124 07434 12468 72810 10100 20070 39786 40269 57011 60006 85801 91200=
07434,1998-10-30 15:00:00,10,1025.8,-1,82,7,20000,11.112,,,270,,,,,,,,,,,wg-a,,,,AAXX 30154 07434 12470 72706 10100 20070 39776 40258 56010 60006 878// 91500=
07434,1998-10-30 18:00:00,9,1025.9,-0.1,93,8,8000,11.112,,,250,3.6,10.7,,,,,,,,25,wg-a,,,,AAXX 30184 07434 02258 82506 10090 20080 39775 40259 56001 61000 72586 887// 91800 333 10107 20036 6001=
07434,1998-10-30 21:00:00,9,1025.6,-0.1,93,8,20000,7.408,,,260,,,,,,,,,,,wg-a,,,,AAXX 30214 07434 12170 /2604 10090 20080 39774 40256 58001 60006 86800 92100=
07434,1998-10-31 00:00:00,8,1025,-0.9,100,8,10000,7.408,,,270,,,,,,,,,,,wg-a,,,,AAXX 31004 07434 12160 72704 10080 20080 39765 40250 58009 60006 878// 90000=
07434,1998-10-31 03:00:00,8,1023.3,-1.7,93,7,8000,7.408,,,220,,,,,,,,,,,wg-a,,,,AAXX 31034 07434 12158 82204 10080 20070 39748 40233 58017 60006 886// 90300=
07434,1998-10-31 06:00:00,8,1022,-1.2,100,8,4000,7.408,,,220,7.4,9,,,,,,,,10,wg-a,,,,AAXX 31064 07434 02040 82204 10080 20080 39736 40220 57012 61000 71054 887// 90600 333 10090 20074 6002=
07434,1998-10-31 09:00:00,9,1021.3,-0.6,93,8,4000,14.816,,,220,,,,1,,,,,,10,wg-a,,,,AAXX 31094 07434 12140 82208 10090 20080 39730 40213 57006 60017 71055 887// 90900=
07434,1998-10-31 12:00:00,10,1018.7,-2.2,93,9,6000,18.52,,,220,,,,,,,,,,60,wg-a,,,,AAXX 31124 07434 02456 72210 10100 20090 39708 40187 57022 60016 76065 8687/ 91200 333 61000=
07434,1998-10-31 15:00:00,11,1016.4,-2.1,87,9,500,18.52,,,220,,,,,,,,,,1,wg-a,,,,AAXX 31154 07434 02400 72210 10110 20090 39687 40164 57021 61000 70162 878// 91500 333 ////=
07434,1998-10-31 18:00:00,10,1014.5,-1.9,87,8,20000,18.52,,,210,7.9,11.2,,,,,,,,3,wg-a,,,,AAXX 31184 07434 12470 82110 10100 20080 39668 40145 56019 60006 70362 8657/ 91800 333 10112 20079=
07434,1998-10-31 21:00:00,10,1013.3,-1.2,87,8,18000,25.928,,,230,,,,,,,,,,,wg-a,,,,AAXX 31214 07434 12468 82314 10100 20080 39656 40133 56012 60006 8657/ 92100=
07434,1998-11-01 00:00:00,9,1010.1,-3.1,93,8,4000,25.928,,,210,,,,,,,,,,51,wg-a,,,,AAXX 01004 07434 02140 82114 10090 20080 39625 40101 58031 61000 75152 887// 90000 333 6100=
07434,1998-11-01 03:00:00,11,1007.3,-2.5,94,10,3500,25.928,,,220,,,,2,,,,,,51,wg-a,,,,AAXX 01034 07434 12135 82214 10110 20100 39600 40073 56025 60027 75165 887// 90300=
07434,1998-11-01 06:00:00,13,1006.7,-0.2,94,12,12000,22.224,,38.892,270,9,12.7,,,,,,,,60,wg-a,,,,AAXX 01064 07434 02262 82712 10130 20120 39598 40067 55002 61000 76065 875// 90600 333 10127 20090 6005 91021=
07434,1998-11-01 09:00:00,13,1008.7,1.9,94,12,3000,18.52,,,280,,,,1,,,,,,10,wg-a,,,,AAXX 01094 07434 12130 82810 10130 20120 39617 40087 53019 60017 71065 887// 90900=
07434,1998-11-01 12:00:00,12,1010.6,1.7,94,11,10000,14.816,,,360,,,,1,,,,,,25,wg-a,,,,AAXX 01124 07434 02260 73608 10120 20110 39634 40106 51017 60026 72586 878// 91200 333 60017=
07434,1998-11-01 15:00:00,10,1012.8,1.8,87,8,25000,7.408,,,350,,,,,,,,,,,wg-a,,,,AAXX 01154 07434 12375 73504 10100 20080 39652 40128 53018 60006 878// 91500=
07434,1998-11-02 00:00:00,7,1015.1,-0.3,93,6,6000,0,,,0,,,,,,,,,,,wg-a,,,,AAXX 02004 07434 12556 70000 10070 20060 39669 40151 58003 60006 87800 90000=
07434,1998-11-02 06:00:00,6,1012,-1.5,100,6,300,7.408,,,90,4.8,,,,,,2,,,43,wg-a,,,,AAXX 02064 07434 02/03 90904 10060 20060 39637 40120 58015 60006 74342 89/// 90600 333 10087 20048 60024=
07434,1998-11-02 09:00:00,7,1010.9,-0.8,93,6,6000,11.112,,,150,,,,,,,,,,50,wg-a,,,,AAXX 02094 07434 02256 81506 10070 20060 39629 40109 57008 61000 75054 888// 90900 333 ////=
07434,1998-11-02 12:00:00,10,1007.8,-2.6,93,9,7000,14.816,,,180,,,,0,,,,,,50,wg-a,,,,AAXX 02124 07434 02157 81808 10100 20090 39603 40078 58026 60006 75054 887// 91200 333 60007=
07434,1998-11-02 15:00:00,12,1004.2,-3,94,11,20000,18.52,,,200,,,,1,,,,,,21,wg-a,,,,AAXX 02154 07434 12170 82010 10120 20110 39573 40042 56030 60017 72165 887// 91500=
07434,1998-11-02 18:00:00,12,1003.7,-0.4,94,11,8000,18.52,,,220,6.1,12.5,,,,,,,,60,wg-a,,,,AAXX 02184 07434 02358 82210 10120 20110 39569 40037 57004 61000 76065 888// 91800 333 10125 20061 6003=
07434,1998-11-02 21:00:00,11,1004.1,0.2,94,10,10000,18.52,,,250,,,,2,,,,,,51,wg-a,,,,AAXX 02214 07434 12360 72510 10110 20100 39571 40041 51002 60027 75186 878// 92100=
07434,1998-11-03 00:00:00,11,1004.1,0,94,10,10000,18.52,,,230,,,,1,,,,,,25,wg-a,,,,AAXX 03004 07434 02260 72310 10110 20100 39571 40041 50000 60036 72586 876// 90000 333 60017=
07434,1998-11-03 03:00:00,9,1005.2,0.7,93,8,15000,11.112,,,230,,,,1,,,,,,,wg-a,,,,AAXX 03034 07434 12465 /2306 10090 20080 39578 40052 50007 60017 83832 90300=
07434,1998-11-03 06:00:00,9,1004.7,-0.5,93,8,11000,14.816,,,220,8.8,12.3,,,,,8,,,,wg-a,,,,AAXX 03064 07434 02/61 /2208 10090 20080 39573 40047 58005 60006 90600 333 10123 20088 60084=
07434,1998-11-03 09:00:00,10,1004.5,0,93,9,8000,22.224,,,220,,,,,,,,,,61,wg-a,,,,AAXX 03094 07434 02358 72212 10100 20090 39573 40045 50000 61000 76162 878// 90900 333 ////=
07434,1998-11-03 12:00:00,10,1004.5,0,87,8,20000,14.816,,,260,,,,0,,,,,,21,wg-a,,,,AAXX 03124 07434 02470 72608 10100 20080 39573 40045 50000 60016 72162 868// 91200 333 60007=
07434,1998-11-03 15:00:00,8,1004.3,-0.5,93,7,20000,14.816,,,220,,,,1,,,,,,60,wg-a,,,,AAXX 03154 07434 12270 72208 10080 20070 39568 40043 56005 60017 76062 875// 91500=
07434,1998-11-03 18:00:00,8,1004,-0.4,93,7,15000,14.816,,,200,7.9,10.5,,,,,,,,21,wg-a,,,,AAXX 03184 07434 02265 72008 10080 20070 39564 40040 57004 61000 72162 875// 91800 333 10105 20079 6100=
07434,1998-11-03 21:00:00,7,1004.8,0.6,93,6,12000,18.52,,,220,,,,1,,,,,,60,wg-a,,,,AAXX 03214 07434 12362 82210 10070 20060 39570 40048 53006 60017 76062 885// 92100=
07434,1998-11-04 00:00:00,7,1004.9,0.2,93,6,10000,18.52,,,210,,,,0,,,,,,3,wg-a,,,,AAXX 04004 07434 02360 82110 10070 20060 39572 40049 53002 60016 70362 888// 90000 333 60007=
07434,1998-11-04 06:00:00,7,1005.5,1,93,6,15000,11.112,,,240,6.8,7.9,,,,,3,,,,wg-a,,,,AAXX 04064 07434 02265 82406 10070 20060 39577 40055 53010 60006 886// 90600 333 10079 20068 60034=
07434,1998-11-04 12:00:00,10,1007.7,0.7,76,6,40000,18.52,,,240,,,,,,,,,,3,wg-a,,,,AAXX 04124 07434 12482 72410 10100 20060 39602 40077 50007 60016 70386 8683/ 91200=
07434,1998-11-04 15:00:00,10,1008,0.4,71,5,18000,14.816,,,260,,,,,,,,,,15,wg-a,,,,AAXX 04154 07434 12568 72608 10100 20050 39606 40080 53004 60006 71522 879// 91500=
07434,1998-11-04 18:00:00,6,1011.4,2.6,93,5,8000,14.816,,,280,6.4,11.2,,,,,,,,61,wg-a,,,,AAXX 04184 07434 02258 82808 10060 20050 39632 40114 53026 61000 76186 8587/ 91800 333 10112 20064 6002=
07434,1998-11-04 21:00:00,5,1014.5,2.7,93,4,15000,7.408,,,300,,,,0,,,,,,3,wg-a,,,,AAXX 04214 07434 12365 33004 10050 20040 39659 40145 53027 60007 70361 83800 92100=
07434,1998-11-05 00:00:00,4,1016.8,2,93,3,300,3.704,,,320,,,,,,,,,,45,wg-a,,,,AAXX 05004 07434 12/03 93202 10040 20030 39679 40168 52020 60006 74564 89/// 90000=
07434,1998-11-05 03:00:00,1,1019,1.6,100,1,300,0,,,0,,,,,,,,,,45,wg-a,,,,AAXX 05034 07434 12/03 90000 10010 20010 39695 40190 51016 60006 74544 89/// 90300=
07434,1998-11-05 06:00:00,2,1021.1,2.1,93,1,100,7.408,,,60,0.7,6.4,,,,,3,,,45,wg-a,,,,AAXX 05064 07434 02/01 90604 10020 20010 39716 40211 53021 60006 74544 89/// 90600 333 10064 20007 60034=
07434,1998-11-05 09:00:00,3,1023.7,2.7,100,3,300,3.704,,,120,,,,,,,,,,43,wg-a,,,,AAXX 05094 07434 12/03 91202 10030 20030 39743 40237 51027 60006 74344 89/// 90900=
07434,1998-11-05 12:00:00,6,1024.4,1.3,93,5,8000,3.704,,,130,,,,,,,,,,3,wg-a,,,,AAXX 05124 07434 12458 /1302 10060 20050 39756 40244 51013 60006 70341 85200 91200=
07434,1998-11-05 15:00:00,8,1024.3,0.1,61,1,40000,11.112,,,300,,,,,,,,,,,wg-a,,,,AAXX 05154 07434 12582 23006 10080 20010 39757 40243 53001 60006 82200 91500=
07434,1998-11-05 18:00:00,5,1026,1.1,81,2,25000,7.408,,,340,1.5,8.4,,,,,,,,,wg-a,,,,AAXX 05184 07434 12575 /3404 10050 20020 39768 40260 53011 60006 81500 91800 333 10084 20015=
07434,1998-11-05 21:00:00,4,1027.5,1.3,81,1,20000,3.704,,,10,,,,,,,,,,,wg-a,,,,AAXX 05214 07434 12/70 00102 10040 20010 39781 40275 53013 60006 80000 92100=
07434,1998-11-06 00:00:00,3,1028.5,0.7,87,1,12000,3.704,,,40,,,,,,,,,,,wg-a,,,,AAXX 06004 07434 12/62 00402 10030 20010 39788 40285 51007 60006 80000 90000=
07434,1998-11-06 03:00:00,1,1029.1,0.3,93,0,6000,0,,,0,,,,,,,,,,,wg-a,,,,AAXX 06034 07434 12/56 00000 10010 20000 39791 40291 51003 60006 80000 90300=
07434,1998-11-06 06:00:00,-1,1030.4,0.9,93,-2,1000,3.704,,,60,-0.8,4.8,,,,,,,,10,wg-a,,,,AAXX 06064 07434 02010 10602 11010 21020 39800 40304 52009 60006 71000 81600 90600 333 10048 21008 60004=
07434,1998-11-06 12:00:00,9,1029.8,-0.4,81,6,9000,3.704,,,240,,,,,,,,,,3,wg-a,,,,AAXX 06124 07434 12659 /2402 10090 20060 39812 40298 58004 60006 70341 85500 91200=
07434,1998-11-06 15:00:00,11,1029,-0.5,62,4,15000,11.112,,,350,,,,,,,,,,,wg-a,,,,AAXX 06154 07434 12765 23506 10110 20040 39807 40290 55005 60006 82100 91500=
07434,1998-11-06 18:00:00,7,1030.6,0.8,76,3,20000,11.112,,,10,-0.9,10.8,,,,,,,,,wg-a,,,,AAXX 06184 07434 12770 20106 10070 20030 39815 40306 53008 60006 81101 91800 333 10108 21009=
07434,1998-11-06 21:00:00,6,1031,0.3,81,3,20000,3.704,,,50,,,,,,,,,,,wg-a,,,,AAXX 06214 07434 12/70 00502 10060 20030 39818 40310 51003 60006 80000 92100=
07434,1998-11-07 00:00:00,4,1030.7,-0.6,93,3,15000,7.408,,,60,,,,,,,,,,,wg-a,,,,AAXX 07004 07434 12/65 00604 10040 20030 39812 40307 58006 60006 80000 90000=
07434,1998-11-07 03:00:00,3,1030.1,-0.8,93,2,15000,3.704,,,90,,,,,,,,,,,wg-a,,,,AAXX 07034 07434 12/65 00902 10030 20020 39804 40301 56008 60006 80000 90300=
07434,1998-11-07 06:00:00,4,1028.7,-1.1,93,3,15000,11.112,,,80,2.7,7.1,,,,,,,,40,wg-a,,,,AAXX 07064 07434 02/65 00806 10040 20030 39793 40287 58011 60006 74000 80000 90600 333 10071 20027 60004=
07434,1998-11-07 09:00:00,6,1027.7,-0.7,81,3,10000,18.52,,,100,,,,,,,,,,,wg-a,,,,AAXX 07094 07434 12/60 01010 10060 20030 39786 40277 58007 60006 80000 90900=
07434,1998-11-07 12:00:00,11,1025.9,-0.8,58,3,50000,7.408,,,110,,,,,,,,,,,wg-a,,,,AAXX 07124 07434 12/84 01104 10110 20030 39778 40259 58008 60006 80000 91200=
07434,1998-11-07 15:00:00,13,1023.9,-1.6,51,3,50000,7.408,,,110,,,,,,,,,,,wg-a,,,,AAXX 07154 07434 12/84 01104 10130 20030 39762 40239 56016 60006 80000 91500=
07434,1998-11-07 18:00:00,9,1025.1,0.5,66,3,25000,0,,,0,3.9,13.1,,,,,,,,,wg-a,,,,AAXX 07184 07434 12/75 00000 10090 20030 39767 40251 53005 60006 80000 91800 333 10131 20039=
07434,1998-11-07 21:00:00,6,1026.4,0.7,87,4,25000,3.704,,,140,,,,,,,,,,,wg-a,,,,AAXX 07214 07434 12/75 01402 10060 20040 39774 40264 53007 60006 80000 92100=
07434,1998-11-08 00:00:00,6,1025.9,-0.5,75,2,25000,14.816,,,180,,,,,,,,,,,wg-a,,,,AAXX 08004 07434 12/75 01808 10060 20020 39769 40259 55005 60006 80000 90000=
07434,1998-11-08 03:00:00,4,1026.4,0.2,87,2,25000,11.112,,,100,,,,,,,,,,,wg-a,,,,AAXX 08034 07434 12/75 01006 10040 20020 39771 40264 50002 60006 80000 90300=
07434,1998-11-08 06:00:00,4,1027.3,0.7,70,-1,25000,11.112,,,120,3.7,9,,,,,,,,,wg-a,,,,AAXX 08064 07434 02/75 41206 10040 21010 39778 40273 53007 60006 80001 90600 333 10090 20037 60004=
07434,1998-11-08 09:00:00,7,1027.7,1,70,2,25000,14.816,,,150,,,,,,,,,,,wg-a,,,,AAXX 08094 07434 12/75 61508 10070 20020 39788 40277 52010 60006 80002 90900=
07434,1998-11-08 12:00:00,13,1027,0.3,58,5,25000,22.224,,,180,,,,,,,,,,,wg-a,,,,AAXX 08124 07434 12675 71812 10130 20050 39791 40270 50003 60006 86502 91200=
07434,1998-11-08 15:00:00,13,1026.1,-0.7,67,7,25000,14.816,,,170,,,,,,,,,,,wg-a,,,,AAXX 08154 07434 12675 71708 10130 20070 39784 40261 56007 60006 875// 91500=
07434,1998-11-08 18:00:00,11,1026.6,0.1,71,6,25000,7.408,,,150,3.6,13.7,,,,,,,,,wg-a,,,,AAXX 08184 07434 12675 /1504 10110 20060 39785 40266 53001 60006 85502 91800 333 10137 20036=
07434,1998-11-08 21:00:00,10,1026.9,0.1,76,6,20000,11.112,,,130,,,,,,,,,,,wg-a,,,,AAXX 08214 07434 12670 71306 10100 20060 39786 40269 53001 60006 875// 92100=
07434,1998-11-09 00:00:00,8,1026.7,-0.5,81,5,20000,11.112,,,160,,,,,,,,,,,wg-a,,,,AAXX 09004 07434 12/70 01606 10080 20050 39781 40267 58005 60006 80000 90000=
07434,1998-11-09 03:00:00,8,1026,-0.8,81,5,15000,11.112,,,150,,,,,,,,,,,wg-a,,,,AAXX 09034 07434 12/65 01506 10080 20050 39773 40260 56008 60006 80000 90300=
07434,1998-11-09 06:00:00,7,1025.8,-0.3,81,4,15000,11.112,,,140,7.1,11.1,,,,,,,,,wg-a,,,,AAXX 09064 07434 02/65 31406 10070 20040 39770 40258 57003 60006 80001 90600 333 10111 20071 60004=
07434,1998-11-09 09:00:00,10,1025.7,0.5,71,5,15000,11.112,,,140,,,,,,,,,,,wg-a,,,,AAXX 09094 07434 12/65 61406 10100 20050 39775 40257 50005 60006 84072 90900=
07434,1998-11-09 12:00:00,13,1024.8,-0.4,67,7,25000,11.112,,,170,,,,,,,,,,,wg-a,,,,AAXX 09124 07434 12/75 71706 10130 20070 39771 40248 58004 60006 85032 91200=
07434,1998-11-09 15:00:00,14,1023.9,-0.8,67,8,20000,7.408,,,150,,,,,,,,,,,wg-a,,,,AAXX 09154 07434 12570 71504 10140 20080 39763 40239 56008 60006 8657/ 91500=
07434,1998-11-09 18:00:00,11,1024.3,0.1,87,9,6000,7.408,,,190,6.7,14.2,,,,,,,,61,wg-a,,,,AAXX 09184 07434 02256 81904 10110 20090 39764 40243 53001 61000 76162 8557/ 91800 333 10142 20067 6001=
07434,1998-11-09 21:00:00,12,1023.8,-0.4,82,9,10000,11.112,,,190,,,,0,,,,,,3,wg-a,,,,AAXX 09214 07434 12460 71906 10120 20090 39760 40238 58004 60007 70362 875// 92100=
07434,1998-11-10 00:00:00,12,1022,-1.8,82,9,8000,11.112,,,170,,,,,,,,,,1,wg-a,,,,AAXX 10004 07434 12458 71706 10120 20090 39742 40220 58018 60006 70162 875// 90000=
07434,1998-11-10 03:00:00,11,1019.8,-2.1,100,11,1000,11.112,,,200,,,,4,,,,,,61,wg-a,,,,AAXX 10034 07434 12110 82006 10110 20110 39721 40198 56021 60047 76162 887// 90300=
07434,1998-11-10 06:00:00,11,1020.7,0.7,94,10,3000,7.408,,,340,10.7,12.9,,,,,,,,10,wg-a,,,,AAXX 10064 07434 02130 83404 10110 20100 39728 40207 53007 61000 71065 887// 90600 333 10129 20107 6011=
07434,1998-11-10 09:00:00,11,1022.5,1.8,94,10,8000,11.112,,,280,,,,1,,,,,,28,wg-a,,,,AAXX 10094 07434 12258 72806 10110 20100 39746 40225 53018 60017 72864 876// 90900=
07434,1998-11-10 12:00:00,12,1021.7,-0.6,94,11,12000,11.112,,,230,,,,0,,,,,,60,wg-a,,,,AAXX 10124 07434 02262 82306 10120 20110 39740 40217 58006 60016 76064 877// 91200 333 60007=
07434,1998-11-10 15:00:00,12,1022.6,0.8,76,8,500,14.816,,,330,,,,3,,,,,,3,wg-a,,,,AAXX 10154 07434 12400 63308 10120 20080 39748 40226 53008 60037 70361 83831 91500=
07434,1998-11-10 18:00:00,8,1025.2,1.9,81,5,25000,7.408,,,330,8.4,12.2,,,,,,,,3,wg-a,,,,AAXX 10184 07434 12775 43304 10080 20050 39767 40252 53019 60006 70361 84500 91800 333 10122 20084=
07434,1998-11-10 21:00:00,7,1027.3,1.8,87,5,20000,14.816,,,350,,,,,,,,,,,wg-a,,,,AAXX 10214 07434 12670 /3508 10070 20050 39785 40273 52018 60006 85500 92100=
07434,1998-11-11 00:00:00,5,1029,1.2,93,4,12000,11.112,,,350,,,,,,,,,,,wg-a,,,,AAXX 11004 07434 12562 33506 10050 20040 39797 40290 51012 60006 83500 90000=
07434,1998-11-11 03:00:00,4,1029.4,0.2,93,3,10000,14.816,,,350,,,,,,,,,,,wg-a,,,,AAXX 11034 07434 12/60 03508 10040 20030 39799 40294 52002 60006 80000 90300=
07434,1998-11-11 06:00:00,3,1029.3,-0.3,87,1,200,7.408,,,50,2.9,8.4,,,,,3,,,46,wg-a,,,,AAXX 11064 07434 02002 30504 10030 20010 39796 40293 56003 60006 74640 83600 90600 333 10084 20029 60034=
07434,1998-11-11 09:00:00,2,1029.8,0.3,93,1,200,11.112,,,90,,,,,,,,,,45,wg-a,,,,AAXX 11094 07434 12/02 90906 10020 20010 39799 40298 50003 60006 74544 89/// 90900=
07434,1998-11-11 12:00:00,4,1028.2,-1.1,100,4,600,7.408,,,90,,,,,,,,,,43,wg-a,,,,AAXX 11124 07434 12/06 90904 10040 20040 39788 40282 58011 60006 74344 89/// 91200=
07434,1998-11-11 15:00:00,8,1024.2,-3.1,76,4,500,3.704,,,340,,,,,,,,,,1,wg-a,,,,AAXX 11154 07434 12400 33402 10080 20040 39757 40242 58031 60006 70141 83801 91500=
07434,1998-11-11 18:00:00,5,1023,-1.7,75,1,12000,7.408,,,50,1.6,8.6,,,,,,,,2,wg-a,,,,AAXX 11184 07434 12/62 20504 10050 20010 39740 40230 56017 60006 70241 80001 91800 333 10086 20016=
07434,1998-11-11 21:00:00,3,1019.8,-3.5,81,0,20000,7.408,,,90,,,,,,,,,,,wg-a,,,,AAXX 11214 07434 12/70 10904 10030 20000 39705 40198 56035 60006 80001 92100=
07434,1998-11-12 00:00:00,2,1017.3,-2.5,80,-1,20000,3.704,,,100,,,,,,,,,,,wg-a,,,,AAXX 12004 07434 12/70 41002 10020 21010 39680 40173 56025 60006 80001 90000=
07434,1998-11-12 03:00:00,1,1014.8,-2.5,86,-1,12000,7.408,,,110,,,,0,,,,,,61,wg-a,,,,AAXX 12034 07434 12562 81104 10010 21010 39655 40148 58025 60007 76161 8487/ 90300=
07434,1998-11-12 12:00:00,8,1015.8,1.1,93,7,10000,18.52,,,280,,,,,,,,,,1,wg-a,,,,AAXX 12124 07434 12360 72810 10080 20070 39677 40158 51011 60016 70162 86801 91200=
07434,1998-11-12 15:00:00,9,1016.2,0.5,71,4,25000,22.224,,,290,,,,,,,,,,,wg-a,,,,AAXX 12154 07434 12475 22912 10090 20040 39682 40162 53005 60006 82801 91500=
07434,1998-11-12 18:00:00,5,1018.5,1.5,87,3,20000,7.408,,,270,1.7,9.3,,,,,,,,,wg-a,,,,AAXX 12184 07434 12470 32704 10050 20030 39697 40185 53015 60006 82801 91800 333 10093 20017=
07434,1998-11-12 21:00:00,4,1019.9,1.1,93,3,20000,7.408,,,230,,,,,,,,,,,wg-a,,,,AAXX 12214 07434 12770 32304 10040 20030 39708 40199 51011 60006 83500 92100=
07434,1998-11-13 00:00:00,4,1019,-0.8,93,3,0,7.408,,,250,,,,,,,,,,,wg-a,,,,AAXX 13004 07434 12/// /2504 10040 20030 39700 40190 58008 60006 90000=
07434,1998-11-13 03:00:00,3,1016.8,-2.2,100,3,500,3.704,,,120,,,,,,,,,,,wg-a,,,,AAXX 13034 07434 12600 71202 10030 20030 39678 40168 58022 60006 8553/ 90300=
07434,1998-11-13 06:00:00,4,1014.7,-1.9,93,3,1000,7.408,,,130,3.2,5.2,,,,,1,,,28,wg-a,,,,AAXX 13064 07434 02010 91304 10040 20030 39659 40147 56019 60006 72842 897// 90600 333 10052 20032 60014=
07434,1998-11-13 09:00:00,5,1013.2,-1.3,93,4,2000,11.112,,,140,,,,1,,,,,,10,wg-a,,,,AAXX 13094 07434 12120 81406 10050 20040 39646 40132 58013 60017 71062 887// 90900=
07434,1998-11-13 12:00:00,6,1008.9,-3.8,93,5,20000,18.52,,,150,,,,1,,,,,,1,wg-a,,,,AAXX 13124 07434 02370 71510 10060 20050 39608 40089 58038 60016 70162 8753/ 91200 333 60017=
07434,1998-11-13 15:00:00,4,1,,93,3,1000,7.408,,,130,3.2,5.2,,,,,1,,,28,wg-a,,,,AAXX 13154 07434 02010 81304 10040 20030 39595 60006 72842 91500 333 10052 20032 60014=
07434,1998-11-13 21:00:00,6,1003.5,-1.4,93,5,3500,14.816,,,150,,,,1,,,,,,10,wg-a,,,,AAXX 13214 07434 12135 81508 10060 20050 39556 40035 56014 60017 71066 877// 92100=
07434,1998-11-14 00:00:00,7,1003.3,0,93,6,700,3.704,,,160,,,,,,,,,,45,wg-a,,,,AAXX 14004 07434 12/07 /1602 10070 20060 39556 40033 50000 60026 74565 90000=
07434,1998-11-14 03:00:00,9,1004.3,1.3,93,8,4000,25.928,,44.448,270,,,,1,,,,,,10,wg-a,,,,AAXX 14034 07434 12140 82714 10090 20080 39569 40043 53013 60017 71065 887// 90300 333 91024=
07434,1998-11-14 06:00:00,7,1008.7,3.8,87,5,18000,18.52,,,300,5.5,9.9,,,,,7,,,1,wg-a,,,,AAXX 14064 07434 02468 73010 10070 20050 39607 40087 51038 60006 70165 878// 90600 333 10099 20055 60074=
07434,1998-11-14 09:00:00,7,1011.2,2.4,93,6,25000,14.816,,,280,,,,,,,,,,,wg-a,,,,AAXX 14094 07434 12375 72808 10070 20060 39631 40112 51024 60006 878// 90900=
07434,1998-11-14 12:00:00,8,1011.2,0.2,76,4,500,18.52,,,280,,,,,,,,,,,wg-a,,,,AAXX 14124 07434 12400 72810 10080 20040 39633 40112 50002 60006 8787/ 91200=
07434,1998-11-14 15:00:00,8,1011.7,0.5,66,2,500,22.224,,,290,,,,,,,,,,,wg-a,,,,AAXX 14154 07434 12500 62912 10080 20020 39638 40117 53005 60006 85830 91500=
07434,1998-11-14 18:00:00,5,1013.9,1.6,87,3,20000,11.112,,,270,5.3,9,,,,,,,,,wg-a,,,,AAXX 14184 07434 12570 42706 10050 20030 39654 40139 53016 60006 83830 91800 333 10090 20053=
07434,1998-11-14 21:00:00,5,1015.7,1.6,87,3,12000,7.408,,,270,,,,,,,,,,,wg-a,,,,AAXX 14214 07434 12562 72704 10050 20030 39670 40157 53016 60006 875// 92100=
07434,1998-11-15 00:00:00,3,1017.2,1.1,93,2,12000,7.408,,,280,,,,,,,,,,,wg-a,,,,AAXX 15004 07434 12562 /2804 10030 20020 39681 40172 51011 60006 81500 90000=
07434,1998-11-15 03:00:00,2,1017.7,0.4,100,2,12000,7.408,,,260,,,,,,,,,,,wg-a,,,,AAXX 15034 07434 12562 /2604 10020 20020 39685 40177 51004 60006 81500 90300=
07434,1998-11-15 06:00:00,2,1018.6,0.8,93,1,12000,7.408,,,220,1.8,5.4,,,,,,,,,wg-a,,,,AAXX 15064 07434 02562 32204 10020 20010 39693 40186 53008 60006 83800 90600 333 10054 20018 60004=
07434,1998-11-15 09:00:00,3,1019.8,1.4,100,3,4000,7.408,,,230,,,,,,,,,,10,wg-a,,,,AAXX 15094 07434 12440 72304 10030 20030 39707 40198 53014 60006 71011 878// 90900=
07434,1998-11-15 12:00:00,7,1019.8,0.7,87,5,10000,14.816,,,270,,,,0,,,,,,25,wg-a,,,,AAXX 15124 07434 02360 72708 10070 20050 39714 40198 51007 60006 72586 878// 91200 333 60007=
07434,1998-11-15 15:00:00,9,1020.6,0.9,66,3,500,7.408,,,290,,,,,,,,,,,wg-a,,,,AAXX 15154 07434 12500 /2904 10090 20030 39723 40206 53009 60006 86800 91500=
07434,1998-11-15 21:00:00,5,1024.6,1.1,81,2,15000,11.112,,,340,,,,,,,,,,,wg-a,,,,AAXX 15214 07434 12565 43406 10050 20020 39754 40246 51011 60006 84800 92100=
07434,1998-11-16 00:00:00,3,1025.4,0.5,93,2,10000,3.704,,,300,,,,,,,,,,,wg-a,,,,AAXX 16004 07434 12660 23002 10030 20020 39759 40254 51005 60006 82500 90000=
07434,1998-11-16 03:00:00,2,1025.6,0.1,100,2,6000,7.408,,,310,,,,,,,,,,,wg-a,,,,AAXX 16034 07434 12656 33104 10020 20020 39760 40256 52001 60006 83500 90300=
07434,1998-11-16 06:00:00,1,1026.3,0.5,100,1,600,3.704,,,170,1.2,5.6,,,,,,,,10,wg-a,,,,AAXX 16064 07434 02606 21702 10010 20010 39765 40263 53005 60006 71040 82500 90600 333 10056 20012 60004=
07434,1998-11-16 09:00:00,2,1027.9,1.5,93,1,1400,0,,,0,,,,,,,,,,10,wg-a,,,,AAXX 16094 07434 12414 /0000 10020 20010 39780 40279 51015 60006 71041 86800 90900=
07434,1998-11-16 12:00:00,5,1027.6,0.4,75,1,12000,11.112,,,360,,,,,,,,,,3,wg-a,,,,AAXX 16124 07434 12462 /3606 10050 20010 39784 40276 50004 60006 70341 85100 91200=
07434,1998-11-16 15:00:00,6,1027.7,0.2,65,0,40000,14.816,,,10,,,,,,,,,,,wg-a,,,,AAXX 16154 07434 12682 20108 10060 20000 39786 40277 53002 60006 82100 91500=
07434,1998-11-16 18:00:00,3,1029,0.7,70,-2,40000,7.408,,,20,-1.5,6.5,,,,,,,,,wg-a,,,,AAXX 16184 07434 12/82 30204 10030 21020 39793 40290 53007 60006 80001 91800 333 10065 21015=
07434,1998-11-17 00:00:00,1,1030.3,0.2,80,-2,10000,7.408,,,30,,,,,,,,,,,wg-a,,,,AAXX 17004 07434 12/60 00304 10010 21020 39802 40303 50002 60006 80000 90000=
07434,1998-11-17 03:00:00,0,1029.3,-1.1,86,-2,10000,11.112,,,70,,,,,,,,,,,wg-a,,,,AAXX 17034 07434 12/60 00706 10000 21020 39791 40293 57011 60006 80000 90300=
07434,1998-11-17 06:00:00,0,1028.5,-0.8,86,-2,10000,14.816,,,70,-0.6,3,,,,,,,,,wg-a,,,,AAXX 17064 07434 02/60 40708 10000 21020 39783 40285 58008 60006 80002 90600 333 10030 21006 60004=
07434,1998-11-17 09:00:00,2,1028.3,0.2,80,-1,12000,14.816,,,80,,,,,,,,,,,wg-a,,,,AAXX 17094 07434 12/62 50808 10020 21010 39785 40283 51002 60006 83032 90900=
07434,1998-11-17 12:00:00,6,1026,-1.6,56,-2,25000,22.224,,,70,,,,,,,,,,,wg-a,,,,AAXX 17124 07434 12/75 50712 10060 21020 39769 40260 58016 60006 83032 91200=
07434,1998-11-17 15:00:00,5,1024.6,-1.4,52,-4,500,22.224,,,70,,,,,,,,,,,wg-a,,,,AAXX 17154 07434 12/00 70712 10050 21040 39755 40246 56014 60006 84072 91500=
07434,1998-11-17 18:00:00,3,1024.8,-0.2,65,-3,500,22.224,,,80,-0.3,5.9,,,,,,,,,wg-a,,,,AAXX 17184 07434 12/00 70812 10030 21030 39753 40248 56002 60006 86072 91800 333 10059 21003=
07434,1998-11-17 21:00:00,2,1024.2,-0.8,69,-3,25000,25.928,,,80,,,,,,,,,,,wg-a,,,,AAXX 17214 07434 12/75 70814 10020 21030 39745 40242 56008 60006 84072 92100=
07434,1998-11-18 00:00:00,0,1023.9,-0.5,74,-4,25000,25.928,,,70,,,,,,,,,,,wg-a,,,,AAXX 18004 07434 12/75 40714 10000 21040 39740 40239 56005 60006 80002 90000=
07434,1998-11-18 03:00:00,0,1023,-1,64,-6,15000,22.224,,,80,,,,,,,,,,,wg-a,,,,AAXX 18034 07434 12/65 40812 10000 21060 39730 40230 56010 60006 80002 90300=
07434,1998-11-18 06:00:00,-2,1022.8,-0.4,74,-6,15000,18.52,,,70,-1.6,3,,,,,,,,,wg-a,,,,AAXX 18064 07434 02/65 50710 11020 21060 39726 40228 56004 60006 85072 90600 333 10030 21016 60004=
07434,1998-11-18 09:00:00,-1,1023.2,0.5,69,-6,18000,22.224,,,70,,,,,,,,,,,wg-a,,,,AAXX 18094 07434 12/68 50712 11010 21060 39731 40232 53005 60006 85072 90900=
07434,1998-11-18 12:00:00,1,1022.7,-0.1,55,-7,20000,25.928,,,60,,,,,,,,,,,wg-a,,,,AAXX 18124 07434 12/70 70614 10010 21070 39730 40227 58001 60006 8707/ 91200=
07434,1998-11-18 15:00:00,1,1022.7,-0.1,64,-5,20000,18.52,,,40,,,,,,,,,,,wg-a,,,,AAXX 18154 07434 12/70 70410 10010 21050 39729 40227 57001 60006 8707/ 91500=
07434,1998-11-18 18:00:00,-2,1024.1,0.9,80,-5,10000,18.52,,,70,-1.6,1.5,,,,,,,,,wg-a,,,,AAXX 18184 07434 12/60 70710 11020 21050 39738 40241 51009 60006 85072 91800 333 10015 21016=
07434,1998-11-18 21:00:00,-2,1025,0.8,80,-5,15000,25.928,,,60,,,,,,,,,,,wg-a,,,,AAXX 18214 07434 12/65 20614 11020 21050 39746 40250 53008 60006 81032 92100=
07434,1998-11-19 00:00:00,-2,1025.6,0.5,80,-5,15000,22.224,,,80,,,,,,,,,,,wg-a,,,,AAXX 19004 07434 12/65 10812 11020 21050 39751 40256 53005 60006 80002 90000=
07434,1998-11-19 03:00:00,-3,1025.3,-0.3,74,-7,15000,25.928,,,60,,,,,,,,,,,wg-a,,,,AAXX 19034 07434 12/65 00614 11030 21070 39748 40253 55003 60006 80000 90300=
07434,1998-11-19 06:00:00,-3,1025.8,0.4,74,-7,20000,18.52,,,60,-3,-1.4,,,,,,,,,wg-a,,,,AAXX 19064 07434 02/70 00610 11030 21070 39752 40258 53004 60006 80000 90600 333 11014 21030 60004=
07434,1998-11-19 09:00:00,2,1026.4,1.3,44,-9,15000,22.224,,,60,,,,,,,,,,,wg-a,,,,AAXX 19094 07434 12/65 10612 10020 21090 39765 40264 52013 60006 80001 90900=
07434,1998-11-19 12:00:00,3,1026.2,0.2,44,-8,40000,22.224,,,90,,,,,,,,,,,wg-a,,,,AAXX 19124 07434 12/82 10912 10030 21080 39767 40262 50002 60006 80001 91200=
07434,1998-11-19 15:00:00,6,1025.3,-0.4,33,-9,40000,11.112,,,70,,,,,,,,,,,wg-a,,,,AAXX 19154 07434 12/82 10706 10060 21090 39763 40253 56004 60006 80001 91500=
07434,1998-11-19 18:00:00,2,1026.7,0.7,47,-8,20000,14.816,,,70,-2.8,6.5,,,,,,,,,wg-a,,,,AAXX 19184 07434 12/70 10708 10020 21080 39770 40267 51007 60006 80001 91800 333 10065 21028=
07434,1998-11-19 21:00:00,1,1028.3,1.2,55,-7,20000,18.52,,,60,,,,,,,,,,,wg-a,,,,AAXX 19214 07434 12/70 00610 10010 21070 39782 40283 53012 60006 80000 92100=
07434,1998-11-20 00:00:00,-1,1028.6,0,69,-6,20000,7.408,,,70,,,,,,,,,,,wg-a,,,,AAXX 20004 07434 12/70 00704 11010 21060 39782 40286 50000 60006 80000 90000=
07434,1998-11-20 03:00:00,-1,1028.9,0.3,74,-5,20000,3.704,,,50,,,,,,,,,,,wg-a,,,,AAXX 20034 07434 12/70 00502 11010 21050 39785 40289 50003 60006 80000 90300=
07434,1998-11-20 04:00:00,-1,1028.6,0,69,-6,21000,7.408,,,70,,,,,,,,,,,wg-a,,,,AAXX 20044 07434 12/71 00704 11010 21060 39782 40286 50000 60006 80000 90400=
07434,1998-11-20 06:00:00,-1,1029.6,0.8,80,-4,15000,11.112,,,40,-1.2,2.2,,,,,,,,,wg-a,,,,AAXX 20064 07434 02/65 00406 11010 21040 39793 40296 53008 60006 80000 90600 333 10022 21012 60004=
07434,1998-11-20 09:00:00,-1,1031.1,1.4,80,-4,15000,14.816,,,80,,,,,,,,,,,wg-a,,,,AAXX 20094 07434 12/65 00808 11010 21040 39807 40311 52014 60006 80000 90900=
07434,1998-11-20 12:00:00,3,1030.3,-0.1,52,-6,25000,18.52,,,70,,,,,,,,,,,wg-a,,,,AAXX 20124 07434 12/75 10710 10030 21060 39806 40303 58001 60006 80001 91200=
07434,1998-11-20 15:00:00,3,1030.6,0.3,48,-7,25000,18.52,,,60,,,,,,,,,,,wg-a,,,,AAXX 20154 07434 12/75 10610 10030 21070 39809 40306 53003 60006 80001 91500=
07434,1998-11-20 18:00:00,-1,1032.2,0.7,69,-6,25000,14.816,,,50,-1.6,4,,,,,,,,,wg-a,,,,AAXX 20184 07434 12/75 10508 11010 21060 39816 40322 51007 60006 80001 91800 333 10040 21016=
07434,1998-11-20 21:00:00,-3,1033,0.5,86,-5,15000,22.224,,,70,,,,,,,,,,,wg-a,,,,AAXX 20214 07434 12/65 00712 11030 21050 39821 40330 51005 60006 80000 92100=
07434,1998-11-21 00:00:00,-3,1033.3,0.1,80,-6,15000,22.224,,,70,,,,,,,,,,,wg-a,,,,AAXX 21004 07434 12/65 00712 11030 21060 39822 40333 50001 60006 80000 90000=
07434,1998-11-21 06:00:00,-5,1033.2,-0.1,73,-9,15000,18.52,,,70,-4.7,-1,,,,,,,,,wg-a,,,,AAXX 21064 07434 02/65 00710 11050 21090 39819 40332 55001 60006 80000 90600 333 11010 21047 60004=
07434,1998-11-21 09:00:00,-3,1033.4,0.6,58,-10,12000,14.816,,,80,,,,,,,,,,,wg-a,,,,AAXX 21094 07434 12/62 10808 11030 21100 39825 40334 51006 60006 80001 90900=
07434,1998-11-21 12:00:00,2,1031.4,-1.1,29,-14,20000,25.928,,,80,,,,,,,,,,,wg-a,,,,AAXX 21124 07434 12/70 00814 10020 21140 39814 40314 58011 60006 80000 91200=
07434,1998-11-21 15:00:00,3,1029.6,-1.6,30,-13,40000,25.928,,,70,,,,,,,,,,,wg-a,,,,AAXX 21154 07434 12/82 10714 10030 21130 39798 40296 56016 60006 80001 91500=
07434,1998-11-21 18:00:00,-1,1030,-0.4,54,-9,20000,18.52,,,60,-4.9,3.4,,,,,,,,,wg-a,,,,AAXX 21184 07434 12/70 00610 11010 21090 39794 40300 56004 60006 80000 91800 333 10034 21049=
07434,1998-11-21 21:00:00,-3,1028.7,-1.4,63,-9,15000,18.52,,,60,,,,,,,,,,,wg-a,,,,AAXX 21214 07434 12/65 00610 11030 21090 39780 40287 58014 60006 80000 92100=
07434,1998-11-22 00:00:00,-4,1027.4,-1.4,68,-9,15000,22.224,,,70,,,,,,,,,,,wg-a,,,,AAXX 22004 07434 12/65 00712 11040 21090 39766 40274 58014 60006 80000 90000=
07434,1998-11-22 03:00:00,-1,1030,-0.4,54,-9,20000,18.52,,,60,-4.9,3.4,,,,,,,,0,wg-a,,,,AAXX 22034 07434 12/70 00610 11010 21090 39794 40300 56004 60006 700// 80000 90300 333 10034 21049=
07434,1998-11-22 06:00:00,-6,1025.7,-0.9,79,-9,10000,11.112,,,40,-6.6,-1.4,,,,,,,,,wg-a,,,,AAXX 22064 07434 02/60 00406 11060 21090 39744 40257 55009 60006 80000 90600 333 11014 21066 60004=
07434,1998-11-22 09:00:00,-5,1025,-0.3,73,-9,8000,14.816,,,90,,,,,,,,,,,wg-a,,,,AAXX 22094 07434 12/58 00908 11050 21090 39741 40250 56003 60006 80000 90900=
07434,1998-11-22 12:00:00,0,1022.8,-1.3,51,-9,13000,18.52,,,120,,,,,,,,,,,wg-a,,,,AAXX 22124 07434 12/63 01210 10000 21090 39728 40228 58013 60006 80000 91200=
07434,1998-11-22 15:00:00,2,1021.3,-1.1,44,-9,20000,7.408,,,170,,,,,,,,,,,wg-a,,,,AAXX 22154 07434 12/70 01704 10020 21090 39717 40213 56011 60006 80000 91500=
07434,1998-11-22 18:00:00,-2,1022,0.1,59,-9,20000,3.704,,,210,-6.8,2.4,,,,,,,,,wg-a,,,,AAXX 22184 07434 12/70 22102 11020 21090 39718 40220 53001 60006 80001 91800 333 10024 21068=
07434,1998-11-23 00:00:00,-4,1021.7,-0.6,74,-8,12000,7.408,,,70,,,,,,,,,,,wg-a,,,,AAXX 23004 07434 12/62 20704 11040 21080 39711 40217 56006 60006 80001 90000=
07434,1998-11-23 03:00:00,-3,1020.9,-0.5,74,-7,12000,7.408,,,80,,,,,,,,,,,wg-a,,,,AAXX 23034 07434 12/62 20804 11030 21070 39706 40209 55005 60006 80001 90300=
07434,1998-11-23 06:00:00,-3,1021,0,80,-6,15000,7.408,,,50,-4.3,-1.4,,,,,,,,,wg-a,,,,AAXX 23064 07434 02/65 30504 11030 21060 39706 40210 50000 60006 80001 90600 333 11014 21043 60004=
07434,1998-11-23 09:00:00,0,1021.6,1.1,69,-5,8000,11.112,,,60,,,,,,,,,,,wg-a,,,,AAXX 23094 07434 12/58 /0606 10000 21050 39717 40216 51011 60006 80001 90900=
07434,1998-11-23 12:00:00,5,1021.1,0.4,52,-4,12000,3.704,,,80,,,,,,,,,,,wg-a,,,,AAXX 23124 07434 12/62 30802 10050 21040 39721 40211 50004 60006 80001 91200=
07434,1998-11-23 15:00:00,4,1021.2,-0,52,-5,15000,11.112,,,360,,,,,,,,,,,wg-a,,,,AAXX 23154 07434 12/65 23606 10040 21050 39721 40212 55000 60006 80001 91500=
07434,1998-11-23 18:00:00,0,1022.8,0.8,74,-4,10000,14.816,,,360,-3.3,4.8,,,,,,,,,wg-a,,,,AAXX 23184 07434 12/60 23608 10000 21040 39729 40228 52008 60006 80001 91800 333 10048 21033=
07434,1998-11-23 21:00:00,-1,1023.8,0.8,64,-7,10000,7.408,,,40,,,,,,,,,,,wg-a,,,,AAXX 23214 07434 12/60 00404 11010 21070 39737 40238 51008 60006 80000 92100=
07434,1998-11-24 00:00:00,-2,1024.7,0.6,69,-7,9000,3.704,,,20,,,,,,,,,,,wg-a,,,,AAXX 24004 07434 12/59 00202 11020 21070 39743 40247 52006 60006 80000 90000=
07434,1998-11-24 03:00:00,-2,1024,-0.7,63,-8,8000,7.408,,,50,,,,,,,,,,,wg-a,,,,AAXX 24034 07434 12/58 00504 11020 21080 39736 40240 57007 60006 80000 90300=
07434,1998-11-24 06:00:00,-4,1025.9,1.5,74,-8,8000,7.408,,,90,-4,0.4,,,,,,,,,wg-a,,,,AAXX 24064 07434 02/58 00904 11040 21080 39751 40259 53015 60006 80000 90600 333 10004 21040 60004=
07434,1998-11-24 09:00:00,-4,1025.7,-0.2,74,-8,500,3.704,,,70,,,,,,,,,,,wg-a,,,,AAXX 24094 07434 12/00 70702 11040 21080 39749 40257 55002 60006 85031 90900=
07434,1998-11-24 12:00:00,1,1025,0.3,64,-5,6000,7.408,,,280,,,,,,,,,,,wg-a,,,,AAXX 24124 07434 12/56 72804 10010 21050 39752 40250 50003 60006 84031 91200=
07434,1998-11-24 18:00:00,1,1024.7,0.4,69,-4,500,7.408,,,170,-5.4,4,,,,,,,,,wg-a,,,,AAXX 24184 07434 12500 71704 10010 21040 39749 40247 50004 60006 8457/ 91800 333 10040 21054=
07434,1998-11-24 21:00:00,1,1024.2,-0.5,69,-4,500,11.112,,,130,,,,,,,,,,,wg-a,,,,AAXX 24214 07434 12400 71306 10010 21040 39744 40242 58005 60006 875// 92100=
07434,1998-11-25 00:00:00,1,1022.3,-1.9,75,-3,6000,11.112,,,140,,,,0,,,,,,21,wg-a,,,,AAXX 25004 07434 02356 81406 10010 21030 39725 40223 58019 60006 72162 885// 90000 333 60007=
07434,1998-11-25 03:00:00,1,1019.1,-3,86,-1,500,14.816,,,140,,,,1,,,,,,50,wg-a,,,,AAXX 25034 07434 12200 81408 10010 21010 39695 40191 58030 60017 75052 885// 90300=
07434,1998-11-25 06:00:00,2,1017.1,-1.7,93,1,1500,11.112,,,160,0.4,1.7,,,,,,,,10,wg-a,,,,AAXX 25064 07434 02015 81606 10020 20010 39678 40171 56017 61000 71054 885// 90600 333 10017 20004 6002=
07434,1998-11-25 09:00:00,3,1016.8,-0.1,93,2,200,3.704,,,240,,,,,,,,,,45,wg-a,,,,AAXX 25094 07434 32/02 92402 10030 20020 39677 40168 56001 74555 89/// 90900=
07434,1998-11-25 12:00:00,5,1017,0.5,93,4,200,11.112,,,290,,,,,,,,,,45,wg-a,,,,AAXX 25124 07434 12/02 92906 10050 20040 39682 40170 53005 60016 74554 89/// 91200=
07434,1998-11-25 15:00:00,5,1017.7,0.8,100,5,2500,14.816,,,280,,,,,,,,,,10,wg-a,,,,AAXX 25154 07434 12125 82808 10050 20050 39690 40177 51008 60006 71042 876// 91500=
07434,1998-11-25 18:00:00,5,1020.3,2.4,93,4,8000,11.112,,,300,1.7,5.2,,,,,,,,1,wg-a,,,,AAXX 25184 07434 12458 73006 10050 20040 39714 40203 51024 60006 70142 875// 91800 333 10052 20017=
07434,1998-11-25 21:00:00,4,1022.2,1.7,93,3,8000,11.112,,,310,,,,,,,,,,,wg-a,,,,AAXX 25214 07434 12458 53106 10040 20030 39731 40222 51017 60006 85500 92100=
07434,1998-11-26 00:00:00,3,1022.9,0.4,93,2,0,7.408,,,330,,,,,,,,,,,wg-a,,,,AAXX 26004 07434 12/// /3304 10030 20020 39735 40229 51004 60006 90000=
07434,1998-11-26 06:00:00,4,1023.7,0.9,93,3,500,7.408,,,320,2.3,5,,,,,1,,,44,wg-a,,,,AAXX 26064 07434 02/05 93204 10040 20030 39744 40237 53009 60006 74465 89/// 90600 333 10050 20023 60014=
07434,1998-11-26 12:00:00,5,1026.2,0.5,100,5,500,11.112,,,330,,,,,,,,,,1,wg-a,,,,AAXX 26124 07434 12100 73306 10050 20050 39771 40262 51005 60016 70165 877// 91200=
07434,1998-11-26 15:00:00,5,1026.4,0.2,93,4,6000,7.408,,,300,,,,,,,,,,,wg-a,,,,AAXX 26154 07434 12256 73004 10050 20040 39773 40264 50002 60006 876// 91500=
07434,1998-11-26 18:00:00,5,1027.3,0.8,93,4,500,7.408,,,230,3.6,5.7,,,,,,,,,wg-a,,,,AAXX 26184 07434 12100 82304 10050 20040 39781 40273 50008 60006 886// 91800 333 10057 20036=
07434,1998-11-26 21:00:00,6,1027.3,0.1,93,5,600,7.408,,,270,,,,,,,,,,44,wg-a,,,,AAXX 26214 07434 12006 82704 10060 20050 39782 40273 50001 60006 74442 886// 92100=
07434,1998-11-27 00:00:00,6,1026,-1.2,93,5,500,11.112,,,270,,,,,,,,,,1,wg-a,,,,AAXX 27004 07434 12100 82706 10060 20050 39770 40260 58012 60006 70142 886// 90000=
07434,1998-11-27 03:00:00,6,1024.8,-1.1,100,6,800,11.112,,,280,,,,,,,,,,44,wg-a,,,,AAXX 27034 07434 12008 82806 10060 20060 39759 40248 56011 60006 74442 886// 90300=
07434,1998-11-27 09:00:00,6,1024.2,0.1,100,6,300,11.112,,,280,,,,,,,,,,45,wg-a,,,,AAXX 27094 07434 32/03 92806 10060 20060 39754 40242 53001 74542 89/// 90900=
07434,1998-11-27 12:00:00,7,1023.4,-0.6,100,7,600,11.112,,,290,,,,,,,,,,45,wg-a,,,,AAXX 27124 07434 12106 92906 10070 20070 39748 40234 58006 60006 74542 896// 91200=
07434,1998-11-27 15:00:00,8,1022.4,-0.8,100,8,6000,14.816,,,310,,,,1,,,,,,61,wg-a,,,,AAXX 27154 07434 12156 83108 10080 20080 39740 40224 56008 60017 76164 887// 91500=
07434,1998-11-27 18:00:00,8,1022.3,-0.2,93,7,8000,11.112,,,310,6,7.9,,,,,,,,61,wg-a,,,,AAXX 27184 07434 02158 83106 10080 20070 39738 40223 58002 61000 76164 888// 91800 333 10079 20060 6002=
07434,1998-11-27 21:00:00,7,1021.9,-0.4,100,7,6000,7.408,,,340,,,,2,,,,,,61,wg-a,,,,AAXX 27214 07434 12156 83404 10070 20070 39734 40219 57004 60027 76166 887// 92100=
07434,1998-11-28 00:00:00,7,1021.4,-0.6,93,6,10000,7.408,,,90,,,,0,,,,,,1,wg-a,,,,AAXX 28004 07434 02360 80904 10070 20060 39728 40214 56006 60026 70165 886// 90000 333 60007=
07434,1998-11-28 03:00:00,6,1021.2,-0.3,100,6,8000,7.408,,,100,,,,,,,,,,,wg-a,,,,AAXX 28034 07434 12358 81004 10060 20060 39725 40212 56003 60006 886// 90300=
07434,1998-11-28 06:00:00,6,1021.2,-0,93,5,2000,3.704,,,120,5.9,7.5,,,,,,,,50,wg-a,,,,AAXX 28064 07434 02020 81202 10060 20050 39725 40212 55000 61000 75052 887// 90600 333 10075 20059 6006=
07434,1998-11-28 12:00:00,8,1020,-1,100,8,1100,7.408,,,280,,,,,,,,,,10,wg-a,,,,AAXX 28124 07434 12/11 /2804 10080 20080 39717 40200 58010 60026 710// 91200=
07434,1998-11-28 15:00:00,9,1018.4,-1.4,93,8,10000,7.408,,,230,,,,,,,,,,20,wg-a,,,,AAXX 28154 07434 02260 72304 10090 20080 39703 40184 56014 61000 72052 875// 91500 333 ////=
07434,1998-11-28 18:00:00,8,1016.7,-1.7,100,8,2000,14.816,,,210,6,8.9,,,,,,,,10,wg-a,,,,AAXX 28184 07434 02120 82108 10080 20080 39686 40167 58017 61000 71065 887// 91800 333 10089 20060 6002=
07434,1998-11-29 00:00:00,6,1017.5,0.5,93,5,15000,11.112,,,320,,,,0,,,,,,21,wg-a,,,,AAXX 29004 07434 02265 83206 10060 20050 39689 40175 52005 60056 72165 888// 90000 333 60007=
07434,1998-11-29 03:00:00,4,1017.9,-0,93,3,4000,7.408,,,310,,,,,,,,,,10,wg-a,,,,AAXX 29034 07434 12340 73104 10040 20030 39689 40179 54000 60006 71022 875// 90300=
07434,1998-11-29 06:00:00,3,1018.1,0.1,93,2,6000,11.112,,,310,3,8.3,,,,,8,,,,wg-a,,,,AAXX 29064 07434 02156 83106 10030 20020 39690 40181 53001 60006 885// 90600 333 10083 20030 60084=
07434,1998-11-29 09:00:00,3,1019,0.8,100,3,3000,14.816,,,340,,,,0,,,,,,10,wg-a,,,,AAXX 29094 07434 12230 83408 10030 20030 39698 40190 53008 60007 71086 877// 90900=
07434,1998-11-29 12:00:00,4,1018.7,-0.1,93,3,8000,11.112,,,350,,,,0,,,,,,1,wg-a,,,,AAXX 29124 07434 02158 83506 10040 20030 39697 40187 58001 60016 70186 876// 91200 333 60007=
07434,1998-11-29 15:00:00,5,1018.5,-0,87,3,20000,14.816,,,360,,,,,,,,,,,wg-a,,,,AAXX 29154 07434 12470 73608 10050 20030 39697 40185 55000 60006 83832 91500=
07434,1998-11-29 18:00:00,4,1019.9,1.2,93,3,20000,14.816,,,350,2.6,4.9,,,,,,,,,wg-a,,,,AAXX 29184 07434 12370 73508 10040 20030 39709 40199 52012 60006 8461/ 91800 333 10049 20026=
07434,1998-11-29 21:00:00,3,1021.1,0.9,93,2,13000,11.112,,,360,,,,,,,,,,,wg-a,,,,AAXX 29214 07434 12363 73606 10030 20020 39718 40211 51009 60006 875// 92100=
07434,1998-11-30 00:00:00,2,1021.7,0.5,93,1,12000,22.224,,,350,,,,,,,,,,,wg-a,,,,AAXX 30004 07434 12262 73512 10020 20010 39723 40217 51005 60006 875// 90000=
07434,1998-11-30 03:00:00,2,1022,0.2,93,1,8000,14.816,,,350,,,,,,,,,,,wg-a,,,,AAXX 30034 07434 12158 83508 10020 20010 39725 40220 53002 60006 886// 90300=
07434,1998-11-30 06:00:00,2,1021.9,-0.1,93,1,8000,18.52,,,350,1.6,4.1,,,,,1,,,,wg-a,,,,AAXX 30064 07434 02158 83510 10020 20010 39724 40219 55001 60006 886// 90600 333 10041 20016 60014=
07434,1998-11-30 09:00:00,2,1022.5,0.5,93,1,2000,22.224,,,340,,,,,,,,,,10,wg-a,,,,AAXX 30094 07434 32/20 /3412 10020 20010 39729 40225 53005 710// 90900=
07434,1998-11-30 12:00:00,2,1022.2,-0.2,100,2,800,11.112,,,340,,,,0,,,,,,10,wg-a,,,,AAXX 30124 07434 02008 83406 10020 20020 39727 40222 58002 60016 71065 887// 91200 333 60007=
07434,1998-11-30 15:00:00,2,1021.7,-0.6,87,0,3000,29.632,,,40,,,,0,,,,,,10,wg-a,,,,AAXX 30154 07434 12230 80416 10020 20000 39721 40217 55006 60007 71076 885// 91500=
07434,1998-11-30 18:00:00,1,1023.2,1.3,86,-1,7000,14.816,,,30,0.7,2.8,,,,,,,,3,wg-a,,,,AAXX 30184 07434 12457 80308 10010 21010 39734 40232 51013 60006 70376 888// 91800 333 10028 20007=
07434,1998-11-30 21:00:00,-1,1024.1,0.6,80,-4,15000,29.632,,,50,,,,,,,,,,,wg-a,,,,AAXX 30214 07434 12465 80516 11010 21040 39740 40241 50006 60006 885// 92100=
07434,1998-12-01 00:00:00,-1,1024.1,0,86,-3,15000,18.52,,,40,,,,,,,,,,,wg-a,,,,AAXX 01004 07434 12465 80410 11010 21030 39740 40241 50000 60006 875// 90000=
07434,1998-12-01 03:00:00,-1,1023.8,-0.3,86,-3,12000,22.224,,,40,,,,,,,,,,,wg-a,,,,AAXX 01034 07434 12462 80412 11010 21030 39737 40238 58003 60006 875// 90300=
07434,1998-12-01 06:00:00,0,1024,0.4,80,-3,10000,25.928,,,60,-0.9,0.9,,,,,1,,,,wg-a,,,,AAXX 01064 07434 02460 80614 10000 21030 39741 40240 53004 60006 885// 90600 333 10009 21009 60014=
07434,1998-12-01 12:00:00,2,1026.3,0.7,75,-2,12000,14.816,,,60,,,,,,,,,,,wg-a,,,,AAXX 01124 07434 12462 70608 10020 21020 39765 40263 50007 60006 875// 91200=
07434,1998-12-01 15:00:00,1,1026,-0.5,80,-2,12000,22.224,,,50,,,,,,,,,,,wg-a,,,,AAXX 01154 07434 12462 80512 10010 21020 39760 40260 55005 60006 875// 91500=
07434,1998-12-01 18:00:00,0,1025.4,-0.6,86,-2,8000,25.928,,,60,0,1.5,,,,,,,,,wg-a,,,,AAXX 01184 07434 12458 80614 10000 21020 39754 40254 58006 60006 875// 91800 333 10015 20000=
07434,1998-12-01 21:00:00,1,1025.2,-0.1,80,-2,8000,25.928,,,60,,,,,,,,,,,wg-a,,,,AAXX 01214 07434 12458 80614 10010 21020 39753 40252 58001 60006 875// 92100=
07434,1998-12-02 00:00:00,1,1024.3,-0.9,80,-2,8000,22.224,,,60,,,,,,,,,,,wg-a,,,,AAXX 02004 07434 12458 80612 10010 21020 39744 40243 58009 60006 885// 90000=
07434,1998-12-02 03:00:00,1,1023.4,-0.8,80,-2,7000,25.928,,,70,,,,,,,,,,,wg-a,,,,AAXX 02034 07434 12457 80714 10010 21020 39736 40234 58008 60006 885// 90300=
07434,1998-12-02 06:00:00,1,1023.1,-0.3,80,-2,8000,18.52,,,60,0.1,0.6,,,,,,,,,wg-a,,,,AAXX 02064 07434 02458 80610 10010 21020 39733 40231 55003 60006 885// 90600 333 10006 20001 60004=
07434,1998-12-02 09:00:00,0,1023.6,0.4,86,-2,8000,14.816,,,70,,,,,,,,,,,wg-a,,,,AAXX 02094 07434 12458 80708 10000 21020 39737 40236 53004 60006 885// 90900=
07434,1998-12-02 12:00:00,1,1023,-0.5,80,-2,7000,11.112,,,70,,,,,,,,,,,wg-a,,,,AAXX 02124 07434 12457 80706 10010 21020 39732 40230 58005 60006 885// 91200=
07434,1998-12-02 15:00:00,1,1021.9,-1.1,80,-2,9000,7.408,,,20,,,,,,,,,,,wg-a,,,,AAXX 02154 07434 12459 80204 10010 21020 39721 40219 56011 60006 888// 91500=
07434,1998-12-02 18:00:00,0,1021.9,-0,86,-2,8000,3.704,,,130,0,0.9,,,,,,,,,wg-a,,,,AAXX 02184 07434 12458 81302 10000 21020 39721 40219 55000 60006 885// 91800 333 10009 20000=
07434,1998-12-02 21:00:00,-1,1022.3,0.2,86,-3,8000,7.408,,,160,,,,,,,,,,,wg-a,,,,AAXX 02214 07434 12458 81604 11010 21030 39723 40223 52002 60006 875// 92100=
07434,1998-12-03 00:00:00,0,1021,-1.2,80,-3,8000,7.408,,,60,,,,,,,,,,,wg-a,,,,AAXX 03004 07434 12558 70604 10000 21030 39711 40210 58012 60006 875// 90000=
07434,1998-12-03 03:00:00,0,1019.3,-1.5,86,-2,8000,11.112,,,40,,,,,,,,,,,wg-a,,,,AAXX 03034 07434 12658 70406 10000 21020 39696 40193 58015 60006 875// 90300=
07434,1998-12-03 06:00:00,1,1018.3,-0.9,80,-2,8000,7.408,,,60,-0.7,0.6,,,,,,,,,wg-a,,,,AAXX 03064 07434 02658 70604 10010 21020 39687 40183 56009 60006 875// 90600 333 10006 21007 60004=
07434,1998-12-03 09:00:00,2,1017.4,-0.6,80,-1,7000,11.112,,,60,,,,,,,,,,,wg-a,,,,AAXX 03094 07434 12657 70606 10020 21010 39681 40174 57006 60006 83531 90900=
07434,1998-12-03 12:00:00,7,1015.5,-1,66,1,8000,7.408,,,30,,,,,,,,,,,wg-a,,,,AAXX 03124 07434 12758 70304 10070 20010 39671 40155 58010 60006 8153/ 91200=
07434,1998-12-03 15:00:00,8,1013.3,-1.8,66,2,18000,11.112,,,360,,,,,,,,,,,wg-a,,,,AAXX 03154 07434 12/68 13606 10080 20020 39653 40133 56018 60006 81031 91500=
07434,1998-12-03 21:00:00,1,1013.9,-0.4,86,-1,4000,7.408,,,20,,,,,,,,,,10,wg-a,,,,AAXX 03214 07434 12040 30204 10010 21010 39646 40139 58004 60006 71000 83600 92100=
07434,1998-12-04 00:00:00,-2,1013.3,-1,100,-2,400,7.408,,,340,,,,,,,,,,45,wg-a,,,,AAXX 04004 07434 12/04 93404 11020 21020 39636 40133 56010 60006 74541 89/// 90000=
07434,1998-12-04 03:00:00,-1,1012.7,-0.6,93,-2,400,18.52,,,340,,,,,,,,,,45,wg-a,,,,AAXX 04034 07434 12/04 93410 11010 21020 39630 40127 58006 60006 74544 89/// 90300=
07434,1998-12-04 06:00:00,-1,1012.7,-0,93,-2,300,14.816,,,340,-2.1,4,,,,,,,,49,wg-a,,,,AAXX 04064 07434 02/03 93408 11010 21020 39630 40127 54000 60006 74944 89/// 90600 333 10040 21021 60004=
07434,1998-12-04 12:00:00,-1,1013.9,0.5,93,-2,1200,7.408,,,350,,,,,,,,,,28,wg-a,,,,AAXX 04124 07434 12112 93504 11010 21020 39643 40139 51005 60006 72842 896// 91200=
07434,1998-12-04 15:00:00,-1,1014.1,0.2,100,-1,3000,7.408,,,350,,,,,,,,,,10,wg-a,,,,AAXX 04154 07434 02230 83504 11010 21010 39645 40141 53002 61000 71072 887// 91500 333 ////=
07434,1998-12-04 18:00:00,-1,1016,1.8,93,-2,2500,11.112,,,300,-1.5,-0.5,,,,,,,,10,wg-a,,,,AAXX 04184 07434 12125 83006 11010 21020 39663 40160 51018 60006 71072 875// 91800 333 11005 21015=
07434,1998-12-04 21:00:00,-1,1017.3,1.3,100,-1,2000,7.408,,,270,,,,,,,,,,10,wg-a,,,,AAXX 04214 07434 02120 82704 11010 21010 39676 40173 51013 61000 71072 877// 92100 333 ////=
07434,1998-12-05 00:00:00,0,1017.9,0.6,93,-1,1200,7.408,,,290,,,,,,,,,,10,wg-a,,,,AAXX 05004 07434 02112 82904 10000 21010 39682 40179 51006 61000 71076 887// 90000 333 6100=
07434,1998-12-05 03:00:00,1,1018.5,0.7,93,0,3000,7.408,,,340,,,,,,,,,,10,wg-a,,,,AAXX 05034 07434 12130 83404 10010 20000 39689 40185 53007 60006 71022 886// 90300=
07434,1998-12-05 06:00:00,0,1019.2,0.5,93,-1,12000,0,,,0,-0.9,0.6,,,,,,,,1,wg-a,,,,AAXX 05064 07434 02362 70000 10000 21010 39694 40192 53005 60006 70142 875// 90600 333 10006 21009 61000=
07434,1998-12-05 09:00:00,0,1021,1.8,93,-1,500,0,,,0,,,,,,,,,,70,wg-a,,,,AAXX 05094 07434 02200 70000 10000 21010 39712 40210 52018 61000 77072 876// 90900 333 ////=
07434,1998-12-05 12:00:00,1,1022,1.1,93,0,10000,11.112,,,290,,,,,,,,,,1,wg-a,,,,AAXX 05124 07434 02360 72906 10010 20000 39723 40220 51011 61000 70172 876// 91200 333 6100=
07434,1998-12-05 15:00:00,3,1021.6,-0.1,81,0,15000,11.112,,,300,,,,,,,,,,,wg-a,,,,AAXX 05154 07434 12565 43006 10030 20000 39722 40216 57001 60006 84800 91500=
07434,1998-12-05 18:00:00,0,1023.1,0.9,93,-1,12000,7.408,,,250,-0.5,2.7,,,,,,,,,wg-a,,,,AAXX 05184 07434 12662 22504 10000 21010 39731 40231 51009 60006 82501 91800 333 10027 21005=
07434,1998-12-05 21:00:00,1,1023.3,0.4,93,0,8000,11.112,,,250,,,,,,,,,,,wg-a,,,,AAXX 05214 07434 12558 72506 10010 20000 39735 40233 50004 60006 875// 92100=
07434,1998-12-06 00:00:00,2,1023.1,-0,87,0,10000,11.112,,,260,,,,0,,,,,,21,wg-a,,,,AAXX 06004 07434 02360 82606 10020 20000 39735 40231 54000 60006 72161 875// 90000 333 60007=
07434,1998-12-06 03:00:00,2,1022.9,-0.2,93,1,8000,7.408,,,270,,,,,,,,,,,wg-a,,,,AAXX 06034 07434 12258 82704 10020 20010 39733 40229 56002 60006 877// 90300=
07434,1998-12-06 06:00:00,2,1023.5,0.6,93,1,6000,11.112,,,280,-0.3,1.8,,,,,,,,3,wg-a,,,,AAXX 06064 07434 02156 82806 10020 20010 39739 40235 53006 60006 70362 877// 90600 333 10018 21003 60004=
07434,1998-12-06 09:00:00,2,1025,1.4,93,1,2500,7.408,,,300,,,,0,,,,,,10,wg-a,,,,AAXX 06094 07434 12125 83004 10020 20010 39753 40250 53014 60007 71065 888// 90900=
07434,1998-12-06 12:00:00,3,1025.8,0.9,87,1,8000,11.112,,,340,,,,,,,,,,1,wg-a,,,,AAXX 06124 07434 02258 73406 10030 20010 39762 40258 50009 60016 70165 878// 91200 333 61000=
07434,1998-12-06 15:00:00,3,1026.5,0.7,75,-1,40000,11.112,,,20,,,,,,,,,,,wg-a,,,,AAXX 06154 07434 12582 60206 10030 21010 39769 40265 52007 60006 86801 91500=
07434,1998-12-06 18:00:00,0,1028.5,1.5,80,-3,500,7.408,,,10,0.3,4.4,,,,,,,,,wg-a,,,,AAXX 06184 07434 12600 20104 10000 21030 39784 40285 51015 60006 81501 91800 333 10044 20003=
07434,1998-12-06 21:00:00,0,1029.7,1,74,-4,20000,7.408,,,30,,,,,,,,,,,wg-a,,,,AAXX 06214 07434 12/70 00304 10000 21040 39794 40297 51010 60006 80000 92100=
07434,1998-12-07 00:00:00,-1,1030.6,0.7,80,-4,12000,11.112,,,40,,,,,,,,,,,wg-a,,,,AAXX 07004 07434 12/62 00406 11010 21040 39801 40306 50007 60006 80000 90000=
07434,1998-12-07 03:00:00,-3,1031.3,0.4,93,-4,10000,3.704,,,120,,,,,,,,,,,wg-a,,,,AAXX 07034 07434 12/60 01202 11030 21040 39805 40313 53004 60006 80000 90300=
07434,1998-12-07 06:00:00,-3,1032.4,1,86,-5,10000,3.704,,,30,-3.1,0.6,,,,,1,,,,wg-a,,,,AAXX 07064 07434 02/60 00302 11030 21050 39815 40324 53010 60006 80000 90600 333 10006 21031 60014=
07434,1998-12-07 09:00:00,-3,1033.5,1,93,-4,6000,3.704,,,70,,,,,,,,,,,wg-a,,,,AAXX 07094 07434 12/56 /0702 11030 21040 39825 40335 52010 60006 90900=
07434,1998-12-07 12:00:00,3,1032.5,0.1,70,-2,8000,7.408,,,120,,,,,,,,,,,wg-a,,,,AAXX 07124 07434 12458 /1204 10030 21020 39826 40325 50001 60006 81100 91200=
07434,1998-12-07 15:00:00,3,1032.5,0.1,70,-2,10000,7.408,,,330,,,,,,,,,,,wg-a,,,,AAXX 07154 07434 12/60 /3304 10030 21020 39827 40325 53001 60006 91500=
07434,1998-12-07 18:00:00,1,1033.4,0.4,80,-2,15000,3.704,,,280,-3.8,3.4,,,,,,,,,wg-a,,,,AAXX 07184 07434 12765 62802 10010 21020 39831 40334 53004 60006 845/1 91800 333 10034 21038=
07434,1998-12-07 21:00:00,0,1034.1,0.6,74,-4,12000,3.704,,,50,,,,,,,,,,,wg-a,,,,AAXX 07214 07434 12762 20502 10000 21040 39837 40341 51006 60006 81501 92100=
07434,1998-12-08 00:00:00,0,1033.6,-0.6,80,-3,10000,7.408,,,90,,,,,,,,,,,wg-a,,,,AAXX 08004 07434 12660 70904 10000 21030 39831 40336 58006 60006 86501 90000=
07434,1998-12-08 03:00:00,0,1033.5,-0.1,86,-2,8000,0,,,0,,,,,,,,,,,wg-a,,,,AAXX 08034 07434 12558 70000 10000 21020 39830 40335 57001 60006 875// 90300=
07434,1998-12-08 06:00:00,1,1032.7,-0.6,80,-2,10000,3.704,,,70,-0.2,0.9,,,,,,,,,wg-a,,,,AAXX 08064 07434 02560 70702 10010 21020 39824 40327 56006 60006 875// 90600 333 10009 21002 60004=
07434,1998-12-08 09:00:00,1,1032.9,0.3,80,-2,500,7.408,,,80,,,,,,,,,,,wg-a,,,,AAXX 08094 07434 12400 70804 10010 21020 39827 40329 50003 60006 875// 90900=
07434,1998-12-08 12:00:00,5,1031,-1.2,60,-2,18000,3.704,,,130,,,,,,,,,,,wg-a,,,,AAXX 08124 07434 12668 71302 10050 21020 39815 40310 58012 60006 82531 91200=
07434,1998-12-08 18:00:00,5,1030,-0.1,75,1,20000,3.704,,,100,0.3,7.2,,,,,,,,,wg-a,,,,AAXX 08184 07434 12/70 71002 10050 20010 39806 40300 56001 60006 8705/ 91800 333 10072 20003=
07434,1998-12-08 21:00:00,4,1029.3,-0.8,81,1,10000,3.704,,,90,,,,,,,,,,,wg-a,,,,AAXX 08214 07434 12/60 70902 10040 20010 39798 40293 58008 60006 8707/ 92100=
07434,1998-12-09 00:00:00,3,1028.3,-1.2,87,1,10000,7.408,,,70,,,,,,,,,,,wg-a,,,,AAXX 09004 07434 12/60 70704 10030 20010 39786 40283 58012 60006 8703/ 90000=
07434,1998-12-09 03:00:00,3,1027.2,-1,87,1,15000,3.704,,,110,,,,,,,,,,,wg-a,,,,AAXX 09034 07434 12/65 71102 10030 20010 39776 40272 58010 60006 8703/ 90300=
07434,1998-12-09 06:00:00,2,1026.6,-0.7,87,0,15000,7.408,,,110,2.4,5,,,,,,,,,wg-a,,,,AAXX 09064 07434 02765 71104 10020 20000 39769 40266 57007 60006 8557/ 90600 333 10050 20024 60004=
07434,1998-12-09 09:00:00,3,1026.8,0.4,81,0,20000,11.112,,,160,,,,,,,,,,,wg-a,,,,AAXX 09094 07434 12770 71606 10030 20000 39773 40268 51004 60006 8557/ 90900=
07434,1998-12-09 12:00:00,3,1026.3,-0.5,93,2,8000,11.112,,,130,,,,1,,,,,,61,wg-a,,,,AAXX 09124 07434 02558 71306 10030 20020 39768 40263 58005 60016 76162 875// 91200 333 60017=
07434,1998-12-09 18:00:00,3,1027,0.4,100,3,200,7.408,,,140,2.3,3.9,,,,,,,,45,wg-a,,,,AAXX 09184 07434 12/02 91404 10030 20030 39775 40270 53004 60006 74564 89/// 91800 333 10039 20023=
07434,1998-12-09 21:00:00,4,1026.5,-0.4,93,3,200,7.408,,,150,,,,,,,,,,45,wg-a,,,,AAXX 09214 07434 32/02 91504 10040 20030 39771 40265 58004 74564 89/// 92100=
07434,1998-12-10 00:00:00,4,1025.9,-0.5,100,4,400,11.112,,,100,,,,,,,,,,45,wg-a,,,,AAXX 10004 07434 12/04 91006 10040 20040 39766 40259 58005 60026 74564 89/// 90000=
07434,1998-12-10 03:00:00,5,1025.3,-0.5,93,4,300,7.408,,,110,,,,,,,,,,45,wg-a,,,,AAXX 10034 07434 32/03 91104 10050 20040 39761 40253 58005 74564 89/// 90300=
07434,1998-12-10 06:00:00,5,1024.8,-0.4,100,5,300,3.704,,,100,3.4,5,,,,,,,,45,wg-a,,,,AAXX 10064 07434 02/03 91002 10050 20050 39757 40248 56004 61000 74565 89/// 90600 333 10050 20034 6007=
07434,1998-12-10 09:00:00,6,1025.2,0.5,93,5,200,3.704,,,120,,,,,,,,,,45,wg-a,,,,AAXX 10094 07434 32/02 91202 10060 20050 39762 40252 51005 74554 89/// 90900=
07434,1998-12-10 12:00:00,7,1023.4,-1.5,93,6,400,7.408,,,140,,,,,,,,,,45,wg-a,,,,AAXX 10124 07434 12/04 91404 10070 20060 39747 40234 58015 60016 74565 89/// 91200=
07434,1998-12-10 15:00:00,8,1021.3,-1.8,93,7,300,11.112,,,180,,,,,,,,,,45,wg-a,,,,AAXX 10154 07434 32/03 91806 10080 20070 39729 40213 56018 74554 89/// 91500=
07434,1998-12-10 18:00:00,8,1019.6,-1.5,100,8,2000,18.52,,,190,4.9,8.2,,,,,,,,45,wg-a,,,,AAXX 10184 07434 02020 91910 10080 20080 39714 40196 56015 61000 74565 897// 91800 333 10082 20049 6007=
07434,1998-12-10 21:00:00,10,1018.7,-0.6,93,9,1500,11.112,,,230,,,,6,,,,,,61,wg-a,,,,AAXX 10214 07434 12115 82306 10100 20090 39708 40187 56006 60067 76166 887// 92100=
07434,1998-12-11 00:00:00,8,1019.9,0.9,100,8,8000,18.52,,,310,,,,2,,,,,,1,wg-a,,,,AAXX 11004 07434 02258 83110 10080 20080 39717 40199 53009 60086 70164 887// 90000 333 60027=
07434,1998-12-11 03:00:00,7,1021.7,1.5,93,6,8000,11.112,,,290,,,,,,,,,,,wg-a,,,,AAXX 11034 07434 12/58 /2906 10070 20060 39732 40217 53015 60006 90300=
07434,1998-12-11 06:00:00,7,1023.1,1.2,93,6,8000,11.112,,,270,6.5,10.2,,,,,15,,,,wg-a,,,,AAXX 11064 07434 02258 82706 10070 20060 39744 40231 53012 60006 888// 90600 333 10102 20065 60154=
07434,1998-12-11 09:00:00,7,1024.9,1.7,93,6,1000,3.704,,,250,,,,,,,,,,10,wg-a,,,,AAXX 11094 07434 12110 82502 10070 20060 39761 40249 53017 60006 71022 876// 90900=
07434,1998-12-11 12:00:00,8,1024.4,-0.2,93,7,15000,7.408,,,250,,,,,,,,,,1,wg-a,,,,AAXX 11124 07434 12365 72504 10080 20070 39759 40244 58002 60006 70142 878// 91200=
07434,1998-12-11 18:00:00,7,1025.3,0.9,93,6,15000,7.408,,,200,6.1,8.9,,,,,,,,,wg-a,,,,AAXX 11184 07434 12465 72004 10070 20060 39766 40253 53009 60006 8387/ 91800 333 10089 20061=
07434,1998-12-11 21:00:00,7,1026.1,0.7,93,6,9000,7.408,,,190,,,,0,,,,,,60,wg-a,,,,AAXX 11214 07434 12259 81904 10070 20060 39773 40261 53007 60007 76062 8657/ 92100=
07434,1998-12-12 00:00:00,7,1026.2,0.1,100,7,800,14.816,,,180,,,,,,,,,,10,wg-a,,,,AAXX 12004 07434 12/08 91808 10070 20070 39774 40262 50001 60016 71065 89/// 90000=
07434,1998-12-12 03:00:00,7,1026.3,0.1,100,7,900,7.408,,,150,,,,,,,,,,45,wg-a,,,,AAXX 12034 07434 32/09 91504 10070 20070 39775 40263 53001 74554 89/// 90300=
07434,1998-12-12 06:00:00,7,1026.6,0.4,100,7,900,7.408,,,160,6.8,7.4,,,,,,,,45,wg-a,,,,AAXX 12064 07434 02/09 91604 10070 20070 39779 40266 53004 61000 74554 89/// 90600 333 10074 20068 6003=
07434,1998-12-12 09:00:00,8,1027.7,1.1,93,7,600,7.408,,,180,,,,,,,,,,45,wg-a,,,,AAXX 12094 07434 32/06 91804 10080 20070 39790 40277 53011 74555 89/// 90900=
07434,1998-12-12 12:00:00,9,1027.6,0.2,100,9,1000,7.408,,,180,,,,2,,,,,,10,wg-a,,,,AAXX 12124 07434 02010 81804 10090 20090 39792 40276 50002 60036 71055 887// 91200 333 60027=
07434,1998-12-12 15:00:00,11,1027.7,0.4,100,11,700,7.408,,,210,,,,,,,,,,45,wg-a,,,,AAXX 12154 07434 32/07 92104 10110 20110 39796 40277 53004 74554 89/// 91500=
07434,1998-12-12 18:00:00,12,1029,1.4,94,11,6000,11.112,,,260,7.3,12.1,,,,,,,,10,wg-a,,,,AAXX 12184 07434 02156 82606 10120 20110 39810 40290 52014 61000 71054 887// 91800 333 10121 20073 6000=
07434,1998-12-12 21:00:00,12,1029.6,0.6,94,11,10000,18.52,,,240,,,,0,,,,,,,wg-a,,,,AAXX 12214 07434 12460 72410 10120 20110 39816 40296 50006 60007 878// 92100=
07434,1998-12-13 00:00:00,12,1030.3,0.6,94,11,500,14.816,,,260,,,,1,,,,,,51,wg-a,,,,AAXX 13004 07434 02100 82608 10120 20110 39822 40303 53006 60016 75165 887// 90000 333 60017=
07434,1998-12-13 03:00:00,12,1031.7,1.3,94,11,500,18.52,,,280,,,,1,,,,,,50,wg-a,,,,AAXX 13034 07434 12200 82810 10120 20110 39835 40317 53013 60017 75052 877// 90300=
07434,1998-12-13 06:00:00,10,1034.1,2,100,10,10000,11.112,,,280,10,12.3,,,,,6,,,3,wg-a,,,,AAXX 13064 07434 02260 72806 10100 20100 39855 40341 53020 60006 70352 875// 90600 333 10123 20100 60064=
07434,1998-12-13 09:00:00,9,1036.5,2.2,100,9,8000,3.704,,,260,,,,,,,,,,,wg-a,,,,AAXX 13094 07434 12258 72602 10090 20090 39877 40365 51022 60006 86502 90900=
07434,1998-12-13 12:00:00,12,1036.2,0,76,8,25000,7.408,,,200,,,,,,,,,,,wg-a,,,,AAXX 13124 07434 12475 72004 10120 20080 39877 40362 50000 60006 83102 91200=
07434,1998-12-13 15:00:00,12,1035.8,-0.3,82,9,25000,7.408,,,210,,,,,,,,,,,wg-a,,,,AAXX 13154 07434 12/75 62104 10120 20090 39874 40358 55003 60006 80002 91500=
07434,1998-12-13 18:00:00,9,1035.9,-0.5,87,7,15000,7.408,,,150,8.5,12.4,,,,,,,,,wg-a,,,,AAXX 13184 07434 12/65 41504 10090 20070 39869 40359 55005 60006 80001 91800 333 10124 20085=
07434,1998-12-13 21:00:00,7,1036.4,0.3,100,7,13000,3.704,,,90,,,,,,,,,,,wg-a,,,,AAXX 13214 07434 12/63 30902 10070 20070 39872 40364 51003 60006 80001 92100=
07434,1998-12-14 00:00:00,7,1035.8,-0.7,93,6,10000,0,,,0,,,,,,,,,,,wg-a,,,,AAXX 14004 07434 12/60 00000 10070 20060 39865 40358 58007 60006 80000 90000=
07434,1998-12-14 06:00:00,3,1035,-1.3,100,3,4000,7.408,,,80,3.1,8.5,,,,,,,,,wg-a,,,,AAXX 14064 07434 02/40 /0804 10030 20030 39851 40350 56013 60006 90600 333 10085 20031 60004=
07434,1998-12-14 09:00:00,6,1035.5,0.9,87,4,12000,3.704,,,330,,,,,,,,,,,wg-a,,,,AAXX 14094 07434 12/62 13302 10060 20040 39860 40355 51009 60006 81031 90900=
07434,1998-12-14 12:00:00,11,1033.9,-0.7,71,6,20000,7.408,,,120,,,,,,,,,,,wg-a,,,,AAXX 14124 07434 12/70 11204 10110 20060 39853 40339 58007 60006 80001 91200=
07434,1998-12-14 15:00:00,14,1032.3,-0.9,55,5,15000,0,,,0,,,,,,,,,,,wg-a,,,,AAXX 14154 07434 12465 20000 10140 20050 39844 40323 56009 60006 81101 91500=
07434,1998-12-14 18:00:00,11,1032.9,-0,66,5,500,3.704,,,70,3,14.4,,,,,,,,,wg-a,,,,AAXX 14184 07434 12/00 10702 10110 20050 39844 40329 55000 60006 80001 91800 333 10144 20030=
07434,1998-12-15 00:00:00,7,1033.1,-0.5,87,5,15000,3.704,,,60,,,,,,,,,,,wg-a,,,,AAXX 15004 07434 12/65 00602 10070 20050 39840 40331 57005 60006 80000 90000=
07434,1998-12-15 06:00:00,6,1031.6,-0.2,81,3,12000,7.408,,,40,5.2,10.8,,,,,,,,,wg-a,,,,AAXX 15064 07434 02/62 00404 10060 20030 39824 40316 56002 60006 80000 90600 333 10108 20052 60004=
07434,1998-12-15 09:00:00,9,1031.2,0.2,81,6,40000,7.408,,,50,,,,,,,,,,,wg-a,,,,AAXX 15094 07434 12/82 20504 10090 20060 39826 40312 52002 60006 80001 90900=
07434,1998-12-15 12:00:00,15,1028.8,-1.3,63,8,8000,7.408,,,50,,,,,,,,,,,wg-a,,,,AAXX 15124 07434 12/58 20504 10150 20080 39813 40288 58013 60006 80001 91200=
07434,1998-12-15 15:00:00,15,1027.6,-1.1,63,8,500,11.112,,,320,,,,,,,,,,,wg-a,,,,AAXX 15154 07434 12/00 13206 10150 20080 39802 40276 56011 60006 80001 91500=
07434,1998-12-15 18:00:00,11,1029.5,1,82,8,20000,14.816,,,360,5.7,16.7,,,,,,,,,wg-a,,,,AAXX 15184 07434 12/70 13608 10110 20080 39812 40295 51010 60006 80001 91800 333 10167 20057=
07434,1998-12-15 21:00:00,9,1031.7,1.8,76,5,25000,11.112,,,30,,,,,,,,,,,wg-a,,,,AAXX 15214 07434 12/75 10306 10090 20050 39830 40317 51018 60006 80001 92100=
07434,1998-12-16 00:00:00,9,1032.2,0.4,76,5,15000,11.112,,,30,,,,,,,,,,,wg-a,,,,AAXX 16004 07434 12/65 30306 10090 20050 39834 40322 51004 60006 80001 90000=
07434,1998-12-16 03:00:00,8,1032.6,0.3,76,4,15000,11.112,,,360,,,,,,,,,,,wg-a,,,,AAXX 16034 07434 12/65 33606 10080 20040 39837 40326 53003 60006 80001 90300=
07434,1998-12-16 06:00:00,7,1033.7,0.8,87,5,20000,18.52,,,30,6.8,11.1,,,,,,,,,wg-a,,,,AAXX 16064 07434 02/70 20310 10070 20050 39845 40337 53008 60006 80001 90600 333 10111 20068 60004=
07434,1998-12-16 09:00:00,8,1032.8,-0.6,93,7,8000,18.52,,,80,,,,,,,,,,,wg-a,,,,AAXX 16094 07434 12558 30810 10080 20070 39839 40328 58006 60006 81501 90900=
07434,1998-12-16 12:00:00,12,1030.2,-1.9,71,7,40000,22.224,,,90,,,,,,,,,,,wg-a,,,,AAXX 16124 07434 12/82 30912 10120 20070 39820 40302 58019 60006 80001 91200=
07434,1998-12-16 15:00:00,13,1028.7,-1.3,62,6,60000,14.816,,,40,,,,,,,,,,,wg-a,,,,AAXX 16154 07434 12/86 50408 10130 20060 39807 40287 56013 60006 80002 91500=
07434,1998-12-16 18:00:00,8,1029.7,0.2,81,5,20000,18.52,,,70,7,13.2,,,,,,,,,wg-a,,,,AAXX 16184 07434 12/70 30710 10080 20050 39809 40297 53002 60006 80002 91800 333 10132 20070=
07434,1998-12-16 21:00:00,6,1029.4,-0.7,87,4,20000,22.224,,,80,,,,,,,,,,,wg-a,,,,AAXX 16214 07434 12/70 00812 10060 20040 39802 40294 58007 60006 80000 92100=
07434,1998-12-17 00:00:00,7,1027.7,-1.4,61,0,20000,22.224,,,70,,,,,,,,,,,wg-a,,,,AAXX 17004 07434 12/70 00712 10070 20000 39788 40277 58014 60006 80000 90000=
07434,1998-12-17 03:00:00,5,1027.3,-0.8,70,0,20000,3.704,,,80,,,,,,,,,,,wg-a,,,,AAXX 17034 07434 12/70 00802 10050 20000 39780 40273 56008 60006 80000 90300=
07434,1998-12-17 06:00:00,6,1027.1,-0,56,-2,10000,7.408,,,90,3.9,8.2,,,,,,,,,wg-a,,,,AAXX 17064 07434 02/60 /0904 10060 21020 39780 40271 55000 60006 90600 333 10082 20039 60004=
07434,1998-12-17 12:00:00,11,1025.5,-1.2,58,3,20000,11.112,,,130,,,,,,,,,,,wg-a,,,,AAXX 17124 07434 12/70 11306 10110 20030 39774 40255 58012 60006 80001 91200=
07434,1998-12-17 18:00:00,7,1026.3,0.2,70,2,20000,11.112,,,170,3.7,13.2,,,,,,,,,wg-a,,,,AAXX 17184 07434 12/70 01706 10070 20020 39775 40263 53002 60006 80000 91800 333 10132 20037=
07434,1998-12-17 21:00:00,5,1027.7,0.9,81,2,20000,11.112,,,240,,,,,,,,,,,wg-a,,,,AAXX 17214 07434 12/70 02406 10050 20020 39784 40277 51009 60006 80000 92100=
07434,1998-12-18 00:00:00,4,1028.5,0.6,93,3,600,14.816,,,230,,,,,,,,,,44,wg-a,,,,AAXX 18004 07434 12106 82308 10040 20030 39790 40285 51006 60006 74441 886// 90000=
07434,1998-12-18 03:00:00,5,1028.3,-0,93,4,500,7.408,,,220,,,,,,,,,,45,wg-a,,,,AAXX 18034 07434 12/05 92204 10050 20040 39790 40283 54000 60006 74542 89/// 90300=
07434,1998-12-18 06:00:00,4,1027.8,-0.6,100,4,600,7.408,,,160,1.8,7.5,,,,,,,,45,wg-a,,,,AAXX 18064 07434 02/06 91604 10040 20040 39784 40278 56006 60006 74542 89/// 90600 333 10075 20018 60004=
07434,1998-12-18 09:00:00,3,1028.1,0.2,100,3,1200,7.408,,,140,,,,,,,,,,10,wg-a,,,,AAXX 18094 07434 12/12 21404 10030 20030 39786 40281 53002 60006 71041 80001 90900=
07434,1998-12-18 12:00:00,9,1026,-1.1,71,4,6000,14.816,,,190,,,,,,,,,,2,wg-a,,,,AAXX 18124 07434 12/56 41908 10090 20040 39775 40260 58011 60006 70241 80001 91200=
07434,1998-12-18 15:00:00,9,1024.6,-1.2,76,5,9000,11.112,,,170,,,,,,,,,,,wg-a,,,,AAXX 18154 07434 12/59 41706 10090 20050 39763 40246 56012 60006 82031 91500=
07434,1998-12-18 18:00:00,8,1024.5,-0.4,76,4,10000,7.408,,,180,2,10.2,,,,,,,,,wg-a,,,,AAXX 18184 07434 12560 /1804 10080 20040 39759 40245 56004 60006 86531 91800 333 10102 20020=
07434,1998-12-18 21:00:00,7,1024,-0.6,87,5,10000,14.816,,,200,,,,,,,,,,60,wg-a,,,,AAXX 18214 07434 02460 72008 10070 20050 39753 40240 56006 61000 76062 875// 92100 333 ////=
07434,1998-12-19 00:00:00,7,1023.3,-0.7,93,6,8000,22.224,,,230,,,,,,,,,,3,wg-a,,,,AAXX 19004 07434 02258 72312 10070 20060 39746 40233 58007 61000 70362 875// 90000 333 6100=
07434,1998-12-19 03:00:00,7,1023.1,-0.1,100,7,600,7.408,,,240,,,,1,,,,,,44,wg-a,,,,AAXX 19034 07434 12106 72404 10070 20070 39745 40231 57001 60017 74442 876// 90300=
07434,1998-12-19 06:00:00,7,1023.6,0.5,100,7,8000,11.112,,,270,6.7,7.8,,,,,1,,,1,wg-a,,,,AAXX 19064 07434 02258 72706 10070 20070 39750 40236 52005 60006 70164 878// 90600 333 10078 20067 60014=
07434,1998-12-19 09:00:00,6,1025.7,1.8,100,6,18000,14.816,,,280,,,,,,,,,,,wg-a,,,,AAXX 19094 07434 12268 72808 10060 20060 39768 40257 51018 60006 876// 90900=
07434,1998-12-19 12:00:00,8,1025.1,-0.3,76,4,25000,14.816,,,280,,,,,,,,,,,wg-a,,,,AAXX 19124 07434 12475 52808 10080 20040 39765 40251 58003 60006 83101 91200=
07434,1998-12-19 15:00:00,8,1023.7,-1.4,66,2,40000,11.112,,,290,,,,,,,,,,,wg-a,,,,AAXX 19154 07434 12682 /2906 10080 20020 39751 40237 56014 60006 81104 91500=
07434,1998-12-19 18:00:00,4,1023.3,-1,81,1,25000,7.408,,,230,3.9,8.5,,,,,,,,,wg-a,,,,AAXX 19184 07434 12/75 62304 10040 20010 39741 40233 58010 60006 81032 91800 333 10085 20039=
07434,1998-12-19 21:00:00,3,1020.9,-2.5,87,1,25000,7.408,,,190,,,,,,,,,,,wg-a,,,,AAXX 19214 07434 12/75 61904 10030 20010 39716 40209 58025 60006 81032 92100=
07434,1998-12-20 00:00:00,3,1016.5,-4.2,87,1,15000,7.408,,,170,,,,,,,,,,,wg-a,,,,AAXX 20004 07434 12465 71704 10030 20010 39674 40165 58042 60006 86532 90000=
07434,1998-12-20 03:00:00,4,1009.5,-6.4,93,3,12000,22.224,,,180,,,,1,,,,,,61,wg-a,,,,AAXX 20034 07434 12362 71812 10040 20030 39610 40095 56064 60017 76162 8653/ 90300=
07434,1998-12-20 06:00:00,5,999.5,-9.4,93,4,12000,25.928,,,170,2.5,5,,,,,,,,61,wg-a,,,,AAXX 20064 07434 02362 71714 10050 20040 39516 49995 56094 61000 76162 8753/ 90600 333 10050 20025 6012=
07434,1998-12-20 09:00:00,6,992.8,-6.2,93,5,10000,25.928,,,180,,,,7,,,,,,60,wg-a,,,,AAXX 20094 07434 12260 71814 10060 20050 39454 49928 56062 60077 76066 877// 90900=
07434,1998-12-20 12:00:00,7,992.5,-0.2,87,5,20000,14.816,,,70,,,,2,,,,,,21,wg-a,,,,AAXX 20124 07434 02270 70708 10070 20050 39452 49925 55002 60086 72162 878// 91200 333 60027=
07434,1998-12-20 15:00:00,2,1000.6,6.9,93,1,15000,38.892,,,20,,,,1,,,,,,21,wg-a,,,,AAXX 20154 07434 12265 70221 10020 20010 39521 40006 53069 60017 72162 878// 91500=
07434,1998-12-20 18:00:00,3,1008.8,8,87,1,10000,25.928,,,20,0.8,7.1,,,,,,,,50,wg-a,,,,AAXX 20184 07434 02360 70214 10030 20010 39601 40088 51080 61000 75076 877// 91800 333 10071 20008 6000=
07434,1998-12-20 21:00:00,3,1013.7,4.6,87,1,20000,25.928,,44.448,20,,,,0,,,,,,20,wg-a,,,,AAXX 20214 07434 12470 80214 10030 20010 39647 40137 52046 60007 72052 875// 92100 333 91024=
07434,1998-12-21 00:00:00,1,1017.7,3.5,86,-1,20000,22.224,,42.596,10,,,,,,,,,,2,wg-a,,,,AAXX 21004 07434 12470 70112 10010 21010 39682 40177 51035 60016 70252 875// 90000 333 91023=
07434,1998-12-21 06:00:00,0,1022.1,1.5,86,-2,20000,14.816,,,10,-0.3,2.8,,,,,10,,,,wg-a,,,,AAXX 21064 07434 02470 70108 10000 21020 39722 40221 53015 60006 875// 90600 333 10028 21003 60104=
07434,1998-12-21 09:00:00,0,1024.9,2.7,86,-2,10000,14.816,,,10,,,,,,,,,,,wg-a,,,,AAXX 21094 07434 12460 /0108 10000 21020 39749 40249 53027 60006 85600 90900=
07434,1998-12-21 12:00:00,2,1026.3,1.6,80,-1,20000,11.112,,,10,,,,,,,,,,,wg-a,,,,AAXX 21124 07434 12470 /0106 10020 21010 39765 40263 51016 60006 86200 91200=
07434,1998-12-21 15:00:00,1,1027.5,1.1,86,-1,20000,14.816,,,340,,,,,,,,,,,wg-a,,,,AAXX 21154 07434 12470 53408 10010 21010 39776 40275 53011 60006 85801 91500=
07434,1998-12-21 18:00:00,-1,1029.3,1.3,93,-2,12000,7.408,,,360,-1.2,2.3,,,,,,,,,wg-a,,,,AAXX 21184 07434 12462 33604 11010 21020 39789 40293 53013 60006 83500 91800 333 10023 21012=
07434,1998-12-21 21:00:00,-2,1030.1,0.6,93,-3,10000,11.112,,,330,,,,,,,,,,,wg-a,,,,AAXX 21214 07434 12/60 03306 11020 21030 39795 40301 51006 60006 80000 92100=
07434,1998-12-22 00:00:00,-2,1030,-0.1,93,-3,1100,7.408,,,50,,,,,,,,,,10,wg-a,,,,AAXX 22004 07434 12111 80504 11020 21030 39794 40300 58001 60006 71011 886// 90000=
07434,1998-12-22 03:00:00,-1,1029.9,0.1,93,-2,8000,3.704,,,40,,,,,,,,,,28,wg-a,,,,AAXX 22034 07434 12358 70402 11010 21020 39795 40299 53001 60006 72842 876// 90300=
07434,1998-12-22 06:00:00,-2,1030,-0.2,93,-3,2000,3.704,,,60,-2.8,-0.9,,,,,,,,10,wg-a,,,,AAXX 22064 07434 02120 20602 11020 21030 39793 40300 55002 60006 71041 82600 90600 333 11009 21028 60004=
07434,1998-12-22 09:00:00,-2,1030.3,0.4,93,-3,6000,7.408,,,60,,,,,,,,,,,wg-a,,,,AAXX 22094 07434 12/56 20604 11020 21030 39797 40303 53004 60006 80001 90900=
07434,1998-12-22 12:00:00,2,1028.6,-0.9,69,-3,12000,14.816,,,70,,,,,,,,,,,wg-a,,,,AAXX 22124 07434 12/62 20708 10020 21030 39788 40286 58009 60006 80001 91200=
07434,1998-12-22 15:00:00,3,1026.9,-1.5,60,-4,10000,14.816,,,80,,,,,,,,,,,wg-a,,,,AAXX 22154 07434 12/60 /0808 10030 21040 39773 40269 56015 60006 91500=
07434,1998-12-22 18:00:00,0,1026.5,-0.8,74,-4,20000,14.816,,,60,-2.9,3.6,,,,,,,,,wg-a,,,,AAXX 22184 07434 12/70 40608 10000 21040 39765 40265 56008 60006 80001 91800 333 10036 21029=
07434,1998-12-22 21:00:00,1,1025.2,-1.2,55,-7,15000,11.112,,,90,,,,,,,,,,,wg-a,,,,AAXX 22214 07434 12/65 40906 10010 21070 39753 40252 56012 60006 80001 92100=
07434,1998-12-23 00:00:00,1,1024.5,-0.7,47,-9,15000,7.408,,,60,,,,,,,,,,,wg-a,,,,AAXX 23004 07434 12/65 30604 10010 21090 39746 40245 56007 60006 80001 90000=
07434,1998-12-23 03:00:00,-1,1023.7,-1.1,64,-7,10000,7.408,,,70,,,,,,,,,,,wg-a,,,,AAXX 23034 07434 12/60 30704 11010 21070 39735 40237 56011 60006 80001 90300=
07434,1998-12-23 06:00:00,-1,1022.9,-0.8,64,-7,10000,7.408,,,60,-1.7,1.3,,,,,,,,,wg-a,,,,AAXX 23064 07434 02/60 30604 11010 21070 39727 40229 56008 60006 80001 90600 333 10013 21017 60004=
07434,1998-12-23 09:00:00,1,1023.2,0.7,51,-8,10000,3.704,,,120,,,,,,,,,,,wg-a,,,,AAXX 23094 07434 12/60 31202 10010 21080 39734 40232 53007 60006 80001 90900=
07434,1998-12-23 12:00:00,4,1021.7,-0.9,48,-6,20000,11.112,,,190,,,,,,,,,,,wg-a,,,,AAXX 23124 07434 12/70 51906 10040 21060 39725 40217 58009 60006 80001 91200=
07434,1998-12-23 15:00:00,5,1020.5,-0.8,70,0,20000,18.52,,,200,,,,,,,,,,,wg-a,,,,AAXX 23154 07434 12/70 52010 10050 20000 39717 40205 56008 60006 80001 91500=
07434,1998-12-23 18:00:00,3,1022,0.9,75,-1,20000,11.112,,,160,-1.5,6,,,,,,,,,wg-a,,,,AAXX 23184 07434 12/70 61606 10030 21010 39726 40220 51009 60006 80002 91800 333 10060 21015=
07434,1998-12-23 21:00:00,3,1022.5,0.5,81,0,18000,14.816,,,180,,,,,,,,,,0,wg-a,,,,AAXX 23214 07434 32468 71808 10030 20000 39731 40225 51005 700// 81532 92100=
07434,1998-12-24 00:00:00,2,1022.8,0.2,87,0,15000,14.816,,,190,,,,,,,,,,0,wg-a,,,,AAXX 24004 07434 32465 71908 10020 20000 39733 40228 51002 700// 85572 90000=
07434,1998-12-24 03:00:00,3,1022.4,-0.3,81,0,10000,14.816,,,170,,,,,,,,,,60,wg-a,,,,AAXX 24034 07434 02460 81708 10030 20000 39730 40224 56003 61000 76062 875// 90300 333 ////=
07434,1998-12-24 06:00:00,2,1023.8,1.2,93,1,1300,7.408,,,230,1.8,3.3,,3,,,3,,,50,wg-a,,,,AAXX 24064 07434 02113 82304 10020 20010 39742 40238 53012 60034 75065 887// 90600 333 10033 20018 60037=
07434,1998-12-24 12:00:00,3,1027.9,1.7,100,3,6000,14.816,,,330,,,,,,,,,,1,wg-a,,,,AAXX 24124 07434 32256 73308 10030 20030 39783 40279 51017 70154 871// 91200=
07434,1998-12-24 15:00:00,4,1028.8,1,87,2,12000,3.704,,,320,,,,,,,,,,0,wg-a,,,,AAXX 24154 07434 32462 53202 10040 20020 39793 40288 53010 700// 84130 91500=
07434,1998-12-24 18:00:00,2,1030.5,1.2,93,1,10000,7.408,,,270,1.6,4.7,,,,,,,,0,wg-a,,,,AAXX 24184 07434 32/60 32704 10020 20010 39805 40305 51012 700// 81031 91800 333 10047 20016=
07434,1998-12-24 21:00:00,1,1031.6,1,100,1,900,0,,,0,,,,,,,,,,44,wg-a,,,,AAXX 24214 07434 32209 70000 10010 20010 39815 40316 51010 74441 876// 92100=
07434,1998-12-25 00:00:00,0,1032,0.2,100,0,900,3.704,,,110,,,,,,,,,,44,wg-a,,,,AAXX 25004 07434 32209 71102 10000 20000 39817 40320 50002 74441 876// 90000=
07434,1998-12-25 03:00:00,1,1032,-0,93,0,800,7.408,,,110,,,,,,,,,,44,wg-a,,,,AAXX 25034 07434 32108 71104 10010 20000 39817 40320 55000 74444 876// 90300=
07434,1998-12-25 06:00:00,0,1032.3,0.3,100,0,1500,7.408,,,130,-0.1,2.1,,,,,,,,10,wg-a,,,,AAXX 25064 07434 12215 71304 10000 20000 39820 40323 53003 60004 71042 876// 90600 333 10021 21001=
07434,1998-12-25 09:00:00,1,1033.2,1,100,1,600,7.408,,,130,,,,,,,,,,45,wg-a,,,,AAXX 25094 07434 32/06 91304 10010 20010 39830 40332 53010 74554 89/// 90900=
07434,1998-12-25 12:00:00,3,1031.8,-0.9,100,3,7000,11.112,,,150,,,,0,,,,,,10,wg-a,,,,AAXX 25124 07434 12157 71506 10030 20030 39821 40318 58009 60007 71054 878// 91200=
07434,1998-12-25 15:00:00,5,1030.4,-1,87,3,20000,11.112,,,170,,,,,,,,,,0,wg-a,,,,AAXX 25154 07434 32470 71706 10050 20030 39811 40304 56010 700// 878// 91500=
07434,1998-12-25 18:00:00,5,1030.3,-0.2,87,3,15000,11.112,,,190,0.3,5.3,,,,,,,,0,wg-a,,,,AAXX 25184 07434 32365 71906 10050 20030 39809 40303 58002 700// 878// 91800 333 10053 20003=
07434,1998-12-25 21:00:00,3,1029.6,-1,87,1,12000,14.816,,,190,,,,,,,,,,0,wg-a,,,,AAXX 25214 07434 32562 71908 10030 20010 39799 40296 58010 700// 8357/ 92100=
07434,1998-12-26 00:00:00,2,1030.5,0.7,87,0,12000,7.408,,,190,,,,,,,,,,,wg-a,,,,AAXX 26004 07434 12/62 71904 10020 20000 39806 40305 52007 60006 87032 90000=
07434,1998-12-26 03:00:00,2,1030,-0.6,87,0,12000,7.408,,,170,,,,,,,,,,,wg-a,,,,AAXX 26034 07434 12662 71704 10020 20000 39800 40300 55006 60006 875// 90300=
07434,1998-12-26 06:00:00,2,1029.4,-0.4,87,0,12000,11.112,,,160,0.6,4.6,,,,,,,,,wg-a,,,,AAXX 26064 07434 02562 71606 10020 20000 39796 40294 58004 60006 875// 90600 333 10046 20006 60004=
07434,1998-12-26 09:00:00,3,1028.5,-0.7,87,1,500,14.816,,,150,,,,,,,,,,,wg-a,,,,AAXX 26094 07434 12400 71508 10030 20010 39789 40285 58007 60006 875// 90900=
07434,1998-12-26 12:00:00,6,1026.1,-1.8,70,1,500,18.52,,,170,,,,,,,,,,,wg-a,,,,AAXX 26124 07434 12/00 61710 10060 20010 39771 40261 58018 60006 84032 91200=
07434,1998-12-26 15:00:00,6,1023.4,-2.5,56,-2,50000,14.816,,,170,,,,,,,,,,,wg-a,,,,AAXX 26154 07434 12/84 71708 10060 21020 39746 40234 56025 60006 84032 91500=
07434,1998-12-26 18:00:00,6,1023,-0.6,61,-1,500,18.52,,,180,2.3,7.1,,,,,,,,,wg-a,,,,AAXX 26184 07434 12/00 71810 10060 21010 39740 40230 58006 60006 86032 91800 333 10071 20023=
07434,1998-12-26 21:00:00,6,1022.3,-0.5,65,0,500,14.816,,,170,,,,,,,,,,,wg-a,,,,AAXX 26214 07434 12/00 71708 10060 20000 39735 40223 58005 60006 8707/ 92100=
07434,1998-12-27 00:00:00,7,1020.4,-1.7,61,0,20000,14.816,,,190,,,,,,,,,,,wg-a,,,,AAXX 27004 07434 12/70 81908 10070 20000 39718 40204 58017 60006 8807/ 90000=
07434,1998-12-27 03:00:00,7,1018.8,-1.5,61,0,15000,18.52,,,180,,,,,,,,,,,wg-a,,,,AAXX 27034 07434 12/65 81810 10070 20000 39703 40188 56015 60006 8807/ 90300=
07434,1998-12-27 06:00:00,8,1016.6,-2,53,-1,20000,18.52,,,190,5.3,7.7,,,,,,,,,wg-a,,,,AAXX 27064 07434 02/70 81910 10080 21010 39683 40166 56020 60006 86072 90600 333 10077 20053 60004=
07434,1998-12-27 09:00:00,8,1016.1,-0.4,53,-1,500,25.928,,,190,,,,,,,,,,60,wg-a,,,,AAXX 27094 07434 02/00 71914 10080 21010 39679 40161 55004 61000 76062 86072 90900 333 ////=
07434,1998-12-27 12:00:00,11,1014.3,-1.2,47,0,40000,25.928,,,190,,,,,,,,,,1,wg-a,,,,AAXX 27124 07434 02/82 71914 10110 20000 39667 40143 58012 61000 70162 85072 91200 333 6100=
07434,1998-12-27 18:00:00,8,1013.1,-0.1,61,1,500,7.408,,,210,6.8,11.7,,,,,,,,,wg-a,,,,AAXX 27184 07434 12/00 62104 10080 20010 39650 40131 55001 60006 82032 91800 333 10117 20068=
07434,1998-12-27 21:00:00,7,1013.6,0.4,76,3,500,22.224,,,210,,,,,,,,,,,wg-a,,,,AAXX 27214 07434 12/00 02112 10070 20030 39654 40136 53004 60006 80000 92100=
07434,1998-12-28 00:00:00,6,1013.8,0,81,3,500,14.816,,,180,,,,,,,,,,,wg-a,,,,AAXX 28004 07434 12/00 01808 10060 20030 39654 40138 50000 60006 80000 90000=
07434,1998-12-28 03:00:00,5,1013.5,-0.4,87,3,20000,18.52,,,180,,,,,,,,,,,wg-a,,,,AAXX 28034 07434 12/70 01810 10050 20030 39650 40135 57004 60006 80000 90300=
07434,1998-12-28 06:00:00,5,1014,0.4,87,3,20000,18.52,,,190,5,8.2,,,,,,,,,wg-a,,,,AAXX 28064 07434 02670 /1910 10050 20030 39654 40140 53004 60006 81500 90600 333 10082 20050 61000=
07434,1998-12-28 09:00:00,6,1014.9,1,87,4,20000,11.112,,,210,,,,,,,,,,,wg-a,,,,AAXX 28094 07434 12/70 62106 10060 20040 39664 40149 53010 60006 82032 90900=
07434,1998-12-28 12:00:00,8,1015,0.6,81,5,20000,22.224,,,210,,,,,,,,,,,wg-a,,,,AAXX 28124 07434 12670 72112 10080 20050 39670 40150 50006 60006 875// 91200=
07434,1998-12-28 18:00:00,4,1018.6,1.3,100,4,800,3.704,,,120,4.3,9.1,,0,,,,,,10,wg-a,,,,AAXX 28184 07434 02008 /1202 10040 20040 39697 40186 51013 60006 71065 86500 91800 333 10091 20043 60007=
07434,1998-12-28 21:00:00,4,1018.6,-0.1,93,3,800,7.408,,,140,,,,,,,,,,10,wg-a,,,,AAXX 28214 07434 12108 /1404 10040 20030 39696 40186 58001 60006 71042 86700 92100=
07434,1998-12-29 00:00:00,3,1017.8,-0.9,100,3,1500,7.408,,,100,,,,,,,,,,10,wg-a,,,,AAXX 29004 07434 12115 /1004 10030 20030 39687 40178 58009 60006 71041 84502 90000=
07434,1998-12-29 03:00:00,3,1014.3,-3.3,100,3,6000,11.112,,,80,,,,,,,,,,,wg-a,,,,AAXX 29034 07434 12756 30806 10030 20030 39654 40143 58033 60006 83500 90300=
07434,1998-12-29 06:00:00,4,1012.4,-1.7,93,3,8000,14.816,,,120,2.8,4.4,,,,,1,,,,wg-a,,,,AAXX 29064 07434 02658 31208 10040 20030 39637 40124 56017 60006 83500 90600 333 10044 20028 60014=
07434,1998-12-29 09:00:00,7,1010.9,-0.9,87,5,10000,14.816,,,120,,,,,,,,,,,wg-a,,,,AAXX 29094 07434 12/60 21208 10070 20050 39628 40109 58009 60006 80002 90900=
07434,1998-12-29 12:00:00,12,1008.3,-1.6,62,5,500,29.632,,,170,,,,,,,,,,,wg-a,,,,AAXX 29124 07434 12/00 31716 10120 20050 39612 40083 58016 60006 80002 91200=
07434,1998-12-29 15:00:00,12,1006.8,-1.5,58,4,40000,29.632,,,170,,,,,,,,,,,wg-a,,,,AAXX 29154 07434 12682 41716 10120 20040 39597 40068 56015 60006 82102 91500=
07434,1998-12-29 18:00:00,9,1007.4,0.2,71,4,500,22.224,,,170,4,12.4,,,,,,,,,wg-a,,,,AAXX 29184 07434 12700 61712 10090 20040 39599 40074 51002 60006 845/2 91800 333 10124 20040=
07434,1998-12-29 21:00:00,9,1007.5,-0,71,4,25000,31.484,,,170,,,,,,,,,,0,wg-a,,,,AAXX 29214 07434 32/75 41717 10090 20040 39599 40075 55000 700// 80002 92100=
07434,1998-12-30 00:00:00,9,1008.4,0.8,66,3,25000,29.632,,,170,,,,,,,,,,0,wg-a,,,,AAXX 30004 07434 32/75 51716 10090 20030 39607 40084 51008 700// 83032 90000=
07434,1998-12-30 03:00:00,9,1008.6,0.3,71,4,20000,25.928,,,160,,,,,,,,,,0,wg-a,,,,AAXX 30034 07434 32/70 71614 10090 20040 39610 40086 53003 700// 8707/ 90300=
07434,1998-12-30 06:00:00,9,1008.9,0.3,71,4,20000,25.928,,,140,8.4,9.4,,,,,,,,0,wg-a,,,,AAXX 30064 07434 12770 71414 10090 20040 39613 40089 52003 60004 700// 875// 90600 333 10094 20084=
07434,1998-12-30 09:00:00,10,1009.9,1,66,4,40000,22.224,,,160,,,,,,,,,,0,wg-a,,,,AAXX 30094 07434 32782 71612 10100 20040 39623 40099 52010 700// 8453/ 90900=
07434,1998-12-30 12:00:00,11,1009.7,-0,66,5,40000,22.224,,,180,,,,,,,,,,0,wg-a,,,,AAXX 30124 07434 32582 81812 10110 20050 39623 40097 54000 700// 8552/ 91200=
07434,1998-12-30 15:00:00,10,1008.7,-1,71,5,20000,22.224,,,160,,,,,,,,,,1,wg-a,,,,AAXX 30154 07434 02570 81612 10100 20050 39613 40087 56010 61000 70162 8552/ 91500 333 ////=
07434,1998-12-30 18:00:00,10,1008.9,0.1,71,5,20000,22.224,,,170,9.2,10.6,,,,,,,,60,wg-a,,,,AAXX 30184 07434 02570 81712 10100 20050 39614 40089 50001 61000 76062 8652/ 91800 333 10106 20092 ////=
07434,1998-12-30 21:00:00,9,1008.8,-0.3,76,5,20000,22.224,,,170,,,,,,,,,,21,wg-a,,,,AAXX 30214 07434 02570 81712 10090 20050 39611 40088 58003 61000 72162 8652/ 92100 333 ////=
07434,1998-12-31 00:00:00,8,1008.8,-0.2,87,6,20000,25.928,,,180,,,,,,,,,,21,wg-a,,,,AAXX 31004 07434 02570 81814 10080 20060 39609 40088 57002 61000 72162 8652/ 90000 333 ////=
07434,1998-12-31 03:00:00,7,1007.1,-1.7,93,6,10000,22.224,,,180,,,,3,,,,,,60,wg-a,,,,AAXX 31034 07434 12360 81812 10070 20060 39592 40071 56017 60037 76062 875// 90300=
07434,1998-12-31 06:00:00,7,1005.2,-1.8,87,5,10000,22.224,,,160,7,9.7,,0,,,3,,,60,wg-a,,,,AAXX 31064 07434 02460 81612 10070 20050 39574 40052 56018 60034 76062 875// 90600 333 10097 20070 60007=
07434,1998-12-31 12:00:00,10,1002.4,-1.3,71,5,40000,29.632,,,160,,,,,,,,,,1,wg-a,,,,AAXX 31124 07434 32582 51616 10100 20050 39553 40024 58013 70162 84801 91200=
07434,1998-12-31 18:00:00,8,1001.6,0.3,76,4,500,18.52,,,160,6.8,11.2,,,,,,,,0,wg-a,,,,AAXX 31184 07434 32500 31610 10080 20040 39542 40016 53003 700// 83901 91800 333 10112 20068=
07434,1998-12-31 21:00:00,7,1002.4,0.6,81,4,500,18.52,,,150,,,,,,,,,,0,wg-a,,,,AAXX 31214 07434 32500 /1510 10070 20040 39548 40024 51006 700// 81100 92100=
