station_id,dh_utc,temperature,pression,pression_variation_3h,humidite,point_de_rosee,visibilite,vent_moyen,vent_rafales,vent_rafales_10min,vent_direction,temperature_min,temperature_max,pluie_1h,pluie_3h,pluie_6h,pluie_12h,pluie_24h,ensoleillement,temperature_sol,temps_omm,source,radiations,neige_au_sol,nebulosite,raw_msg
07460,1996-01-01 00:00:00,9,1002.3,1.2,71,4,14000,3.704,,,60,,,,,,,,,,,wg-a,,,,AAXX 01004 07460 12564 40602 10090 20040 39635 40023 51012 60006 83831 90000=
07460,1996-01-01 03:00:00,5,1002.5,-0.4,87,3,14000,14.816,,,100,,,,,,,,,,,wg-a,,,,AAXX 01034 07460 12564 21008 10050 20030 39631 40025 58004 60006 82800 90300=
07460,1996-01-01 06:00:00,6,1001.8,-0.5,81,3,20000,22.224,,,190,3.3,10.3,,,,,1,,,,wg-a,,,,AAXX 01064 07460 02570 51912 10060 20030 39626 40018 55005 60006 82831 90600 333 10103 20033 60014=
07460,1996-01-01 09:00:00,6,999.8,-1.9,87,4,500,7.408,,,140,,,,,,,,,,,wg-a,,,,AAXX 01094 07460 12/00 51404 10060 20040 39607 49998 56019 60006 81031 90900=
07460,1996-01-01 12:00:00,9,997.6,-1.9,76,5,500,3.704,,,80,,,,,,,,,,,wg-a,,,,AAXX 01124 07460 12/00 70802 10090 20050 39589 49976 58019 60006 86052 91200=
07460,1996-01-01 15:00:00,9,997.4,-0.2,81,6,15000,14.816,,,210,,,,0,,,,,,60,wg-a,,,,AAXX 01154 07460 12665 72108 10090 20060 39587 49974 55002 60007 76062 8557/ 91500=
07460,1996-01-01 18:00:00,8,998.1,0.6,87,6,12000,14.816,,,190,3.5,9.1,,6,,,,,,63,wg-a,,,,AAXX 01184 07460 12562 71908 10080 20060 39592 49981 53006 60067 76362 8557/ 91800 333 10091 20035=
07460,1996-01-01 21:00:00,8,998.2,0,93,7,14000,11.112,,,130,,,,2,,,,,,21,wg-a,,,,AAXX 01214 07460 12464 71306 10080 20070 39594 49982 50000 60027 72162 8587/ 92100=
07460,1996-01-02 00:00:00,9,998.8,0.7,87,7,15000,7.408,,,180,,,,0,,,,,,1,wg-a,,,,AAXX 02004 07460 02665 71804 10090 20070 39601 49988 51007 60036 70162 8553/ 90000 333 60007=
07460,1996-01-02 03:00:00,11,999.9,1.3,76,7,15000,14.816,,,210,,,,,,,,,,,wg-a,,,,AAXX 02034 07460 12565 72108 10110 20070 39614 49999 53013 60006 8583/ 90300=
07460,1996-01-02 06:00:00,10,1000.2,0.2,76,6,14000,14.816,,,220,7.2,11.8,,,,,9,,,60,wg-a,,,,AAXX 02064 07460 02564 72208 10100 20060 39616 40002 53002 60094 76062 84831 90600 333 10118 20072 61000=
07460,1996-01-02 09:00:00,9,1003.5,3.1,76,5,13000,22.224,,,260,,,,,,,,,,16,wg-a,,,,AAXX 02094 07460 02563 82612 10090 20050 39647 40035 53031 61000 71662 8687/ 90900 333 ////=
07460,1996-01-02 12:00:00,7,1008.1,4.1,81,4,13000,29.632,,,290,,,,0,,,,,,60,wg-a,,,,AAXX 02124 07460 02563 82916 10070 20040 39688 40081 51041 60006 76062 8687/ 91200 333 60007=
07460,1996-01-02 15:00:00,8,1013.2,5,81,5,13000,18.52,,,320,,,,1,,,,,,21,wg-a,,,,AAXX 02154 07460 12563 83210 10080 20050 39738 40132 53050 60017 72162 8487/ 91500=
07460,1996-01-02 18:00:00,7,1016.7,3.3,87,5,13000,14.816,,,10,7,10.7,,0,,,,,,60,wg-a,,,,AAXX 02184 07460 12363 80108 10070 20050 39771 40167 51033 60007 76062 875// 91800 333 10107 20070=
07460,1996-01-02 21:00:00,6,1019.1,2.1,93,5,12000,3.704,,,20,,,,,,,,,,1,wg-a,,,,AAXX 02214 07460 02462 80202 10060 20050 39792 40191 51021 61000 70162 875// 92100 333 ////=
07460,1996-01-03 00:00:00,6,1020.2,1,93,5,12000,3.704,,,100,,,,,,,,,,1,wg-a,,,,AAXX 03004 07460 02562 81002 10060 20050 39802 40202 53010 61000 70162 875// 90000 333 ////=
07460,1996-01-03 03:00:00,6,1020.6,0.4,93,5,12000,3.704,,,90,,,,,,,,,,,wg-a,,,,AAXX 03034 07460 12562 80902 10060 20050 39806 40206 50004 60006 875// 90300=
07460,1996-01-03 06:00:00,5,1020.7,0.1,100,5,7000,7.408,,,50,5.1,7.4,,,,,2,,,50,wg-a,,,,AAXX 03064 07460 02157 80504 10050 20050 39806 40207 53001 60024 75052 877// 90600 333 10074 20051 61000=
07460,1996-01-03 09:00:00,5,1021.6,0.9,93,4,6000,3.704,,,360,,,,,,,,,,1,wg-a,,,,AAXX 03094 07460 02256 73602 10050 20040 39815 40216 53009 61000 70152 878// 90900 333 ////=
07460,1996-01-03 12:00:00,7,1021.3,-0.1,76,3,12000,0,,,0,,,,,,,,,,1,wg-a,,,,AAXX 03124 07460 02462 70000 10070 20030 39814 40213 58001 61000 70152 875// 91200 333 ////=
07460,1996-01-03 15:00:00,7,1021,-0.3,76,3,12000,7.408,,,10,,,,,,,,,,,wg-a,,,,AAXX 03154 07460 12462 70104 10070 20030 39811 40210 55003 60006 875// 91500=
07460,1996-01-03 18:00:00,4,1021.9,0.5,87,2,15000,3.704,,,120,4,7.7,,,,,,,,,wg-a,,,,AAXX 03184 07460 32565 21202 10040 20020 39816 40219 53005 82500 91800 333 10077 20040=
07460,1996-01-03 21:00:00,0,1022.3,-0.2,100,0,15000,0,,,0,,,,,,,,,,,wg-a,,,,AAXX 03214 07460 12/65 60000 10000 20000 39814 40223 58002 60006 80002 92100=
07460,1996-01-04 00:00:00,1,1021.6,-0.6,100,1,100,3.704,,,60,,,,,,,,,,45,wg-a,,,,AAXX 04004 07460 12/01 90602 10010 20010 39808 40216 58006 60006 74541 89/// 90000=
07460,1996-01-04 03:00:00,1,1019.6,-1.9,100,1,4000,3.704,,,40,,,,,,,,,,1,wg-a,,,,AAXX 04034 07460 12140 /0402 10010 20010 39789 40196 58019 60006 70141 84701 90300=
07460,1996-01-04 06:00:00,0,1017,-2.6,93,-1,15000,14.816,,,180,-1.7,4.1,,,,,,,,1,wg-a,,,,AAXX 04064 07460 02365 71808 10000 21010 39763 40170 56026 60006 70141 81732 90600 333 10041 21017 61000=
07460,1996-01-04 09:00:00,0,1015.9,-1.1,93,-1,9000,11.112,,,360,,,,,,,,,,,wg-a,,,,AAXX 04094 07460 12/59 73606 10000 21010 39752 40159 56011 60006 83032 90900=
07460,1996-01-04 12:00:00,3,1013.2,-2.2,87,1,500,0,,,0,,,,,,,,,,,wg-a,,,,AAXX 04124 07460 12/00 70000 10030 20010 39730 40132 58022 60006 82032 91200=
07460,1996-01-04 15:00:00,5,1010.9,-1.8,87,3,9000,3.704,,,10,,,,,,,,,,,wg-a,,,,AAXX 04154 07460 12/59 70102 10050 20030 39712 40109 56018 60006 84052 91500=
07460,1996-01-04 18:00:00,3,1010.5,-0.8,93,2,8000,3.704,,,80,-0.2,5.2,,,,,,,,,wg-a,,,,AAXX 04184 07460 12658 70802 10030 20020 39704 40105 58008 60006 82552 91800 333 10052 21002=
07460,1996-01-04 21:00:00,5,1009.8,-0.3,87,3,12000,11.112,,,190,,,,,,,,,,60,wg-a,,,,AAXX 04214 07460 02662 81906 10050 20030 39701 40098 55003 61000 76062 8457/ 92100 333 ////=
07460,1996-01-05 00:00:00,8,1007.2,-2.1,61,1,12000,7.408,,,20,,,,,,,,,,2,wg-a,,,,AAXX 05004 07460 02662 80204 10080 20010 39680 40072 58021 61000 70262 8357/ 90000 333 6100=
07460,1996-01-05 03:00:00,7,1005.5,-1.7,66,1,15000,11.112,,,150,,,,,,,,,,,wg-a,,,,AAXX 05034 07460 12665 81506 10070 20010 39663 40055 56017 60006 8357/ 90300=
07460,1996-01-05 06:00:00,6,1003.1,-2.5,65,0,20000,7.408,,,30,2.6,8.2,,,,,,,,,wg-a,,,,AAXX 05064 07460 02670 30304 10060 20000 39638 40031 56025 61000 81531 90600 333 10082 20026 ////=
07460,1996-01-05 09:00:00,7,1001.5,-1.4,76,3,500,7.408,,,50,,,,,,,,,,,wg-a,,,,AAXX 05094 07460 12600 70504 10070 20030 39624 40015 57014 60006 85531 90900=
07460,1996-01-05 12:00:00,10,999.2,-1.7,71,5,25000,7.408,,,200,,,,,,,,,,,wg-a,,,,AAXX 05124 07460 12675 82004 10100 20050 39607 49992 56017 60006 81572 91200=
07460,1996-01-05 15:00:00,8,999.1,-0.4,93,7,15000,3.704,,,330,,,,,,,,,,60,wg-a,,,,AAXX 05154 07460 02665 83302 10080 20070 39603 49991 55004 61000 76062 8357/ 91500 333 ////=
07460,1996-01-05 18:00:00,7,999.6,0.3,100,7,15000,3.704,,,340,5.6,10.7,,2,,,,,,61,wg-a,,,,AAXX 05184 07460 12565 83402 10070 20070 39606 49996 53003 60027 76162 8557/ 91800 333 10107 20056=
07460,1996-01-05 21:00:00,7,1001,1.3,87,5,15000,11.112,,,310,,,,2,,,,,,61,wg-a,,,,AAXX 05214 07460 12465 83106 10070 20050 39619 40010 53013 60027 76162 8557/ 92100=
07460,1996-01-06 00:00:00,6,1002,0.8,87,4,14000,3.704,,,170,,,,3,,,,,,61,wg-a,,,,AAXX 06004 07460 02464 81702 10060 20040 39627 40020 50008 60046 76162 8557/ 90000 333 60037=
07460,1996-01-06 03:00:00,5,1001.6,-0.5,93,4,15000,7.408,,,210,,,,0,,,,,,1,wg-a,,,,AAXX 06034 07460 12565 72104 10050 20040 39622 40016 56005 60007 70162 83571 90300=
07460,1996-01-06 06:00:00,3,1001.1,-0.8,93,2,15000,3.704,,,250,2.6,7.5,,,,,6,,,3,wg-a,,,,AAXX 06064 07460 12665 32502 10030 20020 39614 40011 55008 60064 70361 81531 90600 333 10075 20026=
07460,1996-01-06 09:00:00,4,1000.2,-0.6,93,3,25000,14.816,,,170,,,,,,,,,,,wg-a,,,,AAXX 06094 07460 12575 41708 10040 20030 39608 40002 57006 60006 81532 90900=
07460,1996-01-06 12:00:00,10,995.9,-3.3,71,5,500,22.224,,38.892,160,,,,,,,,,,,wg-a,,,,AAXX 06124 07460 12600 /1612 10100 20050 39575 49959 58033 60006 81132 91200 333 91021=
07460,1996-01-06 15:00:00,11,993.5,-2.3,58,3,35000,29.632,,,180,,,,,,,,,,,wg-a,,,,AAXX 06154 07460 12681 71816 10110 20030 39552 49935 56023 60006 81552 91500=
07460,1996-01-06 18:00:00,10,992.9,-0.7,66,4,15000,46.3,,57.412,170,2.3,11.3,,0,,,,,,3,wg-a,,,,AAXX 06184 07460 12665 71725 10100 20040 39545 49929 56007 60007 70362 8553/ 91800 333 10113 20023 91031=
07460,1996-01-06 21:00:00,10,991.8,-1,66,4,20000,53.708,,74.08,170,,,,,,,,,,1,wg-a,,,,AAXX 06214 07460 02770 71729 10100 20040 39535 49918 58010 61000 70162 8157/ 92100 333 //// 91040=
07460,1996-01-07 00:00:00,10,992.9,1.1,71,5,20000,38.892,,57.412,170,,,,,,,,,,1,wg-a,,,,AAXX 07004 07460 02670 /1721 10100 20050 39546 49929 50011 61000 70161 81500 90000 333 //// 91031=
07460,1996-01-07 03:00:00,10,995.5,2.5,76,6,12000,25.928,,,170,,,,,,,,,,25,wg-a,,,,AAXX 07034 07460 02662 71714 10100 20060 39571 49955 53025 61000 72586 878// 90300 333 ////=
07460,1996-01-07 06:00:00,8,998.3,2.3,76,4,12000,7.408,,,220,7.6,10.7,,1,,,1,,,21,wg-a,,,,AAXX 07064 07460 02562 72204 10080 20040 39594 49983 51023 60014 72186 8587/ 90600 333 10107 20076 60017=
07460,1996-01-07 09:00:00,9,999.8,1.7,76,5,25000,25.928,,,170,,,,,,,,,,,wg-a,,,,AAXX 07094 07460 12675 71714 10090 20050 39611 49998 53017 60006 8357/ 90900=
07460,1996-01-07 10:00:00,9,1006.6,2.4,71,4,15000,3.704,,,200,7.5,13.8,,,,,,,,,wg-a,,,,AAXX 07104 07460 12665 72002 10090 20040 40066 51024 60006 8357/ 91000 333 10138 20075=
07460,1996-01-07 12:00:00,12,1001.4,1.9,58,4,40000,14.816,,,270,,,,,,,,,,,wg-a,,,,AAXX 07124 07460 12682 /2708 10120 20040 39630 40014 51019 60006 82230 91200=
07460,1996-01-07 15:00:00,11,1003.7,2.1,66,5,25000,7.408,,,120,,,,,,,,,,,wg-a,,,,AAXX 07154 07460 12675 71204 10110 20050 39651 40037 53021 60006 8327/ 91500=
07460,1996-01-07 18:00:00,9,1006.6,2.4,71,4,15000,3.704,,,200,7.5,13.8,,,,,,,,,wg-a,,,,AAXX 07184 07460 12665 72002 10090 20040 39675 40066 51024 60006 8357/ 91800 333 10138 20075=
07460,1996-01-07 21:00:00,8,1009.7,2.9,81,5,15000,7.408,,,160,,,,1,,,,,,1,wg-a,,,,AAXX 07214 07460 12565 /1604 10080 20050 39704 40097 51029 60017 70186 85870 92100=
07460,1996-01-08 00:00:00,7,1011.9,2,81,4,11000,3.704,,,170,,,,,,,,,,,wg-a,,,,AAXX 08004 07460 12/61 /1702 10070 20040 39724 40119 51020 60016 90000=
07460,1996-01-08 03:00:00,6,1012.9,0.9,81,3,15000,11.112,,,110,,,,,,,,,,,wg-a,,,,AAXX 08034 07460 12565 31106 10060 20030 39733 40129 51009 60006 82531 90300=
07460,1996-01-08 06:00:00,2,1014.2,0.6,93,1,15000,7.408,,,230,2.4,9.2,,,,,1,,,,wg-a,,,,AAXX 08064 07460 12565 22304 10020 20010 39739 40142 51006 60014 81501 90600 333 10092 20024=
07460,1996-01-08 09:00:00,5,1014.4,0.6,81,2,25000,14.816,,,190,,,,,,,,,,,wg-a,,,,AAXX 08094 07460 12/75 11908 10050 20020 39745 40144 51006 60006 80001 90900=
07460,1996-01-08 12:00:00,11,1011.3,-2.1,66,5,40000,11.112,,,220,,,,,,,,,,,wg-a,,,,AAXX 08124 07460 12/82 22206 10110 20050 39724 40113 58021 60006 80001 91200=
07460,1996-01-08 15:00:00,12,1008.2,-3,50,2,35000,7.408,,,130,,,,,,,,,,,wg-a,,,,AAXX 08154 07460 12/81 71304 10120 20020 39694 40082 57030 60006 82032 91500=
07460,1996-01-08 18:00:00,9,1007.2,-1.3,61,2,20000,3.704,,,220,1.8,12.3,,,,,,,,,wg-a,,,,AAXX 08184 07460 12/70 82202 10090 20020 39681 40072 58013 60006 85032 91800 333 10123 20018=
07460,1996-01-08 21:00:00,9,1005.8,-1.3,57,1,20000,35.188,,,160,,,,,,,,,,,wg-a,,,,AAXX 08214 07460 12/70 61619 10090 20010 39668 40058 58013 60006 83032 92100=
07460,1996-01-09 00:00:00,9,1004.6,-1.1,53,0,15000,29.632,,,190,,,,,,,,,,,wg-a,,,,AAXX 09004 07460 12565 61916 10090 20000 39657 40046 56011 60006 86530 90000=
07460,1996-01-09 03:00:00,10,1003.1,-1.4,62,3,20000,11.112,,,20,,,,,,,,,,,wg-a,,,,AAXX 09034 07460 12/70 70206 10100 20030 39643 40031 58014 60006 87032 90300=
07460,1996-01-09 06:00:00,12,1002.7,-0.2,62,5,20000,42.596,,,180,4.9,11.6,,,,,,,,,wg-a,,,,AAXX 09064 07460 02770 71823 10120 20050 39642 40027 58002 60006 82532 90600 333 10116 20049 60004=
07460,1996-01-09 09:00:00,12,1002.4,-0.2,67,6,500,22.224,,,190,,,,,,,,,,,wg-a,,,,AAXX 09094 07460 12600 71912 10120 20060 39639 40024 58002 60006 8183/ 90900=
07460,1996-01-09 12:00:00,13,1003.2,1,67,7,40000,38.892,,,180,,,,,,,,,,,wg-a,,,,AAXX 09124 07460 12682 71821 10130 20070 39649 40032 50010 60006 8483/ 91200=
07460,1996-01-09 15:00:00,13,1004.5,1.2,58,5,500,31.484,,,170,,,,,,,,,,,wg-a,,,,AAXX 09154 07460 12600 71717 10130 20050 39661 40045 53012 60006 8383/ 91500=
07460,1996-01-09 18:00:00,11,1006.8,1.9,71,6,12000,11.112,,,190,10.5,14.5,,0,,,,,,60,wg-a,,,,AAXX 09184 07460 12662 71906 10110 20060 39680 40068 52019 60007 76062 8383/ 91800 333 10145 20105=
07460,1996-01-09 21:00:00,9,1007.1,0,87,7,12000,3.704,,,300,,,,2,,,,,,61,wg-a,,,,AAXX 09214 07460 12562 83002 10090 20070 39680 40071 50000 60027 76162 8657/ 92100=
07460,1996-01-10 00:00:00,8,1006.1,-1.1,93,7,15000,0,,,0,,,,,,,,,,2,wg-a,,,,AAXX 10004 07460 02665 80000 10080 20070 39669 40061 58011 60026 70262 8457/ 90000 333 61000=
07460,1996-01-10 03:00:00,7,1005.5,-0.7,93,6,15000,0,,,0,,,,,,,,,,,wg-a,,,,AAXX 10034 07460 12665 80000 10070 20060 39662 40055 56007 60006 8457/ 90300=
07460,1996-01-10 06:00:00,6,1004.2,-1.3,100,6,15000,0,,,0,5.5,10.7,,,,,2,,,,wg-a,,,,AAXX 10064 07460 12665 80000 10060 20060 39649 40042 58013 60024 8457/ 90600 333 10107 20055=
07460,1996-01-10 09:00:00,7,1005.1,0.9,93,6,10000,3.704,,,310,,,,3,,,,,,21,wg-a,,,,AAXX 10094 07460 12560 73102 10070 20060 39658 40051 51009 60037 72162 8487/ 90900=
07460,1996-01-10 12:00:00,9,1003.6,-1.1,87,7,12000,0,,,0,,,,0,,,,,,61,wg-a,,,,AAXX 10124 07460 02562 70000 10090 20070 39647 40036 58011 60036 76162 8587/ 91200 333 60007=
07460,1996-01-10 15:00:00,10,1003.1,-0.4,82,7,10000,0,,,0,,,,0,,,,,,60,wg-a,,,,AAXX 10154 07460 12660 70000 10100 20070 39643 40031 55004 60007 76062 8587/ 91500=
07460,1996-01-10 18:00:00,9,1005.3,2,87,7,10000,22.224,,,190,5.7,10.6,,0,,,,,,60,wg-a,,,,AAXX 10184 07460 12560 71912 10090 20070 39663 40053 53020 60007 76062 8557/ 91800 333 10106 20057=
07460,1996-01-10 21:00:00,8,1008.9,3.4,76,4,12000,22.224,,,220,,,,,,,,,,3,wg-a,,,,AAXX 10214 07460 02662 62212 10080 20040 39697 40089 53034 61000 70362 83530 92100 333 ////=
07460,1996-01-11 00:00:00,7,1009.9,0.8,81,4,12000,18.52,,,180,,,,,,,,,,1,wg-a,,,,AAXX 11004 07460 02562 51810 10070 20040 39705 40099 51008 61000 70162 85500 90000 333 ////=
07460,1996-01-11 03:00:00,5,1009.6,-0.6,81,2,20000,14.816,,,180,,,,,,,,,,,wg-a,,,,AAXX 11034 07460 12/70 21808 10050 20020 39699 40096 58006 60006 80001 90300=
07460,1996-01-11 06:00:00,4,1007.2,-2.4,87,2,20000,11.112,,,170,3.8,8.9,,,,,3,,,,wg-a,,,,AAXX 11064 07460 12/70 61706 10040 20020 39675 40072 56024 60034 81032 90600 333 10089 20038=
07460,1996-01-11 09:00:00,8,1004.8,-1.8,71,3,20000,35.188,,,170,,,,,,,,,,,wg-a,,,,AAXX 11094 07460 12770 /1719 10080 20030 39658 40048 58018 60006 81532 90900=
07460,1996-01-11 12:00:00,10,1002.6,-1.9,62,3,40000,42.596,,61.116,180,,,,,,,,,,,wg-a,,,,AAXX 11124 07460 12782 71823 10100 20030 39639 40026 58019 60006 8157/ 91200 333 91033=
07460,1996-01-11 15:00:00,12,1000.2,-2,54,3,40000,38.892,,,180,,,,,,,,,,14,wg-a,,,,AAXX 11154 07460 12782 71821 10120 20030 39618 40002 56020 60006 71422 81542 91500=
07460,1996-01-11 18:00:00,11,1000.8,0.5,54,2,25000,42.596,,,180,4.2,11.9,,,,,,,,,wg-a,,,,AAXX 11184 07460 12775 71823 10110 20020 39623 40008 50005 60006 81542 91800 333 10119 20042=
07460,1996-01-11 21:00:00,10,1001.7,0.7,62,3,20000,25.928,,,170,,,,,,,,,,,wg-a,,,,AAXX 11214 07460 12770 71714 10100 20030 39630 40017 52007 60006 82542 92100=
07460,1996-01-12 00:00:00,10,1001.7,-0.1,66,4,20000,14.816,,,180,,,,,,,,,,,wg-a,,,,AAXX 12004 07460 12670 71808 10100 20040 39630 40017 58001 60006 82542 90000=
07460,1996-01-12 03:00:00,9,1001,-0.7,87,7,20000,14.816,,,220,,,,,,,,,,21,wg-a,,,,AAXX 12034 07460 02570 72208 10090 20070 39622 40010 56007 61000 72122 83542 90300 333 ////=
07460,1996-01-12 06:00:00,9,1000.2,-0.8,81,6,20000,3.704,,,30,8.2,11.3,,,,,,,,1,wg-a,,,,AAXX 12064 07460 02570 70302 10090 20060 39614 40002 56008 61000 70162 82542 90600 333 10113 20082 ////=
07460,1996-01-12 09:00:00,8,1001.8,1.5,93,7,8000,7.408,,,220,,,,2,,,,,,61,wg-a,,,,AAXX 12094 07460 12558 82204 10080 20070 39629 40018 53015 60027 76162 8557/ 90900=
07460,1996-01-12 12:00:00,9,1003.2,1.4,87,7,10000,11.112,,,200,,,,3,,,,,,21,wg-a,,,,AAXX 12124 07460 02460 82006 10090 20070 39643 40032 51014 60056 72162 8557/ 91200 333 60037=
07460,1996-01-12 15:00:00,9,1005.2,1.9,87,7,15000,14.816,,,190,,,,,,,,,,,wg-a,,,,AAXX 12154 07460 12565 81908 10090 20070 39662 40052 53019 60006 8553/ 91500=
07460,1996-01-12 18:00:00,8,1008.2,2.8,87,6,20000,14.816,,,190,7.9,8.9,,,,,,,,,wg-a,,,,AAXX 12184 07460 32670 71908 10080 20060 39690 40082 51028 82532 91800 333 10089 20079=
07460,1996-01-12 21:00:00,7,1011,2.5,87,5,20000,3.704,,,220,,,,,,,,,,,wg-a,,,,AAXX 12214 07460 12/70 72202 10070 20050 39715 40110 51025 60006 81032 92100=
07460,1996-01-13 00:00:00,6,1012.2,1,87,4,20000,7.408,,,190,,,,,,,,,,,wg-a,,,,AAXX 13004 07460 12/70 11904 10060 20040 39725 40122 50010 60006 80002 90000=
07460,1996-01-13 03:00:00,4,1014.3,1.8,93,3,20000,3.704,,,40,,,,,,,,,,,wg-a,,,,AAXX 13034 07460 12/70 60402 10040 20030 39743 40143 53018 60006 81032 90300=
07460,1996-01-13 06:00:00,4,1015.9,1.6,93,3,20000,3.704,,,40,3.9,8.3,,,,,5,,,,wg-a,,,,AAXX 13064 07460 02670 70402 10040 20030 39759 40159 53016 60006 875// 90600 333 10083 20039 60054=
07460,1996-01-13 09:00:00,5,1017.8,1.9,93,4,7000,0,,,0,,,,0,,,,,,21,wg-a,,,,AAXX 13094 07460 12657 80000 10050 20040 39778 40178 52019 60007 72162 8653/ 90900=
07460,1996-01-13 12:00:00,7,1017.1,-0.3,93,6,6000,3.704,,,180,,,,0,,,,,,60,wg-a,,,,AAXX 13124 07460 02656 81802 10070 20060 39775 40171 58003 60016 76062 8457/ 91200 333 60007=
07460,1996-01-13 15:00:00,9,1016.3,-0.6,87,7,10000,3.704,,,250,,,,,,,,,,1,wg-a,,,,AAXX 13154 07460 02660 52502 10090 20070 39769 40163 55006 61000 70162 8257/ 91500 333 ////=
07460,1996-01-13 18:00:00,6,1017.2,0.5,93,5,12000,3.704,,,170,3.8,9.3,,,,,,,,2,wg-a,,,,AAXX 13184 07460 32662 21702 10060 20050 39773 40172 53005 70261 81530 91800 333 10093 20038=
07460,1996-01-13 21:00:00,5,1017.9,0.5,93,4,20000,3.704,,,50,,,,,,,,,,,wg-a,,,,AAXX 13214 07460 12/70 10502 10050 20040 39779 40179 53005 60006 81030 92100=
07460,1996-01-14 00:00:00,2,1017.6,-0.7,100,2,15000,0,,,0,,,,,,,,,,,wg-a,,,,AAXX 14004 07460 12/65 00000 10020 20020 39772 40176 58007 60006 80000 90000=
07460,1996-01-14 03:00:00,2,1017.3,-0.4,93,1,15000,3.704,,,310,,,,,,,,,,,wg-a,,,,AAXX 14034 07460 12/65 13102 10020 20010 39768 40173 55004 60006 81030 90300=
07460,1996-01-14 06:00:00,2,1017,-0.3,93,1,15000,3.704,,,30,0.1,6.4,,,,,1,,,,wg-a,,,,AAXX 14064 07460 02/65 10302 10020 20010 39765 40170 56003 60006 81030 90600 333 10064 20001 60014=
07460,1996-01-14 09:00:00,3,1017.6,0.8,100,3,8000,3.704,,,300,,,,,,,,,,,wg-a,,,,AAXX 14094 07460 12658 43002 10030 20030 39773 40176 51008 60006 84500 90900=
07460,1996-01-14 12:00:00,14,1015.1,-0.8,63,7,25000,22.224,,,160,,,,,,,,,,,wg-a,,,,AAXX 14124 07460 12675 21612 10140 20070 39764 40151 58008 60006 81130 91200=
07460,1996-01-14 15:00:00,13,1015.2,-0,62,6,500,18.52,,,160,,,,,,,,,,,wg-a,,,,AAXX 14154 07460 12600 41610 10130 20060 39765 40152 55000 60006 84500 91500=
07460,1996-01-14 18:00:00,10,1017,1.3,82,7,500,7.408,,,240,-0.1,14.2,,,,,,,,,wg-a,,,,AAXX 14184 07460 12600 /2404 10100 20070 39778 40170 53013 60006 85501 91800 333 10142 21001=
07460,1996-01-14 21:00:00,10,1018.5,1.4,76,6,20000,7.408,,,130,,,,,,,,,,,wg-a,,,,AAXX 14214 07460 12670 51304 10100 20060 39791 40185 51014 60006 84501 92100=
07460,1996-01-15 00:00:00,10,1019.4,0.9,76,6,20000,3.704,,,170,,,,,,,,,,,wg-a,,,,AAXX 15004 07460 12670 /1702 10100 20060 39800 40194 51009 60006 85501 90000=
07460,1996-01-15 03:00:00,6,1020.9,0.9,87,4,20000,3.704,,,200,,,,,,,,,,,wg-a,,,,AAXX 15034 07460 12670 32002 10060 20040 39809 40209 51009 60006 82501 90300=
07460,1996-01-15 06:00:00,7,1021.6,0.9,87,5,20000,3.704,,,80,4,11.3,,,,,,,,,wg-a,,,,AAXX 15064 07460 02/70 10802 10070 20050 39818 40216 52009 60006 80001 90600 333 10113 20040 60004=
07460,1996-01-15 09:00:00,6,1023.2,1.3,87,4,15000,0,,,0,,,,,,,,,,,wg-a,,,,AAXX 15094 07460 12665 /0000 10060 20040 39831 40232 51013 60006 81501 90900=
07460,1996-01-15 12:00:00,15,1021.9,0,63,8,500,25.928,,,170,,,,,,,,,,,wg-a,,,,AAXX 15124 07460 12600 21714 10150 20080 39831 40219 50000 60006 81101 91200=
07460,1996-01-15 15:00:00,15,1021.7,-0.1,59,7,500,18.52,,,170,,,,,,,,,,,wg-a,,,,AAXX 15154 07460 12600 21710 10150 20070 39830 40217 58001 60006 81501 91500=
07460,1996-01-15 18:00:00,10,1024,1.5,76,6,20000,3.704,,,270,3.3,15.9,,,,,,,,,wg-a,,,,AAXX 15184 07460 12670 /2702 10100 20060 39845 40240 51015 60006 81501 91800 333 10159 20033=
07460,1996-01-15 21:00:00,9,1025.7,1.4,76,5,20000,7.408,,,100,,,,,,,,,,,wg-a,,,,AAXX 15214 07460 12/70 11004 10090 20050 39859 40257 52014 60006 80001 92100=
07460,1996-01-16 00:00:00,5,1026.7,0.4,87,3,20000,7.408,,,20,,,,,,,,,,,wg-a,,,,AAXX 16004 07460 12770 /0204 10050 20030 39863 40267 50004 60006 81501 90000=
07460,1996-01-16 03:00:00,3,1027.8,0.8,93,2,20000,3.704,,,310,,,,,,,,,,,wg-a,,,,AAXX 16034 07460 12/70 13102 10030 20020 39871 40278 51008 60006 80001 90300=
07460,1996-01-16 06:00:00,1,1028.7,0.5,93,0,15000,3.704,,,270,0.2,10.3,,,,,,,,,wg-a,,,,AAXX 16064 07460 02/65 22702 10010 20000 39876 40287 53005 60006 80001 90600 333 10103 20002 60004=
07460,1996-01-16 09:00:00,4,1029.3,1,100,4,6000,3.704,,,10,,,,,,,,,,,wg-a,,,,AAXX 16094 07460 12556 20102 10040 20040 39886 40293 53010 60006 81501 90900=
07460,1996-01-16 12:00:00,9,1027.7,-0.8,81,6,10000,3.704,,,60,,,,,,,,,,,wg-a,,,,AAXX 16124 07460 12/60 30602 10090 20060 39879 40277 58008 60006 80001 91200=
07460,1996-01-16 15:00:00,10,1026.4,-1,82,7,12000,3.704,,,50,,,,,,,,,,,wg-a,,,,AAXX 16154 07460 12/62 30502 10100 20070 39868 40264 55010 60006 80001 91500=
07460,1996-01-16 18:00:00,5,1028.3,1,87,3,4000,7.408,,,60,-0.6,10.7,,,,,,,,40,wg-a,,,,AAXX 16184 07460 12640 70604 10050 20030 39878 40283 53010 60006 74011 86501 91800 333 10107 21006=
07460,1996-01-16 21:00:00,3,1029.3,0.6,93,2,300,3.704,,,10,,,,,,,,,,45,wg-a,,,,AAXX 16214 07460 12/03 90102 10030 20020 39885 40293 51006 60006 74542 89/// 92100=
07460,1996-01-17 00:00:00,2,1028.9,-0.5,100,2,500,0,,,0,,,,,,,,,,43,wg-a,,,,AAXX 17004 07460 12/05 90000 10020 20020 39880 40289 58005 60006 74342 89/// 90000=
07460,1996-01-17 03:00:00,2,1028.1,-0.8,100,2,200,0,,,0,,,,,,,,,,45,wg-a,,,,AAXX 17034 07460 12/02 90000 10020 20020 39872 40281 58008 60006 74542 89/// 90300=
07460,1996-01-17 06:00:00,2,1028.1,-0,100,2,200,0,,,0,1.4,4.5,,,,,,,,45,wg-a,,,,AAXX 17064 07460 02/02 90000 10020 20020 39872 40281 55000 60006 74542 89/// 90600 333 10045 20014 60004=
07460,1996-01-17 09:00:00,1,1028.6,0.3,100,1,500,3.704,,,60,,,,,,,,,,43,wg-a,,,,AAXX 17094 07460 12/05 90602 10010 20010 39875 40286 51003 60006 74344 89/// 90900=
07460,1996-01-17 12:00:00,4,1026.8,-1.2,100,4,4000,7.408,,,40,,,,,,,,,,10,wg-a,,,,AAXX 17124 07460 12240 50404 10040 20040 39863 40268 58012 60006 71042 85600 91200=
07460,1996-01-17 15:00:00,6,1024.8,-1.4,93,5,500,7.408,,,60,,,,,,,,,,,wg-a,,,,AAXX 17154 07460 12200 40604 10060 20050 39847 40248 56014 60006 84600 91500=
07460,1996-01-17 18:00:00,3,1025.4,-0,100,3,200,3.704,,,30,0.5,6.6,,,,,,,,45,wg-a,,,,AAXX 17184 07460 12/02 90302 10030 20030 39848 40254 55000 60006 74541 89/// 91800 333 10066 20005=
07460,1996-01-17 21:00:00,2,1025.6,0.1,100,2,200,3.704,,,210,,,,,,,,,,,wg-a,,,,AAXX 17214 07460 12/02 /2102 10020 20020 39848 40256 52001 60006 92100=
07460,1996-01-18 00:00:00,-1,1025.3,-0.8,100,-1,200,3.704,,,60,,,,,,,,,,45,wg-a,,,,AAXX 18004 07460 12/02 90602 11010 21010 39841 40253 57008 60006 74544 89/// 90000=
07460,1996-01-18 03:00:00,-3,1025.3,-0.3,100,-3,300,0,,,0,,,,,,,,,,43,wg-a,,,,AAXX 18034 07460 12/03 90000 11030 21030 39838 40253 56003 60006 74344 89/// 90300=
07460,1996-01-18 06:00:00,-5,1024.9,-0.5,100,-5,800,0,,,0,-5,3.4,,,,,,,,48,wg-a,,,,AAXX 18064 07460 02/08 /0000 11050 21050 39831 40249 56005 60006 74844 89000 90600 333 10034 21050 60004=
07460,1996-01-18 09:00:00,-3,1024.8,0.2,93,-4,15000,0,,,0,,,,,,,,,,2,wg-a,,,,AAXX 18094 07460 12/65 20000 11030 21040 39833 40248 52002 60006 70240 80002 90900=
07460,1996-01-18 12:00:00,4,1022.5,-1.2,87,2,25000,3.704,,,30,,,,,,,,,,1,wg-a,,,,AAXX 18124 07460 12/75 20302 10040 20020 39821 40225 58012 60006 70140 80002 91200=
07460,1996-01-18 15:00:00,10,1020.2,-1.4,46,-1,40000,3.704,,,230,,,,,,,,,,,wg-a,,,,AAXX 18154 07460 12/82 32302 10100 21010 39807 40202 56014 60006 80002 91500=
07460,1996-01-18 18:00:00,2,1021.7,0.4,80,-1,20000,0,,,0,-5.1,9.6,,,,,,,,,wg-a,,,,AAXX 18184 07460 12/70 10000 10020 21010 39811 40217 52004 60006 80001 91800 333 10096 21051=
07460,1996-01-18 21:00:00,-1,1022.3,0.1,80,-4,20000,0,,,0,,,,,,,,,,,wg-a,,,,AAXX 18214 07460 12/70 20000 11010 21040 39812 40223 50001 60006 80001 92100=
07460,1996-01-19 00:00:00,0,1021.6,-0.5,74,-4,20000,7.408,,,350,,,,,,,,,,,wg-a,,,,AAXX 19004 07460 12/70 13504 10000 21040 39807 40216 58005 60006 80001 90000=
07460,1996-01-19 03:00:00,-2,1021.3,-0.6,80,-5,20000,3.704,,,220,,,,,,,,,,,wg-a,,,,AAXX 19034 07460 12/70 12202 11020 21050 39801 40213 56006 60006 80001 90300=
07460,1996-01-19 06:00:00,-2,1020.1,-1.2,80,-5,20000,7.408,,,350,-3.7,2.1,,,,,,,,,wg-a,,,,AAXX 19064 07460 02/70 13504 11020 21050 39789 40201 56012 60006 80001 90600 333 10021 21037 60004=
07460,1996-01-19 09:00:00,0,1019,-0.7,80,-3,20000,0,,,0,,,,,,,,,,,wg-a,,,,AAXX 19094 07460 12/70 00000 10000 21030 39782 40190 56007 60006 80000 90900=
07460,1996-01-19 12:00:00,7,1016,-1.9,66,1,20000,3.704,,,200,,,,,,,,,,,wg-a,,,,AAXX 19124 07460 12/70 02002 10070 20010 39763 40160 58019 60006 80000 91200=
07460,1996-01-19 18:00:00,1,1013.4,-1,86,-1,15000,0,,,0,-3,9.4,,,,,,,,,wg-a,,,,AAXX 19184 07460 12/65 10000 10010 21010 39730 40134 56010 60006 80001 91800 333 10094 21030=
07460,1996-01-19 21:00:00,-2,1013.5,-0.3,93,-3,15000,3.704,,,250,,,,,,,,,,,wg-a,,,,AAXX 19214 07460 12/65 02502 11020 21030 39727 40135 56003 60006 80000 92100=
07460,1996-01-20 00:00:00,0,1012.1,-1.2,86,-2,15000,7.408,,,190,,,,,,,,,,,wg-a,,,,AAXX 20004 07460 12/65 01904 10000 21020 39715 40121 58012 60006 80000 90000=
07460,1996-01-20 03:00:00,1,1010.8,-1,86,-1,15000,7.408,,,40,,,,,,,,,,,wg-a,,,,AAXX 20034 07460 12/65 00404 10010 21010 39705 40108 56010 60006 80000 90300=
07460,1996-01-20 06:00:00,1,1010,-0.8,80,-2,15000,11.112,,,70,-1.9,1.9,,,,,,,,,wg-a,,,,AAXX 20064 07460 02/65 10706 10010 21020 39697 40100 56008 60006 80001 90600 333 10019 21019 60004=
07460,1996-01-20 09:00:00,3,1009.8,0.1,81,0,25000,7.408,,,100,,,,,,,,,,,wg-a,,,,AAXX 20094 07460 12/75 01004 10030 20000 39698 40098 52001 60006 80000 90900=
07460,1996-01-20 12:00:00,11,1006.7,-1.9,58,3,25000,25.928,,,160,,,,,,,,,,,wg-a,,,,AAXX 20124 07460 12675 21614 10110 20030 39679 40067 58019 60006 81101 91200=
07460,1996-01-20 15:00:00,12,1005.7,-0.8,54,3,25000,14.816,,,160,,,,,,,,,,,wg-a,,,,AAXX 20154 07460 12675 41608 10120 20030 39671 40057 55008 60006 82131 91500=
07460,1996-01-20 18:00:00,9,1006.7,0.6,71,4,20000,18.52,,,180,0,12.4,,,,,,,,,wg-a,,,,AAXX 20184 07460 12670 /1810 10090 20040 39677 40067 53006 60006 84531 91800 333 10124 20000=
07460,1996-01-20 21:00:00,7,1008.4,1.3,76,3,20000,7.408,,,30,,,,,,,,,,,wg-a,,,,AAXX 20214 07460 12670 /0304 10070 20030 39690 40084 52013 60006 83531 92100=
07460,1996-01-21 00:00:00,7,1008.6,0.2,76,3,20000,11.112,,,150,,,,,,,,,,,wg-a,,,,AAXX 21004 07460 12670 41506 10070 20030 39692 40086 52002 60006 82501 90000=
07460,1996-01-21 03:00:00,6,1009.6,0.8,81,3,20000,3.704,,,70,,,,,,,,,,,wg-a,,,,AAXX 21034 07460 12670 20702 10060 20030 39701 40096 52008 60006 81501 90300=
07460,1996-01-21 06:00:00,3,1009.8,-0.2,87,1,20000,3.704,,,160,3.1,9.1,,,,,,,,,wg-a,,,,AAXX 21064 07460 02670 21602 10030 20010 39698 40098 58002 60006 81501 90600 333 10091 20031 60004=
07460,1996-01-21 09:00:00,9,1010.2,1.2,71,4,35000,18.52,,,160,,,,,,,,,,,wg-a,,,,AAXX 21094 07460 12681 21610 10090 20040 39710 40102 53012 60006 81101 90900=
07460,1996-01-21 12:00:00,13,1008.4,-1.2,54,4,40000,35.188,,,170,,,,,,,,,,,wg-a,,,,AAXX 21124 07460 12682 21719 10130 20040 39698 40084 58012 60006 81101 91200=
07460,1996-01-21 15:00:00,13,1007.5,-0.9,51,3,40000,35.188,,53.708,160,,,,,,,,,,,wg-a,,,,AAXX 21154 07460 12682 31619 10130 20030 39689 40075 56009 60006 82101 91500 333 91029=
07460,1996-01-21 18:00:00,10,1008.6,0.7,62,3,25000,29.632,,,160,2.9,13.4,,,,,,,,,wg-a,,,,AAXX 21184 07460 12675 41616 10100 20030 39696 40086 53007 60006 83501 91800 333 10134 20029=
07460,1996-01-21 21:00:00,8,1009,0.1,71,3,20000,22.224,,,170,,,,,,,,,,,wg-a,,,,AAXX 21214 07460 12670 51712 10080 20030 39697 40090 53001 60006 82531 92100=
07460,1996-01-22 00:00:00,10,1008.1,-0.6,62,3,20000,29.632,,,160,,,,,,,,,,,wg-a,,,,AAXX 22004 07460 12670 /1616 10100 20030 39691 40081 56006 60006 82531 90000=
07460,1996-01-22 03:00:00,9,1006.8,-1.3,71,4,20000,29.632,,,160,,,,,,,,,,,wg-a,,,,AAXX 22034 07460 12670 /1616 10090 20040 39678 40068 58013 60006 82531 90300=
07460,1996-01-22 06:00:00,11,1005.7,-0.8,62,4,20000,25.928,,,150,7.2,11.1,,,,,,,,,wg-a,,,,AAXX 22064 07460 02670 71514 10110 20040 39670 40057 55008 60006 84531 90600 333 10111 20072 60004=
07460,1996-01-22 09:00:00,12,1005.8,0.2,58,4,500,46.3,,62.968,160,,,,,,,,,,,wg-a,,,,AAXX 22094 07460 12600 81625 10120 20040 39672 40058 53002 60006 8553/ 90900 333 91034=
07460,1996-01-22 12:00:00,12,1004.5,-1.3,58,4,500,35.188,,,150,,,,,,,,,,,wg-a,,,,AAXX 22124 07460 12600 81519 10120 20040 39659 40045 58013 60006 8553/ 91200=
07460,1996-01-22 15:00:00,12,1003.4,-1,54,3,500,46.3,,66.672,160,,,,,,,,,,,wg-a,,,,AAXX 22154 07460 12600 71625 10120 20030 39649 40034 56010 60006 81532 91500 333 91036=
07460,1996-01-22 18:00:00,11,1004.8,1.2,58,3,20000,35.188,,,150,11,12.9,,,,,,,,,wg-a,,,,AAXX 22184 07460 12670 71519 10110 20030 39661 40048 51012 60006 81531 91800 333 10129 20110=
07460,1996-01-22 21:00:00,11,1004.7,-0.1,66,5,15000,25.928,,,160,,,,,,,,,,60,wg-a,,,,AAXX 22214 07460 02665 71614 10110 20050 39660 40047 55001 61000 76062 84571 92100 333 ////=
07460,1996-01-23 00:00:00,11,1002,-2.6,62,4,15000,46.3,,66.672,150,,,,1,,,,,,21,wg-a,,,,AAXX 23004 07460 02765 51525 10110 20040 39634 40020 58026 60016 72162 84531 90000 333 60017 91036=
07460,1996-01-23 03:00:00,11,1001.5,-0.5,62,4,15000,42.596,,,160,,,,,,,,,,,wg-a,,,,AAXX 23034 07460 12765 41623 10110 20040 39629 40015 57005 60006 82531 90300=
07460,1996-01-23 06:00:00,11,1000.2,-1.2,66,5,15000,35.188,,,160,8.1,12,,,,,1,,,61,wg-a,,,,AAXX 23064 07460 02665 71619 10110 20050 39617 40002 57012 60014 76161 83571 90600 333 10120 20081 61000=
07460,1996-01-23 09:00:00,12,998.9,-1.2,62,5,500,22.224,,,150,,,,,,,,,,3,wg-a,,,,AAXX 23094 07460 02600 71512 10120 20050 39605 49989 58012 61000 70362 8457/ 90900 333 ////=
07460,1996-01-23 12:00:00,10,1000,1,82,7,7000,25.928,,,210,,,,1,,,,,,61,wg-a,,,,AAXX 23124 07460 02557 82114 10100 20070 39614 40000 53010 60016 76162 8557/ 91200 333 60017=
07460,1996-01-23 15:00:00,11,998.7,-1.2,76,7,15000,42.596,,61.116,170,,,,4,,,,,,61,wg-a,,,,AAXX 23154 07460 12565 71723 10110 20070 39603 49987 55012 60047 76162 8557/ 91500 333 91033=
07460,1996-01-23 18:00:00,10,1000.4,1.6,76,6,20000,29.632,,,170,8.9,12.5,,0,,,,,,3,wg-a,,,,AAXX 23184 07460 12670 41716 10100 20060 39618 40004 51016 60007 70362 83531 91800 333 10125 20089=
07460,1996-01-23 21:00:00,10,1001.6,1,71,5,20000,29.632,,,180,,,,,,,,,,,wg-a,,,,AAXX 23214 07460 12670 /1816 10100 20050 39629 40016 50010 60006 81530 92100=
07460,1996-01-24 00:00:00,6,1003,0.8,81,3,20000,7.408,,,130,,,,,,,,,,,wg-a,,,,AAXX 24004 07460 12/70 11304 10060 20030 39637 40030 51008 60006 80001 90000=
07460,1996-01-24 03:00:00,2,1003.3,-0.3,93,1,20000,11.112,,,160,,,,,,,,,,,wg-a,,,,AAXX 24034 07460 12/70 11606 10020 20010 39634 40033 55003 60006 80001 90300=
07460,1996-01-24 06:00:00,2,1003.4,0.1,93,1,20000,3.704,,,290,1,10.5,,,,,6,,,,wg-a,,,,AAXX 24064 07460 02/70 22902 10020 20010 39635 40034 53001 60006 80001 90600 333 10105 20010 60064=
07460,1996-01-24 09:00:00,2,1003.9,0.5,93,1,20000,3.704,,,10,,,,,,,,,,,wg-a,,,,AAXX 24094 07460 12/70 60102 10020 20010 39640 40039 53005 60006 81032 90900=
07460,1996-01-24 12:00:00,11,1001.8,-0.8,66,5,20000,14.816,,,150,,,,,,,,,,,wg-a,,,,AAXX 24124 07460 12670 /1508 10110 20050 39632 40018 58008 60006 81131 91200=
07460,1996-01-24 15:00:00,12,1000.5,-1.1,54,3,20000,7.408,,,120,,,,,,,,,,,wg-a,,,,AAXX 24154 07460 12670 51204 10120 20030 39621 40005 56011 60006 82131 91500=
07460,1996-01-24 18:00:00,8,1001.6,0.5,66,2,20000,3.704,,,240,0.7,13.4,,,,,,,,,wg-a,,,,AAXX 24184 07460 12670 42402 10080 20020 39626 40016 51005 60006 82531 91800 333 10134 20007=
07460,1996-01-25 00:00:00,5,1002,0,93,4,11000,0,,,0,,,,,,,,,,60,wg-a,,,,AAXX 25004 07460 12/61 /0000 10050 20040 39626 40020 50000 60006 76061 90000=
07460,1996-01-25 06:00:00,3,1001.6,-0.2,100,3,7000,3.704,,,40,2.9,8,,,,,,,,21,wg-a,,,,AAXX 25064 07460 02557 80402 10030 20030 39620 40016 55002 60004 72162 875// 90600 333 10080 20029 61000=
07460,1996-01-25 09:00:00,3,1002.7,0.9,93,2,2000,0,,,0,,,,,,,,,,10,wg-a,,,,AAXX 25094 07460 12420 70000 10030 20020 39629 40027 53009 60006 71022 83532 90900=
07460,1996-01-25 12:00:00,6,1002,-0.2,93,5,2000,0,,,0,,,,,,,,,,10,wg-a,,,,AAXX 25124 07460 12220 /0000 10060 20050 39627 40020 58002 60006 71022 83532 91200=
07460,1996-01-25 15:00:00,7,1001.6,-0.2,93,6,500,0,,,0,,,,1,,,,,,10,wg-a,,,,AAXX 25154 07460 12200 80000 10070 20060 39625 40016 55002 60017 71062 8557/ 91500=
07460,1996-01-25 18:00:00,7,1002.8,1.1,93,6,500,3.704,,,160,2,7.3,,0,,,,,,60,wg-a,,,,AAXX 25184 07460 12200 81602 10070 20060 39636 40028 53011 60007 76062 8557/ 91800 333 10073 20020=
07460,1996-01-25 21:00:00,5,1004.4,1.3,93,4,15000,3.704,,,200,,,,,,,,,,1,wg-a,,,,AAXX 25214 07460 02565 72002 10050 20040 39649 40044 53013 61000 70162 8457/ 92100 333 ////=
07460,1996-01-26 00:00:00,5,1005.2,0.7,93,4,9000,0,,,0,,,,,,,,,,3,wg-a,,,,AAXX 26004 07460 02659 70000 10050 20040 39656 40052 51007 61000 70362 8357/ 90000 333 ////=
07460,1996-01-26 03:00:00,4,1005.8,0.5,93,3,9000,0,,,0,,,,,,,,,,,wg-a,,,,AAXX 26034 07460 12659 80000 10040 20030 39661 40058 51005 60006 8557/ 90300=
07460,1996-01-26 06:00:00,4,1006.3,0.6,93,3,10000,7.408,,,150,3.5,6.5,,,,,1,,,,wg-a,,,,AAXX 26064 07460 12560 71504 10040 20030 39666 40063 53006 60014 8453/ 90600 333 10065 20035=
07460,1996-01-26 09:00:00,5,1007.4,1.2,93,4,14000,0,,,0,,,,,,,,,,,wg-a,,,,AAXX 26094 07460 12564 70000 10050 20040 39678 40074 51012 60006 82832 90900=
07460,1996-01-26 12:00:00,10,1006.7,0.1,71,5,14000,11.112,,,170,,,,,,,,,,,wg-a,,,,AAXX 26124 07460 12564 51706 10100 20050 39678 40067 50001 60006 84831 91200=
07460,1996-01-26 15:00:00,10,1006.5,-0.3,62,3,14000,3.704,,,60,,,,,,,,,,,wg-a,,,,AAXX 26154 07460 12564 70602 10100 20030 39676 40065 55003 60006 85801 91500=
07460,1996-01-26 18:00:00,6,1008.4,1.3,100,6,9000,11.112,,,360,,,,,,,,,,0,wg-a,,,,AAXX 26184 07460 32559 /3606 10060 20060 40084 52013 700// 91800=
07460,1996-01-26 21:00:00,3,1009.8,0.9,100,3,6000,0,,,0,,,,,,,,,,12,wg-a,,,,AAXX 26214 07460 12256 40000 10030 20030 39699 40098 51009 60006 71211 83530 92100=
07460,1996-01-27 00:00:00,2,1010.6,0.6,100,2,100,0,,,0,,,,,,,,,,45,wg-a,,,,AAXX 27004 07460 12/01 90000 10020 20020 39705 40106 51006 60006 74541 89/// 90000=
07460,1996-01-27 03:00:00,3,1010.6,0.1,100,3,15000,7.408,,,150,,,,,,,,,,2,wg-a,,,,AAXX 27034 07460 12765 /1504 10030 20030 39706 40106 50001 60006 70242 83530 90300=
07460,1996-01-27 06:00:00,2,1011.4,0.6,93,1,15000,3.704,,,150,1.1,6.3,,,,,1,,,3,wg-a,,,,AAXX 27064 07460 02265 /1502 10020 20010 39712 40114 53006 60006 70341 83501 90600 333 10063 20011 60014=
07460,1996-01-27 09:00:00,5,1012.1,1.1,87,3,25000,7.408,,,100,,,,,,,,,,,wg-a,,,,AAXX 27094 07460 12/75 11004 10050 20030 39723 40121 53011 60006 80001 90900=
07460,1996-01-27 12:00:00,11,1010.5,-0.8,62,4,500,22.224,,,170,,,,,,,,,,,wg-a,,,,AAXX 27124 07460 12600 /1712 10110 20040 39716 40105 58008 60006 81101 91200=
07460,1996-01-27 15:00:00,12,1009.8,-0.5,54,3,500,18.52,,,160,,,,,,,,,,,wg-a,,,,AAXX 27154 07460 12600 31610 10120 20030 39710 40098 55005 60006 82101 91500=
07460,1996-01-27 18:00:00,9,1012,1.6,71,4,15000,3.704,,,150,1.8,12.1,,,,,,,,,wg-a,,,,AAXX 27184 07460 12665 /1502 10090 20040 39727 40120 53016 60006 85501 91800 333 10121 20018=
07460,1996-01-27 21:00:00,8,1012.6,0.4,71,3,14000,0,,,0,,,,,,,,,,,wg-a,,,,AAXX 27214 07460 12664 70000 10080 20030 39731 40126 51004 60006 875// 92100=
07460,1996-01-28 00:00:00,6,1012.1,-0.6,81,3,14000,3.704,,,40,,,,,,,,,,,wg-a,,,,AAXX 28004 07460 12664 /0402 10060 20030 39725 40121 56006 60006 86500 90000=
07460,1996-01-28 03:00:00,3,1012,-0.5,93,2,14000,0,,,0,,,,,,,,,,,wg-a,,,,AAXX 28034 07460 12664 /0000 10030 20020 39720 40120 58005 60006 86500 90300=
07460,1996-01-28 06:00:00,2,1011.5,-0.6,93,1,15000,3.704,,,240,1,8.7,,,,,,,,,wg-a,,,,AAXX 28064 07460 02665 /2402 10020 20010 39713 40115 55006 60006 86530 90600 333 10087 20010 60004=
07460,1996-01-28 09:00:00,4,1010.9,-0.3,93,3,20000,0,,,0,,,,,,,,,,,wg-a,,,,AAXX 28094 07460 12670 70000 10040 20030 39710 40109 58003 60006 875// 90900=
07460,1996-01-28 12:00:00,7,1009.2,-1.2,81,4,15000,3.704,,,320,,,,,,,,,,,wg-a,,,,AAXX 28124 07460 12665 83202 10070 20040 39698 40092 58012 60006 8353/ 91200=
07460,1996-01-28 15:00:00,8,1008.1,-0.9,87,6,6000,0,,,0,,,,2,,,,,,61,wg-a,,,,AAXX 28154 07460 12556 80000 10080 20060 39689 40081 55009 60027 76162 8557/ 91500=
07460,1996-01-28 18:00:00,6,1008.3,-0,100,6,500,7.408,,,350,1.8,8.1,,2,,,,,,61,wg-a,,,,AAXX 28184 07460 12300 83504 10060 20060 39689 40083 55000 60027 76162 8357/ 91800 333 10081 20018=
07460,1996-01-29 00:00:00,5,1008.5,-0.1,100,5,500,7.408,,,140,,,,,,,,,,3,wg-a,,,,AAXX 29004 07460 02200 81404 10050 20050 39689 40085 56001 60026 70362 8557/ 90000 333 61000=
07460,1996-01-29 03:00:00,5,1008,-0.5,93,4,15000,7.408,,,100,,,,,,,,,,,wg-a,,,,AAXX 29034 07460 12665 81004 10050 20040 39684 40080 58005 60006 8453/ 90300=
07460,1996-01-29 06:00:00,4,1008.8,0.5,93,3,15000,3.704,,,90,3,6.2,,,,,6,,,,wg-a,,,,AAXX 29064 07460 12665 80902 10040 20030 39689 40088 53005 60064 8453/ 90600 333 10062 20030=
07460,1996-01-29 09:00:00,4,1010.6,1.9,100,4,9000,3.704,,,340,,,,0,,,,,,3,wg-a,,,,AAXX 29094 07460 12559 73402 10040 20040 39708 40106 52019 60007 70362 8553/ 90900=
07460,1996-01-29 12:00:00,8,1010.2,0.2,93,7,12000,3.704,,,30,,,,2,,,,,,21,wg-a,,,,AAXX 29124 07460 02662 70302 10080 20070 39710 40102 50002 60026 72162 8583/ 91200 333 60027=
07460,1996-01-29 15:00:00,10,1010,-0,87,8,12000,7.408,,,50,,,,,,,,,,,wg-a,,,,AAXX 29154 07460 12662 /0504 10100 20080 39710 40100 55000 60006 84830 91500=
07460,1996-01-29 18:00:00,8,1011.9,1.5,87,6,9000,3.704,,,330,3.1,9.7,,,,,,,,,wg-a,,,,AAXX 29184 07460 32459 63302 10080 20060 39725 40119 52015 84531 91800 333 10097 20031=
07460,1996-01-29 21:00:00,4,1013.9,1.4,100,4,3000,3.704,,,290,,,,,,,,,,10,wg-a,,,,AAXX 29214 07460 12630 /2902 10040 20040 39739 40139 51014 60006 71041 81531 92100=
07460,1996-01-30 00:00:00,3,1015.3,1.2,100,3,600,3.704,,,320,,,,,,,,,,43,wg-a,,,,AAXX 30004 07460 12/06 93202 10030 20030 39751 40153 51012 60006 74341 89/// 90000=
07460,1996-01-30 03:00:00,3,1015.7,0.4,100,3,200,3.704,,,30,,,,,,,,,,45,wg-a,,,,AAXX 30034 07460 12/02 90302 10030 20030 39755 40157 51004 60006 74542 89/// 90300=
07460,1996-01-30 06:00:00,2,1016.9,1.1,100,2,200,3.704,,,340,1.7,7.4,,,,,2,,,45,wg-a,,,,AAXX 30064 07460 02/02 93402 10020 20020 39765 40169 53011 60006 74542 89/// 90600 333 10074 20017 60024=
07460,1996-01-30 09:00:00,3,1018,1.1,100,3,300,3.704,,,50,,,,,,,,,,45,wg-a,,,,AAXX 30094 07460 12/03 90502 10030 20030 39776 40180 52011 60006 74544 89/// 90900=
07460,1996-01-30 12:00:00,4,1018,0.2,100,4,3000,0,,,0,,,,,,,,,,10,wg-a,,,,AAXX 30124 07460 12130 80000 10040 20040 39778 40180 50002 60006 71042 886// 91200=
07460,1996-01-30 15:00:00,3,1017.8,,100,3,2000,7.408,,,30,,,,,,,,,,10,wg-a,,,,AAXX 30154 07460 32220 70304 10030 20030 39775 40178 71022 876// 91500=
07460,1996-01-30 18:00:00,1,1019.3,,100,1,1200,7.408,,,340,0.5,4.3,,,,,,,,28,wg-a,,,,AAXX 30184 07460 12112 93404 10010 20010 39786 40193 60006 72842 896// 91800 333 10043 20005=
07460,1996-01-30 21:00:00,-1,1019.8,0.2,100,-1,3500,0,,,0,,,,,,,,,,10,wg-a,,,,AAXX 30214 07460 12235 40000 11010 21010 39788 40198 51002 60006 71011 84600 92100=
07460,1996-01-31 00:00:00,-1,1019.5,-0.3,100,-1,1100,3.704,,,50,,,,,,,,,,10,wg-a,,,,AAXX 31004 07460 12111 /0502 11010 21010 39785 40195 58003 60006 71011 86600 90000=
07460,1996-01-31 03:00:00,-1,1018.3,-1.1,100,-1,1500,7.408,,,50,,,,,,,,,,10,wg-a,,,,AAXX 31034 07460 12215 80504 11010 21010 39774 40183 58011 60006 71022 886// 90300=
07460,1996-01-31 06:00:00,-1,1017.8,-0.6,100,-1,1000,0,,,0,-1.6,0.8,,,,,,,,10,wg-a,,,,AAXX 31064 07460 02210 70000 11010 21010 39768 40178 58006 60006 71042 876// 90600 333 10008 21016 60004=
07460,1996-01-31 09:00:00,0,1017.6,0,100,0,1500,0,,,0,,,,,,,,,,10,wg-a,,,,AAXX 31094 07460 12115 70000 10000 20000 39768 40176 50000 60006 71022 876// 90900=
07460,1996-01-31 12:00:00,1,1016.3,-1,93,0,6000,3.704,,,340,,,,,,,,,,1,wg-a,,,,AAXX 31124 07460 12356 83402 10010 20000 39758 40163 58010 60006 70142 876// 91200=
07460,1996-01-31 15:00:00,2,1015.3,-0.9,87,0,6000,3.704,,,340,,,,,,,,,,,wg-a,,,,AAXX 31154 07460 12356 83402 10020 20000 39749 40153 56009 60006 886// 91500=
07460,1996-01-31 18:00:00,1,1016.5,1.1,93,0,500,3.704,,,40,-1.4,1.7,,,,,,,,,wg-a,,,,AAXX 31184 07460 12300 80402 10010 20000 39760 40165 53011 60006 886// 91800 333 10017 21014=
07460,1996-01-31 21:00:00,1,1016.7,0.1,93,0,3000,11.112,,,130,,,,,,,,,,10,wg-a,,,,AAXX 31214 07460 12230 81306 10010 20000 39761 40167 53001 60006 71022 886// 92100=
07460,1996-02-01 00:00:00,-1,1017.2,0.3,100,-1,500,0,,,0,,,,,,,,,,45,wg-a,,,,AAXX 01004 07460 12/00 90000 11010 21010 39764 40172 51003 60006 74542 89/// 90000=
07460,1996-02-01 03:00:00,-4,1017.8,0.1,100,-4,600,0,,,0,,,,,,,,,,49,wg-a,,,,AAXX 01034 07460 12/06 90000 11040 21040 39765 40178 53001 60006 74944 89/// 90300=
07460,1996-02-01 06:00:00,-1,1017.3,-0.1,74,-5,15000,11.112,,,170,-4.1,1.8,,,,,,,,2,wg-a,,,,AAXX 01064 07460 02265 31706 11010 21050 39764 40173 58001 60006 70241 82601 90600 333 10018 21041 60004=
07460,1996-02-01 09:00:00,0,1017,-0.2,80,-3,10000,3.704,,,70,,,,,,,,,,,wg-a,,,,AAXX 01094 07460 12660 20702 10000 21030 39762 40170 56002 60006 82501 90900=
07460,1996-02-01 12:00:00,7,1014.4,-1.5,57,-1,15000,18.52,,,190,,,,,,,,,,,wg-a,,,,AAXX 01124 07460 12665 51910 10070 21010 39747 40144 58015 60006 84830 91200=
07460,1996-02-01 15:00:00,10,1011.6,-2.1,57,2,15000,22.224,,,170,,,,,,,,,,,wg-a,,,,AAXX 01154 07460 12665 31712 10100 20020 39725 40116 56021 60006 83500 91500=
07460,1996-02-01 18:00:00,7,1012.2,0.1,70,2,15000,7.408,,,210,-2.9,10,,,,,,,,,wg-a,,,,AAXX 01184 07460 12665 /2104 10070 20020 39726 40122 53001 60006 83531 91800 333 10100 21029=
07460,1996-02-01 21:00:00,6,1011.7,-0.6,81,3,15000,11.112,,,170,,,,1,,,,,,21,wg-a,,,,AAXX 01214 07460 12665 71706 10060 20030 39721 40117 58006 60017 72162 8457/ 92100=
07460,1996-02-02 00:00:00,7,1010.9,-0.7,76,3,15000,7.408,,,200,,,,,,,,,,3,wg-a,,,,AAXX 02004 07460 12665 72004 10070 20030 39714 40109 56007 60016 70362 8357/ 90000=
07460,1996-02-02 03:00:00,7,1009.6,-1.2,81,4,15000,3.704,,,110,,,,,,,,,,,wg-a,,,,AAXX 02034 07460 12665 71102 10070 20040 39702 40096 58012 60006 8357/ 90300=
07460,1996-02-02 06:00:00,4,1009.7,-0.3,93,3,15000,0,,,0,4,7.3,,,,,1,,,,wg-a,,,,AAXX 02064 07460 12665 70000 10040 20030 39699 40097 55003 60014 8357/ 90600 333 10073 20040=
07460,1996-02-02 09:00:00,5,1010.4,0.7,93,4,10000,3.704,,,90,,,,,,,,,,,wg-a,,,,AAXX 02094 07460 12760 80902 10050 20040 39706 40104 53007 60006 8657/ 90900=
07460,1996-02-02 12:00:00,7,1009.9,-0.1,87,5,8000,3.704,,,30,,,,0,,,,,,21,wg-a,,,,AAXX 02124 07460 02658 70302 10070 20050 39705 40099 58001 60006 72162 8653/ 91200 333 60007=
07460,1996-02-02 15:00:00,8,1008.9,-0.7,87,6,6000,3.704,,,30,,,,,,,,,,,wg-a,,,,AAXX 02154 07460 12656 70302 10080 20060 39697 40089 56007 60006 8553/ 91500=
07460,1996-02-02 18:00:00,7,1010.1,0.9,93,6,6000,3.704,,,50,4.1,8.6,,,,,,,,,wg-a,,,,AAXX 02184 07460 32656 70502 10070 20060 39707 40101 53009 8553/ 91800 333 10086 20041=
07460,1996-02-02 21:00:00,6,1011.4,1.2,100,6,3000,0,,,0,,,,0,,,,,,10,wg-a,,,,AAXX 02214 07460 12630 70000 10060 20060 39719 40114 51012 60007 71062 8553/ 92100=
07460,1996-02-03 00:00:00,5,1012.8,1.1,93,4,3500,7.408,,,350,,,,2,,,,,,10,wg-a,,,,AAXX 03004 07460 02235 73504 10050 20040 39730 40128 51011 60026 71062 8553/ 90000 333 60027=
07460,1996-02-03 03:00:00,4,1012.8,-0.2,100,4,4000,7.408,,,10,,,,1,,,,,,10,wg-a,,,,AAXX 03034 07460 12640 70104 10040 20040 39728 40128 57002 60017 71062 8553/ 90300=
07460,1996-02-03 06:00:00,3,1013.3,0.4,100,3,500,7.408,,,350,3,7.3,,1,,,5,,,51,wg-a,,,,AAXX 03064 07460 02600 73504 10030 20030 39732 40133 53004 60054 75165 8653/ 90600 333 10073 20030 60017=
07460,1996-02-03 09:00:00,2,1015,1.4,93,1,500,11.112,,,10,,,,0,,,,,,3,wg-a,,,,AAXX 03094 07460 12200 80106 10020 20010 39747 40150 51014 60007 70362 8557/ 90900=
07460,1996-02-03 12:00:00,1,1015.2,0,93,0,6000,11.112,,,20,,,,,,,,,,2,wg-a,,,,AAXX 03124 07460 12256 80206 10010 20000 39747 40152 50000 60016 70262 8557/ 91200=
07460,1996-02-03 15:00:00,1,1014,-1.1,93,0,7000,11.112,,,10,,,,,,,,,,,wg-a,,,,AAXX 03154 07460 12257 80106 10010 20000 39736 40140 56011 60006 8357/ 91500=
07460,1996-02-03 18:00:00,1,1014.7,0.6,86,-1,500,11.112,,,350,0.9,3,,,,,,,,,wg-a,,,,AAXX 03184 07460 32200 83506 10010 21010 39742 40147 52006 8357/ 91800 333 10030 20009=
07460,1996-02-03 21:00:00,1,1014.5,-0.1,86,-1,10000,7.408,,,300,,,,,,,,,,20,wg-a,,,,AAXX 03214 07460 02260 83004 10010 21010 39740 40145 58001 61000 72052 8357/ 92100 333 ////=
07460,1996-02-04 00:00:00,2,1014.4,-0,75,-2,13000,7.408,,,340,,,,,,,,,,1,wg-a,,,,AAXX 04004 07460 02563 83404 10020 21020 39740 40144 55000 61000 70152 8353/ 90000 333 ////=
07460,1996-02-04 03:00:00,1,1013.3,-1.1,86,-1,13000,7.408,,,360,,,,,,,,,,,wg-a,,,,AAXX 04034 07460 12563 83604 10010 21010 39729 40133 56011 60006 8257/ 90300=
07460,1996-02-04 06:00:00,0,1013.4,-0,93,-1,12000,0,,,0,0.2,1.6,,,,,,,,,wg-a,,,,AAXX 04064 07460 12562 70000 10000 21010 39729 40134 54000 60004 8153/ 90600 333 10016 20002=
07460,1996-02-04 09:00:00,1,1014.1,0.7,93,0,3000,11.112,,,350,,,,,,,,,,10,wg-a,,,,AAXX 04094 07460 12230 83506 10010 20000 39736 40141 51007 60006 71022 8653/ 90900=
07460,1996-02-04 12:00:00,1,1013.8,-0.2,100,1,4000,18.52,,,360,,,,0,,,,,,10,wg-a,,,,AAXX 04124 07460 02240 83610 10010 20010 39734 40138 58002 60006 71076 875// 91200 333 60007=
07460,1996-02-04 15:00:00,1,1014.1,0.2,86,-1,4000,14.816,,,340,,,,,,,,,,10,wg-a,,,,AAXX 04154 07460 02240 83408 10010 21010 39736 40141 53002 61000 71076 875// 91500 333 ////=
07460,1996-02-04 18:00:00,0,1015.5,1.2,86,-2,8000,11.112,,,330,-0.5,1.6,,0,,,,,,22,wg-a,,1,,AAXX 04184 07460 12558 83306 10000 21020 39748 40155 53012 60007 72276 875// 91800 333 10016 21005 4/001=
07460,1996-02-04 21:00:00,-1,1017,1.3,80,-4,12000,18.52,,,10,,,,,,,,,,,wg-a,,,,AAXX 04214 07460 12662 80110 11010 21040 39761 40170 51013 60006 875// 92100=
07460,1996-02-05 00:00:00,-2,1017.1,-0.1,86,-4,12000,11.112,,,20,,,,,,,,,,,wg-a,,,,AAXX 05004 07460 12662 80206 11020 21040 39760 40171 58001 60006 875// 90000=
07460,1996-02-05 03:00:00,-3,1016.8,-0.3,74,-7,12000,14.816,,,340,,,,,,,,,,,wg-a,,,,AAXX 05034 07460 12662 83408 11030 21070 39757 40168 58003 60006 875// 90300=
07460,1996-02-05 06:00:00,-3,1016.4,-0.4,74,-7,12000,11.112,,,20,-2.7,0.1,,,,,,,,71,wg-a,,,,AAXX 05064 07460 02662 80206 11030 21070 39753 40164 58004 60004 77172 875// 90600 333 10001 21027 61000=
07460,1996-02-05 09:00:00,-3,1016.4,-0.1,74,-7,6000,11.112,,,20,,,,,,,,,,70,wg-a,,,,AAXX 05094 07460 02556 80206 11030 21070 39752 40164 55001 61000 77072 875// 90900 333 ////=
07460,1996-02-05 12:00:00,-2,1014.6,-1.5,80,-5,10000,14.816,,,20,,,,,,,,,,3,wg-a,,,,AAXX 05124 07460 02560 70208 11020 21050 39737 40146 58015 61000 70372 8557/ 91200 333 6100=
07460,1996-02-05 15:00:00,-2,1011.8,-2.7,69,-7,10000,7.408,,,60,,,,,,,,,,,wg-a,,,,AAXX 05154 07460 32560 80604 11020 21070 39710 40118 56027 875// 91500=
07460,1996-02-05 18:00:00,-3,1009.9,-1.9,74,-7,10000,11.112,,,150,-3,-1.2,,,,,,,,,wg-a,,,,AAXX 05184 07460 32560 81506 11030 21070 39690 40099 58019 875// 91800 333 11012 21030=
07460,1996-02-05 21:00:00,-4,1005.2,-4.6,80,-7,9000,14.816,,,170,,,,,,,,,,,wg-a,,,,AAXX 05214 07460 12559 51708 11040 21070 39644 40052 58046 60006 85500 92100=
07460,1996-02-06 00:00:00,-5,1000.2,-5,79,-8,12000,22.224,,,160,,,,,,,,,,,wg-a,,,,AAXX 06004 07460 12/62 31612 11050 21080 39594 40002 56050 60006 80001 90000=
07460,1996-02-06 03:00:00,-5,995.9,-4.1,79,-8,12000,22.224,,,200,,,,,,,,,,,wg-a,,,,AAXX 06034 07460 12562 72012 11050 21080 39553 49959 58041 60006 81514 90300=
07460,1996-02-06 06:00:00,-2,991.9,-3.4,86,-4,12000,18.52,,,210,-5.2,-1.8,,1,,,1,,,71,wg-a,,2,,AAXX 06064 07460 02462 82110 11020 21040 39519 49919 56034 60014 77171 8357/ 90600 333 11018 21052 4/002 60017=
07460,1996-02-06 09:00:00,0,990.2,,86,-2,12000,22.224,,,190,,,,2,,,,,,22,wg-a,,,,AAXX 06094 07460 12462 /1912 10000 21020 39505 49902 60027 72272 8557/ 90900=
07460,1996-02-06 12:00:00,3,990,,75,-1,12000,7.408,,,240,,,,,,,,,,61,wg-a,,,,AAXX 06124 07460 02662 82404 10030 21010 39508 49900 60026 76176 8657/ 91200 333 61000=
07460,1996-02-06 15:00:00,1,994.2,3.7,93,0,4000,3.704,,,90,,,,2,,,,,,10,wg-a,,,,AAXX 06154 07460 12440 80902 10010 20000 39545 49942 53037 60027 71062 8557/ 91500=
07460,1996-02-06 18:00:00,3,998.3,4.2,87,1,10000,7.408,,,330,-1.8,3.5,,,,,,,,2,wg-a,,1,,AAXX 06184 07460 02560 83304 10030 20010 39587 49983 51042 61000 70262 875// 91800 333 10035 21018 4/001 ////=
07460,1996-02-06 21:00:00,3,1002.1,3.7,87,1,12000,14.816,,,340,,,,,,,,,,60,wg-a,,,,AAXX 06214 07460 02562 83408 10030 20010 39624 40021 52037 61000 76065 875// 92100 333 ////=
07460,1996-02-07 00:00:00,3,1003.7,1.5,75,-1,12000,11.112,,,300,,,,,,,,,,21,wg-a,,,,AAXX 07004 07460 02562 73006 10030 21010 39639 40037 51015 61000 72186 875// 90000 333 6100=
07460,1996-02-07 03:00:00,3,1004.2,0.4,70,-2,12000,11.112,,,300,,,,,,,,,,,wg-a,,,,AAXX 07034 07460 12562 73006 10030 21020 39644 40042 50004 60006 875// 90300=
07460,1996-02-07 06:00:00,2,1003.5,-0.9,69,-3,13000,14.816,,,250,1.4,3.1,,,,,4,,,1,wg-a,,1,,AAXX 07064 07460 02563 52508 10020 21030 39635 40035 58009 60044 70172 85500 90600 333 10031 20014 4/001 61000=
07460,1996-02-07 09:00:00,1,999.9,-3.7,86,-1,25000,22.224,,,180,,,,,,,,,,,wg-a,,,,AAXX 07094 07460 12675 71812 10010 21010 39600 49999 58037 60006 8152/ 90900=
07460,1996-02-07 12:00:00,2,995.1,-4.3,75,-2,6000,25.928,,,180,,,,,,,,,,71,wg-a,,,,AAXX 07124 07460 02556 81814 10020 21020 39555 49951 58043 61000 77171 8157/ 91200 333 6100=
07460,1996-02-07 15:00:00,4,990.1,-4.5,81,1,15000,29.632,,53.708,200,,,,0,,,,,,1,wg-a,,,,AAXX 07154 07460 12665 72016 10040 20010 39510 49901 56045 60007 70172 8557/ 91500 333 91029=
07460,1996-02-07 18:00:00,5,989.8,-0.1,70,0,12000,29.632,,,230,0.9,6.3,,0,,,,,,3,wg-a,,,,AAXX 07184 07460 12662 72316 10050 20000 39509 49898 58001 60007 70376 8457/ 91800 333 10063 20009=
07460,1996-02-07 21:00:00,6,986.8,-2.8,70,1,14000,25.928,,,180,,,,,,,,,,21,wg-a,,,,AAXX 07214 07460 02564 71814 10060 20010 39481 49868 56028 61000 72162 8487/ 92100 333 ////=
07460,1996-02-08 00:00:00,5,989.7,2.7,81,2,12000,14.816,,,290,,,,,,,,,,60,wg-a,,,,AAXX 08004 07460 02462 72908 10050 20020 39508 49897 53027 61000 76086 8587/ 90000 333 6100=
07460,1996-02-08 03:00:00,2,1001.3,0.6,80,-1,7000,35.188,,61.116,320,,,,0,,,,,,61,wg-a,,,,AAXX 08034 07460 12457 73219 10020 21010 39614 40013 53106 60007 76166 8687/ 90300 333 91033=
07460,1996-02-08 06:00:00,2,1008.9,7.3,75,-2,14000,25.928,,50.004,330,0.8,6.1,,,,,1,,,68,wg-a,,,,AAXX 08064 07460 02564 73314 10020 21020 39687 40089 51073 60014 76876 8557/ 90600 333 10061 20008 61000 91027=
07460,1996-02-08 09:00:00,1,1013.6,4.5,75,-3,12000,25.928,,,310,,,,,,,,,,3,wg-a,,,,AAXX 08094 07460 02562 73114 10010 21030 39732 40136 53045 61000 70376 8657/ 90900 333 ////=
07460,1996-02-08 12:00:00,2,1016.3,2.7,69,-3,12000,22.224,,,340,,,,,,,,,,3,wg-a,,,,AAXX 08124 07460 02562 63412 10020 21030 39759 40163 51027 61000 70376 86800 91200 333 ////=
07460,1996-02-08 15:00:00,4,1018.2,2.1,65,-2,12000,29.632,,,320,,,,,,,,,,1,wg-a,,,,AAXX 08154 07460 02562 53216 10040 21020 39779 40182 53021 61000 70187 85800 91500 333 ////=
07460,1996-02-08 18:00:00,3,1022.2,3.6,70,-2,12000,11.112,,,340,0.9,3.8,,,,,,,,1,wg-a,,,,AAXX 08184 07460 02562 /3406 10030 21020 39816 40222 53036 61000 70187 86800 91800 333 10038 20009 ////=
07460,1996-02-08 21:00:00,1,1024,1.5,75,-3,12000,3.704,,,210,,,,,,,,,,,wg-a,,,,AAXX 08214 07460 12562 22102 10010 21030 39831 40240 51015 60006 82800 92100=
07460,1996-02-09 00:00:00,-2,1024.3,-0.3,86,-4,15000,0,,,0,,,,,,,,,,,wg-a,,,,AAXX 09004 07460 12665 /0000 11020 21040 39829 40243 58003 60006 81500 90000=
07460,1996-02-09 03:00:00,-4,1023.2,-1.4,93,-5,12000,3.704,,,220,,,,,,,,,,,wg-a,,,,AAXX 09034 07460 12562 72202 11040 21050 39816 40232 58014 60006 875// 90300=
07460,1996-02-09 06:00:00,-4,1022.6,-0.5,86,-6,12000,3.704,,,100,-4.4,2.5,,,,,,,,,wg-a,,,,AAXX 09064 07460 02/62 01002 11040 21060 39810 40226 58005 60006 80000 90600 333 10025 21044 61000=
07460,1996-02-09 09:00:00,-1,1020.9,-1.1,86,-3,15000,11.112,,,160,,,,,,,,,,,wg-a,,,,AAXX 09094 07460 12/65 71606 11010 21030 39799 40209 58011 60006 80001 90900=
07460,1996-02-09 12:00:00,4,1017.2,-2.8,65,-2,500,25.928,,,180,,,,,,,,,,,wg-a,,,,AAXX 09124 07460 12/00 61814 10040 21020 39771 40172 58028 60006 80002 91200=
07460,1996-02-09 15:00:00,6,1014,-2.8,42,-6,500,22.224,,,150,,,,,,,,,,,wg-a,,,,AAXX 09154 07460 12/00 61512 10060 21060 39742 40140 56028 60006 81032 91500=
07460,1996-02-09 18:00:00,3,1014,-0.4,75,-1,20000,7.408,,,90,-5.1,6.7,,,,,,,,,wg-a,,,,AAXX 09184 07460 12870 70904 10030 21010 39738 40140 56004 60006 84032 91800 333 10067 21051=
07460,1996-02-09 21:00:00,1,1013.8,-0.4,86,-1,15000,0,,,0,,,,,,,,,,,wg-a,,,,AAXX 09214 07460 12765 70000 10010 21010 39734 40138 55004 60006 81532 92100=
07460,1996-02-10 00:00:00,3,1014.3,0.7,70,-2,15000,7.408,,,290,,,,,,,,,,,wg-a,,,,AAXX 10004 07460 12765 82904 10030 21020 39741 40143 52007 60006 82532 90000=
07460,1996-02-10 03:00:00,7,1014.5,0.8,66,1,15000,11.112,,35.188,200,,,,,,,,,,,wg-a,,,,AAXX 10034 07460 12665 /2006 10070 20010 39748 40145 53008 60006 83532 90300 333 91019=
07460,1996-02-10 06:00:00,4,1016.1,1,70,-1,15000,11.112,,,190,0.6,6.7,,,,,,,,,wg-a,,,,AAXX 10064 07460 02565 31906 10040 21010 39759 40161 51010 60006 82530 90600 333 10067 20006 60004=
07460,1996-02-10 09:00:00,8,1016.6,1.1,57,0,15000,14.816,,,200,,,,,,,,,,,wg-a,,,,AAXX 10094 07460 12665 22008 10080 20000 39770 40166 51011 60006 82801 90900=
07460,1996-02-10 12:00:00,9,1015.7,-0.7,57,1,15000,22.224,,,250,,,,,,,,,,,wg-a,,,,AAXX 10124 07460 12665 52512 10090 20010 39763 40157 58007 60006 84830 91200=
07460,1996-02-10 15:00:00,9,1015,-0.8,57,1,14000,11.112,,,220,,,,,,,,,,,wg-a,,,,AAXX 10154 07460 12664 52206 10090 20010 39756 40150 57008 60006 84830 91500=
07460,1996-02-10 18:00:00,6,1016.2,0.9,65,0,15000,31.484,,,250,2.4,10.2,,,,,,,,,wg-a,,,,AAXX 10184 07460 12565 62517 10060 20000 39764 40162 53009 60006 84830 91800 333 10102 20024=
07460,1996-02-10 21:00:00,6,1016.5,0.2,65,0,14000,18.52,,,220,,,,,,,,,,,wg-a,,,,AAXX 10214 07460 12564 42210 10060 20000 39766 40165 50002 60006 84800 92100=
07460,1996-02-11 00:00:00,5,1016.8,0.2,75,1,14000,7.408,,,120,,,,,,,,,,,wg-a,,,,AAXX 11004 07460 12564 41204 10050 20010 39768 40168 50002 60006 84830 90000=
07460,1996-02-11 03:00:00,2,1017.3,-0,80,-1,14000,7.408,,,150,,,,,,,,,,,wg-a,,,,AAXX 11034 07460 12564 51504 10020 21010 39768 40173 55000 60006 8553/ 90300=
07460,1996-02-11 06:00:00,2,1018.1,0.7,80,-1,14000,3.704,,,160,0.8,6.4,,,,,,,,,wg-a,,,,AAXX 11064 07460 02564 41602 10020 21010 39776 40181 53007 60006 84800 90600 333 10064 20008 60004=
07460,1996-02-11 09:00:00,5,1018.1,0.4,75,1,15000,14.816,,,170,,,,,,,,,,,wg-a,,,,AAXX 11094 07460 12565 31708 10050 20010 39780 40181 50004 60006 83800 90900=
07460,1996-02-11 12:00:00,9,1017.5,0,53,0,15000,22.224,,,250,,,,,,,,,,,wg-a,,,,AAXX 11124 07460 12565 32512 10090 20000 39780 40175 50000 60006 83800 91200=
07460,1996-02-11 15:00:00,8,1017.2,-0.4,57,0,15000,14.816,,,250,,,,,,,,,,,wg-a,,,,AAXX 11154 07460 12665 42508 10080 20000 39776 40172 57004 60006 84800 91500=
07460,1996-02-11 18:00:00,6,1018.7,1.2,75,2,11000,7.408,,,330,0.7,9.1,,,,,,,,,wg-a,,,,AAXX 11184 07460 12/61 /3304 10060 20020 39787 40187 53012 60006 91800 333 10091 20007=
07460,1996-02-11 21:00:00,6,1019.2,,70,1,12000,11.112,,,240,,,,,,,,,,,wg-a,,,,AAXX 11214 07460 32462 /2406 10060 20010 39791 40192 84830 92100=
07460,1996-02-12 00:00:00,5,1018.5,-0.7,75,1,14000,14.816,,,170,,,,,,,,,,3,wg-a,,,,AAXX 12004 07460 02464 /1708 10050 20010 39784 40185 58007 61000 70386 85801 90000 333 6100=
07460,1996-02-12 03:00:00,5,1016.6,-1.8,81,2,14000,14.816,,,170,,,,,,,,,,3,wg-a,,,,AAXX 12034 07460 12464 71708 10050 20020 39766 40166 58018 60006 70386 878// 90300=
07460,1996-02-12 06:00:00,5,1013.3,-3.1,81,2,14000,18.52,,,190,4.2,10.1,,,,,,,,25,wg-a,,,,AAXX 12064 07460 02464 71910 10050 20020 39735 40133 58031 61000 72586 86830 90600 333 10101 20042 6100=
07460,1996-02-12 09:00:00,8,1009.7,-3,71,3,12000,31.484,,,200,,,,,,,,,,,wg-a,,,,AAXX 12094 07460 12562 72017 10080 20030 39704 40097 58030 60006 8557/ 90900=
07460,1996-02-12 12:00:00,9,1004.9,-4.5,66,3,12000,46.3,,,160,,,,,,,,,,15,wg-a,,,,AAXX 12124 07460 02662 71625 10090 20030 39659 40049 57045 61000 71562 8454/ 91200 333 6100=
07460,1996-02-12 15:00:00,10,999.4,-5.1,71,5,10000,38.892,,57.412,230,,,,0,,,,,,21,wg-a,,,,AAXX 12154 07460 12560 /2321 10100 20050 39608 49994 56051 60007 72162 83970 91500 333 91031=
07460,1996-02-12 18:00:00,7,1001.3,1.4,53,-2,15000,46.3,,,260,5,11.7,,3,,,,,,1,wg-a,,,,AAXX 12184 07460 12665 /2625 10070 21020 39621 40013 51014 60037 70161 81500 91800 333 10117 20050=
07460,1996-02-12 21:00:00,6,1001.8,0.6,70,1,8000,42.596,,62.968,270,,,,,,,,,,,wg-a,,,,AAXX 12214 07460 12658 /2723 10060 20010 39626 40018 51006 60006 81500 92100 333 91034=
07460,1996-02-13 00:00:00,7,1002.1,0.3,70,2,12000,35.188,,55.56,270,,,,0,,,,,,1,wg-a,,,,AAXX 13004 07460 02562 /2719 10070 20020 39629 40021 50003 60006 70161 81500 90000 333 60007 91030=
07460,1996-02-13 03:00:00,6,1004.4,2.2,70,1,12000,31.484,,51.856,280,,,,1,,,,,,2,wg-a,,,,AAXX 13034 07460 12562 /2817 10060 20010 39651 40044 51022 60017 70260 81500 90300 333 91028=
07460,1996-02-13 06:00:00,5,1006.8,2.1,75,1,10000,14.816,,,260,4.8,7.1,,,,,4,,,60,wg-a,,,,AAXX 13064 07460 02560 /2608 10050 20010 39672 40068 51021 60044 76061 86500 90600 333 10071 20048 61000=
07460,1996-02-13 09:00:00,6,1008.5,1.8,56,-2,14000,7.408,,,230,,,,0,,,,,,3,wg-a,,,,AAXX 13094 07460 12564 42304 10060 21020 39689 40085 52018 60007 70361 84800 90900=
07460,1996-02-13 12:00:00,6,1009.3,0.7,65,0,15000,18.52,,,290,,,,,,,,,,3,wg-a,,,,AAXX 13124 07460 12565 72910 10060 20000 39697 40093 51007 60006 70361 878// 91200=
07460,1996-02-13 15:00:00,4,1010.3,0.9,87,2,12000,18.52,,,290,,,,1,,,,,,21,wg-a,,,,AAXX 13154 07460 12562 /2910 10040 20020 39705 40103 53009 60017 72162 86800 91500=
07460,1996-02-13 18:00:00,4,1012,1.5,75,0,11000,11.112,,,320,3.6,6.7,,,,,,,,,wg-a,,,,AAXX 13184 07460 32/61 /3206 10040 20000 39721 40120 53015 91800 333 10067 20036=
07460,1996-02-13 21:00:00,3,1014,1.6,87,1,12000,7.408,,,340,,,,0,,,,,,25,wg-a,,,,AAXX 13214 07460 12262 73404 10030 20010 39738 40140 51016 60007 72586 875// 92100=
07460,1996-02-14 00:00:00,1,1015.2,0.9,93,0,8000,14.816,,,350,,,,1,,,,,,85,wg-a,,,,AAXX 14004 07460 02458 73508 10010 20000 39747 40152 52009 60016 78587 875// 90000 333 60017=
07460,1996-02-14 03:00:00,0,1016.6,1.2,93,-1,3000,11.112,,,360,,,,1,,,,,,71,wg-a,,,,AAXX 14034 07460 12230 73606 10000 21010 39759 40166 52012 60017 77187 875// 90300=
07460,1996-02-14 06:00:00,0,1018.7,2.1,86,-2,7000,18.52,,,360,-0.2,4.1,,0,,,3,,,71,wg-a,,1,,AAXX 14064 07460 02257 83610 10000 21020 39779 40187 52021 60034 77187 885// 90600 333 10041 21002 4/001 60007=
07460,1996-02-14 09:00:00,0,1021.8,2.9,93,-1,7000,22.224,,,360,,,,,,,,,,22,wg-a,,,,AAXX 14094 07460 02257 83612 10000 21010 39809 40218 51029 61000 72272 885// 90900 333 ////=
07460,1996-02-14 12:00:00,0,1021.8,2.9,93,-1,7000,22.224,,,360,,,,,,,,,,22,wg-a,,,,AAXX 14124 07460 02257 83612 10000 21010 39809 40218 51029 61000 72272 885// 91200 333 ////=
07460,1996-02-14 15:00:00,1,1025.4,1.4,86,-1,6000,22.224,,,360,,,,,,,,,,3,wg-a,,,,AAXX 14154 07460 12456 73612 10010 21010 39845 40254 53014 60006 70372 875// 91500=
07460,1996-02-14 18:00:00,1,1027.7,2.1,86,-1,7000,22.224,,,360,-0.1,0.9,,,,,,,,22,wg-a,,0,,AAXX 14184 07460 02457 73612 10010 21010 39866 40277 53021 61000 72272 875// 91800 333 10009 21001 4/9999 ////=
07460,1996-02-14 21:00:00,1,1029.8,2,86,-1,10000,22.224,,,360,,,,,,,,,,,wg-a,,,,AAXX 14214 07460 12460 73612 10010 21010 39886 40298 51020 60006 875// 92100=
07460,1996-02-15 00:00:00,0,1030.9,1.1,86,-2,10000,22.224,,,10,,,,,,,,,,,wg-a,,,,AAXX 15004 07460 12560 80112 10000 21020 39897 40309 51011 60006 888// 90000=
07460,1996-02-15 03:00:00,0,1031.7,0.7,86,-2,11000,25.928,,,360,,,,,,,,,,,wg-a,,,,AAXX 15034 07460 12561 83614 10000 21020 39904 40317 53007 60006 888// 90300=
07460,1996-02-15 06:00:00,0,1033.2,1.4,80,-3,13000,18.52,,,10,-0.3,0.6,,,,,,,,,wg-a,,,,AAXX 15064 07460 02563 80110 10000 21030 39918 40332 53014 60006 888// 90600 333 10006 21003 61000=
07460,1996-02-15 09:00:00,0,1034.4,1,86,-2,12000,14.816,,,10,,,,,,,,,,,wg-a,,,,AAXX 15094 07460 12462 80108 10000 21020 39929 40344 53010 60006 888// 90900=
07460,1996-02-15 12:00:00,1,1034.2,0.2,69,-4,15000,18.52,,,360,,,,,,,,,,,wg-a,,,,AAXX 15124 07460 12465 83610 10010 21040 39929 40342 50002 60006 888// 91200=
07460,1996-02-15 15:00:00,1,1033.6,-0.4,75,-3,15000,18.52,,,360,,,,,,,,,,,wg-a,,,,AAXX 15154 07460 12565 83610 10010 21030 39924 40336 56004 60006 885// 91500=
07460,1996-02-15 18:00:00,1,1034.2,0.5,75,-3,15000,11.112,,,360,-0.5,1.4,,,,,,,,,wg-a,,,,AAXX 15184 07460 12565 73606 10010 21030 39929 40342 53005 60006 875// 91800 333 10014 21005=
07460,1996-02-15 21:00:00,0,1034.4,0.1,74,-4,14000,11.112,,,330,,,,,,,,,,,wg-a,,,,AAXX 15214 07460 12564 73306 10000 21040 39930 40344 51001 60006 86501 92100=
07460,1996-02-16 00:00:00,0,1034.3,-0,74,-4,14000,7.408,,,340,,,,,,,,,,,wg-a,,,,AAXX 16004 07460 12564 73404 10000 21040 39929 40343 55000 60006 86501 90000=
07460,1996-02-16 03:00:00,0,1033.5,-0.8,74,-4,14000,7.408,,,350,,,,,,,,,,,wg-a,,,,AAXX 16034 07460 12564 73504 10000 21040 39921 40335 56008 60006 86501 90300=
07460,1996-02-16 06:00:00,-1,1032.6,-1,80,-4,14000,0,,,0,-1.1,0.8,,,,,,,,,wg-a,,,,AAXX 16064 07460 02564 70000 11010 21040 39911 40326 58010 60006 86501 90600 333 10008 21011 60004=
07460,1996-02-16 09:00:00,0,1033.6,1.1,80,-3,15000,3.704,,,20,,,,,,,,,,,wg-a,,,,AAXX 16094 07460 12565 80202 10000 21030 39922 40336 51011 60006 8653/ 90900=
07460,1996-02-16 12:00:00,3,1032.1,-0.9,65,-3,15000,3.704,,,120,,,,,,,,,,,wg-a,,,,AAXX 16124 07460 12565 71202 10030 21030 39912 40321 58009 60006 8587/ 91200=
07460,1996-02-16 15:00:00,5,1030.4,-1.4,60,-2,12000,0,,,0,,,,,,,,,,,wg-a,,,,AAXX 16154 07460 12562 70000 10050 21020 39898 40304 56014 60006 8587/ 91500=
07460,1996-02-16 18:00:00,4,1030.1,-0.4,75,0,12000,7.408,,,160,-1.3,4.6,,,,,,,,3,wg-a,,,,AAXX 16184 07460 02462 81604 10040 20000 39894 40301 56004 61000 70362 8657/ 91800 333 10046 21013 ////=
07460,1996-02-16 21:00:00,4,1030.5,0.4,87,2,12000,7.408,,,100,,,,,,,,,,,wg-a,,,,AAXX 16214 07460 12362 81004 10040 20020 39898 40305 50004 60006 875// 92100=
07460,1996-02-17 00:00:00,4,1030.1,-0.4,81,1,12000,3.704,,,150,,,,,,,,,,,wg-a,,,,AAXX 17004 07460 12562 81502 10040 20010 39894 40301 56004 60006 875// 90000=
07460,1996-02-17 03:00:00,5,1028.7,-1.1,87,3,12000,0,,,0,,,,,,,,,,,wg-a,,,,AAXX 17034 07460 12662 80000 10050 20030 39883 40287 58011 60006 875// 90300=
07460,1996-02-17 06:00:00,2,1028.4,-0.7,93,1,15000,7.408,,,110,1.4,6.1,,,,,,,,,wg-a,,,,AAXX 17064 07460 02565 31104 10020 20010 39876 40284 56007 60006 83500 90600 333 10061 20014 61000=
07460,1996-02-17 09:00:00,6,1028.2,0.3,70,1,14000,18.52,,,330,,,,,,,,,,,wg-a,,,,AAXX 17094 07460 12564 73310 10060 20010 39879 40282 53003 60006 875// 90900=
07460,1996-02-17 12:00:00,6,1027.5,-0.6,75,2,14000,18.52,,,320,,,,,,,,,,,wg-a,,,,AAXX 17124 07460 12564 73210 10060 20020 39872 40275 58006 60006 875// 91200=
07460,1996-02-17 15:00:00,6,1027.3,-0.1,70,1,14000,11.112,,,300,,,,,,,,,,2,wg-a,,,,AAXX 17154 07460 02664 73006 10060 20010 39871 40273 55001 61000 70252 875// 91500 333 ////=
07460,1996-02-17 18:00:00,6,1028.1,0.7,70,1,14000,7.408,,,300,1.7,6.5,,,,,,,,3,wg-a,,,,AAXX 17184 07460 32564 73004 10060 20010 39878 40281 53007 70352 878// 91800 333 10065 20017=
07460,1996-02-17 21:00:00,6,1027.9,-0.2,70,1,15000,11.112,,,270,,,,,,,,,,,wg-a,,,,AAXX 17214 07460 12665 72706 10060 20010 39876 40279 58002 60006 875// 92100=
07460,1996-02-18 00:00:00,5,1026.3,-1.6,81,2,12000,7.408,,,250,,,,,,,,,,,wg-a,,,,AAXX 18004 07460 12562 72504 10050 20020 39860 40263 57016 60006 878// 90000=
07460,1996-02-18 03:00:00,5,1023.2,-3.1,81,2,12000,3.704,,,260,,,,,,,,,,,wg-a,,,,AAXX 18034 07460 12562 72602 10050 20020 39829 40232 58031 60006 878// 90300=
07460,1996-02-18 06:00:00,5,1021.3,-1.6,70,0,12000,14.816,,,240,3.7,6.1,,,,,,,,,wg-a,,,,AAXX 18064 07460 02562 72408 10050 20000 39812 40213 56016 60006 875// 90600 333 10061 20037 61000=
07460,1996-02-18 09:00:00,7,1017.5,-3.3,70,2,25000,18.52,,,230,,,,,,,,,,,wg-a,,,,AAXX 18094 07460 12575 /2310 10070 20020 39778 40175 56033 60006 85501 90900=
07460,1996-02-18 12:00:00,9,1012.4,-4.7,53,0,25000,25.928,,35.188,190,,,,,,,,,,,wg-a,,,,AAXX 18124 07460 12575 71914 10090 20000 39731 40124 58047 60006 83542 91200 333 91019=
07460,1996-02-18 15:00:00,7,1007.3,-5,76,3,12000,25.928,,42.596,210,,,,0,,,,,,60,wg-a,,,,AAXX 18154 07460 12562 72114 10070 20030 39680 40073 56050 60007 76062 8557/ 91500 333 91023=
07460,1996-02-18 18:00:00,5,1007.4,-0.2,81,2,7000,25.928,,,350,4.8,11.2,,1,,,,,,61,wg-a,,,,AAXX 18184 07460 12557 83514 10050 20020 39678 40074 55002 60017 76162 8557/ 91800 333 10112 20048=
07460,1996-02-18 21:00:00,5,1004.5,-2.8,70,0,12000,18.52,,,230,,,,2,,,,,,1,wg-a,,,,AAXX 18214 07460 12662 82310 10050 20000 39650 40045 58028 60027 70162 8457/ 92100=
07460,1996-02-19 00:00:00,5,1002.2,-2.3,70,0,12000,7.408,,,240,,,,,,,,,,3,wg-a,,,,AAXX 19004 07460 12562 82404 10050 20000 39627 40022 58023 60026 70362 8457/ 90000=
07460,1996-02-19 03:00:00,3,1001.2,-1.1,81,0,12000,7.408,,,140,,,,,,,,,,,wg-a,,,,AAXX 19034 07460 12562 81404 10030 20000 39616 40012 55011 60006 8457/ 90300=
07460,1996-02-19 06:00:00,3,1000.1,-1.1,75,-1,12000,11.112,,33.336,170,2.1,5.3,,,,,4,,,,wg-a,,,,AAXX 19064 07460 12562 61706 10030 21010 39605 40001 56011 60044 84530 90600 333 10053 20021 91018=
07460,1996-02-19 09:00:00,5,999.5,-0.4,65,-1,14000,14.816,,,230,,,,,,,,,,,wg-a,,,,AAXX 19094 07460 12564 72308 10050 21010 39601 49995 58004 60006 84831 90900=
07460,1996-02-19 12:00:00,5,998.3,-1,75,1,10000,3.704,,,240,,,,,,,,,,25,wg-a,,,,AAXX 19124 07460 02560 72402 10050 20010 39590 49983 58010 61000 72586 85831 91200 333 6100=
07460,1996-02-19 15:00:00,2,1000.5,1.6,80,-1,10000,25.928,,44.448,340,,,,,,,,,,25,wg-a,,,,AAXX 19154 07460 02460 73414 10020 21010 39607 40005 53016 61000 72586 878// 91500 333 //// 91024=
07460,1996-02-19 18:00:00,1,1003.3,2.6,75,-3,12000,14.816,,,360,1.2,7.1,,,,,,,,1,wg-a,,,,AAXX 19184 07460 32462 73608 10010 21030 39633 40033 51026 70186 878// 91800 333 10071 20012=
07460,1996-02-19 21:00:00,0,1006.4,2.8,74,-4,14000,18.52,,,340,,,,,,,,,,70,wg-a,,,,AAXX 19214 07460 02464 73410 10000 21040 39661 40064 51028 61000 77087 878// 92100 333 ////=
07460,1996-02-20 00:00:00,-1,1008.7,2.1,64,-7,14000,14.816,,,330,,,,,,,,,,22,wg-a,,,,AAXX 20004 07460 02564 63308 11010 21070 39681 40087 52021 61000 72287 8683/ 90000 333 6100=
07460,1996-02-20 03:00:00,-3,1009.4,0.4,68,-8,14000,11.112,,,310,,,,,,,,,,,wg-a,,,,AAXX 20034 07460 12464 43106 11030 21080 39685 40094 50004 60006 8483/ 90300=
07460,1996-02-20 06:00:00,-4,1010.8,1.1,74,-8,14000,7.408,,,320,-4.4,1.3,,,,,,,,,wg-a,,,,AAXX 20064 07460 02564 53204 11040 21080 39697 40108 51011 61000 85800 90600 333 10013 21044 ////=
07460,1996-02-20 09:00:00,-2,1010.9,0.6,63,-8,20000,11.112,,,40,,,,,,,,,,,wg-a,,,,AAXX 20094 07460 12670 20406 11020 21080 39702 40109 53006 60006 81101 90900=
07460,1996-02-20 12:00:00,-1,1010.8,0,54,-9,20000,14.816,,,340,,,,,,,,,,,wg-a,,,,AAXX 20124 07460 12670 43408 11010 21090 39702 40108 50000 60006 84200 91200=
07460,1996-02-20 15:00:00,-1,1011.2,0.4,50,-10,20000,11.112,,,320,,,,,,,,,,,wg-a,,,,AAXX 20154 07460 12670 /3206 11010 21100 39706 40112 50004 60006 85200 91500=
07460,1996-02-20 18:00:00,-2,1012.2,0.8,69,-7,12000,7.408,,,340,-4.2,0,,,,,,,,2,wg-a,,,,AAXX 20184 07460 02562 /3404 11020 21070 39714 40122 53008 61000 70287 86500 91800 333 10000 21042 ////=
07460,1996-02-20 21:00:00,-2,1012.5,0.2,80,-5,7000,0,,,0,,,,,,,,,,70,wg-a,,,,AAXX 20214 07460 02557 /0000 11020 21050 39716 40125 50002 61000 77072 86800 92100 333 ////=
07460,1996-02-21 00:00:00,-2,1012.5,0.1,86,-4,500,18.52,,,360,,,,,,,,,,71,wg-a,,,,AAXX 21004 07460 02400 73610 11020 21040 39716 40125 53001 61000 77172 875// 90000 333 6100=
07460,1996-02-21 03:00:00,-2,1011.2,-1.2,86,-4,500,18.52,,,340,,,,,,,,,,,wg-a,,,,AAXX 21034 07460 02400 73410 11020 21040 39704 40112 57012 61000 875// 90300 333 ////=
07460,1996-02-21 06:00:00,-2,1010.8,-0.4,93,-3,500,25.928,,,350,-3,-1.7,,0,,,,,,10,wg-a,,2,,AAXX 21064 07460 02400 73514 11020 21030 39700 40108 56004 60004 71077 875// 90600 333 11017 21030 4/002 60007=
07460,1996-02-21 09:00:00,-3,1012.7,1.7,100,-3,800,25.928,,,350,,,,,,,,,,73,wg-a,,,,AAXX 21094 07460 02308 83514 11030 21030 39717 40127 53017 61000 77377 887// 90900 333 ////=
07460,1996-02-21 12:00:00,-3,1014.4,1.7,86,-5,7000,29.632,,53.708,340,,,,,,,,,,71,wg-a,,,,AAXX 21124 07460 02457 83416 11030 21050 39733 40144 51017 61000 77177 887// 91200 333 6100 91029=
07460,1996-02-21 15:00:00,-3,1015.9,1.5,80,-6,500,25.928,,50.004,340,,,,,,,,,,1,wg-a,,,,AAXX 21154 07460 02400 83414 11030 21060 39747 40159 53015 61000 70172 885// 91500 333 //// 91027=
07460,1996-02-21 18:00:00,-4,1018.8,2.5,74,-8,9000,22.224,,50.004,340,-4.4,-1.7,,,,,,,,1,wg-a,,3,,AAXX 21184 07460 32559 83412 11040 21080 39773 40188 53025 70172 875// 91800 333 11017 21044 4/003 91027=
07460,1996-02-21 21:00:00,-5,1021.2,2.3,79,-8,9000,14.816,,,340,,,,,,,,,,70,wg-a,,,,AAXX 21214 07460 02259 83408 11050 21080 39795 40212 51023 61000 77072 875// 92100 333 ////=
07460,1996-02-22 00:00:00,-6,1022.4,1.1,86,-8,6000,7.408,,,340,,,,,,,,,,70,wg-a,,,,AAXX 22004 07460 02456 73404 11060 21080 39806 40224 53011 61000 77072 875// 90000 333 6100=
07460,1996-02-22 03:00:00,-6,1022.5,0,79,-9,8000,11.112,,,340,,,,,,,,,,70,wg-a,,,,AAXX 22034 07460 02458 73406 11060 21090 39806 40225 50000 61000 77072 875// 90300 333 ////=
07460,1996-02-22 06:00:00,-7,1024,1.3,79,-10,9000,7.408,,,350,-6.8,-4.4,,,,,,,,22,wg-a,,3,,AAXX 22064 07460 02459 83504 11070 21100 39820 40240 51013 61000 72272 875// 90600 333 11044 21068 4/003 6100=
07460,1996-02-22 09:00:00,-6,1025.9,1.9,68,-11,12000,14.816,,,330,,,,,,,,,,,wg-a,,,,AAXX 22094 07460 12562 /3308 11060 21110 39839 40259 52019 60006 85500 90900=
07460,1996-02-22 12:00:00,-3,1025.3,-0.1,54,-11,20000,18.52,,,350,,,,,,,,,,,wg-a,,,,AAXX 22124 07460 12670 33510 11030 21110 39838 40253 58001 60006 83800 91200=
07460,1996-02-22 15:00:00,-2,1024.7,-0.4,54,-10,20000,18.52,,,340,,,,,,,,,,,wg-a,,,,AAXX 22154 07460 12670 63410 11020 21100 39834 40247 56004 60006 84531 91500=
07460,1996-02-22 18:00:00,-2,1024.5,-0.3,59,-9,15000,0,,,0,-6.6,-1.5,,,,,,,,,wg-a,,1,,AAXX 22184 07460 12665 70000 11020 21090 39831 40245 58003 60006 83532 91800 333 11015 21066 4/001=
07460,1996-02-22 21:00:00,-4,1023.5,-1.2,93,-5,3000,11.112,,,150,,,,,,,,,,10,wg-a,,,,AAXX 22214 07460 02230 71506 11040 21050 39819 40235 58012 61000 71072 85572 92100 333 ////=
07460,1996-02-23 00:00:00,-4,1020.3,-3.1,86,-6,8000,22.224,,,200,,,,,,,,,,71,wg-a,,,,AAXX 23004 07460 02258 72012 11040 21060 39788 40203 56031 61000 77172 8557/ 90000 333 6100=
07460,1996-02-23 03:00:00,-3,1017.7,-2.3,80,-6,13000,14.816,,,200,,,,,,,,,,71,wg-a,,,,AAXX 23034 07460 02563 72008 11030 21060 39765 40177 57023 61000 77172 875// 90300 333 ////=
07460,1996-02-23 06:00:00,-3,1017.3,-0.2,86,-5,6000,3.704,,,170,-4.3,-2.2,,,,,,,,71,wg-a,,1,,AAXX 23064 07460 02556 71702 11030 21050 39762 40173 55002 61000 77172 878// 90600 333 11022 21043 4/001 6100=
07460,1996-02-23 09:00:00,-1,1017.8,0.7,86,-3,10000,3.704,,,40,,,,0,,,,,,3,wg-a,,,,AAXX 23094 07460 12560 70402 11010 21030 39769 40178 51007 60007 70372 8683/ 90900=
07460,1996-02-23 12:00:00,3,1017,-0.2,70,-2,12000,7.408,,,110,,,,,,,,,,3,wg-a,,,,AAXX 23124 07460 12562 71104 10030 21020 39767 40170 58002 60006 70372 86830 91200=
07460,1996-02-23 15:00:00,3,1017.1,0.1,81,0,12000,3.704,,,30,,,,,,,,,,23,wg-a,,,,AAXX 23154 07460 02462 70302 10030 20000 39768 40171 53001 61000 72376 878// 91500 333 ////=
07460,1996-02-23 18:00:00,2,1018.5,1.3,87,0,9000,3.704,,,100,-2.7,3.4,,,,,,,,61,wg-a,,,,AAXX 23184 07460 02559 71002 10020 20000 39780 40185 53013 61000 76176 875// 91800 333 10034 21027 ////=
07460,1996-02-23 21:00:00,1,1019.2,0.5,93,0,9000,0,,,0,,,,0,,,,,,3,wg-a,,,,AAXX 23214 07460 12459 80000 10010 20000 39785 40192 51005 60007 70376 885// 92100=
07460,1996-02-24 00:00:00,-2,1019.5,-0.1,100,-2,12000,3.704,,,160,,,,,,,,,,1,wg-a,,,,AAXX 24004 07460 12462 21602 11020 21020 39784 40195 58001 60006 70176 82500 90000=
07460,1996-02-24 03:00:00,-1,1018.8,-0.6,86,-3,15000,3.704,,,20,,,,,,,,,,,wg-a,,,,AAXX 24034 07460 12665 /0202 11010 21030 39778 40188 58006 60006 86500 90300=
07460,1996-02-24 06:00:00,-1,1017.8,-0.9,86,-3,15000,29.632,,,190,-2.7,1.7,,,,,,,,,wg-a,,,,AAXX 24064 07460 12665 71916 11010 21030 39769 40178 57009 60004 875// 90600 333 10017 21027=
07460,1996-02-24 09:00:00,1,1017.1,-0.4,86,-1,25000,31.484,,,180,,,,,,,,,,,wg-a,,,,AAXX 24094 07460 12675 41817 10010 21010 39765 40171 57004 60006 81501 90900=
07460,1996-02-24 12:00:00,7,1015.4,-0.9,57,-1,500,22.224,,,180,,,,,,,,,,,wg-a,,,,AAXX 24124 07460 12600 /1812 10070 21010 39757 40154 58009 60006 81531 91200=
07460,1996-02-24 15:00:00,10,1013.1,-1.7,53,1,40000,18.52,,,170,,,,,,,,,,,wg-a,,,,AAXX 24154 07460 12682 /1710 10100 20010 39739 40131 56017 60006 81530 91500=
07460,1996-02-24 18:00:00,6,1013.7,-0,65,0,500,7.408,,,120,-0.9,10,,,,,,,,,wg-a,,,,AAXX 24184 07460 12600 /1204 10060 20000 39739 40137 55000 60006 81531 91800 333 10100 21009=
07460,1996-02-24 21:00:00,2,1014.2,-0.1,80,-1,20000,7.408,,,230,,,,,,,,,,,wg-a,,,,AAXX 24214 07460 12/70 22304 10020 21010 39738 40142 55001 60006 81031 92100=
07460,1996-02-25 00:00:00,4,1013.3,-0.6,75,0,20000,25.928,,,200,,,,,,,,,,,wg-a,,,,AAXX 25004 07460 12/70 22014 10040 20000 39732 40133 56006 60006 81031 90000=
07460,1996-02-25 03:00:00,4,1012.2,-1.3,70,-1,20000,38.892,,,190,,,,,,,,,,,wg-a,,,,AAXX 25034 07460 12/70 41921 10040 21010 39722 40122 56013 60006 83031 90300=
07460,1996-02-25 06:00:00,4,1011.8,-0,70,-1,20000,29.632,,,180,1.4,5.4,,,,,,,,,wg-a,,,,AAXX 25064 07460 02/70 /1816 10040 21010 39719 40118 55000 60006 82031 90600 333 10054 20014 60004=
07460,1996-02-25 09:00:00,8,1011.1,-0.2,66,2,500,50.004,,,170,,,,,,,,,,,wg-a,,,,AAXX 25094 07460 12700 31727 10080 20020 39718 40111 58002 60006 81141 90900=
07460,1996-02-25 12:00:00,12,1009.5,-1.1,54,3,500,50.004,,68.524,180,,,,,,,,,,,wg-a,,,,AAXX 25124 07460 12700 31827 10120 20030 39708 40095 58011 60006 81101 91200 333 91037=
07460,1996-02-25 14:00:00,12,1007.8,-1.5,50,2,500,57.412,,72.228,180,,,,,,,,,,,wg-a,,,,AAXX 25144 07460 12700 21831 10120 20020 39698 40078 58015 60006 8/001 91400 333 91039=
07460,1996-02-25 15:00:00,12,1007.8,-1.5,50,2,500,57.412,,,180,,,,,,,,,,,wg-a,,,,AAXX 25154 07460 12700 21831 10120 20020 39692 40078 58015 60006 81101 91500=
07460,1996-02-25 18:00:00,9,1008.7,0.6,61,2,500,53.708,,72.228,180,3.3,12.9,,,,,,,,,wg-a,,,,AAXX 25184 07460 12700 21829 10090 20020 39696 40087 53006 60006 81101 91800 333 10129 20033 91039=
07460,1996-02-25 21:00:00,8,1009.7,0.6,61,1,20000,35.188,,,180,,,,,,,,,,,wg-a,,,,AAXX 25214 07460 12770 21819 10080 20010 39704 40097 50006 60006 81501 92100=
07460,1996-02-26 00:00:00,8,1009.5,-0.2,66,2,20000,50.004,,68.524,180,,,,,,,,,,,wg-a,,,,AAXX 26004 07460 12/70 01827 10080 20020 39702 40095 55002 60006 80000 90000 333 91037=
07460,1996-02-26 06:00:00,6,1010.7,0.3,70,1,20000,31.484,,,190,5.9,9,,,,,,,,,wg-a,,,,AAXX 26064 07460 02670 21917 10060 20010 39711 40107 53003 60006 81501 90600 333 10090 20059 60004=
07460,1996-02-26 09:00:00,10,1011.6,1.4,57,2,500,38.892,,,190,,,,,,,,,,,wg-a,,,,AAXX 26094 07460 12600 31921 10100 20020 39725 40116 51014 60006 81832 90900=
07460,1996-02-26 12:00:00,9,1012,0.3,66,3,20000,29.632,,,170,,,,,,,,,,,wg-a,,,,AAXX 26124 07460 12670 71716 10090 20030 39728 40120 51003 60006 8683/ 91200=
07460,1996-02-26 15:00:00,11,1010.9,-0.7,54,2,500,18.52,,,180,,,,0,,,,,,3,wg-a,,,,AAXX 26154 07460 12600 71810 10110 20020 39720 40109 55007 60007 70386 84832 91500=
07460,1996-02-26 18:00:00,8,1013,1.5,76,4,20000,14.816,,,170,5.9,11.2,,1,,,,,,25,wg-a,,,,AAXX 26184 07460 12570 71708 10080 20040 39736 40130 53015 60017 72586 8683/ 91800 333 10112 20059=
07460,1996-02-26 21:00:00,6,1014.7,1.4,93,5,12000,7.408,,,230,,,,1,,,,,,60,wg-a,,,,AAXX 26214 07460 12562 82304 10060 20050 39750 40147 51014 60017 76086 8653/ 92100=
07460,1996-02-27 00:00:00,5,1015.9,1.1,100,5,12000,0,,,0,,,,1,,,,,,60,wg-a,,,,AAXX 27004 07460 02662 80000 10050 20050 39760 40159 53011 60026 76086 8553/ 90000 333 60017=
07460,1996-02-27 03:00:00,5,1015.9,-0.2,100,5,6000,0,,,0,,,,3,,,,,,,wg-a,,,,AAXX 27034 07460 12256 70000 10050 20050 39759 40159 58002 60037 8653/ 90300=
07460,1996-02-27 06:00:00,5,1016.9,1,100,5,500,0,,,0,4.6,8.3,,4,,,10,,,61,wg-a,,,,AAXX 27064 07460 02200 70000 10050 20050 39769 40169 53010 60104 76162 875// 90600 333 10083 20046 60047=
07460,1996-02-27 09:00:00,4,1018.7,1.6,93,3,10000,11.112,,,250,,,,7,,,,,,61,wg-a,,,,AAXX 27094 07460 12360 72506 10040 20030 39785 40187 51016 60077 76166 875// 90900=
07460,1996-02-27 12:00:00,5,1018.9,0.3,93,4,10000,11.112,,,190,,,,2,,,,,,61,wg-a,,,,AAXX 27124 07460 02360 71906 10050 20040 39788 40189 50003 60096 76166 878// 91200 333 60027=
07460,1996-02-27 15:00:00,6,1018.3,-0.4,87,4,8000,11.112,,,180,,,,1,,,,,,60,wg-a,,,,AAXX 27154 07460 12358 71806 10060 20040 39784 40183 55004 60017 76066 8553/ 91500=
07460,1996-02-27 18:00:00,5,1019.1,0.7,93,4,12000,7.408,,,160,3.6,6.1,,,,,,,,1,wg-a,,,,AAXX 27184 07460 02462 71604 10050 20040 39791 40191 53007 61000 70162 8587/ 91800 333 10061 20036 ////=
07460,1996-02-27 21:00:00,5,1020,0.9,93,4,15000,7.408,,,180,,,,,,,,,,,wg-a,,,,AAXX 27214 07460 12665 71804 10050 20040 39799 40200 51009 60006 8557/ 92100=
07460,1996-02-28 00:00:00,5,1020.1,-0.1,93,4,15000,7.408,,,160,,,,,,,,,,,wg-a,,,,AAXX 28004 07460 12665 71604 10050 20040 39799 40201 58001 60006 8357/ 90000=
07460,1996-02-28 03:00:00,4,1019.8,-0.4,100,4,7000,3.704,,,150,,,,,,,,,,,wg-a,,,,AAXX 28034 07460 12457 71502 10040 20040 39796 40198 58004 60006 875// 90300=
07460,1996-02-28 06:00:00,4,1020.4,0.5,100,4,6000,0,,,0,3.8,5.3,,,,,10,,,,wg-a,,,,AAXX 28064 07460 02356 70000 10040 20040 39801 40204 53005 60006 875// 90600 333 10053 20038 60104=
07460,1996-02-28 09:00:00,5,1021.5,1.2,100,5,6000,3.704,,,110,,,,0,,,,,,21,wg-a,,,,AAXX 28094 07460 12256 81102 10050 20050 39813 40215 52012 60007 72162 8553/ 90900=
07460,1996-02-28 12:00:00,8,1020.8,-0.1,87,6,12000,7.408,,,70,,,,,,,,,,3,wg-a,,,,AAXX 28124 07460 12562 70704 10080 20060 39812 40208 58001 60016 70362 8383/ 91200=
07460,1996-02-28 15:00:00,10,1020.3,-0.3,76,6,12000,7.408,,,40,,,,,,,,,,,wg-a,,,,AAXX 28154 07460 12562 /0404 10100 20060 39809 40203 56003 60006 86800 91500=
07460,1996-02-28 18:00:00,9,1021.7,1.2,81,6,8000,7.408,,,360,3.8,10.3,,,,,,,,,wg-a,,,,AAXX 28184 07460 32558 73604 10090 20060 39821 40217 53012 878// 91800 333 10103 20038=
07460,1996-02-28 21:00:00,8,1022.7,0.8,87,6,9000,11.112,,,340,,,,,,,,,,,wg-a,,,,AAXX 28214 07460 12559 73406 10080 20060 39829 40227 51008 60006 878// 92100=
07460,1996-02-29 03:00:00,6,1023,-0.2,93,5,6000,7.408,,,20,,,,,,,,,,,wg-a,,,,AAXX 29034 07460 12356 70204 10060 20050 39830 40230 58002 60006 875// 90300=
07460,1996-02-29 06:00:00,5,1024,0.8,100,5,4000,11.112,,,10,5.3,8.9,,,,,,,,10,wg-a,,,,AAXX 29064 07460 02240 70106 10050 20050 39838 40240 53008 60006 71022 875// 90600 333 10089 20053 60004=
07460,1996-02-29 09:00:00,6,1025.2,1.2,93,5,4000,7.408,,,10,,,,,,,,,,,wg-a,,,,AAXX 29094 07460 12/40 /0104 10060 20050 39850 40252 52012 60006 90900=
07460,1996-02-29 12:00:00,7,1026.1,0.8,87,5,7000,7.408,,,20,,,,,,,,,,,wg-a,,,,AAXX 29124 07460 12257 80204 10070 20050 39860 40261 51008 60006 885// 91200=
07460,1996-02-29 15:00:00,7,1025.8,-0.1,87,5,6000,14.816,,,30,,,,,,,,,,,wg-a,,,,AAXX 29154 07460 12256 80308 10070 20050 39858 40258 55001 60006 885// 91500=
07460,1996-02-29 18:00:00,6,1027.7,1.6,81,3,500,7.408,,,30,5.3,7.2,,,,,,,,,wg-a,,,,AAXX 29184 07460 12200 70304 10060 20030 39874 40277 53016 60006 875// 91800 333 10072 20053=
07460,1996-02-29 21:00:00,3,1028.5,0.3,87,1,9000,3.704,,,220,,,,,,,,,,,wg-a,,,,AAXX 29214 07460 12559 32202 10030 20010 39877 40285 50003 60006 83500 92100=
07460,1996-03-01 00:00:00,0,1029.1,0.2,93,-1,500,0,,,0,,,,,,,,,,,wg-a,,,,AAXX 01004 07460 12300 30000 10000 21010 39879 40291 52002 60006 83600 90000=
07460,1996-03-01 03:00:00,-2,1028.8,-0.6,93,-3,8000,0,,,0,,,,,,,,,,,wg-a,,,,AAXX 01034 07460 12/58 00000 11020 21030 39873 40288 57006 60006 80000 90300=
07460,1996-03-01 06:00:00,-2,1029.1,0.3,100,-2,3000,0,,,0,-2.9,6,,,,,,,,10,wg-a,,,,AAXX 01064 07460 02430 30000 11020 21020 39876 40291 53003 60006 71000 83500 90600 333 10060 21029 60004=
07460,1996-03-01 09:00:00,3,1029.6,1,87,1,6000,11.112,,,10,,,,,,,,,,,wg-a,,,,AAXX 01094 07460 12456 70106 10030 20010 39887 40296 51010 60006 875// 90900=
07460,1996-03-01 12:00:00,3,1028.8,-0.6,93,2,500,18.52,,,350,,,,,,,,,,,wg-a,,,,AAXX 01124 07460 12300 83510 10030 20020 39881 40288 58006 60006 875// 91200=
07460,1996-03-01 15:00:00,5,1026.9,-1.6,81,2,9000,14.816,,,10,,,,,,,,,,,wg-a,,,,AAXX 01154 07460 12459 80108 10050 20020 39865 40269 58016 60006 875// 91500=
07460,1996-03-01 18:00:00,4,1026.7,-0.4,87,2,7000,11.112,,,10,-2.3,5.2,,,,,,,,60,wg-a,,,,AAXX 01184 07460 02457 80106 10040 20020 39861 40267 55004 61000 76062 875// 91800 333 10052 21023 ////=
07460,1996-03-01 19:00:00,4,1026.7,-0.4,87,2,7000,11.112,,,10,-2.3,5.2,,,,,,,,60,wg-a,,,,AAXX 01194 07460 02457 80106 10040 20020 39861 40267 55004 61000 76062 875// 91900 333 10052 21023 ////=
07460,1996-03-01 21:00:00,3,1025.8,-0.9,93,2,9000,11.112,,,350,,,,0,,,,,,50,wg-a,,,,AAXX 01214 07460 12459 83506 10030 20020 39852 40258 57009 60007 75065 875// 92100=
07460,1996-03-02 00:00:00,4,1024.2,-1.3,93,3,7000,14.816,,,360,,,,0,,,,,,20,wg-a,,,,AAXX 02004 07460 02357 83608 10040 20030 39838 40242 58013 60016 72065 875// 90000 333 60007=
07460,1996-03-02 03:00:00,3,1022.3,-1.9,100,3,8000,14.816,,,350,,,,1,,,,,,20,wg-a,,,,AAXX 02034 07460 12158 83508 10030 20030 39819 40223 57019 60017 72052 875// 90300=
07460,1996-03-02 06:00:00,3,1021.7,-0.6,93,2,8000,22.224,,,360,3,3.9,,,,,1,,,51,wg-a,,,,AAXX 02064 07460 02358 83612 10030 20020 39813 40217 56006 60014 75165 875// 90600 333 10039 20030 61000=
07460,1996-03-02 09:00:00,3,1022.5,0.8,87,1,8000,25.928,,,360,,,,,,,,,,1,wg-a,,,,AAXX 02094 07460 02358 83614 10030 20010 39820 40225 51008 61000 70165 875// 90900 333 ////=
07460,1996-03-02 12:00:00,4,1022.3,-0.2,70,-1,14000,25.928,,,10,,,,,,,,,,1,wg-a,,,,AAXX 02124 07460 02464 /0114 10040 21010 39819 40223 58002 61000 70165 85500 91200 333 ////=
07460,1996-03-02 15:00:00,5,1021.4,-0.8,52,-4,15000,18.52,,,10,,,,,,,,,,,wg-a,,,,AAXX 02154 07460 12665 40110 10050 21040 39811 40214 56008 60006 84500 91500=
07460,1996-03-02 18:00:00,3,1021.8,0.1,56,-5,25000,11.112,,,340,2.8,5.4,,,,,,,,,wg-a,,,,AAXX 02184 07460 32675 /3406 10030 21050 39813 40218 53001 81100 91800 333 10054 20028=
07460,1996-03-02 21:00:00,1,1022.5,0.4,59,-6,15000,11.112,,,350,,,,,,,,,,,wg-a,,,,AAXX 02214 07460 12/65 03506 10010 21060 39817 40225 53004 60006 80000 92100=
07460,1996-03-03 00:00:00,-2,1022.7,-0.3,74,-6,15000,3.704,,,300,,,,,,,,,,,wg-a,,,,AAXX 03004 07460 12/65 43002 11020 21060 39814 40227 57003 60006 82031 90000=
07460,1996-03-03 03:00:00,-2,1021,-1.5,80,-5,15000,7.408,,,320,,,,,,,,,,,wg-a,,,,AAXX 03034 07460 12/65 73204 11020 21050 39799 40210 58015 60006 86032 90300=
07460,1996-03-03 06:00:00,-3,1020.7,-0.5,86,-5,15000,0,,,0,-2.9,2.8,,,,,,,,,wg-a,,,,AAXX 03064 07460 02765 80000 11030 21050 39794 40207 55005 60006 8157/ 90600 333 10028 21029 61000=
07460,1996-03-03 09:00:00,1,1020.8,0.6,69,-4,12000,3.704,,,40,,,,,,,,,,,wg-a,,,,AAXX 03094 07460 12562 70402 10010 21040 39800 40208 52006 60006 8453/ 90900=
07460,1996-03-03 12:00:00,2,1019.8,-0.9,69,-3,10000,11.112,,,20,,,,,,,,,,,wg-a,,,,AAXX 03124 07460 12460 80206 10020 21030 39792 40198 58009 60006 8583/ 91200=
07460,1996-03-03 15:00:00,2,1018.9,-0.8,75,-2,14000,14.816,,,40,,,,,,,,,,,wg-a,,,,AAXX 03154 07460 12564 80408 10020 21020 39784 40189 55008 60006 8653/ 91500=
07460,1996-03-03 18:00:00,1,1020,1.1,93,0,4000,11.112,,,10,-3.1,2.7,,,,,,,,10,wg-a,,,,AAXX 03184 07460 02440 80106 10010 20000 39793 40200 53011 61000 71052 875// 91800 333 10027 21031 ////=
07460,1996-03-03 21:00:00,1,1020,0,93,0,6000,7.408,,,20,,,,,,,,,,2,wg-a,,,,AAXX 03214 07460 02356 80204 10010 20000 39793 40200 50000 61000 70252 875// 92100 333 ////=
07460,1996-03-04 00:00:00,1,1020.6,0.5,93,0,8000,7.408,,,350,,,,,,,,,,22,wg-a,,,,AAXX 04004 07460 02458 73504 10010 20000 39798 40206 51005 61000 72275 875// 90000 333 6100=
07460,1996-03-04 03:00:00,0,1020.6,-0.2,93,-1,8000,7.408,,,350,,,,,,,,,,,wg-a,,,,AAXX 04034 07460 12658 73504 10000 21010 39797 40206 55002 60006 875// 90300=
07460,1996-03-04 06:00:00,-3,1021.5,0.5,93,-4,500,7.408,,,80,-2.7,0.9,,,,,,,,,wg-a,,,,AAXX 04064 07460 02600 70804 11030 21040 39802 40215 53005 61000 87500 90600 333 10009 21027 ////=
07460,1996-03-04 09:00:00,-1,1022.4,1.1,93,-2,3500,3.704,,,30,,,,,,,,,,10,wg-a,,,,AAXX 04094 07460 12235 20302 11010 21020 39814 40224 51011 60006 71011 81601 90900=
07460,1996-03-04 12:00:00,3,1021.8,-0.1,56,-5,15000,11.112,,,10,,,,,,,,,,,wg-a,,,,AAXX 04124 07460 12565 20106 10030 21050 39813 40218 58001 60006 81801 91200=
07460,1996-03-04 15:00:00,5,1020.7,-0.9,41,-7,25000,18.52,,,30,,,,,,,,,,,wg-a,,,,AAXX 04154 07460 12675 /0310 10050 21070 39805 40207 56009 60006 81101 91500=
07460,1996-03-04 18:00:00,3,1022,0.9,52,-6,20000,11.112,,,360,-3.4,5.3,,,,,,,,,wg-a,,,,AAXX 04184 07460 12/70 13606 10030 21060 39814 40220 53009 60006 80001 91800 333 10053 21034=
07460,1996-03-04 21:00:00,0,1023.8,1.3,69,-5,14000,7.408,,,300,,,,,,,,,,,wg-a,,,,AAXX 04214 07460 12/64 13004 10000 21050 39827 40238 51013 60006 80001 92100=
07460,1996-03-05 00:00:00,-2,1024.6,0.5,74,-6,14000,3.704,,,150,,,,,,,,,,,wg-a,,,,AAXX 05004 07460 12664 41502 11020 21060 39832 40246 51005 60006 83501 90000=
07460,1996-03-05 03:00:00,-1,1024.3,-0.1,86,-3,14000,0,,,0,,,,,,,,,,,wg-a,,,,AAXX 05034 07460 12664 /0000 11010 21030 39831 40243 57001 60006 85500 90300=
07460,1996-03-05 06:00:00,-1,1025.3,1.1,86,-3,14000,3.704,,,10,-3.1,2.5,,,,,,,,,wg-a,,,,AAXX 05064 07460 02564 /0102 11010 21030 39842 40253 53011 60006 85500 90600 333 10025 21031 60004=
07460,1996-03-05 09:00:00,1,1026.5,1.3,75,-3,12000,14.816,,,180,,,,,,,,,,,wg-a,,,,AAXX 05094 07460 12562 81808 10010 21030 39855 40265 51013 60006 875// 90900=
07460,1996-03-05 12:00:00,4,1026.2,0.2,65,-2,7000,3.704,,,60,,,,,,,,,,,wg-a,,,,AAXX 05124 07460 12557 80602 10040 21020 39857 40262 50002 60006 8353/ 91200=
07460,1996-03-05 15:00:00,6,1025.3,-0.6,65,0,12000,11.112,,,30,,,,,,,,,,,wg-a,,,,AAXX 05154 07460 12562 70306 10060 20000 39851 40253 56006 60006 8583/ 91500=
07460,1996-03-05 18:00:00,4,1026.2,0.6,75,0,7000,7.408,,,40,-0.5,6,,,,,,,,,wg-a,,,,AAXX 05184 07460 12357 80404 10040 20000 39857 40262 53006 60006 878// 91800 333 10060 21005=
07460,1996-03-05 21:00:00,3,1026.8,0.4,81,0,8000,3.704,,,340,,,,,,,,,,,wg-a,,,,AAXX 05214 07460 12658 43402 10030 20000 39861 40268 51004 60006 81530 92100=
07460,1996-03-06 00:00:00,-2,1027.2,-0.4,93,-3,8000,3.704,,,110,,,,,,,,,,,wg-a,,,,AAXX 06004 07460 12/58 01102 11020 21030 39858 40272 58004 60006 80000 90000=
07460,1996-03-06 03:00:00,-3,1026.9,-0.4,93,-4,500,3.704,,,10,,,,,,,,,,,wg-a,,,,AAXX 06034 07460 12700 70102 11030 21040 39853 40269 58004 60006 875// 90300=
07460,1996-03-06 06:00:00,-3,1026.3,-0.4,100,-3,2000,3.704,,,30,-3.9,4.1,,,,,,,,,wg-a,,,,AAXX 06064 07460 02/20 /0302 11030 21030 39848 40263 57004 60006 90600 333 10041 21039 60004=
07460,1996-03-06 09:00:00,0,1025.8,-0.1,100,0,3000,3.704,,,20,,,,,,,,,,10,wg-a,,,,AAXX 06094 07460 12330 70202 10000 20000 39847 40258 58001 60006 71022 875// 90900=
07460,1996-03-06 12:00:00,2,1024.4,-1.2,93,1,3000,11.112,,,30,,,,,,,,,,10,wg-a,,,,AAXX 06124 07460 12330 80306 10020 20010 39836 40244 58012 60006 71022 885// 91200=
07460,1996-03-06 15:00:00,2,1022.6,-1.5,87,0,4000,3.704,,,50,,,,,,,,,,10,wg-a,,,,AAXX 06154 07460 02440 80502 10020 20000 39820 40226 56015 61000 71076 875// 91500 333 ////=
07460,1996-03-06 18:00:00,2,1021.9,-0.6,93,1,4500,0,,,0,-2.7,2.3,,,,,,,,10,wg-a,,,,AAXX 06184 07460 32345 70000 10020 20010 39813 40219 55006 71076 875// 91800 333 10023 21027=
07460,1996-03-06 21:00:00,2,1021.1,-0.9,93,1,500,0,,,0,,,,,,,,,,,wg-a,,,,AAXX 06214 07460 12300 80000 10020 20010 39804 40211 58009 60006 875// 92100=
07460,1996-03-07 00:00:00,1,1019.8,-1.3,100,1,4000,11.112,,,360,,,,,,,,,,10,wg-a,,,,AAXX 07004 07460 12240 83606 10010 20010 39791 40198 56013 60006 71022 877// 90000=
07460,1996-03-07 03:00:00,1,1017,-2.7,93,0,4000,7.408,,,330,,,,,,,,,,,wg-a,,,,AAXX 07034 07460 12340 83304 10010 20000 39764 40170 58027 60006 885// 90300=
07460,1996-03-07 06:00:00,1,1015.8,-1.2,86,-1,6000,7.408,,,10,0.7,2.1,,,,,,,,,wg-a,,,,AAXX 07064 07460 02356 80104 10010 21010 39752 40158 56012 60006 885// 90600 333 10021 20007 61000=
07460,1996-03-07 09:00:00,1,1014.4,-1.3,86,-1,6000,3.704,,,350,,,,,,,,,,,wg-a,,,,AAXX 07094 07460 12356 83502 10010 21010 39739 40144 56013 60006 885// 90900=
07460,1996-03-07 12:00:00,2,1013,-1.2,80,-1,500,3.704,,,50,,,,,,,,,,,wg-a,,,,AAXX 07124 07460 12400 80502 10020 21010 39727 40130 58012 60006 875// 91200=
07460,1996-03-07 15:00:00,3,1012.3,-0.5,81,0,500,7.408,,,30,,,,,,,,,,,wg-a,,,,AAXX 07154 07460 12400 80304 10030 20000 39722 40123 56005 60006 878// 91500=
07460,1996-03-07 18:00:00,2,1013.5,1.1,87,0,500,3.704,,,300,0.7,2.8,,,,,,,,,wg-a,,,,AAXX 07184 07460 12400 83002 10020 20000 39732 40135 53011 60006 875// 91800 333 10028 20007=
07460,1996-03-07 21:00:00,1,1015.2,1.5,93,0,500,0,,,0,,,,,,,,,,,wg-a,,,,AAXX 07214 07460 12400 80000 10010 20000 39748 40152 51015 60006 875// 92100=
07460,1996-03-08 00:00:00,3,1015.9,0.8,87,1,6000,14.816,,,180,,,,,,,,,,60,wg-a,,,,AAXX 08004 07460 02556 81808 10030 20010 39756 40159 53008 61000 76062 875// 90000 333 6100=
07460,1996-03-08 03:00:00,3,1016,0.1,81,0,14000,3.704,,,350,,,,,,,,,,1,wg-a,,,,AAXX 08034 07460 02564 73502 10030 20000 39758 40160 50001 61000 70162 8553/ 90300 333 ////=
07460,1996-03-08 06:00:00,4,1016.8,0.9,65,-2,15000,14.816,,,200,0.7,4.4,,,,,,,,3,wg-a,,,,AAXX 08064 07460 02765 72008 10040 21020 39767 40168 53009 61000 70362 8453/ 90600 333 10044 20007 ////=
07460,1996-03-08 09:00:00,7,1017.7,1.2,53,-2,25000,14.816,,,190,,,,,,,,,,,wg-a,,,,AAXX 08094 07460 12775 71908 10070 21020 39779 40177 51012 60006 8153/ 90900=
07460,1996-03-08 12:00:00,11,1016.8,-0.4,37,-3,500,25.928,,,160,,,,,,,,,,,wg-a,,,,AAXX 08124 07460 12700 31614 10110 21030 39776 40168 58004 60006 81131 91200=
07460,1996-03-08 15:00:00,13,1015.6,-0.8,30,-4,500,31.484,,,170,,,,,,,,,,,wg-a,,,,AAXX 08154 07460 12700 31717 10130 21040 39767 40156 56008 60006 81131 91500=
07460,1996-03-08 18:00:00,9,1017,0.9,43,-3,25000,22.224,,,170,3.9,13.5,,,,,,,,,wg-a,,,,AAXX 08184 07460 12775 /1712 10090 21030 39775 40170 53009 60006 81530 91800 333 10135 20039=
07460,1996-03-08 21:00:00,6,1018.6,1,61,-1,20000,18.52,,,160,,,,,,,,,,,wg-a,,,,AAXX 08214 07460 12670 /1610 10060 21010 39786 40186 51010 60006 81530 92100=
07460,1996-03-09 00:00:00,5,1019.2,0.3,65,-1,20000,3.704,,,200,,,,,,,,,,,wg-a,,,,AAXX 09004 07460 12/70 02002 10050 21010 39790 40192 52003 60006 80000 90000=
07460,1996-03-09 03:00:00,2,1019.9,0.3,75,-2,20000,7.408,,,260,,,,,,,,,,,wg-a,,,,AAXX 09034 07460 12/70 02604 10020 21020 39793 40199 52003 60006 80000 90300=
07460,1996-03-09 06:00:00,2,1020.3,0.3,75,-2,25000,3.704,,,80,1.5,8.5,,,,,,,,,wg-a,,,,AAXX 09064 07460 02/75 10802 10020 21020 39797 40203 52003 60006 80001 90600 333 10085 20015 60004=
07460,1996-03-09 12:00:00,12,1017.4,-1.6,47,1,20000,14.816,,,180,,,,,,,,,,,wg-a,,,,AAXX 09124 07460 12670 21808 10120 20010 39784 40174 58016 60006 81101 91200=
07460,1996-03-09 15:00:00,15,1015.6,-1.4,39,1,500,14.816,,,180,,,,,,,,,,,wg-a,,,,AAXX 09154 07460 12600 41808 10150 20010 39770 40156 56014 60006 84200 91500=
07460,1996-03-09 18:00:00,11,1017,0.8,50,1,20000,18.52,,,190,1.4,15.4,,,,,,,,,wg-a,,,,AAXX 09184 07460 12670 /1910 10110 20010 39778 40170 53008 60006 83530 91800 333 10154 20014=
07460,1996-03-09 21:00:00,9,1018.5,1.2,61,2,15000,7.408,,,160,,,,,,,,,,,wg-a,,,,AAXX 09214 07460 12765 71604 10090 20020 39790 40185 51012 60006 8153/ 92100=
07460,1996-03-10 00:00:00,7,1019.2,0.3,61,0,15000,11.112,,,170,,,,,,,,,,,wg-a,,,,AAXX 10004 07460 12/65 41706 10070 20000 39794 40192 51003 60006 84030 90000=
07460,1996-03-10 03:00:00,3,1019.7,-0.1,75,-1,15000,7.408,,,220,,,,,,,,,,,wg-a,,,,AAXX 10034 07460 12/65 22204 10030 21010 39793 40197 58001 60006 82030 90300=
07460,1996-03-10 06:00:00,0,1020.8,0.7,93,-1,20000,7.408,,,320,-1.7,10.9,,,,,,,,,wg-a,,,,AAXX 10064 07460 02/70 43204 10000 21010 39799 40208 51007 60006 83031 90600 333 10109 21017 60004=
07460,1996-03-10 09:00:00,5,1020.3,0.3,75,1,15000,3.704,,,260,,,,,,,,,,,wg-a,,,,AAXX 10094 07460 12/65 22602 10050 20010 39802 40203 50003 60006 82030 90900=
07460,1996-03-10 12:00:00,12,1017.8,-1.5,38,-2,20000,18.52,,,40,,,,,,,,,,,wg-a,,,,AAXX 10124 07460 12770 /0410 10120 21020 39787 40178 58015 60006 81100 91200=
07460,1996-03-10 15:00:00,12,1016.3,-1.3,35,-3,20000,25.928,,,30,,,,,,,,,,,wg-a,,,,AAXX 10154 07460 12770 /0314 10120 21030 39773 40163 56013 60006 81100 91500=
07460,1996-03-10 18:00:00,9,1017.6,0.8,49,-1,9000,14.816,,,360,-0.7,12.8,,,,,,,,,wg-a,,,,AAXX 10184 07460 12/59 /3608 10090 21010 39781 40176 53008 60006 86030 91800 333 10128 21007=
07460,1996-03-10 21:00:00,5,1018.9,0.8,60,-2,12000,14.816,,,350,,,,,,,,,,,wg-a,,,,AAXX 10214 07460 12/62 73508 10050 21020 39788 40189 51008 60006 8703/ 92100=
07460,1996-03-11 03:00:00,1,1018.3,-0.6,69,-4,12000,7.408,,,330,,,,,,,,,,,wg-a,,,,AAXX 11034 07460 12/62 03304 10010 21040 39777 40183 56006 60006 80000 90300=
07460,1996-03-11 06:00:00,-3,1019.3,0.4,80,-6,6000,7.408,,,130,-3.6,8.6,,,,,,,,,wg-a,,,,AAXX 11064 07460 02/56 01304 11030 21060 39780 40193 53004 60006 80000 90600 333 10086 21036 60004=
07460,1996-03-11 09:00:00,2,1019.3,0.9,64,-4,10000,7.408,,,30,,,,,,,,,,,wg-a,,,,AAXX 11094 07460 12/60 00304 10020 21040 39788 40193 53009 60006 80000 90900=
07460,1996-03-11 12:00:00,7,1018.1,-0.5,42,-5,15000,11.112,,,350,,,,,,,,,,,wg-a,,,,AAXX 11124 07460 12/65 03506 10070 21050 39783 40181 58005 60006 80000 91200=
07460,1996-03-11 21:00:00,0,1016.2,-0.1,69,-5,15000,7.408,,,240,,,,,,,,,,,wg-a,,,,AAXX 11214 07460 12/65 02404 10000 21050 39755 40162 58001 60006 80000 92100=
07460,1996-03-12 00:00:00,-3,1015.6,-1,80,-6,15000,0,,,0,,,,,,,,,,,wg-a,,,,AAXX 12004 07460 12/65 00000 11030 21060 39745 40156 58010 60006 80000 90000=
07460,1996-03-12 03:00:00,-2,1013.2,-2.3,69,-7,15000,3.704,,,20,,,,,,,,,,,wg-a,,,,AAXX 12034 07460 12/65 00202 11020 21070 39722 40132 57023 60006 80000 90300=
07460,1996-03-12 06:00:00,-3,1012.1,-1.1,74,-7,15000,7.408,,,340,-4.1,7.1,,,,,,,,,wg-a,,,,AAXX 12064 07460 02/65 33404 11030 21070 39711 40121 56011 60006 80001 90600 333 10071 21041 60004=
07460,1996-03-12 09:00:00,3,1010.3,-1,56,-5,20000,0,,,0,,,,,,,,,,,wg-a,,,,AAXX 12094 07460 12/70 40000 10030 21050 39702 40103 56010 60006 84030 90900=
07460,1996-03-12 12:00:00,8,1007.3,-2.1,39,-5,20000,7.408,,,40,,,,,,,,,,,wg-a,,,,AAXX 12124 07460 12/70 30404 10080 21050 39681 40073 56021 60006 83030 91200=
07460,1996-03-12 15:00:00,8,1005.4,-2,46,-3,8000,14.816,,,20,,,,,,,,,,,wg-a,,,,AAXX 12154 07460 12/58 /0208 10080 21030 39663 40054 56020 60006 80001 91500=
07460,1996-03-12 18:00:00,4,1005.6,-0.2,48,-6,10000,14.816,,,20,-3.6,9.6,,,,,,,,,wg-a,,,,AAXX 12184 07460 12/60 70208 10040 21060 39659 40056 55002 60006 8703/ 91800 333 10096 21036=
07460,1996-03-12 21:00:00,2,1005.8,-0.3,40,-10,10000,11.112,,,330,,,,,,,,,,,wg-a,,,,AAXX 12214 07460 12/60 53306 10020 21100 39657 40058 58003 60006 85030 92100=
07460,1996-03-13 00:00:00,0,1005.5,-0.4,43,-11,10000,0,,,0,,,,,,,,,,,wg-a,,,,AAXX 13004 07460 12/60 70000 10000 21110 39652 40055 58004 60006 8703/ 90000=
07460,1996-03-13 03:00:00,0,1004.5,-1.1,47,-10,12000,3.704,,,30,,,,,,,,,,,wg-a,,,,AAXX 13034 07460 12/62 70302 10000 21100 39642 40045 56011 60006 8703/ 90300=
07460,1996-03-13 06:00:00,-4,1004.3,-0.7,68,-9,15000,0,,,0,-3.9,4.3,,,,,,,,,wg-a,,,,AAXX 13064 07460 02/65 40000 11040 21090 39635 40043 56007 60006 84031 90600 333 10043 21039 60004=
07460,1996-03-13 09:00:00,1,1003.1,-0.4,55,-7,15000,3.704,,,10,,,,,,,,,,,wg-a,,,,AAXX 13094 07460 12/65 50102 10010 21070 39631 40031 56004 60006 80002 90900=
07460,1996-03-13 12:00:00,9,1000.7,-1.2,43,-3,15000,3.704,,,150,,,,,,,,,,,wg-a,,,,AAXX 13124 07460 12/65 61502 10090 21030 39618 40007 57012 60006 80002 91200=
07460,1996-03-13 15:00:00,14,998.1,-1.9,36,-1,10000,11.112,,,30,,,,,,,,,,,wg-a,,,,AAXX 13154 07460 12/60 20306 10140 21010 39600 49981 56019 60006 80001 91500=
07460,1996-03-13 18:00:00,11,999.5,0.9,50,1,15000,31.484,,,180,-3.9,14.4,,,,,,,,,wg-a,,,,AAXX 13184 07460 12765 21817 10110 20010 39609 49995 53009 60006 82501 91800 333 10144 21039=
07460,1996-03-13 21:00:00,7,1001.9,1.9,70,2,15000,18.52,,,180,,,,,,,,,,,wg-a,,,,AAXX 13214 07460 12/65 11810 10070 20020 39628 40019 51019 60006 80001 92100=
07460,1996-03-14 00:00:00,6,1002.2,0.2,75,2,15000,14.816,,,220,,,,,,,,,,,wg-a,,,,AAXX 14004 07460 12/65 12208 10060 20020 39630 40022 51002 60006 80001 90000=
07460,1996-03-14 03:00:00,4,1002.7,0.2,75,0,15000,7.408,,,110,,,,,,,,,,,wg-a,,,,AAXX 14034 07460 12/65 11104 10040 20000 39631 40027 50002 60006 80001 90300=
07460,1996-03-14 06:00:00,4,1002.8,0.2,87,2,20000,0,,,0,2.1,10.5,,,,,,,,,wg-a,,,,AAXX 14064 07460 02670 70000 10040 20020 39632 40028 52002 60006 81531 90600 333 10105 20021 60004=
07460,1996-03-14 09:00:00,8,1002.9,0.6,71,3,20000,25.928,,,160,,,,,,,,,,,wg-a,,,,AAXX 14094 07460 12670 81614 10080 20030 39639 40029 53006 60006 8251/ 90900=
07460,1996-03-14 12:00:00,7,1004,1,87,5,10000,11.112,,,180,,,,1,,,,,,60,wg-a,,,,AAXX 14124 07460 02460 81806 10070 20050 39648 40040 51010 60016 76062 8382/ 91200 333 60017=
07460,1996-03-14 15:00:00,8,1003.5,-0.3,81,5,20000,3.704,,,100,,,,0,,,,,,60,wg-a,,,,AAXX 14154 07460 12470 81002 10080 20050 39645 40035 55003 60007 76066 8687/ 91500=
07460,1996-03-14 18:00:00,8,1003.9,0.2,87,6,14000,3.704,,,110,3,8.7,,,,,,,,21,wg-a,,,,AAXX 14184 07460 02464 81102 10080 20060 39648 40039 53002 61000 72186 8687/ 91800 333 10087 20030 ////=
07460,1996-03-14 21:00:00,6,1005.1,0.9,93,5,12000,0,,,0,,,,,,,,,,1,wg-a,,,,AAXX 14214 07460 12662 80000 10060 20050 39658 40051 53009 60006 70162 8557/ 92100=
07460,1996-03-15 00:00:00,6,1004.8,-0.3,93,5,12000,7.408,,,170,,,,,,,,,,,wg-a,,,,AAXX 15004 07460 12662 81704 10060 20050 39655 40048 58003 60006 8557/ 90000=
07460,1996-03-15 03:00:00,6,1004.9,0.1,100,6,12000,7.408,,,140,,,,0,,,,,,61,wg-a,,,,AAXX 15034 07460 12562 81404 10060 20060 39656 40049 50001 60007 76162 8557/ 90300=
07460,1996-03-15 06:00:00,6,1004.9,-0,100,6,12000,7.408,,,150,5.9,7.7,,1,,,3,,,61,wg-a,,,,AAXX 15064 07460 02462 81504 10060 20060 39656 40049 54000 60034 76162 875// 90600 333 10077 20059 60017=
07460,1996-03-15 09:00:00,8,1005.1,0.5,93,7,9000,7.408,,,150,,,,1,,,,,,21,wg-a,,,,AAXX 15094 07460 12459 71504 10080 20070 39661 40051 51005 60017 72162 8587/ 90900=
07460,1996-03-15 12:00:00,11,1004.4,-0.4,71,6,10000,11.112,,,180,,,,,,,,,,2,wg-a,,,,AAXX 15124 07460 12460 /1806 10110 20060 39657 40044 58004 60016 70262 8587/ 91200=
07460,1996-03-15 15:00:00,11,1003.6,-0.8,76,7,15000,18.52,,,100,,,,,,,,,,25,wg-a,,,,AAXX 15154 07460 02565 71010 10110 20070 39650 40036 56008 61000 72586 8687/ 91500 333 ////=
07460,1996-03-15 18:00:00,9,1004.5,0.7,93,8,12000,3.704,,,70,6,11.6,,0,,,,,,21,wg-a,,,,AAXX 15184 07460 12562 80702 10090 20080 39657 40045 53007 60007 72186 875// 91800 333 10116 20060=
07460,1996-03-15 21:00:00,9,1005.2,0.5,87,7,10000,0,,,0,,,,,,,,,,60,wg-a,,,,AAXX 15214 07460 02460 70000 10090 20070 39662 40052 51005 61000 76062 8587/ 92100 333 ////=
07460,1996-03-16 00:00:00,8,1005.7,0.4,93,7,7000,3.704,,,230,,,,1,,,,,,60,wg-a,,,,AAXX 16004 07460 02457 82302 10080 20070 39666 40057 51004 60016 76062 875// 90000 333 60017=
07460,1996-03-16 03:00:00,7,1005.9,0.1,100,7,9000,7.408,,,230,,,,1,,,,,,61,wg-a,,,,AAXX 16034 07460 12459 82304 10070 20070 39667 40059 52001 60017 76162 875// 90300=
07460,1996-03-16 06:00:00,7,1007.3,1.4,87,5,12000,7.408,,,310,6.6,9.4,,1,,,3,,,61,wg-a,,,,AAXX 16064 07460 02462 83104 10070 20050 39680 40073 53014 60034 76162 875// 90600 333 10094 20066 60017=
07460,1996-03-16 09:00:00,6,1009.9,2.3,81,3,13000,3.704,,,340,,,,0,,,,,,61,wg-a,,,,AAXX 16094 07460 12563 83402 10060 20030 39704 40099 53023 60007 76166 878// 90900=
07460,1996-03-16 12:00:00,8,1010.6,0.9,71,3,13000,14.816,,,320,,,,0,,,,,,2,wg-a,,,,AAXX 16124 07460 02563 83208 10080 20030 39712 40106 53009 60016 70262 878// 91200 333 60007=
07460,1996-03-16 15:00:00,8,1011.2,0.5,71,3,14000,14.816,,,360,,,,,,,,,,,wg-a,,,,AAXX 16154 07460 12564 83608 10080 20030 39718 40112 53005 60006 875// 91500=
07460,1996-03-16 18:00:00,7,1013.6,2.3,76,3,14000,7.408,,,360,6.2,8.1,,,,,,,,,wg-a,,,,AAXX 16184 07460 32664 83604 10070 20030 39740 40136 51023 875// 91800 333 10081 20062=
07460,1996-03-16 21:00:00,6,1015.1,1.2,81,3,12000,3.704,,,120,,,,,,,,,,,wg-a,,,,AAXX 16214 07460 12662 81202 10060 20030 39753 40151 51012 60006 8557/ 92100=
07460,1996-03-17 00:00:00,6,1015.7,0.6,87,4,15000,3.704,,,340,,,,,,,,,,,wg-a,,,,AAXX 17004 07460 12565 83402 10060 20040 39759 40157 51006 60006 8557/ 90000=
07460,1996-03-17 03:00:00,6,1015.7,0.1,87,4,15000,3.704,,,320,,,,,,,,,,,wg-a,,,,AAXX 17034 07460 12665 83202 10060 20040 39760 40157 50001 60006 8557/ 90300=
07460,1996-03-17 06:00:00,6,1017,1.1,81,3,12000,7.408,,,340,5.3,6.8,,,,,1,,,,wg-a,,,,AAXX 17064 07460 02562 83404 10060 20030 39771 40170 53011 60006 8557/ 90600 333 10068 20053 60014=
07460,1996-03-17 09:00:00,8,1017.6,0.9,76,4,15000,14.816,,,340,,,,,,,,,,,wg-a,,,,AAXX 17094 07460 12465 83408 10080 20040 39780 40176 51009 60006 8587/ 90900=
07460,1996-03-17 12:00:00,9,1017.3,-0.2,57,1,20000,18.52,,,20,,,,,,,,,,,wg-a,,,,AAXX 17124 07460 12570 70210 10090 20010 39779 40173 58002 60006 8417/ 91200=
07460,1996-03-17 15:00:00,9,1016.7,-0.5,57,1,15000,14.816,,,20,,,,,,,,,,,wg-a,,,,AAXX 17154 07460 12565 80208 10090 20010 39773 40167 57005 60006 8587/ 91500=
07460,1996-03-17 18:00:00,8,1017.3,0.5,66,2,15000,3.704,,,120,5.8,9.7,,,,,,,,25,wg-a,,,,AAXX 17184 07460 02565 81202 10080 20020 39777 40173 53005 61000 72586 8587/ 91800 333 10097 20058 ////=
07460,1996-03-17 21:00:00,7,1018,0.6,61,0,14000,11.112,,,40,,,,,,,,,,60,wg-a,,,,AAXX 17214 07460 02564 80406 10070 20000 39783 40180 51006 61000 76086 8587/ 92100 333 ////=
07460,1996-03-18 00:00:00,5,1018.9,0.6,87,3,14000,3.704,,,270,,,,,,,,,,21,wg-a,,,,AAXX 18004 07460 02564 82702 10050 20030 39789 40189 52006 61000 72186 8587/ 90000 333 6100=
07460,1996-03-18 03:00:00,5,1017.9,-1,81,2,15000,3.704,,,160,,,,,,,,,,,wg-a,,,,AAXX 18034 07460 12565 81602 10050 20020 39779 40179 58010 60006 8383/ 90300=
07460,1996-03-18 06:00:00,4,1018.5,0.4,87,2,14000,0,,,0,3.7,7.6,,,,,,,,,wg-a,,,,AAXX 18064 07460 02564 80000 10040 20020 39783 40185 53004 61000 8583/ 90600 333 10076 20037 ////=
07460,1996-03-18 09:00:00,6,1019.1,0.9,75,2,15000,7.408,,,350,,,,,,,,,,60,wg-a,,,,AAXX 18094 07460 02565 83504 10060 20020 39792 40191 53009 61000 76062 8387/ 90900 333 ////=
07460,1996-03-18 12:00:00,9,1018,-0.7,61,2,20000,3.704,,,40,,,,0,,,,,,1,wg-a,,,,AAXX 18124 07460 02570 60402 10090 20020 39785 40180 58007 60006 70162 83242 91200 333 60007=
07460,1996-03-18 15:00:00,9,1016.9,-1,57,1,20000,11.112,,,60,,,,,,,,,,,wg-a,,,,AAXX 18154 07460 12570 40606 10090 20010 39775 40169 56010 60006 84800 91500=
07460,1996-03-18 18:00:00,8,1017.3,0.3,61,1,15000,7.408,,,40,3.7,10.3,,,,,,,,,wg-a,,,,AAXX 18184 07460 32565 50404 10080 20010 39778 40173 53003 85800 91800 333 10103 20037=
07460,1996-03-18 21:00:00,2,1018.9,0.4,80,-1,15000,0,,,0,,,,,,,,,,,wg-a,,,,AAXX 18214 07460 12765 10000 10020 21010 39783 40189 51004 60006 81500 92100=
07460,1996-03-19 00:00:00,0,1018.8,-0.2,93,-1,15000,0,,,0,,,,,,,,,,,wg-a,,,,AAXX 19004 07460 12/65 00000 10000 21010 39780 40188 58002 60006 80000 90000=
07460,1996-03-19 03:00:00,-1,1017.9,-0.9,93,-2,15000,3.704,,,360,,,,,,,,,,,wg-a,,,,AAXX 19034 07460 12/65 03602 11010 21020 39770 40179 58009 60006 80000 90300=
07460,1996-03-19 06:00:00,-2,1017.7,-0.2,100,-2,6000,3.704,,,330,-2.3,8.4,,,,,,,,,wg-a,,,,AAXX 19064 07460 02756 /3302 11020 21020 39767 40177 55002 60006 81501 90600 333 10084 21023 60004=
07460,1996-03-19 09:00:00,4,1016.5,-0.4,81,1,9000,3.704,,,10,,,,,,,,,,,wg-a,,,,AAXX 19094 07460 12/59 40102 10040 20010 39763 40165 58004 60006 80001 90900=
07460,1996-03-19 12:00:00,11,1013.2,-2,58,3,8000,11.112,,,120,,,,,,,,,,,wg-a,,,,AAXX 19124 07460 12/58 /1206 10110 20030 39742 40132 58020 60006 91200=
07460,1996-03-19 15:00:00,13,1010.3,-2.6,51,3,9000,7.408,,,150,,,,,,,,,,,wg-a,,,,AAXX 19154 07460 12659 51504 10130 20030 39716 40103 56026 60006 82102 91500=
07460,1996-03-19 18:00:00,11,1009.9,-0.7,58,3,9000,7.408,,,30,-1.8,12.9,,,,,,,,,wg-a,,,,AAXX 19184 07460 12659 /0304 10110 20030 39709 40099 55007 60006 81102 91800 333 10129 21018=
07460,1996-03-19 21:00:00,5,1010.5,-0.1,81,2,9000,3.704,,,120,,,,,,,,,,,wg-a,,,,AAXX 19214 07460 12/59 /1202 10050 20020 39708 40105 58001 60006 80002 92100=
07460,1996-03-20 00:00:00,4,1010,-0.7,81,1,9000,3.704,,,80,,,,,,,,,,,wg-a,,,,AAXX 20004 07460 12/59 40802 10040 20010 39701 40100 58007 60006 80002 90000=
07460,1996-03-20 03:00:00,5,1009,-0.7,81,2,12000,14.816,,,180,,,,,,,,,,,wg-a,,,,AAXX 20034 07460 12/62 71808 10050 20020 39694 40090 58007 60006 83032 90300=
07460,1996-03-20 06:00:00,5,1008.5,-0.5,75,1,15000,7.408,,,70,2.5,12.8,,,,,,,,,wg-a,,,,AAXX 20064 07460 02765 /0704 10050 20010 39689 40085 56005 60006 82530 90600 333 10128 20025 60004=
07460,1996-03-20 09:00:00,7,1010.3,1.9,81,4,15000,25.928,,,180,,,,0,,,,,,61,wg-a,,,,AAXX 20094 07460 12565 71814 10070 20040 39708 40103 52019 60007 76162 8583/ 90900=
07460,1996-03-20 12:00:00,11,1010.3,0.7,71,6,15000,14.816,,,180,,,,,,,,,,25,wg-a,,,,AAXX 20124 07460 02565 81808 10110 20060 39714 40103 53007 60006 72586 8683/ 91200 333 61000=
07460,1996-03-20 15:00:00,10,1010.8,0.3,71,5,15000,7.408,,,110,,,,0,,,,,,21,wg-a,,,,AAXX 20154 07460 12565 71104 10100 20050 39718 40108 51003 60007 72186 8583/ 91500=
07460,1996-03-20 18:00:00,10,1011.5,0.7,71,5,20000,7.408,,,130,5.4,12.9,,,,,,,,1,wg-a,,,,AAXX 20184 07460 32670 51304 10100 20050 39724 40115 53007 70186 83131 91800 333 10129 20054=
07460,1996-03-20 21:00:00,5,1013.1,0.9,81,2,20000,7.408,,,240,,,,,,,,,,,wg-a,,,,AAXX 20214 07460 12670 52404 10050 20020 39733 40131 51009 60006 81501 92100=
07460,1996-03-21 00:00:00,6,1012.7,-0.2,81,3,20000,3.704,,,30,,,,,,,,,,,wg-a,,,,AAXX 21004 07460 12/70 30302 10060 20030 39730 40127 58002 60006 82031 90000=
07460,1996-03-21 03:00:00,5,1012.4,-0.6,81,2,20000,18.52,,,170,,,,,,,,,,,wg-a,,,,AAXX 21034 07460 12/70 21710 10050 20020 39725 40124 56006 60006 80001 90300=
07460,1996-03-21 06:00:00,5,1012.1,-0.2,87,3,20000,29.632,,,200,4.2,10,,,,,1,,,,wg-a,,,,AAXX 21064 07460 02770 72016 10050 20030 39723 40121 55002 60006 82131 90600 333 10100 20042 60014=
07460,1996-03-21 09:00:00,11,1012.1,0.8,71,6,25000,29.632,,,170,,,,,,,,,,,wg-a,,,,AAXX 21094 07460 12675 /1716 10110 20060 39732 40121 53008 60006 81132 90900=
07460,1996-03-21 12:00:00,15,1012.4,0.8,51,5,25000,25.928,,,250,,,,,,,,,,,wg-a,,,,AAXX 21124 07460 12675 72514 10150 20050 39740 40124 50008 60006 82242 91200=
07460,1996-03-21 15:00:00,15,1012.9,0.3,51,5,500,14.816,,,250,,,,,,,,,,,wg-a,,,,AAXX 21154 07460 12700 72508 10150 20050 39744 40129 53003 60006 8655/ 91500=
07460,1996-03-21 18:00:00,12,1014.1,1,62,5,25000,18.52,,,230,5.2,15.7,,,,,,,,,wg-a,,,,AAXX 21184 07460 12675 72310 10120 20050 39753 40141 53010 60006 85834 91800 333 10157 20052=
07460,1996-03-21 21:00:00,12,1015.2,1,58,4,20000,18.52,,,240,,,,,,,,,,,wg-a,,,,AAXX 21214 07460 12570 72410 10120 20040 39763 40152 51010 60006 84832 92100=
07460,1996-03-22 00:00:00,10,1016.6,1,71,5,20000,3.704,,,200,,,,,,,,,,21,wg-a,,,,AAXX 22004 07460 02570 72002 10100 20050 39773 40166 51010 61000 72162 84832 90000 333 6100=
07460,1996-03-22 06:00:00,10,1016.9,0.4,71,5,20000,22.224,,,180,8.4,12.6,,,,,,,,,wg-a,,,,AAXX 22064 07460 02570 71812 10100 20050 39776 40169 51004 61000 84831 90600 333 10126 20084 ////=
07460,1996-03-22 09:00:00,11,1017.4,0.6,76,7,25000,7.408,,,150,,,,,,,,,,,wg-a,,,,AAXX 22094 07460 12775 71504 10110 20070 39783 40174 51006 60006 83531 90900=
07460,1996-03-22 12:00:00,18,1016.1,-0.2,49,7,35000,3.704,,,70,,,,,,,,,,,wg-a,,,,AAXX 22124 07460 12681 50702 10180 20070 39780 40161 58002 60006 83131 91200=
07460,1996-03-22 15:00:00,21,1014.7,-1.1,38,6,40000,11.112,,,140,,,,,,,,,,,wg-a,,,,AAXX 22154 07460 12782 21406 10210 20060 39769 40147 58011 60006 82101 91500=
07460,1996-03-22 18:00:00,17,1015.5,0.4,48,6,35000,7.408,,,360,9.8,20.8,,,,,,,,,wg-a,,,,AAXX 22184 07460 12781 23604 10170 20060 39772 40155 53004 60006 81141 91800 333 10208 20098=
07460,1996-03-22 21:00:00,10,1017.7,1.2,76,6,25000,7.408,,,260,,,,,,,,,,,wg-a,,,,AAXX 22214 07460 12775 /2604 10100 20060 39784 40177 51012 60006 81501 92100=
07460,1996-03-23 00:00:00,7,1018.4,0.3,81,4,20000,7.408,,,20,,,,,,,,,,,wg-a,,,,AAXX 23004 07460 12770 /0204 10070 20040 39787 40184 52003 60006 81501 90000=
07460,1996-03-23 03:00:00,9,1017.7,-0.4,76,5,20000,3.704,,,40,,,,,,,,,,,wg-a,,,,AAXX 23034 07460 12/70 10402 10090 20050 39782 40177 56004 60006 80001 90300=
07460,1996-03-23 06:00:00,7,1018.6,0.6,81,4,25000,3.704,,,180,6.9,16.3,,,,,,,,,wg-a,,,,AAXX 23064 07460 02/75 11802 10070 20040 39788 40186 53006 60006 80001 90600 333 10163 20069 60004=
07460,1996-03-23 09:00:00,14,1017.9,0.2,63,7,500,7.408,,,160,,,,,,,,,,,wg-a,,,,AAXX 23094 07460 12/00 11604 10140 20070 39791 40179 50002 60006 80001 90900=
07460,1996-03-23 12:00:00,21,1014.8,-2,38,6,500,11.112,,,120,,,,,,,,,,,wg-a,,,,AAXX 23124 07460 12/00 21206 10210 20060 39771 40148 58020 60006 80001 91200=
07460,1996-03-23 15:00:00,24,1012.6,-1.7,31,6,500,11.112,,,190,,,,,,,,,,,wg-a,,,,AAXX 23154 07460 12/00 51906 10240 20060 39752 40126 56017 60006 80001 91500=
07460,1996-03-23 18:00:00,19,1013.2,0.1,40,5,500,7.408,,,170,6.7,24.1,,,,,,,,,wg-a,,,,AAXX 23184 07460 12/00 51704 10190 20050 39753 40132 53001 60006 81031 91800 333 10241 20067=
07460,1996-03-23 21:00:00,15,1015.2,1.4,48,4,20000,25.928,,,210,,,,,,,,,,,wg-a,,,,AAXX 23214 07460 12/70 62114 10150 20040 39767 40152 53014 60006 81031 92100=
07460,1996-03-24 00:00:00,12,1016.3,0.6,58,4,20000,31.484,,,200,,,,,,,,,,,wg-a,,,,AAXX 24004 07460 12/70 42017 10120 20040 39773 40163 51006 60006 81031 90000=
07460,1996-03-24 03:00:00,10,1016.9,0.3,66,4,20000,35.188,,55.56,190,,,,,,,,,,,wg-a,,,,AAXX 24034 07460 12/70 01919 10100 20040 39776 40169 53003 60006 80000 90300 333 91030=
07460,1996-03-24 06:00:00,10,1018.3,1.2,66,4,20000,25.928,,44.448,210,9.3,19.7,,,,,,,,,wg-a,,,,AAXX 24064 07460 02/70 12114 10100 20040 39789 40183 53012 60006 80001 90600 333 10197 20093 60004 91024=
07460,1996-03-24 09:00:00,14,1018.1,0.5,58,6,35000,22.224,,,200,,,,,,,,,,,wg-a,,,,AAXX 24094 07460 12/81 22012 10140 20060 39794 40181 53005 60006 80002 90900=
07460,1996-03-24 12:00:00,21,1015.8,-1.3,40,7,35000,18.52,,,160,,,,,,,,,,,wg-a,,,,AAXX 24124 07460 12/81 21610 10210 20070 39781 40158 58013 60006 80002 91200=
07460,1996-03-24 15:00:00,24,1014.4,-1.1,31,6,40000,11.112,,,80,,,,,,,,,,,wg-a,,,,AAXX 24154 07460 12/82 70806 10240 20060 39770 40144 56011 60006 83032 91500=
07460,1996-03-24 21:00:00,16,1014.1,-0.5,63,9,15000,3.704,,,160,,,,,,,,,,,wg-a,,,,AAXX 24214 07460 12/65 61602 10160 20090 39758 40141 56005 60006 82032 92100=
07460,1996-03-25 00:00:00,16,1014.1,-0.5,63,9,15000,3.704,,,160,,,,,,,,,,,wg-a,,,,AAXX 25004 07460 12/65 61602 10160 20090 39758 40141 56005 60006 82032 90000=
07460,1996-03-25 03:00:00,14,1013.5,0.5,51,4,15000,22.224,,,190,,,,,,,,,,,wg-a,,,,AAXX 25034 07460 12/65 21912 10140 20040 39749 40135 53005 60006 81032 90300=
07460,1996-03-25 06:00:00,13,1014.6,0.9,54,4,500,25.928,,,200,12,21,,,,,,,,,wg-a,,,,AAXX 25064 07460 02700 52014 10130 20040 39758 40146 50009 60006 81531 90600 333 10210 20120 60004=
07460,1996-03-25 09:00:00,19,1015,1.2,46,7,500,25.928,,,270,,,,,,,,,,,wg-a,,,,AAXX 25094 07460 12600 /2714 10190 20070 39770 40150 53012 60006 81140 90900=
07460,1996-03-25 12:00:00,21,1014.1,-0.7,38,6,40000,14.816,,,230,,,,,,,,,,,wg-a,,,,AAXX 25124 07460 12782 12308 10210 20060 39764 40141 58007 60006 81100 91200=
07460,1996-03-25 15:00:00,22,1012.5,-1.4,33,5,40000,7.408,,,320,,,,,,,,,,,wg-a,,,,AAXX 25154 07460 12782 23204 10220 20050 39750 40125 57014 60006 82102 91500=
07460,1996-03-25 18:00:00,18,1013.1,0.2,45,6,40000,11.112,,,310,12.9,22.6,,,,,,,,,wg-a,,,,AAXX 25184 07460 12782 23106 10180 20060 39751 40131 53002 60006 82402 91800 333 10226 20129=
07460,1996-03-25 21:00:00,15,1015,1.3,55,6,20000,3.704,,,40,,,,,,,,,,,wg-a,,,,AAXX 25214 07460 12770 30402 10150 20060 39764 40150 53013 60006 83500 92100=
07460,1996-03-26 00:00:00,9,1015.3,-0.5,76,5,20000,7.408,,,250,,,,,,,,,,,wg-a,,,,AAXX 26004 07460 12770 12504 10090 20050 39759 40153 58005 60006 81500 90000=
07460,1996-03-26 03:00:00,8,1013.7,-1.6,87,6,20000,0,,,0,,,,,,,,,,,wg-a,,,,AAXX 26034 07460 12/70 00000 10080 20060 39743 40137 58016 60006 80000 90300=
07460,1996-03-26 06:00:00,7,1013.5,-0.4,87,5,20000,3.704,,,330,6.3,18.3,,,,,,,,,wg-a,,,,AAXX 26064 07460 02/70 33302 10070 20050 39739 40135 56004 60006 83080 90600 333 10183 20063 60004=
07460,1996-03-26 09:00:00,14,1011.3,-1.1,67,8,25000,7.408,,,160,,,,,,,,,,,wg-a,,,,AAXX 26094 07460 12775 51604 10140 20080 39728 40113 58011 60006 81230 90900=
07460,1996-03-26 12:00:00,16,1009.4,-1.5,63,9,15000,14.816,,,190,,,,,,,,,,80,wg-a,,,,AAXX 26124 07460 02665 71908 10160 20090 39713 40094 56015 61000 78086 8583/ 91200 333 6100=
07460,1996-03-26 15:00:00,14,1009.1,-0.6,77,10,13000,14.816,,,310,,,,1,,,,,,21,wg-a,,,,AAXX 26154 07460 12663 83108 10140 20100 39707 40091 57006 60017 72186 8585/ 91500=
07460,1996-03-26 18:00:00,12,1010.3,0.9,88,10,13000,7.408,,,100,6.6,18.2,,0,,,,,,60,wg-a,,,,AAXX 26184 07460 12563 71004 10120 20100 39716 40103 53009 60007 76086 8583/ 91800 333 10182 20066=
07460,1996-03-26 21:00:00,11,1010.7,0.2,94,10,8000,7.408,,,40,,,,1,,,,,,60,wg-a,,,,AAXX 26214 07460 12358 80404 10110 20100 39718 40107 51002 60017 76062 875// 92100=
07460,1996-03-27 00:00:00,10,1010.9,0.1,100,10,8000,3.704,,,350,,,,4,,,,,,61,wg-a,,,,AAXX 27004 07460 02258 83502 10100 20100 39719 40109 53001 60056 76162 885// 90000 333 60047=
07460,1996-03-27 03:00:00,9,1010.9,0,100,9,10000,3.704,,,360,,,,2,,,,,,61,wg-a,,,,AAXX 27034 07460 12260 83602 10090 20090 39718 40109 50000 60027 76162 885// 90300=
07460,1996-03-27 06:00:00,7,1012.9,1.5,100,7,3000,18.52,,,360,7.2,12.1,,1,,,9,,,10,wg-a,,,,AAXX 27064 07460 02230 83610 10070 20070 39734 40129 53015 60094 71062 885// 90600 333 10121 20072 60017=
07460,1996-03-27 09:00:00,5,1015.5,2.1,93,4,1100,18.52,,,30,,,,,,,,,,10,wg-a,,,,AAXX 27094 07460 02211 80310 10050 20040 39755 40155 51021 61000 71062 887// 90900 333 ////=
07460,1996-03-27 12:00:00,4,1016.6,1,93,3,1500,14.816,,,20,,,,,,,,,,10,wg-a,,,,AAXX 27124 07460 02315 80208 10040 20030 39765 40166 51010 61000 71062 887// 91200 333 ////=
07460,1996-03-27 15:00:00,5,1016.4,-0.1,87,3,4000,14.816,,,20,,,,,,,,,,10,wg-a,,,,AAXX 27154 07460 12440 80208 10050 20030 39764 40164 57001 60006 71022 885// 91500=
07460,1996-03-27 18:00:00,4,1017.5,1,87,2,2500,14.816,,,10,3.7,7.2,,,,,,,,10,wg-a,,,,AAXX 27184 07460 32425 80108 10040 20020 39773 40175 53010 71022 885// 91800 333 10072 20037=
07460,1996-03-27 21:00:00,3,1018.5,0.9,87,1,6000,14.816,,,10,,,,,,,,,,,wg-a,,,,AAXX 27214 07460 12456 80108 10030 20010 39782 40185 51009 60006 885// 92100=
07460,1996-03-28 00:00:00,3,1018.2,-0.3,87,1,10000,7.408,,,350,,,,,,,,,,,wg-a,,,,AAXX 28004 07460 12560 83504 10030 20010 39779 40182 58003 60006 885// 90000=
07460,1996-03-28 03:00:00,3,1017.5,-0.9,81,0,10000,7.408,,,10,,,,,,,,,,,wg-a,,,,AAXX 28034 07460 12560 80104 10030 20000 39771 40175 56009 60006 885// 90300=
07460,1996-03-28 06:00:00,1,1018.1,0.5,86,-1,9000,0,,,0,1.2,3.8,,,,,,,,,wg-a,,,,AAXX 28064 07460 02559 /0000 10010 21010 39775 40181 53005 60006 86500 90600 333 10038 20012 61000=
07460,1996-03-28 09:00:00,4,1018.5,0.8,65,-2,15000,11.112,,,30,,,,,,,,,,,wg-a,,,,AAXX 28094 07460 12565 20306 10040 21020 39783 40185 51008 60006 82500 90900=
07460,1996-03-28 12:00:00,7,1017.5,-0.5,53,-2,13000,7.408,,,60,,,,,,,,,,,wg-a,,,,AAXX 28124 07460 12/63 10604 10070 21020 39777 40175 58005 60006 80001 91200=
07460,1996-03-28 15:00:00,10,1015.8,-1.3,50,0,15000,7.408,,,50,,,,,,,,,,,wg-a,,,,AAXX 28154 07460 12/65 40504 10100 20000 39765 40158 56013 60006 80001 91500=
07460,1996-03-28 18:00:00,8,1016.2,0.2,53,-1,15000,18.52,,,70,0.9,9.8,,,,,,,,,wg-a,,,,AAXX 28184 07460 12/65 20710 10080 21010 39767 40162 53002 60006 80002 91800 333 10098 20009=
07460,1996-03-29 03:00:00,-1,1018.3,-1,86,-3,11000,3.704,,,210,,,,,,,,,,,wg-a,,,,AAXX 29034 07460 12/61 /2102 11010 21030 39774 40183 56010 60006 90300=
07460,1996-03-29 06:00:00,1,1017.9,0.1,86,-1,8000,7.408,,,250,-1.8,7.9,,,,,,,,,wg-a,,,,AAXX 29064 07460 02658 72504 10010 21010 39773 40179 51001 60006 8653/ 90600 333 10079 21018 60004=
07460,1996-03-29 09:00:00,4,1018.8,1.1,75,0,8000,11.112,,,30,,,,,,,,,,,wg-a,,,,AAXX 29094 07460 12658 70306 10040 20000 39785 40188 51011 60006 875// 90900=
07460,1996-03-29 12:00:00,7,1017.4,-0.8,53,-2,15000,7.408,,,10,,,,,,,,,,,wg-a,,,,AAXX 29124 07460 12565 40104 10070 21020 39777 40174 58008 60006 84800 91200=
07460,1996-03-29 15:00:00,8,1015.9,-1.4,49,-2,15000,14.816,,,20,,,,,,,,,,,wg-a,,,,AAXX 29154 07460 12565 /0208 10080 21020 39763 40159 56014 60006 86800 91500=
07460,1996-03-29 18:00:00,7,1015.3,-0.6,53,-2,20000,7.408,,,40,0.9,8.3,,,,,,,,,wg-a,,,,AAXX 29184 07460 12670 /0404 10070 21020 39756 40153 56006 60006 85500 91800 333 10083 20009=
07460,1996-03-29 21:00:00,2,1016,-0.1,75,-2,15000,3.704,,,210,,,,,,,,,,,wg-a,,,,AAXX 29214 07460 12765 22102 10020 21020 39755 40160 58001 60006 82500 92100=
07460,1996-03-30 00:00:00,-1,1015.2,-1.1,93,-2,15000,0,,,0,,,,,,,,,,,wg-a,,,,AAXX 30004 07460 12/65 00000 11010 21020 39744 40152 57011 60006 80000 90000=
07460,1996-03-30 03:00:00,0,1014.2,-1,86,-2,11000,3.704,,,260,,,,,,,,,,,wg-a,,,,AAXX 30034 07460 12/61 /2602 10000 21020 39735 40142 56010 60006 90300=
07460,1996-03-30 06:00:00,0,1014,-0,86,-2,15000,0,,,0,-1.8,6.7,,,,,,,,,wg-a,,,,AAXX 30064 07460 02665 50000 10000 21020 39733 40140 55000 60006 85500 90600 333 10067 21018 60004=
07460,1996-03-30 09:00:00,6,1014,0.9,75,2,13000,11.112,,,360,,,,,,,,,,,wg-a,,,,AAXX 30094 07460 12463 /3606 10060 20020 39742 40140 51009 60006 85200 90900=
07460,1996-03-30 12:00:00,7,1014.5,0.6,49,-3,25000,22.224,,,20,,,,,,,,,,,wg-a,,,,AAXX 30124 07460 12675 70212 10070 21030 39748 40145 53006 60006 874// 91200=
07460,1996-03-30 15:00:00,8,1014.6,0.4,46,-3,25000,18.52,,,350,,,,,,,,,,,wg-a,,,,AAXX 30154 07460 12675 /3510 10080 21030 39751 40146 51004 60006 85500 91500=
07460,1996-03-30 18:00:00,6,1016.6,1.6,56,-2,20000,18.52,,,10,-0.6,8.2,,,,,,,,,wg-a,,,,AAXX 30184 07460 12770 /0110 10060 21020 39767 40166 53016 60006 86500 91800 333 10082 21006=
07460,1996-03-30 21:00:00,4,1018.5,1.4,56,-4,15000,14.816,,,40,,,,,,,,,,,wg-a,,,,AAXX 30214 07460 12765 70408 10040 21040 39783 40185 51014 60006 875// 92100=
07460,1996-03-31 00:00:00,-3,1019.8,0.3,80,-6,15000,3.704,,,250,,,,,,,,,,,wg-a,,,,AAXX 31004 07460 12/65 02502 11030 21060 39786 40198 51003 60006 80000 90000=
07460,1996-03-31 03:00:00,-4,1019.3,-0.8,86,-6,15000,0,,,0,,,,,,,,,,,wg-a,,,,AAXX 31034 07460 12/65 00000 11040 21060 39778 40193 56008 60006 80000 90300=
07460,1996-03-31 06:00:00,-6,1019.5,0.1,93,-7,15000,0,,,0,-6.2,5.9,,,,,,,,,wg-a,,,,AAXX 31064 07460 02/65 00000 11060 21070 39778 40195 53001 60006 80000 90600 333 10059 21062 60004=
07460,1996-03-31 09:00:00,3,1018.4,0.2,65,-3,15000,3.704,,,260,,,,,,,,,,,wg-a,,,,AAXX 31094 07460 12565 /2602 10030 21030 39781 40184 51002 60006 81100 90900=
07460,1996-03-31 12:00:00,8,1015.2,-2.4,36,-6,20000,7.408,,,280,,,,,,,,,,,wg-a,,,,AAXX 31124 07460 12570 /2804 10080 21060 39756 40152 58024 60006 81101 91200=
07460,1996-03-31 15:00:00,10,1012.2,-2.6,34,-5,15000,3.704,,,20,,,,,,,,,,,wg-a,,,,AAXX 31154 07460 12/65 50202 10100 21050 39730 40122 58026 60006 80004 91500=
07460,1996-03-31 18:00:00,8,1011.6,-0.8,46,-3,20000,11.112,,,360,-5.6,10.1,,,,,,,,,wg-a,,,,AAXX 31184 07460 12/70 73606 10080 21030 39722 40116 56008 60006 82032 91800 333 10101 21056=
07460,1996-03-31 21:00:00,4,1011.7,-0.4,56,-4,15000,7.408,,,300,,,,,,,,,,,wg-a,,,,AAXX 31214 07460 12/65 53004 10040 21040 39718 40117 58004 60006 83031 92100=
07460,1996-04-01 00:00:00,1,1010.4,-1.7,69,-4,15000,3.704,,,40,,,,,,,,,,,wg-a,,,,AAXX 01004 07460 12/65 70402 10010 21040 39701 40104 56017 60006 8703/ 90000=
07460,1996-04-01 03:00:00,1,1007.7,-2.7,75,-3,15000,0,,,0,,,,,,,,,,,wg-a,,,,AAXX 01034 07460 12/65 60000 10010 21030 39674 40077 57027 60006 82031 90300=
07460,1996-04-01 06:00:00,1,1006.4,-1.2,75,-3,15000,3.704,,,340,0.4,7.7,,,,,,,,,wg-a,,,,AAXX 01064 07460 02665 73402 10010 21030 39662 40064 56012 60006 83532 90600 333 10077 20004 60004=
07460,1996-04-01 09:00:00,3,1005.4,-0.7,75,-1,6000,3.704,,,50,,,,,,,,,,61,wg-a,,,,AAXX 01094 07460 02656 70502 10030 21010 39656 40054 57007 61000 76176 8553/ 90900 333 ////=
07460,1996-04-01 12:00:00,1,1004.7,-0.9,93,0,2500,3.704,,,360,,,,4,,,,,,10,wg-a,,,,AAXX 01124 07460 02325 83602 10010 20000 39646 40047 58009 60046 71076 8653/ 91200 333 60047=
07460,1996-04-01 14:00:00,2,1004,0.5,100,2,500,14.816,,,330,0.9,3.3,,1,,,,,,10,wg-a,,,,AAXX 01144 07460 12200 83308 10020 20020 39641 40040 53005 60017 71076 875// 91400 333 10033 20009=
07460,1996-04-01 15:00:00,2,1003.5,-1,100,2,6000,7.408,,,320,,,,2,,,,,,10,wg-a,,,,AAXX 01154 07460 12256 83204 10020 20020 39636 40035 56010 60027 71076 8653/ 91500=
07460,1996-04-01 18:00:00,2,1004,0.5,100,2,500,14.816,,,330,0.9,3.3,,1,,,,,,61,wg-a,,,,AAXX 01184 07460 12200 83308 10020 20020 39641 40040 53005 60017 76176 875// 91800 333 10033 20009=
07460,1996-04-01 21:00:00,2,1006.1,1.9,100,2,9000,18.52,,,340,,,,1,,,,,,61,wg-a,,,,AAXX 01214 07460 12359 83410 10020 20020 39661 40061 51019 60017 76166 885// 92100=
07460,1996-04-02 00:00:00,3,1006.6,0.7,93,2,10000,18.52,,,340,,,,0,,,,,,60,wg-a,,,,AAXX 02004 07460 02560 83410 10030 20020 39667 40066 51007 60016 76066 885// 90000 333 60007=
07460,1996-04-02 03:00:00,3,1007.9,1.2,81,0,13000,14.816,,,340,,,,0,,,,,,,wg-a,,,,AAXX 02034 07460 12563 83408 10030 20000 39679 40079 53012 60007 875// 90300=
07460,1996-04-02 06:00:00,1,1010.7,2.3,75,-3,14000,14.816,,,350,0.6,3,,,,,9,,,1,wg-a,,,,AAXX 02064 07460 12664 /3508 10010 21030 39703 40107 53023 60094 70162 82532 90600 333 10030 20006=
07460,1996-04-02 09:00:00,3,1013.2,2.7,65,-3,12000,18.52,,,10,,,,,,,,,,,wg-a,,,,AAXX 02094 07460 12762 /0110 10030 21030 39730 40132 51027 60006 81532 90900=
07460,1996-04-02 12:00:00,5,1014.3,1.4,56,-3,15000,18.52,,,330,,,,,,,,,,,wg-a,,,,AAXX 02124 07460 12565 /3310 10050 21030 39744 40143 51014 60006 8224/ 91200=
07460,1996-04-02 15:00:00,8,1013.9,-0,34,-7,20000,29.632,,,350,,,,,,,,,,,wg-a,,,,AAXX 02154 07460 12670 /3516 10080 21070 39744 40139 54000 60006 81100 91500=
07460,1996-04-02 18:00:00,6,1016.5,2.1,42,-6,20000,22.224,,,350,0.5,8.5,,,,,,,,,wg-a,,,,AAXX 02184 07460 12/70 03512 10060 21060 39766 40165 53021 60006 80000 91800 333 10085 20005=
07460,1996-04-02 21:00:00,3,1019.4,2.3,48,-7,15000,14.816,,,330,,,,,,,,,,,wg-a,,,,AAXX 02214 07460 12/65 03308 10030 21070 39789 40194 51023 60006 80000 92100=
07460,1996-04-03 00:00:00,2,1019.3,-0.1,51,-7,15000,14.816,,,330,,,,,,,,,,,wg-a,,,,AAXX 03004 07460 12665 43308 10020 21070 39787 40193 58001 60006 81530 90000=
07460,1996-04-03 03:00:00,0,1019.3,-0.3,69,-5,15000,14.816,,,350,,,,,,,,,,,wg-a,,,,AAXX 03034 07460 12665 /3508 10000 21050 39785 40193 56003 60006 85500 90300=
07460,1996-04-03 06:00:00,0,1020.6,1.2,69,-5,13000,18.52,,,360,-0.4,5.6,,,,,,,,,wg-a,,,,AAXX 03064 07460 02663 63610 10000 21050 39796 40206 53012 60006 84230 90600 333 10056 21004 60004=
07460,1996-04-03 09:00:00,3,1020.9,0.7,56,-5,15000,31.484,,,350,,,,,,,,,,,wg-a,,,,AAXX 03094 07460 12565 23517 10030 21050 39804 40209 53007 60006 82101 90900=
07460,1996-04-03 12:00:00,4,1020.9,0.2,52,-5,14000,29.632,,,360,,,,,,,,,,,wg-a,,,,AAXX 03124 07460 12564 73616 10040 21050 39805 40209 50002 60006 878// 91200=
07460,1996-04-03 15:00:00,5,1021,0.3,56,-3,12000,29.632,,,340,,,,,,,,,,,wg-a,,,,AAXX 03154 07460 12662 53416 10050 21030 39808 40210 53003 60006 85200 91500=
07460,1996-04-03 18:00:00,4,1022.5,1.4,56,-4,10000,18.52,,,340,-0.7,6,,,,,,,,,wg-a,,,,AAXX 03184 07460 12660 33410 10040 21040 39821 40225 52014 60006 82830 91800 333 10060 21007=
07460,1996-04-03 21:00:00,3,1024.2,1.4,52,-6,10000,14.816,,,330,,,,,,,,,,,wg-a,,,,AAXX 03214 07460 12660 33308 10030 21060 39836 40242 51014 60006 83500 92100=
07460,1996-04-04 00:00:00,3,1024.2,1.4,52,-6,10000,14.816,,,330,,,,,,,,,,,wg-a,,,,AAXX 04004 07460 12660 33308 10030 21060 39836 40242 51014 60006 83500 90000=
07460,1996-04-04 03:00:00,-3,1025.5,0.2,74,-7,10000,7.408,,,90,,,,,,,,,,,wg-a,,,,AAXX 04034 07460 12/60 00904 11030 21070 39840 40255 51002 60006 80000 90300=
07460,1996-04-04 06:00:00,-3,1026,0.2,74,-7,15000,0,,,0,-4.2,4.1,,,,,,,,,wg-a,,,,AAXX 04064 07460 02/65 00000 11030 21070 39844 40260 53002 60006 80000 90600 333 10041 21042 60004=
07460,1996-04-04 09:00:00,3,1024.7,-0.3,60,-4,12000,14.816,,,10,,,,,,,,,,,wg-a,,,,AAXX 04094 07460 12662 20108 10030 21040 39841 40247 58003 60006 82100 90900=
07460,1996-04-04 12:00:00,6,1022.5,-1.7,52,-3,18000,22.224,,,40,,,,,,,,,,,wg-a,,,,AAXX 04124 07460 12668 70412 10060 21030 39824 40225 56017 60006 878// 91200=
07460,1996-04-04 15:00:00,6,1021.7,-0.8,52,-3,13000,14.816,,,20,,,,,,,,,,,wg-a,,,,AAXX 04154 07460 12663 80208 10060 21030 39816 40217 57008 60006 888// 91500=
07460,1996-04-04 18:00:00,5,1021.8,-0.1,60,-2,15000,11.112,,,30,-3,6.9,,,,,,,,,wg-a,,,,AAXX 04184 07460 12665 80306 10050 21020 39816 40218 58001 60006 875// 91800 333 10069 21030=
07460,1996-04-04 21:00:00,4,1021.6,-0.4,60,-3,10000,7.408,,,50,,,,,,,,,,,wg-a,,,,AAXX 04214 07460 12660 80504 10040 21030 39812 40216 56004 60006 875// 92100=
07460,1996-04-05 00:00:00,3,1020.3,-1.3,65,-3,12000,3.704,,,30,,,,,,,,,,,wg-a,,,,AAXX 05004 07460 12662 80302 10030 21030 39799 40203 57013 60006 875// 90000=
07460,1996-04-05 03:00:00,2,1018.3,-2.1,69,-3,12000,3.704,,,50,,,,,,,,,,,wg-a,,,,AAXX 05034 07460 12662 70502 10020 21030 39778 40183 58021 60006 875// 90300=
07460,1996-04-05 06:00:00,1,1017.9,-0.6,80,-2,8000,3.704,,,360,0.4,4.8,,,,,,,,,wg-a,,,,AAXX 05064 07460 02/58 23602 10010 21020 39772 40179 56006 60006 80001 90600 333 10048 20004 60004=
07460,1996-04-05 09:00:00,5,1016.4,-0.8,60,-2,10000,3.704,,,150,,,,,,,,,,,wg-a,,,,AAXX 05094 07460 12660 /1502 10050 21020 39764 40164 57008 60006 81100 90900=
07460,1996-04-05 12:00:00,10,1013.7,-1.9,50,0,18000,7.408,,,40,,,,,,,,,,,wg-a,,,,AAXX 05124 07460 12/68 00404 10100 20000 39745 40137 58019 60006 80000 91200=
07460,1996-04-05 15:00:00,13,1011.9,-1.5,44,1,20000,3.704,,,20,,,,,,,,,,,wg-a,,,,AAXX 05154 07460 12/70 00202 10130 20010 39731 40119 56015 60006 80000 91500=
07460,1996-04-05 18:00:00,11,1012.8,0.7,50,1,15000,11.112,,,10,0.5,13.2,,,,,,,,,wg-a,,,,AAXX 05184 07460 12/65 20106 10110 20010 39737 40128 53007 60006 80002 91800 333 10132 20005=
07460,1996-04-05 21:00:00,5,1015.1,1.4,75,1,10000,11.112,,,230,,,,,,,,,,,wg-a,,,,AAXX 05214 07460 12/60 42306 10050 20010 39751 40151 51014 60006 82032 92100=
07460,1996-04-06 00:00:00,3,1015.7,0.4,81,0,10000,7.408,,,170,,,,,,,,,,,wg-a,,,,AAXX 06004 07460 12/60 21704 10030 20000 39754 40157 53004 60006 80001 90000=
07460,1996-04-06 03:00:00,3,1015.7,-0.1,75,-1,15000,11.112,,,140,,,,,,,,,,,wg-a,,,,AAXX 06034 07460 12/65 41406 10030 21010 39754 40157 56001 60006 83031 90300=
07460,1996-04-06 06:00:00,1,1016.6,0.6,75,-3,25000,3.704,,,310,0.6,10.5,,,,,,,,,wg-a,,,,AAXX 06064 07460 02/75 43102 10010 21030 39760 40166 53006 60006 81031 90600 333 10105 20006 60004=
07460,1996-04-06 09:00:00,10,1016.2,0.9,53,1,25000,11.112,,,180,,,,,,,,,,,wg-a,,,,AAXX 06094 07460 12/75 71806 10100 20010 39769 40162 51009 60006 80002 90900=
07460,1996-04-06 12:00:00,16,1014.9,-0.5,34,0,500,11.112,,,120,,,,,,,,,,,wg-a,,,,AAXX 06124 07460 12700 41206 10160 20000 39764 40149 58005 60006 81101 91200=
07460,1996-04-06 15:00:00,17,1014.3,-0.3,29,-1,500,11.112,,,120,,,,,,,,,,,wg-a,,,,AAXX 06154 07460 12700 /1206 10170 21010 39761 40143 57003 60006 81131 91500=
07460,1996-04-06 18:00:00,15,1015.4,0.7,36,0,25000,11.112,,,40,1,17.5,,,,,,,,,wg-a,,,,AAXX 06184 07460 12775 50406 10150 20000 39768 40154 53007 60006 83231 91800 333 10175 20010=
07460,1996-04-06 21:00:00,15,1015.4,0.7,36,0,25000,11.112,,,40,1,17.5,,,,,,,,,wg-a,,,,AAXX 06214 07460 12775 50406 10150 20000 39768 40154 53007 60006 83231 92100 333 10175 20010=
07460,1996-04-07 00:00:00,6,1018.9,0.6,70,1,0,3.704,,,320,,,,,,,,,,,wg-a,,,,AAXX 07004 07460 12/// /3202 10060 20010 39790 40189 51006 60006 90000=
07460,1996-04-07 03:00:00,5,1019.4,0.4,81,2,15000,3.704,,,360,,,,,,,,,,,wg-a,,,,AAXX 07034 07460 12/65 03602 10050 20020 39793 40194 51004 60006 80000 90300=
07460,1996-04-07 06:00:00,6,1020.1,0.9,70,1,20000,3.704,,,50,4.6,15,,,,,,,,,wg-a,,,,AAXX 07064 07460 02670 20502 10060 20010 39802 40201 53009 60006 82101 90600 333 10150 20046 60004=
07460,1996-04-07 09:00:00,12,1020.1,1,54,3,20000,3.704,,,30,,,,,,,,,,,wg-a,,,,AAXX 07094 07460 12670 20302 10120 20030 39810 40201 51010 60006 82101 90900=
07460,1996-04-07 12:00:00,17,1019,-0.3,36,2,20000,3.704,,,80,,,,,,,,,,,wg-a,,,,AAXX 07124 07460 12670 20802 10170 20020 39806 40190 57003 60006 82101 91200=
07460,1996-04-07 15:00:00,19,1018.3,-0.6,37,4,20000,7.408,,,90,,,,,,,,,,,wg-a,,,,AAXX 07154 07460 12670 20904 10190 20040 39801 40183 56006 60006 82101 91500=
07460,1996-04-07 18:00:00,15,1020.4,1.6,48,4,20000,14.816,,,10,6.3,19.1,,,,,,,,,wg-a,,,,AAXX 07184 07460 12670 40108 10150 20040 39816 40204 53016 60006 82531 91800 333 10191 20063=
07460,1996-04-07 21:00:00,11,1022.8,1.8,62,4,13000,0,,,0,,,,,,,,,,,wg-a,,,,AAXX 07214 07460 12763 30000 10110 20040 39834 40228 51018 60006 81530 92100=
07460,1996-04-08 00:00:00,10,1024.2,1.2,62,3,14000,3.704,,,120,,,,,,,,,,,wg-a,,,,AAXX 08004 07460 12/64 31202 10100 20030 39846 40242 51012 60006 83030 90000=
07460,1996-04-08 03:00:00,4,1025.9,0.8,75,0,14000,3.704,,,110,,,,,,,,,,,wg-a,,,,AAXX 08034 07460 12/64 51102 10040 20000 39854 40259 53008 60006 85030 90300=
07460,1996-04-08 06:00:00,3,1027.3,1.2,87,1,7000,0,,,0,2.3,14.7,,,,,,,,,wg-a,,,,AAXX 08064 07460 02/57 00000 10030 20010 39866 40273 53012 60006 80000 90600 333 10147 20023 60004=
07460,1996-04-08 09:00:00,10,1027.7,1.3,71,5,7000,7.408,,,40,,,,,,,,,,,wg-a,,,,AAXX 08094 07460 12/57 00404 10100 20050 39880 40277 51013 60006 80000 90900=
07460,1996-04-08 12:00:00,14,1026.4,-0.7,58,6,7000,11.112,,,40,,,,,,,,,,,wg-a,,,,AAXX 08124 07460 12657 20406 10140 20060 39873 40264 58007 60006 82100 91200=
07460,1996-04-08 15:00:00,15,1025.4,-0.8,55,6,8000,22.224,,,20,,,,,,,,,,,wg-a,,,,AAXX 08154 07460 12658 /0212 10150 20060 39865 40254 56008 60006 81100 91500=
07460,1996-04-08 18:00:00,13,1026.4,0.6,58,5,8000,14.816,,,30,2.8,15.3,,,,,,,,,wg-a,,,,AAXX 08184 07460 12658 /0308 10130 20050 39871 40264 53006 60006 81101 91800 333 10153 20028=
07460,1996-04-08 21:00:00,9,1029.2,2.3,71,4,7000,18.52,,,360,,,,,,,,,,,wg-a,,,,AAXX 08214 07460 12557 53610 10090 20040 39893 40292 51023 60006 84501 92100=
07460,1996-04-09 03:00:00,7,1028.1,-1.2,76,3,7000,7.408,,,360,,,,,,,,,,,wg-a,,,,AAXX 09034 07460 12557 73604 10070 20030 39879 40281 56012 60006 85501 90300=
07460,1996-04-09 06:00:00,6,1028,-0.1,81,3,7000,7.408,,,20,6.4,12.3,,,,,,,,,wg-a,,,,AAXX 09064 07460 02557 70204 10060 20030 39878 40280 57001 60006 875// 90600 333 10123 20064 60004=
07460,1996-04-09 09:00:00,8,1027.8,-0.1,66,2,10000,3.704,,,100,,,,,,,,,,,wg-a,,,,AAXX 09094 07460 12560 81002 10080 20020 39877 40278 58001 60006 885// 90900=
07460,1996-04-09 12:00:00,10,1026.1,-1.2,57,2,12000,7.408,,,130,,,,,,,,,,,wg-a,,,,AAXX 09124 07460 12562 41304 10100 20020 39865 40261 58012 60006 84500 91200=
07460,1996-04-09 15:00:00,13,1023.5,-2.1,54,4,12000,7.408,,,40,,,,,,,,,,,wg-a,,,,AAXX 09154 07460 12/62 20404 10130 20040 39844 40235 56021 60006 80001 91500=
07460,1996-04-09 18:00:00,12,1022.8,-0.9,58,4,10000,11.112,,,350,6.5,13.8,,,,,,,,,wg-a,,,,AAXX 09184 07460 12/60 13506 10120 20040 39836 40228 56009 60006 80001 91800 333 10138 20065=
07460,1996-04-09 21:00:00,6,1023.7,0.1,81,3,9000,7.408,,,240,,,,,,,,,,,wg-a,,,,AAXX 09214 07460 12/59 22404 10060 20030 39836 40237 50001 60006 81011 92100=
07460,1996-04-10 00:00:00,4,1023.4,-0.6,87,2,8000,3.704,,,270,,,,,,,,,,,wg-a,,,,AAXX 10004 07460 12/58 /2702 10040 20020 39830 40234 58006 60006 80001 90000=
07460,1996-04-10 03:00:00,4,1021.6,-1.6,87,2,8000,11.112,,,180,,,,,,,,,,,wg-a,,,,AAXX 10034 07460 12/58 01806 10040 20020 39813 40216 58016 60006 80000 90300=
07460,1996-04-10 06:00:00,3,1021.5,-0.2,93,2,10000,3.704,,,10,2,12.2,,,,,,,,,wg-a,,,,AAXX 10064 07460 02/60 40102 10030 20020 39811 40215 56002 60006 81031 90600 333 10122 20020 60004=
07460,1996-04-10 09:00:00,11,1020.1,-0.2,58,3,20000,3.704,,,130,,,,,,,,,,,wg-a,,,,AAXX 10094 07460 12/70 71302 10110 20030 39808 40201 58002 60006 81032 90900=
07460,1996-04-10 12:00:00,16,1017.8,-1.5,45,4,25000,3.704,,,150,,,,,,,,,,,wg-a,,,,AAXX 10124 07460 12/75 71502 10160 20040 39793 40178 58015 60006 83032 91200=
07460,1996-04-10 15:00:00,19,1016,-1.4,40,5,25000,14.816,,,90,,,,,,,,,,,wg-a,,,,AAXX 10154 07460 12775 50908 10190 20050 39779 40160 56014 60006 81132 91500=
07460,1996-04-10 18:00:00,15,1016.9,0.5,55,6,20000,7.408,,,60,3.3,18.9,,,,,,,,60,wg-a,,,,AAXX 10184 07460 02770 80604 10150 20060 39783 40169 53005 61000 76062 8557/ 91800 333 10189 20033 ////=
07460,1996-04-10 21:00:00,13,1018,0.7,67,7,15000,14.816,,,250,,,,,,,,,,60,wg-a,,,,AAXX 10214 07460 02665 82508 10130 20070 39790 40180 50007 61000 76062 8557/ 92100 333 ////=
07460,1996-04-11 00:00:00,11,1017.7,-0.4,82,8,15000,7.408,,,30,,,,,,,,,,1,wg-a,,,,AAXX 11004 07460 02565 40304 10110 20080 39786 40177 58004 61000 70161 84500 90000 333 6100=
07460,1996-04-11 03:00:00,7,1017.5,-0.8,87,5,15000,3.704,,,220,,,,,,,,,,,wg-a,,,,AAXX 11034 07460 12665 52202 10070 20050 39778 40175 56008 60006 84530 90300=
07460,1996-04-11 06:00:00,8,1017.3,-0.1,93,7,15000,7.408,,,60,6.4,14.9,,,,,,,,,wg-a,,,,AAXX 11064 07460 02565 /0604 10080 20070 39777 40173 55001 61000 86500 90600 333 10149 20064 ////=
07460,1996-04-11 09:00:00,13,1016.8,0.2,72,8,15000,3.704,,,10,,,,,,,,,,,wg-a,,,,AAXX 11094 07460 12565 /0102 10130 20080 39779 40168 53002 60006 86800 90900=
07460,1996-04-11 12:00:00,15,1014.7,-1.7,51,5,20000,14.816,,,20,,,,,,,,,,,wg-a,,,,AAXX 11124 07460 12570 50208 10150 20050 39762 40147 57017 60006 84101 91200=
07460,1996-04-11 15:00:00,17,1013.1,-0,39,3,20000,18.52,,,20,,,,,,,,,,,wg-a,,,,AAXX 11154 07460 32670 30210 10170 20030 39749 40131 54000 83101 91500=
07460,1996-04-11 18:00:00,14,1013.5,0,51,4,25000,14.816,,,20,8,17.1,,,,,,,,,wg-a,,,,AAXX 11184 07460 12675 70208 10140 20040 39749 40135 50000 60006 81101 91800 333 10171 20080=
07460,1996-04-11 21:00:00,9,1015.2,1,71,4,15000,0,,,0,,,,,,,,,,,wg-a,,,,AAXX 11214 07460 12/65 40000 10090 20040 39759 40152 51010 60006 80001 92100=
07460,1996-04-12 00:00:00,4,1015.5,-0.4,87,2,15000,7.408,,,250,,,,,,,,,,,wg-a,,,,AAXX 12004 07460 12/65 02504 10040 20020 39755 40155 57004 60006 80000 90000=
07460,1996-04-12 03:00:00,4,1014.9,-0.8,87,2,15000,0,,,0,,,,,,,,,,,wg-a,,,,AAXX 12034 07460 12665 30000 10040 20020 39748 40149 56008 60006 81101 90300=
07460,1996-04-12 04:00:00,3,1015.3,0.3,93,2,12000,0,,,0,2.2,13.9,,,,,,,,,wg-a,,,,AAXX 12044 07460 02662 30000 10030 20020 39751 40153 53003 60006 82131 90400 333 10139 20022 60004=
07460,1996-04-12 06:00:00,3,1015.3,0.4,93,2,12000,0,,,0,2.2,13.9,,,,,,,,,wg-a,,,,AAXX 12064 07460 02662 30000 10030 20020 39751 40153 53004 60006 82131 90600 333 10139 20022 60004=
07460,1996-04-12 09:00:00,12,1013.8,-0.2,62,5,12000,3.704,,,120,,,,,,,,,,,wg-a,,,,AAXX 12094 07460 12562 /1202 10120 20050 39749 40138 58002 60006 81131 90900=
07460,1996-04-12 12:00:00,16,1012.5,-0.8,39,2,15000,11.112,,,30,,,,,,,,,,,wg-a,,,,AAXX 12124 07460 12665 30306 10160 20020 39741 40125 58008 60006 82201 91200=
07460,1996-04-12 15:00:00,17,1011.1,-1.1,42,4,17000,14.816,,,40,,,,,,,,,,,wg-a,,,,AAXX 12154 07460 12667 40408 10170 20040 39729 40111 57011 60006 81101 91500=
07460,1996-04-12 18:00:00,15,1011.8,0.4,41,2,15000,11.112,,,10,3.3,17.1,,,,,,,,,wg-a,,,,AAXX 12184 07460 12/65 40106 10150 20020 39733 40118 53004 60006 80001 91800 333 10171 20033=
07460,1996-04-12 21:00:00,9,1013.8,1.2,61,2,15000,3.704,,,230,,,,,,,,,,,wg-a,,,,AAXX 12214 07460 12/65 42302 10090 20020 39744 40138 51012 60006 80001 92100=
07460,1996-04-13 00:00:00,7,1014,-0.1,76,3,15000,3.704,,,80,,,,,,,,,,,wg-a,,,,AAXX 13004 07460 12/65 40802 10070 20030 39743 40140 58001 60006 80001 90000=
07460,1996-04-13 03:00:00,4,1014.1,-0.2,87,2,15000,7.408,,,20,,,,,,,,,,,wg-a,,,,AAXX 13034 07460 12/65 40204 10040 20020 39741 40141 55002 60006 80001 90300=
07460,1996-04-13 06:00:00,5,1015,1,87,3,15000,0,,,0,2.5,14.4,,,,,,,,,wg-a,,,,AAXX 13064 07460 02665 30000 10050 20030 39751 40150 53010 60006 81131 90600 333 10144 20025 60004=
07460,1996-04-13 09:00:00,12,1015.4,1.2,62,5,15000,3.704,,,350,,,,,,,,,,,wg-a,,,,AAXX 13094 07460 12665 73502 10120 20050 39764 40154 52012 60006 8453/ 90900=
07460,1996-04-13 12:00:00,14,1014.9,-0.3,63,7,9000,3.704,,,60,,,,,,,,,,21,wg-a,,,,AAXX 13124 07460 02559 80602 10140 20070 39762 40149 58003 61000 72161 8583/ 91200 333 6100=
07460,1996-04-13 15:00:00,13,1014.7,-0.3,77,9,7000,7.408,,,20,,,,0,,,,,,61,wg-a,,,,AAXX 13154 07460 12557 80204 10130 20090 39759 40147 55003 60007 76162 8583/ 91500=
07460,1996-04-13 18:00:00,11,1015.5,0.4,94,10,4000,3.704,,,90,5.1,14,,5,,,,,,10,wg-a,,,,AAXX 13184 07460 12540 80902 10110 20100 39764 40155 50004 60057 71062 8553/ 91800 333 10140 20051=
07460,1996-04-13 21:00:00,10,1017.7,2,93,9,500,0,,,0,,,,3,,,,,,10,wg-a,,,,AAXX 13214 07460 12200 80000 10100 20090 39784 40177 51020 60037 71062 865// 92100=
07460,1996-04-14 00:00:00,8,1018.4,0.5,100,8,9000,7.408,,,10,,,,,,,,,,1,wg-a,,,,AAXX 14004 07460 12459 /0104 10080 20080 39788 40184 53005 60036 70162 82530 90000=
07460,1996-04-14 03:00:00,8,1018,-0.3,100,8,12000,11.112,,,260,,,,,,,,,,,wg-a,,,,AAXX 14034 07460 12562 72606 10080 20080 39785 40180 56003 60006 875// 90300=
07460,1996-04-14 06:00:00,8,1019.2,1.1,100,8,14000,3.704,,,110,6.9,10.6,,,,,8,,,,wg-a,,,,AAXX 14064 07460 12564 /1102 10080 20080 39796 40192 53011 60084 86501 90600 333 10106 20069=
07460,1996-04-14 09:00:00,11,1019.9,1,82,8,14000,11.112,,,350,,,,,,,,,,,wg-a,,,,AAXX 14094 07460 12464 73506 10110 20080 39807 40199 51010 60006 8423/ 90900=
07460,1996-04-14 12:00:00,14,1019,-0.3,63,7,25000,14.816,,,20,,,,,,,,,,,wg-a,,,,AAXX 14124 07460 12675 70208 10140 20070 39802 40190 58003 60006 83102 91200=
07460,1996-04-14 15:00:00,14,1019.1,-0.1,51,4,25000,22.224,,,20,,,,,,,,,,,wg-a,,,,AAXX 14154 07460 12675 70212 10140 20040 39802 40191 55001 60006 81102 91500=
07460,1996-04-14 18:00:00,12,1020.5,1.2,67,6,15000,14.816,,,20,8.1,14.7,,,,,,,,,wg-a,,,,AAXX 14184 07460 12665 70208 10120 20060 39814 40205 53012 60006 83532 91800 333 10147 20081=
07460,1996-04-14 21:00:00,10,1022.6,1.7,76,6,15000,7.408,,,320,,,,,,,,,,,wg-a,,,,AAXX 14214 07460 12665 /3204 10100 20060 39831 40226 51017 60006 82531 92100=
07460,1996-04-15 00:00:00,9,1023.3,0.5,76,5,15000,0,,,0,,,,,,,,,,,wg-a,,,,AAXX 15004 07460 12665 70000 10090 20050 39836 40233 51005 60006 84532 90000=
07460,1996-04-15 03:00:00,8,1023.3,-0.1,87,6,15000,3.704,,,90,,,,,,,,,,,wg-a,,,,AAXX 15034 07460 12665 /0902 10080 20060 39835 40233 55001 60006 84532 90300=
07460,1996-04-15 06:00:00,7,1024.5,1,93,6,10000,0,,,0,6.4,12,,,,,,,,,wg-a,,,,AAXX 15064 07460 02/60 40000 10070 20060 39845 40245 53010 60006 84030 90600 333 10120 20064 60004=
07460,1996-04-15 09:00:00,12,1024.7,,67,6,15000,11.112,,,360,,,,,,,,,,,wg-a,,,,AAXX 15094 07460 32565 /3606 10120 20060 39854 40247 81100 90900=
07460,1996-04-15 12:00:00,14,1024.2,,41,1,500,14.816,,,40,,,,,,,,,,,wg-a,,,,AAXX 15124 07460 12600 /0408 10140 20010 39852 40242 60006 81101 91200=
07460,1996-04-15 15:00:00,16,1023.2,-0.9,34,0,500,18.52,,,350,,,,,,,,,,,wg-a,,,,AAXX 15154 07460 12/00 13510 10160 20000 39844 40232 58009 60006 80001 91500=
07460,1996-04-15 18:00:00,14,1022.9,-0.4,28,-4,500,11.112,,,40,7.1,15.5,,,,,,,,,wg-a,,,,AAXX 15184 07460 12/00 10406 10140 21040 39839 40229 56004 60006 80001 91800 333 10155 20071=
07460,1996-04-15 21:00:00,7,1024.6,0.6,57,-1,20000,7.408,,,150,,,,,,,,,,,wg-a,,,,AAXX 15214 07460 12/70 11504 10070 21010 39845 40246 51006 60006 80001 92100=
07460,1996-04-16 00:00:00,4,1024.2,-0.9,70,-1,20000,3.704,,,290,,,,,,,,,,,wg-a,,,,AAXX 16004 07460 12/70 12902 10040 21010 39837 40242 58009 60006 80001 90000=
07460,1996-04-16 03:00:00,3,1021.9,-2.2,70,-2,20000,3.704,,,340,,,,,,,,,,,wg-a,,,,AAXX 16034 07460 12/70 13402 10030 21020 39815 40219 57022 60006 80001 90300=
07460,1996-04-16 06:00:00,3,1021.1,-0.8,70,-2,25000,7.408,,,160,-0.8,13.9,,,,,,,,,wg-a,,,,AAXX 16064 07460 02/75 21604 10030 21020 39806 40211 58008 60006 80001 90600 333 10139 21008 60004=
07460,1996-04-16 09:00:00,11,1017.5,-2.3,43,-1,25000,18.52,,,150,,,,,,,,,,,wg-a,,,,AAXX 16094 07460 12/75 21510 10110 21010 39783 40175 56023 60006 80001 90900=
07460,1996-04-16 12:00:00,18,1013.6,-2.9,24,-3,500,11.112,,,100,,,,,,,,,,,wg-a,,,,AAXX 16124 07460 12/00 41006 10180 21030 39754 40136 58029 60006 80002 91200=
07460,1996-04-16 15:00:00,20,1009.8,-3.2,23,-2,35000,7.408,,,30,,,,,,,,,,,wg-a,,,,AAXX 16154 07460 12581 /0304 10200 21020 39721 40098 58032 60006 81234 91500=
07460,1996-04-16 18:00:00,19,1008,-1.9,32,2,500,7.408,,,40,2.9,20.9,,,,,,,,,wg-a,,,,AAXX 16184 07460 12/00 60404 10190 20020 39702 40080 56019 60006 81032 91800 333 10209 20029=
07460,1996-04-17 00:00:00,13,1008.3,-0.1,38,-1,15000,29.632,,,200,,,,,,,,,,,wg-a,,,,AAXX 17004 07460 12/65 72016 10130 21010 39697 40083 56001 60006 86032 90000=
07460,1996-04-17 03:00:00,12,1008.4,-0,44,0,11000,18.52,,,210,,,,,,,,,,,wg-a,,,,AAXX 17034 07460 12/61 /2110 10120 20000 39697 40084 55000 60006 90300=
07460,1996-04-17 06:00:00,9,1010.8,2,93,8,10000,14.816,,,190,9.2,18.9,,4,,,4,,,61,wg-a,,,,AAXX 17064 07460 02560 81908 10090 20080 39717 40108 53020 60044 76162 8557/ 90600 333 10189 20092 60047=
07460,1996-04-17 09:00:00,10,1013.2,2.4,82,7,12000,3.704,,,330,,,,6,,,,,,61,wg-a,,,,AAXX 17094 07460 12562 83302 10100 20070 39741 40132 53024 60067 76166 8687/ 90900=
07460,1996-04-17 12:00:00,12,1013.7,0.9,62,5,15000,14.816,,,320,,,,,,,,,,21,wg-a,,,,AAXX 17124 07460 02565 83208 10120 20050 39749 40137 51009 60066 72162 8587/ 91200 333 61000=
07460,1996-04-17 15:00:00,14,1013.7,0.1,51,4,20000,14.816,,,320,,,,,,,,,,,wg-a,,,,AAXX 17154 07460 12570 73208 10140 20040 39751 40137 53001 60006 8517/ 91500=
07460,1996-04-17 18:00:00,13,1015.9,1.9,54,4,20000,14.816,,,330,8.9,14.1,,,,,,,,,wg-a,,,,AAXX 17184 07460 32670 63308 10130 20040 39771 40159 53019 84171 91800 333 10141 20089=
07460,1996-04-17 21:00:00,10,1019.2,2.8,66,4,15000,3.704,,,40,,,,,,,,,,,wg-a,,,,AAXX 17214 07460 12665 50402 10100 20040 39799 40192 51028 60006 81131 92100=
07460,1996-04-18 00:00:00,10,1020.5,1,71,5,12000,3.704,,,10,,,,,,,,,,,wg-a,,,,AAXX 18004 07460 12662 40102 10100 20050 39810 40205 51010 60006 82531 90000=
07460,1996-04-18 03:00:00,8,1021.1,0.4,87,6,12000,7.408,,,60,,,,,,,,,,,wg-a,,,,AAXX 18034 07460 12662 /0604 10080 20060 39814 40211 53004 60006 8553/ 90300=
07460,1996-04-18 06:00:00,7,1022.2,1,93,6,14000,3.704,,,90,7,12.9,,,,,6,,,,wg-a,,,,AAXX 18064 07460 02564 50902 10070 20060 39824 40222 53010 60006 85830 90600 333 10129 20070 60064=
07460,1996-04-18 12:00:00,15,1020.3,-1.6,55,6,500,3.704,,,60,,,,,,,,,,,wg-a,,,,AAXX 18124 07460 12600 /0602 10150 20060 39816 40203 58016 60006 82101 91200=
07460,1996-04-18 15:00:00,16,1018.8,-1.3,48,5,500,7.408,,,40,,,,,,,,,,,wg-a,,,,AAXX 18154 07460 12600 /0404 10160 20050 39803 40188 56013 60006 82101 91500=
07460,1996-04-18 18:00:00,15,1018.6,-0.4,51,5,500,7.408,,,30,7.6,16.4,,,,,,,,,wg-a,,,,AAXX 18184 07460 12600 /0304 10150 20050 39799 40186 55004 60006 81101 91800 333 10164 20076=
07460,1996-04-18 21:00:00,10,1019.9,0.6,76,6,20000,3.704,,,290,,,,,,,,,,,wg-a,,,,AAXX 18214 07460 12/70 62902 10100 20060 39805 40199 51006 60006 80001 92100=
07460,1996-04-19 00:00:00,7,1020.4,0.1,87,5,20000,3.704,,,250,,,,,,,,,,,wg-a,,,,AAXX 19004 07460 12/70 32502 10070 20050 39806 40204 50001 60006 80001 90000=
07460,1996-04-19 03:00:00,6,1019.9,-0.6,87,4,20000,18.52,,,170,,,,,,,,,,,wg-a,,,,AAXX 19034 07460 12/70 01710 10060 20040 39800 40199 56006 60006 80000 90300=
07460,1996-04-19 06:00:00,7,1020.3,0.6,87,5,500,14.816,,,190,5.5,14.9,,,,,,,,,wg-a,,,,AAXX 19064 07460 02/00 11908 10070 20050 39805 40203 53006 60006 80001 90600 333 10149 20055 60004=
07460,1996-04-19 09:00:00,15,1018.4,-0.7,63,8,500,7.408,,,190,,,,,,,,,,,wg-a,,,,AAXX 19094 07460 12/00 41904 10150 20080 39798 40184 58007 60006 80001 90900=
07460,1996-04-19 12:00:00,22,1015.3,-2.2,33,5,500,25.928,,,170,,,,,,,,,,,wg-a,,,,AAXX 19124 07460 12/00 31714 10220 20050 39776 40153 58022 60006 80001 91200=
07460,1996-04-19 15:00:00,23,1013.4,-1.5,23,1,40000,29.632,,,170,,,,,,,,,,,wg-a,,,,AAXX 19154 07460 12/82 41716 10230 20010 39760 40134 56015 60006 80001 91500=
07460,1996-04-19 18:00:00,20,1013.9,0.1,24,-1,500,29.632,,,180,6.7,23.7,,,,,,,,,wg-a,,,,AAXX 19184 07460 12/00 71816 10200 21010 39760 40139 53001 60006 80001 91800 333 10237 20067=
07460,1996-04-19 21:00:00,14,1016.6,1.7,38,0,20000,11.112,,,170,,,,,,,,,,,wg-a,,,,AAXX 19214 07460 12/70 41706 10140 20000 39778 40166 51017 60006 80001 92100=
07460,1996-04-20 00:00:00,12,1016.4,-0.5,35,-3,20000,22.224,,,170,,,,,,,,,,,wg-a,,,,AAXX 20004 07460 12/70 31712 10120 21030 39773 40164 58005 60006 80001 90000=
07460,1996-04-20 03:00:00,11,1015.4,-1.1,40,-2,20000,25.928,,,150,,,,,,,,,,,wg-a,,,,AAXX 20034 07460 12/70 21514 10110 21020 39762 40154 56011 60006 80001 90300=
07460,1996-04-20 06:00:00,11,1015.5,0.2,50,1,35000,11.112,,31.484,180,8.8,19.6,,,,,,,,,wg-a,,,,AAXX 20064 07460 02/81 51806 10110 20010 39764 40155 53002 60006 82031 90600 333 10196 20088 60004 91017=
07460,1996-04-20 09:00:00,16,1013.9,-0.8,39,2,35000,31.484,,,170,,,,,,,,,,,wg-a,,,,AAXX 20094 07460 12/81 51717 10160 20020 39755 40139 58008 60006 83042 90900=
07460,1996-04-20 12:00:00,19,1012.1,-1.2,30,1,40000,31.484,,,190,,,,,,,,,,,wg-a,,,,AAXX 20124 07460 12/82 71917 10190 20010 39742 40121 56012 60006 81042 91200=
07460,1996-04-20 15:00:00,20,1011.3,-0.7,28,1,500,38.892,,,180,,,,,,,,,,,wg-a,,,,AAXX 20154 07460 12/00 71821 10200 20010 39735 40113 56007 60006 83042 91500=
07460,1996-04-20 18:00:00,17,1011.7,0.1,29,-1,500,18.52,,,190,11.1,21,,,,,,,,,wg-a,,,,AAXX 20184 07460 12/00 61910 10170 21010 39735 40117 50001 60006 81042 91800 333 10210 20111=
07460,1996-04-20 21:00:00,14,1012,-0.2,38,0,15000,22.224,,,190,,,,,,,,,,,wg-a,,,,AAXX 20214 07460 12/65 11912 10140 20000 39734 40120 58002 60006 81032 92100=
07460,1996-04-21 00:00:00,13,1011.5,-0.4,38,-1,15000,31.484,,,170,,,,,,,,,,,wg-a,,,,AAXX 21004 07460 12/65 01717 10130 21010 39728 40115 56004 60006 80000 90000=
07460,1996-04-21 03:00:00,12,1011.1,-0.7,40,-1,15000,14.816,,,180,,,,,,,,,,,wg-a,,,,AAXX 21034 07460 12/65 31808 10120 21010 39722 40111 55007 60006 80001 90300=
07460,1996-04-21 06:00:00,13,1011,-0,47,2,500,25.928,,,160,11.1,16.8,,,,,,,,,wg-a,,,,AAXX 21064 07460 02/00 71614 10130 20020 39723 40110 55000 60006 84032 90600 333 10168 20111 60004=
07460,1996-04-21 09:00:00,17,1010.1,-0.4,39,3,500,38.892,,,180,,,,,,,,,,,wg-a,,,,AAXX 21094 07460 12700 41821 10170 20030 39720 40101 58004 60006 81132 90900=
07460,1996-04-21 12:00:00,22,1008.4,-1,27,2,500,35.188,,,160,,,,,,,,,,,wg-a,,,,AAXX 21124 07460 12/00 31619 10220 20020 39709 40084 56010 60006 81031 91200=
07460,1996-04-21 15:00:00,22,1007.9,-0.4,33,5,500,35.188,,,180,,,,,,,,,,,wg-a,,,,AAXX 21154 07460 12600 41819 10220 20050 39705 40079 57004 60006 81132 91500=
07460,1996-04-21 18:00:00,19,1008.8,0.7,37,4,25000,31.484,,,170,12.9,23.3,,,,,,,,,wg-a,,,,AAXX 21184 07460 12/75 51717 10190 20040 39711 40088 53007 60006 82042 91800 333 10233 20129=
07460,1996-04-21 21:00:00,16,1010.7,1.2,42,3,20000,14.816,,,200,,,,,,,,,,,wg-a,,,,AAXX 21214 07460 12670 /2008 10160 20030 39724 40107 51012 60006 81132 92100=
07460,1996-04-22 03:00:00,14,1009.2,-1.4,47,3,15000,25.928,,,170,,,,,,,,,,,wg-a,,,,AAXX 22034 07460 12/65 61714 10140 20030 39707 40092 56014 60006 83032 90300=
07460,1996-04-22 06:00:00,14,1008.4,-0.6,47,3,25000,3.704,,,230,13.6,19.2,,,,,,,,,wg-a,,,,AAXX 22064 07460 02/75 72302 10140 20030 39700 40084 56006 60006 85032 90600 333 10192 20136 60004=
07460,1996-04-22 09:00:00,17,1008,-0,45,5,500,22.224,,,160,,,,,,,,,,,wg-a,,,,AAXX 22094 07460 12700 71612 10170 20050 39700 40080 55000 60006 81131 90900=
07460,1996-04-22 12:00:00,21,1005.1,-2.1,40,7,500,42.596,,59.264,160,,,,,,,,,,,wg-a,,,,AAXX 22124 07460 12700 /1623 10210 20070 39677 40051 58021 60006 81132 91200 333 91032=
07460,1996-04-22 15:00:00,18,1004.7,-0.9,49,7,500,57.412,,75.932,170,,,,,,,,,,,wg-a,,,,AAXX 22154 07460 12700 /1731 10180 20070 39669 40047 58009 60006 81132 91500 333 91041=
07460,1996-04-22 18:00:00,15,1004.8,-0.3,59,7,500,53.708,,77.784,180,13.7,21.3,,,,,,,,80,wg-a,,,,AAXX 22184 07460 02500 71829 10150 20070 39667 40048 58003 61000 78086 83872 91800 333 10213 20137 //// 91042=
07460,1996-04-22 21:00:00,14,1006.8,1.8,67,8,20000,35.188,,,180,,,,,,,,,,21,wg-a,,,,AAXX 22214 07460 02670 /1819 10140 20080 39685 40068 53018 61000 72186 83530 92100 333 ////=
07460,1996-04-23 00:00:00,13,1007.8,0.9,82,10,20000,25.928,,,160,,,,0,,,,,,61,wg-a,,,,AAXX 23004 07460 02570 71614 10130 20100 39694 40078 53009 60006 76186 84830 90000 333 60007=
07460,1996-04-23 03:00:00,13,1007,-0.9,77,9,15000,22.224,,,170,,,,3,,,,,,,wg-a,,,,AAXX 23034 07460 12665 /1712 10130 20090 39685 40070 56009 60037 85500 90300=
07460,1996-04-23 06:00:00,11,1010.8,3.4,76,7,20000,22.224,,,180,10.6,14.7,,2,,,5,,,21,wg-a,,,,AAXX 23064 07460 02470 71812 10110 20070 39719 40108 52034 60054 72162 878// 90600 333 10147 20106 60027=
07460,1996-04-23 09:00:00,11,1012.7,1.9,87,9,35000,22.224,,,180,,,,0,,,,,,1,wg-a,,,,AAXX 23094 07460 12481 71812 10110 20090 39738 40127 51019 60007 70162 8487/ 90900=
07460,1996-04-23 12:00:00,13,1013,0.3,77,9,11000,18.52,,,160,,,,,,,,,,,wg-a,,,,AAXX 23124 07460 12/61 /1610 10130 20090 39743 40130 50003 60016 91200=
07460,1996-04-23 15:00:00,14,1013.5,0.6,58,6,25000,7.408,,,210,,,,,,,,,,,wg-a,,,,AAXX 23154 07460 12575 72104 10140 20060 39749 40135 51006 60006 8587/ 91500=
07460,1996-04-23 18:00:00,11,1015.7,1.8,62,4,25000,11.112,,,260,9.9,14,,,,,,,,,wg-a,,,,AAXX 23184 07460 32575 62606 10110 20040 39767 40157 52018 84832 91800 333 10140 20099=
07460,1996-04-23 21:00:00,6,1019.5,2.8,87,4,20000,3.704,,,230,,,,,,,,,,,wg-a,,,,AAXX 23214 07460 12570 22302 10060 20040 39795 40195 52028 60006 82100 92100=
07460,1996-04-24 00:00:00,6,1020.4,1,87,4,20000,0,,,0,,,,,,,,,,,wg-a,,,,AAXX 24004 07460 12570 /0000 10060 20040 39805 40204 52010 60006 81100 90000=
07460,1996-04-24 03:00:00,5,1021,0.4,87,3,20000,7.408,,,120,,,,,,,,,,,wg-a,,,,AAXX 24034 07460 12670 /1204 10050 20030 39809 40210 51004 60006 81500 90300=
07460,1996-04-24 06:00:00,6,1021.9,0.8,87,4,25000,14.816,,,180,3.3,11.9,,,,,,,,,wg-a,,,,AAXX 24064 07460 02675 /1808 10060 20040 39818 40219 53008 60006 81800 90600 333 10119 20033 60004=
07460,1996-04-24 09:00:00,11,1021.9,0.8,66,5,500,7.408,,,120,,,,,,,,,,,wg-a,,,,AAXX 24094 07460 12600 /1204 10110 20050 39826 40219 51008 60006 85230 90900=
07460,1996-04-24 12:00:00,14,1021.9,0.4,47,3,500,11.112,,,320,,,,,,,,,,,wg-a,,,,AAXX 24124 07460 12600 /3206 10140 20030 39830 40219 51004 60006 86200 91200=
07460,1996-04-24 15:00:00,15,1021.2,-0.5,44,3,35000,7.408,,,70,,,,,,,,,,,wg-a,,,,AAXX 24154 07460 12681 /0704 10150 20030 39824 40212 58005 60006 86200 91500=
07460,1996-04-24 18:00:00,14,1021.7,0.4,47,3,40000,7.408,,,50,5.5,16.7,,,,,,,,,wg-a,,,,AAXX 24184 07460 12682 50504 10140 20030 39828 40217 53004 60006 85800 91800 333 10167 20055=
07460,1996-04-24 21:00:00,11,1024.4,2.2,82,8,20000,7.408,,,70,,,,1,,,,,,25,wg-a,,,,AAXX 24214 07460 12670 60704 10110 20080 39850 40244 51022 60017 72586 86800 92100=
07460,1996-04-25 00:00:00,6,1025.8,0.6,93,5,20000,3.704,,,120,,,,,,,,,,1,wg-a,,,,AAXX 25004 07460 12/70 01202 10060 20050 39856 40258 50006 60016 70186 80000 90000=
07460,1996-04-25 03:00:00,4,1025.5,-0.4,100,4,20000,3.704,,,140,,,,,,,,,,,wg-a,,,,AAXX 25034 07460 12670 21402 10040 20040 39851 40255 58004 60006 82500 90300=
07460,1996-04-25 06:00:00,5,1026.5,1.1,100,5,15000,0,,,0,2.6,14.2,,,,,1,,,,wg-a,,,,AAXX 25064 07460 12565 50000 10050 20050 39862 40265 52011 60014 85800 90600 333 10142 20026=
07460,1996-04-25 09:00:00,12,1025.2,-0.3,67,6,20000,11.112,,,20,,,,,,,,,,,wg-a,,,,AAXX 25094 07460 12570 30206 10120 20060 39859 40252 58003 60006 82101 90900=
07460,1996-04-25 12:00:00,15,1023.7,-1.1,44,3,25000,18.52,,,20,,,,,,,,,,,wg-a,,,,AAXX 25124 07460 12675 30210 10150 20030 39848 40237 58011 60006 83101 91200=
07460,1996-04-25 15:00:00,16,1022.7,-0.7,45,4,25000,18.52,,,10,,,,,,,,,,,wg-a,,,,AAXX 25154 07460 12675 30110 10160 20040 39840 40227 58007 60006 83801 91500=
07460,1996-04-25 18:00:00,14,1022.7,-0.4,47,3,25000,14.816,,,10,5.5,16.4,,,,,,,,,wg-a,,,,AAXX 25184 07460 12675 /0108 10140 20030 39837 40227 56004 60006 81801 91800 333 10164 20055=
07460,1996-04-25 21:00:00,10,1024.1,0.9,66,4,20000,3.704,,,340,,,,,,,,,,,wg-a,,,,AAXX 25214 07460 12770 /3402 10100 20040 39845 40241 51009 60006 81501 92100=
07460,1996-04-26 00:00:00,6,1024.1,-0.6,75,2,20000,3.704,,,350,,,,,,,,,,,wg-a,,,,AAXX 26004 07460 12770 /3502 10060 20020 39839 40241 58006 60006 81501 90000=
07460,1996-04-26 03:00:00,8,1022.1,-1.6,76,4,15000,7.408,,,320,,,,,,,,,,,wg-a,,,,AAXX 26034 07460 12/65 03204 10080 20040 39823 40221 56016 60006 80000 90300=
07460,1996-04-26 06:00:00,6,1022.2,-0.1,87,4,15000,0,,,0,4,14.3,,,,,,,,,wg-a,,,,AAXX 26064 07460 02865 10000 10060 20040 39822 40222 55001 60006 81031 90600 333 10143 20040 60004=
07460,1996-04-26 09:00:00,12,1020.2,-1.1,67,6,15000,11.112,,,10,,,,,,,,,,,wg-a,,,,AAXX 26094 07460 12/65 20106 10120 20060 39811 40202 58011 60006 80001 90900=
07460,1996-04-26 12:00:00,17,1017.6,-1.9,48,6,20000,22.224,,,20,,,,,,,,,,,wg-a,,,,AAXX 26124 07460 12570 20212 10170 20060 39792 40176 58019 60006 81101 91200=
07460,1996-04-26 15:00:00,19,1015.3,-2.1,43,6,20000,14.816,,,10,,,,,,,,,,,wg-a,,,,AAXX 26154 07460 12670 40108 10190 20060 39772 40153 56021 60006 82101 91500=
07460,1996-04-26 18:00:00,17,1014.5,-0.9,48,6,20000,14.816,,,360,6.2,18.8,,,,,,,,,wg-a,,,,AAXX 26184 07460 12670 73608 10170 20060 39762 40145 56009 60006 81132 91800 333 10188 20062=
07460,1996-04-26 21:00:00,14,1015.6,0.7,55,5,15000,7.408,,,340,,,,,,,,,,,wg-a,,,,AAXX 26214 07460 12/65 63404 10140 20050 39769 40156 52007 60006 81032 92100=
07460,1996-04-27 00:00:00,11,1015.3,-0.6,62,4,15000,7.408,,,320,,,,,,,,,,,wg-a,,,,AAXX 27004 07460 12/65 73204 10110 20040 39763 40153 58006 60006 83032 90000=
07460,1996-04-27 03:00:00,9,1014.4,-1.2,71,4,15000,3.704,,,100,,,,,,,,,,,wg-a,,,,AAXX 27034 07460 12/65 41002 10090 20040 39751 40144 56012 60006 81031 90300=
07460,1996-04-27 06:00:00,6,1014.6,-0.1,93,5,15000,0,,,0,5.6,16.7,,,,,,,,,wg-a,,,,AAXX 27064 07460 02/65 60000 10060 20050 39749 40146 55001 60006 84031 90600 333 10167 20056 60004=
07460,1996-04-27 09:00:00,14,1013,-0.5,58,6,20000,7.408,,,40,,,,,,,,,,,wg-a,,,,AAXX 27094 07460 12/70 60404 10140 20060 39744 40130 58005 60006 82031 90900=
07460,1996-04-27 12:00:00,19,1011.1,-1.2,40,5,500,11.112,,,30,,,,,,,,,,,wg-a,,,,AAXX 27124 07460 12700 30306 10190 20050 39732 40111 58012 60006 81131 91200=
07460,1996-04-27 15:00:00,20,1009.6,-1.4,37,5,500,7.408,,,20,,,,,,,,,,,wg-a,,,,AAXX 27154 07460 12700 70204 10200 20050 39718 40096 57014 60006 81131 91500=
07460,1996-04-27 18:00:00,16,1010.1,0.1,63,9,20000,11.112,,,170,6.5,20.2,,,,,,,,,wg-a,,,,AAXX 27184 07460 12/70 81706 10160 20090 39719 40101 53001 60006 8707/ 91800 333 10202 20065=
07460,1996-04-27 21:00:00,14,1011.5,1.1,77,10,15000,22.224,,,190,,,,,,,,,,,wg-a,,,,AAXX 27214 07460 12/65 81912 10140 20100 39730 40115 51011 60006 8707/ 92100=
07460,1996-04-28 00:00:00,12,1011.1,-0.7,88,10,10000,11.112,,,210,,,,1,,,,,,60,wg-a,,,,AAXX 28004 07460 02/60 82106 10120 20100 39723 40111 58007 60016 76062 8807/ 90000 333 60017=
07460,1996-04-28 03:00:00,12,1009.8,-1.2,88,10,10000,7.408,,,170,,,,,,,,,,1,wg-a,,,,AAXX 28034 07460 02/60 81704 10120 20100 39711 40098 56012 61000 70162 8707/ 90300 333 ////=
07460,1996-04-28 06:00:00,13,1009.3,-0.4,82,10,15000,18.52,,,180,11.5,16.1,,,,,1,,,2,wg-a,,,,AAXX 28064 07460 12/65 71810 10130 20100 39707 40093 56004 60014 70262 8707/ 90600 333 10161 20115=
07460,1996-04-28 09:00:00,14,1009,-0,82,11,12000,0,,,0,,,,,,,,,,,wg-a,,,,AAXX 28094 07460 12762 70000 10140 20110 39707 40090 55000 60006 8257/ 90900=
07460,1996-04-28 12:00:00,19,1006.7,-1.6,49,8,18000,7.408,,,20,,,,,,,,,,,wg-a,,,,AAXX 28124 07460 12768 /0204 10190 20080 39691 40067 58016 60006 83230 91200=
07460,1996-04-28 15:00:00,16,1006,-1.1,82,13,15000,7.408,,,280,,,,1,,,,,,25,wg-a,,,,AAXX 28154 07460 12565 72804 10160 20130 39680 40060 56011 60017 72586 8523/ 91500=
07460,1996-04-28 18:00:00,15,1005.8,-0.3,82,12,15000,18.52,,,160,12.3,19.9,,,,,,,,3,wg-a,,,,AAXX 28184 07460 32565 71610 10150 20120 39677 40058 55003 70386 8583/ 91800 333 10199 20123=
07460,1996-04-28 21:00:00,12,1007.2,1,100,12,9000,0,,,0,,,,4,,,,,,61,wg-a,,,,AAXX 28214 07460 12559 70000 10120 20120 39687 40072 51010 60047 76162 8357/ 92100=
07460,1996-04-29 00:00:00,12,1006.9,-0.4,94,11,15000,0,,,0,,,,1,,,,,,,wg-a,,,,AAXX 29004 07460 02665 70000 10120 20110 39683 40069 58004 60056 8357/ 90000 333 60017=
07460,1996-04-29 03:00:00,12,1005.9,-1,94,11,6000,0,,,0,,,,0,,,,,,,wg-a,,,,AAXX 29034 07460 12556 80000 10120 20110 39673 40059 56010 60007 8357/ 90300=
07460,1996-04-29 06:00:00,12,1006.1,0.2,94,11,3000,3.704,,,10,11.2,15,,1,,,8,,,10,wg-a,,,,AAXX 29064 07460 02230 80102 10120 20110 39675 40061 53002 60084 71062 8657/ 90600 333 10150 20112 60017=
07460,1996-04-29 09:00:00,13,1006.2,0.3,94,12,500,3.704,,,60,,,,1,,,,,,1,wg-a,,,,AAXX 29094 07460 12300 80602 10130 20120 39678 40062 51003 60017 70162 8557/ 90900=
07460,1996-04-29 12:00:00,15,1005,-0.9,82,12,7000,14.816,,,50,,,,,,,,,,1,wg-a,,,,AAXX 29124 07460 12457 70508 10150 20120 39669 40050 58009 60016 70162 8553/ 91200=
07460,1996-04-29 15:00:00,15,1003.8,-1.2,77,11,8000,18.52,,,20,,,,,,,,,,,wg-a,,,,AAXX 29154 07460 12558 70210 10150 20110 39658 40038 57012 60006 8523/ 91500=
07460,1996-04-29 18:00:00,13,1004.7,0.6,82,10,7000,14.816,,,20,11.6,15.9,,,,,,,,,wg-a,,,,AAXX 29184 07460 32457 70208 10130 20100 39663 40047 51006 8583/ 91800 333 10159 20116=
07460,1996-04-29 21:00:00,12,1005.8,1,88,10,8000,3.704,,,350,,,,,,,,,,,wg-a,,,,AAXX 29214 07460 12558 73502 10120 20100 39673 40058 51010 60006 8583/ 92100=
07460,1996-04-30 00:00:00,11,1005.7,-0.2,94,10,7000,3.704,,,90,,,,,,,,,,,wg-a,,,,AAXX 30004 07460 12457 70902 10110 20100 39671 40057 56002 60006 875// 90000=
07460,1996-04-30 03:00:00,10,1004.7,-1.1,100,10,8000,7.408,,,200,,,,,,,,,,,wg-a,,,,AAXX 30034 07460 12558 72004 10100 20100 39660 40047 56011 60006 875// 90300=
07460,1996-04-30 06:00:00,10,1005.4,0.6,93,9,500,0,,,0,9.5,13,,,,,1,,,,wg-a,,,,AAXX 30064 07460 02600 70000 10100 20090 39666 40054 53006 60006 875// 90600 333 10130 20095 60014=
07460,1996-04-30 09:00:00,14,1004.8,-0.1,77,10,6000,3.704,,,90,,,,,,,,,,,wg-a,,,,AAXX 30094 07460 12556 60902 10140 20100 39665 40048 58001 60006 86800 90900=
07460,1996-04-30 12:00:00,17,1002.6,-1.7,68,11,12000,14.816,,,90,,,,,,,,,,,wg-a,,,,AAXX 30124 07460 12562 30908 10170 20110 39648 40026 58017 60006 83800 91200=
07460,1996-04-30 15:00:00,15,1001.7,-1.1,63,8,15000,14.816,,,40,,,,,,,,,,,wg-a,,,,AAXX 30154 07460 12565 40408 10150 20080 39637 40017 57011 60006 84200 91500=
07460,1996-04-30 18:00:00,15,1001.3,-0.4,67,9,15000,7.408,,,10,10.1,17.2,,,,,,,,,wg-a,,,,AAXX 30184 07460 12665 30104 10150 20090 39633 40013 56004 60006 82801 91800 333 10172 20101=
07460,1996-04-30 21:00:00,10,1002.9,0.8,71,5,15000,3.704,,,220,,,,,,,,,,,wg-a,,,,AAXX 30214 07460 12765 52202 10100 20050 39641 40029 51008 60006 84501 92100=
07460,1996-05-01 00:00:00,8,1002.9,-0.2,76,4,15000,7.408,,,130,,,,,,,,,,,wg-a,,,,AAXX 01004 07460 12765 41304 10080 20040 39639 40029 58002 60006 84500 90000=
07460,1996-05-01 03:00:00,9,1002.6,-0.2,81,6,15000,7.408,,,70,,,,,,,,,,,wg-a,,,,AAXX 01034 07460 12665 70704 10090 20060 39637 40026 55002 60006 8353/ 90300=
07460,1996-05-01 06:00:00,9,1002.3,-0.2,81,6,25000,3.704,,,160,7.5,14.4,,,,,,,,,wg-a,,,,AAXX 01064 07460 02775 71602 10090 20060 39635 40023 55002 60006 81531 90600 333 10144 20075 60004=
07460,1996-05-01 09:00:00,12,1001.6,-0.3,71,7,25000,3.704,,,270,,,,,,,,,,,wg-a,,,,AAXX 01094 07460 12575 /2702 10120 20070 39632 40016 58003 60006 82831 90900=
07460,1996-05-01 12:00:00,13,1000.4,-1,77,9,15000,11.112,,,10,,,,,,,,,,,wg-a,,,,AAXX 01124 07460 12565 70106 10130 20090 39622 40004 58010 60006 82831 91200=
07460,1996-05-01 15:00:00,14,998.7,-1.6,72,9,15000,14.816,,,100,,,,0,,,,,,80,wg-a,,,,AAXX 01154 07460 12565 71008 10140 20090 39606 49987 56016 60007 78086 8583/ 91500=
07460,1996-05-01 18:00:00,12,998.1,-0.6,82,9,20000,7.408,,,160,9,14.8,,0,,,,,,3,wg-a,,,,AAXX 01184 07460 12570 61604 10120 20090 39599 49981 58006 60007 70386 83842 91800 333 10148 20090=
07460,1996-05-01 21:00:00,9,999.7,0.9,71,4,20000,7.408,,,170,,,,,,,,,,,wg-a,,,,AAXX 01214 07460 12770 21704 10090 20040 39609 49997 50009 60006 81502 92100=
07460,1996-05-02 00:00:00,8,999,-0.8,76,4,20000,22.224,,,190,,,,,,,,,,,wg-a,,,,AAXX 02004 07460 12770 21912 10080 20040 39601 49990 58008 60006 82500 90000=
07460,1996-05-02 03:00:00,8,997.7,-1.3,76,4,20000,25.928,,,190,,,,,,,,,,,wg-a,,,,AAXX 02034 07460 12770 71914 10080 20040 39588 49977 55013 60006 875// 90300=
07460,1996-05-02 06:00:00,8,998.5,0.9,81,5,500,11.112,,,240,6.4,12.5,,0,,,1,,,21,wg-a,,,,AAXX 02064 07460 02600 72406 10080 20050 39597 49985 53009 60014 72161 8657/ 90600 333 10125 20064 60007=
07460,1996-05-02 09:00:00,9,999.1,0.6,81,6,15000,18.52,,,180,,,,2,,,,,,21,wg-a,,,,AAXX 02094 07460 12565 81810 10090 20060 39603 49991 51006 60027 72162 8657/ 90900=
07460,1996-05-02 12:00:00,10,998.5,-0.3,66,4,500,18.52,,,230,,,,,,,,,,1,wg-a,,,,AAXX 02124 07460 12500 72310 10100 20040 39600 49985 58003 60026 70162 8587/ 91200=
07460,1996-05-02 15:00:00,11,998.8,0.4,58,3,25000,35.188,,53.708,250,,,,,,,,,,,wg-a,,,,AAXX 02154 07460 12575 /2519 10110 20030 39604 49988 53004 60006 8523/ 91500 333 91029=
07460,1996-05-02 18:00:00,11,999.8,0.9,58,3,500,22.224,,,230,7.7,14.1,,,,,,,,,wg-a,,,,AAXX 02184 07460 32600 32312 10110 20030 39613 49998 51009 82801 91800 333 10141 20077=
07460,1996-05-02 21:00:00,8,1000.5,0.2,71,3,20000,14.816,,,170,,,,,,,,,,,wg-a,,,,AAXX 02214 07460 12670 31708 10080 20030 39615 40005 52002 60006 82501 92100=
07460,1996-05-03 00:00:00,8,999.5,-1.1,71,3,15000,25.928,,,180,,,,,,,,,,,wg-a,,,,AAXX 03004 07460 12665 71814 10080 20030 39606 49995 58011 60006 875// 90000=
07460,1996-05-03 03:00:00,7,998.9,-0.7,81,4,12000,22.224,,,190,,,,,,,,,,,wg-a,,,,AAXX 03034 07460 12662 61912 10070 20040 39598 49989 58007 60006 85531 90300=
07460,1996-05-03 06:00:00,8,998.8,0.2,81,5,25000,22.224,,,200,6.4,10.8,,0,,,2,,,25,wg-a,,,,AAXX 03064 07460 02675 72012 10080 20050 39600 49988 53002 60024 72586 8657/ 90600 333 10108 20064 60007=
07460,1996-05-03 09:00:00,11,1000.4,1.9,66,5,15000,18.52,,,230,,,,0,,,,,,25,wg-a,,,,AAXX 03094 07460 12565 72310 10110 20050 39619 40004 52019 60007 72586 878// 90900=
07460,1996-05-03 12:00:00,12,1001.6,1.3,62,5,15000,35.188,,,260,,,,,,,,,,3,wg-a,,,,AAXX 03124 07460 12665 /2619 10120 20050 39632 40016 51013 60006 70386 86200 91200=
07460,1996-05-03 15:00:00,13,1003.3,1.7,58,5,15000,14.816,,38.892,250,,,,1,,,,,,25,wg-a,,,,AAXX 03154 07460 12665 72508 10130 20050 39650 40033 53017 60017 72586 872// 91500 333 91021=
07460,1996-05-03 18:00:00,11,1005.9,2.2,71,6,12000,18.52,,,250,8.2,15.4,,,,,,,,15,wg-a,,,,AAXX 03184 07460 32562 72510 10110 20060 39672 40059 52022 71586 878// 91800 333 10154 20082=
07460,1996-05-03 21:00:00,8,1009.1,2.7,87,6,20000,3.704,,,260,,,,,,,,,,,wg-a,,,,AAXX 03214 07460 12570 32602 10080 20060 39698 40091 51027 60006 83800 92100=
07460,1996-05-04 00:00:00,7,1010.4,1.1,93,6,20000,7.408,,,210,,,,,,,,,,,wg-a,,,,AAXX 04004 07460 12570 52104 10070 20060 39710 40104 51011 60006 85800 90000=
07460,1996-05-04 03:00:00,6,1011,0.4,93,5,20000,3.704,,,360,,,,,,,,,,,wg-a,,,,AAXX 04034 07460 12670 73602 10060 20050 39714 40110 51004 60006 875// 90300=
07460,1996-05-04 06:00:00,7,1012.6,1.6,87,5,20000,11.112,,,200,6,10.9,,,,,1,,,,wg-a,,,,AAXX 04064 07460 02770 /2006 10070 20050 39730 40126 53016 60006 85500 90600 333 10109 20060 60014=
07460,1996-05-04 09:00:00,13,1012.6,0.8,67,7,20000,7.408,,,90,,,,,,,,,,,wg-a,,,,AAXX 04094 07460 12670 /0904 10130 20070 39739 40126 52008 60006 85201 90900=
07460,1996-05-04 12:00:00,15,1012.9,0.5,59,7,25000,11.112,,,20,,,,,,,,,,,wg-a,,,,AAXX 04124 07460 12675 /0206 10150 20070 39744 40129 50005 60006 85800 91200=
07460,1996-05-04 15:00:00,16,1012.3,-0.4,55,7,25000,18.52,,,360,,,,,,,,,,,wg-a,,,,AAXX 04154 07460 12675 53610 10160 20070 39740 40123 58004 60006 84801 91500=
07460,1996-05-04 18:00:00,13,1013.5,0.9,62,6,20000,18.52,,,350,6.7,16,,,,,,,,,wg-a,,,,AAXX 04184 07460 12670 63510 10130 20060 39748 40135 53009 60006 83532 91800 333 10160 20067=
07460,1996-05-04 21:00:00,11,1015,1.1,71,6,20000,11.112,,,310,,,,,,,,,,,wg-a,,,,AAXX 04214 07460 12670 53106 10110 20060 39759 40150 51011 60006 82532 92100=
07460,1996-05-05 00:00:00,9,1015.1,-0.2,76,5,20000,0,,,0,,,,,,,,,,,wg-a,,,,AAXX 05004 07460 12670 50000 10090 20050 39757 40151 58002 60006 82532 90000=
07460,1996-05-05 06:00:00,6,1015.4,0.1,93,5,25000,3.704,,,270,2.9,13.2,,,,,,,,,wg-a,,,,AAXX 05064 07460 02/75 12702 10060 20050 39756 40154 53001 60006 80001 90600 333 10132 20029 60004=
07460,1996-05-05 09:00:00,13,1013.9,-0.4,72,8,25000,3.704,,,50,,,,,,,,,,,wg-a,,,,AAXX 05094 07460 12675 30502 10130 20080 39752 40139 58004 60006 81101 90900=
07460,1996-05-05 12:00:00,18,1011.9,-1.3,52,8,25000,11.112,,,60,,,,,,,,,,,wg-a,,,,AAXX 05124 07460 12675 20606 10180 20080 39739 40119 58013 60006 81101 91200=
07460,1996-05-05 15:00:00,20,1009.8,-1.8,43,7,40000,7.408,,,350,,,,,,,,,,,wg-a,,,,AAXX 05154 07460 12682 23504 10200 20070 39721 40098 58018 60006 81101 91500=
07460,1996-05-05 18:00:00,18,1009.5,-0.5,56,9,500,18.52,,,360,5.7,20.7,,,,,,,,,wg-a,,,,AAXX 05184 07460 12700 23610 10180 20090 39716 40095 55005 60006 82800 91800 333 10207 20057=
07460,1996-05-05 21:00:00,14,1010.8,0.7,67,8,20000,7.408,,,320,,,,,,,,,,,wg-a,,,,AAXX 05214 07460 12770 /3204 10140 20080 39723 40108 53007 60006 81500 92100=
07460,1996-05-06 00:00:00,9,1011.7,0.1,87,7,20000,0,,,0,,,,,,,,,,,wg-a,,,,AAXX 06004 07460 12/70 00000 10090 20070 39725 40117 50001 60006 80000 90000=
07460,1996-05-06 03:00:00,10,1010.6,-0.8,76,6,20000,11.112,,,150,,,,,,,,,,,wg-a,,,,AAXX 06034 07460 12/70 01506 10100 20060 39716 40106 58008 60006 80000 90300=
07460,1996-05-06 06:00:00,10,1010.5,-0.1,82,7,25000,7.408,,,190,6.3,18.4,,,,,,,,,wg-a,,,,AAXX 06064 07460 02/75 11904 10100 20070 39715 40105 55001 60006 80001 90600 333 10184 20063 60004=
07460,1996-05-06 09:00:00,18,1007.9,-1.5,56,9,25000,25.928,,,170,,,,,,,,,,,wg-a,,,,AAXX 06094 07460 12675 21714 10180 20090 39700 40079 58015 60006 81101 90900=
07460,1996-05-06 12:00:00,22,1005.8,-1.3,46,10,40000,25.928,,,170,,,,,,,,,,,wg-a,,,,AAXX 06124 07460 12682 /1714 10220 20100 39686 40058 58013 60006 81101 91200=
07460,1996-05-06 15:00:00,22,1004.8,-1,41,8,40000,31.484,,,170,,,,,,,,,,,wg-a,,,,AAXX 06154 07460 12782 81717 10220 20080 39676 40048 57010 60006 81101 91500=
07460,1996-05-06 18:00:00,20,1005.2,0.2,46,8,500,22.224,,,160,10.4,23.2,,,,,,,,,wg-a,,,,AAXX 06184 07460 12700 21612 10200 20080 39676 40052 53002 60006 81501 91800 333 10232 20104=
07460,1996-05-06 21:00:00,13,1008,1.8,67,7,20000,14.816,,,190,,,,,,,,,,,wg-a,,,,AAXX 06214 07460 12/70 11908 10130 20070 39695 40080 52018 60006 80001 92100=
07460,1996-05-07 00:00:00,12,1007.7,-0.3,71,7,20000,3.704,,,190,,,,,,,,,,,wg-a,,,,AAXX 07004 07460 12/70 11902 10120 20070 39691 40077 58003 60006 80001 90000=
07460,1996-05-07 03:00:00,11,1007.2,-0.7,76,7,20000,11.112,,,110,,,,,,,,,,,wg-a,,,,AAXX 07034 07460 12770 61106 10110 20070 39684 40072 56007 60006 84501 90300=
07460,1996-05-07 06:00:00,13,1007,0.1,72,8,500,11.112,,,130,10.4,19.4,,,,,,,,,wg-a,,,,AAXX 07064 07460 02600 71306 10130 20080 39685 40070 53001 60006 86501 90600 333 10194 20104 60004=
07460,1996-05-07 09:00:00,15,1006.8,0.2,72,10,500,11.112,,,170,,,,0,,,,,,1,wg-a,,,,AAXX 07094 07460 12500 71706 10150 20100 39687 40068 50002 60007 70162 8481/ 90900=
07460,1996-05-07 12:00:00,14,1007.4,0.4,82,11,25000,22.224,,,170,,,,1,,,,,,60,wg-a,,,,AAXX 07124 07460 02575 71712 10140 20110 39691 40074 53004 60016 76062 8687/ 91200 333 60017=
07460,1996-05-07 15:00:00,20,1005.2,-1.4,49,9,500,25.928,,,180,,,,,,,,,,3,wg-a,,,,AAXX 07154 07460 02600 61814 10200 20090 39677 40052 56014 61000 70362 84201 91500 333 ////=
07460,1996-05-07 18:00:00,14,1007.5,1.5,88,12,9000,14.816,,,200,12.6,20.2,,1,,,,,,25,wg-a,,,,AAXX 07184 07460 12659 72008 10140 20120 39692 40075 52015 60017 72586 8687/ 91800 333 10202 20126=
07460,1996-05-07 21:00:00,11,1010.4,2.3,94,10,15000,14.816,,,210,,,,2,,,,,,61,wg-a,,,,AAXX 07214 07460 12565 82108 10110 20100 39716 40104 51023 60027 76186 885// 92100=
07460,1996-05-08 00:00:00,11,1010.7,0.3,87,9,15000,11.112,,,140,,,,0,,,,,,1,wg-a,,,,AAXX 08004 07460 02765 81406 10110 20090 39719 40107 51003 60036 70186 8557/ 90000 333 60007=
07460,1996-05-08 03:00:00,11,1010.6,-0.2,87,9,15000,3.704,,,140,,,,0,,,,,,,wg-a,,,,AAXX 08034 07460 12765 81402 10110 20090 39717 40106 57002 60007 8557/ 90300=
07460,1996-05-08 06:00:00,11,1012.1,1.4,94,10,500,0,,,0,9.9,13.7,,0,,,5,,,1,wg-a,,,,AAXX 08064 07460 02700 /0000 10110 20100 39731 40121 52014 60054 70162 82531 90600 333 10137 20099 60007=
07460,1996-05-08 09:00:00,16,1011.6,0.2,77,12,500,11.112,,,190,,,,,,,,,,,wg-a,,,,AAXX 08094 07460 12600 41906 10160 20120 39733 40116 51002 60006 82232 90900=
07460,1996-05-08 12:00:00,20,1010,-1,49,9,20000,7.408,,,30,,,,,,,,,,,wg-a,,,,AAXX 08124 07460 12670 40304 10200 20090 39723 40100 58010 60006 83232 91200=
07460,1996-05-08 15:00:00,19,1009.3,-0.8,56,10,20000,18.52,,,70,,,,,,,,,,,wg-a,,,,AAXX 08154 07460 12670 50710 10190 20100 39715 40093 56008 60006 84932 91500=
07460,1996-05-08 18:00:00,15,1010.1,0.4,72,10,500,7.408,,,230,10.6,20.5,,,,,,,,29,wg-a,,,,AAXX 08184 07460 12600 52304 10150 20100 39718 40101 51004 60006 72991 83802 91800 333 10205 20106=
07460,1996-05-08 21:00:00,14,1011.9,1.6,82,11,10000,11.112,,,330,,,,,,,,,,61,wg-a,,,,AAXX 08214 07460 02560 73306 10140 20110 39734 40119 51016 61000 76162 875// 92100 333 ////=
07460,1996-05-09 00:00:00,13,1011.6,-0.4,94,12,10000,11.112,,,350,,,,0,,,,,,3,wg-a,,,,AAXX 09004 07460 02460 73506 10130 20120 39730 40116 58004 60006 70362 875// 90000 333 60007=
07460,1996-05-09 03:00:00,12,1010.9,-0.9,94,11,6000,18.52,,,10,,,,2,,,,,,61,wg-a,,,,AAXX 09034 07460 12256 70110 10120 20110 39721 40109 56009 60027 76162 875// 90300=
07460,1996-05-09 06:00:00,9,1011.8,0.6,100,9,1400,18.52,,,360,9.3,15.1,,3,,,5,,,10,wg-a,,,,AAXX 09064 07460 02214 83610 10090 20090 39727 40118 53006 60054 71062 877// 90600 333 10151 20093 60037=
07460,1996-05-09 09:00:00,9,1012.3,0.4,100,9,6000,14.816,,,350,,,,2,,,,,,60,wg-a,,,,AAXX 09094 07460 12256 83508 10090 20090 39731 40123 50004 60027 76062 877// 90900=
07460,1996-05-09 12:00:00,9,1012.3,-0,93,8,500,14.816,,,20,,,,1,,,,,,21,wg-a,,,,AAXX 09124 07460 02200 80208 10090 20080 39731 40123 54000 60026 72162 875// 91200 333 60017=
07460,1996-05-09 15:00:00,8,1012,-0.4,93,7,3500,14.816,,,10,,,,,,,,,,10,wg-a,,,,AAXX 09154 07460 12335 80108 10080 20070 39727 40120 58004 60006 71022 875// 91500=
07460,1996-05-09 18:00:00,8,1011.9,-0.1,100,8,2500,11.112,,,20,7.8,9.5,,0,,,,,,10,wg-a,,,,AAXX 09184 07460 12225 80206 10080 20080 39726 40119 58001 60007 71065 887// 91800 333 10095 20078=
07460,1996-05-09 21:00:00,8,1011.9,-0.1,93,7,500,14.816,,,360,,,,0,,,,,,50,wg-a,,,,AAXX 09214 07460 12300 83608 10080 20070 39726 40119 58001 60007 75065 875// 92100=
07460,1996-05-10 00:00:00,8,1010.4,-1.4,93,7,7000,11.112,,,340,,,,,,,,,,1,wg-a,,,,AAXX 10004 07460 02457 83406 10080 20070 39711 40104 58014 60006 70165 875// 90000 333 61000=
07460,1996-05-10 03:00:00,7,1009.3,-1.2,93,6,4500,11.112,,,350,,,,,,,,,,,wg-a,,,,AAXX 10034 07460 12345 83506 10070 20060 39699 40093 56012 60006 877// 90300=
07460,1996-05-10 06:00:00,7,1009,-0.3,93,6,500,14.816,,,10,6.2,8.1,,,,,3,,,,wg-a,,,,AAXX 10064 07460 12300 80108 10070 20060 39696 40090 56003 60034 877// 90600 333 10081 20062=
07460,1996-05-10 09:00:00,6,1009.6,-0,87,4,8000,14.816,,,350,,,,,,,,,,,wg-a,,,,AAXX 10094 07460 12458 83508 10060 20040 39701 40096 54000 60006 875// 90900=
07460,1996-05-10 12:00:00,9,1008.9,-0.3,81,6,12000,11.112,,,360,,,,,,,,,,,wg-a,,,,AAXX 10124 07460 12462 83606 10090 20060 39698 40089 57003 60006 875// 91200=
07460,1996-05-10 15:00:00,10,1008.2,-0.6,76,6,12000,11.112,,,350,,,,,,,,,,,wg-a,,,,AAXX 10154 07460 12562 83506 10100 20060 39692 40082 57006 60006 875// 91500=
07460,1996-05-10 18:00:00,10,1008.3,0.2,76,6,12000,7.408,,,30,5.7,10.3,,,,,,,,,wg-a,,,,AAXX 10184 07460 12562 80304 10100 20060 39694 40083 53002 60006 875// 91800 333 10103 20057=
07460,1996-05-10 21:00:00,9,1009.4,0.9,87,7,12000,7.408,,,350,,,,,,,,,,,wg-a,,,,AAXX 10214 07460 12562 73504 10090 20070 39703 40094 52009 60006 8653/ 92100=
07460,1996-05-11 00:00:00,9,1009.2,-0.2,87,7,12000,3.704,,,340,,,,,,,,,,,wg-a,,,,AAXX 11004 07460 12662 73402 10090 20070 39701 40092 58002 60006 875// 90000=
07460,1996-05-11 03:00:00,8,1009.2,-0.1,87,6,12000,7.408,,,350,,,,,,,,,,,wg-a,,,,AAXX 11034 07460 12662 73504 10080 20060 39700 40092 55001 60006 875// 90300=
07460,1996-05-11 06:00:00,8,1009.6,0.3,87,6,10000,7.408,,,350,7.4,10.1,,,,,,,,,wg-a,,,,AAXX 11064 07460 02560 73504 10080 20060 39703 40096 51003 60006 878// 90600 333 10101 20074 60004=
07460,1996-05-11 09:00:00,10,1009.6,0.4,82,7,10000,3.704,,,310,,,,,,,,,,,wg-a,,,,AAXX 11094 07460 12460 73102 10100 20070 39707 40096 51004 60006 878// 90900=
07460,1996-05-11 12:00:00,14,1008.7,-0.3,67,8,25000,7.408,,,330,,,,,,,,,,,wg-a,,,,AAXX 11124 07460 12575 73304 10140 20080 39703 40087 56003 60006 878// 91200=
07460,1996-05-11 15:00:00,14,1008.3,-0.4,67,8,20000,18.52,,,20,,,,,,,,,,,wg-a,,,,AAXX 11154 07460 12570 70210 10140 20080 39699 40083 57004 60006 85801 91500=
07460,1996-05-11 18:00:00,13,1009.4,1,67,7,15000,14.816,,,360,7.8,14.4,,,,,,,,,wg-a,,,,AAXX 11184 07460 12665 83608 10130 20070 39709 40094 53010 60006 875// 91800 333 10144 20078=
07460,1996-05-11 21:00:00,11,1011.4,1.6,71,6,15000,11.112,,,340,,,,,,,,,,,wg-a,,,,AAXX 11214 07460 12665 83406 10110 20060 39725 40114 53016 60006 875// 92100=
07460,1996-05-12 00:00:00,10,1012.1,0.5,76,6,15000,14.816,,,340,,,,,,,,,,,wg-a,,,,AAXX 12004 07460 12665 83408 10100 20060 39730 40121 51005 60006 875// 90000=
07460,1996-05-12 03:00:00,9,1012.7,0.4,81,6,12000,7.408,,,350,,,,,,,,,,,wg-a,,,,AAXX 12034 07460 12462 83504 10090 20060 39734 40127 53004 60006 885// 90300=
07460,1996-05-12 06:00:00,9,1014.2,1.5,81,6,10000,7.408,,,350,8.1,13.3,,,,,,,,,wg-a,,,,AAXX 12064 07460 02460 83504 10090 20060 39749 40142 53015 60006 885// 90600 333 10133 20081 60004=
07460,1996-05-12 09:00:00,9,1015.4,1.1,81,6,7000,11.112,,,30,,,,,,,,,,50,wg-a,,,,AAXX 12094 07460 02557 80306 10090 20060 39760 40154 52011 61000 75052 885// 90900 333 ////=
07460,1996-05-12 12:00:00,11,1016.4,1.2,76,7,12000,18.52,,,310,,,,,,,,,,2,wg-a,,,,AAXX 12124 07460 02562 83110 10110 20070 39772 40164 53012 61000 70252 885// 91200 333 6100=
07460,1996-05-12 15:00:00,10,1018.1,1.6,76,6,13000,22.224,,,320,,,,,,,,,,,wg-a,,,,AAXX 12154 07460 12563 83212 10100 20060 39788 40181 51016 60006 885// 91500=
07460,1996-05-12 18:00:00,9,1019.8,1.5,76,5,10000,22.224,,,310,8.5,10.7,,,,,,,,,wg-a,,,,AAXX 12184 07460 32560 83112 10090 20050 39803 40198 51015 875// 91800 333 10107 20085=
07460,1996-05-12 21:00:00,9,1021.7,1.9,76,5,10000,18.52,,,330,,,,,,,,,,20,wg-a,,,,AAXX 12214 07460 02560 83310 10090 20050 39821 40217 51019 61000 72052 875// 92100 333 ////=
07460,1996-05-13 00:00:00,8,1021.8,-0,87,6,9000,18.52,,,340,,,,,,,,,,,wg-a,,,,AAXX 13004 07460 02459 83410 10080 20060 39821 40218 54000 61000 875// 90000 333 ////=
07460,1996-05-13 03:00:00,7,1022.1,0.2,93,6,9000,7.408,,,350,,,,0,,,,,,21,wg-a,,,,AAXX 13034 07460 12459 83504 10070 20060 39823 40221 50002 60007 72162 875// 90300=
07460,1996-05-13 06:00:00,7,1022.6,0.4,93,6,7000,18.52,,,340,7.3,9,,,,,,,,3,wg-a,,,,AAXX 13064 07460 02457 83410 10070 20060 39827 40226 53004 60004 70365 875// 90600 333 10090 20073 61000=
07460,1996-05-13 09:00:00,8,1022.7,0.2,81,5,7000,14.816,,,360,,,,,,,,,,,wg-a,,,,AAXX 13094 07460 12457 83608 10080 20050 39829 40227 50002 60006 885// 90900=
07460,1996-05-13 12:00:00,9,1022.2,-0.4,76,5,12000,18.52,,,340,,,,,,,,,,,wg-a,,,,AAXX 13124 07460 12562 83410 10090 20050 39825 40222 56004 60006 885// 91200=
07460,1996-05-13 15:00:00,10,1021.6,-0.5,66,4,15000,14.816,,,10,,,,,,,,,,,wg-a,,,,AAXX 13154 07460 12565 80108 10100 20040 39821 40216 56005 60006 885// 91500=
07460,1996-05-13 18:00:00,9,1021.7,-0,76,5,12000,7.408,,,350,7.2,10.1,,,,,,,,,wg-a,,,,AAXX 13184 07460 12562 83504 10090 20050 39821 40217 55000 60006 885// 91800 333 10101 20072=
07460,1996-05-13 21:00:00,8,1021.7,-0.1,87,6,12000,7.408,,,360,,,,,,,,,,,wg-a,,,,AAXX 13214 07460 12562 83604 10080 20060 39820 40217 57001 60006 885// 92100=
07460,1996-05-14 00:00:00,8,1020.3,-1.3,81,5,12000,7.408,,,330,,,,,,,,,,,wg-a,,,,AAXX 14004 07460 12662 83304 10080 20050 39806 40203 56013 60006 885// 90000=
07460,1996-05-14 03:00:00,8,1019.3,-1,81,5,13000,3.704,,,10,,,,,,,,,,,wg-a,,,,AAXX 14034 07460 12563 80102 10080 20050 39796 40193 58010 60006 885// 90300=
07460,1996-05-14 06:00:00,7,1018.1,-1.2,87,5,9000,3.704,,,340,7.1,9.2,,,,,,,,,wg-a,,,,AAXX 14064 07460 02559 83402 10070 20050 39784 40181 56012 60006 885// 90600 333 10092 20071 60004=
07460,1996-05-14 09:00:00,9,1017,-0.8,81,6,8000,3.704,,,20,,,,,,,,,,,wg-a,,,,AAXX 14094 07460 12458 80202 10090 20060 39776 40170 58008 60006 885// 90900=
07460,1996-05-14 12:00:00,11,1015.1,-1.5,76,7,9000,7.408,,,20,,,,,,,,,,,wg-a,,,,AAXX 14124 07460 12459 80204 10110 20070 39761 40151 58015 60006 875// 91200=
07460,1996-05-14 15:00:00,13,1013.9,-0.9,72,8,12000,11.112,,,50,,,,,,,,,,,wg-a,,,,AAXX 14154 07460 12562 80506 10130 20080 39752 40139 58009 60006 878// 91500=
07460,1996-05-14 18:00:00,12,1013.3,-0.7,76,8,12000,11.112,,,30,7.4,13.2,,,,,,,,,wg-a,,,,AAXX 14184 07460 12562 80306 10120 20080 39745 40133 58007 60006 885// 91800 333 10132 20074=
07460,1996-05-14 21:00:00,11,1013.3,-0.1,87,9,10000,7.408,,,10,,,,,,,,,,,wg-a,,,,AAXX 14214 07460 12560 80104 10110 20090 39744 40133 58001 60006 885// 92100=
07460,1996-05-15 00:00:00,10,1012.4,-1,93,9,8000,3.704,,,340,,,,,,,,,,,wg-a,,,,AAXX 15004 07460 12358 83402 10100 20090 39734 40124 58010 60006 885// 90000=
07460,1996-05-15 03:00:00,10,1011.7,-0.7,93,9,6000,3.704,,,350,,,,,,,,,,,wg-a,,,,AAXX 15034 07460 12256 83502 10100 20090 39727 40117 57007 60006 885// 90300=
07460,1996-05-15 06:00:00,10,1011.5,-0.2,93,9,4000,0,,,0,9.7,12.4,,,,,,,,,wg-a,,,,AAXX 15064 07460 02/40 /0000 10100 20090 39725 40115 56002 60006 90600 333 10124 20097 60004=
07460,1996-05-15 09:00:00,13,1011,-0.1,82,10,7000,7.408,,,190,,,,,,,,,,,wg-a,,,,AAXX 15094 07460 12557 /1904 10130 20100 39724 40110 58001 60006 86500 90900=
07460,1996-05-15 12:00:00,16,1009.9,-0.8,68,10,9000,0,,,0,,,,,,,,,,,wg-a,,,,AAXX 15124 07460 12559 70000 10160 20100 39717 40099 58008 60006 875// 91200=
07460,1996-05-15 15:00:00,19,1008.3,-1.1,64,12,14000,7.408,,,350,,,,,,,,,,,wg-a,,,,AAXX 15154 07460 12664 43504 10190 20120 39706 40083 57011 60006 84500 91500=
07460,1996-05-15 18:00:00,18,1008.2,-0.3,64,11,15000,14.816,,,10,10.1,19.4,,,,,,,,,wg-a,,,,AAXX 15184 07460 12665 /0108 10180 20110 39703 40082 55003 60006 81500 91800 333 10194 20101=
07460,1996-05-15 21:00:00,14,1010,1.3,82,11,15000,11.112,,,330,,,,,,,,,,,wg-a,,,,AAXX 15214 07460 12665 /3306 10140 20110 39716 40100 53013 60006 81500 92100=
07460,1996-05-16 00:00:00,10,1010,-0.5,93,9,0,3.704,,,100,,,,,,,,,,,wg-a,,,,AAXX 16004 07460 12/// /1002 10100 20090 39711 40100 58005 60006 90000=
07460,1996-05-16 03:00:00,11,1009.7,-0.3,100,11,3000,3.704,,,30,,,,,,,,,,,wg-a,,,,AAXX 16034 07460 12330 80302 10110 20110 39709 40097 58003 60006 887// 90300=
07460,1996-05-16 06:00:00,10,1009.1,-0.6,100,10,4000,11.112,,,180,8.5,17.6,,,,,,,,10,wg-a,,,,AAXX 16064 07460 02240 31806 10100 20100 39702 40091 58006 60006 71011 83700 90600 333 10176 20085 60004=
07460,1996-05-16 09:00:00,18,1006.8,-1.2,68,12,15000,7.408,,,140,,,,,,,,,,,wg-a,,,,AAXX 16094 07460 12/65 11404 10180 20120 39690 40068 58012 60006 81030 90900=
07460,1996-05-16 12:00:00,26,1003.3,-2.3,39,11,25000,22.224,,,170,,,,,,,,,,,wg-a,,,,AAXX 16124 07460 12675 31712 10260 20110 39666 40033 58023 60006 83180 91200=
07460,1996-05-16 15:00:00,23,1003.7,0.2,41,9,20000,18.52,,,260,,,,0,,,,,,3,wg-a,,,,AAXX 16154 07460 12670 52610 10230 20090 39667 40037 50002 60007 70386 83280 91500=
07460,1996-05-16 18:00:00,17,1007.1,2.7,82,14,2500,11.112,,,350,10.4,26.3,,7,,,,,,10,wg-a,,,,AAXX 16184 07460 12625 83506 10170 20140 39692 40071 53027 60077 71098 879// 91800 333 10263 20104=
07460,1996-05-16 21:00:00,14,1009.4,1.6,88,12,15000,22.224,,,170,,,,8,,,,,,21,wg-a,,,,AAXX 16214 07460 12565 81712 10140 20120 39710 40094 51016 60087 72198 873// 92100=
07460,1996-05-17 00:00:00,13,1009,-0.4,88,11,15000,25.928,,,200,,,,,,,,,,,wg-a,,,,AAXX 17004 07460 12565 62014 10130 20110 39705 40090 55004 60086 83531 90000=
07460,1996-05-17 03:00:00,12,1007.8,-1.3,88,10,15000,29.632,,,190,,,,,,,,,,,wg-a,,,,AAXX 17034 07460 12565 31916 10120 20100 39692 40078 56013 60006 81101 90300=
07460,1996-05-17 06:00:00,14,1006.9,-0.6,82,11,20000,14.816,,,150,11.7,15.2,,,,,16,,,,wg-a,,,,AAXX 17064 07460 12570 31508 10140 20110 39686 40069 58006 60164 82831 90600 333 10152 20117=
07460,1996-05-17 09:00:00,17,1005.2,-1.2,72,12,20000,35.188,,,180,,,,,,,,,,,wg-a,,,,AAXX 17094 07460 12570 41819 10170 20120 39674 40052 58012 60006 83839 90900=
07460,1996-05-17 12:00:00,20,1004.7,-0.1,60,12,25000,31.484,,,170,,,,,,,,,,,wg-a,,,,AAXX 17124 07460 12675 71717 10200 20120 39673 40047 56001 60006 85882 91200=
07460,1996-05-17 15:00:00,21,1003.3,-1.3,53,11,25000,25.928,,,170,,,,,,,,,,,wg-a,,,,AAXX 17154 07460 12675 61714 10210 20110 39661 40033 57013 60006 85882 91500=
07460,1996-05-17 18:00:00,15,1005.4,1.2,77,11,15000,7.408,,,220,13.8,22.4,,,,,294,,,17,wg-a,,,,AAXX 17184 07460 02665 62204 10150 20110 39673 40054 50012 62944 71796 85942 91800 333 10224 20138 61000=
07460,1996-05-17 21:00:00,14,1006,0.5,94,13,8000,14.816,,,260,,,,2,,,,,,80,wg-a,,,,AAXX 17214 07460 12658 72608 10140 20130 39678 40060 53005 60027 78098 85972 92100=
07460,1996-05-18 00:00:00,13,1005.1,-1.1,88,11,10000,18.52,,,170,,,,8,,,,,,60,wg-a,,,,AAXX 18004 07460 02560 71710 10130 20110 39668 40051 57011 60096 76098 8357/ 90000 333 60087=
07460,1996-05-18 03:00:00,12,1003.6,-1.4,94,11,10000,18.52,,,200,,,,1,,,,,,,wg-a,,,,AAXX 18034 07460 12560 /2010 10120 20110 39652 40036 58014 60017 84572 90300=
07460,1996-05-18 06:00:00,12,1003.8,0.2,100,12,7000,3.704,,,80,12,15,,9,,,19,,,61,wg-a,,,,AAXX 18064 07460 02357 80802 10120 20120 39654 40038 53002 60194 76162 8557/ 90600 333 10150 20120 60097=
07460,1996-05-18 09:00:00,16,1002.8,-0.7,77,12,500,3.704,,,310,,,,7,,,,,,1,wg-a,,,,AAXX 18094 07460 12500 43102 10160 20120 39649 40028 57007 60077 70198 83830 90900=
07460,1996-05-18 12:00:00,22,998.6,-3.9,57,13,500,50.004,,70.376,180,,,,1,,,,,,1,wg-a,,,,AAXX 18124 07460 02600 21827 10220 20130 39616 49986 58039 60076 70198 81330 91200 333 60017 91038=
07460,1996-05-18 15:00:00,20,999.1,0.5,56,11,500,25.928,,,200,,,,,,,,,,,wg-a,,,,AAXX 18154 07460 12600 /2014 10200 20110 39619 49991 53005 60006 83203 91500=
07460,1996-05-18 18:00:00,13,1002.4,2.3,82,10,12000,22.224,,55.56,190,12.2,21.9,,6,,,,,,80,wg-a,,,,AAXX 18184 07460 12562 71912 10130 20100 39641 40024 50023 60067 78098 8593/ 91800 333 10219 20122 91030=
07460,1996-05-18 21:00:00,11,1005.1,2.3,94,10,15000,25.928,,,200,,,,1,,,,,,29,wg-a,,,,AAXX 18214 07460 12565 /2014 10110 20100 39665 40051 51023 60017 72998 84930 92100=
07460,1996-05-19 00:00:00,11,1005.5,0.4,94,10,8000,14.816,,,250,,,,1,,,,,,80,wg-a,,,,AAXX 19004 07460 02558 72508 10110 20100 39669 40055 50004 60026 78098 8687/ 90000 333 60017=
07460,1996-05-19 03:00:00,10,1005.8,0.1,93,9,10000,0,,,0,,,,5,,,,,,,wg-a,,,,AAXX 19034 07460 12560 70000 10100 20090 39670 40058 53001 60057 8687/ 90300=
07460,1996-05-19 06:00:00,9,1007.7,1.5,87,7,15000,3.704,,,140,8.2,12.8,,6,,,25,,,21,wg-a,,,,AAXX 19064 07460 02565 71402 10090 20070 39686 40077 51015 60254 72186 8687/ 90600 333 10128 20082 60067=
07460,1996-05-19 09:00:00,11,1008.9,1.4,82,8,500,14.816,,,180,,,,,,,,,,,wg-a,,,,AAXX 19094 07460 12500 71808 10110 20080 39701 40089 51014 60006 8587/ 90900=
07460,1996-05-19 12:00:00,12,1009.4,0.6,67,6,20000,3.704,,,210,,,,,,,,,,,wg-a,,,,AAXX 19124 07460 12570 72102 10120 20060 39707 40094 51006 60006 8487/ 91200=
07460,1996-05-19 15:00:00,14,1008.7,-0.4,63,7,20000,14.816,,,190,,,,0,,,,,,15,wg-a,,,,AAXX 19154 07460 12570 51908 10140 20070 39703 40087 58004 60007 71586 8387/ 91500=
07460,1996-05-19 17:00:00,15,1009.2,0.5,44,3,25000,7.408,,,150,8.7,15.1,,,,,,,,1,wg-a,,,,AAXX 19174 07460 32675 31504 10150 20030 39708 40092 53005 70186 83200 91700 333 10151 20087=
07460,1996-05-19 18:00:00,15,1009.2,0.5,48,4,25000,7.408,,,150,8.7,15.1,,,,,,,,1,wg-a,,,,AAXX 19184 07460 32675 31504 10150 20040 39708 40092 53005 70186 83200 91800 333 10151 20087=
07460,1996-05-19 21:00:00,9,1012.3,2.3,76,5,15000,3.704,,,70,,,,,,,,,,,wg-a,,,,AAXX 19214 07460 12665 30702 10090 20050 39731 40123 51023 60006 83830 92100=
07460,1996-05-20 00:00:00,5,1013.4,0.5,93,4,15000,7.408,,,210,,,,,,,,,,,wg-a,,,,AAXX 20004 07460 12/65 12104 10050 20040 39736 40134 50005 60006 80001 90000=
07460,1996-05-20 03:00:00,4,1014.6,0.9,87,2,20000,3.704,,,180,,,,,,,,,,,wg-a,,,,AAXX 20034 07460 12/70 11802 10040 20020 39745 40146 53009 60006 80001 90300=
07460,1996-05-20 06:00:00,8,1015.4,1.4,81,5,500,3.704,,,210,3.3,14.5,,,,,,,,,wg-a,,,,AAXX 20064 07460 02/00 22102 10080 20050 39758 40154 53014 60006 80001 90600 333 10145 20033 60004=
07460,1996-05-20 09:00:00,14,1016.1,1.5,58,6,500,7.408,,,120,,,,,,,,,,,wg-a,,,,AAXX 20094 07460 12700 21204 10140 20060 39774 40161 51015 60006 82201 90900=
07460,1996-05-20 12:00:00,16,1016.2,0.4,48,5,500,3.704,,,220,,,,,,,,,,,wg-a,,,,AAXX 20124 07460 12700 /2202 10160 20050 39778 40162 50004 60006 85800 91200=
07460,1996-05-20 15:00:00,16,1016.5,0.3,51,6,20000,3.704,,,40,,,,,,,,,,,wg-a,,,,AAXX 20154 07460 12770 50402 10160 20060 39781 40165 51003 60006 83230 91500=
07460,1996-05-20 18:00:00,15,1017.9,1.2,59,7,20000,3.704,,,230,7.4,16.8,,,,,,,,1,wg-a,,,,AAXX 20184 07460 02670 52302 10150 20070 39792 40179 51012 61000 70186 83830 91800 333 10168 20074 ////=
07460,1996-05-20 21:00:00,12,1020.7,2.2,62,5,15000,7.408,,,270,,,,,,,,,,,wg-a,,,,AAXX 20214 07460 12665 42704 10120 20050 39815 40207 53022 60006 83830 92100=
07460,1996-05-21 00:00:00,9,1021.5,0.4,81,6,15000,3.704,,,220,,,,,,,,,,1,wg-a,,,,AAXX 21004 07460 02665 52202 10090 20060 39819 40215 50004 61000 70161 84530 90000 333 6100=
07460,1996-05-21 03:00:00,6,1022.4,0.5,93,5,15000,7.408,,,220,,,,,,,,,,,wg-a,,,,AAXX 21034 07460 12665 32204 10060 20050 39824 40224 53005 60006 8353/ 90300=
07460,1996-05-21 06:00:00,9,1023.3,1.2,81,6,25000,18.52,,,190,5.9,15.3,,,,,,,,,wg-a,,,,AAXX 21064 07460 02575 41910 10090 20060 39836 40233 51012 61000 83531 90600 333 10153 20059 ////=
07460,1996-05-21 09:00:00,12,1023.6,0.9,71,7,20000,11.112,,,240,,,,,,,,,,,wg-a,,,,AAXX 21094 07460 12670 72406 10120 20070 39844 40236 52009 60006 8553/ 90900=
07460,1996-05-21 12:00:00,12,1023.4,-0.4,76,8,15000,29.632,,,270,,,,0,,,,,,25,wg-a,,,,AAXX 21124 07460 02565 72716 10120 20080 39841 40234 55004 60016 72586 86231 91200 333 60007=
07460,1996-05-21 15:00:00,14,1023.8,0.8,63,7,15000,18.52,,,290,,,,2,,,,,,29,wg-a,,,,AAXX 21154 07460 12565 62910 10140 20070 39849 40238 53008 60027 72998 85930 91500=
07460,1996-05-21 18:00:00,12,1025.5,1.4,67,6,6000,18.52,,,290,8.7,15.9,,,,,,,,1,wg-a,,,,AAXX 21184 07460 32656 62910 10120 20060 39862 40255 52014 70198 85830 91800 333 10159 20087=
07460,1996-05-21 21:00:00,9,1028.1,1.9,81,6,20000,3.704,,,290,,,,0,,,,,,1,wg-a,,,,AAXX 21214 07460 12670 32902 10090 20060 39883 40281 53019 60007 70186 82832 92100=
07460,1996-05-22 00:00:00,7,1028.7,0.2,81,4,20000,3.704,,,100,,,,,,,,,,2,wg-a,,,,AAXX 22004 07460 12670 21002 10070 20040 39885 40287 50002 60006 70286 82800 90000=
07460,1996-05-22 03:00:00,4,1028.5,-0.7,93,3,15000,7.408,,,330,,,,,,,,,,,wg-a,,,,AAXX 22034 07460 12765 23304 10040 20030 39879 40285 57007 60006 82400 90300=
07460,1996-05-22 06:00:00,7,1028.7,0.7,93,6,7000,3.704,,,360,3.6,11.3,,,,,3,,,,wg-a,,,,AAXX 22064 07460 12257 43602 10070 20060 39885 40287 51007 60034 81601 90600 333 10113 20036=
07460,1996-05-22 09:00:00,13,1027.2,-0.5,67,7,500,7.408,,,90,,,,,,,,,,,wg-a,,,,AAXX 22094 07460 12600 70904 10130 20070 39880 40272 58005 60006 81101 90900=
07460,1996-05-22 12:00:00,17,1025,-1.7,52,7,500,11.112,,,90,,,,,,,,,,,wg-a,,,,AAXX 22124 07460 12700 70906 10170 20070 39863 40250 58017 60006 81132 91200=
07460,1996-05-22 18:00:00,19,1021.4,-0.7,40,5,500,22.224,,,250,7,20.5,,,,,,,,,wg-a,,,,AAXX 22184 07460 12700 /2512 10190 20050 39832 40214 56007 60006 81131 91800 333 10205 20070=
07460,1996-05-22 21:00:00,16,1023.1,1.1,51,6,20000,11.112,,,190,,,,,,,,,,,wg-a,,,,AAXX 22214 07460 12670 /1906 10160 20060 39844 40231 51011 60006 82530 92100=
07460,1996-05-23 00:00:00,16,1022.5,-0.6,55,7,20000,11.112,,,200,,,,,,,,,,,wg-a,,,,AAXX 23004 07460 12670 72006 10160 20070 39838 40225 58006 60006 85530 90000=
07460,1996-05-23 03:00:00,15,1022.3,-0.2,63,8,20000,11.112,,,240,,,,,,,,,,,wg-a,,,,AAXX 23034 07460 12670 72406 10150 20080 39835 40223 55002 60006 8553/ 90300=
07460,1996-05-23 06:00:00,16,1023.1,0.9,68,10,20000,11.112,,,160,14.6,19,,,,,,,,,wg-a,,,,AAXX 23064 07460 02670 71606 10160 20100 39844 40231 51009 60006 83831 90600 333 10190 20146 60004=
07460,1996-05-23 09:00:00,20,1023.3,0.8,53,10,500,11.112,,,30,,,,,,,,,,,wg-a,,,,AAXX 23094 07460 12600 /0306 10200 20100 39851 40233 51008 60006 82832 90900=
07460,1996-05-23 12:00:00,20,1022.4,-0.9,56,11,500,11.112,,,70,,,,,,,,,,,wg-a,,,,AAXX 23124 07460 12600 /0706 10200 20110 39843 40224 58009 60006 83232 91200=
07460,1996-05-23 15:00:00,21,1020.7,-1.5,53,11,500,7.408,,,350,,,,,,,,,,,wg-a,,,,AAXX 23154 07460 12600 73504 10210 20110 39828 40207 56015 60006 81132 91500=
07460,1996-05-23 18:00:00,21,1019.5,-1.1,56,12,500,11.112,,,120,15.6,22,,,,,,,,,wg-a,,,,AAXX 23184 07460 12600 /1206 10210 20120 39816 40195 56011 60006 81101 91800 333 10220 20156=
07460,1996-05-23 21:00:00,16,1020.5,0.3,72,11,25000,3.704,,,230,,,,,,,,,,,wg-a,,,,AAXX 23214 07460 12/75 42302 10160 20110 39819 40205 53003 60006 80001 92100=
07460,1996-05-24 00:00:00,11,1020.3,-0.8,94,10,25000,0,,,0,,,,,,,,,,,wg-a,,,,AAXX 24004 07460 12/75 40000 10110 20100 39811 40203 58008 60006 80001 90000=
07460,1996-05-24 03:00:00,12,1018.8,-1.3,88,10,25000,7.408,,,170,,,,,,,,,,,wg-a,,,,AAXX 24034 07460 12/75 51704 10120 20100 39798 40188 56013 60006 81031 90300=
07460,1996-05-24 06:00:00,13,1017.8,-0.8,77,9,35000,18.52,,,190,10.1,20.7,,,,,,,,,wg-a,,,,AAXX 24064 07460 02/81 31910 10130 20090 39790 40178 56008 60006 81031 90600 333 10207 20101 60004=
07460,1996-05-24 09:00:00,20,1016.2,-0.6,60,12,35000,7.408,,,150,,,,,,,,,,,wg-a,,,,AAXX 24094 07460 12/81 31504 10200 20120 39784 40162 58006 60006 82031 90900=
07460,1996-05-24 12:00:00,26,1013.2,-2.2,39,11,500,7.408,,,110,,,,,,,,,,,wg-a,,,,AAXX 24124 07460 12600 31104 10260 20110 39762 40132 58022 60006 83881 91200=
07460,1996-05-24 15:00:00,25,1011.5,-1.7,44,12,25000,25.928,,,220,,,,,,,,,,,wg-a,,,,AAXX 24154 07460 12675 52214 10250 20120 39745 40115 57017 60006 84880 91500=
07460,1996-05-24 18:00:00,25,1011.3,-0.2,41,11,20000,22.224,,,230,13.4,28.1,,,,,,,,2,wg-a,,,,AAXX 24184 07460 02670 52312 10250 20110 39742 40113 55002 61000 70286 83282 91800 333 10281 20134 ////=
07460,1996-05-24 21:00:00,20,1014.1,2,64,13,20000,22.224,,,170,,,,,,,,,,,wg-a,,,,AAXX 24214 07460 12770 71712 10200 20130 39763 40141 51020 60006 8388/ 92100=
07460,1996-05-25 00:00:00,17,1014.6,0.1,77,13,15000,18.52,,,210,,,,,,,,,,,wg-a,,,,AAXX 25004 07460 12765 42110 10170 20130 39764 40146 51001 60006 82581 90000=
07460,1996-05-25 03:00:00,16,1014.1,-0.6,77,12,11000,18.52,,,170,,,,,,,,,,,wg-a,,,,AAXX 25034 07460 12/61 /1710 10160 20120 39757 40141 56006 60006 90300=
07460,1996-05-25 06:00:00,16,1013.9,-0.2,77,12,12000,7.408,,,210,15.4,24.7,,,,,,,,,wg-a,,,,AAXX 25064 07460 02562 82104 10160 20120 39756 40139 56002 60006 8457/ 90600 333 10247 20154 61000=
07460,1996-05-25 09:00:00,17,1014.2,0.4,77,13,20000,7.408,,,290,,,,,,,,,,,wg-a,,,,AAXX 25094 07460 12570 82904 10170 20130 39760 40142 50004 60006 8487/ 90900=
07460,1996-05-25 12:00:00,19,1014.1,0.1,52,9,20000,29.632,,,260,,,,,,,,,,,wg-a,,,,AAXX 25124 07460 12570 82616 10190 20090 39761 40141 53001 60006 8587/ 91200=
07460,1996-05-25 15:00:00,18,1014.9,0.7,59,10,14000,22.224,,,260,,,,,,,,,,,wg-a,,,,AAXX 25154 07460 12564 82612 10180 20100 39768 40149 51007 60006 8687/ 91500=
07460,1996-05-25 18:00:00,16,1015.9,0.7,82,13,14000,7.408,,,120,15.8,19.2,,0,,,,,,25,wg-a,,,,AAXX 25184 07460 12564 81204 10160 20130 39776 40159 51007 60007 72586 8687/ 91800 333 10192 20158=
07460,1996-05-25 21:00:00,16,1016.4,0.5,72,11,12000,29.632,,,240,,,,,,,,,,,wg-a,,,,AAXX 25214 07460 12562 82416 10160 20110 39780 40164 53005 60006 8687/ 92100=
07460,1996-05-26 00:00:00,16,1016.7,0.3,72,11,12000,18.52,,,250,,,,,,,,,,,wg-a,,,,AAXX 26004 07460 12562 82510 10160 20110 39783 40167 51003 60006 8687/ 90000=
07460,1996-05-26 03:00:00,14,1017.7,0.6,72,9,15000,3.704,,,320,,,,,,,,,,,wg-a,,,,AAXX 26034 07460 12565 53202 10140 20090 39789 40177 52006 60006 84830 90300=
07460,1996-05-26 06:00:00,15,1019.5,1.9,72,10,15000,11.112,,,320,13.1,17.1,,,,,,,,,wg-a,,,,AAXX 26064 07460 02565 73206 10150 20100 39808 40195 53019 60006 86802 90600 333 10171 20131 60004=
07460,1996-05-26 09:00:00,18,1020.2,1,56,9,500,18.52,,,260,,,,,,,,,,,wg-a,,,,AAXX 26094 07460 12500 62610 10180 20090 39818 40202 51010 60006 86801 90900=
07460,1996-05-26 12:00:00,20,1019.7,-0,53,10,40000,25.928,,,270,,,,,,,,,,,wg-a,,,,AAXX 26124 07460 12682 42714 10200 20100 39817 40197 55000 60006 83801 91200=
07460,1996-05-26 15:00:00,21,1019.3,-0.4,49,10,40000,22.224,,40.744,240,,,,,,,,,,,wg-a,,,,AAXX 26154 07460 12682 62412 10210 20100 39814 40193 55004 60006 82831 91500 333 91022=
07460,1996-05-26 18:00:00,19,1018.5,-0.8,52,9,40000,14.816,,,220,14.5,22.1,,,,,,,,,wg-a,,,,AAXX 26184 07460 12682 72208 10190 20090 39804 40185 56008 60006 81531 91800 333 10221 20145=
07460,1996-05-26 21:00:00,17,1019.2,0.3,63,10,20000,11.112,,,170,,,,,,,,,,25,wg-a,,,,AAXX 26214 07460 02670 71706 10170 20100 39808 40192 51003 61000 72586 8683/ 92100 333 ////=
07460,1996-05-27 00:00:00,17,1018.1,-0.8,63,10,15000,31.484,,,250,,,,,,,,,,25,wg-a,,,,AAXX 27004 07460 02665 72517 10170 20100 39797 40181 58008 61000 72586 875// 90000 333 6100=
07460,1996-05-27 03:00:00,16,1015.8,-2.2,72,11,15000,25.928,,51.856,200,,,,0,,,,,,,wg-a,,,,AAXX 27034 07460 12565 72014 10160 20110 39774 40158 58022 60007 875// 90300 333 91028=
07460,1996-05-27 06:00:00,16,1017.4,1.4,63,9,15000,14.816,,38.892,220,15.1,19,,,,,,,,1,wg-a,,,,AAXX 27064 07460 12565 /2208 10160 20090 39790 40174 53014 60004 70186 85801 90600 333 10190 20151 91021=
07460,1996-05-27 09:00:00,16,1017.7,0.2,55,7,500,14.816,,37.04,260,,,,,,,,,,,wg-a,,,,AAXX 27094 07460 12600 /2608 10160 20070 39792 40177 51002 60006 86800 90900 333 91020=
07460,1996-05-27 12:00:00,15,1018.3,0.6,59,7,500,29.632,,48.152,260,,,,,,,,,,,wg-a,,,,AAXX 27124 07460 12600 /2616 10150 20070 39797 40183 51006 60006 86230 91200 333 91026=
07460,1996-05-27 15:00:00,16,1018.8,0.5,59,8,500,25.928,,,290,,,,,,,,,,,wg-a,,,,AAXX 27154 07460 12600 /2914 10160 20080 39803 40188 53005 60006 86200 91500=
07460,1996-05-27 18:00:00,14,1020.2,1.1,72,9,12000,22.224,,,290,14.4,17.2,,,,,,,,15,wg-a,,,,AAXX 27184 07460 12562 72912 10140 20090 39814 40202 53011 60006 71522 86201 91800 333 10172 20144=
07460,1996-05-27 21:00:00,14,1022.1,1.7,72,9,12000,18.52,,,290,,,,,,,,,,,wg-a,,,,AAXX 27214 07460 12562 72910 10140 20090 39831 40221 53017 60006 878// 92100=
07460,1996-05-28 00:00:00,13,1023.1,0.9,82,10,12000,11.112,,,330,,,,,,,,,,,wg-a,,,,AAXX 28004 07460 12562 73306 10130 20100 39840 40231 53009 60006 878// 90000=
07460,1996-05-28 03:00:00,12,1023.6,0.2,82,9,12000,11.112,,,330,,,,0,,,,,,,wg-a,,,,AAXX 28034 07460 12562 73306 10120 20090 39843 40236 50002 60007 878// 90300=
07460,1996-05-28 06:00:00,13,1024.6,1.2,82,10,15000,14.816,,,20,10.9,14.6,,,,,,,,,wg-a,,,,AAXX 28064 07460 12565 50208 10130 20100 39854 40246 53012 60004 85800 90600 333 10146 20109=
07460,1996-05-28 09:00:00,15,1025.5,1.1,59,7,15000,14.816,,,30,,,,,,,,,,,wg-a,,,,AAXX 28094 07460 12565 /0308 10150 20070 39865 40255 51011 60006 86800 90900=
07460,1996-05-28 12:00:00,16,1025.3,0,51,6,25000,14.816,,,10,,,,,,,,,,,wg-a,,,,AAXX 28124 07460 12675 50108 10160 20060 39865 40253 50000 60006 85800 91200=
07460,1996-05-28 15:00:00,18,1024,-1.1,49,7,500,22.224,,,20,,,,,,,,,,,wg-a,,,,AAXX 28154 07460 12600 30212 10180 20070 39855 40240 56011 60006 83800 91500=
07460,1996-05-28 18:00:00,17,1023.9,-0.2,48,6,500,14.816,,,30,12.1,18.5,,,,,,,,,wg-a,,,,AAXX 28184 07460 12700 /0308 10170 20060 39853 40239 55002 60006 81101 91800 333 10185 20121=
07460,1996-05-28 21:00:00,13,1025,0.5,67,7,25000,3.704,,,320,,,,,,,,,,,wg-a,,,,AAXX 28214 07460 12/75 13202 10130 20070 39858 40250 53005 60006 80001 92100=
07460,1996-05-29 00:00:00,7,1025.6,-0.2,87,5,20000,0,,,0,,,,,,,,,,,wg-a,,,,AAXX 29004 07460 12/70 00000 10070 20050 39856 40256 58002 60006 80000 90000=
07460,1996-05-29 03:00:00,6,1025,-0.8,93,5,20000,3.704,,,50,,,,,,,,,,,wg-a,,,,AAXX 29034 07460 12/70 00502 10060 20050 39848 40250 56008 60006 80000 90300=
07460,1996-05-29 06:00:00,9,1024.6,0.2,87,7,25000,3.704,,,20,4.6,16.8,,,,,,,,,wg-a,,,,AAXX 29064 07460 02/75 00202 10090 20070 39850 40246 53002 60006 80000 90600 333 10168 20046 60004=
07460,1996-05-29 09:00:00,16,1023.7,0,55,7,500,3.704,,,290,,,,,,,,,,,wg-a,,,,AAXX 29094 07460 12/00 02902 10160 20070 39850 40237 50000 60006 80000 90900=
07460,1996-05-29 12:00:00,20,1021.6,-1.5,40,6,500,7.408,,,290,,,,,,,,,,,wg-a,,,,AAXX 29124 07460 12/00 02904 10200 20060 39835 40216 56015 60006 80000 91200=
07460,1996-05-29 15:00:00,22,1020.1,-1.2,35,6,500,14.816,,,20,,,,,,,,,,,wg-a,,,,AAXX 29154 07460 12/00 10208 10220 20060 39823 40201 56012 60006 80001 91500=
07460,1996-05-29 18:00:00,21,1019.4,-0.9,40,7,500,11.112,,,20,9.4,22.4,,,,,,,,,wg-a,,,,AAXX 29184 07460 12/00 10206 10210 20070 39815 40194 56009 60006 80001 91800 333 10224 20094=
07460,1996-05-29 21:00:00,14,1020.9,0.5,63,7,500,11.112,,,240,,,,,,,,,,,wg-a,,,,AAXX 29214 07460 12/00 12406 10140 20070 39820 40209 53005 60006 80001 92100=
07460,1996-05-30 00:00:00,11,1020.7,-0.6,76,7,500,0,,,0,,,,,,,,,,,wg-a,,,,AAXX 30004 07460 12/00 00000 10110 20070 39814 40207 58006 60006 80000 90000=
07460,1996-05-30 03:00:00,12,1019.7,-0.9,71,7,20000,14.816,,,180,,,,,,,,,,,wg-a,,,,AAXX 30034 07460 12/70 01808 10120 20070 39805 40197 57009 60006 80000 90300=
07460,1996-05-30 06:00:00,13,1019.4,-0.1,72,8,500,18.52,,,190,10.3,21.3,,,,,,,,,wg-a,,,,AAXX 30064 07460 02/00 01910 10130 20080 39804 40194 55001 60006 80000 90600 333 10213 20103 60004=
07460,1996-05-30 09:00:00,21,1018,-0.2,53,11,40000,14.816,,,190,,,,,,,,,,,wg-a,,,,AAXX 30094 07460 12/82 01908 10210 20110 39802 40180 58002 60006 80000 90900=
07460,1996-05-30 12:00:00,28,1015.6,-1.4,37,12,40000,11.112,,,170,,,,,,,,,,,wg-a,,,,AAXX 30124 07460 12782 11706 10280 20120 39787 40156 58014 60006 81101 91200=
07460,1996-05-30 15:00:00,30,1014,-1.3,29,10,50000,22.224,,,150,,,,,,,,,,,wg-a,,,,AAXX 30154 07460 12784 11512 10300 20100 39774 40140 56013 60006 81101 91500=
07460,1996-05-30 18:00:00,28,1014.3,0.1,37,12,50000,18.52,,,200,12.6,30.1,,,,,,,,,wg-a,,,,AAXX 30184 07460 12/84 22010 10280 20120 39775 40143 53001 60006 80001 91800 333 10301 20126=
07460,1996-05-30 21:00:00,20,1017,1.6,49,9,500,18.52,,,180,,,,,,,,,,,wg-a,,,,AAXX 30214 07460 12/00 21810 10200 20090 39790 40170 53016 60006 80001 92100=
07460,1996-05-31 00:00:00,16,1018.6,1,48,5,25000,14.816,,,190,,,,,,,,,,,wg-a,,,,AAXX 31004 07460 12/75 21908 10160 20050 39801 40186 51010 60006 80001 90000=
07460,1996-05-31 03:00:00,15,1019.1,0.4,48,4,25000,25.928,,46.3,180,,,,,,,,,,,wg-a,,,,AAXX 31034 07460 12/75 21814 10150 20040 39804 40191 53004 60006 80001 90300 333 91025=
07460,1996-05-31 06:00:00,16,1020.5,1.5,45,4,500,22.224,,,180,14.4,27.5,,,,,,,,,wg-a,,,,AAXX 31064 07460 02/00 01812 10160 20040 39819 40205 53015 60006 80000 90600 333 10275 20144 60004=
07460,1996-05-31 09:00:00,22,1020.9,1.1,41,8,500,3.704,,,90,,,,,,,,,,,wg-a,,,,AAXX 31094 07460 12600 /0902 10220 20080 39830 40209 51011 60006 81201 90900=
07460,1996-05-31 12:00:00,26,1020.2,-0.2,34,9,500,14.816,,,30,,,,,,,,,,,wg-a,,,,AAXX 31124 07460 12700 20308 10260 20090 39829 40202 57002 60006 81130 91200=
07460,1996-05-31 15:00:00,21,1020,-0.7,64,14,500,11.112,,,20,,,,0,,,,,,80,wg-a,,,,AAXX 31154 07460 12600 70206 10210 20140 39822 40200 56007 60007 78086 84530 91500=
07460,1996-05-31 18:00:00,19,1020.6,0.3,73,14,15000,18.52,,,340,16.1,26.1,,0,,,,,,1,wg-a,,,,AAXX 31184 07460 12665 53410 10190 20140 39824 40206 51003 60007 70186 83830 91800 333 10261 20161=
07460,1996-05-31 21:00:00,16,1022.4,1.4,94,15,7000,7.408,,,30,,,,0,,,,,,60,wg-a,,,,AAXX 31214 07460 12457 70304 10160 20150 39838 40224 53014 60007 76086 878// 92100=
07460,1996-06-01 00:00:00,15,1023,0.5,94,14,7000,3.704,,,100,,,,4,,,,,,60,wg-a,,,,AAXX 01004 07460 02457 81002 10150 20140 39843 40230 50005 60056 76086 875// 90000 333 60047=
07460,1996-06-01 03:00:00,15,1021.9,-1.1,94,14,500,3.704,,,130,,,,2,,,,,,60,wg-a,,,,AAXX 01034 07460 12300 71302 10150 20140 39832 40219 55011 60027 76062 875// 90300=
07460,1996-06-01 06:00:00,13,1022.6,0.3,94,12,7000,11.112,,,30,13.2,18.7,,5,,,12,,,60,wg-a,,,,AAXX 01064 07460 02457 80306 10130 20120 39836 40226 51003 60124 76062 878// 90600 333 10187 20132 60057=
07460,1996-06-01 09:00:00,14,1024.1,1.6,88,12,9000,7.408,,,350,,,,1,,,,,,3,wg-a,,,,AAXX 01094 07460 12459 83504 10140 20120 39851 40241 51016 60017 70362 875// 90900=
07460,1996-06-01 12:00:00,15,1023.4,-0.5,77,11,10000,11.112,,,70,,,,,,,,,,3,wg-a,,,,AAXX 01124 07460 12460 80706 10150 20110 39846 40234 57005 60016 70362 878// 91200=
07460,1996-06-01 15:00:00,18,1021.3,-1.7,68,12,12000,7.408,,,90,,,,,,,,,,,wg-a,,,,AAXX 01154 07460 12562 70904 10180 20120 39829 40213 58017 60006 8687/ 91500=
07460,1996-06-01 18:00:00,15,1021.4,-0.2,67,9,20000,11.112,,,20,13.1,17.6,,,,,,,,,wg-a,,,,AAXX 01184 07460 32570 80206 10150 20090 39827 40214 58002 878// 91800 333 10176 20131=
07460,1996-06-01 21:00:00,11,1022.4,0.4,87,9,10000,11.112,,,310,,,,1,,,,,,61,wg-a,,,,AAXX 01214 07460 12560 83106 10110 20090 39831 40224 53004 60017 76162 875// 92100=
07460,1996-06-02 00:00:00,11,1020.8,-1.5,94,10,15000,0,,,0,,,,,,,,,,,wg-a,,,,AAXX 02004 07460 02565 80000 10110 20100 39816 40208 58015 60016 875// 90000 333 61000=
07460,1996-06-02 03:00:00,11,1018.8,-2,94,10,15000,3.704,,,100,,,,,,,,,,25,wg-a,,,,AAXX 02034 07460 02565 81002 10110 20100 39796 40188 56020 61000 72586 8683/ 90300 333 ////=
07460,1996-06-02 06:00:00,11,1018.1,-0.6,87,9,20000,0,,,0,10.6,15.1,,,,,2,,,1,wg-a,,,,AAXX 02064 07460 12570 80000 10110 20090 39789 40181 58006 60024 70186 8583/ 90600 333 10151 20106=
07460,1996-06-02 09:00:00,12,1016.9,-1,82,9,15000,3.704,,,10,,,,,,,,,,,wg-a,,,,AAXX 02094 07460 12565 80102 10120 20090 39779 40169 56010 60006 8583/ 90900=
07460,1996-06-02 12:00:00,11,1015.9,-1,94,10,8000,7.408,,,360,,,,5,,,,,,60,wg-a,,,,AAXX 02124 07460 02458 83604 10110 20100 39769 40159 57010 60056 76086 8583/ 91200 333 60057=
07460,1996-06-02 15:00:00,12,1015.2,-0.6,94,11,7000,14.816,,,340,,,,5,,,,,,61,wg-a,,,,AAXX 02154 07460 12457 83408 10120 20110 39763 40152 56006 60057 76166 8583/ 91500=
07460,1996-06-02 18:00:00,11,1015.8,0.5,94,10,7000,7.408,,,330,10.9,12.2,,4,,,,,,61,wg-a,,,,AAXX 02184 07460 12457 83304 10110 20100 39768 40158 53005 60047 76166 8587/ 91800 333 10122 20109=
07460,1996-06-02 21:00:00,11,1016.9,0.9,94,10,9000,7.408,,,340,,,,2,,,,,,60,wg-a,,,,AAXX 02214 07460 12459 83404 10110 20100 39778 40169 53009 60027 76066 8657/ 92100=
07460,1996-06-03 00:00:00,11,1017.3,0.4,94,10,9000,7.408,,,320,,,,1,,,,,,61,wg-a,,,,AAXX 03004 07460 02459 83204 10110 20100 39782 40173 53004 60036 76162 875// 90000 333 60017=
07460,1996-06-03 03:00:00,11,1018.2,0.8,94,10,10000,7.408,,,340,,,,1,,,,,,21,wg-a,,,,AAXX 03034 07460 12360 83404 10110 20100 39791 40182 53008 60017 72162 875// 90300=
07460,1996-06-03 06:00:00,12,1019.7,1.6,88,10,8000,7.408,,,350,10.9,12.4,,,,,18,,,3,wg-a,,,,AAXX 03064 07460 12358 83504 10120 20100 39807 40197 53016 60184 70362 875// 90600 333 10124 20109=
07460,1996-06-03 12:00:00,16,1021.2,0.6,72,11,14000,14.816,,,360,,,,,,,,,,,wg-a,,,,AAXX 03124 07460 12564 73608 10160 20110 39826 40212 52006 60006 878// 91200=
07460,1996-06-03 15:00:00,17,1021.4,0.3,63,10,15000,11.112,,,40,,,,,,,,,,,wg-a,,,,AAXX 03154 07460 12665 70406 10170 20100 39829 40214 53003 60006 878// 91500=
07460,1996-06-03 21:00:00,12,1024.3,1.5,82,9,15000,3.704,,,260,,,,,,,,,,,wg-a,,,,AAXX 03214 07460 12765 /2602 10120 20090 39850 40243 53015 60006 81502 92100=
07460,1996-06-04 00:00:00,9,1025.4,0.6,93,8,15000,0,,,0,,,,,,,,,,,wg-a,,,,AAXX 04004 07460 12765 50000 10090 20080 39856 40254 51006 60006 825/2 90000=
07460,1996-06-04 03:00:00,7,1025.9,0.4,100,7,15000,0,,,0,,,,,,,,,,,wg-a,,,,AAXX 04034 07460 12765 /0000 10070 20070 39859 40259 53004 60006 82502 90300=
07460,1996-06-04 06:00:00,11,1026.8,1.3,100,11,10000,3.704,,,110,6.9,17.1,,,,,,,,,wg-a,,,,AAXX 04064 07460 02/60 01102 10110 20110 39873 40268 53013 60006 80000 90600 333 10171 20069 60004=
07460,1996-06-04 09:00:00,18,1026.2,0.2,73,13,20000,7.408,,,10,,,,,,,,,,,wg-a,,,,AAXX 04094 07460 12670 /0104 10180 20130 39877 40262 50002 60006 81100 90900=
07460,1996-06-04 12:00:00,21,1024.8,-0.9,53,11,25000,18.52,,,20,,,,,,,,,,,wg-a,,,,AAXX 04124 07460 12675 20210 10210 20110 39867 40248 58009 60006 82100 91200=
07460,1996-06-04 15:00:00,22,1024,-0.6,53,12,25000,18.52,,,30,,,,,,,,,,,wg-a,,,,AAXX 04154 07460 12675 20310 10220 20120 39861 40240 57006 60006 82100 91500=
07460,1996-06-04 18:00:00,22,1023.7,-0.4,50,11,25000,14.816,,,20,10.8,22.6,,,,,,,,,wg-a,,,,AAXX 04184 07460 12/75 20208 10220 20110 39857 40237 56004 60006 80001 91800 333 10226 20108=
07460,1996-06-04 21:00:00,15,1025.3,0.8,77,11,20000,0,,,0,,,,,,,,,,,wg-a,,,,AAXX 04214 07460 12/70 10000 10150 20110 39865 40253 53008 60006 80001 92100=
07460,1996-06-05 00:00:00,12,1025.4,-0.4,88,10,20000,0,,,0,,,,,,,,,,,wg-a,,,,AAXX 05004 07460 12/70 00000 10120 20100 39861 40254 58004 60006 80000 90000=
07460,1996-06-05 03:00:00,10,1024.6,-1,100,10,20000,0,,,0,,,,,,,,,,,wg-a,,,,AAXX 05034 07460 12/70 00000 10100 20100 39851 40246 56010 60006 80000 90300=
07460,1996-06-05 06:00:00,13,1024.4,0.2,94,12,15000,3.704,,,70,9.5,21.5,,,,,,,,,wg-a,,,,AAXX 05064 07460 02/65 10702 10130 20120 39853 40244 50002 60006 80001 90600 333 10215 20095 60004=
07460,1996-06-05 09:00:00,21,1022.7,-0.7,64,14,18000,3.704,,,100,,,,,,,,,,,wg-a,,,,AAXX 05094 07460 12/68 01002 10210 20140 39847 40227 58007 60006 80000 90900=
07460,1996-06-05 12:00:00,25,1020.8,-1.1,50,14,18000,7.408,,,90,,,,,,,,,,,wg-a,,,,AAXX 05124 07460 12668 /0904 10250 20140 39834 40208 58011 60006 81100 91200=
07460,1996-06-05 15:00:00,26,1019.6,-1.1,51,15,500,11.112,,,10,,,,,,,,,,,wg-a,,,,AAXX 05154 07460 12600 /0106 10260 20150 39824 40196 56011 60006 81100 91500=
07460,1996-06-05 18:00:00,26,1019.2,-0.3,54,16,500,11.112,,,360,13.5,26.8,,,,,,,,,wg-a,,,,AAXX 05184 07460 12600 /3606 10260 20160 39820 40192 55003 60006 81200 91800 333 10268 20135=
07460,1996-06-05 21:00:00,20,1020.9,0.9,78,16,20000,7.408,,,230,,,,,,,,,,,wg-a,,,,AAXX 05214 07460 12/70 02304 10200 20160 39829 40209 53009 60006 80000 92100=
07460,1996-06-06 00:00:00,16,1021.4,0,94,15,20000,3.704,,,330,,,,,,,,,,,wg-a,,,,AAXX 06004 07460 12/70 03302 10160 20150 39829 40214 50000 60006 80000 90000=
07460,1996-06-06 03:00:00,16,1021.3,-0.2,88,14,20000,11.112,,,170,,,,,,,,,,,wg-a,,,,AAXX 06034 07460 12/70 01706 10160 20140 39827 40213 58002 60006 80000 90300=
07460,1996-06-06 06:00:00,18,1021.5,0.5,77,14,25000,11.112,,,170,15,25.9,,,,,,,,,wg-a,,,,AAXX 06064 07460 02/75 01706 10180 20140 39832 40215 53005 60006 80000 90600 333 10259 20150 60004=
07460,1996-06-06 09:00:00,24,1020.4,-0.2,61,16,25000,11.112,,,180,,,,,,,,,,,wg-a,,,,AAXX 06094 07460 12575 /1806 10240 20160 39830 40204 58002 60006 81200 90900=
07460,1996-06-06 12:00:00,30,1018.6,-1,35,13,500,14.816,,,160,,,,,,,,,,,wg-a,,,,AAXX 06124 07460 12500 21608 10300 20130 39819 40186 58010 60006 82200 91200=
07460,1996-06-06 15:00:00,31,1017.3,-1.1,40,16,500,14.816,,,180,,,,,,,,,,,wg-a,,,,AAXX 06154 07460 12600 21808 10310 20160 39808 40173 56011 60006 82230 91500=
07460,1996-06-06 18:00:00,28,1017.3,-0.3,51,17,500,14.816,,,180,17.7,31.1,,,,,,,,,wg-a,,,,AAXX 06184 07460 12600 /1808 10280 20170 39805 40173 55003 60006 81230 91800 333 10311 20177=
07460,1996-06-06 21:00:00,20,1019.5,1.1,78,16,25000,11.112,,,190,,,,,,,,,,,wg-a,,,,AAXX 06214 07460 12675 /1906 10200 20160 39816 40195 53011 60006 81130 92100=
07460,1996-06-07 00:00:00,18,1020.1,0.2,73,13,20000,18.52,,,190,,,,,,,,,,,wg-a,,,,AAXX 07004 07460 12/70 11910 10180 20130 39818 40201 51002 60006 81030 90000=
07460,1996-06-07 03:00:00,17,1019.8,-0.4,77,13,20000,7.408,,,110,,,,,,,,,,,wg-a,,,,AAXX 07034 07460 12/70 01104 10170 20130 39814 40198 56004 60006 80000 90300=
07460,1996-06-07 06:00:00,19,1019.8,0.3,73,14,20000,0,,,0,15.5,28,,,,,,,,,wg-a,,,,AAXX 07064 07460 02/70 10000 10190 20140 39817 40198 51003 60006 80001 90600 333 10280 20155 60004=
07460,1996-06-07 09:00:00,25,1018.2,-0.7,54,15,25000,22.224,,,180,,,,,,,,,,,wg-a,,,,AAXX 07094 07460 12/75 01812 10250 20150 39810 40182 58007 60006 80000 90900=
07460,1996-06-07 12:00:00,29,1016.5,-1.3,43,15,500,22.224,,,160,,,,,,,,,,,wg-a,,,,AAXX 07124 07460 12700 /1612 10290 20150 39798 40165 58013 60006 81100 91200=
07460,1996-06-07 15:00:00,30,1015.5,-1,38,14,500,29.632,,,200,,,,,,,,,,,wg-a,,,,AAXX 07154 07460 12700 22016 10300 20140 39789 40155 56010 60006 82200 91500=
07460,1996-06-07 18:00:00,28,1015.4,-0.3,45,15,500,18.52,,,190,19,30.8,,,,,,,,,wg-a,,,,AAXX 07184 07460 12600 /1910 10280 20150 39785 40154 55003 60006 81100 91800 333 10308 20190=
07460,1996-06-07 21:00:00,23,1017,1,50,12,20000,18.52,,,190,,,,,,,,,,,wg-a,,,,AAXX 07214 07460 12/70 11910 10230 20120 39795 40170 53010 60006 81030 92100=
07460,1996-06-08 00:00:00,20,1017.6,0.2,60,12,20000,22.224,,,150,,,,,,,,,,,wg-a,,,,AAXX 08004 07460 12/70 21512 10200 20120 39797 40176 53002 60006 81031 90000=
07460,1996-06-08 03:00:00,18,1018.3,0.3,64,11,20000,7.408,,,190,,,,,,,,,,,wg-a,,,,AAXX 08034 07460 12/70 11904 10180 20110 39800 40183 51003 60006 81031 90300=
07460,1996-06-08 06:00:00,19,1020.2,2.2,68,13,25000,7.408,,,240,17.3,27.4,,,,,,,,,wg-a,,,,AAXX 08064 07460 02/75 42404 10190 20130 39821 40202 51022 60006 82081 90600 333 10274 20173 60004=
07460,1996-06-08 09:00:00,23,1020,0.2,57,14,25000,18.52,,,180,,,,,,,,,,,wg-a,,,,AAXX 08094 07460 12675 41810 10230 20140 39824 40200 52002 60006 83881 90900=
07460,1996-06-08 12:00:00,25,1019.7,-0.1,50,14,20000,3.704,,,180,,,,,,,,,,,wg-a,,,,AAXX 08124 07460 12670 /1802 10250 20140 39823 40197 55001 60006 85881 91200=
07460,1996-06-08 15:00:00,23,1019.8,-0.1,69,17,20000,11.112,,,30,,,,1,,,,,,1,wg-a,,,,AAXX 08154 07460 12670 60306 10230 20170 39822 40198 58001 60017 70198 85882 91500=
07460,1996-06-08 18:00:00,23,1020,0.2,65,16,20000,11.112,,,20,19,25.6,,,,,,,,1,wg-a,,,,AAXX 08184 07460 32670 60206 10230 20160 39824 40200 53002 70198 86802 91800 333 10256 20190=
07460,1996-06-08 21:00:00,20,1022.3,1.8,73,15,20000,7.408,,,30,,,,,,,,,,,wg-a,,,,AAXX 08214 07460 12670 40304 10200 20150 39842 40223 53018 60006 83501 92100=
07460,1996-06-09 00:00:00,16,1022.5,-0.2,88,14,2000,3.704,,,100,,,,,,,,,,,wg-a,,,,AAXX 09004 07460 12620 31002 10160 20140 39840 40225 58002 60006 83500 90000=
07460,1996-06-09 03:00:00,15,1022.3,-0.3,94,14,20000,0,,,0,,,,,,,,,,,wg-a,,,,AAXX 09034 07460 12670 /0000 10150 20140 39836 40223 58003 60006 83530 90300=
07460,1996-06-09 06:00:00,17,1022.1,0.1,94,16,25000,3.704,,,240,14.5,22.5,,,,,1,,,,wg-a,,,,AAXX 09064 07460 02/75 12402 10170 20160 39837 40221 52001 60006 80001 90600 333 10225 20145 60014=
07460,1996-06-09 09:00:00,23,1021,-0.3,65,16,25000,3.704,,,100,,,,,,,,,,,wg-a,,,,AAXX 09094 07460 12675 /1002 10230 20160 39834 40210 58003 60006 81101 90900=
07460,1996-06-09 12:00:00,25,1020.1,-0.8,54,15,25000,7.408,,,20,,,,,,,,,,,wg-a,,,,AAXX 09124 07460 12675 30204 10250 20150 39827 40201 58008 60006 83830 91200=
07460,1996-06-09 15:00:00,27,1018.4,-1.2,51,16,25000,7.408,,,30,,,,,,,,,,,wg-a,,,,AAXX 09154 07460 12675 20304 10270 20160 39814 40184 57012 60006 82800 91500=
07460,1996-06-09 18:00:00,23,1018.8,-0.2,57,14,25000,3.704,,,160,17.1,27.3,,,,,,,,,wg-a,,,,AAXX 09184 07460 12675 41602 10230 20140 39813 40188 55002 60006 84300 91800 333 10273 20171=
07460,1996-06-09 21:00:00,19,1020.8,1.5,78,15,15000,7.408,,,250,,,,,,,,,,29,wg-a,,,,AAXX 09214 07460 12665 42504 10190 20150 39827 40208 53015 60006 72990 82203 92100=
07460,1996-06-10 00:00:00,17,1021.1,-0.2,88,15,15000,7.408,,,240,,,,,,,,,,1,wg-a,,,,AAXX 10004 07460 12665 /2404 10170 20150 39826 40211 58002 60006 70190 81500 90000=
07460,1996-06-10 03:00:00,16,1020.8,-0.2,88,14,15000,14.816,,,200,,,,,,,,,,,wg-a,,,,AAXX 10034 07460 12665 /2008 10160 20140 39823 40208 56002 60006 81500 90300=
07460,1996-06-10 06:00:00,17,1021.7,1,88,15,20000,11.112,,,160,15.2,23.5,,,,,,,,,wg-a,,,,AAXX 10064 07460 02/70 11606 10170 20150 39833 40217 51010 60006 80001 90600 333 10235 20152 60004=
07460,1996-06-10 09:00:00,24,1020.8,0,61,16,25000,3.704,,,110,,,,,,,,,,,wg-a,,,,AAXX 10094 07460 12775 /1102 10240 20160 39833 40208 50000 60006 81200 90900=
07460,1996-06-10 12:00:00,28,1019.4,-0.9,45,15,20000,7.408,,,100,,,,,,,,,,,wg-a,,,,AAXX 10124 07460 12770 21004 10280 20150 39825 40194 58009 60006 82930 91200=
07460,1996-06-10 15:00:00,23,1019.9,-0.2,61,15,15000,22.224,,,270,,,,0,,,,,,16,wg-a,,,,AAXX 10154 07460 12765 52712 10230 20150 39823 40199 55002 60007 71698 84932 91500=
07460,1996-06-10 18:00:00,25,1019.6,0.1,65,18,25000,7.408,,,110,17.3,29.3,,,,,,,,21,wg-a,,,,AAXX 10184 07460 02775 51104 10250 20180 39824 40196 53001 61000 72198 82962 91800 333 10293 20173 ////=
07460,1996-06-11 00:00:00,17,1022.6,0.2,88,15,15000,7.408,,,180,,,,,,,,,,,wg-a,,,,AAXX 11004 07460 12765 31804 10170 20150 39841 40226 50002 60006 81502 90000=
07460,1996-06-11 03:00:00,17,1023,0.4,82,14,15000,3.704,,,170,,,,,,,,,,,wg-a,,,,AAXX 11034 07460 12765 31702 10170 20140 39845 40230 51004 60006 81502 90300=
07460,1996-06-11 06:00:00,18,1023.9,1.2,83,15,15000,7.408,,,160,15.9,25.2,,,,,,,,,wg-a,,,,AAXX 11064 07460 02/65 21604 10180 20150 39856 40239 53012 60006 80001 90600 333 10252 20159 60004=
07460,1996-06-11 09:00:00,24,1023.3,0.2,61,16,15000,3.704,,,180,,,,,,,,,,,wg-a,,,,AAXX 11094 07460 12665 /1802 10240 20160 39858 40233 50002 60006 81201 90900=
07460,1996-06-11 12:00:00,29,1022.1,-0.7,48,17,15000,7.408,,,30,,,,,,,,,,,wg-a,,,,AAXX 11124 07460 12765 /0304 10290 20170 39852 40221 58007 60006 81201 91200=
07460,1996-06-11 15:00:00,22,1023.4,0.3,69,16,500,38.892,,,250,,,,1,,,,,,80,wg-a,,,,AAXX 11154 07460 12600 /2521 10220 20160 39855 40234 53003 60017 78098 86900 91500=
07460,1996-06-11 18:00:00,25,1022.2,-0.7,69,19,25000,7.408,,,200,18.2,30.5,,7,,,,,,21,wg-a,,,,AAXX 11184 07460 12775 22004 10250 20190 39849 40222 58007 60077 72198 81231 91800 333 10305 20182=
07460,1996-06-11 21:00:00,20,1024.6,1.5,88,18,20000,3.704,,,190,,,,,,,,,,,wg-a,,,,AAXX 11214 07460 12770 31902 10200 20180 39864 40246 53015 60006 82231 92100=
07460,1996-06-12 00:00:00,17,1025.2,0.3,94,16,20000,7.408,,,250,,,,,,,,,,,wg-a,,,,AAXX 12004 07460 12/70 12504 10170 20160 39867 40252 50003 60006 80001 90000=
07460,1996-06-12 03:00:00,16,1025.4,-0,94,15,15000,3.704,,,20,,,,,,,,,,,wg-a,,,,AAXX 12034 07460 12/65 00202 10160 20150 39867 40254 55000 60006 80000 90300=
07460,1996-06-12 06:00:00,18,1026.9,1.7,94,17,15000,3.704,,,130,15,24.9,,,,,8,,,,wg-a,,,,AAXX 12064 07460 02665 41302 10180 20170 39884 40269 52017 60006 84501 90600 333 10249 20150 60084=
07460,1996-06-12 09:00:00,23,1026.8,0.6,65,16,12000,11.112,,,20,,,,,,,,,,,wg-a,,,,AAXX 12094 07460 12562 /0206 10230 20160 39890 40268 51006 60006 81101 90900=
07460,1996-06-12 12:00:00,25,1026.2,-0.3,61,17,15000,14.816,,,30,,,,,,,,,,,wg-a,,,,AAXX 12124 07460 12665 20308 10250 20170 39887 40262 58003 60006 82200 91200=
07460,1996-06-12 15:00:00,26,1025.1,-0.9,58,17,15000,22.224,,,20,,,,,,,,,,,wg-a,,,,AAXX 12154 07460 12665 20212 10260 20170 39878 40251 56009 60006 82900 91500=
07460,1996-06-12 18:00:00,24,1025.4,-0,61,16,15000,18.52,,,20,18,26.6,,,,,,,,,wg-a,,,,AAXX 12184 07460 12665 20210 10240 20160 39878 40254 55000 60006 82100 91800 333 10266 20180=
07460,1996-06-12 21:00:00,20,1028.5,2.4,73,15,14000,11.112,,,350,,,,,,,,,,,wg-a,,,,AAXX 12214 07460 12664 /3506 10200 20150 39902 40285 53024 60006 86800 92100=
07460,1996-06-13 00:00:00,18,1028.8,0.1,77,14,14000,11.112,,,350,,,,,,,,,,,wg-a,,,,AAXX 13004 07460 12664 /3506 10180 20140 39903 40288 50001 60006 86800 90000=
07460,1996-06-13 03:00:00,15,1028.6,-0.6,88,13,14000,14.816,,,340,,,,,,,,,,,wg-a,,,,AAXX 13034 07460 12664 33408 10150 20130 39897 40286 56006 60006 83801 90300=
07460,1996-06-13 06:00:00,15,1029,0.3,82,12,15000,14.816,,,350,14.1,24.1,,,,,,,,,wg-a,,,,AAXX 13064 07460 02565 23508 10150 20120 39900 40290 51003 60006 82430 90600 333 10241 20141 60004=
07460,1996-06-13 09:00:00,18,1028.4,-0.1,73,13,15000,18.52,,,10,,,,,,,,,,,wg-a,,,,AAXX 13094 07460 12565 40110 10180 20130 39899 40284 58001 60006 8/800 90900=
07460,1996-06-13 12:00:00,22,1027.2,-0.8,53,12,18000,18.52,,,30,,,,,,,,,,,wg-a,,,,AAXX 13124 07460 12668 30310 10220 20120 39891 40272 58008 60006 83200 91200=
07460,1996-06-13 15:00:00,22,1025.3,-1.6,53,12,20000,22.224,,,350,,,,,,,,,,,wg-a,,,,AAXX 13154 07460 12670 23512 10220 20120 39874 40253 56016 60006 82100 91500=
07460,1996-06-13 18:00:00,21,1025.1,-0.4,49,10,20000,22.224,,,10,15,22.9,,,,,,,,,wg-a,,,,AAXX 13184 07460 12/70 00112 10210 20100 39871 40251 55004 60006 80000 91800 333 10229 20150=
07460,1996-06-13 21:00:00,17,1027.2,1.4,52,7,20000,11.112,,,340,,,,,,,,,,,wg-a,,,,AAXX 13214 07460 12/70 03406 10170 20070 39884 40272 52014 60006 80000 92100=
07460,1996-06-14 00:00:00,14,1027,-0.6,63,7,20000,0,,,0,,,,,,,,,,,wg-a,,,,AAXX 14004 07460 12/70 00000 10140 20070 39879 40270 58006 60006 80000 90000=
07460,1996-06-14 03:00:00,12,1026,-1.3,67,6,20000,0,,,0,,,,,,,,,,,wg-a,,,,AAXX 14034 07460 12/70 00000 10120 20060 39866 40260 56013 60006 80000 90300=
07460,1996-06-14 06:00:00,14,1025.7,0.1,63,7,500,3.704,,,30,9.8,21.3,,,,,,,,,wg-a,,,,AAXX 14064 07460 02/00 00302 10140 20070 39867 40257 50001 60006 80000 90600 333 10213 20098 60004=
07460,1996-06-14 09:00:00,18,1025,-0.2,56,9,500,14.816,,,350,,,,,,,,,,,wg-a,,,,AAXX 14094 07460 12/00 03508 10180 20090 39865 40250 58002 60006 80000 90900=
07460,1996-06-14 12:00:00,22,1023.5,-0.9,46,10,500,22.224,,,360,,,,,,,,,,,wg-a,,,,AAXX 14124 07460 12/00 03612 10220 20100 39856 40235 58009 60006 80000 91200=
07460,1996-06-14 15:00:00,24,1022.1,-1.2,36,8,500,25.928,,,10,,,,,,,,,,,wg-a,,,,AAXX 14154 07460 12700 /0114 10240 20080 39844 40221 56012 60006 81100 91500=
07460,1996-06-14 18:00:00,23,1022.1,-0,41,9,500,14.816,,,20,14,24.3,,,,,,,,,wg-a,,,,AAXX 14184 07460 12/00 10208 10230 20090 39843 40221 55000 60006 80001 91800 333 10243 20140=
07460,1996-06-14 21:00:00,18,1023.8,1.1,52,8,500,7.408,,,350,,,,,,,,,,,wg-a,,,,AAXX 14214 07460 12/00 13504 10180 20080 39854 40238 52011 60006 80001 92100=
07460,1996-06-15 00:00:00,12,1024.2,-0.5,76,8,20000,3.704,,,210,,,,,,,,,,,wg-a,,,,AAXX 15004 07460 12/70 02102 10120 20080 39849 40242 58005 60006 80000 90000=
07460,1996-06-15 03:00:00,9,1024.1,-0.5,87,7,20000,0,,,0,,,,,,,,,,,wg-a,,,,AAXX 15034 07460 12/70 00000 10090 20070 39844 40241 57005 60006 80000 90300=
07460,1996-06-15 06:00:00,13,1023.6,0.1,82,10,500,3.704,,,30,7.8,22.9,,,,,,,,,wg-a,,,,AAXX 15064 07460 02/00 00302 10130 20100 39845 40236 52001 60006 80000 90600 333 10229 20078 60004=
07460,1996-06-15 09:00:00,19,1022.3,-0.4,60,11,500,7.408,,,30,,,,,,,,,,,wg-a,,,,AAXX 15094 07460 12/00 00304 10190 20110 39841 40223 58004 60006 80000 90900=
07460,1996-06-15 12:00:00,23,1021,-0.8,47,11,500,11.112,,,350,,,,,,,,,,,wg-a,,,,AAXX 15124 07460 12/00 03506 10230 20110 39833 40210 58008 60006 80000 91200=
07460,1996-06-15 15:00:00,25,1019.5,-1.2,32,7,40000,18.52,,,350,,,,,,,,,,,wg-a,,,,AAXX 15154 07460 12/82 03510 10250 20070 39821 40195 57012 60006 80000 91500=
07460,1996-06-15 18:00:00,24,1018.9,-0.7,34,7,35000,14.816,,,30,13.1,25.4,,,,,,,,,wg-a,,,,AAXX 15184 07460 12681 /0308 10240 20070 39814 40189 55007 60006 81201 91800 333 10254 20131=
07460,1996-06-15 21:00:00,16,1021.5,1.5,63,9,500,3.704,,,240,,,,,,,,,,,wg-a,,,,AAXX 15214 07460 12/00 12402 10160 20090 39829 40215 53015 60006 80001 92100=
07460,1996-06-16 00:00:00,12,1021.3,-0.7,82,9,20000,0,,,0,,,,,,,,,,,wg-a,,,,AAXX 16004 07460 12/70 00000 10120 20090 39822 40213 57007 60006 80000 90000=
07460,1996-06-16 03:00:00,10,1021,-0.7,82,7,20000,3.704,,,110,,,,,,,,,,,wg-a,,,,AAXX 16034 07460 12/70 11102 10100 20070 39815 40210 56007 60006 80001 90300=
07460,1996-06-16 06:00:00,14,1020.8,0.5,77,10,500,3.704,,,10,8.7,24,,,,,,,,,wg-a,,,,AAXX 16064 07460 02/00 20102 10140 20100 39820 40208 53005 60006 80002 90600 333 10240 20087 60004=
07460,1996-06-16 09:00:00,20,1019.8,-0.2,56,11,500,7.408,,,60,,,,,,,,,,,wg-a,,,,AAXX 16094 07460 12/00 10604 10200 20110 39818 40198 58002 60006 81032 90900=
07460,1996-06-16 12:00:00,25,1018.3,-0.8,44,12,500,11.112,,,360,,,,,,,,,,,wg-a,,,,AAXX 16124 07460 12600 /3606 10250 20120 39810 40183 57008 60006 81102 91200=
07460,1996-06-16 15:00:00,26,1017.1,-1.2,32,8,500,14.816,,,10,,,,,,,,,,,wg-a,,,,AAXX 16154 07460 12600 /0108 10260 20080 39799 40171 58012 60006 81201 91500=
07460,1996-06-16 18:00:00,25,1016.5,-0.7,39,10,500,14.816,,,40,14,26.6,,,,,,,,,wg-a,,,,AAXX 16184 07460 12600 20408 10250 20100 39792 40165 56007 60006 81201 91800 333 10266 20140=
07460,1996-06-16 21:00:00,20,1018.1,0.9,53,10,500,3.704,,,30,,,,,,,,,,,wg-a,,,,AAXX 16214 07460 12/00 20302 10200 20100 39801 40181 53009 60006 80001 92100=
07460,1996-06-17 00:00:00,13,1019.2,0.2,77,9,500,3.704,,,140,,,,,,,,,,,wg-a,,,,AAXX 17004 07460 12/00 21402 10130 20090 39803 40192 50002 60006 80002 90000=
07460,1996-06-17 03:00:00,11,1019.1,-0.5,82,8,20000,0,,,0,,,,,,,,,,,wg-a,,,,AAXX 17034 07460 12/70 20000 10110 20080 39798 40191 56005 60006 80002 90300=
07460,1996-06-17 06:00:00,14,1019.1,0.7,77,10,500,3.704,,,30,10.1,24.9,,,,,,,,,wg-a,,,,AAXX 17064 07460 02/00 10302 10140 20100 39804 40191 53007 60006 80001 90600 333 10249 20101 60004=
07460,1996-06-17 09:00:00,22,1018.1,-0.1,50,11,500,3.704,,,70,,,,,,,,,,,wg-a,,,,AAXX 17094 07460 12/00 00702 10220 20110 39803 40181 58001 60006 80000 90900=
07460,1996-06-17 12:00:00,26,1016.4,-1.1,37,10,40000,7.408,,,340,,,,,,,,,,,wg-a,,,,AAXX 17124 07460 12782 13404 10260 20100 39792 40164 56011 60006 81100 91200=
07460,1996-06-17 15:00:00,27,1015.2,-1,26,6,50000,11.112,,,360,,,,,,,,,,,wg-a,,,,AAXX 17154 07460 12784 13606 10270 20060 39782 40152 56010 60006 81100 91500=
07460,1996-06-17 18:00:00,26,1014.9,-0.4,34,9,50000,11.112,,,360,14.6,27.6,,,,,,,,,wg-a,,,,AAXX 17184 07460 12784 33606 10260 20090 39778 40149 55004 60006 81101 91800 333 10276 20146=
07460,1996-06-17 21:00:00,19,1016.6,0.7,56,10,25000,3.704,,,250,,,,,,,,,,,wg-a,,,,AAXX 17214 07460 12/75 42502 10190 20100 39785 40166 53007 60006 80001 92100=
07460,1996-06-18 00:00:00,15,1017.2,0.2,72,10,25000,0,,,0,,,,,,,,,,,wg-a,,,,AAXX 18004 07460 12/75 40000 10150 20100 39786 40172 50002 60006 80001 90000=
07460,1996-06-18 03:00:00,17,1016.3,-0.7,63,10,25000,3.704,,,150,,,,,,,,,,,wg-a,,,,AAXX 18034 07460 12/75 11502 10170 20100 39780 40163 58007 60006 80001 90300=
07460,1996-06-18 06:00:00,18,1016,-0.1,77,14,20000,3.704,,,170,14.1,26.2,,,,,,,,,wg-a,,,,AAXX 18064 07460 02/70 61702 10180 20140 39779 40160 58001 60006 80004 90600 333 10262 20141 60004=
07460,1996-06-18 09:00:00,24,1014.9,-0.3,57,15,20000,3.704,,,170,,,,,,,,,,,wg-a,,,,AAXX 18094 07460 12/70 71702 10240 20150 39776 40149 56003 60006 80006 90900=
07460,1996-06-18 12:00:00,27,1013.7,-0.8,42,13,25000,7.408,,,30,,,,,,,,,,,wg-a,,,,AAXX 18124 07460 12675 70304 10270 20130 39768 40137 58008 60006 82206 91200=
07460,1996-06-18 15:00:00,28,1012.5,-1,37,12,500,3.704,,,150,,,,,,,,,,,wg-a,,,,AAXX 18154 07460 12700 41502 10280 20120 39758 40125 56010 60006 83201 91500=
07460,1996-06-18 18:00:00,27,1012.2,-0.5,32,9,40000,14.816,,,330,18.2,29,,,,,,,,,wg-a,,,,AAXX 18184 07460 12782 13308 10270 20090 39753 40122 55005 60006 81201 91800 333 10290 20182=
07460,1996-06-18 21:00:00,18,1014.1,0.8,59,10,40000,11.112,,,240,,,,,,,,,,,wg-a,,,,AAXX 18214 07460 12/82 02406 10180 20100 39761 40141 52008 60006 80000 92100=
07460,1996-06-19 00:00:00,15,1014.5,-0.1,72,10,500,0,,,0,,,,,,,,,,,wg-a,,,,AAXX 19004 07460 12/00 00000 10150 20100 39760 40145 58001 60006 80000 90000=
07460,1996-06-19 03:00:00,15,1013.6,-0.8,67,9,500,7.408,,,10,,,,,,,,,,,wg-a,,,,AAXX 19034 07460 12/00 00104 10150 20090 39752 40136 56008 60006 80000 90300=
07460,1996-06-19 09:00:00,24,1012.9,0.3,50,13,500,3.704,,,140,,,,,,,,,,,wg-a,,,,AAXX 19094 07460 12/00 51402 10240 20130 39757 40129 50003 60006 80002 90900=
07460,1996-06-19 12:00:00,28,1011.8,-0.6,35,11,500,3.704,,,250,,,,,,,,,,,wg-a,,,,AAXX 19124 07460 12600 42502 10280 20110 39750 40118 58006 60006 81101 91200=
07460,1996-06-19 15:00:00,29,1010.3,-1.3,35,12,500,11.112,,,60,,,,,,,,,,,wg-a,,,,AAXX 19154 07460 12600 /0606 10290 20120 39737 40103 56013 60006 82131 91500=
07460,1996-06-19 18:00:00,26,1009.8,-0.8,39,11,25000,11.112,,,40,17.6,29.2,,,,,,,,,wg-a,,,,AAXX 19184 07460 12675 60406 10260 20110 39729 40098 56008 60006 82232 91800 333 10292 20176=
07460,1996-06-19 21:00:00,21,1011,0.6,60,13,25000,3.704,,,120,,,,,,,,,,,wg-a,,,,AAXX 19214 07460 12/75 41202 10210 20130 39735 40110 51006 60006 82082 92100=
07460,1996-06-20 00:00:00,16,1011.2,-0.5,77,12,20000,3.704,,,90,,,,,,,,,,,wg-a,,,,AAXX 20004 07460 12670 40902 10160 20120 39730 40112 58005 60006 81531 90000=
07460,1996-06-20 03:00:00,16,1010.5,-0.7,77,12,15000,0,,,0,,,,,,,,,,,wg-a,,,,AAXX 20034 07460 12665 /0000 10160 20120 39723 40105 56007 60006 83231 90300=
07460,1996-06-20 06:00:00,17,1010.6,0.3,77,13,10000,3.704,,,20,15.1,26.3,,,,,,,,,wg-a,,,,AAXX 20064 07460 02560 70202 10170 20130 39726 40106 53003 60006 8498/ 90600 333 10263 20151 60004=
07460,1996-06-20 09:00:00,20,1010.6,0.5,73,15,10000,3.704,,,170,,,,0,,,,,,29,wg-a,,,,AAXX 20094 07460 12560 61702 10200 20150 39730 40106 50005 60007 72998 83232 90900=
07460,1996-06-20 12:00:00,23,1010.2,-0.1,50,12,25000,14.816,,,280,,,,,,,,,,1,wg-a,,,,AAXX 20124 07460 12575 62808 10230 20120 39729 40102 55001 60016 70198 82832 91200=
07460,1996-06-20 15:00:00,23,1009.3,-0.7,50,12,25000,18.52,,,260,,,,,,,,,,,wg-a,,,,AAXX 20154 07460 12675 62610 10230 20120 39721 40093 58007 60006 82832 91500=
07460,1996-06-20 18:00:00,23,1008.2,-1.2,50,12,25000,11.112,,,340,17.1,24.3,,,,,,,,,wg-a,,,,AAXX 20184 07460 32675 43406 10230 20120 39710 40082 56012 81202 91800 333 10243 20171=
07460,1996-06-20 21:00:00,19,1009.7,1,60,11,25000,3.704,,,360,,,,,,,,,,,wg-a,,,,AAXX 20214 07460 12675 53602 10190 20110 39719 40097 53010 60006 84532 92100=
07460,1996-06-21 00:00:00,15,1008.9,-1.3,77,11,20000,0,,,0,,,,,,,,,,,wg-a,,,,AAXX 21004 07460 12670 /0000 10150 20110 39707 40089 58013 60006 82532 90000=
07460,1996-06-21 03:00:00,13,1007.7,-1.4,88,11,20000,0,,,0,,,,,,,,,,,wg-a,,,,AAXX 21034 07460 12670 /0000 10130 20110 39692 40077 58014 60006 81532 90300=
07460,1996-06-21 06:00:00,15,1006.8,-0.6,82,12,20000,7.408,,,260,12.5,22.5,,,,,,,,,wg-a,,,,AAXX 21064 07460 02670 82604 10150 20120 39686 40068 57006 60006 83872 90600 333 10225 20125 60004=
07460,1996-06-21 12:00:00,18,1004.1,-1.1,83,15,13000,11.112,,,350,,,,0,,,,,,80,wg-a,,,,AAXX 21124 07460 02563 83506 10180 20150 39665 40041 55011 60016 78096 8/900 91200 333 60007=
07460,1996-06-21 18:00:00,16,1004.5,-0.1,88,14,7000,14.816,,,260,14.6,19.9,,2,,,,,,80,wg-a,,,,AAXX 21184 07460 12557 /2608 10160 20140 39666 40045 55001 60027 78098 84830 91800 333 10199 20146=
07460,1996-06-21 21:00:00,14,1007.9,3,94,13,8000,14.816,,,330,,,,16,,,,,,62,wg-a,,,,AAXX 21214 07460 12458 73308 10140 20130 39696 40079 53030 60167 76286 8683/ 92100=
07460,1996-06-22 00:00:00,12,1011.1,2.7,88,10,15000,18.52,,,340,,,,3,,,,,,2,wg-a,,,,AAXX 22004 07460 02465 73410 10120 20100 39723 40111 52027 60196 70286 8583/ 90000 333 60037=
07460,1996-06-22 03:00:00,10,1013.5,2,87,8,15000,11.112,,,330,,,,,,,,,,,wg-a,,,,AAXX 22034 07460 12665 43306 10100 20080 39744 40135 53020 60006 82530 90300=
07460,1996-06-22 06:00:00,10,1015.7,2.1,76,6,20000,7.408,,,360,9.3,16.2,,,,,28,,,,wg-a,,,,AAXX 22064 07460 12670 73604 10100 20060 39765 40157 53021 60284 8353/ 90600 333 10162 20093=
07460,1996-06-22 09:00:00,13,1017.3,2,62,6,25000,18.52,,,360,,,,,,,,,,,wg-a,,,,AAXX 22094 07460 12575 23610 10130 20060 39785 40173 51020 60006 81131 90900=
07460,1996-06-22 12:00:00,13,1019,1.5,54,4,500,18.52,,,360,,,,,,,,,,,wg-a,,,,AAXX 22124 07460 12600 73610 10130 20040 39801 40190 52015 60006 8423/ 91200=
07460,1996-06-22 15:00:00,14,1020,1.1,55,5,500,18.52,,,330,,,,,,,,,,,wg-a,,,,AAXX 22154 07460 12600 /3310 10140 20050 39812 40200 51011 60006 82131 91500=
07460,1996-06-22 18:00:00,14,1020.4,0.4,55,5,20000,11.112,,,340,10.1,15.2,,,,,,,,,wg-a,,,,AAXX 22184 07460 12670 /3406 10140 20050 39815 40204 53004 60006 81230 91800 333 10152 20101=
07460,1996-06-22 21:00:00,11,1022.2,1.2,76,7,20000,0,,,0,,,,,,,,,,,wg-a,,,,AAXX 22214 07460 12670 /0000 10110 20070 39828 40222 53012 60006 81240 92100=
07460,1996-06-23 00:00:00,6,1022.5,-0.3,93,5,10000,0,,,0,,,,,,,,,,,wg-a,,,,AAXX 23004 07460 12/60 00000 10060 20050 39825 40225 58003 60006 80000 90000=
07460,1996-06-23 03:00:00,6,1021.8,-0.8,93,5,10000,3.704,,,260,,,,,,,,,,,wg-a,,,,AAXX 23034 07460 12760 22602 10060 20050 39817 40218 58008 60006 82500 90300=
07460,1996-06-23 06:00:00,8,1021.9,0.5,93,7,15000,3.704,,,10,5.4,14.3,,,,,,,,,wg-a,,,,AAXX 23064 07460 02765 60102 10080 20070 39822 40219 53005 60006 83532 90600 333 10143 20054 60004=
07460,1996-06-23 09:00:00,9,1024,2.1,93,8,10000,7.408,,,290,,,,4,,,,,,29,wg-a,,,,AAXX 23094 07460 12460 72904 10090 20080 39843 40240 51021 60047 72996 8592/ 90900=
07460,1996-06-23 12:00:00,14,1022.6,-0.7,63,7,20000,11.112,,,10,,,,0,,,,,,3,wg-a,,,,AAXX 23124 07460 02570 60106 10140 20070 39836 40226 57007 60046 70396 85802 91200 333 60007=
07460,1996-06-23 15:00:00,12,1023,0.2,76,8,10000,11.112,,,310,,,,1,,,,,,29,wg-a,,,,AAXX 23154 07460 12560 63106 10120 20080 39838 40230 50002 60017 72998 85902 91500=
07460,1996-06-23 18:00:00,11,1023.5,0.4,87,9,15000,3.704,,,30,8.1,14.7,,6,,,,,,25,wg-a,,,,AAXX 23184 07460 12665 70302 10110 20090 39842 40235 51004 60067 72598 86802 91800 333 10147 20081=
07460,1996-06-23 21:00:00,10,1024.6,0.9,87,8,15000,3.704,,,330,,,,,,,,,,1,wg-a,,,,AAXX 23214 07460 02665 23302 10100 20080 39851 40246 53009 61000 70186 82800 92100 333 ////=
07460,1996-06-24 00:00:00,9,1024.8,-0,87,7,15000,0,,,0,,,,0,,,,,,1,wg-a,,,,AAXX 24004 07460 02665 /0000 10090 20070 39851 40248 55000 60006 70186 81500 90000 333 60007=
07460,1996-06-24 03:00:00,5,1025.3,-0.2,100,5,12000,0,,,0,,,,,,,,,,,wg-a,,,,AAXX 24034 07460 12662 20000 10050 20050 39850 40253 58002 60006 81501 90300=
07460,1996-06-24 06:00:00,10,1025.4,0.9,93,9,12000,7.408,,,30,4.6,11.1,,,,,10,,,,wg-a,,,,AAXX 24064 07460 12562 /0304 10100 20090 39859 40254 53009 60104 82531 90600 333 10111 20046=
07460,1996-06-24 09:00:00,12,1025.7,0.5,82,9,15000,14.816,,,10,,,,,,,,,,,wg-a,,,,AAXX 24094 07460 12465 70108 10120 20090 39864 40257 51005 60006 878// 90900=
07460,1996-06-24 12:00:00,13,1025.6,0,77,9,15000,14.816,,,30,,,,,,,,,,,wg-a,,,,AAXX 24124 07460 12665 70308 10130 20090 39864 40256 50000 60006 878// 91200=
07460,1996-06-24 15:00:00,15,1024.4,-0.9,55,6,25000,18.52,,,360,,,,,,,,,,,wg-a,,,,AAXX 24154 07460 12675 /3610 10150 20060 39855 40244 56009 60006 82236 91500=
07460,1996-06-24 18:00:00,13,1024.6,-0,67,7,15000,11.112,,,10,10.4,15.7,,,,,,,,,wg-a,,,,AAXX 24184 07460 12565 70106 10130 20070 39855 40246 54000 60006 878// 91800 333 10157 20104=
07460,1996-06-25 00:00:00,11,1025.2,-0.3,76,7,15000,7.408,,,340,,,,,,,,,,,wg-a,,,,AAXX 25004 07460 12565 73404 10110 20070 39857 40252 58003 60006 8683/ 90000=
07460,1996-06-25 03:00:00,10,1024.7,-0.6,87,8,10000,7.408,,,10,,,,,,,,,,,wg-a,,,,AAXX 25034 07460 12460 70104 10100 20080 39852 40247 56006 60006 875// 90300=
07460,1996-06-25 06:00:00,10,1024.8,0.2,87,8,8000,11.112,,,10,9.8,13.2,,,,,,,,,wg-a,,,,AAXX 25064 07460 02458 70106 10100 20080 39853 40248 53002 60006 875// 90600 333 10132 20098 60004=
07460,1996-06-25 09:00:00,12,1024.5,0,76,8,12000,11.112,,,10,,,,,,,,,,,wg-a,,,,AAXX 25094 07460 12462 70106 10120 20080 39853 40245 50000 60006 878// 90900=
07460,1996-06-25 12:00:00,15,1023.7,-0.5,63,8,18000,11.112,,,360,,,,,,,,,,,wg-a,,,,AAXX 25124 07460 12568 73606 10150 20080 39848 40237 58005 60006 878// 91200=
07460,1996-06-25 15:00:00,15,1022.7,-0.8,67,9,25000,18.52,,,350,,,,,,,,,,,wg-a,,,,AAXX 25154 07460 12575 73510 10150 20090 39840 40227 56008 60006 878// 91500=
07460,1996-06-25 18:00:00,15,1022.6,-0.1,67,9,20000,14.816,,,330,10.1,16.2,,,,,,,,,wg-a,,,,AAXX 25184 07460 12670 73308 10150 20090 39838 40226 55001 60006 878// 91800 333 10162 20101=
07460,1996-06-25 21:00:00,13,1023.4,0.5,77,9,15000,3.704,,,10,,,,,,,,,,,wg-a,,,,AAXX 25214 07460 12565 70102 10130 20090 39844 40234 53005 60006 878// 92100=
07460,1996-06-26 00:00:00,13,1023.1,-0.4,72,8,15000,7.408,,,310,,,,,,,,,,,wg-a,,,,AAXX 26004 07460 12665 73104 10130 20080 39840 40231 58004 60006 875// 90000=
07460,1996-06-26 03:00:00,11,1022.6,-0.7,82,8,15000,3.704,,,60,,,,,,,,,,,wg-a,,,,AAXX 26034 07460 12665 /0602 10110 20080 39833 40226 56007 60006 86500 90300=
07460,1996-06-26 06:00:00,12,1022.7,0.3,82,9,15000,7.408,,,90,10.9,14.6,,,,,,,,,wg-a,,,,AAXX 26064 07460 02565 60904 10120 20090 39835 40227 53003 60006 84831 90600 333 10146 20109 60004=
07460,1996-06-26 09:00:00,16,1022.5,0.3,63,9,20000,7.408,,,350,,,,,,,,,,,wg-a,,,,AAXX 26094 07460 12570 53504 10160 20090 39838 40225 51003 60006 84801 90900=
07460,1996-06-26 12:00:00,18,1022,-0.1,56,9,25000,11.112,,,10,,,,,,,,,,,wg-a,,,,AAXX 26124 07460 12675 50106 10180 20090 39837 40220 58001 60006 83801 91200=
07460,1996-06-26 15:00:00,20,1021.4,-0.4,46,8,500,14.816,,,20,,,,,,,,,,,wg-a,,,,AAXX 26154 07460 12600 40208 10200 20080 39833 40214 58004 60006 83801 91500=
07460,1996-06-26 18:00:00,20,1021.5,0.1,46,8,500,7.408,,,20,11.9,20.5,,,,,,,,,wg-a,,,,AAXX 26184 07460 12600 40204 10200 20080 39834 40215 53001 60006 83801 91800 333 10205 20119=
07460,1996-06-26 21:00:00,14,1023.4,1,77,10,20000,3.704,,,250,,,,,,,,,,,wg-a,,,,AAXX 26214 07460 12770 /2502 10140 20100 39844 40234 53010 60006 81501 92100=
07460,1996-06-27 00:00:00,11,1024.2,0.4,87,9,15000,0,,,0,,,,,,,,,,,wg-a,,,,AAXX 27004 07460 12765 40000 10110 20090 39848 40242 51004 60006 84530 90000=
07460,1996-06-27 03:00:00,10,1024,-0.4,87,8,15000,0,,,0,,,,,,,,,,,wg-a,,,,AAXX 27034 07460 12765 /0000 10100 20080 39844 40240 57004 60006 81500 90300=
07460,1996-06-27 06:00:00,12,1025.1,1.4,88,10,15000,3.704,,,350,8.6,19.7,,,,,,,,,wg-a,,,,AAXX 27064 07460 02/65 13502 10120 20100 39858 40251 53014 60006 80001 90600 333 10197 20086 60004=
07460,1996-06-27 09:00:00,20,1024.6,0.6,60,12,20000,3.704,,,70,,,,,,,,,,,wg-a,,,,AAXX 27094 07460 12670 20702 10200 20120 39864 40246 51006 60006 82201 90900=
07460,1996-06-27 12:00:00,22,1023.6,-0.6,57,13,18000,3.704,,,50,,,,,,,,,,,wg-a,,,,AAXX 27124 07460 12668 50502 10220 20130 39858 40236 58006 60006 82201 91200=
07460,1996-06-27 15:00:00,22,1023,-0.7,50,11,18000,11.112,,,350,,,,,,,,,,,wg-a,,,,AAXX 27154 07460 12768 53506 10220 20110 39852 40230 58007 60006 85800 91500=
07460,1996-06-27 18:00:00,22,1022.5,-0.5,53,12,18000,7.408,,,20,11.7,23.6,,,,,,,,,wg-a,,,,AAXX 27184 07460 12768 20204 10220 20120 39847 40225 56005 60006 81830 91800 333 10236 20117=
07460,1996-06-27 21:00:00,16,1023.9,0.5,77,12,15000,3.704,,,230,,,,,,,,,,,wg-a,,,,AAXX 27214 07460 12/65 12302 10160 20120 39852 40239 53005 60006 80001 92100=
07460,1996-06-28 00:00:00,13,1024,-0.3,88,11,15000,0,,,0,,,,,,,,,,,wg-a,,,,AAXX 28004 07460 12/65 10000 10130 20110 39849 40240 58003 60006 80001 90000=
07460,1996-06-28 03:00:00,13,1023.2,-0.8,88,11,15000,0,,,0,,,,,,,,,,,wg-a,,,,AAXX 28034 07460 12/65 10000 10130 20110 39841 40232 56008 60006 80001 90300=
07460,1996-06-28 06:00:00,14,1023.1,0.1,82,11,15000,3.704,,,130,12.1,22,,,,,,,,,wg-a,,,,AAXX 28064 07460 02/65 21302 10140 20110 39842 40231 53001 60006 80002 90600 333 10220 20121 60004=
07460,1996-06-28 09:00:00,21,1021.5,-0.7,60,13,15000,11.112,,,150,,,,,,,,,,,wg-a,,,,AAXX 28094 07460 12765 21506 10210 20130 39836 40215 58007 60006 81102 90900=
07460,1996-06-28 12:00:00,25,1019.4,-1.5,50,14,20000,3.704,,,20,,,,,,,,,,,wg-a,,,,AAXX 28124 07460 12770 40202 10250 20140 39821 40194 58015 60006 83202 91200=
07460,1996-06-28 18:00:00,25,1016.5,-1,41,11,25000,14.816,,,270,14.1,27,,,,,,,,,wg-a,,,,AAXX 28184 07460 12775 /2708 10250 20110 39793 40165 56010 60006 82102 91800 333 10270 20141=
07460,1996-06-28 21:00:00,21,1017.7,0.5,53,11,20000,0,,,0,,,,,,,,,,,wg-a,,,,AAXX 28214 07460 12/70 30000 10210 20110 39799 40177 53005 60006 82031 92100=
07460,1996-06-29 00:00:00,15,1018.9,0.3,77,11,15000,0,,,0,,,,,,,,,,,wg-a,,,,AAXX 29004 07460 12/65 20000 10150 20110 39803 40189 50003 60006 81031 90000=
07460,1996-06-29 03:00:00,14,1018.8,-0.3,88,12,15000,3.704,,,330,,,,,,,,,,,wg-a,,,,AAXX 29034 07460 12665 63302 10140 20120 39800 40188 55003 60006 84530 90300=
07460,1996-06-29 06:00:00,16,1019.6,1.1,68,10,20000,11.112,,,230,12.8,25.1,,,,,,,,,wg-a,,,,AAXX 29064 07460 02670 32306 10160 20100 39811 40196 52011 60006 82541 90600 333 10251 20128 60004=
07460,1996-06-29 09:00:00,19,1019.1,-0,64,12,500,11.112,,,270,,,,,,,,,,,wg-a,,,,AAXX 29094 07460 12500 72706 10190 20120 39811 40191 54000 60006 8683/ 90900=
07460,1996-06-29 12:00:00,21,1018.3,-0.6,56,12,40000,14.816,,,210,,,,,,,,,,,wg-a,,,,AAXX 29124 07460 12682 72108 10210 20120 39805 40183 58006 60006 85802 91200=
07460,1996-06-29 15:00:00,22,1017.6,-0.5,50,11,40000,22.224,,,270,,,,,,,,,,,wg-a,,,,AAXX 29154 07460 12682 52712 10220 20110 39799 40176 57005 60006 84202 91500=
07460,1996-06-29 18:00:00,21,1018.4,0.5,49,10,40000,14.816,,,310,15.9,22.9,,,,,,,,,wg-a,,,,AAXX 29184 07460 12782 43108 10210 20100 39805 40184 53005 60006 82102 91800 333 10229 20159=
07460,1996-06-29 21:00:00,16,1021.4,2.2,63,9,500,0,,,0,,,,,,,,,,,wg-a,,,,AAXX 29214 07460 12600 40000 10160 20090 39828 40214 52022 60006 82102 92100=
07460,1996-06-30 00:00:00,16,1021.5,0.1,68,10,20000,14.816,,,270,,,,,,,,,,,wg-a,,,,AAXX 30004 07460 12770 42708 10160 20100 39829 40215 52001 60006 83102 90000=
07460,1996-06-30 06:00:00,13,1021.8,0,77,9,15000,7.408,,,110,10.2,20.8,,,,,,,,,wg-a,,,,AAXX 30064 07460 02665 21104 10130 20090 39828 40218 50000 60006 81502 90600 333 10208 20102 60004=
07460,1996-06-30 09:00:00,17,1020.8,-0.4,63,10,20000,3.704,,,80,,,,,,,,,,,wg-a,,,,AAXX 30094 07460 12670 30802 10170 20100 39824 40208 58004 60006 82132 90900=
07460,1996-06-30 12:00:00,21,1018.4,-1.8,53,11,500,7.408,,,110,,,,,,,,,,,wg-a,,,,AAXX 30124 07460 12700 21104 10210 20110 39806 40184 57018 60006 81131 91200=
07460,1996-06-30 15:00:00,23,1016.3,-1.8,50,12,500,7.408,,,80,,,,,,,,,,,wg-a,,,,AAXX 30154 07460 12700 30804 10230 20120 39788 40163 56018 60006 83100 91500=
07460,1996-06-30 18:00:00,23,1014.9,-1.3,44,10,500,11.112,,,310,13.1,24.2,,,,,,,,,wg-a,,,,AAXX 30184 07460 12700 23106 10230 20100 39775 40149 56013 60006 81131 91800 333 10242 20131=
07460,1996-06-30 21:00:00,20,1015.7,0.3,53,10,20000,11.112,,,230,,,,,,,,,,,wg-a,,,,AAXX 30214 07460 12/70 52306 10200 20100 39778 40157 50003 60006 84031 92100=
07460,1996-07-01 00:00:00,19,1014.8,-0.9,60,11,15000,7.408,,,260,,,,,,,,,,,wg-a,,,,AAXX 01004 07460 12665 /2604 10190 20110 39768 40148 58009 60006 84531 90000=
07460,1996-07-01 03:00:00,17,1012.9,-2,72,12,15000,3.704,,,120,,,,,,,,,,,wg-a,,,,AAXX 01034 07460 12665 71202 10170 20120 39748 40129 56020 60006 8453/ 90300=
07460,1996-07-01 06:00:00,17,1013.2,0.1,52,7,500,7.408,,,300,16.6,23.1,,,,,,,,,wg-a,,,,AAXX 01064 07460 02600 73004 10170 20070 39750 40132 50001 60006 8687/ 90600 333 10231 20166 60004=
07460,1996-07-01 09:00:00,18,1013.1,0.1,59,10,25000,3.704,,,220,,,,,,,,,,,wg-a,,,,AAXX 01094 07460 12575 72202 10180 20100 39750 40131 50001 60006 8687/ 90900=
07460,1996-07-01 12:00:00,17,1013.2,-0,63,10,25000,14.816,,,250,,,,,,,,,,,wg-a,,,,AAXX 01124 07460 12675 72508 10170 20100 39751 40132 54000 60006 8487/ 91200=
07460,1996-07-01 15:00:00,19,1012.5,-0.4,64,12,25000,18.52,,,250,,,,,,,,,,21,wg-a,,,,AAXX 01154 07460 02575 62510 10190 20120 39746 40125 56004 61000 72162 83830 91500 333 ////=
07460,1996-07-01 18:00:00,19,1012.1,-0.5,52,9,25000,11.112,,,270,16.1,19.3,,,,,,,,1,wg-a,,,,AAXX 01184 07460 32675 52706 10190 20090 39742 40121 56005 70162 84830 91800 333 10193 20161=
07460,1996-07-02 00:00:00,15,1013.5,0.1,67,9,15000,3.704,,,290,,,,,,,,,,,wg-a,,,,AAXX 02004 07460 12665 52902 10150 20090 39750 40135 50001 60006 83501 90000=
07460,1996-07-02 03:00:00,13,1013.2,-0.5,72,8,15000,3.704,,,310,,,,,,,,,,,wg-a,,,,AAXX 02034 07460 12665 83102 10130 20080 39745 40132 58005 60006 8252/ 90300=
07460,1996-07-02 06:00:00,13,1013.9,0.8,67,7,500,7.408,,,250,12,18.5,,,,,,,,,wg-a,,,,AAXX 02064 07460 02500 /2504 10130 20070 39752 40139 51008 60006 8587/ 90600 333 10185 20120 61000=
07460,1996-07-02 09:00:00,15,1014,0.4,63,8,500,11.112,,,300,,,,,,,,,,,wg-a,,,,AAXX 02094 07460 12600 73006 10150 20080 39756 40140 51004 60006 8581/ 90900=
07460,1996-07-02 12:00:00,17,1013.6,-0.3,55,8,35000,7.408,,,80,,,,,,,,,,,wg-a,,,,AAXX 02124 07460 12681 80804 10170 20080 39754 40136 58003 60006 8681/ 91200=
07460,1996-07-02 15:00:00,18,1013.6,0.1,52,8,40000,11.112,,,330,,,,,,,,,,,wg-a,,,,AAXX 02154 07460 12682 63306 10180 20080 39755 40136 50001 60006 85831 91500=
07460,1996-07-02 18:00:00,19,1013.4,-0.1,46,7,40000,3.704,,,330,13.3,18.7,,,,,,,,,wg-a,,,,AAXX 02184 07460 12682 43302 10190 20070 39754 40134 57001 60006 83801 91800 333 10187 20133=
07460,1996-07-02 21:00:00,12,1015.4,1.1,76,8,20000,3.704,,,250,,,,,,,,,,,wg-a,,,,AAXX 02214 07460 12670 32502 10120 20080 39765 40154 53011 60006 82801 92100=
07460,1996-07-03 00:00:00,11,1015.6,0,82,8,20000,7.408,,,250,,,,,,,,,,,wg-a,,,,AAXX 03004 07460 12770 32504 10110 20080 39765 40156 50000 60006 83500 90000=
07460,1996-07-03 03:00:00,10,1014.9,-0.6,87,8,500,7.408,,,160,,,,,,,,,,,wg-a,,,,AAXX 03034 07460 12/00 01604 10100 20080 39758 40149 56006 60006 80000 90300=
07460,1996-07-03 06:00:00,11,1015.2,0.3,82,8,40000,11.112,,,150,9.6,18.4,,,,,,,,,wg-a,,,,AAXX 03064 07460 02682 /1506 10110 20080 39762 40152 52003 60006 81100 90600 333 10184 20096 60004=
07460,1996-07-03 09:00:00,18,1014.1,-0.2,59,10,40000,14.816,,,190,,,,,,,,,,,wg-a,,,,AAXX 03094 07460 12682 31908 10180 20100 39761 40141 58002 60006 81130 90900=
07460,1996-07-03 12:00:00,22,1013.1,-0.6,50,11,40000,3.704,,,230,,,,,,,,,,,wg-a,,,,AAXX 03124 07460 12682 52302 10220 20110 39755 40131 58006 60006 83830 91200=
07460,1996-07-03 15:00:00,22,1012.6,-0.2,53,12,35000,22.224,,,240,,,,,,,,,,,wg-a,,,,AAXX 03154 07460 12681 62412 10220 20120 39752 40126 56002 60006 85830 91500=
07460,1996-07-03 18:00:00,21,1013.2,0.5,60,13,25000,22.224,,,210,11.6,24.2,,,,,,,,,wg-a,,,,AAXX 03184 07460 12575 72112 10210 20130 39756 40132 53005 60006 8653/ 91800 333 10242 20116=
07460,1996-07-03 21:00:00,20,1014.1,0.6,68,14,15000,11.112,,,180,,,,,,,,,,,wg-a,,,,AAXX 03214 07460 12565 71806 10200 20140 39763 40141 53006 60006 8653/ 92100=
07460,1996-07-04 00:00:00,19,1014.1,-0.1,68,13,15000,14.816,,,190,,,,,,,,,,,wg-a,,,,AAXX 04004 07460 12665 71908 10190 20130 39762 40141 56001 60006 8453/ 90000=
07460,1996-07-04 03:00:00,19,1013.8,-0.2,68,13,15000,11.112,,,200,,,,,,,,,,,wg-a,,,,AAXX 04034 07460 12665 72006 10190 20130 39760 40138 55002 60006 8453/ 90300=
07460,1996-07-04 06:00:00,20,1014.2,0.6,68,14,12000,14.816,,,200,17.8,21.3,,,,,,,,,wg-a,,,,AAXX 04064 07460 02562 72008 10200 20140 39764 40142 51006 60006 86830 90600 333 10213 20178 60004=
07460,1996-07-04 09:00:00,21,1014.9,0.8,64,14,15000,25.928,,,240,,,,,,,,,,,wg-a,,,,AAXX 04094 07460 12565 72414 10210 20140 39773 40149 51008 60006 8683/ 90900=
07460,1996-07-04 12:00:00,23,1015.1,0.4,57,14,11000,22.224,,38.892,210,,,,,,,,,,,wg-a,,,,AAXX 04124 07460 12/61 /2112 10230 20140 39777 40151 50004 60006 91200 333 91021=
07460,1996-07-04 15:00:00,23,1014.9,-0.2,57,14,500,22.224,,,250,,,,,,,,,,,wg-a,,,,AAXX 04154 07460 12600 42512 10230 20140 39775 40149 56002 60006 83130 91500=
07460,1996-07-04 18:00:00,23,1014.3,-0.7,53,13,25000,14.816,,,260,19.2,24.7,,,,,,,,,wg-a,,,,AAXX 04184 07460 12675 52608 10230 20130 39768 40143 58007 60006 83842 91800 333 10247 20192=
07460,1996-07-04 21:00:00,20,1014.8,0.2,68,14,25000,3.704,,,270,,,,,,,,,,,wg-a,,,,AAXX 04214 07460 12675 /2702 10200 20140 39770 40148 53002 60006 83570 92100=
07460,1996-07-05 00:00:00,16,1014,-1.3,82,13,25000,3.704,,,200,,,,,,,,,,,wg-a,,,,AAXX 05004 07460 12675 42002 10160 20130 39757 40140 56013 60006 81531 90000=
07460,1996-07-05 03:00:00,17,1012.1,-1.8,77,13,25000,14.816,,,180,,,,,,,,,,,wg-a,,,,AAXX 05034 07460 12675 41808 10170 20130 39740 40121 58018 60006 81930 90300=
07460,1996-07-05 06:00:00,18,1009.5,-2.3,83,15,25000,14.816,,,190,14.2,22.4,,,,,,,,,wg-a,,,,AAXX 05064 07460 02675 71908 10180 20150 39716 40095 56023 60006 81286 90600 333 10224 20142 60004=
07460,1996-07-05 09:00:00,16,1010.4,0.7,88,14,500,3.704,,,260,,,,8,,,,,,17,wg-a,,,,AAXX 05094 07460 12500 82602 10160 20140 39723 40104 53007 60087 71798 879// 90900=
07460,1996-07-05 12:00:00,18,1009.4,-0.7,83,15,15000,14.816,,,210,,,,1,,,,,,21,wg-a,,,,AAXX 05124 07460 02565 82108 10180 20150 39716 40094 58007 60096 72198 8587/ 91200 333 60017=
07460,1996-07-05 15:00:00,21,1008.6,-0.4,60,13,500,18.52,,,250,,,,,,,,,,,wg-a,,,,AAXX 05154 07460 12500 62510 10210 20130 39711 40086 58004 60006 83242 91500=
07460,1996-07-05 18:00:00,18,1009.5,0.6,77,14,10000,14.816,,,260,15.8,22.1,,0,,,,,,80,wg-a,,,,AAXX 05184 07460 12660 /2608 10180 20140 39717 40095 53006 60007 78086 85930 91800 333 10221 20158=
07460,1996-07-05 21:00:00,15,1010.1,0.2,88,13,10000,11.112,,,190,,,,2,,,,,,80,wg-a,,,,AAXX 05214 07460 12560 71906 10150 20130 39719 40101 52002 60027 78086 878// 92100=
07460,1996-07-06 00:00:00,15,1009.5,-0.7,88,13,15000,14.816,,,190,,,,1,,,,,,3,wg-a,,,,AAXX 06004 07460 02565 71908 10150 20130 39712 40095 58007 60036 70386 8583/ 90000 333 60017=
07460,1996-07-06 03:00:00,13,1011,1.1,82,10,15000,3.704,,,350,,,,1,,,,,,,wg-a,,,,AAXX 06034 07460 12565 /3502 10130 20100 39724 40110 53011 60017 86800 90300=
07460,1996-07-06 06:00:00,13,1012.9,1.9,82,10,20000,11.112,,,320,12.3,17.9,,,,,14,,,3,wg-a,,,,AAXX 06064 07460 12570 73206 10130 20100 39743 40129 53019 60144 70386 8683/ 90600 333 10179 20123=
07460,1996-07-06 09:00:00,14,1014.1,1.2,72,9,500,14.816,,,320,,,,,,,,,,,wg-a,,,,AAXX 06094 07460 12500 73208 10140 20090 39755 40141 51012 60006 85831 90900=
07460,1996-07-06 12:00:00,18,1012.8,-0.7,49,7,500,14.816,,,280,,,,,,,,,,,wg-a,,,,AAXX 06124 07460 12500 52808 10180 20070 39747 40128 58007 60006 84202 91200=
07460,1996-07-06 15:00:00,20,1011.3,-1.3,40,6,40000,14.816,,,260,,,,,,,,,,,wg-a,,,,AAXX 06154 07460 12682 52608 10200 20060 39735 40113 56013 60006 83101 91500=
07460,1996-07-06 18:00:00,17,1011.2,-0.4,52,7,11000,11.112,,,330,12.8,20.3,,,,,,,,,wg-a,,,,AAXX 06184 07460 12/61 /3306 10170 20070 39731 40112 57004 60006 91800 333 10203 20128=
07460,1996-07-06 21:00:00,14,1011.6,-0,72,9,10000,3.704,,,100,,,,,,,,,,,wg-a,,,,AAXX 06214 07460 12/60 /1002 10140 20090 39731 40116 54000 60006 92100=
07460,1996-07-07 00:00:00,12,1010.1,-1.7,82,9,500,3.704,,,200,,,,,,,,,,,wg-a,,,,AAXX 07004 07460 12/00 72002 10120 20090 39713 40101 58017 60006 8707/ 90000=
07460,1996-07-07 03:00:00,11,1007.5,-2.6,87,9,500,3.704,,,200,,,,,,,,,,,wg-a,,,,AAXX 07034 07460 12/00 82002 10110 20090 39688 40075 58026 60006 8707/ 90300=
07460,1996-07-07 06:00:00,11,1005.6,-1.8,94,10,15000,3.704,,,350,11.1,17.1,,0,,,,,,60,wg-a,,,,AAXX 07064 07460 02665 83502 10110 20100 39670 40056 56018 60004 76062 8357/ 90600 333 10171 20111 60007=
07460,1996-07-07 09:00:00,11,1004,-1.6,94,10,6000,3.704,,,40,,,,8,,,,,,61,wg-a,,,,AAXX 07094 07460 12456 80402 10110 20100 39654 40040 58016 60087 76166 8357/ 90900=
07460,1996-07-07 12:00:00,12,1002.1,-1.5,94,11,7000,3.704,,,10,,,,9,,,,,,62,wg-a,,,,AAXX 07124 07460 02357 80102 10120 20110 39638 40021 57015 60186 76266 8357/ 91200 333 60097=
07460,1996-07-07 15:00:00,13,1002.1,-0,94,12,6000,11.112,,,360,,,,2,,,,,,60,wg-a,,,,AAXX 07154 07460 12256 83606 10130 20120 39638 40021 55000 60027 76062 8457/ 91500=
07460,1996-07-07 18:00:00,12,1003.5,1.2,94,11,6000,14.816,,,340,10.9,13,,2,,,,,,60,wg-a,,,,AAXX 07184 07460 12256 83408 10120 20110 39650 40035 53012 60027 76062 8457/ 91800 333 10130 20109=
07460,1996-07-07 21:00:00,11,1008,4.2,87,9,10000,14.816,,,330,,,,5,,,,,,60,wg-a,,,,AAXX 07214 07460 12460 83308 10110 20090 39692 40080 51042 60057 76066 8557/ 92100=
07460,1996-07-08 00:00:00,10,1010.4,2.3,93,9,10000,14.816,,,310,,,,3,,,,,,,wg-a,,,,AAXX 08004 07460 02560 83108 10100 20090 39715 40104 51023 60086 8557/ 90000 333 60037=
07460,1996-07-08 03:00:00,11,1012.3,1.9,87,9,10000,22.224,,,310,,,,0,,,,,,,wg-a,,,,AAXX 08034 07460 12460 83112 10110 20090 39734 40123 52019 60007 8557/ 90300=
07460,1996-07-08 06:00:00,12,1015.8,3.6,82,9,12000,11.112,,,330,10.2,12.1,,,,,30,,,3,wg-a,,,,AAXX 08064 07460 02562 73306 10120 20090 39769 40158 53036 60304 70362 83531 90600 333 10121 20102 61000=
07460,1996-07-08 09:00:00,14,1018.5,2.8,72,9,13000,29.632,,,320,,,,,,,,,,,wg-a,,,,AAXX 08094 07460 12563 53216 10140 20090 39798 40185 53028 60006 83131 90900=
07460,1996-07-08 12:00:00,18,1019.9,1.7,56,9,15000,25.928,,46.3,330,,,,,,,,,,,wg-a,,,,AAXX 08124 07460 12665 53314 10180 20090 39816 40199 51017 60006 85230 91200 333 91025=
07460,1996-07-08 15:00:00,18,1021,1,52,8,25000,14.816,,,300,,,,,,,,,,,wg-a,,,,AAXX 08154 07460 12675 43008 10180 20080 39827 40210 51010 60006 83830 91500=
07460,1996-07-08 18:00:00,16,1022.7,1.4,63,9,20000,18.52,,,320,11.7,18.5,,,,,,,,,wg-a,,,,AAXX 08184 07460 12670 /3210 10160 20090 39841 40227 51014 60006 85830 91800 333 10185 20117=
07460,1996-07-08 21:00:00,13,1025,1.7,88,11,15000,3.704,,,240,,,,0,,,,,,21,wg-a,,,,AAXX 08214 07460 12565 /2402 10130 20110 39858 40250 51017 60007 72186 85830 92100=
07460,1996-07-09 00:00:00,9,1026.4,0.8,93,8,20000,3.704,,,250,,,,,,,,,,1,wg-a,,,,AAXX 09004 07460 12670 /2502 10090 20080 39866 40264 51008 60006 70186 85500 90000=
07460,1996-07-09 03:00:00,8,1027.1,0.6,100,8,20000,0,,,0,,,,0,,,,,,25,wg-a,,,,AAXX 09034 07460 12670 20000 10080 20080 39872 40271 52006 60007 72586 82130 90300=
07460,1996-07-09 06:00:00,9,1027.7,0.9,100,9,18000,0,,,0,6.9,16.5,,,,,,,,28,wg-a,,,,AAXX 09064 07460 12568 30000 10090 20090 39880 40277 53009 60004 72886 81831 90600 333 10165 20069=
07460,1996-07-09 09:00:00,17,1027,0.2,63,10,20000,7.408,,,80,,,,,,,,,,,wg-a,,,,AAXX 09094 07460 12670 30804 10170 20100 39883 40270 50002 60006 83201 90900=
07460,1996-07-09 12:00:00,18,1026.4,-0.4,52,8,500,14.816,,,10,,,,,,,,,,,wg-a,,,,AAXX 09124 07460 12600 50108 10180 20080 39879 40264 58004 60006 84201 91200=
07460,1996-07-09 15:00:00,21,1025.4,-0.7,43,8,40000,18.52,,,330,,,,,,,,,,,wg-a,,,,AAXX 09154 07460 12682 33310 10210 20080 39873 40254 56007 60006 83231 91500=
07460,1996-07-09 18:00:00,19,1025.7,-0,49,8,35000,7.408,,,320,9.4,21.3,,,,,,,,,wg-a,,,,AAXX 09184 07460 12681 /3204 10190 20080 39873 40257 55000 60006 82141 91800 333 10213 20094=
07460,1996-07-09 21:00:00,15,1026.7,0.4,67,9,25000,3.704,,,310,,,,,,,,,,,wg-a,,,,AAXX 09214 07460 12675 33102 10150 20090 39877 40267 53004 60006 81140 92100=
07460,1996-07-10 00:00:00,14,1026.5,-0.2,77,10,15000,3.704,,,350,,,,,,,,,,,wg-a,,,,AAXX 10004 07460 12665 33502 10140 20100 39875 40265 56002 60006 83840 90000=
07460,1996-07-10 03:00:00,14,1026,-0.6,72,9,14000,0,,,0,,,,,,,,,,,wg-a,,,,AAXX 10034 07460 12564 /0000 10140 20090 39869 40260 56006 60006 86800 90300=
07460,1996-07-10 06:00:00,14,1026,0.1,82,11,20000,7.408,,,140,11.5,19.3,,,,,,,,,wg-a,,,,AAXX 10064 07460 02570 71404 10140 20110 39870 40260 51001 60006 878// 90600 333 10193 20115 60004=
07460,1996-07-10 09:00:00,18,1025.2,-0.3,64,11,20000,7.408,,,60,,,,,,,,,,,wg-a,,,,AAXX 10094 07460 12670 70604 10180 20110 39867 40252 58003 60006 878// 90900=
07460,1996-07-10 12:00:00,18,1024.4,-0.7,73,13,25000,14.816,,,70,,,,,,,,,,,wg-a,,,,AAXX 10124 07460 12675 70708 10180 20130 39860 40244 57007 60006 878// 91200=
07460,1996-07-10 15:00:00,20,1023.5,-0.5,68,14,25000,14.816,,,320,,,,,,,,,,1,wg-a,,,,AAXX 10154 07460 02575 73208 10200 20140 39854 40235 58005 61000 70186 878// 91500 333 ////=
07460,1996-07-10 18:00:00,19,1023.6,-0.1,68,13,500,18.52,,,350,14.5,20.7,,0,,,,,,1,wg-a,,,,AAXX 10184 07460 12500 53510 10190 20130 39853 40236 55001 60007 70186 84801 91800 333 10207 20145=
07460,1996-07-10 21:00:00,15,1025,0.9,82,12,15000,7.408,,,20,,,,,,,,,,,wg-a,,,,AAXX 10214 07460 12665 60204 10150 20120 39862 40250 51009 60006 84801 92100=
07460,1996-07-11 00:00:00,15,1024.7,-0.3,88,13,12000,3.704,,,140,,,,,,,,,,,wg-a,,,,AAXX 11004 07460 12562 71402 10150 20130 39859 40247 58003 60006 878// 90000=
07460,1996-07-11 03:00:00,12,1024.2,-0.9,94,11,12000,0,,,0,,,,,,,,,,,wg-a,,,,AAXX 11034 07460 12662 20000 10120 20110 39850 40242 56009 60006 82500 90300=
07460,1996-07-11 06:00:00,14,1024.2,0.2,94,13,15000,0,,,0,10.8,18.6,,,,,,,,,wg-a,,,,AAXX 11064 07460 02665 70000 10140 20130 39852 40242 52002 60006 878// 90600 333 10186 20108 61000=
07460,1996-07-11 09:00:00,18,1023.4,-0.3,73,13,15000,11.112,,,50,,,,,,,,,,,wg-a,,,,AAXX 11094 07460 12465 /0506 10180 20130 39850 40234 58003 60006 85230 90900=
07460,1996-07-11 12:00:00,21,1022.2,-0.8,49,10,20000,14.816,,,360,,,,,,,,,,,wg-a,,,,AAXX 11124 07460 12670 43608 10210 20100 39842 40222 58008 60006 84200 91200=
07460,1996-07-11 15:00:00,22,1021,-1,50,11,25000,11.112,,,20,,,,,,,,,,,wg-a,,,,AAXX 11154 07460 12675 30206 10220 20110 39832 40210 58010 60006 83200 91500=
07460,1996-07-11 18:00:00,21,1020.8,-0.4,53,11,25000,11.112,,,30,13.7,22.3,,,,,,,,,wg-a,,,,AAXX 11184 07460 12775 20306 10210 20110 39829 40208 55004 60006 82400 91800 333 10223 20137=
07460,1996-07-11 21:00:00,18,1021.9,0.6,73,13,20000,3.704,,,340,,,,,,,,,,,wg-a,,,,AAXX 11214 07460 12770 73402 10180 20130 39835 40219 53006 60006 875// 92100=
07460,1996-07-12 00:00:00,14,1021.6,-0.7,88,12,20000,0,,,0,,,,,,,,,,,wg-a,,,,AAXX 12004 07460 12770 20000 10140 20120 39828 40216 58007 60006 82500 90000=
07460,1996-07-12 03:00:00,12,1021.4,-0.6,94,11,15000,3.704,,,260,,,,,,,,,,,wg-a,,,,AAXX 12034 07460 12/65 02602 10120 20110 39822 40214 56006 60006 80000 90300=
07460,1996-07-12 06:00:00,14,1020.9,-0.1,94,13,10000,3.704,,,10,10.3,21.1,,,,,,,,,wg-a,,,,AAXX 12064 07460 02/60 20102 10140 20130 39821 40209 56001 60006 82031 90600 333 10211 20103 60004=
07460,1996-07-12 09:00:00,21,1020.3,0.3,60,13,15000,0,,,0,,,,,,,,,,,wg-a,,,,AAXX 12094 07460 12665 30000 10210 20130 39824 40203 51003 60006 81130 90900=
07460,1996-07-12 12:00:00,23,1019.1,-0.8,61,15,25000,11.112,,,50,,,,,,,,,,,wg-a,,,,AAXX 12124 07460 12675 50506 10230 20150 39816 40191 56008 60006 84260 91200=
07460,1996-07-12 15:00:00,25,1017.8,-1,54,15,500,7.408,,,80,,,,0,,,,,,,wg-a,,,,AAXX 12154 07460 12700 30804 10250 20150 39806 40178 57010 60007 83102 91500=
07460,1996-07-12 18:00:00,24,1018.2,0.2,47,12,500,14.816,,,360,14.3,25.6,,,,,,,,,wg-a,,,,AAXX 12184 07460 12700 33608 10240 20120 39808 40182 53002 60006 82802 91800 333 10256 20143=
07460,1996-07-12 21:00:00,20,1020.4,1.6,64,13,20000,0,,,0,,,,,,,,,,,wg-a,,,,AAXX 12214 07460 12770 60000 10200 20130 39824 40204 53016 60006 83532 92100=
07460,1996-07-13 00:00:00,17,1021,0.2,82,14,20000,3.704,,,110,,,,,,,,,,,wg-a,,,,AAXX 13004 07460 12770 21102 10170 20140 39826 40210 51002 60006 81530 90000=
07460,1996-07-13 03:00:00,14,1021.2,-0.1,88,12,15000,3.704,,,140,,,,,,,,,,,wg-a,,,,AAXX 13034 07460 12665 51402 10140 20120 39824 40212 55001 60006 84501 90300=
07460,1996-07-13 06:00:00,15,1022.1,0.9,94,14,500,0,,,0,12.6,24.1,,,,,,,,,wg-a,,,,AAXX 13064 07460 02600 20000 10150 20140 39834 40221 53009 60006 81131 90600 333 10241 20126 60004=
07460,1996-07-13 09:00:00,22,1022,0.7,60,14,20000,3.704,,,20,,,,,,,,,,,wg-a,,,,AAXX 13094 07460 12670 20202 10220 20140 39841 40220 51007 60006 82230 90900=
07460,1996-07-13 12:00:00,25,1021.2,-0.3,54,15,20000,7.408,,,50,,,,,,,,,,,wg-a,,,,AAXX 13124 07460 12670 30504 10250 20150 39838 40212 58003 60006 82230 91200=
07460,1996-07-13 15:00:00,25,1020.7,-0.3,50,14,25000,3.704,,,30,,,,,,,,,,,wg-a,,,,AAXX 13154 07460 12675 30302 10250 20140 39834 40207 58003 60006 83230 91500=
07460,1996-07-13 18:00:00,25,1021.5,0.7,57,16,25000,11.112,,,30,15,26.1,,,,,,,,,wg-a,,,,AAXX 13184 07460 12775 20306 10250 20160 39841 40215 53007 60006 82101 91800 333 10261 20150=
07460,1996-07-13 21:00:00,21,1023.7,1.6,69,15,25000,0,,,0,,,,,,,,,,,wg-a,,,,AAXX 13214 07460 12/75 20000 10210 20150 39857 40237 53016 60006 81031 92100=
07460,1996-07-14 00:00:00,16,1025,0.6,82,13,20000,3.704,,,120,,,,,,,,,,,wg-a,,,,AAXX 14004 07460 12/70 11202 10160 20130 39863 40250 50006 60006 80001 90000=
07460,1996-07-14 03:00:00,14,1025.4,0.2,94,13,20000,3.704,,,360,,,,,,,,,,,wg-a,,,,AAXX 14034 07460 12/70 13602 10140 20130 39865 40254 51002 60006 80001 90300=
07460,1996-07-14 06:00:00,16,1026.1,0.9,88,14,25000,3.704,,,350,13.7,24.5,,,,,,,,,wg-a,,,,AAXX 14064 07460 02/75 13502 10160 20140 39874 40261 51009 60006 80001 90600 333 10245 20137 60004=
07460,1996-07-14 09:00:00,23,1025.2,0.1,65,16,25000,3.704,,,90,,,,,,,,,,,wg-a,,,,AAXX 14094 07460 12675 /0902 10230 20160 39875 40252 50001 60006 81201 90900=
07460,1996-07-14 12:00:00,27,1024.1,-0.6,54,17,25000,7.408,,,40,,,,,,,,,,,wg-a,,,,AAXX 14124 07460 12675 /0404 10270 20170 39869 40241 57006 60006 81201 91200=
07460,1996-07-14 15:00:00,28,1022.9,-1.1,48,16,500,7.408,,,10,,,,,,,,,,,wg-a,,,,AAXX 14154 07460 12600 30104 10280 20160 39858 40229 56011 60006 83201 91500=
07460,1996-07-14 18:00:00,27,1022.4,-0.6,51,16,25000,11.112,,,10,16.1,28.1,,,,,,,,,wg-a,,,,AAXX 14184 07460 12775 50106 10270 20160 39852 40224 55006 60006 814/1 91800 333 10281 20161=
07460,1996-07-14 21:00:00,23,1023.6,0.7,65,16,25000,3.704,,,100,,,,,,,,,,,wg-a,,,,AAXX 14214 07460 12/75 51002 10230 20160 39859 40236 52007 60006 81041 92100=
07460,1996-07-15 00:00:00,17,1024.2,-0.2,88,15,20000,0,,,0,,,,,,,,,,,wg-a,,,,AAXX 15004 07460 12/70 20000 10170 20150 39857 40242 58002 60006 80001 90000=
07460,1996-07-15 03:00:00,14,1024.1,-0.5,94,13,20000,3.704,,,240,,,,,,,,,,,wg-a,,,,AAXX 15034 07460 12/70 22402 10140 20130 39852 40241 56005 60006 80001 90300=
07460,1996-07-15 06:00:00,17,1023.9,0.2,88,15,500,0,,,0,13.6,26.6,,,,,,,,,wg-a,,,,AAXX 15064 07460 02/00 10000 10170 20150 39854 40239 53002 60006 80001 90600 333 10266 20136 60004=
07460,1996-07-15 09:00:00,23,1023.1,0,65,16,500,3.704,,,20,,,,,,,,,,,wg-a,,,,AAXX 15094 07460 12600 /0202 10230 20160 39854 40231 50000 60006 81101 90900=
07460,1996-07-15 12:00:00,27,1021.5,-1.1,51,16,500,11.112,,,50,,,,,,,,,,,wg-a,,,,AAXX 15124 07460 12600 /0506 10270 20160 39843 40215 57011 60006 81101 91200=
07460,1996-07-15 15:00:00,28,1020.5,-0.8,48,16,500,14.816,,,10,,,,,,,,,,,wg-a,,,,AAXX 15154 07460 12600 20108 10280 20160 39835 40205 56008 60006 82100 91500=
07460,1996-07-15 18:00:00,26,1020.1,-0.6,54,16,35000,11.112,,,20,17.2,28.2,,,,,,,,,wg-a,,,,AAXX 15184 07460 12681 /0206 10260 20160 39829 40201 57006 60006 81101 91800 333 10282 20172=
07460,1996-07-15 21:00:00,22,1021.7,1.1,69,16,20000,0,,,0,,,,,,,,,,,wg-a,,,,AAXX 15214 07460 12/70 10000 10220 20160 39840 40217 51011 60006 80001 92100=
07460,1996-07-16 00:00:00,20,1022.3,0.2,83,17,20000,7.408,,,320,,,,,,,,,,,wg-a,,,,AAXX 16004 07460 12/70 13204 10200 20170 39843 40223 50002 60006 80001 90000=
07460,1996-07-16 03:00:00,18,1021.9,-0.6,88,16,15000,0,,,0,,,,,,,,,,,wg-a,,,,AAXX 16034 07460 12/65 10000 10180 20160 39837 40219 56006 60006 80001 90300=
07460,1996-07-16 06:00:00,18,1022.3,0.3,88,16,7000,3.704,,,60,17.4,26.4,,,,,,,,,wg-a,,,,AAXX 16064 07460 02457 70602 10180 20160 39840 40223 51003 60006 875// 90600 333 10264 20174 60004=
07460,1996-07-16 09:00:00,21,1022.2,0.3,78,17,8000,3.704,,,10,,,,,,,,,,,wg-a,,,,AAXX 16094 07460 12458 /0102 10210 20170 39843 40222 50003 60006 85100 90900=
07460,1996-07-16 12:00:00,26,1020.6,-0.9,65,19,10000,7.408,,,60,,,,,,,,,,,wg-a,,,,AAXX 16124 07460 12560 20604 10260 20190 39834 40206 58009 60006 82200 91200=
07460,1996-07-16 15:00:00,27,1019.4,-1.1,58,18,15000,18.52,,,20,,,,,,,,,,,wg-a,,,,AAXX 16154 07460 12665 20210 10270 20180 39823 40194 58011 60006 82200 91500=
07460,1996-07-16 18:00:00,26,1018.7,-0.8,61,18,15000,11.112,,,360,17.9,27.4,,,,,,,,,wg-a,,,,AAXX 16184 07460 12665 23606 10260 20180 39815 40187 56008 60006 82800 91800 333 10274 20179=
07460,1996-07-16 21:00:00,22,1020.3,1.1,73,17,12000,11.112,,,340,,,,,,,,,,,wg-a,,,,AAXX 16214 07460 12762 23406 10220 20170 39826 40203 53011 60006 82500 92100=
07460,1996-07-17 00:00:00,19,1020.4,-0.2,83,16,12000,3.704,,,330,,,,,,,,,,,wg-a,,,,AAXX 17004 07460 12762 23302 10190 20160 39824 40204 58002 60006 82500 90000=
07460,1996-07-17 03:00:00,17,1020.3,-0.5,82,14,10000,3.704,,,340,,,,,,,,,,,wg-a,,,,AAXX 17034 07460 12660 23402 10170 20140 39819 40203 56005 60006 82500 90300=
07460,1996-07-17 06:00:00,17,1020.4,0.1,77,13,25000,7.408,,,20,16,25.5,,,,,,,,,wg-a,,,,AAXX 17064 07460 02/75 50204 10170 20130 39820 40204 53001 60006 80001 90600 333 10255 20160 60004=
07460,1996-07-17 09:00:00,20,1019.9,-0,73,15,500,7.408,,,360,,,,,,,,,,,wg-a,,,,AAXX 17094 07460 12600 23604 10200 20150 39820 40199 55000 60006 81101 90900=
07460,1996-07-17 10:00:00,25,1017.3,-0.4,47,13,500,18.52,,,30,16.8,26,,,,,,,,,wg-a,,,,AAXX 17104 07460 12600 /0310 10250 20130 39800 40173 55004 60006 8/200 91000 333 10260 20168=
07460,1996-07-17 12:00:00,24,1018.8,-0.6,57,15,500,11.112,,,20,,,,,,,,,,,wg-a,,,,AAXX 17124 07460 12600 20206 10240 20150 39814 40188 57006 60006 82101 91200=
07460,1996-07-17 15:00:00,26,1017.6,-1,45,13,500,14.816,,,10,,,,,,,,,,,wg-a,,,,AAXX 17154 07460 12600 /0108 10260 20130 39804 40176 56010 60006 81200 91500=
07460,1996-07-17 18:00:00,25,1017.3,-0.4,47,13,500,18.52,,,30,16.8,26,,,,,,,,,wg-a,,,,AAXX 17184 07460 12600 /0310 10250 20130 39800 40173 55004 60006 81200 91800 333 10260 20168=
07460,1996-07-17 21:00:00,20,1019.2,1.3,64,13,500,7.408,,,330,,,,,,,,,,,wg-a,,,,AAXX 17214 07460 12/00 13304 10200 20130 39812 40192 52013 60006 80001 92100=
07460,1996-07-18 00:00:00,13,1020.6,0.4,82,10,20000,0,,,0,,,,,,,,,,,wg-a,,,,AAXX 18004 07460 12/70 10000 10130 20100 39816 40206 53004 60006 80001 90000=
07460,1996-07-18 03:00:00,11,1020.8,-0.1,87,9,20000,0,,,0,,,,,,,,,,,wg-a,,,,AAXX 18034 07460 12/70 10000 10110 20090 39815 40208 55001 60006 80001 90300=
07460,1996-07-18 06:00:00,13,1020.9,0.3,88,11,25000,0,,,0,9.8,24.5,,,,,,,,,wg-a,,,,AAXX 18064 07460 02/75 00000 10130 20110 39819 40209 52003 60006 80000 90600 333 10245 20098 60004=
07460,1996-07-18 09:00:00,20,1020.3,0.4,60,12,500,3.704,,,340,,,,,,,,,,,wg-a,,,,AAXX 18094 07460 12/00 03402 10200 20120 39823 40203 53004 60006 80000 90900=
07460,1996-07-18 12:00:00,25,1019.3,-0.4,39,10,500,11.112,,,340,,,,,,,,,,,wg-a,,,,AAXX 18124 07460 12600 /3406 10250 20100 39819 40193 58004 60006 81100 91200=
07460,1996-07-18 15:00:00,27,1018.7,-0.4,34,10,35000,11.112,,,20,,,,,,,,,,,wg-a,,,,AAXX 18154 07460 12681 /0206 10270 20100 39815 40187 57004 60006 81201 91500=
07460,1996-07-18 18:00:00,25,1018.8,-0,41,11,40000,14.816,,,30,13.1,26.6,,,,,,,,,wg-a,,,,AAXX 18184 07460 12/82 20308 10250 20110 39815 40188 55000 60006 80001 91800 333 10266 20131=
07460,1996-07-18 21:00:00,17,1020.9,1,68,11,40000,3.704,,,210,,,,,,,,,,,wg-a,,,,AAXX 18214 07460 12/82 02102 10170 20110 39825 40209 52010 60006 80000 92100=
07460,1996-07-19 00:00:00,14,1022,0.6,72,9,500,3.704,,,330,,,,,,,,,,,wg-a,,,,AAXX 19004 07460 12/00 03302 10140 20090 39831 40220 51006 60006 80000 90000=
07460,1996-07-19 03:00:00,11,1022.4,-0,82,8,500,0,,,0,,,,,,,,,,,wg-a,,,,AAXX 19034 07460 12/00 00000 10110 20080 39831 40224 54000 60006 80000 90300=
07460,1996-07-19 06:00:00,13,1022.5,0.4,82,10,500,0,,,0,9.5,25.3,,,,,,,,,wg-a,,,,AAXX 19064 07460 02/00 10000 10130 20100 39835 40225 53004 60006 80002 90600 333 10253 20095 60004=
07460,1996-07-19 09:00:00,21,1021.5,0,49,10,500,7.408,,,10,,,,,,,,,,,wg-a,,,,AAXX 19094 07460 12/00 20104 10210 20100 39835 40215 50000 60006 80002 90900=
07460,1996-07-19 12:00:00,24,1020.7,-0.4,38,9,40000,14.816,,,10,,,,,,,,,,,wg-a,,,,AAXX 19124 07460 12/82 30108 10240 20090 39831 40207 57004 60006 80002 91200=
07460,1996-07-19 15:00:00,25,1019.8,-0.7,34,8,35000,14.816,,,20,,,,,,,,,,,wg-a,,,,AAXX 19154 07460 12/81 40208 10250 20080 39824 40198 57007 60006 80002 91500=
07460,1996-07-19 18:00:00,24,1019.8,-0.1,36,8,35000,11.112,,,30,12.9,25.8,,,,,,,,,wg-a,,,,AAXX 19184 07460 12/81 30306 10240 20080 39823 40198 58001 60006 80002 91800 333 10258 20129=
07460,1996-07-19 21:00:00,17,1021.3,0.5,63,10,500,7.408,,,230,,,,,,,,,,,wg-a,,,,AAXX 19214 07460 12/00 32304 10170 20100 39828 40213 53005 60006 80002 92100=
07460,1996-07-20 00:00:00,14,1021.9,0.2,72,9,500,3.704,,,250,,,,,,,,,,,wg-a,,,,AAXX 20004 07460 12/00 02502 10140 20090 39830 40219 53002 60006 80000 90000=
07460,1996-07-20 03:00:00,11,1021.8,-0.5,82,8,500,3.704,,,70,,,,,,,,,,,wg-a,,,,AAXX 20034 07460 12/00 10702 10110 20080 39825 40218 56005 60006 80001 90300=
07460,1996-07-20 06:00:00,12,1022.4,0.7,88,10,500,0,,,0,9.9,24.4,,,,,,,,,wg-a,,,,AAXX 20064 07460 02/00 70000 10120 20100 39832 40224 53007 60006 80002 90600 333 10244 20099 60004=
07460,1996-07-20 12:00:00,24,1020.4,-0.6,36,8,50000,7.408,,,350,,,,,,,,,,,wg-a,,,,AAXX 20124 07460 12/84 13504 10240 20080 39828 40204 58006 60006 80002 91200=
07460,1996-07-20 15:00:00,26,1020,-0.3,34,9,50000,14.816,,,360,,,,,,,,,,,wg-a,,,,AAXX 20154 07460 12884 13608 10260 20090 39826 40200 57003 60006 81101 91500=
07460,1996-07-20 18:00:00,24,1020,0.1,41,10,50000,14.816,,,40,11.6,25.7,,,,,,,,,wg-a,,,,AAXX 20184 07460 12/84 10408 10240 20100 39825 40200 53001 60006 80001 91800 333 10257 20116=
07460,1996-07-20 21:00:00,17,1021.9,0.8,68,11,500,7.408,,,240,,,,,,,,,,,wg-a,,,,AAXX 20214 07460 12/00 12404 10170 20110 39834 40219 51008 60006 80001 92100=
07460,1996-07-21 00:00:00,13,1022.8,0.3,77,9,500,0,,,0,,,,,,,,,,,wg-a,,,,AAXX 21004 07460 12/00 30000 10130 20090 39837 40228 53003 60006 80003 90000=
07460,1996-07-21 03:00:00,10,1022.9,-0.3,87,8,500,0,,,0,,,,,,,,,,,wg-a,,,,AAXX 21034 07460 12/00 20000 10100 20080 39834 40229 57003 60006 80002 90300=
07460,1996-07-21 06:00:00,13,1023,0.6,82,10,500,3.704,,,340,9.3,24,,,,,,,,,wg-a,,,,AAXX 21064 07460 02/00 03402 10130 20100 39840 40230 53006 60006 80000 90600 333 10240 20093 60004=
07460,1996-07-21 09:00:00,21,1021.8,-0.2,53,11,40000,0,,,0,,,,,,,,,,,wg-a,,,,AAXX 21094 07460 12/82 10000 10210 20110 39838 40218 58002 60006 80001 90900=
07460,1996-07-21 12:00:00,25,1020.5,-0.8,34,8,40000,7.408,,,20,,,,,,,,,,,wg-a,,,,AAXX 21124 07460 12/82 20204 10250 20080 39830 40205 58008 60006 80002 91200=
07460,1996-07-21 15:00:00,27,1019.2,-1,30,8,40000,11.112,,,10,,,,,,,,,,,wg-a,,,,AAXX 21154 07460 12/82 40106 10270 20080 39820 40192 56010 60006 80002 91500=
07460,1996-07-21 18:00:00,25,1018.8,-0.6,36,9,40000,11.112,,,10,13.3,26.8,,,,,,,,,wg-a,,,,AAXX 21184 07460 12/82 20106 10250 20090 39814 40188 55006 60006 80002 91800 333 10268 20133=
07460,1996-07-21 21:00:00,19,1020,0.4,52,9,500,3.704,,,310,,,,,,,,,,,wg-a,,,,AAXX 21214 07460 12/00 13102 10190 20090 39818 40200 52004 60006 80002 92100=
07460,1996-07-22 00:00:00,13,1020.6,-0.1,77,9,500,0,,,0,,,,,,,,,,,wg-a,,,,AAXX 22004 07460 12/00 10000 10130 20090 39817 40206 57001 60006 80002 90000=
07460,1996-07-22 03:00:00,14,1020,-0.5,72,9,500,0,,,0,,,,,,,,,,,wg-a,,,,AAXX 22034 07460 12/00 10000 10140 20090 39812 40200 58005 60006 80001 90300=
07460,1996-07-22 06:00:00,16,1019.8,0,63,9,500,22.224,,,180,11.5,24.9,,,,,,,,,wg-a,,,,AAXX 22064 07460 02/00 01812 10160 20090 39812 40198 50000 60006 80000 90600 333 10249 20115 60004=
07460,1996-07-22 09:00:00,23,1017.8,-0.9,53,13,500,11.112,,,190,,,,,,,,,,,wg-a,,,,AAXX 22094 07460 12/00 01906 10230 20130 39803 40178 58009 60006 80000 90900=
07460,1996-07-22 12:00:00,31,1014.7,-2.1,29,11,35000,14.816,,,140,,,,,,,,,,,wg-a,,,,AAXX 22124 07460 12681 /1408 10310 20110 39782 40147 58021 60006 81100 91200=
07460,1996-07-22 15:00:00,33,1012.6,-1.7,30,13,35000,22.224,,,150,,,,,,,,,,,wg-a,,,,AAXX 22154 07460 12681 /1512 10330 20130 39765 40126 58017 60006 81100 91500=
07460,1996-07-22 18:00:00,30,1012.8,-0.2,38,14,500,25.928,,,170,15.4,33.1,,,,,,,,,wg-a,,,,AAXX 22184 07460 12/00 01714 10300 20140 39763 40128 55002 60006 80000 91800 333 10331 20154=
07460,1996-07-22 21:00:00,24,1015.6,1.9,50,13,20000,22.224,,,180,,,,,,,,,,,wg-a,,,,AAXX 22214 07460 12/70 01812 10240 20130 39783 40156 53019 60006 80000 92100=
07460,1996-07-23 00:00:00,20,1016.6,0.5,53,10,20000,3.704,,,280,,,,,,,,,,,wg-a,,,,AAXX 23004 07460 12/70 02802 10200 20100 39787 40166 50005 60006 80000 90000=
07460,1996-07-23 03:00:00,19,1015.8,-0.8,56,10,20000,18.52,,,200,,,,,,,,,,,wg-a,,,,AAXX 23034 07460 12/70 12010 10190 20100 39779 40158 56008 60006 80001 90300=
07460,1996-07-23 06:00:00,20,1015.7,-0.1,53,10,500,11.112,,,190,18.9,30.1,,,,,,,,,wg-a,,,,AAXX 23064 07460 02/00 11906 10200 20100 39778 40157 55001 60006 81080 90600 333 10301 20189 60004=
07460,1996-07-23 09:00:00,25,1014.2,-0.6,47,13,500,22.224,,,170,,,,,,,,,,25,wg-a,,,,AAXX 23094 07460 02600 /1712 10250 20130 39771 40142 58006 61000 72586 81280 90900 333 ////=
07460,1996-07-23 12:00:00,26,1016,1.7,54,16,20000,7.408,,,210,,,,,,,,,,29,wg-a,,,,AAXX 23124 07460 02670 72104 10260 20160 39789 40160 53017 61000 72998 8498/ 91200 333 ////=
07460,1996-07-23 15:00:00,30,1011.4,-3.8,46,17,20000,22.224,,,180,,,,,,,,,,2,wg-a,,,,AAXX 23154 07460 12670 71812 10300 20170 39751 40114 56038 60006 70292 8293/ 91500=
07460,1996-07-23 18:00:00,28,1013,1.3,55,18,20000,14.816,,,250,19.8,32.1,,,,,,,,1,wg-a,,,,AAXX 23184 07460 32770 52508 10280 20180 39764 40130 51013 70192 81232 91800 333 10321 20198=
07460,1996-07-23 21:00:00,23,1015,1.3,78,19,12000,3.704,,,80,,,,,,,,,,,wg-a,,,,AAXX 23214 07460 12662 60802 10230 20190 39777 40150 50013 60006 83232 92100=
07460,1996-07-24 00:00:00,21,1014.7,-1.2,83,18,12000,7.408,,,220,,,,1,,,,,,17,wg-a,,,,AAXX 24004 07460 02662 72204 10210 20180 39771 40147 58012 60016 71798 8697/ 90000 333 60017=
07460,1996-07-24 03:00:00,19,1015.4,1.1,94,18,10000,3.704,,,360,,,,2,,,,,,21,wg-a,,,,AAXX 24034 07460 12660 73602 10190 20180 39776 40154 53011 60027 72198 8527/ 90300=
07460,1996-07-24 06:00:00,19,1016.7,1.2,78,15,10000,7.408,,,50,18.3,28.2,,,,,3,,,29,wg-a,,,,AAXX 24064 07460 12460 70504 10190 20150 39787 40167 51012 60034 72998 86832 90600 333 10282 20183=
07460,1996-07-24 09:00:00,19,1016.9,0.2,83,16,10000,3.704,,,40,,,,0,,,,,,25,wg-a,,,,AAXX 24094 07460 12560 70402 10190 20160 39790 40169 51002 60007 72586 85832 90900=
07460,1996-07-24 12:00:00,21,1016.8,0.1,73,16,12000,3.704,,,100,,,,,,,,,,1,wg-a,,,,AAXX 24124 07460 12562 71002 10210 20160 39791 40168 51001 60016 70186 85832 91200=
07460,1996-07-24 15:00:00,25,1015.4,-0.8,57,16,15000,7.408,,,100,,,,,,,,,,,wg-a,,,,AAXX 24154 07460 12765 31004 10250 20160 39783 40154 57008 60006 81502 91500=
07460,1996-07-24 18:00:00,25,1015.5,-0,50,14,25000,11.112,,,60,18.6,26.2,,0,,,,,,,wg-a,,,,AAXX 24184 07460 12675 20606 10250 20140 39783 40155 55000 60007 82802 91800 333 10262 20186=
07460,1996-07-24 21:00:00,21,1018.1,2,60,13,20000,3.704,,,330,,,,,,,,,,,wg-a,,,,AAXX 24214 07460 12770 /3302 10210 20130 39803 40181 51020 60006 85541 92100=
07460,1996-07-25 00:00:00,17,1019.4,0.7,77,13,20000,3.704,,,160,,,,,,,,,,,wg-a,,,,AAXX 25004 07460 12770 /1602 10170 20130 39810 40194 51007 60006 85501 90000=
07460,1996-07-25 03:00:00,14,1019.8,-0,82,11,20000,3.704,,,270,,,,,,,,,,,wg-a,,,,AAXX 25034 07460 12770 32702 10140 20110 39810 40198 54000 60006 82501 90300=
07460,1996-07-25 06:00:00,15,1020.6,0.9,82,12,20000,0,,,0,12.9,25,,,,,,,,,wg-a,,,,AAXX 25064 07460 02/70 60000 10150 20120 39819 40206 53009 60006 81032 90600 333 10250 20129 60004=
07460,1996-07-25 09:00:00,21,1019.8,-0.1,60,13,11000,3.704,,,20,,,,,,,,,,,wg-a,,,,AAXX 25094 07460 12/61 /0202 10210 20130 39819 40198 58001 60006 90900=
07460,1996-07-25 12:00:00,24,1018.9,-0.3,50,13,500,3.704,,,40,,,,,,,,,,,wg-a,,,,AAXX 25124 07460 12700 30402 10240 20130 39815 40189 58003 60006 82102 91200=
07460,1996-07-25 15:00:00,26,1017.3,-1.4,42,12,500,14.816,,,360,,,,,,,,,,,wg-a,,,,AAXX 25154 07460 12700 /3608 10260 20120 39801 40173 58014 60006 81102 91500=
07460,1996-07-25 18:00:00,24,1016.4,-1.1,44,11,500,14.816,,,30,14.5,26.3,,,,,,,,,wg-a,,,,AAXX 25184 07460 12700 30308 10240 20110 39790 40164 56011 60006 81132 91800 333 10263 20145=
07460,1996-07-25 21:00:00,20,1018,1,56,11,20000,3.704,,,360,,,,,,,,,,,wg-a,,,,AAXX 25214 07460 12/70 63602 10200 20110 39800 40180 52010 60006 82032 92100=
07460,1996-07-26 00:00:00,17,1018.9,0.5,72,12,20000,0,,,0,,,,,,,,,,,wg-a,,,,AAXX 26004 07460 12/70 70000 10170 20120 39805 40189 50005 60006 85031 90000=
07460,1996-07-26 03:00:00,16,1017.7,-1.2,72,11,20000,7.408,,,340,,,,,,,,,,,wg-a,,,,AAXX 26034 07460 12/70 23404 10160 20110 39793 40177 56012 60006 81031 90300=
07460,1996-07-26 06:00:00,17,1017.8,0.1,68,11,20000,3.704,,,310,14.8,23.8,,,,,,,,,wg-a,,,,AAXX 26064 07460 02/70 33102 10170 20110 39794 40178 50001 60006 82031 90600 333 10238 20148 60004=
07460,1996-07-26 09:00:00,21,1017.3,0,56,12,18000,3.704,,,20,,,,,,,,,,,wg-a,,,,AAXX 26094 07460 12/68 60202 10210 20120 39795 40173 50000 60006 83034 90900=
07460,1996-07-26 12:00:00,25,1015.7,-1,44,12,25000,7.408,,,70,,,,,,,,,,,wg-a,,,,AAXX 26124 07460 12/75 50704 10250 20120 39785 40157 58010 60006 82031 91200=
07460,1996-07-26 15:00:00,28,1014.5,-0.8,42,14,25000,11.112,,,30,,,,,,,,,,,wg-a,,,,AAXX 26154 07460 12675 40306 10280 20140 39777 40145 56008 60006 81232 91500=
07460,1996-07-26 18:00:00,26,1014.1,-0.5,39,11,20000,14.816,,,10,16.5,27.9,,,,,,,,,wg-a,,,,AAXX 26184 07460 12770 /0108 10260 20110 39771 40141 58005 60006 82882 91800 333 10279 20165=
07460,1996-07-26 21:00:00,23,1015.7,1.2,53,13,20000,7.408,,,340,,,,,,,,,,,wg-a,,,,AAXX 26214 07460 12770 73404 10230 20130 39782 40157 53012 60006 83582 92100=
07460,1996-07-27 00:00:00,18,1016.3,-0.2,73,13,20000,3.704,,,330,,,,,,,,,,,wg-a,,,,AAXX 27004 07460 12770 73302 10180 20130 39782 40163 57002 60006 82582 90000=
07460,1996-07-27 03:00:00,16,1016,-0.5,82,13,20000,3.704,,,150,,,,,,,,,,,wg-a,,,,AAXX 27034 07460 12770 71502 10160 20130 39777 40160 58005 60006 82582 90300=
07460,1996-07-27 06:00:00,17,1016.6,0.6,82,14,25000,3.704,,,340,15.1,26.2,,,,,,,,,wg-a,,,,AAXX 27064 07460 02775 33402 10170 20140 39783 40166 51006 60006 81882 90600 333 10262 20151 60004=
07460,1996-07-27 09:00:00,23,1016.4,0.5,57,14,25000,3.704,,,280,,,,,,,,,,,wg-a,,,,AAXX 27094 07460 12775 /2802 10230 20140 39789 40164 50005 60006 81131 90900=
07460,1996-07-27 12:00:00,27,1014.9,-0.8,51,16,25000,11.112,,,350,,,,,,,,,,,wg-a,,,,AAXX 27124 07460 12775 43506 10270 20160 39781 40149 58008 60006 82231 91200=
07460,1996-07-27 15:00:00,26,1014.6,-0.4,54,16,15000,14.816,,,150,,,,,,,,,,17,wg-a,,,,AAXX 27154 07460 12665 71508 10260 20160 39776 40146 55004 60006 71791 84981 91500=
07460,1996-07-27 18:00:00,20,1017,1.5,94,19,10000,18.52,,,190,16.7,28.4,,4,,,,,,80,wg-a,,,,AAXX 27184 07460 12460 81910 10200 20190 39792 40170 53015 60047 78098 8398/ 91800 333 10284 20167=
07460,1996-07-27 21:00:00,19,1017.7,0.5,94,18,15000,11.112,,,130,,,,3,,,,,,25,wg-a,,,,AAXX 27214 07460 12665 71306 10190 20180 39797 40177 51005 60037 72598 8358/ 92100=
07460,1996-07-28 00:00:00,18,1017.3,-0.5,88,16,15000,11.112,,,210,,,,,,,,,,1,wg-a,,,,AAXX 28004 07460 12665 /2106 10180 20160 39792 40173 56005 60036 70198 82563 90000=
07460,1996-07-28 03:00:00,18,1017,-0.3,88,16,15000,3.704,,,180,,,,,,,,,,,wg-a,,,,AAXX 28034 07460 12765 71802 10180 20160 39789 40170 56003 60006 8356/ 90300=
07460,1996-07-28 06:00:00,18,1017.8,0.8,88,16,15000,3.704,,,90,16.9,19.8,,,,,8,,,,wg-a,,,,AAXX 28064 07460 12765 /0902 10180 20160 39796 40178 52008 60084 85530 90600 333 10198 20169=
07460,1996-07-28 09:00:00,22,1018,0.8,69,16,15000,3.704,,,70,,,,,,,,,,,wg-a,,,,AAXX 28094 07460 12765 50702 10220 20160 39804 40180 52008 60006 84530 90900=
07460,1996-07-28 12:00:00,25,1017.4,-0.2,57,16,15000,7.408,,,70,,,,,,,,,,,wg-a,,,,AAXX 28124 07460 12665 50704 10250 20160 39802 40174 58002 60006 84230 91200=
07460,1996-07-28 15:00:00,26,1016.8,-0.5,45,13,20000,11.112,,,280,,,,,,,,,,,wg-a,,,,AAXX 28154 07460 12670 42806 10260 20130 39797 40168 58005 60006 83230 91500=
07460,1996-07-28 18:00:00,26,1016.5,-0.3,45,13,500,11.112,,,310,17.5,27.5,,,,,,,,,wg-a,,,,AAXX 28184 07460 12600 23106 10260 20130 39794 40165 55003 60006 82100 91800 333 10275 20175=
07460,1996-07-28 21:00:00,21,1018.5,1.3,64,14,20000,3.704,,,220,,,,,,,,,,,wg-a,,,,AAXX 28214 07460 12770 22202 10210 20140 39807 40185 52013 60006 82500 92100=
07460,1996-07-29 00:00:00,17,1019,-0.1,82,14,20000,3.704,,,150,,,,,,,,,,,wg-a,,,,AAXX 29004 07460 12770 /1502 10170 20140 39806 40190 58001 60006 81500 90000=
07460,1996-07-29 03:00:00,16,1018.1,-1,82,13,20000,0,,,0,,,,,,,,,,,wg-a,,,,AAXX 29034 07460 12/70 10000 10160 20130 39796 40181 56010 60006 80001 90300=
07460,1996-07-29 06:00:00,17,1018.2,0.3,82,14,500,3.704,,,270,14.6,26.2,,,,,,,,,wg-a,,,,AAXX 29064 07460 02/00 12702 10170 20140 39799 40182 53003 60006 80001 90600 333 10262 20146 60004=
07460,1996-07-29 09:00:00,24,1017.1,-0.2,57,15,40000,7.408,,,150,,,,,,,,,,,wg-a,,,,AAXX 29094 07460 12682 /1504 10240 20150 39797 40171 58002 60006 81101 90900=
07460,1996-07-29 12:00:00,28,1014.9,-1.6,45,15,40000,3.704,,,50,,,,,,,,,,,wg-a,,,,AAXX 29124 07460 12682 40502 10280 20150 39781 40149 56016 60006 82101 91200=
07460,1996-07-29 15:00:00,29,1013.2,-1.5,33,11,40000,14.816,,,260,,,,,,,,,,,wg-a,,,,AAXX 29154 07460 12782 42608 10290 20110 39766 40132 56015 60006 82202 91500=
07460,1996-07-29 18:00:00,27,1013,-0.5,45,14,40000,18.52,,,270,17.1,29.7,,,,,,,,,wg-a,,,,AAXX 29184 07460 12682 /2710 10270 20140 39761 40130 55005 60006 82235 91800 333 10297 20171=
07460,1996-07-29 21:00:00,23,1016,2.4,57,14,500,7.408,,,350,,,,,,,,,,,wg-a,,,,AAXX 29214 07460 12600 /3504 10230 20140 39785 40160 53024 60006 84335 92100=
07460,1996-07-30 00:00:00,20,1016.9,0.4,68,14,25000,7.408,,,330,,,,,,,,,,,wg-a,,,,AAXX 30004 07460 12675 63304 10200 20140 39790 40169 53004 60006 84235 90000=
07460,1996-07-30 03:00:00,18,1017.6,0.4,77,14,25000,3.704,,,320,,,,,,,,,,,wg-a,,,,AAXX 30034 07460 12675 43202 10180 20140 39794 40176 51004 60006 83202 90300=
07460,1996-07-30 06:00:00,18,1018.4,0.8,73,13,20000,3.704,,,280,16.9,26.6,,,,,,,,,wg-a,,,,AAXX 30064 07460 02670 52802 10180 20130 39802 40184 53008 60006 85100 90600 333 10266 20169 60004=
07460,1996-07-30 09:00:00,21,1017.9,-0.1,53,11,40000,14.816,,,320,,,,,,,,,,,wg-a,,,,AAXX 30094 07460 12682 23208 10210 20110 39801 40179 55001 60006 82100 90900=
07460,1996-07-30 12:00:00,23,1018.2,0.5,47,11,40000,14.816,,,290,,,,,,,,,,,wg-a,,,,AAXX 30124 07460 12682 32908 10230 20110 39806 40182 53005 60006 83100 91200=
07460,1996-07-30 15:00:00,24,1018,-0.1,44,11,40000,14.816,,,360,,,,,,,,,,,wg-a,,,,AAXX 30154 07460 12682 /3608 10240 20110 39805 40180 55001 60006 85800 91500=
07460,1996-07-30 18:00:00,23,1018,0,47,11,40000,14.816,,,310,17.8,24.7,,,,,,,,,wg-a,,,,AAXX 30184 07460 12782 43108 10230 20110 39805 40180 50000 60006 82802 91800 333 10247 20178=
07460,1996-07-30 21:00:00,18,1019.8,1.1,68,12,500,0,,,0,,,,,,,,,,,wg-a,,,,AAXX 30214 07460 12/00 20000 10180 20120 39816 40198 52011 60006 80001 92100=
07460,1996-07-31 00:00:00,15,1020.3,-0,82,12,25000,0,,,0,,,,,,,,,,,wg-a,,,,AAXX 31004 07460 12675 30000 10150 20120 39816 40203 55000 60006 83501 90000=
07460,1996-07-31 03:00:00,16,1019.7,-0.4,82,13,20000,0,,,0,,,,,,,,,,,wg-a,,,,AAXX 31034 07460 12670 20000 10160 20130 39812 40197 58004 60006 82500 90300=
07460,1996-07-31 06:00:00,16,1019.8,0.1,82,13,500,3.704,,,80,13.2,23.2,,,,,,,,,wg-a,,,,AAXX 31064 07460 02/00 00802 10160 20130 39813 40198 51001 60006 80000 90600 333 10232 20132 60004=
07460,1996-07-31 09:00:00,22,1019.2,0.1,57,13,40000,3.704,,,50,,,,,,,,,,,wg-a,,,,AAXX 31094 07460 12782 /0502 10220 20130 39814 40192 50001 60006 81100 90900=
07460,1996-07-31 12:00:00,25,1017.4,-1.2,47,13,40000,7.408,,,240,,,,,,,,,,,wg-a,,,,AAXX 31124 07460 12782 /2404 10250 20130 39802 40174 58012 60006 81100 91200=
07460,1996-07-31 15:00:00,28,1015.8,-1.3,37,12,40000,7.408,,,40,,,,,,,,,,,wg-a,,,,AAXX 31154 07460 12782 /0404 10280 20120 39789 40158 56013 60006 81100 91500=
07460,1996-07-31 18:00:00,27,1015.1,-0.7,42,13,40000,11.112,,,40,15.7,28.7,,,,,,,,,wg-a,,,,AAXX 31184 07460 12682 /0406 10270 20130 39782 40151 56007 60006 81100 91800 333 10287 20157=
07460,1996-07-31 21:00:00,20,1016.8,0.8,68,14,500,3.704,,,240,,,,,,,,,,,wg-a,,,,AAXX 31214 07460 12/00 12402 10200 20140 39789 40168 52008 60006 81030 92100=
07460,1996-08-01 00:00:00,16,1017.9,0.5,82,13,500,3.704,,,80,,,,,,,,,,,wg-a,,,,AAXX 01004 07460 12/00 10802 10160 20130 39794 40179 51005 60006 80001 90000=
07460,1996-08-01 03:00:00,14,1018,-0.1,88,12,500,0,,,0,,,,,,,,,,,wg-a,,,,AAXX 01034 07460 12/00 10000 10140 20120 39793 40180 56001 60006 80001 90300=
07460,1996-08-01 04:00:00,15,1018.2,0.2,88,13,500,3.704,,,10,12.9,27.2,,,,,,,,,wg-a,,,,AAXX 01044 07460 02/00 00102 10150 20130 39796 40182 52002 60006 80000 90400 333 10272 20129 60004=
07460,1996-08-01 06:00:00,15,1018.2,0.2,88,13,500,3.704,,,10,12.9,27.2,,,,,,,,,wg-a,,,,AAXX 01064 07460 02/00 00102 10150 20130 39796 40182 52002 60006 80000 90600 333 10272 20129 60004=
07460,1996-08-01 09:00:00,24,1016.7,-0.3,54,14,500,0,,,0,,,,,,,,,,,wg-a,,,,AAXX 01094 07460 12/00 00000 10240 20140 39793 40167 58003 60006 80000 90900=
07460,1996-08-01 12:00:00,28,1015,-1.1,45,15,35000,7.408,,,80,,,,,,,,,,,wg-a,,,,AAXX 01124 07460 12681 /0804 10280 20150 39782 40150 58011 60006 81280 91200=
07460,1996-08-01 15:00:00,31,1013.9,-0.8,36,14,40000,11.112,,,280,,,,,,,,,,,wg-a,,,,AAXX 01154 07460 12682 22806 10310 20140 39774 40139 57008 60006 82200 91500=
07460,1996-08-01 18:00:00,28,1014.4,0.3,42,14,40000,11.112,,,280,15.4,30.7,,,,,,,,,wg-a,,,,AAXX 01184 07460 12682 32806 10280 20140 39777 40144 53003 60006 83200 91800 333 10307 20154=
07460,1996-08-01 21:00:00,24,1017.6,2.5,50,13,25000,3.704,,,310,,,,,,,,,,,wg-a,,,,AAXX 01214 07460 12675 43102 10240 20130 39802 40176 51025 60006 84800 92100=
07460,1996-08-02 00:00:00,20,1019.2,1,60,12,25000,0,,,0,,,,,,,,,,,wg-a,,,,AAXX 02004 07460 12775 10000 10200 20120 39812 40192 53010 60006 81100 90000=
07460,1996-08-02 03:00:00,15,1019.9,0.1,82,12,20000,7.408,,,260,,,,,,,,,,,wg-a,,,,AAXX 02034 07460 12770 /2604 10150 20120 39813 40199 51001 60006 81100 90300=
07460,1996-08-02 06:00:00,16,1021.1,1.3,88,14,500,0,,,0,13.9,28.6,,,,,,,,,wg-a,,,,AAXX 02064 07460 02700 40000 10160 20140 39826 40211 53013 60006 81182 90600 333 10286 20139 60004=
07460,1996-08-02 09:00:00,20,1021,0.4,68,14,500,0,,,0,,,,,,,,,,,wg-a,,,,AAXX 02094 07460 12700 70000 10200 20140 39830 40210 52004 60006 8397/ 90900=
07460,1996-08-02 12:00:00,18,1021.9,0.6,94,17,15000,7.408,,,180,,,,2,,,,,,60,wg-a,,,,AAXX 02124 07460 02565 71804 10180 20170 39837 40219 51006 60026 76098 8327/ 91200 333 60027=
07460,1996-08-02 15:00:00,21,1021.1,-0.3,78,17,12000,3.704,,,50,,,,,,,,,,3,wg-a,,,,AAXX 02154 07460 02662 70502 10210 20170 39832 40211 56003 61000 70362 8317/ 91500 333 ////=
07460,1996-08-02 18:00:00,21,1020.9,-0.3,73,16,15000,0,,,0,16.4,21.1,,,,,,,,1,wg-a,,,,AAXX 02184 07460 32665 60000 10210 20160 39830 40209 55003 70186 8537/ 91800 333 10211 20164=
07460,1996-08-02 21:00:00,18,1022.6,1.2,88,16,15000,3.704,,,240,,,,,,,,,,1,wg-a,,,,AAXX 02214 07460 02665 52402 10180 20160 39842 40226 51012 61000 70186 8427/ 92100 333 ////=
07460,1996-08-03 00:00:00,17,1022.7,0.1,94,16,15000,0,,,0,,,,,,,,,,2,wg-a,,,,AAXX 03004 07460 02665 /0000 10170 20160 39843 40227 50001 61000 70286 8527/ 90000 333 ////=
07460,1996-08-03 03:00:00,16,1022.4,-0.4,94,15,15000,3.704,,,350,,,,,,,,,,,wg-a,,,,AAXX 03034 07460 12665 63502 10160 20150 39839 40224 55004 60006 8523/ 90300=
07460,1996-08-03 06:00:00,16,1023.4,0.9,100,16,9000,0,,,0,14.9,20.9,,,,,2,,,,wg-a,,,,AAXX 03064 07460 12659 60000 10160 20160 39848 40234 53009 60024 84270 90600 333 10209 20149=
07460,1996-08-03 09:00:00,21,1022.8,0.1,69,15,15000,11.112,,,70,,,,,,,,,,,wg-a,,,,AAXX 03094 07460 12565 30706 10210 20150 39849 40228 52001 60006 82230 90900=
07460,1996-08-03 12:00:00,24,1021.7,-0.7,50,13,25000,18.52,,,30,,,,,,,,,,,wg-a,,,,AAXX 03124 07460 12675 40310 10240 20130 39842 40217 58007 60006 84200 91200=
07460,1996-08-03 15:00:00,26,1020.7,-0.9,39,11,500,14.816,,,40,,,,,,,,,,,wg-a,,,,AAXX 03154 07460 12600 30408 10260 20110 39833 40207 58009 60006 83200 91500=
07460,1996-08-03 18:00:00,24,1020.8,-0.1,41,10,40000,11.112,,,30,16.3,25.7,,,,,,,,,wg-a,,,,AAXX 03184 07460 12782 /0306 10240 20100 39832 40208 55001 60006 81100 91800 333 10257 20163=
07460,1996-08-03 21:00:00,17,1021.9,0.2,68,11,20000,3.704,,,210,,,,,,,,,,,wg-a,,,,AAXX 03214 07460 12/70 02102 10170 20110 39834 40219 50002 60006 80000 92100=
07460,1996-08-04 00:00:00,14,1022.4,0,72,9,20000,3.704,,,170,,,,,,,,,,,wg-a,,,,AAXX 04004 07460 12/70 01702 10140 20090 39834 40224 50000 60006 80000 90000=
07460,1996-08-04 03:00:00,11,1021.6,-1.1,87,9,20000,3.704,,,270,,,,,,,,,,,wg-a,,,,AAXX 04034 07460 12/70 02702 10110 20090 39823 40216 58011 60006 80000 90300=
07460,1996-08-04 06:00:00,12,1021.5,-0,88,10,500,0,,,0,9.4,23.8,,,,,,,,,wg-a,,,,AAXX 04064 07460 02/00 10000 10120 20100 39823 40215 55000 60006 80001 90600 333 10238 20094 60004=
07460,1996-08-04 09:00:00,19,1019.1,-1.3,60,11,500,3.704,,,360,,,,,,,,,,,wg-a,,,,AAXX 04094 07460 12/00 23602 10190 20110 39810 40191 58013 60006 80001 90900=
07460,1996-08-04 12:00:00,24,1016.3,-2.1,41,10,500,7.408,,,50,,,,,,,,,,,wg-a,,,,AAXX 04124 07460 12700 30504 10240 20100 39789 40163 58021 60006 81102 91200=
07460,1996-08-04 15:00:00,26,1014.1,-1.9,39,11,40000,7.408,,,30,,,,,,,,,,,wg-a,,,,AAXX 04154 07460 12/82 40304 10260 20110 39770 40141 56019 60006 82032 91500=
07460,1996-08-04 18:00:00,24,1013.1,-1.1,41,10,40000,11.112,,,10,11.6,26.3,,,,,,,,,wg-a,,,,AAXX 04184 07460 12/82 60106 10240 20100 39758 40131 57011 60006 81032 91800 333 10263 20116=
07460,1996-08-04 21:00:00,19,1013.4,-0.3,56,10,500,7.408,,,330,,,,,,,,,,,wg-a,,,,AAXX 04214 07460 12/00 43304 10190 20100 39755 40134 56003 60006 82032 92100=
07460,1996-08-05 00:00:00,14,1014.1,0.1,77,10,20000,7.408,,,220,,,,,,,,,,,wg-a,,,,AAXX 05004 07460 12/70 32204 10140 20100 39756 40141 50001 60006 80002 90000=
07460,1996-08-05 03:00:00,15,1012.7,-1.3,77,11,20000,0,,,0,,,,,,,,,,,wg-a,,,,AAXX 05034 07460 12/70 30000 10150 20110 39743 40127 58013 60006 81032 90300=
07460,1996-08-05 06:00:00,16,1012,-0.5,72,11,500,3.704,,,160,13.3,23.6,,,,,,,,,wg-a,,,,AAXX 05064 07460 02700 /1602 10160 20110 39738 40120 56005 60006 81182 90600 333 10236 20133 60004=
07460,1996-08-05 09:00:00,19,1012.1,0.4,68,13,500,14.816,,,190,,,,,,,,,,,wg-a,,,,AAXX 05094 07460 12700 /1908 10190 20130 39743 40121 51004 60006 8357/ 90900=
07460,1996-08-05 12:00:00,25,1010,-1.1,50,14,35000,14.816,,,160,,,,,,,,,,,wg-a,,,,AAXX 05124 07460 12681 31608 10250 20140 39731 40100 58011 60006 81231 91200=
07460,1996-08-05 15:00:00,20,1011.7,0.9,78,16,11000,14.816,,,150,,,,,,,,,,,wg-a,,,,AAXX 05154 07460 32/61 /1508 10200 20160 39740 40117 53009 91500=
07460,1996-08-05 18:00:00,21,1011.4,-0.1,83,18,15000,7.408,,,190,16,26.4,,0,,,,,,1,wg-a,,,,AAXX 05184 07460 12665 /1904 10210 20180 39739 40114 58001 60007 70198 8257/ 91800 333 10264 20160=
07460,1996-08-05 21:00:00,17,1013.5,1.6,88,15,14000,3.704,,,50,,,,,,,,,,,wg-a,,,,AAXX 05214 07460 12564 /0502 10170 20150 39755 40135 51016 60006 81131 92100=
07460,1996-08-06 00:00:00,15,1013.9,0.1,94,14,14000,0,,,0,,,,,,,,,,,wg-a,,,,AAXX 06004 07460 12564 40000 10150 20140 39756 40139 53001 60006 81131 90000=
07460,1996-08-06 03:00:00,15,1013.4,-0.6,88,13,14000,3.704,,,40,,,,,,,,,,,wg-a,,,,AAXX 06034 07460 12564 /0402 10150 20130 39750 40134 56006 60006 81101 90300=
07460,1996-08-06 06:00:00,14,1013.8,0.4,100,14,15000,0,,,0,13.3,20.9,,,,,7,,,,wg-a,,,,AAXX 06064 07460 02/65 70000 10140 20140 39753 40138 51004 60006 85032 90600 333 10209 20133 60074=
07460,1996-08-06 09:00:00,21,1013.2,0.2,73,16,20000,14.816,,,150,,,,,,,,,,,wg-a,,,,AAXX 06094 07460 12770 /1508 10210 20160 39756 40132 51002 60006 81531 90900=
07460,1996-08-06 12:00:00,23,1012.8,-0.1,69,17,12000,7.408,,,220,,,,,,,,,,,wg-a,,,,AAXX 06124 07460 12662 72204 10230 20170 39755 40128 58001 60006 8287/ 91200=
07460,1996-08-06 15:00:00,20,1014,0.8,83,17,15000,7.408,,,290,,,,2,,,,,,60,wg-a,,,,AAXX 06154 07460 12665 72904 10200 20170 39763 40140 53008 60027 76062 8387/ 91500=
07460,1996-08-06 18:00:00,19,1015,0.9,94,18,9000,3.704,,,60,14.3,23.1,,0,,,,,,61,wg-a,,,,AAXX 06184 07460 12559 80602 10190 20180 39772 40150 53009 60007 76162 8387/ 91800 333 10231 20143=
07460,1996-08-06 21:00:00,18,1017,1.8,94,17,7000,0,,,0,,,,2,,,,,,21,wg-a,,,,AAXX 06214 07460 12457 80000 10180 20170 39789 40170 53018 60027 72162 8557/ 92100=
07460,1996-08-07 00:00:00,17,1017.6,0.4,100,17,6000,0,,,0,,,,,,,,,,3,wg-a,,,,AAXX 07004 07460 12256 70000 10170 20170 39794 40176 51004 60026 70362 8357/ 90000=
07460,1996-08-07 03:00:00,16,1017.5,-0.2,100,16,15000,0,,,0,,,,,,,,,,,wg-a,,,,AAXX 07034 07460 12565 70000 10160 20160 39792 40175 58002 60006 875// 90300=
07460,1996-08-07 06:00:00,16,1018.6,1,100,16,200,0,,,0,15.7,19.4,,,,,4,,,45,wg-a,,,,AAXX 07064 07460 12/02 90000 10160 20160 39802 40186 52010 60044 74541 89/// 90600 333 10194 20157=
07460,1996-08-07 09:00:00,18,1018.7,0.4,88,16,7000,3.704,,,70,,,,,,,,,,1,wg-a,,,,AAXX 07094 07460 12457 70702 10180 20160 39806 40187 51004 60006 70142 8683/ 90900=
07460,1996-08-07 12:00:00,20,1017.8,-0.6,78,16,9000,7.408,,,20,,,,,,,,,,1,wg-a,,,,AAXX 07124 07460 12459 70204 10200 20160 39800 40178 58006 60006 70142 8583/ 91200=
07460,1996-08-07 15:00:00,22,1016.9,-0.6,69,16,10000,0,,,0,,,,,,,,,,25,wg-a,,,,AAXX 07154 07460 02560 40000 10220 20160 39793 40169 58006 61000 72586 83831 91500 333 ////=
07460,1996-08-07 18:00:00,22,1016.1,-0.8,69,16,25000,7.408,,,20,16.3,23.5,,,,,,,,1,wg-a,,,,AAXX 07184 07460 32675 30204 10220 20160 39785 40161 56008 70186 82232 91800 333 10235 20163=
07460,1996-08-07 21:00:00,18,1017.5,0.9,83,15,15000,3.704,,,290,,,,,,,,,,,wg-a,,,,AAXX 07214 07460 12765 22902 10180 20150 39794 40175 51009 60006 81501 92100=
07460,1996-08-08 00:00:00,16,1017.5,-0.3,88,14,15000,3.704,,,330,,,,,,,,,,,wg-a,,,,AAXX 08004 07460 12765 53302 10160 20140 39791 40175 58003 60006 83501 90000=
07460,1996-08-08 03:00:00,15,1016,-1.5,88,13,15000,3.704,,,100,,,,,,,,,,,wg-a,,,,AAXX 08034 07460 12665 21002 10150 20130 39775 40160 57015 60006 81501 90300=
07460,1996-08-08 06:00:00,15,1015.8,-0.2,94,14,20000,3.704,,,20,12.9,21.8,,,,,,,,,wg-a,,,,AAXX 08064 07460 02670 50202 10150 20140 39773 40158 56002 60006 83802 90600 333 10218 20129 61000=
07460,1996-08-08 09:00:00,20,1014.7,-0.3,78,16,20000,7.408,,,70,,,,,,,,,,,wg-a,,,,AAXX 08094 07460 12670 20704 10200 20160 39770 40147 58003 60006 81202 90900=
07460,1996-08-08 12:00:00,25,1013.5,-0.5,57,16,25000,7.408,,,60,,,,,,,,,,,wg-a,,,,AAXX 08124 07460 12675 30604 10250 20160 39765 40135 58005 60006 83200 91200=
07460,1996-08-08 15:00:00,27,1012.6,-0.8,42,13,25000,3.704,,,80,,,,,,,,,,,wg-a,,,,AAXX 08154 07460 12675 40802 10270 20130 39757 40126 56008 60006 84230 91500=
07460,1996-08-08 18:00:00,25,1013.2,0.4,54,15,15000,3.704,,,360,14.5,27.3,,,,,,,,,wg-a,,,,AAXX 08184 07460 12565 63602 10250 20150 39761 40132 53004 60006 84232 91800 333 10273 20145=
07460,1996-08-08 21:00:00,21,1015.1,1.4,73,16,20000,0,,,0,,,,,,,,,,,wg-a,,,,AAXX 08214 07460 12670 /0000 10210 20160 39775 40151 51014 60006 83532 92100=
07460,1996-08-09 00:00:00,19,1015.9,0.5,83,16,20000,7.408,,,260,,,,,,,,,,,wg-a,,,,AAXX 09004 07460 12670 32604 10190 20160 39780 40159 50005 60006 82531 90000=
07460,1996-08-09 03:00:00,15,1016,-0.5,88,13,20000,3.704,,,280,,,,,,,,,,,wg-a,,,,AAXX 09034 07460 12670 22802 10150 20130 39775 40160 58005 60006 81101 90300=
07460,1996-08-09 06:00:00,16,1016.2,0.4,82,13,500,0,,,0,14.2,25.1,,,,,,,,,wg-a,,,,AAXX 09064 07460 02/00 50000 10160 20130 39779 40162 52004 60006 81032 90600 333 10251 20142 60004=
07460,1996-08-09 12:00:00,28,1012.8,-1.3,45,15,40000,3.704,,,160,,,,,,,,,,,wg-a,,,,AAXX 09124 07460 12782 31602 10280 20150 39761 40128 57013 60006 83201 91200=
07460,1996-08-09 18:00:00,27,1011,-0.4,37,11,40000,11.112,,,260,16.4,29.6,,,,,,,,,wg-a,,,,AAXX 09184 07460 12782 /2606 10270 20110 39741 40110 55004 60006 81202 91800 333 10296 20164=
07460,1996-08-09 21:00:00,21,1012.7,1,60,13,25000,11.112,,,230,,,,,,,,,,,wg-a,,,,AAXX 09214 07460 12/75 22306 10210 20130 39751 40127 51010 60006 82030 92100=
07460,1996-08-10 00:00:00,21,1012.3,-0.4,60,13,10000,14.816,,,190,,,,,,,,,,,wg-a,,,,AAXX 10004 07460 12/60 /1908 10210 20130 39747 40123 58004 60006 90000=
07460,1996-08-10 03:00:00,20,1011.5,-0.8,64,13,20000,3.704,,,150,,,,,,,,,,,wg-a,,,,AAXX 10034 07460 12670 31502 10200 20130 39738 40115 56008 60006 81130 90300=
07460,1996-08-10 06:00:00,19,1010.7,-0.9,78,15,25000,11.112,,,160,18.7,27,,,,,,,,,wg-a,,,,AAXX 10064 07460 02675 71606 10190 20150 39730 40107 56009 60006 83802 90600 333 10270 20187 60004=
07460,1996-08-10 09:00:00,20,1010.6,0,83,17,25000,11.112,,,10,,,,0,,,,,,1,wg-a,,,,AAXX 10094 07460 12775 70106 10200 20170 39730 40106 50000 60007 70198 85832 90900=
07460,1996-08-10 12:00:00,24,1009,-1.2,69,18,25000,14.816,,,350,,,,,,,,,,17,wg-a,,,,AAXX 10124 07460 12675 73508 10240 20180 39719 40090 58012 60006 71798 83932 91200=
07460,1996-08-10 15:00:00,23,1008,-1,78,19,20000,25.928,,,350,,,,,,,,,,29,wg-a,,,,AAXX 10154 07460 12670 53514 10230 20190 39709 40080 56010 60006 72992 82202 91500=
07460,1996-08-10 18:00:00,21,1010.8,2.4,73,16,13000,3.704,,,50,18.8,25.2,,2,,,,,,29,wg-a,,,,AAXX 10184 07460 12563 70502 10210 20160 39733 40108 51024 60027 72998 873// 91800 333 10252 20188=
07460,1996-08-10 21:00:00,18,1012.4,1.3,88,16,15000,3.704,,,130,,,,,,,,,,,wg-a,,,,AAXX 10214 07460 12665 41302 10180 20160 39745 40124 53013 60006 84800 92100=
07460,1996-08-11 00:00:00,17,1011.7,-0.9,88,15,15000,3.704,,,200,,,,,,,,,,,wg-a,,,,AAXX 11004 07460 12665 42002 10170 20150 39736 40117 56009 60006 84500 90000=
07460,1996-08-11 03:00:00,16,1010.5,-1.2,82,13,15000,3.704,,,230,,,,0,,,,,,,wg-a,,,,AAXX 11034 07460 12665 72302 10160 20130 39724 40105 58012 60007 8357/ 90300=
07460,1996-08-11 06:00:00,17,1010.2,-0.2,77,13,15000,7.408,,,200,15.6,20.8,,,,,2,,,3,wg-a,,,,AAXX 11064 07460 12665 /2004 10170 20130 39722 40102 55002 60024 70361 84530 90600 333 10208 20156=
07460,1996-08-11 09:00:00,19,1009.5,-0.4,64,12,15000,18.52,,,190,,,,,,,,,,,wg-a,,,,AAXX 11094 07460 12565 /1910 10190 20120 39718 40095 56004 60006 83830 90900=
07460,1996-08-11 12:00:00,21,1008.3,-0.8,60,13,20000,25.928,,,220,,,,,,,,,,,wg-a,,,,AAXX 11124 07460 12670 /2214 10210 20130 39709 40083 58008 60006 84230 91200=
07460,1996-08-11 15:00:00,23,1007.5,-0.6,50,12,25000,29.632,,,250,,,,,,,,,,,wg-a,,,,AAXX 11154 07460 12675 42516 10230 20120 39703 40075 58006 60006 84230 91500=
07460,1996-08-11 18:00:00,21,1008.7,1,49,10,40000,18.52,,,260,17,23.9,,,,,,,,,wg-a,,,,AAXX 11184 07460 12782 22610 10210 20100 39712 40087 51010 60006 82200 91800 333 10239 20170=
07460,1996-08-11 21:00:00,18,1010.3,1.2,59,10,20000,11.112,,,240,,,,,,,,,,,wg-a,,,,AAXX 11214 07460 12670 22406 10180 20100 39723 40103 51012 60006 82800 92100=
07460,1996-08-12 00:00:00,17,1011.4,1,63,10,15000,18.52,,,260,,,,,,,,,,,wg-a,,,,AAXX 12004 07460 12565 42610 10170 20100 39733 40114 51010 60006 84800 90000=
07460,1996-08-12 03:00:00,15,1011.3,-0.4,72,10,12000,0,,,0,,,,0,,,,,,,wg-a,,,,AAXX 12034 07460 12562 /0000 10150 20100 39730 40113 55004 60007 85800 90300=
07460,1996-08-12 06:00:00,15,1012.4,1,72,10,14000,7.408,,,230,13.5,20.6,,,,,,,,1,wg-a,,,,AAXX 12064 07460 12564 22304 10150 20100 39740 40124 52010 60004 70186 82800 90600 333 10206 20135=
07460,1996-08-12 09:00:00,19,1012.5,0.5,49,8,500,11.112,,,330,,,,,,,,,,,wg-a,,,,AAXX 12094 07460 12600 33306 10190 20080 39746 40125 51005 60006 83130 90900=
07460,1996-08-12 12:00:00,20,1012.6,0.2,46,8,500,7.408,,,20,,,,,,,,,,,wg-a,,,,AAXX 12124 07460 12600 50204 10200 20080 39748 40126 52002 60006 85200 91200=
07460,1996-08-12 15:00:00,22,1012.2,0,41,8,500,18.52,,,270,,,,,,,,,,,wg-a,,,,AAXX 12154 07460 12600 /2710 10220 20080 39747 40122 50000 60006 86800 91500=
07460,1996-08-12 18:00:00,20,1013.1,0.5,49,9,500,11.112,,,300,15.2,23,,,,,,,,,wg-a,,,,AAXX 12184 07460 12600 43006 10200 20090 39753 40131 53005 60006 84200 91800 333 10230 20152=
07460,1996-08-12 21:00:00,16,1014.8,1.2,63,9,20000,0,,,0,,,,,,,,,,,wg-a,,,,AAXX 12214 07460 12670 40000 10160 20090 39765 40148 51012 60006 83801 92100=
07460,1996-08-13 00:00:00,16,1015.2,0.4,68,10,20000,3.704,,,280,,,,,,,,,,,wg-a,,,,AAXX 13004 07460 12670 52802 10160 20100 39769 40152 51004 60006 85801 90000=
07460,1996-08-13 03:00:00,15,1014.7,-0.6,82,12,20000,3.704,,,70,,,,,,,,,,,wg-a,,,,AAXX 13034 07460 12570 /0702 10150 20120 39763 40147 56006 60006 85831 90300=
07460,1996-08-13 06:00:00,15,1015.3,0.5,82,12,13000,3.704,,,120,14.2,19.5,,,,,,,,,wg-a,,,,AAXX 13064 07460 02663 71202 10150 20120 39768 40153 53005 60006 8583/ 90600 333 10195 20142 60004=
07460,1996-08-13 09:00:00,18,1015.7,0.7,59,10,20000,11.112,,,290,,,,,,,,,,,wg-a,,,,AAXX 13094 07460 12570 /2906 10180 20100 39776 40157 51007 60006 86200 90900=
07460,1996-08-13 12:00:00,22,1014.8,-0.5,43,9,25000,14.816,,,300,,,,,,,,,,,wg-a,,,,AAXX 13124 07460 12675 43008 10220 20090 39772 40148 58005 60006 84200 91200=
07460,1996-08-13 15:00:00,23,1014.4,-0.3,44,10,500,14.816,,,290,,,,,,,,,,,wg-a,,,,AAXX 13154 07460 12600 42908 10230 20100 39769 40144 58003 60006 83830 91500=
07460,1996-08-13 18:00:00,21,1015,0.5,53,11,25000,11.112,,,300,14.7,23.3,,,,,,,,,wg-a,,,,AAXX 13184 07460 12675 73006 10210 20110 39773 40150 53005 60006 87400 91800 333 10233 20147=
07460,1996-08-13 21:00:00,18,1016.6,1.2,64,11,20000,7.408,,,270,,,,,,,,,,,wg-a,,,,AAXX 13214 07460 12770 /2704 10180 20110 39785 40166 51012 60006 8153/ 92100=
07460,1996-08-14 00:00:00,19,1016.5,-0.1,60,11,14000,3.704,,,310,,,,,,,,,,,wg-a,,,,AAXX 14004 07460 12664 73102 10190 20110 39784 40165 58001 60006 8353/ 90000=
07460,1996-08-14 03:00:00,16,1016.8,0,77,12,14000,7.408,,,30,,,,,,,,,,,wg-a,,,,AAXX 14034 07460 12664 70304 10160 20120 39784 40168 50000 60006 8453/ 90300=
07460,1996-08-14 06:00:00,15,1017.8,0.8,88,13,9000,0,,,0,14,20.7,,,,,,,,,wg-a,,,,AAXX 14064 07460 02459 70000 10150 20130 39792 40178 53008 60006 875// 90600 333 10207 20140 60004=
07460,1996-08-14 09:00:00,17,1018.3,0.8,72,12,12000,3.704,,,130,,,,,,,,,,,wg-a,,,,AAXX 14094 07460 12462 81302 10170 20120 39800 40183 52008 60006 878// 90900=
07460,1996-08-14 12:00:00,18,1017.7,-0.5,77,14,12000,11.112,,,20,,,,,,,,,,,wg-a,,,,AAXX 14124 07460 12462 80206 10180 20140 39795 40177 55005 60006 878// 91200=
07460,1996-08-14 15:00:00,19,1017,-0.4,68,13,12000,0,,,0,,,,,,,,,,,wg-a,,,,AAXX 14154 07460 12562 70000 10190 20130 39790 40170 58004 60006 878// 91500=
07460,1996-08-14 18:00:00,19,1016.9,-0.2,68,13,12000,3.704,,,80,14.8,20,,,,,,,,,wg-a,,,,AAXX 14184 07460 12562 70802 10190 20130 39789 40169 57002 60006 87500 91800 333 10200 20148=
07460,1996-08-14 21:00:00,17,1017.7,0.5,82,14,9000,3.704,,,290,,,,,,,,,,,wg-a,,,,AAXX 14214 07460 12559 72902 10170 20140 39794 40177 51005 60006 875// 92100=
07460,1996-08-15 00:00:00,17,1018,0.3,82,14,8000,0,,,0,,,,,,,,,,,wg-a,,,,AAXX 15004 07460 12558 70000 10170 20140 39797 40180 53003 60006 875// 90000=
07460,1996-08-15 03:00:00,16,1018.2,-0,82,13,8000,3.704,,,20,,,,,,,,,,,wg-a,,,,AAXX 15034 07460 12658 70202 10160 20130 39797 40182 55000 60006 875// 90300=
07460,1996-08-15 06:00:00,14,1019.3,0.8,94,13,6000,0,,,0,13.6,19.3,,,,,,,,,wg-a,,,,AAXX 15064 07460 02456 20000 10140 20130 39805 40193 53008 60006 82500 90600 333 10193 20136 60004=
07460,1996-08-15 09:00:00,19,1019.3,0.7,73,14,8000,3.704,,,150,,,,,,,,,,,wg-a,,,,AAXX 15094 07460 12458 41502 10190 20140 39812 40193 51007 60006 84200 90900=
07460,1996-08-15 12:00:00,23,1018.3,-0.5,50,12,9000,11.112,,,60,,,,,,,,,,,wg-a,,,,AAXX 15124 07460 12559 30606 10230 20120 39807 40183 58005 60006 83200 91200=
07460,1996-08-15 15:00:00,24,1017.3,-0.8,44,11,15000,14.816,,,50,,,,,,,,,,,wg-a,,,,AAXX 15154 07460 12665 20508 10240 20110 39799 40173 56008 60006 82200 91500=
07460,1996-08-15 18:00:00,23,1017.4,-0.1,44,10,25000,11.112,,,50,14,24.4,,,,,,,,,wg-a,,,,AAXX 15184 07460 12775 /0506 10230 20100 39798 40174 55001 60006 81100 91800 333 10244 20140=
07460,1996-08-15 21:00:00,17,1019.7,1.4,68,11,20000,0,,,0,,,,,,,,,,,wg-a,,,,AAXX 15214 07460 12/70 10000 10170 20110 39813 40197 53014 60006 80001 92100=
07460,1996-08-16 00:00:00,15,1020.2,0.2,82,12,10000,3.704,,,130,,,,,,,,,,,wg-a,,,,AAXX 16004 07460 12660 21302 10150 20120 39815 40202 51002 60006 82500 90000=
07460,1996-08-16 03:00:00,11,1020.3,-0.4,94,10,10000,0,,,0,,,,,,,,,,,wg-a,,,,AAXX 16034 07460 12/60 10000 10110 20100 39811 40203 57004 60006 80001 90300=
07460,1996-08-16 06:00:00,11,1021.2,0.8,94,10,8000,0,,,0,10.1,22.4,,,,,,,,,wg-a,,,,AAXX 16064 07460 02/58 00000 10110 20100 39819 40212 53008 60006 80000 90600 333 10224 20101 60004=
07460,1996-08-16 09:00:00,19,1020.3,0.3,73,14,10000,3.704,,,350,,,,,,,,,,,wg-a,,,,AAXX 16094 07460 12660 /3502 10190 20140 39822 40203 53003 60006 81100 90900=
07460,1996-08-16 12:00:00,24,1018.6,-1.1,50,13,25000,7.408,,,40,,,,,,,,,,,wg-a,,,,AAXX 16124 07460 12775 /0404 10240 20130 39811 40186 58011 60006 81100 91200=
07460,1996-08-16 15:00:00,26,1017.4,-0.9,39,11,500,11.112,,,340,,,,,,,,,,,wg-a,,,,AAXX 16154 07460 12700 13406 10260 20110 39802 40174 57009 60006 81101 91500=
07460,1996-08-16 18:00:00,24,1017.9,0.3,47,12,35000,11.112,,,20,11,25.9,,,,,,,,,wg-a,,,,AAXX 16184 07460 12/81 00206 10240 20120 39805 40179 53003 60006 80000 91800 333 10259 20110=
07460,1996-08-16 21:00:00,17,1019.9,1,72,12,20000,7.408,,,250,,,,,,,,,,,wg-a,,,,AAXX 16214 07460 12/70 02504 10170 20120 39815 40199 51010 60006 80000 92100=
07460,1996-08-17 00:00:00,14,1020.7,0.3,82,11,20000,3.704,,,290,,,,,,,,,,,wg-a,,,,AAXX 17004 07460 12/70 02902 10140 20110 39818 40207 51003 60006 80000 90000=
07460,1996-08-17 06:00:00,12,1021.4,0.4,94,11,15000,0,,,0,9.2,24.1,,,,,,,,,wg-a,,,,AAXX 17064 07460 02/65 00000 10120 20110 39822 40214 53004 60006 80000 90600 333 10241 20092 60004=
07460,1996-08-17 09:00:00,20,1020.6,0.4,60,12,20000,3.704,,,40,,,,,,,,,,,wg-a,,,,AAXX 17094 07460 12770 10402 10200 20120 39826 40206 52004 60006 81130 90900=
07460,1996-08-17 12:00:00,25,1018.9,-1.1,44,12,25000,7.408,,,20,,,,,,,,,,,wg-a,,,,AAXX 17124 07460 12775 /0204 10250 20120 39816 40189 58011 60006 81100 91200=
07460,1996-08-17 15:00:00,27,1017.6,-1,37,11,25000,7.408,,,30,,,,,,,,,,,wg-a,,,,AAXX 17154 07460 12775 20304 10270 20110 39805 40176 57010 60006 82100 91500=
07460,1996-08-17 18:00:00,25,1017.6,-0.3,39,10,25000,7.408,,,20,11.7,27.5,,,,,,,,,wg-a,,,,AAXX 17184 07460 12/75 10204 10250 20100 39803 40176 56003 60006 80001 91800 333 10275 20117=
07460,1996-08-17 21:00:00,18,1019.2,0.6,64,11,25000,3.704,,,220,,,,,,,,,,,wg-a,,,,AAXX 17214 07460 12/75 02202 10180 20110 39809 40192 51006 60006 80000 92100=
07460,1996-08-18 00:00:00,14,1019.6,0,82,11,25000,0,,,0,,,,,,,,,,,wg-a,,,,AAXX 18004 07460 12/75 00000 10140 20110 39809 40196 50000 60006 80000 90000=
07460,1996-08-18 03:00:00,13,1019,-0.7,88,11,20000,3.704,,,60,,,,,,,,,,,wg-a,,,,AAXX 18034 07460 12/70 10602 10130 20110 39802 40190 58007 60006 80001 90300=
07460,1996-08-18 06:00:00,13,1019.2,0.1,94,12,20000,0,,,0,11.6,25.3,,,,,,,,,wg-a,,,,AAXX 18064 07460 02/70 10000 10130 20120 39803 40192 52001 60006 80001 90600 333 10253 20116 60004=
07460,1996-08-18 09:00:00,22,1017.8,-0.2,60,14,25000,7.408,,,70,,,,,,,,,,,wg-a,,,,AAXX 18094 07460 12775 /0704 10220 20140 39801 40178 58002 60006 81100 90900=
07460,1996-08-18 12:00:00,26,1015.7,-1.5,45,13,25000,7.408,,,80,,,,,,,,,,,wg-a,,,,AAXX 18124 07460 12775 /0804 10260 20130 39786 40157 58015 60006 81100 91200=
07460,1996-08-18 15:00:00,28,1014.1,-1.2,37,12,25000,7.408,,,50,,,,,,,,,,,wg-a,,,,AAXX 18154 07460 12775 /0504 10280 20120 39773 40141 58012 60006 81100 91500=
07460,1996-08-18 18:00:00,27,1013.3,-1,37,11,25000,7.408,,,20,13,28.5,,,,,,,,,wg-a,,,,AAXX 18184 07460 12775 /0204 10270 20110 39763 40133 56010 60006 81100 91800 333 10285 20130=
07460,1996-08-18 21:00:00,19,1014.9,0.6,56,10,25000,3.704,,,150,,,,,,,,,,,wg-a,,,,AAXX 18214 07460 12/75 01502 10190 20100 39769 40149 52006 60006 80000 92100=
07460,1996-08-19 00:00:00,15,1015.3,0,72,10,25000,0,,,0,,,,,,,,,,,wg-a,,,,AAXX 19004 07460 12/75 00000 10150 20100 39768 40153 50000 60006 80000 90000=
07460,1996-08-19 03:00:00,15,1014.9,-0.6,77,11,20000,3.704,,,60,,,,,,,,,,,wg-a,,,,AAXX 19034 07460 12/70 00602 10150 20110 39764 40149 57006 60006 80000 90300=
07460,1996-08-19 06:00:00,16,1014.4,-0.3,77,12,25000,3.704,,,60,13.7,26.4,,,,,,,,,wg-a,,,,AAXX 19064 07460 02/75 00602 10160 20120 39761 40144 56003 60006 80000 90600 333 10264 20137 60004=
07460,1996-08-19 09:00:00,25,1012.6,-0.7,50,14,500,25.928,,,180,,,,,,,,,,,wg-a,,,,AAXX 19094 07460 12600 /1814 10250 20140 39755 40126 58007 60006 81100 90900=
07460,1996-08-19 12:00:00,30,1011,-0.9,33,12,500,11.112,,,150,,,,,,,,,,,wg-a,,,,AAXX 19124 07460 12600 21506 10300 20120 39746 40110 58009 60006 82100 91200=
07460,1996-08-19 15:00:00,31,1010,-0.9,31,12,500,22.224,,,280,,,,,,,,,,,wg-a,,,,AAXX 19154 07460 12600 22812 10310 20120 39737 40100 56009 60006 82100 91500=
07460,1996-08-19 18:00:00,28,1010.5,0.1,37,12,500,14.816,,,240,16.3,32,,,,,,,,,wg-a,,,,AAXX 19184 07460 12700 /2408 10280 20120 39738 40105 53001 60006 81110 91800 333 10320 20163=
07460,1996-08-19 21:00:00,21,1012.2,0.8,56,12,20000,3.704,,,160,,,,,,,,,,,wg-a,,,,AAXX 19214 07460 12/70 21602 10210 20120 39746 40122 51008 60006 82030 92100=
07460,1996-08-20 00:00:00,21,1013,0.7,60,13,20000,22.224,,,200,,,,,,,,,,,wg-a,,,,AAXX 20004 07460 12/70 12012 10210 20130 39754 40130 51007 60006 80001 90000=
07460,1996-08-20 03:00:00,19,1013.2,-0,68,13,20000,22.224,,38.892,190,,,,,,,,,,,wg-a,,,,AAXX 20034 07460 12/70 31912 10190 20130 39754 40132 55000 60006 81031 90300 333 91021=
07460,1996-08-20 06:00:00,19,1014.1,0.8,68,13,25000,3.704,,,150,18.2,27.8,,,,,,,,,wg-a,,,,AAXX 20064 07460 02/75 81502 10190 20130 39762 40141 50008 60006 84032 90600 333 10278 20182 60004=
07460,1996-08-20 09:00:00,23,1013.8,0.3,53,13,500,3.704,,,180,,,,,,,,,,,wg-a,,,,AAXX 20094 07460 12800 71802 10230 20130 39764 40138 50003 60006 81130 90900=
07460,1996-08-20 12:00:00,27,1012,-1.3,45,14,20000,7.408,,,280,,,,,,,,,,,wg-a,,,,AAXX 20124 07460 12670 72804 10270 20140 39751 40120 57013 60006 83872 91200=
07460,1996-08-20 15:00:00,18,1013.8,0.8,88,16,9000,3.704,,,160,,,,8,,,,,,95,wg-a,,,,AAXX 20154 07460 12659 71602 10180 20160 39759 40138 50008 60087 79598 8597/ 91500=
07460,1996-08-20 18:00:00,19,1013.5,-0.2,83,16,15000,0,,,0,17.2,26.6,,1,,,,,,1,wg-a,,,,AAXX 20184 07460 12465 70000 10190 20160 39757 40135 56002 60017 70198 82271 91800 333 10266 20172=
07460,1996-08-20 21:00:00,17,1014.9,1,94,16,15000,3.704,,,220,,,,,,,,,,,wg-a,,,,AAXX 20214 07460 12565 72202 10170 20160 39767 40149 50010 60006 82272 92100=
07460,1996-08-21 00:00:00,16,1014.6,-0.4,94,15,15000,3.704,,,350,,,,,,,,,,,wg-a,,,,AAXX 21004 07460 12465 53502 10160 20150 39763 40146 57004 60006 83532 90000=
07460,1996-08-21 03:00:00,15,1014.1,-0.6,100,15,9000,3.704,,,200,,,,,,,,,,,wg-a,,,,AAXX 21034 07460 12459 72002 10150 20150 39757 40141 56006 60006 8553/ 90300=
07460,1996-08-21 06:00:00,16,1013.7,-0.3,94,15,15000,0,,,0,14.4,19.5,,2,,,11,,,21,wg-a,,,,AAXX 21064 07460 02765 70000 10160 20150 39754 40137 55003 60114 72162 8653/ 90600 333 10195 20144 60027=
07460,1996-08-21 09:00:00,20,1013,0,73,15,20000,7.408,,,190,,,,,,,,,,,wg-a,,,,AAXX 21094 07460 12670 61904 10200 20150 39753 40130 50000 60006 8483/ 90900=
07460,1996-08-21 12:00:00,22,1011.8,-0.9,60,14,20000,18.52,,,170,,,,,,,,,,3,wg-a,,,,AAXX 21124 07460 12670 71710 10220 20140 39744 40118 56009 60006 70362 8583/ 91200=
07460,1996-08-21 15:00:00,18,1012.3,-0,83,15,12000,14.816,,,150,,,,4,,,,,,25,wg-a,,,,AAXX 21154 07460 12662 71508 10180 20150 39744 40123 55000 60047 72586 8693/ 91500=
07460,1996-08-21 18:00:00,17,1011.9,-0.5,94,16,10000,14.816,,,180,15.6,23.3,,1,,,,,,1,wg-a,,,,AAXX 21184 07460 12360 81808 10170 20160 39739 40119 55005 60017 70186 8397/ 91800 333 10233 20156=
07460,1996-08-21 21:00:00,16,1014.1,2,94,15,7000,3.704,,,280,,,,2,,,,,,80,wg-a,,,,AAXX 21214 07460 12457 82802 10160 20150 39759 40141 51020 60027 78086 878// 92100=
07460,1996-08-22 00:00:00,15,1014.9,0.5,94,14,10000,3.704,,,160,,,,1,,,,,,61,wg-a,,,,AAXX 22004 07460 02460 71602 10150 20140 39764 40149 51005 60036 76162 875// 90000 333 60017=
07460,1996-08-22 03:00:00,15,1014.4,-0.3,94,14,12000,7.408,,,120,,,,,,,,,,60,wg-a,,,,AAXX 22034 07460 02462 71204 10150 20140 39760 40144 56003 61000 76062 875// 90300 333 ////=
07460,1996-08-22 06:00:00,15,1015.2,0.6,94,14,20000,7.408,,,140,14.2,16.9,,2,,,9,,,21,wg-a,,,,AAXX 22064 07460 02570 71404 10150 20140 39767 40152 53006 60094 72162 8357/ 90600 333 10169 20142 60027=
07460,1996-08-22 09:00:00,17,1016.1,1.1,82,14,25000,3.704,,,20,,,,,,,,,,,wg-a,,,,AAXX 22094 07460 12675 70202 10170 20140 39778 40161 53011 60006 8187/ 90900=
07460,1996-08-22 12:00:00,22,1014.8,-0.6,53,12,40000,7.408,,,130,,,,,,,,,,,wg-a,,,,AAXX 22124 07460 12682 21304 10220 20120 39772 40148 58006 60006 82800 91200=
07460,1996-08-22 15:00:00,24,1013.5,-1,41,10,40000,7.408,,,150,,,,,,,,,,,wg-a,,,,AAXX 22154 07460 12782 21504 10240 20100 39762 40135 57010 60006 82100 91500=
07460,1996-08-22 18:00:00,22,1013.4,-0.4,46,10,40000,7.408,,,280,14.6,24.1,,,,,,,,,wg-a,,,,AAXX 22184 07460 12782 /2804 10220 20100 39759 40134 56004 60006 81801 91800 333 10241 20146=
07460,1996-08-22 21:00:00,17,1015.3,1.2,68,11,20000,7.408,,,160,,,,,,,,,,,wg-a,,,,AAXX 22214 07460 12/70 01604 10170 20110 39771 40153 50012 60006 80000 92100=
07460,1996-08-23 00:00:00,12,1015.8,-0.2,88,10,20000,0,,,0,,,,,,,,,,,wg-a,,,,AAXX 23004 07460 12/70 00000 10120 20100 39769 40158 57002 60006 80000 90000=
07460,1996-08-23 03:00:00,13,1013.9,-1.7,82,10,20000,3.704,,,70,,,,,,,,,,,wg-a,,,,AAXX 23034 07460 12/70 00702 10130 20100 39752 40139 58017 60006 80000 90300=
07460,1996-08-23 06:00:00,13,1013.1,-0.7,82,10,35000,3.704,,,210,11.4,22.1,,,,,,,,,wg-a,,,,AAXX 23064 07460 02/81 12102 10130 20100 39744 40131 58007 60006 81041 90600 333 10221 20114 60004=
07460,1996-08-23 09:00:00,19,1011.6,-0.6,64,12,35000,11.112,,,170,,,,,,,,,,,wg-a,,,,AAXX 23094 07460 12/81 41706 10190 20120 39738 40116 56006 60006 83051 90900=
07460,1996-08-23 12:00:00,25,1011,0.2,47,13,35000,18.52,,,270,,,,,,,,,,,wg-a,,,,AAXX 23124 07460 12781 /2710 10250 20130 39740 40110 53002 60006 82870 91200=
07460,1996-08-23 15:00:00,22,1012.8,1.4,57,13,35000,14.816,,,260,,,,,,,,,,,wg-a,,,,AAXX 23154 07460 12681 62608 10220 20130 39754 40128 51014 60006 84830 91500=
07460,1996-08-23 18:00:00,22,1013.2,0.3,53,12,500,18.52,,,260,12.7,26.3,,,,,,,,,wg-a,,,,AAXX 23184 07460 12600 62610 10220 20120 39756 40132 53003 60006 85830 91800 333 10263 20127=
07460,1996-08-23 21:00:00,19,1015.5,1.8,60,11,500,7.408,,,200,,,,,,,,,,,wg-a,,,,AAXX 23214 07460 12600 62004 10190 20110 39775 40155 52018 60006 85830 92100=
07460,1996-08-24 00:00:00,16,1015.4,-0.4,72,11,20000,0,,,0,,,,,,,,,,,wg-a,,,,AAXX 24004 07460 12770 40000 10160 20110 39771 40154 56004 60006 83530 90000=
07460,1996-08-24 03:00:00,14,1015.4,-0.4,82,11,20000,3.704,,,270,,,,,,,,,,,wg-a,,,,AAXX 24034 07460 12670 42702 10140 20110 39767 40154 58004 60006 84500 90300=
07460,1996-08-24 06:00:00,14,1014.9,-0.4,82,11,500,7.408,,,110,12,21.3,,,,,,,,,wg-a,,,,AAXX 24064 07460 02600 21104 10140 20110 39763 40149 56004 60006 82530 90600 333 10213 20120 60004=
07460,1996-08-24 09:00:00,20,1014.8,0.6,53,10,35000,18.52,,,230,,,,,,,,,,,wg-a,,,,AAXX 24094 07460 12681 42310 10200 20100 39769 40148 51006 60006 84200 90900=
07460,1996-08-24 12:00:00,22,1013.3,-1.2,43,9,40000,11.112,,,260,,,,,,,,,,,wg-a,,,,AAXX 24124 07460 12682 /2606 10220 20090 39757 40133 56012 60006 85200 91200=
07460,1996-08-24 15:00:00,21,1012.5,-0.7,49,10,40000,18.52,,,240,,,,,,,,,,,wg-a,,,,AAXX 24154 07460 12682 62410 10210 20100 39749 40125 56007 60006 84242 91500=
07460,1996-08-24 18:00:00,19,1013.5,0.6,60,11,20000,11.112,,,240,13.8,23.5,,,,,,,,1,wg-a,,,,AAXX 24184 07460 02670 42406 10190 20110 39756 40135 51006 61000 70186 83830 91800 333 10235 20138 ////=
07460,1996-08-24 21:00:00,16,1015.5,1.5,72,11,15000,7.408,,,210,,,,,,,,,,,wg-a,,,,AAXX 24214 07460 12665 22104 10160 20110 39772 40155 51015 60006 81530 92100=
07460,1996-08-25 00:00:00,16,1016.2,0.5,72,11,15000,11.112,,,210,,,,,,,,,,,wg-a,,,,AAXX 25004 07460 12665 52106 10160 20110 39778 40162 51005 60006 84830 90000=
07460,1996-08-25 03:00:00,15,1016.1,-0.1,77,11,15000,7.408,,,200,,,,,,,,,,,wg-a,,,,AAXX 25034 07460 12665 72004 10150 20110 39776 40161 55001 60006 878// 90300=
07460,1996-08-25 06:00:00,14,1016.5,0.3,88,12,25000,7.408,,,200,13.6,19,,,,,,,,,wg-a,,,,AAXX 25064 07460 02675 42004 10140 20120 39779 40165 53003 60006 83830 90600 333 10190 20136 61000=
07460,1996-08-25 09:00:00,19,1016.4,0.4,52,9,500,11.112,,,280,,,,,,,,,,,wg-a,,,,AAXX 25094 07460 12600 52806 10190 20090 39783 40164 51004 60006 83202 90900=
07460,1996-08-25 12:00:00,20,1015.2,-0.9,53,10,500,7.408,,,280,,,,,,,,,,,wg-a,,,,AAXX 25124 07460 12600 72804 10200 20100 39774 40152 56009 60006 878// 91200=
07460,1996-08-25 15:00:00,21,1014.4,-0.8,49,10,25000,7.408,,,190,,,,,,,,,,,wg-a,,,,AAXX 25154 07460 12675 51904 10210 20100 39766 40144 58008 60006 84889 91500=
07460,1996-08-25 18:00:00,20,1013.9,-0.5,53,10,35000,14.816,,,250,14.4,21.5,,,,,,,,,wg-a,,,,AAXX 25184 07460 12681 42508 10200 20100 39761 40139 57005 60006 83880 91800 333 10215 20144=
07460,1996-08-25 21:00:00,17,1015.7,1.4,68,11,20000,11.112,,,20,,,,,,,,,,,wg-a,,,,AAXX 25214 07460 12670 70206 10170 20110 39775 40157 51014 60006 85531 92100=
07460,1996-08-26 00:00:00,14,1015.7,-0.4,88,12,20000,0,,,0,,,,,,,,,,,wg-a,,,,AAXX 26004 07460 12670 70000 10140 20120 39771 40157 58004 60006 8653/ 90000=
07460,1996-08-26 03:00:00,13,1015.2,-0.7,88,11,15000,0,,,0,,,,,,,,,,,wg-a,,,,AAXX 26034 07460 12565 70000 10130 20110 39764 40152 56007 60006 83534 90300=
07460,1996-08-26 06:00:00,13,1015.6,0.5,88,11,500,3.704,,,20,12.6,20.2,,,,,,,,,wg-a,,,,AAXX 26064 07460 02600 70202 10130 20110 39769 40156 53005 60006 81872 90600 333 10202 20126 60004=
07460,1996-08-26 09:00:00,17,1016.4,1.2,77,13,500,3.704,,,200,,,,,,,,,,3,wg-a,,,,AAXX 26094 07460 02600 72002 10170 20130 39781 40164 51012 61000 70362 81232 90900 333 ////=
07460,1996-08-26 12:00:00,19,1015.5,-0.5,68,13,40000,3.704,,,130,,,,,,,,,,1,wg-a,,,,AAXX 26124 07460 02682 61302 10190 20130 39776 40155 58005 61000 70162 83832 91200 333 ////=
07460,1996-08-26 15:00:00,21,1014.4,-0.9,49,10,40000,3.704,,,200,,,,,,,,,,,wg-a,,,,AAXX 26154 07460 12682 62002 10210 20100 39767 40144 57009 60006 84832 91500=
07460,1996-08-26 18:00:00,19,1014.5,-0.1,64,12,20000,3.704,,,200,13.2,21.4,,,,,,,,,wg-a,,,,AAXX 26184 07460 32670 52002 10190 20120 39766 40145 55001 83832 91800 333 10214 20132=
07460,1996-08-26 21:00:00,16,1016.6,1.6,88,14,15000,3.704,,,170,,,,0,,,,,,80,wg-a,,,,AAXX 26214 07460 12665 /1702 10160 20140 39782 40166 51016 60007 78086 85832 92100=
07460,1996-08-27 00:00:00,14,1016.9,0,94,13,20000,0,,,0,,,,,,,,,,1,wg-a,,,,AAXX 27004 07460 02670 60000 10140 20130 39782 40169 50000 60016 70186 84830 90000 333 61000=
07460,1996-08-27 03:00:00,13,1016.3,-0.7,94,12,15000,7.408,,,190,,,,,,,,,,,wg-a,,,,AAXX 27034 07460 12665 51904 10130 20120 39775 40163 58007 60006 83830 90300=
07460,1996-08-27 06:00:00,13,1016.2,-0.1,88,11,25000,3.704,,,160,11.7,19.3,,,,,,,,,wg-a,,,,AAXX 27064 07460 12775 /1602 10130 20110 39774 40162 55001 60004 83531 90600 333 10193 20117=
07460,1996-08-27 09:00:00,17,1015.9,0.2,77,13,25000,3.704,,,180,,,,,,,,,,,wg-a,,,,AAXX 27094 07460 12575 71802 10170 20130 39776 40159 50002 60006 84832 90900=
07460,1996-08-27 12:00:00,20,1014.8,-0.8,64,13,25000,11.112,,,180,,,,,,,,,,,wg-a,,,,AAXX 27124 07460 12575 71806 10200 20130 39769 40148 58008 60006 85836 91200=
07460,1996-08-27 15:00:00,17,1015.3,0.4,88,15,14000,11.112,,,10,,,,0,,,,,,17,wg-a,,,,AAXX 27154 07460 12464 70106 10170 20150 39772 40153 53004 60007 71798 8693/ 91500=
07460,1996-08-27 21:00:00,14,1018.5,1.7,88,12,15000,7.408,,,290,,,,,,,,,,,wg-a,,,,AAXX 27214 07460 12565 42904 10140 20120 39798 40185 51017 60006 83230 92100=
07460,1996-08-28 00:00:00,15,1018.7,0.2,67,9,15000,11.112,,,270,,,,,,,,,,,wg-a,,,,AAXX 28004 07460 12565 42706 10150 20090 39800 40187 50002 60006 84830 90000=
07460,1996-08-28 03:00:00,12,1018.7,-0.3,82,9,20000,3.704,,,250,,,,,,,,,,,wg-a,,,,AAXX 28034 07460 12670 22502 10120 20090 39797 40187 58003 60006 82200 90300=
07460,1996-08-28 06:00:00,12,1019.4,0.6,82,9,500,7.408,,,100,10.4,16.4,,,,,2,,,,wg-a,,,,AAXX 28064 07460 02500 51004 10120 20090 39803 40194 53006 60006 84840 90600 333 10164 20104 60024=
07460,1996-08-28 09:00:00,15,1019.6,0.6,67,9,500,7.408,,,330,,,,,,,,,,,wg-a,,,,AAXX 28094 07460 12500 53304 10150 20090 39810 40196 52006 60006 84840 90900=
07460,1996-08-28 12:00:00,17,1018.4,-0.9,55,8,35000,3.704,,,330,,,,,,,,,,,wg-a,,,,AAXX 28124 07460 12581 73302 10170 20080 39801 40184 57009 60006 85830 91200=
07460,1996-08-28 15:00:00,17,1017.7,-0.7,55,8,35000,0,,,0,,,,,,,,,,,wg-a,,,,AAXX 28154 07460 12681 /0000 10170 20080 39794 40177 56007 60006 85830 91500=
07460,1996-08-28 18:00:00,16,1017.7,-0.1,68,10,500,3.704,,,210,11.5,18.3,,,,,,,,,wg-a,,,,AAXX 28184 07460 12600 62102 10160 20100 39793 40177 56001 60006 85830 91800 333 10183 20115=
07460,1996-08-28 21:00:00,13,1018.9,0.7,77,9,20000,0,,,0,,,,,,,,,,,wg-a,,,,AAXX 28214 07460 12670 50000 10130 20090 39800 40189 51007 60006 83830 92100=
07460,1996-08-29 00:00:00,12,1018.8,-0.2,82,9,20000,3.704,,,80,,,,,,,,,,,wg-a,,,,AAXX 29004 07460 12570 50802 10120 20090 39798 40188 57002 60006 84830 90000=
07460,1996-08-29 03:00:00,13,1017.7,-1,82,10,20000,0,,,0,,,,,,,,,,,wg-a,,,,AAXX 29034 07460 12570 /0000 10130 20100 39788 40177 57010 60006 85830 90300=
07460,1996-08-29 06:00:00,12,1018,0.2,82,9,14000,0,,,0,11.3,16.5,,,,,,,,,wg-a,,,,AAXX 29064 07460 02564 70000 10120 20090 39790 40180 53002 60006 85830 90600 333 10165 20113 60004=
07460,1996-08-29 09:00:00,16,1017.8,0.4,63,9,14000,3.704,,,260,,,,,,,,,,,wg-a,,,,AAXX 29094 07460 12664 32602 10160 20090 39794 40178 50004 60006 83200 90900=
07460,1996-08-29 12:00:00,18,1017,-0.6,52,8,25000,11.112,,,270,,,,,,,,,,,wg-a,,,,AAXX 29124 07460 12675 52706 10180 20080 39788 40170 58006 60006 85800 91200=
07460,1996-08-29 15:00:00,19,1016.7,-0.2,49,8,25000,11.112,,,300,,,,,,,,,,,wg-a,,,,AAXX 29154 07460 12675 53006 10190 20080 39786 40167 55002 60006 85800 91500=
07460,1996-08-29 18:00:00,17,1017.4,0.5,48,6,25000,14.816,,,290,12,19.7,,,,,,,,,wg-a,,,,AAXX 29184 07460 12675 32908 10170 20060 39791 40174 53005 60006 83800 91800 333 10197 20120=
07460,1996-08-29 21:00:00,13,1019.7,1.6,72,8,15000,7.408,,,250,,,,,,,,,,,wg-a,,,,AAXX 29214 07460 12665 42504 10130 20080 39807 40197 51016 60006 83830 92100=
07460,1996-08-30 00:00:00,10,1020.3,0.2,87,8,15000,7.408,,,170,,,,,,,,,,,wg-a,,,,AAXX 30004 07460 12665 41704 10100 20080 39809 40203 50002 60006 82530 90000=
07460,1996-08-30 03:00:00,11,1020.3,0.2,87,9,15000,0,,,0,,,,,,,,,,,wg-a,,,,AAXX 30034 07460 12565 /0000 10110 20090 39810 40203 50002 60006 84530 90300=
07460,1996-08-30 06:00:00,11,1020.9,0.7,87,9,15000,3.704,,,20,9,17.3,,,,,,,,,wg-a,,,,AAXX 30064 07460 02565 70202 10110 20090 39817 40209 53007 60006 85830 90600 333 10173 20090 60004=
07460,1996-08-30 09:00:00,15,1021.3,0.8,77,11,15000,3.704,,,160,,,,,,,,,,,wg-a,,,,AAXX 30094 07460 12665 71602 10150 20110 39826 40213 53008 60006 8683/ 90900=
07460,1996-08-30 12:00:00,17,1021.4,0.3,63,10,15000,0,,,0,,,,,,,,,,1,wg-a,,,,AAXX 30124 07460 02665 70000 10170 20100 39829 40214 50003 61000 70186 8683/ 91200 333 6100=
07460,1996-08-30 15:00:00,18,1021.1,-0.2,56,9,20000,3.704,,,10,,,,,,,,,,,wg-a,,,,AAXX 30154 07460 12670 60102 10180 20090 39827 40211 56002 60006 85830 91500=
07460,1996-08-30 18:00:00,18,1021.4,0.3,52,8,25000,7.408,,,350,11.4,18.5,,,,,,,,,wg-a,,,,AAXX 30184 07460 32675 63504 10180 20080 39830 40214 53003 85830 91800 333 10185 20114=
07460,1996-08-30 21:00:00,16,1023.2,1.5,63,9,20000,7.408,,,340,,,,,,,,,,,wg-a,,,,AAXX 30214 07460 12670 /3404 10160 20090 39845 40232 51015 60006 85830 92100=
07460,1996-08-31 00:00:00,12,1023.9,0.2,76,8,20000,3.704,,,320,,,,,,,,,,,wg-a,,,,AAXX 31004 07460 12670 33202 10120 20080 39847 40239 51002 60006 83800 90000=
07460,1996-08-31 03:00:00,9,1024.2,-0.1,93,8,20000,3.704,,,120,,,,,,,,,,,wg-a,,,,AAXX 31034 07460 12670 /1202 10090 20080 39846 40242 56001 60006 81102 90300=
07460,1996-08-31 06:00:00,10,1024.7,0.6,87,8,20000,0,,,0,8.2,17.6,,,,,,,,,wg-a,,,,AAXX 31064 07460 02670 70000 10100 20080 39852 40247 53006 60006 878// 90600 333 10176 20082 61000=
07460,1996-08-31 09:00:00,17,1024.1,0.3,59,9,500,7.408,,,60,,,,,,,,,,,wg-a,,,,AAXX 31094 07460 12600 /0604 10170 20090 39855 40241 51003 60006 81201 90900=
07460,1996-08-31 12:00:00,18,1023.5,-0.4,56,9,500,14.816,,,330,,,,,,,,,,,wg-a,,,,AAXX 31124 07460 12600 /3308 10180 20090 39851 40235 56004 60006 86800 91200=
07460,1996-08-31 15:00:00,19,1023.1,-0.3,49,8,500,14.816,,,10,,,,,,,,,,,wg-a,,,,AAXX 31154 07460 12600 60108 10190 20080 39848 40231 56003 60006 85830 91500=
07460,1996-08-31 18:00:00,18,1023.3,-0,56,9,500,11.112,,,10,10.1,20.3,,,,,,,,,wg-a,,,,AAXX 31184 07460 12600 60106 10180 20090 39848 40233 55000 60006 84830 91800 333 10203 20101=
07460,1996-08-31 21:00:00,15,1024.7,1,67,9,20000,11.112,,,340,,,,,,,,,,,wg-a,,,,AAXX 31214 07460 12670 43406 10150 20090 39858 40247 51010 60006 84500 92100=
07460,1996-09-01 00:00:00,12,1025.4,0.3,76,8,20000,3.704,,,360,,,,,,,,,,,wg-a,,,,AAXX 01004 07460 12770 23602 10120 20080 39861 40254 50003 60006 82500 90000=
07460,1996-09-01 03:00:00,10,1025.8,0.1,82,7,20000,3.704,,,100,,,,,,,,,,,wg-a,,,,AAXX 01034 07460 12670 21002 10100 20070 39862 40258 53001 60006 82500 90300=
07460,1996-09-01 06:00:00,6,1026.7,0.4,93,5,15000,0,,,0,6,17.5,,,,,,,,,wg-a,,,,AAXX 01064 07460 02565 20000 10060 20050 39866 40267 53004 60006 81501 90600 333 10175 20060 60004=
07460,1996-09-01 09:00:00,15,1025.8,0.2,72,10,20000,7.408,,,50,,,,,,,,,,,wg-a,,,,AAXX 01094 07460 12670 30504 10150 20100 39869 40258 51002 60006 82801 90900=
07460,1996-09-01 12:00:00,19,1024.1,-1.1,43,6,25000,18.52,,,20,,,,,,,,,,,wg-a,,,,AAXX 01124 07460 12675 30210 10190 20060 39857 40241 56011 60006 83801 91200=
07460,1996-09-01 15:00:00,19,1022.8,-1.1,40,5,500,22.224,,,20,,,,,,,,,,,wg-a,,,,AAXX 01154 07460 12600 40212 10190 20050 39845 40228 57011 60006 84801 91500=
07460,1996-09-01 18:00:00,17,1022.8,-0.3,45,5,500,14.816,,,20,6.5,20.1,,,,,,,,,wg-a,,,,AAXX 01184 07460 12600 30208 10170 20050 39842 40228 55003 60006 82801 91800 333 10201 20065=
07460,1996-09-01 21:00:00,13,1024.2,0.9,54,4,20000,11.112,,,350,,,,,,,,,,,wg-a,,,,AAXX 01214 07460 12770 33506 10130 20040 39851 40242 51009 60006 82501 92100=
07460,1996-09-02 00:00:00,12,1023.8,-0.6,62,5,20000,11.112,,,340,,,,,,,,,,,wg-a,,,,AAXX 02004 07460 12670 33406 10120 20050 39845 40238 58006 60006 82501 90000=
07460,1996-09-02 03:00:00,10,1023.1,-0.9,76,6,20000,14.816,,,350,,,,,,,,,,,wg-a,,,,AAXX 02034 07460 12670 /3508 10100 20060 39836 40231 56009 60006 82501 90300=
07460,1996-09-02 06:00:00,8,1023.2,-0.1,87,6,25000,7.408,,,340,7.7,16.9,,,,,,,,,wg-a,,,,AAXX 02064 07460 02575 /3404 10080 20060 39835 40232 56001 60006 81540 90600 333 10169 20077 60004=
07460,1996-09-02 09:00:00,14,1021.9,-0.6,63,7,25000,18.52,,,20,,,,,,,,,,,wg-a,,,,AAXX 02094 07460 12575 /0210 10140 20070 39830 40219 56006 60006 81100 90900=
07460,1996-09-02 10:00:00,16,1018.7,-0.1,55,7,25000,11.112,,,50,8.6,19.1,,,,,,,,,wg-a,,,,AAXX 02104 07460 12675 70506 10160 20070 39802 40187 55001 60006 8787/ 91000 333 10191 20086=
07460,1996-09-02 12:00:00,18,1019.8,-1.6,45,6,500,18.52,,,20,,,,,,,,,,,wg-a,,,,AAXX 02124 07460 12600 40210 10180 20060 39814 40198 58016 60006 84100 91200=
07460,1996-09-02 15:00:00,18,1018.7,-1,42,5,500,18.52,,,360,,,,,,,,,,,wg-a,,,,AAXX 02154 07460 12700 73610 10180 20050 39804 40187 56010 60006 878// 91500=
07460,1996-09-02 18:00:00,16,1018.7,-0.1,55,7,25000,11.112,,,50,8.6,19.1,,,,,,,,,wg-a,,,,AAXX 02184 07460 12675 70506 10160 20070 39802 40187 55001 60006 8787/ 91800 333 10191 20086=
07460,1996-09-02 21:00:00,16,1019,0.3,55,7,20000,11.112,,,350,,,,,,,,,,,wg-a,,,,AAXX 02214 07460 12670 83506 10160 20070 39805 40190 52003 60006 878// 92100=
07460,1996-09-03 00:00:00,15,1018.3,-0.9,59,7,20000,7.408,,,360,,,,,,,,,,,wg-a,,,,AAXX 03004 07460 12670 73604 10150 20070 39796 40183 56009 60006 8553/ 90000=
07460,1996-09-03 03:00:00,12,1017.8,-0.8,71,7,20000,3.704,,,20,,,,,,,,,,,wg-a,,,,AAXX 03034 07460 12670 /0202 10120 20070 39788 40178 56008 60006 85530 90300=
07460,1996-09-03 06:00:00,11,1017.8,-0.2,76,7,15000,3.704,,,40,9.5,16.3,,,,,,,,,wg-a,,,,AAXX 03064 07460 02665 50402 10110 20070 39786 40178 55002 60006 83530 90600 333 10163 20095 60004=
07460,1996-09-03 09:00:00,15,1016.4,-0.8,63,8,15000,7.408,,,40,,,,,,,,,,,wg-a,,,,AAXX 03094 07460 12665 30404 10150 20080 39778 40164 58008 60006 82130 90900=
07460,1996-09-03 12:00:00,16,1015.8,-0.4,59,8,15000,11.112,,,20,,,,,,,,,,,wg-a,,,,AAXX 03124 07460 12465 70206 10160 20080 39774 40158 56004 60006 878// 91200=
07460,1996-09-03 15:00:00,17,1015.6,0,59,9,15000,11.112,,,20,,,,,,,,,,,wg-a,,,,AAXX 03154 07460 12665 80206 10170 20090 39773 40156 50000 60006 885// 91500=
07460,1996-09-03 18:00:00,16,1015.7,-0.1,63,9,20000,7.408,,,10,10.7,16.8,,,,,,,,,wg-a,,,,AAXX 03184 07460 12670 70104 10160 20090 39773 40157 55001 60006 878// 91800 333 10168 20107=
07460,1996-09-03 21:00:00,15,1016.1,0.3,67,9,20000,7.408,,,340,,,,,,,,,,,wg-a,,,,AAXX 03214 07460 12670 73404 10150 20090 39776 40161 50003 60006 875// 92100=
07460,1996-09-04 00:00:00,14,1015.6,-0.7,77,10,15000,7.408,,,310,,,,,,,,,,,wg-a,,,,AAXX 04004 07460 12665 33104 10140 20100 39769 40156 58007 60006 83500 90000=
07460,1996-09-04 03:00:00,13,1015.4,-0.3,82,10,10000,3.704,,,60,,,,,,,,,,,wg-a,,,,AAXX 04034 07460 12560 70602 10130 20100 39766 40154 55003 60006 875// 90300=
07460,1996-09-04 06:00:00,13,1015.3,-0,88,11,12000,3.704,,,50,12.1,16,,,,,,,,,wg-a,,,,AAXX 04064 07460 02562 80502 10130 20110 39766 40153 55000 60006 885// 90600 333 10160 20121 60004=
07460,1996-09-04 09:00:00,15,1015.4,0.4,77,11,9000,3.704,,,80,,,,,,,,,,,wg-a,,,,AAXX 04094 07460 12559 80802 10150 20110 39770 40154 53004 60006 885// 90900=
07460,1996-09-04 12:00:00,19,1014.8,-0.2,64,12,9000,7.408,,,360,,,,,,,,,,,wg-a,,,,AAXX 04124 07460 12559 73604 10190 20120 39768 40148 58002 60006 878// 91200=
07460,1996-09-04 15:00:00,19,1014.7,-0.1,60,11,15000,3.704,,,50,,,,,,,,,,,wg-a,,,,AAXX 04154 07460 12565 80502 10190 20110 39767 40147 58001 60006 888// 91500=
07460,1996-09-04 18:00:00,18,1014.3,-0.4,64,11,15000,3.704,,,350,13.2,19.1,,,,,,,,,wg-a,,,,AAXX 04184 07460 12665 /3502 10180 20110 39763 40143 58004 60006 86800 91800 333 10191 20132=
07460,1996-09-04 21:00:00,13,1015.7,0.5,82,10,15000,0,,,0,,,,,,,,,,,wg-a,,,,AAXX 04214 07460 12665 20000 10130 20100 39769 40157 51005 60006 82800 92100=
07460,1996-09-05 00:00:00,11,1015.9,0,94,10,15000,3.704,,,250,,,,,,,,,,,wg-a,,,,AAXX 05004 07460 12/65 02502 10110 20100 39769 40159 50000 60006 80000 90000=
07460,1996-09-05 03:00:00,8,1016.3,-0.1,93,7,15000,3.704,,,30,,,,,,,,,,,wg-a,,,,AAXX 05034 07460 12/65 00302 10080 20070 39768 40163 56001 60006 80000 90300=
07460,1996-09-05 06:00:00,9,1016.4,0.3,100,9,12000,3.704,,,70,7.3,18.4,,,,,,,,,wg-a,,,,AAXX 05064 07460 02662 /0702 10090 20090 39771 40164 51003 60006 86500 90600 333 10184 20073 60004=
07460,1996-09-05 09:00:00,18,1015.5,0.2,64,11,12000,3.704,,,210,,,,,,,,,,,wg-a,,,,AAXX 05094 07460 12/62 02102 10180 20110 39773 40155 53002 60006 80000 90900=
07460,1996-09-05 12:00:00,22,1013.9,-0.9,53,12,15000,11.112,,,30,,,,,,,,,,,wg-a,,,,AAXX 05124 07460 12665 /0306 10220 20120 39764 40139 58009 60006 81100 91200=
07460,1996-09-05 15:00:00,24,1012.4,-1.3,44,11,15000,14.816,,,10,,,,,,,,,,,wg-a,,,,AAXX 05154 07460 12665 30108 10240 20110 39752 40124 56013 60006 83200 91500=
07460,1996-09-05 18:00:00,22,1012.8,0.1,53,12,18000,7.408,,,10,9.4,24.3,,,,,,,,,wg-a,,,,AAXX 05184 07460 12668 20104 10220 20120 39753 40128 53001 60006 82200 91800 333 10243 20094=
07460,1996-09-05 21:00:00,18,1014.4,1.1,68,12,12000,0,,,0,,,,,,,,,,,wg-a,,,,AAXX 05214 07460 12662 /0000 10180 20120 39764 40144 51011 60006 86500 92100=
07460,1996-09-06 00:00:00,16,1015.9,1.1,72,11,15000,3.704,,,330,,,,,,,,,,,wg-a,,,,AAXX 06004 07460 12665 23302 10160 20110 39775 40159 51011 60006 82500 90000=
07460,1996-09-06 03:00:00,11,1016.9,0.3,87,9,15000,0,,,0,,,,,,,,,,,wg-a,,,,AAXX 06034 07460 12665 20000 10110 20090 39778 40169 53003 60006 82500 90300=
07460,1996-09-06 06:00:00,10,1018.1,1,93,9,10000,0,,,0,9.2,21.4,,,,,,,,,wg-a,,,,AAXX 06064 07460 02760 /0000 10100 20090 39788 40181 53010 60006 81500 90600 333 10214 20092 60004=
07460,1996-09-06 09:00:00,18,1017.8,0.7,64,11,15000,7.408,,,30,,,,,,,,,,,wg-a,,,,AAXX 06094 07460 12565 /0304 10180 20110 39797 40178 51007 60006 81100 90900=
07460,1996-09-06 12:00:00,22,1016.6,-0.7,38,7,20000,14.816,,,10,,,,,,,,,,,wg-a,,,,AAXX 06124 07460 12770 /0108 10220 20070 39789 40166 58007 60006 81100 91200=
07460,1996-09-06 15:00:00,24,1015.4,-1,22,1,500,14.816,,,30,,,,,,,,,,,wg-a,,,,AAXX 06154 07460 12/00 00308 10240 20010 39779 40154 56010 60006 80000 91500=
07460,1996-09-06 18:00:00,21,1015.6,-0.1,33,4,500,7.408,,,40,9.7,23.7,,,,,,,,,wg-a,,,,AAXX 06184 07460 12/00 00404 10210 20040 39778 40156 55001 60006 80000 91800 333 10237 20097=
07460,1996-09-06 21:00:00,12,1018.1,1.2,62,5,20000,0,,,0,,,,,,,,,,,wg-a,,,,AAXX 06214 07460 12/70 00000 10120 20050 39790 40181 51012 60006 80000 92100=
07460,1996-09-07 00:00:00,14,1018.6,0.8,47,3,15000,11.112,,,320,,,,,,,,,,,wg-a,,,,AAXX 07004 07460 12/65 03206 10140 20030 39798 40186 51008 60006 80000 90000=
07460,1996-09-07 03:00:00,8,1019.1,-0.3,71,3,15000,3.704,,,130,,,,,,,,,,,wg-a,,,,AAXX 07034 07460 12565 /1302 10080 20030 39795 40191 56003 60006 81500 90300=
07460,1996-09-07 06:00:00,5,1020.5,0.9,87,3,25000,3.704,,,110,5.1,21.1,,,,,,,,,wg-a,,,,AAXX 07064 07460 02/75 01102 10050 20030 39804 40205 53009 60006 80000 90600 333 10211 20051 60004=
07460,1996-09-07 09:00:00,15,1020,0.7,55,6,500,7.408,,,10,,,,,,,,,,,wg-a,,,,AAXX 07094 07460 12/00 00104 10150 20060 39812 40200 51007 60006 80000 90900=
07460,1996-09-07 12:00:00,20,1018.7,-0.5,32,3,35000,14.816,,,40,,,,,,,,,,,wg-a,,,,AAXX 07124 07460 12781 /0408 10200 20030 39807 40187 58005 60006 81100 91200=
07460,1996-09-07 15:00:00,21,1018.1,-0.5,26,1,40000,14.816,,,10,,,,,,,,,,,wg-a,,,,AAXX 07154 07460 12/82 00108 10210 20010 39801 40181 56005 60006 80000 91500=
07460,1996-09-07 18:00:00,18,1019,0.6,22,-4,50000,11.112,,,30,5.6,20.9,,,,,,,,,wg-a,,,,AAXX 07184 07460 12/84 00306 10180 21040 39806 40190 53006 60006 80000 91800 333 10209 20056=
07460,1996-09-07 21:00:00,12,1020.9,1.1,44,0,40000,3.704,,,310,,,,,,,,,,,wg-a,,,,AAXX 07214 07460 12/82 03102 10120 20000 39817 40209 51011 60006 80000 92100=
07460,1996-09-08 00:00:00,7,1021.6,-0,61,0,500,0,,,0,,,,,,,,,,,wg-a,,,,AAXX 08004 07460 12/00 00000 10070 20000 39817 40216 55000 60006 80000 90000=
07460,1996-09-08 03:00:00,4,1021.7,-0.4,75,0,500,3.704,,,190,,,,,,,,,,,wg-a,,,,AAXX 08034 07460 12/00 01902 10040 20000 39813 40217 56004 60006 80000 90300=
07460,1996-09-08 06:00:00,2,1021.8,-0.1,87,0,40000,0,,,0,1.6,17.6,,,,,,,,,wg-a,,,,AAXX 08064 07460 02/82 20000 10020 20000 39812 40218 55001 60006 80001 90600 333 10176 20016 60004=
07460,1996-09-08 09:00:00,13,1019.7,-0.5,54,4,40000,11.112,,,10,,,,,,,,,,,wg-a,,,,AAXX 08094 07460 12/82 50106 10130 20040 39807 40197 56005 60006 81031 90900=
07460,1996-09-08 12:00:00,18,1017.8,-1.2,34,2,40000,14.816,,,350,,,,,,,,,,,wg-a,,,,AAXX 08124 07460 12/82 33508 10180 20020 39795 40178 57012 60006 80002 91200=
07460,1996-09-08 15:00:00,20,1015.7,-1.6,28,1,40000,18.52,,,20,,,,,,,,,,,wg-a,,,,AAXX 08154 07460 12/82 20210 10200 20010 39778 40157 57016 60006 80002 91500=
07460,1996-09-08 18:00:00,18,1016.1,-0.1,30,0,40000,11.112,,,30,2,20.4,,,,,,,,,wg-a,,,,AAXX 08184 07460 12/82 20306 10180 20000 39778 40161 56001 60006 80002 91800 333 10204 20020=
07460,1996-09-08 21:00:00,12,1017.9,1,54,3,25000,3.704,,,10,,,,,,,,,,,wg-a,,,,AAXX 08214 07460 12/75 10102 10120 20030 39788 40179 51010 60006 80002 92100=
07460,1996-09-09 00:00:00,11,1017.6,-0.4,58,3,25000,14.816,,,340,,,,,,,,,,,wg-a,,,,AAXX 09004 07460 12/75 13408 10110 20030 39784 40176 58004 60006 80002 90000=
07460,1996-09-09 03:00:00,10,1017.3,-0.5,62,3,20000,7.408,,,340,,,,,,,,,,,wg-a,,,,AAXX 09034 07460 12/70 43404 10100 20030 39779 40173 57005 60006 80002 90300=
07460,1996-09-09 06:00:00,9,1018.7,1.2,66,3,500,3.704,,,110,8.6,17.5,,,,,,,,,wg-a,,,,AAXX 09064 07460 02/00 61102 10090 20030 39791 40187 53012 60006 83032 90600 333 10175 20086 60004=
07460,1996-09-09 09:00:00,14,1018.1,0.2,55,5,500,22.224,,,20,,,,,,,,,,,wg-a,,,,AAXX 09094 07460 12600 50212 10140 20050 39793 40181 53002 60006 81182 90900=
07460,1996-09-09 12:00:00,18,1016.8,-0.8,37,3,500,18.52,,,60,,,,,,,,,,,wg-a,,,,AAXX 09124 07460 12600 30610 10180 20030 39786 40168 58008 60006 82102 91200=
07460,1996-09-09 15:00:00,19,1015.9,-0.7,28,0,35000,14.816,,,40,,,,,,,,,,,wg-a,,,,AAXX 09154 07460 12681 /0408 10190 20000 39779 40159 58007 60006 81101 91500=
07460,1996-09-09 18:00:00,16,1017.2,0.8,39,2,35000,11.112,,,30,8.4,19.9,,,,,,,,,wg-a,,,,AAXX 09184 07460 12/81 10306 10160 20020 39787 40172 53008 60006 80001 91800 333 10199 20084=
07460,1996-09-09 21:00:00,9,1020.1,1.7,57,1,25000,0,,,0,,,,,,,,,,,wg-a,,,,AAXX 09214 07460 12/75 00000 10090 20010 39805 40201 51017 60006 80000 92100=
07460,1996-09-10 00:00:00,6,1020.9,0.3,75,2,25000,3.704,,,240,,,,,,,,,,,wg-a,,,,AAXX 10004 07460 12/75 02402 10060 20020 39809 40209 53003 60006 80000 90000=
07460,1996-09-10 03:00:00,3,1020.8,-0.4,87,1,25000,0,,,0,,,,,,,,,,,wg-a,,,,AAXX 10034 07460 12/75 00000 10030 20010 39804 40208 56004 60006 80000 90300=
07460,1996-09-10 06:00:00,3,1021.1,0.2,87,1,500,0,,,0,1.8,16.2,,,,,,,,,wg-a,,,,AAXX 10064 07460 02/00 10000 10030 20010 39806 40211 53002 60006 80001 90600 333 10162 20018 60004=
07460,1996-09-10 09:00:00,12,1020.4,0.7,62,5,500,3.704,,,120,,,,,,,,,,,wg-a,,,,AAXX 10094 07460 32/00 11202 10120 20050 39813 40204 51007 80001 90900=
07460,1996-09-10 12:00:00,19,1018,-1.5,32,2,500,7.408,,,330,,,,,,,,,,,wg-a,,,,AAXX 10124 07460 32/00 33304 10190 20020 39798 40180 58015 80001 91200=
07460,1996-09-10 15:00:00,20,1016.4,-1.4,32,3,500,7.408,,,50,,,,,,,,,,,wg-a,,,,AAXX 10154 07460 32/00 10504 10200 20030 39784 40164 56014 80001 91500=
07460,1996-09-10 18:00:00,18,1016.6,-0.1,37,3,500,7.408,,,350,,,,,,,,,,,wg-a,,,,AAXX 10184 07460 12/00 13504 10180 20030 39783 40166 55001 60006 80001 91800=
07460,1996-09-10 21:00:00,9,1018.3,0.6,61,2,25000,0,,,0,,,,,,,,,,,wg-a,,,,AAXX 10214 07460 12/75 10000 10090 20020 39789 40183 50006 60006 80001 92100=
07460,1996-09-11 00:00:00,7,1018.7,0.1,70,2,20000,0,,,0,,,,,,,,,,,wg-a,,,,AAXX 11004 07460 12/70 00000 10070 20020 39789 40187 53001 60006 80000 90000=
07460,1996-09-11 03:00:00,4,1019.2,0,87,2,20000,3.704,,,220,,,,,,,,,,,wg-a,,,,AAXX 11034 07460 12/70 02202 10040 20020 39790 40192 50000 60006 80000 90300=
07460,1996-09-11 06:00:00,5,1018.1,-0.8,81,2,35000,7.408,,,360,3.4,17.5,,,,,,,,,wg-a,,,,AAXX 11064 07460 02/81 13604 10050 20020 39781 40181 56008 60006 80001 90600 333 10175 20034 60004=
07460,1996-09-11 09:00:00,14,1016.6,-0.3,51,4,10000,3.704,,,150,,,,,,,,,,,wg-a,,,,AAXX 11094 07460 12/60 /1502 10140 20040 39778 40166 58003 60006 90900=
07460,1996-09-11 12:00:00,19,1014,,43,6,35000,7.408,,,20,,,,,,,,,,,wg-a,,,,AAXX 11124 07460 12781 /0204 10190 20060 39760 40140 60006 81100 91200=
07460,1996-09-11 15:00:00,20,1012,-1.7,40,6,35000,11.112,,,40,,,,,,,,,,,wg-a,,,,AAXX 11154 07460 12781 20406 10200 20060 39743 40120 56017 60006 81101 91500=
07460,1996-09-11 18:00:00,18,1011.4,-1,45,6,500,7.408,,,20,4.8,21.1,,,,,,,,,wg-a,,,,AAXX 11184 07460 12/00 30204 10180 20060 39733 40114 56010 60006 80001 91800 333 10211 20048=
07460,1996-09-11 21:00:00,13,1013,1,62,6,20000,7.408,,,330,,,,,,,,,,,wg-a,,,,AAXX 11214 07460 12/70 23304 10130 20060 39743 40130 51010 60006 80001 92100=
07460,1996-09-12 00:00:00,11,1012.5,-0.7,71,6,20000,0,,,0,,,,,,,,,,,wg-a,,,,AAXX 12004 07460 12/70 00000 10110 20060 39736 40125 58007 60006 80000 90000=
07460,1996-09-12 03:00:00,6,1012.3,-1,81,3,20000,3.704,,,130,,,,,,,,,,,wg-a,,,,AAXX 12034 07460 12/70 01302 10060 20030 39726 40123 56010 60006 80000 90300=
07460,1996-09-12 06:00:00,4,1011.9,-0.6,93,3,15000,0,,,0,4,17.5,,,,,,,,,wg-a,,,,AAXX 12064 07460 02/65 30000 10040 20030 39720 40119 57006 60006 80001 90600 333 10175 20040 60004=
07460,1996-09-12 12:00:00,18,1008.5,-1.4,42,5,25000,11.112,,,10,,,,,,,,,,,wg-a,,,,AAXX 12124 07460 12775 20106 10180 20050 39706 40085 58014 60006 82101 91200=
07460,1996-09-12 15:00:00,20,1007.1,-1.1,40,6,500,18.52,,,10,,,,,,,,,,,wg-a,,,,AAXX 12154 07460 12700 30110 10200 20060 39695 40071 56011 60006 81401 91500=
07460,1996-09-12 18:00:00,17,1008.1,0.6,48,6,500,14.816,,,340,4.2,19.9,,,,,,,,,wg-a,,,,AAXX 12184 07460 12700 73408 10170 20060 39701 40081 53006 60006 875// 91800 333 10199 20042=
07460,1996-09-12 21:00:00,16,1009.9,1.5,55,7,20000,11.112,,,340,,,,,,,,,,,wg-a,,,,AAXX 12214 07460 12770 73406 10160 20070 39717 40099 51015 60006 8553/ 92100=
07460,1996-09-13 00:00:00,13,1011.4,1.2,77,9,10000,7.408,,,360,,,,,,,,,,,wg-a,,,,AAXX 13004 07460 12560 83604 10130 20090 39728 40114 53012 60006 875// 90000=
07460,1996-09-13 03:00:00,12,1012.7,1.1,71,7,12000,11.112,,,350,,,,,,,,,,,wg-a,,,,AAXX 13034 07460 12662 73506 10120 20070 39738 40127 52011 60006 8453/ 90300=
07460,1996-09-13 06:00:00,11,1014,1.1,71,6,14000,3.704,,,340,10.7,17,,,,,,,,,wg-a,,,,AAXX 13064 07460 02564 73402 10110 20060 39750 40140 52011 60006 875// 90600 333 10170 20107 60004=
07460,1996-09-13 09:00:00,12,1015.3,1.3,67,6,14000,14.816,,,360,,,,,,,,,,25,wg-a,,,,AAXX 13094 07460 02564 73608 10120 20060 39763 40153 53013 61000 72586 878// 90900 333 ////=
07460,1996-09-13 12:00:00,14,1015,0,47,3,500,22.224,,,340,,,,,,,,,,2,wg-a,,,,AAXX 13124 07460 02600 /3412 10140 20030 39763 40150 50000 61000 70286 85100 91200 333 ////=
07460,1996-09-13 15:00:00,15,1015.1,0.2,39,1,500,18.52,,,340,,,,,,,,,,,wg-a,,,,AAXX 13154 07460 12600 43410 10150 20010 39765 40151 53002 60006 84100 91500=
07460,1996-09-13 18:00:00,14,1016.5,1.2,41,1,500,7.408,,,340,10.9,16.1,,,,,,,,,wg-a,,,,AAXX 13184 07460 32700 43404 10140 20010 39777 40165 53012 84500 91800 333 10161 20109=
07460,1996-09-13 21:00:00,10,1019,1.9,57,2,500,0,,,0,,,,,,,,,,,wg-a,,,,AAXX 13214 07460 12700 20000 10100 20020 39796 40190 51019 60006 82500 92100=
07460,1996-09-14 00:00:00,4,1020.7,0.9,75,0,25000,3.704,,,100,,,,,,,,,,,wg-a,,,,AAXX 14004 07460 12/75 01002 10040 20000 39805 40207 52009 60006 80000 90000=
07460,1996-09-14 03:00:00,2,1021.7,0.6,87,0,20000,0,,,0,,,,,,,,,,,wg-a,,,,AAXX 14034 07460 12/70 00000 10020 20000 39811 40217 51006 60006 80000 90300=
07460,1996-09-14 06:00:00,3,1022.8,1,87,1,15000,0,,,0,1.6,13.8,,,,,,,,,wg-a,,,,AAXX 14064 07460 02565 20000 10030 20010 39822 40228 53010 60006 82500 90600 333 10138 20016 61000=
07460,1996-09-14 09:00:00,12,1022.3,0.9,62,5,20000,3.704,,,130,,,,,,,,,,,wg-a,,,,AAXX 14094 07460 12570 21302 10120 20050 39831 40223 51009 60006 82800 90900=
07460,1996-09-14 12:00:00,15,1021.2,-0.7,51,5,500,11.112,,,20,,,,,,,,,,,wg-a,,,,AAXX 14124 07460 12600 /0206 10150 20050 39824 40212 58007 60006 85200 91200=
07460,1996-09-14 15:00:00,16,1020.3,-0.6,45,4,500,14.816,,,10,,,,,,,,,,,wg-a,,,,AAXX 14154 07460 12600 /0108 10160 20040 39817 40203 57006 60006 85800 91500=
07460,1996-09-14 18:00:00,14,1020.3,-0.2,55,5,500,7.408,,,10,2.6,17.4,,,,,,,,,wg-a,,,,AAXX 14184 07460 12600 20104 10140 20050 39815 40203 55002 60006 82800 91800 333 10174 20026=
07460,1996-09-14 21:00:00,9,1022.1,1,71,4,20000,3.704,,,130,,,,,,,,,,,wg-a,,,,AAXX 14214 07460 12770 21302 10090 20040 39825 40221 51010 60006 82500 92100=
07460,1996-09-15 00:00:00,5,1023,0.2,87,3,20000,3.704,,,180,,,,,,,,,,,wg-a,,,,AAXX 15004 07460 12/70 01802 10050 20030 39828 40230 51002 60006 80000 90000=
07460,1996-09-15 03:00:00,4,1023,-0.1,87,2,15000,3.704,,,260,,,,,,,,,,,wg-a,,,,AAXX 15034 07460 12/65 02602 10040 20020 39826 40230 57001 60006 80000 90300=
07460,1996-09-15 06:00:00,3,1023.5,0.3,93,2,20000,0,,,0,1.7,14.1,,,,,,,,,wg-a,,,,AAXX 15064 07460 02670 /0000 10030 20020 39829 40235 53003 60006 81500 90600 333 10141 20017 60004=
07460,1996-09-15 09:00:00,12,1022.7,0.6,71,7,20000,7.408,,,360,,,,,,,,,,,wg-a,,,,AAXX 15094 07460 12670 /3604 10120 20070 39835 40227 53006 60006 81101 90900=
07460,1996-09-15 12:00:00,18,1021.1,-0.8,52,8,500,7.408,,,10,,,,,,,,,,,wg-a,,,,AAXX 15124 07460 12700 30104 10180 20080 39827 40211 58008 60006 83100 91200=
07460,1996-09-15 15:00:00,19,1019.8,-0.9,43,6,500,14.816,,,30,,,,,,,,,,,wg-a,,,,AAXX 15154 07460 12700 /0308 10190 20060 39817 40198 56009 60006 81100 91500=
07460,1996-09-15 18:00:00,16,1020.1,-0,51,6,500,7.408,,,30,3,19.8,,,,,,,,,wg-a,,,,AAXX 15184 07460 12/00 10304 10160 20060 39816 40201 55000 60006 80001 91800 333 10198 20030=
07460,1996-09-15 21:00:00,12,1021.6,0.8,62,5,20000,7.408,,,330,,,,,,,,,,,wg-a,,,,AAXX 15214 07460 12/70 13304 10120 20050 39825 40216 51008 60006 80001 92100=
07460,1996-09-16 00:00:00,10,1021.6,-0.4,71,5,20000,0,,,0,,,,,,,,,,,wg-a,,,,AAXX 16004 07460 12/70 00000 10100 20050 39821 40216 58004 60006 80000 90000=
07460,1996-09-16 03:00:00,5,1021.5,-0.8,81,2,15000,3.704,,,130,,,,,,,,,,,wg-a,,,,AAXX 16034 07460 12/65 01302 10050 20020 39813 40215 57008 60006 80000 90300=
07460,1996-09-16 06:00:00,3,1021.3,-0.4,93,2,25000,0,,,0,2.7,16.4,,,,,,,,,wg-a,,,,AAXX 16064 07460 02/75 00000 10030 20020 39809 40213 56004 60006 80000 90600 333 10164 20027 60004=
07460,1996-09-16 09:00:00,12,1019.8,-0.2,67,6,25000,3.704,,,260,,,,,,,,,,,wg-a,,,,AAXX 16094 07460 12/75 02602 10120 20060 39807 40198 58002 60006 80000 90900=
07460,1996-09-16 12:00:00,18,1017.2,-1.7,49,7,500,3.704,,,20,,,,,,,,,,,wg-a,,,,AAXX 16124 07460 12600 /0202 10180 20070 39790 40172 57017 60006 81100 91200=
07460,1996-09-16 15:00:00,21,1014.4,-2.3,43,8,500,7.408,,,60,,,,,,,,,,,wg-a,,,,AAXX 16154 07460 12/00 00604 10210 20080 39767 40144 56023 60006 80000 91500=
07460,1996-09-16 18:00:00,17,1014.1,-0.9,48,6,500,7.408,,,10,3.3,21,,,,,,,,,wg-a,,,,AAXX 16184 07460 12/00 00104 10170 20060 39759 40141 58009 60006 80000 91800 333 10210 20033=
07460,1996-09-16 21:00:00,11,1014.7,-0.2,66,5,500,7.408,,,240,,,,,,,,,,,wg-a,,,,AAXX 16214 07460 12/00 02404 10110 20050 39756 40147 58002 60006 80000 92100=
07460,1996-09-17 00:00:00,8,1014.1,-0.9,81,5,500,3.704,,,310,,,,,,,,,,,wg-a,,,,AAXX 17004 07460 12/00 03102 10080 20050 39747 40141 56009 60006 80000 90000=
07460,1996-09-17 03:00:00,8,1012.5,-1.6,81,5,20000,7.408,,,190,,,,,,,,,,,wg-a,,,,AAXX 17034 07460 12/70 01904 10080 20050 39731 40125 58016 60006 80000 90300=
07460,1996-09-17 06:00:00,8,1011.7,-0.8,81,5,20000,3.704,,,50,5.8,17.2,,,,,,,,,wg-a,,,,AAXX 17064 07460 02/70 60502 10080 20050 39723 40117 56008 60006 80002 90600 333 10172 20058 60004=
07460,1996-09-17 09:00:00,16,1010.3,-0.2,55,7,20000,11.112,,,160,,,,,,,,,,,wg-a,,,,AAXX 17094 07460 12/70 71606 10160 20070 39720 40103 56002 60006 80002 90900=
07460,1996-09-17 12:00:00,23,1007.9,-1.3,41,9,20000,3.704,,,140,,,,,,,,,,,wg-a,,,,AAXX 17124 07460 12770 /1402 10230 20090 39707 40079 58013 60006 81202 91200=
07460,1996-09-17 15:00:00,23,1006.5,-1.3,38,8,20000,7.408,,,60,,,,,,,,,,,wg-a,,,,AAXX 17154 07460 12770 40604 10230 20080 39694 40065 58013 60006 82202 91500=
07460,1996-09-17 18:00:00,20,1007.1,0.2,49,9,20000,7.408,,,350,7.6,24.6,,,,,,,,,wg-a,,,,AAXX 17184 07460 12770 53504 10200 20090 39696 40071 53002 60006 84542 91800 333 10246 20076=
07460,1996-09-17 21:00:00,16,1008.4,0.8,72,11,20000,3.704,,,220,,,,,,,,,,,wg-a,,,,AAXX 17214 07460 12770 52202 10160 20110 39704 40084 50008 60006 83530 92100=
07460,1996-09-18 00:00:00,13,1009.1,0.2,82,10,20000,3.704,,,10,,,,,,,,,,,wg-a,,,,AAXX 18004 07460 12770 30102 10130 20100 39706 40091 51002 60006 82530 90000=
07460,1996-09-18 03:00:00,10,1009.1,-0.5,87,8,12000,0,,,0,,,,,,,,,,,wg-a,,,,AAXX 18034 07460 12662 40000 10100 20080 39701 40091 58005 60006 82530 90300=
07460,1996-09-18 06:00:00,8,1008.6,-0.7,93,7,15000,3.704,,,360,8.3,19.8,,,,,,,,,wg-a,,,,AAXX 18064 07460 02765 63602 10080 20070 39694 40086 56007 60006 83581 90600 333 10198 20083 60004=
07460,1996-09-18 09:00:00,17,1006.2,-1.1,72,12,15000,0,,,0,,,,,,,,,,,wg-a,,,,AAXX 18094 07460 12665 50000 10170 20120 39683 40062 57011 60006 85830 90900=
07460,1996-09-18 12:00:00,23,1003.6,-1.8,36,7,15000,11.112,,,170,,,,,,,,,,17,wg-a,,,,AAXX 18124 07460 12665 71706 10230 20070 39665 40036 56018 60006 71791 85980 91200=
07460,1996-09-18 15:00:00,18,1002.3,-1.8,68,12,20000,0,,,0,,,,1,,,,,,25,wg-a,,,,AAXX 18154 07460 12570 70000 10180 20120 39648 40023 56018 60017 72598 8588/ 91500=
07460,1996-09-18 18:00:00,15,1003.1,0.3,82,12,25000,7.408,,,20,8.7,23.6,,,,,,,,3,wg-a,,,,AAXX 18184 07460 32675 80204 10150 20120 39651 40031 52003 70398 8583/ 91800 333 10236 20087=
07460,1996-09-18 21:00:00,14,1003.4,0.1,82,11,10000,3.704,,,360,,,,,,,,,,60,wg-a,,,,AAXX 18214 07460 02560 83602 10140 20110 39652 40034 50001 61000 76062 8687/ 92100 333 ////=
07460,1996-09-19 00:00:00,12,1002.5,-1.1,94,11,10000,0,,,0,,,,,,,,,,60,wg-a,,,,AAXX 19004 07460 02560 80000 10120 20110 39641 40025 56011 61000 76062 8687/ 90000 333 6100=
07460,1996-09-19 03:00:00,12,1001.6,-0.9,94,11,12000,0,,,0,,,,0,,,,,,,wg-a,,,,AAXX 19034 07460 12562 70000 10120 20110 39632 40016 56009 60007 8383/ 90300=
07460,1996-09-19 06:00:00,13,1001,-0.4,94,12,9000,7.408,,,110,11.5,15.2,,2,,,3,,,61,wg-a,,,,AAXX 19064 07460 02659 81104 10130 20120 39628 40010 55004 60034 76162 8587/ 90600 333 10152 20115 60027=
07460,1996-09-19 09:00:00,13,1001.2,0.3,100,13,9000,3.704,,,50,,,,1,,,,,,21,wg-a,,,,AAXX 19094 07460 12459 80502 10130 20130 39631 40012 50003 60017 72162 8587/ 90900=
07460,1996-09-19 12:00:00,16,1001.8,0.9,77,12,15000,22.224,,,170,,,,2,,,,,,21,wg-a,,,,AAXX 19124 07460 02565 81712 10160 20120 39639 40018 53009 60036 72162 8587/ 91200 333 60027=
07460,1996-09-19 15:00:00,15,1001.2,-0.6,82,12,10000,22.224,,,190,,,,0,,,,,,80,wg-a,,,,AAXX 19154 07460 12560 81912 10150 20120 39633 40012 56006 60007 78086 8587/ 91500=
07460,1996-09-19 18:00:00,14,1002.6,1.2,94,13,10000,11.112,,,200,12.6,16.1,,2,,,,,,25,wg-a,,,,AAXX 19184 07460 12560 82006 10140 20130 39645 40026 53012 60027 72586 8587/ 91800 333 10161 20126=
07460,1996-09-19 21:00:00,12,1005.7,2.7,76,8,20000,11.112,,,240,,,,0,,,,,,,wg-a,,,,AAXX 19214 07460 12570 52406 10120 20080 39672 40057 51027 60007 84830 92100=
07460,1996-09-20 00:00:00,10,1006.6,0.6,76,6,20000,7.408,,,170,,,,,,,,,,,wg-a,,,,AAXX 20004 07460 12570 51704 10100 20060 39678 40066 51006 60006 85800 90000=
07460,1996-09-20 03:00:00,7,1007.1,-0.1,87,5,15000,7.408,,,260,,,,,,,,,,,wg-a,,,,AAXX 20034 07460 12565 22604 10070 20050 39677 40071 58001 60006 82500 90300=
07460,1996-09-20 06:00:00,9,1006.7,-0.1,87,7,14000,3.704,,,200,5.8,14.2,,,,,6,,,,wg-a,,,,AAXX 20064 07460 12564 72002 10090 20070 39676 40067 56001 60064 875// 90600 333 10142 20058=
07460,1996-09-20 09:00:00,13,1005.7,-0.3,67,7,25000,14.816,,,180,,,,,,,,,,,wg-a,,,,AAXX 20094 07460 12675 31808 10130 20070 39673 40057 56003 60006 81102 90900=
07460,1996-09-20 12:00:00,18,1003.5,-1.5,37,3,500,14.816,,,130,,,,,,,,,,,wg-a,,,,AAXX 20124 07460 12700 41308 10180 20030 39658 40035 56015 60006 83101 91200=
07460,1996-09-20 15:00:00,18,1002.7,-0.9,42,5,500,7.408,,,140,,,,,,,,,,,wg-a,,,,AAXX 20154 07460 12700 /1404 10180 20050 39650 40027 57009 60006 81137 91500=
07460,1996-09-20 18:00:00,16,1002.9,-0,51,6,25000,7.408,,,50,8.6,18.5,,,,,,,,,wg-a,,,,AAXX 20184 07460 12675 70504 10160 20060 39649 40029 55000 60006 84532 91800 333 10185 20086=
07460,1996-09-20 21:00:00,14,1003.4,0.3,63,7,20000,7.408,,,50,,,,,,,,,,61,wg-a,,,,AAXX 20214 07460 02670 70504 10140 20070 39652 40034 50003 61000 76186 8453/ 92100 333 ////=
07460,1996-09-21 00:00:00,10,1002.9,-0.9,87,8,20000,7.408,,,270,,,,,,,,,,2,wg-a,,,,AAXX 21004 07460 02670 62704 10100 20080 39642 40029 56009 61000 70286 84531 90000 333 6100=
07460,1996-09-21 03:00:00,9,1001.6,-1.4,87,7,20000,0,,,0,,,,,,,,,,,wg-a,,,,AAXX 21034 07460 12670 /0000 10090 20070 39629 40016 58014 60006 83530 90300=
07460,1996-09-21 06:00:00,9,1001.8,-0,93,8,15000,0,,,0,8.1,15.8,,,,,,,,,wg-a,,,,AAXX 21064 07460 02665 70000 10090 20080 39630 40018 55000 61000 82531 90600 333 10158 20081 ////=
07460,1996-09-21 09:00:00,14,1001.1,0.1,77,10,15000,7.408,,,200,,,,,,,,,,,wg-a,,,,AAXX 21094 07460 12665 52004 10140 20100 39630 40011 53001 60006 83831 90900=
07460,1996-09-21 12:00:00,19,999.5,-0.9,56,10,20000,7.408,,,110,,,,,,,,,,,wg-a,,,,AAXX 21124 07460 12670 51104 10190 20100 39621 49995 57009 60006 84831 91200=
07460,1996-09-21 15:00:00,15,1000.7,0.7,88,13,6000,11.112,,,270,,,,2,,,,,,61,wg-a,,,,AAXX 21154 07460 12556 72706 10150 20130 39628 40007 53007 60027 76186 8683/ 91500=
07460,1996-09-21 18:00:00,14,1001.6,0.7,88,12,8000,3.704,,,20,9.1,19.5,,0,,,,,,60,wg-a,,,,AAXX 21184 07460 12458 70202 10140 20120 39635 40016 53007 60007 76086 875// 91800 333 10195 20091=
07460,1996-09-21 21:00:00,13,1002.2,0.5,100,13,10000,3.704,,,200,,,,1,,,,,,21,wg-a,,,,AAXX 21214 07460 12460 82002 10130 20130 39640 40022 51005 60017 72162 878// 92100=
07460,1996-09-22 00:00:00,13,1002.3,0.1,94,12,8000,7.408,,,320,,,,1,,,,,,,wg-a,,,,AAXX 22004 07460 02458 83204 10130 20120 39641 40023 53001 60026 878// 90000 333 60017=
07460,1996-09-22 03:00:00,12,1003,0.5,94,11,10000,11.112,,,350,,,,1,,,,,,60,wg-a,,,,AAXX 22034 07460 12460 83506 10120 20110 39646 40030 53005 60017 76062 875// 90300=
07460,1996-09-22 06:00:00,11,1004.2,1.1,100,11,6000,7.408,,,20,11.4,14,,0,,,5,,,1,wg-a,,,,AAXX 22064 07460 02556 80204 10110 20110 39657 40042 53011 60054 70162 875// 90600 333 10140 20114 60007=
07460,1996-09-22 09:00:00,13,1005.5,1.5,88,11,7000,14.816,,,360,,,,,,,,,,,wg-a,,,,AAXX 22094 07460 12457 73608 10130 20110 39671 40055 53015 60006 878// 90900=
07460,1996-09-22 12:00:00,13,1006.7,1.1,72,8,10000,14.816,,,10,,,,,,,,,,,wg-a,,,,AAXX 22124 07460 12460 80108 10130 20080 39682 40067 51011 60006 878// 91200=
07460,1996-09-22 15:00:00,14,1006.8,0.2,63,7,12000,11.112,,,360,,,,,,,,,,,wg-a,,,,AAXX 22154 07460 12562 63606 10140 20070 39684 40068 52002 60006 85830 91500=
07460,1996-09-22 18:00:00,12,1008.6,1.5,82,9,9000,3.704,,,360,10.8,14.4,,,,,,,,,wg-a,,,,AAXX 22184 07460 12559 83602 10120 20090 39699 40086 53015 60006 8487/ 91800 333 10144 20108=
07460,1996-09-22 21:00:00,10,1010.1,1.3,93,9,10000,7.408,,,360,,,,0,,,,,,60,wg-a,,,,AAXX 22214 07460 12360 83604 10100 20090 39712 40101 51013 60007 76062 875// 92100=
07460,1996-09-23 00:00:00,9,1010.3,0,100,9,7000,0,,,0,,,,1,,,,,,21,wg-a,,,,AAXX 23004 07460 02557 80000 10090 20090 39712 40103 50000 60016 72162 8457/ 90000 333 60017=
07460,1996-09-23 03:00:00,9,1010,-0.3,93,8,9000,3.704,,,150,,,,,,,,,,,wg-a,,,,AAXX 23034 07460 12559 71502 10090 20080 39709 40100 58003 60006 8557/ 90300=
07460,1996-09-23 06:00:00,9,1010.8,0.7,87,7,6000,3.704,,,180,8.8,11.6,,,,,1,,,,wg-a,,,,AAXX 23064 07460 12556 71802 10090 20070 39716 40108 53007 60014 8653/ 90600 333 10116 20088=
07460,1996-09-23 09:00:00,10,1011.2,0.5,82,7,7000,3.704,,,70,,,,,,,,,,,wg-a,,,,AAXX 23094 07460 12557 70702 10100 20070 39722 40112 53005 60006 8653/ 90900=
07460,1996-09-23 12:00:00,11,1011,-0.1,71,6,7000,11.112,,,360,,,,,,,,,,,wg-a,,,,AAXX 23124 07460 12457 83606 10110 20060 39721 40110 58001 60006 875// 91200=
07460,1996-09-23 15:00:00,12,1011,0.2,67,6,15000,3.704,,,10,,,,,,,,,,,wg-a,,,,AAXX 23154 07460 12565 70102 10120 20060 39723 40110 53002 60006 8653/ 91500=
07460,1996-09-23 18:00:00,11,1012.2,0.9,71,6,15000,3.704,,,150,8.8,13,,,,,,,,,wg-a,,,,AAXX 23184 07460 12665 71502 10110 20060 39732 40122 53009 60006 8553/ 91800 333 10130 20088=
07460,1996-09-23 21:00:00,8,1013.5,0.8,87,6,10000,3.704,,,260,,,,,,,,,,,wg-a,,,,AAXX 23214 07460 12660 62602 10080 20060 39741 40135 50008 60006 84532 92100=
07460,1996-09-24 00:00:00,7,1013.5,-0.1,87,5,11000,3.704,,,360,,,,,,,,,,,wg-a,,,,AAXX 24004 07460 12/61 /3602 10070 20050 39739 40135 58001 60006 90000=
07460,1996-09-24 03:00:00,8,1012.8,-0.5,87,6,11000,3.704,,,160,,,,,,,,,,,wg-a,,,,AAXX 24034 07460 12/61 /1602 10080 20060 39735 40128 58005 60006 90300=
07460,1996-09-24 06:00:00,7,1013.5,0.5,87,5,10000,3.704,,,250,6,10.4,,,,,,,,,wg-a,,,,AAXX 24064 07460 02660 22502 10070 20050 39739 40135 53005 60006 82800 90600 333 10104 20060 60004=
07460,1996-09-24 09:00:00,12,1012.9,0.3,71,7,15000,11.112,,,180,,,,,,,,,,,wg-a,,,,AAXX 24094 07460 12665 /1806 10120 20070 39741 40129 51003 60006 81100 90900=
07460,1996-09-24 12:00:00,16,1012.2,-0.3,48,5,25000,7.408,,,30,,,,,,,,,,,wg-a,,,,AAXX 24124 07460 12675 40304 10160 20050 39739 40122 57003 60006 84800 91200=
07460,1996-09-24 15:00:00,18,1011.4,-0.6,42,5,500,7.408,,,20,,,,,,,,,,,wg-a,,,,AAXX 24154 07460 12700 30204 10180 20050 39733 40114 57006 60006 83100 91500=
07460,1996-09-24 18:00:00,13,1012.8,0.8,62,6,25000,0,,,0,5.8,18.1,,,,,,,,,wg-a,,,,AAXX 24184 07460 12775 30000 10130 20060 39741 40128 53008 60006 83500 91800 333 10181 20058=
07460,1996-09-24 21:00:00,10,1013.4,0.1,82,7,15000,0,,,0,,,,,,,,,,,wg-a,,,,AAXX 24214 07460 12/65 30000 10100 20070 39742 40134 50001 60006 83030 92100=
07460,1996-09-25 00:00:00,8,1012.4,-1.1,87,6,15000,3.704,,,20,,,,,,,,,,,wg-a,,,,AAXX 25004 07460 12/65 40202 10080 20060 39731 40124 58011 60006 84030 90000=
07460,1996-09-25 03:00:00,10,1010.3,-1.8,82,7,15000,7.408,,,190,,,,,,,,,,,wg-a,,,,AAXX 25034 07460 12665 71904 10100 20070 39713 40103 58018 60006 8353/ 90300=
07460,1996-09-25 06:00:00,9,1010.3,-0.3,93,8,6000,11.112,,,190,8.1,13,,2,,,2,,,61,wg-a,,,,AAXX 25064 07460 02556 81906 10090 20080 39712 40103 58003 60024 76161 8583/ 90600 333 10130 20081 60027=
07460,1996-09-25 09:00:00,11,1010.7,0.6,94,10,6000,18.52,,,180,,,,0,,,,,,61,wg-a,,,,AAXX 25094 07460 12456 81810 10110 20100 39718 40107 53006 60007 76162 8657/ 90900=
07460,1996-09-25 12:00:00,14,1010.4,0.2,82,11,10000,18.52,,,180,,,,2,,,,,,1,wg-a,,,,AAXX 25124 07460 02360 71810 10140 20110 39720 40104 50002 60026 70162 8587/ 91200 333 60027=
07460,1996-09-25 15:00:00,14,1010.3,-0.1,88,12,10000,7.408,,,80,,,,3,,,,,,80,wg-a,,,,AAXX 25154 07460 12460 80804 10140 20120 39719 40103 55001 60037 78086 878// 91500=
07460,1996-09-25 18:00:00,12,1013.3,2.6,94,11,15000,3.704,,,90,9.3,14.9,,9,,,,,,21,wg-a,,,,AAXX 25184 07460 12565 70902 10120 20110 39745 40133 53026 60097 72186 8383/ 91800 333 10149 20093=
07460,1996-09-25 21:00:00,11,1015.7,2.2,94,10,12000,3.704,,,250,,,,,,,,,,11,wg-a,,,,AAXX 25214 07460 12662 32502 10110 20100 39766 40157 51022 60006 71111 83800 92100=
07460,1996-09-26 00:00:00,9,1017.4,1.3,100,9,15000,0,,,0,,,,,,,,,,,wg-a,,,,AAXX 26004 07460 12565 50000 10090 20090 39780 40174 51013 60006 85800 90000=
07460,1996-09-26 03:00:00,9,1018.5,1.1,100,9,15000,0,,,0,,,,,,,,,,,wg-a,,,,AAXX 26034 07460 12665 /0000 10090 20090 39791 40185 51011 60006 85800 90300=
07460,1996-09-26 06:00:00,9,1020.2,1.5,100,9,11000,3.704,,,70,8.3,12.4,,,,,14,,,,wg-a,,,,AAXX 26064 07460 02/61 /0702 10090 20090 39806 40202 51015 60006 90600 333 10124 20083 60144=
07460,1996-09-26 09:00:00,14,1020.5,1,82,11,15000,0,,,0,,,,0,,,,,,,wg-a,,,,AAXX 26094 07460 12565 50000 10140 20110 39817 40205 51010 60007 85802 90900=
07460,1996-09-26 12:00:00,19,1019,-0.9,56,10,20000,7.408,,,360,,,,,,,,,,,wg-a,,,,AAXX 26124 07460 12670 53604 10190 20100 39808 40190 58009 60006 84202 91200=
07460,1996-09-26 15:00:00,18,1018.4,-0.7,56,9,20000,7.408,,,50,,,,,,,,,,,wg-a,,,,AAXX 26154 07460 12670 50504 10180 20090 39801 40184 56007 60006 84802 91500=
07460,1996-09-26 18:00:00,14,1018.9,-0,72,9,25000,11.112,,,230,8.5,19.1,,,,,,,,,wg-a,,,,AAXX 26184 07460 32675 /2306 10140 20090 39801 40189 55000 81802 91800 333 10191 20085=
07460,1996-09-26 21:00:00,13,1019.2,0.2,72,8,15000,7.408,,,110,,,,,,,,,,,wg-a,,,,AAXX 26214 07460 12765 71104 10130 20080 39803 40192 50002 60006 8353/ 92100=
07460,1996-09-27 00:00:00,12,1019.1,-0.3,82,9,15000,14.816,,,180,,,,,,,,,,,wg-a,,,,AAXX 27004 07460 12765 /1808 10120 20090 39801 40191 58003 60006 82532 90000=
07460,1996-09-27 03:00:00,13,1017.7,-1.2,77,9,14000,3.704,,,190,,,,,,,,,,,wg-a,,,,AAXX 27034 07460 12564 71902 10130 20090 39788 40177 58012 60006 878// 90300=
07460,1996-09-27 06:00:00,13,1017.6,0.1,82,10,14000,3.704,,,130,12.1,14.1,,0,,,1,,,2,wg-a,,,,AAXX 27064 07460 02564 71302 10130 20100 39788 40176 53001 60014 70286 875// 90600 333 10141 20121 60007=
07460,1996-09-27 09:00:00,17,1018.7,1.6,72,12,10000,7.408,,,20,,,,,,,,,,,wg-a,,,,AAXX 27094 07460 12560 70204 10170 20120 39803 40187 52016 60006 86502 90900=
07460,1996-09-27 12:00:00,21,1017.4,-0.6,56,12,14000,11.112,,,290,,,,,,,,,,,wg-a,,,,AAXX 27124 07460 12664 52906 10210 20120 39797 40174 58006 60006 84531 91200=
07460,1996-09-27 15:00:00,19,1017.7,-0.1,68,13,10000,7.408,,,280,,,,,,,,,,,wg-a,,,,AAXX 27154 07460 12560 72804 10190 20130 39797 40177 57001 60006 86831 91500=
07460,1996-09-27 18:00:00,16,1020.3,2,68,10,15000,11.112,,,280,13.4,21.5,,,,,,,,,wg-a,,,,AAXX 27184 07460 12665 22806 10160 20100 39818 40203 53020 60006 82200 91800 333 10215 20134=
07460,1996-09-27 20:00:00,16,1020.3,2,68,10,15000,11.112,,,280,13.4,21.5,,,,,,,,,wg-a,,,,AAXX 27204 07460 12665 22806 10160 20100 39818 40203 53020 60006 82200 92000 333 10215 20134=
07460,1996-09-27 21:00:00,15,1023.4,2.8,72,10,15000,7.408,,,290,,,,,,,,,,,wg-a,,,,AAXX 27214 07460 12665 /2904 10150 20100 39846 40234 51028 60006 81200 92100=
07460,1996-09-28 00:00:00,13,1024.9,1.2,77,9,15000,3.704,,,320,,,,,,,,,,,wg-a,,,,AAXX 28004 07460 12665 23202 10130 20090 39858 40249 53012 60006 82200 90000=
07460,1996-09-28 03:00:00,12,1026.1,0.9,88,10,12000,0,,,0,,,,,,,,,,,wg-a,,,,AAXX 28034 07460 12562 50000 10120 20100 39867 40261 53009 60006 85800 90300=
07460,1996-09-28 06:00:00,11,1027.5,1.3,94,10,12000,3.704,,,60,10.1,16.4,,,,,,,,,wg-a,,,,AAXX 28064 07460 02462 70602 10110 20100 39880 40275 53013 60006 878// 90600 333 10164 20101 60004=
07460,1996-09-28 12:00:00,18,1027,-0.2,56,9,40000,7.408,,,70,,,,,,,,,,3,wg-a,,,,AAXX 28124 07460 12682 40704 10180 20090 39884 40270 58002 60006 70361 82801 91200=
07460,1996-09-28 15:00:00,19,1026.1,-0.8,46,7,40000,7.408,,,80,,,,,,,,,,,wg-a,,,,AAXX 28154 07460 12682 /0804 10190 20070 39876 40261 55008 60006 81102 91500=
07460,1996-09-28 18:00:00,15,1027,0.4,55,6,25000,3.704,,,30,11,19,,,,,,,,,wg-a,,,,AAXX 28184 07460 32/75 40302 10150 20060 39880 40270 52004 80002 91800 333 10190 20110=
07460,1996-09-28 21:00:00,9,1027.7,-0.2,81,6,20000,3.704,,,260,,,,,,,,,,,wg-a,,,,AAXX 28214 07460 12/70 42602 10090 20060 39879 40277 55002 60006 81032 92100=
07460,1996-09-29 00:00:00,8,1027.4,-0.4,81,5,20000,3.704,,,270,,,,,,,,,,,wg-a,,,,AAXX 29004 07460 12/70 22702 10080 20050 39874 40274 58004 60006 80001 90000=
07460,1996-09-29 03:00:00,7,1027,-0.4,87,5,20000,11.112,,,160,,,,,,,,,,,wg-a,,,,AAXX 29034 07460 12/70 31606 10070 20050 39869 40270 58004 60006 80002 90300=
07460,1996-09-29 06:00:00,8,1026.9,0.1,87,6,40000,7.408,,,170,6.5,15.1,,,,,,,,,wg-a,,,,AAXX 29064 07460 02/82 71704 10080 20060 39870 40269 52001 60006 81032 90600 333 10151 20065 60004=
07460,1996-09-29 09:00:00,13,1026.9,0.6,67,7,40000,11.112,,,160,,,,,,,,,,,wg-a,,,,AAXX 29094 07460 12/82 71606 10130 20070 39876 40269 51006 60006 80001 90900=
07460,1996-09-29 12:00:00,21,1024.6,-1.1,38,6,40000,3.704,,,140,,,,,,,,,,,wg-a,,,,AAXX 29124 07460 12/82 21402 10210 20060 39865 40246 58011 60006 80001 91200=
07460,1996-09-29 15:00:00,23,1022.6,-1.7,31,5,40000,3.704,,,80,,,,,,,,,,,wg-a,,,,AAXX 29154 07460 12/82 10802 10230 20050 39848 40226 56017 60006 80001 91500=
07460,1996-09-29 18:00:00,20,1022.7,-0.3,43,7,40000,7.408,,,300,7.8,23.6,,,,,,,,,wg-a,,,,AAXX 29184 07460 12/82 13004 10200 20070 39845 40227 56003 60006 80001 91800 333 10236 20078=
07460,1996-09-29 21:00:00,12,1023.9,0.2,62,5,20000,0,,,0,,,,,,,,,,,wg-a,,,,AAXX 29214 07460 12/70 00000 10120 20050 39847 40239 53002 60006 80000 92100=
07460,1996-09-30 00:00:00,13,1023.4,-0.5,54,4,20000,0,,,0,,,,,,,,,,,wg-a,,,,AAXX 30004 07460 12/70 00000 10130 20040 39842 40234 57005 60006 80000 90000=
07460,1996-09-30 03:00:00,7,1022.7,-1.4,76,3,20000,3.704,,,210,,,,,,,,,,,wg-a,,,,AAXX 30034 07460 12/70 02102 10070 20030 39828 40227 58014 60006 80000 90300=
07460,1996-09-30 06:00:00,9,1021.3,-1.2,71,4,60000,11.112,,,180,6.7,19.8,,,,,,,,,wg-a,,,,AAXX 30064 07460 02/86 11806 10090 20040 39816 40213 57012 60006 80001 90600 333 10198 20067 60004=
07460,1996-09-30 09:00:00,16,1019,-1.2,51,6,60000,11.112,,,190,,,,,,,,,,,wg-a,,,,AAXX 30094 07460 12/86 31906 10160 20060 39804 40190 58012 60006 82089 90900=
07460,1996-09-30 12:00:00,23,1014.2,-3.6,25,2,10000,7.408,,,260,,,,,,,,,,,wg-a,,,,AAXX 30124 07460 12/60 /2604 10230 20020 39767 40142 58036 60006 91200=
07460,1996-09-30 15:00:00,27,1010,-3.6,26,6,60000,7.408,,,10,,,,,,,,,,,wg-a,,,,AAXX 30154 07460 12/86 20104 10270 20060 39731 40100 56036 60006 82089 91500=
07460,1996-09-30 18:00:00,22,1009.4,-1,41,8,500,29.632,,,180,8.5,27.5,,,,,,,,,wg-a,,,,AAXX 30184 07460 12/00 21816 10220 20080 39720 40094 55010 60006 80002 91800 333 10275 20085=
07460,1996-09-30 21:00:00,18,1009.1,-0.9,64,11,15000,42.596,,66.672,190,,,,,,,,,,,wg-a,,,,AAXX 30214 07460 12/65 41923 10180 20110 39712 40091 58009 60006 80002 92100 333 91036=
07460,1996-10-01 00:00:00,19,1006.1,-2.6,64,12,15000,46.3,,64.82,180,,,,,,,,,,,wg-a,,,,AAXX 01004 07460 12665 71825 10190 20120 39684 40061 56026 60006 83532 90000 333 91035=
07460,1996-10-01 03:00:00,18,1005.5,-0.6,68,12,15000,18.52,,40.744,180,,,,,,,,,,,wg-a,,,,AAXX 01034 07460 12465 /1810 10180 20120 39678 40055 58006 60006 84802 90300 333 91022=
07460,1996-10-01 06:00:00,18,1002.8,-2.7,64,11,15000,31.484,,53.708,180,17.7,22.3,,,,,,,,,wg-a,,,,AAXX 01064 07460 02665 /1817 10180 20110 39652 40028 56027 60006 85532 90600 333 10223 20177 60004 91029=
07460,1996-10-01 09:00:00,15,1006,2.8,82,12,10000,7.408,,,270,,,,9,,,,,,29,wg-a,,,,AAXX 01094 07460 12560 82704 10150 20120 39679 40060 51028 60097 72996 8787/ 90900=
07460,1996-10-01 12:00:00,15,1007.9,1.8,77,11,20000,14.816,,,190,,,,0,,,,,,1,wg-a,,,,AAXX 01124 07460 02570 /1908 10150 20110 39697 40079 51018 60096 70196 85830 91200 333 60007=
07460,1996-10-01 15:00:00,13,1011.4,3.2,82,10,9000,22.224,,,320,,,,,,,,,,15,wg-a,,,,AAXX 01154 07460 12559 73212 10130 20100 39728 40114 53032 60006 71522 8683/ 91500=
07460,1996-10-01 18:00:00,11,1015.7,3.8,76,7,14000,7.408,,,30,11.2,18.5,,,,,,,,,wg-a,,,,AAXX 01184 07460 32564 70304 10110 20070 39767 40157 51038 8383/ 91800 333 10185 20112=
07460,1996-10-01 21:00:00,10,1017.5,1.6,87,8,14000,3.704,,,200,,,,,,,,,,60,wg-a,,,,AAXX 01214 07460 02564 72002 10100 20080 39783 40175 51016 61000 76062 878// 92100 333 ////=
07460,1996-10-02 00:00:00,9,1017.5,-0.2,81,6,14000,7.408,,,230,,,,,,,,,,1,wg-a,,,,AAXX 02004 07460 02564 32304 10090 20060 39780 40175 55002 61000 70186 83800 90000 333 6100=
07460,1996-10-02 03:00:00,10,1016.2,-1.1,71,5,14000,11.112,,,250,,,,,,,,,,,wg-a,,,,AAXX 02034 07460 12564 22506 10100 20050 39769 40162 58011 60006 82100 90300=
07460,1996-10-02 06:00:00,8,1015.8,-0.7,81,5,18000,3.704,,,110,6.3,11.2,,,,,9,,,,wg-a,,,,AAXX 02064 07460 12568 51102 10080 20050 39762 40158 58007 60094 81131 90600 333 10112 20063=
07460,1996-10-02 09:00:00,11,1015.8,0.5,76,7,15000,7.408,,,120,,,,,,,,,,,wg-a,,,,AAXX 02094 07460 12665 71204 10110 20070 39767 40158 53005 60006 8487/ 90900=
07460,1996-10-02 12:00:00,12,1016.8,1.1,76,8,12000,3.704,,,320,,,,1,,,,,,60,wg-a,,,,AAXX 02124 07460 12462 83202 10120 20080 39778 40168 52011 60017 76062 8487/ 91200=
07460,1996-10-02 18:00:00,12,1020.7,2.6,76,8,18000,7.408,,,340,7.5,13.5,,,,,,,,1,wg-a,,,,AAXX 02184 07460 02668 73404 10120 20080 39815 40207 53026 61000 70186 8683/ 91800 333 10135 20075 ////=
07460,1996-10-02 21:00:00,9,1023.6,2.5,93,8,12000,11.112,,,310,,,,1,,,,,,21,wg-a,,,,AAXX 02214 07460 12562 83106 10090 20080 39840 40236 51025 60017 72162 875// 92100=
07460,1996-10-03 00:00:00,7,1025.6,1.5,93,6,15000,3.704,,,100,,,,,,,,,,1,wg-a,,,,AAXX 03004 07460 12565 21002 10070 20060 39855 40256 51015 60016 70161 82530 90000=
07460,1996-10-03 03:00:00,4,1027.3,1.2,93,3,9000,3.704,,,320,,,,,,,,,,12,wg-a,,,,AAXX 03034 07460 12559 /3202 10040 20030 39867 40273 53012 60006 71200 81500 90300=
07460,1996-10-03 06:00:00,4,1028.8,1.5,100,4,15000,3.704,,,250,2.6,11.6,,0,,,2,,,11,wg-a,,,,AAXX 03064 07460 02465 /2502 10040 20040 39882 40288 51015 60024 71111 86500 90600 333 10116 20026 60007=
07460,1996-10-03 09:00:00,11,1028.8,1,87,9,20000,7.408,,,90,,,,,,,,,,,wg-a,,,,AAXX 03094 07460 12470 30904 10110 20090 39892 40288 51010 60006 83800 90900=
07460,1996-10-03 12:00:00,14,1027.8,-0.5,58,6,500,11.112,,,10,,,,,,,,,,,wg-a,,,,AAXX 03124 07460 12600 /0106 10140 20060 39887 40278 58005 60006 81101 91200=
07460,1996-10-03 15:00:00,16,1026.5,-1.1,48,5,500,11.112,,,30,,,,,,,,,,,wg-a,,,,AAXX 03154 07460 12700 20306 10160 20050 39876 40265 56011 60006 81101 91500=
07460,1996-10-03 18:00:00,13,1026.8,-0.1,67,7,500,3.704,,,320,4.1,16,,,,,,,,,wg-a,,,,AAXX 03184 07460 12/00 33202 10130 20070 39875 40268 55001 60006 80001 91800 333 10160 20041=
07460,1996-10-03 21:00:00,7,1027.8,0.2,93,6,500,3.704,,,210,,,,,,,,,,,wg-a,,,,AAXX 03214 07460 12/00 32102 10070 20060 39877 40278 53002 60006 80001 92100=
07460,1996-10-04 00:00:00,6,1027.6,-0.3,93,5,20000,3.704,,,360,,,,,,,,,,,wg-a,,,,AAXX 04004 07460 12/70 33602 10060 20050 39874 40276 58003 60006 80001 90000=
07460,1996-10-04 03:00:00,7,1026,-1.4,87,5,20000,7.408,,,170,,,,,,,,,,,wg-a,,,,AAXX 04034 07460 12/70 31704 10070 20050 39860 40260 56014 60006 80001 90300=
07460,1996-10-04 06:00:00,6,1026.2,-0.2,87,4,14000,3.704,,,360,4.7,12.5,,,,,,,,,wg-a,,,,AAXX 04064 07460 02564 /3602 10060 20040 39859 40262 58002 60006 86500 90600 333 10125 20047 60004=
07460,1996-10-04 09:00:00,12,1024.4,-0.7,71,7,14000,11.112,,,150,,,,,,,,,,,wg-a,,,,AAXX 04094 07460 12564 /1506 10120 20070 39851 40244 58007 60006 86500 90900=
07460,1996-10-04 12:00:00,15,1022.1,-1.7,63,8,14000,3.704,,,30,,,,,,,,,,,wg-a,,,,AAXX 04124 07460 12664 70302 10150 20080 39834 40221 57017 60006 86801 91200=
07460,1996-10-04 15:00:00,16,1019.7,-2.3,59,8,14000,7.408,,,260,,,,,,,,,,,wg-a,,,,AAXX 04154 07460 12664 72604 10160 20080 39811 40197 58023 60006 8684/ 91500=
07460,1996-10-04 18:00:00,14,1019,-0.8,72,9,12000,7.408,,,210,5.4,17.5,,,,,,,,,wg-a,,,,AAXX 04184 07460 12562 72104 10140 20090 39803 40190 56008 60006 878// 91800 333 10175 20054=
07460,1996-10-04 21:00:00,11,1019.3,-0.1,94,10,12000,18.52,,,40,,,,,,,,,,21,wg-a,,,,AAXX 04214 07460 02262 70410 10110 20100 39802 40193 55001 61000 72162 878// 92100 333 ////=
07460,1996-10-05 00:00:00,11,1018.5,-0.9,82,8,12000,3.704,,,90,,,,,,,,,,1,wg-a,,,,AAXX 05004 07460 02662 70902 10110 20080 39793 40185 58009 61000 70165 875// 90000 333 6100=
07460,1996-10-05 03:00:00,8,1017.7,-1.1,93,7,15000,3.704,,,80,,,,,,,,,,,wg-a,,,,AAXX 05034 07460 12665 /0802 10080 20070 39782 40177 58011 60006 85500 90300=
07460,1996-10-05 06:00:00,7,1017.6,-0.4,87,5,14000,7.408,,,110,6.6,14.4,,,,,,,,,wg-a,,,,AAXX 05064 07460 02564 31104 10070 20050 39779 40176 56004 61000 82832 90600 333 10144 20066 ////=
07460,1996-10-05 09:00:00,12,1018,0.9,67,6,14000,7.408,,,310,,,,,,,,,,,wg-a,,,,AAXX 05094 07460 12564 /3104 10120 20060 39789 40180 53009 60006 85232 90900=
07460,1996-10-05 12:00:00,12,1017.6,-0.4,62,5,15000,18.52,,,300,,,,,,,,,,,wg-a,,,,AAXX 05124 07460 12565 43010 10120 20050 39786 40176 58004 60006 83230 91200=
07460,1996-10-05 15:00:00,10,1017.4,-0.5,71,5,15000,18.52,,,330,,,,,,,,,,80,wg-a,,,,AAXX 05154 07460 02665 43310 10100 20050 39781 40174 55005 61000 78086 84830 91500 333 ////=
07460,1996-10-05 18:00:00,9,1018.5,0.8,71,4,15000,7.408,,,340,6.8,14.1,,,,,,,,1,wg-a,,,,AAXX 05184 07460 02565 33404 10090 20040 39790 40185 53008 61000 70186 83800 91800 333 10141 20068 ////=
07460,1996-10-05 21:00:00,6,1019.9,0.9,87,4,15000,7.408,,,310,,,,0,,,,,,1,wg-a,,,,AAXX 05214 07460 12565 33104 10060 20040 39799 40199 51009 60007 70186 83800 92100=
07460,1996-10-06 00:00:00,5,1019.5,-0.5,93,4,12000,3.704,,,90,,,,,,,,,,3,wg-a,,,,AAXX 06004 07460 12562 70902 10050 20040 39795 40195 58005 60016 70386 878// 90000=
07460,1996-10-06 03:00:00,7,1018.6,-0.7,87,5,12000,11.112,,,20,,,,,,,,,,,wg-a,,,,AAXX 06034 07460 12462 70206 10070 20050 39788 40186 56007 60006 875// 90300=
07460,1996-10-06 06:00:00,7,1019.6,0.9,87,5,10000,14.816,,,10,4.9,8.8,,,,,,,,,wg-a,,,,AAXX 06064 07460 12360 80108 10070 20050 39797 40196 51009 60004 875// 90600 333 10088 20049=
07460,1996-10-06 09:00:00,7,1020.9,1.2,87,5,11000,14.816,,,10,,,,,,,,,,,wg-a,,,,AAXX 06094 07460 12/61 /0108 10070 20050 39810 40209 52012 60006 90900=
07460,1996-10-06 12:00:00,9,1020.3,-0.2,81,6,10000,14.816,,,10,,,,,,,,,,,wg-a,,,,AAXX 06124 07460 12460 70108 10090 20060 39807 40203 55002 60006 878// 91200=
07460,1996-10-06 15:00:00,10,1019.5,-0.5,76,6,11000,18.52,,,360,,,,,,,,,,,wg-a,,,,AAXX 06154 07460 12/61 /3610 10100 20060 39801 40195 55005 60006 91500=
07460,1996-10-06 18:00:00,9,1021.1,1.4,81,6,12000,11.112,,,360,6.1,10.1,,,,,,,,60,wg-a,,,,AAXX 06184 07460 02562 73606 10090 20060 39816 40211 52014 61000 76062 875// 91800 333 10101 20061 ////=
07460,1996-10-06 21:00:00,9,1021.6,0.4,81,6,12000,7.408,,,350,,,,,,,,,,21,wg-a,,,,AAXX 06214 07460 02462 83504 10090 20060 39820 40216 51004 61000 72162 875// 92100 333 ////=
07460,1996-10-07 00:00:00,9,1021,-0.5,87,7,12000,3.704,,,340,,,,,,,,,,1,wg-a,,,,AAXX 07004 07460 02462 83402 10090 20070 39814 40210 58005 61000 70162 875// 90000 333 ////=
07460,1996-10-07 06:00:00,8,1019.9,-0.3,93,7,8000,3.704,,,20,8.3,9.2,,,,,,,,,wg-a,,,,AAXX 07064 07460 02558 80202 10080 20070 39803 40199 56003 61000 885// 90600 333 10092 20083 ////=
07460,1996-10-07 09:00:00,9,1020.4,0.5,87,7,10000,11.112,,,20,,,,,,,,,,,wg-a,,,,AAXX 07094 07460 12560 80206 10090 20070 39809 40204 52005 60006 885// 90900=
07460,1996-10-07 12:00:00,11,1019,-1.2,82,8,12000,11.112,,,40,,,,,,,,,,,wg-a,,,,AAXX 07124 07460 12562 80406 10110 20080 39798 40190 58012 60006 888// 91200=
07460,1996-10-07 15:00:00,12,1019,0.2,71,7,12000,14.816,,,20,,,,,,,,,,,wg-a,,,,AAXX 07154 07460 12562 80208 10120 20070 39799 40190 53002 60006 888// 91500=
07460,1996-10-07 18:00:00,11,1019.8,0.7,82,8,9000,7.408,,,360,8.4,11.8,,,,,,,,,wg-a,,,,AAXX 07184 07460 12459 83604 10110 20080 39806 40198 53007 60006 888// 91800 333 10118 20084=
07460,1996-10-07 21:00:00,11,1020.3,0.4,82,8,10000,7.408,,,350,,,,,,,,,,,wg-a,,,,AAXX 07214 07460 12460 83504 10110 20080 39810 40203 52004 60006 888// 92100=
07460,1996-10-08 00:00:00,11,1019.7,-0.5,82,8,10000,11.112,,,330,,,,,,,,,,,wg-a,,,,AAXX 08004 07460 12560 83306 10110 20080 39805 40197 56005 60006 888// 90000=
07460,1996-10-08 03:00:00,11,1018.5,-1.1,76,7,10000,11.112,,,330,,,,,,,,,,,wg-a,,,,AAXX 08034 07460 12560 83306 10110 20070 39794 40185 57011 60006 888// 90300=
07460,1996-10-08 06:00:00,11,1019,0.4,71,6,12000,14.816,,,340,10.5,11.5,,,,,,,,,wg-a,,,,AAXX 08064 07460 02662 83408 10110 20060 39798 40190 51004 60006 885// 90600 333 10115 20105 60004=
07460,1996-10-08 09:00:00,11,1020.2,1.2,71,6,13000,11.112,,,10,,,,,,,,,,,wg-a,,,,AAXX 08094 07460 12563 80106 10110 20060 39810 40202 53012 60006 885// 90900=
07460,1996-10-08 12:00:00,11,1019.8,-0.3,76,7,12000,18.52,,,350,,,,,,,,,,20,wg-a,,,,AAXX 08124 07460 02462 83510 10110 20070 39806 40198 58003 61000 72052 885// 91200 333 6100=
07460,1996-10-08 15:00:00,12,1019.7,-0,76,8,13000,14.816,,,350,,,,,,,,,,,wg-a,,,,AAXX 08154 07460 12463 83508 10120 20080 39806 40197 55000 60006 885// 91500=
07460,1996-10-08 18:00:00,12,1020.6,1,76,8,10000,3.704,,,40,10.7,12.2,,,,,,,,,wg-a,,,,AAXX 08184 07460 32560 70402 10120 20080 39815 40206 53010 875// 91800 333 10122 20107=
07460,1996-10-08 21:00:00,10,1020.9,0.1,87,8,8000,0,,,0,,,,,,,,,,,wg-a,,,,AAXX 08214 07460 12558 80000 10100 20080 39816 40209 53001 60006 885// 92100=
07460,1996-10-09 00:00:00,10,1021,0,87,8,8000,3.704,,,120,,,,,,,,,,,wg-a,,,,AAXX 09004 07460 12758 81202 10100 20080 39816 40210 50000 60006 885// 90000=
07460,1996-10-09 03:00:00,9,1020.9,-0.2,93,8,10000,7.408,,,130,,,,,,,,,,,wg-a,,,,AAXX 09034 07460 12760 71304 10090 20080 39814 40209 55002 60006 875// 90300=
07460,1996-10-09 06:00:00,6,1022,0.5,87,4,15000,0,,,0,5.4,11.9,,,,,,,,,wg-a,,,,AAXX 09064 07460 02765 30000 10060 20040 39823 40220 51005 60006 83500 90600 333 10119 20054 61000=
07460,1996-10-09 09:00:00,13,1021.9,0.9,67,7,20000,7.408,,,110,,,,,,,,,,,wg-a,,,,AAXX 09094 07460 12670 /1104 10130 20070 39828 40219 51009 60006 81101 90900=
07460,1996-10-09 12:00:00,15,1020.6,-0.9,59,7,20000,11.112,,,10,,,,,,,,,,,wg-a,,,,AAXX 09124 07460 12670 70106 10150 20070 39819 40206 58009 60006 83831 91200=
07460,1996-10-09 15:00:00,14,1020.5,-0.2,67,8,20000,14.816,,,360,,,,,,,,,,,wg-a,,,,AAXX 09154 07460 12670 73608 10140 20080 39817 40205 58002 60006 8183/ 91500=
07460,1996-10-09 18:00:00,12,1021.8,0.9,82,9,15000,7.408,,,310,5.4,16,,,,,,,,,wg-a,,,,AAXX 09184 07460 12565 83104 10120 20090 39826 40218 53009 60006 878// 91800 333 10160 20054=
07460,1996-10-09 21:00:00,11,1022.6,0.7,82,8,15000,0,,,0,,,,,,,,,,,wg-a,,,,AAXX 09214 07460 12665 70000 10110 20080 39833 40226 52007 60006 875// 92100=
07460,1996-10-10 00:00:00,11,1022.3,-0.4,87,9,15000,0,,,0,,,,,,,,,,,wg-a,,,,AAXX 10004 07460 12565 70000 10110 20090 39829 40223 57004 60006 875// 90000=
07460,1996-10-10 03:00:00,10,1021.6,-0.6,93,9,15000,0,,,0,,,,,,,,,,,wg-a,,,,AAXX 10034 07460 12665 70000 10100 20090 39822 40216 58006 60006 875// 90300=
07460,1996-10-10 06:00:00,10,1021.9,0.3,93,9,7000,0,,,0,10.2,12.4,,1,,,1,,,61,wg-a,,,,AAXX 10064 07460 02457 80000 10100 20090 39825 40219 52003 60014 76186 885// 90600 333 10124 20102 60017=
07460,1996-10-10 09:00:00,12,1022.9,1.2,94,11,4000,11.112,,,20,,,,2,,,,,,10,wg-a,,,,AAXX 10094 07460 12440 80206 10120 20110 39837 40229 51012 60027 71086 885// 90900=
07460,1996-10-10 12:00:00,14,1022.4,-0.3,82,11,10000,14.816,,,30,,,,,,,,,,3,wg-a,,,,AAXX 10124 07460 12460 70308 10140 20110 39834 40224 58003 60026 70386 878// 91200=
07460,1996-10-10 15:00:00,14,1021.6,-0.7,77,10,12000,11.112,,,340,,,,,,,,,,,wg-a,,,,AAXX 10154 07460 12562 /3406 10140 20100 39827 40216 56007 60006 86800 91500=
07460,1996-10-10 18:00:00,13,1022.4,0.6,77,9,12000,11.112,,,340,10.2,13.9,,,,,,,,,wg-a,,,,AAXX 10184 07460 32562 73406 10130 20090 39833 40224 53006 875// 91800 333 10139 20102=
07460,1996-10-10 21:00:00,12,1023.5,0.9,82,9,12000,7.408,,,330,,,,,,,,,,,wg-a,,,,AAXX 10214 07460 12562 73304 10120 20090 39842 40235 51009 60006 875// 92100=
07460,1996-10-11 00:00:00,11,1022.7,-0.9,82,8,10000,3.704,,,70,,,,,,,,,,,wg-a,,,,AAXX 11004 07460 12460 70702 10110 20080 39833 40227 56009 60006 875// 90000=
07460,1996-10-11 03:00:00,10,1021.9,-0.8,87,8,10000,3.704,,,80,,,,,,,,,,,wg-a,,,,AAXX 11034 07460 12460 70802 10100 20080 39825 40219 58008 60006 875// 90300=
07460,1996-10-11 06:00:00,10,1021.4,-0.5,93,9,7000,3.704,,,90,9.8,12.5,,,,,2,,,,wg-a,,,,AAXX 11064 07460 02457 70902 10100 20090 39820 40214 57005 60006 875// 90600 333 10125 20098 60024=
07460,1996-10-11 09:00:00,11,1022,0.7,87,9,6000,3.704,,,340,,,,,,,,,,,wg-a,,,,AAXX 11094 07460 12356 73402 10110 20090 39827 40220 52007 60006 875// 90900=
07460,1996-10-11 12:00:00,14,1020,-1.5,72,9,8000,3.704,,,90,,,,,,,,,,,wg-a,,,,AAXX 11124 07460 12458 30902 10140 20090 39812 40200 58015 60006 83200 91200=
07460,1996-10-11 15:00:00,16,1017.8,-1.9,55,7,15000,7.408,,,150,,,,,,,,,,,wg-a,,,,AAXX 11154 07460 12665 31504 10160 20070 39793 40178 56019 60006 81101 91500=
07460,1996-10-11 18:00:00,11,1018.6,0.1,76,7,15000,0,,,0,9.9,16.4,,,,,,,,,wg-a,,,,AAXX 11184 07460 12/65 40000 10110 20070 39795 40186 53001 60006 80002 91800 333 10164 20099=
07460,1996-10-11 21:00:00,7,1019.5,0.2,93,6,12000,0,,,0,,,,,,,,,,,wg-a,,,,AAXX 11214 07460 12/62 30000 10070 20060 39797 40195 52002 60006 80001 92100=
07460,1996-10-12 00:00:00,7,1018.4,-1.1,93,6,12000,11.112,,,190,,,,,,,,,,,wg-a,,,,AAXX 12004 07460 12/62 11906 10070 20060 39786 40184 57011 60006 80001 90000=
07460,1996-10-12 03:00:00,5,1017.7,-0.9,93,4,500,3.704,,,20,,,,,,,,,,12,wg-a,,,,AAXX 12034 07460 12/00 /0202 10050 20040 39777 40177 58009 60006 71200 80001 90300=
07460,1996-10-12 06:00:00,2,1017.9,-0.3,100,2,600,0,,,0,1.9,11.4,,0,,,,,,42,wg-a,,,,AAXX 12064 07460 02/06 40000 10020 20020 39774 40179 57003 60004 74240 80001 90600 333 10114 20019 60007=
07460,1996-10-12 09:00:00,11,1016.4,-0.1,87,9,10000,3.704,,,40,,,,,,,,,,2,wg-a,,,,AAXX 12094 07460 12/60 40402 10110 20090 39773 40164 58001 60006 70240 80001 90900=
07460,1996-10-12 12:00:00,20,1012.7,-2.3,49,9,20000,29.632,,,170,,,,,,,,,,2,wg-a,,,,AAXX 12124 07460 12/70 41716 10200 20090 39750 40127 58023 60006 70240 80001 91200=
07460,1996-10-12 15:00:00,19,1011.9,-0.9,46,7,20000,31.484,,,180,,,,,,,,,,,wg-a,,,,AAXX 12154 07460 12/70 41817 10190 20070 39741 40119 56009 60006 80001 91500=
07460,1996-10-12 18:00:00,14,1013.3,0.7,67,8,15000,14.816,,,180,1.7,21.3,,,,,,,,,wg-a,,,,AAXX 12184 07460 12/65 31808 10140 20080 39748 40133 52007 60006 80001 91800 333 10213 20017=
07460,1996-10-12 21:00:00,13,1013,-0.5,67,7,15000,31.484,,,180,,,,,,,,,,,wg-a,,,,AAXX 12214 07460 12/65 21817 10130 20070 39743 40130 58005 60006 80001 92100=
07460,1996-10-13 00:00:00,13,1012.2,-0.9,72,8,15000,14.816,,,160,,,,,,,,,,,wg-a,,,,AAXX 13004 07460 12/65 21608 10130 20080 39735 40122 58009 60006 80001 90000=
07460,1996-10-13 03:00:00,13,1010.7,-1.3,72,8,15000,25.928,,,170,,,,,,,,,,,wg-a,,,,AAXX 13034 07460 12/65 21714 10130 20080 39721 40107 56013 60006 80001 90300=
07460,1996-10-13 06:00:00,13,1010.3,-0.4,67,7,25000,22.224,,,160,11.8,14.3,,,,,,,,,wg-a,,,,AAXX 13064 07460 02/75 21612 10130 20070 39717 40103 56004 60006 81031 90600 333 10143 20118 60004=
07460,1996-10-13 09:00:00,16,1009.2,-0.5,68,10,25000,22.224,,,180,,,,,,,,,,,wg-a,,,,AAXX 13094 07460 12775 41812 10160 20100 39711 40092 58005 60006 81832 90900=
07460,1996-10-13 12:00:00,18,1007.6,-1.4,56,9,25000,35.188,,57.412,160,,,,,,,,,,,wg-a,,,,AAXX 13124 07460 12675 /1619 10180 20090 39697 40076 58014 60006 86831 91200 333 91031=
07460,1996-10-13 15:00:00,18,1006.4,-1,56,9,40000,22.224,,,160,,,,,,,,,,,wg-a,,,,AAXX 13154 07460 12682 71612 10180 20090 39686 40064 58010 60006 878// 91500=
07460,1996-10-13 18:00:00,15,1007,0.2,63,8,500,14.816,,,170,11.5,18.4,,,,,,,,,wg-a,,,,AAXX 13184 07460 12600 41708 10150 20080 39688 40070 50002 60006 83531 91800 333 10184 20115=
07460,1996-10-13 21:00:00,15,1006,-0.9,67,9,500,31.484,,,170,,,,,,,,,,,wg-a,,,,AAXX 13214 07460 12700 /1717 10150 20090 39679 40060 56009 60006 85500 92100=
07460,1996-10-14 00:00:00,16,1005.6,-0.3,63,9,25000,31.484,,,160,,,,,,,,,,,wg-a,,,,AAXX 14004 07460 12775 /1617 10160 20090 39676 40056 58003 60006 85500 90000=
07460,1996-10-14 03:00:00,17,1004.3,-0.9,55,8,25000,38.892,,,170,,,,,,,,,,,wg-a,,,,AAXX 14034 07460 12775 71721 10170 20080 39665 40043 58009 60006 8457/ 90300=
07460,1996-10-14 06:00:00,16,1005.1,0.7,68,10,25000,22.224,,,160,14,17.1,,0,,,,,,21,wg-a,,,,AAXX 14064 07460 02675 71612 10160 20100 39671 40051 53007 60004 72162 8357/ 90600 333 10171 20140 60007=
07460,1996-10-14 09:00:00,18,1005.2,0.2,56,9,25000,42.596,,53.708,170,,,,,,,,,,,wg-a,,,,AAXX 14094 07460 12675 71723 10180 20090 39674 40052 50002 60006 8387/ 90900 333 91029=
07460,1996-10-14 12:00:00,18,1005.3,0.2,59,10,25000,29.632,,,160,,,,,,,,,,,wg-a,,,,AAXX 14124 07460 12675 81616 10180 20100 39676 40053 50002 60006 8287/ 91200=
07460,1996-10-14 15:00:00,18,1004.6,-0.5,59,10,20000,22.224,,,170,,,,0,,,,,,60,wg-a,,,,AAXX 14154 07460 12670 81712 10180 20100 39669 40046 55005 60007 76062 8587/ 91500=
07460,1996-10-14 18:00:00,15,1005.9,0.8,82,12,15000,11.112,,,200,14.7,19.7,,1,,,,,,3,wg-a,,,,AAXX 14184 07460 12665 72006 10150 20120 39677 40059 53008 60017 70362 8387/ 91800 333 10197 20147=
07460,1996-10-14 21:00:00,14,1007,1,88,12,10000,18.52,,,180,,,,4,,,,,,61,wg-a,,,,AAXX 14214 07460 12460 81810 10140 20120 39687 40070 53010 60047 76162 8457/ 92100=
07460,1996-10-15 00:00:00,13,1008.2,1,94,12,10000,3.704,,,210,,,,2,,,,,,61,wg-a,,,,AAXX 15004 07460 02560 82102 10130 20120 39697 40082 51010 60066 76162 8357/ 90000 333 60027=
07460,1996-10-15 03:00:00,13,1008.1,-0.1,94,12,8000,3.704,,,20,,,,1,,,,,,60,wg-a,,,,AAXX 15034 07460 12258 70202 10130 20120 39696 40081 58001 60017 76062 8457/ 90300=
07460,1996-10-15 06:00:00,12,1008.8,0.5,100,12,500,0,,,0,11.6,14.6,,,,,8,,,44,wg-a,,,,AAXX 15064 07460 02005 80000 10120 20120 39701 40088 51005 60084 74464 877// 90600 333 10146 20116 61000=
07460,1996-10-15 09:00:00,13,1010.9,2.3,82,10,12000,7.408,,,320,,,,,,,,,,61,wg-a,,,,AAXX 15094 07460 02562 83204 10130 20100 39723 40109 52023 61000 76164 8452/ 90900 333 ////=
07460,1996-10-15 12:00:00,13,1011.8,0.7,88,11,10000,7.408,,,60,,,,2,,,,,,61,wg-a,,,,AAXX 15124 07460 02360 80604 10130 20110 39731 40118 50007 60026 76164 8352/ 91200 333 60027=
07460,1996-10-15 15:00:00,13,1011.8,0.7,88,11,10000,7.408,,,60,,,,2,,,,,,61,wg-a,,,,AAXX 15154 07460 02360 80604 10130 20110 39731 40118 50007 60026 76164 8352/ 91500 333 60027=
07460,1996-10-15 18:00:00,13,1012.3,1.1,72,8,20000,3.704,,,350,11.6,14.4,,,,,,,,1,wg-a,,,,AAXX 15184 07460 32670 73502 10130 20080 39737 40123 52011 70162 83831 91800 333 10144 20116=
07460,1996-10-15 21:00:00,10,1012.5,-0.2,87,8,20000,3.704,,,110,,,,,,,,,,,wg-a,,,,AAXX 15214 07460 12670 71102 10100 20080 39735 40125 58002 60006 8353/ 92100=
07460,1996-10-16 00:00:00,12,1012,-0.3,76,8,15000,11.112,,,350,,,,,,,,,,,wg-a,,,,AAXX 16004 07460 12565 73506 10120 20080 39732 40120 55003 60006 875// 90000=
07460,1996-10-16 03:00:00,11,1012.1,-0.1,82,8,15000,11.112,,,330,,,,0,,,,,,,wg-a,,,,AAXX 16034 07460 12565 73306 10110 20080 39731 40121 58001 60007 875// 90300=
07460,1996-10-16 06:00:00,10,1013.2,0.8,76,6,15000,11.112,,,330,9.6,13,,,,,2,,,1,wg-a,,,,AAXX 16064 07460 12565 73306 10100 20060 39740 40132 53008 60024 70162 875// 90600 333 10130 20096=
07460,1996-10-16 09:00:00,11,1013.4,0.4,66,5,20000,14.816,,,320,,,,,,,,,,,wg-a,,,,AAXX 16094 07460 12570 73208 10110 20050 39743 40134 51004 60006 82832 90900=
07460,1996-10-16 12:00:00,12,1012.5,-0.7,54,3,25000,14.816,,,320,,,,,,,,,,,wg-a,,,,AAXX 16124 07460 12675 73208 10120 20030 39737 40125 58007 60006 83202 91200=
07460,1996-10-16 15:00:00,13,1011.5,-0.8,54,4,500,11.112,,,20,,,,,,,,,,,wg-a,,,,AAXX 16154 07460 12600 /0206 10130 20040 39728 40115 56008 60006 83202 91500=
07460,1996-10-16 18:00:00,10,1012.1,0.3,71,5,20000,0,,,0,9.4,13.5,,,,,,,,,wg-a,,,,AAXX 16184 07460 12670 /0000 10100 20050 39731 40121 53003 60006 82502 91800 333 10135 20094=
07460,1996-10-16 21:00:00,7,1012.7,-0,87,5,15000,3.704,,,280,,,,,,,,,,,wg-a,,,,AAXX 16214 07460 12665 32802 10070 20050 39731 40127 54000 60006 83500 92100=
07460,1996-10-17 00:00:00,7,1012.3,-0.2,87,5,15000,3.704,,,20,,,,,,,,,,,wg-a,,,,AAXX 17004 07460 12665 30202 10070 20050 39728 40123 58002 60006 83500 90000=
07460,1996-10-17 03:00:00,7,1011,-1.2,87,5,15000,3.704,,,280,,,,,,,,,,,wg-a,,,,AAXX 17034 07460 12665 32802 10070 20050 39716 40110 58012 60006 83500 90300=
07460,1996-10-17 06:00:00,7,1009.7,-1.3,87,5,12000,11.112,,,200,5.6,10.3,,,,,,,,16,wg-a,,,,AAXX 17064 07460 02662 72006 10070 20050 39703 40097 56013 60006 71611 8357/ 90600 333 10103 20056 60004=
07460,1996-10-17 09:00:00,11,1010.1,0.9,76,7,40000,3.704,,,10,,,,1,,,,,,1,wg-a,,,,AAXX 17094 07460 12682 30102 10110 20070 39712 40101 53009 60017 70161 83830 90900=
07460,1996-10-17 12:00:00,14,1010.4,0.7,47,3,40000,22.224,,,270,,,,,,,,,,2,wg-a,,,,AAXX 17124 07460 12682 32712 10140 20030 39719 40104 51007 60016 70261 83800 91200=
07460,1996-10-17 15:00:00,14,1010.7,0.3,44,2,50000,14.816,,,300,,,,,,,,,,,wg-a,,,,AAXX 17154 07460 12784 33008 10140 20020 39721 40107 53003 60006 83800 91500=
07460,1996-10-17 18:00:00,9,1013.2,1.9,66,3,20000,7.408,,,330,7,14.7,,,,,,,,,wg-a,,,,AAXX 17184 07460 32670 /3304 10090 20030 39740 40132 53019 81800 91800 333 10147 20070=
07460,1996-10-17 21:00:00,4,1015.2,1.3,87,2,20000,7.408,,,240,,,,,,,,,,,wg-a,,,,AAXX 17214 07460 12770 /2404 10040 20020 39752 40152 51013 60006 81500 92100=
07460,1996-10-18 00:00:00,3,1015.9,0.3,87,1,20000,3.704,,,320,,,,,,,,,,,wg-a,,,,AAXX 18004 07460 12/70 03202 10030 20010 39756 40159 52003 60006 80000 90000=
07460,1996-10-18 03:00:00,3,1016.1,0.2,87,1,20000,3.704,,,30,,,,,,,,,,,wg-a,,,,AAXX 18034 07460 12/70 00302 10030 20010 39758 40161 50002 60006 80000 90300=
07460,1996-10-18 06:00:00,2,1017,0.7,87,0,60000,14.816,,,170,1.6,9.3,,,,,1,,,,wg-a,,,,AAXX 18064 07460 02/86 01708 10020 20000 39765 40170 53007 60006 80000 90600 333 10093 20016 60014=
07460,1996-10-18 09:00:00,7,1016.9,0.6,70,2,50000,11.112,,,180,,,,,,,,,,,wg-a,,,,AAXX 18094 07460 12884 11806 10070 20020 39771 40169 50006 60006 81541 90900=
07460,1996-10-18 12:00:00,13,1014.9,-1,54,4,40000,18.52,,,190,,,,0,,,,,,,wg-a,,,,AAXX 18124 07460 02782 61910 10130 20040 39761 40149 58010 60006 83541 91200 333 60007=
07460,1996-10-18 15:00:00,16,1014.2,-0.3,63,9,20000,11.112,,,180,,,,,,,,,,,wg-a,,,,AAXX 18154 07460 12670 71806 10160 20090 39758 40142 58003 60006 8553/ 91500=
07460,1996-10-18 18:00:00,14,1015.6,1.3,72,9,15000,7.408,,,180,1.4,15.9,,,,,,,,,wg-a,,,,AAXX 18184 07460 32665 61804 10140 20090 39770 40156 53013 85532 91800 333 10159 20014=
07460,1996-10-18 21:00:00,15,1017.7,1.8,59,7,15000,31.484,,48.152,260,,,,,,,,,,,wg-a,,,,AAXX 18214 07460 12665 52617 10150 20070 39790 40177 53018 60006 84530 92100 333 91026=
07460,1996-10-19 00:00:00,14,1018.6,0.8,63,7,15000,31.484,,,260,,,,,,,,,,,wg-a,,,,AAXX 19004 07460 12665 72617 10140 20070 39798 40186 51008 60006 8153/ 90000=
07460,1996-10-19 03:00:00,14,1018.8,0.3,67,8,12000,18.52,,,260,,,,,,,,,,,wg-a,,,,AAXX 19034 07460 12662 82610 10140 20080 39801 40188 52003 60006 8153/ 90300=
07460,1996-10-19 06:00:00,13,1020.1,1,82,10,12000,3.704,,,260,12.2,15.2,,,,,,,,25,wg-a,,,,AAXX 19064 07460 02262 72602 10130 20100 39811 40201 53010 60004 72586 878// 90600 333 10152 20122 61000=
07460,1996-10-19 09:00:00,13,1022.8,2.7,82,10,12000,11.112,,,340,,,,,,,,,,60,wg-a,,,,AAXX 19094 07460 02562 73406 10130 20100 39838 40228 51027 61000 76062 878// 90900 333 ////=
07460,1996-10-19 12:00:00,16,1024.6,1.9,55,7,25000,22.224,,,320,,,,,,,,,,1,wg-a,,,,AAXX 19124 07460 02675 33212 10160 20070 39858 40246 51019 61000 70186 83100 91200 333 6100=
07460,1996-10-19 15:00:00,16,1025.3,0.8,55,7,500,14.816,,,320,,,,,,,,,,,wg-a,,,,AAXX 19154 07460 12600 43208 10160 20070 39865 40253 53008 60006 84130 91500=
07460,1996-10-19 18:00:00,13,1027.9,2.1,72,8,500,3.704,,,10,12.2,17.2,,,,,,,,,wg-a,,,,AAXX 19184 07460 32600 40102 10130 20080 39886 40279 53021 83530 91800 333 10172 20122=
07460,1996-10-19 21:00:00,7,1029.9,1.1,87,5,20000,0,,,0,,,,,,,,,,,wg-a,,,,AAXX 19214 07460 12570 30000 10070 20050 39897 40299 51011 60006 82530 92100=
07460,1996-10-20 00:00:00,6,1030,-0.1,93,5,20000,3.704,,,190,,,,,,,,,,,wg-a,,,,AAXX 20004 07460 12/70 11902 10060 20050 39896 40300 58001 60006 81030 90000=
07460,1996-10-20 06:00:00,4,1029.5,-0,100,4,20000,3.704,,,100,3.4,13,,,,,,,,,wg-a,,,,AAXX 20064 07460 12/70 41002 10040 20040 39889 40295 55000 60004 80001 90600 333 10130 20034=
07460,1996-10-20 12:00:00,17,1026.6,-1.4,55,8,500,11.112,,,170,,,,,,,,,,,wg-a,,,,AAXX 20124 07460 12/00 71706 10170 20080 39879 40266 58014 60006 85039 91200=
07460,1996-10-20 15:00:00,18,1025.3,-1,49,7,40000,3.704,,,140,,,,,,,,,,,wg-a,,,,AAXX 20154 07460 12/82 71402 10180 20070 39868 40253 56010 60006 82048 91500=
07460,1996-10-20 18:00:00,14,1025.2,-0.6,67,8,500,3.704,,,150,4.6,18.3,,,,,,,,,wg-a,,,,AAXX 20184 07460 12/00 71502 10140 20080 39862 40252 57006 60006 84048 91800 333 10183 20046=
07460,1996-10-20 21:00:00,15,1025,-0.1,67,9,20000,3.704,,,10,,,,,,,,,,,wg-a,,,,AAXX 20214 07460 12870 70102 10150 20090 39861 40250 55001 60006 8453/ 92100=
07460,1996-10-21 00:00:00,14,1024.3,-0.8,67,8,0,0,,,0,,,,,,,,,,,wg-a,,,,AAXX 21004 07460 12/// /0000 10140 20080 39853 40243 57008 60006 90000=
07460,1996-10-21 03:00:00,16,1023.3,-0.6,72,11,15000,11.112,,,290,,,,,,,,,,,wg-a,,,,AAXX 21034 07460 12565 72906 10160 20110 39846 40233 56006 60006 875// 90300=
07460,1996-10-21 06:00:00,16,1023,-0.2,77,12,12000,11.112,,,260,13.7,16.2,,,,,,,,,wg-a,,,,AAXX 21064 07460 02562 72606 10160 20120 39844 40230 57002 60006 875// 90600 333 10162 20137 60004=
07460,1996-10-21 09:00:00,17,1022.9,0,77,13,11000,14.816,,,250,,,,,,,,,,,wg-a,,,,AAXX 21094 07460 12/61 /2508 10170 20130 39844 40229 50000 60006 90900=
07460,1996-10-21 12:00:00,19,1022.4,-0.2,73,14,14000,7.408,,,80,,,,,,,,,,,wg-a,,,,AAXX 21124 07460 12464 70804 10190 20140 39842 40224 58002 60006 878// 91200=
07460,1996-10-21 15:00:00,18,1022.6,0.1,83,15,14000,11.112,,,320,,,,,,,,,,,wg-a,,,,AAXX 21154 07460 12464 73206 10180 20150 39843 40226 51001 60006 878// 91500=
07460,1996-10-21 18:00:00,15,1024.1,1,94,14,14000,3.704,,,120,14.9,18.8,,0,,,,,,21,wg-a,,,,AAXX 21184 07460 12264 61202 10150 20140 39853 40241 53010 60007 72162 86800 91800 333 10188 20149=
07460,1996-10-21 21:00:00,11,1025.3,0.6,100,11,2500,7.408,,,260,,,,0,,,,,,28,wg-a,,,,AAXX 21214 07460 12125 42604 10110 20110 39859 40253 51006 60007 72841 84600 92100=
07460,1996-10-22 00:00:00,11,1025,-0.3,100,11,13000,0,,,0,,,,,,,,,,11,wg-a,,,,AAXX 22004 07460 12463 50000 10110 20110 39856 40250 58003 60006 71141 85500 90000=
07460,1996-10-22 03:00:00,12,1024.4,-0.5,100,12,11000,3.704,,,30,,,,,,,,,,,wg-a,,,,AAXX 22034 07460 12261 80302 10120 20120 39851 40244 56005 60006 886// 90300=
07460,1996-10-22 06:00:00,12,1024.6,0.3,100,12,2000,3.704,,,20,10.5,14.8,,,,,,,,10,wg-a,,,,AAXX 22064 07460 12120 70202 10120 20120 39854 40246 51003 60004 71022 876// 90600 333 10148 20105=
07460,1996-10-22 09:00:00,13,1025.2,0.7,94,12,6000,0,,,0,,,,,,,,,,,wg-a,,,,AAXX 22094 07460 12256 70000 10130 20120 39861 40252 51007 60006 875// 90900=
07460,1996-10-22 12:00:00,17,1023.2,-1.4,68,11,20000,3.704,,,360,,,,,,,,,,,wg-a,,,,AAXX 22124 07460 12470 43602 10170 20110 39847 40232 58014 60006 84500 91200=
07460,1996-10-22 15:00:00,17,1021.8,-1.3,63,10,20000,7.408,,,30,,,,,,,,,,,wg-a,,,,AAXX 22154 07460 12/70 10304 10170 20100 39834 40218 56013 60006 80001 91500=
07460,1996-10-22 18:00:00,14,1022.8,0.4,72,9,20000,3.704,,,330,11.4,17.8,,,,,,,,,wg-a,,,,AAXX 22184 07460 12/70 23302 10140 20090 39838 40228 53004 60006 80001 91800 333 10178 20114=
07460,1996-10-22 21:00:00,9,1023.3,-0.2,93,8,20000,3.704,,,240,,,,,,,,,,,wg-a,,,,AAXX 22214 07460 12/70 12402 10090 20080 39836 40233 58002 60006 80001 92100=
07460,1996-10-23 00:00:00,8,1022.5,-0.9,87,6,15000,3.704,,,180,,,,,,,,,,,wg-a,,,,AAXX 23004 07460 12/65 01802 10080 20060 39827 40225 58009 60006 80000 90000=
07460,1996-10-23 03:00:00,7,1022.3,-0.3,93,6,15000,3.704,,,360,,,,,,,,,,,wg-a,,,,AAXX 23034 07460 12/65 03602 10070 20060 39824 40223 55003 60006 80000 90300=
07460,1996-10-23 06:00:00,7,1022.1,-0.1,87,5,500,11.112,,,180,5.4,13.6,,,,,,,,,wg-a,,,,AAXX 23064 07460 02/00 41806 10070 20050 39822 40221 56001 60006 80001 90600 333 10136 20054 60004=
07460,1996-10-23 12:00:00,19,1019,-1.3,43,6,40000,0,,,0,,,,,,,,,,,wg-a,,,,AAXX 23124 07460 12/82 20000 10190 20060 39808 40190 58013 60006 80001 91200=
07460,1996-10-23 15:00:00,21,1017.5,-1.1,40,7,500,7.408,,,20,,,,,,,,,,,wg-a,,,,AAXX 23154 07460 12/00 20204 10210 20070 39797 40175 56011 60006 80001 91500=
07460,1996-10-23 18:00:00,16,1019.5,1.2,68,10,12000,3.704,,,40,,,,,,,,,,,wg-a,,,,AAXX 23184 07460 12/62 30402 10160 20100 39809 40195 53012 60006 80001 91800=
07460,1996-10-23 21:00:00,9,1021.2,0.7,81,6,12000,0,,,0,,,,,,,,,,,wg-a,,,,AAXX 23214 07460 12/62 20000 10090 20060 39816 40212 53007 60006 80001 92100=
07460,1996-10-24 00:00:00,8,1021.3,-0.1,81,5,12000,3.704,,,10,,,,,,,,,,,wg-a,,,,AAXX 24004 07460 12/62 00102 10080 20050 39815 40213 58001 60006 80000 90000=
07460,1996-10-24 03:00:00,9,1021.1,-0,81,6,15000,0,,,0,,,,,,,,,,,wg-a,,,,AAXX 24034 07460 12/65 10000 10090 20060 39815 40211 55000 60006 80001 90300=
07460,1996-10-24 06:00:00,8,1021.6,0.5,87,6,500,0,,,0,6.3,15.4,,,,,,,,,wg-a,,,,AAXX 24064 07460 02/00 10000 10080 20060 39819 40216 51005 60006 80001 90600 333 10154 20063 60004=
07460,1996-10-24 09:00:00,15,1020.8,0.1,59,7,500,3.704,,,200,,,,,,,,,,,wg-a,,,,AAXX 24094 07460 12/00 62002 10150 20070 39820 40208 50001 60006 80001 90900=
07460,1996-10-24 12:00:00,22,1018.4,-1.4,38,7,500,3.704,,,210,,,,,,,,,,,wg-a,,,,AAXX 24124 07460 12/00 52102 10220 20070 39806 40184 58014 60006 80001 91200=
07460,1996-10-24 15:00:00,24,1016.6,-1.5,36,8,500,3.704,,,340,,,,,,,,,,,wg-a,,,,AAXX 24154 07460 12/00 13402 10240 20080 39791 40166 56015 60006 80001 91500=
07460,1996-10-24 18:00:00,14,1018.9,0.9,58,6,15000,0,,,0,7.5,24.4,,,,,,,,,wg-a,,,,AAXX 24184 07460 12/65 10000 10140 20060 39801 40189 53009 60006 80001 91800 333 10244 20075=
07460,1996-10-24 21:00:00,11,1019.8,0.5,82,8,15000,3.704,,,230,,,,,,,,,,,wg-a,,,,AAXX 24214 07460 12/65 32302 10110 20080 39806 40198 53005 60006 80001 92100=
07460,1996-10-25 00:00:00,13,1019.9,0.3,72,8,15000,3.704,,,360,,,,,,,,,,,wg-a,,,,AAXX 25004 07460 12/65 13602 10130 20080 39809 40199 51003 60006 80001 90000=
07460,1996-10-25 03:00:00,12,1019.7,-0.3,76,8,20000,7.408,,,110,,,,,,,,,,,wg-a,,,,AAXX 25034 07460 12/70 51104 10120 20080 39807 40197 55003 60006 84031 90300=
07460,1996-10-25 06:00:00,11,1020.8,1,76,7,20000,18.52,,,200,10.7,13.9,,,,,,,,,wg-a,,,,AAXX 25064 07460 02/70 42010 10110 20070 39815 40208 53010 60006 83032 90600 333 10139 20107 60004=
07460,1996-10-25 09:00:00,13,1022,1.6,72,8,20000,14.816,,,170,,,,,,,,,,,wg-a,,,,AAXX 25094 07460 12770 /1708 10130 20080 39830 40220 53016 60006 82532 90900=
07460,1996-10-25 12:00:00,18,1022.3,0.9,59,10,20000,7.408,,,270,,,,,,,,,,,wg-a,,,,AAXX 25124 07460 12670 /2704 10180 20100 39840 40223 51009 60006 81530 91200=
07460,1996-10-25 18:00:00,17,1024.2,1.3,68,11,15000,7.408,,,20,10.6,20.1,,,,,,,,,wg-a,,,,AAXX 25184 07460 12665 70204 10170 20110 39856 40242 53013 60006 84530 91800 333 10201 20106=
07460,1996-10-26 00:00:00,12,1027,0.6,82,9,15000,3.704,,,110,,,,,,,,,,,wg-a,,,,AAXX 26004 07460 12665 41102 10120 20090 39876 40270 51006 60006 81130 90000=
07460,1996-10-26 06:00:00,7,1028.6,0.5,93,6,20000,0,,,0,6.3,17,,,,,,,,,wg-a,,,,AAXX 26064 07460 02770 60000 10070 20060 39885 40286 53005 60006 83531 90600 333 10170 20063 60004=
07460,1996-10-26 12:00:00,16,1027.3,-1.1,59,8,15000,3.704,,,80,,,,,,,,,,,wg-a,,,,AAXX 26124 07460 12665 70802 10160 20080 39884 40273 58011 60006 81132 91200=
07460,1996-10-26 15:00:00,16,1026.2,-1,55,7,20000,7.408,,,60,,,,,,,,,,,wg-a,,,,AAXX 26154 07460 12670 /0604 10160 20070 39874 40262 56010 60006 81132 91500=
07460,1996-10-26 18:00:00,12,1027,0.3,71,7,18000,0,,,0,6.9,17.2,,,,,,,,,wg-a,,,,AAXX 26184 07460 12668 70000 10120 20070 39877 40270 51003 60006 81132 91800 333 10172 20069=
07460,1996-10-26 21:00:00,10,1027.9,0.5,82,7,15000,3.704,,,110,,,,,,,,,,,wg-a,,,,AAXX 26214 07460 12/65 71102 10100 20070 39882 40279 51005 60006 84032 92100=
07460,1996-10-27 00:00:00,9,1027.3,-0.6,81,6,15000,7.408,,,50,,,,,,,,,,,wg-a,,,,AAXX 27004 07460 12/65 50504 10090 20060 39876 40273 56006 60006 82032 90000=
07460,1996-10-27 03:00:00,8,1026.3,-1.2,87,6,15000,3.704,,,40,,,,,,,,,,,wg-a,,,,AAXX 27034 07460 12665 70402 10080 20060 39865 40263 58012 60006 8253/ 90300=
07460,1996-10-27 06:00:00,9,1025.9,-0.2,81,6,20000,7.408,,,190,8,12.5,,,,,,,,,wg-a,,,,AAXX 27064 07460 02/70 71904 10090 20060 39862 40259 58002 60006 85031 90600 333 10125 20080 60004=
07460,1996-10-27 09:00:00,12,1025.1,-0.4,71,7,35000,7.408,,,170,,,,,,,,,,,wg-a,,,,AAXX 27094 07460 12/81 61704 10120 20070 39858 40251 58004 60006 81032 90900=
07460,1996-10-27 12:00:00,18,1022.6,-1.6,52,8,40000,3.704,,,260,,,,,,,,,,,wg-a,,,,AAXX 27124 07460 12/82 72602 10180 20080 39842 40226 58016 60006 81032 91200=
07460,1996-10-27 15:00:00,19,1020.5,-1.9,49,8,40000,3.704,,,330,,,,,,,,,,,wg-a,,,,AAXX 27154 07460 12/82 83302 10190 20080 39823 40205 56019 60006 81042 91500=
07460,1996-10-27 18:00:00,14,1021.5,0.3,63,7,20000,3.704,,,120,8.8,20.7,,,,,,,,,wg-a,,,,AAXX 27184 07460 12/70 71202 10140 20070 39826 40215 53003 60006 81032 91800 333 10207 20088=
07460,1996-10-27 21:00:00,9,1022.3,0.1,76,5,15000,0,,,0,,,,,,,,,,,wg-a,,,,AAXX 27214 07460 12/65 60000 10090 20050 39827 40223 53001 60006 81031 92100=
07460,1996-10-28 00:00:00,12,1020.9,-1,67,6,15000,29.632,,,190,,,,,,,,,,,wg-a,,,,AAXX 28004 07460 12/65 41916 10120 20060 39817 40209 56010 60006 81031 90000=
07460,1996-10-28 03:00:00,10,1020.1,-1,82,7,15000,22.224,,,200,,,,,,,,,,,wg-a,,,,AAXX 28034 07460 12/65 12012 10100 20070 39807 40201 58010 60006 80001 90300=
07460,1996-10-28 06:00:00,9,1019,-1.1,81,6,15000,29.632,,,180,8.1,13.9,,,,,,,,,wg-a,,,,AAXX 28064 07460 02/65 51816 10090 20060 39796 40190 58011 60006 83041 90600 333 10139 20081 60004=
07460,1996-10-28 09:00:00,12,1018.2,-0.3,67,6,25000,31.484,,,180,,,,,,,,,,,wg-a,,,,AAXX 28094 07460 12/75 61817 10120 20060 39792 40182 58003 60006 84041 90900=
07460,1996-10-28 12:00:00,17,1016.1,-1.5,55,8,20000,29.632,,,180,,,,,,,,,,,wg-a,,,,AAXX 28124 07460 12670 71816 10170 20080 39778 40161 58015 60006 81541 91200=
07460,1996-10-28 15:00:00,20,1014.4,-1.2,53,10,20000,31.484,,,240,,,,,,,,,,,wg-a,,,,AAXX 28154 07460 12670 72417 10200 20100 39766 40144 56012 60006 83542 91500=
07460,1996-10-28 18:00:00,17,1015.1,0.3,68,11,15000,14.816,,,200,8.8,20,,,,,,,,,wg-a,,,,AAXX 28184 07460 12665 /2008 10170 20110 39769 40151 53003 60006 82231 91800 333 10200 20088=
07460,1996-10-28 21:00:00,16,1014.6,-0.5,72,11,14000,22.224,,,190,,,,,,,,,,,wg-a,,,,AAXX 28214 07460 12664 71912 10160 20110 39763 40146 56005 60006 8353/ 92100=
07460,1996-10-29 00:00:00,16,1013.4,-1.2,77,12,14000,14.816,,,180,,,,,,,,,,,wg-a,,,,AAXX 29004 07460 12664 71808 10160 20120 39752 40134 55012 60006 875// 90000=
07460,1996-10-29 03:00:00,16,1013.2,-0.4,72,11,14000,11.112,,,260,,,,0,,,,,,60,wg-a,,,,AAXX 29034 07460 12464 72606 10160 20110 39749 40132 56004 60007 76062 875// 90300=
07460,1996-10-29 06:00:00,13,1015.4,1.9,62,6,14000,22.224,,38.892,210,12.5,17.3,,,,,,,,1,wg-a,,,,AAXX 29064 07460 02564 52112 10130 20060 39766 40154 51019 60004 70162 83831 90600 333 10173 20125 61000 91021=
07460,1996-10-29 09:00:00,13,1017,1.6,67,7,15000,3.704,,,10,,,,,,,,,,,wg-a,,,,AAXX 29094 07460 12565 /0102 10130 20070 39782 40170 51016 60006 86801 90900=
07460,1996-10-29 12:00:00,15,1017.8,1,59,7,25000,35.188,,53.708,280,,,,,,,,,,80,wg-a,,,,AAXX 29124 07460 02675 62819 10150 20070 39791 40178 50010 61000 78086 86801 91200 333 6100 91029=
07460,1996-10-29 15:00:00,14,1018.3,0.4,51,4,25000,18.52,,,290,,,,,,,,,,1,wg-a,,,,AAXX 29154 07460 02675 42910 10140 20040 39795 40183 53004 61000 70186 83801 91500 333 ////=
07460,1996-10-29 18:00:00,11,1021.4,2.6,62,4,12000,11.112,,,320,11.1,15.5,,,,,,,,3,wg-a,,,,AAXX 29184 07460 32662 /3206 10110 20040 39821 40214 53026 70386 85530 91800 333 10155 20111=
07460,1996-10-30 00:00:00,10,1026.2,2,82,7,12000,3.704,,,20,,,,,,,,,,21,wg-a,,,,AAXX 30004 07460 02562 70202 10100 20070 39866 40262 51020 61000 72162 878// 90000 333 6100=
07460,1996-10-30 03:00:00,9,1027.6,1.1,81,6,12000,3.704,,,20,,,,,,,,,,,wg-a,,,,AAXX 30034 07460 12462 70202 10090 20060 39877 40276 51011 60006 878// 90300=
07460,1996-10-30 06:00:00,8,1028.7,1.1,87,6,15000,3.704,,,100,7.5,11.3,,,,,,,,1,wg-a,,,,AAXX 30064 07460 02765 71002 10080 20060 39887 40287 51011 61000 70162 875// 90600 333 10113 20075 ////=
07460,1996-10-30 09:00:00,10,1030,1.4,76,6,11000,3.704,,,60,,,,,,,,,,,wg-a,,,,AAXX 30094 07460 12/61 /0602 10100 20060 39903 40300 52014 60006 90900=
07460,1996-10-30 12:00:00,11,1030.3,0.3,66,5,500,14.816,,,50,,,,,,,,,,,wg-a,,,,AAXX 30124 07460 12500 70508 10110 20050 39906 40303 50003 60006 872// 91200=
07460,1996-10-30 15:00:00,11,1030.4,0.2,54,2,500,11.112,,,20,,,,,,,,,,,wg-a,,,,AAXX 30154 07460 12600 70206 10110 20020 39907 40304 53002 60006 875// 91500=
07460,1996-10-30 18:00:00,7,1031.2,0.1,70,2,20000,0,,,0,6.8,11.4,,,,,,,,,wg-a,,,,AAXX 30184 07460 12670 30000 10070 20020 39909 40312 53001 60006 83500 91800 333 10114 20068=
07460,1996-10-30 21:00:00,2,1031.7,-0.2,87,0,12000,0,,,0,,,,,,,,,,,wg-a,,,,AAXX 30214 07460 12662 30000 10020 20000 39907 40317 55002 60006 82530 92100=
07460,1996-10-31 00:00:00,2,1030.9,-0.8,87,0,15000,3.704,,,350,,,,,,,,,,,wg-a,,,,AAXX 31004 07460 12/65 13502 10020 20000 39899 40309 56008 60006 80001 90000=
07460,1996-10-31 03:00:00,2,1029.5,-1.3,93,1,15000,3.704,,,60,,,,,,,,,,,wg-a,,,,AAXX 31034 07460 12/65 30602 10020 20010 39886 40295 56013 60006 80001 90300=
07460,1996-10-31 06:00:00,0,1029.3,-0.5,93,-1,20000,3.704,,,320,0.1,6.6,,,,,,,,,wg-a,,,,AAXX 31064 07460 02/70 23202 10000 21010 39881 40293 58005 60006 80001 90600 333 10066 20001 60004=
07460,1996-10-31 09:00:00,5,1029.1,0.5,75,1,20000,11.112,,,210,,,,,,,,,,,wg-a,,,,AAXX 31094 07460 12/70 32106 10050 20010 39887 40291 53005 60006 80001 90900=
07460,1996-10-31 12:00:00,14,1025.7,-2.1,38,0,25000,7.408,,,120,,,,,,,,,,,wg-a,,,,AAXX 31124 07460 12/75 31204 10140 20000 39865 40257 58021 60006 81031 91200=
07460,1996-10-31 15:00:00,15,1024.2,-1.2,41,2,25000,3.704,,,60,,,,,,,,,,,wg-a,,,,AAXX 31154 07460 12/75 50602 10150 20020 39853 40242 56012 60006 83031 91500=
07460,1996-10-31 18:00:00,11,1025.4,0.7,50,1,20000,3.704,,,110,-0.4,16.9,,,,,,,,,wg-a,,,,AAXX 31184 07460 12/70 21102 10110 20010 39859 40254 53007 60006 81031 91800 333 10169 21004=
07460,1996-10-31 21:00:00,13,1026.3,1,67,7,15000,11.112,,,160,,,,,,,,,,,wg-a,,,,AAXX 31214 07460 12565 51606 10130 20070 39870 40263 53010 60006 85830 92100=
07460,1996-11-01 00:00:00,13,1026.5,0.3,72,8,14000,25.928,,,260,,,,,,,,,,,wg-a,,,,AAXX 01004 07460 12564 72614 10130 20080 39873 40265 53003 60006 8683/ 90000=
07460,1996-11-01 03:00:00,12,1026.7,-0,76,8,14000,7.408,,,220,,,,,,,,,,,wg-a,,,,AAXX 01034 07460 12564 52204 10120 20080 39873 40267 55000 60006 85800 90300=
07460,1996-11-01 06:00:00,12,1028.3,1.5,76,8,14000,0,,,0,9.2,14.4,,,,,,,,,wg-a,,,,AAXX 01064 07460 02564 70000 10120 20080 39889 40283 53015 60006 878// 90600 333 10144 20092 60004=
07460,1996-11-01 09:00:00,13,1030.1,2,82,10,15000,7.408,,,120,,,,,,,,,,,wg-a,,,,AAXX 01094 07460 12565 71204 10130 20100 39908 40301 51020 60006 86801 90900=
07460,1996-11-01 12:00:00,16,1030.2,0.3,63,9,25000,14.816,,,320,,,,,,,,,,,wg-a,,,,AAXX 01124 07460 12575 73208 10160 20090 39912 40302 51003 60006 86801 91200=
07460,1996-11-01 15:00:00,15,1030.1,-0.2,77,11,25000,18.52,,,30,,,,,,,,,,,wg-a,,,,AAXX 01154 07460 12575 70310 10150 20110 39910 40301 55002 60006 878// 91500=
07460,1996-11-01 18:00:00,13,1031.7,1.3,77,9,15000,7.408,,,30,11.8,16.3,,,,,,,,,wg-a,,,,AAXX 01184 07460 12565 70304 10130 20090 39923 40317 51013 60006 875// 91800 333 10163 20118=
07460,1996-11-01 21:00:00,12,1032.7,0.8,82,9,12000,0,,,0,,,,,,,,,,,wg-a,,,,AAXX 01214 07460 12562 70000 10120 20090 39931 40327 53008 60006 875// 92100=
07460,1996-11-02 00:00:00,11,1032.4,-0.4,87,9,12000,0,,,0,,,,,,,,,,,wg-a,,,,AAXX 02004 07460 12562 70000 10110 20090 39927 40324 58004 60006 875// 90000=
07460,1996-11-02 03:00:00,11,1031.9,-0.5,87,9,12000,3.704,,,20,,,,,,,,,,,wg-a,,,,AAXX 02034 07460 12462 70202 10110 20090 39922 40319 56005 60006 875// 90300=
07460,1996-11-02 06:00:00,11,1031.7,-0.2,94,10,9000,3.704,,,30,10.6,12.8,,0,,,,,,20,wg-a,,,,AAXX 02064 07460 02259 70302 10110 20100 39920 40317 56002 60004 72052 875// 90600 333 10128 20106 60007=
07460,1996-11-02 09:00:00,12,1032,0.6,88,10,12000,0,,,0,,,,,,,,,,,wg-a,,,,AAXX 02094 07460 12362 70000 10120 20100 39925 40320 51006 60006 875// 90900=
07460,1996-11-02 12:00:00,13,1031.5,-0.4,77,9,15000,3.704,,,80,,,,,,,,,,,wg-a,,,,AAXX 02124 07460 12465 70802 10130 20090 39921 40315 58004 60006 878// 91200=
07460,1996-11-02 15:00:00,13,1030.5,-0.9,77,9,15000,7.408,,,60,,,,,,,,,,,wg-a,,,,AAXX 02154 07460 12565 70604 10130 20090 39912 40305 56009 60006 875// 91500=
07460,1996-11-02 18:00:00,12,1030.8,0.1,76,8,13000,7.408,,,110,10.5,13.6,,,,,,,,,wg-a,,,,AAXX 02184 07460 12563 71104 10120 20080 39913 40308 53001 60006 875// 91800 333 10136 20105=
07460,1996-11-02 21:00:00,11,1030.3,-0.6,82,8,12000,7.408,,,180,,,,,,,,,,,wg-a,,,,AAXX 02214 07460 12462 71804 10110 20080 39907 40303 55006 60006 875// 92100=
07460,1996-11-03 00:00:00,6,1030.3,-0.7,93,5,15000,7.408,,,170,,,,,,,,,,,wg-a,,,,AAXX 03004 07460 12465 41704 10060 20050 39900 40303 56007 60006 84500 90000=
07460,1996-11-03 03:00:00,6,1028.9,-1.5,93,5,3000,14.816,,,170,,,,,,,,,,10,wg-a,,,,AAXX 03034 07460 12230 /1708 10060 20050 39886 40289 58015 60006 71011 85600 90300=
07460,1996-11-03 06:00:00,4,1028.9,-0.3,93,3,15000,14.816,,,210,3.5,12.1,,,,,,,,,wg-a,,,,AAXX 03064 07460 02365 /2108 10040 20030 39882 40289 58003 60006 81600 90600 333 10121 20035 60004=
07460,1996-11-03 09:00:00,7,1029.4,1,81,4,25000,7.408,,,20,,,,,,,,,,,wg-a,,,,AAXX 03094 07460 12/75 50204 10070 20040 39892 40294 51010 60006 80001 90900=
07460,1996-11-03 12:00:00,11,1027.7,-1,71,6,25000,3.704,,,40,,,,,,,,,,,wg-a,,,,AAXX 03124 07460 12/75 60402 10110 20060 39882 40277 58010 60006 80001 91200=
07460,1996-11-03 15:00:00,14,1026.3,-1,58,6,15000,11.112,,,30,,,,,,,,,,,wg-a,,,,AAXX 03154 07460 12/65 70306 10140 20060 39872 40263 55010 60006 80001 91500=
07460,1996-11-03 18:00:00,8,1027.6,0.5,87,6,13000,3.704,,,220,2.9,14.2,,,,,,,,,wg-a,,,,AAXX 03184 07460 12563 /2202 10080 20060 39877 40276 51005 60006 82501 91800 333 10142 20029=
07460,1996-11-03 21:00:00,5,1026.9,-1.1,93,4,12000,0,,,0,,,,,,,,,,,wg-a,,,,AAXX 03214 07460 12462 30000 10050 20040 39866 40269 56011 60006 83500 92100=
07460,1996-11-04 00:00:00,4,1025.7,-1.4,100,4,8000,0,,,0,,,,,,,,,,40,wg-a,,,,AAXX 04004 07460 12458 40000 10040 20040 39852 40257 56014 60006 74011 84500 90000=
07460,1996-11-04 03:00:00,1,1023.6,-2.4,100,1,300,0,,,0,,,,,,,,,,44,wg-a,,,,AAXX 04034 07460 12103 /0000 10010 20010 39828 40236 58024 60006 74441 85700 90300=
07460,1996-11-04 06:00:00,2,1021.1,-2.2,100,2,300,3.704,,,110,0.3,8,,0,,,,,,40,wg-a,,,,AAXX 04064 07460 02103 21102 10020 20020 39805 40211 58022 60004 74041 81601 90600 333 10080 20003 60007=
07460,1996-11-04 09:00:00,12,1018.1,-1.4,54,3,50000,3.704,,,70,,,,,,,,,,,wg-a,,,,AAXX 04094 07460 12/84 30702 10120 20030 39791 40181 58014 60006 81041 90900=
07460,1996-11-04 12:00:00,20,1014.1,-2.7,37,5,50000,29.632,,,190,,,,,,,,,,,wg-a,,,,AAXX 04124 07460 12/84 61916 10200 20050 39762 40141 58027 60006 81042 91200=
07460,1996-11-04 15:00:00,20,1012.2,-1.8,37,5,40000,31.484,,,250,,,,,,,,,,,wg-a,,,,AAXX 04154 07460 12/82 72517 10200 20050 39744 40122 56018 60006 83032 91500=
07460,1996-11-04 18:00:00,16,1011.9,-0.8,51,6,25000,22.224,,,200,1.4,21.2,,,,,,,,,wg-a,,,,AAXX 04184 07460 12/75 72012 10160 20060 39737 40119 55008 60006 84032 91800 333 10212 20014=
07460,1996-11-04 21:00:00,15,1010.9,-1.1,63,8,15000,38.892,,57.412,180,,,,,,,,,,,wg-a,,,,AAXX 04214 07460 12/65 71821 10150 20080 39726 40109 58011 60006 84032 92100 333 91031=
07460,1996-11-05 00:00:00,13,1011.9,0.5,82,10,10000,14.816,,,260,,,,0,,,,,,60,wg-a,,,,AAXX 05004 07460 02660 72608 10130 20100 39732 40119 51005 60006 76062 8257/ 90000 333 60007=
07460,1996-11-05 03:00:00,11,1012.5,0.4,76,7,15000,14.816,,,200,,,,1,,,,,,21,wg-a,,,,AAXX 05034 07460 12665 72008 10110 20070 39735 40125 53004 60017 72162 8157/ 90300=
07460,1996-11-05 06:00:00,11,1014.8,2.1,71,6,15000,22.224,,,270,10.3,16.4,,,,,1,,,1,wg-a,,,,AAXX 05064 07460 12565 52712 10110 20060 39757 40148 53021 60014 70162 82830 90600 333 10164 20103=
07460,1996-11-05 09:00:00,12,1018,3.3,62,5,20000,22.224,,40.744,250,,,,,,,,,,,wg-a,,,,AAXX 05094 07460 12670 32512 10120 20050 39790 40180 51033 60006 83800 90900 333 91022=
07460,1996-11-05 12:00:00,13,1019.6,1.6,54,4,25000,14.816,,,300,,,,,,,,,,,wg-a,,,,AAXX 05124 07460 12675 /3008 10130 20040 39806 40196 51016 60006 86800 91200=
07460,1996-11-05 15:00:00,12,1020.8,1.1,54,3,35000,18.52,,,300,,,,,,,,,,,wg-a,,,,AAXX 05154 07460 12681 43010 10120 20030 39817 40208 52011 60006 84800 91500=
07460,1996-11-05 18:00:00,7,1024.2,2.5,66,1,20000,3.704,,,300,7.1,13.8,,,,,,,,,wg-a,,,,AAXX 05184 07460 12670 /3002 10070 20010 39842 40242 53025 60006 81100 91800 333 10138 20071=
07460,1996-11-05 21:00:00,3,1026.3,1.4,81,0,15000,3.704,,,150,,,,,,,,,,,wg-a,,,,AAXX 05214 07460 12/65 01502 10030 20000 39856 40263 51014 60006 80000 92100=
07460,1996-11-06 00:00:00,2,1027.2,0.7,87,0,15000,3.704,,,140,,,,,,,,,,,wg-a,,,,AAXX 06004 07460 12/65 01402 10020 20000 39863 40272 53007 60006 80000 90000=
07460,1996-11-06 03:00:00,5,1026,-0.6,81,2,15000,14.816,,,180,,,,,,,,,,,wg-a,,,,AAXX 06034 07460 12/65 01808 10050 20020 39856 40260 56006 60006 80000 90300=
07460,1996-11-06 06:00:00,4,1026,-0.3,81,1,500,25.928,,,180,0.6,7.3,,,,,,,,,wg-a,,,,AAXX 06064 07460 02600 /1814 10040 20010 39854 40260 58003 60006 81500 90600 333 10073 20006 60004=
07460,1996-11-06 09:00:00,6,1025.3,-0.3,75,2,25000,25.928,,,170,,,,,,,,,,,wg-a,,,,AAXX 06094 07460 12675 51714 10060 20020 39851 40253 58003 60006 83830 90900=
07460,1996-11-06 12:00:00,15,1022.5,-1.3,59,7,40000,18.52,,,170,,,,,,,,,,,wg-a,,,,AAXX 06124 07460 12682 41710 10150 20070 39837 40225 58013 60006 84800 91200=
07460,1996-11-06 15:00:00,15,1021.6,-0.7,59,7,20000,11.112,,,210,,,,,,,,,,,wg-a,,,,AAXX 06154 07460 12670 62106 10150 20070 39829 40216 58007 60006 86800 91500=
07460,1996-11-06 18:00:00,14,1022.1,0.2,67,8,15000,22.224,,,200,3.4,16.8,,,,,,,,,wg-a,,,,AAXX 06184 07460 12565 /2012 10140 20080 39832 40221 52002 60006 86800 91800 333 10168 20034=
07460,1996-11-06 21:00:00,13,1022.1,-0.1,72,8,15000,18.52,,,190,,,,,,,,,,,wg-a,,,,AAXX 06214 07460 12665 /1910 10130 20080 39831 40221 57001 60006 86500 92100=
07460,1996-11-07 00:00:00,14,1021,-1,67,8,14000,7.408,,,190,,,,,,,,,,,wg-a,,,,AAXX 07004 07460 12664 /1904 10140 20080 39821 40210 56010 60006 86500 90000=
07460,1996-11-07 03:00:00,15,1018.6,-2.1,67,9,15000,14.816,,,210,,,,,,,,,,,wg-a,,,,AAXX 07034 07460 12665 /2108 10150 20090 39800 40186 58021 60006 86500 90300=
07460,1996-11-07 06:00:00,16,1017.8,-0.7,68,10,15000,38.892,,,240,12.2,16.1,,,,,,,,,wg-a,,,,AAXX 07064 07460 02565 52421 10160 20100 39793 40178 56007 60006 84530 90600 333 10161 20122 60004=
07460,1996-11-07 09:00:00,16,1018,0.5,68,10,35000,25.928,,,180,,,,,,,,,,,wg-a,,,,AAXX 07094 07460 12581 71814 10160 20100 39796 40180 51005 60006 875// 90900=
07460,1996-11-07 12:00:00,16,1017.6,-0.4,68,10,40000,29.632,,,190,,,,,,,,,,,wg-a,,,,AAXX 07124 07460 12582 71916 10160 20100 39792 40176 58004 60006 878// 91200=
07460,1996-11-07 15:00:00,14,1020,2,77,10,10000,11.112,,,330,,,,0,,,,,,21,wg-a,,,,AAXX 07154 07460 12560 73306 10140 20100 39812 40200 53020 60007 72162 878// 91500=
07460,1996-11-07 18:00:00,13,1022.5,2.2,67,7,20000,14.816,,,240,12.3,17.4,,0,,,,,,3,wg-a,,,,AAXX 07184 07460 12570 /2408 10130 20070 39834 40225 53022 60007 70362 86800 91800 333 10174 20123=
07460,1996-11-07 21:00:00,11,1024.9,2.2,66,5,15000,11.112,,,280,,,,,,,,,,,wg-a,,,,AAXX 07214 07460 12565 22806 10110 20050 39854 40249 51022 60006 82800 92100=
07460,1996-11-08 00:00:00,8,1026.9,1.5,76,4,15000,7.408,,,250,,,,,,,,,,,wg-a,,,,AAXX 08004 07460 12565 /2504 10080 20040 39870 40269 53015 60006 81500 90000=
07460,1996-11-08 03:00:00,6,1028.1,0.8,81,3,15000,3.704,,,140,,,,,,,,,,,wg-a,,,,AAXX 08034 07460 12665 /1402 10060 20030 39878 40281 51008 60006 81500 90300=
07460,1996-11-08 06:00:00,3,1029.1,0.6,87,1,15000,3.704,,,160,2.7,12.8,,,,,,,,,wg-a,,,,AAXX 08064 07460 02665 21602 10030 20010 39883 40291 51006 60006 82500 90600 333 10128 20027 60004=
07460,1996-11-08 09:00:00,9,1030,1.8,76,5,20000,11.112,,,180,,,,,,,,,,,wg-a,,,,AAXX 08094 07460 12670 21806 10090 20050 39901 40300 51018 60006 82500 90900=
07460,1996-11-08 12:00:00,13,1029.3,-0.2,51,3,500,14.816,,,310,,,,,,,,,,,wg-a,,,,AAXX 08124 07460 12600 53108 10130 20030 39900 40293 58002 60006 84801 91200=
07460,1996-11-08 15:00:00,12,1029.5,-0.1,58,4,500,11.112,,,280,,,,,,,,,,15,wg-a,,,,AAXX 08154 07460 12600 /2806 10120 20040 39899 40295 55001 60006 71522 86800 91500=
07460,1996-11-08 18:00:00,6,1031.2,0.9,75,2,15000,3.704,,,200,2.1,14.4,,,,,,,,,wg-a,,,,AAXX 08184 07460 12665 22002 10060 20020 39908 40312 53009 60006 82500 91800 333 10144 20021=
07460,1996-11-08 21:00:00,2,1032.7,0.9,93,1,12000,3.704,,,280,,,,,,,,,,,wg-a,,,,AAXX 08214 07460 12662 /2802 10020 20010 39917 40327 53009 60006 81500 92100=
07460,1996-11-09 00:00:00,3,1033.3,0.7,87,1,11000,3.704,,,340,,,,,,,,,,,wg-a,,,,AAXX 09004 07460 12/61 /3402 10030 20010 39924 40333 51007 60006 90000=
07460,1996-11-09 03:00:00,1,1033.2,-0.4,86,-1,15000,7.408,,,10,,,,,,,,,,,wg-a,,,,AAXX 09034 07460 12665 20104 10010 21010 39920 40332 57004 60006 82500 90300=
07460,1996-11-09 06:00:00,3,1032.9,-0,87,1,20000,3.704,,,360,0.3,6.4,,,,,,,,,wg-a,,,,AAXX 09064 07460 02670 23602 10030 20010 39919 40329 54000 60006 82501 90600 333 10064 20003 60004=
07460,1996-11-09 09:00:00,7,1032.7,0.4,76,3,40000,11.112,,,180,,,,,,,,,,,wg-a,,,,AAXX 09094 07460 12682 /1806 10070 20030 39924 40327 50004 60006 82501 90900=
07460,1996-11-09 12:00:00,12,1029.9,-2.1,54,3,40000,7.408,,,100,,,,,,,,,,,wg-a,,,,AAXX 09124 07460 12682 31004 10120 20030 39904 40299 58021 60006 81131 91200=
07460,1996-11-09 15:00:00,13,1028,-1.7,44,1,40000,3.704,,,30,,,,,,,,,,,wg-a,,,,AAXX 09154 07460 12682 /0302 10130 20010 39886 40280 57017 60006 81102 91500=
07460,1996-11-09 18:00:00,6,1028.1,-0.8,70,1,20000,3.704,,,240,1.9,13.8,,,,,,,,,wg-a,,,,AAXX 09184 07460 12670 /2402 10060 20010 39878 40281 56008 60006 82532 91800 333 10138 20019=
07460,1996-11-09 21:00:00,5,1027.1,-1.2,75,1,15000,3.704,,,320,,,,,,,,,,,wg-a,,,,AAXX 09214 07460 12/65 73202 10050 20010 39866 40271 56012 60006 83032 92100=
07460,1996-11-10 00:00:00,5,1024.4,-2.4,81,2,15000,14.816,,,180,,,,,,,,,,,wg-a,,,,AAXX 10004 07460 12/65 71808 10050 20020 39842 40244 56024 60006 83032 90000=
07460,1996-11-10 03:00:00,5,1021.3,-3,81,2,15000,3.704,,,150,,,,,,,,,,,wg-a,,,,AAXX 10034 07460 12/65 71502 10050 20020 39812 40213 56030 60006 85032 90300=
07460,1996-11-10 06:00:00,6,1019.2,-2,75,2,15000,11.112,,,230,4,6.8,,,,,,,,,wg-a,,,,AAXX 10064 07460 02765 72306 10060 20020 39793 40192 56020 60006 82572 90600 333 10068 20040 60004=
07460,1996-11-10 09:00:00,9,1016.9,-1.7,71,4,20000,11.112,,,190,,,,,,,,,,,wg-a,,,,AAXX 10094 07460 12770 81906 10090 20040 39775 40169 57017 60006 8457/ 90900=
07460,1996-11-10 12:00:00,10,1013.7,-2.9,82,7,15000,18.52,,,190,,,,,,,,,,58,wg-a,,,,AAXX 10124 07460 02665 81910 10100 20070 39746 40137 58029 61000 75865 8557/ 91200 333 6100=
07460,1996-11-10 15:00:00,10,1010.6,-3.1,87,8,15000,3.704,,,330,,,,,,,,,,,wg-a,,,,AAXX 10154 07460 12665 83302 10100 20080 39716 40106 56031 60006 8687/ 91500=
07460,1996-11-10 18:00:00,13,1008.9,-1,67,7,15000,22.224,,,180,5.9,13.3,,,,,,,,,wg-a,,,,AAXX 10184 07460 32665 81812 10130 20070 39704 40089 56010 8657/ 91800 333 10133 20059=
07460,1996-11-10 21:00:00,11,1007.8,-1.4,76,7,15000,11.112,,,260,,,,,,,,,,,wg-a,,,,AAXX 10214 07460 12565 82606 10110 20070 39691 40078 58014 60006 8357/ 92100=
07460,1996-11-11 00:00:00,9,1003.8,-4.1,87,7,15000,3.704,,,340,,,,,,,,,,,wg-a,,,,AAXX 11004 07460 12665 83402 10090 20070 39649 40038 56041 60006 8357/ 90000=
07460,1996-11-11 03:00:00,7,998.9,-5,87,5,15000,3.704,,,120,,,,,,,,,,,wg-a,,,,AAXX 11034 07460 12665 81202 10070 20050 39599 49989 57050 60006 8257/ 90300=
07460,1996-11-11 06:00:00,15,993.1,-4.4,59,7,20000,46.3,,50.004,190,6.3,15.3,,,,,,,,,wg-a,,,,AAXX 11064 07460 02670 81925 10150 20070 39554 49931 56044 60006 8187/ 90600 333 10153 20063 61000 91027=
07460,1996-11-11 09:00:00,11,994.2,0.6,82,8,18000,7.408,,,170,,,,4,,,,,,29,wg-a,,,,AAXX 11094 07460 12568 61704 10110 20080 39560 49942 50006 60047 72998 85870 90900=
07460,1996-11-11 12:00:00,17,990.9,-2.5,59,9,500,18.52,,,170,,,,,,,,,,1,wg-a,,,,AAXX 11124 07460 12600 71710 10170 20090 39536 49909 58025 60046 70198 85832 91200=
07460,1996-11-11 15:00:00,16,988.3,-2.7,63,9,500,42.596,,,180,,,,,,,,,,,wg-a,,,,AAXX 11154 07460 12600 71823 10160 20090 39509 49883 56027 60006 8587/ 91500=
07460,1996-11-11 18:00:00,15,990.6,2,63,8,20000,11.112,,,190,10.6,17.6,,,,,,,,,wg-a,,,,AAXX 11184 07460 32670 71906 10150 20080 39530 49906 53020 8487/ 91800 333 10176 20106=
07460,1996-11-11 21:00:00,9,995.1,3.6,87,7,20000,11.112,,,280,,,,,,,,,,,wg-a,,,,AAXX 11214 07460 12770 42806 10090 20070 39565 49951 51036 60006 83530 92100=
07460,1996-11-12 00:00:00,6,995.1,-0.4,93,5,20000,3.704,,,360,,,,,,,,,,,wg-a,,,,AAXX 12004 07460 12670 73602 10060 20050 39561 49951 58004 60006 8357/ 90000=
07460,1996-11-12 03:00:00,5,994.1,-1.1,93,4,20000,7.408,,,290,,,,,,,,,,,wg-a,,,,AAXX 12034 07460 12670 /2904 10050 20040 39550 49941 56011 60006 83570 90300=
07460,1996-11-12 06:00:00,3,995.2,0.7,100,3,20000,3.704,,,220,2.9,14.2,,,,,4,,,,wg-a,,,,AAXX 12064 07460 02670 72202 10030 20030 39558 49952 53007 60006 8257/ 90600 333 10142 20029 60044=
07460,1996-11-12 09:00:00,6,995.5,1,100,6,11000,3.704,,,350,,,,,,,,,,,wg-a,,,,AAXX 12094 07460 12/61 /3502 10060 20060 39566 49955 50010 60006 90900=
07460,1996-11-12 12:00:00,11,997.4,2.3,82,8,15000,14.816,,,100,,,,2,,,,,,61,wg-a,,,,AAXX 12124 07460 02665 81008 10110 20080 39590 49974 52023 60026 76162 8657/ 91200 333 60027=
07460,1996-11-12 15:00:00,10,999.7,2.2,93,9,10000,11.112,,,100,,,,3,,,,,,61,wg-a,,,,AAXX 12154 07460 12460 81006 10100 20090 39611 49997 53022 60037 76162 8687/ 91500=
07460,1996-11-12 18:00:00,9,1002.3,2.4,100,9,6000,3.704,,,70,3.8,11.8,,,,,,,,,wg-a,,,,AAXX 12184 07460 32/56 /0702 10090 20090 39635 40023 53024 91800 333 10118 20038=
07460,1996-11-12 21:00:00,9,1003.7,1.2,93,8,7000,3.704,,,120,,,,5,,,,,,61,wg-a,,,,AAXX 12214 07460 12457 81202 10090 20080 39648 40037 53012 60057 76166 8557/ 92100=
07460,1996-11-13 00:00:00,7,1005.6,1.5,93,6,8000,7.408,,,240,,,,8,,,,,,61,wg-a,,,,AAXX 13004 07460 02458 82404 10070 20060 39664 40056 50015 60136 76166 8557/ 90000 333 60087=
07460,1996-11-13 03:00:00,7,1006.9,1.2,93,6,15000,7.408,,,170,,,,3,,,,,,,wg-a,,,,AAXX 13034 07460 12465 71704 10070 20060 39676 40069 53012 60037 84531 90300=
07460,1996-11-13 06:00:00,6,1008.4,1.2,93,5,15000,7.408,,,210,5.5,9.2,,,,,27,,,3,wg-a,,,,AAXX 13064 07460 12465 72104 10060 20050 39688 40084 53012 60274 70362 86530 90600 333 10092 20055=
07460,1996-11-13 09:00:00,8,1011.3,3,87,6,500,7.408,,,200,,,,,,,,,,,wg-a,,,,AAXX 13094 07460 12400 72004 10080 20060 39719 40113 51030 60006 878// 90900=
07460,1996-11-13 12:00:00,10,1011.9,0.8,82,7,15000,7.408,,,90,,,,,,,,,,,wg-a,,,,AAXX 13124 07460 12565 70904 10100 20070 39728 40119 50008 60006 878// 91200=
07460,1996-11-13 15:00:00,11,1011.8,0.2,76,7,20000,3.704,,,70,,,,,,,,,,,wg-a,,,,AAXX 13154 07460 12570 50702 10110 20070 39728 40118 53002 60006 84830 91500=
07460,1996-11-13 18:00:00,8,1014.2,1.9,93,7,10000,7.408,,,340,5.4,11.5,,4,,,,,,25,wg-a,,,,AAXX 13184 07460 12460 83404 10080 20070 39748 40142 51019 60047 72586 878// 91800 333 10115 20054=
07460,1996-11-13 21:00:00,7,1015.5,1,87,5,10000,22.224,,,10,,,,,,,,,,21,wg-a,,,,AAXX 13214 07460 02360 70112 10070 20050 39758 40155 53010 61000 72162 877// 92100 333 ////=
07460,1996-11-14 00:00:00,5,1016.8,1.1,87,3,10000,18.52,,,350,,,,,,,,,,60,wg-a,,,,AAXX 14004 07460 02460 73510 10050 20030 39768 40168 53011 61000 76062 877// 90000 333 6100=
07460,1996-11-14 03:00:00,4,1017,0,93,3,10000,14.816,,,350,,,,,,,,,,3,wg-a,,,,AAXX 14034 07460 02460 73508 10040 20030 39769 40170 50000 61000 70362 877// 90300 333 ////=
07460,1996-11-14 06:00:00,4,1017.8,0.8,93,3,12000,18.52,,,20,4.1,8,,,,,4,,,3,wg-a,,,,AAXX 14064 07460 12462 70210 10040 20030 39777 40178 53008 60044 70362 875// 90600 333 10080 20041=
07460,1996-11-14 09:00:00,3,1019.2,1.1,87,1,10000,18.52,,,360,,,,,,,,,,,wg-a,,,,AAXX 14094 07460 12460 83610 10030 20010 39789 40192 51011 60006 886// 90900=
07460,1996-11-14 12:00:00,4,1018.6,-0.5,81,1,10000,14.816,,,20,,,,,,,,,,,wg-a,,,,AAXX 14124 07460 12460 80208 10040 20010 39784 40186 58005 60006 885// 91200=
07460,1996-11-14 15:00:00,5,1018.1,-0.4,75,1,20000,14.816,,,350,,,,,,,,,,,wg-a,,,,AAXX 14154 07460 12570 73508 10050 20010 39780 40181 56004 60006 878// 91500=
07460,1996-11-14 18:00:00,4,1018.6,0.4,75,0,20000,14.816,,,10,3.1,5.3,,,,,,,,,wg-a,,,,AAXX 14184 07460 12570 70108 10040 20000 39784 40186 51004 60006 875// 91800 333 10053 20031=
07460,1996-11-14 21:00:00,3,1018.3,-0.4,75,-1,15000,11.112,,,350,,,,,,,,,,,wg-a,,,,AAXX 14214 07460 12565 83506 10030 21010 39780 40183 56004 60006 875// 92100=
07460,1996-11-15 00:00:00,2,1017.7,-0.8,87,0,8000,14.816,,,340,,,,0,,,,,,23,wg-a,,,,AAXX 15004 07460 02558 83408 10020 20000 39772 40177 57008 60016 72376 875// 90000 333 60007=
07460,1996-11-15 03:00:00,2,1017.3,-0.4,87,0,9000,7.408,,,20,,,,,,,,,,,wg-a,,,,AAXX 15034 07460 12559 80204 10020 20000 39768 40173 58004 60006 875// 90300=
07460,1996-11-15 06:00:00,2,1017.2,-0.1,87,0,9000,3.704,,,20,1.5,3.9,,,,,,,,,wg-a,,,,AAXX 15064 07460 12359 80202 10020 20000 39767 40172 55001 60004 875// 90600 333 10039 20015=
07460,1996-11-15 09:00:00,2,1018.1,0.9,87,0,7000,3.704,,,350,,,,,,,,,,,wg-a,,,,AAXX 15094 07460 12357 83502 10020 20000 39776 40181 51009 60006 875// 90900=
07460,1996-11-15 12:00:00,4,1017.9,0.1,81,1,7000,3.704,,,70,,,,,,,,,,,wg-a,,,,AAXX 15124 07460 12457 80702 10040 20010 39777 40179 50001 60006 875// 91200=
07460,1996-11-15 15:00:00,2,1018.5,0.4,93,1,500,0,,,0,,,,2,,,,,,61,wg-a,,,,AAXX 15154 07460 12200 80000 10020 20010 39781 40185 53004 60027 76176 875// 91500=
07460,1996-11-15 18:00:00,3,1019.5,1,93,2,500,7.408,,,230,1.5,3.6,,1,,,,,,61,wg-a,,,,AAXX 15184 07460 12200 82304 10030 20020 39791 40195 53010 60017 76176 875// 91800 333 10036 20015=
07460,1996-11-15 20:00:00,3,1019.5,1,93,2,500,7.408,,,230,1.5,3.6,,1,,,,,,68,wg-a,,,,AAXX 15204 07460 12200 82304 10030 20020 39791 40195 53010 60017 76876 875// 92000 333 10036 20015=
07460,1996-11-15 21:00:00,4,1020.3,0.9,93,3,7000,3.704,,,330,,,,,,,,,,1,wg-a,,,,AAXX 15214 07460 02357 83302 10040 20030 39800 40203 52009 61000 70176 877// 92100 333 ////=
07460,1996-11-16 00:00:00,4,1020.3,-0,93,3,7000,0,,,0,,,,,,,,,,1,wg-a,,,,AAXX 16004 07460 02257 80000 10040 20030 39800 40203 54000 61000 70176 877// 90000 333 ////=
07460,1996-11-16 03:00:00,3,1020.5,0.1,100,3,500,3.704,,,230,,,,2,,,,,,60,wg-a,,,,AAXX 16034 07460 12100 82302 10030 20030 39801 40205 50001 60027 76062 877// 90300=
07460,1996-11-16 06:00:00,4,1020.3,-0.1,93,3,500,3.704,,,80,2.6,3.7,,,,,5,,,3,wg-a,,,,AAXX 16064 07460 02100 80802 10040 20030 39800 40203 55001 60054 70362 877// 90600 333 10037 20026 61000=
07460,1996-11-16 09:00:00,4,1021.7,1.2,93,3,2000,3.704,,,360,,,,,,,,,,10,wg-a,,,,AAXX 16094 07460 12220 83602 10040 20030 39813 40217 51012 60006 71022 886// 90900=
07460,1996-11-16 12:00:00,4,1020.3,-1.1,100,4,3000,3.704,,,290,,,,,,,,,,10,wg-a,,,,AAXX 16124 07460 12230 82902 10040 20040 39801 40203 58011 60006 71022 886// 91200=
07460,1996-11-16 15:00:00,4,1020.5,0.2,100,4,2500,3.704,,,300,,,,,,,,,,10,wg-a,,,,AAXX 16154 07460 12225 83002 10040 20040 39803 40205 50002 60006 71022 886// 91500=
07460,1996-11-16 18:00:00,5,1020,-0.5,93,4,3000,7.408,,,10,3.4,4.5,,0,,,,,,10,wg-a,,,,AAXX 16184 07460 12230 80104 10050 20040 39798 40200 56005 60007 71062 887// 91800 333 10045 20034=
07460,1996-11-16 21:00:00,5,1018.8,-1.1,93,4,3500,7.408,,,310,,,,0,,,,,,10,wg-a,,,,AAXX 16214 07460 12335 83104 10050 20040 39787 40188 58011 60007 71062 887// 92100=
07460,1996-11-17 00:00:00,4,1017.6,-1.2,100,4,4000,0,,,0,,,,,,,,,,10,wg-a,,,,AAXX 17004 07460 12240 80000 10040 20040 39775 40176 58012 60006 71062 887// 90000=
07460,1996-11-17 03:00:00,4,1015.6,-2,93,3,2000,3.704,,,20,,,,,,,,,,,wg-a,,,,AAXX 17034 07460 12120 80202 10040 20030 39755 40156 56020 60006 887// 90300=
07460,1996-11-17 06:00:00,3,1014,-1.5,100,3,900,0,,,0,3.2,5.1,,,,,1,,,10,wg-a,,,,AAXX 17064 07460 12/09 90000 10030 20030 39739 40140 57015 60014 71042 89/// 90600 333 10051 20032=
07460,1996-11-17 09:00:00,4,1012.7,-1.2,93,3,2000,3.704,,,350,,,,,,,,,,28,wg-a,,,,AAXX 17094 07460 02020 93502 10040 20030 39727 40127 58012 61000 72864 897// 90900 333 ////=
07460,1996-11-17 12:00:00,4,1010.4,-2.2,100,4,4500,3.704,,,80,,,,2,,,,,,10,wg-a,,,,AAXX 17124 07460 02145 80802 10040 20040 39706 40104 58022 60026 71064 877// 91200 333 60027=
07460,1996-11-17 15:00:00,5,1008.4,-1.7,93,4,6000,3.704,,,340,,,,,,,,,,,wg-a,,,,AAXX 17154 07460 12256 83402 10050 20040 39688 40084 56017 60006 887// 91500=
07460,1996-11-17 18:00:00,5,1007.4,-1,93,4,4000,7.408,,,350,3.3,5.2,,1,,,,,,10,wg-a,,,,AAXX 17184 07460 12240 83504 10050 20040 39678 40074 56010 60017 71062 887// 91800 333 10052 20033=
07460,1996-11-17 21:00:00,4,1006.7,-0.8,100,4,4000,11.112,,,10,,,,1,,,,,,10,wg-a,,,,AAXX 17214 07460 12140 80106 10040 20040 39670 40067 56008 60017 71066 887// 92100=
07460,1996-11-18 00:00:00,4,1005.6,-1.1,100,4,6000,3.704,,,20,,,,1,,,,,,60,wg-a,,,,AAXX 18004 07460 02156 80202 10040 20040 39659 40056 58011 60036 76062 877// 90000 333 60017=
07460,1996-11-18 03:00:00,4,1004,-1.5,93,3,8000,11.112,,,20,,,,0,,,,,,1,wg-a,,,,AAXX 18034 07460 12158 80206 10040 20030 39644 40040 56015 60007 70162 877// 90300=
07460,1996-11-18 06:00:00,4,1003.8,-0.3,87,2,10000,11.112,,,340,3.5,4.8,,1,,,7,,,61,wg-a,,,,AAXX 18064 07460 02460 83406 10040 20020 39641 40038 55003 60074 76165 8657/ 90600 333 10048 20035 60017=
07460,1996-11-18 09:00:00,4,1004.8,1.1,87,2,12000,18.52,,,310,,,,1,,,,,,60,wg-a,,,,AAXX 18094 07460 12462 83110 10040 20020 39652 40048 53011 60017 76062 8657/ 90900=
07460,1996-11-18 12:00:00,5,1005.6,0.8,81,2,15000,18.52,,38.892,320,,,,,,,,,,2,wg-a,,,,AAXX 18124 07460 02465 83210 10050 20020 39660 40056 51008 60016 70262 8657/ 91200 333 61000 91021=
07460,1996-11-18 15:00:00,5,1007,1.3,75,1,10000,18.52,,,280,,,,,,,,,,,wg-a,,,,AAXX 18154 07460 12460 82810 10050 20010 39674 40070 52013 60006 8657/ 91500=
07460,1996-11-18 18:00:00,4,1009.4,2.1,81,1,12000,14.816,,,300,3.1,5,,,,,,,,,wg-a,,,,AAXX 18184 07460 32562 73008 10040 20010 39696 40094 53021 8557/ 91800 333 10050 20031=
07460,1996-11-18 21:00:00,4,1011,1.5,75,0,20000,7.408,,,320,,,,,,,,,,,wg-a,,,,AAXX 18214 07460 12570 73204 10040 20000 39711 40110 53015 60006 8553/ 92100=
07460,1996-11-19 00:00:00,2,1012.2,0.8,75,-2,20000,7.408,,,250,,,,,,,,,,,wg-a,,,,AAXX 19004 07460 12570 12504 10020 21020 39719 40122 51008 60006 81500 90000=
07460,1996-11-19 03:00:00,-1,1011.4,-1.1,86,-3,20000,11.112,,,170,,,,,,,,,,,wg-a,,,,AAXX 19034 07460 12/70 01706 11010 21030 39708 40114 58011 60006 80000 90300=
07460,1996-11-19 06:00:00,0,1008.4,-2.8,80,-3,20000,11.112,,,170,-0.9,4.6,,,,,1,,,,wg-a,,,,AAXX 19064 07460 02/70 71706 10000 21030 39680 40084 58028 60006 80004 90600 333 10046 21009 60014=
07460,1996-11-19 09:00:00,0,1008.4,-2.8,80,-3,20000,11.112,,,170,-0.9,4.6,,,,,1,,,,wg-a,,,,AAXX 19094 07460 02/70 71706 10000 21030 39680 40084 58028 60006 80004 90900 333 10046 21009 60014=
07460,1996-11-19 12:00:00,5,995.7,-12.7,70,0,15000,38.892,,,170,,,,,,,,,,14,wg-a,,,,AAXX 19124 07460 12565 81721 10050 20000 39565 49957 58127 60006 71422 8387/ 91200=
07460,1996-11-19 15:00:00,6,991.2,-3.9,81,3,15000,42.596,,64.82,190,,,,,,,,,,15,wg-a,,,,AAXX 19154 07460 02565 71923 10060 20030 39524 49912 56039 61000 71562 84532 91500 333 //// 91035=
07460,1996-11-19 18:00:00,6,991.5,0.3,87,4,15000,31.484,,,180,-0.4,8.1,,1,,,,,,60,wg-a,,,,AAXX 19184 07460 12665 71817 10060 20040 39527 49915 52003 60017 76062 85802 91800 333 10081 21004=
07460,1996-11-19 21:00:00,7,991.7,-0,76,3,15000,22.224,,,230,,,,0,,,,,,21,wg-a,,,,AAXX 19214 07460 12665 52312 10070 20030 39529 49917 55000 60007 72162 84802 92100=
07460,1996-11-20 00:00:00,7,991.3,-0.4,70,2,10000,29.632,,,230,,,,,,,,,,3,wg-a,,,,AAXX 20004 07460 02660 62316 10070 20020 39526 49913 56004 60016 70386 85801 90000 333 61000=
07460,1996-11-20 03:00:00,7,990.5,-0.8,66,1,12000,35.188,,62.968,240,,,,,,,,,,,wg-a,,,,AAXX 20034 07460 12662 72419 10070 20010 39518 49905 55008 60006 8357/ 90300 333 91034=
07460,1996-11-20 06:00:00,6,991.3,0.6,70,1,15000,35.188,,,240,5.4,8.1,,0,,,1,,,21,wg-a,,,,AAXX 20064 07460 02665 62419 10060 20010 39524 49913 53006 60014 72162 82870 90600 333 10081 20054 60007=
07460,1996-11-20 09:00:00,6,995.6,4.2,70,1,15000,11.112,,,170,,,,,,,,,,15,wg-a,,,,AAXX 20094 07460 02565 71706 10060 20010 39566 49956 53042 61000 71562 878// 90900 333 ////=
07460,1996-11-20 12:00:00,6,997.7,2.3,75,2,10000,18.52,,,210,,,,0,,,,,,15,wg-a,,,,AAXX 20124 07460 02560 72110 10060 20020 39586 49977 52023 60006 71586 878// 91200 333 60007=
07460,1996-11-20 15:00:00,7,999.9,1.9,66,1,20000,7.408,,,280,,,,0,,,,,,25,wg-a,,,,AAXX 20154 07460 12570 62804 10070 20010 39608 49999 53019 60007 72586 85840 91500=
07460,1996-11-20 18:00:00,5,1003,3.1,75,1,15000,22.224,,,290,4.8,8,,,,,,,,15,wg-a,,,,AAXX 20184 07460 32465 72912 10050 20010 39636 40030 53031 71586 878// 91800 333 10080 20048=
07460,1996-11-20 21:00:00,5,1006.3,3.1,70,0,12000,14.816,,,270,,,,0,,,,,,1,wg-a,,,,AAXX 20214 07460 12462 72708 10050 20000 39668 40063 52031 60007 70186 878// 92100=
07460,1996-11-21 00:00:00,5,1008.4,1.9,65,-1,0,18.52,,,270,,,,,,,,,,,wg-a,,,,AAXX 21004 07460 12/// /2710 10050 21010 39687 40084 53019 60016 90000=
07460,1996-11-21 03:00:00,3,1009.6,0.8,65,-3,20000,11.112,,,230,,,,,,,,,,,wg-a,,,,AAXX 21034 07460 12670 /2306 10030 21030 39695 40096 52008 60006 81500 90300=
07460,1996-11-21 06:00:00,2,1011.5,1.7,69,-3,20000,3.704,,,160,2,6,,,,,1,,,,wg-a,,,,AAXX 21064 07460 12670 31602 10020 21030 39713 40115 52017 60014 81501 90600 333 10060 20020=
07460,1996-11-21 09:00:00,5,1012.4,1.2,60,-2,500,11.112,,,180,,,,,,,,,,,wg-a,,,,AAXX 21094 07460 12600 /1806 10050 21020 39725 40124 51012 60006 81132 90900=
07460,1996-11-21 12:00:00,7,1012.1,0,53,-2,40000,14.816,,,260,,,,,,,,,,,wg-a,,,,AAXX 21124 07460 12682 /2608 10070 21020 39725 40121 50000 60006 81831 91200=
07460,1996-11-21 15:00:00,6,1010.5,-1.6,56,-2,50000,0,,,0,,,,,,,,,,,wg-a,,,,AAXX 21154 07460 12684 70000 10060 21020 39709 40105 58016 60006 8282/ 91500=
07460,1996-11-21 18:00:00,5,1008.3,-2.3,65,-1,15000,3.704,,,170,1.4,7.5,,,,,,,,60,wg-a,,,,AAXX 21184 07460 02665 81702 10050 21010 39686 40083 56023 61000 76062 8157/ 91800 333 10075 20014 ////=
07460,1996-11-21 21:00:00,1,1006.5,-2.4,93,0,4000,7.408,,,50,,,,2,,,,,,71,wg-a,,,,AAXX 21214 07460 12240 80504 10010 20000 39663 40065 58024 60027 77176 8452/ 92100=
07460,1996-11-22 00:00:00,0,1002.6,-3.8,100,0,2500,18.52,,,10,,,,0,,,,,,71,wg-a,,,,AAXX 22004 07460 02225 80110 10000 20000 39625 40026 56038 60026 77176 8572/ 90000 333 60007=
07460,1996-11-22 03:00:00,1,1008.4,5.5,93,0,15000,22.224,,,340,,,,1,,,,,,3,wg-a,,,,AAXX 22034 07460 12265 83412 10010 20000 39681 40084 53055 60017 70372 876// 90300=
07460,1996-11-22 06:00:00,1,1014,5.5,93,0,10000,7.408,,,350,0.1,4.8,,1,,,4,,,70,wg-a,,3,,AAXX 22064 07460 02360 83504 10010 20000 39736 40140 51055 60044 77072 887// 90600 333 10048 20001 4/003 60017=
07460,1996-11-22 09:00:00,2,1017.7,3.6,87,0,10000,7.408,,,350,,,,0,,,,,,3,wg-a,,,,AAXX 22094 07460 12460 73504 10020 20000 39772 40177 51036 60007 70372 877// 90900=
07460,1996-11-22 12:00:00,3,1018,0.3,81,0,20000,5.556,,,50,,,,,,,,,,1,wg-a,,,,AAXX 22124 07460 12470 30503 10030 20000 39776 40180 50003 60006 70171 83800 91200=
07460,1996-11-22 15:00:00,3,1017.8,-0.1,75,-1,20000,3.704,,,160,,,,,,,,,,,wg-a,,,,AAXX 22154 07460 12570 51602 10030 21010 39775 40178 55001 60006 83801 91500=
07460,1996-11-22 18:00:00,-1,1017.3,-1,93,-2,15000,3.704,,,230,-1,4.6,,,,,,,,,wg-a,,,,AAXX 22184 07460 32565 /2302 11010 21020 39764 40173 55010 82531 91800 333 10046 21010=
07460,1996-11-22 21:00:00,-2,1016.9,-0.3,93,-3,15000,7.408,,,170,,,,,,,,,,,wg-a,,,,AAXX 22214 07460 12/65 21704 11020 21030 39759 40169 58003 60006 80001 92100=
07460,1996-11-23 00:00:00,-2,1015,-1.9,86,-4,20000,11.112,,,160,,,,,,,,,,,wg-a,,,,AAXX 23004 07460 12/70 71606 11020 21040 39741 40150 56019 60006 81031 90000=
07460,1996-11-23 03:00:00,-3,1014,-1.1,86,-5,20000,11.112,,,190,,,,,,,,,,,wg-a,,,,AAXX 23034 07460 12/70 21906 11030 21050 39730 40140 56011 60006 82030 90300=
07460,1996-11-23 06:00:00,-4,1015.4,1.1,86,-6,500,0,,,0,-5.6,-1,,,,,,,,,wg-a,,,,AAXX 23064 07460 02/00 00000 11040 21060 39741 40154 53011 60006 80000 90600 333 11010 21056 60004=
07460,1996-11-23 09:00:00,-1,1015.4,0.5,80,-4,500,11.112,,,220,,,,,,,,,,,wg-a,,,,AAXX 23094 07460 12600 62206 11010 21040 39746 40154 51005 60006 84830 90900=
07460,1996-11-23 12:00:00,0,1015.9,0.6,86,-2,10000,11.112,,,20,,,,,,,,,,70,wg-a,,,,AAXX 23124 07460 02660 70206 10000 21020 39752 40159 51006 61000 77087 85830 91200 333 6100=
07460,1996-11-23 15:00:00,4,1016.6,1.1,81,1,10000,7.408,,,250,,,,,,,,,,3,wg-a,,,,AAXX 23154 07460 02560 72504 10040 20010 39764 40166 53011 61000 70376 86830 91500 333 ////=
07460,1996-11-23 18:00:00,3,1020.2,3.3,87,1,7000,11.112,,,310,-4,4.9,,,,,,,,60,wg-a,,,,AAXX 23184 07460 02557 /3106 10030 20010 39798 40202 53033 61000 76076 86800 91800 333 10049 21040 ////=
07460,1996-11-23 21:00:00,2,1023.4,2.7,87,0,14000,3.704,,,180,,,,,,,,,,1,wg-a,,,,AAXX 23214 07460 02564 41802 10020 20000 39826 40234 51027 61000 70161 84800 92100 333 ////=
07460,1996-11-24 00:00:00,1,1025.2,1.7,80,-2,14000,7.408,,,310,,,,,,,,,,,wg-a,,,,AAXX 24004 07460 02564 23104 10010 21020 39843 40252 51017 61000 82800 90000 333 ////=
07460,1996-11-24 03:00:00,-2,1027.3,1.6,93,-3,14000,7.408,,,120,,,,,,,,,,,wg-a,,,,AAXX 24034 07460 12564 21204 11020 21030 39859 40273 51016 60006 82100 90300=
07460,1996-11-24 06:00:00,-1,1027.4,0.2,86,-3,14000,11.112,,,220,-2.6,3.5,,,,,,,,,wg-a,,,,AAXX 24064 07460 02564 72206 11010 21030 39861 40274 50002 61000 878// 90600 333 10035 21026 ////=
07460,1996-11-24 09:00:00,1,1029.2,1.9,86,-1,15000,3.704,,,70,,,,,,,,,,,wg-a,,,,AAXX 24094 07460 12565 20702 10010 21010 39881 40292 51019 60006 81101 90900=
07460,1996-11-24 12:00:00,5,1027.5,-1,65,-1,20000,7.408,,,160,,,,,,,,,,,wg-a,,,,AAXX 24124 07460 12670 21604 10050 21010 39871 40275 58010 60006 82201 91200=
07460,1996-11-24 15:00:00,4,1025.3,-2.3,70,-1,25000,11.112,,,200,,,,,,,,,,,wg-a,,,,AAXX 24154 07460 12675 /2006 10040 21010 39848 40253 56023 60006 81104 91500=
07460,1996-11-24 18:00:00,1,1023.9,-1.7,80,-2,20000,3.704,,,130,-1.5,5.5,,,,,,,,,wg-a,,,,AAXX 24184 07460 12/70 71302 10010 21020 39831 40239 56017 60006 83036 91800 333 10055 21015=
07460,1996-11-24 21:00:00,2,1021.5,-2.3,75,-2,20000,3.704,,,130,,,,,,,,,,,wg-a,,,,AAXX 24214 07460 12/70 71302 10020 21020 39809 40215 58023 60006 83036 92100=
07460,1996-11-25 00:00:00,3,1018.7,-2.6,70,-2,20000,7.408,,,280,,,,,,,,,,,wg-a,,,,AAXX 25004 07460 12670 72804 10030 21020 39783 40187 56026 60006 8583/ 90000=
07460,1996-11-25 03:00:00,4,1015.2,-3.2,65,-2,20000,11.112,,,180,,,,,,,,,,,wg-a,,,,AAXX 25034 07460 12570 71806 10040 21020 39751 40152 58032 60006 8583/ 90300=
07460,1996-11-25 06:00:00,5,1009.8,-4.9,87,3,15000,31.484,,,180,1,5.6,,1,,,1,,,61,wg-a,,,,AAXX 25064 07460 02665 71817 10050 20030 39701 40098 56049 60014 76162 875// 90600 333 10056 20010 60017=
07460,1996-11-25 09:00:00,9,1006.6,-2.3,87,7,12000,31.484,,,170,,,,4,,,,,,61,wg-a,,,,AAXX 25094 07460 12562 81717 10090 20070 39677 40066 56023 60047 76166 8557/ 90900=
07460,1996-11-25 12:00:00,12,1003.2,-3,71,7,15000,22.224,,,180,,,,1,,,,,,21,wg-a,,,,AAXX 25124 07460 02565 71812 10120 20070 39647 40032 58030 60056 72162 8487/ 91200 333 60017=
07460,1996-11-25 15:00:00,9,1004.2,0.5,71,4,20000,7.408,,,180,,,,1,,,,,,21,wg-a,,,,AAXX 25154 07460 12570 71804 10090 20040 39652 40042 53005 60017 72162 8487/ 91500=
07460,1996-11-25 18:00:00,9,1003.1,-0.9,71,4,15000,11.112,,,220,5,11.9,,0,,,,,,3,wg-a,,,,AAXX 25184 07460 12565 72206 10090 20040 39643 40031 58009 60007 70362 8683/ 91800 333 10119 20050=
07460,1996-11-25 21:00:00,8,1003.3,-0,76,4,15000,3.704,,,200,,,,0,,,,,,25,wg-a,,,,AAXX 25214 07460 12565 72002 10080 20040 39643 40033 54000 60007 72586 8683/ 92100=
07460,1996-11-26 00:00:00,7,1005.1,1.4,81,4,10000,18.52,,,280,,,,2,,,,,,81,wg-a,,,,AAXX 26004 07460 02560 72810 10070 20040 39658 40051 53014 60026 78186 8683/ 90000 333 60027=
07460,1996-11-26 03:00:00,7,1007.7,2.6,76,3,10000,14.816,,,310,,,,0,,,,,,1,wg-a,,,,AAXX 26034 07460 12560 /3108 10070 20030 39683 40077 53026 60007 70186 86800 90300=
07460,1996-11-26 06:00:00,5,1009.4,1.5,81,2,15000,11.112,,,320,4.7,9.4,,,,,9,,,25,wg-a,,,,AAXX 26064 07460 02565 43206 10050 20020 39697 40094 53015 60094 72586 84800 90600 333 10094 20047 61000=
07460,1996-11-26 09:00:00,6,1011.6,2.3,75,2,15000,14.816,,,310,,,,0,,,,,,3,wg-a,,,,AAXX 26094 07460 12565 73108 10060 20020 39720 40116 53023 60007 70386 878// 90900=
07460,1996-11-26 12:00:00,6,1013,1.2,81,3,10000,14.816,,,320,,,,,,,,,,80,wg-a,,,,AAXX 26124 07460 02360 73208 10060 20030 39733 40130 51012 60006 78086 878// 91200 333 61000=
07460,1996-11-26 15:00:00,6,1013.7,0.7,81,3,18000,11.112,,,330,,,,,,,,,,3,wg-a,,,,AAXX 26154 07460 02668 73306 10060 20030 39740 40137 53007 61000 70386 878// 91500 333 ////=
07460,1996-11-26 18:00:00,4,1015,1,87,2,12000,14.816,,,310,4.4,7.6,,1,,,,,,21,wg-a,,,,AAXX 26184 07460 12262 73108 10040 20020 39750 40150 52010 60017 72186 878// 91800 333 10076 20044=
07460,1996-11-26 21:00:00,3,1016,0.8,93,2,12000,7.408,,,100,,,,,,,,,,,wg-a,,,,AAXX 26214 07460 12562 71004 10030 20020 39758 40160 53008 60006 875// 92100=
07460,1996-11-27 00:00:00,2,1015.9,-0.3,100,2,15000,3.704,,,240,,,,,,,,,,,wg-a,,,,AAXX 27004 07460 12665 72402 10020 20020 39756 40159 58003 60006 875// 90000=
07460,1996-11-27 03:00:00,1,1015.6,-0.5,93,0,20000,3.704,,,20,,,,,,,,,,,wg-a,,,,AAXX 27034 07460 12770 /0202 10010 20000 39750 40156 57005 60006 86530 90300=
07460,1996-11-27 06:00:00,3,1013.5,-1.7,87,1,20000,11.112,,,170,0.3,4.7,,,,,1,,,,wg-a,,,,AAXX 27064 07460 02770 71706 10030 20010 39733 40135 56017 60006 8153/ 90600 333 10047 20003 60014=
07460,1996-11-27 09:00:00,3,1011.2,-2,87,1,14000,22.224,,,180,,,,,,,,,,,wg-a,,,,AAXX 27094 07460 12664 71812 10030 20010 39712 40112 58020 60006 8383/ 90900=
07460,1996-11-27 12:00:00,4,1006.2,-4.8,87,2,6000,22.224,,,170,,,,1,,,,,,60,wg-a,,,,AAXX 27124 07460 02456 81712 10040 20020 39665 40062 58048 60016 76076 878// 91200 333 60017=
07460,1996-11-27 15:00:00,12,998.4,-6.5,76,8,11000,42.596,,64.82,250,,,,0,,,,,,,wg-a,,,,AAXX 27154 07460 12/61 /2523 10120 20080 39601 49984 56065 60007 91500 333 91035=
07460,1996-11-27 18:00:00,9,1001.8,2.9,66,3,12000,53.708,,72.228,270,2,12.6,,1,,,,,,2,wg-a,,,,AAXX 27184 07460 12562 42729 10090 20030 39629 40018 51029 60017 70261 84800 91800 333 10126 20020 91039=
07460,1996-11-28 00:00:00,2,1008.3,2.7,93,1,7000,11.112,,,10,,,,1,,,,,,61,wg-a,,,,AAXX 28004 07460 02557 70106 10020 20010 39682 40083 53027 60016 76176 875// 90000 333 60017=
07460,1996-11-28 03:00:00,1,1011.3,2.7,93,0,2500,3.704,,,330,,,,2,,,,,,10,wg-a,,,,AAXX 28034 07460 12125 83302 10010 20000 39709 40113 53027 60027 71077 8577/ 90300=
07460,1996-11-28 06:00:00,1,1014.8,3.5,86,-1,9000,18.52,,,340,0.4,8.6,,,,,5,,,22,wg-a,,0,,AAXX 28064 07460 02159 83410 10010 21010 39743 40148 53035 60054 72276 877// 90600 333 10086 20004 4/9999 61000=
07460,1996-11-28 09:00:00,0,1018.9,3.6,80,-3,9000,22.224,,,330,,,,,,,,,,22,wg-a,,,,AAXX 28094 07460 02459 83312 10000 21030 39781 40189 51036 61000 72272 878// 90900 333 ////=
07460,1996-11-28 12:00:00,1,1020.6,1.7,75,-3,11000,18.52,,,330,,,,,,,,,,70,wg-a,,,,AAXX 28124 07460 02561 73310 10010 21030 39798 40206 51017 61000 77087 875// 91200 333 6100=
07460,1996-11-28 15:00:00,1,1022,1.3,86,-1,10000,11.112,,,20,,,,,,,,,,22,wg-a,,,,AAXX 28154 07460 02560 70206 10010 21010 39812 40220 53013 61000 72272 875// 91500 333 ////=
07460,1996-11-28 18:00:00,2,1022.8,0.9,75,-2,12000,7.408,,,340,0.1,2.1,,,,,,,,1,wg-a,,,,AAXX 28184 07460 32562 73404 10020 21020 39821 40228 52009 70172 875// 91800 333 10021 20001=
07460,1996-11-28 21:00:00,1,1024.1,1.1,93,0,9000,7.408,,,100,,,,,,,,,,,wg-a,,,,AAXX 28214 07460 12559 71004 10010 20000 39832 40241 53011 60006 875// 92100=
07460,1996-11-29 00:00:00,0,1024.7,0.5,93,-1,7000,3.704,,,240,,,,,,,,,,3,wg-a,,,,AAXX 29004 07460 02557 72402 10000 21010 39837 40247 53005 61000 70372 875// 90000 333 6100=
07460,1996-11-29 03:00:00,0,1024.2,-0.6,93,-1,12000,0,,,0,,,,,,,,,,,wg-a,,,,AAXX 29034 07460 12562 50000 10000 21010 39831 40242 57006 60006 85500 90300=
07460,1996-11-29 06:00:00,0,1022.8,-1.3,86,-2,20000,3.704,,,190,-2,2.2,,,,,,,,,wg-a,,,,AAXX 29064 07460 02670 /1902 10000 21020 39818 40228 57013 61000 81534 90600 333 10022 21020 ////=
07460,1996-11-29 09:00:00,1,1021.4,-1.2,86,-1,9000,25.928,,,170,,,,,,,,,,,wg-a,,,,AAXX 29094 07460 12/59 /1714 10010 21010 39806 40214 58012 60006 90900=
07460,1996-11-29 12:00:00,3,1016.4,-4.5,87,1,12000,22.224,,,180,,,,1,,,,,,60,wg-a,,,,AAXX 29124 07460 02562 81812 10030 20010 39761 40164 58045 60016 76076 8252/ 91200 333 60017=
07460,1996-11-29 15:00:00,8,1012.7,-2.9,76,4,10000,11.112,,,200,,,,1,,,,,,60,wg-a,,,,AAXX 29154 07460 12560 82006 10080 20040 39733 40127 56029 60017 76076 8252/ 91500=
07460,1996-11-29 18:00:00,9,1012.1,-0.3,76,5,11000,18.52,,,240,-0.4,9.3,,,,,,,,,wg-a,,,,AAXX 29184 07460 32/61 /2410 10090 20050 39729 40121 58003 91800 333 10093 21004=
07460,1996-11-29 21:00:00,11,1009.6,-2.2,71,6,14000,29.632,,,230,,,,,,,,,,60,wg-a,,,,AAXX 29214 07460 02564 82316 10110 20060 39707 40096 58022 61000 76062 8547/ 92100 333 ////=
07460,1996-11-30 00:00:00,12,1006.8,-2.7,76,8,13000,38.892,,68.524,260,,,,0,,,,,,1,wg-a,,,,AAXX 30004 07460 02563 72621 10120 20080 39682 40068 56027 60006 70162 8247/ 90000 333 60007 91037=
07460,1996-11-30 03:00:00,13,1005.8,-1,72,8,12000,25.928,,48.152,290,,,,,,,,,,,wg-a,,,,AAXX 30034 07460 12562 82914 10130 20080 39673 40058 56010 60006 8347/ 90300 333 91026=
07460,1996-11-30 06:00:00,12,1005.4,-0.6,76,8,12000,11.112,,29.632,310,9,12.8,,0,,,2,,,61,wg-a,,,,AAXX 30064 07460 02562 83106 10120 20080 39668 40054 56006 60024 76162 878// 90600 333 10128 20090 60007 91016=
07460,1996-11-30 09:00:00,8,1007,1.2,93,7,8000,18.52,,,20,,,,1,,,,,,60,wg-a,,,,AAXX 30094 07460 12458 80210 10080 20070 39679 40070 52012 60017 76062 878// 90900=
07460,1996-11-30 12:00:00,9,1007.9,1.1,76,5,20000,18.52,,,340,,,,1,,,,,,21,wg-a,,,,AAXX 30124 07460 02570 73410 10090 20050 39689 40079 50011 60036 72162 878// 91200 333 60017=
07460,1996-11-30 15:00:00,7,1008.9,0.5,87,5,9000,22.224,,,360,,,,,,,,,,16,wg-a,,,,AAXX 30154 07460 02459 73612 10070 20050 39696 40089 53005 61000 71686 878// 91500 333 ////=
07460,1996-11-30 18:00:00,7,1011.4,2.5,81,4,12000,22.224,,37.04,310,6.2,11.5,,1,,,,,,25,wg-a,,,,AAXX 30184 07460 12562 /3112 10070 20040 39719 40114 53025 60017 72586 86800 91800 333 10115 20062 91020=
07460,1996-11-30 21:00:00,7,1014.6,3.1,76,3,12000,18.52,,,320,,,,,,,,,,80,wg-a,,,,AAXX 30214 07460 02562 /3210 10070 20030 39750 40146 52031 61000 78086 86800 92100 333 ////=
07460,1996-12-01 00:00:00,7,1017.4,2.8,81,4,12000,11.112,,,350,,,,,,,,,,25,wg-a,,,,AAXX 01004 07460 02462 /3506 10070 20040 39777 40174 53028 61000 72586 86800 90000 333 6100=
07460,1996-12-01 03:00:00,6,1020,2.3,81,3,12000,14.816,,,330,,,,,,,,,,,wg-a,,,,AAXX 01034 07460 12562 /3308 10060 20030 39801 40200 51023 60006 86800 90300=
07460,1996-12-01 06:00:00,6,1022.6,2.4,81,3,12000,7.408,,,350,5.4,7.1,,,,,4,,,60,wg-a,,,,AAXX 01064 07460 02562 /3504 10060 20030 39825 40226 53024 60044 76086 86800 90600 333 10071 20054 61000=
07460,1996-12-01 09:00:00,6,1024.3,1.6,87,4,15000,11.112,,,110,,,,,,,,,,1,wg-a,,,,AAXX 01094 07460 02565 71106 10060 20040 39841 40243 51016 61000 70162 878// 90900 333 ////=
07460,1996-12-01 12:00:00,9,1023.8,0,71,4,11000,3.704,,,70,,,,,,,,,,,wg-a,,,,AAXX 01124 07460 02/61 /0702 10090 20040 39841 40238 50000 61000 91200 333 ////=
07460,1996-12-01 15:00:00,8,1022.9,-1,66,2,25000,7.408,,,100,,,,,,,,,,,wg-a,,,,AAXX 01154 07460 12675 71004 10080 20020 39831 40229 56010 60006 8717/ 91500=
07460,1996-12-01 18:00:00,6,1022.2,-1,87,4,15000,7.408,,,120,4.8,9,,,,,,,,20,wg-a,,,,AAXX 01184 07460 02565 81204 10060 20040 39822 40222 58010 61000 72052 8557/ 91800 333 10090 20048 ////=
07460,1996-12-01 21:00:00,7,1020.9,-1.1,87,5,12000,11.112,,,190,,,,,,,,,,,wg-a,,,,AAXX 01214 07460 12562 81906 10070 20050 39811 40209 58011 60006 875// 92100=
07460,1996-12-02 00:00:00,8,1020,-0.7,87,6,12000,3.704,,,130,,,,,,,,,,,wg-a,,,,AAXX 02004 07460 12562 81302 10080 20060 39804 40200 56007 60006 875// 90000=
07460,1996-12-02 03:00:00,11,1020.1,0.4,71,6,15000,14.816,,,280,,,,,,,,,,,wg-a,,,,AAXX 02034 07460 12565 72808 10110 20060 39808 40201 53004 60006 875// 90300=
07460,1996-12-02 06:00:00,9,1021.9,1.6,71,4,15000,11.112,,,330,6.4,10.7,,,,,,,,,wg-a,,,,AAXX 02064 07460 02565 73306 10090 20040 39823 40219 53016 60006 875// 90600 333 10107 20064 61000=
07460,1996-12-02 09:00:00,8,1023.7,1.6,71,3,15000,18.52,,,300,,,,,,,,,,,wg-a,,,,AAXX 02094 07460 12565 73010 10080 20030 39839 40237 53016 60006 84532 90900=
07460,1996-12-02 12:00:00,9,1023.2,-0.2,57,1,25000,22.224,,,310,,,,,,,,,,,wg-a,,,,AAXX 02124 07460 12675 /3112 10090 20010 39836 40232 58002 60006 82132 91200=
07460,1996-12-02 15:00:00,9,1023.2,-0.2,57,1,20000,14.816,,,310,,,,,,,,,,,wg-a,,,,AAXX 02154 07460 12670 63108 10090 20010 39834 40232 56002 60006 85801 91500=
07460,1996-12-02 18:00:00,7,1024,0.5,70,2,15000,14.816,,,310,6.7,9.8,,,,,,,,,wg-a,,,,AAXX 02184 07460 12665 /3108 10070 20020 39840 40240 50005 60006 86500 91800 333 10098 20067=
07460,1996-12-02 21:00:00,7,1024.7,0.7,70,2,15000,11.112,,,300,,,,,,,,,,,wg-a,,,,AAXX 02214 07460 12665 /3006 10070 20020 39846 40247 52007 60006 86500 92100=
07460,1996-12-03 00:00:00,5,1023.4,-1.5,81,2,15000,11.112,,,100,,,,,,,,,,,wg-a,,,,AAXX 03004 07460 12765 31006 10050 20020 39831 40234 56015 60006 83500 90000=
07460,1996-12-03 03:00:00,5,1021.8,-1.5,75,1,15000,18.52,,,190,,,,,,,,,,,wg-a,,,,AAXX 03034 07460 12565 /1910 10050 20010 39816 40218 56015 60006 86500 90300=
07460,1996-12-03 06:00:00,4,1020,-1.8,81,1,15000,22.224,,,180,3.7,7.1,,,,,,,,,wg-a,,,,AAXX 03064 07460 02665 71812 10040 20010 39798 40200 56018 60006 83532 90600 333 10071 20037 60004=
07460,1996-12-03 09:00:00,4,1017.7,-2.4,81,1,25000,29.632,,,180,,,,,,,,,,,wg-a,,,,AAXX 03094 07460 12/75 21816 10040 20010 39775 40177 58024 60006 82030 90900=
07460,1996-12-03 12:00:00,9,1013,-3.5,61,2,500,18.52,,,200,,,,,,,,,,,wg-a,,,,AAXX 03124 07460 12/00 32010 10090 20020 39738 40130 58035 60006 83030 91200=
07460,1996-12-03 15:00:00,11,1009.3,-3.4,54,2,500,7.408,,,50,,,,,,,,,,,wg-a,,,,AAXX 03154 07460 12/00 20504 10110 20020 39704 40093 56034 60006 81032 91500=
07460,1996-12-03 18:00:00,5,1008.5,-1.6,81,2,20000,3.704,,,350,2.9,11.9,,,,,,,,,wg-a,,,,AAXX 03184 07460 12/70 33502 10050 20020 39688 40085 56016 60006 82032 91800 333 10119 20029=
07460,1996-12-03 21:00:00,9,1006.2,-1.6,49,-1,20000,35.188,,,180,,,,,,,,,,,wg-a,,,,AAXX 03214 07460 12/70 21819 10090 21010 39672 40062 58016 60006 81032 92100=
07460,1996-12-04 00:00:00,7,1006.4,0,53,-2,20000,31.484,,,170,,,,,,,,,,,wg-a,,,,AAXX 04004 07460 12/70 21717 10070 21020 39671 40064 50000 60006 80001 90000=
07460,1996-12-04 03:00:00,8,1007.1,0.8,71,3,20000,38.892,,57.412,180,,,,,,,,,,,wg-a,,,,AAXX 04034 07460 12/70 51821 10080 20030 39679 40071 53008 60006 82034 90300 333 91031=
07460,1996-12-04 06:00:00,8,1006.5,-0.6,76,4,20000,25.928,,,170,5,9.5,,,,,,,,,wg-a,,,,AAXX 04064 07460 02770 71714 10080 20040 39674 40065 55006 60006 8157/ 90600 333 10095 20050 60004=
07460,1996-12-04 09:00:00,11,1006.6,0.4,66,5,500,29.632,,,180,,,,,,,,,,,wg-a,,,,AAXX 04094 07460 12600 71816 10110 20050 39679 40066 52004 60006 81532 90900=
07460,1996-12-04 12:00:00,14,1005.8,-0.4,58,6,500,25.928,,,160,,,,,,,,,,,wg-a,,,,AAXX 04124 07460 12600 /1614 10140 20060 39675 40058 58004 60006 85801 91200=
07460,1996-12-04 15:00:00,11,1006.1,0.1,76,7,20000,22.224,,,170,,,,,,,,,,21,wg-a,,,,AAXX 04154 07460 02670 71712 10110 20070 39674 40061 53001 61000 72186 878// 91500 333 ////=
07460,1996-12-04 18:00:00,10,1006.5,0.2,76,6,14000,25.928,,,170,8.5,14.9,,1,,,,,,21,wg-a,,,,AAXX 04184 07460 12664 71714 10100 20060 39677 40065 52002 60017 72186 878// 91800 333 10149 20085=
07460,1996-12-04 21:00:00,10,1007.9,1.4,71,5,15000,14.816,,,150,,,,,,,,,,3,wg-a,,,,AAXX 04214 07460 12665 /1508 10100 20050 39690 40079 51014 60006 70362 85802 92100=
07460,1996-12-05 00:00:00,10,1008.8,0.8,66,4,15000,14.816,,,140,,,,,,,,,,3,wg-a,,,,AAXX 05004 07460 12665 71408 10100 20040 39698 40088 50008 60006 70362 85832 90000=
07460,1996-12-05 03:00:00,10,1008.8,-0,66,4,15000,11.112,,,170,,,,,,,,,,,wg-a,,,,AAXX 05034 07460 12565 71706 10100 20040 39698 40088 55000 60006 85832 90300=
07460,1996-12-05 06:00:00,9,1009,-0,71,4,15000,11.112,,,230,9.1,10.9,,,,,1,,,,wg-a,,,,AAXX 05064 07460 02665 72306 10090 20040 39699 40090 55000 60006 85532 90600 333 10109 20091 60014=
07460,1996-12-05 09:00:00,10,1010,1.1,71,5,15000,14.816,,,190,,,,,,,,,,60,wg-a,,,,AAXX 05094 07460 02665 71908 10100 20050 39710 40100 52011 61000 76062 85532 90900 333 ////=
07460,1996-12-05 12:00:00,11,1009.8,-0.1,71,6,20000,11.112,,,180,,,,,,,,,,2,wg-a,,,,AAXX 05124 07460 02570 71806 10110 20060 39710 40098 58001 61000 70262 8657/ 91200 333 6100=
07460,1996-12-05 15:00:00,12,1009.6,-0.2,67,6,20000,11.112,,,160,,,,,,,,,,,wg-a,,,,AAXX 05154 07460 12670 71606 10120 20060 39708 40096 55002 60006 8557/ 91500=
07460,1996-12-05 18:00:00,9,1010.3,0.3,76,5,15000,11.112,,,190,8.5,11.8,,,,,,,,,wg-a,,,,AAXX 05184 07460 32665 /1906 10090 20050 39711 40103 53003 84532 91800 333 10118 20085=
07460,1996-12-05 21:00:00,9,1010.9,0.6,71,4,15000,0,,,0,,,,,,,,,,,wg-a,,,,AAXX 05214 07460 12665 80000 10090 20040 39717 40109 51006 60006 82532 92100=
07460,1996-12-06 00:00:00,10,1011.5,0.7,57,2,15000,7.408,,,180,,,,,,,,,,,wg-a,,,,AAXX 06004 07460 12765 81804 10100 20020 39724 40115 50007 60006 8253/ 90000=
07460,1996-12-06 03:00:00,10,1011.9,0.4,57,2,15000,14.816,,,180,,,,,,,,,,,wg-a,,,,AAXX 06034 07460 12665 81808 10100 20020 39728 40119 50004 60006 8253/ 90300=
07460,1996-12-06 06:00:00,8,1012.5,0.3,66,2,20000,11.112,,,160,7.2,10.2,,,,,,,,,wg-a,,,,AAXX 06064 07460 02670 71606 10080 20020 39731 40125 53003 60006 81532 90600 333 10102 20072 61000=
07460,1996-12-06 09:00:00,9,1013.3,1,71,4,20000,14.816,,,130,,,,,,,,,,,wg-a,,,,AAXX 06094 07460 12670 71308 10090 20040 39741 40133 51010 60006 82572 90900=
07460,1996-12-06 12:00:00,10,1014,0.7,82,7,15000,18.52,,,190,,,,1,,,,,,61,wg-a,,,,AAXX 06124 07460 02665 81910 10100 20070 39748 40140 51007 60016 76162 8227/ 91200 333 60017=
07460,1996-12-06 15:00:00,10,1014.2,0.2,76,6,25000,18.52,,,190,,,,1,,,,,,21,wg-a,,,,AAXX 06154 07460 12775 /1910 10100 20060 39751 40142 53002 60017 72162 82532 91500=
07460,1996-12-06 18:00:00,7,1016.4,1.7,87,5,15000,3.704,,,130,7.4,11.2,,,,,,,,1,wg-a,,,,AAXX 06184 07460 32665 /1302 10070 20050 39768 40164 52017 70162 83532 91800 333 10112 20074=
07460,1996-12-06 21:00:00,7,1017.4,0.8,93,6,8000,0,,,0,,,,,,,,,,21,wg-a,,,,AAXX 06214 07460 02658 /0000 10070 20060 39777 40174 51008 61000 72162 85532 92100 333 ////=
07460,1996-12-07 00:00:00,4,1018.3,0.4,93,3,8000,0,,,0,,,,,,,,,,2,wg-a,,,,AAXX 07004 07460 02658 60000 10040 20030 39781 40183 50004 61000 70262 85532 90000 333 ////=
07460,1996-12-07 03:00:00,5,1018.8,0.6,100,5,500,0,,,0,,,,,,,,,,60,wg-a,,,,AAXX 07034 07460 02600 /0000 10050 20050 39787 40188 53006 61000 76062 86500 90300 333 ////=
07460,1996-12-07 06:00:00,4,1020,1.1,100,4,500,3.704,,,100,3.5,7.3,,,,,1,,,2,wg-a,,,,AAXX 07064 07460 02600 41002 10040 20040 39798 40200 53011 60014 70262 83502 90600 333 10073 20035 61000=
07460,1996-12-07 09:00:00,5,1021.5,1.6,100,5,10000,0,,,0,,,,0,,,,,,21,wg-a,,,,AAXX 07094 07460 12660 60000 10050 20050 39814 40215 51016 60007 72161 83831 90900=
07460,1996-12-07 12:00:00,9,1020.9,0,93,8,12000,7.408,,,20,,,,,,,,,,1,wg-a,,,,AAXX 07124 07460 12662 /0204 10090 20080 39814 40209 50000 60006 70161 81131 91200=
07460,1996-12-07 15:00:00,10,1020.9,0.2,87,8,15000,3.704,,,100,,,,,,,,,,,wg-a,,,,AAXX 07154 07460 12665 /1002 10100 20080 39815 40209 53002 60006 81132 91500=
07460,1996-12-07 18:00:00,6,1022.7,1.1,93,5,6000,3.704,,,320,3.4,10.6,,,,,,,,28,wg-a,,,,AAXX 07184 07460 32656 43202 10060 20050 39826 40227 52011 72841 81132 91800 333 10106 20034=
07460,1996-12-07 21:00:00,6,1023.3,0.7,93,5,8000,3.704,,,280,,,,,,,,,,,wg-a,,,,AAXX 07214 07460 12758 /2802 10060 20050 39832 40233 51007 60006 86500 92100=
07460,1996-12-08 00:00:00,2,1023.9,-0.1,93,1,200,3.704,,,260,,,,,,,,,,44,wg-a,,,,AAXX 08004 07460 12002 12602 10020 20010 39832 40239 55001 60006 74441 81600 90000=
07460,1996-12-08 03:00:00,-1,1023.5,-0.9,100,-1,200,3.704,,,30,,,,,,,,,,45,wg-a,,,,AAXX 08034 07460 12/02 90302 11010 21010 39824 40235 58009 60006 74541 89/// 90300=
07460,1996-12-08 06:00:00,3,1022.4,-0.5,100,3,100,3.704,,,310,-0.6,6.4,,,,,,,,45,wg-a,,,,AAXX 08064 07460 02/01 93102 10030 20030 39818 40224 55005 60006 74541 89/// 90600 333 10064 21006 60004=
07460,1996-12-08 09:00:00,3,1022.7,0.4,100,3,700,7.408,,,50,,,,,,,,,,43,wg-a,,,,AAXX 08094 07460 12/07 90504 10030 20030 39822 40227 50004 60006 74344 89/// 90900=
07460,1996-12-08 12:00:00,4,1021.9,-0.7,100,4,800,7.408,,,350,,,,,,,,,,45,wg-a,,,,AAXX 08124 07460 12/08 93504 10040 20040 39815 40219 58007 60006 74544 89/// 91200=
07460,1996-12-08 15:00:00,4,1021.2,-0.7,100,4,800,7.408,,,350,,,,,,,,,,43,wg-a,,,,AAXX 08154 07460 12/08 93504 10040 20040 39808 40212 56007 60006 74344 89/// 91500=
07460,1996-12-08 18:00:00,2,1021.8,0.5,100,2,800,7.408,,,30,2.3,3.9,,,,,,,,43,wg-a,,,,AAXX 08184 07460 12/08 90304 10020 20020 39813 40218 52005 60006 74342 89/// 91800 333 10039 20023=
07460,1996-12-08 21:00:00,2,1022.6,0.6,100,2,600,7.408,,,60,,,,,,,,,,45,wg-a,,,,AAXX 08214 07460 12/06 90604 10020 20020 39819 40226 53006 60006 74544 89/// 92100=
07460,1996-12-09 00:00:00,2,1020.9,-1.6,100,2,600,7.408,,,20,,,,,,,,,,45,wg-a,,,,AAXX 09004 07460 12/06 90204 10020 20020 39803 40209 58016 60006 74544 89/// 90000=
07460,1996-12-09 03:00:00,1,1020.3,-0.7,100,1,400,7.408,,,30,,,,,,,,,,,wg-a,,,,AAXX 09034 07460 12/04 90304 10010 20010 39796 40203 58007 60006 89/// 90300=
07460,1996-12-09 06:00:00,1,1019.2,-1.1,100,1,3000,3.704,,,50,0.8,2.3,,,,,,,,10,wg-a,,,,AAXX 09064 07460 02230 /0502 10010 20010 39785 40192 56011 61000 71054 86600 90600 333 10023 20008 6100=
07460,1996-12-09 09:00:00,1,1019,-0.2,100,1,1500,3.704,,,260,,,,,,,,,,10,wg-a,,,,AAXX 09094 07460 12115 82602 10010 20010 39783 40190 58002 60006 71022 886// 90900=
07460,1996-12-09 12:00:00,1,1017.7,-1.2,100,1,700,7.408,,,70,,,,,,,,,,44,wg-a,,,,AAXX 09124 07460 12107 80704 10010 20010 39771 40177 58012 60006 74442 886// 91200=
07460,1996-12-09 15:00:00,1,1017.2,-0.5,100,1,900,7.408,,,70,,,,,,,,,,10,wg-a,,,,AAXX 09154 07460 12109 80704 10010 20010 39766 40172 55005 60006 71042 886// 91500=
07460,1996-12-09 18:00:00,1,1018.1,0.8,100,1,2000,7.408,,,10,0.6,1.3,,1,,,,,,45,wg-a,,,,AAXX 09184 07460 12120 90104 10010 20010 39775 40181 50008 60017 74564 897// 91800 333 10013 20006=
07460,1996-12-09 21:00:00,1,1017.3,-0.6,100,1,500,3.704,,,360,,,,0,,,,,,1,wg-a,,,,AAXX 09214 07460 12200 23602 10010 20010 39767 40173 55006 60007 70161 82700 92100=
07460,1996-12-10 00:00:00,1,1016.6,-0.8,100,1,800,7.408,,,90,,,,,,,,,,45,wg-a,,,,AAXX 10004 07460 12/08 90904 10010 20010 39760 40166 57008 60016 74564 89/// 90000=
07460,1996-12-10 03:00:00,0,1016,-0.6,100,0,400,3.704,,,40,,,,,,,,,,45,wg-a,,,,AAXX 10034 07460 12/04 90402 10000 20000 39754 40160 58006 60006 74542 89/// 90300=
07460,1996-12-10 06:00:00,0,1015.2,-0.8,100,0,900,0,,,0,-0.2,1.5,,,,,2,,,45,wg-a,,,,AAXX 10064 07460 12/09 90000 10000 20000 39746 40152 56008 60024 74542 89/// 90600 333 10015 21002=
07460,1996-12-10 09:00:00,1,1015.3,0.2,100,1,900,3.704,,,100,,,,,,,,,,10,wg-a,,,,AAXX 10094 07460 12/09 91002 10010 20010 39748 40153 51002 60006 71042 89/// 90900=
07460,1996-12-10 12:00:00,3,1013.9,-1.1,100,3,6000,7.408,,,360,,,,,,,,,,1,wg-a,,,,AAXX 10124 07460 12256 73604 10030 20030 39737 40139 58011 60006 70142 8361/ 91200=
07460,1996-12-10 15:00:00,3,1013.6,-0.2,100,3,700,7.408,,,20,,,,,,,,,,45,wg-a,,,,AAXX 10154 07460 12/07 90204 10030 20030 39734 40136 55002 60006 74542 89/// 91500=
07460,1996-12-10 18:00:00,2,1015,1.2,100,2,1200,3.704,,,100,0,3.5,,,,,,,,28,wg-a,,,,AAXX 10184 07460 12112 91002 10020 20020 39747 40150 52012 60006 72842 896// 91800 333 10035 20000=
07460,1996-12-10 21:00:00,2,1015.9,0.8,100,2,6000,7.408,,,180,,,,,,,,,,,wg-a,,,,AAXX 10214 07460 12256 81804 10020 20020 39755 40159 53008 60006 886// 92100=
07460,1996-12-11 00:00:00,2,1015.2,-0.7,100,2,500,3.704,,,180,,,,,,,,,,,wg-a,,,,AAXX 11004 07460 12200 81802 10020 20020 39749 40152 58007 60006 886// 90000=
07460,1996-12-11 03:00:00,1,1015.2,-0.2,100,1,6000,11.112,,,200,,,,,,,,,,,wg-a,,,,AAXX 11034 07460 12256 82006 10010 20010 39747 40152 56002 60006 886// 90300=
07460,1996-12-11 06:00:00,1,1015,-0.2,100,1,4000,7.408,,,180,0.8,2.2,,,,,,,,10,wg-a,,,,AAXX 11064 07460 02140 81804 10010 20010 39745 40150 58002 60006 71022 886// 90600 333 10022 20008 60004=
07460,1996-12-11 09:00:00,1,1015.9,0.8,100,1,800,3.704,,,250,,,,,,,,,,10,wg-a,,,,AAXX 11094 07460 12/08 92502 10010 20010 39753 40159 51008 60006 71042 89/// 90900=
07460,1996-12-11 12:00:00,3,1014.4,-1.1,93,2,1500,3.704,,,10,,,,,,,,,,10,wg-a,,,,AAXX 11124 07460 12115 70102 10030 20020 39742 40144 58011 60006 71042 876// 91200=
07460,1996-12-11 15:00:00,4,1013.4,-0.8,100,4,500,3.704,,,30,,,,,,,,,,44,wg-a,,,,AAXX 11154 07460 12105 80302 10040 20040 39734 40134 55008 60006 74441 886// 91500=
07460,1996-12-11 18:00:00,3,1014.3,0.7,100,3,200,0,,,0,-0.1,4.7,,,,,,,,45,wg-a,,,,AAXX 11184 07460 12/02 90000 10030 20030 39741 40143 53007 60006 74541 89/// 91800 333 10047 21001=
07460,1996-12-11 21:00:00,1,1013.7,-0.8,100,1,200,3.704,,,70,,,,,,,,,,45,wg-a,,,,AAXX 11214 07460 12/02 90702 10010 20010 39733 40137 58008 60006 74544 89/// 92100=
07460,1996-12-12 00:00:00,-1,1013.3,-0.7,100,-1,15000,7.408,,,350,,,,,,,,,,28,wg-a,,,,AAXX 12004 07460 12365 /3504 11010 21010 39726 40133 56007 60006 72841 81630 90000=
07460,1996-12-12 03:00:00,0,1012.1,-1.1,100,0,15000,3.704,,,30,,,,,,,,,,,wg-a,,,,AAXX 12034 07460 12/65 20302 10000 20000 39715 40121 58011 60006 82030 90300=
07460,1996-12-12 06:00:00,-1,1012.1,-0.1,100,-1,15000,0,,,0,-1.9,2.5,,,,,,,,,wg-a,,,,AAXX 12064 07460 02/65 20000 11010 21010 39714 40121 55001 60006 81031 90600 333 10025 21019 60004=
07460,1996-12-12 09:00:00,1,1012.3,0.5,100,1,15000,0,,,0,,,,,,,,,,,wg-a,,,,AAXX 12094 07460 12665 70000 10010 20010 39719 40123 51005 60006 81531 90900=
07460,1996-12-12 12:00:00,10,1010.1,-0.8,87,8,20000,29.632,,,180,,,,,,,,,,60,wg-a,,,,AAXX 12124 07460 02670 71816 10100 20080 39711 40101 58008 61000 76061 84572 91200 333 6100=
07460,1996-12-12 15:00:00,12,1008.1,-1.6,71,7,35000,25.928,,,180,,,,,,,,,,3,wg-a,,,,AAXX 12154 07460 02681 71814 10120 20070 39695 40081 56016 61000 70362 86830 91500 333 ////=
07460,1996-12-12 18:00:00,10,1007.8,-0.6,76,6,15000,29.632,,,170,-1.2,13.5,,,,,,,,2,wg-a,,,,AAXX 12184 07460 32665 61716 10100 20060 39689 40078 58006 70262 84801 91800 333 10135 21012=
07460,1996-12-12 21:00:00,9,1007.9,0,81,6,20000,31.484,,,190,,,,,,,,,,,wg-a,,,,AAXX 12214 07460 12670 71917 10090 20060 39689 40079 50000 60006 8383/ 92100=
07460,1996-12-13 00:00:00,10,1006.5,-1.4,76,6,15000,22.224,,,180,,,,,,,,,,60,wg-a,,,,AAXX 13004 07460 02665 71812 10100 20060 39676 40065 58014 61000 76061 8483/ 90000 333 6100=
07460,1996-12-13 03:00:00,10,1004.1,-2.2,82,7,14000,11.112,,,230,,,,,,,,,,,wg-a,,,,AAXX 13034 07460 02664 82306 10100 20070 39653 40041 56022 61000 875// 90300 333 ////=
07460,1996-12-13 06:00:00,10,1002.4,-1.5,87,8,14000,14.816,,,220,8.2,10.3,,0,,,,,,60,wg-a,,,,AAXX 13064 07460 02564 72208 10100 20080 39637 40024 56015 60004 76062 8587/ 90600 333 10103 20082 60007=
07460,1996-12-13 09:00:00,11,1001.5,-0.7,82,8,500,18.52,,,200,,,,,,,,,,2,wg-a,,,,AAXX 13094 07460 02600 72010 10110 20080 39629 40015 56007 61000 70262 8557/ 90900 333 ////=
07460,1996-12-13 12:00:00,12,999.5,-1.8,82,9,500,18.52,,,180,,,,,,,,,,1,wg-a,,,,AAXX 13124 07460 02600 71810 10120 20090 39612 49995 58018 61000 70162 8357/ 91200 333 ////=
07460,1996-12-13 15:00:00,13,998.6,-0.8,77,9,25000,3.704,,,250,,,,,,,,,,,wg-a,,,,AAXX 13154 07460 12575 72502 10130 20090 39604 49986 56008 60006 8487/ 91500=
07460,1996-12-13 18:00:00,10,999.1,0.2,93,9,20000,0,,,0,9.9,12.9,,,,,,,,,wg-a,,,,AAXX 13184 07460 32570 70000 10100 20090 39606 49991 53002 8557/ 91800 333 10129 20099=
07460,1996-12-13 21:00:00,10,999.2,0,93,9,6000,3.704,,,350,,,,,,,,,,50,wg-a,,,,AAXX 13214 07460 02256 83502 10100 20090 39606 49992 50000 61000 75052 877// 92100 333 ////=
07460,1996-12-14 00:00:00,9,998.7,-0.5,100,9,1500,3.704,,,80,,,,0,,,,,,10,wg-a,,,,AAXX 14004 07460 02115 80802 10090 20090 39601 49987 57005 60016 71065 877// 90000 333 60007=
07460,1996-12-14 03:00:00,8,999.7,0.7,93,7,9000,14.816,,,10,,,,4,,,,,,60,wg-a,,,,AAXX 14034 07460 12259 80108 10080 20070 39608 49997 53007 60047 76062 877// 90300=
07460,1996-12-14 06:00:00,7,1001.2,1.3,93,6,6000,11.112,,,10,6.6,10.1,,0,,,4,,,50,wg-a,,,,AAXX 14064 07460 02256 80106 10070 20060 39621 40012 53013 60044 75065 877// 90600 333 10101 20066 60007=
07460,1996-12-14 09:00:00,5,1003.9,2.3,93,4,7000,14.816,,,20,,,,0,,,,,,50,wg-a,,,,AAXX 14094 07460 12257 80208 10050 20040 39644 40039 53023 60007 75055 877// 90900=
07460,1996-12-14 12:00:00,4,1006.4,2.2,93,3,500,14.816,,,10,,,,0,,,,,,60,wg-a,,,,AAXX 14124 07460 02100 80108 10040 20030 39666 40064 51022 60016 76065 877// 91200 333 60007=
07460,1996-12-14 15:00:00,3,1008.4,1.9,100,3,8000,11.112,,,10,,,,0,,,,,,21,wg-a,,,,AAXX 14154 07460 12258 80106 10030 20030 39685 40084 53019 60007 72162 877// 91500=
07460,1996-12-14 18:00:00,3,1011.2,2.5,93,2,8000,11.112,,,350,2.5,6.6,,,,,,,,3,wg-a,,,,AAXX 14184 07460 32258 83506 10030 20020 39711 40112 52025 70362 877// 91800 333 10066 20025=
07460,1996-12-14 21:00:00,2,1013.3,1.9,93,1,8000,7.408,,,360,,,,,,,,,,,wg-a,,,,AAXX 14214 07460 12258 83604 10020 20010 39730 40133 51019 60006 886// 92100=
07460,1996-12-15 00:00:00,2,1014.4,1.1,93,1,7000,7.408,,,30,,,,,,,,,,,wg-a,,,,AAXX 15004 07460 12257 80304 10020 20010 39741 40144 52011 60006 886// 90000=
07460,1996-12-15 03:00:00,1,1016.3,1.8,100,1,8000,11.112,,,30,,,,,,,,,,,wg-a,,,,AAXX 15034 07460 12258 80306 10010 20010 39758 40163 53018 60006 886// 90300=
07460,1996-12-15 06:00:00,1,1017,0.6,93,0,9000,7.408,,,10,0.9,2.6,,,,,1,,,,wg-a,,,,AAXX 15064 07460 02359 80104 10010 20000 39764 40170 53006 60006 886// 90600 333 10026 20009 60014=
07460,1996-12-15 09:00:00,1,1018.5,1.5,93,0,8000,3.704,,,20,,,,,,,,,,,wg-a,,,,AAXX 15094 07460 12358 70202 10010 20000 39779 40185 51015 60006 875// 90900=
07460,1996-12-15 12:00:00,3,1018.2,0,81,0,10000,3.704,,,70,,,,,,,,,,,wg-a,,,,AAXX 15124 07460 12460 70702 10030 20000 39779 40182 50000 60006 878// 91200=
07460,1996-12-15 15:00:00,3,1017.9,-0.3,81,0,12000,7.408,,,70,,,,,,,,,,,wg-a,,,,AAXX 15154 07460 12462 70704 10030 20000 39776 40179 55003 60006 875// 91500=
07460,1996-12-15 18:00:00,3,1018.9,0.9,81,0,10000,0,,,0,0.8,3.3,,,,,,,,,wg-a,,,,AAXX 15184 07460 12460 70000 10030 20000 39785 40189 51009 60006 875// 91800 333 10033 20008=
07460,1996-12-15 21:00:00,2,1019,-0.1,80,-1,10000,0,,,0,,,,,,,,,,,wg-a,,,,AAXX 15214 07460 12460 40000 10020 21010 39784 40190 58001 60006 84500 92100=
07460,1996-12-16 00:00:00,-2,1018.4,-1.1,93,-3,8000,0,,,0,,,,,,,,,,,wg-a,,,,AAXX 16004 07460 12558 30000 11020 21030 39773 40184 58011 60006 83500 90000=
07460,1996-12-16 03:00:00,-4,1017.8,-0.8,100,-4,8000,3.704,,,200,,,,,,,,,,,wg-a,,,,AAXX 16034 07460 12558 22002 11040 21040 39765 40178 57008 60006 82500 90300=
07460,1996-12-16 06:00:00,-4,1017.2,-0.6,93,-5,8000,3.704,,,210,-3.9,2.6,,,,,,,,,wg-a,,,,AAXX 16064 07460 02558 22102 11040 21050 39759 40172 55006 60006 82500 90600 333 10026 21039 60004=
07460,1996-12-16 09:00:00,0,1016.3,-0.3,93,-1,20000,11.112,,,180,,,,,,,,,,,wg-a,,,,AAXX 16094 07460 12/70 01806 10000 21010 39756 40163 58003 60006 80000 90900=
07460,1996-12-16 12:00:00,6,1014.7,-0.7,75,2,20000,11.112,,,80,,,,,,,,,,,wg-a,,,,AAXX 16124 07460 12/70 10806 10060 20020 39749 40147 58007 60006 80001 91200=
07460,1996-12-16 15:00:00,8,1013.2,,71,3,15000,3.704,,,20,,,,,,,,,,,wg-a,,,,AAXX 16154 07460 32/65 00202 10080 20030 39738 40132 80000 91500=
07460,1996-12-16 18:00:00,2,1015,0.8,87,0,15000,7.408,,,260,-4.2,8.2,,,,,,,,,wg-a,,,,AAXX 16184 07460 32/65 12604 10020 20000 39746 40150 53008 80001 91800 333 10082 21042=
07460,1996-12-16 21:00:00,4,1015.1,0.5,81,1,15000,7.408,,,310,,,,,,,,,,,wg-a,,,,AAXX 16214 07460 12/65 13104 10040 20010 39751 40151 51005 60006 80001 92100=
07460,1996-12-17 00:00:00,5,1015,0.1,81,2,15000,7.408,,,150,,,,,,,,,,,wg-a,,,,AAXX 17004 07460 12/65 31504 10050 20020 39751 40150 53001 60006 80001 90000=
07460,1996-12-17 03:00:00,6,1014.9,-0,81,3,15000,3.704,,,100,,,,,,,,,,,wg-a,,,,AAXX 17034 07460 12/65 11002 10060 20030 39751 40149 55000 60006 80001 90300=
07460,1996-12-17 06:00:00,6,1014.5,-0.3,81,3,15000,11.112,,,330,0.5,8.2,,,,,,,,,wg-a,,,,AAXX 17064 07460 02/65 13306 10060 20030 39748 40145 55003 60006 80001 90600 333 10082 20005 60004=
07460,1996-12-17 09:00:00,8,1015.4,1.1,81,5,500,22.224,,,200,,,,,,,,,,21,wg-a,,,,AAXX 17094 07460 02/00 72012 10080 20050 39759 40154 53011 61000 72161 8707/ 90900 333 ////=
07460,1996-12-17 15:00:00,13,1013,-0.7,62,6,500,18.52,,,190,,,,,,,,,,,wg-a,,,,AAXX 17154 07460 12/00 71910 10130 20060 39743 40130 55007 60006 86032 91500=
07460,1996-12-17 18:00:00,9,1013.4,-0.1,76,5,500,11.112,,,210,6.3,13.1,,,,,,,,,wg-a,,,,AAXX 17184 07460 12/00 02106 10090 20050 39742 40134 55001 60006 80000 91800 333 10131 20063=
07460,1996-12-17 21:00:00,8,1014.1,0.4,76,4,20000,3.704,,,150,,,,,,,,,,,wg-a,,,,AAXX 17214 07460 12/70 11502 10080 20040 39746 40141 51004 60006 80001 92100=
07460,1996-12-18 00:00:00,7,1013.1,-1.1,81,4,20000,11.112,,,140,,,,,,,,,,,wg-a,,,,AAXX 18004 07460 12/70 11406 10070 20040 39735 40131 58011 60006 80001 90000=
07460,1996-12-18 03:00:00,6,1011.8,-1.2,87,4,20000,11.112,,33.336,150,,,,,,,,,,,wg-a,,,,AAXX 18034 07460 12/70 11506 10060 20040 39722 40118 56012 60006 80001 90300 333 91018=
07460,1996-12-18 06:00:00,7,1010.4,-1.3,81,4,20000,3.704,,,70,6,9.2,,,,,,,,,wg-a,,,,AAXX 18064 07460 02/70 10702 10070 20040 39709 40104 56013 60006 80001 90600 333 10092 20060 61000=
07460,1996-12-18 09:00:00,9,1009.4,-0.5,76,5,500,3.704,,22.224,170,,,,,,,,,,,wg-a,,,,AAXX 18094 07460 12/00 41702 10090 20050 39703 40094 58005 60006 81031 90900 333 91012=
07460,1996-12-18 12:00:00,14,1006.6,-2.2,63,7,35000,22.224,,,160,,,,,,,,,,,wg-a,,,,AAXX 18124 07460 12/81 41612 10140 20070 39682 40066 58022 60006 81031 91200=
07460,1996-12-18 15:00:00,14,1004.1,-2.2,63,7,40000,31.484,,53.708,180,,,,,,,,,,,wg-a,,,,AAXX 18154 07460 12/82 31817 10140 20070 39659 40041 56022 60006 81031 91500 333 91029=
07460,1996-12-18 18:00:00,10,1004.6,0,82,7,20000,29.632,,,180,6.2,15.3,,,,,,,,,wg-a,,,,AAXX 18184 07460 12/70 51816 10100 20070 39659 40046 50000 60006 82031 91800 333 10153 20062=
07460,1996-12-18 21:00:00,10,1004.7,0,76,6,15000,11.112,,,220,,,,,,,,,,,wg-a,,,,AAXX 18214 07460 12/65 72206 10100 20060 39659 40047 50000 60006 85031 92100=
07460,1996-12-19 00:00:00,11,1003.8,-0.7,76,7,15000,11.112,,,190,,,,,,,,,,60,wg-a,,,,AAXX 19004 07460 02765 71906 10110 20070 39652 40038 56007 61000 76062 8157/ 90000 333 6100=
07460,1996-12-19 03:00:00,10,1003.1,-0.8,87,8,14000,7.408,,,190,,,,0,,,,,,3,wg-a,,,,AAXX 19034 07460 12664 71904 10100 20080 39644 40031 58008 60007 70362 8553/ 90300=
07460,1996-12-19 06:00:00,11,1001.4,-1.5,82,8,14000,18.52,,,190,9.1,11.7,,,,,,,,1,wg-a,,,,AAXX 19064 07460 02664 71910 10110 20080 39629 40014 56015 60006 70162 85531 90600 333 10117 20091 60004=
07460,1996-12-19 09:00:00,11,1002.2,0.8,76,7,35000,14.816,,,180,,,,,,,,,,,wg-a,,,,AAXX 19094 07460 12681 71808 10110 20070 39637 40022 53008 60006 8553/ 90900=
07460,1996-12-19 12:00:00,11,1001,-1.2,82,8,500,14.816,,,180,,,,,,,,,,,wg-a,,,,AAXX 19124 07460 12600 81808 10110 20080 39625 40010 58012 60006 8657/ 91200=
07460,1996-12-19 15:00:00,10,999.8,-1.3,87,8,500,25.928,,,200,,,,1,,,,,,21,wg-a,,,,AAXX 19154 07460 12500 82014 10100 20080 39612 49998 56013 60017 72162 8587/ 91500=
07460,1996-12-19 18:00:00,9,1000.8,0.9,93,8,15000,22.224,,,190,9.1,12.4,,,,,,,,60,wg-a,,,,AAXX 19184 07460 02565 71912 10090 20080 39621 40008 51009 61000 76062 8687/ 91800 333 10124 20091 6000=
07460,1996-12-19 21:00:00,8,1001.1,-0,87,6,25000,11.112,,,220,,,,,,,,,,2,wg-a,,,,AAXX 19214 07460 02675 42206 10080 20060 39621 40011 54000 61000 70261 82530 92100 333 ////=
07460,1996-12-20 00:00:00,9,1001.1,0.1,87,7,20000,11.112,,,200,,,,,,,,,,3,wg-a,,,,AAXX 20004 07460 02670 72006 10090 20070 39623 40011 50001 61000 70361 8553/ 90000 333 ////=
07460,1996-12-20 03:00:00,6,1001.4,-0.1,93,5,20000,7.408,,,340,,,,,,,,,,,wg-a,,,,AAXX 20034 07460 12670 /3404 10060 20050 39621 40014 56001 60006 82502 90300=
07460,1996-12-20 06:00:00,4,1001.4,-0.2,100,4,12000,3.704,,,150,3.4,9.2,,,,,1,,,,wg-a,,,,AAXX 20064 07460 02662 71502 10040 20040 39619 40014 56002 60006 85502 90600 333 10092 20034 60014=
07460,1996-12-20 09:00:00,6,1002.2,1.1,100,6,15000,3.704,,,70,,,,,,,,,,,wg-a,,,,AAXX 20094 07460 12665 20702 10060 20060 39630 40022 53011 60006 81131 90900=
07460,1996-12-20 12:00:00,12,1000.5,-0.9,67,6,15000,11.112,,,160,,,,,,,,,,,wg-a,,,,AAXX 20124 07460 12665 41606 10120 20060 39621 40005 58009 60006 81101 91200=
07460,1996-12-20 15:00:00,12,1000.2,-0.3,67,6,15000,7.408,,,30,,,,,,,,,,,wg-a,,,,AAXX 20154 07460 12665 40304 10120 20060 39618 40002 57003 60006 81132 91500=
07460,1996-12-20 18:00:00,6,1002.2,1.1,87,4,15000,0,,,0,2.9,13.9,,,,,,,,,wg-a,,,,AAXX 20184 07460 12665 /0000 10060 20040 39629 40022 51011 60006 81532 91800 333 10139 20029=
07460,1996-12-20 21:00:00,3,1003.4,0.7,93,2,8000,0,,,0,,,,,,,,,,,wg-a,,,,AAXX 20214 07460 12/58 /0000 10030 20020 39637 40034 53007 60006 92100=
07460,1996-12-21 00:00:00,2,1003.4,0.1,100,2,500,3.704,,,70,,,,,,,,,,11,wg-a,,,,AAXX 21004 07460 12600 40702 10020 20020 39636 40034 53001 60006 71122 81502 90000=
07460,1996-12-21 03:00:00,0,1003.4,-0.5,100,0,300,3.704,,,250,,,,,,,,,,44,wg-a,,,,AAXX 21034 07460 12/03 92502 10000 20000 39632 40034 58005 60006 74441 89/// 90300=
07460,1996-12-21 06:00:00,-1,1002.9,-0.5,100,-1,3000,0,,,0,-0.8,6.3,,,,,,,,11,wg-a,,,,AAXX 21064 07460 02230 60000 11010 21010 39627 40029 57005 60006 71141 86500 90600 333 10063 21008 60004=
07460,1996-12-21 09:00:00,0,1003.4,0.6,100,0,15000,3.704,,,290,,,,,,,,,,,wg-a,,,,AAXX 21094 07460 12665 72902 10000 20000 39633 40034 53006 60006 82532 90900=
07460,1996-12-21 12:00:00,5,1001.4,-1.3,100,5,25000,7.408,,,10,,,,,,,,,,,wg-a,,,,AAXX 21124 07460 12675 70104 10050 20050 39621 40014 58013 60006 81532 91200=
07460,1996-12-21 15:00:00,7,1001.3,0.2,93,6,20000,0,,,0,,,,,,,,,,21,wg-a,,,,AAXX 21154 07460 02670 70000 10070 20060 39622 40013 50002 61000 72162 8357/ 91500 333 ////=
07460,1996-12-21 18:00:00,6,1002.2,0.8,100,6,15000,0,,,0,-0.7,7.3,,,,,,,,1,wg-a,,,,AAXX 21184 07460 12665 70000 10060 20060 39630 40022 53008 60006 70162 83532 91800 333 10073 21007=
07460,1996-12-21 21:00:00,7,1003.4,1.3,100,7,500,0,,,0,,,,2,,,,,,62,wg-a,,,,AAXX 21214 07460 12400 80000 10070 20070 39643 40034 53013 60027 76262 8657/ 92100=
07460,1996-12-22 00:00:00,8,1004.3,0.9,100,8,500,3.704,,,40,,,,5,,,,,,,wg-a,,,,AAXX 22004 07460 02400 80402 10080 20080 39652 40043 51009 60076 8/57/ 90000 333 60057=
07460,1996-12-22 03:00:00,7,1004.4,0.1,100,7,4000,7.408,,,130,,,,,,,,,,10,wg-a,,,,AAXX 22034 07460 12440 71304 10070 20070 39653 40044 53001 60006 71022 85530 90300=
07460,1996-12-22 06:00:00,6,1004.8,0.2,100,6,1800,3.704,,,140,5.4,7.8,,,,,7,,,28,wg-a,,,,AAXX 22064 07460 02218 91402 10060 20060 39655 40048 53002 60006 72842 89530 90600 333 10078 20054 60074=
07460,1996-12-22 09:00:00,9,1004.4,-0,100,9,20000,3.704,,,220,,,,,,,,,,,wg-a,,,,AAXX 22094 07460 12570 82202 10090 20090 39655 40044 55000 60006 8257/ 90900=
07460,1996-12-22 12:00:00,13,1002.6,-1.1,77,9,40000,14.816,,,190,,,,,,,,,,,wg-a,,,,AAXX 22124 07460 12682 71908 10130 20090 39644 40026 58011 60006 8157/ 91200=
07460,1996-12-22 15:00:00,13,1001.6,-1,72,8,40000,22.224,,,170,,,,,,,,,,,wg-a,,,,AAXX 22154 07460 12682 71712 10130 20080 39634 40016 56010 60006 8157/ 91500=
07460,1996-12-22 18:00:00,10,1001.6,-0.4,82,7,500,0,,,0,6.2,14.6,,,,,,,,,wg-a,,,,AAXX 22184 07460 12600 70000 10100 20070 39630 40016 56004 60006 82572 91800 333 10146 20062=
07460,1996-12-22 21:00:00,10,1000.8,-0.8,93,9,15000,0,,,0,,,,1,,,,,,61,wg-a,,,,AAXX 22214 07460 12665 70000 10100 20090 39622 40008 58008 60017 76162 8557/ 92100=
07460,1996-12-23 00:00:00,9,999.4,-1.5,100,9,500,0,,,0,,,,4,,,,,,61,wg-a,,,,AAXX 23004 07460 02200 80000 10090 20090 39607 49994 58015 60056 76162 875// 90000 333 60047=
07460,1996-12-23 03:00:00,9,997.4,-1.9,93,8,1000,3.704,,,100,,,,3,,,,,,,wg-a,,,,AAXX 23034 07460 12210 81002 10090 20080 39587 49974 56019 60037 875// 90300=
07460,1996-12-23 06:00:00,9,997.1,-0.3,100,9,12000,0,,,0,8.2,12,,,,,,,,10,wg-a,,,,AAXX 23064 07460 02262 80000 10090 20090 39584 49971 55003 61000 71064 878// 90600 333 10120 20082 6009=
07460,1996-12-23 09:00:00,9,997.7,0.7,100,9,13000,3.704,,,200,,,,4,,,,,,61,wg-a,,,,AAXX 23094 07460 12563 82002 10090 20090 39591 49977 53007 60047 76166 878// 90900=
07460,1996-12-23 12:00:00,9,997.8,0.1,93,8,14000,11.112,,,160,,,,6,,,,,,61,wg-a,,,,AAXX 23124 07460 02664 71606 10090 20080 39592 49978 50001 60106 76166 878// 91200 333 60067=
07460,1996-12-23 15:00:00,12,997,-0.6,82,9,14000,3.704,,,100,,,,0,,,,,,1,wg-a,,,,AAXX 23154 07460 12564 /1002 10120 20090 39587 49970 56006 60007 70162 85801 91500=
07460,1996-12-23 18:00:00,9,997.5,0.2,93,8,14000,0,,,0,8,11.6,,,,,,,,3,wg-a,,,,AAXX 23184 07460 12564 /0000 10090 20080 39588 49975 50002 60006 70362 85801 91800 333 10116 20080=
07460,1996-12-23 21:00:00,8,997.6,0,100,8,8000,3.704,,,260,,,,1,,,,,,60,wg-a,,,,AAXX 23214 07460 12258 72602 10080 20080 39588 49976 50000 60017 76062 875// 92100=
07460,1996-12-24 00:00:00,6,997,-0.8,100,6,4000,0,,,0,,,,,,,,,,10,wg-a,,,,AAXX 24004 07460 02040 60000 10060 20060 39580 49970 57008 60016 71061 84530 90000 333 61000=
07460,1996-12-24 03:00:00,5,996.7,-0.5,100,5,200,0,,,0,,,,0,,,,,,44,wg-a,,,,AAXX 24034 07460 12002 80000 10050 20050 39575 49967 56005 60007 74442 886// 90300=
07460,1996-12-24 06:00:00,4,996.4,-0.4,100,4,500,0,,,0,3.9,8.5,,,,,12,,,43,wg-a,,,,AAXX 24064 07460 02/05 90000 10040 20040 39571 49964 56004 60006 74342 89/// 90600 333 10085 20039 60124=
07460,1996-12-24 09:00:00,5,997.4,1.1,100,5,500,0,,,0,,,,,,,,,,45,wg-a,,,,AAXX 24094 07460 12/05 90000 10050 20050 39582 49974 53011 60006 74542 89/// 90900=
07460,1996-12-24 12:00:00,7,997.1,-0.1,100,7,500,0,,,0,,,,,,,,,,10,wg-a,,,,AAXX 24124 07460 12200 70000 10070 20070 39581 49971 58001 60006 71042 8683/ 91200=
07460,1996-12-24 15:00:00,9,996.9,0.1,87,7,7000,3.704,,,360,,,,,,,,,,,wg-a,,,,AAXX 24154 07460 12357 73602 10090 20070 39582 49969 53001 60006 878// 91500=
07460,1996-12-24 18:00:00,6,998.8,1.6,100,6,6000,11.112,,,40,3.8,8.5,,,,,,,,20,wg-a,,,,AAXX 24184 07460 02156 70406 10060 20060 39597 49988 51016 61000 72052 875// 91800 333 10085 20038 6100=
07460,1996-12-24 21:00:00,5,1000.4,1.3,100,5,4500,3.704,,,20,,,,,,,,,,10,wg-a,,,,AAXX 24214 07460 12145 80202 10050 20050 39611 40004 51013 60006 71022 885// 92100=
07460,1996-12-25 00:00:00,4,1002.5,1.8,100,4,500,7.408,,,30,,,,,,,,,,,wg-a,,,,AAXX 25004 07460 12100 80304 10040 20040 39630 40025 51018 60006 885// 90000=
07460,1996-12-25 03:00:00,3,1004.1,1.4,100,3,500,7.408,,,30,,,,1,,,,,,61,wg-a,,,,AAXX 25034 07460 12100 80304 10030 20030 39644 40041 53014 60017 76162 885// 90300=
07460,1996-12-25 06:00:00,3,1005.9,1.6,100,3,4500,7.408,,,30,2.4,6.1,,,,,3,,,10,wg-a,,,,AAXX 25064 07460 02245 80304 10030 20030 39660 40059 51016 60006 71062 885// 90600 333 10061 20024 60034=
07460,1996-12-25 09:00:00,3,1007.6,1.7,100,3,4000,7.408,,,80,,,,,,,,,,10,wg-a,,,,AAXX 25094 07460 02140 80804 10030 20030 39677 40076 51017 61000 71052 877// 90900 333 ////=
07460,1996-12-25 12:00:00,1,1010.1,2.1,100,1,1500,18.52,,,30,,,,0,,,,,,28,wg-a,,,,AAXX 25124 07460 02015 90310 10010 20010 39698 40101 51021 60006 72865 897// 91200 333 60007=
07460,1996-12-25 15:00:00,0,1012.7,2.5,100,0,500,18.52,,,30,,,,,,,,,,,wg-a,,,,AAXX 25154 07460 12200 70310 10000 20000 39722 40127 53025 60006 875// 91500=
07460,1996-12-25 18:00:00,-1,1017,3.8,93,-2,7000,0,,,0,-1.3,2.8,,,,,,,,10,wg-a,,,,AAXX 25184 07460 02257 70000 11010 21020 39761 40170 53038 61000 71072 877// 91800 333 10028 21013 6000=
07460,1996-12-25 21:00:00,-2,1019.9,2.6,93,-3,8000,0,,,0,,,,,,,,,,22,wg-a,,,,AAXX 25214 07460 02258 7//// 11020 21030 39787 40199 51026 61000 72272 878// 92100 333 ////=
07460,1996-12-26 00:00:00,-3,1022.2,2.1,93,-4,8000,0,,,0,,,,,,,,,,1,wg-a,,,,AAXX 26004 07460 02358 7//// 11030 21040 39808 40222 51021 61000 70172 878// 90000 333 ////=
07460,1996-12-26 03:00:00,-4,1025.6,3.1,80,-7,9000,0,,,0,,,,,,,,,,,wg-a,,,,AAXX 26034 07460 12459 2//// 11040 21070 39838 40256 52031 60006 82500 90300=
07460,1996-12-26 06:00:00,-5,1028.7,2.8,73,-9,15000,0,,,0,-5.2,-1.2,,,,,1,,,,wg-a,,,,AAXX 26064 07460 02/65 0//// 11050 21090 39867 40287 51028 60006 80000 90600 333 11012 21052 60014=
07460,1996-12-26 09:00:00,-5,1031.2,2.3,79,-8,14000,18.52,,,350,,,,,,,,,,,wg-a,,,,AAXX 26094 07460 12564 73510 11050 21080 39891 40312 51023 60006 875// 90900=
07460,1996-12-26 12:00:00,-5,1032.1,1,79,-8,14000,22.224,,,360,,,,,,,,,,1,wg-a,,,,AAXX 26124 07460 02564 73612 11050 21080 39900 40321 51010 61000 70171 875// 91200 333 6100=
07460,1996-12-26 15:00:00,-3,1033.6,1.7,68,-8,14000,22.224,,,10,,,,,,,,,,,wg-a,,,,AAXX 26154 07460 12564 20112 11030 21080 39917 40336 53017 60006 82100 91500=
07460,1996-12-26 18:00:00,-4,1035.8,1.9,74,-8,15000,11.112,,,330,-5.4,-2.7,,,,,,,,,wg-a,,,,AAXX 26184 07460 12565 /3306 11040 21080 39936 40358 53019 60006 81100 91800 333 11027 21054=
07460,1996-12-26 21:00:00,-5,1034.6,-1.3,68,-10,15000,11.112,,,330,,,,,,,,,,,wg-a,,,,AAXX 26214 07460 12/65 03306 11050 21100 39923 40346 55013 60006 80000 92100=
07460,1996-12-27 00:00:00,-7,1035.7,0.8,73,-11,15000,7.408,,,310,,,,,,,,,,,wg-a,,,,AAXX 27004 07460 12/65 03104 11070 21110 39931 40357 51008 60006 80000 90000=
07460,1996-12-27 03:00:00,-9,1034,-2,73,-13,15000,0,,,0,,,,,,,,,,,wg-a,,,,AAXX 27034 07460 12/65 00000 11090 21130 39912 40340 58020 60006 80000 90300=
07460,1996-12-27 06:00:00,-9,1033,-0.9,79,-12,15000,3.704,,,30,-10.7,-4.2,,,,,,,,,wg-a,,,,AAXX 27064 07460 02765 /0302 11090 21120 39902 40330 56009 60006 81502 90600 333 11042 21107 61000=
07460,1996-12-27 09:00:00,-8,1029.8,-2.7,79,-11,15000,14.816,,,170,,,,,,,,,,,wg-a,,,,AAXX 27094 07460 12/65 61708 11080 21110 39873 40298 58027 60006 81032 90900=
07460,1996-12-27 12:00:00,-3,1026.5,-2.5,74,-7,15000,11.112,,,160,,,,,,,,,,,wg-a,,,,AAXX 27124 07460 12/65 11606 11030 21070 39849 40265 58025 60006 80001 91200=
07460,1996-12-27 15:00:00,-2,1022.9,-3.2,69,-7,15000,3.704,,,40,,,,,,,,,,,wg-a,,,,AAXX 27154 07460 12/65 10402 11020 21070 39816 40229 56032 60006 80001 91500=
07460,1996-12-27 18:00:00,-4,1022.4,-0.7,80,-7,15000,7.408,,,350,-10.2,-1.2,,,,,,,,,wg-a,,,,AAXX 27184 07460 12/65 73504 11040 21070 39809 40224 56007 60006 8703/ 91800 333 11012 21102=
07460,1996-12-27 21:00:00,-5,1020.9,-1.8,79,-8,14000,7.408,,,20,,,,,,,,,,,wg-a,,,,AAXX 27214 07460 12664 /0204 11050 21080 39792 40209 56018 60006 86530 92100=
07460,1996-12-28 00:00:00,-7,1019.4,-1.6,86,-9,14000,3.704,,,70,,,,,,,,,,,wg-a,,,,AAXX 28004 07460 12/64 60702 11070 21090 39775 40194 57016 60006 86030 90000=
07460,1996-12-28 03:00:00,-8,1018.6,-0.8,92,-9,13000,3.704,,,110,,,,,,,,,,,wg-a,,,,AAXX 28034 07460 12463 71102 11080 21090 39766 40186 58008 60006 8253/ 90300=
07460,1996-12-28 06:00:00,-7,1017.3,-1.1,86,-9,14000,3.704,,,100,-7.7,-3.7,,,,,,,,1,wg-a,,,,AAXX 28064 07460 02564 71002 11070 21090 39755 40173 56011 60006 70172 8153/ 90600 333 11037 21077 61000=
07460,1996-12-28 09:00:00,-6,1017.4,0.3,79,-9,25000,0,,,0,,,,,,,,,,,wg-a,,,,AAXX 28094 07460 12675 40000 11060 21090 39758 40174 53003 60006 81530 90900=
07460,1996-12-28 12:00:00,-4,1016.5,-0.7,74,-8,15000,7.408,,,50,,,,,,,,,,,wg-a,,,,AAXX 28124 07460 12465 20504 11040 21080 39751 40165 58007 60006 82830 91200=
07460,1996-12-28 15:00:00,-4,1016,-0.5,74,-8,15000,11.112,,,40,,,,,,,,,,,wg-a,,,,AAXX 28154 07460 12465 /0406 11040 21080 39746 40160 55005 60006 86800 91500=
07460,1996-12-28 18:00:00,-6,1016.5,0.3,79,-9,10000,11.112,,,20,-6.7,-3.8,,,,,,,,,wg-a,,,,AAXX 28184 07460 12560 70206 11060 21090 39749 40165 53003 60006 875// 91800 333 11038 21067=
07460,1996-12-28 21:00:00,-6,1016.8,0.2,73,-10,10000,7.408,,,360,,,,,,,,,,70,wg-a,,,,AAXX 28214 07460 02460 73604 11060 21100 39751 40168 51002 61000 77072 875// 92100 333 ////=
07460,1996-12-29 00:00:00,-7,1016.3,-0.5,86,-9,9000,7.408,,,350,,,,,,,,,,,wg-a,,,,AAXX 29004 07460 02559 73504 11070 21090 39745 40163 58005 61000 875// 90000 333 6100=
07460,1996-12-29 03:00:00,-7,1015.9,-0.4,86,-9,9000,0,,,0,,,,,,,,,,,wg-a,,,,AAXX 29034 07460 12559 70000 11070 21090 39741 40159 57004 60006 875// 90300=
07460,1996-12-29 06:00:00,-7,1015.1,-0.6,93,-8,12000,3.704,,,60,-7.3,-5.6,,,,,,,,,wg-a,,,,AAXX 29064 07460 02562 70602 11070 21080 39734 40151 56006 60006 875// 90600 333 11056 21073 61000=
07460,1996-12-29 09:00:00,-6,1016.3,1.3,79,-9,12000,3.704,,,50,,,,,,,,,,,wg-a,,,,AAXX 29094 07460 12462 80502 11060 21090 39747 40163 52013 60006 885// 90900=
07460,1996-12-29 12:00:00,-6,1015.8,-0.4,79,-9,10000,3.704,,,300,,,,,,,,,,,wg-a,,,,AAXX 29124 07460 12460 83002 11060 21090 39743 40158 58004 60006 885// 91200=
07460,1996-12-29 15:00:00,-5,1015.5,-0.2,73,-9,12000,7.408,,,250,,,,,,,,,,,wg-a,,,,AAXX 29154 07460 12562 72504 11050 21090 39741 40155 55002 60006 875// 91500=
07460,1996-12-29 18:00:00,-5,1015,-0.5,79,-8,12000,3.704,,,190,-6.5,-4.7,,,,,,,,,wg-a,,,,AAXX 29184 07460 12462 71902 11050 21080 39736 40150 58005 60006 875// 91800 333 11047 21065=
07460,1996-12-29 21:00:00,-6,1014.5,-0.7,86,-8,10000,7.408,,,10,,,,,,,,,,,wg-a,,,,AAXX 29214 07460 12460 70104 11060 21080 39729 40145 58007 60006 875// 92100=
07460,1996-12-30 00:00:00,-9,1013.5,-1.4,79,-12,10000,7.408,,,240,,,,,,,,,,,wg-a,,,,AAXX 30004 07460 12560 32404 11090 21120 39715 40135 58014 60006 83500 90000=
07460,1996-12-30 03:00:00,-11,1012.4,-1.3,92,-12,10000,3.704,,,290,,,,,,,,,,,wg-a,,,,AAXX 30034 07460 12560 /2902 11110 21120 39702 40124 56013 60006 81500 90300=
07460,1996-12-30 06:00:00,-8,1009.1,-2.8,79,-11,15000,3.704,,,130,-11.5,-4.9,,,,,,,,,wg-a,,,,AAXX 30064 07460 02565 31302 11080 21110 39674 40091 56028 60006 83500 90600 333 11049 21115 60004=
07460,1996-12-30 09:00:00,-7,1007.4,-1.4,79,-10,10000,7.408,,,160,,,,,,,,,,70,wg-a,,,,AAXX 30094 07460 02560 81604 11070 21100 39660 40074 56014 61000 77071 885// 90900 333 ////=
07460,1996-12-30 12:00:00,-5,1006.3,-0.7,86,-7,3000,0,,,0,,,,,,,,,,71,wg-a,,,,AAXX 30124 07460 02430 80000 11050 21070 39653 40063 55007 61000 77171 885// 91200 333 6100=
07460,1996-12-30 15:00:00,-4,1006.2,-0,86,-6,4000,0,,,0,,,,,,,,,,70,wg-a,,,,AAXX 30154 07460 02440 80000 11040 21060 39653 40062 55000 61000 77072 885// 91500 333 ////=
07460,1996-12-30 18:00:00,-4,1007.6,1.3,86,-6,500,11.112,,,30,-8.8,-4.1,,,,,,,,70,wg-a,,1,,AAXX 30184 07460 02300 80306 11040 21060 39666 40076 51013 61000 77072 885// 91800 333 11041 21088 4/001 6100=
07460,1996-12-30 21:00:00,-5,1008.3,0.7,93,-6,500,0,,,0,,,,,,,,,,71,wg-a,,,,AAXX 30214 07460 02400 70000 11050 21060 39672 40083 52007 61000 77177 875// 92100 333 ////=
07460,1996-12-31 00:00:00,-6,1008.8,0.2,93,-7,6000,0,,,0,,,,,,,,,,,wg-a,,,,AAXX 31004 07460 02/56 /0000 11060 21070 39675 40088 50002 61000 90000 333 ////=
07460,1996-12-31 03:00:00,-5,1009.2,0.5,73,-9,10000,0,,,0,,,,,,,,,,,wg-a,,,,AAXX 31034 07460 12560 70000 11050 21090 39680 40092 51005 60006 875// 90300=
07460,1996-12-31 06:00:00,-6,1009.4,-0,79,-9,12000,3.704,,,70,-6.3,-4.3,,,,,,,,,wg-a,,2,,AAXX 31064 07460 02562 70702 11060 21090 39680 40094 54000 60006 875// 90600 333 11043 21063 4/002 61000=
07460,1996-12-31 09:00:00,-7,1011.2,1.6,86,-9,12000,3.704,,,100,,,,,,,,,,,wg-a,,,,AAXX 31094 07460 12562 /1002 11070 21090 39696 40112 53016 60006 86500 90900=
07460,1996-12-31 12:00:00,-4,1009.9,-0.7,68,-9,12000,3.704,,,120,,,,,,,,,,,wg-a,,,,AAXX 31124 07460 12562 /1202 11040 21090 39689 40099 58007 60006 81500 91200=
07460,1996-12-31 15:00:00,-4,1010,0.1,68,-9,14000,7.408,,,360,,,,,,,,,,,wg-a,,,,AAXX 31154 07460 12/64 63604 11040 21090 39690 40100 53001 60006 81032 91500=
07460,1996-12-31 18:00:00,-5,1010.2,0,79,-8,12000,11.112,,,330,-11,-2,,,,,,,,,wg-a,,0,,AAXX 31184 07460 12762 73306 11050 21080 39690 40102 50000 60006 81532 91800 333 11020 21110 4/9999=
07460,1996-12-31 21:00:00,-6,1010.2,-0.2,86,-8,15000,3.704,,,340,,,,,,,,,,,wg-a,,,,AAXX 31214 07460 12765 73402 11060 21080 39688 40102 58002 60006 8257/ 92100=
