station_id,dh_utc,temperature,pression,pression_variation_3h,humidite,point_de_rosee,visibilite,vent_moyen,vent_rafales,vent_rafales_10min,vent_direction,temperature_min,temperature_max,pluie_1h,pluie_3h,pluie_6h,pluie_12h,pluie_24h,ensoleillement,temperature_sol,temps_omm,source,radiations,neige_au_sol,nebulosite,raw_msg
07460,1997-01-01 00:00:00,-6,1010.2,-0,79,-9,10000,0,,,0,,,,,,,,,,,wg-a,,,,AAXX 01004 07460 12760 80000 11060 21090 39688 40102 55000 60006 8257/ 90000=
07460,1997-01-01 03:00:00,-7,1010.7,0.4,93,-8,10000,3.704,,,10,,,,,,,,,,,wg-a,,,,AAXX 01034 07460 12660 70102 11070 21080 39692 40107 50004 60006 8357/ 90300=
07460,1997-01-01 06:00:00,-7,1011.6,0.8,93,-8,7000,3.704,,,360,-6.9,-5.1,,,,,,,,3,wg-a,,1,,AAXX 01064 07460 02657 73602 11070 21080 39700 40116 53008 60006 70372 875// 90600 333 11051 21069 4/001 61000=
07460,1997-01-01 09:00:00,-7,1013.7,2.1,93,-8,4000,3.704,,,350,,,,,,,,,,10,wg-a,,,,AAXX 01094 07460 12540 73502 11070 21080 39721 40137 53021 60006 71022 82572 90900=
07460,1997-01-01 12:00:00,-4,1014.5,1.1,80,-7,500,3.704,,,40,,,,,,,,,,,wg-a,,,,AAXX 01124 07460 12600 70402 11040 21070 39732 40145 51011 60006 8453/ 91200=
07460,1997-01-01 15:00:00,-3,1015.2,1.1,80,-6,500,0,,,0,,,,,,,,,,,wg-a,,,,AAXX 01154 07460 12600 /0000 11030 21060 39742 40152 53011 60006 85500 91500=
07460,1997-01-01 18:00:00,-5,1017.4,1.5,86,-7,6000,3.704,,,230,-7.3,-2.4,,,,,,,,,wg-a,,1,,AAXX 01184 07460 12656 22302 11050 21070 39758 40174 51015 60006 82500 91800 333 11024 21073 4/001=
07460,1997-01-01 21:00:00,-8,1019.1,1.3,92,-9,500,0,,,0,,,,,,,,,,,wg-a,,,,AAXX 01214 07460 12600 40000 11080 21090 39770 40191 53013 60006 82530 92100=
07460,1997-01-02 00:00:00,-11,1019.9,0.3,92,-12,4000,3.704,,,220,,,,,,,,,,10,wg-a,,,,AAXX 02004 07460 12640 /2202 11110 21120 39774 40199 50003 60006 71000 81500 90000=
07460,1997-01-02 03:00:00,-8,1018.4,-1.2,92,-9,500,3.704,,,100,,,,,,,,,,10,wg-a,,,,AAXX 02034 07460 12100 21002 11080 21090 39763 40184 56012 60006 71000 82600 90300=
07460,1997-01-02 06:00:00,-8,1017.2,-0.9,92,-9,2000,3.704,,,330,-10.7,-5.7,,,,,,,,10,wg-a,,1,,AAXX 02064 07460 02120 73302 11080 21090 39753 40172 55009 60006 71011 84572 90600 333 11057 21107 4/001 60004=
07460,1997-01-02 09:00:00,-6,1016.2,-0.7,93,-7,1000,0,,,0,,,,0,,,,,,10,wg-a,,,,AAXX 02094 07460 12110 80000 11060 21070 39746 40162 56007 60007 71072 877// 90900=
07460,1997-01-02 12:00:00,-6,1013.7,-2.4,93,-7,1200,3.704,,,60,,,,2,,,,,,10,wg-a,,,,AAXX 02124 07460 02112 80602 11060 21070 39722 40137 58024 60026 71072 887// 91200 333 60027=
07460,1997-01-02 15:00:00,-5,1011.4,-2.1,93,-6,1500,0,,,0,,,,2,,,,,,10,wg-a,,,,AAXX 02154 07460 12115 80000 11050 21060 39701 40114 56021 60027 71077 887// 91500=
07460,1997-01-02 18:00:00,-3,1009.8,-1.2,93,-4,1600,7.408,,,340,-7.7,-3.2,,,,,,,,10,wg-a,,8,,AAXX 02184 07460 02116 83404 11030 21040 39689 40098 58012 61000 71077 887// 91800 333 11032 21077 4/008 6002=
07460,1997-01-02 21:00:00,-4,1009,-0.9,93,-5,2500,3.704,,,110,,,,0,,,,,,10,wg-a,,,,AAXX 02214 07460 12425 81102 11040 21050 39680 40090 57009 60007 71077 877// 92100=
07460,1997-01-03 00:00:00,-4,1008.3,-0.5,93,-5,4000,3.704,,,40,,,,,,,,,,10,wg-a,,,,AAXX 03004 07460 02440 80402 11040 21050 39674 40083 58005 60006 71072 875// 90000 333 61000=
07460,1997-01-03 03:00:00,-4,1007.7,-0.8,93,-5,2500,3.704,,,340,,,,,,,,,,,wg-a,,,,AAXX 03034 07460 12325 83402 11040 21050 39667 40077 56008 60006 875// 90300=
07460,1997-01-03 06:00:00,-5,1005.8,-1.8,100,-5,3000,0,,,0,-4.8,-3.2,,,,,6,,,10,wg-a,,8,,AAXX 03064 07460 02330 70000 11050 21050 39648 40058 55018 60006 71022 875// 90600 333 11032 21048 4/008 60064=
07460,1997-01-03 09:00:00,-5,1004.7,-1.1,93,-6,2000,0,,,0,,,,,,,,,,10,wg-a,,,,AAXX 03094 07460 12220 70000 11050 21060 39637 40047 56011 60006 71022 875// 90900=
07460,1997-01-03 12:00:00,-4,1003.5,-1.1,93,-5,1500,3.704,,,340,,,,,,,,,,10,wg-a,,,,AAXX 03124 07460 02215 83402 11040 21050 39627 40035 58011 61000 71062 877// 91200 333 6100=
07460,1997-01-03 15:00:00,-3,1000.3,-2.9,93,-4,1800,3.704,,,20,,,,1,,,,,,10,wg-a,,,,AAXX 03154 07460 12218 80202 11030 21040 39598 40003 56029 60017 71062 8777/ 91500=
07460,1997-01-03 18:00:00,-3,999.1,-1.2,93,-4,1800,3.704,,,240,-5.3,-2.9,,,,,,,,10,wg-a,,7,,AAXX 03184 07460 02318 82402 11030 21040 39586 49991 55012 61000 71062 877// 91800 333 11029 21053 4/007 6100=
07460,1997-01-03 21:00:00,-4,998.1,-1.2,93,-5,1000,0,,,0,,,,0,,,,,,10,wg-a,,,,AAXX 03214 07460 12310 80000 11040 21050 39575 49981 56012 60007 71062 877// 92100=
07460,1997-01-04 00:00:00,-4,997.3,-0.8,100,-4,1200,0,,,0,,,,,,,,,,28,wg-a,,,,AAXX 04004 07460 12112 80000 11040 21040 39568 49973 57008 60006 72864 877// 90000=
07460,1997-01-04 03:00:00,-3,997.9,0.7,93,-4,1500,7.408,,,30,,,,,,,,,,10,wg-a,,,,AAXX 04034 07460 12215 80304 11030 21040 39574 49979 53007 60006 71022 877// 90300=
07460,1997-01-04 06:00:00,-3,998.9,1,100,-3,2000,0,,,0,-5.3,-1.9,,,,,1,,,10,wg-a,,7,,AAXX 04064 07460 02220 80000 11030 21030 39585 49989 53010 60006 71022 876// 90600 333 11019 21053 4/007 60014=
07460,1997-01-04 09:00:00,-2,1000.9,2.1,100,-2,1200,0,,,0,,,,,,,,,,40,wg-a,,,,AAXX 04094 07460 12212 80000 11020 21020 39605 40009 53021 60006 74022 876// 90900=
07460,1997-01-04 12:00:00,1,1000.4,,93,0,2500,7.408,,,250,,,,,,,,,,10,wg-a,,,,AAXX 04124 07460 12425 72504 10010 20000 39605 40004 60006 71022 875// 91200=
07460,1997-01-04 15:00:00,1,1001.8,1.3,93,0,1200,7.408,,,20,,,,,,,,,,10,wg-a,,,,AAXX 04154 07460 12112 80204 10010 20000 39618 40018 53013 60006 71022 876// 91500=
07460,1997-01-04 18:00:00,-1,1004,1.7,93,-2,1300,7.408,,,100,-3.4,1.5,,,,,,,,10,wg-a,,5,,AAXX 04184 07460 02313 81004 11010 21020 39636 40040 51017 61000 71052 877// 91800 333 10015 21034 4/005 6100=
07460,1997-01-04 21:00:00,-3,1006,1.7,100,-3,1000,11.112,,,100,,,,2,,,,,,71,wg-a,,,,AAXX 04214 07460 12310 81006 11030 21030 39653 40060 51017 60027 77175 877// 92100=
07460,1997-01-05 00:00:00,-3,1007.6,1.5,100,-3,1100,3.704,,,180,,,,3,,,,,,10,wg-a,,,,AAXX 05004 07460 02211 81802 11030 21030 39668 40076 51015 60056 71075 877// 90000 333 60037=
07460,1997-01-05 03:00:00,-3,1008.3,0.7,93,-4,1400,14.816,,,190,,,,1,,,,,,10,wg-a,,,,AAXX 05034 07460 12214 81908 11030 21040 39675 40083 50007 60017 710// 877// 90300=
07460,1997-01-05 06:00:00,-2,1008.1,-0.1,93,-3,8000,14.816,,,180,-3.2,-1.4,,,,,,,,70,wg-a,,18,,AAXX 05064 07460 02458 81808 11020 21030 39674 40081 55001 61000 77072 875// 90600 333 11014 21032 4/018 6006=
07460,1997-01-05 09:00:00,-2,1009.6,1.6,93,-3,10000,22.224,,,200,,,,,,,,,,22,wg-a,,,,AAXX 05094 07460 02560 82012 11020 21030 39689 40096 51016 61000 72272 875// 90900 333 ////=
07460,1997-01-05 12:00:00,-1,1010,0.4,86,-3,14000,22.224,,,190,,,,,,,,,,2,wg-a,,,,AAXX 05124 07460 02664 81912 11010 21030 39693 40100 50004 61000 70272 875// 91200 333 6100=
07460,1997-01-05 15:00:00,-1,1010.5,0.6,100,-1,4500,3.704,,,160,,,,0,,,,,,10,wg-a,,,,AAXX 05154 07460 12545 81602 11010 21010 39699 40105 53006 60007 71072 875// 91500=
07460,1997-01-05 18:00:00,-2,1011.5,0.9,100,-2,500,3.704,,,100,-2.4,-0.7,,,,,,,,2,wg-a,,18,,AAXX 05184 07460 02400 81002 11020 21020 39708 40115 51009 60006 70287 878// 91800 333 11007 21024 4/018 61000=
07460,1997-01-05 21:00:00,-2,1013,1.4,100,-2,6000,3.704,,,220,,,,,,,,,,,wg-a,,,,AAXX 05214 07460 12356 82202 11020 21020 39722 40130 52014 60006 885// 92100=
07460,1997-01-06 00:00:00,-1,1013.3,0.4,93,-2,500,3.704,,,100,,,,,,,,,,,wg-a,,,,AAXX 06004 07460 12200 81002 11010 21020 39726 40133 50004 60006 885// 90000=
07460,1997-01-06 03:00:00,-1,1013.9,0.5,93,-2,500,3.704,,,20,,,,,,,,,,,wg-a,,,,AAXX 06034 07460 12200 80202 11010 21020 39731 40139 51005 60006 885// 90300=
07460,1997-01-06 06:00:00,-2,1014.2,0.2,100,-2,3500,0,,,0,-1.9,-1,,,,,,,,10,wg-a,,18,,AAXX 06064 07460 02135 80000 11020 21020 39733 40142 51002 60006 71022 885// 90600 333 11010 21019 4/018 60004=
07460,1997-01-06 09:00:00,-1,1014.7,0.6,100,-1,3500,0,,,0,,,,,,,,,,10,wg-a,,,,AAXX 06094 07460 12335 80000 11010 21010 39739 40147 51006 60006 71022 885// 90900=
07460,1997-01-06 12:00:00,0,1014.5,0,93,-1,3500,7.408,,,20,,,,,,,,,,10,wg-a,,,,AAXX 06124 07460 12335 80204 10000 21010 39739 40145 50000 60006 71022 885// 91200=
07460,1997-01-06 15:00:00,0,1014.3,-0.2,93,-1,4000,7.408,,,20,,,,,,,,,,10,wg-a,,,,AAXX 06154 07460 12440 80204 10000 21010 39737 40143 55002 60006 71022 885// 91500=
07460,1997-01-06 18:00:00,-1,1015.5,1,93,-2,6000,3.704,,,20,-1.8,0.2,,,,,,,,10,wg-a,,16,,AAXX 06184 07460 12356 70202 11010 21020 39747 40155 51010 60006 71022 875// 91800 333 10002 21018 4/016=
07460,1997-01-06 21:00:00,-2,1016.9,1.1,93,-3,500,7.408,,,350,,,,,,,,,,,wg-a,,,,AAXX 06214 07460 12200 83504 11020 21030 39758 40169 53011 60006 885// 92100=
07460,1997-01-07 00:00:00,-2,1016.6,-0.2,93,-3,10000,7.408,,,90,,,,,,,,,,,wg-a,,,,AAXX 07004 07460 12460 80904 11020 21030 39756 40166 58002 60006 887// 90000=
07460,1997-01-07 03:00:00,-3,1017.4,0.7,100,-3,3000,11.112,,,20,,,,,,,,,,10,wg-a,,,,AAXX 07034 07460 12130 80206 11030 21030 39763 40174 53007 60006 71022 887// 90300=
07460,1997-01-07 06:00:00,-4,1018,0.3,93,-5,4500,7.408,,,40,-4.2,-0.9,,,,,,,,10,wg-a,,15,,AAXX 07064 07460 02145 /0404 11040 21050 39766 40180 52003 60006 71022 86700 90600 333 11009 21042 4/015 60004=
07460,1997-01-07 09:00:00,-4,1019.1,1,93,-5,3000,0,,,0,,,,,,,,,,10,wg-a,,,,AAXX 07094 07460 12130 /0000 11040 21050 39776 40191 53010 60006 71022 86700 90900=
07460,1997-01-07 12:00:00,-3,1018.2,-0.7,86,-5,3000,3.704,,,40,,,,,,,,,,10,wg-a,,,,AAXX 07124 07460 12230 /0402 11030 21050 39769 40182 58007 60006 71022 86700 91200=
07460,1997-01-07 15:00:00,-3,1016.6,-1.4,93,-4,2500,3.704,,,40,,,,,,,,,,10,wg-a,,,,AAXX 07154 07460 12225 70402 11030 21040 39755 40166 56014 60006 71022 87500 91500=
07460,1997-01-07 18:00:00,-3,1015.9,-0.7,93,-4,500,0,,,0,-4.5,-2.5,,,,,,,,,wg-a,,14,,AAXX 07184 07460 12200 70000 11030 21040 39747 40159 58007 60006 87500 91800 333 11025 21045 4/014=
07460,1997-01-07 21:00:00,-3,1013.9,-1.8,93,-4,6000,11.112,,,180,,,,,,,,,,,wg-a,,,,AAXX 07214 07460 12456 71806 11030 21040 39729 40139 58018 60006 875// 92100=
07460,1997-01-08 00:00:00,-3,1012.2,-1.8,86,-5,8000,7.408,,,200,,,,,,,,,,,wg-a,,,,AAXX 08004 07460 12458 72004 11030 21050 39712 40122 58018 60006 875// 90000=
07460,1997-01-08 03:00:00,-6,1010.3,-2.1,93,-7,9000,7.408,,,160,,,,,,,,,,,wg-a,,,,AAXX 08034 07460 12459 41604 11060 21070 39690 40103 56021 60006 82511 90300=
07460,1997-01-08 06:00:00,-11,1008.9,-2.3,92,-12,3500,0,,,0,-11.9,-2,,,,,,,,11,wg-a,,16,,AAXX 08064 07460 02235 /0000 11110 21120 39668 40089 58023 60006 71111 83632 90600 333 11020 21119 4/016 60004=
07460,1997-01-08 09:00:00,-9,1007.3,-1.1,92,-10,500,3.704,,,100,,,,,,,,,,,wg-a,,,,AAXX 08094 07460 12200 71002 11090 21100 39656 40073 56011 60006 83572 90900=
07460,1997-01-08 12:00:00,-4,1005.9,-0.6,93,-5,500,3.704,,,20,,,,1,,,,,,66,wg-a,,,,AAXX 08124 07460 02200 80202 11040 21050 39650 40059 58006 60016 76662 8357/ 91200 333 60017=
07460,1997-01-08 15:00:00,-2,1003.7,-1.6,100,-2,2000,0,,,0,,,,3,,,,,,10,wg-a,,,,AAXX 08154 07460 12520 80000 11020 21020 39633 40037 56016 60037 71066 8557/ 91500=
07460,1997-01-08 17:00:00,-1,1003.3,-0.5,100,-1,1500,0,,,0,-11.7,-0.8,,2,,,,,,10,wg-a,,10,,AAXX 08174 07460 12115 80000 11010 21010 39630 40033 56005 60027 71066 8557/ 91700 333 11008 21117 4/010=
07460,1997-01-08 18:00:00,-1,1003.3,-0.5,100,-1,1500,0,,,0,-11.7,-0.8,,,,,,,,10,wg-a,,10,,AAXX 08184 07460 02115 80000 11010 21010 39630 40033 56005 61000 71066 8557/ 91800 333 11008 21117 4/010 6002=
07460,1997-01-08 21:00:00,0,1002.9,-0.3,93,-1,3000,0,,,0,,,,0,,,,,,10,wg-a,,,,AAXX 08214 07460 12130 80000 10000 21010 39627 40029 58003 60007 71066 8557/ 92100=
07460,1997-01-09 00:00:00,0,1002.4,-0.4,100,0,2000,0,,,0,,,,,,,,,,10,wg-a,,,,AAXX 09004 07460 02120 70000 10000 20000 39623 40024 58004 60016 71062 875// 90000 333 61000=
07460,1997-01-09 03:00:00,0,1002.3,-0.1,100,0,2000,3.704,,,290,,,,,,,,,,10,wg-a,,,,AAXX 09034 07460 12120 72902 10000 20000 39622 40023 56001 60006 71022 875// 90300=
07460,1997-01-09 06:00:00,0,1002,-0.3,100,0,2500,0,,,0,-0.8,0.6,,,,,6,,,10,wg-a,,8,,AAXX 09064 07460 02225 70000 10000 20000 39619 40020 56003 60006 71022 877// 90600 333 10006 21008 4/008 60064=
07460,1997-01-09 09:00:00,1,1003.5,1.5,100,1,1500,7.408,,,10,,,,,,,,,,10,wg-a,,,,AAXX 09094 07460 12315 70104 10010 20010 39635 40035 53015 60006 71022 875// 90900=
07460,1997-01-09 12:00:00,3,1003.6,0.4,93,2,4000,3.704,,,60,,,,,,,,,,10,wg-a,,,,AAXX 09124 07460 12540 /0602 10030 20020 39639 40036 50004 60006 71022 85500 91200=
07460,1997-01-09 15:00:00,3,1005.5,1.8,93,2,6000,0,,,0,,,,,,,,,,,wg-a,,,,AAXX 09154 07460 12556 70000 10030 20020 39657 40055 53018 60006 875// 91500=
07460,1997-01-09 18:00:00,3,1007.2,1.7,93,2,10000,3.704,,,320,0.4,4.6,,,,,,,,,wg-a,,8,,AAXX 09184 07460 12660 73202 10030 20020 39673 40072 52017 60006 875// 91800 333 10046 20004 4/008=
07460,1997-01-09 21:00:00,2,1008.5,1.1,93,1,3000,3.704,,,60,,,,,,,,,,10,wg-a,,,,AAXX 09214 07460 02530 80602 10020 20010 39684 40085 51011 61000 71052 875// 92100 333 ////=
07460,1997-01-10 00:00:00,1,1010,1.5,100,1,1000,3.704,,,310,,,,1,,,,,,60,wg-a,,,,AAXX 10004 07460 02410 83102 10010 20010 39698 40100 52015 60016 76065 875// 90000 333 60017=
07460,1997-01-10 03:00:00,1,1011.6,1.4,100,1,6000,7.408,,,100,,,,1,,,,,,21,wg-a,,,,AAXX 10034 07460 12456 81004 10010 20010 39713 40116 53014 60017 72162 875// 90300=
07460,1997-01-10 06:00:00,1,1014.1,2.3,93,0,6000,3.704,,,60,0.7,2.5,,,,,,,,61,wg-a,,7,,AAXX 10064 07460 02456 80602 10010 20000 39736 40141 53023 61000 76176 875// 90600 333 10025 20007 4/007 6003=
07460,1997-01-10 09:00:00,1,1017.1,2.9,93,0,15000,7.408,,,120,,,,,,,,,,3,wg-a,,,,AAXX 10094 07460 02465 81204 10010 20000 39765 40171 52029 61000 70376 875// 90900 333 ////=
07460,1997-01-10 12:00:00,1,1018.3,1.2,100,1,2000,0,,,0,,,,,,,,,,10,wg-a,,,,AAXX 10124 07460 02320 80000 10010 20010 39777 40183 51012 61000 71076 876// 91200 333 ////=
07460,1997-01-10 15:00:00,1,1020.3,1.9,100,1,2500,3.704,,,20,,,,,,,,,,10,wg-a,,,,AAXX 10154 07460 12125 80202 10010 20010 39796 40203 52019 60006 71022 876// 91500=
07460,1997-01-10 18:00:00,1,1022.1,1.7,93,0,4000,3.704,,,60,0.7,1.5,,,,,,,,10,wg-a,,6,,AAXX 10184 07460 12240 80602 10010 20000 39813 40221 51017 60006 71022 885// 91800 333 10015 20007 4/006=
07460,1997-01-10 21:00:00,1,1023.3,1.2,93,0,1200,3.704,,,100,,,,,,,,,,10,wg-a,,,,AAXX 10214 07460 12012 81002 10010 20000 39824 40233 53012 60006 71022 886// 92100=
07460,1997-01-11 00:00:00,0,1023.7,0.4,100,0,2000,3.704,,,200,,,,,,,,,,10,wg-a,,,,AAXX 11004 07460 12220 82002 10000 20000 39828 40237 50004 60006 71042 886// 90000=
07460,1997-01-11 03:00:00,0,1025,1.2,100,0,6000,0,,,0,,,,,,,,,,,wg-a,,,,AAXX 11034 07460 12356 80000 10000 20000 39840 40250 51012 60006 8760/ 90300=
07460,1997-01-11 06:00:00,0,1025.5,0.6,100,0,8000,3.704,,,10,0.3,0.9,,,,,,,,,wg-a,,6,,AAXX 11064 07460 12458 80102 10000 20000 39845 40255 53006 60006 875// 90600 333 10009 20003 4/006=
07460,1997-01-11 09:00:00,1,1026.4,1,93,0,15000,3.704,,,120,,,,,,,,,,,wg-a,,,,AAXX 11094 07460 12465 21202 10010 20000 39855 40264 53010 60006 81501 90900=
07460,1997-01-11 12:00:00,1,1027.1,0.5,100,1,800,3.704,,,40,,,,,,,,,,42,wg-a,,,,AAXX 11124 07460 12/08 90402 10010 20010 39861 40271 50005 60006 74241 8903/ 91200=
07460,1997-01-11 15:00:00,0,1027.3,-0.1,93,-1,4000,3.704,,,110,,,,,,,,,,28,wg-a,,,,AAXX 11154 07460 12/40 /1102 10000 21010 39862 40273 55001 60006 72841 86030 91500=
07460,1997-01-11 18:00:00,-1,1028.3,0.7,93,-2,12000,0,,,0,-1.4,2.5,,,,,,,,1,wg-a,,5,,AAXX 11184 07460 12/62 10000 11010 21020 39869 40283 53007 60006 70141 80001 91800 333 10025 21014 4/005=
07460,1997-01-11 21:00:00,-4,1029.5,0.7,93,-5,4500,3.704,,,270,,,,,,,,,,,wg-a,,,,AAXX 11214 07460 12/45 /2702 11040 21050 39876 40295 51007 60006 92100=
07460,1997-01-12 00:00:00,-4,1029.9,0.4,93,-5,12000,3.704,,,50,,,,,,,,,,2,wg-a,,,,AAXX 12004 07460 12162 /0502 11040 21050 39880 40299 51004 60006 70240 81600 90000=
07460,1997-01-12 03:00:00,-7,1030.2,0.1,93,-8,800,7.408,,,360,,,,,,,,,,48,wg-a,,,,AAXX 12034 07460 12/08 03604 11070 21080 39878 40302 50001 60006 74840 80000 90300=
07460,1997-01-12 06:00:00,-8,1030.3,-0.1,92,-9,13000,3.704,,,30,-8.2,-1.2,,,,,,,,1,wg-a,,5,,AAXX 12064 07460 02263 /0302 11080 21090 39878 40303 55001 60006 70140 81600 90600 333 11012 21082 4/005 60004=
07460,1997-01-12 09:00:00,-5,1030.7,0.8,93,-6,20000,3.704,,,20,,,,,,,,,,,wg-a,,,,AAXX 12094 07460 12/70 10202 11050 21060 39886 40307 52008 60006 80002 90900=
07460,1997-01-12 12:00:00,1,1028.4,-1.2,75,-3,500,0,,,0,,,,,,,,,,,wg-a,,,,AAXX 12124 07460 12/00 30000 10010 21030 39874 40284 58012 60006 80002 91200=
07460,1997-01-12 15:00:00,0,1028,-0.6,80,-3,20000,7.408,,,10,,,,,,,,,,,wg-a,,,,AAXX 12154 07460 12/70 30104 10000 21030 39868 40280 55006 60006 80002 91500=
07460,1997-01-12 18:00:00,-4,1028.8,0.2,93,-5,10000,0,,,0,-8.4,2.5,,,,,,,,,wg-a,,4,,AAXX 12184 07460 12/60 20000 11040 21050 39870 40288 52002 60006 80002 91800 333 10025 21084 4/004=
07460,1997-01-12 21:00:00,-6,1029.1,0.1,100,-6,7000,3.704,,,130,,,,,,,,,,40,wg-a,,,,AAXX 12214 07460 12/57 /1302 11060 21060 39870 40291 53001 60006 74000 80001 92100=
07460,1997-01-13 00:00:00,-9,1028.7,-0.9,92,-10,200,0,,,0,,,,,,,,,,48,wg-a,,,,AAXX 13004 07460 12/02 /0000 11090 21100 39861 40287 58009 60006 74841 80001 90000=
07460,1997-01-13 03:00:00,-12,1028.3,-0.8,92,-13,300,0,,,0,,,,,,,,,,49,wg-a,,,,AAXX 13034 07460 12/03 90000 11120 21130 39853 40283 56008 60006 74941 89/// 90300=
07460,1997-01-13 06:00:00,-11,1028.2,-0.1,92,-12,100,0,,,0,-11.7,-3.6,,,,,,,,49,wg-a,,4,,AAXX 13064 07460 02/01 90000 11110 21120 39853 40282 58001 60006 74941 89/// 90600 333 11036 21117 4/004 60004=
07460,1997-01-13 09:00:00,-10,1028.3,0.4,100,-10,2500,3.704,,,50,,,,,,,,,,10,wg-a,,,,AAXX 13094 07460 12125 40502 11100 21100 39856 40283 52004 60006 71041 83601 90900=
07460,1997-01-13 12:00:00,-5,1026.6,-0.8,93,-6,4500,3.704,,,30,,,,,,,,,,10,wg-a,,,,AAXX 13124 07460 12145 20302 11050 21060 39848 40266 58008 60006 71041 82600 91200=
07460,1997-01-13 15:00:00,-1,1024.9,-1.2,74,-5,4500,3.704,,,60,,,,,,,,,,10,wg-a,,,,AAXX 13154 07460 12145 20602 11010 21050 39836 40249 56012 60006 71000 82600 91500=
07460,1997-01-13 18:00:00,-6,1026,0.4,86,-8,500,0,,,0,-11.6,-0.9,,,,,,,,,wg-a,,3,,AAXX 13184 07460 12/00 /0000 11060 21080 39840 40260 51004 60006 80001 91800 333 11009 21116 4/003=
07460,1997-01-13 21:00:00,-7,1026.5,0.4,93,-8,500,0,,,0,,,,,,,,,,,wg-a,,,,AAXX 13214 07460 12/00 /0000 11070 21080 39844 40265 51004 60006 80001 92100=
07460,1997-01-14 00:00:00,-9,1026.1,-0.8,92,-10,500,7.408,,,180,,,,,,,,,,,wg-a,,,,AAXX 14004 07460 12/00 /1804 11090 21100 39836 40261 58008 60006 80001 90000=
07460,1997-01-14 03:00:00,-5,1025,-0.4,79,-8,6000,22.224,,,200,,,,,,,,,,,wg-a,,,,AAXX 14034 07460 12/56 /2012 11050 21080 39832 40250 58004 60006 80001 90300=
07460,1997-01-14 06:00:00,-8,1025.7,0.2,92,-9,10000,7.408,,,10,-9.3,0,,,,,,,,,wg-a,,3,,AAXX 14064 07460 02/60 10104 11080 21090 39834 40257 53002 60006 80001 90600 333 10000 21093 4/003 60004=
07460,1997-01-14 09:00:00,0,1024.7,0.2,64,-6,50000,11.112,,,210,,,,,,,,,,,wg-a,,,,AAXX 14094 07460 12/84 02106 10000 21060 39836 40247 52002 60006 80000 90900=
07460,1997-01-14 12:00:00,6,1023,-0.8,45,-5,0,7.408,,,200,,,,,,,,,,,wg-a,,,,AAXX 14124 07460 12/// /2004 10060 21050 39828 40230 58008 60006 91200=
07460,1997-01-14 15:00:00,4,1022.7,-0.4,60,-3,0,3.704,,,30,,,,,,,,,,,wg-a,,,,AAXX 14154 07460 12/// 00302 10040 21030 39824 40227 55004 60006 80000 91500=
07460,1997-01-14 18:00:00,-1,1024.3,0.8,80,-4,10000,3.704,,,190,-8.1,7.2,,,,,,,,,wg-a,,3,,AAXX 14184 07460 12/60 01902 11010 21040 39831 40243 53008 60006 80000 91800 333 10072 21081 4/003=
07460,1997-01-15 00:00:00,1,1025.1,0.6,75,-3,15000,14.816,,,180,,,,,,,,,,,wg-a,,,,AAXX 15004 07460 12/65 01808 10010 21030 39843 40251 51006 60006 80000 90000=
07460,1997-01-15 06:00:00,-4,1026.6,0.3,93,-5,20000,18.52,,,200,-5.5,2.9,,,,,,,,,wg-a,,3,,AAXX 15064 07460 02/70 02010 11040 21050 39849 40266 53003 60006 80000 90600 333 10029 21055 4/003 60004=
07460,1997-01-15 09:00:00,0,1026.5,0.5,86,-2,25000,3.704,,,60,,,,,,,,,,,wg-a,,,,AAXX 15094 07460 12/75 00602 10000 21020 39854 40265 53005 60006 80000 90900=
07460,1997-01-15 12:00:00,7,1024.5,-1,53,-2,25000,11.112,,,200,,,,,,,,,,,wg-a,,,,AAXX 15124 07460 12/75 02006 10070 21020 39845 40245 58010 60006 80000 91200=
07460,1997-01-15 15:00:00,9,1023.2,-1,49,-1,500,3.704,,,50,,,,,,,,,,,wg-a,,,,AAXX 15154 07460 12/00 00502 10090 21010 39835 40232 58010 60006 80000 91500=
07460,1997-01-15 18:00:00,6,1023.7,0.1,52,-3,20000,0,,,0,-5.3,10.3,,,,,,,,,wg-a,,3,,AAXX 15184 07460 12/70 00000 10060 21030 39836 40237 53001 60006 80000 91800 333 10103 21053 4/003=
07460,1997-01-15 21:00:00,5,1024.1,0.2,60,-2,20000,0,,,0,,,,,,,,,,,wg-a,,,,AAXX 15214 07460 12/70 00000 10050 21020 39838 40241 52002 60006 80000 92100=
07460,1997-01-16 00:00:00,4,1024.4,0.1,65,-2,20000,3.704,,,350,,,,,,,,,,,wg-a,,,,AAXX 16004 07460 12/70 03502 10040 21020 39839 40244 50001 60006 80000 90000=
07460,1997-01-16 03:00:00,3,1023.5,-1,65,-3,20000,11.112,,,200,,,,,,,,,,,wg-a,,,,AAXX 16034 07460 12/70 02006 10030 21030 39829 40235 56010 60006 80000 90300=
07460,1997-01-16 06:00:00,4,1022.4,-0.9,65,-2,20000,0,,,0,1.3,7.4,,,,,,,,,wg-a,,,,AAXX 16064 07460 02/70 00000 10040 21020 39820 40224 56009 60006 80000 90600 333 10074 20013 60004=
07460,1997-01-16 09:00:00,4,1022.6,0.2,70,-1,40000,11.112,,,110,,,,,,,,,,,wg-a,,,,AAXX 16094 07460 12/82 01106 10040 21010 39822 40226 53002 60006 80000 90900=
07460,1997-01-16 12:00:00,9,1020.6,-1.2,57,1,40000,7.408,,,80,,,,,,,,,,,wg-a,,,,AAXX 16124 07460 12/82 10804 10090 20010 39810 40206 58012 60006 81040 91200=
07460,1997-01-16 15:00:00,10,1018.8,-1.6,50,0,40000,14.816,,,180,,,,,,,,,,,wg-a,,,,AAXX 16154 07460 12/82 01808 10100 20000 39794 40188 56016 60006 80000 91500=
07460,1997-01-16 18:00:00,7,1019.2,-0.1,61,0,40000,22.224,,,140,1.4,11.8,,,,,,,,,wg-a,,0,,AAXX 16184 07460 12/82 11412 10070 20000 39793 40192 58001 60006 81040 91800 333 10118 20014 4/000=
07460,1997-01-16 21:00:00,5,1019.3,-0.1,70,0,20000,14.816,,,150,,,,,,,,,,,wg-a,,,,AAXX 16214 07460 12/70 11508 10050 20000 39792 40193 58001 60006 81040 92100=
07460,1997-01-17 00:00:00,5,1018.3,-0.9,75,1,20000,7.408,,,140,,,,,,,,,,,wg-a,,,,AAXX 17004 07460 12/70 01404 10050 20010 39783 40183 58009 60006 80000 90000=
07460,1997-01-17 03:00:00,5,1017.1,-1.1,75,1,20000,7.408,,,200,,,,,,,,,,,wg-a,,,,AAXX 17034 07460 12/70 02004 10050 20010 39772 40171 56011 60006 80000 90300=
07460,1997-01-17 06:00:00,5,1016.7,-0.5,75,1,20000,14.816,,,140,4.2,6.7,,,,,,,,,wg-a,,0,,AAXX 17064 07460 02/70 01408 10050 20010 39767 40167 57005 60006 80000 90600 333 10067 20042 4/9999 60004=
07460,1997-01-17 09:00:00,6,1017,0.5,75,2,500,14.816,,,190,,,,,,,,,,,wg-a,,,,AAXX 17094 07460 12600 21908 10060 20020 39772 40170 52005 60006 81531 90900=
07460,1997-01-17 12:00:00,10,1016.4,0,66,4,500,18.52,,,170,,,,,,,,,,,wg-a,,,,AAXX 17124 07460 12600 31710 10100 20040 39772 40164 50000 60006 82830 91200=
07460,1997-01-17 15:00:00,8,1016.9,0.1,76,4,50000,11.112,,,200,,,,,,,,,,,wg-a,,,,AAXX 17154 07460 12784 72006 10080 20040 39773 40169 53001 60006 8253/ 91500=
07460,1997-01-17 18:00:00,6,1018.7,1.5,93,5,15000,11.112,,,210,4.5,11.2,,,,,,,,60,wg-a,,0,,AAXX 17184 07460 02665 72106 10060 20050 39788 40187 53015 61000 76061 8357/ 91800 333 10112 20045 4/9999 6000=
07460,1997-01-17 21:00:00,6,1019.9,1.1,93,5,15000,0,,,0,,,,2,,,,,,60,wg-a,,,,AAXX 17214 07460 12665 80000 10060 20050 39799 40199 52011 60027 76066 8557/ 92100=
07460,1997-01-18 00:00:00,5,1020.6,0.6,100,5,15000,3.704,,,220,,,,1,,,,,,60,wg-a,,,,AAXX 18004 07460 02665 82202 10050 20050 39805 40206 51006 60046 76066 8457/ 90000 333 60017=
07460,1997-01-18 03:00:00,4,1021.3,0.4,93,3,500,3.704,,,190,,,,,,,,,,45,wg-a,,,,AAXX 18034 07460 32/05 91902 10040 20030 39809 40213 53004 74564 89/// 90300=
07460,1997-01-18 06:00:00,4,1020.7,-0.4,100,4,100,3.704,,,120,3.4,6.4,,,,,5,,,45,wg-a,,,,AAXX 18064 07460 02/01 91202 10040 20040 39805 40207 56004 60006 74565 89/// 90600 333 10064 20034 60054=
07460,1997-01-18 09:00:00,5,1021,0.4,100,5,1000,3.704,,,90,,,,,,,,,,10,wg-a,,,,AAXX 18094 07460 12110 70902 10050 20050 39809 40210 53004 60006 71042 877// 90900=
07460,1997-01-18 12:00:00,6,1018.5,-2.3,100,6,500,7.408,,,360,,,,,,,,,,45,wg-a,,,,AAXX 18124 07460 12/05 93604 10060 20060 39786 40185 58023 60006 74542 89/// 91200=
07460,1997-01-18 15:00:00,5,1015.6,-2.9,100,5,8000,7.408,,,350,,,,,,,,,,28,wg-a,,,,AAXX 18154 07460 12658 73504 10050 20050 39757 40156 56029 60006 72842 875// 91500=
07460,1997-01-18 18:00:00,8,1014,-1.2,81,5,10000,14.816,,,180,3.6,7.7,,,,,,,,3,wg-a,,,,AAXX 18184 07460 12660 71808 10080 20050 39745 40140 56012 60006 70342 875// 91800 333 10077 20036=
07460,1997-01-18 21:00:00,8,1012.8,-1.2,81,5,15000,14.816,,,160,,,,,,,,,,,wg-a,,,,AAXX 18214 07460 12665 81608 10080 20050 39734 40128 56012 60006 8357/ 92100=
07460,1997-01-19 00:00:00,8,1011.6,-1,81,5,20000,29.632,,,180,,,,,,,,,,,wg-a,,,,AAXX 19004 07460 12770 81816 10080 20050 39723 40116 56010 60006 8257/ 90000=
07460,1997-01-19 03:00:00,7,1011.3,-0.4,87,5,11000,7.408,,,30,,,,,,,,,,,wg-a,,,,AAXX 19034 07460 12/61 /0304 10070 20050 39719 40113 56004 60006 90300=
07460,1997-01-19 06:00:00,4,1011.7,-0.1,93,3,20000,7.408,,,260,3.8,9.2,,,,,,,,,wg-a,,,,AAXX 19064 07460 02770 82604 10040 20030 39718 40117 55001 60006 8357/ 90600 333 10092 20038 60004=
07460,1997-01-19 09:00:00,7,1012.8,1.4,87,5,20000,11.112,,,210,,,,0,,,,,,21,wg-a,,,,AAXX 19094 07460 12670 72106 10070 20050 39732 40128 53014 60007 72162 8357/ 90900=
07460,1997-01-19 12:00:00,8,1012.2,-0.4,81,5,25000,18.52,,,190,,,,,,,,,,21,wg-a,,,,AAXX 19124 07460 02575 81910 10080 20050 39728 40122 58004 60016 72162 8387/ 91200 333 61000=
07460,1997-01-19 15:00:00,8,1012.2,0.1,87,6,25000,3.704,,,130,,,,,,,,,,3,wg-a,,,,AAXX 19154 07460 12675 /1302 10080 20060 39729 40122 53001 60006 70362 84802 91500=
07460,1997-01-19 18:00:00,5,1013.4,0.8,93,4,20000,0,,,0,3.9,9.5,,,,,,,,,wg-a,,,,AAXX 19184 07460 12670 /0000 10050 20040 39736 40134 51008 60006 82531 91800 333 10095 20039=
07460,1997-01-19 21:00:00,2,1014.9,0.9,100,2,8000,3.704,,,120,,,,,,,,,,,wg-a,,,,AAXX 19214 07460 12658 /1202 10020 20020 39746 40149 51009 60006 82531 92100=
07460,1997-01-20 00:00:00,2,1015.2,0.3,100,2,500,11.112,,,110,,,,,,,,,,,wg-a,,,,AAXX 20004 07460 12200 51106 10020 20020 39749 40152 51003 60006 84501 90000=
07460,1997-01-20 03:00:00,3,1014.3,-0.8,100,3,6000,3.704,,,350,,,,,,,,,,60,wg-a,,,,AAXX 20034 07460 02356 73502 10030 20030 39741 40143 56008 61000 76062 875// 90300 333 ////=
07460,1997-01-20 06:00:00,3,1014.3,0,100,3,3000,3.704,,,260,1.8,5.6,,,,,,,,10,wg-a,,,,AAXX 20064 07460 02230 72602 10030 20030 39741 40143 50000 61000 71062 875// 90600 333 10056 20018 6004=
07460,1997-01-20 09:00:00,3,1016.7,2.4,100,3,2000,3.704,,,170,,,,2,,,,,,10,wg-a,,,,AAXX 20094 07460 12220 81702 10030 20030 39765 40167 53024 60027 71066 8452/ 90900=
07460,1997-01-20 12:00:00,5,1017.4,0.9,93,4,10000,3.704,,,50,,,,,,,,,,3,wg-a,,,,AAXX 20124 07460 02260 80502 10050 20040 39774 40174 51009 60026 70362 8457/ 91200 333 61000=
07460,1997-01-20 15:00:00,5,1017.8,0.4,93,4,500,7.408,,,350,,,,0,,,,,,3,wg-a,,,,AAXX 20154 07460 12300 83504 10050 20040 39778 40178 53004 60007 70362 8557/ 91500=
07460,1997-01-20 18:00:00,5,1018.7,0.8,93,4,7000,7.408,,,320,2.6,5.2,,,,,,,,2,wg-a,,,,AAXX 20184 07460 12257 83204 10050 20040 39786 40187 53008 60006 70262 875// 91800 333 10052 20026=
07460,1997-01-20 21:00:00,4,1019.8,1,100,4,500,7.408,,,340,,,,1,,,,,,61,wg-a,,,,AAXX 20214 07460 12100 83404 10040 20040 39796 40198 51010 60017 76162 877// 92100=
07460,1997-01-21 00:00:00,4,1020.4,0.5,100,4,8000,7.408,,,320,,,,3,,,,,,61,wg-a,,,,AAXX 21004 07460 02258 83204 10040 20040 39801 40204 51005 60046 76162 887// 90000 333 60037=
07460,1997-01-21 03:00:00,4,1019.8,-0.6,93,3,500,0,,,0,,,,1,,,,,,,wg-a,,,,AAXX 21034 07460 12100 70000 10040 20030 39795 40198 56006 60017 877// 90300=
07460,1997-01-21 06:00:00,4,1019.7,-0.1,93,3,700,0,,,0,3.5,4.7,,,,,7,,,43,wg-a,,,,AAXX 21064 07460 02/07 90000 10040 20030 39794 40197 55001 60006 74364 89/// 90600 333 10047 20035 60074=
07460,1997-01-21 09:00:00,4,1019.8,0.2,100,4,3500,3.704,,,120,,,,,,,,,,10,wg-a,,,,AAXX 21094 07460 12135 71202 10040 20040 39796 40198 52002 60006 71042 8657/ 90900=
07460,1997-01-21 12:00:00,11,1017.7,-1.1,82,8,10000,11.112,,,150,,,,1,,,,,,1,wg-a,,,,AAXX 21124 07460 02660 31506 10110 20080 39785 40177 58011 60016 70164 81541 91200 333 60017=
07460,1997-01-21 15:00:00,13,1015.7,-1.6,67,7,25000,31.484,,,160,,,,,,,,,,,wg-a,,,,AAXX 21154 07460 12/75 71617 10130 20070 39769 40157 56016 60006 83032 91500=
07460,1997-01-21 18:00:00,11,1017.4,1.4,71,6,25000,14.816,,,190,3.5,14.4,,,,,,,,,wg-a,,,,AAXX 21184 07460 12/75 31908 10110 20060 39782 40174 51014 60006 81042 91800 333 10144 20035=
07460,1997-01-21 21:00:00,11,1016.5,-0.9,71,6,15000,18.52,,,210,,,,,,,,,,,wg-a,,,,AAXX 21214 07460 12/65 42110 10110 20060 39773 40165 56009 60006 82042 92100=
07460,1997-01-22 00:00:00,12,1015.6,-0.7,67,6,20000,31.484,,,190,,,,,,,,,,,wg-a,,,,AAXX 22004 07460 12/70 21917 10120 20060 39766 40156 56007 60006 81041 90000=
07460,1997-01-22 03:00:00,13,1016.3,1.1,62,6,15000,29.632,,,190,,,,,,,,,,,wg-a,,,,AAXX 22034 07460 12765 61916 10130 20060 39775 40163 53011 60006 81532 90300=
07460,1997-01-22 06:00:00,12,1017.1,0.5,71,7,15000,31.484,,,200,10.3,13.8,,,,,1,,,,wg-a,,,,AAXX 22064 07460 02765 /2017 10120 20070 39781 40171 53005 60006 81532 90600 333 10138 20103 60014=
07460,1997-01-22 09:00:00,13,1018.2,1.2,67,7,15000,31.484,,,190,,,,,,,,,,,wg-a,,,,AAXX 22094 07460 12765 71917 10130 20070 39793 40182 51012 60006 83532 90900=
07460,1997-01-22 12:00:00,15,1017.7,-0.3,63,8,20000,46.3,,62.968,190,,,,,,,,,,,wg-a,,,,AAXX 22124 07460 12770 /1925 10150 20080 39791 40177 58003 60006 81532 91200 333 91034=
07460,1997-01-22 15:00:00,15,1018.2,0.2,63,8,20000,29.632,,48.152,190,,,,,,,,,,,wg-a,,,,AAXX 22154 07460 12770 51916 10150 20080 39795 40182 53002 60006 81532 91500 333 91026=
07460,1997-01-22 18:00:00,12,1019.4,0.9,76,8,10000,18.52,,,170,11.9,15.6,,,,,,,,,wg-a,,,,AAXX 22184 07460 12760 51710 10120 20080 39804 40194 53009 60006 82532 91800 333 10156 20119=
07460,1997-01-22 21:00:00,12,1020.4,0.9,71,7,15000,22.224,,,170,,,,,,,,,,,wg-a,,,,AAXX 22214 07460 12765 71712 10120 20070 39813 40204 53009 60006 83532 92100=
07460,1997-01-23 00:00:00,12,1020.5,0.1,71,7,15000,31.484,,,180,,,,,,,,,,,wg-a,,,,AAXX 23004 07460 12765 81817 10120 20070 39814 40205 50001 60006 8557/ 90000=
07460,1997-01-23 03:00:00,12,1019.8,-0.7,62,5,15000,14.816,,,150,,,,,,,,,,,wg-a,,,,AAXX 23034 07460 12765 81508 10120 20050 39807 40198 56007 60006 8557/ 90300=
07460,1997-01-23 06:00:00,10,1020.6,0.5,71,5,500,3.704,,,130,9.2,13.2,,,,,,,,,wg-a,,,,AAXX 23064 07460 02700 71302 10100 20050 39812 40206 53005 60006 8457/ 90600 333 10132 20092 60004=
07460,1997-01-23 09:00:00,10,1021.5,0.9,71,5,500,7.408,,,10,,,,,,,,,,,wg-a,,,,AAXX 23094 07460 12700 70104 10100 20050 39821 40215 51009 60006 8153/ 90900=
07460,1997-01-23 12:00:00,14,1020.6,-0.4,63,7,40000,25.928,,,170,,,,,,,,,,,wg-a,,,,AAXX 23124 07460 12782 71714 10140 20070 39817 40206 58004 60006 81572 91200=
07460,1997-01-23 18:00:00,11,1021.8,1.1,66,5,20000,18.52,,,160,8.5,14.2,,,,,,,,2,wg-a,,,,AAXX 23184 07460 12770 71610 10110 20050 39825 40218 51011 60006 70262 81571 91800 333 10142 20085=
07460,1997-01-23 21:00:00,11,1022.8,0.9,66,5,25000,18.52,,,180,,,,,,,,,,,wg-a,,,,AAXX 23214 07460 12/75 71810 10110 20050 39834 40228 53009 60006 85072 92100=
07460,1997-01-24 00:00:00,9,1023.6,0.5,76,5,25000,3.704,,,110,,,,,,,,,,,wg-a,,,,AAXX 24004 07460 12/75 71102 10090 20050 39839 40236 50005 60006 82048 90000=
07460,1997-01-24 03:00:00,9,1023.7,0.2,76,5,20000,7.408,,,150,,,,,,,,,,,wg-a,,,,AAXX 24034 07460 12/70 71504 10090 20050 39841 40237 50002 60006 80008 90300=
07460,1997-01-24 06:00:00,8,1024.4,0.5,81,5,500,0,,,0,7.9,11.3,,,,,,,,,wg-a,,,,AAXX 24064 07460 02/00 70000 10080 20050 39846 40244 53005 60006 80008 90600 333 10113 20079 61000=
07460,1997-01-24 09:00:00,10,1025.6,1.4,76,6,20000,14.816,,,130,,,,,,,,,,,wg-a,,,,AAXX 24094 07460 12770 71308 10100 20060 39860 40256 52014 60006 84548 90900=
07460,1997-01-24 12:00:00,12,1025.8,0.5,71,7,25000,0,,,0,,,,,,,,,,,wg-a,,,,AAXX 24124 07460 12775 70000 10120 20070 39865 40258 50005 60006 82548 91200=
07460,1997-01-24 15:00:00,13,1025.6,-0.1,67,7,15000,7.408,,,240,,,,,,,,,,,wg-a,,,,AAXX 24154 07460 12565 82404 10130 20070 39864 40256 55001 60006 8457/ 91500=
07460,1997-01-24 18:00:00,11,1027,1,82,8,12000,0,,,0,6.5,13.7,,,,,,,,60,wg-a,,,,AAXX 24184 07460 02562 80000 10110 20080 39874 40270 52010 61000 76062 8657/ 91800 333 10137 20065 ////=
07460,1997-01-25 00:00:00,5,1029.2,0.4,93,4,20000,0,,,0,,,,,,,,,,2,wg-a,,,,AAXX 25004 07460 02/70 10000 10050 20040 39887 40292 51004 61000 70261 81030 90000 333 ////=
07460,1997-01-25 03:00:00,3,1029.1,-0.3,100,3,20000,0,,,0,,,,,,,,,,,wg-a,,,,AAXX 25034 07460 12770 /0000 10030 20030 39884 40291 58003 60006 82530 90300=
07460,1997-01-25 06:00:00,5,1028.7,-0.3,93,4,20000,3.704,,,300,2.5,10.7,,,,,,,,,wg-a,,,,AAXX 25064 07460 02770 73002 10050 20040 39882 40287 55003 60006 875// 90600 333 10107 20025 61000=
07460,1997-01-25 09:00:00,6,1029.4,0.9,93,5,25000,7.408,,,120,,,,,,,,,,,wg-a,,,,AAXX 25094 07460 12775 71204 10060 20050 39890 40294 51009 60006 8353/ 90900=
07460,1997-01-25 12:00:00,11,1027.5,-1.1,76,7,15000,3.704,,,260,,,,,,,,,,,wg-a,,,,AAXX 25124 07460 12/65 52602 10110 20070 39879 40275 58011 60006 80002 91200=
07460,1997-01-25 15:00:00,12,1026.3,-0.9,71,7,20000,7.408,,,20,,,,,,,,,,,wg-a,,,,AAXX 25154 07460 12570 40204 10120 20070 39870 40263 56009 60006 81102 91500=
07460,1997-01-25 18:00:00,8,1027,0.1,87,6,15000,3.704,,,350,4.4,13.8,,,,,,,,,wg-a,,,,AAXX 25184 07460 12/65 43502 10080 20060 39871 40270 53001 60006 80002 91800 333 10138 20044=
07460,1997-01-25 21:00:00,3,1028,0.2,93,2,12000,3.704,,,270,,,,,,,,,,,wg-a,,,,AAXX 25214 07460 12/62 42702 10030 20020 39873 40280 51002 60006 80002 92100=
07460,1997-01-26 00:00:00,3,1028.2,0.2,93,2,8000,0,,,0,,,,,,,,,,,wg-a,,,,AAXX 26004 07460 12458 /0000 10030 20020 39875 40282 51002 60006 86502 90000=
07460,1997-01-26 03:00:00,3,1027.6,-0.6,100,3,400,0,,,0,,,,,,,,,,45,wg-a,,,,AAXX 26034 07460 12/04 90000 10030 20030 39869 40276 58006 60006 74542 89/// 90300=
07460,1997-01-26 06:00:00,3,1026.9,-0.6,100,3,600,3.704,,,50,1.4,8.1,,,,,,,,43,wg-a,,,,AAXX 26064 07460 02/06 90502 10030 20030 39863 40269 57006 60006 74342 89/// 90600 333 10081 20014 60004=
07460,1997-01-26 09:00:00,3,1027.7,0.8,100,3,800,7.408,,,20,,,,,,,,,,43,wg-a,,,,AAXX 26094 07460 12/08 90204 10030 20030 39871 40277 53008 60006 74344 89/// 90900=
07460,1997-01-26 12:00:00,4,1027.2,-0.4,100,4,4000,3.704,,,70,,,,,,,,,,10,wg-a,,,,AAXX 26124 07460 12140 70702 10040 20040 39867 40272 58004 60006 71042 876// 91200=
07460,1997-01-26 15:00:00,6,1026.1,-0.8,93,5,7000,3.704,,,30,,,,,,,,,,,wg-a,,,,AAXX 26154 07460 12357 70302 10060 20050 39859 40261 56008 60006 876// 91500=
07460,1997-01-26 18:00:00,6,1026.7,0.5,87,4,7000,3.704,,,340,3.2,6.1,,,,,,,,,wg-a,,,,AAXX 26184 07460 12257 73402 10060 20040 39864 40267 53005 60006 876// 91800 333 10061 20032=
07460,1997-01-26 21:00:00,4,1027.8,0.9,100,4,500,11.112,,,20,,,,,,,,,,,wg-a,,,,AAXX 26214 07460 12100 80206 10040 20040 39873 40278 52009 60006 876// 92100=
07460,1997-01-27 00:00:00,3,1027.8,-0.1,100,3,1500,7.408,,,30,,,,,,,,,,50,wg-a,,,,AAXX 27004 07460 02115 80304 10030 20030 39872 40278 58001 61000 75052 876// 90000 333 6100=
07460,1997-01-27 03:00:00,3,1027.9,0,100,3,1400,7.408,,,360,,,,0,,,,,,10,wg-a,,,,AAXX 27034 07460 12114 83604 10030 20030 39872 40279 50000 60007 71052 876// 90300=
07460,1997-01-27 06:00:00,3,1028.4,0.5,100,3,1400,7.408,,,10,2.8,5.6,,,,,,,,10,wg-a,,,,AAXX 27064 07460 02114 80104 10030 20030 39877 40284 53005 60006 71052 886// 90600 333 10056 20028 60004=
07460,1997-01-27 09:00:00,3,1030.1,1.6,100,3,1500,7.408,,,350,,,,,,,,,,10,wg-a,,,,AAXX 27094 07460 12115 83504 10030 20030 39893 40301 53016 60006 71022 886// 90900=
07460,1997-01-27 12:00:00,4,1030.5,0.5,93,3,6000,7.408,,,350,,,,,,,,,,,wg-a,,,,AAXX 27124 07460 12256 83504 10040 20030 39898 40305 50005 60006 886// 91200=
07460,1997-01-27 15:00:00,4,1030.8,0.4,93,3,7000,11.112,,,10,,,,,,,,,,,wg-a,,,,AAXX 27154 07460 12457 80106 10040 20030 39901 40308 53004 60006 886// 91500=
07460,1997-01-27 18:00:00,4,1032.3,1.3,81,1,10000,11.112,,,350,2.8,4.1,,,,,,,,,wg-a,,,,AAXX 27184 07460 12560 83506 10040 20010 39915 40323 53013 60006 885// 91800 333 10041 20028=
07460,1997-01-27 21:00:00,3,1033.5,1,87,1,13000,7.408,,,340,,,,,,,,,,,wg-a,,,,AAXX 27214 07460 12563 83404 10030 20010 39926 40335 53010 60006 885// 92100=
07460,1997-01-28 00:00:00,2,1033.8,0.1,93,1,12000,14.816,,,20,,,,,,,,,,,wg-a,,,,AAXX 28004 07460 12562 70208 10020 20010 39927 40338 53001 60006 875// 90000=
07460,1997-01-28 03:00:00,0,1033.6,-0.5,86,-2,12000,22.224,,,20,,,,,,,,,,,wg-a,,,,AAXX 28034 07460 12562 70212 10000 21020 39922 40336 58005 60006 875// 90300=
07460,1997-01-28 06:00:00,-1,1034.4,0.6,80,-4,8000,14.816,,,10,-1.4,3.6,,,,,,,,,wg-a,,,,AAXX 28064 07460 02458 80108 11010 21040 39928 40344 50006 60006 885// 90600 333 10036 21014 60004=
07460,1997-01-28 09:00:00,-1,1034.1,-0.3,86,-3,4000,11.112,,,20,,,,,,,,,,77,wg-a,,,,AAXX 28094 07460 02440 80206 11010 21030 39925 40341 56003 61000 77772 875// 90900 333 ////=
07460,1997-01-28 12:00:00,0,1034.1,0.2,80,-3,9000,7.408,,,90,,,,0,,,,,,1,wg-a,,,,AAXX 28124 07460 02459 50904 10000 21030 39927 40341 50002 60006 70172 85500 91200 333 60007=
07460,1997-01-28 15:00:00,1,1034.4,0.4,69,-4,12000,11.112,,,30,,,,,,,,,,,wg-a,,,,AAXX 28154 07460 12562 70306 10010 21040 39931 40344 53004 60006 878// 91500=
07460,1997-01-28 18:00:00,0,1035.9,1.3,86,-2,8000,7.408,,,300,-1.4,2,,,,,,,,,wg-a,,,,AAXX 28184 07460 12558 73004 10000 21020 39944 40359 53013 60006 875// 91800 333 10020 21014=
07460,1997-01-28 21:00:00,-1,1036.9,0.9,93,-2,8000,3.704,,,170,,,,,,,,,,,wg-a,,,,AAXX 28214 07460 12558 /1702 11010 21020 39953 40369 51009 60006 86800 92100=
07460,1997-01-29 00:00:00,-2,1037.2,0.1,93,-3,8000,7.408,,,120,,,,,,,,,,,wg-a,,,,AAXX 29004 07460 12658 21204 11020 21030 39954 40372 53001 60006 82500 90000=
07460,1997-01-29 03:00:00,-3,1037.5,-0,93,-4,8000,3.704,,,300,,,,,,,,,,,wg-a,,,,AAXX 29034 07460 12658 33002 11030 21040 39954 40375 55000 60006 83500 90300=
07460,1997-01-29 06:00:00,-4,1037,-0.5,100,-4,7000,7.408,,,20,-4.2,0.2,,,,,,,,,wg-a,,,,AAXX 29064 07460 02657 20204 11040 21040 39949 40370 55005 60006 82500 90600 333 10002 21042 60004=
07460,1997-01-29 09:00:00,-2,1037.8,1.1,100,-2,3000,3.704,,,40,,,,,,,,,,10,wg-a,,,,AAXX 29094 07460 12/30 00402 11020 21020 39960 40378 51011 60006 71000 80000 90900=
07460,1997-01-29 12:00:00,3,1035.7,-1.4,81,0,4500,11.112,,,30,,,,,,,,,,10,wg-a,,,,AAXX 29124 07460 12/45 00306 10030 20000 39946 40357 58014 60006 71000 80000 91200=
07460,1997-01-29 15:00:00,5,1034,-1.3,75,1,500,7.408,,,20,,,,,,,,,,,wg-a,,,,AAXX 29154 07460 12/00 00204 10050 20010 39933 40340 56013 60006 80000 91500=
07460,1997-01-29 18:00:00,2,1035.1,0.6,87,0,500,11.112,,,10,-4.2,5.1,,,,,,,,,wg-a,,,,AAXX 29184 07460 12/00 00106 10020 20000 39939 40351 53006 60006 80000 91800 333 10051 21042=
07460,1997-01-29 21:00:00,0,1036.2,0.8,100,0,400,7.408,,,60,,,,,,,,,,45,wg-a,,,,AAXX 29214 07460 12/04 90604 10000 20000 39947 40362 50008 60006 74541 89/// 92100=
07460,1997-01-30 00:00:00,0,1035.8,-0.4,100,0,300,7.408,,,200,,,,,,,,,,45,wg-a,,,,AAXX 30004 07460 12/03 92004 10000 20000 39943 40358 56004 60006 74541 89/// 90000=
07460,1997-01-30 03:00:00,-1,1034.8,-1.1,100,-1,1200,3.704,,,230,,,,,,,,,,10,wg-a,,,,AAXX 30034 07460 12012 82302 11010 21010 39932 40348 56011 60006 71044 886// 90300=
07460,1997-01-30 06:00:00,-1,1034.8,-0,100,-1,2500,7.408,,,150,-1,1.9,,,,,,,,10,wg-a,,,,AAXX 30064 07460 02125 81504 11010 21010 39932 40348 55000 60006 71042 886// 90600 333 10019 21010 60004=
07460,1997-01-30 09:00:00,-2,1035.7,0.8,100,-2,600,3.704,,,270,,,,,,,,,,45,wg-a,,,,AAXX 30094 07460 12/06 92702 11020 21020 39940 40357 53008 60006 74542 89/// 90900=
07460,1997-01-30 12:00:00,1,1034.7,-0.7,93,0,2500,3.704,,,350,,,,,,,,,,10,wg-a,,,,AAXX 30124 07460 12225 73502 10010 20000 39933 40347 58007 60006 71042 876// 91200=
07460,1997-01-30 15:00:00,2,1033.1,-1.2,93,1,3000,7.408,,,30,,,,,,,,,,10,wg-a,,,,AAXX 30154 07460 12230 40304 10020 20010 39921 40331 56012 60006 71011 84600 91500=
07460,1997-01-30 18:00:00,1,1033.7,0.3,93,0,1600,3.704,,,20,-1.5,2.8,,,,,,,,10,wg-a,,,,AAXX 30184 07460 12116 80202 10010 20000 39924 40337 51003 60006 71011 886// 91800 333 10028 21015=
07460,1997-01-31 00:00:00,-1,1033.5,-0.3,100,-1,1000,0,,,0,,,,,,,,,,10,wg-a,,,,AAXX 31004 07460 12110 80000 11010 21010 39920 40335 58003 60006 71042 886// 90000=
07460,1997-01-31 03:00:00,-2,1033,-0.6,100,-2,1400,3.704,,,240,,,,,,,,,,10,wg-a,,,,AAXX 31034 07460 12114 82402 11020 21020 39914 40330 56006 60006 71022 886// 90300=
07460,1997-01-31 12:00:00,0,1031.5,-1.3,93,-1,3200,3.704,,,240,,,,,,,,,,10,wg-a,,,,AAXX 31124 07460 12232 72402 10000 21010 39902 40315 58013 60006 71022 876// 91200=
07460,1997-01-31 15:00:00,1,1030.4,-0.9,86,-1,4000,7.408,,,20,,,,,,,,,,10,wg-a,,,,AAXX 31154 07460 12240 80204 10010 21010 39892 40304 56009 60006 71022 886// 91500=
07460,1997-01-31 18:00:00,-1,1031.2,0.6,100,-1,3500,3.704,,,300,-2.3,1.1,,,,,,,,10,wg-a,,,,AAXX 31184 07460 12135 83002 11010 21010 39898 40312 52006 60006 71022 886// 91800 333 10011 21023=
07460,1997-01-31 21:00:00,-1,1031.6,0.3,93,-2,1200,3.704,,,50,,,,,,,,,,10,wg-a,,,,AAXX 31214 07460 12112 80502 11010 21020 39901 40316 51003 60006 71022 886// 92100=
07460,1997-02-01 00:00:00,-2,1031.2,-0.4,100,-2,3000,7.408,,,170,,,,,,,,,,10,wg-a,,,,AAXX 01004 07460 12130 81704 11020 21020 39897 40312 56004 60006 71022 886// 90000=
07460,1997-02-01 03:00:00,-2,1030.9,-0.4,93,-3,3500,7.408,,,250,,,,,,,,,,10,wg-a,,,,AAXX 01034 07460 12135 82504 11020 21030 39893 40309 58004 60006 71022 886// 90300=
07460,1997-02-01 06:00:00,-3,1031.1,0.2,100,-3,1500,3.704,,,210,-2.8,-0.6,,,,,,,,10,wg-a,,,,AAXX 01064 07460 02115 82102 11030 21030 39894 40311 52002 60006 71022 886// 90600 333 11006 21028 60004=
07460,1997-02-01 09:00:00,-3,1031.2,0.2,100,-3,2500,7.408,,,220,,,,,,,,,,10,wg-a,,,,AAXX 01094 07460 12125 /2204 11030 21030 39895 40312 50002 60006 71022 86600 90900=
07460,1997-02-01 12:00:00,4,1028.9,-1.2,70,-1,10000,3.704,,,310,,,,,,,,,,,wg-a,,,,AAXX 01124 07460 12/60 13102 10040 21010 39883 40289 58012 60006 80001 91200=
07460,1997-02-01 15:00:00,6,1027.5,-1,70,1,8000,3.704,,,40,,,,,,,,,,,wg-a,,,,AAXX 01154 07460 12/58 /0402 10060 20010 39873 40275 56010 60006 81031 91500=
07460,1997-02-01 18:00:00,3,1028.6,0.6,87,1,15000,3.704,,,50,-3.4,6.4,,,,,,,,,wg-a,,,,AAXX 01184 07460 12/65 20502 10030 20010 39879 40286 53006 60006 82031 91800 333 10064 21034=
07460,1997-02-01 21:00:00,0,1029.8,0.6,93,-1,7000,0,,,0,,,,,,,,,,,wg-a,,,,AAXX 01214 07460 12/57 /0000 10000 21010 39885 40298 51006 60006 80001 92100=
07460,1997-02-02 06:00:00,-5,1028.3,-0.2,100,-5,200,3.704,,,200,-4.9,2.9,,,,,,,,48,wg-a,,,,AAXX 02064 07460 02/02 /2002 11050 21050 39864 40283 56002 60006 74840 80001 90600 333 10029 21049 60004=
07460,1997-02-02 09:00:00,-1,1028.1,0.4,100,-1,500,3.704,,,10,,,,,,,,,,3,wg-a,,,,AAXX 02094 07460 12600 50102 11010 21010 39868 40281 53004 60006 70341 85501 90900=
07460,1997-02-02 12:00:00,4,1026.6,-0.7,87,2,6000,3.704,,,30,,,,,,,,,,2,wg-a,,,,AAXX 02124 07460 12556 70302 10040 20020 39861 40266 58007 60006 70241 8553/ 91200=
07460,1997-02-02 15:00:00,7,1025.4,-0.8,76,3,6000,7.408,,,350,,,,,,,,,,,wg-a,,,,AAXX 02154 07460 12556 73504 10070 20030 39853 40254 56008 60006 8583/ 91500=
07460,1997-02-02 18:00:00,7,1026.2,0.7,81,4,6000,7.408,,,350,-4.8,8.1,,,,,,,,,wg-a,,,,AAXX 02184 07460 12456 73504 10070 20040 39861 40262 53007 60006 8553/ 91800 333 10081 21048=
07460,1997-02-02 21:00:00,5,1027.4,0.8,87,3,6000,7.408,,,10,,,,,,,,,,,wg-a,,,,AAXX 02214 07460 12456 70104 10050 20030 39869 40274 52008 60006 8653/ 92100=
07460,1997-02-03 00:00:00,3,1027.7,0.1,87,1,6000,11.112,,,350,,,,,,,,,,,wg-a,,,,AAXX 03004 07460 12456 73506 10030 20010 39870 40277 52001 60006 8553/ 90000=
07460,1997-02-03 03:00:00,1,1027.6,-0.3,100,1,4500,7.408,,,30,,,,,,,,,,21,wg-a,,,,AAXX 03034 07460 02345 70304 10010 20010 39867 40276 56003 61000 72122 8563/ 90300 333 ////=
07460,1997-02-03 06:00:00,1,1028.5,0.7,93,0,3500,7.408,,,20,0.6,6.6,,,,,,,,10,wg-a,,,,AAXX 03064 07460 02135 70204 10010 20000 39874 40285 53007 61000 71076 8653/ 90600 333 10066 20006 6100=
07460,1997-02-03 09:00:00,1,1030.1,1.5,93,0,2500,7.408,,,20,,,,0,,,,,,10,wg-a,,,,AAXX 03094 07460 12225 80204 10010 20000 39890 40301 51015 60007 71072 885// 90900=
07460,1997-02-03 12:00:00,3,1030,0,87,1,6000,7.408,,,20,,,,,,,,,,1,wg-a,,,,AAXX 03124 07460 12356 80204 10030 20010 39891 40300 50000 60016 70172 885// 91200=
07460,1997-02-03 15:00:00,3,1029,-0.8,87,1,8000,7.408,,,80,,,,,,,,,,,wg-a,,,,AAXX 03154 07460 12458 70804 10030 20010 39883 40290 56008 60006 875// 91500=
07460,1997-02-03 18:00:00,2,1030.2,0.9,93,1,7000,3.704,,,30,0.3,3.5,,,,,,,,,wg-a,,,,AAXX 03184 07460 12357 80302 10020 20010 39893 40302 53009 60006 885// 91800 333 10035 20003=
07460,1997-02-03 21:00:00,2,1030.5,0.3,87,0,8000,3.704,,,100,,,,,,,,,,,wg-a,,,,AAXX 03214 07460 12458 81002 10020 20000 39896 40305 51003 60006 885// 92100=
07460,1997-02-04 00:00:00,-1,1029.2,-0.5,93,-2,15000,7.408,,,180,-1.5,2.3,,,,,,,,,wg-a,,,,AAXX 04004 07460 02465 /1804 11010 21020 39879 40292 56005 60006 81500 90000 333 10023 21015 60004=
07460,1997-02-04 03:00:00,1,1029.5,-0.9,86,-1,8000,3.704,,,240,,,,,,,,,,,wg-a,,,,AAXX 04034 07460 12458 72402 10010 21010 39884 40295 57009 60006 875// 90300=
07460,1997-02-04 06:00:00,-1,1029.2,-0.5,93,-2,15000,7.408,,,180,-1.5,2.3,,,,,1,,,,wg-a,,,,AAXX 04064 07460 02465 /1804 11010 21020 39879 40292 56005 60006 81500 90600 333 10023 21015 60014=
07460,1997-02-04 09:00:00,2,1028.4,-0.4,87,0,15000,7.408,,,160,,,,,,,,,,,wg-a,,,,AAXX 04094 07460 12765 /1604 10020 20000 39875 40284 58004 60006 81101 90900=
07460,1997-02-04 12:00:00,8,1026.5,-0.9,61,1,25000,11.112,,,190,,,,,,,,,,,wg-a,,,,AAXX 04124 07460 12775 71906 10080 20010 39866 40265 58009 60006 81102 91200=
07460,1997-02-04 15:00:00,10,1023.7,-2.5,57,2,500,7.408,,,220,,,,,,,,,,,wg-a,,,,AAXX 04154 07460 12700 72204 10100 20020 39841 40237 56025 60006 81131 91500=
07460,1997-02-04 18:00:00,5,1024.4,0.1,75,1,40000,3.704,,,150,-1.5,10.6,,,,,,,,,wg-a,,,,AAXX 04184 07460 12/82 71502 10050 20010 39842 40244 53001 60006 80001 91800 333 10106 21015=
07460,1997-02-04 21:00:00,1,1024.9,-0.2,86,-1,500,3.704,,,70,,,,,,,,,,,wg-a,,,,AAXX 04214 07460 12/00 70702 10010 21010 39840 40249 55002 60006 80001 92100=
07460,1997-02-05 00:00:00,2,1024.5,-0.3,87,0,25000,3.704,,,350,,,,,,,,,,,wg-a,,,,AAXX 05004 07460 12/75 73502 10020 20000 39837 40245 55003 60006 84032 90000=
07460,1997-02-05 03:00:00,2,1024.6,0.1,87,0,20000,3.704,,,120,,,,,,,,,,,wg-a,,,,AAXX 05034 07460 12/70 81202 10020 20000 39838 40246 53001 60006 8707/ 90300=
07460,1997-02-05 06:00:00,6,1022.5,-1.4,75,2,25000,22.224,,,170,0,5.8,,,,,,,,,wg-a,,,,AAXX 05064 07460 02575 81712 10060 20020 39824 40225 58014 60006 8357/ 90600 333 10058 20000 60004=
07460,1997-02-05 09:00:00,12,1021.2,-0.4,62,5,14000,29.632,,,240,,,,,,,,,,,wg-a,,,,AAXX 05094 07460 12464 72416 10120 20050 39820 40212 55004 60006 83872 90900=
07460,1997-02-05 12:00:00,11,1022,0.5,62,4,12000,25.928,,46.3,240,,,,,,,,,,3,wg-a,,,,AAXX 05124 07460 02662 62414 10110 20040 39826 40220 50005 61000 70386 84872 91200 333 6100 91025=
07460,1997-02-05 15:00:00,10,1024,1.8,71,5,14000,18.52,,,330,,,,0,,,,,,25,wg-a,,,,AAXX 05154 07460 12564 33310 10100 20050 39844 40240 53018 60007 72586 83230 91500=
07460,1997-02-05 18:00:00,6,1027.9,3.1,70,1,15000,11.112,,,310,5.6,12.6,,,,,,,,1,wg-a,,,,AAXX 05184 07460 12565 23106 10060 20010 39876 40279 51031 60006 70186 82200 91800 333 10126 20056=
07460,1997-02-05 21:00:00,7,1031,3.2,70,2,15000,14.816,,,330,,,,,,,,,,,wg-a,,,,AAXX 05214 07460 12665 23308 10070 20020 39907 40310 52032 60006 82100 92100=
07460,1997-02-06 00:00:00,4,1033.4,1.9,87,2,14000,3.704,,,40,,,,,,,,,,,wg-a,,,,AAXX 06004 07460 12564 60402 10040 20020 39927 40334 51019 60006 86800 90000=
07460,1997-02-06 03:00:00,2,1034.4,0.5,87,0,10000,3.704,,,310,,,,,,,,,,,wg-a,,,,AAXX 06034 07460 12560 23102 10020 20000 39932 40344 51005 60006 82100 90300=
07460,1997-02-06 06:00:00,-2,1034.7,-0.2,100,-2,3500,3.704,,,350,-2,7.1,,,,,,,,10,wg-a,,,,AAXX 06064 07460 02135 23502 11020 21020 39930 40347 55002 60006 71011 82600 90600 333 10071 21020 60004=
07460,1997-02-06 09:00:00,0,1035.3,0.9,93,-1,15000,3.704,,,20,,,,,,,,,,1,wg-a,,,,AAXX 06094 07460 12/65 20202 10000 21010 39939 40353 53009 60006 70140 80001 90900=
07460,1997-02-06 12:00:00,8,1033.8,-0.3,61,1,12000,14.816,,,160,,,,,,,,,,2,wg-a,,,,AAXX 06124 07460 12/62 11608 10080 20010 39936 40338 58003 60006 70240 80001 91200=
07460,1997-02-06 15:00:00,12,1031,-2.2,40,-1,20000,3.704,,,80,,,,,,,,,,,wg-a,,,,AAXX 06154 07460 12/70 10802 10120 21010 39914 40310 56022 60006 80001 91500=
07460,1997-02-06 18:00:00,4,1031.7,-0.4,60,-3,15000,3.704,,,270,-2.8,12,,,,,,,,,wg-a,,,,AAXX 06184 07460 12/65 12702 10040 21030 39910 40317 55004 60006 80001 91800 333 10120 21028=
07460,1997-02-06 21:00:00,0,1031.9,-0.4,80,-3,15000,7.408,,,200,,,,,,,,,,,wg-a,,,,AAXX 06214 07460 12/65 12004 10000 21030 39906 40319 58004 60006 80001 92100=
07460,1997-02-07 00:00:00,2,1031.5,-0.2,64,-4,15000,22.224,,,180,,,,,,,,,,,wg-a,,,,AAXX 07004 07460 12/65 11812 10020 21040 39904 40315 57002 60006 80001 90000=
07460,1997-02-07 03:00:00,2,1030.8,-0.7,60,-5,15000,18.52,,,190,,,,,,,,,,,wg-a,,,,AAXX 07034 07460 12/65 11910 10020 21050 39897 40308 58007 60006 80001 90300=
07460,1997-02-07 06:00:00,-2,1032.1,0.8,74,-6,20000,7.408,,,350,-2.9,4.2,,,,,,,,,wg-a,,,,AAXX 07064 07460 02/70 13504 11020 21060 39905 40321 52008 60006 80001 90600 333 10042 21029 60004=
07460,1997-02-07 09:00:00,6,1032,0.9,42,-6,40000,7.408,,,70,,,,,,,,,,,wg-a,,,,AAXX 07094 07460 12/82 00704 10060 21060 39915 40320 51009 60006 80000 90900=
07460,1997-02-07 12:00:00,14,1030.4,-0.3,31,-3,50000,14.816,,,210,,,,,,,,,,,wg-a,,,,AAXX 07124 07460 12/84 12108 10140 21030 39911 40304 58003 60006 81049 91200=
07460,1997-02-07 15:00:00,18,1028.9,-1,19,-6,50000,7.408,,,30,,,,,,,,,,,wg-a,,,,AAXX 07154 07460 12/84 10304 10180 21060 39901 40289 56010 60006 81049 91500=
07460,1997-02-07 18:00:00,10,1030.9,0.9,43,-2,35000,3.704,,,110,-3.3,18,,,,,,,,,wg-a,,,,AAXX 07184 07460 12/81 11102 10100 21020 39910 40309 53009 60006 81040 91800 333 10180 21033=
07460,1997-02-07 21:00:00,4,1033.7,1.8,60,-3,15000,3.704,,,80,,,,,,,,,,,wg-a,,,,AAXX 07214 07460 12/65 30802 10040 21030 39929 40337 51018 60006 81041 92100=
07460,1997-02-08 00:00:00,1,1035,0.6,75,-3,15000,3.704,,,220,,,,,,,,,,,wg-a,,,,AAXX 08004 07460 12/65 12202 10010 21030 39936 40350 51006 60006 81041 90000=
07460,1997-02-08 03:00:00,1,1034.7,-0.2,64,-5,15000,7.408,,,360,,,,,,,,,,,wg-a,,,,AAXX 08034 07460 12/65 13604 10010 21050 39934 40347 58002 60006 81040 90300=
07460,1997-02-08 06:00:00,0,1034.8,-0,64,-6,15000,7.408,,,360,-0.5,9,,,,,,,,,wg-a,,,,AAXX 08064 07460 02/65 13604 10000 21060 39934 40348 54000 60006 81040 90600 333 10090 21005 60004=
07460,1997-02-08 09:00:00,4,1034.8,0.5,56,-4,40000,3.704,,,230,,,,,,,,,,,wg-a,,,,AAXX 08094 07460 12/82 12302 10040 21040 39939 40348 53005 60006 80001 90900=
07460,1997-02-08 12:00:00,12,1032.5,-1.1,32,-4,40000,3.704,,,70,,,,,,,,,,,wg-a,,,,AAXX 08124 07460 12/82 10702 10120 21040 39928 40325 58011 60006 80001 91200=
07460,1997-02-08 15:00:00,14,1030.7,-1.5,31,-3,40000,7.408,,,10,,,,,,,,,,,wg-a,,,,AAXX 08154 07460 12/82 20104 10140 21030 39913 40307 56015 60006 80001 91500=
07460,1997-02-08 18:00:00,6,1032.4,0.6,52,-3,25000,3.704,,,250,-0.9,14.4,,,,,,,,,wg-a,,,,AAXX 08184 07460 12/75 12502 10060 21030 39919 40324 53006 60006 80001 91800 333 10144 21009=
07460,1997-02-08 21:00:00,2,1033.3,0.3,64,-4,20000,3.704,,,260,,,,,,,,,,,wg-a,,,,AAXX 08214 07460 12/70 02602 10020 21040 39922 40333 53003 60006 80000 92100=
07460,1997-02-09 00:00:00,1,1033.7,0.2,69,-4,20000,3.704,,,350,,,,,,,,,,,wg-a,,,,AAXX 09004 07460 12/70 03502 10010 21040 39924 40337 53002 60006 80000 90000=
07460,1997-02-09 03:00:00,1,1032.7,-1.1,64,-5,20000,7.408,,,20,,,,,,,,,,,wg-a,,,,AAXX 09034 07460 12/70 00204 10010 21050 39914 40327 58011 60006 80000 90300=
07460,1997-02-09 06:00:00,-1,1032.9,-0,74,-5,500,3.704,,,330,-2,6.1,,,,,,,,,wg-a,,,,AAXX 09064 07460 02/00 03302 11010 21050 39914 40329 55000 60006 80000 90600 333 10061 21020 60004=
07460,1997-02-09 09:00:00,3,1033,0.6,60,-4,500,7.408,,,10,,,,,,,,,,,wg-a,,,,AAXX 09094 07460 12/00 10104 10030 21040 39920 40330 51006 60006 80001 90900=
07460,1997-02-09 12:00:00,13,1030.6,-0.9,33,-3,500,0,,,0,,,,,,,,,,,wg-a,,,,AAXX 09124 07460 12/00 10000 10130 21030 39911 40306 58009 60006 80001 91200=
07460,1997-02-09 15:00:00,14,1028.9,-1.4,33,-2,500,3.704,,,30,,,,,,,,,,,wg-a,,,,AAXX 09154 07460 12/00 10302 10140 21020 39897 40289 56014 60006 80001 91500=
07460,1997-02-09 18:00:00,7,1030.7,0.7,53,-2,500,7.408,,,240,-1.4,14.4,,,,,,,,,wg-a,,,,AAXX 09184 07460 12/00 12404 10070 21020 39904 40307 53007 60006 80001 91800 333 10144 21014=
07460,1997-02-09 21:00:00,3,1031.4,0.1,70,-2,20000,3.704,,,240,,,,,,,,,,,wg-a,,,,AAXX 09214 07460 12/70 12402 10030 21020 39905 40314 51001 60006 80001 92100=
07460,1997-02-10 00:00:00,6,1030.7,-0.3,56,-2,20000,7.408,,,100,,,,,,,,,,,wg-a,,,,AAXX 10004 07460 12/70 11004 10060 21020 39902 40307 57003 60006 80001 90000=
07460,1997-02-10 03:00:00,5,1029.5,-1.2,60,-2,20000,29.632,,,190,,,,,,,,,,,wg-a,,,,AAXX 10034 07460 12/70 11916 10050 21020 39889 40295 58012 60006 80001 90300=
07460,1997-02-10 06:00:00,4,1028.3,-1.2,65,-2,25000,18.52,,,200,1.9,7.1,,,,,,,,,wg-a,,,,AAXX 10064 07460 02/75 12010 10040 21020 39877 40283 56012 60006 80001 90600 333 10071 20019 60004=
07460,1997-02-10 09:00:00,4,1028.3,-1.2,65,-2,25000,18.52,,,200,1.9,7.1,,,,,,,,,wg-a,,,,AAXX 10094 07460 02/75 12010 10040 21020 39877 40283 56012 60006 8001/ 90900 333 10071 20019 60004=
07460,1997-02-10 12:00:00,14,1024.7,-1.5,41,1,500,22.224,,,180,,,,,,,,,,,wg-a,,,,AAXX 10124 07460 12/00 41812 10140 20010 39857 40247 58015 60006 80001 91200=
07460,1997-02-10 15:00:00,18,1022.4,-1.8,18,-7,500,18.52,,,260,,,,,,,,,,,wg-a,,,,AAXX 10154 07460 12/00 52610 10180 21070 39839 40224 56018 60006 82041 91500=
07460,1997-02-10 18:00:00,14,1024,0.9,24,-6,20000,14.816,,,210,4.1,19,,,,,,,,,wg-a,,,,AAXX 10184 07460 12/70 72108 10140 21060 39849 40240 53009 60006 85072 91800 333 10190 20041=
07460,1997-02-10 21:00:00,13,1024.8,0.6,38,-1,15000,18.52,,,210,,,,,,,,,,,wg-a,,,,AAXX 10214 07460 12665 72110 10130 21010 39855 40248 53006 60006 82572 92100=
07460,1997-02-11 00:00:00,11,1025.7,0.7,62,4,15000,14.816,,,160,,,,,,,,,,,wg-a,,,,AAXX 11004 07460 12665 71608 10110 20040 39862 40257 53007 60006 8557/ 90000=
07460,1997-02-11 03:00:00,11,1025.7,-0.1,66,5,12000,3.704,,,250,,,,,,,,,,,wg-a,,,,AAXX 11034 07460 12562 72502 10110 20050 39862 40257 58001 60006 8657/ 90300=
07460,1997-02-11 06:00:00,9,1026.4,0.4,76,5,12000,7.408,,,130,8.8,13.9,,,,,,,,,wg-a,,,,AAXX 11064 07460 02662 71304 10090 20050 39866 40264 50004 60006 8687/ 90600 333 10139 20088 60004=
07460,1997-02-11 09:00:00,8,1027.4,0.8,87,6,20000,3.704,,,310,,,,,,,,,,,wg-a,,,,AAXX 11094 07460 12570 73102 10080 20060 39874 40274 53008 60006 8657/ 90900=
07460,1997-02-11 12:00:00,10,1026.6,-0.5,82,7,15000,3.704,,,30,,,,,,,,,,,wg-a,,,,AAXX 11124 07460 12565 70302 10100 20070 39870 40266 58005 60006 8653/ 91200=
07460,1997-02-11 15:00:00,10,1025.7,-0.7,87,8,15000,7.408,,,20,,,,,,,,,,,wg-a,,,,AAXX 11154 07460 12565 70204 10100 20080 39862 40257 55007 60006 8583/ 91500=
07460,1997-02-11 18:00:00,11,1025.3,-0.4,62,4,15000,7.408,,,200,7.6,11.6,,,,,,,,,wg-a,,,,AAXX 11184 07460 12565 72004 10110 20040 39858 40253 56004 60006 8483/ 91800 333 10116 20076=
07460,1997-02-11 21:00:00,11,1024,-1.1,66,5,15000,14.816,,,170,,,,,,,,,,,wg-a,,,,AAXX 11214 07460 12565 71708 10110 20050 39846 40240 58011 60006 8483/ 92100=
07460,1997-02-12 00:00:00,13,1024.3,0.3,58,5,15000,14.816,,,190,,,,,,,,,,,wg-a,,,,AAXX 12004 07460 12565 71908 10130 20050 39851 40243 53003 60006 878// 90000=
07460,1997-02-12 03:00:00,12,1024.8,0.2,62,5,15000,7.408,,,230,,,,,,,,,,,wg-a,,,,AAXX 12034 07460 12565 72304 10120 20050 39855 40248 50002 60006 878// 90300=
07460,1997-02-12 06:00:00,13,1024.7,-0.1,62,6,15000,14.816,,,230,10.2,13.1,,,,,,,,,wg-a,,,,AAXX 12064 07460 02565 72308 10130 20060 39855 40247 58001 60006 878// 90600 333 10131 20102 60004=
07460,1997-02-12 09:00:00,13,1024.7,0.3,58,5,14000,25.928,,50.004,220,,,,,,,,,,,wg-a,,,,AAXX 12094 07460 12664 72214 10130 20050 39855 40247 50003 60006 878// 90900 333 91027=
07460,1997-02-12 12:00:00,13,1023.5,-1.2,62,6,14000,22.224,,,250,,,,,,,,,,,wg-a,,,,AAXX 12124 07460 12664 72512 10130 20060 39844 40235 58012 60006 878// 91200=
07460,1997-02-12 15:00:00,13,1021,-2.3,54,4,14000,18.52,,,220,,,,,,,,,,,wg-a,,,,AAXX 12154 07460 12664 72210 10130 20040 39820 40210 56023 60006 878// 91500=
07460,1997-02-12 18:00:00,12,1020.3,-0.9,67,6,13000,18.52,,,220,11.1,13.4,,,,,,,,25,wg-a,,,,AAXX 12184 07460 02663 72210 10120 20060 39811 40203 56009 61000 72586 878// 91800 333 10134 20111 6100=
07460,1997-02-12 21:00:00,12,1019,-1.2,62,5,15000,11.112,,,220,,,,,,,,,,,wg-a,,,,AAXX 12214 07460 12665 62206 10120 20050 39799 40190 58012 60006 86500 92100=
07460,1997-02-13 00:00:00,12,1016.9,-1.9,62,5,15000,18.52,,38.892,170,,,,,,,,,,,wg-a,,,,AAXX 13004 07460 12565 /1710 10120 20050 39779 40169 58019 60006 86500 90000 333 91021=
07460,1997-02-13 03:00:00,11,1016.6,-0.5,62,4,15000,11.112,,,210,,,,,,,,,,,wg-a,,,,AAXX 13034 07460 12665 72106 10110 20040 39774 40166 57005 60006 875// 90300=
07460,1997-02-13 06:00:00,10,1015.2,-1.5,62,3,15000,11.112,,,160,9.8,12.1,,,,,,,,,wg-a,,,,AAXX 13064 07460 02565 /1606 10100 20030 39760 40152 56015 60006 86500 90600 333 10121 20098 61000=
07460,1997-02-13 09:00:00,10,1012.7,-2.4,76,6,10000,38.892,,61.116,250,,,,,,,,,,80,wg-a,,,,AAXX 13094 07460 02560 72521 10100 20060 39736 40127 56024 61000 78086 8487/ 90900 333 //// 91033=
07460,1997-02-13 12:00:00,8,1017.2,4,66,2,15000,38.892,,57.412,280,,,,1,,,,,,21,wg-a,,,,AAXX 13124 07460 02665 72821 10080 20020 39776 40172 53040 60016 72186 83806 91200 333 60017 91031=
07460,1997-02-13 18:00:00,8,1019.7,0.7,49,-2,15000,11.112,,,280,6.5,11.3,,,,,,,,,wg-a,,,,AAXX 13184 07460 12765 62806 10080 21020 39800 40197 51007 60006 84531 91800 333 10113 20065=
07460,1997-02-13 21:00:00,6,1020.3,0.2,70,1,14000,3.704,,,190,,,,,,,,,,3,wg-a,,,,AAXX 13214 07460 02664 71902 10060 20010 39803 40203 50002 61000 70386 83831 92100 333 ////=
07460,1997-02-14 00:00:00,7,1016.7,-3.5,61,0,14000,14.816,,,170,,,,,,,,,,60,wg-a,,,,AAXX 14004 07460 02664 71708 10070 20000 39769 40167 57035 61000 76086 8117/ 90000 333 6100=
07460,1997-02-14 03:00:00,6,1011.4,-5.1,81,3,12000,29.632,,,180,,,,1,,,,,,60,wg-a,,,,AAXX 14034 07460 12662 71816 10060 20030 39717 40114 58051 60017 76062 8557/ 90300=
07460,1997-02-14 06:00:00,11,1007.1,-3.4,82,8,8000,38.892,,62.968,260,5.1,11.5,,,,,,,,63,wg-a,,,,AAXX 14064 07460 02658 /2621 10110 20080 39683 40071 56034 61000 76362 83571 90600 333 10115 20051 6003 91034=
07460,1997-02-14 09:00:00,12,1007.8,0.9,76,8,10000,18.52,,38.892,220,,,,1,,,,,,25,wg-a,,,,AAXX 14094 07460 12560 72210 10120 20080 39692 40078 51009 60017 72586 83232 90900 333 91021=
07460,1997-02-14 12:00:00,15,1006.3,-0.9,67,9,14000,35.188,,55.56,260,,,,,,,,,,1,wg-a,,,,AAXX 14124 07460 12664 42619 10150 20090 39682 40063 58009 60016 70186 83232 91200 333 91030=
07460,1997-02-14 15:00:00,14,1004.4,-1.9,67,8,12000,31.484,,57.412,260,,,,0,,,,,,2,wg-a,,,,AAXX 14154 07460 12662 42617 10140 20080 39661 40044 55019 60007 70286 83232 91500 333 91031=
07460,1997-02-14 18:00:00,12,1003.5,-1.3,67,6,15000,46.3,,72.228,270,10.5,15.6,,,,,,,,80,wg-a,,,,AAXX 14184 07460 02665 42725 10120 20060 39650 40035 58013 61000 78086 82872 91800 333 10156 20105 6100 91039=
07460,1997-02-14 21:00:00,11,1004.8,1.3,62,4,15000,7.408,,38.892,240,,,,,,,,,,3,wg-a,,,,AAXX 14214 07460 02665 32404 10110 20040 39661 40048 53013 61000 70386 83800 92100 333 //// 91021=
07460,1997-02-15 00:00:00,10,1004.9,-0.1,71,5,15000,14.816,,,180,,,,,,,,,,60,wg-a,,,,AAXX 15004 07460 02665 71808 10100 20050 39661 40049 58001 61000 76086 8557/ 90000 333 6100=
07460,1997-02-15 03:00:00,9,1004.9,-0.2,81,6,12000,3.704,,,280,,,,1,,,,,,60,wg-a,,,,AAXX 15034 07460 12462 82802 10090 20060 39659 40049 55002 60017 76061 8557/ 90300=
07460,1997-02-15 06:00:00,7,1007.3,2.1,87,5,15000,7.408,,,290,7.2,11.8,,,,,3,,,3,wg-a,,,,AAXX 15064 07460 02565 /2904 10070 20050 39680 40073 53021 60006 70361 86800 90600 333 10118 20072 60034=
07460,1997-02-15 09:00:00,5,1015.6,7.8,87,3,12000,31.484,,46.3,340,,,,1,,,,,,21,wg-a,,,,AAXX 15094 07460 12362 83417 10050 20030 39757 40156 53078 60017 72186 878// 90900 333 91025=
07460,1997-02-15 12:00:00,7,1021,5.2,57,-1,500,25.928,,,360,,,,,,,,,,1,wg-a,,,,AAXX 15124 07460 12500 23614 10070 21010 39810 40210 51052 60016 70186 82800 91200=
07460,1997-02-15 15:00:00,7,1022.8,1.8,49,-3,500,22.224,,,350,,,,,,,,,,,wg-a,,,,AAXX 15154 07460 12600 23512 10070 21030 39828 40228 51018 60006 82800 91500=
07460,1997-02-15 18:00:00,4,1026.3,2.8,60,-3,25000,11.112,,,340,3.7,8.5,,,,,,,,,wg-a,,,,AAXX 15184 07460 12675 23406 10040 21030 39857 40263 51028 60006 82801 91800 333 10085 20037=
07460,1997-02-15 21:00:00,1,1028,1.1,80,-2,15000,0,,,0,,,,,,,,,,,wg-a,,,,AAXX 15214 07460 12665 /0000 10010 21020 39869 40280 53011 60006 81801 92100=
07460,1997-02-16 00:00:00,-3,1027.9,-0.7,86,-5,15000,3.704,,,250,,,,,,,,,,,wg-a,,,,AAXX 16004 07460 12/65 12502 11030 21050 39862 40279 58007 60006 80001 90000=
07460,1997-02-16 03:00:00,-4,1027.2,-0.8,93,-5,15000,0,,,0,,,,,,,,,,,wg-a,,,,AAXX 16034 07460 12/65 00000 11040 21050 39854 40272 58008 60006 80000 90300=
07460,1997-02-16 06:00:00,-4,1026.1,-0.9,93,-5,15000,3.704,,,110,-4.6,3.6,,,,,1,,,,wg-a,,,,AAXX 16064 07460 02/65 01102 11040 21050 39844 40261 56009 60006 80000 90600 333 10036 21046 60014=
07460,1997-02-16 09:00:00,1,1025.6,0.2,80,-2,18000,18.52,,,170,,,,,,,,,,,wg-a,,,,AAXX 16094 07460 12/68 51710 10010 21020 39846 40256 50002 60006 80002 90900=
07460,1997-02-16 12:00:00,7,1022.5,-2.1,57,-1,20000,14.816,,,180,,,,,,,,,,,wg-a,,,,AAXX 16124 07460 12/70 51808 10070 21010 39825 40225 58021 60006 81032 91200=
07460,1997-02-16 15:00:00,12,1019.5,-2.1,30,-5,25000,14.816,,,180,,,,,,,,,,,wg-a,,,,AAXX 16154 07460 12/75 71808 10120 21050 39803 40195 56021 60006 81032 91500=
07460,1997-02-16 18:00:00,8,1020.7,0.6,57,0,20000,7.408,,,320,-4.5,11.5,,,,,,,,,wg-a,,,,AAXX 16184 07460 12/70 73204 10080 20000 39809 40207 53006 60006 83076 91800 333 10115 21045=
07460,1997-02-16 21:00:00,3,1022.4,1.2,81,0,20000,3.704,,,70,,,,,,,,,,,wg-a,,,,AAXX 16214 07460 12/70 50702 10030 20000 39820 40224 53012 60006 84032 92100=
07460,1997-02-17 00:00:00,6,1023.6,1.2,52,-3,15000,11.112,,,280,,,,,,,,,,,wg-a,,,,AAXX 17004 07460 12665 /2806 10060 21030 39834 40236 53012 60006 81530 90000=
07460,1997-02-17 03:00:00,4,1024.1,0.3,65,-2,15000,11.112,,,160,,,,,,,,,,,wg-a,,,,AAXX 17034 07460 12665 /1606 10040 21020 39836 40241 50003 60006 81530 90300=
07460,1997-02-17 06:00:00,5,1024.8,0.8,65,-1,15000,3.704,,,140,2,7.6,,,,,,,,,wg-a,,,,AAXX 17064 07460 02665 71402 10050 21010 39844 40248 53008 60006 875// 90600 333 10076 20020 60004=
07460,1997-02-17 09:00:00,7,1025.7,1.2,61,0,15000,22.224,,,180,,,,0,,,,,,,wg-a,,,,AAXX 17094 07460 12665 61812 10070 20000 39856 40257 51012 60007 84502 90900=
07460,1997-02-17 12:00:00,11,1025.1,0,54,2,15000,14.816,,,240,,,,,,,,,,,wg-a,,,,AAXX 17124 07460 12665 /2408 10110 20020 39856 40251 50000 60006 84802 91200=
07460,1997-02-17 15:00:00,12,1024.1,-0.8,54,3,20000,22.224,,,250,,,,,,,,,,,wg-a,,,,AAXX 17154 07460 12670 /2512 10120 20030 39848 40241 56008 60006 83802 91500=
07460,1997-02-17 18:00:00,9,1025.7,1.2,66,3,20000,7.408,,,210,2.9,12.3,,,,,,,,,wg-a,,,,AAXX 17184 07460 12670 62104 10090 20030 39859 40257 53012 60006 83842 91800 333 10123 20029=
07460,1997-02-17 21:00:00,8,1026.8,1,71,3,15000,7.408,,,200,,,,,,,,,,,wg-a,,,,AAXX 17214 07460 12565 72004 10080 20030 39869 40268 52010 60006 8584/ 92100=
07460,1997-02-18 00:00:00,9,1026.1,-0.7,66,3,15000,14.816,,,230,,,,,,,,,,,wg-a,,,,AAXX 18004 07460 12565 72308 10090 20030 39862 40261 58007 60006 83842 90000=
07460,1997-02-18 03:00:00,8,1024.7,-1.4,71,3,14000,14.816,,,170,,,,,,,,,,,wg-a,,,,AAXX 18034 07460 12564 71708 10080 20030 39848 40247 58014 60006 85842 90300=
07460,1997-02-18 06:00:00,8,1023.8,-0.8,71,3,14000,22.224,,,180,7.6,8.9,,,,,,,,21,wg-a,,,,AAXX 18064 07460 02664 71812 10080 20030 39840 40238 56008 61000 72162 8553/ 90600 333 10089 20076 6000=
07460,1997-02-18 09:00:00,10,1023.7,0.2,66,4,13000,38.892,,,250,,,,,,,,,,,wg-a,,,,AAXX 18094 07460 12563 82521 10100 20040 39842 40237 50002 60006 8557/ 90900=
07460,1997-02-18 12:00:00,11,1023.4,-0.2,62,4,14000,25.928,,,170,,,,,,,,,,,wg-a,,,,AAXX 18124 07460 12664 71714 10110 20040 39840 40234 58002 60006 8553/ 91200=
07460,1997-02-18 15:00:00,13,1023.5,0.2,54,4,14000,18.52,,37.04,240,,,,,,,,,,,wg-a,,,,AAXX 18154 07460 12664 /2410 10130 20040 39843 40235 51002 60006 83101 91500 333 91020=
07460,1997-02-18 18:00:00,11,1025.6,1.8,62,4,14000,29.632,,,270,8.3,13.2,,,,,,,,25,wg-a,,,,AAXX 18184 07460 02664 32716 10110 20040 39861 40256 53018 61000 72586 82201 91800 333 10132 20083 6100=
07460,1997-02-18 21:00:00,9,1030.4,4.4,57,1,15000,25.928,,53.708,290,,,,,,,,,,,wg-a,,,,AAXX 18214 07460 12665 32914 10090 20010 39904 40304 51044 60006 82801 92100 333 91029=
07460,1997-02-19 00:00:00,7,1033,2.2,66,1,15000,14.816,,,290,,,,,,,,,,,wg-a,,,,AAXX 19004 07460 12565 /2908 10070 20010 39926 40330 51022 60006 82830 90000=
07460,1997-02-19 03:00:00,4,1034.2,0.8,81,1,15000,3.704,,,130,,,,,,,,,,,wg-a,,,,AAXX 19034 07460 12565 61302 10040 20010 39934 40342 51008 60006 83801 90300=
07460,1997-02-19 06:00:00,0,1035.9,1.1,86,-2,15000,3.704,,,140,0.3,10.9,,,,,,,,,wg-a,,,,AAXX 19064 07460 02/65 11402 10000 21020 39945 40359 51011 60006 80001 90600 333 10109 20003 61000=
07460,1997-02-19 09:00:00,6,1034.9,-0.1,70,1,25000,11.112,,,160,,,,,,,,,,,wg-a,,,,AAXX 19094 07460 12675 31606 10060 20010 39944 40349 58001 60006 81131 90900=
07460,1997-02-19 12:00:00,10,1031.8,-2.4,46,-1,500,14.816,,,160,,,,,,,,,,,wg-a,,,,AAXX 19124 07460 12/00 41608 10100 21010 39921 40318 58024 60006 81031 91200=
07460,1997-02-19 15:00:00,13,1027.8,-3.6,35,-2,35000,22.224,,,180,,,,,,,,,,,wg-a,,,,AAXX 19154 07460 12/81 51812 10130 21020 39884 40278 56036 60006 81042 91500=
07460,1997-02-19 18:00:00,11,1026.3,-1.7,37,-3,20000,22.224,,,190,-1.1,12.8,,,,,,,,,wg-a,,,,AAXX 19184 07460 12/70 61912 10110 21030 39867 40263 56017 60006 83042 91800 333 10128 21011=
07460,1997-02-19 21:00:00,13,1025.7,-0.5,14,-14,20000,22.224,,,230,,,,,,,,,,,wg-a,,,,AAXX 19214 07460 12/70 62312 10130 21140 39864 40257 55005 60006 83042 92100=
07460,1997-02-20 00:00:00,12,1027.9,2,58,4,20000,18.52,,38.892,200,,,,,,,,,,,wg-a,,,,AAXX 20004 07460 12670 /2010 10120 20040 39884 40279 53020 60006 85542 90000 333 91021=
07460,1997-02-20 03:00:00,11,1028.7,0.6,71,6,20000,22.224,,44.448,300,,,,,,,,,,,wg-a,,,,AAXX 20034 07460 12670 63012 10110 20060 39891 40287 53006 60006 84542 90300 333 91024=
07460,1997-02-20 06:00:00,10,1029.9,1.1,66,4,20000,11.112,,,290,8.1,14,,,,,,,,,wg-a,,,,AAXX 20064 07460 02670 /2906 10100 20040 39901 40299 51011 60006 85542 90600 333 10140 20081 60004=
07460,1997-02-20 12:00:00,14,1030.8,-0.8,47,3,40000,18.52,,,280,,,,,,,,,,,wg-a,,,,AAXX 20124 07460 12682 22810 10140 20030 39915 40308 58008 60006 81801 91200=
07460,1997-02-20 15:00:00,15,1028.6,-2.1,41,2,40000,18.52,,,270,,,,,,,,,,,wg-a,,,,AAXX 20154 07460 12782 42710 10150 20020 39895 40286 56021 60006 81501 91500=
07460,1997-02-20 18:00:00,11,1029.7,0.6,54,2,500,11.112,,,220,8.5,15.3,,,,,,,,,wg-a,,,,AAXX 20184 07460 12700 42206 10110 20020 39901 40297 53006 60006 81501 91800 333 10153 20085=
07460,1997-02-20 21:00:00,9,1030.4,0.4,57,1,25000,3.704,,,220,,,,,,,,,,,wg-a,,,,AAXX 20214 07460 12775 22202 10090 20010 39905 40304 51004 60006 81501 92100=
07460,1997-02-21 00:00:00,4,1032.1,0.9,81,1,25000,0,,,0,,,,,,,,,,,wg-a,,,,AAXX 21004 07460 12775 20000 10040 20010 39914 40321 52009 60006 81101 90000=
07460,1997-02-21 03:00:00,2,1032.8,0.2,75,-2,25000,3.704,,,140,,,,,,,,,,,wg-a,,,,AAXX 21034 07460 12775 31402 10020 21020 39917 40328 53002 60006 81101 90300=
07460,1997-02-21 06:00:00,2,1033.2,0.5,87,0,25000,3.704,,,360,0.3,11.2,,,,,,,,,wg-a,,,,AAXX 21064 07460 02775 33602 10020 20000 39921 40332 53005 60006 82501 90600 333 10112 20003 60004=
07460,1997-02-21 12:00:00,13,1033,1,47,2,500,7.408,,,150,,,,,,,,,,,wg-a,,,,AAXX 21124 07460 12600 51504 10130 20020 39935 40330 50010 60006 84532 91200=
07460,1997-02-21 15:00:00,15,1031.1,-1.5,41,2,500,3.704,,,300,,,,,,,,,,,wg-a,,,,AAXX 21154 07460 12600 23002 10150 20020 39920 40311 56015 60006 81102 91500=
07460,1997-02-21 18:00:00,12,1032.3,0.7,50,2,25000,7.408,,,10,1.9,15.7,,,,,,,,,wg-a,,,,AAXX 21184 07460 12775 30104 10120 20020 39927 40323 53007 60006 82502 91800 333 10157 20019=
07460,1997-02-21 21:00:00,4,1034.3,0.8,70,-1,20000,7.408,,,230,,,,,,,,,,,wg-a,,,,AAXX 21214 07460 12770 22304 10040 21010 39935 40343 51008 60006 81501 92100=
07460,1997-02-22 00:00:00,2,1034.2,-0.4,93,1,20000,0,,,0,,,,,,,,,,,wg-a,,,,AAXX 22004 07460 12/70 20000 10020 20010 39931 40342 58004 60006 80001 90000=
07460,1997-02-22 03:00:00,3,1033.1,-0.8,87,1,20000,7.408,,,190,,,,,,,,,,,wg-a,,,,AAXX 22034 07460 12/70 31904 10030 20010 39922 40331 58008 60006 81031 90300=
07460,1997-02-22 06:00:00,2,1032.3,-0.9,87,0,20000,14.816,,,170,1.1,11.4,,,,,,,,,wg-a,,,,AAXX 22064 07460 02/70 21708 10020 20000 39913 40323 58009 60006 80001 90600 333 10114 20011 60004=
07460,1997-02-22 09:00:00,6,1030.7,-1,75,2,20000,11.112,,,160,,,,,,,,,,,wg-a,,,,AAXX 22094 07460 12/70 21606 10060 20020 39903 40307 56010 60006 80001 90900=
07460,1997-02-22 12:00:00,14,1027.4,-2.1,51,4,40000,11.112,,,130,,,,,,,,,,,wg-a,,,,AAXX 22124 07460 12/82 51306 10140 20040 39883 40274 58021 60006 80001 91200=
07460,1997-02-22 15:00:00,17,1024,-2.9,39,3,40000,3.704,,,80,,,,,,,,,,,wg-a,,,,AAXX 22154 07460 12/82 50802 10170 20030 39853 40240 56029 60006 80001 91500=
07460,1997-02-22 18:00:00,12,1023.4,-1.2,47,1,40000,3.704,,,120,0.7,17.2,,,,,,,,,wg-a,,,,AAXX 22184 07460 12/82 61202 10120 20010 39841 40234 56012 60006 80001 91800 333 10172 20007=
07460,1997-02-22 21:00:00,5,1024.2,-0.1,75,1,20000,11.112,,,220,,,,,,,,,,,wg-a,,,,AAXX 22214 07460 12/70 42206 10050 20010 39840 40242 58001 60006 80001 92100=
07460,1997-02-23 00:00:00,8,1023.2,-0.6,66,2,20000,29.632,,,200,,,,,,,,,,,wg-a,,,,AAXX 23004 07460 12/70 52016 10080 20020 39834 40232 57006 60006 81031 90000=
07460,1997-02-23 03:00:00,8,1022,-1.3,66,2,20000,31.484,,,190,,,,,,,,,,,wg-a,,,,AAXX 23034 07460 12/70 61917 10080 20020 39822 40220 58013 60006 81031 90300=
07460,1997-02-23 06:00:00,7,1020.9,-0.9,76,3,20000,29.632,,,200,5.2,11.6,,,,,,,,,wg-a,,,,AAXX 23064 07460 02/70 52016 10070 20030 39811 40209 56009 60006 81032 90600 333 10116 20052 60004=
07460,1997-02-23 09:00:00,11,1021,0.4,62,4,35000,25.928,,,180,,,,,,,,,,,wg-a,,,,AAXX 23094 07460 12/81 61814 10110 20040 39816 40210 53004 60006 82032 90900=
07460,1997-02-23 12:00:00,17,1018.5,-1.6,48,6,35000,25.928,,,170,,,,,,,,,,,wg-a,,,,AAXX 23124 07460 12/81 71714 10170 20060 39800 40185 58016 60006 82031 91200=
07460,1997-02-23 18:00:00,14,1015.9,-0.2,63,7,14000,18.52,,,200,7.1,18.1,,,,,,,,60,wg-a,,,,AAXX 23184 07460 02764 82010 10140 20070 39772 40159 55002 61000 76062 8455/ 91800 333 10181 20071 6100=
07460,1997-02-23 21:00:00,10,1016.4,-0.1,82,7,15000,31.484,,,180,,,,1,,,,,,21,wg-a,,,,AAXX 23214 07460 12765 71817 10100 20070 39772 40164 57001 60017 72162 8355/ 92100=
07460,1997-02-24 00:00:00,10,1015.8,-0.6,76,6,12000,31.484,,,180,,,,,,,,,,21,wg-a,,,,AAXX 24004 07460 02662 71817 10100 20060 39766 40158 58006 60016 72162 8457/ 90000 333 61000=
07460,1997-02-24 06:00:00,9,1013.7,-0.6,76,5,15000,29.632,,,180,8.5,13.4,,,,,1,,,,wg-a,,,,AAXX 24064 07460 02665 71816 10090 20050 39745 40137 56006 60006 85552 90600 333 10134 20085 60014=
07460,1997-02-24 09:00:00,10,1014.3,0.6,76,6,15000,29.632,,,190,,,,,,,,,,,wg-a,,,,AAXX 24094 07460 12565 71916 10100 20060 39752 40143 53006 60006 8557/ 90900=
07460,1997-02-24 12:00:00,14,1012.5,-1.1,58,6,15000,38.892,,,200,,,,,,,,,,,wg-a,,,,AAXX 24124 07460 12665 52021 10140 20060 39740 40125 58011 60006 84830 91200=
07460,1997-02-24 15:00:00,15,1011.8,-0.5,51,5,20000,38.892,,,230,,,,,,,,,,,wg-a,,,,AAXX 24154 07460 12670 62321 10150 20050 39734 40118 56005 60006 83831 91500=
07460,1997-02-24 18:00:00,14,1012.1,0.2,58,6,15000,35.188,,,200,9.3,16.7,,,,,,,,,wg-a,,,,AAXX 24184 07460 12565 72019 10140 20060 39735 40121 53002 60006 8483/ 91800 333 10167 20093=
07460,1997-02-25 00:00:00,13,1012,-0.4,67,7,14000,35.188,,,170,,,,,,,,,,21,wg-a,,,,AAXX 25004 07460 02664 81719 10130 20070 39734 40120 56004 61000 72162 8353/ 90000 333 6100=
07460,1997-02-25 03:00:00,13,1012.3,0.5,72,8,14000,35.188,,,160,,,,,,,,,,,wg-a,,,,AAXX 25034 07460 12664 81619 10130 20080 39736 40123 51005 60006 8553/ 90300=
07460,1997-02-25 06:00:00,14,1013,0.7,67,8,14000,29.632,,,170,12.5,13.9,,,,,,,,,wg-a,,,,AAXX 25064 07460 02664 71716 10140 20080 39744 40130 53007 60006 8653/ 90600 333 10139 20125 61000=
07460,1997-02-25 09:00:00,15,1014,1,63,8,12000,29.632,,,170,,,,,,,,,,,wg-a,,,,AAXX 25094 07460 12662 81716 10150 20080 39755 40140 52010 60006 875// 90900=
07460,1997-02-25 12:00:00,15,1014.7,0.8,67,9,14000,29.632,,,180,,,,,,,,,,,wg-a,,,,AAXX 25124 07460 12664 71816 10150 20090 39762 40147 50008 60006 8653/ 91200=
07460,1997-02-25 15:00:00,15,1014.8,0.1,63,8,12000,25.928,,,220,,,,,,,,,,3,wg-a,,,,AAXX 25154 07460 02662 72214 10150 20080 39763 40148 53001 61000 70386 8653/ 91500 333 ////=
07460,1997-02-25 18:00:00,15,1015.7,1,63,8,12000,25.928,,,200,13.1,16.1,,,,,,,,3,wg-a,,,,AAXX 25184 07460 12662 72014 10150 20080 39772 40157 53010 60006 70386 8657/ 91800 333 10161 20131=
07460,1997-02-25 21:00:00,14,1016.7,0.8,58,6,12000,25.928,,,160,,,,,,,,,,2,wg-a,,,,AAXX 25214 07460 02562 71614 10140 20060 39780 40167 51008 61000 70262 875// 92100 333 ////=
07460,1997-02-26 00:00:00,14,1017.1,0.4,58,6,12000,25.928,,,170,,,,,,,,,,3,wg-a,,,,AAXX 26004 07460 02662 81714 10140 20060 39784 40171 51004 61000 70362 875// 90000 333 ////=
07460,1997-02-26 03:00:00,13,1016.6,-0.8,62,6,12000,14.816,,,190,,,,,,,,,,,wg-a,,,,AAXX 26034 07460 12662 71908 10130 20060 39778 40166 56008 60006 8653/ 90300=
07460,1997-02-26 06:00:00,13,1017.2,0.5,67,7,12000,14.816,,,230,12.1,15,,,,,,,,,wg-a,,,,AAXX 26064 07460 02662 /2308 10130 20070 39783 40172 53005 60006 85531 90600 333 10150 20121 61000=
07460,1997-02-26 09:00:00,12,1020.1,2.8,67,6,12000,35.188,,53.708,260,,,,,,,,,,25,wg-a,,,,AAXX 26094 07460 02562 62619 10120 20060 39810 40201 51028 61000 72586 85831 90900 333 //// 91029=
07460,1997-02-26 12:00:00,14,1020.3,0.3,51,4,15000,35.188,,57.412,260,,,,0,,,,,,25,wg-a,,,,AAXX 26124 07460 02565 42619 10140 20040 39814 40203 50003 60006 72586 83231 91200 333 60007 91031=
07460,1997-02-26 15:00:00,12,1021.8,1.2,50,2,10000,31.484,,,270,,,,,,,,,,25,wg-a,,,,AAXX 26154 07460 02560 42717 10120 20020 39826 40218 53012 61000 72586 84231 91500 333 ////=
07460,1997-02-26 18:00:00,8,1024.6,2,61,1,10000,46.3,,,270,7.4,14.6,,1,,,,,,25,wg-a,,,,AAXX 26184 07460 12460 62725 10080 20010 39847 40246 53020 60017 72586 85830 91800 333 10146 20074=
07460,1997-02-27 00:00:00,6,1032.3,3,70,1,15000,14.816,,,290,,,,0,,,,,,1,wg-a,,,,AAXX 27004 07460 02565 22908 10060 20010 39919 40323 51030 60006 70186 82800 90000 333 60007=
07460,1997-02-27 03:00:00,6,1035.2,2.7,70,1,15000,14.816,,,340,,,,,,,,,,,wg-a,,,,AAXX 27034 07460 12565 43408 10060 20010 39946 40352 53027 60006 84800 90300=
07460,1997-02-27 06:00:00,4,1037.8,2.2,81,1,15000,0,,,0,3.5,7.9,,,,,1,,,1,wg-a,,,,AAXX 27064 07460 02565 30000 10040 20010 39968 40378 51022 60006 70186 83800 90600 333 10079 20035 60014=
07460,1997-02-27 09:00:00,8,1038.3,1.1,61,1,15000,14.816,,,340,,,,,,,,,,,wg-a,,,,AAXX 27094 07460 12565 /3408 10080 20010 39978 40383 53011 60006 81100 90900=
07460,1997-02-27 12:00:00,10,1038,0.1,53,1,35000,11.112,,,190,,,,,,,,,,,wg-a,,,,AAXX 27124 07460 12681 21906 10100 20010 39979 40380 50001 60006 82100 91200=
07460,1997-02-28 00:00:00,3,1037.6,-0.8,70,-2,25000,11.112,,,160,,,,,,,,,,,wg-a,,,,AAXX 28004 07460 12/75 11606 10030 21020 39965 40376 56008 60006 80001 90000=
07460,1997-02-28 03:00:00,3,1035.3,-2.3,65,-3,25000,7.408,,,300,,,,,,,,,,,wg-a,,,,AAXX 28034 07460 12/75 13004 10030 21030 39942 40353 56023 60006 80001 90300=
07460,1997-02-28 06:00:00,3,1034.9,-0.3,52,-6,500,7.408,,,170,1.5,8,,,,,,,,,wg-a,,,,AAXX 28064 07460 02/00 11704 10030 21060 39939 40349 58003 60006 80001 90600 333 10080 20015 60004=
07460,1997-02-28 09:00:00,7,1033.9,-0.4,42,-5,500,7.408,,,190,,,,,,,,,,,wg-a,,,,AAXX 28094 07460 12/00 11904 10070 21050 39935 40339 56004 60006 80001 90900=
07460,1997-02-28 12:00:00,17,1030.9,-1.5,29,-1,500,7.408,,,140,,,,,,,,,,,wg-a,,,,AAXX 28124 07460 12/00 11404 10170 21010 39920 40309 58015 60006 80001 91200=
07460,1997-02-28 15:00:00,22,1027.3,-2.9,17,-4,500,7.408,,,190,,,,,,,,,,,wg-a,,,,AAXX 28154 07460 12/00 31904 10220 21040 39891 40273 56029 60006 80001 91500=
07460,1997-02-28 18:00:00,18,1028.3,0.5,28,-1,500,14.816,,,260,2.3,22.2,,,,,,,,,wg-a,,,,AAXX 28184 07460 12/00 62608 10180 21010 39892 40283 53005 60006 80002 91800 333 10222 20023=
07460,1997-02-28 21:00:00,16,1029.2,0.7,29,-2,25000,18.52,,,180,,,,,,,,,,,wg-a,,,,AAXX 28214 07460 12/75 61810 10160 21020 39902 40292 51007 60006 80002 92100=
07460,1997-03-01 00:00:00,12,1029.6,-0.1,40,-1,25000,3.704,,,230,,,,,,,,,,,wg-a,,,,AAXX 01004 07460 12/75 42302 10120 21010 39901 40296 55001 60006 80002 90000=
07460,1997-03-01 03:00:00,11,1029.3,-0.4,43,-1,25000,11.112,,,160,,,,,,,,,,,wg-a,,,,AAXX 01034 07460 12/75 61606 10110 21010 39897 40293 58004 60006 80002 90300=
07460,1997-03-01 06:00:00,10,1030.2,0.6,46,-1,25000,14.816,,,190,8.7,17.5,,,,,,,,,wg-a,,,,AAXX 01064 07460 02/75 71908 10100 21010 39904 40302 50006 60006 80002 90600 333 10175 20087 60004=
07460,1997-03-01 09:00:00,12,1029.8,-0.1,47,1,50000,18.52,,,170,,,,,,,,,,,wg-a,,,,AAXX 01094 07460 12/84 71710 10120 20010 39903 40298 57001 60006 81032 90900=
07460,1997-03-01 12:00:00,18,1028.1,-1,32,1,50000,7.408,,,120,,,,,,,,,,,wg-a,,,,AAXX 01124 07460 12/84 61204 10180 20010 39894 40281 58010 60006 80001 91200=
07460,1997-03-01 15:00:00,18,1026.3,-1.7,34,2,50000,7.408,,,360,,,,,,,,,,,wg-a,,,,AAXX 01154 07460 12/84 73604 10180 20020 39877 40263 56017 60006 83032 91500=
07460,1997-03-01 18:00:00,13,1026.4,-0.5,54,4,500,0,,,0,9.6,19.1,,,,,,,,,wg-a,,,,AAXX 01184 07460 12/00 70000 10130 20040 39872 40264 55005 60006 81032 91800 333 10191 20096=
07460,1997-03-01 21:00:00,10,1026.9,0.1,66,4,20000,7.408,,,260,,,,,,,,,,,wg-a,,,,AAXX 01214 07460 12/70 72604 10100 20040 39873 40269 51001 60006 81032 92100=
07460,1997-03-02 00:00:00,10,1026.4,-0.6,57,2,20000,11.112,,,190,,,,,,,,,,,wg-a,,,,AAXX 02004 07460 12/70 71906 10100 20020 39867 40264 58006 60006 81032 90000=
07460,1997-03-02 03:00:00,9,1025.8,-0.7,57,1,20000,3.704,,,340,,,,,,,,,,,wg-a,,,,AAXX 02034 07460 12/70 33402 10090 20010 39860 40258 58007 60006 80001 90300=
07460,1997-03-02 06:00:00,8,1027.2,1.1,61,1,25000,3.704,,,30,5.4,13.2,,,,,,,,,wg-a,,,,AAXX 02064 07460 02/75 20302 10080 20010 39871 40272 53011 60006 81031 90600 333 10132 20054 60004=
07460,1997-03-02 09:00:00,12,1028.1,1.6,50,2,500,11.112,,,170,,,,,,,,,,,wg-a,,,,AAXX 02094 07460 12/00 11706 10120 20020 39887 40281 51016 60006 80001 90900=
07460,1997-03-02 12:00:00,20,1026.9,-0.1,35,4,25000,3.704,,,280,,,,,,,,,,,wg-a,,,,AAXX 02124 07460 12/75 22802 10200 20040 39886 40269 58001 60006 80001 91200=
07460,1997-03-02 15:00:00,21,1026.6,-0.2,35,5,25000,11.112,,,280,,,,,,,,,,,wg-a,,,,AAXX 02154 07460 12675 22806 10210 20050 39884 40266 55002 60006 81101 91500=
07460,1997-03-02 18:00:00,17,1029.1,1.9,45,5,25000,11.112,,,320,5.8,21.8,,,,,,,,,wg-a,,,,AAXX 02184 07460 12675 /3206 10170 20050 39903 40291 53019 60006 82801 91800 333 10218 20058=
07460,1997-03-02 21:00:00,10,1032.2,2.1,76,6,15000,7.408,,,270,,,,,,,,,,,wg-a,,,,AAXX 02214 07460 12/65 12704 10100 20060 39924 40322 51021 60006 80001 92100=
07460,1997-03-03 00:00:00,7,1033.2,0.5,93,6,15000,0,,,0,,,,,,,,,,,wg-a,,,,AAXX 03004 07460 12/65 10000 10070 20060 39929 40332 51005 60006 80001 90000=
07460,1997-03-03 03:00:00,4,1034.3,0.6,93,3,15000,0,,,0,,,,,,,,,,,wg-a,,,,AAXX 03034 07460 12665 /0000 10040 20030 39935 40343 52006 60006 81501 90300=
07460,1997-03-03 06:00:00,6,1035.3,1.2,93,5,15000,3.704,,,280,4.1,16.9,,,,,,,,,wg-a,,,,AAXX 03064 07460 02565 /2802 10060 20050 39947 40353 51012 60006 86500 90600 333 10169 20041 60004=
07460,1997-03-03 09:00:00,12,1035.2,0.8,76,8,13000,0,,,0,,,,,,,,,,,wg-a,,,,AAXX 03094 07460 12663 70000 10120 20080 39955 40352 53008 60006 81131 90900=
07460,1997-03-03 12:00:00,16,1033.7,-0.9,59,8,15000,7.408,,,180,,,,,,,,,,,wg-a,,,,AAXX 03124 07460 12/65 51804 10160 20080 39946 40337 58009 60006 80001 91200=
07460,1997-03-03 15:00:00,18,1031.4,-1.9,52,8,20000,3.704,,,40,,,,,,,,,,,wg-a,,,,AAXX 03154 07460 12/70 70402 10180 20080 39926 40314 56019 60006 80001 91500=
07460,1997-03-03 18:00:00,15,1032,0.2,55,6,15000,7.408,,,70,5.5,18.3,,,,,,,,,wg-a,,,,AAXX 03184 07460 12/65 30704 10150 20060 39928 40320 53002 60006 80001 91800 333 10183 20055=
07460,1997-03-03 21:00:00,9,1033.4,0.4,76,5,15000,3.704,,,210,,,,,,,,,,,wg-a,,,,AAXX 03214 07460 12/65 42102 10090 20050 39933 40334 51004 60006 80001 92100=
07460,1997-03-04 00:00:00,10,1033,-0.2,66,4,10000,11.112,,,170,,,,,,,,,,,wg-a,,,,AAXX 04004 07460 12/60 /1706 10100 20040 39930 40330 57002 60006 90000=
07460,1997-03-04 03:00:00,10,1031.8,-1.1,62,3,15000,11.112,,,150,,,,,,,,,,,wg-a,,,,AAXX 04034 07460 12/65 41506 10100 20030 39919 40318 58011 60006 80001 90300=
07460,1997-03-04 06:00:00,10,1031.8,-0.1,62,3,15000,3.704,,,140,8.1,14.4,,,,,,,,,wg-a,,,,AAXX 04064 07460 02/65 61402 10100 20030 39919 40318 56001 60006 84042 90600 333 10144 20081 60004=
07460,1997-03-04 09:00:00,11,1031.7,0.2,58,3,500,7.408,,,170,,,,,,,,,,,wg-a,,,,AAXX 04094 07460 12/00 41704 10110 20030 39920 40317 53002 60006 82042 90900=
07460,1997-03-04 12:00:00,22,1027.9,-2.3,29,3,25000,18.52,,,180,,,,,,,,,,,wg-a,,,,AAXX 04124 07460 12/75 31810 10220 20030 39898 40279 58023 60006 81042 91200=
07460,1997-03-04 15:00:00,24,1025.8,-1.9,19,-1,25000,11.112,,,190,,,,,,,,,,,wg-a,,,,AAXX 04154 07460 12875 71906 10240 21010 39879 40258 56019 60006 81148 91500=
07460,1997-03-04 18:00:00,19,1026,-0.4,28,0,20000,3.704,,,170,9.5,24.4,,,,,,,,,wg-a,,,,AAXX 04184 07460 12/70 81702 10190 20000 39875 40260 58004 60006 8707/ 91800 333 10244 20095=
07460,1997-03-04 21:00:00,17,1028.2,1.9,42,4,15000,14.816,,,350,,,,,,,,,,,wg-a,,,,AAXX 04214 07460 12765 83508 10170 20040 39894 40282 53019 60006 82578 92100=
07460,1997-03-05 00:00:00,15,1026.9,-1.5,48,4,15000,7.408,,,200,,,,,,,,,,,wg-a,,,,AAXX 05004 07460 12765 52004 10150 20040 39879 40269 58015 60006 81571 90000=
07460,1997-03-05 03:00:00,10,1028.6,1,71,5,15000,7.408,,,90,,,,,,,,,,,wg-a,,,,AAXX 05034 07460 12765 50904 10100 20050 39889 40286 51010 60006 83531 90300=
07460,1997-03-05 06:00:00,8,1030,1.1,87,6,10000,3.704,,,170,7.5,18.8,,,,,,,,,wg-a,,,,AAXX 05064 07460 02660 /1702 10080 20060 39900 40300 51011 60006 82531 90600 333 10188 20075 60004=
07460,1997-03-05 09:00:00,10,1030.8,1,76,6,15000,18.52,,,60,,,,,,,,,,,wg-a,,,,AAXX 05094 07460 12665 20610 10100 20060 39910 40308 51010 60006 81131 90900=
07460,1997-03-05 12:00:00,13,1030.4,-0,54,4,25000,18.52,,,30,,,,,,,,,,,wg-a,,,,AAXX 05124 07460 12675 /0310 10130 20040 39909 40304 55000 60006 81130 91200=
07460,1997-03-05 15:00:00,12,1030.2,-0.2,50,2,25000,18.52,,,40,,,,,,,,,,,wg-a,,,,AAXX 05154 07460 12675 /0410 10120 20020 39907 40302 55002 60006 85531 91500=
07460,1997-03-05 18:00:00,9,1030.9,0.2,57,1,500,3.704,,,150,8.2,13.4,,,,,,,,,wg-a,,,,AAXX 05184 07460 12600 31502 10090 20010 39909 40309 53002 60006 81531 91800 333 10134 20082=
07460,1997-03-06 00:00:00,7,1031.9,-0.1,87,5,15000,3.704,,,150,,,,0,,,,,,3,wg-a,,,,AAXX 06004 07460 02565 71502 10070 20050 39916 40319 58001 60006 70361 8283/ 90000 333 60007=
07460,1997-03-06 03:00:00,7,1031.3,-0.6,87,5,13000,3.704,,,210,,,,0,,,,,,,wg-a,,,,AAXX 06034 07460 12563 72102 10070 20050 39910 40313 56006 60007 875// 90300=
07460,1997-03-06 06:00:00,7,1031.8,0.5,93,6,13000,0,,,0,6.7,9.7,,,,,1,,,3,wg-a,,,,AAXX 06064 07460 02463 70000 10070 20060 39915 40318 53005 60006 70362 875// 90600 333 10097 20067 60014=
07460,1997-03-06 09:00:00,8,1032,0.4,93,7,9000,11.112,,,170,,,,0,,,,,,60,wg-a,,,,AAXX 06094 07460 12359 71706 10080 20070 39919 40320 53004 60007 76062 875// 90900=
07460,1997-03-06 12:00:00,10,1032,0.2,87,8,3500,3.704,,,10,,,,0,,,,,,10,wg-a,,,,AAXX 06124 07460 02235 80102 10100 20080 39921 40320 53002 60016 71065 885// 91200 333 60007=
07460,1997-03-06 15:00:00,12,1030.5,-1.2,82,9,12000,7.408,,,360,,,,,,,,,,3,wg-a,,,,AAXX 06154 07460 02462 83604 10120 20090 39910 40305 56012 61000 70352 885// 91500 333 ////=
07460,1997-03-06 18:00:00,11,1031.1,0.5,82,8,12000,11.112,,,50,6.8,11.7,,,,,,,,3,wg-a,,,,AAXX 06184 07460 12462 70506 10110 20080 39914 40311 53005 60006 70352 878// 91800 333 10117 20068=
07460,1997-03-07 00:00:00,9,1031.4,-1,87,7,15000,7.408,,,340,,,,,,,,,,,wg-a,,,,AAXX 07004 07460 12565 73404 10090 20070 39915 40314 56010 60006 875// 90000=
07460,1997-03-07 06:00:00,2,1032,0.1,100,2,1100,3.704,,,60,0.8,10.6,,,,,,,,40,wg-a,,,,AAXX 07064 07460 02111 50602 10020 20020 39910 40320 53001 60006 74011 85500 90600 333 10106 20008 60004=
07460,1997-03-07 09:00:00,5,1032.1,0.5,93,4,400,3.704,,,360,,,,,,,,,,44,wg-a,,,,AAXX 07094 07460 12104 53602 10050 20040 39915 40321 53005 60006 74442 85500 90900=
07460,1997-03-07 12:00:00,12,1029.9,-1.2,58,4,15000,7.408,,,10,,,,,,,,,,1,wg-a,,,,AAXX 07124 07460 12465 /0104 10120 20040 39903 40299 57012 60006 70141 81100 91200=
07460,1997-03-07 15:00:00,14,1028,-1.4,51,4,15000,11.112,,,340,,,,,,,,,,,wg-a,,,,AAXX 07154 07460 12/65 13406 10140 20040 39888 40280 56014 60006 80001 91500=
07460,1997-03-07 18:00:00,11,1028.7,0.4,62,4,10000,7.408,,,10,1,14.1,,,,,,,,,wg-a,,,,AAXX 07184 07460 12/60 10104 10110 20040 39891 40287 53004 60006 80001 91800 333 10141 20010=
07460,1997-03-07 21:00:00,5,1029.8,0.2,87,3,12000,7.408,,,250,,,,,,,,,,,wg-a,,,,AAXX 07214 07460 12/62 12504 10050 20030 39894 40298 50002 60006 80001 92100=
07460,1997-03-08 00:00:00,3,1030.9,0.8,93,2,12000,3.704,,,240,,,,,,,,,,,wg-a,,,,AAXX 08004 07460 12/62 12402 10030 20020 39901 40309 51008 60006 80001 90000=
07460,1997-03-08 03:00:00,2,1031.6,0.5,93,1,10000,7.408,,,340,,,,,,,,,,,wg-a,,,,AAXX 08034 07460 12/60 03404 10020 20010 39906 40316 51005 60006 80000 90300=
07460,1997-03-08 06:00:00,1,1032.8,1,93,0,15000,3.704,,,120,0.6,10.8,,,,,,,,,wg-a,,,,AAXX 08064 07460 02/65 01202 10010 20000 39916 40328 53010 60006 80000 90600 333 10108 20006 60004=
07460,1997-03-08 09:00:00,8,1033.3,1.3,71,3,20000,0,,,0,,,,,,,,,,,wg-a,,,,AAXX 08094 07460 12/70 00000 10080 20030 39930 40333 51013 60006 80000 90900=
07460,1997-03-08 12:00:00,14,1031.3,-0.9,55,5,15000,7.408,,,30,,,,,,,,,,,wg-a,,,,AAXX 08124 07460 12/65 00304 10140 20050 39920 40313 58009 60006 80000 91200=
07460,1997-03-08 15:00:00,16,1029.8,-1.1,45,4,15000,11.112,,,30,,,,,,,,,,,wg-a,,,,AAXX 08154 07460 12/65 00306 10160 20040 39909 40298 56011 60006 80000 91500=
07460,1997-03-08 18:00:00,13,1031.1,0.8,54,4,20000,11.112,,,350,-0.5,16.5,,,,,,,,,wg-a,,,,AAXX 08184 07460 12/70 03506 10130 20040 39917 40311 53008 60006 80000 91800 333 10165 21005=
07460,1997-03-08 21:00:00,5,1032.3,0.1,81,2,20000,3.704,,,270,,,,,,,,,,,wg-a,,,,AAXX 08214 07460 12/70 02702 10050 20020 39918 40323 51001 60006 80000 92100=
07460,1997-03-09 00:00:00,3,1032.4,-0.2,87,1,15000,3.704,,,270,,,,,,,,,,,wg-a,,,,AAXX 09004 07460 12/65 02702 10030 20010 39916 40324 56002 60006 80000 90000=
07460,1997-03-09 03:00:00,3,1032.5,-0.1,87,1,15000,3.704,,,270,,,,,,,,,,,wg-a,,,,AAXX 09034 07460 12/65 02702 10030 20010 39915 40325 58001 60006 80000 90300=
07460,1997-03-09 06:00:00,4,1032.4,0.1,81,1,10000,3.704,,,270,0.9,12.8,,,,,,,,,wg-a,,,,AAXX 09064 07460 02/60 02702 10040 20010 39916 40324 53001 60006 80000 90600 333 10128 20009 60004=
07460,1997-03-09 09:00:00,9,1031.8,0.2,71,4,12000,3.704,,,270,,,,,,,,,,,wg-a,,,,AAXX 09094 07460 12/62 02702 10090 20040 39918 40318 50002 60006 80000 90900=
07460,1997-03-09 12:00:00,16,1029.4,-1.3,48,5,15000,3.704,,,270,,,,,,,,,,,wg-a,,,,AAXX 09124 07460 12/65 02702 10160 20050 39905 40294 58013 60006 80000 91200=
07460,1997-03-09 15:00:00,19,1028.1,-1,34,3,20000,3.704,,,270,,,,,,,,,,,wg-a,,,,AAXX 09154 07460 12/70 12702 10190 20030 39895 40281 56010 60006 80001 91500=
07460,1997-03-09 18:00:00,15,1029.2,0.7,48,4,15000,3.704,,,270,2.1,19.1,,,,,,,,,wg-a,,,,AAXX 09184 07460 12/65 12702 10150 20040 39901 40292 53007 60006 80001 91800 333 10191 20021=
07460,1997-03-09 21:00:00,8,1031.3,1,71,3,15000,3.704,,,270,,,,,,,,,,,wg-a,,,,AAXX 09214 07460 12/65 12702 10080 20030 39911 40313 53010 60006 80001 92100=
07460,1997-03-10 00:00:00,6,1032.3,0.7,75,2,15000,3.704,,,270,,,,,,,,,,,wg-a,,,,AAXX 10004 07460 12/65 02702 10060 20020 39918 40323 53007 60006 80000 90000=
07460,1997-03-10 03:00:00,6,1032.2,-0.1,70,1,15000,3.704,,,270,,,,,,,,,,,wg-a,,,,AAXX 10034 07460 12/65 02702 10060 20010 39917 40322 58001 60006 80000 90300=
07460,1997-03-10 06:00:00,6,1033.4,1.2,70,1,500,3.704,,,270,3.9,14.4,,,,,,,,,wg-a,,,,AAXX 10064 07460 02/00 02702 10060 20010 39929 40334 53012 60006 80000 90600 333 10144 20039 60004=
07460,1997-03-10 09:00:00,11,1033.6,-0,58,3,35000,7.408,,,180,,,,,,,,,,,wg-a,,,,AAXX 10094 07460 32/81 01804 10110 20030 39938 40336 54000 80000 90900=
07460,1997-03-10 12:00:00,19,1031.5,-1,37,4,35000,7.408,,,60,,,,,,,,,,,wg-a,,,,AAXX 10124 07460 12/81 00604 10190 20040 39928 40315 58010 60006 80000 91200=
07460,1997-03-10 15:00:00,20,1029.7,-1.5,28,1,40000,7.408,,,20,,,,,,,,,,,wg-a,,,,AAXX 10154 07460 12/82 00204 10200 20010 39912 40297 56015 60006 80000 91500=
07460,1997-03-10 18:00:00,16,1030.8,0.6,45,4,500,11.112,,,350,5.4,20.5,,,,,,,,,wg-a,,,,AAXX 10184 07460 12/00 03506 10160 20040 39918 40308 53006 60006 80000 91800 333 10205 20054=
07460,1997-03-10 21:00:00,9,1032.1,0.3,61,2,500,0,,,0,,,,,,,,,,,wg-a,,,,AAXX 10214 07460 12/00 00000 10090 20020 39921 40321 51003 60006 80000 92100=
07460,1997-03-11 00:00:00,5,1032.5,-0.3,75,1,500,3.704,,,120,,,,,,,,,,,wg-a,,,,AAXX 11004 07460 12/00 01202 10050 20010 39919 40325 58003 60006 80000 90000=
07460,1997-03-11 03:00:00,1,1032.8,-0.3,86,-1,500,0,,,0,,,,,,,,,,,wg-a,,,,AAXX 11034 07460 12/00 00000 10010 21010 39916 40328 56003 60006 80000 90300=
07460,1997-03-11 06:00:00,2,1032.8,0.2,93,1,25000,3.704,,,20,0.4,16,,,,,,,,,wg-a,,,,AAXX 11064 07460 02/75 00202 10020 20010 39918 40328 53002 60006 80000 90600 333 10160 20004 60004=
07460,1997-03-11 09:00:00,10,1031.6,0,66,4,25000,11.112,,,180,,,,,,,,,,,wg-a,,,,AAXX 11094 07460 12/75 01806 10100 20040 39918 40316 50000 60006 80000 90900=
07460,1997-03-11 12:00:00,17,1029.4,-1.2,42,4,500,3.704,,,330,,,,,,,,,,,wg-a,,,,AAXX 11124 07460 12/00 03302 10170 20040 39906 40294 58012 60006 80000 91200=
07460,1997-03-11 15:00:00,20,1027.4,-1.6,35,4,500,14.816,,,10,,,,,,,,,,,wg-a,,,,AAXX 11154 07460 12/00 00108 10200 20040 39890 40274 56016 60006 80000 91500=
07460,1997-03-11 18:00:00,16,1028,0.1,48,5,500,11.112,,,340,0.2,20,,,,,,,,,wg-a,,,,AAXX 11184 07460 12/00 03406 10160 20050 39891 40280 53001 60006 80000 91800 333 10200 20002=
07460,1997-03-12 00:00:00,8,1030.6,0.3,71,3,20000,7.408,,,350,,,,,,,,,,,wg-a,,,,AAXX 12004 07460 12/70 03504 10080 20030 39905 40306 53003 60006 80000 90000=
07460,1997-03-12 03:00:00,8,1030.8,0.1,71,3,20000,14.816,,,190,,,,,,,,,,,wg-a,,,,AAXX 12034 07460 12/70 01908 10080 20030 39906 40308 50001 60006 80000 90300=
07460,1997-03-12 06:00:00,7,1031.7,0.9,66,1,25000,14.816,,,180,6.3,16.1,,,,,,,,,wg-a,,,,AAXX 12064 07460 02/75 01808 10070 20010 39914 40317 53009 60006 80000 90600 333 10161 20063 60004=
07460,1997-03-12 09:00:00,13,1031.4,0.5,54,4,25000,25.928,,,200,,,,,,,,,,,wg-a,,,,AAXX 12094 07460 12/75 02014 10130 20040 39920 40314 52005 60006 80000 90900=
07460,1997-03-12 12:00:00,20,1030.4,-0.1,35,4,25000,3.704,,,200,,,,,,,,,,,wg-a,,,,AAXX 12124 07460 12/75 12002 10200 20040 39919 40304 58001 60006 80001 91200=
07460,1997-03-12 15:00:00,21,1028.6,-1.6,28,2,500,7.408,,,10,,,,,,,,,,,wg-a,,,,AAXX 12154 07460 12/00 10104 10210 20020 39903 40286 56016 60006 80001 91500=
07460,1997-03-12 18:00:00,17,1030,0.8,39,3,25000,11.112,,,10,6.7,21.5,,,,,,,,,wg-a,,,,AAXX 12184 07460 12/75 10106 10170 20030 39911 40300 53008 60006 80001 91800 333 10215 20067=
07460,1997-03-12 21:00:00,9,1032.4,1.2,53,0,10000,3.704,,,120,,,,,,,,,,,wg-a,,,,AAXX 12214 07460 12/60 /1202 10090 20000 39923 40324 51012 60006 92100=
07460,1997-03-13 00:00:00,5,1032.6,-0.3,75,1,25000,3.704,,,240,,,,,,,,,,,wg-a,,,,AAXX 13004 07460 12/75 32402 10050 20010 39920 40326 57003 60006 80001 90000=
07460,1997-03-13 03:00:00,4,1031.8,-0.9,81,1,20000,3.704,,,10,,,,,,,,,,,wg-a,,,,AAXX 13034 07460 12/70 30102 10040 20010 39911 40318 58009 60006 80001 90300=
07460,1997-03-13 06:00:00,3,1031.7,-0.3,81,0,10000,0,,,0,2.3,16.8,,,,,,,,,wg-a,,,,AAXX 13064 07460 02/60 30000 10030 20000 39908 40317 58003 60006 80003 90600 333 10168 20023 60004=
07460,1997-03-13 12:00:00,16,1028.5,-1.6,51,6,12000,11.112,,,50,,,,,,,,,,,wg-a,,,,AAXX 13124 07460 12/62 10506 10160 20060 39896 40285 58016 60006 80001 91200=
07460,1997-03-13 18:00:00,12,1027.4,0.1,71,7,7000,11.112,,,20,3.2,17.4,,,,,,,,,wg-a,,,,AAXX 13184 07460 12657 20206 10120 20070 39880 40274 53001 60006 81501 91800 333 10174 20032=
07460,1997-03-13 21:00:00,8,1027.9,0,93,7,7000,3.704,,,30,,,,,,,,,,,wg-a,,,,AAXX 13214 07460 12657 20302 10080 20070 39880 40279 50000 60006 81501 92100=
07460,1997-03-14 00:00:00,7,1027.6,-0.5,87,5,6000,7.408,,,110,,,,,,,,,,,wg-a,,,,AAXX 14004 07460 12456 51104 10070 20050 39875 40276 58005 60006 84501 90000=
07460,1997-03-14 06:00:00,6,1026.6,-0.7,87,4,7000,3.704,,,260,5.7,11.9,,,,,,,,,wg-a,,,,AAXX 14064 07460 02557 72602 10060 20040 39863 40266 58007 60006 85501 90600 333 10119 20057 60004=
07460,1997-03-14 09:00:00,7,1027.8,1.4,76,3,7000,14.816,,,350,,,,,,,,,,,wg-a,,,,AAXX 14094 07460 12357 73508 10070 20030 39877 40278 52014 60006 875// 90900=
07460,1997-03-14 12:00:00,10,1026.7,-0.7,62,3,10000,14.816,,,20,,,,,,,,,,,wg-a,,,,AAXX 14124 07460 12560 /0208 10100 20030 39871 40267 58007 60006 81100 91200=
07460,1997-03-14 15:00:00,14,1024.4,-1.7,51,4,15000,25.928,,,330,,,,,,,,,,,wg-a,,,,AAXX 14154 07460 12665 23314 10140 20040 39854 40244 56017 60006 81140 91500=
07460,1997-03-14 18:00:00,10,1026.8,1.7,71,5,10000,11.112,,,300,4.7,14.4,,,,,,,,,wg-a,,,,AAXX 14184 07460 12560 73006 10100 20050 39871 40268 51017 60006 875// 91800 333 10144 20047=
07460,1997-03-14 21:00:00,10,1027.2,0.4,71,5,12000,11.112,,,300,,,,,,,,,,,wg-a,,,,AAXX 14214 07460 12662 73006 10100 20050 39875 40272 51004 60006 8253/ 92100=
07460,1997-03-15 00:00:00,10,1027.4,0.2,82,7,8000,11.112,,,360,,,,0,,,,,,60,wg-a,,,,AAXX 15004 07460 02558 73606 10100 20070 39877 40274 53002 60006 76062 8457/ 90000 333 60007=
07460,1997-03-15 06:00:00,6,1028.6,0.9,93,5,15000,7.408,,,80,5.9,10.3,,,,,1,,,1,wg-a,,,,AAXX 15064 07460 02665 /0804 10060 20050 39883 40286 53009 60006 70161 86500 90600 333 10103 20059 60014=
07460,1997-03-15 09:00:00,10,1029,0.8,76,6,14000,3.704,,,30,,,,,,,,,,,wg-a,,,,AAXX 15094 07460 12564 20302 10100 20060 39892 40290 52008 60006 82130 90900=
07460,1997-03-15 12:00:00,13,1028,-0.5,58,5,25000,11.112,,,350,,,,,,,,,,,wg-a,,,,AAXX 15124 07460 12675 23506 10130 20050 39887 40280 58005 60006 82100 91200=
07460,1997-03-15 15:00:00,15,1027.1,-0.6,51,5,500,22.224,,,340,,,,,,,,,,,wg-a,,,,AAXX 15154 07460 12600 33412 10150 20050 39881 40271 56006 60006 83101 91500=
07460,1997-03-15 18:00:00,13,1027.6,0.2,67,7,14000,11.112,,,30,6.2,15.3,,,,,,,,,wg-a,,,,AAXX 15184 07460 12664 50306 10130 20070 39883 40276 53002 60006 85801 91800 333 10153 20062=
07460,1997-03-15 21:00:00,11,1029.3,1.3,82,8,20000,11.112,,,30,,,,,,,,,,,wg-a,,,,AAXX 15214 07460 12570 70306 10110 20080 39897 40293 51013 60006 875// 92100=
07460,1997-03-16 00:00:00,10,1029.2,-0.1,93,9,15000,11.112,,,30,,,,,,,,,,,wg-a,,,,AAXX 16004 07460 12365 70306 10100 20090 39895 40292 58001 60006 875// 90000=
07460,1997-03-16 03:00:00,10,1029.2,-0.1,93,9,15000,0,,,0,,,,,,,,,,,wg-a,,,,AAXX 16034 07460 12465 70000 10100 20090 39894 40292 58001 60006 875// 90300=
07460,1997-03-16 06:00:00,9,1029.8,0.6,93,8,10000,3.704,,,10,9.3,12.5,,,,,,,,,wg-a,,,,AAXX 16064 07460 02460 80102 10090 20080 39900 40298 51006 60006 885// 90600 333 10125 20093 60004=
07460,1997-03-16 12:00:00,13,1029.4,-0.8,58,5,12000,7.408,,,40,,,,,,,,,,,wg-a,,,,AAXX 16124 07460 12562 70404 10130 20050 39900 40294 58008 60006 87800 91200=
07460,1997-03-16 18:00:00,11,1028.3,0.1,66,5,25000,7.408,,,360,9.4,14.3,,,,,,,,,wg-a,,,,AAXX 16184 07460 12/75 33604 10110 20050 39888 40283 53001 60006 80001 91800 333 10143 20094=
07460,1997-03-16 21:00:00,5,1029.6,0.4,87,3,20000,7.408,,,230,,,,,,,,,,,wg-a,,,,AAXX 16214 07460 12/70 12304 10050 20030 39892 40296 51004 60006 80001 92100=
07460,1997-03-17 00:00:00,4,1029.4,-0.4,93,3,15000,0,,,0,,,,,,,,,,,wg-a,,,,AAXX 17004 07460 12/65 00000 10040 20030 39888 40294 58004 60006 80000 90000=
07460,1997-03-17 03:00:00,2,1029.9,0.2,93,1,14000,3.704,,,350,,,,,,,,,,,wg-a,,,,AAXX 17034 07460 12/64 03502 10020 20010 39890 40299 53002 60006 80000 90300=
07460,1997-03-17 06:00:00,2,1029.7,-0.2,100,2,13000,0,,,0,0.3,11.3,,,,,,,,,wg-a,,,,AAXX 17064 07460 02563 /0000 10020 20020 39888 40297 58002 60006 81501 90600 333 10113 20003 60004=
07460,1997-03-17 09:00:00,10,1028.5,0,82,7,15000,3.704,,,130,,,,,,,,,,,wg-a,,,,AAXX 17094 07460 12/65 11302 10100 20070 39888 40285 50000 60006 80001 90900=
07460,1997-03-17 12:00:00,15,1026.9,-0.8,63,8,15000,11.112,,,30,,,,,,,,,,,wg-a,,,,AAXX 17124 07460 12/65 10306 10150 20080 39879 40269 57008 60006 80001 91200=
07460,1997-03-17 15:00:00,16,1025.3,-1.5,51,6,20000,11.112,,,360,,,,,,,,,,,wg-a,,,,AAXX 17154 07460 12/70 13606 10160 20060 39865 40253 56015 60006 80001 91500=
07460,1997-03-17 18:00:00,14,1025.3,-0.3,63,7,19000,7.408,,,350,1,16.2,,,,,,,,,wg-a,,,,AAXX 17184 07460 12/69 33504 10140 20070 39862 40253 55003 60006 80001 91800 333 10162 20010=
07460,1997-03-17 21:00:00,6,1026.1,-0.2,87,4,15000,7.408,,,240,,,,,,,,,,,wg-a,,,,AAXX 17214 07460 12/65 12404 10060 20040 39860 40261 57002 60006 80001 92100=
07460,1997-03-18 00:00:00,6,1025,-1.2,87,4,15000,3.704,,,60,,,,,,,,,,,wg-a,,,,AAXX 18004 07460 12/65 10602 10060 20040 39848 40250 58012 60006 80001 90000=
07460,1997-03-18 03:00:00,7,1022.5,-2.2,81,4,15000,18.52,,,170,,,,,,,,,,,wg-a,,,,AAXX 18034 07460 12/65 11710 10070 20040 39826 40225 58022 60006 80001 90300=
07460,1997-03-18 06:00:00,6,1021.7,-0.9,81,3,25000,11.112,,,170,5,13.7,,,,,,,,,wg-a,,,,AAXX 18064 07460 02/75 11706 10060 20030 39817 40217 56009 60006 80001 90600 333 10137 20050 60004=
07460,1997-03-18 09:00:00,11,1020.2,-0.7,66,5,500,3.704,,,300,,,,,,,,,,,wg-a,,,,AAXX 18094 07460 12/00 13002 10110 20050 39810 40202 56007 60006 80001 90900=
07460,1997-03-18 12:00:00,22,1017,-1.7,27,2,40000,7.408,,,130,,,,,,,,,,,wg-a,,,,AAXX 18124 07460 12/82 11304 10220 20020 39793 40170 56017 60006 80001 91200=
07460,1997-03-18 15:00:00,22,1014.7,-2.4,23,0,40000,22.224,,,290,,,,,,,,,,,wg-a,,,,AAXX 18154 07460 12782 22912 10220 20000 39770 40147 56024 60006 81102 91500=
07460,1997-03-18 18:00:00,16,1015.2,-0.1,51,6,500,11.112,,,340,5.2,22.6,,,,,,,,,wg-a,,,,AAXX 18184 07460 12700 23406 10160 20060 39768 40152 56001 60006 81101 91800 333 10226 20052=
07460,1997-03-18 21:00:00,8,1017.2,0.9,87,6,20000,18.52,,,40,,,,,,,,,,,wg-a,,,,AAXX 18214 07460 12/70 20410 10080 20060 39777 40172 53009 60006 80001 92100=
07460,1997-03-19 00:00:00,9,1016.3,-0.9,76,5,15000,14.816,,,280,,,,,,,,,,,wg-a,,,,AAXX 19004 07460 12665 62808 10090 20050 39770 40163 56009 60006 85501 90000=
07460,1997-03-19 06:00:00,7,1015.1,-0.4,61,0,25000,14.816,,,290,6.4,16.2,,,,,,,,3,wg-a,,,,AAXX 19064 07460 02575 72908 10070 20000 39755 40151 55004 60006 70361 878// 90600 333 10162 20064 60004=
07460,1997-03-19 12:00:00,9,1014.6,-0.8,57,1,500,22.224,,,310,,,,0,,,,,,1,wg-a,,,,AAXX 19124 07460 02600 /3112 10090 20010 39753 40146 56008 60006 70186 86800 91200 333 60007=
07460,1997-03-19 15:00:00,10,1013.7,-0.9,62,3,7000,25.928,,,310,,,,,,,,,,16,wg-a,,,,AAXX 19154 07460 12657 73114 10100 20030 39745 40137 56009 60006 71622 878// 91500=
07460,1997-03-19 18:00:00,8,1015.1,1,71,3,15000,22.224,,,300,6,11.3,,,,,,,,25,wg-a,,,,AAXX 19184 07460 02665 73012 10080 20030 39755 40151 53010 61000 72586 878// 91800 333 10113 20060 6100=
07460,1997-03-19 21:00:00,8,1017.4,2.3,66,2,15000,18.52,,,330,,,,,,,,,,2,wg-a,,,,AAXX 19214 07460 02565 73310 10080 20020 39778 40174 51023 61000 70286 878// 92100 333 ////=
07460,1997-03-20 00:00:00,7,1018.9,1.3,70,2,15000,14.816,,,330,,,,,,,,,,21,wg-a,,,,AAXX 20004 07460 02565 73308 10070 20020 39791 40189 51013 61000 72186 875// 90000 333 6100=
07460,1997-03-20 03:00:00,6,1020,0.9,75,2,13000,11.112,,,330,,,,,,,,,,,wg-a,,,,AAXX 20034 07460 12463 73306 10060 20020 39800 40200 51009 60006 878// 90300=
07460,1997-03-20 06:00:00,5,1020.6,0.5,75,1,20000,3.704,,,360,4.8,8.2,,,,,,,,,wg-a,,,,AAXX 20064 07460 02670 /3602 10050 20010 39805 40206 51005 60006 85501 90600 333 10082 20048 60004=
07460,1997-03-20 09:00:00,7,1021.7,1.3,70,2,15000,7.408,,,20,,,,,,,,,,,wg-a,,,,AAXX 20094 07460 12665 /0204 10070 20020 39818 40217 51013 60006 811// 90900=
07460,1997-03-20 12:00:00,9,1021.2,-0.3,57,1,15000,18.52,,,30,,,,,,,,,,,wg-a,,,,AAXX 20124 07460 12565 70310 10090 20010 39815 40212 57003 60006 87800 91200=
07460,1997-03-20 15:00:00,9,1020.6,-0.4,57,1,20000,14.816,,,20,,,,,,,,,,,wg-a,,,,AAXX 20154 07460 12670 70208 10090 20010 39811 40206 56004 60006 878// 91500=
07460,1997-03-20 18:00:00,8,1020.9,-0,61,1,20000,7.408,,,20,4.2,9.5,,,,,,,,,wg-a,,,,AAXX 20184 07460 12670 /0204 10080 20010 39812 40209 55000 60006 86500 91800 333 10095 20042=
07460,1997-03-20 21:00:00,2,1022.4,0.5,80,-1,12000,0,,,0,,,,,,,,,,,wg-a,,,,AAXX 20214 07460 12762 20000 10020 21010 39817 40224 51005 60006 82500 92100=
07460,1997-03-21 00:00:00,-1,1023.2,0.3,86,-3,12000,0,,,0,,,,,,,,,,,wg-a,,,,AAXX 21004 07460 12762 /0000 11010 21030 39820 40232 51003 60006 81500 90000=
07460,1997-03-21 03:00:00,-2,1023.1,-0.2,93,-3,12000,0,,,0,,,,,,,,,,,wg-a,,,,AAXX 21034 07460 12/62 00000 11020 21030 39818 40231 58002 60006 80000 90300=
07460,1997-03-21 06:00:00,-3,1023.7,0.4,86,-5,8000,3.704,,,30,-3.6,8,,,,,,,,11,wg-a,,,,AAXX 21064 07460 02/58 /0302 11030 21050 39822 40237 53004 60006 71100 80001 90600 333 10080 21036 60004=
07460,1997-03-21 09:00:00,5,1023.2,0.8,70,0,15000,0,,,0,,,,,,,,,,,wg-a,,,,AAXX 21094 07460 12/65 20000 10050 20000 39830 40232 51008 60006 80001 90900=
07460,1997-03-21 12:00:00,12,1021.6,-0.6,40,-1,25000,7.408,,,20,,,,,,,,,,,wg-a,,,,AAXX 21124 07460 12/75 20204 10120 21010 39824 40216 58006 60006 80001 91200=
07460,1997-03-21 15:00:00,14,1020.4,-1,38,0,25000,18.52,,,30,,,,,,,,,,,wg-a,,,,AAXX 21154 07460 12/75 70310 10140 20000 39814 40204 56010 60006 80001 91500=
07460,1997-03-21 18:00:00,11,1021.3,0.6,47,0,500,14.816,,,30,-3.5,14,,,,,,,,,wg-a,,,,AAXX 21184 07460 12/00 70308 10110 20000 39820 40213 53006 60006 80002 91800 333 10140 21035=
07460,1997-03-21 21:00:00,4,1023.4,1,65,-2,15000,0,,,0,,,,,,,,,,,wg-a,,,,AAXX 21214 07460 12/65 50000 10040 21020 39830 40234 51010 60006 80001 92100=
07460,1997-03-22 00:00:00,6,1023.4,0.4,87,4,8000,7.408,,,360,,,,,,,,,,,wg-a,,,,AAXX 22004 07460 12/58 /3604 10060 20040 39834 40234 51004 60006 80001 90000=
07460,1997-03-22 06:00:00,1,1024.8,0.6,93,0,4000,3.704,,,120,0.9,11,,,,,,,,10,wg-a,,,,AAXX 22064 07460 02/40 /1202 10010 20000 39840 40248 52006 60006 71000 80001 90600 333 10110 20009 60004=
07460,1997-03-22 09:00:00,5,1025.3,1,81,2,8000,7.408,,,20,,,,,,,,,,,wg-a,,,,AAXX 22094 07460 12458 /0204 10050 20020 39850 40253 51010 60006 81101 90900=
07460,1997-03-22 12:00:00,10,1023.4,-1.1,50,0,20000,11.112,,,360,,,,,,,,,,,wg-a,,,,AAXX 22124 07460 12/70 13606 10100 20000 39839 40234 56011 60006 80001 91200=
07460,1997-03-22 15:00:00,13,1022,-1.2,38,-1,25000,11.112,,,20,,,,,,,,,,,wg-a,,,,AAXX 22154 07460 12/75 30206 10130 21010 39828 40220 56012 60006 80001 91500=
07460,1997-03-22 18:00:00,10,1022.2,-0.1,43,-2,500,7.408,,,20,1,12.9,,,,,,,,,wg-a,,,,AAXX 22184 07460 12/00 20204 10100 21020 39827 40222 55001 60006 80001 91800 333 10129 20010=
07460,1997-03-22 21:00:00,2,1023.5,0.1,69,-3,20000,11.112,,,250,,,,,,,,,,,wg-a,,,,AAXX 22214 07460 12/70 12506 10020 21030 39828 40235 50001 60006 80001 92100=
07460,1997-03-23 00:00:00,0,1023.1,-0.7,74,-4,20000,3.704,,,250,,,,,,,,,,,wg-a,,,,AAXX 23004 07460 12/70 12502 10000 21040 39821 40231 58007 60006 80001 90000=
07460,1997-03-23 03:00:00,1,1021.6,-1.4,69,-4,15000,11.112,,,180,,,,,,,,,,,wg-a,,,,AAXX 23034 07460 12/65 11806 10010 21040 39807 40216 56014 60006 80001 90300=
07460,1997-03-23 06:00:00,4,1019.1,-1.9,56,-4,25000,11.112,,,170,-0.8,10.1,,,,,,,,,wg-a,,,,AAXX 23064 07460 02/75 61706 10040 21040 39788 40191 56019 60006 80001 90600 333 10101 21008 60004=
07460,1997-03-23 09:00:00,8,1017.5,-0.9,49,-2,25000,14.816,,,160,,,,,,,,,,,wg-a,,,,AAXX 23094 07460 12/75 71608 10080 21020 39779 40175 58009 60006 80002 90900=
07460,1997-03-23 12:00:00,17,1014.5,-1.8,25,-3,500,7.408,,,200,,,,,,,,,,,wg-a,,,,AAXX 23124 07460 12/00 72004 10170 21030 39761 40145 58018 60006 80002 91200=
07460,1997-03-23 15:00:00,18,1012.2,-1.9,18,-7,500,18.52,,,260,,,,,,,,,,,wg-a,,,,AAXX 23154 07460 12/00 72610 10180 21070 39741 40122 57019 60006 84032 91500=
07460,1997-03-23 18:00:00,15,1012.4,-0.2,31,-2,500,14.816,,,240,2.6,18.5,,,,,,,,,wg-a,,,,AAXX 23184 07460 12600 72408 10150 21020 39739 40124 57002 60006 82532 91800 333 10185 20026=
07460,1997-03-23 21:00:00,11,1014,1.1,47,0,20000,18.52,,,300,,,,,,,,,,,wg-a,,,,AAXX 23214 07460 12770 /3010 10110 20000 39750 40140 53011 60006 81539 92100=
07460,1997-03-24 00:00:00,9,1012.6,-1.7,53,0,15000,7.408,,,290,,,,,,,,,,,wg-a,,,,AAXX 24004 07460 12765 32904 10090 20000 39733 40126 58017 60006 81531 90000=
07460,1997-03-24 03:00:00,9,1011.9,-0.5,66,3,12000,11.112,,,310,,,,,,,,,,,wg-a,,,,AAXX 24034 07460 12562 73106 10090 20030 39727 40119 58005 60006 865// 90300=
07460,1997-03-24 06:00:00,7,1012.9,0.7,76,3,15000,14.816,,,10,7.2,15,,,,,,,,,wg-a,,,,AAXX 24064 07460 02565 70108 10070 20030 39734 40129 53007 60006 878// 90600 333 10150 20072 60004=
07460,1997-03-24 09:00:00,10,1013.1,0.5,57,2,20000,18.52,,,50,,,,,,,,,,,wg-a,,,,AAXX 24094 07460 12570 60510 10100 20020 39739 40131 51005 60006 86832 90900=
07460,1997-03-24 12:00:00,12,1012,-0.7,44,0,25000,7.408,,,340,,,,,,,,,,,wg-a,,,,AAXX 24124 07460 12675 43404 10120 20000 39732 40120 58007 60006 84830 91200=
07460,1997-03-24 15:00:00,12,1010.8,-1.2,44,0,25000,14.816,,,80,,,,,,,,,,,wg-a,,,,AAXX 24154 07460 12675 70808 10120 20000 39720 40108 56012 60006 8483/ 91500=
07460,1997-03-24 18:00:00,11,1010.8,-0.1,50,1,20000,11.112,,,80,7.1,13.2,,,,,,,,,wg-a,,,,AAXX 24184 07460 12770 /0806 10110 20010 39719 40108 55001 60006 8253/ 91800 333 10132 20071=
07460,1997-03-24 21:00:00,10,1011.9,0.9,57,2,15000,7.408,,,350,,,,,,,,,,,wg-a,,,,AAXX 24214 07460 12665 73504 10100 20020 39728 40119 51009 60006 8253/ 92100=
07460,1997-03-25 00:00:00,9,1012.7,0.6,66,3,14000,7.408,,,350,,,,,,,,,,,wg-a,,,,AAXX 25004 07460 12664 73504 10090 20030 39734 40127 50006 60006 875// 90000=
07460,1997-03-25 03:00:00,9,1013.6,0.8,66,3,13000,7.408,,,340,,,,,,,,,,,wg-a,,,,AAXX 25034 07460 12663 73404 10090 20030 39742 40136 52008 60006 875// 90300=
07460,1997-03-25 06:00:00,8,1015.6,1.8,76,4,13000,3.704,,,130,7.5,10.8,,,,,,,,,wg-a,,,,AAXX 25064 07460 02563 81302 10080 20040 39760 40156 52018 60006 885// 90600 333 10108 20075 60004=
07460,1997-03-25 09:00:00,9,1016.9,1.5,76,5,20000,3.704,,,60,,,,,,,,,,,wg-a,,,,AAXX 25094 07460 12570 80602 10090 20050 39775 40169 51015 60006 885// 90900=
07460,1997-03-25 12:00:00,10,1017.6,0.7,71,5,20000,18.52,,,340,,,,,,,,,,,wg-a,,,,AAXX 25124 07460 12570 83410 10100 20050 39783 40176 53007 60006 888// 91200=
07460,1997-03-25 15:00:00,11,1017.6,0.1,58,3,15000,18.52,,,350,,,,,,,,,,,wg-a,,,,AAXX 25154 07460 12665 83510 10110 20030 39784 40176 53001 60006 888// 91500=
07460,1997-03-25 18:00:00,10,1019.2,1.4,66,4,12000,11.112,,,340,7.5,11.1,,,,,,,,,wg-a,,,,AAXX 25184 07460 12562 73406 10100 20040 39798 40192 53014 60006 878// 91800 333 10111 20075=
07460,1997-03-25 21:00:00,8,1021.3,1.8,81,5,14000,3.704,,,310,,,,,,,,,,1,wg-a,,,,AAXX 25214 07460 02564 /3102 10080 20050 39816 40213 51018 61000 70186 85830 92100 333 ////=
07460,1997-03-26 00:00:00,3,1022.5,0.4,87,1,11000,3.704,,,120,,,,,,,,,,1,wg-a,,,,AAXX 26004 07460 02/61 21202 10030 20010 39820 40225 51004 61000 70186 82030 90000 333 ////=
07460,1997-03-26 03:00:00,4,1022.7,0.4,100,4,9000,0,,,0,,,,,,,,,,,wg-a,,,,AAXX 26034 07460 12559 /0000 10040 20040 39824 40227 52004 60006 86500 90300=
07460,1997-03-26 06:00:00,2,1024.7,1.5,93,1,3500,3.704,,,20,1.2,10,,,,,,,,10,wg-a,,,,AAXX 26064 07460 02/35 /0202 10020 20010 39839 40247 53015 60006 71011 81031 90600 333 10100 20012 61000=
07460,1997-03-26 12:00:00,14,1023.1,0.4,47,3,15000,7.408,,,30,,,,,,,,,,1,wg-a,,,,AAXX 26124 07460 12565 40304 10140 20030 39841 40231 53004 60006 70140 82201 91200=
07460,1997-03-26 18:00:00,14,1022.8,0.8,47,3,15000,7.408,,,40,0.9,16.2,,,,,,,,,wg-a,,,,AAXX 26184 07460 12/65 50404 10140 20030 39838 40228 53008 60006 81032 91800 333 10162 20009=
07460,1997-03-26 21:00:00,8,1024.9,1.2,66,2,10000,3.704,,,100,,,,,,,,,,,wg-a,,,,AAXX 26214 07460 12/60 51002 10080 20020 39850 40249 53012 60006 80001 92100=
07460,1997-03-27 00:00:00,6,1025.7,0.6,81,3,10000,3.704,,,240,,,,,,,,,,,wg-a,,,,AAXX 27004 07460 12/60 72402 10060 20030 39856 40257 52006 60006 8703/ 90000=
07460,1997-03-27 03:00:00,8,1025.2,-0.3,71,3,10000,3.704,,,30,,,,,,,,,,,wg-a,,,,AAXX 27034 07460 12760 70302 10080 20030 39853 40252 58003 60006 875// 90300=
07460,1997-03-27 06:00:00,9,1025.8,0.7,61,2,15000,3.704,,,150,5.5,14,,,,,,,,,wg-a,,,,AAXX 27064 07460 02665 81502 10090 20020 39860 40258 53007 60006 885// 90600 333 10140 20055 60004=
07460,1997-03-27 09:00:00,13,1026,0.7,54,4,18000,3.704,,,260,,,,,,,,,,,wg-a,,,,AAXX 27094 07460 12568 /2602 10130 20040 39867 40260 51007 60006 86500 90900=
07460,1997-03-27 12:00:00,17,1023.9,-1.4,52,7,20000,7.408,,,50,,,,,,,,,,,wg-a,,,,AAXX 27124 07460 12670 /0504 10170 20070 39853 40239 57014 60006 83542 91200=
07460,1997-03-27 15:00:00,19,1021.9,-1.5,52,9,25000,14.816,,,30,,,,,,,,,,,wg-a,,,,AAXX 27154 07460 12675 50308 10190 20090 39837 40219 57015 60006 83530 91500=
07460,1997-03-27 18:00:00,17,1022,-0.2,63,10,20000,7.408,,,30,8.6,19.7,,,,,,,,,wg-a,,,,AAXX 27184 07460 12670 20304 10170 20100 39835 40220 56002 60006 82500 91800 333 10197 20086=
07460,1997-03-27 21:00:00,12,1023,0.3,82,9,15000,3.704,,,240,,,,,,,,,,,wg-a,,,,AAXX 27214 07460 12665 32402 10120 20090 39838 40230 52003 60006 83500 92100=
07460,1997-03-28 00:00:00,12,1021.8,-1.2,82,9,12000,3.704,,,160,,,,,,,,,,,wg-a,,,,AAXX 28004 07460 12462 /1602 10120 20090 39826 40218 58012 60006 86500 90000=
07460,1997-03-28 03:00:00,11,1020.3,-1.5,87,9,11000,3.704,,,140,,,,,,,,,,,wg-a,,,,AAXX 28034 07460 12/61 /1402 10110 20090 39811 40203 58015 60006 90300=
07460,1997-03-28 06:00:00,9,1019.9,-0.6,93,8,8000,0,,,0,9.4,16.7,,,,,,,,,wg-a,,,,AAXX 28064 07460 02458 70000 10090 20080 39805 40199 57006 60006 8653/ 90600 333 10167 20094 60004=
07460,1997-03-28 09:00:00,13,1020.1,0.7,82,10,15000,7.408,,,330,,,,,,,,,,,wg-a,,,,AAXX 28094 07460 12465 73304 10130 20100 39811 40201 51007 60006 8653/ 90900=
07460,1997-03-28 12:00:00,14,1020,-0,51,4,10000,25.928,,,340,,,,,,,,,,,wg-a,,,,AAXX 28124 07460 12560 83414 10140 20040 39811 40200 55000 60006 8/800 91200=
07460,1997-03-28 15:00:00,13,1020.4,0.1,38,-1,50000,25.928,,,360,,,,,,,,,,,wg-a,,,,AAXX 28154 07460 12784 23614 10130 21010 39813 40204 50001 60006 82200 91500=
07460,1997-03-28 18:00:00,10,1021.7,1,37,-4,60000,22.224,,,350,9.4,13.9,,,,,,,,,wg-a,,,,AAXX 28184 07460 12786 33512 10100 21040 39822 40217 51010 60006 834/0 91800 333 10139 20094=
07460,1997-03-28 21:00:00,7,1023.9,1.7,45,-4,10000,14.816,,,350,,,,,,,,,,,wg-a,,,,AAXX 28214 07460 12/60 /3508 10070 21040 39839 40239 51017 60006 92100=
07460,1997-03-29 00:00:00,6,1024.9,0.7,49,-4,20000,14.816,,,340,,,,,,,,,,,wg-a,,,,AAXX 29004 07460 12770 13408 10060 21040 39846 40249 53007 60006 81500 90000=
07460,1997-03-29 03:00:00,0,1026,0.3,69,-5,15000,0,,,0,,,,,,,,,,,wg-a,,,,AAXX 29034 07460 12/65 00000 10000 21050 39849 40260 51003 60006 80000 90300=
07460,1997-03-29 06:00:00,-3,1027,0.5,86,-5,18000,7.408,,,20,-3.5,10.3,,,,,,,,,wg-a,,,,AAXX 29064 07460 02668 20204 11030 21050 39854 40270 53005 60006 82500 90600 333 10103 21035 60004=
07460,1997-03-29 09:00:00,7,1025.8,0.3,61,0,14000,14.816,,,20,,,,,,,,,,,wg-a,,,,AAXX 29094 07460 12664 /0208 10070 20000 39857 40258 51003 60006 81100 90900=
07460,1997-03-29 12:00:00,10,1024.6,-0.8,40,-3,500,22.224,,,30,,,,,,,,,,,wg-a,,,,AAXX 29124 07460 12700 40312 10100 21030 39849 40246 58008 60006 84100 91200=
07460,1997-03-29 15:00:00,10,1023.6,-0.9,37,-4,500,22.224,,,10,,,,,,,,,,,wg-a,,,,AAXX 29154 07460 12700 40112 10100 21040 39840 40236 57009 60006 84100 91500=
07460,1997-03-29 18:00:00,9,1024.1,0.3,43,-3,500,18.52,,,360,-3.1,11,,,,,,,,,wg-a,,,,AAXX 29184 07460 12700 43610 10090 21030 39843 40241 53003 60006 84400 91800 333 10110 21031=
07460,1997-03-29 21:00:00,6,1024.9,0.4,52,-3,15000,3.704,,,30,,,,,,,,,,,wg-a,,,,AAXX 29214 07460 12765 20302 10060 21030 39847 40249 53004 60006 82500 92100=
07460,1997-03-30 00:00:00,3,1025.3,0,65,-3,15000,0,,,0,,,,,,,,,,,wg-a,,,,AAXX 30004 07460 12765 /0000 10030 21030 39847 40253 50000 60006 85500 90000=
07460,1997-03-30 03:00:00,5,1025,0,65,-1,15000,14.816,,,350,,,,,,,,,,,wg-a,,,,AAXX 30034 07460 12665 33508 10050 21010 39847 40250 50000 60006 83500 90300=
07460,1997-03-30 06:00:00,3,1026.2,1,81,0,10000,11.112,,,340,2.4,8.8,,,,,,,,,wg-a,,,,AAXX 30064 07460 02660 /3406 10030 20000 39856 40262 53010 60006 81500 90600 333 10088 20024 60004=
07460,1997-03-30 09:00:00,8,1025.7,0.1,61,1,18000,14.816,,,10,,,,,,,,,,,wg-a,,,,AAXX 30094 07460 12668 /0108 10080 20010 39857 40257 52001 60006 81100 90900=
07460,1997-03-30 12:00:00,12,1024.3,-0.8,47,1,25000,25.928,,,20,,,,,,,,,,,wg-a,,,,AAXX 30124 07460 12675 30214 10120 20010 39849 40243 56008 60006 83100 91200=
07460,1997-03-30 15:00:00,12,1023.4,-0.8,44,0,25000,22.224,,,20,,,,,,,,,,,wg-a,,,,AAXX 30154 07460 12775 /0212 10120 20000 39841 40234 56008 60006 85100 91500=
07460,1997-03-30 18:00:00,11,1023.6,0.1,43,-1,40000,25.928,,,40,3.3,12.9,,,,,,,,,wg-a,,,,AAXX 30184 07460 12682 /0414 10110 21010 39841 40236 53001 60006 81800 91800 333 10129 20033=
07460,1997-03-30 21:00:00,7,1024.5,0.4,61,0,10000,11.112,,,340,,,,,,,,,,,wg-a,,,,AAXX 30214 07460 12/60 /3406 10070 20000 39845 40245 52004 60006 92100=
07460,1997-03-31 00:00:00,5,1024.6,-0.2,70,0,500,11.112,,,320,,,,,,,,,,,wg-a,,,,AAXX 31004 07460 12/00 03206 10050 20000 39843 40246 57002 60006 80000 90000=
07460,1997-03-31 06:00:00,0,1025,0.2,93,-1,25000,3.704,,,360,-1.3,10.7,,,,,,,,,wg-a,,,,AAXX 31064 07460 02675 /3602 10000 21010 39839 40250 53002 60006 81500 90600 333 10107 21013 60004=
07460,1997-03-31 09:00:00,7,1024.4,0.5,70,2,25000,3.704,,,60,,,,,,,,,,,wg-a,,,,AAXX 31094 07460 12775 /0602 10070 20020 39844 40244 51005 60006 81100 90900=
07460,1997-03-31 12:00:00,13,1022.4,-1.2,41,0,25000,7.408,,,70,,,,,,,,,,,wg-a,,,,AAXX 31124 07460 12/75 00704 10130 20000 39832 40224 58012 60006 80000 91200=
07460,1997-03-31 15:00:00,16,1020.3,-1.5,39,2,25000,14.816,,,20,,,,,,,,,,,wg-a,,,,AAXX 31154 07460 12/75 00208 10160 20020 39817 40203 56015 60006 80000 91500=
07460,1997-03-31 18:00:00,14,1020.4,-0.1,44,2,25000,14.816,,,360,-1.1,16.1,,,,,,,,,wg-a,,,,AAXX 31184 07460 12/75 03608 10140 20020 39815 40204 55001 60006 80000 91800 333 10161 21011=
07460,1997-03-31 21:00:00,9,1021.7,0.5,57,1,25000,0,,,0,,,,,,,,,,,wg-a,,,,AAXX 31214 07460 12/75 00000 10090 20010 39820 40217 51005 60006 80000 92100=
07460,1997-04-01 00:00:00,5,1021.9,-0.4,75,1,20000,3.704,,,360,,,,,,,,,,,wg-a,,,,AAXX 01004 07460 12/70 03602 10050 20010 39816 40219 58004 60006 80000 90000=
07460,1997-04-01 03:00:00,2,1021.7,-0.5,87,0,20000,0,,,0,,,,,,,,,,,wg-a,,,,AAXX 01034 07460 12/70 00000 10020 20000 39811 40217 56005 60006 80000 90300=
07460,1997-04-01 06:00:00,3,1022.2,0.6,81,0,25000,3.704,,,20,1.2,13.6,,,,,,,,,wg-a,,,,AAXX 01064 07460 02/75 00202 10030 20000 39817 40222 53006 60006 80000 90600 333 10136 20012 60004=
07460,1997-04-01 09:00:00,11,1021,0,58,3,25000,3.704,,,150,,,,,,,,,,,wg-a,,,,AAXX 01094 07460 12/75 01502 10110 20030 39817 40210 50000 60006 80000 90900=
07460,1997-04-01 12:00:00,17,1018.9,-1.2,34,1,25000,11.112,,,30,,,,,,,,,,,wg-a,,,,AAXX 01124 07460 12/75 00306 10170 20010 39805 40189 58012 60006 80000 91200=
07460,1997-04-01 15:00:00,19,1017.1,-1.5,32,2,35000,22.224,,,20,,,,,,,,,,,wg-a,,,,AAXX 01154 07460 12/81 00212 10190 20020 39790 40171 56015 60006 80000 91500=
07460,1997-04-01 18:00:00,17,1017.3,-0.1,34,1,35000,14.816,,,20,3,19.4,,,,,,,,,wg-a,,,,AAXX 01184 07460 12/81 10208 10170 20010 39789 40173 55001 60006 80001 91800 333 10194 20030=
07460,1997-04-01 21:00:00,7,1019.2,0.5,61,0,500,3.704,,,230,,,,,,,,,,,wg-a,,,,AAXX 01214 07460 12/00 02302 10070 20000 39794 40192 50005 60006 80000 92100=
07460,1997-04-02 00:00:00,4,1019.8,0.1,70,-1,20000,3.704,,,280,,,,,,,,,,,wg-a,,,,AAXX 02004 07460 12/70 02802 10040 21010 39795 40198 53001 60006 80000 90000=
07460,1997-04-02 03:00:00,3,1019.3,-0.7,75,-1,20000,3.704,,,130,,,,,,,,,,,wg-a,,,,AAXX 02034 07460 12/70 01302 10030 21010 39788 40193 56007 60006 80000 90300=
07460,1997-04-02 06:00:00,2,1020,0.6,87,0,500,3.704,,,310,0.7,16.9,,,,,,,,,wg-a,,,,AAXX 02064 07460 02/00 03102 10020 20000 39794 40200 51006 60006 80000 90600 333 10169 20007 60004=
07460,1997-04-02 12:00:00,19,1016.8,-1.1,34,3,25000,14.816,,,50,,,,,,,,,,,wg-a,,,,AAXX 02124 07460 12/75 00508 10190 20030 39787 40168 58011 60006 80000 91200=
07460,1997-04-02 18:00:00,18,1016,0.4,34,2,25000,11.112,,,350,1.7,20.6,,,,,,,,,wg-a,,,,AAXX 02184 07460 12/75 03506 10180 20020 39778 40160 53004 60006 80000 91800 333 10206 20017=
07460,1997-04-02 21:00:00,9,1018.4,1.1,61,2,20000,3.704,,,190,,,,,,,,,,,wg-a,,,,AAXX 02214 07460 12/70 01902 10090 20020 39789 40184 51011 60006 80000 92100=
07460,1997-04-03 00:00:00,5,1018.9,0,75,1,20000,7.408,,,260,,,,,,,,,,,wg-a,,,,AAXX 03004 07460 12/70 02604 10050 20010 39789 40189 50000 60006 80000 90000=
07460,1997-04-03 03:00:00,4,1018.7,-0.4,81,1,15000,0,,,0,,,,,,,,,,,wg-a,,,,AAXX 03034 07460 12/65 00000 10040 20010 39785 40187 56004 60006 80000 90300=
07460,1997-04-03 06:00:00,3,1019.2,0.3,81,0,15000,0,,,0,1.7,17.8,,,,,,,,,wg-a,,,,AAXX 03064 07460 02/65 00000 10030 20000 39788 40192 53003 60006 80000 90600 333 10178 20017 60004=
07460,1997-04-03 09:00:00,14,1018,0.5,55,5,15000,3.704,,,100,,,,,,,,,,,wg-a,,,,AAXX 03094 07460 12565 /1002 10140 20050 39793 40180 51005 60006 81100 90900=
07460,1997-04-03 12:00:00,19,1016.3,-1,37,4,15000,14.816,,,340,,,,,,,,,,,wg-a,,,,AAXX 03124 07460 12665 23408 10190 20040 39783 40163 58010 60006 82200 91200=
07460,1997-04-03 15:00:00,19,1015.1,-1.2,32,2,18000,18.52,,,320,,,,,,,,,,,wg-a,,,,AAXX 03154 07460 12768 /3210 10190 20020 39771 40151 56012 60006 85200 91500=
07460,1997-04-03 18:00:00,17,1016.3,0.9,42,4,11000,14.816,,,340,2.8,20.5,,,,,,,,,wg-a,,,,AAXX 03184 07460 12/61 /3408 10170 20040 39779 40163 53009 60006 91800 333 10205 20028=
07460,1997-04-04 00:00:00,11,1020.3,0.6,62,4,15000,11.112,,,340,,,,,,,,,,,wg-a,,,,AAXX 04004 07460 12665 73406 10110 20040 39810 40203 51006 60006 875// 90000=
07460,1997-04-04 03:00:00,10,1021,0.6,66,4,12000,14.816,,,340,,,,,,,,,,,wg-a,,,,AAXX 04034 07460 12562 73408 10100 20040 39815 40210 53006 60006 875// 90300=
07460,1997-04-04 06:00:00,8,1023.1,1.7,71,3,12000,18.52,,,340,8.1,16.6,,,,,,,,,wg-a,,,,AAXX 04064 07460 02562 73410 10080 20030 39833 40231 53017 60006 875// 90600 333 10166 20081 60004=
07460,1997-04-04 09:00:00,9,1024.9,1.9,57,1,12000,22.224,,,10,,,,,,,,,,,wg-a,,,,AAXX 04094 07460 12562 60112 10090 20010 39852 40249 51019 60006 86800 90900=
07460,1997-04-04 12:00:00,11,1024.7,0,40,-2,20000,25.928,,,350,,,,,,,,,,,wg-a,,,,AAXX 04124 07460 12670 43514 10110 21020 39852 40247 50000 60006 84200 91200=
07460,1997-04-04 18:00:00,10,1025.6,0.7,37,-4,500,22.224,,,350,7.5,12.8,,,,,,,,,wg-a,,,,AAXX 04184 07460 12600 23512 10100 21040 39859 40256 51007 60006 82501 91800 333 10128 20075=
07460,1997-04-04 21:00:00,7,1027.5,1.4,49,-3,20000,14.816,,,350,,,,,,,,,,,wg-a,,,,AAXX 04214 07460 12/70 03508 10070 21030 39873 40275 51014 60006 80000 92100=
07460,1997-04-05 00:00:00,5,1028.2,0.4,56,-3,20000,3.704,,,110,,,,,,,,,,,wg-a,,,,AAXX 05004 07460 12/70 01102 10050 21030 39877 40282 52004 60006 80000 90000=
07460,1997-04-05 03:00:00,1,1028,-0.8,64,-5,20000,0,,,0,,,,,,,,,,,wg-a,,,,AAXX 05034 07460 12/70 10000 10010 21050 39869 40280 57008 60006 80001 90300=
07460,1997-04-05 06:00:00,-1,1028.7,0.4,86,-3,25000,0,,,0,-2.8,9.5,,,,,,,,,wg-a,,,,AAXX 05064 07460 02/75 30000 11010 21030 39873 40287 53004 60006 80001 90600 333 10095 21028 60004=
07460,1997-04-05 09:00:00,9,1027.8,0.7,37,-5,500,3.704,,,30,,,,,,,,,,,wg-a,,,,AAXX 05094 07460 12/00 50302 10090 21050 39879 40278 51007 60006 81031 90900=
07460,1997-04-05 12:00:00,13,1024.9,-2.2,30,-4,35000,7.408,,,80,,,,,,,,,,,wg-a,,,,AAXX 05124 07460 12/81 60804 10130 21040 39857 40249 58022 60006 80002 91200=
07460,1997-04-05 15:00:00,16,1021.9,-2.7,34,0,40000,11.112,,,90,,,,,,,,,,,wg-a,,,,AAXX 05154 07460 12/82 60906 10160 20000 39832 40219 58027 60006 80002 91500=
07460,1997-04-05 18:00:00,15,1021.1,-0.8,41,2,35000,11.112,,,320,-1.1,16.4,,,,,,,,,wg-a,,,,AAXX 05184 07460 12/81 23206 10150 20020 39823 40211 57008 60006 80002 91800 333 10164 21011=
07460,1997-04-05 21:00:00,10,1023,1.1,53,1,35000,3.704,,,100,,,,,,,,,,,wg-a,,,,AAXX 05214 07460 12/81 21002 10100 20010 39834 40230 51011 60006 80002 92100=
07460,1997-04-06 00:00:00,10,1023.3,0.3,66,4,20000,7.408,,,340,,,,,,,,,,,wg-a,,,,AAXX 06004 07460 12/70 23404 10100 20040 39837 40233 53003 60006 80002 90000=
07460,1997-04-06 03:00:00,9,1022.5,-0.8,76,5,15000,7.408,,,30,,,,,,,,,,,wg-a,,,,AAXX 06034 07460 12565 /0304 10090 20050 39829 40225 56008 60006 86500 90300=
07460,1997-04-06 06:00:00,9,1022.9,0.3,76,5,15000,14.816,,,340,5.9,14.7,,,,,,,,,wg-a,,,,AAXX 06064 07460 02565 73408 10090 20050 39832 40229 53003 60006 875// 90600 333 10147 20059 60004=
07460,1997-04-06 09:00:00,9,1023.6,0.8,81,6,15000,14.816,,,350,,,,,,,,,,,wg-a,,,,AAXX 06094 07460 12565 83508 10090 20060 39840 40236 53008 60006 885// 90900=
07460,1997-04-06 12:00:00,10,1024.1,0.6,82,7,15000,14.816,,,20,,,,,,,,,,,wg-a,,,,AAXX 06124 07460 12465 80208 10100 20070 39846 40241 52006 60006 885// 91200=
07460,1997-04-06 15:00:00,12,1022.7,-1.1,76,8,7000,11.112,,,10,,,,,,,,,,,wg-a,,,,AAXX 06154 07460 12457 /0106 10120 20080 39835 40227 58011 60006 86500 91500=
07460,1997-04-06 18:00:00,12,1022,-0.7,71,7,10000,0,,,0,8.6,13.5,,,,,,,,,wg-a,,,,AAXX 06184 07460 12560 30000 10120 20070 39828 40220 56007 60006 83100 91800 333 10135 20086=
07460,1997-04-06 21:00:00,10,1023.6,1.2,66,4,15000,14.816,,,350,,,,,,,,,,,wg-a,,,,AAXX 06214 07460 12665 23508 10100 20040 39840 40236 53012 60006 82800 92100=
07460,1997-04-07 00:00:00,7,1024.7,0.5,57,-1,0,11.112,,,20,,,,,,,,,,,wg-a,,,,AAXX 07004 07460 12/// /0206 10070 21010 39846 40247 53005 60006 90000=
07460,1997-04-07 03:00:00,3,1025.1,-0.1,70,-2,20000,7.408,,,330,,,,,,,,,,,wg-a,,,,AAXX 07034 07460 12/70 03304 10030 21020 39845 40251 58001 60006 80000 90300=
07460,1997-04-07 06:00:00,2,1025.7,0.4,69,-3,40000,7.408,,,320,1.1,12,,,,,,,,,wg-a,,,,AAXX 07064 07460 02/82 03204 10020 21030 39849 40257 53004 60006 80000 90600 333 10120 20011 60004=
07460,1997-04-07 12:00:00,14,1023,-1.1,33,-2,40000,14.816,,,20,,,,,,,,,,,wg-a,,,,AAXX 07124 07460 12/82 10208 10140 21020 39840 40230 58011 60006 80001 91200=
07460,1997-04-07 18:00:00,14,1021.8,0.1,28,-4,40000,18.52,,,30,2,17.1,,,,,,,,,wg-a,,,,AAXX 07184 07460 12/82 20310 10140 21040 39829 40218 53001 60006 80001 91800 333 10171 20020=
07460,1997-04-07 21:00:00,9,1023.4,0.7,37,-5,20000,11.112,,,340,,,,,,,,,,,wg-a,,,,AAXX 07214 07460 12/70 23406 10090 21050 39836 40234 51007 60006 80001 92100=
07460,1997-04-08 00:00:00,3,1024.5,0.2,56,-5,20000,7.408,,,240,,,,,,,,,,,wg-a,,,,AAXX 08004 07460 12/70 22404 10030 21050 39838 40245 53002 60006 80001 90000=
07460,1997-04-08 06:00:00,1,1025.9,0.5,80,-2,20000,3.704,,,150,-1.6,14.4,,,,,,,,,wg-a,,,,AAXX 08064 07460 02/70 31502 10010 21020 39849 40259 53005 60006 80001 90600 333 10144 21016 60004=
07460,1997-04-08 09:00:00,14,1023.3,-0.6,38,0,25000,25.928,,,190,,,,,,,,,,,wg-a,,,,AAXX 08094 07460 12/75 21914 10140 20000 39843 40233 58006 60006 80002 90900=
07460,1997-04-08 12:00:00,20,1021.7,-0.7,21,-3,25000,7.408,,,100,,,,,,,,,,,wg-a,,,,AAXX 08124 07460 12/75 11004 10200 21030 39836 40217 58007 60006 80002 91200=
07460,1997-04-08 15:00:00,22,1020.1,-1.4,20,-2,25000,7.408,,,140,,,,,,,,,,,wg-a,,,,AAXX 08154 07460 12775 11404 10220 21020 39822 40201 56014 60006 81102 91500=
07460,1997-04-08 18:00:00,20,1020.7,0.3,23,-2,25000,11.112,,,20,2.5,22.3,,,,,,,,,wg-a,,,,AAXX 08184 07460 12/75 20206 10200 21020 39825 40207 53003 60006 80002 91800 333 10223 20025=
07460,1997-04-08 21:00:00,13,1023.5,1.9,47,2,25000,29.632,,,190,,,,,,,,,,,wg-a,,,,AAXX 08214 07460 12/75 21916 10130 20020 39844 40235 51019 60006 80002 92100=
07460,1997-04-09 00:00:00,10,1025.4,1.3,62,3,20000,25.928,,,200,,,,,,,,,,,wg-a,,,,AAXX 09004 07460 12/70 22014 10100 20030 39858 40254 53013 60006 80002 90000=
07460,1997-04-09 03:00:00,8,1026.5,0.8,61,1,20000,11.112,,,180,,,,,,,,,,,wg-a,,,,AAXX 09034 07460 12/70 21806 10080 20010 39865 40265 51008 60006 80002 90300=
07460,1997-04-09 06:00:00,7,1028.1,1.4,66,1,15000,7.408,,,190,6.6,19.6,,,,,,,,,wg-a,,,,AAXX 09064 07460 02/65 21904 10070 20010 39879 40281 53014 60006 80002 90600 333 10196 20066 60004=
07460,1997-04-09 09:00:00,13,1028.2,1,51,3,15000,14.816,,,180,,,,,,,,,,,wg-a,,,,AAXX 09094 07460 12/65 21808 10130 20030 39889 40282 51010 60006 80002 90900=
07460,1997-04-09 12:00:00,19,1026.5,-0.9,30,1,25000,11.112,,38.892,140,,,,,,,,,,,wg-a,,,,AAXX 09124 07460 12/75 21406 10190 20010 39880 40265 58009 60006 80002 91200 333 91021=
07460,1997-04-09 15:00:00,22,1025.2,-0.9,27,2,25000,11.112,,,120,,,,,,,,,,,wg-a,,,,AAXX 09154 07460 12775 21206 10220 20020 39871 40252 58009 60006 81101 91500=
07460,1997-04-09 18:00:00,19,1025.7,0.2,34,3,25000,11.112,,,30,6.7,21.7,,,,,,,,,wg-a,,,,AAXX 09184 07460 12/75 20306 10190 20030 39873 40257 53002 60006 80001 91800 333 10217 20067=
07460,1997-04-09 21:00:00,12,1028.4,1.6,54,3,20000,3.704,,,320,,,,,,,,,,,wg-a,,,,AAXX 09214 07460 12/70 03202 10120 20030 39889 40284 51016 60006 80000 92100=
07460,1997-04-10 00:00:00,12,1029.3,1,50,2,20000,0,,,0,,,,,,,,,,,wg-a,,,,AAXX 10004 07460 12/70 00000 10120 20020 39898 40293 52010 60006 80000 90000=
07460,1997-04-10 03:00:00,10,1029.9,0,53,1,20000,14.816,,,200,,,,,,,,,,,wg-a,,,,AAXX 10034 07460 12/70 12008 10100 20010 39900 40299 50000 60006 80001 90300=
07460,1997-04-10 06:00:00,8,1030.9,0.8,66,2,500,3.704,,,20,7.1,19.1,,,,,,,,,wg-a,,,,AAXX 10064 07460 02/00 10202 10080 20020 39907 40309 53008 60006 80001 90600 333 10191 20071 60004=
07460,1997-04-10 09:00:00,15,1030.1,0.2,48,4,500,3.704,,,290,,,,,,,,,,,wg-a,,,,AAXX 10094 07460 12/00 22902 10150 20040 39909 40301 51002 60006 80001 90900=
07460,1997-04-10 12:00:00,20,1027.5,-1.7,35,4,500,14.816,,,20,,,,,,,,,,,wg-a,,,,AAXX 10124 07460 12/00 10208 10200 20040 39892 40275 58017 60006 80001 91200=
07460,1997-04-10 15:00:00,22,1025.7,-1.6,25,1,40000,14.816,,,360,,,,,,,,,,,wg-a,,,,AAXX 10154 07460 12/82 13608 10220 20010 39876 40257 58016 60006 80001 91500=
07460,1997-04-10 18:00:00,19,1026.3,0.3,34,3,40000,11.112,,,20,7.7,22,,,,,,,,,wg-a,,,,AAXX 10184 07460 12/82 10206 10190 20030 39879 40263 53003 60006 80001 91800 333 10220 20077=
07460,1997-04-10 21:00:00,11,1028.5,1,54,2,40000,0,,,0,,,,,,,,,,,wg-a,,,,AAXX 10214 07460 12/82 10000 10110 20020 39889 40285 51010 60006 80001 92100=
07460,1997-04-11 00:00:00,7,1029.1,0,70,2,40000,0,,,0,,,,,,,,,,,wg-a,,,,AAXX 11004 07460 12/82 10000 10070 20020 39889 40291 50000 60006 80001 90000=
07460,1997-04-11 06:00:00,4,1028,-0.5,81,1,18000,3.704,,,30,3.5,19.2,,,,,,,,,wg-a,,,,AAXX 11064 07460 02/68 10302 10040 20010 39875 40280 55005 60006 80001 90600 333 10192 20035 60004=
07460,1997-04-11 09:00:00,15,1025.9,-0.6,44,3,20000,3.704,,,270,,,,,,,,,,,wg-a,,,,AAXX 11094 07460 12/70 22702 10150 20030 39869 40259 58006 60006 80001 90900=
07460,1997-04-11 12:00:00,20,1023,-2.2,26,0,20000,18.52,,,350,,,,,,,,,,,wg-a,,,,AAXX 11124 07460 12/70 33510 10200 20000 39847 40230 58022 60006 80001 91200=
07460,1997-04-11 18:00:00,18,1020.1,-0.4,28,-1,20000,14.816,,,340,4.4,21.4,,,,,,,,,wg-a,,,,AAXX 11184 07460 12/70 13408 10180 21010 39818 40201 58004 60006 80001 91800 333 10214 20044=
07460,1997-04-11 21:00:00,14,1020.6,0,38,0,20000,11.112,,,320,,,,,,,,,,,wg-a,,,,AAXX 11214 07460 12/70 13206 10140 20000 39817 40206 50000 60006 80001 92100=
07460,1997-04-12 00:00:00,10,1022.8,1.5,71,5,10000,22.224,,,350,,,,,,,,,,,wg-a,,,,AAXX 12004 07460 12560 73512 10100 20050 39833 40228 51015 60006 875// 90000=
07460,1997-04-12 03:00:00,7,1022.9,-0.2,70,2,10000,25.928,,,360,,,,,,,,,,,wg-a,,,,AAXX 12034 07460 12560 73614 10070 20020 39830 40229 55002 60006 875// 90300=
07460,1997-04-12 06:00:00,4,1024.1,0.7,70,-1,12000,22.224,,,360,4.3,18.2,,,,,,,,,wg-a,,,,AAXX 12064 07460 02562 /3612 10040 21010 39837 40241 53007 60006 86500 90600 333 10182 20043 60004=
07460,1997-04-12 09:00:00,7,1024.6,0.8,49,-3,20000,22.224,,,20,,,,,,,,,,,wg-a,,,,AAXX 12094 07460 12/70 40212 10070 21030 39845 40246 51008 60006 80001 90900=
07460,1997-04-12 12:00:00,11,1023,-1,35,-4,25000,29.632,,,360,,,,,,,,,,,wg-a,,,,AAXX 12124 07460 12/75 53616 10110 21040 39835 40230 58010 60006 80001 91200=
07460,1997-04-12 15:00:00,13,1022.1,-0.6,30,-4,25000,22.224,,,10,,,,,,,,,,,wg-a,,,,AAXX 12154 07460 12/75 20112 10130 21040 39829 40221 56006 60006 80001 91500=
07460,1997-04-12 18:00:00,11,1022.7,0.3,32,-5,500,22.224,,,10,4,12.8,,,,,,,,,wg-a,,,,AAXX 12184 07460 12/00 10112 10110 21050 39832 40227 53003 60006 80001 91800 333 10128 20040=
07460,1997-04-12 21:00:00,6,1024.9,1.5,52,-3,15000,14.816,,,360,,,,,,,,,,,wg-a,,,,AAXX 12214 07460 12/65 13608 10060 21030 39847 40249 51015 60006 80001 92100=
07460,1997-04-13 00:00:00,4,1025.2,0,65,-2,15000,11.112,,,340,,,,,,,,,,,wg-a,,,,AAXX 13004 07460 12765 /3406 10040 21020 39847 40252 50000 60006 81501 90000=
07460,1997-04-13 03:00:00,1,1024.5,-1.1,69,-4,15000,7.408,,,140,,,,,,,,,,,wg-a,,,,AAXX 13034 07460 12/65 11404 10010 21040 39836 40245 56011 60006 80001 90300=
07460,1997-04-13 06:00:00,0,1025.3,0.6,80,-3,20000,3.704,,,300,-1.4,10.6,,,,,,,,,wg-a,,,,AAXX 13064 07460 02/70 03002 10000 21030 39842 40253 53006 60006 80000 90600 333 10106 21014 60004=
07460,1997-04-13 09:00:00,7,1024.1,-0.1,53,-2,500,11.112,,,40,,,,,,,,,,,wg-a,,,,AAXX 13094 07460 12600 /0406 10070 21020 39841 40241 58001 60006 81100 90900=
07460,1997-04-13 12:00:00,12,1022.2,-1.2,35,-3,40000,18.52,,,360,,,,,,,,,,,wg-a,,,,AAXX 13124 07460 12/82 03610 10120 21030 39829 40222 58012 60006 80000 91200=
07460,1997-04-13 18:00:00,13,1020.5,-0.2,33,-3,40000,14.816,,,20,-0.3,14.5,,,,,,,,,wg-a,,,,AAXX 13184 07460 12/82 00208 10130 21030 39814 40205 56002 60006 80000 91800 333 10145 21003=
07460,1997-04-13 21:00:00,5,1022.4,0.7,52,-4,20000,3.704,,,240,,,,,,,,,,,wg-a,,,,AAXX 13214 07460 12/70 02402 10050 21040 39821 40224 50007 60006 80000 92100=
07460,1997-04-14 00:00:00,2,1022.5,-0.2,69,-3,15000,0,,,0,,,,,,,,,,,wg-a,,,,AAXX 14004 07460 12/65 00000 10020 21030 39819 40225 58002 60006 80000 90000=
07460,1997-04-14 03:00:00,-1,1023.4,0.3,74,-5,15000,3.704,,,250,,,,,,,,,,,wg-a,,,,AAXX 14034 07460 12/65 02502 11010 21050 39822 40234 53003 60006 80000 90300=
07460,1997-04-14 06:00:00,1,1023.5,0.4,75,-3,20000,3.704,,,330,-1.8,12.5,,,,,,,,,wg-a,,,,AAXX 14064 07460 02/70 03302 10010 21030 39826 40235 53004 60006 80000 90600 333 10125 21018 60004=
07460,1997-04-14 09:00:00,9,1022.6,0.4,49,-1,25000,3.704,,,290,,,,,,,,,,,wg-a,,,,AAXX 14094 07460 12/75 02902 10090 21010 39830 40226 50004 60006 80000 90900=
07460,1997-04-14 12:00:00,16,1020.6,-1,34,0,500,11.112,,,40,,,,,,,,,,,wg-a,,,,AAXX 14124 07460 12/00 00406 10160 20000 39819 40206 58010 60006 80000 91200=
07460,1997-04-14 15:00:00,18,1019,-1.3,26,-2,500,14.816,,,20,,,,,,,,,,,wg-a,,,,AAXX 14154 07460 12/00 00208 10180 21020 39806 40190 56013 60006 80000 91500=
07460,1997-04-14 18:00:00,16,1019.7,0.4,29,-2,500,14.816,,,20,0.5,17.8,,,,,,,,,wg-a,,,,AAXX 14184 07460 12/00 00208 10160 21020 39810 40197 53004 60006 80000 91800 333 10178 20005=
07460,1997-04-14 21:00:00,11,1021.4,1.1,43,-1,20000,3.704,,,320,,,,,,,,,,,wg-a,,,,AAXX 14214 07460 12/70 03202 10110 21010 39821 40214 51011 60006 80000 92100=
07460,1997-04-15 00:00:00,5,1023,0.7,56,-3,20000,7.408,,,290,,,,,,,,,,,wg-a,,,,AAXX 15004 07460 12/70 02904 10050 21030 39828 40230 53007 60006 80000 90000=
07460,1997-04-15 03:00:00,2,1023.5,-0,75,-2,20000,0,,,0,,,,,,,,,,,wg-a,,,,AAXX 15034 07460 12/70 00000 10020 21020 39828 40235 55000 60006 80000 90300=
07460,1997-04-15 06:00:00,1,1024.4,0.8,86,-1,20000,0,,,0,0.3,15.7,,,,,,,,,wg-a,,,,AAXX 15064 07460 02/70 00000 10010 21010 39836 40244 53008 60006 80000 90600 333 10157 20003 60004=
07460,1997-04-15 09:00:00,11,1023.5,0.4,66,5,13000,11.112,,,30,,,,,,,,,,,wg-a,,,,AAXX 15094 07460 12663 /0306 10110 20050 39841 40235 50004 60006 81130 90900=
07460,1997-04-15 12:00:00,15,1022.4,-0.6,51,5,15000,18.52,,,350,,,,,,,,,,,wg-a,,,,AAXX 15124 07460 12665 23510 10150 20050 39835 40224 58006 60006 82100 91200=
07460,1997-04-15 15:00:00,16,1021,-1.1,36,1,500,22.224,,,360,,,,,,,,,,,wg-a,,,,AAXX 15154 07460 12700 /3612 10160 20010 39823 40210 56011 60006 81100 91500=
07460,1997-04-15 18:00:00,14,1021.9,0.5,26,-5,35000,18.52,,,10,1.4,16.4,,,,,,,,,wg-a,,,,AAXX 15184 07460 12/81 00110 10140 21050 39829 40219 52005 60006 80000 91800 333 10164 20014=
07460,1997-04-15 21:00:00,9,1024.3,1.6,49,-1,20000,11.112,,,340,,,,,,,,,,,wg-a,,,,AAXX 15214 07460 12/70 03406 10090 21010 39845 40243 51016 60006 80000 92100=
07460,1997-04-16 00:00:00,6,1024.3,-0.3,56,-2,20000,11.112,,,330,,,,,,,,,,,wg-a,,,,AAXX 16004 07460 12/70 03306 10060 21020 39842 40243 56003 60006 80000 90000=
07460,1997-04-16 03:00:00,2,1024.3,-0.5,69,-3,20000,3.704,,,80,,,,,,,,,,,wg-a,,,,AAXX 16034 07460 12/70 00802 10020 21030 39836 40243 56005 60006 80000 90300=
07460,1997-04-16 06:00:00,0,1024.7,0.1,86,-2,20000,0,,,0,-2,13.6,,,,,,,,,wg-a,,,,AAXX 16064 07460 02/70 00000 10000 21020 39837 40247 53001 60006 80000 90600 333 10136 21020 60004=
07460,1997-04-16 09:00:00,9,1023.4,-0.1,46,-2,25000,11.112,,,10,,,,,,,,,,,wg-a,,,,AAXX 16094 07460 12/75 00106 10090 21020 39836 40234 58001 60006 80000 90900=
07460,1997-04-16 12:00:00,13,1020.7,-2,30,-4,25000,18.52,,,360,,,,,,,,,,,wg-a,,,,AAXX 16124 07460 12/75 03610 10130 21040 39816 40207 58020 60006 80000 91200=
07460,1997-04-16 15:00:00,14,1018,-2.3,26,-5,500,25.928,,,20,,,,,,,,,,,wg-a,,,,AAXX 16154 07460 12/00 00214 10140 21050 39792 40180 58023 60006 80000 91500=
07460,1997-04-16 18:00:00,13,1017.5,-0.7,33,-3,35000,18.52,,,10,0.5,14.7,,,,,,,,,wg-a,,,,AAXX 16184 07460 12/81 00110 10130 21030 39785 40175 56007 60006 80000 91800 333 10147 20005=
07460,1997-04-16 21:00:00,8,1018.7,0.5,46,-3,20000,14.816,,,350,,,,,,,,,,,wg-a,,,,AAXX 16214 07460 12/70 03508 10080 21030 39790 40187 51005 60006 80000 92100=
07460,1997-04-17 00:00:00,5,1018.4,-0.6,56,-3,20000,14.816,,,340,,,,,,,,,,,wg-a,,,,AAXX 17004 07460 12/70 03408 10050 21030 39784 40184 56006 60006 80000 90000=
07460,1997-04-17 03:00:00,2,1017.2,-1.6,55,-6,20000,3.704,,,90,,,,,,,,,,,wg-a,,,,AAXX 17034 07460 12/70 00902 10020 21060 39768 40172 56016 60006 80000 90300=
07460,1997-04-17 06:00:00,-1,1018.2,0.5,69,-6,25000,0,,,0,-1.2,12.5,,,,,,,,,wg-a,,,,AAXX 17064 07460 02/75 40000 11010 21060 39773 40182 53005 60006 82032 90600 333 10125 21012 60004=
07460,1997-04-17 09:00:00,8,1016.5,-0.4,34,-7,25000,18.52,,,30,,,,,,,,,,,wg-a,,,,AAXX 17094 07460 12/75 30310 10080 21070 39769 40165 58004 60006 81032 90900=
07460,1997-04-17 12:00:00,12,1014.5,-1.4,19,-11,35000,14.816,,,40,,,,,,,,,,,wg-a,,,,AAXX 17124 07460 12681 /0408 10120 21110 39755 40145 58014 60006 81102 91200=
07460,1997-04-17 15:00:00,13,1013.8,-0.5,21,-9,35000,25.928,,,40,,,,,,,,,,,wg-a,,,,AAXX 17154 07460 12/81 10414 10130 21090 39750 40138 58005 60006 80001 91500=
07460,1997-04-17 18:00:00,11,1015.3,1.2,24,-9,500,25.928,,,40,-0.3,13.4,,,,,,,,,wg-a,,,,AAXX 17184 07460 12/00 10414 10110 21090 39761 40153 53012 60006 80001 91800 333 10134 21003=
07460,1997-04-17 21:00:00,6,1018.1,2,39,-7,20000,3.704,,,300,,,,,,,,,,,wg-a,,,,AAXX 17214 07460 12/70 13002 10060 21070 39781 40181 51020 60006 80001 92100=
07460,1997-04-18 00:00:00,1,1019.4,0.6,55,-7,20000,0,,,0,,,,,,,,,,,wg-a,,,,AAXX 18004 07460 12/70 10000 10010 21070 39787 40194 51006 60006 80001 90000=
07460,1997-04-18 03:00:00,0,1019.7,0.1,59,-7,20000,3.704,,,280,,,,,,,,,,,wg-a,,,,AAXX 18034 07460 12/70 02802 10000 21070 39788 40197 53001 60006 80000 90300=
07460,1997-04-18 06:00:00,0,1020.3,0.6,64,-6,500,3.704,,,260,-1.7,11,,,,,,,,,wg-a,,,,AAXX 18064 07460 02/00 02602 10000 21060 39794 40203 53006 60006 80000 90600 333 10110 21017 60004=
07460,1997-04-18 12:00:00,15,1015.3,-2.2,25,-5,40000,7.408,,,50,,,,,,,,,,,wg-a,,,,AAXX 18124 07460 12/82 00504 10150 21050 39767 40153 58022 60006 80000 91200=
07460,1997-04-18 15:00:00,17,1012.8,-2.2,22,-5,40000,11.112,,,20,,,,,,,,,,,wg-a,,,,AAXX 18154 07460 12782 /0206 10170 21050 39745 40128 56022 60006 81100 91500=
07460,1997-04-18 18:00:00,15,1012.2,-0.7,25,-5,500,18.52,,,10,0,17.1,,,,,,,,,wg-a,,,,AAXX 18184 07460 12/00 10110 10150 21050 39737 40122 55007 60006 81030 91800 333 10171 20000=
07460,1997-04-18 21:00:00,10,1013.6,0.6,37,-4,20000,3.704,,,320,,,,,,,,,,,wg-a,,,,AAXX 18214 07460 12/70 03202 10100 21040 39744 40136 51006 60006 80000 92100=
07460,1997-04-19 00:00:00,3,1014.2,-0.4,60,-4,20000,0,,,0,,,,,,,,,,,wg-a,,,,AAXX 19004 07460 12/70 00000 10030 21040 39740 40142 58004 60006 80000 90000=
07460,1997-04-19 03:00:00,2,1012.9,-1.4,60,-5,20000,7.408,,,190,,,,,,,,,,,wg-a,,,,AAXX 19034 07460 12/70 01904 10020 21050 39726 40129 56014 60006 80000 90300=
07460,1997-04-19 06:00:00,4,1012,-0.6,56,-4,40000,3.704,,,50,1.8,14.9,,,,,,,,,wg-a,,,,AAXX 19064 07460 02/82 10502 10040 21040 39720 40120 56006 60006 81030 90600 333 10149 20018 60004=
07460,1997-04-19 12:00:00,18,1006.4,-2.7,28,-1,500,14.816,,,60,,,,,,,,,,,wg-a,,,,AAXX 19124 07460 12700 /0608 10180 21010 39685 40064 58027 60006 81132 91200=
07460,1997-04-19 18:00:00,14,1005.1,-0.2,41,1,25000,18.52,,,180,10.7,15.6,,,,,,,,,wg-a,,,,AAXX 19184 07460 02/75 71810 10140 20010 39668 40051 56002 60006 85/32 91800 333 10156 20107 61000=
07460,1997-04-19 21:00:00,10,1007.2,1.5,66,4,20000,11.112,,,240,,,,,,,,,,,wg-a,,,,AAXX 19214 07460 12/70 22406 10100 20040 39682 40072 53015 60006 82030 92100=
07460,1997-04-20 00:00:00,8,1008.4,0.8,66,2,15000,11.112,,,340,,,,,,,,,,,wg-a,,,,AAXX 20004 07460 12/65 13406 10080 20020 39691 40084 51008 60006 81030 90000=
07460,1997-04-20 03:00:00,6,1008.7,0,70,1,12000,11.112,,,350,,,,,,,,,,,wg-a,,,,AAXX 20034 07460 12662 /3506 10060 20010 39691 40087 50000 60006 81500 90300=
07460,1997-04-20 06:00:00,5,1010,1.2,60,-2,12000,14.816,,,20,4.7,14.3,,,,,,,,,wg-a,,,,AAXX 20064 07460 02562 70208 10050 21020 39702 40100 53012 60006 8553/ 90600 333 10143 20047 60004=
07460,1997-04-20 09:00:00,6,1010.9,1,61,-1,14000,14.816,,,360,,,,,,,,,,,wg-a,,,,AAXX 20094 07460 12664 73608 10060 21010 39713 40109 52010 60006 8483/ 90900=
07460,1997-04-20 12:00:00,10,1009.7,-0.6,40,-3,15000,22.224,,,30,,,,,,,,,,,wg-a,,,,AAXX 20124 07460 12665 20312 10100 21030 39707 40097 58006 60006 82100 91200=
07460,1997-04-20 15:00:00,12,1008.7,-0.8,28,-6,25000,29.632,,46.3,30,,,,,,,,,,,wg-a,,,,AAXX 20154 07460 12675 20316 10120 21060 39699 40087 58008 60006 82100 91500 333 91025=
07460,1997-04-20 18:00:00,9,1009.6,0.5,43,-3,25000,29.632,,,40,4.4,12.4,,,,,,,,,wg-a,,,,AAXX 20184 07460 12675 /0416 10090 21030 39704 40096 53005 60006 81100 91800 333 10124 20044=
07460,1997-04-20 21:00:00,5,1011.6,1.4,52,-4,25000,11.112,,,10,,,,,,,,,,,wg-a,,,,AAXX 20214 07460 12/75 00106 10050 21040 39718 40116 52014 60006 80000 92100=
07460,1997-04-21 00:00:00,3,1011.9,0,56,-5,25000,18.52,,,350,,,,,,,,,,,wg-a,,,,AAXX 21004 07460 12/75 03510 10030 21050 39718 40119 50000 60006 80000 90000=
07460,1997-04-21 03:00:00,2,1011.3,-0.8,60,-5,25000,14.816,,,360,,,,,,,,,,,wg-a,,,,AAXX 21034 07460 12/75 03608 10020 21050 39710 40113 56008 60006 80000 90300=
07460,1997-04-21 06:00:00,2,1011.2,-0.1,60,-5,20000,18.52,,,340,0.6,8.8,,,,,,,,,wg-a,,,,AAXX 21064 07460 02670 /3410 10020 21050 39709 40112 55001 60006 81100 90600 333 10088 20006 60004=
07460,1997-04-21 09:00:00,7,1009.3,-1.1,42,-5,25000,25.928,,,20,,,,,,,,,,,wg-a,,,,AAXX 21094 07460 12/75 00214 10070 21050 39698 40093 58011 60006 80000 90900=
07460,1997-04-21 12:00:00,11,1007.2,-1.4,25,-8,500,29.632,,,20,,,,,,,,,,,wg-a,,,,AAXX 21124 07460 12/00 00216 10110 21080 39684 40072 58014 60006 80000 91200=
07460,1997-04-21 15:00:00,13,1005.8,-1.1,19,-10,500,29.632,,,20,,,,,,,,,,,wg-a,,,,AAXX 21154 07460 12/00 00216 10130 21100 39673 40058 58011 60006 80000 91500=
07460,1997-04-21 18:00:00,11,1006.8,0.7,24,-9,500,25.928,,,360,1.6,13.4,,,,,,,,,wg-a,,,,AAXX 21184 07460 12/00 03614 10110 21090 39680 40068 53007 60006 80000 91800 333 10134 20016=
07460,1997-04-21 21:00:00,8,1009.1,1.6,34,-7,20000,14.816,,,340,,,,,,,,,,,wg-a,,,,AAXX 21214 07460 12/70 03408 10080 21070 39697 40091 51016 60006 80000 92100=
07460,1997-04-22 00:00:00,5,1009.7,0.4,45,-6,20000,7.408,,,30,,,,,,,,,,,wg-a,,,,AAXX 22004 07460 12/70 00304 10050 21060 39700 40097 51004 60006 80000 90000=
07460,1997-04-22 03:00:00,0,1010.6,0.2,59,-7,20000,3.704,,,100,,,,,,,,,,,wg-a,,,,AAXX 22034 07460 12/70 01002 10000 21070 39702 40106 53002 60006 80000 90300=
07460,1997-04-22 06:00:00,-1,1012.7,1.9,74,-5,500,3.704,,,150,-3.6,11.1,,,,,,,,,wg-a,,,,AAXX 22064 07460 02/00 01502 11010 21050 39720 40127 53019 60006 80000 90600 333 10111 21036 60004=
07460,1997-04-22 09:00:00,8,1012.1,0.6,36,-6,500,14.816,,,360,,,,,,,,,,,wg-a,,,,AAXX 22094 07460 12/00 03608 10080 21060 39727 40121 51006 60006 80000 90900=
07460,1997-04-22 12:00:00,12,1011.1,-0.5,24,-8,40000,25.928,,42.596,20,,,,,,,,,,,wg-a,,,,AAXX 22124 07460 12/82 00214 10120 21080 39723 40111 58005 60006 80000 91200 333 91023=
07460,1997-04-22 15:00:00,14,1010.7,-0.1,24,-6,40000,29.632,,,20,,,,,,,,,,,wg-a,,,,AAXX 22154 07460 12682 /0216 10140 21060 39721 40107 58001 60006 81100 91500=
07460,1997-04-22 18:00:00,12,1012.1,1.2,30,-5,40000,22.224,,,20,-0.9,13.8,,,,,,,,,wg-a,,,,AAXX 22184 07460 12682 /0212 10120 21050 39732 40121 53012 60006 81400 91800 333 10138 21009=
07460,1997-04-22 21:00:00,7,1015.4,2.4,45,-4,10000,7.408,,,340,,,,,,,,,,,wg-a,,,,AAXX 22214 07460 12660 /3404 10070 21040 39757 40154 51024 60006 81500 92100=
07460,1997-04-23 00:00:00,5,1016.7,1,56,-3,10000,3.704,,,340,,,,,,,,,,,wg-a,,,,AAXX 23004 07460 12/60 03402 10050 21030 39767 40167 51010 60006 80000 90000=
07460,1997-04-23 03:00:00,-1,1017.6,-0,69,-6,15000,0,,,0,,,,,,,,,,,wg-a,,,,AAXX 23034 07460 12/65 00000 11010 21060 39767 40176 55000 60006 80000 90300=
07460,1997-04-23 06:00:00,-1,1019,1.4,86,-3,25000,0,,,0,-2.2,11.5,,,,,,,,,wg-a,,,,AAXX 23064 07460 02/75 00000 11010 21030 39781 40190 53014 60006 80000 90600 333 10115 21022 60004=
07460,1997-04-23 09:00:00,9,1018.3,0.8,46,-2,25000,7.408,,,20,,,,,,,,,,,wg-a,,,,AAXX 23094 07460 12/75 00204 10090 21020 39788 40183 51008 60006 80000 90900=
07460,1997-04-23 12:00:00,14,1016.9,-0.8,31,-3,25000,11.112,,,340,,,,,,,,,,,wg-a,,,,AAXX 23124 07460 12/75 03406 10140 21030 39781 40169 58008 60006 80000 91200=
07460,1997-04-23 15:00:00,15,1016,-0.7,23,-6,25000,11.112,,,340,,,,,,,,,,,wg-a,,,,AAXX 23154 07460 12675 /3406 10150 21060 39774 40160 58007 60006 81100 91500=
07460,1997-04-23 18:00:00,14,1017,0.8,24,-6,25000,11.112,,,20,-0.7,15.7,,,,,,,,,wg-a,,,,AAXX 23184 07460 12675 /0206 10140 21060 39782 40170 53008 60006 81100 91800 333 10157 21007=
07460,1997-04-24 00:00:00,3,1021.5,0.5,56,-5,20000,3.704,,,220,,,,,,,,,,,wg-a,,,,AAXX 24004 07460 12/70 12202 10030 21050 39809 40215 50005 60006 80001 90000=
07460,1997-04-24 03:00:00,0,1022,0.1,69,-5,20000,0,,,0,,,,,,,,,,,wg-a,,,,AAXX 24034 07460 12/70 00000 10000 21050 39810 40220 53001 60006 80000 90300=
07460,1997-04-24 06:00:00,5,1021.8,0.5,52,-4,500,11.112,,,180,-0.8,13.9,,,,,,,,,wg-a,,,,AAXX 24064 07460 02/00 01806 10050 21040 39815 40218 51005 60006 80000 90600 333 10139 21008 60004=
07460,1997-04-24 12:00:00,19,1018.8,-1.2,22,-3,500,3.704,,,270,,,,,,,,,,,wg-a,,,,AAXX 24124 07460 12/00 02702 10190 21030 39805 40188 58012 60006 80000 91200=
07460,1997-04-24 18:00:00,19,1016.9,-0,19,-5,500,14.816,,,260,4.9,21.6,,,,,,,,,wg-a,,,,AAXX 24184 07460 12/00 12608 10190 21050 39788 40169 55000 60006 80001 91800 333 10216 20049=
07460,1997-04-24 21:00:00,12,1019.5,1.6,24,-8,20000,7.408,,,90,,,,,,,,,,,wg-a,,,,AAXX 24214 07460 12/70 10904 10120 21080 39804 40195 51016 60006 80001 92100=
07460,1997-04-25 00:00:00,11,1020,0.2,43,-1,20000,25.928,,,190,,,,,,,,,,,wg-a,,,,AAXX 25004 07460 12/70 11914 10110 21010 39806 40200 50002 60006 80001 90000=
07460,1997-04-25 03:00:00,9,1019.7,-0.4,53,0,20000,25.928,,,190,,,,,,,,,,,wg-a,,,,AAXX 25034 07460 12/70 01914 10090 20000 39801 40197 56004 60006 80000 90300=
07460,1997-04-25 06:00:00,9,1020.3,0.5,57,1,500,29.632,,,190,7.8,18.9,,,,,,,,,wg-a,,,,AAXX 25064 07460 02/00 31916 10090 20010 39807 40203 53005 60006 80001 90600 333 10189 20078 60004=
07460,1997-04-25 09:00:00,16,1019.2,-0.1,39,2,500,14.816,,,160,,,,,,,,,,,wg-a,,,,AAXX 25094 07460 12/00 61608 10160 20020 39806 40192 58001 60006 80002 90900=
07460,1997-04-25 12:00:00,22,1016.3,-2.1,23,0,500,7.408,,,200,,,,,,,,,,,wg-a,,,,AAXX 25124 07460 12700 62004 10220 20000 39785 40163 57021 60006 83232 91200=
07460,1997-04-25 15:00:00,24,1014.2,-1.7,27,4,500,29.632,,,240,,,,,,,,,,,wg-a,,,,AAXX 25154 07460 12700 62416 10240 20040 39768 40142 56017 60006 83232 91500=
07460,1997-04-25 18:00:00,21,1015.1,0.5,38,6,20000,14.816,,,260,8.8,25,,,,,,,,,wg-a,,,,AAXX 25184 07460 12670 72608 10210 20060 39773 40151 53005 60006 8423/ 91800 333 10250 20088=
07460,1997-04-25 21:00:00,18,1017.6,2.1,42,5,15000,14.816,,,10,,,,,,,,,,,wg-a,,,,AAXX 25214 07460 12665 70108 10180 20050 39793 40176 53021 60006 8383/ 92100=
07460,1997-04-26 00:00:00,14,1018.1,0,63,7,15000,3.704,,,350,,,,,,,,,,,wg-a,,,,AAXX 26004 07460 12765 73502 10140 20070 39793 40181 50000 60006 8213/ 90000=
07460,1997-04-26 06:00:00,16,1016.8,-0,63,9,12000,3.704,,,30,12.3,20.9,,,,,,,,,wg-a,,,,AAXX 26064 07460 02562 70302 10160 20090 39783 40168 55000 60006 878// 90600 333 10209 20123 60004=
07460,1997-04-26 09:00:00,16,1016.3,-0.4,68,10,20000,11.112,,,90,,,,,,,,,,,wg-a,,,,AAXX 26094 07460 12670 70906 10160 20100 39779 40163 56004 60006 8683/ 90900=
07460,1997-04-26 12:00:00,18,1013.2,-2.7,56,9,20000,14.816,,,180,,,,,,,,,,,wg-a,,,,AAXX 26124 07460 12670 71808 10180 20090 39752 40132 58027 60006 8487/ 91200=
07460,1997-04-26 15:00:00,16,1012.2,-1.2,72,11,9000,14.816,,,250,,,,1,,,,,,60,wg-a,,,,AAXX 26154 07460 12559 72508 10160 20110 39740 40122 56012 60017 76062 8587/ 91500=
07460,1997-04-26 18:00:00,16,1010.9,-1.3,72,11,12000,18.52,,,190,15.3,18.6,,,,,,,,3,wg-a,,,,AAXX 26184 07460 02462 71910 10160 20110 39727 40109 56013 60006 70362 85802 91800 333 10186 20153 61000=
07460,1997-04-26 21:00:00,14,1011.7,0.5,63,7,14000,18.52,,,200,,,,,,,,,,,wg-a,,,,AAXX 26214 07460 12564 72010 10140 20070 39732 40117 51005 60006 83832 92100=
07460,1997-04-27 00:00:00,13,1011.2,-0.8,58,5,14000,18.52,,,120,,,,,,,,,,,wg-a,,,,AAXX 27004 07460 12664 71210 10130 20050 39725 40112 56008 60006 84532 90000=
07460,1997-04-27 03:00:00,12,1010.4,-0.9,67,6,14000,14.816,,,160,,,,,,,,,,,wg-a,,,,AAXX 27034 07460 12664 71608 10120 20060 39716 40104 56009 60006 8553/ 90300=
07460,1997-04-27 06:00:00,11,1011.4,0.9,76,7,20000,18.52,,,290,10.4,15.9,,,,,,,,21,wg-a,,,,AAXX 27064 07460 02570 62910 10110 20070 39725 40114 53009 61000 72162 84830 90600 333 10159 20104 6001=
07460,1997-04-27 09:00:00,14,1012.5,1.3,63,7,500,14.816,,,280,,,,,,,,,,,wg-a,,,,AAXX 27094 07460 12600 52808 10140 20070 39739 40125 51013 60006 83830 90900=
07460,1997-04-27 12:00:00,16,1013,0.6,48,5,500,22.224,,,310,,,,,,,,,,,wg-a,,,,AAXX 27124 07460 12600 53112 10160 20050 39746 40130 50006 60006 84830 91200=
07460,1997-04-27 18:00:00,15,1015.2,1.9,59,7,20000,14.816,,,290,10.8,17.3,,,,,,,,25,wg-a,,,,AAXX 27184 07460 02570 /2908 10150 20070 39766 40152 51019 61000 72586 85830 91800 333 10173 20108 6000=
07460,1997-04-27 21:00:00,13,1018.4,2.8,67,7,10000,11.112,,,300,,,,,,,,,,1,wg-a,,,,AAXX 27214 07460 12660 /3006 10130 20070 39794 40184 51028 60006 70186 85830 92100=
07460,1997-04-28 00:00:00,11,1019.5,0.9,71,6,10000,7.408,,,260,,,,,,,,,,,wg-a,,,,AAXX 28004 07460 12560 52604 10110 20060 39803 40195 51009 60006 84530 90000=
07460,1997-04-28 03:00:00,12,1019,-0.5,67,6,10000,7.408,,,120,,,,,,,,,,,wg-a,,,,AAXX 28034 07460 12560 71204 10120 20060 39799 40190 56005 60006 8553/ 90300=
07460,1997-04-28 06:00:00,11,1018.9,-0.1,82,8,25000,14.816,,,190,10.1,14.5,,,,,,,,3,wg-a,,,,AAXX 28064 07460 02575 71908 10110 20080 39797 40189 55001 60006 70362 875// 90600 333 10145 20101 60004=
07460,1997-04-28 12:00:00,18,1016.8,-1,64,11,500,14.816,,,280,,,,,,,,,,,wg-a,,,,AAXX 28124 07460 12500 72808 10180 20110 39787 40168 58010 60006 878// 91200=
07460,1997-04-28 15:00:00,18,1016.1,-0.7,64,11,20000,25.928,,,280,,,,,,,,,,,wg-a,,,,AAXX 28154 07460 12570 72814 10180 20110 39780 40161 57007 60006 878// 91500=
07460,1997-04-28 18:00:00,16,1016.9,0.7,55,7,35000,31.484,,,280,10.7,18.9,,,,,,,,,wg-a,,,,AAXX 28184 07460 12681 72817 10160 20070 39785 40169 53007 60006 8287/ 91800 333 10189 20107=
07460,1997-04-28 21:00:00,15,1017.1,-0.1,55,6,15000,25.928,,50.004,290,,,,,,,,,,,wg-a,,,,AAXX 28214 07460 12665 72914 10150 20060 39784 40171 55001 60006 8287/ 92100 333 91027=
07460,1997-04-29 03:00:00,11,1017.5,-0.4,62,4,15000,18.52,,,300,,,,,,,,,,,wg-a,,,,AAXX 29034 07460 12665 53010 10110 20040 39784 40175 55004 60006 83830 90300=
07460,1997-04-29 06:00:00,11,1018.6,1.1,62,4,20000,11.112,,,320,10.7,16.1,,,,,,,,,wg-a,,,,AAXX 29064 07460 02570 73206 10110 20040 39794 40186 53011 60006 878// 90600 333 10161 20107 60004=
07460,1997-04-29 09:00:00,13,1018.8,0.4,58,5,25000,18.52,,,310,,,,,,,,,,,wg-a,,,,AAXX 29094 07460 12675 /3110 10130 20050 39799 40188 50004 60006 86800 90900=
07460,1997-04-29 12:00:00,15,1018.9,0.3,51,5,500,22.224,,,310,,,,,,,,,,,wg-a,,,,AAXX 29124 07460 12600 73112 10150 20050 39802 40189 50003 60006 878// 91200=
07460,1997-04-29 18:00:00,13,1019.3,-0.1,62,6,14000,11.112,,,310,10.6,14.8,,,,,,,,,wg-a,,,,AAXX 29184 07460 12564 73106 10130 20060 39803 40193 57001 60006 878// 91800 333 10148 20106=
07460,1997-04-29 21:00:00,11,1020.6,1.1,71,6,12000,11.112,,,350,,,,,,,,,,,wg-a,,,,AAXX 29214 07460 12562 /3506 10110 20060 39814 40206 53011 60006 85800 92100=
07460,1997-04-30 00:00:00,11,1020.9,0.2,66,5,12000,14.816,,,340,,,,,,,,,,,wg-a,,,,AAXX 30004 07460 12662 /3408 10110 20050 39816 40209 50002 60006 86800 90000=
07460,1997-04-30 03:00:00,10,1021.2,0.2,76,6,12000,11.112,,,340,,,,,,,,,,60,wg-a,,,,AAXX 30034 07460 02562 73406 10100 20060 39818 40212 53002 61000 76062 878// 90300 333 ////=
07460,1997-04-30 06:00:00,9,1022.9,1.5,81,6,15000,7.408,,,10,8.6,12.6,,,,,,,,3,wg-a,,,,AAXX 30064 07460 02565 60104 10090 20060 39833 40229 53015 60006 70361 85830 90600 333 10126 20086 60004=
07460,1997-04-30 09:00:00,12,1023.6,1,71,7,10000,18.52,,,360,,,,,,,,,,,wg-a,,,,AAXX 30094 07460 12460 73610 10120 20070 39843 40236 50010 60006 8683/ 90900=
07460,1997-04-30 12:00:00,14,1023.8,0.5,58,6,15000,18.52,,,20,,,,,,,,,,,wg-a,,,,AAXX 30124 07460 12565 70210 10140 20060 39848 40238 51005 60006 878// 91200=
07460,1997-04-30 15:00:00,16,1023.3,-0.3,48,5,25000,22.224,,,20,,,,,,,,,,,wg-a,,,,AAXX 30154 07460 12675 60212 10160 20050 39845 40233 57003 60006 84830 91500=
07460,1997-04-30 18:00:00,15,1023.8,0.4,51,5,500,22.224,,,10,9,17,,,,,,,,,wg-a,,,,AAXX 30184 07460 12600 20112 10150 20050 39849 40238 53004 60006 82800 91800 333 10170 20090=
07460,1997-04-30 21:00:00,11,1025.8,1.4,71,6,15000,11.112,,,340,,,,,,,,,,,wg-a,,,,AAXX 30214 07460 12665 /3406 10110 20060 39863 40258 52014 60006 81500 92100=
07460,1997-05-01 00:00:00,9,1026.3,0.2,81,6,15000,3.704,,,350,,,,,,,,,,,wg-a,,,,AAXX 01004 07460 12665 /3502 10090 20060 39865 40263 50002 60006 81500 90000=
07460,1997-05-01 03:00:00,6,1027,0.3,87,4,14000,3.704,,,160,,,,,,,,,,,wg-a,,,,AAXX 01034 07460 12564 /1602 10060 20040 39868 40270 53003 60006 81500 90300=
07460,1997-05-01 06:00:00,6,1027.8,0.7,93,5,10000,3.704,,,100,2.7,15.1,,,,,,,,,wg-a,,,,AAXX 01064 07460 02460 21002 10060 20050 39875 40278 52007 60006 8250/ 90600 333 10151 20027 60004=
07460,1997-05-01 09:00:00,14,1026.1,-0.5,58,6,12000,11.112,,,360,,,,,,,,,,,wg-a,,,,AAXX 01094 07460 12462 /3606 10140 20060 39870 40261 57005 60006 81100 90900=
07460,1997-05-01 12:00:00,18,1024,-1.4,42,5,20000,18.52,,,20,,,,,,,,,,,wg-a,,,,AAXX 01124 07460 12570 /0210 10180 20050 39856 40240 58014 60006 81100 91200=
07460,1997-05-01 15:00:00,20,1022.3,-1.4,32,3,25000,25.928,,,30,,,,,,,,,,,wg-a,,,,AAXX 01154 07460 12/75 00314 10200 20030 39841 40223 57014 60006 80000 91500=
07460,1997-05-01 18:00:00,18,1022.8,0.1,42,5,25000,22.224,,,30,5.7,20.6,,,,,,,,,wg-a,,,,AAXX 01184 07460 12/75 00312 10180 20050 39843 40228 53001 60006 80000 91800 333 10206 20057=
07460,1997-05-01 21:00:00,12,1025.2,1.6,58,4,25000,7.408,,,300,,,,,,,,,,,wg-a,,,,AAXX 01214 07460 12/75 03004 10120 20040 39859 40252 51016 60006 80000 92100=
07460,1997-05-02 00:00:00,6,1026.2,0.1,81,3,20000,0,,,0,,,,,,,,,,,wg-a,,,,AAXX 02004 07460 12/70 00000 10060 20030 39860 40262 53001 60006 80000 90000=
07460,1997-05-02 03:00:00,5,1026,-0.3,81,2,20000,3.704,,,330,,,,,,,,,,,wg-a,,,,AAXX 02034 07460 12/70 03302 10050 20020 39856 40260 57003 60006 80000 90300=
07460,1997-05-02 06:00:00,9,1025.9,0.6,76,5,20000,7.408,,,120,3.7,17.7,,,,,,,,,wg-a,,,,AAXX 02064 07460 02/70 11204 10090 20050 39862 40259 52006 60006 80001 90600 333 10177 20037 60004=
07460,1997-05-02 09:00:00,18,1024.5,-0.4,45,6,20000,11.112,,,130,,,,,,,,,,,wg-a,,,,AAXX 02094 07460 12/70 11306 10180 20060 39859 40245 58004 60006 80001 90900=
07460,1997-05-02 12:00:00,25,1021.2,-2.2,22,2,35000,22.224,,,150,,,,,,,,,,,wg-a,,,,AAXX 02124 07460 12/81 01512 10250 20020 39836 40212 58022 60006 80000 91200=
07460,1997-05-02 15:00:00,27,1018.6,-2.2,15,-2,40000,18.52,,,200,,,,,,,,,,,wg-a,,,,AAXX 02154 07460 12/82 02010 10270 21020 39814 40186 57022 60006 80000 91500=
07460,1997-05-02 18:00:00,25,1018.3,-0.5,22,2,40000,14.816,,,210,9.3,27.3,,,,,,,,,wg-a,,,,AAXX 02184 07460 12/82 12108 10250 20020 39809 40183 56005 60006 80001 91800 333 10273 20093=
07460,1997-05-02 21:00:00,18,1020.9,1.5,34,2,20000,25.928,,,190,,,,,,,,,,,wg-a,,,,AAXX 02214 07460 12/70 11914 10180 20020 39825 40209 53015 60006 80001 92100=
07460,1997-05-03 00:00:00,13,1022.2,0.7,41,0,20000,7.408,,,250,,,,,,,,,,,wg-a,,,,AAXX 03004 07460 12/70 02504 10130 20000 39831 40222 51007 60006 80000 90000=
07460,1997-05-03 06:00:00,12,1020.7,-0.4,44,0,500,22.224,,,190,10.9,24.7,,,,,,,,,wg-a,,,,AAXX 03064 07460 02/00 11912 10120 20000 39815 40207 56004 60006 80001 90600 333 10247 20109 60004=
07460,1997-05-03 09:00:00,20,1018.7,-0.8,35,4,40000,22.224,,,180,,,,,,,,,,,wg-a,,,,AAXX 03094 07460 12/82 11812 10200 20040 39807 40187 56008 60006 80001 90900=
07460,1997-05-03 12:00:00,28,1015.6,-2.1,30,9,40000,7.408,,,210,,,,,,,,,,,wg-a,,,,AAXX 03124 07460 12782 32104 10280 20090 39787 40156 58021 60006 81101 91200=
07460,1997-05-03 18:00:00,23,1015.5,0.7,47,11,20000,22.224,,,290,11.9,28.4,,,,,,,,25,wg-a,,,,AAXX 03184 07460 02770 72912 10230 20110 39780 40155 53007 61000 72586 82272 91800 333 10284 20119 6100=
07460,1997-05-03 21:00:00,17,1017.7,1.4,94,16,15000,3.704,,,220,,,,0,,,,,,1,wg-a,,,,AAXX 03214 07460 12765 72202 10170 20160 39795 40177 51014 60007 70162 82532 92100=
07460,1997-05-04 00:00:00,16,1017,-0.8,82,13,15000,3.704,,,150,,,,,,,,,,25,wg-a,,,,AAXX 04004 07460 02665 41502 10160 20130 39786 40170 58008 60016 72586 82532 90000 333 61000=
07460,1997-05-04 06:00:00,13,1015.3,-0.3,94,12,10000,3.704,,,270,11.2,22.5,,,,,,,,,wg-a,,,,AAXX 04064 07460 02560 /2702 10130 20120 39766 40153 55003 60006 81182 90600 333 10225 20112 60004=
07460,1997-05-04 09:00:00,21,1012.8,-1.4,60,13,20000,7.408,,,120,,,,,,,,,,,wg-a,,,,AAXX 04094 07460 12670 51204 10210 20130 39752 40128 58014 60006 82282 90900=
07460,1997-05-04 12:00:00,25,1009.4,-2.8,41,11,500,3.704,,,110,,,,,,,,,,,wg-a,,,,AAXX 04124 07460 12600 51102 10250 20110 39724 40094 58028 60006 84202 91200=
07460,1997-05-04 15:00:00,27,1006.3,-2.8,24,5,500,22.224,,,250,,,,,,,,,,,wg-a,,,,AAXX 04154 07460 12600 52512 10270 20050 39696 40063 57028 60006 84242 91500=
07460,1997-05-04 18:00:00,24,1005.5,-1.1,41,10,35000,18.52,,,270,13.4,28.5,,,,,,,,25,wg-a,,,,AAXX 04184 07460 02681 /2710 10240 20100 39685 40055 55011 61000 72586 85933 91800 333 10285 20134 6100=
07460,1997-05-05 00:00:00,17,1001.6,-4,72,12,15000,29.632,,,200,,,,0,,,,,,,wg-a,,,,AAXX 05004 07460 02665 42016 10170 20120 39639 40016 58040 60006 83830 90000 333 60007=
07460,1997-05-05 03:00:00,15,1000.6,-1.1,88,13,12000,14.816,,,200,,,,1,,,,,,60,wg-a,,,,AAXX 05034 07460 12562 72008 10150 20130 39627 40006 56011 60017 76061 8587/ 90300=
07460,1997-05-05 06:00:00,11,1004.2,2.9,87,9,13000,14.816,,,120,11,23.6,,,,,15,,,29,wg-a,,,,AAXX 05064 07460 02463 81208 10110 20090 39656 40042 51029 60006 72998 8597/ 90600 333 10236 20110 60154=
07460,1997-05-05 09:00:00,15,1002.3,-1.2,72,10,15000,22.224,,,190,,,,,,,,,,,wg-a,,,,AAXX 05094 07460 12465 61912 10150 20100 39643 40023 56012 60006 83142 90900=
07460,1997-05-05 12:00:00,20,1000.5,-1.3,46,8,15000,25.928,,,230,,,,,,,,,,,wg-a,,,,AAXX 05124 07460 12665 32314 10200 20080 39631 40005 58013 60006 82241 91200=
07460,1997-05-05 15:00:00,20,997.6,-2.7,43,7,15000,29.632,,,200,,,,,,,,,,,wg-a,,,,AAXX 05154 07460 12665 /2016 10200 20070 39604 49976 58027 60006 84242 91500=
07460,1997-05-05 18:00:00,16,997.9,-0.3,68,10,15000,25.928,,,170,11,21.1,,,,,,,,21,wg-a,,,,AAXX 05184 07460 02665 51714 10160 20100 39602 49979 58003 61000 72186 84839 91800 333 10211 20110 6003=
07460,1997-05-05 21:00:00,13,997.5,-0.7,82,10,15000,22.224,,,170,,,,,,,,,,,wg-a,,,,AAXX 05214 07460 12665 51712 10130 20100 39594 49975 58007 60006 84830 92100=
07460,1997-05-06 00:00:00,12,995.2,-2.6,82,9,15000,14.816,,,190,,,,0,,,,,,25,wg-a,,,,AAXX 06004 07460 02565 51908 10120 20090 39570 49952 58026 60006 72586 84830 90000 333 60007=
07460,1997-05-06 06:00:00,10,995.1,0.4,62,3,500,14.816,,,210,10,15.7,,,,,4,,,3,wg-a,,,,AAXX 06064 07460 02500 72108 10100 20030 39567 49951 50004 60006 70362 84872 90600 333 10157 20100 60044=
07460,1997-05-06 09:00:00,13,994,-0.7,54,4,50000,31.484,,,240,,,,,,,,,,,wg-a,,,,AAXX 06094 07460 12584 /2417 10130 20040 39560 49940 57007 60006 86200 90900=
07460,1997-05-06 12:00:00,12,994.8,0.6,71,7,50000,35.188,,,250,,,,,,,,,,15,wg-a,,,,AAXX 06124 07460 12584 72519 10120 20070 39567 49948 53006 60006 71522 878// 91200=
07460,1997-05-06 15:00:00,9,998.7,3.4,76,5,10000,31.484,,50.004,290,,,,1,,,,,,25,wg-a,,,,AAXX 06154 07460 12560 72917 10090 20050 39600 49987 53034 60017 72586 8687/ 91500 333 91027=
07460,1997-05-06 18:00:00,8,1003.5,4.5,66,2,14000,11.112,,,300,7.5,14.4,,,,,,,,80,wg-a,,,,AAXX 06184 07460 02564 73006 10080 20020 39644 40035 51045 61000 78086 878// 91800 333 10144 20075 6100=
07460,1997-05-07 00:00:00,5,1007.7,1.3,70,0,13000,11.112,,,260,,,,,,,,,,1,wg-a,,,,AAXX 07004 07460 02563 42606 10050 20000 39681 40077 51013 60006 70186 83130 90000 333 61000=
07460,1997-05-07 03:00:00,3,1005.9,-2.1,81,0,13000,18.52,,,190,,,,,,,,,,,wg-a,,,,AAXX 07034 07460 12563 21910 10030 20000 39660 40059 58021 60006 82500 90300=
07460,1997-05-07 06:00:00,4,1003.2,-2.4,81,1,500,22.224,,,180,0.9,7.6,,,,,1,,,,wg-a,,,,AAXX 07064 07460 02600 /1812 10040 20010 39636 40032 56024 60006 81532 90600 333 10076 20009 60014=
07460,1997-05-07 09:00:00,8,1001.2,-1.5,53,-1,500,22.224,,,190,,,,,,,,,,,wg-a,,,,AAXX 07094 07460 12600 71912 10080 21010 39622 40012 56015 60006 82532 90900=
07460,1997-05-07 12:00:00,13,999.6,-0.8,51,3,500,29.632,,,260,,,,,,,,,,,wg-a,,,,AAXX 07124 07460 12600 /2616 10130 20030 39613 49996 56008 60006 85832 91200=
07460,1997-05-07 15:00:00,9,1000.8,0.8,61,2,10000,22.224,,,300,,,,,,,,,,15,wg-a,,,,AAXX 07154 07460 02660 73012 10090 20020 39620 40008 53008 61000 71586 85832 91500 333 ////=
07460,1997-05-07 18:00:00,7,1004,2.7,61,0,40000,25.928,,,340,3.9,13.7,,,,,,,,1,wg-a,,,,AAXX 07184 07460 12582 73414 10070 20000 39647 40040 53027 60006 70186 8347/ 91800 333 10137 20039=
07460,1997-05-07 21:00:00,6,1007.3,3.1,70,1,500,7.408,,,320,,,,,,,,,,,wg-a,,,,AAXX 07214 07460 12500 73204 10060 20010 39678 40073 51031 60006 8553/ 92100=
07460,1997-05-08 00:00:00,4,1009.2,1.6,75,0,25000,7.408,,,310,,,,,,,,,,,wg-a,,,,AAXX 08004 07460 12575 43104 10040 20000 39693 40092 51016 60006 84500 90000=
07460,1997-05-08 03:00:00,3,1010.8,1.3,75,-1,25000,7.408,,,290,,,,,,,,,,,wg-a,,,,AAXX 08034 07460 12575 22904 10030 21010 39707 40108 52013 60006 82500 90300=
07460,1997-05-08 06:00:00,4,1011.4,0.8,75,0,25000,7.408,,,250,0.4,6.5,,,,,,,,,wg-a,,,,AAXX 08064 07460 02575 32504 10040 20000 39714 40114 53008 60006 81101 90600 333 10065 20004 61000=
07460,1997-05-08 09:00:00,9,1010.7,0,46,-2,500,11.112,,,260,,,,,,,,,,,wg-a,,,,AAXX 08094 07460 12600 42606 10090 21020 39715 40107 50000 60006 82102 90900=
07460,1997-05-08 12:00:00,11,1009.3,-1,47,0,500,18.52,,,240,,,,,,,,,,,wg-a,,,,AAXX 08124 07460 12600 /2410 10110 20000 39705 40093 58010 60006 85102 91200=
07460,1997-05-08 15:00:00,12,1008.2,-1.1,50,2,500,22.224,,,250,,,,,,,,,,,wg-a,,,,AAXX 08154 07460 12600 72512 10120 20020 39695 40082 56011 60006 83572 91500=
07460,1997-05-08 18:00:00,11,1008.3,0,58,3,14000,22.224,,,250,3.9,12.9,,,,,,,,,wg-a,,,,AAXX 08184 07460 12664 72512 10110 20030 39695 40083 50000 60006 85872 91800 333 10129 20039=
07460,1997-05-08 21:00:00,11,1008.6,0.1,62,4,14000,11.112,,,200,,,,,,,,,,,wg-a,,,,AAXX 08214 07460 12564 72006 10110 20040 39697 40086 50001 60006 85832 92100=
07460,1997-05-09 00:00:00,11,1007.5,-1,66,5,10000,25.928,,,230,,,,,,,,,,,wg-a,,,,AAXX 09004 07460 12560 72314 10110 20050 39687 40075 58010 60006 8583/ 90000=
07460,1997-05-09 03:00:00,11,1006.5,-0.9,71,6,10000,22.224,,,200,,,,,,,,,,,wg-a,,,,AAXX 09034 07460 12460 72012 10110 20060 39678 40065 57009 60006 8683/ 90300=
07460,1997-05-09 06:00:00,12,1005.9,-0.5,62,5,15000,22.224,,,180,10.1,11.8,,,,,,,,,wg-a,,,,AAXX 09064 07460 02565 71812 10120 20050 39673 40059 55005 60006 875// 90600 333 10118 20101 60004=
07460,1997-05-09 12:00:00,13,1009,1.7,62,6,15000,18.52,,,290,,,,,,,,,,3,wg-a,,,,AAXX 09124 07460 12565 72910 10130 20060 39704 40090 51017 60016 70386 86802 91200=
07460,1997-05-09 18:00:00,12,1011.8,1.9,54,3,25000,25.928,,48.152,250,8.1,16.1,,,,,,,,25,wg-a,,,,AAXX 09184 07460 02675 42514 10120 20030 39730 40118 51019 61000 72586 84201 91800 333 10161 20081 6100 91026=
07460,1997-05-09 21:00:00,10,1014.2,1.9,71,5,15000,18.52,,,240,,,,0,,,,,,1,wg-a,,,,AAXX 09214 07460 12665 32410 10100 20050 39751 40142 51019 60007 70186 83201 92100=
07460,1997-05-10 00:00:00,8,1015.5,1,81,5,15000,7.408,,,140,,,,,,,,,,1,wg-a,,,,AAXX 10004 07460 12565 21404 10080 20050 39760 40155 51010 60006 70186 82830 90000=
07460,1997-05-10 03:00:00,7,1015.5,-0.1,81,4,15000,14.816,,,190,,,,,,,,,,,wg-a,,,,AAXX 10034 07460 12665 /1908 10070 20040 39759 40155 58001 60006 81500 90300=
07460,1997-05-10 06:00:00,8,1015.2,-0.2,76,4,20000,18.52,,,190,6.1,12.6,,,,,2,,,,wg-a,,,,AAXX 10064 07460 02670 71910 10080 20040 39757 40152 56002 60006 81131 90600 333 10126 20061 60024=
07460,1997-05-10 09:00:00,15,1013.9,-0.2,55,6,20000,25.928,,,180,,,,,,,,,,,wg-a,,,,AAXX 10094 07460 12670 71814 10150 20060 39755 40139 58002 60006 81132 90900=
07460,1997-05-10 12:00:00,19,1012.6,-0.8,43,6,500,25.928,,,190,,,,,,,,,,,wg-a,,,,AAXX 10124 07460 12600 71914 10190 20060 39746 40126 58008 60006 82132 91200=
07460,1997-05-10 15:00:00,20,1010.3,-2,43,7,500,25.928,,,180,,,,,,,,,,,wg-a,,,,AAXX 10154 07460 12700 71814 10200 20070 39726 40103 56020 60006 83132 91500=
07460,1997-05-10 18:00:00,19,1009.9,-0.6,43,6,500,29.632,,,180,8.1,20.8,,,,,,,,1,wg-a,,,,AAXX 10184 07460 02700 71816 10190 20060 39721 40099 55006 60006 70186 81232 91800 333 10208 20081 61000=
07460,1997-05-11 00:00:00,14,1013.4,2.2,41,1,20000,18.52,,,200,,,,,,,,,,,wg-a,,,,AAXX 11004 07460 12770 72010 10140 20010 39748 40134 51022 60006 8353/ 90000=
07460,1997-05-11 03:00:00,12,1012.9,-0.8,47,1,20000,11.112,,,170,,,,,,,,,,,wg-a,,,,AAXX 11034 07460 12770 71706 10120 20010 39740 40129 58008 60006 8153/ 90300=
07460,1997-05-11 06:00:00,12,1012.9,-0,47,1,40000,14.816,,,150,11,18.8,,,,,,,,,wg-a,,,,AAXX 11064 07460 02782 71508 10120 20010 39740 40129 55000 60006 82532 90600 333 10188 20110 61000=
07460,1997-05-11 09:00:00,17,1011.9,-0.3,42,4,40000,14.816,,,190,,,,,,,,,,,wg-a,,,,AAXX 11094 07460 12782 71908 10170 20040 39737 40119 58003 60006 83532 90900=
07460,1997-05-11 12:00:00,19,1011.2,-0.4,37,4,40000,22.224,,,230,,,,,,,,,,,wg-a,,,,AAXX 11124 07460 12782 72312 10190 20040 39733 40112 56004 60006 8357/ 91200=
07460,1997-05-11 18:00:00,12,1015.8,2.8,82,9,15000,11.112,,,160,11.9,19.5,,,,,,,,61,wg-a,,,,AAXX 11184 07460 02565 71606 10120 20090 39769 40158 51028 61000 76162 8587/ 91800 333 10195 20119 6003=
07460,1997-05-11 21:00:00,10,1018.6,2.5,93,9,15000,18.52,,,190,,,,2,,,,,,1,wg-a,,,,AAXX 11214 07460 12565 71910 10100 20090 39794 40186 51025 60027 70162 8383/ 92100=
07460,1997-05-12 00:00:00,10,1019,0.3,93,9,15000,11.112,,,170,,,,,,,,,,2,wg-a,,,,AAXX 12004 07460 12565 71706 10100 20090 39797 40190 50003 60026 70262 8387/ 90000=
07460,1997-05-12 03:00:00,10,1020.2,1.1,87,8,15000,7.408,,,180,,,,,,,,,,,wg-a,,,,AAXX 12034 07460 12565 71804 10100 20080 39808 40202 53011 60006 8387/ 90300=
07460,1997-05-12 06:00:00,10,1021.1,0.9,93,9,13000,3.704,,,70,8.9,12.2,,,,,5,,,,wg-a,,,,AAXX 12064 07460 02563 70702 10100 20090 39817 40211 51009 60006 8387/ 90600 333 10122 20089 60054=
07460,1997-05-12 09:00:00,15,1021.4,0.9,72,10,18000,3.704,,,110,,,,,,,,,,,wg-a,,,,AAXX 12094 07460 12568 51102 10150 20100 39826 40214 51009 60006 85200 90900=
07460,1997-05-12 12:00:00,17,1020.2,-0.8,55,8,15000,7.408,,,110,,,,,,,,,,,wg-a,,,,AAXX 12124 07460 12565 71104 10170 20080 39818 40202 58008 60006 85201 91200=
07460,1997-05-12 15:00:00,17,1019.7,-0.5,68,11,15000,7.408,,,30,,,,1,,,,,,3,wg-a,,,,AAXX 12154 07460 12565 70304 10170 20110 39813 40197 58005 60017 70386 8593/ 91500=
07460,1997-05-12 18:00:00,14,1020.8,0.7,77,10,15000,3.704,,,30,9.7,18,,,,,,,,25,wg-a,,,,AAXX 12184 07460 02565 70302 10140 20100 39820 40208 51007 61000 72586 878// 91800 333 10180 20097 6000=
07460,1997-05-12 21:00:00,12,1022,0.9,88,10,15000,3.704,,,20,,,,,,,,,,,wg-a,,,,AAXX 12214 07460 12465 70202 10120 20100 39829 40220 51009 60006 84532 92100=
07460,1997-05-13 00:00:00,11,1022.1,-0.2,94,10,15000,3.704,,,140,,,,,,,,,,,wg-a,,,,AAXX 13004 07460 12465 71402 10110 20100 39827 40221 58002 60006 83532 90000=
07460,1997-05-13 03:00:00,10,1021.5,-0.6,100,10,10000,7.408,,,350,,,,,,,,,,,wg-a,,,,AAXX 13034 07460 12460 73504 10100 20100 39821 40215 56006 60006 8657/ 90300=
07460,1997-05-13 06:00:00,11,1021.6,0.2,94,10,7000,0,,,0,9.7,14.3,,,,,1,,,,wg-a,,,,AAXX 13064 07460 02757 70000 10110 20100 39823 40216 53002 60006 83532 90600 333 10143 20097 60014=
07460,1997-05-13 09:00:00,17,1020,-0.7,72,12,20000,11.112,,,130,,,,,,,,,,,wg-a,,,,AAXX 13094 07460 12670 /1306 10170 20120 39816 40200 58007 60006 82232 90900=
07460,1997-05-13 12:00:00,21,1017.7,-1.8,56,12,500,14.816,,,150,,,,,,,,,,,wg-a,,,,AAXX 13124 07460 12600 71508 10210 20120 39798 40177 58018 60006 85282 91200=
07460,1997-05-13 15:00:00,18,1016.6,-1.3,83,15,12000,11.112,,,260,,,,0,,,,,,80,wg-a,,,,AAXX 13154 07460 12662 72606 10180 20150 39785 40166 56013 60007 78086 86382 91500=
07460,1997-05-13 18:00:00,18,1015.8,-0.7,73,13,500,7.408,,,10,10.8,22.7,,,,,,,,1,wg-a,,,,AAXX 13184 07460 02600 70104 10180 20130 39777 40158 55007 60006 70186 84882 91800 333 10227 20108 61000=
07460,1997-05-13 21:00:00,16,1017.9,1.6,82,13,20000,0,,,0,,,,,,,,,,,wg-a,,,,AAXX 13214 07460 12670 70000 10160 20130 39794 40179 53016 60006 8487/ 92100=
07460,1997-05-14 00:00:00,13,1019,0.7,94,12,15000,3.704,,,240,,,,,,,,,,,wg-a,,,,AAXX 14004 07460 12765 /2402 10130 20120 39801 40190 52007 60006 82501 90000=
07460,1997-05-14 03:00:00,13,1019.1,0.2,94,12,15000,7.408,,,60,,,,,,,,,,,wg-a,,,,AAXX 14034 07460 12365 /0604 10130 20120 39803 40191 51002 60006 83532 90300=
07460,1997-05-14 06:00:00,13,1019.9,0.7,94,12,8000,7.408,,,60,12.4,17.8,,,,,,,,,wg-a,,,,AAXX 14064 07460 02458 70604 10130 20120 39810 40199 53007 60006 8553/ 90600 333 10178 20124 60004=
07460,1997-05-14 09:00:00,14,1021,1.1,88,12,10000,14.816,,,30,,,,,,,,,,,wg-a,,,,AAXX 14094 07460 12460 70308 10140 20120 39822 40210 51011 60006 875// 90900=
07460,1997-05-14 12:00:00,16,1019.9,-0.8,77,12,15000,14.816,,,10,,,,,,,,,,,wg-a,,,,AAXX 14124 07460 12465 70108 10160 20120 39814 40199 56008 60006 878// 91200=
07460,1997-05-14 15:00:00,16,1018.4,-1.3,77,12,20000,14.816,,,350,,,,,,,,,,,wg-a,,,,AAXX 14154 07460 12570 73508 10160 20120 39800 40184 56013 60006 878// 91500=
07460,1997-05-14 18:00:00,17,1018,-0.2,72,12,15000,11.112,,,340,13.2,17.6,,,,,,,,,wg-a,,,,AAXX 14184 07460 12565 73406 10170 20120 39797 40180 55002 60006 875// 91800 333 10176 20132=
07460,1997-05-14 21:00:00,16,1018.8,0.6,77,12,12000,7.408,,,320,,,,,,,,,,,wg-a,,,,AAXX 14214 07460 12562 73204 10160 20120 39803 40188 53006 60006 875// 92100=
07460,1997-05-15 00:00:00,15,1018.1,-0.9,82,12,12000,0,,,0,,,,,,,,,,,wg-a,,,,AAXX 15004 07460 12462 80000 10150 20120 39795 40181 56009 60006 875// 90000=
07460,1997-05-15 03:00:00,11,1016.9,-1.7,94,10,12000,0,,,0,,,,,,,,,,,wg-a,,,,AAXX 15034 07460 12562 70000 10110 20100 39778 40169 56017 60006 86502 90300=
07460,1997-05-15 06:00:00,12,1016.7,-0,94,11,15000,7.408,,,170,9.5,17,,,,,,,,,wg-a,,,,AAXX 15064 07460 02665 51704 10120 20110 39778 40167 54000 60006 81531 90600 333 10170 20095 60004=
07460,1997-05-15 09:00:00,20,1015.2,-0.4,68,14,15000,7.408,,,120,,,,,,,,,,,wg-a,,,,AAXX 15094 07460 12665 71204 10200 20140 39774 40152 58004 60006 81122 90900=
07460,1997-05-15 12:00:00,25,1012.9,-1.6,39,10,20000,14.816,,,160,,,,,,,,,,,wg-a,,,,AAXX 15124 07460 12670 /1608 10250 20100 39758 40129 58016 60006 81102 91200=
07460,1997-05-15 15:00:00,27,1010.6,-2.1,37,11,20000,11.112,,,90,,,,,,,,,,,wg-a,,,,AAXX 15154 07460 12670 /0906 10270 20110 39737 40106 56021 60006 82281 91500=
07460,1997-05-15 18:00:00,25,1011.3,0.4,32,7,500,18.52,,,190,12,27.3,,,,,,,,,wg-a,,,,AAXX 15184 07460 12700 51910 10250 20070 39741 40113 53004 60006 81982 91800 333 10273 20120=
07460,1997-05-15 21:00:00,20,1013.2,1.3,46,8,20000,7.408,,,100,,,,,,,,,,,wg-a,,,,AAXX 15214 07460 12770 71004 10200 20080 39754 40132 51013 60006 84532 92100=
07460,1997-05-16 00:00:00,17,1013.6,-0.1,68,11,20000,3.704,,,140,,,,,,,,,,,wg-a,,,,AAXX 16004 07460 12770 71402 10170 20110 39754 40136 58001 60006 8253/ 90000=
07460,1997-05-16 03:00:00,16,1012.8,-0.8,72,11,20000,7.408,,,170,,,,,,,,,,,wg-a,,,,AAXX 16034 07460 12770 71704 10160 20110 39745 40128 56008 60006 8153/ 90300=
07460,1997-05-16 06:00:00,18,1013.1,0.5,56,9,25000,14.816,,,150,15.1,24.4,,,,,,,,,wg-a,,,,AAXX 16064 07460 02775 71508 10180 20090 39750 40131 53005 60006 81572 90600 333 10244 20151 60004=
07460,1997-05-16 09:00:00,21,1012.9,0.2,46,9,25000,25.928,,,160,,,,,,,,,,,wg-a,,,,AAXX 16094 07460 12/75 71614 10210 20090 39752 40129 50002 60006 84082 90900=
07460,1997-05-16 12:00:00,25,1011.6,-0.7,39,10,500,18.52,,,190,,,,,,,,,,,wg-a,,,,AAXX 16124 07460 12700 71910 10250 20100 39745 40116 58007 60006 81282 91200=
07460,1997-05-16 18:00:00,23,1010.7,-0.6,38,8,25000,25.928,,,180,17.7,26.6,,,,,,,,,wg-a,,,,AAXX 16184 07460 12/75 31814 10230 20080 39734 40107 55006 60006 83042 91800 333 10266 20177=
07460,1997-05-16 21:00:00,19,1012.9,1.5,52,9,20000,11.112,,,170,,,,,,,,,,,wg-a,,,,AAXX 16214 07460 12/70 51706 10190 20090 39749 40129 53015 60006 84031 92100=
07460,1997-05-17 00:00:00,17,1013.1,-0,55,8,20000,11.112,,,150,,,,,,,,,,,wg-a,,,,AAXX 17004 07460 12/70 31506 10170 20080 39749 40131 54000 60006 83041 90000=
07460,1997-05-17 03:00:00,16,1012.8,-0.4,63,9,20000,3.704,,,240,,,,,,,,,,,wg-a,,,,AAXX 17034 07460 12770 42402 10160 20090 39745 40128 56004 60006 81531 90300=
07460,1997-05-17 06:00:00,15,1012.9,0,67,9,500,7.408,,,80,13,22.8,,,,,,,,,wg-a,,,,AAXX 17064 07460 02/00 40804 10150 20090 39745 40129 50000 60006 81041 90600 333 10228 20130 60004=
07460,1997-05-17 09:00:00,21,1011.5,-0.5,46,9,40000,25.928,,,180,,,,,,,,,,,wg-a,,,,AAXX 17094 07460 12782 41814 10210 20090 39740 40115 58005 60006 81541 90900=
07460,1997-05-17 12:00:00,21,1012.1,0.5,53,11,500,31.484,,,210,,,,,,,,,,,wg-a,,,,AAXX 17124 07460 12600 72117 10210 20110 39744 40121 53005 60006 8287/ 91200=
07460,1997-05-17 15:00:00,16,1013,0.3,88,14,15000,11.112,,,180,,,,2,,,,,,61,wg-a,,,,AAXX 17154 07460 12765 71806 10160 20140 39748 40130 50003 60027 76162 8287/ 91500=
07460,1997-05-17 18:00:00,16,1012.5,-0.5,88,14,9000,3.704,,,180,15.1,22.2,,,,,,,,61,wg-a,,,,AAXX 17184 07460 02659 81802 10160 20140 39743 40125 55005 61000 76162 8187/ 91800 333 10222 20151 6001=
07460,1997-05-18 00:00:00,10,1014.3,0.1,87,8,15000,7.408,,,250,,,,,,,,,,1,wg-a,,,,AAXX 18004 07460 12565 32504 10100 20080 39752 40143 51001 60016 70161 82830 90000=
07460,1997-05-18 03:00:00,12,1014.2,0.1,82,9,15000,3.704,,,110,,,,,,,,,,,wg-a,,,,AAXX 18034 07460 12565 71102 10120 20090 39753 40142 52001 60006 8113/ 90300=
07460,1997-05-18 06:00:00,13,1014.5,0.5,88,11,14000,7.408,,,120,10.2,15.7,,,,,3,,,3,wg-a,,,,AAXX 18064 07460 02464 71204 10130 20110 39758 40145 52005 60006 70361 878// 90600 333 10157 20102 60034=
07460,1997-05-18 09:00:00,17,1014.2,0.2,63,10,20000,7.408,,,120,,,,,,,,,,,wg-a,,,,AAXX 18094 07460 12570 51204 10170 20100 39759 40142 50002 60006 85200 90900=
07460,1997-05-18 12:00:00,21,1012,-1.5,46,9,500,18.52,,,180,,,,,,,,,,,wg-a,,,,AAXX 18124 07460 12600 21810 10210 20090 39744 40120 58015 60006 82200 91200=
07460,1997-05-18 18:00:00,22,1009.6,-0.9,41,8,40000,3.704,,,340,12.5,23.8,,,,,,,,,wg-a,,,,AAXX 18184 07460 12682 33402 10220 20080 39721 40096 56009 60006 82801 91800 333 10238 20125=
07460,1997-05-18 21:00:00,19,1010.9,0.9,56,10,20000,25.928,,,180,,,,,,,,,,,wg-a,,,,AAXX 18214 07460 12770 31814 10190 20100 39730 40109 53009 60006 83800 92100=
07460,1997-05-19 00:00:00,13,1011.3,-0.5,67,7,20000,7.408,,,260,,,,,,,,,,,wg-a,,,,AAXX 19004 07460 12/70 12604 10130 20070 39726 40113 57005 60006 80001 90000=
07460,1997-05-19 03:00:00,12,1009.7,-1.6,71,7,20000,11.112,,,190,,,,,,,,,,,wg-a,,,,AAXX 19034 07460 12/70 11906 10120 20070 39710 40097 58016 60006 80001 90300=
07460,1997-05-19 06:00:00,15,1008.4,-0.8,67,9,500,29.632,,,190,12.3,21.6,,,,,,,,,wg-a,,,,AAXX 19064 07460 02/00 71916 10150 20090 39702 40084 56008 60006 82032 90600 333 10216 20123 60004=
07460,1997-05-19 12:00:00,24,1007.1,-0.2,44,11,500,29.632,,,180,,,,,,,,,,,wg-a,,,,AAXX 19124 07460 12700 71816 10240 20110 39700 40071 56002 60006 82142 91200=
07460,1997-05-19 15:00:00,18,1008.7,1,83,15,25000,14.816,,,70,,,,2,,,,,,25,wg-a,,,,AAXX 19154 07460 12775 70708 10180 20150 39710 40087 51010 60027 72586 84202 91500=
07460,1997-05-19 18:00:00,14,1010.3,0.9,94,13,3000,11.112,,,320,,24,,,,,,,,82,wg-a,,,,AAXX 19184 07460 02230 73206 10140 20130 39719 40103 53009 61000 78298 879// 91800 333 10240 6014=
07460,1997-05-19 21:00:00,13,1011.3,1,100,13,8000,3.704,,,160,,,,8,,,,,,60,wg-a,,,,AAXX 19214 07460 12458 71602 10130 20130 39728 40113 53010 60087 76096 879// 92100=
07460,1997-05-20 00:00:00,13,1010.4,-1,94,12,12000,7.408,,,170,,,,4,,,,,,1,wg-a,,,,AAXX 20004 07460 02562 71704 10130 20120 39718 40104 58010 60136 70198 8583/ 90000 333 60047=
07460,1997-05-20 03:00:00,13,1010.3,-0.1,77,9,12000,7.408,,,220,,,,,,,,,,,wg-a,,,,AAXX 20034 07460 12462 72204 10130 20090 39717 40103 55001 60006 8583/ 90300=
07460,1997-05-20 06:00:00,12,1010.4,0.2,94,11,15000,3.704,,,310,10.9,14,,,,,29,,,,wg-a,,,,AAXX 20064 07460 02565 73102 10120 20110 39717 40104 53002 60006 8623/ 90600 333 10140 20109 60294=
07460,1997-05-20 09:00:00,18,1009.9,0.2,56,9,35000,22.224,,,240,,,,,,,,,,,wg-a,,,,AAXX 20094 07460 12581 62412 10180 20090 39719 40099 53002 60006 85230 90900=
07460,1997-05-20 12:00:00,18,1009.7,0,49,7,35000,31.484,,,240,,,,,,,,,,,wg-a,,,,AAXX 20124 07460 12681 62417 10180 20070 39718 40097 50000 60006 84830 91200=
07460,1997-05-20 15:00:00,16,1010.8,0.7,59,8,25000,35.188,,,230,,,,,,,,,,25,wg-a,,,,AAXX 20154 07460 02575 62319 10160 20080 39725 40108 51007 61000 72586 84333 91500 333 ////=
07460,1997-05-20 18:00:00,16,1011.2,0.3,68,10,20000,11.112,,,250,12.4,19.5,,0,,,,,,1,wg-a,,,,AAXX 20184 07460 02670 52506 10160 20100 39729 40112 53003 60006 70186 83903 91800 333 10195 20124 60007=
07460,1997-05-20 21:00:00,11,1013.1,1.4,76,7,25000,7.408,,,230,,,,,,,,,,,wg-a,,,,AAXX 20214 07460 12775 /2304 10110 20070 39742 40131 53014 60006 81500 92100=
07460,1997-05-21 00:00:00,9,1013.8,0.3,81,6,20000,11.112,,,200,,,,,,,,,,,wg-a,,,,AAXX 21004 07460 12770 /2006 10090 20060 39745 40138 52003 60006 81500 90000=
07460,1997-05-21 03:00:00,10,1013.7,0.1,76,6,20000,11.112,,,200,,,,,,,,,,,wg-a,,,,AAXX 21034 07460 12670 /2006 10100 20060 39746 40137 53001 60006 85500 90300=
07460,1997-05-21 06:00:00,12,1013.3,-0.1,82,9,10000,11.112,,,200,8.5,16.2,,,,,,,,,wg-a,,,,AAXX 21064 07460 02460 72006 10120 20090 39745 40133 55001 60006 878// 90600 333 10162 20085 60004=
07460,1997-05-21 12:00:00,18,1012.9,-0.1,52,8,20000,14.816,,33.336,250,,,,,,,,,,,wg-a,,,,AAXX 21124 07460 12670 42508 10180 20080 39748 40129 58001 60006 84802 91200 333 91018=
07460,1997-05-21 15:00:00,20,1011.2,-1.2,43,7,25000,22.224,,,290,,,,,,,,,,,wg-a,,,,AAXX 21154 07460 12675 42912 10200 20070 39735 40112 56012 60006 83802 91500=
07460,1997-05-21 18:00:00,17,1013,1.3,48,6,25000,18.52,,,300,12.1,20,,,,,,,,,wg-a,,,,AAXX 21184 07460 12675 73010 10170 20060 39748 40130 53013 60006 86802 91800 333 10200 20121=
07460,1997-05-21 21:00:00,14,1015.5,2,67,8,15000,7.408,,,310,,,,,,,,,,,wg-a,,,,AAXX 21214 07460 12665 73104 10140 20080 39769 40155 51020 60006 8684/ 92100=
07460,1997-05-22 00:00:00,13,1016.1,0.4,67,7,15000,7.408,,,310,,,,,,,,,,,wg-a,,,,AAXX 22004 07460 12565 73104 10130 20070 39773 40161 52004 60006 8684/ 90000=
07460,1997-05-22 03:00:00,12,1015.7,-0.5,76,8,15000,3.704,,,180,,,,,,,,,,,wg-a,,,,AAXX 22034 07460 12565 /1802 10120 20080 39768 40157 58005 60006 85830 90300=
07460,1997-05-22 06:00:00,13,1016.6,0.9,72,8,20000,11.112,,,90,11.3,16.4,,,,,,,,,wg-a,,,,AAXX 22064 07460 02570 70906 10130 20080 39777 40166 53009 60006 8780/ 90600 333 10164 20113 60004=
07460,1997-05-22 09:00:00,15,1016.9,0.6,63,8,40000,7.408,,,110,,,,,,,,,,,wg-a,,,,AAXX 22094 07460 12582 51104 10150 20080 39783 40169 51006 60006 85800 90900=
07460,1997-05-22 12:00:00,17,1016.5,-0.1,55,8,40000,14.816,,,40,,,,,,,,,,,wg-a,,,,AAXX 22124 07460 12682 /0408 10170 20080 39782 40165 58001 60006 86800 91200=
07460,1997-05-22 18:00:00,17,1014.9,-0.5,48,6,40000,7.408,,,20,12.4,18.9,,,,,,,,,wg-a,,,,AAXX 22184 07460 12782 30204 10170 20060 39766 40149 56005 60006 83800 91800 333 10189 20124=
07460,1997-05-22 21:00:00,13,1016.5,1.1,72,8,40000,3.704,,,360,,,,,,,,,,,wg-a,,,,AAXX 22214 07460 12782 43602 10130 20080 39777 40165 51011 60006 825/2 92100=
07460,1997-05-23 00:00:00,8,1016.8,-0.4,87,6,25000,7.408,,,230,,,,,,,,,,,wg-a,,,,AAXX 23004 07460 12775 42304 10080 20060 39773 40168 58004 60006 825/2 90000=
07460,1997-05-23 03:00:00,8,1016.1,-0.7,87,6,20000,3.704,,,20,,,,,,,,,,,wg-a,,,,AAXX 23034 07460 12770 40202 10080 20060 39766 40161 57007 60006 825/2 90300=
07460,1997-05-23 06:00:00,10,1016.2,0.4,87,8,20000,3.704,,,280,7.2,16.8,,,,,,,,,wg-a,,,,AAXX 23064 07460 02870 42802 10100 20080 39770 40162 53004 60006 81032 90600 333 10168 20072 60004=
07460,1997-05-23 09:00:00,17,1014.7,-0.5,59,9,25000,7.408,,,170,,,,,,,,,,,wg-a,,,,AAXX 23094 07460 12675 /1704 10170 20090 39765 40147 58005 60006 81101 90900=
07460,1997-05-23 12:00:00,20,1013.6,-0.7,49,9,500,3.704,,,70,,,,,,,,,,,wg-a,,,,AAXX 23124 07460 12600 /0702 10200 20090 39758 40136 58007 60006 82102 91200=
07460,1997-05-23 15:00:00,22,1012.1,-1.2,43,9,500,11.112,,,60,,,,,,,,,,,wg-a,,,,AAXX 23154 07460 12600 /0606 10220 20090 39746 40121 56012 60006 81102 91500=
07460,1997-05-23 18:00:00,20,1012.6,0.2,56,11,500,18.52,,,20,10,22.2,,,,,,,,,wg-a,,,,AAXX 23184 07460 12600 /0210 10200 20110 39748 40126 53002 60006 81232 91800 333 10222 20100=
07460,1997-05-23 21:00:00,16,1013.9,0.8,68,10,20000,7.408,,,310,,,,,,,,,,,wg-a,,,,AAXX 23214 07460 12/70 33104 10160 20100 39756 40139 53008 60006 81032 92100=
07460,1997-05-24 00:00:00,13,1014.5,0.1,82,10,20000,0,,,0,,,,,,,,,,,wg-a,,,,AAXX 24004 07460 12/70 40000 10130 20100 39757 40145 51001 60006 80001 90000=
07460,1997-05-24 03:00:00,11,1015,0.1,87,9,20000,0,,,0,,,,,,,,,,,wg-a,,,,AAXX 24034 07460 12/70 10000 10110 20090 39759 40150 51001 60006 81031 90300=
07460,1997-05-24 06:00:00,13,1015.1,0.6,88,11,25000,7.408,,,40,8.8,19.6,,,,,,,,,wg-a,,,,AAXX 24064 07460 02/75 30404 10130 20110 39764 40151 52006 60006 81031 90600 333 10196 20088 60004=
07460,1997-05-24 09:00:00,19,1014.5,0.3,68,13,25000,7.408,,,80,,,,,,,,,,,wg-a,,,,AAXX 24094 07460 12675 /0804 10190 20130 39766 40145 51003 60006 81282 90900=
07460,1997-05-24 12:00:00,20,1015.3,0.8,68,14,10000,7.408,,,330,,,,,,,,,,60,wg-a,,,,AAXX 24124 07460 02660 73304 10200 20140 39775 40153 53008 61000 76061 8428/ 91200 333 6100=
07460,1997-05-24 15:00:00,20,1016.3,0.9,73,15,12000,18.52,,,360,,,,0,,,,,,3,wg-a,,,,AAXX 24154 07460 12562 73610 10200 20150 39784 40163 53009 60007 70362 8528/ 91500=
07460,1997-05-24 18:00:00,19,1016.4,-0,83,16,8000,11.112,,,340,13.1,21.1,,,,,,,,1,wg-a,,,,AAXX 24184 07460 12558 73406 10190 20160 39784 40164 54000 60006 70162 84280 91800 333 10211 20131=
07460,1997-05-25 00:00:00,15,1018.5,0.4,88,13,15000,3.704,,,330,,,,,,,,,,,wg-a,,,,AAXX 25004 07460 12/65 33302 10150 20130 39799 40185 51004 60006 83031 90000=
07460,1997-05-25 03:00:00,11,1019.2,0.2,94,10,15000,3.704,,,120,,,,,,,,,,,wg-a,,,,AAXX 25034 07460 12665 31202 10110 20100 39801 40192 52002 60006 81531 90300=
07460,1997-05-25 06:00:00,13,1019.6,0.6,94,12,7000,3.704,,,60,10.1,18.8,,,,,,,,,wg-a,,,,AAXX 25064 07460 02657 20602 10130 20120 39807 40196 50006 60006 81501 90600 333 10188 20101 60004=
07460,1997-05-25 09:00:00,18,1018.9,0,77,14,8000,3.704,,,160,,,,,,,,,,,wg-a,,,,AAXX 25094 07460 12458 /1602 10180 20140 39807 40189 50000 60006 82101 90900=
07460,1997-05-25 12:00:00,22,1017.7,-0.7,60,14,15000,11.112,,,40,,,,,,,,,,,wg-a,,,,AAXX 25124 07460 12665 /0406 10220 20140 39800 40177 58007 60006 81281 91200=
07460,1997-05-25 15:00:00,24,1016.2,-1.1,54,14,18000,11.112,,,40,,,,,,,,,,,wg-a,,,,AAXX 25154 07460 12668 70406 10240 20140 39788 40162 58011 60006 8298/ 91500=
07460,1997-05-25 18:00:00,19,1017.9,1.1,60,11,15000,18.52,,,180,13.4,24.5,,,,,,,,,wg-a,,,,AAXX 25184 07460 12665 71810 10190 20110 39799 40179 53011 60006 8497/ 91800 333 10245 20134=
07460,1997-05-25 21:00:00,17,1019.7,1.4,72,12,0,3.704,,,30,,,,,,,,,,,wg-a,,,,AAXX 25214 07460 126// 70302 10170 20120 39813 40197 53014 60006 8388/ 92100=
07460,1997-05-26 00:00:00,14,1020.3,0.1,88,12,15000,0,,,0,,,,,,,,,,,wg-a,,,,AAXX 26004 07460 12665 50000 10140 20120 39815 40203 50001 60006 81531 90000=
07460,1997-05-26 06:00:00,13,1021.2,0.9,88,11,20000,7.408,,,50,9.3,19.1,,,,,,,,,wg-a,,,,AAXX 26064 07460 02/70 30504 10130 20110 39823 40212 53009 60006 80003 90600 333 10191 20093 60004=
07460,1997-05-26 09:00:00,19,1020.1,-0.3,64,12,20000,3.704,,,140,,,,,,,,,,,wg-a,,,,AAXX 26094 07460 12/70 31402 10190 20120 39820 40201 58003 60006 80003 90900=
07460,1997-05-26 12:00:00,24,1018.7,-0.7,50,13,25000,11.112,,,20,,,,,,,,,,,wg-a,,,,AAXX 26124 07460 12675 20206 10240 20130 39812 40187 57007 60006 81201 91200=
07460,1997-05-26 15:00:00,25,1017.3,-1,47,13,25000,14.816,,,30,,,,,,,,,,,wg-a,,,,AAXX 26154 07460 12775 20308 10250 20130 39801 40173 58010 60006 81201 91500=
07460,1997-05-26 18:00:00,24,1017.3,-0.3,44,11,500,14.816,,,10,13.4,25.5,,,,,,,,,wg-a,,,,AAXX 26184 07460 12700 10108 10240 20110 39799 40173 55003 60006 81200 91800 333 10255 20134=
07460,1997-05-26 21:00:00,17,1018.9,0.6,55,8,25000,11.112,,,300,,,,,,,,,,,wg-a,,,,AAXX 26214 07460 12/75 03006 10170 20080 39805 40189 51006 60006 80000 92100=
07460,1997-05-27 00:00:00,16,1019.1,0,51,6,25000,3.704,,,340,,,,,,,,,,,wg-a,,,,AAXX 27004 07460 12/75 03402 10160 20060 39805 40191 50000 60006 80000 90000=
07460,1997-05-27 03:00:00,10,1018.9,-0.9,76,6,25000,3.704,,,270,,,,,,,,,,,wg-a,,,,AAXX 27034 07460 12/75 02702 10100 20060 39796 40189 56009 60006 80000 90300=
07460,1997-05-27 06:00:00,13,1019,0.4,72,8,500,3.704,,,30,8.4,23.6,,,,,,,,,wg-a,,,,AAXX 27064 07460 02/00 00302 10130 20080 39800 40190 53004 60006 80000 90600 333 10236 20084 60004=
07460,1997-05-27 09:00:00,19,1017.9,-0.1,56,10,500,3.704,,,320,,,,,,,,,,,wg-a,,,,AAXX 27094 07460 12/00 03202 10190 20100 39799 40179 58001 60006 80000 90900=
07460,1997-05-27 12:00:00,24,1015.7,,34,7,40000,11.112,,,20,,,,,,,,,,,wg-a,,,,AAXX 27124 07460 12/82 00206 10240 20070 39783 40157 60006 80000 91200=
07460,1997-05-27 18:00:00,24,1014.7,-0,44,11,40000,18.52,,,10,12.7,25.7,,,,,,,,,wg-a,,,,AAXX 27184 07460 12782 10110 10240 20110 39773 40147 55000 60006 81231 91800 333 10257 20127=
07460,1997-05-28 00:00:00,16,1017.5,0.6,77,12,500,7.408,,,350,,,,,,,,,,,wg-a,,,,AAXX 28004 07460 12/00 03504 10160 20120 39791 40175 51006 60006 80000 90000=
07460,1997-05-28 03:00:00,14,1018.3,0.5,72,9,500,11.112,,,340,,,,,,,,,,,wg-a,,,,AAXX 28034 07460 12/00 03406 10140 20090 39795 40183 53005 60006 80000 90300=
07460,1997-05-28 06:00:00,13,1019.4,1,72,8,500,14.816,,,360,12.5,23.5,,,,,,,,,wg-a,,,,AAXX 28064 07460 02/00 03608 10130 20080 39805 40194 53010 60006 80000 90600 333 10235 20125 60004=
07460,1997-05-28 09:00:00,17,1019.1,0.1,59,9,25000,14.816,,,20,,,,,,,,,,,wg-a,,,,AAXX 28094 07460 12/75 10208 10170 20090 39807 40191 50001 60006 80001 90900=
07460,1997-05-28 12:00:00,21,1018.2,-0.2,35,5,25000,22.224,,,20,,,,,,,,,,,wg-a,,,,AAXX 28124 07460 12/75 00212 10210 20050 39803 40182 56002 60006 80000 91200=
07460,1997-05-28 18:00:00,19,1018.3,0.6,32,2,500,25.928,,,40,13.2,22,,,,,,,,,wg-a,,,,AAXX 28184 07460 12/00 10414 10190 20020 39802 40183 53006 60006 80001 91800 333 10220 20132=
07460,1997-05-28 21:00:00,15,1020.7,1.8,48,4,500,11.112,,,350,,,,,,,,,,,wg-a,,,,AAXX 28214 07460 12/00 13506 10150 20040 39819 40207 51018 60006 80001 92100=
07460,1997-05-29 00:00:00,12,1021,-0.1,58,4,500,0,,,0,,,,,,,,,,,wg-a,,,,AAXX 29004 07460 12/00 10000 10120 20040 39818 40210 56001 60006 80001 90000=
07460,1997-05-29 03:00:00,6,1022.1,0.3,81,3,20000,3.704,,,250,,,,,,,,,,,wg-a,,,,AAXX 29034 07460 12/70 12502 10060 20030 39821 40221 50003 60006 80001 90300=
07460,1997-05-29 06:00:00,9,1022.2,0.5,76,5,25000,3.704,,,40,4.4,19.2,,,,,,,,,wg-a,,,,AAXX 29064 07460 02/75 30402 10090 20050 39826 40222 53005 60006 80001 90600 333 10192 20044 60004=
07460,1997-05-29 09:00:00,16,1021.1,-0.1,48,5,25000,3.704,,,100,,,,,,,,,,,wg-a,,,,AAXX 29094 07460 12/75 21002 10160 20050 39825 40211 58001 60006 80001 90900=
07460,1997-05-29 12:00:00,22,1020,-0.4,41,8,25000,7.408,,,30,,,,,,,,,,,wg-a,,,,AAXX 29124 07460 12/75 10304 10220 20080 39821 40200 56004 60006 80001 91200=
07460,1997-05-29 15:00:00,25,1018.5,-1,36,9,35000,14.816,,,20,,,,,,,,,,,wg-a,,,,AAXX 29154 07460 12781 /0208 10250 20090 39811 40185 56010 60006 81101 91500=
07460,1997-05-29 18:00:00,23,1018.9,0.2,47,11,500,18.52,,,350,9.2,25,,,,,,,,,wg-a,,,,AAXX 29184 07460 12/00 13510 10230 20110 39813 40189 53002 60006 80001 91800 333 10250 20092=
07460,1997-05-29 21:00:00,18,1021.1,1.4,52,8,20000,11.112,,,310,,,,,,,,,,,wg-a,,,,AAXX 29214 07460 12/70 03106 10180 20080 39827 40211 51014 60006 80000 92100=
07460,1997-05-30 00:00:00,14,1021.9,0.3,67,8,20000,0,,,0,,,,,,,,,,,wg-a,,,,AAXX 30004 07460 12/70 00000 10140 20080 39830 40219 51003 60006 80000 90000=
07460,1997-05-30 03:00:00,12,1022.2,-0,76,8,20000,3.704,,,350,,,,,,,,,,,wg-a,,,,AAXX 30034 07460 12/70 03502 10120 20080 39830 40222 55000 60006 80000 90300=
07460,1997-05-30 06:00:00,14,1022.5,0.5,72,9,500,3.704,,,90,8.8,22.8,,,,,,,,,wg-a,,,,AAXX 30064 07460 02/00 10902 10140 20090 39835 40225 53005 60006 80002 90600 333 10228 20088 60004=
07460,1997-05-30 12:00:00,25,1018.5,-1.7,26,4,500,18.52,,,20,,,,,,,,,,,wg-a,,,,AAXX 30124 07460 12/00 30210 10250 20040 39811 40185 58017 60006 80002 91200=
07460,1997-05-30 15:00:00,26,1016.7,-1.6,30,7,40000,25.928,,,30,,,,,,,,,,,wg-a,,,,AAXX 30154 07460 12/82 60314 10260 20070 39795 40167 56016 60006 80001 91500=
07460,1997-05-30 18:00:00,24,1016,-0.9,31,6,40000,18.52,,,30,13.6,26.7,,,,,,,,,wg-a,,,,AAXX 30184 07460 12/82 50310 10240 20060 39786 40160 56009 60006 80001 91800 333 10267 20136=
07460,1997-05-30 21:00:00,18,1017.4,0.5,45,6,20000,7.408,,,340,,,,,,,,,,,wg-a,,,,AAXX 30214 07460 12/70 43404 10180 20060 39791 40174 50005 60006 80001 92100=
07460,1997-05-31 00:00:00,14,1016.9,-0.9,55,5,20000,0,,,0,,,,,,,,,,,wg-a,,,,AAXX 31004 07460 12/70 30000 10140 20050 39782 40169 58009 60006 80001 90000=
07460,1997-05-31 03:00:00,10,1016.6,-0.9,66,4,20000,0,,,0,,,,,,,,,,,wg-a,,,,AAXX 31034 07460 12/70 30000 10100 20040 39773 40166 56009 60006 80001 90300=
07460,1997-05-31 06:00:00,11,1015.9,-0.6,76,7,500,0,,,0,7.6,24.1,,,,,,,,,wg-a,,,,AAXX 31064 07460 02/00 50000 10110 20070 39768 40159 57006 60006 80001 90600 333 10241 20076 60004=
07460,1997-05-31 09:00:00,17,1013.7,-1.2,52,7,500,7.408,,,50,,,,,,,,,,,wg-a,,,,AAXX 31094 07460 12/00 50504 10170 20070 39755 40137 58012 60006 80001 90900=
07460,1997-05-31 12:00:00,23,1011.3,-1.6,44,10,500,14.816,,,360,,,,,,,,,,,wg-a,,,,AAXX 31124 07460 12/00 53608 10230 20100 39739 40113 56016 60006 80001 91200=
07460,1997-05-31 15:00:00,24,1009.4,-1.6,41,10,500,22.224,,,10,,,,,,,,,,,wg-a,,,,AAXX 31154 07460 12700 60112 10240 20100 39722 40094 58016 60006 81101 91500=
07460,1997-05-31 18:00:00,22,1009,-0.6,41,8,500,22.224,,,360,11.3,23.8,,,,,,,,,wg-a,,,,AAXX 31184 07460 12700 /3612 10220 20080 39716 40090 55006 60006 82282 91800 333 10238 20113=
07460,1997-06-01 00:00:00,16,1009.2,-1.1,48,5,20000,11.112,,,320,,,,,,,,,,,wg-a,,,,AAXX 01004 07460 12770 73206 10160 20050 39710 40092 58011 60006 83532 90000=
07460,1997-06-01 03:00:00,12,1008.3,-1.3,88,10,12000,7.408,,,270,,,,4,,,,,,60,wg-a,,,,AAXX 01034 07460 12562 72704 10120 20100 39697 40083 56013 60047 76062 8457/ 90300=
07460,1997-06-01 06:00:00,9,1008.7,0,87,7,10000,7.408,,,350,9.1,22,,,,,,,,61,wg-a,,,,AAXX 01064 07460 02460 83504 10090 20070 39697 40087 50000 61000 76162 8187/ 90600 333 10220 20091 6010=
07460,1997-06-01 09:00:00,9,1008.7,-0.1,87,7,10000,14.816,,,350,,,,0,,,,,,3,wg-a,,,,AAXX 01094 07460 12360 73508 10090 20070 39696 40087 55001 60007 70362 8487/ 90900=
07460,1997-06-01 12:00:00,9,1008.1,-0.6,93,8,9000,14.816,,,360,,,,2,,,,,,61,wg-a,,,,AAXX 01124 07460 02259 83608 10090 20080 39690 40081 57006 60036 76162 8687/ 91200 333 60027=
07460,1997-06-01 15:00:00,9,1007.5,-0.4,93,8,7000,7.408,,,330,,,,2,,,,,,61,wg-a,,,,AAXX 01154 07460 12357 83304 10090 20080 39685 40075 56004 60027 76166 878// 91500=
07460,1997-06-01 18:00:00,10,1007.4,-0.1,93,9,7000,7.408,,,320,8.6,9.7,,,,,,,,20,wg-a,,,,AAXX 01184 07460 02257 83204 10100 20090 39685 40074 55001 61000 72065 875// 91800 333 10097 20086 6001=
07460,1997-06-01 21:00:00,10,1008.2,0.8,93,9,7000,3.704,,,310,,,,1,,,,,,61,wg-a,,,,AAXX 01214 07460 12257 83102 10100 20090 39693 40082 52008 60017 76162 875// 92100=
07460,1997-06-02 00:00:00,10,1008,-0.2,93,9,500,3.704,,,200,,,,1,,,,,,61,wg-a,,,,AAXX 02004 07460 02200 82002 10100 20090 39691 40080 58002 60026 76162 875// 90000 333 60017=
07460,1997-06-02 06:00:00,11,1008.7,1,94,10,7000,0,,,0,9.6,11.2,,,,,10,,,3,wg-a,,,,AAXX 02064 07460 02257 70000 10110 20100 39700 40087 53010 60006 70362 875// 90600 333 10112 20096 60104=
07460,1997-06-02 09:00:00,16,1009.3,1.2,82,13,8000,3.704,,,210,,,,,,,,,,,wg-a,,,,AAXX 02094 07460 12358 72102 10160 20130 39712 40093 51012 60006 875// 90900=
07460,1997-06-02 12:00:00,19,1009.7,0.8,68,13,20000,7.408,,,340,,,,1,,,,,,25,wg-a,,,,AAXX 02124 07460 02470 /3404 10190 20130 39720 40097 52008 60016 72586 85230 91200 333 60017=
07460,1997-06-02 18:00:00,19,1011.3,1.2,73,14,500,7.408,,,30,11.2,22.2,,,,,,,,1,wg-a,,,,AAXX 02184 07460 12600 40304 10190 20140 39735 40113 53012 60006 70186 83230 91800 333 10222 20112=
07460,1997-06-02 21:00:00,15,1013.9,1.9,88,13,500,3.704,,,280,,,,,,,,,,,wg-a,,,,AAXX 02214 07460 12500 42802 10150 20130 39755 40139 53019 60006 83832 92100=
07460,1997-06-03 00:00:00,13,1014.4,0.2,94,12,15000,3.704,,,180,,,,,,,,,,,wg-a,,,,AAXX 03004 07460 12565 51802 10130 20120 39757 40144 51002 60006 83832 90000=
07460,1997-06-03 03:00:00,13,1014.4,0.1,94,12,15000,0,,,0,,,,,,,,,,,wg-a,,,,AAXX 03034 07460 12565 50000 10130 20120 39758 40144 53001 60006 84832 90300=
07460,1997-06-03 06:00:00,14,1014.8,0.4,94,13,20000,3.704,,,70,12,18.7,,,,,1,,,,wg-a,,,,AAXX 03064 07460 02570 70702 10140 20130 39762 40148 53004 60006 83832 90600 333 10187 20120 60014=
07460,1997-06-03 09:00:00,15,1016.1,1.4,88,13,20000,11.112,,,170,,,,2,,,,,,21,wg-a,,,,AAXX 03094 07460 12670 71706 10150 20130 39776 40161 51014 60027 72162 8483/ 90900=
07460,1997-06-03 12:00:00,20,1015.4,-0.1,49,9,25000,3.704,,,210,,,,,,,,,,1,wg-a,,,,AAXX 03124 07460 12675 42102 10200 20090 39775 40154 58001 60026 70161 83831 91200=
07460,1997-06-03 15:00:00,21,1014.5,-0.7,53,11,35000,3.704,,,90,,,,,,,,,,,wg-a,,,,AAXX 03154 07460 12681 60902 10210 20110 39768 40145 56007 60006 85240 91500=
07460,1997-06-03 18:00:00,20,1015,0.3,60,12,500,7.408,,,20,13.6,22,,,,,,,,,wg-a,,,,AAXX 03184 07460 12600 60204 10200 20120 39771 40150 51003 60006 85830 91800 333 10220 20136=
07460,1997-06-03 21:00:00,16,1016.4,0.9,72,11,20000,7.408,,,310,,,,,,,,,,,wg-a,,,,AAXX 03214 07460 12770 33104 10160 20110 39780 40164 53009 60006 83830 92100=
07460,1997-06-04 00:00:00,14,1016.7,0,88,12,20000,0,,,0,,,,,,,,,,,wg-a,,,,AAXX 04004 07460 12770 /0000 10140 20120 39780 40167 50000 60006 86500 90000=
07460,1997-06-04 03:00:00,11,1016.2,-0.8,94,10,20000,0,,,0,,,,,,,,,,,wg-a,,,,AAXX 04034 07460 12/70 10000 10110 20100 39772 40162 56008 60006 80002 90300=
07460,1997-06-04 06:00:00,14,1015.4,-0.4,88,12,20000,3.704,,,10,10.5,19.5,,,,,2,,,,wg-a,,,,AAXX 04064 07460 02670 /0102 10140 20120 39767 40154 58004 60006 81101 90600 333 10195 20105 60024=
07460,1997-06-04 09:00:00,20,1013.3,-1.2,64,13,25000,7.408,,,140,,,,,,,,,,,wg-a,,,,AAXX 04094 07460 12675 21404 10200 20130 39755 40133 58012 60006 81101 90900=
07460,1997-06-04 12:00:00,23,1010.9,-1.8,57,14,500,3.704,,,60,,,,,,,,,,,wg-a,,,,AAXX 04124 07460 12600 40602 10230 20140 39737 40109 58018 60006 82101 91200=
07460,1997-06-04 15:00:00,26,1008.3,-2.3,42,12,500,7.408,,,120,,,,,,,,,,,wg-a,,,,AAXX 04154 07460 12700 71204 10260 20120 39714 40083 58023 60006 82102 91500=
07460,1997-06-04 18:00:00,23,1007.5,-1.1,50,12,500,22.224,,,170,13.5,25.8,,,,,,,,,wg-a,,,,AAXX 04184 07460 12600 81712 10230 20120 39703 40075 56011 60006 82272 91800 333 10258 20135=
07460,1997-06-04 21:00:00,20,1008,0.1,56,11,15000,14.816,,,170,,,,,,,,,,,wg-a,,,,AAXX 04214 07460 12765 81708 10200 20110 39704 40080 50001 60006 8387/ 92100=
07460,1997-06-05 00:00:00,18,1007.1,-1,68,12,15000,18.52,,,160,,,,,,,,,,,wg-a,,,,AAXX 05004 07460 12765 71610 10180 20120 39694 40071 58010 60006 81532 90000=
07460,1997-06-05 03:00:00,17,1006.3,-0.8,72,12,15000,18.52,,,160,,,,,,,,,,,wg-a,,,,AAXX 05034 07460 12765 81610 10170 20120 39684 40063 55008 60006 83572 90300=
07460,1997-06-05 06:00:00,16,1005.2,-1.3,82,13,15000,11.112,,,140,15.2,22.8,,,,,,,,60,wg-a,,,,AAXX 05064 07460 02565 71406 10160 20130 39672 40052 58013 61000 76062 84872 90600 333 10228 20152 6000=
07460,1997-06-05 09:00:00,18,1004.7,-0.2,77,14,25000,11.112,,,180,,,,,,,,,,3,wg-a,,,,AAXX 05094 07460 02575 71806 10180 20140 39670 40047 58002 61000 70362 8587/ 90900 333 ////=
07460,1997-06-05 12:00:00,20,1004.9,0.4,64,13,25000,25.928,,,180,,,,,,,,,,3,wg-a,,,,AAXX 05124 07460 02675 81814 10200 20130 39674 40049 53004 61000 70362 8587/ 91200 333 ////=
07460,1997-06-05 18:00:00,21,1003.6,-0.3,56,12,25000,11.112,,,140,15.7,22.9,,,,,,,,,wg-a,,,,AAXX 05184 07460 12675 /1406 10210 20120 39664 40036 55003 60006 83870 91800 333 10229 20157=
07460,1997-06-05 21:00:00,20,1006,2.1,68,14,15000,3.704,,,310,,,,,,,,,,25,wg-a,,,,AAXX 05214 07460 02665 73102 10200 20140 39685 40060 53021 61000 72586 878// 92100 333 ////=
07460,1997-06-06 00:00:00,16,1007.5,1,82,13,15000,7.408,,,150,,,,1,,,,,,1,wg-a,,,,AAXX 06004 07460 02665 61504 10160 20130 39695 40075 53010 60016 70186 8383/ 90000 333 60017=
07460,1997-06-06 06:00:00,15,1009.5,1.5,82,12,500,3.704,,,110,13.4,21.2,,,,,1,,,,wg-a,,,,AAXX 06064 07460 02700 61102 10150 20120 39713 40095 52015 60006 815/1 90600 333 10212 20134 60014=
07460,1997-06-06 09:00:00,20,1009.8,1.1,73,15,500,14.816,,,180,,,,,,,,,,,wg-a,,,,AAXX 06094 07460 12600 /1808 10200 20150 39723 40098 51011 60006 81501 90900=
07460,1997-06-06 12:00:00,26,1008.6,-0.6,51,15,35000,7.408,,,190,,,,,,,,,,,wg-a,,,,AAXX 06124 07460 12681 /1904 10260 20150 39718 40086 58006 60006 82801 91200=
07460,1997-06-06 15:00:00,26,1007.5,-1,45,13,35000,11.112,,,170,,,,,,,,,,,wg-a,,,,AAXX 06154 07460 12781 51706 10260 20130 39708 40075 58010 60006 83101 91500=
07460,1997-06-06 18:00:00,27,1007.4,-0.1,39,12,35000,11.112,,,190,15.6,27.6,,,,,,,,,wg-a,,,,AAXX 06184 07460 12781 /1906 10270 20120 39707 40074 55001 60006 81100 91800 333 10276 20156=
07460,1997-06-07 00:00:00,19,1009.5,0.1,73,14,20000,7.408,,,150,,,,,,,,,,,wg-a,,,,AAXX 07004 07460 12/70 31504 10190 20140 39718 40095 53001 60006 81031 90000=
07460,1997-06-07 03:00:00,18,1008.9,-0.8,68,12,20000,7.408,,,70,,,,,,,,,,,wg-a,,,,AAXX 07034 07460 12/70 40704 10180 20120 39710 40089 58008 60006 82031 90300=
07460,1997-06-07 06:00:00,19,1008.8,-0,60,11,40000,7.408,,,40,17,26.6,,,,,,,,,wg-a,,,,AAXX 07064 07460 02/82 60404 10190 20110 39710 40088 55000 60006 83032 90600 333 10266 20170 60004=
07460,1997-06-07 12:00:00,27,1008.7,0.4,45,14,40000,3.704,,,60,,,,,,,,,,,wg-a,,,,AAXX 07124 07460 12782 60602 10270 20140 39720 40087 50004 60006 83832 91200=
07460,1997-06-07 15:00:00,26,1008.1,-0.6,65,19,40000,14.816,,,350,,,,,,,,,,,wg-a,,,,AAXX 07154 07460 12782 53508 10260 20190 39714 40081 56006 60006 83331 91500=
07460,1997-06-07 18:00:00,19,1009.2,0.2,83,16,15000,11.112,,,10,18.5,27.7,,,,,,,,17,wg-a,,,,AAXX 07184 07460 02565 /0106 10190 20160 39715 40092 53002 61000 71798 8599/ 91800 333 10277 20185 6008=
07460,1997-06-07 21:00:00,17,1012.8,3.1,88,15,20000,7.408,,,240,,,,,,,,,,17,wg-a,,,,AAXX 07214 07460 12570 72404 10170 20150 39747 40128 51031 60006 71792 859// 92100=
07460,1997-06-08 00:00:00,16,1013.8,0.7,88,14,12000,7.408,,,130,,,,5,,,,,,29,wg-a,,,,AAXX 08004 07460 02662 51304 10160 20140 39755 40138 50007 60056 72998 8493/ 90000 333 60057=
07460,1997-06-08 03:00:00,13,1014.7,0.4,88,11,15000,3.704,,,160,,,,,,,,,,,wg-a,,,,AAXX 08034 07460 12/65 11602 10130 20110 39759 40147 52004 60006 81040 90300=
07460,1997-06-08 06:00:00,15,1016.3,1.9,88,13,500,7.408,,,160,12.6,18.6,,,,,14,,,3,wg-a,,,,AAXX 08064 07460 02700 31604 10150 20130 39778 40163 52019 60006 70398 83500 90600 333 10186 20126 60144=
07460,1997-06-08 12:00:00,24,1015.8,-0.6,54,14,40000,7.408,,,110,,,,,,,,,,,wg-a,,,,AAXX 08124 07460 12682 31104 10240 20140 39785 40158 58006 60006 82201 91200=
07460,1997-06-08 15:00:00,25,1016.1,0.4,44,12,40000,25.928,,,270,,,,,,,,,,,wg-a,,,,AAXX 08154 07460 12782 /2714 10250 20120 39789 40161 53004 60006 82202 91500=
07460,1997-06-08 18:00:00,23,1018.3,1.9,47,11,40000,14.816,,,270,15,26,,,,,,,,,wg-a,,,,AAXX 08184 07460 12782 32708 10230 20110 39808 40183 53019 60006 81202 91800 333 10260 20150=
07460,1997-06-09 00:00:00,14,1022.6,0.6,88,12,20000,3.704,,,270,,,,,,,,,,,wg-a,,,,AAXX 09004 07460 12770 /2702 10140 20120 39837 40226 50006 60006 81100 90000=
07460,1997-06-09 03:00:00,12,1022.7,-0.2,88,10,20000,0,,,0,,,,,,,,,,,wg-a,,,,AAXX 09034 07460 12/70 10000 10120 20100 39835 40227 58002 60006 80001 90300=
07460,1997-06-09 06:00:00,15,1022.9,0.6,82,12,500,3.704,,,330,11.2,23.6,,,,,,,,,wg-a,,,,AAXX 09064 07460 02600 /3302 10150 20120 39841 40229 53006 60006 81132 90600 333 10236 20112 60004=
07460,1997-06-09 09:00:00,21,1022,-0.1,64,14,500,7.408,,,80,,,,,,,,,,,wg-a,,,,AAXX 09094 07460 12600 30804 10210 20140 39841 40220 58001 60006 82201 90900=
07460,1997-06-09 12:00:00,24,1020.3,-1.2,50,13,35000,7.408,,,90,,,,,,,,,,,wg-a,,,,AAXX 09124 07460 12681 /0904 10240 20130 39828 40203 58012 60006 82202 91200=
07460,1997-06-09 15:00:00,26,1018.9,-1.2,42,12,35000,7.408,,,60,,,,,,,,,,,wg-a,,,,AAXX 09154 07460 12681 /0604 10260 20120 39817 40189 58012 60006 81202 91500=
07460,1997-06-09 18:00:00,24,1018.1,-1,54,14,35000,7.408,,,30,14.9,26.5,,,,,,,,,wg-a,,,,AAXX 09184 07460 12681 70304 10240 20140 39807 40181 56010 60006 81232 91800 333 10265 20149=
07460,1997-06-09 21:00:00,20,1019,0.3,73,15,25000,3.704,,,310,,,,,,,,,,,wg-a,,,,AAXX 09214 07460 12675 33102 10200 20150 39810 40190 53003 60006 81102 92100=
07460,1997-06-10 00:00:00,16,1018.4,-0.9,88,14,25000,3.704,,,280,,,,,,,,,,,wg-a,,,,AAXX 10004 07460 12675 32802 10160 20140 39800 40184 58009 60006 81102 90000=
07460,1997-06-10 06:00:00,17,1016.2,-0.6,77,13,40000,14.816,,,190,15,24.2,,,,,,,,,wg-a,,,,AAXX 10064 07460 02/82 51908 10170 20130 39780 40162 56006 60006 83032 90600 333 10242 20150 60004=
07460,1997-06-10 09:00:00,22,1014.2,-1.4,60,14,40000,7.408,,,210,,,,0,,,,,,,wg-a,,,,AAXX 10094 07460 12/82 62104 10220 20140 39766 40142 58014 60007 85039 90900=
07460,1997-06-10 12:00:00,28,1011.5,-1.6,42,14,40000,18.52,,,180,,,,,,,,,,,wg-a,,,,AAXX 10124 07460 12/82 71810 10280 20140 39749 40115 58016 60006 83032 91200=
07460,1997-06-10 15:00:00,28,1010,-1.5,42,14,40000,14.816,,,150,,,,,,,,,,,wg-a,,,,AAXX 10154 07460 12/82 71508 10280 20140 39734 40100 58015 60006 83032 91500=
07460,1997-06-10 18:00:00,27,1009.8,-0.3,48,15,40000,18.52,,,180,17.1,29.3,,,,,,,,,wg-a,,,,AAXX 10184 07460 12/82 71810 10270 20150 39730 40098 58003 60006 8707/ 91800 333 10293 20171=
07460,1997-06-11 00:00:00,23,1008.9,-1.3,41,9,500,25.928,,,180,,,,,,,,,,,wg-a,,,,AAXX 11004 07460 12/00 71814 10230 20090 39717 40089 58013 60006 8707/ 90000=
07460,1997-06-11 03:00:00,21,1009.6,0.4,53,11,20000,3.704,,,330,,,,,,,,,,,wg-a,,,,AAXX 11034 07460 12/70 73302 10210 20110 39721 40096 50004 60006 8707/ 90300=
07460,1997-06-11 06:00:00,21,1010.2,0.6,56,12,500,3.704,,,120,19.3,26.4,,,,,,,,,wg-a,,,,AAXX 11064 07460 02600 31202 10210 20120 39727 40102 52006 60006 81130 90600 333 10264 20193 60004=
07460,1997-06-11 09:00:00,25,1008.9,-0.7,44,12,40000,7.408,,,160,,,,,,,,,,,wg-a,,,,AAXX 11094 07460 12782 /1604 10250 20120 39720 40089 58007 60006 81801 90900=
07460,1997-06-11 12:00:00,27,1007.5,-1.2,42,13,40000,7.408,,,70,,,,,,,,,,,wg-a,,,,AAXX 11124 07460 12682 40704 10270 20130 39708 40075 58012 60006 83801 91200=
07460,1997-06-11 18:00:00,26,1008,0.5,51,15,40000,22.224,,,260,21.3,29,,,,,,,,,wg-a,,,,AAXX 11184 07460 12682 22612 10260 20150 39713 40080 53005 60006 81209 91800 333 10290 20213=
07460,1997-06-11 21:00:00,21,1012.3,3.4,64,14,20000,14.816,,,320,,,,,,,,,,,wg-a,,,,AAXX 11214 07460 12670 23208 10210 20140 39747 40123 51034 60006 81231 92100=
07460,1997-06-12 00:00:00,17,1013.2,0.4,82,14,20000,0,,,0,,,,,,,,,,,wg-a,,,,AAXX 12004 07460 12770 /0000 10170 20140 39751 40132 50004 60006 81100 90000=
07460,1997-06-12 03:00:00,15,1013.2,-0.3,88,13,20000,3.704,,,260,,,,,,,,,,,wg-a,,,,AAXX 12034 07460 12670 72602 10150 20130 39748 40132 57003 60006 83532 90300=
07460,1997-06-12 06:00:00,18,1012.8,0,77,14,25000,0,,,0,14.8,26.4,,,,,,,,,wg-a,,,,AAXX 12064 07460 02675 70000 10180 20140 39748 40128 50000 60006 81101 90600 333 10264 20148 60004=
07460,1997-06-12 09:00:00,22,1011.3,-0.7,65,15,25000,11.112,,,170,,,,,,,,,,,wg-a,,,,AAXX 12094 07460 12675 71706 10220 20150 39740 40113 58007 60006 81282 90900=
07460,1997-06-12 12:00:00,25,1009.8,-1.1,50,14,500,11.112,,,90,,,,,,,,,,,wg-a,,,,AAXX 12124 07460 12700 /0906 10250 20140 39729 40098 58011 60006 82208 91200=
07460,1997-06-12 15:00:00,27,1008.3,-1.3,42,13,35000,7.408,,,10,,,,,,,,,,,wg-a,,,,AAXX 12154 07460 12781 /0104 10270 20130 39716 40083 58013 60006 82202 91500=
07460,1997-06-12 18:00:00,22,1008.4,-0.4,60,14,40000,22.224,,,10,17.5,27.2,,,,,,,,,wg-a,,,,AAXX 12184 07460 12682 50112 10220 20140 39711 40084 55004 60006 82902 91800 333 10272 20175=
07460,1997-06-12 21:00:00,19,1010.8,1.8,73,14,20000,11.112,,,80,,,,,,,,,,,wg-a,,,,AAXX 12214 07460 12670 /0806 10190 20140 39730 40108 53018 60006 82202 92100=
07460,1997-06-13 00:00:00,14,1011.2,-0.1,88,12,20000,3.704,,,190,,,,,,,,,,,wg-a,,,,AAXX 13004 07460 12670 /1902 10140 20120 39728 40112 58001 60006 81102 90000=
07460,1997-06-13 06:00:00,15,1009.5,-0.9,94,14,20000,0,,,0,13.6,22.1,,,,,,,,,wg-a,,,,AAXX 13064 07460 02/70 70000 10150 20140 39713 40095 56009 60006 82032 90600 333 10221 20136 60004=
07460,1997-06-13 09:00:00,19,1008.7,-0.2,78,15,20000,3.704,,,10,,,,,,,,,,,wg-a,,,,AAXX 13094 07460 12670 70102 10190 20150 39711 40087 58002 60006 81157 90900=
07460,1997-06-13 12:00:00,22,1007.6,-0.7,69,16,14000,7.408,,,330,,,,0,,,,,,2,wg-a,,,,AAXX 13124 07460 02564 73304 10220 20160 39704 40076 56007 60016 70298 82971 91200 333 60007=
07460,1997-06-13 15:00:00,21,1007.1,-0.6,73,16,25000,11.112,,,110,,,,4,,,,,,2,wg-a,,,,AAXX 13154 07460 12675 71106 10210 20160 39698 40071 58006 60047 70296 81131 91500=
07460,1997-06-13 18:00:00,22,1006.4,-0.6,69,16,20000,3.704,,,20,14.9,22.5,,,,,,,,2,wg-a,,,,AAXX 13184 07460 12670 /0202 10220 20160 39692 40064 55006 60006 70296 83131 91800 333 10225 20149=
07460,1997-06-14 00:00:00,17,1009.2,0.7,88,15,20000,3.704,,,110,,,,,,,,,,,wg-a,,,,AAXX 14004 07460 12670 51102 10170 20150 39713 40092 51007 60006 83231 90000=
07460,1997-06-14 03:00:00,16,1010.1,0.7,94,15,20000,0,,,0,,,,,,,,,,,wg-a,,,,AAXX 14034 07460 12670 50000 10160 20150 39720 40101 53007 60006 82131 90300=
07460,1997-06-14 06:00:00,18,1011.6,1.6,68,12,500,7.408,,,250,15.7,22,,,,,4,,,,wg-a,,,,AAXX 14064 07460 02600 72504 10180 20120 39736 40116 53016 60006 84231 90600 333 10220 20157 60044=
07460,1997-06-14 09:00:00,18,1013.1,1.4,73,13,500,22.224,,,270,,,,,,,,,,,wg-a,,,,AAXX 14094 07460 12600 72712 10180 20130 39751 40131 51014 60006 85231 90900=
07460,1997-06-14 12:00:00,22,1013.1,0.5,53,12,40000,7.408,,,300,,,,,,,,,,,wg-a,,,,AAXX 14124 07460 12682 /3004 10220 20120 39756 40131 51005 60006 85230 91200=
07460,1997-06-14 15:00:00,22,1013.7,0.6,50,11,40000,25.928,,,250,,,,,,,,,,,wg-a,,,,AAXX 14154 07460 12682 42514 10220 20110 39762 40137 50006 60006 84200 91500=
07460,1997-06-14 18:00:00,21,1015.6,1.5,43,8,40000,18.52,,,310,17.4,24,,,,,,,,,wg-a,,,,AAXX 14184 07460 12782 /3110 10210 20080 39778 40156 53015 60006 81800 91800 333 10240 20174=
07460,1997-06-14 21:00:00,16,1018.7,2.3,63,9,20000,7.408,,,130,,,,,,,,,,,wg-a,,,,AAXX 14214 07460 12770 /1304 10160 20090 39801 40187 53023 60006 81500 92100=
07460,1997-06-15 00:00:00,12,1019.5,0.3,82,9,20000,0,,,0,,,,,,,,,,,wg-a,,,,AAXX 15004 07460 12670 /0000 10120 20090 39804 40195 51003 60006 81500 90000=
07460,1997-06-15 06:00:00,12,1020,0.9,88,10,40000,0,,,0,8.1,20.8,,,,,,,,,wg-a,,,,AAXX 15064 07460 02682 30000 10120 20100 39809 40200 52009 60006 83100 90600 333 10208 20081 60004=
07460,1997-06-15 09:00:00,19,1018.7,-0.3,56,10,40000,7.408,,,110,,,,,,,,,,,wg-a,,,,AAXX 15094 07460 12782 31104 10190 20100 39805 40187 58003 60006 83100 90900=
07460,1997-06-15 12:00:00,22,1016.9,-1.4,43,9,11000,11.112,,,90,,,,,,,,,,,wg-a,,,,AAXX 15124 07460 12/61 /0906 10220 20090 39792 40169 58014 60006 91200=
07460,1997-06-15 18:00:00,23,1015.4,-0.1,44,10,40000,11.112,,,10,12,24.5,,,,,,,,,wg-a,,,,AAXX 15184 07460 12782 20106 10230 20100 39779 40154 55001 60006 81130 91800 333 10245 20120=
07460,1997-06-15 21:00:00,18,1017.2,1.1,59,10,20000,7.408,,,300,,,,,,,,,,,wg-a,,,,AAXX 15214 07460 12770 /3004 10180 20100 39790 40172 51011 60006 81500 92100=
07460,1997-06-16 00:00:00,14,1017.4,-0.2,77,10,11000,3.704,,,240,,,,,,,,,,,wg-a,,,,AAXX 16004 07460 12/61 /2402 10140 20100 39787 40174 56002 60006 90000=
07460,1997-06-16 03:00:00,12,1016.8,-0.8,88,10,20000,0,,,0,,,,,,,,,,,wg-a,,,,AAXX 16034 07460 12/70 50000 10120 20100 39779 40168 58008 60006 81031 90300=
07460,1997-06-16 06:00:00,15,1016.7,0.1,77,11,500,3.704,,,330,11.7,23.1,,,,,,,,,wg-a,,,,AAXX 16064 07460 02/00 73302 10150 20110 39781 40167 53001 60006 85072 90600 333 10231 20117 60004=
07460,1997-06-16 09:00:00,17,1016.3,0,72,12,25000,14.816,,,170,,,,,,,,,,,wg-a,,,,AAXX 16094 07460 12/75 71708 10170 20120 39781 40163 50000 60006 8707/ 90900=
07460,1997-06-16 12:00:00,17,1016.3,-0.2,88,15,15000,3.704,,,240,,,,0,,,,,,60,wg-a,,,,AAXX 16124 07460 02565 82402 10170 20150 39780 40163 58002 60006 76062 8127/ 91200 333 60007=
07460,1997-06-16 18:00:00,18,1015,-1,68,12,25000,7.408,,,160,14.7,18.8,,0,,,,,,2,wg-a,,,,AAXX 16184 07460 02575 41604 10180 20120 39770 40150 56010 60006 70261 81240 91800 333 10188 20147 60007=
07460,1997-06-16 21:00:00,16,1016.9,1.6,82,13,15000,3.704,,,40,,,,,,,,,,17,wg-a,,,,AAXX 16214 07460 02565 50402 10160 20130 39785 40169 53016 61000 71798 83940 92100 333 ////=
07460,1997-06-17 00:00:00,13,1017.5,0.2,94,12,20000,3.704,,,110,,,,,,,,,,1,wg-a,,,,AAXX 17004 07460 02570 31102 10130 20120 39787 40175 52002 61000 70198 82240 90000 333 ////=
07460,1997-06-17 03:00:00,12,1018.2,0.5,94,11,15000,3.704,,,110,,,,,,,,,,,wg-a,,,,AAXX 17034 07460 12565 41102 10120 20110 39792 40182 51005 60006 83840 90300=
07460,1997-06-17 06:00:00,13,1018.5,0.5,94,12,20000,3.704,,,130,10.5,18.4,,,,,3,,,,wg-a,,,,AAXX 17064 07460 02570 41302 10130 20120 39797 40185 53005 60006 81802 90600 333 10184 20105 60034=
07460,1997-06-17 12:00:00,20,1017.2,-0.3,53,10,500,7.408,,,90,,,,,,,,,,,wg-a,,,,AAXX 17124 07460 12600 60904 10200 20100 39793 40172 58003 60006 82802 91200=
07460,1997-06-17 15:00:00,21,1016.5,-0.6,49,10,40000,11.112,,,40,,,,,,,,,,,wg-a,,,,AAXX 17154 07460 12682 50406 10210 20100 39787 40165 58006 60006 84832 91500=
07460,1997-06-17 18:00:00,18,1017.2,0.3,73,13,40000,14.816,,,40,13.2,21.6,,,,,,,,,wg-a,,,,AAXX 17184 07460 12682 60408 10180 20130 39790 40172 53003 60006 84832 91800 333 10216 20132=
07460,1997-06-17 21:00:00,15,1019.1,1.5,77,11,500,0,,,0,,,,,,,,,,,wg-a,,,,AAXX 17214 07460 12600 20000 10150 20110 39805 40191 53015 60006 81840 92100=
07460,1997-06-18 00:00:00,11,1019.7,-0,87,9,500,7.408,,,260,,,,,,,,,,,wg-a,,,,AAXX 18004 07460 12600 /2604 10110 20090 39805 40197 55000 60006 81500 90000=
07460,1997-06-18 06:00:00,13,1019.2,-0,88,11,20000,0,,,0,8.5,17.7,,,,,,,,,wg-a,,,,AAXX 18064 07460 02670 /0000 10130 20110 39803 40192 55000 60006 81130 90600 333 10177 20085 60004=
07460,1997-06-18 09:00:00,18,1018.2,-0.3,68,12,500,7.408,,,50,,,,,,,,,,,wg-a,,,,AAXX 18094 07460 12500 40504 10180 20120 39800 40182 58003 60006 84200 90900=
07460,1997-06-18 12:00:00,20,1017.2,-0.7,56,11,500,14.816,,,40,,,,,,,,,,,wg-a,,,,AAXX 18124 07460 12500 40408 10200 20110 39793 40172 58007 60006 84200 91200=
07460,1997-06-18 15:00:00,21,1015.4,-1.6,49,10,500,14.816,,,40,,,,,,,,,,,wg-a,,,,AAXX 18154 07460 12600 40408 10210 20100 39777 40154 58016 60006 84200 91500=
07460,1997-06-18 18:00:00,21,1014.4,-0.9,49,10,500,11.112,,,20,13.3,21.9,,,,,,,,,wg-a,,,,AAXX 18184 07460 12700 20206 10210 20100 39767 40144 58009 60006 81801 91800 333 10219 20133=
07460,1997-06-18 21:00:00,18,1014.6,-0.3,64,11,20000,11.112,,,10,,,,,,,,,,,wg-a,,,,AAXX 18214 07460 12770 /0106 10180 20110 39765 40146 56003 60006 85500 92100=
07460,1997-06-19 00:00:00,14,1014.2,-0.9,77,10,20000,0,,,0,,,,,,,,,,,wg-a,,,,AAXX 19004 07460 12770 30000 10140 20100 39756 40142 58009 60006 83500 90000=
07460,1997-06-19 03:00:00,11,1012.4,-2.1,94,10,20000,3.704,,,270,,,,,,,,,,,wg-a,,,,AAXX 19034 07460 12/70 32702 10110 20100 39735 40124 56021 60006 80001 90300=
07460,1997-06-19 06:00:00,13,1011.6,-0.6,88,11,500,0,,,0,10.3,20.6,,,,,,,,,wg-a,,,,AAXX 19064 07460 02/00 50000 10130 20110 39729 40116 57006 60006 81032 90600 333 10206 20103 60004=
07460,1997-06-19 12:00:00,20,1008.8,-0.7,53,10,20000,18.52,,,250,,,,,,,,,,,wg-a,,,,AAXX 19124 07460 12570 62510 10200 20100 39712 40088 58007 60006 84232 91200=
07460,1997-06-19 15:00:00,20,1008.5,-0.4,46,8,25000,22.224,,,280,,,,2,,,,,,1,wg-a,,,,AAXX 19154 07460 12575 62812 10200 20080 39708 40085 55004 60027 70186 84232 91500=
07460,1997-06-19 18:00:00,20,1008.9,0.4,43,7,500,18.52,,,270,12.6,22,,,,,,,,2,wg-a,,,,AAXX 19184 07460 12500 62710 10200 20070 39712 40089 53004 60006 70286 85232 91800 333 10220 20126=
07460,1997-06-19 21:00:00,17,1010.4,1.1,55,8,20000,14.816,,,270,,,,,,,,,,,wg-a,,,,AAXX 19214 07460 12670 72708 10170 20080 39723 40104 53011 60006 85872 92100=
07460,1997-06-20 00:00:00,12,1012.2,1.2,94,11,12000,3.704,,,70,,,,2,,,,,,60,wg-a,,,,AAXX 20004 07460 02462 70702 10120 20110 39735 40122 51012 60026 76062 8557/ 90000 333 60027=
07460,1997-06-20 03:00:00,12,1011.7,-0.6,88,10,15000,3.704,,,140,,,,0,,,,,,1,wg-a,,,,AAXX 20034 07460 12565 /1402 10120 20100 39729 40117 58006 60007 70162 8583/ 90300=
07460,1997-06-20 06:00:00,13,1011.6,0.1,77,9,500,7.408,,,200,11.4,20.2,,,,,5,,,1,wg-a,,,,AAXX 20064 07460 02500 72004 10130 20090 39730 40116 53001 60006 70162 83831 90600 333 10202 20114 60054=
07460,1997-06-20 09:00:00,16,1011,-0.3,63,9,40000,11.112,,,170,,,,,,,,,,,wg-a,,,,AAXX 20094 07460 12682 71706 10160 20090 39728 40110 58003 60006 8683/ 90900=
07460,1997-06-20 12:00:00,18,1009.8,-0.8,59,10,50000,14.816,,,180,,,,,,,,,,,wg-a,,,,AAXX 20124 07460 12684 71808 10180 20100 39719 40098 58008 60006 85832 91200=
07460,1997-06-20 15:00:00,19,1008.2,-1.4,52,9,50000,18.52,,,180,,,,,,,,,,,wg-a,,,,AAXX 20154 07460 12684 71810 10190 20090 39705 40082 58014 60006 85832 91500=
07460,1997-06-20 18:00:00,19,1006.9,-1.3,56,10,40000,14.816,,,180,13.3,19.3,,,,,,,,,wg-a,,,,AAXX 20184 07460 12682 71808 10190 20100 39692 40069 56013 60006 84832 91800 333 10193 20133=
07460,1997-06-20 21:00:00,17,1006.6,-0.5,63,10,40000,18.52,,,180,,,,,,,,,,,wg-a,,,,AAXX 20214 07460 12682 71810 10170 20100 39687 40066 55005 60006 84832 92100=
07460,1997-06-21 00:00:00,18,1005.4,-1,59,10,40000,14.816,,,210,,,,,,,,,,,wg-a,,,,AAXX 21004 07460 12682 72108 10180 20100 39677 40054 56010 60006 85832 90000=
07460,1997-06-21 03:00:00,18,1005.1,-0.2,64,11,10000,22.224,,,210,,,,,,,,,,,wg-a,,,,AAXX 21034 07460 12660 72112 10180 20110 39673 40051 55002 60006 8483/ 90300=
07460,1997-06-21 06:00:00,16,1005.6,0.2,82,13,9000,14.816,,,180,15.6,18.9,,,,,,,,21,wg-a,,,,AAXX 21064 07460 02559 71808 10160 20130 39676 40056 53002 61000 72162 8687/ 90600 333 10189 20156 6100=
07460,1997-06-21 12:00:00,16,1005,-0.5,88,14,12000,3.704,,,70,,,,1,,,,,,3,wg-a,,,,AAXX 21124 07460 02562 80702 10160 20140 39671 40050 58005 60026 70362 8687/ 91200 333 60017=
07460,1997-06-21 18:00:00,15,1005.5,0.3,82,12,15000,7.408,,,170,14.8,16.4,,,,,,,,21,wg-a,,,,AAXX 21184 07460 02565 81704 10150 20120 39674 40055 53003 61000 72162 8487/ 91800 333 10164 20148 6000=
07460,1997-06-21 21:00:00,14,1007,1.2,72,9,15000,14.816,,,210,,,,1,,,,,,60,wg-a,,,,AAXX 21214 07460 12565 82108 10140 20090 39686 40070 53012 60017 76062 8257/ 92100=
07460,1997-06-22 00:00:00,13,1006.6,-0.5,72,8,20000,18.52,,,190,,,,,,,,,,1,wg-a,,,,AAXX 22004 07460 02770 71910 10130 20080 39682 40066 57005 60016 70162 8757/ 90000 333 61000=
07460,1997-06-22 03:00:00,13,1006,-0.7,72,8,20000,3.704,,,150,,,,,,,,,,,wg-a,,,,AAXX 22034 07460 12570 71502 10130 20080 39675 40060 58007 60006 8157/ 90300=
07460,1997-06-22 06:00:00,14,1007.1,1.2,67,8,35000,11.112,,,140,12.2,14.8,,,,,2,,,,wg-a,,,,AAXX 22064 07460 02581 71406 10140 20080 39687 40071 51012 60006 8583/ 90600 333 10148 20122 60024=
07460,1997-06-22 09:00:00,16,1007.1,0.4,63,9,35000,22.224,,,260,,,,,,,,,,,wg-a,,,,AAXX 22094 07460 12581 /2612 10160 20090 39691 40071 51004 60006 85240 90900=
07460,1997-06-22 12:00:00,19,1007.1,0.2,49,8,40000,22.224,,,250,,,,,,,,,,,wg-a,,,,AAXX 22124 07460 12682 /2512 10190 20080 39693 40071 53002 60006 85200 91200=
07460,1997-06-22 15:00:00,17,1007.9,0.7,55,8,12000,14.816,,,250,,,,,,,,,,25,wg-a,,,,AAXX 22154 07460 02662 /2508 10170 20080 39700 40079 53007 61000 72586 86200 91500 333 ////=
07460,1997-06-22 18:00:00,17,1009.3,1.3,52,7,20000,18.52,,,240,13,20.4,,,,,,,,3,wg-a,,,,AAXX 22184 07460 12670 /2410 10170 20070 39712 40093 52013 60006 70386 86200 91800 333 10204 20130=
07460,1997-06-22 21:00:00,14,1011.7,1.8,63,7,15000,11.112,,,200,,,,,,,,,,,wg-a,,,,AAXX 22214 07460 12665 42006 10140 20070 39732 40117 53018 60006 84800 92100=
07460,1997-06-23 00:00:00,13,1012.9,1,67,7,20000,7.408,,,240,,,,,,,,,,,wg-a,,,,AAXX 23004 07460 12670 32404 10130 20070 39742 40129 51010 60006 83800 90000=
07460,1997-06-23 03:00:00,12,1012.3,-0.6,71,7,15000,11.112,,,220,,,,,,,,,,,wg-a,,,,AAXX 23034 07460 12665 32206 10120 20070 39735 40123 56006 60006 83800 90300=
07460,1997-06-23 06:00:00,14,1012.9,0.8,67,8,12000,14.816,,,250,11.8,16.5,,,,,,,,15,wg-a,,,,AAXX 23064 07460 02562 72508 10140 20080 39743 40129 51008 60006 71511 878// 90600 333 10165 20118 61000=
07460,1997-06-23 09:00:00,15,1014,1.2,67,9,500,3.704,,,140,,,,,,,,,,,wg-a,,,,AAXX 23094 07460 12500 71402 10150 20090 39755 40140 53012 60006 878// 90900=
07460,1997-06-23 12:00:00,17,1014.4,0.7,55,8,500,14.816,,,260,,,,,,,,,,,wg-a,,,,AAXX 23124 07460 12600 72608 10170 20080 39761 40144 51007 60006 878// 91200=
07460,1997-06-23 15:00:00,19,1013.8,-0.2,52,9,500,11.112,,,290,,,,,,,,,,,wg-a,,,,AAXX 23154 07460 12600 72906 10190 20090 39759 40138 56002 60006 878// 91500=
07460,1997-06-23 18:00:00,18,1014.2,0.3,56,9,35000,22.224,,,270,13.8,20.4,,,,,,,,,wg-a,,,,AAXX 23184 07460 12681 62712 10180 20090 39762 40142 53003 60006 85840 91800 333 10204 20138=
07460,1997-06-24 00:00:00,15,1017.2,0.5,67,9,15000,3.704,,,220,,,,,,,,,,,wg-a,,,,AAXX 24004 07460 12665 72202 10150 20090 39786 40172 50005 60006 878// 90000=
07460,1997-06-24 03:00:00,14,1017.1,-0.2,77,10,15000,11.112,,,310,,,,,,,,,,80,wg-a,,,,AAXX 24034 07460 02565 73106 10140 20100 39784 40171 57002 61000 78086 878// 90300 333 ////=
07460,1997-06-24 06:00:00,12,1018.9,1.5,94,11,15000,7.408,,,100,11.7,18.2,,,,,,,,80,wg-a,,,,AAXX 24064 07460 02565 61004 10120 20110 39799 40189 51015 61000 78086 85830 90600 333 10182 20117 6003=
07460,1997-06-24 09:00:00,14,1019.2,0.5,72,9,20000,7.408,,,100,,,,,,,,,,,wg-a,,,,AAXX 24094 07460 12570 71004 10140 20090 39804 40192 50005 60006 878// 90900=
07460,1997-06-24 12:00:00,16,1018.7,-0.4,68,10,25000,11.112,,,40,,,,,,,,,,1,wg-a,,,,AAXX 24124 07460 12575 70406 10160 20100 39801 40187 56004 60006 70186 878// 91200=
07460,1997-06-24 15:00:00,18,1017.4,-0.9,52,8,500,11.112,,,10,,,,,,,,,,,wg-a,,,,AAXX 24154 07460 12600 /0106 10180 20080 39792 40174 56009 60006 86800 91500=
07460,1997-06-24 18:00:00,17,1017,-0.5,59,9,11000,7.408,,,10,12.3,18.4,,,,,,,,,wg-a,,,,AAXX 24184 07460 12/61 /0104 10170 20090 39787 40170 56005 60006 91800 333 10184 20123=
07460,1997-06-24 21:00:00,14,1017.6,0.2,82,11,25000,3.704,,,280,,,,,,,,,,,wg-a,,,,AAXX 24214 07460 12675 /2802 10140 20110 39789 40176 53002 60006 86400 92100=
07460,1997-06-25 00:00:00,13,1016.9,-0.9,82,10,25000,0,,,0,,,,,,,,,,,wg-a,,,,AAXX 25004 07460 12675 /0000 10130 20100 39780 40169 57009 60006 85500 90000=
07460,1997-06-25 03:00:00,10,1015.4,-1.8,93,9,20000,7.408,,,250,,,,,,,,,,,wg-a,,,,AAXX 25034 07460 12670 72504 10100 20090 39762 40154 58018 60006 875// 90300=
07460,1997-06-25 06:00:00,12,1013.9,-1.2,82,9,20000,7.408,,,140,8.9,16.9,,,,,,,,,wg-a,,,,AAXX 25064 07460 02670 71404 10120 20090 39750 40139 58012 60006 82532 90600 333 10169 20089 60004=
07460,1997-06-25 09:00:00,16,1011.3,-1.9,68,10,25000,18.52,,,170,,,,,,,,,,,wg-a,,,,AAXX 25094 07460 12775 71710 10160 20100 39731 40113 58019 60006 82572 90900=
07460,1997-06-25 12:00:00,19,1009.8,-1.2,52,9,500,7.408,,,70,,,,,,,,,,,wg-a,,,,AAXX 25124 07460 12600 70704 10190 20090 39720 40098 58012 60006 8587/ 91200=
07460,1997-06-25 15:00:00,19,1007.7,-2.1,46,7,500,18.52,,,260,,,,,,,,,,,wg-a,,,,AAXX 25154 07460 12600 72610 10190 20070 39699 40077 56021 60006 8587/ 91500=
07460,1997-06-25 18:00:00,19,1005.5,-2.1,40,5,35000,14.816,,,210,11.7,19.7,,,,,,,,,wg-a,,,,AAXX 25184 07460 12681 72108 10190 20050 39678 40055 58021 60006 8387/ 91800 333 10197 20117=
07460,1997-06-25 21:00:00,17,1005.2,-0.5,59,9,500,22.224,,,210,,,,,,,,,,,wg-a,,,,AAXX 25214 07460 12700 72112 10170 20090 39673 40052 58005 60006 82532 92100=
07460,1997-06-26 00:00:00,16,1003.5,-1.7,68,10,500,22.224,,,200,,,,,,,,,,,wg-a,,,,AAXX 26004 07460 12700 42012 10160 20100 39656 40035 58017 60006 82532 90000=
07460,1997-06-26 03:00:00,16,1002.1,-1.6,63,9,500,29.632,,,240,,,,,,,,,,,wg-a,,,,AAXX 26034 07460 12500 72416 10160 20090 39642 40021 56016 60006 83832 90300=
07460,1997-06-26 06:00:00,15,1001.8,-0.3,67,9,500,7.408,,,190,14.6,18.7,,,,,,,,15,wg-a,,,,AAXX 26064 07460 02600 81904 10150 20090 39638 40018 57003 60006 71522 875// 90600 333 10187 20146 60004=
07460,1997-06-26 12:00:00,17,999.3,-1.2,63,10,500,22.224,,,190,,,,,,,,,,,wg-a,,,,AAXX 26124 07460 12600 71912 10170 20100 39617 49993 58012 60006 878// 91200=
07460,1997-06-26 15:00:00,17,998.3,-0.9,68,11,11000,22.224,,37.04,210,,,,,,,,,,,wg-a,,,,AAXX 26154 07460 12/61 /2112 10170 20110 39607 49983 56009 60006 91500 333 91020=
07460,1997-06-26 18:00:00,17,998.2,-0.3,59,9,500,18.52,,,260,14.9,19,,,,,,,,,wg-a,,,,AAXX 26184 07460 12600 72610 10170 20090 39606 49982 58003 60006 878// 91800 333 10190 20149=
07460,1997-06-26 21:00:00,14,999.4,0.9,77,10,15000,14.816,,,280,,,,1,,,,,,60,wg-a,,,,AAXX 26214 07460 12565 72808 10140 20100 39614 49994 53009 60017 76086 878// 92100=
07460,1997-06-27 00:00:00,13,999.8,0.2,62,6,15000,25.928,,,220,,,,0,,,,,,1,wg-a,,,,AAXX 27004 07460 02665 42214 10130 20060 39616 49998 51002 60016 70186 84800 90000 333 60007=
07460,1997-06-27 06:00:00,13,999.4,0.3,62,6,20000,14.816,,,220,11.8,17,,,,,1,,,,wg-a,,,,AAXX 27064 07460 02570 /2208 10130 20060 39612 49994 52003 60006 86800 90600 333 10170 20118 60014=
07460,1997-06-27 09:00:00,15,999.6,0.3,59,7,500,25.928,,,210,,,,,,,,,,,wg-a,,,,AAXX 27094 07460 12600 62114 10150 20070 39616 49996 52003 60006 85830 90900=
07460,1997-06-27 12:00:00,16,1000.7,1.3,59,8,500,29.632,,,190,,,,,,,,,,,wg-a,,,,AAXX 27124 07460 12600 71916 10160 20080 39629 40007 53013 60006 878// 91200=
07460,1997-06-27 18:00:00,16,1002.7,1.4,55,7,35000,25.928,,,220,12.7,18.9,,,,,,,,,wg-a,,,,AAXX 27184 07460 12681 /2214 10160 20070 39647 40027 53014 60006 86840 91800 333 10189 20127=
07460,1997-06-28 00:00:00,10,1006.6,0.6,76,6,20000,3.704,,,140,,,,,,,,,,,wg-a,,,,AAXX 28004 07460 12570 31402 10100 20060 39677 40066 50006 60006 83800 90000=
07460,1997-06-28 06:00:00,11,1008.2,1.3,71,6,500,3.704,,,190,7.5,15.6,,,,,,,,,wg-a,,,,AAXX 28064 07460 02600 /1902 10110 20060 39694 40082 53013 60006 81802 90600 333 10156 20075 60004=
07460,1997-06-28 09:00:00,17,1007.6,0.2,52,7,40000,3.704,,,280,,,,,,,,,,,wg-a,,,,AAXX 28094 07460 12682 22802 10170 20070 39696 40076 50002 60006 81832 90900=
07460,1997-06-28 12:00:00,20,1006.2,-0.8,43,7,40000,7.408,,,10,,,,,,,,,,,wg-a,,,,AAXX 28124 07460 12682 30104 10200 20070 39687 40062 58008 60006 82832 91200=
07460,1997-06-28 15:00:00,22,1004.9,-1.2,38,7,40000,11.112,,,30,,,,,,,,,,,wg-a,,,,AAXX 28154 07460 12782 70306 10220 20070 39676 40049 57012 60006 83832 91500=
07460,1997-06-28 18:00:00,20,1004.3,-0.8,53,10,500,14.816,,,360,11.2,22.1,,,,,,,,,wg-a,,,,AAXX 28184 07460 12700 83608 10200 20100 39668 40043 56008 60006 8352/ 91800 333 10221 20112=
07460,1997-06-28 21:00:00,13,1006.3,1.1,94,12,8000,7.408,,,230,,,,5,,,,,,61,wg-a,,,,AAXX 28214 07460 12558 82304 10130 20120 39679 40063 51011 60057 76162 8352/ 92100=
07460,1997-06-29 00:00:00,12,1004.4,-2,100,12,6000,7.408,,,270,,,,9,,,,,,61,wg-a,,,,AAXX 29004 07460 02156 82704 10120 20120 39660 40044 56020 60146 76162 8672/ 90000 333 60097=
07460,1997-06-29 03:00:00,13,1001.6,-2.6,94,12,6000,7.408,,,340,,,,3,,,,,,63,wg-a,,,,AAXX 29034 07460 12256 83404 10130 20120 39634 40016 56026 60037 76366 875// 90300=
07460,1997-06-29 06:00:00,13,1001.5,-0,94,12,9000,7.408,,,320,12.4,19.6,,,,,19,,,3,wg-a,,,,AAXX 29064 07460 02159 73204 10130 20120 39633 40015 54000 60006 70362 877// 90600 333 10196 20124 60194=
07460,1997-06-29 09:00:00,15,1001.3,0.1,88,13,7000,11.112,,,160,,,,1,,,,,,61,wg-a,,,,AAXX 29094 07460 12457 81606 10150 20130 39634 40013 53001 60017 76162 8457/ 90900=
07460,1997-06-29 12:00:00,19,999.5,-1.2,56,10,500,22.224,,,160,,,,0,,,,,,29,wg-a,,,,AAXX 29124 07460 02600 51612 10190 20100 39621 49995 56012 60016 72996 84802 91200 333 60007=
07460,1997-06-29 15:00:00,18,1000.6,0.9,56,9,40000,31.484,,50.004,170,,,,,,,,,,,wg-a,,,,AAXX 29154 07460 12682 61717 10180 20090 39630 40006 53009 60006 83832 91500 333 91027=
07460,1997-06-29 18:00:00,16,1002.6,1.7,63,9,40000,18.52,,,180,12.9,21.3,,1,,,,,,3,wg-a,,,,AAXX 29184 07460 02682 61810 10160 20090 39647 40026 51017 60006 70386 84832 91800 333 10213 20129 60017=
07460,1997-06-29 21:00:00,14,1005.2,2.4,72,9,20000,18.52,,,270,,,,,,,,,,,wg-a,,,,AAXX 29214 07460 12570 62710 10140 20090 39670 40052 53024 60006 84832 92100=
07460,1997-06-30 00:00:00,13,1006.5,1,67,7,20000,22.224,,37.04,240,,,,,,,,,,,wg-a,,,,AAXX 30004 07460 12670 72412 10130 20070 39681 40065 51010 60006 8583/ 90000 333 91020=
07460,1997-06-30 03:00:00,13,1006.6,0,67,7,20000,14.816,,,200,,,,,,,,,,,wg-a,,,,AAXX 30034 07460 12670 /2008 10130 20070 39682 40066 50000 60006 83530 90300=
07460,1997-06-30 06:00:00,13,1006.9,0.3,77,9,20000,18.52,,,180,12.1,17.2,,,,,2,,,14,wg-a,,,,AAXX 30064 07460 02670 71810 10130 20090 39684 40069 53003 60006 71422 8557/ 90600 333 10172 20121 60024=
07460,1997-06-30 09:00:00,16,1006.5,-0,63,9,500,18.52,,,220,,,,,,,,,,,wg-a,,,,AAXX 30094 07460 32600 72210 10160 20090 39685 40065 54000 8657/ 90900=
07460,1997-06-30 12:00:00,19,1006.4,0.2,52,9,500,22.224,,,200,,,,,,,,,,,wg-a,,,,AAXX 30124 07460 12600 72012 10190 20090 39687 40064 50002 60006 86802 91200=
07460,1997-06-30 15:00:00,18,1006.9,0.4,56,9,40000,18.52,,,250,,,,,,,,,,,wg-a,,,,AAXX 30154 07460 12582 72510 10180 20090 39691 40069 50004 60006 879// 91500=
07460,1997-06-30 18:00:00,16,1009,1.7,59,8,13000,18.52,,,240,,,,,,,,,,,wg-a,,,,AAXX 30184 07460 12663 72410 10160 20080 39708 40090 51017 60006 83172 91800=
07460,1997-06-30 21:00:00,15,1010.5,1.4,67,9,14000,11.112,,,220,,,,,,,,,,,wg-a,,,,AAXX 30214 07460 12564 72206 10150 20090 39722 40105 53014 60006 84831 92100=
07460,1997-07-01 00:00:00,14,1011.2,0.5,72,9,14000,7.408,,,200,,,,,,,,,,,wg-a,,,,AAXX 01004 07460 12564 72004 10140 20090 39727 40112 53005 60006 85831 90000=
07460,1997-07-01 03:00:00,12,1011.7,0.3,76,8,14000,11.112,,,160,,,,,,,,,,,wg-a,,,,AAXX 01034 07460 12564 51606 10120 20080 39730 40117 51003 60006 81131 90300=
07460,1997-07-01 06:00:00,14,1012.5,0.9,72,9,13000,18.52,,,180,12.1,15.8,,,,,,,,,wg-a,,,,AAXX 01064 07460 02563 61810 10140 20090 39739 40125 52009 60006 84832 90600 333 10158 20121 60004=
07460,1997-07-01 12:00:00,20,1011,-0.9,46,8,25000,22.224,,,190,,,,,,,,,,,wg-a,,,,AAXX 01124 07460 12675 41912 10200 20080 39733 40110 58009 60006 84231 91200=
07460,1997-07-01 15:00:00,21,1010.4,-0.5,46,9,25000,29.632,,,220,,,,,,,,,,,wg-a,,,,AAXX 01154 07460 12675 62216 10210 20090 39729 40104 56005 60006 84231 91500=
07460,1997-07-01 18:00:00,20,1010.6,0.1,49,9,25000,22.224,,,190,13.5,21.7,,,,,,,,,wg-a,,,,AAXX 01184 07460 12675 71912 10200 20090 39729 40106 53001 60006 83842 91800 333 10217 20135=
07460,1997-07-01 21:00:00,16,1011.9,0.7,68,10,20000,3.704,,,220,,,,,,,,,,,wg-a,,,,AAXX 01214 07460 12670 52202 10160 20100 39737 40119 52007 60006 82842 92100=
07460,1997-07-02 00:00:00,15,1011,-1,77,11,15000,0,,,0,,,,,,,,,,,wg-a,,,,AAXX 02004 07460 12665 70000 10150 20110 39727 40110 58010 60006 83832 90000=
07460,1997-07-02 03:00:00,14,1010,-1.1,82,11,15000,3.704,,,40,,,,,,,,,,,wg-a,,,,AAXX 02034 07460 12565 70402 10140 20110 39716 40100 58011 60006 8487/ 90300=
07460,1997-07-02 06:00:00,15,1008.5,-1.4,88,13,15000,11.112,,,170,13.2,19.8,,,,,,,,1,wg-a,,,,AAXX 02064 07460 02665 71706 10150 20130 39702 40085 56014 60006 70186 8257/ 90600 333 10198 20132 61000=
07460,1997-07-02 09:00:00,20,1006.3,-1.4,56,11,25000,29.632,,,190,,,,,,,,,,1,wg-a,,,,AAXX 02094 07460 02775 /1916 10200 20110 39688 40063 57014 61000 70162 81530 90900 333 ////=
07460,1997-07-02 12:00:00,22,1006.5,0.4,43,9,500,38.892,,55.56,190,,,,,,,,,,3,wg-a,,,,AAXX 02124 07460 02700 71921 10220 20090 39692 40065 53004 61000 70361 878// 91200 333 //// 91030=
07460,1997-07-02 15:00:00,15,1011.1,3.5,82,12,10000,11.112,,,230,,,,5,,,,,,61,wg-a,,,,AAXX 02154 07460 12560 82306 10150 20120 39727 40111 53035 60057 76162 878// 91500=
07460,1997-07-02 18:00:00,14,1012.4,1.2,94,13,12000,3.704,,,50,13.6,23.5,,,,,,,,21,wg-a,,,,AAXX 02184 07460 02262 70502 10140 20130 39739 40124 52012 61000 72162 8352/ 91800 333 10235 20136 6003=
07460,1997-07-02 21:00:00,13,1014.8,2.3,94,12,20000,3.704,,,310,,,,,,,,,,,wg-a,,,,AAXX 02214 07460 12670 73102 10130 20120 39761 40148 51023 60006 8157/ 92100=
07460,1997-07-03 00:00:00,12,1015.2,0.2,100,12,20000,3.704,,,110,,,,,,,,,,,wg-a,,,,AAXX 03004 07460 12270 71102 10120 20120 39764 40152 51002 60006 8287/ 90000=
07460,1997-07-03 03:00:00,12,1014.9,-0.3,94,11,15000,3.704,,,110,,,,,,,,,,,wg-a,,,,AAXX 03034 07460 12665 71102 10120 20110 39760 40149 58003 60006 8357/ 90300=
07460,1997-07-03 06:00:00,12,1016.1,1.1,94,11,15000,0,,,0,11.5,14,,,,,,,,21,wg-a,,,,AAXX 03064 07460 02265 70000 10120 20110 39772 40161 53011 61000 72162 8357/ 90600 333 10140 20115 6009=
07460,1997-07-03 12:00:00,18,1016.1,-0.1,64,11,40000,7.408,,,30,,,,,,,,,,1,wg-a,,,,AAXX 03124 07460 12582 70304 10180 20110 39780 40161 58001 60006 70162 8683/ 91200=
07460,1997-07-03 15:00:00,19,1015.9,-0,49,8,50000,11.112,,,230,,,,,,,,,,,wg-a,,,,AAXX 03154 07460 12684 72306 10190 20080 39779 40159 55000 60006 8383/ 91500=
07460,1997-07-03 18:00:00,17,1016.5,0.3,59,9,40000,22.224,,,270,11.9,20.2,,,,,,,,,wg-a,,,,AAXX 03184 07460 12682 62712 10170 20090 39782 40165 53003 60006 84230 91800 333 10202 20119=
07460,1997-07-03 21:00:00,15,1018.3,1.5,59,7,25000,0,,,0,,,,,,,,,,,wg-a,,,,AAXX 03214 07460 12775 50000 10150 20070 39797 40183 53015 60006 81440 92100=
07460,1997-07-04 00:00:00,13,1019.2,0.5,82,10,20000,0,,,0,,,,,,,,,,,wg-a,,,,AAXX 04004 07460 12/70 70000 10130 20100 39802 40192 51005 60006 8703/ 90000=
07460,1997-07-04 06:00:00,11,1019.7,1.1,94,10,500,0,,,0,9.8,17.7,,,,,,,,,wg-a,,,,AAXX 04064 07460 02/00 60000 10110 20100 39805 40197 53011 60006 81031 90600 333 10177 20098 60004=
07460,1997-07-04 09:00:00,18,1018.6,-0.1,56,9,500,3.704,,,70,,,,,,,,,,,wg-a,,,,AAXX 04094 07460 12600 40702 10180 20090 39804 40186 58001 60006 82231 90900=
07460,1997-07-04 12:00:00,20,1018,-0.3,53,10,35000,7.408,,,120,,,,,,,,,,,wg-a,,,,AAXX 04124 07460 12781 /1204 10200 20100 39801 40180 58003 60006 83202 91200=
07460,1997-07-04 15:00:00,19,1017.9,-0.2,52,9,25000,22.224,,,240,,,,,,,,,,,wg-a,,,,AAXX 04154 07460 12675 72412 10190 20090 39799 40179 55002 60006 84932 91500=
07460,1997-07-04 18:00:00,18,1018.3,0.2,56,9,15000,18.52,,,260,11.5,21.6,,,,,,,,15,wg-a,,,,AAXX 04184 07460 12665 72610 10180 20090 39801 40183 53002 60006 71522 872// 91800 333 10216 20115=
07460,1997-07-04 21:00:00,15,1020.6,1.7,82,12,15000,7.408,,,80,,,,,,,,,,80,wg-a,,,,AAXX 04214 07460 02565 70804 10150 20120 39819 40206 53017 61000 78086 878// 92100 333 ////=
07460,1997-07-05 00:00:00,13,1021.2,0.4,94,12,12000,3.704,,,50,,,,2,,,,,,60,wg-a,,,,AAXX 05004 07460 02462 70502 10130 20120 39823 40212 51004 60026 76086 878// 90000 333 60027=
07460,1997-07-05 06:00:00,13,1022.6,1.3,77,9,20000,7.408,,,310,11.8,17.8,,,,,4,,,1,wg-a,,,,AAXX 05064 07460 02670 73104 10130 20090 39835 40226 53013 60006 70162 8657/ 90600 333 10178 20118 60044=
07460,1997-07-05 09:00:00,15,1023.4,1.1,72,10,20000,11.112,,,310,,,,,,,,,,,wg-a,,,,AAXX 05094 07460 12570 73106 10150 20100 39846 40234 51011 60006 8487/ 90900=
07460,1997-07-05 12:00:00,16,1024.1,0.8,63,9,500,18.52,,,320,,,,,,,,,,,wg-a,,,,AAXX 05124 07460 12500 63210 10160 20090 39854 40241 51008 60006 85830 91200=
07460,1997-07-05 15:00:00,16,1024.4,0.3,68,10,15000,22.224,,,320,,,,,,,,,,15,wg-a,,,,AAXX 05154 07460 12565 63212 10160 20100 39857 40244 53003 60006 71522 85830 91500=
07460,1997-07-05 18:00:00,15,1025.7,1.1,82,12,8000,18.52,,,10,12.5,18.9,,,,,,,,80,wg-a,,,,AAXX 05184 07460 02458 70110 10150 20120 39868 40257 53011 61000 78086 878// 91800 333 10189 20125 6001=
07460,1997-07-05 21:00:00,14,1027.6,1.7,82,11,12000,7.408,,,90,,,,,,,,,,3,wg-a,,,,AAXX 05214 07460 02562 /0904 10140 20110 39885 40276 53017 61000 70386 85830 92100 333 ////=
07460,1997-07-06 00:00:00,14,1027.9,0.4,82,11,12000,3.704,,,50,,,,,,,,,,3,wg-a,,,,AAXX 06004 07460 02562 70502 10140 20110 39889 40279 51004 61000 70386 8583/ 90000 333 ////=
07460,1997-07-06 03:00:00,12,1028.1,-0.2,94,11,15000,3.704,,,130,,,,,,,,,,,wg-a,,,,AAXX 06034 07460 12565 /1302 10120 20110 39887 40281 56002 60006 86800 90300=
07460,1997-07-06 06:00:00,13,1028.7,0.7,94,12,8000,3.704,,,80,11.1,14.6,,,,,1,,,,wg-a,,,,AAXX 06064 07460 02558 /0802 10130 20120 39894 40287 53007 60006 86800 90600 333 10146 20111 60014=
07460,1997-07-06 09:00:00,17,1028.1,0,72,12,15000,14.816,,,20,,,,,,,,,,,wg-a,,,,AAXX 06094 07460 12465 50208 10170 20120 39894 40281 50000 60006 85200 90900=
07460,1997-07-06 12:00:00,18,1028.1,0.2,56,9,25000,18.52,,,10,,,,,,,,,,,wg-a,,,,AAXX 06124 07460 12675 40110 10180 20090 39895 40281 51002 60006 84200 91200=
07460,1997-07-06 18:00:00,20,1026.4,-0.4,49,9,500,18.52,,,20,12.9,20.6,,,,,,,,,wg-a,,,,AAXX 06184 07460 12700 /0210 10200 20090 39881 40264 56004 60006 81800 91800 333 10206 20129=
07460,1997-07-06 21:00:00,15,1027.9,0.9,67,9,20000,7.408,,,340,,,,,,,,,,,wg-a,,,,AAXX 06214 07460 12/70 03404 10150 20090 39890 40279 52009 60006 80000 92100=
07460,1997-07-07 00:00:00,13,1027.8,-0.4,77,9,20000,3.704,,,120,,,,,,,,,,,wg-a,,,,AAXX 07004 07460 12770 /1202 10130 20090 39886 40278 58004 60006 86500 90000=
07460,1997-07-07 03:00:00,14,1026.7,-0.9,82,11,20000,0,,,0,,,,,,,,,,,wg-a,,,,AAXX 07034 07460 12670 70000 10140 20110 39877 40267 56009 60006 875// 90300=
07460,1997-07-07 06:00:00,15,1026.5,-0.1,82,12,25000,0,,,0,12.9,19.7,,,,,,,,,wg-a,,,,AAXX 07064 07460 02575 70000 10150 20120 39876 40265 57001 60006 8753/ 90600 333 10197 20129 60004=
07460,1997-07-07 09:00:00,19,1025.4,-0.5,68,13,25000,14.816,,,350,,,,,,,,,,,wg-a,,,,AAXX 07094 07460 12575 /3508 10190 20130 39871 40254 58005 60006 85200 90900=
07460,1997-07-07 12:00:00,22,1024,-1.2,53,12,25000,22.224,,,20,,,,,,,,,,,wg-a,,,,AAXX 07124 07460 12675 30212 10220 20120 39860 40240 58012 60006 83200 91200=
07460,1997-07-07 15:00:00,22,1022.9,-0.9,53,12,25000,18.52,,,20,,,,,,,,,,,wg-a,,,,AAXX 07154 07460 12675 50210 10220 20120 39850 40229 58009 60006 85800 91500=
07460,1997-07-07 18:00:00,21,1022.3,-0.8,53,11,25000,11.112,,,30,15.3,22.6,,,,,,,,,wg-a,,,,AAXX 07184 07460 12675 30306 10210 20110 39843 40223 57008 60006 83400 91800 333 10226 20153=
07460,1997-07-07 21:00:00,18,1022.7,0.1,68,12,25000,3.704,,,340,,,,,,,,,,,wg-a,,,,AAXX 07214 07460 12675 /3402 10180 20120 39843 40227 52001 60006 81400 92100=
07460,1997-07-08 00:00:00,14,1023,-0.4,82,11,20000,0,,,0,,,,,,,,,,,wg-a,,,,AAXX 08004 07460 12/70 00000 10140 20110 39840 40230 58004 60006 80000 90000=
07460,1997-07-08 06:00:00,16,1021.4,0.1,82,13,20000,7.408,,,10,11.7,20.7,,,,,,,,,wg-a,,,,AAXX 08064 07460 02570 /0104 10160 20130 39828 40214 53001 60006 81100 90600 333 10207 20117 60004=
07460,1997-07-08 09:00:00,19,1020.5,-0.4,68,13,25000,14.816,,,20,,,,,,,,,,,wg-a,,,,AAXX 08094 07460 12575 /0208 10190 20130 39824 40205 58004 60006 81100 90900=
07460,1997-07-08 12:00:00,23,1018.8,-1.2,50,12,500,18.52,,,40,,,,,,,,,,,wg-a,,,,AAXX 08124 07460 12600 /0410 10230 20120 39812 40188 58012 60006 81100 91200=
07460,1997-07-08 15:00:00,24,1017,-1.4,44,11,500,22.224,,,30,,,,,,,,,,,wg-a,,,,AAXX 08154 07460 12700 /0312 10240 20110 39796 40170 58014 60006 81100 91500=
07460,1997-07-08 18:00:00,24,1016.2,-0.9,44,11,500,14.816,,,40,15.7,24.7,,,,,,,,,wg-a,,,,AAXX 08184 07460 12700 10408 10240 20110 39788 40162 56009 60006 81100 91800 333 10247 20157=
07460,1997-07-08 21:00:00,17,1017.2,0.1,72,12,25000,3.704,,,180,,,,,,,,,,,wg-a,,,,AAXX 08214 07460 12775 11802 10170 20120 39789 40172 53001 60006 81500 92100=
07460,1997-07-09 00:00:00,14,1017,-0.6,88,12,25000,3.704,,,290,,,,,,,,,,,wg-a,,,,AAXX 09004 07460 12/75 02902 10140 20120 39783 40170 58006 60006 80000 90000=
07460,1997-07-09 03:00:00,12,1016.4,-0.8,94,11,25000,0,,,0,,,,,,,,,,,wg-a,,,,AAXX 09034 07460 12/75 00000 10120 20110 39775 40164 56008 60006 80000 90300=
07460,1997-07-09 06:00:00,15,1015.6,-0.4,88,13,25000,0,,,0,10.5,23.5,,,,,,,,,wg-a,,,,AAXX 09064 07460 02/75 10000 10150 20130 39771 40156 56004 60006 80001 90600 333 10235 20105 60004=
07460,1997-07-09 12:00:00,23,1013,-1,57,14,25000,7.408,,,30,,,,,,,,,,,wg-a,,,,AAXX 09124 07460 12675 20304 10230 20140 39757 40130 57010 60006 81101 91200=
07460,1997-07-09 15:00:00,26,1011.6,-1.1,48,14,25000,14.816,,,30,,,,,,,,,,,wg-a,,,,AAXX 09154 07460 12675 20308 10260 20140 39746 40116 56011 60006 82200 91500=
07460,1997-07-09 18:00:00,25,1011.2,-0.5,47,13,500,11.112,,,10,14.7,25.8,,,,,,,,,wg-a,,,,AAXX 09184 07460 12700 /0106 10250 20130 39741 40112 55005 60006 81201 91800 333 10258 20147=
07460,1997-07-10 00:00:00,16,1012.7,-0.2,77,12,20000,3.704,,,150,,,,,,,,,,,wg-a,,,,AAXX 10004 07460 12/70 11502 10160 20120 39744 40127 56002 60006 80001 90000=
07460,1997-07-10 03:00:00,14,1012.6,-0.4,82,11,20000,3.704,,,20,,,,,,,,,,,wg-a,,,,AAXX 10034 07460 12/70 10202 10140 20110 39740 40126 56004 60006 80002 90300=
07460,1997-07-10 06:00:00,17,1012,-0.1,77,13,25000,3.704,,,70,12.3,24.7,,,,,,,,,wg-a,,,,AAXX 10064 07460 02/75 10702 10170 20130 39739 40120 56001 60006 81081 90600 333 10247 20123 60004=
07460,1997-07-10 09:00:00,23,1011.1,-0.1,61,15,25000,3.704,,,40,,,,,,,,,,,wg-a,,,,AAXX 10094 07460 12675 30402 10230 20150 39738 40111 58001 60006 82201 90900=
07460,1997-07-10 12:00:00,23,1010.3,-0.7,57,14,25000,18.52,,,270,,,,,,,,,,17,wg-a,,,,AAXX 10124 07460 12675 72710 10230 20140 39731 40103 56007 60006 71791 879// 91200=
07460,1997-07-10 15:00:00,22,1011.6,1.1,65,15,25000,14.816,,,230,,,,,,,,,,17,wg-a,,,,AAXX 10154 07460 12675 72308 10220 20150 39741 40116 53011 60006 71792 8727/ 91500=
07460,1997-07-10 18:00:00,20,1011.8,-0.1,73,15,500,3.704,,,100,16.8,26.3,,,,,,,,1,wg-a,,,,AAXX 10184 07460 12700 71002 10200 20150 39741 40118 58001 60006 70192 81573 91800 333 10263 20168=
07460,1997-07-11 00:00:00,16,1013.9,0.1,82,13,25000,3.704,,,300,,,,,,,,,,,wg-a,,,,AAXX 11004 07460 12/75 33002 10160 20130 39756 40139 50001 60006 82031 90000=
07460,1997-07-11 03:00:00,13,1014.5,0.2,94,12,20000,0,,,0,,,,,,,,,,,wg-a,,,,AAXX 11034 07460 12670 70000 10130 20120 39758 40145 53002 60006 875// 90300=
07460,1997-07-11 06:00:00,17,1014.6,0.6,88,15,20000,3.704,,,360,13,20.1,,,,,,,,,wg-a,,,,AAXX 11064 07460 02670 /3602 10170 20150 39765 40146 51006 60006 8553/ 90600 333 10201 20130 60004=
07460,1997-07-11 12:00:00,23,1014.7,0.3,57,14,15000,14.816,,,320,,,,,,,,,,,wg-a,,,,AAXX 11124 07460 12565 73208 10230 20140 39773 40147 51003 60006 83230 91200=
07460,1997-07-11 15:00:00,23,1015,0.2,61,15,14000,14.816,,,300,,,,,,,,,,,wg-a,,,,AAXX 11154 07460 12664 73008 10230 20150 39775 40150 53002 60006 83930 91500=
07460,1997-07-11 18:00:00,20,1015.9,0.6,73,15,20000,11.112,,,200,17.3,24.1,,,,,,,,3,wg-a,,,,AAXX 11184 07460 02570 72006 10200 20150 39781 40159 53006 60006 70398 85830 91800 333 10241 20173 61000=
07460,1997-07-11 21:00:00,16,1017.5,1,82,13,15000,0,,,0,,,,,,,,,,1,wg-a,,,,AAXX 11214 07460 02665 40000 10160 20130 39791 40175 53010 61000 70186 82830 92100 333 ////=
07460,1997-07-12 00:00:00,15,1017.7,0.1,94,14,15000,0,,,0,,,,,,,,,,2,wg-a,,,,AAXX 12004 07460 02665 50000 10150 20140 39792 40177 50001 61000 70286 84530 90000 333 ////=
07460,1997-07-12 03:00:00,16,1017.6,-0,88,14,14000,7.408,,,10,,,,,,,,,,,wg-a,,,,AAXX 12034 07460 12564 /0104 10160 20140 39792 40176 55000 60006 86500 90300=
07460,1997-07-12 06:00:00,17,1017.7,0.2,82,14,12000,3.704,,,20,15.1,20,,,,,,,,,wg-a,,,,AAXX 12064 07460 02462 70202 10170 20140 39794 40177 51002 60006 875// 90600 333 10200 20151 61000=
07460,1997-07-12 09:00:00,20,1017.3,0.1,73,15,15000,3.704,,,70,,,,,,,,,,,wg-a,,,,AAXX 12094 07460 12565 70702 10200 20150 39795 40173 50001 60006 84801 90900=
07460,1997-07-12 12:00:00,24,1015.8,-1,57,15,11000,7.408,,,70,,,,,,,,,,,wg-a,,,,AAXX 12124 07460 12/61 /0704 10240 20150 39785 40158 58010 60006 91200=
07460,1997-07-12 15:00:00,27,1014.3,-1.2,45,14,25000,11.112,,,30,,,,,,,,,,,wg-a,,,,AAXX 12154 07460 12675 20306 10270 20140 39773 40143 56012 60006 82100 91500=
07460,1997-07-12 18:00:00,26,1013.9,-0.5,48,14,25000,7.408,,,40,16.6,26.9,,,,,,,,,wg-a,,,,AAXX 12184 07460 12775 /0404 10260 20140 39768 40139 56005 60006 81100 91800 333 10269 20166=
07460,1997-07-12 21:00:00,20,1015.8,1.2,73,15,20000,7.408,,,300,,,,,,,,,,,wg-a,,,,AAXX 12214 07460 12670 /3004 10200 20150 39780 40158 53012 60006 81100 92100=
07460,1997-07-13 00:00:00,16,1016.6,0.3,88,14,20000,3.704,,,270,,,,,,,,,,,wg-a,,,,AAXX 13004 07460 12670 /2702 10160 20140 39783 40166 51003 60006 81100 90000=
07460,1997-07-13 03:00:00,15,1016.7,-0.1,94,14,15000,3.704,,,150,,,,,,,,,,,wg-a,,,,AAXX 13034 07460 12/65 11502 10150 20140 39782 40167 57001 60006 80001 90300=
07460,1997-07-13 06:00:00,17,1017.2,0.8,82,14,25000,7.408,,,20,13.8,25.6,,,,,,,,,wg-a,,,,AAXX 13064 07460 02/75 30204 10170 20140 39790 40172 53008 60006 81031 90600 333 10256 20138 60004=
07460,1997-07-13 09:00:00,24,1016.5,0.2,57,15,25000,3.704,,,240,,,,,,,,,,,wg-a,,,,AAXX 13094 07460 12675 52402 10240 20150 39792 40165 50002 60006 81132 90900=
07460,1997-07-13 12:00:00,28,1015.4,-0.7,45,15,25000,3.704,,,20,,,,,,,,,,,wg-a,,,,AAXX 13124 07460 12675 /0202 10280 20150 39785 40154 56007 60006 82202 91200=
07460,1997-07-13 15:00:00,28,1014.5,-0.8,45,15,25000,11.112,,,40,,,,,,,,,,,wg-a,,,,AAXX 13154 07460 12675 40406 10280 20150 39777 40145 56008 60006 82101 91500=
07460,1997-07-13 18:00:00,27,1014.8,0.1,51,16,25000,7.408,,,30,17.4,29.2,,,,,,,,,wg-a,,,,AAXX 13184 07460 12675 /0304 10270 20160 39778 40148 53001 60006 82302 91800 333 10292 20174=
07460,1997-07-13 21:00:00,23,1016.5,1.1,65,16,25000,3.704,,,110,,,,,,,,,,,wg-a,,,,AAXX 13214 07460 12675 /1102 10230 20160 39790 40165 51011 60006 83332 92100=
07460,1997-07-14 00:00:00,19,1017.2,0.3,78,15,25000,3.704,,,110,,,,,,,,,,,wg-a,,,,AAXX 14004 07460 12675 /1102 10190 20150 39792 40172 52003 60006 83232 90000=
07460,1997-07-14 03:00:00,18,1018,0.6,83,15,25000,3.704,,,330,,,,,,,,,,,wg-a,,,,AAXX 14034 07460 12675 53302 10180 20150 39799 40180 52006 60006 82202 90300=
07460,1997-07-14 06:00:00,18,1018.7,0.7,83,15,20000,3.704,,,10,16.7,26.5,,,,,,,,,wg-a,,,,AAXX 14064 07460 02670 70102 10180 20150 39806 40187 53007 60006 82232 90600 333 10265 20167 60004=
07460,1997-07-14 09:00:00,20,1019.9,1.4,78,16,14000,3.704,,,150,,,,,,,,,,25,wg-a,,,,AAXX 14094 07460 02664 71502 10200 20160 39820 40199 53014 61000 72586 878// 90900 333 ////=
07460,1997-07-14 12:00:00,22,1020.7,1,78,18,14000,7.408,,,110,,,,4,,,,,,1,wg-a,,,,AAXX 14124 07460 02464 41104 10220 20180 39830 40207 50010 60046 70186 82801 91200 333 60047=
07460,1997-07-14 15:00:00,24,1019.2,-0.7,61,16,14000,7.408,,,30,,,,,,,,,,,wg-a,,,,AAXX 14154 07460 12664 20304 10240 20160 39818 40192 58007 60006 82201 91500=
07460,1997-07-14 18:00:00,21,1019.6,0.1,83,18,15000,7.408,,,210,17.7,25.1,,,,,,,,29,wg-a,,,,AAXX 14184 07460 12565 52104 10210 20180 39819 40196 53001 60006 72991 84901 91800 333 10251 20177=
07460,1997-07-14 21:00:00,18,1021.6,1.6,94,17,15000,0,,,0,,,,1,,,,,,1,wg-a,,,,AAXX 14214 07460 12565 40000 10180 20170 39834 40216 52016 60017 70198 84200 92100=
07460,1997-07-15 00:00:00,17,1022.4,0.6,94,16,15000,3.704,,,250,,,,,,,,,,3,wg-a,,,,AAXX 15004 07460 12565 /2502 10170 20160 39840 40224 53006 60016 70398 85800 90000=
07460,1997-07-15 03:00:00,16,1022.6,0,94,15,11000,0,,,0,,,,,,,,,,,wg-a,,,,AAXX 15034 07460 12/61 /0000 10160 20150 39840 40226 50000 60006 90300=
07460,1997-07-15 06:00:00,17,1022.8,0.3,94,16,15000,3.704,,,10,14.8,21.3,,,,,5,,,,wg-a,,,,AAXX 15064 07460 02665 30102 10170 20160 39843 40228 53003 60006 82101 90600 333 10213 20148 60054=
07460,1997-07-15 12:00:00,25,1022,-0.8,50,14,18000,11.112,,,70,,,,,,,,,,,wg-a,,,,AAXX 15124 07460 12668 20706 10250 20140 39845 40220 58008 60006 82101 91200=
07460,1997-07-15 18:00:00,25,1020.1,-0.9,47,13,35000,11.112,,,40,16.8,26.8,,,,,,,,,wg-a,,,,AAXX 15184 07460 12/81 40406 10250 20130 39827 40201 56009 60006 80001 91800 333 10268 20168=
07460,1997-07-15 21:00:00,20,1020.9,0.3,64,13,25000,0,,,0,,,,,,,,,,,wg-a,,,,AAXX 15214 07460 12/75 20000 10200 20130 39829 40209 53003 60006 80001 92100=
07460,1997-07-16 00:00:00,17,1020.1,-1.1,77,13,20000,0,,,0,,,,,,,,,,,wg-a,,,,AAXX 16004 07460 12/70 50000 10170 20130 39817 40201 58011 60006 80002 90000=
07460,1997-07-16 03:00:00,13,1019.7,-1,94,12,15000,3.704,,,120,,,,,,,,,,,wg-a,,,,AAXX 16034 07460 12/65 21202 10130 20120 39808 40197 57010 60006 80001 90300=
07460,1997-07-16 06:00:00,15,1019.8,0.5,88,13,25000,3.704,,,20,12.9,24.5,,,,,,,,,wg-a,,,,AAXX 16064 07460 02/75 20202 10150 20130 39812 40198 51005 60006 80001 90600 333 10245 20129 60004=
07460,1997-07-16 12:00:00,27,1015,-1.8,48,15,35000,7.408,,,50,,,,,,,,,,,wg-a,,,,AAXX 16124 07460 12/81 40504 10270 20150 39781 40150 58018 60006 80002 91200=
07460,1997-07-16 15:00:00,29,1012.5,-2.2,45,16,500,11.112,,,10,,,,,,,,,,,wg-a,,,,AAXX 16154 07460 12/00 50106 10290 20160 39759 40125 58022 60006 80002 91500=
07460,1997-07-16 18:00:00,27,1012,-0.7,48,15,10000,11.112,,,350,14.9,29.5,,,,,,,,,wg-a,,,,AAXX 16184 07460 12/60 /3506 10270 20150 39752 40120 55007 60006 91800 333 10295 20149=
07460,1997-07-17 00:00:00,21,1012.4,-0.5,73,16,20000,3.704,,,50,,,,0,,,,,,25,wg-a,,,,AAXX 17004 07460 02670 70502 10210 20160 39749 40124 58005 60016 72586 82282 90000 333 60007=
07460,1997-07-17 03:00:00,17,1011.6,-1.3,94,16,500,0,,,0,,,,,,,,,,25,wg-a,,,,AAXX 17034 07460 02/00 70000 10170 20160 39736 40116 56013 61000 72586 83082 90300 333 ////=
07460,1997-07-17 06:00:00,18,1011.8,0.4,88,16,25000,3.704,,,80,16.9,26.9,,,,,,,,,wg-a,,,,AAXX 17064 07460 02775 60802 10180 20160 39740 40118 53004 60006 81132 90600 333 10269 20169 60004=
07460,1997-07-17 12:00:00,25,1010.4,-0.5,61,17,25000,18.52,,,20,,,,,,,,,,,wg-a,,,,AAXX 17124 07460 12675 40210 10250 20170 39735 40104 58005 60006 81182 91200=
07460,1997-07-17 15:00:00,25,1010.5,-0,61,17,25000,22.224,,38.892,340,,,,,,,,,,,wg-a,,,,AAXX 17154 07460 12675 53412 10250 20170 39735 40105 55000 60006 82232 91500 333 91021=
07460,1997-07-17 18:00:00,24,1011.6,0.9,50,13,500,18.52,,,350,18.4,26.4,,,,,,,,,wg-a,,,,AAXX 17184 07460 12500 43510 10240 20130 39744 40116 53009 60006 83801 91800 333 10264 20184=
07460,1997-07-18 00:00:00,19,1014.1,-0.2,73,14,20000,11.112,,,310,,,,,,,,,,,wg-a,,,,AAXX 18004 07460 12670 43106 10190 20140 39762 40141 58002 60006 84800 90000=
07460,1997-07-18 06:00:00,18,1014.7,0.8,59,10,14000,22.224,,,280,16.5,23.6,,,,,,,,,wg-a,,,,AAXX 18064 07460 02564 22812 10180 20100 39766 40147 50008 60006 82800 90600 333 10236 20165 60004=
07460,1997-07-18 09:00:00,19,1015.7,1.1,56,10,15000,18.52,,,320,,,,,,,,,,,wg-a,,,,AAXX 18094 07460 12665 43210 10190 20100 39777 40157 51011 60006 84830 90900=
07460,1997-07-18 12:00:00,22,1015.6,0.2,43,9,500,22.224,,,310,,,,,,,,,,,wg-a,,,,AAXX 18124 07460 12600 33112 10220 20090 39780 40156 50002 60006 83200 91200=
07460,1997-07-18 15:00:00,23,1015.8,0.3,38,8,500,22.224,,,310,,,,,,,,,,,wg-a,,,,AAXX 18154 07460 12700 33112 10230 20080 39782 40158 53003 60006 82230 91500=
07460,1997-07-18 18:00:00,20,1017.6,1.3,53,10,500,18.52,,,320,17.8,23.3,,,,,,,,,wg-a,,,,AAXX 18184 07460 12600 43210 10200 20100 39796 40176 53013 60006 83230 91800 333 10233 20178=
07460,1997-07-18 21:00:00,17,1019.9,1.8,59,9,20000,7.408,,,320,,,,,,,,,,,wg-a,,,,AAXX 18214 07460 12/70 13204 10170 20090 39814 40199 52018 60006 81030 92100=
07460,1997-07-19 00:00:00,16,1020.3,0.3,63,9,20000,7.408,,,330,,,,,,,,,,,wg-a,,,,AAXX 19004 07460 12670 53304 10160 20090 39818 40203 51003 60006 84530 90000=
07460,1997-07-19 03:00:00,13,1021.3,0.5,77,9,20000,7.408,,,30,,,,,,,,,,,wg-a,,,,AAXX 19034 07460 12/70 10304 10130 20090 39823 40213 53005 60006 81030 90300=
07460,1997-07-19 06:00:00,14,1021.8,0.7,77,10,25000,3.704,,,90,12.9,19.7,,,,,,,,,wg-a,,,,AAXX 19064 07460 02575 70902 10140 20100 39830 40218 53007 60006 85830 90600 333 10197 20129 60004=
07460,1997-07-19 09:00:00,16,1022.2,0.6,72,11,500,3.704,,,200,,,,,,,,,,,wg-a,,,,AAXX 19094 07460 12500 72002 10160 20110 39836 40222 51006 60006 878// 90900=
07460,1997-07-19 12:00:00,18,1022.2,0.3,64,11,500,11.112,,,340,,,,,,,,,,,wg-a,,,,AAXX 19124 07460 12500 73406 10180 20110 39839 40222 50003 60006 878// 91200=
07460,1997-07-19 15:00:00,18,1022.5,0.2,73,13,10000,18.52,,,340,,,,,,,,,,80,wg-a,,,,AAXX 19154 07460 02560 73410 10180 20130 39841 40225 52002 61000 78086 878// 91500 333 ////=
07460,1997-07-19 18:00:00,21,1022,-0,60,13,500,3.704,,,60,14.2,20.7,,,,,,,,1,wg-a,,,,AAXX 19184 07460 02500 40602 10210 20130 39840 40220 55000 60006 70186 84800 91800 333 10207 20142 61000=
07460,1997-07-19 21:00:00,17,1023,0.5,77,13,15000,0,,,0,,,,0,,,,,,,wg-a,,,,AAXX 19214 07460 12665 /0000 10170 20130 39846 40230 52005 60007 85800 92100=
07460,1997-07-20 00:00:00,14,1023.2,-0.4,88,12,14000,3.704,,,140,,,,,,,,,,,wg-a,,,,AAXX 20004 07460 12664 21402 10140 20120 39842 40232 58004 60006 81130 90000=
07460,1997-07-20 03:00:00,12,1022.8,-0.6,94,11,12000,3.704,,,10,,,,,,,,,,,wg-a,,,,AAXX 20034 07460 12/62 00102 10120 20110 39836 40228 56006 60006 80000 90300=
07460,1997-07-20 06:00:00,13,1022.9,0.2,94,12,7000,0,,,0,10,20.5,,,,,,,,,wg-a,,,,AAXX 20064 07460 02/57 /0000 10130 20120 39838 40229 50002 60006 80001 90600 333 10205 20100 60004=
07460,1997-07-20 09:00:00,20,1021.6,-0.2,64,13,15000,7.408,,,80,,,,,,,,,,,wg-a,,,,AAXX 20094 07460 12665 /0804 10200 20130 39836 40216 58002 60006 81101 90900=
07460,1997-07-20 12:00:00,22,1020.2,-1.1,50,11,20000,18.52,,,20,,,,,,,,,,,wg-a,,,,AAXX 20124 07460 12670 40210 10220 20110 39825 40202 58011 60006 84201 91200=
07460,1997-07-20 15:00:00,24,1018.8,-1.2,41,10,25000,14.816,,,10,,,,,,,,,,,wg-a,,,,AAXX 20154 07460 12775 20108 10240 20100 39813 40188 58012 60006 82100 91500=
07460,1997-07-20 18:00:00,22,1018.8,-0.1,46,10,500,14.816,,,360,12.8,24.6,,,,,,,,,wg-a,,,,AAXX 20184 07460 12700 63608 10220 20100 39811 40188 55001 60006 81101 91800 333 10246 20128=
07460,1997-07-20 21:00:00,17,1020.5,0.9,59,9,500,7.408,,,330,,,,,,,,,,,wg-a,,,,AAXX 20214 07460 12700 43304 10170 20090 39821 40205 52009 60006 815/1 92100=
07460,1997-07-21 00:00:00,13,1020.6,-0.4,72,8,20000,3.704,,,140,,,,,,,,,,,wg-a,,,,AAXX 21004 07460 12570 31402 10130 20080 39816 40206 58004 60006 81801 90000=
07460,1997-07-21 06:00:00,12,1020.5,0.4,94,11,20000,0,,,0,8.5,22,,,,,,,,,wg-a,,,,AAXX 21064 07460 02/70 50000 10120 20110 39815 40205 52004 60006 80001 90600 333 10220 20085 60004=
07460,1997-07-21 09:00:00,18,1019.8,0.1,68,12,25000,7.408,,,350,,,,,,,,,,,wg-a,,,,AAXX 21094 07460 12675 /3504 10180 20120 39816 40198 51001 60006 81102 90900=
07460,1997-07-21 12:00:00,22,1018.2,-1.1,43,9,500,11.112,,,20,,,,,,,,,,,wg-a,,,,AAXX 21124 07460 12600 40206 10220 20090 39805 40182 56011 60006 82101 91200=
07460,1997-07-21 15:00:00,24,1017,-1,38,9,35000,11.112,,,20,,,,,,,,,,,wg-a,,,,AAXX 21154 07460 12681 30206 10240 20090 39795 40170 56010 60006 81101 91500=
07460,1997-07-21 18:00:00,23,1016.3,-0.8,44,10,35000,14.816,,,20,12.3,24.4,,,,,,,,,wg-a,,,,AAXX 21184 07460 12/81 60208 10230 20100 39787 40163 56008 60006 81042 91800 333 10244 20123=
07460,1997-07-21 21:00:00,19,1017.9,1.1,60,11,500,0,,,0,,,,,,,,,,,wg-a,,,,AAXX 21214 07460 12/00 50000 10190 20110 39798 40179 53011 60006 80002 92100=
07460,1997-07-22 00:00:00,13,1018.5,-0.2,82,10,20000,3.704,,,110,,,,,,,,,,,wg-a,,,,AAXX 22004 07460 12/70 41102 10130 20100 39796 40185 58002 60006 80001 90000=
07460,1997-07-22 03:00:00,11,1018.3,-0.5,87,9,20000,0,,,0,,,,,,,,,,,wg-a,,,,AAXX 22034 07460 12770 60000 10110 20090 39792 40183 56005 60006 815/2 90300=
07460,1997-07-22 06:00:00,13,1018.6,0.6,88,11,500,3.704,,,20,10.1,22.5,,,,,,,,,wg-a,,,,AAXX 22064 07460 02/00 70202 10130 20110 39797 40186 51006 60006 80001 90600 333 10225 20101 60004=
07460,1997-07-22 09:00:00,21,1017.1,-0.5,53,11,500,11.112,,,80,,,,,,,,,,,wg-a,,,,AAXX 22094 07460 12/00 60806 10210 20110 39793 40171 58005 60006 80002 90900=
07460,1997-07-22 12:00:00,25,1015.7,-0.8,44,12,500,7.408,,,50,,,,,,,,,,,wg-a,,,,AAXX 22124 07460 12700 /0504 10250 20120 39785 40157 56008 60006 81102 91200=
07460,1997-07-22 15:00:00,28,1014.3,-1.1,37,12,500,7.408,,,50,,,,,,,,,,,wg-a,,,,AAXX 22154 07460 12700 30504 10280 20120 39775 40143 56011 60006 81232 91500=
07460,1997-07-22 18:00:00,26,1014.2,-0.1,45,13,500,11.112,,,20,13.1,28.6,,,,,,,,,wg-a,,,,AAXX 22184 07460 12700 /0206 10260 20130 39772 40142 55001 60006 82932 91800 333 10286 20131=
07460,1997-07-22 21:00:00,23,1016,1.2,53,13,20000,7.408,,,300,,,,,,,,,,,wg-a,,,,AAXX 22214 07460 12770 73004 10230 20130 39785 40160 51012 60006 8383/ 92100=
07460,1997-07-23 00:00:00,20,1017.2,0.8,83,17,15000,3.704,,,290,,,,0,,,,,,21,wg-a,,,,AAXX 23004 07460 02765 72902 10200 20170 39793 40172 52008 60016 72162 8487/ 90000 333 60007=
07460,1997-07-23 03:00:00,18,1016.7,-0.5,88,16,20000,3.704,,,10,,,,,,,,,,,wg-a,,,,AAXX 23034 07460 12770 70102 10180 20160 39786 40167 57005 60006 875// 90300=
07460,1997-07-23 06:00:00,19,1016.9,0.3,88,17,25000,3.704,,,40,,,,,,,,,,,wg-a,,,,AAXX 23064 07460 02675 70402 10190 20170 39789 40169 52003 60006 81281 90600 333 60004=
07460,1997-07-23 09:00:00,19,1017.8,0.8,64,12,25000,7.408,,,140,,,,,,,,,,,wg-a,,,,AAXX 23094 07460 12575 71404 10190 20120 39797 40178 51008 60006 82881 90900=
07460,1997-07-23 12:00:00,25,1016.9,0,50,14,500,11.112,,,230,,,,,,,,,,,wg-a,,,,AAXX 23124 07460 12500 72306 10250 20140 39797 40169 50000 60006 81281 91200=
07460,1997-07-23 18:00:00,27,1014.9,-0.5,45,14,500,0,,,0,17.9,28.5,,,,,,,,,wg-a,,,,AAXX 23184 07460 12700 /0000 10270 20140 39780 40149 55005 60006 83201 91800 333 10285 20179=
07460,1997-07-24 00:00:00,19,1016.6,-0.4,83,16,20000,0,,,0,,,,,,,,,,,wg-a,,,,AAXX 24004 07460 12/70 50000 10190 20160 39787 40166 58004 60006 80001 90000=
07460,1997-07-24 03:00:00,17,1015.7,-1.2,88,15,20000,0,,,0,,,,,,,,,,,wg-a,,,,AAXX 24034 07460 12/70 50000 10170 20150 39775 40157 58012 60006 82032 90300=
07460,1997-07-24 06:00:00,18,1016.3,0.8,88,16,15000,0,,,0,15.9,27.2,,,,,,,,,wg-a,,,,AAXX 24064 07460 02/65 20000 10180 20160 39783 40163 53008 60006 82081 90600 333 10272 20159 60004=
07460,1997-07-24 09:00:00,26,1015.5,0.1,58,17,20000,7.408,,,70,,,,,,,,,,,wg-a,,,,AAXX 24094 07460 12670 30704 10260 20170 39784 40155 50001 60006 82281 90900=
07460,1997-07-24 12:00:00,24,1014.9,-0.6,65,17,15000,14.816,,,30,,,,0,,,,,,25,wg-a,,,,AAXX 24124 07460 02665 70308 10240 20170 39777 40149 55006 60006 72586 8698/ 91200 333 60007=
07460,1997-07-24 15:00:00,28,1013.6,-0.9,42,14,20000,7.408,,,140,,,,0,,,,,,1,wg-a,,,,AAXX 24154 07460 12770 71404 10280 20140 39768 40136 58009 60007 70186 84242 91500=
07460,1997-07-24 18:00:00,26,1014.1,0.3,48,14,25000,18.52,,,300,18.7,29.1,,,,,,,,1,wg-a,,,,AAXX 24184 07460 12775 73010 10260 20140 39771 40141 53003 60006 70186 82202 91800 333 10291 20187=
07460,1997-07-25 00:00:00,19,1018.1,1.1,49,8,20000,11.112,,,220,,,,,,,,,,,wg-a,,,,AAXX 25004 07460 12670 /2206 10190 20080 39800 40181 50011 60006 82202 90000=
07460,1997-07-25 03:00:00,18,1017.8,-0.4,68,12,20000,11.112,,,260,,,,,,,,,,,wg-a,,,,AAXX 25034 07460 12570 72606 10180 20120 39796 40178 55004 60006 82202 90300=
07460,1997-07-25 06:00:00,18,1017.9,0.2,73,13,500,11.112,,,220,17.4,25.7,,,,,1,,,,wg-a,,,,AAXX 25064 07460 02500 72206 10180 20130 39798 40179 53002 60006 86802 90600 333 10257 20174 60014=
07460,1997-07-25 09:00:00,19,1018.4,0.5,73,14,25000,14.816,,,280,,,,,,,,,,,wg-a,,,,AAXX 25094 07460 12575 72808 10190 20140 39803 40184 51005 60006 86801 90900=
07460,1997-07-25 12:00:00,22,1017.9,-0.2,46,10,500,18.52,,,300,,,,,,,,,,,wg-a,,,,AAXX 25124 07460 12600 73010 10220 20100 39802 40179 58002 60006 84802 91200=
07460,1997-07-25 15:00:00,21,1017.7,-0.2,64,14,15000,11.112,,27.78,280,,,,,,,,,,,wg-a,,,,AAXX 25154 07460 12665 /2806 10210 20140 39800 40177 58002 60006 85802 91500 333 91015=
07460,1997-07-25 18:00:00,21,1017.3,-0.5,64,14,12000,14.816,,,240,18.4,23.1,,,,,,,,,wg-a,,,,AAXX 25184 07460 12562 /2408 10210 20140 39795 40173 56005 60006 85832 91800 333 10231 20184=
07460,1997-07-25 21:00:00,20,1018.2,0.8,73,15,12000,14.816,,,270,,,,,,,,,,,wg-a,,,,AAXX 25214 07460 12562 72708 10200 20150 39803 40182 53008 60006 86801 92100=
07460,1997-07-26 00:00:00,20,1018.7,0.4,73,15,15000,7.408,,,20,,,,,,,,,,,wg-a,,,,AAXX 26004 07460 12565 70204 10200 20150 39807 40187 51004 60006 878// 90000=
07460,1997-07-26 03:00:00,19,1019.1,0.3,78,15,15000,7.408,,,360,,,,,,,,,,,wg-a,,,,AAXX 26034 07460 12565 73604 10190 20150 39810 40191 53003 60006 878// 90300=
07460,1997-07-26 06:00:00,18,1020.2,1,83,15,12000,7.408,,,310,18.1,20.8,,,,,,,,15,wg-a,,,,AAXX 26064 07460 02562 73104 10180 20150 39820 40202 52010 60006 71522 878// 90600 333 10208 20181 60004=
07460,1997-07-26 09:00:00,21,1020.9,1,69,15,500,14.816,,,290,,,,,,,,,,,wg-a,,,,AAXX 26094 07460 12500 62908 10210 20150 39830 40209 51010 60006 86800 90900=
07460,1997-07-26 12:00:00,25,1020.1,-0.3,50,14,50000,14.816,,,350,,,,,,,,,,,wg-a,,,,AAXX 26124 07460 12684 63508 10250 20140 39827 40201 57003 60006 86800 91200=
07460,1997-07-26 18:00:00,23,1019.6,-0.3,61,15,50000,11.112,,,20,18.3,25.6,,,,,,,,,wg-a,,,,AAXX 26184 07460 12684 /0206 10230 20150 39821 40196 55003 60006 86800 91800 333 10256 20183=
07460,1997-07-26 21:00:00,22,1020.6,0.8,69,16,15000,7.408,,,20,,,,,,,,,,,wg-a,,,,AAXX 26214 07460 12565 70204 10220 20160 39829 40206 52008 60006 878// 92100=
07460,1997-07-27 00:00:00,20,1021,0,78,16,20000,3.704,,,130,,,,,,,,,,,wg-a,,,,AAXX 27004 07460 12670 71302 10200 20160 39830 40210 50000 60006 878// 90000=
07460,1997-07-27 03:00:00,19,1021,-0.1,83,16,20000,0,,,0,,,,,,,,,,,wg-a,,,,AAXX 27034 07460 12670 70000 10190 20160 39829 40210 55001 60006 878// 90300=
07460,1997-07-27 06:00:00,19,1021.3,0.3,83,16,40000,0,,,0,18,23.4,,,,,,,,,wg-a,,,,AAXX 27064 07460 02682 70000 10190 20160 39832 40213 53003 60006 86801 90600 333 10234 20180 60004=
07460,1997-07-27 09:00:00,22,1021,0.1,60,14,60000,3.704,,,20,,,,,,,,,,,wg-a,,,,AAXX 27094 07460 12586 70202 10220 20140 39833 40210 50001 60006 86801 90900=
07460,1997-07-27 12:00:00,25,1020.4,-0.2,50,14,60000,7.408,,,80,,,,,,,,,,,wg-a,,,,AAXX 27124 07460 12686 70804 10250 20140 39831 40204 55002 60006 83801 91200=
07460,1997-07-27 15:00:00,26,1019.9,-0.5,48,14,60000,11.112,,,40,,,,,,,,,,,wg-a,,,,AAXX 27154 07460 12786 70406 10260 20140 39827 40199 57005 60006 83801 91500=
07460,1997-07-27 18:00:00,25,1019.9,-0.1,50,14,60000,11.112,,,10,19.5,27,,,,,,,,,wg-a,,,,AAXX 27184 07460 12786 70106 10250 20140 39825 40199 55001 60006 845/2 91800 333 10270 20195=
07460,1997-07-28 00:00:00,19,1022.1,0.3,78,15,500,0,,,0,,,,,,,,,,,wg-a,,,,AAXX 28004 07460 12700 50000 10190 20150 39839 40221 51003 60006 815/2 90000=
07460,1997-07-28 03:00:00,17,1021.6,-0.7,88,15,500,3.704,,,130,,,,,,,,,,,wg-a,,,,AAXX 28034 07460 12500 71302 10170 20150 39832 40216 57007 60006 85502 90300=
07460,1997-07-28 06:00:00,18,1022,0.5,83,15,14000,3.704,,,320,16.2,24.6,,,,,,,,,wg-a,,,,AAXX 28064 07460 02564 /3202 10180 20150 39837 40220 53005 60006 81501 90600 333 10246 20162 60004=
07460,1997-07-28 09:00:00,23,1021.1,-0.2,69,17,15000,3.704,,,40,,,,,,,,,,,wg-a,,,,AAXX 28094 07460 12665 /0402 10230 20170 39835 40211 58002 60006 81101 90900=
07460,1997-07-28 12:00:00,26,1019.9,-0.9,48,14,40000,7.408,,,70,,,,,,,,,,,wg-a,,,,AAXX 28124 07460 12782 30704 10260 20140 39826 40199 57009 60006 83101 91200=
07460,1997-07-28 15:00:00,29,1018,-1.4,43,15,40000,11.112,,,10,,,,,,,,,,,wg-a,,,,AAXX 28154 07460 12782 20106 10290 20150 39812 40180 58014 60006 82101 91500=
07460,1997-07-28 18:00:00,27,1017.8,-0.5,48,15,40000,11.112,,,40,17.7,28.9,,,,,,,,,wg-a,,,,AAXX 28184 07460 12782 /0406 10270 20150 39807 40178 56005 60006 81101 91800 333 10289 20177=
07460,1997-07-28 21:00:00,23,1019.4,1.1,61,15,50000,3.704,,,320,,,,,,,,,,,wg-a,,,,AAXX 28214 07460 12/84 13202 10230 20150 39818 40194 53011 60006 80001 92100=
07460,1997-07-29 00:00:00,18,1020.2,0.2,77,14,40000,0,,,0,,,,,,,,,,,wg-a,,,,AAXX 29004 07460 12/82 10000 10180 20140 39820 40202 50002 60006 80001 90000=
07460,1997-07-29 03:00:00,16,1019.6,-0.7,88,14,500,0,,,0,,,,,,,,,,,wg-a,,,,AAXX 29034 07460 12/00 40000 10160 20140 39812 40196 56007 60006 80001 90300=
07460,1997-07-29 06:00:00,17,1020.4,1,88,15,500,3.704,,,360,15.9,26.6,,,,,,,,,wg-a,,,,AAXX 29064 07460 02700 53602 10170 20150 39821 40204 53010 60006 83201 90600 333 10266 20159 60004=
07460,1997-07-29 09:00:00,25,1019.4,-0.1,57,16,35000,3.704,,,100,,,,,,,,,,,wg-a,,,,AAXX 29094 07460 12781 /1002 10250 20160 39821 40194 57001 60006 81201 90900=
07460,1997-07-29 12:00:00,29,1018.2,-0.7,40,14,40000,7.408,,,60,,,,,,,,,,,wg-a,,,,AAXX 29124 07460 12782 50604 10290 20140 39814 40182 58007 60006 82201 91200=
07460,1997-07-29 15:00:00,29,1017,-1.1,37,13,40000,7.408,,,10,,,,,,,,,,,wg-a,,,,AAXX 29154 07460 12782 30104 10290 20130 39803 40170 57011 60006 82201 91500=
07460,1997-07-29 18:00:00,29,1016.8,-0.3,37,13,40000,11.112,,,40,17.5,30.5,,,,,,,,,wg-a,,,,AAXX 29184 07460 12782 20406 10290 20130 39800 40168 55003 60006 81201 91800 333 10305 20175=
07460,1997-07-29 21:00:00,23,1018.7,1.2,57,14,20000,3.704,,,120,,,,,,,,,,,wg-a,,,,AAXX 29214 07460 12770 21202 10230 20140 39812 40187 52012 60006 81501 92100=
07460,1997-07-30 00:00:00,17,1019.5,0,77,13,20000,3.704,,,260,,,,,,,,,,,wg-a,,,,AAXX 30004 07460 12/70 22602 10170 20130 39812 40195 50000 60006 80001 90000=
07460,1997-07-30 03:00:00,16,1019.4,-0.3,82,13,20000,3.704,,,330,,,,,,,,,,,wg-a,,,,AAXX 30034 07460 12/70 13302 10160 20130 39809 40194 56003 60006 80001 90300=
07460,1997-07-30 06:00:00,19,1019.4,0.4,73,14,50000,7.408,,,160,15.7,28.5,,,,,,,,,wg-a,,,,AAXX 30064 07460 02/84 21604 10190 20140 39813 40194 52004 60006 80001 90600 333 10285 20157 60004=
07460,1997-07-30 09:00:00,26,1018.4,-0.1,51,15,50000,3.704,,,60,,,,,,,,,,,wg-a,,,,AAXX 30094 07460 12684 30602 10260 20150 39812 40184 58001 60006 81101 90900=
07460,1997-07-30 12:00:00,30,1017.1,-0.8,35,13,50000,7.408,,,30,,,,,,,,,,,wg-a,,,,AAXX 30124 07460 12784 /0304 10300 20130 39804 40171 58008 60006 81101 91200=
07460,1997-07-30 15:00:00,31,1015.9,-1,33,13,50000,14.816,,,60,,,,,,,,,,,wg-a,,,,AAXX 30154 07460 12784 60608 10310 20130 39794 40159 58010 60006 82101 91500=
07460,1997-07-30 18:00:00,29,1015.9,-0.2,37,13,50000,7.408,,,40,18.5,31.4,,,,,,,,,wg-a,,,,AAXX 30184 07460 12784 50404 10290 20130 39792 40159 55002 60006 82101 91800 333 10314 20185=
07460,1997-07-30 21:00:00,24,1018.8,2.1,47,12,20000,11.112,,,330,,,,,,,,,,,wg-a,,,,AAXX 30214 07460 12770 /3306 10240 20120 39813 40188 52021 60006 82101 92100=
07460,1997-07-31 00:00:00,21,1019.4,0.2,53,11,20000,7.408,,,310,,,,,,,,,,,wg-a,,,,AAXX 31004 07460 12770 43104 10210 20110 39815 40194 50002 60006 82501 90000=
07460,1997-07-31 03:00:00,18,1019.8,-0,73,13,15000,7.408,,,30,,,,,,,,,,,wg-a,,,,AAXX 31034 07460 12565 40304 10180 20130 39815 40198 55000 60006 82501 90300=
07460,1997-07-31 06:00:00,18,1020.3,0.6,83,15,500,0,,,0,16.7,29,,,,,,,,,wg-a,,,,AAXX 31064 07460 02500 70000 10180 20150 39821 40203 51006 60006 85802 90600 333 10290 20167 60004=
07460,1997-07-31 09:00:00,21,1020,0,69,15,500,7.408,,,50,,,,,,,,,,,wg-a,,,,AAXX 31094 07460 12500 70504 10210 20150 39821 40200 50000 60006 85802 90900=
07460,1997-07-31 12:00:00,25,1018.2,-1.3,50,14,40000,7.408,,,70,,,,,,,,,,,wg-a,,,,AAXX 31124 07460 12682 /0704 10250 20140 39809 40182 58013 60006 82802 91200=
07460,1997-07-31 15:00:00,26,1017.4,-0.8,34,9,40000,14.816,,,330,,,,,,,,,,,wg-a,,,,AAXX 31154 07460 12782 73308 10260 20090 39802 40174 56008 60006 81102 91500=
07460,1997-07-31 18:00:00,23,1017.5,-0.2,47,11,40000,11.112,,,340,18.3,26.9,,,,,,,,,wg-a,,,,AAXX 31184 07460 12782 73406 10230 20110 39800 40175 55002 60006 81132 91800 333 10269 20183=
07460,1997-08-01 00:00:00,17,1018.9,-0.4,63,10,25000,3.704,,,300,,,,,,,,,,,wg-a,,,,AAXX 01004 07460 12/75 43002 10170 20100 39805 40189 58004 60006 80002 90000=
07460,1997-08-01 03:00:00,14,1017.8,-1.4,77,10,20000,3.704,,,100,,,,,,,,,,,wg-a,,,,AAXX 01034 07460 12/70 21002 10140 20100 39791 40178 56014 60006 80001 90300=
07460,1997-08-01 06:00:00,14,1017.9,0.1,77,10,40000,0,,,0,12.2,23.4,,,,,,,,,wg-a,,,,AAXX 01064 07460 02/82 10000 10140 20100 39792 40179 53001 60006 81030 90600 333 10234 20122 60004=
07460,1997-08-01 09:00:00,21,1016.9,-0.1,49,10,40000,7.408,,,60,,,,,,,,,,,wg-a,,,,AAXX 01094 07460 12682 /0604 10210 20100 39791 40169 58001 60006 81100 90900=
07460,1997-08-01 12:00:00,26,1014.8,-1.4,39,11,40000,14.816,,,330,,,,,,,,,,,wg-a,,,,AAXX 01124 07460 12682 /3308 10260 20110 39777 40148 56014 60006 81100 91200=
07460,1997-08-01 18:00:00,24,1015.2,0.6,44,11,40000,18.52,,,10,14.4,27,,,,,,,,,wg-a,,,,AAXX 01184 07460 12/82 60110 10240 20110 39779 40152 53006 60006 86030 91800 333 10270 20144=
07460,1997-08-01 21:00:00,21,1017.2,1.5,53,11,20000,7.408,,,350,,,,,,,,,,,wg-a,,,,AAXX 01214 07460 12/70 13504 10210 20110 39794 40172 51015 60006 81030 92100=
07460,1997-08-02 00:00:00,20,1017.3,0,56,11,20000,3.704,,,60,,,,,,,,,,,wg-a,,,,AAXX 02004 07460 12670 70602 10200 20110 39794 40173 50000 60006 875// 90000=
07460,1997-08-02 03:00:00,20,1017,-0.4,56,11,20000,3.704,,,140,,,,,,,,,,,wg-a,,,,AAXX 02034 07460 12670 71402 10200 20110 39790 40170 58004 60006 875// 90300=
07460,1997-08-02 06:00:00,20,1017.7,0.8,60,12,40000,0,,,0,18.7,24.4,,,,,,,,,wg-a,,,,AAXX 02064 07460 02682 70000 10200 20120 39797 40177 53008 60006 875// 90600 333 10244 20187 60004=
07460,1997-08-02 09:00:00,23,1017.5,0.2,57,14,35000,3.704,,,50,,,,,,,,,,,wg-a,,,,AAXX 02094 07460 12681 /0502 10230 20140 39800 40175 50002 60006 86501 90900=
07460,1997-08-02 12:00:00,27,1015.6,-1.3,48,15,40000,3.704,,,120,,,,,,,,,,,wg-a,,,,AAXX 02124 07460 12782 51202 10270 20150 39787 40156 58013 60006 82101 91200=
07460,1997-08-02 15:00:00,29,1014.3,-1,45,16,50000,11.112,,,340,,,,,,,,,,,wg-a,,,,AAXX 02154 07460 12784 43406 10290 20160 39777 40143 57010 60006 83101 91500=
07460,1997-08-02 18:00:00,27,1014.3,-0.2,51,16,40000,11.112,,,40,19.6,29.7,,,,,,,,,wg-a,,,,AAXX 02184 07460 12682 30406 10270 20160 39775 40143 55002 60006 83800 91800 333 10297 20196=
07460,1997-08-02 21:00:00,23,1015.7,0.8,73,18,20000,11.112,,,330,,,,,,,,,,,wg-a,,,,AAXX 02214 07460 12/70 33306 10230 20180 39783 40157 53008 60006 82031 92100=
07460,1997-08-03 00:00:00,21,1016,0,78,17,20000,0,,,0,,,,,,,,,,,wg-a,,,,AAXX 03004 07460 12/70 20000 10210 20170 39783 40160 50000 60006 82030 90000=
07460,1997-08-03 03:00:00,17,1016,-0.4,94,16,20000,3.704,,,80,,,,,,,,,,,wg-a,,,,AAXX 03034 07460 12/70 10802 10170 20160 39779 40160 57004 60006 81030 90300=
07460,1997-08-03 06:00:00,19,1016.1,0.2,83,16,40000,0,,,0,16.5,27.3,,,,,,,,,wg-a,,,,AAXX 03064 07460 02782 30000 10190 20160 39781 40161 51002 60006 81131 90600 333 10273 20165 60004=
07460,1997-08-03 09:00:00,25,1014.9,-0.3,65,18,40000,11.112,,,170,,,,,,,,,,,wg-a,,,,AAXX 03094 07460 12782 31706 10250 20180 39778 40149 58003 60006 81131 90900=
07460,1997-08-03 12:00:00,31,1012.9,-1.2,43,17,40000,7.408,,,100,,,,,,,,,,,wg-a,,,,AAXX 03124 07460 12782 21004 10310 20170 39766 40129 58012 60006 82101 91200=
07460,1997-08-03 15:00:00,34,1011.6,-1,30,14,40000,7.408,,,30,,,,,,,,,,,wg-a,,,,AAXX 03154 07460 12782 20304 10340 20140 39756 40116 56010 60006 82101 91500=
07460,1997-08-03 18:00:00,32,1011.6,-0.1,34,14,40000,11.112,,,290,18.8,33.8,,,,,,,,,wg-a,,,,AAXX 03184 07460 12782 22906 10320 20140 39754 40116 55001 60006 81141 91800 333 10338 20188=
07460,1997-08-03 21:00:00,25,1013.3,0.8,50,14,20000,3.704,,,180,,,,,,,,,,,wg-a,,,,AAXX 03214 07460 12/70 11802 10250 20140 39762 40133 51008 60006 81030 92100=
07460,1997-08-04 00:00:00,22,1014.2,0.5,60,14,20000,7.408,,,200,,,,,,,,,,,wg-a,,,,AAXX 04004 07460 12/70 12004 10220 20140 39767 40142 51005 60006 81030 90000=
07460,1997-08-04 03:00:00,21,1014.3,0.1,64,14,20000,11.112,,,180,,,,,,,,,,,wg-a,,,,AAXX 04034 07460 12/70 21806 10210 20140 39767 40143 53001 60006 82030 90300=
07460,1997-08-04 06:00:00,22,1014.6,0.4,65,15,40000,7.408,,,150,19,31.7,,,,,,,,,wg-a,,,,AAXX 04064 07460 02/82 11504 10220 20150 39771 40146 51004 60006 81030 90600 333 10317 20190 60004=
07460,1997-08-04 12:00:00,33,1012.8,-0.8,28,12,40000,7.408,,,90,,,,,,,,,,,wg-a,,,,AAXX 04124 07460 12/82 20904 10330 20120 39766 40128 57008 60006 81032 91200=
07460,1997-08-04 15:00:00,34,1011.3,-1.2,30,14,40000,7.408,,,40,,,,,,,,,,,wg-a,,,,AAXX 04154 07460 12782 40404 10340 20140 39753 40113 56012 60006 81982 91500=
07460,1997-08-04 18:00:00,23,1014.8,2.1,73,18,20000,7.408,,,50,21.4,34.6,,0,,,,,,17,wg-a,,,,AAXX 04184 07460 02770 70504 10230 20180 39775 40148 51021 60006 71798 84982 91800 333 10346 20214 60007=
07460,1997-08-04 21:00:00,21,1018.1,2.9,88,19,20000,14.816,,,170,,,,0,,,,,,80,wg-a,,,,AAXX 04214 07460 12770 81708 10210 20190 39804 40181 53029 60007 78098 8598/ 92100=
07460,1997-08-05 00:00:00,19,1015.7,-2.5,94,18,15000,14.816,,,190,,,,2,,,,,,29,wg-a,,,,AAXX 05004 07460 02565 /1908 10190 20180 39779 40157 56025 60026 72998 81231 90000 333 60027=
07460,1997-08-05 03:00:00,18,1014.8,-1,94,17,15000,14.816,,,170,,,,,,,,,,,wg-a,,,,AAXX 05034 07460 12565 31708 10180 20170 39769 40148 56010 60006 81131 90300=
07460,1997-08-05 06:00:00,19,1015.1,0.3,88,17,15000,3.704,,,280,17.7,23.1,,,,,3,,,,wg-a,,,,AAXX 05064 07460 02/65 62802 10190 20170 39772 40151 50003 60006 81031 90600 333 10231 20177 60034=
07460,1997-08-05 09:00:00,23,1014.3,-0.2,73,18,15000,3.704,,,170,,,,,,,,,,,wg-a,,,,AAXX 05094 07460 12/65 71702 10230 20180 39770 40143 58002 60006 82032 90900=
07460,1997-08-05 12:00:00,26,1013.6,-0.3,61,18,15000,3.704,,,110,,,,,,,,,,3,wg-a,,,,AAXX 05124 07460 02665 71102 10260 20180 39767 40136 56003 61000 70386 8483/ 91200 333 6100=
07460,1997-08-05 15:00:00,27,1012.1,-1.3,62,19,15000,14.816,,,50,,,,,,,,,,,wg-a,,,,AAXX 05154 07460 12665 70508 10270 20190 39754 40121 56013 60006 8423/ 91500=
07460,1997-08-05 18:00:00,19,1013.8,0.6,88,17,500,25.928,,,240,18.5,28.9,,,,,,,,80,wg-a,,,,AAXX 05184 07460 02500 82414 10190 20170 39760 40138 53006 61000 78098 8593/ 91800 333 10289 20185 6001=
07460,1997-08-05 21:00:00,18,1014,0.1,100,18,15000,7.408,,,80,,,,4,,,,,,1,wg-a,,,,AAXX 05214 07460 12565 70804 10180 20180 39761 40140 50001 60047 70198 8283/ 92100=
07460,1997-08-06 00:00:00,18,1014.3,0.2,94,17,10000,0,,,0,,,,1,,,,,,60,wg-a,,,,AAXX 06004 07460 02560 70000 10180 20170 39763 40143 50002 60056 76098 8583/ 90000 333 60017=
07460,1997-08-06 03:00:00,18,1013.5,-0.8,94,17,10000,3.704,,,110,,,,,,,,,,,wg-a,,,,AAXX 06034 07460 02560 71102 10180 20170 39755 40135 56008 61000 878// 90300 333 ////=
07460,1997-08-06 06:00:00,18,1013.2,-0.2,100,18,6000,3.704,,,30,17.1,19.2,,,,,6,,,3,wg-a,,,,AAXX 06064 07460 02156 /0302 10180 20180 39753 40132 55002 60006 70361 83880 90600 333 10192 20171 60064=
07460,1997-08-06 09:00:00,22,1013.2,0.5,78,18,8000,7.408,,,90,,,,,,,,,,,wg-a,,,,AAXX 06094 07460 12458 40904 10220 20180 39758 40132 50005 60006 84200 90900=
07460,1997-08-06 12:00:00,26,1012.2,-0.4,54,16,500,7.408,,,80,,,,,,,,,,,wg-a,,,,AAXX 06124 07460 12500 50804 10260 20160 39753 40122 58004 60006 85200 91200=
07460,1997-08-06 15:00:00,27,1010.8,-1.3,51,16,35000,11.112,,,30,,,,,,,,,,,wg-a,,,,AAXX 06154 07460 12681 40306 10270 20160 39740 40108 56013 60006 83230 91500=
07460,1997-08-06 18:00:00,25,1010.7,-0.3,54,15,500,11.112,,,40,18.3,27.5,,,,,,,,,wg-a,,,,AAXX 06184 07460 12600 /0406 10250 20150 39737 40107 55003 60006 83301 91800 333 10275 20183=
07460,1997-08-06 21:00:00,23,1012.5,1.4,69,17,20000,0,,,0,,,,,,,,,,29,wg-a,,,,AAXX 06214 07460 12670 70000 10230 20170 39752 40125 53014 60006 72992 83232 92100=
07460,1997-08-07 00:00:00,21,1012.4,-0.3,83,18,20000,3.704,,,320,,,,0,,,,,,21,wg-a,,,,AAXX 07004 07460 02570 73202 10210 20180 39749 40124 56003 60016 72196 83832 90000 333 60007=
07460,1997-08-07 03:00:00,19,1012.1,-0.7,88,17,15000,0,,,0,,,,,,,,,,,wg-a,,,,AAXX 07034 07460 12/65 40000 10190 20170 39743 40121 57007 60006 83031 90300=
07460,1997-08-07 06:00:00,19,1012.7,0.6,94,18,10000,0,,,0,17.8,25.4,,,,,,,,,wg-a,,,,AAXX 07064 07460 02260 70000 10190 20180 39749 40127 53006 60006 8253/ 90600 333 10254 20178 60004=
07460,1997-08-07 09:00:00,23,1012.1,-0,73,18,14000,11.112,,,190,,,,,,,,,,,wg-a,,,,AAXX 07094 07460 12664 71906 10230 20180 39748 40121 55000 60006 82831 90900=
07460,1997-08-07 12:00:00,26,1011,-0.7,58,17,15000,7.408,,,360,,,,,,,,,,29,wg-a,,,,AAXX 07124 07460 02665 23604 10260 20170 39741 40110 58007 61000 72998 82202 91200 333 6100=
07460,1997-08-07 15:00:00,25,1010.7,-0.3,65,18,10000,7.408,,,40,,,,0,,,,,,80,wg-a,,,,AAXX 07154 07460 12660 40404 10250 20180 39738 40107 56003 60007 78098 83902 91500=
07460,1997-08-07 18:00:00,25,1011.5,0.7,65,18,25000,11.112,,,160,18.7,27.5,,0,,,,,,1,wg-a,,,,AAXX 07184 07460 02675 31606 10250 20180 39745 40115 53007 60006 70198 82903 91800 333 10275 20187 60007=
07460,1997-08-07 21:00:00,20,1013.6,1.4,83,17,25000,3.704,,,270,,,,,,,,,,,wg-a,,,,AAXX 07214 07460 12675 22702 10200 20170 39759 40136 51014 60006 81263 92100=
07460,1997-08-08 00:00:00,19,1014.4,0.7,88,17,10000,3.704,,,310,,,,,,,,,,,wg-a,,,,AAXX 08004 07460 12/60 /3102 10190 20170 39766 40144 51007 60006 90000=
07460,1997-08-08 03:00:00,17,1015.5,0.7,94,16,15000,3.704,,,140,,,,,,,,,,,wg-a,,,,AAXX 08034 07460 12/65 01402 10170 20160 39773 40155 52007 60006 80000 90300=
07460,1997-08-08 06:00:00,18,1016.4,1,88,16,25000,7.408,,,170,15.7,25.4,,,,,,,,,wg-a,,,,AAXX 08064 07460 02/75 11704 10180 20160 39783 40164 51010 60006 81030 90600 333 10254 20157 60004=
07460,1997-08-08 09:00:00,25,1015.9,0.3,65,18,500,3.704,,,150,,,,,,,,,,,wg-a,,,,AAXX 08094 07460 12600 /1502 10250 20180 39787 40159 52003 60006 81130 90900=
07460,1997-08-08 12:00:00,30,1014.9,-0.4,43,16,40000,11.112,,,70,,,,,,,,,,,wg-a,,,,AAXX 08124 07460 12682 /0706 10300 20160 39783 40149 58004 60006 81101 91200=
07460,1997-08-08 15:00:00,31,1013.8,-0.9,38,15,40000,7.408,,,100,,,,,,,,,,,wg-a,,,,AAXX 08154 07460 12782 /1004 10310 20150 39774 40138 57009 60006 81202 91500=
07460,1997-08-08 18:00:00,29,1014.5,0.4,48,17,500,14.816,,,40,17.9,31.2,,,,,,,,,wg-a,,,,AAXX 08184 07460 12700 20408 10290 20170 39778 40145 53004 60006 81202 91800 333 10312 20179=
07460,1997-08-09 00:00:00,22,1017.4,0.7,69,16,20000,0,,,0,,,,,,,,,,,wg-a,,,,AAXX 09004 07460 12/70 00000 10220 20160 39798 40174 51007 60006 80000 90000=
07460,1997-08-09 06:00:00,18,1018.3,0.5,94,17,500,3.704,,,70,16.9,28.6,,,,,,,,,wg-a,,,,AAXX 09064 07460 02/00 20702 10180 20170 39802 40183 51005 60006 80001 90600 333 10286 20169 60004=
07460,1997-08-09 09:00:00,26,1017.6,0.3,61,18,500,3.704,,,50,,,,,,,,,,,wg-a,,,,AAXX 09094 07460 12/00 20502 10260 20180 39805 40176 50003 60006 80001 90900=
07460,1997-08-09 12:00:00,30,1015.7,-1.4,43,16,500,7.408,,,80,,,,,,,,,,,wg-a,,,,AAXX 09124 07460 12700 20804 10300 20160 39791 40157 58014 60006 81101 91200=
07460,1997-08-09 15:00:00,32,1014.4,-1.1,41,17,500,11.112,,,30,,,,,,,,,,,wg-a,,,,AAXX 09154 07460 12600 20306 10320 20170 39781 40144 56011 60006 81101 91500=
07460,1997-08-09 18:00:00,29,1014.4,-0.3,43,15,500,11.112,,,20,18.5,31.9,,,,,,,,,wg-a,,,,AAXX 09184 07460 12/00 10206 10290 20150 39777 40144 55003 60006 81031 91800 333 10319 20185=
07460,1997-08-09 21:00:00,25,1015.5,0.7,50,14,25000,0,,,0,,,,,,,,,,,wg-a,,,,AAXX 09214 07460 12/75 20000 10250 20140 39784 40155 53007 60006 80001 92100=
07460,1997-08-10 00:00:00,21,1016,-0.1,69,15,20000,0,,,0,,,,,,,,,,,wg-a,,,,AAXX 10004 07460 12/70 40000 10210 20150 39783 40160 55001 60006 84031 90000=
07460,1997-08-10 03:00:00,18,1015.3,-1,83,15,15000,3.704,,,30,,,,,,,,,,,wg-a,,,,AAXX 10034 07460 12/65 10302 10180 20150 39773 40153 58010 60006 80001 90300=
07460,1997-08-10 06:00:00,19,1015.6,0.4,83,16,500,11.112,,,200,17.3,28.8,,,,,,,,,wg-a,,,,AAXX 10064 07460 02/00 12006 10190 20160 39777 40156 53004 60006 80001 90600 333 10288 20173 60004=
07460,1997-08-10 09:00:00,27,1014.1,-0.5,48,15,500,3.704,,,120,,,,,,,,,,,wg-a,,,,AAXX 10094 07460 12/00 11202 10270 20150 39772 40141 58005 60006 80001 90900=
07460,1997-08-10 12:00:00,32,1011.6,-1.7,41,17,40000,7.408,,,40,,,,,,,,,,,wg-a,,,,AAXX 10124 07460 12782 /0404 10320 20170 39755 40116 56017 60006 91200=
07460,1997-08-10 15:00:00,35,1009.3,-2,32,16,40000,14.816,,,110,,,,,,,,,,,wg-a,,,,AAXX 10154 07460 12782 /1108 10350 20160 39735 40093 56020 60006 81301 91500=
07460,1997-08-10 18:00:00,31,1009.2,-0.6,40,16,500,22.224,,,190,19.4,35.2,,,,,,,,,wg-a,,,,AAXX 10184 07460 12600 61912 10310 20160 39729 40092 56006 60006 84902 91800 333 10352 20194=
07460,1997-08-10 21:00:00,26,1010.2,0.5,51,15,20000,11.112,,,130,,,,,,,,,,13,wg-a,,,,AAXX 10214 07460 12670 71306 10260 20150 39734 40102 53005 60006 71322 85902 92100=
07460,1997-08-11 00:00:00,24,1013.4,2.7,54,14,20000,11.112,,,340,,,,,,,,,,,wg-a,,,,AAXX 11004 07460 12670 /3406 10240 20140 39761 40134 51027 60006 83802 90000=
07460,1997-08-11 03:00:00,20,1013.3,-0.6,73,15,20000,3.704,,,290,,,,,,,,,,,wg-a,,,,AAXX 11034 07460 12770 /2902 10200 20150 39756 40133 58006 60006 82532 90300=
07460,1997-08-11 06:00:00,20,1012.8,-0.4,78,16,25000,7.408,,,70,18.9,30.3,,,,,,,,,wg-a,,,,AAXX 11064 07460 02/75 70704 10200 20160 39751 40128 58004 60006 85032 90600 333 10303 20189 60004=
07460,1997-08-11 09:00:00,23,1012.8,0.4,65,16,25000,3.704,,,360,,,,,,,,,,,wg-a,,,,AAXX 11094 07460 12/75 73602 10230 20160 39755 40128 52004 60006 85032 90900=
07460,1997-08-11 12:00:00,19,1015.4,2.1,94,18,12000,3.704,,,150,,,,6,,,,,,29,wg-a,,,,AAXX 11124 07460 02462 71502 10190 20180 39776 40154 51021 60066 72998 84382 91200 333 60067=
07460,1997-08-11 15:00:00,26,1014.4,-0.2,58,17,40000,7.408,,,220,,,,,,,,,,,wg-a,,,,AAXX 11154 07460 12582 /2204 10260 20170 39774 40144 55002 60006 81182 91500=
07460,1997-08-11 18:00:00,26,1015.9,1.3,61,18,50000,7.408,,,70,18.4,26.8,,,,,,,,,wg-a,,,,AAXX 11184 07460 32684 50704 10260 20180 39788 40159 53013 81802 91800 333 10268 20184=
07460,1997-08-11 21:00:00,21,1018.5,2,83,18,20000,3.704,,,290,,,,,,,,,,,wg-a,,,,AAXX 11214 07460 12670 32902 10210 20180 39808 40185 51020 60006 81802 92100=
07460,1997-08-12 00:00:00,19,1019.7,0.9,94,18,20000,7.408,,,40,,,,,,,,,,,wg-a,,,,AAXX 12004 07460 12670 /0404 10190 20180 39817 40197 51009 60006 81530 90000=
07460,1997-08-12 03:00:00,18,1020.4,0.4,88,16,20000,3.704,,,100,,,,,,,,,,,wg-a,,,,AAXX 12034 07460 12470 /1002 10180 20160 39822 40204 50004 60006 81501 90300=
07460,1997-08-12 06:00:00,18,1021.6,1.2,94,17,40000,3.704,,,10,17.6,25.5,,,,,6,,,,wg-a,,,,AAXX 12064 07460 02682 /0102 10180 20170 39834 40216 53012 60006 81102 90600 333 10255 20176 60064=
07460,1997-08-12 09:00:00,25,1021,0.2,65,18,40000,3.704,,,170,,,,,,,,,,,wg-a,,,,AAXX 12094 07460 12682 /1702 10250 20180 39836 40210 51002 60006 81102 90900=
07460,1997-08-12 12:00:00,29,1019.7,-0.8,48,17,11000,3.704,,,360,,,,,,,,,,,wg-a,,,,AAXX 12124 07460 12/61 /3602 10290 20170 39828 40197 58008 60006 91200=
07460,1997-08-12 15:00:00,31,1017.9,-1.3,43,17,40000,14.816,,,70,,,,,,,,,,,wg-a,,,,AAXX 12154 07460 12782 20708 10310 20170 39814 40179 57013 60006 82200 91500=
07460,1997-08-12 18:00:00,29,1017.6,-0.5,52,18,40000,11.112,,,50,18.4,31.7,,,,,,,,,wg-a,,,,AAXX 12184 07460 12782 20506 10290 20180 39809 40176 58005 60006 82200 91800 333 10317 20184=
07460,1997-08-12 21:00:00,25,1019.4,1.2,65,18,20000,3.704,,,300,,,,,,,,,,,wg-a,,,,AAXX 12214 07460 12770 33002 10250 20180 39821 40194 53012 60006 83500 92100=
07460,1997-08-13 00:00:00,22,1020,0.2,78,18,20000,0,,,0,,,,,,,,,,,wg-a,,,,AAXX 13004 07460 12770 20000 10220 20180 39823 40200 50002 60006 82500 90000=
07460,1997-08-13 03:00:00,21,1020.3,0.2,78,17,20000,0,,,0,,,,,,,,,,,wg-a,,,,AAXX 13034 07460 12670 /0000 10210 20170 39825 40203 51002 60006 81500 90300=
07460,1997-08-13 06:00:00,21,1022,1.6,73,16,500,7.408,,,160,19.7,29.2,,,,,,,,,wg-a,,,,AAXX 13064 07460 02700 21604 10210 20160 39841 40220 51016 60006 81132 90600 333 10292 20197 60004=
07460,1997-08-13 09:00:00,27,1021.5,0.3,58,18,40000,7.408,,,60,,,,,,,,,,,wg-a,,,,AAXX 13094 07460 12782 /0604 10270 20180 39844 40215 51003 60006 81101 90900=
07460,1997-08-13 12:00:00,29,1020.6,-0.6,48,17,40000,7.408,,,60,,,,,,,,,,,wg-a,,,,AAXX 13124 07460 12782 30604 10290 20170 39838 40206 56006 60006 83200 91200=
07460,1997-08-13 18:00:00,29,1020.7,0.6,52,18,40000,14.816,,,360,21.1,31.3,,,,,,,,,wg-a,,,,AAXX 13184 07460 12782 23608 10290 20180 39839 40207 53006 60006 82300 91800 333 10313 20211=
07460,1997-08-13 21:00:00,24,1022.8,1.3,74,19,25000,7.408,,,320,,,,,,,,,,,wg-a,,,,AAXX 13214 07460 12775 /3204 10240 20190 39853 40228 51013 60006 81500 92100=
07460,1997-08-14 00:00:00,23,1023.3,0.3,78,19,15000,3.704,,,90,,,,,,,,,,,wg-a,,,,AAXX 14004 07460 12665 50902 10230 20190 39856 40233 52003 60006 83501 90000=
07460,1997-08-14 03:00:00,20,1023,-0.7,83,17,15000,0,,,0,,,,,,,,,,,wg-a,,,,AAXX 14034 07460 12665 /0000 10200 20170 39849 40230 58007 60006 81500 90300=
07460,1997-08-14 06:00:00,19,1023.4,0.4,94,18,25000,0,,,0,18,29.3,,,,,,,,,wg-a,,,,AAXX 14064 07460 02/75 00000 10190 20180 39853 40234 52004 60006 80000 90600 333 10293 20180 60004=
07460,1997-08-14 09:00:00,26,1022.5,-0.1,61,18,25000,3.704,,,40,,,,,,,,,,,wg-a,,,,AAXX 14094 07460 12675 /0402 10260 20180 39852 40225 58001 60006 81100 90900=
07460,1997-08-14 12:00:00,30,1020.1,-1.8,46,17,500,3.704,,,100,,,,,,,,,,,wg-a,,,,AAXX 14124 07460 12600 /1002 10300 20170 39834 40201 57018 60006 81200 91200=
07460,1997-08-14 15:00:00,32,1018.1,-1.7,34,14,40000,11.112,,,70,,,,,,,,,,,wg-a,,,,AAXX 14154 07460 12782 /0706 10320 20140 39817 40181 56017 60006 81100 91500=
07460,1997-08-14 18:00:00,29,1017.9,-0.5,48,17,40000,11.112,,,10,19.4,32.2,,,,,,,,,wg-a,,,,AAXX 14184 07460 12782 /0106 10290 20170 39812 40179 55005 60006 81100 91800 333 10322 20194=
07460,1997-08-14 21:00:00,25,1019.6,1.2,65,18,20000,7.408,,,330,,,,,,,,,,,wg-a,,,,AAXX 14214 07460 12/70 43304 10250 20180 39824 40196 53012 60006 83031 92100=
07460,1997-08-15 00:00:00,22,1020.1,0.1,78,18,20000,3.704,,,310,,,,,,,,,,,wg-a,,,,AAXX 15004 07460 12/70 13102 10220 20180 39825 40201 50001 60006 81030 90000=
07460,1997-08-15 03:00:00,20,1019.7,-0.7,83,17,20000,0,,,0,,,,,,,,,,,wg-a,,,,AAXX 15034 07460 12/70 10000 10200 20170 39818 40197 58007 60006 81030 90300=
07460,1997-08-15 06:00:00,19,1020.3,0.5,88,17,20000,3.704,,,350,17.7,29,,,,,,,,,wg-a,,,,AAXX 15064 07460 02/70 23502 10190 20170 39823 40203 53005 60006 81031 90600 333 10290 20177 60004=
07460,1997-08-15 12:00:00,29,1018.4,-0.8,48,17,25000,11.112,,,10,,,,,,,,,,,wg-a,,,,AAXX 15124 07460 12675 /0106 10290 20170 39817 40184 58008 60006 82202 91200=
07460,1997-08-15 15:00:00,27,1018,-0.8,54,17,20000,11.112,,,200,,,,,,,,,,29,wg-a,,,,AAXX 15154 07460 12670 /2006 10270 20170 39810 40180 58008 60006 72992 83982 91500=
07460,1997-08-15 18:00:00,24,1017.6,-0.7,74,19,20000,3.704,,,20,19.2,30.9,,,,,,,,25,wg-a,,,,AAXX 15184 07460 02670 70202 10240 20190 39803 40176 58007 61000 72598 81162 91800 333 10309 20192 6000=
07460,1997-08-15 21:00:00,21,1019.2,1.1,83,18,20000,7.408,,,260,,,,,,,,,,,wg-a,,,,AAXX 15214 07460 12/70 32604 10210 20180 39814 40192 51011 60006 81031 92100=
07460,1997-08-16 00:00:00,19,1018.7,-0.8,88,17,15000,3.704,,,250,,,,,,,,,,,wg-a,,,,AAXX 16004 07460 12/65 52502 10190 20170 39806 40187 56008 60006 82032 90000=
07460,1997-08-16 03:00:00,18,1018.3,-0.6,88,16,15000,3.704,,,100,,,,,,,,,,,wg-a,,,,AAXX 16034 07460 12/65 21002 10180 20160 39801 40183 57006 60006 80001 90300=
07460,1997-08-16 06:00:00,18,1018.5,0.4,88,16,15000,3.704,,,40,17,24,,,,,,,,,wg-a,,,,AAXX 16064 07460 02765 80402 10180 20160 39804 40185 53004 60006 82182 90600 333 10240 20170 60004=
07460,1997-08-16 09:00:00,21,1018.2,0.2,83,18,15000,3.704,,,80,,,,,,,,,,25,wg-a,,,,AAXX 16094 07460 02765 80802 10210 20180 39805 40182 50002 61000 72586 8327/ 90900 333 ////=
07460,1997-08-16 12:00:00,20,1019.2,0.8,78,16,6000,7.408,,,290,,,,1,,,,,,80,wg-a,,,,AAXX 16124 07460 02656 82904 10200 20160 39813 40192 53008 60016 78098 8693/ 91200 333 60017=
07460,1997-08-16 15:00:00,22,1018.3,-0.6,78,18,18000,7.408,,,260,,,,4,,,,,,21,wg-a,,,,AAXX 16154 07460 12668 52604 10220 20180 39807 40183 56006 60047 72198 82232 91500=
07460,1997-08-16 18:00:00,22,1017.7,-0.7,73,17,500,0,,,0,18.2,23.9,,,,,,,,1,wg-a,,,,AAXX 16184 07460 12700 50000 10220 20170 39801 40177 56007 60006 70198 83832 91800 333 10239 20182=
07460,1997-08-16 21:00:00,18,1019.3,1.1,88,16,20000,3.704,,,280,,,,,,,,,,,wg-a,,,,AAXX 16214 07460 12770 52802 10180 20160 39811 40193 53011 60006 81531 92100=
07460,1997-08-17 00:00:00,18,1018.8,-0.4,88,16,20000,7.408,,,130,,,,,,,,,,,wg-a,,,,AAXX 17004 07460 12770 71304 10180 20160 39807 40188 57004 60006 875// 90000=
07460,1997-08-17 03:00:00,17,1018.8,-0.2,88,15,20000,3.704,,,350,,,,,,,,,,,wg-a,,,,AAXX 17034 07460 12670 23502 10170 20150 39805 40188 56002 60006 81531 90300=
07460,1997-08-17 06:00:00,16,1019.4,0.5,94,15,20000,3.704,,,30,15.5,21.6,,,,,5,,,,wg-a,,,,AAXX 17064 07460 02670 40302 10160 20150 39810 40194 52005 60006 83801 90600 333 10216 20155 60054=
07460,1997-08-17 09:00:00,23,1019.2,0.6,69,17,25000,3.704,,,50,,,,,,,,,,,wg-a,,,,AAXX 17094 07460 12675 30502 10230 20170 39816 40192 51006 60006 82230 90900=
07460,1997-08-17 12:00:00,27,1017.3,-1.3,54,17,500,7.408,,,50,,,,,,,,,,,wg-a,,,,AAXX 17124 07460 12600 30504 10270 20170 39803 40173 58013 60006 83200 91200=
07460,1997-08-17 15:00:00,27,1016,-1.2,54,17,500,3.704,,,40,,,,,,,,,,29,wg-a,,,,AAXX 17154 07460 12600 30402 10270 20170 39791 40160 57012 60006 72990 83300 91500=
07460,1997-08-17 18:00:00,26,1015.9,-0.2,54,16,500,3.704,,,20,16.3,27.8,,,,,,,,3,wg-a,,,,AAXX 17184 07460 12600 /0202 10260 20160 39789 40159 55002 60006 70391 84302 91800 333 10278 20163=
07460,1997-08-17 21:00:00,21,1018.3,1.6,78,17,20000,3.704,,,130,,,,,,,,,,,wg-a,,,,AAXX 17214 07460 12670 41302 10210 20170 39805 40183 53016 60006 82802 92100=
07460,1997-08-18 00:00:00,18,1018.3,-0.3,88,16,15000,0,,,0,,,,,,,,,,,wg-a,,,,AAXX 18004 07460 12/65 10000 10180 20160 39802 40183 58003 60006 80001 90000=
07460,1997-08-18 03:00:00,16,1018.2,-0.4,94,15,15000,3.704,,,30,,,,,,,,,,,wg-a,,,,AAXX 18034 07460 12/65 30302 10160 20150 39798 40182 58004 60006 81031 90300=
07460,1997-08-18 06:00:00,17,1017.9,-0.1,94,16,14000,3.704,,,60,15.2,26.1,,,,,,,,,wg-a,,,,AAXX 18064 07460 02664 /0602 10170 20160 39797 40179 56001 60006 81131 90600 333 10261 20152 60004=
07460,1997-08-18 09:00:00,25,1017.5,0.5,61,17,25000,3.704,,,100,,,,,,,,,,,wg-a,,,,AAXX 18094 07460 12675 /1002 10250 20170 39802 40175 53005 60006 81201 90900=
07460,1997-08-18 12:00:00,28,1016,-1,45,15,500,3.704,,,50,,,,,,,,,,,wg-a,,,,AAXX 18124 07460 12700 /0502 10280 20150 39792 40160 58010 60006 81201 91200=
07460,1997-08-18 15:00:00,29,1014.8,-1.1,37,13,500,7.408,,,20,,,,,,,,,,,wg-a,,,,AAXX 18154 07460 12700 20204 10290 20130 39781 40148 56011 60006 82202 91500=
07460,1997-08-18 18:00:00,27,1015.1,-0,45,14,500,7.408,,,320,17.5,29.9,,,,,,,,,wg-a,,,,AAXX 18184 07460 12700 43204 10270 20140 39781 40151 55000 60006 81331 91800 333 10299 20175=
07460,1997-08-18 21:00:00,22,1017,1.2,60,14,20000,3.704,,,120,,,,,,,,,,,wg-a,,,,AAXX 18214 07460 12/70 31202 10220 20140 39793 40170 53012 60006 81031 92100=
07460,1997-08-19 00:00:00,18,1017.4,0,83,15,20000,0,,,0,,,,,,,,,,,wg-a,,,,AAXX 19004 07460 12/70 10000 10180 20150 39793 40174 50000 60006 81030 90000=
07460,1997-08-19 06:00:00,17,1017.4,0.3,82,14,500,3.704,,,300,16.5,26.4,,,,,,,,,wg-a,,,,AAXX 19064 07460 02/00 63002 10170 20140 39792 40174 53003 60006 81032 90600 333 10264 20165 60004=
07460,1997-08-19 09:00:00,25,1016.2,-0.2,54,15,500,3.704,,,250,,,,,,,,,,,wg-a,,,,AAXX 19094 07460 12600 32502 10250 20150 39790 40162 58002 60006 81132 90900=
07460,1997-08-19 12:00:00,29,1014.8,-1,35,12,500,3.704,,,110,,,,,,,,,,,wg-a,,,,AAXX 19124 07460 12700 /1102 10290 20120 39781 40148 58010 60006 81201 91200=
07460,1997-08-19 15:00:00,30,1013.5,-1,35,13,20000,11.112,,,350,,,,,,,,,,,wg-a,,,,AAXX 19154 07460 12770 23506 10300 20130 39770 40135 58010 60006 81931 91500=
07460,1997-08-19 18:00:00,22,1015.9,1.3,65,15,25000,14.816,,,280,17.2,30.5,,,,,,,,80,wg-a,,,,AAXX 19184 07460 02675 72808 10220 20150 39783 40159 53013 61000 78086 82932 91800 333 10305 20172 6100=
07460,1997-08-19 21:00:00,19,1017.1,0.8,88,17,15000,7.408,,,220,,,,3,,,,,,21,wg-a,,,,AAXX 19214 07460 12665 72204 10190 20170 39791 40171 50008 60037 72186 83532 92100=
07460,1997-08-20 00:00:00,18,1017.2,-0,94,17,15000,3.704,,,300,,,,,,,,,,1,wg-a,,,,AAXX 20004 07460 12/65 73002 10180 20170 39791 40172 54000 60036 70186 84032 90000=
07460,1997-08-20 03:00:00,16,1017.2,-0.2,94,15,20000,0,,,0,,,,,,,,,,,wg-a,,,,AAXX 20034 07460 12/70 10000 10160 20150 39788 40172 55002 60006 81030 90300=
07460,1997-08-20 06:00:00,15,1018.3,1,94,14,20000,7.408,,,240,14.2,21.2,,,,,3,,,,wg-a,,,,AAXX 20064 07460 02/70 42404 10150 20140 39798 40183 53010 60006 80001 90600 333 10212 20142 60034=
07460,1997-08-20 09:00:00,23,1017.5,0.2,69,17,25000,0,,,0,,,,,,,,,,,wg-a,,,,AAXX 20094 07460 12/75 60000 10230 20170 39800 40175 53002 60006 85031 90900=
07460,1997-08-20 12:00:00,28,1016.2,-0.7,42,14,25000,7.408,,,40,,,,,,,,,,,wg-a,,,,AAXX 20124 07460 12775 /0404 10280 20140 39793 40162 58007 60006 81232 91200=
07460,1997-08-20 15:00:00,29,1015,-0.9,40,14,20000,11.112,,,30,,,,,,,,,,,wg-a,,,,AAXX 20154 07460 12770 40306 10290 20140 39784 40150 56009 60006 81231 91500=
07460,1997-08-20 18:00:00,27,1015.4,0.1,48,15,500,7.408,,,50,15.4,29.5,,,,,,,,,wg-a,,,,AAXX 20184 07460 12700 10504 10270 20150 39785 40154 53001 60006 81530 91800 333 10295 20154=
07460,1997-08-20 21:00:00,21,1017.7,1.5,69,15,20000,3.704,,,290,,,,,,,,,,,wg-a,,,,AAXX 20214 07460 12/70 12902 10210 20150 39800 40177 53015 60006 81031 92100=
07460,1997-08-21 00:00:00,19,1018.1,0.1,78,15,15000,3.704,,,110,,,,,,,,,,,wg-a,,,,AAXX 21004 07460 12/65 21102 10190 20150 39801 40181 50001 60006 80001 90000=
07460,1997-08-21 03:00:00,16,1018.7,0.2,88,14,15000,3.704,,,310,,,,,,,,,,,wg-a,,,,AAXX 21034 07460 12/65 63102 10160 20140 39803 40187 53002 60006 82031 90300=
07460,1997-08-21 06:00:00,17,1019.1,0.5,88,15,20000,3.704,,,360,16.2,27.1,,,,,,,,,wg-a,,,,AAXX 21064 07460 02/70 53602 10170 20150 39808 40191 53005 60006 81032 90600 333 10271 20162 60004=
07460,1997-08-21 07:00:00,17,1019.1,0.5,88,15,20000,3.704,,,360,16.2,,,,,,,,,,wg-a,,,,AAXX 21074 07460 02/70 53602 10170 20150 39813 40191 53005 60006 81032 90700 333 20162 60004=
07460,1997-08-21 09:00:00,25,1018.5,0.4,54,15,20000,3.704,,,120,,,,,,,,,,,wg-a,,,,AAXX 21094 07460 12/70 41202 10250 20150 39812 40185 51004 60006 80002 90900=
07460,1997-08-21 12:00:00,29,1017.1,-0.8,43,15,20000,7.408,,,350,,,,,,,,,,,wg-a,,,,AAXX 21124 07460 12670 /3504 10290 20150 39804 40171 58008 60006 81902 91200=
07460,1997-08-21 18:00:00,29,1016.8,0.7,37,13,25000,7.408,,,350,17.3,31.6,,,,,,,,,wg-a,,,,AAXX 21184 07460 12675 23504 10290 20130 39801 40168 53007 60006 81901 91800 333 10316 20173=
07460,1997-08-22 00:00:00,20,1020.3,0.8,73,15,20000,3.704,,,350,,,,,,,,,,,wg-a,,,,AAXX 22004 07460 12/70 63502 10200 20150 39824 40203 52008 60006 82031 90000=
07460,1997-08-22 06:00:00,18,1021.5,1,83,15,25000,0,,,0,17.4,29.3,,,,,,,,,wg-a,,,,AAXX 22064 07460 02/75 20000 10180 20150 39833 40215 53010 60006 82031 90600 333 10293 20174 60004=
07460,1997-08-22 09:00:00,24,1020.8,-0,57,15,25000,7.408,,,210,,,,,,,,,,,wg-a,,,,AAXX 22094 07460 12/75 42104 10240 20150 39834 40208 55000 60006 80001 90900=
07460,1997-08-22 12:00:00,30,1019.2,-0.9,33,12,500,7.408,,,50,,,,,,,,,,,wg-a,,,,AAXX 22124 07460 12600 /0504 10300 20120 39825 40192 58009 60006 81101 91200=
07460,1997-08-22 15:00:00,31,1017.9,-1.2,31,12,500,3.704,,,10,,,,,,,,,,,wg-a,,,,AAXX 22154 07460 12600 /0102 10310 20120 39813 40179 56012 60006 81102 91500=
07460,1997-08-22 18:00:00,30,1017.3,-0.7,33,12,500,7.408,,,20,18.5,31.2,,,,,,,,,wg-a,,,,AAXX 22184 07460 12/00 20204 10300 20120 39806 40173 56007 60006 80002 91800 333 10312 20185=
07460,1997-08-22 21:00:00,23,1019,0.8,53,13,500,7.408,,,250,,,,,,,,,,,wg-a,,,,AAXX 22214 07460 12/00 12504 10230 20130 39814 40190 51008 60006 80002 92100=
07460,1997-08-23 00:00:00,19,1018.9,-0.6,68,13,25000,0,,,0,,,,,,,,,,,wg-a,,,,AAXX 23004 07460 12/75 10000 10190 20130 39808 40189 58006 60006 80002 90000=
07460,1997-08-23 03:00:00,19,1018.7,-0.2,64,12,20000,0,,,0,,,,,,,,,,,wg-a,,,,AAXX 23034 07460 12/70 00000 10190 20120 39806 40187 58002 60006 80000 90300=
07460,1997-08-23 06:00:00,19,1018.7,-0,68,13,500,3.704,,,280,18,29.5,,,,,,,,,wg-a,,,,AAXX 23064 07460 02/00 12802 10190 20130 39806 40187 55000 60006 81031 90600 333 10295 20180 60004=
07460,1997-08-23 09:00:00,26,1017.6,-0.2,45,13,40000,7.408,,,150,,,,,,,,,,,wg-a,,,,AAXX 23094 07460 12782 /1504 10260 20130 39804 40176 57002 60006 81100 90900=
07460,1997-08-23 12:00:00,32,1015.2,-1.6,32,13,40000,11.112,,,90,,,,,,,,,,,wg-a,,,,AAXX 23124 07460 12782 /0906 10320 20130 39788 40152 58016 60006 81101 91200=
07460,1997-08-23 15:00:00,32,1013.9,-1.2,34,14,40000,7.408,,,360,,,,,,,,,,,wg-a,,,,AAXX 23154 07460 12782 33604 10320 20140 39776 40139 56012 60006 82860 91500=
07460,1997-08-23 18:00:00,31,1013.3,-0.7,36,14,500,3.704,,,10,18.5,32.6,,,,,,,,,wg-a,,,,AAXX 23184 07460 12700 40102 10310 20140 39769 40133 56007 60006 82830 91800 333 10326 20185=
07460,1997-08-23 21:00:00,26,1014.5,0.5,54,16,25000,7.408,,,110,,,,,,,,,,,wg-a,,,,AAXX 23214 07460 12775 31104 10260 20160 39774 40145 52005 60006 83500 92100=
07460,1997-08-24 00:00:00,23,1015,0.2,65,16,20000,11.112,,,190,,,,,,,,,,,wg-a,,,,AAXX 24004 07460 12770 11906 10230 20160 39776 40150 53002 60006 81500 90000=
07460,1997-08-24 03:00:00,23,1014.8,-0.1,65,16,20000,7.408,,,350,,,,,,,,,,,wg-a,,,,AAXX 24034 07460 12/70 13504 10230 20160 39774 40148 58001 60006 81030 90300=
07460,1997-08-24 06:00:00,21,1015.9,0.7,73,16,500,3.704,,,40,19.9,30.6,,,,,,,,,wg-a,,,,AAXX 24064 07460 02700 10402 10210 20160 39782 40159 52007 60006 81130 90600 333 10306 20199 60004=
07460,1997-08-24 09:00:00,28,1014.8,-0.2,51,17,500,3.704,,,160,,,,,,,,,,,wg-a,,,,AAXX 24094 07460 12600 /1602 10280 20170 39780 40148 58002 60006 81130 90900=
07460,1997-08-24 12:00:00,31,1013.1,-1.3,40,16,500,7.408,,,20,,,,,,,,,,,wg-a,,,,AAXX 24124 07460 12700 20204 10310 20160 39767 40131 57013 60006 82200 91200=
07460,1997-08-24 15:00:00,32,1011.5,-1.4,38,16,500,7.408,,,20,,,,,,,,,,,wg-a,,,,AAXX 24154 07460 12700 30204 10320 20160 39753 40115 58014 60006 82230 91500=
07460,1997-08-24 18:00:00,27,1011.1,-0.8,51,16,500,11.112,,,110,21.1,32.5,,,,,,,,,wg-a,,,,AAXX 24184 07460 12600 /1106 10270 20160 39744 40111 58008 60006 81231 91800 333 10325 20211=
07460,1997-08-24 21:00:00,22,1011.5,-0.3,69,16,20000,3.704,,,250,,,,,,,,,,,wg-a,,,,AAXX 24214 07460 12770 22502 10220 20160 39742 40115 56003 60006 81130 92100=
07460,1997-08-25 00:00:00,23,1011.1,-0.5,69,17,15000,14.816,,,190,,,,,,,,,,,wg-a,,,,AAXX 25004 07460 12765 /1908 10230 20170 39738 40111 58005 60006 8153/ 90000=
07460,1997-08-25 03:00:00,21,1010.9,-0.5,60,13,15000,14.816,,,200,,,,,,,,,,,wg-a,,,,AAXX 25034 07460 12/65 22008 10210 20130 39733 40109 58005 60006 80002 90300=
07460,1997-08-25 06:00:00,19,1011.1,-0,64,12,500,7.408,,,270,18.3,27.1,,,,,,,,,wg-a,,,,AAXX 25064 07460 02/00 12704 10190 20120 39733 40111 55000 60006 80001 90600 333 10271 20183 60004=
07460,1997-08-25 09:00:00,26,1009.5,-0.8,42,12,500,25.928,,42.596,160,,,,,,,,,,,wg-a,,,,AAXX 25094 07460 12/00 21614 10260 20120 39726 40095 57008 60006 80001 90900 333 91023=
07460,1997-08-25 12:00:00,31,1008.1,-0.8,29,11,500,18.52,,,180,,,,,,,,,,,wg-a,,,,AAXX 25124 07460 12600 41810 10310 20110 39718 40081 58008 60006 82202 91200=
07460,1997-08-25 15:00:00,30,1007.4,-0.8,40,15,500,14.816,,,270,,,,,,,,,,,wg-a,,,,AAXX 25154 07460 12600 42708 10300 20150 39711 40074 58008 60006 83202 91500=
07460,1997-08-25 18:00:00,21,1009.5,1,83,18,15000,14.816,,57.412,20,18.9,31.5,,,,,,,,17,wg-a,,,,AAXX 25184 07460 02565 70208 10210 20180 39721 40095 53010 61000 71798 8497/ 91800 333 10315 20189 6004 91031=
07460,1997-08-26 00:00:00,19,1011.9,-0.1,94,18,12000,0,,,0,,,,0,,,,,,1,wg-a,,,,AAXX 26004 07460 02562 70000 10190 20180 39741 40119 58001 60046 70198 8387/ 90000 333 60007=
07460,1997-08-26 03:00:00,19,1011.1,-0.8,94,18,10000,0,,,0,,,,1,,,,,,,wg-a,,,,AAXX 26034 07460 12360 70000 10190 20180 39733 40111 56008 60017 8557/ 90300=
07460,1997-08-26 06:00:00,19,1011.1,0.1,94,18,7000,0,,,0,18.4,21.1,,,,,,,,21,wg-a,,,,AAXX 26064 07460 02257 80000 10190 20180 39734 40111 53001 61000 72162 8557/ 90600 333 10211 20184 6011=
07460,1997-08-26 09:00:00,20,1011.7,0.7,88,18,7000,7.408,,,80,,,,5,,,,,,61,wg-a,,,,AAXX 26094 07460 12257 80804 10200 20180 39740 40117 53007 60057 76162 8687/ 90900=
07460,1997-08-26 12:00:00,20,1011.5,-0.2,88,18,8000,7.408,,,330,,,,2,,,,,,61,wg-a,,,,AAXX 26124 07460 02358 83304 10200 20180 39739 40115 58002 60076 76162 8687/ 91200 333 60027=
07460,1997-08-26 18:00:00,22,1009.6,-0.5,73,17,500,0,,,0,18.5,23.3,,,,,,,,1,wg-a,,,,AAXX 26184 07460 12500 40000 10220 20170 39723 40096 56005 60006 70186 83841 91800 333 10233 20185=
07460,1997-08-26 21:00:00,19,1010,-0.1,88,17,20000,3.704,,,240,,,,,,,,,,,wg-a,,,,AAXX 26214 07460 12570 32402 10190 20170 39723 40100 57001 60006 83800 92100=
07460,1997-08-27 00:00:00,17,1009.2,-0.9,94,16,15000,0,,,0,,,,,,,,,,,wg-a,,,,AAXX 27004 07460 12565 40000 10170 20160 39713 40092 57009 60006 81531 90000=
07460,1997-08-27 06:00:00,18,1007,-0.8,83,15,35000,11.112,,,180,16.4,22.3,,,,,7,,,,wg-a,,,,AAXX 27064 07460 02/81 71806 10180 20150 39693 40070 56008 60006 86031 90600 333 10223 20164 60074=
07460,1997-08-27 09:00:00,20,1006.6,-0,78,16,25000,18.52,,,220,,,,,,,,,,,wg-a,,,,AAXX 27094 07460 12675 72210 10200 20160 39692 40066 55000 60006 83831 90900=
07460,1997-08-27 12:00:00,23,1006.1,0,69,17,20000,11.112,,,210,,,,,,,,,,,wg-a,,,,AAXX 27124 07460 12570 72106 10230 20170 39691 40061 50000 60006 8287/ 91200=
07460,1997-08-27 15:00:00,23,1004.8,-1.4,69,17,15000,11.112,,,40,,,,,,,,,,,wg-a,,,,AAXX 27154 07460 12565 70406 10230 20170 39678 40048 58014 60006 8587/ 91500=
07460,1997-08-27 18:00:00,18,1006.1,0.7,83,15,12000,11.112,,29.632,180,18,24.3,,,,,,,,61,wg-a,,,,AAXX 27184 07460 02462 81806 10180 20150 39685 40061 53007 61000 76162 8487/ 91800 333 10243 20180 6003 91016=
07460,1997-08-27 21:00:00,16,1006.8,0.3,94,15,12000,11.112,,,150,,,,3,,,,,,61,wg-a,,,,AAXX 27214 07460 12462 81506 10160 20150 39688 40068 51003 60037 76162 8487/ 92100=
07460,1997-08-28 00:00:00,16,1005,-1.7,94,15,15000,3.704,,,330,,,,0,,,,,,25,wg-a,,,,AAXX 28004 07460 02465 83302 10160 20150 39671 40050 55017 60046 72586 8487/ 90000 333 60007=
07460,1997-08-28 06:00:00,14,1007.1,3.5,77,10,10000,11.112,,,210,13.5,18.6,,,,,,,,60,wg-a,,,,AAXX 28064 07460 02560 82106 10140 20100 39687 40071 53035 61000 76086 8487/ 90600 333 10186 20135 6008=
07460,1997-08-28 09:00:00,16,1007.6,1,72,11,15000,14.816,,,180,,,,0,,,,,,15,wg-a,,,,AAXX 28094 07460 12565 /1808 10160 20110 39696 40076 53010 60007 71562 82832 90900=
07460,1997-08-28 12:00:00,17,1008.5,1.1,63,10,15000,25.928,,,230,,,,,,,,,,15,wg-a,,,,AAXX 28124 07460 12565 62314 10170 20100 39706 40085 53011 60006 71562 84832 91200=
07460,1997-08-28 15:00:00,19,1008.7,0.2,52,9,500,31.484,,,250,,,,0,,,,,,15,wg-a,,,,AAXX 28154 07460 12600 72517 10190 20090 39709 40087 53002 60007 71586 83932 91500=
07460,1997-08-28 18:00:00,17,1010.9,1.8,59,9,15000,25.928,,,250,13.5,20.8,,,,,,,,3,wg-a,,,,AAXX 28184 07460 12665 72514 10170 20090 39728 40109 53018 60006 70386 84232 91800 333 10208 20135=
07460,1997-08-28 21:00:00,15,1013.8,2.7,67,9,15000,11.112,,,210,,,,,,,,,,,wg-a,,,,AAXX 28214 07460 12665 52106 10150 20090 39754 40138 51027 60006 84832 92100=
07460,1997-08-29 00:00:00,16,1015.5,1.7,63,9,15000,7.408,,,210,,,,,,,,,,,wg-a,,,,AAXX 29004 07460 12665 62104 10160 20090 39771 40155 51017 60006 84532 90000=
07460,1997-08-29 03:00:00,15,1017,1.4,67,9,15000,18.52,,,250,,,,,,,,,,,wg-a,,,,AAXX 29034 07460 12565 /2510 10150 20090 39784 40170 53014 60006 85830 90300=
07460,1997-08-29 06:00:00,14,1018.4,1.5,82,11,20000,11.112,,,230,14.1,16.5,,,,,,,,25,wg-a,,,,AAXX 29064 07460 02570 72306 10140 20110 39797 40184 53015 61000 72586 878// 90600 333 10165 20141 6000=
07460,1997-08-29 09:00:00,18,1019.2,1.2,56,9,40000,18.52,,,270,,,,,,,,,,,wg-a,,,,AAXX 29094 07460 12582 32710 10180 20090 39810 40192 53012 60006 82840 90900=
07460,1997-08-29 12:00:00,19,1019.4,0.3,60,11,40000,22.224,,,270,,,,,,,,,,,wg-a,,,,AAXX 29124 07460 12682 42712 10190 20110 39813 40194 53003 60006 84800 91200=
07460,1997-08-29 15:00:00,21,1018.7,-0.4,46,9,50000,22.224,,,260,,,,,,,,,,,wg-a,,,,AAXX 29154 07460 12684 52612 10210 20090 39809 40187 56004 60006 82801 91500=
07460,1997-08-29 18:00:00,19,1019.4,0.3,56,10,15000,14.816,,,240,14.2,21.8,,,,,,,,,wg-a,,,,AAXX 29184 07460 12665 72408 10190 20100 39812 40194 53003 60006 85841 91800 333 10218 20142=
07460,1997-08-30 00:00:00,16,1020.7,0.1,72,11,15000,7.408,,,160,,,,,,,,,,2,wg-a,,,,AAXX 30004 07460 02565 41604 10160 20110 39822 40207 51001 61000 70286 81831 90000 333 ////=
07460,1997-08-30 03:00:00,15,1019.6,-1.1,82,12,14000,14.816,,,180,,,,,,,,,,25,wg-a,,,,AAXX 30034 07460 02564 71808 10150 20120 39810 40196 56011 61000 72586 8684/ 90300 333 ////=
07460,1997-08-30 06:00:00,17,1018.9,-0.4,72,12,15000,14.816,,,200,15.4,18.6,,,,,,,,3,wg-a,,,,AAXX 30064 07460 02665 72008 10170 20120 39806 40189 55004 60006 70386 875// 90600 333 10186 20154 61000=
07460,1997-08-30 09:00:00,20,1019.5,0.7,60,12,20000,22.224,,,250,,,,,,,,,,,wg-a,,,,AAXX 30094 07460 12670 62512 10200 20120 39815 40195 51007 60006 84540 90900=
07460,1997-08-30 12:00:00,24,1019,0.1,50,13,25000,18.52,,,280,,,,,,,,,,,wg-a,,,,AAXX 30124 07460 12675 32810 10240 20130 39815 40190 53001 60006 83830 91200=
07460,1997-08-30 15:00:00,26,1017.8,-1,48,14,500,18.52,,,280,,,,,,,,,,,wg-a,,,,AAXX 30154 07460 12700 /2810 10260 20140 39806 40178 56010 60006 81100 91500=
07460,1997-08-30 18:00:00,24,1017.7,-0.2,57,15,500,7.408,,,60,17.3,26.2,,,,,,,,,wg-a,,,,AAXX 30184 07460 12700 10604 10240 20150 39804 40177 57002 60006 81101 91800 333 10262 20173=
07460,1997-08-30 21:00:00,18,1019.4,0.8,83,15,20000,3.704,,,300,,,,,,,,,,,wg-a,,,,AAXX 30214 07460 12/70 23002 10180 20150 39812 40194 50008 60006 80001 92100=
07460,1997-08-31 00:00:00,15,1018.7,-1,94,14,15000,3.704,,,120,,,,,,,,,,,wg-a,,,,AAXX 31004 07460 12/65 01202 10150 20140 39802 40187 56010 60006 80000 90000=
07460,1997-08-31 03:00:00,16,1017.2,-1.5,88,14,15000,14.816,,,200,,,,,,,,,,,wg-a,,,,AAXX 31034 07460 12/65 02008 10160 20140 39787 40172 56015 60006 80000 90300=
07460,1997-08-31 06:00:00,15,1016.6,-0.6,88,13,500,14.816,,,190,14.5,24.2,,,,,,,,,wg-a,,,,AAXX 31064 07460 02/00 11908 10150 20130 39781 40166 56006 60006 80001 90600 333 10242 20145 60004=
07460,1997-08-31 12:00:00,31,1012.3,-1.4,33,13,35000,11.112,,,190,,,,,,,,,,,wg-a,,,,AAXX 31124 07460 12/81 21906 10310 20130 39760 40123 56014 60006 80002 91200=
07460,1997-08-31 15:00:00,32,1011.7,-0.5,32,13,35000,14.816,,,270,,,,,,,,,,,wg-a,,,,AAXX 31154 07460 12681 32708 10320 20130 39755 40117 56005 60006 81102 91500=
07460,1997-08-31 18:00:00,27,1013.1,0.9,45,14,50000,18.52,,,270,15.1,32.5,,,,,,,,,wg-a,,,,AAXX 31184 07460 12684 32710 10270 20140 39763 40131 53009 60006 81102 91800 333 10325 20151=
07460,1997-08-31 21:00:00,22,1015.6,1.7,65,15,50000,11.112,,,90,,,,,,,,,,,wg-a,,,,AAXX 31214 07460 12/84 30906 10220 20150 39781 40156 52017 60006 80002 92100=
07460,1997-09-01 00:00:00,19,1017.7,1.6,83,16,500,3.704,,,100,,,,,,,,,,,wg-a,,,,AAXX 01004 07460 12/00 21002 10190 20160 39796 40177 51016 60006 80002 90000=
07460,1997-09-01 03:00:00,16,1017.3,-0.7,94,15,500,0,,,0,,,,,,,,,,,wg-a,,,,AAXX 01034 07460 12/00 10000 10160 20150 39790 40173 56007 60006 80001 90300=
07460,1997-09-01 06:00:00,17,1017.9,0.7,88,15,14000,3.704,,,330,16.3,27.2,,,,,,,,,wg-a,,,,AAXX 01064 07460 02564 73302 10170 20150 39797 40179 53007 60006 86501 90600 333 10272 20163 60004=
07460,1997-09-01 09:00:00,20,1016.9,-0.6,78,16,14000,7.408,,,340,,,,,,,,,,,wg-a,,,,AAXX 01094 07460 12464 73404 10200 20160 39790 40169 56006 60006 875// 90900=
07460,1997-09-01 12:00:00,22,1016.2,-0.3,73,17,14000,7.408,,,30,,,,,,,,,,,wg-a,,,,AAXX 01124 07460 12564 70304 10220 20170 39787 40162 58003 60006 83131 91200=
07460,1997-09-01 15:00:00,17,1017.5,0.6,88,15,4500,11.112,,,330,,,,,,,,,,10,wg-a,,,,AAXX 01154 07460 32/45 /3306 10170 20150 39793 40175 53006 710// 91500=
07460,1997-09-01 18:00:00,17,1017.2,-0.5,88,15,10000,0,,,0,16.3,23,,2,,,,,,3,wg-a,,,,AAXX 01184 07460 02260 70000 10170 20150 39789 40172 57005 60006 70398 875// 91800 333 10230 20163 60027=
07460,1997-09-01 21:00:00,16,1017.8,0.7,100,16,8000,7.408,,,40,,,,,,,,,,61,wg-a,,,,AAXX 01214 07460 02358 70404 10160 20160 39795 40178 53007 61000 76162 8653/ 92100 333 ////=
07460,1997-09-02 00:00:00,17,1017.9,0.1,94,16,10000,3.704,,,270,,,,4,,,,,,61,wg-a,,,,AAXX 02004 07460 02360 72702 10170 20160 39796 40179 50001 60046 76162 878// 90000 333 60047=
07460,1997-09-02 03:00:00,16,1017.2,-0.6,100,16,10000,7.408,,,350,,,,1,,,,,,,wg-a,,,,AAXX 02034 07460 12360 73504 10160 20160 39789 40172 56006 60017 878// 90300=
07460,1997-09-02 06:00:00,16,1018.3,0.8,94,15,8000,7.408,,,10,15.6,16.8,,,,,,,,61,wg-a,,,,AAXX 02064 07460 02258 70104 10160 20150 39798 40183 53008 61000 76162 878// 90600 333 10168 20156 6019=
07460,1997-09-02 09:00:00,16,1019.8,1.6,100,16,7000,7.408,,,360,,,,1,,,,,,61,wg-a,,,,AAXX 02094 07460 12257 73604 10160 20160 39814 40198 53016 60017 76166 878// 90900=
07460,1997-09-02 12:00:00,17,1020.5,0.8,94,16,10000,11.112,,,360,,,,1,,,,,,60,wg-a,,,,AAXX 02124 07460 02360 73606 10170 20160 39822 40205 51008 60036 76066 878// 91200 333 60017=
07460,1997-09-02 18:00:00,16,1021.4,0.5,94,15,14000,7.408,,,360,15.6,17.2,,0,,,,,,1,wg-a,,,,AAXX 02184 07460 02364 73604 10160 20150 39829 40214 53005 60006 70186 878// 91800 333 10172 20156 60007=
07460,1997-09-02 21:00:00,16,1023.2,1.5,88,14,14000,3.704,,,310,,,,,,,,,,,wg-a,,,,AAXX 02214 07460 12464 83102 10160 20140 39845 40232 51015 60006 885// 92100=
07460,1997-09-03 00:00:00,13,1022.8,-0.7,94,12,15000,3.704,,,200,,,,,,,,,,,wg-a,,,,AAXX 03004 07460 12665 22002 10130 20120 39838 40228 57007 60006 82500 90000=
07460,1997-09-03 03:00:00,12,1022.3,-0.7,94,11,15000,0,,,0,,,,,,,,,,,wg-a,,,,AAXX 03034 07460 12565 30000 10120 20110 39831 40223 57007 60006 83100 90300=
07460,1997-09-03 06:00:00,12,1022.5,0.2,94,11,8000,0,,,0,11.2,16.1,,,,,3,,,,wg-a,,,,AAXX 03064 07460 02458 20000 10120 20110 39833 40225 53002 60006 82800 90600 333 10161 20112 60034=
07460,1997-09-03 09:00:00,18,1021.8,0.2,73,13,15000,7.408,,,60,,,,,,,,,,,wg-a,,,,AAXX 03094 07460 12465 20604 10180 20130 39835 40218 50002 60006 82200 90900=
07460,1997-09-03 12:00:00,21,1020.3,-1.1,60,13,25000,3.704,,,120,,,,,,,,,,,wg-a,,,,AAXX 03124 07460 12575 21202 10210 20130 39824 40203 58011 60006 82101 91200=
07460,1997-09-03 18:00:00,21,1019.3,0.2,64,14,500,3.704,,,60,12,23.3,,,,,,,,,wg-a,,,,AAXX 03184 07460 12600 /0602 10210 20140 39815 40193 53002 60006 81101 91800 333 10233 20120=
07460,1997-09-03 21:00:00,16,1020.9,0.9,88,14,25000,7.408,,,250,,,,,,,,,,,wg-a,,,,AAXX 03214 07460 12/75 02504 10160 20140 39824 40209 51009 60006 80000 92100=
07460,1997-09-04 00:00:00,14,1020.5,-0.6,94,13,15000,3.704,,,50,,,,,,,,,,,wg-a,,,,AAXX 04004 07460 12/65 00502 10140 20130 39818 40205 57006 60006 80000 90000=
07460,1997-09-04 03:00:00,14,1020.2,-0.4,88,12,10000,11.112,,,190,,,,,,,,,,,wg-a,,,,AAXX 04034 07460 12/60 01906 10140 20120 39814 40202 56004 60006 80000 90300=
07460,1997-09-04 06:00:00,14,1020.9,0.7,94,13,25000,0,,,0,12.7,21.3,,,,,,,,,wg-a,,,,AAXX 04064 07460 02/75 50000 10140 20130 39821 40209 53007 60006 83031 90600 333 10213 20127 60004=
07460,1997-09-04 09:00:00,21,1020.3,0.2,69,15,25000,3.704,,,70,,,,,,,,,,,wg-a,,,,AAXX 04094 07460 12675 40702 10210 20150 39824 40203 50002 60006 81131 90900=
07460,1997-09-04 15:00:00,27,1017.2,-1,51,16,35000,7.408,,,50,,,,,,,,,,,wg-a,,,,AAXX 04154 07460 12681 /0504 10270 20160 39802 40172 57010 60006 81201 91500=
07460,1997-09-04 18:00:00,24,1017.8,0.3,61,16,35000,11.112,,,30,13.9,27,,,,,,,,,wg-a,,,,AAXX 04184 07460 12/81 50306 10240 20160 39805 40178 53003 60006 81031 91800 333 10270 20139=
07460,1997-09-04 21:00:00,19,1019.5,1,83,16,500,3.704,,,270,,,,,,,,,,,wg-a,,,,AAXX 04214 07460 12/00 32702 10190 20160 39815 40195 51010 60006 80001 92100=
07460,1997-09-05 00:00:00,17,1019.9,0,88,15,500,3.704,,,240,,,,,,,,,,,wg-a,,,,AAXX 05004 07460 12/00 02402 10170 20150 39815 40199 50000 60006 80000 90000=
07460,1997-09-05 03:00:00,15,1019.9,-0.3,94,14,25000,3.704,,,80,,,,,,,,,,,wg-a,,,,AAXX 05034 07460 12/75 00802 10150 20140 39813 40199 56003 60006 80000 90300=
07460,1997-09-05 06:00:00,16,1019.7,-0.1,94,15,25000,3.704,,,60,14.3,24.2,,,,,,,,,wg-a,,,,AAXX 05064 07460 02/75 10602 10160 20150 39812 40197 55001 60006 80001 90600 333 10242 20143 60004=
07460,1997-09-05 12:00:00,28,1016.8,-1.2,51,17,500,3.704,,,40,,,,,,,,,,,wg-a,,,,AAXX 05124 07460 12600 20402 10280 20170 39799 40168 56012 60006 81131 91200=
07460,1997-09-05 15:00:00,29,1015.6,-1,48,17,500,7.408,,,60,,,,,,,,,,,wg-a,,,,AAXX 05154 07460 12600 /0604 10290 20170 39789 40156 58010 60006 81101 91500=
07460,1997-09-05 18:00:00,25,1016.7,0.7,61,17,500,7.408,,,350,15.9,29.4,,,,,,,,,wg-a,,,,AAXX 05184 07460 12600 53504 10250 20170 39796 40167 53007 60006 82139 91800 333 10294 20159=
07460,1997-09-05 21:00:00,22,1019.2,1.9,69,16,20000,7.408,,,320,,,,,,,,,,,wg-a,,,,AAXX 05214 07460 12670 53204 10220 20160 39815 40192 51019 60006 82532 92100=
07460,1997-09-06 00:00:00,18,1020.7,0.9,83,15,20000,7.408,,,260,,,,,,,,,,,wg-a,,,,AAXX 06004 07460 12670 32604 10180 20150 39824 40207 51009 60006 81132 90000=
07460,1997-09-06 03:00:00,17,1021,0.2,88,15,20000,3.704,,,90,,,,,,,,,,,wg-a,,,,AAXX 06034 07460 12670 20902 10170 20150 39826 40210 53002 60006 81130 90300=
07460,1997-09-06 06:00:00,16,1022.1,1,100,16,7000,0,,,0,15,25.4,,,,,,,,,wg-a,,,,AAXX 06064 07460 02457 70000 10160 20160 39836 40221 53010 60006 875// 90600 333 10254 20150 60004=
07460,1997-09-06 15:00:00,17,1023.9,0.3,88,15,6000,14.816,,,20,,,,,,,,,,,wg-a,,,,AAXX 06154 07460 12456 70208 10170 20150 39854 40239 51003 60006 876// 91500=
07460,1997-09-06 18:00:00,15,1024.8,0.6,94,14,8000,11.112,,,30,15.4,19,,,,,,,,,wg-a,,,,AAXX 06184 07460 12358 80306 10150 20140 39860 40248 53006 60006 886// 91800 333 10190 20154=
07460,1997-09-06 21:00:00,15,1025.5,0.8,88,13,7000,3.704,,,320,,,,,,,,,,1,wg-a,,,,AAXX 06214 07460 02357 73202 10150 20130 39867 40255 51008 61000 70152 876// 92100 333 ////=
07460,1997-09-07 00:00:00,15,1025.5,-0.2,88,13,8000,3.704,,,80,,,,,,,,,,,wg-a,,,,AAXX 07004 07460 02458 70802 10150 20130 39866 40255 58002 61000 876// 90000 333 ////=
07460,1997-09-07 03:00:00,15,1024.8,-0.6,88,13,7000,0,,,0,,,,,,,,,,,wg-a,,,,AAXX 07034 07460 12457 70000 10150 20130 39860 40248 56006 60006 876// 90300=
07460,1997-09-07 06:00:00,15,1025.8,0.9,88,13,8000,7.408,,,360,14.4,15.4,,,,,,,,,wg-a,,,,AAXX 07064 07460 02258 83604 10150 20130 39869 40258 53009 60006 886// 90600 333 10154 20144 61000=
07460,1997-09-07 09:00:00,16,1026.5,0.9,82,13,12000,7.408,,,20,,,,,,,,,,,wg-a,,,,AAXX 07094 07460 12462 70204 10160 20130 39878 40265 51009 60006 878// 90900=
07460,1997-09-07 12:00:00,21,1025.5,-0.4,56,12,20000,11.112,,,10,,,,,,,,,,,wg-a,,,,AAXX 07124 07460 12670 40106 10210 20120 39874 40255 58004 60006 84800 91200=
07460,1997-09-07 18:00:00,19,1025.4,0.4,52,9,40000,11.112,,,360,14.8,22,,,,,,,,,wg-a,,,,AAXX 07184 07460 12/82 13606 10190 20090 39870 40254 53004 60006 80001 91800 333 10220 20148=
07460,1997-09-07 21:00:00,15,1027.2,1.2,72,10,35000,3.704,,,130,,,,,,,,,,,wg-a,,,,AAXX 07214 07460 12681 /1302 10150 20100 39882 40272 50012 60006 81500 92100=
07460,1997-09-08 00:00:00,11,1027.4,-0.3,87,9,500,3.704,,,130,,,,,,,,,,,wg-a,,,,AAXX 08004 07460 12/00 01302 10110 20090 39879 40274 56003 60006 80000 90000=
07460,1997-09-08 03:00:00,10,1027.1,-0.5,87,8,20000,0,,,0,,,,,,,,,,,wg-a,,,,AAXX 08034 07460 12/70 00000 10100 20080 39874 40271 58005 60006 80000 90300=
07460,1997-09-08 06:00:00,10,1027.8,0.7,93,9,15000,3.704,,,50,8.1,18.9,,,,,,,,,wg-a,,,,AAXX 08064 07460 02/65 00502 10100 20090 39881 40278 53007 60006 80000 90600 333 10189 20081 60004=
07460,1997-09-08 09:00:00,16,1027.4,0.5,77,12,15000,7.408,,,60,,,,,,,,,,,wg-a,,,,AAXX 08094 07460 12665 /0604 10160 20120 39886 40274 52005 60006 81101 90900=
07460,1997-09-08 12:00:00,22,1025.2,-1.4,50,11,25000,3.704,,,10,,,,,,,,,,,wg-a,,,,AAXX 08124 07460 12/75 00102 10220 20110 39872 40252 58014 60006 80000 91200=
07460,1997-09-08 15:00:00,23,1023.5,-1.5,50,12,500,14.816,,,360,,,,,,,,,,,wg-a,,,,AAXX 08154 07460 12/00 03608 10230 20120 39857 40235 58015 60006 80000 91500=
07460,1997-09-08 18:00:00,20,1024.2,0.2,64,13,40000,7.408,,,10,9.3,23,,,,,,,,,wg-a,,,,AAXX 08184 07460 12/82 00104 10200 20130 39860 40242 53002 60006 80000 91800 333 10230 20093=
07460,1997-09-08 21:00:00,15,1024.9,0,77,11,500,7.408,,,240,,,,,,,,,,,wg-a,,,,AAXX 08214 07460 12/00 02404 10150 20110 39860 40249 50000 60006 80000 92100=
07460,1997-09-09 03:00:00,11,1024.4,-0.7,94,10,500,7.408,,,350,,,,,,,,,,,wg-a,,,,AAXX 09034 07460 12/00 03504 10110 20100 39850 40244 56007 60006 80000 90300=
07460,1997-09-09 06:00:00,11,1024.2,-0.3,94,10,15000,3.704,,,60,9.1,19.9,,,,,,,,11,wg-a,,,,AAXX 09064 07460 02/65 /0602 10110 20100 39848 40242 56003 60006 71100 80001 90600 333 10199 20091 60004=
07460,1997-09-09 09:00:00,19,1023.1,0,73,14,20000,3.704,,,80,,,,,,,,,,,wg-a,,,,AAXX 09094 07460 12/70 10802 10190 20140 39848 40231 50000 60006 80001 90900=
07460,1997-09-09 12:00:00,23,1021.1,-1.4,53,13,25000,7.408,,,340,,,,,,,,,,,wg-a,,,,AAXX 09124 07460 12/75 13404 10230 20130 39834 40211 58014 60006 80001 91200=
07460,1997-09-09 15:00:00,24,1019.7,-1.2,47,12,25000,14.816,,,350,,,,,,,,,,,wg-a,,,,AAXX 09154 07460 12775 /3508 10240 20120 39822 40197 56012 60006 81101 91500=
07460,1997-09-09 18:00:00,21,1019.9,-0.1,64,14,25000,11.112,,,20,10.7,24.7,,,,,,,,,wg-a,,,,AAXX 09184 07460 12/75 20206 10210 20140 39821 40199 55001 60006 81031 91800 333 10247 20107=
07460,1997-09-10 00:00:00,15,1022.3,-0.1,82,12,13000,7.408,,,320,,,,,,,,,,,wg-a,,,,AAXX 10004 07460 12463 53204 10150 20120 39835 40223 58001 60006 84830 90000=
07460,1997-09-10 03:00:00,12,1022,-0.6,88,10,14000,7.408,,,320,,,,,,,,,,,wg-a,,,,AAXX 10034 07460 12/64 13204 10120 20100 39829 40220 58006 60006 81030 90300=
07460,1997-09-10 06:00:00,11,1022.1,-0.1,87,9,500,3.704,,,330,11.3,21,,,,,,,,,wg-a,,,,AAXX 10064 07460 02400 33302 10110 20090 39828 40221 55001 60006 83600 90600 333 10210 20113 60004=
07460,1997-09-10 09:00:00,15,1021.6,0.1,82,12,8000,7.408,,,50,,,,,,,,,,,wg-a,,,,AAXX 10094 07460 12458 50504 10150 20120 39829 40216 52001 60006 85600 90900=
07460,1997-09-10 12:00:00,19,1019.6,-1.4,60,11,20000,11.112,,,40,,,,,,,,,,,wg-a,,,,AAXX 10124 07460 12/70 10406 10190 20110 39815 40196 58014 60006 80001 91200=
07460,1997-09-10 18:00:00,19,1017.8,-0.2,56,10,20000,7.408,,,10,11,21.9,,,,,,,,,wg-a,,,,AAXX 10184 07460 12/70 10104 10190 20100 39797 40178 55002 60006 80001 91800 333 10219 20110=
07460,1997-09-11 00:00:00,11,1018,-0.9,87,9,15000,3.704,,,330,,,,,,,,,,,wg-a,,,,AAXX 11004 07460 12/65 13302 10110 20090 39788 40180 56009 60006 80001 90000=
07460,1997-09-11 03:00:00,11,1016.5,-1.4,87,9,15000,14.816,,,190,,,,,,,,,,,wg-a,,,,AAXX 11034 07460 12/65 11908 10110 20090 39774 40165 58014 60006 80001 90300=
07460,1997-09-11 06:00:00,11,1016.1,-0.3,82,8,20000,11.112,,,170,10.1,18.9,,,,,,,,,wg-a,,,,AAXX 11064 07460 02/70 31706 10110 20080 39771 40161 55003 60006 80001 90600 333 10189 20101 60004=
07460,1997-09-11 09:00:00,19,1015.1,0,60,11,25000,7.408,,,200,,,,,,,,,,,wg-a,,,,AAXX 11094 07460 12/75 32004 10190 20110 39772 40151 50000 60006 80001 90900=
07460,1997-09-11 12:00:00,27,1012.6,-1.4,39,12,35000,11.112,,,170,,,,,,,,,,,wg-a,,,,AAXX 11124 07460 12/81 41706 10270 20120 39757 40126 58014 60006 80001 91200=
07460,1997-09-11 15:00:00,31,1010.5,-1.6,21,6,50000,3.704,,,180,,,,,,,,,,,wg-a,,,,AAXX 11154 07460 12/84 11802 10310 20060 39741 40105 56016 60006 80001 91500=
07460,1997-09-11 18:00:00,25,1010.6,-0.6,44,12,40000,7.408,,,200,10.9,30.6,,,,,,,,,wg-a,,,,AAXX 11184 07460 12/82 12004 10250 20120 39735 40106 55006 60006 80001 91800 333 10306 20109=
07460,1997-09-11 21:00:00,20,1012.3,1.1,53,10,20000,3.704,,,130,,,,,,,,,,,wg-a,,,,AAXX 11214 07460 12/70 01302 10200 20100 39746 40123 51011 60006 80000 92100=
07460,1997-09-12 00:00:00,19,1012,-0.4,68,13,20000,7.408,,,130,,,,,,,,,,,wg-a,,,,AAXX 12004 07460 12/70 01304 10190 20130 39742 40120 58004 60006 80000 90000=
07460,1997-09-12 03:00:00,18,1012.3,0.1,73,13,20000,3.704,,,110,,,,,,,,,,,wg-a,,,,AAXX 12034 07460 12/70 01102 10180 20130 39743 40123 51001 60006 80000 90300=
07460,1997-09-12 06:00:00,16,1012.4,0.1,77,12,500,3.704,,,90,15.4,24.6,,,,,,,,,wg-a,,,,AAXX 12064 07460 02/00 30902 10160 20120 39742 40124 51001 60006 83032 90600 333 10246 20154 60004=
07460,1997-09-12 09:00:00,23,1010.7,-0.9,57,14,500,18.52,,,170,,,,,,,,,,,wg-a,,,,AAXX 12094 07460 12600 /1710 10230 20140 39734 40107 58009 60006 82532 90900=
07460,1997-09-12 12:00:00,26,1009,-1.2,51,15,500,14.816,,,350,,,,,,,,,,,wg-a,,,,AAXX 12124 07460 12600 /3508 10260 20150 39722 40090 57012 60006 82132 91200=
07460,1997-09-12 15:00:00,26,1008.5,-0.6,54,16,15000,7.408,,,90,,,,,,,,,,,wg-a,,,,AAXX 12154 07460 12665 /0904 10260 20160 39717 40085 56006 60006 83132 91500=
07460,1997-09-12 18:00:00,19,1011,1.8,88,17,12000,18.52,,,10,16.2,27.2,,1,,,,,,29,wg-a,,,,AAXX 12184 07460 02562 70110 10190 20170 39733 40110 53018 60006 72998 8593/ 91800 333 10272 20162 60017=
07460,1997-09-12 21:00:00,17,1014,2.4,94,16,10000,3.704,,,60,,,,1,,,,,,3,wg-a,,,,AAXX 12214 07460 12360 70602 10170 20160 39759 40140 51024 60017 70362 8683/ 92100=
07460,1997-09-13 00:00:00,16,1014.1,0.1,94,15,12000,3.704,,,170,,,,,,,,,,1,wg-a,,,,AAXX 13004 07460 02462 71702 10160 20150 39759 40141 50001 60016 70162 8683/ 90000 333 61000=
07460,1997-09-13 03:00:00,16,1013.9,-0.3,94,15,10000,7.408,,,90,,,,,,,,,,60,wg-a,,,,AAXX 13034 07460 02560 80904 10160 20150 39756 40139 58003 61000 76062 8587/ 90300 333 ////=
07460,1997-09-13 06:00:00,15,1014.6,0.6,94,14,10000,3.704,,,150,15,19.1,,,,,,,,60,wg-a,,,,AAXX 13064 07460 02460 81502 10150 20140 39762 40146 53006 61000 76062 8687/ 90600 333 10191 20150 6001=
07460,1997-09-13 09:00:00,14,1017.6,2.9,82,11,15000,22.224,,,350,,,,0,,,,,,15,wg-a,,,,AAXX 13094 07460 12265 73512 10140 20110 39790 40176 53029 60007 71562 878// 90900=
07460,1997-09-13 12:00:00,15,1019.5,1.7,67,9,25000,14.816,,,360,,,,,,,,,,1,wg-a,,,,AAXX 13124 07460 12575 73608 10150 20090 39808 40195 51017 60006 70162 85832 91200=
07460,1997-09-13 15:00:00,16,1020.2,0.8,48,5,40000,18.52,,,350,,,,,,,,,,,wg-a,,,,AAXX 13154 07460 12682 73510 10160 20050 39816 40202 53008 60006 82402 91500=
07460,1997-09-13 18:00:00,14,1021.1,0.6,55,5,40000,3.704,,,350,13.1,16.5,,,,,,,,,wg-a,,,,AAXX 13184 07460 12682 73502 10140 20050 39822 40211 52006 60006 81132 91800 333 10165 20131=
07460,1997-09-14 00:00:00,7,1024.3,0.3,87,5,15000,0,,,0,,,,,,,,,,,wg-a,,,,AAXX 14004 07460 12665 30000 10070 20050 39843 40243 51003 60006 81501 90000=
07460,1997-09-14 03:00:00,4,1024.8,0.1,93,3,20000,0,,,0,,,,,,,,,,,wg-a,,,,AAXX 14034 07460 12/70 10000 10040 20030 39844 40248 53001 60006 80001 90300=
07460,1997-09-14 06:00:00,4,1025.7,0.9,93,3,25000,0,,,0,3.2,14.2,,,,,,,,,wg-a,,,,AAXX 14064 07460 02/75 40000 10040 20030 39852 40257 53009 60006 80001 90600 333 10142 20032 60004=
07460,1997-09-14 12:00:00,16,1024.7,-0.1,42,3,50000,14.816,,,30,,,,,,,,,,,wg-a,,,,AAXX 14124 07460 12684 /0308 10160 20030 39860 40247 58001 60006 81102 91200=
07460,1997-09-14 15:00:00,17,1023.5,-1.1,42,4,50000,18.52,,,30,,,,,,,,,,,wg-a,,,,AAXX 14154 07460 12684 /0310 10170 20040 39849 40235 56011 60006 81102 91500=
07460,1997-09-14 18:00:00,14,1024.5,0.7,58,6,50000,7.408,,,20,3.7,17.3,,,,,,,,,wg-a,,,,AAXX 14184 07460 12784 /0204 10140 20060 39855 40245 52007 60006 81402 91800 333 10173 20037=
07460,1997-09-14 21:00:00,11,1026,0.9,66,5,500,3.704,,,100,,,,,,,,,,,wg-a,,,,AAXX 14214 07460 12/00 11002 10110 20050 39864 40260 51009 60006 80001 92100=
07460,1997-09-15 00:00:00,6,1026.4,-0.3,81,3,500,0,,,0,,,,,,,,,,,wg-a,,,,AAXX 15004 07460 12/00 10000 10060 20030 39861 40264 58003 60006 80001 90000=
07460,1997-09-15 03:00:00,4,1025.9,-0.8,87,2,500,0,,,0,,,,,,,,,,,wg-a,,,,AAXX 15034 07460 12/00 00000 10040 20020 39853 40259 58008 60006 80000 90300=
07460,1997-09-15 06:00:00,4,1025.3,-0.4,93,3,50000,3.704,,,10,2.6,13.9,,,,,,,,,wg-a,,,,AAXX 15064 07460 02/84 00102 10040 20030 39849 40253 55004 60006 80000 90600 333 10139 20026 60004=
07460,1997-09-15 12:00:00,19,1022.1,-1.4,49,8,50000,7.408,,,100,,,,,,,,,,,wg-a,,,,AAXX 15124 07460 12684 /1004 10190 20080 39839 40221 57014 60006 81200 91200=
07460,1997-09-15 18:00:00,18,1021.7,0.2,59,10,40000,7.408,,,350,4.3,21.1,,,,,,,,,wg-a,,,,AAXX 15184 07460 12782 33504 10180 20100 39834 40217 53002 60006 81101 91800 333 10211 20043=
07460,1997-09-15 21:00:00,13,1023.5,1,82,10,20000,7.408,,,240,,,,,,,,,,,wg-a,,,,AAXX 15214 07460 12770 32404 10130 20100 39844 40235 50010 60006 81501 92100=
07460,1997-09-16 00:00:00,10,1024.2,0.3,87,8,20000,3.704,,,40,,,,,,,,,,,wg-a,,,,AAXX 16004 07460 12/70 10402 10100 20080 39847 40242 51003 60006 80001 90000=
07460,1997-09-16 03:00:00,10,1023.6,-0.6,87,8,20000,11.112,,,210,,,,,,,,,,,wg-a,,,,AAXX 16034 07460 12/70 12106 10100 20080 39841 40236 58006 60006 80001 90300=
07460,1997-09-16 06:00:00,11,1023.9,0.5,94,10,25000,7.408,,,170,10,18.2,,,,,,,,,wg-a,,,,AAXX 16064 07460 02/75 31704 10110 20100 39846 40239 53005 60006 81031 90600 333 10182 20100 60004=
07460,1997-09-16 09:00:00,19,1022.6,-0.2,60,11,25000,7.408,,,160,,,,,,,,,,,wg-a,,,,AAXX 16094 07460 12/75 41604 10190 20110 39844 40226 58002 60006 80001 90900=
07460,1997-09-16 15:00:00,28,1017.7,-1.7,28,8,35000,14.816,,,110,,,,,,,,,,,wg-a,,,,AAXX 16154 07460 12781 41108 10280 20080 39807 40177 56017 60006 81102 91500=
07460,1997-09-16 18:00:00,22,1018.9,0.5,60,14,500,7.408,,,310,11,27.5,,,,,,,,,wg-a,,,,AAXX 16184 07460 12700 23104 10220 20140 39813 40189 53005 60006 81432 91800 333 10275 20110=
07460,1997-09-16 21:00:00,16,1021.2,1.3,77,12,20000,7.408,,,170,,,,,,,,,,,wg-a,,,,AAXX 16214 07460 12/70 11704 10160 20120 39826 40212 51013 60006 80001 92100=
07460,1997-09-17 00:00:00,17,1021.6,0.5,72,12,20000,11.112,,,180,,,,,,,,,,,wg-a,,,,AAXX 17004 07460 12/70 11806 10170 20120 39831 40216 50005 60006 80001 90000=
07460,1997-09-17 06:00:00,13,1023.3,0.9,82,10,25000,11.112,,,180,12.3,22.3,,,,,,,,,wg-a,,,,AAXX 17064 07460 02/75 11806 10130 20100 39842 40233 53009 60006 80002 90600 333 10223 20123 60004=
07460,1997-09-17 09:00:00,18,1023.4,0.8,56,9,25000,7.408,,,180,,,,,,,,,,,wg-a,,,,AAXX 17094 07460 12/75 11804 10180 20090 39850 40234 52008 60006 80001 90900=
07460,1997-09-17 12:00:00,25,1021.7,-0.8,34,8,40000,3.704,,,160,,,,,,,,,,,wg-a,,,,AAXX 17124 07460 12682 41602 10250 20080 39842 40217 58008 60006 81101 91200=
07460,1997-09-17 15:00:00,27,1020.3,-1.1,24,5,40000,7.408,,,40,,,,,,,,,,,wg-a,,,,AAXX 17154 07460 12782 /0404 10270 20050 39831 40203 56011 60006 81131 91500=
07460,1997-09-17 18:00:00,22,1021.5,0.6,43,9,40000,7.408,,,350,12.4,27.2,,,,,,,,,wg-a,,,,AAXX 17184 07460 12782 73504 10220 20090 39837 40215 53006 60006 81132 91800 333 10272 20124=
07460,1997-09-18 00:00:00,14,1023.8,0.1,77,10,500,3.704,,,10,,,,,,,,,,,wg-a,,,,AAXX 18004 07460 12/00 30102 10140 20100 39848 40238 53001 60006 80002 90000=
07460,1997-09-18 06:00:00,11,1024.9,0.9,76,7,500,3.704,,,210,11,22.1,,,,,,,,,wg-a,,,,AAXX 18064 07460 02/00 02102 10110 20070 39855 40249 53009 60006 80000 90600 333 10221 20110 60004=
07460,1997-09-18 09:00:00,19,1024.5,0.6,52,9,500,7.408,,,190,,,,,,,,,,,wg-a,,,,AAXX 18094 07460 12/00 01904 10190 20090 39861 40245 51006 60006 80000 90900=
07460,1997-09-18 12:00:00,26,1021.9,-1.5,32,8,35000,7.408,,,190,,,,,,,,,,,wg-a,,,,AAXX 18124 07460 12/81 01904 10260 20080 39846 40219 58015 60006 80000 91200=
07460,1997-09-18 15:00:00,28,1020.3,-1.5,20,3,40000,3.704,,,40,,,,,,,,,,,wg-a,,,,AAXX 18154 07460 12/82 00402 10280 20030 39832 40203 56015 60006 80000 91500=
07460,1997-09-18 18:00:00,23,1020.9,0.1,33,6,40000,3.704,,,30,11.4,27.9,,,,,,,,,wg-a,,,,AAXX 18184 07460 12/82 10302 10230 20060 39832 40209 53001 60006 80001 91800 333 10279 20114=
07460,1997-09-19 00:00:00,12,1023.5,0.1,76,8,500,3.704,,,290,,,,,,,,,,,wg-a,,,,AAXX 19004 07460 12/00 02902 10120 20080 39843 40235 51001 60006 80000 90000=
07460,1997-09-19 03:00:00,12,1023.3,-0.2,71,7,500,3.704,,,220,,,,,,,,,,,wg-a,,,,AAXX 19034 07460 12/00 02202 10120 20070 39841 40233 57002 60006 80000 90300=
07460,1997-09-19 06:00:00,10,1024.1,0.5,82,7,40000,3.704,,,10,9.6,23.2,,,,,,,,,wg-a,,,,AAXX 19064 07460 02/82 00102 10100 20070 39846 40241 53005 60006 80000 90600 333 10232 20096 60004=
07460,1997-09-19 09:00:00,19,1023.2,0.3,52,9,40000,3.704,,,120,,,,,,,,,,,wg-a,,,,AAXX 19094 07460 12/82 01202 10190 20090 39849 40232 51003 60006 80000 90900=
07460,1997-09-19 12:00:00,25,1021,-1.3,41,11,40000,7.408,,,10,,,,,,,,,,,wg-a,,,,AAXX 19124 07460 12/82 00104 10250 20110 39835 40210 58013 60006 80000 91200=
07460,1997-09-19 15:00:00,26,1019.4,-1.2,39,11,40000,7.408,,,30,,,,,,,,,,,wg-a,,,,AAXX 19154 07460 12/82 00304 10260 20110 39822 40194 56012 60006 80000 91500=
07460,1997-09-19 18:00:00,22,1020.1,0.1,53,12,40000,11.112,,,30,10,26.6,,,,,,,,,wg-a,,,,AAXX 19184 07460 12/82 00306 10220 20120 39824 40201 53001 60006 80000 91800 333 10266 20100=
07460,1997-09-20 00:00:00,14,1021.7,-0.4,82,11,20000,0,,,0,,,,,,,,,,,wg-a,,,,AAXX 20004 07460 12/70 00000 10140 20110 39828 40217 58004 60006 80000 90000=
07460,1997-09-20 03:00:00,13,1021.3,-0.5,88,11,15000,0,,,0,,,,,,,,,,,wg-a,,,,AAXX 20034 07460 12/65 00000 10130 20110 39823 40213 58005 60006 80000 90300=
07460,1997-09-20 06:00:00,11,1022.2,0.5,87,9,15000,3.704,,,100,10.1,22.1,,,,,,,,,wg-a,,,,AAXX 20064 07460 02/65 01002 10110 20090 39828 40222 51005 60006 80000 90600 333 10221 20101 60004=
07460,1997-09-20 09:00:00,19,1021.3,0.3,73,14,20000,7.408,,,50,,,,,,,,,,,wg-a,,,,AAXX 20094 07460 12/70 00504 10190 20140 39831 40213 53003 60006 80000 90900=
07460,1997-09-20 12:00:00,24,1019.7,-0.8,57,15,25000,11.112,,,10,,,,,,,,,,,wg-a,,,,AAXX 20124 07460 12675 /0106 10240 20150 39823 40197 58008 60006 81101 91200=
07460,1997-09-20 18:00:00,21,1019.7,0.6,64,14,20000,7.408,,,20,10.6,25.2,,,,,,,,,wg-a,,,,AAXX 20184 07460 12670 30204 10210 20140 39818 40197 53006 60006 81232 91800 333 10252 20106=
07460,1997-09-20 21:00:00,18,1021,0.9,77,14,15000,3.704,,,310,,,,,,,,,,,wg-a,,,,AAXX 20214 07460 12665 23102 10180 20140 39827 40210 51009 60006 81502 92100=
07460,1997-09-21 00:00:00,14,1021.5,-0,88,12,11000,0,,,0,,,,,,,,,,,wg-a,,,,AAXX 21004 07460 12/61 10000 10140 20120 39826 40215 55000 60006 80001 90000=
07460,1997-09-21 03:00:00,12,1021.4,-0.3,94,11,7000,7.408,,,340,,,,,,,,,,,wg-a,,,,AAXX 21034 07460 12357 23404 10120 20110 39823 40214 57003 60006 82600 90300=
07460,1997-09-21 06:00:00,10,1021.6,-0.1,100,10,10000,0,,,0,9.4,20.7,,,,,,,,12,wg-a,,,,AAXX 21064 07460 02/60 20000 10100 20100 39822 40216 56001 60006 71240 80001 90600 333 10207 20094 60004=
07460,1997-09-21 09:00:00,19,1020.5,0.2,73,14,15000,3.704,,,150,,,,,,,,,,,wg-a,,,,AAXX 21094 07460 12/65 51502 10190 20140 39824 40205 50002 60006 80002 90900=
07460,1997-09-21 12:00:00,24,1019,-0.9,54,14,25000,3.704,,,140,,,,,,,,,,,wg-a,,,,AAXX 21124 07460 12675 41402 10240 20140 39815 40190 58009 60006 81202 91200=
07460,1997-09-21 15:00:00,24,1018,-0.9,50,13,25000,0,,,0,,,,,,,,,,,wg-a,,,,AAXX 21154 07460 12675 60000 10240 20130 39806 40180 56009 60006 83262 91500=
07460,1997-09-21 18:00:00,17,1020.2,1.2,77,13,20000,11.112,,,250,9.8,25.5,,,,,,,,17,wg-a,,,,AAXX 21184 07460 02770 62506 10170 20130 39818 40202 51012 60006 71798 83932 91800 333 10255 20098 61000=
07460,1997-09-21 21:00:00,15,1021.5,1,82,12,20000,11.112,,,210,,,,,,,,,,,wg-a,,,,AAXX 21214 07460 12/70 22106 10150 20120 39828 40215 51010 60006 80001 92100=
07460,1997-09-22 00:00:00,13,1021.8,-0.1,88,11,20000,0,,,0,,,,,,,,,,,wg-a,,,,AAXX 22004 07460 12/70 10000 10130 20110 39827 40218 58001 60006 80001 90000=
07460,1997-09-22 03:00:00,13,1021.7,0,82,10,20000,7.408,,,170,,,,,,,,,,,wg-a,,,,AAXX 22034 07460 12770 21704 10130 20100 39827 40217 50000 60006 82500 90300=
07460,1997-09-22 09:00:00,18,1021.6,0.4,64,11,500,11.112,,,180,,,,,,,,,,,wg-a,,,,AAXX 22094 07460 12700 /1806 10180 20110 39833 40216 51004 60006 81131 90900=
07460,1997-09-22 12:00:00,24,1019.6,-1.2,44,11,500,7.408,,,150,,,,,,,,,,,wg-a,,,,AAXX 22124 07460 12600 21504 10240 20110 39821 40196 57012 60006 82201 91200=
07460,1997-09-22 15:00:00,25,1018.3,-1.1,36,9,500,7.408,,,30,,,,,,,,,,,wg-a,,,,AAXX 22154 07460 12600 20304 10250 20090 39810 40183 56011 60006 82301 91500=
07460,1997-09-22 18:00:00,20,1019.4,0.5,60,12,20000,7.408,,,310,12,25.3,,,,,,,,,wg-a,,,,AAXX 22184 07460 12670 63104 10200 20120 39814 40194 53005 60006 83931 91800 333 10253 20120=
07460,1997-09-22 21:00:00,15,1021.2,1,72,10,20000,0,,,0,,,,,,,,,,,wg-a,,,,AAXX 22214 07460 12670 30000 10150 20100 39825 40212 51010 60006 81201 92100=
07460,1997-09-23 00:00:00,12,1021.6,0,88,10,10000,3.704,,,280,,,,,,,,,,,wg-a,,,,AAXX 23004 07460 12/60 /2802 10120 20100 39825 40216 50000 60006 90000=
07460,1997-09-23 03:00:00,14,1020.6,-0.7,82,11,20000,0,,,0,,,,,,,,,,,wg-a,,,,AAXX 23034 07460 12770 /0000 10140 20110 39818 40206 58007 60006 81502 90300=
07460,1997-09-23 06:00:00,13,1021,0.3,88,11,25000,3.704,,,290,12,20.3,,,,,,,,,wg-a,,,,AAXX 23064 07460 02/75 62902 10130 20110 39821 40210 53003 60006 86030 90600 333 10203 20120 60004=
07460,1997-09-23 09:00:00,18,1020.7,0.3,68,12,20000,11.112,,,230,,,,,,,,,,,wg-a,,,,AAXX 23094 07460 12670 /2306 10180 20120 39824 40207 51003 60006 81101 90900=
07460,1997-09-23 12:00:00,25,1018.4,-1.4,41,11,25000,3.704,,,200,,,,,,,,,,,wg-a,,,,AAXX 23124 07460 12675 32002 10250 20110 39810 40184 57014 60006 83800 91200=
07460,1997-09-23 15:00:00,24,1017.4,-1,44,11,25000,11.112,,,20,,,,,,,,,,,wg-a,,,,AAXX 23154 07460 12775 30206 10240 20110 39800 40174 56010 60006 83230 91500=
07460,1997-09-23 18:00:00,21,1018.5,0.6,60,13,25000,7.408,,,10,13.3,25.5,,,,,,,,,wg-a,,,,AAXX 23184 07460 12775 /0104 10210 20130 39806 40185 53006 60006 81230 91800 333 10255 20133=
07460,1997-09-23 21:00:00,17,1020.2,1.1,72,12,15000,3.704,,,130,,,,,,,,,,,wg-a,,,,AAXX 23214 07460 12765 11302 10170 20120 39817 40202 51011 60006 81500 92100=
07460,1997-09-24 00:00:00,12,1020.5,-0.2,94,11,15000,0,,,0,,,,,,,,,,,wg-a,,,,AAXX 24004 07460 12/65 00000 10120 20110 39815 40205 58002 60006 80000 90000=
07460,1997-09-24 03:00:00,10,1021.1,0.2,93,9,12000,0,,,0,,,,,,,,,,,wg-a,,,,AAXX 24034 07460 12/62 00000 10100 20090 39817 40211 53002 60006 80000 90300=
07460,1997-09-24 06:00:00,10,1021.4,0.3,100,10,8000,3.704,,,60,8.3,20.7,,,,,,,,,wg-a,,,,AAXX 24064 07460 02/58 00602 10100 20100 39820 40214 53003 60006 80000 90600 333 10207 20083 60004=
07460,1997-09-24 12:00:00,22,1019,-1.2,53,12,25000,7.408,,,10,,,,,,,,,,,wg-a,,,,AAXX 24124 07460 12775 20104 10220 20120 39813 40190 58012 60006 81101 91200=
07460,1997-09-24 15:00:00,24,1017.6,-1.1,41,10,35000,14.816,,,10,,,,,,,,,,,wg-a,,,,AAXX 24154 07460 12681 30108 10240 20100 39802 40176 56011 60006 81101 91500=
07460,1997-09-24 18:00:00,20,1018.5,0.3,49,9,35000,7.408,,,320,9.7,24.5,,,,,,,,,wg-a,,,,AAXX 24184 07460 12/81 63204 10200 20090 39805 40185 53003 60006 80001 91800 333 10245 20097=
07460,1997-09-24 21:00:00,15,1020.2,1,63,8,500,0,,,0,,,,,,,,,,,wg-a,,,,AAXX 24214 07460 12/00 40000 10150 20080 39815 40202 51010 60006 80001 92100=
07460,1997-09-25 00:00:00,11,1020.9,0.1,82,8,20000,3.704,,,340,,,,,,,,,,,wg-a,,,,AAXX 25004 07460 12/70 13402 10110 20080 39816 40209 53001 60006 80001 90000=
07460,1997-09-25 03:00:00,10,1021.5,0.5,82,7,15000,0,,,0,,,,,,,,,,,wg-a,,,,AAXX 25034 07460 12/65 00000 10100 20070 39821 40215 51005 60006 80000 90300=
07460,1997-09-25 06:00:00,10,1022,0.5,87,8,500,7.408,,,200,8.1,19.7,,,,,,,,,wg-a,,,,AAXX 25064 07460 02/00 12004 10100 20080 39826 40220 53005 60006 80001 90600 333 10197 20081 60004=
07460,1997-09-25 09:00:00,18,1021.3,0.5,59,10,500,7.408,,,200,,,,,,,,,,,wg-a,,,,AAXX 25094 07460 12/00 02004 10180 20100 39830 40213 52005 60006 80000 90900=
07460,1997-09-25 12:00:00,26,1019.6,-0.8,39,11,500,7.408,,,90,,,,,,,,,,,wg-a,,,,AAXX 25124 07460 12700 /0904 10260 20110 39823 40196 58008 60006 81100 91200=
07460,1997-09-25 15:00:00,27,1018.8,-0.7,32,9,40000,7.408,,,20,,,,,,,,,,,wg-a,,,,AAXX 25154 07460 12782 /0204 10270 20090 39816 40188 56007 60006 81100 91500=
07460,1997-09-26 00:00:00,13,1022.9,-0,82,10,20000,3.704,,,60,,,,,,,,,,,wg-a,,,,AAXX 26004 07460 12/70 00602 10130 20100 39838 40229 55000 60006 80000 90000=
07460,1997-09-26 06:00:00,12,1022.6,0.2,82,9,20000,3.704,,,90,11.5,21.7,,,,,,,,,wg-a,,,,AAXX 26064 07460 02/70 00902 10120 20090 39835 40226 52002 60006 80000 90600 333 10217 20115 60004=
07460,1997-09-26 09:00:00,19,1021.7,0.1,60,11,500,7.408,,,210,,,,,,,,,,,wg-a,,,,AAXX 26094 07460 12/00 02104 10190 20110 39835 40217 52001 60006 80000 90900=
07460,1997-09-26 12:00:00,26,1019.3,-1.6,37,10,40000,3.704,,,260,,,,,,,,,,,wg-a,,,,AAXX 26124 07460 12682 /2602 10260 20100 39820 40193 58016 60006 81100 91200=
07460,1997-09-26 15:00:00,27,1017.4,-1.7,30,8,40000,7.408,,,40,,,,,,,,,,,wg-a,,,,AAXX 26154 07460 12782 10404 10270 20080 39803 40174 56017 60006 81100 91500=
07460,1997-09-26 18:00:00,22,1017.9,-0.1,43,9,25000,7.408,,,10,12.3,27.7,,,,,,,,,wg-a,,,,AAXX 26184 07460 12/75 10104 10220 20090 39802 40179 55001 60006 80001 91800 333 10277 20123=
07460,1997-09-26 21:00:00,15,1018.7,-0.2,63,8,20000,0,,,0,,,,,,,,,,,wg-a,,,,AAXX 26214 07460 12/70 10000 10150 20080 39800 40187 58002 60006 80001 92100=
07460,1997-09-27 00:00:00,12,1018.8,-0.2,82,9,20000,3.704,,,350,,,,,,,,,,,wg-a,,,,AAXX 27004 07460 12/70 03502 10120 20090 39798 40188 57002 60006 80000 90000=
07460,1997-09-27 03:00:00,12,1018.1,-0.8,82,9,20000,3.704,,,350,,,,,,,,,,,wg-a,,,,AAXX 27034 07460 12/70 03502 10120 20090 39790 40181 58008 60006 80000 90300=
07460,1997-09-27 06:00:00,12,1017.9,-0.2,82,9,20000,0,,,0,10.7,21.9,,,,,,,,,wg-a,,,,AAXX 27064 07460 02/70 00000 10120 20090 39788 40179 56002 60006 80000 90600 333 10219 20107 60004=
07460,1997-09-27 09:00:00,19,1016.3,-0.6,56,10,40000,7.408,,,160,,,,,,,,,,,wg-a,,,,AAXX 27094 07460 12/82 01604 10190 20100 39782 40163 58006 60006 80000 90900=
07460,1997-09-27 12:00:00,26,1013.7,-1.6,34,9,40000,7.408,,,70,,,,,,,,,,,wg-a,,,,AAXX 27124 07460 12/82 00704 10260 20090 39766 40137 58016 60006 80000 91200=
07460,1997-09-27 15:00:00,26,1012.4,-1.2,32,8,40000,7.408,,,340,,,,,,,,,,,wg-a,,,,AAXX 27154 07460 12782 13404 10260 20080 39754 40124 56012 60006 81100 91500=
07460,1997-09-27 18:00:00,22,1013.3,0.4,43,9,500,0,,,0,11.4,27.1,,,,,,,,,wg-a,,,,AAXX 27184 07460 12/00 10000 10220 20090 39757 40133 53004 60006 80001 91800 333 10271 20114=
07460,1997-09-27 21:00:00,15,1014.7,0.5,63,8,25000,3.704,,,120,,,,,,,,,,,wg-a,,,,AAXX 27214 07460 12/75 01202 10150 20080 39762 40147 51005 60006 80000 92100=
07460,1997-09-28 00:00:00,12,1015.2,0.1,82,9,20000,3.704,,,40,,,,,,,,,,,wg-a,,,,AAXX 28004 07460 12/70 00402 10120 20090 39763 40152 53001 60006 80000 90000=
07460,1997-09-28 03:00:00,12,1015,-0.2,82,9,20000,0,,,0,,,,,,,,,,,wg-a,,,,AAXX 28034 07460 12/70 00000 10120 20090 39761 40150 58002 60006 80000 90300=
07460,1997-09-28 06:00:00,12,1015.4,0.4,76,8,500,3.704,,,90,10.3,21.3,,,,,,,,,wg-a,,,,AAXX 28064 07460 02/00 10902 10120 20080 39765 40154 52004 60006 80001 90600 333 10213 20103 60004=
07460,1997-09-28 12:00:00,25,1013.4,-1,36,9,500,7.408,,,300,,,,,,,,,,,wg-a,,,,AAXX 28124 07460 12600 23004 10250 20090 39762 40134 56010 60006 81101 91200=
07460,1997-09-28 15:00:00,26,1012.6,-0.6,34,9,500,11.112,,,360,,,,,,,,,,,wg-a,,,,AAXX 28154 07460 12700 23606 10260 20090 39755 40126 56006 60006 81101 91500=
07460,1997-09-28 18:00:00,22,1014.4,1.2,46,10,500,3.704,,,20,11.4,26.1,,,,,,,,,wg-a,,,,AAXX 28184 07460 12/00 20202 10220 20100 39768 40144 53012 60006 80001 91800 333 10261 20114=
07460,1997-09-28 21:00:00,15,1017.1,1.7,67,9,20000,0,,,0,,,,,,,,,,,wg-a,,,,AAXX 28214 07460 12/70 10000 10150 20090 39785 40171 51017 60006 80001 92100=
07460,1997-09-29 00:00:00,13,1018,0.6,77,9,20000,0,,,0,,,,,,,,,,,wg-a,,,,AAXX 29004 07460 12/70 00000 10130 20090 39791 40180 53006 60006 80000 90000=
07460,1997-09-29 03:00:00,12,1018.7,0.5,82,9,20000,7.408,,,10,,,,,,,,,,,wg-a,,,,AAXX 29034 07460 12/70 00104 10120 20090 39796 40187 51005 60006 80000 90300=
07460,1997-09-29 06:00:00,10,1020.1,1.2,93,9,20000,3.704,,,350,9.8,21.5,,,,,,,,,wg-a,,,,AAXX 29064 07460 02/70 23502 10100 20090 39808 40201 53012 60006 80001 90600 333 10215 20098 60004=
07460,1997-09-29 09:00:00,19,1020.7,1.6,60,11,25000,3.704,,,90,,,,,,,,,,,wg-a,,,,AAXX 29094 07460 12/75 30902 10190 20110 39825 40207 51016 60006 80001 90900=
07460,1997-09-29 12:00:00,25,1019.6,-0.3,36,9,500,3.704,,,20,,,,,,,,,,,wg-a,,,,AAXX 29124 07460 12/00 40202 10250 20090 39822 40196 56003 60006 80001 91200=
07460,1997-09-29 15:00:00,26,1019.1,-0.4,32,8,25000,11.112,,,360,,,,,,,,,,,wg-a,,,,AAXX 29154 07460 12/75 53606 10260 20080 39818 40191 56004 60006 80001 91500=
07460,1997-09-29 18:00:00,20,1020.6,0.8,49,9,25000,3.704,,,10,10.5,26.6,,,,,,,,,wg-a,,,,AAXX 29184 07460 12/75 30102 10200 20090 39826 40206 53008 60006 80001 91800 333 10266 20105=
07460,1997-09-29 21:00:00,14,1023.1,1.6,72,9,20000,3.704,,,240,,,,,,,,,,,wg-a,,,,AAXX 29214 07460 12/70 12402 10140 20090 39842 40231 51016 60006 80001 92100=
07460,1997-09-30 00:00:00,12,1023.8,0.3,76,8,20000,3.704,,,10,,,,,,,,,,,wg-a,,,,AAXX 30004 07460 12/70 00102 10120 20080 39845 40238 50003 60006 80000 90000=
07460,1997-09-30 03:00:00,9,1025.2,1,87,7,15000,0,,,0,,,,,,,,,,,wg-a,,,,AAXX 30034 07460 12/65 00000 10090 20070 39855 40252 53010 60006 80000 90300=
07460,1997-09-30 06:00:00,11,1024.9,-0,87,9,20000,3.704,,,340,8,20.1,,,,,,,,,wg-a,,,,AAXX 30064 07460 02/70 23402 10110 20090 39855 40249 55000 60006 80001 90600 333 10201 20080 60004=
07460,1997-09-30 09:00:00,17,1024.6,0.6,68,11,20000,11.112,,,190,,,,,,,,,,,wg-a,,,,AAXX 30094 07460 12/70 11906 10170 20110 39861 40246 50006 60006 80001 90900=
07460,1997-09-30 12:00:00,24,1022.7,-1,41,10,25000,7.408,,,10,,,,,,,,,,,wg-a,,,,AAXX 30124 07460 12/75 10104 10240 20100 39851 40227 56010 60006 80001 91200=
07460,1997-09-30 15:00:00,26,1021.4,-1,39,11,25000,7.408,,,30,,,,,,,,,,,wg-a,,,,AAXX 30154 07460 12/75 10304 10260 20110 39841 40214 56010 60006 80001 91500=
07460,1997-09-30 18:00:00,21,1022.4,0.3,49,10,20000,7.408,,,10,10.5,25.9,,,,,,,,,wg-a,,,,AAXX 30184 07460 12/70 10104 10210 20100 39844 40224 53003 60006 80001 91800 333 10259 20105=
07460,1997-10-01 00:00:00,12,1023,-1,82,9,15000,3.704,,,290,,,,,,,,,,,wg-a,,,,AAXX 01004 07460 12/65 02902 10120 20090 39838 40230 58010 60006 80000 90000=
07460,1997-10-01 03:00:00,11,1023,-0.2,87,9,15000,7.408,,,340,,,,,,,,,,,wg-a,,,,AAXX 01034 07460 12/65 03404 10110 20090 39836 40230 55002 60006 80000 90300=
07460,1997-10-01 06:00:00,9,1023.2,0,93,8,10000,3.704,,,340,8.8,21.1,,,,,,,,,wg-a,,,,AAXX 01064 07460 02/60 23402 10090 20080 39836 40232 50000 60006 80001 90600 333 10211 20088 60004=
07460,1997-10-01 12:00:00,24,1020.2,-1,41,10,25000,11.112,,,20,,,,,,,,,,,wg-a,,,,AAXX 01124 07460 12/75 30206 10240 20100 39827 40202 57010 60006 80001 91200=
07460,1997-10-01 15:00:00,26,1018.1,-1.8,34,9,25000,11.112,,,350,,,,,,,,,,,wg-a,,,,AAXX 01154 07460 12/75 23506 10260 20090 39808 40181 56018 60006 80001 91500=
07460,1997-10-01 18:00:00,21,1018.5,-0.2,49,10,500,3.704,,,310,9.4,25.6,,,,,,,,,wg-a,,,,AAXX 01184 07460 12/00 13102 10210 20100 39806 40185 56002 60006 80001 91800 333 10256 20094=
07460,1997-10-01 21:00:00,15,1019.6,0.3,67,9,15000,3.704,,,360,,,,,,,,,,,wg-a,,,,AAXX 01214 07460 12/65 13602 10150 20090 39809 40196 53003 60006 80001 92100=
07460,1997-10-02 00:00:00,12,1019.2,-0.7,76,8,15000,3.704,,,50,,,,,,,,,,,wg-a,,,,AAXX 02004 07460 12/65 00502 10120 20080 39802 40192 58007 60006 80000 90000=
07460,1997-10-02 03:00:00,11,1018.5,-0.9,82,8,15000,3.704,,,10,,,,,,,,,,,wg-a,,,,AAXX 02034 07460 12/65 00102 10110 20080 39793 40185 58009 60006 80000 90300=
07460,1997-10-02 06:00:00,9,1018.9,0.2,93,8,500,7.408,,,350,8.2,20.7,,,,,,,,,wg-a,,,,AAXX 02064 07460 02/00 03504 10090 20080 39795 40189 53002 60006 80000 90600 333 10207 20082 60004=
07460,1997-10-02 12:00:00,23,1016.8,-0.9,50,12,500,11.112,,,350,,,,,,,,,,,wg-a,,,,AAXX 02124 07460 12/00 03506 10230 20120 39793 40168 56009 60006 80000 91200=
07460,1997-10-02 15:00:00,24,1015.7,-1,47,12,40000,14.816,,,30,,,,,,,,,,,wg-a,,,,AAXX 02154 07460 12682 /0308 10240 20120 39783 40157 56010 60006 81100 91500=
07460,1997-10-02 18:00:00,20,1016.5,0.4,60,12,500,11.112,,,20,8.9,24.5,,,,,,,,,wg-a,,,,AAXX 02184 07460 12/00 00206 10200 20120 39786 40165 53004 60006 80000 91800 333 10245 20089=
07460,1997-10-02 21:00:00,17,1018.4,1.4,77,13,25000,11.112,,,320,,,,,,,,,,,wg-a,,,,AAXX 02214 07460 12575 /3206 10170 20130 39801 40184 51014 60006 81500 92100=
07460,1997-10-03 00:00:00,14,1018.6,-0.3,88,12,25000,7.408,,,300,,,,,,,,,,,wg-a,,,,AAXX 03004 07460 12575 /3004 10140 20120 39798 40186 56003 60006 81500 90000=
07460,1997-10-03 03:00:00,10,1018.6,-0.4,93,9,20000,3.704,,,190,,,,,,,,,,,wg-a,,,,AAXX 03034 07460 12/70 01902 10100 20090 39793 40186 56004 60006 80000 90300=
07460,1997-10-03 06:00:00,8,1019.2,0.3,100,8,400,3.704,,,110,7.8,19.9,,,,,,,,44,wg-a,,,,AAXX 03064 07460 02004 31102 10080 20080 39796 40192 51003 60006 74440 83600 90600 333 10199 20078 60004=
07460,1997-10-03 09:00:00,12,1020,1.4,100,12,1500,3.704,,,60,,,,,,,,,,28,wg-a,,,,AAXX 03094 07460 12115 30602 10120 20120 39810 40200 51014 60006 72840 83600 90900=
07460,1997-10-03 12:00:00,20,1018.1,-0.8,56,11,9000,14.816,,,10,,,,,,,,,,3,wg-a,,,,AAXX 03124 07460 12/59 00108 10200 20110 39801 40181 58008 60006 70340 80000 91200=
07460,1997-10-03 15:00:00,22,1017.1,-0.8,43,9,10000,14.816,,,20,,,,,,,,,,,wg-a,,,,AAXX 03154 07460 12/60 /0208 10220 20090 39794 40171 57008 60006 91500=
07460,1997-10-03 18:00:00,18,1018.9,1.4,52,8,20000,7.408,,,20,8.4,21.7,,,,,,,,,wg-a,,,,AAXX 03184 07460 12/70 00204 10180 20080 39806 40189 53014 60006 80000 91800 333 10217 20084=
07460,1997-10-03 21:00:00,11,1021.3,1.2,71,6,15000,0,,,0,,,,,,,,,,,wg-a,,,,AAXX 03214 07460 12/65 00000 10110 20060 39819 40213 51012 60006 80000 92100=
07460,1997-10-04 00:00:00,9,1021.9,0.4,76,5,15000,0,,,0,,,,,,,,,,,wg-a,,,,AAXX 04004 07460 12/65 00000 10090 20050 39822 40219 53004 60006 80000 90000=
07460,1997-10-04 03:00:00,6,1022.5,-0,87,4,15000,3.704,,,250,,,,,,,,,,,wg-a,,,,AAXX 04034 07460 12/65 02502 10060 20040 39823 40225 55000 60006 80000 90300=
07460,1997-10-04 06:00:00,5,1022.9,0.4,93,4,25000,3.704,,,10,4.4,17.5,,,,,,,,,wg-a,,,,AAXX 04064 07460 02/75 00102 10050 20040 39827 40229 51004 60006 80000 90600 333 10175 20044 60004=
07460,1997-10-04 09:00:00,14,1022.4,0.7,67,8,20000,3.704,,,170,,,,,,,,,,,wg-a,,,,AAXX 04094 07460 12/70 01702 10140 20080 39835 40224 50007 60006 80000 90900=
07460,1997-10-04 12:00:00,20,1020.6,-1.1,49,9,25000,11.112,,,20,,,,,,,,,,,wg-a,,,,AAXX 04124 07460 12/75 00206 10200 20090 39825 40206 56011 60006 80000 91200=
07460,1997-10-04 15:00:00,21,1019.6,-0.8,46,9,25000,14.816,,,20,,,,,,,,,,,wg-a,,,,AAXX 04154 07460 12/75 00208 10210 20090 39817 40196 56008 60006 80000 91500=
07460,1997-10-04 18:00:00,17,1020.1,-0.1,55,8,20000,3.704,,,10,4.7,21.4,,,,,,,,,wg-a,,,,AAXX 04184 07460 12/70 00102 10170 20080 39816 40201 55001 60006 80000 91800 333 10214 20047=
07460,1997-10-04 21:00:00,10,1021,0,76,6,15000,3.704,,,210,,,,,,,,,,,wg-a,,,,AAXX 04214 07460 12/65 02102 10100 20060 39816 40210 50000 60006 80000 92100=
07460,1997-10-05 00:00:00,8,1020.2,-1,87,6,10000,0,,,0,,,,,,,,,,,wg-a,,,,AAXX 05004 07460 12/60 00000 10080 20060 39806 40202 58010 60006 80000 90000=
07460,1997-10-05 03:00:00,7,1019.4,-1,87,5,1000,3.704,,,220,,,,,,,,,,,wg-a,,,,AAXX 05034 07460 12/10 02202 10070 20050 39796 40194 58010 60006 80000 90300=
07460,1997-10-05 06:00:00,5,1018.7,-0.9,93,4,50000,3.704,,,70,5.2,16.5,,,,,,,,,wg-a,,,,AAXX 05064 07460 02/84 00702 10050 20040 39787 40187 58009 60006 80000 90600 333 10165 20052 60004=
07460,1997-10-05 09:00:00,17,1016.7,-0.3,55,8,40000,7.408,,,180,,,,,,,,,,,wg-a,,,,AAXX 05094 07460 12/82 01804 10170 20080 39784 40167 58003 60006 80000 90900=
07460,1997-10-05 12:00:00,25,1014.1,-1.5,39,10,40000,11.112,,,240,,,,,,,,,,,wg-a,,,,AAXX 05124 07460 12/82 02406 10250 20100 39769 40141 58015 60006 80000 91200=
07460,1997-10-05 15:00:00,27,1010.7,-2.8,37,11,40000,14.816,,,190,,,,,,,,,,,wg-a,,,,AAXX 05154 07460 12/82 01908 10270 20110 39739 40107 56028 60006 80000 91500=
07460,1997-10-05 18:00:00,22,1010.9,-0.4,53,12,25000,14.816,,,170,5.3,27.4,,,,,,,,,wg-a,,,,AAXX 05184 07460 12/75 11708 10220 20120 39735 40109 55004 60006 80001 91800 333 10274 20053=
07460,1997-10-05 21:00:00,18,1011.9,0.3,68,12,15000,11.112,,,150,,,,,,,,,,,wg-a,,,,AAXX 05214 07460 12/65 21506 10180 20120 39739 40119 51003 60006 80001 92100=
07460,1997-10-06 00:00:00,16,1011.4,-0.8,77,12,15000,11.112,,,160,,,,,,,,,,,wg-a,,,,AAXX 06004 07460 12/65 11606 10160 20120 39731 40114 58008 60006 80001 90000=
07460,1997-10-06 03:00:00,14,1010.3,-1.2,77,10,15000,7.408,,,150,,,,,,,,,,,wg-a,,,,AAXX 06034 07460 12/65 11504 10140 20100 39719 40103 58012 60006 80001 90300=
07460,1997-10-06 06:00:00,11,1009.9,-0.9,94,10,15000,3.704,,,220,9.7,21.9,,,,,,,,,wg-a,,,,AAXX 06064 07460 02865 32202 10110 20100 39711 40099 58009 60006 81501 90600 333 10219 20097 60004=
07460,1997-10-06 09:00:00,22,1007.9,-0.4,57,13,25000,25.928,,,180,,,,,,,,,,,wg-a,,,,AAXX 06094 07460 12775 61814 10220 20130 39706 40079 56004 60006 81531 90900=
07460,1997-10-06 12:00:00,20,1007.9,-0.2,73,15,15000,29.632,,53.708,180,,,,,,,,,,60,wg-a,,,,AAXX 06124 07460 02665 71816 10200 20150 39704 40079 55002 61000 76061 8457/ 91200 333 6100 91029=
07460,1997-10-06 15:00:00,17,1007.1,-1.1,94,16,10000,7.408,,,200,,,,1,,,,,,61,wg-a,,,,AAXX 06154 07460 12560 82004 10170 20160 39693 40071 58011 60017 76162 8557/ 91500=
07460,1997-10-06 18:00:00,17,1006.2,-0.9,94,16,10000,0,,,0,9.9,23.2,,0,,,,,,3,wg-a,,,,AAXX 06184 07460 02460 70000 10170 20160 39684 40062 56009 60006 70362 8557/ 91800 333 10232 20099 60007=
07460,1997-10-06 21:00:00,16,1005.9,-0.4,94,15,20000,11.112,,,200,,,,,,,,,,,wg-a,,,,AAXX 06214 07460 12670 42006 10160 20150 39680 40059 55004 60006 83530 92100=
07460,1997-10-07 00:00:00,17,1005.6,-0.1,88,15,20000,18.52,,,190,,,,,,,,,,,wg-a,,,,AAXX 07004 07460 12770 71910 10170 20150 39678 40056 57001 60006 875// 90000=
07460,1997-10-07 06:00:00,15,1006.1,0.7,88,13,20000,11.112,,,200,15,17.3,,,,,2,,,,wg-a,,,,AAXX 07064 07460 02770 52006 10150 20130 39680 40061 53007 60006 81542 90600 333 10173 20150 60024=
07460,1997-10-07 12:00:00,22,1008,1.1,60,14,25000,14.816,,,240,,,,,,,,,,15,wg-a,,,,AAXX 07124 07460 12675 72408 10220 20140 39707 40080 52011 60006 71511 83831 91200=
07460,1997-10-07 15:00:00,21,1008.7,0.6,60,13,20000,18.52,,,230,,,,,,,,,,,wg-a,,,,AAXX 07154 07460 12670 /2310 10210 20130 39713 40087 51006 60006 82272 91500=
07460,1997-10-07 18:00:00,20,1011.3,2.3,64,13,12000,11.112,,,250,15.1,21.7,,,,,,,,,wg-a,,,,AAXX 07184 07460 12562 72506 10200 20130 39736 40113 53023 60006 85872 91800 333 10217 20151=
07460,1997-10-07 21:00:00,16,1013.6,1.7,77,12,12000,3.704,,,150,,,,,,,,,,,wg-a,,,,AAXX 07214 07460 12562 51502 10160 20120 39753 40136 51017 60006 84501 92100=
07460,1997-10-08 00:00:00,16,1014.4,0.8,77,12,15000,3.704,,,220,,,,,,,,,,,wg-a,,,,AAXX 08004 07460 12665 72202 10160 20120 39760 40144 53008 60006 84531 90000=
07460,1997-10-08 03:00:00,16,1014.3,-0.1,82,13,15000,3.704,,,110,,,,,,,,,,,wg-a,,,,AAXX 08034 07460 12665 71102 10160 20130 39760 40143 58001 60006 8357/ 90300=
07460,1997-10-08 06:00:00,16,1014.8,0.3,82,13,12000,7.408,,,90,14.7,19.6,,,,,,,,,wg-a,,,,AAXX 08064 07460 02662 70904 10160 20130 39764 40148 50003 60006 83572 90600 333 10196 20147 60004=
07460,1997-10-08 09:00:00,19,1014.7,0.5,73,14,18000,18.52,,,190,,,,,,,,,,,wg-a,,,,AAXX 08094 07460 12568 71910 10190 20140 39768 40147 53005 60006 82832 90900=
07460,1997-10-08 12:00:00,25,1012.7,-1.2,44,12,500,14.816,,,220,,,,,,,,,,,wg-a,,,,AAXX 08124 07460 12600 /2208 10250 20120 39756 40127 57012 60006 82802 91200=
07460,1997-10-08 18:00:00,22,1013.7,1.1,57,13,500,11.112,,,220,15.5,25.6,,,,,,,,,wg-a,,,,AAXX 08184 07460 12700 42206 10220 20130 39762 40137 53011 60006 81142 91800 333 10256 20155=
07460,1997-10-08 21:00:00,18,1014.8,0.6,73,13,25000,11.112,,,190,,,,,,,,,,,wg-a,,,,AAXX 08214 07460 12/75 31906 10180 20130 39768 40148 51006 60006 80001 92100=
07460,1997-10-09 00:00:00,18,1015.6,0.7,73,13,20000,22.224,,,190,,,,,,,,,,,wg-a,,,,AAXX 09004 07460 12670 21912 10180 20130 39775 40156 53007 60006 81501 90000=
07460,1997-10-09 03:00:00,17,1015.1,-0.7,77,13,20000,29.632,,,180,,,,,,,,,,,wg-a,,,,AAXX 09034 07460 12/70 51816 10170 20130 39769 40151 56007 60006 85030 90300=
07460,1997-10-09 06:00:00,17,1015.3,0.3,82,14,500,25.928,,,180,16.4,21.8,,,,,,,,,wg-a,,,,AAXX 09064 07460 02/00 61814 10170 20140 39772 40153 53003 60006 83042 90600 333 10218 20164 60004=
07460,1997-10-09 12:00:00,24,1016.9,0.7,57,15,500,18.52,,,260,,,,,,,,,,,wg-a,,,,AAXX 09124 07460 12600 72610 10240 20150 39795 40169 51007 60006 85842 91200=
07460,1997-10-09 15:00:00,25,1016.9,-0,54,15,500,22.224,,42.596,250,,,,,,,,,,,wg-a,,,,AAXX 09154 07460 12600 52512 10250 20150 39796 40169 55000 60006 83242 91500 333 91023=
07460,1997-10-09 18:00:00,21,1018.2,0.9,64,14,500,11.112,,,220,17.3,25.9,,,,,,,,,wg-a,,,,AAXX 09184 07460 12600 22206 10210 20140 39804 40182 52009 60006 81142 91800 333 10259 20173=
07460,1997-10-09 21:00:00,20,1018.4,0,68,14,500,14.816,,,170,,,,,,,,,,,wg-a,,,,AAXX 09214 07460 12500 61708 10200 20140 39805 40184 50000 60006 82142 92100=
07460,1997-10-10 00:00:00,20,1017,-1.4,73,15,25000,11.112,,,180,,,,,,,,,,,wg-a,,,,AAXX 10004 07460 12675 71806 10200 20150 39791 40170 58014 60006 83142 90000=
07460,1997-10-10 03:00:00,20,1015.5,-1.4,73,15,20000,11.112,,,180,,,,,,,,,,,wg-a,,,,AAXX 10034 07460 12570 71806 10200 20150 39777 40155 56014 60006 84532 90300=
07460,1997-10-10 06:00:00,19,1013.7,-1.9,73,14,500,14.816,,,180,18.4,20.9,,,,,,,,,wg-a,,,,AAXX 10064 07460 02500 71808 10190 20140 39758 40137 58019 60006 81552 90600 333 10209 20184 60004=
07460,1997-10-10 09:00:00,20,1011.9,-1.6,73,15,25000,29.632,,,180,,,,,,,,,,60,wg-a,,,,AAXX 10094 07460 02675 71816 10200 20150 39742 40119 56016 61000 76062 82572 90900 333 ////=
07460,1997-10-10 12:00:00,22,1011,-0.5,65,15,14000,22.224,,,210,,,,,,,,,,3,wg-a,,,,AAXX 10124 07460 02564 72112 10220 20150 39736 40110 58005 61000 70362 85872 91200 333 6100=
07460,1997-10-10 15:00:00,22,1010.5,-0.6,73,17,8000,22.224,,,250,,,,,,,,,,15,wg-a,,,,AAXX 10154 07460 12558 62512 10220 20170 39731 40105 58006 60006 71522 84872 91500=
07460,1997-10-10 18:00:00,20,1011.9,1.3,83,17,10000,11.112,,,320,18.7,22.2,,,,,,,,60,wg-a,,,,AAXX 10184 07460 02560 73206 10200 20170 39743 40119 53013 61000 76062 878// 91800 333 10222 20187 6100=
07460,1997-10-10 21:00:00,17,1014.6,2.1,82,14,15000,14.816,,,290,,,,1,,,,,,1,wg-a,,,,AAXX 10214 07460 12565 32908 10170 20140 39765 40146 52021 60017 70161 83500 92100=
07460,1997-10-11 00:00:00,15,1015.3,0.4,88,13,20000,7.408,,,70,,,,,,,,,,3,wg-a,,,,AAXX 11004 07460 12570 40704 10150 20130 39769 40153 52004 60016 70361 84500 90000=
07460,1997-10-11 03:00:00,13,1015.7,0.2,88,11,15000,7.408,,,70,,,,,,,,,,,wg-a,,,,AAXX 11034 07460 12465 70704 10130 20110 39770 40157 51002 60006 875// 90300=
07460,1997-10-11 06:00:00,12,1015.5,-0.4,82,9,20000,3.704,,,50,12.1,19.9,,,,,1,,,,wg-a,,,,AAXX 11064 07460 02470 60502 10120 20090 39766 40155 56004 60006 84502 90600 333 10199 20121 60014=
07460,1997-10-11 12:00:00,19,1011,-2.8,43,6,60000,3.704,,,220,,,,,,,,,,,wg-a,,,,AAXX 11124 07460 12/86 72202 10190 20060 39732 40110 58028 60006 8707/ 91200=
07460,1997-10-11 15:00:00,19,1008.3,-2.7,49,8,10000,7.408,,,50,,,,,,,,,,15,wg-a,,,,AAXX 11154 07460 12660 70504 10190 20080 39706 40083 56027 60006 71522 8557/ 91500=
07460,1997-10-11 18:00:00,19,1005.5,-2.7,73,14,15000,14.816,,,170,10.4,20,,,,,,,,,wg-a,,,,AAXX 11184 07460 12565 71708 10190 20140 39679 40055 56027 60006 8557/ 91800 333 10200 20104=
07460,1997-10-11 21:00:00,20,1005.5,0.2,64,13,15000,14.816,,,270,,,,,,,,,,2,wg-a,,,,AAXX 11214 07460 02665 72708 10200 20130 39680 40055 50002 61000 70262 8557/ 92100 333 ////=
07460,1997-10-12 00:00:00,18,1004.5,-1.3,68,12,15000,7.408,,,40,,,,0,,,,,,21,wg-a,,,,AAXX 12004 07460 02565 50404 10180 20120 39668 40045 58013 60006 72162 84831 90000 333 60007=
07460,1997-10-12 03:00:00,16,1004.8,0.2,63,9,15000,22.224,,,300,,,,,,,,,,,wg-a,,,,AAXX 12034 07460 12565 53012 10160 20090 39668 40048 53002 60006 84830 90300=
07460,1997-10-12 06:00:00,13,1005.2,-0.1,67,7,10000,29.632,,53.708,270,13.1,20.6,,,,,,,,3,wg-a,,,,AAXX 12064 07460 02660 22716 10130 20070 39668 40052 58001 60006 70362 82830 90600 333 10206 20131 60004 91029=
07460,1997-10-12 09:00:00,15,1005.3,0.2,59,7,10000,38.892,,68.524,280,,,,0,,,,,,16,wg-a,,,,AAXX 12094 07460 12560 22821 10150 20070 39671 40053 50002 60007 71686 81802 90900 333 91037=
07460,1997-10-12 12:00:00,14,1007.8,2.5,72,9,8000,25.928,,44.448,300,,,,,,,,,,15,wg-a,,,,AAXX 12124 07460 12558 73014 10140 20090 39695 40078 51025 60006 71586 878// 91200 333 91024=
07460,1997-10-12 18:00:00,10,1014.9,3,76,6,20000,7.408,,,310,10,15.5,,,,,,,,1,wg-a,,,,AAXX 12184 07460 02570 43104 10100 20060 39757 40149 51030 60006 70161 83842 91800 333 10155 20100 61000=
07460,1997-10-12 21:00:00,9,1016.5,1.4,81,6,500,3.704,,,340,,,,,,,,,,,wg-a,,,,AAXX 12214 07460 12600 23402 10090 20060 39771 40165 51014 60006 81540 92100=
07460,1997-10-13 00:00:00,10,1016.8,0.5,82,7,20000,3.704,,,360,,,,,,,,,,,wg-a,,,,AAXX 13004 07460 12570 73602 10100 20070 39776 40168 50005 60006 875// 90000=
07460,1997-10-13 03:00:00,9,1017,-0,87,7,15000,11.112,,,340,,,,3,,,,,,3,wg-a,,,,AAXX 13034 07460 12465 83406 10090 20070 39776 40170 54000 60037 70362 885// 90300=
07460,1997-10-13 06:00:00,8,1018.1,0.9,81,5,15000,7.408,,,350,7.7,10.3,,,,,,,,21,wg-a,,,,AAXX 13064 07460 02465 /3504 10080 20050 39785 40181 51009 61000 72162 86800 90600 333 10103 20077 6004=
07460,1997-10-13 09:00:00,10,1018.9,1,71,5,20000,11.112,,,340,,,,,,,,,,,wg-a,,,,AAXX 13094 07460 12570 73406 10100 20050 39795 40189 51010 60006 8483/ 90900=
07460,1997-10-13 12:00:00,10,1018.5,-0.3,71,5,12000,11.112,,,320,,,,,,,,,,15,wg-a,,,,AAXX 13124 07460 12562 73206 10100 20050 39792 40185 58003 60006 71511 878// 91200=
07460,1997-10-13 15:00:00,10,1017.9,-0.6,71,5,15000,11.112,,,340,,,,,,,,,,25,wg-a,,,,AAXX 13154 07460 02565 73406 10100 20050 39786 40179 56006 61000 72586 8387/ 91500 333 ////=
07460,1997-10-13 18:00:00,8,1019.3,1,81,5,12000,3.704,,,110,7.5,10.7,,0,,,,,,1,wg-a,,,,AAXX 13184 07460 02562 71102 10080 20050 39796 40193 52010 60006 70186 8283/ 91800 333 10107 20075 60007=
07460,1997-10-13 21:00:00,8,1019.5,0.2,87,6,10000,3.704,,,130,,,,0,,,,,,21,wg-a,,,,AAXX 13214 07460 12560 71302 10080 20060 39798 40195 51002 60007 72162 8683/ 92100=
07460,1997-10-14 00:00:00,8,1019.7,0.2,87,6,8000,11.112,,,330,,,,1,,,,,,21,wg-a,,,,AAXX 14004 07460 02458 73306 10080 20060 39800 40197 53002 60016 72162 8687/ 90000 333 60017=
07460,1997-10-14 03:00:00,7,1021.3,1.4,87,5,15000,14.816,,,10,,,,,,,,,,,wg-a,,,,AAXX 14034 07460 12565 70108 10070 20050 39814 40213 51014 60006 878// 90300=
07460,1997-10-14 06:00:00,6,1023.2,1.8,87,4,15000,14.816,,,350,6.4,8.1,,,,,2,,,2,wg-a,,,,AAXX 14064 07460 02465 73508 10060 20040 39832 40232 53018 60006 70262 878// 90600 333 10081 20064 60024=
07460,1997-10-14 09:00:00,7,1024.7,1.5,87,5,15000,14.816,,,350,,,,,,,,,,60,wg-a,,,,AAXX 14094 07460 02465 73508 10070 20050 39847 40247 51015 61000 76062 875// 90900 333 ////=
07460,1997-10-14 12:00:00,9,1024.8,0.4,76,5,20000,18.52,,,20,,,,,,,,,,1,wg-a,,,,AAXX 14124 07460 02470 70210 10090 20050 39851 40248 51004 61000 70162 878// 91200 333 6100=
07460,1997-10-14 15:00:00,9,1024.1,-0.6,66,3,20000,14.816,,,340,,,,,,,,,,,wg-a,,,,AAXX 14154 07460 12570 73408 10090 20030 39845 40241 58006 60006 878// 91500=
07460,1997-10-14 18:00:00,8,1024.8,0.6,76,4,15000,3.704,,,20,6.2,9.6,,,,,,,,,wg-a,,,,AAXX 14184 07460 12665 60202 10080 20040 39850 40248 53006 60006 84830 91800 333 10096 20062=
07460,1997-10-14 21:00:00,7,1025.3,0.1,81,4,15000,3.704,,,120,,,,,,,,,,,wg-a,,,,AAXX 14214 07460 12665 /1202 10070 20040 39852 40253 53001 60006 81530 92100=
07460,1997-10-15 00:00:00,5,1024.7,-0.8,87,3,15000,3.704,,,250,,,,,,,,,,,wg-a,,,,AAXX 15004 07460 12565 42502 10050 20030 39844 40247 58008 60006 81830 90000=
07460,1997-10-15 03:00:00,6,1023,-1.4,87,4,15000,7.408,,,240,,,,,,,,,,,wg-a,,,,AAXX 15034 07460 12565 72404 10060 20040 39830 40230 57014 60006 875// 90300=
07460,1997-10-15 06:00:00,8,1020.8,-1.9,71,3,14000,3.704,,,180,4.6,8.5,,,,,,,,80,wg-a,,,,AAXX 15064 07460 02664 71802 10080 20030 39810 40208 56019 61000 78086 8383/ 90600 333 10085 20046 6100=
07460,1997-10-15 09:00:00,7,1020.2,-0.6,87,5,14000,18.52,,,180,,,,0,,,,,,60,wg-a,,,,AAXX 15094 07460 12564 81810 10070 20050 39804 40202 58006 60007 76086 8682/ 90900=
07460,1997-10-15 12:00:00,10,1017.1,-2.8,76,6,14000,11.112,,,140,,,,1,,,,,,3,wg-a,,,,AAXX 15124 07460 02564 71406 10100 20060 39778 40171 56028 60016 70386 878// 91200 333 60017=
07460,1997-10-15 18:00:00,12,1013.9,0.1,76,8,10000,7.408,,,270,7,12.7,,,,,,,,2,wg-a,,,,AAXX 15184 07460 02560 72704 10120 20080 39750 40139 53001 60006 70286 878// 91800 333 10127 20070 61000=
07460,1997-10-15 21:00:00,13,1013.8,-0,77,9,12000,3.704,,,270,,,,,,,,,,,wg-a,,,,AAXX 15214 07460 12562 72702 10130 20090 39750 40138 54000 60006 875// 92100=
07460,1997-10-16 00:00:00,12,1014,0.2,82,9,12000,7.408,,,180,,,,,,,,,,,wg-a,,,,AAXX 16004 07460 12562 71804 10120 20090 39752 40140 51002 60006 878// 90000=
07460,1997-10-16 03:00:00,11,1013.8,-0.3,94,10,12000,3.704,,,110,,,,,,,,,,,wg-a,,,,AAXX 16034 07460 12462 71102 10110 20100 39749 40138 56003 60006 8687/ 90300=
07460,1997-10-16 06:00:00,11,1014.8,0.9,94,10,12000,7.408,,,130,10.7,13,,,,,,,,21,wg-a,,,,AAXX 16064 07460 02562 81304 10110 20100 39758 40148 53009 61000 72162 8687/ 90600 333 10130 20107 6001=
07460,1997-10-16 09:00:00,13,1015.9,1.4,88,11,20000,7.408,,,120,,,,,,,,,,1,wg-a,,,,AAXX 16094 07460 12570 71204 10130 20110 39772 40159 51014 60006 70162 878// 90900=
07460,1997-10-16 12:00:00,16,1015.7,0.1,59,8,20000,11.112,,,80,,,,,,,,,,,wg-a,,,,AAXX 16124 07460 12570 70806 10160 20080 39773 40157 50001 60006 878// 91200=
07460,1997-10-16 15:00:00,15,1015.8,-0.1,72,10,25000,11.112,,,80,,,,,,,,,,,wg-a,,,,AAXX 16154 07460 12575 70806 10150 20100 39772 40158 56001 60006 878// 91500=
07460,1997-10-16 18:00:00,14,1016.8,0.9,82,11,14000,3.704,,,30,10.6,16.1,,,,,,,,,wg-a,,,,AAXX 16184 07460 12564 70302 10140 20110 39781 40168 53009 60006 878// 91800 333 10161 20106=
07460,1997-10-17 00:00:00,7,1017.8,-0.5,100,7,14000,3.704,,,100,,,,,,,,,,11,wg-a,,,,AAXX 17004 07460 12464 /1002 10070 20070 39782 40178 57005 60006 71111 81800 90000=
07460,1997-10-17 03:00:00,8,1016.8,-0.9,100,8,15000,3.704,,,150,,,,,,,,,,,wg-a,,,,AAXX 17034 07460 12/65 01502 10080 20080 39773 40168 58009 60006 80000 90300=
07460,1997-10-17 06:00:00,7,1016.6,-0.3,100,7,4500,11.112,,,170,6,13.6,,,,,,,,10,wg-a,,,,AAXX 17064 07460 02245 /1706 10070 20070 39770 40166 56003 60006 71000 81601 90600 333 10136 20060 60004=
07460,1997-10-17 09:00:00,12,1016.6,0.7,76,8,25000,11.112,,,210,,,,,,,,,,,wg-a,,,,AAXX 17094 07460 12/75 22106 10120 20080 39777 40166 51007 60006 80001 90900=
07460,1997-10-17 12:00:00,20,1013.9,-1.6,53,10,500,18.52,,,170,,,,,,,,,,,wg-a,,,,AAXX 17124 07460 12/00 41710 10200 20100 39761 40139 58016 60006 80001 91200=
07460,1997-10-17 15:00:00,22,1012.6,-1,46,10,35000,18.52,,,170,,,,,,,,,,,wg-a,,,,AAXX 17154 07460 12/81 61710 10220 20100 39751 40126 56010 60006 80001 91500=
07460,1997-10-17 18:00:00,17,1014.9,1.5,59,9,40000,18.52,,,150,7.4,22.1,,,,,,,,,wg-a,,,,AAXX 17184 07460 12/82 41510 10170 20090 39766 40149 53015 60006 80001 91800 333 10221 20074=
07460,1997-10-17 21:00:00,13,1016.6,1,72,8,500,18.52,,,140,,,,,,,,,,,wg-a,,,,AAXX 17214 07460 12/00 31410 10130 20080 39777 40166 52010 60006 80002 92100=
07460,1997-10-18 00:00:00,12,1017.7,0.9,76,8,500,14.816,,,140,,,,,,,,,,,wg-a,,,,AAXX 18004 07460 12/00 11408 10120 20080 39786 40177 52009 60006 80001 90000=
07460,1997-10-18 03:00:00,12,1017.8,0.4,82,9,500,3.704,,,30,,,,,,,,,,,wg-a,,,,AAXX 18034 07460 12/00 10302 10120 20090 39789 40178 51004 60006 80001 90300=
07460,1997-10-18 06:00:00,12,1018.9,0.9,82,9,500,18.52,,,170,11.3,16.5,,,,,,,,,wg-a,,,,AAXX 18064 07460 02/00 11710 10120 20090 39799 40189 51009 60006 80001 90600 333 10165 20113 60004=
07460,1997-10-18 09:00:00,19,1019.1,1.1,60,11,40000,31.484,,,160,,,,,,,,,,,wg-a,,,,AAXX 18094 07460 12/82 11617 10190 20110 39810 40191 51011 60006 80001 90900=
07460,1997-10-18 12:00:00,22,1017.9,-0.8,50,11,40000,38.892,,,170,,,,,,,,,,,wg-a,,,,AAXX 18124 07460 12682 /1721 10220 20110 39803 40179 58008 60006 81101 91200=
07460,1997-10-18 15:00:00,22,1017.6,-0.4,50,11,40000,38.892,,,170,,,,,,,,,,,wg-a,,,,AAXX 18154 07460 12782 /1721 10220 20110 39799 40176 56004 60006 81101 91500=
07460,1997-10-18 18:00:00,18,1018.8,0.7,64,11,20000,29.632,,,180,12.1,23.1,,,,,,,,,wg-a,,,,AAXX 18184 07460 12/70 21816 10180 20110 39806 40188 53007 60006 80001 91800 333 10231 20121=
07460,1997-10-18 21:00:00,15,1019.7,0.4,72,10,20000,29.632,,,180,,,,,,,,,,,wg-a,,,,AAXX 18214 07460 12/70 21816 10150 20100 39810 40197 53004 60006 80001 92100=
07460,1997-10-19 00:00:00,14,1018.9,-0.8,72,9,20000,22.224,,,210,,,,,,,,,,,wg-a,,,,AAXX 19004 07460 12/70 22112 10140 20090 39801 40189 56008 60006 80001 90000=
07460,1997-10-19 03:00:00,13,1018.2,-0.7,72,8,20000,22.224,,,180,,,,,,,,,,,wg-a,,,,AAXX 19034 07460 12/70 11812 10130 20080 39793 40182 58007 60006 80001 90300=
07460,1997-10-19 06:00:00,13,1017.9,-0.4,72,8,500,18.52,,,190,12.6,18.1,,,,,,,,,wg-a,,,,AAXX 19064 07460 02/00 11910 10130 20080 39790 40179 56004 60006 80001 90600 333 10181 20126 60004=
07460,1997-10-19 09:00:00,18,1017,-0.1,59,10,40000,31.484,,,180,,,,,,,,,,,wg-a,,,,AAXX 19094 07460 12/82 31817 10180 20100 39788 40170 58001 60006 80001 90900=
07460,1997-10-19 12:00:00,23,1014.9,-1.4,47,11,40000,22.224,,,180,,,,,,,,,,,wg-a,,,,AAXX 19124 07460 12/82 61812 10230 20110 39774 40149 58014 60006 80001 91200=
07460,1997-10-19 15:00:00,23,1014.6,-0.3,44,10,40000,11.112,,,160,,,,0,,,,,,,wg-a,,,,AAXX 19154 07460 12/82 71606 10230 20100 39771 40146 55003 60007 83032 91500=
07460,1997-10-19 18:00:00,18,1015.2,-0,64,11,500,22.224,,,190,12.5,24.2,,,,,,,,,wg-a,,,,AAXX 19184 07460 12/00 71912 10180 20110 39771 40152 55000 60006 84072 91800 333 10242 20125=
07460,1997-10-20 00:00:00,14,1014.9,-1.1,82,11,15000,14.816,,,190,,,,,,,,,,,wg-a,,,,AAXX 20004 07460 12665 71908 10140 20110 39763 40149 56011 60006 82532 90000=
07460,1997-10-20 03:00:00,13,1013.9,-1,82,10,15000,25.928,,,200,,,,,,,,,,,wg-a,,,,AAXX 20034 07460 12665 72014 10130 20100 39752 40139 56010 60006 81532 90300=
07460,1997-10-20 06:00:00,11,1013.9,-0.3,87,9,500,11.112,,,160,10.5,18.3,,,,,,,,,wg-a,,,,AAXX 20064 07460 02/00 11606 10110 20090 39749 40139 58003 60006 81041 90600 333 10183 20105 60004=
07460,1997-10-20 09:00:00,17,1011.9,-1.2,68,11,25000,14.816,,,180,,,,,,,,,,,wg-a,,,,AAXX 20094 07460 12/75 61808 10170 20110 39737 40119 58012 60006 81042 90900=
07460,1997-10-20 12:00:00,21,1009.1,-2.1,56,12,500,14.816,,,180,,,,,,,,,,,wg-a,,,,AAXX 20124 07460 12700 /1808 10210 20120 39717 40091 58021 60006 81182 91200=
07460,1997-10-20 15:00:00,22,1007.7,-1.3,50,11,500,11.112,,,130,,,,,,,,,,,wg-a,,,,AAXX 20154 07460 12/00 71306 10220 20110 39703 40077 56013 60006 8707/ 91500=
07460,1997-10-20 18:00:00,19,1008.5,0.5,68,13,15000,7.408,,,340,10,22.7,,,,,,,,,wg-a,,,,AAXX 20184 07460 12665 73404 10190 20130 39708 40085 53005 60006 8227/ 91800 333 10227 20100=
07460,1997-10-20 21:00:00,16,1008.3,-0.6,82,13,15000,0,,,0,,,,,,,,,,,wg-a,,,,AAXX 20214 07460 12665 70000 10160 20130 39702 40083 58006 60006 8227/ 92100=
07460,1997-10-21 00:00:00,14,1008.3,-0.2,88,12,15000,3.704,,,280,,,,,,,,,,,wg-a,,,,AAXX 21004 07460 12665 72802 10140 20120 39700 40083 57002 60006 8227/ 90000=
07460,1997-10-21 03:00:00,14,1008,-0.4,94,13,11000,3.704,,,50,,,,,,,,,,,wg-a,,,,AAXX 21034 07460 32/61 /0502 10140 20130 39697 40080 55004 90300=
07460,1997-10-21 06:00:00,13,1007.9,-0.2,100,13,4000,3.704,,,50,12.7,18.5,,,,,,,,10,wg-a,,,,AAXX 21064 07460 02540 70502 10130 20130 39695 40079 58002 61000 71086 8527/ 90600 333 10185 20127 6000=
07460,1997-10-21 09:00:00,14,1008.9,1.1,100,14,3500,0,,,0,,,,0,,,,,,10,wg-a,,,,AAXX 21094 07460 12535 70000 10140 20140 39706 40089 51011 60007 71052 8487/ 90900=
07460,1997-10-21 12:00:00,17,1008.4,-0.2,88,15,500,3.704,,,350,,,,,,,,,,1,wg-a,,,,AAXX 21124 07460 12400 73502 10170 20150 39705 40084 58002 60006 70152 8483/ 91200=
07460,1997-10-21 15:00:00,17,1008.8,0.5,82,14,7000,14.816,,,10,,,,,,,,,,,wg-a,,,,AAXX 21154 07460 12457 70108 10170 20140 39709 40088 51005 60006 8687/ 91500=
07460,1997-10-21 18:00:00,15,1010.6,1.4,88,13,6000,3.704,,,350,13.2,18.5,,,,,,,,,wg-a,,,,AAXX 21184 07460 12456 73502 10150 20130 39723 40106 51014 60006 8453/ 91800 333 10185 20132=
07460,1997-10-21 21:00:00,14,1011.4,0.6,88,12,6000,7.408,,,20,,,,,,,,,,,wg-a,,,,AAXX 21214 07460 12356 70204 10140 20120 39729 40114 53006 60006 875// 92100=
07460,1997-10-22 00:00:00,13,1011.1,-0.3,88,11,6000,3.704,,,40,,,,,,,,,,,wg-a,,,,AAXX 22004 07460 12256 70402 10130 20110 39726 40111 56003 60006 875// 90000=
07460,1997-10-22 03:00:00,13,1010.6,-0.6,88,11,7000,0,,,0,,,,,,,,,,,wg-a,,,,AAXX 22034 07460 12357 70000 10130 20110 39720 40106 56006 60006 875// 90300=
07460,1997-10-22 06:00:00,13,1010.2,-0.5,88,11,7000,0,,,0,12.5,15,,,,,,,,,wg-a,,,,AAXX 22064 07460 02357 70000 10130 20110 39716 40102 58005 60006 875// 90600 333 10150 20125 60004=
07460,1997-10-22 09:00:00,14,1010.3,0.3,88,12,7000,3.704,,,100,,,,,,,,,,,wg-a,,,,AAXX 22094 07460 12457 71002 10140 20120 39719 40103 50003 60006 875// 90900=
07460,1997-10-22 12:00:00,20,1008,-1.4,68,14,9000,3.704,,,180,,,,,,,,,,,wg-a,,,,AAXX 22124 07460 12459 61802 10200 20140 39705 40080 58014 60006 82231 91200=
07460,1997-10-22 15:00:00,18,1008,-0.3,77,14,8000,7.408,,,20,,,,,,,,,,,wg-a,,,,AAXX 22154 07460 12358 70204 10180 20140 39702 40080 57003 60006 83532 91500=
07460,1997-10-22 18:00:00,16,1009.2,0.9,82,13,8000,3.704,,,360,12.6,20.4,,,,,,,,,wg-a,,,,AAXX 22184 07460 12658 73602 10160 20130 39711 40092 53009 60006 83532 91800 333 10204 20126=
07460,1997-10-22 21:00:00,14,1010.3,0.8,94,13,8000,0,,,0,,,,,,,,,,60,wg-a,,,,AAXX 22214 07460 02558 70000 10140 20130 39719 40103 52008 61000 76062 8187/ 92100 333 ////=
07460,1997-10-23 00:00:00,14,1010.2,-0.2,94,13,4500,0,,,0,,,,1,,,,,,21,wg-a,,,,AAXX 23004 07460 02545 70000 10140 20130 39718 40102 58002 60016 72162 8357/ 90000 333 60017=
07460,1997-10-23 03:00:00,14,1009.8,-0.3,94,13,4500,0,,,0,,,,0,,,,,,10,wg-a,,,,AAXX 23034 07460 12445 80000 10140 20130 39714 40098 58003 60007 71062 875// 90300=
07460,1997-10-23 06:00:00,13,1009.7,-0.2,94,12,2000,3.704,,,10,12.9,16,,,,,,,,10,wg-a,,,,AAXX 23064 07460 02120 80102 10130 20120 39712 40097 56002 61000 71062 875// 90600 333 10160 20129 6003=
07460,1997-10-23 09:00:00,13,1010.6,0.9,100,13,4000,3.704,,,50,,,,,,,,,,10,wg-a,,,,AAXX 23094 07460 12240 80502 10130 20130 39721 40106 51009 60006 71042 875// 90900=
07460,1997-10-23 12:00:00,15,1010.1,-0.3,88,13,500,3.704,,,320,,,,0,,,,,,1,wg-a,,,,AAXX 23124 07460 02300 83202 10150 20130 39718 40101 58003 60006 70142 875// 91200 333 60007=
07460,1997-10-23 18:00:00,14,1011.3,1.4,88,12,500,11.112,,,10,12.6,16.3,,,,,,,,,wg-a,,,,AAXX 23184 07460 12400 80106 10140 20120 39729 40113 53014 60006 875// 91800 333 10163 20126=
07460,1997-10-24 00:00:00,12,1013.7,0.8,94,11,9000,3.704,,,30,,,,,,,,,,,wg-a,,,,AAXX 24004 07460 12459 70302 10120 20110 39749 40137 51008 60006 875// 90000=
07460,1997-10-24 03:00:00,11,1014.9,0.9,94,10,500,11.112,,,30,,,,,,,,,,,wg-a,,,,AAXX 24034 07460 12200 80306 10110 20100 39758 40149 51009 60006 885// 90300=
07460,1997-10-24 06:00:00,7,1017.6,2.2,93,6,500,14.816,,,20,7.2,14.3,,,,,,,,,wg-a,,,,AAXX 24064 07460 02200 70208 10070 20060 39779 40176 53022 60006 876// 90600 333 10143 20072 60004=
07460,1997-10-24 09:00:00,7,1020.2,2.3,70,2,20000,22.224,,,350,,,,,,,,,,,wg-a,,,,AAXX 24094 07460 12470 /3512 10070 20020 39803 40202 51023 60006 81100 90900=
07460,1997-10-24 12:00:00,10,1020.1,0.3,57,2,40000,18.52,,,360,,,,,,,,,,,wg-a,,,,AAXX 24124 07460 12682 /3610 10100 20020 39806 40201 50003 60006 81100 91200=
07460,1997-10-24 15:00:00,11,1020.5,0.6,54,2,25000,18.52,,,20,,,,,,,,,,,wg-a,,,,AAXX 24154 07460 12/75 10210 10110 20020 39812 40205 53006 60006 80001 91500=
07460,1997-10-24 18:00:00,9,1022.5,1.6,66,3,15000,7.408,,,350,5.9,10.9,,,,,,,,,wg-a,,,,AAXX 24184 07460 12665 /3504 10090 20030 39828 40225 53016 60006 85501 91800 333 10109 20059=
07460,1997-10-24 21:00:00,7,1024,1,70,2,15000,11.112,,,340,,,,,,,,,,,wg-a,,,,AAXX 24214 07460 12665 33406 10070 20020 39839 40240 51010 60006 82501 92100=
07460,1997-10-25 00:00:00,4,1024.7,0.4,81,1,15000,3.704,,,120,,,,,,,,,,,wg-a,,,,AAXX 25004 07460 12665 /1202 10040 20010 39843 40247 52004 60006 81501 90000=
07460,1997-10-25 03:00:00,2,1025.6,0.5,87,0,15000,3.704,,,330,,,,,,,,,,,wg-a,,,,AAXX 25034 07460 12/65 13302 10020 20000 39848 40256 51005 60006 80001 90300=
07460,1997-10-25 06:00:00,-2,1027.1,0.9,93,-3,15000,0,,,0,-2,8.9,,,,,,,,,wg-a,,,,AAXX 25064 07460 02/65 00000 11020 21030 39857 40271 51009 60006 80000 90600 333 10089 21020 60004=
07460,1997-10-25 09:00:00,3,1027.7,1.2,87,1,4500,3.704,,,50,,,,,,,,,,10,wg-a,,,,AAXX 25094 07460 12345 /0502 10030 20010 39869 40277 51012 60006 71000 81600 90900=
07460,1997-10-25 12:00:00,8,1025.9,-0.9,66,2,20000,3.704,,,30,,,,,,,,,,,wg-a,,,,AAXX 25124 07460 12/70 00302 10080 20020 39860 40259 58009 60006 80000 91200=
07460,1997-10-25 15:00:00,11,1024.6,-0.9,54,2,15000,3.704,,,10,,,,,,,,,,,wg-a,,,,AAXX 25154 07460 12/65 00102 10110 20020 39851 40246 56009 60006 80000 91500=
07460,1997-10-25 18:00:00,6,1025.8,0.5,70,1,10000,7.408,,,300,-2.7,11.4,,,,,,,,,wg-a,,,,AAXX 25184 07460 12/60 13004 10060 20010 39856 40258 53005 60006 80001 91800 333 10114 21027=
07460,1997-10-25 21:00:00,1,1026.7,0.1,80,-2,15000,7.408,,,250,,,,,,,,,,,wg-a,,,,AAXX 25214 07460 12/65 02504 10010 21020 39857 40267 52001 60006 80000 92100=
07460,1997-10-26 00:00:00,2,1026.1,-0.4,87,0,15000,0,,,0,,,,,,,,,,,wg-a,,,,AAXX 26004 07460 12/65 00000 10020 20000 39853 40261 58004 60006 80000 90000=
07460,1997-10-26 03:00:00,0,1025.7,-0.6,86,-2,10000,7.408,,,340,,,,,,,,,,,wg-a,,,,AAXX 26034 07460 12/60 03404 10000 21020 39846 40257 58006 60006 80000 90300=
07460,1997-10-26 06:00:00,-3,1025.8,-0.3,93,-4,15000,3.704,,,290,-3,6.2,,,,,,,,,wg-a,,,,AAXX 26064 07460 02/65 12902 11030 21040 39843 40258 56003 60006 80001 90600 333 10062 21030 60004=
07460,1997-10-26 09:00:00,5,1024.3,-0.2,81,2,10000,3.704,,,160,,,,,,,,,,,wg-a,,,,AAXX 26094 07460 12/60 11602 10050 20020 39841 40243 58002 60006 80001 90900=
07460,1997-10-26 12:00:00,12,1022.1,-1.2,50,2,12000,7.408,,,30,,,,,,,,,,,wg-a,,,,AAXX 26124 07460 12/62 00304 10120 20020 39829 40221 58012 60006 80000 91200=
07460,1997-10-26 15:00:00,14,1020.2,-1.5,47,3,12000,7.408,,,360,,,,,,,,,,,wg-a,,,,AAXX 26154 07460 12/62 03604 10140 20030 39814 40202 56015 60006 80000 91500=
07460,1997-10-26 18:00:00,8,1021.5,0.3,66,2,10000,3.704,,,320,-3.3,14.4,,,,,,,,,wg-a,,,,AAXX 26184 07460 12/60 03202 10080 20020 39818 40215 53003 60006 80000 91800 333 10144 21033=
07460,1997-10-26 21:00:00,2,1022.6,0.2,80,-1,10000,3.704,,,290,,,,,,,,,,,wg-a,,,,AAXX 26214 07460 12/60 02902 10020 21010 39820 40226 53002 60006 80000 92100=
07460,1997-10-27 00:00:00,2,1021.7,-1,87,0,10000,3.704,,,340,,,,,,,,,,,wg-a,,,,AAXX 27004 07460 12/60 03402 10020 20000 39810 40217 56010 60006 80000 90000=
07460,1997-10-27 03:00:00,-1,1021.5,-0.5,100,-1,10000,3.704,,,10,,,,,,,,,,,wg-a,,,,AAXX 27034 07460 12/60 00102 11010 21010 39805 40215 58005 60006 80000 90300=
07460,1997-10-27 06:00:00,-3,1021.4,-0.4,100,-3,400,0,,,0,-3.3,8.1,,,,,,,,10,wg-a,,,,AAXX 27064 07460 02/04 20000 11030 21030 39801 40214 58004 60006 71040 80002 90600 333 10081 21033 60004=
07460,1997-10-27 09:00:00,4,1021,0.6,93,3,500,3.704,,,70,,,,,,,,,,1,wg-a,,,,AAXX 27094 07460 12/00 20702 10040 20030 39807 40210 50006 60006 70140 80002 90900=
07460,1997-10-27 12:00:00,10,1018.9,-1.2,62,3,9000,7.408,,,20,,,,,,,,,,2,wg-a,,,,AAXX 27124 07460 12/59 00204 10100 20030 39836 40189 58012 60006 70240 80000 91200=
07460,1997-10-27 18:00:00,8,1018.9,0.7,76,4,15000,7.408,,,310,,,,,,,,,,,wg-a,,,,AAXX 27184 07460 12/65 03104 10080 20040 39794 40189 53007 60006 80000 91800=
07460,1997-10-27 21:00:00,5,1019.8,0.3,81,2,15000,3.704,,,320,,,,,,,,,,,wg-a,,,,AAXX 27214 07460 12/65 03202 10050 20020 39797 40198 52003 60006 80000 92100=
07460,1997-10-28 00:00:00,4,1019.9,-0.1,87,2,12000,7.408,,,320,,,,,,,,,,,wg-a,,,,AAXX 28004 07460 12/62 13204 10040 20020 39796 40199 55001 60006 80001 90000=
07460,1997-10-28 03:00:00,3,1019.8,-0.2,87,1,9000,7.408,,,320,,,,,,,,,,,wg-a,,,,AAXX 28034 07460 12459 33204 10030 20010 39794 40198 58002 60006 81601 90300=
07460,1997-10-28 06:00:00,2,1020.2,0.3,87,0,8000,11.112,,,350,2.1,8.4,,,,,,,,,wg-a,,,,AAXX 28064 07460 02358 73506 10020 20000 39797 40202 51003 60006 876// 90600 333 10084 20021 60004=
07460,1997-10-28 12:00:00,3,1022.7,0.8,70,-2,10000,14.816,,,350,,,,,,,,,,,wg-a,,,,AAXX 28124 07460 12460 83508 10030 21020 39821 40227 51008 60006 885// 91200=
07460,1997-10-28 15:00:00,3,1024.1,1.4,70,-2,10000,18.52,,,10,,,,,,,,,,,wg-a,,,,AAXX 28154 07460 12560 80110 10030 21020 39835 40241 53014 60006 885// 91500=
07460,1997-10-28 18:00:00,2,1026.6,2.1,69,-3,15000,11.112,,,330,0.7,3.2,,,,,,,,,wg-a,,,,AAXX 28184 07460 12665 23306 10020 21030 39857 40266 53021 60006 82500 91800 333 10032 20007=
07460,1997-10-28 21:00:00,-2,1027.8,0.6,80,-5,15000,0,,,0,,,,,,,,,,,wg-a,,,,AAXX 28214 07460 12665 /0000 11020 21050 39863 40278 51006 60006 81500 92100=
07460,1997-10-29 00:00:00,-6,1029.1,0.7,93,-7,15000,7.408,,,320,,,,,,,,,,,wg-a,,,,AAXX 29004 07460 12/65 03204 11060 21070 39870 40291 51007 60006 80000 90000=
07460,1997-10-29 03:00:00,-7,1029.8,0.5,79,-10,15000,3.704,,,120,,,,,,,,,,,wg-a,,,,AAXX 29034 07460 12/65 01202 11070 21100 39875 40298 52005 60006 80000 90300=
07460,1997-10-29 06:00:00,-9,1031.3,1.1,85,-11,500,0,,,0,-9,1.9,,,,,,,,,wg-a,,,,AAXX 29064 07460 02/00 00000 11090 21110 39886 40313 51011 60006 80000 90600 333 10019 21090 60004=
07460,1997-10-29 09:00:00,-1,1030.9,0.8,69,-6,25000,3.704,,,40,,,,,,,,,,,wg-a,,,,AAXX 29094 07460 12/75 00402 11010 21060 39894 40309 51008 60006 80000 90900=
07460,1997-10-29 12:00:00,4,1029.5,-0.6,56,-4,500,7.408,,,50,,,,,,,,,,,wg-a,,,,AAXX 29124 07460 12/00 00504 10040 21040 39888 40295 58006 60006 80000 91200=
07460,1997-10-29 15:00:00,6,1029.1,-0.1,52,-3,20000,11.112,,,10,,,,,,,,,,,wg-a,,,,AAXX 29154 07460 12/70 00106 10060 21030 39887 40291 55001 60006 80000 91500=
07460,1997-10-29 18:00:00,2,1030.3,0.6,64,-4,10000,7.408,,,310,-9.2,6.1,,,,,,,,,wg-a,,,,AAXX 29184 07460 12/60 03104 10020 21040 39893 40303 53006 60006 80000 91800 333 10061 21092=
07460,1997-10-29 21:00:00,-1,1030.5,-0.2,74,-5,15000,3.704,,,120,,,,,,,,,,,wg-a,,,,AAXX 29214 07460 12/65 01202 11010 21050 39891 40305 55002 60006 80000 92100=
07460,1997-10-30 00:00:00,-4,1030.6,-0.4,86,-6,15000,7.408,,,350,,,,,,,,,,,wg-a,,,,AAXX 30004 07460 12/65 03504 11040 21060 39887 40306 56004 60006 80000 90000=
07460,1997-10-30 03:00:00,-8,1030.2,-1,85,-10,12000,3.704,,,280,,,,,,,,,,,wg-a,,,,AAXX 30034 07460 12/62 02802 11080 21100 39877 40302 57010 60006 80000 90300=
07460,1997-10-30 06:00:00,-8,1029.4,-0.7,92,-9,15000,0,,,0,-7.9,2,,,,,,,,,wg-a,,,,AAXX 30064 07460 02/65 00000 11080 21090 39870 40294 58007 60006 80000 90600 333 10020 21079 60004=
07460,1997-10-30 09:00:00,0,1028.5,0.3,74,-4,10000,3.704,,,250,,,,,,,,,,,wg-a,,,,AAXX 30094 07460 12/60 02502 10000 21040 39873 40285 50003 60006 80000 90900=
07460,1997-10-30 12:00:00,7,1025.8,-1.7,36,-7,20000,7.408,,,20,,,,,,,,,,,wg-a,,,,AAXX 30124 07460 12/70 00204 10070 21070 39856 40258 58017 60006 80000 91200=
07460,1997-10-30 15:00:00,8,1024.5,-1,29,-9,20000,11.112,,,350,,,,,,,,,,,wg-a,,,,AAXX 30154 07460 12/70 13506 10080 21090 39846 40245 56010 60006 80001 91500=
07460,1997-10-30 18:00:00,3,1027,1.6,44,-8,15000,7.408,,,330,-7.9,8.4,,,,,,,,,wg-a,,,,AAXX 30184 07460 12/65 03304 10030 21080 39862 40270 53016 60006 80000 91800 333 10084 21079=
07460,1997-10-30 21:00:00,-2,1028,0.3,63,-8,12000,3.704,,,240,,,,,,,,,,,wg-a,,,,AAXX 30214 07460 12/62 02402 11020 21080 39865 40280 52003 60006 80000 92100=
07460,1997-10-31 00:00:00,-5,1028.1,-0.5,73,-9,12000,3.704,,,350,,,,,,,,,,,wg-a,,,,AAXX 31004 07460 12/62 03502 11050 21090 39861 40281 56005 60006 80000 90000=
07460,1997-10-31 03:00:00,-6,1027.8,-0.4,79,-9,15000,3.704,,,310,,,,,,,,,,,wg-a,,,,AAXX 31034 07460 12/65 03102 11060 21090 39857 40278 56004 60006 80000 90300=
07460,1997-10-31 06:00:00,-8,1028.6,0.6,92,-9,15000,0,,,0,-8,2.8,,,,,,,,,wg-a,,,,AAXX 31064 07460 02/65 00000 11080 21090 39862 40286 51006 60006 80000 90600 333 10028 21080 60004=
07460,1997-10-31 12:00:00,7,1025.2,-1.3,42,-5,25000,3.704,,,10,,,,,,,,,,,wg-a,,,,AAXX 31124 07460 12/75 10102 10070 21050 39852 40252 58013 60006 80001 91200=
07460,1997-10-31 15:00:00,8,1023.8,-1.1,42,-4,25000,3.704,,,360,,,,,,,,,,,wg-a,,,,AAXX 31154 07460 12/75 13602 10080 21040 39840 40238 56011 60006 80001 91500=
07460,1997-10-31 18:00:00,4,1025.5,1,60,-3,15000,3.704,,,320,-7.8,9.4,,,,,,,,,wg-a,,,,AAXX 31184 07460 12/65 13202 10040 21030 39850 40255 53010 60006 80001 91800 333 10094 21078=
07460,1997-10-31 21:00:00,-2,1025.9,-0.5,80,-5,15000,3.704,,,150,,,,,,,,,,,wg-a,,,,AAXX 31214 07460 12/65 11502 11020 21050 39845 40259 57005 60006 80001 92100=
07460,1997-11-01 00:00:00,-3,1025.4,-0.5,86,-5,14000,3.704,,,360,,,,,,,,,,,wg-a,,,,AAXX 01004 07460 12/64 13602 11030 21050 39839 40254 56005 60006 80001 90000=
07460,1997-11-01 03:00:00,-4,1024.5,-1.2,86,-6,12000,7.408,,,350,,,,,,,,,,,wg-a,,,,AAXX 01034 07460 12/62 13504 11040 21060 39828 40245 58012 60006 80001 90300=
07460,1997-11-01 06:00:00,-4,1024.1,-0.3,86,-6,15000,3.704,,,300,-5,3.8,,,,,,,,,wg-a,,,,AAXX 01064 07460 02/65 13002 11040 21060 39825 40241 58003 60006 80001 90600 333 10038 21050 60004=
07460,1997-11-01 09:00:00,1,1024.2,0.8,75,-3,15000,7.408,,,210,,,,,,,,,,,wg-a,,,,AAXX 01094 07460 12/65 22104 10010 21030 39833 40242 50008 60006 80001 90900=
07460,1997-11-01 12:00:00,7,1021.9,-1.3,53,-2,18000,3.704,,,90,,,,,,,,,,,wg-a,,,,AAXX 01124 07460 12/68 20902 10070 21020 39820 40219 58013 60006 80001 91200=
07460,1997-11-01 15:00:00,9,1020.9,-0.8,43,-3,12000,3.704,,,350,,,,,,,,,,,wg-a,,,,AAXX 01154 07460 12/62 53502 10090 21030 39812 40209 56008 60006 80001 91500=
07460,1997-11-01 18:00:00,2,1022.2,0.3,55,-6,12000,0,,,0,-4.6,8.7,,,,,,,,,wg-a,,,,AAXX 01184 07460 12/62 40000 10020 21060 39815 40222 53003 60006 80001 91800 333 10087 21046=
07460,1997-11-01 21:00:00,-1,1022.5,-0.1,80,-4,12000,3.704,,,300,,,,,,,,,,,wg-a,,,,AAXX 01214 07460 12/62 03002 11010 21040 39814 40225 55001 60006 80000 92100=
07460,1997-11-02 00:00:00,-2,1022.6,-0.1,86,-4,12000,7.408,,,280,,,,,,,,,,,wg-a,,,,AAXX 02004 07460 12/62 02804 11020 21040 39813 40226 58001 60006 80000 90000=
07460,1997-11-02 03:00:00,-2,1021.4,-1.1,86,-4,15000,3.704,,,320,,,,,,,,,,,wg-a,,,,AAXX 02034 07460 12/65 03202 11020 21040 39802 40214 58011 60006 80000 90300=
07460,1997-11-02 06:00:00,-2,1020.7,-0.7,80,-5,500,3.704,,,20,-4.3,1.6,,,,,,,,,wg-a,,,,AAXX 02064 07460 02/00 00202 11020 21050 39795 40207 57007 60006 80000 90600 333 10016 21043 60004=
07460,1997-11-02 12:00:00,11,1016.7,-2,37,-3,500,3.704,,,60,,,,,,,,,,,wg-a,,,,AAXX 02124 07460 12/00 00602 10110 21030 39776 40167 58020 60006 80000 91200=
07460,1997-11-02 15:00:00,13,1014.6,-1.7,35,-2,20000,7.408,,,350,,,,,,,,,,,wg-a,,,,AAXX 02154 07460 12/70 13504 10130 21020 39758 40146 56017 60006 80001 91500=
07460,1997-11-02 18:00:00,5,1015.9,-0,52,-4,20000,3.704,,,200,-3.1,13.6,,,,,,,,,wg-a,,,,AAXX 02184 07460 12/70 12002 10050 21040 39758 40159 55000 60006 80001 91800 333 10136 21031=
07460,1997-11-02 21:00:00,3,1016.1,0.1,65,-3,12000,3.704,,,320,,,,,,,,,,,wg-a,,,,AAXX 02214 07460 12/62 03202 10030 21030 39759 40161 53001 60006 80000 92100=
07460,1997-11-03 00:00:00,0,1016,-0.6,80,-3,12000,0,,,0,,,,,,,,,,,wg-a,,,,AAXX 03004 07460 12/62 00000 10000 21030 39753 40160 58006 60006 80000 90000=
07460,1997-11-03 06:00:00,-3,1014.6,-0.4,93,-4,15000,3.704,,,330,-2.8,4.6,,,,,,,,,wg-a,,,,AAXX 03064 07460 02665 43302 11030 21040 39736 40146 56004 60006 83501 90600 333 10046 21028 60004=
07460,1997-11-03 12:00:00,17,1008.9,-2,55,8,25000,18.52,,,180,,,,,,,,,,,wg-a,,,,AAXX 03124 07460 12675 71810 10170 20080 39709 40089 58020 60006 87800 91200=
07460,1997-11-03 15:00:00,17,1007.1,-1.7,52,7,500,22.224,,,170,,,,,,,,,,,wg-a,,,,AAXX 03154 07460 12600 41712 10170 20070 39692 40071 56017 60006 84800 91500=
07460,1997-11-03 18:00:00,15,1007.3,-0.1,59,7,15000,14.816,,,160,-2.5,19.2,,,,,,,,,wg-a,,,,AAXX 03184 07460 12765 71608 10150 20070 39691 40073 56001 60006 875// 91800 333 10192 21025=
07460,1997-11-03 21:00:00,15,1007.2,-0.2,59,7,15000,11.112,,,170,,,,,,,,,,,wg-a,,,,AAXX 03214 07460 12665 71706 10150 20070 39689 40072 55002 60006 875// 92100=
07460,1997-11-04 00:00:00,14,1006.2,-1,67,8,15000,11.112,,,180,,,,,,,,,,,wg-a,,,,AAXX 04004 07460 12665 61806 10140 20080 39679 40062 57010 60006 83530 90000=
07460,1997-11-04 03:00:00,12,1005.9,-0.5,88,10,15000,14.816,,,190,,,,1,,,,,,61,wg-a,,,,AAXX 04034 07460 12665 71908 10120 20100 39674 40059 57005 60017 76162 8453/ 90300=
07460,1997-11-04 06:00:00,13,1005.6,-0.2,82,10,20000,14.816,,,180,11.8,15.1,,,,,1,,,3,wg-a,,,,AAXX 04064 07460 02670 71808 10130 20100 39672 40056 56002 60006 70362 8683/ 90600 333 10151 20118 60014=
07460,1997-11-04 12:00:00,19,1005.8,0,52,9,50000,38.892,,,170,,,,,,,,,,,wg-a,,,,AAXX 04124 07460 12684 61721 10190 20090 39682 40058 50000 60006 81831 91200=
07460,1997-11-04 18:00:00,15,1007.4,0.6,59,7,20000,31.484,,,170,12.7,19.5,,,,,,,,,wg-a,,,,AAXX 04184 07460 12770 71717 10150 20070 39691 40074 53006 60006 81832 91800 333 10195 20127=
07460,1997-11-04 21:00:00,12,1008.8,1,88,10,13000,11.112,,,210,,,,1,,,,,,61,wg-a,,,,AAXX 04214 07460 12663 72106 10120 20100 39701 40088 53010 60017 76162 8457/ 92100=
07460,1997-11-05 00:00:00,11,1008.3,-0.6,94,10,14000,7.408,,,210,,,,5,,,,,,21,wg-a,,,,AAXX 05004 07460 02664 72104 10110 20100 39695 40083 56006 60066 72162 82532 90000 333 60057=
07460,1997-11-05 03:00:00,11,1008,-0.2,94,10,11000,7.408,,,160,,,,,,,,,,,wg-a,,,,AAXX 05034 07460 32/61 /1604 10110 20100 39693 40080 58002 90300=
07460,1997-11-05 06:00:00,11,1006.2,-1.8,94,10,13000,14.816,,,180,10.8,14.7,,,,,,,,80,wg-a,,,,AAXX 05064 07460 02463 71808 10110 20100 39675 40062 57018 61000 78086 8287/ 90600 333 10147 20108 6012=
07460,1997-11-05 12:00:00,16,1001.5,-3.1,72,11,40000,25.928,,,170,,,,,,,,,,3,wg-a,,,,AAXX 05124 07460 12582 71714 10160 20110 39637 40015 58031 60006 70386 8183/ 91200=
07460,1997-11-05 15:00:00,15,998.6,-2.9,77,11,40000,25.928,,,160,,,,,,,,,,,wg-a,,,,AAXX 05154 07460 12582 71614 10150 20110 39608 49986 56029 60006 8487/ 91500=
07460,1997-11-05 18:00:00,14,995.9,-2.7,82,11,20000,11.112,,,160,10.8,16.6,,,,,,,,,wg-a,,,,AAXX 05184 07460 12570 /1606 10140 20110 39581 49959 58027 60006 84872 91800 333 10166 20108=
07460,1997-11-05 21:00:00,16,995,-0.6,68,10,20000,31.484,,,190,,,,,,,,,,,wg-a,,,,AAXX 05214 07460 12570 /1917 10160 20100 39574 49950 56006 60006 84872 92100=
07460,1997-11-06 00:00:00,17,993.1,-1.8,72,12,20000,14.816,,,180,,,,,,,,,,,wg-a,,,,AAXX 06004 07460 12570 /1808 10170 20120 39557 49931 56018 60006 84872 90000=
07460,1997-11-06 03:00:00,13,990.3,-3.2,94,12,10000,3.704,,,50,,,,1,,,,,,,wg-a,,,,AAXX 06034 07460 12560 70502 10130 20120 39525 49903 58032 60017 878// 90300=
07460,1997-11-06 06:00:00,12,989.5,-0.9,94,11,6000,7.408,,,330,12,17.2,,,,,,,,80,wg-a,,,,AAXX 06064 07460 02256 73304 10120 20110 39516 49895 55009 61000 78086 878// 90600 333 10172 20120 6002=
07460,1997-11-06 09:00:00,12,990.3,0.9,94,11,7000,7.408,,,10,,,,1,,,,,,60,wg-a,,,,AAXX 06094 07460 12157 80104 10120 20110 39523 49903 50009 60017 76086 8677/ 90900=
07460,1997-11-06 12:00:00,12,987,-3.4,94,11,6000,11.112,,,10,,,,0,,,,,,21,wg-a,,,,AAXX 06124 07460 02256 80106 10120 20110 39492 49870 57034 60016 72186 877// 91200 333 60007=
07460,1997-11-06 15:00:00,13,983.2,-3.4,100,13,500,11.112,,,30,,,,4,,,,,,21,wg-a,,,,AAXX 06154 07460 12200 70306 10130 20130 39457 49832 56034 60047 72162 84572 91500=
07460,1997-11-06 18:00:00,14,986.5,3.2,82,11,12000,25.928,,,220,11.5,18,,,,,,,,61,wg-a,,,,AAXX 06184 07460 02562 72214 10140 20110 39489 49865 53032 61000 76162 8483/ 91800 333 10180 20115 6001=
07460,1997-11-06 21:00:00,12,988.8,2,82,9,1200,18.52,,,250,,,,,,,,,,,wg-a,,,,AAXX 06214 07460 32/12 /2510 10120 20090 39509 49888 51020 92100=
07460,1997-11-07 00:00:00,10,993.4,4.1,82,7,10000,14.816,,,310,,,,8,,,,,,61,wg-a,,,,AAXX 07004 07460 02460 73108 10100 20070 39550 49934 51041 60086 76162 8683/ 90000 333 60087=
07460,1997-11-07 03:00:00,9,996.7,3,81,6,15000,11.112,,,200,,,,0,,,,,,2,wg-a,,,,AAXX 07034 07460 12465 72006 10090 20060 39580 49967 51030 60007 70262 8383/ 90300=
07460,1997-11-07 06:00:00,9,999,2.3,81,6,15000,18.52,,,160,8,13.9,,,,,14,,,1,wg-a,,,,AAXX 07064 07460 02565 71610 10090 20060 39603 49990 53023 60006 70162 82832 90600 333 10139 20080 60144=
07460,1997-11-07 09:00:00,11,1000.6,1.7,76,7,500,25.928,,,170,,,,,,,,,,,wg-a,,,,AAXX 07094 07460 12600 71714 10110 20070 39620 40006 51017 60006 82832 90900=
07460,1997-11-07 12:00:00,15,998.7,-1.1,51,5,500,22.224,,,190,,,,,,,,,,,wg-a,,,,AAXX 07124 07460 12600 31912 10150 20050 39608 49987 58011 60006 81102 91200=
07460,1997-11-07 15:00:00,15,997.8,-1,51,5,500,22.224,,,180,,,,,,,,,,,wg-a,,,,AAXX 07154 07460 12600 /1812 10150 20050 39599 49978 56010 60006 81101 91500=
07460,1997-11-07 18:00:00,11,998.7,0.4,66,5,20000,14.816,,,170,8.2,16.3,,,,,,,,,wg-a,,,,AAXX 07184 07460 12/70 11708 10110 20050 39602 49987 51004 60006 80001 91800 333 10163 20082=
07460,1997-11-08 00:00:00,10,998.2,-0.4,71,5,20000,29.632,,,180,,,,,,,,,,,wg-a,,,,AAXX 08004 07460 12770 71816 10100 20050 39597 49982 56004 60006 8257/ 90000=
07460,1997-11-08 06:00:00,11,1002.5,2.5,71,6,12000,18.52,,,230,8.5,11.9,,,,,,,,25,wg-a,,,,AAXX 08064 07460 02662 62310 10110 20060 39639 40025 53025 61000 72586 86870 90600 333 10119 20085 6100=
07460,1997-11-08 09:00:00,12,1004.6,2.2,62,5,12000,29.632,,,230,,,,,,,,,,1,wg-a,,,,AAXX 08094 07460 12662 62316 10120 20050 39661 40046 51022 60006 70186 85872 90900=
07460,1997-11-08 12:00:00,13,1005.2,0.7,54,4,60000,11.112,,,250,,,,,,,,,,1,wg-a,,,,AAXX 08124 07460 12686 42506 10130 20040 39668 40052 50007 60006 70186 83872 91200=
07460,1997-11-08 15:00:00,13,1004.6,-0.6,51,3,60000,18.52,,,220,,,,,,,,,,,wg-a,,,,AAXX 08154 07460 12686 22210 10130 20030 39662 40046 55006 60006 82800 91500=
07460,1997-11-08 18:00:00,11,1003.3,-1.5,66,5,20000,29.632,,,180,10.1,14.2,,,,,,,,,wg-a,,,,AAXX 08184 07460 12670 /1816 10110 20050 39647 40033 56015 60006 82802 91800 333 10142 20101=
07460,1997-11-08 21:00:00,11,1001.3,-1.8,66,5,15000,29.632,,,190,,,,,,,,,,,wg-a,,,,AAXX 08214 07460 12665 51916 10110 20050 39628 40013 56018 60006 83832 92100=
07460,1997-11-09 00:00:00,11,1000.8,-0.3,66,5,15000,18.52,,,160,,,,,,,,,,,wg-a,,,,AAXX 09004 07460 12665 71610 10110 20050 39623 40008 55003 60006 8487/ 90000=
07460,1997-11-09 03:00:00,10,1000.5,-0.6,82,7,15000,14.816,,,160,,,,1,,,,,,21,wg-a,,,,AAXX 09034 07460 12565 71608 10100 20070 39618 40005 58006 60017 72162 8587/ 90300=
07460,1997-11-09 09:00:00,11,1002.6,-0,62,4,15000,22.224,,,200,,,,,,,,,,15,wg-a,,,,AAXX 09094 07460 02665 22012 10110 20040 39640 40026 55000 61000 71586 82802 90900 333 ////=
07460,1997-11-09 12:00:00,13,1002.6,0.2,54,4,10000,38.892,,62.968,250,,,,,,,,,,15,wg-a,,,,AAXX 09124 07460 02660 42521 10130 20040 39642 40026 53002 61000 71586 83802 91200 333 //// 91034=
07460,1997-11-09 15:00:00,11,1002.6,-0.1,58,3,15000,38.892,,59.264,240,,,,,,,,,,15,wg-a,,,,AAXX 09154 07460 12665 72421 10110 20030 39641 40026 55001 60006 71511 82802 91500 333 91032=
07460,1997-11-10 06:00:00,9,1004.5,-1.5,71,4,15000,25.928,,,170,7.6,10.1,,,,,,,,,wg-a,,,,AAXX 10064 07460 02665 41714 10090 20040 39655 40045 56015 60006 83830 90600 333 10101 20076 61000=
07460,1997-11-10 09:00:00,10,1004.1,-0.2,76,6,25000,22.224,,,190,,,,,,,,,,,wg-a,,,,AAXX 10094 07460 12675 /1912 10100 20060 39653 40041 58002 60006 85231 90900=
07460,1997-11-10 12:00:00,10,1004.2,0.2,66,4,9000,18.52,,,230,,,,0,,,,,,25,wg-a,,,,AAXX 10124 07460 02559 72310 10100 20040 39654 40042 53002 60006 72586 8623/ 91200 333 60007=
07460,1997-11-10 15:00:00,11,1003.4,-0.6,58,3,11000,42.596,,,250,,,,,,,,,,15,wg-a,,,,AAXX 10154 07460 12661 62523 10110 20030 39647 40034 56006 60006 71522 84231 91500=
07460,1997-11-10 18:00:00,7,1005.4,1.4,76,3,15000,14.816,,,180,6.8,12.7,,,,,,,,1,wg-a,,,,AAXX 10184 07460 02565 51808 10070 20030 39662 40054 51014 60006 70186 82231 91800 333 10127 20068 61000=
07460,1997-11-11 00:00:00,6,1004.2,-1.3,75,2,20000,31.484,,,180,,,,,,,,,,,wg-a,,,,AAXX 11004 07460 12670 51817 10060 20020 39648 40042 56013 60006 81231 90000=
07460,1997-11-11 03:00:00,6,1002,-2,75,2,15000,22.224,,,190,,,,,,,,,,,wg-a,,,,AAXX 11034 07460 12665 71912 10060 20020 39628 40020 56020 60006 85231 90300=
07460,1997-11-11 06:00:00,6,1000.7,-1.3,81,3,20000,18.52,,,170,5.3,7.8,,,,,,,,1,wg-a,,,,AAXX 11064 07460 02570 /1710 10060 20030 39615 40007 58013 60006 70186 82831 90600 333 10078 20053 60004=
07460,1997-11-11 12:00:00,12,998.4,-1.3,62,5,500,22.224,,,170,,,,,,,,,,,wg-a,,,,AAXX 11124 07460 12600 81712 10120 20050 39601 49984 58013 60006 8227/ 91200=
07460,1997-11-11 15:00:00,10,997.1,-1.5,82,7,15000,22.224,,,180,,,,0,,,,,,60,wg-a,,,,AAXX 11154 07460 12665 81812 10100 20070 39586 49971 56015 60007 76062 8387/ 91500=
07460,1997-11-11 18:00:00,9,997.5,0.3,71,4,15000,3.704,,,40,6.4,12.3,,,,,,,,60,wg-a,,,,AAXX 11184 07460 02665 80402 10090 20040 39588 49975 53003 61000 76086 8587/ 91800 333 10123 20064 6000=
07460,1997-11-11 21:00:00,7,998.6,0.8,81,4,25000,3.704,,,40,,,,,,,,,,2,wg-a,,,,AAXX 11214 07460 02675 70402 10070 20040 39597 49986 53008 61000 70286 8557/ 92100 333 ////=
07460,1997-11-12 00:00:00,7,998.4,-0.2,81,4,20000,7.408,,,90,,,,,,,,,,,wg-a,,,,AAXX 12004 07460 02570 70904 10070 20040 39595 49984 55002 61000 875// 90000 333 ////=
07460,1997-11-12 03:00:00,7,999,0.4,81,4,20000,3.704,,,280,,,,,,,,,,,wg-a,,,,AAXX 12034 07460 12570 72802 10070 20040 39600 49990 50004 60006 875// 90300=
07460,1997-11-12 06:00:00,6,999.9,0.8,87,4,20000,3.704,,,160,5.3,8.7,,,,,1,,,,wg-a,,,,AAXX 12064 07460 02670 71602 10060 20040 39607 49999 53008 60006 8557/ 90600 333 10087 20053 60014=
07460,1997-11-12 09:00:00,8,1001.4,1.7,81,5,500,3.704,,,110,,,,,,,,,,,wg-a,,,,AAXX 12094 07460 12600 71102 10080 20050 39624 40014 53017 60006 878// 90900=
07460,1997-11-12 12:00:00,9,1002.6,1.4,76,5,40000,3.704,,,290,,,,,,,,,,,wg-a,,,,AAXX 12124 07460 12682 72902 10090 20050 39638 40026 51014 60006 878// 91200=
07460,1997-11-12 18:00:00,6,1006.6,2,93,5,12000,7.408,,,100,5.7,9.8,,,,,,,,25,wg-a,,,,AAXX 12184 07460 02562 71004 10060 20050 39672 40066 53020 61000 72586 86801 91800 333 10098 20057 6000=
07460,1997-11-12 21:00:00,5,1008.4,1.6,93,4,15000,3.704,,,100,,,,,,,,,,1,wg-a,,,,AAXX 12214 07460 02565 51002 10050 20040 39688 40084 51016 61000 70186 84830 92100 333 ////=
07460,1997-11-13 00:00:00,6,1009,0.6,87,4,12000,7.408,,,200,,,,,,,,,,3,wg-a,,,,AAXX 13004 07460 02562 72004 10060 20040 39694 40090 51006 61000 70386 8683/ 90000 333 ////=
07460,1997-11-13 03:00:00,3,1009.1,-0.2,93,2,12000,11.112,,,210,,,,,,,,,,,wg-a,,,,AAXX 13034 07460 12662 32106 10030 20020 39692 40091 58002 60006 83800 90300=
07460,1997-11-13 06:00:00,5,1008.2,-0.6,87,3,15000,18.52,,,190,3,6.9,,,,,,,,,wg-a,,,,AAXX 13064 07460 02665 71910 10050 20030 39686 40082 56006 60006 86801 90600 333 10069 20030 60004=
07460,1997-11-13 09:00:00,8,1008.1,0.3,81,5,500,18.52,,,180,,,,,,,,,,,wg-a,,,,AAXX 13094 07460 12500 51810 10080 20050 39689 40081 50003 60006 85800 90900=
07460,1997-11-13 12:00:00,10,1007,-0.8,62,3,500,7.408,,,210,,,,,,,,,,,wg-a,,,,AAXX 13124 07460 12600 42104 10100 20030 39681 40070 58008 60006 84800 91200=
07460,1997-11-13 15:00:00,10,1006.5,-0.5,66,4,500,3.704,,,40,,,,,,,,,,,wg-a,,,,AAXX 13154 07460 12600 50402 10100 20040 39676 40065 56005 60006 85800 91500=
07460,1997-11-13 18:00:00,8,1008.3,1.4,81,5,15000,7.408,,,10,5.3,10.7,,,,,,,,,wg-a,,,,AAXX 13184 07460 12565 /0104 10080 20050 39690 40083 51014 60006 86800 91800 333 10107 20053=
07460,1997-11-13 21:00:00,7,1009.8,1.5,81,4,15000,0,,,0,,,,,,,,,,,wg-a,,,,AAXX 13214 07460 12565 70000 10070 20040 39704 40098 53015 60006 878// 92100=
07460,1997-11-14 00:00:00,6,1011.1,1,87,4,15000,0,,,0,,,,,,,,,,,wg-a,,,,AAXX 14004 07460 12665 /0000 10060 20040 39715 40111 53010 60006 86500 90000=
07460,1997-11-14 03:00:00,4,1011.9,0.5,100,4,15000,0,,,0,,,,,,,,,,,wg-a,,,,AAXX 14034 07460 12565 70000 10040 20040 39720 40119 50005 60006 875// 90300=
07460,1997-11-14 06:00:00,1,1014,1.6,100,1,20000,0,,,0,1.4,7.5,,,,,,,,,wg-a,,,,AAXX 14064 07460 02570 40000 10010 20010 39736 40140 53016 60006 84500 90600 333 10075 20014 60004=
07460,1997-11-14 09:00:00,4,1016.1,2.4,100,4,15000,0,,,0,,,,,,,,,,,wg-a,,,,AAXX 14094 07460 12465 /0000 10040 20040 39761 40161 51024 60006 86800 90900=
07460,1997-11-14 12:00:00,9,1016,0.5,76,5,20000,0,,,0,,,,,,,,,,,wg-a,,,,AAXX 14124 07460 12570 /0000 10090 20050 39766 40160 50005 60006 86800 91200=
07460,1997-11-14 15:00:00,11,1016,0.1,62,4,25000,0,,,0,,,,,,,,,,,wg-a,,,,AAXX 14154 07460 12675 20000 10110 20040 39768 40160 53001 60006 82801 91500=
07460,1997-11-14 18:00:00,4,1018.7,1.7,81,1,15000,0,,,0,1.6,10.7,,,,,,,,,wg-a,,,,AAXX 14184 07460 12/65 10000 10040 20010 39785 40187 53017 60006 80001 91800 333 10107 20016=
07460,1997-11-14 21:00:00,2,1020.5,1.4,93,1,15000,0,,,0,,,,,,,,,,,wg-a,,,,AAXX 14214 07460 12665 /0000 10020 20010 39799 40205 51014 60006 81501 92100=
07460,1997-11-15 00:00:00,2,1021.7,1.1,87,0,10000,0,,,0,,,,,,,,,,,wg-a,,,,AAXX 15004 07460 12/60 /0000 10020 20000 39810 40217 53011 60006 90000=
07460,1997-11-15 03:00:00,2,1021.8,0.3,93,1,15000,0,,,0,,,,,,,,,,,wg-a,,,,AAXX 15034 07460 12/65 10000 10020 20010 39812 40218 53003 60006 80001 90300=
07460,1997-11-15 06:00:00,2,1022.3,0.5,87,0,25000,0,,,0,0.1,3.9,,,,,,,,,wg-a,,,,AAXX 15064 07460 02675 /0000 10020 20000 39817 40223 51005 60006 81501 90600 333 10039 20001 60004=
07460,1997-11-15 09:00:00,5,1022.8,0.8,81,2,40000,0,,,0,,,,,,,,,,,wg-a,,,,AAXX 15094 07460 12/82 2//// 10050 20020 39826 40228 50008 60006 80001 90900=
07460,1997-11-15 12:00:00,12,1020.6,-1.2,58,4,45000,0,,,0,,,,,,,,,,,wg-a,,,,AAXX 15124 07460 12/83 3//// 10120 20040 39814 40206 57012 60006 80002 91200=
07460,1997-11-15 15:00:00,13,1019.9,-0.5,54,4,45000,0,,,0,,,,,,,,,,,wg-a,,,,AAXX 15154 07460 12/83 7//// 10130 20040 39809 40199 55005 60006 81034 91500=
07460,1997-11-15 18:00:00,8,1020.9,0.3,76,4,40000,0,,,0,1.1,13.9,,,,,,,,,wg-a,,,,AAXX 15184 07460 12/82 7//// 10080 20040 39812 40209 53003 60006 83032 91800 333 10139 20011=
07460,1997-11-15 21:00:00,5,1021.3,0.1,87,3,20000,0,,,0,,,,,,,,,,,wg-a,,,,AAXX 15214 07460 12/70 1//// 10050 20030 39812 40213 51001 60006 80002 92100=
07460,1997-11-16 00:00:00,6,1020.9,-0.3,81,3,20000,0,,,0,,,,,,,,,,,wg-a,,,,AAXX 16004 07460 12/70 0//// 10060 20030 39809 40209 55003 60006 80000 90000=
07460,1997-11-16 03:00:00,6,1019.6,-1.3,81,3,500,0,,,0,,,,,,,,,,,wg-a,,,,AAXX 16034 07460 12/00 1//// 10060 20030 39796 40196 56013 60006 81030 90300=
07460,1997-11-16 06:00:00,4,1019.5,-0.4,87,2,500,0,,,0,3.5,9.3,,,,,,,,,wg-a,,,,AAXX 16064 07460 02/00 10000 10040 20020 39792 40195 58004 60006 81031 90600 333 10093 20035 60004=
07460,1997-11-16 09:00:00,9,1019.4,0.8,71,4,40000,0,,,0,,,,,,,,,,,wg-a,,,,AAXX 16094 07460 12582 5//// 10090 20040 39799 40194 50008 60006 81801 90900=
07460,1997-11-16 12:00:00,15,1016.7,-1.7,63,8,40000,0,,,0,,,,,,,,,,,wg-a,,,,AAXX 16124 07460 12782 5//// 10150 20080 39782 40167 58017 60006 81531 91200=
07460,1997-11-16 15:00:00,15,1015.6,-1.1,67,9,40000,0,,,0,,,,,,,,,,,wg-a,,,,AAXX 16154 07460 12782 7//// 10150 20090 39771 40156 56011 60006 81532 91500=
07460,1997-11-16 18:00:00,12,1017,0.9,88,10,25000,0,,,0,3.7,15.8,,,,,,,,,wg-a,,,,AAXX 16184 07460 12775 7//// 10120 20100 39780 40170 51009 60006 81532 91800 333 10158 20037=
07460,1997-11-16 21:00:00,11,1016.9,-0.2,87,9,15000,0,,,0,,,,,,,,,,,wg-a,,,,AAXX 16214 07460 12765 7//// 10110 20090 39778 40169 58002 60006 83532 92100=
07460,1997-11-17 00:00:00,10,1016.9,-0.1,93,9,10000,0,,,0,,,,,,,,,,,wg-a,,,,AAXX 17004 07460 12460 7//// 10100 20090 39777 40169 58001 60006 8353/ 90000=
07460,1997-11-17 03:00:00,10,1016.5,-0.5,93,9,10000,0,,,0,,,,,,,,,,,wg-a,,,,AAXX 17034 07460 12460 7//// 10100 20090 39772 40165 58005 60006 8353/ 90300=
07460,1997-11-17 06:00:00,9,1016.7,0.2,93,8,8000,0,,,0,9.3,11.6,,,,,,,,,wg-a,,,,AAXX 17064 07460 02458 7//// 10090 20080 39774 40167 50002 60006 875// 90600 333 10116 20093 60004=
07460,1997-11-17 09:00:00,12,1016.5,0.1,82,9,11000,3.704,,,280,,,,,,,,,,,wg-a,,,,AAXX 17094 07460 12/61 /2802 10120 20090 39775 40165 50001 60006 90900=
07460,1997-11-17 12:00:00,15,1014,-1.9,77,11,20000,11.112,,,100,,,,,,,,,,,wg-a,,,,AAXX 17124 07460 12470 41006 10150 20110 39756 40140 56019 60006 82801 91200=
07460,1997-11-17 15:00:00,15,1012.1,-1.8,77,11,25000,7.408,,,70,,,,,,,,,,,wg-a,,,,AAXX 17154 07460 12675 70704 10150 20110 39738 40121 56018 60006 81132 91500=
07460,1997-11-17 18:00:00,11,1012.7,-0,87,9,11000,3.704,,,290,9.1,17,,,,,,,,,wg-a,,,,AAXX 17184 07460 12/61 /2902 10110 20090 39738 40127 55000 60006 91800 333 10170 20091=
07460,1997-11-17 21:00:00,8,1011.8,-1.3,93,7,900,0,,,0,,,,,,,,,,44,wg-a,,,,AAXX 17214 07460 12509 30000 10080 20070 39725 40118 56013 60006 74441 81501 92100=
07460,1997-11-18 00:00:00,8,1010.5,-1.4,100,8,400,3.704,,,280,,,,,,,,,,45,wg-a,,,,AAXX 18004 07460 12/04 92802 10080 20080 39712 40105 58014 60006 74541 89/// 90000=
07460,1997-11-18 06:00:00,9,1008.8,-0.2,81,6,15000,11.112,,,230,6.9,11.6,,,,,,,,3,wg-a,,,,AAXX 18064 07460 02665 32306 10090 20060 39697 40088 58002 60006 70341 81501 90600 333 10116 20069 60004=
07460,1997-11-18 09:00:00,13,1008.4,0.2,72,8,500,18.52,,,190,,,,,,,,,,,wg-a,,,,AAXX 18094 07460 12/00 41910 10130 20080 39699 40084 50002 60006 83031 90900=
07460,1997-11-18 12:00:00,16,1006.9,-1,59,8,500,29.632,,,180,,,,,,,,,,,wg-a,,,,AAXX 18124 07460 12800 51816 10160 20080 39688 40069 56010 60006 85031 91200=
07460,1997-11-18 15:00:00,14,1007.1,-0,67,8,500,18.52,,,190,,,,,,,,,,,wg-a,,,,AAXX 18154 07460 12700 71910 10140 20080 39688 40071 55000 60006 8253/ 91500=
07460,1997-11-18 18:00:00,13,1007.6,0.3,72,8,14000,3.704,,,230,8.6,15.5,,,,,,,,,wg-a,,,,AAXX 18184 07460 12664 62302 10130 20080 39691 40076 51003 60006 83831 91800 333 10155 20086=
07460,1997-11-19 00:00:00,10,1006.1,-1.5,93,9,7000,3.704,,,250,,,,2,,,,,,60,wg-a,,,,AAXX 19004 07460 02657 82502 10100 20090 39673 40061 58015 60026 76062 8457/ 90000 333 60027=
07460,1997-11-19 06:00:00,10,1003.3,-1,93,9,4500,0,,,0,9.5,12.8,,,,,,,,10,wg-a,,,,AAXX 19064 07460 02345 80000 10100 20090 39645 40033 56010 61000 71062 8557/ 90600 333 10128 20095 6010=
07460,1997-11-19 09:00:00,11,1002.8,-0.3,94,10,4500,3.704,,,50,,,,1,,,,,,10,wg-a,,,,AAXX 19094 07460 12445 70502 10110 20100 39642 40028 58003 60017 71062 8457/ 90900=
07460,1997-11-19 12:00:00,13,1002.2,-0.3,88,11,7000,3.704,,,70,,,,,,,,,,1,wg-a,,,,AAXX 19124 07460 12357 60702 10130 20110 39639 40022 58003 60016 70162 82850 91200=
07460,1997-11-19 15:00:00,13,1002.1,-0.1,88,11,6000,3.704,,,100,,,,,,,,,,,wg-a,,,,AAXX 19154 07460 12456 71002 10130 20110 39638 40021 58001 60006 8483/ 91500=
07460,1997-11-19 18:00:00,11,1003.1,0.8,82,8,10000,14.816,,,150,9.4,13.2,,,,,,,,60,wg-a,,,,AAXX 19184 07460 02460 81508 10110 20080 39646 40031 51008 61000 76062 8487/ 91800 333 10132 20094 6100=
07460,1997-11-19 21:00:00,10,1003.9,0.5,87,8,14000,22.224,,,180,,,,,,,,,,1,wg-a,,,,AAXX 19214 07460 02564 41812 10100 20080 39651 40039 53005 61000 70161 83870 92100 333 ////=
07460,1997-11-20 00:00:00,11,1003.6,-0.1,76,7,14000,14.816,,,220,,,,,,,,,,1,wg-a,,,,AAXX 20004 07460 02664 /2208 10110 20070 39650 40036 56001 61000 70161 83830 90000 333 ////=
07460,1997-11-20 06:00:00,8,1001.4,-0.6,87,6,20000,25.928,,,200,7.8,11.4,,,,,1,,,,wg-a,,,,AAXX 20064 07460 02670 72014 10080 20060 39625 40014 58006 60006 8113/ 90600 333 10114 20078 60014=
07460,1997-11-20 09:00:00,9,1003,1.7,81,6,20000,18.52,,,230,,,,,,,,,,15,wg-a,,,,AAXX 20094 07460 12570 72310 10090 20060 39642 40030 53017 60006 71522 8683/ 90900=
07460,1997-11-20 12:00:00,11,1003,0.2,76,7,15000,22.224,,,190,,,,0,,,,,,80,wg-a,,,,AAXX 20124 07460 02565 71912 10110 20070 39644 40030 53002 60006 78086 8487/ 91200 333 60007=
07460,1997-11-20 15:00:00,12,1003.6,0.7,62,5,12000,22.224,,,200,,,,,,,,,,1,wg-a,,,,AAXX 20154 07460 02562 62012 10120 20050 39651 40036 51007 61000 70186 83231 91500 333 ////=
07460,1997-11-20 18:00:00,10,1005.7,1.8,71,5,15000,22.224,,,250,7.8,13.2,,,,,,,,15,wg-a,,,,AAXX 20184 07460 12565 42512 10100 20050 39669 40057 53018 60006 71586 84800 91800 333 10132 20078=
07460,1997-11-20 21:00:00,10,1007.8,2,66,4,15000,7.408,,,160,,,,,,,,,,,wg-a,,,,AAXX 20214 07460 12665 /1604 10100 20040 39689 40078 53020 60006 85800 92100=
07460,1997-11-21 00:00:00,7,1008.9,0.7,81,4,15000,11.112,,,160,,,,,,,,,,,wg-a,,,,AAXX 21004 07460 12665 41606 10070 20040 39696 40089 53007 60006 84800 90000=
07460,1997-11-21 03:00:00,7,1009.8,0.7,81,4,15000,14.816,,,190,,,,,,,,,,,wg-a,,,,AAXX 21034 07460 12665 51908 10070 20040 39703 40098 51007 60006 85800 90300=
07460,1997-11-21 06:00:00,7,1010,0.2,81,4,15000,18.52,,,200,6.2,10.7,,,,,,,,,wg-a,,,,AAXX 21064 07460 02665 52010 10070 20040 39705 40100 51002 60006 84830 90600 333 10107 20062 60004=
07460,1997-11-21 09:00:00,9,1009.9,0.3,76,5,500,22.224,,,190,,,,,,,,,,,wg-a,,,,AAXX 21094 07460 12600 41912 10090 20050 39708 40099 50003 60006 84801 90900=
07460,1997-11-21 12:00:00,12,1009.1,-0.4,67,6,40000,11.112,,,200,,,,,,,,,,,wg-a,,,,AAXX 21124 07460 12682 72006 10120 20060 39704 40091 58004 60006 82202 91200=
07460,1997-11-21 15:00:00,12,1008.9,-0.1,62,5,40000,3.704,,,120,,,,,,,,,,,wg-a,,,,AAXX 21154 07460 12682 71202 10120 20050 39703 40089 57001 60006 85802 91500=
07460,1997-11-21 18:00:00,9,1010,0.6,71,4,20000,0,,,0,6.5,13.7,,,,,,,,,wg-a,,,,AAXX 21184 07460 12670 70000 10090 20040 39709 40100 53006 60006 84502 91800 333 10137 20065=
07460,1997-11-21 21:00:00,7,1011,0.6,81,4,15000,3.704,,,310,,,,,,,,,,,wg-a,,,,AAXX 21214 07460 12665 53102 10070 20040 39715 40110 51006 60006 83501 92100=
07460,1997-11-22 00:00:00,3,1012,0.5,93,2,15000,3.704,,,230,,,,,,,,,,,wg-a,,,,AAXX 22004 07460 12665 42302 10030 20020 39720 40120 52005 60006 83501 90000=
07460,1997-11-22 03:00:00,2,1012,-0.3,93,1,15000,3.704,,,190,,,,,,,,,,,wg-a,,,,AAXX 22034 07460 12665 /1902 10020 20010 39717 40120 56003 60006 81500 90300=
07460,1997-11-22 06:00:00,3,1012.3,0.5,93,2,15000,7.408,,,10,1,9.6,,,,,,,,,wg-a,,,,AAXX 22064 07460 02665 30104 10030 20020 39722 40123 52005 60006 83500 90600 333 10096 20010 60004=
07460,1997-11-22 09:00:00,4,1013.5,1.3,100,4,500,3.704,,,120,,,,,,,,,,,wg-a,,,,AAXX 22094 07460 12500 71202 10040 20040 39736 40135 51013 60006 878// 90900=
07460,1997-11-22 12:00:00,9,1012.8,0,76,5,500,7.408,,,90,,,,,,,,,,,wg-a,,,,AAXX 22124 07460 12600 /0904 10090 20050 39736 40128 50000 60006 81832 91200=
07460,1997-11-22 15:00:00,9,1013,0.2,87,7,12000,7.408,,,40,,,,,,,,,,,wg-a,,,,AAXX 22154 07460 12562 70404 10090 20070 39738 40130 53002 60006 82802 91500=
07460,1997-11-22 18:00:00,8,1014.8,1.6,87,6,10000,3.704,,,10,2.3,10,,,,,,,,,wg-a,,,,AAXX 22184 07460 12460 70102 10080 20060 39754 40148 53016 60006 85502 91800 333 10100 20023=
07460,1997-11-23 00:00:00,6,1017.4,1,100,6,8000,3.704,,,180,,,,,,,,,,,wg-a,,,,AAXX 23004 07460 12458 71802 10060 20060 39776 40174 51010 60006 86502 90000=
07460,1997-11-23 03:00:00,4,1018.1,0.4,93,3,7000,0,,,0,,,,,,,,,,,wg-a,,,,AAXX 23034 07460 12357 50000 10040 20030 39780 40181 52004 60006 83502 90300=
07460,1997-11-23 06:00:00,6,1018.9,1,93,5,6000,3.704,,,330,2.4,8.5,,,,,,,,,wg-a,,,,AAXX 23064 07460 02356 73302 10060 20050 39790 40189 53010 60006 875// 90600 333 10085 20024 60004=
07460,1997-11-23 12:00:00,9,1020,-0.1,71,4,20000,7.408,,,50,,,,,,,,,,,wg-a,,,,AAXX 23124 07460 12570 /0504 10090 20040 39804 40200 58001 60006 86800 91200=
07460,1997-11-23 15:00:00,8,1019.6,-0.5,71,3,25000,3.704,,,60,,,,,,,,,,,wg-a,,,,AAXX 23154 07460 12575 40602 10080 20030 39799 40196 55005 60006 83801 91500=
07460,1997-11-23 18:00:00,4,1019.7,-0.4,87,2,20000,3.704,,,230,4,9.9,,,,,,,,,wg-a,,,,AAXX 23184 07460 12670 42302 10040 20020 39795 40197 58004 60006 81501 91800 333 10099 20040=
07460,1997-11-23 21:00:00,1,1019.9,-0.3,93,0,15000,3.704,,,260,,,,,,,,,,,wg-a,,,,AAXX 23214 07460 12/65 52602 10010 20000 39792 40199 58003 60006 81031 92100=
07460,1997-11-24 00:00:00,2,1018.4,-1.3,87,0,15000,14.816,,,180,,,,,,,,,,,wg-a,,,,AAXX 24004 07460 12/65 31808 10020 20000 39779 40184 58013 60006 80001 90000=
07460,1997-11-24 03:00:00,1,1016.7,-1.7,93,0,15000,11.112,,,200,,,,,,,,,,,wg-a,,,,AAXX 24034 07460 12/65 42006 10010 20000 39762 40167 56017 60006 80001 90300=
07460,1997-11-24 06:00:00,0,1015.4,-1.5,93,-1,15000,3.704,,,40,-0.8,4,,,,,,,,,wg-a,,,,AAXX 24064 07460 02/65 20402 10000 21010 39747 40154 56015 60006 80001 90600 333 10040 21008 60004=
07460,1997-11-24 12:00:00,7,1009.4,-3.4,66,1,25000,3.704,,,160,,,,,,,,,,,wg-a,,,,AAXX 24124 07460 12/75 71602 10070 20010 39700 40094 58034 60006 85032 91200=
07460,1997-11-24 15:00:00,6,1006.8,-2.5,87,4,25000,7.408,,,360,,,,,,,,,,,wg-a,,,,AAXX 24154 07460 12/75 73604 10060 20040 39674 40068 56025 60006 87032 91500=
07460,1997-11-24 18:00:00,9,1005.4,-0.9,57,1,20000,22.224,,,180,-1.4,9.9,,,,,,,,,wg-a,,,,AAXX 24184 07460 12/70 71812 10090 20010 39665 40054 56009 60006 8703/ 91800 333 10099 21014=
07460,1997-11-24 21:00:00,10,1006.5,1.1,62,3,20000,14.816,,,200,,,,,,,,,,,wg-a,,,,AAXX 24214 07460 12/70 42008 10100 20030 39676 40065 53011 60006 84030 92100=
07460,1997-11-25 00:00:00,9,1006.8,0.1,66,3,20000,14.816,,,160,,,,,,,,,,,wg-a,,,,AAXX 25004 07460 12/70 71608 10090 20030 39677 40068 50001 60006 8703/ 90000=
07460,1997-11-25 06:00:00,9,1006.4,0.2,87,7,20000,25.928,,,170,8,10.6,,,,,,,,21,wg-a,,,,AAXX 25064 07460 02770 71714 10090 20070 39675 40064 51002 61000 72162 8157/ 90600 333 10106 20080 6100=
07460,1997-11-25 09:00:00,10,1006.7,0.3,82,7,25000,7.408,,,40,,,,,,,,,,,wg-a,,,,AAXX 25094 07460 12675 40404 10100 20070 39678 40067 51003 60006 81871 90900=
07460,1997-11-25 12:00:00,14,1004.5,-1.5,55,5,500,29.632,,,180,,,,,,,,,,2,wg-a,,,,AAXX 25124 07460 12600 31816 10140 20050 39662 40045 58015 60006 70261 81171 91200=
07460,1997-11-25 18:00:00,11,1003,-0.4,71,6,20000,11.112,,,200,8.2,14.6,,,,,,,,,wg-a,,,,AAXX 25184 07460 12770 /2006 10110 20060 39644 40030 57004 60006 85500 91800 333 10146 20082=
07460,1997-11-25 21:00:00,9,1002.9,-0.3,81,6,20000,0,,,0,,,,,,,,,,,wg-a,,,,AAXX 25214 07460 12670 70000 10090 20060 39641 40029 56003 60006 82501 92100=
07460,1997-11-26 00:00:00,9,1002.5,-0.4,81,6,20000,14.816,,,190,,,,,,,,,,,wg-a,,,,AAXX 26004 07460 12/70 31908 10090 20060 39637 40025 57004 60006 81031 90000=
07460,1997-11-26 06:00:00,10,1002.6,0.7,76,6,15000,7.408,,,160,6.8,11.4,,,,,,,,,wg-a,,,,AAXX 26064 07460 02665 71604 10100 20060 39639 40026 51007 60006 85532 90600 333 10114 20068 60004=
07460,1997-11-26 09:00:00,12,1004.1,1.8,71,7,500,7.408,,,230,,,,,,,,,,,wg-a,,,,AAXX 26094 07460 12600 72304 10120 20070 39656 40041 51018 60006 82582 90900=
07460,1997-11-26 12:00:00,14,1005.1,1.1,67,8,40000,11.112,,,170,,,,,,,,,,,wg-a,,,,AAXX 26124 07460 12682 81706 10140 20080 39668 40051 51011 60006 8487/ 91200=
07460,1997-11-26 15:00:00,13,1006.3,1,72,8,500,11.112,,,200,,,,,,,,,,21,wg-a,,,,AAXX 26154 07460 02600 82006 10130 20080 39678 40063 53010 61000 72162 8587/ 91500 333 ////=
07460,1997-11-26 18:00:00,11,1008.3,1.6,82,8,15000,11.112,,,180,9.5,13.8,,,,,,,,60,wg-a,,,,AAXX 26184 07460 02565 81806 10110 20080 39695 40083 51016 61000 76062 8482/ 91800 333 10138 20095 6000=
07460,1997-11-26 21:00:00,10,1009.7,1.2,87,8,15000,7.408,,,130,,,,1,,,,,,1,wg-a,,,,AAXX 26214 07460 12565 71304 10100 20080 39707 40097 53012 60017 70162 8387/ 92100=
07460,1997-11-27 00:00:00,10,1011,1.2,87,8,15000,7.408,,,130,,,,0,,,,,,61,wg-a,,,,AAXX 27004 07460 02665 71304 10100 20080 39719 40110 53012 60016 76162 8357/ 90000 333 60007=
07460,1997-11-27 03:00:00,9,1011.6,0.5,87,7,15000,7.408,,,110,,,,0,,,,,,21,wg-a,,,,AAXX 27034 07460 12665 71104 10090 20070 39724 40116 50005 60007 72162 8357/ 90300=
07460,1997-11-27 06:00:00,9,1012.1,0.4,87,7,20000,3.704,,,150,8.3,10.7,,,,,1,,,2,wg-a,,,,AAXX 27064 07460 02670 71502 10090 20070 39729 40121 53004 60006 70262 8353/ 90600 333 10107 20083 60014=
07460,1997-11-27 09:00:00,10,1013.8,1.8,87,8,15000,3.704,,,80,,,,,,,,,,,wg-a,,,,AAXX 27094 07460 12665 70802 10100 20080 39747 40138 53018 60006 8553/ 90900=
07460,1997-11-27 12:00:00,14,1013.4,0.1,72,9,20000,7.408,,,190,,,,,,,,,,,wg-a,,,,AAXX 27124 07460 12670 71904 10140 20090 39748 40134 50001 60006 85532 91200=
07460,1997-11-27 15:00:00,12,1014.3,0.7,76,8,10000,3.704,,,270,,,,,,,,,,,wg-a,,,,AAXX 27154 07460 12460 72702 10120 20080 39755 40143 52007 60006 8653/ 91500=
07460,1997-11-27 18:00:00,10,1015.4,0.7,76,6,15000,3.704,,,110,8.8,13.6,,,,,,,,,wg-a,,,,AAXX 27184 07460 12565 51102 10100 20060 39762 40154 53007 60006 8583/ 91800 333 10136 20088=
07460,1997-11-27 21:00:00,7,1016.2,0.3,81,4,12000,7.408,,,250,,,,,,,,,,,wg-a,,,,AAXX 27214 07460 12762 22504 10070 20040 39765 40162 51003 60006 82500 92100=
07460,1997-11-28 00:00:00,6,1015,-1.3,93,5,10000,7.408,,,190,,,,,,,,,,,wg-a,,,,AAXX 28004 07460 12/60 01904 10060 20050 39752 40150 58013 60006 80000 90000=
07460,1997-11-28 03:00:00,4,1013.9,-1.2,93,3,10000,7.408,,,130,,,,,,,,,,,wg-a,,,,AAXX 28034 07460 12/60 31304 10040 20030 39740 40139 58012 60006 80002 90300=
07460,1997-11-28 06:00:00,4,1013.4,-0.6,93,3,10000,3.704,,,240,3.7,10.1,,,,,,,,,wg-a,,,,AAXX 28064 07460 02/60 72402 10040 20030 39734 40134 57006 60006 81032 90600 333 10101 20037 60004=
07460,1997-11-28 09:00:00,7,1013.3,0.4,87,5,40000,7.408,,,10,,,,,,,,,,60,wg-a,,,,AAXX 28094 07460 02782 70104 10070 20050 39737 40133 53004 61000 76062 81532 90900 333 ////=
07460,1997-11-28 12:00:00,10,1012.3,-0.5,87,8,20000,3.704,,,220,,,,3,,,,,,60,wg-a,,,,AAXX 28124 07460 02570 72202 10100 20080 39732 40123 58005 60036 76062 8387/ 91200 333 60037=
07460,1997-11-28 15:00:00,12,1011.1,-0.9,82,9,500,14.816,,,190,,,,,,,,,,3,wg-a,,,,AAXX 28154 07460 02500 71908 10120 20090 39723 40111 55009 61000 70362 8187/ 91500 333 ////=
07460,1997-11-28 18:00:00,12,1012.6,1.5,71,7,15000,22.224,,,220,3.9,12.4,,,,,,,,1,wg-a,,,,AAXX 28184 07460 12565 42212 10120 20070 39737 40126 53015 60006 70161 8383/ 91800 333 10124 20039=
07460,1997-11-28 21:00:00,12,1013,0.4,67,6,15000,18.52,,,210,,,,,,,,,,,wg-a,,,,AAXX 28214 07460 12565 72110 10120 20060 39741 40130 51004 60006 878// 92100=
07460,1997-11-29 00:00:00,12,1012,-1,58,4,15000,22.224,,,210,,,,,,,,,,,wg-a,,,,AAXX 29004 07460 12565 72112 10120 20040 39732 40120 56010 60006 8583/ 90000=
07460,1997-11-29 03:00:00,11,1012.1,-0,66,5,15000,11.112,,,250,,,,,,,,,,,wg-a,,,,AAXX 29034 07460 12565 72506 10110 20050 39732 40121 55000 60006 878// 90300=
07460,1997-11-29 06:00:00,9,1012.3,-0.1,76,5,15000,7.408,,,190,8.6,12.4,,,,,3,,,,wg-a,,,,AAXX 29064 07460 02565 41904 10090 20050 39731 40123 55001 60006 84800 90600 333 10124 20086 60034=
07460,1997-11-29 09:00:00,11,1011.6,-0.5,71,6,500,14.816,,,180,,,,,,,,,,,wg-a,,,,AAXX 29094 07460 12500 51808 10110 20060 39727 40116 58005 60006 84881 90900=
07460,1997-11-29 15:00:00,12,1008.6,-1.1,62,5,500,14.816,,,250,,,,,,,,,,,wg-a,,,,AAXX 29154 07460 12500 72508 10120 20050 39699 40086 56011 60006 878// 91500=
07460,1997-11-29 18:00:00,9,1009.4,0.4,76,5,15000,14.816,,,250,7.4,12.9,,,,,,,,,wg-a,,,,AAXX 29184 07460 12565 72508 10090 20050 39703 40094 53004 60006 86802 91800 333 10129 20074=
07460,1997-11-29 21:00:00,9,1010.3,0.6,71,4,12000,7.408,,,250,,,,,,,,,,,wg-a,,,,AAXX 29214 07460 12562 72504 10090 20040 39711 40103 51006 60006 8383/ 92100=
07460,1997-11-30 00:00:00,8,1011.3,0.9,76,4,15000,7.408,,,80,,,,,,,,,,,wg-a,,,,AAXX 30004 07460 12565 40804 10080 20040 39719 40113 51009 60006 84500 90000=
07460,1997-11-30 03:00:00,8,1012,0.7,76,4,12000,3.704,,,320,,,,,,,,,,,wg-a,,,,AAXX 30034 07460 12562 73202 10080 20040 39726 40120 52007 60006 878// 90300=
07460,1997-11-30 06:00:00,8,1012.4,0.4,76,4,12000,7.408,,,290,7.2,9.7,,,,,,,,1,wg-a,,,,AAXX 30064 07460 02562 /2904 10080 20040 39730 40124 52004 60006 70161 86800 90600 333 10097 20072 60004=
07460,1997-11-30 09:00:00,9,1013.3,1.1,71,4,12000,11.112,,,290,,,,,,,,,,15,wg-a,,,,AAXX 30094 07460 12562 72906 10090 20040 39740 40133 53011 60006 71522 83832 90900=
07460,1997-11-30 12:00:00,10,1012.9,-0.2,66,4,15000,18.52,,,300,,,,,,,,,,,wg-a,,,,AAXX 30124 07460 12565 73010 10100 20040 39738 40129 58002 60006 84832 91200=
07460,1997-11-30 15:00:00,9,1013.3,0.2,81,6,12000,14.816,,,300,,,,,,,,,,21,wg-a,,,,AAXX 30154 07460 02562 73008 10090 20060 39740 40133 53002 61000 72162 86832 91500 333 ////=
07460,1997-11-30 18:00:00,9,1013.7,0.4,76,5,10000,7.408,,,320,7.1,11,,,,,,,,15,wg-a,,,,AAXX 30184 07460 12560 73204 10090 20050 39744 40137 50004 60006 71562 878// 91800 333 10110 20071=
07460,1997-11-30 21:00:00,8,1014.8,0.8,87,6,10000,7.408,,,330,,,,1,,,,,,25,wg-a,,,,AAXX 30214 07460 12560 73304 10080 20060 39753 40148 53008 60017 72586 878// 92100=
07460,1997-12-01 00:00:00,7,1015.7,0.8,87,5,12000,7.408,,,20,,,,2,,,,,,,wg-a,,,,AAXX 01004 07460 02462 80204 10070 20050 39761 40157 53008 60036 878// 90000 333 60027=
07460,1997-12-01 03:00:00,6,1016.6,0.7,93,5,12000,3.704,,,30,,,,2,,,,,,1,wg-a,,,,AAXX 01034 07460 12462 70302 10060 20050 39768 40166 50007 60027 70162 8583/ 90300=
07460,1997-12-01 06:00:00,6,1017.4,0.8,87,4,12000,11.112,,,340,6,9,,,,,5,,,1,wg-a,,,,AAXX 01064 07460 02562 73406 10060 20040 39776 40174 53008 60006 70186 878// 90600 333 10090 20060 60054=
07460,1997-12-01 09:00:00,6,1018.5,1,81,3,12000,7.408,,,320,,,,,,,,,,,wg-a,,,,AAXX 01094 07460 12562 73204 10060 20030 39786 40185 50010 60006 878// 90900=
07460,1997-12-01 12:00:00,7,1016.9,-1.4,70,2,15000,3.704,,,20,,,,,,,,,,,wg-a,,,,AAXX 01124 07460 12565 /0202 10070 20020 39772 40169 58014 60006 86800 91200=
07460,1997-12-01 15:00:00,7,1015.2,-1.7,76,3,15000,7.408,,,90,,,,,,,,,,,wg-a,,,,AAXX 01154 07460 12565 /0904 10070 20030 39755 40152 56017 60006 86800 91500=
07460,1997-12-01 18:00:00,3,1013.9,-1.8,81,0,12000,0,,,0,2.5,7.8,,,,,,,,,wg-a,,,,AAXX 01184 07460 12662 50000 10030 20000 39737 40139 57018 60006 82502 91800 333 10078 20025=
07460,1997-12-01 21:00:00,4,1010.7,-2.9,81,1,12000,14.816,,,190,,,,,,,,,,,wg-a,,,,AAXX 01214 07460 12662 71908 10040 20010 39708 40107 58029 60006 8357/ 92100=
07460,1997-12-02 00:00:00,4,1005.9,-4.8,87,2,8000,31.484,,,190,,,,,,,,,,60,wg-a,,,,AAXX 02004 07460 02558 81917 10040 20020 39662 40059 57048 61000 76062 8457/ 90000 333 6100=
07460,1997-12-02 03:00:00,6,1000.8,-4.7,81,3,10000,31.484,,,180,,,,,,,,,,,wg-a,,,,AAXX 02034 07460 02560 81817 10060 20030 39615 40008 57047 61000 8357/ 90300 333 ////=
07460,1997-12-02 06:00:00,9,997.2,-2.8,76,5,10000,22.224,,,260,2.5,9.4,,,,,,,,60,wg-a,,,,AAXX 02064 07460 02560 82612 10090 20050 39585 49972 56028 61000 76062 8657/ 90600 333 10094 20025 6000=
07460,1997-12-02 09:00:00,8,998.6,1.2,71,3,12000,22.224,,,270,,,,0,,,,,,25,wg-a,,,,AAXX 02094 07460 12562 42712 10080 20030 39597 49986 51012 60007 72586 84300 90900=
07460,1997-12-02 12:00:00,5,1002.7,3.4,70,0,25000,31.484,,50.004,300,,,,,,,,,,3,wg-a,,,,AAXX 02124 07460 12575 73017 10050 20000 39632 40027 51034 60006 70386 86280 91200 333 91027=
07460,1997-12-02 15:00:00,5,1003.8,1.1,65,-1,12000,18.52,,,340,,,,,,,,,,,wg-a,,,,AAXX 02154 07460 12562 73410 10050 21010 39643 40038 53011 60006 878// 91500=
07460,1997-12-02 18:00:00,3,1006.3,2.1,70,-2,10000,14.816,,,320,3.1,9.3,,,,,,,,,wg-a,,,,AAXX 02184 07460 32460 73208 10030 21020 39665 40063 51021 878// 91800 333 10093 20031=
07460,1997-12-02 21:00:00,2,1007.7,1.2,87,0,8000,7.408,,,360,,,,,,,,,,70,wg-a,,,,AAXX 02214 07460 02458 73604 10020 20000 39677 40077 51012 61000 77072 878// 92100 333 ////=
07460,1997-12-03 00:00:00,3,1008,0.2,75,-1,12000,22.224,,,300,,,,,,,,,,1,wg-a,,,,AAXX 03004 07460 02562 63012 10030 21010 39680 40080 53002 61000 70172 86500 90000 333 6100=
07460,1997-12-03 03:00:00,1,1008.2,0.1,75,-3,12000,22.224,,,290,,,,,,,,,,,wg-a,,,,AAXX 03034 07460 12562 /2912 10010 21030 39680 40082 50001 60006 86500 90300=
07460,1997-12-03 06:00:00,1,1008.9,0.6,69,-4,15000,14.816,,,340,0.3,3.3,,,,,,,,,wg-a,,,,AAXX 03064 07460 02565 43408 10010 21040 39686 40089 51006 60006 84500 90600 333 10033 20003 60004=
07460,1997-12-03 12:00:00,1,1012.4,1.4,69,-4,12000,18.52,,,330,,,,,,,,,,3,wg-a,,,,AAXX 03124 07460 02562 73310 10010 21040 39720 40124 51014 61000 70371 878// 91200 333 ////=
07460,1997-12-03 15:00:00,1,1013.8,1.2,69,-4,15000,18.52,,,340,,,,,,,,,,,wg-a,,,,AAXX 03154 07460 12565 73410 10010 21040 39733 40138 53012 60006 878// 91500=
07460,1997-12-03 18:00:00,-1,1015.5,1.5,93,-2,9000,14.816,,,350,-0.5,1.1,,,,,,,,10,wg-a,,,,AAXX 03184 07460 02459 83508 11010 21020 39748 40155 51015 61000 71072 875// 91800 333 10011 21005 6100=
07460,1997-12-03 21:00:00,0,1015.8,0.3,80,-3,12000,14.816,,,340,,,,,,,,,,22,wg-a,,,,AAXX 03214 07460 02462 83408 10000 21030 39751 40158 50003 61000 72272 875// 92100 333 ////=
07460,1997-12-04 00:00:00,-1,1016.3,0.4,86,-3,12000,11.112,,,350,,,,,,,,,,3,wg-a,,,,AAXX 04004 07460 02462 73506 11010 21030 39755 40163 50004 61000 70372 875// 90000 333 ////=
07460,1997-12-04 03:00:00,-1,1016.5,0.1,80,-4,12000,11.112,,,360,,,,,,,,,,,wg-a,,,,AAXX 04034 07460 12462 73606 11010 21040 39756 40165 53001 60006 875// 90300=
07460,1997-12-04 06:00:00,0,1015.4,-0.9,86,-2,8000,7.408,,,350,-1.3,0.1,,,,,,,,71,wg-a,,,,AAXX 04064 07460 02458 73504 10000 21020 39747 40154 56009 61000 77172 875// 90600 333 10001 21013 6100=
07460,1997-12-04 09:00:00,0,1015.3,-0.1,93,-1,3000,11.112,,,350,,,,0,,,,,,10,wg-a,,,,AAXX 04094 07460 12230 83506 10000 21010 39746 40153 55001 60007 71077 877// 90900=
07460,1997-12-04 12:00:00,1,1015.1,-0.1,80,-2,10000,11.112,,,360,,,,,,,,,,3,wg-a,,,,AAXX 04124 07460 02460 73606 10010 21020 39745 40151 58001 60006 70372 878// 91200 333 61000=
07460,1997-12-04 15:00:00,0,1015.3,0.2,86,-2,7000,14.816,,,10,,,,,,,,,,3,wg-a,,,,AAXX 04154 07460 02457 80108 10000 21020 39747 40153 53002 61000 70372 875// 91500 333 ////=
07460,1997-12-04 18:00:00,0,1016.5,1.2,93,-1,4000,18.52,,,10,-0.4,1,,,,,,,,10,wg-a,,,,AAXX 04184 07460 02340 80110 10000 21010 39758 40165 53012 61000 71072 885// 91800 333 10010 21004 6100=
07460,1997-12-04 21:00:00,0,1018,1.3,93,-1,7000,7.408,,,20,,,,0,,,,,,3,wg-a,,,,AAXX 04214 07460 12457 80204 10000 21010 39772 40180 51013 60007 70372 885// 92100=
07460,1997-12-05 00:00:00,0,1019.3,1.2,86,-2,7000,3.704,,,10,,,,,,,,,,3,wg-a,,,,AAXX 05004 07460 12557 80102 10000 21020 39784 40193 51012 60006 70372 875// 90000=
07460,1997-12-05 03:00:00,0,1020.3,1,86,-2,8000,0,,,0,,,,,,,,,,,wg-a,,,,AAXX 05034 07460 12558 80000 10000 21020 39794 40203 53010 60006 885// 90300=
07460,1997-12-05 06:00:00,0,1021.1,0.8,80,-3,10000,7.408,,,30,-0.4,0,,,,,,,,,wg-a,,,,AAXX 05064 07460 02460 80304 10000 21030 39802 40211 53008 60006 885// 90600 333 10000 21004 60004=
07460,1997-12-05 09:00:00,0,1022.9,1.7,93,-1,6000,3.704,,,210,,,,,,,,,,22,wg-a,,,,AAXX 05094 07460 02356 82102 10000 21010 39819 40229 53017 61000 72272 885// 90900 333 ////=
07460,1997-12-05 12:00:00,1,1023.3,0.5,86,-1,500,11.112,,,10,,,,,,,,,,3,wg-a,,,,AAXX 05124 07460 02300 80106 10010 21010 39824 40233 50005 61000 70372 885// 91200 333 ////=
07460,1997-12-05 15:00:00,1,1023.5,0.2,80,-2,8000,7.408,,,10,,,,,,,,,,,wg-a,,,,AAXX 05154 07460 12458 /0104 10010 21020 39826 40235 53002 60006 86500 91500=
07460,1997-12-05 18:00:00,0,1024.9,1.2,86,-2,500,3.704,,,340,-0.5,1.4,,,,,,,,,wg-a,,,,AAXX 05184 07460 12500 73402 10000 21020 39839 40249 51012 60006 87500 91800 333 10014 21005=
07460,1997-12-05 21:00:00,0,1026.6,1.4,86,-2,7000,11.112,,,350,,,,,,,,,,,wg-a,,,,AAXX 05214 07460 12457 83506 10000 21020 39854 40266 51014 60006 885// 92100=
07460,1997-12-06 00:00:00,-2,1027,0.1,93,-3,0,7.408,,,300,,,,,,,,,,,wg-a,,,,AAXX 06004 07460 12/// /3004 11020 21030 39856 40270 50001 60006 90000=
07460,1997-12-06 03:00:00,-1,1026.6,-0.3,93,-2,8000,3.704,,,120,,,,,,,,,,,wg-a,,,,AAXX 06034 07460 12458 81202 11010 21020 39853 40266 58003 60006 885// 90300=
07460,1997-12-06 06:00:00,-1,1026.4,0,93,-2,6000,3.704,,,30,-2.1,0.7,,,,,,,,,wg-a,,,,AAXX 06064 07460 02256 80302 11010 21020 39852 40264 50000 60006 885// 90600 333 10007 21021 61000=
07460,1997-12-06 12:00:00,1,1026.3,-1,69,-4,12000,3.704,,,90,,,,,,,,,,,wg-a,,,,AAXX 06124 07460 12362 80902 10010 21040 39853 40263 58010 60006 885// 91200=
07460,1997-12-06 15:00:00,1,1025.8,-0.5,75,-3,12000,7.408,,,50,,,,,,,,,,,wg-a,,,,AAXX 06154 07460 12562 20504 10010 21030 39848 40258 55005 60006 82500 91500=
07460,1997-12-06 18:00:00,-3,1026.7,0.4,93,-4,10000,0,,,0,-2.6,2.1,,,,,,,,,wg-a,,,,AAXX 06184 07460 12560 20000 11030 21040 39852 40267 53004 60006 81502 91800 333 10021 21026=
07460,1997-12-06 21:00:00,-4,1027,-0,93,-5,500,3.704,,,230,,,,,,,,,,,wg-a,,,,AAXX 06214 07460 12/00 02302 11040 21050 39852 40270 55000 60006 80000 92100=
07460,1997-12-07 00:00:00,-5,1025.8,-1.3,93,-6,500,3.704,,,290,,,,,,,,,,,wg-a,,,,AAXX 07004 07460 12/00 02902 11050 21060 39840 40258 58013 60006 80000 90000=
07460,1997-12-07 06:00:00,-4,1022.1,-2,86,-6,10000,7.408,,,290,-4.9,-2.6,,,,,,,,,wg-a,,,,AAXX 07064 07460 02/60 02904 11040 21060 39806 40221 56020 60006 80000 90600 333 11026 21049 60004=
07460,1997-12-07 09:00:00,-1,1021.6,-0,74,-5,500,7.408,,,230,,,,,,,,,,,wg-a,,,,AAXX 07094 07460 12/00 12304 11010 21050 39806 40216 54000 60006 80001 90900=
07460,1997-12-07 12:00:00,6,1018.5,-2.1,49,-4,500,14.816,,,170,,,,,,,,,,,wg-a,,,,AAXX 07124 07460 12/00 11708 10060 21040 39786 40185 58021 60006 80001 91200=
07460,1997-12-07 15:00:00,8,1015.7,-2.3,49,-2,500,3.704,,,80,,,,,,,,,,,wg-a,,,,AAXX 07154 07460 12/00 10802 10080 21020 39762 40157 56023 60006 80001 91500=
07460,1997-12-07 18:00:00,0,1016.6,-0.3,80,-3,20000,7.408,,,260,-4,9.3,,,,,,,,,wg-a,,,,AAXX 07184 07460 12/70 12604 10000 21030 39759 40166 57003 60006 80002 91800 333 10093 21040=
07460,1997-12-07 21:00:00,-1,1016.3,-0.5,86,-3,12000,3.704,,,80,,,,,,,,,,,wg-a,,,,AAXX 07214 07460 12/62 40802 11010 21030 39754 40163 58005 60006 81032 92100=
07460,1997-12-08 00:00:00,-2,1016.3,-0,86,-4,15000,7.408,,,330,,,,,,,,,,,wg-a,,,,AAXX 08004 07460 12/65 33304 11020 21040 39754 40163 55000 60006 80002 90000=
07460,1997-12-08 03:00:00,4,1015,-0.5,56,-4,15000,3.704,,,160,,,,,,,,,,,wg-a,,,,AAXX 08034 07460 12665 71602 10040 21040 39749 40150 58005 60006 8657/ 90300=
07460,1997-12-08 06:00:00,5,1014.6,-0.2,52,-4,15000,7.408,,,150,-2.1,5.7,,,,,,,,,wg-a,,,,AAXX 08064 07460 02665 71504 10050 21040 39746 40146 55002 60006 8557/ 90600 333 10057 21021 60004=
07460,1997-12-08 09:00:00,6,1015.5,1,52,-3,20000,11.112,,,170,,,,,,,,,,,wg-a,,,,AAXX 08094 07460 12770 71706 10060 21030 39756 40155 53010 60006 8353/ 90900=
07460,1997-12-08 12:00:00,10,1012.8,-1.9,50,0,500,25.928,,,180,,,,,,,,,,,wg-a,,,,AAXX 08124 07460 12600 51814 10100 20000 39737 40128 58019 60006 82830 91200=
07460,1997-12-08 15:00:00,12,1011.4,-1.1,58,4,500,7.408,,,230,,,,,,,,,,,wg-a,,,,AAXX 08154 07460 12600 52304 10120 20040 39726 40114 56011 60006 83831 91500=
07460,1997-12-08 18:00:00,10,1012.1,0.4,71,5,15000,22.224,,,180,4.6,13.4,,,,,,,,,wg-a,,,,AAXX 08184 07460 12665 71812 10100 20050 39730 40121 52004 60006 8583/ 91800 333 10134 20046=
07460,1997-12-08 21:00:00,10,1012.1,-0.1,71,5,14000,14.816,,,170,,,,,,,,,,,wg-a,,,,AAXX 08214 07460 12664 71708 10100 20050 39729 40121 58001 60006 8583/ 92100=
07460,1997-12-09 00:00:00,8,1013.2,0.9,76,4,14000,11.112,,,200,,,,,,,,,,60,wg-a,,,,AAXX 09004 07460 02664 72006 10080 20040 39738 40132 52009 61000 76062 85831 90000 333 6100=
07460,1997-12-09 03:00:00,9,1013.7,0.6,71,4,14000,14.816,,,240,,,,,,,,,,21,wg-a,,,,AAXX 09034 07460 02564 72408 10090 20040 39744 40137 51006 61000 72162 8587/ 90300 333 ////=
07460,1997-12-09 06:00:00,5,1016.1,1.8,87,3,14000,3.704,,,250,5.1,10.8,,,,,,,,3,wg-a,,,,AAXX 09064 07460 02564 62502 10050 20030 39762 40161 53018 60006 70361 86800 90600 333 10108 20051 61000=
07460,1997-12-09 09:00:00,9,1017.6,1.9,76,5,20000,3.704,,,170,,,,,,,,,,,wg-a,,,,AAXX 09094 07460 12670 41702 10090 20050 39781 40176 53019 60006 84800 90900=
07460,1997-12-09 12:00:00,12,1016.9,-0.2,58,4,25000,14.816,,,260,,,,,,,,,,,wg-a,,,,AAXX 09124 07460 12575 52608 10120 20040 39779 40169 58002 60006 82832 91200=
07460,1997-12-09 18:00:00,7,1019.8,1.2,76,3,15000,7.408,,,170,4.5,12.7,,,,,,,,,wg-a,,,,AAXX 09184 07460 12665 41704 10070 20030 39800 40198 51012 60006 82830 91800 333 10127 20045=
07460,1997-12-09 21:00:00,7,1020,0.1,70,2,15000,11.112,,,130,,,,,,,,,,,wg-a,,,,AAXX 09214 07460 12665 31306 10070 20020 39801 40200 53001 60006 81531 92100=
07460,1997-12-10 00:00:00,6,1020,0.1,81,3,15000,14.816,,,180,,,,,,,,,,,wg-a,,,,AAXX 10004 07460 12665 /1808 10060 20030 39801 40200 51001 60006 83501 90000=
07460,1997-12-10 06:00:00,7,1018.1,-1.1,76,3,15000,35.188,,,180,4.7,8.7,,,,,,,,,wg-a,,,,AAXX 10064 07460 02665 71819 10070 20030 39783 40181 58011 60006 81531 90600 333 10087 20047 60004=
07460,1997-12-10 09:00:00,7,1018.2,-0,81,4,15000,22.224,,,200,,,,,,,,,,,wg-a,,,,AAXX 10094 07460 12665 72012 10070 20040 39784 40182 55000 60006 83531 90900=
07460,1997-12-10 12:00:00,8,1016.7,-1.1,93,7,10000,29.632,,,180,,,,0,,,,,,60,wg-a,,,,AAXX 10124 07460 02560 81816 10080 20070 39772 40167 58011 60016 76062 8657/ 91200 333 60007=
07460,1997-12-10 18:00:00,12,1016.8,0.9,71,7,15000,18.52,,,150,6,12.9,,,,,,,,1,wg-a,,,,AAXX 10184 07460 12565 81510 10120 20070 39778 40168 53009 60006 70162 85572 91800 333 10129 20060=
07460,1997-12-10 21:00:00,11,1017.8,0.8,76,7,15000,25.928,,,190,,,,,,,,,,,wg-a,,,,AAXX 10214 07460 12565 81914 10110 20070 39786 40178 51008 60006 85572 92100=
07460,1997-12-11 00:00:00,11,1017.5,-0.2,82,8,15000,25.928,,,190,,,,,,,,,,,wg-a,,,,AAXX 11004 07460 12565 71914 10110 20080 39784 40175 58002 60006 86531 90000=
07460,1997-12-11 03:00:00,11,1016.7,-0.7,82,8,15000,11.112,,,200,,,,,,,,,,,wg-a,,,,AAXX 11034 07460 12565 72006 10110 20080 39776 40167 58007 60006 8657/ 90300=
07460,1997-12-11 06:00:00,15,1015.6,-0.6,72,10,15000,22.224,,48.152,240,10.3,15.7,,,,,,,,,wg-a,,,,AAXX 11064 07460 02565 72412 10150 20100 39771 40156 56006 60006 8657/ 90600 333 10157 20103 60004 91026=
07460,1997-12-11 09:00:00,16,1015.8,0.4,68,10,15000,18.52,,,230,,,,,,,,,,15,wg-a,,,,AAXX 11094 07460 12565 72310 10160 20100 39774 40158 53004 60006 71522 8487/ 90900=
07460,1997-12-11 12:00:00,16,1014.7,-1.2,68,10,15000,11.112,,,200,,,,,,,,,,,wg-a,,,,AAXX 11124 07460 12565 72006 10160 20100 39763 40147 58012 60006 8687/ 91200=
07460,1997-12-11 15:00:00,17,1012.8,-1.9,63,10,15000,14.816,,,200,,,,,,,,,,,wg-a,,,,AAXX 11154 07460 12565 62008 10170 20100 39746 40128 56019 60006 83872 91500=
07460,1997-12-11 18:00:00,16,1012.2,-0.7,68,10,10000,14.816,,,180,14.9,17.1,,,,,,,,15,wg-a,,,,AAXX 11184 07460 12560 71808 10160 20100 39739 40122 58007 60006 71522 8657/ 91800 333 10171 20149=
07460,1997-12-11 21:00:00,14,1012.4,-0.1,82,11,10000,3.704,,,110,,,,0,,,,,,60,wg-a,,,,AAXX 11214 07460 12560 71102 10140 20110 39738 40124 55001 60007 76062 8557/ 92100=
07460,1997-12-12 00:00:00,12,1014.3,1.6,71,7,12000,3.704,,,80,,,,1,,,,,,21,wg-a,,,,AAXX 12004 07460 02562 70802 10120 20070 39754 40143 53016 60016 72162 8557/ 90000 333 60017=
07460,1997-12-12 03:00:00,10,1016.2,1.6,66,4,15000,3.704,,,290,,,,,,,,,,,wg-a,,,,AAXX 12034 07460 12665 72902 10100 20040 39770 40162 50016 60006 83507 90300=
07460,1997-12-12 06:00:00,8,1018,1.4,76,4,15000,18.52,,,300,7.9,15.6,,,,,1,,,,wg-a,,,,AAXX 12064 07460 02665 /3010 10080 20040 39784 40180 53014 60006 83501 90600 333 10156 20079 60014=
07460,1997-12-12 12:00:00,9,1021.1,0.6,66,3,12000,14.816,,,340,,,,,,,,,,,wg-a,,,,AAXX 12124 07460 12562 53408 10090 20030 39815 40211 51006 60006 85801 91200=
07460,1997-12-12 18:00:00,7,1025.5,2.1,76,3,15000,11.112,,,330,5.6,9.3,,,,,,,,1,wg-a,,,,AAXX 12184 07460 12565 63306 10070 20030 39854 40255 53021 60006 70186 86800 91800 333 10093 20056=
07460,1997-12-12 21:00:00,7,1027.8,2.1,70,2,15000,11.112,,,330,,,,,,,,,,,wg-a,,,,AAXX 12214 07460 12565 73306 10070 20020 39876 40278 51021 60006 87800 92100=
07460,1997-12-13 00:00:00,6,1028.5,0.5,75,2,15000,11.112,,,330,,,,,,,,,,,wg-a,,,,AAXX 13004 07460 12665 /3306 10060 20020 39881 40285 53005 60006 86500 90000=
07460,1997-12-13 06:00:00,5,1030.1,0.6,87,3,15000,3.704,,,40,3.9,6.9,,,,,,,,,wg-a,,,,AAXX 13064 07460 02465 70402 10050 20030 39895 40301 53006 60006 875// 90600 333 10069 20039 60004=
07460,1997-12-13 09:00:00,5,1031.6,1.5,81,2,10000,14.816,,,350,,,,,,,,,,,wg-a,,,,AAXX 13094 07460 12460 73508 10050 20020 39910 40316 52015 60006 875// 90900=
07460,1997-12-13 12:00:00,6,1031.7,0.3,75,2,14000,11.112,,,20,,,,,,,,,,,wg-a,,,,AAXX 13124 07460 12464 50206 10060 20020 39912 40317 50003 60006 85800 91200=
07460,1997-12-13 15:00:00,4,1032.4,0.5,87,2,10000,18.52,,,30,,,,,,,,,,,wg-a,,,,AAXX 13154 07460 12460 70310 10040 20020 39917 40324 53005 60006 87500 91500=
07460,1997-12-13 18:00:00,1,1033.7,0.7,86,-1,13000,3.704,,,110,1.2,6.5,,,,,,,,,wg-a,,,,AAXX 13184 07460 12463 31102 10010 21010 39925 40337 51007 60006 83500 91800 333 10065 20012=
07460,1997-12-14 00:00:00,1,1033.9,-0.2,93,0,10000,3.704,,,90,,,,,,,,,,,wg-a,,,,AAXX 14004 07460 12360 /0902 10010 20000 39926 40339 58002 60006 85600 90000=
07460,1997-12-14 03:00:00,1,1033.3,-0.5,93,0,6000,0,,,0,,,,,,,,,,,wg-a,,,,AAXX 14034 07460 12356 /0000 10010 20000 39921 40333 58005 60006 86600 90300=
07460,1997-12-14 06:00:00,1,1032.5,-0.9,93,0,2500,3.704,,,360,-0.5,3.1,,,,,,,,10,wg-a,,,,AAXX 14064 07460 02125 73602 10010 20000 39912 40325 56009 60006 71022 876// 90600 333 10031 21005 60004=
07460,1997-12-14 09:00:00,1,1031.8,-0.6,93,0,8000,0,,,0,,,,,,,,,,,wg-a,,,,AAXX 14094 07460 12258 /0000 10010 20000 39906 40318 58006 60006 84600 90900=
07460,1997-12-14 12:00:00,4,1029.9,-1.4,75,0,10000,7.408,,,50,,,,,,,,,,,wg-a,,,,AAXX 14124 07460 12460 20504 10040 20000 39892 40299 58014 60006 82100 91200=
07460,1997-12-14 15:00:00,3,1027.2,-2.6,81,0,12000,7.408,,,30,,,,,,,,,,,wg-a,,,,AAXX 14154 07460 12562 /0304 10030 20000 39866 40272 56026 60006 81101 91500=
07460,1997-12-14 18:00:00,1,1026.8,-0.7,93,0,8000,3.704,,,360,0.1,5.3,,,,,,,,,wg-a,,,,AAXX 14184 07460 12458 73602 10010 20000 39859 40268 58007 60006 876// 91800 333 10053 20001=
07460,1997-12-14 21:00:00,0,1025.5,-1.5,93,-1,500,0,,,0,,,,,,,,,,,wg-a,,,,AAXX 14214 07460 12200 /0000 10000 21010 39844 40255 58015 60006 86600 92100=
07460,1997-12-15 00:00:00,0,1023.1,-2.2,100,0,4000,3.704,,,20,,,,,,,,,,10,wg-a,,,,AAXX 15004 07460 12140 70202 10000 20000 39822 40231 58022 60006 71022 875// 90000=
07460,1997-12-15 03:00:00,1,1021.7,-1.3,93,0,4000,7.408,,,10,,,,,,,,,,10,wg-a,,,,AAXX 15034 07460 12140 70104 10010 20000 39809 40217 58013 60006 71022 876// 90300=
07460,1997-12-15 06:00:00,1,1020.3,-1.3,93,0,8000,11.112,,,10,-0.9,1.4,,,,,,,,,wg-a,,,,AAXX 15064 07460 02258 70106 10010 20000 39796 40203 58013 60006 876// 90600 333 10014 21009 60004=
07460,1997-12-15 09:00:00,1,1019.4,-0.8,100,1,500,22.224,,,10,,,,1,,,,,,22,wg-a,,,,AAXX 15094 07460 12200 80112 10010 20010 39788 40194 56008 60017 72276 887// 90900=
07460,1997-12-15 12:00:00,1,1018.6,-0.8,86,-1,12000,18.52,,,20,,,,,,,,,,1,wg-a,,,,AAXX 15124 07460 02462 70210 10010 21010 39780 40186 58008 60016 70176 875// 91200 333 61000=
07460,1997-12-15 15:00:00,1,1017.9,-0.8,86,-1,8000,14.816,,,360,,,,0,,,,,,22,wg-a,,,,AAXX 15154 07460 12458 73608 10010 21010 39772 40179 56008 60007 72272 877// 91500=
07460,1997-12-15 18:00:00,1,1018,0.1,93,0,6000,11.112,,,350,0.4,2,,,,,,,,70,wg-a,,,,AAXX 15184 07460 02456 73506 10010 20000 39773 40180 53001 61000 77072 877// 91800 333 10020 20004 6100=
07460,1997-12-16 00:00:00,-1,1017.6,-0.8,86,-3,12000,7.408,,,330,,,,,,,,,,3,wg-a,,,,AAXX 16004 07460 02562 43304 11010 21030 39768 40176 58008 61000 70371 84500 90000 333 ////=
07460,1997-12-16 03:00:00,-1,1016.2,-1.5,86,-3,12000,7.408,,,340,,,,,,,,,,,wg-a,,,,AAXX 16034 07460 12562 73404 11010 21030 39753 40162 58015 60006 84501 90300=
07460,1997-12-16 06:00:00,-2,1015,-1.3,86,-4,10000,3.704,,,10,-2.2,1.2,,,,,1,,,,wg-a,,,,AAXX 16064 07460 02460 70102 11020 21040 39740 40150 56013 60006 8553/ 90600 333 10012 21022 60014=
07460,1997-12-16 15:00:00,0,1008.5,-3.2,93,-1,6000,3.704,,,40,,,,,,,,,,,wg-a,,,,AAXX 16154 07460 12556 70402 10000 21010 39681 40085 56032 60006 8157/ 91500=
07460,1997-12-16 18:00:00,0,1006.6,-1.8,93,-1,7000,3.704,,,60,-2.6,0.2,,,,,,,,,wg-a,,,,AAXX 16184 07460 12557 80602 10000 21010 39663 40066 56018 60006 8357/ 91800 333 10002 21026=
07460,1997-12-16 21:00:00,1,1004.6,-1.9,86,-1,9000,7.408,,,110,,,,,,,,,,1,wg-a,,,,AAXX 16214 07460 02559 81104 10010 21010 39645 40046 56019 61000 70172 8357/ 92100 333 ////=
07460,1997-12-17 00:00:00,6,1002.2,-1.6,70,1,9000,46.3,,75.932,160,,,,0,,,,,,23,wg-a,,,,AAXX 17004 07460 02559 81625 10060 20010 39629 40022 58016 60006 72376 8257/ 90000 333 60007 91041=
07460,1997-12-17 03:00:00,7,999.9,-2.1,66,1,10000,38.892,,61.116,180,,,,,,,,,,21,wg-a,,,,AAXX 17034 07460 02660 71821 10070 20010 39608 49999 56021 61000 72162 8257/ 90300 333 //// 91033=
07460,1997-12-17 06:00:00,8,999.6,-0.1,66,2,12000,38.892,,,180,-0.2,7.9,,,,,,,,21,wg-a,,,,AAXX 17064 07460 02662 71821 10080 20020 39607 49996 55001 61000 72162 8157/ 90600 333 10079 21002 6000=
07460,1997-12-17 09:00:00,9,999.5,0,61,2,35000,42.596,,,180,,,,,,,,,,3,wg-a,,,,AAXX 17094 07460 12581 71823 10090 20020 39607 49995 50000 60006 70362 8187/ 90900=
07460,1997-12-17 12:00:00,11,999.2,-0.1,62,4,40000,42.596,,64.82,180,,,,,,,,,,2,wg-a,,,,AAXX 17124 07460 12582 71823 10110 20040 39607 49992 58001 60006 70262 8187/ 91200 333 91035=
07460,1997-12-17 18:00:00,11,1001,1.1,62,4,50000,22.224,,,160,7.8,11.8,,,,,,,,,wg-a,,,,AAXX 17184 07460 12584 31612 10110 20040 39624 40010 52011 60006 81832 91800 333 10118 20078=
07460,1997-12-17 21:00:00,12,1000.8,0,62,5,15000,42.596,,61.116,170,,,,,,,,,,,wg-a,,,,AAXX 17214 07460 12665 71723 10120 20050 39624 40008 50000 60006 82530 92100 333 91033=
07460,1997-12-18 00:00:00,12,1000.8,-0.4,62,5,15000,35.188,,57.412,170,,,,,,,,,,,wg-a,,,,AAXX 18004 07460 12665 71719 10120 20050 39624 40008 58004 60006 8153/ 90000 333 91031=
07460,1997-12-18 03:00:00,13,1000.2,-0.3,58,5,15000,46.3,,64.82,170,,,,,,,,,,,wg-a,,,,AAXX 18034 07460 12565 71725 10130 20050 39620 40002 55003 60006 8583/ 90300 333 91035=
07460,1997-12-18 06:00:00,11,998.6,-1.9,76,7,15000,35.188,,55.56,170,10.1,13.2,,,,,,,,60,wg-a,,,,AAXX 18064 07460 02565 71719 10110 20070 39602 49986 56019 61000 76062 8383/ 90600 333 10132 20101 6000 91030=
07460,1997-12-18 09:00:00,13,999.2,1,62,6,40000,35.188,,57.412,180,,,,0,,,,,,1,wg-a,,,,AAXX 18094 07460 12682 71819 10130 20060 39610 49992 50010 60007 70162 83872 90900 333 91031=
07460,1997-12-18 12:00:00,15,998,-1.1,55,6,40000,35.188,,,170,,,,0,,,,,,1,wg-a,,,,AAXX 18124 07460 02682 /1719 10150 20060 39601 49980 58011 60016 70162 82242 91200 333 60007=
07460,1997-12-18 15:00:00,11,1000.4,2,87,9,12000,22.224,,,160,,,,1,,,,,,60,wg-a,,,,AAXX 18154 07460 12562 81612 10110 20090 39620 40004 53020 60017 76062 8687/ 91500=
07460,1997-12-18 18:00:00,11,997.2,-3,76,7,15000,35.188,,,170,9.5,15.7,,2,,,,,,1,wg-a,,,,AAXX 18184 07460 02565 71719 10110 20070 39589 49972 58030 60006 70162 8387/ 91800 333 10157 20095 60027=
07460,1997-12-18 21:00:00,9,999.4,2.1,93,8,10000,11.112,,,180,,,,2,,,,,,62,wg-a,,,,AAXX 18214 07460 12560 71806 10090 20080 39607 49994 53021 60027 76262 8587/ 92100=
07460,1997-12-19 00:00:00,7,1000,0.2,87,5,15000,31.484,,,190,,,,3,,,,,,1,wg-a,,,,AAXX 19004 07460 02565 41917 10070 20050 39610 40000 50002 60056 70161 84800 90000 333 60037=
07460,1997-12-19 03:00:00,6,1000.7,0.5,81,3,15000,29.632,,,180,,,,,,,,,,,wg-a,,,,AAXX 19034 07460 12665 31816 10060 20030 39615 40007 53005 60006 83500 90300=
07460,1997-12-19 06:00:00,6,1000.5,-0.2,81,3,20000,7.408,,,160,5.4,11.6,,,,,9,,,,wg-a,,,,AAXX 19064 07460 02770 51604 10060 20030 39612 40005 55002 60006 83540 90600 333 10116 20054 60094=
07460,1997-12-19 09:00:00,7,1001.3,1,87,5,25000,3.704,,,290,,,,,,,,,,,wg-a,,,,AAXX 19094 07460 12775 72902 10070 20050 39623 40013 52010 60006 83532 90900=
07460,1997-12-19 12:00:00,13,999.9,-0.6,67,7,500,3.704,,,150,,,,,,,,,,,wg-a,,,,AAXX 19124 07460 12700 41502 10130 20070 39617 49999 58006 60006 83501 91200=
07460,1997-12-19 15:00:00,12,998.8,-1.1,76,8,500,14.816,,,180,,,,,,,,,,,wg-a,,,,AAXX 19154 07460 12700 31808 10120 20080 39606 49988 56011 60006 81131 91500=
07460,1997-12-19 18:00:00,8,1000.5,1,87,6,20000,7.408,,,200,5.1,13.9,,,,,,,,,wg-a,,,,AAXX 19184 07460 12770 72004 10080 20060 39616 40005 53010 60006 81101 91800 333 10139 20051=
07460,1997-12-19 21:00:00,5,1001,0,93,4,10000,3.704,,,320,,,,,,,,,,,wg-a,,,,AAXX 19214 07460 12660 73202 10050 20040 39617 40010 50000 60006 81502 92100=
07460,1997-12-20 00:00:00,5,1001.2,0.1,93,4,7000,3.704,,,180,,,,,,,,,,,wg-a,,,,AAXX 20004 07460 12557 71802 10050 20040 39618 40012 50001 60006 81502 90000=
07460,1997-12-20 03:00:00,5,1001.2,0.1,93,4,8000,3.704,,,330,,,,,,,,,,,wg-a,,,,AAXX 20034 07460 12658 73302 10050 20040 39619 40012 53001 60006 83502 90300=
07460,1997-12-20 06:00:00,6,1001.7,0.5,93,5,7000,3.704,,,200,4,9.7,,,,,,,,61,wg-a,,,,AAXX 20064 07460 02557 72002 10060 20050 39625 40017 53005 61000 76162 878// 90600 333 10097 20040 6001=
07460,1997-12-20 09:00:00,7,1003.5,2,93,6,15000,7.408,,,180,,,,1,,,,,,21,wg-a,,,,AAXX 20094 07460 12565 71804 10070 20060 39644 40035 53020 60017 72162 8287/ 90900=
07460,1997-12-20 15:00:00,11,1004.5,1,62,4,25000,14.816,,,240,,,,,,,,,,,wg-a,,,,AAXX 20154 07460 12675 52408 10110 20040 39658 40045 53010 60006 84801 91500=
07460,1997-12-20 18:00:00,8,1006,1.1,76,4,15000,11.112,,,160,5.9,11.2,,,,,,,,,wg-a,,,,AAXX 20184 07460 12665 /1606 10080 20040 39668 40060 52011 60006 86800 91800 333 10112 20059=
07460,1997-12-20 21:00:00,6,1006.6,0.3,81,3,14000,14.816,,,200,,,,,,,,,,,wg-a,,,,AAXX 20214 07460 12664 22008 10060 20030 39672 40066 51003 60006 82800 92100=
07460,1997-12-21 00:00:00,6,1006.6,-0.1,81,3,12000,22.224,,,200,,,,,,,,,,80,wg-a,,,,AAXX 21004 07460 02662 62012 10060 20030 39671 40066 58001 61000 78086 8387/ 90000 333 6100=
07460,1997-12-21 03:00:00,6,1006.8,0.3,87,4,13000,3.704,,,60,,,,1,,,,,,60,wg-a,,,,AAXX 21034 07460 12563 70602 10060 20040 39674 40068 52003 60017 76086 8583/ 90300=
07460,1997-12-21 06:00:00,6,1007.5,0.6,93,5,13000,3.704,,,300,5,8.4,,0,,,2,,,3,wg-a,,,,AAXX 21064 07460 02563 73002 10060 20050 39680 40075 53006 60024 70386 875// 90600 333 10084 20050 60007=
07460,1997-12-21 09:00:00,6,1009.9,2.4,93,5,10000,7.408,,,340,,,,,,,,,,,wg-a,,,,AAXX 21094 07460 12260 73404 10060 20050 39704 40099 53024 60006 875// 90900=
07460,1997-12-21 12:00:00,7,1011.5,1.5,93,6,3500,7.408,,,20,,,,,,,,,,10,wg-a,,,,AAXX 21124 07460 02235 70204 10070 20060 39720 40115 51015 61000 71052 876// 91200 333 6100=
07460,1997-12-21 15:00:00,9,1012.2,0.9,76,5,14000,7.408,,,350,,,,,,,,,,3,wg-a,,,,AAXX 21154 07460 02564 73504 10090 20050 39729 40122 53009 61000 70352 878// 91500 333 ////=
07460,1997-12-21 18:00:00,7,1013.3,0.9,87,5,15000,3.704,,,170,5.6,8.9,,,,,,,,2,wg-a,,,,AAXX 21184 07460 12665 71702 10070 20050 39738 40133 51009 60006 70252 878// 91800 333 10089 20056=
07460,1997-12-21 21:00:00,6,1014.2,0.7,93,5,15000,3.704,,,140,,,,,,,,,,,wg-a,,,,AAXX 21214 07460 12665 71402 10060 20050 39745 40142 50007 60006 875// 92100=
07460,1997-12-22 00:00:00,4,1015,0.4,100,4,8000,3.704,,,250,,,,,,,,,,,wg-a,,,,AAXX 22004 07460 12358 72502 10040 20040 39750 40150 51004 60006 875// 90000=
07460,1997-12-22 03:00:00,4,1015.2,0.2,93,3,8000,3.704,,,350,,,,,,,,,,,wg-a,,,,AAXX 22034 07460 12458 73502 10040 20030 39751 40152 53002 60006 875// 90300=
07460,1997-12-22 06:00:00,3,1014.2,-1.1,100,3,10000,3.704,,,90,2.9,7.1,,,,,,,,,wg-a,,,,AAXX 22064 07460 02560 /0902 10030 20030 39740 40142 56011 60006 85500 90600 333 10071 20029 61000=
07460,1997-12-22 09:00:00,5,1013.9,0.1,87,3,25000,11.112,,,150,,,,,,,,,,,wg-a,,,,AAXX 22094 07460 12/75 31506 10050 20030 39740 40139 53001 60006 80001 90900=
07460,1997-12-22 12:00:00,9,1012.1,-1.3,66,3,500,14.816,,,180,,,,,,,,,,,wg-a,,,,AAXX 22124 07460 12/00 51808 10090 20030 39728 40121 58013 60006 80001 91200=
07460,1997-12-22 15:00:00,8,1011.5,-0.7,76,4,500,7.408,,,60,,,,,,,,,,,wg-a,,,,AAXX 22154 07460 12/00 70604 10080 20040 39721 40115 56007 60006 82032 91500=
07460,1997-12-22 18:00:00,3,1013.2,0.9,87,1,15000,3.704,,,210,2.3,10.3,,,,,,,,,wg-a,,,,AAXX 22184 07460 12/65 72102 10030 20010 39730 40132 53009 60006 82032 91800 333 10103 20023=
07460,1997-12-22 21:00:00,3,1014.1,0.9,93,2,15000,0,,,0,,,,,,,,,,,wg-a,,,,AAXX 22214 07460 12765 70000 10030 20020 39739 40141 52009 60006 8253/ 92100=
07460,1997-12-23 00:00:00,3,1014.9,0.8,100,3,10000,0,,,0,,,,,,,,,,,wg-a,,,,AAXX 23004 07460 12660 70000 10030 20030 39747 40149 52008 60006 8453/ 90000=
07460,1997-12-23 03:00:00,4,1016.6,1.8,93,3,12000,7.408,,,10,,,,,,,,,,,wg-a,,,,AAXX 23034 07460 12662 70104 10040 20030 39764 40166 53018 60006 8353/ 90300=
07460,1997-12-23 06:00:00,4,1018.9,2.1,93,3,8000,0,,,0,2.4,3.7,,,,,,,,51,wg-a,,,,AAXX 23064 07460 02458 70000 10040 20030 39786 40189 53021 61000 75152 875// 90600 333 10037 20024 6001=
07460,1997-12-23 09:00:00,5,1022,3.1,93,4,8000,3.704,,,70,,,,0,,,,,,3,wg-a,,,,AAXX 23094 07460 12558 70702 10050 20040 39818 40220 53031 60007 70352 875// 90900=
07460,1997-12-23 12:00:00,7,1023.8,1.9,93,6,8000,0,,,0,,,,,,,,,,2,wg-a,,,,AAXX 23124 07460 12558 70000 10070 20060 39838 40238 51019 60006 70252 875// 91200=
07460,1997-12-23 15:00:00,10,1025.1,1.7,71,5,20000,3.704,,,350,,,,,,,,,,,wg-a,,,,AAXX 23154 07460 12570 73502 10100 20050 39855 40251 53017 60006 878// 91500=
07460,1997-12-23 18:00:00,7,1027.9,2.2,81,4,15000,0,,,0,3.5,9.7,,,,,,,,,wg-a,,,,AAXX 23184 07460 12665 70000 10070 20040 39878 40279 51022 60006 875// 91800 333 10097 20035=
07460,1997-12-23 21:00:00,9,1028.4,0.9,66,3,15000,22.224,,,180,,,,,,,,,,,wg-a,,,,AAXX 23214 07460 12565 71812 10090 20030 39885 40284 51009 60006 875// 92100=
07460,1997-12-24 00:00:00,7,1028.7,-0,81,4,15000,22.224,,,190,,,,,,,,,,,wg-a,,,,AAXX 24004 07460 12565 71912 10070 20040 39886 40287 55000 60006 875// 90000=
07460,1997-12-24 03:00:00,8,1029.4,0.9,76,4,15000,18.52,,,200,,,,,,,,,,,wg-a,,,,AAXX 24034 07460 12565 72010 10080 20040 39893 40294 53009 60006 875// 90300=
07460,1997-12-24 06:00:00,7,1028.2,-1.3,81,4,15000,25.928,,,190,6.7,8.6,,,,,,,,,wg-a,,,,AAXX 24064 07460 02665 71914 10070 20040 39881 40282 58013 60006 875// 90600 333 10086 20067 60004=
07460,1997-12-24 09:00:00,8,1029.2,1.1,81,5,500,7.408,,,200,,,,,,,,,,,wg-a,,,,AAXX 24094 07460 12/00 72004 10080 20050 39891 40292 53011 60006 81046 90900=
07460,1997-12-24 12:00:00,10,1027.2,-1.6,82,7,500,7.408,,,90,,,,,,,,,,,wg-a,,,,AAXX 24124 07460 12/00 60904 10100 20070 39876 40272 56016 60006 84072 91200=
07460,1997-12-24 15:00:00,12,1024.1,-2.8,76,8,25000,7.408,,,180,,,,,,,,,,,wg-a,,,,AAXX 24154 07460 12/75 71804 10120 20080 39848 40241 56028 60006 85072 91500=
07460,1997-12-24 18:00:00,11,1024.4,0.1,76,7,25000,11.112,,,70,6.9,12.1,,,,,,,,,wg-a,,,,AAXX 24184 07460 12775 70706 10110 20070 39850 40244 53001 60006 82532 91800 333 10121 20069=
07460,1997-12-24 21:00:00,13,1024.8,0.7,54,4,15000,11.112,,,200,,,,,,,,,,,wg-a,,,,AAXX 24214 07460 12765 72006 10130 20040 39856 40248 50007 60006 8157/ 92100=
07460,1997-12-25 00:00:00,13,1025.2,0.4,67,7,12000,14.816,,,160,,,,,,,,,,,wg-a,,,,AAXX 25004 07460 12562 71608 10130 20070 39860 40252 50004 60006 875// 90000=
07460,1997-12-25 06:00:00,11,1023.2,-1.4,82,8,12000,22.224,,,180,10.3,14,,,,,,,,,wg-a,,,,AAXX 25064 07460 02562 71812 10110 20080 39839 40232 57014 60006 8387/ 90600 333 10140 20103 60004=
07460,1997-12-25 09:00:00,12,1022.7,-0.5,76,8,20000,18.52,,,160,,,,,,,,,,,wg-a,,,,AAXX 25094 07460 12670 51610 10120 20080 39835 40227 58005 60006 82531 90900=
07460,1997-12-25 12:00:00,15,1019.8,-2.2,72,10,500,18.52,,,200,,,,,,,,,,,wg-a,,,,AAXX 25124 07460 12600 72010 10150 20100 39811 40198 58022 60006 82132 91200=
07460,1997-12-25 18:00:00,16,1018,0.7,59,8,20000,18.52,,,210,11.1,18.9,,,,,,,,80,wg-a,,,,AAXX 25184 07460 02670 82110 10160 20080 39795 40180 53007 61000 78086 84832 91800 333 10189 20111 6100=
07460,1997-12-25 21:00:00,14,1017.8,-0.5,67,8,14000,18.52,,,200,,,,,,,,,,3,wg-a,,,,AAXX 25214 07460 02664 82010 10140 20080 39791 40178 58005 61000 70386 86832 92100 333 ////=
07460,1997-12-26 00:00:00,10,1019.4,1,71,5,14000,22.224,,38.892,150,,,,,,,,,,60,wg-a,,,,AAXX 26004 07460 02664 71512 10100 20050 39801 40194 51010 61000 76086 86832 90000 333 6100 91021=
07460,1997-12-26 03:00:00,10,1018.2,-1.1,66,4,13000,14.816,,,170,,,,0,,,,,,3,wg-a,,,,AAXX 26034 07460 12663 81708 10100 20040 39789 40182 56011 60007 70362 85532 90300=
07460,1997-12-26 06:00:00,9,1016.7,-1.6,71,4,14000,11.112,,,170,9.1,15.3,,,,,,,,3,wg-a,,,,AAXX 26064 07460 02564 81706 10090 20040 39773 40167 56016 60006 70362 84832 90600 333 10153 20091 60004=
07460,1997-12-26 09:00:00,9,1016.2,-0.5,66,3,500,11.112,,,160,,,,,,,,,,1,wg-a,,,,AAXX 26094 07460 02600 51606 10090 20030 39768 40162 58005 61000 70186 81831 90900 333 ////=
07460,1997-12-26 12:00:00,10,1015.1,-0.9,66,4,500,14.816,,,190,,,,,,,,,,1,wg-a,,,,AAXX 26124 07460 02600 /1908 10100 20040 39759 40151 58009 61000 70186 83831 91200 333 ////=
07460,1997-12-26 18:00:00,9,1014,0,66,3,12000,14.816,,,200,7.3,12.1,,0,,,,,,3,wg-a,,,,AAXX 26184 07460 02562 /2008 10090 20030 39746 40140 50000 60006 70386 85830 91800 333 10121 20073 60007=
07460,1997-12-26 21:00:00,9,1014.1,0,61,2,15000,25.928,,,260,,,,,,,,,,3,wg-a,,,,AAXX 26214 07460 02565 62614 10090 20020 39747 40141 50000 61000 70386 85830 92100 333 ////=
07460,1997-12-27 00:00:00,6,1014.5,0.1,81,3,14000,7.408,,,120,,,,0,,,,,,60,wg-a,,,,AAXX 27004 07460 02564 71204 10060 20030 39748 40145 50001 60006 76086 86830 90000 333 60007=
07460,1997-12-27 03:00:00,7,1014.2,-0.3,70,2,14000,7.408,,,240,,,,,,,,,,1,wg-a,,,,AAXX 27034 07460 02564 42404 10070 20020 39745 40142 58003 61000 70161 84800 90300 333 ////=
07460,1997-12-27 06:00:00,6,1014.6,0.2,75,2,14000,11.112,,,250,5.5,8.6,,,,,1,,,1,wg-a,,,,AAXX 27064 07460 02564 52506 10060 20020 39748 40146 53002 60006 70161 84801 90600 333 10086 20055 60014=
07460,1997-12-27 09:00:00,7,1015.6,1.2,70,2,15000,11.112,,,250,,,,,,,,,,,wg-a,,,,AAXX 27094 07460 12565 /2506 10070 20020 39759 40156 53012 60006 85840 90900=
07460,1997-12-27 12:00:00,8,1015.2,-0.3,71,3,35000,11.112,,,280,,,,,,,,,,,wg-a,,,,AAXX 27124 07460 12581 72806 10080 20030 39757 40152 58003 60006 86840 91200=
07460,1997-12-27 15:00:00,7,1015.5,0.3,76,3,8000,22.224,,,310,,,,,,,,,,15,wg-a,,,,AAXX 27154 07460 12558 63112 10070 20030 39759 40155 53003 60006 71522 85840 91500=
07460,1997-12-27 18:00:00,6,1017.3,1.5,75,2,15000,7.408,,,280,4.9,8.4,,,,,,,,25,wg-a,,,,AAXX 27184 07460 02565 62804 10060 20020 39774 40173 53015 61000 72586 86800 91800 333 10084 20049 6000=
07460,1997-12-27 21:00:00,5,1017.9,0.5,75,1,15000,7.408,,,300,,,,,,,,,,,wg-a,,,,AAXX 27214 07460 12565 33004 10050 20010 39779 40179 50005 60006 83800 92100=
07460,1997-12-28 00:00:00,6,1017.9,0.1,70,1,15000,11.112,,,280,,,,,,,,,,,wg-a,,,,AAXX 28004 07460 12565 /2806 10060 20010 39780 40179 50001 60006 86800 90000=
07460,1997-12-28 06:00:00,5,1017.8,-0.2,75,1,15000,11.112,,,280,4.3,6.1,,,,,,,,,wg-a,,,,AAXX 28064 07460 02665 /2806 10050 20010 39777 40178 55002 60006 86800 90600 333 10061 20043 60004=
07460,1997-12-28 09:00:00,5,1018.4,0.7,81,2,14000,3.704,,,170,,,,,,,,,,,wg-a,,,,AAXX 28094 07460 12664 71702 10050 20020 39784 40184 53007 60006 87500 90900=
07460,1997-12-28 12:00:00,8,1016.4,-1.6,61,1,14000,3.704,,,190,,,,,,,,,,,wg-a,,,,AAXX 28124 07460 12664 /1902 10080 20010 39768 40164 58016 60006 86801 91200=
07460,1997-12-28 15:00:00,6,1015.6,-1,81,3,15000,3.704,,,320,,,,,,,,,,25,wg-a,,,,AAXX 28154 07460 02665 73202 10060 20030 39758 40156 56010 61000 72586 878// 91500 333 ////=
07460,1997-12-28 18:00:00,3,1016,-0.2,87,1,15000,3.704,,,230,2.9,7.8,,0,,,,,,25,wg-a,,,,AAXX 28184 07460 12565 42302 10030 20010 39757 40160 56002 60007 72586 84800 91800 333 10078 20029=
07460,1997-12-28 21:00:00,1,1015.7,-0.5,93,0,15000,3.704,,,30,,,,,,,,,,,wg-a,,,,AAXX 28214 07460 12665 /0302 10010 20000 39751 40157 58005 60006 85500 92100=
07460,1997-12-29 00:00:00,-1,1014.9,-0.9,93,-2,15000,3.704,,,30,,,,,,,,,,,wg-a,,,,AAXX 29004 07460 12665 20302 11010 21020 39742 40149 56009 60006 82500 90000=
07460,1997-12-29 03:00:00,-1,1014.8,-0.2,86,-3,15000,3.704,,,300,,,,,,,,,,,wg-a,,,,AAXX 29034 07460 12665 /3002 11010 21030 39740 40148 58002 60006 81500 90300=
07460,1997-12-29 06:00:00,-1,1014.4,-0.4,93,-2,15000,14.816,,,180,-2.1,3.1,,,,,,,,,wg-a,,,,AAXX 29064 07460 02/65 01808 11010 21020 39736 40144 55004 60006 80000 90600 333 10031 21021 60004=
07460,1997-12-29 09:00:00,0,1014.8,0.6,86,-2,500,3.704,,,350,,,,,,,,,,,wg-a,,,,AAXX 29094 07460 12/00 23502 10000 21020 39742 40148 52006 60006 80001 90900=
07460,1997-12-29 12:00:00,6,1012.8,-1.4,61,-1,500,7.408,,,170,,,,,,,,,,,wg-a,,,,AAXX 29124 07460 12/00 01704 10060 21010 39730 40128 58014 60006 80000 91200=
07460,1997-12-29 15:00:00,7,1011.2,-1.1,61,0,500,7.408,,,80,,,,,,,,,,,wg-a,,,,AAXX 29154 07460 12/00 10804 10070 20000 39718 40112 56011 60006 80001 91500=
07460,1997-12-29 18:00:00,1,1012.6,0.3,80,-2,15000,3.704,,,130,-2.8,8.4,,,,,,,,,wg-a,,,,AAXX 29184 07460 12/65 11302 10010 21020 39721 40126 52003 60006 80001 91800 333 10084 21028=
07460,1997-12-30 00:00:00,0,1012.6,0,80,-3,15000,7.408,,,350,,,,,,,,,,,wg-a,,,,AAXX 30004 07460 12/65 03504 10000 21030 39721 40126 50000 60006 80000 90000=
07460,1997-12-30 03:00:00,0,1013.7,1,74,-4,15000,11.112,,,200,,,,,,,,,,,wg-a,,,,AAXX 30034 07460 12/65 12006 10000 21040 39731 40137 53010 60006 81031 90300=
07460,1997-12-30 06:00:00,4,1012.9,-0.3,65,-2,15000,25.928,,,200,-1.8,3.6,,,,,,,,,wg-a,,,,AAXX 30064 07460 02/65 52014 10040 21020 39728 40129 55003 60006 85032 90600 333 10036 21018 60004=
07460,1997-12-30 09:00:00,6,1013.5,1.1,70,1,35000,3.704,,,240,,,,,,,,,,,wg-a,,,,AAXX 30094 07460 12881 62402 10060 20010 39738 40135 53011 60006 86530 90900=
07460,1997-12-30 12:00:00,11,1011.5,-1.4,62,4,40000,31.484,,,180,,,,,,,,,,,wg-a,,,,AAXX 30124 07460 12782 61817 10110 20040 39725 40115 58014 60006 82532 91200=
07460,1997-12-30 15:00:00,11,1011.4,-0,66,5,500,25.928,,,180,,,,,,,,,,,wg-a,,,,AAXX 30154 07460 12700 71814 10110 20050 39724 40114 55000 60006 8553/ 91500=
07460,1997-12-30 18:00:00,10,1011.6,0.1,71,5,15000,29.632,,,200,3.7,11.4,,,,,,,,,wg-a,,,,AAXX 30184 07460 12765 72016 10100 20050 39725 40116 53001 60006 8553/ 91800 333 10114 20037=
07460,1997-12-30 21:00:00,9,1011.6,0,76,5,15000,29.632,,,180,,,,,,,,,,,wg-a,,,,AAXX 30214 07460 12765 71816 10090 20050 39724 40116 50000 60006 8553/ 92100=
07460,1997-12-31 00:00:00,10,1009.9,-1.4,71,5,15000,29.632,,,170,,,,,,,,,,,wg-a,,,,AAXX 31004 07460 12765 71716 10100 20050 39709 40099 58014 60006 8553/ 90000=
07460,1997-12-31 06:00:00,8,1009.1,-0.5,76,4,15000,22.224,,,190,7.5,10.2,,,,,,,,,wg-a,,,,AAXX 31064 07460 02/65 21912 10080 20040 39698 40091 55005 60006 80002 90600 333 10102 20075 60004=
07460,1997-12-31 09:00:00,10,1009.9,1.3,76,6,20000,25.928,,,170,,,,,,,,,,,wg-a,,,,AAXX 31094 07460 12770 71714 10100 20060 39710 40099 51013 60006 8453/ 90900=
07460,1997-12-31 12:00:00,12,1009.2,-0.4,71,7,9000,35.188,,,170,,,,,,,,,,,wg-a,,,,AAXX 31124 07460 12559 61719 10120 20070 39706 40092 58004 60006 84830 91200=
07460,1997-12-31 15:00:00,12,1010,0.6,71,7,15000,18.52,,,180,,,,0,,,,,,21,wg-a,,,,AAXX 31154 07460 12665 71810 10120 20070 39712 40100 51006 60007 72162 8587/ 91500=
07460,1997-12-31 18:00:00,10,1012.2,1.9,87,8,11000,7.408,,,60,7.7,13.2,,,,,,,,,wg-a,,,,AAXX 31184 07460 12/61 /0604 10100 20080 39731 40122 51019 60006 91800 333 10132 20077=
07460,1997-12-31 21:00:00,7,1014.7,2,93,6,6000,0,,,0,,,,4,,,,,,60,wg-a,,,,AAXX 31214 07460 12456 70000 10070 20060 39751 40147 51020 60047 76062 875// 92100=
