station_id,dh_utc,temperature,pression,pression_variation_3h,humidite,point_de_rosee,visibilite,vent_moyen,vent_rafales,vent_rafales_10min,vent_direction,temperature_min,temperature_max,pluie_1h,pluie_3h,pluie_6h,pluie_12h,pluie_24h,ensoleillement,temperature_sol,temps_omm,source,radiations,neige_au_sol,nebulosite,raw_msg
07621,1996-01-01 00:00:00,5,1004.1,-2,93,4,15000,7.408,,,170,,,,,,,,,,,wg-a,,,,AAXX 01004 07621 12/65 51704 10050 20040 39605 40041 58020 60006 82042 90000=
07621,1996-01-01 06:00:00,5,997.5,-3.7,100,5,15000,3.704,,,160,4.2,8.8,,1,,,1,,,1,wg-a,,,,AAXX 01064 07621 02/65 11602 10050 20050 39543 49975 58037 60014 70161 81032 90600 333 10088 20042 60017=
07621,1996-01-01 09:00:00,10,995.6,-1.2,76,6,15000,3.704,,,240,,,,0,,,,,,,wg-a,,,,AAXX 01094 07621 12765 62402 10100 20060 39531 49956 56012 60007 865/0 90900=
07621,1996-01-01 12:00:00,13,994.6,-0.4,77,9,35000,3.704,,,340,,,,,,,,,,,wg-a,,,,AAXX 01124 07621 12681 43402 10130 20090 39527 49946 58004 60006 81832 91200=
07621,1996-01-01 15:00:00,16,995.4,1.2,51,6,20000,31.484,,,270,,,,,,,,,,,wg-a,,,,AAXX 01154 07621 12670 72717 10160 20060 39539 49954 53012 60006 878// 91500=
07621,1996-01-01 18:00:00,11,1003,6.5,87,9,10000,35.188,,68.524,270,3.6,16.6,,4,,,,,,81,wg-a,,,,AAXX 01184 07621 12460 72719 10110 20090 39604 40030 53065 60047 78186 878// 91800 333 10166 20036 91037=
07621,1996-01-01 21:00:00,10,1005.6,2.3,82,7,10000,18.52,,,260,,,,1,,,,,,2,wg-a,,,,AAXX 01214 07621 12560 52610 10100 20070 39627 40056 52023 60017 70286 85230 92100=
07621,1996-01-02 00:00:00,10,1007.7,2.1,71,5,10000,29.632,,61.116,260,,,,,,,,,,1,wg-a,,,,AAXX 02004 07621 12660 22616 10100 20050 39648 40077 51021 60016 70186 82230 90000 333 91033=
07621,1996-01-02 03:00:00,10,1009.8,2,71,5,10000,25.928,,57.412,270,,,,,,,,,,,wg-a,,,,AAXX 02034 07621 12560 52714 10100 20050 39668 40098 51020 60006 858/0 90300 333 91031=
07621,1996-01-02 06:00:00,8,1012.5,2.3,87,6,10000,25.928,,72.228,250,7.8,11.7,,2,,,7,,,61,wg-a,,,,AAXX 02064 07621 02460 72514 10080 20060 39691 40125 51023 60074 76186 8527/ 90600 333 10117 20078 60027 91039=
07621,1996-01-02 09:00:00,8,1016.8,4,93,7,10000,29.632,,64.82,240,,,,11,,,,,,60,wg-a,,,,AAXX 02094 07621 12460 72416 10080 20070 39731 40168 51040 60117 76066 878// 90900 333 91035=
07621,1996-01-02 12:00:00,9,1018.9,2.2,93,8,4000,25.928,,64.82,270,,,,14,,,,,,63,wg-a,,,,AAXX 02124 07621 02440 82714 10090 20080 39753 40189 51022 60256 76366 878// 91200 333 60147 91035=
07621,1996-01-02 15:00:00,10,1019.7,1,87,8,500,22.224,,53.708,240,,,,4,,,,,,1,wg-a,,,,AAXX 02154 07621 12400 52412 10100 20080 39763 40197 51010 60047 70162 85800 91500 333 91029=
07621,1996-01-02 18:00:00,8,1021.1,1,87,6,500,22.224,,53.708,250,6.9,10.4,,,,,,,,1,wg-a,,,,AAXX 02184 07621 32400 /2512 10080 20060 39773 40211 51010 70161 81800 91800 333 10104 20069 91029=
07621,1996-01-02 21:00:00,4,1022.4,0.6,87,2,15000,11.112,,,180,,,,,,,,,,,wg-a,,,,AAXX 02214 07621 12/65 01806 10040 20020 39779 40224 50006 60006 80000 92100=
07621,1996-01-03 00:00:00,2,1022.4,-0.3,93,1,15000,11.112,,,190,,,,,,,,,,,wg-a,,,,AAXX 03004 07621 12/65 01906 10020 20010 39776 40224 58003 60006 80000 90000=
07621,1996-01-03 03:00:00,3,1020,-2.2,81,0,15000,7.408,,,140,,,,,,,,,,,wg-a,,,,AAXX 03034 07621 12/65 41404 10030 20000 39754 40200 58022 60006 80002 90300=
07621,1996-01-03 06:00:00,1,1019.2,-1.1,86,-1,15000,3.704,,,300,0.9,8.1,,,,,28,,,,wg-a,,,,AAXX 03064 07621 02/65 73002 10010 21010 39743 40192 55011 60006 83032 90600 333 10081 20009 60284=
07621,1996-01-03 09:00:00,1,1019.9,0.7,93,0,500,3.704,,,230,,,,,,,,,,,wg-a,,,,AAXX 03094 07621 12/00 72302 10010 20000 39750 40199 53007 60006 8703/ 90900=
07621,1996-01-03 12:00:00,8,1018.1,-0.6,76,4,500,3.704,,,10,,,,,,,,,,,wg-a,,,,AAXX 03124 07621 12/00 60102 10080 20040 39744 40181 58006 60006 80002 91200=
07621,1996-01-03 15:00:00,12,1016.3,-1.2,71,7,500,7.408,,,10,,,,,,,,,,,wg-a,,,,AAXX 03154 07621 12/00 30104 10120 20070 39732 40163 56012 60006 80002 91500=
07621,1996-01-03 18:00:00,4,1018.2,0.6,93,3,500,7.408,,,190,0.1,11.7,,,,,,,,,wg-a,,,,AAXX 03184 07621 12/00 51904 10040 20030 39738 40182 52006 60006 80001 91800 333 10117 20001=
07621,1996-01-03 21:00:00,0,1018.2,-0.6,93,-1,15000,7.408,,,200,,,,,,,,,,,wg-a,,,,AAXX 03214 07621 12/65 22004 10000 21010 39732 40182 58006 60006 80001 92100=
07621,1996-01-04 00:00:00,2,1015.9,-1.9,75,-2,15000,7.408,,,160,,,,,,,,,,,wg-a,,,,AAXX 04004 07621 12/65 31604 10020 21020 39713 40159 58019 60006 82031 90000=
07621,1996-01-04 06:00:00,4,1011.9,-1.4,65,-2,15000,11.112,,,200,-0.3,5.5,,,,,,,,,wg-a,,,,AAXX 04064 07621 02/65 72006 10040 21020 39679 40119 57014 60006 84042 90600 333 10055 21003 60004=
07621,1996-01-04 09:00:00,7,1010.6,-0.9,53,-2,40000,11.112,,,160,,,,,,,,,,,wg-a,,,,AAXX 04094 07621 12/82 71606 10070 21020 39670 40106 55009 60006 85042 90900=
07621,1996-01-04 12:00:00,12,1009.4,-0.3,54,3,40000,3.704,,,40,,,,,,,,,,,wg-a,,,,AAXX 04124 07621 12782 70402 10120 20030 39667 40094 58003 60006 8157/ 91200=
07621,1996-01-04 15:00:00,12,1008.5,-0.8,88,10,20000,3.704,,,280,,,,0,,,,,,60,wg-a,,,,AAXX 04154 07621 12470 72802 10120 20100 39659 40085 56008 60007 76062 8557/ 91500=
07621,1996-01-04 18:00:00,10,1007.8,-1,87,8,20000,0,,,0,3.8,13.9,,0,,,,,,1,wg-a,,,,AAXX 04184 07621 12/70 70000 10100 20080 39649 40078 55010 60007 70162 84042 91800 333 10139 20038=
07621,1996-01-04 21:00:00,6,1007.6,-0.9,93,5,20000,3.704,,,170,,,,,,,,,,,wg-a,,,,AAXX 04214 07621 12/70 21702 10060 20050 39640 40076 58009 60006 81042 92100=
07621,1996-01-05 00:00:00,6,1005,-2.5,87,4,20000,3.704,,,260,,,,,,,,,,,wg-a,,,,AAXX 05004 07621 12/70 /2602 10060 20040 39615 40050 58025 60006 85032 90000=
07621,1996-01-05 03:00:00,5,1001.7,-3.3,93,4,15000,0,,,0,,,,,,,,,,,wg-a,,,,AAXX 05034 07621 12/65 70000 10050 20040 39582 40017 57033 60006 8/07/ 90300=
07621,1996-01-05 06:00:00,5,1000.6,-1,93,4,15000,3.704,,,240,4,10.3,,,,,1,,,,wg-a,,,,AAXX 05064 07621 02/65 82402 10050 20040 39572 40006 58010 60006 8807/ 90600 333 10103 20040 60014=
07621,1996-01-05 09:00:00,6,1000.5,0,93,5,10000,3.704,,,160,,,,1,,,,,,2,wg-a,,,,AAXX 05094 07621 12660 71602 10060 20050 39572 40005 50000 60017 70262 8327/ 90900=
07621,1996-01-05 12:00:00,9,1001.1,1.1,93,8,12000,25.928,,,290,,,,0,,,,,,60,wg-a,,,,AAXX 05124 07621 02462 72914 10090 20080 39583 40011 53011 60016 76062 8527/ 91200 333 60007=
07621,1996-01-05 15:00:00,6,1004.3,2.6,93,5,6000,29.632,,64.82,270,,,,10,,,,,,61,wg-a,,,,AAXX 05154 07621 12356 72716 10060 20050 39609 40043 53026 60107 76166 8527/ 91500 333 91035=
07621,1996-01-05 18:00:00,5,1004.6,0.2,93,4,10000,14.816,,64.82,210,4.8,9.6,,5,,,,,,21,wg-a,,,,AAXX 05184 07621 12460 /2108 10050 20040 39611 40046 50002 60057 72162 86800 91800 333 10096 20048 91035=
07621,1996-01-05 21:00:00,4,1005,0.2,93,3,20000,14.816,,,210,,,,,,,,,,,wg-a,,,,AAXX 05214 07621 12670 42108 10040 20030 39613 40050 53002 60006 84500 92100=
07621,1996-01-06 00:00:00,4,1003.5,-1.5,81,1,20000,7.408,,,150,,,,,,,,,,,wg-a,,,,AAXX 06004 07621 12/70 01504 10040 20010 39598 40035 58015 60006 80000 90000=
07621,1996-01-06 03:00:00,2,1001.4,-2.3,80,-1,20000,7.408,,,170,,,,,,,,,,,wg-a,,,,AAXX 06034 07621 12/70 21704 10020 21010 39575 40014 56023 60006 80002 90300=
07621,1996-01-06 06:00:00,3,999,-2.2,75,-1,20000,7.408,,,120,0.3,5.7,,,,,15,,,,wg-a,,,,AAXX 06064 07621 02/70 61204 10030 21010 39553 49990 56022 60006 82042 90600 333 10057 20003 60154=
07621,1996-01-06 09:00:00,8,995.7,-2.3,57,0,40000,3.704,,,140,,,,,,,,,,,wg-a,,,,AAXX 06094 07621 12/82 51402 10080 20000 39530 49957 58023 60006 81232 90900=
07621,1996-01-06 12:00:00,10,992.9,-2.4,82,7,11000,7.408,,,10,,,,,,,,,,,wg-a,,,,AAXX 06124 07621 02/61 /0104 10100 20070 39506 49929 58024 61000 91200 333 ////=
07621,1996-01-06 15:00:00,9,990.7,-2.2,87,7,20000,7.408,,,290,,,,0,,,,,,3,wg-a,,,,AAXX 06154 07621 12870 72904 10090 20070 39484 49907 56022 60007 70362 8557/ 91500=
07621,1996-01-06 18:00:00,12,991.2,0.8,82,9,15000,11.112,,,100,2,12.1,,2,,,,,,21,wg-a,,,,AAXX 06184 07621 12765 71006 10120 20090 39492 49912 51008 60027 72162 8457/ 91800 333 10121 20020=
07621,1996-01-06 21:00:00,7,992.9,0.9,93,6,15000,3.704,,,210,,,,,,,,,,,wg-a,,,,AAXX 06214 07621 12765 32102 10070 20060 39501 49929 51009 60006 83500 92100=
07621,1996-01-07 00:00:00,6,995,1.9,93,5,15000,7.408,,,200,,,,,,,,,,,wg-a,,,,AAXX 07004 07621 12765 22004 10060 20050 39520 49950 52019 60006 82530 90000=
07621,1996-01-07 03:00:00,5,996.8,1.6,87,3,15000,14.816,,,220,,,,,,,,,,,wg-a,,,,AAXX 07034 07621 12765 32208 10050 20030 39536 49968 51016 60006 82530 90300=
07621,1996-01-07 06:00:00,4,998.6,1.5,81,1,15000,3.704,,,210,3.6,11.5,,,,,2,,,,wg-a,,,,AAXX 07064 07621 02765 /2102 10040 20010 39551 49986 51015 60006 81130 90600 333 10115 20036 60024=
07621,1996-01-07 09:00:00,5,1001.1,2.5,87,3,25000,0,,,0,,,,,,,,,,,wg-a,,,,AAXX 07094 07621 12775 70000 10050 20030 39576 40011 51025 60006 82272 90900=
07621,1996-01-07 12:00:00,8,1004,3.4,93,7,15000,11.112,,,220,,,,1,,,,,,61,wg-a,,,,AAXX 07124 07621 02565 82206 10080 20070 39610 40040 51034 60016 76161 8422/ 91200 333 60017=
07621,1996-01-07 15:00:00,11,1006.7,2.9,82,8,25000,3.704,,,260,,,,1,,,,,,2,wg-a,,,,AAXX 07154 07621 12675 72602 10110 20080 39639 40067 51029 60017 70262 8482/ 91500=
07621,1996-01-07 18:00:00,7,1010.7,3.2,87,5,25000,11.112,,,150,2.7,10.8,,0,,,,,,1,wg-a,,,,AAXX 07184 07621 12775 31506 10070 20050 39671 40107 53032 60007 70186 83800 91800 333 10108 20027=
07621,1996-01-07 21:00:00,5,1013.1,2,87,3,20000,7.408,,,170,,,,,,,,,,,wg-a,,,,AAXX 07214 07621 12/70 01704 10050 20030 39691 40131 51020 60006 80000 92100=
07621,1996-01-08 00:00:00,7,1013.3,0.5,66,1,20000,11.112,,,170,,,,,,,,,,,wg-a,,,,AAXX 08004 07621 12/70 01706 10070 20010 39696 40133 50005 60006 80000 90000=
07621,1996-01-08 03:00:00,7,1011.8,-1.4,57,-1,20000,7.408,,,150,,,,,,,,,,,wg-a,,,,AAXX 08034 07621 12/70 11504 10070 21010 39682 40118 56014 60006 80002 90300=
07621,1996-01-08 06:00:00,3,1011.6,-0.9,75,-1,20000,7.408,,,150,2.4,7.3,,,,,2,,,,wg-a,,,,AAXX 08064 07621 02/70 11504 10030 21010 39673 40116 56009 60006 80002 90600 333 10073 20024 60024=
07621,1996-01-08 09:00:00,6,1009.5,-1.5,65,0,50000,3.704,,,140,,,,,,,,,,,wg-a,,,,AAXX 08094 07621 12/84 21402 10060 20000 39658 40095 58015 60006 80002 90900=
07621,1996-01-08 12:00:00,14,1005.9,-2.2,51,4,50000,3.704,,,300,,,,,,,,,,,wg-a,,,,AAXX 08124 07621 12/84 53002 10140 20040 39636 40059 58022 60006 81042 91200=
07621,1996-01-08 15:00:00,16,1003.6,-2,45,4,50000,0,,,0,,,,,,,,,,,wg-a,,,,AAXX 08154 07621 12/84 70000 10160 20040 39616 40036 56020 60006 83042 91500=
07621,1996-01-08 18:00:00,9,1004.2,-0.3,81,6,500,11.112,,,270,2.6,16.8,,,,,,,,,wg-a,,,,AAXX 08184 07621 12/00 72706 10090 20060 39613 40042 55003 60006 8507/ 91800 333 10168 20026=
07621,1996-01-08 21:00:00,9,1002.1,-2,76,5,20000,3.704,,,100,,,,,,,,,,,wg-a,,,,AAXX 08214 07621 12/70 81002 10090 20050 39593 40021 58020 60006 8707/ 92100=
07621,1996-01-09 00:00:00,8,1001.1,-1.1,87,6,20000,7.408,,,180,,,,,,,,,,,wg-a,,,,AAXX 09004 07621 12870 81804 10080 20060 39582 40011 56011 60006 8457/ 90000=
07621,1996-01-09 03:00:00,9,999.9,-1.1,81,6,20000,11.112,,,90,,,,,,,,,,,wg-a,,,,AAXX 09034 07621 12870 80906 10090 20060 39571 49999 56011 60006 8557/ 90300=
07621,1996-01-09 06:00:00,8,998.9,-1.1,81,5,20000,7.408,,,200,7.2,15.9,,,,,,,,,wg-a,,,,AAXX 09064 07621 02870 82004 10080 20050 39560 49989 55011 60006 8554/ 90600 333 10159 20072 60004=
07621,1996-01-09 09:00:00,8,1001.8,2.9,93,7,25000,3.704,,,250,,,,,,,,,,,wg-a,,,,AAXX 09094 07621 12875 72502 10080 20070 39589 40018 51029 60006 82272 90900=
07621,1996-01-09 12:00:00,13,1002,0.9,82,10,25000,3.704,,,210,,,,,,,,,,,wg-a,,,,AAXX 09124 07621 12675 82102 10130 20100 39598 40020 51009 60006 8682/ 91200=
07621,1996-01-09 15:00:00,13,1002,-0,77,9,20000,7.408,,,30,,,,,,,,,,3,wg-a,,,,AAXX 09154 07621 02570 70304 10130 20090 39598 40020 55000 61000 70362 8587/ 91500 333 ////=
07621,1996-01-09 18:00:00,10,1003.6,1.1,100,10,500,7.408,,,90,6.9,14.3,,7,,,,,,63,wg-a,,,,AAXX 09184 07621 12400 80904 10100 20100 39609 40036 53011 60077 76362 8652/ 91800 333 10143 20069=
07621,1996-01-09 21:00:00,8,1004.4,0.4,93,7,10000,14.816,,,180,,,,12,,,,,,63,wg-a,,,,AAXX 09214 07621 12660 81808 10080 20070 39613 40044 50004 60127 76366 875// 92100=
07621,1996-01-10 00:00:00,6,1005,0.3,93,5,10000,7.408,,,160,,,,9,,,,,,61,wg-a,,,,AAXX 10004 07621 02660 81604 10060 20050 39616 40050 53003 60226 76166 875// 90000 333 60097=
07621,1996-01-10 03:00:00,6,1004.1,-0.9,93,5,10000,25.928,,,210,,,,4,,,,,,61,wg-a,,,,AAXX 10034 07621 12560 82114 10060 20050 39607 40041 56009 60047 76166 875// 90300=
07621,1996-01-10 06:00:00,7,1004.1,0.1,93,6,10000,7.408,,,260,5.5,10,,5,,,37,,,61,wg-a,,,,AAXX 10064 07621 02460 82604 10070 20060 39608 40041 51001 60374 76166 878// 90600 333 10100 20055 60057=
07621,1996-01-10 09:00:00,8,1006,2,93,7,10000,18.52,,,240,,,,1,,,,,,60,wg-a,,,,AAXX 10094 07621 12360 82410 10080 20070 39628 40060 53020 60017 76066 878// 90900=
07621,1996-01-10 12:00:00,8,1007.3,1.3,93,7,10000,18.52,,,250,,,,6,,,,,,80,wg-a,,,,AAXX 10124 07621 02360 82510 10080 20070 39641 40073 51013 60076 78086 872// 91200 333 60067=
07621,1996-01-10 15:00:00,9,1008.6,1.4,81,6,10000,18.52,,,250,,,,1,,,,,,3,wg-a,,,,AAXX 10154 07621 12460 /2510 10090 20060 39655 40086 53014 60017 70386 86900 91500=
07621,1996-01-10 18:00:00,7,1011.4,2.3,87,5,10000,11.112,,,210,6.2,10.5,,0,,,,,,2,wg-a,,,,AAXX 10184 07621 12460 72106 10070 20050 39678 40114 51023 60007 70286 878// 91800 333 10105 20062=
07621,1996-01-10 21:00:00,3,1012.5,0.5,100,3,10000,11.112,,,200,,,,,,,,,,,wg-a,,,,AAXX 10214 07621 12660 22006 10030 20030 39683 40125 51005 60006 82400 92100=
07621,1996-01-11 00:00:00,3,1010.5,-2,93,2,10000,7.408,,,170,,,,,,,,,,,wg-a,,,,AAXX 11004 07621 12/60 01704 10030 20020 39663 40105 58020 60006 80000 90000=
07621,1996-01-11 03:00:00,1,1007.9,-2.8,100,1,15000,7.408,,,180,,,,,,,,,,,wg-a,,,,AAXX 11034 07621 12/65 71804 10010 20010 39635 40079 58028 60006 8603/ 90300=
07621,1996-01-11 06:00:00,3,1006.1,-1.4,93,2,10000,7.408,,,120,0.5,6.6,,,,,9,,,60,wg-a,,,,AAXX 11064 07621 02660 81204 10030 20020 39621 40061 55014 60094 76061 8251/ 90600 333 10066 20005 61000=
07621,1996-01-11 09:00:00,8,1003.2,-1.9,81,5,40000,7.408,,,130,,,,,,,,,,1,wg-a,,,,AAXX 11094 07621 02782 /1304 10080 20050 39602 40032 58019 61000 70162 84570 90900 333 ////=
07621,1996-01-11 12:00:00,14,1000.6,-1.6,67,8,50000,0,,,0,,,,,,,,,,3,wg-a,,,,AAXX 11124 07621 02684 40000 10140 20080 39586 40006 57016 61000 70361 84800 91200 333 ////=
07621,1996-01-11 15:00:00,14,999,-1.5,77,10,50000,11.112,,,340,,,,,,,,,,,wg-a,,,,AAXX 11154 07621 12684 /3406 10140 20100 39571 49990 55015 60006 83840 91500=
07621,1996-01-11 18:00:00,9,1000.3,0.5,93,8,20000,3.704,,,300,2.6,17.2,,,,,,,,,wg-a,,,,AAXX 11184 07621 32770 73002 10090 20080 39576 40003 50005 8254/ 91800 333 10172 20026=
07621,1996-01-11 21:00:00,9,1000.9,0.5,93,8,15000,7.408,,,160,,,,0,,,,,,21,wg-a,,,,AAXX 11214 07621 12565 51604 10090 20080 39581 40009 50005 60007 72162 8327/ 92100=
07621,1996-01-12 00:00:00,8,999.4,-1.6,93,7,15000,7.408,,,40,,,,,,,,,,2,wg-a,,,,AAXX 12004 07621 12765 70404 10080 20070 39565 49994 57016 60016 70262 8227/ 90000=
07621,1996-01-12 03:00:00,7,999.3,-0.3,93,6,11000,0,,,0,,,,,,,,,,,wg-a,,,,AAXX 12034 07621 12/61 /0000 10070 20060 39562 49993 55003 60006 90300=
07621,1996-01-12 09:00:00,7,1002.7,2.4,100,7,10000,0,,,0,,,,1,,,,,,25,wg-a,,,,AAXX 12094 07621 12460 /0000 10070 20070 39595 40027 53024 60017 72586 86800 90900=
07621,1996-01-12 12:00:00,9,1004.5,2,81,6,20000,3.704,,,280,,,,1,,,,,,21,wg-a,,,,AAXX 12124 07621 02570 72802 10090 20060 39615 40045 51020 60016 72186 878// 91200 333 60017=
07621,1996-01-12 15:00:00,10,1006.5,2,76,6,20000,3.704,,,270,,,,,,,,,,,wg-a,,,,AAXX 12154 07621 12570 72702 10100 20060 39635 40065 51020 60006 878// 91500=
07621,1996-01-12 18:00:00,7,1010,3,87,5,15000,7.408,,,220,6,9.5,,0,,,,,,2,wg-a,,,,AAXX 12184 07621 12465 72204 10070 20050 39665 40100 52030 60007 70262 878// 91800 333 10095 20060=
07621,1996-01-12 21:00:00,6,1012.3,2.1,93,5,20000,7.408,,,170,,,,,,,,,,,wg-a,,,,AAXX 12214 07621 12670 21704 10060 20050 39686 40123 51021 60006 82500 92100=
07621,1996-01-13 00:00:00,5,1013.7,1.2,93,4,20000,14.816,,,180,,,,,,,,,,,wg-a,,,,AAXX 13004 07621 12670 21808 10050 20040 39698 40137 51012 60006 82500 90000=
07621,1996-01-13 03:00:00,5,1014.9,1.1,93,4,20000,11.112,,,180,,,,,,,,,,,wg-a,,,,AAXX 13034 07621 12670 21806 10050 20040 39709 40149 51011 60006 82500 90300=
07621,1996-01-13 06:00:00,5,1016,1.1,93,4,20000,11.112,,,180,4.3,6.8,,,,,2,,,,wg-a,,,,AAXX 13064 07621 02670 /1806 10050 20040 39720 40160 53011 60006 85500 90600 333 10068 20043 60024=
07621,1996-01-13 09:00:00,6,1015.9,-0,87,4,50000,7.408,,,150,,,,,,,,,,,wg-a,,,,AAXX 13094 07621 12884 /1504 10060 20040 39720 40159 54000 60006 81500 90900=
07621,1996-01-13 12:00:00,12,1014.7,-0.3,62,5,50000,7.408,,,80,,,,,,,,,,,wg-a,,,,AAXX 13124 07621 12584 20804 10120 20050 39717 40147 58003 60006 81102 91200=
07621,1996-01-13 15:00:00,12,1013.4,-1.2,67,6,50000,7.408,,,50,,,,,,,,,,,wg-a,,,,AAXX 13154 07621 12684 /0504 10120 20060 39705 40134 55012 60006 81102 91500=
07621,1996-01-13 18:00:00,8,1013.6,-0.4,81,5,500,3.704,,,110,3,12.6,,,,,,,,,wg-a,,,,AAXX 13184 07621 12/00 21102 10080 20050 39701 40136 58004 60006 80002 91800 333 10126 20030=
07621,1996-01-13 21:00:00,3,1013.9,-0.6,93,2,15000,7.408,,,190,,,,,,,,,,,wg-a,,,,AAXX 13214 07621 12/65 01904 10030 20020 39695 40139 58006 60006 80000 92100=
07621,1996-01-14 00:00:00,2,1012.7,-1.3,93,1,15000,7.408,,,190,,,,,,,,,,,wg-a,,,,AAXX 14004 07621 12/65 01904 10020 20010 39682 40127 57013 60006 80000 90000=
07621,1996-01-14 03:00:00,2,1011.7,-0.9,93,1,15000,7.408,,,170,,,,,,,,,,,wg-a,,,,AAXX 14034 07621 12/65 21704 10020 20010 39673 40117 56009 60006 80002 90300=
07621,1996-01-14 06:00:00,3,1011.3,-0.2,87,1,500,7.408,,,170,0.9,7.8,,,,,,,,,wg-a,,,,AAXX 14064 07621 02/00 71704 10030 20010 39671 40113 55002 60006 80002 90600 333 10078 20009 60004=
07621,1996-01-14 09:00:00,6,1011.9,1.1,87,4,40000,3.704,,,220,,,,,,,,,,,wg-a,,,,AAXX 14094 07621 12/82 72202 10060 20040 39682 40119 52011 60006 86072 90900=
07621,1996-01-14 12:00:00,12,1010.3,-0.7,76,8,40000,3.704,,,310,,,,,,,,,,,wg-a,,,,AAXX 14124 07621 12882 73102 10120 20080 39675 40103 58007 60006 8157/ 91200=
07621,1996-01-14 15:00:00,12,1010.2,-0.1,76,8,40000,3.704,,,10,,,,,,,,,,,wg-a,,,,AAXX 14154 07621 12882 70102 10120 20080 39674 40102 55001 60006 81132 91500=
07621,1996-01-14 18:00:00,9,1012.2,1.5,87,7,25000,3.704,,,170,2.4,13.5,,,,,,,,,wg-a,,,,AAXX 14184 07621 12875 71702 10090 20070 39689 40122 53015 60006 8117/ 91800 333 10135 20024=
07621,1996-01-14 21:00:00,7,1013.6,1.1,87,5,11000,3.704,,,80,,,,,,,,,,,wg-a,,,,AAXX 14214 07621 12/61 /0802 10070 20050 39700 40136 53011 60006 92100=
07621,1996-01-15 00:00:00,5,1015.1,1,87,3,15000,3.704,,,180,,,,,,,,,,,wg-a,,,,AAXX 15004 07621 12/65 51802 10050 20030 39710 40151 53010 60006 80002 90000=
07621,1996-01-15 03:00:00,7,1015.9,1.1,66,1,15000,7.408,,,170,,,,,,,,,,,wg-a,,,,AAXX 15034 07621 12/65 51704 10070 20010 39721 40159 51011 60006 80002 90300=
07621,1996-01-15 06:00:00,6,1017.7,1.6,70,1,500,11.112,,,150,3.8,9.4,,,,,,,,,wg-a,,,,AAXX 15064 07621 02/00 51506 10060 20010 39737 40177 53016 60006 82032 90600 333 10094 20038 60004=
07621,1996-01-15 09:00:00,8,1019.1,1.7,71,3,50000,7.408,,,150,,,,,,,,,,,wg-a,,,,AAXX 15094 07621 12/84 51504 10080 20030 39754 40191 53017 60006 82032 90900=
07621,1996-01-15 12:00:00,16,1018.9,0.9,45,4,50000,11.112,,,270,,,,,,,,,,,wg-a,,,,AAXX 15124 07621 12/84 72706 10160 20040 39763 40189 51009 60006 83032 91200=
07621,1996-01-15 15:00:00,15,1019.7,0.6,51,5,40000,7.408,,,260,,,,,,,,,,,wg-a,,,,AAXX 15154 07621 12/82 72604 10150 20050 39769 40197 53006 60006 83032 91500=
07621,1996-01-15 18:00:00,7,1022.6,1.7,87,5,500,7.408,,,180,4.4,16.7,,,,,,,,,wg-a,,,,AAXX 15184 07621 12/00 /1804 10070 20050 39786 40226 53017 60006 83032 91800 333 10167 20044=
07621,1996-01-15 21:00:00,6,1023.8,0.9,81,3,20000,7.408,,,180,,,,,,,,,,,wg-a,,,,AAXX 15214 07621 12/70 51804 10060 20030 39795 40238 53009 60006 82032 92100=
07621,1996-01-16 00:00:00,6,1024.7,0.9,81,3,20000,14.816,,,190,,,,,,,,,,,wg-a,,,,AAXX 16004 07621 12/70 /1908 10060 20030 39804 40247 51009 60006 81032 90000=
07621,1996-01-16 03:00:00,7,1025,0.4,70,2,20000,11.112,,,180,,,,,,,,,,,wg-a,,,,AAXX 16034 07621 12/70 71806 10070 20020 39808 40250 52004 60006 81032 90300=
07621,1996-01-16 06:00:00,7,1025.1,0.1,66,1,20000,14.816,,,170,5.4,9,,,,,,,,,wg-a,,,,AAXX 16064 07621 02/70 /1708 10070 20010 39809 40251 53001 60006 81032 90600 333 10090 20054 60004=
07621,1996-01-16 12:00:00,16,1023.8,-0.5,48,5,50000,3.704,,,220,,,,,,,,,,,wg-a,,,,AAXX 16124 07621 12/84 62202 10160 20050 39810 40238 58005 60006 80002 91200=
07621,1996-01-16 13:00:00,7,1025.1,0.8,87,5,50000,0,,,0,4.8,16.8,,,,,,,,,wg-a,,,,AAXX 16134 07621 12/84 30000 10070 20050 39810 40251 52008 60006 80002 91300 333 10168 20048=
07621,1996-01-16 15:00:00,14,1023.2,-0.8,55,5,50000,7.408,,,20,,,,,,,,,,,wg-a,,,,AAXX 16154 07621 12/84 60204 10140 20050 39802 40232 56008 60006 80002 91500=
07621,1996-01-16 18:00:00,7,1025.1,0.8,87,5,50000,0,,,0,4.8,16.8,,,,,,,,,wg-a,,,,AAXX 16184 07621 12/84 30000 10070 20050 39810 40251 52008 60006 80002 91800 333 10168 20048=
07621,1996-01-16 21:00:00,6,1025.3,-0.1,87,4,500,7.408,,,170,,,,,,,,,,,wg-a,,,,AAXX 16214 07621 12/00 41704 10060 20040 39809 40253 58001 60006 80002 92100=
07621,1996-01-17 00:00:00,6,1024.3,-0.9,81,3,20000,7.408,,,160,,,,,,,,,,,wg-a,,,,AAXX 17004 07621 12/70 21604 10060 20030 39800 40243 58009 60006 80002 90000=
07621,1996-01-17 03:00:00,5,1023.6,-0.8,81,2,20000,11.112,,,180,,,,,,,,,,,wg-a,,,,AAXX 17034 07621 12/70 21806 10050 20020 39792 40236 58008 60006 80002 90300=
07621,1996-01-17 06:00:00,2,1023.6,-0.5,93,1,20000,7.408,,,170,2,7.2,,,,,,,,,wg-a,,,,AAXX 17064 07621 02/70 21704 10020 20010 39787 40236 56005 60006 80002 90600 333 10072 20020 60004=
07621,1996-01-17 09:00:00,8,1022.6,-0,76,4,50000,3.704,,,130,,,,,,,,,,,wg-a,,,,AAXX 17094 07621 12/84 31302 10080 20040 39787 40226 54000 60006 80002 90900=
07621,1996-01-17 12:00:00,12,1021,-0.9,62,5,50000,7.408,,,10,,,,,,,,,,,wg-a,,,,AAXX 17124 07621 12/84 30104 10120 20050 39778 40210 58009 60006 80002 91200=
07621,1996-01-17 15:00:00,14,1019.3,-1.4,55,5,50000,11.112,,,20,,,,,,,,,,,wg-a,,,,AAXX 17154 07621 12/84 30206 10140 20050 39764 40193 56014 60006 80002 91500=
07621,1996-01-17 18:00:00,6,1020.7,0.2,87,4,500,3.704,,,240,2.1,13.7,,,,,,,,,wg-a,,,,AAXX 17184 07621 12/00 42402 10060 20040 39766 40207 50002 60006 80002 91800 333 10137 20021=
07621,1996-01-17 21:00:00,4,1021,-0.1,93,3,500,7.408,,,180,,,,,,,,,,,wg-a,,,,AAXX 17214 07621 12/00 21804 10040 20030 39765 40210 55001 60006 80002 92100=
07621,1996-01-18 00:00:00,5,1020.5,-0.3,81,2,500,7.408,,,170,,,,,,,,,,,wg-a,,,,AAXX 18004 07621 12/00 11704 10050 20020 39762 40205 58003 60006 80002 90000=
07621,1996-01-18 03:00:00,4,1020.7,0.1,87,2,500,11.112,,,170,,,,,,,,,,,wg-a,,,,AAXX 18034 07621 12/00 11706 10040 20020 39763 40207 53001 60006 80002 90300=
07621,1996-01-18 06:00:00,4,1020.3,-0.4,81,1,20000,14.816,,,170,3.2,7,,,,,,,,,wg-a,,,,AAXX 18064 07621 02/70 11708 10040 20010 39759 40203 56004 60006 80002 90600 333 10070 20032 60004=
07621,1996-01-18 09:00:00,7,1019.8,-0,70,2,50000,11.112,,,170,,,,,,,,,,,wg-a,,,,AAXX 18094 07621 12/84 11706 10070 20020 39759 40198 55000 60006 80002 90900=
07621,1996-01-18 12:00:00,13,1018.2,-0.7,51,3,50000,7.408,,,20,,,,,,,,,,,wg-a,,,,AAXX 18124 07621 12784 20204 10130 20030 39752 40182 58007 60006 81142 91200=
07621,1996-01-18 15:00:00,13,1017.5,-0.7,62,6,500,11.112,,,30,,,,,,,,,,,wg-a,,,,AAXX 18154 07621 12700 40306 10130 20060 39745 40175 55007 60006 81142 91500=
07621,1996-01-18 18:00:00,6,1019.2,0.6,87,4,500,7.408,,,190,2.9,14,,,,,,,,,wg-a,,,,AAXX 18184 07621 12/00 21904 10060 20040 39751 40192 53006 60006 81032 91800 333 10140 20029=
07621,1996-01-18 21:00:00,5,1019.3,-0.1,87,3,15000,11.112,,,170,,,,,,,,,,,wg-a,,,,AAXX 18214 07621 12/65 01706 10050 20030 39750 40193 57001 60006 80000 92100=
07621,1996-01-19 00:00:00,5,1018.6,-0.7,75,1,15000,7.408,,,180,,,,,,,,,,,wg-a,,,,AAXX 19004 07621 12/65 01804 10050 20010 39743 40186 58007 60006 80000 90000=
07621,1996-01-19 03:00:00,5,1017.3,-1.2,65,-1,500,11.112,,,180,,,,,,,,,,,wg-a,,,,AAXX 19034 07621 12/00 01806 10050 21010 39731 40173 58012 60006 80000 90300=
07621,1996-01-19 06:00:00,5,1016,-1.2,65,-1,15000,7.408,,,150,3.7,5.8,,,,,,,,,wg-a,,,,AAXX 19064 07621 02/65 01504 10050 21010 39719 40160 56012 60006 80000 90600 333 10058 20037 60004=
07621,1996-01-19 09:00:00,7,1015.1,-0.5,57,-1,50000,7.408,,,160,,,,,,,,,,,wg-a,,,,AAXX 19094 07621 12/84 11604 10070 21010 39714 40151 56005 60006 80001 90900=
07621,1996-01-19 12:00:00,15,1012.1,-1.8,36,0,50000,7.408,,,130,,,,,,,,,,,wg-a,,,,AAXX 19124 07621 12/84 11304 10150 20000 39696 40121 58018 60006 80001 91200=
07621,1996-01-19 18:00:00,5,1010.5,-0.7,81,2,25000,3.704,,,160,3.5,15.6,,,,,,,,,wg-a,,,,AAXX 19184 07621 12875 /1602 10050 20020 39667 40105 56007 60006 81401 91800 333 10156 20035=
07621,1996-01-19 21:00:00,4,1009.7,-1,70,-1,25000,7.408,,,160,,,,,,,,,,,wg-a,,,,AAXX 19214 07621 12/75 01604 10040 21010 39657 40097 58010 60006 80000 92100=
07621,1996-01-20 00:00:00,4,1008.4,-1.3,65,-2,25000,11.112,,,170,,,,,,,,,,,wg-a,,,,AAXX 20004 07621 12/75 01706 10040 21020 39644 40084 58013 60006 80000 90000=
07621,1996-01-20 03:00:00,3,1006.7,-1.7,81,0,25000,3.704,,,190,,,,,,,,,,,wg-a,,,,AAXX 20034 07621 12/75 /1902 10030 20000 39627 40067 56017 60006 82032 90300=
07621,1996-01-20 06:00:00,2,1005.5,-1.3,87,0,25000,3.704,,,210,1.6,6.7,,,,,,,,,wg-a,,,,AAXX 20064 07621 02/75 /2102 10020 20000 39614 40055 56013 60006 82032 90600 333 10067 20016 60004=
07621,1996-01-20 09:00:00,4,1005.5,0.3,81,1,25000,7.408,,,180,,,,,,,,,,,wg-a,,,,AAXX 20094 07621 12775 /1804 10040 20010 39617 40055 52003 60006 81232 90900=
07621,1996-01-20 12:00:00,12,1003.3,-0.9,54,3,500,11.112,,,30,,,,,,,,,,,wg-a,,,,AAXX 20124 07621 12700 50306 10120 20030 39608 40033 58009 60006 81242 91200=
07621,1996-01-20 15:00:00,9,1003.3,-0.4,66,3,500,7.408,,,20,,,,,,,,,,,wg-a,,,,AAXX 20154 07621 12700 /0204 10090 20030 39604 40033 55004 60006 81242 91500=
07621,1996-01-20 18:00:00,6,1003.9,-0,75,2,500,7.408,,,30,1.4,12,,,,,,,,,wg-a,,,,AAXX 20184 07621 12700 50304 10060 20020 39604 40039 55000 60006 81142 91800 333 10120 20014=
07621,1996-01-20 21:00:00,3,1004.4,0.1,87,1,20000,3.704,,,330,,,,,,,,,,,wg-a,,,,AAXX 20214 07621 12/70 43302 10030 20010 39605 40044 50001 60006 82042 92100=
07621,1996-01-21 00:00:00,2,1004.3,-0.3,80,-1,20000,7.408,,,150,,,,,,,,,,,wg-a,,,,AAXX 21004 07621 12/70 31504 10020 21010 39602 40043 56003 60006 81042 90000=
07621,1996-01-21 03:00:00,0,1003.9,-0.6,93,-1,20000,7.408,,,190,,,,,,,,,,,wg-a,,,,AAXX 21034 07621 12/70 31904 10000 21010 39596 40039 56006 60006 81042 90300=
07621,1996-01-21 06:00:00,1,1003.1,-0.6,86,-1,20000,7.408,,,210,-0.3,5.7,,,,,,,,,wg-a,,,,AAXX 21064 07621 02/70 /2104 10010 21010 39590 40031 55006 60006 81042 90600 333 10057 21003 60004=
07621,1996-01-21 09:00:00,4,1003.2,0.5,65,-2,500,7.408,,,150,,,,,,,,,,,wg-a,,,,AAXX 21094 07621 12700 71504 10040 21020 39595 40032 50005 60006 81542 90900=
07621,1996-01-21 12:00:00,8,1001.8,-0.8,66,2,500,11.112,,,360,,,,,,,,,,,wg-a,,,,AAXX 21124 07621 12800 /3606 10080 20020 39587 40018 58008 60006 81142 91200=
07621,1996-01-21 15:00:00,10,999.9,-1.4,66,4,500,7.408,,,20,,,,,,,,,,,wg-a,,,,AAXX 21154 07621 12700 /0204 10100 20040 39573 49999 56014 60006 83542 91500=
07621,1996-01-21 18:00:00,7,999.6,-0.7,81,4,500,7.408,,,160,1.1,11.4,,,,,,,,,wg-a,,,,AAXX 21184 07621 12700 /1604 10070 20040 39566 49996 58007 60006 83542 91800 333 10114 20011=
07621,1996-01-21 21:00:00,6,999.3,-0.6,81,3,500,7.408,,,260,,,,,,,,,,,wg-a,,,,AAXX 21214 07621 12700 /2604 10060 20030 39560 49993 57006 60006 81542 92100=
07621,1996-01-22 00:00:00,6,998,-1.2,75,2,20000,7.408,,,110,,,,,,,,,,,wg-a,,,,AAXX 22004 07621 12/70 71104 10060 20020 39548 49980 58012 60006 84042 90000=
07621,1996-01-22 03:00:00,5,996.2,-1.8,81,2,20000,7.408,,,300,,,,,,,,,,,wg-a,,,,AAXX 22034 07621 12770 73004 10050 20020 39530 49962 58018 60006 81142 90300=
07621,1996-01-22 06:00:00,5,996.3,0.1,87,3,20000,3.704,,,170,4.2,7.5,,,,,,,,,wg-a,,,,AAXX 22064 07621 02770 71702 10050 20030 39531 49963 53001 60006 81142 90600 333 10075 20042 60004=
07621,1996-01-22 09:00:00,9,996.6,0.9,76,5,20000,3.704,,,40,,,,,,,,,,,wg-a,,,,AAXX 22094 07621 12770 70402 10090 20050 39540 49966 53009 60006 83242 90900=
07621,1996-01-22 12:00:00,12,998.4,2.1,71,7,500,3.704,,57.412,180,,,,,,,,,,,wg-a,,,,AAXX 22124 07621 12700 71802 10120 20070 39561 49984 50021 60006 83842 91200 333 91031=
07621,1996-01-22 15:00:00,12,998.1,-0.2,67,6,20000,11.112,,,130,,,,,,,,,,,wg-a,,,,AAXX 22154 07621 12770 71306 10120 20060 39559 49981 56002 60006 8287/ 91500=
07621,1996-01-22 18:00:00,9,998.6,0,87,7,20000,3.704,,,50,5.1,14.9,,,,,,,,,wg-a,,,,AAXX 22184 07621 12870 70502 10090 20070 39559 49986 50000 60006 8257/ 91800 333 10149 20051=
07621,1996-01-22 21:00:00,6,998,-1,93,5,15000,7.408,,,300,,,,,,,,,,,wg-a,,,,AAXX 22214 07621 12865 63004 10060 20050 39549 49980 58010 60006 81542 92100=
07621,1996-01-23 00:00:00,5,996.8,-1.3,93,4,15000,0,,,0,,,,,,,,,,,wg-a,,,,AAXX 23004 07621 12865 /0000 10050 20040 39536 49968 58013 60006 81542 90000=
07621,1996-01-23 03:00:00,7,994.4,-2.1,93,6,15000,7.408,,,170,,,,,,,,,,60,wg-a,,,,AAXX 23034 07621 02865 81704 10070 20060 39515 49944 58021 61000 76062 8157/ 90300 333 ////=
07621,1996-01-23 06:00:00,9,994.2,0.1,71,4,10000,35.188,,57.412,180,4.5,9.3,,4,,,4,,,60,wg-a,,,,AAXX 23064 07621 02660 81819 10090 20040 39516 49942 53001 60044 76062 8327/ 90600 333 10093 20045 60047 91031=
07621,1996-01-23 09:00:00,11,996.1,2.2,50,1,500,35.188,,64.82,220,,,,,,,,,,1,wg-a,,,,AAXX 23094 07621 02600 32219 10110 20010 39538 49961 53022 61000 70161 82240 90900 333 //// 91035=
07621,1996-01-23 12:00:00,15,996.2,0.6,27,-4,50000,7.408,,64.82,290,,,,,,,,,,2,wg-a,,,,AAXX 23124 07621 02684 42904 10150 21040 39544 49962 50006 61000 70261 81242 91200 333 //// 91035=
07621,1996-01-23 15:00:00,16,996.8,0.7,36,1,50000,11.112,,,230,,,,,,,,,,,wg-a,,,,AAXX 23154 07621 12684 /2306 10160 20010 39551 49968 53007 60006 81242 91500=
07621,1996-01-24 00:00:00,7,999.2,-1,61,0,500,5.556,,,190,,,,,,,,,,,wg-a,,,,AAXX 24004 07621 12/00 61903 10070 20000 39561 49992 57010 60006 82042 90000=
07621,1996-01-24 06:00:00,5,998.7,-0.3,75,1,10000,3.704,,,190,,,,,,,,,,,wg-a,,,,AAXX 24064 07621 02260 71902 10050 20010 39553 49987 58003 60006 876// 90600 333 61000=
07621,1996-01-24 09:00:00,5,999.6,1,100,5,300,3.704,,,180,,,,,,,,,,43,wg-a,,,,AAXX 24094 07621 12/03 91802 10050 20050 39563 49996 53010 60006 74342 89/// 90900=
07621,1996-01-24 12:00:00,8,998.9,-0.3,93,7,7000,14.816,,,300,,,,,,,,,,3,wg-a,,,,AAXX 24124 07621 12257 83008 10080 20070 39560 49989 58003 60006 70342 886// 91200=
07621,1996-01-24 15:00:00,8,999,0.2,87,6,10000,11.112,,,300,,,,,,,,,,,wg-a,,,,AAXX 24154 07621 12460 83006 10080 20060 39562 49990 53002 60006 878// 91500=
07621,1996-01-24 18:00:00,7,999.8,0.6,93,6,500,11.112,,,250,4.9,8.7,,,,,,,,,wg-a,,,,AAXX 24184 07621 12300 82506 10070 20060 39568 49998 53006 60006 8657/ 91800 333 10087 20049=
07621,1996-01-24 21:00:00,6,1000.7,0.6,93,5,7000,14.816,,,220,,,,2,,,,,,60,wg-a,,,,AAXX 24214 07621 12457 82208 10060 20050 39574 40007 51006 60027 76062 8687/ 92100=
07621,1996-01-25 00:00:00,6,1000.6,-0.1,93,5,6000,25.928,,,240,,,,5,,,,,,61,wg-a,,,,AAXX 25004 07621 02456 82414 10060 20050 39573 40006 57001 60076 76162 8682/ 90000 333 60057=
07621,1996-01-25 03:00:00,5,1001,0.2,93,4,6000,25.928,,,250,,,,6,,,,,,61,wg-a,,,,AAXX 25034 07621 12456 82514 10050 20040 39575 40010 53002 60067 76166 8782/ 90300=
07621,1996-01-25 06:00:00,5,1001.2,0.2,93,4,500,18.52,,50.004,250,4.3,7.4,,5,,,19,,,61,wg-a,,,,AAXX 25064 07621 02400 82510 10050 20040 39577 40012 53002 60194 76166 8582/ 90600 333 10074 20043 60057 91027=
07621,1996-01-25 09:00:00,6,1002.1,1,87,4,10000,18.52,,,250,,,,3,,,,,,60,wg-a,,,,AAXX 25094 07621 12560 82510 10060 20040 39587 40021 53010 60037 76066 8652/ 90900=
07621,1996-01-25 12:00:00,7,1002.1,0.2,87,5,20000,14.816,,,240,,,,,,,,,,21,wg-a,,,,AAXX 25124 07621 02570 82408 10070 20050 39589 40021 50002 60036 72162 8652/ 91200 333 61000=
07621,1996-01-25 18:00:00,7,1003.6,1,93,6,15000,7.408,,,190,4.6,7.5,,1,,,,,,21,wg-a,,,,AAXX 25184 07621 12665 81904 10070 20060 39603 40036 51010 60017 72162 8682/ 91800 333 10075 20046=
07621,1996-01-25 21:00:00,6,1005.4,1.6,93,5,15000,7.408,,,270,,,,0,,,,,,1,wg-a,,,,AAXX 25214 07621 12765 82704 10060 20050 39619 40054 51016 60007 70162 8652/ 92100=
07621,1996-01-26 00:00:00,5,1006.3,0.8,93,4,15000,11.112,,,200,,,,,,,,,,1,wg-a,,,,AAXX 26004 07621 12465 /2006 10050 20040 39627 40063 51008 60006 70162 85500 90000=
07621,1996-01-26 03:00:00,4,1006.9,0.4,93,3,15000,7.408,,,180,,,,,,,,,,,wg-a,,,,AAXX 26034 07621 12465 41804 10040 20030 39631 40069 51004 60006 84500 90300=
07621,1996-01-26 06:00:00,2,1007.6,0.4,93,1,15000,14.816,,,190,2.1,6.5,,,,,4,,,,wg-a,,,,AAXX 26064 07621 12/65 11908 10020 20010 39635 40076 53004 60044 81040 90600 333 10065 20021=
07621,1996-01-26 09:00:00,5,1008.1,0.9,81,2,500,11.112,,,180,,,,,,,,,,,wg-a,,,,AAXX 26094 07621 12/00 61806 10050 20020 39644 40081 52009 60006 81042 90900=
07621,1996-01-26 12:00:00,13,1006.8,-0.1,44,1,40000,3.704,,,160,,,,,,,,,,,wg-a,,,,AAXX 26124 07621 12682 31602 10130 20010 39643 40068 58001 60006 81102 91200=
07621,1996-01-26 15:00:00,13,1005.9,-0.9,41,0,40000,3.704,,,120,,,,,,,,,,,wg-a,,,,AAXX 26154 07621 12682 /1202 10130 20000 39634 40059 56009 60006 81102 91500=
07621,1996-01-26 18:00:00,7,1008.3,0.9,66,1,500,3.704,,,240,1.9,14.1,,,,,,,,,wg-a,,,,AAXX 26184 07621 12/00 42402 10070 20010 39648 40083 53009 60006 81042 91800 333 10141 20019=
07621,1996-01-26 21:00:00,4,1008.9,0.6,81,1,15000,7.408,,,170,,,,,,,,,,,wg-a,,,,AAXX 26214 07621 12/65 11704 10040 20010 39649 40089 51006 60006 80002 92100=
07621,1996-01-27 00:00:00,3,1008.7,-0.3,81,0,15000,7.408,,,170,,,,,,,,,,,wg-a,,,,AAXX 27004 07621 12/65 11704 10030 20000 39646 40087 58003 60006 80002 90000=
07621,1996-01-27 03:00:00,5,1007.6,-0.8,70,0,15000,7.408,,,190,,,,,,,,,,,wg-a,,,,AAXX 27034 07621 12/65 11904 10050 20000 39638 40076 58008 60006 80002 90300=
07621,1996-01-27 06:00:00,4,1007.7,-0.1,75,0,15000,7.408,,,180,2.1,6.5,,,,,,,,,wg-a,,,,AAXX 27064 07621 02/65 41804 10040 20000 39637 40077 55001 60006 81042 90600 333 10065 20021 60004=
07621,1996-01-27 09:00:00,5,1007.9,0.4,75,1,50000,0,,,0,,,,,,,,,,,wg-a,,,,AAXX 27094 07621 12/84 30000 10050 20010 39641 40079 53004 60006 81042 90900=
07621,1996-01-27 12:00:00,11,1006.4,-0.4,62,4,50000,7.408,,,340,,,,,,,,,,,wg-a,,,,AAXX 27124 07621 12884 33404 10110 20040 39637 40064 58004 60006 81142 91200=
07621,1996-01-27 15:00:00,12,1005.2,-1,67,6,50000,11.112,,,20,,,,,,,,,,,wg-a,,,,AAXX 27154 07621 12/84 30206 10120 20060 39627 40052 56010 60006 80002 91500=
07621,1996-01-27 18:00:00,7,1005.9,-0.1,81,4,50000,3.704,,,10,1.3,12.6,,,,,,,,,wg-a,,,,AAXX 27184 07621 12/84 40102 10070 20040 39626 40059 57001 60006 80002 91800 333 10126 20013=
07621,1996-01-27 21:00:00,3,1005.4,-1.1,100,3,20000,3.704,,,210,,,,,,,,,,,wg-a,,,,AAXX 27214 07621 12/70 52102 10030 20030 39615 40054 58011 60006 80002 92100=
07621,1996-01-28 00:00:00,3,1004.5,-0.9,93,2,20000,0,,,0,,,,,,,,,,,wg-a,,,,AAXX 28004 07621 12/70 80000 10030 20020 39606 40045 58009 60006 85077 90000=
07621,1996-01-28 06:00:00,4,1002.5,-0.5,93,3,15000,7.408,,,210,2.8,7.3,,,,,,,,,wg-a,,,,AAXX 28064 07621 02/65 82104 10040 20030 39589 40025 57005 60006 84072 90600 333 10073 20028 60004=
07621,1996-01-28 09:00:00,7,1002.5,0.4,81,4,40000,3.704,,,40,,,,,,,,,,,wg-a,,,,AAXX 28094 07621 12782 /0402 10070 20040 39593 40025 53004 60006 83872 90900=
07621,1996-01-28 12:00:00,10,1003,1,82,7,40000,11.112,,,10,,,,,,,,,,,wg-a,,,,AAXX 28124 07621 12/82 /0106 10100 20070 39603 40030 53010 60006 81272 91200=
07621,1996-01-28 15:00:00,13,1002.2,-0.4,54,4,40000,7.408,,,50,,,,,,,,,,,wg-a,,,,AAXX 28154 07621 12882 30504 10130 20040 39599 40022 56004 60006 81242 91500=
07621,1996-01-28 18:00:00,7,1003.8,0.6,81,4,40000,7.408,,,180,4.3,14.3,,,,,,,,,wg-a,,,,AAXX 28184 07621 12/82 /1804 10070 20040 39605 40038 53006 60006 81042 91800 333 10143 20043=
07621,1996-01-29 00:00:00,4,1004.8,0.1,87,2,20000,11.112,,,190,,,,,,,,,,,wg-a,,,,AAXX 29004 07621 12/70 /1906 10040 20020 39611 40048 50001 60006 80002 90000=
07621,1996-01-29 03:00:00,6,1003.8,-0.8,70,1,20000,14.816,,,180,,,,,,,,,,,wg-a,,,,AAXX 29034 07621 12/70 31808 10060 20010 39603 40038 56008 60006 80002 90300=
07621,1996-01-29 06:00:00,2,1004.3,-0,93,1,20000,0,,,0,1.8,6.6,,,,,,,,,wg-a,,,,AAXX 29064 07621 02/70 30000 10020 20010 39603 40043 55000 60006 81042 90600 333 10066 20018 60004=
07621,1996-01-29 09:00:00,3,1005.3,1.1,93,2,500,7.408,,,10,,,,,,,,,,,wg-a,,,,AAXX 29094 07621 12/00 60104 10030 20020 39614 40053 53011 60006 83042 90900=
07621,1996-01-29 12:00:00,10,1004.3,0.1,66,4,500,0,,,0,,,,,,,,,,,wg-a,,,,AAXX 29124 07621 12800 60000 10100 20040 39615 40043 50001 60006 81142 91200=
07621,1996-01-29 15:00:00,11,1004.6,0.5,71,6,500,3.704,,,360,,,,,,,,,,,wg-a,,,,AAXX 29154 07621 12800 73602 10110 20060 39620 40046 53005 60006 81142 91500=
07621,1996-01-29 18:00:00,7,1006.9,1.6,87,5,25000,3.704,,,200,0.9,11.7,,,,,,,,,wg-a,,,,AAXX 29184 07621 12/75 /2002 10070 20050 39636 40069 51016 60006 83042 91800 333 10117 20009=
07621,1996-01-29 21:00:00,7,1008.3,1.3,87,5,20000,3.704,,,180,,,,,,,,,,,wg-a,,,,AAXX 29214 07621 12/70 61802 10070 20050 39649 40083 51013 60006 82042 92100=
07621,1996-01-30 00:00:00,7,1009.6,1.2,93,6,20000,3.704,,,210,,,,1,,,,,,61,wg-a,,,,AAXX 30004 07621 02670 72102 10070 20060 39661 40096 51012 60016 76162 83572 90000 333 60017=
07621,1996-01-30 03:00:00,6,1010.1,0.4,100,6,20000,3.704,,,180,,,,,,,,,,2,wg-a,,,,AAXX 30034 07621 02670 71802 10060 20060 39665 40101 53004 61000 70262 84572 90300 333 ////=
07621,1996-01-30 06:00:00,6,1011.4,1.2,100,6,10000,3.704,,,210,5.7,7.4,,,,,1,,,2,wg-a,,,,AAXX 30064 07621 12660 72102 10060 20060 39677 40114 53012 60014 70262 84572 90600 333 10074 20057=
07621,1996-01-30 09:00:00,6,1013.5,2,100,6,2000,3.704,,,200,,,,,,,,,,40,wg-a,,,,AAXX 30094 07621 12220 72002 10060 20060 39697 40135 52020 60006 74022 875// 90900=
07621,1996-01-30 12:00:00,9,1014.1,1,87,7,6000,0,,,0,,,,0,,,,,,,wg-a,,,,AAXX 30124 07621 02556 80000 10090 20070 39707 40141 51010 60006 8282/ 91200 333 60007=
07621,1996-01-30 15:00:00,9,1014.1,0.1,87,7,6000,3.704,,,30,,,,0,,,,,,21,wg-a,,,,AAXX 30154 07621 12556 80302 10090 20070 39708 40141 53001 60007 72162 8182/ 91500=
07621,1996-01-30 18:00:00,6,1015.4,0.6,93,5,15000,11.112,,,190,5.2,9.6,,,,,,,,1,wg-a,,,,AAXX 30184 07621 32665 41906 10060 20050 39714 40154 53006 70161 82502 91800 333 10096 20052=
07621,1996-01-30 21:00:00,6,1015.7,0.4,93,5,12000,3.704,,,170,,,,,,,,,,,wg-a,,,,AAXX 30214 07621 12/62 51702 10060 20050 39718 40157 51004 60006 84032 92100=
07621,1996-01-31 00:00:00,3,1016,-0.1,100,3,10000,7.408,,,190,,,,,,,,,,,wg-a,,,,AAXX 31004 07621 12/60 21904 10030 20030 39717 40160 58001 60006 82030 90000=
07621,1996-01-31 03:00:00,5,1015.1,-0.7,93,4,10000,11.112,,,180,,,,,,,,,,,wg-a,,,,AAXX 31034 07621 12/60 71806 10050 20040 39710 40151 58007 60006 8703/ 90300=
07621,1996-01-31 06:00:00,4,1014.3,-0.9,93,3,12000,7.408,,,170,2.8,6.1,,,,,,,,,wg-a,,,,AAXX 31064 07621 02/62 21704 10040 20030 39701 40143 58009 60006 82030 90600 333 10061 20028 60004=
07621,1996-01-31 09:00:00,7,1014.2,0.4,87,5,50000,3.704,,,160,,,,,,,,,,,wg-a,,,,AAXX 31094 07621 12/84 /1602 10070 20050 39705 40142 53004 60006 81030 90900=
07621,1996-01-31 12:00:00,15,1011.4,-1.5,59,7,50000,3.704,,,260,,,,,,,,,,,wg-a,,,,AAXX 31124 07621 12884 /2602 10150 20070 39690 40114 58015 60006 81202 91200=
07621,1996-01-31 15:00:00,15,1009.4,-1.9,55,6,50000,0,,,0,,,,,,,,,,,wg-a,,,,AAXX 31154 07621 12684 20000 10150 20060 39671 40094 56019 60006 81230 91500=
07621,1996-01-31 18:00:00,10,1010.3,0.2,82,7,15000,3.704,,,20,3.2,15.6,,,,,,,,,wg-a,,,,AAXX 31184 07621 12665 /0202 10100 20070 39673 40103 53002 60006 85430 91800 333 10156 20032=
07621,1996-01-31 21:00:00,6,1010.8,-0.2,93,5,15000,7.408,,,20,,,,,,,,,,,wg-a,,,,AAXX 31214 07621 12565 60204 10060 20050 39671 40108 58002 60006 82530 92100=
07621,1996-02-01 00:00:00,4,1010.6,-0.5,93,3,11000,3.704,,,30,,,,,,,,,,,wg-a,,,,AAXX 01004 07621 12/61 /0302 10040 20030 39666 40106 56005 60006 90000=
07621,1996-02-01 03:00:00,1,1010.2,-0.8,100,1,11000,3.704,,,170,,,,,,,,,,,wg-a,,,,AAXX 01034 07621 12/61 /1702 10010 20010 39658 40102 57008 60006 90300=
07621,1996-02-01 06:00:00,1,1009.5,-0.8,100,1,100,7.408,,,170,0.2,10,,,,,,,,45,wg-a,,,,AAXX 01064 07621 02/01 91704 10010 20010 39650 40095 56008 60006 74541 89/// 90600 333 10100 20002 60004=
07621,1996-02-01 09:00:00,2,1009.3,-0,100,2,8000,0,,,0,,,,,,,,,,,wg-a,,,,AAXX 01094 07621 12/58 /0000 10020 20020 39650 40093 55000 60006 90900=
07621,1996-02-01 12:00:00,5,1008.4,-0.3,93,4,0,3.704,,,310,,,,,,,,,,,wg-a,,,,AAXX 01124 07621 12/// /3102 10050 20040 39647 40084 58003 60006 91200=
07621,1996-02-01 15:00:00,8,1007,-1,81,5,15000,0,,,0,,,,,,,,,,,wg-a,,,,AAXX 01154 07621 12865 70000 10080 20050 39637 40070 56010 60006 8457/ 91500=
07621,1996-02-01 18:00:00,5,1007.5,0.2,93,4,15000,7.408,,,230,0.1,7.7,,,,,,,,,wg-a,,,,AAXX 01184 07621 12865 72304 10050 20040 39639 40075 53002 60006 81542 91800 333 10077 20001=
07621,1996-02-01 21:00:00,4,1007.8,-0,93,3,6000,7.408,,,210,,,,,,,,,,,wg-a,,,,AAXX 01214 07621 12/56 52104 10040 20030 39639 40078 55000 60006 83042 92100=
07621,1996-02-02 00:00:00,4,1008.4,0.5,93,3,6000,7.408,,,150,,,,,,,,,,,wg-a,,,,AAXX 02004 07621 12/56 41504 10040 20030 39644 40084 53005 60006 83032 90000=
07621,1996-02-02 06:00:00,6,1008.9,0.8,93,5,10000,7.408,,,180,2.9,6,,,,,,,,,wg-a,,,,AAXX 02064 07621 02560 81804 10060 20050 39653 40089 53008 60006 8657/ 90600 333 10060 20029 60004=
07621,1996-02-02 12:00:00,10,1010.1,0.9,82,7,500,3.704,,,290,,,,,,,,,,3,wg-a,,,,AAXX 02124 07621 12400 72902 10100 20070 39671 40101 50009 60006 70362 8687/ 91200=
07621,1996-02-02 15:00:00,9,1010.4,0.1,87,7,15000,11.112,,,280,,,,,,,,,,60,wg-a,,,,AAXX 02154 07621 02465 72806 10090 20070 39672 40104 53001 61000 76062 8687/ 91500 333 ////=
07621,1996-02-02 18:00:00,8,1011.2,0.7,93,7,20000,7.408,,,160,5.7,10.5,,,,,,,,3,wg-a,,,,AAXX 02184 07621 02470 71604 10080 20070 39679 40112 53007 61000 70362 878// 91800 333 10105 20057 ////=
07621,1996-02-02 21:00:00,6,1012.1,0.5,93,5,15000,3.704,,,160,,,,,,,,,,,wg-a,,,,AAXX 02214 07621 12765 41602 10060 20050 39684 40121 51005 60006 81530 92100=
07621,1996-02-03 00:00:00,6,1012.6,0.4,87,4,15000,11.112,,,160,,,,,,,,,,,wg-a,,,,AAXX 03004 07621 12/65 /1606 10060 20040 39688 40126 51004 60006 81030 90000=
07621,1996-02-03 03:00:00,4,1012.2,-0.6,93,3,15000,11.112,,,180,,,,,,,,,,,wg-a,,,,AAXX 03034 07621 12/65 /1806 10040 20030 39682 40122 56006 60006 85030 90300=
07621,1996-02-03 06:00:00,4,1012.6,0.3,87,2,20000,11.112,,,170,3.5,8.4,,,,,,,,,wg-a,,,,AAXX 03064 07621 02/70 21706 10040 20020 39685 40126 53003 60006 82030 90600 333 10084 20035 61000=
07621,1996-02-03 09:00:00,8,1012.9,0.9,71,3,500,7.408,,,170,,,,,,,,,,,wg-a,,,,AAXX 03094 07621 12600 31704 10080 20030 39694 40129 52009 60006 81830 90900=
07621,1996-02-03 12:00:00,12,1011.6,-0.6,67,6,500,14.816,,,280,,,,,,,,,,,wg-a,,,,AAXX 03124 07621 12600 52808 10120 20060 39688 40116 58006 60006 84230 91200=
07621,1996-02-03 15:00:00,9,1011.1,-0.9,87,7,20000,18.52,,,260,,,,,,,,,,25,wg-a,,,,AAXX 03154 07621 02470 72610 10090 20070 39679 40111 55009 61000 72586 872// 91500 333 ////=
07621,1996-02-03 18:00:00,8,1012.3,0.9,93,7,15000,7.408,,,210,3.6,12.3,,1,,,,,,2,wg-a,,,,AAXX 03184 07621 12565 72104 10080 20070 39688 40123 53009 60017 70286 8583/ 91800 333 10123 20036=
07621,1996-02-03 21:00:00,7,1012.4,0,93,6,11000,11.112,,,230,,,,,,,,,,,wg-a,,,,AAXX 03214 07621 32/61 /2306 10070 20060 39688 40124 50000 92100=
07621,1996-02-04 00:00:00,7,1012.4,0,93,6,15000,7.408,,,220,,,,,,,,,,,wg-a,,,,AAXX 04004 07621 12465 72204 10070 20060 39688 40124 50000 60006 875// 90000=
07621,1996-02-04 03:00:00,6,1011.4,-1.1,100,6,15000,3.704,,,170,,,,,,,,,,,wg-a,,,,AAXX 04034 07621 12465 71702 10060 20060 39677 40114 57011 60006 875// 90300=
07621,1996-02-04 06:00:00,6,1011.2,-0.2,100,6,15000,3.704,,,280,6.1,7.7,,1,,,2,,,60,wg-a,,,,AAXX 04064 07621 02565 72802 10060 20060 39675 40112 56002 60024 76062 875// 90600 333 10077 20061 60017=
07621,1996-02-04 12:00:00,3,1016.2,1.2,87,1,0,14.816,,,260,,,,,,,,,,,wg-a,,,,AAXX 04124 07621 12/// /2608 10030 20010 39718 40162 50012 60066 91200=
07621,1996-02-04 18:00:00,3,1017.3,1.1,87,1,10000,11.112,,,300,0.8,6.2,,,,,,,,,wg-a,,,,AAXX 04184 07621 32660 73006 10030 20010 39729 40173 53011 8557/ 91800 333 10062 20008=
07621,1996-02-04 21:00:00,2,1018.4,0.8,80,-1,10000,7.408,,,280,,,,,,,,,,,wg-a,,,,AAXX 04214 07621 12460 72804 10020 21010 39737 40184 51008 60006 875// 92100=
07621,1996-02-05 00:00:00,0,1018.7,0,93,-1,6000,7.408,,,290,,,,,,,,,,,wg-a,,,,AAXX 05004 07621 12456 52904 10000 21010 39737 40187 50000 60006 85500 90000=
07621,1996-02-05 03:00:00,-1,1018.1,-0.8,100,-1,6000,3.704,,,190,,,,,,,,,,,wg-a,,,,AAXX 05034 07621 12456 /1902 11010 21010 39729 40181 56008 60006 85500 90300=
07621,1996-02-05 06:00:00,0,1016.7,-1.2,86,-2,10000,7.408,,,170,-1.9,3.4,,,,,6,,,,wg-a,,,,AAXX 05064 07621 02660 /1704 10000 21020 39717 40167 58012 60006 85500 90600 333 10034 21019 60064=
07621,1996-02-05 12:00:00,5,1012.6,-3,52,-4,500,3.704,,,290,,,,,,,,,,,wg-a,,,,AAXX 05124 07621 12500 12902 10050 21040 39686 40126 58030 60006 81101 91200=
07621,1996-02-05 15:00:00,7,1008.3,-3.9,42,-5,500,7.408,,,290,,,,,,,,,,,wg-a,,,,AAXX 05154 07621 12/00 42904 10070 21050 39647 40083 58039 60006 80002 91500=
07621,1996-02-05 18:00:00,4,1004.8,-3.6,56,-4,20000,7.408,,,110,-1,7.4,,,,,,,,,wg-a,,,,AAXX 05184 07621 12/70 71104 10040 21040 39611 40048 58036 60006 85072 91800 333 10074 21010=
07621,1996-02-05 21:00:00,3,1001.5,-3.4,81,0,15000,7.408,,,220,,,,,,,,,,60,wg-a,,,,AAXX 05214 07621 02765 82204 10030 20000 39577 40015 56034 61000 76062 8452/ 92100 333 ////=
07621,1996-02-06 00:00:00,4,997,-4.2,93,3,15000,7.408,,,170,,,,2,,,,,,61,wg-a,,,,AAXX 06004 07621 02665 81704 10040 20030 39535 49970 57042 60026 76162 875// 90000 333 60027=
07621,1996-02-06 06:00:00,9,994.7,1.2,81,6,20000,38.892,,62.968,260,2.9,9,,5,,,14,,,21,wg-a,,,,AAXX 06064 07621 02570 72621 10090 20060 39522 49947 51012 60144 72162 878// 90600 333 10090 20029 60057 91034=
07621,1996-02-06 09:00:00,7,996.1,1,81,4,15000,42.596,,83.34,260,,,,1,,,,,,21,wg-a,,,,AAXX 06094 07621 12465 72623 10070 20040 39532 49961 53010 60017 72186 879// 90900 333 91045=
07621,1996-02-06 12:00:00,5,999.2,2.7,93,4,10000,35.188,,55.56,270,,,,2,,,,,,27,wg-a,,,,AAXX 06124 07621 02360 72719 10050 20040 39559 49992 51027 60036 72787 879// 91200 333 60027 91030=
07621,1996-02-06 15:00:00,5,1003,3.6,87,3,10000,31.484,,83.34,270,,,,7,,,,,,25,wg-a,,,,AAXX 06154 07621 12460 72717 10050 20030 39595 40030 53036 60077 72598 879// 91500 333 91045=
07621,1996-02-06 18:00:00,4,1007.8,4.4,87,2,15000,29.632,,83.34,270,2.3,9,,1,,,,,,25,wg-a,,,,AAXX 06184 07621 12465 72716 10040 20020 39639 40078 53044 60017 72598 872// 91800 333 10090 20023 91045=
07621,1996-02-06 21:00:00,3,1010.4,2.4,93,2,15000,29.632,,,240,,,,,,,,,,,wg-a,,,,AAXX 06214 07621 12465 72416 10030 20020 39663 40104 51024 60006 878// 92100=
07621,1996-02-07 00:00:00,4,1011,0.6,87,2,15000,14.816,,53.708,260,,,,1,,,,,,25,wg-a,,,,AAXX 07004 07621 02565 72608 10040 20020 39669 40110 50006 60016 72586 878// 90000 333 60017 91029=
07621,1996-02-07 03:00:00,3,1009.6,-1.4,93,2,10000,3.704,,,170,,,,2,,,,,,21,wg-a,,,,AAXX 07034 07621 12560 81702 10030 20020 39655 40096 56014 60027 72122 8657/ 90300=
07621,1996-02-07 06:00:00,4,1005.8,-3.5,87,2,10000,11.112,,,200,2.8,4.5,,,,,15,,,61,wg-a,,,,AAXX 07064 07621 02560 82006 10040 20020 39620 40058 56035 60154 76186 8652/ 90600 333 10045 20028 61000=
07621,1996-02-07 09:00:00,5,999.5,-5.9,87,3,15000,11.112,,,130,,,,0,,,,,,2,wg-a,,,,AAXX 07094 07621 12465 81306 10050 20030 39561 49995 58059 60007 70262 8552/ 90900=
07621,1996-02-07 12:00:00,10,997.4,-1.2,87,8,3000,46.3,,66.672,260,,,,3,,,,,,10,wg-a,,,,AAXX 07124 07621 02230 82625 10100 20080 39549 49974 56012 60036 71086 8622/ 91200 333 60037 91036=
07621,1996-02-07 15:00:00,7,1000.1,2.2,93,6,1500,50.004,,77.784,300,,,,14,,,,,,10,wg-a,,,,AAXX 07154 07621 12215 83027 10070 20060 39571 40001 51022 60147 71062 8622/ 91500 333 91042=
07621,1996-02-07 18:00:00,6,1001.9,1.5,87,4,1500,38.892,,70.376,270,3.5,11.3,,7,,,,,,10,wg-a,,,,AAXX 07184 07621 12415 82721 10060 20040 39586 40019 51015 60077 71062 8622/ 91800 333 10113 20035 91038=
07621,1996-02-07 21:00:00,6,1004.2,2.1,70,1,1500,53.708,,100.008,280,,,,3,,,,,,10,wg-a,,,,AAXX 07214 07621 12315 72829 10060 20010 39607 40042 51021 60037 71066 872// 92100 333 91054=
07621,1996-02-08 00:00:00,5,1008,3.6,93,4,1500,46.3,,70.376,280,,,,5,,,,,,10,wg-a,,,,AAXX 08004 07621 02315 72825 10050 20040 39643 40080 53036 60086 71086 878// 90000 333 60057 91038=
07621,1996-02-08 03:00:00,4,1013.4,5,93,3,1500,38.892,,87.044,310,,,,13,,,,,,10,wg-a,,,,AAXX 08034 07621 12315 73121 10040 20030 39693 40134 51050 60137 71066 878// 90300 333 91047=
07621,1996-02-08 06:00:00,4,1017.8,4.1,87,2,8000,25.928,,87.044,290,3.2,6.4,,3,,,48,,,21,wg-a,,,,AAXX 08064 07621 02358 72914 10040 20020 39734 40178 51041 60484 72162 878// 90600 333 10064 20032 60037 91047=
07621,1996-02-08 09:00:00,4,1021.3,3.4,87,2,6000,25.928,,,250,,,,4,,,,,,81,wg-a,,,,AAXX 08094 07621 12356 82514 10040 20020 39768 40213 51034 60047 78186 888// 90900=
07621,1996-02-08 12:00:00,6,1022.3,1.4,87,4,10000,18.52,,57.412,250,,,,1,,,,,,25,wg-a,,,,AAXX 08124 07621 02360 72510 10060 20040 39782 40223 50014 60056 72586 872// 91200 333 60017 91031=
07621,1996-02-08 18:00:00,4,1025.4,2.3,93,3,10000,3.704,,,10,2.8,8,,1,,,,,,1,wg-a,,,,AAXX 08184 07621 12460 /0102 10040 20030 39808 40254 53023 60017 70187 85200 91800 333 10080 20028=
07621,1996-02-08 21:00:00,3,1025.7,0,93,2,10000,7.408,,,170,,,,,,,,,,,wg-a,,,,AAXX 08214 07621 12/60 01704 10030 20020 39808 40257 50000 60006 80000 92100=
07621,1996-02-09 00:00:00,1,1023.5,-2.3,93,0,15000,3.704,,,150,,,,,,,,,,,wg-a,,,,AAXX 09004 07621 12/65 01502 10010 20000 39785 40235 56023 60006 80000 90000=
07621,1996-02-09 03:00:00,-2,1021.1,-2.8,93,-3,15000,3.704,,,140,,,,,,,,,,,wg-a,,,,AAXX 09034 07621 12/65 01402 11020 21030 39757 40211 56028 60006 80000 90300=
07621,1996-02-09 06:00:00,-2,1018.9,-2.1,93,-3,500,3.704,,,110,-2.6,4.2,,,,,9,,,,wg-a,,,,AAXX 09064 07621 02/00 41102 11020 21030 39736 40189 56021 60006 80002 90600 333 10042 21026 60094=
07621,1996-02-09 09:00:00,0,1017.6,-1,86,-2,50000,3.704,,,310,,,,,,,,,,,wg-a,,,,AAXX 09094 07621 12/84 63102 10000 21020 39726 40176 56010 60006 81042 90900=
07621,1996-02-09 12:00:00,10,1012.8,-3,46,-1,50000,3.704,,,70,,,,,,,,,,,wg-a,,,,AAXX 09124 07621 12/84 60702 10100 21010 39696 40128 58030 60006 80002 91200=
07621,1996-02-09 18:00:00,7,1014.6,1.7,81,4,500,3.704,,,240,-2.5,12.4,,,,,,,,,wg-a,,,,AAXX 09184 07621 12/00 72402 10070 20040 39708 40146 53017 60006 82048 91800 333 10124 21025=
07621,1996-02-09 21:00:00,5,1017.1,2.2,81,2,20000,11.112,,,200,,,,,,,,,,,wg-a,,,,AAXX 09214 07621 12/70 72006 10050 20020 39730 40171 51022 60006 83048 92100=
07621,1996-02-10 00:00:00,7,1017.7,0.9,87,5,20000,7.408,,,280,,,,,,,,,,,wg-a,,,,AAXX 10004 07621 12570 72804 10070 20050 39739 40177 52009 60006 8557/ 90000=
07621,1996-02-10 03:00:00,6,1018.5,0.6,93,5,10000,14.816,,,250,,,,1,,,,,,60,wg-a,,,,AAXX 10034 07621 12560 72508 10060 20050 39745 40185 52006 60017 76062 8557/ 90300=
07621,1996-02-10 06:00:00,5,1018.8,0.2,93,4,10000,11.112,,,170,5.1,7.5,,0,,,1,,,21,wg-a,,,,AAXX 10064 07621 02560 61706 10050 20040 39747 40188 53002 60014 72162 85530 90600 333 10075 20051 60007=
07621,1996-02-10 09:00:00,7,1019.7,1.1,81,4,40000,7.408,,,190,,,,,,,,,,,wg-a,,,,AAXX 10094 07621 12582 /1904 10070 20040 39758 40197 51011 60006 86800 90900=
07621,1996-02-10 12:00:00,10,1018.7,-0.5,71,5,500,14.816,,,260,,,,,,,,,,,wg-a,,,,AAXX 10124 07621 12500 52608 10100 20050 39753 40187 58005 60006 85800 91200=
07621,1996-02-10 15:00:00,9,1018,-0.8,76,5,40000,25.928,,,300,,,,,,,,,,,wg-a,,,,AAXX 10154 07621 12582 43014 10090 20050 39745 40180 56008 60006 84800 91500=
07621,1996-02-10 18:00:00,7,1019.9,1.4,76,3,20000,14.816,,,270,4.9,10.5,,,,,,,,,wg-a,,,,AAXX 10184 07621 12570 72708 10070 20030 39759 40199 53014 60006 83832 91800 333 10105 20049=
07621,1996-02-10 21:00:00,6,1021.2,1.1,87,4,15000,18.52,,,290,,,,0,,,,,,60,wg-a,,,,AAXX 10214 07621 12465 82910 10060 20040 39770 40212 51011 60007 76062 875// 92100=
07621,1996-02-11 00:00:00,4,1021.4,-0,93,3,20000,7.408,,,260,,,,2,,,,,,1,wg-a,,,,AAXX 11004 07621 02470 52604 10040 20030 39770 40214 55000 60026 70186 85800 90000 333 60027=
07621,1996-02-11 06:00:00,4,1022,0.7,93,3,15000,11.112,,,260,3.7,6.7,,0,,,3,,,25,wg-a,,,,AAXX 11064 07621 02465 72606 10040 20030 39776 40220 53007 60034 72586 878// 90600 333 10067 20037 60007=
07621,1996-02-11 09:00:00,5,1024.2,2.1,87,3,8000,25.928,,,240,,,,1,,,,,,63,wg-a,,,,AAXX 11094 07621 12458 72414 10050 20030 39797 40242 53021 60017 76386 878// 90900=
07621,1996-02-11 12:00:00,6,1024.1,0.1,87,4,8000,25.928,,,270,,,,1,,,,,,63,wg-a,,,,AAXX 11124 07621 02358 72714 10060 20040 39798 40241 53001 60026 76386 878// 91200 333 60017=
07621,1996-02-11 15:00:00,6,1023.4,-0.6,93,5,8000,25.928,,,260,,,,1,,,,,,60,wg-a,,,,AAXX 11154 07621 12458 72614 10060 20050 39792 40234 55006 60017 76086 878// 91500=
07621,1996-02-11 18:00:00,6,1023.9,0.5,93,5,8000,14.816,,,260,4.1,6.9,,1,,,,,,61,wg-a,,,,AAXX 11184 07621 12358 72608 10060 20050 39797 40239 53005 60017 76186 878// 91800 333 10069 20041=
07621,1996-02-11 21:00:00,6,1024.3,0.4,87,4,10000,25.928,,,260,,,,1,,,,,,61,wg-a,,,,AAXX 11214 07621 12460 82614 10060 20040 39801 40243 50004 60017 76162 875// 92100=
07621,1996-02-12 00:00:00,7,1023.4,-0.9,81,4,10000,18.52,,,240,,,,,,,,,,1,wg-a,,,,AAXX 12004 07621 02560 62410 10070 20040 39792 40234 58009 60016 70162 86800 90000 333 61000=
07621,1996-02-12 03:00:00,5,1021.2,-2.3,87,3,10000,11.112,,,180,,,,,,,,,,,wg-a,,,,AAXX 12034 07621 12760 71806 10050 20030 39769 40212 56023 60006 875// 90300=
07621,1996-02-12 06:00:00,6,1018.5,-2.4,81,3,10000,14.816,,,210,4.2,6.7,,,,,5,,,,wg-a,,,,AAXX 12064 07621 12660 72108 10060 20030 39745 40185 56024 60054 8457/ 90600 333 10067 20042=
07621,1996-02-12 09:00:00,8,1016.8,-1.3,71,3,50000,14.816,,,180,,,,,,,,,,,wg-a,,,,AAXX 12094 07621 12884 /1808 10080 20030 39732 40168 56013 60006 81540 90900=
07621,1996-02-12 12:00:00,14,1013.5,-2.3,55,5,50000,29.632,,,250,,,,,,,,,,,wg-a,,,,AAXX 12124 07621 12684 52516 10140 20050 39709 40135 58023 60006 84240 91200=
07621,1996-02-12 15:00:00,14,1010.5,-2.9,58,6,25000,31.484,,,250,,,,,,,,,,3,wg-a,,,,AAXX 12154 07621 02675 72517 10140 20060 39680 40105 57029 61000 70362 8557/ 91500 333 ////=
07621,1996-02-12 18:00:00,13,1010.5,-0.2,62,6,25000,35.188,,55.56,270,5.8,14.1,,,,,,,,3,wg-a,,,,AAXX 12184 07621 32675 /2719 10130 20060 39678 40105 55002 70361 85270 91800 333 10141 20058 91030=
07621,1996-02-12 21:00:00,9,1012.9,1.8,93,8,6000,31.484,,72.228,260,,,,2,,,,,,61,wg-a,,,,AAXX 12214 07621 12356 72617 10090 20080 39696 40129 53018 60027 76162 878// 92100 333 91039=
07621,1996-02-13 00:00:00,8,1014.8,1.7,87,6,10000,31.484,,72.228,280,,,,3,,,,,,60,wg-a,,,,AAXX 13004 07621 02460 72817 10080 20060 39713 40148 51017 60056 76062 878// 90000 333 60037 91039=
07621,1996-02-13 03:00:00,7,1014.7,-0.3,81,4,15000,29.632,,,260,,,,,,,,,,21,wg-a,,,,AAXX 13034 07621 02665 22616 10070 20040 39710 40147 58003 61000 72161 82500 90300 333 ////=
07621,1996-02-13 06:00:00,7,1014.3,-0.5,76,3,15000,22.224,,,260,6.2,12.8,,,,,5,,,1,wg-a,,,,AAXX 13064 07621 12665 32612 10070 20030 39705 40143 56005 60054 70161 83500 90600 333 10128 20062=
07621,1996-02-13 09:00:00,9,1014.4,0.5,71,4,25000,25.928,,,260,,,,,,,,,,,wg-a,,,,AAXX 13094 07621 12675 62614 10090 20040 39710 40144 51005 60006 83801 90900=
07621,1996-02-13 12:00:00,10,1013.3,-0.9,57,2,20000,25.928,,,280,,,,,,,,,,,wg-a,,,,AAXX 13124 07621 12570 72814 10100 20020 39701 40133 58009 60006 878// 91200=
07621,1996-02-13 15:00:00,10,1012.1,-1.1,71,5,25000,14.816,,,290,,,,,,,,,,,wg-a,,,,AAXX 13154 07621 12575 72908 10100 20050 39690 40121 56011 60006 82871 91500=
07621,1996-02-13 18:00:00,7,1014.2,1.5,87,5,8000,18.52,,,270,6.5,11.1,,1,,,,,,61,wg-a,,,,AAXX 13184 07621 12358 82710 10070 20050 39705 40142 53015 60017 76162 8552/ 91800 333 10111 20065=
07621,1996-02-13 21:00:00,5,1015.5,1,93,4,6000,14.816,,,230,,,,4,,,,,,61,wg-a,,,,AAXX 13214 07621 12456 82308 10050 20040 39715 40155 53010 60047 76166 8552/ 92100=
07621,1996-02-14 00:00:00,5,1016.4,0.8,93,4,6000,3.704,,,310,,,,2,,,,,,61,wg-a,,,,AAXX 14004 07621 02456 83102 10050 20040 39723 40164 53008 60056 76162 8552/ 90000 333 60027=
07621,1996-02-14 03:00:00,4,1018.4,1.7,87,2,10000,11.112,,,10,,,,1,,,,,,21,wg-a,,,,AAXX 14034 07621 12660 80106 10040 20020 39740 40184 53017 60017 72162 8652/ 90300=
07621,1996-02-14 06:00:00,2,1020.3,1.6,93,1,15000,11.112,,,350,2.3,6.9,,,,,6,,,3,wg-a,,,,AAXX 14064 07621 12465 83506 10020 20010 39756 40203 51016 60064 70362 885// 90600 333 10069 20023=
07621,1996-02-14 12:00:00,2,1023.5,0.4,87,0,6000,14.816,,,10,,,,,,,,,,,wg-a,,,,AAXX 14124 07621 12456 80108 10020 20000 39786 40235 50004 60006 871// 91200=
07621,1996-02-14 15:00:00,3,1024.2,0.7,81,0,10000,7.408,,,50,,,,,,,,,,22,wg-a,,,,AAXX 14154 07621 02460 70504 10030 20000 39793 40242 53007 61000 72272 878// 91500 333 ////=
07621,1996-02-14 18:00:00,2,1026.4,2.1,87,0,10000,7.408,,,30,1.5,2.6,,,,,,,,2,wg-a,,,,AAXX 14184 07621 32360 70304 10020 20000 39814 40264 53021 70272 878// 91800 333 10026 20015=
07621,1996-02-14 21:00:00,2,1028.6,2,80,-1,10000,11.112,,,20,,,,,,,,,,,wg-a,,,,AAXX 14214 07621 12560 70206 10020 21010 39834 40286 52020 60006 875// 92100=
07621,1996-02-15 00:00:00,1,1030,1.3,86,-1,8000,7.408,,,30,,,,,,,,,,,wg-a,,,,AAXX 15004 07621 12458 70304 10010 21010 39847 40300 51013 60006 875// 90000=
07621,1996-02-15 03:00:00,0,1030.9,0.7,93,-1,8000,7.408,,,10,,,,,,,,,,,wg-a,,,,AAXX 15034 07621 12458 70104 10000 21010 39854 40309 51007 60006 875// 90300=
07621,1996-02-15 06:00:00,0,1032.4,1.4,93,-1,7000,3.704,,,20,-0.2,2.3,,,,,,,,,wg-a,,,,AAXX 15064 07621 02557 70202 10000 21010 39868 40324 51014 60006 875// 90600 333 10023 21002 61000=
07621,1996-02-15 12:00:00,2,1033,-0.4,69,-3,12000,7.408,,,30,,,,,,,,,,,wg-a,,,,AAXX 15124 07621 12462 70304 10020 21030 39877 40330 58004 60006 878// 91200=
07621,1996-02-15 18:00:00,2,1033.3,0.8,69,-3,10000,7.408,,,30,-0.1,4,,,,,,,,,wg-a,,,,AAXX 15184 07621 12560 80304 10020 21030 39880 40333 53008 60006 885// 91800 333 10040 21001=
07621,1996-02-15 21:00:00,1,1034.3,0.8,80,-2,10000,3.704,,,40,,,,,,,,,,,wg-a,,,,AAXX 15214 07621 12560 80402 10010 21020 39888 40343 52008 60006 885// 92100=
07621,1996-02-16 00:00:00,1,1034.4,-0,86,-1,10000,3.704,,,260,,,,,,,,,,,wg-a,,,,AAXX 16004 07621 12560 82602 10010 21010 39888 40344 55000 60006 885// 90000=
07621,1996-02-16 06:00:00,-2,1034.8,0,93,-3,10000,7.408,,,270,-2,2.2,,,,,,,,,wg-a,,,,AAXX 16064 07621 02/60 02704 11020 21030 39887 40348 50000 60006 80000 90600 333 10022 21020 60004=
07621,1996-02-16 12:00:00,3,1035.4,,70,-2,12000,11.112,,,300,,,,,,,,,,,wg-a,,,,AAXX 16124 07621 32/62 73006 10030 21020 39901 40354 8707/ 91200=
07621,1996-02-16 15:00:00,5,1033.4,-1.7,60,-2,12000,7.408,,,330,,,,,,,,,,,wg-a,,,,AAXX 16154 07621 12762 73304 10050 21020 39884 40334 56017 60006 8257/ 91500=
07621,1996-02-16 18:00:00,4,1034.3,0.8,75,0,10000,3.704,,,310,-2.4,4.6,,,,,,,,,wg-a,,,,AAXX 16184 07621 32760 73102 10040 20000 39892 40343 53008 8357/ 91800 333 10046 21024=
07621,1996-02-16 21:00:00,3,1035.3,0.8,81,0,10000,11.112,,,240,,,,,,,,,,,wg-a,,,,AAXX 16214 07621 12760 72406 10030 20000 39900 40353 51008 60006 8157/ 92100=
07621,1996-02-17 00:00:00,1,1035.6,0,80,-2,10000,11.112,,,220,,,,,,,,,,,wg-a,,,,AAXX 17004 07621 12/60 02206 10010 21020 39900 40356 50000 60006 80000 90000=
07621,1996-02-17 03:00:00,1,1034.8,-0.8,80,-2,11000,14.816,,,190,,,,,,,,,,,wg-a,,,,AAXX 17034 07621 12/61 /1908 10010 21020 39892 40348 56008 60006 90300=
07621,1996-02-17 06:00:00,4,1033.2,-1,70,-1,10000,11.112,,,170,-0.5,4.1,,,,,,,,,wg-a,,,,AAXX 17064 07621 12560 71706 10040 21010 39882 40332 57010 60006 875// 90600 333 10041 21005=
07621,1996-02-17 09:00:00,7,1032.7,-0.1,70,2,50000,7.408,,,230,,,,,,,,,,,wg-a,,,,AAXX 17094 07621 12584 72304 10070 20020 39881 40327 56001 60006 875// 90900=
07621,1996-02-17 12:00:00,10,1031.7,-0.3,71,5,40000,18.52,,,260,,,,,,,,,,,wg-a,,,,AAXX 17124 07621 12682 62610 10100 20050 39878 40317 58003 60006 86800 91200=
07621,1996-02-17 15:00:00,12,1030.1,-1.4,67,6,40000,18.52,,,300,,,,,,,,,,,wg-a,,,,AAXX 17154 07621 12582 43010 10120 20060 39864 40301 56014 60006 84200 91500=
07621,1996-02-17 18:00:00,7,1031.2,0.4,87,5,40000,11.112,,,280,3.8,12.4,,,,,,,,,wg-a,,,,AAXX 17184 07621 12682 /2806 10070 20050 39868 40312 53004 60006 81500 91800 333 10124 20038=
07621,1996-02-17 21:00:00,7,1031.3,0,87,5,20000,7.408,,,240,,,,,,,,,,,wg-a,,,,AAXX 17214 07621 12670 /2404 10070 20050 39868 40313 50000 60006 86500 92100=
07621,1996-02-18 00:00:00,6,1030.3,-1,87,4,15000,0,,,0,,,,,,,,,,,wg-a,,,,AAXX 18004 07621 12565 70000 10060 20040 39858 40303 56010 60006 875// 90000=
07621,1996-02-18 03:00:00,2,1027.3,-3.6,87,0,15000,11.112,,,180,,,,,,,,,,,wg-a,,,,AAXX 18034 07621 12565 71806 10020 20000 39822 40273 57036 60006 87500 90300=
07621,1996-02-18 06:00:00,1,1025.4,-2,86,-1,10000,11.112,,,170,-0.4,7.4,,,,,,,,,wg-a,,,,AAXX 18064 07621 02/60 01706 10010 21010 39802 40254 56020 60006 80000 90600 333 10074 21004 60004=
07621,1996-02-18 09:00:00,6,1022.5,-2,75,2,50000,7.408,,,170,,,,,,,,,,,wg-a,,,,AAXX 18094 07621 12/84 11704 10060 20020 39782 40225 58020 60006 80002 90900=
07621,1996-02-18 12:00:00,13,1017.4,-3.8,51,3,50000,11.112,,,270,,,,,,,,,,,wg-a,,,,AAXX 18124 07621 12/84 22706 10130 20030 39744 40174 58038 60006 80002 91200=
07621,1996-02-18 15:00:00,13,1013.7,-3.5,44,1,50000,25.928,,53.708,310,,,,,,,,,,,wg-a,,,,AAXX 18154 07621 12/84 /3114 10130 20010 39709 40137 56035 60006 81032 91500 333 91029=
07621,1996-02-18 18:00:00,9,1012.9,-1.3,71,4,500,29.632,,53.708,300,0,13.7,,,,,,,,,wg-a,,,,AAXX 18184 07621 12/00 73016 10090 20040 39696 40129 56013 60006 84032 91800 333 10137 20000 91029=
07621,1996-02-18 21:00:00,9,1010.1,-2.7,61,2,15000,25.928,,,270,,,,,,,,,,,wg-a,,,,AAXX 18214 07621 12565 72714 10090 20020 39669 40101 58027 60006 8657/ 92100=
07621,1996-02-19 00:00:00,6,1008.8,-1.7,93,5,8000,31.484,,61.116,260,,,,4,,,,,,63,wg-a,,,,AAXX 19004 07621 02458 82617 10060 20050 39652 40088 58017 60046 76362 8557/ 90000 333 60047 91033=
07621,1996-02-19 03:00:00,4,1008.1,-1,93,3,8000,29.632,,57.412,290,,,,3,,,,,,63,wg-a,,,,AAXX 19034 07621 12258 82916 10040 20030 39642 40081 56010 60037 76362 8557/ 90300 333 91031=
07621,1996-02-19 06:00:00,4,1006.3,-1.8,93,3,8000,22.224,,57.412,250,3.4,9.5,,,,,7,,,60,wg-a,,,,AAXX 19064 07621 02258 82512 10040 20030 39624 40063 56018 60074 76062 8557/ 90600 333 10095 20034 61000 91031=
07621,1996-02-19 09:00:00,4,1005.5,-0.6,93,3,15000,35.188,,61.116,250,,,,,,,,,,80,wg-a,,,,AAXX 19094 07621 02265 82519 10040 20030 39618 40055 58006 61000 78086 872// 90900 333 //// 91033=
07621,1996-02-19 12:00:00,6,1003.4,-1.8,87,4,20000,31.484,,61.116,240,,,,9,,,,,,60,wg-a,,,,AAXX 19124 07621 02370 82417 10060 20040 39600 40034 58018 60116 76086 8582/ 91200 333 60097 91033=
07621,1996-02-19 15:00:00,5,1002.1,-1.3,93,4,15000,22.224,,61.116,270,,,,5,,,,,,60,wg-a,,,,AAXX 19154 07621 12465 82712 10050 20040 39587 40021 56013 60057 76066 878// 91500 333 91033=
07621,1996-02-19 18:00:00,3,1005.1,2.5,100,3,10000,11.112,,61.116,260,3.2,7.1,,6,,,,,,63,wg-a,,,,AAXX 19184 07621 12360 82606 10030 20030 39612 40051 53025 60067 76366 878// 91800 333 10071 20032 91033=
07621,1996-02-19 21:00:00,1,1010.7,5,93,0,500,14.816,,,300,,,,3,,,,,,71,wg-a,,,,AAXX 19214 07621 12300 83008 10010 20000 39662 40107 51050 60037 77176 878// 92100=
07621,1996-02-20 00:00:00,0,1012.4,1.5,93,-1,8000,11.112,,,340,,,,1,,,,,,22,wg-a,,,,AAXX 20004 07621 02458 83406 10000 21010 39677 40124 51015 60046 72276 8557/ 90000 333 60017=
07621,1996-02-20 03:00:00,-1,1012.9,0.3,86,-3,10000,7.408,,,290,,,,,,,,,,,wg-a,,,,AAXX 20034 07621 12460 72904 11010 21030 39680 40129 50003 60006 875// 90300=
07621,1996-02-20 06:00:00,-2,1012.3,-0.8,80,-5,10000,3.704,,,230,-2.4,3.5,,,,,20,,,,wg-a,,0,,AAXX 20064 07621 12460 /2302 11020 21050 39672 40123 58008 60204 85800 90600 333 10035 21024 4/9999=
07621,1996-02-20 09:00:00,-1,1011.3,-0.7,80,-4,20000,3.704,,,190,,,,,,,,,,,wg-a,,,,AAXX 20094 07621 12570 31902 11010 21040 39665 40113 56007 60006 81142 90900=
07621,1996-02-20 12:00:00,1,1011.5,0.4,59,-6,20000,18.52,,,320,,,,,,,,,,,wg-a,,,,AAXX 20124 07621 12470 73210 10010 21060 39669 40115 53004 60006 8427/ 91200=
07621,1996-02-20 15:00:00,-1,1012.8,1,93,-2,15000,22.224,,,320,,,,0,,,,,,1,wg-a,,,,AAXX 20154 07621 12465 /3212 11010 21020 39679 40128 51010 60007 70172 8620/ 91500=
07621,1996-02-20 18:00:00,-2,1014.2,1.1,93,-3,1000,11.112,,,260,-3.3,1.6,,,,,,,,10,wg-a,,0,,AAXX 20184 07621 02110 72606 11020 21030 39690 40142 53011 61000 71072 877// 91800 333 10016 21033 4/9999 ////=
07621,1996-02-20 21:00:00,-2,1015,0.7,86,-4,6000,14.816,,,250,,,,,,,,,,71,wg-a,,,,AAXX 20214 07621 02356 82508 11020 21040 39697 40150 51007 61000 77172 875// 92100 333 ////=
07621,1996-02-21 00:00:00,-2,1015.1,0.1,86,-4,0,14.816,,,320,,,,,,,,,,,wg-a,,,,AAXX 21004 07621 12/// /3208 11020 21040 39698 40151 53001 60016 90000=
07621,1996-02-21 03:00:00,-3,1015,-0.2,93,-4,500,14.816,,,300,,,,1,,,,,,71,wg-a,,,,AAXX 21034 07621 12100 83008 11030 21040 39696 40150 57002 60017 77177 887// 90300=
07621,1996-02-21 06:00:00,-4,1015.5,0.4,93,-5,1500,18.52,,,280,-3.8,-2.1,,1,,,3,,,71,wg-a,,10,,AAXX 21064 07621 02215 82810 11040 21050 39700 40155 53004 60034 77177 875// 90600 333 11021 21038 4/010 60017=
07621,1996-02-21 09:00:00,-3,1017.4,1.9,86,-5,3000,18.52,,,290,,,,,,,,,,71,wg-a,,,,AAXX 21094 07621 02330 82910 11030 21050 39719 40174 53019 61000 77177 875// 90900 333 ////=
07621,1996-02-21 12:00:00,-3,1018,0.7,93,-4,2000,18.52,,,270,,,,,,,,,,71,wg-a,,,,AAXX 21124 07621 02420 82710 11030 21040 39726 40180 51007 61000 77177 885// 91200 333 6100=
07621,1996-02-21 15:00:00,-2,1018.5,0.5,86,-4,3000,22.224,,,260,,,,0,,,,,,70,wg-a,,,,AAXX 21154 07621 12330 82612 11020 21040 39731 40185 53005 60007 77077 885// 91500=
07621,1996-02-21 18:00:00,-2,1020.3,1.7,86,-4,3000,14.816,,,260,-3.9,-2.1,,,,,,,,70,wg-a,,8,,AAXX 21184 07621 02430 72608 11020 21040 39748 40203 52017 61000 77077 875// 91800 333 11021 21039 4/008 ////=
07621,1996-02-21 21:00:00,-2,1022.4,2,86,-4,4000,7.408,,,320,,,,,,,,,,22,wg-a,,,,AAXX 21214 07621 02340 73204 11020 21040 39768 40224 51020 61000 72272 875// 92100 333 ////=
07621,1996-02-22 00:00:00,-4,1024.6,1.9,93,-5,4000,14.816,,,290,,,,,,,,,,2,wg-a,,,,AAXX 22004 07621 02440 72908 11040 21050 39787 40246 53019 61000 70272 876// 90000 333 ////=
07621,1996-02-22 03:00:00,-5,1025.8,1,86,-7,4000,18.52,,,290,,,,,,,,,,,wg-a,,,,AAXX 22034 07621 12440 72910 11050 21070 39797 40258 52010 60006 876// 90300=
07621,1996-02-22 06:00:00,-8,1027.9,1.4,85,-10,10000,18.52,,,270,-8.8,-1.9,,,,,1,,,,wg-a,,8,,AAXX 22064 07621 12560 /2710 11080 21100 39811 40279 53014 60014 81500 90600 333 11019 21088 4/008=
07621,1996-02-22 09:00:00,-5,1030,2.5,73,-9,40000,7.408,,,270,,,,,,,,,,,wg-a,,,,AAXX 22094 07621 12/82 02704 11050 21090 39836 40300 51025 60006 80000 90900=
07621,1996-02-22 12:00:00,-2,1030,0.6,63,-8,20000,22.224,,,260,,,,,,,,,,,wg-a,,,,AAXX 22124 07621 12770 /2612 11020 21080 39842 40300 50006 60006 81100 91200=
07621,1996-02-22 15:00:00,1,1028.6,-1,47,-9,500,11.112,,,290,,,,,,,,,,,wg-a,,,,AAXX 22154 07621 12500 32906 10010 21090 39832 40286 56010 60006 81230 91500=
07621,1996-02-22 21:00:00,1,1025.5,-1.7,69,-4,20000,22.224,,,200,,,,,,,,,,,wg-a,,,,AAXX 22214 07621 12670 72012 10010 21040 39803 40255 58017 60006 8553/ 92100=
07621,1996-02-23 00:00:00,3,1023,-2,87,1,8000,25.928,,,250,,,,1,,,,,,61,wg-a,,,,AAXX 23004 07621 02258 82514 10030 20010 39783 40230 56020 60016 76161 8557/ 90000 333 60017=
07621,1996-02-23 03:00:00,3,1021.4,-1.5,93,2,8000,29.632,,,250,,,,4,,,,,,61,wg-a,,,,AAXX 23034 07621 12258 82516 10030 20020 39768 40214 58015 60047 76166 8557/ 90300=
07621,1996-02-23 06:00:00,5,1021,-0.1,87,3,8000,31.484,,,250,-2.5,4.8,,3,,,8,,,,wg-a,,,,AAXX 23064 07621 02/58 /2517 10050 20030 39767 40210 55001 60084 90600 333 10048 21025 60037=
07621,1996-02-23 09:00:00,6,1021.1,0.3,87,4,15000,29.632,,57.412,250,,,,0,,,,,,1,wg-a,,,,AAXX 23094 07621 12465 72516 10060 20040 39770 40211 51003 60007 70162 8487/ 90900 333 91031=
07621,1996-02-23 12:00:00,8,1019.9,-0.9,76,4,12000,29.632,,57.412,260,,,,0,,,,,,60,wg-a,,,,AAXX 23124 07621 02562 72616 10080 20040 39761 40199 58009 60016 76062 878// 91200 333 60007 91031=
07621,1996-02-23 15:00:00,7,1019,-1,87,5,15000,22.224,,,270,,,,2,,,,,,60,wg-a,,,,AAXX 23154 07621 12465 72712 10070 20050 39751 40190 56010 60027 76066 878// 91500=
07621,1996-02-23 18:00:00,6,1019.6,0.4,93,5,6000,22.224,,,270,4.6,7.9,,3,,,,,,60,wg-a,,,,AAXX 23184 07621 12456 72712 10060 20050 39755 40196 53004 60037 76062 878// 91800 333 10079 20046=
07621,1996-02-23 21:00:00,5,1020.2,0.4,93,4,10000,18.52,,,250,,,,1,,,,,,60,wg-a,,,,AAXX 23214 07621 12460 72510 10050 20040 39759 40202 51004 60017 76066 878// 92100=
07621,1996-02-24 00:00:00,3,1019.6,-0.8,100,3,10000,11.112,,,220,,,,,,,,,,1,wg-a,,,,AAXX 24004 07621 02560 72206 10030 20030 39751 40196 58008 60016 70162 87800 90000 333 61000=
07621,1996-02-24 03:00:00,4,1018.3,-1.2,93,3,10000,11.112,,,220,,,,,,,,,,,wg-a,,,,AAXX 24034 07621 12460 52206 10040 20030 39739 40183 58012 60006 85800 90300=
07621,1996-02-24 06:00:00,3,1017.7,-0.6,93,2,500,11.112,,,170,2.4,6,,,,,7,,,,wg-a,,,,AAXX 24064 07621 12600 /1706 10030 20020 39733 40177 55006 60074 85500 90600 333 10060 20024=
07621,1996-02-24 09:00:00,8,1016.2,-0.8,76,4,75000,3.704,,,150,,,,,,,,,,,wg-a,,,,AAXX 24094 07621 12/89 21502 10080 20040 39725 40162 58008 60006 80002 90900=
07621,1996-02-24 12:00:00,12,1014.8,-0.7,54,3,75000,3.704,,,300,,,,,,,,,,,wg-a,,,,AAXX 24124 07621 12589 33002 10120 20030 39718 40148 58007 60006 82102 91200=
07621,1996-02-24 18:00:00,10,1012.6,-0.4,62,3,10000,3.704,,,60,2,13.3,,,,,,,,,wg-a,,,,AAXX 24184 07621 12/60 /0602 10100 20030 39694 40126 55004 60006 91800 333 10133 20020=
07621,1996-02-24 21:00:00,4,1013.6,0,87,2,25000,11.112,,,180,,,,,,,,,,,wg-a,,,,AAXX 24214 07621 12/75 01806 10040 20020 39694 40136 50000 60006 80000 92100=
07621,1996-02-25 00:00:00,2,1012.9,-0.9,87,0,20000,0,,,0,,,,,,,,,,,wg-a,,,,AAXX 25004 07621 12/70 00000 10020 20000 39685 40129 58009 60006 80000 90000=
07621,1996-02-25 03:00:00,1,1011.4,-1.7,86,-1,20000,7.408,,,180,,,,,,,,,,,wg-a,,,,AAXX 25034 07621 12/70 01804 10010 21010 39668 40114 58017 60006 80000 90300=
07621,1996-02-25 06:00:00,1,1010.3,-1,75,-3,20000,3.704,,,10,-0.1,10.1,,,,,,,,,wg-a,,,,AAXX 25064 07621 02/70 00102 10010 21030 39658 40103 56010 60006 80000 90600 333 10101 21001 60004=
07621,1996-02-25 09:00:00,6,1009.4,0,81,3,40000,3.704,,,360,,,,,,,,,,,wg-a,,,,AAXX 25094 07621 12/82 13602 10060 20030 39658 40094 50000 60006 80001 90900=
07621,1996-02-25 12:00:00,15,1007.3,-0.8,33,-1,50000,11.112,,,70,,,,,,,,,,,wg-a,,,,AAXX 25124 07621 12/84 10706 10150 21010 39650 40073 58008 60006 80001 91200=
07621,1996-02-25 15:00:00,17,1005.2,-1.8,23,-4,50000,29.632,,,190,,,,,,,,,,,wg-a,,,,AAXX 25154 07621 12/84 /1916 10170 21040 39632 40052 58018 60006 81031 91500=
07621,1996-02-25 18:00:00,12,1005.7,-0.1,26,-7,40000,35.188,,,220,-0.2,17.3,,,,,,,,,wg-a,,,,AAXX 25184 07621 12/82 12219 10120 21070 39631 40057 57001 60006 81041 91800 333 10173 21002=
07621,1996-02-25 21:00:00,11,1005.7,-0.1,32,-5,10000,25.928,,,190,,,,,,,,,,,wg-a,,,,AAXX 25214 07621 12/60 /1914 10110 21050 39630 40057 58001 60006 92100=
07621,1996-02-26 00:00:00,12,1005.8,0.1,30,-5,500,31.484,,,200,,,,,,,,,,,wg-a,,,,AAXX 26004 07621 12/00 /2017 10120 21050 39631 40058 52001 60006 82042 90000=
07621,1996-02-26 03:00:00,11,1006.6,0.7,35,-4,500,31.484,,53.708,210,,,,,,,,,,,wg-a,,,,AAXX 26034 07621 12/00 82117 10110 21040 39638 40066 51007 60006 8802/ 90300 333 91029=
07621,1996-02-26 06:00:00,7,1009.4,2,57,-1,50000,3.704,,53.708,160,6.5,12.6,,,,,,,,,wg-a,,,,AAXX 26064 07621 02/84 71602 10070 21010 39658 40094 53020 60006 8704/ 90600 333 10126 20065 60004 91029=
07621,1996-02-26 09:00:00,6,1011.1,1.6,70,1,40000,3.704,,,10,,,,,,,,,,,wg-a,,,,AAXX 26094 07621 12782 70102 10060 20010 39674 40111 51016 60006 8124/ 90900=
07621,1996-02-26 12:00:00,9,1011,0.4,66,3,500,11.112,,,30,,,,,,,,,,,wg-a,,,,AAXX 26124 07621 12500 70306 10090 20030 39678 40110 50004 60006 8424/ 91200=
07621,1996-02-26 15:00:00,5,1012.3,0.5,93,4,10000,18.52,,,280,,,,,,,,,,60,wg-a,,,,AAXX 26154 07621 02360 /2810 10050 20040 39683 40123 53005 61000 76062 8517/ 91500 333 ////=
07621,1996-02-26 18:00:00,2,1014.6,1.9,100,2,8000,14.816,,,240,2.4,9.6,,0,,,,,,50,wg-a,,,,AAXX 26184 07621 12258 82408 10020 20020 39702 40146 53019 60007 75065 887// 91800 333 10096 20024=
07621,1996-02-26 21:00:00,3,1016,1.3,93,2,8000,11.112,,,240,,,,1,,,,,,60,wg-a,,,,AAXX 26214 07621 12458 82406 10030 20020 39715 40160 51013 60017 76065 885// 92100=
07621,1996-02-27 00:00:00,2,1017.1,1,100,2,10000,11.112,,,220,,,,1,,,,,,61,wg-a,,,,AAXX 27004 07621 02460 82206 10020 20020 39725 40171 53010 60016 76165 885// 90000 333 60017=
07621,1996-02-27 03:00:00,3,1016.7,-0.2,93,2,12000,14.816,,,210,,,,0,,,,,,21,wg-a,,,,AAXX 27034 07621 12362 82108 10030 20020 39723 40167 58002 60007 72162 885// 90300=
07621,1996-02-27 06:00:00,3,1017.2,0.5,93,2,15000,14.816,,,200,2,3.3,,,,,,,,1,wg-a,,,,AAXX 27064 07621 02565 82008 10030 20020 39728 40172 53005 60006 70162 885// 90600 333 10033 20020 60004=
07621,1996-02-27 09:00:00,5,1018.4,1.4,81,2,500,3.704,,,210,,,,,,,,,,,wg-a,,,,AAXX 27094 07621 12600 /2102 10050 20020 39742 40184 51014 60006 86500 90900=
07621,1996-02-27 12:00:00,8,1018,0,57,0,500,7.408,,,50,,,,,,,,,,,wg-a,,,,AAXX 27124 07621 12500 40504 10080 20000 39742 40180 50000 60006 83230 91200=
07621,1996-02-27 18:00:00,8,1017.9,0.9,61,1,20000,7.408,,,30,3.2,10.1,,,,,,,,,wg-a,,,,AAXX 27184 07621 32670 50304 10080 20010 39741 40179 53009 85400 91800 333 10101 20032=
07621,1996-02-27 21:00:00,2,1019.7,0.9,87,0,500,7.408,,,180,,,,,,,,,,,wg-a,,,,AAXX 27214 07621 12/00 01804 10020 20000 39750 40197 51009 60006 80000 92100=
07621,1996-02-28 00:00:00,1,1019.8,-0.2,86,-1,500,7.408,,,170,,,,,,,,,,,wg-a,,,,AAXX 28004 07621 12/00 01704 10010 21010 39748 40198 58002 60006 80000 90000=
07621,1996-02-28 03:00:00,0,1019.6,-0.3,93,-1,500,3.704,,,180,,,,,,,,,,,wg-a,,,,AAXX 28034 07621 12/00 01802 10000 21010 39745 40196 57003 60006 80000 90300=
07621,1996-02-28 06:00:00,-1,1020.1,0.4,93,-2,500,7.408,,,160,-1,7.6,,,,,6,,,,wg-a,,,,AAXX 28064 07621 02/00 01604 11010 21020 39749 40201 53004 60006 80000 90600 333 10076 21010 60064=
07621,1996-02-28 12:00:00,10,1019.5,0.2,53,1,40000,11.112,,,60,,,,,,,,,,,wg-a,,,,AAXX 28124 07621 12/82 30606 10100 20010 39760 40195 50002 60006 80001 91200=
07621,1996-02-28 15:00:00,12,1018.7,-0.5,54,3,40000,11.112,,,20,,,,,,,,,,,wg-a,,,,AAXX 28154 07621 12682 40206 10120 20030 39755 40187 56005 60006 81101 91500=
07621,1996-02-28 18:00:00,8,1020.7,1.4,76,4,25000,7.408,,,20,-0.8,11.8,,,,,,,,,wg-a,,,,AAXX 28184 07621 12675 /0204 10080 20040 39769 40207 53014 60006 81401 91800 333 10118 21008=
07621,1996-02-28 21:00:00,3,1022.7,1.2,93,2,10000,0,,,0,,,,,,,,,,,wg-a,,,,AAXX 28214 07621 12/60 00000 10030 20020 39781 40227 51012 60006 80000 92100=
07621,1996-02-29 06:00:00,-1,1023.6,0.7,93,-2,10000,7.408,,,180,-0.5,7.9,,,,,,,,,wg-a,,,,AAXX 29064 07621 02/60 01804 11010 21020 39783 40236 51007 60006 80000 90600 333 10079 21005 60004=
07621,1996-02-29 09:00:00,6,1023.7,1.1,75,2,20000,3.704,,,150,,,,,,,,,,,wg-a,,,,AAXX 29094 07621 12/70 01502 10060 20020 39794 40237 51011 60006 80000 90900=
07621,1996-02-29 12:00:00,10,1023.6,0.5,66,4,15000,7.408,,,10,,,,,,,,,,,wg-a,,,,AAXX 29124 07621 12565 /0104 10100 20040 39799 40236 51005 60006 85200 91200=
07621,1996-02-29 15:00:00,7,1025.1,1.1,87,5,11000,11.112,,,40,,,,,,,,,,,wg-a,,,,AAXX 29154 07621 12/61 /0406 10070 20050 39810 40251 53011 60006 91500=
07621,1996-02-29 18:00:00,6,1026.7,1.3,81,3,6000,11.112,,,350,-0.6,9.9,,,,,,,,,wg-a,,,,AAXX 29184 07621 12456 73506 10060 20030 39823 40267 53013 60006 876// 91800 333 10099 21006=
07621,1996-02-29 21:00:00,5,1028.2,1.3,87,3,500,3.704,,,20,,,,,,,,,,,wg-a,,,,AAXX 29214 07621 12400 80202 10050 20030 39836 40282 51013 60006 885// 92100=
07621,1996-03-01 00:00:00,5,1028.8,0.5,93,4,500,3.704,,,360,,,,,,,,,,,wg-a,,,,AAXX 01004 07621 12400 83602 10050 20040 39841 40288 51005 60006 885// 90000=
07621,1996-03-01 03:00:00,4,1028.2,-0.6,93,3,500,3.704,,,270,,,,,,,,,,,wg-a,,,,AAXX 01034 07621 12400 82702 10040 20030 39835 40282 56006 60006 885// 90300=
07621,1996-03-01 06:00:00,4,1028.9,0.6,93,3,500,7.408,,,260,4.1,5.7,,,,,,,,,wg-a,,,,AAXX 01064 07621 02400 82604 10040 20030 39841 40289 53006 60006 885// 90600 333 10057 20041 60004=
07621,1996-03-01 12:00:00,7,1028.8,-0.7,70,2,10000,18.52,,,260,,,,,,,,,,,wg-a,,,,AAXX 01124 07621 12460 82610 10070 20020 39844 40288 58007 60006 885// 91200=
07621,1996-03-01 15:00:00,10,1026.1,-2.1,66,4,10000,18.52,,,270,,,,,,,,,,,wg-a,,,,AAXX 01154 07621 12560 /2710 10100 20040 39823 40261 56021 60006 82530 91500=
07621,1996-03-01 18:00:00,8,1026.2,-0.2,76,4,10000,14.816,,,230,4.2,9.7,,,,,,,,,wg-a,,,,AAXX 01184 07621 12660 72308 10080 20040 39821 40262 56002 60006 875// 91800 333 10097 20042=
07621,1996-03-01 21:00:00,6,1027,0.5,81,3,10000,7.408,,,280,,,,,,,,,,,wg-a,,,,AAXX 01214 07621 12560 82804 10060 20030 39826 40270 51005 60006 885// 92100=
07621,1996-03-02 00:00:00,5,1026.6,-0.5,87,3,10000,3.704,,,270,,,,,,,,,,60,wg-a,,,,AAXX 02004 07621 02560 82702 10050 20030 39821 40266 58005 61000 76062 885// 90000 333 6100=
07621,1996-03-02 03:00:00,4,1025,-1.7,100,4,6000,11.112,,,230,,,,,,,,,,51,wg-a,,,,AAXX 02034 07621 02556 82306 10040 20040 39804 40250 58017 61000 75166 885// 90300 333 ////=
07621,1996-03-02 06:00:00,4,1024.3,-0.7,93,3,50000,7.408,,,240,3.8,7.9,,,,,,,,61,wg-a,,,,AAXX 02064 07621 02484 82404 10040 20030 39797 40243 56007 61000 76166 885// 90600 333 10079 20038 6100=
07621,1996-03-02 09:00:00,4,1023.3,-0.9,100,4,12000,11.112,,,230,,,,,,,,,,50,wg-a,,,,AAXX 02094 07621 02562 82306 10040 20040 39788 40233 58009 61000 75065 8657/ 90900 333 ////=
07621,1996-03-02 12:00:00,5,1022.3,-0.9,93,4,1500,7.408,,,300,,,,,,,,,,20,wg-a,,,,AAXX 02124 07621 02215 83004 10050 20040 39779 40223 57009 61000 72065 885// 91200 333 6100=
07621,1996-03-02 18:00:00,5,1021.1,0.3,93,4,3000,3.704,,,310,3.7,5.3,,,,,,,,3,wg-a,,,,AAXX 02184 07621 32330 83102 10050 20040 39768 40211 53003 70352 885// 91800 333 10053 20037=
07621,1996-03-02 21:00:00,4,1022.1,0.8,93,3,500,7.408,,,230,,,,,,,,,,,wg-a,,,,AAXX 02214 07621 12300 82304 10040 20030 39776 40221 51008 60006 885// 92100=
07621,1996-03-03 00:00:00,4,1021.5,-0.7,93,3,6000,3.704,,,270,,,,,,,,,,,wg-a,,,,AAXX 03004 07621 12356 72702 10040 20030 39769 40215 58007 60006 875// 90000=
07621,1996-03-03 03:00:00,1,1020.7,-1.1,100,1,3000,0,,,0,,,,,,,,,,10,wg-a,,,,AAXX 03034 07621 12630 70000 10010 20010 39758 40207 58011 60006 71022 875// 90300=
07621,1996-03-03 06:00:00,0,1020.9,-0,100,0,1000,0,,,0,-0.2,4.7,,,,,3,,,10,wg-a,,,,AAXX 03064 07621 02210 70000 10000 20000 39758 40209 55000 60006 71042 875// 90600 333 10047 21002 60034=
07621,1996-03-03 09:00:00,3,1020.9,0.5,100,3,3500,7.408,,,160,,,,,,,,,,10,wg-a,,,,AAXX 03094 07621 12235 71604 10030 20030 39763 40209 53005 60006 71022 83602 90900=
07621,1996-03-03 12:00:00,6,1019.9,-0.6,70,1,20000,11.112,,,350,,,,,,,,,,,wg-a,,,,AAXX 03124 07621 12070 73506 10060 20010 39757 40199 56006 60006 878// 91200=
07621,1996-03-03 15:00:00,6,1018.4,-1.3,61,-1,15000,7.408,,,330,,,,,,,,,,,wg-a,,,,AAXX 03154 07621 12665 23304 10060 21010 39744 40184 56013 60006 82100 91500=
07621,1996-03-03 18:00:00,5,1019.4,0.8,70,0,12000,7.408,,,310,-0.6,6.3,,,,,,,,,wg-a,,,,AAXX 03184 07621 12662 83104 10050 20000 39752 40194 53008 60006 8253/ 91800 333 10063 21006=
07621,1996-03-03 21:00:00,4,1020.3,0.6,56,-4,12000,3.704,,,30,,,,,,,,,,,wg-a,,,,AAXX 03214 07621 12762 80302 10040 21040 39758 40203 51006 60006 875// 92100=
07621,1996-03-04 00:00:00,3,1020,-0.4,81,0,12000,3.704,,,190,,,,,,,,,,,wg-a,,,,AAXX 04004 07621 12662 71902 10030 20000 39754 40200 58004 60006 875// 90000=
07621,1996-03-04 06:00:00,2,1019.9,0.2,87,0,8000,3.704,,,210,1.4,5.3,,,,,,,,,wg-a,,,,AAXX 04064 07621 02758 72102 10020 20000 39751 40199 53002 60006 875// 90600 333 10053 20014 60004=
07621,1996-03-04 09:00:00,3,1021,1.2,87,1,10000,7.408,,,20,,,,,,,,,,,wg-a,,,,AAXX 04094 07621 12760 70204 10030 20010 39763 40210 52012 60006 875// 90900=
07621,1996-03-04 12:00:00,8,1020.2,0,61,1,15000,3.704,,,40,,,,,,,,,,,wg-a,,,,AAXX 04124 07621 12565 30402 10080 20010 39763 40202 50000 60006 83800 91200=
07621,1996-03-04 15:00:00,9,1019.3,-0.6,53,0,15000,18.52,,,350,,,,,,,,,,,wg-a,,,,AAXX 04154 07621 12665 43510 10090 20000 39757 40193 55006 60006 84800 91500=
07621,1996-03-04 18:00:00,6,1021,1.2,75,2,15000,3.704,,,320,1.4,9.4,,,,,,,,,wg-a,,,,AAXX 04184 07621 12665 43202 10060 20020 39769 40210 53012 60006 84800 91800 333 10094 20014=
07621,1996-03-04 21:00:00,5,1023.3,1.9,87,3,10000,7.408,,,200,,,,,,,,,,,wg-a,,,,AAXX 04214 07621 12660 /2004 10050 20030 39788 40233 51019 60006 86500 92100=
07621,1996-03-05 00:00:00,3,1023.7,0.2,93,2,10000,7.408,,,210,,,,,,,,,,,wg-a,,,,AAXX 05004 07621 12660 72104 10030 20020 39790 40237 53002 60006 875// 90000=
07621,1996-03-05 06:00:00,4,1024.5,1,87,2,10000,0,,,0,2.8,6.4,,,,,,,,,wg-a,,,,AAXX 05064 07621 02660 70000 10040 20020 39798 40245 52010 60006 875// 90600 333 10064 20028 60004=
07621,1996-03-05 12:00:00,5,1025.7,-0.2,60,-2,8000,7.408,,,30,,,,,,,,,,,wg-a,,,,AAXX 05124 07621 12/58 /0304 10050 21020 39812 40257 58002 60006 91200=
07621,1996-03-05 15:00:00,7,1024.3,-1.1,57,-1,12000,7.408,,,20,,,,,,,,,,,wg-a,,,,AAXX 05154 07621 12662 70204 10070 21010 39801 40243 56011 60006 875// 91500=
07621,1996-03-05 18:00:00,6,1024.5,-0,56,-2,12000,11.112,,,30,2.8,6.9,,,,,,,,,wg-a,,,,AAXX 05184 07621 12662 70306 10060 21020 39801 40245 55000 60006 875// 91800 333 10069 20028=
07621,1996-03-05 21:00:00,5,1025.3,0.6,56,-3,10000,3.704,,,80,,,,,,,,,,,wg-a,,,,AAXX 05214 07621 12660 70802 10050 21030 39807 40253 51006 60006 875// 92100=
07621,1996-03-06 00:00:00,4,1024.7,-0.7,81,1,12000,0,,,0,,,,,,,,,,,wg-a,,,,AAXX 06004 07621 12662 70000 10040 20010 39800 40247 56007 60006 875// 90000=
07621,1996-03-06 03:00:00,3,1023.4,-1.3,87,1,10000,3.704,,,350,,,,,,,,,,,wg-a,,,,AAXX 06034 07621 12660 73502 10030 20010 39787 40234 58013 60006 875// 90300=
07621,1996-03-06 06:00:00,3,1022.9,-0.6,87,1,8000,0,,,0,2.5,5.6,,,,,,,,,wg-a,,,,AAXX 06064 07621 02658 70000 10030 20010 39781 40229 56006 60006 875// 90600 333 10056 20025 60004=
07621,1996-03-06 09:00:00,4,1022,-0.6,75,0,8000,3.704,,,170,,,,,,,,,,,wg-a,,,,AAXX 06094 07621 12658 71702 10040 20000 39775 40220 58006 60006 875// 90900=
07621,1996-03-06 12:00:00,8,1019.8,-1.6,57,0,15000,7.408,,,40,,,,,,,,,,,wg-a,,,,AAXX 06124 07621 12665 30404 10080 20000 39759 40198 57016 60006 82102 91200=
07621,1996-03-06 15:00:00,9,1017.5,-2,49,-1,15000,7.408,,,80,,,,,,,,,,,wg-a,,,,AAXX 06154 07621 12765 20804 10090 21010 39739 40175 57020 60006 82800 91500=
07621,1996-03-06 18:00:00,7,1017,-0.8,53,-2,15000,3.704,,,50,2.2,9.3,,,,,,,,,wg-a,,,,AAXX 06184 07621 12665 20502 10070 21020 39731 40170 56008 60006 82500 91800 333 10093 20022=
07621,1996-03-06 21:00:00,1,1017.8,-0.1,86,-1,15000,0,,,0,,,,,,,,,,,wg-a,,,,AAXX 06214 07621 12765 /0000 10010 21010 39730 40178 58001 60006 81500 92100=
07621,1996-03-07 00:00:00,-1,1017.1,-1.1,86,-3,10000,3.704,,,190,,,,,,,,,,,wg-a,,,,AAXX 07004 07621 12760 /1902 11010 21030 39719 40171 58011 60006 81500 90000=
07621,1996-03-07 03:00:00,-2,1015.1,-2,86,-4,8000,7.408,,,190,,,,,,,,,,,wg-a,,,,AAXX 07034 07621 12758 /1904 11020 21040 39699 40151 58020 60006 81500 90300=
07621,1996-03-07 06:00:00,-2,1013.5,-1.6,86,-4,10000,3.704,,,170,-2.4,6.5,,,,,,,,,wg-a,,,,AAXX 07064 07621 02760 /1702 11020 21040 39683 40135 58016 60006 81500 90600 333 10065 21024 60004=
07621,1996-03-07 09:00:00,4,1012.2,-0.2,70,-1,500,0,,,0,,,,,,,,,,,wg-a,,,,AAXX 07094 07621 12/00 00000 10040 21010 39681 40122 58002 60006 80000 90900=
07621,1996-03-07 12:00:00,9,1010.3,-1,53,0,20000,7.408,,,300,,,,,,,,,,,wg-a,,,,AAXX 07124 07621 12670 23004 10090 20000 39671 40103 58010 60006 82100 91200=
07621,1996-03-07 15:00:00,9,1009,-1.3,49,-1,15000,14.816,,,290,,,,,,,,,,,wg-a,,,,AAXX 07154 07621 12665 /2908 10090 21010 39658 40090 56013 60006 86200 91500=
07621,1996-03-07 18:00:00,8,1009.9,0.6,61,1,20000,3.704,,,300,-2.7,10.2,,,,,,,,,wg-a,,,,AAXX 07184 07621 12670 /3002 10080 20010 39664 40099 53006 60006 86500 91800 333 10102 21027=
07621,1996-03-08 00:00:00,1,1013.1,0.3,80,-2,10000,7.408,,,190,,,,,,,,,,,wg-a,,,,AAXX 08004 07621 12/60 01904 10010 21020 39685 40131 51003 60006 80000 90000=
07621,1996-03-08 03:00:00,0,1012.9,-0.4,86,-2,8000,7.408,,,160,,,,,,,,,,,wg-a,,,,AAXX 08034 07621 12/58 21604 10000 21020 39681 40129 58004 60006 80002 90300=
07621,1996-03-08 06:00:00,0,1013.2,0.3,86,-2,6000,11.112,,,150,-1.3,7.5,,,,,,,,,wg-a,,,,AAXX 08064 07621 02/56 01506 10000 21020 39684 40132 53003 60006 80000 90600 333 10075 21013 60004=
07621,1996-03-08 09:00:00,5,1012.9,0.6,81,2,20000,0,,,0,,,,,,,,,,,wg-a,,,,AAXX 08094 07621 12/70 00000 10050 20020 39690 40129 53006 60006 80000 90900=
07621,1996-03-08 12:00:00,14,1011.7,0.1,38,0,500,11.112,,,60,,,,,,,,,,,wg-a,,,,AAXX 08124 07621 12700 /0606 10140 20000 39691 40117 50001 60006 81200 91200=
07621,1996-03-08 15:00:00,15,1011,-0.5,33,-1,500,7.408,,,10,,,,,,,,,,,wg-a,,,,AAXX 08154 07621 12700 40104 10150 21010 39686 40110 56005 60006 84200 91500=
07621,1996-03-08 18:00:00,11,1012.7,1.1,43,-1,500,11.112,,,220,-1.6,15.7,,,,,,,,,wg-a,,,,AAXX 08184 07621 12700 32206 10110 21010 39697 40127 53011 60006 83400 91800 333 10157 21016=
07621,1996-03-08 21:00:00,7,1014.4,0.9,53,-2,15000,11.112,,,230,,,,,,,,,,,wg-a,,,,AAXX 08214 07621 12/65 02306 10070 21020 39706 40144 51009 60006 80000 92100=
07621,1996-03-09 15:00:00,16,1011.4,-0.9,36,1,500,11.112,,,60,,,,,,,,,,,wg-a,,,,AAXX 09154 07621 12/00 40606 10160 20010 39691 40114 56009 60006 80001 91500=
07621,1996-03-09 18:00:00,13,1012.6,0.7,58,5,500,7.408,,,50,2.5,16.1,,,,,,,,,wg-a,,,,AAXX 09184 07621 12/00 40504 10130 20050 39698 40126 53007 60006 80002 91800 333 10161 20025=
07621,1996-03-09 21:00:00,6,1014.4,0.8,93,5,15000,7.408,,,30,,,,,,,,,,,wg-a,,,,AAXX 09214 07621 12/65 00304 10060 20050 39706 40144 51008 60006 80000 92100=
07621,1996-03-10 00:00:00,2,1015.5,0.4,93,1,10000,3.704,,,230,,,,,,,,,,,wg-a,,,,AAXX 10004 07621 12/60 02302 10020 20010 39710 40155 51004 60006 80000 90000=
07621,1996-03-10 03:00:00,2,1015.6,0.1,100,2,10000,3.704,,,180,,,,,,,,,,,wg-a,,,,AAXX 10034 07621 12/60 01802 10020 20020 39711 40156 51001 60006 80000 90300=
07621,1996-03-10 06:00:00,3,1016.2,0.6,87,1,4000,3.704,,,160,1.3,12.5,,,,,,,,,wg-a,,,,AAXX 10064 07621 02740 71602 10030 20010 39717 40162 53006 60006 875// 90600 333 10125 20013 60004=
07621,1996-03-10 09:00:00,4,1017.3,1.4,100,4,500,7.408,,,30,,,,,,,,,,45,wg-a,,,,AAXX 10094 07621 12/00 90304 10040 20040 39731 40173 51014 60006 74542 89/// 90900=
07621,1996-03-10 12:00:00,9,1016.9,0.3,81,6,9000,7.408,,,40,,,,,,,,,,1,wg-a,,,,AAXX 10124 07621 12459 /0404 10090 20060 39734 40169 51003 60006 70141 82630 91200=
07621,1996-03-10 15:00:00,12,1015.8,-0.6,62,5,15000,11.112,,,20,,,,,,,,,,,wg-a,,,,AAXX 10154 07621 12565 30206 10120 20050 39728 40158 55006 60006 82130 91500=
07621,1996-03-10 18:00:00,11,1016.9,0.8,71,6,15000,7.408,,,10,2.3,13.1,,,,,,,,,wg-a,,,,AAXX 10184 07621 12665 50104 10110 20060 39736 40169 53008 60006 85800 91800 333 10131 20023=
07621,1996-03-10 21:00:00,7,1018,0.6,87,5,15000,7.408,,,190,,,,,,,,,,,wg-a,,,,AAXX 10214 07621 12765 /1904 10070 20050 39742 40180 51006 60006 86500 92100=
07621,1996-03-11 03:00:00,5,1017,-0.7,70,0,15000,11.112,,,280,,,,,,,,,,,wg-a,,,,AAXX 11034 07621 12765 /2806 10050 20000 39729 40170 58007 60006 85500 90300=
07621,1996-03-11 06:00:00,3,1018.3,0.8,75,-1,500,22.224,,,290,2.5,10.4,,,,,,,,,wg-a,,,,AAXX 11064 07621 02/00 02912 10030 21010 39737 40183 53008 60006 80000 90600 333 10104 20025 60004=
07621,1996-03-11 09:00:00,6,1018.5,0.7,70,1,7000,22.224,,,280,,,,,,,,,,,wg-a,,,,AAXX 11094 07621 12/57 02812 10060 20010 39744 40185 51007 60006 80000 90900=
07621,1996-03-11 12:00:00,9,1017.7,-0.4,46,-2,10000,18.52,,,310,,,,,,,,,,,wg-a,,,,AAXX 11124 07621 12/60 03110 10090 21020 39740 40177 58004 60006 80000 91200=
07621,1996-03-11 21:00:00,3,1017,0.3,70,-2,15000,7.408,,,160,,,,,,,,,,,wg-a,,,,AAXX 11214 07621 12/65 01604 10030 21020 39725 40170 50003 60006 80000 92100=
07621,1996-03-12 00:00:00,0,1015.4,-2,80,-3,10000,7.408,,,150,,,,,,,,,,,wg-a,,,,AAXX 12004 07621 12/60 01504 10000 21030 39705 40154 58020 60006 80000 90000=
07621,1996-03-12 03:00:00,-2,1013,-2.6,86,-4,10000,7.408,,,160,,,,,,,,,,,wg-a,,,,AAXX 12034 07621 12/60 01604 11020 21040 39679 40130 58026 60006 80000 90300=
07621,1996-03-12 06:00:00,-2,1011,-2,74,-6,8000,7.408,,,190,-3.6,7,,,,,,,,,wg-a,,,,AAXX 12064 07621 02/58 01904 11020 21060 39659 40110 58020 60006 80000 90600 333 10070 21036 60004=
07621,1996-03-12 09:00:00,6,1007.9,-1.6,56,-2,500,3.704,,,10,,,,,,,,,,,wg-a,,,,AAXX 12094 07621 12/00 /0102 10060 21020 39643 40079 56016 60006 80001 90900=
07621,1996-03-12 12:00:00,15,1004.7,-1.8,23,-6,50000,7.408,,,30,,,,,,,,,,,wg-a,,,,AAXX 12124 07621 12/84 20304 10150 21060 39625 40047 58018 60006 80001 91200=
07621,1996-03-12 15:00:00,16,1001.2,-3.2,17,-9,20000,14.816,,,20,,,,,,,,,,,wg-a,,,,AAXX 12154 07621 12/70 30208 10160 21090 39593 40012 56032 60006 80002 91500=
07621,1996-03-12 18:00:00,13,1000.4,-1.3,24,-7,20000,7.408,,,60,-3.5,17,,,,,,,,,wg-a,,,,AAXX 12184 07621 12/70 40604 10130 21070 39580 40004 56013 60006 80002 91800 333 10170 21035=
07621,1996-03-12 21:00:00,4,1001.1,-0.6,65,-2,15000,7.408,,,200,,,,,,,,,,,wg-a,,,,AAXX 12214 07621 12/65 02004 10040 21020 39574 40011 58006 60006 80000 92100=
07621,1996-03-13 00:00:00,6,999.6,-1.1,45,-5,15000,14.816,,,180,,,,,,,,,,,wg-a,,,,AAXX 13004 07621 12/65 01808 10060 21050 39563 49996 58011 60006 80000 90000=
07621,1996-03-13 06:00:00,2,998.3,-1,55,-6,500,14.816,,,180,0.8,12.5,,,,,,,,,wg-a,,,,AAXX 13064 07621 02/00 01808 10020 21060 39545 49983 57010 60006 80000 90600 333 10125 20008 60004=
07621,1996-03-13 09:00:00,12,996.7,-0.1,32,-4,500,3.704,,,160,,,,,,,,,,,wg-a,,,,AAXX 13094 07621 12/00 41602 10120 21040 39544 49967 58001 60006 80002 90900=
07621,1996-03-13 12:00:00,15,995.6,-0.5,31,-2,500,18.52,,,20,,,,,,,,,,,wg-a,,,,AAXX 13124 07621 12/00 50210 10150 21020 39539 49956 58005 60006 80002 91200=
07621,1996-03-13 15:00:00,15,994.9,-0.7,31,-2,20000,11.112,,,50,,,,,,,,,,,wg-a,,,,AAXX 13154 07621 12/70 60506 10150 21020 39532 49949 56007 60006 80002 91500=
07621,1996-03-13 18:00:00,12,996.8,1.4,47,1,20000,3.704,,,50,1.1,16,,,,,,,,,wg-a,,,,AAXX 13184 07621 12/70 70502 10120 20010 39546 49968 53014 60006 83084 91800 333 10160 20011=
07621,1996-03-13 21:00:00,6,999,1.2,75,2,20000,7.408,,,170,,,,,,,,,,,wg-a,,,,AAXX 13214 07621 12/70 71704 10060 20020 39558 49990 53012 60006 83084 92100=
07621,1996-03-14 00:00:00,9,999.1,0.6,66,3,10000,22.224,,,250,,,,,,,,,,,wg-a,,,,AAXX 14004 07621 12/60 72512 10090 20030 39564 49991 53006 60006 85082 90000=
07621,1996-03-14 03:00:00,9,998.9,-0.2,87,7,7000,7.408,,,240,,,,,,,,,,,wg-a,,,,AAXX 14034 07621 12457 82404 10090 20070 39562 49989 58002 60006 82772 90300=
07621,1996-03-14 06:00:00,8,999.6,0.5,93,7,500,7.408,,,310,5.7,11.9,,,,,,,,,wg-a,,,,AAXX 14064 07621 02200 83104 10080 20070 39567 49996 51005 60006 877// 90600 333 10119 20057 60004=
07621,1996-03-14 09:00:00,9,1000.3,0.8,87,7,12000,7.408,,,300,,,,,,,,,,,wg-a,,,,AAXX 14094 07621 12362 83004 10090 20070 39575 40003 53008 60006 8557/ 90900=
07621,1996-03-14 12:00:00,7,1001.6,1,93,6,15000,25.928,,,280,,,,0,,,,,,60,wg-a,,,,AAXX 14124 07621 02365 82814 10070 20060 39585 40016 51010 60016 76062 8657/ 91200 333 60007=
07621,1996-03-14 15:00:00,7,1002.2,0.6,93,6,15000,18.52,,,260,,,,1,,,,,,21,wg-a,,,,AAXX 14154 07621 12465 82610 10070 20060 39591 40022 51006 60017 72162 875// 91500=
07621,1996-03-14 18:00:00,6,1003.6,1.2,93,5,15000,18.52,,,250,6.4,9.1,,0,,,,,,3,wg-a,,,,AAXX 14184 07621 12465 82510 10060 20050 39603 40036 53012 60007 70362 875// 91800 333 10091 20064=
07621,1996-03-14 21:00:00,6,1005.4,1.6,93,5,11000,25.928,,,250,,,,,,,,,,,wg-a,,,,AAXX 14214 07621 32/61 /2514 10060 20050 39619 40054 52016 92100=
07621,1996-03-15 00:00:00,5,1005.9,0.4,93,4,10000,18.52,,,250,,,,,,,,,,21,wg-a,,,,AAXX 15004 07621 02360 82510 10050 20040 39623 40059 52004 60006 72162 875// 90000 333 61000=
07621,1996-03-15 03:00:00,5,1006.2,0.2,93,4,11000,14.816,,,240,,,,,,,,,,,wg-a,,,,AAXX 15034 07621 32/61 /2408 10050 20040 39625 40062 50002 90300=
07621,1996-03-15 06:00:00,5,1006.3,0.1,93,4,15000,11.112,,,240,4.6,6.4,,0,,,4,,,61,wg-a,,,,AAXX 15064 07621 02465 82406 10050 20040 39626 40063 53001 60044 76162 875// 90600 333 10064 20046 60007=
07621,1996-03-15 09:00:00,6,1007.2,1,93,5,10000,14.816,,,250,,,,0,,,,,,60,wg-a,,,,AAXX 15094 07621 12460 82508 10060 20050 39636 40072 53010 60007 76066 875// 90900=
07621,1996-03-15 12:00:00,7,1007,-0,87,5,0,14.816,,,260,,,,,,,,,,,wg-a,,,,AAXX 15124 07621 12/// /2608 10070 20050 39636 40070 55000 60016 91200=
07621,1996-03-15 15:00:00,8,1006.2,-0.6,87,6,15000,14.816,,,250,,,,,,,,,,2,wg-a,,,,AAXX 15154 07621 02465 82508 10080 20060 39630 40062 56006 61000 70262 885// 91500 333 ////=
07621,1996-03-15 18:00:00,6,1009,2.3,87,4,6000,18.52,,,230,4.7,8.5,,2,,,,,,61,wg-a,,,,AAXX 15184 07621 12256 82310 10060 20040 39653 40090 53023 60027 76162 888// 91800 333 10085 20047=
07621,1996-03-15 21:00:00,5,1010.2,1.1,93,4,12000,18.52,,,240,,,,1,,,,,,21,wg-a,,,,AAXX 15214 07621 12662 82410 10050 20040 39664 40102 53011 60017 72162 8357/ 92100=
07621,1996-03-16 00:00:00,5,1011.1,0.8,87,3,10000,14.816,,,230,,,,1,,,,,,21,wg-a,,,,AAXX 16004 07621 02360 82308 10050 20030 39672 40111 51008 60016 72162 875// 90000 333 60017=
07621,1996-03-16 03:00:00,5,1011.4,0.3,87,3,10000,18.52,,,260,,,,,,,,,,60,wg-a,,,,AAXX 16034 07621 02360 82610 10050 20030 39675 40114 51003 61000 76062 875// 90300 333 ////=
07621,1996-03-16 06:00:00,4,1013.3,1.6,93,3,10000,18.52,,,240,3.2,5.6,,1,,,5,,,61,wg-a,,,,AAXX 16064 07621 02360 82410 10040 20030 39691 40133 53016 60054 76162 877// 90600 333 10056 20032 60017=
07621,1996-03-16 09:00:00,4,1015.3,2,93,3,10000,25.928,,,250,,,,1,,,,,,60,wg-a,,,,AAXX 16094 07621 12360 82514 10040 20030 39711 40153 53020 60017 76062 875// 90900=
07621,1996-03-16 12:00:00,8,1015.3,0.6,81,5,15000,25.928,,,250,,,,,,,,,,1,wg-a,,,,AAXX 16124 07621 02465 72514 10080 20050 39717 40153 51006 60016 70162 872// 91200 333 61000=
07621,1996-03-16 15:00:00,7,1015.4,-0,87,5,15000,25.928,,,260,,,,1,,,,,,1,wg-a,,,,AAXX 16154 07621 12465 72614 10070 20050 39717 40154 55000 60017 70186 872// 91500=
07621,1996-03-16 18:00:00,5,1017.7,1.9,87,3,15000,25.928,,,250,3.7,9.1,,0,,,,,,1,wg-a,,,,AAXX 16184 07621 12465 72514 10050 20030 39736 40177 51019 60007 70186 872// 91800 333 10091 20037=
07621,1996-03-16 21:00:00,4,1019.4,1.5,93,3,15000,7.408,,,280,,,,0,,,,,,63,wg-a,,,,AAXX 16214 07621 12565 62804 10040 20030 39751 40194 51015 60007 76386 86800 92100=
07621,1996-03-17 00:00:00,3,1020.1,0.4,93,2,20000,7.408,,,210,,,,,,,,,,2,wg-a,,,,AAXX 17004 07621 02570 22104 10030 20020 39755 40201 51004 60006 70286 82800 90000 333 61000=
07621,1996-03-17 03:00:00,3,1019.7,-0.3,93,2,20000,3.704,,,190,,,,,,,,,,,wg-a,,,,AAXX 17034 07621 12570 71902 10030 20020 39752 40197 58003 60006 87500 90300=
07621,1996-03-17 06:00:00,2,1019.8,-0.1,93,1,20000,11.112,,,180,2.1,5.3,,0,,,2,,,,wg-a,,,,AAXX 17064 07621 02770 /1806 10020 20010 39751 40198 55001 60024 81500 90600 333 10053 20021 60007=
07621,1996-03-17 09:00:00,7,1019.3,0.3,66,1,50000,3.704,,,310,,,,,,,,,,,wg-a,,,,AAXX 17094 07621 12584 /3102 10070 20010 39754 40193 51003 60006 81101 90900=
07621,1996-03-17 12:00:00,10,1018.4,-0.5,43,-2,50000,7.408,,,30,,,,,,,,,,,wg-a,,,,AAXX 17124 07621 12584 40304 10100 21020 39749 40184 58005 60006 84200 91200=
07621,1996-03-17 15:00:00,11,1016.9,-1.2,50,1,50000,14.816,,,30,,,,,,,,,,,wg-a,,,,AAXX 17154 07621 12684 40308 10110 20010 39737 40169 56012 60006 84200 91500=
07621,1996-03-18 00:00:00,3,1019,-0.2,75,-1,15000,7.408,,,170,,,,,,,,,,,wg-a,,,,AAXX 18004 07621 12/65 01704 10030 21010 39745 40190 56002 60006 80000 90000=
07621,1996-03-18 03:00:00,2,1018.2,-0.9,69,-3,15000,7.408,,,170,,,,,,,,,,,wg-a,,,,AAXX 18034 07621 12/65 01704 10020 21030 39736 40182 58009 60006 80000 90300=
07621,1996-03-18 06:00:00,2,1018.2,-0.1,64,-4,25000,11.112,,,170,0.7,8.4,,,,,,,,,wg-a,,,,AAXX 18064 07621 02/75 21706 10020 21040 39735 40182 55001 60006 80002 90600 333 10084 20007 60004=
07621,1996-03-18 12:00:00,13,1016,-1.1,33,-3,50000,11.112,,,40,,,,,,,,,,,wg-a,,,,AAXX 18124 07621 12/84 50406 10130 21030 39730 40160 58011 60006 80002 91200=
07621,1996-03-18 15:00:00,14,1014.1,-1.6,31,-3,50000,7.408,,,50,,,,,,,,,,,wg-a,,,,AAXX 18154 07621 12784 40504 10140 21030 39714 40141 56016 60006 81202 91500=
07621,1996-03-18 18:00:00,11,1014.7,0.2,43,-1,50000,3.704,,,50,1.3,14.2,,,,,,,,,wg-a,,,,AAXX 18184 07621 12/84 40502 10110 21010 39716 40147 53002 60006 81032 91800 333 10142 20013=
07621,1996-03-18 21:00:00,4,1016.4,0.5,81,1,20000,7.408,,,180,,,,,,,,,,,wg-a,,,,AAXX 18214 07621 12/70 01804 10040 20010 39721 40164 51005 60006 80000 92100=
07621,1996-03-19 00:00:00,3,1015.7,-0.9,81,0,0,3.704,,,170,,,,,,,,,,,wg-a,,,,AAXX 19004 07621 12/// /1702 10030 20000 39712 40157 58009 60006 90000=
07621,1996-03-19 03:00:00,0,1014.3,-1.7,86,-2,20000,7.408,,,180,,,,,,,,,,,wg-a,,,,AAXX 19034 07621 12/70 01804 10000 21020 39695 40143 58017 60006 80000 90300=
07621,1996-03-19 06:00:00,1,1012.9,-1.2,80,-2,50000,0,,,0,-0.1,11.2,,,,,,,,,wg-a,,,,AAXX 19064 07621 02/84 40000 10010 21020 39683 40129 56012 60006 80002 90600 333 10112 21001 60004=
07621,1996-03-19 09:00:00,10,1010.8,-0.6,62,3,500,7.408,,,10,,,,,,,,,,4,wg-a,,,,AAXX 19094 07621 12/00 40104 10100 20030 39677 40108 56006 60006 70411 82032 90900=
07621,1996-03-19 12:00:00,17,1007.8,-2,22,-5,40000,7.408,,,60,,,,,,,,,,,wg-a,,,,AAXX 19124 07621 12/82 70604 10170 21050 39657 40078 58020 60006 86032 91200=
07621,1996-03-19 18:00:00,14,1007.5,0.8,51,4,500,11.112,,,340,-0.2,18.1,,,,,,,,,wg-a,,,,AAXX 19184 07621 12400 83406 10140 20040 39651 40075 53008 60006 8687/ 91800 333 10181 21002=
07621,1996-03-19 21:00:00,10,1007.5,-0.5,76,6,15000,3.704,,,130,,,,,,,,,,21,wg-a,,,,AAXX 19214 07621 02665 71302 10100 20060 39646 40075 58005 61000 72162 8257/ 92100 333 ////=
07621,1996-03-20 00:00:00,9,1007.3,-0.3,81,6,15000,3.704,,,160,,,,,,,,,,1,wg-a,,,,AAXX 20004 07621 02665 /1602 10090 20060 39643 40073 56003 61000 70162 8157/ 90000 333 ////=
07621,1996-03-20 03:00:00,8,1007.4,-0.1,81,5,15000,7.408,,,170,,,,,,,,,,,wg-a,,,,AAXX 20034 07621 12/65 71704 10080 20050 39642 40074 58001 60006 8707/ 90300=
07621,1996-03-20 06:00:00,9,1010.4,2.9,81,6,15000,14.816,,,270,7.6,13.6,,,,,,,,,wg-a,,,,AAXX 20064 07621 02565 72708 10090 20060 39671 40104 53029 61000 8587/ 90600 333 10136 20076 ////=
07621,1996-03-20 09:00:00,10,1011.6,1.4,82,7,15000,3.704,,,180,,,,,,,,,,,wg-a,,,,AAXX 20094 07621 12565 71802 10100 20070 39685 40116 51014 60006 878// 90900=
07621,1996-03-20 12:00:00,13,1010.5,-0.6,58,5,20000,7.408,,,70,,,,,,,,,,,wg-a,,,,AAXX 20124 07621 12570 40704 10130 20050 39679 40105 58006 60006 84200 91200=
07621,1996-03-20 15:00:00,15,1009,-1.2,55,6,20000,14.816,,,50,,,,,,,,,,,wg-a,,,,AAXX 20154 07621 12670 30508 10150 20060 39667 40090 56012 60006 83101 91500=
07621,1996-03-20 18:00:00,13,1009.5,0.2,62,6,20000,7.408,,,70,8.5,15.3,,,,,,,,,wg-a,,,,AAXX 20184 07621 12/70 20704 10130 20060 39669 40095 53002 60006 80001 91800 333 10153 20085=
07621,1996-03-20 21:00:00,8,1011.1,0.8,87,6,20000,3.704,,,110,,,,,,,,,,,wg-a,,,,AAXX 20214 07621 12/70 21102 10080 20060 39677 40111 50008 60006 80001 92100=
07621,1996-03-21 00:00:00,5,1011.2,-0.4,87,3,20000,7.408,,,180,,,,,,,,,,,wg-a,,,,AAXX 21004 07621 12/70 01804 10050 20030 39673 40112 56004 60006 80000 90000=
07621,1996-03-21 03:00:00,6,1011.8,0.7,81,3,20000,11.112,,,170,,,,,,,,,,,wg-a,,,,AAXX 21034 07621 12/70 01706 10060 20030 39680 40118 53007 60006 80000 90300=
07621,1996-03-21 06:00:00,6,1013,1.2,75,2,500,14.816,,,160,3.4,13,,,,,,,,,wg-a,,,,AAXX 21064 07621 02/00 11608 10060 20020 39692 40130 53012 60006 80001 90600 333 10130 20034 60004=
07621,1996-03-21 09:00:00,14,1013.2,1.4,58,6,40000,3.704,,,30,,,,,,,,,,,wg-a,,,,AAXX 21094 07621 12/82 40302 10140 20060 39706 40132 52014 60006 80001 90900=
07621,1996-03-21 12:00:00,17,1012.9,0.2,52,7,40000,11.112,,,30,,,,,,,,,,,wg-a,,,,AAXX 21124 07621 12682 40306 10170 20070 39708 40129 50002 60006 82101 91200=
07621,1996-03-21 15:00:00,18,1012.5,-0.3,45,6,40000,7.408,,,80,,,,,,,,,,,wg-a,,,,AAXX 21154 07621 12682 30804 10180 20060 39705 40125 58003 60006 82201 91500=
07621,1996-03-21 18:00:00,16,1013.8,0.9,51,6,500,7.408,,,60,5.3,18.2,,,,,,,,,wg-a,,,,AAXX 21184 07621 12/00 30604 10160 20060 39714 40138 53009 60006 80001 91800 333 10182 20053=
07621,1996-03-21 21:00:00,10,1015.4,0.7,76,6,500,3.704,,,170,,,,,,,,,,,wg-a,,,,AAXX 21214 07621 12/00 11702 10100 20060 39721 40154 51007 60006 80001 92100=
07621,1996-03-22 00:00:00,8,1016.5,0.7,81,5,20000,7.408,,,160,,,,,,,,,,,wg-a,,,,AAXX 22004 07621 12/70 01604 10080 20050 39728 40165 52007 60006 80000 90000=
07621,1996-03-22 06:00:00,10,1016.4,0.3,53,1,15000,11.112,,,160,6.9,15.4,,,,,,,,,wg-a,,,,AAXX 22064 07621 02/65 11606 10100 20010 39730 40164 53003 60006 80001 90600 333 10154 20069 60004=
07621,1996-03-22 09:00:00,18,1016,0.8,37,3,50000,3.704,,,130,,,,,,,,,,,wg-a,,,,AAXX 22094 07621 12/84 21302 10180 20030 39738 40160 52008 60006 80001 90900=
07621,1996-03-22 12:00:00,21,1015,-0.6,35,5,50000,11.112,,,50,,,,,,,,,,,wg-a,,,,AAXX 22124 07621 12/84 30506 10210 20050 39732 40150 58006 60006 81031 91200=
07621,1996-03-22 15:00:00,22,1013.5,-1.2,33,5,50000,11.112,,,90,,,,,,,,,,,wg-a,,,,AAXX 22154 07621 12/84 30906 10220 20050 39720 40135 57012 60006 80002 91500=
07621,1996-03-22 18:00:00,19,1014.4,0.4,43,6,500,7.408,,,60,7.7,21.8,,,,,,,,,wg-a,,,,AAXX 22184 07621 12/00 50604 10190 20060 39724 40144 53004 60006 80002 91800 333 10218 20077=
07621,1996-03-22 21:00:00,12,1015.8,0.4,71,7,500,3.704,,,150,,,,,,,,,,,wg-a,,,,AAXX 22214 07621 12/00 31502 10120 20070 39728 40158 50004 60006 80002 92100=
07621,1996-03-23 00:00:00,10,1015.9,-0.3,76,6,500,7.408,,,180,,,,,,,,,,,wg-a,,,,AAXX 23004 07621 12/00 41804 10100 20060 39725 40159 56003 60006 80002 90000=
07621,1996-03-23 03:00:00,12,1014.2,-1.3,47,1,20000,7.408,,,160,,,,,,,,,,,wg-a,,,,AAXX 23034 07621 12/70 01604 10120 20010 39712 40142 58013 60006 80000 90300=
07621,1996-03-23 06:00:00,13,1013.8,-0.3,44,1,500,11.112,,,170,8,18.6,,,,,,,,,wg-a,,,,AAXX 23064 07621 02/00 21706 10130 20010 39709 40138 56003 60006 81042 90600 333 10186 20080 60004=
07621,1996-03-23 09:00:00,20,1013.1,0.4,46,8,500,3.704,,,100,,,,,,,,,,,wg-a,,,,AAXX 23094 07621 12700 71002 10200 20080 39713 40131 51004 60006 81132 90900=
07621,1996-03-23 12:00:00,22,1011.9,-0.8,46,10,500,14.816,,,20,,,,,,,,,,,wg-a,,,,AAXX 23124 07621 12/00 60208 10220 20100 39705 40119 57008 60006 80002 91200=
07621,1996-03-23 15:00:00,23,1011,-0.7,44,10,500,14.816,,,20,,,,,,,,,,,wg-a,,,,AAXX 23154 07621 12/00 30208 10230 20100 39698 40110 55007 60006 81042 91500=
07621,1996-03-23 18:00:00,20,1012.1,0.6,56,11,500,7.408,,,60,11.6,24,,,,,,,,,wg-a,,,,AAXX 23184 07621 12/00 10604 10200 20110 39704 40121 53006 60006 81041 91800 333 10240 20116=
07621,1996-03-23 21:00:00,11,1013.9,0.4,87,9,15000,7.408,,,60,,,,,,,,,,,wg-a,,,,AAXX 23214 07621 12/65 00604 10110 20090 39708 40139 53004 60006 80000 92100=
07621,1996-03-24 00:00:00,10,1014.6,0.5,76,6,15000,7.408,,,60,,,,,,,,,,,wg-a,,,,AAXX 24004 07621 12/65 00604 10100 20060 39713 40146 51005 60006 80000 90000=
07621,1996-03-24 09:00:00,14,1013.5,-0.2,72,9,500,11.112,,,20,,,,,,,,,,,wg-a,,,,AAXX 24094 07621 12/00 70206 10140 20090 39709 40135 58002 60006 83042 90900=
07621,1996-03-24 12:00:00,16,1013.2,0.1,68,10,500,7.408,,,360,,,,,,,,,,,wg-a,,,,AAXX 24124 07621 12/00 73604 10160 20100 39710 40132 50001 60006 86072 91200=
07621,1996-03-24 21:00:00,11,1011.6,-0.6,87,9,15000,3.704,,,320,,,,,,,,,,,wg-a,,,,AAXX 24214 07621 12/65 13202 10110 20090 39687 40116 58006 60006 80002 92100=
07621,1996-03-25 00:00:00,14,1015.3,3.9,77,10,15000,11.112,,,250,,,,,,,,,,,wg-a,,,,AAXX 25004 07621 12/65 02506 10140 20100 39726 40153 53039 60006 80000 90000=
07621,1996-03-25 03:00:00,11,1015.4,-0.3,94,10,15000,3.704,,,160,,,,,,,,,,,wg-a,,,,AAXX 25034 07621 12/65 01602 10110 20100 39723 40154 58003 60006 80000 90300=
07621,1996-03-25 06:00:00,8,1017.4,1.4,93,7,15000,7.408,,,160,7,15.8,,,,,,,,,wg-a,,,,AAXX 25064 07621 02/65 11604 10080 20070 39737 40174 53014 60006 80001 90600 333 10158 20070 60004=
07621,1996-03-25 09:00:00,18,1015.6,-0.2,59,10,20000,14.816,,,100,,,,,,,,,,,wg-a,,,,AAXX 25094 07621 12/70 21008 10180 20100 39735 40156 55002 60006 80002 90900=
07621,1996-03-25 12:00:00,20,1014.5,-0.8,49,9,20000,14.816,,,60,,,,,,,,,,,wg-a,,,,AAXX 25124 07621 12770 40608 10200 20090 39727 40145 58008 60006 81102 91200=
07621,1996-03-25 18:00:00,18,1012.6,-0.2,56,9,20000,7.408,,,60,7.6,21.3,,,,,,,,,wg-a,,,,AAXX 25184 07621 12670 40604 10180 20090 39706 40126 55002 60006 81102 91800 333 10213 20076=
07621,1996-03-25 21:00:00,12,1013.8,0.3,82,9,20000,3.704,,,190,,,,,,,,,,,wg-a,,,,AAXX 25214 07621 12/70 41902 10120 20090 39709 40138 50003 60006 84080 92100=
07621,1996-03-26 00:00:00,10,1012.5,-1.5,87,8,20000,7.408,,,190,,,,,,,,,,,wg-a,,,,AAXX 26004 07621 12/70 /1904 10100 20080 39694 40125 56015 60006 86080 90000=
07621,1996-03-26 03:00:00,13,1011.5,-0.5,77,9,15000,25.928,,,270,,,,,,,,,,,wg-a,,,,AAXX 26034 07621 12/65 72714 10130 20090 39689 40115 56005 60006 8608/ 90300=
07621,1996-03-26 06:00:00,12,1012,0.2,82,9,15000,7.408,,,150,9.4,17.9,,,,,,,,,wg-a,,,,AAXX 26064 07621 02/65 /1504 10120 20090 39691 40120 53002 60006 86080 90600 333 10179 20094 60004=
07621,1996-03-26 09:00:00,13,1013.2,1.4,82,10,10000,11.112,,,250,,,,,,,,,,,wg-a,,,,AAXX 26094 07621 12560 72506 10130 20100 39705 40132 51014 60006 8528/ 90900=
07621,1996-03-26 12:00:00,15,1012.5,-0.4,72,10,20000,14.816,,,240,,,,,,,,,,3,wg-a,,,,AAXX 26124 07621 02570 72408 10150 20100 39701 40125 58004 61000 70386 8528/ 91200 333 6100=
07621,1996-03-26 15:00:00,14,1012,-0.6,82,11,15000,14.816,,,240,,,,1,,,,,,25,wg-a,,,,AAXX 26154 07621 12565 72408 10140 20110 39695 40120 55006 60017 72586 879// 91500=
07621,1996-03-26 18:00:00,13,1013.6,1.3,72,8,20000,14.816,,,250,10.5,16.3,,,,,,,,1,wg-a,,,,AAXX 26184 07621 32570 32508 10130 20080 39708 40136 53013 70186 83200 91800 333 10163 20105=
07621,1996-03-27 09:00:00,12,1015.4,0.8,82,9,8000,18.52,,,260,,,,1,,,,,,21,wg-a,,,,AAXX 27094 07621 12458 72610 10120 20090 39724 40154 51008 60017 72162 875// 90900=
07621,1996-03-27 12:00:00,10,1016.4,0.7,93,9,8000,35.188,,61.116,290,,,,6,,,,,,80,wg-a,,,,AAXX 27124 07621 02258 72919 10100 20090 39731 40164 51007 60076 78086 878// 91200 333 60067 91033=
07621,1996-03-27 15:00:00,10,1015.6,-0.7,93,9,6000,25.928,,,260,,,,4,,,,,,61,wg-a,,,,AAXX 27154 07621 12356 82614 10100 20090 39724 40156 56007 60047 76186 878// 91500=
07621,1996-03-27 18:00:00,10,1016.9,1.1,93,9,2500,25.928,,53.708,260,9.1,12.4,,8,,,,,,63,wg-a,,,,AAXX 27184 07621 12225 82614 10100 20090 39735 40169 53011 60087 76386 878// 91800 333 10124 20091 91029=
07621,1996-03-27 21:00:00,9,1018,1,100,9,4000,22.224,,,250,,,,10,,,,,,61,wg-a,,,,AAXX 27214 07621 12340 82512 10090 20090 39745 40180 53010 60107 76166 878// 92100=
07621,1996-03-28 00:00:00,9,1017.3,-0.7,93,8,4000,25.928,,,240,,,,3,,,,,,21,wg-a,,,,AAXX 28004 07621 02340 82414 10090 20080 39738 40173 58007 60136 72162 8687/ 90000 333 60037=
07621,1996-03-28 03:00:00,8,1016.7,-0.6,100,8,4000,22.224,,,260,,,,1,,,,,,,wg-a,,,,AAXX 28034 07621 12340 82612 10080 20080 39732 40167 58006 60017 878// 90300=
07621,1996-03-28 06:00:00,8,1017.6,0.8,100,8,500,18.52,,,270,8.2,10,,3,,,37,,,21,wg-a,,,,AAXX 28064 07621 02200 82710 10080 20080 39740 40176 53008 60374 72162 875// 90600 333 10100 20082 60037=
07621,1996-03-28 09:00:00,8,1019,1.3,100,8,3000,11.112,,,350,,,,1,,,,,,60,wg-a,,,,AAXX 28094 07621 12230 83506 10080 20080 39753 40190 53013 60017 76062 877// 90900=
07621,1996-03-28 12:00:00,10,1019.1,0.4,82,7,8000,14.816,,,290,,,,,,,,,,1,wg-a,,,,AAXX 28124 07621 02458 /2908 10100 20070 39757 40191 50004 60016 70164 86200 91200 333 61000=
07621,1996-03-28 15:00:00,13,1017.2,-1.3,67,7,20000,18.52,,,290,,,,,,,,,,,wg-a,,,,AAXX 28154 07621 12570 32910 10130 20070 39744 40172 58013 60006 83200 91500=
07621,1996-03-28 18:00:00,11,1018.5,0.8,76,7,20000,18.52,,,290,7.1,13.6,,,,,,,,,wg-a,,,,AAXX 28184 07621 32570 32910 10110 20070 39752 40185 53008 83801 91800 333 10136 20071=
07621,1996-03-29 03:00:00,6,1019.3,-0.7,93,5,8000,3.704,,,310,,,,,,,,,,,wg-a,,,,AAXX 29034 07621 12458 73102 10060 20050 39753 40193 58007 60006 875// 90300=
07621,1996-03-29 06:00:00,6,1019.4,-0,87,4,6000,7.408,,,20,5.6,10.9,,,,,1,,,,wg-a,,,,AAXX 29064 07621 02356 70204 10060 20040 39753 40194 55000 60006 876// 90600 333 10109 20056 60014=
07621,1996-03-29 09:00:00,8,1019.2,0.1,81,5,12000,3.704,,,190,,,,,,,,,,,wg-a,,,,AAXX 29094 07621 12462 61902 10080 20050 39754 40192 51001 60006 85801 90900=
07621,1996-03-29 12:00:00,9,1017.8,-1.2,76,5,15000,7.408,,,20,,,,,,,,,,,wg-a,,,,AAXX 29124 07621 12465 70204 10090 20050 39742 40178 58012 60006 875// 91200=
07621,1996-03-29 15:00:00,10,1015.2,-2.2,76,6,15000,3.704,,,80,,,,,,,,,,,wg-a,,,,AAXX 29154 07621 12565 70802 10100 20060 39720 40152 57022 60006 875// 91500=
07621,1996-03-29 18:00:00,10,1013.8,-1.4,71,5,15000,3.704,,,160,5.2,10.7,,,,,,,,,wg-a,,,,AAXX 29184 07621 12565 71602 10100 20050 39706 40138 56014 60006 81542 91800 333 10107 20052=
07621,1996-03-29 21:00:00,6,1013.6,-0.9,87,4,10000,3.704,,,170,,,,,,,,,,,wg-a,,,,AAXX 29214 07621 12560 /1702 10060 20040 39697 40136 58009 60006 81542 92100=
07621,1996-03-30 00:00:00,4,1012.3,-1.5,93,3,6000,0,,,0,,,,,,,,,,,wg-a,,,,AAXX 30004 07621 12/56 /0000 10040 20030 39682 40123 58015 60006 82042 90000=
07621,1996-03-30 03:00:00,3,1011.5,-0.9,93,2,500,0,,,0,,,,,,,,,,,wg-a,,,,AAXX 30034 07621 12/00 70000 10030 20020 39673 40115 56009 60006 84042 90300=
07621,1996-03-30 06:00:00,4,1011.6,0.2,100,4,7000,3.704,,,360,2.4,9.9,,,,,,,,,wg-a,,,,AAXX 30064 07621 02557 73602 10040 20040 39675 40116 53002 60006 8557/ 90600 333 10099 20024 60004=
07621,1996-03-30 09:00:00,7,1012.4,1.3,81,4,8000,7.408,,,10,,,,,,,,,,,wg-a,,,,AAXX 30094 07621 12558 70104 10070 20040 39688 40124 53013 60006 875// 90900=
07621,1996-03-30 12:00:00,11,1012.4,0.6,66,5,10000,7.408,,,320,,,,,,,,,,,wg-a,,,,AAXX 30124 07621 12560 73204 10110 20050 39694 40124 51006 60006 878// 91200=
07621,1996-03-30 15:00:00,12,1012.9,0.6,58,4,12000,14.816,,,320,,,,,,,,,,,wg-a,,,,AAXX 30154 07621 12662 /3208 10120 20040 39700 40129 52006 60006 8613/ 91500=
07621,1996-03-30 18:00:00,10,1014.6,1.4,62,3,15000,7.408,,,320,3.9,13.1,,,,,,,,,wg-a,,,,AAXX 30184 07621 12665 63204 10100 20030 39714 40146 53014 60006 86432 91800 333 10131 20039=
07621,1996-03-30 21:00:00,6,1016.5,1.2,75,2,15000,7.408,,,170,,,,,,,,,,,wg-a,,,,AAXX 30214 07621 12/65 41704 10060 20020 39726 40165 51012 60006 80002 92100=
07621,1996-03-31 00:00:00,4,1017,0.2,87,2,15000,7.408,,,170,,,,,,,,,,,wg-a,,,,AAXX 31004 07621 12/65 21704 10040 20020 39728 40170 53002 60006 80002 90000=
07621,1996-03-31 09:00:00,9,1015,0.2,76,5,15000,7.408,,,170,,,,,,,,,,60,wg-a,,,,AAXX 31094 07621 02565 71704 10090 20050 39715 40150 50002 61000 76062 8387/ 90900 333 ////=
07621,1996-03-31 12:00:00,16,1012.3,-1.5,59,8,20000,18.52,,,270,,,,,,,,,,1,wg-a,,,,AAXX 31124 07621 02670 62710 10160 20080 39700 40123 58015 61000 70162 84832 91200 333 6100=
07621,1996-03-31 15:00:00,15,1011,-1.3,72,10,15000,14.816,,,250,,,,1,,,,,,25,wg-a,,,,AAXX 31154 07621 12365 72508 10150 20100 39687 40110 58013 60017 72586 872// 91500=
07621,1996-03-31 18:00:00,13,1009.9,-1.4,77,9,20000,3.704,,,140,2.4,15.8,,,,,,,,1,wg-a,,,,AAXX 31184 07621 02570 71402 10130 20090 39673 40099 58014 61000 70198 83802 91800 333 10158 20024 ////=
07621,1996-03-31 21:00:00,10,1008.5,-1.8,87,8,20000,3.704,,,190,,,,,,,,,,,wg-a,,,,AAXX 31214 07621 12/70 61902 10100 20080 39655 40085 58018 60006 82032 92100=
07621,1996-04-01 00:00:00,8,1006,-2.6,93,7,15000,11.112,,,200,,,,,,,,,,,wg-a,,,,AAXX 01004 07621 12/65 62006 10080 20070 39629 40060 58026 60006 82032 90000=
07621,1996-04-01 03:00:00,10,1002.1,-3.6,76,6,15000,7.408,,,150,,,,,,,,,,,wg-a,,,,AAXX 01034 07621 12/65 61504 10100 20060 39593 40021 58036 60006 82032 90300=
07621,1996-04-01 06:00:00,9,1000.6,-1.5,87,7,15000,11.112,,,160,7.5,13,,0,,,1,,,,wg-a,,,,AAXX 01064 07621 02465 71606 10090 20070 39578 40006 56015 60014 8553/ 90600 333 10130 20075 60007=
07621,1996-04-01 09:00:00,15,999,-0.6,51,5,60000,14.816,,,280,,,,,,,,,,,wg-a,,,,AAXX 01094 07621 12486 32808 10150 20050 39572 49990 55006 60006 82832 90900=
07621,1996-04-01 12:00:00,17,997.2,-1.4,48,6,60000,22.224,,,320,,,,,,,,,,,wg-a,,,,AAXX 01124 07621 12686 63212 10170 20060 39558 49972 58014 60006 83202 91200=
07621,1996-04-01 15:00:00,17,996,-1.3,52,7,60000,18.52,,,20,,,,,,,,,,,wg-a,,,,AAXX 01154 07621 12686 70210 10170 20070 39545 49960 56013 60006 82272 91500=
07621,1996-04-02 00:00:00,7,1006.4,2.4,93,6,7000,35.188,,61.116,270,,,,1,,,,,,61,wg-a,,,,AAXX 02004 07621 02257 72719 10070 20060 39630 40064 51024 60026 76162 875// 90000 333 60017 91033=
07621,1996-04-02 03:00:00,5,1011,4.1,87,3,10000,29.632,,,260,,,,2,,,,,,21,wg-a,,,,AAXX 02034 07621 12360 72616 10050 20030 39671 40110 51041 60027 72162 877// 90300=
07621,1996-04-02 06:00:00,4,1013,1.8,87,2,10000,11.112,,,260,4.4,9.5,,,,,,,,1,wg-a,,,,AAXX 02064 07621 32660 72606 10040 20020 39689 40130 53018 70162 85502 90600 333 10095 20044=
07621,1996-04-02 09:00:00,6,1015.3,2.5,75,2,10000,25.928,,,270,,,,,,,,,,,wg-a,,,,AAXX 02094 07621 12560 52714 10060 20020 39714 40153 53025 60006 85800 90900=
07621,1996-04-02 12:00:00,8,1015.9,0.8,53,-1,10000,25.928,,,290,,,,,,,,,,,wg-a,,,,AAXX 02124 07621 12560 /2914 10080 21010 39722 40159 50008 60006 85200 91200=
07621,1996-04-02 15:00:00,9,1016,0.3,53,0,10000,25.928,,,290,,,,,,,,,,,wg-a,,,,AAXX 02154 07621 12660 /2914 10090 20000 39725 40160 51003 60006 85200 91500=
07621,1996-04-02 18:00:00,6,1018.6,2.1,56,-2,12000,22.224,,,280,4.3,9.4,,,,,,,,,wg-a,,,,AAXX 02184 07621 12662 /2812 10060 21020 39746 40186 53021 60006 85400 91800 333 10094 20043=
07621,1996-04-02 21:00:00,4,1021.5,2.4,70,-1,15000,22.224,,,260,,,,,,,,,,,wg-a,,,,AAXX 02214 07621 12665 /2612 10040 21010 39770 40215 51024 60006 86500 92100=
07621,1996-04-03 06:00:00,0,1,,86,-2,10000,7.408,,,260,-0.1,6.4,,,,,,,,,wg-a,,,,AAXX 03064 07621 02760 52604 10000 21020 60006 83530 90600 333 10064 21001 60004=
07621,1996-04-03 09:00:00,5,1024.6,,56,-3,15000,14.816,,,320,,,,,,,,,,,wg-a,,,,AAXX 03094 07621 12665 33208 10050 21030 39800 40246 60006 83100 90900=
07621,1996-04-03 12:00:00,6,1024.2,-0.2,49,-4,20000,18.52,,,310,,,,,,,,,,,wg-a,,,,AAXX 03124 07621 12670 /3110 10060 21040 39798 40242 58002 60006 86100 91200=
07621,1996-04-03 15:00:00,7,1023.1,-0.8,53,-2,20000,22.224,,,290,,,,,,,,,,,wg-a,,,,AAXX 03154 07621 12670 /2912 10070 21020 39790 40231 56008 60006 86100 91500=
07621,1996-04-03 18:00:00,6,1023.9,0.6,52,-3,20000,11.112,,,260,-0.2,7.8,,,,,,,,,wg-a,,,,AAXX 03184 07621 12670 72606 10060 21030 39796 40239 53006 60006 878// 91800 333 10078 21002=
07621,1996-04-03 21:00:00,5,1026.5,2.3,52,-4,15000,7.408,,,40,,,,,,,,,,2,wg-a,,,,AAXX 03214 07621 02665 70404 10050 21040 39819 40265 51023 61000 70262 875// 92100 333 ////=
07621,1996-04-04 00:00:00,3,1026.7,-0.1,60,-4,10000,3.704,,,40,,,,,,,,,,1,wg-a,,,,AAXX 04004 07621 02760 70402 10030 21040 39818 40267 57001 61000 70162 875// 90000 333 ////=
07621,1996-04-04 03:00:00,-1,1026.4,-1,86,-3,10000,7.408,,,180,,,,,,,,,,,wg-a,,,,AAXX 04034 07621 12760 41804 11010 21030 39808 40264 57010 60006 84500 90300=
07621,1996-04-04 06:00:00,-3,1025.9,-0.7,86,-5,10000,3.704,,,260,-2.8,6.3,,,,,,,,,wg-a,,,,AAXX 04064 07621 02/60 02602 11030 21050 39801 40259 56007 61000 80000 90600 333 10063 21028 ////=
07621,1996-04-04 09:00:00,5,1023.9,-0.6,52,-4,10000,11.112,,,80,,,,,,,,,,,wg-a,,,,AAXX 04094 07621 12/60 00806 10050 21040 39795 40239 56006 60006 80000 90900=
07621,1996-04-04 12:00:00,9,1021.1,-2.2,46,-2,15000,7.408,,,40,,,,,,,,,,,wg-a,,,,AAXX 04124 07621 12/65 20404 10090 21020 39773 40211 58022 60006 80001 91200=
07621,1996-04-04 15:00:00,11,1018.6,-2.1,37,-3,15000,11.112,,,30,,,,,,,,,,,wg-a,,,,AAXX 04154 07621 12/65 30306 10110 21030 39752 40186 57021 60006 80001 91500=
07621,1996-04-04 18:00:00,10,1018.1,-0.6,40,-3,15000,7.408,,,40,-2.9,11,,,,,,,,,wg-a,,,,AAXX 04184 07621 12/65 20404 10100 21030 39746 40181 56006 60006 80001 91800 333 10110 21029=
07621,1996-04-04 21:00:00,4,1018.4,-0.6,70,-1,12000,0,,,0,,,,,,,,,,,wg-a,,,,AAXX 04214 07621 12/62 10000 10040 21010 39740 40184 57006 60006 80001 92100=
07621,1996-04-05 00:00:00,1,1017.2,-1.6,80,-2,12000,7.408,,,200,,,,,,,,,,,wg-a,,,,AAXX 05004 07621 12/62 32004 10010 21020 39724 40172 58016 60006 80001 90000=
07621,1996-04-05 06:00:00,-1,1014.7,-0.4,86,-3,12000,7.408,,,210,-1.6,9.5,,,,,,,,,wg-a,,,,AAXX 05064 07621 02/62 12104 11010 21030 39697 40147 56004 60006 80001 90600 333 10095 21016 60004=
07621,1996-04-05 09:00:00,8,1012.2,-0.9,61,1,12000,7.408,,,70,,,,,,,,,,,wg-a,,,,AAXX 05094 07621 12/62 30704 10080 20010 39688 40122 56009 60006 80002 90900=
07621,1996-04-05 12:00:00,14,1010.7,-0.6,44,2,20000,7.408,,,10,,,,,,,,,,,wg-a,,,,AAXX 05124 07621 12/70 50104 10140 20020 39682 40107 58006 60006 80002 91200=
07621,1996-04-05 15:00:00,16,1009.1,-1.3,31,-1,20000,11.112,,,60,,,,,,,,,,,wg-a,,,,AAXX 05154 07621 12770 /0606 10160 21010 39669 40091 58013 60006 81242 91500=
07621,1996-04-05 18:00:00,14,1010.2,0.7,36,-1,20000,7.408,,,60,-0.8,16.1,,,,,,,,,wg-a,,,,AAXX 05184 07621 12/70 70604 10140 21010 39676 40102 53007 60006 82032 91800 333 10161 21008=
07621,1996-04-05 21:00:00,8,1012.6,1.5,71,3,20000,3.704,,,180,,,,,,,,,,,wg-a,,,,AAXX 05214 07621 12/70 31802 10080 20030 39691 40126 51015 60006 80002 92100=
07621,1996-04-06 00:00:00,6,1013.5,0.6,75,2,20000,11.112,,,170,,,,,,,,,,,wg-a,,,,AAXX 06004 07621 12/70 21706 10060 20020 39697 40135 53006 60006 80001 90000=
07621,1996-04-06 03:00:00,8,1013.9,0.6,66,2,20000,7.408,,,200,,,,,,,,,,,wg-a,,,,AAXX 06034 07621 12/70 42004 10080 20020 39703 40139 53006 60006 80001 90300=
07621,1996-04-06 06:00:00,5,1015.3,0.9,81,2,12000,7.408,,,160,4.6,13.6,,,,,,,,,wg-a,,,,AAXX 06064 07621 02/62 61604 10050 20020 39712 40153 51009 60006 81032 90600 333 10136 20046 60004=
07621,1996-04-06 09:00:00,11,1015.7,1.4,62,4,12000,3.704,,,20,,,,,,,,,,,wg-a,,,,AAXX 06094 07621 12/62 70202 10110 20040 39726 40157 51014 60006 80002 90900=
07621,1996-04-06 12:00:00,15,1015.2,0.1,55,6,15000,7.408,,,50,,,,,,,,,,,wg-a,,,,AAXX 06124 07621 12/65 50504 10150 20060 39727 40152 50001 60006 80002 91200=
07621,1996-04-06 15:00:00,17,1015,0.1,42,4,15000,7.408,,,330,,,,,,,,,,,wg-a,,,,AAXX 06154 07621 12665 33304 10170 20040 39728 40150 53001 60006 81101 91500=
07621,1996-04-06 18:00:00,15,1016.2,0.9,59,7,15000,11.112,,,310,4.4,17.6,,,,,,,,,wg-a,,,,AAXX 06184 07621 12/65 43106 10150 20070 39737 40162 53009 60006 81032 91800 333 10176 20044=
07621,1996-04-06 21:00:00,15,1016.2,0.9,59,7,15000,11.112,,,310,4.4,17.6,,,,,,,,,wg-a,,,,AAXX 06214 07621 12/65 43106 10150 20070 39737 40162 53009 60006 81832 92100 333 10176 20044=
07621,1996-04-07 00:00:00,8,1020.4,0.7,81,5,6000,7.408,,,260,,,,,,,,,,,wg-a,,,,AAXX 07004 07621 12/56 /2604 10080 20050 39766 40204 51007 60006 80002 90000=
07621,1996-04-07 03:00:00,6,1021.2,0.4,93,5,500,3.704,,,210,,,,,,,,,,,wg-a,,,,AAXX 07034 07621 12/00 72102 10060 20050 39770 40212 53004 60006 83032 90300=
07621,1996-04-07 06:00:00,7,1021.5,0.5,93,6,3500,7.408,,,210,4.1,15.3,,,,,,,,10,wg-a,,,,AAXX 07064 07621 02335 72104 10070 20060 39775 40215 53005 60006 71022 876// 90600 333 10153 20041 60004=
07621,1996-04-07 09:00:00,11,1021.8,0.9,76,7,6000,3.704,,,320,,,,,,,,,,,wg-a,,,,AAXX 07094 07621 12/56 /3202 10110 20070 39784 40218 53009 60006 80002 90900=
07621,1996-04-07 12:00:00,14,1021.3,0,63,7,8000,11.112,,,300,,,,,,,,,,,wg-a,,,,AAXX 07124 07621 12558 73006 10140 20070 39784 40213 50000 60006 83132 91200=
07621,1996-04-07 15:00:00,13,1021.7,0.2,72,8,10000,18.52,,,280,,,,,,,,,,,wg-a,,,,AAXX 07154 07621 12560 /2810 10130 20080 39786 40217 52002 60006 84132 91500=
07621,1996-04-07 18:00:00,11,1023.4,1.3,87,9,6000,11.112,,,260,7.2,14.7,,,,,,,,60,wg-a,,,,AAXX 07184 07621 02456 72606 10110 20090 39799 40234 52013 61000 76062 878// 91800 333 10147 20072 ////=
07621,1996-04-07 21:00:00,10,1024.9,1.4,93,9,4000,7.408,,,270,,,,0,,,,,,10,wg-a,,,,AAXX 07214 07621 12440 82704 10100 20090 39813 40249 52014 60007 71062 875// 92100=
07621,1996-04-08 00:00:00,9,1026.1,1,93,8,500,7.408,,,310,,,,1,,,,,,20,wg-a,,,,AAXX 08004 07621 02400 83104 10090 20080 39823 40261 51010 60016 72065 875// 90000 333 60017=
07621,1996-04-08 03:00:00,8,1026.5,0.2,93,7,6000,7.408,,,290,,,,,,,,,,,wg-a,,,,AAXX 08034 07621 12456 82904 10080 20070 39825 40265 53002 60006 875// 90300=
07621,1996-04-08 06:00:00,8,1027.5,0.9,93,7,2000,7.408,,,310,7.6,10.6,,,,,1,,,10,wg-a,,,,AAXX 08064 07621 12420 83104 10080 20070 39834 40275 53009 60014 71022 875// 90600 333 10106 20076=
07621,1996-04-08 09:00:00,9,1028.9,1.5,87,7,3500,0,,,0,,,,,,,,,,10,wg-a,,,,AAXX 08094 07621 12435 80000 10090 20070 39849 40289 51015 60006 71022 885// 90900=
07621,1996-04-08 12:00:00,11,1028.5,-0.1,76,7,7000,11.112,,,280,,,,,,,,,,,wg-a,,,,AAXX 08124 07621 12457 82806 10110 20070 39848 40285 58001 60006 888// 91200=
07621,1996-04-08 15:00:00,11,1027.7,-0.7,76,7,7000,14.816,,,290,,,,,,,,,,,wg-a,,,,AAXX 08154 07621 12557 82908 10110 20070 39841 40277 58007 60006 888// 91500=
07621,1996-04-08 18:00:00,11,1028,0.2,76,7,7000,7.408,,,300,7.7,11.6,,,,,,,,,wg-a,,,,AAXX 08184 07621 12557 83004 10110 20070 39843 40280 51002 60006 885// 91800 333 10116 20077=
07621,1996-04-08 21:00:00,9,1028.7,0.5,93,8,500,7.408,,,200,,,,,,,,,,,wg-a,,,,AAXX 08214 07621 12600 72004 10090 20080 39848 40287 50005 60006 875// 92100=
07621,1996-04-09 03:00:00,4,1027.3,-1.5,93,3,2000,7.408,,,160,,,,,,,,,,10,wg-a,,,,AAXX 09034 07621 12620 31604 10040 20030 39826 40273 56015 60006 71000 81501 90300=
07621,1996-04-09 06:00:00,3,1026.7,-0.8,93,2,2500,3.704,,,160,2.1,11.1,,,,,,,,10,wg-a,,,,AAXX 09064 07621 02/25 31602 10030 20020 39818 40267 56008 60006 71000 80001 90600 333 10111 20021 60004=
07621,1996-04-09 09:00:00,11,1024.7,-0.5,76,7,8000,7.408,,,50,,,,,,,,,,,wg-a,,,,AAXX 09094 07621 12/58 40504 10110 20070 39813 40247 58005 60006 80001 90900=
07621,1996-04-09 12:00:00,16,1022.9,-1.1,55,7,10000,11.112,,,80,,,,,,,,,,,wg-a,,,,AAXX 09124 07621 12/60 50806 10160 20070 39802 40229 57011 60006 80001 91200=
07621,1996-04-09 15:00:00,18,1021.5,-1.1,49,7,12000,3.704,,,90,,,,,,,,,,,wg-a,,,,AAXX 09154 07621 12662 /0902 10180 20070 39791 40215 56011 60006 81101 91500=
07621,1996-04-09 18:00:00,16,1021.3,-0.4,51,6,12000,7.408,,,30,2.7,17.7,,,,,,,,,wg-a,,,,AAXX 09184 07621 12/62 20304 10160 20060 39787 40213 57004 60006 80001 91800 333 10177 20027=
07621,1996-04-09 21:00:00,10,1023.1,0.8,76,6,12000,7.408,,,180,,,,,,,,,,,wg-a,,,,AAXX 09214 07621 12/62 01804 10100 20060 39795 40231 52008 60006 80000 92100=
07621,1996-04-10 00:00:00,8,1022.8,-0.5,87,6,12000,11.112,,,180,,,,,,,,,,,wg-a,,,,AAXX 10004 07621 12/62 01806 10080 20060 39790 40228 58005 60006 80000 90000=
07621,1996-04-10 03:00:00,7,1022.4,-0.6,87,5,12000,11.112,,,170,,,,,,,,,,,wg-a,,,,AAXX 10034 07621 12/62 01706 10070 20050 39784 40224 56006 60006 80000 90300=
07621,1996-04-10 06:00:00,7,1022.4,-0.1,81,4,12000,7.408,,,180,6.3,16,,,,,,,,,wg-a,,,,AAXX 10064 07621 02/62 41804 10070 20040 39783 40224 55001 60006 80002 90600 333 10160 20063 60004=
07621,1996-04-10 09:00:00,14,1022.1,0.8,67,8,10000,14.816,,,260,,,,,,,,,,,wg-a,,,,AAXX 10094 07621 12/60 42608 10140 20080 39791 40221 51008 60006 80002 90900=
07621,1996-04-10 12:00:00,18,1020,-1.4,49,7,15000,14.816,,,300,,,,,,,,,,,wg-a,,,,AAXX 10124 07621 12/65 33008 10180 20070 39777 40200 56014 60006 81032 91200=
07621,1996-04-10 15:00:00,19,1018.7,-1.2,49,8,15000,18.52,,,320,,,,,,,,,,,wg-a,,,,AAXX 10154 07621 12765 73210 10190 20080 39765 40187 58012 60006 81832 91500=
07621,1996-04-10 18:00:00,16,1019.2,0.3,68,10,15000,14.816,,,320,6.6,19,,,,,,,,,wg-a,,,,AAXX 10184 07621 12665 73208 10160 20100 39768 40192 53003 60006 83532 91800 333 10190 20066=
07621,1996-04-10 21:00:00,13,1020,0.2,82,10,15000,7.408,,,270,,,,,,,,,,,wg-a,,,,AAXX 10214 07621 12565 /2704 10130 20100 39770 40200 50002 60006 86501 92100=
07621,1996-04-11 00:00:00,12,1019.4,-0.6,94,11,12000,7.408,,,250,,,,,,,,,,,wg-a,,,,AAXX 11004 07621 12562 72504 10120 20110 39764 40194 58006 60006 875// 90000=
07621,1996-04-11 03:00:00,11,1018.6,-1.1,94,10,3000,3.704,,,330,,,,,,,,,,10,wg-a,,,,AAXX 11034 07621 12230 73302 10110 20100 39753 40186 56011 60006 71022 875// 90300=
07621,1996-04-11 06:00:00,11,1017.7,-0.8,94,10,3000,7.408,,,160,10.4,16.4,,,,,,,,10,wg-a,,,,AAXX 11064 07621 02230 71604 10110 20100 39745 40177 58008 60006 71022 876// 90600 333 10164 20104 60004=
07621,1996-04-11 12:00:00,16,1015.5,-1.6,68,10,8000,7.408,,,60,,,,,,,,,,,wg-a,,,,AAXX 11124 07621 12558 70604 10160 20100 39731 40155 57016 60006 875// 91200=
07621,1996-04-11 18:00:00,16,1013.4,-0.5,68,10,15000,7.408,,,40,10.8,17.5,,,,,,,,,wg-a,,,,AAXX 11184 07621 12665 70404 10160 20100 39711 40134 57005 60006 875// 91800 333 10175 20108=
07621,1996-04-11 21:00:00,13,1013.8,0.1,88,11,10000,3.704,,,210,,,,,,,,,,,wg-a,,,,AAXX 11214 07621 12660 /2102 10130 20110 39712 40138 53001 60006 85500 92100=
07621,1996-04-12 00:00:00,10,1013.8,-0.5,93,9,10000,3.704,,,180,,,,,,,,,,,wg-a,,,,AAXX 12004 07621 12/60 01802 10100 20090 39707 40138 58005 60006 80000 90000=
07621,1996-04-12 03:00:00,9,1012.9,-1,93,8,10000,7.408,,,150,,,,,,,,,,,wg-a,,,,AAXX 12034 07621 12/60 01504 10090 20080 39697 40129 56010 60006 80000 90300=
07621,1996-04-12 06:00:00,10,1013.4,0.5,93,9,8000,3.704,,,160,9,15.8,,,,,,,,,wg-a,,,,AAXX 12064 07621 02658 41602 10100 20090 39702 40134 53005 60006 84500 90600 333 10158 20090 60004=
07621,1996-04-12 09:00:00,16,1012.2,-0.2,72,11,15000,7.408,,,10,,,,,,,,,,,wg-a,,,,AAXX 12094 07621 12465 70104 10160 20110 39700 40122 58002 60006 8113/ 90900=
07621,1996-04-12 12:00:00,19,1011,-0.8,60,11,20000,7.408,,,50,,,,,,,,,,,wg-a,,,,AAXX 12124 07621 12670 60504 10190 20110 39692 40110 58008 60006 82232 91200=
07621,1996-04-12 15:00:00,20,1009.9,-0.9,49,9,20000,11.112,,,20,,,,,,,,,,,wg-a,,,,AAXX 12154 07621 12670 /0206 10200 20090 39683 40099 58009 60006 82202 91500=
07621,1996-04-12 18:00:00,18,1010.2,0.1,56,9,20000,7.408,,,30,9.9,20.1,,,,,,,,,wg-a,,,,AAXX 12184 07621 12670 70304 10180 20090 39684 40102 53001 60006 82802 91800 333 10201 20099=
07621,1996-04-12 21:00:00,13,1012.6,1.5,77,9,20000,7.408,,,180,,,,,,,,,,,wg-a,,,,AAXX 12214 07621 12/70 01804 10130 20090 39699 40126 51015 60006 80000 92100=
07621,1996-04-13 03:00:00,10,1013.3,0.2,87,8,15000,7.408,,,190,,,,,,,,,,,wg-a,,,,AAXX 13034 07621 12/65 31904 10100 20080 39701 40133 53002 60006 82032 90300=
07621,1996-04-13 06:00:00,11,1014.9,1.7,82,8,15000,11.112,,,210,9.5,18.3,,,,,,,,,wg-a,,,,AAXX 13064 07621 02/65 72106 10110 20080 39718 40149 53017 60006 86032 90600 333 10183 20095 60004=
07621,1996-04-13 07:00:00,11,1014.9,1.7,82,8,15000,11.112,,,210,9.5,18.3,,,,,,,,,wg-a,,,,AAXX 13074 07621 02/65 72106 10110 20080 39718 40149 53017 60006 86032 90700 333 10183 20095 60004=
07621,1996-04-13 09:00:00,14,1015.7,1.3,77,10,20000,3.704,,,290,,,,,,,,,,,wg-a,,,,AAXX 13094 07621 12/70 42902 10140 20100 39731 40157 51013 60006 81032 90900=
07621,1996-04-13 12:00:00,19,1014.8,-0.2,56,10,20000,14.816,,,290,,,,,,,,,,,wg-a,,,,AAXX 13124 07621 12/70 52908 10190 20100 39729 40148 58002 60006 80002 91200=
07621,1996-04-13 15:00:00,19,1014.6,-0.2,56,10,20000,25.928,,,290,,,,,,,,,,,wg-a,,,,AAXX 13154 07621 12670 72914 10190 20100 39727 40146 55002 60006 83102 91500=
07621,1996-04-13 18:00:00,16,1016.4,1.3,59,8,20000,25.928,,,300,11,19.8,,,,,,,,,wg-a,,,,AAXX 13184 07621 12770 /3014 10160 20080 39740 40164 53013 60006 82482 91800 333 10198 20110=
07621,1996-04-13 21:00:00,11,1020.6,3.3,76,7,15000,14.816,,,270,,,,,,,,,,,wg-a,,,,AAXX 13214 07621 12765 /2708 10110 20070 39773 40206 51033 60006 82402 92100=
07621,1996-04-14 00:00:00,8,1022,0.8,87,6,15000,11.112,,,260,,,,,,,,,,,wg-a,,,,AAXX 14004 07621 12765 42606 10080 20060 39781 40220 53008 60006 81502 90000=
07621,1996-04-14 03:00:00,9,1021.5,-0.3,93,8,10000,14.816,,,270,,,,,,,,,,,wg-a,,,,AAXX 14034 07621 12460 42708 10090 20080 39778 40215 55003 60006 83502 90300=
07621,1996-04-14 06:00:00,8,1022.1,0.5,93,7,15000,7.408,,,210,7.3,16.3,,,,,,,,,wg-a,,,,AAXX 14064 07621 02765 62104 10080 20070 39783 40221 53005 60006 83502 90600 333 10163 20073 60004=
07621,1996-04-14 09:00:00,13,1022.1,0.7,77,9,25000,11.112,,,300,,,,,,,,,,,wg-a,,,,AAXX 14094 07621 12575 73006 10130 20090 39790 40221 51007 60006 858// 90900=
07621,1996-04-14 12:00:00,14,1022.4,0.5,72,9,15000,14.816,,,300,,,,,,,,,,,wg-a,,,,AAXX 14124 07621 12565 73008 10140 20090 39795 40224 50005 60006 872// 91200=
07621,1996-04-14 15:00:00,13,1022.6,-0,82,10,6000,18.52,,,300,,,,,,,,,,,wg-a,,,,AAXX 14154 07621 12356 73010 10130 20100 39795 40226 55000 60006 872// 91500=
07621,1996-04-14 18:00:00,12,1023.5,0.8,88,10,10000,18.52,,,270,8.3,14.6,,,,,,,,,wg-a,,,,AAXX 14184 07621 12460 72710 10120 20100 39803 40235 53008 60006 872// 91800 333 10146 20083=
07621,1996-04-14 21:00:00,11,1025.4,1.6,94,10,10000,11.112,,,250,,,,0,,,,,,21,wg-a,,,,AAXX 14214 07621 12460 82506 10110 20100 39819 40254 51016 60007 72162 888// 92100=
07621,1996-04-15 00:00:00,10,1025.4,-0.1,93,9,10000,11.112,,,270,,,,,,,,,,2,wg-a,,,,AAXX 15004 07621 12760 72706 10100 20090 39818 40254 55001 60006 70262 875// 90000=
07621,1996-04-15 06:00:00,10,1025.1,0.4,100,10,12000,7.408,,,230,10,12.2,,1,,,1,,,50,wg-a,,,,AAXX 15064 07621 02362 82304 10100 20100 39815 40251 53004 60014 75052 885// 90600 333 10122 20100 60017=
07621,1996-04-15 09:00:00,12,1025.6,0.7,94,11,12000,7.408,,,260,,,,0,,,,,,20,wg-a,,,,AAXX 15094 07621 12362 82604 10120 20110 39822 40256 51007 60007 72052 875// 90900=
07621,1996-04-15 12:00:00,14,1024.8,-0.5,77,10,20000,14.816,,,320,,,,,,,,,,1,wg-a,,,,AAXX 15124 07621 12470 83208 10140 20100 39817 40248 58005 60016 70152 878// 91200=
07621,1996-04-15 15:00:00,15,1023,-1.5,72,10,20000,11.112,,,20,,,,,,,,,,,wg-a,,,,AAXX 15154 07621 12570 70206 10150 20100 39802 40230 58015 60006 87800 91500=
07621,1996-04-15 21:00:00,11,1023.1,0.1,87,9,20000,0,,,0,,,,,,,,,,,wg-a,,,,AAXX 15214 07621 12770 70000 10110 20090 39796 40231 50001 60006 85502 92100=
07621,1996-04-16 00:00:00,8,1021.6,-1.9,93,7,20000,3.704,,,220,,,,,,,,,,,wg-a,,,,AAXX 16004 07621 12770 42202 10080 20070 39777 40216 58019 60006 825/2 90000=
07621,1996-04-16 03:00:00,5,1019.1,-2.8,100,5,25000,3.704,,,170,,,,,,,,,,,wg-a,,,,AAXX 16034 07621 12775 21702 10050 20050 39749 40191 56028 60006 82500 90300=
07621,1996-04-16 06:00:00,5,1017.3,-1.7,100,5,25000,3.704,,,200,4.5,14.4,,,,,,,,11,wg-a,,,,AAXX 16064 07621 02/75 42002 10050 20050 39732 40173 56017 60006 71100 80002 90600 333 10144 20045 60004=
07621,1996-04-16 09:00:00,13,1014.2,-1.8,77,9,25000,3.704,,,50,,,,,,,,,,,wg-a,,,,AAXX 16094 07621 12/75 60502 10130 20090 39714 40142 56018 60006 80002 90900=
07621,1996-04-16 12:00:00,21,1010.7,-2.2,38,6,500,7.408,,,70,,,,,,,,,,,wg-a,,,,AAXX 16124 07621 12600 70704 10210 20060 39692 40107 57022 60006 81142 91200=
07621,1996-04-16 15:00:00,22,1009.1,-1.4,38,7,500,3.704,,,360,,,,,,,,,,,wg-a,,,,AAXX 16154 07621 12600 73602 10220 20070 39678 40091 58014 60006 81882 91500=
07621,1996-04-16 18:00:00,17,1009.7,-0.1,68,11,20000,22.224,,,290,5.2,22.3,,,,,,,,,wg-a,,,,AAXX 16184 07621 12870 72912 10170 20110 39677 40097 55001 60006 81582 91800 333 10223 20052=
07621,1996-04-17 00:00:00,9,1015.9,2.2,93,8,4000,25.928,,61.116,260,,,,13,,,,,,63,wg-a,,,,AAXX 17004 07621 02240 82614 10090 20080 39725 40159 51022 60146 76362 8657/ 90000 333 60137 91033=
07621,1996-04-17 06:00:00,8,1017.3,1.5,93,7,10000,18.52,,,240,7.2,16.9,,3,,,25,,,21,wg-a,,,,AAXX 17064 07621 02460 82410 10080 20070 39737 40173 53015 60254 72162 8687/ 90600 333 10169 20072 60037=
07621,1996-04-17 09:00:00,9,1018.8,1.6,93,8,10000,14.816,,,280,,,,5,,,,,,27,wg-a,,,,AAXX 17094 07621 12460 72808 10090 20080 39753 40188 51016 60057 72787 873// 90900=
07621,1996-04-17 12:00:00,10,1019.1,0.5,87,8,15000,25.928,,,240,,,,2,,,,,,25,wg-a,,,,AAXX 17124 07621 02465 52414 10100 20080 39758 40191 53005 60086 72587 85900 91200 333 60027=
07621,1996-04-17 15:00:00,10,1019.8,0.5,87,8,500,25.928,,,250,,,,2,,,,,,80,wg-a,,,,AAXX 17154 07621 12400 72514 10100 20080 39763 40198 53005 60027 78086 8696/ 91500=
07621,1996-04-17 18:00:00,9,1022.1,2.1,87,7,15000,14.816,,,230,7.9,12.3,,1,,,,,,25,wg-a,,,,AAXX 17184 07621 12465 52308 10090 20070 39784 40221 53021 60017 72586 85300 91800 333 10123 20079=
07621,1996-04-17 21:00:00,8,1024.2,1.8,87,6,15000,14.816,,,250,,,,,,,,,,,wg-a,,,,AAXX 17214 07621 12765 22508 10080 20060 39802 40242 51018 60006 82500 92100=
07621,1996-04-18 03:00:00,6,1023.2,-1,93,5,15000,7.408,,,160,,,,,,,,,,,wg-a,,,,AAXX 18034 07621 12665 21604 10060 20050 39790 40232 56010 60006 82500 90300=
07621,1996-04-18 06:00:00,4,1023.7,0.2,100,4,60000,7.408,,,180,3.8,9.2,,,,,11,,,,wg-a,,,,AAXX 18064 07621 02/86 21804 10040 20040 39792 40237 53002 60006 80002 90600 333 10092 20038 60114=
07621,1996-04-18 12:00:00,15,1019.6,-1.4,55,6,40000,7.408,,,30,,,,,,,,,,,wg-a,,,,AAXX 18124 07621 12582 50304 10150 20060 39769 40196 57014 60006 81102 91200=
07621,1996-04-18 18:00:00,15,1017.5,-0.4,63,8,40000,7.408,,,60,4.4,17.1,,,,,,,,,wg-a,,,,AAXX 18184 07621 12/82 50604 10150 20080 39749 40175 56004 60006 80002 91800 333 10171 20044=
07621,1996-04-18 21:00:00,10,1019,0.6,87,8,500,0,,,0,,,,,,,,,,,wg-a,,,,AAXX 18214 07621 12/00 50000 10100 20080 39755 40190 51006 60006 80002 92100=
07621,1996-04-19 00:00:00,8,1018.6,-0.7,87,6,20000,3.704,,,170,,,,,,,,,,,wg-a,,,,AAXX 19004 07621 12/70 41702 10080 20060 39748 40186 58007 60006 80002 90000=
07621,1996-04-19 03:00:00,8,1016.9,-1.5,87,6,20000,7.408,,,170,,,,,,,,,,,wg-a,,,,AAXX 19034 07621 12/70 41704 10080 20060 39733 40169 56015 60006 80002 90300=
07621,1996-04-19 06:00:00,9,1016.6,-0.2,71,4,40000,3.704,,,160,6.9,15.3,,,,,,,,,wg-a,,,,AAXX 19064 07621 02/82 61602 10090 20040 39731 40166 55002 60006 80001 90600 333 10153 20069 60004=
07621,1996-04-19 09:00:00,18,1014.7,-0.4,59,10,50000,7.408,,,20,,,,,,,,,,,wg-a,,,,AAXX 19094 07621 12/84 50204 10180 20100 39727 40147 58004 60006 80001 90900=
07621,1996-04-19 12:00:00,22,1013.1,-1,53,12,50000,18.52,,,20,,,,,,,,,,,wg-a,,,,AAXX 19124 07621 12/84 50210 10220 20120 39717 40131 58010 60006 81042 91200=
07621,1996-04-19 15:00:00,22,1012,-1.1,41,8,50000,11.112,,,50,,,,,,,,,,,wg-a,,,,AAXX 19154 07621 12684 /0506 10220 20080 39706 40120 56011 60006 81142 91500=
07621,1996-04-19 18:00:00,20,1011.7,-0.6,53,10,50000,7.408,,,50,9.3,22.5,,,,,,,,,wg-a,,,,AAXX 19184 07621 12/84 60504 10200 20100 39700 40117 56006 60006 82042 91800 333 10225 20093=
07621,1996-04-19 21:00:00,13,1012.5,-0.1,88,11,500,3.704,,,360,,,,,,,,,,,wg-a,,,,AAXX 19214 07621 12/00 43602 10130 20110 39699 40125 56001 60006 80002 92100=
07621,1996-04-20 00:00:00,9,1012.5,-0.6,93,8,20000,0,,,0,,,,,,,,,,,wg-a,,,,AAXX 20004 07621 12/70 30000 10090 20080 39693 40125 57006 60006 80002 90000=
07621,1996-04-20 06:00:00,8,1011.3,-0.2,93,7,20000,3.704,,,160,5.8,19.5,,,,,,,,,wg-a,,,,AAXX 20064 07621 02/70 61602 10080 20070 39679 40113 55002 60006 83042 90600 333 10195 20058 60004=
07621,1996-04-20 09:00:00,12,1010.6,0,82,9,20000,7.408,,,20,,,,,,,,,,,wg-a,,,,AAXX 20094 07621 12/70 60204 10120 20090 39679 40106 50000 60006 82048 90900=
07621,1996-04-20 12:00:00,18,1009.4,-0.2,64,11,20000,11.112,,,20,,,,,,,,,,,wg-a,,,,AAXX 20124 07621 12/70 60206 10180 20110 39677 40094 58002 60006 81088 91200=
07621,1996-04-20 15:00:00,21,1007.3,-1.7,46,9,500,7.408,,,40,,,,,,,,,,,wg-a,,,,AAXX 20154 07621 12/00 40404 10210 20090 39660 40073 58017 60006 82089 91500=
07621,1996-04-20 18:00:00,19,1006.7,-0.8,60,11,500,11.112,,,20,7.4,21.9,,,,,,,,,wg-a,,,,AAXX 20184 07621 12700 50206 10190 20110 39652 40067 55008 60006 81182 91800 333 10219 20074=
07621,1996-04-20 21:00:00,13,1007.3,-0.3,82,10,15000,3.704,,,210,,,,,,,,,,,wg-a,,,,AAXX 20214 07621 12/65 62102 10130 20100 39649 40073 56003 60006 80002 92100=
07621,1996-04-21 00:00:00,12,1006.8,-0.6,88,10,0,3.704,,,330,,,,,,,,,,,wg-a,,,,AAXX 21004 07621 12/// /3302 10120 20100 39643 40068 55006 60006 90000=
07621,1996-04-21 03:00:00,11,1006.2,-0.8,82,8,15000,11.112,,,20,,,,,,,,,,,wg-a,,,,AAXX 21034 07621 12/65 60206 10110 20080 39635 40062 55008 60006 80002 90300=
07621,1996-04-21 06:00:00,11,1006.1,-0.2,82,8,500,0,,,0,10.2,19,,,,,,,,,wg-a,,,,AAXX 21064 07621 02/00 /0000 10110 20080 39633 40061 58002 60006 84082 90600 333 10190 20102 60004=
07621,1996-04-21 09:00:00,18,1005.1,0.2,68,12,500,11.112,,,20,,,,,,,,,,,wg-a,,,,AAXX 21094 07621 12700 60206 10180 20120 39635 40051 53002 60006 81182 90900=
07621,1996-04-21 12:00:00,21,1005.1,0.4,56,12,500,11.112,,,20,,,,,,,,,,,wg-a,,,,AAXX 21124 07621 12700 70206 10210 20120 39639 40051 50004 60006 81182 91200=
07621,1996-04-21 15:00:00,22,1004.5,-0.5,57,13,20000,14.816,,,20,,,,,,,,,,,wg-a,,,,AAXX 21154 07621 12770 70208 10220 20130 39634 40045 58005 60006 81182 91500=
07621,1996-04-21 18:00:00,19,1005.3,0.4,68,13,500,11.112,,,20,10.6,21.8,,,,,,,,,wg-a,,,,AAXX 21184 07621 12700 70206 10190 20130 39638 40053 52004 60006 81532 91800 333 10218 20106=
07621,1996-04-21 21:00:00,13,1006.7,0.5,88,11,500,3.704,,,350,,,,,,,,,,,wg-a,,,,AAXX 21214 07621 12/00 73502 10130 20110 39643 40067 50005 60006 81032 92100=
07621,1996-04-22 03:00:00,10,1005.9,-0.2,100,10,6000,0,,,0,,,,,,,,,,,wg-a,,,,AAXX 22034 07621 12356 70000 10100 20100 39631 40059 58002 60006 876// 90300=
07621,1996-04-22 06:00:00,10,1005.2,-0.7,93,9,3000,3.704,,,290,9.8,18.4,,,,,,,,10,wg-a,,,,AAXX 22064 07621 02130 72902 10100 20090 39624 40052 55007 60006 71022 876// 90600 333 10184 20098 60004=
07621,1996-04-22 09:00:00,11,1004.1,-0.9,94,10,3500,7.408,,,60,,,,,,,,,,10,wg-a,,,,AAXX 22094 07621 12135 80604 10110 20100 39615 40041 58009 60006 71022 886// 90900=
07621,1996-04-22 12:00:00,18,1001.3,-1.7,77,14,12000,3.704,,,10,,,,,,,,,,,wg-a,,,,AAXX 22124 07621 12/62 70102 10180 20140 39598 40013 58017 60006 81082 91200=
07621,1996-04-22 15:00:00,18,1000.7,-0.5,68,12,15000,14.816,,,190,,,,1,,,,,,1,wg-a,,,,AAXX 22154 07621 12765 71908 10180 20120 39593 40007 58005 60017 70186 83282 91500=
07621,1996-04-22 18:00:00,14,1003.8,2.3,94,13,15000,3.704,,64.82,90,9.7,19.1,,0,,,,,,1,wg-a,,,,AAXX 22184 07621 12465 70902 10140 20130 39616 40038 51023 60007 70186 83282 91800 333 10191 20097 91035=
07621,1996-04-22 21:00:00,13,1007.6,3.5,94,12,8000,3.704,,,330,,,,0,,,,,,,wg-a,,,,AAXX 22214 07621 12358 73302 10130 20120 39651 40076 51035 60007 875// 92100=
07621,1996-04-23 00:00:00,10,1010.1,2,93,9,10000,14.816,,,270,,,,0,,,,,,2,wg-a,,,,AAXX 23004 07621 02360 72708 10100 20090 39671 40101 51020 60016 70286 875// 90000 333 60007=
07621,1996-04-23 03:00:00,10,1011.5,1.3,93,9,10000,14.816,,,310,,,,,,,,,,,wg-a,,,,AAXX 23034 07621 12460 83108 10100 20090 39684 40115 51013 60006 875// 90300=
07621,1996-04-23 06:00:00,9,1013.5,1.8,93,8,15000,11.112,,,270,8.8,13.6,,0,,,2,,,60,wg-a,,,,AAXX 23064 07621 02465 72706 10090 20080 39702 40135 53018 60024 76062 878// 90600 333 10136 20088 60007=
07621,1996-04-23 09:00:00,11,1014.4,1.2,87,9,20000,3.704,,,320,,,,0,,,,,,2,wg-a,,,,AAXX 23094 07621 12470 /3202 10110 20090 39714 40144 51012 60007 70262 86800 90900=
07621,1996-04-23 12:00:00,15,1014,0.2,67,9,25000,3.704,,,10,,,,,,,,,,3,wg-a,,,,AAXX 23124 07621 12675 /0102 10150 20090 39716 40140 50002 60016 70362 86200 91200=
07621,1996-04-23 18:00:00,10,1017.3,2.1,87,8,15000,7.408,,,80,8.8,15.3,,6,,,,,,17,wg-a,,,,AAXX 23184 07621 12565 60804 10100 20080 39740 40173 53021 60067 71796 86900 91800 333 10153 20088=
07621,1996-04-23 21:00:00,8,1020.1,2.3,93,7,10000,7.408,,,180,,,,0,,,,,,2,wg-a,,,,AAXX 23214 07621 12660 41804 10080 20070 39763 40201 51023 60007 70298 84200 92100=
07621,1996-04-24 00:00:00,8,1021.7,1.5,87,6,10000,14.816,,,250,,,,,,,,,,1,wg-a,,,,AAXX 24004 07621 12660 62508 10080 20060 39778 40217 51015 60006 70198 86800 90000=
07621,1996-04-24 03:00:00,6,1021.9,-0,93,5,15000,7.408,,,180,,,,,,,,,,,wg-a,,,,AAXX 24034 07621 12765 31804 10060 20050 39778 40219 55000 60006 83500 90300=
07621,1996-04-24 06:00:00,8,1022.6,0.9,87,6,15000,7.408,,,180,6,10.3,,,,,6,,,,wg-a,,,,AAXX 24064 07621 12665 71804 10080 20060 39787 40226 53009 60064 875// 90600 333 10103 20060=
07621,1996-04-24 09:00:00,11,1023.8,1.6,76,7,20000,3.704,,,90,,,,,,,,,,,wg-a,,,,AAXX 24094 07621 12470 70902 10110 20070 39803 40238 51016 60006 878// 90900=
07621,1996-04-24 12:00:00,13,1023.6,0.1,72,8,20000,11.112,,,20,,,,,,,,,,,wg-a,,,,AAXX 24124 07621 12570 60206 10130 20080 39804 40236 50001 60006 86200 91200=
07621,1996-04-24 15:00:00,14,1022.6,-0.8,67,8,20000,14.816,,,10,,,,,,,,,,,wg-a,,,,AAXX 24154 07621 12570 50108 10140 20080 39796 40226 58008 60006 85200 91500=
07621,1996-04-24 18:00:00,13,1023.6,0.9,67,7,15000,3.704,,,40,7.8,14.9,,,,,,,,,wg-a,,,,AAXX 24184 07621 12665 50402 10130 20070 39805 40236 53009 60006 85800 91800 333 10149 20078=
07621,1996-04-24 21:00:00,11,1025.7,1.7,87,9,10000,7.408,,,230,,,,,,,,,,,wg-a,,,,AAXX 24214 07621 12660 /2304 10110 20090 39822 40257 51017 60006 86400 92100=
07621,1996-04-25 00:00:00,10,1026.2,0.3,87,8,10000,11.112,,,260,,,,,,,,,,,wg-a,,,,AAXX 25004 07621 12660 /2606 10100 20080 39825 40262 51003 60006 86500 90000=
07621,1996-04-25 03:00:00,9,1025.6,-0.7,93,8,10000,7.408,,,290,,,,,,,,,,,wg-a,,,,AAXX 25034 07621 12560 72904 10090 20080 39818 40256 56007 60006 875// 90300=
07621,1996-04-25 06:00:00,9,1026.5,0.7,87,7,15000,3.704,,,360,8.4,13.1,,,,,,,,,wg-a,,,,AAXX 25064 07621 02465 73602 10090 20070 39825 40265 53007 60006 878// 90600 333 10131 20084 60004=
07621,1996-04-25 09:00:00,12,1025.8,-0.1,76,8,15000,7.408,,,70,,,,,,,,,,,wg-a,,,,AAXX 25094 07621 12465 /0704 10120 20080 39824 40258 56001 60006 86800 90900=
07621,1996-04-25 12:00:00,14,1024.3,-1.2,58,6,25000,14.816,,,30,,,,,,,,,,,wg-a,,,,AAXX 25124 07621 12675 30308 10140 20060 39812 40243 58012 60006 83200 91200=
07621,1996-04-25 15:00:00,16,1022.4,-1.5,51,6,25000,11.112,,,10,,,,,,,,,,,wg-a,,,,AAXX 25154 07621 12675 30106 10160 20060 39797 40224 58015 60006 83200 91500=
07621,1996-04-25 18:00:00,15,1022.5,-0.1,48,4,25000,11.112,,,30,8.5,16.4,,,,,,,,,wg-a,,,,AAXX 25184 07621 12775 30306 10150 20040 39796 40225 56001 60006 83400 91800 333 10164 20085=
07621,1996-04-26 00:00:00,7,1023.4,-1,81,4,25000,7.408,,,170,,,,,,,,,,,wg-a,,,,AAXX 26004 07621 12/75 11704 10070 20040 39793 40234 58010 60006 80001 90000=
07621,1996-04-26 03:00:00,6,1021.6,-1.9,81,3,15000,7.408,,,180,,,,,,,,,,,wg-a,,,,AAXX 26034 07621 12/65 01804 10060 20030 39774 40216 56019 60006 80000 90300=
07621,1996-04-26 06:00:00,6,1020.6,-1,81,3,25000,7.408,,,170,4.2,14.9,,,,,,,,,wg-a,,,,AAXX 26064 07621 02/75 31704 10060 20030 39764 40206 56010 60006 80001 90600 333 10149 20042 60004=
07621,1996-04-26 09:00:00,15,1018.3,-0.8,51,5,60000,3.704,,,60,,,,,,,,,,,wg-a,,,,AAXX 26094 07621 12486 /0602 10150 20050 39756 40183 57008 60006 81102 90900=
07621,1996-04-26 12:00:00,17,1016.5,-1.5,45,5,60000,11.112,,,50,,,,,,,,,,,wg-a,,,,AAXX 26124 07621 12786 50506 10170 20050 39741 40165 58015 60006 82102 91200=
07621,1996-04-26 15:00:00,16,1015.2,-1.3,45,4,11000,11.112,,,50,,,,,,,,,,,wg-a,,,,AAXX 26154 07621 12/61 /0506 10160 20040 39728 40152 58013 60006 91500=
07621,1996-04-26 18:00:00,16,1014.3,-0.9,48,5,11000,3.704,,,80,5.8,17.5,,,,,,,,,wg-a,,,,AAXX 26184 07621 12/61 /0802 10160 20050 39719 40143 56009 60006 91800 333 10175 20058=
07621,1996-04-26 21:00:00,13,1015.4,0.6,72,8,25000,7.408,,,220,,,,,,,,,,,wg-a,,,,AAXX 26214 07621 12/75 72204 10130 20080 39725 40154 53006 60006 85072 92100=
07621,1996-04-27 00:00:00,12,1014.6,-0.8,76,8,25000,3.704,,,220,,,,,,,,,,,wg-a,,,,AAXX 27004 07621 12/75 72202 10120 20080 39717 40146 58008 60006 8707/ 90000=
07621,1996-04-27 03:00:00,10,1013,-1.8,93,9,25000,3.704,,,280,,,,,,,,,,,wg-a,,,,AAXX 27034 07621 12/75 72802 10100 20090 39699 40130 56018 60006 8707/ 90300=
07621,1996-04-27 06:00:00,10,1013,-0,93,9,500,3.704,,,220,9.9,15.8,,,,,,,,,wg-a,,,,AAXX 27064 07621 02/00 72202 10100 20090 39699 40130 55000 60006 8707/ 90600 333 10158 20099 60004=
07621,1996-04-27 09:00:00,13,1012.4,-0.2,82,10,10000,7.408,,,60,,,,,,,,,,,wg-a,,,,AAXX 27094 07621 12760 70604 10130 20100 39697 40124 58002 60006 8257/ 90900=
07621,1996-04-27 12:00:00,15,1011.1,-0.9,77,11,15000,7.408,,,40,,,,,,,,,,1,wg-a,,,,AAXX 27124 07621 02565 70404 10150 20110 39688 40111 58009 61000 70162 8227/ 91200 333 6100=
07621,1996-04-27 15:00:00,16,1009.7,-1.2,72,11,15000,11.112,,,30,,,,,,,,,,,wg-a,,,,AAXX 27154 07621 12565 70306 10160 20110 39676 40097 56012 60006 8427/ 91500=
07621,1996-04-27 18:00:00,13,1010.4,0.2,94,12,10000,7.408,,,150,10.3,16.2,,7,,,,,,61,wg-a,,,,AAXX 27184 07621 12460 81504 10130 20120 39678 40104 53002 60077 76186 8727/ 91800 333 10162 20103=
07621,1996-04-27 21:00:00,12,1011,0.5,94,11,15000,3.704,,,20,,,,1,,,,,,21,wg-a,,,,AAXX 27214 07621 12765 80202 10120 20110 39683 40110 51005 60017 72162 8757/ 92100=
07621,1996-04-28 00:00:00,11,1010.2,-0.9,100,11,15000,3.704,,,200,,,,0,,,,,,2,wg-a,,,,AAXX 28004 07621 02/65 82002 10110 20110 39674 40102 57009 60016 70262 8807/ 90000 333 60007=
07621,1996-04-28 03:00:00,11,1009.2,-1,94,10,15000,3.704,,,230,,,,,,,,,,,wg-a,,,,AAXX 28034 07621 12665 82302 10110 20100 39664 40092 56010 60006 8357/ 90300=
07621,1996-04-28 06:00:00,11,1009.4,0.1,94,10,15000,3.704,,,160,10.4,12.7,,,,,9,,,,wg-a,,,,AAXX 28064 07621 12665 81602 10110 20100 39665 40094 53001 60094 8357/ 90600 333 10127 20104=
07621,1996-04-28 09:00:00,14,1008.8,-0.1,82,11,15000,7.408,,,270,,,,,,,,,,,wg-a,,,,AAXX 28094 07621 12665 82704 10140 20110 39664 40088 56001 60006 8457/ 90900=
07621,1996-04-28 12:00:00,13,1008.1,-0.7,94,12,10000,14.816,,,280,,,,1,,,,,,60,wg-a,,,,AAXX 28124 07621 02460 82808 10130 20120 39657 40081 58007 60016 76062 888// 91200 333 60017=
07621,1996-04-28 15:00:00,14,1007.1,-0.8,88,12,10000,14.816,,,270,,,,,,,,,,3,wg-a,,,,AAXX 28154 07621 02460 82708 10140 20120 39649 40071 58008 61000 70362 888// 91500 333 ////=
07621,1996-04-28 18:00:00,12,1007.5,0.1,94,11,10000,11.112,,,240,10.5,15,,2,,,,,,60,wg-a,,,,AAXX 28184 07621 12560 82406 10120 20110 39650 40075 53001 60027 76062 888// 91800 333 10150 20105=
07621,1996-04-28 21:00:00,12,1008.4,0.7,94,11,10000,7.408,,,250,,,,1,,,,,,60,wg-a,,,,AAXX 28214 07621 12360 82504 10120 20110 39657 40084 52007 60017 76062 875// 92100=
07621,1996-04-29 00:00:00,11,1008,-0.4,100,11,10000,7.408,,,200,,,,2,,,,,,60,wg-a,,,,AAXX 29004 07621 02460 82004 10110 20110 39653 40080 57004 60036 76062 877// 90000 333 60027=
07621,1996-04-29 03:00:00,11,1007.4,-0.6,100,11,10000,7.408,,,240,,,,0,,,,,,60,wg-a,,,,AAXX 29034 07621 12360 82404 10110 20110 39647 40074 56006 60007 76066 877// 90300=
07621,1996-04-29 06:00:00,11,1007.5,0.1,100,11,8000,11.112,,,250,10.8,12.3,,5,,,11,,,61,wg-a,,,,AAXX 29064 07621 02358 82506 10110 20110 39648 40075 53001 60114 76166 875// 90600 333 10123 20108 60057=
07621,1996-04-29 09:00:00,11,1008.1,0.6,100,11,1500,18.52,,,230,,,,9,,,,,,10,wg-a,,,,AAXX 29094 07621 12115 82310 10110 20110 39654 40081 51006 60097 71062 877// 90900=
07621,1996-04-29 12:00:00,13,1007.7,-0.1,94,12,2000,18.52,,,250,,,,,,,,,,10,wg-a,,,,AAXX 29124 07621 02320 82510 10130 20120 39653 40077 58001 60096 71062 877// 91200 333 61000=
07621,1996-04-29 15:00:00,13,1006.9,-0.9,94,12,1500,18.52,,,270,,,,1,,,,,,10,wg-a,,,,AAXX 29154 07621 12215 82710 10130 20120 39644 40069 56009 60017 71096 873// 91500=
07621,1996-04-29 18:00:00,12,1008.1,1.1,88,10,1500,25.928,,,260,10.7,15.2,,,,,,,,10,wg-a,,,,AAXX 29184 07621 32315 82614 10120 20100 39655 40081 51011 71096 879// 91800 333 10152 20107=
07621,1996-04-29 21:00:00,11,1009.7,1.3,87,9,4000,22.224,,,270,,,,,,,,,,10,wg-a,,,,AAXX 29214 07621 12540 72712 10110 20090 39668 40097 51013 60006 71022 878// 92100=
07621,1996-04-30 00:00:00,9,1009.7,-0.3,87,7,6000,14.816,,,260,,,,,,,,,,,wg-a,,,,AAXX 30004 07621 12756 22608 10090 20070 39665 40097 58003 60006 82500 90000=
07621,1996-04-30 03:00:00,8,1009,-0.8,93,7,6000,7.408,,,230,,,,,,,,,,,wg-a,,,,AAXX 30034 07621 12456 32304 10080 20070 39657 40090 56008 60006 83500 90300=
07621,1996-04-30 06:00:00,8,1009.1,0.1,93,7,8000,3.704,,,220,6.9,11.9,,,,,10,,,,wg-a,,,,AAXX 30064 07621 02458 62202 10080 20070 39658 40091 53001 60006 86830 90600 333 10119 20069 60104=
07621,1996-04-30 09:00:00,11,1008.2,-0.4,76,7,12000,11.112,,,290,,,,,,,,,,,wg-a,,,,AAXX 30094 07621 12462 72906 10110 20070 39654 40082 58004 60006 872// 90900=
07621,1996-04-30 15:00:00,15,1003.8,-1.9,59,7,20000,11.112,,,10,,,,,,,,,,,wg-a,,,,AAXX 30154 07621 12670 70106 10150 20070 39617 40038 56019 60006 878// 91500=
07621,1996-04-30 18:00:00,12,1004,-0.1,88,10,10000,7.408,,,280,7.9,15.4,,1,,,,,,61,wg-a,,,,AAXX 30184 07621 12660 82804 10120 20100 39616 40040 55001 60017 76161 8688/ 91800 333 10154 20079=
07621,1996-05-01 00:00:00,8,1005.9,-0.6,93,7,0,3.704,,,310,,,,,,,,,,,wg-a,,,,AAXX 01004 07621 12/// /3102 10080 20070 39628 40059 58006 60016 90000=
07621,1996-05-01 03:00:00,8,1003.9,-2,93,7,10000,7.408,,,150,,,,,,,,,,,wg-a,,,,AAXX 01034 07621 12360 81504 10080 20070 39608 40039 58020 60006 878// 90300=
07621,1996-05-01 06:00:00,8,1003.4,-0.5,93,7,6000,0,,,0,7.5,12.3,,,,,2,,,,wg-a,,,,AAXX 01064 07621 12456 70000 10080 20070 39603 40034 55005 60024 875// 90600 333 10123 20075=
07621,1996-05-01 09:00:00,10,1002.6,-0.4,87,8,20000,3.704,,,90,,,,,,,,,,,wg-a,,,,AAXX 01094 07621 12470 70902 10100 20080 39599 40026 58004 60006 83832 90900=
07621,1996-05-01 12:00:00,12,1001.6,-0.6,71,7,20000,7.408,,,330,,,,0,,,,,,25,wg-a,,,,AAXX 01124 07621 02470 73304 10120 20070 39593 40016 58006 60016 72586 878// 91200 333 60007=
07621,1996-05-01 15:00:00,16,999,-2,55,7,20000,7.408,,,140,,,,,,,,,,,wg-a,,,,AAXX 01154 07621 12570 61404 10160 20070 39573 49990 58020 60006 85830 91500=
07621,1996-05-01 18:00:00,15,997.9,-1.2,59,7,20000,11.112,,,130,7.9,15.9,,,,,,,,,wg-a,,,,AAXX 01184 07621 32670 31306 10150 20070 39561 49979 58012 83830 91800 333 10159 20079=
07621,1996-05-01 21:00:00,10,998.9,0.3,76,6,20000,7.408,,,200,,,,,,,,,,,wg-a,,,,AAXX 01214 07621 12770 42004 10100 20060 39564 49989 50003 60006 83530 92100=
07621,1996-05-02 00:00:00,7,1002.1,2.6,93,6,10000,14.816,,,310,,,,,,,,,,60,wg-a,,,,AAXX 02004 07621 02460 73108 10070 20060 39590 40021 51026 61000 76061 877// 90000 333 6100=
07621,1996-05-02 06:00:00,6,1001.1,-1.5,93,5,15000,11.112,,,180,4.7,15.1,,3,,,5,,,1,wg-a,,,,AAXX 02064 07621 02465 61806 10060 20050 39578 40011 56015 60054 70162 86800 90600 333 10151 20047 60037=
07621,1996-05-02 12:00:00,15,999.9,-0.4,39,1,40000,38.892,,,280,,,,,,,,,,,wg-a,,,,AAXX 02124 07621 12682 52821 10150 20010 39580 49999 56004 60006 85800 91200=
07621,1996-05-02 15:00:00,11,1003,2.3,62,4,20000,38.892,,61.116,300,,,,,,,,,,,wg-a,,,,AAXX 02154 07621 12570 63021 10110 20040 39603 40030 53023 60006 86900 91500 333 91033=
07621,1996-05-02 18:00:00,8,1003.1,-0.2,87,6,15000,22.224,,72.228,220,5.8,15.4,,1,,,,,,1,wg-a,,,,AAXX 02184 07621 12565 52212 10080 20060 39601 40031 58002 60017 70186 85900 91800 333 10154 20058 91039=
07621,1996-05-02 21:00:00,7,1004.7,1.3,87,5,20000,14.816,,,240,,,,,,,,,,,wg-a,,,,AAXX 02214 07621 12/70 72408 10070 20050 39614 40047 52013 60006 8707/ 92100=
07621,1996-05-03 00:00:00,7,1004.3,-0.3,93,6,15000,11.112,,,200,,,,1,,,,,,21,wg-a,,,,AAXX 03004 07621 02465 82006 10070 20060 39611 40043 58003 60016 72162 8587/ 90000 333 60017=
07621,1996-05-03 03:00:00,8,1004,-0.2,81,5,20000,11.112,,,220,,,,,,,,,,,wg-a,,,,AAXX 03034 07621 12470 /2206 10080 20050 39609 40040 58002 60006 81230 90300=
07621,1996-05-03 06:00:00,8,1005.3,1.3,87,6,500,11.112,,,270,6.3,8.8,,,,,1,,,3,wg-a,,,,AAXX 03064 07621 12600 72706 10080 20060 39622 40053 53013 60014 70362 8557/ 90600 333 10088 20063=
07621,1996-05-03 09:00:00,11,1006.2,1.3,82,8,20000,18.52,,,280,,,,,,,,,,,wg-a,,,,AAXX 03094 07621 12570 /2810 10110 20080 39635 40062 51013 60006 8683/ 90900=
07621,1996-05-03 12:00:00,13,1006.2,0.3,67,7,20000,22.224,,,300,,,,,,,,,,,wg-a,,,,AAXX 03124 07621 12570 63012 10130 20070 39638 40062 52003 60006 84832 91200=
07621,1996-05-03 15:00:00,14,1006.2,0.1,63,7,500,18.52,,,310,,,,,,,,,,,wg-a,,,,AAXX 03154 07621 12600 /3110 10140 20070 39639 40062 53001 60006 84232 91500=
07621,1996-05-03 18:00:00,12,1007.9,1.3,82,9,20000,14.816,,,240,8.4,15,,,,,,,,,wg-a,,,,AAXX 03184 07621 12570 72408 10120 20090 39652 40079 53013 60006 872// 91800 333 10150 20084=
07621,1996-05-03 21:00:00,10,1010.1,1.9,87,8,15000,7.408,,,220,,,,,,,,,,,wg-a,,,,AAXX 03214 07621 12665 72204 10100 20080 39671 40101 52019 60006 875// 92100=
07621,1996-05-04 00:00:00,8,1010.4,0,100,8,15000,0,,,0,,,,,,,,,,,wg-a,,,,AAXX 04004 07621 12665 /0000 10080 20080 39671 40104 50000 60006 86500 90000=
07621,1996-05-04 03:00:00,6,1010.8,-0.1,93,5,15000,7.408,,,170,,,,,,,,,,,wg-a,,,,AAXX 04034 07621 12/65 01704 10060 20050 39670 40108 58001 60006 80000 90300=
07621,1996-05-04 06:00:00,6,1011.4,0.7,93,5,11000,3.704,,,160,4.8,11.5,,,,,,,,,wg-a,,,,AAXX 04064 07621 02/61 /1602 10060 20050 39677 40114 53007 60006 90600 333 10115 20048 60004=
07621,1996-05-04 09:00:00,14,1011.4,1.2,63,7,50000,7.408,,,60,,,,,,,,,,,wg-a,,,,AAXX 04094 07621 12884 30604 10140 20070 39689 40114 51012 60006 81282 90900=
07621,1996-05-04 12:00:00,18,1010.7,-0.1,49,7,50000,11.112,,,80,,,,,,,,,,,wg-a,,,,AAXX 04124 07621 12584 40806 10180 20070 39688 40107 58001 60006 81282 91200=
07621,1996-05-04 15:00:00,19,1009.6,-0.9,46,7,50000,11.112,,,60,,,,,,,,,,,wg-a,,,,AAXX 04154 07621 12584 40606 10190 20070 39679 40096 56009 60006 81282 91500=
07621,1996-05-04 18:00:00,17,1010.6,0.7,55,8,500,7.408,,,50,6,19.5,,,,,,,,,wg-a,,,,AAXX 04184 07621 12/00 60504 10170 20080 39686 40106 52007 60006 82082 91800 333 10195 20060=
07621,1996-05-04 21:00:00,14,1011.8,0.7,77,10,20000,0,,,0,,,,,,,,,,,wg-a,,,,AAXX 04214 07621 12/70 60000 10140 20100 39693 40118 51007 60006 80002 92100=
07621,1996-05-05 00:00:00,11,1012.1,-0.1,87,9,20000,3.704,,,180,,,,,,,,,,,wg-a,,,,AAXX 05004 07621 12/70 61802 10110 20090 39692 40121 58001 60006 80002 90000=
07621,1996-05-05 03:00:00,10,1011.4,-0.9,87,8,20000,3.704,,,180,,,,,,,,,,,wg-a,,,,AAXX 05034 07621 12/70 61802 10100 20080 39683 40114 56009 60006 81032 90300=
07621,1996-05-05 06:00:00,11,1011.5,0.2,76,7,25000,3.704,,,160,9.4,17.4,,,,,,,,,wg-a,,,,AAXX 05064 07621 02/75 21602 10110 20070 39685 40115 53002 60006 81082 90600 333 10174 20094 60004=
07621,1996-05-05 09:00:00,20,1009.6,-0.4,46,8,40000,7.408,,,70,,,,,,,,,,,wg-a,,,,AAXX 05094 07621 12782 20704 10200 20080 39681 40096 58004 60006 81182 90900=
07621,1996-05-05 12:00:00,22,1008.2,-1.1,43,9,40000,14.816,,,60,,,,,,,,,,,wg-a,,,,AAXX 05124 07621 12782 30608 10220 20090 39670 40082 56011 60006 82282 91200=
07621,1996-05-05 15:00:00,23,1006.6,-1.4,44,10,500,11.112,,,50,,,,,,,,,,,wg-a,,,,AAXX 05154 07621 12700 50506 10230 20100 39656 40066 56014 60006 84280 91500=
07621,1996-05-05 18:00:00,21,1006.5,-0.4,49,10,500,14.816,,,60,10.8,23.3,,,,,,,,,wg-a,,,,AAXX 05184 07621 12700 40608 10210 20100 39652 40065 56004 60006 82282 91800 333 10233 20108=
07621,1996-05-05 21:00:00,15,1007.7,0.3,77,11,20000,3.704,,,40,,,,,,,,,,,wg-a,,,,AAXX 05214 07621 12/70 20402 10150 20110 39655 40077 51003 60006 82082 92100=
07621,1996-05-06 00:00:00,10,1007.7,-0.7,93,9,20000,3.704,,,180,,,,,,,,,,,wg-a,,,,AAXX 06004 07621 12/70 21802 10100 20090 39648 40077 58007 60006 81082 90000=
07621,1996-05-06 03:00:00,8,1006.4,-1.6,93,7,20000,3.704,,,220,,,,,,,,,,,wg-a,,,,AAXX 06034 07621 12/70 22202 10080 20070 39632 40064 56016 60006 82082 90300=
07621,1996-05-06 06:00:00,10,1006.1,-0,93,9,50000,3.704,,,190,7.4,20.5,,,,,,,,,wg-a,,,,AAXX 06064 07621 02/84 31902 10100 20090 39632 40061 55000 60006 83080 90600 333 10205 20074 60004=
07621,1996-05-06 09:00:00,19,1004,-0.6,73,14,50000,11.112,,,10,,,,,,,,,,,wg-a,,,,AAXX 06094 07621 12784 /0106 10190 20140 39626 40040 56006 60006 81280 90900=
07621,1996-05-06 12:00:00,23,1002.5,-1,50,12,500,14.816,,,50,,,,,,,,,,,wg-a,,,,AAXX 06124 07621 12700 /0508 10230 20120 39616 40025 58010 60006 81280 91200=
07621,1996-05-06 15:00:00,19,1002.2,-0.7,68,13,11000,18.52,,,340,,,,,,,,,,,wg-a,,,,AAXX 06154 07621 32/61 /3410 10190 20130 39609 40022 57007 91500=
07621,1996-05-06 18:00:00,20,1002.3,0.2,64,13,500,0,,,0,9.7,23.7,,,,,,,,2,wg-a,,,,AAXX 06184 07621 32700 70000 10200 20130 39611 40023 53002 70298 8228/ 91800 333 10237 20097=
07621,1996-05-07 00:00:00,15,1003.6,-0,82,12,15000,3.704,,,250,,,,,,,,,,3,wg-a,,,,AAXX 07004 07621 02565 72502 10150 20120 39616 40036 54000 61000 70386 83282 90000 333 ////=
07621,1996-05-07 03:00:00,13,1003.4,-0.4,94,12,10000,3.704,,,90,,,,0,,,,,,25,wg-a,,,,AAXX 07034 07621 12660 70902 10130 20120 39612 40034 57004 60007 72522 8428/ 90300=
07621,1996-05-07 06:00:00,13,1004.1,0.6,94,12,15000,3.704,,,290,12.1,19.7,,,,,1,,,25,wg-a,,,,AAXX 07064 07621 02565 72902 10130 20120 39618 40041 53006 60014 72586 8528/ 90600 333 10197 20121 61000=
07621,1996-05-07 09:00:00,15,1004.6,0.7,82,12,15000,7.408,,,50,,,,1,,,,,,21,wg-a,,,,AAXX 07094 07621 12465 70504 10150 20120 39625 40046 51007 60017 72162 878// 90900=
07621,1996-05-07 12:00:00,15,1005.2,0.7,88,13,15000,7.408,,,60,,,,1,,,,,,21,wg-a,,,,AAXX 07124 07621 02465 80604 10150 20130 39632 40052 52007 60016 72162 8787/ 91200 333 60017=
07621,1996-05-07 15:00:00,15,1005.8,0.5,82,12,15000,7.408,,,40,,,,0,,,,,,3,wg-a,,,,AAXX 07154 07621 12465 80404 10150 20120 39637 40058 51005 60007 70386 878// 91500=
07621,1996-05-07 18:00:00,16,1005.8,0.2,77,12,20000,7.408,,,90,12.6,16.3,,1,,,,,,3,wg-a,,,,AAXX 07184 07621 12470 /0904 10160 20120 39639 40058 51002 60017 70386 82902 91800 333 10163 20126=
07621,1996-05-07 21:00:00,12,1009.4,2.9,88,10,20000,25.928,,,270,,,,,,,,,,13,wg-a,,,,AAXX 07214 07621 12570 72714 10120 20100 39668 40094 53029 60006 71322 879// 92100=
07621,1996-05-08 00:00:00,11,1011.1,1.4,94,10,6000,0,,,0,,,,6,,,,,,61,wg-a,,,,AAXX 08004 07621 02356 80000 10110 20100 39682 40111 53014 60066 76198 877// 90000 333 60067=
07621,1996-05-08 03:00:00,11,1010.7,-0.4,94,10,15000,3.704,,,250,,,,0,,,,,,2,wg-a,,,,AAXX 08034 07621 12665 72502 10110 20100 39678 40107 57004 60007 70262 8357/ 90300=
07621,1996-05-08 06:00:00,11,1012.2,1.5,94,10,15000,7.408,,,170,10.6,16,,,,,9,,,2,wg-a,,,,AAXX 08064 07621 12665 71704 10110 20100 39693 40122 53015 60094 70262 8357/ 90600 333 10160 20106=
07621,1996-05-08 09:00:00,14,1012.7,0.8,82,11,15000,0,,,0,,,,,,,,,,,wg-a,,,,AAXX 08094 07621 12465 70000 10140 20110 39701 40127 51008 60006 8687/ 90900=
07621,1996-05-08 12:00:00,16,1012.1,-0.2,72,11,20000,3.704,,,310,,,,,,,,,,,wg-a,,,,AAXX 08124 07621 12470 73102 10160 20110 39699 40121 58002 60006 878// 91200=
07621,1996-05-08 18:00:00,14,1011.7,0.3,94,13,8000,11.112,,,220,10.9,17.7,,5,,,,,,80,wg-a,,,,AAXX 08184 07621 12258 72206 10140 20130 39692 40117 53003 60057 78086 879// 91800 333 10177 20109=
07621,1996-05-08 21:00:00,12,1013.5,1.5,100,12,8000,7.408,,,200,,,,32,,,,,,63,wg-a,,,,AAXX 08214 07621 12358 72004 10120 20120 39707 40135 51015 60327 76366 872// 92100=
07621,1996-05-09 00:00:00,12,1012.8,-0.7,94,11,10000,3.704,,,280,,,,0,,,,,,1,wg-a,,,,AAXX 09004 07621 02660 72802 10120 20110 39700 40128 58007 60336 70162 875// 90000 333 60007=
07621,1996-05-09 03:00:00,12,1011.5,-1.3,94,11,2000,7.408,,,180,,,,,,,,,,10,wg-a,,,,AAXX 09034 07621 12520 71804 10120 20110 39687 40115 57013 60006 71022 875// 90300=
07621,1996-05-09 06:00:00,11,1011.2,-0.3,100,11,15000,7.408,,,210,11.2,13.6,,,,,37,,,,wg-a,,,,AAXX 09064 07621 12465 52104 10110 20110 39684 40112 55003 60374 82880 90600 333 10136 20112=
07621,1996-05-09 09:00:00,14,1010.6,-0.2,88,12,15000,7.408,,,330,,,,,,,,,,,wg-a,,,,AAXX 09094 07621 12365 /3304 10140 20120 39682 40106 58002 60006 86200 90900=
07621,1996-05-09 12:00:00,16,1009,-1.3,77,12,10000,7.408,,,30,,,,,,,,,,,wg-a,,,,AAXX 09124 07621 12560 70304 10160 20120 39669 40090 58013 60006 8627/ 91200=
07621,1996-05-09 15:00:00,16,1007.8,-1.2,82,13,6000,7.408,,,150,,,,2,,,,,,17,wg-a,,,,AAXX 09154 07621 12456 71504 10160 20130 39657 40078 58012 60027 71798 879// 91500=
07621,1996-05-09 18:00:00,12,1008.8,0.5,100,12,500,7.408,,,200,11.3,16.1,,7,,,,,,61,wg-a,,,,AAXX 09184 07621 12200 72004 10120 20120 39662 40088 50005 60077 76198 879// 91800 333 10161 20113=
07621,1996-05-09 21:00:00,12,1008.9,-0,94,11,8000,3.704,,,300,,,,,,,,,,,wg-a,,,,AAXX 09214 07621 32/58 /3002 10120 20110 39662 40089 55000 92100=
07621,1996-05-10 00:00:00,11,1008,-0.9,100,11,6000,7.408,,,190,,,,4,,,,,,61,wg-a,,,,AAXX 10004 07621 02256 71904 10110 20110 39653 40080 58009 60066 76186 878// 90000 333 60047=
07621,1996-05-10 06:00:00,10,1006.7,-0.1,100,10,1200,7.408,,,330,9.8,12.3,,,,,16,,,10,wg-a,,,,AAXX 10064 07621 12112 83304 10100 20100 39638 40067 55001 60164 71064 886// 90600 333 10123 20098=
07621,1996-05-10 09:00:00,9,1007.4,0.6,100,9,1500,14.816,,,290,,,,,,,,,,10,wg-a,,,,AAXX 10094 07621 02115 82908 10090 20090 39644 40074 53006 61000 71065 887// 90900 333 ////=
07621,1996-05-10 12:00:00,9,1007.7,0.3,93,8,2500,14.816,,,290,,,,0,,,,,,10,wg-a,,,,AAXX 10124 07621 02225 82908 10090 20080 39647 40077 51003 60006 71065 882// 91200 333 60007=
07621,1996-05-10 15:00:00,10,1007,-0.5,93,9,8000,11.112,,,240,,,,,,,,,,2,wg-a,,,,AAXX 10154 07621 02458 82406 10100 20090 39642 40070 58005 61000 70262 882// 91500 333 ////=
07621,1996-05-10 18:00:00,10,1007.6,0.5,87,8,10000,11.112,,,210,9.1,10.7,,,,,,,,2,wg-a,,,,AAXX 10184 07621 32560 82106 10100 20080 39647 40076 53005 70262 888// 91800 333 10107 20091=
07621,1996-05-10 21:00:00,9,1009,1.2,93,8,10000,14.816,,,260,,,,1,,,,,,61,wg-a,,,,AAXX 10214 07621 12660 82608 10090 20080 39659 40090 51012 60017 76162 878// 92100=
07621,1996-05-11 00:00:00,9,1008.7,-0.3,87,7,10000,11.112,,,230,,,,0,,,,,,3,wg-a,,,,AAXX 11004 07621 02660 82306 10090 20070 39656 40087 58003 60016 70362 875// 90000 333 60007=
07621,1996-05-11 03:00:00,9,1008.1,-0.6,87,7,10000,7.408,,,240,,,,,,,,,,,wg-a,,,,AAXX 11034 07621 12660 82404 10090 20070 39650 40081 56006 60006 885// 90300=
07621,1996-05-11 06:00:00,8,1009,0.8,100,8,2000,11.112,,,270,8.3,10.3,,4,,,5,,,61,wg-a,,,,AAXX 11064 07621 02320 82706 10080 20080 39658 40090 53008 60054 76162 885// 90600 333 10103 20083 60047=
07621,1996-05-11 09:00:00,8,1010.3,1.2,100,8,4500,14.816,,,250,,,,6,,,,,,10,wg-a,,,,AAXX 11094 07621 12345 82508 10080 20080 39670 40103 52012 60067 71066 885// 90900=
07621,1996-05-11 12:00:00,9,1010.7,0.5,87,7,12000,14.816,,,260,,,,1,,,,,,61,wg-a,,,,AAXX 11124 07621 02362 82608 10090 20070 39675 40107 51005 60076 76166 885// 91200 333 60017=
07621,1996-05-11 15:00:00,10,1010.8,0.3,76,6,15000,14.816,,,250,,,,,,,,,,,wg-a,,,,AAXX 11154 07621 12465 82508 10100 20060 39678 40108 53003 60006 888// 91500=
07621,1996-05-11 18:00:00,10,1012.1,1.1,76,6,15000,11.112,,,260,8.1,10.4,,,,,,,,,wg-a,,,,AAXX 11184 07621 32665 82606 10100 20060 39689 40121 53011 8657/ 91800 333 10104 20081=
07621,1996-05-11 21:00:00,8,1014.5,2.1,87,6,12000,11.112,,,250,,,,,,,,,,,wg-a,,,,AAXX 11214 07621 12562 82506 10080 20060 39710 40145 51021 60006 8657/ 92100=
07621,1996-05-12 00:00:00,8,1015.5,0.9,93,7,500,14.816,,,270,,,,2,,,,,,60,wg-a,,,,AAXX 12004 07621 02300 82708 10080 20070 39719 40155 51009 60026 76062 8657/ 90000 333 60027=
07621,1996-05-12 03:00:00,8,1016.4,0.9,93,7,500,14.816,,,240,,,,1,,,,,,21,wg-a,,,,AAXX 12034 07621 12300 82408 10080 20070 39728 40164 53009 60017 72162 875// 90300=
07621,1996-05-12 06:00:00,8,1018.8,2.3,93,7,8000,18.52,,,260,7.9,9.5,,,,,10,,,1,wg-a,,,,AAXX 12064 07621 12658 82610 10080 20070 39751 40188 53023 60104 70162 875// 90600 333 10095 20079=
07621,1996-05-12 09:00:00,12,1020.5,2.2,67,6,12000,18.52,,,290,,,,,,,,,,,wg-a,,,,AAXX 12094 07621 12762 52910 10120 20060 39773 40205 51022 60006 84230 90900=
07621,1996-05-12 12:00:00,13,1020.6,0.3,62,6,12000,18.52,,,260,,,,,,,,,,,wg-a,,,,AAXX 12124 07621 12662 /2610 10130 20060 39776 40206 50003 60006 86200 91200=
07621,1996-05-12 15:00:00,11,1022.5,1.5,66,5,13000,18.52,,,280,,,,,,,,,,,wg-a,,,,AAXX 12154 07621 12663 72810 10110 20050 39791 40225 51015 60006 872// 91500=
07621,1996-05-12 18:00:00,11,1023.6,1.1,71,6,15000,18.52,,,250,8.3,13.5,,,,,,,,,wg-a,,,,AAXX 12184 07621 12765 /2510 10110 20060 39802 40236 51011 60006 86100 91800 333 10135 20083=
07621,1996-05-12 21:00:00,7,1026.6,2.2,81,4,11000,14.816,,,260,,,,,,,,,,,wg-a,,,,AAXX 12214 07621 12/61 /2608 10070 20040 39824 40266 53022 60006 92100=
07621,1996-05-13 00:00:00,5,1027.4,0.3,87,3,15000,7.408,,,230,,,,,,,,,,,wg-a,,,,AAXX 13004 07621 12/65 02304 10050 20030 39827 40274 51003 60006 80000 90000=
07621,1996-05-13 03:00:00,3,1027,-0.6,87,1,15000,11.112,,,170,,,,,,,,,,,wg-a,,,,AAXX 13034 07621 12/65 01706 10030 20010 39821 40270 57006 60006 80000 90300=
07621,1996-05-13 06:00:00,4,1026.5,-0.3,87,2,500,7.408,,,160,2.3,11.5,,,,,,,,,wg-a,,,,AAXX 13064 07621 02/00 01604 10040 20020 39818 40265 56003 60006 80000 90600 333 10115 20023 60004=
07621,1996-05-13 09:00:00,11,1024.1,-1.3,37,-3,40000,3.704,,,40,,,,,,,,,,,wg-a,,,,AAXX 13094 07621 12582 /0402 10110 21030 39805 40241 58013 60006 81100 90900=
07621,1996-05-13 12:00:00,13,1022.5,-1.1,47,2,35000,7.408,,,20,,,,,,,,,,,wg-a,,,,AAXX 13124 07621 12681 30204 10130 20020 39794 40225 56011 60006 82101 91200=
07621,1996-05-13 15:00:00,14,1021.4,-1,51,4,35000,11.112,,,20,,,,,,,,,,,wg-a,,,,AAXX 13154 07621 12681 40206 10140 20040 39784 40214 56010 60006 83101 91500=
07621,1996-05-13 18:00:00,13,1020.7,-0.8,58,5,20000,11.112,,,20,4.3,14.3,,,,,,,,,wg-a,,,,AAXX 13184 07621 12670 70206 10130 20050 39776 40207 56008 60006 875// 91800 333 10143 20043=
07621,1996-05-13 21:00:00,11,1021,-0,66,5,15000,3.704,,,40,,,,,,,,,,,wg-a,,,,AAXX 13214 07621 12665 80402 10110 20050 39776 40210 55000 60006 885// 92100=
07621,1996-05-14 00:00:00,9,1019.7,-1.5,87,7,15000,3.704,,,10,,,,,,,,,,,wg-a,,,,AAXX 14004 07621 12665 80102 10090 20070 39761 40197 58015 60006 885// 90000=
07621,1996-05-14 06:00:00,5,1017,-1.2,100,5,500,0,,,0,3.8,12.6,,,,,,,,,wg-a,,,,AAXX 14064 07621 02/00 20000 10050 20050 39729 40170 56012 60006 80002 90600 333 10126 20038 60004=
07621,1996-05-14 09:00:00,11,1014.9,-1.1,76,7,10000,7.408,,,20,,,,,,,,,,,wg-a,,,,AAXX 14094 07621 12460 /0204 10110 20070 39718 40149 56011 60006 81102 90900=
07621,1996-05-14 12:00:00,14,1013,-1.3,58,6,12000,7.408,,,330,,,,,,,,,,,wg-a,,,,AAXX 14124 07621 12562 /3304 10140 20060 39705 40130 58013 60006 81102 91200=
07621,1996-05-14 15:00:00,16,1011.8,-0.9,59,8,15000,7.408,,,20,,,,,,,,,,,wg-a,,,,AAXX 14154 07621 12/65 60204 10160 20080 39696 40118 58009 60006 80002 91500=
07621,1996-05-14 18:00:00,16,1011.2,-0.6,63,9,15000,7.408,,,10,5.2,16.5,,,,,,,,,wg-a,,,,AAXX 14184 07621 12/65 40104 10160 20090 39690 40112 57006 60006 80002 91800 333 10165 20052=
07621,1996-05-14 21:00:00,10,1012.5,0.4,93,9,15000,7.408,,,210,,,,,,,,,,,wg-a,,,,AAXX 14214 07621 12/65 32104 10100 20090 39694 40125 53004 60006 80002 92100=
07621,1996-05-15 00:00:00,9,1011.8,-0.9,93,8,15000,3.704,,,140,,,,,,,,,,,wg-a,,,,AAXX 15004 07621 12/65 01402 10090 20080 39685 40118 58009 60006 80000 90000=
07621,1996-05-15 03:00:00,8,1011.1,-0.8,93,7,10000,7.408,,,180,,,,,,,,,,,wg-a,,,,AAXX 15034 07621 12/60 01804 10080 20070 39677 40111 57008 60006 80000 90300=
07621,1996-05-15 06:00:00,8,1011,-0.1,93,7,6000,3.704,,,190,6.7,15.8,,,,,,,,,wg-a,,,,AAXX 15064 07621 02/56 01902 10080 20070 39676 40110 55001 60006 80000 90600 333 10158 20067 60004=
07621,1996-05-15 09:00:00,16,1009.6,-0.1,68,10,12000,7.408,,,60,,,,,,,,,,,wg-a,,,,AAXX 15094 07621 12/62 00604 10160 20100 39675 40096 58001 60006 80000 90900=
07621,1996-05-15 12:00:00,21,1007.9,-1,46,9,20000,7.408,,,60,,,,,,,,,,,wg-a,,,,AAXX 15124 07621 12670 /0604 10210 20090 39665 40079 58010 60006 81100 91200=
07621,1996-05-15 15:00:00,23,1006.5,-1.1,41,9,25000,11.112,,,60,,,,,,,,,,,wg-a,,,,AAXX 15154 07621 12775 /0606 10230 20090 39654 40065 57011 60006 81100 91500=
07621,1996-05-15 18:00:00,22,1005.5,-1.1,50,11,500,11.112,,,60,7.9,22.8,,,,,,,,,wg-a,,,,AAXX 15184 07621 12700 /0606 10220 20110 39643 40055 56011 60006 81100 91800 333 10228 20079=
07621,1996-05-15 21:00:00,15,1007.2,0.8,82,12,20000,3.704,,,170,,,,,,,,,,,wg-a,,,,AAXX 15214 07621 12/70 01702 10150 20120 39651 40072 53008 60006 80000 92100=
07621,1996-05-16 00:00:00,12,1006.9,-0.8,88,10,20000,0,,,0,,,,,,,,,,,wg-a,,,,AAXX 16004 07621 12/70 00000 10120 20100 39643 40069 58008 60006 80000 90000=
07621,1996-05-16 06:00:00,16,1005.6,0.5,68,10,40000,7.408,,,180,11.3,21.5,,,,,,,,,wg-a,,,,AAXX 16064 07621 02/82 /1804 10160 20100 39636 40056 53005 60006 85080 90600 333 10215 20113 60004=
07621,1996-05-16 09:00:00,20,1005.8,0.9,56,11,40000,7.408,,,360,,,,,,,,,,,wg-a,,,,AAXX 16094 07621 12/82 /3604 10200 20110 39645 40058 51009 60006 86080 90900=
07621,1996-05-16 12:00:00,24,1005,-0.3,54,14,40000,11.112,,,20,,,,,,,,,,,wg-a,,,,AAXX 16124 07621 12782 50206 10240 20140 39642 40050 57003 60006 82280 91200=
07621,1996-05-16 15:00:00,17,1006.4,0.5,82,14,10000,25.928,,,310,,,,3,,,,,,81,wg-a,,,,AAXX 16154 07621 12660 73114 10170 20140 39647 40064 53005 60037 78186 82280 91500=
07621,1996-05-16 18:00:00,19,1006.9,0.7,73,14,500,3.704,,,90,15.6,24.8,,9,,,,,,3,wg-a,,,,AAXX 16184 07621 12700 50902 10190 20140 39654 40069 53007 60097 70386 82983 91800 333 10248 20156=
07621,1996-05-16 21:00:00,17,1008.4,1.1,88,15,20000,3.704,,,170,,,,,,,,,,,wg-a,,,,AAXX 16214 07621 12570 71702 10170 20150 39665 40084 51011 60006 8698/ 92100=
07621,1996-05-17 00:00:00,14,1008,-0.9,94,13,12000,3.704,,,190,,,,,,,,,,,wg-a,,,,AAXX 17004 07621 12562 41902 10140 20130 39656 40080 58009 60006 84500 90000=
07621,1996-05-17 06:00:00,13,1006,-0.1,94,12,7000,0,,,0,11.7,18.9,,0,,,12,,,,wg-a,,,,AAXX 17064 07621 02757 40000 10130 20120 39637 40060 55001 60124 82282 90600 333 10189 20117 60007=
07621,1996-05-17 09:00:00,17,1005.9,0.4,82,14,15000,3.704,,,20,,,,,,,,,,,wg-a,,,,AAXX 17094 07621 12765 /0202 10170 20140 39641 40059 52004 60006 82289 90900=
07621,1996-05-17 12:00:00,19,1005.4,-0.2,64,12,20000,7.408,,,60,,,,,,,,,,,wg-a,,,,AAXX 17124 07621 12770 70604 10190 20120 39639 40054 58002 60006 83289 91200=
07621,1996-05-17 15:00:00,22,1002.5,-2.4,60,14,20000,11.112,,,80,,,,,,,,,,,wg-a,,,,AAXX 17154 07621 12670 50806 10220 20140 39615 40025 58024 60006 83282 91500=
07621,1996-05-17 18:00:00,19,1002.3,-0.5,73,14,20000,11.112,,,330,13.2,21.8,,,,,,,,,wg-a,,,,AAXX 17184 07621 12770 63306 10190 20140 39610 40023 55005 60006 84992 91800 333 10218 20132=
07621,1996-05-17 21:00:00,13,1004.8,1.6,100,13,20000,3.704,,,110,,,,2,,,,,,2,wg-a,,,,AAXX 17214 07621 12670 81102 10130 20130 39626 40048 51016 60027 70286 8357/ 92100=
07621,1996-05-18 00:00:00,13,1004,-0.9,94,12,20000,7.408,,,360,,,,,,,,,,2,wg-a,,,,AAXX 18004 07621 12/70 83604 10130 20120 39617 40040 57009 60026 70286 8807/ 90000=
07621,1996-05-18 03:00:00,12,1001.9,-2.2,94,11,300,3.704,,,220,,,,,,,,,,,wg-a,,,,AAXX 18034 07621 12/03 /2202 10120 20110 39595 40019 56022 60006 90300=
07621,1996-05-18 06:00:00,11,1001.4,-0.6,100,11,500,3.704,,,160,10.2,18.2,,,,,2,,,28,wg-a,,,,AAXX 18064 07621 12200 51602 10110 20110 39589 40014 56006 60024 72841 85200 90600 333 10182 20102=
07621,1996-05-18 09:00:00,21,999.6,-0.3,43,8,40000,22.224,,,190,,,,,,,,,,,wg-a,,,,AAXX 18094 07621 12782 41912 10210 20080 39586 49996 58003 60006 83282 90900=
07621,1996-05-18 12:00:00,23,1000.1,0.7,31,5,40000,29.632,,,180,,,,,,,,,,,wg-a,,,,AAXX 18124 07621 12882 61816 10230 20050 39593 40001 53007 60006 84282 91200=
07621,1996-05-18 15:00:00,18,1002.7,1.8,64,11,15000,11.112,,79.636,230,,,,0,,,,,,29,wg-a,,,,AAXX 18154 07621 12665 62306 10180 20110 39611 40027 53018 60007 72996 86990 91500 333 91043=
07621,1996-05-18 18:00:00,10,1006.4,2.4,87,8,10000,14.816,,79.636,280,9.8,23.6,,0,,,,,,25,wg-a,,,,AAXX 18184 07621 12360 72808 10100 20080 39635 40064 51024 60007 72598 8699/ 91800 333 10236 20098 91043=
07621,1996-05-19 00:00:00,8,1010.2,0.9,93,7,6000,11.112,,,260,,,,3,,,,,,61,wg-a,,,,AAXX 19004 07621 02256 72606 10080 20070 39665 40102 53009 60036 76186 878// 90000 333 60037=
07621,1996-05-19 03:00:00,8,1009.6,-0.7,93,7,10000,11.112,,,220,,,,3,,,,,,21,wg-a,,,,AAXX 19034 07621 12560 72206 10080 20070 39662 40096 56007 60037 72162 875// 90300=
07621,1996-05-19 06:00:00,8,1010.2,0.7,93,7,15000,3.704,,,140,7.4,9.8,,,,,7,,,2,wg-a,,,,AAXX 19064 07621 12465 71402 10080 20070 39669 40102 53007 60074 70262 875// 90600 333 10098 20074=
07621,1996-05-19 09:00:00,10,1011.1,1.2,76,6,500,3.704,,,20,,,,,,,,,,,wg-a,,,,AAXX 19094 07621 12500 70202 10100 20060 39681 40111 51012 60006 87800 90900=
07621,1996-05-19 12:00:00,14,1010,-0.6,58,6,500,11.112,,,50,,,,,,,,,,,wg-a,,,,AAXX 19124 07621 12600 /0506 10140 20060 39675 40100 58006 60006 86200 91200=
07621,1996-05-19 15:00:00,15,1009,-0.8,55,6,500,7.408,,,30,,,,,,,,,,,wg-a,,,,AAXX 19154 07621 12600 /0304 10150 20060 39667 40090 56008 60006 85102 91500=
07621,1996-05-19 17:00:00,15,1009.4,0.4,59,7,500,7.408,,,150,8,,,,,,,,,,wg-a,,,,AAXX 19174 07621 12600 61504 10150 20070 39671 40094 53004 60006 91700 333 20080=
07621,1996-05-19 18:00:00,15,1009.4,0.4,59,7,500,7.408,,,150,8,15.9,,,,,,,,,wg-a,,,,AAXX 19184 07621 12600 61504 10150 20070 39671 40094 53004 60006 84132 91800 333 10159 20080=
07621,1996-05-19 21:00:00,10,1010.9,0.7,87,8,25000,3.704,,,210,,,,,,,,,,,wg-a,,,,AAXX 19214 07621 12/75 22102 10100 20080 39678 40109 53007 60006 80002 92100=
07621,1996-05-20 00:00:00,8,1011,-0.1,93,7,20000,3.704,,,180,,,,,,,,,,,wg-a,,,,AAXX 20004 07621 12/70 81802 10080 20070 39677 40110 56001 60006 83072 90000=
07621,1996-05-20 03:00:00,7,1015.3,3.9,93,6,6000,29.632,,,270,,,,3,,,,,,61,wg-a,,,,AAXX 20034 07621 12456 82716 10070 20060 39716 40153 51039 60037 76162 885// 90300=
07621,1996-05-20 06:00:00,8,1017.7,2.4,93,7,20000,11.112,,,200,6.9,15.1,,,,,3,,,25,wg-a,,,,AAXX 20064 07621 02670 /2006 10080 20070 39740 40177 51024 60034 72586 85670 90600 333 10151 20069 61000=
07621,1996-05-20 09:00:00,13,1018.6,1.6,62,6,500,22.224,,,270,,,,,,,,,,,wg-a,,,,AAXX 20094 07621 12500 42712 10130 20060 39756 40186 51016 60006 84800 90900=
07621,1996-05-20 12:00:00,15,1018.9,0.7,59,7,500,22.224,,,290,,,,,,,,,,,wg-a,,,,AAXX 20124 07621 12600 32912 10150 20070 39763 40189 51007 60006 83200 91200=
07621,1996-05-20 15:00:00,16,1019.3,0.4,55,7,500,14.816,,,320,,,,,,,,,,,wg-a,,,,AAXX 20154 07621 12600 /3208 10160 20070 39767 40193 53004 60006 86200 91500=
07621,1996-05-20 18:00:00,15,1020.3,0.8,59,7,500,11.112,,,300,8,16.6,,,,,,,,,wg-a,,,,AAXX 20184 07621 12700 73006 10150 20070 39775 40203 52008 60006 87400 91800 333 10166 20080=
07621,1996-05-20 21:00:00,12,1022.6,1.8,82,9,20000,3.704,,,230,,,,,,,,,,,wg-a,,,,AAXX 20214 07621 12670 22302 10120 20090 39793 40226 53018 60006 82500 92100=
07621,1996-05-21 00:00:00,7,1023.4,0.1,93,6,20000,7.408,,,240,,,,,,,,,,,wg-a,,,,AAXX 21004 07621 12/70 02404 10070 20060 39794 40234 53001 60006 80000 90000=
07621,1996-05-21 03:00:00,9,1024.2,1.1,87,7,15000,11.112,,,250,,,,,,,,,,,wg-a,,,,AAXX 21034 07621 12/65 72506 10090 20070 39805 40242 53011 60006 82032 90300=
07621,1996-05-21 06:00:00,10,1025.8,1.6,87,8,500,7.408,,,240,7.2,14.7,,,,,,,,,wg-a,,,,AAXX 21064 07621 02500 52404 10100 20080 39821 40258 53016 60006 84830 90600 333 10147 20072 60004=
07621,1996-05-21 09:00:00,12,1026.9,1.3,76,8,20000,11.112,,,270,,,,,,,,,,,wg-a,,,,AAXX 21094 07621 12470 72706 10120 20080 39834 40269 51013 60006 878// 90900=
07621,1996-05-21 12:00:00,15,1026.4,0,59,7,25000,14.816,,,280,,,,,,,,,,,wg-a,,,,AAXX 21124 07621 12575 72808 10150 20070 39834 40264 50000 60006 878// 91200=
07621,1996-05-21 15:00:00,14,1027.4,0.9,67,8,20000,22.224,,,300,,,,,,,,,,,wg-a,,,,AAXX 21154 07621 12570 73012 10140 20080 39843 40274 53009 60006 878// 91500=
07621,1996-05-21 18:00:00,13,1028.4,0.7,72,8,20000,11.112,,,250,10.2,15.7,,,,,,,,,wg-a,,,,AAXX 21184 07621 12570 72506 10130 20080 39850 40284 53007 60006 878// 91800 333 10157 20102=
07621,1996-05-21 21:00:00,11,1030,1.3,82,8,20000,7.408,,,230,,,,,,,,,,,wg-a,,,,AAXX 21214 07621 12770 /2304 10110 20080 39863 40300 53013 60006 85502 92100=
07621,1996-05-22 00:00:00,8,1030.4,-0.2,87,6,20000,3.704,,,180,,,,,,,,,,,wg-a,,,,AAXX 22004 07621 12770 21802 10080 20060 39861 40304 56002 60006 82502 90000=
07621,1996-05-22 06:00:00,6,1027.8,-0.5,100,6,500,3.704,,,220,4.4,12.7,,,,,,,,,wg-a,,,,AAXX 22064 07621 02/00 42202 10060 20060 39834 40278 55005 60006 80002 90600 333 10127 20044 60004=
07621,1996-05-22 09:00:00,15,1026.1,-0.3,67,9,35000,7.408,,,80,,,,,,,,,,,wg-a,,,,AAXX 22094 07621 12/81 20804 10150 20090 39831 40261 57003 60006 80002 90900=
07621,1996-05-22 12:00:00,20,1024.5,-0.8,49,9,35000,3.704,,,330,,,,,,,,,,,wg-a,,,,AAXX 22124 07621 12/81 33302 10200 20090 39823 40245 57008 60006 80002 91200=
07621,1996-05-22 18:00:00,20,1024.3,0.5,43,7,35000,11.112,,,320,6.3,21.8,,,,,,,,,wg-a,,,,AAXX 22184 07621 32/81 63206 10200 20070 39822 40243 53005 83072 91800 333 10218 20063=
07621,1996-05-22 21:00:00,17,1026.4,1.5,59,9,25000,14.816,,,280,,,,,,,,,,,wg-a,,,,AAXX 22214 07621 12/75 72808 10170 20090 39837 40264 53015 60006 85072 92100=
07621,1996-05-23 00:00:00,12,1027.1,0,82,9,25000,7.408,,,200,,,,,,,,,,,wg-a,,,,AAXX 23004 07621 12/75 52004 10120 20090 39837 40271 50000 60006 83032 90000=
07621,1996-05-23 03:00:00,10,1026.7,-0.8,87,8,20000,3.704,,,160,,,,,,,,,,,wg-a,,,,AAXX 23034 07621 12/70 41602 10100 20080 39829 40267 56008 60006 81032 90300=
07621,1996-05-23 06:00:00,11,1026.5,0,82,8,50000,0,,,0,8.5,20.3,,,,,,,,,wg-a,,,,AAXX 23064 07621 02/84 50000 10110 20080 39829 40265 50000 60006 80001 90600 333 10203 20085 60004=
07621,1996-05-23 09:00:00,17,1025.1,-0.5,52,7,50000,11.112,,,30,,,,,,,,,,,wg-a,,,,AAXX 23094 07621 12/84 30306 10170 20070 39824 40251 58005 60006 80001 90900=
07621,1996-05-23 12:00:00,21,1022.6,-1.7,49,10,50000,11.112,,,50,,,,,,,,,,,wg-a,,,,AAXX 23124 07621 12/84 10506 10210 20100 39807 40226 58017 60006 80001 91200=
07621,1996-05-23 18:00:00,23,1018.7,-1.2,47,11,500,11.112,,,70,10.6,24.3,,,,,,,,,wg-a,,,,AAXX 23184 07621 12800 /0706 10230 20110 39773 40187 56012 60006 81100 91800 333 10243 20106=
07621,1996-05-23 21:00:00,19,1019.1,-0.3,60,11,500,7.408,,,130,,,,,,,,,,,wg-a,,,,AAXX 23214 07621 12/00 11304 10190 20110 39770 40191 57003 60006 80001 92100=
07621,1996-05-24 00:00:00,13,1018.6,-1.3,88,11,500,3.704,,,260,,,,,,,,,,,wg-a,,,,AAXX 24004 07621 12/00 12602 10130 20110 39757 40186 58013 60006 80001 90000=
07621,1996-05-24 03:00:00,17,1016.5,-1.5,59,9,500,7.408,,,140,,,,,,,,,,,wg-a,,,,AAXX 24034 07621 12/00 11404 10170 20090 39742 40165 56015 60006 80001 90300=
07621,1996-05-24 06:00:00,17,1016.9,0.5,68,11,50000,3.704,,,30,12.4,23.3,,,,,,,,,wg-a,,,,AAXX 24064 07621 02/84 /0302 10170 20110 39747 40169 53005 60006 81080 90600 333 10233 20124 60004=
07621,1996-05-24 09:00:00,21,1016.4,0.1,69,15,50000,7.408,,,40,,,,,,,,,,,wg-a,,,,AAXX 24094 07621 12784 /0404 10210 20150 39748 40164 51001 60006 81180 90900=
07621,1996-05-24 15:00:00,25,1013.9,-1.1,54,15,40000,3.704,,,50,,,,,,,,,,,wg-a,,,,AAXX 24154 07621 12/82 40502 10250 20150 39730 40139 57011 60006 83082 91500=
07621,1996-05-24 18:00:00,23,1014.1,-0.1,65,16,40000,14.816,,,10,16.9,25.5,,,,,,,,,wg-a,,,,AAXX 24184 07621 12682 /0108 10230 20160 39729 40141 55001 60006 82302 91800 333 10255 20169=
07621,1996-05-24 21:00:00,14,1019.2,3.5,94,13,10000,22.224,,,260,,,,0,,,,,,80,wg-a,,,,AAXX 24214 07621 12360 72612 10140 20130 39764 40192 53035 60007 78098 879// 92100=
07621,1996-05-25 00:00:00,13,1018.9,-0.4,94,12,15000,11.112,,,310,,,,,,,,,,1,wg-a,,,,AAXX 25004 07621 02265 73106 10130 20120 39760 40189 56004 60006 70198 875// 90000 333 61000=
07621,1996-05-25 03:00:00,13,1018.6,-0.3,94,12,8000,3.704,,,340,,,,,,,,,,,wg-a,,,,AAXX 25034 07621 12458 73402 10130 20120 39757 40186 56003 60006 875// 90300=
07621,1996-05-25 06:00:00,13,1017.7,-0.8,94,12,6000,3.704,,,20,12.5,23.2,,,,,,,,,wg-a,,,,AAXX 25064 07621 12256 80202 10130 20120 39749 40177 56008 60004 885// 90600 333 10232 20125=
07621,1996-05-25 09:00:00,17,1017.1,0,77,13,15000,3.704,,,270,,,,,,,,,,,wg-a,,,,AAXX 25094 07621 12465 /2702 10170 20130 39749 40171 50000 60006 83802 90900=
07621,1996-05-25 12:00:00,21,1016.2,-0.3,53,11,25000,7.408,,,360,,,,,,,,,,,wg-a,,,,AAXX 25124 07621 12675 /3604 10210 20110 39746 40162 55003 60006 82202 91200=
07621,1996-05-25 15:00:00,22,1017.1,0.9,57,13,25000,14.816,,,330,,,,,,,,,,,wg-a,,,,AAXX 25154 07621 12675 73308 10220 20130 39755 40171 53009 60006 872// 91500=
07621,1996-05-26 06:00:00,15,1023.5,1.3,94,14,12000,14.816,,,270,14.3,20.8,,,,,,,,50,wg-a,,,,AAXX 26064 07621 02262 82708 10150 20140 39807 40235 53013 61000 75052 885// 90600 333 10208 20143 6100=
07621,1996-05-26 09:00:00,16,1024.7,1.3,94,15,10000,14.816,,,270,,,,,,,,,,20,wg-a,,,,AAXX 26094 07621 02460 72708 10160 20150 39820 40247 51013 61000 72052 878// 90900 333 ////=
07621,1996-05-26 12:00:00,20,1023.6,-0.5,60,12,15000,18.52,,,280,,,,,,,,,,1,wg-a,,,,AAXX 26124 07621 02565 /2810 10200 20120 39815 40236 56005 61000 70152 85500 91200 333 ////=
07621,1996-05-26 15:00:00,21,1023.2,-0.2,56,12,25000,18.52,,,300,,,,,,,,,,,wg-a,,,,AAXX 26154 07621 12675 23010 10210 20120 39813 40232 58002 60006 81501 91500=
07621,1996-05-26 18:00:00,19,1023.2,-0.3,68,13,25000,18.52,,,300,14.2,21.4,,,,,,,,,wg-a,,,,AAXX 26184 07621 32675 43010 10190 20130 39810 40232 55003 81502 91800 333 10214 20142=
07621,1996-05-26 21:00:00,16,1025,1.3,77,12,15000,11.112,,,300,,,,,,,,,,,wg-a,,,,AAXX 26214 07621 12565 43006 10160 20120 39823 40250 53013 60006 84502 92100=
07621,1996-05-27 00:00:00,15,1024.4,-0.7,88,13,8000,11.112,,,220,,,,,,,,,,,wg-a,,,,AAXX 27004 07621 12658 /2206 10150 20130 39816 40244 58007 60006 85502 90000=
07621,1996-05-27 03:00:00,15,1024.2,-0.3,88,13,8000,14.816,,,270,,,,,,,,,,,wg-a,,,,AAXX 27034 07621 12658 72708 10150 20130 39813 40242 55003 60006 875// 90300=
07621,1996-05-27 06:00:00,16,1024.3,0.2,77,12,20000,14.816,,,260,14.6,19.2,,,,,,,,,wg-a,,,,AAXX 27064 07621 02670 72608 10160 20120 39815 40243 53002 60006 8553/ 90600 333 10192 20146 61000=
07621,1996-05-27 12:00:00,20,1023.7,0,56,11,20000,35.188,,57.412,290,,,,,,,,,,2,wg-a,,,,AAXX 27124 07621 02570 52919 10200 20110 39816 40237 50000 61000 70252 82201 91200 333 6100 91031=
07621,1996-05-27 15:00:00,20,1023.9,0.2,60,12,25000,35.188,,57.412,280,,,,,,,,,,,wg-a,,,,AAXX 27154 07621 12575 32819 10200 20120 39818 40239 51002 60006 82201 91500 333 91031=
07621,1996-05-27 18:00:00,17,1024.7,0.3,72,12,20000,31.484,,61.116,280,15.6,20.7,,,,,,,,,wg-a,,,,AAXX 27184 07621 32570 32817 10170 20120 39821 40247 51003 81401 91800 333 10207 20156 91033=
07621,1996-05-27 21:00:00,13,1027.5,2.1,88,11,15000,18.52,,,260,,,,,,,,,,,wg-a,,,,AAXX 27214 07621 12565 32610 10130 20110 39842 40275 53021 60006 83500 92100=
07621,1996-05-28 00:00:00,11,1027.3,-0.5,94,10,15000,7.408,,,250,,,,,,,,,,,wg-a,,,,AAXX 28004 07621 12565 32504 10110 20100 39837 40273 58005 60006 83500 90000=
07621,1996-05-28 03:00:00,12,1027.1,-0.1,88,10,9000,11.112,,,260,,,,,,,,,,,wg-a,,,,AAXX 28034 07621 12359 72606 10120 20100 39836 40271 58001 60006 876// 90300=
07621,1996-05-28 06:00:00,12,1027.2,0.1,88,10,12000,7.408,,,210,10.4,17.1,,,,,,,,,wg-a,,,,AAXX 28064 07621 02462 72104 10120 20100 39837 40272 53001 60006 875// 90600 333 10171 20104 61000=
07621,1996-05-28 09:00:00,14,1027.1,0.3,77,10,15000,11.112,,,310,,,,,,,,,,,wg-a,,,,AAXX 28094 07621 12465 73106 10140 20100 39840 40271 52003 60006 878// 90900=
07621,1996-05-28 12:00:00,17,1026.1,-0.5,68,11,15000,3.704,,,160,,,,,,,,,,,wg-a,,,,AAXX 28124 07621 12565 /1602 10170 20110 39835 40261 58005 60006 86800 91200=
07621,1996-05-28 15:00:00,20,1023.5,-2.1,56,11,500,7.408,,,300,,,,,,,,,,,wg-a,,,,AAXX 28154 07621 12600 /3004 10200 20110 39814 40235 57021 60006 81100 91500=
07621,1996-05-28 18:00:00,19,1023.1,-0.5,64,12,20000,7.408,,,10,11.7,20.5,,,,,,,,,wg-a,,,,AAXX 28184 07621 12/70 10104 10190 20120 39809 40231 56005 60006 80002 91800 333 10205 20117=
07621,1996-05-28 21:00:00,14,1024.5,0.6,82,11,20000,3.704,,,190,,,,,,,,,,,wg-a,,,,AAXX 28214 07621 12/70 01902 10140 20110 39815 40245 52006 60006 80000 92100=
07621,1996-05-29 00:00:00,11,1024.1,-0.8,94,10,20000,3.704,,,180,,,,,,,,,,,wg-a,,,,AAXX 29004 07621 12/70 01802 10110 20100 39807 40241 58008 60006 80000 90000=
07621,1996-05-29 03:00:00,10,1022.6,-1.6,93,9,20000,3.704,,,180,,,,,,,,,,,wg-a,,,,AAXX 29034 07621 12/70 01802 10100 20090 39791 40226 56016 60006 80000 90300=
07621,1996-05-29 06:00:00,12,1022.5,0.1,88,10,20000,3.704,,,120,9.3,19.2,,,,,,,,,wg-a,,,,AAXX 29064 07621 02/70 01202 10120 20100 39792 40225 52001 60006 80000 90600 333 10192 20093 60004=
07621,1996-05-29 09:00:00,19,1021.1,-0.2,68,13,20000,7.408,,,40,,,,,,,,,,,wg-a,,,,AAXX 29094 07621 12/70 00404 10190 20130 39790 40211 58002 60006 80000 90900=
07621,1996-05-29 12:00:00,23,1019.4,-1.1,50,12,500,11.112,,,50,,,,,,,,,,,wg-a,,,,AAXX 29124 07621 12/00 00506 10230 20120 39779 40194 58011 60006 80000 91200=
07621,1996-05-29 15:00:00,25,1017.8,-1.3,36,9,500,7.408,,,40,,,,,,,,,,,wg-a,,,,AAXX 29154 07621 12/00 00404 10250 20090 39766 40178 56013 60006 80000 91500=
07621,1996-05-29 18:00:00,25,1016.8,-1,39,10,500,7.408,,,50,11.8,25.6,,,,,,,,,wg-a,,,,AAXX 29184 07621 12/00 00504 10250 20100 39756 40168 56010 60006 80000 91800 333 10256 20118=
07621,1996-05-29 21:00:00,18,1018.9,1.1,68,12,500,3.704,,,180,,,,,,,,,,,wg-a,,,,AAXX 29214 07621 12/00 01802 10180 20120 39767 40189 53011 60006 80000 92100=
07621,1996-05-30 00:00:00,14,1018,-1.4,88,12,500,3.704,,,200,,,,,,,,,,,wg-a,,,,AAXX 30004 07621 12/00 02002 10140 20120 39753 40180 58014 60006 80000 90000=
07621,1996-05-30 03:00:00,13,1016.8,-1.3,88,11,15000,3.704,,,190,,,,,,,,,,,wg-a,,,,AAXX 30034 07621 12/65 01902 10130 20110 39740 40168 56013 60006 80000 90300=
07621,1996-05-30 06:00:00,15,1015.7,-0.7,82,12,50000,7.408,,,160,12.2,24.7,,,,,,,,,wg-a,,,,AAXX 30064 07621 02/84 01604 10150 20120 39733 40157 56007 60006 80000 90600 333 10247 20122 60004=
07621,1996-05-30 09:00:00,25,1014.8,0.5,57,16,50000,7.408,,,30,,,,,,,,,,,wg-a,,,,AAXX 30094 07621 12/84 00304 10250 20160 39738 40148 51005 60006 80000 90900=
07621,1996-05-30 12:00:00,30,1013.8,-0.3,43,16,50000,11.112,,,70,,,,,,,,,,,wg-a,,,,AAXX 30124 07621 12/84 /0706 10300 20160 39735 40138 58003 60006 81080 91200=
07621,1996-05-30 15:00:00,31,1013.5,-0.2,36,14,50000,7.408,,,70,,,,,,,,,,,wg-a,,,,AAXX 30154 07621 12/84 /0704 10310 20140 39733 40135 57002 60006 81080 91500=
07621,1996-05-30 18:00:00,30,1013.9,0.2,43,16,50000,7.408,,,60,15.5,31.1,,,,,,,,,wg-a,,,,AAXX 30184 07621 12884 /0604 10300 20160 39735 40139 53002 60006 81080 91800 333 10311 20155=
07621,1996-05-30 21:00:00,21,1017.7,2.6,73,16,20000,29.632,,,290,,,,,,,,,,,wg-a,,,,AAXX 30214 07621 12/70 /2916 10210 20160 39761 40177 53026 60006 81030 92100=
07621,1996-05-31 00:00:00,16,1021.4,2.7,88,14,8000,22.224,,,280,,,,,,,,,,,wg-a,,,,AAXX 31004 07621 12358 82812 10160 20140 39788 40214 51027 60006 886// 90000=
07621,1996-05-31 03:00:00,14,1022.9,1.2,94,13,6000,11.112,,,280,,,,,,,,,,,wg-a,,,,AAXX 31034 07621 12356 82806 10140 20130 39800 40229 52012 60006 886// 90300=
07621,1996-05-31 06:00:00,14,1024.2,1.3,88,12,12000,7.408,,,230,13.8,29.4,,,,,,,,,wg-a,,,,AAXX 31064 07621 02462 82304 10140 20120 39813 40242 51013 60006 886// 90600 333 10294 20138 60004=
07621,1996-05-31 09:00:00,16,1023.8,-0.2,82,13,12000,3.704,,,30,,,,,,,,,,,wg-a,,,,AAXX 31094 07621 12462 80302 10160 20130 39811 40238 58002 60006 885// 90900=
07621,1996-05-31 12:00:00,18,1023.3,-0.2,73,13,15000,11.112,,,290,,,,,,,,,,,wg-a,,,,AAXX 31124 07621 12565 72906 10180 20130 39809 40233 58002 60006 875// 91200=
07621,1996-05-31 15:00:00,17,1022.4,-0.9,82,14,15000,11.112,,,340,,,,,,,,,,,wg-a,,,,AAXX 31154 07621 12565 83406 10170 20140 39800 40224 58009 60006 888// 91500=
07621,1996-05-31 18:00:00,17,1023.7,1.1,82,14,10000,14.816,,,260,14.2,18,,,,,,,,,wg-a,,,,AAXX 31184 07621 12560 82608 10170 20140 39811 40237 53011 60006 889// 91800 333 10180 20142=
07621,1996-05-31 21:00:00,14,1025.7,1.6,100,14,8000,11.112,,,270,,,,2,,,,,,61,wg-a,,,,AAXX 31214 07621 12258 82706 10140 20140 39827 40257 53016 60027 76162 8698/ 92100=
07621,1996-06-01 00:00:00,13,1026,0.1,94,12,6000,14.816,,,280,,,,10,,,,,,60,wg-a,,,,AAXX 01004 07621 02256 82808 10130 20120 39828 40260 51001 60126 76062 8658/ 90000 333 60107=
07621,1996-06-01 03:00:00,12,1025.5,-0.6,100,12,2000,3.704,,,300,,,,0,,,,,,51,wg-a,,,,AAXX 01034 07621 12220 83002 10120 20120 39822 40255 58006 60007 75165 865// 90300=
07621,1996-06-01 06:00:00,11,1026.5,0.8,100,11,1800,11.112,,,360,11.1,16.5,,2,,,14,,,61,wg-a,,,,AAXX 01064 07621 02218 83606 10110 20110 39830 40265 53008 60144 76165 875// 90600 333 10165 20111 60027=
07621,1996-06-01 09:00:00,11,1027,0.4,94,10,2500,11.112,,,30,,,,1,,,,,,10,wg-a,,,,AAXX 01094 07621 12125 80306 10110 20100 39834 40270 51004 60017 71065 887// 90900=
07621,1996-06-01 12:00:00,11,1026.3,-0.6,94,10,500,3.704,,,60,,,,6,,,,,,61,wg-a,,,,AAXX 01124 07621 02300 80602 10110 20100 39828 40263 58006 60076 76165 885// 91200 333 60067=
07621,1996-06-01 15:00:00,12,1025.1,-1.1,82,9,15000,3.704,,,10,,,,4,,,,,,1,wg-a,,,,AAXX 01154 07621 12465 80102 10120 20090 39817 40251 58011 60047 70162 888// 91500=
07621,1996-06-01 18:00:00,11,1024.5,-0.7,87,9,15000,7.408,,,170,10.4,11.9,,0,,,,,,21,wg-a,,,,AAXX 01184 07621 12465 71704 10110 20090 39810 40245 58007 60007 72162 8587/ 91800 333 10119 20104=
07621,1996-06-01 21:00:00,10,1023.7,-0.9,87,8,15000,3.704,,,170,,,,,,,,,,,wg-a,,,,AAXX 01214 07621 12565 71702 10100 20080 39801 40237 57009 60006 878// 92100=
07621,1996-06-02 00:00:00,10,1021.8,-1.8,93,9,10000,3.704,,,270,,,,,,,,,,,wg-a,,,,AAXX 02004 07621 12560 72702 10100 20090 39783 40218 58018 60006 878// 90000=
07621,1996-06-02 03:00:00,10,1019.5,-2.2,93,9,10000,3.704,,,290,,,,,,,,,,,wg-a,,,,AAXX 02034 07621 12360 72902 10100 20090 39761 40195 56022 60006 875// 90300=
07621,1996-06-02 06:00:00,10,1018.6,-0.9,93,9,7000,0,,,0,9.9,10.9,,2,,,13,,,61,wg-a,,,,AAXX 02064 07621 02357 80000 10100 20090 39752 40186 56009 60134 76162 8752/ 90600 333 10109 20099 60027=
07621,1996-06-02 09:00:00,10,1018.2,-0.3,100,10,500,11.112,,,10,,,,2,,,,,,60,wg-a,,,,AAXX 02094 07621 12100 80106 10100 20100 39749 40182 57003 60027 76066 8752/ 90900=
07621,1996-06-02 12:00:00,11,1017.6,-0.4,94,10,8000,11.112,,,360,,,,2,,,,,,21,wg-a,,,,AAXX 02124 07621 02358 83606 10110 20100 39745 40176 56004 60046 72162 8782/ 91200 333 60027=
07621,1996-06-02 15:00:00,11,1017.8,0.1,94,10,10000,7.408,,,240,,,,1,,,,,,,wg-a,,,,AAXX 02154 07621 12360 82404 10110 20100 39746 40178 50001 60017 888// 91500=
07621,1996-06-02 18:00:00,10,1018.4,0.4,93,9,10000,7.408,,,200,9.6,11.5,,4,,,,,,60,wg-a,,,,AAXX 02184 07621 12460 82004 10100 20090 39750 40184 51004 60047 76086 888// 91800 333 10115 20096=
07621,1996-06-02 21:00:00,10,1020.2,1.7,93,9,15000,7.408,,,230,,,,0,,,,,,2,wg-a,,,,AAXX 02214 07621 12565 82304 10100 20090 39767 40202 53017 60007 70262 878// 92100=
07621,1996-06-03 06:00:00,10,1023,1.6,93,9,20000,11.112,,,220,8.6,10.1,,,,,10,,,,wg-a,,,,AAXX 03064 07621 12470 22206 10100 20090 39794 40230 53016 60104 82800 90600 333 10101 20086=
07621,1996-06-03 12:00:00,16,1023.6,0.3,63,9,25000,0,,,0,,,,,,,,,,,wg-a,,,,AAXX 03124 07621 12575 70000 10160 20090 39808 40236 52003 60006 872// 91200=
07621,1996-06-03 15:00:00,18,1022.6,-0.6,52,8,25000,7.408,,,300,,,,,,,,,,,wg-a,,,,AAXX 03154 07621 12675 53004 10180 20080 39802 40226 58006 60006 85200 91500=
07621,1996-06-03 21:00:00,14,1025.2,1.4,88,12,15000,3.704,,,220,,,,,,,,,,,wg-a,,,,AAXX 03214 07621 12765 72202 10140 20120 39822 40252 53014 60006 875// 92100=
07621,1996-06-04 00:00:00,12,1025.8,0.3,94,11,15000,7.408,,,270,,,,,,,,,,,wg-a,,,,AAXX 04004 07621 12765 42704 10120 20110 39825 40258 53003 60006 845/0 90000=
07621,1996-06-04 03:00:00,12,1025.8,-0.1,94,11,15000,7.408,,,160,,,,,,,,,,,wg-a,,,,AAXX 04034 07621 12665 71604 10120 20110 39824 40258 58001 60006 875// 90300=
07621,1996-06-04 06:00:00,12,1026.1,0.3,88,10,35000,7.408,,,170,9.9,16.4,,,,,,,,,wg-a,,,,AAXX 04064 07621 02681 /1704 10120 20100 39827 40261 51003 60006 81500 90600 333 10164 20099 60004=
07621,1996-06-04 09:00:00,18,1024.7,-0.4,73,13,50000,18.52,,,20,,,,,,,,,,,wg-a,,,,AAXX 04094 07621 12684 /0210 10180 20130 39823 40247 58004 60006 81100 90900=
07621,1996-06-04 12:00:00,21,1023.5,-0.7,49,10,50000,18.52,,,60,,,,,,,,,,,wg-a,,,,AAXX 04124 07621 12784 20610 10210 20100 39816 40235 57007 60006 82800 91200=
07621,1996-06-04 15:00:00,22,1022.5,-0.8,53,12,50000,11.112,,,70,,,,,,,,,,,wg-a,,,,AAXX 04154 07621 12784 20706 10220 20120 39808 40225 56008 60006 82800 91500=
07621,1996-06-04 18:00:00,22,1022,-0.6,53,12,40000,11.112,,,60,11.7,22.7,,,,,,,,,wg-a,,,,AAXX 04184 07621 12882 /0606 10220 20120 39802 40220 56006 60006 81500 91800 333 10227 20117=
07621,1996-06-04 21:00:00,16,1023.6,0.7,82,13,25000,3.704,,,210,,,,,,,,,,,wg-a,,,,AAXX 04214 07621 12/75 02102 10160 20130 39809 40236 53007 60006 80000 92100=
07621,1996-06-05 00:00:00,14,1023,-0.8,88,12,10000,7.408,,,180,,,,,,,,,,,wg-a,,,,AAXX 05004 07621 12/60 /1804 10140 20120 39801 40230 58008 60006 90000=
07621,1996-06-05 03:00:00,13,1021.9,-1.3,88,11,26000,3.704,,,130,,,,,,,,,,,wg-a,,,,AAXX 05034 07621 12/76 01302 10130 20110 39788 40219 57013 60006 80000 90300=
07621,1996-06-05 06:00:00,14,1021.6,-0.1,88,12,40000,0,,,0,11,21.6,,,,,,,,,wg-a,,,,AAXX 05064 07621 02/82 00000 10140 20120 39787 40216 58001 60006 80000 90600 333 10216 20110 60004=
07621,1996-06-05 09:00:00,23,1019.9,-0.3,65,16,50000,7.408,,,360,,,,,,,,,,,wg-a,,,,AAXX 05094 07621 12/84 03604 10230 20160 39784 40199 58003 60006 80000 90900=
07621,1996-06-05 12:00:00,27,1018.8,-0.5,48,15,50000,11.112,,,40,,,,,,,,,,,wg-a,,,,AAXX 05124 07621 12884 /0406 10270 20150 39779 40188 58005 60006 81100 91200=
07621,1996-06-05 15:00:00,28,1018.1,-0.6,42,14,50000,14.816,,,50,,,,,,,,,,,wg-a,,,,AAXX 05154 07621 12884 /0508 10280 20140 39773 40181 57006 60006 81100 91500=
07621,1996-06-05 18:00:00,27,1018,-0.2,39,12,50000,7.408,,,50,14,28.1,,,,,,,,,wg-a,,,,AAXX 05184 07621 12884 /0504 10270 20120 39771 40180 55002 60006 81100 91800 333 10281 20140=
07621,1996-06-05 21:00:00,20,1019.3,0.4,73,15,50000,7.408,,,170,,,,,,,,,,,wg-a,,,,AAXX 05214 07621 12/84 01704 10200 20150 39775 40193 53004 60006 80000 92100=
07621,1996-06-06 00:00:00,19,1019,-0.6,73,14,20000,11.112,,,190,,,,,,,,,,,wg-a,,,,AAXX 06004 07621 12/70 01906 10190 20140 39769 40190 58006 60006 80000 90000=
07621,1996-06-06 03:00:00,19,1018.1,-0.8,64,12,50000,7.408,,,150,,,,,,,,,,,wg-a,,,,AAXX 06034 07621 12/84 01504 10190 20120 39761 40181 56008 60006 80000 90300=
07621,1996-06-06 06:00:00,22,1018.3,0.6,53,12,50000,3.704,,,150,17.7,26.8,,,,,,,,,wg-a,,,,AAXX 06064 07621 02/84 /1502 10220 20120 39767 40183 53006 60006 81080 90600 333 10268 20177 60004=
07621,1996-06-06 09:00:00,26,1018.5,0.8,48,14,50000,11.112,,,20,,,,,,,,,,,wg-a,,,,AAXX 06094 07621 12/84 20206 10260 20140 39775 40185 51008 60006 82080 90900=
07621,1996-06-06 12:00:00,29,1017.4,-0.7,43,15,0,7.408,,,360,,,,,,,,,,,wg-a,,,,AAXX 06124 07621 12/// /3604 10290 20150 39768 40174 57007 60006 91200=
07621,1996-06-06 15:00:00,30,1016.1,-1.1,43,16,11000,7.408,,,70,,,,,,,,,,,wg-a,,,,AAXX 06154 07621 12/61 /0704 10300 20160 39757 40161 58011 60006 91500=
07621,1996-06-06 18:00:00,29,1015.9,-0.4,45,16,40000,11.112,,,40,21.8,30.3,,,,,,,,,wg-a,,,,AAXX 06184 07621 12882 /0406 10290 20160 39753 40159 56004 60006 81201 91800 333 10303 20218=
07621,1996-06-06 21:00:00,22,1017.1,0.4,83,19,20000,3.704,,,210,,,,,,,,,,,wg-a,,,,AAXX 06214 07621 12/70 /2102 10220 20190 39757 40171 53004 60006 81080 92100=
07621,1996-06-07 00:00:00,21,1016.5,-0.8,69,15,20000,3.704,,,140,,,,,,,,,,,wg-a,,,,AAXX 07004 07621 12/70 01402 10210 20150 39749 40165 58008 60006 80000 90000=
07621,1996-06-07 03:00:00,21,1015.8,-0.8,49,10,20000,3.704,,,180,,,,,,,,,,,wg-a,,,,AAXX 07034 07621 12/70 01802 10210 20100 39741 40158 56008 60006 80000 90300=
07621,1996-06-07 06:00:00,23,1015.6,0.2,47,11,50000,7.408,,,150,19.7,28.5,,,,,,,,,wg-a,,,,AAXX 07064 07621 02/84 01504 10230 20110 39743 40156 53002 60006 80000 90600 333 10285 20197 60004=
07621,1996-06-07 09:00:00,29,1014.9,0.1,37,13,50000,3.704,,,110,,,,,,,,,,,wg-a,,,,AAXX 07094 07621 12/84 11102 10290 20130 39744 40149 50001 60006 80001 90900=
07621,1996-06-07 12:00:00,31,1014.2,-0.5,36,14,50000,7.408,,,60,,,,,,,,,,,wg-a,,,,AAXX 07124 07621 12884 20604 10310 20140 39739 40142 57005 60006 81182 91200=
07621,1996-06-07 15:00:00,31,1013.7,-0.4,40,16,40000,11.112,,,80,,,,,,,,,,,wg-a,,,,AAXX 07154 07621 12882 40806 10310 20160 39735 40137 56004 60006 81182 91500=
07621,1996-06-07 18:00:00,28,1013.1,-0.9,55,18,500,7.408,,,60,23.3,31,,,,,,,,,wg-a,,,,AAXX 07184 07621 12/00 /0604 10280 20180 39726 40131 56009 60006 84082 91800 333 10310 20233=
07621,1996-06-07 21:00:00,22,1014.7,0.8,83,19,500,3.704,,,220,,,,,,,,,,,wg-a,,,,AAXX 07214 07621 12/00 72202 10220 20190 39734 40147 53008 60006 81082 92100=
07621,1996-06-08 00:00:00,16,1022.4,6.5,88,14,10000,22.224,,57.412,260,,,,,,,,,,,wg-a,,,,AAXX 08004 07621 12460 82612 10160 20140 39799 40224 51065 60006 877// 90000 333 91031=
07621,1996-06-08 03:00:00,17,1021.6,-0.7,88,15,10000,11.112,,,130,,,,,,,,,,,wg-a,,,,AAXX 08034 07621 12560 81306 10170 20150 39792 40216 58007 60006 877// 90300=
07621,1996-06-08 06:00:00,17,1020.6,-0.9,88,15,25000,3.704,,,360,16.3,28,,,,,,,,25,wg-a,,,,AAXX 08064 07621 02/75 53602 10170 20150 39783 40206 55009 61000 72586 85080 90600 333 10280 20163 6100=
07621,1996-06-08 09:00:00,22,1021.3,1.2,57,13,20000,11.112,,,60,,,,,,,,,,,wg-a,,,,AAXX 08094 07621 12670 40606 10220 20130 39795 40213 51012 60006 84200 90900=
07621,1996-06-08 12:00:00,21,1022,0.6,73,16,20000,11.112,,,310,,,,,,,,,,,wg-a,,,,AAXX 08124 07621 12670 73106 10210 20160 39801 40220 51006 60006 8688/ 91200=
07621,1996-06-08 15:00:00,22,1021.2,-0.6,65,15,20000,7.408,,,30,,,,,,,,,,,wg-a,,,,AAXX 08154 07621 12570 70304 10220 20150 39795 40212 56006 60006 8628/ 91500=
07621,1996-06-08 18:00:00,21,1021.1,-0.2,78,17,20000,11.112,,,270,17,22.4,,,,,,,,,wg-a,,,,AAXX 08184 07621 12570 72706 10210 20170 39793 40211 55002 60006 8628/ 91800 333 10224 20170=
07621,1996-06-08 21:00:00,18,1022.7,1.1,88,16,500,11.112,,,280,,,,,,,,,,,wg-a,,,,AAXX 08214 07621 12600 72806 10180 20160 39804 40227 53011 60006 8558/ 92100=
07621,1996-06-09 00:00:00,17,1022.8,0,94,16,8000,7.408,,,280,,,,,,,,,,,wg-a,,,,AAXX 09004 07621 12358 72804 10170 20160 39804 40228 50000 60006 875// 90000=
07621,1996-06-09 03:00:00,17,1021.7,-1.1,94,16,2000,7.408,,,330,,,,,,,,,,10,wg-a,,,,AAXX 09034 07621 12220 73304 10170 20160 39793 40217 56011 60006 71022 877// 90300=
07621,1996-06-09 06:00:00,17,1021,-0.6,94,16,1500,3.704,,,80,16.6,20.8,,,,,,,,10,wg-a,,,,AAXX 09064 07621 02215 80802 10170 20160 39787 40210 58006 60006 71022 886// 90600 333 10208 20166 60004=
07621,1996-06-09 09:00:00,21,1020.1,-0.3,78,17,6000,3.704,,,60,,,,,,,,,,,wg-a,,,,AAXX 09094 07621 12/56 /0602 10210 20170 39784 40201 56003 60006 90900=
07621,1996-06-09 12:00:00,26,1018.8,-0.6,65,19,12000,7.408,,,50,,,,,,,,,,,wg-a,,,,AAXX 09124 07621 12562 30504 10260 20190 39778 40188 58006 60006 83200 91200=
07621,1996-06-09 15:00:00,27,1017.3,-1.2,58,18,15000,11.112,,,60,,,,,,,,,,,wg-a,,,,AAXX 09154 07621 12665 30606 10270 20180 39766 40173 56012 60006 82280 91500=
07621,1996-06-09 18:00:00,27,1017.5,0.1,58,18,15000,7.408,,,80,17.4,27.7,,,,,,,,,wg-a,,,,AAXX 09184 07621 12665 50804 10270 20180 39767 40175 53001 60006 82380 91800 333 10277 20174=
07621,1996-06-09 21:00:00,22,1019.5,1.2,73,17,15000,7.408,,,210,,,,,,,,,,1,wg-a,,,,AAXX 09214 07621 12665 52104 10220 20170 39779 40195 53012 60006 70192 82980 92100=
07621,1996-06-10 00:00:00,18,1021.1,1,88,16,500,11.112,,,270,,,,,,,,,,3,wg-a,,,,AAXX 10004 07621 12200 72706 10180 20160 39789 40211 51010 60006 70391 876// 90000=
07621,1996-06-10 03:00:00,17,1021,-0.2,94,16,500,7.408,,,280,,,,,,,,,,,wg-a,,,,AAXX 10034 07621 12200 72804 10170 20160 39787 40210 58002 60006 876// 90300=
07621,1996-06-10 06:00:00,17,1022,0.9,94,16,4500,3.704,,,350,16.9,26.8,,,,,,,,10,wg-a,,,,AAXX 10064 07621 02245 83502 10170 20160 39796 40220 51009 60006 71022 886// 90600 333 10268 20169 60004=
07621,1996-06-10 09:00:00,20,1021.7,0.1,78,16,6000,7.408,,,10,,,,,,,,,,,wg-a,,,,AAXX 10094 07621 12456 70104 10200 20160 39797 40217 53001 60006 876// 90900=
07621,1996-06-10 12:00:00,23,1021,-0.2,69,17,10000,3.704,,,340,,,,,,,,,,,wg-a,,,,AAXX 10124 07621 12560 /3402 10230 20170 39795 40210 58002 60006 85200 91200=
07621,1996-06-10 15:00:00,25,1019.8,-0.9,65,18,10000,3.704,,,20,,,,,,,,,,,wg-a,,,,AAXX 10154 07621 12560 70202 10250 20180 39786 40198 57009 60006 879// 91500=
07621,1996-06-10 18:00:00,22,1020.7,0.6,78,18,10000,14.816,,,280,17,25,,,,,,,,,wg-a,,,,AAXX 10184 07621 12560 72808 10220 20180 39792 40207 53006 60006 8298/ 91800 333 10250 20170=
07621,1996-06-10 21:00:00,20,1022.9,1.7,83,17,8000,7.408,,,280,,,,,,,,,,,wg-a,,,,AAXX 10214 07621 12558 72804 10200 20170 39809 40229 53017 60006 8558/ 92100=
07621,1996-06-11 00:00:00,19,1023.2,0.2,88,17,8000,3.704,,,240,,,,,,,,,,,wg-a,,,,AAXX 11004 07621 12558 72402 10190 20170 39811 40232 50002 60006 875// 90000=
07621,1996-06-11 03:00:00,18,1023.7,0.3,94,17,6000,3.704,,,290,,,,,,,,,,,wg-a,,,,AAXX 11034 07621 12456 72902 10180 20170 39814 40237 53003 60006 875// 90300=
07621,1996-06-11 06:00:00,19,1024.1,0.5,88,17,6000,3.704,,,160,18,22.3,,,,,,,,,wg-a,,,,AAXX 11064 07621 02456 /1602 10190 20170 39819 40241 53005 60006 85500 90600 333 10223 20180 60004=
07621,1996-06-11 09:00:00,22,1023.9,0.3,83,19,10000,11.112,,,60,,,,,,,,,,,wg-a,,,,AAXX 11094 07621 12460 /0606 10220 20190 39822 40239 50003 60006 81500 90900=
07621,1996-06-11 12:00:00,27,1022.8,-0.4,62,19,15000,7.408,,,60,,,,,,,,,,,wg-a,,,,AAXX 11124 07621 12765 /0604 10270 20190 39818 40228 58004 60006 81200 91200=
07621,1996-06-11 15:00:00,30,1021.7,-0.7,46,17,15000,7.408,,,80,,,,,,,,,,,wg-a,,,,AAXX 11154 07621 12765 /0804 10300 20170 39811 40217 56007 60006 81200 91500=
07621,1996-06-11 18:00:00,28,1022.5,0.6,55,18,15000,11.112,,,340,18.7,29.8,,,,,,,,,wg-a,,,,AAXX 11184 07621 12765 /3406 10280 20180 39817 40225 53006 60006 81200 91800 333 10298 20187=
07621,1996-06-11 21:00:00,19,1027.2,3.2,88,17,10000,14.816,,,280,,,,,,,,,,,wg-a,,,,AAXX 11214 07621 12460 22808 10190 20170 39849 40272 53032 60006 82202 92100=
07621,1996-06-12 00:00:00,17,1028.3,0.7,94,16,500,14.816,,,270,,,,,,,,,,,wg-a,,,,AAXX 12004 07621 12100 72708 10170 20160 39856 40283 50007 60006 876// 90000=
07621,1996-06-12 03:00:00,17,1028.2,-0.1,94,16,3000,3.704,,,250,,,,0,,,,,,10,wg-a,,,,AAXX 12034 07621 12230 72502 10170 20160 39855 40282 57001 60007 71022 876// 90300=
07621,1996-06-12 06:00:00,17,1028.8,0.6,94,16,1000,7.408,,,310,16.5,28.2,,,,,,,,10,wg-a,,,,AAXX 12064 07621 12110 83104 10170 20160 39861 40288 53006 60004 71022 886// 90600 333 10282 20165=
07621,1996-06-12 09:00:00,17,1029.1,0.4,94,16,4000,0,,,0,,,,,,,,,,10,wg-a,,,,AAXX 12094 07621 12340 80000 10170 20160 39865 40291 51004 60006 71022 886// 90900=
07621,1996-06-12 12:00:00,21,1028.2,-0.4,78,17,8000,3.704,,,360,,,,,,,,,,,wg-a,,,,AAXX 12124 07621 12458 73602 10210 20170 39861 40282 58004 60006 875// 91200=
07621,1996-06-12 15:00:00,23,1026.8,-1.1,73,18,12000,7.408,,,20,,,,,,,,,,,wg-a,,,,AAXX 12154 07621 12562 70204 10230 20180 39850 40268 58011 60006 875// 91500=
07621,1996-06-12 18:00:00,22,1026.4,-0.4,78,18,12000,11.112,,,260,16.4,23.3,,,,,,,,,wg-a,,,,AAXX 12184 07621 12662 72606 10220 20180 39846 40264 55004 60006 875// 91800 333 10233 20164=
07621,1996-06-12 21:00:00,21,1027.7,1,83,18,10000,7.408,,,240,,,,,,,,,,,wg-a,,,,AAXX 12214 07621 12660 72404 10210 20180 39856 40277 53010 60006 875// 92100=
07621,1996-06-13 00:00:00,17,1028.2,0,94,16,8000,7.408,,,230,,,,,,,,,,,wg-a,,,,AAXX 13004 07621 12458 72304 10170 20160 39856 40282 50000 60006 875// 90000=
07621,1996-06-13 03:00:00,18,1026.7,-1.4,88,16,10000,7.408,,,230,,,,,,,,,,,wg-a,,,,AAXX 13034 07621 12460 82304 10180 20160 39842 40267 56014 60006 885// 90300=
07621,1996-06-13 06:00:00,18,1027.1,0.4,88,16,12000,11.112,,,280,17.2,22,,,,,,,,,wg-a,,,,AAXX 13064 07621 02462 /2806 10180 20160 39846 40271 53004 60006 86500 90600 333 10220 20172 60004=
07621,1996-06-13 09:00:00,22,1025.8,-0.6,78,18,10000,7.408,,,300,,,,,,,,,,,wg-a,,,,AAXX 13094 07621 12660 23004 10220 20180 39840 40258 58006 60006 82800 90900=
07621,1996-06-13 12:00:00,25,1024.3,-1,65,18,12000,7.408,,,30,,,,,,,,,,,wg-a,,,,AAXX 13124 07621 12662 40304 10250 20180 39830 40243 58010 60006 84200 91200=
07621,1996-06-13 15:00:00,27,1022.4,-1.6,58,18,15000,7.408,,,340,,,,,,,,,,,wg-a,,,,AAXX 13154 07621 12665 33404 10270 20180 39814 40224 58016 60006 83200 91500=
07621,1996-06-13 18:00:00,25,1021.8,-0.9,50,14,20000,11.112,,,340,17.6,26.8,,,,,,,,,wg-a,,,,AAXX 13184 07621 12670 /3406 10250 20140 39805 40218 55009 60006 81400 91800 333 10268 20176=
07621,1996-06-13 21:00:00,20,1023.4,0.9,78,16,20000,3.704,,,240,,,,,,,,,,,wg-a,,,,AAXX 13214 07621 12670 22402 10200 20160 39814 40234 53009 60006 82400 92100=
07621,1996-06-14 00:00:00,17,1023.2,-0.7,82,14,20000,3.704,,,150,,,,,,,,,,,wg-a,,,,AAXX 14004 07621 12/70 01502 10170 20140 39807 40232 58007 60006 80000 90000=
07621,1996-06-14 03:00:00,15,1022.5,-1,88,13,20000,7.408,,,170,,,,,,,,,,,wg-a,,,,AAXX 14034 07621 12/70 01704 10150 20130 39797 40225 56010 60006 80000 90300=
07621,1996-06-14 06:00:00,16,1022.1,-0.2,88,14,10000,3.704,,,150,13.9,25.3,,,,,,,,,wg-a,,,,AAXX 14064 07621 02/60 /1502 10160 20140 39795 40221 57002 60006 90600 333 10253 20139 60004=
07621,1996-06-14 09:00:00,23,1020.5,-0.5,61,15,40000,3.704,,,330,,,,,,,,,,,wg-a,,,,AAXX 14094 07621 12/82 13302 10230 20150 39790 40205 57005 60006 80001 90900=
07621,1996-06-14 12:00:00,25,1019.6,-0.5,54,15,40000,14.816,,,10,,,,,,,,,,,wg-a,,,,AAXX 14124 07621 12682 /0108 10250 20150 39785 40196 58005 60006 81101 91200=
07621,1996-06-14 15:00:00,27,1018.4,-1.1,34,10,40000,11.112,,,40,,,,,,,,,,,wg-a,,,,AAXX 14154 07621 12782 /0406 10270 20100 39774 40184 57011 60006 81100 91500=
07621,1996-06-14 18:00:00,26,1017.9,-0.5,42,12,40000,7.408,,,50,15.9,26.9,,,,,,,,,wg-a,,,,AAXX 14184 07621 12782 /0504 10260 20120 39769 40179 55005 60006 8110/ 91800 333 10269 20159=
07621,1996-06-14 21:00:00,20,1019.8,0.9,68,14,500,7.408,,,180,,,,,,,,,,,wg-a,,,,AAXX 14214 07621 12700 /1804 10200 20140 39778 40198 51009 60006 81500 92100=
07621,1996-06-15 00:00:00,17,1019.5,-0.6,77,13,10000,3.704,,,160,,,,,,,,,,,wg-a,,,,AAXX 15004 07621 12/60 /1602 10170 20130 39772 40195 58006 60006 90000=
07621,1996-06-15 03:00:00,16,1018.5,-1.2,82,13,20000,3.704,,,180,,,,,,,,,,,wg-a,,,,AAXX 15034 07621 12/70 01802 10160 20130 39760 40185 56012 60006 80000 90300=
07621,1996-06-15 06:00:00,18,1018.2,0,83,15,500,7.408,,,160,15.1,26.1,,,,,,,,,wg-a,,,,AAXX 15064 07621 02/00 01604 10180 20150 39760 40182 50000 60006 80000 90600 333 10261 20151 60004=
07621,1996-06-15 09:00:00,25,1017.4,0.3,54,15,500,7.408,,,50,,,,,,,,,,,wg-a,,,,AAXX 15094 07621 12/00 /0504 10250 20150 39763 40174 50003 60006 81200 90900=
07621,1996-06-15 12:00:00,29,1016.3,-0.6,43,15,500,11.112,,,50,,,,,,,,,,,wg-a,,,,AAXX 15124 07621 12/00 /0506 10290 20150 39757 40163 56006 60006 81200 91200=
07621,1996-06-15 15:00:00,29,1015.2,-1,40,14,500,11.112,,,90,,,,,,,,,,,wg-a,,,,AAXX 15154 07621 12/00 /0906 10290 20140 39747 40152 58010 60006 81200 91500=
07621,1996-06-15 18:00:00,28,1014.8,-0.5,37,12,500,11.112,,,60,17.5,29.5,,,,,,,,,wg-a,,,,AAXX 15184 07621 12800 /0606 10280 20120 39742 40148 55005 60006 81900 91800 333 10295 20175=
07621,1996-06-15 21:00:00,20,1017,1,78,16,500,3.704,,,240,,,,,,,,,,,wg-a,,,,AAXX 15214 07621 12800 /2402 10200 20160 39752 40170 53010 60006 81300 92100=
07621,1996-06-16 00:00:00,18,1016.4,-0.9,77,14,500,7.408,,,180,,,,,,,,,,,wg-a,,,,AAXX 16004 07621 12/00 01804 10180 20140 39743 40164 58009 60006 80000 90000=
07621,1996-06-16 03:00:00,16,1016.3,-0.4,82,13,500,3.704,,,160,,,,,,,,,,,wg-a,,,,AAXX 16034 07621 12/00 01602 10160 20130 39739 40163 56004 60006 80000 90300=
07621,1996-06-16 06:00:00,18,1016.3,0.4,83,15,500,7.408,,,150,15.5,28,,,,,,,,,wg-a,,,,AAXX 16064 07621 02800 /1504 10180 20150 39743 40163 53004 60006 81100 90600 333 10280 20155 60004=
07621,1996-06-16 09:00:00,25,1015.6,0.4,61,17,500,7.408,,,20,,,,,,,,,,,wg-a,,,,AAXX 16094 07621 12800 /0204 10250 20170 39747 40156 51004 60006 81200 90900=
07621,1996-06-16 12:00:00,29,1015,-0.3,40,14,500,11.112,,,50,,,,,,,,,,,wg-a,,,,AAXX 16124 07621 12800 /0506 10290 20140 39744 40150 58003 60006 81200 91200=
07621,1996-06-16 15:00:00,29,1013.8,-1,35,12,11000,11.112,,,30,,,,,,,,,,,wg-a,,,,AAXX 16154 07621 12/61 /0306 10290 20120 39734 40138 58010 60006 91500=
07621,1996-06-16 18:00:00,28,1013.4,-0.5,42,14,500,7.408,,,80,18,29.9,,,,,,,,,wg-a,,,,AAXX 16184 07621 12800 10804 10280 20140 39729 40134 55005 60006 81200 91800 333 10299 20180=
07621,1996-06-16 21:00:00,20,1015.8,1.2,78,16,35000,7.408,,,210,,,,,,,,,,,wg-a,,,,AAXX 16214 07621 12/81 02104 10200 20160 39741 40158 53012 60006 80000 92100=
07621,1996-06-17 00:00:00,19,1015.9,0,73,14,35000,7.408,,,170,,,,,,,,,,,wg-a,,,,AAXX 17004 07621 12/81 01704 10190 20140 39741 40159 50000 60006 80000 90000=
07621,1996-06-17 03:00:00,18,1015.6,-0.5,73,13,10000,11.112,,,180,,,,,,,,,,,wg-a,,,,AAXX 17034 07621 12/60 /1806 10180 20130 39736 40156 58005 60006 90300=
07621,1996-06-17 06:00:00,20,1016,0.7,64,13,11000,7.408,,,190,17.3,28.4,,,,,,,,,wg-a,,,,AAXX 17064 07621 02/61 /1904 10200 20130 39743 40160 53007 60006 90600 333 10284 20173 60004=
07621,1996-06-17 09:00:00,26,1015.4,0.3,54,16,11000,3.704,,,30,,,,,,,,,,,wg-a,,,,AAXX 17094 07621 12/61 /0302 10260 20160 39746 40154 51003 60006 90900=
07621,1996-06-17 12:00:00,29,1015,-0.1,35,12,25000,7.408,,,350,,,,,,,,,,,wg-a,,,,AAXX 17124 07621 12875 /3504 10290 20120 39745 40150 58001 60006 81102 91200=
07621,1996-06-17 15:00:00,30,1014.2,-0.7,33,12,25000,11.112,,,30,,,,,,,,,,,wg-a,,,,AAXX 17154 07621 12875 40306 10300 20120 39738 40142 56007 60006 81102 91500=
07621,1996-06-17 18:00:00,28,1014.1,-0.3,42,14,25000,11.112,,,10,20.2,30.1,,,,,,,,,wg-a,,,,AAXX 17184 07621 12/75 30106 10280 20140 39735 40141 55003 60006 81081 91800 333 10301 20202=
07621,1996-06-17 21:00:00,24,1016.3,1.6,74,19,20000,11.112,,,260,,,,,,,,,,,wg-a,,,,AAXX 17214 07621 12/70 /2606 10240 20190 39751 40163 53016 60006 85082 92100=
07621,1996-06-18 00:00:00,19,1017.2,0.2,94,18,15000,7.408,,,250,,,,,,,,,,,wg-a,,,,AAXX 18004 07621 12/65 42504 10190 20180 39753 40172 50002 60006 83082 90000=
07621,1996-06-18 03:00:00,18,1016.2,-1.1,94,17,10000,3.704,,,150,,,,,,,,,,,wg-a,,,,AAXX 18034 07621 12/60 /1502 10180 20170 39742 40162 58011 60006 83082 90300=
07621,1996-06-18 06:00:00,17,1016.5,0.1,94,16,500,0,,,0,15.8,28.1,,,,,,,,,wg-a,,,,AAXX 18064 07621 02/00 /0000 10170 20160 39743 40165 52001 60006 90600 333 10281 20158 60004=
07621,1996-06-18 09:00:00,23,1015.4,-0.1,73,18,10000,3.704,,,20,,,,,,,,,,,wg-a,,,,AAXX 18094 07621 12/60 60202 10230 20180 39742 40154 57001 60006 80002 90900=
07621,1996-06-18 12:00:00,27,1015,0.1,58,18,10000,7.408,,,350,,,,,,,,,,,wg-a,,,,AAXX 18124 07621 12660 73504 10270 20180 39743 40150 50001 60006 81102 91200=
07621,1996-06-18 15:00:00,27,1014.4,-0.6,54,17,12000,3.704,,,330,,,,,,,,,,,wg-a,,,,AAXX 18154 07621 12662 73302 10270 20170 39737 40144 58006 60006 85282 91500=
07621,1996-06-18 18:00:00,27,1013.6,-0.8,54,17,20000,7.408,,,320,16.8,27.9,,,,,,,,,wg-a,,,,AAXX 18184 07621 12770 /3204 10270 20170 39729 40136 56008 60006 85180 91800 333 10279 20168=
07621,1996-06-18 21:00:00,21,1015.7,1.3,88,19,10000,11.112,,,260,,,,,,,,,,,wg-a,,,,AAXX 18214 07621 12/60 /2606 10210 20190 39742 40157 53013 60006 80002 92100=
07621,1996-06-19 00:00:00,18,1016.1,-0.1,88,16,10000,3.704,,,240,,,,,,,,,,,wg-a,,,,AAXX 19004 07621 12/60 02402 10180 20160 39741 40161 58001 60006 80000 90000=
07621,1996-06-19 03:00:00,17,1015.6,-0.6,100,17,2000,11.112,,,260,,,,,,,,,,10,wg-a,,,,AAXX 19034 07621 12120 82606 10170 20170 39735 40156 55006 60006 71011 886// 90300=
07621,1996-06-19 09:00:00,23,1014.9,-0.3,73,18,12000,7.408,,,350,,,,0,,,,,,,wg-a,,,,AAXX 19094 07621 12562 /3504 10230 20180 39736 40149 55003 60007 81101 90900=
07621,1996-06-19 12:00:00,24,1014.2,-0.4,69,18,8000,14.816,,,310,,,,,,,,,,,wg-a,,,,AAXX 19124 07621 12558 /3108 10240 20180 39732 40142 58004 60006 81101 91200=
07621,1996-06-19 15:00:00,25,1012.4,-1.6,69,19,8000,11.112,,,290,,,,,,,,,,,wg-a,,,,AAXX 19154 07621 12558 72906 10250 20190 39716 40124 57016 60006 83182 91500=
07621,1996-06-19 18:00:00,22,1013.1,0.2,78,18,8000,14.816,,,280,17.1,25.4,,,,,,,,,wg-a,,,,AAXX 19184 07621 32/58 82808 10220 20180 39718 40131 53002 83082 91800 333 10254 20171=
07621,1996-06-19 21:00:00,18,1013.3,-0.3,94,17,10000,18.52,,,180,,,,2,,,,,,1,wg-a,,,,AAXX 19214 07621 12460 31810 10180 20170 39715 40133 58003 60027 70196 81132 92100=
07621,1996-06-20 00:00:00,17,1014.8,1.2,94,16,3000,11.112,,,310,,,,,,,,,,10,wg-a,,,,AAXX 20004 07621 12230 83106 10170 20160 39727 40148 50012 60026 71096 886// 90000=
07621,1996-06-20 03:00:00,15,1014.3,-0.7,100,15,2000,0,,,0,,,,0,,,,,,10,wg-a,,,,AAXX 20034 07621 12220 80000 10150 20150 39720 40143 58007 60007 71022 886// 90300=
07621,1996-06-20 06:00:00,16,1013.8,-0.4,94,15,500,0,,,0,15.3,21.6,,,,,2,,,,wg-a,,,,AAXX 20064 07621 12300 80000 10160 20150 39716 40138 58004 60024 8657/ 90600 333 10216 20153=
07621,1996-06-20 09:00:00,18,1012.9,-0.6,77,14,15000,3.704,,,130,,,,,,,,,,,wg-a,,,,AAXX 20094 07621 12465 81302 10180 20140 39710 40129 57006 60006 878// 90900=
07621,1996-06-20 12:00:00,22,1010.9,-1.3,69,16,15000,7.408,,,90,,,,,,,,,,,wg-a,,,,AAXX 20124 07621 12565 70904 10220 20160 39697 40109 58013 60006 878// 91200=
07621,1996-06-20 15:00:00,22,1009.6,-1.2,69,16,15000,3.704,,,90,,,,,,,,,,,wg-a,,,,AAXX 20154 07621 12665 70902 10220 20160 39685 40096 58012 60006 878// 91500=
07621,1996-06-20 18:00:00,22,1007.9,-1.7,69,16,15000,7.408,,,90,15.9,23.3,,,,,,,,,wg-a,,,,AAXX 20184 07621 12665 70904 10220 20160 39668 40079 56017 60006 878// 91800 333 10233 20159=
07621,1996-06-20 21:00:00,18,1008.4,-0.1,88,16,11000,7.408,,,20,,,,,,,,,,,wg-a,,,,AAXX 20214 07621 32/61 /0204 10180 20160 39667 40084 55001 92100=
07621,1996-06-21 00:00:00,17,1007.4,-1,100,17,10000,3.704,,,300,,,,1,,,,,,61,wg-a,,,,AAXX 21004 07621 02560 83002 10170 20170 39657 40074 58010 60026 76196 8392/ 90000 333 60017=
07621,1996-06-21 03:00:00,16,1006.3,-1.3,100,16,3000,18.52,,,280,,,,1,,,,,,10,wg-a,,,,AAXX 21034 07621 12130 82810 10160 20160 39644 40063 58013 60017 71096 877// 90300=
07621,1996-06-21 06:00:00,16,1006.2,-0.1,94,15,4000,14.816,,,260,15.4,22.2,,11,,,14,,,10,wg-a,,,,AAXX 21064 07621 02240 82608 10160 20150 39643 40062 55001 60144 71096 877// 90600 333 10222 20154 60117=
07621,1996-06-21 12:00:00,17,1009.5,0.3,77,13,15000,25.928,,83.34,290,,,,,,,,,,1,wg-a,,,,AAXX 21124 07621 12465 52914 10170 20130 39675 40095 53003 60056 70198 85802 91200 333 91045=
07621,1996-06-21 18:00:00,14,1012.3,1.8,88,12,15000,29.632,,57.412,260,13.3,17.8,,,,,,,,25,wg-a,,,,AAXX 21184 07621 02565 72616 10140 20120 39698 40123 53018 61000 72586 8597/ 91800 333 10178 20133 //// 91031=
07621,1996-06-22 00:00:00,13,1015.8,1.1,94,12,10000,18.52,,,250,,,,13,,,,,,61,wg-a,,,,AAXX 22004 07621 02360 82510 10130 20120 39730 40158 51011 60136 76162 8587/ 90000 333 60137=
07621,1996-06-22 03:00:00,13,1016.7,1,100,13,15000,18.52,,,260,,,,6,,,,,,21,wg-a,,,,AAXX 22034 07621 12465 82610 10130 20130 39740 40167 53010 60067 72162 878// 90300=
07621,1996-06-22 06:00:00,14,1018,1.2,94,13,15000,22.224,,,250,11.7,13.9,,4,,,30,,,2,wg-a,,,,AAXX 22064 07621 02465 72512 10140 20130 39752 40180 53012 60304 70286 872// 90600 333 10139 20117 60047=
07621,1996-06-22 09:00:00,15,1019.5,1.7,82,12,15000,25.928,,46.3,250,,,,,,,,,,,wg-a,,,,AAXX 22094 07621 12365 72514 10150 20120 39769 40195 51017 60006 878// 90900 333 91025=
07621,1996-06-22 12:00:00,16,1021.2,1.7,77,12,15000,31.484,,,270,,,,3,,,,,,21,wg-a,,,,AAXX 22124 07621 02465 72717 10160 20120 39786 40212 51017 60036 72186 878// 91200 333 60037=
07621,1996-06-22 15:00:00,16,1022,0.8,68,10,15000,22.224,,,270,,,,,,,,,,,wg-a,,,,AAXX 22154 07621 12465 /2712 10160 20100 39794 40220 51008 60006 85800 91500=
07621,1996-06-22 18:00:00,16,1022.4,0.4,72,11,15000,18.52,,,270,13.1,17.7,,,,,,,,,wg-a,,,,AAXX 22184 07621 32565 /2710 10160 20110 39798 40224 51004 82230 91800 333 10177 20131=
07621,1996-06-22 21:00:00,14,1024.3,1.4,82,11,15000,11.112,,,260,,,,,,,,,,,wg-a,,,,AAXX 22214 07621 12765 52606 10140 20110 39812 40243 53014 60006 82530 92100=
07621,1996-06-23 00:00:00,13,1024.4,0,88,11,15000,14.816,,,270,,,,,,,,,,,wg-a,,,,AAXX 23004 07621 12665 /2708 10130 20110 39812 40244 50000 60006 84530 90000=
07621,1996-06-23 03:00:00,11,1023.4,-1.2,94,10,15000,11.112,,,220,,,,,,,,,,,wg-a,,,,AAXX 23034 07621 12765 32206 10110 20100 39800 40234 58012 60006 81530 90300=
07621,1996-06-23 06:00:00,12,1023.3,0.1,88,10,15000,7.408,,,210,10.8,16.3,,,,,3,,,,wg-a,,,,AAXX 23064 07621 02765 /2104 10120 20100 39801 40233 53001 60006 86500 90600 333 10163 20108 60034=
07621,1996-06-23 09:00:00,15,1023.1,0.2,72,10,20000,22.224,,,280,,,,,,,,,,,wg-a,,,,AAXX 23094 07621 12570 /2812 10150 20100 39803 40231 50002 60006 83800 90900=
07621,1996-06-23 12:00:00,16,1023.4,0.4,68,10,20000,25.928,,,260,,,,,,,,,,,wg-a,,,,AAXX 23124 07621 12570 /2614 10160 20100 39807 40234 50004 60006 86800 91200=
07621,1996-06-23 15:00:00,17,1022.4,-0.8,72,12,25000,14.816,,,240,,,,,,,,,,,wg-a,,,,AAXX 23154 07621 12675 /2408 10170 20120 39799 40224 56008 60006 86200 91500=
07621,1996-06-23 18:00:00,16,1022.8,0.3,59,8,25000,22.224,,,290,12.2,18.3,,,,,,,,,wg-a,,,,AAXX 23184 07621 12675 62912 10160 20080 39802 40228 53003 60006 84802 91800 333 10183 20122=
07621,1996-06-23 21:00:00,13,1025.1,1.7,88,11,15000,14.816,,,230,,,,1,,,,,,25,wg-a,,,,AAXX 23214 07621 12665 72308 10130 20110 39819 40251 53017 60017 72586 878// 92100=
07621,1996-06-24 00:00:00,12,1025.6,0.3,88,10,15000,11.112,,,200,,,,1,,,,,,2,wg-a,,,,AAXX 24004 07621 02665 62006 10120 20100 39822 40256 50003 60026 70286 868/0 90000 333 60017=
07621,1996-06-24 03:00:00,11,1025.9,0.1,94,10,15000,7.408,,,170,,,,,,,,,,,wg-a,,,,AAXX 24034 07621 12765 /1704 10110 20100 39823 40259 50001 60006 81500 90300=
07621,1996-06-24 06:00:00,12,1026.1,0.4,88,10,20000,11.112,,,180,10.1,16.4,,,,,2,,,,wg-a,,,,AAXX 24064 07621 12770 31806 10120 20100 39827 40261 53004 60024 81530 90600 333 10164 20101=
07621,1996-06-24 09:00:00,16,1025.8,0.3,59,8,20000,3.704,,,310,,,,,,,,,,,wg-a,,,,AAXX 24094 07621 12670 /3102 10160 20080 39830 40258 50003 60006 81530 90900=
07621,1996-06-24 12:00:00,18,1025,-0.4,52,8,20000,18.52,,,320,,,,,,,,,,,wg-a,,,,AAXX 24124 07621 12670 63210 10180 20080 39826 40250 58004 60006 86830 91200=
07621,1996-06-24 15:00:00,19,1024.2,-0.7,52,9,20000,18.52,,,300,,,,,,,,,,,wg-a,,,,AAXX 24154 07621 12670 /3010 10190 20090 39819 40242 57007 60006 86830 91500=
07621,1996-06-24 18:00:00,17,1024.5,-0,63,10,20000,18.52,,,260,12.1,19.3,,,,,,,,,wg-a,,,,AAXX 24184 07621 12770 /2610 10170 20100 39819 40245 55000 60006 86830 91800 333 10193 20121=
07621,1996-06-24 21:00:00,14,1026.4,1.4,72,9,15000,22.224,,,280,,,,0,,,,,,1,wg-a,,,,AAXX 24214 07621 12565 72812 10140 20090 39833 40264 53014 60007 70186 878// 92100=
07621,1996-06-25 00:00:00,13,1025.9,-0.6,82,10,15000,7.408,,,250,,,,,,,,,,3,wg-a,,,,AAXX 25004 07621 12565 72504 10130 20100 39827 40259 58006 60006 70386 875// 90000=
07621,1996-06-25 03:00:00,13,1024.7,-1.2,82,10,15000,14.816,,,260,,,,,,,,,,,wg-a,,,,AAXX 25034 07621 12765 72608 10130 20100 39815 40247 57012 60006 875// 90300=
07621,1996-06-25 06:00:00,12,1024.5,-0.3,94,11,3000,11.112,,,290,12,17.2,,0,,,,,,61,wg-a,,,,AAXX 25064 07621 02330 82906 10120 20110 39812 40245 55003 60004 76162 8687/ 90600 333 10172 20120 60007=
07621,1996-06-25 09:00:00,14,1023.8,-0.3,88,12,12000,7.408,,,250,,,,1,,,,,,21,wg-a,,,,AAXX 25094 07621 12462 72504 10140 20120 39809 40238 58003 60017 72162 878// 90900=
07621,1996-06-25 12:00:00,14,1023.8,-0,88,12,12000,14.816,,,210,,,,0,,,,,,3,wg-a,,,,AAXX 25124 07621 02462 72108 10140 20120 39809 40238 54000 60016 70362 878// 91200 333 60007=
07621,1996-06-25 15:00:00,17,1023.5,0,63,10,15000,22.224,,,230,,,,,,,,,,,wg-a,,,,AAXX 25154 07621 12665 72312 10170 20100 39809 40235 50000 60006 878// 91500=
07621,1996-06-25 18:00:00,15,1024,0.3,72,10,15000,11.112,,,250,,17.2,,,,,,,,,wg-a,,,,AAXX 25184 07621 32665 72506 10150 20100 39812 40240 53003 878// 91800 333 10172=
07621,1996-06-25 21:00:00,13,1025.4,1,88,11,15000,7.408,,,240,,,,,,,,,,,wg-a,,,,AAXX 25214 07621 12665 72404 10130 20110 39822 40254 53010 60006 878// 92100=
07621,1996-06-26 00:00:00,12,1025.5,-0,94,11,15000,7.408,,,160,,,,,,,,,,,wg-a,,,,AAXX 26004 07621 12665 71604 10120 20110 39822 40255 55000 60006 878// 90000=
07621,1996-06-26 03:00:00,12,1025,-0.6,88,10,15000,7.408,,,200,,,,,,,,,,,wg-a,,,,AAXX 26034 07621 12765 /2004 10120 20100 39816 40250 58006 60006 86500 90300=
07621,1996-06-26 06:00:00,12,1024.9,-0,94,11,20000,11.112,,,200,10.6,15.3,,,,,1,,,,wg-a,,,,AAXX 26064 07621 02570 72006 10120 20110 39816 40249 55000 60006 878// 90600 333 10153 20106 60014=
07621,1996-06-26 09:00:00,15,1025,0.5,77,11,20000,7.408,,,210,,,,,,,,,,,wg-a,,,,AAXX 26094 07621 12770 72104 10150 20110 39821 40250 53005 60006 875// 90900=
07621,1996-06-26 12:00:00,18,1024.6,0.1,68,12,20000,14.816,,,280,,,,,,,,,,,wg-a,,,,AAXX 26124 07621 12570 /2808 10180 20120 39822 40246 50001 60006 86800 91200=
07621,1996-06-26 15:00:00,20,1023.6,-0.8,60,12,20000,11.112,,,300,,,,,,,,,,,wg-a,,,,AAXX 26154 07621 12570 73006 10200 20120 39814 40236 57008 60006 878// 91500=
07621,1996-06-26 18:00:00,18,1024.1,0.4,77,14,15000,11.112,,,280,12,20,,,,,,,,,wg-a,,,,AAXX 26184 07621 12765 /2806 10180 20140 39818 40241 51004 60006 81500 91800 333 10200 20120=
07621,1996-06-26 21:00:00,15,1025.7,1,88,13,12000,7.408,,,190,,,,,,,,,,,wg-a,,,,AAXX 26214 07621 12662 71904 10150 20130 39828 40257 53010 60006 875// 92100=
07621,1996-06-27 00:00:00,13,1026.1,0,94,12,12000,7.408,,,170,,,,,,,,,,,wg-a,,,,AAXX 27004 07621 12762 51704 10130 20120 39828 40261 50000 60006 855/0 90000=
07621,1996-06-27 03:00:00,13,1025.4,-0.6,94,12,10000,3.704,,,190,,,,,,,,,,,wg-a,,,,AAXX 27034 07621 12560 71902 10130 20120 39822 40254 58006 60006 875// 90300=
07621,1996-06-27 06:00:00,13,1025.9,0.5,94,12,6000,3.704,,,170,11.2,18.1,,,,,,,,,wg-a,,,,AAXX 27064 07621 02356 /1702 10130 20120 39827 40259 53005 60006 86500 90600 333 10181 20112 60004=
07621,1996-06-27 09:00:00,16,1026.2,0.7,82,13,6000,7.408,,,40,,,,,,,,,,,wg-a,,,,AAXX 27094 07621 12456 /0404 10160 20130 39834 40262 51007 60006 86500 90900=
07621,1996-06-27 12:00:00,19,1025.1,-0.5,68,13,8000,3.704,,,80,,,,,,,,,,,wg-a,,,,AAXX 27124 07621 12558 40802 10190 20130 39829 40251 58005 60006 84500 91200=
07621,1996-06-27 15:00:00,22,1023.2,-1.4,60,14,10000,11.112,,,340,,,,0,,,,,,,wg-a,,,,AAXX 27154 07621 12560 /3406 10220 20140 39815 40232 56014 60007 81500 91500=
07621,1996-06-27 18:00:00,22,1022.8,-0.4,60,14,10000,7.408,,,350,12.9,22.9,,,,,,,,,wg-a,,,,AAXX 27184 07621 12/60 13504 10220 20140 39811 40228 56004 60006 80001 91800 333 10229 20129=
07621,1996-06-27 21:00:00,17,1024.1,0.5,88,15,10000,7.408,,,180,,,,,,,,,,,wg-a,,,,AAXX 27214 07621 12/60 11804 10170 20150 39816 40241 53005 60006 80001 92100=
07621,1996-06-28 00:00:00,14,1024,-0.5,94,13,10000,7.408,,,180,,,,,,,,,,,wg-a,,,,AAXX 28004 07621 12/60 01804 10140 20130 39811 40240 58005 60006 80000 90000=
07621,1996-06-28 03:00:00,13,1023,-1.1,94,12,6000,11.112,,,190,,,,,,,,,,,wg-a,,,,AAXX 28034 07621 12/56 01906 10130 20120 39800 40230 56011 60006 80000 90300=
07621,1996-06-28 06:00:00,15,1022.8,-0,88,13,8000,7.408,,,180,12.6,22,,,,,,,,,wg-a,,,,AAXX 28064 07621 02/58 21804 10150 20130 39800 40228 55000 60006 80001 90600 333 10220 20126 60004=
07621,1996-06-28 09:00:00,22,1021.6,-0.1,65,15,12000,7.408,,,50,,,,,,,,,,,wg-a,,,,AAXX 28094 07621 12/62 00504 10220 20150 39799 40216 58001 60006 80000 90900=
07621,1996-06-28 12:00:00,26,1019.9,-1,58,17,15000,7.408,,,70,,,,,,,,,,,wg-a,,,,AAXX 28124 07621 12665 /0704 10260 20170 39789 40199 58010 60006 81101 91200=
07621,1996-06-28 15:00:00,27,1019.1,-0.7,48,15,15000,3.704,,,20,,,,,,,,,,,wg-a,,,,AAXX 28154 07621 12765 /0202 10270 20150 39782 40191 58007 60006 81201 91500=
07621,1996-06-28 18:00:00,24,1019.3,-0.1,69,18,12000,14.816,,,310,14.6,27.4,,,,,,,,,wg-a,,,,AAXX 28184 07621 12/62 53108 10240 20180 39781 40193 55001 60006 81081 91800 333 10274 20146=
07621,1996-06-28 21:00:00,18,1021.8,1.5,88,16,10000,22.224,,,280,,,,,,,,,,,wg-a,,,,AAXX 28214 07621 12560 72812 10180 20160 39796 40218 53015 60006 85582 92100=
07621,1996-06-29 00:00:00,17,1023.1,1,88,15,500,11.112,,,300,,,,,,,,,,,wg-a,,,,AAXX 29004 07621 12400 73006 10170 20150 39806 40231 51010 60006 875// 90000=
07621,1996-06-29 03:00:00,15,1022.6,-0.7,100,15,3000,7.408,,,290,,,,,,,,,,10,wg-a,,,,AAXX 29034 07621 12330 72904 10150 20150 39799 40226 58007 60006 71022 876// 90300=
07621,1996-06-29 06:00:00,16,1023.5,0.9,88,14,9000,7.408,,,240,15.1,24.3,,,,,,,,,wg-a,,,,AAXX 29064 07621 02459 72404 10160 20140 39808 40235 52009 60006 875// 90600 333 10243 20151 60004=
07621,1996-06-29 09:00:00,18,1023.2,0.1,83,15,12000,14.816,,,270,,,,,,,,,,,wg-a,,,,AAXX 29094 07621 12462 72708 10180 20150 39809 40232 50001 60006 878// 90900=
07621,1996-06-29 12:00:00,20,1022.9,0,73,15,12000,14.816,,,240,,,,,,,,,,,wg-a,,,,AAXX 29124 07621 12562 72408 10200 20150 39809 40229 50000 60006 86802 91200=
07621,1996-06-29 15:00:00,20,1022.8,-0.1,78,16,12000,18.52,,,300,,,,,,,,,,,wg-a,,,,AAXX 29154 07621 12562 73010 10200 20160 39808 40228 56001 60006 878// 91500=
07621,1996-06-29 18:00:00,20,1022.5,-0.3,73,15,20000,18.52,,,280,15.7,21,,,,,,,,,wg-a,,,,AAXX 29184 07621 12570 32810 10200 20150 39805 40225 58003 60006 83800 91800 333 10210 20157=
07621,1996-06-29 21:00:00,17,1024.6,1.6,82,14,20000,14.816,,,290,,,,,,,,,,,wg-a,,,,AAXX 29214 07621 12470 42908 10170 20140 39821 40246 53016 60006 84800 92100=
07621,1996-06-30 00:00:00,14,1025.8,0.7,88,12,20000,14.816,,,280,,,,,,,,,,,wg-a,,,,AAXX 30004 07621 12570 32808 10140 20120 39828 40258 51007 60006 83800 90000=
07621,1996-06-30 03:00:00,13,1024.4,-1.5,94,12,20000,3.704,,,210,,,,,,,,,,,wg-a,,,,AAXX 30034 07621 12570 /2102 10130 20120 39813 40244 57015 60006 86500 90300=
07621,1996-06-30 06:00:00,14,1023.8,-0.4,94,13,20000,3.704,,,300,12.6,19.8,,,,,,,,,wg-a,,,,AAXX 30064 07621 02470 /3002 10140 20130 39809 40238 56004 60006 86800 90600 333 10198 20126 60004=
07621,1996-06-30 09:00:00,17,1023.5,0,68,11,15000,11.112,,,320,,,,,,,,,,,wg-a,,,,AAXX 30094 07621 12565 73206 10170 20110 39809 40235 50000 60006 878// 90900=
07621,1996-06-30 12:00:00,19,1021.7,-1.4,60,11,20000,11.112,,,270,,,,,,,,,,,wg-a,,,,AAXX 30124 07621 12570 /2706 10190 20110 39795 40217 58014 60006 85501 91200=
07621,1996-06-30 15:00:00,21,1019.8,-1.4,60,13,40000,11.112,,,310,,,,,,,,,,,wg-a,,,,AAXX 30154 07621 12582 23106 10210 20130 39781 40198 56014 60006 82501 91500=
07621,1996-06-30 18:00:00,20,1019.4,-0.6,64,13,25000,14.816,,,310,14.3,21.6,,,,,,,,,wg-a,,,,AAXX 30184 07621 12675 /3108 10200 20130 39775 40194 56006 60006 86500 91800 333 10216 20143=
07621,1996-06-30 21:00:00,15,1019.9,-0.2,88,13,25000,3.704,,,190,,,,,,,,,,,wg-a,,,,AAXX 30214 07621 12675 /1902 10150 20130 39773 40199 55002 60006 81500 92100=
07621,1996-07-01 00:00:00,14,1019.4,-0.7,88,12,25000,11.112,,,290,,,,,,,,,,,wg-a,,,,AAXX 01004 07621 12575 32906 10140 20120 39766 40194 55007 60006 82502 90000=
07621,1996-07-01 03:00:00,13,1017.7,-1.8,94,12,25000,3.704,,,170,,,,,,,,,,,wg-a,,,,AAXX 01034 07621 12475 /1702 10130 20120 39748 40177 58018 60006 86500 90300=
07621,1996-07-01 06:00:00,14,1017.3,-0.2,88,12,20000,7.408,,,240,12.5,20.2,,,,,,,,,wg-a,,,,AAXX 01064 07621 02470 /2404 10140 20120 39746 40173 58002 60006 86500 90600 333 10202 20125 60004=
07621,1996-07-01 09:00:00,17,1016.8,0,72,12,500,11.112,,,280,,,,,,,,,,,wg-a,,,,AAXX 01094 07621 12500 52806 10170 20120 39746 40168 50000 60006 83102 90900=
07621,1996-07-01 12:00:00,20,1015.4,-0.9,56,11,500,22.224,,,320,,,,,,,,,,,wg-a,,,,AAXX 01124 07621 12600 43212 10200 20110 39737 40154 56009 60006 82132 91200=
07621,1996-07-01 15:00:00,19,1015.6,0.1,73,14,20000,14.816,,,310,,,,,,,,,,,wg-a,,,,AAXX 01154 07621 12570 73108 10190 20140 39738 40156 53001 60006 8687/ 91500=
07621,1996-07-01 18:00:00,16,1016.1,-0,94,15,500,18.52,,,300,13.8,21.6,,1,,,,,,51,wg-a,,,,AAXX 01184 07621 12300 83010 10160 20150 39738 40161 55000 60017 75151 878// 91800 333 10216 20138=
07621,1996-07-02 00:00:00,14,1016.1,-0.9,94,13,10000,7.408,,,230,,,,,,,,,,1,wg-a,,,,AAXX 02004 07621 12660 72304 10140 20130 39735 40161 58009 60006 70152 875// 90000=
07621,1996-07-02 03:00:00,13,1016.4,0.1,94,12,8000,14.816,,,310,,,,1,,,,,,51,wg-a,,,,AAXX 02034 07621 12358 83108 10130 20120 39736 40164 53001 60017 75152 875// 90300=
07621,1996-07-02 06:00:00,12,1015.9,-0.6,100,12,10000,7.408,,,150,12.3,15.7,,2,,,4,,,60,wg-a,,,,AAXX 02064 07621 02360 81504 10120 20120 39730 40159 56006 60044 76065 875// 90600 333 10157 20123 60027=
07621,1996-07-02 09:00:00,14,1015.9,0.2,82,11,20000,3.704,,,60,,,,2,,,,,,21,wg-a,,,,AAXX 02094 07621 12270 60602 10140 20110 39732 40159 50002 60027 72162 85830 90900=
07621,1996-07-02 12:00:00,18,1015.4,0.1,64,11,20000,7.408,,,350,,,,,,,,,,2,wg-a,,,,AAXX 02124 07621 12570 /3504 10180 20110 39733 40154 51001 60026 70262 86800 91200=
07621,1996-07-02 15:00:00,18,1015.3,-0,68,12,20000,11.112,,,300,,,,,,,,,,,wg-a,,,,AAXX 02154 07621 12570 73006 10180 20120 39733 40153 55000 60006 878// 91500=
07621,1996-07-02 18:00:00,17,1015.6,0.1,77,13,11000,11.112,,,250,12.3,19.1,,,,,,,,,wg-a,,,,AAXX 02184 07621 32/61 /2506 10170 20130 39734 40156 52001 91800 333 10191 20123=
07621,1996-07-02 21:00:00,14,1016.5,0.5,94,13,20000,7.408,,,170,,,,,,,,,,,wg-a,,,,AAXX 02214 07621 12770 71704 10140 20130 39739 40165 53005 60006 8753/ 92100=
07621,1996-07-03 00:00:00,14,1015.6,-0.9,88,12,20000,7.408,,,180,,,,,,,,,,,wg-a,,,,AAXX 03004 07621 12770 71804 10140 20120 39730 40156 58009 60006 8753/ 90000=
07621,1996-07-03 03:00:00,12,1015.5,-0.4,94,11,25000,7.408,,,160,,,,,,,,,,,wg-a,,,,AAXX 03034 07621 12775 31604 10120 20110 39726 40155 55004 60006 8353/ 90300=
07621,1996-07-03 06:00:00,14,1015.8,0.6,94,13,25000,7.408,,,170,11.9,17.3,,,,,2,,,,wg-a,,,,AAXX 03064 07621 02675 /1704 10140 20130 39732 40158 53006 60006 86500 90600 333 10173 20119 60024=
07621,1996-07-03 09:00:00,21,1015.3,0.5,69,15,500,11.112,,,300,,,,,,,,,,,wg-a,,,,AAXX 03094 07621 12500 43006 10210 20150 39737 40153 53005 60006 82830 90900=
07621,1996-07-03 12:00:00,23,1014.8,-0.2,61,15,500,14.816,,,330,,,,,,,,,,,wg-a,,,,AAXX 03124 07621 12500 63308 10230 20150 39735 40148 58002 60006 84830 91200=
07621,1996-07-03 15:00:00,23,1014.9,0.1,65,16,500,7.408,,,350,,,,,,,,,,,wg-a,,,,AAXX 03154 07621 12600 73504 10230 20160 39736 40149 51001 60006 878// 91500=
07621,1996-07-03 18:00:00,24,1013.4,-1.3,61,16,500,7.408,,,40,14.1,24,,,,,,,,,wg-a,,,,AAXX 03184 07621 12600 /0404 10240 20160 39723 40134 56013 60006 81430 91800 333 10240 20141=
07621,1996-07-03 21:00:00,18,1015.6,1.3,88,16,25000,7.408,,,180,,,,,,,,,,,wg-a,,,,AAXX 03214 07621 12675 21804 10180 20160 39736 40156 53013 60006 81530 92100=
07621,1996-07-04 00:00:00,18,1016.9,1.2,88,16,20000,7.408,,,150,,,,,,,,,,,wg-a,,,,AAXX 04004 07621 12670 71504 10180 20160 39748 40169 52012 60006 875// 90000=
07621,1996-07-04 03:00:00,18,1017.3,0.4,88,16,12000,3.704,,,220,,,,,,,,,,,wg-a,,,,AAXX 04034 07621 12562 72202 10180 20160 39752 40173 51004 60006 875// 90300=
07621,1996-07-04 09:00:00,20,1017.7,0,73,15,20000,3.704,,,320,,,,,,,,,,,wg-a,,,,AAXX 04094 07621 12570 73202 10200 20150 39759 40177 50000 60006 875// 90900=
07621,1996-07-04 12:00:00,21,1017.2,-0.3,73,16,20000,3.704,,,90,,,,,,,,,,,wg-a,,,,AAXX 04124 07621 12570 70902 10210 20160 39756 40172 58003 60006 878// 91200=
07621,1996-07-04 15:00:00,23,1015.8,-1.1,69,17,20000,11.112,,,130,,,,,,,,,,,wg-a,,,,AAXX 04154 07621 12570 71306 10230 20170 39745 40158 58011 60006 878// 91500=
07621,1996-07-04 18:00:00,22,1014.5,-1.4,73,17,20000,7.408,,,100,17.4,22.9,,,,,,,,,wg-a,,,,AAXX 04184 07621 12570 /1004 10220 20170 39731 40145 58014 60006 86880 91800 333 10229 20174=
07621,1996-07-05 00:00:00,18,1013.2,-2.1,94,17,7000,7.408,,,150,,,,3,,,,,,13,wg-a,,,,AAXX 05004 07621 02657 /1504 10180 20170 39713 40132 58021 60036 71392 82580 90000 333 60037=
07621,1996-07-05 03:00:00,17,1011.9,-1.3,100,17,3000,11.112,,,260,,,,,,,,,,10,wg-a,,,,AAXX 05034 07621 12230 82606 10170 20170 39700 40119 55013 60006 71022 887// 90300=
07621,1996-07-05 06:00:00,17,1012.5,0.5,94,16,2500,14.816,,,290,16.4,21.9,,,,,3,,,10,wg-a,,,,AAXX 05064 07621 12225 82908 10170 20160 39705 40125 53005 60034 71022 887// 90600 333 10219 20164=
07621,1996-07-05 09:00:00,17,1013.1,0.6,94,16,8000,7.408,,,250,,,,0,,,,,,60,wg-a,,,,AAXX 05094 07621 12358 82504 10170 20160 39711 40131 53006 60007 76062 8777/ 90900=
07621,1996-07-05 12:00:00,17,1013.8,0.7,94,16,10000,14.816,,,250,,,,0,,,,,,1,wg-a,,,,AAXX 05124 07621 02360 82508 10170 20160 39718 40138 50007 60016 70165 878// 91200 333 60007=
07621,1996-07-05 15:00:00,17,1014.5,0.6,88,15,10000,18.52,,,260,,,,1,,,,,,21,wg-a,,,,AAXX 05154 07621 12360 72610 10170 20150 39724 40145 51006 60017 72162 8787/ 91500=
07621,1996-07-05 18:00:00,18,1013.3,-1,77,14,15000,18.52,,,270,16,19,,,,,,,,3,wg-a,,,,AAXX 05184 07621 32465 72710 10180 20140 39714 40133 56010 70362 87870 91800 333 10190 20160=
07621,1996-07-05 21:00:00,17,1013.1,-0.4,82,14,15000,7.408,,,190,,,,,,,,,,,wg-a,,,,AAXX 05214 07621 12565 61904 10170 20140 39710 40131 55004 60006 86830 92100=
07621,1996-07-06 00:00:00,15,1014.4,1,94,14,8000,22.224,,,270,,,,1,,,,,,61,wg-a,,,,AAXX 06004 07621 02458 72712 10150 20140 39720 40144 53010 60016 76162 875// 90000 333 60017=
07621,1996-07-06 03:00:00,15,1013.8,-0.6,94,14,10000,18.52,,,270,,,,0,,,,,,60,wg-a,,,,AAXX 06034 07621 12560 72710 10150 20140 39714 40138 55006 60007 76066 875// 90300=
07621,1996-07-06 06:00:00,13,1015.4,1.2,94,12,8000,14.816,,,20,12.7,17.8,,1,,,3,,,60,wg-a,,,,AAXX 06064 07621 02258 70208 10130 20120 39726 40154 53012 60034 76066 875// 90600 333 10178 20127 60017=
07621,1996-07-06 09:00:00,15,1015.3,0.2,88,13,12000,3.704,,,230,,,,1,,,,,,3,wg-a,,,,AAXX 06094 07621 12362 72302 10150 20130 39728 40153 50002 60017 70362 878// 90900=
07621,1996-07-06 12:00:00,17,1014.3,-0.7,77,13,15000,7.408,,,150,,,,,,,,,,2,wg-a,,,,AAXX 06124 07621 02465 71504 10170 20130 39721 40143 58007 60016 70286 878// 91200 333 61000=
07621,1996-07-06 15:00:00,16,1013.1,-1.2,82,13,15000,3.704,,,90,,,,,,,,,,,wg-a,,,,AAXX 06154 07621 12565 70902 10160 20130 39709 40131 58012 60006 878// 91500=
07621,1996-07-06 18:00:00,16,1011.6,-1.4,88,14,25000,3.704,,,50,12.2,17.2,,,,,,,,,wg-a,,,,AAXX 06184 07621 32575 70502 10160 20140 39695 40116 58014 878// 91800 333 10172 20122=
07621,1996-07-06 21:00:00,15,1010,-1.8,88,13,20000,3.704,,,50,,,,,,,,,,,wg-a,,,,AAXX 06214 07621 12670 70502 10150 20130 39677 40100 56018 60006 84532 92100=
07621,1996-07-07 00:00:00,12,1007.3,-2.9,100,12,0,3.704,,,30,,,,,,,,,,,wg-a,,,,AAXX 07004 07621 12/// /0302 10120 20120 39648 40073 56029 60006 90000=
07621,1996-07-07 03:00:00,12,1003.4,-3.8,100,12,10000,3.704,,,170,,,,,,,,,,,wg-a,,,,AAXX 07034 07621 12760 71702 10120 20120 39610 40034 57038 60006 8257/ 90300=
07621,1996-07-07 06:00:00,12,1001.2,-2,100,12,10000,3.704,,,350,11.4,16.3,,,,,1,,,60,wg-a,,,,AAXX 07064 07621 02260 73502 10120 20120 39590 40012 56020 60014 76062 8227/ 90600 333 10163 20114 61000=
07621,1996-07-07 09:00:00,14,1001.2,0.2,94,13,10000,7.408,,,360,,,,0,,,,,,60,wg-a,,,,AAXX 07094 07621 12260 73604 10140 20130 39592 40012 53002 60007 76066 878// 90900=
07621,1996-07-07 12:00:00,15,1003.3,2.1,88,13,8000,14.816,,,260,,,,12,,,,,,63,wg-a,,,,AAXX 07124 07621 02258 82608 10150 20130 39613 40033 52021 60126 76366 878// 91200 333 60127=
07621,1996-07-07 15:00:00,13,1008.9,5,94,12,500,29.632,,,270,,,,1,,,,,,80,wg-a,,,,AAXX 07154 07621 12200 72716 10130 20120 39663 40089 53050 60017 78086 878// 91500=
07621,1996-07-07 18:00:00,13,1012.5,3.5,82,10,15000,18.52,,61.116,240,12,16.2,,3,,,,,,21,wg-a,,,,AAXX 07184 07621 12265 72410 10130 20100 39698 40125 51035 60037 72186 878// 91800 333 10162 20120 91033=
07621,1996-07-07 21:00:00,11,1016,3.1,94,10,10000,22.224,,,270,,,,3,,,,,,80,wg-a,,,,AAXX 07214 07621 12260 72712 10110 20100 39729 40160 51031 60037 78086 872// 92100=
07621,1996-07-08 00:00:00,10,1019.1,2.8,93,9,8000,22.224,,,260,,,,5,,,,,,63,wg-a,,,,AAXX 08004 07621 02258 82612 10100 20090 39757 40191 53028 60086 76386 878// 90000 333 60057=
07621,1996-07-08 06:00:00,11,1022.1,2.2,94,10,12000,14.816,,,240,9.1,12.6,,2,,,38,,,60,wg-a,,,,AAXX 08064 07621 02262 82408 10110 20100 39787 40221 53022 60384 76062 878// 90600 333 10126 20091 60027=
07621,1996-07-08 09:00:00,14,1024.5,2.8,82,11,15000,18.52,,,260,,,,0,,,,,,1,wg-a,,,,AAXX 08094 07621 12465 42610 10140 20110 39815 40245 51028 60007 70186 84200 90900=
07621,1996-07-08 12:00:00,17,1024.9,0.8,59,9,15000,18.52,,,250,,,,,,,,,,1,wg-a,,,,AAXX 08124 07621 12665 32510 10170 20090 39823 40249 52008 60006 70186 83800 91200=
07621,1996-07-08 15:00:00,17,1025.8,0.8,63,10,15000,25.928,,,270,,,,,,,,,,,wg-a,,,,AAXX 08154 07621 12565 72714 10170 20100 39831 40258 51008 60006 8783/ 91500=
07621,1996-07-08 18:00:00,17,1026.4,0.6,68,11,25000,14.816,,,250,11,18,,,,,,,,1,wg-a,,,,AAXX 08184 07621 02575 /2508 10170 20110 39837 40264 51006 61000 70161 81200 91800 333 10180 20110 ////=
07621,1996-07-08 21:00:00,12,1028.9,1.8,88,10,25000,11.112,,,250,,,,,,,,,,,wg-a,,,,AAXX 08214 07621 12775 22506 10120 20100 39855 40289 53018 60006 82400 92100=
07621,1996-07-09 00:00:00,10,1030,0.7,93,9,20000,11.112,,,240,,,,,,,,,,,wg-a,,,,AAXX 09004 07621 12770 /2406 10100 20090 39862 40300 51007 60006 81500 90000=
07621,1996-07-09 03:00:00,10,1029.7,-0.4,87,8,20000,11.112,,,170,,,,,,,,,,,wg-a,,,,AAXX 09034 07621 12570 21706 10100 20080 39858 40297 58004 60006 82500 90300=
07621,1996-07-09 06:00:00,11,1029.8,0.2,82,8,500,7.408,,,180,8.6,16.7,,,,,,,,,wg-a,,,,AAXX 09064 07621 02600 /1804 10110 20080 39860 40298 53002 60006 81500 90600 333 10167 20086 60004=
07621,1996-07-09 09:00:00,17,1029.1,0.3,55,8,35000,3.704,,,340,,,,,,,,,,,wg-a,,,,AAXX 09094 07621 12581 23402 10170 20080 39863 40291 50003 60006 82100 90900=
07621,1996-07-09 12:00:00,19,1028.3,-0.4,52,9,35000,7.408,,,350,,,,,,,,,,,wg-a,,,,AAXX 09124 07621 12681 33504 10190 20090 39859 40283 57004 60006 83100 91200=
07621,1996-07-09 15:00:00,21,1027.7,-0.4,49,10,35000,14.816,,,340,,,,,,,,,,,wg-a,,,,AAXX 09154 07621 12681 33408 10210 20100 39855 40277 57004 60006 83100 91500=
07621,1996-07-09 18:00:00,19,1027.2,-0.6,60,11,35000,7.408,,,340,10.6,20.9,,,,,,,,,wg-a,,,,AAXX 09184 07621 12681 /3404 10190 20110 39849 40272 56006 60006 85400 91800 333 10209 20106=
07621,1996-07-09 21:00:00,16,1028.4,0.7,82,13,15000,7.408,,,270,,,,,,,,,,,wg-a,,,,AAXX 09214 07621 12665 /2704 10160 20130 39856 40284 53007 60006 85500 92100=
07621,1996-07-10 00:00:00,14,1028.8,0,88,12,15000,7.408,,,250,,,,,,,,,,,wg-a,,,,AAXX 10004 07621 12565 32504 10140 20120 39856 40288 50000 60006 83500 90000=
07621,1996-07-10 03:00:00,14,1028.3,-0.5,88,12,15000,7.408,,,280,,,,,,,,,,,wg-a,,,,AAXX 10034 07621 12565 /2804 10140 20120 39851 40283 55005 60006 85500 90300=
07621,1996-07-10 06:00:00,13,1028.8,0.4,94,12,8000,3.704,,,290,13,19.4,,,,,,,,,wg-a,,,,AAXX 10064 07621 02458 /2902 10130 20120 39855 40288 51004 60006 86800 90600 333 10194 20130 60004=
07621,1996-07-10 09:00:00,16,1027.8,-0.6,72,11,20000,7.408,,,300,,,,,,,,,,,wg-a,,,,AAXX 10094 07621 12570 /3004 10160 20110 39849 40278 58006 60006 86200 90900=
07621,1996-07-10 12:00:00,18,1026.9,-0.5,64,11,20000,11.112,,,330,,,,,,,,,,,wg-a,,,,AAXX 10124 07621 12570 73306 10180 20110 39844 40269 58005 60006 878// 91200=
07621,1996-07-10 15:00:00,19,1025.9,-0.9,68,13,20000,7.408,,,290,,,,,,,,,,,wg-a,,,,AAXX 10154 07621 12570 72904 10190 20130 39835 40259 57009 60006 878// 91500=
07621,1996-07-10 18:00:00,18,1025.1,-0.8,77,14,20000,11.112,,,220,13.3,19.6,,,,,,,,,wg-a,,,,AAXX 10184 07621 12570 72206 10180 20140 39827 40251 56008 60006 878// 91800 333 10196 20133=
07621,1996-07-10 21:00:00,17,1025.8,0.5,88,15,10000,7.408,,,340,,,,,,,,,,,wg-a,,,,AAXX 10214 07621 12360 83404 10170 20150 39832 40258 53005 60006 886// 92100=
07621,1996-07-11 00:00:00,15,1025.6,-0.4,94,14,7000,3.704,,,290,,,,,,,,,,,wg-a,,,,AAXX 11004 07621 12357 82902 10150 20140 39828 40256 56004 60006 885// 90000=
07621,1996-07-11 03:00:00,15,1024.8,-0.9,94,14,500,7.408,,,30,,,,0,,,,,,58,wg-a,,,,AAXX 11034 07621 12200 80304 10150 20140 39819 40248 57009 60007 75865 885// 90300=
07621,1996-07-11 06:00:00,14,1024.5,-0.3,100,14,7000,7.408,,,230,14,18.3,,0,,,1,,,21,wg-a,,,,AAXX 11064 07621 02457 82304 10140 20140 39816 40245 58003 60014 72165 885// 90600 333 10183 20140 60007=
07621,1996-07-11 09:00:00,17,1024.1,0,82,14,15000,3.704,,,80,,,,,,,,,,,wg-a,,,,AAXX 11094 07621 12465 70802 10170 20140 39816 40241 50000 60006 878// 90900=
07621,1996-07-11 12:00:00,20,1023,-0.7,64,13,20000,3.704,,,20,,,,,,,,,,,wg-a,,,,AAXX 11124 07621 12570 60202 10200 20130 39809 40230 58007 60006 86800 91200=
07621,1996-07-11 15:00:00,22,1021.8,-0.9,50,11,20000,3.704,,,320,,,,,,,,,,,wg-a,,,,AAXX 11154 07621 12670 53202 10220 20110 39800 40218 56009 60006 85800 91500=
07621,1996-07-11 18:00:00,22,1021.4,-0.3,57,13,20000,7.408,,,300,14.2,22.7,,,,,,,,,wg-a,,,,AAXX 11184 07621 12770 33004 10220 20130 39797 40214 55003 60006 83400 91800 333 10227 20142=
07621,1996-07-11 21:00:00,16,1023,0.7,82,13,20000,7.408,,,180,,,,,,,,,,,wg-a,,,,AAXX 11214 07621 12770 21804 10160 20130 39804 40230 53007 60006 82400 92100=
07621,1996-07-12 00:00:00,15,1023.2,0,88,13,10000,7.408,,,170,,,,,,,,,,,wg-a,,,,AAXX 12004 07621 12460 31704 10150 20130 39804 40232 50000 60006 83500 90000=
07621,1996-07-12 03:00:00,15,1022.2,-0.9,100,15,8000,3.704,,,200,,,,,,,,,,,wg-a,,,,AAXX 12034 07621 12/58 /2002 10150 20150 39795 40222 58009 60006 90300=
07621,1996-07-12 06:00:00,14,1022,-0.3,100,14,7000,3.704,,,210,13.8,21.9,,,,,,,,,wg-a,,,,AAXX 12064 07621 02257 32102 10140 20140 39792 40220 55003 60006 83600 90600 333 10219 20138 60004=
07621,1996-07-12 09:00:00,19,1021.7,0.4,83,16,8000,7.408,,,350,,,,,,,,,,,wg-a,,,,AAXX 12094 07621 12458 /3504 10190 20160 39796 40217 53004 60006 86200 90900=
07621,1996-07-12 12:00:00,22,1020.7,-0.6,69,16,10000,7.408,,,20,,,,,,,,,,,wg-a,,,,AAXX 12124 07621 12560 40204 10220 20160 39790 40207 58006 60006 84200 91200=
07621,1996-07-12 15:00:00,24,1019.6,-0.8,61,16,10000,11.112,,,40,,,,,,,,,,,wg-a,,,,AAXX 12154 07621 12660 30406 10240 20160 39782 40196 58008 60006 83200 91500=
07621,1996-07-12 18:00:00,22,1019.8,0.1,69,16,10000,11.112,,,340,14.3,23.8,,,,,,,,,wg-a,,,,AAXX 12184 07621 12660 43406 10220 20160 39783 40198 53001 60006 84200 91800 333 10238 20143=
07621,1996-07-12 21:00:00,19,1021.5,1.1,88,17,10000,7.408,,,230,,,,,,,,,,,wg-a,,,,AAXX 12214 07621 12660 /2304 10190 20170 39794 40215 52011 60006 86500 92100=
07621,1996-07-13 00:00:00,18,1021.9,0.2,88,16,10000,7.408,,,300,,,,,,,,,,,wg-a,,,,AAXX 13004 07621 12560 73004 10180 20160 39796 40219 53002 60006 875// 90000=
07621,1996-07-13 03:00:00,17,1021.5,-0.5,94,16,10000,3.704,,,260,,,,,,,,,,,wg-a,,,,AAXX 13034 07621 12560 72602 10170 20160 39791 40215 58005 60006 875// 90300=
07621,1996-07-13 06:00:00,17,1021.7,0.2,94,16,8000,3.704,,,310,16.5,22.4,,,,,,,,,wg-a,,,,AAXX 13064 07621 02458 73102 10170 20160 39793 40217 53002 60006 875// 90600 333 10224 20165 60004=
07621,1996-07-13 09:00:00,19,1022.6,1.1,78,15,8000,3.704,,,320,,,,,,,,,,,wg-a,,,,AAXX 13094 07621 12458 /3202 10190 20150 39804 40226 51011 60006 86800 90900=
07621,1996-07-13 12:00:00,23,1021.6,-0.4,69,17,10000,7.408,,,280,,,,,,,,,,,wg-a,,,,AAXX 13124 07621 12560 /2804 10230 20170 39800 40216 58004 60006 86200 91200=
07621,1996-07-13 15:00:00,24,1020.6,-0.7,61,16,10000,11.112,,,350,,,,,,,,,,,wg-a,,,,AAXX 13154 07621 12660 /3506 10240 20160 39793 40206 58007 60006 85209 91500=
07621,1996-07-13 18:00:00,24,1020.6,-0.1,65,17,15000,11.112,,,10,16.7,25,,,,,,,,,wg-a,,,,AAXX 13184 07621 12665 20106 10240 20170 39792 40206 55001 60006 82200 91800 333 10250 20167=
07621,1996-07-13 21:00:00,19,1022.9,1.6,88,17,15000,7.408,,,190,,,,,,,,,,,wg-a,,,,AAXX 13214 07621 12665 31904 10190 20170 39808 40229 52016 60006 82402 92100=
07621,1996-07-14 00:00:00,18,1023.5,0.4,94,17,10000,7.408,,,170,,,,,,,,,,,wg-a,,,,AAXX 14004 07621 12660 /1704 10180 20170 39812 40235 51004 60006 85500 90000=
07621,1996-07-14 03:00:00,16,1023.3,-0.5,94,15,10000,7.408,,,160,,,,,,,,,,,wg-a,,,,AAXX 14034 07621 12660 /1604 10160 20150 39807 40233 56005 60006 81500 90300=
07621,1996-07-14 06:00:00,16,1024.3,0.9,94,15,15000,3.704,,,150,14.4,23.7,,,,,,,,,wg-a,,,,AAXX 14064 07621 02/65 11502 10160 20150 39816 40243 53009 60006 80002 90600 333 10237 20144 60004=
07621,1996-07-14 09:00:00,23,1023.7,0.5,69,17,25000,7.408,,,40,,,,,,,,,,,wg-a,,,,AAXX 14094 07621 12775 /0404 10230 20170 39821 40237 51005 60006 81102 90900=
07621,1996-07-14 12:00:00,26,1022.8,-0.4,61,18,25000,11.112,,,60,,,,,,,,,,,wg-a,,,,AAXX 14124 07621 12775 30606 10260 20180 39817 40228 57004 60006 83101 91200=
07621,1996-07-14 15:00:00,28,1021.4,-1.1,48,16,25000,7.408,,,80,,,,,,,,,,,wg-a,,,,AAXX 14154 07621 12775 20804 10280 20160 39806 40214 57011 60006 82101 91500=
07621,1996-07-14 18:00:00,28,1021.1,-0.4,48,16,25000,7.408,,,40,15.6,28.7,,,,,,,,,wg-a,,,,AAXX 14184 07621 12875 30404 10280 20160 39802 40211 55004 60006 81189 91800 333 10287 20156=
07621,1996-07-14 21:00:00,21,1022.3,0.3,78,17,20000,7.408,,,170,,,,,,,,,,,wg-a,,,,AAXX 14214 07621 12/70 21704 10210 20170 39805 40223 53003 60006 82080 92100=
07621,1996-07-15 00:00:00,19,1022.5,-0.1,83,16,20000,11.112,,,190,,,,,,,,,,,wg-a,,,,AAXX 15004 07621 12/70 01906 10190 20160 39804 40225 58001 60006 80000 90000=
07621,1996-07-15 03:00:00,18,1021.9,-0.7,83,15,20000,0,,,0,,,,,,,,,,,wg-a,,,,AAXX 15034 07621 12/70 00000 10180 20150 39797 40219 56007 60006 80000 90300=
07621,1996-07-15 06:00:00,19,1022.2,0.4,83,16,10000,11.112,,,180,16.8,27.8,,,,,,,,,wg-a,,,,AAXX 15064 07621 02/60 /1806 10190 20160 39801 40222 53004 60006 90600 333 10278 20168 60004=
07621,1996-07-15 09:00:00,26,1021.1,0,65,19,40000,3.704,,,260,,,,,,,,,,,wg-a,,,,AAXX 15094 07621 12782 22602 10260 20190 39801 40211 50000 60006 81201 90900=
07621,1996-07-15 12:00:00,29,1019.8,-1,48,17,40000,7.408,,,20,,,,,,,,,,,wg-a,,,,AAXX 15124 07621 12682 30204 10290 20170 39791 40198 58010 60006 83201 91200=
07621,1996-07-15 15:00:00,29,1018.4,-1.2,48,17,40000,11.112,,,360,,,,,,,,,,,wg-a,,,,AAXX 15154 07621 12782 23606 10290 20170 39779 40184 58012 60006 82200 91500=
07621,1996-07-15 18:00:00,28,1018.2,-0.4,51,17,500,11.112,,,20,18.8,29.6,,,,,,,,,wg-a,,,,AAXX 15184 07621 12700 /0206 10280 20170 39775 40182 55004 60006 81302 91800 333 10296 20188=
07621,1996-07-15 21:00:00,22,1020.1,1.1,83,19,15000,7.408,,,180,,,,,,,,,,,wg-a,,,,AAXX 15214 07621 12765 21804 10220 20190 39786 40201 53011 60006 82400 92100=
07621,1996-07-16 00:00:00,20,1020.1,-0.3,83,17,15000,11.112,,,160,,,,,,,,,,,wg-a,,,,AAXX 16004 07621 12/65 01606 10200 20170 39783 40201 58003 60006 80000 90000=
07621,1996-07-16 03:00:00,19,1019.7,-0.7,83,16,15000,7.408,,,180,,,,,,,,,,,wg-a,,,,AAXX 16034 07621 12/65 01804 10190 20160 39776 40197 56007 60006 80000 90300=
07621,1996-07-16 06:00:00,20,1019.5,-0,78,16,500,7.408,,,170,18.1,27.9,,,,,,,,,wg-a,,,,AAXX 16064 07621 02/00 01704 10200 20160 39776 40195 54000 60006 80000 90600 333 10279 20181 60004=
07621,1996-07-16 09:00:00,27,1018.4,-0.1,58,18,500,3.704,,,40,,,,,,,,,,,wg-a,,,,AAXX 16094 07621 12700 /0402 10270 20180 39775 40184 58001 60006 81200 90900=
07621,1996-07-16 12:00:00,29,1017.3,-0.7,55,19,500,7.408,,,30,,,,,,,,,,,wg-a,,,,AAXX 16124 07621 12700 20304 10290 20190 39768 40173 58007 60006 82200 91200=
07621,1996-07-16 15:00:00,30,1015.9,-1.2,52,19,500,11.112,,,20,,,,,,,,,,,wg-a,,,,AAXX 16154 07621 12700 /0206 10300 20190 39756 40159 58012 60006 81200 91500=
07621,1996-07-16 18:00:00,28,1015.6,-0.5,55,18,500,7.408,,,350,20,30.1,,,,,,,,,wg-a,,,,AAXX 16184 07621 12700 /3504 10280 20180 39751 40156 56005 60006 81900 91800 333 10301 20200=
07621,1996-07-16 21:00:00,24,1017.2,0.9,57,15,20000,11.112,,,150,,,,,,,,,,,wg-a,,,,AAXX 16214 07621 12/70 01506 10240 20150 39760 40172 50009 60006 80000 92100=
07621,1996-07-17 00:00:00,22,1016.8,-0.7,69,16,20000,7.408,,,150,,,,,,,,,,,wg-a,,,,AAXX 17004 07621 12/70 01504 10220 20160 39753 40168 58007 60006 80000 90000=
07621,1996-07-17 03:00:00,19,1016.6,-0.5,78,15,15000,11.112,,,210,,,,,,,,,,,wg-a,,,,AAXX 17034 07621 12/65 02106 10190 20150 39748 40166 55005 60006 80000 90300=
07621,1996-07-17 06:00:00,20,1017.4,0.8,73,15,20000,11.112,,,180,18.4,28.3,,,,,,,,,wg-a,,,,AAXX 17064 07621 02/70 01806 10200 20150 39756 40174 51008 60006 80000 90600 333 10283 20184 60004=
07621,1996-07-17 09:00:00,27,1016.1,-0.3,51,16,500,7.408,,,200,,,,,,,,,,,wg-a,,,,AAXX 17094 07621 12700 /2004 10270 20160 39753 40161 58003 60006 81100 90900=
07621,1996-07-17 12:00:00,30,1014.9,-0.6,49,18,500,3.704,,,300,,,,,,,,,,,wg-a,,,,AAXX 17124 07621 12700 /3002 10300 20180 39747 40149 57006 60006 81200 91200=
07621,1996-07-17 18:00:00,30,1013.7,-0.5,52,19,500,7.408,,,320,19.8,31.1,,,,,,,,,wg-a,,,,AAXX 17184 07621 12700 /3204 10300 20190 39734 40137 55005 60006 81900 91800 333 10311 20198=
07621,1996-07-17 21:00:00,23,1015.8,1.2,78,19,500,11.112,,,170,,,,,,,,,,,wg-a,,,,AAXX 17214 07621 12/00 01706 10230 20190 39746 40158 53012 60006 80000 92100=
07621,1996-07-18 00:00:00,21,1016.5,0.4,78,17,500,11.112,,,190,,,,,,,,,,,wg-a,,,,AAXX 18004 07621 12/00 01906 10210 20170 39750 40165 53004 60006 80000 90000=
07621,1996-07-18 03:00:00,19,1016.8,-0,88,17,500,11.112,,,190,,,,,,,,,,,wg-a,,,,AAXX 18034 07621 12/00 01906 10190 20170 39750 40168 55000 60006 80000 90300=
07621,1996-07-18 06:00:00,19,1017.5,0.6,88,17,500,3.704,,,220,18.2,29.5,,,,,,,,,wg-a,,,,AAXX 18064 07621 02/00 02202 10190 20170 39756 40175 51006 60006 80000 90600 333 10295 20182 60004=
07621,1996-07-18 09:00:00,25,1017.1,0.5,69,19,20000,11.112,,,300,,,,,,,,,,,wg-a,,,,AAXX 18094 07621 12/70 03006 10250 20190 39761 40171 53005 60006 80000 90900=
07621,1996-07-18 12:00:00,27,1016.9,0.1,74,22,10000,7.408,,,310,,,,,,,,,,,wg-a,,,,AAXX 18124 07621 12760 /3104 10270 20220 39762 40169 50001 60006 81200 91200=
07621,1996-07-18 15:00:00,29,1016.3,-0.4,62,21,10000,14.816,,,290,,,,,,,,,,,wg-a,,,,AAXX 18154 07621 12560 32908 10290 20210 39758 40163 56004 60006 83200 91500=
07621,1996-07-18 18:00:00,27,1017,0.4,58,18,15000,11.112,,,310,19.2,28.8,,,,,,,,,wg-a,,,,AAXX 18184 07621 12665 23106 10270 20180 39762 40170 53004 60006 82900 91800 333 10288 20192=
07621,1996-07-18 21:00:00,22,1019,1.3,73,17,15000,7.408,,,270,,,,,,,,,,,wg-a,,,,AAXX 18214 07621 12665 /2704 10220 20170 39775 40190 51013 60006 85502 92100=
07621,1996-07-19 00:00:00,18,1020.1,0.4,83,15,15000,7.408,,,260,,,,,,,,,,,wg-a,,,,AAXX 19004 07621 12/65 02604 10180 20150 39779 40201 51004 60006 80000 90000=
07621,1996-07-19 03:00:00,17,1020.5,0.2,94,16,1800,7.408,,,280,,,,,,,,,,10,wg-a,,,,AAXX 19034 07621 12218 72804 10170 20160 39781 40205 53002 60006 71011 87600 90300=
07621,1996-07-19 06:00:00,17,1020.6,0.2,94,16,8000,3.704,,,180,16.2,26.4,,,,,,,,,wg-a,,,,AAXX 19064 07621 02158 41802 10170 20160 39783 40206 52002 60006 82601 90600 333 10264 20162 60004=
07621,1996-07-19 09:00:00,23,1020,0.1,53,13,12000,11.112,,,290,,,,,,,,,,,wg-a,,,,AAXX 19094 07621 12/62 22906 10230 20130 39784 40200 52001 60006 80002 90900=
07621,1996-07-19 12:00:00,26,1019.2,-0.3,45,13,25000,11.112,,,280,,,,,,,,,,,wg-a,,,,AAXX 19124 07621 12875 /2806 10260 20130 39781 40192 58003 60006 81100 91200=
07621,1996-07-19 15:00:00,28,1018.5,-0.4,45,15,25000,11.112,,,310,,,,,,,,,,,wg-a,,,,AAXX 19154 07621 12875 /3106 10280 20150 39777 40185 56004 60006 81201 91500=
07621,1996-07-19 18:00:00,26,1018.5,-0.1,58,17,500,7.408,,,310,16.9,28.1,,,,,,,,,wg-a,,,,AAXX 19184 07621 12/00 13104 10260 20170 39776 40185 55001 60006 80001 91800 333 10281 20169=
07621,1996-07-19 21:00:00,20,1020.6,1.1,78,16,20000,3.704,,,190,,,,,,,,,,,wg-a,,,,AAXX 19214 07621 12/70 01902 10200 20160 39787 40206 53011 60006 80000 92100=
07621,1996-07-20 00:00:00,17,1021.2,0.1,82,14,15000,11.112,,,240,,,,,,,,,,,wg-a,,,,AAXX 20004 07621 12/65 02406 10170 20140 39788 40212 50001 60006 80000 90000=
07621,1996-07-20 03:00:00,16,1020.9,-0.4,94,15,15000,7.408,,,210,,,,,,,,,,,wg-a,,,,AAXX 20034 07621 12/65 02104 10160 20150 39784 40209 56004 60006 80000 90300=
07621,1996-07-20 06:00:00,17,1021.1,0.3,88,15,15000,7.408,,,200,15.5,26.4,,,,,,,,,wg-a,,,,AAXX 20064 07621 02465 32004 10170 20150 39787 40211 53003 60006 81580 90600 333 10264 20155 60004=
07621,1996-07-20 09:00:00,21,1020.6,0.2,64,14,20000,11.112,,,260,,,,,,,,,,,wg-a,,,,AAXX 20094 07621 12/70 /2606 10210 20140 39789 40206 51002 60006 81080 90900=
07621,1996-07-20 12:00:00,25,1019.5,-0.6,50,14,20000,11.112,,,320,,,,,,,,,,,wg-a,,,,AAXX 20124 07621 12770 /3206 10250 20140 39783 40195 56006 60006 81100 91200=
07621,1996-07-20 15:00:00,27,1018.6,-0.6,48,15,20000,7.408,,,280,,,,,,,,,,,wg-a,,,,AAXX 20154 07621 12770 /2804 10270 20150 39777 40186 58006 60006 81100 91500=
07621,1996-07-20 18:00:00,26,1018.3,-0.4,54,16,20000,7.408,,,310,16.9,27.1,,,,,,,,,wg-a,,,,AAXX 20184 07621 12770 /3104 10260 20160 39773 40183 55004 60006 81400 91800 333 10271 20169=
07621,1996-07-20 21:00:00,21,1020.3,1.2,78,17,20000,3.704,,,230,,,,,,,,,,,wg-a,,,,AAXX 20214 07621 12/70 12302 10210 20170 39785 40203 53012 60006 81040 92100=
07621,1996-07-21 00:00:00,18,1020.4,-0.3,94,17,20000,7.408,,,230,,,,,,,,,,,wg-a,,,,AAXX 21004 07621 12/70 12304 10180 20170 39782 40204 58003 60006 81040 90000=
07621,1996-07-21 03:00:00,16,1019.9,-0.7,94,15,20000,7.408,,,200,,,,,,,,,,,wg-a,,,,AAXX 21034 07621 12/70 02004 10160 20150 39775 40199 56007 60006 80000 90300=
07621,1996-07-21 06:00:00,16,1020.1,0.1,94,15,20000,7.408,,,190,15.4,26.2,,,,,,,,,wg-a,,,,AAXX 21064 07621 02/70 01904 10160 20150 39776 40201 50001 60006 80000 90600 333 10262 20154 60004=
07621,1996-07-21 09:00:00,23,1018.5,-0.5,69,17,20000,7.408,,,350,,,,,,,,,,,wg-a,,,,AAXX 21094 07621 12/70 03504 10230 20170 39771 40185 58005 60006 80000 90900=
07621,1996-07-21 12:00:00,28,1016.9,-0.9,51,17,0,7.408,,,70,,,,,,,,,,,wg-a,,,,AAXX 21124 07621 12/// /0704 10280 20170 39762 40169 58009 60006 91200=
07621,1996-07-21 15:00:00,30,1015.5,-1.1,40,15,20000,7.408,,,90,,,,,,,,,,,wg-a,,,,AAXX 21154 07621 12770 /0904 10300 20150 39751 40155 57011 60006 81200 91500=
07621,1996-07-21 18:00:00,29,1014.5,-1,43,15,20000,7.408,,,80,16.1,30,,,,,,,,,wg-a,,,,AAXX 21184 07621 12770 10804 10290 20150 39741 40145 56010 60006 81200 91800 333 10300 20161=
07621,1996-07-21 21:00:00,21,1015.6,-0,78,17,25000,3.704,,,180,,,,,,,,,,,wg-a,,,,AAXX 21214 07621 12/75 01802 10210 20170 39741 40156 55000 60006 80000 92100=
07621,1996-07-22 00:00:00,21,1014.7,-1,73,16,25000,7.408,,,150,,,,,,,,,,,wg-a,,,,AAXX 22004 07621 12/75 01504 10210 20160 39731 40147 58010 60006 80000 90000=
07621,1996-07-22 06:00:00,21,1013.7,-0.4,60,13,40000,7.408,,,170,15.9,29.2,,,,,,,,,wg-a,,,,AAXX 22064 07621 02/82 01704 10210 20130 39722 40137 55004 60006 80000 90600 333 10292 20159 60004=
07621,1996-07-22 09:00:00,29,1012.5,0,45,16,40000,7.408,,,30,,,,,,,,,,,wg-a,,,,AAXX 22094 07621 12/82 00304 10290 20160 39722 40125 50000 60006 80000 90900=
07621,1996-07-22 12:00:00,33,1011,-0.9,41,18,40000,11.112,,,60,,,,,,,,,,,wg-a,,,,AAXX 22124 07621 12/82 00606 10330 20180 39713 40110 58009 60006 80000 91200=
07621,1996-07-22 15:00:00,34,1010.6,-0.3,39,18,500,11.112,,,70,,,,,,,,,,,wg-a,,,,AAXX 22154 07621 12700 /0706 10340 20180 39710 40106 58003 60006 81100 91500=
07621,1996-07-22 18:00:00,31,1011.3,0.3,52,20,20000,7.408,,,70,21,34.3,,,,,,,,,wg-a,,,,AAXX 22184 07621 12/70 00704 10310 20200 39713 40113 52003 60006 80000 91800 333 10343 20210=
07621,1996-07-22 21:00:00,22,1015.3,2.6,88,20,8000,22.224,,,290,,,,,,,,,,,wg-a,,,,AAXX 22214 07621 12/58 02912 10220 20200 39739 40153 53026 60006 80000 92100=
07621,1996-07-23 00:00:00,20,1016.7,1.1,88,18,4000,11.112,,,270,,,,,,,,,,10,wg-a,,,,AAXX 23004 07621 12340 72706 10200 20180 39750 40167 51011 60006 71011 876// 90000=
07621,1996-07-23 03:00:00,19,1017,0.1,94,18,2000,11.112,,,300,,,,,,,,,,10,wg-a,,,,AAXX 23034 07621 12220 73006 10190 20180 39751 40170 53001 60006 71022 876// 90300=
07621,1996-07-23 06:00:00,18,1016.7,-0.3,100,18,1500,7.408,,,30,18.4,30.7,,,,,,,,10,wg-a,,,,AAXX 23064 07621 02115 /0304 10180 20180 39748 40167 55003 61000 71052 876// 90600 333 10307 20184 6100=
07621,1996-07-23 09:00:00,20,1016.7,0.1,88,18,4000,7.408,,,330,,,,0,,,,,,10,wg-a,,,,AAXX 23094 07621 12340 83304 10200 20180 39749 40167 53001 60007 71052 885// 90900=
07621,1996-07-23 12:00:00,23,1015.9,-0.8,78,19,500,11.112,,,30,,,,,,,,,,3,wg-a,,,,AAXX 23124 07621 12400 70306 10230 20190 39747 40159 55008 60006 70352 8528/ 91200=
07621,1996-07-23 15:00:00,24,1014.5,-1.2,78,20,8000,11.112,,,30,,,,,,,,,,,wg-a,,,,AAXX 23154 07621 12/58 /0306 10240 20200 39735 40145 58012 60006 86080 91500=
07621,1996-07-23 18:00:00,24,1013.8,-0.7,78,20,10000,14.816,,,60,18.3,25.3,,,,,,,,,wg-a,,,,AAXX 23184 07621 32760 20608 10240 20200 39728 40138 58007 81980 91800 333 10253 20183=
07621,1996-07-23 21:00:00,22,1016.5,2.2,83,19,500,7.408,,,280,,,,,,,,,,,wg-a,,,,AAXX 23214 07621 12500 72804 10220 20190 39750 40165 51022 60006 875// 92100=
07621,1996-07-24 00:00:00,20,1017.4,0.6,88,18,500,3.704,,,270,,,,,,,,,,,wg-a,,,,AAXX 24004 07621 12400 72702 10200 20180 39756 40174 53006 60006 875// 90000=
07621,1996-07-24 03:00:00,19,1016.9,-0.6,88,17,3000,3.704,,,250,,,,,,,,,,10,wg-a,,,,AAXX 24034 07621 12230 72502 10190 20170 39750 40169 57006 60006 71022 876// 90300=
07621,1996-07-24 06:00:00,19,1016.1,-0.8,94,18,2000,3.704,,,30,18.5,24.1,,,,,,,,10,wg-a,,,,AAXX 24064 07621 02220 80302 10190 20180 39742 40161 56008 60006 71022 886// 90600 333 10241 20185 60004=
07621,1996-07-24 09:00:00,22,1016.9,1.2,78,18,500,3.704,,,270,,,,,,,,,,,wg-a,,,,AAXX 24094 07621 12400 72702 10220 20180 39754 40169 51012 60006 875// 90900=
07621,1996-07-24 12:00:00,24,1016.3,-0.2,74,19,9000,7.408,,,50,,,,,,,,,,,wg-a,,,,AAXX 24124 07621 12459 80504 10240 20190 39752 40163 58002 60006 885// 91200=
07621,1996-07-24 15:00:00,25,1016.5,0.3,74,20,10000,7.408,,,320,,,,,,,,,,,wg-a,,,,AAXX 24154 07621 12560 73204 10250 20200 39755 40165 52003 60006 875// 91500=
07621,1996-07-24 18:00:00,25,1015.2,-1.3,74,20,10000,11.112,,,20,18.8,25.3,,,,,,,,,wg-a,,,,AAXX 24184 07621 12660 50206 10250 20200 39742 40152 58013 60006 82522 91800 333 10253 20188=
07621,1996-07-24 21:00:00,22,1016.9,1.4,88,20,7000,0,,,0,,,,,,,,,,,wg-a,,,,AAXX 24214 07621 12557 80000 10220 20200 39756 40169 51014 60006 885// 92100=
07621,1996-07-25 00:00:00,20,1018.3,0.9,88,18,6000,7.408,,,210,,,,,,,,,,,wg-a,,,,AAXX 25004 07621 12556 82104 10200 20180 39765 40183 50009 60006 8557/ 90000=
07621,1996-07-25 03:00:00,19,1016.9,-1.5,88,17,8000,7.408,,,230,,,,,,,,,,,wg-a,,,,AAXX 25034 07621 12558 82304 10190 20170 39750 40169 56015 60006 885// 90300=
07621,1996-07-25 06:00:00,18,1017.4,0.3,94,17,11000,7.408,,,310,16.8,24.5,,,,,,,,,wg-a,,,,AAXX 25064 07621 02/61 /3104 10180 20170 39753 40174 53003 60006 90600 333 10245 20168 60004=
07621,1996-07-25 09:00:00,20,1019.8,2.6,88,18,10000,14.816,,,210,,,,,,,,,,60,wg-a,,,,AAXX 25094 07621 02560 82108 10200 20180 39779 40198 53026 61000 76061 8257/ 90900 333 ////=
07621,1996-07-25 12:00:00,25,1015.4,-3.5,74,20,15000,7.408,,,360,,,,1,,,,,,1,wg-a,,,,AAXX 25124 07621 02/65 43604 10250 20200 39744 40154 56035 60016 70161 80002 91200 333 60017=
07621,1996-07-25 15:00:00,28,1011.7,-3.2,51,17,15000,7.408,,,80,,,,,,,,,,,wg-a,,,,AAXX 25154 07621 12765 70804 10280 20170 39712 40117 58032 60006 8298/ 91500=
07621,1996-07-25 18:00:00,27,1008.1,-3.6,37,11,15000,31.484,,57.412,150,17.5,29.1,,,,,,,,2,wg-a,,,,AAXX 25184 07621 32465 71517 10270 20110 39676 40081 58036 70291 8498/ 91800 333 10291 20175 91031=
07621,1996-07-25 21:00:00,18,1016.5,7,100,18,8000,7.408,,75.932,220,,,,4,,,,,,29,wg-a,,,,AAXX 25214 07621 12458 72204 10180 20180 39746 40165 50070 60047 72998 8598/ 92100 333 91041=
07621,1996-07-26 00:00:00,18,1013,-3.4,94,17,8000,14.816,,75.932,10,,,,2,,,,,,25,wg-a,,,,AAXX 26004 07621 02558 80108 10180 20170 39712 40130 56034 60066 72598 8497/ 90000 333 60027 91041=
07621,1996-07-26 03:00:00,18,1013.3,0.2,94,17,10000,7.408,,,270,,,,2,,,,,,29,wg-a,,,,AAXX 26034 07621 12560 52704 10180 20170 39714 40133 53002 60027 72998 83280 90300=
07621,1996-07-26 06:00:00,18,1014.9,1.5,94,17,2500,11.112,,,260,17.3,26.8,,,,,8,,,10,wg-a,,,,AAXX 26064 07621 12225 82606 10180 20170 39729 40149 51015 60084 71098 877// 90600 333 10268 20173=
07621,1996-07-26 09:00:00,20,1015.1,0.5,88,18,8000,14.816,,,280,,,,,,,,,,25,wg-a,,,,AAXX 26094 07621 02458 72808 10200 20180 39734 40151 51005 61000 72586 875// 90900 333 ////=
07621,1996-07-26 12:00:00,22,1014.7,0,78,18,20000,14.816,,,270,,,,,,,,,,1,wg-a,,,,AAXX 26124 07621 02470 72708 10220 20180 39734 40147 50000 61000 70186 878// 91200 333 ////=
07621,1996-07-26 15:00:00,20,1014.5,-0.5,88,18,15000,11.112,,,280,,,,0,,,,,,29,wg-a,,,,AAXX 26154 07621 12465 /2806 10200 20180 39729 40145 56005 60007 72996 879// 91500=
07621,1996-07-26 18:00:00,19,1014.7,-0,94,18,2500,22.224,,,280,17.6,22.9,,27,,,,,,81,wg-a,,,,AAXX 26184 07621 12325 72812 10190 20180 39729 40147 55000 60277 78198 879// 91800 333 10229 20176=
07621,1996-07-26 21:00:00,17,1016.9,1.8,94,16,4000,25.928,,44.448,260,,,,22,,,,,,10,wg-a,,,,AAXX 26214 07621 12340 82614 10170 20160 39747 40169 52018 60227 71099 879// 92100 333 91024=
07621,1996-07-27 00:00:00,17,1016.9,0,94,16,10000,18.52,,57.412,250,,,,20,,,,,,21,wg-a,,,,AAXX 27004 07621 02560 82510 10170 20160 39747 40169 50000 60416 72196 875// 90000 333 60207 91031=
07621,1996-07-27 03:00:00,17,1015.7,-1.1,94,16,10000,3.704,,,230,,,,,,,,,,,wg-a,,,,AAXX 27034 07621 12460 82302 10170 20160 39736 40157 56011 60006 875// 90300=
07621,1996-07-27 06:00:00,17,1016.9,1.2,100,17,3000,11.112,,,270,15.8,18.5,,,,,69,,,10,wg-a,,,,AAXX 27064 07621 12330 82706 10170 20170 39748 40169 51012 60694 71022 877// 90600 333 10185 20158=
07621,1996-07-27 09:00:00,20,1017.4,0.8,88,18,10000,14.816,,,270,,,,0,,,,,,1,wg-a,,,,AAXX 27094 07621 12460 62708 10200 20180 39756 40174 51008 60007 70186 85830 90900=
07621,1996-07-27 12:00:00,22,1017,-0,73,17,15000,11.112,,,280,,,,,,,,,,2,wg-a,,,,AAXX 27124 07621 12565 52806 10220 20170 39756 40170 55000 60006 70286 8483/ 91200=
07621,1996-07-27 15:00:00,23,1016.2,-0.6,78,19,15000,18.52,,,300,,,,,,,,,,,wg-a,,,,AAXX 27154 07621 12565 /3010 10230 20190 39750 40162 56006 60006 86900 91500=
07621,1996-07-27 18:00:00,18,1019.6,2.5,94,17,8000,25.928,,53.708,250,17.3,24.5,,1,,,,,,29,wg-a,,,,AAXX 27184 07621 12558 72514 10180 20170 39775 40196 53025 60017 72996 879// 91800 333 10245 20173 91029=
07621,1996-07-27 21:00:00,17,1021.6,1.8,94,16,6000,18.52,,,240,,,,2,,,,,,60,wg-a,,,,AAXX 27214 07621 12256 72410 10170 20160 39793 40216 51018 60027 76062 878// 92100=
07621,1996-07-28 00:00:00,17,1021.9,0.2,94,16,10000,14.816,,,250,,,,1,,,,,,60,wg-a,,,,AAXX 28004 07621 02260 72508 10170 20160 39795 40219 50002 60036 76062 875// 90000 333 60017=
07621,1996-07-28 03:00:00,17,1021.3,-0.6,88,15,10000,14.816,,,270,,,,,,,,,,21,wg-a,,,,AAXX 28034 07621 02760 72708 10170 20150 39789 40213 56006 61000 72162 875// 90300 333 ////=
07621,1996-07-28 06:00:00,17,1021.6,0.1,88,15,15000,7.408,,,270,16.3,18.4,,,,,4,,,2,wg-a,,,,AAXX 28064 07621 12465 72704 10170 20150 39790 40216 53001 60044 70262 875// 90600 333 10184 20163=
07621,1996-07-28 09:00:00,19,1021.6,0.5,78,15,15000,11.112,,,280,,,,,,,,,,,wg-a,,,,AAXX 28094 07621 12465 62806 10190 20150 39795 40216 51005 60006 86800 90900=
07621,1996-07-28 12:00:00,22,1020.1,-0.9,69,16,15000,7.408,,,320,,,,,,,,,,,wg-a,,,,AAXX 28124 07621 12565 /3204 10220 20160 39786 40201 56009 60006 86200 91200=
07621,1996-07-28 15:00:00,23,1019.2,-0.9,65,16,15000,7.408,,,40,,,,,,,,,,,wg-a,,,,AAXX 28154 07621 12665 70404 10230 20160 39777 40192 58009 60006 878// 91500=
07621,1996-07-28 18:00:00,22,1018.3,-0.9,69,16,15000,7.408,,,10,16.6,23.5,,,,,,,,,wg-a,,,,AAXX 28184 07621 12665 70104 10220 20160 39768 40183 56009 60006 875// 91800 333 10235 20166=
07621,1996-07-28 21:00:00,18,1019.2,0.2,94,17,15000,3.704,,,190,,,,,,,,,,,wg-a,,,,AAXX 28214 07621 12/65 11902 10180 20170 39770 40192 53002 60006 80001 92100=
07621,1996-07-29 00:00:00,16,1018.6,-0.8,94,15,10000,3.704,,,180,,,,,,,,,,,wg-a,,,,AAXX 29004 07621 12/60 01802 10160 20150 39762 40186 58008 60006 80000 90000=
07621,1996-07-29 03:00:00,15,1017.7,-1,94,14,10000,7.408,,,180,,,,0,,,,,,,wg-a,,,,AAXX 29034 07621 12/60 01804 10150 20140 39752 40177 58010 60007 80000 90300=
07621,1996-07-29 06:00:00,17,1018,0.5,94,16,2000,7.408,,,240,14.8,22.4,,,,,,,,10,wg-a,,,,AAXX 29064 07621 12120 72404 10170 20160 39757 40180 52005 60004 71011 876// 90600 333 10224 20148=
07621,1996-07-29 09:00:00,19,1017.9,0.2,88,17,8000,3.704,,,190,,,,,,,,,,,wg-a,,,,AAXX 29094 07621 12/58 /1902 10190 20170 39759 40179 50002 60006 90900=
07621,1996-07-29 12:00:00,24,1016.2,-0.9,74,19,15000,11.112,,,310,,,,,,,,,,,wg-a,,,,AAXX 29124 07621 12565 /3106 10240 20190 39750 40162 57009 60006 85100 91200=
07621,1996-07-29 15:00:00,24,1015.8,-0.3,74,19,13000,18.52,,,310,,,,,,,,,,,wg-a,,,,AAXX 29154 07621 12563 73110 10240 20190 39747 40158 56003 60006 878// 91500=
07621,1996-07-29 18:00:00,21,1016.7,0.4,83,18,13000,18.52,,,290,16.6,25.2,,,,,,,,3,wg-a,,,,AAXX 29184 07621 02463 82910 10210 20180 39751 40167 53004 61000 70396 888// 91800 333 10252 20166 ////=
07621,1996-07-29 21:00:00,18,1019.7,2.4,88,16,500,14.816,,,250,,,,,,,,,,,wg-a,,,,AAXX 29214 07621 12400 82508 10180 20160 39775 40197 53024 60006 875// 92100=
07621,1996-07-30 00:00:00,17,1020.1,0.3,94,16,500,7.408,,,230,,,,,,,,,,,wg-a,,,,AAXX 30004 07621 12400 82304 10170 20160 39778 40201 50003 60006 875// 90000=
07621,1996-07-30 03:00:00,17,1019.9,-0.3,94,16,500,3.704,,,320,,,,0,,,,,,50,wg-a,,,,AAXX 30034 07621 12100 83202 10170 20160 39775 40199 55003 60007 75052 877// 90300=
07621,1996-07-30 06:00:00,17,1020,0.2,94,16,500,3.704,,,240,16,20.8,,0,,,,,,3,wg-a,,,,AAXX 30064 07621 02200 82402 10170 20160 39777 40200 53002 60004 70352 875// 90600 333 10208 20160 60007=
07621,1996-07-30 09:00:00,18,1020.5,0.6,83,15,10000,11.112,,,210,,,,,,,,,,,wg-a,,,,AAXX 30094 07621 12460 82106 10180 20150 39783 40205 51006 60006 888// 90900=
07621,1996-07-30 12:00:00,20,1020,-0.1,78,16,15000,7.408,,,280,,,,,,,,,,,wg-a,,,,AAXX 30124 07621 12465 72804 10200 20160 39782 40200 58001 60006 878// 91200=
07621,1996-07-30 15:00:00,22,1019.7,-0.1,69,16,15000,11.112,,,250,,,,,,,,,,,wg-a,,,,AAXX 30154 07621 12565 72506 10220 20160 39781 40197 58001 60006 878// 91500=
07621,1996-07-30 18:00:00,22,1019.3,-0.4,69,16,15000,7.408,,,280,16.6,22.9,,,,,,,,,wg-a,,,,AAXX 30184 07621 12565 62804 10220 20160 39777 40193 56004 60006 868/0 91800 333 10229 20166=
07621,1996-07-30 21:00:00,19,1020.5,0.7,83,16,15000,7.408,,,180,,,,,,,,,,,wg-a,,,,AAXX 30214 07621 12765 /1804 10190 20160 39784 40205 52007 60006 86500 92100=
07621,1996-07-31 00:00:00,17,1020.2,-0.5,94,16,15000,3.704,,,240,,,,,,,,,,,wg-a,,,,AAXX 31004 07621 12765 42402 10170 20160 39779 40202 58005 60006 84500 90000=
07621,1996-07-31 03:00:00,17,1019.3,-0.9,94,16,10000,3.704,,,270,,,,,,,,,,,wg-a,,,,AAXX 31034 07621 12560 72702 10170 20160 39770 40193 58009 60006 875// 90300=
07621,1996-07-31 06:00:00,17,1018.9,-0.4,88,15,500,0,,,0,16.3,21.6,,,,,,,,,wg-a,,,,AAXX 31064 07621 02600 40000 10170 20150 39766 40189 56004 60006 84500 90600 333 10216 20163 60004=
07621,1996-07-31 09:00:00,20,1018.2,-0.2,73,15,35000,7.408,,,40,,,,,,,,,,,wg-a,,,,AAXX 31094 07621 12481 30404 10200 20150 39764 40182 58002 60006 83100 90900=
07621,1996-07-31 12:00:00,23,1017.3,-0.4,69,17,500,7.408,,,20,,,,,,,,,,,wg-a,,,,AAXX 31124 07621 12600 /0204 10230 20170 39760 40173 58004 60006 85100 91200=
07621,1996-07-31 15:00:00,25,1016.2,-0.8,57,16,500,7.408,,,300,,,,,,,,,,,wg-a,,,,AAXX 31154 07621 12600 43004 10250 20160 39752 40162 58008 60006 84400 91500=
07621,1996-07-31 18:00:00,24,1015.8,-0.5,61,16,25000,7.408,,,350,16.8,25.3,,,,,,,,,wg-a,,,,AAXX 31184 07621 12675 33504 10240 20160 39747 40158 58005 60006 83500 91800 333 10253 20168=
07621,1996-07-31 21:00:00,19,1017,0.5,88,17,11000,7.408,,,190,,,,,,,,,,,wg-a,,,,AAXX 31214 07621 12/61 /1904 10190 20170 39752 40170 53005 60006 92100=
07621,1996-08-01 00:00:00,19,1017.3,0.2,88,17,15000,7.408,,,260,,,,,,,,,,,wg-a,,,,AAXX 01004 07621 12665 72604 10190 20170 39754 40173 53002 60006 875// 90000=
07621,1996-08-01 03:00:00,18,1016.9,-0.5,88,16,20000,7.408,,,270,,,,,,,,,,,wg-a,,,,AAXX 01034 07621 12670 72704 10180 20160 39749 40169 58005 60006 875// 90300=
07621,1996-08-01 04:00:00,17,1017.4,0.2,94,16,15000,3.704,,,240,16.3,24.3,,,,,,,,,wg-a,,,,AAXX 01044 07621 02665 /2402 10170 20160 39751 40174 52002 60006 81500 90400 333 10243 20163 60004=
07621,1996-08-01 06:00:00,17,1017.4,0.2,94,16,15000,3.704,,,240,16.3,24.3,,,,,,,,,wg-a,,,,AAXX 01064 07621 02665 /2402 10170 20160 39751 40174 52002 60006 81500 90600 333 10243 20163 60004=
07621,1996-08-01 09:00:00,22,1016.4,-0.2,78,18,20000,3.704,,,320,,,,,,,,,,,wg-a,,,,AAXX 01094 07621 12570 /3202 10220 20180 39749 40164 58002 60006 81100 90900=
07621,1996-08-01 12:00:00,24,1016.4,0.3,69,18,20000,11.112,,,320,,,,,,,,,,,wg-a,,,,AAXX 01124 07621 12570 /3206 10240 20180 39752 40164 50003 60006 85100 91200=
07621,1996-08-01 15:00:00,24,1016.5,0.2,74,19,20000,14.816,,,280,,,,,,,,,,,wg-a,,,,AAXX 01154 07621 12570 /2808 10240 20190 39754 40165 53002 60006 86800 91500=
07621,1996-08-01 18:00:00,22,1017.3,0.5,78,18,10000,11.112,,,250,16.6,25,,,,,,,,,wg-a,,,,AAXX 01184 07621 12560 /2506 10220 20180 39759 40173 51005 60006 86800 91800 333 10250 20166=
07621,1996-08-02 00:00:00,17,1020.6,0.5,88,15,8000,11.112,,,230,,,,,,,,,,,wg-a,,,,AAXX 02004 07621 12458 72306 10170 20150 39783 40206 50005 60006 878// 90000=
07621,1996-08-02 03:00:00,17,1020.3,-0.4,88,15,10000,7.408,,,240,,,,,,,,,,,wg-a,,,,AAXX 02034 07621 12460 72404 10170 20150 39779 40203 56004 60006 875// 90300=
07621,1996-08-02 06:00:00,17,1020.1,-0.1,94,16,10000,7.408,,,260,16.7,22.2,,,,,,,,,wg-a,,,,AAXX 02064 07621 02460 72604 10170 20160 39778 40201 55001 60006 878// 90600 333 10222 20167 60004=
07621,1996-08-02 12:00:00,17,1022.4,0.6,88,15,10000,7.408,,,350,,,,,,,,,,2,wg-a,,,,AAXX 02124 07621 02460 83504 10170 20150 39800 40224 53006 61000 70252 888// 91200 333 6100=
07621,1996-08-02 15:00:00,18,1022.4,0.1,83,15,8000,7.408,,,250,,,,,,,,,,,wg-a,,,,AAXX 02154 07621 12458 82504 10180 20150 39801 40224 50001 60006 888// 91500=
07621,1996-08-02 18:00:00,17,1022.8,0.2,88,15,10000,3.704,,,280,16.3,18.2,,,,,,,,,wg-a,,,,AAXX 02184 07621 32360 82802 10170 20150 39803 40228 53002 889// 91800 333 10182 20163=
07621,1996-08-02 21:00:00,15,1023.8,0.8,100,15,4000,7.408,,,290,,,,0,,,,,,10,wg-a,,,,AAXX 02214 07621 12340 82904 10150 20150 39811 40238 51008 60007 71052 885// 92100=
07621,1996-08-03 00:00:00,16,1023.8,0,94,15,500,0,,,0,,,,,,,,,,1,wg-a,,,,AAXX 03004 07621 12500 80000 10160 20150 39811 40238 50000 60006 70152 875// 90000=
07621,1996-08-03 03:00:00,15,1023.1,-0.7,100,15,500,7.408,,,170,,,,0,,,,,,,wg-a,,,,AAXX 03034 07621 12400 81704 10150 20150 39804 40231 58007 60007 875// 90300=
07621,1996-08-03 06:00:00,16,1023,-0,94,15,10000,7.408,,,190,15.3,16.8,,,,,,,,,wg-a,,,,AAXX 03064 07621 12460 81904 10160 20150 39804 40230 55000 60004 875// 90600 333 10168 20153=
07621,1996-08-03 12:00:00,20,1021.9,-0.8,78,16,20000,3.704,,,330,,,,,,,,,,,wg-a,,,,AAXX 03124 07621 12470 73302 10200 20160 39799 40219 57008 60006 878// 91200=
07621,1996-08-03 15:00:00,22,1020.5,-1.1,69,16,20000,3.704,,,60,,,,,,,,,,,wg-a,,,,AAXX 03154 07621 12570 /0602 10220 20160 39788 40205 57011 60006 86800 91500=
07621,1996-08-03 18:00:00,21,1019.7,-0.8,73,16,20000,7.408,,,140,15.8,22.1,,,,,,,,,wg-a,,,,AAXX 03184 07621 12670 41404 10210 20160 39780 40197 56008 60006 82830 91800 333 10221 20158=
07621,1996-08-03 21:00:00,16,1020.1,-0.4,94,15,20000,3.704,,,230,,,,,,,,,,,wg-a,,,,AAXX 03214 07621 12770 22302 10160 20150 39776 40201 58004 60006 81530 92100=
07621,1996-08-04 00:00:00,15,1019.2,-1,94,14,18000,7.408,,,160,,,,,,,,,,,wg-a,,,,AAXX 04004 07621 12/68 01604 10150 20140 39766 40192 58010 60006 80000 90000=
07621,1996-08-04 03:00:00,15,1017.1,-2.1,94,14,18000,7.408,,,170,,,,0,,,,,,,wg-a,,,,AAXX 04034 07621 12/68 21704 10150 20140 39745 40171 56021 60007 82030 90300=
07621,1996-08-04 06:00:00,14,1016.4,-0.7,100,14,500,0,,,0,13.4,21.2,,,,,,,,,wg-a,,,,AAXX 04064 07621 12/00 20000 10140 20140 39738 40164 56007 60004 82080 90600 333 10212 20134=
07621,1996-08-04 09:00:00,22,1014,-1.1,69,16,11000,11.112,,,80,,,,,,,,,,,wg-a,,,,AAXX 04094 07621 12/61 /0806 10220 20160 39727 40140 58011 60006 90900=
07621,1996-08-04 12:00:00,26,1011.3,-2.1,54,16,500,11.112,,,100,,,,,,,,,,,wg-a,,,,AAXX 04124 07621 12700 /1006 10260 20160 39706 40113 58021 60006 81202 91200=
07621,1996-08-04 15:00:00,28,1009.2,-1.8,48,16,20000,7.408,,,70,,,,,,,,,,,wg-a,,,,AAXX 04154 07621 12770 40704 10280 20160 39688 40092 58018 60006 81282 91500=
07621,1996-08-04 18:00:00,26,1008,-1.4,54,16,15000,7.408,,,70,14.2,27.9,,,,,,,,,wg-a,,,,AAXX 04184 07621 12/65 /0704 10260 20160 39674 40080 57014 60006 81083 91800 333 10279 20142=
07621,1996-08-04 21:00:00,16,1015,5.4,94,15,2500,22.224,,,240,,,,23,,,,,,10,wg-a,,,,AAXX 04214 07621 12225 82412 10160 20150 39728 40150 53054 60237 71096 879// 92100=
07621,1996-08-05 00:00:00,17,1012.7,-2.2,94,16,6000,7.408,,,130,,,,10,,,,,,80,wg-a,,,,AAXX 05004 07621 02256 81304 10170 20160 39706 40127 56022 60326 78096 869// 90000 333 60107=
07621,1996-08-05 03:00:00,16,1010.4,-2.2,94,15,20000,7.408,,,220,,,,5,,,,,,29,wg-a,,,,AAXX 05034 07621 12/70 32204 10160 20150 39684 40104 56022 60057 72996 81072 90300=
07621,1996-08-05 06:00:00,17,1011.8,1.4,94,16,8000,7.408,,,260,15.2,25.8,,,,,38,,,3,wg-a,,,,AAXX 05064 07621 12258 82604 10170 20160 39698 40118 52014 60384 70398 887// 90600 333 10258 20152=
07621,1996-08-05 09:00:00,18,1012,0.4,94,17,6000,7.408,,,170,,,,,,,,,,,wg-a,,,,AAXX 05094 07621 12356 81704 10180 20170 39702 40120 50004 60006 887// 90900=
07621,1996-08-05 12:00:00,19,1012,0.2,94,18,6000,14.816,,,300,,,,,,,,,,,wg-a,,,,AAXX 05124 07621 12/56 /3008 10190 20180 39704 40120 52002 60006 91200=
07621,1996-08-05 15:00:00,20,1011.1,-0.8,88,18,9000,7.408,,,340,,,,,,,,,,3,wg-a,,,,AAXX 05154 07621 02459 73404 10200 20180 39696 40111 56008 61000 70352 878// 91500 333 ////=
07621,1996-08-05 18:00:00,21,1010.7,-0.2,83,18,10000,0,,,0,16.7,21.7,,,,,,,,1,wg-a,,,,AAXX 05184 07621 32560 60000 10210 20180 39694 40107 58002 70152 8183/ 91800 333 10217 20167=
07621,1996-08-05 21:00:00,18,1011.1,0,94,17,4000,3.704,,,130,,,,,,,,,,10,wg-a,,,,AAXX 05214 07621 12/40 /1302 10180 20170 39694 40111 50000 60006 71022 80002 92100=
07621,1996-08-06 00:00:00,17,1011.2,-0.1,100,17,3000,3.704,,,170,,,,,,,,,,10,wg-a,,,,AAXX 06004 07621 12230 71702 10170 20170 39693 40112 56001 60006 71022 876// 90000=
07621,1996-08-06 03:00:00,18,1010.1,-1,94,17,3000,0,,,0,,,,,,,,,,10,wg-a,,,,AAXX 06034 07621 12230 70000 10180 20170 39683 40101 56010 60006 71022 876// 90300=
07621,1996-08-06 06:00:00,17,1008.9,-1.3,94,16,2000,0,,,0,16.5,21.4,,,,,,,,10,wg-a,,,,AAXX 06064 07621 02/20 70000 10170 20160 39670 40089 56013 60006 71022 86072 90600 333 10214 20165 60004=
07621,1996-08-06 09:00:00,21,1010,1.6,83,18,10000,14.816,,,270,,,,,,,,,,,wg-a,,,,AAXX 06094 07621 12460 72708 10210 20180 39686 40100 53016 60006 8317/ 90900=
07621,1996-08-06 12:00:00,20,1012.2,2.1,88,18,4000,14.816,,,280,,,,,,,,,,10,wg-a,,,,AAXX 06124 07621 12340 72808 10200 20180 39707 40122 51021 60006 71022 876// 91200=
07621,1996-08-06 15:00:00,19,1013.5,1.1,94,18,6000,11.112,,,280,,,,0,,,,,,60,wg-a,,,,AAXX 06154 07621 12356 82806 10190 20180 39718 40135 51011 60007 76062 8677/ 91500=
07621,1996-08-06 18:00:00,18,1014.7,1,100,18,4000,7.408,,,210,16.5,20.7,,2,,,,,,61,wg-a,,,,AAXX 06184 07621 12240 82104 10180 20180 39728 40147 53010 60027 76162 8752/ 91800 333 10207 20165=
07621,1996-08-06 21:00:00,17,1016,1.1,100,17,500,3.704,,,40,,,,2,,,,,,1,wg-a,,,,AAXX 06214 07621 12200 80402 10170 20170 39739 40160 53011 60027 70162 8772/ 92100=
07621,1996-08-07 00:00:00,17,1015.8,-0.2,100,17,3000,3.704,,,20,,,,,,,,,,10,wg-a,,,,AAXX 07004 07621 12430 80202 10170 20170 39737 40158 57002 60026 71062 875// 90000=
07621,1996-08-07 03:00:00,17,1015.4,-0.4,100,17,2000,3.704,,,60,,,,,,,,,,10,wg-a,,,,AAXX 07034 07621 12120 80602 10170 20170 39733 40154 56004 60006 71022 886// 90300=
07621,1996-08-07 06:00:00,17,1015.5,0.1,100,17,4500,3.704,,,70,16.9,18.3,,,,,4,,,10,wg-a,,,,AAXX 07064 07621 12445 70702 10170 20170 39734 40155 53001 60044 71022 875// 90600 333 10183 20169=
07621,1996-08-07 09:00:00,19,1015.8,0.5,88,17,1500,11.112,,,30,,,,,,,,,,10,wg-a,,,,AAXX 07094 07621 12215 70306 10190 20170 39739 40158 53005 60006 71022 875// 90900=
07621,1996-08-07 12:00:00,21,1014.5,-0.9,83,18,10000,11.112,,,20,,,,0,,,,,,,wg-a,,,,AAXX 07124 07621 02460 70206 10210 20180 39730 40145 58009 60006 878// 91200 333 60007=
07621,1996-08-07 15:00:00,22,1013.6,-0.7,83,19,10000,11.112,,,20,,,,,,,,,,,wg-a,,,,AAXX 07154 07621 12460 70206 10220 20190 39723 40136 56007 60006 878// 91500=
07621,1996-08-07 18:00:00,19,1013.9,-0.1,94,18,8000,11.112,,,20,17,22.1,,3,,,,,,17,wg-a,,,,AAXX 07184 07621 12358 80206 10190 20180 39722 40139 55001 60037 71798 889// 91800 333 10221 20170=
07621,1996-08-07 21:00:00,18,1014,0,100,18,4000,3.704,,,300,,,,4,,,,,,10,wg-a,,,,AAXX 07214 07621 12340 83002 10180 20180 39722 40140 50000 60047 71096 889// 92100=
07621,1996-08-08 00:00:00,16,1014.5,-0,94,15,2000,14.816,,,250,,,,,,,,,,,wg-a,,,,AAXX 08004 07621 12/20 /2508 10160 20150 39722 40145 55000 60056 90000=
07621,1996-08-08 03:00:00,16,1013.6,-0.8,94,15,10000,7.408,,,240,,,,,,,,,,,wg-a,,,,AAXX 08034 07621 12460 82404 10160 20150 39714 40136 56008 60006 886// 90300=
07621,1996-08-08 06:00:00,16,1013.3,-0.4,94,15,10000,7.408,,,250,14.8,19.1,,,,,8,,,,wg-a,,,,AAXX 08064 07621 12460 42504 10160 20150 39710 40133 56004 60084 84500 90600 333 10191 20148=
07621,1996-08-08 09:00:00,19,1013.2,0.4,83,16,12000,3.704,,,260,,,,,,,,,,,wg-a,,,,AAXX 08094 07621 12462 /2602 10190 20160 39714 40132 51004 60006 85100 90900=
07621,1996-08-08 12:00:00,22,1013,0.3,73,17,18000,7.408,,,320,,,,,,,,,,,wg-a,,,,AAXX 08124 07621 12568 /3204 10220 20170 39717 40130 50003 60006 85100 91200=
07621,1996-08-08 15:00:00,24,1011.8,-0.9,69,18,18000,7.408,,,330,,,,,,,,,,,wg-a,,,,AAXX 08154 07621 12568 /3304 10240 20180 39708 40118 57009 60006 85200 91500=
07621,1996-08-08 18:00:00,22,1012.4,0.4,83,19,11000,7.408,,,300,15.5,24.1,,,,,,,,,wg-a,,,,AAXX 08184 07621 12/61 /3004 10220 20190 39712 40124 53004 60006 91800 333 10241 20155=
07621,1996-08-08 21:00:00,20,1013.9,1.1,88,18,8000,7.408,,,200,,,,,,,,,,,wg-a,,,,AAXX 08214 07621 12558 72004 10200 20180 39723 40139 52011 60006 8553/ 92100=
07621,1996-08-09 00:00:00,19,1013.7,-0.3,94,18,10000,3.704,,,260,,,,,,,,,,,wg-a,,,,AAXX 09004 07621 12560 72602 10190 20180 39720 40137 56003 60006 875// 90000=
07621,1996-08-09 03:00:00,18,1012.9,-1,94,17,10000,3.704,,,260,,,,,,,,,,,wg-a,,,,AAXX 09034 07621 12460 72602 10180 20170 39710 40129 58010 60006 875// 90300=
07621,1996-08-09 06:00:00,17,1012.1,-0.8,100,17,1500,3.704,,,50,17.3,22.1,,,,,,,,10,wg-a,,,,AAXX 09064 07621 02215 70502 10170 20170 39702 40121 57008 60006 71022 876// 90600 333 10221 20173 60004=
07621,1996-08-09 12:00:00,27,1008.5,-0.9,66,20,20000,7.408,,,60,,,,,,,,,,,wg-a,,,,AAXX 09124 07621 12770 /0604 10270 20200 39681 40085 58009 60006 8120/ 91200=
07621,1996-08-09 18:00:00,28,1007.3,-0.4,62,20,20000,7.408,,,40,17.2,29.1,,,,,,,,,wg-a,,,,AAXX 09184 07621 12770 20404 10280 20200 39670 40073 55004 60006 81202 91800 333 10291 20172=
07621,1996-08-09 21:00:00,21,1009.3,1,94,20,20000,5.556,,,190,,,,,,,,,,,wg-a,,,,AAXX 09214 07621 12/70 31903 10210 20200 39678 40093 53010 60006 80002 92100=
07621,1996-08-10 00:00:00,19,1009.2,-0.4,88,17,15000,14.816,,,250,,,,,,,,,,13,wg-a,,,,AAXX 10004 07621 12465 32508 10190 20170 39676 40092 58004 60006 71300 83500 90000=
07621,1996-08-10 03:00:00,19,1008.3,-0.9,88,17,12000,7.408,,,230,,,,,,,,,,,wg-a,,,,AAXX 10034 07621 12562 72304 10190 20170 39667 40083 58009 60006 875// 90300=
07621,1996-08-10 06:00:00,18,1007.4,-1,94,17,500,3.704,,,160,16.7,27.6,,,,,,,,,wg-a,,,,AAXX 10064 07621 02800 /1602 10180 20170 39657 40074 56010 60006 81201 90600 333 10276 20167 60004=
07621,1996-08-10 09:00:00,23,1007.1,0.5,78,19,500,11.112,,,310,,,,,,,,,,,wg-a,,,,AAXX 10094 07621 12400 /3106 10230 20190 39662 40071 52005 60006 81202 90900=
07621,1996-08-10 12:00:00,23,1007.8,0.7,78,19,10000,25.928,,,300,,,,,,,,,,,wg-a,,,,AAXX 10124 07621 12560 73014 10230 20190 39669 40078 53007 60006 878// 91200=
07621,1996-08-10 15:00:00,20,1009.5,1.1,88,18,500,14.816,,,250,,,,,,,,,,20,wg-a,,,,AAXX 10154 07621 02400 72508 10200 20180 39680 40095 51011 61000 72052 879// 91500 333 ////=
07621,1996-08-10 18:00:00,18,1010.4,0.7,94,17,2500,11.112,,,230,17.7,25.3,,6,,,,,,10,wg-a,,,,AAXX 10184 07621 12325 72306 10180 20170 39687 40104 53007 60067 71098 879// 91800 333 10253 20177=
07621,1996-08-10 21:00:00,17,1011.7,1.1,94,16,4000,11.112,,,260,,,,,,,,,,10,wg-a,,,,AAXX 10214 07621 02440 72606 10170 20160 39698 40117 52011 61000 71052 875// 92100 333 ////=
07621,1996-08-11 00:00:00,17,1011.4,-0.4,88,15,8000,7.408,,,170,,,,,,,,,,2,wg-a,,,,AAXX 11004 07621 02658 71704 10170 20150 39694 40114 58004 61000 70252 875// 90000 333 ////=
07621,1996-08-11 03:00:00,17,1010,-1.4,88,15,8000,14.816,,,190,,,,,,,,,,,wg-a,,,,AAXX 11034 07621 12658 71908 10170 20150 39680 40100 58014 60006 875// 90300=
07621,1996-08-11 06:00:00,16,1010,-0.1,94,15,12000,7.408,,,170,15.6,18.2,,,,,6,,,21,wg-a,,,,AAXX 11064 07621 02562 71704 10160 20150 39679 40100 56001 60064 72162 8457/ 90600 333 10182 20156 61000=
07621,1996-08-11 09:00:00,19,1010.2,0.7,78,15,15000,11.112,,,270,,,,,,,,,,,wg-a,,,,AAXX 11094 07621 12565 72706 10190 20150 39686 40102 51007 60006 81870 90900=
07621,1996-08-11 12:00:00,20,1013.4,3.2,78,16,15000,22.224,,,290,,,,,,,,,,,wg-a,,,,AAXX 11124 07621 12565 /2912 10200 20160 39718 40134 50032 60006 85830 91200=
07621,1996-08-11 15:00:00,22,1013,-0.1,69,16,20000,31.484,,,280,,,,,,,,,,,wg-a,,,,AAXX 11154 07621 12670 42817 10220 20160 39717 40130 58001 60006 84800 91500=
07621,1996-08-11 18:00:00,20,1014.4,1,78,16,20000,18.52,,,280,15.9,22.4,,,,,,,,,wg-a,,,,AAXX 11184 07621 12670 /2810 10200 20160 39727 40144 53010 60006 86800 91800 333 10224 20159=
07621,1996-08-11 21:00:00,17,1015.4,0.6,88,15,20000,14.816,,,250,,,,,,,,,,,wg-a,,,,AAXX 11214 07621 12670 32508 10170 20150 39733 40154 50006 60006 83500 92100=
07621,1996-08-12 00:00:00,16,1015.8,0.2,94,15,15000,11.112,,,270,,,,0,,,,,,25,wg-a,,,,AAXX 12004 07621 02465 42706 10160 20150 39735 40158 50002 60016 72586 84800 90000 333 60007=
07621,1996-08-12 03:00:00,17,1015,-0.7,88,15,15000,22.224,,,250,,,,1,,,,,,25,wg-a,,,,AAXX 12034 07621 12565 /2512 10170 20150 39728 40150 56007 60017 72511 86800 90300=
07621,1996-08-12 06:00:00,15,1015.9,0.7,94,14,500,14.816,,,260,15.2,19.6,,1,,,2,,,21,wg-a,,,,AAXX 12064 07621 02400 62608 10150 20140 39735 40159 53007 60024 72186 83872 90600 333 10196 20152 60017=
07621,1996-08-12 09:00:00,19,1,-3.2,73,14,20000,18.52,,,250,,,,,,,,,,,wg-a,,,,AAXX 12094 07621 12470 42510 10190 20140 58032 60006 84800 90900=
07621,1996-08-12 12:00:00,20,1016.4,4.4,73,15,20000,18.52,,,310,,,,,,,,,,,wg-a,,,,AAXX 12124 07621 12570 43110 10200 20150 39747 40164 50044 60006 84800 91200=
07621,1996-08-12 15:00:00,20,1016.4,-0,64,13,15000,22.224,,,300,,,,,,,,,,,wg-a,,,,AAXX 12154 07621 12565 53012 10200 20130 39747 40164 54000 60006 85200 91500=
07621,1996-08-12 18:00:00,18,1016.4,-0.3,77,14,20000,11.112,,,300,15.1,21.4,,,,,,,,,wg-a,,,,AAXX 12184 07621 12570 /3006 10180 20140 39744 40164 56003 60006 86800 91800 333 10214 20151=
07621,1996-08-12 21:00:00,17,1018.1,1.4,82,14,11000,7.408,,,220,,,,,,,,,,,wg-a,,,,AAXX 12214 07621 12/61 /2204 10170 20140 39758 40181 53014 60006 92100=
07621,1996-08-13 00:00:00,16,1018.3,-0,88,14,20000,3.704,,,250,,,,,,,,,,,wg-a,,,,AAXX 13004 07621 12670 /2502 10160 20140 39758 40183 54000 60006 85500 90000=
07621,1996-08-13 03:00:00,14,1017.7,-0.7,94,13,15000,3.704,,,190,,,,,,,,,,,wg-a,,,,AAXX 13034 07621 12465 71902 10140 20130 39751 40177 58007 60006 875// 90300=
07621,1996-08-13 06:00:00,15,1018,,94,14,15000,3.704,,,190,14.3,18.3,,,,,,,,,wg-a,,,,AAXX 13064 07621 02365 71902 10150 20140 39753 40180 60006 875// 90600 333 10183 20143 60004=
07621,1996-08-13 09:00:00,15,1019.1,,94,14,15000,3.704,,,190,14.3,18.3,,,,,,,,,wg-a,,,,AAXX 13094 07621 12365 71902 10150 20140 39763 40191 60006 875// 90900 333 10183 20143=
07621,1996-08-13 12:00:00,20,1017.3,-0.5,64,13,40000,7.408,,,10,,,,,,,,,,,wg-a,,,,AAXX 13124 07621 12682 /0104 10200 20130 39755 40173 58005 60006 86800 91200=
07621,1996-08-13 15:00:00,21,1016.5,-0.7,56,12,500,7.408,,,30,,,,,,,,,,,wg-a,,,,AAXX 13154 07621 12600 70304 10210 20120 39748 40165 58007 60006 878// 91500=
07621,1996-08-13 18:00:00,20,1016.4,-0.2,64,13,20000,3.704,,,30,14.6,21.5,,,,,,,,,wg-a,,,,AAXX 13184 07621 12670 70302 10200 20130 39746 40164 56002 60006 878// 91800 333 10215 20146=
07621,1996-08-13 21:00:00,17,1017.7,0.9,88,15,20000,3.704,,,200,,,,,,,,,,,wg-a,,,,AAXX 13214 07621 12670 /2002 10170 20150 39755 40177 51009 60006 86500 92100=
07621,1996-08-14 00:00:00,17,1017.8,0,82,14,12000,3.704,,,170,,,,,,,,,,,wg-a,,,,AAXX 14004 07621 12662 71702 10170 20140 39755 40178 50000 60006 875// 90000=
07621,1996-08-14 03:00:00,14,1017.2,-1,94,13,12000,3.704,,,220,,,,,,,,,,,wg-a,,,,AAXX 14034 07621 12762 72202 10140 20130 39745 40172 56010 60006 875// 90300=
07621,1996-08-14 06:00:00,14,1017.4,0.2,94,13,50000,3.704,,,170,13.2,19.7,,,,,,,,,wg-a,,,,AAXX 14064 07621 02/84 71702 10140 20130 39747 40174 53002 60006 81084 90600 333 10197 20132 60004=
07621,1996-08-14 09:00:00,19,1017,0.3,78,15,20000,7.408,,,40,,,,,,,,,,,wg-a,,,,AAXX 14094 07621 12770 70404 10190 20150 39750 40170 52003 60006 81584 90900=
07621,1996-08-14 12:00:00,23,1015.8,-0.6,57,14,20000,11.112,,,90,,,,,,,,,,,wg-a,,,,AAXX 14124 07621 12670 /0906 10230 20140 39744 40158 58006 60006 81232 91200=
07621,1996-08-14 15:00:00,23,1015.3,-0.5,57,14,20000,3.704,,,20,,,,,,,,,,,wg-a,,,,AAXX 14154 07621 12670 70202 10230 20140 39739 40153 57005 60006 8713/ 91500=
07621,1996-08-14 18:00:00,22,1015.1,-0.3,65,15,20000,7.408,,,20,13.6,23.3,,,,,,,,,wg-a,,,,AAXX 14184 07621 12770 70204 10220 20150 39736 40151 58003 60006 8757/ 91800 333 10233 20136=
07621,1996-08-14 21:00:00,18,1017,1.4,88,16,15000,7.408,,,170,,,,,,,,,,,wg-a,,,,AAXX 14214 07621 12/65 /1704 10180 20160 39750 40170 52014 60006 82082 92100=
07621,1996-08-15 00:00:00,17,1017.1,0,88,15,15000,7.408,,,170,,,,,,,,,,,wg-a,,,,AAXX 15004 07621 12/65 71704 10170 20150 39750 40171 50000 60006 84082 90000=
07621,1996-08-15 03:00:00,16,1017.2,-0.1,94,15,15000,7.408,,,160,,,,,,,,,,,wg-a,,,,AAXX 15034 07621 12665 71604 10160 20150 39749 40172 56001 60006 84582 90300=
07621,1996-08-15 06:00:00,15,1017.8,0.4,94,14,500,7.408,,,190,14.7,21.7,,,,,,,,,wg-a,,,,AAXX 15064 07621 02/00 01904 10150 20140 39753 40178 51004 60006 80000 90600 333 10217 20147 60004=
07621,1996-08-15 09:00:00,21,1017.5,0.6,73,16,20000,3.704,,,30,,,,,,,,,,,wg-a,,,,AAXX 15094 07621 12570 /0302 10210 20160 39759 40175 52006 60006 81100 90900=
07621,1996-08-15 12:00:00,24,1016.9,-0.2,57,15,15000,11.112,,,350,,,,,,,,,,,wg-a,,,,AAXX 15124 07621 12665 23506 10240 20150 39757 40169 58002 60006 82200 91200=
07621,1996-08-15 15:00:00,25,1016.1,-0.6,54,15,15000,11.112,,,360,,,,,,,,,,,wg-a,,,,AAXX 15154 07621 12665 /3606 10250 20150 39751 40161 57006 60006 81100 91500=
07621,1996-08-15 18:00:00,24,1015.8,-0.5,61,16,15000,7.408,,,30,15.3,25.3,,,,,,,,,wg-a,,,,AAXX 15184 07621 12665 /0304 10240 20160 39746 40158 56005 60006 81400 91800 333 10253 20153=
07621,1996-08-15 21:00:00,19,1018,1.4,88,17,15000,3.704,,,190,,,,,,,,,,,wg-a,,,,AAXX 15214 07621 12665 21902 10190 20170 39760 40180 51014 60006 82500 92100=
07621,1996-08-16 00:00:00,16,1017.8,-0.5,94,15,15000,7.408,,,160,,,,,,,,,,,wg-a,,,,AAXX 16004 07621 12/65 01604 10160 20150 39755 40178 58005 60006 80000 90000=
07621,1996-08-16 06:00:00,15,1018,0.4,94,14,12000,7.408,,,160,14.4,24,,,,,,,,,wg-a,,,,AAXX 16064 07621 02/62 01604 10150 20140 39755 40180 53004 60006 80000 90600 333 10240 20144 60004=
07621,1996-08-16 09:00:00,24,1017.1,0.4,69,18,500,3.704,,,60,,,,,,,,,,,wg-a,,,,AAXX 16094 07621 12/00 00602 10240 20180 39759 40171 51004 60006 80000 90900=
07621,1996-08-16 12:00:00,26,1016.6,-0.2,58,17,15000,7.408,,,60,,,,,,,,,,,wg-a,,,,AAXX 16124 07621 12765 /0604 10260 20170 39757 40166 58002 60006 81200 91200=
07621,1996-08-16 15:00:00,27,1016.2,-0.3,51,16,15000,7.408,,,10,,,,,,,,,,,wg-a,,,,AAXX 16154 07621 12865 /0104 10270 20160 39754 40162 56003 60006 81200 91500=
07621,1996-08-16 18:00:00,26,1016.6,0.3,61,18,20000,3.704,,,340,15.1,27.3,,,,,,,,,wg-a,,,,AAXX 16184 07621 12870 /3402 10260 20180 39757 40166 53003 60006 81200 91800 333 10273 20151=
07621,1996-08-16 21:00:00,20,1019,1.4,83,17,15000,7.408,,,140,,,,,,,,,,,wg-a,,,,AAXX 16214 07621 12/65 01404 10200 20170 39771 40190 53014 60006 80000 92100=
07621,1996-08-17 00:00:00,17,1019.2,-0.2,94,16,15000,7.408,,,170,,,,,,,,,,,wg-a,,,,AAXX 17004 07621 12/65 01704 10170 20160 39769 40192 56002 60006 80000 90000=
07621,1996-08-17 06:00:00,17,1020.2,0.6,88,15,25000,11.112,,,170,16.4,26.1,,,,,,,,,wg-a,,,,AAXX 17064 07621 02/75 01706 10170 20150 39778 40202 53006 60006 80000 90600 333 10261 20164 60004=
07621,1996-08-17 09:00:00,25,1019.4,0.4,61,17,50000,0,,,0,,,,,,,,,,,wg-a,,,,AAXX 17094 07621 12/84 00000 10250 20170 39782 40194 52004 60006 80000 90900=
07621,1996-08-17 12:00:00,27,1018.7,-0.4,51,16,40000,7.408,,,330,,,,,,,,,,,wg-a,,,,AAXX 17124 07621 12/82 03304 10270 20160 39778 40187 58004 60006 80000 91200=
07621,1996-08-17 15:00:00,29,1017.4,-1,45,16,40000,7.408,,,340,,,,,,,,,,,wg-a,,,,AAXX 17154 07621 12/82 13404 10290 20160 39768 40174 58010 60006 81080 91500=
07621,1996-08-17 18:00:00,27,1017.3,-0.4,54,17,40000,3.704,,,20,16.8,28.7,,,,,,,,,wg-a,,,,AAXX 17184 07621 12/82 00202 10270 20170 39764 40173 56004 60006 80000 91800 333 10287 20168=
07621,1996-08-17 21:00:00,19,1018.8,0.5,88,17,15000,7.408,,,170,,,,,,,,,,,wg-a,,,,AAXX 17214 07621 12/65 01704 10190 20170 39769 40188 51005 60006 80000 92100=
07621,1996-08-18 00:00:00,18,1018.1,-1,83,15,15000,7.408,,,180,,,,,,,,,,,wg-a,,,,AAXX 18004 07621 12/65 01804 10180 20150 39759 40181 58010 60006 80000 90000=
07621,1996-08-18 03:00:00,14,1017.8,-0.7,94,13,15000,3.704,,,150,,,,,,,,,,,wg-a,,,,AAXX 18034 07621 12/65 01502 10140 20130 39752 40178 58007 60006 80000 90300=
07621,1996-08-18 06:00:00,15,1017.4,-0.4,82,12,50000,3.704,,,170,13.9,26.4,,,,,,,,,wg-a,,,,AAXX 18064 07621 02/84 01702 10150 20120 39748 40174 57004 60006 80000 90600 333 10264 20139 60004=
07621,1996-08-18 09:00:00,25,1016,0.1,50,14,50000,3.704,,,10,,,,,,,,,,,wg-a,,,,AAXX 18094 07621 12/84 00102 10250 20140 39749 40160 51001 60006 80000 90900=
07621,1996-08-18 12:00:00,28,1014.5,-1,48,16,50000,7.408,,,350,,,,,,,,,,,wg-a,,,,AAXX 18124 07621 12884 /3504 10280 20160 39739 40145 57010 60006 81100 91200=
07621,1996-08-18 15:00:00,29,1013.3,-1.1,43,15,50000,7.408,,,30,,,,,,,,,,,wg-a,,,,AAXX 18154 07621 12884 /0304 10290 20150 39728 40133 57011 60006 81100 91500=
07621,1996-08-18 18:00:00,27,1012.5,-0.9,54,17,50000,3.704,,,20,14.9,28.7,,,,,,,,,wg-a,,,,AAXX 18184 07621 12884 /0202 10270 20170 39719 40125 56009 60006 81182 91800 333 10287 20149=
07621,1996-08-19 00:00:00,18,1013.6,-0.9,88,16,50000,7.408,,,150,,,,,,,,,,,wg-a,,,,AAXX 19004 07621 12/84 01504 10180 20160 39717 40136 58009 60006 80000 90000=
07621,1996-08-19 03:00:00,18,1013.8,0.2,83,15,500,7.408,,,180,,,,,,,,,,,wg-a,,,,AAXX 19034 07621 12/00 41804 10180 20150 39719 40138 53002 60006 84030 90300=
07621,1996-08-19 06:00:00,18,1014.2,0.4,100,18,1200,3.704,,,210,16.8,27,,,,,,,,10,wg-a,,,,AAXX 19064 07621 02112 82102 10180 20180 39723 40142 53004 60006 71011 886// 90600 333 10270 20168 60004=
07621,1996-08-19 09:00:00,20,1014.4,0.5,94,19,3000,7.408,,,300,,,,,,,,,,10,wg-a,,,,AAXX 19094 07621 12330 73004 10200 20190 39728 40144 51005 60006 71022 876// 90900=
07621,1996-08-19 12:00:00,23,1013.2,-0.9,78,19,6000,7.408,,,30,,,,,,,,,,,wg-a,,,,AAXX 19124 07621 12556 70304 10230 20190 39719 40132 57009 60006 875// 91200=
07621,1996-08-19 15:00:00,25,1011.6,-1.1,69,19,10000,3.704,,,60,,,,,,,,,,,wg-a,,,,AAXX 19154 07621 12660 70602 10250 20190 39708 40116 57011 60006 872// 91500=
07621,1996-08-19 18:00:00,24,1011.7,-0.1,78,20,10000,7.408,,,250,18.2,25.1,,,,,,,,,wg-a,,,,AAXX 19184 07621 12660 72504 10240 20200 39707 40117 55001 60006 878// 91800 333 10251 20182=
07621,1996-08-19 21:00:00,20,1014.4,2.1,94,19,3000,11.112,,,290,,,,,,,,,,10,wg-a,,,,AAXX 19214 07621 12330 82906 10200 20190 39728 40144 53021 60006 71022 886// 92100=
07621,1996-08-20 00:00:00,18,1014.5,-0.2,100,18,8000,11.112,,,270,,,,0,,,,,,,wg-a,,,,AAXX 20004 07621 02358 82706 10180 20180 39726 40145 58002 60006 886// 90000 333 60007=
07621,1996-08-20 03:00:00,18,1014.5,-0,100,18,2000,3.704,,,290,,,,1,,,,,,51,wg-a,,,,AAXX 20034 07621 12320 82902 10180 20180 39726 40145 55000 60017 75152 885// 90300=
07621,1996-08-20 06:00:00,18,1014,-0.6,94,17,12000,3.704,,,230,17.3,23.5,,1,,,2,,,1,wg-a,,,,AAXX 20064 07621 02362 72302 10180 20170 39720 40140 58006 60024 70152 875// 90600 333 10235 20173 60017=
07621,1996-08-20 09:00:00,18,1014.4,0.5,94,17,6000,7.408,,,290,,,,,,,,,,,wg-a,,,,AAXX 20094 07621 12356 72904 10180 20170 39725 40144 51005 60006 876// 90900=
07621,1996-08-20 12:00:00,19,1014.4,0.2,94,18,3000,3.704,,,100,,,,,,,,,,10,wg-a,,,,AAXX 20124 07621 12330 71002 10190 20180 39727 40144 53002 60006 71022 879// 91200=
07621,1996-08-20 15:00:00,19,1013.5,-0.9,94,18,6000,7.408,,,340,,,,2,,,,,,29,wg-a,,,,AAXX 20154 07621 12356 63404 10190 20180 39718 40135 58009 60027 72996 86900 91500=
07621,1996-08-20 18:00:00,19,1012.2,-1.3,94,18,6000,7.408,,,280,17.5,19.7,,0,,,,,,17,wg-a,,,,AAXX 20184 07621 12356 62804 10190 20180 39705 40122 58013 60007 71796 86930 91800 333 10197 20175=
07621,1996-08-20 21:00:00,18,1014.2,1.8,100,18,8000,7.408,,,240,,,,,,,,,,3,wg-a,,,,AAXX 20214 07621 12358 82404 10180 20180 39723 40142 50018 60006 70392 877// 92100=
07621,1996-08-21 00:00:00,17,1014.1,-0.2,100,17,10000,7.408,,,190,,,,1,,,,,,61,wg-a,,,,AAXX 21004 07621 02660 81904 10170 20170 39721 40141 58002 60016 76196 8357/ 90000 333 60017=
07621,1996-08-21 03:00:00,17,1012.9,-1.2,94,16,10000,3.704,,,110,,,,6,,,,,,29,wg-a,,,,AAXX 21034 07621 12660 81102 10170 20160 39709 40129 58012 60067 72996 8297/ 90300=
07621,1996-08-21 06:00:00,15,1013.3,-0,94,14,6000,7.408,,,180,13.9,19,,,,,10,,,3,wg-a,,,,AAXX 21064 07621 12256 71804 10150 20140 39709 40133 55000 60104 70396 8553/ 90600 333 10190 20139=
07621,1996-08-21 09:00:00,18,1014.7,1.8,88,16,15000,7.408,,,290,,,,,,,,,,,wg-a,,,,AAXX 21094 07621 12365 72904 10180 20160 39727 40147 53018 60006 875// 90900=
07621,1996-08-21 12:00:00,19,1014.5,0,83,16,20000,29.632,,,280,,,,,,,,,,,wg-a,,,,AAXX 21124 07621 12570 72816 10190 20160 39727 40145 50000 60006 84503 91200=
07621,1996-08-21 15:00:00,19,1015.2,0.7,83,16,20000,14.816,,,280,,,,,,,,,,,wg-a,,,,AAXX 21154 07621 12570 72808 10190 20160 39734 40152 53007 60006 878// 91500=
07621,1996-08-21 18:00:00,18,1016.2,0.7,83,15,20000,14.816,,,250,14.5,20.6,,0,,,,,,3,wg-a,,,,AAXX 21184 07621 12470 72508 10180 20150 39741 40162 51007 60007 70386 8583/ 91800 333 10206 20145=
07621,1996-08-21 21:00:00,15,1018.3,1.7,100,15,10000,7.408,,,200,,,,5,,,,,,2,wg-a,,,,AAXX 21214 07621 12660 /2004 10150 20150 39758 40183 51017 60057 70286 8583/ 92100=
07621,1996-08-22 00:00:00,14,1018.3,-0.3,94,13,10000,7.408,,,260,,,,,,,,,,3,wg-a,,,,AAXX 22004 07621 12560 62604 10140 20130 39755 40183 55003 60056 70386 85530 90000=
07621,1996-08-22 03:00:00,14,1017.9,-0.2,100,14,10000,3.704,,,170,,,,,,,,,,,wg-a,,,,AAXX 22034 07621 12560 41702 10140 20140 39753 40179 58002 60006 83530 90300=
07621,1996-08-22 06:00:00,14,1017.9,-0.2,94,13,20000,3.704,,,150,12.3,17.6,,,,,5,,,,wg-a,,,,AAXX 22064 07621 12570 41502 10140 20130 39751 40179 56002 60054 84500 90600 333 10176 20123=
07621,1996-08-22 09:00:00,18,1017.2,0.1,77,14,20000,7.408,,,90,,,,,,,,,,,wg-a,,,,AAXX 22094 07621 12470 30904 10180 20140 39752 40172 53001 60006 83100 90900=
07621,1996-08-22 12:00:00,21,1016,-0.8,69,15,50000,11.112,,,50,,,,,,,,,,,wg-a,,,,AAXX 22124 07621 12584 20506 10210 20150 39744 40160 58008 60006 82100 91200=
07621,1996-08-22 15:00:00,24,1014,-1.5,57,15,50000,7.408,,,70,,,,,,,,,,,wg-a,,,,AAXX 22154 07621 12684 /0704 10240 20150 39729 40140 58015 60006 81200 91500=
07621,1996-08-22 18:00:00,23,1014.1,-0.1,57,14,50000,7.408,,,50,13.5,24.1,,,,,,,,,wg-a,,,,AAXX 22184 07621 12684 /0504 10230 20140 39728 40141 58001 60006 81100 91800 333 10241 20135=
07621,1996-08-22 21:00:00,17,1014.8,-0.1,88,15,10000,3.704,,,180,,,,,,,,,,,wg-a,,,,AAXX 22214 07621 12/60 /1802 10170 20150 39727 40148 58001 60006 92100=
07621,1996-08-23 00:00:00,15,1013.9,-1.2,94,14,50000,7.408,,,170,,,,,,,,,,,wg-a,,,,AAXX 23004 07621 12684 /1704 10150 20140 39715 40139 56012 60006 81500 90000=
07621,1996-08-23 03:00:00,16,1012.7,-1,82,13,50000,14.816,,,180,,,,,,,,,,,wg-a,,,,AAXX 23034 07621 12684 /1808 10160 20130 39705 40127 56010 60006 81500 90300=
07621,1996-08-23 06:00:00,20,1013.4,1.2,68,14,500,31.484,,55.56,300,13.8,22.5,,,,,,,,,wg-a,,,,AAXX 23064 07621 02800 /3017 10200 20140 39717 40134 53012 60006 81130 90600 333 10225 20138 60004 91030=
07621,1996-08-23 09:00:00,19,1015.8,2.3,88,17,11000,11.112,,,280,,,,,,,,,,,wg-a,,,,AAXX 23094 07621 12/61 /2806 10190 20170 39740 40158 51023 60006 90900=
07621,1996-08-23 12:00:00,17,1017.1,0.9,94,16,4000,14.816,,53.708,310,,,,1,,,,,,50,wg-a,,,,AAXX 23124 07621 02340 83108 10170 20160 39749 40171 53009 60016 75052 885// 91200 333 60017 91029=
07621,1996-08-23 15:00:00,16,1018.1,0.8,94,15,2000,14.816,,,310,,,,2,,,,,,10,wg-a,,,,AAXX 23154 07621 12320 83108 10160 20150 39757 40181 51008 60027 71055 885// 91500=
07621,1996-08-23 18:00:00,17,1017.6,-0.3,88,15,20000,3.704,,,260,15.4,20,,,,,,,,1,wg-a,,,,AAXX 23184 07621 02570 /2602 10170 20150 39754 40176 55003 61000 70152 875// 91800 333 10200 20154 ////=
07621,1996-08-23 21:00:00,16,1019.2,1.3,88,14,20000,11.112,,,280,,,,,,,,,,,wg-a,,,,AAXX 23214 07621 12470 /2806 10160 20140 39767 40192 52013 60006 878// 92100=
07621,1996-08-24 00:00:00,15,1018.3,-0.9,94,14,15000,7.408,,,230,,,,,,,,,,,wg-a,,,,AAXX 24004 07621 12765 72304 10150 20140 39758 40183 57009 60006 875// 90000=
07621,1996-08-24 03:00:00,13,1018,-0.6,94,12,15000,7.408,,,200,,,,,,,,,,,wg-a,,,,AAXX 24034 07621 12765 72004 10130 20120 39752 40180 56006 60006 875// 90300=
07621,1996-08-24 06:00:00,14,1017.8,-0.1,88,12,20000,7.408,,,160,13.2,16.9,,,,,3,,,,wg-a,,,,AAXX 24064 07621 02770 /1604 10140 20120 39751 40178 55001 60006 86500 90600 333 10169 20132 60034=
07621,1996-08-24 09:00:00,18,1018.1,0.9,68,12,500,7.408,,,280,,,,,,,,,,,wg-a,,,,AAXX 24094 07621 12600 52804 10180 20120 39760 40181 51009 60006 85800 90900=
07621,1996-08-24 12:00:00,20,1017.1,-0.7,64,13,500,14.816,,,270,,,,,,,,,,,wg-a,,,,AAXX 24124 07621 12500 52708 10200 20130 39753 40171 58007 60006 85200 91200=
07621,1996-08-24 15:00:00,20,1017.4,0.2,64,13,20000,25.928,,,280,,,,,,,,,,,wg-a,,,,AAXX 24154 07621 12570 52814 10200 20130 39755 40174 51002 60006 85800 91500=
07621,1996-08-24 18:00:00,17,1018.2,0.4,82,14,20000,11.112,,,250,14.1,21,,,,,,,,,wg-a,,,,AAXX 24184 07621 12570 62506 10170 20140 39759 40182 51004 60006 86800 91800 333 10210 20141=
07621,1996-08-24 21:00:00,15,1019.7,1.2,82,12,20000,11.112,,,240,,,,,,,,,,,wg-a,,,,AAXX 24214 07621 12770 22406 10150 20120 39771 40197 51012 60006 82500 92100=
07621,1996-08-25 00:00:00,12,1019.8,-0.4,94,11,20000,11.112,,,250,,,,,,,,,,,wg-a,,,,AAXX 25004 07621 12770 /2506 10120 20110 39767 40198 58004 60006 81501 90000=
07621,1996-08-25 03:00:00,12,1018.9,-0.9,94,11,20000,7.408,,,160,,,,,,,,,,,wg-a,,,,AAXX 25034 07621 12/70 51604 10120 20110 39758 40189 56009 60006 80001 90300=
07621,1996-08-25 06:00:00,12,1018.7,-0.1,94,11,50000,11.112,,,200,11.7,17,,,,,,,,,wg-a,,,,AAXX 25064 07621 02784 /2006 10120 20110 39757 40187 55001 60006 81531 90600 333 10170 20117 60004=
07621,1996-08-25 09:00:00,18,1018.3,0.5,73,13,50000,11.112,,,320,,,,,,,,,,,wg-a,,,,AAXX 25094 07621 12584 /3206 10180 20130 39762 40183 53005 60006 81232 90900=
07621,1996-08-25 12:00:00,21,1016.8,-1.1,60,13,50000,3.704,,,10,,,,,,,,,,,wg-a,,,,AAXX 25124 07621 12684 /0102 10210 20130 39751 40168 58011 60006 81232 91200=
07621,1996-08-25 15:00:00,21,1015.5,-1.2,60,13,500,3.704,,,330,,,,,,,,,,,wg-a,,,,AAXX 25154 07621 12600 73302 10210 20130 39739 40155 56012 60006 83232 91500=
07621,1996-08-25 18:00:00,20,1015.1,-0.6,68,14,500,3.704,,,50,12.3,21.8,,,,,,,,,wg-a,,,,AAXX 25184 07621 12600 80502 10200 20140 39733 40151 58006 60006 8357/ 91800 333 10218 20123=
07621,1996-08-25 21:00:00,17,1015.1,-0.3,88,15,500,7.408,,,20,,,,,,,,,,,wg-a,,,,AAXX 25214 07621 12/00 80204 10170 20150 39730 40151 56003 60006 8807/ 92100=
07621,1996-08-26 00:00:00,16,1015,-0.3,88,14,20000,0,,,0,,,,,,,,,,,wg-a,,,,AAXX 26004 07621 12/70 80000 10160 20140 39727 40150 56003 60006 8807/ 90000=
07621,1996-08-26 03:00:00,14,1014.7,-0.5,94,13,20000,7.408,,,260,,,,,,,,,,,wg-a,,,,AAXX 26034 07621 12/70 82604 10140 20130 39722 40147 56005 60006 8807/ 90300=
07621,1996-08-26 06:00:00,15,1015.9,1.2,94,14,10000,3.704,,,280,14.2,19.4,,,,,,,,,wg-a,,,,AAXX 26064 07621 02260 82802 10150 20140 39734 40159 53012 60006 8277/ 90600 333 10194 20142 60004=
07621,1996-08-26 09:00:00,16,1015.7,0,94,15,8000,7.408,,,20,,,,3,,,,,,63,wg-a,,,,AAXX 26094 07621 12358 70204 10160 20150 39734 40157 50000 60037 76386 878// 90900=
07621,1996-08-26 12:00:00,18,1015.4,0,94,17,8000,7.408,,,360,,,,2,,,,,,60,wg-a,,,,AAXX 26124 07621 02258 73604 10180 20170 39734 40154 50000 60056 76086 878// 91200 333 60027=
07621,1996-08-26 15:00:00,17,1015.3,-0.2,94,16,8000,0,,,0,,,,3,,,,,,60,wg-a,,,,AAXX 26154 07621 12458 70000 10170 20160 39732 40153 58002 60037 76062 878// 91500=
07621,1996-08-26 18:00:00,16,1015.5,0.1,100,16,10000,0,,,0,14.5,19.1,,8,,,,,,25,wg-a,,,,AAXX 26184 07621 12260 70000 10160 20160 39733 40155 50001 60087 72586 878// 91800 333 10191 20145=
07621,1996-08-27 00:00:00,16,1016.8,0.1,100,16,8000,3.704,,,200,,,,3,,,,,,21,wg-a,,,,AAXX 27004 07621 02258 72002 10160 20160 39745 40168 53001 60056 72162 875// 90000 333 60037=
07621,1996-08-27 03:00:00,16,1015.7,-1.1,94,15,8000,0,,,0,,,,8,,,,,,60,wg-a,,,,AAXX 27034 07621 12258 70000 10160 20150 39734 40157 58011 60087 76062 875// 90300=
07621,1996-08-27 06:00:00,16,1016,0.3,100,16,2000,3.704,,,340,15.6,16.4,,6,,,35,,,60,wg-a,,,,AAXX 27064 07621 02220 73402 10160 20160 39737 40160 53003 60354 76086 877// 90600 333 10164 20156 60067=
07621,1996-08-27 09:00:00,16,1017.6,1.5,100,16,1200,7.408,,,340,,,,,,,,,,,wg-a,,,,AAXX 27094 07621 32/12 /3404 10160 20160 39752 40176 53015 90900=
07621,1996-08-27 12:00:00,15,1018.8,1,94,14,1500,22.224,,,320,,,,5,,,,,,61,wg-a,,,,AAXX 27124 07621 02115 83212 10150 20140 39762 40188 53010 60116 76166 888// 91200 333 60057=
07621,1996-08-27 15:00:00,15,1020.1,1.3,88,13,20000,7.408,,,200,,,,2,,,,,,1,wg-a,,,,AAXX 27154 07621 12570 72004 10150 20130 39775 40201 51013 60027 70162 8687/ 91500=
07621,1996-08-28 00:00:00,13,1022.7,-0.3,88,11,20000,11.112,,,210,,,,,,,,,,1,wg-a,,,,AAXX 28004 07621 12670 /2106 10130 20110 39796 40227 58003 60006 70186 86830 90000=
07621,1996-08-28 03:00:00,11,1022,-1,94,10,40000,11.112,,,170,,,,,,,,,,,wg-a,,,,AAXX 28034 07621 12782 /1706 10110 20100 39786 40220 58010 60006 81500 90300=
07621,1996-08-28 06:00:00,11,1022.2,0.3,94,10,40000,7.408,,,190,9.8,15.4,,,,,13,,,,wg-a,,,,AAXX 28064 07621 12882 /1904 10110 20100 39789 40222 53003 60134 85500 90600 333 10154 20098=
07621,1996-08-28 12:00:00,18,1021.1,-0.6,73,13,40000,14.816,,,330,,,,,,,,,,,wg-a,,,,AAXX 28124 07621 12582 73308 10180 20130 39788 40211 58006 60006 878// 91200=
07621,1996-08-28 15:00:00,18,1020.6,-0.5,68,12,40000,14.816,,,270,,,,,,,,,,,wg-a,,,,AAXX 28154 07621 12582 /2708 10180 20120 39783 40206 58005 60006 86800 91500=
07621,1996-08-28 18:00:00,16,1020.8,-0.1,77,12,40000,11.112,,,260,11.1,18.3,,,,,,,,,wg-a,,,,AAXX 28184 07621 12582 /2606 10160 20120 39782 40208 58001 60006 86800 91800 333 10183 20111=
07621,1996-08-28 21:00:00,14,1022.4,1.3,88,12,25000,7.408,,,260,,,,,,,,,,,wg-a,,,,AAXX 28214 07621 12575 /2604 10140 20120 39795 40224 52013 60006 86800 92100=
07621,1996-08-29 00:00:00,14,1021.8,-0.6,88,12,25000,11.112,,,200,,,,,,,,,,,wg-a,,,,AAXX 29004 07621 12475 /2006 10140 20120 39789 40218 58006 60006 86800 90000=
07621,1996-08-29 03:00:00,12,1020.8,-1.2,100,12,25000,7.408,,,190,,,,,,,,,,,wg-a,,,,AAXX 29034 07621 12475 51904 10120 20120 39777 40208 56012 60006 85500 90300=
07621,1996-08-29 06:00:00,11,1021.1,0.1,94,10,500,7.408,,,170,10.8,15.7,,,,,,,,,wg-a,,,,AAXX 29064 07621 02400 21704 10110 20100 39778 40211 53001 60006 81830 90600 333 10157 20108 60004=
07621,1996-08-29 09:00:00,17,1020.5,0.3,72,12,60000,11.112,,,270,,,,,,,,,,,wg-a,,,,AAXX 29094 07621 12586 22706 10170 20120 39781 40205 53003 60006 82200 90900=
07621,1996-08-29 12:00:00,20,1019.4,-0.7,49,9,60000,14.816,,,310,,,,,,,,,,,wg-a,,,,AAXX 29124 07621 12686 /3108 10200 20090 39774 40194 58007 60006 85200 91200=
07621,1996-08-29 15:00:00,18,1019.5,-0.2,73,13,50000,18.52,,,280,,,,,,,,,,,wg-a,,,,AAXX 29154 07621 12684 72810 10180 20130 39772 40195 58002 60006 8223/ 91500=
07621,1996-08-29 18:00:00,16,1020.4,0.7,77,12,50000,11.112,,,250,10.9,19.9,,,,,,,,,wg-a,,,,AAXX 29184 07621 12684 72506 10160 20120 39779 40204 53007 60006 8223/ 91800 333 10199 20109=
07621,1996-08-30 00:00:00,13,1022.6,-0.1,94,12,15000,11.112,,,190,,,,,,,,,,3,wg-a,,,,AAXX 30004 07621 12565 71906 10130 20120 39795 40226 58001 60016 70362 85530 90000=
07621,1996-08-30 03:00:00,12,1022.4,-0.4,94,11,20000,7.408,,,170,,,,,,,,,,,wg-a,,,,AAXX 30034 07621 12670 51704 10120 20110 39791 40224 58004 60006 81532 90300=
07621,1996-08-30 06:00:00,11,1023,0.6,100,11,40000,7.408,,,180,10.9,16,,,,,,,,,wg-a,,,,AAXX 30064 07621 12582 31804 10110 20110 39797 40230 53006 60004 81130 90600 333 10160 20109=
07621,1996-08-30 09:00:00,16,1023.3,1,82,13,40000,11.112,,,300,,,,0,,,,,,,wg-a,,,,AAXX 30094 07621 12482 43006 10160 20130 39807 40233 53010 60007 84212 90900=
07621,1996-08-30 12:00:00,19,1022.7,-0.2,60,11,40000,11.112,,,350,,,,,,,,,,,wg-a,,,,AAXX 30124 07621 12582 53506 10190 20110 39805 40227 58002 60006 84802 91200=
07621,1996-08-30 15:00:00,20,1022.1,-0.4,53,10,40000,14.816,,,340,,,,,,,,,,,wg-a,,,,AAXX 30154 07621 12682 53408 10200 20100 39801 40221 58004 60006 84802 91500=
07621,1996-08-30 18:00:00,17,1023.3,0.6,63,10,40000,11.112,,,280,11.4,20.3,,,,,,,,,wg-a,,,,AAXX 30184 07621 32582 32806 10170 20100 39807 40233 53006 82802 91800 333 10203 20114=
07621,1996-08-30 21:00:00,14,1025.4,1.7,88,12,500,7.408,,,250,,,,,,,,,,,wg-a,,,,AAXX 30214 07621 12500 72504 10140 20120 39824 40254 51017 60006 878// 92100=
07621,1996-08-31 00:00:00,13,1025.5,0,94,12,500,3.704,,,190,,,,,,,,,,,wg-a,,,,AAXX 31004 07621 12600 71902 10130 20120 39824 40255 50000 60006 875// 90000=
07621,1996-08-31 03:00:00,13,1025.4,-0.1,94,12,15000,3.704,,,180,,,,,,,,,,,wg-a,,,,AAXX 31034 07621 12465 71802 10130 20120 39823 40254 56001 60006 878// 90300=
07621,1996-08-31 06:00:00,12,1025.6,-0,100,12,15000,7.408,,,220,12.2,16.4,,,,,,,,,wg-a,,,,AAXX 31064 07621 02565 72204 10120 20120 39823 40256 55000 60006 87800 90600 333 10164 20122 60004=
07621,1996-08-31 09:00:00,15,1026.2,1,77,11,15000,7.408,,,310,,,,,,,,,,,wg-a,,,,AAXX 31094 07621 12565 63104 10150 20110 39833 40262 53010 60006 86800 90900=
07621,1996-08-31 12:00:00,18,1025,-0.8,59,10,20000,7.408,,,350,,,,,,,,,,,wg-a,,,,AAXX 31124 07621 12670 /3504 10180 20100 39825 40250 56008 60006 86800 91200=
07621,1996-08-31 15:00:00,19,1024.2,-0.6,56,10,20000,3.704,,,10,,,,,,,,,,,wg-a,,,,AAXX 31154 07621 12670 /0102 10190 20100 39819 40242 58006 60006 86100 91500=
07621,1996-08-31 18:00:00,18,1024.4,0.1,68,12,20000,3.704,,,320,12.3,19.7,,,,,,,,,wg-a,,,,AAXX 31184 07621 12670 /3202 10180 20120 39820 40244 53001 60006 86400 91800 333 10197 20123=
07621,1996-08-31 21:00:00,15,1025.9,0.9,82,12,20000,7.408,,,180,,,,,,,,,,,wg-a,,,,AAXX 31214 07621 12670 /1804 10150 20120 39829 40259 51009 60006 85500 92100=
07621,1996-09-01 00:00:00,14,1025.7,-0.3,88,12,20000,7.408,,,180,,,,,,,,,,,wg-a,,,,AAXX 01004 07621 12670 /1804 10140 20120 39826 40257 58003 60006 86500 90000=
07621,1996-09-01 03:00:00,14,1025.3,-0.3,88,12,20000,3.704,,,240,,,,,,,,,,,wg-a,,,,AAXX 01034 07621 12770 /2402 10140 20120 39823 40253 56003 60006 86500 90300=
07621,1996-09-01 06:00:00,13,1025.3,-0.2,94,12,10000,3.704,,,180,12.2,18,,,,,,,,,wg-a,,,,AAXX 01064 07621 02660 /1802 10130 20120 39821 40253 55002 60006 86500 90600 333 10180 20122 60004=
07621,1996-09-01 09:00:00,18,1024.8,0.3,68,12,500,3.704,,,80,,,,,,,,,,,wg-a,,,,AAXX 01094 07621 12500 50802 10180 20120 39824 40248 51003 60006 84801 90900=
07621,1996-09-01 12:00:00,20,1023.3,-1.2,56,11,500,11.112,,,30,,,,,,,,,,,wg-a,,,,AAXX 01124 07621 12600 /0306 10200 20110 39812 40233 58012 60006 85202 91200=
07621,1996-09-01 15:00:00,20,1022.3,-1,53,10,500,7.408,,,40,,,,,,,,,,,wg-a,,,,AAXX 01154 07621 12600 /0404 10200 20100 39802 40223 58010 60006 85202 91500=
07621,1996-09-01 18:00:00,18,1022.3,-0.3,73,13,500,3.704,,,310,12.6,21.2,,,,,,,,,wg-a,,,,AAXX 01184 07621 12700 /3102 10180 20130 39799 40223 56003 60006 85402 91800 333 10212 20126=
07621,1996-09-02 00:00:00,12,1023.2,-0.8,94,11,20000,7.408,,,170,,,,,,,,,,,wg-a,,,,AAXX 02004 07621 12770 /1704 10120 20110 39799 40232 58008 60006 81500 90000=
07621,1996-09-02 03:00:00,10,1022.2,-1.3,87,8,20000,3.704,,,170,,,,,,,,,,,wg-a,,,,AAXX 02034 07621 12770 /1702 10100 20080 39786 40222 56013 60006 81500 90300=
07621,1996-09-02 06:00:00,10,1021.7,-0.5,87,8,40000,3.704,,,140,8.9,17.4,,,,,,,,,wg-a,,,,AAXX 02064 07621 02/82 21402 10100 20080 39781 40217 55005 60006 82030 90600 333 10174 20089 60004=
07621,1996-09-02 09:00:00,15,1020.9,0.1,72,10,40000,3.704,,,330,,,,,,,,,,,wg-a,,,,AAXX 02094 07621 12782 /3302 10150 20100 39782 40209 50001 60006 81130 90900=
07621,1996-09-02 10:00:00,17,1020.6,0.2,59,9,40000,3.704,,,330,9.2,18.9,,,,,,,,,wg-a,,,,AAXX 02104 07621 12882 43302 10170 20090 39782 40206 52002 60006 84400 91000 333 10189 20092=
07621,1996-09-02 12:00:00,18,1019.3,-1.1,56,9,40000,7.408,,,330,,,,,,,,,,,wg-a,,,,AAXX 02124 07621 12682 23304 10180 20090 39771 40193 58011 60006 81130 91200=
07621,1996-09-02 15:00:00,19,1018.6,-0.6,49,8,40000,14.816,,,360,,,,,,,,,,,wg-a,,,,AAXX 02154 07621 12682 43608 10190 20080 39765 40186 56006 60006 84800 91500=
07621,1996-09-02 18:00:00,17,1019.1,0.2,59,9,40000,3.704,,,330,9.2,18.9,,,,,,,,,wg-a,,,,AAXX 02184 07621 12882 43302 10170 20090 39767 40191 52002 60006 84400 91800 333 10189 20092=
07621,1996-09-02 21:00:00,12,1020.5,0.6,82,9,20000,11.112,,,180,,,,,,,,,,,wg-a,,,,AAXX 02214 07621 12/70 01806 10120 20090 39773 40205 53006 60006 80000 92100=
07621,1996-09-03 00:00:00,10,1019.2,-1.5,87,8,20000,11.112,,,170,,,,,,,,,,,wg-a,,,,AAXX 03004 07621 12/70 01706 10100 20080 39758 40192 58015 60006 80000 90000=
07621,1996-09-03 03:00:00,11,1018.8,-0.3,82,8,20000,11.112,,,180,,,,,,,,,,,wg-a,,,,AAXX 03034 07621 12/70 /1806 10110 20080 39755 40188 57003 60006 86030 90300=
07621,1996-09-03 06:00:00,12,1017.5,-1.1,76,8,20000,11.112,,,180,9.5,16.9,,,,,,,,,wg-a,,,,AAXX 03064 07621 02/70 71806 10120 20080 39744 40175 56011 60006 8703/ 90600 333 10169 20095 60004=
07621,1996-09-03 09:00:00,16,1016.9,-0,68,10,25000,7.408,,,360,,,,,,,,,,,wg-a,,,,AAXX 03094 07621 12775 73604 10160 20100 39744 40169 55000 60006 8253/ 90900=
07621,1996-09-03 12:00:00,19,1015.6,-0.8,52,9,25000,18.52,,,310,,,,,,,,,,,wg-a,,,,AAXX 03124 07621 12675 23110 10190 20090 39736 40156 57008 60006 8123/ 91200=
07621,1996-09-03 15:00:00,18,1015.1,-0.5,56,9,25000,11.112,,,330,,,,,,,,,,,wg-a,,,,AAXX 03154 07621 12675 /3306 10180 20090 39731 40151 58005 60006 86800 91500=
07621,1996-09-03 18:00:00,17,1015.2,-0.1,72,12,25000,3.704,,,320,11.7,19.7,,,,,,,,,wg-a,,,,AAXX 03184 07621 12675 63202 10170 20120 39730 40152 55001 60006 83802 91800 333 10197 20117=
07621,1996-09-03 21:00:00,12,1017.1,1.1,88,10,25000,11.112,,,170,,,,,,,,,,,wg-a,,,,AAXX 03214 07621 12675 31706 10120 20100 39741 40171 52011 60006 82402 92100=
07621,1996-09-04 00:00:00,11,1016.7,-0.6,87,9,20000,7.408,,,180,,,,,,,,,,,wg-a,,,,AAXX 04004 07621 12/70 01804 10110 20090 39735 40167 56006 60006 80000 90000=
07621,1996-09-04 03:00:00,10,1015.7,-1.1,87,8,20000,7.408,,,160,,,,,,,,,,,wg-a,,,,AAXX 04034 07621 12/70 01604 10100 20080 39724 40157 56011 60006 80000 90300=
07621,1996-09-04 06:00:00,9,1015.7,-0.1,87,7,500,7.408,,,170,7.5,17,,,,,,,,,wg-a,,,,AAXX 04064 07621 02/00 11704 10090 20070 39723 40157 55001 60006 80001 90600 333 10170 20075 60004=
07621,1996-09-04 09:00:00,18,1014.7,0.4,64,11,500,7.408,,,80,,,,,,,,,,,wg-a,,,,AAXX 04094 07621 12/00 20804 10180 20110 39727 40147 53004 60006 80001 90900=
07621,1996-09-04 12:00:00,22,1013.4,-0.7,50,11,500,11.112,,,70,,,,,,,,,,,wg-a,,,,AAXX 04124 07621 12/00 20706 10220 20110 39720 40134 58007 60006 80001 91200=
07621,1996-09-04 15:00:00,24,1012.2,-0.9,38,9,500,7.408,,,100,,,,,,,,,,,wg-a,,,,AAXX 04154 07621 12/00 11004 10240 20090 39711 40122 58009 60006 80001 91500=
07621,1996-09-04 18:00:00,22,1012.1,-0.4,53,12,500,3.704,,,60,9.3,24.1,,,,,,,,,wg-a,,,,AAXX 04184 07621 12/00 20602 10220 20120 39707 40121 56004 60006 80001 91800 333 10241 20093=
07621,1996-09-04 21:00:00,14,1014.3,1,88,12,20000,7.408,,,160,,,,,,,,,,,wg-a,,,,AAXX 04214 07621 12/70 21604 10140 20120 39717 40143 51010 60006 80001 92100=
07621,1996-09-05 00:00:00,13,1014.2,-0.3,82,10,15000,7.408,,,160,,,,,,,,,,,wg-a,,,,AAXX 05004 07621 12/65 21604 10130 20100 39714 40142 58003 60006 80001 90000=
07621,1996-09-05 03:00:00,15,1013.4,-0.4,67,9,15000,11.112,,,180,,,,,,,,,,,wg-a,,,,AAXX 05034 07621 12/65 21806 10150 20090 39710 40134 55004 60006 80001 90300=
07621,1996-09-05 06:00:00,15,1014.2,0.7,63,8,25000,14.816,,,180,12.1,21.5,,,,,,,,,wg-a,,,,AAXX 05064 07621 02/75 21808 10150 20080 39717 40142 53007 60006 81031 90600 333 10215 20121 60004=
07621,1996-09-05 09:00:00,21,1015,1.7,64,14,40000,18.52,,,270,,,,,,,,,,,wg-a,,,,AAXX 05094 07621 12/82 /2710 10210 20140 39734 40150 53017 60006 81081 90900=
07621,1996-09-05 12:00:00,22,1014.7,0,65,15,20000,22.224,,,300,,,,,,,,,,,wg-a,,,,AAXX 05124 07621 12570 23012 10220 20150 39734 40147 50000 60006 81181 91200=
07621,1996-09-05 15:00:00,22,1014.5,-0.3,65,15,20000,22.224,,,310,,,,,,,,,,,wg-a,,,,AAXX 05154 07621 12670 43112 10220 20150 39731 40145 55003 60006 82282 91500=
07621,1996-09-05 18:00:00,20,1015.2,0.4,78,16,20000,11.112,,,270,14.8,23.2,,,,,,,,,wg-a,,,,AAXX 05184 07621 12670 32706 10200 20160 39735 40152 53004 60006 81280 91800 333 10232 20148=
07621,1996-09-05 21:00:00,17,1017.7,1.9,88,15,20000,11.112,,,240,,,,,,,,,,,wg-a,,,,AAXX 05214 07621 12570 /2406 10170 20150 39754 40177 51019 60006 86500 92100=
07621,1996-09-06 00:00:00,15,1018.7,0.7,88,13,20000,11.112,,,190,,,,,,,,,,,wg-a,,,,AAXX 06004 07621 12/70 01906 10150 20130 39761 40187 53007 60006 80000 90000=
07621,1996-09-06 03:00:00,13,1018.3,-0.6,94,12,20000,11.112,,,180,,,,,,,,,,,wg-a,,,,AAXX 06034 07621 12/70 01806 10130 20120 39755 40183 56006 60006 80000 90300=
07621,1996-09-06 06:00:00,13,1018.7,0.3,82,10,10000,14.816,,,180,13,19.9,,,,,,,,,wg-a,,,,AAXX 06064 07621 02/60 11808 10130 20100 39758 40187 53003 60006 80001 90600 333 10199 20130 60004=
07621,1996-09-06 09:00:00,20,1018,0.4,64,13,15000,7.408,,,240,,,,,,,,,,,wg-a,,,,AAXX 06094 07621 12/65 12404 10200 20130 39762 40180 50004 60006 81031 90900=
07621,1996-09-06 12:00:00,23,1016.7,-0.9,61,15,20000,7.408,,,10,,,,,,,,,,,wg-a,,,,AAXX 06124 07621 12670 20104 10230 20150 39753 40167 58009 60006 82230 91200=
07621,1996-09-06 15:00:00,23,1015.5,-1.1,61,15,20000,7.408,,,30,,,,,,,,,,,wg-a,,,,AAXX 06154 07621 12670 30304 10230 20150 39742 40155 58011 60006 83830 91500=
07621,1996-09-06 18:00:00,21,1015.6,-0.1,78,17,20000,7.408,,,230,13.4,23.6,,,,,,,,,wg-a,,,,AAXX 06184 07621 12770 /2304 10210 20170 39741 40156 56001 60006 86400 91800 333 10236 20134=
07621,1996-09-06 21:00:00,17,1017.5,1.2,88,15,20000,7.408,,,170,,,,,,,,,,,wg-a,,,,AAXX 06214 07621 12770 31704 10170 20150 39753 40175 51012 60006 83500 92100=
07621,1996-09-07 00:00:00,16,1017.7,0.1,88,14,20000,7.408,,,180,,,,,,,,,,,wg-a,,,,AAXX 07004 07621 12670 /1804 10160 20140 39754 40177 50001 60006 86500 90000=
07621,1996-09-07 03:00:00,15,1017.4,-0.5,88,13,12000,11.112,,,190,,,,,,,,,,,wg-a,,,,AAXX 07034 07621 12662 /1906 10150 20130 39749 40174 56005 60006 85500 90300=
07621,1996-09-07 06:00:00,15,1018.1,0.6,94,14,700,7.408,,,220,13.8,21.4,,,,,,,,44,wg-a,,,,AAXX 07064 07621 02107 72204 10150 20140 39755 40181 53006 60006 74441 877// 90600 333 10214 20138 60004=
07621,1996-09-07 09:00:00,21,1017.3,0.1,73,16,12000,3.704,,,240,,,,,,,,,,2,wg-a,,,,AAXX 07094 07621 12762 /2402 10210 20160 39756 40173 50001 60006 70241 81100 90900=
07621,1996-09-07 12:00:00,23,1016.8,-0.2,50,12,500,11.112,,,330,,,,,,,,,,3,wg-a,,,,AAXX 07124 07621 12600 23306 10230 20120 39754 40168 55002 60006 70341 82100 91200=
07621,1996-09-07 15:00:00,23,1015.9,-0.8,44,10,25000,11.112,,,350,,,,,,,,,,,wg-a,,,,AAXX 07154 07621 12775 /3506 10230 20100 39746 40159 58008 60006 81400 91500=
07621,1996-09-07 18:00:00,19,1016.7,0.2,78,15,25000,3.704,,,240,14.1,23.7,,,,,,,,,wg-a,,,,AAXX 07184 07621 12875 22402 10190 20150 39748 40167 53002 60006 81501 91800 333 10237 20141=
07621,1996-09-07 21:00:00,15,1017.8,0.5,82,12,25000,11.112,,,180,,,,,,,,,,,wg-a,,,,AAXX 07214 07621 12/75 21806 10150 20120 39753 40178 50005 60006 80001 92100=
07621,1996-09-08 00:00:00,13,1017.9,-0.3,88,11,25000,3.704,,,180,,,,,,,,,,,wg-a,,,,AAXX 08004 07621 12/75 11802 10130 20110 39750 40179 58003 60006 81030 90000=
07621,1996-09-08 03:00:00,12,1017,-1,88,10,25000,7.408,,,180,,,,,,,,,,,wg-a,,,,AAXX 08034 07621 12/75 01804 10120 20100 39740 40170 56010 60006 80000 90300=
07621,1996-09-08 06:00:00,12,1017,-0.1,88,10,25000,11.112,,,170,11.2,18.9,,,,,,,,,wg-a,,,,AAXX 08064 07621 02/75 11706 10120 20100 39739 40170 55001 60006 80002 90600 333 10189 20112 60004=
07621,1996-09-08 09:00:00,18,1016.1,0.2,64,11,500,14.816,,,260,,,,,,,,,,,wg-a,,,,AAXX 08094 07621 12/00 12608 10180 20110 39741 40161 51002 60006 80002 90900=
07621,1996-09-08 12:00:00,21,1015.4,-0.4,49,10,500,11.112,,,330,,,,,,,,,,,wg-a,,,,AAXX 08124 07621 12500 /3306 10210 20100 39737 40154 58004 60006 81102 91200=
07621,1996-09-08 15:00:00,21,1014,-1.2,56,12,25000,11.112,,,300,,,,,,,,,,,wg-a,,,,AAXX 08154 07621 12675 23006 10210 20120 39725 40140 58012 60006 81180 91500=
07621,1996-09-08 18:00:00,19,1014.3,-0.1,60,11,25000,7.408,,,20,11.6,22,,,,,,,,,wg-a,,,,AAXX 08184 07621 12775 50204 10190 20110 39724 40143 55001 60006 83882 91800 333 10220 20116=
07621,1996-09-08 21:00:00,15,1016.2,1.3,72,10,20000,11.112,,,260,,,,,,,,,,,wg-a,,,,AAXX 08214 07621 12770 32606 10150 20100 39737 40162 51013 60006 83502 92100=
07621,1996-09-09 00:00:00,12,1016.1,-0.6,76,8,0,7.408,,,220,,,,,,,,,,,wg-a,,,,AAXX 09004 07621 12/// /2204 10120 20080 39731 40161 58006 60006 90000=
07621,1996-09-09 03:00:00,11,1015.5,-0.7,82,8,20000,7.408,,,180,,,,,,,,,,,wg-a,,,,AAXX 09034 07621 12/70 01804 10110 20080 39724 40155 55007 60006 80000 90300=
07621,1996-09-09 06:00:00,10,1016.1,0.5,87,8,40000,11.112,,,180,10.1,18.6,,,,,,,,,wg-a,,,,AAXX 09064 07621 02882 21806 10100 20080 39729 40161 53005 60006 81532 90600 333 10186 20101 60004=
07621,1996-09-09 09:00:00,16,1015.8,0.5,72,11,40000,22.224,,,280,,,,,,,,,,,wg-a,,,,AAXX 09094 07621 12582 32812 10160 20110 39734 40158 53005 60006 81202 90900=
07621,1996-09-09 12:00:00,18,1015.2,-0.3,56,9,40000,18.52,,,310,,,,,,,,,,,wg-a,,,,AAXX 09124 07621 12682 33110 10180 20090 39731 40152 57003 60006 81202 91200=
07621,1996-09-09 15:00:00,18,1015.1,0,52,8,40000,14.816,,,340,,,,,,,,,,,wg-a,,,,AAXX 09154 07621 12682 63408 10180 20080 39731 40151 50000 60006 83202 91500=
07621,1996-09-09 18:00:00,15,1016.4,0.8,67,9,25000,3.704,,,290,10.4,18.8,,,,,,,,,wg-a,,,,AAXX 09184 07621 12675 62902 10150 20090 39739 40164 53008 60006 83832 91800 333 10188 20104=
07621,1996-09-09 21:00:00,12,1018,1,82,9,15000,7.408,,,190,,,,,,,,,,,wg-a,,,,AAXX 09214 07621 12665 41904 10120 20090 39749 40180 50010 60006 82502 92100=
07621,1996-09-10 00:00:00,9,1018.4,-0,87,7,15000,7.408,,,160,,,,,,,,,,,wg-a,,,,AAXX 10004 07621 12665 21604 10090 20070 39749 40184 55000 60006 81502 90000=
07621,1996-09-10 03:00:00,9,1017.7,-0.7,87,7,15000,7.408,,,170,,,,,,,,,,,wg-a,,,,AAXX 10034 07621 12/65 01704 10090 20070 39742 40177 56007 60006 80000 90300=
07621,1996-09-10 06:00:00,8,1018.1,0.3,93,7,40000,7.408,,,180,8.3,15.1,,,,,,,,,wg-a,,,,AAXX 10064 07621 02/82 11804 10080 20070 39745 40181 52003 60006 80001 90600 333 10151 20083 60004=
07621,1996-09-10 09:00:00,17,1017.1,0.3,52,7,40000,3.704,,,150,,,,,,,,,,,wg-a,,,,AAXX 10094 07621 12882 /1502 10170 20070 39748 40171 51003 60006 81100 90900=
07621,1996-09-10 12:00:00,20,1016.4,-0.2,46,8,40000,3.704,,,170,,,,,,,,,,,wg-a,,,,AAXX 10124 07621 12/82 21702 10200 20080 39746 40164 58002 60006 82100 91200=
07621,1996-09-10 15:00:00,21,1015.1,-1.2,43,8,40000,7.408,,,40,,,,,,,,,,,wg-a,,,,AAXX 10154 07621 12/82 20404 10210 20080 39734 40151 58012 60006 82202 91500=
07621,1996-09-10 18:00:00,18,1015.3,-0.1,59,10,40000,3.704,,,350,8.4,21.7,,,,,,,,,wg-a,,,,AAXX 10184 07621 12/82 23502 10180 20100 39733 40153 55001 60006 82402 91800 333 10217 20084=
07621,1996-09-10 21:00:00,14,1016.9,0.9,77,10,20000,11.112,,,180,,,,,,,,,,,wg-a,,,,AAXX 10214 07621 12/70 /1806 10140 20100 39742 40169 51009 60006 81500 92100=
07621,1996-09-11 00:00:00,12,1016.9,-0.3,82,9,20000,11.112,,,170,,,,,,,,,,,wg-a,,,,AAXX 11004 07621 12/70 01706 10120 20090 39739 40169 58003 60006 80000 90000=
07621,1996-09-11 03:00:00,11,1016.1,-1,82,8,20000,11.112,,,160,,,,,,,,,,,wg-a,,,,AAXX 11034 07621 12/70 01606 10110 20080 39729 40161 58010 60006 80000 90300=
07621,1996-09-11 06:00:00,9,1015.9,-0.4,93,8,20000,7.408,,,160,9.2,18.1,,,,,,,,,wg-a,,,,AAXX 11064 07621 02/70 21604 10090 20080 39725 40159 58004 60006 80001 90600 333 10181 20092 60004=
07621,1996-09-11 09:00:00,17,1014.3,-0.4,72,12,25000,3.704,,,280,,,,,,,,,,,wg-a,,,,AAXX 11094 07621 12775 32802 10170 20120 39721 40143 58004 60006 81101 90900=
07621,1996-09-11 12:00:00,20,1012.4,-1.4,53,10,25000,7.408,,,60,,,,,,,,,,,wg-a,,,,AAXX 11124 07621 12775 /0604 10200 20100 39707 40124 58014 60006 81102 91200=
07621,1996-09-11 15:00:00,20,1010.8,-1.4,49,9,20000,7.408,,,100,,,,,,,,,,,wg-a,,,,AAXX 11154 07621 12670 71004 10200 20090 39693 40108 57014 60006 83502 91500=
07621,1996-09-11 18:00:00,18,1010.8,-0.3,73,13,20000,3.704,,,240,9.2,20.8,,,,,166,,,,wg-a,,,,AAXX 11184 07621 02770 72402 10180 20130 39690 40108 57003 60006 81412 91800 333 10208 20092 61664=
07621,1996-09-11 21:00:00,14,1011.6,0.2,88,12,15000,7.408,,,160,,,,,,,,,,,wg-a,,,,AAXX 11214 07621 12865 81604 10140 20120 39692 40116 50002 60006 82572 92100=
07621,1996-09-12 00:00:00,14,1010.6,-1.1,82,11,15000,7.408,,,190,,,,,,,,,,,wg-a,,,,AAXX 12004 07621 12/65 71904 10140 20110 39681 40106 58011 60006 82072 90000=
07621,1996-09-12 03:00:00,13,1010,-0.6,88,11,15000,3.704,,,200,,,,,,,,,,,wg-a,,,,AAXX 12034 07621 12765 72002 10130 20110 39675 40100 56006 60006 83572 90300=
07621,1996-09-12 06:00:00,13,1009.8,-0.3,82,10,20000,7.408,,,230,12.9,18,,,,,,,,,wg-a,,,,AAXX 12064 07621 02/70 72304 10130 20100 39672 40098 55003 60006 85072 90600 333 10180 20129 60004=
07621,1996-09-12 12:00:00,19,1009.3,0.1,56,10,500,22.224,,,290,,,,,,,,,,,wg-a,,,,AAXX 12124 07621 12500 32912 10190 20100 39676 40093 50001 60006 83201 91200=
07621,1996-09-12 15:00:00,19,1010.3,0.9,46,7,0,22.224,,,310,,,,,,,,,,,wg-a,,,,AAXX 12154 07621 126// 43112 10190 20070 39685 40103 52009 60006 84100 91500=
07621,1996-09-12 18:00:00,16,1012.6,1.8,59,8,25000,18.52,,,280,12.9,19.8,,,,,,,,,wg-a,,,,AAXX 12184 07621 12875 62810 10160 20080 39703 40126 53018 60006 865/0 91800 333 10198 20129=
07621,1996-09-13 00:00:00,13,1016.6,0.8,82,10,20000,7.408,,,260,,,,,,,,,,,wg-a,,,,AAXX 13004 07621 12770 /2604 10130 20100 39737 40166 51008 60006 85500 90000=
07621,1996-09-13 03:00:00,10,1016.4,-0.6,87,8,20000,11.112,,,220,,,,,,,,,,,wg-a,,,,AAXX 13034 07621 12/70 02206 10100 20080 39731 40164 58006 60006 80000 90300=
07621,1996-09-13 06:00:00,11,1017.1,0.8,82,8,500,7.408,,,170,8.7,15.4,,,,,,,,,wg-a,,,,AAXX 13064 07621 02700 71704 10110 20080 39739 40171 53008 60006 875// 90600 333 10154 20087 60004=
07621,1996-09-13 09:00:00,15,1016.9,0.4,63,8,500,7.408,,,250,,,,,,,,,,,wg-a,,,,AAXX 13094 07621 12600 72504 10150 20080 39743 40169 53004 60006 875// 90900=
07621,1996-09-13 12:00:00,19,1016.2,-0.1,56,10,50000,14.816,,,300,,,,,,,,,,,wg-a,,,,AAXX 13124 07621 12684 43008 10190 20100 39742 40162 58001 60006 84800 91200=
07621,1996-09-13 15:00:00,19,1015.6,-0.6,52,9,500,11.112,,,320,,,,,,,,,,,wg-a,,,,AAXX 13154 07621 12600 63206 10190 20090 39736 40156 57006 60006 86800 91500=
07621,1996-09-13 18:00:00,17,1017,1.1,68,11,25000,11.112,,,290,10.5,19.8,,,,,,,,,wg-a,,,,AAXX 13184 07621 12675 72906 10170 20110 39747 40170 53011 60006 878// 91800 333 10198 20105=
07621,1996-09-13 21:00:00,15,1019.1,1.7,82,12,25000,11.112,,,270,,,,,,,,,,,wg-a,,,,AAXX 13214 07621 12675 72706 10150 20120 39764 40191 51017 60006 875// 92100=
07621,1996-09-14 00:00:00,13,1019.1,-0.2,82,10,25000,3.704,,,260,,,,,,,,,,,wg-a,,,,AAXX 14004 07621 12675 62602 10130 20100 39762 40191 58002 60006 86500 90000=
07621,1996-09-14 03:00:00,12,1018.9,-0.3,94,11,25000,3.704,,,180,,,,,,,,,,,wg-a,,,,AAXX 14034 07621 12675 /1802 10120 20110 39759 40189 56003 60006 86500 90300=
07621,1996-09-14 06:00:00,10,1019.8,0.5,93,9,15000,3.704,,,40,9.9,16.5,,,,,,,,11,wg-a,,,,AAXX 14064 07621 02765 30402 10100 20090 39764 40198 53005 60006 71111 83500 90600 333 10165 20099 60004=
07621,1996-09-14 09:00:00,16,1020.2,1.2,51,6,20000,7.408,,,80,,,,,,,,,,,wg-a,,,,AAXX 14094 07621 12570 /0804 10160 20060 39776 40202 51012 60006 81100 90900=
07621,1996-09-14 12:00:00,19,1019.1,-0.7,43,6,500,7.408,,,110,,,,,,,,,,,wg-a,,,,AAXX 14124 07621 12600 /1104 10190 20060 39769 40191 58007 60006 81100 91200=
07621,1996-09-14 15:00:00,19,1018.3,-0.7,43,6,500,11.112,,,10,,,,,,,,,,,wg-a,,,,AAXX 14154 07621 12700 20106 10190 20060 39762 40183 56007 60006 82400 91500=
07621,1996-09-14 18:00:00,16,1018.9,0.2,55,7,500,3.704,,,20,9.5,19.3,,,,,,,,,wg-a,,,,AAXX 14184 07621 12600 /0202 10160 20070 39760 40189 53002 60006 85400 91800 333 10193 20095=
07621,1996-09-14 21:00:00,12,1020.5,0.9,76,8,15000,3.704,,,190,,,,,,,,,,,wg-a,,,,AAXX 14214 07621 12665 41902 10120 20080 39773 40205 51009 60006 84500 92100=
07621,1996-09-15 00:00:00,9,1021.2,0.2,87,7,15000,7.408,,,170,,,,,,,,,,,wg-a,,,,AAXX 15004 07621 12/65 01704 10090 20070 39775 40212 52002 60006 80000 90000=
07621,1996-09-15 03:00:00,8,1020.7,-0.7,87,6,15000,7.408,,,160,,,,,,,,,,,wg-a,,,,AAXX 15034 07621 12/65 01604 10080 20060 39768 40207 56007 60006 80000 90300=
07621,1996-09-15 06:00:00,7,1020.5,-0.2,93,6,10000,11.112,,,180,6.4,16.2,,,,,,,,,wg-a,,,,AAXX 15064 07621 02/60 /1806 10070 20060 39766 40205 55002 60006 90600 333 10162 20064 60004=
07621,1996-09-15 09:00:00,17,1019.3,0.3,48,6,50000,3.704,,,110,,,,,,,,,,,wg-a,,,,AAXX 15094 07621 12/84 01102 10170 20060 39769 40193 51003 60006 80000 90900=
07621,1996-09-15 12:00:00,19,1018.5,-0.4,46,7,50000,7.408,,,340,,,,,,,,,,,wg-a,,,,AAXX 15124 07621 12/84 03404 10190 20070 39765 40185 58004 60006 80000 91200=
07621,1996-09-15 15:00:00,21,1017.6,-0.6,40,7,40000,7.408,,,290,,,,,,,,,,,wg-a,,,,AAXX 15154 07621 12882 /2904 10210 20070 39759 40176 58006 60006 81100 91500=
07621,1996-09-15 18:00:00,18,1018.4,0.3,56,9,40000,3.704,,,50,7.1,21.6,,,,,,,,,wg-a,,,,AAXX 15184 07621 12/82 00502 10180 20090 39762 40184 53003 60006 80000 91800 333 10216 20071=
07621,1996-09-15 21:00:00,11,1019.8,0.3,87,9,20000,3.704,,,190,,,,,,,,,,,wg-a,,,,AAXX 15214 07621 12/70 01902 10110 20090 39765 40198 50003 60006 80000 92100=
07621,1996-09-16 00:00:00,9,1019.2,-0.8,93,8,20000,7.408,,,180,,,,,,,,,,,wg-a,,,,AAXX 16004 07621 12/70 01804 10090 20080 39757 40192 58008 60006 80000 90000=
07621,1996-09-16 03:00:00,9,1018.2,-1.1,87,7,20000,7.408,,,190,,,,,,,,,,,wg-a,,,,AAXX 16034 07621 12/70 01904 10090 20070 39746 40182 56011 60006 80000 90300=
07621,1996-09-16 06:00:00,8,1017.8,-0.5,87,6,20000,3.704,,,160,7.5,18.3,,,,,,,,,wg-a,,,,AAXX 16064 07621 02/70 01602 10080 20060 39741 40178 57005 60006 80000 90600 333 10183 20075 60004=
07621,1996-09-16 09:00:00,19,1015.4,-0.7,52,9,50000,0,,,0,,,,,,,,,,,wg-a,,,,AAXX 16094 07621 12/84 00000 10190 20090 39734 40154 56007 60006 80000 90900=
07621,1996-09-16 12:00:00,25,1013.6,-0.9,30,6,50000,7.408,,,50,,,,,,,,,,,wg-a,,,,AAXX 16124 07621 12/84 00504 10250 20060 39725 40136 57009 60006 80000 91200=
07621,1996-09-16 15:00:00,26,1011.3,-2,37,10,50000,3.704,,,80,,,,,,,,,,,wg-a,,,,AAXX 16154 07621 12884 /0802 10260 20100 39705 40113 58020 60006 81100 91500=
07621,1996-09-16 18:00:00,19,1011,-1.2,73,14,40000,7.408,,,230,7.6,26,,,,,,,,,wg-a,,,,AAXX 16184 07621 12/82 22304 10190 20140 39693 40110 56012 60006 80002 91800 333 10260 20076=
07621,1996-09-16 21:00:00,16,1010.8,-0.6,72,11,25000,7.408,,,150,,,,,,,,,,,wg-a,,,,AAXX 16214 07621 12/75 61504 10160 20110 39687 40108 58006 60006 82074 92100=
07621,1996-09-17 00:00:00,16,1009.1,-1.7,68,10,15000,3.704,,,160,,,,,,,,,,,wg-a,,,,AAXX 17004 07621 12/65 61602 10160 20100 39670 40091 58017 60006 82072 90000=
07621,1996-09-17 03:00:00,17,1009.8,0.8,72,12,12000,25.928,,,270,,,,,,,,,,60,wg-a,,,,AAXX 17034 07621 02762 72714 10170 20120 39678 40098 53008 61000 76062 83972 90300 333 ////=
07621,1996-09-17 06:00:00,16,1010.5,0.6,94,15,500,7.408,,,230,14.6,18.9,,1,,,1,,,21,wg-a,,,,AAXX 17064 07621 02300 82304 10160 20150 39684 40105 52006 60014 72162 879// 90600 333 10189 20146 60017=
07621,1996-09-17 09:00:00,14,1011.1,0.3,88,12,10000,0,,,0,,,,1,,,,,,60,wg-a,,,,AAXX 17094 07621 12360 80000 10140 20120 39687 40111 53003 60017 76062 8597/ 90900=
07621,1996-09-17 12:00:00,15,1011.6,,88,13,15000,18.52,,42.596,280,,,,0,,,,,,80,wg-a,,,,AAXX 17124 07621 12465 82810 10150 20130 39690 40116 60007 78086 8587/ 91200 333 91023=
07621,1996-09-17 15:00:00,15,1011.3,-0.3,88,13,20000,18.52,,,270,,,,1,,,,,,2,wg-a,,,,AAXX 17154 07621 12470 82710 10150 20130 39690 40113 58003 60017 70286 8587/ 91500=
07621,1996-09-17 18:00:00,14,1011.7,0.3,94,13,20000,7.408,,,210,13.7,16.5,,1,,,,,,1,wg-a,,,,AAXX 17184 07621 12470 72104 10140 20130 39693 40117 53003 60017 70186 878// 91800 333 10165 20137=
07621,1996-09-18 00:00:00,13,1011.1,-0.8,94,12,15000,7.408,,,240,,,,1,,,,,,20,wg-a,,,,AAXX 18004 07621 02565 72404 10130 20120 39686 40111 58008 60016 72086 875// 90000 333 60017=
07621,1996-09-18 03:00:00,12,1009.1,-2.1,94,11,20000,7.408,,,160,,,,,,,,,,,wg-a,,,,AAXX 18034 07621 12670 21604 10120 20110 39665 40091 58021 60006 82500 90300=
07621,1996-09-18 06:00:00,10,1008.1,-1.3,100,10,500,7.408,,,180,9.2,14.2,,,,,3,,,,wg-a,,,,AAXX 18064 07621 12/00 /1804 10100 20100 39652 40081 56013 60034 81032 90600 333 10142 20092=
07621,1996-09-18 09:00:00,18,1005.1,-1.7,64,11,50000,7.408,,,100,,,,,,,,,,,wg-a,,,,AAXX 18094 07621 12/84 51004 10180 20110 39635 40051 56017 60006 82032 90900=
07621,1996-09-18 12:00:00,20,1004.3,-0.5,53,10,500,18.52,,,310,,,,,,,,,,,wg-a,,,,AAXX 18124 07621 12600 /3110 10200 20100 39630 40043 56005 60006 82232 91200=
07621,1996-09-18 15:00:00,15,1005.2,0.2,82,12,15000,14.816,,,260,,,,0,,,,,,60,wg-a,,,,AAXX 18154 07621 12565 72608 10150 20120 39632 40052 52002 60007 76062 8587/ 91500=
07621,1996-09-18 18:00:00,14,1004.3,-1.1,94,13,12000,7.408,,,230,10.1,21,,1,,,,,,21,wg-a,,,,AAXX 18184 07621 12462 72304 10140 20130 39621 40043 56011 60017 72162 8557/ 91800 333 10210 20101=
07621,1996-09-18 21:00:00,12,1003.8,-0.7,100,12,15000,7.408,,,250,,,,,,,,,,,wg-a,,,,AAXX 18214 07621 12665 82504 10120 20120 39614 40038 56007 60006 8257/ 92100=
07621,1996-09-19 00:00:00,12,1002,-1.7,100,12,15000,11.112,,,140,,,,8,,,,,,61,wg-a,,,,AAXX 19004 07621 02665 81406 10120 20120 39597 40020 58017 60086 76162 8257/ 90000 333 60087=
07621,1996-09-19 03:00:00,12,1000.3,-1.7,94,11,15000,3.704,,,230,,,,,,,,,,21,wg-a,,,,AAXX 19034 07621 02/65 82302 10120 20110 39580 40003 56017 61000 72162 8807/ 90300 333 ////=
07621,1996-09-19 06:00:00,11,999.5,-0.9,94,10,500,3.704,,,340,10.9,13.7,,,,,9,,,3,wg-a,,,,AAXX 19064 07621 12/00 73402 10110 20100 39571 49995 55009 60094 70361 8707/ 90600 333 10137 20109=
07621,1996-09-19 12:00:00,15,1005,4.2,88,13,10000,18.52,,,260,,,,5,,,,,,21,wg-a,,,,AAXX 19124 07621 02460 /2610 10150 20130 39630 40050 51042 60116 72162 86800 91200 333 60057=
07621,1996-09-19 15:00:00,17,1005.3,0.6,77,13,500,22.224,,42.596,250,,,,,,,,,,,wg-a,,,,AAXX 19154 07621 12400 52512 10170 20130 39636 40053 53006 60006 85800 91500 333 91023=
07621,1996-09-19 18:00:00,13,1008.2,2.2,88,11,500,18.52,,53.708,250,11,17.1,,,,,,,,,wg-a,,,,AAXX 19184 07621 32400 32510 10130 20110 39658 40082 51022 83800 91800 333 10171 20110 91029=
07621,1996-09-19 21:00:00,12,1009.7,1.2,88,10,10000,7.408,,,230,,,,,,,,,,,wg-a,,,,AAXX 19214 07621 12560 /2304 10120 20100 39670 40097 51012 60006 85800 92100=
07621,1996-09-20 00:00:00,10,1008.9,-1,87,8,15000,14.816,,,200,,,,,,,,,,,wg-a,,,,AAXX 20004 07621 12665 32008 10100 20080 39660 40089 58010 60006 81532 90000=
07621,1996-09-20 03:00:00,10,1007.2,-1.7,87,8,15000,7.408,,,170,,,,,,,,,,,wg-a,,,,AAXX 20034 07621 12/65 /1704 10100 20080 39643 40072 58017 60006 83032 90300=
07621,1996-09-20 06:00:00,11,1005.2,-1.8,82,8,25000,3.704,,,170,8.4,13.3,,,,,11,,,,wg-a,,,,AAXX 20064 07621 02/75 71702 10110 20080 39625 40052 57018 60006 85072 90600 333 10133 20084 60114=
07621,1996-09-20 09:00:00,13,1004.1,-0.7,82,10,20000,0,,,0,,,,,,,,,,,wg-a,,,,AAXX 20094 07621 12770 80000 10130 20100 39618 40041 56007 60006 85572 90900=
07621,1996-09-20 12:00:00,15,1002.9,-0.8,82,12,12000,7.408,,,30,,,,0,,,,,,21,wg-a,,,,AAXX 20124 07621 02462 80304 10150 20120 39610 40029 56008 60016 72162 8557/ 91200 333 60007=
07621,1996-09-20 15:00:00,15,1002,-0.9,88,13,11000,7.408,,,50,,,,,,,,,,,wg-a,,,,AAXX 20154 07621 32/61 /0504 10150 20130 39601 40020 58009 91500=
07621,1996-09-20 18:00:00,15,1001.2,-0.7,88,13,500,3.704,,,60,10.8,15.8,,,,,,,,1,wg-a,,,,AAXX 20184 07621 32/00 40602 10150 20130 39594 40012 58007 70161 82540 91800 333 10158 20108=
07621,1996-09-20 21:00:00,12,1002,0.3,94,11,500,7.408,,,260,,,,,,,,,,,wg-a,,,,AAXX 20214 07621 12/00 52604 10120 20110 39597 40020 51003 60006 82540 92100=
07621,1996-09-21 00:00:00,12,1000.5,-1.5,94,11,15000,3.704,,,10,,,,,,,,,,,wg-a,,,,AAXX 21004 07621 12/65 70102 10120 20110 39582 40005 56015 60006 8554/ 90000=
07621,1996-09-21 03:00:00,13,999.3,-1,94,12,10000,3.704,,,90,,,,0,,,,,,60,wg-a,,,,AAXX 21034 07621 12660 70902 10130 20120 39572 49993 58010 60007 76062 8584/ 90300=
07621,1996-09-21 06:00:00,13,999.5,0.2,94,12,10000,7.408,,,190,11.7,15,,1,,,3,,,61,wg-a,,,,AAXX 21064 07621 02660 71904 10130 20120 39574 49995 53002 60034 76162 8584/ 90600 333 10150 20117 60017=
07621,1996-09-21 09:00:00,14,1002.7,3.2,94,13,10000,14.816,,,270,,,,3,,,,,,61,wg-a,,,,AAXX 21094 07621 12560 82708 10140 20130 39606 40027 53032 60037 76166 8587/ 90900=
07621,1996-09-21 12:00:00,13,1003.9,1,88,11,12000,22.224,,,280,,,,3,,,,,,61,wg-a,,,,AAXX 21124 07621 02362 82812 10130 20110 39616 40039 51010 60066 76166 878// 91200 333 60037=
07621,1996-09-21 15:00:00,14,1003.6,-0.1,82,11,20000,14.816,,,260,,,,,,,,,,2,wg-a,,,,AAXX 21154 07621 02770 82608 10140 20110 39615 40036 58001 61000 70262 8357/ 91500 333 ////=
07621,1996-09-21 18:00:00,13,1004.5,0.7,82,10,500,7.408,,,250,12.6,16.1,,,,,,,,3,wg-a,,,,AAXX 21184 07621 32800 72504 10130 20100 39622 40045 53007 70362 8557/ 91800 333 10161 20126=
07621,1996-09-21 21:00:00,12,1004.8,0.1,88,10,15000,7.408,,,220,,,,,,,,,,,wg-a,,,,AAXX 21214 07621 12765 82204 10120 20100 39623 40048 50001 60006 875// 92100=
07621,1996-09-22 00:00:00,10,1004.2,-0.8,93,9,15000,7.408,,,200,,,,,,,,,,,wg-a,,,,AAXX 22004 07621 12665 52004 10100 20090 39615 40042 58008 60006 82570 90000=
07621,1996-09-22 03:00:00,9,1004.1,-0.3,93,8,15000,7.408,,,180,,,,,,,,,,,wg-a,,,,AAXX 22034 07621 12765 71804 10090 20080 39612 40041 55003 60006 8357/ 90300=
07621,1996-09-22 06:00:00,10,1006.8,2.8,100,10,3500,7.408,,,220,8.7,13.2,,0,,,6,,,10,wg-a,,,,AAXX 22064 07621 02335 82204 10100 20100 39640 40068 53028 60064 71052 885// 90600 333 10132 20087 60007=
07621,1996-09-22 09:00:00,12,1009.1,2.4,94,11,3000,14.816,,,260,,,,2,,,,,,61,wg-a,,,,AAXX 22094 07621 12230 82608 10120 20110 39664 40091 53024 60027 76165 857// 90900=
07621,1996-09-22 12:00:00,15,1010.9,2.2,77,11,15000,18.52,,,260,,,,1,,,,,,2,wg-a,,,,AAXX 22124 07621 02465 72610 10150 20110 39686 40109 51022 60036 70265 872// 91200 333 60017=
07621,1996-09-22 15:00:00,15,1010.8,-0,77,11,20000,18.52,,,260,,,,,,,,,,,wg-a,,,,AAXX 22154 07621 12570 72610 10150 20110 39686 40108 55000 60006 878// 91500=
07621,1996-09-22 18:00:00,13,1012.4,1.1,82,10,20000,22.224,,,250,10.4,16.8,,,,,,,,,wg-a,,,,AAXX 22184 07621 32570 72512 10130 20100 39697 40124 53011 878// 91800 333 10168 20104=
07621,1996-09-22 21:00:00,10,1014.7,1.7,82,7,20000,14.816,,,250,,,,,,,,,,,wg-a,,,,AAXX 22214 07621 12770 /2508 10100 20070 39714 40147 51017 60006 81500 92100=
07621,1996-09-23 00:00:00,10,1013.9,-0.6,87,8,20000,14.816,,,210,,,,,,,,,,,wg-a,,,,AAXX 23004 07621 12670 72108 10100 20080 39708 40139 58006 60006 875// 90000=
07621,1996-09-23 03:00:00,9,1013.7,-0.5,87,7,20000,11.112,,,200,,,,0,,,,,,,wg-a,,,,AAXX 23034 07621 12670 22006 10090 20070 39703 40137 58005 60007 82500 90300=
07621,1996-09-23 06:00:00,9,1013.5,-0.1,93,8,11000,14.816,,,200,7.6,12.4,,,,,4,,,,wg-a,,,,AAXX 23064 07621 12/61 /2008 10090 20080 39702 40135 58001 60044 90600 333 10124 20076=
07621,1996-09-23 09:00:00,15,1013,0.3,63,8,15000,14.816,,,220,,,,,,,,,,,wg-a,,,,AAXX 23094 07621 12665 52208 10150 20080 39705 40130 51003 60006 83532 90900=
07621,1996-09-23 12:00:00,17,1012.3,-0.3,55,8,15000,11.112,,,260,,,,,,,,,,,wg-a,,,,AAXX 23124 07621 12665 62606 10170 20080 39702 40123 56003 60006 83832 91200=
07621,1996-09-23 15:00:00,18,1011.7,-0.4,49,7,15000,14.816,,,280,,,,,,,,,,,wg-a,,,,AAXX 23154 07621 12665 42808 10180 20070 39698 40117 57004 60006 84830 91500=
07621,1996-09-23 18:00:00,14,1012.8,0.4,82,11,15000,7.408,,,230,9.4,18.3,,,,,,,,,wg-a,,,,AAXX 23184 07621 12665 52304 10140 20110 39702 40128 53004 60006 82830 91800 333 10183 20094=
07621,1996-09-23 21:00:00,14,1014.1,1.3,82,11,15000,7.408,,,160,,,,,,,,,,,wg-a,,,,AAXX 23214 07621 12765 71604 10140 20110 39715 40141 51013 60006 875// 92100=
07621,1996-09-24 00:00:00,13,1014.5,0.2,94,12,4000,11.112,,,250,,,,0,,,,,,10,wg-a,,,,AAXX 24004 07621 02540 82506 10130 20120 39717 40145 50002 60006 71052 888// 90000 333 60007=
07621,1996-09-24 03:00:00,13,1013.7,-0.7,82,10,15000,14.816,,,270,,,,0,,,,,,20,wg-a,,,,AAXX 24034 07621 12565 /2708 10130 20100 39710 40137 56007 60007 72052 86600 90300=
07621,1996-09-24 06:00:00,13,1013.7,-0,77,9,500,14.816,,,250,11.6,13.8,,,,,,,,3,wg-a,,,,AAXX 24064 07621 12600 /2508 10130 20090 39710 40137 54000 60004 70351 86500 90600 333 10138 20116=
07621,1996-09-24 09:00:00,16,1014.4,1,68,10,500,18.52,,,280,,,,,,,,,,,wg-a,,,,AAXX 24094 07621 12500 /2810 10160 20100 39720 40144 51010 60006 86800 90900=
07621,1996-09-24 12:00:00,14,1015.8,1.2,94,13,8000,22.224,,,250,,,,1,,,,,,20,wg-a,,,,AAXX 24124 07621 02358 72512 10140 20130 39732 40158 51012 60016 72052 878// 91200 333 60017=
07621,1996-09-24 15:00:00,16,1014.7,-0.8,77,12,15000,18.52,,,240,,,,,,,,,,,wg-a,,,,AAXX 24154 07621 12565 /2410 10160 20120 39724 40147 58008 60006 86800 91500=
07621,1996-09-24 18:00:00,14,1015.6,0.5,82,11,15000,11.112,,,260,12.7,16.2,,,,,,,,,wg-a,,,,AAXX 24184 07621 32565 72606 10140 20110 39729 40156 53005 868// 91800 333 10162 20127=
07621,1996-09-24 21:00:00,12,1015.9,0.1,94,11,15000,11.112,,,190,,,,,,,,,,,wg-a,,,,AAXX 24214 07621 12665 /1906 10120 20110 39730 40159 50001 60006 82530 92100=
07621,1996-09-25 00:00:00,13,1014.7,-1.1,82,10,15000,11.112,,,230,,,,,,,,,,,wg-a,,,,AAXX 25004 07621 12665 72306 10130 20100 39719 40147 58011 60006 81532 90000=
07621,1996-09-25 03:00:00,13,1013.8,-0.9,82,10,15000,14.816,,,270,,,,,,,,,,,wg-a,,,,AAXX 25034 07621 12765 72708 10130 20100 39710 40138 58009 60006 8357/ 90300=
07621,1996-09-25 06:00:00,12,1013.6,-0.3,88,10,15000,7.408,,,200,11,13.6,,,,,1,,,,wg-a,,,,AAXX 25064 07621 02665 72004 10120 20100 39707 40136 55003 60006 8457/ 90600 333 10136 20110 60014=
07621,1996-09-25 09:00:00,16,1014.1,1.1,68,10,500,18.52,,,270,,,,0,,,,,,1,wg-a,,,,AAXX 25094 07621 12500 32710 10160 20100 39718 40141 51011 60007 70161 82831 90900=
07621,1996-09-25 12:00:00,19,1013,-0.7,52,9,500,22.224,,,280,,,,,,,,,,3,wg-a,,,,AAXX 25124 07621 12600 /2812 10190 20090 39711 40130 58007 60016 70361 82132 91200=
07621,1996-09-25 15:00:00,14,1014.8,1.1,94,13,8000,22.224,,,290,,,,0,,,,,,60,wg-a,,,,AAXX 25154 07621 12458 72912 10140 20130 39722 40148 53011 60007 76086 879// 91500=
07621,1996-09-25 18:00:00,13,1018,2.9,88,11,15000,18.52,,53.708,250,11.7,19.2,,2,,,,,,25,wg-a,,,,AAXX 25184 07621 12365 72510 10130 20110 39751 40180 53029 60027 72586 878// 91800 333 10192 20117 91029=
07621,1996-09-25 21:00:00,12,1020,1.8,94,11,10000,14.816,,,230,,,,4,,,,,,1,wg-a,,,,AAXX 25214 07621 12560 52308 10120 20110 39769 40200 51018 60047 70186 85200 92100=
07621,1996-09-26 00:00:00,12,1021.2,1.1,94,11,15000,11.112,,,230,,,,2,,,,,,1,wg-a,,,,AAXX 26004 07621 02565 42306 10120 20110 39780 40212 52011 60066 70186 84200 90000 333 60027=
07621,1996-09-26 03:00:00,10,1021.7,0.3,100,10,15000,14.816,,,200,,,,,,,,,,,wg-a,,,,AAXX 26034 07621 12665 42008 10100 20100 39783 40217 52003 60006 84200 90300=
07621,1996-09-26 06:00:00,10,1022.7,0.8,93,9,25000,11.112,,,210,9.8,12.8,,0,,,8,,,1,wg-a,,,,AAXX 26064 07621 02475 22106 10100 20090 39791 40227 53008 60084 70186 82800 90600 333 10128 20098 60007=
07621,1996-09-26 09:00:00,16,1022.1,0.4,77,12,50000,3.704,,,270,,,,,,,,,,,wg-a,,,,AAXX 26094 07621 12584 /2702 10160 20120 39795 40221 51004 60006 81100 90900=
07621,1996-09-26 12:00:00,18,1020.4,-1.3,56,9,50000,3.704,,,10,,,,,,,,,,,wg-a,,,,AAXX 26124 07621 12584 20102 10180 20090 39782 40204 58013 60006 82100 91200=
07621,1996-09-26 15:00:00,20,1019.7,-0.5,53,10,50000,7.408,,,360,,,,,,,,,,,wg-a,,,,AAXX 26154 07621 12684 /3604 10200 20100 39777 40197 55005 60006 81100 91500=
07621,1996-09-26 18:00:00,15,1020.3,-0,88,13,50000,7.408,,,210,9.7,20.4,,,,,,,,,wg-a,,,,AAXX 26184 07621 12684 42104 10150 20130 39777 40203 55000 60006 81430 91800 333 10204 20097=
07621,1996-09-26 21:00:00,15,1021.3,0.9,88,13,20000,7.408,,,180,,,,,,,,,,,wg-a,,,,AAXX 26214 07621 12770 81804 10150 20130 39786 40213 51009 60006 8357/ 92100=
07621,1996-09-27 00:00:00,16,1021.4,0.2,77,12,15000,11.112,,,240,,,,,,,,,,,wg-a,,,,AAXX 27004 07621 12565 82406 10160 20120 39788 40214 50002 60006 885// 90000=
07621,1996-09-27 06:00:00,17,1021.4,0.5,88,15,12000,11.112,,,260,14,16.9,,,,,,,,,wg-a,,,,AAXX 27064 07621 02562 72606 10170 20150 39790 40214 53005 60006 8557/ 90600 333 10169 20140 60004=
07621,1996-09-27 09:00:00,20,1021.1,0.2,83,17,40000,11.112,,,250,,,,,,,,,,,wg-a,,,,AAXX 27094 07621 12582 42506 10200 20170 39792 40211 52002 60006 81272 90900=
07621,1996-09-27 12:00:00,20,1022.2,1,83,17,6000,25.928,,,280,,,,,,,,,,,wg-a,,,,AAXX 27124 07621 12456 72814 10200 20170 39802 40222 52010 60006 8587/ 91200=
07621,1996-09-27 15:00:00,17,1023.2,0.6,100,17,1500,11.112,,,280,,,,0,,,,,,10,wg-a,,,,AAXX 27154 07621 12215 72806 10170 20170 39808 40232 53006 60007 71065 8577/ 91500=
07621,1996-09-27 18:00:00,16,1025.3,1.8,100,16,1500,14.816,,,290,16,21.8,,1,,,,,,10,wg-a,,,,AAXX 27184 07621 12215 82908 10160 20160 39826 40253 53018 60017 71065 877// 91800 333 10218 20160=
07621,1996-09-27 20:00:00,16,1025.3,1.8,100,16,1500,14.816,,,290,16,21.8,,1,,,,,,21,wg-a,,,,AAXX 27204 07621 12215 82908 10160 20160 39826 40253 53018 60017 72165 877// 92000 333 10218 20160=
07621,1996-09-28 00:00:00,14,1027.5,0.2,94,13,12000,7.408,,,290,,,,,,,,,,1,wg-a,,,,AAXX 28004 07621 12462 82904 10140 20130 39844 40275 53002 60016 70165 8571/ 90000=
07621,1996-09-28 03:00:00,14,1026.4,-1,100,14,8000,0,,,0,,,,,,,,,,,wg-a,,,,AAXX 28034 07621 12458 80000 10140 20140 39834 40264 56010 60006 885// 90300=
07621,1996-09-28 06:00:00,14,1027,0.5,94,13,1500,7.408,,,20,13.6,16.1,,0,,,3,,,10,wg-a,,,,AAXX 28064 07621 02115 80204 10140 20130 39839 40270 51005 60034 71052 887// 90600 333 10161 20136 60007=
07621,1996-09-28 12:00:00,17,1026.1,-0.1,82,14,10000,7.408,,,10,,,,,,,,,,1,wg-a,,,,AAXX 28124 07621 02460 60104 10170 20140 39836 40261 58001 61000 70152 86200 91200 333 ////=
07621,1996-09-28 15:00:00,19,1024.7,-1.1,68,13,15000,7.408,,,100,,,,,,,,,,,wg-a,,,,AAXX 28154 07621 12565 51004 10190 20130 39825 40247 58011 60006 84201 91500=
07621,1996-09-28 18:00:00,16,1025.5,0.2,82,13,50000,3.704,,,220,13.3,19.4,,,,,,,,,wg-a,,,,AAXX 28184 07621 32/84 42202 10160 20130 39827 40255 53002 80002 91800 333 10194 20133=
07621,1996-09-28 21:00:00,11,1026.4,0.2,100,11,10000,3.704,,,190,,,,,,,,,,,wg-a,,,,AAXX 28214 07621 12/60 21902 10110 20110 39829 40264 52002 60006 80002 92100=
07621,1996-09-29 00:00:00,11,1025.9,-0.6,94,10,25000,7.408,,,160,,,,,,,,,,,wg-a,,,,AAXX 29004 07621 12/75 01604 10110 20100 39823 40259 58006 60006 80000 90000=
07621,1996-09-29 03:00:00,10,1025.9,-0.1,93,9,25000,7.408,,,180,,,,,,,,,,,wg-a,,,,AAXX 29034 07621 12/75 21804 10100 20090 39822 40259 55001 60006 80001 90300=
07621,1996-09-29 06:00:00,10,1026.3,0.4,93,9,50000,7.408,,,170,9,15.4,,,,,,,,,wg-a,,,,AAXX 29064 07621 02/84 31704 10100 20090 39826 40263 53004 60006 80001 90600 333 10154 20090 61000=
07621,1996-09-29 09:00:00,19,1025.5,0.5,64,12,50000,3.704,,,120,,,,,,,,,,,wg-a,,,,AAXX 29094 07621 12/84 31202 10190 20120 39831 40255 51005 60006 80002 90900=
07621,1996-09-29 12:00:00,24,1024.4,-0.2,57,15,50000,3.704,,,340,,,,,,,,,,,wg-a,,,,AAXX 29124 07621 12/84 23402 10240 20150 39829 40244 55002 60006 80002 91200=
07621,1996-09-29 15:00:00,25,1023.3,-1,50,14,50000,7.408,,,360,,,,,,,,,,,wg-a,,,,AAXX 29154 07621 12/84 13604 10250 20140 39819 40233 56010 60006 80001 91500=
07621,1996-09-29 18:00:00,18,1024.1,-0.1,83,15,50000,3.704,,,180,10,25.4,,,,,,,,,wg-a,,,,AAXX 29184 07621 12/84 11802 10180 20150 39818 40241 56001 60006 80001 91800 333 10254 20100=
07621,1996-09-29 21:00:00,15,1024.4,-0.3,88,13,50000,7.408,,,170,,,,,,,,,,,wg-a,,,,AAXX 29214 07621 12/84 01704 10150 20130 39815 40244 56003 60006 80000 92100=
07621,1996-09-30 00:00:00,12,1023.3,-1.4,94,11,50000,7.408,,,160,,,,,,,,,,,wg-a,,,,AAXX 30004 07621 12/84 01604 10120 20110 39801 40233 58014 60006 80000 90000=
07621,1996-09-30 03:00:00,11,1021.8,-1.6,94,10,50000,7.408,,,180,,,,,,,,,,,wg-a,,,,AAXX 30034 07621 12/84 01804 10110 20100 39785 40218 58016 60006 80000 90300=
07621,1996-09-30 06:00:00,10,1020.3,-1.6,100,10,500,7.408,,,170,9.6,18.3,,0,,,,,,11,wg-a,,,,AAXX 30064 07621 02/00 01704 10100 20100 39769 40203 56016 60004 71100 80000 90600 333 10183 20096 60007=
07621,1996-09-30 09:00:00,21,1016.8,-1.8,60,13,50000,3.704,,,120,,,,,,,,,,,wg-a,,,,AAXX 30094 07621 12/84 01202 10210 20130 39751 40168 58018 60006 80000 90900=
07621,1996-09-30 12:00:00,27,1012.9,-2.9,37,11,50000,7.408,,,70,,,,,,,,,,,wg-a,,,,AAXX 30124 07621 12/84 /0704 10270 20110 39722 40129 56029 60006 81080 91200=
07621,1996-09-30 15:00:00,28,1009.5,-3.1,35,11,40000,7.408,,,90,,,,,,,,,,,wg-a,,,,AAXX 30154 07621 12882 30904 10280 20110 39691 40095 56031 60006 82180 91500=
07621,1996-09-30 18:00:00,22,1008.1,-2.2,60,14,35000,3.704,,,340,9.6,28.7,,,,,,,,,wg-a,,,,AAXX 30184 07621 12881 43402 10220 20140 39669 40081 58022 60006 81142 91800 333 10287 20096=
07621,1996-09-30 21:00:00,15,1010.7,1.6,100,15,800,22.224,,50.004,290,,,,,,,,,,45,wg-a,,,,AAXX 30214 07621 12/08 92912 10150 20150 39685 40107 53016 60006 74541 89/// 92100 333 91027=
07621,1996-10-01 00:00:00,14,1010.9,0,94,13,500,3.704,,50.004,220,,,,,,,,,,20,wg-a,,,,AAXX 01004 07621 02300 82202 10140 20130 39685 40109 50000 61000 72054 876// 90000 333 6100 91027=
07621,1996-10-01 03:00:00,13,1009,-2,94,12,6000,29.632,,46.3,290,,,,0,,,,,,60,wg-a,,,,AAXX 01034 07621 12356 82916 10130 20120 39665 40090 56020 60007 76062 875// 90300 333 91025=
07621,1996-10-01 06:00:00,11,1012.5,3,87,9,15000,18.52,,61.116,270,10.6,21.5,,12,,,12,,,61,wg-a,,,,AAXX 01064 07621 02465 82710 10110 20090 39695 40125 50030 60124 76196 8397/ 90600 333 10215 20106 60127 91033=
07621,1996-10-01 09:00:00,16,1013.7,1.9,59,8,40000,35.188,,,270,,,,0,,,,,,3,wg-a,,,,AAXX 01094 07621 12682 /2719 10160 20080 39714 40137 53019 60007 70362 86802 90900=
07621,1996-10-01 12:00:00,13,1016.7,2.5,94,12,500,22.224,,61.116,270,,,,1,,,,,,25,wg-a,,,,AAXX 01124 07621 02400 72712 10130 20120 39739 40167 53025 60016 72586 872// 91200 333 60017 91033=
07621,1996-10-01 15:00:00,13,1019,2.1,82,10,20000,25.928,,53.708,250,,,,1,,,,,,25,wg-a,,,,AAXX 01154 07621 12370 72514 10130 20100 39760 40190 53021 60017 72586 86202 91500 333 91029=
07621,1996-10-01 18:00:00,11,1021.5,2.2,94,10,15000,14.816,,53.708,270,10.6,16.2,,1,,,,,,80,wg-a,,,,AAXX 01184 07621 12565 62708 10110 20100 39782 40215 53022 60017 78086 85202 91800 333 10162 20106 91029=
07621,1996-10-02 00:00:00,10,1021.7,-0.2,87,8,15000,14.816,,,230,,,,,,,,,,1,wg-a,,,,AAXX 02004 07621 12565 42308 10100 20080 39782 40217 58002 60016 70186 84200 90000=
07621,1996-10-02 03:00:00,10,1020.4,-1.3,93,9,15000,14.816,,,220,,,,1,,,,,,,wg-a,,,,AAXX 02034 07621 12465 72208 10100 20090 39769 40204 58013 60017 8687/ 90300=
07621,1996-10-02 06:00:00,10,1019.4,-0.9,93,9,10000,14.816,,,240,8,11.2,,0,,,5,,,61,wg-a,,,,AAXX 02064 07621 02360 82408 10100 20090 39760 40194 55009 60054 76186 878// 90600 333 10112 20080 60007=
07621,1996-10-02 09:00:00,12,1018.3,-0.7,88,10,10000,18.52,,,240,,,,1,,,,,,61,wg-a,,,,AAXX 02094 07621 12660 82410 10120 20100 39753 40183 56007 60017 76162 8457/ 90900=
07621,1996-10-02 12:00:00,13,1019.3,1.1,88,11,20000,25.928,,,240,,,,4,,,,,,21,wg-a,,,,AAXX 02124 07621 02370 72414 10130 20110 39764 40193 50011 60056 72162 878// 91200 333 60047=
07621,1996-10-02 18:00:00,11,1024,3.1,94,10,20000,18.52,,,270,10.1,14,,10,,,,,,1,wg-a,,,,AAXX 02184 07621 12370 52710 10110 20100 39806 40240 53031 60107 70186 84870 91800 333 10140 20101=
07621,1996-10-02 21:00:00,12,1026.4,2.4,88,10,15000,18.52,,,250,,,,,,,,,,,wg-a,,,,AAXX 02214 07621 12465 72510 10120 20100 39830 40264 51024 60006 878// 92100=
07621,1996-10-03 00:00:00,10,1027.6,0.8,93,9,15000,11.112,,,200,,,,,,,,,,,wg-a,,,,AAXX 03004 07621 12565 52006 10100 20090 39838 40276 51008 60006 85500 90000=
07621,1996-10-03 03:00:00,9,1028.2,0.4,93,8,15000,11.112,,,170,,,,,,,,,,,wg-a,,,,AAXX 03034 07621 12565 /1706 10090 20080 39842 40282 53004 60006 85500 90300=
07621,1996-10-03 06:00:00,7,1029,0.5,93,6,500,7.408,,,160,6.7,11.8,,,,,27,,,,wg-a,,,,AAXX 03064 07621 02600 /1604 10070 20060 39847 40290 53005 60006 81540 90600 333 10118 20067 60274=
07621,1996-10-03 09:00:00,15,1028.9,1.1,72,10,500,3.704,,,120,,,,,,,,,,,wg-a,,,,AAXX 03094 07621 12500 41202 10150 20100 39858 40289 51011 60006 81202 90900=
07621,1996-10-03 12:00:00,16,1028.1,-0.6,63,9,500,7.408,,,40,,,,,,,,,,,wg-a,,,,AAXX 03124 07621 12500 /0404 10160 20090 39852 40281 58006 60006 82202 91200=
07621,1996-10-03 15:00:00,16,1027.2,-0.8,55,7,500,3.704,,,30,,,,,,,,,,,wg-a,,,,AAXX 03154 07621 12500 40302 10160 20070 39844 40272 57008 60006 82202 91500=
07621,1996-10-03 18:00:00,14,1027.6,-0,72,9,20000,3.704,,,20,6.6,16.6,,,,,,,,,wg-a,,,,AAXX 03184 07621 12670 /0202 10140 20090 39844 40276 55000 60006 85502 91800 333 10166 20066=
07621,1996-10-03 21:00:00,10,1028.6,0.3,87,8,15000,7.408,,,170,,,,,,,,,,,wg-a,,,,AAXX 03214 07621 12/65 01704 10100 20080 39847 40286 50003 60006 80000 92100=
07621,1996-10-04 00:00:00,8,1028.6,-0.3,93,7,15000,7.408,,,160,,,,,,,,,,,wg-a,,,,AAXX 04004 07621 12/65 01604 10080 20070 39844 40286 56003 60006 80000 90000=
07621,1996-10-04 03:00:00,7,1026.9,-1.7,93,6,15000,11.112,,,180,,,,,,,,,,,wg-a,,,,AAXX 04034 07621 12/65 01806 10070 20060 39827 40269 58017 60006 80000 90300=
07621,1996-10-04 06:00:00,6,1026.9,-0.1,93,5,50000,11.112,,,190,6.1,13.9,,,,,,,,,wg-a,,,,AAXX 04064 07621 02584 /1906 10060 20050 39826 40269 55001 60006 81500 90600 333 10139 20061 60004=
07621,1996-10-04 09:00:00,14,1026.3,0.6,72,9,50000,7.408,,,260,,,,,,,,,,,wg-a,,,,AAXX 04094 07621 12/84 12604 10140 20090 39832 40263 51006 60006 80001 90900=
07621,1996-10-04 12:00:00,17,1024.2,-1.6,55,8,500,7.408,,,290,,,,,,,,,,,wg-a,,,,AAXX 04124 07621 12500 /2904 10170 20080 39816 40242 58016 60006 81101 91200=
07621,1996-10-04 15:00:00,17,1022.4,-1.7,55,8,25000,18.52,,,250,,,,,,,,,,,wg-a,,,,AAXX 04154 07621 12675 52510 10170 20080 39799 40224 56017 60006 82404 91500=
07621,1996-10-04 18:00:00,14,1022.7,-0.1,77,10,25000,7.408,,,260,6.2,17.9,,,,,,,,,wg-a,,,,AAXX 04184 07621 12575 72604 10140 20100 39798 40227 56001 60006 875// 91800 333 10179 20062=
07621,1996-10-05 00:00:00,12,1021.9,-0.9,94,11,8000,14.816,,,280,,,,1,,,,,,60,wg-a,,,,AAXX 05004 07621 02258 82808 10120 20110 39787 40219 55009 60016 76062 885// 90000 333 60017=
07621,1996-10-05 06:00:00,9,1021.5,-0.5,93,8,20000,0,,,0,8.9,14,,,,,2,,,1,wg-a,,,,AAXX 05064 07621 02470 40000 10090 20080 39779 40215 57005 60024 70161 83840 90600 333 10140 20089 61000=
07621,1996-10-05 09:00:00,13,1020.9,0,67,7,40000,11.112,,,250,,,,,,,,,,,wg-a,,,,AAXX 05094 07621 12582 /2506 10130 20070 39779 40209 50000 60006 81832 90900=
07621,1996-10-05 12:00:00,14,1019.8,-0.9,55,5,25000,14.816,,,310,,,,,,,,,,25,wg-a,,,,AAXX 05124 07621 02675 73108 10140 20050 39770 40198 58009 61000 72586 878// 91200 333 6100=
07621,1996-10-05 15:00:00,14,1018.9,-0.9,72,9,15000,14.816,,,260,,,,,,,,,,15,wg-a,,,,AAXX 05154 07621 02565 72608 10140 20090 39761 40189 56009 61000 71586 878// 91500 333 ////=
07621,1996-10-05 18:00:00,8,1021.7,1.8,93,7,7000,22.224,,,230,8.1,14.8,,6,,,,,,61,wg-a,,,,AAXX 05184 07621 12257 72312 10080 20070 39779 40217 51018 60067 76186 878// 91800 333 10148 20081=
07621,1996-10-05 21:00:00,8,1022,0.2,81,5,11000,18.52,,,210,,,,,,,,,,,wg-a,,,,AAXX 05214 07621 32/61 /2110 10080 20050 39781 40220 53002 92100=
07621,1996-10-06 00:00:00,8,1020.9,-1.1,87,6,20000,11.112,,,200,,,,,,,,,,2,wg-a,,,,AAXX 06004 07621 12570 72006 10080 20060 39770 40209 58011 60016 70296 87800 90000=
07621,1996-10-06 03:00:00,8,1020.1,-0.7,93,7,20000,11.112,,,280,,,,,,,,,,,wg-a,,,,AAXX 06034 07621 12570 72806 10080 20070 39763 40201 57007 60006 878// 90300=
07621,1996-10-06 06:00:00,7,1021.2,0.9,93,6,15000,7.408,,,270,6.5,8.6,,,,,7,,,,wg-a,,,,AAXX 06064 07621 12365 52704 10070 20060 39772 40212 51009 60074 85800 90600 333 10086 20065=
07621,1996-10-06 09:00:00,8,1022.6,1.5,93,7,8000,14.816,,,330,,,,,,,,,,,wg-a,,,,AAXX 06094 07621 12258 73308 10080 20070 39787 40226 53015 60006 876// 90900=
07621,1996-10-06 12:00:00,9,1021.5,-0.9,87,7,12000,7.408,,,300,,,,1,,,,,,21,wg-a,,,,AAXX 06124 07621 02362 73004 10090 20070 39778 40215 58009 60016 72161 878// 91200 333 60017=
07621,1996-10-06 15:00:00,9,1021.1,-0.3,87,7,12000,14.816,,,290,,,,,,,,,,80,wg-a,,,,AAXX 06154 07621 02462 72908 10090 20070 39775 40211 55003 61000 78086 878// 91500 333 ////=
07621,1996-10-06 18:00:00,8,1022.7,1.3,87,6,11000,3.704,,,220,6.4,10,,1,,,,,,3,wg-a,,,,AAXX 06184 07621 12461 72202 10080 20060 39788 40227 53013 60017 70386 878// 91800 333 10100 20064=
07621,1996-10-06 21:00:00,7,1023.2,0.3,87,5,12000,7.408,,,180,,,,,,,,,,,wg-a,,,,AAXX 06214 07621 12562 81804 10070 20050 39791 40232 51003 60006 878// 92100=
07621,1996-10-07 00:00:00,7,1022.9,-0.2,87,5,12000,7.408,,,210,,,,,,,,,,,wg-a,,,,AAXX 07004 07621 12562 82104 10070 20050 39789 40229 58002 60006 875// 90000=
07621,1996-10-07 03:00:00,7,1021.8,-1.1,93,6,12000,11.112,,,200,,,,,,,,,,,wg-a,,,,AAXX 07034 07621 12562 82006 10070 20060 39778 40218 57011 60006 875// 90300=
07621,1996-10-07 06:00:00,7,1022,0.3,93,6,15000,7.408,,,230,6.3,7.6,,,,,2,,,,wg-a,,,,AAXX 07064 07621 02265 82304 10070 20060 39781 40220 53003 60006 888// 90600 333 10076 20063 60024=
07621,1996-10-07 12:00:00,10,1022.5,-0.5,82,7,15000,14.816,,,260,,,,,,,,,,,wg-a,,,,AAXX 07124 07621 12665 82608 10100 20070 39790 40225 56005 60006 875// 91200=
07621,1996-10-07 15:00:00,11,1022.3,-0.1,76,7,15000,7.408,,,260,,,,,,,,,,,wg-a,,,,AAXX 07154 07621 12565 82604 10110 20070 39789 40223 56001 60006 878// 91500=
07621,1996-10-07 18:00:00,10,1022.7,0.2,87,8,20000,7.408,,,220,7.4,11.2,,,,,,,,,wg-a,,,,AAXX 07184 07621 12670 72204 10100 20080 39791 40227 53002 60006 875// 91800 333 10112 20074=
07621,1996-10-07 21:00:00,10,1023.9,1.1,82,7,15000,7.408,,,240,,,,,,,,,,,wg-a,,,,AAXX 07214 07621 12765 82404 10100 20070 39802 40239 51011 60006 885// 92100=
07621,1996-10-08 00:00:00,8,1023.6,-0.5,93,7,15000,3.704,,,170,,,,,,,,,,,wg-a,,,,AAXX 08004 07621 12565 21702 10080 20070 39797 40236 58005 60006 82500 90000=
07621,1996-10-08 03:00:00,6,1023.6,-0.4,93,5,15000,11.112,,,180,,,,,,,,,,,wg-a,,,,AAXX 08034 07621 12/65 01806 10060 20050 39793 40236 57004 60006 80000 90300=
07621,1996-10-08 06:00:00,6,1023.7,0.1,87,4,20000,11.112,,,170,5.1,10,,,,,,,,,wg-a,,,,AAXX 08064 07621 02670 /1706 10060 20040 39794 40237 53001 60006 81500 90600 333 10100 20051 60004=
07621,1996-10-08 09:00:00,13,1023.1,0.5,67,7,500,7.408,,,220,,,,,,,,,,,wg-a,,,,AAXX 08094 07621 12600 /2204 10130 20070 39799 40231 51005 60006 81800 90900=
07621,1996-10-08 12:00:00,15,1022.1,-0.6,55,6,500,7.408,,,330,,,,,,,,,,,wg-a,,,,AAXX 08124 07621 12600 33304 10150 20060 39793 40221 58006 60006 83100 91200=
07621,1996-10-08 15:00:00,15,1021.8,,55,6,500,55.56,,,330,,,,,,,,,,,wg-a,,,,AAXX 08154 07621 12/00 /3330 10150 20060 39790 40218 60006 91500=
07621,1996-10-08 18:00:00,12,1023.4,1.2,76,8,500,3.704,,,180,5.7,15.8,,,,,,,,,wg-a,,,,AAXX 08184 07621 12600 41802 10120 20080 39801 40234 53012 60006 84400 91800 333 10158 20057=
07621,1996-10-08 21:00:00,11,1024.1,0.6,82,8,15000,3.704,,,210,,,,,,,,,,,wg-a,,,,AAXX 08214 07621 12665 72102 10110 20080 39807 40241 51006 60006 875// 92100=
07621,1996-10-09 00:00:00,11,1024,-0.2,82,8,15000,7.408,,,190,,,,,,,,,,,wg-a,,,,AAXX 09004 07621 12765 71904 10110 20080 39805 40240 58002 60006 875// 90000=
07621,1996-10-09 03:00:00,10,1023.1,-0.9,87,8,15000,7.408,,,170,,,,,,,,,,,wg-a,,,,AAXX 09034 07621 12765 71704 10100 20080 39796 40231 56009 60006 875// 90300=
07621,1996-10-09 06:00:00,11,1023.4,0.3,76,7,15000,7.408,,,170,10.2,12,,,,,,,,,wg-a,,,,AAXX 09064 07621 02665 71704 10110 20070 39799 40234 51003 60006 875// 90600 333 10120 20102 60004=
07621,1996-10-09 09:00:00,13,1023.6,0.6,77,9,25000,3.704,,,180,,,,,,,,,,,wg-a,,,,AAXX 09094 07621 12575 71802 10130 20090 39805 40236 52006 60006 878// 90900=
07621,1996-10-09 12:00:00,16,1022.4,-0.8,63,9,25000,7.408,,,30,,,,,,,,,,,wg-a,,,,AAXX 09124 07621 12575 70304 10160 20090 39797 40224 58008 60006 878// 91200=
07621,1996-10-09 15:00:00,16,1021.7,-0.6,59,8,25000,7.408,,,360,,,,,,,,,,,wg-a,,,,AAXX 09154 07621 12575 73604 10160 20080 39791 40217 56006 60006 878// 91500=
07621,1996-10-09 18:00:00,14,1022.7,0.6,82,11,12000,7.408,,,30,10.3,16.1,,,,,,,,,wg-a,,,,AAXX 09184 07621 12462 80304 10140 20110 39797 40227 53006 60006 885// 91800 333 10161 20103=
07621,1996-10-09 21:00:00,12,1024.1,1.2,94,11,10000,0,,,0,,,,,,,,,,,wg-a,,,,AAXX 09214 07621 12560 80000 10120 20110 39809 40241 52012 60006 885// 92100=
07621,1996-10-10 00:00:00,11,1023.5,-0.8,94,10,10000,7.408,,,170,,,,,,,,,,,wg-a,,,,AAXX 10004 07621 12660 41704 10110 20100 39801 40235 58008 60006 84500 90000=
07621,1996-10-10 03:00:00,10,1022.6,-1,100,10,10000,0,,,0,,,,,,,,,,,wg-a,,,,AAXX 10034 07621 12760 70000 10100 20100 39791 40226 58010 60006 875// 90300=
07621,1996-10-10 06:00:00,10,1022.7,0.1,100,10,20000,7.408,,,160,10.1,13.6,,,,,,,,,wg-a,,,,AAXX 10064 07621 02570 71604 10100 20100 39792 40227 52001 60006 875// 90600 333 10136 20101 60004=
07621,1996-10-10 09:00:00,13,1023.3,0.9,82,10,20000,3.704,,,60,,,,,,,,,,,wg-a,,,,AAXX 10094 07621 12770 /0602 10130 20100 39801 40233 51009 60006 86500 90900=
07621,1996-10-10 12:00:00,17,1021.5,-1,59,9,25000,11.112,,,50,,,,,,,,,,,wg-a,,,,AAXX 10124 07621 12675 30506 10170 20090 39791 40215 58010 60006 83801 91200=
07621,1996-10-10 15:00:00,17,1020.8,-0.8,55,8,25000,7.408,,,40,,,,,,,,,,,wg-a,,,,AAXX 10154 07621 12675 /0404 10170 20080 39783 40208 56008 60006 86801 91500=
07621,1996-10-10 18:00:00,11,1022.3,0.6,87,9,25000,3.704,,,200,10.1,17.4,,,,,,,,,wg-a,,,,AAXX 10184 07621 12775 42002 10110 20090 39789 40223 53006 60006 84401 91800 333 10174 20101=
07621,1996-10-10 21:00:00,9,1023.1,0.5,93,8,25000,3.704,,,160,,,,,,,,,,,wg-a,,,,AAXX 10214 07621 12775 21602 10090 20080 39794 40231 51005 60006 82500 92100=
07621,1996-10-11 00:00:00,9,1022.1,-1,93,8,25000,3.704,,,170,,,,,,,,,,,wg-a,,,,AAXX 11004 07621 12775 11702 10090 20080 39784 40221 58010 60006 815/0 90000=
07621,1996-10-11 03:00:00,7,1021.1,-1.2,100,7,25000,3.704,,,160,,,,,,,,,,,wg-a,,,,AAXX 11034 07621 12775 /1602 10070 20070 39772 40211 56012 60006 81500 90300=
07621,1996-10-11 09:00:00,14,1019.8,0.2,72,9,500,3.704,,,60,,,,,,,,,,,wg-a,,,,AAXX 11094 07621 12/00 00602 10140 20090 39769 40198 50002 60006 80000 90900=
07621,1996-10-11 12:00:00,18,1017.9,-1.2,56,9,500,7.408,,,60,,,,,,,,,,,wg-a,,,,AAXX 11124 07621 12600 /0604 10180 20090 39757 40179 58012 60006 81102 91200=
07621,1996-10-11 15:00:00,19,1016.6,-1.2,49,8,500,11.112,,,60,,,,,,,,,,,wg-a,,,,AAXX 11154 07621 12600 20606 10190 20080 39745 40166 56012 60006 81102 91500=
07621,1996-10-11 18:00:00,14,1016.9,-0.3,77,10,500,0,,,0,4.8,19.2,,,,,,,,,wg-a,,,,AAXX 11184 07621 12/00 40000 10140 20100 39742 40169 55003 60006 80002 91800 333 10192 20048=
07621,1996-10-11 21:00:00,10,1017.7,0.1,93,9,20000,3.704,,,150,,,,,,,,,,,wg-a,,,,AAXX 11214 07621 12/70 41502 10100 20090 39743 40177 51001 60006 82032 92100=
07621,1996-10-12 00:00:00,10,1016.4,-1.2,87,8,20000,14.816,,,180,,,,,,,,,,,wg-a,,,,AAXX 12004 07621 12/70 01808 10100 20080 39731 40164 58012 60006 80000 90000=
07621,1996-10-12 03:00:00,10,1015,-1.3,82,7,20000,7.408,,,160,,,,,,,,,,,wg-a,,,,AAXX 12034 07621 12/70 01604 10100 20070 39718 40150 58013 60006 80000 90300=
07621,1996-10-12 06:00:00,9,1014.6,-0.6,76,5,50000,11.112,,,180,8.5,13.9,,,,,,,,,wg-a,,,,AAXX 12064 07621 02/84 11806 10090 20050 39712 40146 57006 60006 80001 90600 333 10139 20085 60004=
07621,1996-10-12 09:00:00,18,1013.4,0.2,49,7,50000,3.704,,,150,,,,,,,,,,,wg-a,,,,AAXX 12094 07621 12/84 11502 10180 20070 39714 40134 50002 60006 80001 90900=
07621,1996-10-12 12:00:00,22,1011.3,-1.4,41,8,50000,11.112,,,80,,,,,,,,,,,wg-a,,,,AAXX 12124 07621 12/84 /0806 10220 20080 39700 40113 58014 60006 81041 91200=
07621,1996-10-12 15:00:00,21,1009.6,-1.8,43,8,50000,11.112,,,80,,,,,,,,,,,wg-a,,,,AAXX 12154 07621 12/84 /0806 10210 20080 39682 40096 56018 60006 81041 91500=
07621,1996-10-12 18:00:00,16,1010.1,-0.3,72,11,15000,3.704,,,50,8.5,23.2,,,,,,,,,wg-a,,,,AAXX 12184 07621 12/65 /0502 10160 20110 39679 40101 55003 60006 81041 91800 333 10232 20085=
07621,1996-10-12 21:00:00,9,1010.5,-0.6,93,8,15000,3.704,,,170,,,,,,,,,,,wg-a,,,,AAXX 12214 07621 12/65 01702 10090 20080 39673 40105 56006 60006 80000 92100=
07621,1996-10-13 00:00:00,8,1009.1,-1.6,93,7,15000,3.704,,,220,,,,,,,,,,,wg-a,,,,AAXX 13004 07621 12/65 02202 10080 20070 39657 40091 57016 60006 80000 90000=
07621,1996-10-13 03:00:00,7,1007.2,-1.9,87,5,15000,3.704,,,40,,,,,,,,,,,wg-a,,,,AAXX 13034 07621 12/65 10402 10070 20050 39638 40072 56019 60006 80002 90300=
07621,1996-10-13 06:00:00,8,1006,-1,93,7,500,7.408,,,200,6.4,15.7,,,,,,,,,wg-a,,,,AAXX 13064 07621 02700 /2004 10080 20070 39628 40060 58010 60006 81542 90600 333 10157 20064 60004=
07621,1996-10-13 09:00:00,16,1003.9,-0.8,72,11,500,3.704,,,70,,,,,,,,,,,wg-a,,,,AAXX 13094 07621 12/00 20702 10160 20110 39620 40039 58008 60006 82042 90900=
07621,1996-10-13 12:00:00,20,1002.3,-0.9,56,11,500,7.408,,,80,,,,,,,,,,,wg-a,,,,AAXX 13124 07621 12/00 40804 10200 20110 39611 40023 58009 60006 83082 91200=
07621,1996-10-13 15:00:00,21,1001.4,-0.9,38,6,25000,11.112,,,170,,,,,,,,,,,wg-a,,,,AAXX 13154 07621 12/75 61706 10210 20060 39602 40014 58009 60006 84082 91500=
07621,1996-10-13 18:00:00,15,1001.1,-1,72,10,15000,0,,,0,7.2,23.1,,,,,,,,,wg-a,,,,AAXX 13184 07621 12/65 70000 10150 20100 39592 40011 56010 60006 82082 91800 333 10231 20072=
07621,1996-10-13 21:00:00,14,1000.9,-0.3,67,8,15000,7.408,,,140,,,,,,,,,,,wg-a,,,,AAXX 13214 07621 12/65 71404 10140 20080 39589 40009 55003 60006 83082 92100=
07621,1996-10-14 00:00:00,14,1000.4,-0.5,67,8,15000,7.408,,,140,,,,,,,,,,,wg-a,,,,AAXX 14004 07621 12/65 71404 10140 20080 39584 40004 56005 60006 84082 90000=
07621,1996-10-14 03:00:00,16,998.8,-1.4,55,7,15000,11.112,,,140,,,,,,,,,,,wg-a,,,,AAXX 14034 07621 12/65 71406 10160 20070 39570 49988 58014 60006 85082 90300=
07621,1996-10-14 06:00:00,13,1000.6,1.4,82,10,15000,11.112,,,220,12.5,16,,,,,,,,,wg-a,,,,AAXX 14064 07621 02/65 72206 10130 20100 39584 40006 51014 60006 85082 90600 333 10160 20125 60004=
07621,1996-10-14 09:00:00,16,1003.2,3,68,10,15000,11.112,,,260,,,,,,,,,,,wg-a,,,,AAXX 14094 07621 12865 72606 10160 20100 39614 40032 51030 60006 85082 90900=
07621,1996-10-14 12:00:00,17,1004.1,1,68,11,20000,18.52,,,290,,,,,,,,,,,wg-a,,,,AAXX 14124 07621 12670 72910 10170 20110 39624 40041 51010 60006 83842 91200=
07621,1996-10-14 15:00:00,14,1006.5,1.8,88,12,10000,22.224,,,270,,,,,,,,,,60,wg-a,,,,AAXX 14154 07621 02460 72712 10140 20120 39642 40065 53018 61000 76086 872// 91500 333 ////=
07621,1996-10-14 18:00:00,13,1008.9,2.1,82,10,12000,11.112,,,230,12.3,17.8,,0,,,,,,60,wg-a,,,,AAXX 14184 07621 12462 72306 10130 20100 39663 40089 53021 60007 76086 8357/ 91800 333 10178 20123=
07621,1996-10-14 21:00:00,12,1010.6,1.6,94,11,15000,14.816,,,260,,,,0,,,,,,3,wg-a,,,,AAXX 14214 07621 12465 72608 10120 20110 39679 40106 53016 60007 70362 875// 92100=
07621,1996-10-15 00:00:00,12,1011.5,0.8,94,11,8000,7.408,,,250,,,,3,,,,,,61,wg-a,,,,AAXX 15004 07621 02258 72504 10120 20110 39687 40115 51008 60046 76162 875// 90000 333 60037=
07621,1996-10-15 03:00:00,11,1012.4,0.8,100,11,6000,18.52,,,260,,,,4,,,,,,60,wg-a,,,,AAXX 15034 07621 12256 72610 10110 20110 39695 40124 51008 60047 76066 875// 90300=
07621,1996-10-15 06:00:00,11,1014,1.4,94,10,6000,11.112,,,230,10.7,12.9,,3,,,11,,,61,wg-a,,,,AAXX 15064 07621 02356 72306 10110 20100 39709 40140 51014 60114 76166 875// 90600 333 10129 20107 60037=
07621,1996-10-15 09:00:00,12,1015.7,1.8,88,10,10000,11.112,,,250,,,,1,,,,,,3,wg-a,,,,AAXX 15094 07621 12360 72506 10120 20100 39727 40157 53018 60017 70386 878// 90900=
07621,1996-10-15 12:00:00,13,1015.8,0.3,88,11,8000,11.112,,,260,,,,0,,,,,,80,wg-a,,,,AAXX 15124 07621 02458 72606 10130 20110 39730 40158 50003 60016 78086 86802 91200 333 60007=
07621,1996-10-15 15:00:00,12,1016,0.1,88,10,10000,18.52,,,240,,,,1,,,,,,25,wg-a,,,,AAXX 15154 07621 12360 72410 10120 20100 39731 40160 50001 60017 72586 878// 91500=
07621,1996-10-15 18:00:00,12,1016.9,0.8,88,10,10000,11.112,,,230,10.7,14.6,,3,,,,,,60,wg-a,,,,AAXX 15184 07621 12360 72306 10120 20100 39739 40169 53008 60037 76086 878// 91800 333 10146 20107=
07621,1996-10-15 21:00:00,12,1017.6,0.7,94,11,10000,18.52,,,250,,,,0,,,,,,3,wg-a,,,,AAXX 15214 07621 12460 72510 10120 20110 39746 40176 53007 60007 70362 878// 92100=
07621,1996-10-16 00:00:00,11,1017.3,-0.4,87,9,10000,18.52,,,250,,,,0,,,,,,3,wg-a,,,,AAXX 16004 07621 02460 72510 10110 20090 39742 40173 55004 60016 70362 875// 90000 333 60007=
07621,1996-10-16 03:00:00,9,1017.1,-0.5,93,8,10000,11.112,,,240,,,,,,,,,,,wg-a,,,,AAXX 16034 07621 12660 42406 10090 20080 39737 40171 57005 60006 84500 90300=
07621,1996-10-16 06:00:00,7,1017.5,-0.1,93,6,15000,11.112,,,220,6.7,12.1,,,,,6,,,,wg-a,,,,AAXX 16064 07621 12565 22206 10070 20060 39736 40175 58001 60064 82800 90600 333 10121 20067=
07621,1996-10-16 09:00:00,12,1016.1,-0.4,82,9,500,7.408,,,250,,,,,,,,,,,wg-a,,,,AAXX 16094 07621 12700 42504 10120 20090 39732 40161 58004 60006 83570 90900=
07621,1996-10-16 12:00:00,14,1015,-0.8,58,6,25000,18.52,,,270,,,,,,,,,,,wg-a,,,,AAXX 16124 07621 12575 /2710 10140 20060 39724 40150 58008 60006 85870 91200=
07621,1996-10-16 18:00:00,11,1015.8,0.6,87,9,20000,11.112,,,240,6.4,15.8,,,,,,,,3,wg-a,,,,AAXX 16184 07621 02470 72406 10110 20090 39727 40158 53006 61000 70386 878// 91800 333 10158 20064 ////=
07621,1996-10-17 00:00:00,8,1015.2,-1,93,7,0,11.112,,,170,,,,,,,,,,,wg-a,,,,AAXX 17004 07621 12/// /1706 10080 20070 39716 40152 56010 60006 90000=
07621,1996-10-17 06:00:00,9,1013.9,-0.2,81,6,0,7.408,,,180,6.8,10.9,,,,,,,,,wg-a,,,,AAXX 17064 07621 02/// /1804 10090 20060 39705 40139 55002 60006 90600 333 10109 20068 61000=
07621,1996-10-17 12:00:00,15,1013.4,-0.1,59,7,0,14.816,,,270,,,,,,,,,,,wg-a,,,,AAXX 17124 07621 12/// /2708 10150 20070 39710 40134 58001 60006 91200=
07621,1996-10-17 18:00:00,10,1013.7,0.8,87,8,0,7.408,,,210,8.4,17.7,,,,,,,,,wg-a,,,,AAXX 17184 07621 12/// /2104 10100 20080 39705 40137 53008 60006 91800 333 10177 20084=
07621,1996-10-18 00:00:00,7,1014.3,-0.4,87,5,0,3.704,,,190,,,,,,,,,,,wg-a,,,,AAXX 18004 07621 12/// /1902 10070 20050 39705 40143 55004 60006 90000=
07621,1996-10-18 06:00:00,11,1015.8,1.9,100,11,0,14.816,,,230,6.3,11.8,,0,,,1,,,,wg-a,,,,AAXX 18064 07621 02/// /2308 10110 20110 39728 40158 53019 60014 90600 333 10118 20063 60007=
07621,1996-10-18 09:00:00,16,1017.2,2.1,88,14,500,18.52,,,260,,,,1,,,,,,1,wg-a,,,,AAXX 18094 07621 12500 72610 10160 20140 39749 40172 53021 60017 70165 878// 90900=
07621,1996-10-18 12:00:00,19,1017.7,0.8,68,13,500,18.52,,,280,,,,0,,,,,,1,wg-a,,,,AAXX 18124 07621 02500 /2810 10190 20130 39757 40177 51008 60016 70165 86800 91200 333 60007=
07621,1996-10-18 15:00:00,19,1017.8,0.2,68,13,20000,18.52,,,280,,,,,,,,,,,wg-a,,,,AAXX 18154 07621 12570 52810 10190 20130 39759 40178 53002 60006 85800 91500=
07621,1996-10-18 18:00:00,15,1020.2,1.6,88,13,20000,11.112,,,250,10.7,20.3,,,,,,,,,wg-a,,,,AAXX 18184 07621 32770 /2506 10150 20130 39775 40202 53016 85500 91800 333 10203 20107=
07621,1996-10-18 21:00:00,15,1021.7,1.4,88,13,20000,7.408,,,240,,,,,,,,,,,wg-a,,,,AAXX 18214 07621 12770 72404 10150 20130 39789 40217 53014 60006 875// 92100=
07621,1996-10-19 00:00:00,15,1022.6,1,82,12,20000,7.408,,,260,,,,,,,,,,,wg-a,,,,AAXX 19004 07621 12770 72604 10150 20120 39799 40226 51010 60006 875// 90000=
07621,1996-10-19 03:00:00,14,1023.3,0.4,88,12,20000,7.408,,,230,,,,,,,,,,,wg-a,,,,AAXX 19034 07621 12770 22304 10140 20120 39803 40233 51004 60006 82500 90300=
07621,1996-10-19 06:00:00,13,1025.7,2.2,94,12,20000,14.816,,,260,11.8,15.5,,,,,1,,,,wg-a,,,,AAXX 19064 07621 02570 32608 10130 20120 39825 40257 52022 60006 83500 90600 333 10155 20118 60014=
07621,1996-10-19 09:00:00,16,1026.7,1.4,72,11,20000,18.52,,,290,,,,,,,,,,,wg-a,,,,AAXX 19094 07621 12570 32910 10160 20110 39839 40267 53014 60006 81202 90900=
07621,1996-10-19 12:00:00,18,1027.3,0.9,64,11,500,18.52,,,310,,,,,,,,,,,wg-a,,,,AAXX 19124 07621 12500 33110 10180 20110 39848 40273 50009 60006 83200 91200=
07621,1996-10-19 15:00:00,19,1026.8,-0.4,52,9,500,11.112,,,290,,,,,,,,,,,wg-a,,,,AAXX 19154 07621 12600 22906 10190 20090 39844 40268 56004 60006 81201 91500=
07621,1996-10-19 18:00:00,13,1029,1.2,82,10,500,3.704,,,190,12.6,19.4,,,,,,,,,wg-a,,,,AAXX 19184 07621 12/00 31902 10130 20100 39856 40290 53012 60006 80001 91800 333 10194 20126=
07621,1996-10-19 21:00:00,11,1030.2,0.9,94,10,500,11.112,,,180,,,,,,,,,,,wg-a,,,,AAXX 19214 07621 12/00 21806 10110 20100 39865 40302 51009 60006 80001 92100=
07621,1996-10-20 00:00:00,10,1029.3,-1,93,9,500,7.408,,,150,,,,,,,,,,,wg-a,,,,AAXX 20004 07621 12/00 31504 10100 20090 39855 40293 58010 60006 80001 90000=
07621,1996-10-20 06:00:00,6,1027.6,-0.4,93,5,500,3.704,,,170,5.8,12.8,,,,,,,,,wg-a,,,,AAXX 20064 07621 02/00 11702 10060 20050 39832 40276 57004 60006 80002 90600 333 10128 20058 60004=
07621,1996-10-20 12:00:00,21,1025.2,-0.2,46,9,500,3.704,,,60,,,,,,,,,,,wg-a,,,,AAXX 20124 07621 12/00 /0602 10210 20090 39832 40252 58002 60006 81034 91200=
07621,1996-10-20 15:00:00,22,1024.3,-0.8,46,10,500,7.408,,,270,,,,,,,,,,,wg-a,,,,AAXX 20154 07621 12/00 72704 10220 20100 39824 40243 56008 60006 84055 91500=
07621,1996-10-20 18:00:00,15,1027,1.6,72,10,500,7.408,,,190,5.8,22.8,,,,,,,,,wg-a,,,,AAXX 20184 07621 12/00 /1904 10150 20100 39840 40270 52016 60006 81032 91800 333 10228 20058=
07621,1996-10-20 21:00:00,13,1027.5,0.1,77,9,500,11.112,,,170,,,,,,,,,,,wg-a,,,,AAXX 20214 07621 12/00 51706 10130 20090 39841 40275 51001 60006 80002 92100=
07621,1996-10-21 00:00:00,11,1027.8,0.1,82,8,500,7.408,,,170,,,,,,,,,,,wg-a,,,,AAXX 21004 07621 12/00 61704 10110 20080 39842 40278 50001 60006 80002 90000=
07621,1996-10-21 03:00:00,11,1027.5,-0.3,76,7,20000,11.112,,,180,,,,,,,,,,,wg-a,,,,AAXX 21034 07621 12670 /1806 10110 20070 39839 40275 58003 60006 84502 90300=
07621,1996-10-21 06:00:00,9,1027.8,-0.1,81,6,500,7.408,,,170,8.7,15,,,,,,,,,wg-a,,,,AAXX 21064 07621 02700 31704 10090 20060 39838 40278 56001 60006 82502 90600 333 10150 20087 60004=
07621,1996-10-21 09:00:00,17,1026.6,0.1,63,10,40000,7.408,,,160,,,,,,,,,,,wg-a,,,,AAXX 21094 07621 12/82 01604 10170 20100 39839 40266 50001 60006 80000 90900=
07621,1996-10-21 12:00:00,22,1024.5,-1.3,53,12,40000,7.408,,,70,,,,,,,,,,,wg-a,,,,AAXX 21124 07621 12682 30704 10220 20120 39826 40245 58013 60006 82101 91200=
07621,1996-10-21 15:00:00,22,1023,-1.4,53,12,40000,7.408,,,40,,,,,,,,,,,wg-a,,,,AAXX 21154 07621 12/82 10404 10220 20120 39812 40230 56014 60006 80001 91500=
07621,1996-10-21 18:00:00,16,1024.4,0.5,82,13,500,3.704,,,230,8.5,22.8,,,,,,,,,wg-a,,,,AAXX 21184 07621 12/00 42302 10160 20130 39817 40244 53005 60006 80001 91800 333 10228 20085=
07621,1996-10-21 21:00:00,12,1025.3,0.3,94,11,15000,3.704,,,170,,,,,,,,,,,wg-a,,,,AAXX 21214 07621 12/65 41702 10120 20110 39820 40253 51003 60006 80001 92100=
07621,1996-10-22 00:00:00,10,1023.8,-1.8,93,9,7000,0,,,0,,,,,,,,,,,wg-a,,,,AAXX 22004 07621 12/57 20000 10100 20090 39802 40238 57018 60006 80001 90000=
07621,1996-10-22 03:00:00,9,1022.8,-1.1,93,8,9000,3.704,,,190,,,,,,,,,,,wg-a,,,,AAXX 22034 07621 12/59 01902 10090 20080 39791 40228 58011 60006 80000 90300=
07621,1996-10-22 06:00:00,8,1022.8,-0.2,100,8,10000,7.408,,,170,7.4,15.6,,,,,,,,11,wg-a,,,,AAXX 22064 07621 02/60 01704 10080 20080 39789 40228 56002 60006 71100 80000 90600 333 10156 20074 60004=
07621,1996-10-22 09:00:00,15,1021.4,-0.2,82,12,500,0,,,0,,,,,,,,,,,wg-a,,,,AAXX 22094 07621 12/00 00000 10150 20120 39787 40214 58002 60006 80000 90900=
07621,1996-10-22 12:00:00,23,1018.5,-1.7,53,13,500,11.112,,,70,,,,,,,,,,,wg-a,,,,AAXX 22124 07621 12/00 10706 10230 20130 39770 40185 58017 60006 80001 91200=
07621,1996-10-22 15:00:00,23,1017.1,-1.3,57,14,500,11.112,,,60,,,,,,,,,,,wg-a,,,,AAXX 22154 07621 12/00 00606 10230 20140 39757 40171 56013 60006 80000 91500=
07621,1996-10-22 18:00:00,17,1018.5,0.5,82,14,500,3.704,,,10,7.7,23.6,,,,,,,,,wg-a,,,,AAXX 22184 07621 12/00 10102 10170 20140 39762 40185 53005 60006 80001 91800 333 10236 20077=
07621,1996-10-22 21:00:00,12,1019,-0.2,100,12,20000,7.408,,,180,,,,,,,,,,,wg-a,,,,AAXX 22214 07621 12/70 01804 10120 20120 39760 40190 58002 60006 80000 92100=
07621,1996-10-23 00:00:00,11,1018,-1.1,94,10,20000,7.408,,,160,,,,,,,,,,,wg-a,,,,AAXX 23004 07621 12/70 01604 10110 20100 39749 40180 58011 60006 80000 90000=
07621,1996-10-23 03:00:00,15,1017,-0.5,59,7,20000,18.52,,,180,,,,,,,,,,,wg-a,,,,AAXX 23034 07621 12/70 01810 10150 20070 39744 40170 56005 60006 80000 90300=
07621,1996-10-23 06:00:00,16,1017.4,,51,6,20000,14.816,,,170,10.4,16.6,,,,,,,,,wg-a,,,,AAXX 23064 07621 02/70 01708 10160 20060 39749 40174 60006 80000 90600 333 10166 20104 60004=
07621,1996-10-23 12:00:00,29,1015.9,-0.1,31,10,500,3.704,,,160,,,,,,,,,,,wg-a,,,,AAXX 23124 07621 12/00 11602 10290 20100 39753 40159 58001 60006 80001 91200=
07621,1996-10-23 15:00:00,27,1015.5,-0.6,39,12,500,7.408,,,70,,,,,,,,,,,wg-a,,,,AAXX 23154 07621 12/00 10704 10270 20120 39747 40155 56006 60006 80001 91500=
07621,1996-10-23 18:00:00,19,1017.7,1,68,13,20000,7.408,,,170,15,29.3,,,,,,,,,wg-a,,,,AAXX 23184 07621 12/70 01704 10190 20130 39757 40177 53010 60006 80000 91800 333 10293 20150=
07621,1996-10-23 21:00:00,18,1018.2,0.3,56,9,20000,11.112,,,150,,,,,,,,,,,wg-a,,,,AAXX 23214 07621 12/70 01506 10180 20090 39760 40182 51003 60006 80000 92100=
07621,1996-10-24 00:00:00,17,1018.5,0.2,55,8,10000,14.816,,,170,,,,,,,,,,,wg-a,,,,AAXX 24004 07621 12/60 /1708 10170 20080 39762 40185 51002 60006 90000=
07621,1996-10-24 06:00:00,15,1018.9,0.4,59,7,500,7.408,,,170,14,18.6,,,,,,,,,wg-a,,,,AAXX 24064 07621 02/00 /1704 10150 20070 39763 40189 51004 60006 90600 333 10186 20140 60004=
07621,1996-10-24 09:00:00,19,1018.6,0.3,60,11,40000,3.704,,,360,,,,,,,,,,,wg-a,,,,AAXX 24094 07621 12/82 63602 10190 20110 39766 40186 51003 60006 80001 90900=
07621,1996-10-24 12:00:00,24,1016.8,-1.1,47,12,40000,11.112,,,20,,,,,,,,,,,wg-a,,,,AAXX 24124 07621 12/82 40206 10240 20120 39755 40168 58011 60006 80001 91200=
07621,1996-10-24 15:00:00,24,1016.6,-0.2,50,13,500,11.112,,,20,,,,,,,,,,,wg-a,,,,AAXX 24154 07621 12/00 50206 10240 20130 39753 40166 55002 60006 80002 91500=
07621,1996-10-24 18:00:00,16,1018.9,1.1,88,14,500,3.704,,,180,13.4,24.4,,,,,,,,,wg-a,,,,AAXX 24184 07621 12/00 61802 10160 20140 39764 40189 53011 60006 80002 91800 333 10244 20134=
07621,1996-10-24 21:00:00,14,1019.2,-0,88,12,500,3.704,,,160,,,,,,,,,,,wg-a,,,,AAXX 24214 07621 12/00 41602 10140 20120 39764 40192 55000 60006 80002 92100=
07621,1996-10-25 00:00:00,18,1018.4,-0.3,49,7,500,7.408,,,150,,,,,,,,,,,wg-a,,,,AAXX 25004 07621 12/00 21504 10180 20070 39761 40184 58003 60006 80002 90000=
07621,1996-10-25 03:00:00,17,1020.1,1.6,59,9,500,11.112,,,210,,,,,,,,,,,wg-a,,,,AAXX 25034 07621 12/00 /2106 10170 20090 39777 40201 52016 60006 84032 90300=
07621,1996-10-25 06:00:00,16,1022.2,1.9,77,12,25000,14.816,,,270,13.7,18.6,,,,,,,,,wg-a,,,,AAXX 25064 07621 02775 72708 10160 20120 39796 40222 53019 60006 8253/ 90600 333 10186 20137 60004=
07621,1996-10-25 09:00:00,16,1024.4,2.2,82,13,500,7.408,,,180,,,,0,,,,,,21,wg-a,,,,AAXX 25094 07621 12500 71804 10160 20130 39818 40244 51022 60007 72162 8487/ 90900=
07621,1996-10-25 12:00:00,18,1024.8,0.5,73,13,20000,11.112,,,350,,,,,,,,,,3,wg-a,,,,AAXX 25124 07621 12570 73506 10180 20130 39823 40248 50005 60006 70362 878// 91200=
07621,1996-10-25 18:00:00,16,1026.6,1.6,88,14,10000,3.704,,,220,14.9,19.3,,,,,,,,,wg-a,,,,AAXX 25184 07621 32560 82202 10160 20140 39838 40266 53016 888// 91800 333 10193 20149=
07621,1996-10-26 00:00:00,14,1028.7,0.7,94,13,10000,3.704,,,310,,,,,,,,,,,wg-a,,,,AAXX 26004 07621 12460 83102 10140 20130 39855 40287 53007 60006 885// 90000=
07621,1996-10-26 06:00:00,13,1028.3,0.1,100,13,3000,3.704,,,20,12.9,15.7,,,,,,,,10,wg-a,,,,AAXX 26064 07621 02230 80202 10130 20130 39850 40283 53001 60006 71022 887// 90600 333 10157 20129 60004=
07621,1996-10-26 12:00:00,16,1028,-0.9,77,12,10000,7.408,,,80,,,,,,,,,,1,wg-a,,,,AAXX 26124 07621 12460 70804 10160 20120 39851 40280 58009 60006 70142 87800 91200=
07621,1996-10-26 15:00:00,16,1026.5,-1.3,72,11,10000,7.408,,,40,,,,,,,,,,,wg-a,,,,AAXX 26154 07621 12560 80404 10160 20110 39838 40265 56013 60006 84807 91500=
07621,1996-10-26 18:00:00,15,1027.4,0.6,77,11,10000,0,,,0,12.9,17.2,,,,,,,,,wg-a,,,,AAXX 26184 07621 12560 70000 10150 20110 39844 40274 52006 60006 875// 91800 333 10172 20129=
07621,1996-10-26 21:00:00,11,1027.4,-0.6,94,10,10000,0,,,0,,,,,,,,,,,wg-a,,,,AAXX 26214 07621 12660 70000 10110 20100 39838 40274 55006 60006 82508 92100=
07621,1996-10-27 00:00:00,11,1026,-1.4,94,10,15000,0,,,0,,,,,,,,,,,wg-a,,,,AAXX 27004 07621 12/65 70000 10110 20100 39824 40260 57014 60006 80008 90000=
07621,1996-10-27 03:00:00,10,1024.8,-1.2,100,10,10000,3.704,,,20,,,,,,,,,,,wg-a,,,,AAXX 27034 07621 12/60 60202 10100 20100 39812 40248 56012 60006 80002 90300=
07621,1996-10-27 06:00:00,10,1024.6,-0.2,87,8,15000,7.408,,,150,9.1,14.7,,,,,,,,,wg-a,,,,AAXX 27064 07621 02/65 61504 10100 20080 39810 40246 57002 60006 81032 90600 333 10147 20091 60004=
07621,1996-10-27 09:00:00,16,1024.3,0.5,55,7,25000,7.408,,,180,,,,,,,,,,,wg-a,,,,AAXX 27094 07621 12/75 61804 10160 20070 39815 40243 53005 60006 84032 90900=
07621,1996-10-27 12:00:00,21,1022.9,-0.6,43,8,500,3.704,,,360,,,,,,,,,,,wg-a,,,,AAXX 27124 07621 12/00 73602 10210 20080 39809 40229 58006 60006 81032 91200=
07621,1996-10-27 15:00:00,21,1021.3,-1.5,43,8,500,3.704,,,40,,,,,,,,,,,wg-a,,,,AAXX 27154 07621 12/00 70402 10210 20080 39794 40213 56015 60006 82032 91500=
07621,1996-10-27 18:00:00,13,1022.6,-0,82,10,500,7.408,,,210,8.5,22.1,,,,,,,,,wg-a,,,,AAXX 27184 07621 12/00 42104 10130 20100 39794 40226 55000 60006 81032 91800 333 10221 20085=
07621,1996-10-27 21:00:00,12,1022.1,-0.5,82,9,20000,11.112,,,190,,,,,,,,,,,wg-a,,,,AAXX 27214 07621 12/70 01906 10120 20090 39789 40221 58005 60006 80000 92100=
07621,1996-10-28 00:00:00,11,1021.3,-1,71,6,20000,14.816,,,190,,,,,,,,,,,wg-a,,,,AAXX 28004 07621 12/70 01908 10110 20060 39779 40213 58010 60006 80000 90000=
07621,1996-10-28 03:00:00,10,1020.5,-0.9,62,3,20000,18.52,,,190,,,,,,,,,,,wg-a,,,,AAXX 28034 07621 12/70 01910 10100 20030 39770 40205 58009 60006 80000 90300=
07621,1996-10-28 06:00:00,10,1020.1,-0.4,50,0,50000,11.112,,,190,8.9,12.9,,,,,,,,,wg-a,,,,AAXX 28064 07621 02/84 11906 10100 20000 39766 40201 56004 60006 81040 90600 333 10129 20089 60004=
07621,1996-10-28 09:00:00,15,1020.4,1,51,5,50000,7.408,,,190,,,,,,,,,,,wg-a,,,,AAXX 28094 07621 12/84 61904 10150 20050 39776 40204 53010 60006 82042 90900=
07621,1996-10-28 12:00:00,21,1018.8,-0.6,35,5,50000,3.704,,,150,,,,,,,,,,,wg-a,,,,AAXX 28124 07621 12/84 51502 10210 20050 39770 40188 58006 60006 81042 91200=
07621,1996-10-28 15:00:00,22,1017.5,-1.1,38,7,50000,3.704,,,10,,,,,,,,,,,wg-a,,,,AAXX 28154 07621 12/84 40102 10220 20070 39759 40175 56011 60006 82042 91500=
07621,1996-10-28 18:00:00,15,1018.1,-0.4,67,9,500,7.408,,,170,8.8,23.1,,,,,,,,,wg-a,,,,AAXX 28184 07621 12/00 41704 10150 20090 39755 40181 57004 60006 82042 91800 333 10231 20088=
07621,1996-10-28 21:00:00,15,1018,-0.2,59,7,15000,11.112,,,160,,,,,,,,,,,wg-a,,,,AAXX 28214 07621 12/65 71606 10150 20070 39753 40180 55002 60006 85042 92100=
07621,1996-10-29 00:00:00,15,1020.1,2.1,88,13,10000,7.408,,,210,,,,,,,,,,,wg-a,,,,AAXX 29004 07621 12460 82104 10150 20130 39774 40201 50021 60006 8657/ 90000=
07621,1996-10-29 03:00:00,13,1020.5,0.2,100,13,7000,25.928,,,310,,,,1,,,,,,60,wg-a,,,,AAXX 29034 07621 12257 83114 10130 20130 39776 40205 53002 60017 76062 875// 90300=
07621,1996-10-29 06:00:00,12,1022,1.2,94,11,2000,18.52,,,270,,16.3,,2,,,3,,,10,wg-a,,,,AAXX 29064 07621 02220 82710 10120 20110 39788 40220 51012 60034 71062 875// 90600 333 10163 20119 60027=
07621,1996-10-29 09:00:00,12,1024.4,2.3,88,10,15000,25.928,,,250,,,,2,,,,,,1,wg-a,,,,AAXX 29094 07621 12465 82514 10120 20100 39811 40244 53023 60027 70165 888// 90900=
07621,1996-10-29 12:00:00,12,1024.3,-0.1,88,10,500,14.816,,,260,,,,1,,,,,,61,wg-a,,,,AAXX 29124 07621 02400 82608 10120 20100 39810 40243 58001 60036 76165 888// 91200 333 60017=
07621,1996-10-29 15:00:00,13,1023.6,-0.5,82,10,15000,18.52,,,250,,,,1,,,,,,1,wg-a,,,,AAXX 29154 07621 12465 62510 10130 20100 39805 40236 55005 60017 70186 86240 91500=
07621,1996-10-29 18:00:00,10,1025.9,1.8,93,9,7000,7.408,,,250,,,,,,,,,,80,wg-a,,,,AAXX 29184 07621 32257 72504 10100 20090 39823 40259 53018 78086 872// 91800=
07621,1996-10-29 21:00:00,10,1028.1,2,93,9,12000,7.408,,,230,,,,2,,,,,,1,wg-a,,,,AAXX 29214 07621 12562 82304 10100 20090 39843 40281 51020 60027 70162 888// 92100=
07621,1996-10-30 00:00:00,8,1029.4,1,100,8,11000,7.408,,,200,,,,,,,,,,,wg-a,,,,AAXX 30004 07621 12/61 /2004 10080 20080 39853 40294 51010 60026 90000=
07621,1996-10-30 03:00:00,8,1029,-0.5,93,7,12000,7.408,,,180,,,,0,,,,,,,wg-a,,,,AAXX 30034 07621 12762 31804 10080 20070 39848 40290 58005 60007 83500 90300=
07621,1996-10-30 06:00:00,5,1031.3,1.8,93,4,25000,7.408,,,170,5.3,10.4,,,,,7,,,,wg-a,,,,AAXX 30064 07621 12775 31704 10050 20040 39866 40313 51018 60074 82530 90600 333 10104 20053=
07621,1996-10-30 09:00:00,11,1031,0.6,76,7,50000,3.704,,,160,,,,,,,,,,,wg-a,,,,AAXX 30094 07621 12684 31602 10110 20070 39872 40310 53006 60006 81102 90900=
07621,1996-10-30 12:00:00,14,1029.7,-0.9,51,4,50000,7.408,,,80,,,,,,,,,,,wg-a,,,,AAXX 30124 07621 12684 60804 10140 20040 39863 40297 58009 60006 81102 91200=
07621,1996-10-30 15:00:00,14,1028.8,-0.8,55,5,500,7.408,,,70,,,,,,,,,,,wg-a,,,,AAXX 30154 07621 12/00 20704 10140 20050 39855 40288 56008 60006 80002 91500=
07621,1996-10-30 18:00:00,8,1030.1,0.4,87,6,500,3.704,,,180,5.1,14.3,,,,,,,,,wg-a,,,,AAXX 30184 07621 12/00 01802 10080 20060 39859 40301 50004 60006 80000 91800 333 10143 20051=
07621,1996-10-30 21:00:00,5,1029.7,-1,87,3,25000,3.704,,,230,,,,,,,,,,,wg-a,,,,AAXX 30214 07621 12/75 02302 10050 20030 39849 40297 56010 60006 80000 92100=
07621,1996-10-31 00:00:00,3,1029.8,-0.1,100,3,20000,7.408,,,180,,,,,,,,,,,wg-a,,,,AAXX 31004 07621 12/70 01804 10030 20030 39848 40298 55001 60006 80000 90000=
07621,1996-10-31 03:00:00,3,1029.5,-0.4,93,2,20000,7.408,,,160,,,,,,,,,,,wg-a,,,,AAXX 31034 07621 12/70 01604 10030 20020 39844 40295 57004 60006 80000 90300=
07621,1996-10-31 06:00:00,2,1028.3,-1.2,93,1,500,7.408,,,160,1.6,8,,,,,,,,,wg-a,,,,AAXX 31064 07621 02/00 01604 10020 20010 39832 40283 58012 60006 80000 90600 333 10080 20016 60004=
07621,1996-10-31 09:00:00,13,1029.6,2.9,54,4,50000,14.816,,,260,,,,,,,,,,,wg-a,,,,AAXX 31094 07621 12/84 12608 10130 20040 39861 40296 51029 60006 80001 90900=
07621,1996-10-31 12:00:00,16,1028.3,-0.8,51,6,50000,14.816,,,300,,,,,,,,,,,wg-a,,,,AAXX 31124 07621 12/84 /3008 10160 20060 39853 40283 56008 60006 80001 91200=
07621,1996-10-31 15:00:00,16,1028.2,0,51,6,40000,14.816,,,270,,,,,,,,,,,wg-a,,,,AAXX 31154 07621 12682 /2708 10160 20060 39853 40282 50000 60006 81502 91500=
07621,1996-10-31 18:00:00,8,1030.8,1.3,87,6,25000,7.408,,,250,1.8,16.7,,,,,,,,,wg-a,,,,AAXX 31184 07621 12/75 52504 10080 20060 39866 40308 53013 60006 80002 91800 333 10167 20018=
07621,1996-10-31 21:00:00,9,1031.6,0.9,76,5,15000,11.112,,,170,,,,,,,,,,,wg-a,,,,AAXX 31214 07621 12665 /1706 10090 20050 39875 40316 51009 60006 84502 92100=
07621,1996-11-01 00:00:00,13,1031.1,0,54,4,15000,14.816,,,190,,,,,,,,,,,wg-a,,,,AAXX 01004 07621 12765 71908 10130 20040 39875 40311 50000 60006 865// 90000=
07621,1996-11-01 03:00:00,10,1032.1,0.7,93,9,15000,11.112,,,220,,,,1,,,,,,21,wg-a,,,,AAXX 01034 07621 12465 72206 10100 20090 39882 40321 53007 60017 72162 875// 90300=
07621,1996-11-01 06:00:00,11,1032.6,0.6,94,10,10000,11.112,,,190,7.9,12.8,,0,,,1,,,1,wg-a,,,,AAXX 01064 07621 02460 71906 10110 20100 39888 40326 52006 60014 70165 878// 90600 333 10128 20079 60007=
07621,1996-11-01 09:00:00,15,1033.6,1.5,77,11,40000,3.704,,,110,,,,,,,,,,,wg-a,,,,AAXX 01094 07621 12482 /1102 10150 20110 39903 40336 53015 60006 86200 90900=
07621,1996-11-01 12:00:00,16,1032.8,-0.5,77,12,15000,7.408,,,280,,,,,,,,,,,wg-a,,,,AAXX 01124 07621 12565 72804 10160 20120 39898 40328 58005 60006 878// 91200=
07621,1996-11-01 15:00:00,16,1031.8,-1,68,10,20000,7.408,,,310,,,,,,,,,,,wg-a,,,,AAXX 01154 07621 12570 /3104 10160 20100 39888 40318 55010 60006 86800 91500=
07621,1996-11-01 18:00:00,14,1032.7,0.6,82,11,15000,7.408,,,10,10.1,17.6,,,,,,,,,wg-a,,,,AAXX 01184 07621 12665 30104 10140 20110 39894 40327 53006 60006 83500 91800 333 10176 20101=
07621,1996-11-01 21:00:00,11,1033.1,-0.2,94,10,15000,0,,,0,,,,,,,,,,,wg-a,,,,AAXX 01214 07621 12665 30000 10110 20100 39892 40331 58002 60006 83500 92100=
07621,1996-11-02 00:00:00,8,1032.7,-0.9,93,7,6000,3.704,,,180,,,,,,,,,,,wg-a,,,,AAXX 02004 07621 12/56 01802 10080 20070 39883 40327 56009 60006 80000 90000=
07621,1996-11-02 03:00:00,7,1032.3,-0.5,93,6,3000,3.704,,,220,,,,,,,,,,10,wg-a,,,,AAXX 02034 07621 12/30 02202 10070 20060 39878 40323 58005 60006 71000 80000 90300=
07621,1996-11-02 06:00:00,6,1032.2,-0.2,100,6,4000,7.408,,,170,5.5,14,,,,,,,,10,wg-a,,,,AAXX 02064 07621 02/40 01704 10060 20060 39876 40322 55002 60006 71000 80000 90600 333 10140 20055 60004=
07621,1996-11-02 09:00:00,12,1030.8,-0.4,88,10,40000,0,,,0,,,,,,,,,,,wg-a,,,,AAXX 02094 07621 12/82 00000 10120 20100 39872 40308 58004 60006 80000 90900=
07621,1996-11-02 12:00:00,17,1029.7,-0.3,72,12,40000,11.112,,,40,,,,,,,,,,,wg-a,,,,AAXX 02124 07621 12582 10406 10170 20120 39869 40297 58003 60006 81101 91200=
07621,1996-11-02 15:00:00,18,1028.4,-1.1,68,12,40000,7.408,,,50,,,,,,,,,,,wg-a,,,,AAXX 02154 07621 12/82 10504 10180 20120 39858 40284 56011 60006 80001 91500=
07621,1996-11-02 18:00:00,12,1029.5,0.1,88,10,500,0,,,0,5.6,18,,,,,,,,,wg-a,,,,AAXX 02184 07621 12/00 20000 10120 20100 39859 40295 53001 60006 80001 91800 333 10180 20056=
07621,1996-11-02 21:00:00,9,1029.8,-0.2,93,8,15000,3.704,,,180,,,,,,,,,,,wg-a,,,,AAXX 02214 07621 12/65 01802 10090 20080 39857 40298 55002 60006 80000 92100=
07621,1996-11-03 00:00:00,9,1030.1,0.3,100,9,500,0,,,0,,,,,,,,,,45,wg-a,,,,AAXX 03004 07621 12/00 90000 10090 20090 39860 40301 51003 60006 74541 89/// 90000=
07621,1996-11-03 03:00:00,8,1029.2,-1,100,8,10000,11.112,,,170,,,,,,,,,,28,wg-a,,,,AAXX 03034 07621 12/60 01706 10080 20080 39850 40292 58010 60006 72841 80000 90300=
07621,1996-11-03 06:00:00,7,1029.3,-0,93,6,20000,7.408,,,170,6.2,11.5,,,,,,,,3,wg-a,,,,AAXX 03064 07621 02/70 41704 10070 20060 39850 40293 55000 60006 70341 80001 90600 333 10115 20062 60004=
07621,1996-11-03 09:00:00,13,1029.3,1,82,10,35000,7.408,,,150,,,,,,,,,,,wg-a,,,,AAXX 03094 07621 12381 21504 10130 20100 39860 40293 51010 60006 81601 90900=
07621,1996-11-03 12:00:00,19,1026.9,-1.5,64,12,500,7.408,,,340,,,,,,,,,,,wg-a,,,,AAXX 03124 07621 12200 23404 10190 20120 39845 40269 58015 60006 81501 91200=
07621,1996-11-03 15:00:00,13,1027.9,0.1,88,11,4000,11.112,,,10,,,,,,,,,,10,wg-a,,,,AAXX 03154 07621 12240 80106 10130 20110 39846 40279 53001 60006 71011 876// 91500=
07621,1996-11-04 06:00:00,4,1021.8,-1,100,4,1000,7.408,,,170,3.7,11.7,,,,,,,,10,wg-a,,,,AAXX 04064 07621 02/10 /1704 10040 20040 39773 40218 58010 60006 71041 81040 90600 333 10117 20037 60004=
07621,1996-11-04 09:00:00,13,1019.9,-0.4,82,10,500,3.704,,,130,,,,,,,,,,,wg-a,,,,AAXX 04094 07621 12/00 31302 10130 20100 39769 40199 58004 60006 80002 90900=
07621,1996-11-04 12:00:00,17,1017.8,-1.4,63,10,500,7.408,,,60,,,,,,,,,,,wg-a,,,,AAXX 04124 07621 12/00 50604 10170 20100 39755 40178 58014 60006 80002 91200=
07621,1996-11-04 15:00:00,17,1015.7,-2,63,10,500,3.704,,,40,,,,,,,,,,,wg-a,,,,AAXX 04154 07621 12/00 70402 10170 20100 39735 40157 58020 60006 80004 91500=
07621,1996-11-04 18:00:00,12,1014.8,-1.6,88,10,20000,3.704,,,310,3,18.3,,,,,,,,,wg-a,,,,AAXX 04184 07621 12/70 73102 10120 20100 39719 40148 56016 60006 82032 91800 333 10183 20030=
07621,1996-11-04 21:00:00,13,1015.6,0.8,82,10,15000,11.112,,,130,,,,,,,,,,60,wg-a,,,,AAXX 04214 07621 02665 71306 10130 20100 39727 40156 53008 61000 76062 8357/ 92100 333 ////=
07621,1996-11-05 00:00:00,11,1017.3,1.5,100,11,8000,22.224,,,280,,,,2,,,,,,61,wg-a,,,,AAXX 05004 07621 02358 82812 10110 20110 39742 40173 53015 60026 76162 8677/ 90000 333 60027=
07621,1996-11-05 03:00:00,10,1018.8,1.3,93,9,9000,18.52,,,250,,,,5,,,,,,61,wg-a,,,,AAXX 05034 07621 12459 82510 10100 20090 39755 40188 51013 60057 76166 8682/ 90300=
07621,1996-11-05 06:00:00,10,1021.3,2.2,87,8,10000,18.52,,,240,9.5,13.8,,1,,,7,,,25,wg-a,,,,AAXX 05064 07621 02560 /2410 10100 20080 39777 40213 53022 60074 72586 86800 90600 333 10138 20095 60017=
07621,1996-11-05 09:00:00,11,1024.1,2.9,87,9,25000,18.52,,,240,,,,0,,,,,,1,wg-a,,,,AAXX 05094 07621 12575 32410 10110 20090 39806 40241 51029 60007 70186 83800 90900=
07621,1996-11-05 12:00:00,11,1024.7,0.6,87,9,10000,14.816,,,240,,,,0,,,,,,21,wg-a,,,,AAXX 05124 07621 02460 /2408 10110 20090 39812 40247 50006 60016 72186 85800 91200 333 60007=
07621,1996-11-05 15:00:00,13,1024.5,0.1,67,7,15000,18.52,,,240,,,,,,,,,,,wg-a,,,,AAXX 05154 07621 12465 /2410 10130 20070 39813 40245 53001 60006 86800 91500=
07621,1996-11-05 18:00:00,9,1027.2,1.9,87,7,20000,14.816,,,240,8.4,14,,0,,,,,,1,wg-a,,,,AAXX 05184 07621 12470 22408 10090 20070 39832 40272 53019 60007 70186 82800 91800 333 10140 20084=
07621,1996-11-05 21:00:00,8,1028.7,1.4,93,7,15000,7.408,,,220,,,,,,,,,,,wg-a,,,,AAXX 05214 07621 12665 /2204 10080 20070 39846 40287 51014 60006 85500 92100=
07621,1996-11-06 00:00:00,6,1028.9,-0.2,93,5,13000,11.112,,,170,,,,,,,,,,,wg-a,,,,AAXX 06004 07621 12763 21706 10060 20050 39844 40289 55002 60006 82500 90000=
07621,1996-11-06 03:00:00,5,1028.2,-0.7,87,3,13000,11.112,,,170,,,,,,,,,,,wg-a,,,,AAXX 06034 07621 12/63 01706 10050 20030 39837 40282 58007 60006 80000 90300=
07621,1996-11-06 06:00:00,6,1028.3,0,70,1,500,11.112,,,180,5,8.5,,,,,1,,,,wg-a,,,,AAXX 06064 07621 02/00 01806 10060 20010 39837 40283 50000 60006 80000 90600 333 10085 20050 60014=
07621,1996-11-06 09:00:00,12,1027.4,0.1,54,3,50000,11.112,,,180,,,,,,,,,,,wg-a,,,,AAXX 06094 07621 12584 /1806 10120 20030 39838 40274 50001 60006 81501 90900=
07621,1996-11-06 12:00:00,17,1025.8,-0.7,52,7,50000,11.112,,,270,,,,,,,,,,,wg-a,,,,AAXX 06124 07621 12/84 32706 10170 20070 39831 40258 58007 60006 82051 91200=
07621,1996-11-06 15:00:00,16,1025.5,-0.4,55,7,500,7.408,,,280,,,,,,,,,,,wg-a,,,,AAXX 06154 07621 12600 /2804 10160 20070 39827 40255 56004 60006 83570 91500=
07621,1996-11-06 18:00:00,10,1026.6,0.2,87,8,15000,11.112,,,170,5.5,17.1,,,,,,,,,wg-a,,,,AAXX 06184 07621 12/65 /1706 10100 20080 39829 40266 53002 60006 81040 91800 333 10171 20055=
07621,1996-11-06 21:00:00,9,1026.9,0.1,87,7,15000,11.112,,,170,,,,,,,,,,,wg-a,,,,AAXX 06214 07621 12/65 01706 10090 20070 39830 40269 50001 60006 80000 92100=
07621,1996-11-07 00:00:00,10,1025.5,-1.2,76,6,15000,14.816,,,170,,,,,,,,,,,wg-a,,,,AAXX 07004 07621 12/65 01708 10100 20060 39818 40255 58012 60006 80000 90000=
07621,1996-11-07 03:00:00,10,1024.3,-1.2,71,5,15000,11.112,,,180,,,,,,,,,,,wg-a,,,,AAXX 07034 07621 12/65 01806 10100 20050 39806 40243 56012 60006 80000 90300=
07621,1996-11-07 06:00:00,9,1024.1,-0.3,71,4,50000,14.816,,,180,9,10.3,,,,,,,,,wg-a,,,,AAXX 07064 07621 02784 /1808 10090 20040 39803 40241 55003 60006 81500 90600 333 10103 20090 60004=
07621,1996-11-07 09:00:00,14,1024.7,1.4,63,7,50000,11.112,,,170,,,,,,,,,,,wg-a,,,,AAXX 07094 07621 12784 11706 10140 20070 39817 40247 51014 60006 81530 90900=
07621,1996-11-07 12:00:00,20,1023.9,0,46,8,50000,18.52,,,270,,,,,,,,,,,wg-a,,,,AAXX 07124 07621 12684 /2710 10200 20080 39817 40239 50000 60006 81530 91200=
07621,1996-11-07 15:00:00,17,1024.9,0.6,68,11,20000,22.224,,,300,,,,,,,,,,,wg-a,,,,AAXX 07154 07621 12670 73012 10170 20110 39823 40249 53006 60006 878// 91500=
07621,1996-11-07 18:00:00,12,1027.6,1.9,94,11,10000,18.52,,,270,9.3,19.9,,,,,,,,,wg-a,,,,AAXX 07184 07621 12360 82710 10120 20110 39842 40276 53019 60006 878// 91800 333 10199 20093=
07621,1996-11-07 21:00:00,11,1029,1.1,94,10,6000,18.52,,,300,,,,0,,,,,,61,wg-a,,,,AAXX 07214 07621 12356 83010 10110 20100 39853 40290 53011 60007 76162 885// 92100=
07621,1996-11-08 00:00:00,11,1029.7,0.6,94,10,8000,11.112,,,230,,,,0,,,,,,60,wg-a,,,,AAXX 08004 07621 02258 82306 10110 20100 39859 40297 51006 60016 76062 885// 90000 333 60007=
07621,1996-11-08 03:00:00,10,1029.6,-0.1,100,10,10000,7.408,,,220,,,,,,,,,,2,wg-a,,,,AAXX 08034 07621 02260 82204 10100 20100 39858 40296 58001 61000 70262 885// 90300 333 ////=
07621,1996-11-08 06:00:00,10,1029.9,0.3,93,9,15000,3.704,,,150,10.3,12.4,,,,,,,,2,wg-a,,,,AAXX 08064 07621 12565 81502 10100 20090 39861 40299 53003 60004 70262 885// 90600 333 10124 20103=
07621,1996-11-08 09:00:00,12,1031.1,1.3,88,10,15000,3.704,,,210,,,,,,,,,,,wg-a,,,,AAXX 08094 07621 12665 82102 10120 20100 39874 40311 53013 60006 875// 90900=
07621,1996-11-08 12:00:00,13,1030.6,-0.2,77,9,15000,3.704,,,280,,,,,,,,,,,wg-a,,,,AAXX 08124 07621 12465 72802 10130 20090 39872 40306 58002 60006 878// 91200=
07621,1996-11-08 15:00:00,13,1030.5,-0.1,72,8,18000,7.408,,,360,,,,,,,,,,,wg-a,,,,AAXX 08154 07621 12568 73604 10130 20080 39871 40305 55001 60006 878// 91500=
07621,1996-11-08 18:00:00,12,1030.9,0.2,88,10,12000,3.704,,,230,10.3,14,,,,,,,,,wg-a,,,,AAXX 08184 07621 12762 72302 10120 20100 39873 40309 53002 60006 875// 91800 333 10140 20103=
07621,1996-11-08 21:00:00,11,1032.1,1,94,10,10000,0,,,0,,,,,,,,,,,wg-a,,,,AAXX 08214 07621 12460 70000 10110 20100 39883 40321 51010 60006 875// 92100=
07621,1996-11-09 00:00:00,10,1032.1,-0.2,93,9,8000,3.704,,,230,,,,,,,,,,,wg-a,,,,AAXX 09004 07621 12458 72302 10100 20090 39881 40321 57002 60006 875// 90000=
07621,1996-11-09 03:00:00,10,1030.9,-1.1,93,9,6000,0,,,0,,,,,,,,,,,wg-a,,,,AAXX 09034 07621 12556 70000 10100 20090 39870 40309 58011 60006 875// 90300=
07621,1996-11-09 06:00:00,9,1030.6,-0.4,100,9,500,3.704,,,360,9,11.5,,,,,,,,,wg-a,,,,AAXX 09064 07621 02100 73602 10090 20090 39866 40306 56004 60006 875// 90600 333 10115 20090 60004=
07621,1996-11-09 09:00:00,9,1030.7,0,100,9,100,3.704,,,330,,,,,,,,,,45,wg-a,,,,AAXX 09094 07621 12/01 93302 10090 20090 39866 40307 50000 60006 74542 89/// 90900=
07621,1996-11-09 12:00:00,13,1028.1,-1.8,82,10,12000,7.408,,,40,,,,,,,,,,1,wg-a,,,,AAXX 09124 07621 12462 70404 10130 20100 39848 40281 58018 60006 70142 81802 91200=
07621,1996-11-09 15:00:00,15,1025.8,-2,72,10,15000,7.408,,,50,,,,,,,,,,,wg-a,,,,AAXX 09154 07621 12565 70504 10150 20100 39828 40258 56020 60006 82802 91500=
07621,1996-11-09 18:00:00,11,1025.7,-0.6,82,8,15000,3.704,,,60,8.4,15.4,,,,,,,,,wg-a,,,,AAXX 09184 07621 12565 70602 10110 20080 39822 40257 58006 60006 82502 91800 333 10154 20084=
07621,1996-11-09 21:00:00,8,1025.3,-1,87,6,10000,3.704,,,190,,,,,,,,,,,wg-a,,,,AAXX 09214 07621 12560 71902 10080 20060 39812 40253 56010 60006 82502 92100=
07621,1996-11-10 00:00:00,8,1023.4,-1.8,93,7,10000,7.408,,,170,,,,,,,,,,,wg-a,,,,AAXX 10004 07621 12/60 61704 10080 20070 39794 40234 58018 60006 80002 90000=
07621,1996-11-10 03:00:00,7,1020.9,-2.5,93,6,10000,7.408,,,170,,,,,,,,,,,wg-a,,,,AAXX 10034 07621 12/60 51704 10070 20060 39769 40209 56025 60006 80002 90300=
07621,1996-11-10 06:00:00,7,1019,-1.8,93,6,15000,11.112,,,180,6.1,11,,,,,,,,,wg-a,,,,AAXX 10064 07621 02/65 51806 10070 20060 39751 40190 58018 60006 80002 90600 333 10110 20061 60004=
07621,1996-11-10 09:00:00,12,1017,-1.2,76,8,25000,11.112,,,180,,,,,,,,,,,wg-a,,,,AAXX 10094 07621 12775 51806 10120 20080 39739 40170 58012 60006 82502 90900=
07621,1996-11-10 12:00:00,17,1013,-3,59,9,20000,11.112,,,350,,,,,,,,,,,wg-a,,,,AAXX 10124 07621 12770 /3506 10170 20090 39709 40130 58030 60006 81542 91200=
07621,1996-11-10 15:00:00,15,1011.2,-2.1,72,10,10000,11.112,,,340,,,,,,,,,,,wg-a,,,,AAXX 10154 07621 12760 /3406 10150 20100 39688 40112 56021 60006 81145 91500=
07621,1996-11-10 18:00:00,13,1009.6,-1.8,82,10,10000,7.408,,,30,6.3,18.5,,,,,,,,,wg-a,,,,AAXX 10184 07621 12560 70304 10130 20100 39670 40096 56018 60006 8654/ 91800 333 10185 20063=
07621,1996-11-10 21:00:00,10,1006.3,-3.5,100,10,3000,0,,,0,,,,,,,,,,10,wg-a,,,,AAXX 10214 07621 02730 80000 10100 20100 39635 40063 56035 61000 71062 8557/ 92100 333 ////=
07621,1996-11-11 00:00:00,8,1001.4,-5,100,8,3000,3.704,,,290,,,,,,,,,,10,wg-a,,,,AAXX 11004 07621 02230 82902 10080 20080 39585 40014 56050 61000 71064 8557/ 90000 333 6100=
07621,1996-11-11 03:00:00,9,999,-2.1,100,9,3000,7.408,,,200,,,,1,,,,,,10,wg-a,,,,AAXX 11034 07621 12230 82004 10090 20090 39564 49990 56021 60017 71066 8557/ 90300=
07621,1996-11-11 06:00:00,9,994.2,-4.7,93,8,8000,7.408,,,120,7.8,12.6,,,,,1,,,3,wg-a,,,,AAXX 11064 07621 02858 /1204 10090 20080 39517 49942 58047 60014 70361 82542 90600 333 10126 20078 61000=
07621,1996-11-11 09:00:00,13,992.1,-1.4,62,6,15000,29.632,,,230,,,,,,,,,,,wg-a,,,,AAXX 11094 07621 12765 /2316 10130 20060 39503 49921 56014 60006 82242 90900=
07621,1996-11-11 12:00:00,12,990.2,-2,71,7,0,22.224,,,210,,,,,,,,,,,wg-a,,,,AAXX 11124 07621 02/// /2112 10120 20070 39483 49902 57020 61000 91200 333 6100=
07621,1996-11-11 15:00:00,15,989,-0.7,48,4,20000,22.224,,,200,,,,,,,,,,,wg-a,,,,AAXX 11154 07621 12570 42012 10150 20040 39476 49890 56007 60006 81242 91500=
07621,1996-11-11 18:00:00,10,990.8,0.9,66,4,25000,7.408,,,200,7.5,17.3,,,,,,,,,wg-a,,,,AAXX 11184 07621 32675 22004 10100 20040 39485 49908 53009 81540 91800 333 10173 20075=
07621,1996-11-11 21:00:00,9,991,0,76,5,25000,7.408,,,140,,,,,,,,,,,wg-a,,,,AAXX 11214 07621 12/75 31404 10090 20050 39485 49910 50000 60006 83040 92100=
07621,1996-11-12 00:00:00,13,990.8,0.5,58,5,20000,29.632,,,220,,,,,,,,,,,wg-a,,,,AAXX 12004 07621 12/70 62216 10130 20050 39490 49908 50005 60006 84042 90000=
07621,1996-11-12 03:00:00,11,991.9,0.8,71,6,20000,11.112,,,230,,,,,,,,,,,wg-a,,,,AAXX 12034 07621 12/70 72306 10110 20060 39498 49919 53008 60006 84042 90300=
07621,1996-11-12 06:00:00,9,994.2,1.9,87,7,8000,7.408,,,80,7.6,14.1,,1,,,1,,,60,wg-a,,,,AAXX 12064 07621 02658 70804 10090 20070 39517 49942 53019 60014 76062 82542 90600 333 10141 20076 60017=
07621,1996-11-12 09:00:00,9,997.1,2.9,100,9,15000,0,,,0,,,,3,,,,,,61,wg-a,,,,AAXX 12094 07621 12665 70000 10090 20090 39546 49971 51029 60037 76166 8457/ 90900=
07621,1996-11-12 12:00:00,11,998.2,1.2,94,10,15000,3.704,,,50,,,,2,,,,,,61,wg-a,,,,AAXX 12124 07621 02365 70502 10110 20100 39558 49982 53012 60056 76166 8557/ 91200 333 60027=
07621,1996-11-12 15:00:00,11,999.6,1.3,94,10,12000,3.704,,,30,,,,1,,,,,,61,wg-a,,,,AAXX 12154 07621 12362 80302 10110 20100 39571 49996 51013 60017 76166 8557/ 91500=
07621,1996-11-12 18:00:00,10,1000.9,1.2,100,10,1000,7.408,,,10,8.9,11,,1,,,,,,10,wg-a,,,,AAXX 12184 07621 12110 80104 10100 20100 39583 40009 51012 60017 71062 887// 91800 333 10110 20089=
07621,1996-11-12 21:00:00,8,1005,3.6,100,8,4000,7.408,,,240,,,,21,,,,,,10,wg-a,,,,AAXX 12214 07621 12440 82404 10080 20080 39619 40050 51036 60217 71066 888// 92100=
07621,1996-11-13 00:00:00,8,1006.5,1.5,100,8,6000,7.408,,,190,,,,1,,,,,,21,wg-a,,,,AAXX 13004 07621 02556 81904 10080 20080 39634 40065 53015 60226 72162 888// 90000 333 60017=
07621,1996-11-13 03:00:00,8,1007.9,1.3,100,8,10000,3.704,,,250,,,,,,,,,,,wg-a,,,,AAXX 13034 07621 12560 82502 10080 20080 39647 40079 52013 60006 888// 90300=
07621,1996-11-13 06:00:00,8,1008.4,0.5,100,8,10000,3.704,,,160,8,9.9,,,,,29,,,,wg-a,,,,AAXX 13064 07621 12560 81602 10080 20080 39652 40084 53005 60294 885// 90600 333 10099 20080=
07621,1996-11-13 09:00:00,9,1011.1,2.7,93,8,500,7.408,,,190,,,,,,,,,,,wg-a,,,,AAXX 13094 07621 12600 /1904 10090 20080 39679 40111 51027 60006 86500 90900=
07621,1996-11-13 12:00:00,11,1011.3,0.5,82,8,500,3.704,,,30,,,,,,,,,,,wg-a,,,,AAXX 13124 07621 12400 70302 10110 20080 39684 40113 50005 60006 878// 91200=
07621,1996-11-13 15:00:00,11,1011.3,-0,82,8,25000,7.408,,,30,,,,0,,,,,,,wg-a,,,,AAXX 13154 07621 12575 70304 10110 20080 39684 40113 55000 60007 87802 91500=
07621,1996-11-13 18:00:00,10,1012.5,1,87,8,25000,0,,,0,8.3,12.1,,,,,,,,,wg-a,,,,AAXX 13184 07621 32575 70000 10100 20080 39694 40125 53010 875// 91800 333 10121 20083=
07621,1996-11-13 21:00:00,9,1014,1.3,93,8,25000,3.704,,,30,,,,,,,,,,,wg-a,,,,AAXX 13214 07621 12475 70302 10090 20080 39707 40140 53013 60006 875// 92100=
07621,1996-11-14 00:00:00,8,1014.7,0.5,100,8,4000,11.112,,,10,,,,2,,,,,,60,wg-a,,,,AAXX 14004 07621 02240 70106 10080 20080 39712 40147 51005 60026 76062 877// 90000 333 60027=
07621,1996-11-14 03:00:00,8,1014.9,0.2,100,8,4000,3.704,,,10,,,,,,,,,,10,wg-a,,,,AAXX 14034 07621 02140 70102 10080 20080 39714 40149 51002 61000 71066 877// 90300 333 ////=
07621,1996-11-14 06:00:00,7,1015.8,0.7,100,7,1500,11.112,,,10,7.1,9.9,,,,,2,,,10,wg-a,,,,AAXX 14064 07621 02115 80106 10070 20070 39721 40158 53007 60024 71064 887// 90600 333 10099 20071 61000=
07621,1996-11-14 09:00:00,7,1017.2,1.2,100,7,3500,7.408,,,310,,,,,,,,,,10,wg-a,,,,AAXX 14094 07621 12235 83104 10070 20070 39733 40172 51012 60006 71042 876// 90900=
07621,1996-11-14 12:00:00,6,1017.4,0.1,100,6,800,11.112,,,320,,,,,,,,,,44,wg-a,,,,AAXX 14124 07621 12108 83206 10060 20060 39734 40174 51001 60006 74442 886// 91200=
07621,1996-11-14 15:00:00,5,1017.4,-0.1,100,5,3500,18.52,,,330,,,,,,,,,,10,wg-a,,,,AAXX 14154 07621 12235 83310 10050 20050 39733 40174 55001 60006 71042 886// 91500=
07621,1996-11-14 18:00:00,5,1018.8,1.2,93,4,500,14.816,,,230,4.5,7.1,,,,,,,,1,wg-a,,,,AAXX 14184 07621 12500 82308 10050 20040 39745 40188 51012 60006 70142 885// 91800 333 10071 20045=
07621,1996-11-14 21:00:00,4,1018.6,-0.2,93,3,8000,11.112,,,230,,,,,,,,,,,wg-a,,,,AAXX 14214 07621 12658 82306 10040 20030 39743 40186 56002 60006 885// 92100=
07621,1996-11-15 00:00:00,4,1018,-0.6,93,3,8000,7.408,,,260,,,,,,,,,,,wg-a,,,,AAXX 15004 07621 12758 72604 10040 20030 39737 40180 56006 60006 875// 90000=
07621,1996-11-15 03:00:00,3,1017,-1.1,100,3,4000,7.408,,,350,,,,,,,,,,10,wg-a,,,,AAXX 15034 07621 12240 83504 10030 20030 39726 40170 56011 60006 71022 886// 90300=
07621,1996-11-15 06:00:00,2,1017.4,0.1,93,1,6000,11.112,,,280,1.7,4.5,,,,,,,,,wg-a,,,,AAXX 15064 07621 02256 82806 10020 20010 39727 40174 53001 60006 888// 90600 333 10045 20017 60004=
07621,1996-11-15 09:00:00,1,1018.6,1.1,93,0,6000,18.52,,,260,,,,,,,,,,,wg-a,,,,AAXX 15094 07621 12356 /2610 10010 20000 39738 40186 51011 60006 86600 90900=
07621,1996-11-15 12:00:00,4,1017.5,-0.7,60,-3,15000,11.112,,,280,,,,,,,,,,,wg-a,,,,AAXX 15124 07621 12465 /2806 10040 21030 39731 40175 58007 60006 86800 91200=
07621,1996-11-15 15:00:00,5,1016.9,-0.4,56,-3,15000,7.408,,,170,,,,,,,,,,,wg-a,,,,AAXX 15154 07621 12565 41704 10050 21030 39727 40169 55004 60006 84800 91500=
07621,1996-11-15 18:00:00,1,1018.8,1.2,86,-1,15000,3.704,,,220,0.7,5.6,,,,,,,,,wg-a,,,,AAXX 15184 07621 12665 22202 10010 21010 39739 40188 53012 60006 82500 91800 333 10056 20007=
07621,1996-11-15 20:00:00,0,1018.8,1.2,86,-2,15000,3.704,,,220,,5.6,,,,,,,,,wg-a,,,,AAXX 15204 07621 12665 22202 10000 21020 39739 40188 53012 60006 82500 92000 333 10056=
07621,1996-11-15 21:00:00,-1,1019.8,0.7,93,-2,8000,3.704,,,170,,,,,,,,,,,wg-a,,,,AAXX 15214 07621 12658 /1702 11010 21020 39746 40198 53007 60006 81500 92100=
07621,1996-11-16 00:00:00,-1,1020.2,0.3,93,-2,9000,7.408,,,170,,,,,,,,,,,wg-a,,,,AAXX 16004 07621 12659 /1704 11010 21020 39749 40202 53003 60006 81500 90000=
07621,1996-11-16 03:00:00,-2,1020.4,-0,93,-3,10000,7.408,,,170,,,,,,,,,,,wg-a,,,,AAXX 16034 07621 12660 /1704 11020 21030 39749 40204 55000 60006 81500 90300=
07621,1996-11-16 06:00:00,-3,1020.6,0.1,93,-4,10000,3.704,,,180,-3.5,1,,,,,,,,,wg-a,,,,AAXX 16064 07621 02660 /1802 11030 21040 39750 40206 53001 60006 81500 90600 333 10010 21035 60004=
07621,1996-11-16 09:00:00,2,1020.3,0.6,75,-2,40000,0,,,0,,,,,,,,,,,wg-a,,,,AAXX 16094 07621 12/82 20000 10020 21020 39756 40203 51006 60006 80002 90900=
07621,1996-11-16 12:00:00,7,1019.1,-0.5,57,-1,500,7.408,,,30,,,,,,,,,,,wg-a,,,,AAXX 16124 07621 12/00 60304 10070 21010 39751 40191 58005 60006 80002 91200=
07621,1996-11-16 15:00:00,6,1019.2,-0,56,-2,500,11.112,,,30,,,,,,,,,,,wg-a,,,,AAXX 16154 07621 12/00 70306 10060 21020 39751 40192 55000 60006 85042 91500=
07621,1996-11-16 18:00:00,4,1019,-0.5,81,1,15000,0,,,0,-3.6,6.9,,,,,,,,,wg-a,,,,AAXX 16184 07621 12/65 80000 10040 20010 39746 40190 58005 60006 85072 91800 333 10069 21036=
07621,1996-11-16 21:00:00,4,1019.4,0.3,70,-1,10000,11.112,,,210,,,,,,,,,,,wg-a,,,,AAXX 16214 07621 12760 82106 10040 21010 39749 40194 50003 60006 82572 92100=
07621,1996-11-17 00:00:00,3,1018.5,-1,87,1,10000,7.408,,,260,,,,,,,,,,60,wg-a,,,,AAXX 17004 07621 02460 82604 10030 20010 39739 40185 56010 61000 76062 8557/ 90000 333 6100=
07621,1996-11-17 03:00:00,1,1016.6,-2,100,1,10000,11.112,,,210,,,,2,,,,,,21,wg-a,,,,AAXX 17034 07621 12560 82106 10010 20010 39719 40166 58020 60027 72162 8557/ 90300=
07621,1996-11-17 06:00:00,3,1013.8,-2.5,93,2,10000,11.112,,,210,0.9,3.8,,,,,2,,,2,wg-a,,,,AAXX 17064 07621 12560 82106 10030 20020 39694 40138 56025 60024 70262 875// 90600 333 10038 20009=
07621,1996-11-17 09:00:00,3,1013.2,-0.5,93,2,500,7.408,,,230,,,,2,,,,,,61,wg-a,,,,AAXX 17094 07621 12300 82304 10030 20020 39689 40132 56005 60027 76162 877// 90900=
07621,1996-11-17 12:00:00,3,1011.6,-1.4,100,3,6000,11.112,,,270,,,,2,,,,,,51,wg-a,,,,AAXX 17124 07621 02256 82706 10030 20030 39675 40116 58014 60056 75176 877// 91200 333 60027=
07621,1996-11-17 15:00:00,4,1011,-0.5,93,3,4000,18.52,,,250,,,,1,,,,,,10,wg-a,,,,AAXX 17154 07621 12340 82510 10040 20030 39670 40110 56005 60017 71055 877// 91500=
07621,1996-11-17 18:00:00,5,1010.8,-0,93,4,8000,22.224,,,250,2.3,5.3,,0,,,,,,58,wg-a,,,,AAXX 17184 07621 12358 82512 10050 20040 39670 40108 55000 60007 75865 875// 91800 333 10053 20023=
07621,1996-11-17 21:00:00,6,1010.1,-0.6,93,5,8000,14.816,,,240,,,,1,,,,,,60,wg-a,,,,AAXX 17214 07621 12358 82408 10060 20050 39664 40101 57006 60017 76066 875// 92100=
07621,1996-11-18 00:00:00,6,1008.4,-1.6,93,5,10000,7.408,,,220,,,,1,,,,,,60,wg-a,,,,AAXX 18004 07621 02560 82204 10060 20050 39648 40084 56016 60026 76066 875// 90000 333 60017=
07621,1996-11-18 03:00:00,7,1007.5,-0.7,93,6,8000,29.632,,,270,,,,4,,,,,,61,wg-a,,,,AAXX 18034 07621 12358 82716 10070 20060 39641 40075 55007 60047 76166 875// 90300=
07621,1996-11-18 06:00:00,6,1009.6,1.8,87,4,8000,38.892,,57.412,310,5.1,6.9,,5,,,16,,,63,wg-a,,,,AAXX 18064 07621 02358 83121 10060 20040 39659 40096 53018 60164 76366 875// 90600 333 10069 20051 60057 91031=
07621,1996-11-18 09:00:00,6,1014.3,4.6,93,5,500,18.52,,,250,,,,0,,,,,,1,wg-a,,,,AAXX 18094 07621 12500 /2510 10060 20050 39705 40143 51046 60007 70162 86800 90900=
07621,1996-11-18 12:00:00,6,1015.2,0.7,81,3,15000,18.52,,,270,,,,,,,,,,25,wg-a,,,,AAXX 18124 07621 12565 72710 10060 20030 39712 40152 51007 60016 72562 878// 91200=
07621,1996-11-18 15:00:00,7,1014.4,-0.5,66,1,500,14.816,,,240,,,,,,,,,,,wg-a,,,,AAXX 18154 07621 12500 /2408 10070 20010 39707 40144 58005 60006 85802 91500=
07621,1996-11-18 18:00:00,2,1016.6,1.4,93,1,15000,14.816,,,240,2.3,8.4,,0,,,,,,25,wg-a,,,,AAXX 18184 07621 12365 82408 10020 20010 39721 40166 51014 60007 72586 888// 91800 333 10084 20023=
07621,1996-11-18 21:00:00,2,1017.6,0.9,93,1,6000,11.112,,,230,,,,2,,,,,,60,wg-a,,,,AAXX 18214 07621 12356 82306 10020 20010 39730 40176 53009 60027 76076 888// 92100=
07621,1996-11-19 00:00:00,2,1016.7,-1,93,1,11000,18.52,,,210,,,,,,,,,,,wg-a,,,,AAXX 19004 07621 12/61 /2110 10020 20010 39720 40167 58010 60036 90000=
07621,1996-11-19 03:00:00,1,1013.8,-2.8,93,0,15000,11.112,,,190,,,,,,,,,,,wg-a,,,,AAXX 19034 07621 12665 51906 10010 20000 39692 40138 58028 60006 82502 90300=
07621,1996-11-19 06:00:00,2,1010.1,-3.4,87,0,15000,7.408,,,160,1.1,3,,,,,3,,,,wg-a,,,,AAXX 19064 07621 12/65 71604 10020 20000 39658 40101 58034 60034 85055 90600 333 10030 20011=
07621,1996-11-19 09:00:00,2,1010.1,-3.4,87,0,15000,7.408,,,160,1.1,3,,,,,3,,,,wg-a,,,,AAXX 19094 07621 12/65 71604 10020 20000 39658 40101 58034 60034 85055 90900 333 10030 20011=
07621,1996-11-19 12:00:00,14,998,-12.1,51,4,25000,11.112,,,220,,,,,,,,,,1,wg-a,,,,AAXX 19124 07621 02875 /2206 10140 20040 39560 49980 56121 61000 70162 83572 91200 333 6100=
07621,1996-11-19 15:00:00,15,995.2,-2.6,44,3,18000,25.928,,64.82,270,,,,,,,,,,,wg-a,,,,AAXX 19154 07621 12668 82714 10150 20030 39534 49952 56026 60006 875// 91500 333 91035=
07621,1996-11-19 18:00:00,9,999.5,3.3,81,6,13000,22.224,,64.82,280,1.5,16.3,,0,,,,,,61,wg-a,,,,AAXX 19184 07621 12563 82812 10090 20060 39567 49995 53033 60007 76162 875// 91800 333 10163 20015 91035=
07621,1996-11-20 00:00:00,7,1000.8,0.3,93,6,8000,14.816,,57.412,270,,,,3,,,,,,21,wg-a,,,,AAXX 20004 07621 02458 72708 10070 20060 39578 40008 53003 60076 72162 875// 90000 333 60037 91031=
07621,1996-11-20 03:00:00,6,1001.4,0.4,93,5,500,25.928,,,280,,,,5,,,,,,,wg-a,,,,AAXX 20034 07621 12/00 /2814 10060 20050 39582 40014 53004 60057 90300=
07621,1996-11-20 06:00:00,5,1003.3,1.5,93,4,500,35.188,,87.044,270,4.5,8.6,,9,,,21,,,81,wg-a,,,,AAXX 20064 07621 02400 82719 10050 20040 39597 40033 53015 60214 78186 882// 90600 333 10086 20045 60097 91047=
07621,1996-11-20 09:00:00,6,1006,2.7,81,3,8000,38.892,,62.968,260,,,,8,,,,,,60,wg-a,,,,AAXX 20094 07621 12458 82621 10060 20030 39624 40060 53027 60087 76086 882// 90900 333 91034=
07621,1996-11-20 12:00:00,6,1007.6,1.7,93,5,8000,31.484,,79.636,260,,,,5,,,,,,60,wg-a,,,,AAXX 20124 07621 02358 82617 10060 20050 39641 40076 53017 60146 76086 882// 91200 333 60057 91043=
07621,1996-11-20 15:00:00,5,1010.2,2.3,93,4,6000,29.632,,68.524,250,,,,6,,,,,,63,wg-a,,,,AAXX 20154 07621 12356 82516 10050 20040 39664 40102 53023 60067 76386 882// 91500 333 91037=
07621,1996-11-20 18:00:00,5,1012.3,2,93,4,10000,25.928,,68.524,260,4.7,7.4,,7,,,,,,21,wg-a,,,,AAXX 20184 07621 12460 82614 10050 20040 39684 40123 53020 60077 72186 882// 91800 333 10074 20047 91037=
07621,1996-11-20 21:00:00,6,1013.9,1.6,93,5,8000,18.52,,57.412,270,,,,3,,,,,,61,wg-a,,,,AAXX 20214 07621 12558 82710 10060 20050 39700 40139 53016 60037 76186 888// 92100 333 91031=
07621,1996-11-21 00:00:00,5,1013.4,-0.5,93,4,10000,11.112,,57.412,240,,,,2,,,,,,61,wg-a,,,,AAXX 21004 07621 02560 82406 10050 20040 39695 40134 58005 60056 76186 888// 90000 333 60027 91031=
07621,1996-11-21 03:00:00,5,1013.1,-0.3,100,5,10000,7.408,,,240,,,,1,,,,,,21,wg-a,,,,AAXX 21034 07621 12560 82404 10050 20050 39692 40131 56003 60017 72162 8587/ 90300=
07621,1996-11-21 06:00:00,6,1014.1,1,93,5,3000,3.704,,,170,5.1,6.7,,1,,,34,,,10,wg-a,,,,AAXX 21064 07621 02230 81702 10060 20050 39702 40141 53010 60344 71086 887// 90600 333 10067 20051 60017=
07621,1996-11-21 09:00:00,6,1014.3,0.3,100,6,2000,7.408,,,200,,,,0,,,,,,10,wg-a,,,,AAXX 21094 07621 12220 82004 10060 20060 39705 40143 50003 60007 71052 887// 90900=
07621,1996-11-21 12:00:00,8,1012.6,-1.3,93,7,10000,7.408,,,150,,,,,,,,,,1,wg-a,,,,AAXX 21124 07621 12260 81504 10080 20070 39692 40126 58013 60016 70152 878// 91200=
07621,1996-11-21 15:00:00,8,1008.6,-3.9,93,7,20000,3.704,,,120,,,,1,,,,,,21,wg-a,,,,AAXX 21154 07621 12470 /1202 10080 20070 39653 40086 58039 60017 72162 84870 91500=
07621,1996-11-21 18:00:00,11,1004.6,-3.3,82,8,10000,18.52,,,260,5.8,11.4,,,,,,,,1,wg-a,,,,AAXX 21184 07621 32760 52610 10110 20080 39620 40046 56033 70162 83570 91800 333 10114 20058=
07621,1996-11-21 21:00:00,17,1003.7,-0,48,6,15000,46.3,,81.488,250,,,,,,,,,,,wg-a,,,,AAXX 21214 07621 12765 /2525 10170 20060 39620 40037 55000 60006 86500 92100 333 91044=
07621,1996-11-22 00:00:00,12,1006.7,2.2,94,11,8000,46.3,,66.672,290,,,,0,,,,,,60,wg-a,,,,AAXX 22004 07621 02358 72925 10120 20110 39642 40067 53022 60016 76061 875// 90000 333 60007 91036=
07621,1996-11-22 03:00:00,11,1011.6,4.4,82,8,10000,46.3,,66.672,280,,,,1,,,,,,21,wg-a,,,,AAXX 22034 07621 12460 72825 10110 20080 39686 40116 53044 60017 72162 875// 90300 333 91036=
07621,1996-11-22 06:00:00,7,1015.9,3.6,87,5,10000,18.52,,90.748,300,7.2,17.5,,,,,2,,,1,wg-a,,,,AAXX 22064 07621 12460 73010 10070 20050 39722 40159 51036 60024 70162 875// 90600 333 10175 20072 91049=
07621,1996-11-22 09:00:00,6,1018.5,2.2,93,5,10000,11.112,,,30,,,,0,,,,,,20,wg-a,,,,AAXX 22094 07621 12460 80306 10060 20050 39744 40185 51022 60007 72052 887// 90900=
07621,1996-11-22 12:00:00,6,1017.2,-1.2,87,4,10000,7.408,,,30,,,,,,,,,,1,wg-a,,,,AAXX 22124 07621 12360 80304 10060 20040 39732 40172 58012 60006 70152 887// 91200=
07621,1996-11-22 15:00:00,9,1014.6,-2,76,5,15000,7.408,,,160,,,,,,,,,,,wg-a,,,,AAXX 22154 07621 12465 21604 10090 20050 39712 40146 57020 60006 82232 91500=
07621,1996-11-22 18:00:00,7,1013.7,-1.2,87,5,15000,3.704,,,330,4.9,9.4,,,,,,,,,wg-a,,,,AAXX 22184 07621 32665 73302 10070 20050 39700 40137 56012 875// 91800 333 10094 20049=
07621,1996-11-22 21:00:00,6,1012.9,-0.9,93,5,15000,3.704,,,220,,,,,,,,,,,wg-a,,,,AAXX 22214 07621 12665 52202 10060 20050 39691 40129 58009 60006 82542 92100=
07621,1996-11-23 00:00:00,6,1011.9,-0.9,100,6,10000,3.704,,,240,,,,,,,,,,61,wg-a,,,,AAXX 23004 07621 02760 82402 10060 20060 39682 40119 56009 61000 76162 8557/ 90000 333 6100=
07621,1996-11-23 03:00:00,6,1014.3,2.3,100,6,2500,7.408,,,50,,,,8,,,,,,10,wg-a,,,,AAXX 23034 07621 12325 80504 10060 20060 39705 40143 53023 60087 71066 877// 90300=
07621,1996-11-23 06:00:00,7,1015.4,1.3,100,7,4000,11.112,,,190,5.4,7.4,,3,,,12,,,10,wg-a,,,,AAXX 23064 07621 02240 81906 10070 20070 39718 40154 53013 60124 71062 875// 90600 333 10074 20054 60037=
07621,1996-11-23 09:00:00,9,1017.7,2.4,93,8,8000,11.112,,,240,,,,0,,,,,,1,wg-a,,,,AAXX 23094 07621 12258 82406 10090 20080 39742 40177 51024 60007 70165 888// 90900=
07621,1996-11-23 12:00:00,9,1020.5,2.7,87,7,500,18.52,,50.004,310,,,,0,,,,,,2,wg-a,,,,AAXX 23124 07621 02400 73110 10090 20070 39769 40205 51027 60016 70265 872// 91200 333 60007 91027=
07621,1996-11-23 15:00:00,10,1021.2,0.8,62,3,500,18.52,,,270,,,,,,,,,,,wg-a,,,,AAXX 23154 07621 12500 52710 10100 20030 39777 40212 52008 60006 83802 91500=
07621,1996-11-23 18:00:00,7,1024.6,2.8,93,6,8000,18.52,,,290,7,10.6,,0,,,,,,60,wg-a,,,,AAXX 23184 07621 12358 82910 10070 20060 39805 40246 53028 60007 76061 888// 91800 333 10106 20070=
07621,1996-11-23 21:00:00,6,1026.6,1.8,93,5,10000,14.816,,,240,,,,1,,,,,,21,wg-a,,,,AAXX 23214 07621 12560 72408 10060 20050 39823 40266 51018 60017 72161 875// 92100=
07621,1996-11-24 00:00:00,5,1027.5,0.6,93,4,15000,11.112,,,180,,,,,,,,,,1,wg-a,,,,AAXX 24004 07621 12665 /1806 10050 20040 39829 40275 51006 60016 70161 85500 90000=
07621,1996-11-24 03:00:00,3,1029.4,1.5,93,2,20000,7.408,,,170,,,,,,,,,,,wg-a,,,,AAXX 24034 07621 12670 21704 10030 20020 39844 40294 53015 60006 82502 90300=
07621,1996-11-24 06:00:00,1,1028.8,-0.9,100,1,25000,7.408,,,180,0.8,7.1,,,,,1,,,,wg-a,,,,AAXX 24064 07621 12/75 01804 10010 20010 39835 40288 56009 60014 80000 90600 333 10071 20008=
07621,1996-11-24 09:00:00,6,1029.3,1.2,87,4,50000,3.704,,,180,,,,,,,,,,,wg-a,,,,AAXX 24094 07621 12/84 01802 10060 20040 39847 40293 53012 60006 80000 90900=
07621,1996-11-24 12:00:00,11,1025.8,-2.5,58,3,0,7.408,,,50,,,,,,,,,,,wg-a,,,,AAXX 24124 07621 12/// /0504 10110 20030 39822 40258 58025 60006 91200=
07621,1996-11-24 15:00:00,10,1023.3,-2.6,57,2,40000,7.408,,,70,,,,,,,,,,,wg-a,,,,AAXX 24154 07621 12/82 60704 10100 20020 39796 40233 57026 60006 80004 91500=
07621,1996-11-24 18:00:00,4,1023.4,-0.8,93,3,500,0,,,0,0.7,12.1,,,,,,,,,wg-a,,,,AAXX 24184 07621 12/00 70000 10040 20030 39788 40234 55008 60006 80004 91800 333 10121 20007=
07621,1996-11-24 21:00:00,4,1021.9,-1.4,87,2,500,11.112,,,170,,,,,,,,,,,wg-a,,,,AAXX 24214 07621 12/00 71706 10040 20020 39774 40219 57014 60006 80002 92100=
07621,1996-11-25 00:00:00,5,1020,-1.6,70,0,500,14.816,,,190,,,,,,,,,,,wg-a,,,,AAXX 25004 07621 12/00 51908 10050 20000 39758 40200 58016 60006 82032 90000=
07621,1996-11-25 03:00:00,5,1019.1,-0.9,70,0,500,14.816,,,170,,,,,,,,,,,wg-a,,,,AAXX 25034 07621 12/00 71708 10050 20000 39749 40191 58009 60006 80002 90300=
07621,1996-11-25 06:00:00,14,1015.7,-2,47,3,15000,29.632,,46.3,280,2.9,13.7,,0,,,,,,60,wg-a,,,,AAXX 25064 07621 02765 82816 10140 20030 39729 40157 56020 60004 76062 8252/ 90600 333 10137 20029 60007 91025=
07621,1996-11-25 09:00:00,12,1015.5,-0.3,76,8,10000,18.52,,,270,,,,0,,,,,,21,wg-a,,,,AAXX 25094 07621 12560 82710 10120 20080 39726 40155 55003 60007 72162 875// 90900=
07621,1996-11-25 12:00:00,12,1012.7,-2.7,94,11,6000,14.816,,,250,,,,2,,,,,,61,wg-a,,,,AAXX 25124 07621 02456 82508 10120 20110 39699 40127 58027 60036 76162 875// 91200 333 60027=
07621,1996-11-25 15:00:00,13,1009.5,-2.9,94,12,6000,29.632,,,260,,,,6,,,,,,61,wg-a,,,,AAXX 25154 07621 12456 82616 10130 20120 39670 40095 56029 60067 76166 875// 91500=
07621,1996-11-25 18:00:00,13,1008.4,-1.1,94,12,3000,29.632,,50.004,260,11.6,15,,9,,,,,,63,wg-a,,,,AAXX 25184 07621 12230 82616 10130 20120 39659 40084 56011 60097 76366 875// 91800 333 10150 20116 91027=
07621,1996-11-25 21:00:00,12,1010.3,1.6,94,11,3000,31.484,,,300,,,,11,,,,,,63,wg-a,,,,AAXX 25214 07621 12330 83017 10120 20110 39675 40103 53016 60117 76366 875// 92100=
07621,1996-11-26 00:00:00,10,1012.9,2.2,76,6,12000,25.928,,57.412,240,,,,3,,,,,,1,wg-a,,,,AAXX 26004 07621 02362 /2414 10100 20060 39697 40129 50022 60146 70162 86700 90000 333 60037 91031=
07621,1996-11-26 03:00:00,9,1014.7,1.7,93,8,12000,22.224,,53.708,270,,,,0,,,,,,,wg-a,,,,AAXX 26034 07621 12462 72712 10090 20080 39714 40147 53017 60007 878// 90300 333 91029=
07621,1996-11-26 06:00:00,9,1016.2,1.4,87,7,15000,14.816,,53.708,290,8.6,12.6,,,,,32,,,,wg-a,,,,AAXX 26064 07621 12465 /2908 10090 20070 39728 40162 53014 60324 86800 90600 333 10126 20086 91029=
07621,1996-11-26 09:00:00,9,1017.6,1.3,87,7,500,18.52,,,260,,,,0,,,,,,60,wg-a,,,,AAXX 26094 07621 12400 72610 10090 20070 39741 40176 53013 60007 76086 878// 90900=
07621,1996-11-26 12:00:00,11,1017.3,0,82,8,12000,22.224,,,260,,,,1,,,,,,1,wg-a,,,,AAXX 26124 07621 02462 /2612 10110 20080 39741 40173 50000 60016 70186 86200 91200 333 60017=
07621,1996-11-26 15:00:00,10,1017,-0.4,82,7,20000,18.52,,,250,,,,,,,,,,,wg-a,,,,AAXX 26154 07621 12570 72510 10100 20070 39737 40170 56004 60006 8687/ 91500=
07621,1996-11-26 18:00:00,8,1017.9,0.5,93,7,500,14.816,,,240,8,11.3,,1,,,,,,60,wg-a,,,,AAXX 26184 07621 12300 72408 10080 20070 39742 40179 53005 60017 76062 8687/ 91800 333 10113 20080=
07621,1996-11-26 21:00:00,7,1016.6,-1.3,93,6,12000,11.112,,,230,,,,1,,,,,,2,wg-a,,,,AAXX 26214 07621 12662 82306 10070 20060 39729 40166 58013 60017 70262 8557/ 92100=
07621,1996-11-27 00:00:00,8,1016.4,-0.2,93,7,6000,7.408,,,180,,,,0,,,,,,51,wg-a,,,,AAXX 27004 07621 02256 81804 10080 20070 39727 40164 58002 60016 75165 875// 90000 333 60007=
07621,1996-11-27 06:00:00,12,1014.6,-0.1,94,11,2000,29.632,,64.82,260,7.3,12.5,,3,,,13,,,10,wg-a,,,,AAXX 27064 07621 02220 82616 10120 20110 39717 40146 55001 60134 71065 885// 90600 333 10125 20073 60037 91035=
07621,1996-11-27 09:00:00,13,1013.6,-0.8,88,11,10000,22.224,,,260,,,,0,,,,,,21,wg-a,,,,AAXX 27094 07621 12660 82612 10130 20110 39709 40136 56008 60007 72165 875// 90900=
07621,1996-11-27 12:00:00,13,1010.8,-2.7,94,12,6000,25.928,,53.708,270,,,,1,,,,,,61,wg-a,,,,AAXX 27124 07621 02656 72714 10130 20120 39682 40108 56027 60026 76165 875// 91200 333 60017 91029=
07621,1996-11-27 15:00:00,13,1010.8,-0,88,11,8000,38.892,,61.116,250,,,,4,,,,,,61,wg-a,,,,AAXX 27154 07621 12458 72521 10130 20110 39682 40108 54000 60047 76166 875// 91500 333 91033=
07621,1996-11-27 18:00:00,10,1013.7,2.4,93,9,6000,29.632,,68.524,260,10.2,15.9,,5,,,,,,60,wg-a,,,,AAXX 27184 07621 12456 72616 10100 20090 39706 40137 51024 60057 76066 875// 91800 333 10159 20102 91037=
07621,1996-11-28 00:00:00,8,1015.6,0.6,81,5,12000,31.484,,72.228,260,,,,2,,,,,,25,wg-a,,,,AAXX 28004 07621 02562 72617 10080 20050 39720 40156 50006 60056 72586 872// 90000 333 60027 91039=
07621,1996-11-28 03:00:00,7,1015.6,-0.1,87,5,10000,42.596,,83.34,260,,,,5,,,,,,80,wg-a,,,,AAXX 28034 07621 12460 72623 10070 20050 39719 40156 56001 60057 78086 872// 90300 333 91045=
07621,1996-11-28 06:00:00,4,1022,5.6,87,2,15000,25.928,,90.748,280,4.2,10.3,,2,,,23,,,1,wg-a,,,,AAXX 28064 07621 02465 72814 10040 20020 39775 40220 53056 60234 70186 875// 90600 333 10103 20042 60027 91049=
07621,1996-11-28 09:00:00,5,1024.6,2.6,87,3,500,11.112,,,280,,,,,,,,,,,wg-a,,,,AAXX 28094 07621 12400 72806 10050 20030 39801 40246 52026 60006 878// 90900=
07621,1996-11-28 12:00:00,6,1024.1,-0.2,65,0,500,3.704,,,240,,,,,,,,,,,wg-a,,,,AAXX 28124 07621 12400 72402 10060 20000 39799 40241 58002 60006 878// 91200=
07621,1996-11-28 15:00:00,5,1024.4,-0,81,2,500,3.704,,,340,,,,,,,,,,21,wg-a,,,,AAXX 28154 07621 02400 83402 10050 20020 39799 40244 55000 61000 72122 888// 91500 333 ////=
07621,1996-11-28 18:00:00,4,1025.8,1.2,93,3,15000,7.408,,,210,3.9,6.9,,,,,,,,1,wg-a,,,,AAXX 28184 07621 32665 /2104 10040 20030 39811 40258 51012 70162 86800 91800 333 10069 20039=
07621,1996-11-28 21:00:00,4,1026.9,1,87,2,12000,11.112,,,220,,,,,,,,,,,wg-a,,,,AAXX 28214 07621 12562 72206 10040 20020 39821 40269 51010 60006 875// 92100=
07621,1996-11-29 00:00:00,5,1026.9,0.2,87,3,10000,7.408,,,250,,,,,,,,,,,wg-a,,,,AAXX 29004 07621 12660 72504 10050 20030 39823 40269 53002 60006 875// 90000=
07621,1996-11-29 03:00:00,4,1026.6,-0.5,87,2,20000,14.816,,,200,,,,,,,,,,,wg-a,,,,AAXX 29034 07621 12670 42008 10040 20020 39818 40266 58005 60006 83502 90300=
07621,1996-11-29 06:00:00,2,1026.3,-0.5,93,1,20000,14.816,,,210,2.3,5.3,,,,,,,,,wg-a,,,,AAXX 29064 07621 02670 32108 10020 20010 39813 40263 55005 60006 83500 90600 333 10053 20023 61000=
07621,1996-11-29 12:00:00,10,1024.1,-1,66,4,25000,22.224,,,240,,,,,,,,,,,wg-a,,,,AAXX 29124 07621 12675 72412 10100 20040 39805 40241 58010 60006 84572 91200=
07621,1996-11-29 15:00:00,9,1023.2,-1.1,87,7,15000,25.928,,,250,,,,,,,,,,21,wg-a,,,,AAXX 29154 07621 02465 82514 10090 20070 39794 40232 56011 61000 72162 875// 91500 333 ////=
07621,1996-11-29 18:00:00,10,1022.7,-0.3,76,6,15000,22.224,,,250,2.2,10.6,,0,,,,,,1,wg-a,,,,AAXX 29184 07621 12565 72512 10100 20060 39791 40227 58003 60007 70162 875// 91800 333 10106 20022=
07621,1996-11-29 21:00:00,10,1021.4,-1.2,76,6,15000,25.928,,,250,,,,,,,,,,,wg-a,,,,AAXX 29214 07621 12665 82514 10100 20060 39779 40214 58012 60006 875// 92100=
07621,1996-11-30 00:00:00,11,1020,-1.2,76,7,15000,25.928,,,260,,,,,,,,,,,wg-a,,,,AAXX 30004 07621 12765 82614 10110 20070 39767 40200 58012 60006 8557/ 90000=
07621,1996-11-30 03:00:00,12,1017.7,-2.1,88,10,3000,29.632,,,260,,,,0,,,,,,10,wg-a,,,,AAXX 30034 07621 12230 82616 10120 20100 39746 40177 56021 60007 71062 885// 90300=
07621,1996-11-30 06:00:00,12,1016.3,-1.2,94,11,2500,31.484,,50.004,260,9.6,12.2,,6,,,7,,,10,wg-a,,,,AAXX 30064 07621 02225 82617 10120 20110 39734 40163 57012 60074 71065 885// 90600 333 10122 20096 60067 91027=
07621,1996-11-30 09:00:00,13,1016.8,0.5,94,12,2000,29.632,,61.116,270,,,,11,,,,,,10,wg-a,,,,AAXX 30094 07621 12220 82716 10130 20120 39739 40168 53005 60117 71065 887// 90900 333 91033=
07621,1996-11-30 12:00:00,13,1017.4,0.7,94,12,2500,31.484,,50.004,270,,,,5,,,,,,10,wg-a,,,,AAXX 30124 07621 02225 82717 10130 20120 39746 40174 51007 60166 71065 887// 91200 333 60057 91027=
07621,1996-11-30 15:00:00,13,1017,-0.5,94,12,2500,31.484,,72.228,260,,,,3,,,,,,10,wg-a,,,,AAXX 30154 07621 12225 82617 10130 20120 39741 40170 58005 60037 71066 887// 91500 333 91039=
07621,1996-11-30 18:00:00,13,1018.2,1.2,94,12,3000,31.484,,72.228,260,12,13,,4,,,,,,10,wg-a,,,,AAXX 30184 07621 12230 82617 10130 20120 39753 40182 53012 60047 71066 887// 91800 333 10130 20120 91039=
07621,1996-11-30 21:00:00,11,1020.4,1.9,100,11,4000,38.892,,61.116,280,,,,6,,,,,,10,wg-a,,,,AAXX 30214 07621 12240 82821 10110 20110 39772 40204 51019 60067 71066 887// 92100 333 91033=
07621,1996-12-01 00:00:00,11,1021.5,1,100,11,3000,31.484,,68.524,280,,,,5,,,,,,10,wg-a,,,,AAXX 01004 07621 02230 82817 10110 20110 39782 40215 53010 60116 71066 885// 90000 333 60057 91037=
07621,1996-12-01 03:00:00,8,1023.9,1.8,100,8,3000,14.816,,,20,,,,9,,,,,,10,wg-a,,,,AAXX 01034 07621 12230 80208 10080 20080 39800 40239 51018 60097 71066 885// 90300=
07621,1996-12-01 06:00:00,8,1025.1,1.1,100,8,8000,11.112,,,220,7.9,12.7,,3,,,46,,,21,wg-a,,,,AAXX 01064 07621 02358 82206 10080 20080 39811 40251 53011 60464 72162 885// 90600 333 10127 20079 60037=
07621,1996-12-01 09:00:00,10,1026.9,2,93,9,12000,11.112,,,240,,,,0,,,,,,,wg-a,,,,AAXX 01094 07621 12562 /2406 10100 20090 39831 40269 51020 60007 86800 90900=
07621,1996-12-01 12:00:00,13,1026.2,-0.2,77,9,20000,7.408,,,260,,,,,,,,,,,wg-a,,,,AAXX 01124 07621 12570 72604 10130 20090 39829 40262 58002 60006 878// 91200=
07621,1996-12-01 15:00:00,11,1026.3,-0.1,94,10,12000,11.112,,,240,,,,,,,,,,20,wg-a,,,,AAXX 01154 07621 02262 82406 10110 20100 39828 40263 57001 61000 72065 878// 91500 333 ////=
07621,1996-12-01 18:00:00,11,1026.9,0.5,94,10,10000,18.52,,,240,8,13,,,,,,,,3,wg-a,,,,AAXX 01184 07621 32260 72410 10110 20100 39833 40269 50005 70365 875// 91800 333 10130 20080=
07621,1996-12-02 00:00:00,11,1026.6,0,94,10,10000,18.52,,,250,,,,,,,,,,3,wg-a,,,,AAXX 02004 07621 12460 82510 10110 20100 39831 40266 50000 60016 70352 885// 90000=
07621,1996-12-02 06:00:00,11,1026.4,0.8,94,10,6000,25.928,,,310,10.5,12.3,,1,,,1,,,60,wg-a,,,,AAXX 02064 07621 02256 83114 10110 20100 39829 40264 53008 60014 76062 887// 90600 333 10123 20105 60017=
07621,1996-12-02 12:00:00,11,1027.8,-0.5,87,9,10000,14.816,,,260,,,,1,,,,,,1,wg-a,,,,AAXX 02124 07621 02460 /2608 10110 20090 39842 40278 58005 60016 70165 86800 91200 333 60017=
07621,1996-12-02 15:00:00,12,1026.5,-1.2,76,8,20000,14.816,,,300,,,,,,,,,,,wg-a,,,,AAXX 02154 07621 12570 73008 10120 20080 39830 40265 55012 60006 87800 91500=
07621,1996-12-02 18:00:00,9,1027.9,0.9,87,7,20000,7.408,,,250,8.7,13,,,,,,,,,wg-a,,,,AAXX 02184 07621 32570 72504 10090 20070 39839 40279 53009 875// 91800 333 10130 20087=
07621,1996-12-02 21:00:00,8,1027.1,-0.9,93,7,12000,7.408,,,210,,,,,,,,,,,wg-a,,,,AAXX 02214 07621 12562 72104 10080 20070 39830 40271 56009 60006 875// 92100=
07621,1996-12-03 00:00:00,7,1025.6,-1.5,93,6,12000,7.408,,,170,,,,,,,,,,,wg-a,,,,AAXX 03004 07621 12662 /1704 10070 20060 39815 40256 58015 60006 85500 90000=
07621,1996-12-03 03:00:00,5,1023.1,-2.9,87,3,12000,14.816,,,180,,,,,,,,,,,wg-a,,,,AAXX 03034 07621 12662 /1808 10050 20030 39786 40231 58029 60006 81500 90300=
07621,1996-12-03 06:00:00,3,1021.1,-2.1,93,2,12000,11.112,,,180,2.6,8.8,,,,,1,,,,wg-a,,,,AAXX 03064 07621 02/62 01806 10030 20020 39765 40211 56021 60006 80000 90600 333 10088 20026 60014=
07621,1996-12-03 09:00:00,7,1018.5,-1.9,76,3,40000,7.408,,,170,,,,,,,,,,,wg-a,,,,AAXX 03094 07621 12/82 01704 10070 20030 39746 40185 56019 60006 80000 90900=
07621,1996-12-03 12:00:00,15,1013.8,-3.4,44,3,50000,3.704,,,140,,,,,,,,,,,wg-a,,,,AAXX 03124 07621 12/84 11402 10150 20030 39712 40138 58034 60006 80002 91200=
07621,1996-12-03 15:00:00,15,1010.3,-3.3,39,1,50000,3.704,,,10,,,,,,,,,,,wg-a,,,,AAXX 03154 07621 12/84 00102 10150 20010 39679 40103 56033 60006 80000 91500=
07621,1996-12-03 18:00:00,7,1010.4,-1,76,3,20000,7.408,,,160,2.5,16.8,,,,,,,,,wg-a,,,,AAXX 03184 07621 12/70 01604 10070 20030 39669 40104 56010 60006 80000 91800 333 10168 20025=
07621,1996-12-03 21:00:00,4,1008.1,-2.7,87,2,20000,11.112,,,180,,,,,,,,,,,wg-a,,,,AAXX 03214 07621 12/70 01806 10040 20020 39642 40081 58027 60006 80000 92100=
07621,1996-12-04 00:00:00,5,1007.9,-0.1,75,1,15000,0,,,0,,,,,,,,,,,wg-a,,,,AAXX 04004 07621 12/65 00000 10050 20010 39641 40079 55001 60006 80000 90000=
07621,1996-12-04 03:00:00,3,1007.5,-0.7,87,1,15000,11.112,,,160,,,,,,,,,,,wg-a,,,,AAXX 04034 07621 12/65 11606 10030 20010 39634 40075 56007 60006 80001 90300=
07621,1996-12-04 06:00:00,3,1007.7,0.3,87,1,15000,11.112,,,190,1.7,7,,,,,,,,,wg-a,,,,AAXX 04064 07621 02/65 31906 10030 20010 39637 40077 52003 60006 80001 90600 333 10070 20017 60004=
07621,1996-12-04 09:00:00,7,1006.9,-0.1,87,5,25000,0,,,0,,,,,,,,,,,wg-a,,,,AAXX 04094 07621 12775 40000 10070 20050 39636 40069 58001 60006 83542 90900=
07621,1996-12-04 12:00:00,13,1004.8,-1.2,62,6,500,7.408,,,70,,,,,,,,,,,wg-a,,,,AAXX 04124 07621 12800 30704 10130 20060 39624 40048 58012 60006 82542 91200=
07621,1996-12-04 15:00:00,10,1005.8,0.6,87,8,15000,14.816,,,300,,,,,,,,,,,wg-a,,,,AAXX 04154 07621 12465 73008 10100 20080 39630 40058 53006 60006 8557/ 91500=
07621,1996-12-04 18:00:00,8,1008.1,1.8,93,7,3000,11.112,,,290,2.6,13.8,,1,,,,,,10,wg-a,,,,AAXX 04184 07621 12330 82906 10080 20070 39648 40081 53018 60017 71061 885// 91800 333 10138 20026=
07621,1996-12-04 21:00:00,7,1008.6,0.4,100,7,500,3.704,,,80,,,,1,,,,,,21,wg-a,,,,AAXX 04214 07621 12200 80802 10070 20070 39652 40086 50004 60017 72165 885// 92100=
07621,1996-12-05 00:00:00,7,1008.7,0,93,6,500,3.704,,,110,,,,,,,,,,1,wg-a,,,,AAXX 05004 07621 12200 81102 10070 20060 39652 40087 50000 60016 70165 885// 90000=
07621,1996-12-05 03:00:00,7,1008.3,-0.4,93,6,500,7.408,,,290,,,,,,,,,,50,wg-a,,,,AAXX 05034 07621 02300 82904 10070 20060 39648 40083 56004 61000 75052 885// 90300 333 ////=
07621,1996-12-05 06:00:00,6,1008.8,0.4,100,6,4000,7.408,,,260,5.9,7.6,,1,,,3,,,51,wg-a,,,,AAXX 05064 07621 02240 82604 10060 20060 39652 40088 53004 60034 75152 885// 90600 333 10076 20059 60017=
07621,1996-12-05 09:00:00,6,1009.2,0.4,100,6,1500,3.704,,,240,,,,1,,,,,,10,wg-a,,,,AAXX 05094 07621 12115 82402 10060 20060 39656 40092 52004 60017 71055 885// 90900=
07621,1996-12-05 12:00:00,7,1007.9,-1.1,100,7,3000,3.704,,,40,,,,1,,,,,,10,wg-a,,,,AAXX 05124 07621 02130 80402 10070 20070 39645 40079 58011 60026 71065 887// 91200 333 60017=
07621,1996-12-05 15:00:00,6,1005.9,-2.1,93,5,15000,11.112,,,200,,,,5,,,,,,60,wg-a,,,,AAXX 05154 07621 12365 82006 10060 20050 39624 40059 57021 60057 76066 888// 91500=
07621,1996-12-05 18:00:00,6,1006.4,0.4,93,5,4000,14.816,,,260,5.4,7.1,,0,,,,,,10,wg-a,,,,AAXX 05184 07621 12140 82608 10060 20050 39628 40064 51004 60007 71065 885// 91800 333 10071 20054=
07621,1996-12-05 21:00:00,5,1007.3,0.9,93,4,8000,7.408,,,200,,,,,,,,,,,wg-a,,,,AAXX 05214 07621 12358 82004 10050 20040 39637 40073 52009 60006 885// 92100=
07621,1996-12-06 00:00:00,3,1007.4,-0.3,100,3,8000,3.704,,,260,,,,,,,,,,,wg-a,,,,AAXX 06004 07621 12358 82602 10030 20030 39634 40074 58003 60006 887// 90000=
07621,1996-12-06 03:00:00,4,1008,0.8,100,4,8000,7.408,,,160,,,,,,,,,,,wg-a,,,,AAXX 06034 07621 12258 81604 10040 20040 39642 40080 53008 60006 886// 90300=
07621,1996-12-06 06:00:00,3,1008.9,0.6,93,2,10000,7.408,,,200,3,5.5,,,,,7,,,,wg-a,,,,AAXX 06064 07621 02260 52004 10030 20020 39648 40089 53006 60006 8/500 90600 333 10055 20030 60074=
07621,1996-12-06 09:00:00,5,1011.2,2.5,100,5,10000,7.408,,,160,,,,,,,,,,,wg-a,,,,AAXX 06094 07621 12360 /1604 10050 20050 39673 40112 51025 60006 85500 90900=
07621,1996-12-06 12:00:00,9,1011.8,1.2,81,6,20000,3.704,,,160,,,,,,,,,,,wg-a,,,,AAXX 06124 07621 12470 71602 10090 20060 39685 40118 51012 60006 878// 91200=
07621,1996-12-06 15:00:00,9,1011.8,0.1,81,6,20000,3.704,,,10,,,,,,,,,,,wg-a,,,,AAXX 06154 07621 12470 70102 10090 20060 39686 40118 53001 60006 878// 91500=
07621,1996-12-06 18:00:00,7,1013.8,1.6,93,6,12000,3.704,,,170,2.2,9.3,,,,,,,,,wg-a,,,,AAXX 06184 07621 12462 71702 10070 20060 39702 40138 51016 60006 875// 91800 333 10093 20022=
07621,1996-12-06 21:00:00,7,1014.4,0.5,93,6,8000,3.704,,,130,,,,,,,,,,,wg-a,,,,AAXX 06214 07621 12458 71302 10070 20060 39707 40144 51005 60006 875// 92100=
07621,1996-12-07 00:00:00,7,1014.5,0,93,6,8000,7.408,,,230,,,,2,,,,,,60,wg-a,,,,AAXX 07004 07621 02458 72304 10070 20060 39707 40145 50000 60026 76062 875// 90000 333 60027=
07621,1996-12-07 03:00:00,7,1014.1,-0.3,93,6,8000,11.112,,,220,,,,1,,,,,,60,wg-a,,,,AAXX 07034 07621 12458 72206 10070 20060 39704 40141 57003 60017 76066 875// 90300=
07621,1996-12-07 06:00:00,7,1015.1,0.9,93,6,6000,3.704,,,200,6.5,7.4,,,,,3,,,2,wg-a,,,,AAXX 07064 07621 02256 72002 10070 20060 39713 40151 53009 60034 70262 876// 90600 333 10074 20065 61000=
07621,1996-12-07 09:00:00,7,1016.7,1.6,93,6,8000,3.704,,,130,,,,,,,,,,,wg-a,,,,AAXX 07094 07621 12258 71302 10070 20060 39729 40167 53016 60006 86502 90900=
07621,1996-12-07 12:00:00,8,1017.3,0.8,87,6,10000,0,,,0,,,,,,,,,,,wg-a,,,,AAXX 07124 07621 12360 70000 10080 20060 39737 40173 51008 60006 878// 91200=
07621,1996-12-07 15:00:00,10,1017.5,0.4,82,7,12000,0,,,0,,,,,,,,,,,wg-a,,,,AAXX 07154 07621 12462 70000 10100 20070 39741 40175 53004 60006 86832 91500=
07621,1996-12-07 18:00:00,8,1018.9,1.1,93,7,500,3.704,,,30,6.5,9.5,,,,,,,,,wg-a,,,,AAXX 07184 07621 12300 70302 10080 20070 39752 40189 52011 60006 875// 91800 333 10095 20065=
07621,1996-12-07 21:00:00,7,1019.4,0.3,93,6,1200,0,,,0,,,,0,,,,,,10,wg-a,,,,AAXX 07214 07621 12112 70000 10070 20060 39755 40194 50003 60007 71062 875// 92100=
07621,1996-12-08 00:00:00,7,1019.7,0.4,100,7,1200,7.408,,,280,,,,0,,,,,,10,wg-a,,,,AAXX 08004 07621 02112 82804 10070 20070 39759 40197 50004 60016 71064 887// 90000 333 60007=
07621,1996-12-08 03:00:00,7,1019.3,-0.4,100,7,1200,3.704,,,190,,,,1,,,,,,10,wg-a,,,,AAXX 08034 07621 12112 81902 10070 20070 39755 40193 58004 60017 71066 887// 90300=
07621,1996-12-08 06:00:00,7,1018.2,-1.1,100,7,1500,0,,,0,6.3,8.1,,0,,,2,,,10,wg-a,,,,AAXX 08064 07621 02215 80000 10070 20070 39744 40182 56011 60024 71055 887// 90600 333 10081 20063 60007=
07621,1996-12-08 09:00:00,8,1018.8,0.6,100,8,1500,3.704,,,10,,,,1,,,,,,10,wg-a,,,,AAXX 08094 07621 12115 80102 10080 20080 39750 40188 53006 60017 71055 887// 90900=
07621,1996-12-08 12:00:00,9,1017.6,-0.9,100,9,4000,11.112,,,30,,,,1,,,,,,10,wg-a,,,,AAXX 08124 07621 02140 70306 10090 20090 39741 40176 58009 60016 71065 875// 91200 333 60017=
07621,1996-12-08 15:00:00,9,1016.9,-0.7,93,8,6000,7.408,,,30,,,,1,,,,,,61,wg-a,,,,AAXX 08154 07621 12456 70304 10090 20080 39734 40169 56007 60017 76162 875// 91500=
07621,1996-12-08 18:00:00,8,1017.3,0.3,100,8,3000,7.408,,,30,7.3,9,,,,,,,,10,wg-a,,,,AAXX 08184 07621 32/30 /0304 10080 20080 39737 40173 52003 710// 91800 333 10090 20073=
07621,1996-12-08 21:00:00,8,1017.6,0.3,100,8,4000,7.408,,,30,,,,4,,,,,,10,wg-a,,,,AAXX 08214 07621 12140 70304 10080 20080 39740 40176 51003 60047 71065 877// 92100=
07621,1996-12-09 00:00:00,8,1017.2,-0.4,100,8,3000,0,,,0,,,,1,,,,,,10,wg-a,,,,AAXX 09004 07621 02130 70000 10080 20080 39736 40172 58004 60056 71065 877// 90000 333 60017=
07621,1996-12-09 03:00:00,8,1016.6,-0.7,93,7,4000,0,,,0,,,,0,,,,,,10,wg-a,,,,AAXX 09034 07621 12240 70000 10080 20070 39729 40166 58007 60007 71065 877// 90300=
07621,1996-12-09 06:00:00,7,1016.5,-0.2,93,6,3000,3.704,,,20,6.6,8.4,,,,,9,,,10,wg-a,,,,AAXX 09064 07621 12130 70202 10070 20060 39727 40165 56002 60094 71065 877// 90600 333 10084 20066=
07621,1996-12-09 09:00:00,7,1017.4,0.9,93,6,6000,0,,,0,,,,0,,,,,,21,wg-a,,,,AAXX 09094 07621 12156 80000 10070 20060 39736 40174 52009 60007 72165 8657/ 90900=
07621,1996-12-09 12:00:00,8,1016.3,-0.9,93,7,8000,7.408,,,70,,,,0,,,,,,21,wg-a,,,,AAXX 09124 07621 02158 80704 10080 20070 39727 40163 58009 60016 72165 8657/ 91200 333 60007=
07621,1996-12-09 15:00:00,8,1015.7,-0.5,93,7,13000,7.408,,,130,,,,1,,,,,,21,wg-a,,,,AAXX 09154 07621 12463 81304 10080 20070 39722 40157 55005 60017 72162 875// 91500=
07621,1996-12-09 18:00:00,7,1016.3,0.4,93,6,8000,3.704,,,30,6.4,8.5,,1,,,,,,60,wg-a,,,,AAXX 09184 07621 12558 80302 10070 20060 39726 40163 51004 60017 76062 875// 91800 333 10085 20064=
07621,1996-12-09 21:00:00,6,1015.6,-0.9,93,5,6000,0,,,0,,,,,,,,,,1,wg-a,,,,AAXX 09214 07621 02556 50000 10060 20050 39717 40156 57009 61000 70162 84502 92100 333 ////=
07621,1996-12-10 00:00:00,3,1014.7,-1.3,100,3,3000,3.704,,,250,,,,,,,,,,10,wg-a,,,,AAXX 10004 07621 02130 72502 10030 20030 39704 40147 57013 61000 71062 84532 90000 333 ////=
07621,1996-12-10 03:00:00,3,1013.7,-1.1,100,3,7000,7.408,,,180,,,,,,,,,,,wg-a,,,,AAXX 10034 07621 12657 41804 10030 20030 39693 40137 58011 60006 82502 90300=
07621,1996-12-10 06:00:00,3,1013.2,-0.4,100,3,10000,7.408,,,190,2,7.3,,,,,2,,,,wg-a,,,,AAXX 10064 07621 12560 71904 10030 20030 39689 40132 56004 60024 865// 90600 333 10073 20020=
07621,1996-12-10 09:00:00,4,1013.4,0.4,100,4,12000,3.704,,,280,,,,,,,,,,11,wg-a,,,,AAXX 10094 07621 12562 62802 10040 20040 39693 40134 53004 60006 71122 83542 90900=
07621,1996-12-10 12:00:00,9,1011.7,-0.8,81,6,500,3.704,,,30,,,,,,,,,,,wg-a,,,,AAXX 10124 07621 12600 40302 10090 20060 39685 40117 58008 60006 82542 91200=
07621,1996-12-10 15:00:00,10,1010.9,-0.7,87,8,500,11.112,,,30,,,,,,,,,,,wg-a,,,,AAXX 10154 07621 12500 40306 10100 20080 39678 40109 55007 60006 84202 91500=
07621,1996-12-10 18:00:00,7,1012,0.6,93,6,200,3.704,,,110,2.2,11.2,,,,,,,,45,wg-a,,,,AAXX 10184 07621 12/02 91102 10070 20060 39684 40120 50006 60006 74541 89/// 91800 333 10112 20022=
07621,1996-12-10 21:00:00,6,1012.7,0.5,93,5,800,3.704,,,80,,,,,,,,,,45,wg-a,,,,AAXX 10214 07621 12/08 90802 10060 20050 39689 40127 51005 60006 74542 89/// 92100=
07621,1996-12-11 00:00:00,3,1012.5,-0.7,93,2,300,3.704,,,130,,,,,,,,,,45,wg-a,,,,AAXX 11004 07621 12/03 91302 10030 20020 39682 40125 57007 60006 74542 89/// 90000=
07621,1996-12-11 03:00:00,2,1012.4,-0.2,100,2,100,3.704,,,150,,,,,,,,,,45,wg-a,,,,AAXX 11034 07621 12/01 91502 10020 20020 39680 40124 58002 60006 74544 89/// 90300=
07621,1996-12-11 06:00:00,0,1012.3,-0.4,100,0,200,3.704,,,200,0.3,6.6,,,,,,,,43,wg-a,,,,AAXX 11064 07621 02/02 92002 10000 20000 39676 40123 55004 60006 74344 89/// 90600 333 10066 20003 60004=
07621,1996-12-11 09:00:00,1,1011.1,-1,100,1,2500,0,,,0,,,,,,,,,,10,wg-a,,,,AAXX 11094 07621 12125 50000 10010 20010 39666 40111 58010 60006 71041 83632 90900=
07621,1996-12-11 12:00:00,5,1009.7,-0.7,93,4,12000,3.704,,,60,,,,,,,,,,1,wg-a,,,,AAXX 11124 07621 12162 70602 10050 20040 39659 40097 58007 60006 70141 8423/ 91200=
07621,1996-12-11 15:00:00,7,1010,0.5,87,5,12000,0,,,0,,,,,,,,,,,wg-a,,,,AAXX 11154 07621 12762 /0000 10070 20050 39664 40100 53005 60006 83232 91500=
07621,1996-12-11 18:00:00,4,1009.1,-1.2,100,4,7000,3.704,,,200,-0.8,7,,,,,,,,,wg-a,,,,AAXX 11184 07621 12757 72002 10040 20040 39652 40091 58012 60006 83242 91800 333 10070 21008=
07621,1996-12-11 21:00:00,3,1009,-0.2,100,3,6000,7.408,,,180,,,,,,,,,,,wg-a,,,,AAXX 11214 07621 12756 71804 10030 20030 39650 40090 55002 60006 82542 92100=
07621,1996-12-12 00:00:00,4,1007.8,-1,93,3,10000,3.704,,,140,,,,,,,,,,,wg-a,,,,AAXX 12004 07621 12760 71402 10040 20030 39640 40078 56010 60006 82542 90000=
07621,1996-12-12 03:00:00,5,1008.3,0.6,93,4,10000,3.704,,,50,,,,,,,,,,,wg-a,,,,AAXX 12034 07621 12760 30502 10050 20040 39646 40083 53006 60006 81542 90300=
07621,1996-12-12 06:00:00,6,1009.2,0.9,87,4,10000,7.408,,,150,2.7,5.6,,,,,,,,,wg-a,,,,AAXX 12064 07621 02/60 /1504 10060 20040 39655 40092 53009 60006 84042 90600 333 10056 20027 60004=
07621,1996-12-12 09:00:00,8,1010.1,1.3,87,6,35000,3.704,,,150,,,,,,,,,,,wg-a,,,,AAXX 12094 07621 12781 21502 10080 20060 39668 40101 53013 60006 82540 90900=
07621,1996-12-12 12:00:00,17,1008.1,-0.7,48,6,35000,7.408,,,50,,,,,,,,,,,wg-a,,,,AAXX 12124 07621 12681 20504 10170 20060 39661 40081 58007 60006 81842 91200=
07621,1996-12-12 15:00:00,16,1006.5,-1.6,55,7,35000,3.704,,,80,,,,,,,,,,,wg-a,,,,AAXX 12154 07621 12681 /0802 10160 20070 39645 40065 56016 60006 83842 91500=
07621,1996-12-12 18:00:00,11,1006.1,-1.1,87,9,15000,3.704,,,310,4.5,17.7,,,,,,,,,wg-a,,,,AAXX 12184 07621 12765 73102 10110 20090 39634 40061 57011 60006 8353/ 91800 333 10177 20045=
07621,1996-12-12 21:00:00,10,1006.5,0.2,87,8,10000,3.704,,,180,,,,,,,,,,60,wg-a,,,,AAXX 12214 07621 02760 71802 10100 20080 39636 40065 53002 61000 76062 8557/ 92100 333 ////=
07621,1996-12-13 00:00:00,10,1004.9,-1.4,93,9,10000,11.112,,,170,,,,2,,,,,,61,wg-a,,,,AAXX 13004 07621 02260 81706 10100 20090 39622 40049 58014 60026 76162 8657/ 90000 333 60027=
07621,1996-12-13 03:00:00,9,1003.3,-1.7,93,8,11000,3.704,,,270,,,,,,,,,,,wg-a,,,,AAXX 13034 07621 32/61 /2702 10090 20080 39605 40033 55017 90300=
07621,1996-12-13 06:00:00,9,1001.9,-1.5,93,8,12000,11.112,,,220,8.6,11.7,,,,,2,,,2,wg-a,,,,AAXX 13064 07621 02762 72206 10090 20080 39590 40019 56015 60024 70262 83532 90600 333 10117 20086 61000=
07621,1996-12-13 09:00:00,10,1001.7,0.1,93,9,15000,7.408,,,60,,,,0,,,,,,21,wg-a,,,,AAXX 13094 07621 12765 70604 10100 20090 39591 40017 50001 60007 72162 8357/ 90900=
07621,1996-12-13 12:00:00,14,1000.2,-0.9,82,11,25000,0,,,0,,,,,,,,,,60,wg-a,,,,AAXX 13124 07621 02775 70000 10140 20110 39582 40002 58009 60016 76062 8227/ 91200 333 61000=
07621,1996-12-13 15:00:00,14,999,-1.1,88,12,25000,0,,,0,,,,,,,,,,1,wg-a,,,,AAXX 13154 07621 02775 70000 10140 20120 39571 49990 56011 61000 70162 82242 91500 333 ////=
07621,1996-12-13 18:00:00,8,1000.1,0.1,93,7,10000,7.408,,,210,7.9,14.7,,,,,,,,1,wg-a,,,,AAXX 13184 07621 32760 /2104 10080 20070 39572 40001 53001 70162 82242 91800 333 10147 20079=
07621,1996-12-13 21:00:00,10,999.8,-0.1,87,8,10000,14.816,,,210,,,,0,,,,,,61,wg-a,,,,AAXX 13214 07621 12560 72108 10100 20080 39571 49998 55001 60007 76162 8327/ 92100=
07621,1996-12-14 00:00:00,9,999.1,-0.8,93,8,10000,7.408,,,160,,,,2,,,,,,1,wg-a,,,,AAXX 14004 07621 02760 81604 10090 20080 39563 49991 58008 60026 70162 8257/ 90000 333 60027=
07621,1996-12-14 03:00:00,8,998.9,-0.3,100,8,10000,0,,,0,,,,,,,,,,,wg-a,,,,AAXX 14034 07621 12760 70000 10080 20080 39560 49989 55003 60006 82572 90300=
07621,1996-12-14 06:00:00,8,999.5,0.6,93,7,10000,7.408,,,200,6.9,9.5,,,,,3,,,,wg-a,,,,AAXX 14064 07621 12760 /2004 10080 20070 39566 49995 53006 60034 82572 90600 333 10095 20069=
07621,1996-12-14 09:00:00,9,1001.5,2.2,100,9,10000,3.704,,,190,,,,0,,,,,,51,wg-a,,,,AAXX 14094 07621 12360 81902 10090 20090 39588 40015 51022 60007 75165 887// 90900=
07621,1996-12-14 12:00:00,10,1004,2.4,93,9,8000,11.112,,,290,,,,3,,,,,,51,wg-a,,,,AAXX 14124 07621 02358 82906 10100 20090 39612 40040 51024 60046 75165 877// 91200 333 60037=
07621,1996-12-14 15:00:00,8,1007,2.7,100,8,3000,18.52,,,320,,,,1,,,,,,51,wg-a,,,,AAXX 14154 07621 12230 83210 10080 20080 39639 40070 53027 60017 75165 886// 91500=
07621,1996-12-14 18:00:00,7,1010.8,3.4,100,7,1800,22.224,,,290,6.8,10.2,,0,,,,,,50,wg-a,,,,AAXX 14184 07621 12118 82912 10070 20070 39673 40108 52034 60007 75065 886// 91800 333 10102 20068=
07621,1996-12-14 21:00:00,6,1013.1,2,100,6,3000,18.52,,,280,,,,,,,,,,10,wg-a,,,,AAXX 14214 07621 02130 82810 10060 20060 39693 40131 51020 61000 71052 886// 92100 333 ////=
07621,1996-12-15 00:00:00,5,1014.7,1.4,100,5,1500,11.112,,,290,,,,,,,,,,10,wg-a,,,,AAXX 15004 07621 02115 82906 10050 20050 39707 40147 51014 61000 71052 886// 90000 333 ////=
07621,1996-12-15 03:00:00,4,1016.1,1.1,93,3,4500,11.112,,,290,,,,,,,,,,10,wg-a,,,,AAXX 15034 07621 12245 82906 10040 20030 39718 40161 53011 60006 71022 855// 90300=
07621,1996-12-15 06:00:00,3,1016.2,0.1,100,3,6000,3.704,,,30,3.4,6.8,,,,,5,,,,wg-a,,,,AAXX 15064 07621 12356 80302 10030 20030 39719 40162 53001 60054 885// 90600 333 10068 20034=
07621,1996-12-15 09:00:00,3,1017.1,0.8,93,2,500,3.704,,,20,,,,,,,,,,,wg-a,,,,AAXX 15094 07621 12200 70202 10030 20020 39727 40171 51008 60006 875// 90900=
07621,1996-12-15 12:00:00,6,1016.1,-0.6,87,4,500,3.704,,,270,,,,,,,,,,,wg-a,,,,AAXX 15124 07621 12200 /2702 10060 20040 39721 40161 58006 60006 85200 91200=
07621,1996-12-15 15:00:00,6,1014.9,-1,81,3,8000,3.704,,,340,,,,,,,,,,,wg-a,,,,AAXX 15154 07621 12458 33402 10060 20030 39711 40149 56010 60006 83200 91500=
07621,1996-12-15 18:00:00,3,1016.3,0.8,93,2,6000,7.408,,,10,2.8,7,,,,,,,,,wg-a,,,,AAXX 15184 07621 12/56 00104 10030 20020 39719 40163 51008 60006 80000 91800 333 10070 20028=
07621,1996-12-15 21:00:00,1,1016.6,-0.1,93,0,200,3.704,,,180,,,,,,,,,,45,wg-a,,,,AAXX 15214 07621 12/02 91802 10010 20000 39718 40166 58001 60006 74541 89/// 92100=
07621,1996-12-16 00:00:00,-1,1016.5,-0.4,100,-1,100,3.704,,,180,,,,,,,,,,49,wg-a,,,,AAXX 16004 07621 12/01 91802 11010 21010 39714 40165 58004 60006 74941 89/// 90000=
07621,1996-12-16 03:00:00,-2,1015.6,-0.9,100,-2,15000,3.704,,,180,,,,,,,,,,28,wg-a,,,,AAXX 16034 07621 12/65 01802 11020 21020 39705 40156 56009 60006 72841 80000 90300=
07621,1996-12-16 06:00:00,-2,1015.5,-0.2,100,-2,15000,3.704,,,150,-1.9,3.2,,,,,,,,2,wg-a,,,,AAXX 16064 07621 02/65 01502 11020 21020 39703 40155 55002 60006 70241 80000 90600 333 10032 21019 60004=
07621,1996-12-16 09:00:00,2,1015.5,0.6,87,0,10000,3.704,,,110,,,,,,,,,,,wg-a,,,,AAXX 16094 07621 12/60 11102 10020 20000 39709 40155 53006 60006 80002 90900=
07621,1996-12-16 12:00:00,7,1013.9,-0.7,81,4,12000,7.408,,,10,,,,,,,,,,,wg-a,,,,AAXX 16124 07621 12/62 20104 10070 20040 39702 40139 58007 60006 80002 91200=
07621,1996-12-16 15:00:00,7,1012.8,-1,87,5,12000,7.408,,,30,,,,,,,,,,,wg-a,,,,AAXX 16154 07621 12/62 40304 10070 20050 39692 40128 55010 60006 81032 91500=
07621,1996-12-16 18:00:00,3,1013.4,-0.2,93,2,12000,3.704,,,270,-2.1,9.1,,,,,,,,,wg-a,,,,AAXX 16184 07621 12/62 /2702 10030 20020 39690 40134 57002 60006 81042 91800 333 10091 21021=
07621,1996-12-16 21:00:00,3,1014.3,1,100,3,10000,7.408,,,180,,,,,,,,,,,wg-a,,,,AAXX 16214 07621 12/60 51804 10030 20030 39700 40143 51010 60006 80002 92100=
07621,1996-12-17 00:00:00,4,1013.7,-0.5,81,1,10000,11.112,,,160,,,,,,,,,,,wg-a,,,,AAXX 17004 07621 12/60 31606 10040 20010 39695 40137 58005 60006 80002 90000=
07621,1996-12-17 03:00:00,4,1014.2,0.6,75,0,10000,14.816,,,160,,,,,,,,,,,wg-a,,,,AAXX 17034 07621 12/60 31608 10040 20000 39701 40142 53006 60006 80002 90300=
07621,1996-12-17 06:00:00,4,1014.3,0.1,75,0,15000,11.112,,,160,2.1,5.1,,,,,,,,,wg-a,,,,AAXX 17064 07621 02/65 01606 10040 20000 39702 40143 51001 60006 80000 90600 333 10051 20021 60004=
07621,1996-12-17 09:00:00,6,1014.3,0.2,75,2,35000,3.704,,,140,,,,,,,,,,,wg-a,,,,AAXX 17094 07621 12/81 71402 10060 20020 39704 40143 50002 60006 83032 90900=
07621,1996-12-17 12:00:00,11,1012.5,-0.9,62,4,35000,0,,,0,,,,,,,,,,,wg-a,,,,AAXX 17124 07621 12/81 70000 10110 20040 39695 40125 58009 60006 83032 91200=
07621,1996-12-17 15:00:00,13,1011,-1.1,67,7,25000,7.408,,,20,,,,,,,,,,,wg-a,,,,AAXX 17154 07621 12/75 10204 10130 20070 39684 40110 56011 60006 81042 91500=
07621,1996-12-17 18:00:00,5,1012.2,-0.1,87,3,15000,3.704,,,280,2.8,13.4,,,,,,,,,wg-a,,,,AAXX 17184 07621 12/65 22802 10050 20030 39683 40122 58001 60006 80002 91800 333 10134 20028=
07621,1996-12-17 21:00:00,5,1012.2,-0.1,87,3,15000,7.408,,,190,,,,,,,,,,,wg-a,,,,AAXX 17214 07621 12/65 31904 10050 20030 39682 40122 55001 60006 81042 92100=
07621,1996-12-18 00:00:00,4,1010.6,-1.6,93,3,15000,3.704,,,220,,,,,,,,,,,wg-a,,,,AAXX 18004 07621 12/65 32202 10040 20030 39666 40106 58016 60006 81042 90000=
07621,1996-12-18 03:00:00,4,1008.7,-1.8,93,3,15000,3.704,,,260,,,,,,,,,,,wg-a,,,,AAXX 18034 07621 12/65 32602 10040 20030 39648 40087 58018 60006 81042 90300=
07621,1996-12-18 06:00:00,4,1007.4,-1.2,100,4,15000,3.704,,,110,2.8,5.5,,,,,,,,,wg-a,,,,AAXX 18064 07621 02/65 41102 10040 20040 39636 40074 56012 60006 82042 90600 333 10055 20028 60004=
07621,1996-12-18 09:00:00,6,1007,-0.2,93,5,25000,3.704,,,330,,,,,,,,,,,wg-a,,,,AAXX 18094 07621 12/75 73302 10060 20050 39634 40070 55002 60006 82242 90900=
07621,1996-12-18 12:00:00,9,1005.1,-1.3,81,6,25000,3.704,,,20,,,,,,,,,,,wg-a,,,,AAXX 18124 07621 12/75 70202 10090 20060 39621 40051 58013 60006 82242 91200=
07621,1996-12-18 15:00:00,11,1003.7,-1,82,8,20000,7.408,,,340,,,,,,,,,,,wg-a,,,,AAXX 18154 07621 12/70 73404 10110 20080 39611 40037 56010 60006 8227/ 91500=
07621,1996-12-18 18:00:00,9,1004.5,0.5,93,8,10000,3.704,,,10,2.7,11,,,,,,,,60,wg-a,,,,AAXX 18184 07621 02660 70102 10090 20080 39616 40045 51005 61000 76062 8227/ 91800 333 10110 20027 6000=
07621,1996-12-18 21:00:00,9,1004.2,-0.2,100,9,6000,7.408,,,130,,,,2,,,,,,21,wg-a,,,,AAXX 18214 07621 12456 81304 10090 20090 39614 40042 58002 60027 72162 875// 92100=
07621,1996-12-19 00:00:00,8,1003.1,-1.3,100,8,1500,7.408,,,160,,,,,,,,,,10,wg-a,,,,AAXX 19004 07621 12/15 /1604 10080 20080 39601 40031 58013 60026 71062 86030 90000=
07621,1996-12-19 03:00:00,6,1002.3,-1,100,6,500,7.408,,,160,,,,,,,,,,45,wg-a,,,,AAXX 19034 07621 12/00 91604 10060 20060 39591 40023 58010 60006 74542 89/// 90300=
07621,1996-12-19 06:00:00,7,1000.9,-1.2,100,7,10000,11.112,,,170,5.3,9.6,,,,,2,,,2,wg-a,,,,AAXX 19064 07621 02760 71706 10070 20070 39579 40009 56012 60006 70242 8257/ 90600 333 10096 20053 60024=
07621,1996-12-19 09:00:00,9,1002,1.3,93,8,500,11.112,,,160,,,,,,,,,,,wg-a,,,,AAXX 19094 07621 12700 /1606 10090 20080 39592 40020 51013 60006 84820 90900=
07621,1996-12-19 12:00:00,16,1000.1,-0.8,72,11,35000,7.408,,,360,,,,,,,,,,,wg-a,,,,AAXX 19124 07621 12781 33604 10160 20110 39584 40001 58008 60006 82840 91200=
07621,1996-12-19 15:00:00,13,1001.5,0.8,67,7,25000,7.408,,29.632,330,,,,,,,,,,3,wg-a,,,,AAXX 19154 07621 02675 /3304 10130 20070 39592 40015 53008 61000 70386 85240 91500 333 //// 91016=
07621,1996-12-19 18:00:00,10,1003.6,1.6,87,8,10000,3.704,,,260,6.7,17.5,,,,,,,,21,wg-a,,,,AAXX 19184 07621 02560 72602 10100 20080 39608 40036 51016 61000 72186 8587/ 91800 333 10175 20067 6001=
07621,1996-12-19 21:00:00,6,1003.9,-0.3,93,5,10000,7.408,,,180,,,,,,,,,,,wg-a,,,,AAXX 19214 07621 12760 41804 10060 20050 39605 40039 58003 60006 81540 92100=
07621,1996-12-20 00:00:00,3,1003.1,-1.3,93,2,8000,7.408,,,210,,,,,,,,,,,wg-a,,,,AAXX 20004 07621 12/58 02104 10030 20020 39592 40031 58013 60006 80000 90000=
07621,1996-12-20 03:00:00,4,1001.2,-1.7,93,3,10000,7.408,,,170,,,,,,,,,,,wg-a,,,,AAXX 20034 07621 12/60 01704 10040 20030 39575 40012 56017 60006 80000 90300=
07621,1996-12-20 06:00:00,2,999.3,-2,100,2,10000,7.408,,,180,0.9,9.5,,,,,1,,,,wg-a,,,,AAXX 20064 07621 02/60 21804 10020 20020 39555 49993 56020 60006 80002 90600 333 10095 20009 60014=
07621,1996-12-20 09:00:00,3,1000.4,1.2,93,2,15000,7.408,,,160,,,,,,,,,,,wg-a,,,,AAXX 20094 07621 12765 /1604 10030 20020 39567 40004 53012 60006 85542 90900=
07621,1996-12-20 12:00:00,10,1000.2,0.8,71,5,500,7.408,,,130,,,,,,,,,,,wg-a,,,,AAXX 20124 07621 12800 51304 10100 20050 39575 40002 50008 60006 83542 91200=
07621,1996-12-20 15:00:00,12,998.7,-1.1,62,5,40000,3.704,,,50,,,,,,,,,,,wg-a,,,,AAXX 20154 07621 12882 20502 10120 20050 39564 49987 56011 60006 81502 91500=
07621,1996-12-20 18:00:00,4,999.7,-0.2,93,3,20000,3.704,,,230,1.1,12.7,,,,,,,,,wg-a,,,,AAXX 20184 07621 12/70 32302 10040 20030 39562 49997 58002 60006 81042 91800 333 10127 20011=
07621,1996-12-20 21:00:00,3,999.1,-0.7,100,3,20000,3.704,,,170,,,,,,,,,,,wg-a,,,,AAXX 20214 07621 12/70 61702 10030 20030 39555 49991 56007 60006 80002 92100=
07621,1996-12-21 00:00:00,4,998.4,-0.6,93,3,10000,3.704,,,10,,,,,,,,,,,wg-a,,,,AAXX 21004 07621 12/60 /0102 10040 20030 39549 49984 58006 60006 81042 90000=
07621,1996-12-21 03:00:00,3,996.6,-1.9,93,2,10000,3.704,,,210,,,,,,,,,,,wg-a,,,,AAXX 21034 07621 12/60 52102 10030 20020 39530 49966 56019 60006 82042 90300=
07621,1996-12-21 06:00:00,2,995.7,-0.9,100,2,10000,3.704,,,250,2,4.3,,,,,,,,,wg-a,,,,AAXX 21064 07621 02/60 /2502 10020 20020 39521 49957 55009 60006 82042 90600 333 10043 20020 60004=
07621,1996-12-21 09:00:00,5,996.2,0.8,93,4,15000,3.704,,,210,,,,,,,,,,,wg-a,,,,AAXX 21094 07621 12765 72102 10050 20040 39529 49962 50008 60006 84242 90900=
07621,1996-12-21 12:00:00,13,995.6,0.8,72,8,25000,18.52,,,40,,,,,,,,,,,wg-a,,,,AAXX 21124 07621 12775 40410 10130 20080 39537 49956 50008 60006 82242 91200=
07621,1996-12-21 15:00:00,12,997.3,1.5,76,8,25000,11.112,,,10,,,,,,,,,,,wg-a,,,,AAXX 21154 07621 12775 70106 10120 20080 39552 49973 53015 60006 84282 91500=
07621,1996-12-21 18:00:00,9,998.5,0.6,87,7,20000,11.112,,,160,2.5,15,,,,,,,,,wg-a,,,,AAXX 21184 07621 12770 /1606 10090 20070 39558 49985 50006 60006 82442 91800 333 10150 20025=
07621,1996-12-21 21:00:00,9,999.4,0.8,81,6,20000,7.408,,,150,,,,,,,,,,,wg-a,,,,AAXX 21214 07621 12/70 41504 10090 20060 39566 49994 51008 60006 82042 92100=
07621,1996-12-22 00:00:00,4,1000.6,0.5,93,3,20000,7.408,,,230,,,,,,,,,,,wg-a,,,,AAXX 22004 07621 12/70 /2304 10040 20030 39571 40006 50005 60006 82042 90000=
07621,1996-12-22 03:00:00,7,999.2,-0.9,87,5,20000,7.408,,,150,,,,,,,,,,,wg-a,,,,AAXX 22034 07621 12/70 81504 10070 20050 39562 49992 58009 60006 83042 90300=
07621,1996-12-22 06:00:00,5,999.1,-0.4,93,4,20000,0,,,0,4.2,9.2,,,,,,,,,wg-a,,,,AAXX 22064 07621 02/70 80000 10050 20040 39558 49991 55004 60006 85042 90600 333 10092 20042 60004=
07621,1996-12-22 09:00:00,7,999.8,0.9,93,6,20000,7.408,,,200,,,,,,,,,,,wg-a,,,,AAXX 22094 07621 12770 72004 10070 20060 39567 49998 53009 60006 83542 90900=
07621,1996-12-22 12:00:00,14,998.9,0.2,67,8,20000,0,,,0,,,,,,,,,,,wg-a,,,,AAXX 22124 07621 12770 70000 10140 20080 39569 49989 50002 60006 83842 91200=
07621,1996-12-22 15:00:00,13,998.4,-0.5,82,10,20000,3.704,,,40,,,,,,,,,,,wg-a,,,,AAXX 22154 07621 12770 70402 10130 20100 39564 49984 56005 60006 82572 91500=
07621,1996-12-22 18:00:00,12,999.2,0.5,82,9,15000,14.816,,,260,4.4,15.4,,,,,,,,,wg-a,,,,AAXX 22184 07621 12765 72608 10120 20090 39569 49992 53005 60006 8557/ 91800 333 10154 20044=
07621,1996-12-22 21:00:00,8,1000.4,0.6,100,8,20000,7.408,,,190,,,,1,,,,,,21,wg-a,,,,AAXX 22214 07621 12770 71904 10080 20080 39575 40004 51006 60017 72162 8457/ 92100=
07621,1996-12-23 00:00:00,5,1000.1,-0.7,100,5,11000,3.704,,,230,,,,,,,,,,,wg-a,,,,AAXX 23004 07621 12/61 /2302 10050 20050 39568 40001 57007 60016 90000=
07621,1996-12-23 03:00:00,6,999.1,-0.8,100,6,20000,7.408,,,180,,,,,,,,,,,wg-a,,,,AAXX 23034 07621 12770 /1804 10060 20060 39560 49991 56008 60006 85540 90300=
07621,1996-12-23 06:00:00,8,998.9,-0,87,6,10000,11.112,,,180,4.8,11.5,,,,,1,,,,wg-a,,,,AAXX 23064 07621 02760 /1806 10080 20060 39560 49989 55000 60006 82542 90600 333 10115 20048 60014=
07621,1996-12-23 09:00:00,10,998.7,0.2,82,7,500,3.704,,,180,,,,,,,,,,,wg-a,,,,AAXX 23094 07621 12700 /1802 10100 20070 39562 49987 53002 60006 81542 90900=
07621,1996-12-23 12:00:00,15,997.3,-0.6,63,8,500,7.408,,,270,,,,,,,,,,,wg-a,,,,AAXX 23124 07621 12700 62704 10150 20080 39556 49973 58006 60006 81882 91200=
07621,1996-12-23 15:00:00,15,996.4,-0.9,67,9,500,11.112,,,20,,,,,,,,,,,wg-a,,,,AAXX 23154 07621 12700 50206 10150 20090 39547 49964 56009 60006 81882 91500=
07621,1996-12-23 18:00:00,9,997.9,0.5,87,7,500,7.408,,,190,6.6,16.6,,,,,,,,,wg-a,,,,AAXX 23184 07621 12600 41904 10090 20070 39552 49979 51005 60006 82532 91800 333 10166 20066=
07621,1996-12-23 21:00:00,8,997.3,-0.7,93,7,20000,3.704,,,160,,,,,,,,,,2,wg-a,,,,AAXX 23214 07621 02770 61602 10080 20070 39545 49973 58007 61000 70261 84532 92100 333 ////=
07621,1996-12-24 00:00:00,8,996.9,-0.4,93,7,100,3.704,,,180,,,,,,,,,,45,wg-a,,,,AAXX 24004 07621 02/01 91802 10080 20070 39541 49969 58004 61000 74564 89/// 90000 333 ////=
07621,1996-12-24 03:00:00,7,996.5,-0.6,87,5,10000,3.704,,,110,,,,,,,,,,28,wg-a,,,,AAXX 24034 07621 12760 61102 10070 20050 39535 49965 55006 60006 72842 84530 90300=
07621,1996-12-24 06:00:00,6,995.7,-0.8,100,6,15000,3.704,,,180,5.4,9.3,,,,,,,,3,wg-a,,,,AAXX 24064 07621 02765 71802 10060 20060 39527 49957 57008 60006 70342 84532 90600 333 10093 20054 61000=
07621,1996-12-24 09:00:00,10,995.2,0.1,82,7,25000,3.704,,,150,,,,,,,,,,,wg-a,,,,AAXX 24094 07621 12675 71502 10100 20070 39528 49952 52001 60006 8684/ 90900=
07621,1996-12-24 12:00:00,11,995,0,82,8,25000,3.704,,,70,,,,,,,,,,,wg-a,,,,AAXX 24124 07621 12875 70702 10110 20080 39528 49950 50000 60006 82272 91200=
07621,1996-12-24 15:00:00,11,995.9,0.8,87,9,10000,14.816,,,30,,,,,,,,,,,wg-a,,,,AAXX 24154 07621 12460 70308 10110 20090 39536 49959 53008 60006 8593/ 91500=
07621,1996-12-24 18:00:00,7,999.9,3.3,93,6,10000,14.816,,,200,4.1,11.6,,,,,,,,21,wg-a,,,,AAXX 24184 07621 02460 72008 10070 20060 39569 49999 51033 61000 72198 878// 91800 333 10116 20041 6009=
07621,1996-12-24 21:00:00,8,1001.9,2,93,7,10000,14.816,,,230,,,,0,,,,,,21,wg-a,,,,AAXX 24214 07621 12560 72308 10080 20070 39589 40019 51020 60007 72165 878// 92100=
07621,1996-12-25 00:00:00,8,1004.6,2.5,93,7,6000,22.224,,,250,,,,3,,,,,,60,wg-a,,,,AAXX 25004 07621 02356 72512 10080 20070 39614 40046 53025 60036 76065 875// 90000 333 60037=
07621,1996-12-25 03:00:00,7,1007.1,2.4,93,6,6000,29.632,,,280,,,,1,,,,,,60,wg-a,,,,AAXX 25034 07621 12356 82816 10070 20060 39638 40071 53024 60017 76066 877// 90300=
07621,1996-12-25 06:00:00,7,1008.6,1.3,93,6,8000,14.816,,,260,6.6,8.5,,,,,,,,21,wg-a,,,,AAXX 25064 07621 02358 72608 10070 20060 39651 40086 51013 61000 72162 878// 90600 333 10085 20066 6013=
07621,1996-12-25 09:00:00,7,1010.2,1.5,93,6,8000,7.408,,,310,,,,,,,,,,,wg-a,,,,AAXX 25094 07621 12358 73104 10070 20060 39666 40102 53015 60006 877// 90900=
07621,1996-12-25 12:00:00,2,1015,3.8,93,1,3000,14.816,,,240,,,,9,,,,,,10,wg-a,,,,AAXX 25124 07621 02330 72408 10020 20010 39704 40150 51038 60096 71076 875// 91200 333 60097=
07621,1996-12-25 15:00:00,5,1015.8,1.3,93,4,15000,14.816,,,230,,,,2,,,,,,23,wg-a,,,,AAXX 25154 07621 12665 72308 10050 20040 39717 40158 53013 60027 72376 875// 91500=
07621,1996-12-25 18:00:00,4,1018.8,2.8,87,2,15000,14.816,,,250,1.5,6.6,,,,,,,,3,wg-a,,,,AAXX 25184 07621 12565 /2508 10040 20020 39745 40188 51028 60006 70376 86800 91800 333 10066 20015=
07621,1996-12-25 21:00:00,5,1019.9,1.2,87,3,8000,25.928,,,260,,,,,,,,,,60,wg-a,,,,AAXX 25214 07621 02358 72614 10050 20030 39757 40199 51012 61000 76062 875// 92100 333 ////=
07621,1996-12-26 00:00:00,5,1021.9,1.8,93,4,500,18.52,,,280,,,,2,,,,,,60,wg-a,,,,AAXX 26004 07621 02200 72810 10050 20040 39775 40219 53018 60026 76062 877// 90000 333 60027=
07621,1996-12-26 06:00:00,1,1026.8,2,93,0,500,11.112,,,250,0.7,5.6,,,,,13,,,2,wg-a,,,,AAXX 26064 07621 02300 72506 10010 20000 39816 40268 53020 60006 70262 877// 90600 333 10056 20007 60134=
07621,1996-12-26 09:00:00,0,1029.3,2.3,93,-1,9000,22.224,,,240,,,,,,,,,,,wg-a,,,,AAXX 26094 07621 12359 /2412 10000 21010 39839 40293 52023 60006 86600 90900=
07621,1996-12-26 12:00:00,3,1029.8,0.8,81,0,15000,18.52,,,260,,,,,,,,,,,wg-a,,,,AAXX 26124 07621 12365 /2610 10030 20000 39847 40298 50008 60006 81600 91200=
07621,1996-12-26 15:00:00,3,1030.2,0.5,75,-1,25000,11.112,,,310,,,,,,,,,,,wg-a,,,,AAXX 26154 07621 12/75 03106 10030 21010 39852 40302 53005 60006 80000 91500=
07621,1996-12-26 18:00:00,-1,1032.6,1.5,86,-3,10000,3.704,,,240,-1.3,4.2,,,,,,,,,wg-a,,,,AAXX 26184 07621 12/60 02402 11010 21030 39867 40326 51015 60006 80000 91800 333 10042 21013=
07621,1996-12-26 21:00:00,-3,1032.7,-0.1,100,-3,8000,0,,,0,,,,,,,,,,,wg-a,,,,AAXX 26214 07621 12458 /0000 11030 21030 39866 40327 58001 60006 85500 92100=
07621,1996-12-27 00:00:00,-3,1032.5,-0.3,93,-4,8000,3.704,,,290,,,,,,,,,,,wg-a,,,,AAXX 27004 07621 12458 /2902 11030 21040 39863 40325 55003 60006 86500 90000=
07621,1996-12-27 03:00:00,-3,1030.8,-1.5,93,-4,10000,7.408,,,160,,,,,,,,,,,wg-a,,,,AAXX 27034 07621 12360 /1604 11030 21040 39848 40308 58015 60006 81500 90300=
07621,1996-12-27 06:00:00,-4,1028.9,-2.1,93,-5,10000,3.704,,,190,-4.2,-1.2,,,,,,,,,wg-a,,,,AAXX 27064 07621 02/60 11902 11040 21050 39827 40289 56021 60006 80001 90600 333 11012 21042 60004=
07621,1996-12-27 09:00:00,-3,1026.5,-2.1,93,-4,500,3.704,,,20,,,,,,,,,,,wg-a,,,,AAXX 27094 07621 12/00 60202 11030 21040 39806 40265 58021 60006 80002 90900=
07621,1996-12-27 12:00:00,2,1023.3,-2.2,80,-1,500,0,,,0,,,,,,,,,,,wg-a,,,,AAXX 27124 07621 12/00 /0000 10020 21010 39784 40233 58022 60006 84032 91200=
07621,1996-12-27 15:00:00,5,1020.9,-1.8,75,1,500,7.408,,,10,,,,,,,,,,,wg-a,,,,AAXX 27154 07621 12/00 20104 10050 20010 39766 40209 58018 60006 81032 91500=
07621,1996-12-27 18:00:00,-1,1020.1,-1.7,93,-2,10000,7.408,,,190,-4.8,6.7,,,,,,,,,wg-a,,,,AAXX 27184 07621 12/60 31904 11010 21020 39749 40201 58017 60006 80002 91800 333 10067 21048=
07621,1996-12-27 21:00:00,-1,1019.1,-1,93,-2,10000,0,,,0,,,,,,,,,,,wg-a,,,,AAXX 27214 07621 12/60 60000 11010 21020 39739 40191 56010 60006 82032 92100=
07621,1996-12-28 00:00:00,-2,1017.3,-1.9,93,-3,10000,11.112,,,200,,,,,,,,,,,wg-a,,,,AAXX 28004 07621 12/60 22006 11020 21030 39720 40173 56019 60006 81032 90000=
07621,1996-12-28 03:00:00,-2,1015.9,-1.3,86,-4,10000,3.704,,,160,,,,,,,,,,,wg-a,,,,AAXX 28034 07621 12/60 11602 11020 21040 39707 40159 58013 60006 81032 90300=
07621,1996-12-28 06:00:00,-3,1016.3,0.2,93,-4,10000,3.704,,,250,-3.1,1.4,,,,,,,,,wg-a,,,,AAXX 28064 07621 02/60 12502 11030 21040 39709 40163 53002 60006 80002 90600 333 10014 21031 60004=
07621,1996-12-28 12:00:00,1,1014.2,-1.7,51,-8,15000,7.408,,,340,,,,,,,,,,2,wg-a,,,,AAXX 28124 07621 12/65 23404 10010 21080 39695 40142 58017 60006 70240 80002 91200=
07621,1996-12-28 18:00:00,-2,1013.5,-0.1,80,-5,15000,3.704,,,70,-6.1,4.9,,,,,,,,,wg-a,,,,AAXX 28184 07621 12/65 20702 11020 21050 39683 40135 58001 60006 80002 91800 333 10049 21061=
07621,1996-12-28 21:00:00,-5,1014,0.1,93,-6,10000,3.704,,,180,,,,,,,,,,,wg-a,,,,AAXX 28214 07621 12/60 41802 11050 21060 39684 40140 53001 60006 80002 92100=
07621,1996-12-29 00:00:00,-6,1013,-1.1,93,-7,10000,3.704,,,180,,,,,,,,,,,wg-a,,,,AAXX 29004 07621 12/60 01802 11060 21070 39673 40130 57011 60006 80000 90000=
07621,1996-12-29 03:00:00,-7,1012.3,-0.9,93,-8,10000,0,,,0,,,,,,,,,,,wg-a,,,,AAXX 29034 07621 12/60 00000 11070 21080 39664 40123 56009 60006 80000 90300=
07621,1996-12-29 06:00:00,-7,1011.8,-0.5,93,-8,10000,7.408,,,170,-7.3,-2.3,,,,,,,,,wg-a,,,,AAXX 29064 07621 02/60 01704 11070 21080 39659 40118 57005 60006 80000 90600 333 11023 21073 60004=
07621,1996-12-29 09:00:00,-5,1011.6,0.2,93,-6,15000,3.704,,,190,,,,,,,,,,,wg-a,,,,AAXX 29094 07621 12/65 01902 11050 21060 39661 40116 50002 60006 80000 90900=
07621,1996-12-29 12:00:00,-2,1011.2,0.1,86,-4,6000,11.112,,,10,,,,,,,,,,,wg-a,,,,AAXX 29124 07621 12256 20106 11020 21040 39662 40112 50001 60006 82600 91200=
07621,1996-12-29 15:00:00,-2,1010.7,-0.5,86,-4,3000,11.112,,,20,,,,,,,,,,10,wg-a,,,,AAXX 29154 07621 12230 /0206 11020 21040 39657 40107 56005 60006 71000 81600 91500=
07621,1996-12-29 18:00:00,-3,1011.2,0.2,93,-4,2000,7.408,,,50,-7.6,-1,,,,,,,,10,wg-a,,,,AAXX 29184 07621 12120 70504 11030 21040 39659 40112 50002 60006 71011 876// 91800 333 11010 21076=
07621,1996-12-29 21:00:00,-4,1010.9,-0.4,93,-5,300,7.408,,,60,,,,,,,,,,49,wg-a,,,,AAXX 29214 07621 12/03 90604 11040 21050 39655 40109 58004 60006 74942 89/// 92100=
07621,1996-12-30 00:00:00,-4,1009.8,-1,93,-5,800,3.704,,,80,,,,,,,,,,48,wg-a,,,,AAXX 30004 07621 12108 80802 11040 21050 39645 40098 58010 60006 74842 886// 90000=
07621,1996-12-30 03:00:00,-4,1008.7,-1.1,93,-5,3000,0,,,0,,,,,,,,,,10,wg-a,,,,AAXX 30034 07621 12230 80000 11040 21050 39634 40087 58011 60006 71042 886// 90300=
07621,1996-12-30 06:00:00,-4,1008,-0.6,100,-4,3000,3.704,,,40,-4.5,-3.3,,,,,,,,10,wg-a,,,,AAXX 30064 07621 02230 80402 11040 21040 39628 40080 56006 60006 71042 886// 90600 333 11033 21045 60004=
07621,1996-12-30 09:00:00,-4,1008.2,0.2,100,-4,1200,3.704,,,10,,,,,,,,,,10,wg-a,,,,AAXX 30094 07621 12112 80102 11040 21040 39630 40082 53002 60006 71022 886// 90900=
07621,1996-12-30 12:00:00,-1,1007.3,-0.4,93,-2,2000,3.704,,,250,,,,,,,,,,10,wg-a,,,,AAXX 30124 07621 12220 72502 11010 21020 39626 40073 58004 60006 71022 875// 91200=
07621,1996-12-30 15:00:00,2,1005.9,-0.9,69,-3,6000,7.408,,,20,,,,,,,,,,,wg-a,,,,AAXX 30154 07621 12256 20204 10020 21030 39617 40059 55009 60006 81602 91500=
07621,1996-12-30 18:00:00,-5,1007.7,0.7,100,-5,100,7.408,,,210,-4.7,3.1,,,,,,,,48,wg-a,,,,AAXX 30184 07621 12001 72104 11050 21050 39624 40077 51007 60006 74841 876// 91800 333 10031 21047=
07621,1996-12-30 21:00:00,-5,1007.6,-0.2,93,-6,4000,11.112,,,170,,,,,,,,,,40,wg-a,,,,AAXX 30214 07621 12240 31706 11050 21060 39622 40076 58002 60006 74041 83600 92100=
07621,1996-12-31 00:00:00,-5,1007.1,-0.5,93,-6,3000,0,,,0,,,,,,,,,,40,wg-a,,,,AAXX 31004 07621 12730 /0000 11050 21060 39617 40071 58005 60006 74041 85500 90000=
07621,1996-12-31 03:00:00,-5,1006.9,-0.1,93,-6,4000,7.408,,,350,,,,,,,,,,10,wg-a,,,,AAXX 31034 07621 12340 73504 11050 21060 39616 40069 55001 60006 71022 875// 90300=
07621,1996-12-31 06:00:00,-5,1006.5,-0.4,100,-5,4000,0,,,0,-7,-3.8,,,,,,,,10,wg-a,,,,AAXX 31064 07621 02240 80000 11050 21050 39612 40065 55004 60006 71022 885// 90600 333 11038 21070 60004=
07621,1996-12-31 09:00:00,-4,1006.5,0.2,93,-5,4000,3.704,,,50,,,,,,,,,,10,wg-a,,,,AAXX 31094 07621 12240 70502 11040 21050 39614 40065 52002 60006 71022 8553/ 90900=
07621,1996-12-31 12:00:00,-2,1005.3,-0.8,100,-2,4000,11.112,,,20,,,,,,,,,,10,wg-a,,,,AAXX 31124 07621 12240 70206 11020 21020 39606 40053 58008 60006 71022 8667/ 91200=
07621,1996-12-31 18:00:00,-2,1005.5,0.2,93,-3,4000,7.408,,,60,-4.8,-0.7,,,,,,,,10,wg-a,,,,AAXX 31184 07621 12/40 20604 11020 21030 39607 40055 50002 60006 71011 82030 91800 333 11007 21048=
07621,1996-12-31 21:00:00,-3,1006.4,0.8,100,-3,6000,3.704,,,60,,,,,,,,,,,wg-a,,,,AAXX 31214 07621 12/56 70602 11030 21030 39615 40064 51008 60006 8703/ 92100=
