station_id,dh_utc,temperature,pression,pression_variation_3h,humidite,point_de_rosee,visibilite,vent_moyen,vent_rafales,vent_rafales_10min,vent_direction,temperature_min,temperature_max,pluie_1h,pluie_3h,pluie_6h,pluie_12h,pluie_24h,ensoleillement,temperature_sol,temps_omm,source,radiations,neige_au_sol,nebulosite,raw_msg
07299,1997-01-01 00:00:00,-10,1015,-1.4,92,-11,1700,11.112,,,350,,,,,,,,,,10,wg-a,,,,AAXX 01004 07299 12217 83506 11100 21110 39801 40150 56014 60006 710// 886// 90000=
07299,1997-01-01 03:00:00,-12,1014.9,-0.3,92,-13,1700,11.112,,,340,,,,,,,,,,10,wg-a,,,,AAXX 01034 07299 12217 83406 11120 21130 39798 40149 55003 60006 710// 886// 90300=
07299,1997-01-01 06:00:00,-12,1016,1,85,-14,1800,11.112,,,330,-12.3,-8.7,,,,,,,,10,wg-a,,5,,AAXX 01064 07299 02318 83306 11120 21140 39808 40160 53010 60006 71022 886// 90600 333 11087 21123 4/005 61000=
07299,1997-01-01 09:00:00,-13,1018.2,1.9,85,-15,2000,7.408,,,310,,,,0,,,,,,10,wg-a,,,,AAXX 01094 07299 12220 73104 11130 21150 39827 40182 51019 60007 71072 875// 90900=
07299,1997-01-01 12:00:00,-11,1019.3,1.4,85,-13,2500,11.112,,,330,,,,,,,,,,10,wg-a,,,,AAXX 01124 07299 12425 83306 11110 21130 39841 40193 53014 60006 71074 875// 91200=
07299,1997-01-01 15:00:00,-11,1020.4,1.1,85,-13,2200,3.704,,,250,,,,,,,,,,10,wg-a,,,,AAXX 01154 07299 12422 82502 11110 21130 39852 40204 51011 60006 71022 875// 91500=
07299,1997-01-01 18:00:00,-10,1021,0.6,85,-12,2000,3.704,,,320,-13.5,-10.3,,,,,,,,10,wg-a,,6,,AAXX 01184 07299 12420 83202 11100 21120 39858 40210 52006 60006 71022 875// 91800 333 11103 21135 4/006=
07299,1997-01-01 21:00:00,-10,1022.3,1.3,85,-12,2000,3.704,,,320,,,,,,,,,,10,wg-a,,,,AAXX 01214 07299 02420 83202 11100 21120 39871 40223 51013 61000 71072 875// 92100 333 ////=
07299,1997-01-02 00:00:00,-10,1023.3,0.9,85,-12,2000,7.408,,,330,,,,,,,,,,22,wg-a,,,,AAXX 02004 07299 02320 83304 11100 21120 39880 40233 51009 61000 7227/ 875// 90000 333 6100=
07299,1997-01-02 03:00:00,-12,1022.3,-1.1,92,-13,3500,7.408,,,320,,,,,,,,,,10,wg-a,,,,AAXX 02034 07299 12735 43204 11120 21130 39869 40223 58011 60006 7101/ 84500 90300=
07299,1997-01-02 06:00:00,-13,1021.8,-0.6,92,-14,3000,7.408,,,300,-13.7,-10.3,,,,,,,,10,wg-a,,5,,AAXX 02064 07299 02430 73004 11130 21140 39863 40218 55006 60006 71011 876// 90600 333 11103 21137 4/005 60004=
07299,1997-01-02 09:00:00,-13,1021.7,-0.1,92,-14,1300,7.408,,,310,,,,,,,,,,10,wg-a,,,,AAXX 02094 07299 12113 83104 11130 21140 39862 40217 56001 60006 71022 886// 90900=
07299,1997-01-02 12:00:00,-11,1018.8,-2.6,85,-13,1500,7.408,,,320,,,,,,,,,,10,wg-a,,,,AAXX 02124 07299 12215 83204 11110 21130 39836 40188 58026 60006 71022 8562/ 91200=
07299,1997-01-02 15:00:00,-10,1016.8,-1.8,85,-12,1500,7.408,,,350,,,,,,,,,,10,wg-a,,,,AAXX 02154 07299 12215 83504 11100 21120 39818 40168 56018 60006 71022 8462/ 91500=
07299,1997-01-02 18:00:00,-11,1015.4,-1.4,92,-12,1300,11.112,,,330,-12.9,-10,,,,,,,,10,wg-a,,4,,AAXX 02184 07299 12113 83306 11110 21120 39804 40154 56014 60006 71022 8562/ 91800 333 11100 21129 4/004=
07299,1997-01-02 21:00:00,-10,1013.3,-2,92,-11,1400,7.408,,,330,,,,,,,,,,10,wg-a,,,,AAXX 02214 07299 02214 83304 11100 21110 39784 40133 56020 61000 71072 8357/ 92100 333 ////=
07299,1997-01-03 00:00:00,-9,1012.1,-1,92,-10,1500,3.704,,,330,,,,,,,,,,0,wg-a,,,,AAXX 03004 07299 02215 83302 11090 21100 39774 40121 56010 61000 7007/ 8277/ 90000 333 6100=
07299,1997-01-03 03:00:00,-8,1011.4,-0.6,85,-10,2500,0,,,0,,,,0,,,,,,10,wg-a,,,,AAXX 03034 07299 12325 70000 11080 21100 39768 40114 58006 60007 7106/ 8357/ 90300=
07299,1997-01-03 06:00:00,-8,1011.1,-0.2,92,-9,2000,7.408,,,320,-10.8,-7.6,,,,,,,,10,wg-a,,4,,AAXX 03064 07299 02220 83204 11080 21090 39766 40111 58002 60006 71062 875// 90600 333 11076 21108 4/004 60004=
07299,1997-01-03 09:00:00,-7,1010.8,-0.1,93,-8,1800,7.408,,,320,,,,,,,,,,10,wg-a,,,,AAXX 03094 07299 12318 73204 11070 21080 39765 40108 55001 60006 71022 875// 90900=
07299,1997-01-03 12:00:00,-4,1008.6,-1.9,86,-6,1800,11.112,,,300,,,,,,,,,,10,wg-a,,,,AAXX 03124 07299 12418 73006 11040 21060 39746 40086 58019 60006 71022 875// 91200=
07299,1997-01-03 15:00:00,-6,1007.7,-1,93,-7,1600,11.112,,,340,,,,,,,,,,10,wg-a,,,,AAXX 03154 07299 12416 /3406 11060 21070 39736 40077 55010 60006 71022 86601 91500=
07299,1997-01-03 18:00:00,-7,1006.6,-1.2,93,-8,1200,11.112,,,300,-7.6,-3.5,,,,,,,,10,wg-a,,,,AAXX 03184 07299 12212 83006 11070 21080 39724 40066 56012 60006 71022 886// 91800 333 11035 21076=
07299,1997-01-03 21:00:00,-6,1003.8,-2.6,93,-7,1400,3.704,,,340,,,,,,,,,,10,wg-a,,,,AAXX 03214 07299 12114 83402 11060 21070 39698 40038 58026 60006 71022 876// 92100=
07299,1997-01-04 00:00:00,-6,1002.7,-1.1,93,-7,1400,7.408,,,330,,,,,,,,,,10,wg-a,,,,AAXX 04004 07299 12114 83304 11060 21070 39687 40027 55011 60006 710// 886// 90000=
07299,1997-01-04 03:00:00,-6,1001.8,-0.8,93,-7,1200,3.704,,,240,,,,,,,,,,10,wg-a,,,,AAXX 04034 07299 12112 82402 11060 21070 39679 40018 58008 60006 710// 886// 90300=
07299,1997-01-04 06:00:00,-6,1001.8,-0,100,-6,1000,7.408,,,320,-6.7,-5.5,,,,,,,,10,wg-a,,4,,AAXX 04064 07299 02110 83204 11060 21060 39679 40018 55000 61000 71072 886// 90600 333 11055 21067 4/004 6100=
07299,1997-01-04 09:00:00,-5,1002.8,1,93,-6,1500,3.704,,,300,,,,2,,,,,,10,wg-a,,,,AAXX 04094 07299 12415 83002 11050 21060 39689 40028 51010 60027 71077 885// 90900=
07299,1997-01-04 12:00:00,-4,1002.4,-0.2,93,-5,1200,3.704,,,300,,,,1,,,,,,10,wg-a,,,,AAXX 04124 07299 02512 83002 11040 21050 39687 40024 58002 60036 71072 885// 91200 333 60017=
07299,1997-01-04 15:00:00,-4,1002.8,0.4,93,-5,1200,0,,,0,,,,1,,,,,,10,wg-a,,,,AAXX 04154 07299 12412 80000 11040 21050 39691 40028 51004 60017 71072 885// 91500=
07299,1997-01-04 18:00:00,-4,1003.1,0.3,93,-5,1500,3.704,,,280,-5.6,-3.7,,,,,,,,10,wg-a,,9,,AAXX 04184 07299 02315 82802 11040 21050 39694 40031 53003 60006 71072 886// 91800 333 11037 21056 4/009 61000=
07299,1997-01-04 21:00:00,-4,1005.4,2.2,93,-5,1600,3.704,,,290,,,,,,,,,,10,wg-a,,,,AAXX 04214 07299 12216 82902 11040 21050 39716 40054 53022 60006 71022 886// 92100=
07299,1997-01-05 00:00:00,-4,1006.9,1.4,93,-5,0,3.704,,,330,,,,,,,,,,,wg-a,,,,AAXX 05004 07299 12/// /3302 11040 21050 39730 40069 51014 60006 90000=
07299,1997-01-05 03:00:00,-4,1008,1.1,100,-4,900,0,,,0,,,,,,,,,,44,wg-a,,,,AAXX 05034 07299 12109 80000 11040 21040 39741 40080 51011 60006 744// 886// 90300=
07299,1997-01-05 06:00:00,-3,1009.1,1.2,93,-4,0,0,,,0,-4.2,-3.3,,,,,4,,,44,wg-a,,8,,AAXX 05064 07299 022// 80000 11030 21040 39753 40091 53012 60006 74444 886// 90600 333 11033 21042 4/008 60044=
07299,1997-01-05 12:00:00,-2,1011.8,0.6,100,-2,1000,3.704,,,330,,,,,,,,,,44,wg-a,,,,AAXX 05124 07299 02210 83302 11020 21020 39781 40118 51006 61000 74474 887// 91200 333 6100=
07299,1997-01-05 15:00:00,-3,1013.3,1.3,100,-3,800,3.704,,,350,,,,,,,,,,44,wg-a,,,,AAXX 05154 07299 02108 83502 11030 21030 39794 40133 53013 61000 74474 887// 91500 333 ////=
07299,1997-01-05 18:00:00,-3,1014.9,1.5,100,-3,600,3.704,,,320,-3.3,-1.6,,,,,,,,44,wg-a,,8,,AAXX 05184 07299 02106 83202 11030 21030 39809 40149 51015 61000 74477 887// 91800 333 11016 21033 4/008 6100=
07299,1997-01-05 21:00:00,-3,1016,1.1,100,-3,800,3.704,,,300,,,,,,,,,,44,wg-a,,,,AAXX 05214 07299 02108 83002 11030 21030 39820 40160 51011 61000 74472 886// 92100 333 ////=
07299,1997-01-06 00:00:00,-3,1016.2,0.2,100,-3,800,3.704,,,330,,,,,,,,,,22,wg-a,,,,AAXX 06004 07299 02108 83302 11030 21030 39822 40162 50002 61000 72272 886// 90000 333 6100=
07299,1997-01-06 03:00:00,-3,1016.7,0.4,93,-4,900,7.408,,,320,,,,,,,,,,44,wg-a,,,,AAXX 06034 07299 12109 83204 11030 21040 39826 40167 53004 60006 7444/ 886// 90300=
07299,1997-01-06 06:00:00,-4,1017.1,0.4,100,-4,900,3.704,,,330,-3.7,-2.8,,,,,,,,44,wg-a,,7,,AAXX 06064 07299 02109 83302 11040 21040 39830 40171 53004 60006 74444 886// 90600 333 11028 21037 4/007 61000=
07299,1997-01-06 09:00:00,-4,1017.9,0.7,100,-4,800,7.408,,,330,,,,,,,,,,44,wg-a,,,,AAXX 06094 07299 12008 83304 11040 21040 39837 40179 53007 60006 74444 886// 90900=
07299,1997-01-06 12:00:00,-3,1017,-0.8,93,-4,1100,7.408,,,340,,,,,,,,,,10,wg-a,,,,AAXX 06124 07299 12111 83404 11030 21040 39829 40170 58008 60006 71042 886// 91200=
07299,1997-01-06 15:00:00,-3,1017.2,0.2,93,-4,1200,7.408,,,340,,,,,,,,,,10,wg-a,,,,AAXX 06154 07299 12112 83404 11030 21040 39831 40172 53002 60006 71022 886// 91500=
07299,1997-01-06 18:00:00,-4,1017.7,0.4,93,-5,1200,7.408,,,330,-3.9,-3.2,,,,,,,,10,wg-a,,7,,AAXX 06184 07299 12112 83304 11040 21050 39835 40177 52004 60006 71022 886// 91800 333 11032 21039 4/007=
07299,1997-01-06 21:00:00,-4,1018.1,0.4,100,-4,1000,7.408,,,340,,,,,,,,,,28,wg-a,,,,AAXX 06214 07299 12110 83404 11040 21040 39839 40181 51004 60006 72842 886// 92100=
07299,1997-01-07 00:00:00,-4,1017.8,-0.3,100,-4,900,7.408,,,360,,,,,,,,,,48,wg-a,,,,AAXX 07004 07299 12109 83604 11040 21040 39836 40178 58003 60006 7484/ 886// 90000=
07299,1997-01-07 03:00:00,-4,1018,0.1,93,-5,300,7.408,,,320,,,,,,,,,,49,wg-a,,,,AAXX 07034 07299 12/03 93204 11040 21050 39837 40180 53001 60006 74944 89/// 90300=
07299,1997-01-07 06:00:00,-5,1018.5,0.4,100,-5,800,7.408,,,330,-5,-3.8,,,,,,,,48,wg-a,,7,,AAXX 07064 07299 12108 83304 11050 21050 39841 40185 53004 60006 74844 886// 90600 333 11038 21050 4/007=
07299,1997-01-07 09:00:00,-5,1019.3,0.8,100,-5,900,7.408,,,320,,,,,,,,,,48,wg-a,,,,AAXX 07094 07299 12109 83204 11050 21050 39849 40193 52008 60006 74844 886// 90900=
07299,1997-01-07 12:00:00,-4,1019,-0.2,93,-5,1200,7.408,,,340,,,,,,,,,,10,wg-a,,,,AAXX 07124 07299 02112 83404 11040 21050 39847 40190 58002 61000 71074 886// 91200 333 6100=
07299,1997-01-07 15:00:00,-4,1018.8,-0.2,93,-5,1000,3.704,,,340,,,,,,,,,,10,wg-a,,,,AAXX 07154 07299 12110 83402 11040 21050 39845 40188 56002 60006 71022 886// 91500=
07299,1997-01-07 18:00:00,-4,1018.9,0.1,93,-5,1300,3.704,,,340,-5,-4,,,,,,,,10,wg-a,,7,,AAXX 07184 07299 12113 83402 11040 21050 39846 40189 52001 60006 71022 886// 91800 333 11040 21050 4/007=
07299,1997-01-07 21:00:00,-5,1018.4,-0.5,100,-5,1300,7.408,,,330,,,,,,,,,,10,wg-a,,,,AAXX 07214 07299 12113 83304 11050 21050 39841 40184 58005 60006 71022 886// 92100=
07299,1997-01-08 00:00:00,-5,1017.1,-1.3,93,-6,1300,7.408,,,330,,,,,,,,,,10,wg-a,,,,AAXX 08004 07299 12113 83304 11050 21060 39828 40171 58013 60006 71022 886// 90000=
07299,1997-01-08 03:00:00,-5,1015.8,-1.3,93,-6,1300,3.704,,,320,,,,,,,,,,10,wg-a,,,,AAXX 08034 07299 12213 83202 11050 21060 39815 40158 58013 60006 71022 886// 90300=
07299,1997-01-08 06:00:00,-5,1014,-1.7,100,-5,1600,7.408,,,330,-5,-4,,,,,,,,10,wg-a,,7,,AAXX 08064 07299 02116 83304 11050 21050 39798 40140 58017 60006 71022 886// 90600 333 11040 21050 4/007 61000=
07299,1997-01-08 09:00:00,-2,1012.7,-0.9,93,-3,2000,7.408,,,80,,,,,,,,,,10,wg-a,,,,AAXX 08094 07299 12220 80804 11020 21030 39789 40127 57009 60006 71022 886// 90900=
07299,1997-01-08 12:00:00,-3,1011,-1.7,93,-4,2500,7.408,,,350,,,,,,,,,,10,wg-a,,,,AAXX 08124 07299 12225 83504 11030 21040 39772 40110 58017 60006 71022 886// 91200=
07299,1997-01-08 15:00:00,-4,1010.8,-0.4,93,-5,1600,11.112,,,330,,,,,,,,,,10,wg-a,,,,AAXX 08154 07299 12216 83306 11040 21050 39768 40108 56004 60006 71022 886// 91500=
07299,1997-01-08 18:00:00,-4,1009.3,-1.4,93,-5,1500,7.408,,,330,-4.9,-1.2,,,,,,,,,wg-a,,,,AAXX 08184 07299 12/15 /3304 11040 21050 39754 40093 57014 60006 91800 333 11012 21049=
07299,1997-01-08 21:00:00,-4,1008.7,-0.7,93,-5,1000,11.112,,,340,,,,,,,,,,10,wg-a,,,,AAXX 08214 07299 12110 83406 11040 21050 39747 40087 57007 60006 71022 886// 92100=
07299,1997-01-09 00:00:00,-5,1007.9,-0.8,100,-5,1000,7.408,,,320,,,,,,,,,,10,wg-a,,,,AAXX 09004 07299 12/10 93204 11050 21050 39739 40079 56008 60006 710// 89/// 90000=
07299,1997-01-09 03:00:00,-5,1006.9,-1,100,-5,900,3.704,,,320,,,,,,,,,,45,wg-a,,,,AAXX 09034 07299 12/09 93202 11050 21050 39729 40069 58010 60006 7454/ 89/// 90300=
07299,1997-01-09 06:00:00,-5,1006.5,-0.3,100,-5,1600,3.704,,,310,-5,-4,,,,,,,,10,wg-a,,6,,AAXX 09064 07299 12116 83102 11050 21050 39726 40065 56003 60006 7104/ 886// 90600 333 11040 21050 4/006=
07299,1997-01-09 09:00:00,-4,1007.2,0.7,93,-5,1500,7.408,,,330,,,,,,,,,,10,wg-a,,,,AAXX 09094 07299 12315 73304 11040 21050 39733 40072 53007 60006 71022 875// 90900=
07299,1997-01-09 12:00:00,-3,1006.9,-0.1,93,-4,2500,7.408,,,320,,,,,,,,,,10,wg-a,,,,AAXX 09124 07299 12425 73204 11030 21040 39732 40069 58001 60006 71022 875// 91200=
07299,1997-01-09 15:00:00,-4,1007.7,0.7,93,-5,2200,11.112,,,330,,,,,,,,,,10,wg-a,,,,AAXX 09154 07299 12322 73306 11040 21050 39739 40077 53007 60006 71022 84532 91500=
07299,1997-01-09 18:00:00,-4,1009.4,1.5,93,-5,2000,7.408,,,330,-5.3,-2.8,,,,,,,,10,wg-a,,6,,AAXX 09184 07299 12120 83304 11040 21050 39754 40094 53015 60006 71022 886// 91800 333 11028 21053 4/006=
07299,1997-01-09 21:00:00,-4,1010.4,1,100,-4,1200,7.408,,,330,,,,,,,,,,10,wg-a,,,,AAXX 09214 07299 12012 83304 11040 21040 39764 40104 53010 60006 71022 886// 92100=
07299,1997-01-10 00:00:00,-4,1011.3,0.9,100,-4,1200,7.408,,,300,,,,,,,,,,66,wg-a,,,,AAXX 10004 07299 02112 83004 11040 21040 39773 40113 51009 61000 76662 887// 90000 333 6100=
07299,1997-01-10 03:00:00,-4,1013,1.6,93,-5,1500,7.408,,,310,,,,1,,,,,,10,wg-a,,,,AAXX 10034 07299 12115 83104 11040 21050 39789 40130 52016 60017 71076 885// 90300=
07299,1997-01-10 06:00:00,-5,1014.3,1.2,100,-5,1600,7.408,,,320,-4.5,-3.9,,,,,1,,,10,wg-a,,7,,AAXX 10064 07299 02116 83204 11050 21050 39801 40143 53012 60006 71076 877// 90600 333 11039 21045 4/007 60014=
07299,1997-01-10 09:00:00,-4,1016.9,2.6,93,-5,1600,7.408,,,300,,,,,,,,,,10,wg-a,,,,AAXX 10094 07299 12116 83004 11040 21050 39827 40169 53026 60006 71022 886// 90900=
07299,1997-01-10 12:00:00,-3,1018.4,1.5,93,-4,1000,7.408,,,300,,,,,,,,,,10,wg-a,,,,AAXX 10124 07299 02110 83004 11030 21040 39842 40184 51015 61000 71072 887// 91200 333 6100=
07299,1997-01-10 15:00:00,-3,1020.5,2.1,93,-4,1400,7.408,,,320,,,,,,,,,,10,wg-a,,,,AAXX 10154 07299 02114 83204 11030 21040 39863 40205 53021 61000 71074 887// 91500 333 ////=
07299,1997-01-10 18:00:00,-3,1022.8,2.2,93,-4,800,3.704,,,310,-4.5,-3,,,,,,,,48,wg-a,,7,,AAXX 10184 07299 02108 83102 11030 21040 39885 40228 51022 61000 74874 886// 91800 333 11030 21045 4/007 6100=
07299,1997-01-10 21:00:00,-3,1024.2,1.4,93,-4,800,0,,,0,,,,,,,,,,48,wg-a,,,,AAXX 10214 07299 12108 80000 11030 21040 39899 40242 51014 60006 74844 886// 92100=
07299,1997-01-11 00:00:00,-3,1025.2,0.9,100,-3,800,3.704,,,310,,,,,,,,,,48,wg-a,,,,AAXX 11004 07299 12108 83102 11030 21030 39908 40252 53009 60006 74844 886// 90000=
07299,1997-01-11 03:00:00,-3,1026.1,0.9,100,-3,1100,3.704,,,290,,,,,,,,,,10,wg-a,,,,AAXX 11034 07299 12211 82902 11030 21030 39917 40261 51009 60006 71042 886// 90300=
07299,1997-01-11 06:00:00,-3,1026.4,0.3,93,-4,1500,7.408,,,330,-3.4,-2.9,,,,,,,,10,wg-a,,7,,AAXX 11064 07299 02215 83304 11030 21040 39920 40264 53003 60006 71042 885// 90600 333 11029 21034 4/007 61000=
07299,1997-01-11 09:00:00,-3,1028.3,1.8,93,-4,2500,7.408,,,320,,,,,,,,,,10,wg-a,,,,AAXX 11094 07299 12225 83204 11030 21040 39938 40283 53018 60006 71022 886// 90900=
07299,1997-01-11 12:00:00,-2,1028.8,0.6,86,-4,2800,3.704,,,200,,,,,,,,,,10,wg-a,,,,AAXX 11124 07299 12228 82002 11020 21040 39944 40288 50006 60006 71022 886// 91200=
07299,1997-01-11 15:00:00,-2,1029.5,0.7,86,-4,3000,0,,,0,,,,,,,,,,10,wg-a,,,,AAXX 11154 07299 12230 80000 11020 21040 39951 40295 53007 60006 71022 886// 91500=
07299,1997-01-11 18:00:00,-3,1030.8,1.2,93,-4,3000,3.704,,,240,-3.5,-1.7,,,,,,,,10,wg-a,,7,,AAXX 11184 07299 12230 82402 11030 21040 39963 40308 51012 60006 71022 886// 91800 333 11017 21035 4/007=
07299,1997-01-11 21:00:00,-3,1031.1,0.3,93,-4,2300,3.704,,,340,,,,,,,,,,10,wg-a,,,,AAXX 11214 07299 12223 83402 11030 21040 39966 40311 52003 60006 71022 886// 92100=
07299,1997-01-12 00:00:00,-4,1031.3,0.1,100,-4,2300,11.112,,,320,,,,,,,,,,10,wg-a,,,,AAXX 12004 07299 12423 83206 11040 21040 39967 40313 53001 60006 7102/ 886// 90000=
07299,1997-01-12 03:00:00,-4,1031.8,0.5,100,-4,2600,11.112,,,310,,,,,,,,,,10,wg-a,,,,AAXX 12034 07299 12326 83106 11040 21040 39972 40318 53005 60006 710// 886// 90300=
07299,1997-01-12 06:00:00,-3,1032,0.2,86,-5,2800,7.408,,,70,-3.7,-2.6,,,,,,,,10,wg-a,,7,,AAXX 12064 07299 12328 80704 11030 21050 39974 40320 52002 60006 71022 886// 90600 333 11026 21037 4/007=
07299,1997-01-12 09:00:00,-3,1032.6,0.7,93,-4,4500,3.704,,,30,,,,,,,,,,10,wg-a,,,,AAXX 12094 07299 12345 70302 11030 21040 39981 40326 53007 60006 71022 876// 90900=
07299,1997-01-12 12:00:00,-1,1031.3,-1.1,80,-4,4500,11.112,,,60,,,,,,,,,,10,wg-a,,,,AAXX 12124 07299 12445 20606 11010 21040 39970 40313 58011 60006 71011 82600 91200=
07299,1997-01-12 15:00:00,-5,1031.7,-0.1,93,-6,1300,11.112,,,340,,,,,,,,,,10,wg-a,,,,AAXX 12154 07299 12113 73406 11050 21060 39969 40317 55001 60006 71011 876// 91500=
07299,1997-01-12 18:00:00,-6,1032,,100,-6,900,7.408,,,330,-5.4,,,,,,,,,48,wg-a,,,,AAXX 12184 07299 12109 93304 11060 21060 39972 40320 60006 74842 896// 91800=
07299,1997-01-12 21:00:00,-6,1032.3,0.4,100,-6,800,3.704,,,300,,,,,,,,,,48,wg-a,,,,AAXX 12214 07299 12008 83002 11060 21060 39974 40323 52004 60006 74842 886// 92100=
07299,1997-01-13 00:00:00,-7,1031.6,-0.9,93,-8,900,0,,,0,,,,,,,,,,48,wg-a,,,,AAXX 13004 07299 12309 80000 11070 21080 39965 40316 56009 60006 74842 886// 90000=
07299,1997-01-13 03:00:00,-10,1031.4,-0.5,92,-11,300,7.408,,,290,,,,,,,,,,48,wg-a,,,,AAXX 13034 07299 12/03 92904 11100 21110 39960 40314 58005 60006 74844 89/// 90300=
07299,1997-01-13 06:00:00,-9,1031.2,-0.2,92,-10,900,3.704,,,280,-10.1,,,,,,,,,49,wg-a,,6,,AAXX 13064 07299 12/09 92802 11090 21100 39958 40312 56002 60006 74944 89/// 90600 333 11054 21101 4/006=
07299,1997-01-13 09:00:00,-8,1031.6,0.5,92,-9,2000,0,,,0,,,,,,,,,,10,wg-a,,,,AAXX 13094 07299 12120 30000 11080 21090 39963 40316 53005 60006 71022 83600 90900=
07299,1997-01-13 12:00:00,-5,1030.6,-0.5,93,-6,3000,7.408,,,300,,,,,,,,,,10,wg-a,,,,AAXX 13124 07299 12/30 03004 11050 21060 39958 40306 58005 60006 71022 80000 91200=
07299,1997-01-13 15:00:00,-6,1029.8,-0.8,93,-7,2000,7.408,,,300,,,,,,,,,,10,wg-a,,,,AAXX 13154 07299 12/20 03004 11060 21070 39950 40298 56008 60006 71022 80000 91500=
07299,1997-01-13 18:00:00,-9,1030.6,0.3,92,-10,800,7.408,,,280,-11.1,-2.4,,,,,,,,44,wg-a,,,,AAXX 13184 07299 12108 52804 11090 21100 39953 40306 53003 60006 74442 85600 91800 333 11024 21111=
07299,1997-01-13 21:00:00,-10,1031,0.2,92,-11,1500,7.408,,,280,,,,,,,,,,28,wg-a,,,,AAXX 13214 07299 12115 32804 11100 21110 39955 40310 52002 60006 72842 83600 92100=
07299,1997-01-14 00:00:00,-12,1030.7,-0.6,85,-14,800,3.704,,,290,,,,,,,,,,48,wg-a,,,,AAXX 14004 07299 12108 32902 11120 21140 39949 40307 58006 60006 7484/ 83600 90000=
07299,1997-01-14 03:00:00,-14,1030.6,-0.2,92,-15,1300,3.704,,,260,,,,,,,,,,10,wg-a,,,,AAXX 14034 07299 12113 32602 11140 21150 39947 40306 58002 60006 7104/ 83600 90300=
07299,1997-01-14 06:00:00,-13,1030.4,-0.2,85,-15,800,3.704,,,290,-14.4,-8.9,,,,,,,,48,wg-a,,6,,AAXX 14064 07299 12108 42902 11130 21150 39945 40304 55002 60006 74840 84600 90600 333 11089 21144 4/006=
07299,1997-01-14 09:00:00,-11,1030.2,0.1,85,-13,1100,3.704,,,320,,,,,,,,,,10,wg-a,,,,AAXX 14094 07299 12111 /3202 11110 21130 39946 40302 53001 60006 71040 81600 90900=
07299,1997-01-14 12:00:00,-6,1028.7,-0.7,100,-6,1800,7.408,,,300,,,,,,,,,,10,wg-a,,,,AAXX 14124 07299 12/18 03004 11060 21060 39939 40287 58007 60006 71040 80000 91200=
07299,1997-01-14 15:00:00,-2,1027.5,-0.7,80,-5,3500,3.704,,,310,,,,,,,,,,10,wg-a,,,,AAXX 14154 07299 12/35 03102 11020 21050 39932 40275 55007 60006 71000 80000 91500=
07299,1997-01-14 18:00:00,-7,1029,0.8,93,-8,1500,7.408,,,300,-13.6,-0.1,,,,,,,,10,wg-a,,6,,AAXX 14184 07299 12/15 03004 11070 21080 39940 40290 53008 60006 71000 80000 91800 333 11001 21136 4/006=
07299,1997-01-15 00:00:00,-7,1,,41,-18,0,7.408,,,150,,,,,,,,,,,wg-a,,,,AAXX 15004 07299 12/// /1504 11070 21180 60006 90000=
07299,1997-01-15 06:00:00,-7,1029.8,0.6,93,-8,3500,14.816,,,160,-10,-4.2,,,,,,,,10,wg-a,,6,,AAXX 15064 07299 12/35 01608 11070 21080 39948 40298 52006 60006 71000 80000 90600 333 11042 21100 4/006=
07299,1997-01-15 09:00:00,-3,1029.9,0.6,80,-6,4000,14.816,,,150,,,,,,,,,,10,wg-a,,,,AAXX 15094 07299 12/40 01508 11030 21060 39954 40299 51006 60006 71000 80000 90900=
07299,1997-01-15 12:00:00,2,1028.2,-1,60,-5,3800,11.112,,,120,,,,,,,,,,10,wg-a,,,,AAXX 15124 07299 12/38 01206 10020 21050 39944 40282 58010 60006 71000 80000 91200=
07299,1997-01-15 15:00:00,1,1027.6,-0.7,69,-4,4200,11.112,,,160,,,,,,,,,,10,wg-a,,,,AAXX 15154 07299 12/42 01606 10010 21040 39937 40276 56007 60006 71000 80000 91500=
07299,1997-01-15 18:00:00,-2,1028.2,0.2,86,-4,3000,11.112,,,150,-6.6,3.5,,,,,,,,10,wg-a,,6,,AAXX 15184 07299 12/30 01506 11020 21040 39939 40282 50002 60006 71000 80000 91800 333 10035 21066 4/006=
07299,1997-01-15 21:00:00,-4,1028.8,0.3,86,-6,3500,0,,,0,,,,,,,,,,10,wg-a,,,,AAXX 15214 07299 12/35 00000 11040 21060 39942 40288 51003 60006 71000 80000 92100=
07299,1997-01-16 00:00:00,-6,1029.1,0,86,-8,3500,7.408,,,180,,,,,,,,,,10,wg-a,,,,AAXX 16004 07299 12/35 01804 11060 21080 39942 40291 50000 60006 71000 80000 90000=
07299,1997-01-16 03:00:00,-7,1028.3,-0.9,86,-9,4000,14.816,,,180,,,,,,,,,,10,wg-a,,,,AAXX 16034 07299 12/40 01808 11070 21090 39933 40283 57009 60006 71000 80000 90300=
07299,1997-01-16 06:00:00,-7,1027.9,-0.4,86,-9,4000,14.816,,,160,-8,-1.8,,,,,,,,10,wg-a,,6,,AAXX 16064 07299 12/40 01608 11070 21090 39929 40279 55004 60006 71000 80000 90600 333 11018 21080 4/006=
07299,1997-01-16 09:00:00,-5,1027.3,-0.3,93,-6,3200,7.408,,,160,,,,,,,,,,10,wg-a,,,,AAXX 16094 07299 12/32 01604 11050 21060 39926 40273 58003 60006 71000 80000 90900=
07299,1997-01-16 12:00:00,2,1025,-1.3,64,-4,3600,3.704,,,190,,,,,,,,,,10,wg-a,,,,AAXX 16124 07299 12/36 01902 10020 21040 39913 40250 58013 60006 71000 80000 91200=
07299,1997-01-16 15:00:00,2,1024.3,-0.7,69,-3,4200,7.408,,,160,,,,,,,,,,5,wg-a,,,,AAXX 16154 07299 12/42 01604 10020 21030 39906 40243 56007 60006 70500 80000 91500=
07299,1997-01-16 18:00:00,-3,1024.9,-0,86,-5,3400,3.704,,,160,-7.9,5.1,,,,,,,,10,wg-a,,6,,AAXX 16184 07299 12/34 01602 11030 21050 39906 40249 55000 60006 71000 80000 91800 333 10051 21079 4/006=
07299,1997-01-16 21:00:00,-5,1024.7,-0.4,93,-6,2500,7.408,,,160,,,,,,,,,,10,wg-a,,,,AAXX 16214 07299 12/25 01604 11050 21060 39902 40247 58004 60006 71000 80000 92100=
07299,1997-01-17 00:00:00,-7,1024.5,-0.6,93,-8,2500,7.408,,,190,,,,,,,,,,11,wg-a,,,,AAXX 17004 07299 12/25 01904 11070 21080 39896 40245 56006 60006 71100 80000 90000=
07299,1997-01-17 03:00:00,-7,1023.5,-0.9,93,-8,2800,14.816,,,180,,,,,,,,,,10,wg-a,,,,AAXX 17034 07299 12/28 01808 11070 21080 39887 40235 58009 60006 71000 80000 90300=
07299,1997-01-17 06:00:00,-7,1022.5,-1,93,-8,2800,7.408,,,160,-7.8,-2.6,,,,,,,,10,wg-a,,6,,AAXX 17064 07299 12/28 01604 11070 21080 39877 40225 56010 60006 71000 80000 90600 333 11026 21078 4/006=
07299,1997-01-17 09:00:00,-5,1022.4,0.2,86,-7,4500,11.112,,,170,,,,,,,,,,10,wg-a,,,,AAXX 17094 07299 12/45 01706 11050 21070 39879 40224 53002 60006 71000 80000 90900=
07299,1997-01-17 12:00:00,2,1020.3,-1.2,64,-4,4000,7.408,,,180,,,,,,,,,,10,wg-a,,,,AAXX 17124 07299 12/40 01804 10020 21040 39867 40203 58012 60006 71000 80000 91200=
07299,1997-01-17 15:00:00,3,1020.8,0.6,60,-4,4000,7.408,,,120,,,,,,,,,,10,wg-a,,,,AAXX 17154 07299 12/40 21204 10030 21040 39873 40208 53006 60006 71000 80001 91500=
07299,1997-01-17 18:00:00,-4,1022.3,0.6,86,-6,4500,11.112,,,180,-8,4.2,,,,,,,,10,wg-a,,6,,AAXX 17184 07299 12/45 21806 11040 21060 39879 40223 50006 60006 71000 80001 91800 333 10042 21080 4/006=
07299,1997-01-17 21:00:00,-3,1022.9,0.8,86,-5,4000,14.816,,,160,,,,,,,,,,10,wg-a,,,,AAXX 17214 07299 12/40 71608 11030 21050 39887 40229 51008 60006 71011 82034 92100=
07299,1997-01-18 00:00:00,-4,1023.5,0.4,93,-5,4000,14.816,,,170,,,,,,,,,,10,wg-a,,,,AAXX 18004 07299 12640 71708 11040 21050 39891 40235 52004 60006 7101/ 8453/ 90000=
07299,1997-01-18 03:00:00,-2,1023.1,-0.2,80,-5,4000,18.52,,,160,,,,,,,,,,10,wg-a,,,,AAXX 18034 07299 12640 /1610 11020 21050 39889 40231 58002 60006 710// 82531 90300=
07299,1997-01-18 06:00:00,-2,1023,-0,80,-5,4000,11.112,,,150,-4.5,-1.5,,,,,,,,10,wg-a,,6,,AAXX 18064 07299 12640 71506 11020 21050 39889 40230 55000 60006 71011 875// 90600 333 11015 21045 4/006=
07299,1997-01-18 09:00:00,-2,1023.7,0.7,86,-4,4000,14.816,,,160,,,,,,,,,,10,wg-a,,,,AAXX 18094 07299 12640 71608 11020 21040 39896 40237 51007 60006 71022 875// 90900=
07299,1997-01-18 12:00:00,1,1022,-1.3,75,-3,4000,11.112,,,160,,,,,,,,,,10,wg-a,,,,AAXX 18124 07299 12640 71606 10010 21030 39883 40220 58013 60006 71022 875// 91200=
07299,1997-01-18 15:00:00,1,1020.5,-1.5,80,-2,3000,11.112,,,170,,,,,,,,,,10,wg-a,,,,AAXX 18154 07299 12730 71706 10010 21020 39868 40205 56015 60006 71022 84531 91500=
07299,1997-01-18 18:00:00,0,1019.7,-0.9,86,-2,3000,11.112,,,170,-2.1,2.5,,,,,,,,10,wg-a,,6,,AAXX 18184 07299 12630 61706 10000 21020 39859 40197 56009 60006 71022 82530 91800 333 10025 21021 4/006=
07299,1997-01-18 21:00:00,-1,1019.1,-0.7,86,-3,4000,3.704,,,130,,,,,,,,,,10,wg-a,,,,AAXX 18214 07299 12/40 /1302 11010 21030 39852 40191 57007 60006 71022 84032 92100=
07299,1997-01-19 00:00:00,0,1018,-1,80,-3,3000,0,,,0,,,,,,,,,,10,wg-a,,,,AAXX 19004 07299 12730 70000 10000 21030 39842 40180 58010 60006 71022 8153/ 90000=
07299,1997-01-19 03:00:00,0,1016.4,-1.4,93,-1,3000,3.704,,,120,,,,,,,,,,10,wg-a,,,,AAXX 19034 07299 02730 71202 10000 21010 39828 40164 58014 61000 71062 8353/ 90300 333 ////=
07299,1997-01-19 06:00:00,1,1015.3,-1,80,-2,4000,3.704,,,60,-1.5,1.5,,,,,,,,10,wg-a,,6,,AAXX 19064 07299 02740 70602 10010 21020 39818 40153 58010 60006 71062 8353/ 90600 333 10015 21015 4/006 61000=
07299,1997-01-19 09:00:00,1,1015.4,0.1,86,-1,500,3.704,,,160,,,,0,,,,,,60,wg-a,,,,AAXX 19094 07299 12700 81602 10010 21010 39819 40154 53001 60007 76062 8357/ 90900=
07299,1997-01-19 12:00:00,1,1015.3,-0.1,93,0,3000,14.816,,,170,,,,2,,,,,,10,wg-a,,,,AAXX 19124 07299 02730 81708 10010 20000 39818 40153 58001 60026 71062 8457/ 91200 333 60027=
07299,1997-01-19 15:00:00,1,1014.7,-0.5,100,1,1800,11.112,,,160,,,,5,,,,,,10,wg-a,,,,AAXX 19154 07299 12618 81606 10010 20010 39813 40147 56005 60057 71066 8557/ 91500=
07299,1997-01-19 18:00:00,2,1015.5,0.8,93,1,1500,11.112,,,150,0.2,2,,,,,,,,10,wg-a,,,,AAXX 19184 07299 12/15 /1506 10020 20010 39821 40155 51008 60006 710// 91800 333 10020 20002=
07299,1997-01-19 21:00:00,2,1016.6,1.1,100,2,1500,3.704,,,130,,,,0,,,,,,10,wg-a,,,,AAXX 19214 07299 12615 81302 10020 20020 39832 40166 52011 60007 71062 8657/ 92100=
07299,1997-01-20 00:00:00,2,1017.3,0.6,93,1,0,11.112,,,150,,,,,,,,,,,wg-a,,,,AAXX 20004 07299 12/// /1506 10020 20010 39838 40173 51006 60016 90000=
07299,1997-01-20 03:00:00,1,1017.4,0.1,100,1,2000,11.112,,,160,,,,,,,,,,,wg-a,,,,AAXX 20034 07299 32/20 /1606 10010 20010 39839 40174 50001 90300=
07299,1997-01-20 06:00:00,1,1017.1,-0.3,100,1,2500,7.408,,,150,1.1,2.9,,,,,9,,,10,wg-a,,4,,AAXX 20064 07299 02625 /1504 10010 20010 39836 40171 56003 60006 71022 86500 90600 333 10029 20011 4/004 60094=
07299,1997-01-20 09:00:00,2,1018.8,1.6,93,1,1600,3.704,,,300,,,,,,,,,,10,wg-a,,,,AAXX 20094 07299 12416 83002 10020 20010 39852 40188 51016 60006 71022 875// 90900=
07299,1997-01-20 12:00:00,3,1020.4,1.7,93,2,2100,3.704,,,290,,,,,,,,,,10,wg-a,,,,AAXX 20124 07299 12121 82902 10030 20020 39869 40204 51017 60006 71022 876// 91200=
07299,1997-01-20 15:00:00,3,1021.7,1.3,100,3,1800,0,,,0,,,,,,,,,,10,wg-a,,,,AAXX 20154 07299 12118 80000 10030 20030 39882 40217 53013 60006 71022 876// 91500=
07299,1997-01-20 18:00:00,2,1023.2,1.3,100,2,200,3.704,,,300,0.8,3.1,,,,,,,,45,wg-a,,3,,AAXX 20184 07299 12/02 93002 10020 20020 39895 40232 51013 60006 74542 89/// 91800 333 10031 20008 4/003=
07299,1997-01-20 21:00:00,1,1024.5,1.2,100,1,100,0,,,0,,,,,,,,,,45,wg-a,,,,AAXX 20214 07299 12/01 90000 10010 20010 39907 40245 51012 60006 74544 89/// 92100=
07299,1997-01-21 00:00:00,1,1025,0.5,100,1,100,7.408,,,300,,,,,,,,,,45,wg-a,,,,AAXX 21004 07299 12/01 93004 10010 20010 39912 40250 52005 60006 7454/ 89/// 90000=
07299,1997-01-21 03:00:00,1,1025.4,0.4,100,1,200,7.408,,,310,,,,,,,,,,45,wg-a,,,,AAXX 21034 07299 12/02 93104 10010 20010 39916 40254 53004 60006 74544 89/// 90300=
07299,1997-01-21 06:00:00,1,1026.8,1.3,100,1,300,7.408,,,310,0.8,1.9,,,,,,,,,wg-a,,,,AAXX 21064 07299 12/03 /3104 10010 20010 39929 40268 53013 60006 90600 333 10019 20008=
07299,1997-01-21 09:00:00,1,1028.1,1.3,100,1,100,3.704,,,330,,,,,,,,,,45,wg-a,,,,AAXX 21094 07299 12/01 93302 10010 20010 39942 40281 53013 60006 74544 89/// 90900=
07299,1997-01-21 12:00:00,2,1027.3,-0.7,100,2,200,3.704,,,360,,,,0,,,,,,44,wg-a,,,,AAXX 21124 07299 02002 73602 10020 20020 39935 40273 58007 60006 74464 876// 91200 333 60007=
07299,1997-01-21 15:00:00,1,1027.1,-0.3,100,1,100,7.408,,,320,,,,,,,,,,44,wg-a,,,,AAXX 21154 07299 12001 73204 10010 20010 39932 40271 58003 60006 74444 876// 91500=
07299,1997-01-21 18:00:00,1,1027.2,0.1,100,1,700,3.704,,,340,0.5,2.5,,,,,,,,41,wg-a,,1,,AAXX 21184 07299 12007 /3402 10010 20010 39932 40272 52001 60006 74141 84500 91800 333 10025 20005 4/001=
07299,1997-01-21 21:00:00,2,1026.8,-0.2,100,2,7000,3.704,,,100,,,,,,,,,,2,wg-a,,,,AAXX 21214 07299 12757 11002 10020 20020 39930 40268 55002 60006 70241 81500 92100=
07299,1997-01-22 00:00:00,3,1025.5,-1.1,87,1,12000,11.112,,,110,,,,,,,,,,,wg-a,,,,AAXX 22004 07299 12/62 01106 10030 20010 39919 40255 58011 60006 80000 90000=
07299,1997-01-22 03:00:00,3,1024.6,-0.9,87,1,9000,7.408,,,90,,,,,,,,,,,wg-a,,,,AAXX 22034 07299 12/59 70904 10030 20010 39910 40246 57009 60006 81031 90300=
07299,1997-01-22 06:00:00,3,1024,-0.5,87,1,10000,18.52,,,90,0.2,3.4,,,,,,,,,wg-a,,1,,AAXX 22064 07299 02760 80910 10030 20010 39905 40240 55005 60006 8453/ 90600 333 10034 20002 4/001 60004=
07299,1997-01-22 09:00:00,3,1024.6,0.5,87,1,12000,7.408,,,320,,,,,,,,,,,wg-a,,,,AAXX 22094 07299 12562 83204 10030 20010 39910 40246 53005 60006 885// 90900=
07299,1997-01-22 12:00:00,3,1025.6,0.9,93,2,2000,3.704,,,280,,,,0,,,,,,10,wg-a,,,,AAXX 22124 07299 02420 82802 10030 20020 39919 40256 51009 60006 71022 885// 91200 333 60007=
07299,1997-01-22 15:00:00,3,1025.4,0.1,93,2,2000,0,,,0,,,,,,,,,,10,wg-a,,,,AAXX 22154 07299 12720 80000 10030 20020 39918 40254 50001 60006 71022 885// 91500=
07299,1997-01-22 18:00:00,3,1025.6,0.2,100,3,2000,11.112,,,250,2.1,4.1,,,,,,,,10,wg-a,,0,,AAXX 22184 07299 02420 82506 10030 20030 39920 40256 53002 61000 71062 886// 91800 333 10041 20021 4/9999 6001=
07299,1997-01-22 21:00:00,3,1025.6,0.2,100,3,2000,11.112,,,250,2.1,,,1,,,,,,10,wg-a,,0,,AAXX 22214 07299 12420 82506 10030 20030 39920 40256 53002 60017 71062 886// 92100 333 20021 4/9999=
07299,1997-01-23 00:00:00,5,1025.3,0.3,100,5,0,14.816,,,140,,,,,,,,,,,wg-a,,,,AAXX 23004 07299 12/// /1408 10050 20050 39920 40253 51003 60116 90000=
07299,1997-01-23 03:00:00,3,1026.1,0.5,100,3,4000,11.112,,,190,,,,3,,,,,,10,wg-a,,,,AAXX 23034 07299 12440 81906 10030 20030 39925 40261 50005 60037 7106/ 875// 90300=
07299,1997-01-23 06:00:00,4,1026.1,0.1,93,3,4500,14.816,,,170,3,5.4,,,,,15,,,10,wg-a,,,,AAXX 23064 07299 02445 81708 10040 20030 39926 40261 53001 60006 71062 875// 90600 333 10054 20030 60154=
07299,1997-01-23 09:00:00,5,1026.2,0.2,93,4,500,11.112,,,150,,,,,,,,,,,wg-a,,,,AAXX 23094 07299 12700 81506 10050 20040 39928 40262 50002 60006 83532 90900=
07299,1997-01-23 12:00:00,7,1025.3,-0.6,87,5,10000,0,,,0,,,,,,,,,,,wg-a,,,,AAXX 23124 07299 12760 80000 10070 20050 39922 40253 58006 60006 8253/ 91200=
07299,1997-01-23 18:00:00,5,1025.2,-0.1,93,4,10000,3.704,,,350,3.1,8,,,,,,,,,wg-a,,,,AAXX 23184 07299 12760 83502 10050 20040 39918 40252 55001 60006 8553/ 91800 333 10080 20031=
07299,1997-01-23 21:00:00,5,1026.3,1.1,93,4,10000,7.408,,,150,,,,,,,,,,,wg-a,,,,AAXX 23214 07299 12760 81504 10050 20040 39929 40263 51011 60006 8553/ 92100=
07299,1997-01-24 00:00:00,3,1026.8,0.2,93,2,0,11.112,,,200,,,,,,,,,,,wg-a,,,,AAXX 24004 07299 12/// /2006 10030 20020 39931 40268 53002 60006 90000=
07299,1997-01-24 03:00:00,2,1027,0.1,93,1,10000,11.112,,,170,,,,,,,,,,,wg-a,,,,AAXX 24034 07299 12860 61706 10020 20010 39932 40270 50001 60006 85038 90300=
07299,1997-01-24 06:00:00,2,1027.8,0.8,93,1,10000,7.408,,,160,1.4,5.6,,,,,,,,,wg-a,,,,AAXX 24064 07299 12/60 61604 10020 20010 39940 40278 53008 60006 82018 90600 333 10056 20014=
07299,1997-01-24 09:00:00,4,1028.7,1.1,87,2,7000,7.408,,,150,,,,,,,,,,,wg-a,,,,AAXX 24094 07299 12/57 71504 10040 20020 39951 40287 53011 60006 86032 90900=
07299,1997-01-24 12:00:00,6,1028.4,0,87,4,7000,11.112,,,150,,,,,,,,,,,wg-a,,,,AAXX 24124 07299 12757 71506 10060 20040 39951 40284 50000 60006 8157/ 91200=
07299,1997-01-24 15:00:00,10,1028.5,0.5,71,5,10000,3.704,,,190,,,,,,,,,,,wg-a,,,,AAXX 24154 07299 12/60 21902 10100 20050 39956 40285 53005 60006 82030 91500=
07299,1997-01-24 18:00:00,3,1029.7,0.4,93,2,7000,7.408,,,180,1.8,10.4,,,,,,,,,wg-a,,,,AAXX 24184 07299 12/57 /1804 10030 20020 39960 40297 53004 60006 85030 91800 333 10104 20018=
07299,1997-01-25 00:00:00,1,1031.9,0.5,93,0,3000,7.408,,,190,,,,,,,,,,10,wg-a,,,,AAXX 25004 07299 12/30 31904 10010 20000 39978 40319 53005 60006 71011 83030 90000=
07299,1997-01-25 03:00:00,0,1031.9,-0.1,100,0,400,7.408,,,150,,,,,,,,,,45,wg-a,,,,AAXX 25034 07299 12/04 91504 10000 20000 39977 40319 58001 60006 74541 89/// 90300=
07299,1997-01-25 06:00:00,0,1032.4,0.5,100,0,200,3.704,,,270,-0.8,3.5,,,,,,,,45,wg-a,,,,AAXX 25064 07299 12/02 92702 10000 20000 39982 40324 50005 60006 74541 89/// 90600 333 10035 21008=
07299,1997-01-25 09:00:00,1,1033.4,1,100,1,100,0,,,0,,,,,,,,,,45,wg-a,,,,AAXX 25094 07299 12/01 90000 10010 20010 39992 40334 51010 60006 74544 89/// 90900=
07299,1997-01-25 12:00:00,2,1031.8,-1.4,100,2,300,0,,,0,,,,,,,,,,43,wg-a,,,,AAXX 25124 07299 12/03 90000 10020 20020 39978 40318 58014 60006 74344 89/// 91200=
07299,1997-01-25 15:00:00,2,1031.3,-0.4,100,2,1500,0,,,0,,,,,,,,,,10,wg-a,,,,AAXX 25154 07299 12115 80000 10020 20020 39974 40313 55004 60006 71022 886// 91500=
07299,1997-01-25 18:00:00,2,1031.5,0.2,100,2,500,3.704,,,350,0,2.2,,,,,,,,45,wg-a,,,,AAXX 25184 07299 12/05 93502 10020 20020 39976 40315 53002 60006 74542 89/// 91800 333 10022 20000=
07299,1997-01-25 21:00:00,2,1031.1,-0.4,100,2,1500,0,,,0,,,,,,,,,,10,wg-a,,,,AAXX 25214 07299 12115 80000 10020 20020 39972 40311 56004 60006 71042 876// 92100=
07299,1997-01-26 00:00:00,2,1030,-1.1,100,2,500,3.704,,,250,,,,,,,,,,44,wg-a,,,,AAXX 26004 07299 12005 82502 10020 20020 39961 40300 58011 60006 74442 886// 90000=
07299,1997-01-26 03:00:00,2,1029.2,-0.7,100,2,400,7.408,,,280,,,,,,,,,,,wg-a,,,,AAXX 26034 07299 12/04 /2804 10020 20020 39954 40292 56007 60006 90300=
07299,1997-01-26 06:00:00,2,1028.5,-0.7,100,2,800,3.704,,,300,1.5,2.2,,,,,,,,51,wg-a,,,,AAXX 26064 07299 02008 83002 10020 20020 39947 40285 57007 61000 75154 876// 90600 333 10022 20015 6000=
07299,1997-01-26 09:00:00,2,1028.5,-0,100,2,200,3.704,,,350,,,,,,,,,,45,wg-a,,,,AAXX 26094 07299 32/02 93502 10020 20020 39947 40285 55000 74554 89/// 90900=
07299,1997-01-26 12:00:00,3,1027.7,-0.6,100,3,3500,3.704,,,350,,,,,,,,,,10,wg-a,,,,AAXX 26124 07299 02135 83502 10030 20030 39941 40277 58006 60006 71054 887// 91200 333 61000=
07299,1997-01-26 15:00:00,3,1027.5,-0.2,100,3,1400,3.704,,,340,,,,,,,,,,10,wg-a,,,,AAXX 26154 07299 12114 83402 10030 20030 39939 40275 55002 60006 71022 887// 91500=
07299,1997-01-26 18:00:00,3,1028.2,0.6,100,3,600,3.704,,,330,1.6,3.6,,,,,,,,45,wg-a,,,,AAXX 26184 07299 12/06 93302 10030 20030 39945 40282 51006 60006 74542 89/// 91800 333 10036 20016=
07299,1997-01-26 21:00:00,2,1028.4,0.1,100,2,200,3.704,,,290,,,,,,,,,,45,wg-a,,,,AAXX 26214 07299 12/02 92902 10020 20020 39946 40284 51001 60006 74544 89/// 92100=
07299,1997-01-27 00:00:00,2,1028.4,-0,100,2,400,3.704,,,290,,,,,,,,,,45,wg-a,,,,AAXX 27004 07299 12/04 92902 10020 20020 39946 40284 54000 60006 7454/ 89/// 90000=
07299,1997-01-27 03:00:00,2,1028.7,0.3,100,2,2500,0,,,0,,,,,,,,,,10,wg-a,,,,AAXX 27034 07299 12725 80000 10020 20020 39949 40287 50003 60006 7104/ 875// 90300=
07299,1997-01-27 06:00:00,2,1029.5,0.7,100,2,900,0,,,0,1.5,2.7,,,,,,,,42,wg-a,,,,AAXX 27064 07299 02109 80000 10020 20020 39956 40295 51007 60006 7424/ 875// 90600 333 10027 20015 60004=
07299,1997-01-27 09:00:00,2,1030.7,1.2,100,2,1500,0,,,0,,,,,,,,,,10,wg-a,,,,AAXX 27094 07299 12215 80000 10020 20020 39968 40307 53012 60006 71042 886// 90900=
07299,1997-01-27 12:00:00,3,1030.8,0.3,100,3,4000,3.704,,,280,,,,,,,,,,10,wg-a,,,,AAXX 27124 07299 12440 82802 10030 20030 39971 40308 50003 60006 71022 886// 91200=
07299,1997-01-27 15:00:00,4,1030.8,-0,81,1,7000,7.408,,,270,,,,,,,,,,,wg-a,,,,AAXX 27154 07299 12557 82704 10040 20010 39971 40308 55000 60006 885// 91500=
07299,1997-01-27 18:00:00,3,1031.8,0.9,81,0,7000,11.112,,,220,1.4,4,,,,,,,,,wg-a,,,,AAXX 27184 07299 12557 82206 10030 20000 39980 40318 52009 60006 885// 91800 333 10040 20014=
07299,1997-01-27 21:00:00,3,1032.4,0.5,81,0,7000,11.112,,,230,,,,,,,,,,,wg-a,,,,AAXX 27214 07299 12557 82306 10030 20000 39985 40324 53005 60006 885// 92100=
07299,1997-01-28 00:00:00,2,1032.8,0.3,87,0,8000,7.408,,,330,,,,,,,,,,,wg-a,,,,AAXX 28004 07299 12458 83304 10020 20000 39988 40328 53003 60006 885// 90000=
07299,1997-01-28 03:00:00,0,1033.6,0.6,93,-1,7000,11.112,,,340,,,,,,,,,,,wg-a,,,,AAXX 28034 07299 12357 83406 10000 21010 39994 40336 51006 60006 887// 90300=
07299,1997-01-28 06:00:00,0,1034.2,0.5,93,-1,6000,7.408,,,330,-0.4,2.9,,,,,,,,,wg-a,,,,AAXX 28064 07299 12256 83304 10000 21010 39999 40342 52005 60006 887// 90600 333 10029 21004=
07299,1997-01-28 09:00:00,0,1035.6,1.4,93,-1,2500,11.112,,,340,,,,,,,,,,10,wg-a,,,,AAXX 28094 07299 12125 83406 10000 21010 30013 40356 51014 60006 71022 886// 90900=
07299,1997-01-28 12:00:00,2,1035.6,0.2,93,1,1700,11.112,,,340,,,,,,,,,,10,wg-a,,,,AAXX 28124 07299 12117 83406 10020 20010 30015 40356 50002 60006 71022 886// 91200=
07299,1997-01-28 15:00:00,3,1035.5,0.1,87,1,3300,7.408,,,340,,,,,,,,,,10,wg-a,,,,AAXX 28154 07299 12433 73404 10030 20010 30016 40355 53001 60006 71022 875// 91500=
07299,1997-01-28 18:00:00,1,1037.4,1.5,93,0,3000,11.112,,,330,-0.4,3.9,,,,,,,,10,wg-a,,,,AAXX 28184 07299 12230 83306 10010 20000 30031 40374 53015 60006 71022 875// 91800 333 10039 21004=
07299,1997-01-28 21:00:00,0,1039.5,2,93,-1,2000,11.112,,,360,,,,,,,,,,10,wg-a,,,,AAXX 28214 07299 12220 83606 10000 21010 30051 40395 51020 60006 71022 886// 92100=
07299,1997-01-29 00:00:00,-1,1040.3,0.6,100,-1,0,11.112,,,330,,,,,,,,,,,wg-a,,,,AAXX 29004 07299 12/// /3306 11010 21010 30057 40403 51006 60006 90000=
07299,1997-01-29 03:00:00,-1,1040.3,0,93,-2,1500,7.408,,,350,,,,,,,,,,,wg-a,,,,AAXX 29034 07299 12/15 /3504 11010 21020 30057 40403 50000 60006 90300=
07299,1997-01-29 06:00:00,-1,1040.6,0.2,93,-2,1500,7.408,,,340,-1.4,0.9,,,,,,,,10,wg-a,,,,AAXX 29064 07299 12115 83404 11010 21020 30059 40406 53002 60006 71022 886// 90600 333 10009 21014=
07299,1997-01-29 09:00:00,-1,1040.8,0.3,93,-2,2300,7.408,,,340,,,,,,,,,,10,wg-a,,,,AAXX 29094 07299 12223 83404 11010 21020 30062 40408 50003 60006 71022 886// 90900=
07299,1997-01-29 12:00:00,0,1039.4,-1.2,93,-1,4000,11.112,,,350,,,,,,,,,,10,wg-a,,,,AAXX 29124 07299 12240 /3506 10000 21010 30050 40394 58012 60006 71022 86500 91200=
07299,1997-01-29 15:00:00,1,1038.7,-0.6,86,-1,500,14.816,,,360,,,,,,,,,,,wg-a,,,,AAXX 29154 07299 12200 73608 10010 21010 30044 40387 56006 60006 875// 91500=
07299,1997-01-29 18:00:00,1,1039.2,0.5,86,-1,500,3.704,,,40,-1.4,1.9,,,,,,,,,wg-a,,,,AAXX 29184 07299 12400 80402 10010 21010 30049 40392 53005 60006 875// 91800 333 10019 21014=
07299,1997-01-29 21:00:00,0,1038.8,-0.5,80,-3,8000,14.816,,,110,,,,,,,,,,,wg-a,,,,AAXX 29214 07299 12558 21108 10000 21030 30044 40388 58005 60006 82500 92100=
07299,1997-01-30 00:00:00,0,1038.1,-0.7,80,-3,8000,14.816,,,90,,,,,,,,,,,wg-a,,,,AAXX 30004 07299 12558 40908 10000 21030 30037 40381 56007 60006 84500 90000=
07299,1997-01-30 03:00:00,0,1037.6,-0.4,80,-3,500,11.112,,,60,,,,,,,,,,,wg-a,,,,AAXX 30034 07299 12400 70606 10000 21030 30033 40376 58004 60006 875// 90300=
07299,1997-01-30 06:00:00,0,1037.2,-0.4,80,-3,4500,11.112,,,60,-0.3,1.5,,,,,,,,10,wg-a,,,,AAXX 30064 07299 12445 80606 10000 21030 30029 40372 56004 60006 71022 885// 90600 333 10015 21003=
07299,1997-01-30 09:00:00,1,1037.5,0.3,80,-2,3000,14.816,,,70,,,,,,,,,,10,wg-a,,,,AAXX 30094 07299 12430 80708 10010 21020 30032 40375 52003 60006 71022 885// 90900=
07299,1997-01-30 12:00:00,2,1037,-0.3,75,-2,3500,11.112,,,60,,,,,,,,,,10,wg-a,,,,AAXX 30124 07299 12435 80606 10020 21020 30029 40370 58003 60006 71022 885// 91200=
07299,1997-01-30 15:00:00,2,1036,-1,75,-2,3000,11.112,,,70,,,,,,,,,,10,wg-a,,,,AAXX 30154 07299 12430 70706 10020 21020 30019 40360 56010 60006 71022 875// 91500=
07299,1997-01-30 18:00:00,-1,1036.6,0.3,86,-3,2500,3.704,,,60,-0.5,2.4,,,,,,,,10,wg-a,,,,AAXX 30184 07299 12425 80602 11010 21030 30022 40366 53003 60006 71022 885// 91800 333 10024 21005=
07299,1997-01-31 00:00:00,0,1035.8,-0.4,80,-3,4000,7.408,,,80,,,,,,,,,,10,wg-a,,,,AAXX 31004 07299 12440 70804 10000 21030 30014 40358 58004 60006 71022 875// 90000=
07299,1997-01-31 03:00:00,-1,1035.4,-0.4,86,-3,4000,11.112,,,80,,,,,,,,,,10,wg-a,,,,AAXX 31034 07299 12440 80806 11010 21030 30010 40354 56004 60006 71022 875// 90300=
07299,1997-01-31 12:00:00,0,1034.1,-0.7,80,-3,4500,3.704,,,40,,,,,,,,,,10,wg-a,,,,AAXX 31124 07299 12445 80402 10000 21030 39998 40341 58007 60006 71022 886// 91200=
07299,1997-01-31 15:00:00,-1,1033.6,-0.6,86,-3,2100,3.704,,,10,,,,,,,,,,10,wg-a,,,,AAXX 31154 07299 12321 80102 11010 21030 39992 40336 57006 60006 71022 886// 91500=
07299,1997-01-31 18:00:00,-1,1033.3,-0.3,93,-2,1900,11.112,,,360,-1.3,-0.1,,,,,,,,10,wg-a,,,,AAXX 31184 07299 12319 83606 11010 21020 39989 40333 58003 60006 71022 886// 91800 333 11001 21013=
07299,1997-01-31 21:00:00,-2,1033.5,0.2,93,-3,2000,11.112,,,350,,,,,,,,,,10,wg-a,,,,AAXX 31214 07299 12220 83506 11020 21030 39991 40335 53002 60006 71022 876// 92100=
07299,1997-02-01 00:00:00,-1,1033.4,-0.1,86,-3,2500,7.408,,,340,,,,,,,,,,10,wg-a,,,,AAXX 01004 07299 12325 83404 11010 21030 39990 40334 58001 60006 71022 876// 90000=
07299,1997-02-01 03:00:00,-1,1032.7,-0.7,93,-2,2500,3.704,,,350,,,,,,,,,,10,wg-a,,,,AAXX 01034 07299 12425 83502 11010 21020 39983 40327 58007 60006 71022 876// 90300=
07299,1997-02-01 06:00:00,-1,1032.4,-0.2,93,-2,4500,0,,,0,-1.7,-0.9,,,,,,,,10,wg-a,,,,AAXX 01064 07299 12445 80000 11010 21020 39981 40324 55002 60006 71022 886// 90600 333 11009 21017=
07299,1997-02-01 09:00:00,0,1032.2,-0.1,80,-3,6000,11.112,,,100,,,,,,,,,,,wg-a,,,,AAXX 01094 07299 12456 81006 10000 21030 39980 40322 58001 60006 876// 90900=
07299,1997-02-01 15:00:00,1,1031.1,-0.5,80,-2,6000,11.112,,,350,,,,,,,,,,,wg-a,,,,AAXX 01154 07299 12456 83506 10010 21020 39971 40311 56005 60006 875// 91500=
07299,1997-02-01 18:00:00,-2,1031.4,-0.2,93,-3,4000,3.704,,,330,-2.3,2.1,,,,,,,,10,wg-a,,,,AAXX 01184 07299 12440 23302 11020 21030 39969 40314 58002 60006 71011 82600 91800 333 10021 21023=
07299,1997-02-01 21:00:00,-4,1031.2,-0.3,100,-4,4000,7.408,,,300,,,,,,,,,,10,wg-a,,,,AAXX 01214 07299 12440 /3004 11040 21040 39966 40312 57003 60006 71000 81600 92100=
07299,1997-02-02 06:00:00,-4,1028.7,-0.3,93,-5,4000,3.704,,,100,-6,-2.2,,,,,,,,10,wg-a,,,,AAXX 02064 07299 12440 /1002 11040 21050 39941 40287 56003 60006 71000 81600 90600 333 11022 21060=
07299,1997-02-02 09:00:00,-1,1028.9,0.5,93,-2,4500,7.408,,,160,,,,,,,,,,10,wg-a,,,,AAXX 02094 07299 12545 51604 11010 21020 39946 40289 53005 60006 71000 81531 90900=
07299,1997-02-02 12:00:00,4,1027.5,-0.7,65,-2,4500,7.408,,,150,,,,,,,,,,10,wg-a,,,,AAXX 02124 07299 12/45 31504 10040 21020 39939 40275 58007 60006 71011 81032 91200=
07299,1997-02-02 15:00:00,6,1026.2,-1,56,-2,7000,3.704,,,100,,,,,,,,,,,wg-a,,,,AAXX 02154 07299 12/57 /1002 10060 21020 39929 40262 56010 60006 82032 91500=
07299,1997-02-02 18:00:00,-1,1028.5,1.4,93,-2,4000,0,,,0,-5.1,5.9,,,,,,,,10,wg-a,,,,AAXX 02184 07299 12/40 00000 11010 21020 39943 40285 53014 60006 71011 80000 91800 333 10059 21051=
07299,1997-02-02 21:00:00,-2,1029.2,0.5,93,-3,3500,0,,,0,,,,,,,,,,10,wg-a,,,,AAXX 02214 07299 12/35 00000 11020 21030 39948 40292 53005 60006 71000 80000 92100=
07299,1997-02-03 00:00:00,-1,1029.3,0.2,93,-2,3000,0,,,0,,,,,,,,,,10,wg-a,,,,AAXX 03004 07299 12230 60000 11010 21020 39950 40293 50002 60006 710// 86600 90000=
07299,1997-02-03 03:00:00,-1,1028.7,-0.6,93,-2,2500,3.704,,,10,,,,,,,,,,10,wg-a,,,,AAXX 03034 07299 12225 70102 11010 21020 39944 40287 58006 60006 710// 876// 90300=
07299,1997-02-03 06:00:00,-2,1029.4,0.7,93,-3,2500,7.408,,,350,-2.6,-1.2,,,,,,,,10,wg-a,,,,AAXX 03064 07299 12225 73504 11020 21030 39951 40294 53007 60006 71022 876// 90600 333 11012 21026=
07299,1997-02-03 09:00:00,-2,1030.8,1.3,93,-3,2100,7.408,,,330,,,,,,,,,,20,wg-a,,,,AAXX 03094 07299 02221 83304 11020 21030 39964 40308 51013 61000 72052 876// 90900 333 ////=
07299,1997-02-03 12:00:00,0,1030.3,-0.3,86,-2,3800,3.704,,,100,,,,,,,,,,1,wg-a,,,,AAXX 03124 07299 02438 81002 10000 21020 39961 40303 58003 61000 70152 876// 91200 333 ////=
07299,1997-02-03 15:00:00,1,1030,-0.2,80,-2,4200,3.704,,,20,,,,,,,,,,,wg-a,,,,AAXX 03154 07299 12442 80202 10010 21020 39959 40300 55002 60006 876// 91500=
07299,1997-02-03 18:00:00,-1,1030.7,0.6,93,-2,2500,0,,,0,-2.2,0.9,,,,,,,,10,wg-a,,,,AAXX 03184 07299 12225 80000 11010 21020 39965 40307 51006 60006 71022 876// 91800 333 10009 21022=
07299,1997-02-03 21:00:00,-1,1030.7,-0,93,-2,2500,0,,,0,,,,,,,,,,10,wg-a,,,,AAXX 03214 07299 12225 80000 11010 21020 39965 40307 54000 60006 71022 876// 92100=
07299,1997-02-04 00:00:00,-2,1029.9,-0.6,93,-3,3500,11.112,,,160,-1.7,-0.7,,,,,,,,10,wg-a,,,,AAXX 04004 07299 02235 71606 11020 21030 39956 40299 56006 60006 71022 876// 90000 333 11007 21017 61000=
07299,1997-02-04 03:00:00,-2,1030.5,-0.4,100,-2,2500,11.112,,,150,,,,,,,,,,10,wg-a,,,,AAXX 04034 07299 12225 81506 11020 21020 39962 40305 58004 60006 71022 876// 90300=
07299,1997-02-04 06:00:00,-1,1029.9,-0.6,93,-2,3500,11.112,,,160,-1.7,-0.7,,,,,,,,10,wg-a,,,,AAXX 04064 07299 02235 71606 11010 21020 39962 40299 56006 60006 71022 876// 90600 333 11007 21017 61000=
07299,1997-02-04 09:00:00,0,1029.7,0,86,-2,3700,11.112,,,140,,,,,,,,,,10,wg-a,,,,AAXX 04094 07299 12337 71406 10000 21020 39956 40297 50000 60006 71022 876// 90900=
07299,1997-02-04 12:00:00,4,1027.4,-1.8,70,-1,4000,3.704,,,150,,,,,,,,,,,wg-a,,,,AAXX 04124 07299 12/40 /1502 10040 21010 39938 40274 58018 60006 91200=
07299,1997-02-04 15:00:00,5,1024.6,-2.5,65,-1,7000,7.408,,,150,,,,,,,,,,,wg-a,,,,AAXX 04154 07299 12/57 71504 10050 21010 39913 40246 56025 60006 87072 91500=
07299,1997-02-04 18:00:00,2,1025.2,0.1,80,-1,4500,11.112,,,200,-1.8,5.6,,,,,,,,10,wg-a,,,,AAXX 04184 07299 12/45 72006 10020 21010 39914 40252 52001 60006 71022 86072 91800 333 10056 21018=
07299,1997-02-04 21:00:00,1,1024.6,-0.6,86,-1,4500,7.408,,,130,,,,,,,,,,10,wg-a,,,,AAXX 04214 07299 12/45 81304 10010 21010 39908 40246 57006 60006 71022 8703/ 92100=
07299,1997-02-05 00:00:00,1,1023.8,-0.8,86,-1,4500,7.408,,,160,,,,,,,,,,10,wg-a,,,,AAXX 05004 07299 12/45 81604 10010 21010 39900 40238 56008 60006 71022 8703/ 90000=
07299,1997-02-05 03:00:00,1,1022.3,-1.4,86,-1,500,11.112,,,170,,,,,,,,,,,wg-a,,,,AAXX 05034 07299 12/00 81706 10010 21010 39886 40223 56014 60006 8707/ 90300=
07299,1997-02-05 06:00:00,2,1021.2,-1,80,-1,8000,3.704,,,170,0,2,,,,,,,,,wg-a,,,,AAXX 05064 07299 12/58 81702 10020 21010 39876 40212 55010 60006 8707/ 90600 333 10020 20000=
07299,1997-02-05 09:00:00,3,1019.2,-1.8,81,0,500,3.704,,,150,,,,,,,,,,,wg-a,,,,AAXX 05094 07299 12600 81502 10030 20000 39858 40192 58018 60006 8557/ 90900=
07299,1997-02-05 12:00:00,5,1018.7,-0.3,93,4,4500,3.704,,,130,,,,1,,,,,,61,wg-a,,,,AAXX 05124 07299 02545 81302 10050 20040 39855 40187 57003 60016 76162 8657/ 91200 333 60017=
07299,1997-02-05 15:00:00,7,1019.9,1.5,87,5,8000,18.52,,,260,,,,0,,,,,,25,wg-a,,,,AAXX 05154 07299 12458 82610 10070 20050 39870 40199 53015 60007 72586 888// 91500=
07299,1997-02-05 18:00:00,6,1023.9,3.7,87,4,8000,22.224,,,260,1.6,7.4,,0,,,,,,1,wg-a,,,,AAXX 05184 07299 02658 72612 10060 20040 39907 40239 53037 60006 70186 878// 91800 333 10074 20016 60007=
07299,1997-02-05 21:00:00,5,1029.1,4.9,75,1,15000,14.816,,,20,,,,,,,,,,,wg-a,,,,AAXX 05214 07299 12565 70208 10050 20010 39956 40291 51049 60006 878// 92100=
07299,1997-02-06 00:00:00,2,1033.5,3.9,80,-1,0,7.408,,,330,,,,,,,,,,,wg-a,,,,AAXX 06004 07299 12/// /3304 10020 21010 39995 40335 51039 60006 90000=
07299,1997-02-06 03:00:00,-1,1034.4,0.5,93,-2,15000,11.112,,,170,,,,,,,,,,,wg-a,,,,AAXX 06034 07299 12/65 01706 11010 21020 30000 40344 51005 60006 80000 90300=
07299,1997-02-06 06:00:00,-3,1036.7,2,100,-3,15000,3.704,,,230,-3.1,5.9,,,,,2,,,,wg-a,,,,AAXX 06064 07299 02/65 02302 11030 21030 30020 40367 51020 60006 80000 90600 333 10059 21031 60024=
07299,1997-02-06 09:00:00,2,1036.7,0.6,87,0,10000,7.408,,,100,,,,,,,,,,,wg-a,,,,AAXX 06094 07299 12/60 /1004 10020 20000 30026 40367 51006 60006 80000 90900=
07299,1997-02-06 12:00:00,7,1035.1,-0.9,57,-1,12000,11.112,,,110,,,,,,,,,,,wg-a,,,,AAXX 06124 07299 12/62 01106 10070 21010 30017 40351 58009 60006 80000 91200=
07299,1997-02-06 15:00:00,8,1034,-1,42,-4,500,14.816,,,120,,,,,,,,,,,wg-a,,,,AAXX 06154 07299 12/00 01208 10080 21040 30007 40340 56010 60006 80000 91500=
07299,1997-02-06 18:00:00,4,1034.6,0.1,60,-3,15000,7.408,,,110,-3,8.7,,,,,,,,,wg-a,,,,AAXX 06184 07299 12/65 11104 10040 21030 30008 40346 53001 60006 80001 91800 333 10087 21030=
07299,1997-02-06 21:00:00,2,1034.2,-0.6,69,-3,15000,11.112,,,130,,,,,,,,,,,wg-a,,,,AAXX 06214 07299 12/65 01306 10020 21030 30002 40342 58006 60006 80000 92100=
07299,1997-02-07 00:00:00,-1,1033.9,-0.7,86,-3,15000,7.408,,,180,,,,,,,,,,,wg-a,,,,AAXX 07004 07299 12/65 01804 11010 21030 39995 40339 57007 60006 80000 90000=
07299,1997-02-07 03:00:00,-2,1033.6,-0.4,93,-3,15000,14.816,,,180,,,,,,,,,,,wg-a,,,,AAXX 07034 07299 12/65 01808 11020 21030 39991 40336 56004 60006 80000 90300=
07299,1997-02-07 06:00:00,-2,1034.6,1,86,-4,10000,14.816,,,160,-2.8,4.4,,,,,,,,,wg-a,,,,AAXX 07064 07299 12/60 01608 11020 21040 30001 40346 53010 60006 80000 90600 333 10044 21028=
07299,1997-02-07 09:00:00,3,1034.3,0.3,75,-1,7000,11.112,,,150,,,,,,,,,,,wg-a,,,,AAXX 07094 07299 12/57 /1506 10030 21010 30004 40343 52003 60006 81030 90900=
07299,1997-02-07 12:00:00,9,1032.8,-0.7,53,0,7000,7.408,,,170,,,,,,,,,,,wg-a,,,,AAXX 07124 07299 12/57 /1704 10090 20000 39997 40328 58007 60006 81041 91200=
07299,1997-02-07 15:00:00,13,1031.1,-1.2,38,-1,13000,3.704,,,190,,,,,,,,,,,wg-a,,,,AAXX 07154 07299 12/63 11902 10130 21010 39985 40311 56012 60006 81041 91500=
07299,1997-02-07 18:00:00,4,1033.3,1,70,-1,7000,7.408,,,170,-2.2,13.9,,,,,,,,,wg-a,,,,AAXX 07184 07299 12/57 /1704 10040 21010 39995 40333 53010 60006 81030 91800 333 10139 21022=
07299,1997-02-07 21:00:00,1,1035,1.4,86,-1,10000,3.704,,,160,,,,,,,,,,,wg-a,,,,AAXX 07214 07299 12/60 11602 10010 21010 30009 40350 51014 60006 81030 92100=
07299,1997-02-08 00:00:00,0,1035.6,0.4,86,-2,0,11.112,,,170,,,,,,,,,,,wg-a,,,,AAXX 08004 07299 12/// /1706 10000 21020 30013 40356 53004 60006 90000=
07299,1997-02-08 03:00:00,-1,1035.5,-0.2,93,-2,7000,11.112,,,180,,,,,,,,,,,wg-a,,,,AAXX 08034 07299 12/57 01806 11010 21020 30011 40355 57002 60006 80000 90300=
07299,1997-02-08 06:00:00,-1,1036.2,0.7,93,-2,10000,14.816,,,160,-1.6,3.6,,,,,,,,,wg-a,,,,AAXX 08064 07299 12/60 21608 11010 21020 30018 40362 51007 60006 82031 90600 333 10036 21016=
07299,1997-02-08 09:00:00,4,1035.7,0,75,0,8000,7.408,,,160,,,,,,,,,,,wg-a,,,,AAXX 08094 07299 12/58 41604 10040 20000 30018 40357 50000 60006 83031 90900=
07299,1997-02-08 12:00:00,10,1034,-0.9,50,0,12000,3.704,,,100,,,,,,,,,,,wg-a,,,,AAXX 08124 07299 12/62 41002 10100 20000 30009 40340 58009 60006 84031 91200=
07299,1997-02-08 15:00:00,12,1031.9,-1.8,32,-4,12000,3.704,,,190,,,,,,,,,,,wg-a,,,,AAXX 08154 07299 12/62 41902 10120 21040 39991 40319 56018 60006 84032 91500=
07299,1997-02-08 18:00:00,4,1032.8,-0,75,0,13000,3.704,,,190,-1.1,13.7,,,,,,,,,wg-a,,,,AAXX 08184 07299 12/63 31902 10040 20000 39991 40328 55000 60006 80001 91800 333 10137 21011=
07299,1997-02-08 21:00:00,0,1033.9,0.5,86,-2,10000,7.408,,,180,,,,,,,,,,,wg-a,,,,AAXX 08214 07299 12/60 01804 10000 21020 39996 40339 52005 60006 80000 92100=
07299,1997-02-09 00:00:00,0,1033.6,-0.3,74,-4,0,11.112,,,150,,,,,,,,,,,wg-a,,,,AAXX 09004 07299 12/// /1506 10000 21040 39993 40336 58003 60006 90000=
07299,1997-02-09 03:00:00,0,1033.4,-0.2,80,-3,10000,14.816,,,160,,,,,,,,,,,wg-a,,,,AAXX 09034 07299 12/60 01608 10000 21030 39991 40334 58002 60006 80000 90300=
07299,1997-02-09 06:00:00,0,1032.9,-0.5,80,-3,10000,11.112,,,150,-1.8,4.4,,,,,,,,,wg-a,,,,AAXX 09064 07299 12/60 11506 10000 21030 39986 40329 55005 60006 81031 90600 333 10044 21018=
07299,1997-02-09 09:00:00,3,1033,0.6,75,-1,10000,11.112,,,150,,,,,,,,,,,wg-a,,,,AAXX 09094 07299 12/60 31506 10030 21010 39992 40330 53006 60006 81032 90900=
07299,1997-02-09 12:00:00,11,1031.2,-0.9,47,0,16000,7.408,,,150,,,,,,,,,,,wg-a,,,,AAXX 09124 07299 12/66 51504 10110 20000 39983 40312 58009 60006 81032 91200=
07299,1997-02-09 15:00:00,14,1029.4,-1.4,41,1,22000,3.704,,,260,,,,,,,,,,,wg-a,,,,AAXX 09154 07299 12/72 72602 10140 20010 39969 40294 56014 60006 80002 91500=
07299,1997-02-09 18:00:00,5,1030.8,0.4,75,1,18000,7.408,,,180,-2.3,13.8,,,,,,,,,wg-a,,,,AAXX 09184 07299 12/68 31804 10050 20010 39973 40308 53004 60006 80002 91800 333 10138 21023=
07299,1997-02-09 21:00:00,2,1031.4,0.1,80,-1,15000,11.112,,,160,,,,,,,,,,,wg-a,,,,AAXX 09214 07299 12/65 41606 10020 21010 39974 40314 53001 60006 80001 92100=
07299,1997-02-10 00:00:00,0,1031.1,-0.4,86,-2,12000,11.112,,,160,,,,,,,,,,,wg-a,,,,AAXX 10004 07299 12/62 01606 10000 21020 39970 40311 58004 60006 80000 90000=
07299,1997-02-10 03:00:00,-1,1030,-1.2,86,-3,11000,14.816,,,160,,,,,,,,,,,wg-a,,,,AAXX 10034 07299 12/61 01608 11010 21030 39958 40300 58012 60006 80000 90300=
07299,1997-02-10 06:00:00,-1,1029.1,-0.9,86,-3,12000,11.112,,,170,-2.2,5.7,,,,,,,,,wg-a,,,,AAXX 10064 07299 12/62 01706 11010 21030 39949 40291 56009 60006 80000 90600 333 10057 21022=
07299,1997-02-10 09:00:00,3,1028.5,-0,75,-1,15000,11.112,,,160,,,,,,,,,,,wg-a,,,,AAXX 10094 07299 12865 51606 10030 21010 39948 40285 54000 60006 81031 90900=
07299,1997-02-10 12:00:00,13,1025.2,-2,41,0,18000,3.704,,,170,,,,,,,,,,,wg-a,,,,AAXX 10124 07299 12/68 31702 10130 20000 39928 40252 58020 60006 81031 91200=
07299,1997-02-10 15:00:00,16,1021.9,-2.9,36,1,20000,3.704,,,120,,,,,,,,,,,wg-a,,,,AAXX 10154 07299 12/70 21202 10160 20010 39899 40219 56029 60006 80004 91500=
07299,1997-02-10 18:00:00,6,1022.5,-0.5,81,3,15000,7.408,,,190,-2,16.4,,,,,,,,,wg-a,,,,AAXX 10184 07299 12/65 41904 10060 20030 39894 40225 56005 60006 82032 91800 333 10164 21020=
07299,1997-02-10 21:00:00,6,1022.3,-0.3,75,2,15000,7.408,,,150,,,,,,,,,,,wg-a,,,,AAXX 10214 07299 12/65 71504 10060 20020 39891 40223 56003 60006 8703/ 92100=
07299,1997-02-11 00:00:00,10,1023.8,2,66,4,1200,22.224,,,270,,,,,,,,,,,wg-a,,,,AAXX 11004 07299 12512 82712 10100 20040 39911 40238 53020 60006 85/7/ 90000=
07299,1997-02-11 03:00:00,9,1024.2,0.2,71,4,12000,18.52,,,280,,,,,,,,,,,wg-a,,,,AAXX 11034 07299 12362 82810 10090 20040 39913 40242 50002 60006 815// 90300=
07299,1997-02-11 06:00:00,7,1025.5,1.1,93,6,9000,7.408,,,310,4.9,10.5,,,,,,,,60,wg-a,,,,AAXX 11064 07299 02259 83104 10070 20060 39924 40255 53011 61000 76062 875// 90600 333 10105 20049 6000=
07299,1997-02-11 09:00:00,6,1027.2,1.6,100,6,7000,7.408,,,290,,,,1,,,,,,10,wg-a,,,,AAXX 11094 07299 12357 72904 10060 20060 39940 40272 53016 60017 71062 875// 90900=
07299,1997-02-11 12:00:00,8,1026.6,-0.4,87,6,9000,7.408,,,280,,,,0,,,,,,3,wg-a,,,,AAXX 11124 07299 02359 82804 10080 20060 39936 40266 58004 60016 70362 888// 91200 333 60007=
07299,1997-02-11 15:00:00,9,1024.8,-1.7,81,6,8000,0,,,0,,,,,,,,,,,wg-a,,,,AAXX 11154 07299 12458 70000 10090 20060 39919 40248 56017 60006 84832 91500=
07299,1997-02-11 18:00:00,7,1024.2,-0.8,93,6,8000,7.408,,,180,6.1,8.8,,,,,,,,,wg-a,,,,AAXX 11184 07299 12558 71804 10070 20060 39911 40242 56008 60006 8483/ 91800 333 10088 20061=
07299,1997-02-11 21:00:00,8,1023,-1,93,7,8000,14.816,,,240,,,,0,,,,,,61,wg-a,,,,AAXX 11214 07299 12558 72408 10080 20070 39901 40230 58010 60007 76162 8653/ 92100=
07299,1997-02-12 00:00:00,7,1021.2,-1.8,100,7,8000,7.408,,,120,,,,1,,,,,,60,wg-a,,,,AAXX 12004 07299 02558 71204 10070 20070 39883 40212 57018 60016 76062 8353/ 90000 333 60017=
07299,1997-02-12 03:00:00,10,1019.4,-1.5,87,8,7000,22.224,,,240,,,,1,,,,,,60,wg-a,,,,AAXX 12034 07299 12557 72412 10100 20080 39868 40194 56015 60017 7606/ 8453/ 90300=
07299,1997-02-12 06:00:00,11,1020.5,1.2,71,6,10000,35.188,,50.004,230,6.7,10.9,,,,,,,,60,wg-a,,,,AAXX 12064 07299 02560 72319 10110 20060 39880 40205 50012 61000 76066 8553/ 90600 333 10109 20067 6003 91027=
07299,1997-02-12 09:00:00,11,1021.6,1.1,71,6,15000,29.632,,50.004,240,,,,,,,,,,1,wg-a,,,,AAXX 12094 07299 02465 72416 10110 20060 39891 40216 51011 61000 70162 84801 90900 333 //// 91027=
07299,1997-02-12 12:00:00,12,1020.4,-1.1,76,8,25000,25.928,,,240,,,,,,,,,,1,wg-a,,,,AAXX 12124 07299 02475 72414 10120 20080 39880 40204 58011 61000 70186 84831 91200 333 6100=
07299,1997-02-12 15:00:00,12,1018.7,-1.6,67,6,25000,25.928,,,240,,,,,,,,,,,wg-a,,,,AAXX 12154 07299 12475 72414 10120 20060 39864 40187 56016 60006 878// 91500=
07299,1997-02-12 18:00:00,11,1017.5,-1.3,66,5,20000,22.224,,,230,10,13.4,,,,,,,,,wg-a,,,,AAXX 12184 07299 12570 72312 10110 20050 39851 40175 56013 60006 878// 91800 333 10134 20100=
07299,1997-02-12 21:00:00,12,1015.7,-1.6,58,4,17000,22.224,,,210,,,,,,,,,,,wg-a,,,,AAXX 12214 07299 12567 72112 10120 20040 39835 40157 56016 60006 878// 92100=
07299,1997-02-13 00:00:00,12,1012.8,-2.9,58,4,15000,29.632,,,220,,,,,,,,,,60,wg-a,,,,AAXX 13004 07299 02565 82216 10120 20040 39806 40128 56029 61000 7606/ 878// 90000 333 6100=
07299,1997-02-13 03:00:00,11,1009.6,-3.1,66,5,17000,50.004,,68.524,220,,,,0,,,,,,21,wg-a,,,,AAXX 13034 07299 12567 52227 10110 20050 39775 40096 58031 60007 7216/ 85800 90300 333 91037=
07299,1997-02-13 06:00:00,10,1008.8,-0.9,62,3,16000,38.892,,61.116,240,9.6,12.7,,,,,,,,3,wg-a,,,,AAXX 13064 07299 02466 72421 10100 20030 39766 40088 58009 60006 70362 8583/ 90600 333 10127 20096 60004 91033=
07299,1997-02-13 09:00:00,11,1005.4,-3.2,58,3,18000,50.004,,72.228,230,,,,,,,,,,1,wg-a,,,,AAXX 13094 07299 12468 42327 10110 20030 39734 40054 58032 60006 70182 82871 90900 333 91039=
07299,1997-02-13 12:00:00,4,1008,1.7,93,3,3500,38.892,,103.712,270,,,,2,,,,,,80,wg-a,,,,AAXX 13124 07299 02335 82721 10040 20030 39751 40080 53017 60026 78087 8697/ 91200 333 60027 91056=
07299,1997-02-13 18:00:00,4,1014.1,2.7,81,1,10000,22.224,,,240,2.4,12.5,,1,,,,,,29,wg-a,,,,AAXX 13184 07299 02460 72412 10040 20010 39810 40141 50027 60006 72998 8697/ 91800 333 10125 20024 60017=
07299,1997-02-13 21:00:00,5,1015.6,1.5,65,-1,15000,31.484,,,250,,,,2,,,,,,1,wg-a,,,,AAXX 13214 07299 12465 /2517 10050 21010 39825 40156 51015 60027 70182 85900 92100=
07299,1997-02-14 00:00:00,5,1015.3,-0.2,65,-1,15000,14.816,,,240,,,,0,,,,,,0,wg-a,,,,AAXX 14004 07299 02465 72408 10050 21010 39823 40153 55002 60026 70082 878// 90000 333 60007=
07299,1997-02-14 03:00:00,4,1013.2,-2.1,75,0,18000,11.112,,,220,,,,,,,,,,,wg-a,,,,AAXX 14034 07299 12568 82206 10040 20000 39802 40132 58021 60006 83832 90300=
07299,1997-02-14 06:00:00,4,1010.8,-2.4,87,2,14000,7.408,,,250,2.3,5.8,,,,,,,,60,wg-a,,,,AAXX 14064 07299 02564 82504 10040 20020 39778 40108 56024 61000 76062 8683/ 90600 333 10058 20023 6008=
07299,1997-02-14 09:00:00,5,1007.9,-2.7,81,2,15000,7.408,,,80,,,,,,,,,,3,wg-a,,,,AAXX 14094 07299 02565 70804 10050 20020 39751 40079 58027 61000 70362 8683/ 90900 333 ////=
07299,1997-02-14 12:00:00,5,1005,-2.8,93,4,4000,11.112,,,120,,,,1,,,,,,10,wg-a,,,,AAXX 14124 07299 02240 81206 10050 20040 39723 40050 56028 60016 71065 875// 91200 333 60017=
07299,1997-02-14 15:00:00,6,1003,-1.8,100,6,4000,7.408,,,100,,,,3,,,,,,10,wg-a,,,,AAXX 14154 07299 12140 71004 10060 20060 39705 40030 58018 60037 71065 875// 91500=
07299,1997-02-14 18:00:00,10,1002.5,-0,82,7,10000,22.224,,35.188,250,3.3,10,,,,,,,,25,wg-a,,,,AAXX 14184 07299 02560 72512 10100 20070 39705 40025 55000 61000 72586 878// 91800 333 10100 20033 6004 91019=
07299,1997-02-14 21:00:00,8,1002.4,-0.3,93,7,12000,7.408,,,100,,,,1,,,,,,25,wg-a,,,,AAXX 14214 07299 12462 71004 10080 20070 39702 40024 58003 60017 72586 878// 92100=
07299,1997-02-15 00:00:00,8,1002.5,0.1,87,6,12000,11.112,,,200,,,,,,,,,,0,wg-a,,,,AAXX 15004 07299 02462 72006 10080 20060 39703 40025 53001 60016 7008/ 878// 90000 333 61000=
07299,1997-02-15 03:00:00,9,1002.6,0.1,81,6,10000,22.224,,,240,,,,0,,,,,,80,wg-a,,,,AAXX 15034 07299 12460 72412 10090 20060 39704 40026 53001 60007 7808/ 878// 90300=
07299,1997-02-15 06:00:00,5,1004.8,1.7,87,3,8000,22.224,,,300,,9.8,,,,,,,,61,wg-a,,,,AAXX 15064 07299 02258 73012 10050 20030 39721 40048 53017 61000 76186 878// 90600 333 10098 20047 6013=
07299,1997-02-15 09:00:00,1,1012.2,6.7,93,0,2500,11.112,,,320,,,,4,,,,,,68,wg-a,,,,AAXX 15094 07299 12125 73206 10010 20000 39788 40122 51067 60047 76876 876// 90900=
07299,1997-02-15 12:00:00,3,1017.5,5.4,93,2,6000,11.112,,,350,,,,0,,,,,,1,wg-a,,,,AAXX 15124 07299 02256 73506 10030 20020 39842 40175 51054 60046 70176 878// 91200 333 60007=
07299,1997-02-15 15:00:00,6,1021.5,4.1,65,0,15000,11.112,,,20,,,,,,,,,,,wg-a,,,,AAXX 15154 07299 12465 40206 10060 20000 39883 40215 51041 60006 83831 91500=
07299,1997-02-15 21:00:00,1,1027.3,2.3,93,0,15000,3.704,,,120,,,,,,,,,,,wg-a,,,,AAXX 15214 07299 12/65 21202 10010 20000 39934 40273 51023 60006 82030 92100=
07299,1997-02-16 00:00:00,0,1028.1,0.6,93,-1,10000,3.704,,,100,,,,,,,,,,,wg-a,,,,AAXX 16004 07299 12760 31002 10000 21010 39940 40281 51006 60006 82530 90000=
07299,1997-02-16 03:00:00,-1,1027.4,-0.7,100,-1,12000,3.704,,,190,,,,,,,,,,,wg-a,,,,AAXX 16034 07299 12662 31902 11010 21010 39933 40274 58007 60006 83500 90300=
07299,1997-02-16 06:00:00,-2,1027.6,0,93,-3,8000,7.408,,,180,-2,6,,,,,4,,,,wg-a,,,,AAXX 16064 07299 02758 11804 11020 21030 39933 40276 50000 60006 81500 90600 333 10024 21020 60044=
07299,1997-02-16 09:00:00,-1,1027.4,0,100,-1,700,7.408,,,180,,,,,,,,,,42,wg-a,,,,AAXX 16094 07299 12007 /1804 11010 21010 39933 40274 50000 60006 74241 876// 90900=
07299,1997-02-16 12:00:00,6,1025.3,-1.3,61,-1,11000,3.704,,,70,,,,,,,,,,3,wg-a,,,,AAXX 16124 07299 12461 70702 10060 21010 39920 40253 58013 60006 70341 81204 91200=
07299,1997-02-16 15:00:00,6,1023.8,-1.4,52,-3,18000,22.224,,,120,,,,,,,,,,,wg-a,,,,AAXX 16154 07299 12568 71212 10060 21030 39906 40238 55014 60006 81132 91500=
07299,1997-02-16 18:00:00,4,1024.2,0.1,65,-2,12000,7.408,,,130,-2.3,7.2,,,,,,,,,wg-a,,,,AAXX 16184 07299 12/62 71304 10040 21020 39907 40242 53001 60006 81032 91800 333 10072 21023=
07299,1997-02-16 21:00:00,3,1023.4,-0.9,70,-2,12000,11.112,,,120,,,,,,,,,,,wg-a,,,,AAXX 16214 07299 12/62 71206 10030 21020 39898 40234 58009 60006 80001 92100=
07299,1997-02-17 00:00:00,3,1022.7,-0.6,70,-2,12000,7.408,,,120,,,,,,,,,,,wg-a,,,,AAXX 17004 07299 12/62 71204 10030 21020 39892 40227 55006 60006 85071 90000=
07299,1997-02-17 03:00:00,0,1023.7,0.6,86,-2,12000,11.112,,,160,,,,,,,,,,,wg-a,,,,AAXX 17034 07299 12762 81606 10000 21020 39898 40237 51006 60006 8457/ 90300=
07299,1997-02-17 06:00:00,1,1025,1.3,86,-1,11000,7.408,,,170,-0.5,3.5,,,,,,,,,wg-a,,,,AAXX 17064 07299 12761 81704 10010 21010 39911 40250 53013 60006 82572 90600 333 10035 21005=
07299,1997-02-17 09:00:00,2,1026.1,1.3,87,0,8000,3.704,,,200,,,,,,,,,,,wg-a,,,,AAXX 17094 07299 12558 72002 10020 20000 39924 40261 51013 60006 8657/ 90900=
07299,1997-02-17 12:00:00,6,1026.4,0.8,70,1,8000,3.704,,,180,,,,,,,,,,25,wg-a,,,,AAXX 17124 07299 02558 81802 10060 20010 39932 40264 51008 61000 72582 8658/ 91200 333 ////=
07299,1997-02-17 15:00:00,8,1025.1,-1.1,71,3,13000,11.112,,,110,,,,,,,,,,,wg-a,,,,AAXX 17154 07299 12563 /1106 10080 20030 39921 40251 56011 60006 82131 91500=
07299,1997-02-17 18:00:00,7,1025.8,0.5,76,3,14000,7.408,,,150,0.6,8.6,,,,,,,,,wg-a,,,,AAXX 17184 07299 12664 71504 10070 20030 39926 40258 53005 60006 8353/ 91800 333 10086 20006=
07299,1997-02-17 21:00:00,5,1026.6,0.5,81,2,14000,11.112,,,150,,,,,,,,,,,wg-a,,,,AAXX 17214 07299 12664 51506 10050 20020 39931 40266 51005 60006 82531 92100=
07299,1997-02-18 00:00:00,5,1025.7,-0.8,81,2,12000,11.112,,,140,,,,,,,,,,,wg-a,,,,AAXX 18004 07299 12562 71406 10050 20020 39923 40257 56008 60006 8557/ 90000=
07299,1997-02-18 03:00:00,4,1024.2,-1.6,87,2,11000,7.408,,,160,,,,,,,,,,,wg-a,,,,AAXX 18034 07299 12661 71604 10040 20020 39907 40242 57016 60006 8657/ 90300=
07299,1997-02-18 06:00:00,4,1022.6,-1.5,81,1,10000,11.112,,,160,3.5,6.9,,,,,,,,,wg-a,,,,AAXX 18064 07299 02660 81606 10040 20010 39892 40226 56015 60006 8357/ 90600 333 10069 20035 61000=
07299,1997-02-18 09:00:00,5,1022.1,-0.3,87,3,15000,7.408,,,110,,,,,,,,,,21,wg-a,,,,AAXX 18094 07299 02665 71104 10050 20030 39889 40221 58003 61000 72162 8487/ 90900 333 ////=
07299,1997-02-18 12:00:00,10,1018.5,-2.9,71,5,12000,18.52,,,190,,,,,,,,,,60,wg-a,,,,AAXX 18124 07299 02562 81910 10100 20050 39860 40185 58029 61000 76062 8687/ 91200 333 6100=
07299,1997-02-18 15:00:00,11,1016.7,-1.7,71,6,20000,42.596,,53.708,230,,,,0,,,,,,21,wg-a,,,,AAXX 18154 07299 12570 72323 10110 20060 39843 40167 56017 60007 72162 8587/ 91500 333 91029=
07299,1997-02-18 18:00:00,7,1019.9,2.7,87,5,500,35.188,,72.228,250,3.8,11.8,,,,,,,,10,wg-a,,,,AAXX 18184 07299 02400 82519 10070 20050 39870 40199 53027 61000 71086 889// 91800 333 10118 20038 6006 91039=
07299,1997-02-18 21:00:00,6,1024.6,4.4,70,1,13000,29.632,,,250,,,,1,,,,,,1,wg-a,,,,AAXX 18214 07299 12463 72516 10060 20010 39914 40246 53044 60017 70182 879// 92100=
07299,1997-02-19 00:00:00,3,1028.6,3.5,87,1,10000,25.928,,,260,,,,1,,,,,,25,wg-a,,,,AAXX 19004 07299 02360 42614 10030 20010 39949 40286 53035 60026 7258/ 84900 90000 333 60017=
07299,1997-02-19 03:00:00,4,1031,2.4,75,0,13000,22.224,,,260,,,,0,,,,,,0,wg-a,,,,AAXX 19034 07299 12463 42612 10040 20000 39973 40310 51024 60007 7008/ 84600 90300=
07299,1997-02-19 06:00:00,3,1032.7,1.5,75,-1,15000,22.224,,,260,2.6,7,,,,,9,,,1,wg-a,,,,AAXX 19064 07299 02565 /2612 10030 21010 39988 40327 51015 60006 7018/ 81200 90600 333 10070 20026 60094=
07299,1997-02-19 09:00:00,5,1034.9,2.4,75,1,18000,18.52,,,240,,,,,,,,,,,wg-a,,,,AAXX 19094 07299 12568 72410 10050 20010 30012 40349 51024 60006 83852 90900=
07299,1997-02-19 12:00:00,8,1033.3,-3,46,-3,500,22.224,,,230,,,,,,,,,,,wg-a,,,,AAXX 19124 07299 12600 72312 10080 21030 30000 40333 58030 60006 91200=
07299,1997-02-19 18:00:00,8,1027.3,-2.9,39,-5,20000,7.408,,,120,2.5,10.2,,,,,,,,,wg-a,,,,AAXX 19184 07299 12/70 71204 10080 21050 39942 40273 58029 60006 8707/ 91800 333 10102 20025=
07299,1997-02-19 21:00:00,7,1023.2,-4.1,45,-4,20000,11.112,,,120,,,,,,,,,,,wg-a,,,,AAXX 19214 07299 12770 81206 10070 21040 39901 40232 58041 60006 8357/ 92100=
07299,1997-02-20 00:00:00,6,1022.9,-0.4,49,-4,20000,3.704,,,200,,,,,,,,,,,wg-a,,,,AAXX 20004 07299 12770 72002 10060 21040 39897 40229 55004 60006 8253/ 90000=
07299,1997-02-20 03:00:00,8,1024.1,1.4,71,3,20000,18.52,,,250,,,,0,,,,,,,wg-a,,,,AAXX 20034 07299 12570 32510 10080 20030 39911 40241 51014 60007 83830 90300=
07299,1997-02-20 06:00:00,6,1027.8,3.4,87,4,15000,11.112,,,250,3.4,8.9,,,,,2,,,1,wg-a,,,,AAXX 20064 07299 02665 42506 10060 20040 39945 40278 51034 60006 70186 84600 90600 333 10089 20034 60024=
07299,1997-02-20 12:00:00,11,1029.6,0.2,58,3,25000,14.816,,,220,,,,,,,,,,,wg-a,,,,AAXX 20124 07299 12575 72208 10110 20030 39968 40296 52002 60006 878// 91200=
07299,1997-02-20 15:00:00,11,1028.8,-0.8,62,4,25000,22.224,,,230,,,,1,,,,,,3,wg-a,,,,AAXX 20154 07299 12575 /2312 10110 20040 39960 40288 58008 60017 70381 86800 91500=
07299,1997-02-20 18:00:00,7,1029.5,0.3,87,5,20000,3.704,,,210,5.2,11.7,,,,,,,,2,wg-a,,,,AAXX 20184 07299 12570 /2102 10070 20050 39963 40295 53003 60006 70281 85800 91800 333 10117 20052=
07299,1997-02-20 21:00:00,6,1029.8,0.1,75,2,15000,11.112,,,220,,,,,,,,,,,wg-a,,,,AAXX 20214 07299 12665 /2206 10060 20020 39964 40298 51001 60006 81500 92100=
07299,1997-02-21 00:00:00,6,1029.9,0.1,75,2,15000,14.816,,,240,,,,,,,,,,,wg-a,,,,AAXX 21004 07299 12765 22408 10060 20020 39965 40299 53001 60006 825/0 90000=
07299,1997-02-21 03:00:00,8,1029.6,-0.1,66,2,15000,3.704,,,160,,,,,,,,,,,wg-a,,,,AAXX 21034 07299 12665 81602 10080 20020 39964 40296 58001 60006 875// 90300=
07299,1997-02-21 06:00:00,8,1030.1,0.5,61,1,18000,11.112,,,190,4.5,8.1,,,,,1,,,,wg-a,,,,AAXX 21064 07299 02668 /1906 10080 20010 39969 40301 53005 60006 84801 90600 333 10081 20045 60014=
07299,1997-02-21 12:00:00,11,1032,0.6,58,3,16000,18.52,,,250,,,,,,,,,,,wg-a,,,,AAXX 21124 07299 12666 72510 10110 20030 39991 40320 50006 60006 87800 91200=
07299,1997-02-21 15:00:00,11,1031.7,-0.3,62,4,20000,14.816,,,270,,,,,,,,,,,wg-a,,,,AAXX 21154 07299 12670 72708 10110 20040 39988 40317 55003 60006 87800 91500=
07299,1997-02-21 18:00:00,9,1033,1.1,66,3,18000,3.704,,,250,7,11,,,,,,,,,wg-a,,,,AAXX 21184 07299 12668 72502 10090 20030 39999 40330 53011 60006 87800 91800 333 10110 20070=
07299,1997-02-21 21:00:00,8,1034.2,1,76,4,18000,11.112,,,200,,,,,,,,,,,wg-a,,,,AAXX 21214 07299 12568 72006 10080 20040 30009 40342 51010 60006 878// 92100=
07299,1997-02-22 00:00:00,6,1033.7,-0.7,87,4,25000,7.408,,,80,,,,,,,,,,,wg-a,,,,AAXX 22004 07299 12675 40804 10060 20040 30002 40337 58007 60006 84500 90000=
07299,1997-02-22 03:00:00,3,1034.2,0.1,87,1,20000,3.704,,,120,,,,,,,,,,,wg-a,,,,AAXX 22034 07299 12/70 01202 10030 20010 30003 40342 50001 60006 80000 90300=
07299,1997-02-22 06:00:00,2,1034,-0.3,93,1,25000,11.112,,,160,1,9.6,,,,,,,,,wg-a,,,,AAXX 22064 07299 12/75 01606 10020 20010 30000 40340 58003 60006 80000 90600 333 10096 20010=
07299,1997-02-22 09:00:00,8,1032.4,-0.8,71,3,500,7.408,,,140,,,,,,,,,,,wg-a,,,,AAXX 22094 07299 12/00 01404 10080 20030 39992 40324 58008 60006 80000 90900=
07299,1997-02-22 12:00:00,14,1029.5,-2.1,51,4,500,7.408,,,100,,,,,,,,,,,wg-a,,,,AAXX 22124 07299 12/00 01004 10140 20040 39971 40295 58021 60006 80000 91200=
07299,1997-02-22 15:00:00,15,1026.8,-2.5,44,3,500,7.408,,,70,,,,,,,,,,,wg-a,,,,AAXX 22154 07299 12/00 00704 10150 20030 39946 40268 56025 60006 80000 91500=
07299,1997-02-22 18:00:00,9,1026.6,-0.9,71,4,20000,3.704,,,340,0.9,15.6,,,,,,,,,wg-a,,,,AAXX 22184 07299 12/70 13402 10090 20040 39937 40266 56009 60006 80001 91800 333 10156 20009=
07299,1997-02-22 21:00:00,4,1026.3,-1,87,2,13000,7.408,,,200,,,,,,,,,,,wg-a,,,,AAXX 22214 07299 12/63 12004 10040 20020 39927 40263 58010 60006 80001 92100=
07299,1997-02-23 00:00:00,2,1025.1,-1.3,93,1,13000,11.112,,,180,,,,,,,,,,,wg-a,,,,AAXX 23004 07299 12/63 11806 10020 20010 39914 40251 58013 60006 80001 90000=
07299,1997-02-23 06:00:00,2,1023.3,-0.4,87,0,13000,7.408,,,150,0.4,9.3,,,,,,,,,wg-a,,,,AAXX 23064 07299 12/63 21504 10020 20000 39896 40233 58004 60006 80001 90600 333 10093 20004=
07299,1997-02-23 09:00:00,6,1022.7,0,81,3,10000,11.112,,,150,,,,,,,,,,,wg-a,,,,AAXX 23094 07299 12/60 71506 10060 20030 39896 40227 50000 60006 80006 90900=
07299,1997-02-23 12:00:00,13,1019.7,-2.2,54,4,13000,3.704,,,130,,,,,,,,,,,wg-a,,,,AAXX 23124 07299 12/63 71302 10130 20040 39874 40197 58022 60006 80006 91200=
07299,1997-02-23 15:00:00,16,1017.2,-2.1,42,3,17000,3.704,,,150,,,,,,,,,,,wg-a,,,,AAXX 23154 07299 12/67 71502 10160 20030 39853 40172 56021 60006 81046 91500=
07299,1997-02-23 18:00:00,11,1017,-0.7,66,5,13000,7.408,,,170,1,16,,,,,,,,,wg-a,,,,AAXX 23184 07299 12/63 81704 10110 20050 39846 40170 55007 60006 86076 91800 333 10160 20010=
07299,1997-02-23 21:00:00,7,1016.3,-1.1,81,4,13000,11.112,,,180,,,,,,,,,,,wg-a,,,,AAXX 23214 07299 12/63 51806 10070 20040 39835 40163 56011 60006 80001 92100=
07299,1997-02-24 00:00:00,6,1016,-0.4,87,4,13000,3.704,,,180,,,,,,,,,,,wg-a,,,,AAXX 24004 07299 12/63 71802 10060 20040 39831 40160 58004 60006 83031 90000=
07299,1997-02-24 06:00:00,6,1014.6,-0.7,87,4,10000,11.112,,,140,4.2,11.1,,,,,,,,21,wg-a,,,,AAXX 24064 07299 02660 71406 10060 20040 39817 40146 58007 61000 72162 8653/ 90600 333 10111 20042 6001=
07299,1997-02-24 09:00:00,11,1012.7,-1.2,76,7,9000,7.408,,,120,,,,,,,,,,1,wg-a,,,,AAXX 24094 07299 02559 61204 10110 20070 39805 40127 58012 61000 70162 84832 90900 333 ////=
07299,1997-02-24 12:00:00,12,1011.9,-0.7,67,6,8000,11.112,,46.3,250,,,,,,,,,,60,wg-a,,,,AAXX 24124 07299 02458 82506 10120 20060 39798 40119 58007 61000 76062 878// 91200 333 6100 91025=
07299,1997-02-24 15:00:00,12,1011.2,-0.6,76,8,9000,14.816,,,260,,,,0,,,,,,60,wg-a,,,,AAXX 24154 07299 12559 72608 10120 20080 39792 40112 55006 60007 76062 8687/ 91500=
07299,1997-02-24 18:00:00,14,1010.2,-0.9,55,5,16000,22.224,,,200,5.8,16,,,,,,,,1,wg-a,,,,AAXX 24184 07299 02766 72012 10140 20050 39783 40102 56009 60006 70162 875// 91800 333 10160 20058 61000=
07299,1997-02-25 00:00:00,14,1009.2,-1,55,5,17000,29.632,,,200,,,,,,,,,,,wg-a,,,,AAXX 25004 07299 12667 72016 10140 20050 39774 40092 56010 60006 8353/ 90000=
07299,1997-02-25 03:00:00,12,1008,-1.3,71,7,15000,35.188,,61.116,200,,,,1,,,,,,80,wg-a,,,,AAXX 25034 07299 12665 72019 10120 20070 39761 40080 58013 60017 78082 878// 90300 333 91033=
07299,1997-02-25 06:00:00,14,1008,0.1,67,8,18000,25.928,,,210,11.6,14.6,,,,,,,,60,wg-a,,,,AAXX 25064 07299 02668 72114 10140 20080 39762 40080 53001 61000 76086 8683/ 90600 333 10146 20116 6002=
07299,1997-02-25 09:00:00,16,1008.7,0.9,55,7,20000,46.3,,75.932,230,,,,,,,,,,60,wg-a,,,,AAXX 25094 07299 02570 82325 10160 20070 39771 40087 52009 61000 76062 8687/ 90900 333 //// 91041=
07299,1997-02-25 12:00:00,15,1009.1,0.4,63,8,15000,50.004,,75.932,220,,,,,,,,,,60,wg-a,,,,AAXX 25124 07299 02565 82227 10150 20080 39775 40091 53004 61000 76062 8587/ 91200 333 6100 91041=
07299,1997-02-25 15:00:00,15,1009.4,0.3,67,9,16000,31.484,,75.932,230,,,,,,,,,,60,wg-a,,,,AAXX 25154 07299 02566 82317 10150 20090 39778 40094 53003 61000 76062 8587/ 91500 333 //// 91041=
07299,1997-02-25 18:00:00,13,1011.3,1.6,82,10,10000,31.484,,53.708,230,13.1,16.5,,,,,,,,80,wg-a,,,,AAXX 25184 07299 02460 82317 10130 20100 39794 40113 53016 61000 78086 8687/ 91800 333 10165 20131 6001 91029=
07299,1997-02-26 00:00:00,13,1012.6,0.6,72,8,13000,46.3,,,240,,,,0,,,,,,60,wg-a,,,,AAXX 26004 07299 02663 82425 10130 20080 39806 40126 51006 60016 76062 8457/ 90000 333 60007=
07299,1997-02-26 03:00:00,12,1012.2,-0.5,82,9,10000,29.632,,,230,,,,3,,,,,,61,wg-a,,,,AAXX 26034 07299 12560 82316 10120 20090 39801 40122 58005 60037 7616/ 8457/ 90300=
07299,1997-02-26 06:00:00,12,1011,-1.2,82,9,6000,38.892,,,240,11.6,14.4,,,,,,,,61,wg-a,,,,AAXX 26064 07299 02556 82421 10120 20090 39789 40110 55012 61000 76166 878// 90600 333 10144 20116 6007=
07299,1997-02-26 09:00:00,9,1015.2,3.7,87,7,2000,35.188,,,260,,,,7,,,,,,10,wg-a,,,,AAXX 26094 07299 12320 72619 10090 20070 39826 40152 50037 60077 71066 878// 90900=
07299,1997-02-26 12:00:00,9,1017,1.9,81,6,10000,25.928,,46.3,230,,,,3,,,,,,21,wg-a,,,,AAXX 26124 07299 02460 /2314 10090 20060 39845 40170 50019 60106 72164 86800 91200 333 60037 91025=
07299,1997-02-26 15:00:00,13,1016.6,-0.1,51,3,20000,22.224,,,240,,,,,,,,,,,wg-a,,,,AAXX 26154 07299 12570 /2412 10130 20030 39844 40166 58001 60006 86900 91500=
07299,1997-02-26 18:00:00,7,1017.2,0.6,81,4,10000,7.408,,,180,7.2,13.4,,,,,,,,25,wg-a,,,,AAXX 26184 07299 02560 71804 10070 20040 39844 40172 52006 61000 72582 879// 91800 333 10134 20072 6000=
07299,1997-02-27 00:00:00,6,1025.5,3.8,81,3,10000,22.224,,,260,,,,3,,,,,,25,wg-a,,,,AAXX 27004 07299 02460 72612 10060 20030 39922 40255 51038 60056 72586 878// 90000 333 60037=
07299,1997-02-27 03:00:00,6,1028.6,3,81,3,15000,22.224,,,260,,,,0,,,,,,0,wg-a,,,,AAXX 27034 07299 12565 72612 10060 20030 39952 40286 53030 60007 70082 878// 90300=
07299,1997-02-27 06:00:00,5,1032.7,3.9,81,2,6000,14.816,,,270,3.8,8.1,,,,,,,,80,wg-a,,,,AAXX 27064 07299 02456 /2708 10050 20020 39991 40327 51039 61000 78082 86800 90600 333 10081 20038 6016=
07299,1997-02-27 09:00:00,6,1035.5,2.8,81,3,20000,22.224,,,240,,,,0,,,,,,25,wg-a,,,,AAXX 27094 07299 12570 72412 10060 20030 30019 40355 51028 60007 72586 878// 90900=
07299,1997-02-27 12:00:00,8,1036.3,1,66,2,20000,25.928,,,260,,,,,,,,,,,wg-a,,,,AAXX 27124 07299 12570 72614 10080 20020 30029 40363 51010 60006 86801 91200=
07299,1997-02-28 00:00:00,2,1038.4,-1.5,87,0,0,7.408,,,150,,,,,,,,,,,wg-a,,,,AAXX 28004 07299 12/// /1504 10020 20000 30043 40384 56015 60006 90000=
07299,1997-02-28 03:00:00,0,1037.8,-0.9,93,-1,10000,11.112,,,180,,,,,,,,,,,wg-a,,,,AAXX 28034 07299 12/60 /1806 10000 21010 30034 40378 58009 60006 90300=
07299,1997-02-28 06:00:00,1,1037.2,-0.4,86,-1,20000,7.408,,,130,-0.7,6.4,,,,,,,,,wg-a,,,,AAXX 28064 07299 02/70 21304 10010 21010 30030 40372 58004 60006 82030 90600 333 10064 21007 60004=
07299,1997-02-28 09:00:00,8,1036.6,0.2,53,-1,50000,11.112,,,120,,,,,,,,,,,wg-a,,,,AAXX 28094 07299 12/84 71206 10080 21010 30032 40366 50002 60006 82032 90900=
07299,1997-02-28 12:00:00,13,1034.1,,41,0,75000,11.112,,,100,,,,,,,,,,,wg-a,,,,AAXX 28124 07299 12/89 71006 10130 20000 30013 40341 60006 80002 91200=
07299,1997-02-28 15:00:00,14,1031.2,-2.6,36,-1,75000,11.112,,,90,,,,,,,,,,,wg-a,,,,AAXX 28154 07299 12/89 70906 10140 21010 39987 40312 57026 60006 80002 91500=
07299,1997-02-28 18:00:00,10,1031.3,-0.4,50,0,50000,7.408,,,100,0.9,14.9,,,,,,,,,wg-a,,,,AAXX 28184 07299 12/84 71004 10100 20000 39983 40313 55004 60006 80002 91800 333 10149 20009=
07299,1997-02-28 21:00:00,6,1031.2,-0.6,70,1,20000,14.816,,,180,,,,,,,,,,,wg-a,,,,AAXX 28214 07299 12/70 01808 10060 20010 39977 40312 55006 60006 80000 92100=
07299,1997-03-01 00:00:00,4,1030.3,-1,81,1,15000,11.112,,,180,,,,,,,,,,,wg-a,,,,AAXX 01004 07299 12/65 21806 10040 20010 39967 40303 56010 60006 80001 90000=
07299,1997-03-01 03:00:00,4,1030.3,0,81,1,15000,11.112,,,180,,,,,,,,,,,wg-a,,,,AAXX 01034 07299 12/65 71806 10040 20010 39967 40303 50000 60006 8703/ 90300=
07299,1997-03-01 06:00:00,5,1030.8,0.6,81,2,20000,11.112,,,160,3.7,9.6,,,,,,,,,wg-a,,,,AAXX 01064 07299 12770 71606 10050 20020 39973 40308 51006 60006 8353/ 90600 333 10096 20037=
07299,1997-03-01 09:00:00,8,1031.9,1.4,71,3,500,7.408,,,180,,,,,,,,,,,wg-a,,,,AAXX 01094 07299 12700 71804 10080 20030 39987 40319 53014 60006 81532 90900=
07299,1997-03-01 12:00:00,16,1030.1,-0.9,39,2,20000,7.408,,,250,,,,,,,,,,,wg-a,,,,AAXX 01124 07299 12770 72504 10160 20020 39978 40301 56009 60006 81532 91200=
07299,1997-03-01 15:00:00,18,1027.7,-2.1,37,3,20000,7.408,,,160,,,,,,,,,,,wg-a,,,,AAXX 01154 07299 12/70 11604 10180 20030 39957 40277 56021 60006 80001 91500=
07299,1997-03-01 18:00:00,12,1028.2,-0.2,62,5,15000,3.704,,,200,4.8,18.1,,,,,,,,,wg-a,,,,AAXX 01184 07299 12/65 32002 10120 20050 39955 40282 55002 60006 80001 91800 333 10181 20048=
07299,1997-03-01 21:00:00,8,1028.5,-0.1,76,4,12000,7.408,,,150,,,,,,,,,,,wg-a,,,,AAXX 01214 07299 12/62 41504 10080 20040 39954 40285 57001 60006 80001 92100=
07299,1997-03-02 00:00:00,6,1028.2,-0.6,81,3,12000,11.112,,,170,,,,,,,,,,,wg-a,,,,AAXX 02004 07299 12/62 11706 10060 20030 39948 40282 58006 60006 80001 90000=
07299,1997-03-02 03:00:00,4,1026.8,-1.5,93,3,10000,14.816,,,170,,,,,,,,,,,wg-a,,,,AAXX 02034 07299 12/60 31708 10040 20030 39933 40268 58015 60006 80001 90300=
07299,1997-03-02 06:00:00,4,1027.4,0.5,87,2,12000,14.816,,,180,3.7,11.6,,,,,,,,,wg-a,,,,AAXX 02064 07299 12/62 11808 10040 20020 39938 40274 53005 60006 80001 90600 333 10116 20037=
07299,1997-03-02 09:00:00,11,1027.7,1.1,66,5,14000,7.408,,,150,,,,,,,,,,,wg-a,,,,AAXX 02094 07299 12/64 01504 10110 20050 39949 40277 51011 60006 80000 90900=
07299,1997-03-02 12:00:00,18,1026,-0.8,45,6,16000,3.704,,,130,,,,,,,,,,,wg-a,,,,AAXX 02124 07299 12/66 11302 10180 20060 39941 40260 58008 60006 80002 91200=
07299,1997-03-02 15:00:00,20,1025.4,-0.3,37,5,18000,11.112,,,250,,,,,,,,,,,wg-a,,,,AAXX 02154 07299 12/68 62506 10200 20050 39938 40254 56003 60006 80004 91500=
07299,1997-03-02 18:00:00,14,1028.4,2.2,51,4,15000,7.408,,,260,3.7,20.4,,,,,,,,,wg-a,,,,AAXX 02184 07299 12/65 72604 10140 20040 39960 40284 53022 60006 81032 91800 333 10204 20037=
07299,1997-03-02 21:00:00,13,1030.8,2.2,62,6,15000,14.816,,,280,,,,,,,,,,,wg-a,,,,AAXX 02214 07299 12/65 52808 10130 20060 39982 40308 53022 60006 81032 92100=
07299,1997-03-03 00:00:00,10,1031.8,0.7,76,6,15000,3.704,,,130,,,,,,,,,,,wg-a,,,,AAXX 03004 07299 12/65 41302 10100 20060 39989 40318 53007 60006 80002 90000=
07299,1997-03-03 03:00:00,8,1032,-0.1,87,6,15000,3.704,,,200,,,,,,,,,,,wg-a,,,,AAXX 03034 07299 12665 /2002 10080 20060 39988 40320 58001 60006 84502 90300=
07299,1997-03-03 06:00:00,12,1032.4,0.8,71,7,13000,14.816,,,220,7.8,14,,,,,,,,,wg-a,,,,AAXX 03064 07299 12663 82208 10120 20070 39996 40324 52008 60006 83502 90600 333 10140 20078=
07299,1997-03-03 09:00:00,14,1033.7,1.6,67,8,11000,14.816,,,280,,,,,,,,,,,wg-a,,,,AAXX 03094 07299 12/61 /2808 10140 20080 30012 40337 51016 60006 90900=
07299,1997-03-03 12:00:00,15,1033.9,0.3,67,9,15000,18.52,,,250,,,,,,,,,,,wg-a,,,,AAXX 03124 07299 12565 72510 10150 20090 30015 40339 51003 60006 85832 91200=
07299,1997-03-03 15:00:00,15,1032.6,-1.3,67,9,20000,11.112,,,300,,,,,,,,,,,wg-a,,,,AAXX 03154 07299 12570 73006 10150 20090 30002 40326 56013 60006 878// 91500=
07299,1997-03-03 18:00:00,11,1033.9,0.8,82,8,12000,7.408,,,20,10.7,16.3,,,,,,,,,wg-a,,,,AAXX 03184 07299 12562 70204 10110 20080 30010 40339 53008 60006 875// 91800 333 10163 20107=
07299,1997-03-03 21:00:00,9,1034,-0.2,87,7,10000,0,,,0,,,,,,,,,,,wg-a,,,,AAXX 03214 07299 12560 /0000 10090 20070 30008 40340 57002 60006 86500 92100=
07299,1997-03-04 00:00:00,7,1033.7,-0.5,93,6,500,3.704,,,230,,,,,,,,,,,wg-a,,,,AAXX 04004 07299 12700 82302 10070 20060 30003 40337 55005 60006 8357/ 90000=
07299,1997-03-04 03:00:00,8,1033.5,-0.1,93,7,8000,3.704,,,210,,,,,,,,,,,wg-a,,,,AAXX 04034 07299 12758 82102 10080 20070 30002 40335 55001 60006 8257/ 90300=
07299,1997-03-04 09:00:00,12,1032.9,0.1,82,9,9000,11.112,,,170,,,,,,,,,,,wg-a,,,,AAXX 04094 07299 12759 71706 10120 20090 30002 40329 50001 60006 8553/ 90900=
07299,1997-03-04 12:00:00,20,1030.1,-1.9,35,4,18000,7.408,,,120,,,,,,,,,,,wg-a,,,,AAXX 04124 07299 12/68 71204 10200 20040 39983 40301 58019 60006 80001 91200=
07299,1997-03-04 15:00:00,21,1028.3,-1.7,26,1,25000,0,,,0,,,,,,,,,,,wg-a,,,,AAXX 04154 07299 12/75 70000 10210 20010 39966 40283 56017 60006 82031 91500=
07299,1997-03-04 18:00:00,17,1028.7,-0,48,6,18000,3.704,,,50,8.7,21.8,,,,,,,,,wg-a,,,,AAXX 04184 07299 12/68 70502 10170 20060 39966 40287 55000 60006 8703/ 91800 333 10218 20087=
07299,1997-03-04 21:00:00,14,1027.9,-1,58,6,20000,3.704,,,130,,,,,,,,,,,wg-a,,,,AAXX 04214 07299 12770 71302 10140 20060 39956 40279 58010 60006 8353/ 92100=
07299,1997-03-05 00:00:00,13,1026.3,-1.7,67,7,18000,3.704,,,150,,,,,,,,,,,wg-a,,,,AAXX 05004 07299 12768 71502 10130 20070 39939 40263 58017 60006 8457/ 90000=
07299,1997-03-05 03:00:00,12,1027.1,0.6,71,7,17000,3.704,,,180,,,,,,,,,,,wg-a,,,,AAXX 05034 07299 12667 71802 10120 20070 39945 40271 51006 60006 8487/ 90300=
07299,1997-03-05 06:00:00,11,1027.9,0.7,87,9,11000,7.408,,,90,10.7,16.5,,,,,,,,61,wg-a,,,,AAXX 05064 07299 02561 70904 10110 20090 39952 40279 50007 61000 76162 875// 90600 333 10165 20107 6000=
07299,1997-03-05 09:00:00,12,1027.7,-0.2,82,9,11000,18.52,,,270,,,,,,,,,,,wg-a,,,,AAXX 05094 07299 32/61 /2710 10120 20090 39952 40277 56002 90900=
07299,1997-03-05 12:00:00,12,1028.4,0.6,76,8,12000,14.816,,,260,,,,,,,,,,21,wg-a,,,,AAXX 05124 07299 02462 72608 10120 20080 39958 40284 51006 60006 72162 878// 91200 333 61000=
07299,1997-03-05 15:00:00,13,1028,-0.3,62,6,15000,14.816,,,270,,,,,,,,,,,wg-a,,,,AAXX 05154 07299 12665 72708 10130 20060 39955 40280 58003 60006 8587/ 91500=
07299,1997-03-05 18:00:00,10,1029,0.6,62,3,20000,11.112,,,270,9.5,13.4,,,,,,,,,wg-a,,,,AAXX 05184 07299 12770 /2706 10100 20030 39961 40290 53006 60006 86500 91800 333 10134 20095=
07299,1997-03-06 00:00:00,7,1031,0.5,81,4,20000,11.112,,,220,,,,,,,,,,,wg-a,,,,AAXX 06004 07299 12670 72206 10070 20040 39977 40310 51005 60006 875// 90000=
07299,1997-03-06 03:00:00,7,1030.8,-0.2,81,4,18000,14.816,,,230,,,,,,,,,,,wg-a,,,,AAXX 06034 07299 12668 82308 10070 20040 39975 40308 55002 60006 885// 90300=
07299,1997-03-06 06:00:00,5,1032.3,1.3,87,3,15000,3.704,,,120,5.3,9.5,,,,,,,,61,wg-a,,,,AAXX 06064 07299 02565 71202 10050 20030 39988 40323 53013 61000 76162 875// 90600 333 10095 20053 6000=
07299,1997-03-06 09:00:00,9,1032.9,1,66,3,13000,3.704,,,250,,,,,,,,,,1,wg-a,,,,AAXX 06094 07299 02563 32502 10090 20030 39998 40329 52010 61000 70161 83800 90900 333 ////=
07299,1997-03-06 12:00:00,11,1032.4,-0.3,58,3,16000,3.704,,,10,,,,,,,,,,1,wg-a,,,,AAXX 06124 07299 02566 70102 10110 20030 39995 40324 58003 61000 70161 878// 91200 333 ////=
07299,1997-03-06 15:00:00,13,1031.1,-1,51,3,20000,3.704,,,140,,,,,,,,,,,wg-a,,,,AAXX 06154 07299 12670 71402 10130 20030 39985 40311 56010 60006 85801 91500=
07299,1997-03-06 18:00:00,9,1032.4,0.8,66,3,15000,3.704,,,20,5.2,13.1,,,,,,,,,wg-a,,,,AAXX 06184 07299 12665 /0202 10090 20030 39993 40324 53008 60006 83501 91800 333 10131 20052=
07299,1997-03-07 00:00:00,3,1033.9,-0.1,93,2,20000,3.704,,,220,,,,,,,,,,,wg-a,,,,AAXX 07004 07299 12/70 02202 10030 20020 30000 40339 58001 60006 80000 90000=
07299,1997-03-07 03:00:00,1,1033.3,-0.8,93,0,20000,3.704,,,180,,,,,,,,,,,wg-a,,,,AAXX 07034 07299 12/70 01802 10010 20000 39992 40333 58008 60006 80000 90300=
07299,1997-03-07 06:00:00,0,1033.3,-0.2,93,-1,500,0,,,0,-0.4,9.1,,,,,,,,,wg-a,,,,AAXX 07064 07299 02300 10000 10000 21010 39990 40333 55002 60006 81600 90600 333 10091 21004 61000=
07299,1997-03-07 09:00:00,5,1032.7,0.1,93,4,4500,3.704,,,300,,,,,,,,,,10,wg-a,,,,AAXX 07094 07299 12/45 03002 10050 20040 39991 40327 52001 60006 71000 80000 90900=
07299,1997-03-07 12:00:00,11,1031.4,-0.5,62,4,8000,3.704,,,10,,,,,,,,,,,wg-a,,,,AAXX 07124 07299 12658 20102 10110 20040 39986 40314 58005 60006 82100 91200=
07299,1997-03-07 15:00:00,12,1030.5,-0.8,58,4,10000,7.408,,,80,,,,,,,,,,,wg-a,,,,AAXX 07154 07299 12660 /0804 10120 20040 39978 40305 56008 60006 84200 91500=
07299,1997-03-07 18:00:00,10,1031.6,0.8,62,3,10000,14.816,,,120,-0.4,13.1,,,,,,,,,wg-a,,,,AAXX 07184 07299 12660 /1208 10100 20030 39986 40316 53008 60006 85400 91800 333 10131 21004=
07299,1997-03-07 21:00:00,6,1032,0,75,2,10000,3.704,,,60,,,,,,,,,,,wg-a,,,,AAXX 07214 07299 12660 20602 10060 20020 39986 40320 50000 60006 82500 92100=
07299,1997-03-08 00:00:00,2,1032.2,-0.3,93,1,10000,3.704,,,230,,,,,,,,,,,wg-a,,,,AAXX 08004 07299 12/60 02302 10020 20010 39983 40322 56003 60006 80000 90000=
07299,1997-03-08 03:00:00,1,1032.7,0.3,93,0,8000,3.704,,,210,,,,,,,,,,,wg-a,,,,AAXX 08034 07299 12/58 02102 10010 20000 39986 40327 52003 60006 80000 90300=
07299,1997-03-08 06:00:00,0,1033.7,0.9,100,0,4000,3.704,,,240,-0.4,9.8,,,,,,,,,wg-a,,,,AAXX 08064 07299 12/40 02402 10000 20000 39995 40337 53009 60006 80000 90600 333 10098 21004=
07299,1997-03-08 09:00:00,6,1034.3,1.3,87,4,3500,0,,,0,,,,,,,,,,10,wg-a,,,,AAXX 08094 07299 12/35 00000 10060 20040 30008 40343 51013 60006 71000 80000 90900=
07299,1997-03-08 12:00:00,12,1033.1,-0.5,67,6,500,7.408,,,60,,,,,,,,,,,wg-a,,,,AAXX 08124 07299 12/00 00604 10120 20060 30003 40331 56005 60006 80000 91200=
07299,1997-03-08 15:00:00,14,1031.9,-1,55,5,6000,3.704,,,40,,,,,,,,,,,wg-a,,,,AAXX 08154 07299 12/56 00402 10140 20050 39993 40319 56010 60006 80000 91500=
07299,1997-03-08 18:00:00,10,1033.3,1,71,5,500,3.704,,,70,-0.1,14.2,,,,,,,,,wg-a,,,,AAXX 08184 07299 12/00 00702 10100 20050 30003 40333 53010 60006 80000 91800 333 10142 21001=
07299,1997-03-08 21:00:00,7,1033.6,-0.1,81,4,500,3.704,,,70,,,,,,,,,,,wg-a,,,,AAXX 08214 07299 12/00 00702 10070 20040 30002 40336 58001 60006 80000 92100=
07299,1997-03-09 00:00:00,4,1034.3,0.3,87,2,4000,3.704,,,120,,,,,,,,,,10,wg-a,,,,AAXX 09004 07299 12/40 01202 10040 20020 30005 40343 51003 60006 710// 80000 90000=
07299,1997-03-09 03:00:00,1,1034.3,-0.3,100,1,3500,3.704,,,310,,,,,,,,,,10,wg-a,,,,AAXX 09034 07299 12435 23102 10010 20010 30002 40343 58003 60006 71000 82500 90300=
07299,1997-03-09 06:00:00,0,1034.7,0.3,100,0,1700,3.704,,,230,-0.1,9.9,,,,,,,,10,wg-a,,,,AAXX 09064 07299 12/17 52302 10000 20000 30005 40347 50003 60006 7101/ 85030 90600 333 10099 21001=
07299,1997-03-09 09:00:00,5,1034.9,0.8,93,4,3500,3.704,,,320,,,,,,,,,,10,wg-a,,,,AAXX 09094 07299 12735 /3202 10050 20040 30013 40349 52008 60006 71022 82530 90900=
07299,1997-03-09 12:00:00,12,1033.1,-1,50,2,10000,3.704,,,240,,,,,,,,,,,wg-a,,,,AAXX 09124 07299 12760 22402 10120 20020 30003 40331 58010 60006 81531 91200=
07299,1997-03-09 15:00:00,14,1032,-0.9,51,4,9000,7.408,,,130,,,,,,,,,,,wg-a,,,,AAXX 09154 07299 12/59 01304 10140 20040 39994 40320 56009 60006 80000 91500=
07299,1997-03-09 18:00:00,10,1032.9,0.5,66,4,500,3.704,,,90,0.4,14.2,,,,,,,,,wg-a,,,,AAXX 09184 07299 12/00 10902 10100 20040 39999 40329 53005 60006 81030 91800 333 10142 20004=
07299,1997-03-09 21:00:00,7,1033.2,-0.1,81,4,500,3.704,,,140,,,,,,,,,,,wg-a,,,,AAXX 09214 07299 12/00 01402 10070 20040 39998 40332 58001 60006 80000 92100=
07299,1997-03-10 00:00:00,4,1033.8,0.3,93,3,3000,0,,,0,,,,,,,,,,10,wg-a,,,,AAXX 10004 07299 12/30 00000 10040 20030 30001 40338 53003 60006 71000 80000 90000=
07299,1997-03-10 03:00:00,2,1034.4,0.3,93,1,4000,3.704,,,170,,,,,,,,,,10,wg-a,,,,AAXX 10034 07299 12/40 01702 10020 20010 30004 40344 50003 60006 71000 80000 90300=
07299,1997-03-10 06:00:00,2,1035.6,1.1,93,1,3000,11.112,,,180,1.4,10.3,,,,,,,,,wg-a,,,,AAXX 10064 07299 12/30 /1806 10020 20010 30015 40356 53011 60006 90600 333 10103 20014=
07299,1997-03-10 09:00:00,10,1035,0.4,71,5,4000,7.408,,,140,,,,,,,,,,10,wg-a,,,,AAXX 10094 07299 12/40 01404 10100 20050 30019 40350 51004 60006 71000 80000 90900=
07299,1997-03-10 12:00:00,18,1033.2,-0.9,45,6,500,3.704,,,110,,,,,,,,,,,wg-a,,,,AAXX 10124 07299 12/00 01102 10180 20060 30010 40332 58009 60006 80000 91200=
07299,1997-03-10 15:00:00,20,1031.3,-1.6,35,4,10000,3.704,,,300,,,,,,,,,,,wg-a,,,,AAXX 10154 07299 12/60 03002 10200 20040 39994 40313 56016 60006 80000 91500=
07299,1997-03-10 18:00:00,14,1032,0.1,51,4,500,7.408,,,330,1.6,20.4,,,,,,,,,wg-a,,,,AAXX 10184 07299 12/00 03304 10140 20040 39995 40320 53001 60006 80000 91800 333 10204 20016=
07299,1997-03-10 21:00:00,7,1033.2,0.4,81,4,500,3.704,,,220,,,,,,,,,,,wg-a,,,,AAXX 10214 07299 12/00 02202 10070 20040 39999 40332 51004 60006 80000 92100=
07299,1997-03-11 00:00:00,14,1032,0.1,51,4,500,7.408,,,330,1.6,20.4,,,,,,,,,wg-a,,,,AAXX 11004 07299 12/00 03304 10140 20040 39995 40320 53001 60006 80000 90000 333 10204 20016=
07299,1997-03-11 03:00:00,3,1033.7,-0.2,93,2,500,7.408,,,160,,,,,,,,,,,wg-a,,,,AAXX 11034 07299 12/00 01604 10030 20020 39998 40337 55002 60006 80000 90300=
07299,1997-03-11 06:00:00,2,1034.2,0.4,100,2,4000,3.704,,,170,2.2,13.9,,,,,,,,10,wg-a,,,,AAXX 11064 07299 12/40 /1702 10020 20020 30002 40342 53004 60006 71000 80000 90600 333 10139 20022=
07299,1997-03-11 09:00:00,9,1033.6,0.2,76,5,4000,3.704,,,350,,,,,,,,,,10,wg-a,,,,AAXX 11094 07299 12/40 03502 10090 20050 30004 40336 51002 60006 71000 80000 90900=
07299,1997-03-11 12:00:00,15,1031.4,-1.4,59,7,4800,3.704,,,300,,,,,,,,,,10,wg-a,,,,AAXX 11124 07299 12/48 03002 10150 20070 39990 40314 58014 60006 71000 80000 91200=
07299,1997-03-11 15:00:00,17,1029.4,-1.7,48,6,6000,11.112,,,350,,,,,,,,,,,wg-a,,,,AAXX 11154 07299 12/56 03506 10170 20060 39973 40294 56017 60006 80000 91500=
07299,1997-03-11 18:00:00,13,1029.8,-0,62,6,500,14.816,,,320,2.1,17.1,,,,,,,,,wg-a,,,,AAXX 11184 07299 12/00 03208 10130 20060 39973 40298 55000 60006 80000 91800 333 10171 20021=
07299,1997-03-12 00:00:00,4,1031.7,0,93,3,500,3.704,,,220,,,,,,,,,,,wg-a,,,,AAXX 12004 07299 12/00 02202 10040 20030 39981 40317 50000 60006 80000 90000=
07299,1997-03-12 03:00:00,3,1032.1,0.1,93,2,4000,3.704,,,190,,,,,,,,,,10,wg-a,,,,AAXX 12034 07299 12/40 01902 10030 20020 39982 40321 53001 60006 710// 80000 90300=
07299,1997-03-12 06:00:00,3,1033,1,100,3,2300,11.112,,,190,1.9,13.4,,,,,,,,10,wg-a,,,,AAXX 12064 07299 12/23 01906 10030 20030 39992 40330 51010 60006 71000 80000 90600 333 10134 20019=
07299,1997-03-12 09:00:00,10,1032.2,0.1,71,5,4500,7.408,,,150,,,,,,,,,,10,wg-a,,,,AAXX 12094 07299 12/45 01504 10100 20050 39993 40322 50001 60006 71000 80000 90900=
07299,1997-03-12 12:00:00,17,1030.2,-1.2,45,5,6000,3.704,,,250,,,,,,,,,,,wg-a,,,,AAXX 12124 07299 12/56 02502 10170 20050 39981 40302 58012 60006 80000 91200=
07299,1997-03-12 15:00:00,19,1028.4,-1.6,46,7,9000,22.224,,,250,,,,,,,,,,,wg-a,,,,AAXX 12154 07299 12/59 /2512 10190 20070 39965 40284 56016 60006 80001 91500=
07299,1997-03-12 18:00:00,14,1029.4,0.5,58,6,8000,11.112,,,260,3,19.4,,,,,,,,,wg-a,,,,AAXX 12184 07299 12/58 /2606 10140 20060 39970 40294 53005 60006 80001 91800 333 10194 20030=
07299,1997-03-12 21:00:00,9,1030.4,0.4,76,5,9000,0,,,0,,,,,,,,,,,wg-a,,,,AAXX 12214 07299 12/59 00000 10090 20050 39974 40304 51004 60006 80000 92100=
07299,1997-03-13 00:00:00,5,1030.7,-0.2,87,3,7000,3.704,,,180,,,,,,,,,,,wg-a,,,,AAXX 13004 07299 12/57 01802 10050 20030 39972 40307 55002 60006 80000 90000=
07299,1997-03-13 03:00:00,5,1030.1,-0.6,87,3,8000,3.704,,,130,,,,,,,,,,,wg-a,,,,AAXX 13034 07299 12/58 21302 10050 20030 39966 40301 56006 60006 80001 90300=
07299,1997-03-13 06:00:00,4,1030.2,-0,93,3,500,3.704,,,160,3.3,13.9,,,,,,,,,wg-a,,,,AAXX 13064 07299 12/00 11602 10040 20030 39966 40302 55000 60006 80002 90600 333 10139 20033=
07299,1997-03-13 09:00:00,11,1029.9,0.6,71,6,500,3.704,,,100,,,,,,,,,,,wg-a,,,,AAXX 13094 07299 12/00 /1002 10110 20060 39972 40299 50006 60006 80001 90900=
07299,1997-03-13 12:00:00,15,1028.7,-0.8,55,6,4000,7.408,,,10,,,,,,,,,,5,wg-a,,,,AAXX 13124 07299 12640 20104 10150 20060 39964 40287 58008 60006 70500 82201 91200=
07299,1997-03-13 15:00:00,16,1027.5,-1.1,51,6,7000,7.408,,,30,,,,,,,,,,,wg-a,,,,AAXX 13154 07299 12657 30304 10160 20060 39953 40275 56011 60006 83800 91500=
07299,1997-03-13 18:00:00,11,1027.7,-0.3,62,4,0,7.408,,,340,3.9,15.9,,,,,,,,,wg-a,,,,AAXX 13184 07299 12/// 23404 10110 20040 39950 40277 55003 60006 80001 91800 333 10159 20039=
07299,1997-03-13 21:00:00,8,1027.4,-0.7,76,4,3800,7.408,,,310,,,,,,,,,,10,wg-a,,,,AAXX 13214 07299 12/38 /3104 10080 20040 39943 40274 56007 60006 71000 80001 92100=
07299,1997-03-14 00:00:00,4,1027.1,-0.8,87,2,2800,3.704,,,190,,,,,,,,,,10,wg-a,,,,AAXX 14004 07299 12/28 11902 10040 20020 39935 40271 58008 60006 710// 80001 90000=
07299,1997-03-14 06:00:00,2,1025.7,-0.6,93,1,1300,3.704,,,160,0.8,11.1,,,,,,,,10,wg-a,,,,AAXX 14064 07299 12/13 01602 10020 20010 39919 40257 58006 60006 71000 80000 90600 333 10111 20008=
07299,1997-03-14 09:00:00,9,1024.4,-0.4,81,6,1800,7.408,,,140,,,,,,,,,,,wg-a,,,,AAXX 14094 07299 12/18 /1404 10090 20060 39915 40244 58004 60006 90900=
07299,1997-03-14 12:00:00,13,1022.9,-1,62,6,0,25.928,,,260,,,,,,,,,,,wg-a,,,,AAXX 14124 07299 12/// 72614 10130 20060 39905 40229 56010 60006 80006 91200=
07299,1997-03-14 15:00:00,11,1022.8,-0.2,71,6,4000,22.224,,,260,,,,,,,,,,5,wg-a,,,,AAXX 14154 07299 12740 72612 10110 20060 39903 40228 55002 60006 70522 85576 91500=
07299,1997-03-14 18:00:00,9,1024,0.9,81,6,3600,18.52,,,280,1.5,14.1,,,,,,,,10,wg-a,,,,AAXX 14184 07299 02636 72810 10090 20060 39912 40240 53009 61000 71062 8757/ 91800 333 10141 20015 6100=
07299,1997-03-14 21:00:00,8,1025.5,1.3,87,6,6000,18.52,,,250,,,,1,,,,,,3,wg-a,,,,AAXX 14214 07299 12656 72510 10080 20060 39925 40255 51013 60017 70362 875// 92100=
07299,1997-03-15 00:00:00,7,1026.4,0.8,93,6,8000,18.52,,,250,,,,,,,,,,0,wg-a,,,,AAXX 15004 07299 02558 72510 10070 20060 39933 40264 51008 60016 70062 875// 90000 333 61000=
07299,1997-03-15 06:00:00,6,1027.5,0.8,87,4,6000,3.704,,,190,5.6,9.3,,,,,1,,,,wg-a,,,,AAXX 15064 07299 02556 71902 10060 20040 39942 40275 53008 60006 8483/ 90600 333 10093 20056 60014=
07299,1997-03-15 09:00:00,9,1028,0.9,81,6,7000,14.816,,,220,,,,,,,,,,,wg-a,,,,AAXX 15094 07299 12457 72208 10090 20060 39951 40280 52009 60006 8783/ 90900=
07299,1997-03-15 12:00:00,12,1027.3,-0.4,67,6,7000,22.224,,,260,,,,,,,,,,,wg-a,,,,AAXX 15124 07299 12457 72612 10120 20060 39947 40273 58004 60006 8583/ 91200=
07299,1997-03-15 15:00:00,13,1025.9,-1.3,58,5,8000,18.52,,,260,,,,,,,,,,,wg-a,,,,AAXX 15154 07299 12658 72610 10130 20050 39934 40259 56013 60006 82132 91500=
07299,1997-03-15 18:00:00,11,1026.7,0.6,66,5,8000,11.112,,,250,5.6,13.2,,,,,,,,,wg-a,,,,AAXX 15184 07299 12658 72506 10110 20050 39940 40267 51006 60006 8383/ 91800 333 10132 20056=
07299,1997-03-15 21:00:00,9,1028.2,1.3,87,7,8000,3.704,,,160,,,,1,,,,,,60,wg-a,,,,AAXX 15214 07299 12658 71602 10090 20070 39953 40282 51013 60017 76062 8583/ 92100=
07299,1997-03-16 00:00:00,9,1028,-0.2,87,7,10000,3.704,,,220,,,,,,,,,,0,wg-a,,,,AAXX 16004 07299 02660 72202 10090 20070 39951 40280 58002 60016 70062 8483/ 90000 333 61000=
07299,1997-03-16 03:00:00,9,1027.9,-0.2,87,7,10000,0,,,0,,,,,,,,,,,wg-a,,,,AAXX 16034 07299 12660 70000 10090 20070 39949 40279 58002 60006 8453/ 90300=
07299,1997-03-16 06:00:00,9,1028.7,0.8,93,8,11000,0,,,0,8.2,11.1,,,,,1,,,,wg-a,,,,AAXX 16064 07299 02/61 /0000 10090 20080 39957 40287 53008 60006 90600 333 10111 20082 60014=
07299,1997-03-16 12:00:00,15,1028,-0.9,63,8,11000,18.52,,,250,,,,,,,,,,,wg-a,,,,AAXX 16124 07299 02/61 /2510 10150 20080 39957 40280 58009 61000 91200 333 ////=
07299,1997-03-16 18:00:00,12,1027,-0.1,67,6,15000,14.816,,,260,8.6,16.2,,,,,,,,,wg-a,,,,AAXX 16184 07299 12765 12608 10120 20060 39944 40270 55001 60006 81502 91800 333 10162 20086=
07299,1997-03-16 21:00:00,8,1027.1,-0.3,81,5,15000,7.408,,,190,,,,,,,,,,,wg-a,,,,AAXX 16214 07299 12/65 11904 10080 20050 39941 40271 58003 60006 80002 92100=
07299,1997-03-17 00:00:00,10,1027.1,0.2,76,6,15000,14.816,,,230,,,,,,,,,,,wg-a,,,,AAXX 17004 07299 12665 12308 10100 20060 39943 40271 53002 60006 81130 90000=
07299,1997-03-17 03:00:00,10,1026.3,-0.7,82,7,12000,18.52,,,240,,,,,,,,,,,wg-a,,,,AAXX 17034 07299 12662 42410 10100 20070 39936 40263 58007 60006 84100 90300=
07299,1997-03-17 06:00:00,10,1027,0.6,82,7,8000,11.112,,,240,8.2,12.3,,,,,,,,,wg-a,,,,AAXX 17064 07299 02658 /2406 10100 20070 39942 40270 53006 60006 86500 90600 333 10123 20082 61000=
07299,1997-03-17 09:00:00,13,1027.8,1.1,67,7,8000,18.52,,,250,,,,,,,,,,,wg-a,,,,AAXX 17094 07299 12758 /2510 10130 20070 39953 40278 51011 60006 85501 90900=
07299,1997-03-17 12:00:00,15,1027,-0.5,55,6,12000,14.816,,,270,,,,,,,,,,,wg-a,,,,AAXX 17124 07299 12762 72708 10150 20060 39948 40270 58005 60006 875// 91200=
07299,1997-03-17 15:00:00,16,1025.6,-1.3,55,7,18000,7.408,,,300,,,,,,,,,,,wg-a,,,,AAXX 17154 07299 12668 /3004 10160 20070 39935 40256 58013 60006 83101 91500=
07299,1997-03-17 18:00:00,13,1025.9,-0.1,62,6,16000,7.408,,,340,9.9,16.2,,,,,,,,,wg-a,,,,AAXX 17184 07299 12/66 13404 10130 20060 39934 40259 55001 60006 80001 91800 333 10162 20099=
07299,1997-03-17 21:00:00,8,1026.4,0,87,6,12000,7.408,,,260,,,,,,,,,,,wg-a,,,,AAXX 17214 07299 12/62 02604 10080 20060 39934 40264 50000 60006 80000 92100=
07299,1997-03-18 00:00:00,5,1026,-0.7,93,4,12000,0,,,0,,,,,,,,,,,wg-a,,,,AAXX 18004 07299 12/62 00000 10050 20040 39927 40260 58007 60006 80000 90000=
07299,1997-03-18 03:00:00,4,1023.9,-2.2,93,3,10000,7.408,,,160,,,,,,,,,,,wg-a,,,,AAXX 18034 07299 12/60 /1604 10040 20030 39905 40239 58022 60006 90300=
07299,1997-03-18 06:00:00,3,1021.7,-2.3,93,2,500,11.112,,,180,2.3,12.4,,,,,,,,,wg-a,,,,AAXX 18064 07299 12/00 31806 10030 20020 39882 40217 58023 60006 80002 90600 333 10124 20023=
07299,1997-03-18 12:00:00,18,1015.2,-2.7,42,5,500,14.816,,,250,,,,,,,,,,,wg-a,,,,AAXX 18124 07299 12/00 32508 10180 20050 39836 40152 58027 60006 80001 91200=
07299,1997-03-18 15:00:00,20,1011.4,-3.5,37,5,25000,29.632,,,260,,,,,,,,,,,wg-a,,,,AAXX 18154 07299 12775 42616 10200 20050 39801 40114 56035 60006 81105 91500=
07299,1997-03-18 18:00:00,17,1009.9,-1.7,45,5,15000,29.632,,,240,3,20,,,,,,,,,wg-a,,,,AAXX 18184 07299 12765 /2416 10170 20050 39784 40099 57017 60006 83802 91800 333 10200 20030=
07299,1997-03-18 21:00:00,11,1011.2,0.6,62,4,9000,38.892,,53.708,260,,,,,,,,,,,wg-a,,,,AAXX 18214 07299 12759 72621 10110 20040 39790 40112 53006 60006 875// 92100 333 91029=
07299,1997-03-19 00:00:00,9,1011.1,-0.4,76,5,12000,22.224,,,250,,,,,,,,,,61,wg-a,,,,AAXX 19004 07299 02562 72512 10090 20050 39786 40111 57004 61000 76161 878// 90000 333 6100=
07299,1997-03-19 06:00:00,7,1009.7,-0.3,81,4,13000,22.224,,,250,5.3,16.4,,,,,,,,50,wg-a,,,,AAXX 19064 07299 02563 72512 10070 20040 39771 40097 58003 61000 75065 878// 90600 333 10164 20053 6000=
07299,1997-03-19 12:00:00,8,1008.5,-1.3,61,1,20000,31.484,,50.004,250,,,,,,,,,,25,wg-a,,,,AAXX 19124 07299 02570 82517 10080 20010 39760 40085 57013 61000 72585 878// 91200 333 6100 91027=
07299,1997-03-19 15:00:00,7,1007.8,-0.7,81,4,20000,25.928,,,250,,,,1,,,,,,21,wg-a,,,,AAXX 19154 07299 12470 82514 10070 20040 39753 40078 58007 60017 72186 878// 91500=
07299,1997-03-19 18:00:00,6,1008.6,0.6,87,4,10000,25.928,,,260,5.7,8.9,,1,,,,,,15,wg-a,,,,AAXX 19184 07299 02460 82614 10060 20040 39759 40086 53006 60006 71586 878// 91800 333 10089 20057 60017=
07299,1997-03-19 21:00:00,6,1011.2,2.5,87,4,10000,29.632,,,260,,,,1,,,,,,2,wg-a,,,,AAXX 19214 07299 12560 72616 10060 20040 39784 40112 53025 60017 70282 878// 92100=
07299,1997-03-20 00:00:00,6,1013.3,2,87,4,10000,18.52,,,270,,,,1,,,,,,,wg-a,,,,AAXX 20004 07299 02460 82710 10060 20040 39804 40133 51020 60026 878// 90000 333 60017=
07299,1997-03-20 03:00:00,5,1015.1,1.7,87,3,10000,22.224,,,260,,,,,,,,,,,wg-a,,,,AAXX 20034 07299 12560 82612 10050 20030 39821 40151 51017 60006 878// 90300=
07299,1997-03-20 06:00:00,5,1016.8,1.6,81,2,8000,22.224,,,240,4.6,6.2,,,,,3,,,,wg-a,,,,AAXX 20064 07299 02658 82412 10050 20020 39837 40168 51016 60006 878// 90600 333 10062 20046 60034=
07299,1997-03-20 09:00:00,5,1018.9,2,81,2,10000,29.632,,,250,,,,,,,,,,,wg-a,,,,AAXX 20094 07299 12660 82516 10050 20020 39857 40189 51020 60006 878// 90900=
07299,1997-03-20 12:00:00,6,1019.6,0.8,70,1,12000,22.224,,,260,,,,,,,,,,60,wg-a,,,,AAXX 20124 07299 02562 82612 10060 20010 39865 40196 51008 61000 76062 878// 91200 333 6100=
07299,1997-03-20 15:00:00,5,1020.5,0.8,81,2,13000,22.224,,,260,,,,,,,,,,21,wg-a,,,,AAXX 20154 07299 02563 82612 10050 20020 39873 40205 53008 61000 72162 878// 91500 333 ////=
07299,1997-03-20 18:00:00,5,1022.1,1.6,75,1,8000,11.112,,,260,4.6,6.4,,,,,,,,1,wg-a,,,,AAXX 20184 07299 12558 82606 10050 20010 39889 40221 53016 60006 70162 878// 91800 333 10064 20046=
07299,1997-03-20 21:00:00,4,1022.9,0.6,81,1,11000,3.704,,,230,,,,,,,,,,,wg-a,,,,AAXX 20214 07299 12761 72302 10040 20010 39895 40229 51006 60006 875// 92100=
07299,1997-03-21 00:00:00,2,1022.6,-0.5,87,0,10000,3.704,,,100,,,,,,,,,,,wg-a,,,,AAXX 21004 07299 12760 11002 10020 20000 39890 40226 58005 60006 815/0 90000=
07299,1997-03-21 03:00:00,2,1021.8,-0.8,87,0,8000,11.112,,,130,,,,,,,,,,,wg-a,,,,AAXX 21034 07299 12758 41306 10020 20000 39882 40218 58008 60006 84500 90300=
07299,1997-03-21 06:00:00,2,1022.2,0.4,93,1,7000,7.408,,,160,-0.4,5.4,,,,,,,,,wg-a,,,,AAXX 21064 07299 02657 81604 10020 20010 39886 40222 53004 60006 885// 90600 333 10054 21004 61000=
07299,1997-03-21 09:00:00,5,1022.2,0.3,75,1,8000,3.704,,,180,,,,,,,,,,60,wg-a,,,,AAXX 21094 07299 02458 81802 10050 20010 39889 40222 53003 61000 76062 8757/ 90900 333 ////=
07299,1997-03-21 12:00:00,9,1021.5,-0.2,57,1,7000,18.52,,,250,,,,,,,,,,3,wg-a,,,,AAXX 21124 07299 02657 82510 10090 20010 39887 40215 58002 61000 70362 8557/ 91200 333 6100=
07299,1997-03-21 15:00:00,10,1021,-0.3,62,3,8000,18.52,,,260,,,,,,,,,,,wg-a,,,,AAXX 21154 07299 12658 72610 10100 20030 39884 40210 55003 60006 8427/ 91500=
07299,1997-03-21 18:00:00,8,1022.4,1.1,71,3,6000,7.408,,,310,2.4,10.7,,,,,,,,,wg-a,,,,AAXX 21184 07299 12556 63104 10080 20030 39895 40224 52011 60006 86200 91800 333 10107 20024=
07299,1997-03-21 21:00:00,7,1024.3,1.6,61,0,12000,7.408,,,340,,,,,,,,,,1,wg-a,,,,AAXX 21214 07299 02662 73404 10070 20000 39911 40243 51016 61000 70162 875// 92100 333 ////=
07299,1997-03-22 00:00:00,4,1025.1,0.6,70,-1,15000,11.112,,,340,,,,,,,,,,,wg-a,,,,AAXX 22004 07299 02765 73406 10040 21010 39917 40251 51006 61000 875// 90000 333 ////=
07299,1997-03-22 06:00:00,-1,1027.1,1.1,93,-2,8000,3.704,,,290,-1.5,8.2,,,,,,,,,wg-a,,,,AAXX 22064 07299 02/58 /2902 11010 21020 39929 40271 53011 60006 80002 90600 333 10082 21015 61000=
07299,1997-03-22 09:00:00,5,1027.1,0.8,70,0,15000,3.704,,,330,,,,,,,,,,,wg-a,,,,AAXX 22094 07299 12465 /3302 10050 20000 39937 40271 51008 60006 81100 90900=
07299,1997-03-22 12:00:00,10,1025.4,-1.1,53,1,19000,11.112,,,340,,,,,,,,,,,wg-a,,,,AAXX 22124 07299 12669 /3406 10100 20010 39926 40254 58011 60006 81100 91200=
07299,1997-03-22 15:00:00,10,1023.9,-1.4,46,-1,25000,11.112,,,360,,,,,,,,,,,wg-a,,,,AAXX 22154 07299 12675 23606 10100 21010 39912 40239 56014 60006 82102 91500=
07299,1997-03-22 18:00:00,8,1024,-0.2,53,-1,22000,7.408,,,350,-1.1,11,,,,,,,,,wg-a,,,,AAXX 22184 07299 12/72 23504 10080 21010 39910 40240 55002 60006 80002 91800 333 10110 21011=
07299,1997-03-22 21:00:00,3,1024.9,0.3,70,-2,15000,7.408,,,330,,,,,,,,,,,wg-a,,,,AAXX 22214 07299 12/65 13304 10030 21020 39913 40249 51003 60006 80001 92100=
07299,1997-03-23 00:00:00,0,1024.4,-0.9,80,-3,15000,0,,,0,,,,,,,,,,,wg-a,,,,AAXX 23004 07299 12/65 00000 10000 21030 39904 40244 58009 60006 80000 90000=
07299,1997-03-23 03:00:00,-1,1022.3,-2.1,86,-3,15000,11.112,,,160,,,,,,,,,,,wg-a,,,,AAXX 23034 07299 12/65 01606 11010 21030 39883 40223 58021 60006 80000 90300=
07299,1997-03-23 06:00:00,-1,1020,-2.2,86,-3,13000,11.112,,,170,-2.5,7.5,,,,,,,,,wg-a,,,,AAXX 23064 07299 12/63 61706 11010 21030 39861 40200 56022 60006 80001 90600 333 10075 21025=
07299,1997-03-23 09:00:00,6,1018,-1.1,56,-2,16000,11.112,,,140,,,,,,,,,,,wg-a,,,,AAXX 23094 07299 12/66 81406 10060 21020 39850 40180 56011 60006 8707/ 90900=
07299,1997-03-23 12:00:00,9,1014.3,-3.2,46,-2,18000,3.704,,,130,,,,,,,,,,,wg-a,,,,AAXX 23124 07299 12868 81302 10090 21020 39818 40143 58032 60006 8707/ 91200=
07299,1997-03-23 15:00:00,11,1011,-3.1,50,1,15000,7.408,,,160,,,,,,,,,,,wg-a,,,,AAXX 23154 07299 12665 81604 10110 20010 39787 40110 56031 60006 875// 91500=
07299,1997-03-23 18:00:00,10,1010.5,-0.5,53,1,18000,11.112,,,250,-0.9,11.1,,,,,,,,14,wg-a,,,,AAXX 23184 07299 12668 82506 10100 20010 39782 40105 55005 60006 71422 878// 91800 333 10111 21009=
07299,1997-03-23 21:00:00,10,1010.6,-0,53,1,12000,14.816,,,280,,,,,,,,,,2,wg-a,,,,AAXX 23214 07299 02662 72808 10100 20010 39782 40106 55000 61000 70262 875// 92100 333 ////=
07299,1997-03-24 00:00:00,6,1010.9,0,87,4,10000,18.52,,,240,,,,1,,,,,,0,wg-a,,,,AAXX 24004 07299 02460 82410 10060 20040 39782 40109 50000 60016 7006/ 875// 90000 333 60017=
07299,1997-03-24 03:00:00,6,1010.7,-0.2,87,4,12000,3.704,,,60,,,,,,,,,,,wg-a,,,,AAXX 24034 07299 12662 80602 10060 20040 39780 40107 55002 60006 875// 90300=
07299,1997-03-24 06:00:00,6,1011.3,0.5,87,4,9000,3.704,,,230,5.5,10.2,,,,,1,,,,wg-a,,,,AAXX 24064 07299 02659 72302 10060 20040 39785 40113 53005 60006 875// 90600 333 10102 20055 60014=
07299,1997-03-24 09:00:00,8,1011.5,0.5,81,5,10000,14.816,,,250,,,,,,,,,,,wg-a,,,,AAXX 24094 07299 12460 /2508 10080 20050 39790 40115 51005 60006 85830 90900=
07299,1997-03-24 12:00:00,12,1010.7,-0.4,50,2,11000,18.52,,,290,,,,,,,,,,,wg-a,,,,AAXX 24124 07299 12/61 /2910 10120 20020 39786 40107 58004 60006 91200=
07299,1997-03-24 15:00:00,9,1011.2,0.2,76,5,10000,3.704,,,270,,,,,,,,,,25,wg-a,,,,AAXX 24154 07299 02560 72702 10090 20050 39788 40112 51002 61000 72582 878// 91500 333 ////=
07299,1997-03-24 18:00:00,7,1011.8,0.4,93,6,11000,3.704,,,230,5.9,12.5,,,,,,,,,wg-a,,,,AAXX 24184 07299 12/61 /2302 10070 20060 39792 40118 53004 60006 91800 333 10125 20059=
07299,1997-03-24 21:00:00,7,1012.7,0.8,93,6,10000,3.704,,,90,,,,,,,,,,,wg-a,,,,AAXX 24214 07299 12560 70902 10070 20060 39800 40127 51008 60006 878// 92100=
07299,1997-03-25 00:00:00,4,1013.4,0.3,93,3,9000,3.704,,,180,,,,,,,,,,,wg-a,,,,AAXX 25004 07299 12759 71802 10040 20030 39803 40134 51003 60006 875// 90000=
07299,1997-03-25 03:00:00,2,1013.9,0.3,100,2,8000,3.704,,,250,,,,,,,,,,,wg-a,,,,AAXX 25034 07299 12758 /2502 10020 20020 39806 40139 53003 60006 86500 90300=
07299,1997-03-25 06:00:00,3,1015,1.2,100,3,9000,0,,,0,1.8,7.4,,,,,,,,,wg-a,,,,AAXX 25064 07299 02759 80000 10030 20030 39818 40150 53012 60006 875// 90600 333 10074 20018 61000=
07299,1997-03-25 09:00:00,6,1016,1.3,93,5,8000,3.704,,,60,,,,,,,,,,60,wg-a,,,,AAXX 25094 07299 02658 80602 10060 20050 39831 40160 53013 61000 76062 875// 90900 333 ////=
07299,1997-03-25 12:00:00,8,1016.9,1.1,93,7,3000,7.408,,,10,,,,2,,,,,,10,wg-a,,,,AAXX 25124 07299 02330 80104 10080 20070 39842 40169 51011 60026 71062 8553/ 91200 333 60027=
07299,1997-03-25 15:00:00,8,1017.4,0.5,93,7,4000,3.704,,,200,,,,0,,,,,,10,wg-a,,,,AAXX 25154 07299 12440 72002 10080 20070 39847 40174 52005 60007 71062 8253/ 91500=
07299,1997-03-25 18:00:00,8,1019.3,1.9,87,6,7000,3.704,,,320,3.1,9.4,,,,,,,,60,wg-a,,,,AAXX 25184 07299 02457 83202 10080 20060 39866 40193 53019 61000 76086 875// 91800 333 10094 20031 6000=
07299,1997-03-25 21:00:00,7,1021.2,1.6,93,6,7000,0,,,0,,,,,,,,,,,wg-a,,,,AAXX 25214 07299 02657 80000 10070 20060 39882 40212 51016 61000 875// 92100 333 ////=
07299,1997-03-26 00:00:00,6,1021.7,0.4,100,6,0,3.704,,,70,,,,,,,,,,,wg-a,,,,AAXX 26004 07299 02/// /0702 10060 20060 39886 40217 53004 61000 90000 333 ////=
07299,1997-03-26 06:00:00,2,1025.1,2.4,100,2,200,3.704,,,190,0.7,8.3,,,,,2,,,46,wg-a,,,,AAXX 26064 07299 02102 31902 10020 20020 39914 40251 53024 60006 74644 83600 90600 333 10083 20007 60024=
07299,1997-03-26 12:00:00,14,1022.1,-0.7,47,3,10000,3.704,,,220,,,,,,,,,,,wg-a,,,,AAXX 26124 07299 12560 /2202 10140 20030 39899 40221 56007 60006 81101 91200=
07299,1997-03-26 18:00:00,11,1022.3,1,54,2,20000,11.112,,,270,2.1,14.7,,,,,,,,,wg-a,,,,AAXX 26184 07299 12/70 72706 10110 20020 39898 40223 53010 60006 84012 91800 333 10147 20021=
07299,1997-03-26 21:00:00,9,1024,1.4,76,5,15000,7.408,,,160,,,,,,,,,,,wg-a,,,,AAXX 26214 07299 12/65 71604 10090 20050 39912 40240 51014 60006 84072 92100=
07299,1997-03-27 00:00:00,9,1023.5,-0.5,76,5,0,3.704,,,160,,,,,,,,,,,wg-a,,,,AAXX 27004 07299 12/// /1602 10090 20050 39907 40235 56005 60006 90000=
07299,1997-03-27 03:00:00,11,1023,-0.3,66,5,15000,3.704,,,160,,,,,,,,,,,wg-a,,,,AAXX 27034 07299 12/65 71602 10110 20050 39904 40230 55003 60006 8707/ 90300=
07299,1997-03-27 06:00:00,11,1023.8,0.9,66,5,10000,11.112,,,230,8.9,11.5,,,,,,,,60,wg-a,,,,AAXX 27064 07299 02460 82306 10110 20050 39913 40238 53009 61000 76062 8457/ 90600 333 10115 20089 6100=
07299,1997-03-27 09:00:00,11,1024.8,0.9,66,5,12000,7.408,,,320,,,,,,,,,,,wg-a,,,,AAXX 27094 07299 02562 73204 10110 20050 39922 40248 53009 61000 8557/ 90900 333 ////=
07299,1997-03-27 12:00:00,15,1023.1,-1.3,63,8,13000,22.224,,,280,,,,,,,,,,1,wg-a,,,,AAXX 27124 07299 02663 72812 10150 20080 39909 40231 58013 61000 70162 878// 91200 333 ////=
07299,1997-03-27 15:00:00,15,1021.8,-1.1,67,9,15000,14.816,,,320,,,,,,,,,,,wg-a,,,,AAXX 27154 07299 12565 73208 10150 20090 39898 40218 58011 60006 878// 91500=
07299,1997-03-27 18:00:00,14,1021.6,-0.4,72,9,13000,7.408,,,260,11,15.7,,,,,,,,,wg-a,,,,AAXX 27184 07299 12663 72604 10140 20090 39894 40216 57004 60006 875// 91800 333 10157 20110=
07299,1997-03-27 21:00:00,13,1020.8,-0.8,77,9,13000,3.704,,,350,,,,,,,,,,,wg-a,,,,AAXX 27214 07299 32663 73502 10130 20090 39886 40208 58008 875// 92100=
07299,1997-03-28 00:00:00,13,1019.1,-1.7,77,9,12000,11.112,,,250,,,,,,,,,,,wg-a,,,,AAXX 28004 07299 12562 72506 10130 20090 39869 40191 57017 60006 85501 90000=
07299,1997-03-28 03:00:00,12,1016.6,-2.6,82,9,15000,25.928,,,240,,,,,,,,,,,wg-a,,,,AAXX 28034 07299 12/65 42414 10120 20090 39843 40166 58026 60006 80002 90300=
07299,1997-03-28 06:00:00,12,1014.7,-2.1,82,9,15000,14.816,,,260,12,13.7,,,,,,,,61,wg-a,,,,AAXX 28064 07299 02565 72608 10120 20090 39825 40147 56021 61000 76161 8687/ 90600 333 10137 20120 6000=
07299,1997-03-28 09:00:00,12,1013.6,-1.1,88,10,18000,22.224,,53.708,320,,,,1,,,,,,21,wg-a,,,,AAXX 28094 07299 12568 73212 10120 20100 39814 40136 57011 60017 72162 8587/ 90900 333 91029=
07299,1997-03-28 12:00:00,12,1016.3,0.6,50,2,500,31.484,,50.004,290,,,,,,,,,,,wg-a,,,,AAXX 28124 07299 02500 52917 10120 20020 39840 40163 51006 60016 85800 91200 333 61000 91027=
07299,1997-03-28 15:00:00,12,1017.9,1.6,35,-3,500,29.632,,,290,,,,,,,,,,,wg-a,,,,AAXX 28154 07299 12600 42916 10120 21030 39856 40179 51016 60006 84931 91500=
07299,1997-03-28 18:00:00,8,1020.6,2.1,53,-1,25000,18.52,,,320,7.4,13.3,,,,,,,,,wg-a,,,,AAXX 28184 07299 12675 43210 10080 21010 39877 40206 53021 60006 83801 91800 333 10133 20074=
07299,1997-03-28 21:00:00,5,1022.2,1.2,70,0,20000,14.816,,,250,,,,,,,,,,,wg-a,,,,AAXX 28214 07299 12770 32508 10050 20000 39889 40222 52012 60006 83500 92100=
07299,1997-03-29 00:00:00,5,1022.7,0.5,65,-1,15000,14.816,,,270,,,,,,,,,,,wg-a,,,,AAXX 29004 07299 12665 32708 10050 21010 39894 40227 53005 60006 83500 90000=
07299,1997-03-29 03:00:00,1,1023.8,0.6,86,-1,10000,11.112,,,250,,,,,,,,,,,wg-a,,,,AAXX 29034 07299 12/60 /2506 10010 21010 39900 40238 53006 60006 90300=
07299,1997-03-29 06:00:00,3,1024.1,0.5,75,-1,18000,14.816,,,240,1.1,7.7,,,,,1,,,,wg-a,,,,AAXX 29064 07299 02668 /2408 10030 21010 39905 40241 52005 60006 86500 90600 333 10077 20011 60014=
07299,1997-03-29 09:00:00,6,1024.3,0.6,61,-1,16000,14.816,,,310,,,,,,,,,,80,wg-a,,,,AAXX 29094 07299 02566 73108 10060 21010 39911 40243 51006 61000 78082 878// 90900 333 ////=
07299,1997-03-29 12:00:00,7,1023.7,-0.4,57,-1,20000,18.52,,,280,,,,0,,,,,,1,wg-a,,,,AAXX 29124 07299 02570 /2810 10070 21010 39907 40237 58004 60006 70182 86200 91200 333 60007=
07299,1997-03-29 15:00:00,8,1022.6,-1.1,57,0,25000,3.704,,,340,,,,0,,,,,,25,wg-a,,,,AAXX 29154 07299 12575 73402 10080 20000 39896 40226 58011 60007 72582 85882 91500=
07299,1997-03-29 18:00:00,7,1023.3,0.7,57,-1,20000,11.112,,,320,2.8,9.5,,,,,,,,50,wg-a,,,,AAXX 29184 07299 02670 73206 10070 21010 39903 40233 53007 61000 75085 878// 91800 333 10095 20028 ////=
07299,1997-03-29 21:00:00,5,1024.5,0.9,81,2,15000,7.408,,,290,,,,0,,,,,,3,wg-a,,,,AAXX 29214 07299 12665 72904 10050 20020 39912 40245 51009 60007 70365 878// 92100=
07299,1997-03-30 00:00:00,5,1024.8,0.3,81,2,13000,11.112,,,230,,,,,,,,,,,wg-a,,,,AAXX 30004 07299 12663 72306 10050 20020 39915 40248 50003 60006 875// 90000=
07299,1997-03-30 03:00:00,5,1025.3,0.4,87,3,13000,0,,,0,,,,,,,,,,,wg-a,,,,AAXX 30034 07299 12663 70000 10050 20030 39919 40253 53004 60006 875// 90300=
07299,1997-03-30 06:00:00,3,1026.2,0.7,100,3,8000,3.704,,,190,2.9,7.3,,,,,1,,,,wg-a,,,,AAXX 30064 07299 02658 71902 10030 20030 39926 40262 53007 60006 875// 90600 333 10073 20029 60014=
07299,1997-03-30 09:00:00,7,1026.6,0.9,76,3,10000,3.704,,,360,,,,,,,,,,1,wg-a,,,,AAXX 30094 07299 02460 73602 10070 20030 39935 40266 51009 61000 70162 878// 90900 333 ////=
07299,1997-03-30 12:00:00,9,1026.1,-0.3,61,2,15000,7.408,,,30,,,,,,,,,,,wg-a,,,,AAXX 30124 07299 02565 70304 10090 20020 39932 40261 58003 61000 878// 91200 333 ////=
07299,1997-03-30 15:00:00,10,1025.7,-0.3,57,2,15000,14.816,,,350,,,,,,,,,,15,wg-a,,,,AAXX 30154 07299 12665 73508 10100 20020 39929 40257 56003 60006 71522 878// 91500=
07299,1997-03-30 18:00:00,8,1026.8,0.8,71,3,15000,7.408,,,10,3.2,10.3,,,,,,,,2,wg-a,,,,AAXX 30184 07299 02765 70104 10080 20030 39937 40268 51008 60006 70282 875// 91800 333 10103 20032 61000=
07299,1997-03-30 21:00:00,5,1027.5,0.4,81,2,16000,3.704,,,70,,,,,,,,,,,wg-a,,,,AAXX 30214 07299 12766 30702 10050 20020 39941 40275 50004 60006 83500 92100=
07299,1997-03-31 00:00:00,1,1027.8,-0.2,93,0,12000,3.704,,,230,,,,,,,,,,,wg-a,,,,AAXX 31004 07299 12/62 /2302 10010 20000 39939 40278 57002 60006 90000=
07299,1997-03-31 06:00:00,0,1027.8,0.4,100,0,100,7.408,,,260,-1.9,7.6,,,,,,,,48,wg-a,,,,AAXX 31064 07299 02101 72604 10000 20000 39938 40278 53004 60006 74841 87600 90600 333 10076 21019 61000=
07299,1997-03-31 09:00:00,5,1027.5,0.3,100,5,500,7.408,,,310,,,,,,,,,,10,wg-a,,,,AAXX 31094 07299 12300 /3104 10050 20050 39941 40275 51003 60006 71041 81100 90900=
07299,1997-03-31 12:00:00,13,1025.4,-1.1,54,4,40000,7.408,,,20,,,,,,,,,,1,wg-a,,,,AAXX 31124 07299 12682 /0204 10130 20040 39930 40254 58011 60006 70141 81100 91200=
07299,1997-03-31 15:00:00,16,1023.2,-1.8,42,3,75000,7.408,,,10,,,,,,,,,,,wg-a,,,,AAXX 31154 07299 12689 /0104 10160 20030 39912 40232 56018 60006 81100 91500=
07299,1997-03-31 18:00:00,14,1023.3,-0.2,47,3,60000,7.408,,,60,0.3,16.2,,,,,,,,,wg-a,,,,AAXX 31184 07299 12686 /0604 10140 20030 39910 40233 55002 60006 81100 91800 333 10162 20003=
07299,1997-03-31 21:00:00,10,1024,0.3,62,3,500,3.704,,,40,,,,,,,,,,,wg-a,,,,AAXX 31214 07299 12/00 00402 10100 20030 39913 40240 51003 60006 80000 92100=
07299,1997-04-01 00:00:00,4,1024.5,-0.3,81,1,0,3.704,,,230,,,,,,,,,,,wg-a,,,,AAXX 01004 07299 12/// /2302 10040 20010 39910 40245 58003 60006 90000=
07299,1997-04-01 03:00:00,1,1023.9,-0.8,93,0,20000,3.704,,,220,,,,,,,,,,,wg-a,,,,AAXX 01034 07299 12/70 02202 10010 20000 39902 40239 56008 60006 80000 90300=
07299,1997-04-01 06:00:00,2,1024.3,0.4,93,1,20000,0,,,0,0.4,14,,,,,,,,,wg-a,,,,AAXX 01064 07299 12/70 10000 10020 20010 39906 40243 53004 60006 81040 90600 333 10140 20004=
07299,1997-04-01 09:00:00,11,1022.8,-0.3,58,3,40000,0,,,0,,,,,,,,,,,wg-a,,,,AAXX 01094 07299 12/82 10000 10110 20030 39903 40228 58003 60006 80002 90900=
07299,1997-04-01 12:00:00,16,1020.6,-1.6,48,5,60000,7.408,,,360,,,,,,,,,,,wg-a,,,,AAXX 01124 07299 12686 23604 10160 20050 39887 40206 58016 60006 81102 91200=
07299,1997-04-01 15:00:00,19,1018.8,-1.5,40,5,60000,11.112,,,10,,,,,,,,,,,wg-a,,,,AAXX 01154 07299 12786 10106 10190 20050 39872 40188 56015 60006 81102 91500=
07299,1997-04-01 18:00:00,16,1018.2,-0.8,48,5,60000,7.408,,,10,1.9,18.9,,,,,,,,,wg-a,,,,AAXX 01184 07299 12786 /0104 10160 20050 39864 40182 55008 60006 81102 91800 333 10189 20019=
07299,1997-04-01 21:00:00,10,1019.8,0.9,71,5,20000,0,,,0,,,,,,,,,,,wg-a,,,,AAXX 01214 07299 12/70 /0000 10100 20050 39873 40198 51009 60006 80001 92100=
07299,1997-04-02 00:00:00,6,1020.1,-0.2,87,4,20000,7.408,,,160,,,,,,,,,,,wg-a,,,,AAXX 02004 07299 12/70 01604 10060 20040 39871 40201 58002 60006 80000 90000=
07299,1997-04-02 03:00:00,3,1019.6,-0.9,93,2,10000,3.704,,,170,,,,,,,,,,,wg-a,,,,AAXX 02034 07299 12/60 /1702 10030 20020 39862 40196 58009 60006 90300=
07299,1997-04-02 06:00:00,3,1020.4,0.7,93,2,15000,3.704,,,270,2,16.3,,,,,,,,,wg-a,,,,AAXX 02064 07299 12/65 12702 10030 20020 39869 40204 53007 60006 80001 90600 333 10163 20020=
07299,1997-04-02 12:00:00,18,1016.9,-1.2,45,6,20000,3.704,,,220,,,,,,,,,,,wg-a,,,,AAXX 02124 07299 12670 22202 10180 20060 39853 40169 57012 60006 81101 91200=
07299,1997-04-02 18:00:00,17,1015.4,-0.1,48,6,15000,3.704,,,20,2.6,20,,,,,,,,,wg-a,,,,AAXX 02184 07299 12765 /0202 10170 20060 39837 40154 55001 60006 81434 91800 333 10200 20026=
07299,1997-04-02 21:00:00,10,1016.9,0.7,76,6,12000,3.704,,,190,,,,,,,,,,,wg-a,,,,AAXX 02214 07299 12762 51902 10100 20060 39844 40169 51007 60006 815/1 92100=
07299,1997-04-03 00:00:00,7,1016.8,-0.4,87,5,10000,3.704,,,150,,,,,,,,,,,wg-a,,,,AAXX 03004 07299 12/60 41502 10070 20050 39840 40168 58004 60006 80001 90000=
07299,1997-04-03 03:00:00,6,1016.3,-0.7,87,4,9000,7.408,,,170,,,,,,,,,,,wg-a,,,,AAXX 03034 07299 12/59 /1704 10060 20040 39833 40163 58007 60006 80001 90300=
07299,1997-04-03 06:00:00,6,1016.4,0.2,93,5,8000,11.112,,,150,4.7,16.8,,,,,,,,,wg-a,,,,AAXX 03064 07299 12/58 61506 10060 20050 39835 40164 53002 60006 81032 90600 333 10168 20047=
07299,1997-04-03 09:00:00,15,1015.7,0.3,55,6,4800,18.52,,,260,,,,,,,,,,5,wg-a,,,,AAXX 03094 07299 12648 /2610 10150 20060 39838 40157 51003 60006 70511 81100 90900=
07299,1997-04-03 12:00:00,18,1014,-1.3,42,5,7000,25.928,,,250,,,,,,,,,,,wg-a,,,,AAXX 03124 07299 12657 22514 10180 20050 39825 40140 57013 60006 82100 91200=
07299,1997-04-03 15:00:00,18,1012.4,-1.6,42,5,9000,25.928,,,260,,,,,,,,,,,wg-a,,,,AAXX 03154 07299 12759 62614 10180 20050 39809 40124 56016 60006 83831 91500=
07299,1997-04-03 18:00:00,14,1013.9,1.1,51,4,10000,22.224,,,330,6.2,18.9,,,,,,,,,wg-a,,,,AAXX 03184 07299 12760 73312 10140 20040 39820 40139 53011 60006 83432 91800 333 10189 20062=
07299,1997-04-04 00:00:00,10,1016.7,0,66,4,8000,25.928,,,250,,,,,,,,,,,wg-a,,,,AAXX 04004 07299 12658 72514 10100 20040 39842 40167 50000 60006 8353/ 90000=
07299,1997-04-04 03:00:00,9,1017.5,0.7,76,5,10000,18.52,,,260,,,,,,,,,,,wg-a,,,,AAXX 04034 07299 12460 72610 10090 20050 39849 40175 51007 60006 878// 90300=
07299,1997-04-04 06:00:00,6,1021.2,3.2,81,3,10000,3.704,,,270,5.9,14.3,,,,,,,,60,wg-a,,,,AAXX 04064 07299 02560 72702 10060 20030 39881 40212 53032 61000 76062 878// 90600 333 10143 20059 6000=
07299,1997-04-04 09:00:00,8,1022.6,1.5,71,3,15000,14.816,,,340,,,,,,,,,,80,wg-a,,,,AAXX 04094 07299 02565 73408 10080 20030 39896 40226 53015 61000 78082 878// 90900 333 ////=
07299,1997-04-04 12:00:00,10,1023.2,0.9,50,0,15000,14.816,,25.928,290,,,,,,,,,,3,wg-a,,,,AAXX 04124 07299 02565 72908 10100 20000 39905 40232 51009 61000 70386 878// 91200 333 //// 91014=
07299,1997-04-04 18:00:00,8,1025.1,0.9,49,-2,11000,3.704,,,280,6,10.5,,,,,,,,,wg-a,,,,AAXX 04184 07299 12/61 /2802 10080 21020 39920 40251 53009 60006 91800 333 10105 20060=
07299,1997-04-04 21:00:00,4,1027.4,1.8,56,-4,35000,11.112,,,310,,,,,,,,,,,wg-a,,,,AAXX 04214 07299 12781 53106 10040 21040 39938 40274 51018 60006 85500 92100=
07299,1997-04-05 00:00:00,2,1027.4,-0.2,75,-2,0,0,,,0,,,,,,,,,,,wg-a,,,,AAXX 05004 07299 12/// /0000 10020 21020 39936 40274 57002 60006 90000=
07299,1997-04-05 03:00:00,0,1026.7,-0.9,86,-2,25000,3.704,,,20,,,,,,,,,,,wg-a,,,,AAXX 05034 07299 12/75 00202 10000 21020 39927 40267 55009 60006 80000 90300=
07299,1997-04-05 06:00:00,2,1026.1,-0.3,87,0,25000,0,,,0,-0.6,7.5,,,,,,,,,wg-a,,,,AAXX 05064 07299 02/75 70000 10020 20000 39924 40261 56003 60006 8707/ 90600 333 10075 21006 60004=
07299,1997-04-05 09:00:00,7,1025.3,-0.3,53,-2,500,7.408,,,200,,,,,,,,,,,wg-a,,,,AAXX 05094 07299 12700 72004 10070 21020 39921 40253 58003 60006 81572 90900=
07299,1997-04-05 12:00:00,10,1022.4,-2.4,32,-6,11000,11.112,,,260,,,,,,,,,,,wg-a,,,,AAXX 05124 07299 12/61 /2606 10100 21060 39897 40224 58024 60006 91200=
07299,1997-04-05 15:00:00,12,1018.9,-3.2,38,-2,50000,7.408,,,280,,,,,,,,,,,wg-a,,,,AAXX 05154 07299 12784 72804 10120 21020 39865 40189 56032 60006 81572 91500=
07299,1997-04-05 18:00:00,13,1018.1,-0.7,44,1,20000,18.52,,,250,2.1,12.9,,,,,,,,,wg-a,,,,AAXX 05184 07299 12670 72510 10130 20010 39858 40181 56007 60006 85872 91800 333 10129 20021=
07299,1997-04-05 21:00:00,12,1018.1,0,50,2,20000,18.52,,,240,,,,,,,,,,,wg-a,,,,AAXX 05214 07299 12770 72410 10120 20020 39858 40181 50000 60006 8557/ 92100=
07299,1997-04-06 00:00:00,12,1018.2,0.1,58,4,20000,35.188,,61.116,260,,,,,,,,,,,wg-a,,,,AAXX 06004 07299 12670 72619 10120 20040 39859 40182 53001 60006 8657/ 90000 333 91033=
07299,1997-04-06 03:00:00,9,1018.5,-0,87,7,13000,31.484,,,260,,,,,,,,,,,wg-a,,,,AAXX 06034 07299 12663 72617 10090 20070 39859 40185 55000 60006 8657/ 90300=
07299,1997-04-06 06:00:00,9,1019.8,1.2,87,7,9000,29.632,,,260,8.9,12.9,,,,,,,,60,wg-a,,,,AAXX 06064 07299 02659 72616 10090 20070 39871 40198 53012 61000 76062 875// 90600 333 10129 20089 6000=
07299,1997-04-06 09:00:00,10,1020.7,1.1,87,8,7000,22.224,,,260,,,,1,,,,,,3,wg-a,,,,AAXX 06094 07299 12457 72612 10100 20080 39882 40207 51011 60017 70362 878// 90900=
07299,1997-04-06 12:00:00,11,1022.2,1.4,66,5,9000,25.928,,,350,,,,2,,,,,,25,wg-a,,,,AAXX 06124 07299 02459 /3514 10110 20050 39896 40222 51014 60026 72586 84800 91200 333 60027=
07299,1997-04-06 15:00:00,11,1023.3,1.1,50,1,20000,22.224,,,10,,,,,,,,,,,wg-a,,,,AAXX 06154 07299 12670 10112 10110 20010 39907 40233 51011 60006 81800 91500=
07299,1997-04-06 18:00:00,8,1025.4,1.6,46,-3,50000,18.52,,,340,7.7,12.1,,,,,,,,,wg-a,,,,AAXX 06184 07299 12684 /3410 10080 21030 39923 40254 53016 60006 81800 91800 333 10121 20077=
07299,1997-04-06 21:00:00,5,1028.3,2.6,60,-2,500,3.704,,,70,,,,,,,,,,,wg-a,,,,AAXX 06214 07299 12600 20702 10050 21020 39949 40283 51026 60006 82500 92100=
07299,1997-04-07 00:00:00,2,1029.7,0.9,75,-2,25000,3.704,,,280,,,,,,,,,,,wg-a,,,,AAXX 07004 07299 12/75 02802 10020 21020 39958 40297 51009 60006 80000 90000=
07299,1997-04-07 03:00:00,-2,1030.1,-0,86,-4,25000,3.704,,,290,,,,,,,,,,,wg-a,,,,AAXX 07034 07299 12/75 02902 11020 21040 39958 40301 55000 60006 80000 90300=
07299,1997-04-07 06:00:00,-1,1031.4,1.3,86,-3,15000,7.408,,,300,-2.3,7.8,,,,,2,,,,wg-a,,,,AAXX 07064 07299 02/65 03004 11010 21030 39971 40314 53013 60006 80000 90600 333 10078 21023 60024=
07299,1997-04-07 12:00:00,12,1028.7,-1,38,-2,60000,11.112,,,80,,,,,,,,,,,wg-a,,,,AAXX 07124 07299 12/86 00806 10120 21020 39960 40287 56010 60006 80000 91200=
07299,1997-04-07 15:00:00,14,1027.3,-1.2,28,-4,60000,11.112,,,110,,,,,,,,,,,wg-a,,,,AAXX 07154 07299 12/86 01106 10140 21040 39948 40273 56012 60006 80000 91500=
07299,1997-04-07 18:00:00,10,1028.3,0.6,29,-7,50000,14.816,,,110,-1,13.9,,,,,,,,,wg-a,,,,AAXX 07184 07299 12/84 41108 10100 21070 39954 40283 53006 60006 80002 91800 333 10139 21010=
07299,1997-04-07 21:00:00,6,1029.6,0.8,33,-9,500,18.52,,,100,,,,,,,,,,,wg-a,,,,AAXX 07214 07299 12/00 01010 10060 21090 39962 40296 50008 60006 80000 92100=
07299,1997-04-08 00:00:00,4,1029.3,-0.5,41,-8,500,11.112,,,150,,,,,,,,,,,wg-a,,,,AAXX 08004 07299 12/00 01506 10040 21080 39957 40293 58005 60006 80000 90000=
07299,1997-04-08 03:00:00,-1,1029.9,-0,64,-7,25000,3.704,,,310,,,,,,,,,,,wg-a,,,,AAXX 08034 07299 12/75 03102 11010 21070 39957 40299 55000 60006 80000 90300=
07299,1997-04-08 06:00:00,0,1030.7,0.8,59,-7,40000,7.408,,,310,-2.1,10.2,,,,,,,,,wg-a,,,,AAXX 08064 07299 12/82 13104 10000 21070 39965 40307 53008 60006 80002 90600 333 10102 21021=
07299,1997-04-08 09:00:00,7,1029.9,0.1,39,-6,50000,7.408,,,20,,,,,,,,,,,wg-a,,,,AAXX 08094 07299 12/84 10204 10070 21060 39966 40299 51001 60006 80001 90900=
07299,1997-04-08 12:00:00,12,1028.2,-1,35,-3,60000,11.112,,,340,,,,,,,,,,,wg-a,,,,AAXX 08124 07299 12/86 13406 10120 21030 39956 40282 58010 60006 81031 91200=
07299,1997-04-08 15:00:00,15,1025.9,-1.9,27,-4,50000,7.408,,,20,,,,,,,,,,,wg-a,,,,AAXX 08154 07299 12/84 20204 10150 21040 39937 40259 58019 60006 80002 91500=
07299,1997-04-08 18:00:00,14,1026.4,0.3,23,-7,60000,7.408,,,80,-0.3,15.7,,,,,,,,,wg-a,,,,AAXX 08184 07299 12/86 20804 10140 21070 39940 40264 53003 60006 80002 91800 333 10157 21003=
07299,1997-04-08 21:00:00,6,1028.3,0.9,52,-3,20000,0,,,0,,,,,,,,,,,wg-a,,,,AAXX 08214 07299 12/70 00000 10060 21030 39949 40283 51009 60006 80000 92100=
07299,1997-04-09 00:00:00,2,1029.5,0.7,69,-3,20000,3.704,,,10,,,,,,,,,,,wg-a,,,,AAXX 09004 07299 12/70 00102 10020 21030 39956 40295 51007 60006 80000 90000=
07299,1997-04-09 03:00:00,1,1029.8,0.1,75,-3,20000,0,,,0,,,,,,,,,,,wg-a,,,,AAXX 09034 07299 12/70 20000 10010 21030 39957 40298 53001 60006 80001 90300=
07299,1997-04-09 06:00:00,1,1030.7,1,80,-2,55000,3.704,,,230,-0.5,13.6,,,,,,,,,wg-a,,,,AAXX 09064 07299 12/85 22302 10010 21020 39967 40307 53010 60006 80001 90600 333 10136 21005=
07299,1997-04-09 09:00:00,12,1029.7,0.3,40,-1,40000,7.408,,,150,,,,,,,,,,,wg-a,,,,AAXX 09094 07299 12/82 21504 10120 21010 39970 40297 51003 60006 80001 90900=
07299,1997-04-09 12:00:00,18,1027.8,-1.2,37,3,25000,3.704,,,90,,,,,,,,,,,wg-a,,,,AAXX 09124 07299 12/75 30902 10180 20030 39958 40278 58012 60006 80002 91200=
07299,1997-04-09 15:00:00,20,1026.5,-1,35,4,500,11.112,,,280,,,,,,,,,,,wg-a,,,,AAXX 09154 07299 12/00 72806 10200 20040 39948 40265 58010 60006 81031 91500=
07299,1997-04-09 18:00:00,17,1027.3,0.5,42,4,20000,7.408,,,250,1.2,20.2,,,,,,,,,wg-a,,,,AAXX 09184 07299 12670 72504 10170 20040 39953 40273 53005 60006 81171 91800 333 10202 20012=
07299,1997-04-09 21:00:00,10,1029.2,1.1,66,4,15000,7.408,,,260,,,,,,,,,,,wg-a,,,,AAXX 09214 07299 12/65 52604 10100 20040 39964 40292 51011 60006 80002 92100=
07299,1997-04-10 00:00:00,6,1030.7,0.9,81,3,15000,3.704,,,190,,,,,,,,,,,wg-a,,,,AAXX 10004 07299 12/65 01902 10060 20030 39973 40307 52009 60006 80000 90000=
07299,1997-04-10 03:00:00,5,1031,0.1,81,2,15000,7.408,,,180,,,,,,,,,,,wg-a,,,,AAXX 10034 07299 12/65 01804 10050 20020 39974 40310 51001 60006 80000 90300=
07299,1997-04-10 06:00:00,6,1031.1,0.3,87,4,15000,7.408,,,160,3.3,16.9,,,,,,,,,wg-a,,,,AAXX 10064 07299 12/65 01604 10060 20040 39977 40311 53003 60006 80000 90600 333 10169 20033=
07299,1997-04-10 09:00:00,15,1030.1,0.1,51,5,17000,3.704,,,110,,,,,,,,,,,wg-a,,,,AAXX 10094 07299 12/67 21102 10150 20050 39978 40301 52001 60006 81031 90900=
07299,1997-04-10 12:00:00,20,1028.4,-1.2,37,5,20000,7.408,,,10,,,,,,,,,,,wg-a,,,,AAXX 10124 07299 12770 20104 10200 20050 39966 40284 58012 60006 81101 91200=
07299,1997-04-10 15:00:00,21,1026.7,-1.6,30,3,18000,11.112,,,20,,,,,,,,,,,wg-a,,,,AAXX 10154 07299 12768 10206 10210 20030 39950 40267 56016 60006 81101 91500=
07299,1997-04-10 18:00:00,18,1026.7,-0.3,34,2,20000,7.408,,,10,6.1,21.1,,,,,,,,,wg-a,,,,AAXX 10184 07299 12/70 50104 10180 20020 39947 40267 56003 60006 81034 91800 333 10211 20061=
07299,1997-04-10 21:00:00,11,1027.7,0.3,58,3,20000,7.408,,,160,,,,,,,,,,,wg-a,,,,AAXX 10214 07299 12/70 31604 10110 20030 39950 40277 51003 60006 80001 92100=
07299,1997-04-11 00:00:00,6,1027.7,-0.6,75,2,20000,3.704,,,180,,,,,,,,,,,wg-a,,,,AAXX 11004 07299 12/70 01802 10060 20020 39944 40277 58006 60006 80000 90000=
07299,1997-04-11 03:00:00,4,1026.8,-1.1,81,1,10000,0,,,0,,,,,,,,,,,wg-a,,,,AAXX 11034 07299 12/60 /0000 10040 20010 39933 40268 57011 60006 90300=
07299,1997-04-11 06:00:00,4,1026.1,-0.7,87,2,20000,0,,,0,2.3,17.5,,,,,,,,,wg-a,,,,AAXX 11064 07299 12/70 50000 10040 20020 39926 40261 56007 60006 80001 90600 333 10175 20023=
07299,1997-04-11 09:00:00,15,1023.3,-1.4,48,4,10000,3.704,,,50,,,,,,,,,,,wg-a,,,,AAXX 11094 07299 12/60 50502 10150 20040 39912 40233 58014 60006 80001 90900=
07299,1997-04-11 12:00:00,19,1019.8,-3,24,-2,16000,29.632,,,250,,,,,,,,,,,wg-a,,,,AAXX 11124 07299 12/66 22516 10190 21020 39882 40198 56030 60006 80001 91200=
07299,1997-04-11 18:00:00,17,1017.4,0.1,36,2,15000,18.52,,,290,4.1,19.6,,,,,,,,,wg-a,,,,AAXX 11184 07299 12765 82910 10170 20020 39856 40174 53001 60006 8457/ 91800 333 10196 20041=
07299,1997-04-11 21:00:00,8,1023.3,4.7,66,2,11000,35.188,,,10,,,,2,,,,,,1,wg-a,,,,AAXX 11214 07299 12561 80119 10080 20020 39903 40233 51047 60027 70186 8557/ 92100=
07299,1997-04-12 00:00:00,3,1025.5,1.6,70,-2,13000,18.52,,,350,,,,,,,,,,0,wg-a,,,,AAXX 12004 07299 12/63 13510 10030 21020 39919 40255 51016 60026 70086 81030 90000=
07299,1997-04-12 03:00:00,1,1026.1,0.3,80,-2,15000,11.112,,,330,,,,,,,,,,,wg-a,,,,AAXX 12034 07299 12/65 13306 10010 21020 39922 40261 50003 60006 81030 90300=
07299,1997-04-12 06:00:00,0,1026.4,0.2,86,-2,16000,7.408,,,290,-0.9,16.5,,,,,2,,,,wg-a,,,,AAXX 12064 07299 02/66 52904 10000 21020 39924 40264 53002 60006 80002 90600 333 10165 21009 60024=
07299,1997-04-12 09:00:00,6,1025.8,0.1,56,-2,20000,22.224,,,350,,,,,,,,,,,wg-a,,,,AAXX 12094 07299 12570 73512 10060 21020 39925 40258 51001 60006 82101 90900=
07299,1997-04-12 12:00:00,9,1024.2,-1.2,40,-4,500,22.224,,,350,,,,,,,,,,,wg-a,,,,AAXX 12124 07299 12600 73512 10090 21040 39913 40242 56012 60006 81101 91200=
07299,1997-04-12 15:00:00,10,1023.2,-0.9,40,-3,50000,25.928,,,10,,,,,,,,,,,wg-a,,,,AAXX 12154 07299 12684 40114 10100 21030 39904 40232 55009 60006 81101 91500=
07299,1997-04-12 18:00:00,7,1024.5,0.9,45,-4,55000,14.816,,,360,0.2,10,,,,,,,,,wg-a,,,,AAXX 12184 07299 12785 23608 10070 21040 39913 40245 53009 60006 81501 91800 333 10100 20002=
07299,1997-04-12 21:00:00,2,1026.3,1.3,75,-2,11000,7.408,,,320,,,,,,,,,,,wg-a,,,,AAXX 12214 07299 12/61 /3204 10020 21020 39926 40263 51013 60006 92100=
07299,1997-04-13 00:00:00,-1,1026.3,-0.4,86,-3,15000,3.704,,,160,,,,,,,,,,,wg-a,,,,AAXX 13004 07299 12/65 31602 11010 21030 39922 40263 56004 60006 82031 90000=
07299,1997-04-13 03:00:00,-2,1025.8,-0.6,93,-3,12000,3.704,,,290,,,,,,,,,,,wg-a,,,,AAXX 13034 07299 12/62 22902 11020 21030 39916 40258 55006 60006 82031 90300=
07299,1997-04-13 06:00:00,-2,1026.4,0.6,93,-3,16000,3.704,,,190,-2.9,6.6,,,,,,,,,wg-a,,,,AAXX 13064 07299 12/66 11902 11020 21030 39922 40264 53006 60006 80001 90600 333 10066 21029=
07299,1997-04-13 09:00:00,7,1025.4,0.1,61,0,17000,7.408,,,350,,,,,,,,,,,wg-a,,,,AAXX 13094 07299 12567 /3504 10070 20000 39923 40254 50001 60006 81100 90900=
07299,1997-04-13 12:00:00,12,1023.6,-1.3,40,-1,18000,3.704,,25.928,70,,,,,,,,,,,wg-a,,,,AAXX 13124 07299 12668 30702 10120 21010 39910 40236 58013 60006 83800 91200 333 91014=
07299,1997-04-13 18:00:00,11,1022.3,-0.3,43,-1,500,14.816,,,10,-1.5,13.3,,,,,,,,,wg-a,,,,AAXX 13184 07299 12700 /0108 10110 21010 39897 40223 55003 60006 81502 91800 333 10133 21015=
07299,1997-04-13 21:00:00,6,1023.5,0.6,56,-2,20000,7.408,,,360,,,,,,,,,,,wg-a,,,,AAXX 13214 07299 12/70 /3604 10060 21020 39903 40235 51006 60006 80000 92100=
07299,1997-04-14 00:00:00,2,1023.9,-0.1,75,-2,20000,3.704,,,200,,,,,,,,,,,wg-a,,,,AAXX 14004 07299 12/70 02002 10020 21020 39902 40239 57001 60006 80000 90000=
07299,1997-04-14 03:00:00,0,1024.1,-0,80,-3,12000,3.704,,,140,,,,,,,,,,,wg-a,,,,AAXX 14034 07299 12/62 /1402 10000 21030 39902 40241 55000 60006 80000 90300=
07299,1997-04-14 06:00:00,0,1024.8,0.6,86,-2,15000,0,,,0,-1.5,10.8,,,,,,,,,wg-a,,,,AAXX 14064 07299 12/65 00000 10000 21020 39908 40248 53006 60006 80000 90600 333 10108 21015=
07299,1997-04-14 09:00:00,9,1023.8,0.2,57,1,15000,3.704,,,290,,,,,,,,,,,wg-a,,,,AAXX 14094 07299 12/65 02902 10090 20010 39910 40238 51002 60006 80000 90900=
07299,1997-04-14 12:00:00,14,1021.9,-1.3,33,-2,25000,7.408,,,20,,,,,,,,,,,wg-a,,,,AAXX 14124 07299 12/75 10204 10140 21020 39897 40219 58013 60006 81030 91200=
07299,1997-04-14 15:00:00,16,1020,-1.7,34,0,40000,11.112,,,360,,,,,,,,,,,wg-a,,,,AAXX 14154 07299 12782 13606 10160 20000 39880 40200 57017 60006 81100 91500=
07299,1997-04-14 18:00:00,14,1020.1,-0.1,44,2,15000,7.408,,,360,-0.1,16.1,,,,,,,,,wg-a,,,,AAXX 14184 07299 12765 33604 10140 20020 39879 40201 55001 60006 815/4 91800 333 10161 21001=
07299,1997-04-14 21:00:00,10,1021.2,0.7,62,3,15000,3.704,,,330,,,,,,,,,,,wg-a,,,,AAXX 14214 07299 12765 23302 10100 20030 39886 40212 50007 60006 82500 92100=
07299,1997-04-15 00:00:00,9,1021.5,-0,71,4,0,7.408,,,260,,,,,,,,,,,wg-a,,,,AAXX 15004 07299 12/// /2604 10090 20040 39887 40215 54000 60006 90000=
07299,1997-04-15 03:00:00,9,1020.6,-0.9,66,3,13000,11.112,,,250,,,,,,,,,,,wg-a,,,,AAXX 15034 07299 12663 /2506 10090 20030 39878 40206 58009 60006 82530 90300=
07299,1997-04-15 06:00:00,9,1021.7,1.1,71,4,6000,11.112,,,290,7.2,13.6,,,,,,,,,wg-a,,,,AAXX 15064 07299 12556 82906 10090 20040 39889 40217 50011 60006 878// 90600 333 10136 20072=
07299,1997-04-15 09:00:00,8,1023.4,1.5,57,0,15000,22.224,,,350,,,,,,,,,,,wg-a,,,,AAXX 15094 07299 12665 /3512 10080 20000 39904 40234 51015 60006 86500 90900=
07299,1997-04-15 12:00:00,10,1023.5,0.4,43,-2,20000,22.224,,,10,,,,,,,,,,,wg-a,,,,AAXX 15124 07299 12670 /0112 10100 21020 39908 40235 50004 60006 85500 91200=
07299,1997-04-15 15:00:00,11,1023.1,-0.3,37,-3,40000,14.816,,,340,,,,,,,,,,,wg-a,,,,AAXX 15154 07299 12782 23408 10110 21030 39905 40231 57003 60006 82500 91500=
07299,1997-04-15 18:00:00,9,1024,0.6,43,-3,50000,14.816,,,10,7.2,11.6,,,,,,,,,wg-a,,,,AAXX 15184 07299 12784 20108 10090 21030 39911 40240 53006 60006 82540 91800 333 10116 20072=
07299,1997-04-15 21:00:00,4,1025.7,1.1,60,-3,500,3.704,,,330,,,,,,,,,,,wg-a,,,,AAXX 15214 07299 12700 33302 10040 21030 39922 40257 51011 60006 83500 92100=
07299,1997-04-16 00:00:00,2,1025.6,-0.4,69,-3,25000,3.704,,,290,,,,,,,,,,,wg-a,,,,AAXX 16004 07299 12/75 32902 10020 21030 39918 40256 58004 60006 83030 90000=
07299,1997-04-16 03:00:00,0,1025.2,-0.6,74,-4,20000,7.408,,,320,,,,,,,,,,,wg-a,,,,AAXX 16034 07299 12/70 03204 10000 21040 39912 40252 56006 60006 80000 90300=
07299,1997-04-16 06:00:00,3,1025.4,0.5,75,-1,15000,3.704,,,310,-0.3,9,,,,,,,,,wg-a,,,,AAXX 16064 07299 12665 63102 10030 21010 39917 40254 53005 60006 85502 90600 333 10090 21003=
07299,1997-04-16 09:00:00,6,1025.3,0.3,61,-1,12000,7.408,,,350,,,,,,,,,,,wg-a,,,,AAXX 16094 07299 12562 /3504 10060 21010 39920 40253 51003 60006 85800 90900=
07299,1997-04-16 12:00:00,10,1023.2,-1.5,37,-4,15000,11.112,,,10,,,,,,,,,,,wg-a,,,,AAXX 16124 07299 12665 40106 10100 21040 39905 40232 57015 60006 84200 91200=
07299,1997-04-16 15:00:00,11,1021.4,-1.7,32,-5,18000,11.112,,,10,,,,,,,,,,,wg-a,,,,AAXX 16154 07299 12768 /0106 10110 21050 39888 40214 58017 60006 86400 91500=
07299,1997-04-16 18:00:00,10,1020.6,-0.9,29,-7,35000,14.816,,,20,2.6,11.3,,,,,,,,14,wg-a,,,,AAXX 16184 07299 12781 60208 10100 21070 39879 40206 57009 60006 71411 86401 91800 333 10113 20026=
07299,1997-04-16 21:00:00,5,1021.2,-0,48,-5,16000,3.704,,,350,,,,,,,,,,,wg-a,,,,AAXX 16214 07299 12766 63502 10050 21050 39879 40212 55000 60006 82530 92100=
07299,1997-04-17 00:00:00,3,1020.9,-0.5,52,-6,16000,3.704,,,110,,,,,,,,,,,wg-a,,,,AAXX 17004 07299 12/66 31102 10030 21060 39874 40209 58005 60006 80001 90000=
07299,1997-04-17 03:00:00,-2,1020,-1.5,69,-7,16000,7.408,,,220,,,,,,,,,,,wg-a,,,,AAXX 17034 07299 12/66 32204 11020 21070 39859 40200 56015 60006 80001 90300=
07299,1997-04-17 06:00:00,-1,1020.7,0.9,74,-5,40000,7.408,,,290,-3.4,9.8,,,,,,,,,wg-a,,,,AAXX 17064 07299 12/82 12904 11010 21050 39868 40207 53009 60006 80001 90600 333 10098 21034=
07299,1997-04-17 09:00:00,7,1019.8,0,45,-4,50000,3.704,,,290,,,,,,,,,,,wg-a,,,,AAXX 17094 07299 12684 /2902 10070 21040 39868 40198 50000 60006 83101 90900=
07299,1997-04-17 12:00:00,11,1018.9,-0.4,28,-7,60000,22.224,,,90,,,,,,,,,,,wg-a,,,,AAXX 17124 07299 12786 /0912 10110 21070 39864 40189 56004 60006 83100 91200=
07299,1997-04-17 15:00:00,12,1018.1,-0.6,28,-6,60000,18.52,,,80,,,,,,,,,,,wg-a,,,,AAXX 17154 07299 12886 10810 10120 21060 39858 40181 58006 60006 81400 91500=
07299,1997-04-17 18:00:00,10,1019.5,1,32,-6,55000,14.816,,,110,-0.5,12.4,,,,,,,,,wg-a,,,,AAXX 17184 07299 12/85 11108 10100 21060 39868 40195 53010 60006 80001 91800 333 10124 21005=
07299,1997-04-17 21:00:00,6,1021.5,1.5,45,-5,20000,3.704,,,70,,,,,,,,,,,wg-a,,,,AAXX 17214 07299 12/70 00702 10060 21050 39883 40215 51015 60006 80000 92100=
07299,1997-04-18 00:00:00,2,1022.3,0.4,60,-5,18000,3.704,,,190,,,,,,,,,,,wg-a,,,,AAXX 18004 07299 32/68 01902 10020 21050 39887 40223 51004 80000 90000=
07299,1997-04-18 03:00:00,1,1021.6,-0.9,64,-5,16000,3.704,,,310,,,,,,,,,,,wg-a,,,,AAXX 18034 07299 12/66 03102 10010 21050 39878 40216 56009 60006 80000 90300=
07299,1997-04-18 06:00:00,0,1022.1,0.5,74,-4,17000,0,,,0,-1.5,9.7,,,,,,,,,wg-a,,,,AAXX 18064 07299 12/67 00000 10000 21040 39883 40221 53005 60006 80000 90600 333 10097 21015=
07299,1997-04-18 12:00:00,13,1017.3,-2.2,35,-2,500,7.408,,,20,,,,,,,,,,,wg-a,,,,AAXX 18124 07299 12/00 00204 10130 21020 39851 40173 58022 60006 80000 91200=
07299,1997-04-18 15:00:00,16,1014.6,-2.4,25,-4,50000,7.408,,,90,,,,,,,,,,,wg-a,,,,AAXX 18154 07299 12/84 10904 10160 21040 39827 40146 58024 60006 80001 91500=
07299,1997-04-18 18:00:00,15,1013.2,-1.4,27,-4,55000,3.704,,,360,0.2,16.2,,,,,,,,,wg-a,,,,AAXX 18184 07299 12/85 13602 10150 21040 39813 40132 56014 60006 80001 91800 333 10162 20002=
07299,1997-04-18 21:00:00,7,1014.4,0.3,49,-3,20000,3.704,,,270,,,,,,,,,,,wg-a,,,,AAXX 18214 07299 12/70 12702 10070 21030 39816 40144 51003 60006 80001 92100=
07299,1997-04-19 00:00:00,3,1014,-0.8,70,-2,16000,3.704,,,180,,,,,,,,,,,wg-a,,,,AAXX 19004 07299 12/66 01802 10030 21020 39808 40140 58008 60006 80000 90000=
07299,1997-04-19 03:00:00,0,1013.7,-0.6,80,-3,16000,3.704,,,250,,,,,,,,,,,wg-a,,,,AAXX 19034 07299 12/66 02502 10000 21030 39802 40137 55006 60006 80000 90300=
07299,1997-04-19 06:00:00,1,1013.2,-0.4,80,-2,15000,3.704,,,240,-0.3,14.7,,,,,,,,,wg-a,,,,AAXX 19064 07299 12/65 12402 10010 21020 39798 40132 56004 60006 80002 90600 333 10147 21003=
07299,1997-04-19 12:00:00,16,1008.2,-2.5,34,0,15000,7.408,,,340,,,,,,,,,,,wg-a,,,,AAXX 19124 07299 12665 33404 10160 20000 39766 40082 56025 60006 81102 91200=
07299,1997-04-19 18:00:00,12,1006.8,0.4,50,2,10000,25.928,,,360,1.3,16.7,,,,,,,,,wg-a,,,,AAXX 19184 07299 12/60 43614 10120 20020 39748 40068 53004 60006 81032 91800 333 10167 20013=
07299,1997-04-19 21:00:00,7,1008.9,1.5,70,2,10000,14.816,,,340,,,,,,,,,,,wg-a,,,,AAXX 19214 07299 12/60 73408 10070 20020 39763 40089 51015 60006 85032 92100=
07299,1997-04-20 00:00:00,6,1008.3,-0.6,81,3,10000,14.816,,,340,,,,,,,,,,60,wg-a,,,,AAXX 20004 07299 02560 83408 10060 20030 39757 40083 58006 61000 760// 875// 90000 333 6100=
07299,1997-04-20 03:00:00,5,1008.7,0.1,93,4,10000,11.112,,,330,,,,4,,,,,,60,wg-a,,,,AAXX 20034 07299 12460 73306 10050 20040 39758 40087 53001 60047 76062 878// 90300=
07299,1997-04-20 06:00:00,3,1010.5,1.5,93,2,6000,14.816,,,180,2.5,11.6,,,,,,,,61,wg-a,,,,AAXX 20064 07299 02256 81808 10030 20020 39773 40105 53015 61000 76162 888// 90600 333 10116 20025 6006=
07299,1997-04-20 09:00:00,5,1011.8,1.6,81,2,10000,7.408,,,180,,,,1,,,,,,1,wg-a,,,,AAXX 20094 07299 12360 71804 10050 20020 39789 40118 51016 60017 70162 878// 90900=
07299,1997-04-20 12:00:00,8,1012.2,0.7,49,-2,15000,7.408,,,60,,,,,,,,,,,wg-a,,,,AAXX 20124 07299 12665 70604 10080 21020 39796 40122 51007 60016 86870 91200=
07299,1997-04-20 15:00:00,8,1012.9,0.6,46,-3,12000,7.408,,,30,,,,,,,,,,,wg-a,,,,AAXX 20154 07299 12662 /0304 10080 21030 39802 40129 52006 60006 85201 91500=
07299,1997-04-20 18:00:00,7,1013.9,0.9,49,-3,15000,14.816,,,80,2.2,9.3,,,,,,,,,wg-a,,,,AAXX 20184 07299 12665 40808 10070 21030 39811 40139 53009 60006 83231 91800 333 10093 20022=
07299,1997-04-20 21:00:00,4,1015.5,1.2,70,-1,15000,7.408,,,80,,,,,,,,,,,wg-a,,,,AAXX 20214 07299 12665 40804 10040 21010 39823 40155 51012 60006 84201 92100=
07299,1997-04-21 00:00:00,0,1015.8,-0.2,86,-2,15000,7.408,,,340,,,,,,,,,,,wg-a,,,,AAXX 21004 07299 12/65 03404 10000 21020 39821 40158 57002 60006 80000 90000=
07299,1997-04-21 03:00:00,-2,1014.9,-1,93,-3,15000,7.408,,,300,,,,,,,,,,,wg-a,,,,AAXX 21034 07299 12/65 03004 11020 21030 39811 40149 56010 60006 80000 90300=
07299,1997-04-21 06:00:00,-1,1014.9,0.1,93,-2,7000,11.112,,,320,-2.8,6.7,,,,,1,,,,wg-a,,,,AAXX 21064 07299 02557 33206 11010 21020 39812 40149 53001 60006 83500 90600 333 10067 21028 60014=
07299,1997-04-21 09:00:00,5,1012.8,-1.3,60,-2,12000,14.816,,,350,,,,,,,,,,,wg-a,,,,AAXX 21094 07299 12562 33508 10050 21020 39799 40128 58013 60006 83800 90900=
07299,1997-04-21 12:00:00,10,1010.4,-1.8,27,-8,25000,18.52,,,70,,,,,,,,,,,wg-a,,,,AAXX 21124 07299 12775 20710 10100 21080 39781 40104 56018 60006 82100 91200=
07299,1997-04-21 15:00:00,11,1008.3,-2,30,-6,20000,14.816,,,100,,,,,,,,,,,wg-a,,,,AAXX 21154 07299 12770 /1008 10110 21060 39761 40083 58020 60006 81100 91500=
07299,1997-04-21 18:00:00,8,1008.7,0.1,36,-6,15000,14.816,,,110,-0.7,11.3,,,,,,,,,wg-a,,,,AAXX 21184 07299 12765 11108 10080 21060 39762 40087 53001 60006 81500 91800 333 10113 21007=
07299,1997-04-21 21:00:00,5,1010.3,1.2,45,-6,15000,11.112,,31.484,70,,,,,,,,,,,wg-a,,,,AAXX 21214 07299 12/65 20706 10050 21060 39774 40103 51012 60006 80001 92100 333 91017=
07299,1997-04-22 00:00:00,2,1010.5,-0.2,55,-6,0,3.704,,,60,,,,,,,,,,,wg-a,,,,AAXX 22004 07299 12/// /0602 10020 21060 39772 40105 58002 60006 90000=
07299,1997-04-22 03:00:00,-2,1011.1,0.1,80,-5,15000,3.704,,,170,,,,,,,,,,,wg-a,,,,AAXX 22034 07299 12/65 01702 11020 21050 39773 40111 52001 60006 80000 90300=
07299,1997-04-22 06:00:00,-1,1012.4,1.4,80,-4,10000,3.704,,,240,-3.1,8.4,,,,,,,,,wg-a,,,,AAXX 22064 07299 12/60 02402 11010 21040 39787 40124 53014 60006 80000 90600 333 10084 21031=
07299,1997-04-22 09:00:00,8,1011.9,0.6,34,-7,500,7.408,,,350,,,,,,,,,,,wg-a,,,,AAXX 22094 07299 12600 /3504 10080 21070 39793 40119 51006 60006 81100 90900=
07299,1997-04-22 12:00:00,11,1011.1,-0.4,30,-6,50000,11.112,,,80,,,,,,,,,,,wg-a,,,,AAXX 22124 07299 12784 40806 10110 21060 39789 40111 58004 60006 84800 91200=
07299,1997-04-22 15:00:00,11,1011.1,-0,28,-7,50000,3.704,,,250,,,,,,,,,,,wg-a,,,,AAXX 22154 07299 12784 /2502 10110 21070 39789 40111 55000 60006 86800 91500=
07299,1997-04-22 18:00:00,11,1012.5,1.3,30,-6,500,11.112,,,20,-0.9,12.3,,,,,,,,,wg-a,,,,AAXX 22184 07299 12700 /0206 10110 21060 39802 40125 53013 60006 86800 91800 333 10123 21009=
07299,1997-04-22 21:00:00,8,1014.9,2,46,-3,15000,3.704,,,40,,,,,,,,,,,wg-a,,,,AAXX 22214 07299 12765 /0402 10080 21030 39822 40149 51020 60006 83500 92100=
07299,1997-04-23 00:00:00,3,1016.9,1.4,65,-3,0,7.408,,,320,,,,,,,,,,,wg-a,,,,AAXX 23004 07299 12/// /3204 10030 21030 39836 40169 52014 60006 90000=
07299,1997-04-23 03:00:00,1,1018,0.7,75,-3,10000,3.704,,,170,,,,,,,,,,,wg-a,,,,AAXX 23034 07299 12760 41702 10010 21030 39843 40180 53007 60006 84500 90300=
07299,1997-04-23 06:00:00,1,1019.5,1.5,80,-2,10000,0,,,0,-1,10.7,,,,,,,,,wg-a,,,,AAXX 23064 07299 12/60 /0000 10010 21020 39858 40195 53015 60006 90600 333 10107 21010=
07299,1997-04-23 09:00:00,8,1019.2,0.6,53,-1,8000,3.704,,,310,,,,,,,,,,,wg-a,,,,AAXX 23094 07299 12/58 13102 10080 21010 39864 40192 51006 60006 81030 90900=
07299,1997-04-23 12:00:00,12,1018,-0.7,38,-2,12000,7.408,,,330,,,,,,,,,,,wg-a,,,,AAXX 23124 07299 12762 /3304 10120 21020 39857 40180 58007 60006 81100 91200=
07299,1997-04-23 15:00:00,14,1017.1,-0.7,33,-2,16000,3.704,,,220,,,,,,,,,,,wg-a,,,,AAXX 23154 07299 12866 22202 10140 21020 39850 40171 57007 60006 81102 91500=
07299,1997-04-23 18:00:00,13,1017.6,0.4,41,0,14000,7.408,,,10,0.7,14.8,,,,,,,,,wg-a,,,,AAXX 23184 07299 12/64 20104 10130 20000 39854 40176 53004 60006 80002 91800 333 10148 20007=
07299,1997-04-23 21:00:00,6,1020.2,1.7,65,0,12000,3.704,,,190,,,,,,,,,,,wg-a,,,,AAXX 23214 07299 12/62 01902 10060 20000 39871 40202 51017 60006 80000 92100=
07299,1997-04-24 00:00:00,3,1021.6,1,75,-1,15000,7.408,,,160,,,,,,,,,,,wg-a,,,,AAXX 24004 07299 12/65 01604 10030 21010 39881 40216 51010 60006 80000 90000=
07299,1997-04-24 03:00:00,2,1022.1,0.3,75,-2,15000,7.408,,,170,,,,,,,,,,,wg-a,,,,AAXX 24034 07299 12/65 01704 10020 21020 39884 40221 53003 60006 80000 90300=
07299,1997-04-24 06:00:00,3,1023.1,1.1,75,-1,10000,7.408,,,170,0.3,13.2,,,,,,,,,wg-a,,,,AAXX 24064 07299 12/60 01704 10030 21010 39895 40231 53011 60006 80000 90600 333 10132 20003=
07299,1997-04-24 12:00:00,17,1020.4,-1.2,27,-2,15000,11.112,,35.188,280,,,,,,,,,,,wg-a,,,,AAXX 24124 07299 12/65 02806 10170 21020 39885 40204 58012 60006 80000 91200 333 91019=
07299,1997-04-24 18:00:00,16,1018.2,-0.6,27,-3,10000,11.112,,,300,2.9,19.4,,,,,,,,,wg-a,,,,AAXX 24184 07299 12/60 /3006 10160 21030 39863 40182 56006 60006 91800 333 10194 20029=
07299,1997-04-24 21:00:00,10,1020,1.1,50,0,20000,3.704,,,170,,,,,,,,,,,wg-a,,,,AAXX 24214 07299 12/70 71702 10100 20000 39874 40200 51011 60006 80001 92100=
07299,1997-04-25 00:00:00,7,1020.8,0.4,66,1,15000,7.408,,,150,,,,,,,,,,,wg-a,,,,AAXX 25004 07299 12/65 31504 10070 20010 39878 40208 51004 60006 81031 90000=
07299,1997-04-25 03:00:00,5,1020.7,-0.4,70,0,12000,7.408,,,170,,,,,,,,,,,wg-a,,,,AAXX 25034 07299 12/62 11704 10050 20000 39874 40207 56004 60006 80001 90300=
07299,1997-04-25 06:00:00,6,1021.2,0.7,70,1,11000,11.112,,,190,3.7,16,,,,,,,,,wg-a,,,,AAXX 25064 07299 12/61 21906 10060 20010 39881 40212 53007 60006 81032 90600 333 10160 20037=
07299,1997-04-25 09:00:00,15,1020.3,0.1,39,1,15000,3.704,,,30,,,,,,,,,,,wg-a,,,,AAXX 25094 07299 12/65 50302 10150 20010 39882 40203 50001 60006 81034 90900=
07299,1997-04-25 12:00:00,21,1017.2,-2.3,23,-1,35000,22.224,,,260,,,,,,,,,,,wg-a,,,,AAXX 25124 07299 12781 72612 10210 21010 39859 40172 58023 60006 81132 91200=
07299,1997-04-25 15:00:00,21,1014.7,-2.4,25,0,35000,14.816,,,280,,,,,,,,,,,wg-a,,,,AAXX 25154 07299 12881 72808 10210 20000 39835 40147 58024 60006 82832 91500=
07299,1997-04-25 18:00:00,18,1014.4,-0.6,30,0,0,11.112,,,270,5.9,21.8,,,,,,,,,wg-a,,,,AAXX 25184 07299 12/// /2706 10180 20000 39829 40144 56006 60006 91800 333 10218 20059=
07299,1997-04-25 21:00:00,16,1014.7,0.1,51,6,10000,25.928,,,220,,,,,,,,,,61,wg-a,,,,AAXX 25214 07299 02460 72214 10160 20060 39830 40147 52001 61000 76122 84572 92100 333 ////=
07299,1997-04-26 00:00:00,12,1016.5,1.3,88,10,10000,14.816,,,240,,,,1,,,,,,61,wg-a,,,,AAXX 26004 07299 02560 72408 10120 20100 39843 40165 51013 60016 76162 84572 90000 333 60017=
07299,1997-04-26 06:00:00,11,1017.2,0.9,94,10,4500,11.112,,,250,10.7,18.1,,,,,3,,,1,wg-a,,,,AAXX 26064 07299 02645 72506 10110 20100 39849 40172 53009 60006 70162 86502 90600 333 10181 20107 60034=
07299,1997-04-26 09:00:00,15,1016.8,-0,67,9,13000,25.928,,,240,,,,,,,,,,,wg-a,,,,AAXX 26094 07299 12563 72414 10150 20090 39849 40168 55000 60006 83806 90900=
07299,1997-04-26 12:00:00,16,1015.3,-1.4,59,8,16000,18.52,,,250,,,,,,,,,,,wg-a,,,,AAXX 26124 07299 12566 82510 10160 20080 39835 40153 58014 60006 878// 91200=
07299,1997-04-26 15:00:00,16,1012.9,-2.2,63,9,20000,7.408,,,270,,,,,,,,,,,wg-a,,,,AAXX 26154 07299 12570 82704 10160 20090 39813 40129 58022 60006 8281/ 91500=
07299,1997-04-26 18:00:00,15,1010.7,-2.3,72,10,8000,7.408,,,130,11.2,16.9,,,,,,,,61,wg-a,,,,AAXX 26184 07299 02558 81304 10150 20100 39790 40107 56023 61000 76162 878// 91800 333 10169 20112 6000=
07299,1997-04-26 21:00:00,13,1010,-0.9,94,12,4500,3.704,,,130,,,,3,,,,,,10,wg-a,,,,AAXX 26214 07299 12245 81302 10130 20120 39781 40100 58009 60037 71062 875// 92100=
07299,1997-04-27 00:00:00,11,1009.5,-0.7,87,9,11000,14.816,,,230,,,,2,,,,,,0,wg-a,,,,AAXX 27004 07299 02661 82308 10110 20090 39774 40095 56007 60056 7006/ 878// 90000 333 60027=
07299,1997-04-27 03:00:00,11,1009.1,-0.4,87,9,9000,14.816,,,170,,,,0,,,,,,61,wg-a,,,,AAXX 27034 07299 12459 81708 10110 20090 39770 40091 55004 60007 7616/ 878// 90300=
07299,1997-04-27 06:00:00,9,1009.5,0.2,93,8,25000,7.408,,,180,9.4,14.7,,,,,8,,,1,wg-a,,,,AAXX 27064 07299 02475 /1804 10090 20080 39772 40095 52002 60006 70162 85801 90600 333 10147 20094 60084=
07299,1997-04-27 09:00:00,11,1009.9,0.6,82,8,12000,29.632,,50.004,250,,,,,,,,,,80,wg-a,,,,AAXX 27094 07299 02562 72516 10110 20080 39778 40099 53006 61000 78082 86802 90900 333 //// 91027=
07299,1997-04-27 12:00:00,13,1010.7,1,72,8,25000,14.816,,,270,,,,,,,,,,3,wg-a,,,,AAXX 27124 07299 02575 72708 10130 20080 39788 40107 51010 61000 70382 86202 91200 333 ////=
07299,1997-04-27 18:00:00,12,1013.2,1.9,76,8,500,7.408,,,250,9.4,15.5,,,,,,,,,wg-a,,,,AAXX 27184 07299 12500 72504 10120 20080 39811 40132 53019 60006 879// 91800 333 10155 20094=
07299,1997-04-27 21:00:00,11,1015.8,2.4,87,9,15000,11.112,,,240,,,,0,,,,,,25,wg-a,,,,AAXX 27214 07299 12465 72406 10110 20090 39835 40158 51024 60007 72582 878// 92100=
07299,1997-04-28 00:00:00,11,1017.1,1.2,87,9,10000,7.408,,,240,,,,0,,,,,,25,wg-a,,,,AAXX 28004 07299 02460 72404 10110 20090 39847 40171 51012 60016 72582 878// 90000 333 60007=
07299,1997-04-28 03:00:00,11,1017.4,0.3,82,8,15000,14.816,,,230,,,,,,,,,,,wg-a,,,,AAXX 28034 07299 12765 72308 10110 20080 39850 40174 53003 60006 875// 90300=
07299,1997-04-28 06:00:00,11,1018.2,0.9,87,9,18000,7.408,,,210,10.2,11.8,,,,,,,,,wg-a,,,,AAXX 28064 07299 02568 72104 10110 20090 39859 40182 52009 60006 878// 90600 333 10118 20102 60004=
07299,1997-04-28 12:00:00,16,1014.7,-1.9,59,8,18000,14.816,,,280,,,,,,,,,,15,wg-a,,,,AAXX 28124 07299 12568 72808 10160 20080 39830 40147 56019 60006 71522 8683/ 91200=
07299,1997-04-28 15:00:00,15,1014.7,-0.2,72,10,9000,18.52,,,260,,,,,,,,,,,wg-a,,,,AAXX 28154 07299 12/59 /2610 10150 20100 39828 40147 55002 60006 91500=
07299,1997-04-28 18:00:00,15,1013,-1.6,67,9,25000,11.112,,,220,11.4,16.8,,,,,,,,1,wg-a,,,,AAXX 28184 07299 02775 72206 10150 20090 39812 40130 56016 60006 70182 8653/ 91800 333 10168 20114 61000=
07299,1997-04-28 21:00:00,13,1011.9,-1.2,82,10,15000,25.928,,,230,,,,0,,,,,,80,wg-a,,,,AAXX 28214 07299 12565 72314 10130 20100 39800 40119 56012 60007 78082 878// 92100=
07299,1997-04-29 03:00:00,10,1012.8,1,87,8,12000,14.816,,,210,,,,4,,,,,,60,wg-a,,,,AAXX 29034 07299 12562 72108 10100 20080 39804 40128 51010 60047 76098 878// 90300=
07299,1997-04-29 06:00:00,10,1013.7,0.9,82,7,15000,22.224,,,240,9.2,15.3,,,,,5,,,3,wg-a,,,,AAXX 29064 07299 02765 72412 10100 20070 39813 40137 53009 60006 70398 83531 90600 333 10153 20092 60054=
07299,1997-04-29 12:00:00,13,1014.2,-0.4,72,8,20000,25.928,,,240,,,,1,,,,,,60,wg-a,,,,AAXX 29124 07299 02570 72414 10130 20080 39821 40142 58004 60016 76062 8587/ 91200 333 60017=
07299,1997-04-29 18:00:00,10,1015.5,0.9,87,8,8000,22.224,,,260,9.9,13.6,,,,,,,,80,wg-a,,,,AAXX 29184 07299 02558 72612 10100 20080 39831 40155 52009 61000 78086 878// 91800 333 10136 20099 6001=
07299,1997-04-30 00:00:00,9,1018.5,0.5,87,7,0,14.816,,,240,,,,,,,,,,,wg-a,,,,AAXX 30004 07299 12/// /2408 10090 20070 39859 40185 53005 60026 90000=
07299,1997-04-30 03:00:00,9,1019.4,0.8,87,7,9000,3.704,,,130,,,,0,,,,,,60,wg-a,,,,AAXX 30034 07299 12559 71302 10090 20070 39867 40194 53008 60007 7608/ 878// 90300=
07299,1997-04-30 06:00:00,9,1020.9,1.5,87,7,12000,3.704,,,210,8.4,10.1,,,,,4,,,2,wg-a,,,,AAXX 30064 07299 02662 72102 10090 20070 39882 40209 53015 60006 70262 878// 90600 333 10101 20084 60044=
07299,1997-04-30 09:00:00,10,1022.4,1.6,87,8,9000,7.408,,,280,,,,,,,,,,,wg-a,,,,AAXX 30094 07299 12459 82804 10100 20080 39898 40224 51016 60006 878// 90900=
07299,1997-04-30 12:00:00,12,1023.1,0.9,82,9,9000,7.408,,,280,,,,,,,,,,,wg-a,,,,AAXX 30124 07299 12459 72804 10120 20090 39907 40231 53009 60006 878// 91200=
07299,1997-04-30 15:00:00,13,1023.7,0.6,72,8,12000,7.408,,,40,,,,5,,,,,,1,wg-a,,,,AAXX 30154 07299 12462 70404 10130 20080 39913 40237 53006 60057 70182 878// 91500=
07299,1997-04-30 18:00:00,11,1025.2,1.3,87,9,20000,7.408,,,320,9,13.5,,,,,,,,,wg-a,,,,AAXX 30184 07299 12570 /3204 10110 20090 39926 40252 51013 60006 86800 91800 333 10135 20090=
07299,1997-04-30 21:00:00,8,1027.4,1.8,100,8,8000,14.816,,,320,,,,,,,,,,,wg-a,,,,AAXX 30214 07299 12758 23208 10080 20080 39944 40274 51018 60006 82500 92100=
07299,1997-05-01 00:00:00,7,1028.2,0.6,100,7,500,3.704,,,170,,,,,,,,,,,wg-a,,,,AAXX 01004 07299 12600 51702 10070 20070 39950 40282 51006 60006 85500 90000=
07299,1997-05-01 03:00:00,7,1027.8,-0.3,100,7,4000,0,,,0,,,,,,,,,,10,wg-a,,,,AAXX 01034 07299 12740 /0000 10070 20070 39947 40278 56003 60006 71022 86500 90300=
07299,1997-05-01 06:00:00,8,1029,1.2,93,7,1500,7.408,,,160,6.4,11.1,,,,,5,,,10,wg-a,,,,AAXX 01064 07299 02115 71604 10080 20070 39959 40290 52012 60006 71011 876// 90600 333 10111 20064 60054=
07299,1997-05-01 09:00:00,12,1029.2,0.6,82,9,3000,7.408,,,360,,,,,,,,,,10,wg-a,,,,AAXX 01094 07299 12330 33604 10120 20090 39965 40292 51006 60006 71022 83100 90900=
07299,1997-05-01 12:00:00,15,1027.7,-1,63,8,8000,7.408,,,360,,,,,,,,,,,wg-a,,,,AAXX 01124 07299 12558 73604 10150 20080 39955 40277 56010 60006 878// 91200=
07299,1997-05-01 15:00:00,18,1026.5,-0.9,49,7,15000,7.408,,,50,,,,,,,,,,,wg-a,,,,AAXX 01154 07299 12565 /0504 10180 20070 39946 40265 58009 60006 85800 91500=
07299,1997-05-01 18:00:00,16,1026.2,-0.5,51,6,22000,7.408,,,90,7.4,17.7,,,,,,,,,wg-a,,,,AAXX 01184 07299 12672 30904 10160 20060 39941 40262 56005 60006 83800 91800 333 10177 20074=
07299,1997-05-01 21:00:00,12,1027.7,1,62,5,18000,7.408,,,110,,,,,,,,,,,wg-a,,,,AAXX 01214 07299 12/68 01104 10120 20050 39951 40277 51010 60006 80000 92100=
07299,1997-05-02 00:00:00,8,1028,-0.2,81,5,18000,7.408,,,170,,,,,,,,,,,wg-a,,,,AAXX 02004 07299 12/68 01704 10080 20050 39949 40280 58002 60006 80000 90000=
07299,1997-05-02 03:00:00,4,1028.7,0.3,93,3,12000,3.704,,,290,,,,,,,,,,,wg-a,,,,AAXX 02034 07299 12/62 02902 10040 20030 39952 40287 53003 60006 80000 90300=
07299,1997-05-02 06:00:00,7,1029.9,1.4,93,6,8000,0,,,0,3.1,15.8,,,,,,,,,wg-a,,,,AAXX 02064 07299 12/58 00000 10070 20060 39966 40299 52014 60006 80000 90600 333 10158 20031=
07299,1997-05-02 09:00:00,16,1028.3,-0.4,55,7,25000,11.112,,,80,,,,,,,,,,,wg-a,,,,AAXX 02094 07299 12/75 10806 10160 20070 39962 40283 58004 60006 80002 90900=
07299,1997-05-02 12:00:00,21,1025.9,-1.9,40,7,40000,11.112,,,10,,,,,,,,,,,wg-a,,,,AAXX 02124 07299 12782 10106 10210 20070 39943 40259 57019 60006 81102 91200=
07299,1997-05-02 15:00:00,22,1023.6,-2.1,33,5,40000,7.408,,,190,,,,,,,,,,,wg-a,,,,AAXX 02154 07299 12882 21904 10220 20050 39922 40236 58021 60006 81102 91500=
07299,1997-05-02 18:00:00,21,1022.7,-1,30,3,40000,3.704,,,80,6.8,22.6,,,,,,,,,wg-a,,,,AAXX 02184 07299 12/82 10802 10210 20030 39912 40227 56010 60006 80002 91800 333 10226 20068=
07299,1997-05-02 21:00:00,13,1024,0.4,67,7,500,3.704,,,140,,,,,,,,,,,wg-a,,,,AAXX 02214 07299 12/00 01402 10130 20070 39916 40240 50004 60006 80000 92100=
07299,1997-05-03 00:00:00,10,1023.4,-0.9,76,6,20000,7.408,,,160,,,,,,,,,,,wg-a,,,,AAXX 03004 07299 12/70 01604 10100 20060 39907 40234 58009 60006 80000 90000=
07299,1997-05-03 06:00:00,11,1022.8,0.4,71,6,50000,11.112,,,150,6.6,21.1,,,,,,,,,wg-a,,,,AAXX 03064 07299 12/84 01506 10110 20060 39903 40228 53004 60006 80000 90600 333 10211 20066=
07299,1997-05-03 09:00:00,19,1020.8,-1.1,49,8,50000,3.704,,,170,,,,,,,,,,,wg-a,,,,AAXX 03094 07299 12584 11702 10190 20080 39892 40208 58011 60006 81100 90900=
07299,1997-05-03 12:00:00,24,1017.1,-3.1,38,9,60000,3.704,,,90,,,,,,,,,,,wg-a,,,,AAXX 03124 07299 12786 10902 10240 20090 39861 40171 58031 60006 81100 91200=
07299,1997-05-03 18:00:00,22,1014.4,-0.4,33,5,60000,14.816,,,260,11.2,25.2,,,,,,,,,wg-a,,,,AAXX 03184 07299 12786 62608 10220 20050 39833 40144 56004 60006 81105 91800 333 10252 20112=
07299,1997-05-03 21:00:00,16,1015.8,0.7,51,6,40000,3.704,,,100,,,,,,,,,,,wg-a,,,,AAXX 03214 07299 12/82 41002 10160 20060 39840 40158 51007 60006 80008 92100=
07299,1997-05-04 00:00:00,13,1015.6,-0.5,67,7,500,0,,,0,,,,,,,,,,,wg-a,,,,AAXX 04004 07299 12/00 60000 10130 20070 39835 40156 58005 60006 81031 90000=
07299,1997-05-04 03:00:00,13,1014.4,-1.1,72,8,20000,7.408,,,140,,,,0,,,,,,21,wg-a,,,,AAXX 04034 07299 12770 71404 10130 20080 39824 40144 56011 60007 72162 8157/ 90300=
07299,1997-05-04 06:00:00,13,1014.3,-0.1,77,9,25000,3.704,,,90,12.4,21.9,,,,,,,,15,wg-a,,,,AAXX 04064 07299 02675 70902 10130 20090 39823 40143 55001 60006 71562 875// 90600 333 10219 20124 60004=
07299,1997-05-04 09:00:00,20,1012.8,-0.7,64,13,20000,3.704,,,310,,,,,,,,,,,wg-a,,,,AAXX 04094 07299 12570 /3102 10200 20130 39816 40128 58007 60006 85800 90900=
07299,1997-05-04 12:00:00,23,1010.1,-2.3,53,13,20000,14.816,,,270,,,,,,,,,,25,wg-a,,,,AAXX 04124 07299 02670 72708 10230 20130 39793 40101 58023 61000 72586 86201 91200 333 ////=
07299,1997-05-04 15:00:00,23,1007.6,-2.4,53,13,25000,7.408,,,150,,,,,,,,,,,wg-a,,,,AAXX 04154 07299 12775 /1504 10230 20130 39769 40076 57024 60006 85200 91500=
07299,1997-05-04 18:00:00,23,1006.3,-1.3,47,11,25000,7.408,,,270,13.4,24.6,,,,,,,,,wg-a,,,,AAXX 04184 07299 12775 42704 10230 20110 39756 40063 56013 60006 82244 91800 333 10246 20134=
07299,1997-05-05 00:00:00,16,1005,-1.4,82,13,15000,3.704,,,150,,,,,,,,,,,wg-a,,,,AAXX 05004 07299 12/65 71502 10160 20130 39736 40050 56014 60006 83073 90000=
07299,1997-05-05 03:00:00,13,1001.5,-3.7,88,11,15000,7.408,,,170,,,,,,,,,,,wg-a,,,,AAXX 05034 07299 12765 71704 10130 20110 39699 40015 56037 60006 84531 90300=
07299,1997-05-05 06:00:00,15,999.2,-2,77,11,15000,3.704,,,40,12.7,22.7,,,,,,,,60,wg-a,,,,AAXX 05064 07299 02765 70402 10150 20110 39679 49992 55020 61000 76061 85872 90600 333 10227 20127 6100=
07299,1997-05-05 09:00:00,13,1001.6,2.1,88,11,7000,18.52,,,260,,,,3,,,,,,10,wg-a,,,,AAXX 05094 07299 12557 72610 10130 20110 39700 40016 53021 60037 71086 879// 90900=
07299,1997-05-05 12:00:00,16,1001,-0.3,68,10,25000,3.704,,,140,,,,0,,,,,,1,wg-a,,,,AAXX 05124 07299 02675 71402 10160 20100 39697 40010 58003 60036 70182 86802 91200 333 60007=
07299,1997-05-05 15:00:00,20,998.4,-2.1,53,10,60000,22.224,,,250,,,,,,,,,,,wg-a,,,,AAXX 05154 07299 12786 /2512 10200 20100 39676 49984 56021 60006 86231 91500=
07299,1997-05-05 18:00:00,17,997.9,-0.8,55,8,60000,11.112,,,180,12.4,19.9,,,,,,,,,wg-a,,,,AAXX 05184 07299 12686 51806 10170 20080 39668 49979 56008 60006 83801 91800 333 10199 20124=
07299,1997-05-05 21:00:00,14,998.7,0.5,82,11,7000,11.112,,,200,,,,,,,,,,81,wg-a,,,,AAXX 05214 07299 02557 72006 10140 20110 39673 49987 53005 61000 78182 879// 92100 333 ////=
07299,1997-05-06 00:00:00,12,997.6,-1.3,88,10,20000,11.112,,,130,,,,3,,,,,,0,wg-a,,,,AAXX 06004 07299 02770 51306 10120 20100 39660 49976 58013 60036 7008/ 82632 90000 333 60037=
07299,1997-05-06 06:00:00,12,991.6,-2,88,10,16000,3.704,,,250,11.4,17.1,,,,,,,,80,wg-a,,,,AAXX 06064 07299 02366 72502 10120 20100 39602 49916 55020 61000 78081 873// 90600 333 10171 20114 6007=
07299,1997-05-06 09:00:00,10,995,3,87,8,12000,11.112,,,220,,,,2,,,,,,61,wg-a,,,,AAXX 06094 07299 12462 82206 10100 20080 39632 49950 52030 60027 76186 878// 90900=
07299,1997-05-06 12:00:00,10,994.4,-0.5,76,6,25000,11.112,,,180,,,,1,,,,,,21,wg-a,,,,AAXX 06124 07299 02475 81806 10100 20060 39627 49944 58005 60036 72186 878// 91200 333 60017=
07299,1997-05-06 15:00:00,12,992.6,-1.6,62,5,45000,11.112,,,170,,,,,,,,,,,wg-a,,,,AAXX 06154 07299 12583 71706 10120 20050 39611 49926 58016 60006 8387/ 91500=
07299,1997-05-06 18:00:00,11,993.5,0.8,71,6,10000,29.632,,,240,9.3,13.2,,,,,,,,25,wg-a,,,,AAXX 06184 07299 02560 52416 10110 20060 39619 49935 53008 61000 72582 84903 91800 333 10132 20093 6001=
07299,1997-05-07 00:00:00,6,1003.6,4.3,81,3,15000,22.224,,,240,,,,,,,,,,,wg-a,,,,AAXX 07004 07299 02465 32412 10060 20030 39710 40036 51043 61000 82140 90000 333 ////=
07299,1997-05-07 03:00:00,4,1004.1,0.4,93,3,15000,11.112,,,230,,,,,,,,,,,wg-a,,,,AAXX 07034 07299 12465 52306 10040 20030 39714 40041 53004 60006 83630 90300=
07299,1997-05-07 06:00:00,5,1004.9,0.8,87,3,20000,11.112,,,200,4.2,10.9,,,,,3,,,2,wg-a,,,,AAXX 07064 07299 02470 72006 10050 20030 39722 40049 52008 60006 70282 8483/ 90600 333 10109 20042 60034=
07299,1997-05-07 09:00:00,8,1004.3,-0.3,61,1,500,11.112,,,270,,,,,,,,,,,wg-a,,,,AAXX 07094 07299 12500 72706 10080 20010 39719 40043 58003 60006 85831 90900=
07299,1997-05-07 12:00:00,12,1002.4,-1.4,50,2,50000,3.704,,,140,,,,,,,,,,,wg-a,,,,AAXX 07124 07299 12684 61402 10120 20020 39705 40024 58014 60006 84831 91200=
07299,1997-05-07 15:00:00,12,1000.3,-1.9,47,1,500,11.112,,,360,,,,,,,,,,,wg-a,,,,AAXX 07154 07299 12600 73606 10120 20010 39686 40003 56019 60006 82136 91500=
07299,1997-05-07 18:00:00,9,1002,1.2,76,5,12000,11.112,,,280,5.2,13.8,,,,,,,,25,wg-a,,,,AAXX 07184 07299 02462 72806 10090 20050 39698 40020 53012 61000 72582 85933 91800 333 10138 20052 6001=
07299,1997-05-07 21:00:00,8,1002.9,0.8,87,6,20000,0,,,0,,,,,,,,,,,wg-a,,,,AAXX 07214 07299 12770 70000 10080 20060 39706 40029 51008 60006 875// 92100=
07299,1997-05-08 00:00:00,7,1003.1,0.2,87,5,20000,11.112,,,230,,,,0,,,,,,61,wg-a,,,,AAXX 08004 07299 02770 72306 10070 20050 39708 40031 53002 60016 76162 875// 90000 333 60007=
07299,1997-05-08 03:00:00,5,1005.1,1.6,93,4,12000,25.928,,,250,,,,,,,,,,61,wg-a,,,,AAXX 08034 07299 02762 72514 10050 20040 39724 40051 53016 61000 76166 875// 90300 333 ////=
07299,1997-05-08 06:00:00,5,1007.6,2.4,87,3,18000,25.928,,,250,4.8,8.6,,,,,1,,,1,wg-a,,,,AAXX 08064 07299 02468 72514 10050 20030 39748 40076 52024 60006 70162 86801 90600 333 10086 20048 60014=
07299,1997-05-08 09:00:00,6,1009.8,2.2,75,2,20000,25.928,,,260,,,,,,,,,,,wg-a,,,,AAXX 08094 07299 12570 72614 10060 20020 39770 40098 51022 60006 878// 90900=
07299,1997-05-08 12:00:00,10,1009.4,0.1,50,0,11000,22.224,,,240,,,,,,,,,,,wg-a,,,,AAXX 08124 07299 12/61 /2412 10100 20000 39771 40094 50001 60006 91200=
07299,1997-05-08 15:00:00,11,1008.6,-0.6,40,-2,500,18.52,,,280,,,,,,,,,,,wg-a,,,,AAXX 08154 07299 12700 /2810 10110 21020 39765 40086 58006 60006 84501 91500=
07299,1997-05-08 18:00:00,11,1008.5,-0.2,40,-2,25000,11.112,,,250,5,12,,,,,,,,,wg-a,,,,AAXX 08184 07299 12775 42506 10110 21020 39763 40085 56002 60006 82501 91800 333 10120 20050=
07299,1997-05-09 00:00:00,7,1008,-1.2,66,1,20000,7.408,,,130,,,,,,,,,,,wg-a,,,,AAXX 09004 07299 12770 71304 10070 20010 39754 40080 58012 60006 875// 90000=
07299,1997-05-09 03:00:00,9,1006.2,-1.5,61,2,15000,11.112,,,140,,,,,,,,,,,wg-a,,,,AAXX 09034 07299 12665 71406 10090 20020 39739 40062 57015 60006 875// 90300=
07299,1997-05-09 06:00:00,11,1005.2,-0.7,66,5,15000,22.224,,,210,5.4,11.2,,,,,,,,60,wg-a,,,,AAXX 09064 07299 02565 72112 10110 20050 39732 40052 55007 61000 76062 8487/ 90600 333 10112 20054 6100=
07299,1997-05-09 09:00:00,8,1007.2,1.7,93,7,7000,22.224,,,270,,,,3,,,,,,61,wg-a,,,,AAXX 09094 07299 12457 82712 10080 20070 39749 40072 53017 60037 76162 868// 90900=
07299,1997-05-09 12:00:00,9,1008,0.8,81,6,500,14.816,,,180,,,,5,,,,,,21,wg-a,,,,AAXX 09124 07299 02400 /1808 10090 20060 39757 40080 50008 60086 72162 84830 91200 333 60057=
07299,1997-05-09 15:00:00,14,1008.4,0.9,63,7,500,22.224,,,220,,,,,,,,,,2,wg-a,,,,AAXX 09154 07299 02500 72212 10140 20070 39766 40084 50009 61000 70286 878// 91500 333 ////=
07299,1997-05-09 18:00:00,9,1010.7,1.7,87,7,4000,29.632,,,190,6.9,14.7,,,,,,,,25,wg-a,,,,AAXX 09184 07299 02540 /1916 10090 20070 39783 40107 52017 61000 72582 85930 91800 333 10147 20069 6004=
07299,1997-05-09 21:00:00,9,1012.9,2.2,93,8,25000,7.408,,,150,,,,,,,,,,,wg-a,,,,AAXX 09214 07299 12575 71504 10090 20080 39805 40129 51022 60006 879// 92100=
07299,1997-05-10 00:00:00,9,1014.9,1.9,87,7,18000,3.704,,,120,,,,,,,,,,,wg-a,,,,AAXX 10004 07299 12568 71202 10090 20070 39824 40149 53019 60006 878// 90000=
07299,1997-05-10 03:00:00,9,1015.5,0.6,87,7,15000,11.112,,,150,,,,0,,,,,,25,wg-a,,,,AAXX 10034 07299 12565 /1506 10090 20070 39830 40155 51006 60007 7258/ 86800 90300=
07299,1997-05-10 06:00:00,10,1016.1,0.6,82,7,25000,3.704,,,140,8,9.6,,,,,12,,,1,wg-a,,,,AAXX 10064 07299 02475 /1402 10100 20070 39836 40161 53006 60006 7018/ 86800 90600 333 10096 20080 60124=
07299,1997-05-10 09:00:00,14,1015.6,0,63,7,35000,11.112,,,240,,,,,,,,,,,wg-a,,,,AAXX 10094 07299 12581 /2406 10140 20070 39836 40156 50000 60006 83132 90900=
07299,1997-05-10 12:00:00,18,1014.5,-0.7,45,6,40000,18.52,,,270,,,,,,,,,,,wg-a,,,,AAXX 10124 07299 12682 72710 10180 20060 39829 40145 58007 60006 82102 91200=
07299,1997-05-10 15:00:00,18,1013.8,-0.6,49,7,50000,18.52,,38.892,190,,,,,,,,,,,wg-a,,,,AAXX 10154 07299 12784 71910 10180 20070 39823 40138 58006 60006 84132 91500 333 91021=
07299,1997-05-10 18:00:00,17,1013.4,-0.4,55,8,50000,7.408,,,180,9.6,19.4,,,,,,,,,wg-a,,,,AAXX 10184 07299 12784 /1804 10170 20080 39819 40134 56004 60006 81132 91800 333 10194 20096=
07299,1997-05-11 00:00:00,13,1014.4,0.3,67,7,40000,7.408,,,130,,,,,,,,,,,wg-a,,,,AAXX 11004 07299 12/82 71304 10130 20070 39824 40144 50003 60006 8703/ 90000=
07299,1997-05-11 03:00:00,11,1014.7,0.1,82,8,500,11.112,,,170,,,,,,,,,,,wg-a,,,,AAXX 11034 07299 12700 71706 10110 20080 39825 40147 53001 60006 81532 90300=
07299,1997-05-11 06:00:00,12,1015.4,0.7,76,8,50000,3.704,,,140,9.8,17.3,,,,,,,,,wg-a,,,,AAXX 11064 07299 12784 41402 10120 20080 39832 40154 51007 60006 84501 90600 333 10173 20098=
07299,1997-05-11 09:00:00,18,1013.9,-0.8,52,8,35000,7.408,,,80,,,,,,,,,,,wg-a,,,,AAXX 11094 07299 12781 20804 10180 20080 39824 40139 58008 60006 81531 90900=
07299,1997-05-11 12:00:00,21,1012.4,-1.1,46,9,40000,3.704,,,280,,,,,,,,,,,wg-a,,,,AAXX 11124 07299 12682 72802 10210 20090 39813 40124 56011 60006 8385/ 91200=
07299,1997-05-11 18:00:00,18,1013.5,1.2,59,10,35000,0,,,0,11.7,21.6,,,,,,,,25,wg-a,,,,AAXX 11184 07299 02681 /0000 10180 20100 39820 40135 52012 61000 72598 83981 91800 333 10216 20117 6100=
07299,1997-05-11 21:00:00,15,1016.8,3,77,11,40000,11.112,,,290,,,,,,,,,,,wg-a,,,,AAXX 11214 07299 12682 72906 10150 20110 39850 40168 53030 60006 878// 92100=
07299,1997-05-12 00:00:00,13,1020.1,2.9,82,10,500,7.408,,,250,,,,,,,,,,,wg-a,,,,AAXX 12004 07299 12400 82504 10130 20100 39879 40201 51029 60006 878// 90000=
07299,1997-05-12 03:00:00,12,1021.4,1.1,82,9,15000,11.112,,,230,,,,0,,,,,,60,wg-a,,,,AAXX 12034 07299 12665 82306 10120 20090 39890 40214 51011 60007 76062 875// 90300=
07299,1997-05-12 06:00:00,11,1022.2,0.7,94,10,35000,7.408,,,100,10.8,17.6,,,,,,,,21,wg-a,,,,AAXX 12064 07299 02381 81004 10110 20100 39897 40222 51007 61000 72162 878// 90600 333 10176 20108 6000=
07299,1997-05-12 09:00:00,12,1023.7,1.5,82,9,15000,7.408,,,100,,,,0,,,,,,60,wg-a,,,,AAXX 12094 07299 12265 81004 10120 20090 39912 40237 51015 60007 76066 878// 90900=
07299,1997-05-12 12:00:00,13,1023.9,0.4,82,10,10000,0,,,0,,,,1,,,,,,60,wg-a,,,,AAXX 12124 07299 02260 70000 10130 20100 39916 40239 51004 60016 76066 878// 91200 333 60017=
07299,1997-05-12 15:00:00,15,1023.2,-0.5,72,10,12000,3.704,,,120,,,,,,,,,,3,wg-a,,,,AAXX 12154 07299 02462 71202 10150 20100 39911 40232 57005 61000 70362 878// 91500 333 ////=
07299,1997-05-12 18:00:00,16,1022.4,-0.7,68,10,25000,0,,,0,11,15.9,,,,,,,,1,wg-a,,,,AAXX 12184 07299 12675 70000 10160 20100 39904 40224 56007 60006 70162 82402 91800 333 10159 20110=
07299,1997-05-12 21:00:00,11,1023.3,0.4,94,10,20000,3.704,,,170,,,,,,,,,,,wg-a,,,,AAXX 12214 07299 12/70 /1702 10110 20100 39908 40233 52004 60006 80001 92100=
07299,1997-05-13 00:00:00,9,1024,0.3,93,8,12000,3.704,,,210,,,,,,,,,,,wg-a,,,,AAXX 13004 07299 12762 32102 10090 20080 39911 40240 51003 60006 835/0 90000=
07299,1997-05-13 03:00:00,8,1023.7,-0.3,100,8,8000,0,,,0,,,,,,,,,,,wg-a,,,,AAXX 13034 07299 12758 70000 10080 20080 39908 40237 56003 60006 875// 90300=
07299,1997-05-13 06:00:00,10,1024.3,0.8,93,9,12000,3.704,,,190,7.9,15.7,,,,,,,,60,wg-a,,,,AAXX 13064 07299 02762 71902 10100 20090 39916 40243 53008 61000 76062 8653/ 90600 333 10157 20079 6001=
07299,1997-05-13 09:00:00,16,1023,-0.6,77,12,10000,3.704,,,30,,,,0,,,,,,1,wg-a,,,,AAXX 13094 07299 12460 70302 10160 20120 39910 40230 56006 60007 70162 84832 90900=
07299,1997-05-13 12:00:00,18,1022.1,-0.6,77,14,13000,7.408,,,330,,,,,,,,,,3,wg-a,,,,AAXX 13124 07299 12563 73304 10180 20140 39904 40221 58006 60006 70362 8683/ 91200=
07299,1997-05-13 15:00:00,20,1020.3,-1.5,60,12,18000,3.704,,,360,,,,,,,,,,,wg-a,,,,AAXX 13154 07299 12668 73602 10200 20120 39889 40203 58015 60006 84832 91500=
07299,1997-05-13 18:00:00,19,1019.3,-1.1,64,12,20000,3.704,,,350,9.7,20.7,,,,,,,,,wg-a,,,,AAXX 13184 07299 12670 73502 10190 20120 39878 40193 56011 60006 86832 91800 333 10207 20097=
07299,1997-05-13 21:00:00,14,1019.8,-0.1,88,12,16000,3.704,,,260,,,,,,,,,,,wg-a,,,,AAXX 13214 07299 12766 52602 10140 20120 39877 40198 55001 60006 81531 92100=
07299,1997-05-14 00:00:00,11,1020.1,-0,94,10,15000,3.704,,,240,,,,,,,,,,,wg-a,,,,AAXX 14004 07299 12765 52402 10110 20100 39877 40201 55000 60006 815/2 90000=
07299,1997-05-14 03:00:00,10,1020.2,-0.1,93,9,8000,0,,,0,,,,0,,,,,,,wg-a,,,,AAXX 14034 07299 12/58 70000 10100 20090 39876 40202 56001 60007 80002 90300=
07299,1997-05-14 06:00:00,14,1019.9,0.3,88,12,7000,3.704,,,140,9.8,18.9,,,,,,,,,wg-a,,,,AAXX 14064 07299 02/57 71402 10140 20120 39879 40199 53003 60006 81032 90600 333 10189 20098 60004=
07299,1997-05-14 09:00:00,20,1019.3,0,73,15,13000,3.704,,,330,,,,,,,,,,,wg-a,,,,AAXX 14094 07299 12/63 73302 10200 20150 39879 40193 50000 60006 82081 90900=
07299,1997-05-14 12:00:00,24,1018,-0.9,47,12,15000,7.408,,,310,,,,,,,,,,,wg-a,,,,AAXX 14124 07299 12665 73104 10240 20120 39870 40180 58009 60006 82281 91200=
07299,1997-05-14 15:00:00,25,1016.8,-1,47,13,15000,7.408,,,330,,,,,,,,,,,wg-a,,,,AAXX 14154 07299 12665 53304 10250 20130 39860 40168 58010 60006 81202 91500=
07299,1997-05-14 18:00:00,21,1017.3,0.1,64,14,18000,22.224,,,350,14.4,25.7,,,,,,,,,wg-a,,,,AAXX 14184 07299 12668 73512 10210 20140 39861 40173 53001 60006 81282 91800 333 10257 20144=
07299,1997-05-14 21:00:00,18,1018.6,0.9,73,13,15000,14.816,,,10,,,,,,,,,,,wg-a,,,,AAXX 14214 07299 12/65 50108 10180 20130 39870 40186 51009 60006 8/032 92100=
07299,1997-05-15 00:00:00,15,1019.4,0.5,82,12,15000,11.112,,,340,,,,,,,,,,,wg-a,,,,AAXX 15004 07299 12/65 43406 10150 20120 39875 40194 51005 60006 80001 90000=
07299,1997-05-15 03:00:00,13,1020.1,0.4,88,11,10000,7.408,,,290,,,,,,,,,,,wg-a,,,,AAXX 15034 07299 12/60 /2904 10130 20110 39879 40201 53004 60006 90300=
07299,1997-05-15 06:00:00,14,1020.2,0.2,88,12,10000,7.408,,,280,12,20.6,,,,,,,,,wg-a,,,,AAXX 15064 07299 12660 72804 10140 20120 39881 40202 53002 60006 83832 90600 333 10206 20120=
07299,1997-05-15 09:00:00,17,1019.2,-0.7,77,13,12000,14.816,,,10,,,,,,,,,,,wg-a,,,,AAXX 15094 07299 12/62 30108 10170 20130 39874 40192 58007 60006 80001 90900=
07299,1997-05-15 12:00:00,22,1016.6,-1.9,57,13,15000,7.408,,,10,,,,,,,,,,,wg-a,,,,AAXX 15124 07299 12/65 20104 10220 20130 39855 40166 58019 60006 81031 91200=
07299,1997-05-15 15:00:00,25,1014,-2.2,54,15,15000,11.112,,,360,,,,,,,,,,,wg-a,,,,AAXX 15154 07299 12665 33606 10250 20150 39833 40140 56022 60006 81101 91500=
07299,1997-05-15 18:00:00,23,1013.9,-0.3,65,16,15000,7.408,,,340,13.5,24.9,,,,,,,,,wg-a,,,,AAXX 15184 07299 12665 73404 10230 20160 39830 40139 55003 60006 82902 91800 333 10249 20135=
07299,1997-05-15 21:00:00,18,1015,0.6,83,15,12000,7.408,,,310,,,,,,,,,,,wg-a,,,,AAXX 15214 07299 12662 /3104 10180 20150 39836 40150 53006 60006 81102 92100=
07299,1997-05-16 00:00:00,15,1015.9,0.5,94,14,12000,7.408,,,250,,,,,,,,,,,wg-a,,,,AAXX 16004 07299 12662 62504 10150 20140 39841 40159 51005 60006 81202 90000=
07299,1997-05-16 03:00:00,13,1014.9,-1.2,94,12,500,3.704,,,200,,,,,,,,,,,wg-a,,,,AAXX 16034 07299 12/00 72002 10130 20120 39829 40149 56012 60006 82032 90300=
07299,1997-05-16 06:00:00,17,1015.3,0.8,77,13,15000,7.408,,,150,12.6,22.8,,,,,,,,,wg-a,,,,AAXX 16064 07299 12665 71504 10170 20130 39837 40153 53008 60006 81131 90600 333 10228 20126=
07299,1997-05-16 09:00:00,22,1014.7,-0.1,60,14,20000,3.704,,,130,,,,,,,,,,,wg-a,,,,AAXX 16094 07299 12670 71302 10220 20140 39836 40147 58001 60006 81102 90900=
07299,1997-05-16 12:00:00,26,1012.8,-1.4,42,12,18000,3.704,,,240,,,,,,,,,,,wg-a,,,,AAXX 16124 07299 12668 72402 10260 20120 39822 40128 58014 60006 82902 91200=
07299,1997-05-16 18:00:00,25,1012.1,0.6,57,16,18000,7.408,,,240,16.6,27.9,,,,,,,,25,wg-a,,,,AAXX 16184 07299 02668 72404 10250 20160 39814 40121 53006 61000 72582 83932 91800 333 10279 20166 6000=
07299,1997-05-16 21:00:00,20,1014.5,1.9,73,15,12000,14.816,,,210,,,,,,,,,,17,wg-a,,,,AAXX 16214 07299 12662 72108 10200 20150 39833 40145 53019 60006 71722 879// 92100=
07299,1997-05-17 00:00:00,16,1015.2,0.2,88,14,0,3.704,,,160,,,,,,,,,,,wg-a,,,,AAXX 17004 07299 12/// /1602 10160 20140 39835 40152 53002 60026 90000=
07299,1997-05-17 03:00:00,15,1015.3,0,94,14,20000,7.408,,,100,,,,0,,,,,,,wg-a,,,,AAXX 17034 07299 12770 21004 10150 20140 39835 40153 50000 60007 82530 90300=
07299,1997-05-17 06:00:00,16,1015.2,0.1,82,13,20000,7.408,,,160,13.9,24.5,,,,,,,,1,wg-a,,,,AAXX 17064 07299 12/70 21604 10160 20130 39836 40152 52001 60006 7018/ 81032 90600 333 10245 20139=
07299,1997-05-17 09:00:00,22,1014.2,-0.4,60,14,500,0,,,0,,,,,,,,,,,wg-a,,,,AAXX 17094 07299 12/00 30000 10220 20140 39832 40142 56004 60006 81031 90900=
07299,1997-05-17 12:00:00,26,1011.9,-1.8,51,15,11000,7.408,,,40,,,,,,,,,,,wg-a,,,,AAXX 17124 07299 12/61 /0404 10260 20150 39814 40119 58018 60006 91200=
07299,1997-05-17 15:00:00,27,1009.8,-2,45,14,20000,3.704,,,10,,,,,,,,,,,wg-a,,,,AAXX 17154 07299 12670 60102 10270 20140 39794 40098 56020 60006 82902 91500=
07299,1997-05-17 18:00:00,24,1010.1,-0,57,15,20000,11.112,,,340,16.4,27.6,,,,,,,,,wg-a,,,,AAXX 17184 07299 12670 73406 10240 20150 39794 40101 55000 60006 83942 91800 333 10276 20164=
07299,1997-05-18 00:00:00,17,1013,0.7,82,14,15000,22.224,,,230,,,,0,,,,,,25,wg-a,,,,AAXX 18004 07299 02665 72312 10170 20140 39815 40130 51007 60006 7258/ 8597/ 90000 333 60007=
07299,1997-05-18 03:00:00,17,1013.2,0.1,82,14,15000,14.816,,,220,,,,,,,,,,,wg-a,,,,AAXX 18034 07299 12665 72208 10170 20140 39816 40132 52001 60006 8483/ 90300=
07299,1997-05-18 06:00:00,16,1014,0.8,88,14,15000,14.816,,,260,15.9,24.2,,,,,,,,,wg-a,,,,AAXX 18064 07299 02565 72608 10160 20140 39824 40140 52008 60006 878// 90600 333 10242 20159 60004=
07299,1997-05-18 09:00:00,16,1014.9,0.8,82,13,20000,11.112,,,240,,,,,,,,,,61,wg-a,,,,AAXX 18094 07299 02670 72406 10160 20130 39832 40149 51008 61000 76162 878// 90900 333 ////=
07299,1997-05-18 12:00:00,15,1015.9,0.9,94,14,12000,11.112,,,230,,,,1,,,,,,61,wg-a,,,,AAXX 18124 07299 02462 72306 10150 20140 39841 40159 53009 60016 76162 878// 91200 333 60017=
07299,1997-05-18 18:00:00,17,1013.4,-1.4,77,13,25000,11.112,,,100,14.6,17,,,,,,,,1,wg-a,,,,AAXX 18184 07299 12675 31006 10170 20130 39818 40134 57014 60006 70161 81172 91800 333 10170 20146=
07299,1997-05-18 21:00:00,14,1014.1,0.4,82,11,20000,7.408,,,110,,,,,,,,,,,wg-a,,,,AAXX 18214 07299 12/70 01104 10140 20110 39822 40141 53004 60006 80000 92100=
07299,1997-05-19 00:00:00,11,1014.2,-0.2,94,10,20000,11.112,,,170,,,,,,,,,,,wg-a,,,,AAXX 19004 07299 12/70 01706 10110 20100 39820 40142 58002 60006 80000 90000=
07299,1997-05-19 03:00:00,9,1014.1,-0.4,93,8,20000,11.112,,,170,,,,,,,,,,,wg-a,,,,AAXX 19034 07299 12/70 01706 10090 20080 39816 40141 58004 60006 80000 90300=
07299,1997-05-19 06:00:00,13,1013.3,-0.3,82,10,15000,11.112,,,150,9,16.6,,,,,2,,,,wg-a,,,,AAXX 19064 07299 02/65 21506 10130 20100 39813 40133 56003 60006 80002 90600 333 10166 20090 60024=
07299,1997-05-19 09:00:00,18,1011.2,-1.3,73,13,500,7.408,,,100,,,,,,,,,,,wg-a,,,,AAXX 19094 07299 12500 41004 10180 20130 39803 40112 56013 60006 90900=
07299,1997-05-19 12:00:00,23,1009.2,-1.6,41,9,40000,14.816,,,100,,,,,,,,,,,wg-a,,,,AAXX 19124 07299 12782 71008 10230 20090 39784 40092 58016 60006 81102 91200=
07299,1997-05-19 15:00:00,25,1007.5,-1.5,39,10,40000,7.408,,,70,,,,,,,,,,,wg-a,,,,AAXX 19154 07299 12782 70704 10250 20100 39769 40075 56015 60006 81102 91500=
07299,1997-05-19 18:00:00,23,1008.2,0.5,44,10,40000,22.224,,,290,13,25.5,,,,,,,,,wg-a,,,,AAXX 19184 07299 12782 72912 10230 20100 39774 40082 53005 60006 81142 91800 333 10255 20130=
07299,1997-05-19 21:00:00,17,1010,1.1,68,11,500,7.408,,,180,,,,,,,,,,,wg-a,,,,AAXX 19214 07299 12700 /1804 10170 20110 39785 40100 53011 60006 81242 92100=
07299,1997-05-20 00:00:00,14,1010.2,-0.1,82,11,0,7.408,,,170,,,,,,,,,,,wg-a,,,,AAXX 20004 07299 12/// 51704 10140 20110 39784 40102 57001 60006 83031 90000=
07299,1997-05-20 03:00:00,14,1009.5,-0.7,94,13,7000,7.408,,,190,,,,2,,,,,,17,wg-a,,,,AAXX 20034 07299 12557 71904 10140 20130 39777 40095 55007 60027 71792 86963 90300=
07299,1997-05-20 06:00:00,15,1009.9,0.5,94,14,8000,3.704,,,130,13.3,22.5,,,,,5,,,,wg-a,,,,AAXX 20064 07299 02558 71302 10150 20140 39782 40099 51005 60006 85822 90600 333 10225 20133 60054=
07299,1997-05-20 09:00:00,19,1008.8,-0.5,73,14,20000,3.704,,,220,,,,,,,,,,,wg-a,,,,AAXX 20094 07299 12570 52202 10190 20140 39777 40088 56005 60006 83831 90900=
07299,1997-05-20 12:00:00,17,1008,-1,88,15,18000,11.112,,,130,,,,2,,,,,,17,wg-a,,,,AAXX 20124 07299 02568 61306 10170 20150 39767 40080 56010 60026 71798 85931 91200 333 60027=
07299,1997-05-20 15:00:00,14,1009.2,0.8,82,11,25000,11.112,,,170,,,,3,,,,,,29,wg-a,,,,AAXX 20154 07299 12675 71706 10140 20110 39775 40092 53008 60037 72998 878// 91500=
07299,1997-05-20 18:00:00,13,1009.9,0.6,88,11,25000,7.408,,,120,13.1,20.5,,,,,,,,21,wg-a,,,,AAXX 20184 07299 02675 71204 10130 20110 39781 40099 50006 61000 72198 85872 91800 333 10205 20131 6001=
07299,1997-05-20 21:00:00,13,1011.9,1.8,88,11,15000,11.112,,,160,,,,1,,,,,,25,wg-a,,,,AAXX 20214 07299 12565 71606 10130 20110 39799 40119 51018 60017 72582 8493/ 92100=
07299,1997-05-21 00:00:00,12,1012.3,0.3,88,10,20000,11.112,,,210,,,,0,,,,,,0,wg-a,,,,AAXX 21004 07299 02670 62106 10120 20100 39802 40123 50003 60016 7006/ 81531 90000 333 60007=
07299,1997-05-21 03:00:00,11,1011.5,-0.9,94,10,15000,3.704,,,80,,,,1,,,,,,21,wg-a,,,,AAXX 21034 07299 12365 70802 10110 20100 39793 40115 57009 60017 72162 84841 90300=
07299,1997-05-21 06:00:00,12,1011.8,0.5,94,11,20000,3.704,,,130,10.1,13.8,,,,,8,,,2,wg-a,,,,AAXX 21064 07299 02370 71302 10120 20110 39798 40118 52005 60006 70262 8687/ 90600 333 10138 20101 60084=
07299,1997-05-21 12:00:00,18,1010.9,-0.4,49,7,25000,31.484,,50.004,260,,,,,,,,,,,wg-a,,,,AAXX 21124 07299 12575 72617 10180 20070 39794 40109 58004 60006 878// 91200 333 91027=
07299,1997-05-21 15:00:00,17,1010.3,-0.6,55,8,25000,31.484,,50.004,260,,,,,,,,,,,wg-a,,,,AAXX 21154 07299 12675 72617 10170 20080 39788 40103 55006 60006 873// 91500 333 91027=
07299,1997-05-21 18:00:00,16,1010.4,0.1,59,8,20000,14.816,,,250,12.2,19.2,,,,,,,,,wg-a,,,,AAXX 21184 07299 12570 /2508 10160 20080 39788 40104 53001 60006 85340 91800 333 10192 20122=
07299,1997-05-21 21:00:00,11,1013.4,2.4,94,10,15000,14.816,,,220,,,,1,,,,,,25,wg-a,,,,AAXX 21214 07299 12665 72208 10110 20100 39812 40134 51024 60017 72582 878// 92100=
07299,1997-05-22 00:00:00,12,1013.1,-0.2,88,10,0,14.816,,,240,,,,,,,,,,,wg-a,,,,AAXX 22004 07299 12/// /2408 10120 20100 39810 40131 58002 60016 90000=
07299,1997-05-22 03:00:00,12,1012.9,-0.2,88,10,20000,22.224,,,250,,,,,,,,,,,wg-a,,,,AAXX 22034 07299 12670 72512 10120 20100 39808 40129 58002 60006 878// 90300=
07299,1997-05-22 06:00:00,12,1014.8,1.8,88,10,7000,14.816,,,240,11.2,16.1,,,,,,,,61,wg-a,,,,AAXX 22064 07299 02557 72408 10120 20100 39826 40148 53018 61000 76162 878// 90600 333 10161 20112 6002=
07299,1997-05-22 09:00:00,13,1015.8,1.2,82,10,12000,14.816,,,250,,,,,,,,,,3,wg-a,,,,AAXX 22094 07299 02562 82508 10130 20100 39838 40158 51012 61000 70362 8687/ 90900 333 ////=
07299,1997-05-22 12:00:00,17,1015.5,0.1,55,8,15000,14.816,,,260,,,,,,,,,,1,wg-a,,,,AAXX 22124 07299 02665 52608 10170 20080 39839 40155 50001 61000 70162 84830 91200 333 ////=
07299,1997-05-22 18:00:00,14,1015.8,-0.1,77,10,27000,3.704,,,220,11.7,18.4,,,,,,,,21,wg-a,,,,AAXX 22184 07299 02777 72202 10140 20100 39838 40158 55001 61000 72186 86830 91800 333 10184 20117 6100=
07299,1997-05-22 21:00:00,12,1016.9,0.9,82,9,15000,3.704,,,10,,,,,,,,,,1,wg-a,,,,AAXX 22214 07299 02765 30102 10120 20090 39847 40169 51009 61000 70161 81530 92100 333 ////=
07299,1997-05-23 00:00:00,9,1017.2,0,93,8,14000,0,,,0,,,,,,,,,,,wg-a,,,,AAXX 23004 07299 02764 20000 10090 20080 39847 40172 50000 61000 81530 90000 333 ////=
07299,1997-05-23 03:00:00,9,1016.6,-0.7,87,7,7000,7.408,,,160,,,,0,,,,,,,wg-a,,,,AAXX 23034 07299 12757 /1604 10090 20070 39840 40166 58007 60007 83500 90300=
07299,1997-05-23 06:00:00,11,1016.8,0.5,87,9,6000,7.408,,,140,8,14,,,,,,,,,wg-a,,,,AAXX 23064 07299 02/56 61404 10110 20090 39845 40168 52005 60006 81034 90600 333 10140 20080 60004=
07299,1997-05-23 09:00:00,16,1016.1,-0.1,68,10,13000,3.704,,,10,,,,,,,,,,,wg-a,,,,AAXX 23094 07299 12563 70102 10160 20100 39844 40161 57001 60006 81202 90900=
07299,1997-05-23 12:00:00,20,1015.1,-0.6,53,10,25000,7.408,,,330,,,,,,,,,,,wg-a,,,,AAXX 23124 07299 12675 /3304 10200 20100 39838 40151 58006 60006 83802 91200=
07299,1997-05-23 15:00:00,19,1014.9,-0.3,52,9,25000,14.816,,,360,,,,,,,,,,,wg-a,,,,AAXX 23154 07299 12675 /3608 10190 20090 39835 40149 56003 60006 84200 91500=
07299,1997-05-23 18:00:00,18,1016,0.9,59,10,25000,18.52,,,350,11.1,20.6,,,,,,,,,wg-a,,,,AAXX 23184 07299 12675 /3510 10180 20100 39844 40160 53009 60006 81240 91800 333 10206 20111=
07299,1997-05-23 21:00:00,14,1017.4,1,77,10,15000,11.112,,,330,,,,,,,,,,,wg-a,,,,AAXX 23214 07299 12765 /3306 10140 20100 39854 40174 51010 60006 83530 92100=
07299,1997-05-24 00:00:00,12,1018.3,0.7,82,9,0,11.112,,,330,,,,,,,,,,,wg-a,,,,AAXX 24004 07299 12/// /3306 10120 20090 39861 40183 51007 60006 90000=
07299,1997-05-24 03:00:00,10,1019,0.4,87,8,6000,7.408,,,300,,,,,,,,,,,wg-a,,,,AAXX 24034 07299 12656 /3004 10100 20080 39865 40190 53004 60006 86830 90300=
07299,1997-05-24 06:00:00,11,1019.8,0.8,82,8,500,11.112,,,300,10.1,17.5,,,,,,,,,wg-a,,,,AAXX 24064 07299 12700 73006 10110 20080 39873 40198 52008 60006 8657/ 90600 333 10175 20101=
07299,1997-05-24 09:00:00,14,1020,0.6,77,10,6000,11.112,,,350,,,,,,,,,,,wg-a,,,,AAXX 24094 07299 12656 73506 10140 20100 39879 40200 52006 60006 8457/ 90900=
07299,1997-05-24 12:00:00,17,1019.4,-0.2,68,11,8000,11.112,,,350,,,,,,,,,,,wg-a,,,,AAXX 24124 07299 12658 73506 10170 20110 39877 40194 58002 60006 84801 91200=
07299,1997-05-24 15:00:00,18,1019.7,0.4,64,11,10000,11.112,,,100,,,,0,,,,,,,wg-a,,,,AAXX 24154 07299 12560 71006 10180 20110 39881 40197 53004 60007 878// 91500=
07299,1997-05-24 18:00:00,17,1021.2,1.3,68,11,15000,7.408,,,90,10.5,18.5,,,,,,,,,wg-a,,,,AAXX 24184 07299 12565 70904 10170 20110 39894 40212 53013 60006 86801 91800 333 10185 20105=
07299,1997-05-25 00:00:00,12,1023.5,0.5,67,6,0,7.408,,,330,,,,,,,,,,,wg-a,,,,AAXX 25004 07299 12/// /3304 10120 20060 39910 40235 51005 60006 90000=
07299,1997-05-25 03:00:00,8,1024.5,0.6,76,4,20000,3.704,,,270,,,,,,,,,,,wg-a,,,,AAXX 25034 07299 12/70 22702 10080 20040 39916 40245 53006 60006 80001 90300=
07299,1997-05-25 06:00:00,10,1024.9,0.5,71,5,18000,11.112,,,320,7.3,16.6,,,,,,,,,wg-a,,,,AAXX 25064 07299 02/68 43206 10100 20050 39921 40249 50005 60006 80001 90600 333 10166 20073 60004=
07299,1997-05-25 09:00:00,15,1023.5,-0.7,59,7,22000,3.704,,,180,,,,,,,,,,,wg-a,,,,AAXX 25094 07299 12/72 21802 10150 20070 39914 40235 58007 60006 80001 90900=
07299,1997-05-25 12:00:00,19,1021.7,-1.3,49,8,22000,7.408,,,40,,,,,,,,,,,wg-a,,,,AAXX 25124 07299 12772 30404 10190 20080 39901 40217 58013 60006 81101 91200=
07299,1997-05-25 15:00:00,21,1019.7,-1.7,43,8,25000,11.112,,,20,,,,,,,,,,,wg-a,,,,AAXX 25154 07299 12775 50206 10210 20080 39884 40197 56017 60006 81104 91500=
07299,1997-05-25 18:00:00,20,1019.6,-0.3,46,8,25000,14.816,,,10,9.7,21.5,,,,,,,,,wg-a,,,,AAXX 25184 07299 12775 50108 10200 20080 39881 40196 55003 60006 81131 91800 333 10215 20097=
07299,1997-05-25 21:00:00,13,1021.7,1.3,58,5,10000,14.816,,,320,,,,,,,,,,,wg-a,,,,AAXX 25214 07299 12/60 /3208 10130 20050 39894 40217 53013 60006 92100=
07299,1997-05-26 00:00:00,10,1022.7,0.7,66,4,16000,7.408,,,300,,,,,,,,,,,wg-a,,,,AAXX 26004 07299 12/66 13004 10100 20040 39901 40227 51007 60006 81031 90000=
07299,1997-05-26 06:00:00,10,1023.2,0.4,82,7,16000,3.704,,,200,6.3,19.6,,,,,,,,,wg-a,,,,AAXX 26064 07299 12/66 12002 10100 20070 39906 40232 50004 60006 81030 90600 333 10196 20063=
07299,1997-05-26 09:00:00,16,1022.8,0.2,55,7,20000,11.112,,,340,,,,,,,,,,,wg-a,,,,AAXX 26094 07299 12670 33406 10160 20070 39908 40228 50002 60006 81131 90900=
07299,1997-05-26 12:00:00,21,1021.2,-1.1,40,7,25000,7.408,,,320,,,,,,,,,,,wg-a,,,,AAXX 26124 07299 12675 33204 10210 20070 39897 40212 58011 60006 81101 91200=
07299,1997-05-26 15:00:00,23,1019.4,-1.5,36,7,25000,11.112,,,340,,,,,,,,,,,wg-a,,,,AAXX 26154 07299 12675 33406 10230 20070 39882 40194 58015 60006 81101 91500=
07299,1997-05-26 18:00:00,22,1018.6,-0.9,38,7,20000,7.408,,,10,10.5,23,,,,,,,,,wg-a,,,,AAXX 26184 07299 12/70 20104 10220 20070 39873 40186 56009 60006 81031 91800 333 10230 20105=
07299,1997-05-26 21:00:00,15,1020.4,1,55,6,20000,11.112,,,300,,,,,,,,,,,wg-a,,,,AAXX 26214 07299 12/70 03006 10150 20060 39883 40204 52010 60006 80000 92100=
07299,1997-05-27 00:00:00,11,1020.6,-0.1,71,6,15000,7.408,,,170,,,,,,,,,,,wg-a,,,,AAXX 27004 07299 12/65 01704 10110 20060 39882 40206 58001 60006 80000 90000=
07299,1997-05-27 03:00:00,9,1020.4,-0.5,81,6,18000,3.704,,,170,,,,,,,,,,,wg-a,,,,AAXX 27034 07299 12/68 01702 10090 20060 39877 40204 56005 60006 80000 90300=
07299,1997-05-27 06:00:00,12,1020.3,0.3,76,8,12000,0,,,0,7.7,21.6,,,,,,,,,wg-a,,,,AAXX 27064 07299 12/62 00000 10120 20080 39880 40203 50003 60006 80000 90600 333 10216 20077=
07299,1997-05-27 09:00:00,18,1019.2,-0.5,45,6,13000,14.816,,,350,,,,,,,,,,,wg-a,,,,AAXX 27094 07299 12/63 03508 10180 20060 39875 40192 58005 60006 80000 90900=
07299,1997-05-27 12:00:00,21,1018.1,-0.7,38,6,15000,18.52,,29.632,10,,,,,,,,,,,wg-a,,,,AAXX 27124 07299 12765 /0110 10210 20060 39868 40181 57007 60006 81100 91200 333 91016=
07299,1997-05-27 18:00:00,20,1017,-0.1,43,7,25000,11.112,,,350,12.2,22.2,,,,,,,,,wg-a,,,,AAXX 27184 07299 12/75 13506 10200 20070 39856 40170 55001 60006 80002 91800 333 10222 20122=
07299,1997-05-28 00:00:00,11,1020.2,0.9,71,6,15000,14.816,,,350,,,,,,,,,,,wg-a,,,,AAXX 28004 07299 12/65 03508 10110 20060 39878 40202 51009 60006 80000 90000=
07299,1997-05-28 03:00:00,9,1021.7,1.1,71,4,15000,14.816,,,350,,,,,,,,,,,wg-a,,,,AAXX 28034 07299 12765 13508 10090 20040 39889 40217 53011 60006 81500 90300=
07299,1997-05-28 06:00:00,9,1023.6,1.9,76,5,8000,22.224,,,350,7.4,19.7,,,,,,,,,wg-a,,,,AAXX 28064 07299 12558 /3512 10090 20050 39908 40236 51019 60006 81800 90600 333 10197 20074=
07299,1997-05-28 09:00:00,12,1024.3,1,62,5,9000,11.112,,,10,,,,,,,,,,,wg-a,,,,AAXX 28094 07299 12559 /0106 10120 20050 39918 40243 53010 60006 86100 90900=
07299,1997-05-28 12:00:00,16,1023.1,-0.7,48,5,13000,11.112,,,30,,,,,,,,,,,wg-a,,,,AAXX 28124 07299 12663 20306 10160 20050 39911 40231 58007 60006 82100 91200=
07299,1997-05-28 18:00:00,17,1022.9,0.2,39,3,60000,18.52,,,10,9.2,18.6,,,,,,,,,wg-a,,,,AAXX 28184 07299 12786 10110 10170 20030 39910 40229 53002 60006 81100 91800 333 10186 20092=
07299,1997-05-28 21:00:00,14,1025,1.6,44,2,40000,11.112,,,60,,,,,,,,,,,wg-a,,,,AAXX 28214 07299 12/82 00606 10140 20020 39926 40250 53016 60006 80000 92100=
07299,1997-05-29 00:00:00,8,1026.5,0.8,71,3,500,7.408,,,260,,,,,,,,,,,wg-a,,,,AAXX 29004 07299 12/00 02604 10080 20030 39934 40265 51008 60006 80000 90000=
07299,1997-05-29 03:00:00,5,1026.5,-0.3,87,3,500,7.408,,,320,,,,,,,,,,,wg-a,,,,AAXX 29034 07299 12/00 03204 10050 20030 39931 40265 56003 60006 80000 90300=
07299,1997-05-29 06:00:00,9,1026.3,0.2,76,5,500,11.112,,,320,4.4,16.7,,,,,,,,,wg-a,,,,AAXX 29064 07299 12/00 23206 10090 20050 39933 40263 53002 60006 80001 90600 333 10167 20044=
07299,1997-05-29 09:00:00,15,1025.3,-0.2,48,4,35000,11.112,,,350,,,,,,,,,,,wg-a,,,,AAXX 29094 07299 12/81 43506 10150 20040 39931 40253 58002 60006 80002 90900=
07299,1997-05-29 12:00:00,20,1023.9,-0.8,40,6,40000,7.408,,,360,,,,,,,,,,,wg-a,,,,AAXX 29124 07299 12/82 73604 10200 20060 39923 40239 58008 60006 80002 91200=
07299,1997-05-29 15:00:00,22,1022.5,-1.2,35,6,45000,11.112,,,350,,,,,,,,,,,wg-a,,,,AAXX 29154 07299 12/83 73506 10220 20060 39911 40225 56012 60006 80002 91500=
07299,1997-05-29 18:00:00,20,1022.5,-0,40,6,40000,18.52,,,20,8.5,22.5,,,,,,,,,wg-a,,,,AAXX 29184 07299 12/82 70210 10200 20060 39910 40225 55000 60006 80002 91800 333 10225 20085=
07299,1997-05-29 21:00:00,15,1024.2,0.9,55,6,500,7.408,,,360,,,,,,,,,,,wg-a,,,,AAXX 29214 07299 12/00 73604 10150 20060 39920 40242 53009 60006 80002 92100=
07299,1997-05-30 00:00:00,11,1025.2,0.4,71,6,20000,7.408,,,330,,,,,,,,,,,wg-a,,,,AAXX 30004 07299 12/70 63304 10110 20060 39925 40252 53004 60006 80001 90000=
07299,1997-05-30 03:00:00,8,1026,0.5,87,6,500,3.704,,,180,,,,,,,,,,,wg-a,,,,AAXX 30034 07299 12/00 31802 10080 20060 39930 40260 53005 60006 80001 90300=
07299,1997-05-30 06:00:00,11,1026.4,0.8,82,8,20000,3.704,,,360,7,20.3,,,,,,,,,wg-a,,,,AAXX 30064 07299 02/70 13602 10110 20080 39938 40264 50008 60006 80001 90600 333 10203 20070 60004=
07299,1997-05-30 09:00:00,17,1024.6,-1.2,55,8,20000,7.408,,,340,,,,,,,,,,,wg-a,,,,AAXX 30094 07299 12670 13404 10170 20080 39927 40246 58012 60006 81101 90900=
07299,1997-05-30 12:00:00,21,1022.7,-1.4,40,7,20000,14.816,,,340,,,,,,,,,,,wg-a,,,,AAXX 30124 07299 12770 23408 10210 20070 39912 40227 58014 60006 81101 91200=
07299,1997-05-30 15:00:00,22,1021.1,-1.4,35,6,500,18.52,,,350,,,,,,,,,,,wg-a,,,,AAXX 30154 07299 12700 /3510 10220 20060 39898 40211 56014 60006 81101 91500=
07299,1997-05-30 18:00:00,21,1020.5,-0.7,35,5,500,14.816,,,360,11.4,22.6,,,,,,,,,wg-a,,,,AAXX 30184 07299 12/00 43608 10210 20050 39891 40205 55007 60006 80001 91800 333 10226 20114=
07299,1997-05-30 21:00:00,17,1021.6,0.6,42,4,35000,11.112,,,50,,,,,,,,,,,wg-a,,,,AAXX 30214 07299 12/81 10506 10170 20040 39897 40216 53006 60006 80001 92100=
07299,1997-05-31 00:00:00,14,1022,0.1,47,3,500,11.112,,,90,,,,,,,,,,,wg-a,,,,AAXX 31004 07299 12/00 00906 10140 20030 39898 40220 50001 60006 80000 90000=
07299,1997-05-31 03:00:00,11,1021.8,-0.5,54,2,40000,7.408,,,110,,,,,,,,,,,wg-a,,,,AAXX 31034 07299 12/82 01104 10110 20020 39893 40218 57005 60006 80000 90300=
07299,1997-05-31 06:00:00,14,1020.7,-0.8,44,2,40000,14.816,,,80,10.9,20.9,,,,,,,,,wg-a,,,,AAXX 31064 07299 02/82 00808 10140 20020 39885 40207 58008 60006 80000 90600 333 10209 20109 60004=
07299,1997-05-31 09:00:00,16,1019.4,-1,42,3,50000,14.816,,,10,,,,,,,,,,,wg-a,,,,AAXX 31094 07299 12/84 10108 10160 20030 39875 40194 58010 60006 81030 90900=
07299,1997-05-31 12:00:00,21,1016.7,-2.1,28,2,50000,14.816,,,90,,,,,,,,,,,wg-a,,,,AAXX 31124 07299 12/84 20908 10210 20020 39854 40167 57021 60006 80001 91200=
07299,1997-05-31 15:00:00,21,1014.8,-1.8,25,0,50000,18.52,,,100,,,,,,,,,,,wg-a,,,,AAXX 31154 07299 12784 21010 10210 20000 39836 40148 56018 60006 81202 91500=
07299,1997-05-31 18:00:00,19,1014.9,-0.1,22,-3,50000,22.224,,,90,13.6,21.9,,,,,,,,,wg-a,,,,AAXX 31184 07299 12784 /0912 10190 21030 39834 40149 55001 60006 81232 91800 333 10219 20136=
07299,1997-06-01 00:00:00,11,1015.8,-0.9,43,-1,20000,7.408,,,100,,,,,,,,,,,wg-a,,,,AAXX 01004 07299 12/70 31004 10110 21010 39834 40158 58009 60006 80002 90000=
07299,1997-06-01 03:00:00,7,1014.9,-1.3,61,0,20000,3.704,,,300,,,,,,,,,,,wg-a,,,,AAXX 01034 07299 12/70 33002 10070 20000 39821 40149 56013 60006 80001 90300=
07299,1997-06-01 06:00:00,9,1013.8,-0.8,61,2,40000,11.112,,,350,5.2,18.4,,,,,,,,,wg-a,,,,AAXX 01064 07299 02/82 63506 10090 20020 39813 40138 57008 60006 81031 90600 333 10184 20052 60004=
07299,1997-06-01 09:00:00,14,1012.3,-1,44,2,40000,7.408,,,170,,,,,,,,,,,wg-a,,,,AAXX 01094 07299 12782 /1704 10140 20020 39803 40123 58010 60006 81232 90900=
07299,1997-06-01 12:00:00,13,1011.9,-0.4,54,4,25000,18.52,,,130,,,,,,,,,,,wg-a,,,,AAXX 01124 07299 12675 71310 10130 20040 39799 40119 58004 60006 81472 91200=
07299,1997-06-01 15:00:00,14,1010.4,-1.3,58,6,25000,14.816,,,110,,,,,,,,,,60,wg-a,,,,AAXX 01154 07299 02675 71108 10140 20060 39786 40104 58013 61000 76062 82572 91500 333 ////=
07299,1997-06-01 18:00:00,15,1009.4,-0.9,55,6,25000,7.408,,,340,9.3,15.7,,,,,,,,21,wg-a,,,,AAXX 01184 07299 02775 73404 10150 20060 39777 40094 55009 61000 72162 82572 91800 333 10157 20093 6100=
07299,1997-06-01 21:00:00,13,1010.1,0.5,77,9,15000,0,,,0,,,,,,,,,,60,wg-a,,,,AAXX 01214 07299 02765 70000 10130 20090 39782 40101 53005 61000 76062 8357/ 92100 333 ////=
07299,1997-06-02 00:00:00,12,1010.1,-0.1,82,9,15000,3.704,,,230,,,,,,,,,,,wg-a,,,,AAXX 02004 07299 02765 72302 10120 20090 39781 40101 58001 61000 8557/ 90000 333 6100=
07299,1997-06-02 06:00:00,12,1011.7,1.3,82,9,15000,7.408,,,310,10.5,14.5,,,,,,,,,wg-a,,,,AAXX 02064 07299 02765 73104 10120 20090 39796 40117 53013 60006 8353/ 90600 333 10145 20105 61000=
07299,1997-06-02 09:00:00,16,1012.1,0.8,63,9,15000,3.704,,,10,,,,,,,,,,,wg-a,,,,AAXX 02094 07299 12765 70102 10160 20090 39804 40121 51008 60006 8483/ 90900=
07299,1997-06-02 12:00:00,19,1011.6,-0.1,56,10,17000,7.408,,,20,,,,,,,,,,80,wg-a,,,,AAXX 02124 07299 02767 /0204 10190 20100 39803 40116 58001 61000 78086 82830 91200 333 6100=
07299,1997-06-02 18:00:00,19,1012.2,0.5,56,10,20000,11.112,,,260,11.9,21.9,,,,,,,,3,wg-a,,,,AAXX 02184 07299 02770 82606 10190 20100 39809 40122 53005 60006 70361 8657/ 91800 333 10219 20119 61000=
07299,1997-06-02 21:00:00,17,1013.3,0.8,68,11,15000,7.408,,,290,,,,,,,,,,2,wg-a,,,,AAXX 02214 07299 02765 82904 10170 20110 39817 40133 51008 61000 70262 8657/ 92100 333 ////=
07299,1997-06-03 00:00:00,15,1014.1,0.6,88,13,0,7.408,,,270,,,,,,,,,,0,wg-a,,,,AAXX 03004 07299 02/// /2704 10150 20130 39823 40141 52006 61000 70062 90000 333 ////=
07299,1997-06-03 03:00:00,14,1014.4,0.2,94,13,7000,3.704,,,20,,,,,,,,,,,wg-a,,,,AAXX 03034 07299 12657 80202 10140 20130 39825 40144 53002 60006 8687/ 90300=
07299,1997-06-03 06:00:00,15,1014.8,0.5,88,13,500,0,,,0,13.7,19.4,,,,,,,,25,wg-a,,,,AAXX 03064 07299 02400 80000 10150 20130 39830 40148 51005 61000 72586 8587/ 90600 333 10194 20137 6100=
07299,1997-06-03 09:00:00,19,1014.5,0.2,73,14,12000,14.816,,,280,,,,0,,,,,,1,wg-a,,,,AAXX 03094 07299 12462 72808 10190 20140 39832 40145 52002 60007 70186 872// 90900=
07299,1997-06-03 12:00:00,23,1013.4,-0.7,47,11,28000,18.52,,,280,,,,,,,,,,1,wg-a,,,,AAXX 03124 07299 12678 72810 10230 20110 39825 40134 58007 60006 70186 83206 91200=
07299,1997-06-03 15:00:00,21,1014,0.4,53,11,500,11.112,,,330,,,,,,,,,,,wg-a,,,,AAXX 03154 07299 12600 /3306 10210 20110 39829 40140 53004 60006 82932 91500=
07299,1997-06-03 18:00:00,19,1015,0.7,60,11,500,7.408,,,340,15.1,23.6,,,,,,,,,wg-a,,,,AAXX 03184 07299 12600 73404 10190 20110 39836 40150 53007 60006 82272 91800 333 10236 20151=
07299,1997-06-03 21:00:00,15,1017.1,1.6,77,11,18000,3.704,,,320,,,,,,,,,,,wg-a,,,,AAXX 03214 07299 12668 43202 10150 20110 39852 40171 53016 60006 82931 92100=
07299,1997-06-04 00:00:00,14,1017.3,0.1,88,12,12000,3.704,,,260,,,,,,,,,,,wg-a,,,,AAXX 04004 07299 12762 72602 10140 20120 39853 40173 50001 60006 82872 90000=
07299,1997-06-04 03:00:00,11,1017.3,-0.4,94,10,10000,3.704,,,330,,,,,,,,,,,wg-a,,,,AAXX 04034 07299 12760 23302 10110 20100 39849 40173 55004 60006 81501 90300=
07299,1997-06-04 06:00:00,14,1017,0.1,88,12,500,3.704,,,360,10.1,19.1,,,,,,,,,wg-a,,,,AAXX 04064 07299 02/00 /3602 10140 20120 39850 40170 50001 60006 80001 90600 333 10191 20101 60004=
07299,1997-06-04 09:00:00,20,1015.8,-0.5,60,12,10000,3.704,,,110,,,,,,,,,,,wg-a,,,,AAXX 04094 07299 12560 31102 10200 20120 39845 40158 58005 60006 81101 90900=
07299,1997-06-04 12:00:00,24,1014.1,-1.3,41,10,18000,3.704,,,360,,,,,,,,,,,wg-a,,,,AAXX 04124 07299 12768 43602 10240 20100 39832 40141 56013 60006 81102 91200=
07299,1997-06-04 15:00:00,24,1012.6,-1.4,44,11,23000,14.816,,,10,,,,,,,,,,,wg-a,,,,AAXX 04154 07299 12773 70108 10240 20110 39818 40126 58014 60006 81102 91500=
07299,1997-06-04 18:00:00,23,1011.3,-1.3,53,13,25000,11.112,,,20,14,25.4,,,,,,,,,wg-a,,,,AAXX 04184 07299 12775 20206 10230 20130 39805 40113 56013 60006 81101 91800 333 10254 20140=
07299,1997-06-04 21:00:00,18,1012.1,0.2,73,13,16000,3.704,,,320,,,,,,,,,,,wg-a,,,,AAXX 04214 07299 12/66 23202 10180 20130 39807 40121 53002 60006 80001 92100=
07299,1997-06-05 00:00:00,14,1011.5,-1,88,12,0,3.704,,,250,,,,,,,,,,,wg-a,,,,AAXX 05004 07299 12/// /2502 10140 20120 39797 40115 58010 60006 90000=
07299,1997-06-05 03:00:00,13,1010.2,-1.3,88,11,6000,3.704,,,10,,,,,,,,,,,wg-a,,,,AAXX 05034 07299 12756 50102 10130 20110 39783 40102 56013 60006 85500 90300=
07299,1997-06-05 06:00:00,15,1009.4,-0.6,82,12,12000,3.704,,,260,12.6,23.3,,,,,,,,,wg-a,,,,AAXX 05064 07299 02762 72602 10150 20120 39778 40094 56006 60006 8653/ 90600 333 10233 20126 60004=
07299,1997-06-05 12:00:00,23,1005.2,-1.7,53,13,10000,18.52,,,350,,,,,,,,,,,wg-a,,,,AAXX 05124 07299 12/60 73510 10230 20130 39745 40052 58017 60006 82072 91200=
07299,1997-06-05 18:00:00,24,1003.3,-0.2,57,15,16000,14.816,,,340,14.9,25.2,,,,,,,,,wg-a,,,,AAXX 05184 07299 12666 73408 10240 20150 39728 40033 55002 60006 81232 91800 333 10252 20149=
07299,1997-06-05 21:00:00,20,1004.8,1,64,13,15000,7.408,,,310,,,,,,,,,,,wg-a,,,,AAXX 05214 07299 12/65 63104 10200 20130 39738 40048 53010 60006 81032 92100=
07299,1997-06-06 00:00:00,17,1006.3,1.2,77,13,12000,3.704,,,140,,,,,,,,,,,wg-a,,,,AAXX 06004 07299 12/62 61402 10170 20130 39750 40063 53012 60006 81031 90000=
07299,1997-06-06 06:00:00,18,1010,1.7,73,13,25000,14.816,,,230,16.7,23.4,,,,,,,,,wg-a,,,,AAXX 06064 07299 02575 72308 10180 20130 39787 40100 51017 60006 8283/ 90600 333 10234 20167 60004=
07299,1997-06-06 09:00:00,21,1011.2,1.5,64,14,500,18.52,,,240,,,,,,,,,,,wg-a,,,,AAXX 06094 07299 12500 72410 10210 20140 39802 40112 51015 60006 83832 90900=
07299,1997-06-06 12:00:00,25,1010.9,0.1,47,13,500,7.408,,,290,,,,,,,,,,,wg-a,,,,AAXX 06124 07299 12600 /2904 10250 20130 39803 40109 50001 60006 82202 91200=
07299,1997-06-06 15:00:00,27,1009.8,-0.9,42,13,50000,3.704,,,120,,,,,,,,,,,wg-a,,,,AAXX 06154 07299 12684 71202 10270 20130 39794 40098 58009 60006 82302 91500=
07299,1997-06-06 18:00:00,26,1010.1,0.2,45,13,50000,3.704,,,40,18.5,27,,,,,,,,,wg-a,,,,AAXX 06184 07299 12684 70402 10260 20130 39796 40101 53002 60006 81332 91800 333 10270 20185=
07299,1997-06-06 21:00:00,20,1012,1.1,68,14,500,3.704,,,90,,,,,,,,,,,wg-a,,,,AAXX 06214 07299 12/00 40902 10200 20140 39808 40120 53011 60006 80002 92100=
07299,1997-06-07 00:00:00,16,1012.4,0,82,13,500,3.704,,,190,,,,,,,,,,,wg-a,,,,AAXX 07004 07299 12/00 31902 10160 20130 39808 40124 50000 60006 80002 90000=
07299,1997-06-07 03:00:00,15,1012.3,-0.3,88,13,25000,7.408,,,170,,,,,,,,,,,wg-a,,,,AAXX 07034 07299 12/75 21704 10150 20130 39805 40123 55003 60006 80002 90300=
07299,1997-06-07 06:00:00,19,1012.3,0.6,78,15,15000,7.408,,,130,14.4,25.9,,,,,,,,,wg-a,,,,AAXX 07064 07299 02/65 61304 10190 20150 39811 40123 51006 60006 80002 90600 333 10259 20144 60004=
07299,1997-06-07 12:00:00,28,1010,-0.7,40,13,25000,7.408,,,20,,,,,,,,,,,wg-a,,,,AAXX 07124 07299 12775 70204 10280 20130 39797 40100 58007 60006 81286 91200=
07299,1997-06-07 15:00:00,30,1008.8,-1,33,12,35000,7.408,,,80,,,,,,,,,,,wg-a,,,,AAXX 07154 07299 12781 70804 10300 20120 39787 40088 56010 60006 81332 91500=
07299,1997-06-07 18:00:00,28,1008.5,-0.4,40,13,50000,3.704,,,60,19.4,30.4,,,,,,,,,wg-a,,,,AAXX 07184 07299 12684 70602 10280 20130 39783 40085 55004 60006 83982 91800 333 10304 20194=
07299,1997-06-07 21:00:00,21,1010.6,1.3,78,17,10000,18.52,,,230,,,,1,,,,,,95,wg-a,,,,AAXX 07214 07299 12560 72310 10210 20170 39797 40106 53013 60017 79598 85982 92100=
07299,1997-06-08 00:00:00,18,1012.7,1.7,94,17,10000,7.408,,,120,,,,3,,,,,,95,wg-a,,,,AAXX 08004 07299 02560 71204 10180 20170 39813 40127 51017 60046 79598 85982 90000 333 60037=
07299,1997-06-08 03:00:00,18,1014.1,1.3,94,17,10000,7.408,,,160,,,,2,,,,,,80,wg-a,,,,AAXX 08034 07299 12660 71604 10180 20170 39826 40141 53013 60027 78098 84982 90300=
07299,1997-06-08 06:00:00,18,1015.2,1.3,88,16,15000,7.408,,,200,17.3,28.3,,,,,6,,,1,wg-a,,,,AAXX 08064 07299 02465 72004 10180 20160 39838 40152 53013 60006 70198 82271 90600 333 10283 20173 60064=
07299,1997-06-08 12:00:00,25,1015.4,-0.3,50,14,500,18.52,,,280,,,,,,,,,,,wg-a,,,,AAXX 08124 07299 12600 42810 10250 20140 39847 40154 58003 60006 84901 91200=
07299,1997-06-08 15:00:00,27,1015.1,-0.1,45,14,25000,14.816,,,290,,,,,,,,,,,wg-a,,,,AAXX 08154 07299 12675 42908 10270 20140 39846 40151 55001 60006 83963 91500=
07299,1997-06-08 18:00:00,22,1018.9,3.2,53,12,20000,11.112,,,300,18.3,26.9,,,,,,,,,wg-a,,,,AAXX 08184 07299 12770 /3006 10220 20120 39877 40189 51032 60006 84963 91800 333 10269 20183=
07299,1997-06-09 00:00:00,14,1022.5,0.6,88,12,18000,7.408,,,190,,,,,,,,,,,wg-a,,,,AAXX 09004 07299 12768 11904 10140 20120 39904 40225 53006 60006 815/0 90000=
07299,1997-06-09 03:00:00,13,1023.1,0.4,94,12,17000,7.408,,,170,,,,,,,,,,,wg-a,,,,AAXX 09034 07299 12767 11704 10130 20120 39908 40231 51004 60006 81501 90300=
07299,1997-06-09 06:00:00,17,1023.5,0.9,77,13,50000,3.704,,,90,12.1,22.1,,,,,6,,,,wg-a,,,,AAXX 09064 07299 02684 20902 10170 20130 39917 40235 52009 60006 81801 90600 333 10221 20121 60064=
07299,1997-06-09 09:00:00,22,1023.1,0.1,53,12,40000,3.704,,,40,,,,,,,,,,,wg-a,,,,AAXX 09094 07299 12682 30402 10220 20120 39918 40231 50001 60006 81102 90900=
07299,1997-06-09 12:00:00,25,1022.1,-0.7,41,11,40000,7.408,,,10,,,,,,,,,,,wg-a,,,,AAXX 09124 07299 12782 40104 10250 20110 39911 40221 57007 60006 81202 91200=
07299,1997-06-09 15:00:00,27,1020.4,-1.5,34,10,40000,7.408,,,330,,,,,,,,,,,wg-a,,,,AAXX 09154 07299 12782 73304 10270 20100 39896 40204 56015 60006 81202 91500=
07299,1997-06-09 18:00:00,24,1020.1,-0.5,50,13,40000,14.816,,,350,17.1,26.9,,,,,,,,,wg-a,,,,AAXX 09184 07299 12882 73508 10240 20130 39891 40201 55005 60006 81131 91800 333 10269 20171=
07299,1997-06-09 21:00:00,19,1020.9,0.3,64,12,500,7.408,,,310,,,,,,,,,,,wg-a,,,,AAXX 09214 07299 12700 53104 10190 20120 39894 40209 53003 60006 81537 92100=
07299,1997-06-10 00:00:00,16,1020.3,-1,82,13,2500,3.704,,,220,,,,,,,,,,,wg-a,,,,AAXX 10004 07299 12/25 32202 10160 20130 39884 40203 56010 60006 80001 90000=
07299,1997-06-10 06:00:00,18,1019.1,-0.1,77,14,25000,0,,,0,13.4,23.6,,,,,6,,,,wg-a,,,,AAXX 10064 07299 02775 20000 10180 20140 39875 40191 58001 60006 81141 90600 333 10236 20134 60064=
07299,1997-06-10 09:00:00,25,1017.1,-1.2,50,14,40000,7.408,,,90,,,,,,,,,,,wg-a,,,,AAXX 10094 07299 12782 60904 10250 20140 39863 40171 58012 60006 81102 90900=
07299,1997-06-10 12:00:00,30,1015,-1.6,33,12,50000,7.408,,,330,,,,,,,,,,,wg-a,,,,AAXX 10124 07299 12784 73304 10300 20120 39847 40150 58016 60006 81232 91200=
07299,1997-06-10 15:00:00,31,1012.6,-2.2,33,13,50000,7.408,,,60,,,,,,,,,,,wg-a,,,,AAXX 10154 07299 12784 70604 10310 20130 39825 40126 56022 60006 81232 91500=
07299,1997-06-10 18:00:00,29,1011.4,-1.4,40,14,50000,7.408,,,90,18.1,31.3,,,,,,,,,wg-a,,,,AAXX 10184 07299 12784 70904 10290 20140 39811 40114 56014 60006 81232 91800 333 10313 20181=
07299,1997-06-10 21:00:00,24,1012.1,0.2,61,16,40000,3.704,,,360,,,,,,,,,,,wg-a,,,,AAXX 10214 07299 12/82 73602 10240 20160 39813 40121 53002 60006 81037 92100=
07299,1997-06-11 00:00:00,20,1012.1,-0.4,78,16,500,3.704,,,190,,,,,,,,,,,wg-a,,,,AAXX 11004 07299 12/00 71902 10200 20160 39809 40121 58004 60006 83031 90000=
07299,1997-06-11 03:00:00,19,1011.3,-0.9,83,16,20000,3.704,,,170,,,,,,,,,,,wg-a,,,,AAXX 11034 07299 12/70 71702 10190 20160 39801 40113 56009 60006 8703/ 90300=
07299,1997-06-11 06:00:00,20,1011.3,0.1,78,16,40000,3.704,,,200,19.1,28.7,,,,,,,,,wg-a,,,,AAXX 11064 07299 02482 82002 10200 20160 39802 40113 51001 60006 8187/ 90600 333 10287 20191 60004=
07299,1997-06-11 09:00:00,26,1010,-0.7,51,15,25000,3.704,,,100,,,,,,,,,,,wg-a,,,,AAXX 11094 07299 12575 71002 10260 20150 39795 40100 57007 60006 8284/ 90900=
07299,1997-06-11 12:00:00,28,1009.2,-0.6,51,17,20000,7.408,,,320,,,,,,,,,,,wg-a,,,,AAXX 11124 07299 12670 /3204 10280 20170 39789 40092 58006 60006 83840 91200=
07299,1997-06-11 18:00:00,27,1007.2,-0.6,51,16,16000,11.112,,,360,20.2,30.3,,,,,,,,3,wg-a,,,,AAXX 11184 07299 12666 73606 10270 20160 39769 40072 56006 60006 70398 82932 91800 333 10303 20202=
07299,1997-06-11 21:00:00,20,1009,1.1,83,17,15000,7.408,,,130,,,,3,,,,,,13,wg-a,,,,AAXX 11214 07299 12665 /1304 10200 20170 39780 40090 50011 60037 71398 84930 92100=
07299,1997-06-12 00:00:00,17,1013,3.5,94,16,13000,3.704,,,130,,,,13,,,,,,0,wg-a,,,,AAXX 12004 07299 02563 61302 10170 20160 39815 40130 51035 60166 70098 85830 90000 333 60137=
07299,1997-06-12 03:00:00,16,1013.3,0.2,94,15,6000,3.704,,,210,,,,,,,,,,,wg-a,,,,AAXX 12034 07299 12756 32102 10160 20150 39817 40133 50002 60006 82530 90300=
07299,1997-06-12 06:00:00,18,1013,-0.1,88,16,6000,7.408,,,170,15.2,27,,,,,16,,,,wg-a,,,,AAXX 12064 07299 02556 /1704 10180 20160 39816 40130 56001 60006 81132 90600 333 10270 20152 60164=
07299,1997-06-12 09:00:00,22,1011.9,-0.6,69,16,20000,7.408,,,300,,,,,,,,,,,wg-a,,,,AAXX 12094 07299 12570 73004 10220 20160 39810 40119 56006 60006 81102 90900=
07299,1997-06-12 12:00:00,25,1011,-0.6,50,14,25000,14.816,,,300,,,,,,,,,,,wg-a,,,,AAXX 12124 07299 12575 73008 10250 20140 39804 40110 56006 60006 81132 91200=
07299,1997-06-12 15:00:00,26,1009.4,-1.5,42,12,25000,14.816,,,260,,,,,,,,,,,wg-a,,,,AAXX 12154 07299 12675 72608 10260 20120 39789 40094 58015 60006 81842 91500=
07299,1997-06-12 18:00:00,25,1009.1,-0.4,50,14,20000,11.112,,,270,18.1,26.4,,,,,,,,,wg-a,,,,AAXX 12184 07299 12670 /2706 10250 20140 39785 40091 58004 60006 81232 91800 333 10264 20181=
07299,1997-06-13 00:00:00,17,1009.7,-0.4,88,15,16000,3.704,,,280,,,,,,,,,,,wg-a,,,,AAXX 13004 07299 12666 52802 10170 20150 39783 40097 58004 60006 82232 90000=
07299,1997-06-13 06:00:00,18,1009.5,-0.3,88,16,14000,7.408,,,120,16.1,24.5,,,,,2,,,3,wg-a,,,,AAXX 13064 07299 02464 71204 10180 20160 39782 40095 57003 60006 70398 81132 90600 333 10245 20161 60024=
07299,1997-06-13 09:00:00,22,1008.6,-0.5,69,16,16000,3.704,,,140,,,,,,,,,,,wg-a,,,,AAXX 13094 07299 12566 71402 10220 20160 39777 40086 58005 60006 81286 90900=
07299,1997-06-13 12:00:00,23,1007.7,-0.7,61,15,8000,3.704,,,250,,,,,,,,,,15,wg-a,,,,AAXX 13124 07299 12558 72502 10230 20150 39770 40077 58007 60006 71522 83376 91200=
07299,1997-06-13 15:00:00,23,1007.1,-0.8,57,14,18000,14.816,,,140,,,,,,,,,,17,wg-a,,,,AAXX 13154 07299 12568 71408 10230 20140 39763 40071 56008 60006 71792 8237/ 91500=
07299,1997-06-13 18:00:00,19,1007.1,-0.1,83,16,7000,11.112,,,110,17.1,23.4,,3,,,,,,15,wg-a,,,,AAXX 13184 07299 02457 71106 10190 20160 39760 40071 58001 60006 71598 879// 91800 333 10234 20171 60037=
07299,1997-06-14 00:00:00,17,1008,-0,88,15,15000,3.704,,,130,,,,,,,,,,0,wg-a,,,,AAXX 14004 07299 12565 71302 10170 20150 39766 40080 54000 60016 70098 878// 90000=
07299,1997-06-14 03:00:00,16,1008.6,0.6,94,15,15000,7.408,,,150,,,,,,,,,,,wg-a,,,,AAXX 14034 07299 12565 71504 10160 20150 39772 40086 53006 60006 878// 90300=
07299,1997-06-14 06:00:00,18,1010.2,1.8,88,16,18000,7.408,,,290,15.8,19.3,,,,,4,,,,wg-a,,,,AAXX 14064 07299 02468 72904 10180 20160 39789 40102 52018 60006 8583/ 90600 333 10193 20158 60044=
07299,1997-06-14 09:00:00,21,1010.4,0.4,69,15,15000,14.816,,,270,,,,,,,,,,25,wg-a,,,,AAXX 14094 07299 02565 72708 10210 20150 39794 40104 51004 61000 72586 85932 90900 333 ////=
07299,1997-06-14 12:00:00,22,1010.8,0.5,57,13,24000,29.632,,,240,,,,,,,,,,1,wg-a,,,,AAXX 14124 07299 02674 72416 10220 20130 39799 40108 53005 61000 70186 85931 91200 333 6100=
07299,1997-06-14 15:00:00,23,1011.1,0.1,50,12,40000,29.632,,46.3,250,,,,,,,,,,,wg-a,,,,AAXX 14154 07299 12682 72516 10230 20120 39802 40111 51001 60006 8523/ 91500 333 91025=
07299,1997-06-14 18:00:00,19,1014.4,2.8,73,14,20000,22.224,,,250,16.9,24.1,,,,,,,,1,wg-a,,,,AAXX 14184 07299 02570 32512 10190 20140 39830 40144 51028 60006 70186 83900 91800 333 10241 20169 61000=
07299,1997-06-14 21:00:00,17,1017.3,2.5,82,14,17000,11.112,,,280,,,,,,,,,,,wg-a,,,,AAXX 14214 07299 12667 /2806 10170 20140 39856 40173 53025 60006 83800 92100=
07299,1997-06-15 00:00:00,13,1018.7,1,94,12,17000,7.408,,,230,,,,,,,,,,,wg-a,,,,AAXX 15004 07299 12767 32304 10130 20120 39866 40187 51010 60006 815/2 90000=
07299,1997-06-15 06:00:00,15,1019.1,0.9,88,13,18000,3.704,,,170,11.5,18.6,,,,,,,,,wg-a,,,,AAXX 15064 07299 02268 21702 10150 20130 39872 40191 53009 60006 81832 90600 333 10186 20115 60004=
07299,1997-06-15 09:00:00,19,1018.6,-0.1,60,11,25000,11.112,,,300,,,,,,,,,,,wg-a,,,,AAXX 15094 07299 12575 53006 10190 20110 39871 40186 58001 60006 84802 90900=
07299,1997-06-15 12:00:00,21,1018,-0.3,53,11,500,14.816,,,330,,,,,,,,,,,wg-a,,,,AAXX 15124 07299 12600 63308 10210 20110 39867 40180 55003 60006 86400 91200=
07299,1997-06-15 18:00:00,21,1017.2,-0.1,49,10,500,11.112,,,360,15.3,22.7,,,,,,,,,wg-a,,,,AAXX 15184 07299 12700 /3606 10210 20100 39860 40172 55001 60006 81400 91800 333 10227 20153=
07299,1997-06-15 21:00:00,16,1019.1,1.1,77,12,20000,7.408,,,330,,,,,,,,,,,wg-a,,,,AAXX 15214 07299 12770 33304 10160 20120 39872 40191 53011 60006 83500 92100=
07299,1997-06-16 00:00:00,13,1019.3,-0.1,88,11,16000,7.408,,,320,,,,,,,,,,,wg-a,,,,AAXX 16004 07299 12766 23204 10130 20110 39871 40193 58001 60006 825/0 90000=
07299,1997-06-16 03:00:00,12,1019.4,0,94,11,12000,3.704,,,250,,,,,,,,,,,wg-a,,,,AAXX 16034 07299 12562 52502 10120 20110 39871 40194 50000 60006 83501 90300=
07299,1997-06-16 06:00:00,14,1018.8,-0.2,88,12,16000,3.704,,,80,11.1,21.3,,,,,,,,,wg-a,,,,AAXX 16064 07299 02766 70802 10140 20120 39868 40188 58002 60006 82534 90600 333 10213 20111 60004=
07299,1997-06-16 09:00:00,18,1017.9,-0.5,68,12,500,11.112,,,340,,,,,,,,,,,wg-a,,,,AAXX 16094 07299 12500 73406 10180 20120 39863 40179 58005 60006 83832 90900=
07299,1997-06-16 12:00:00,20,1016.3,-1.3,64,13,25000,11.112,,,340,,,,,,,,,,,wg-a,,,,AAXX 16124 07299 12575 73406 10200 20130 39850 40163 58013 60006 81272 91200=
07299,1997-06-16 18:00:00,16,1016.2,-0.6,94,15,4000,3.704,,,170,14.4,20.3,,,,,,,,10,wg-a,,,,AAXX 16184 07299 02740 71702 10160 20150 39845 40162 58006 61000 71062 875// 91800 333 10203 20144 6004=
07299,1997-06-16 21:00:00,16,1016.3,0.1,94,15,3000,3.704,,,350,,,,0,,,,,,10,wg-a,,,,AAXX 16214 07299 12230 73502 10160 20150 39846 40163 53001 60007 71062 875// 92100=
07299,1997-06-17 00:00:00,15,1015.9,-0.5,100,15,4000,3.704,,,270,,,,2,,,,,,21,wg-a,,,,AAXX 17004 07299 02340 72702 10150 20150 39841 40159 56005 60026 72162 877// 90000 333 60027=
07299,1997-06-17 03:00:00,14,1015.6,-0.4,100,14,3000,3.704,,,170,,,,,,,,,,10,wg-a,,,,AAXX 17034 07299 12130 71702 10140 20140 39837 40156 58004 60006 71022 877// 90300=
07299,1997-06-17 06:00:00,15,1016.5,1,100,15,3000,7.408,,,150,13.9,16.4,,,,,6,,,10,wg-a,,,,AAXX 17064 07299 02130 /1504 10150 20150 39847 40165 53010 60006 71022 86800 90600 333 10164 20139 60064=
07299,1997-06-17 12:00:00,21,1015.4,-0.5,60,13,35000,22.224,,,280,,,,,,,,,,1,wg-a,,,,AAXX 17124 07299 02681 72812 10210 20130 39843 40154 56005 61000 70186 83304 91200 333 ////=
07299,1997-06-17 15:00:00,21,1015.6,0,56,12,40000,18.52,,,260,,,,,,,,,,,wg-a,,,,AAXX 17154 07299 12682 /2610 10210 20120 39844 40156 50000 60006 83302 91500=
07299,1997-06-17 18:00:00,21,1015.4,-0.2,53,11,25000,11.112,,,280,15.5,22.4,,,,,,,,,wg-a,,,,AAXX 17184 07299 12775 22806 10210 20110 39842 40154 55002 60006 81901 91800 333 10224 20155=
07299,1997-06-17 21:00:00,16,1017.5,1.5,77,12,20000,11.112,,,260,,,,,,,,,,,wg-a,,,,AAXX 17214 07299 12670 /2606 10160 20120 39857 40175 53015 60006 84401 92100=
07299,1997-06-18 00:00:00,13,1018,0.2,88,11,20000,0,,,0,,,,,,,,,,,wg-a,,,,AAXX 18004 07299 12/70 50000 10130 20110 39859 40180 51002 60006 81031 90000=
07299,1997-06-18 06:00:00,14,1018,0.2,88,12,8000,18.52,,,230,12.4,20.7,,,,,,,,,wg-a,,,,AAXX 18064 07299 02458 /2310 10140 20120 39860 40180 51002 60006 84531 90600 333 10207 20124 61000=
07299,1997-06-18 09:00:00,16,1018.3,0.5,72,11,18000,18.52,,,240,,,,,,,,,,,wg-a,,,,AAXX 18094 07299 12568 72410 10160 20110 39865 40183 51005 60006 84531 90900=
07299,1997-06-18 12:00:00,18,1018.2,0.1,64,11,25000,7.408,,,350,,,,,,,,,,,wg-a,,,,AAXX 18124 07299 12575 /3504 10180 20110 39866 40182 50001 60006 84831 91200=
07299,1997-06-18 15:00:00,20,1016.6,-1.3,53,10,18000,11.112,,,350,,,,,,,,,,,wg-a,,,,AAXX 18154 07299 12668 33506 10200 20100 39853 40166 57013 60006 83860 91500=
07299,1997-06-18 18:00:00,19,1016.3,-0.4,52,9,15000,11.112,,,350,14,20.8,,,,,,,,,wg-a,,,,AAXX 18184 07299 12765 23506 10190 20090 39849 40163 58004 60006 82400 91800 333 10208 20140=
07299,1997-06-18 21:00:00,14,1017,-0,77,10,15000,3.704,,,30,,,,,,,,,,,wg-a,,,,AAXX 18214 07299 12865 10302 10140 20100 39850 40170 55000 60006 81530 92100=
07299,1997-06-19 00:00:00,10,1016,-1.4,93,9,8000,3.704,,,220,,,,,,,,,,,wg-a,,,,AAXX 19004 07299 12/58 12202 10100 20090 39836 40160 56014 60006 80001 90000=
07299,1997-06-19 03:00:00,9,1013.9,-2.1,93,8,4500,3.704,,,250,,,,,,,,,,10,wg-a,,,,AAXX 19034 07299 12745 72502 10090 20080 39814 40139 56021 60006 71011 82102 90300=
07299,1997-06-19 06:00:00,11,1012.2,-1.3,94,10,3500,7.408,,,310,9,19.4,,,,,,,,10,wg-a,,,,AAXX 19064 07299 02/35 73104 10110 20100 39800 40122 58013 60006 71011 82032 90600 333 10194 20090 60004=
07299,1997-06-19 12:00:00,18,1008.6,-1,64,11,9000,7.408,,,200,,,,,,,,,,,wg-a,,,,AAXX 19124 07299 12559 82004 10180 20110 39773 40086 58010 60006 8/8// 91200=
07299,1997-06-19 15:00:00,18,1007.3,-1.3,68,12,12000,11.112,,,110,,,,,,,,,,,wg-a,,,,AAXX 19154 07299 12562 71106 10180 20120 39760 40073 57013 60006 8287/ 91500=
07299,1997-06-19 18:00:00,17,1007.1,-0.3,72,12,20000,11.112,,,100,11,18.1,,,,,,,,,wg-a,,,,AAXX 19184 07299 12570 71006 10170 20120 39757 40071 58003 60006 81832 91800 333 10181 20110=
07299,1997-06-19 21:00:00,15,1007.9,0.7,82,12,10000,7.408,,,160,,,,,,,,,,,wg-a,,,,AAXX 19214 07299 12760 71604 10150 20120 39763 40079 53007 60006 8585/ 92100=
07299,1997-06-20 00:00:00,14,1008,-0,82,11,13000,3.704,,,250,,,,,,,,,,0,wg-a,,,,AAXX 20004 07299 02663 /2502 10140 20110 39763 40080 55000 61000 70062 84831 90000 333 6100=
07299,1997-06-20 03:00:00,12,1009.3,1,88,10,10000,22.224,,,260,,,,0,,,,,,21,wg-a,,,,AAXX 20034 07299 12460 72612 10120 20100 39773 40093 53010 60007 72162 8582/ 90300=
07299,1997-06-20 06:00:00,13,1010.8,1.5,77,9,9000,14.816,,,250,11.6,16.7,,,,,,,,15,wg-a,,,,AAXX 20064 07299 02459 72508 10130 20090 39788 40108 52015 60006 71562 86831 90600 333 10167 20116 60004=
07299,1997-06-20 09:00:00,16,1011,0.5,59,8,25000,18.52,,,240,,,,,,,,,,,wg-a,,,,AAXX 20094 07299 12575 72410 10160 20080 39794 40110 51005 60006 86832 90900=
07299,1997-06-20 12:00:00,18,1009.5,-1.1,56,9,50000,11.112,,,260,,,,,,,,,,,wg-a,,,,AAXX 20124 07299 12684 72606 10180 20090 39782 40095 58011 60006 86802 91200=
07299,1997-06-20 15:00:00,21,1007.6,-1.6,49,10,50000,14.816,,,260,,,,,,,,,,,wg-a,,,,AAXX 20154 07299 12684 72608 10210 20100 39766 40076 58016 60006 85832 91500=
07299,1997-06-20 18:00:00,20,1006.8,-0.9,49,9,40000,7.408,,,240,12.4,21.1,,,,,,,,,wg-a,,,,AAXX 20184 07299 12682 72404 10200 20090 39758 40068 56009 60006 84832 91800 333 10211 20124=
07299,1997-06-20 21:00:00,16,1007.3,0.2,72,11,40000,0,,,0,,,,,,,,,,,wg-a,,,,AAXX 20214 07299 12582 80000 10160 20110 39759 40073 53002 60006 8287/ 92100=
07299,1997-06-21 00:00:00,16,1006.2,-1.3,77,12,500,7.408,,,150,,,,,,,,,,,wg-a,,,,AAXX 21004 07299 12500 81504 10160 20120 39747 40062 58013 60006 8487/ 90000=
07299,1997-06-21 03:00:00,16,1004.3,-1.8,72,11,500,3.704,,,220,,,,,,,,,,,wg-a,,,,AAXX 21034 07299 12500 72202 10160 20110 39729 40043 56018 60006 8687/ 90300=
07299,1997-06-21 06:00:00,14,1005.6,1.1,94,13,8000,11.112,,,140,13.8,20.3,,,,,,,,61,wg-a,,,,AAXX 21064 07299 02358 81406 10140 20130 39740 40056 51011 61000 76162 885// 90600 333 10203 20138 6004=
07299,1997-06-21 12:00:00,17,1005.2,0,82,14,9000,11.112,,,250,,,,,,,,,,60,wg-a,,,,AAXX 21124 07299 02559 82506 10170 20140 39739 40052 50000 60026 76062 888// 91200 333 61000=
07299,1997-06-21 18:00:00,13,1006.6,1.1,94,12,9000,11.112,,,180,12.8,16.8,,,,,,,,61,wg-a,,,,AAXX 21184 07299 02459 81806 10130 20120 39748 40066 51011 61000 76166 888// 91800 333 10168 20128 6007=
07299,1997-06-21 21:00:00,12,1007.2,0.5,94,11,8000,11.112,,,120,,,,6,,,,,,61,wg-a,,,,AAXX 21214 07299 12458 81206 10120 20110 39753 40072 53005 60067 76166 8387/ 92100=
07299,1997-06-22 00:00:00,12,1006.6,-0.6,94,11,8000,7.408,,,130,,,,3,,,,,,61,wg-a,,,,AAXX 22004 07299 02458 81304 10120 20110 39747 40066 58006 60096 76162 8387/ 90000 333 60037=
07299,1997-06-22 03:00:00,12,1006.8,0.2,94,11,8000,11.112,,,120,,,,3,,,,,,61,wg-a,,,,AAXX 22034 07299 12458 81206 10120 20110 39749 40068 50002 60037 76162 8387/ 90300=
07299,1997-06-22 06:00:00,11,1007.4,0.5,94,10,18000,7.408,,,140,11.1,12.8,,,,,,,,61,wg-a,,,,AAXX 22064 07299 02468 81404 10110 20100 39754 40074 53005 61000 76162 8687/ 90600 333 10128 20111 6030=
07299,1997-06-22 09:00:00,13,1007.8,0.6,88,11,20000,7.408,,,110,,,,0,,,,,,2,wg-a,,,,AAXX 22094 07299 12470 71104 10130 20110 39760 40078 53006 60007 70262 8687/ 90900=
07299,1997-06-22 12:00:00,17,1006.6,-0.8,59,9,500,3.704,,,180,,,,,,,,,,2,wg-a,,,,AAXX 22124 07299 12500 71802 10170 20090 39752 40066 57008 60006 70262 878// 91200=
07299,1997-06-22 15:00:00,17,1005.6,-0.8,72,12,18000,11.112,,,100,,,,,,,,,,16,wg-a,,,,AAXX 22154 07299 02668 /1006 10170 20120 39743 40056 56008 61000 71686 86901 91500 333 ////=
07299,1997-06-22 18:00:00,17,1007.4,1.7,59,9,25000,14.816,,,220,11.1,19.2,,0,,,,,,2,wg-a,,,,AAXX 22184 07299 02675 /2208 10170 20090 39760 40074 53017 60006 70286 84963 91800 333 10192 20111 60007=
07299,1997-06-22 21:00:00,12,1010,2,88,10,20000,14.816,,,260,,,,1,,,,,,25,wg-a,,,,AAXX 22214 07299 12670 72608 10120 20100 39780 40100 53020 60017 72586 86903 92100=
07299,1997-06-23 00:00:00,11,1009.9,-0.2,94,10,20000,7.408,,,170,,,,1,,,,,,2,wg-a,,,,AAXX 23004 07299 02670 51704 10110 20100 39778 40099 56002 60026 70286 84830 90000 333 60017=
07299,1997-06-23 03:00:00,13,1009.5,-0.2,82,10,11000,14.816,,,240,,,,,,,,,,,wg-a,,,,AAXX 23034 07299 32/61 /2408 10130 20100 39776 40095 58002 90300=
07299,1997-06-23 06:00:00,13,1010.1,0.6,82,10,15000,22.224,,,230,11,17.1,,,,,3,,,3,wg-a,,,,AAXX 23064 07299 02565 72312 10130 20100 39782 40101 53006 60006 70386 878// 90600 333 10171 20110 60034=
07299,1997-06-23 09:00:00,15,1011,1.1,77,11,16000,29.632,,,250,,,,1,,,,,,25,wg-a,,,,AAXX 23094 07299 12566 72516 10150 20110 39793 40110 51011 60017 72586 85902 90900=
07299,1997-06-23 12:00:00,17,1011.8,1.1,63,10,22000,29.632,,,240,,,,,,,,,,1,wg-a,,,,AAXX 23124 07299 12572 72416 10170 20100 39803 40118 51011 60016 70186 86903 91200=
07299,1997-06-23 15:00:00,18,1011.8,0.2,59,10,20000,22.224,,,240,,,,,,,,,,,wg-a,,,,AAXX 23154 07299 12670 72412 10180 20100 39804 40118 53002 60006 84961 91500=
07299,1997-06-23 18:00:00,16,1012.3,0.3,77,12,20000,14.816,,,210,12.3,18.8,,0,,,,,,1,wg-a,,,,AAXX 23184 07299 02670 /2108 10160 20120 39807 40123 50003 60006 70186 84960 91800 333 10188 20123 60007=
07299,1997-06-24 00:00:00,13,1014.8,0.4,94,12,18000,7.408,,,170,,,,1,,,,,,0,wg-a,,,,AAXX 24004 07299 02568 71704 10130 20120 39828 40148 50004 60016 70086 8696/ 90000 333 60017=
07299,1997-06-24 03:00:00,13,1014.9,-0,88,11,18000,7.408,,,220,,,,,,,,,,,wg-a,,,,AAXX 24034 07299 12668 72204 10130 20110 39828 40149 55000 60006 8683/ 90300=
07299,1997-06-24 06:00:00,14,1015.6,0.8,88,12,15000,18.52,,,240,12.5,16.1,,,,,2,,,2,wg-a,,,,AAXX 24064 07299 02565 72410 10140 20120 39836 40156 51008 60006 70286 86832 90600 333 10161 20125 60024=
07299,1997-06-24 09:00:00,14,1016.4,0.8,88,12,13000,7.408,,,240,,,,1,,,,,,25,wg-a,,,,AAXX 24094 07299 12463 72404 10140 20120 39844 40164 51008 60017 72586 8787/ 90900=
07299,1997-06-24 12:00:00,13,1016.7,0.2,94,12,10000,14.816,,,230,,,,3,,,,,,91,wg-a,,,,AAXX 24124 07299 02360 82308 10130 20120 39846 40167 50002 60046 79198 8397/ 91200 333 60037=
07299,1997-06-24 15:00:00,18,1015.5,-0.6,64,11,20000,22.224,,,240,,,,0,,,,,,1,wg-a,,,,AAXX 24154 07299 12570 52412 10180 20110 39840 40155 58006 60007 70186 83372 91500=
07299,1997-06-24 18:00:00,15,1016.3,0.4,82,12,11000,11.112,,,190,11.9,18.1,,,,,,,,,wg-a,,,,AAXX 24184 07299 12/61 /1906 10150 20120 39844 40163 51004 60006 91800 333 10181 20119=
07299,1997-06-24 21:00:00,12,1017.3,0.7,94,11,16000,7.408,,,170,,,,,,,,,,,wg-a,,,,AAXX 24214 07299 12766 /1704 10120 20110 39851 40173 53007 60006 85500 92100=
07299,1997-06-25 00:00:00,10,1017.2,-0.4,93,9,16000,7.408,,,200,,,,,,,,,,,wg-a,,,,AAXX 25004 07299 12766 12004 10100 20090 39847 40172 58004 60006 815/0 90000=
07299,1997-06-25 03:00:00,9,1015.8,-1.4,93,8,16000,3.704,,,140,,,,0,,,,,,,wg-a,,,,AAXX 25034 07299 12766 31402 10090 20080 39833 40158 56014 60007 81531 90300=
07299,1997-06-25 06:00:00,11,1014.7,-0.9,87,9,7000,7.408,,,130,8.6,15.2,,,,,4,,,,wg-a,,,,AAXX 25064 07299 02657 71304 10110 20090 39824 40147 57009 60006 81502 90600 333 10152 20086 60044=
07299,1997-06-25 09:00:00,16,1012.5,-1.6,63,9,15000,3.704,,,110,,,,,,,,,,,wg-a,,,,AAXX 25094 07299 12565 71102 10160 20090 39808 40125 56016 60006 83202 90900=
07299,1997-06-25 12:00:00,18,1010.4,-1.8,49,7,25000,3.704,,,130,,,,,,,,,,,wg-a,,,,AAXX 25124 07299 12675 71302 10180 20070 39790 40104 57018 60006 84802 91200=
07299,1997-06-25 15:00:00,18,1008.5,-1.8,56,9,25000,7.408,,,300,,,,,,,,,,,wg-a,,,,AAXX 25154 07299 12675 73004 10180 20090 39772 40085 56018 60006 85832 91500=
07299,1997-06-25 18:00:00,16,1006.9,-1.7,77,12,25000,3.704,,,230,10.9,18.8,,0,,,,,,1,wg-a,,,,AAXX 25184 07299 02575 82302 10160 20120 39755 40069 56017 60006 70186 8183/ 91800 333 10188 20109 60007=
07299,1997-06-25 21:00:00,15,1005.8,-1.2,82,12,18000,7.408,,,110,,,,,,,,,,,wg-a,,,,AAXX 25214 07299 12668 81104 10150 20120 39743 40058 57012 60006 8357/ 92100=
07299,1997-06-26 00:00:00,13,1004.6,-1.5,94,12,12000,7.408,,,100,,,,2,,,,,,60,wg-a,,,,AAXX 26004 07299 02462 81004 10130 20120 39729 40046 58015 60026 76062 8587/ 90000 333 60027=
07299,1997-06-26 03:00:00,13,1002.1,-2.4,94,12,12000,3.704,,,150,,,,0,,,,,,60,wg-a,,,,AAXX 26034 07299 12462 81502 10130 20120 39705 40021 57024 60007 76066 878// 90300=
07299,1997-06-26 06:00:00,14,1000.5,-1.5,88,12,7000,7.408,,,120,12.9,16.2,,,,,3,,,15,wg-a,,,,AAXX 26064 07299 02457 81204 10140 20120 39690 40005 56015 60006 71562 878// 90600 333 10162 20129 60034=
07299,1997-06-26 12:00:00,15,1000.3,-1,88,13,12000,7.408,,,80,,,,1,,,,,,21,wg-a,,,,AAXX 26124 07299 02462 70804 10150 20130 39690 40003 58010 60066 72186 8587/ 91200 333 60017=
07299,1997-06-26 15:00:00,17,998.4,-1.6,82,14,500,7.408,,,30,,,,5,,,,,,16,wg-a,,,,AAXX 26154 07299 12300 /0304 10170 20140 39674 49984 56016 60057 71698 86900 91500=
07299,1997-06-26 18:00:00,16,997.9,-0.8,88,14,7000,0,,,0,13.3,18.2,,,,,,,,17,wg-a,,,,AAXX 26184 07299 02457 70000 10160 20140 39667 49979 56008 61000 71798 87900 91800 333 10182 20133 6003=
07299,1997-06-26 21:00:00,13,999.6,1.4,94,12,8000,3.704,,,220,,,,0,,,,,,29,wg-a,,,,AAXX 26214 07299 12458 82202 10130 20120 39681 49996 53014 60007 72998 879// 92100=
07299,1997-06-27 00:00:00,12,999.3,-0.4,94,11,10000,3.704,,,110,,,,0,,,,,,2,wg-a,,,,AAXX 27004 07299 02660 71102 10120 20110 39677 49993 55004 60016 70298 878// 90000 333 60007=
07299,1997-06-27 03:00:00,12,999,-0.3,94,11,7000,3.704,,,140,,,,2,,,,,,21,wg-a,,,,AAXX 27034 07299 12557 71402 10120 20110 39674 49990 58003 60027 72162 8687/ 90300=
07299,1997-06-27 06:00:00,13,999.8,1,94,12,11000,0,,,0,11.7,16.2,,,,,17,,,,wg-a,,,,AAXX 27064 07299 02/61 /0000 10130 20120 39683 49998 51010 60006 90600 333 10162 20117 60174=
07299,1997-06-27 09:00:00,14,1001.1,1.2,82,11,15000,3.704,,,150,,,,0,,,,,,3,wg-a,,,,AAXX 27094 07299 12265 81502 10140 20110 39696 40011 51012 60007 70386 878// 90900=
07299,1997-06-27 12:00:00,17,1000.9,0.2,59,9,25000,11.112,,,140,,,,,,,,,,1,wg-a,,,,AAXX 27124 07299 12475 71406 10170 20090 39697 40009 53002 60006 70186 8683/ 91200=
07299,1997-06-27 18:00:00,17,1001.9,1.2,68,11,35000,11.112,,,100,12.7,19.6,,,,,,,,,wg-a,,,,AAXX 27184 07299 12581 /1006 10170 20110 39708 40019 53012 60006 86830 91800 333 10196 20127=
07299,1997-06-28 00:00:00,14,1006.2,1.5,88,12,20000,3.704,,,190,,,,,,,,,,,wg-a,,,,AAXX 28004 07299 12670 71902 10140 20120 39745 40062 53015 60006 878// 90000=
07299,1997-06-28 06:00:00,15,1008.4,1.1,82,12,35000,3.704,,,150,12.6,17.3,,,,,,,,,wg-a,,,,AAXX 28064 07299 02481 71502 10150 20120 39768 40084 53011 60006 878// 90600 333 10173 20126 60004=
07299,1997-06-28 09:00:00,17,1008.8,0.7,63,10,60000,3.704,,,300,,,,,,,,,,,wg-a,,,,AAXX 28094 07299 12586 73002 10170 20100 39774 40088 51007 60006 86802 90900=
07299,1997-06-28 12:00:00,21,1008.4,-0.1,56,12,60000,3.704,,,330,,,,,,,,,,,wg-a,,,,AAXX 28124 07299 12686 73302 10210 20120 39774 40084 57001 60006 81832 91200=
07299,1997-06-28 15:00:00,23,1007.8,-0.4,47,11,55000,3.704,,,40,,,,,,,,,,,wg-a,,,,AAXX 28154 07299 12685 70402 10230 20110 39770 40078 56004 60006 81135 91500=
07299,1997-06-28 18:00:00,20,1007.7,-0.4,68,14,55000,7.408,,,10,14.9,23.4,,,,,,,,,wg-a,,,,AAXX 28184 07299 12585 70104 10200 20140 39766 40077 56004 60006 8117/ 91800 333 10234 20149=
07299,1997-06-28 21:00:00,17,1007.9,0.1,82,14,20000,3.704,,,330,,,,,,,,,,,wg-a,,,,AAXX 28214 07299 12770 73302 10170 20140 39766 40079 50001 60006 8157/ 92100=
07299,1997-06-29 00:00:00,15,1005.4,-2.6,88,13,20000,7.408,,,320,,,,,,,,,,,wg-a,,,,AAXX 29004 07299 12770 73204 10150 20130 39739 40054 57026 60006 8157/ 90000=
07299,1997-06-29 03:00:00,14,1002.5,-2.9,94,13,9000,7.408,,,300,,,,,,,,,,,wg-a,,,,AAXX 29034 07299 12559 73004 10140 20130 39710 40025 56029 60006 8283/ 90300=
07299,1997-06-29 06:00:00,16,1003.6,1.3,88,14,13000,0,,,0,13.9,19.4,,,,,,,,,wg-a,,,,AAXX 29064 07299 02563 70000 10160 20140 39723 40036 52013 60006 85832 90600 333 10194 20139 60004=
07299,1997-06-29 09:00:00,19,1003,-0.5,78,15,18000,3.704,,,210,,,,,,,,,,60,wg-a,,,,AAXX 29094 07299 02568 72102 10190 20150 39720 40030 56005 61000 76062 8487/ 90900 333 ////=
07299,1997-06-29 12:00:00,17,1004.1,1.1,94,16,6000,11.112,,,240,,,,2,,,,,,61,wg-a,,,,AAXX 29124 07299 02556 82406 10170 20160 39729 40041 51011 60026 76162 8587/ 91200 333 60027=
07299,1997-06-29 15:00:00,18,1003.8,-0.2,88,16,15000,7.408,,,340,,,,1,,,,,,3,wg-a,,,,AAXX 29154 07299 12365 73404 10180 20160 39727 40038 56002 60017 70362 8587/ 91500=
07299,1997-06-29 18:00:00,19,1001.6,-2,68,13,20000,7.408,,,20,16,19.6,,0,,,,,,3,wg-a,,,,AAXX 29184 07299 02470 60204 10190 20130 39707 40016 56020 60006 70361 8583/ 91800 333 10196 20160 60007=
07299,1997-06-29 21:00:00,13,1005.7,3.3,88,11,2500,35.188,,,250,,,,6,,,,,,95,wg-a,,,,AAXX 29214 07299 12425 82519 10130 20110 39739 40057 53033 60067 79598 879// 92100=
07299,1997-06-30 00:00:00,13,1006.2,0.4,94,12,15000,7.408,,,120,,,,7,,,,,,60,wg-a,,,,AAXX 30004 07299 02465 81204 10130 20120 39744 40062 50004 60136 76098 888// 90000 333 60077=
07299,1997-06-30 03:00:00,12,1005.1,-1.1,94,11,15000,7.408,,,110,,,,1,,,,,,21,wg-a,,,,AAXX 30034 07299 12365 71104 10120 20110 39733 40051 56011 60017 72162 86801 90300=
07299,1997-06-30 06:00:00,14,1005.7,0.8,88,12,13000,3.704,,,110,12.2,19.1,,,,,17,,,3,wg-a,,,,AAXX 30064 07299 02363 81102 10140 20120 39740 40057 53008 60006 70362 878// 90600 333 10191 20122 60174=
07299,1997-06-30 09:00:00,15,1006.5,0.9,82,12,25000,7.408,,,170,,,,1,,,,,,21,wg-a,,,,AAXX 30094 07299 12575 81704 10150 20120 39750 40065 51009 60017 72162 8687/ 90900=
07299,1997-06-30 12:00:00,17,1006.9,0.4,63,10,18000,14.816,,,200,,,,,,,,,,3,wg-a,,,,AAXX 30124 07299 12568 72008 10170 20100 39755 40069 52004 60016 70362 873// 91200=
07299,1997-06-30 15:00:00,19,1005.8,-0.9,60,11,35000,7.408,,,160,,,,0,,,,,,3,wg-a,,,,AAXX 30154 07299 12681 71604 10190 20110 39747 40058 56009 60007 70386 85802 91500=
07299,1997-06-30 18:00:00,15,1007.6,1.4,72,10,40000,18.52,,,240,12.9,19.9,,,,,,,,80,wg-a,,,,AAXX 30184 07299 02582 /2410 10150 20100 39760 40076 51014 61000 78086 8394/ 91800 333 10199 20129 6100=
07299,1997-06-30 21:00:00,13,1009,1.2,88,11,20000,3.704,,,130,,,,,,,,,,,wg-a,,,,AAXX 30214 07299 12570 61302 10130 20110 39772 40090 53012 60006 84842 92100=
07299,1997-07-01 00:00:00,14,1009.9,0.9,72,9,20000,11.112,,,210,,,,,,,,,,,wg-a,,,,AAXX 01004 07299 12770 62106 10140 20090 39781 40099 51009 60006 84530 90000=
07299,1997-07-01 03:00:00,13,1010.7,0.7,88,11,20000,7.408,,,180,,,,,,,,,,,wg-a,,,,AAXX 01034 07299 12570 71804 10130 20110 39788 40107 52007 60006 8583/ 90300=
07299,1997-07-01 06:00:00,15,1011.3,0.9,77,11,20000,3.704,,,150,11.9,15.7,,,,,1,,,,wg-a,,,,AAXX 01064 07299 02570 71502 10150 20110 39796 40113 51009 60006 83831 90600 333 10157 20119 60014=
07299,1997-07-01 12:00:00,19,1012.1,0.2,56,10,25000,18.52,,,270,,,,0,,,,,,1,wg-a,,,,AAXX 01124 07299 02675 /2710 10190 20100 39808 40121 50002 60006 70186 84800 91200 333 60007=
07299,1997-07-01 15:00:00,22,1010.8,-1,46,10,35000,18.52,,,270,,,,,,,,,,,wg-a,,,,AAXX 01154 07299 12681 /2710 10220 20100 39798 40108 58010 60006 81300 91500=
07299,1997-07-01 18:00:00,20,1011.3,0.3,53,10,40000,7.408,,,290,14.7,22,,,,,,,,,wg-a,,,,AAXX 01184 07299 12682 /2904 10200 20100 39801 40113 53003 60006 82861 91800 333 10220 20147=
07299,1997-07-01 21:00:00,15,1013.3,1.4,82,12,40000,3.704,,,180,,,,,,,,,,,wg-a,,,,AAXX 01214 07299 12782 31802 10150 20120 39815 40133 52014 60006 81531 92100=
07299,1997-07-02 00:00:00,13,1013.8,0.3,88,11,15000,11.112,,,160,,,,,,,,,,,wg-a,,,,AAXX 02004 07299 12765 61606 10130 20110 39818 40138 51003 60006 8553/ 90000=
07299,1997-07-02 03:00:00,12,1013.6,-0.4,88,10,15000,14.816,,,170,,,,,,,,,,,wg-a,,,,AAXX 02034 07299 12/65 21708 10120 20100 39815 40136 57004 60006 81031 90300=
07299,1997-07-02 06:00:00,15,1012.8,-0.4,77,11,20000,7.408,,,130,11.1,20.1,,,,,,,,,wg-a,,,,AAXX 02064 07299 02/70 61304 10150 20110 39810 40128 58004 60006 81031 90600 333 10201 20111 60004=
07299,1997-07-02 09:00:00,22,1011.2,-0.9,53,12,500,11.112,,,110,,,,,,,,,,,wg-a,,,,AAXX 02094 07299 12600 41106 10220 20120 39802 40112 58009 60006 81152 90900=
07299,1997-07-02 12:00:00,21,1010.4,-0.7,60,13,500,3.704,,,100,,,,,,,,,,60,wg-a,,,,AAXX 02124 07299 02600 71002 10210 20130 39794 40104 58007 61000 76061 8117/ 91200 333 6100=
07299,1997-07-02 15:00:00,20,1009.2,-1.3,73,15,25000,3.704,,,320,,,,,,,,,,3,wg-a,,,,AAXX 02154 07299 02575 73202 10200 20150 39781 40092 58013 61000 70362 8687/ 91500 333 ////=
07299,1997-07-02 18:00:00,17,1012.2,2.6,88,15,9000,3.704,,,20,15,23.2,,,,,,,,60,wg-a,,,,AAXX 02184 07299 02459 80202 10170 20150 39807 40122 53026 61000 76086 878// 91800 333 10232 20150 6001=
07299,1997-07-02 21:00:00,16,1014.6,2.2,88,14,7000,7.408,,,210,,,,2,,,,,,61,wg-a,,,,AAXX 02214 07299 12457 82104 10160 20140 39829 40146 51022 60027 76162 878// 92100=
07299,1997-07-03 00:00:00,15,1014.6,-0.1,88,13,12000,0,,,0,,,,0,,,,,,60,wg-a,,,,AAXX 03004 07299 02462 80000 10150 20130 39828 40146 58001 60026 76086 878// 90000 333 60007=
07299,1997-07-03 03:00:00,15,1014.8,0.2,94,14,3500,3.704,,,300,,,,0,,,,,,10,wg-a,,,,AAXX 03034 07299 12135 83002 10150 20140 39830 40148 51002 60007 71062 878// 90300=
07299,1997-07-03 06:00:00,14,1015.7,0.7,94,13,6000,7.408,,,280,14,16.6,,,,,,,,61,wg-a,,,,AAXX 03064 07299 02256 82804 10140 20130 39838 40157 53007 61000 76165 888// 90600 333 10166 20140 6005=
07299,1997-07-03 12:00:00,18,1016,0.3,77,14,20000,3.704,,,290,,,,,,,,,,1,wg-a,,,,AAXX 03124 07299 12570 72902 10180 20140 39845 40160 50003 60016 70162 8683/ 91200=
07299,1997-07-03 15:00:00,18,1016.4,0.4,77,14,500,14.816,,,290,,,,,,,,,,,wg-a,,,,AAXX 03154 07299 12500 72908 10180 20140 39849 40164 53004 60006 8683/ 91500=
07299,1997-07-03 18:00:00,15,1018,1.2,88,13,500,7.408,,,260,13.3,18.9,,,,,,,,80,wg-a,,,,AAXX 03184 07299 02400 72604 10150 20130 39861 40180 53012 61000 78086 878// 91800 333 10189 20133 6000=
07299,1997-07-03 21:00:00,14,1019,0.9,94,13,15000,3.704,,,140,,,,2,,,,,,61,wg-a,,,,AAXX 03214 07299 12465 71402 10140 20130 39870 40190 53009 60027 76186 878// 92100=
07299,1997-07-04 00:00:00,14,1019.6,0.5,94,13,8000,3.704,,,90,,,,1,,,,,,60,wg-a,,,,AAXX 04004 07299 02258 80902 10140 20130 39875 40196 52005 60036 76086 875// 90000 333 60017=
07299,1997-07-04 06:00:00,14,1019.1,0.1,94,13,6000,3.704,,,130,13.3,15.3,,,,,4,,,3,wg-a,,,,AAXX 04064 07299 02256 71302 10140 20130 39871 40191 50001 60006 70362 875// 90600 333 10153 20133 60044=
07299,1997-07-04 09:00:00,18,1018.8,0.3,64,11,12000,3.704,,,130,,,,,,,,,,,wg-a,,,,AAXX 04094 07299 12262 71302 10180 20110 39872 40188 51003 60006 8583/ 90900=
07299,1997-07-04 12:00:00,16,1020.2,1,77,12,7000,7.408,,,280,,,,1,,,,,,17,wg-a,,,,AAXX 04124 07299 02557 72804 10160 20120 39883 40202 53010 60016 71798 85970 91200 333 60017=
07299,1997-07-04 15:00:00,19,1018.7,-1.1,64,12,15000,7.408,,,190,,,,,,,,,,25,wg-a,,,,AAXX 04154 07299 02565 71904 10190 20120 39872 40187 58011 61000 72598 85931 91500 333 ////=
07299,1997-07-04 18:00:00,18,1018.9,0.1,73,13,15000,7.408,,,100,13.9,19.9,,,,,,,,3,wg-a,,,,AAXX 04184 07299 12565 71004 10180 20130 39873 40189 51001 60006 70398 84371 91800 333 10199 20139=
07299,1997-07-04 21:00:00,16,1019.5,0.3,88,14,15000,3.704,,,70,,,,0,,,,,,25,wg-a,,,,AAXX 04214 07299 12565 70702 10160 20140 39877 40195 53003 60007 72586 8437/ 92100=
07299,1997-07-05 00:00:00,15,1019.4,-0.3,88,13,12000,3.704,,,100,,,,,,,,,,0,wg-a,,,,AAXX 05004 07299 12562 71002 10150 20130 39874 40194 58003 60006 70086 878// 90000=
07299,1997-07-05 06:00:00,13,1019,0.4,94,12,4500,7.408,,,250,13.2,18.2,,,,,,,,61,wg-a,,,,AAXX 05064 07299 02445 72504 10130 20120 39869 40190 53004 61000 76162 878// 90600 333 10182 20132 6004=
07299,1997-07-05 09:00:00,14,1019.7,0.8,94,13,4500,7.408,,,300,,,,7,,,,,,61,wg-a,,,,AAXX 05094 07299 12245 83004 10140 20130 39877 40197 51008 60077 76186 878// 90900=
07299,1997-07-05 12:00:00,16,1019.6,0.1,88,14,6000,11.112,,,260,,,,0,,,,,,17,wg-a,,,,AAXX 05124 07299 02356 82606 10160 20140 39878 40196 52001 60076 71798 873// 91200 333 60007=
07299,1997-07-05 15:00:00,16,1020.6,0.8,88,14,3500,7.408,,,190,,,,11,,,,,,80,wg-a,,,,AAXX 05154 07299 12435 81904 10160 20140 39887 40206 51008 60117 78098 879// 91500=
07299,1997-07-05 18:00:00,13,1022.2,1.4,100,13,4500,3.704,,,240,13.1,17.1,,,,,,,,81,wg-a,,,,AAXX 05184 07299 02245 82402 10130 20130 39900 40222 53014 61000 78198 879// 91800 333 10171 20131 6031=
07299,1997-07-05 21:00:00,12,1024.4,1.9,94,11,9000,0,,,0,,,,2,,,,,,2,wg-a,,,,AAXX 05214 07299 12459 70000 10120 20110 39919 40244 51019 60027 70298 8693/ 92100=
07299,1997-07-06 00:00:00,12,1025.1,0.8,100,12,15000,3.704,,,30,,,,,,,,,,2,wg-a,,,,AAXX 06004 07299 12665 70302 10120 20120 39927 40251 51008 60026 70298 868// 90000=
07299,1997-07-06 03:00:00,13,1025.3,0.2,94,12,10000,0,,,0,,,,,,,,,,,wg-a,,,,AAXX 06034 07299 12560 70000 10130 20120 39929 40253 53002 60006 875// 90300=
07299,1997-07-06 06:00:00,14,1026,0.8,94,13,8000,3.704,,,170,11.9,13.6,,,,,51,,,,wg-a,,,,AAXX 06064 07299 02358 71702 10140 20130 39937 40260 53008 60006 8783/ 90600 333 10136 20119 60514=
07299,1997-07-06 09:00:00,16,1026.1,0.5,82,13,13000,7.408,,,260,,,,,,,,,,,wg-a,,,,AAXX 06094 07299 12463 72604 10160 20130 39941 40261 51005 60006 8583/ 90900=
07299,1997-07-06 12:00:00,17,1025.8,-0.2,77,13,9000,0,,,0,,,,1,,,,,,17,wg-a,,,,AAXX 06124 07299 02559 70000 10170 20130 39939 40258 58002 60016 71796 878// 91200 333 60017=
07299,1997-07-06 18:00:00,15,1026.4,0.4,88,13,3500,3.704,,,80,13.6,17.7,,,,,,,,80,wg-a,,,,AAXX 06184 07299 02235 80802 10150 20130 39942 40264 53004 61000 78098 879// 91800 333 10177 20136 6001=
07299,1997-07-06 21:00:00,13,1027.2,0.6,94,12,500,0,,,0,,,,,,,,,,11,wg-a,,,,AAXX 06214 07299 02200 60000 10130 20120 39948 40272 53006 61000 71186 86300 92100 333 ////=
07299,1997-07-07 00:00:00,12,1027.1,-0.3,94,11,700,0,,,0,,,,0,,,,,,41,wg-a,,,,AAXX 07004 07299 02007 70000 10120 20110 39945 40271 58003 60006 74186 878// 90000 333 60007=
07299,1997-07-07 03:00:00,11,1026.5,-0.6,100,11,300,3.704,,,330,,,,,,,,,,42,wg-a,,,,AAXX 07034 07299 12003 73302 10110 20110 39939 40265 56006 60006 74244 876// 90300=
07299,1997-07-07 06:00:00,12,1026.9,0.5,100,12,3400,0,,,0,10.9,14.6,,,,,4,,,10,wg-a,,,,AAXX 07064 07299 02034 70000 10120 20120 39944 40269 51005 60006 71042 878// 90600 333 10146 20109 60044=
07299,1997-07-07 09:00:00,16,1026,-0.4,77,12,6000,7.408,,,320,,,,,,,,,,,wg-a,,,,AAXX 07094 07299 12/56 /3204 10160 20120 39940 40260 58004 60006 90900=
07299,1997-07-07 12:00:00,20,1024.9,-0.7,56,11,20000,11.112,,,340,,,,,,,,,,,wg-a,,,,AAXX 07124 07299 12570 43406 10200 20110 39933 40249 56007 60006 82831 91200=
07299,1997-07-07 15:00:00,22,1023.5,-1.2,50,11,500,14.816,,,360,,,,,,,,,,,wg-a,,,,AAXX 07154 07299 12600 23608 10220 20110 39921 40235 58012 60006 81832 91500=
07299,1997-07-07 18:00:00,20,1023.3,-0.3,56,11,500,11.112,,,340,12.3,21.5,,,,,,,,,wg-a,,,,AAXX 07184 07299 12600 23406 10200 20110 39918 40233 56003 60006 82832 91800 333 10215 20123=
07299,1997-07-07 21:00:00,15,1024.3,0.3,82,12,15000,0,,,0,,,,,,,,,,,wg-a,,,,AAXX 07214 07299 12765 /0000 10150 20120 39922 40243 52003 60006 81500 92100=
07299,1997-07-08 00:00:00,12,1024.1,-0.5,94,11,4500,3.704,,,280,,,,,,,,,,10,wg-a,,,,AAXX 08004 07299 12745 52802 10120 20110 39917 40241 58005 60006 71011 85510 90000=
07299,1997-07-08 06:00:00,13,1023.2,0.1,94,12,4000,3.704,,,50,9.7,20,,,,,,,,10,wg-a,,,,AAXX 08064 07299 02740 30502 10130 20120 39909 40232 53001 60006 71011 81531 90600 333 10200 20097 60004=
07299,1997-07-08 09:00:00,19,1021.8,-0.7,73,14,9000,11.112,,,340,,,,,,,,,,,wg-a,,,,AAXX 08094 07299 12/59 /3406 10190 20140 39902 40218 58007 60006 90900=
07299,1997-07-08 12:00:00,22,1020.2,-1.2,60,14,18000,18.52,,,360,,,,,,,,,,,wg-a,,,,AAXX 08124 07299 12668 53610 10220 20140 39890 40202 56012 60006 84831 91200=
07299,1997-07-08 15:00:00,24,1018.7,-1.3,57,15,18000,18.52,,,10,,,,,,,,,,,wg-a,,,,AAXX 08154 07299 12668 40110 10240 20150 39877 40187 58013 60006 83831 91500=
07299,1997-07-08 18:00:00,23,1017.8,-1,57,14,500,11.112,,,360,13.2,24.1,,,,,,,,,wg-a,,,,AAXX 08184 07299 12600 23606 10230 20140 39867 40178 56010 60006 81801 91800 333 10241 20132=
07299,1997-07-08 21:00:00,18,1018.5,0.2,73,13,25000,14.816,,,350,,,,,,,,,,,wg-a,,,,AAXX 08214 07299 12675 /3508 10180 20130 39869 40185 53002 60006 81801 92100=
07299,1997-07-09 00:00:00,14,1019.2,0.1,88,12,20000,11.112,,,300,,,,,,,,,,,wg-a,,,,AAXX 09004 07299 12770 13006 10140 20120 39871 40192 50001 60006 815/1 90000=
07299,1997-07-09 03:00:00,12,1018.2,-1.1,94,11,10000,7.408,,,300,,,,,,,,,,,wg-a,,,,AAXX 09034 07299 12/60 13004 10120 20110 39859 40182 58011 60006 80001 90300=
07299,1997-07-09 06:00:00,13,1018,-0.1,94,12,1500,3.704,,,300,11.2,22.5,,,,,,,,10,wg-a,,,,AAXX 09064 07299 02115 73002 10130 20120 39858 40180 55001 60006 71011 876// 90600 333 10225 20112 60004=
07299,1997-07-09 12:00:00,23,1014.7,-1.3,65,16,20000,7.408,,,340,,,,,,,,,,,wg-a,,,,AAXX 09124 07299 12570 33404 10230 20160 39838 40147 58013 60006 81101 91200=
07299,1997-07-09 15:00:00,25,1012.8,-1.7,57,16,25000,18.52,,,350,,,,,,,,,,,wg-a,,,,AAXX 09154 07299 12675 33510 10250 20160 39821 40128 57017 60006 82201 91500=
07299,1997-07-09 18:00:00,24,1012.5,-0.4,57,15,25000,18.52,,,350,12.6,24.9,,,,,,,,,wg-a,,,,AAXX 09184 07299 12675 33510 10240 20150 39817 40125 56004 60006 82262 91800 333 10249 20126=
07299,1997-07-10 00:00:00,16,1014.5,0.2,88,14,20000,3.704,,,240,,,,,,,,,,,wg-a,,,,AAXX 10004 07299 12/70 02402 10160 20140 39828 40145 52002 60006 80000 90000=
07299,1997-07-10 03:00:00,13,1014.4,-0.4,94,12,20000,3.704,,,240,,,,,,,,,,,wg-a,,,,AAXX 10034 07299 12770 12402 10130 20120 39824 40144 57004 60006 81500 90300=
07299,1997-07-10 06:00:00,15,1013.9,-0.2,88,13,6000,3.704,,,280,12.3,23.4,,,,,,,,,wg-a,,,,AAXX 10064 07299 02556 /2802 10150 20130 39822 40139 56002 60006 81801 90600 333 10234 20123 60004=
07299,1997-07-10 09:00:00,21,1012.5,-0.7,64,14,15000,3.704,,,50,,,,,,,,,,,wg-a,,,,AAXX 10094 07299 12765 /0502 10210 20140 39815 40125 58007 60006 81101 90900=
07299,1997-07-10 12:00:00,25,1010.8,-1.3,57,16,20000,11.112,,,340,,,,,,,,,,,wg-a,,,,AAXX 10124 07299 12770 33406 10250 20160 39802 40108 58013 60006 82903 91200=
07299,1997-07-10 15:00:00,25,1010.7,-0.2,54,15,20000,7.408,,,330,,,,,,,,,,,wg-a,,,,AAXX 10154 07299 12770 43304 10250 20150 39801 40107 55002 60006 82963 91500=
07299,1997-07-10 18:00:00,24,1011.2,0.3,54,14,25000,7.408,,,110,15.4,26.2,,,,,,,,,wg-a,,,,AAXX 10184 07299 12775 31104 10240 20140 39804 40112 53003 60006 82961 91800 333 10262 20154=
07299,1997-07-11 00:00:00,17,1013.3,0,82,14,15000,7.408,,,140,,,,,,,,,,,wg-a,,,,AAXX 11004 07299 12/65 01404 10170 20140 39817 40133 50000 60006 80000 90000=
07299,1997-07-11 03:00:00,14,1013.7,0.1,94,13,10000,7.408,,,180,,,,,,,,,,,wg-a,,,,AAXX 11034 07299 12660 /1804 10140 20130 39818 40137 53001 60006 81130 90300=
07299,1997-07-11 06:00:00,16,1014.2,0.6,88,14,9000,7.408,,,120,13.4,23.6,,,,,,,,,wg-a,,,,AAXX 11064 07299 02/59 21204 10160 20140 39825 40142 51006 60006 82080 90600 333 10236 20134 60004=
07299,1997-07-11 12:00:00,26,1012.8,-0.3,51,15,8000,3.704,,,30,,,,,,,,,,15,wg-a,,,,AAXX 11124 07299 12558 50302 10260 20150 39822 40128 55003 60006 71511 84980 91200=
07299,1997-07-11 15:00:00,24,1013.1,0.1,54,14,12000,7.408,,,220,,,,0,,,,,,1,wg-a,,,,AAXX 11154 07299 12662 52204 10240 20140 39823 40131 50001 60007 70186 85900 91500=
07299,1997-07-11 18:00:00,22,1013.3,0.2,73,17,20000,3.704,,,330,16,26,,,,,,,,2,wg-a,,,,AAXX 11184 07299 12670 /3302 10220 20170 39824 40133 53002 60006 70286 85980 91800 333 10260 20160=
07299,1997-07-11 21:00:00,20,1015,1.3,83,17,25000,0,,,0,,,,,,,,,,,wg-a,,,,AAXX 11214 07299 12775 70000 10200 20170 39837 40150 51013 60006 879// 92100=
07299,1997-07-12 00:00:00,17,1015.5,0.3,88,15,15000,3.704,,,100,,,,,,,,,,,wg-a,,,,AAXX 12004 07299 12765 11002 10170 20150 39840 40155 50003 60006 815/0 90000=
07299,1997-07-12 03:00:00,15,1016.3,0.5,94,14,12000,7.408,,,150,,,,,,,,,,,wg-a,,,,AAXX 12034 07299 12/62 11504 10150 20140 39845 40163 52005 60006 81030 90300=
07299,1997-07-12 06:00:00,17,1016.5,0.5,88,15,7000,11.112,,,140,14.6,22.1,,,,,,,,,wg-a,,,,AAXX 12064 07299 02/57 /1406 10170 20150 39849 40165 51005 60006 80001 90600 333 10221 20146 60004=
07299,1997-07-12 09:00:00,23,1015.8,-0.1,69,17,18000,3.704,,,270,,,,,,,,,,,wg-a,,,,AAXX 12094 07299 12568 /2702 10230 20170 39849 40158 58001 60006 81151 90900=
07299,1997-07-12 12:00:00,26,1014.7,-0.8,51,15,22000,0,,,0,,,,,,,,,,,wg-a,,,,AAXX 12124 07299 12672 50000 10260 20150 39841 40147 58008 60006 83931 91200=
07299,1997-07-12 15:00:00,25,1014.5,-0.3,54,15,500,7.408,,,280,,,,,,,,,,,wg-a,,,,AAXX 12154 07299 12600 72804 10250 20150 39838 40145 56003 60006 81232 91500=
07299,1997-07-12 18:00:00,26,1014.5,0.1,45,13,18000,3.704,,,50,17.2,26.9,,,,,,,,,wg-a,,,,AAXX 12184 07299 12768 50502 10260 20130 39839 40145 53001 60006 81232 91800 333 10269 20172=
07299,1997-07-12 21:00:00,19,1016.3,1,83,16,15000,3.704,,,60,,,,,,,,,,,wg-a,,,,AAXX 12214 07299 12765 30602 10190 20160 39849 40163 53010 60006 82201 92100=
07299,1997-07-13 00:00:00,17,1016.7,0.1,88,15,0,7.408,,,160,,,,,,,,,,,wg-a,,,,AAXX 13004 07299 12/// /1604 10170 20150 39850 40167 50001 60006 90000=
07299,1997-07-13 03:00:00,15,1017.2,0.3,88,13,10000,11.112,,,180,,,,,,,,,,,wg-a,,,,AAXX 13034 07299 12/60 /1806 10150 20130 39853 40172 52003 60006 90300=
07299,1997-07-13 06:00:00,17,1017.6,0.7,82,14,15000,7.408,,,160,14,26.4,,,,,,,,,wg-a,,,,AAXX 13064 07299 02/65 01604 10170 20140 39860 40176 51007 60006 80000 90600 333 10264 20140 60004=
07299,1997-07-13 09:00:00,24,1016.9,-0,61,16,15000,3.704,,,140,,,,,,,,,,,wg-a,,,,AAXX 13094 07299 12665 61402 10240 20160 39860 40169 54000 60006 81104 90900=
07299,1997-07-13 12:00:00,27,1015.8,-0.7,48,15,20000,7.408,,,290,,,,,,,,,,,wg-a,,,,AAXX 13124 07299 12670 72904 10270 20150 39853 40158 56007 60006 83232 91200=
07299,1997-07-13 15:00:00,28,1015.1,-0.6,48,16,500,11.112,,,270,,,,,,,,,,,wg-a,,,,AAXX 13154 07299 12600 72706 10280 20160 39847 40151 57006 60006 84332 91500=
07299,1997-07-13 18:00:00,26,1015.6,0.2,61,18,20000,11.112,,,310,17.6,28.4,,,,,,,,,wg-a,,,,AAXX 13184 07299 12770 73106 10260 20180 39849 40156 53002 60006 82932 91800 333 10284 20176=
07299,1997-07-13 21:00:00,20,1017.6,1.4,83,17,15000,3.704,,,310,,,,,,,,,,13,wg-a,,,,AAXX 13214 07299 12665 73102 10200 20170 39863 40176 51014 60006 71322 81932 92100=
07299,1997-07-14 00:00:00,17,1018,0.1,94,16,12000,0,,,0,,,,,,,,,,,wg-a,,,,AAXX 14004 07299 12662 70000 10170 20160 39864 40180 50001 60006 81101 90000=
07299,1997-07-14 03:00:00,16,1018.4,0.2,94,15,8000,3.704,,,220,,,,0,,,,,,,wg-a,,,,AAXX 14034 07299 12558 /2202 10160 20150 39866 40184 53002 60007 81101 90300=
07299,1997-07-14 06:00:00,18,1018.5,0.4,88,16,9000,7.408,,,170,14.9,25.3,,,,,,,,,wg-a,,,,AAXX 14064 07299 02559 71704 10180 20160 39870 40185 53004 60006 81191 90600 333 10253 20149 60004=
07299,1997-07-14 09:00:00,20,1019.7,1.1,83,17,6000,18.52,,,250,,,,,,,,,,80,wg-a,,,,AAXX 14094 07299 02556 82510 10200 20170 39883 40197 53011 61000 78086 83382 90900 333 ////=
07299,1997-07-14 12:00:00,22,1018.5,-0.9,69,16,10000,11.112,,,160,,,,1,,,,,,1,wg-a,,,,AAXX 14124 07299 02560 71606 10220 20160 39874 40185 55009 60016 70198 82282 91200 333 60017=
07299,1997-07-14 15:00:00,22,1019.1,0.6,73,17,14000,22.224,,,240,,,,,,,,,,,wg-a,,,,AAXX 14154 07299 12564 72412 10220 20170 39880 40191 51006 60006 82272 91500=
07299,1997-07-14 18:00:00,22,1018.9,-0.1,41,8,25000,11.112,,,260,18.1,23,,,,,,,,1,wg-a,,,,AAXX 14184 07299 02675 72606 10220 20080 39877 40189 55001 61000 70186 81272 91800 333 10230 20181 ////=
07299,1997-07-14 21:00:00,18,1021.8,2.4,83,15,10000,29.632,,,320,,,,0,,,,,,95,wg-a,,,,AAXX 14214 07299 12660 73216 10180 20150 39901 40218 53024 60007 79598 85972 92100=
07299,1997-07-15 00:00:00,15,1021.8,-0.5,94,14,12000,3.704,,,340,,,,10,,,,,,29,wg-a,,,,AAXX 15004 07299 02/62 53402 10150 20140 39898 40218 58005 60106 72998 80002 90000 333 60107=
07299,1997-07-15 03:00:00,13,1022.4,0.3,100,13,8000,7.408,,,170,,,,,,,,,,,wg-a,,,,AAXX 15034 07299 12858 31704 10130 20130 39902 40224 51003 60006 83500 90300=
07299,1997-07-15 06:00:00,14,1022.7,0.4,100,14,9000,11.112,,,170,12.5,22.3,,,,,11,,,,wg-a,,,,AAXX 15064 07299 02459 /1706 10140 20140 39906 40227 51004 60006 83801 90600 333 10223 20125 60114=
07299,1997-07-15 12:00:00,24,1021.5,-0.5,61,16,25000,18.52,,,290,,,,,,,,,,,wg-a,,,,AAXX 15124 07299 12575 42910 10240 20160 39905 40215 58005 60006 83202 91200=
07299,1997-07-15 18:00:00,23,1020.5,-0.4,57,14,25000,11.112,,,260,14.4,24.5,,,,,,,,,wg-a,,,,AAXX 15184 07299 12675 /2606 10230 20140 39894 40205 55004 60006 81100 91800 333 10245 20144=
07299,1997-07-15 21:00:00,18,1021.8,0.8,77,14,20000,11.112,,,260,,,,,,,,,,,wg-a,,,,AAXX 15214 07299 12670 /2606 10180 20140 39902 40218 52008 60006 81100 92100=
07299,1997-07-16 00:00:00,15,1022.2,0,88,13,15000,3.704,,,190,,,,,,,,,,,wg-a,,,,AAXX 16004 07299 12665 11902 10150 20130 39902 40222 50000 60006 81100 90000=
07299,1997-07-16 03:00:00,13,1021.1,-1.4,94,12,10000,3.704,,,190,,,,,,,,,,,wg-a,,,,AAXX 16034 07299 12660 /1902 10130 20120 39889 40211 58014 60006 81100 90300=
07299,1997-07-16 06:00:00,15,1020.4,-0.3,94,14,8000,0,,,0,12.4,23.3,,,,,,,,,wg-a,,,,AAXX 16064 07299 02/58 /0000 10150 20140 39885 40204 55003 60006 80001 90600 333 10233 20124 60004=
07299,1997-07-16 12:00:00,26,1016.6,-2.2,45,13,25000,7.408,,,300,,,,,,,,,,,wg-a,,,,AAXX 16124 07299 12675 23004 10260 20130 39859 40166 56022 60006 81101 91200=
07299,1997-07-16 15:00:00,27,1014.7,-1.7,42,13,500,7.408,,,330,,,,,,,,,,,wg-a,,,,AAXX 16154 07299 12700 43304 10270 20130 39842 40147 56017 60006 81102 91500=
07299,1997-07-16 18:00:00,25,1013.7,-1.1,54,15,40000,7.408,,,340,15.1,27.2,,,,,,,,,wg-a,,,,AAXX 16184 07299 12/82 53404 10250 20150 39831 40137 56011 60006 80002 91800 333 10272 20151=
07299,1997-07-16 21:00:00,19,1014.7,0.3,83,16,500,7.408,,,270,,,,,,,,,,,wg-a,,,,AAXX 16214 07299 12/00 62704 10190 20160 39834 40147 51003 60006 81032 92100=
07299,1997-07-17 00:00:00,16,1014.5,-0.5,94,15,20000,0,,,0,,,,,,,,,,,wg-a,,,,AAXX 17004 07299 12/70 50000 10160 20150 39829 40145 58005 60006 8/0/2 90000=
07299,1997-07-17 03:00:00,15,1013.5,-1.1,94,14,8000,0,,,0,,,,0,,,,,,11,wg-a,,,,AAXX 17034 07299 12/58 20000 10150 20140 39817 40135 57011 60007 71111 81032 90300=
07299,1997-07-17 06:00:00,17,1012.8,-0.5,88,15,15000,0,,,0,14.2,25.3,,,,,,,,,wg-a,,,,AAXX 17064 07299 02665 60000 10170 20150 39813 40128 56005 60006 83831 90600 333 10253 20142 60004=
07299,1997-07-17 09:00:00,21,1011,-1.3,78,17,18000,7.408,,,350,,,,,,,,,,,wg-a,,,,AAXX 17094 07299 12768 /3504 10210 20170 39800 40110 58013 60006 82831 90900=
07299,1997-07-17 12:00:00,23,1009.2,-1.5,73,18,18000,7.408,,,320,,,,,,,,,,,wg-a,,,,AAXX 17124 07299 12668 73204 10230 20180 39785 40092 56015 60006 8387/ 91200=
07299,1997-07-17 15:00:00,23,1008.8,-0.4,73,18,20000,3.704,,,260,,,,,,,,,,25,wg-a,,,,AAXX 17154 07299 02670 72602 10230 20180 39781 40088 58004 61000 72586 83871 91500 333 ////=
07299,1997-07-17 18:00:00,23,1008.2,-0.6,69,17,25000,11.112,,,200,17.1,23.9,,,,,,,,3,wg-a,,,,AAXX 17184 07299 12675 72006 10230 20170 39775 40082 58006 60006 70386 82372 91800 333 10239 20171=
07299,1997-07-18 00:00:00,18,1010,-0.3,77,14,20000,18.52,,,250,,,,,,,,,,0,wg-a,,,,AAXX 18004 07299 12670 72510 10180 20140 39787 40100 58003 60006 70092 8383/ 90000=
07299,1997-07-18 06:00:00,14,1010.2,0.4,82,11,25000,14.816,,,260,14,22.6,,,,,1,,,29,wg-a,,,,AAXX 18064 07299 02575 72608 10140 20110 39784 40102 52004 60006 72998 8686/ 90600 333 10226 20140 60014=
07299,1997-07-18 09:00:00,18,1010.6,0.9,73,13,25000,22.224,,,260,,,,,,,,,,,wg-a,,,,AAXX 18094 07299 12575 72612 10180 20130 39793 40106 50009 60006 86963 90900=
07299,1997-07-18 12:00:00,15,1012.6,1.6,88,13,18000,18.52,,,250,,,,12,,,,,,80,wg-a,,,,AAXX 18124 07299 02468 72510 10150 20130 39809 40126 52016 60126 78098 8696/ 91200 333 60127=
07299,1997-07-18 15:00:00,18,1013.4,0.9,73,13,10000,25.928,,,250,,,,,,,,,,29,wg-a,,,,AAXX 18154 07299 02560 72514 10180 20130 39819 40134 53009 61000 72998 8696/ 91500 333 ////=
07299,1997-07-18 18:00:00,16,1015.2,1.5,82,13,12000,18.52,,,250,12.3,19.7,,,,,,,,80,wg-a,,,,AAXX 18184 07299 02562 72510 10160 20130 39835 40152 53015 61000 78098 8796/ 91800 333 10197 20123 6001=
07299,1997-07-18 21:00:00,14,1016.8,1.4,94,13,15000,18.52,,,240,,,,0,,,,,,80,wg-a,,,,AAXX 18214 07299 12565 72410 10140 20130 39849 40168 53014 60007 78086 878// 92100=
07299,1997-07-19 00:00:00,14,1016.9,0.1,94,13,12000,18.52,,,250,,,,0,,,,,,25,wg-a,,,,AAXX 19004 07299 02462 82510 10140 20130 39850 40169 52001 60016 72598 878// 90000 333 60007=
07299,1997-07-19 03:00:00,14,1017.5,0.5,88,12,12000,22.224,,,250,,,,0,,,,,,3,wg-a,,,,AAXX 19034 07299 12562 82512 10140 20120 39855 40175 53005 60007 70386 8687/ 90300=
07299,1997-07-19 06:00:00,15,1018.6,1.1,88,13,15000,18.52,,,250,13.9,15.7,,,,,12,,,1,wg-a,,,,AAXX 19064 07299 02465 72510 10150 20130 39866 40186 52011 60006 70186 8583/ 90600 333 10157 20139 60124=
07299,1997-07-19 09:00:00,16,1019.3,1,77,12,12000,22.224,,,250,,,,,,,,,,,wg-a,,,,AAXX 19094 07299 12462 72512 10160 20120 39875 40193 51010 60006 872// 90900=
07299,1997-07-19 12:00:00,15,1020.3,0.7,88,13,7000,14.816,,,240,,,,0,,,,,,60,wg-a,,,,AAXX 19124 07299 02457 82408 10150 20130 39883 40203 51007 60006 76086 8387/ 91200 333 60007=
07299,1997-07-19 15:00:00,16,1020.6,0.4,88,14,8000,18.52,,,260,,,,,,,,,,25,wg-a,,,,AAXX 19154 07299 02458 82610 10160 20140 39887 40206 52004 61000 72586 8687/ 91500 333 ////=
07299,1997-07-19 18:00:00,18,1021.2,0.8,77,14,15000,11.112,,,270,14.5,17.7,,0,,,,,,2,wg-a,,,,AAXX 19184 07299 02465 62706 10180 20140 39895 40212 53008 60006 70286 84231 91800 333 10177 20145 60007=
07299,1997-07-19 21:00:00,14,1022.7,1,94,13,11000,3.704,,,140,,,,,,,,,,,wg-a,,,,AAXX 19214 07299 12/61 /1402 10140 20130 39905 40227 51010 60006 92100=
07299,1997-07-20 00:00:00,13,1022.7,-0.1,94,12,15000,7.408,,,150,,,,0,,,,,,,wg-a,,,,AAXX 20004 07299 02465 41504 10130 20120 39904 40227 58001 60006 82130 90000 333 60007=
07299,1997-07-20 03:00:00,12,1021.9,-0.8,100,12,9000,0,,,0,,,,,,,,,,,wg-a,,,,AAXX 20034 07299 12459 /0000 10120 20120 39896 40219 58008 60006 83130 90300=
07299,1997-07-20 06:00:00,14,1022,0.2,94,13,9000,0,,,0,11.1,17.7,,,,,1,,,,wg-a,,,,AAXX 20064 07299 02459 /0000 10140 20130 39898 40220 53002 60006 84630 90600 333 10177 20111 60014=
07299,1997-07-20 09:00:00,18,1021.4,-0.1,83,15,15000,3.704,,,270,,,,,,,,,,,wg-a,,,,AAXX 20094 07299 12465 /2702 10180 20150 39897 40214 58001 60006 86200 90900=
07299,1997-07-20 12:00:00,20,1019.7,-1.4,64,13,20000,11.112,,,320,,,,,,,,,,,wg-a,,,,AAXX 20124 07299 12570 53206 10200 20130 39883 40197 57014 60006 84903 91200=
07299,1997-07-20 15:00:00,16,1020.8,0.7,77,12,20000,18.52,,,340,,,,,,,,,,29,wg-a,,,,AAXX 20154 07299 12570 73410 10160 20120 39890 40208 53007 60006 72992 86903 91500=
07299,1997-07-20 18:00:00,17,1020,-0.7,72,12,40000,3.704,,,340,13.8,21.6,,,,,,,,1,wg-a,,,,AAXX 20184 07299 02582 43402 10170 20120 39883 40200 55007 60006 70196 81963 91800 333 10216 20138 61000=
07299,1997-07-20 21:00:00,13,1020.6,0,94,12,500,7.408,,,220,,,,,,,,,,,wg-a,,,,AAXX 20214 07299 12/00 12204 10130 20120 39884 40206 50000 60006 81031 92100=
07299,1997-07-21 00:00:00,11,1020.8,0,94,10,20000,0,,,0,,,,,,,,,,,wg-a,,,,AAXX 21004 07299 12/70 00000 10110 20100 39884 40208 50000 60006 80000 90000=
07299,1997-07-21 06:00:00,12,1020.8,0.4,94,11,1000,7.408,,,170,8.6,17.8,,,,,,,,28,wg-a,,,,AAXX 21064 07299 12110 61704 10120 20110 39884 40208 53004 60004 72841 86600 90600 333 10178 20086=
07299,1997-07-21 09:00:00,18,1019.8,-0.2,68,12,500,3.704,,,200,,,,,,,,,,,wg-a,,,,AAXX 21094 07299 12600 22002 10180 20120 39882 40198 55002 60006 82230 90900=
07299,1997-07-21 12:00:00,22,1018.6,-0.7,57,13,500,11.112,,,350,,,,,,,,,,,wg-a,,,,AAXX 21124 07299 12600 33506 10220 20130 39874 40186 58007 60006 83230 91200=
07299,1997-07-21 15:00:00,22,1018.2,-0.3,53,12,40000,11.112,,,360,,,,,,,,,,,wg-a,,,,AAXX 21154 07299 12682 23606 10220 20120 39871 40182 57003 60006 82230 91500=
07299,1997-07-21 18:00:00,21,1017.8,-0.5,60,13,50000,7.408,,,340,11.4,22.6,,,,,,,,,wg-a,,,,AAXX 21184 07299 12684 /3404 10210 20130 39866 40178 56005 60006 81830 91800 333 10226 20114=
07299,1997-07-21 21:00:00,16,1019.4,1,88,14,500,7.408,,,330,,,,,,,,,,,wg-a,,,,AAXX 21214 07299 12/00 03304 10160 20140 39876 40194 53010 60006 80000 92100=
07299,1997-07-22 00:00:00,13,1019.9,0.1,94,12,15000,0,,,0,,,,,,,,,,,wg-a,,,,AAXX 22004 07299 12/65 10000 10130 20120 39877 40199 50001 60006 81030 90000=
07299,1997-07-22 03:00:00,11,1019.7,-0.4,100,11,8000,0,,,0,,,,0,,,,,,11,wg-a,,,,AAXX 22034 07299 12158 /0000 10110 20110 39873 40197 56004 60007 71100 81600 90300=
07299,1997-07-22 06:00:00,14,1019.9,0.5,94,13,6000,0,,,0,10.3,21,,,,,,,,,wg-a,,,,AAXX 22064 07299 02/56 /0000 10140 20130 39878 40199 53005 60006 90600 333 10210 20103 60004=
07299,1997-07-22 09:00:00,20,1019.2,0,68,14,11000,3.704,,,50,,,,,,,,,,,wg-a,,,,AAXX 22094 07299 12/61 /0502 10200 20140 39879 40192 50000 60006 90900=
07299,1997-07-22 12:00:00,24,1017.9,-0.9,57,15,25000,7.408,,,10,,,,,,,,,,,wg-a,,,,AAXX 22124 07299 12775 40104 10240 20150 39870 40179 58009 60006 81101 91200=
07299,1997-07-22 15:00:00,25,1017,-0.8,57,16,25000,11.112,,,350,,,,,,,,,,,wg-a,,,,AAXX 22154 07299 12775 /3506 10250 20160 39862 40170 56008 60006 81201 91500=
07299,1997-07-22 18:00:00,24,1016.7,-0.4,65,17,25000,11.112,,,330,14,25.2,,,,,,,,,wg-a,,,,AAXX 22184 07299 12775 /3306 10240 20170 39858 40167 55004 60006 81201 91800 333 10252 20140=
07299,1997-07-22 21:00:00,19,1018,0.7,83,16,500,7.408,,,280,,,,,,,,,,,wg-a,,,,AAXX 22214 07299 12/00 52804 10190 20160 39865 40180 53007 60006 80002 92100=
07299,1997-07-23 00:00:00,15,1018.9,0.5,94,14,20000,3.704,,,180,,,,,,,,,,,wg-a,,,,AAXX 23004 07299 12/70 61802 10150 20140 39870 40189 50005 60006 83032 90000=
07299,1997-07-23 03:00:00,15,1018.8,-0.1,94,14,20000,7.408,,,170,,,,,,,,,,,wg-a,,,,AAXX 23034 07299 12/70 71704 10150 20140 39869 40188 55001 60006 85032 90300=
07299,1997-07-23 06:00:00,16,1019.9,1.3,94,15,8000,3.704,,,230,14.7,23.8,,,,,,,,60,wg-a,,,,AAXX 23064 07299 02758 82302 10160 20150 39881 40199 53013 61000 76062 85572 90600 333 10238 20147 6001=
07299,1997-07-23 09:00:00,18,1019.7,-0.1,94,17,12000,3.704,,,110,,,,4,,,,,,2,wg-a,,,,AAXX 23094 07299 12462 71102 10180 20170 39882 40197 55001 60047 70262 8287/ 90900=
07299,1997-07-23 12:00:00,20,1019,-0.4,78,16,20000,7.408,,,80,,,,,,,,,,2,wg-a,,,,AAXX 23124 07299 12670 70804 10200 20160 39877 40190 58004 60046 70262 8287/ 91200=
07299,1997-07-23 18:00:00,21,1017.2,-0.9,83,18,16000,7.408,,,90,15.8,23,,,,,,,,1,wg-a,,,,AAXX 23184 07299 02666 40904 10210 20180 39861 40172 58009 60006 70198 81931 91800 333 10230 20158 61000=
07299,1997-07-24 00:00:00,17,1017.8,-0.6,94,16,0,11.112,,,170,,,,,,,,,,,wg-a,,,,AAXX 24004 07299 12/// /1706 10170 20160 39862 40178 56006 60006 90000=
07299,1997-07-24 03:00:00,17,1016.8,-1,94,16,10000,7.408,,,180,,,,,,,,,,,wg-a,,,,AAXX 24034 07299 12560 /1804 10170 20160 39852 40168 56010 60006 82530 90300=
07299,1997-07-24 06:00:00,18,1016.3,-0.4,94,17,4000,0,,,0,16.2,21.4,,,,,5,,,10,wg-a,,,,AAXX 24064 07299 02/40 /0000 10180 20170 39848 40163 56004 60006 71011 80001 90600 333 10214 20162 60054=
07299,1997-07-24 09:00:00,23,1015.3,-0.4,73,18,15000,3.704,,,40,,,,,,,,,,,wg-a,,,,AAXX 24094 07299 12565 /0402 10230 20180 39844 40153 58004 60006 81209 90900=
07299,1997-07-24 12:00:00,26,1013.8,-1.2,58,17,18000,3.704,,,310,,,,,,,,,,,wg-a,,,,AAXX 24124 07299 12568 23102 10260 20170 39832 40138 58012 60006 81909 91200=
07299,1997-07-24 15:00:00,24,1013.2,-0.8,65,17,20000,3.704,,,190,,,,1,,,,,,17,wg-a,,,,AAXX 24154 07299 12670 /1902 10240 20170 39824 40132 58008 60017 71798 81902 91500=
07299,1997-07-24 18:00:00,25,1012.2,-0.8,57,16,25000,7.408,,,170,17.9,27.3,,,,,,,,1,wg-a,,,,AAXX 24184 07299 12675 31704 10250 20160 39816 40122 56008 60006 70198 81232 91800 333 10273 20179=
07299,1997-07-25 00:00:00,18,1014,0.4,94,17,10000,7.408,,,250,,,,,,,,,,0,wg-a,,,,AAXX 25004 07299 02760 82504 10180 20170 39826 40140 50004 60016 70096 8453/ 90000 333 61000=
07299,1997-07-25 03:00:00,17,1013.5,-0.6,100,17,12000,3.704,,,190,,,,1,,,,,,21,wg-a,,,,AAXX 25034 07299 12562 81902 10170 20170 39820 40135 56006 60017 72162 8287/ 90300=
07299,1997-07-25 06:00:00,18,1014.2,0.8,94,17,12000,11.112,,,270,17.1,24.9,,,,,,,,21,wg-a,,,,AAXX 25064 07299 02462 82706 10180 20170 39828 40142 52008 61000 72162 8387/ 90600 333 10249 20171 6003=
07299,1997-07-25 12:00:00,19,1015,0.8,73,14,15000,29.632,,,260,,,,,,,,,,20,wg-a,,,,AAXX 25124 07299 02565 72616 10190 20140 39837 40150 53008 61000 72065 82272 91200 333 6100=
07299,1997-07-25 15:00:00,19,1016.1,0.7,60,11,25000,18.52,,,280,,,,,,,,,,60,wg-a,,,,AAXX 25154 07299 02675 72810 10190 20110 39846 40161 51007 61000 76086 84832 91500 333 ////=
07299,1997-07-25 18:00:00,16,1016.8,0.6,94,15,15000,3.704,,,160,16.3,20.2,,,,,,,,25,wg-a,,,,AAXX 25184 07299 02465 71602 10160 20150 39851 40168 51006 61000 72586 8387/ 91800 333 10202 20163 6001=
07299,1997-07-25 21:00:00,15,1017.7,0.7,94,14,8000,7.408,,,270,,,,1,,,,,,50,wg-a,,,,AAXX 25214 07299 12458 82704 10150 20140 39858 40177 51007 60017 75086 875// 92100=
07299,1997-07-26 00:00:00,15,1017.2,-0.5,94,14,10000,3.704,,,110,,,,,,,,,,0,wg-a,,,,AAXX 26004 07299 02260 81102 10150 20140 39853 40172 56005 60016 70086 887// 90000 333 61000=
07299,1997-07-26 03:00:00,15,1016.8,-0.3,94,14,3000,3.704,,,130,,,,0,,,,,,10,wg-a,,,,AAXX 26034 07299 12130 81302 10150 20140 39850 40168 55003 60007 71052 887// 90300=
07299,1997-07-26 06:00:00,15,1018.3,1.5,100,15,4500,7.408,,,300,14.7,16.4,,,,,,,,10,wg-a,,,,AAXX 26064 07299 02145 73004 10150 20150 39865 40183 53015 61000 71052 877// 90600 333 10164 20147 6002=
07299,1997-07-26 09:00:00,18,1019.8,1.7,83,15,12000,7.408,,,340,,,,,,,,,,,wg-a,,,,AAXX 26094 07299 12462 73404 10180 20150 39882 40198 51017 60006 878// 90900=
07299,1997-07-26 12:00:00,22,1019.8,0.4,60,14,25000,3.704,,,310,,,,,,,,,,,wg-a,,,,AAXX 26124 07299 12575 53102 10220 20140 39886 40198 51004 60006 84230 91200=
07299,1997-07-26 18:00:00,22,1019.4,-0.4,57,13,50000,3.704,,,330,15.3,23.5,,,,,,,,,wg-a,,,,AAXX 26184 07299 12784 /3302 10220 20130 39882 40194 56004 60006 81100 91800 333 10235 20153=
07299,1997-07-26 21:00:00,16,1021,0.9,88,14,500,3.704,,,100,,,,,,,,,,,wg-a,,,,AAXX 26214 07299 12700 /1002 10160 20140 39891 40210 53009 60006 81500 92100=
07299,1997-07-27 00:00:00,14,1021.6,0.4,94,13,500,7.408,,,140,,,,,,,,,,,wg-a,,,,AAXX 27004 07299 12/00 01404 10140 20130 39895 40216 51004 60006 80000 90000=
07299,1997-07-27 03:00:00,14,1021.3,-0.3,88,12,15000,11.112,,,160,,,,0,,,,,,,wg-a,,,,AAXX 27034 07299 12/65 21606 10140 20120 39892 40213 58003 60007 81031 90300=
07299,1997-07-27 06:00:00,16,1021.1,-0,77,12,50000,11.112,,,150,13.6,22.4,,,,,,,,,wg-a,,,,AAXX 27064 07299 02784 41506 10160 20120 39892 40211 55000 60006 83531 90600 333 10224 20136 60004=
07299,1997-07-27 09:00:00,22,1020,-0.3,69,16,40000,7.408,,,110,,,,,,,,,,,wg-a,,,,AAXX 27094 07299 12682 51104 10220 20160 39889 40200 57003 60006 83831 90900=
07299,1997-07-27 12:00:00,24,1019.8,-0.1,65,17,40000,18.52,,,250,,,,,,,,,,,wg-a,,,,AAXX 27124 07299 12582 72510 10240 20170 39888 40198 56001 60006 878// 91200=
07299,1997-07-27 15:00:00,25,1019.1,-0.5,54,15,50000,14.816,,,250,,,,,,,,,,,wg-a,,,,AAXX 27154 07299 12684 62508 10250 20150 39883 40191 58005 60006 84831 91500=
07299,1997-07-27 18:00:00,24,1019.3,-0,65,17,50000,3.704,,,320,15.5,26.1,,,,,,,,,wg-a,,,,AAXX 27184 07299 12684 53202 10240 20170 39883 40193 55000 60006 82831 91800 333 10261 20155=
07299,1997-07-28 00:00:00,18,1022,1,88,16,20000,7.408,,,330,,,,,,,,,,,wg-a,,,,AAXX 28004 07299 12570 63304 10180 20160 39904 40220 51010 60006 8553/ 90000=
07299,1997-07-28 03:00:00,17,1022.4,0.2,88,15,15000,7.408,,,320,,,,,,,,,,,wg-a,,,,AAXX 28034 07299 12565 /3204 10170 20150 39906 40224 52002 60006 8453/ 90300=
07299,1997-07-28 06:00:00,16,1023.4,0.8,94,15,200,3.704,,,320,14.8,24.1,,,,,,,,45,wg-a,,,,AAXX 28064 07299 02/02 93202 10160 20150 39914 40234 52008 60006 74542 89/// 90600 333 10241 20148 60004=
07299,1997-07-28 09:00:00,21,1022.3,-0.5,78,17,20000,7.408,,,350,,,,,,,,,,1,wg-a,,,,AAXX 28094 07299 12470 23504 10210 20170 39909 40223 58005 60006 70141 82200 90900=
07299,1997-07-28 12:00:00,24,1021.3,-0.7,57,15,40000,7.408,,,340,,,,,,,,,,1,wg-a,,,,AAXX 28124 07299 12682 /3404 10240 20150 39902 40213 56007 60006 70141 81101 91200=
07299,1997-07-28 15:00:00,25,1020.1,-1,47,13,40000,14.816,,,350,,,,,,,,,,,wg-a,,,,AAXX 28154 07299 12682 /3508 10250 20130 39892 40201 57010 60006 81101 91500=
07299,1997-07-28 18:00:00,24,1019.6,-0.6,50,13,40000,11.112,,,310,15.5,25.3,,,,,,,,,wg-a,,,,AAXX 28184 07299 12782 23106 10240 20130 39886 40196 55006 60006 81201 91800 333 10253 20155=
07299,1997-07-28 21:00:00,17,1021,0.6,82,14,500,11.112,,,310,,,,,,,,,,,wg-a,,,,AAXX 28214 07299 12/00 13106 10170 20140 39893 40210 52006 60006 80001 92100=
07299,1997-07-29 00:00:00,16,1021.5,0.3,88,14,20000,7.408,,,330,,,,,,,,,,,wg-a,,,,AAXX 29004 07299 12/70 63304 10160 20140 39896 40215 50003 60006 86030 90000=
07299,1997-07-29 03:00:00,14,1021.2,-0.4,94,13,15000,0,,,0,,,,,,,,,,,wg-a,,,,AAXX 29034 07299 12/65 60000 10140 20130 39891 40212 56004 60006 82031 90300=
07299,1997-07-29 06:00:00,15,1021.3,0.1,94,14,15000,3.704,,,350,13.6,23.6,,,,,,,,,wg-a,,,,AAXX 29064 07299 02665 /3502 10150 20140 39893 40213 51001 60006 81871 90600 333 10236 20136 60004=
07299,1997-07-29 09:00:00,21,1021.1,0.5,69,15,18000,7.408,,,330,,,,,,,,,,,wg-a,,,,AAXX 29094 07299 12768 /3304 10210 20150 39898 40211 51005 60006 81130 90900=
07299,1997-07-29 12:00:00,25,1020.1,-0.7,54,15,50000,11.112,,,10,,,,,,,,,,,wg-a,,,,AAXX 29124 07299 12784 /0106 10250 20150 39892 40201 58007 60006 81204 91200=
07299,1997-07-29 15:00:00,26,1018.9,-1,45,13,50000,14.816,,,10,,,,,,,,,,,wg-a,,,,AAXX 29154 07299 12784 30108 10260 20130 39882 40189 56010 60006 81801 91500=
07299,1997-07-29 18:00:00,24,1019.1,-0,54,14,50000,7.408,,,350,15,26.3,,,,,,,,,wg-a,,,,AAXX 29184 07299 12784 /3504 10240 20140 39882 40191 55000 60006 81801 91800 333 10263 20150=
07299,1997-07-29 21:00:00,18,1020.8,0.9,77,14,18000,0,,,0,,,,,,,,,,,wg-a,,,,AAXX 29214 07299 12768 30000 10180 20140 39891 40208 53009 60006 815/1 92100=
07299,1997-07-30 00:00:00,14,1021,-0.2,94,13,16000,3.704,,,200,,,,,,,,,,,wg-a,,,,AAXX 30004 07299 12/66 32002 10140 20130 39889 40210 58002 60006 80001 90000=
07299,1997-07-30 03:00:00,13,1020.5,-0.7,88,11,15000,3.704,,,170,,,,,,,,,,,wg-a,,,,AAXX 30034 07299 12865 31702 10130 20110 39882 40205 58007 60006 815/1 90300=
07299,1997-07-30 06:00:00,15,1020.3,0.2,88,13,17000,0,,,0,12.5,24.2,,,,,,,,,wg-a,,,,AAXX 30064 07299 02/67 40000 10150 20130 39884 40203 53002 60006 80001 90600 333 10242 20125 60004=
07299,1997-07-30 09:00:00,23,1019.2,-0.3,57,14,20000,3.704,,,110,,,,,,,,,,,wg-a,,,,AAXX 30094 07299 12770 41102 10230 20140 39881 40192 58003 60006 81101 90900=
07299,1997-07-30 12:00:00,27,1017.8,-0.9,51,16,500,3.704,,,350,,,,0,,,,,,,wg-a,,,,AAXX 30124 07299 02700 33502 10270 20160 39872 40178 58009 60006 81201 91200 333 60007=
07299,1997-07-30 15:00:00,28,1016.8,-0.9,45,15,40000,11.112,,,280,,,,,,,,,,,wg-a,,,,AAXX 30154 07299 12782 42806 10280 20150 39863 40168 58009 60006 81202 91500=
07299,1997-07-30 18:00:00,25,1016.7,-0.4,47,13,50000,11.112,,,250,15.4,28.1,,,,,,,,,wg-a,,,,AAXX 30184 07299 12784 /2506 10250 20130 39859 40167 55004 60006 81182 91800 333 10281 20154=
07299,1997-07-30 21:00:00,20,1017.9,0.5,64,13,40000,3.704,,,110,,,,,,,,,,,wg-a,,,,AAXX 30214 07299 12/82 31102 10200 20130 39865 40179 53005 60006 81031 92100=
07299,1997-07-31 00:00:00,18,1017.6,-0.4,77,14,40000,11.112,,,140,,,,,,,,,,,wg-a,,,,AAXX 31004 07299 12/82 41406 10180 20140 39861 40176 58004 60006 84030 90000=
07299,1997-07-31 03:00:00,17,1016.7,-1,77,13,500,11.112,,,160,,,,,,,,,,,wg-a,,,,AAXX 31034 07299 12700 61606 10170 20130 39851 40167 56010 60006 82531 90300=
07299,1997-07-31 06:00:00,18,1017.7,1.1,83,15,20000,3.704,,,320,15.9,25.3,,,,,,,,,wg-a,,,,AAXX 31064 07299 02670 73202 10180 20150 39862 40177 53011 60006 83831 90600 333 10253 20159 60004=
07299,1997-07-31 09:00:00,20,1018.3,0.8,73,15,15000,22.224,,,260,,,,,,,,,,,wg-a,,,,AAXX 31094 07299 12665 72612 10200 20150 39870 40183 53008 60006 8217/ 90900=
07299,1997-07-31 12:00:00,22,1017.1,-1,57,13,50000,22.224,,,280,,,,,,,,,,,wg-a,,,,AAXX 31124 07299 12684 72812 10220 20130 39860 40171 58010 60006 81132 91200=
07299,1997-07-31 15:00:00,20,1017.7,0.3,60,12,50000,11.112,,,300,,,,,,,,,,,wg-a,,,,AAXX 31154 07299 12784 73006 10200 20120 39863 40177 53003 60006 8147/ 91500=
07299,1997-07-31 18:00:00,18,1017.7,-0.2,64,11,40000,14.816,,,220,17.4,22.7,,,,,,,,,wg-a,,,,AAXX 31184 07299 12682 82208 10180 20110 39861 40177 58002 60006 8552/ 91800 333 10227 20174=
07299,1997-07-31 21:00:00,16,1018.7,0.8,82,13,14000,3.704,,,340,,,,1,,,,,,61,wg-a,,,,AAXX 31214 07299 12664 83402 10160 20130 39869 40187 51008 60017 76162 8487/ 92100=
07299,1997-08-01 00:00:00,14,1018,-0.8,88,12,0,11.112,,,230,,,,,,,,,,,wg-a,,,,AAXX 01004 07299 12/// /2306 10140 20120 39860 40180 58008 60016 90000=
07299,1997-08-01 03:00:00,14,1016.4,-1.6,88,12,14000,14.816,,,230,,,,,,,,,,60,wg-a,,,,AAXX 01034 07299 02564 82308 10140 20120 39844 40164 57016 61000 76066 8787/ 90300 333 ////=
07299,1997-08-01 06:00:00,14,1016.4,0,88,12,10000,11.112,,,220,13.4,17.6,,,,,,,,61,wg-a,,,,AAXX 01064 07299 02560 82206 10140 20120 39844 40164 50000 61000 76162 8687/ 90600 333 10176 20134 6002=
07299,1997-08-01 09:00:00,13,1017.1,0.6,94,12,500,0,,,0,,,,3,,,,,,61,wg-a,,,,AAXX 01094 07299 12400 80000 10130 20120 39850 40171 51006 60037 76166 8687/ 90900=
07299,1997-08-01 12:00:00,15,1017,0.1,88,13,9000,7.408,,,270,,,,1,,,,,,21,wg-a,,,,AAXX 01124 07299 02159 82704 10150 20130 39851 40170 53001 60046 72162 8687/ 91200 333 60017=
07299,1997-08-01 15:00:00,16,1017,0.1,88,14,15000,7.408,,,250,,,,0,,,,,,,wg-a,,,,AAXX 01154 07299 12165 82504 10160 20140 39852 40170 53001 60007 8687/ 91500=
07299,1997-08-01 18:00:00,15,1017.3,0.4,88,13,9000,11.112,,,210,13.1,16,,,,,,,,,wg-a,,,,AAXX 01184 07299 12/59 /2106 10150 20130 39855 40173 53004 60006 91800 333 10160 20131=
07299,1997-08-01 21:00:00,15,1018.4,0.9,94,14,7000,7.408,,,150,,,,,,,,,,2,wg-a,,,,AAXX 01214 07299 02157 71504 10150 20140 39865 40184 51009 61000 70262 878// 92100 333 ////=
07299,1997-08-02 00:00:00,15,1017.9,-0.4,94,14,7000,7.408,,,160,,,,,,,,,,2,wg-a,,,,AAXX 02004 07299 02557 71604 10150 20140 39860 40179 58004 61000 70262 8353/ 90000 333 ////=
07299,1997-08-02 03:00:00,15,1017.6,-0.3,94,14,8000,7.408,,,180,,,,,,,,,,,wg-a,,,,AAXX 02034 07299 12458 71804 10150 20140 39857 40176 58003 60006 878// 90300=
07299,1997-08-02 06:00:00,15,1018.2,0.6,94,14,1500,7.408,,,180,14.5,15.2,,,,,,,,10,wg-a,,,,AAXX 02064 07299 02115 81804 10150 20140 39863 40182 52006 61000 71052 885// 90600 333 10152 20145 6004=
07299,1997-08-02 09:00:00,16,1018.4,0.3,94,15,3000,7.408,,,90,,,,0,,,,,,51,wg-a,,,,AAXX 02094 07299 12130 80904 10160 20150 39866 40184 51003 60007 75165 875// 90900=
07299,1997-08-02 12:00:00,18,1018.1,0,94,17,15000,7.408,,,160,,,,1,,,,,,21,wg-a,,,,AAXX 02124 07299 02365 81604 10180 20170 39866 40181 50000 60026 72165 875// 91200 333 60017=
07299,1997-08-02 15:00:00,21,1017.2,-0.6,78,17,500,14.816,,,250,,,,,,,,,,,wg-a,,,,AAXX 02154 07299 12400 72508 10210 20170 39860 40172 56006 60006 878// 91500=
07299,1997-08-02 18:00:00,21,1017.4,0.2,83,18,15000,3.704,,,330,14.9,21.3,,,,,,,,,wg-a,,,,AAXX 02184 07299 12465 83302 10210 20180 39862 40174 53002 60006 8787/ 91800 333 10213 20149=
07299,1997-08-02 21:00:00,18,1018.3,0.5,94,17,11000,3.704,,,300,,,,,,,,,,,wg-a,,,,AAXX 02214 07299 12/61 /3002 10180 20170 39868 40183 50005 60006 92100=
07299,1997-08-03 00:00:00,17,1018.4,0,94,16,2000,7.408,,,320,,,,,,,,,,10,wg-a,,,,AAXX 03004 07299 12120 73204 10170 20160 39867 40184 50000 60006 71022 876// 90000=
07299,1997-08-03 03:00:00,16,1017.8,-0.7,100,16,600,3.704,,,280,,,,,,,,,,45,wg-a,,,,AAXX 03034 07299 12/06 92802 10160 20160 39860 40178 56007 60006 74542 89/// 90300=
07299,1997-08-03 06:00:00,16,1018,0.3,100,16,2500,3.704,,,10,15.6,20.5,,,,,2,,,10,wg-a,,,,AAXX 03064 07299 02125 70102 10160 20160 39863 40180 51003 60006 71042 876// 90600 333 10205 20156 60024=
07299,1997-08-03 09:00:00,19,1018.1,0.4,88,17,10000,11.112,,,340,,,,,,,,,,,wg-a,,,,AAXX 03094 07299 12460 73406 10190 20170 39867 40181 53004 60006 875// 90900=
07299,1997-08-03 12:00:00,23,1017.2,-0.4,69,17,20000,3.704,,,360,,,,,,,,,,,wg-a,,,,AAXX 03124 07299 12570 73602 10230 20170 39863 40172 58004 60006 83832 91200=
07299,1997-08-03 15:00:00,26,1016.1,-0.9,61,18,11000,3.704,,,20,,,,,,,,,,,wg-a,,,,AAXX 03154 07299 12/61 /0202 10260 20180 39854 40161 56009 60006 91500=
07299,1997-08-03 18:00:00,24,1015.9,-0.3,74,19,40000,3.704,,,360,16.3,26.4,,,,,,,,,wg-a,,,,AAXX 03184 07299 12682 43602 10240 20190 39851 40159 55003 60006 81262 91800 333 10264 20163=
07299,1997-08-03 21:00:00,20,1016.9,0.5,88,18,500,0,,,0,,,,,,,,,,,wg-a,,,,AAXX 03214 07299 12/00 10000 10200 20180 39856 40169 53005 60006 81030 92100=
07299,1997-08-04 00:00:00,16,1017.2,-0.2,100,16,500,7.408,,,180,,,,,,,,,,,wg-a,,,,AAXX 04004 07299 12/00 11804 10160 20160 39855 40172 58002 60006 81030 90000=
07299,1997-08-04 03:00:00,15,1017.5,0.2,94,14,20000,3.704,,,190,,,,0,,,,,,,wg-a,,,,AAXX 04034 07299 12/70 21902 10150 20140 39856 40175 50002 60007 82031 90300=
07299,1997-08-04 06:00:00,18,1017.4,0.3,94,17,40000,3.704,,,140,14.7,24.4,,,,,,,,,wg-a,,,,AAXX 04064 07299 02782 61402 10180 20170 39859 40174 51003 60006 81130 90600 333 10244 20147 60004=
07299,1997-08-04 12:00:00,29,1015.7,-0.4,52,18,60000,3.704,,,340,,,,,,,,,,,wg-a,,,,AAXX 04124 07299 12686 33402 10290 20180 39854 40157 58004 60006 82232 91200=
07299,1997-08-04 15:00:00,29,1015.1,-0.6,52,18,40000,11.112,,,360,,,,,,,,,,,wg-a,,,,AAXX 04154 07299 12682 63606 10290 20180 39848 40151 55006 60006 84830 91500=
07299,1997-08-04 18:00:00,27,1014.8,-0.5,62,19,50000,7.408,,,340,18.2,31.5,,,,,,,,,wg-a,,,,AAXX 04184 07299 12684 43404 10270 20190 39843 40148 55005 60006 81282 91800 333 10315 20182=
07299,1997-08-04 21:00:00,22,1016.4,1.1,78,18,500,7.408,,,290,,,,,,,,,,,wg-a,,,,AAXX 04214 07299 12/00 22904 10220 20180 39854 40164 51011 60006 82082 92100=
07299,1997-08-05 00:00:00,18,1016.9,0.1,94,17,500,0,,,0,,,,,,,,,,,wg-a,,,,AAXX 05004 07299 12/00 00000 10180 20170 39855 40169 53001 60006 80000 90000=
07299,1997-08-05 03:00:00,17,1016.7,-0.4,100,17,500,3.704,,,170,,,,,,,,,,,wg-a,,,,AAXX 05034 07299 12/00 01702 10170 20170 39851 40167 58004 60006 80000 90300=
07299,1997-08-05 06:00:00,19,1016.2,-0.1,94,18,15000,3.704,,,160,16.7,26.9,,,,,,,,,wg-a,,,,AAXX 05064 07299 02/65 21602 10190 20180 39849 40162 58001 60006 80001 90600 333 10269 20167 60004=
07299,1997-08-05 09:00:00,25,1015.2,-0.4,69,19,18000,3.704,,,360,,,,,,,,,,,wg-a,,,,AAXX 05094 07299 12768 33602 10250 20190 39845 40152 58004 60006 81201 90900=
07299,1997-08-05 12:00:00,29,1013.9,-0.9,58,20,20000,3.704,,,290,,,,,,,,,,,wg-a,,,,AAXX 05124 07299 12770 52902 10290 20200 39836 40139 58009 60006 81981 91200=
07299,1997-08-05 15:00:00,29,1012.4,-1.4,58,20,24000,11.112,,,340,,,,,,,,,,,wg-a,,,,AAXX 05154 07299 12674 73406 10290 20200 39822 40124 56014 60006 8198/ 91500=
07299,1997-08-05 18:00:00,27,1011.8,-0.8,66,20,22000,11.112,,,330,19.2,30.2,,,,,,,,,wg-a,,,,AAXX 05184 07299 12672 53306 10270 20200 39814 40118 55008 60006 81282 91800 333 10302 20192=
07299,1997-08-05 21:00:00,23,1012.7,0.5,83,20,15000,7.408,,,270,,,,,,,,,,13,wg-a,,,,AAXX 05214 07299 12765 72704 10230 20200 39819 40127 50005 60006 71322 82982 92100=
07299,1997-08-06 00:00:00,20,1015.6,2.4,88,18,7000,11.112,,,220,,,,,,,,,,,wg-a,,,,AAXX 06004 07299 12/57 /2206 10200 20180 39843 40156 53024 60006 90000=
07299,1997-08-06 03:00:00,19,1014,-1.6,94,18,15000,7.408,,,150,,,,1,,,,,,1,wg-a,,,,AAXX 06034 07299 12/65 41504 10190 20180 39827 40140 57016 60017 70198 81031 90300=
07299,1997-08-06 06:00:00,19,1013.4,-0.5,94,18,8000,3.704,,,140,18,26.7,,,,,1,,,2,wg-a,,,,AAXX 06064 07299 02758 41402 10190 20180 39822 40134 58005 60006 70298 81531 90600 333 10267 20180 60014=
07299,1997-08-06 09:00:00,24,1013,0.1,69,18,10000,3.704,,,210,,,,,,,,,,,wg-a,,,,AAXX 06094 07299 12560 /2102 10240 20180 39823 40130 52001 60006 81830 90900=
07299,1997-08-06 12:00:00,28,1012,-0.6,62,20,13000,3.704,,,190,,,,,,,,,,,wg-a,,,,AAXX 06124 07299 12663 51902 10280 20200 39817 40120 58006 60006 82330 91200=
07299,1997-08-06 15:00:00,21,1013,0.3,88,19,9000,14.816,,,350,,,,8,,,,,,29,wg-a,,,,AAXX 06154 07299 12559 73508 10210 20190 39820 40130 53003 60087 72998 8696/ 91500=
07299,1997-08-06 18:00:00,20,1013.2,0.1,88,18,7000,7.408,,,280,19.1,28.6,,,,,,,,21,wg-a,,,,AAXX 06184 07299 02757 72804 10200 20180 39821 40132 53001 61000 72198 8557/ 91800 333 10286 20191 6000=
07299,1997-08-06 21:00:00,19,1013.8,0.4,94,18,500,0,,,0,,,,,,,,,,21,wg-a,,,,AAXX 06214 07299 02700 /0000 10190 20180 39825 40138 51004 61000 72162 86500 92100 333 ////=
07299,1997-08-07 00:00:00,19,1013.7,-0.1,94,18,3000,0,,,0,,,,,,,,,,10,wg-a,,,,AAXX 07004 07299 02130 70000 10190 20180 39824 40137 57001 61000 71062 876// 90000 333 ////=
07299,1997-08-07 03:00:00,18,1013.6,-0.1,100,18,400,7.408,,,290,,,,,,,,,,44,wg-a,,,,AAXX 07034 07299 12104 82904 10180 20180 39823 40136 58001 60006 74442 886// 90300=
07299,1997-08-07 06:00:00,19,1014.2,0.6,94,18,1800,3.704,,,320,18.1,19.9,,,,,8,,,10,wg-a,,,,AAXX 07064 07299 02118 73202 10190 20180 39829 40142 52006 60006 71042 876// 90600 333 10199 20181 60084=
07299,1997-08-07 09:00:00,22,1013.6,-0.2,88,20,500,7.408,,,340,,,,,,,,,,,wg-a,,,,AAXX 07094 07299 12400 73404 10220 20200 39827 40136 58002 60006 878// 90900=
07299,1997-08-07 12:00:00,24,1013.2,-0.2,78,20,9000,11.112,,,340,,,,,,,,,,,wg-a,,,,AAXX 07124 07299 12459 73406 10240 20200 39825 40132 58002 60006 81931 91200=
07299,1997-08-07 15:00:00,22,1013.3,-0.1,88,20,8000,7.408,,,330,,,,1,,,,,,80,wg-a,,,,AAXX 07154 07299 12458 73304 10220 20200 39824 40133 55001 60017 78086 81976 91500=
07299,1997-08-07 18:00:00,22,1013.7,0.4,88,20,9000,7.408,,,200,18.6,26.2,,0,,,,,,1,wg-a,,,,AAXX 07184 07299 02559 72004 10220 20200 39828 40137 53004 60006 70186 8199/ 91800 333 10262 20186 60007=
07299,1997-08-07 21:00:00,19,1015,0.9,94,18,8000,3.704,,,260,,,,,,,,,,1,wg-a,,,,AAXX 07214 07299 02758 32602 10190 20180 39837 40150 51009 61000 70161 81501 92100 333 ////=
07299,1997-08-08 00:00:00,17,1015.3,0.1,100,17,0,7.408,,,160,,,,,,,,,,,wg-a,,,,AAXX 08004 07299 02/// /1604 10170 20170 39838 40153 50001 61000 90000 333 ////=
07299,1997-08-08 06:00:00,17,1017.2,1.4,100,17,6000,3.704,,,160,15.9,22.4,,,,,1,,,,wg-a,,,,AAXX 08064 07299 02756 31602 10170 20170 39856 40172 51014 60006 81130 90600 333 10224 20159 60014=
07299,1997-08-08 09:00:00,24,1016.8,0.4,69,18,13000,7.408,,,160,,,,,,,,,,,wg-a,,,,AAXX 08094 07299 12563 31604 10240 20180 39860 40168 51004 60006 81131 90900=
07299,1997-08-08 12:00:00,26,1016.1,-0.5,65,19,9000,7.408,,,340,,,,,,,,,,17,wg-a,,,,AAXX 08124 07299 12559 63404 10260 20190 39855 40161 58005 60006 71791 85903 91200=
07299,1997-08-08 15:00:00,24,1016.9,0.5,69,18,10000,22.224,,,360,,,,,,,,,,29,wg-a,,,,AAXX 08154 07299 12660 53612 10240 20180 39860 40169 53005 60006 72991 84960 91500=
07299,1997-08-08 18:00:00,21,1017.4,0.1,83,18,20000,0,,,0,17.3,27.7,,11,,,,,,1,wg-a,,,,AAXX 08184 07299 02670 30000 10210 20180 39862 40174 50001 60006 70198 82930 91800 333 10277 20173 60117=
07299,1997-08-09 00:00:00,16,1019.4,0.2,100,16,9000,0,,,0,,,,,,,,,,11,wg-a,,,,AAXX 09004 07299 12/59 00000 10160 20160 39876 40194 52002 60006 71111 80000 90000=
07299,1997-08-09 06:00:00,16,1020.8,1,100,16,3000,3.704,,,140,14.2,20.8,,,,,13,,,10,wg-a,,,,AAXX 09064 07299 02130 21402 10160 20160 39890 40208 51010 60006 71000 82600 90600 333 10208 20142 60134=
07299,1997-08-09 09:00:00,22,1020.2,0,78,18,7000,7.408,,,40,,,,,,,,,,,wg-a,,,,AAXX 09094 07299 12457 /0404 10220 20180 39890 40202 50000 60006 81100 90900=
07299,1997-08-09 12:00:00,26,1018.9,-0.8,61,18,16000,11.112,,,360,,,,,,,,,,,wg-a,,,,AAXX 09124 07299 12666 /3606 10260 20180 39882 40189 58008 60006 81200 91200=
07299,1997-08-09 15:00:00,27,1017.7,-1.1,54,17,20000,7.408,,,340,,,,,,,,,,,wg-a,,,,AAXX 09154 07299 12770 /3404 10270 20170 39871 40177 56011 60006 81200 91500=
07299,1997-08-09 18:00:00,27,1017.2,-0.5,54,17,22000,3.704,,,40,16,27.4,,,,,,,,,wg-a,,,,AAXX 09184 07299 12772 /0402 10270 20170 39866 40172 55005 60006 81200 91800 333 10274 20160=
07299,1997-08-09 21:00:00,19,1018.8,0.8,83,16,20000,3.704,,,160,,,,,,,,,,,wg-a,,,,AAXX 09214 07299 12/70 01602 10190 20160 39874 40188 51008 60006 80000 92100=
07299,1997-08-10 00:00:00,16,1019.2,0,94,15,0,0,,,0,,,,,,,,,,,wg-a,,,,AAXX 10004 07299 12/// /0000 10160 20150 39874 40192 50000 60006 90000=
07299,1997-08-10 03:00:00,14,1018.7,-0.7,94,13,20000,0,,,0,,,,,,,,,,,wg-a,,,,AAXX 10034 07299 12/70 00000 10140 20130 39867 40187 57007 60006 80000 90300=
07299,1997-08-10 06:00:00,15,1019.1,0.5,100,15,10000,0,,,0,12.7,26.4,,,,,,,,,wg-a,,,,AAXX 10064 07299 02/60 10000 10150 20150 39872 40191 52005 60006 80001 90600 333 10264 20127 60004=
07299,1997-08-10 09:00:00,22,1018.1,-0.2,69,16,10000,7.408,,,10,,,,,,,,,,,wg-a,,,,AAXX 10094 07299 12/60 10104 10220 20160 39870 40181 58002 60006 80001 90900=
07299,1997-08-10 12:00:00,27,1016.5,-1.1,54,17,15000,11.112,,,340,,,,,,,,,,,wg-a,,,,AAXX 10124 07299 12/65 13406 10270 20170 39859 40165 57011 60006 80001 91200=
07299,1997-08-10 15:00:00,30,1014.8,-1.3,38,14,15000,7.408,,,90,,,,,,,,,,,wg-a,,,,AAXX 10154 07299 12/65 10904 10300 20140 39845 40148 58013 60006 80001 91500=
07299,1997-08-10 18:00:00,28,1014.3,-0.6,40,13,35000,11.112,,,110,15.2,30.1,,,,,,,,,wg-a,,,,AAXX 10184 07299 12/81 11106 10280 20130 39838 40143 56006 60006 80001 91800 333 10301 20152=
07299,1997-08-10 21:00:00,20,1015.7,0.6,78,16,20000,0,,,0,,,,,,,,,,,wg-a,,,,AAXX 10214 07299 12/70 00000 10200 20160 39844 40157 53006 60006 80000 92100=
07299,1997-08-11 00:00:00,17,1015.8,-0.2,82,14,20000,0,,,0,,,,,,,,,,,wg-a,,,,AAXX 11004 07299 12/70 00000 10170 20140 39842 40158 56002 60006 80000 90000=
07299,1997-08-11 03:00:00,15,1015.5,-0.4,88,13,20000,3.704,,,350,,,,,,,,,,,wg-a,,,,AAXX 11034 07299 12/70 03502 10150 20130 39837 40155 58004 60006 80000 90300=
07299,1997-08-11 06:00:00,18,1015.9,0.6,77,14,20000,3.704,,,40,14.5,27.5,,,,,,,,,wg-a,,,,AAXX 11064 07299 02/70 10402 10180 20140 39844 40159 51006 60006 80001 90600 333 10275 20145 60004=
07299,1997-08-11 09:00:00,24,1015.2,-0.1,61,16,15000,7.408,,,30,,,,,,,,,,,wg-a,,,,AAXX 11094 07299 12/65 00304 10240 20160 39844 40152 58001 60006 80000 90900=
07299,1997-08-11 12:00:00,27,1014.1,-0.6,54,17,18000,11.112,,,350,,,,,,,,,,,wg-a,,,,AAXX 11124 07299 12668 /3506 10270 20170 39837 40141 56006 60006 81101 91200=
07299,1997-08-11 15:00:00,29,1013.8,-0.2,58,20,18000,11.112,,,340,,,,,,,,,,,wg-a,,,,AAXX 11154 07299 12668 23406 10290 20200 39836 40138 55002 60006 81201 91500=
07299,1997-08-11 18:00:00,26,1015.9,1.8,65,19,18000,18.52,,,260,17.8,29.3,,,,,,,,,wg-a,,,,AAXX 11184 07299 12668 32610 10260 20190 39853 40159 53018 60006 81231 91800 333 10293 20178=
07299,1997-08-11 21:00:00,23,1018.3,1.9,73,18,13000,3.704,,,150,,,,,,,,,,,wg-a,,,,AAXX 11214 07299 12663 21502 10230 20180 39873 40183 53019 60006 81131 92100=
07299,1997-08-12 00:00:00,20,1019.4,0.8,88,18,13000,3.704,,,160,,,,,,,,,,,wg-a,,,,AAXX 12004 07299 12/63 21602 10200 20180 39881 40194 53008 60006 81031 90000=
07299,1997-08-12 03:00:00,19,1020.1,0.5,88,17,13000,7.408,,,160,,,,,,,,,,,wg-a,,,,AAXX 12034 07299 12/63 21604 10190 20170 39886 40201 51005 60006 81031 90300=
07299,1997-08-12 06:00:00,20,1021.1,1.1,88,18,10000,7.408,,,150,17.8,25.8,,,,,,,,,wg-a,,,,AAXX 12064 07299 02660 21504 10200 20180 39897 40211 52011 60006 8213/ 90600 333 10258 20178 60004=
07299,1997-08-12 09:00:00,25,1021,0.5,65,18,18000,3.704,,,220,,,,,,,,,,,wg-a,,,,AAXX 12094 07299 12668 /2202 10250 20180 39902 40210 51005 60006 81100 90900=
07299,1997-08-12 12:00:00,28,1020,-0.7,58,19,20000,11.112,,,300,,,,,,,,,,,wg-a,,,,AAXX 12124 07299 12770 33006 10280 20190 39895 40200 58007 60006 81201 91200=
07299,1997-08-12 15:00:00,27,1019.3,-0.7,70,21,20000,7.408,,,330,,,,,,,,,,,wg-a,,,,AAXX 12154 07299 12670 43304 10270 20210 39887 40193 56007 60006 82203 91500=
07299,1997-08-12 18:00:00,26,1019.4,-0,74,21,20000,7.408,,,250,20.2,29.3,,,,,,,,,wg-a,,,,AAXX 12184 07299 12670 /2504 10260 20210 39887 40194 55000 60006 81233 91800 333 10293 20202=
07299,1997-08-12 21:00:00,21,1020.3,0.4,88,19,18000,7.408,,,250,,,,,,,,,,,wg-a,,,,AAXX 12214 07299 12/68 32504 10210 20190 39891 40203 50004 60006 81072 92100=
07299,1997-08-13 00:00:00,18,1021.1,0.4,94,17,10000,3.704,,,210,,,,,,,,,,,wg-a,,,,AAXX 13004 07299 12/60 32102 10180 20170 39895 40211 53004 60006 81072 90000=
07299,1997-08-13 03:00:00,18,1021.1,-0.1,94,17,6000,3.704,,,200,,,,,,,,,,11,wg-a,,,,AAXX 13034 07299 12/56 02002 10180 20170 39894 40211 58001 60006 71100 80000 90300=
07299,1997-08-13 06:00:00,20,1021.9,1.1,88,18,500,7.408,,,160,17,25.4,,,,,,,,,wg-a,,,,AAXX 13064 07299 02/00 41604 10200 20180 39905 40219 53011 60006 82031 90600 333 10254 20170 60004=
07299,1997-08-13 09:00:00,25,1021.4,0.1,69,19,9000,3.704,,,80,,,,,,,,,,,wg-a,,,,AAXX 13094 07299 12759 40802 10250 20190 39906 40214 50001 60006 83280 90900=
07299,1997-08-13 12:00:00,25,1020.7,-0.6,74,20,15000,11.112,,,160,,,,,,,,,,,wg-a,,,,AAXX 13124 07299 12765 31606 10250 20200 39899 40207 58006 60006 83900 91200=
07299,1997-08-13 18:00:00,24,1021.9,-0.3,69,18,20000,3.704,,,40,19.9,28.3,,,,,,,,2,wg-a,,,,AAXX 13184 07299 12770 70402 10240 20180 39909 40219 56003 60006 70291 81962 91800 333 10283 20199=
07299,1997-08-13 21:00:00,20,1023.2,0.9,88,18,15000,3.704,,,250,,,,,,,,,,,wg-a,,,,AAXX 13214 07299 12/65 42502 10200 20180 39917 40232 53009 60006 81032 92100=
07299,1997-08-14 00:00:00,18,1023.6,0.2,88,16,0,11.112,,,170,,,,,,,,,,,wg-a,,,,AAXX 14004 07299 12/// /1706 10180 20160 39919 40236 51002 60006 90000=
07299,1997-08-14 03:00:00,18,1023.5,-0.2,88,16,15000,3.704,,,140,,,,,,,,,,,wg-a,,,,AAXX 14034 07299 12/65 31402 10180 20160 39917 40235 58002 60006 80001 90300=
07299,1997-08-14 06:00:00,19,1023.3,-0,88,17,15000,11.112,,,150,16.3,24.1,,,,,,,,,wg-a,,,,AAXX 14064 07299 02/65 01506 10190 20170 39917 40233 54000 60006 80000 90600 333 10241 20163 60004=
07299,1997-08-14 09:00:00,25,1022.2,-0.4,65,18,18000,3.704,,,150,,,,,,,,,,,wg-a,,,,AAXX 14094 07299 12568 /1502 10250 20180 39913 40222 58004 60006 81200 90900=
07299,1997-08-14 12:00:00,29,1020,-1.7,52,18,18000,7.408,,,300,,,,,,,,,,,wg-a,,,,AAXX 14124 07299 12668 43004 10290 20180 39896 40200 58017 60006 84901 91200=
07299,1997-08-14 15:00:00,27,1020,-0.3,54,17,11000,14.816,,,350,,,,,,,,,,,wg-a,,,,AAXX 14154 07299 12/61 /3508 10270 20170 39893 40200 58003 60006 91500=
07299,1997-08-14 18:00:00,25,1019.5,-0.6,65,18,25000,7.408,,,320,18.6,29.6,,,,,,,,,wg-a,,,,AAXX 14184 07299 12675 43204 10250 20180 39887 40195 55006 60006 81803 91800 333 10296 20186=
07299,1997-08-14 21:00:00,20,1020.5,0.4,88,18,25000,7.408,,,260,,,,,,,,,,,wg-a,,,,AAXX 14214 07299 12/75 02604 10200 20180 39891 40205 51004 60006 80000 92100=
07299,1997-08-15 00:00:00,18,1021.2,0.4,94,17,10000,0,,,0,,,,,,,,,,,wg-a,,,,AAXX 15004 07299 12/60 00000 10180 20170 39895 40212 50004 60006 80000 90000=
07299,1997-08-15 03:00:00,16,1020.9,-0.4,100,16,6000,0,,,0,,,,,,,,,,,wg-a,,,,AAXX 15034 07299 12/56 00000 10160 20160 39891 40209 58004 60006 80000 90300=
07299,1997-08-15 06:00:00,17,1020.9,0.1,100,17,2200,0,,,0,15.3,25.1,,,,,,,,10,wg-a,,,,AAXX 15064 07299 02122 50000 10170 20170 39892 40209 53001 60006 71041 85600 90600 333 10251 20153 60004=
07299,1997-08-15 12:00:00,26,1019.3,-0.8,61,18,11000,7.408,,,290,,,,,,,,,,,wg-a,,,,AAXX 15124 07299 12/61 /2904 10260 20180 39886 40193 56008 60006 91200=
07299,1997-08-15 15:00:00,27,1018.5,-0.8,54,17,16000,11.112,,,10,,,,,,,,,,,wg-a,,,,AAXX 15154 07299 12666 50106 10270 20170 39879 40185 58008 60006 81201 91500=
07299,1997-08-15 18:00:00,25,1018,-0.7,61,17,15000,11.112,,,340,17.2,27.4,,,,,,,,,wg-a,,,,AAXX 15184 07299 12665 73406 10250 20170 39872 40180 58007 60006 81201 91800 333 10274 20172=
07299,1997-08-15 21:00:00,20,1020,1.5,83,17,12000,0,,,0,,,,,,,,,,,wg-a,,,,AAXX 15214 07299 12762 /0000 10200 20170 39886 40200 51015 60006 85530 92100=
07299,1997-08-16 00:00:00,17,1019.8,-0.6,94,16,6000,0,,,0,,,,,,,,,,,wg-a,,,,AAXX 16004 07299 12/56 30000 10170 20160 39881 40198 57006 60006 83030 90000=
07299,1997-08-16 03:00:00,15,1019.3,-0.7,94,14,2500,3.704,,,240,,,,,,,,,,10,wg-a,,,,AAXX 16034 07299 12/25 32402 10150 20140 39874 40193 56007 60006 71000 80001 90300=
07299,1997-08-16 06:00:00,16,1019.6,0.4,94,15,3500,3.704,,,250,14.7,24.4,,,,,,,,10,wg-a,,,,AAXX 16064 07299 02735 32502 10160 20150 39878 40196 50004 60006 71000 81501 90600 333 10244 20147 60004=
07299,1997-08-16 09:00:00,22,1019.2,0.2,69,16,500,3.704,,,250,,,,,,,,,,,wg-a,,,,AAXX 16094 07299 12/00 /2502 10220 20160 39880 40192 50002 60006 80001 90900=
07299,1997-08-16 12:00:00,25,1017.3,-1.4,57,16,10000,11.112,,,340,,,,,,,,,,,wg-a,,,,AAXX 16124 07299 12660 /3406 10250 20160 39865 40173 56014 60006 81101 91200=
07299,1997-08-16 15:00:00,27,1015.7,-1.3,54,17,14000,18.52,,,350,,,,,,,,,,,wg-a,,,,AAXX 16154 07299 12764 23510 10270 20170 39852 40157 58013 60006 81202 91500=
07299,1997-08-16 18:00:00,24,1015.9,-0.1,65,17,9000,11.112,,,340,16,27.2,,,,,,,,,wg-a,,,,AAXX 16184 07299 12659 73406 10240 20170 39851 40159 55001 60006 82983 91800 333 10272 20160=
07299,1997-08-16 21:00:00,22,1017.6,1.4,69,16,8000,7.408,,,300,,,,,,,,,,13,wg-a,,,,AAXX 16214 07299 12658 83004 10220 20160 39865 40176 52014 60006 71322 84983 92100=
07299,1997-08-17 00:00:00,19,1017.7,-0.2,78,15,15000,3.704,,,200,,,,,,,,,,0,wg-a,,,,AAXX 17004 07299 12765 82002 10190 20150 39863 40177 58002 60006 70092 81972 90000=
07299,1997-08-17 03:00:00,17,1017.8,-0.2,82,14,12000,7.408,,,190,,,,,,,,,,,wg-a,,,,AAXX 17034 07299 12762 /1904 10170 20140 39861 40178 58002 60006 81532 90300=
07299,1997-08-17 06:00:00,17,1018.4,0.6,94,16,17000,0,,,0,15.8,24.2,,,,,,,,,wg-a,,,,AAXX 17064 07299 02767 70000 10170 20160 39867 40184 53006 60006 81531 90600 333 10242 20158 60004=
07299,1997-08-17 09:00:00,21,1018.6,0.7,73,16,15000,7.408,,,140,,,,,,,,,,,wg-a,,,,AAXX 17094 07299 12765 51404 10210 20160 39874 40186 51007 60006 81131 90900=
07299,1997-08-17 12:00:00,27,1016.9,-1.1,48,15,15000,3.704,,,150,,,,,,,,,,,wg-a,,,,AAXX 17124 07299 12765 41502 10270 20150 39863 40169 58011 60006 81231 91200=
07299,1997-08-17 15:00:00,25,1016.1,-0.9,57,16,15000,14.816,,,310,,,,,,,,,,,wg-a,,,,AAXX 17154 07299 12765 63108 10250 20160 39854 40161 56009 60006 84901 91500=
07299,1997-08-17 18:00:00,24,1016.9,0.6,61,16,15000,3.704,,,300,16.9,28.5,,,,,,,,1,wg-a,,,,AAXX 17184 07299 02765 73002 10240 20160 39860 40169 51006 60006 70186 81132 91800 333 10285 20169 61000=
07299,1997-08-17 21:00:00,19,1018.2,0.7,88,17,11000,3.704,,,240,,,,,,,,,,,wg-a,,,,AAXX 17214 07299 12/61 12402 10190 20170 39867 40182 52007 60006 80001 92100=
07299,1997-08-18 00:00:00,17,1018.4,0,88,15,11000,7.408,,,190,,,,,,,,,,,wg-a,,,,AAXX 18004 07299 12/61 01904 10170 20150 39867 40184 50000 60006 80000 90000=
07299,1997-08-18 03:00:00,15,1018.4,-0.2,94,14,10000,7.408,,,170,,,,,,,,,,,wg-a,,,,AAXX 18034 07299 12/60 01704 10150 20140 39865 40184 56002 60006 80000 90300=
07299,1997-08-18 06:00:00,16,1018.3,-0,94,15,8000,7.408,,,180,14.5,23.8,,,,,,,,,wg-a,,,,AAXX 18064 07299 02/58 /1804 10160 20150 39865 40183 55000 60006 80001 90600 333 10238 20145 60004=
07299,1997-08-18 09:00:00,23,1017.9,0.4,69,17,15000,3.704,,,120,,,,,,,,,,,wg-a,,,,AAXX 18094 07299 12665 21202 10230 20170 39869 40179 52004 60006 81201 90900=
07299,1997-08-18 12:00:00,27,1016.4,-1,51,16,15000,3.704,,,300,,,,,,,,,,,wg-a,,,,AAXX 18124 07299 12565 23002 10270 20160 39859 40164 56010 60006 82901 91200=
07299,1997-08-18 15:00:00,27,1016.2,-0.3,51,16,10000,11.112,,,320,,,,,,,,,,,wg-a,,,,AAXX 18154 07299 12560 /3206 10270 20160 39856 40162 56003 60006 84903 91500=
07299,1997-08-18 18:00:00,24,1016.4,-0,65,17,15000,7.408,,,10,16.1,27.9,,,,,,,,,wg-a,,,,AAXX 18184 07299 12665 /0104 10240 20170 39856 40164 55000 60006 81132 91800 333 10279 20161=
07299,1997-08-18 21:00:00,19,1018,0.9,88,17,12000,0,,,0,,,,,,,,,,,wg-a,,,,AAXX 18214 07299 12/62 30000 10190 20170 39865 40180 53009 60006 81032 92100=
07299,1997-08-19 00:00:00,17,1017.7,-0.5,88,15,0,7.408,,,170,,,,,,,,,,,wg-a,,,,AAXX 19004 07299 12/// /1704 10170 20150 39860 40177 58005 60006 90000=
07299,1997-08-19 06:00:00,16,1018.2,0.5,94,15,500,7.408,,,160,14.3,24.4,,,,,,,,,wg-a,,,,AAXX 19064 07299 02/00 /1604 10160 20150 39864 40182 53005 60006 80000 90600 333 10244 20143 60004=
07299,1997-08-19 09:00:00,23,1017.2,-0.2,65,16,8000,3.704,,,130,,,,,,,,,,,wg-a,,,,AAXX 19094 07299 12558 11302 10230 20160 39862 40172 57002 60006 81101 90900=
07299,1997-08-19 12:00:00,27,1015.8,-0.8,51,16,15000,3.704,,,20,,,,,,,,,,,wg-a,,,,AAXX 19124 07299 12665 /0202 10270 20160 39853 40158 58008 60006 81200 91200=
07299,1997-08-19 15:00:00,28,1014.8,-1,32,10,18000,7.408,,,50,,,,,,,,,,,wg-a,,,,AAXX 19154 07299 12768 /0504 10280 20100 39843 40148 56010 60006 81904 91500=
07299,1997-08-19 18:00:00,25,1015.3,0.2,50,14,18000,7.408,,,320,16.3,28.7,,,,,,,,,wg-a,,,,AAXX 19184 07299 12768 73204 10250 20140 39845 40153 53002 60006 81172 91800 333 10287 20163=
07299,1997-08-19 20:00:00,18,1017,0.8,83,15,15000,7.408,,,210,,,,,,,,,,,wg-a,,,,AAXX 19204 07299 12/65 42104 10180 20150 39853 40170 51008 60006 81031 92000=
07299,1997-08-19 21:00:00,18,1016.8,0.8,83,15,10000,7.408,,,210,,,,,,,,,,,wg-a,,,,AAXX 19214 07299 12/60 /2104 10180 20150 39853 40168 51008 60006 92100=
07299,1997-08-20 00:00:00,16,1017,-0.1,88,14,15000,0,,,0,,,,,,,,,,,wg-a,,,,AAXX 20004 07299 12/65 50000 10160 20140 39852 40170 58001 60006 80001 90000=
07299,1997-08-20 03:00:00,14,1017.2,0.2,94,13,15000,7.408,,,180,,,,,,,,,,,wg-a,,,,AAXX 20034 07299 12/65 51804 10140 20130 39853 40172 53002 60006 80001 90300=
07299,1997-08-20 06:00:00,16,1018.3,1.1,88,14,7000,7.408,,,180,13.8,24.5,,,,,,,,,wg-a,,,,AAXX 20064 07299 02/57 /1804 10160 20140 39865 40183 53011 60006 80000 90600 333 10245 20138 60004=
07299,1997-08-20 09:00:00,23,1017.7,0.2,61,15,11000,7.408,,,100,,,,,,,,,,,wg-a,,,,AAXX 20094 07299 12/61 11004 10230 20150 39867 40177 51002 60006 80001 90900=
07299,1997-08-20 12:00:00,28,1016.4,-0.8,37,12,14000,7.408,,,290,,,,,,,,,,,wg-a,,,,AAXX 20124 07299 12764 /2904 10280 20120 39859 40164 57008 60006 81204 91200=
07299,1997-08-20 15:00:00,28,1016,-0.4,42,14,15000,11.112,,,320,,,,,,,,,,,wg-a,,,,AAXX 20154 07299 12765 /3206 10280 20140 39855 40160 55004 60006 81933 91500=
07299,1997-08-20 18:00:00,26,1016.2,0.1,48,14,16000,7.408,,,20,15.7,29.7,,,,,,,,,wg-a,,,,AAXX 20184 07299 12/66 30204 10260 20140 39856 40162 53001 60006 80003 91800 333 10297 20157=
07299,1997-08-20 21:00:00,19,1018,1,83,16,8000,3.704,,,260,,,,,,,,,,,wg-a,,,,AAXX 20214 07299 12/58 02602 10190 20160 39865 40180 52010 60006 80000 92100=
07299,1997-08-21 00:00:00,15,1018.9,0.4,94,14,6000,7.408,,,180,,,,,,,,,,,wg-a,,,,AAXX 21004 07299 12756 /1804 10150 20140 39870 40189 51004 60006 81500 90000=
07299,1997-08-21 03:00:00,15,1019.3,0.4,88,13,6000,11.112,,,180,,,,,,,,,,,wg-a,,,,AAXX 21034 07299 12/56 /1806 10150 20130 39874 40193 50004 60006 80001 90300=
07299,1997-08-21 06:00:00,17,1019.8,0.7,88,15,7000,11.112,,,170,14.1,26.2,,,,,,,,,wg-a,,,,AAXX 21064 07299 02/57 /1706 10170 20150 39881 40198 53007 60006 80001 90600 333 10262 20141 60004=
07299,1997-08-21 07:00:00,17,1019.8,0.7,88,15,7000,11.112,,,170,14.1,26.2,,,,,,,,,wg-a,,,,AAXX 21074 07299 02/57 /1706 10170 20150 39881 40198 53007 60006 80001 90700 333 10262 20141 60004=
07299,1997-08-21 09:00:00,24,1019.5,0.5,61,16,9000,7.408,,,120,,,,,,,,,,,wg-a,,,,AAXX 21094 07299 12659 /1204 10240 20160 39886 40195 51005 60006 81100 90900=
07299,1997-08-21 12:00:00,29,1018.1,-1,40,14,15000,7.408,,,290,,,,,,,,,,,wg-a,,,,AAXX 21124 07299 12765 /2904 10290 20140 39876 40181 57010 60006 81901 91200=
07299,1997-08-21 18:00:00,27,1018,0.2,45,14,28000,3.704,,,350,16.6,30.2,,,,,,,,,wg-a,,,,AAXX 21184 07299 12778 /3502 10270 20140 39874 40180 53002 60006 81201 91800 333 10302 20166=
07299,1997-08-22 00:00:00,16,1021.2,0.5,88,14,20000,7.408,,,180,,,,,,,,,,,wg-a,,,,AAXX 22004 07299 12/70 01804 10160 20140 39893 40212 51005 60006 80000 90000=
07299,1997-08-22 06:00:00,16,1022.1,0.9,88,14,8000,7.408,,,160,14.1,26.7,,,,,,,,,wg-a,,,,AAXX 22064 07299 02/58 51604 10160 20140 39902 40221 51009 60006 80001 90600 333 10267 20141 60004=
07299,1997-08-22 09:00:00,24,1021.5,0.3,57,15,15000,3.704,,,110,,,,,,,,,,,wg-a,,,,AAXX 22094 07299 12/65 61102 10240 20150 39905 40215 50003 60006 80001 90900=
07299,1997-08-22 12:00:00,29,1020,-1,35,12,20000,3.704,,,20,,,,,,,,,,,wg-a,,,,AAXX 22124 07299 12770 70202 10290 20120 39895 40200 58010 60006 81231 91200=
07299,1997-08-22 15:00:00,30,1018.7,-1.1,33,12,25000,7.408,,,40,,,,,,,,,,,wg-a,,,,AAXX 22154 07299 12775 50404 10300 20120 39884 40187 56011 60006 81131 91500=
07299,1997-08-22 18:00:00,25,1019,-0.3,57,16,500,7.408,,,270,16.1,30.8,,,,,,,,,wg-a,,,,AAXX 22184 07299 12/00 62704 10250 20160 39881 40190 56003 60006 82032 91800 333 10308 20161=
07299,1997-08-22 21:00:00,19,1020,0.4,83,16,15000,3.704,,,210,,,,,,,,,,,wg-a,,,,AAXX 22214 07299 12/65 52102 10190 20160 39885 40200 50004 60006 81032 92100=
07299,1997-08-23 00:00:00,17,1020,-0.2,88,15,8000,3.704,,,190,,,,,,,,,,,wg-a,,,,AAXX 23004 07299 12/58 71902 10170 20150 39883 40200 58002 60006 81031 90000=
07299,1997-08-23 03:00:00,16,1019.7,-0.5,88,14,8000,3.704,,,200,,,,,,,,,,,wg-a,,,,AAXX 23034 07299 12/58 /2002 10160 20140 39878 40197 56005 60006 80001 90300=
07299,1997-08-23 06:00:00,17,1019.7,0.2,88,15,8000,11.112,,,160,15,24.4,,,,,,,,,wg-a,,,,AAXX 23064 07299 02/58 41606 10170 20150 39880 40197 50002 60006 81032 90600 333 10244 20150 60004=
07299,1997-08-23 09:00:00,25,1018.5,-0.3,54,15,12000,7.408,,,80,,,,,,,,,,,wg-a,,,,AAXX 23094 07299 12/62 20804 10250 20150 39877 40185 56003 60006 82031 90900=
07299,1997-08-23 12:00:00,30,1016.9,-1.1,40,15,25000,7.408,,,290,,,,,,,,,,,wg-a,,,,AAXX 23124 07299 12775 22904 10300 20150 39866 40169 57011 60006 82201 91200=
07299,1997-08-23 15:00:00,31,1015.5,-1.3,33,13,25000,11.112,,,280,,,,,,,,,,,wg-a,,,,AAXX 23154 07299 12775 22806 10310 20130 39853 40155 56013 60006 81230 91500=
07299,1997-08-23 18:00:00,27,1015.2,-0.5,51,16,17000,11.112,,,300,16.7,31.5,,,,,,,,,wg-a,,,,AAXX 23184 07299 12/67 43006 10270 20160 39847 40152 56005 60006 84030 91800 333 10315 20167=
07299,1997-08-23 21:00:00,21,1016.4,0.5,78,17,20000,3.704,,,210,,,,,,,,,,,wg-a,,,,AAXX 23214 07299 12/70 22102 10210 20170 39852 40164 51005 60006 82030 92100=
07299,1997-08-24 00:00:00,18,1016.8,0.1,88,16,15000,7.408,,,180,,,,,,,,,,,wg-a,,,,AAXX 24004 07299 12/65 31804 10180 20160 39853 40168 51001 60006 83030 90000=
07299,1997-08-24 03:00:00,18,1016.6,-0.2,88,16,15000,7.408,,,170,,,,,,,,,,,wg-a,,,,AAXX 24034 07299 12/65 51704 10180 20160 39851 40166 56002 60006 85030 90300=
07299,1997-08-24 06:00:00,19,1016.9,0.4,83,16,15000,7.408,,,190,17.5,26.7,,,,,,,,,wg-a,,,,AAXX 24064 07299 02/65 71904 10190 20160 39855 40169 53004 60006 8703/ 90600 333 10267 20175 60004=
07299,1997-08-24 09:00:00,26,1016.4,0.2,58,17,9000,7.408,,,150,,,,,,,,,,,wg-a,,,,AAXX 24094 07299 12/59 /1504 10260 20170 39857 40164 51002 60006 83032 90900=
07299,1997-08-24 12:00:00,30,1014.7,-1.2,43,16,15000,3.704,,,200,,,,,,,,,,,wg-a,,,,AAXX 24124 07299 12765 32002 10300 20160 39845 40147 58012 60006 81332 91200=
07299,1997-08-24 15:00:00,32,1013,-1.4,34,14,18000,3.704,,,240,,,,,,,,,,,wg-a,,,,AAXX 24154 07299 12768 22402 10320 20140 39830 40130 57014 60006 81933 91500=
07299,1997-08-24 18:00:00,29,1012.3,-0.9,45,16,20000,3.704,,,320,19.3,32.2,,,,,,,,,wg-a,,,,AAXX 24184 07299 12770 /3202 10290 20160 39821 40123 57009 60006 81233 91800 333 10322 20193=
07299,1997-08-24 21:00:00,20,1013.2,-0,83,17,17000,3.704,,,220,,,,,,,,,,,wg-a,,,,AAXX 24214 07299 12/67 02202 10200 20170 39821 40132 55000 60006 80000 92100=
07299,1997-08-25 00:00:00,18,1013.1,-0.4,88,16,15000,0,,,0,,,,,,,,,,,wg-a,,,,AAXX 25004 07299 12/65 00000 10180 20160 39817 40131 58004 60006 80000 90000=
07299,1997-08-25 03:00:00,16,1012.5,-0.6,94,15,15000,3.704,,,200,,,,,,,,,,,wg-a,,,,AAXX 25034 07299 12/65 02002 10160 20150 39810 40125 56006 60006 80000 90300=
07299,1997-08-25 06:00:00,19,1012.9,0.5,83,16,8000,7.408,,,160,16.3,29,,,,,,,,,wg-a,,,,AAXX 25064 07299 02/58 01604 10190 20160 39816 40129 52005 60006 80000 90600 333 10290 20163 60004=
07299,1997-08-25 09:00:00,27,1011.1,-0.9,54,17,18000,7.408,,,130,,,,,,,,,,,wg-a,,,,AAXX 25094 07299 12/68 01304 10270 20170 39807 40111 58009 60006 80000 90900=
07299,1997-08-25 12:00:00,30,1009.2,-1.5,43,16,20000,14.816,,,270,,,,,,,,,,,wg-a,,,,AAXX 25124 07299 12770 /2708 10300 20160 39792 40092 56015 60006 81200 91200=
07299,1997-08-25 15:00:00,31,1007.8,-1.3,40,16,20000,14.816,,,270,,,,,,,,,,,wg-a,,,,AAXX 25154 07299 12770 22708 10310 20160 39779 40078 58013 60006 81203 91500=
07299,1997-08-25 18:00:00,26,1008.4,0.1,61,18,9000,14.816,,,250,18.3,31.2,,,,,,,,,wg-a,,,,AAXX 25184 07299 12759 72508 10260 20180 39780 40084 53001 60006 81383 91800 333 10312 20183=
07299,1997-08-26 00:00:00,20,1011.2,0.1,94,19,7000,7.408,,,120,,,,1,,,,,,60,wg-a,,,,AAXX 26004 07299 02657 81204 10200 20190 39802 40112 50001 60096 76086 873// 90000 333 60017=
07299,1997-08-26 03:00:00,20,1010.7,-0.6,88,18,7000,7.408,,,110,,,,,,,,,,21,wg-a,,,,AAXX 26034 07299 02757 71104 10200 20180 39796 40107 56006 61000 72162 8453/ 90300 333 ////=
07299,1997-08-26 06:00:00,20,1011.1,0.4,88,18,7000,3.704,,,180,18.5,26.2,,,,,9,,,3,wg-a,,,,AAXX 26064 07299 02757 71802 10200 20180 39800 40111 53004 60006 70362 8553/ 90600 333 10262 20185 60094=
07299,1997-08-26 09:00:00,22,1011,0.2,78,18,10000,3.704,,,100,,,,,,,,,,,wg-a,,,,AAXX 26094 07299 12660 71002 10220 20180 39802 40110 50002 60006 8453/ 90900=
07299,1997-08-26 12:00:00,26,1009.9,-0.7,61,18,10000,11.112,,,250,,,,,,,,,,,wg-a,,,,AAXX 26124 07299 12760 72506 10260 20180 39795 40099 58007 60006 8123/ 91200=
07299,1997-08-26 15:00:00,25,1008.6,-1.4,65,18,10000,14.816,,,240,,,,,,,,,,80,wg-a,,,,AAXX 26154 07299 02660 72408 10250 20180 39781 40086 56014 61000 78086 82332 91500 333 ////=
07299,1997-08-26 18:00:00,23,1009.4,0.6,69,17,10000,7.408,,,280,19.1,27.1,,0,,,,,,1,wg-a,,,,AAXX 26184 07299 02760 82804 10230 20170 39787 40094 51006 60006 70186 8117/ 91800 333 10271 20191 60007=
07299,1997-08-26 21:00:00,21,1010.3,0.6,83,18,10000,3.704,,,50,,,,,,,,,,,wg-a,,,,AAXX 26214 07299 12760 80502 10210 20180 39793 40103 52006 60006 82532 92100=
07299,1997-08-27 00:00:00,20,1010.2,-0.1,88,18,9000,7.408,,,110,,,,,,,,,,,wg-a,,,,AAXX 27004 07299 12759 81104 10200 20180 39792 40102 58001 60006 8353/ 90000=
07299,1997-08-27 06:00:00,19,1009.5,-0,88,17,6000,3.704,,,110,18.1,22.8,,,,,,,,,wg-a,,,,AAXX 27064 07299 02/56 /1102 10190 20170 39783 40095 55000 60006 81031 90600 333 10228 20181 60004=
07299,1997-08-27 09:00:00,24,1008.6,-0.3,61,16,12000,11.112,,,130,,,,,,,,,,,wg-a,,,,AAXX 27094 07299 12562 41306 10240 20160 39780 40086 58003 60006 81102 90900=
07299,1997-08-27 12:00:00,28,1006,-2.1,45,15,20000,11.112,,,110,,,,,,,,,,,wg-a,,,,AAXX 27124 07299 12670 31106 10280 20150 39759 40060 57021 60006 81101 91200=
07299,1997-08-27 15:00:00,28,1005,-1,42,14,20000,11.112,,,180,,,,,,,,,,,wg-a,,,,AAXX 27154 07299 12770 71806 10280 20140 39749 40050 57010 60006 8385/ 91500=
07299,1997-08-27 18:00:00,22,1005.3,-0.4,88,20,13000,3.704,,,180,18.7,29.4,,1,,,,,,1,wg-a,,,,AAXX 27184 07299 02763 71802 10220 20200 39746 40053 58004 60006 70186 8537/ 91800 333 10294 20187 60017=
07299,1997-08-27 21:00:00,20,1003.9,-1.4,94,19,13000,0,,,0,,,,,,,,,,,wg-a,,,,AAXX 27214 07299 12763 70000 10200 20190 39731 40039 58014 60006 8557/ 92100=
07299,1997-08-28 00:00:00,20,1003.9,-0.1,88,18,0,7.408,,,270,,,,,,,,,,,wg-a,,,,AAXX 28004 07299 12/// /2704 10200 20180 39730 40039 55001 60006 90000=
07299,1997-08-28 06:00:00,17,1003.3,-0.9,94,16,16000,3.704,,,60,17.3,21.9,,,,,,,,60,wg-a,,,,AAXX 28064 07299 02466 80602 10170 20160 39722 40033 56009 61000 76062 8687/ 90600 333 10219 20173 6004=
07299,1997-08-28 09:00:00,17,1005.9,2.4,94,16,6000,7.408,,,260,,,,1,,,,,,61,wg-a,,,,AAXX 28094 07299 12456 82604 10170 20160 39747 40059 53024 60017 76166 8782/ 90900=
07299,1997-08-28 12:00:00,15,1009.3,3.1,88,13,7000,22.224,,,250,,,,5,,,,,,61,wg-a,,,,AAXX 28124 07299 02457 82512 10150 20130 39777 40093 53031 60066 76166 8722/ 91200 333 60057=
07299,1997-08-28 18:00:00,14,1009.9,0.1,88,12,18000,11.112,,,120,13.7,17.8,,,,,,,,2,wg-a,,,,AAXX 28184 07299 02468 71206 10140 20120 39781 40099 51001 60006 70262 81872 91800 333 10178 20137 61000=
07299,1997-08-28 21:00:00,13,1011.4,1.3,94,12,15000,11.112,,,170,,,,,,,,,,,wg-a,,,,AAXX 28214 07299 12765 71706 10130 20120 39795 40114 51013 60006 875// 92100=
07299,1997-08-29 00:00:00,13,1012.6,1.2,94,12,15000,7.408,,,90,,,,,,,,,,,wg-a,,,,AAXX 29004 07299 12665 70904 10130 20120 39807 40126 52012 60006 8653/ 90000=
07299,1997-08-29 03:00:00,14,1013.7,1.1,88,12,12000,18.52,,,240,,,,1,,,,,,60,wg-a,,,,AAXX 29034 07299 12662 72410 10140 20120 39818 40137 51011 60017 76086 875// 90300=
07299,1997-08-29 06:00:00,13,1015.8,1.9,88,11,16000,14.816,,,240,12.9,13.9,,,,,13,,,3,wg-a,,,,AAXX 29064 07299 02566 62408 10130 20110 39838 40158 53019 60006 70386 85831 90600 333 10139 20129 60134=
07299,1997-08-29 09:00:00,17,1016.3,1,63,10,20000,29.632,,,250,,,,,,,,,,,wg-a,,,,AAXX 29094 07299 12570 52516 10170 20100 39847 40163 51010 60006 85230 90900=
07299,1997-08-29 12:00:00,19,1017.3,1,52,9,35000,18.52,,,250,,,,,,,,,,3,wg-a,,,,AAXX 29124 07299 02681 62510 10190 20090 39858 40173 52010 61000 70386 85830 91200 333 6100=
07299,1997-08-29 15:00:00,20,1017.7,0.5,49,9,20000,25.928,,,260,,,,1,,,,,,15,wg-a,,,,AAXX 29154 07299 12670 62614 10200 20090 39863 40177 51005 60017 71586 85830 91500=
07299,1997-08-29 18:00:00,17,1019,1,68,11,40000,3.704,,,210,13.3,20.4,,0,,,,,,1,wg-a,,,,AAXX 29184 07299 02582 /2102 10170 20110 39873 40190 51010 60006 70186 83231 91800 333 10204 20133 60007=
07299,1997-08-30 00:00:00,12,1021.1,-0.2,88,10,18000,0,,,0,,,,,,,,,,,wg-a,,,,AAXX 30004 07299 12/68 40000 10120 20100 39887 40211 58002 60006 82032 90000=
07299,1997-08-30 03:00:00,12,1020.5,-0.5,94,11,18000,7.408,,,170,,,,,,,,,,,wg-a,,,,AAXX 30034 07299 12/68 61704 10120 20110 39882 40205 57005 60006 84032 90300=
07299,1997-08-30 06:00:00,14,1019.8,-0.5,82,11,25000,11.112,,,140,10.9,16.9,,,,,1,,,,wg-a,,,,AAXX 30064 07299 02675 71406 10140 20110 39877 40198 55005 60006 8253/ 90600 333 10169 20109 60014=
07299,1997-08-30 09:00:00,15,1019.5,-0.1,88,13,20000,7.408,,,130,,,,1,,,,,,61,wg-a,,,,AAXX 30094 07299 12570 71304 10150 20130 39876 40195 58001 60017 76162 8587/ 90900=
07299,1997-08-30 12:00:00,17,1019.1,-0.2,82,14,10000,7.408,,,110,,,,,,,,,,21,wg-a,,,,AAXX 30124 07299 02560 71104 10170 20140 39874 40191 56002 60016 72162 878// 91200 333 61000=
07299,1997-08-30 15:00:00,16,1019.8,0.6,94,15,4000,11.112,,,130,,,,,,,,,,60,wg-a,,,,AAXX 30154 07299 02340 71306 10160 20150 39880 40198 51006 61000 76062 875// 91500 333 ////=
07299,1997-08-30 18:00:00,18,1020,0.3,83,15,15000,3.704,,,130,13.8,17.6,,0,,,,,,2,wg-a,,,,AAXX 30184 07299 02365 71302 10180 20150 39883 40200 52003 60006 70262 875// 91800 333 10176 20138 60007=
07299,1997-08-30 21:00:00,16,1020.7,0.6,94,15,20000,3.704,,,150,,,,,,,,,,,wg-a,,,,AAXX 30214 07299 12570 /1502 10160 20150 39889 40207 53006 60006 83530 92100=
07299,1997-08-31 00:00:00,16,1021,0.2,94,15,20000,3.704,,,190,,,,,,,,,,,wg-a,,,,AAXX 31004 07299 12770 71902 10160 20150 39891 40210 52002 60006 8353/ 90000=
07299,1997-08-31 03:00:00,14,1020.4,-0.8,94,13,20000,11.112,,,180,,,,,,,,,,,wg-a,,,,AAXX 31034 07299 12/70 01806 10140 20130 39883 40204 56008 60006 80000 90300=
07299,1997-08-31 06:00:00,16,1020.1,-0.1,94,15,4000,7.408,,,140,13.4,17.9,,,,,1,,,40,wg-a,,,,AAXX 31064 07299 02040 /1404 10160 20150 39882 40201 56001 60006 74011 81601 90600 333 10179 20134 60014=
07299,1997-08-31 12:00:00,26,1017.1,-1.4,51,15,55000,14.816,,,90,,,,,,,,,,,wg-a,,,,AAXX 31124 07299 12685 30908 10260 20150 39864 40171 58014 60006 81131 91200=
07299,1997-08-31 15:00:00,27,1015.5,-1.5,48,15,55000,11.112,,,110,,,,,,,,,,,wg-a,,,,AAXX 31154 07299 12/85 11106 10270 20150 39850 40155 58015 60006 81030 91500=
07299,1997-08-31 18:00:00,25,1015.3,-0.4,57,16,55000,7.408,,,120,15.8,27.6,,,,,,,,,wg-a,,,,AAXX 31184 07299 12/85 21204 10250 20160 39846 40153 55004 60006 81081 91800 333 10276 20158=
07299,1997-08-31 21:00:00,20,1016.5,0.7,78,16,50000,7.408,,,100,,,,,,,,,,,wg-a,,,,AAXX 31214 07299 12/84 01004 10200 20160 39853 40165 51007 60006 80000 92100=
07299,1997-09-01 00:00:00,16,1017.5,0.5,94,15,0,11.112,,,150,,,,,,,,,,,wg-a,,,,AAXX 01004 07299 12/// /1506 10160 20150 39858 40175 52005 60006 90000=
07299,1997-09-01 03:00:00,15,1017.7,-0,94,14,10000,11.112,,,180,,,,,,,,,,,wg-a,,,,AAXX 01034 07299 12/60 /1806 10150 20140 39858 40177 55000 60006 90300=
07299,1997-09-01 06:00:00,16,1018.4,0.7,94,15,50000,7.408,,,160,14.7,24.8,,,,,,,,,wg-a,,,,AAXX 01064 07299 02784 31604 10160 20150 39866 40184 52007 60006 81281 90600 333 10248 20147 60004=
07299,1997-09-01 09:00:00,23,1017.2,-0.2,69,17,50000,3.704,,,120,,,,,,,,,,,wg-a,,,,AAXX 01094 07299 12784 51202 10230 20170 39863 40172 58002 60006 81132 90900=
07299,1997-09-01 12:00:00,28,1015.1,-1.7,48,16,50000,3.704,,,60,,,,,,,,,,,wg-a,,,,AAXX 01124 07299 12784 20602 10280 20160 39847 40151 57017 60006 81102 91200=
07299,1997-09-01 15:00:00,29,1013.5,-1.4,45,16,50000,3.704,,,320,,,,,,,,,,,wg-a,,,,AAXX 01154 07299 12784 /3202 10290 20160 39832 40135 56014 60006 81202 91500=
07299,1997-09-01 18:00:00,26,1013.4,-0.2,61,18,35000,3.704,,,330,16.1,29.8,,,,,,,,,wg-a,,,,AAXX 01184 07299 12781 73302 10260 20180 39829 40134 55002 60006 81532 91800 333 10298 20161=
07299,1997-09-01 21:00:00,20,1017.2,2.8,83,17,20000,7.408,,,240,,,,,,,,,,17,wg-a,,,,AAXX 01214 07299 02670 72404 10200 20170 39859 40172 53028 61000 71798 83932 92100 333 ////=
07299,1997-09-02 00:00:00,19,1017.1,-0.2,88,17,20000,3.704,,,110,,,,0,,,,,,0,wg-a,,,,AAXX 02004 07299 02/70 61102 10190 20170 39857 40171 58002 60016 70098 83032 90000 333 60007=
07299,1997-09-02 03:00:00,18,1017.9,0.7,88,16,20000,7.408,,,270,,,,,,,,,,,wg-a,,,,AAXX 02034 07299 12/70 72704 10180 20160 39864 40179 53007 60006 8707/ 90300=
07299,1997-09-02 06:00:00,18,1018.2,0.3,94,17,20000,3.704,,,180,16.8,25.7,,,,,,,,,wg-a,,,,AAXX 02064 07299 02470 71802 10180 20170 39867 40182 51003 60006 82872 90600 333 10257 20168 60004=
07299,1997-09-02 09:00:00,19,1018.7,0.7,94,18,10000,3.704,,,300,,,,0,,,,,,3,wg-a,,,,AAXX 02094 07299 12360 73002 10190 20180 39873 40187 51007 60007 70362 8177/ 90900=
07299,1997-09-02 12:00:00,21,1019.2,0.5,83,18,15000,11.112,,,320,,,,,,,,,,2,wg-a,,,,AAXX 02124 07299 12465 73206 10210 20180 39879 40192 53005 60006 70262 8227/ 91200=
07299,1997-09-02 18:00:00,18,1019.3,0.2,94,17,6000,11.112,,,300,17.9,21.1,,,,,,,,61,wg-a,,,,AAXX 02184 07299 02756 83006 10180 20170 39878 40193 52002 61000 76162 8457/ 91800 333 10211 20179 6001=
07299,1997-09-02 21:00:00,17,1020.1,0.6,100,17,3000,11.112,,,290,,,,4,,,,,,61,wg-a,,,,AAXX 02214 07299 12230 82906 10170 20170 39884 40201 51006 60047 76166 8587/ 92100=
07299,1997-09-03 00:00:00,17,1020.4,0.3,100,17,3500,11.112,,,330,,,,17,,,,,,60,wg-a,,,,AAXX 03004 07299 02235 83306 10170 20170 39887 40204 51003 60216 76066 877// 90000 333 60177=
07299,1997-09-03 03:00:00,16,1020,-0.5,100,16,3000,11.112,,,320,,,,0,,,,,,10,wg-a,,,,AAXX 03034 07299 12130 73206 10160 20160 39882 40200 56005 60007 71065 876// 90300=
07299,1997-09-03 06:00:00,16,1020.2,0.2,100,16,1600,11.112,,,340,15.7,18,,,,,,,,10,wg-a,,,,AAXX 03064 07299 02116 83406 10160 20160 39884 40202 53002 61000 71065 877// 90600 333 10180 20157 6022=
07299,1997-09-03 09:00:00,16,1021,0.9,100,16,1800,11.112,,,310,,,,0,,,,,,10,wg-a,,,,AAXX 03094 07299 12118 83106 10160 20160 39892 40210 53009 60007 71055 877// 90900=
07299,1997-09-03 12:00:00,17,1021,0,100,17,4000,3.704,,,300,,,,,,,,,,10,wg-a,,,,AAXX 03124 07299 02240 83002 10170 20170 39893 40210 50000 60016 71054 877// 91200 333 61000=
07299,1997-09-03 18:00:00,19,1020.2,-0,88,17,9000,3.704,,,210,15.6,20.9,,,,,,,,,wg-a,,,,AAXX 03184 07299 12559 42102 10190 20170 39887 40202 55000 60006 83501 91800 333 10209 20156=
07299,1997-09-03 21:00:00,16,1021.4,0.8,94,15,9000,0,,,0,,,,,,,,,,,wg-a,,,,AAXX 03214 07299 12/59 /0000 10160 20150 39895 40214 51008 60006 80000 92100=
07299,1997-09-04 00:00:00,14,1021.4,-0.2,100,14,6000,3.704,,,200,,,,,,,,,,,wg-a,,,,AAXX 04004 07299 12/56 02002 10140 20140 39893 40214 58002 60006 80000 90000=
07299,1997-09-04 03:00:00,14,1020.9,-0.5,100,14,400,3.704,,,170,,,,0,,,,,,40,wg-a,,,,AAXX 04034 07299 12004 51702 10140 20140 39888 40209 56005 60007 74041 85600 90300=
07299,1997-09-04 06:00:00,15,1021.5,0.7,100,15,3000,3.704,,,190,13.2,19,,,,,1,,,40,wg-a,,,,AAXX 04064 07299 02230 71902 10150 20150 39895 40215 53007 60006 74041 86631 90600 333 10190 20132 60014=
07299,1997-09-04 09:00:00,21,1021.1,0.3,78,17,8000,3.704,,,140,,,,,,,,,,,wg-a,,,,AAXX 04094 07299 12458 71402 10210 20170 39898 40211 51003 60006 81132 90900=
07299,1997-09-04 15:00:00,24,1018.6,-1,65,17,35000,7.408,,,290,,,,,,,,,,,wg-a,,,,AAXX 04154 07299 12681 72904 10240 20170 39877 40186 57010 60006 83851 91500=
07299,1997-09-04 18:00:00,22,1018.8,-0,73,17,35000,3.704,,,290,14.4,25.8,,,,,,,,,wg-a,,,,AAXX 04184 07299 12/81 22902 10220 20170 39877 40188 55000 60006 82081 91800 333 10258 20144=
07299,1997-09-04 21:00:00,18,1020,0.7,94,17,15000,0,,,0,,,,,,,,,,,wg-a,,,,AAXX 04214 07299 12/65 10000 10180 20170 39884 40200 51007 60006 81031 92100=
07299,1997-09-05 00:00:00,15,1020.3,-0,100,15,0,0,,,0,,,,,,,,,,,wg-a,,,,AAXX 05004 07299 12/// /0000 10150 20150 39884 40203 54000 60006 90000=
07299,1997-09-05 03:00:00,14,1020.4,-0,100,14,8000,0,,,0,,,,0,,,,,,,wg-a,,,,AAXX 05034 07299 12/58 10000 10140 20140 39884 40204 54000 60007 81030 90300=
07299,1997-09-05 06:00:00,15,1020.5,0.2,100,15,200,7.408,,,180,14,22.2,,,,,,,,44,wg-a,,,,AAXX 05064 07299 02102 71804 10150 20150 39886 40205 53002 60006 74441 86631 90600 333 10222 20140 60004=
07299,1997-09-05 12:00:00,26,1018.2,-0.8,51,15,20000,7.408,,,280,,,,,,,,,,3,wg-a,,,,AAXX 05124 07299 12670 42804 10260 20150 39875 40182 56008 60006 70341 81231 91200=
07299,1997-09-05 15:00:00,27,1017.2,-1,48,15,50000,11.112,,,300,,,,,,,,,,,wg-a,,,,AAXX 05154 07299 12684 53006 10270 20150 39866 40172 58010 60006 81231 91500=
07299,1997-09-05 18:00:00,24,1017.4,-0.1,69,18,40000,7.408,,,270,15.3,27.4,,,,,,,,,wg-a,,,,AAXX 05184 07299 12682 52704 10240 20180 39865 40174 55001 60006 83831 91800 333 10274 20153=
07299,1997-09-05 21:00:00,19,1018.8,0.9,94,18,25000,3.704,,,190,,,,,,,,,,,wg-a,,,,AAXX 05214 07299 12775 /1902 10190 20180 39874 40188 51009 60006 81500 92100=
07299,1997-09-06 00:00:00,19,1018.5,-0.3,94,18,25000,7.408,,,160,,,,,,,,,,,wg-a,,,,AAXX 06004 07299 12775 61604 10190 20180 39871 40185 58003 60006 865/0 90000=
07299,1997-09-06 03:00:00,19,1019.4,0.8,94,18,9000,7.408,,,200,,,,0,,,,,,80,wg-a,,,,AAXX 06034 07299 12759 72004 10190 20180 39879 40194 53008 60007 78098 879// 90300=
07299,1997-09-06 06:00:00,18,1021.3,1.8,100,18,6000,7.408,,,270,17.8,23.3,,,,,,,,25,wg-a,,,,AAXX 06064 07299 02256 72704 10180 20180 39897 40213 53018 61000 72598 878// 90600 333 10233 20178 6002=
07299,1997-09-06 09:00:00,18,1022.4,1.1,100,18,6000,3.704,,,280,,,,0,,,,,,10,wg-a,,,,AAXX 06094 07299 12356 82802 10180 20180 39908 40224 51011 60007 71086 878// 90900=
07299,1997-09-06 12:00:00,21,1022.2,0.1,88,19,6000,7.408,,,330,,,,0,,,,,,3,wg-a,,,,AAXX 06124 07299 02456 73304 10210 20190 39909 40222 52001 60016 70386 878// 91200 333 60007=
07299,1997-09-06 15:00:00,18,1022.8,0.2,94,17,500,11.112,,,330,,,,1,,,,,,25,wg-a,,,,AAXX 06154 07299 12300 83306 10180 20170 39911 40228 53002 60017 72586 878// 91500=
07299,1997-09-06 18:00:00,16,1023.6,0.6,100,16,500,11.112,,,280,16.3,20.9,,,,,,,,21,wg-a,,,,AAXX 06184 07299 02200 82806 10160 20160 39917 40236 51006 61000 72186 878// 91800 333 10209 20163 6001=
07299,1997-09-06 21:00:00,16,1024.7,1,100,16,4500,7.408,,,270,,,,7,,,,,,61,wg-a,,,,AAXX 06214 07299 12245 82704 10160 20160 39927 40247 51010 60077 76162 888// 92100=
07299,1997-09-07 00:00:00,16,1024.6,-0.1,94,15,9000,3.704,,,290,,,,1,,,,,,21,wg-a,,,,AAXX 07004 07299 02359 82902 10160 20150 39926 40246 58001 60076 72162 878// 90000 333 60017=
07299,1997-09-07 03:00:00,15,1024.5,-0.2,100,15,4500,7.408,,,290,,,,0,,,,,,10,wg-a,,,,AAXX 07034 07299 12245 82904 10150 20150 39924 40245 58002 60007 71022 878// 90300=
07299,1997-09-07 06:00:00,14,1025.8,1.2,100,14,2200,7.408,,,270,14.2,16.3,,,,,10,,,10,wg-a,,,,AAXX 07064 07299 02222 82704 10140 20140 39936 40258 53012 60006 71062 878// 90600 333 10163 20142 60104=
07299,1997-09-07 09:00:00,17,1026.6,1.1,72,12,10000,7.408,,,320,,,,,,,,,,,wg-a,,,,AAXX 07094 07299 12460 23204 10170 20120 39947 40266 51011 60006 82130 90900=
07299,1997-09-07 12:00:00,20,1025.8,-0.5,60,12,16000,7.408,,,270,,,,,,,,,,,wg-a,,,,AAXX 07124 07299 12666 62704 10200 20120 39942 40258 58005 60006 82102 91200=
07299,1997-09-07 18:00:00,18,1026,0.6,73,13,50000,7.408,,,300,14.4,21,,,,,,,,,wg-a,,,,AAXX 07184 07299 12684 53004 10180 20130 39942 40260 53006 60006 85831 91800 333 10210 20144=
07299,1997-09-07 21:00:00,14,1027.5,0.9,88,12,10000,3.704,,,320,,,,,,,,,,,wg-a,,,,AAXX 07214 07299 12/60 /3202 10140 20120 39952 40275 51009 60006 92100=
07299,1997-09-08 00:00:00,11,1028.2,0.3,100,11,9000,3.704,,,310,,,,,,,,,,,wg-a,,,,AAXX 08004 07299 12/59 13102 10110 20110 39955 40282 51003 60006 80001 90000=
07299,1997-09-08 03:00:00,10,1028.1,-0.3,93,9,2500,0,,,0,,,,,,,,,,40,wg-a,,,,AAXX 08034 07299 12025 40000 10100 20090 39952 40281 56003 60006 74000 83601 90300=
07299,1997-09-08 06:00:00,10,1028.5,0.4,100,10,2000,3.704,,,220,8.3,18.1,,,,,,,,10,wg-a,,,,AAXX 08064 07299 02020 72202 10100 20100 39956 40285 52004 60006 71041 876// 90600 333 10181 20083 60004=
07299,1997-09-08 09:00:00,15,1027.6,-0.3,82,12,8000,3.704,,,240,,,,,,,,,,,wg-a,,,,AAXX 08094 07299 12458 /2402 10150 20120 39954 40276 58003 60006 81100 90900=
07299,1997-09-08 12:00:00,21,1025.5,-1.3,56,12,25000,7.408,,,30,,,,,,,,,,,wg-a,,,,AAXX 08124 07299 12675 /0304 10210 20120 39940 40255 56013 60006 81100 91200=
07299,1997-09-08 15:00:00,22,1024.1,-1.1,53,12,35000,7.408,,,350,,,,,,,,,,,wg-a,,,,AAXX 08154 07299 12681 /3504 10220 20120 39928 40241 56011 60006 81100 91500=
07299,1997-09-08 18:00:00,19,1023.9,-0.6,78,15,40000,7.408,,,220,9.4,22.9,,,,,,,,,wg-a,,,,AAXX 08184 07299 12/82 02204 10190 20150 39922 40239 56006 60006 80000 91800 333 10229 20094=
07299,1997-09-08 21:00:00,14,1024.6,0.3,94,13,500,3.704,,,40,,,,,,,,,,,wg-a,,,,AAXX 08214 07299 12/00 00402 10140 20130 39924 40246 51003 60006 80000 92100=
07299,1997-09-09 03:00:00,11,1024,-0.6,94,10,20000,3.704,,,250,,,,,,,,,,,wg-a,,,,AAXX 09034 07299 12/70 02502 10110 20100 39914 40240 56006 60006 80000 90300=
07299,1997-09-09 06:00:00,11,1023.8,-0.1,100,11,6000,0,,,0,9.6,18.5,,0,,,,,,,wg-a,,,,AAXX 09064 07299 02056 10000 10110 20110 39913 40238 55001 60004 81600 90600 333 10185 20096 60007=
07299,1997-09-09 09:00:00,18,1022.3,-0.6,83,15,9000,3.704,,,320,,,,,,,,,,,wg-a,,,,AAXX 09094 07299 12459 /3202 10180 20150 39907 40223 58006 60006 81100 90900=
07299,1997-09-09 12:00:00,23,1020.4,-1.4,53,13,11000,14.816,,,270,,,,,,,,,,,wg-a,,,,AAXX 09124 07299 12/61 /2708 10230 20130 39893 40204 56014 60006 91200=
07299,1997-09-09 18:00:00,19,1020.1,0.6,64,12,25000,14.816,,,260,11.4,23.8,,,,,,,,,wg-a,,,,AAXX 09184 07299 12775 12608 10190 20120 39885 40201 53006 60006 81400 91800 333 10238 20114=
07299,1997-09-10 00:00:00,11,1023.6,0.4,94,10,15000,11.112,,,260,,,,,,,,,,,wg-a,,,,AAXX 10004 07299 12/65 02606 10110 20100 39910 40236 51004 60006 80000 90000=
07299,1997-09-10 03:00:00,11,1023.5,-0.1,94,10,9000,7.408,,,340,,,,,,,,,,,wg-a,,,,AAXX 10034 07299 12659 43404 10110 20100 39909 40235 58001 60006 84500 90300=
07299,1997-09-10 06:00:00,10,1024.1,0.5,93,9,4000,11.112,,,290,9.6,18.8,,,,,,,,10,wg-a,,,,AAXX 10064 07299 02440 32906 10100 20090 39914 40241 53005 60006 71000 83600 90600 333 10188 20096 60004=
07299,1997-09-10 09:00:00,13,1023.7,-0.1,82,10,6000,11.112,,,360,,,,,,,,,,,wg-a,,,,AAXX 10094 07299 12/56 /3606 10130 20100 39913 40237 56001 60006 90900=
07299,1997-09-10 12:00:00,17,1022.1,-1,68,11,15000,11.112,,,330,,,,,,,,,,,wg-a,,,,AAXX 10124 07299 12565 23306 10170 20110 39903 40221 58010 60006 82100 91200=
07299,1997-09-10 18:00:00,15,1020.3,-0.2,67,9,500,11.112,,,320,9.7,19,,,,,,,,,wg-a,,,,AAXX 10184 07299 12/00 13206 10150 20090 39883 40203 55002 60006 80001 91800 333 10190 20097=
07299,1997-09-11 00:00:00,8,1021.1,-0.5,93,7,20000,3.704,,,190,,,,,,,,,,,wg-a,,,,AAXX 11004 07299 12/70 01902 10080 20070 39883 40211 56005 60006 80000 90000=
07299,1997-09-11 03:00:00,6,1019.9,-1.4,100,6,15000,3.704,,,210,,,,,,,,,,,wg-a,,,,AAXX 11034 07299 12/65 02102 10060 20060 39869 40199 58014 60006 80000 90300=
07299,1997-09-11 06:00:00,7,1018.9,-0.9,100,7,10000,3.704,,,300,5.6,14.8,,,,,,,,,wg-a,,,,AAXX 11064 07299 02/60 23002 10070 20070 39860 40189 56009 60006 80001 90600 333 10148 20056 60004=
07299,1997-09-11 09:00:00,17,1017.2,-0.5,63,10,18000,14.816,,,140,,,,,,,,,,,wg-a,,,,AAXX 11094 07299 12/68 31408 10170 20100 39855 40172 58005 60006 80001 90900=
07299,1997-09-11 12:00:00,23,1014.4,-2,50,12,18000,3.704,,,40,,,,,,,,,,,wg-a,,,,AAXX 11124 07299 12/68 60402 10230 20120 39834 40144 56020 60006 80001 91200=
07299,1997-09-11 15:00:00,25,1012.9,-1.2,47,13,18000,3.704,,,200,,,,,,,,,,,wg-a,,,,AAXX 11154 07299 12/68 62002 10250 20130 39822 40129 56012 60006 80001 91500=
07299,1997-09-11 18:00:00,20,1012.3,-1,78,16,20000,0,,,0,6.9,25,,,,,,,,,wg-a,,,,AAXX 11184 07299 12/70 60000 10200 20160 39811 40123 56010 60006 80001 91800 333 10250 20069=
07299,1997-09-11 21:00:00,15,1014,1.1,94,14,20000,7.408,,,180,,,,,,,,,,,wg-a,,,,AAXX 11214 07299 12/70 21804 10150 20140 39822 40140 51011 60006 80001 92100=
07299,1997-09-12 00:00:00,15,1013.9,-0.1,94,14,20000,11.112,,,160,,,,,,,,,,,wg-a,,,,AAXX 12004 07299 12/70 01606 10150 20140 39821 40139 58001 60006 80000 90000=
07299,1997-09-12 03:00:00,13,1013.2,-0.9,94,12,10000,14.816,,,180,,,,,,,,,,,wg-a,,,,AAXX 12034 07299 12/60 01808 10130 20120 39812 40132 58009 60006 80000 90300=
07299,1997-09-12 06:00:00,14,1013.8,0.7,94,13,6000,7.408,,,150,12.4,19.5,,,,,,,,,wg-a,,,,AAXX 12064 07299 02756 31504 10140 20130 39819 40138 53007 60006 81501 90600 333 10195 20124 60004=
07299,1997-09-12 09:00:00,21,1012.7,-0.2,69,15,14000,0,,,0,,,,,,,,,,,wg-a,,,,AAXX 12094 07299 12/64 20000 10210 20150 39817 40127 58002 60006 80001 90900=
07299,1997-09-12 12:00:00,25,1010,-2.2,61,17,20000,7.408,,,260,,,,,,,,,,,wg-a,,,,AAXX 12124 07299 12/70 12604 10250 20170 39795 40100 58022 60006 81040 91200=
07299,1997-09-12 15:00:00,26,1008.4,-1.5,54,16,16000,11.112,,,290,,,,,,,,,,,wg-a,,,,AAXX 12154 07299 12666 32906 10260 20160 39780 40084 56015 60006 81141 91500=
07299,1997-09-12 18:00:00,21,1007.7,-1.1,78,17,15000,3.704,,,270,13.7,26,,,,,,,,,wg-a,,,,AAXX 12184 07299 12765 72702 10210 20170 39768 40077 56011 60006 8357/ 91800 333 10260 20137=
07299,1997-09-12 21:00:00,17,1012,3.6,94,16,500,7.408,,,190,,,,16,,,,,,61,wg-a,,,,AAXX 12214 07299 12500 71904 10170 20160 39805 40120 51036 60167 76198 879// 92100=
07299,1997-09-13 00:00:00,16,1012.8,0.6,94,15,25000,7.408,,,270,,,,3,,,,,,21,wg-a,,,,AAXX 13004 07299 02675 72704 10160 20150 39812 40128 51006 60196 72198 8457/ 90000 333 60037=
07299,1997-09-13 03:00:00,15,1013.2,0.3,94,14,25000,7.408,,,180,,,,,,,,,,,wg-a,,,,AAXX 13034 07299 12675 71804 10150 20140 39815 40132 51003 60006 8457/ 90300=
07299,1997-09-13 06:00:00,15,1013.1,-0.1,88,13,25000,7.408,,,240,14.9,21.1,,,,,19,,,,wg-a,,,,AAXX 13064 07299 02675 72404 10150 20130 39814 40131 55001 60006 8657/ 90600 333 10211 20149 60194=
07299,1997-09-13 09:00:00,16,1014.3,1.3,88,14,6000,7.408,,,210,,,,,,,,,,,wg-a,,,,AAXX 13094 07299 12/56 /2104 10160 20140 39827 40143 53013 60006 90900=
07299,1997-09-13 12:00:00,15,1016.6,2,94,14,9000,18.52,,,260,,,,1,,,,,,61,wg-a,,,,AAXX 13124 07299 02459 82610 10150 20140 39847 40166 53020 60016 76186 878// 91200 333 60017=
07299,1997-09-13 15:00:00,15,1018.5,1.9,77,11,15000,22.224,,,250,,,,,,,,,,60,wg-a,,,,AAXX 13154 07299 02565 72512 10150 20110 39866 40185 53019 61000 76062 8487/ 91500 333 ////=
07299,1997-09-13 18:00:00,13,1020.2,1.4,77,9,50000,14.816,,,240,12.9,16.9,,,,,,,,1,wg-a,,,,AAXX 13184 07299 02584 /2408 10130 20090 39880 40202 53014 60006 70162 81832 91800 333 10169 20129 61000=
07299,1997-09-14 00:00:00,8,1024.1,0.4,93,7,0,3.704,,,220,,,,,,,,,,,wg-a,,,,AAXX 14004 07299 12/// /2202 10080 20070 39911 40241 53004 60006 90000=
07299,1997-09-14 03:00:00,6,1024.5,0.2,100,6,14000,3.704,,,290,,,,,,,,,,,wg-a,,,,AAXX 14034 07299 12/64 32902 10060 20060 39913 40245 53002 60006 80001 90300=
07299,1997-09-14 06:00:00,7,1025.5,1.1,100,7,3000,3.704,,,180,5.6,12.9,,,,,1,,,10,wg-a,,,,AAXX 14064 07299 02130 71802 10070 20070 39924 40255 53011 60006 71011 87600 90600 333 10129 20056 60014=
07299,1997-09-14 12:00:00,16,1025.2,-0.7,55,7,35000,11.112,,,340,,,,,,,,,,,wg-a,,,,AAXX 14124 07299 12681 73406 10160 20070 39931 40252 58007 60006 82207 91200=
07299,1997-09-14 15:00:00,15,1024.6,-0.7,51,5,50000,18.52,,,350,,,,,,,,,,,wg-a,,,,AAXX 14154 07299 12784 73510 10150 20050 39924 40246 56007 60006 81402 91500=
07299,1997-09-14 18:00:00,13,1025.9,1.1,58,5,40000,14.816,,,350,6.7,16.2,,,,,,,,,wg-a,,,,AAXX 14184 07299 12782 73508 10130 20050 39935 40259 53011 60006 81502 91800 333 10162 20067=
07299,1997-09-14 21:00:00,8,1027.3,0.8,87,6,25000,3.704,,,270,,,,,,,,,,,wg-a,,,,AAXX 14214 07299 12/75 22702 10080 20060 39943 40273 51008 60006 80001 92100=
07299,1997-09-15 00:00:00,6,1028,0.4,93,5,15000,0,,,0,,,,,,,,,,,wg-a,,,,AAXX 15004 07299 12/65 00000 10060 20050 39947 40280 51004 60006 80000 90000=
07299,1997-09-15 03:00:00,4,1027.6,-0.6,100,4,3500,0,,,0,,,,,,,,,,10,wg-a,,,,AAXX 15034 07299 12/35 00000 10040 20040 39941 40276 56006 60006 71000 80000 90300=
07299,1997-09-15 06:00:00,4,1027.9,0.2,100,4,200,3.704,,,360,3,12.9,,,,,,,,44,wg-a,,,,AAXX 15064 07299 02/02 03602 10040 20040 39943 40279 53002 60006 74441 80000 90600 333 10129 20030 60004=
07299,1997-09-15 09:00:00,11,1027.2,0.2,82,8,20000,7.408,,,330,,,,,,,,,,1,wg-a,,,,AAXX 15094 07299 12570 /3304 10110 20080 39945 40272 53002 60006 70140 81101 90900=
07299,1997-09-15 12:00:00,17,1025.7,-0.8,55,8,75000,7.408,,,340,,,,,,,,,,2,wg-a,,,,AAXX 15124 07299 12/89 13404 10170 20080 39937 40257 58008 60006 70240 80001 91200=
07299,1997-09-15 18:00:00,14,1024.5,0.2,77,10,25000,3.704,,,220,4,19.4,,,,,,,,,wg-a,,,,AAXX 15184 07299 12/75 52202 10140 20100 39923 40245 51002 60006 80002 91800 333 10194 20040=
07299,1997-09-15 21:00:00,10,1025.8,0.6,93,9,25000,3.704,,,270,,,,,,,,,,,wg-a,,,,AAXX 15214 07299 12/75 52702 10100 20090 39930 40258 50006 60006 80002 92100=
07299,1997-09-16 00:00:00,8,1026,0.2,100,8,20000,0,,,0,,,,0,,,,,,,wg-a,,,,AAXX 16004 07299 02/70 60000 10080 20080 39930 40260 51002 60006 80001 90000 333 60007=
07299,1997-09-16 03:00:00,8,1025.3,-0.5,100,8,10000,7.408,,,150,,,,,,,,,,,wg-a,,,,AAXX 16034 07299 12/60 /1504 10080 20080 39924 40253 57005 60006 90300=
07299,1997-09-16 06:00:00,8,1025.8,0.4,100,8,12000,11.112,,,160,6.6,14.1,,,,,,,,,wg-a,,,,AAXX 16064 07299 02/62 51606 10080 20080 39929 40258 53004 60006 80001 90600 333 10141 20066 60004=
07299,1997-09-16 09:00:00,17,1024.5,-0.3,63,10,25000,3.704,,,130,,,,,,,,,,,wg-a,,,,AAXX 16094 07299 12/75 51302 10170 20100 39926 40245 57003 60006 80001 90900=
07299,1997-09-16 15:00:00,23,1020.3,-1.8,53,13,28000,7.408,,,300,,,,,,,,,,,wg-a,,,,AAXX 16154 07299 12/78 33004 10230 20130 39892 40203 56018 60006 80002 91500=
07299,1997-09-16 18:00:00,17,1021.2,0.3,88,15,500,3.704,,,240,8.1,24,,,,,,,,,wg-a,,,,AAXX 16184 07299 12/00 22402 10170 20150 39895 40212 53003 60006 80002 91800 333 10240 20081=
07299,1997-09-16 21:00:00,13,1023,1.2,94,12,11000,3.704,,,190,,,,,,,,,,,wg-a,,,,AAXX 16214 07299 32/61 01902 10130 20120 39907 40230 51012 80000 92100=
07299,1997-09-17 00:00:00,12,1023.4,0.3,100,12,12000,11.112,,,160,,,,,,,,,,,wg-a,,,,AAXX 17004 07299 12/62 11606 10120 20120 39910 40234 52003 60006 80001 90000=
07299,1997-09-17 06:00:00,11,1024.8,1.1,100,11,7000,11.112,,,180,10,17.2,,,,,,,,,wg-a,,,,AAXX 17064 07299 02/57 21806 10110 20110 39922 40248 53011 60006 81031 90600 333 10172 20100 60004=
07299,1997-09-17 09:00:00,18,1024.4,0.5,77,14,9000,11.112,,,150,,,,,,,,,,,wg-a,,,,AAXX 17094 07299 12559 31506 10180 20140 39927 40244 51005 60006 81131 90900=
07299,1997-09-17 12:00:00,25,1022.9,-0.8,54,15,17000,3.704,,,120,,,,,,,,,,,wg-a,,,,AAXX 17124 07299 12667 71202 10250 20150 39919 40229 58008 60006 81201 91200=
07299,1997-09-17 15:00:00,24,1022.4,-0.5,47,12,23000,7.408,,,280,,,,,,,,,,,wg-a,,,,AAXX 17154 07299 12773 72804 10240 20120 39914 40224 56005 60006 81106 91500=
07299,1997-09-17 18:00:00,19,1023.4,0.4,83,16,10000,3.704,,,250,10.9,25.3,,,,,,,,,wg-a,,,,AAXX 17184 07299 12/60 /2502 10190 20160 39918 40234 53004 60006 91800 333 10253 20109=
07299,1997-09-18 00:00:00,12,1025,0.1,94,11,13000,3.704,,,180,,,,,,,,,,,wg-a,,,,AAXX 18004 07299 12/63 11802 10120 20110 39926 40250 53001 60006 80001 90000=
07299,1997-09-18 06:00:00,11,1025.6,0.7,94,10,17000,7.408,,,170,9.8,19,,,,,,,,,wg-a,,,,AAXX 18064 07299 02/67 11704 10110 20100 39930 40256 53007 60006 80001 90600 333 10190 20098 60004=
07299,1997-09-18 09:00:00,19,1024.8,0.1,68,13,15000,3.704,,,140,,,,,,,,,,,wg-a,,,,AAXX 18094 07299 12/65 11402 10190 20130 39931 40248 50001 60006 80001 90900=
07299,1997-09-18 12:00:00,24,1023,-1.2,50,13,15000,3.704,,,170,,,,,,,,,,,wg-a,,,,AAXX 18124 07299 12665 /1702 10240 20130 39919 40230 58012 60006 81101 91200=
07299,1997-09-18 15:00:00,25,1021.6,-1.3,44,12,11000,3.704,,,270,,,,,,,,,,,wg-a,,,,AAXX 18154 07299 12/61 /2702 10250 20120 39906 40216 56013 60006 91500=
07299,1997-09-18 18:00:00,19,1022.5,,78,15,20000,3.704,,,240,10.8,25.3,,,,,,,,,wg-a,,,,AAXX 18184 07299 12770 12402 10190 20150 39906 40225 60006 81530 91800 333 10253 20108=
07299,1997-09-19 00:00:00,12,1024.1,0.1,94,11,14000,11.112,,,180,,,,,,,,,,,wg-a,,,,AAXX 19004 07299 12764 31806 10120 20110 39917 40241 50001 60006 835/0 90000=
07299,1997-09-19 03:00:00,11,1024.1,-0.1,94,10,13000,11.112,,,180,,,,0,,,,,,,wg-a,,,,AAXX 19034 07299 12763 11806 10110 20100 39916 40241 56001 60007 81500 90300=
07299,1997-09-19 06:00:00,11,1024.5,0.4,100,11,12000,11.112,,,180,10.4,18.2,,,,,,,,,wg-a,,,,AAXX 19064 07299 02762 21806 10110 20110 39920 40245 53004 60006 81501 90600 333 10182 20104 60004=
07299,1997-09-19 09:00:00,19,1023.6,-0.1,73,14,10000,7.408,,,160,,,,,,,,,,,wg-a,,,,AAXX 19094 07299 12/60 01604 10190 20140 39920 40236 58001 60006 80000 90900=
07299,1997-09-19 12:00:00,25,1021.8,-1.2,47,13,18000,3.704,,,310,,,,,,,,,,,wg-a,,,,AAXX 19124 07299 12768 /3102 10250 20130 39908 40218 56012 60006 81100 91200=
07299,1997-09-19 15:00:00,25,1020.6,-1.1,47,13,18000,7.408,,,340,,,,,,,,,,,wg-a,,,,AAXX 19154 07299 12768 13404 10250 20130 39897 40206 56011 60006 81201 91500=
07299,1997-09-19 18:00:00,19,1021.2,-0,83,16,18000,11.112,,,260,11.2,26.2,,,,,,,,,wg-a,,,,AAXX 19184 07299 12768 42606 10190 20160 39897 40212 55000 60006 81531 91800 333 10262 20112=
07299,1997-09-20 00:00:00,15,1023.9,0.3,94,14,4000,7.408,,,320,,,,,,,,,,10,wg-a,,,,AAXX 20004 07299 12340 83204 10150 20140 39918 40239 51003 60006 71011 886// 90000=
07299,1997-09-20 03:00:00,14,1023.8,-0.3,94,13,6000,11.112,,,330,,,,,,,,,,50,wg-a,,,,AAXX 20034 07299 02356 83306 10140 20130 39916 40238 57003 61000 75052 886// 90300 333 ////=
07299,1997-09-20 06:00:00,13,1023.6,-0.1,94,12,3000,14.816,,,340,12.6,19.3,,,,,,,,10,wg-a,,,,AAXX 20064 07299 02230 83408 10130 20120 39913 40236 58001 60006 71052 886// 90600 333 10193 20126 60004=
07299,1997-09-20 09:00:00,13,1024.4,0.7,94,12,4000,14.816,,,350,,,,,,,,,,10,wg-a,,,,AAXX 20094 07299 12340 73508 10130 20120 39921 40244 51007 60006 71022 876// 90900=
07299,1997-09-20 12:00:00,16,1023.8,-0.3,77,12,12000,7.408,,,10,,,,,,,,,,,wg-a,,,,AAXX 20124 07299 12562 70104 10160 20120 39918 40238 58003 60006 875// 91200=
07299,1997-09-20 18:00:00,16,1023.1,0.3,72,11,10000,7.408,,,100,12,17.9,,,,,,,,,wg-a,,,,AAXX 20184 07299 12660 /1004 10160 20110 39911 40231 53003 60006 86501 91800 333 10179 20120=
07299,1997-09-20 21:00:00,13,1024,0.6,88,11,8000,3.704,,,340,,,,,,,,,,,wg-a,,,,AAXX 20214 07299 12558 33402 10130 20110 39917 40240 51006 60006 83500 92100=
07299,1997-09-21 00:00:00,9,1024.7,0.1,93,8,10000,7.408,,,250,,,,,,,,,,,wg-a,,,,AAXX 21004 07299 12/60 02504 10090 20080 39918 40247 50001 60006 80000 90000=
07299,1997-09-21 03:00:00,7,1024.7,-0.2,93,6,13000,0,,,0,,,,,,,,,,,wg-a,,,,AAXX 21034 07299 12/63 10000 10070 20060 39916 40247 56002 60006 80001 90300=
07299,1997-09-21 06:00:00,6,1024.7,-0,100,6,11000,3.704,,,300,5.9,16.1,,,,,,,,,wg-a,,,,AAXX 21064 07299 02561 33002 10060 20060 39915 40247 55000 60006 81501 90600 333 10161 20059 60004=
07299,1997-09-21 09:00:00,13,1023.9,0,82,10,11000,3.704,,,330,,,,,,,,,,,wg-a,,,,AAXX 21094 07299 12/61 53302 10130 20100 39915 40239 50000 60006 81031 90900=
07299,1997-09-21 12:00:00,18,1022.1,-1.1,68,12,11000,7.408,,,20,,,,,,,,,,,wg-a,,,,AAXX 21124 07299 12/61 40204 10180 20120 39904 40221 57011 60006 81031 91200=
07299,1997-09-21 15:00:00,20,1021,-0.9,60,12,11000,7.408,,,340,,,,,,,,,,,wg-a,,,,AAXX 21154 07299 12/61 43404 10200 20120 39895 40210 56009 60006 81031 91500=
07299,1997-09-21 18:00:00,15,1021.7,0.3,82,12,11000,7.408,,,320,6.2,20.2,,,,,,,,,wg-a,,,,AAXX 21184 07299 12/61 43204 10150 20120 39897 40217 53003 60006 81031 91800 333 10202 20062=
07299,1997-09-21 21:00:00,12,1023,0.8,94,11,15000,7.408,,,300,,,,,,,,,,,wg-a,,,,AAXX 21214 07299 12/65 33004 10120 20110 39906 40230 53008 60006 80001 92100=
07299,1997-09-22 00:00:00,9,1023.5,0.2,100,9,15000,7.408,,,250,,,,,,,,,,,wg-a,,,,AAXX 22004 07299 12/65 42504 10090 20090 39908 40235 51002 60006 80001 90000=
07299,1997-09-22 03:00:00,8,1023.7,0,100,8,9000,0,,,0,,,,,,,,,,,wg-a,,,,AAXX 22034 07299 12/59 30000 10080 20080 39908 40237 50000 60006 80001 90300=
07299,1997-09-22 09:00:00,15,1023.6,0.6,77,11,8000,3.704,,,30,,,,,,,,,,,wg-a,,,,AAXX 22094 07299 12658 /0302 10150 20110 39915 40236 51006 60006 81801 90900=
07299,1997-09-22 12:00:00,19,1022.2,-0.9,60,11,15000,7.408,,,70,,,,,,,,,,,wg-a,,,,AAXX 22124 07299 12/65 70704 10190 20110 39906 40222 58009 60006 81031 91200=
07299,1997-09-22 15:00:00,19,1021.5,-0.7,68,13,16000,7.408,,,340,,,,,,,,,,,wg-a,,,,AAXX 22154 07299 12666 73404 10190 20130 39899 40215 56007 60006 81131 91500=
07299,1997-09-22 18:00:00,16,1021.7,-0,82,13,10000,7.408,,,270,7.8,20.9,,,,,,,,,wg-a,,,,AAXX 22184 07299 12/60 72704 10160 20130 39898 40217 55000 60006 81032 91800 333 10209 20078=
07299,1997-09-22 21:00:00,13,1023,0.8,94,12,10000,3.704,,,250,,,,,,,,,,,wg-a,,,,AAXX 22214 07299 12/60 72502 10130 20120 39907 40230 51008 60006 81032 92100=
07299,1997-09-23 00:00:00,11,1023.2,-0.1,94,10,0,0,,,0,,,,,,,,,,,wg-a,,,,AAXX 23004 07299 12/// /0000 10110 20100 39906 40232 57001 60006 90000=
07299,1997-09-23 03:00:00,9,1022.8,-0.4,100,9,4000,3.704,,,220,,,,,,,,,,10,wg-a,,,,AAXX 23034 07299 12/40 72202 10090 20090 39901 40228 58004 60006 71022 81032 90300=
07299,1997-09-23 06:00:00,8,1023.4,0.4,100,8,500,3.704,,,220,8.2,15.8,,,,,,,,41,wg-a,,,,AAXX 23064 07299 02205 32202 10080 20080 39905 40234 53004 60006 74141 81601 90600 333 10158 20082 60004=
07299,1997-09-23 09:00:00,15,1022.7,0.1,77,11,7000,3.704,,,10,,,,,,,,,,2,wg-a,,,,AAXX 23094 07299 12/57 /0102 10150 20110 39906 40227 50001 60006 70241 80001 90900=
07299,1997-09-23 12:00:00,19,1021.3,-0.9,68,13,11000,7.408,,,340,,,,,,,,,,3,wg-a,,,,AAXX 23124 07299 12561 63404 10190 20130 39897 40213 58009 60006 70341 81101 91200=
07299,1997-09-23 15:00:00,21,1020.2,-0.9,56,12,18000,11.112,,,350,,,,,,,,,,,wg-a,,,,AAXX 23154 07299 12668 33506 10210 20120 39888 40202 56009 60006 81202 91500=
07299,1997-09-23 18:00:00,16,1020.9,0.2,77,12,15000,11.112,,,310,8.4,20.7,,,,,,,,,wg-a,,,,AAXX 23184 07299 12/65 23106 10160 20120 39890 40209 53002 60006 80002 91800 333 10207 20084=
07299,1997-09-23 21:00:00,12,1022.6,1.2,94,11,10000,3.704,,,250,,,,,,,,,,,wg-a,,,,AAXX 23214 07299 12/60 02502 10120 20110 39902 40226 51012 60006 80000 92100=
07299,1997-09-24 00:00:00,9,1023,0,93,8,6000,3.704,,,200,,,,,,,,,,,wg-a,,,,AAXX 24004 07299 12/56 02002 10090 20080 39902 40230 50000 60006 80000 90000=
07299,1997-09-24 03:00:00,7,1023.3,0.1,100,7,4000,3.704,,,210,,,,,,,,,,10,wg-a,,,,AAXX 24034 07299 12/40 22102 10070 20070 39903 40233 53001 60006 71000 80001 90300=
07299,1997-09-24 06:00:00,10,1024.1,1.1,100,10,200,3.704,,,190,6.9,16,,,,,,,,44,wg-a,,,,AAXX 24064 07299 02102 81902 10100 20100 39914 40241 53011 60006 74441 886// 90600 333 10160 20069 60004=
07299,1997-09-24 09:00:00,10,1024.4,0.4,100,10,1500,3.704,,,250,,,,,,,,,,10,wg-a,,,,AAXX 24094 07299 12115 72502 10100 20100 39918 40244 52004 60006 71042 876// 90900=
07299,1997-09-24 12:00:00,17,1022.4,-1.3,63,10,8000,7.408,,,360,,,,,,,,,,2,wg-a,,,,AAXX 24124 07299 12/58 43604 10170 20100 39906 40224 58013 60006 70241 80001 91200=
07299,1997-09-24 15:00:00,20,1020.8,-1.1,64,13,11000,11.112,,,340,,,,,,,,,,,wg-a,,,,AAXX 24154 07299 12/61 53406 10200 20130 39894 40208 56011 60006 80001 91500=
07299,1997-09-24 18:00:00,15,1021.5,0.1,77,11,12000,11.112,,,320,8.7,20,,,,,,,,,wg-a,,,,AAXX 24184 07299 12/62 13206 10150 20110 39895 40215 53001 60006 80001 91800 333 10200 20087=
07299,1997-09-24 21:00:00,11,1023.3,1.4,94,10,10000,11.112,,,300,,,,,,,,,,,wg-a,,,,AAXX 24214 07299 12/60 03006 10110 20100 39908 40233 51014 60006 80000 92100=
07299,1997-09-25 00:00:00,8,1023.9,0.2,100,8,8000,7.408,,,280,,,,,,,,,,,wg-a,,,,AAXX 25004 07299 12/58 02804 10080 20080 39910 40239 50002 60006 80000 90000=
07299,1997-09-25 03:00:00,7,1024.2,0.1,100,7,6000,3.704,,,270,,,,,,,,,,,wg-a,,,,AAXX 25034 07299 12/56 02702 10070 20070 39911 40242 52001 60006 80000 90300=
07299,1997-09-25 06:00:00,8,1025.2,1.1,100,8,100,0,,,0,6.4,14.9,,,,,,,,45,wg-a,,,,AAXX 25064 07299 02/01 90000 10080 20080 39922 40252 51011 60006 74541 89/// 90600 333 10149 20064 60004=
07299,1997-09-25 09:00:00,10,1025.8,0.9,100,10,2500,7.408,,,320,,,,,,,,,,28,wg-a,,,,AAXX 25094 07299 12125 93204 10100 20100 39931 40258 52009 60006 72842 89600 90900=
07299,1997-09-25 12:00:00,18,1024.4,-0.5,68,12,7000,7.408,,,340,,,,,,,,,,2,wg-a,,,,AAXX 25124 07299 12/57 03404 10180 20120 39926 40244 58005 60006 70241 80000 91200=
07299,1997-09-25 15:00:00,20,1023.1,-1,60,12,10000,11.112,,,340,,,,,,,,,,,wg-a,,,,AAXX 25154 07299 12/60 13406 10200 20120 39916 40231 56010 60006 80001 91500=
07299,1997-09-26 00:00:00,9,1025.9,-0.1,93,8,0,3.704,,,180,,,,,,,,,,,wg-a,,,,AAXX 26004 07299 12/// /1802 10090 20080 39930 40259 56001 60006 90000=
07299,1997-09-26 03:00:00,7,1025.6,-0.6,100,7,2000,3.704,,,240,,,,,,,,,,10,wg-a,,,,AAXX 26034 07299 32/20 02402 10070 20070 39925 40256 56006 71000 80000 90300=
07299,1997-09-26 06:00:00,7,1025.5,-0,100,7,2500,3.704,,,230,6.2,16,,,,,,,,40,wg-a,,,,AAXX 26064 07299 02/25 12302 10070 20070 39924 40255 55000 60006 74000 80001 90600 333 10160 20062 60004=
07299,1997-09-26 09:00:00,16,1024.1,-0.3,68,10,10000,3.704,,,70,,,,,,,,,,,wg-a,,,,AAXX 26094 07299 12/60 /0702 10160 20100 39921 40241 58003 60006 90900=
07299,1997-09-26 12:00:00,19,1022.5,-1.2,64,12,22000,7.408,,,10,,,,,,,,,,,wg-a,,,,AAXX 26124 07299 12/72 10104 10190 20120 39909 40225 58012 60006 80001 91200=
07299,1997-09-26 15:00:00,21,1020.7,-1.6,60,13,18000,3.704,,,330,,,,,,,,,,,wg-a,,,,AAXX 26154 07299 12/68 13302 10210 20130 39893 40207 56016 60006 80001 91500=
07299,1997-09-26 18:00:00,17,1020.7,-0.4,68,11,15000,3.704,,,350,6.8,21,,,,,,,,,wg-a,,,,AAXX 26184 07299 12/65 13502 10170 20110 39889 40207 56004 60006 80001 91800 333 10210 20068=
07299,1997-09-26 21:00:00,11,1020.9,-0.4,94,10,12000,11.112,,,170,,,,,,,,,,,wg-a,,,,AAXX 26214 07299 12/62 01706 10110 20100 39885 40209 58004 60006 80000 92100=
07299,1997-09-27 00:00:00,9,1020.8,-0.4,100,9,6000,3.704,,,190,,,,,,,,,,,wg-a,,,,AAXX 27004 07299 12/56 01902 10090 20090 39881 40208 57004 60006 80000 90000=
07299,1997-09-27 03:00:00,9,1019.8,-0.9,100,9,900,7.408,,,180,,,,,,,,,,10,wg-a,,,,AAXX 27034 07299 32/09 91804 10090 20090 39872 40198 56009 71041 89/// 90300=
07299,1997-09-27 06:00:00,8,1019.6,-0.4,100,8,2500,3.704,,,50,8,16.5,,,,,,,,10,wg-a,,,,AAXX 27064 07299 02125 20502 10080 20080 39868 40196 56004 60006 71041 82600 90600 333 10165 20080 60004=
07299,1997-09-27 09:00:00,15,1018.5,-0.2,82,12,7000,11.112,,,110,,,,,,,,,,,wg-a,,,,AAXX 27094 07299 32/57 /1106 10150 20120 39866 40185 58002 90900=
07299,1997-09-27 12:00:00,19,1016,-1.9,60,11,10000,7.408,,,70,,,,,,,,,,,wg-a,,,,AAXX 27124 07299 12/60 50704 10190 20110 39846 40160 58019 60006 80001 91200=
07299,1997-09-27 15:00:00,21,1014.4,-1.4,56,12,18000,3.704,,,50,,,,,,,,,,,wg-a,,,,AAXX 27154 07299 12/68 20502 10210 20120 39833 40144 56014 60006 80001 91500=
07299,1997-09-27 18:00:00,15,1015.7,0.6,77,11,15000,3.704,,,250,8.1,21.7,,,,,,,,,wg-a,,,,AAXX 27184 07299 12/65 42502 10150 20110 39838 40157 53006 60006 80001 91800 333 10217 20081=
07299,1997-09-27 21:00:00,12,1016.1,0.1,88,10,10000,11.112,,,170,,,,,,,,,,,wg-a,,,,AAXX 27214 07299 12/60 01706 10120 20100 39839 40161 50001 60006 80000 92100=
07299,1997-09-28 00:00:00,10,1016.1,-0.2,93,9,8000,7.408,,,160,,,,,,,,,,,wg-a,,,,AAXX 28004 07299 12/58 01604 10100 20090 39837 40161 58002 60006 80000 90000=
07299,1997-09-28 03:00:00,10,1015.8,-0.3,100,10,1400,11.112,,,160,,,,,,,,,,10,wg-a,,,,AAXX 28034 07299 12114 71606 10100 20100 39834 40158 57003 60006 71011 87600 90300=
07299,1997-09-28 06:00:00,10,1016.4,0.7,100,10,1800,7.408,,,130,7.9,14.3,,,,,,,,10,wg-a,,,,AAXX 28064 07299 02118 71304 10100 20100 39840 40164 53007 60006 71011 866// 90600 333 10143 20079 60004=
07299,1997-09-28 09:00:00,15,1016.8,0.9,82,12,7000,7.408,,,100,,,,,,,,,,,wg-a,,,,AAXX 28094 07299 12/57 41004 10150 20120 39849 40168 51009 60006 80001 90900=
07299,1997-09-28 12:00:00,20,1015.2,-0.9,60,12,15000,3.704,,,120,,,,,,,,,,,wg-a,,,,AAXX 28124 07299 12765 51202 10200 20120 39840 40152 58009 60006 81102 91200=
07299,1997-09-28 15:00:00,22,1014.2,-0.7,46,10,500,0,,,0,,,,,,,,,,,wg-a,,,,AAXX 28154 07299 12700 /0000 10220 20100 39832 40142 56007 60006 81102 91500=
07299,1997-09-28 18:00:00,16,1016.2,1.3,82,13,25000,7.408,,,160,10.2,23,,,,,,,,,wg-a,,,,AAXX 28184 07299 12/75 41604 10160 20130 39845 40162 53013 60006 81031 91800 333 10230 20102=
07299,1997-09-28 21:00:00,12,1018.1,1.4,94,11,15000,11.112,,,160,,,,,,,,,,,wg-a,,,,AAXX 28214 07299 12/65 31606 10120 20110 39859 40181 51014 60006 80001 92100=
07299,1997-09-29 00:00:00,10,1018.6,0.2,100,10,8000,7.408,,,170,,,,,,,,,,,wg-a,,,,AAXX 29004 07299 12/58 01704 10100 20100 39861 40186 53002 60006 80000 90000=
07299,1997-09-29 03:00:00,9,1019.8,1,100,9,8000,7.408,,,150,,,,,,,,,,,wg-a,,,,AAXX 29034 07299 32/58 01504 10090 20090 39871 40198 51010 80000 90300=
07299,1997-09-29 06:00:00,9,1020.9,1.1,100,9,2500,11.112,,,170,8.2,16,,,,,,,,40,wg-a,,,,AAXX 29064 07299 02225 51706 10090 20090 39882 40209 53011 60006 74011 83601 90600 333 10160 20082 60004=
07299,1997-09-29 09:00:00,16,1021.8,1.6,77,12,8000,7.408,,,140,,,,,,,,,,,wg-a,,,,AAXX 29094 07299 12/58 61404 10160 20120 39899 40218 51016 60006 80001 90900=
07299,1997-09-29 12:00:00,22,1020.6,-0.4,53,12,10000,3.704,,,170,,,,,,,,,,,wg-a,,,,AAXX 29124 07299 12760 71702 10220 20120 39894 40206 58004 60006 81101 91200=
07299,1997-09-29 15:00:00,24,1020.1,-0.4,44,11,12000,7.408,,,360,,,,,,,,,,,wg-a,,,,AAXX 29154 07299 12762 73604 10240 20110 39890 40201 56004 60006 81101 91500=
07299,1997-09-29 18:00:00,17,1021.8,1,77,13,16000,3.704,,,250,9,24.1,,,,,,,,,wg-a,,,,AAXX 29184 07299 12/66 52502 10170 20130 39900 40218 53010 60006 81031 91800 333 10241 20090=
07299,1997-09-29 21:00:00,13,1023.3,1,88,11,15000,3.704,,,160,,,,,,,,,,,wg-a,,,,AAXX 29214 07299 12/65 51602 10130 20110 39910 40233 51010 60006 80001 92100=
07299,1997-09-30 00:00:00,12,1024.2,0.8,94,11,15000,7.408,,,180,,,,,,,,,,,wg-a,,,,AAXX 30004 07299 12/65 21804 10120 20110 39917 40242 51008 60006 80001 90000=
07299,1997-09-30 03:00:00,11,1024.6,0.2,94,10,15000,3.704,,,180,,,,,,,,,,,wg-a,,,,AAXX 30034 07299 12/65 71802 10110 20100 39920 40246 53002 60006 80001 90300=
07299,1997-09-30 06:00:00,11,1025,0.4,100,11,16000,7.408,,,160,10.5,16.7,,,,,,,,,wg-a,,,,AAXX 30064 07299 02/66 71604 10110 20110 39924 40250 53004 60006 81077 90600 333 10167 20105 60004=
07299,1997-09-30 09:00:00,17,1025.2,0.9,77,13,13000,7.408,,,140,,,,,,,,,,,wg-a,,,,AAXX 30094 07299 12/63 61404 10170 20130 39933 40252 52009 60006 81032 90900=
07299,1997-09-30 12:00:00,23,1023.3,-1.3,50,12,20000,7.408,,,280,,,,,,,,,,,wg-a,,,,AAXX 30124 07299 12670 /2804 10230 20120 39921 40233 58013 60006 81132 91200=
07299,1997-09-30 15:00:00,25,1021.9,-1.1,36,9,25000,3.704,,,270,,,,,,,,,,,wg-a,,,,AAXX 30154 07299 12775 12702 10250 20090 39909 40219 56011 60006 81542 91500=
07299,1997-09-30 18:00:00,15,1023.2,0.3,82,12,28000,7.408,,,230,11.1,24.9,,,,,,,,,wg-a,,,,AAXX 30184 07299 12878 12304 10150 20120 39912 40232 53003 60006 81501 91800 333 10249 20111=
07299,1997-10-01 00:00:00,11,1023.2,-0.6,94,10,0,7.408,,,170,,,,,,,,,,,wg-a,,,,AAXX 01004 07299 12/// /1704 10110 20100 39907 40232 58006 60006 90000=
07299,1997-10-01 03:00:00,10,1022.9,-0.5,93,9,15000,3.704,,,60,,,,,,,,,,,wg-a,,,,AAXX 01034 07299 12/65 10602 10100 20090 39902 40229 56005 60006 80001 90300=
07299,1997-10-01 06:00:00,10,1022.1,-0.7,100,10,13000,7.408,,,160,9.1,16.4,,,,,,,,,wg-a,,,,AAXX 01064 07299 02/63 51604 10100 20100 39895 40221 57007 60006 81031 90600 333 10164 20091 60004=
07299,1997-10-01 12:00:00,24,1019.3,-1.1,47,12,22000,11.112,,,250,,,,,,,,,,,wg-a,,,,AAXX 01124 07299 12772 62506 10240 20120 39883 40193 58011 60006 81571 91200=
07299,1997-10-01 15:00:00,24,1017.6,-1.5,47,12,10000,18.52,,,240,,,,,,,,,,,wg-a,,,,AAXX 01154 07299 12/60 /2410 10240 20120 39867 40176 56015 60006 91500=
07299,1997-10-01 18:00:00,19,1017.4,-0.7,73,14,18000,11.112,,,240,10.2,25,,,,,,,,,wg-a,,,,AAXX 01184 07299 12768 22406 10190 20140 39860 40174 56007 60006 81501 91800 333 10250 20102=
07299,1997-10-01 21:00:00,18,1017.7,0.1,77,14,15000,0,,,0,,,,,,,,,,,wg-a,,,,AAXX 01214 07299 12865 40000 10180 20140 39861 40177 51001 60006 82531 92100=
07299,1997-10-02 00:00:00,18,1016.6,-1,77,14,15000,14.816,,,250,,,,,,,,,,,wg-a,,,,AAXX 02004 07299 12865 62508 10180 20140 39851 40166 58010 60006 83531 90000=
07299,1997-10-02 03:00:00,15,1015.9,-1,94,14,13000,3.704,,,150,,,,,,,,,,,wg-a,,,,AAXX 02034 07299 12863 71502 10150 20140 39841 40159 58010 60006 8653/ 90300=
07299,1997-10-02 06:00:00,15,1015.8,-0.1,94,14,12000,0,,,0,14.2,19.1,,,,,,,,,wg-a,,,,AAXX 02064 07299 02762 70000 10150 20140 39840 40158 55001 60006 878// 90600 333 10191 20142 60004=
07299,1997-10-02 12:00:00,22,1015.3,0.1,65,15,25000,29.632,,,270,,,,,,,,,,,wg-a,,,,AAXX 02124 07299 12775 /2716 10220 20150 39842 40153 51001 60006 81100 91200=
07299,1997-10-02 15:00:00,22,1014.8,-0.4,57,13,25000,25.928,,,260,,,,,,,,,,,wg-a,,,,AAXX 02154 07299 12775 12614 10220 20130 39837 40148 56004 60006 81100 91500=
07299,1997-10-02 18:00:00,17,1016.4,1.1,72,12,20000,18.52,,,260,15.3,22.3,,,,,,,,,wg-a,,,,AAXX 02184 07299 12770 22610 10170 20120 39848 40164 53011 60006 82402 91800 333 10223 20153=
07299,1997-10-02 21:00:00,14,1018.5,1.6,82,11,13000,7.408,,,260,,,,,,,,,,,wg-a,,,,AAXX 02214 07299 12/63 12604 10140 20110 39864 40185 53016 60006 81030 92100=
07299,1997-10-03 00:00:00,11,1019.4,0.5,94,10,15000,7.408,,,270,,,,,,,,,,,wg-a,,,,AAXX 03004 07299 12/65 02704 10110 20100 39869 40194 51005 60006 80000 90000=
07299,1997-10-03 03:00:00,9,1019.9,0.3,87,7,16000,7.408,,,280,,,,,,,,,,,wg-a,,,,AAXX 03034 07299 12666 /2804 10090 20070 39873 40199 50003 60006 81500 90300=
07299,1997-10-03 06:00:00,8,1020.4,0.3,93,7,16000,11.112,,,300,7.7,17.4,,,,,,,,,wg-a,,,,AAXX 03064 07299 02/66 73006 10080 20070 39876 40204 53003 60006 85052 90600 333 10174 20077 60004=
07299,1997-10-03 09:00:00,13,1020.7,0.9,77,9,10000,7.408,,,360,,,,,,,,,,,wg-a,,,,AAXX 03094 07299 12/60 33604 10130 20090 39885 40207 51009 60006 80001 90900=
07299,1997-10-03 12:00:00,17,1019.5,-0.8,52,7,25000,11.112,,,350,,,,,,,,,,,wg-a,,,,AAXX 03124 07299 12775 23506 10170 20070 39877 40195 58008 60006 81101 91200=
07299,1997-10-03 15:00:00,17,1019,-0.6,48,6,10000,14.816,,,350,,,,,,,,,,,wg-a,,,,AAXX 03154 07299 12/60 /3508 10170 20060 39872 40190 56006 60006 91500=
07299,1997-10-03 18:00:00,12,1020.7,1.1,67,6,20000,11.112,,,300,8.3,17.4,,,,,,,,,wg-a,,,,AAXX 03184 07299 12/70 33006 10120 20060 39883 40207 53011 60006 80001 91800 333 10174 20083=
07299,1997-10-03 21:00:00,8,1022.4,1.2,81,5,20000,7.408,,,270,,,,,,,,,,,wg-a,,,,AAXX 03214 07299 12/70 22704 10080 20050 39895 40224 51012 60006 80001 92100=
07299,1997-10-04 00:00:00,5,1023.2,0.4,93,4,20000,3.704,,,180,,,,,,,,,,,wg-a,,,,AAXX 04004 07299 12/70 11802 10050 20040 39899 40232 53004 60006 80001 90000=
07299,1997-10-04 03:00:00,5,1023.1,-0.1,93,4,20000,3.704,,,160,,,,,,,,,,,wg-a,,,,AAXX 04034 07299 12/70 01602 10050 20040 39898 40231 57001 60006 80000 90300=
07299,1997-10-04 06:00:00,4,1023.8,0.6,93,3,20000,3.704,,,230,3.3,11.9,,,,,,,,,wg-a,,,,AAXX 04064 07299 02/70 02302 10040 20030 39904 40238 53006 60006 80000 90600 333 10119 20033 60004=
07299,1997-10-04 09:00:00,11,1023,0.1,76,7,20000,3.704,,,330,,,,,,,,,,,wg-a,,,,AAXX 04094 07299 12/70 03302 10110 20070 39905 40230 51001 60006 80000 90900=
07299,1997-10-04 12:00:00,17,1021.9,-0.5,52,7,20000,0,,,0,,,,,,,,,,,wg-a,,,,AAXX 04124 07299 12/70 20000 10170 20070 39900 40219 58005 60006 80001 91200=
07299,1997-10-04 18:00:00,12,1021.3,0.4,82,9,20000,3.704,,,230,3.5,20.7,,,,,,,,,wg-a,,,,AAXX 04184 07299 12/70 42302 10120 20090 39889 40213 53004 60006 80002 91800 333 10207 20035=
07299,1997-10-04 21:00:00,8,1022.1,0.4,93,7,15000,3.704,,,250,,,,,,,,,,,wg-a,,,,AAXX 04214 07299 12/65 02502 10080 20070 39893 40221 52004 60006 80000 92100=
07299,1997-10-05 00:00:00,6,1021.8,-0.6,100,6,0,3.704,,,170,,,,,,,,,,,wg-a,,,,AAXX 05004 07299 12/// /1702 10060 20060 39887 40218 58006 60006 90000=
07299,1997-10-05 03:00:00,6,1020.6,-1,100,6,10000,7.408,,,170,,,,,,,,,,,wg-a,,,,AAXX 05034 07299 12/60 01704 10060 20060 39876 40206 58010 60006 80000 90300=
07299,1997-10-05 06:00:00,6,1020.3,-0.4,100,6,12000,7.408,,,160,5,11.9,,,,,,,,,wg-a,,,,AAXX 05064 07299 02/62 01604 10060 20060 39872 40203 56004 60006 80000 90600 333 10119 20050 60004=
07299,1997-10-05 09:00:00,15,1018.9,-0.3,67,9,12000,7.408,,,160,,,,,,,,,,,wg-a,,,,AAXX 05094 07299 12/62 01604 10150 20090 39869 40189 58003 60006 80000 90900=
07299,1997-10-05 12:00:00,22,1016.8,-1.3,50,11,20000,3.704,,,80,,,,,,,,,,,wg-a,,,,AAXX 05124 07299 12/70 00802 10220 20110 39856 40168 57013 60006 80000 91200=
07299,1997-10-05 15:00:00,23,1014.7,-2,47,11,40000,7.408,,,300,,,,,,,,,,,wg-a,,,,AAXX 05154 07299 12/82 03004 10230 20110 39837 40147 56020 60006 80000 91500=
07299,1997-10-05 18:00:00,15,1014.4,-1.1,82,12,55000,3.704,,,190,5.8,23.4,,,,,,,,,wg-a,,,,AAXX 05184 07299 12/85 01902 10150 20120 39826 40144 56011 60006 80000 91800 333 10234 20058=
07299,1997-10-05 21:00:00,11,1015,0.2,94,10,25000,3.704,,,190,,,,,,,,,,,wg-a,,,,AAXX 05214 07299 12/75 01902 10110 20100 39827 40150 52002 60006 80000 92100=
07299,1997-10-06 00:00:00,10,1014.6,-0.5,100,10,20000,11.112,,,170,,,,,,,,,,,wg-a,,,,AAXX 06004 07299 12/70 01706 10100 20100 39822 40146 58005 60006 80000 90000=
07299,1997-10-06 03:00:00,11,1013.6,-0.8,94,10,20000,11.112,,,160,,,,,,,,,,,wg-a,,,,AAXX 06034 07299 12/70 01606 10110 20100 39814 40136 58008 60006 80000 90300=
07299,1997-10-06 06:00:00,10,1013.2,-0.5,100,10,15000,14.816,,,170,9.1,14.9,,,,,,,,,wg-a,,,,AAXX 06064 07299 02/65 11708 10100 20100 39809 40132 57005 60006 80002 90600 333 10149 20091 60004=
07299,1997-10-06 09:00:00,18,1012,-0.3,68,12,10000,7.408,,,130,,,,,,,,,,,wg-a,,,,AAXX 06094 07299 12/60 /1304 10180 20120 39806 40120 58003 60006 90900=
07299,1997-10-06 12:00:00,25,1009.2,-2,47,13,11000,14.816,,,120,,,,,,,,,,,wg-a,,,,AAXX 06124 07299 12/61 /1208 10250 20130 39786 40092 58020 60006 91200=
07299,1997-10-06 15:00:00,24,1007.5,-1.7,47,12,20000,11.112,,,80,,,,,,,,,,,wg-a,,,,AAXX 06154 07299 12770 70806 10240 20120 39769 40075 56017 60006 81104 91500=
07299,1997-10-06 18:00:00,18,1007.7,-0.3,77,14,20000,3.704,,,170,10.3,25.4,,,,,,,,,wg-a,,,,AAXX 06184 07299 12870 71702 10180 20140 39765 40077 56003 60006 81172 91800 333 10254 20103=
07299,1997-10-06 21:00:00,16,1007.8,-0.3,88,14,20000,11.112,,,190,,,,,,,,,,,wg-a,,,,AAXX 06214 07299 12770 71906 10160 20140 39763 40078 58003 60006 83572 92100=
07299,1997-10-07 00:00:00,13,1007.5,-0.7,94,12,20000,7.408,,,190,,,,,,,,,,,wg-a,,,,AAXX 07004 07299 12770 71904 10130 20120 39757 40075 56007 60006 83572 90000=
07299,1997-10-07 06:00:00,17,1006.2,-0,77,13,15000,14.816,,,140,13.3,18.9,,,,,,,,1,wg-a,,,,AAXX 07064 07299 02765 71408 10170 20130 39749 40062 55000 60006 70162 8657/ 90600 333 10189 20133 61000=
07299,1997-10-07 12:00:00,23,1006.8,-0.4,57,14,25000,7.408,,,120,,,,,,,,,,,wg-a,,,,AAXX 07124 07299 12675 /1204 10230 20140 39761 40068 58004 60006 82831 91200=
07299,1997-10-07 15:00:00,20,1006.8,-0.2,88,18,25000,7.408,,,80,,,,4,,,,,,29,wg-a,,,,AAXX 07154 07299 12675 60804 10200 20180 39759 40068 58002 60047 72998 86930 91500=
07299,1997-10-07 18:00:00,17,1010.7,3.4,100,17,15000,7.408,,,180,16.3,23.8,,,,,,,,80,wg-a,,,,AAXX 07184 07299 02565 71804 10170 20170 39793 40107 53034 61000 78098 879// 91800 333 10238 20163 6009=
07299,1997-10-07 21:00:00,16,1013,2.1,94,15,11000,7.408,,,190,,,,,,,,,,,wg-a,,,,AAXX 07214 07299 32/61 /1904 10160 20150 39814 40130 53021 92100=
07299,1997-10-08 00:00:00,15,1014.4,1.3,94,14,15000,3.704,,,160,,,,,,,,,,0,wg-a,,,,AAXX 08004 07299 02665 71602 10150 20140 39827 40144 51013 61000 70096 879/2 90000 333 ////=
07299,1997-10-08 03:00:00,13,1015.5,0.6,94,12,11000,7.408,,,170,,,,,,,,,,,wg-a,,,,AAXX 08034 07299 12/61 /1704 10130 20120 39834 40155 53006 60006 90300=
07299,1997-10-08 06:00:00,13,1015.8,0.4,100,13,15000,7.408,,,170,12.4,17.2,,,,,13,,,,wg-a,,,,AAXX 08064 07299 02765 71704 10130 20130 39837 40158 51004 60006 81572 90600 333 10172 20124 60134=
07299,1997-10-08 12:00:00,22,1014.2,-0.9,60,14,20000,3.704,,,220,,,,,,,,,,,wg-a,,,,AAXX 08124 07299 12670 72202 10220 20140 39831 40142 57009 60006 81848 91200=
07299,1997-10-08 18:00:00,19,1013.6,0.1,78,15,15000,7.408,,,150,12.7,21.8,,,,,,,,,wg-a,,,,AAXX 08184 07299 12765 71504 10190 20150 39823 40136 53001 60006 82578 91800 333 10218 20127=
07299,1997-10-08 21:00:00,18,1013.4,-0.3,83,15,15000,7.408,,,150,,,,,,,,,,,wg-a,,,,AAXX 08214 07299 12765 71504 10180 20150 39820 40134 55003 60006 8257/ 92100=
07299,1997-10-09 00:00:00,18,1013.9,0.4,83,15,15000,7.408,,,140,,,,,,,,,,,wg-a,,,,AAXX 09004 07299 12765 71404 10180 20150 39824 40139 51004 60006 8557/ 90000=
07299,1997-10-09 03:00:00,19,1013.8,0,73,14,15000,11.112,,,170,,,,,,,,,,,wg-a,,,,AAXX 09034 07299 12765 71706 10190 20140 39825 40138 50000 60006 81572 90300=
07299,1997-10-09 06:00:00,19,1014.6,0.9,73,14,20000,3.704,,,250,17.3,19.3,,,,,,,,60,wg-a,,,,AAXX 09064 07299 02770 72502 10190 20140 39833 40146 51009 61000 76062 8357/ 90600 333 10193 20173 6100=
07299,1997-10-09 12:00:00,25,1013.7,-0.9,50,14,25000,22.224,,,250,,,,,,,,,,1,wg-a,,,,AAXX 09124 07299 02675 /2512 10250 20140 39830 40137 58009 61000 70186 83832 91200 333 6100=
07299,1997-10-09 15:00:00,23,1014.4,0.5,53,13,25000,25.928,,,270,,,,,,,,,,,wg-a,,,,AAXX 09154 07299 12675 72714 10230 20130 39835 40144 53005 60006 878// 91500=
07299,1997-10-09 18:00:00,20,1015.9,1.1,73,15,18000,0,,,0,18,25.6,,,,,,,,,wg-a,,,,AAXX 09184 07299 12668 50000 10200 20150 39846 40159 53011 60006 84801 91800 333 10256 20180=
07299,1997-10-09 21:00:00,19,1016.9,1,78,15,18000,11.112,,,250,,,,,,,,,,,wg-a,,,,AAXX 09214 07299 12568 32506 10190 20150 39855 40169 53010 60006 81801 92100=
07299,1997-10-10 00:00:00,17,1015.9,-1.3,82,14,18000,14.816,,,250,,,,,,,,,,,wg-a,,,,AAXX 10004 07299 12668 52508 10170 20140 39843 40159 56013 60006 82802 90000=
07299,1997-10-10 03:00:00,17,1013.8,-2,82,14,18000,3.704,,,260,,,,,,,,,,,wg-a,,,,AAXX 10034 07299 12768 72602 10170 20140 39823 40138 58020 60006 81538 90300=
07299,1997-10-10 06:00:00,17,1011.7,-2.2,82,14,500,3.704,,,80,16.4,20,,,,,,,,,wg-a,,,,AAXX 10064 07299 02600 80802 10170 20140 39802 40117 58022 60006 8287/ 90600 333 10200 20164 61000=
07299,1997-10-10 09:00:00,17,1011,-0.6,94,16,18000,18.52,,37.04,240,,,,6,,,,,,61,wg-a,,,,AAXX 10094 07299 12668 82410 10170 20160 39796 40110 58006 60067 76162 8652/ 90900 333 91020=
07299,1997-10-10 12:00:00,18,1006.4,-4.4,94,17,15000,7.408,,,150,,,,2,,,,,,61,wg-a,,,,AAXX 10124 07299 02465 81504 10180 20170 39752 40064 58044 60076 76162 8672/ 91200 333 60027=
07299,1997-10-10 15:00:00,20,1005.3,-0.9,78,16,6000,35.188,,59.264,240,,,,,,,,,,80,wg-a,,,,AAXX 10154 07299 02556 72419 10200 20160 39743 40053 55009 61000 78086 878// 91500 333 //// 91032=
07299,1997-10-10 18:00:00,17,1007.5,2,94,16,8000,18.52,,,270,15.9,22.1,,,,,,,,80,wg-a,,,,AAXX 10184 07299 02458 72710 10170 20160 39762 40075 53020 61000 78086 878// 91800 333 10221 20159 6001=
07299,1997-10-10 21:00:00,13,1011.9,3.8,82,10,20000,18.52,,,260,,,,,,,,,,1,wg-a,,,,AAXX 10214 07299 02570 /2610 10130 20100 39799 40119 53038 61000 70161 81800 92100 333 ////=
07299,1997-10-11 00:00:00,12,1013.5,1.4,88,10,15000,11.112,,,250,,,,,,,,,,0,wg-a,,,,AAXX 11004 07299 02665 52506 10120 20100 39814 40135 52014 61000 70061 81501 90000 333 ////=
07299,1997-10-11 03:00:00,11,1013.7,0.1,87,9,15000,7.408,,,180,,,,,,,,,,,wg-a,,,,AAXX 11034 07299 12665 71804 10110 20090 39815 40137 50001 60006 81531 90300=
07299,1997-10-11 06:00:00,11,1014.1,0.3,82,8,18000,3.704,,,240,9.9,17.3,,,,,8,,,,wg-a,,,,AAXX 11064 07299 02568 72402 10110 20080 39818 40141 53003 60006 83531 90600 333 10173 20099 60084=
07299,1997-10-11 12:00:00,14,1011.5,-2.4,72,9,500,14.816,,,280,,,,,,,,,,,wg-a,,,,AAXX 11124 07299 12500 72808 10140 20090 39796 40115 58024 60006 8583/ 91200=
07299,1997-10-11 15:00:00,14,1008.2,-3.1,72,9,500,7.408,,,310,,,,,,,,,,15,wg-a,,,,AAXX 11154 07299 12600 73104 10140 20090 39765 40082 58031 60006 71522 8683/ 91500=
07299,1997-10-11 18:00:00,13,1004.7,-3.4,77,9,20000,0,,,0,10.4,15,,,,,,,,60,wg-a,,,,AAXX 11184 07299 02670 70000 10130 20090 39730 40047 58034 61000 76062 875// 91800 333 10150 20104 6100=
07299,1997-10-11 21:00:00,11,1002.6,-2.1,100,11,8000,3.704,,,120,,,,2,,,,,,61,wg-a,,,,AAXX 11214 07299 12558 81202 10110 20110 39708 40026 56021 60027 76162 885// 92100=
07299,1997-10-12 00:00:00,12,999,-3.6,94,11,13000,7.408,,,60,,,,5,,,,,,61,wg-a,,,,AAXX 12004 07299 02363 80604 10120 20110 39673 49990 56036 60076 76162 887// 90000 333 60057=
07299,1997-10-12 03:00:00,15,996.6,-1.8,88,13,15000,18.52,,,250,,,,3,,,,,,25,wg-a,,,,AAXX 12034 07299 12565 /2510 10150 20130 39653 49966 58018 60037 72586 83200 90300=
07299,1997-10-12 06:00:00,12,998.7,1.9,88,10,12000,25.928,,68.524,270,11.1,15.6,,,,,,,,80,wg-a,,,,AAXX 12064 07299 02462 62714 10120 20100 39670 49987 53019 61000 78086 86300 90600 333 10156 20111 6014 91037=
07299,1997-10-12 09:00:00,12,1001.4,2.6,88,10,10000,18.52,,,240,,,,,,,,,,80,wg-a,,,,AAXX 12094 07299 02560 82410 10120 20100 39697 40014 50026 61000 78086 88300 90900 333 ////=
07299,1997-10-12 12:00:00,10,1003.3,1.9,93,9,500,14.816,,,340,,,,,,,,,,80,wg-a,,,,AAXX 12124 07299 12300 83408 10100 20090 39712 40033 53019 60046 78086 88300 91200=
07299,1997-10-12 18:00:00,10,1011.9,4.1,87,8,15000,7.408,,,240,9.3,12.9,,,,,,,,2,wg-a,,,,AAXX 12184 07299 12565 72404 10100 20080 39796 40119 53041 60006 70286 878// 91800 333 10129 20093=
07299,1997-10-12 21:00:00,8,1013.6,1.3,93,7,10000,3.704,,,160,,,,,,,,,,1,wg-a,,,,AAXX 12214 07299 02660 21602 10080 20070 39810 40136 51013 61000 70161 82500 92100 333 ////=
07299,1997-10-13 00:00:00,8,1014.4,0.8,100,8,10000,0,,,0,,,,1,,,,,,60,wg-a,,,,AAXX 13004 07299 02460 70000 10080 20080 39818 40144 52008 60016 76061 87800 90000 333 60017=
07299,1997-10-13 03:00:00,8,1014.4,0,100,8,10000,0,,,0,,,,0,,,,,,2,wg-a,,,,AAXX 13034 07299 12460 70000 10080 20080 39818 40144 50000 60007 70262 878// 90300=
07299,1997-10-13 06:00:00,8,1014.7,0.3,93,7,10000,3.704,,,330,7.6,10.2,,,,,6,,,2,wg-a,,,,AAXX 13064 07299 02360 73302 10080 20070 39821 40147 53003 60006 70262 8/800 90600 333 10102 20076 60064=
07299,1997-10-13 09:00:00,11,1015.5,0.9,71,6,20000,18.52,,,240,,,,,,,,,,,wg-a,,,,AAXX 13094 07299 12470 72410 10110 20060 39831 40155 51009 60006 84832 90900=
07299,1997-10-13 12:00:00,11,1014.4,-0.9,71,6,500,29.632,,,260,,,,,,,,,,,wg-a,,,,AAXX 13124 07299 12500 72616 10110 20060 39821 40144 58009 60006 85832 91200=
07299,1997-10-13 15:00:00,8,1015,0.3,81,5,20000,18.52,,,240,,,,0,,,,,,1,wg-a,,,,AAXX 13154 07299 12570 72410 10080 20050 39824 40150 51003 60007 70186 8583/ 91500=
07299,1997-10-13 18:00:00,7,1016.6,1.3,81,4,15000,11.112,,,230,6.7,11.9,,,,,,,,2,wg-a,,,,AAXX 13184 07299 12565 72306 10070 20040 39837 40166 53013 60006 70286 8383/ 91800 333 10119 20067=
07299,1997-10-13 21:00:00,6,1017.4,0.8,93,5,13000,14.816,,,240,,,,1,,,,,,60,wg-a,,,,AAXX 13214 07299 12563 72408 10060 20050 39845 40174 53008 60017 76062 8583/ 92100=
07299,1997-10-14 00:00:00,6,1017.9,0.5,100,6,0,14.816,,,250,,,,,,,,,,,wg-a,,,,AAXX 14004 07299 12/// /2508 10060 20060 39850 40179 51005 60026 90000=
07299,1997-10-14 03:00:00,5,1019,1,93,4,13000,7.408,,,240,,,,,,,,,,21,wg-a,,,,AAXX 14034 07299 02563 72404 10050 20040 39859 40190 53010 61000 72162 8383/ 90300 333 ////=
07299,1997-10-14 06:00:00,6,1020.3,1.2,87,4,10000,0,,,0,4.2,7.3,,,,,2,,,3,wg-a,,,,AAXX 14064 07299 02560 70000 10060 20040 39872 40203 53012 60006 70362 878// 90600 333 10073 20042 60024=
07299,1997-10-14 09:00:00,8,1021.3,1.4,87,6,13000,18.52,,,280,,,,,,,,,,,wg-a,,,,AAXX 14094 07299 12463 72810 10080 20060 39885 40213 51014 60006 878// 90900=
07299,1997-10-14 12:00:00,9,1021.5,0.2,81,6,15000,18.52,,,260,,,,,,,,,,,wg-a,,,,AAXX 14124 07299 12465 72610 10090 20060 39888 40215 50002 60006 8787/ 91200=
07299,1997-10-14 15:00:00,9,1020.6,-0.9,76,5,20000,14.816,,,260,,,,0,,,,,,1,wg-a,,,,AAXX 14154 07299 12570 52608 10090 20050 39879 40206 58009 60007 70186 83372 91500=
07299,1997-10-14 18:00:00,7,1022.1,1.1,87,5,15000,11.112,,,240,5.7,10.4,,,,,,,,25,wg-a,,,,AAXX 14184 07299 02565 72406 10070 20050 39891 40221 53011 61000 72586 83872 91800 333 10104 20057 6002=
07299,1997-10-14 21:00:00,7,1022.4,0.3,87,5,12000,14.816,,,250,,,,,,,,,,,wg-a,,,,AAXX 14214 07299 12662 72508 10070 20050 39894 40224 51003 60006 8353/ 92100=
07299,1997-10-15 00:00:00,7,1021.6,-0.8,93,6,10000,11.112,,,230,,,,0,,,,,,61,wg-a,,,,AAXX 15004 07299 02560 82306 10070 20060 39886 40216 58008 60016 76162 8587/ 90000 333 60007=
07299,1997-10-15 03:00:00,6,1020.1,-1.5,93,5,10000,18.52,,,240,,,,0,,,,,,61,wg-a,,,,AAXX 15034 07299 12460 82410 10060 20050 39871 40201 57015 60007 76166 8387/ 90300=
07299,1997-10-15 06:00:00,6,1019.2,-1.1,93,5,13000,11.112,,,220,5.3,7.2,,,,,,,,60,wg-a,,,,AAXX 15064 07299 02463 82206 10060 20050 39861 40192 58011 61000 76066 8287/ 90600 333 10072 20053 6003=
07299,1997-10-15 09:00:00,7,1018.5,-0.5,93,6,12000,11.112,,,230,,,,1,,,,,,60,wg-a,,,,AAXX 15094 07299 12562 82306 10070 20060 39856 40185 58005 60017 76066 8552/ 90900=
07299,1997-10-15 12:00:00,7,1016.9,-1.5,93,6,9000,7.408,,,240,,,,2,,,,,,61,wg-a,,,,AAXX 15124 07299 02459 82404 10070 20060 39841 40169 58015 60036 76166 8582/ 91200 333 60027=
07299,1997-10-15 18:00:00,8,1014.2,-0.4,87,6,8000,3.704,,,140,5.5,8.1,,,,,,,,,wg-a,,,,AAXX 15184 07299 12/58 /1402 10080 20060 39816 40142 56004 60006 91800 333 10081 20055=
07299,1997-10-15 21:00:00,8,1014.2,-0.1,87,6,8000,7.408,,,130,,,,0,,,,,,60,wg-a,,,,AAXX 15214 07299 12358 81304 10080 20060 39815 40142 55001 60007 76062 875// 92100=
07299,1997-10-16 00:00:00,8,1013.3,-0.8,93,7,7000,3.704,,,170,,,,0,,,,,,21,wg-a,,,,AAXX 16004 07299 02457 81702 10080 20070 39807 40133 56008 60016 72162 875// 90000 333 60007=
07299,1997-10-16 03:00:00,8,1012.7,-0.7,100,8,3500,0,,,0,,,,0,,,,,,51,wg-a,,,,AAXX 16034 07299 12335 80000 10080 20080 39801 40127 56007 60007 75165 877// 90300=
07299,1997-10-16 06:00:00,8,1013.5,1,100,8,4000,3.704,,,110,7.5,8.3,,,,,4,,,10,wg-a,,,,AAXX 16064 07299 02140 81102 10080 20080 39810 40135 53010 60006 71065 887// 90600 333 10083 20075 60044=
07299,1997-10-16 09:00:00,11,1015.1,1.8,94,10,6000,3.704,,,90,,,,,,,,,,,wg-a,,,,AAXX 16094 07299 12256 80902 10110 20100 39828 40151 51018 60006 878// 90900=
07299,1997-10-16 12:00:00,11,1015.5,0.5,94,10,9000,18.52,,,260,,,,,,,,,,,wg-a,,,,AAXX 16124 07299 12459 82610 10110 20100 39833 40155 51005 60006 878// 91200=
07299,1997-10-16 15:00:00,12,1016.2,0.6,82,9,15000,7.408,,,230,,,,,,,,,,,wg-a,,,,AAXX 16154 07299 12465 82304 10120 20090 39839 40162 53006 60006 858// 91500=
07299,1997-10-16 18:00:00,11,1017.7,1.4,87,9,15000,0,,,0,8.3,11.8,,,,,,,,,wg-a,,,,AAXX 16184 07299 12665 80000 10110 20090 39853 40177 53014 60006 875// 91800 333 10118 20083=
07299,1997-10-17 00:00:00,9,1018.8,-0.1,100,9,10000,3.704,,,130,,,,,,,,,,,wg-a,,,,AAXX 17004 07299 12/60 41302 10090 20090 39862 40188 58001 60006 84030 90000=
07299,1997-10-17 06:00:00,6,1019.6,0.6,100,6,1500,7.408,,,170,5.1,10.4,,,,,,,,40,wg-a,,,,AAXX 17064 07299 02/15 /1704 10060 20060 39865 40196 53006 60006 74041 80001 90600 333 10104 20051 60004=
07299,1997-10-17 09:00:00,9,1020.8,1.6,100,9,3500,3.704,,,210,,,,,,,,,,10,wg-a,,,,AAXX 17094 07299 12135 72102 10090 20090 39881 40208 51016 60006 71041 876// 90900=
07299,1997-10-17 12:00:00,14,1019.4,-0.7,77,10,11000,3.704,,,350,,,,,,,,,,1,wg-a,,,,AAXX 17124 07299 12561 /3502 10140 20100 39874 40194 58007 60006 70141 81101 91200=
07299,1997-10-17 15:00:00,16,1018.6,-0.6,55,7,25000,3.704,,,60,,,,,,,,,,,wg-a,,,,AAXX 17154 07299 12/75 70602 10160 20070 39868 40186 56006 60006 80001 91500=
07299,1997-10-17 18:00:00,12,1019.9,0.7,76,8,25000,3.704,,,40,5.4,16.9,,,,,,,,,wg-a,,,,AAXX 17184 07299 12/75 60402 10120 20080 39875 40199 53007 60006 80001 91800 333 10169 20054=
07299,1997-10-17 21:00:00,8,1021.8,1.3,93,7,15000,3.704,,,350,,,,,,,,,,,wg-a,,,,AAXX 17214 07299 12/65 23502 10080 20070 39889 40218 51013 60006 80001 92100=
07299,1997-10-18 00:00:00,6,1023.1,1,100,6,10000,3.704,,,280,,,,,,,,,,,wg-a,,,,AAXX 18004 07299 12/60 62802 10060 20060 39899 40231 53010 60006 80001 90000=
07299,1997-10-18 03:00:00,5,1023.7,0.5,100,5,6000,3.704,,,170,,,,,,,,,,,wg-a,,,,AAXX 18034 07299 12/56 /1702 10050 20050 39904 40237 53005 60006 80001 90300=
07299,1997-10-18 06:00:00,5,1024.7,1,100,5,4000,7.408,,,180,4.5,11.4,,,,,,,,10,wg-a,,,,AAXX 18064 07299 02/40 /1804 10050 20050 39914 40247 53010 60006 71022 80001 90600 333 10114 20045 60004=
07299,1997-10-18 09:00:00,12,1025.3,1.4,88,10,7000,7.408,,,110,,,,,,,,,,,wg-a,,,,AAXX 18094 07299 12457 /1104 10120 20100 39928 40253 51014 60006 81101 90900=
07299,1997-10-18 12:00:00,17,1024.1,-0.7,63,10,11000,3.704,,,100,,,,,,,,,,,wg-a,,,,AAXX 18124 07299 12561 41002 10170 20100 39922 40241 58007 60006 81201 91200=
07299,1997-10-18 15:00:00,18,1022.8,-1.1,68,12,15000,7.408,,,130,,,,,,,,,,,wg-a,,,,AAXX 18154 07299 12/65 21304 10180 20120 39910 40228 56011 60006 80001 91500=
07299,1997-10-18 18:00:00,12,1024.1,0.6,82,9,500,7.408,,,110,5.3,18.4,,,,,,,,,wg-a,,,,AAXX 18184 07299 12/00 /1104 10120 20090 39916 40241 53006 60006 80001 91800 333 10184 20053=
07299,1997-10-18 21:00:00,9,1024.7,0.3,100,9,4500,3.704,,,110,,,,,,,,,,10,wg-a,,,,AAXX 18214 07299 12/45 01102 10090 20090 39919 40247 51003 60006 71000 80000 92100=
07299,1997-10-19 00:00:00,9,1024.3,-0.4,100,9,3000,7.408,,,110,,,,,,,,,,10,wg-a,,,,AAXX 19004 07299 12230 /1104 10090 20090 39915 40243 58004 60006 71011 86600 90000=
07299,1997-10-19 03:00:00,9,1023.5,-0.8,100,9,3000,11.112,,,110,,,,,,,,,,10,wg-a,,,,AAXX 19034 07299 12230 71106 10090 20090 39907 40235 58008 60006 71022 876// 90300=
07299,1997-10-19 06:00:00,9,1022.8,-0.7,93,8,4500,11.112,,,110,8.4,11.5,,,,,,,,10,wg-a,,,,AAXX 19064 07299 02345 /1106 10090 20080 39900 40228 56007 60006 71011 85600 90600 333 10115 20084 60004=
07299,1997-10-19 09:00:00,12,1022.1,-0.4,82,9,6000,11.112,,,100,,,,,,,,,,,wg-a,,,,AAXX 19094 07299 12/56 /1006 10120 20090 39897 40221 58004 60006 90900=
07299,1997-10-19 12:00:00,17,1019.2,-2.2,68,11,14000,3.704,,,250,,,,,,,,,,,wg-a,,,,AAXX 19124 07299 12/64 02502 10170 20110 39874 40192 58022 60006 80000 91200=
07299,1997-10-19 15:00:00,17,1017.6,-1.3,68,11,18000,7.408,,,40,,,,,,,,,,,wg-a,,,,AAXX 19154 07299 12/68 00404 10170 20110 39860 40176 56013 60006 80000 91500=
07299,1997-10-19 18:00:00,11,1018.5,0.1,94,10,8000,3.704,,,110,8.8,18.3,,0,,,,,,,wg-a,,,,AAXX 19184 07299 02/58 /1102 10110 20100 39861 40185 53001 60006 80001 91800 333 10183 20088 60007=
07299,1997-10-20 00:00:00,8,1017.8,-0.9,100,8,3400,7.408,,,150,,,,,,,,,,10,wg-a,,,,AAXX 20004 07299 12/34 01504 10080 20080 39851 40178 57009 60006 71000 80000 90000=
07299,1997-10-20 03:00:00,8,1017.2,-0.6,100,8,3000,11.112,,,160,,,,,,,,,,10,wg-a,,,,AAXX 20034 07299 12/30 01606 10080 20080 39845 40172 56006 60006 71000 80000 90300=
07299,1997-10-20 06:00:00,9,1016.3,-0.9,93,8,3500,11.112,,,130,7.1,11.2,,,,,,,,10,wg-a,,,,AAXX 20064 07299 02235 31306 10090 20080 39837 40163 56009 60006 71000 82604 90600 333 10112 20071 60004=
07299,1997-10-20 09:00:00,13,1015.2,-0.6,82,10,8000,11.112,,,120,,,,,,,,,,,wg-a,,,,AAXX 20094 07299 12/58 /1206 10130 20100 39831 40152 56006 60006 80001 90900=
07299,1997-10-20 12:00:00,18,1012.4,-2.2,68,12,10000,7.408,,,120,,,,,,,,,,,wg-a,,,,AAXX 20124 07299 12/60 /1204 10180 20120 39809 40124 58022 60006 91200=
07299,1997-10-20 15:00:00,14,1011.9,-0.9,82,11,20000,11.112,,,340,,,,,,,,,,,wg-a,,,,AAXX 20154 07299 12/70 73406 10140 20110 39800 40119 55009 60006 80002 91500=
07299,1997-10-20 18:00:00,11,1013.3,1.1,100,11,2000,11.112,,,340,8.5,19.6,,,,,,,,10,wg-a,,,,AAXX 20184 07299 12120 83406 10110 20110 39811 40133 53011 60006 71022 886// 91800 333 10196 20085=
07299,1997-10-20 21:00:00,10,1013.7,0.3,100,10,800,7.408,,,350,,,,,,,,,,44,wg-a,,,,AAXX 20214 07299 12008 83504 10100 20100 39814 40137 50003 60006 74442 886// 92100=
07299,1997-10-21 00:00:00,9,1013.3,-0.5,100,9,300,11.112,,,360,,,,,,,,,,45,wg-a,,,,AAXX 21004 07299 12/03 93606 10090 20090 39809 40133 56005 60006 74542 89/// 90000=
07299,1997-10-21 03:00:00,9,1012.9,-0.5,100,9,600,7.408,,,360,,,,,,,,,,44,wg-a,,,,AAXX 21034 07299 12006 83604 10090 20090 39804 40129 58005 60006 74444 886// 90300=
07299,1997-10-21 06:00:00,8,1013.5,0.5,100,8,900,11.112,,,340,7.9,10.9,,,,,,,,42,wg-a,,,,AAXX 21064 07299 02009 83406 10080 20080 39809 40135 51005 60006 74244 886// 90600 333 10109 20079 60004=
07299,1997-10-21 09:00:00,8,1014.6,0.9,100,8,1500,14.816,,,340,,,,,,,,,,10,wg-a,,,,AAXX 21094 07299 12015 83408 10080 20080 39820 40146 51009 60006 71042 886// 90900=
07299,1997-10-21 12:00:00,9,1014.4,0,93,8,4000,14.816,,,350,,,,,,,,,,10,wg-a,,,,AAXX 21124 07299 12340 83508 10090 20080 39819 40144 50000 60006 71042 886// 91200=
07299,1997-10-21 15:00:00,11,1014.6,0.4,82,8,9000,7.408,,,20,,,,,,,,,,,wg-a,,,,AAXX 21154 07299 12459 80204 10110 20080 39823 40146 53004 60006 887// 91500=
07299,1997-10-21 18:00:00,9,1015.9,1.1,87,7,9000,7.408,,,340,7.8,10.6,,,,,,,,,wg-a,,,,AAXX 21184 07299 12459 83404 10090 20070 39834 40159 52011 60006 887// 91800 333 10106 20078=
07299,1997-10-21 21:00:00,8,1016.1,-0,87,6,10000,3.704,,,340,,,,,,,,,,,wg-a,,,,AAXX 21214 07299 12460 83402 10080 20060 39834 40161 55000 60006 875// 92100=
07299,1997-10-22 00:00:00,8,1015.7,-0.4,81,5,10000,3.704,,,330,,,,,,,,,,,wg-a,,,,AAXX 22004 07299 12560 83302 10080 20050 39830 40157 57004 60006 875// 90000=
07299,1997-10-22 03:00:00,7,1015,-0.8,93,6,8000,7.408,,,310,,,,,,,,,,,wg-a,,,,AAXX 22034 07299 12458 83104 10070 20060 39822 40150 56008 60006 875// 90300=
07299,1997-10-22 06:00:00,7,1014.4,-0.5,93,6,9000,3.704,,,310,6.5,9.3,,,,,,,,,wg-a,,,,AAXX 22064 07299 02459 83102 10070 20060 39817 40144 55005 60006 875// 90600 333 10093 20065 60004=
07299,1997-10-22 09:00:00,9,1014.1,-0.1,87,7,9000,11.112,,,90,,,,,,,,,,,wg-a,,,,AAXX 22094 07299 12459 80906 10090 20070 39816 40141 58001 60006 875// 90900=
07299,1997-10-22 12:00:00,11,1013.2,-0.7,82,8,9000,3.704,,,350,,,,,,,,,,,wg-a,,,,AAXX 22124 07299 12459 83502 10110 20080 39809 40132 58007 60006 875// 91200=
07299,1997-10-22 15:00:00,11,1012.8,-0.4,82,8,10000,3.704,,,90,,,,,,,,,,,wg-a,,,,AAXX 22154 07299 12460 80902 10110 20080 39806 40128 55004 60006 875// 91500=
07299,1997-10-22 18:00:00,10,1013.4,0.6,87,8,8000,7.408,,,80,6.5,11.6,,,,,,,,,wg-a,,,,AAXX 22184 07299 12/58 /0804 10100 20080 39811 40134 53006 60006 91800 333 10116 20065=
07299,1997-10-22 21:00:00,10,1013.6,0.2,87,8,7000,3.704,,,40,,,,,,,,,,,wg-a,,,,AAXX 22214 07299 12457 80402 10100 20080 39813 40136 53002 60006 875// 92100=
07299,1997-10-23 00:00:00,9,1013.6,-0.2,87,7,9000,11.112,,,90,,,,,,,,,,,wg-a,,,,AAXX 23004 07299 12459 80906 10090 20070 39812 40136 56002 60006 875// 90000=
07299,1997-10-23 03:00:00,8,1013.5,-0.2,87,6,9000,11.112,,,90,,,,,,,,,,,wg-a,,,,AAXX 23034 07299 12459 80906 10080 20060 39809 40135 57002 60006 875// 90300=
07299,1997-10-23 06:00:00,8,1013.4,-0.1,87,6,8000,7.408,,,80,7.7,10.4,,,,,,,,,wg-a,,,,AAXX 23064 07299 02458 80804 10080 20060 39808 40134 58001 60006 875// 90600 333 10104 20077 60004=
07299,1997-10-23 09:00:00,8,1014,0.6,87,6,6000,3.704,,,70,,,,,,,,,,,wg-a,,,,AAXX 23094 07299 12456 80702 10080 20060 39814 40140 51006 60006 875// 90900=
07299,1997-10-23 12:00:00,9,1013.5,-0.4,81,6,7000,14.816,,,350,,,,,,,,,,,wg-a,,,,AAXX 23124 07299 12457 83508 10090 20060 39810 40135 58004 60006 875// 91200=
07299,1997-10-23 18:00:00,5,1015,1.3,93,4,500,14.816,,,340,5.1,8.8,,,,,,,,,wg-a,,,,AAXX 23184 07299 12300 83408 10050 20040 39820 40150 53013 60006 875// 91800 333 10088 20051=
07299,1997-10-24 00:00:00,3,1017.7,1.2,100,3,2500,14.816,,,310,,,,,,,,,,,wg-a,,,,AAXX 24004 07299 12225 83108 10030 20030 39844 40177 53012 60006 886// 90000=
07299,1997-10-24 03:00:00,3,1018.6,0.8,100,3,1200,7.408,,,310,,,,,,,,,,10,wg-a,,,,AAXX 24034 07299 12212 83104 10030 20030 39852 40186 51008 60006 71022 886// 90300=
07299,1997-10-24 06:00:00,3,1020.4,1.8,100,3,3000,7.408,,,300,2.7,5.1,,,,,,,,10,wg-a,,,,AAXX 24064 07299 02230 83004 10030 20030 39870 40204 51018 60006 71022 876// 90600 333 10051 20027 60004=
07299,1997-10-24 09:00:00,4,1022,1.7,93,3,6000,7.408,,,300,,,,,,,,,,,wg-a,,,,AAXX 24094 07299 12256 53004 10040 20030 39887 40220 51017 60006 85200 90900=
07299,1997-10-24 12:00:00,9,1021.6,0.1,66,3,12000,14.816,,,350,,,,,,,,,,,wg-a,,,,AAXX 24124 07299 12562 /3508 10090 20030 39888 40216 50001 60006 85800 91200=
07299,1997-10-24 15:00:00,9,1022.4,0.8,66,3,20000,18.52,,,10,,,,,,,,,,,wg-a,,,,AAXX 24154 07299 12570 70110 10090 20030 39896 40224 53008 60006 878// 91500=
07299,1997-10-24 18:00:00,8,1024.3,1.7,71,3,20000,7.408,,,20,2.5,9.9,,,,,,,,,wg-a,,,,AAXX 24184 07299 12670 70204 10080 20030 39913 40243 52017 60006 875// 91800 333 10099 20025=
07299,1997-10-24 21:00:00,5,1025.6,0.9,81,2,20000,3.704,,,350,,,,,,,,,,,wg-a,,,,AAXX 24214 07299 12770 43502 10050 20020 39922 40256 53009 60006 84500 92100=
07299,1997-10-25 00:00:00,0,1026.4,0.3,100,0,15000,3.704,,,240,,,,,,,,,,,wg-a,,,,AAXX 25004 07299 12765 22402 10000 20000 39925 40264 53003 60006 82500 90000=
07299,1997-10-25 03:00:00,-1,1027.4,0.7,93,-2,7000,0,,,0,,,,,,,,,,,wg-a,,,,AAXX 25034 07299 12/57 00000 11010 21020 39932 40274 52007 60006 80000 90300=
07299,1997-10-25 06:00:00,-1,1028.8,1.3,100,-1,800,0,,,0,-2.1,7.7,,,,,,,,,wg-a,,,,AAXX 25064 07299 02/08 /0000 11010 21010 39945 40288 52013 60006 90600 333 10077 21021 60004=
07299,1997-10-25 09:00:00,2,1029.3,1,100,2,2000,3.704,,,30,,,,,,,,,,10,wg-a,,,,AAXX 25094 07299 12120 40302 10020 20020 39955 40293 50010 60006 71041 84600 90900=
07299,1997-10-25 12:00:00,9,1027.5,-0.9,57,1,40000,3.704,,,290,,,,,,,,,,1,wg-a,,,,AAXX 25124 07299 12/82 32902 10090 20010 39946 40275 58009 60006 70141 80001 91200=
07299,1997-10-25 15:00:00,9,1026.6,-0.9,53,0,40000,11.112,,,350,,,,,,,,,,,wg-a,,,,AAXX 25154 07299 12/82 33506 10090 20000 39937 40266 56009 60006 80001 91500=
07299,1997-10-25 18:00:00,3,1027.9,0.5,87,1,13000,3.704,,,230,-1.4,9.7,,,,,,,,,wg-a,,,,AAXX 25184 07299 12/63 02302 10030 20010 39942 40279 53005 60006 80000 91800 333 10097 21014=
07299,1997-10-25 21:00:00,1,1028.6,0.4,86,-1,6000,7.408,,,260,,,,,,,,,,,wg-a,,,,AAXX 25214 07299 12/56 02604 10010 21010 39946 40286 52004 60006 80000 92100=
07299,1997-10-26 00:00:00,-1,1028.6,-0.2,100,-1,500,0,,,0,,,,,,,,,,,wg-a,,,,AAXX 26004 07299 12/00 00000 11010 21010 39944 40286 57002 60006 80000 90000=
07299,1997-10-26 03:00:00,-1,1027.8,-0.8,100,-1,500,3.704,,,160,,,,,,,,,,,wg-a,,,,AAXX 26034 07299 12/00 01602 11010 21010 39936 40278 58008 60006 80000 90300=
07299,1997-10-26 06:00:00,-1,1027.2,-0.6,93,-2,6000,0,,,0,-2,2.7,,,,,,,,,wg-a,,,,AAXX 26064 07299 02856 10000 11010 21020 39930 40272 56006 60006 81500 90600 333 10027 21020 60004=
07299,1997-10-26 09:00:00,5,1026.9,0.4,81,2,8000,3.704,,,190,,,,,,,,,,,wg-a,,,,AAXX 26094 07299 12/58 /1902 10050 20020 39935 40269 50004 60006 80001 90900=
07299,1997-10-26 12:00:00,11,1024.8,-1.4,58,3,12000,3.704,,,30,,,,,,,,,,,wg-a,,,,AAXX 26124 07299 12/62 30302 10110 20030 39921 40248 58014 60006 80001 91200=
07299,1997-10-26 15:00:00,11,1023.5,-1.2,58,3,15000,11.112,,,360,,,,,,,,,,,wg-a,,,,AAXX 26154 07299 12/65 23606 10110 20030 39909 40235 57012 60006 80001 91500=
07299,1997-10-26 18:00:00,5,1024.4,0.2,87,3,13000,7.408,,,330,-1.7,11.2,,,,,,,,,wg-a,,,,AAXX 26184 07299 12/63 13304 10050 20030 39911 40244 53002 60006 80001 91800 333 10112 21017=
07299,1997-10-26 21:00:00,5,1024.6,0.2,93,4,11000,11.112,,,330,,,,,,,,,,,wg-a,,,,AAXX 26214 07299 12/61 /3306 10050 20040 39913 40246 51002 60006 92100=
07299,1997-10-27 00:00:00,3,1024.5,-0.4,100,3,10000,0,,,0,,,,,,,,,,,wg-a,,,,AAXX 27004 07299 12660 70000 10030 20030 39910 40245 56004 60006 875// 90000=
07299,1997-10-27 03:00:00,3,1023.7,-0.8,100,3,7000,0,,,0,,,,,,,,,,,wg-a,,,,AAXX 27034 07299 12657 /0000 10030 20030 39902 40237 57008 60006 85500 90300=
07299,1997-10-27 06:00:00,1,1024.5,0.5,100,1,200,3.704,,,270,1.1,5.4,,,,,,,,42,wg-a,,,,AAXX 27064 07299 02/02 02702 10010 20010 39907 40245 53005 60006 74241 80000 90600 333 10054 20011 60004=
07299,1997-10-27 09:00:00,3,1025.2,0.9,100,3,100,0,,,0,,,,,,,,,,45,wg-a,,,,AAXX 27094 07299 12/01 90000 10030 20030 39916 40252 51009 60006 74544 89/// 90900=
07299,1997-10-27 12:00:00,9,1023.2,-1.2,71,4,9000,11.112,,,340,,,,,,,,,,1,wg-a,,,,AAXX 27124 07299 12459 /3406 10090 20040 39904 40232 58012 60006 70141 81800 91200=
07299,1997-10-27 18:00:00,6,1024.5,1.7,65,0,17000,11.112,,,120,1.2,11.1,,,,,,,,,wg-a,,,,AAXX 27184 07299 12667 /1206 10060 20000 39913 40245 51017 60006 86500 91800 333 10111 20012=
07299,1997-10-27 21:00:00,4,1025.4,0.4,65,-2,14000,7.408,,,80,,,,,,,,,,,wg-a,,,,AAXX 27214 07299 12764 /0804 10040 21020 39918 40254 52004 60006 81500 92100=
07299,1997-10-28 00:00:00,-1,1026.1,0.3,86,-3,18000,7.408,,,300,,,,,,,,,,,wg-a,,,,AAXX 28004 07299 12/68 03004 11010 21030 39920 40261 53003 60006 80000 90000=
07299,1997-10-28 03:00:00,-3,1026.3,-0.1,86,-5,20000,7.408,,,260,,,,,,,,,,,wg-a,,,,AAXX 28034 07299 12/70 02604 11030 21050 39919 40263 58001 60006 80000 90300=
07299,1997-10-28 06:00:00,-5,1027.5,0.9,86,-7,500,7.408,,,300,-4.8,6,,,,,,,,,wg-a,,,,AAXX 28064 07299 02800 13004 11050 21070 39928 40275 51009 60006 81501 90600 333 10060 21048 60004=
07299,1997-10-28 12:00:00,7,1026.5,-0.3,39,-6,40000,3.704,,,230,,,,,,,,,,,wg-a,,,,AAXX 28124 07299 12782 /2302 10070 21060 39933 40265 58003 60006 81100 91200=
07299,1997-10-28 15:00:00,7,1027.5,1,29,-10,50000,14.816,,,90,,,,,,,,,,,wg-a,,,,AAXX 28154 07299 12/84 00908 10070 21100 39943 40275 53010 60006 80000 91500=
07299,1997-10-28 18:00:00,4,1030.3,2.2,38,-9,50000,14.816,,,70,-4.9,8.1,,,,,,,,,wg-a,,,,AAXX 28184 07299 12/84 00708 10040 21090 39966 40303 53022 60006 80000 91800 333 10081 21049=
07299,1997-10-28 21:00:00,-1,1032.1,1.1,64,-7,500,7.408,,,300,,,,,,,,,,,wg-a,,,,AAXX 28214 07299 12/00 03004 11010 21070 39977 40321 51011 60006 80000 92100=
07299,1997-10-29 00:00:00,-3,1033.1,0.8,74,-7,0,7.408,,,260,,,,,,,,,,,wg-a,,,,AAXX 29004 07299 12/// /2604 11030 21070 39985 40331 51008 60006 90000=
07299,1997-10-29 03:00:00,-5,1033.9,0.5,86,-7,18000,11.112,,,310,,,,,,,,,,,wg-a,,,,AAXX 29034 07299 12/68 03106 11050 21070 39990 40339 51005 60006 80000 90300=
07299,1997-10-29 06:00:00,-6,1034.4,0.4,93,-7,25000,3.704,,,260,-5.8,4,,,,,,,,,wg-a,,,,AAXX 29064 07299 02/75 02602 11060 21070 39994 40344 52004 60006 80000 90600 333 10040 21058 60004=
07299,1997-10-29 09:00:00,-1,1034.2,0.4,80,-4,50000,11.112,,,320,,,,,,,,,,,wg-a,,,,AAXX 29094 07299 12/84 03206 11010 21040 39998 40342 50004 60006 80000 90900=
07299,1997-10-29 12:00:00,5,1031.7,-1.8,48,-5,50000,14.816,,,330,,,,,,,,,,,wg-a,,,,AAXX 29124 07299 12/84 03308 10050 21050 39981 40317 58018 60006 80000 91200=
07299,1997-10-29 15:00:00,7,1030.4,-0.9,42,-5,60000,18.52,,,340,,,,,,,,,,,wg-a,,,,AAXX 29154 07299 12/86 23410 10070 21050 39971 40304 56009 60006 80001 91500=
07299,1997-10-29 18:00:00,2,1032.1,1,60,-5,40000,7.408,,,310,-5.8,7.3,,,,,,,,,wg-a,,,,AAXX 29184 07299 12/82 13104 10020 21050 39981 40321 53010 60006 80001 91800 333 10073 21058=
07299,1997-10-29 21:00:00,-2,1032.4,-0.1,80,-5,10000,7.408,,,280,,,,,,,,,,,wg-a,,,,AAXX 29214 07299 12/60 /2804 11020 21050 39980 40324 57001 60006 92100=
07299,1997-10-30 00:00:00,-3,1031.7,-0.9,80,-6,20000,3.704,,,340,,,,,,,,,,,wg-a,,,,AAXX 30004 07299 12/70 13402 11030 21060 39971 40317 56009 60006 80001 90000=
07299,1997-10-30 03:00:00,-5,1031.1,-0.9,86,-7,20000,3.704,,,260,,,,,,,,,,,wg-a,,,,AAXX 30034 07299 12/70 12602 11050 21070 39962 40311 57009 60006 80001 90300=
07299,1997-10-30 06:00:00,-6,1030.5,-0.6,93,-7,20000,3.704,,,250,-6.3,2.2,,,,,,,,,wg-a,,,,AAXX 30064 07299 02/70 02502 11060 21070 39956 40305 58006 60006 80000 90600 333 10022 21063 60004=
07299,1997-10-30 12:00:00,4,1027.2,-1.7,52,-5,15000,7.408,,,320,,,,,,,,,,,wg-a,,,,AAXX 30124 07299 12/65 03204 10040 21050 39936 40272 58017 60006 80000 91200=
07299,1997-10-30 18:00:00,1,1027.3,0.3,69,-4,15000,7.408,,,160,-6.3,6.8,,,,,,,,,wg-a,,,,AAXX 30184 07299 12/65 01604 10010 21040 39934 40273 52003 60006 80000 91800 333 10068 21063=
07299,1997-10-30 21:00:00,-3,1027.3,-0.4,93,-4,15000,7.408,,,190,,,,,,,,,,,wg-a,,,,AAXX 30214 07299 12/65 01904 11030 21040 39929 40273 56004 60006 80000 92100=
07299,1997-10-31 00:00:00,-4,1027.3,,93,-5,15000,7.408,,,190,,,,,,,,,,,wg-a,,,,AAXX 31004 07299 12/65 01904 11040 21050 39928 40273 60006 80000 90000=
07299,1997-10-31 03:00:00,-5,1027.2,-0.1,93,-6,12000,3.704,,,160,,,,,,,,,,,wg-a,,,,AAXX 31034 07299 12/62 01602 11050 21060 39926 40272 57001 60006 80000 90300=
07299,1997-10-31 06:00:00,-5,1027.8,0.4,93,-6,10000,7.408,,,180,-6.1,1,,,,,,,,,wg-a,,,,AAXX 31064 07299 02/60 11804 11050 21060 39931 40278 52004 60006 80002 90600 333 10010 21061 60004=
07299,1997-10-31 09:00:00,1,1027.6,0.5,80,-2,6000,3.704,,,180,,,,,,,,,,,wg-a,,,,AAXX 31094 07299 12/56 /1802 10010 21020 39936 40276 51005 60006 81030 90900=
07299,1997-10-31 12:00:00,5,1026.2,-0.8,60,-2,8000,7.408,,,340,,,,,,,,,,,wg-a,,,,AAXX 31124 07299 12/58 03404 10050 21020 39928 40262 58008 60006 80000 91200=
07299,1997-10-31 15:00:00,6,1025.9,-0.3,52,-3,10000,7.408,,,330,,,,,,,,,,,wg-a,,,,AAXX 31154 07299 12/60 /3304 10060 21030 39926 40259 55003 60006 91500=
07299,1997-10-31 18:00:00,0,1027.4,0.7,80,-3,6000,7.408,,,250,-5.4,6.4,,,,,,,,,wg-a,,,,AAXX 31184 07299 12/56 02504 10000 21030 39933 40274 51007 60006 80000 91800 333 10064 21054=
07299,1997-10-31 21:00:00,-3,1027.5,-0.3,93,-4,6000,0,,,0,,,,,,,,,,,wg-a,,,,AAXX 31214 07299 12/56 /0000 11030 21040 39930 40275 56003 60006 92100=
07299,1997-11-01 00:00:00,-4,1027.2,-0.3,100,-4,6000,0,,,0,,,,,,,,,,,wg-a,,,,AAXX 01004 07299 12/56 00000 11040 21040 39927 40272 56003 60006 80000 90000=
07299,1997-11-01 03:00:00,-4,1026.5,-0.8,93,-5,6000,0,,,0,,,,,,,,,,,wg-a,,,,AAXX 01034 07299 12/56 00000 11040 21050 39919 40265 58008 60006 80000 90300=
07299,1997-11-01 06:00:00,-5,1026.4,-0.2,93,-6,2500,3.704,,,250,-5.5,-0.2,,,,,,,,10,wg-a,,,,AAXX 01064 07299 02/25 /2502 11050 21060 39917 40264 56002 60006 71000 81030 90600 333 11002 21055 60004=
07299,1997-11-01 09:00:00,0,1026.2,0.5,93,-1,3000,0,,,0,,,,,,,,,,10,wg-a,,,,AAXX 01094 07299 12/30 20000 10000 21010 39922 40262 50005 60006 71000 80001 90900=
07299,1997-11-01 12:00:00,7,1024,-1.2,57,-1,8000,7.408,,,360,,,,,,,,,,,wg-a,,,,AAXX 01124 07299 12/58 /3604 10070 21010 39909 40240 58012 60006 80001 91200=
07299,1997-11-01 15:00:00,9,1022.9,-0.9,49,-1,8000,3.704,,,340,,,,,,,,,,,wg-a,,,,AAXX 01154 07299 12/58 /3402 10090 21010 39900 40229 56009 60006 80001 91500=
07299,1997-11-01 18:00:00,1,1023.9,0.1,80,-2,6000,7.408,,,260,-5.5,9.8,,,,,,,,,wg-a,,,,AAXX 01184 07299 12/56 /2604 10010 21020 39901 40239 52001 60006 80001 91800 333 10098 21055=
07299,1997-11-01 20:00:00,-1,1023.9,,86,-3,500,0,,,10,,,,,,,,,,,wg-a,,,,AAXX 01204 07299 12/00 /01// 11010 21030 39899 40239 60006 92000=
07299,1997-11-01 21:00:00,-2,1024.1,-0.2,86,-4,500,3.704,,,190,,,,,,,,,,,wg-a,,,,AAXX 01214 07299 12/00 01902 11020 21040 39899 40241 56002 60006 80000 92100=
07299,1997-11-02 00:00:00,-3,1023.8,-0.4,93,-4,4000,3.704,,,240,,,,,,,,,,10,wg-a,,,,AAXX 02004 07299 12/40 02402 11030 21040 39895 40238 58004 60006 71000 80000 90000=
07299,1997-11-02 03:00:00,-3,1022.9,-1,93,-4,3500,3.704,,,180,,,,,,,,,,10,wg-a,,,,AAXX 02034 07299 12/35 01802 11030 21040 39886 40229 58010 60006 71000 80000 90300=
07299,1997-11-02 06:00:00,-4,1022.5,-0.4,100,-4,2400,3.704,,,200,-4.3,1,,,,,,,,10,wg-a,,,,AAXX 02064 07299 02/24 02002 11040 21040 39882 40225 56004 60006 71000 80000 90600 333 10010 21043 60004=
07299,1997-11-02 12:00:00,9,1019.9,-1.6,57,1,500,3.704,,,290,,,,,,,,,,,wg-a,,,,AAXX 02124 07299 12/00 02902 10090 20010 39871 40199 58016 60006 80000 91200=
07299,1997-11-02 15:00:00,10,1018.2,-1.4,57,2,7000,7.408,,,340,,,,,,,,,,,wg-a,,,,AAXX 02154 07299 12/57 03404 10100 20020 39856 40182 56014 60006 80000 91500=
07299,1997-11-02 18:00:00,3,1019.4,0.4,81,0,4000,7.408,,,270,-3.8,10.5,,,,,,,,10,wg-a,,,,AAXX 02184 07299 12/40 02704 10030 20000 39860 40194 52004 60006 71000 80000 91800 333 10105 21038=
07299,1997-11-02 21:00:00,0,1019.8,-0,93,-1,4000,3.704,,,240,,,,,,,,,,10,wg-a,,,,AAXX 02214 07299 12/40 02402 10000 21010 39860 40198 55000 60006 71000 80000 92100=
07299,1997-11-03 00:00:00,-3,1019.9,-0.2,100,-3,2000,0,,,0,,,,,,,,,,10,wg-a,,,,AAXX 03004 07299 12/20 00000 11030 21030 39858 40199 57002 60006 71000 80000 90000=
07299,1997-11-03 06:00:00,-1,1018.4,-0.5,100,-1,100,0,,,0,-3.4,2.6,,,,,,,,49,wg-a,,,,AAXX 03064 07299 02/01 90000 11010 21010 39845 40184 56005 60006 74941 89/// 90600 333 10026 21034 60004=
07299,1997-11-03 09:00:00,0,1018.5,0.2,100,0,100,0,,,0,,,,,,,,,,47,wg-a,,,,AAXX 03094 07299 12/01 90000 10000 20000 39847 40185 50002 60006 74744 89/// 90900=
07299,1997-11-03 12:00:00,2,1017.1,-1,100,2,800,11.112,,,300,,,,,,,,,,44,wg-a,,,,AAXX 03124 07299 12108 /3006 10020 20020 39837 40171 58010 60006 74444 86600 91200=
07299,1997-11-03 15:00:00,2,1016.2,-1,100,2,800,11.112,,,330,,,,,,,,,,10,wg-a,,,,AAXX 03154 07299 12108 63306 10020 20020 39828 40162 56010 60006 71041 86600 91500=
07299,1997-11-03 18:00:00,0,1016.7,0.4,100,0,200,11.112,,,340,-1.3,3.9,,,,,,,,45,wg-a,,,,AAXX 03184 07299 12/02 93406 10000 20000 39831 40167 53004 60006 74541 89/// 91800 333 10039 21013=
07299,1997-11-03 21:00:00,0,1016.3,-0.4,100,0,100,3.704,,,340,,,,,,,,,,45,wg-a,,,,AAXX 03214 07299 12/01 93402 10000 20000 39827 40163 57004 60006 74544 89/// 92100=
07299,1997-11-04 00:00:00,0,1015.4,-1,100,0,100,0,,,0,,,,,,,,,,45,wg-a,,,,AAXX 04004 07299 12/01 90000 10000 20000 39817 40154 58010 60006 74544 89/// 90000=
07299,1997-11-04 03:00:00,-1,1014.8,-0.7,100,-1,200,3.704,,,10,,,,,,,,,,43,wg-a,,,,AAXX 04034 07299 12/02 90102 11010 21010 39811 40148 58007 60006 74344 89/// 90300=
07299,1997-11-04 06:00:00,-1,1014.2,-0.5,100,-1,200,3.704,,,310,-0.7,0.6,,,,,,,,49,wg-a,,,,AAXX 04064 07299 02/02 93102 11010 21010 39805 40142 56005 60006 74944 89/// 90600 333 10006 21007 60004=
07299,1997-11-04 12:00:00,5,1012.7,-1.2,93,4,2800,11.112,,,320,,,,,,,,,,10,wg-a,,,,AAXX 04124 07299 12/28 73206 10050 20040 39797 40127 58012 60006 71041 85074 91200=
07299,1997-11-04 18:00:00,5,1012.9,-0.1,93,4,2500,3.704,,,330,-0.8,5.6,,,,,,,,10,wg-a,,,,AAXX 04184 07299 02725 83302 10050 20040 39799 40129 57001 61000 71062 8757/ 91800 333 10056 21008 6100=
07299,1997-11-04 21:00:00,4,1012.9,-0,100,4,3000,3.704,,,250,,,,,,,,,,10,wg-a,,,,AAXX 04214 07299 02730 82502 10040 20040 39799 40129 55000 61000 71062 8757/ 92100 333 ////=
07299,1997-11-05 00:00:00,7,1012.3,-0.4,87,5,4000,7.408,,,250,,,,,,,,,,10,wg-a,,,,AAXX 05004 07299 02740 82504 10070 20050 39796 40123 55004 61000 71062 8757/ 90000 333 ////=
07299,1997-11-05 03:00:00,6,1011.9,-0.4,100,6,3000,7.408,,,130,,,,4,,,,,,10,wg-a,,,,AAXX 05034 07299 12/30 81304 10060 20060 39792 40119 58004 60047 71062 8807/ 90300=
07299,1997-11-05 06:00:00,6,1010.8,-1,100,6,2500,7.408,,,200,4,7,,,,,,,,10,wg-a,,,,AAXX 05064 07299 02/25 82004 10060 20060 39781 40108 55010 61000 71062 8807/ 90600 333 10070 20040 6100=
07299,1997-11-05 12:00:00,9,1008.1,-2,93,8,2000,7.408,,,150,,,,2,,,,,,10,wg-a,,,,AAXX 05124 07299 02220 81504 10090 20080 39758 40081 58020 60036 71062 8277/ 91200 333 60027=
07299,1997-11-05 15:00:00,10,1005.2,-2.7,93,9,2500,7.408,,,240,,,,,,,,,,10,wg-a,,,,AAXX 05154 07299 02725 82404 10100 20090 39731 40052 56027 61000 71062 875// 91500 333 ////=
07299,1997-11-05 18:00:00,8,1002.9,-2.3,100,8,2000,3.704,,,40,6.3,9.9,,0,,,,,,10,wg-a,,,,AAXX 05184 07299 02720 80402 10080 20080 39707 40029 57023 60006 71062 8257/ 91800 333 10099 20063 60007=
07299,1997-11-05 21:00:00,8,1000.7,-2.2,100,8,1000,3.704,,,320,,,,,,,,,,10,wg-a,,,,AAXX 05214 07299 02010 83202 10080 20080 39685 40007 56022 61000 71062 8567/ 92100 333 ////=
07299,1997-11-06 00:00:00,8,998.8,-1.7,100,8,1300,3.704,,,120,,,,2,,,,,,60,wg-a,,,,AAXX 06004 07299 02013 81202 10080 20080 39667 49988 58017 60026 76064 8667/ 90000 333 60027=
07299,1997-11-06 03:00:00,8,995.9,-2.9,100,8,2100,3.704,,,170,,,,0,,,,,,10,wg-a,,,,AAXX 06034 07299 12621 71702 10080 20080 39638 49959 58029 60007 71062 8257/ 90300=
07299,1997-11-06 06:00:00,8,993.8,-1.9,100,8,1600,3.704,,,340,7.4,8.4,,,,,,,,10,wg-a,,,,AAXX 06064 07299 02616 83402 10080 20080 39618 49938 56019 61000 71062 8657/ 90600 333 10084 20074 6006=
07299,1997-11-06 12:00:00,13,991.8,-1.1,88,11,12000,14.816,,,160,,,,,,,,,,1,wg-a,,,,AAXX 06124 07299 02762 71608 10130 20110 39605 49918 55011 61000 70162 8257/ 91200 333 ////=
07299,1997-11-06 15:00:00,14,990.2,-1.3,77,10,12000,7.408,,,150,,,,,,,,,,,wg-a,,,,AAXX 06154 07299 12762 71504 10140 20100 39590 49902 58013 60006 8357/ 91500=
07299,1997-11-06 18:00:00,11,989.5,-1.3,94,10,9000,3.704,,,290,7.5,15.4,,,,,,,,,wg-a,,,,AAXX 06184 07299 12759 72902 10110 20100 39580 49895 56013 60006 8457/ 91800 333 10154 20075=
07299,1997-11-06 21:00:00,10,990.8,1.3,100,10,500,7.408,,,120,,,,,,,,,,,wg-a,,,,AAXX 06214 07299 12700 81204 10100 20100 39592 49908 53013 60006 8257/ 92100=
07299,1997-11-07 00:00:00,10,992.3,1.6,100,10,6000,3.704,,,100,,,,,,,,,,,wg-a,,,,AAXX 07004 07299 12456 81002 10100 20100 39607 49923 53016 60006 875// 90000=
07299,1997-11-07 03:00:00,11,993.5,1.2,100,11,6000,11.112,,,150,,,,2,,,,,,17,wg-a,,,,AAXX 07034 07299 12456 81506 10110 20110 39619 49935 53012 60027 71792 879// 90300=
07299,1997-11-07 06:00:00,12,996.5,2.9,82,9,25000,18.52,,,210,9.7,12.3,,,,,2,,,1,wg-a,,,,AAXX 07064 07299 02575 82110 10120 20090 39649 49965 53029 60006 70198 8487/ 90600 333 10123 20097 60024=
07299,1997-11-07 09:00:00,11,1000.8,4.1,76,7,40000,3.704,,,200,,,,,,,,,,,wg-a,,,,AAXX 07094 07299 12582 72002 10110 20070 39690 40008 51041 60006 8584/ 90900=
07299,1997-11-07 12:00:00,15,1000.5,0.1,59,7,40000,14.816,,,240,,,,,,,,,,,wg-a,,,,AAXX 07124 07299 12682 /2408 10150 20070 39691 40005 50001 60006 81802 91200=
07299,1997-11-07 18:00:00,8,1001.3,0.9,87,6,40000,3.704,,,200,7.8,16.1,,,,,,,,,wg-a,,,,AAXX 07184 07299 12782 32002 10080 20060 39691 40013 51009 60006 815/1 91800 333 10161 20078=
07299,1997-11-08 00:00:00,6,1001,-0.6,93,5,25000,7.408,,,180,,,,,,,,,,,wg-a,,,,AAXX 08004 07299 12/75 51804 10060 20050 39686 40010 55006 60006 85030 90000=
07299,1997-11-08 06:00:00,7,1001.3,0.8,93,6,20000,11.112,,,170,5.7,8.8,,,,,,,,,wg-a,,,,AAXX 08064 07299 02670 71706 10070 20060 39690 40013 53008 60006 8487/ 90600 333 10088 20057 60004=
07299,1997-11-08 09:00:00,12,1002.8,2,71,7,500,11.112,,,220,,,,,,,,,,,wg-a,,,,AAXX 08094 07299 12600 72206 10120 20070 39710 40028 51020 60006 8687/ 90900=
07299,1997-11-08 12:00:00,10,1004.2,1.2,82,7,18000,18.52,,,180,,,,0,,,,,,21,wg-a,,,,AAXX 08124 07299 02668 71810 10100 20070 39722 40042 51012 60016 72162 86802 91200 333 60007=
07299,1997-11-08 15:00:00,9,1005.7,1.3,93,8,8000,22.224,,,250,,,,2,,,,,,80,wg-a,,,,AAXX 08154 07299 12558 72512 10090 20080 39735 40057 53013 60027 78086 879// 91500=
07299,1997-11-08 18:00:00,6,1005.6,-0.4,100,6,15000,3.704,,,150,5.9,13.1,,,,,,,,1,wg-a,,,,AAXX 08184 07299 12/65 /1502 10060 20060 39731 40056 57004 60006 70186 80000 91800 333 10131 20059=
07299,1997-11-08 21:00:00,5,1004.7,-1.2,100,5,15000,3.704,,,150,,,,,,,,,,,wg-a,,,,AAXX 08214 07299 12/65 31502 10050 20050 39720 40047 58012 60006 80001 92100=
07299,1997-11-09 00:00:00,4,1003.3,-1.3,100,4,15000,11.112,,,150,,,,,,,,,,,wg-a,,,,AAXX 09004 07299 12/65 01506 10040 20040 39706 40033 58013 60006 80000 90000=
07299,1997-11-09 03:00:00,8,1000.8,-2,87,6,15000,7.408,,,130,,,,,,,,,,,wg-a,,,,AAXX 09034 07299 12/65 51304 10080 20060 39686 40008 58020 60006 82042 90300=
07299,1997-11-09 06:00:00,7,1002.5,1.5,93,6,10000,11.112,,,170,3.6,7.9,,,,,,,,61,wg-a,,,,AAXX 09064 07299 02660 81706 10070 20060 39701 40025 51015 61000 76161 8257/ 90600 333 10079 20036 6003=
07299,1997-11-09 09:00:00,7,1004.2,1.7,100,7,6000,7.408,,,140,,,,6,,,,,,61,wg-a,,,,AAXX 09094 07299 12356 81404 10070 20070 39718 40042 53017 60067 76166 8652/ 90900=
07299,1997-11-09 12:00:00,9,1003.7,-0.3,87,7,10000,11.112,,,200,,,,2,,,,,,61,wg-a,,,,AAXX 09124 07299 02460 72006 10090 20070 39715 40037 58003 60086 76162 878// 91200 333 60027=
07299,1997-11-09 15:00:00,12,1003.1,-0.2,67,6,50000,18.52,,,220,,,,,,,,,,2,wg-a,,,,AAXX 09154 07299 02584 52210 10120 20060 39712 40031 57002 61000 70286 85900 91500 333 ////=
07299,1997-11-09 18:00:00,7,1003.8,0.1,81,4,40000,7.408,,,160,6.4,12,,,,,,,,1,wg-a,,,,AAXX 09184 07299 12/82 /1604 10070 20040 39714 40038 53001 60006 70186 81060 91800 333 10120 20064=
07299,1997-11-09 21:00:00,10,1004.4,0.9,66,4,500,11.112,,,220,,,,,,,,,,,wg-a,,,,AAXX 09214 07299 12700 62206 10100 20040 39723 40044 52009 60006 82530 92100=
07299,1997-11-10 00:00:00,8,1005.4,0.7,81,5,0,25.928,,,210,,,,1,,,,,,,wg-a,,,,AAXX 10004 07299 02/// /2114 10080 20050 39731 40054 50007 60016 90000 333 60017=
07299,1997-11-10 03:00:00,6,1005.8,-0.1,87,4,25000,11.112,,,230,,,,,,,,,,25,wg-a,,,,AAXX 10034 07299 02/75 32306 10060 20040 39732 40058 58001 61000 72586 83030 90300 333 ////=
07299,1997-11-10 06:00:00,5,1006.2,0.4,93,4,500,3.704,,,170,4.9,11.3,,,,,8,,,1,wg-a,,,,AAXX 10064 07299 02700 31702 10050 20040 39735 40062 51004 60006 70186 82530 90600 333 10113 20049 60084=
07299,1997-11-10 09:00:00,13,1005.1,-0.3,58,5,40000,7.408,,,120,,,,,,,,,,,wg-a,,,,AAXX 10094 07299 12782 /1204 10130 20050 39733 40051 58003 60006 84841 90900=
07299,1997-11-10 12:00:00,15,1003.8,-1,51,5,40000,22.224,,,200,,,,,,,,,,,wg-a,,,,AAXX 10124 07299 12782 62012 10150 20050 39723 40038 57010 60006 84841 91200=
07299,1997-11-10 15:00:00,13,1002.2,-1.8,58,5,500,7.408,,,170,,,,0,,,,,,3,wg-a,,,,AAXX 10154 07299 12700 71704 10130 20050 39705 40022 58018 60007 70386 84831 91500=
07299,1997-11-10 18:00:00,10,1004.2,1.6,76,6,25000,25.928,,,240,4.3,15.6,,,,,,,,60,wg-a,,,,AAXX 10184 07299 02775 82414 10100 20060 39721 40042 53016 61000 76086 8583/ 91800 333 10156 20043 6100=
07299,1997-11-11 00:00:00,7,1005.7,-0.6,87,5,20000,7.408,,,190,,,,,,,,,,0,wg-a,,,,AAXX 11004 07299 12670 61904 10070 20050 39732 40057 57006 60036 70086 82531 90000=
07299,1997-11-11 03:00:00,4,1005.3,-0.6,100,4,12000,3.704,,,140,,,,,,,,,,,wg-a,,,,AAXX 11034 07299 12/62 01402 10040 20040 39725 40053 57006 60006 80000 90300=
07299,1997-11-11 06:00:00,3,1004,-1.4,100,3,8000,7.408,,,190,1.8,9.5,,,,,4,,,,wg-a,,,,AAXX 11064 07299 02758 /1904 10030 20030 39711 40040 56014 60006 81530 90600 333 10095 20018 60044=
07299,1997-11-11 12:00:00,9,1002.6,-1.7,71,4,40000,18.52,,,110,,,,,,,,,,1,wg-a,,,,AAXX 11124 07299 02682 71110 10090 20040 39705 40026 58017 60006 70161 8487/ 91200 333 61000=
07299,1997-11-11 15:00:00,9,1001.9,-0.8,76,5,500,7.408,,,60,,,,,,,,,,60,wg-a,,,,AAXX 11154 07299 02600 70604 10090 20050 39698 40019 58008 61000 76062 8687/ 91500 333 ////=
07299,1997-11-11 18:00:00,8,999.9,-2,81,5,20000,11.112,,,200,2.1,10.3,,,,,,,,1,wg-a,,,,AAXX 11184 07299 02770 82006 10080 20050 39677 49999 56020 60006 70162 8357/ 91800 333 10103 20021 61000=
07299,1997-11-11 21:00:00,7,1000.4,0.5,87,5,20000,3.704,,,360,,,,,,,,,,,wg-a,,,,AAXX 11214 07299 12770 73602 10070 20050 39681 40004 50005 60006 8357/ 92100=
07299,1997-11-12 00:00:00,7,999.6,-0.7,93,6,12000,0,,,0,,,,,,,,,,,wg-a,,,,AAXX 12004 07299 12462 80000 10070 20060 39673 49996 58007 60006 878// 90000=
07299,1997-11-12 03:00:00,6,998.7,-0.9,100,6,12000,7.408,,,90,,,,,,,,,,,wg-a,,,,AAXX 12034 07299 12662 80904 10060 20060 39664 49987 56009 60006 8453/ 90300=
07299,1997-11-12 06:00:00,6,998.7,-0.2,100,6,8000,0,,,0,5.6,7.6,,,,,,,,60,wg-a,,,,AAXX 12064 07299 02558 80000 10060 20060 39663 49987 58002 61000 76062 8483/ 90600 333 10076 20056 6000=
07299,1997-11-12 09:00:00,6,1000.6,2,100,6,7000,0,,,0,,,,4,,,,,,61,wg-a,,,,AAXX 12094 07299 12557 80000 10060 20060 39682 40006 51020 60047 76166 8557/ 90900=
07299,1997-11-12 12:00:00,6,1001.1,0.6,100,6,10000,3.704,,,180,,,,5,,,,,,61,wg-a,,,,AAXX 12124 07299 02460 81802 10060 20060 39687 40011 51006 60096 76166 878// 91200 333 60057=
07299,1997-11-12 18:00:00,6,1004.8,2,93,5,11000,7.408,,,140,5.5,6.6,,,,,,,,,wg-a,,,,AAXX 12184 07299 12/61 /1404 10060 20050 39723 40048 53020 60006 91800 333 10066 20055=
07299,1997-11-12 21:00:00,6,1006.4,1.6,93,5,15000,14.816,,,200,,,,1,,,,,,61,wg-a,,,,AAXX 12214 07299 12465 82008 10060 20050 39738 40064 53016 60017 76162 878// 92100=
07299,1997-11-13 00:00:00,6,1007.9,1.4,87,4,15000,7.408,,,160,,,,,,,,,,1,wg-a,,,,AAXX 13004 07299 02465 71604 10060 20040 39753 40079 51014 60016 70162 8657/ 90000 333 61000=
07299,1997-11-13 03:00:00,5,1008.5,0.4,93,4,15000,7.408,,,160,,,,,,,,,,,wg-a,,,,AAXX 13034 07299 12465 71604 10050 20040 39757 40085 50004 60006 8554/ 90300=
07299,1997-11-13 06:00:00,4,1009.1,0.5,100,4,20000,3.704,,,260,3.8,6.9,,,,,11,,,,wg-a,,,,AAXX 13064 07299 02470 72602 10040 20040 39762 40091 52005 60006 878// 90600 333 10069 20038 60114=
07299,1997-11-13 09:00:00,7,1009.5,0.7,93,6,20000,3.704,,,160,,,,,,,,,,,wg-a,,,,AAXX 13094 07299 12470 71602 10070 20060 39769 40095 52007 60006 8283/ 90900=
07299,1997-11-13 12:00:00,9,1008.4,-0.8,71,4,25000,0,,,0,,,,,,,,,,,wg-a,,,,AAXX 13124 07299 12575 70000 10090 20040 39761 40084 58008 60006 8483/ 91200=
07299,1997-11-13 15:00:00,8,1008.1,-0.4,81,5,28000,3.704,,,200,,,,,,,,,,,wg-a,,,,AAXX 13154 07299 12578 72002 10080 20050 39757 40081 57004 60006 8113/ 91500=
07299,1997-11-13 18:00:00,6,1009.2,0.8,93,5,20000,3.704,,,260,4.3,10.3,,,,,,,,,wg-a,,,,AAXX 13184 07299 12570 72602 10060 20050 39765 40092 53008 60006 8113/ 91800 333 10103 20043=
07299,1997-11-13 21:00:00,2,1010.9,1.2,100,2,15000,3.704,,,220,,,,,,,,,,,wg-a,,,,AAXX 13214 07299 12865 52202 10020 20020 39777 40109 53012 60006 85030 92100=
07299,1997-11-14 00:00:00,3,1011.9,1.1,100,3,11000,0,,,0,,,,,,,,,,,wg-a,,,,AAXX 14004 07299 12861 50000 10030 20030 39788 40119 53011 60006 85030 90000=
07299,1997-11-14 03:00:00,2,1012.4,0.3,100,2,500,7.408,,,240,,,,,,,,,,,wg-a,,,,AAXX 14034 07299 12800 /2404 10020 20020 39791 40124 51003 60006 85030 90300=
07299,1997-11-14 06:00:00,2,1014.1,1.7,100,2,900,3.704,,,220,1.4,6.2,,,,,,,,43,wg-a,,,,AAXX 14064 07299 02/09 92202 10020 20020 39808 40141 53017 60006 74341 89/// 90600 333 10062 20014 60004=
07299,1997-11-14 09:00:00,3,1016.2,2.1,100,3,1400,3.704,,,180,,,,,,,,,,10,wg-a,,,,AAXX 14094 07299 12114 61802 10030 20030 39829 40162 51021 60006 71042 84601 90900=
07299,1997-11-14 12:00:00,8,1015.6,0.1,76,4,7000,3.704,,,120,,,,,,,,,,1,wg-a,,,,AAXX 14124 07299 12457 /1202 10080 20040 39830 40156 50001 60006 70141 81800 91200=
07299,1997-11-14 15:00:00,7,1016.6,0.8,81,4,12000,7.408,,,160,,,,,,,,,,,wg-a,,,,AAXX 14154 07299 12462 31604 10070 20040 39838 40166 53008 60006 83801 91500=
07299,1997-11-14 18:00:00,3,1019,1.9,100,3,9000,3.704,,,140,1,9.5,,,,,,,,,wg-a,,,,AAXX 14184 07299 12/59 /1402 10030 20030 39857 40190 53019 60006 80000 91800 333 10095 20010=
07299,1997-11-14 21:00:00,3,1020.5,1.5,100,3,6000,11.112,,,130,,,,,,,,,,,wg-a,,,,AAXX 14214 07299 12/56 01306 10030 20030 39871 40205 51015 60006 80000 92100=
07299,1997-11-15 00:00:00,2,1022,1.2,100,2,600,14.816,,,160,,,,,,,,,,47,wg-a,,,,AAXX 15004 07299 12/06 91608 10020 20020 39884 40220 52012 60006 74741 89/// 90000=
07299,1997-11-15 03:00:00,2,1022.4,0.3,100,2,1200,11.112,,,150,,,,,,,,,,10,wg-a,,,,AAXX 15034 07299 12112 81506 10020 20020 39887 40224 50003 60006 71042 887// 90300=
07299,1997-11-15 06:00:00,1,1022.7,0.2,100,1,2500,7.408,,,120,0.8,3.2,,,,,,,,10,wg-a,,,,AAXX 15064 07299 02125 71204 10010 20010 39890 40227 51002 60006 71042 86602 90600 333 10032 20008 60004=
07299,1997-11-15 09:00:00,4,1023.9,1.5,87,2,6000,14.816,,,140,,,,,,,,,,,wg-a,,,,AAXX 15094 07299 12756 61408 10040 20020 39905 40239 51015 60006 81532 90900=
07299,1997-11-15 12:00:00,8,1022.4,-1.1,71,3,12000,11.112,,,120,,,,,,,,,,,wg-a,,,,AAXX 15124 07299 12762 71206 10080 20030 39895 40224 58011 60006 81531 91200=
07299,1997-11-15 15:00:00,7,1021.8,-0.7,70,2,15000,7.408,,,130,,,,,,,,,,,wg-a,,,,AAXX 15154 07299 12/65 71304 10070 20020 39888 40218 55007 60006 8703/ 91500=
07299,1997-11-15 18:00:00,5,1021.8,-0.2,87,3,8000,3.704,,,160,0.6,8.8,,,,,,,,,wg-a,,,,AAXX 15184 07299 12/58 71602 10050 20030 39886 40218 58002 60006 8703/ 91800 333 10088 20006=
07299,1997-11-15 21:00:00,6,1021.1,-0.6,81,3,10000,11.112,,,150,,,,,,,,,,,wg-a,,,,AAXX 15214 07299 12/60 71506 10060 20030 39880 40211 57006 60006 8703/ 92100=
07299,1997-11-16 00:00:00,5,1020.5,-0.7,87,3,8000,11.112,,,160,,,,,,,,,,60,wg-a,,,,AAXX 16004 07299 02/58 81606 10050 20030 39873 40205 58007 61000 76062 8707/ 90000 333 6100=
07299,1997-11-16 03:00:00,5,1020.6,0.1,93,4,8000,11.112,,,130,,,,4,,,,,,60,wg-a,,,,AAXX 16034 07299 12558 81306 10050 20040 39874 40206 53001 60047 76066 8557/ 90300=
07299,1997-11-16 06:00:00,6,1019.7,-0.8,93,5,12000,11.112,,,160,4,6,,,,,,,,60,wg-a,,,,AAXX 16064 07299 02562 81606 10060 20050 39866 40197 56008 61000 76062 8357/ 90600 333 10060 20040 6005=
07299,1997-11-16 09:00:00,7,1019.6,0.1,100,7,7000,11.112,,,180,,,,0,,,,,,3,wg-a,,,,AAXX 16094 07299 12557 71806 10070 20070 39867 40196 50001 60007 70362 8663/ 90900=
07299,1997-11-16 12:00:00,11,1018.4,-0.7,82,8,15000,3.704,,,160,,,,,,,,,,3,wg-a,,,,AAXX 16124 07299 12465 71602 10110 20080 39860 40184 58007 60006 70362 878// 91200=
07299,1997-11-16 15:00:00,11,1017.7,-0.7,87,9,20000,3.704,,,350,,,,,,,,,,,wg-a,,,,AAXX 16154 07299 12470 73502 10110 20090 39853 40177 56007 60006 8683/ 91500=
07299,1997-11-16 18:00:00,10,1019.1,1.2,87,8,20000,3.704,,,160,5.5,11.5,,,,,,,,,wg-a,,,,AAXX 16184 07299 12470 71602 10100 20080 39865 40191 53012 60006 875// 91800 333 10115 20055=
07299,1997-11-16 21:00:00,9,1019.4,0.2,93,8,10000,3.704,,,290,,,,,,,,,,,wg-a,,,,AAXX 16214 07299 12460 72902 10090 20080 39867 40194 51002 60006 875// 92100=
07299,1997-11-17 00:00:00,8,1019.5,-0.1,100,8,6000,3.704,,,340,,,,,,,,,,,wg-a,,,,AAXX 17004 07299 12656 73402 10080 20080 39867 40195 58001 60006 875// 90000=
07299,1997-11-17 03:00:00,7,1019.4,-0.2,100,7,4000,3.704,,,300,,,,,,,,,,10,wg-a,,,,AAXX 17034 07299 12640 73002 10070 20070 39865 40194 56002 60006 71022 875// 90300=
07299,1997-11-17 06:00:00,5,1020.3,0.6,100,5,200,0,,,0,5,9.6,,,,,,,,43,wg-a,,,,AAXX 17064 07299 02/02 90000 10050 20050 39871 40203 53006 60006 74342 89/// 90600 333 10096 20050 60004=
07299,1997-11-17 09:00:00,8,1020.6,0.6,76,4,8000,11.112,,,110,,,,,,,,,,1,wg-a,,,,AAXX 17094 07299 12558 /1106 10080 20040 39877 40206 51006 60006 70141 81601 90900=
07299,1997-11-17 12:00:00,9,1019,-1.4,71,4,13000,14.816,,,110,,,,,,,,,,1,wg-a,,,,AAXX 17124 07299 12563 51108 10090 20040 39863 40190 58014 60006 70141 85600 91200=
07299,1997-11-17 15:00:00,8,1018.1,-0.9,76,4,9000,14.816,,,100,,,,,,,,,,,wg-a,,,,AAXX 17154 07299 12559 71008 10080 20040 39854 40181 56009 60006 87600 91500=
07299,1997-11-17 18:00:00,7,1018.1,-0.2,76,3,7000,14.816,,,100,3.6,9.8,,,,,,,,,wg-a,,,,AAXX 17184 07299 12557 71008 10070 20030 39853 40181 58002 60006 876// 91800 333 10098 20036=
07299,1997-11-17 21:00:00,6,1017.7,-0.5,75,2,7000,18.52,,,120,,,,,,,,,,,wg-a,,,,AAXX 17214 07299 12557 /1210 10060 20020 39847 40177 56005 60006 84600 92100=
07299,1997-11-18 00:00:00,6,1016.8,-0.9,75,2,6000,18.52,,,90,,,,,,,,,,,wg-a,,,,AAXX 18004 07299 12/56 /0910 10060 20020 39838 40168 56009 60006 90000=
07299,1997-11-18 06:00:00,5,1015.3,-0.3,81,2,7000,11.112,,,100,4.6,7.5,,,,,,,,,wg-a,,,,AAXX 18064 07299 02557 /1006 10050 20020 39822 40153 58003 60006 83500 90600 333 10075 20046 60004=
07299,1997-11-18 09:00:00,7,1014.9,-0.1,70,2,9000,18.52,,,100,,,,,,,,,,,wg-a,,,,AAXX 18094 07299 12/59 01010 10070 20020 39821 40149 58001 60006 80000 90900=
07299,1997-11-18 12:00:00,9,1013.2,-1.5,66,3,8000,11.112,,,90,,,,,,,,,,,wg-a,,,,AAXX 18124 07299 12/58 00906 10090 20030 39807 40132 58015 60006 80000 91200=
07299,1997-11-18 15:00:00,9,1012.1,-1.1,66,3,7000,11.112,,,90,,,,,,,,,,,wg-a,,,,AAXX 18154 07299 12/57 00906 10090 20030 39796 40121 56011 60006 80000 91500=
07299,1997-11-18 18:00:00,5,1012.1,-0.4,81,2,6000,7.408,,,80,4.2,10.2,,,,,,,,,wg-a,,,,AAXX 18184 07299 12/56 00804 10050 20020 39793 40121 58004 60006 80000 91800 333 10102 20042=
07299,1997-11-19 00:00:00,-1,1010.9,-1.3,100,-1,3000,3.704,,,10,,,,,,,,,,10,wg-a,,,,AAXX 19004 07299 12/30 00102 11010 21010 39773 40109 58013 60006 71000 80000 90000=
07299,1997-11-19 06:00:00,-1,1008.1,-1.4,100,-1,1500,3.704,,,330,-2.4,4.9,,,,,,,,10,wg-a,,,,AAXX 19064 07299 02115 73302 11010 21010 39746 40081 56014 60006 71041 875// 90600 333 10049 21024 60004=
07299,1997-11-19 09:00:00,2,1007.1,-0.7,100,2,1500,3.704,,,20,,,,,,,,,,,wg-a,,,,AAXX 19094 07299 12/15 /0202 10020 20020 39739 40071 58007 60006 90900=
07299,1997-11-19 12:00:00,5,1005.9,-0.8,70,0,10000,18.52,,,90,,,,,,,,,,,wg-a,,,,AAXX 19124 07299 12460 70910 10050 20000 39731 40059 58008 60006 878// 91200=
07299,1997-11-19 15:00:00,4,1005.4,-0.5,75,0,9000,18.52,,,80,,,,,,,,,,,wg-a,,,,AAXX 19154 07299 12459 70810 10040 20000 39726 40054 55005 60006 878// 91500=
07299,1997-11-19 18:00:00,3,1005.7,0.3,81,0,500,11.112,,,90,-0.8,4.7,,,,,,,,,wg-a,,,,AAXX 19184 07299 12300 70906 10030 20000 39728 40057 53003 60006 875// 91800 333 10047 21008=
07299,1997-11-19 21:00:00,3,1005.7,-0.1,87,1,4500,11.112,,,110,,,,,,,,,,50,wg-a,,,,AAXX 19214 07299 02545 81106 10030 20010 39728 40057 57001 61000 75052 885// 92100 333 ////=
07299,1997-11-20 03:00:00,3,1004.4,-0.9,100,3,4000,11.112,,,140,,,,3,,,,,,10,wg-a,,,,AAXX 20034 07299 12540 81406 10030 20030 39715 40044 58009 60037 71066 885// 90300=
07299,1997-11-20 06:00:00,4,1003.9,-0.3,100,4,6000,11.112,,,160,2.5,4.4,,,,,,,,21,wg-a,,,,AAXX 20064 07299 02556 71606 10040 20040 39712 40039 56003 61000 72162 875// 90600 333 10044 20025 6006=
07299,1997-11-20 09:00:00,7,1003.9,0.4,87,5,8000,11.112,,,150,,,,,,,,,,,wg-a,,,,AAXX 20094 07299 12658 71506 10070 20050 39715 40039 53004 60006 875// 90900=
07299,1997-11-20 12:00:00,9,1003.1,-0.6,81,6,12000,11.112,,,120,,,,,,,,,,,wg-a,,,,AAXX 20124 07299 12662 71206 10090 20060 39710 40031 58006 60006 8684/ 91200=
07299,1997-11-20 15:00:00,9,1003.9,0.8,87,7,9000,0,,,0,,,,0,,,,,,60,wg-a,,,,AAXX 20154 07299 12659 70000 10090 20070 39718 40039 53008 60007 76062 878// 91500=
07299,1997-11-20 18:00:00,8,1005.6,1.5,100,8,8000,7.408,,,170,4.1,10.5,,,,,,,,61,wg-a,,,,AAXX 20184 07299 02558 81704 10080 20080 39733 40056 53015 61000 76162 888// 91800 333 10105 20041 6002=
07299,1997-11-20 21:00:00,6,1007.1,1.2,100,6,7000,7.408,,,150,,,,,,,,,,1,wg-a,,,,AAXX 20214 07299 02757 31504 10060 20060 39745 40071 51012 61000 70161 83500 92100 333 ////=
07299,1997-11-21 00:00:00,6,1008.6,1.5,100,6,8000,3.704,,,160,,,,,,,,,,60,wg-a,,,,AAXX 21004 07299 02658 71602 10060 20060 39760 40086 53015 61000 76061 875// 90000 333 6100=
07299,1997-11-21 03:00:00,5,1009.7,0.9,100,5,10000,7.408,,,170,,,,,,,,,,,wg-a,,,,AAXX 21034 07299 12760 31704 10050 20050 39769 40097 51009 60006 81530 90300=
07299,1997-11-21 06:00:00,3,1011.3,1.3,100,3,15000,0,,,0,3,7.8,,,,,3,,,,wg-a,,,,AAXX 21064 07299 02765 20000 10030 20030 39782 40113 52013 60006 81530 90600 333 10078 20030 60034=
07299,1997-11-21 09:00:00,7,1012,1.2,100,7,500,3.704,,,150,,,,,,,,,,40,wg-a,,,,AAXX 21094 07299 12500 /1502 10070 20070 39794 40120 51012 60006 74011 86530 90900=
07299,1997-11-21 12:00:00,13,1010.9,-0.4,62,6,11000,0,,,0,,,,,,,,,,,wg-a,,,,AAXX 21124 07299 12/61 /0000 10130 20060 39790 40109 58004 60006 91200=
07299,1997-11-21 15:00:00,12,1011.1,-0,62,5,40000,3.704,,,350,,,,,,,,,,,wg-a,,,,AAXX 21154 07299 12682 23502 10120 20050 39790 40111 55000 60006 81831 91500=
07299,1997-11-21 18:00:00,4,1012.6,0.6,93,3,25000,3.704,,,210,2,13.6,,,,,,,,,wg-a,,,,AAXX 21184 07299 12775 22102 10040 20030 39796 40126 53006 60006 81501 91800 333 10136 20020=
07299,1997-11-21 21:00:00,2,1013.3,0.4,100,2,20000,0,,,0,,,,,,,,,,,wg-a,,,,AAXX 21214 07299 12/70 50000 10020 20020 39800 40133 52004 60006 80002 92100=
07299,1997-11-22 00:00:00,1,1013.8,0.3,100,1,4000,0,,,0,,,,,,,,,,10,wg-a,,,,AAXX 22004 07299 12/40 /0000 10010 20010 39803 40138 50003 60006 71011 80002 90000=
07299,1997-11-22 03:00:00,0,1013.8,-0.1,100,0,3000,3.704,,,210,,,,,,,,,,10,wg-a,,,,AAXX 22034 07299 12130 /2102 10000 20000 39802 40138 57001 60006 71022 82602 90300=
07299,1997-11-22 06:00:00,-1,1014.3,0.4,100,-1,700,3.704,,,230,-1,4.2,,,,,,,,42,wg-a,,,,AAXX 22064 07299 02/07 42302 11010 21010 39806 40143 52004 60006 74241 80001 90600 333 10042 21010 60004=
07299,1997-11-22 09:00:00,2,1015.2,1.2,100,2,200,3.704,,,220,,,,,,,,,,45,wg-a,,,,AAXX 22094 07299 12/02 92202 10020 20020 39818 40152 51012 60006 74544 89/// 90900=
07299,1997-11-22 12:00:00,3,1014.9,-0.2,100,3,700,3.704,,,360,,,,,,,,,,10,wg-a,,,,AAXX 22124 07299 12/07 93602 10030 20030 39816 40149 58002 60006 71041 89/// 91200=
07299,1997-11-22 15:00:00,3,1015,0.2,100,3,600,3.704,,,340,,,,,,,,,,45,wg-a,,,,AAXX 22154 07299 12/06 93402 10030 20030 39817 40150 53002 60006 74544 89/// 91500=
07299,1997-11-22 18:00:00,2,1016.8,1.7,100,2,1000,0,,,0,-0.6,3.3,,,,,,,,40,wg-a,,,,AAXX 22184 07299 02010 80000 10020 20020 39834 40168 51017 61000 74054 886// 91800 333 10033 21006 6100=
07299,1997-11-22 21:00:00,2,1017.8,1,100,2,1200,7.408,,,330,,,,,,,,,,40,wg-a,,,,AAXX 22214 07299 02112 83304 10020 20020 39844 40178 53010 61000 74054 886// 92100 333 ////=
07299,1997-11-23 00:00:00,2,1018,0.2,100,2,1600,11.112,,,350,,,,,,,,,,10,wg-a,,,,AAXX 23004 07299 02116 83506 10020 20020 39846 40180 50002 61000 71054 886// 90000 333 ////=
07299,1997-11-23 03:00:00,2,1018.6,0.5,100,2,3000,7.408,,,320,,,,,,,,,,10,wg-a,,,,AAXX 23034 07299 12130 83204 10020 20020 39852 40186 53005 60006 71022 885// 90300=
07299,1997-11-23 06:00:00,2,1019.7,1,100,2,6000,7.408,,,320,2.2,2.5,,,,,,,,,wg-a,,,,AAXX 23064 07299 02456 83204 10020 20020 39862 40197 51010 60006 885// 90600 333 10025 20022 61000=
07299,1997-11-23 12:00:00,4,1020.8,-0.4,93,3,8000,7.408,,,360,,,,,,,,,,,wg-a,,,,AAXX 23124 07299 12458 83604 10040 20030 39875 40208 58004 60006 885// 91200=
07299,1997-11-23 15:00:00,4,1021.2,0.4,93,3,8000,11.112,,,340,,,,,,,,,,,wg-a,,,,AAXX 23154 07299 12558 83406 10040 20030 39879 40212 53004 60006 885// 91500=
07299,1997-11-23 18:00:00,4,1022.4,1.1,93,3,6000,3.704,,,330,2.4,4.6,,,,,,,,,wg-a,,,,AAXX 23184 07299 12556 83302 10040 20030 39890 40224 51011 60006 885// 91800 333 10046 20024=
07299,1997-11-23 21:00:00,4,1021.9,-0.4,81,1,9000,3.704,,,100,,,,,,,,,,,wg-a,,,,AAXX 23214 07299 12/59 /1002 10040 20010 39885 40219 58004 60006 92100=
07299,1997-11-24 00:00:00,3,1021.3,-0.7,81,0,10000,7.408,,,50,,,,,,,,,,,wg-a,,,,AAXX 24004 07299 12460 70504 10030 20000 39878 40213 58007 60006 875// 90000=
07299,1997-11-24 03:00:00,2,1019.9,-1.5,87,0,15000,11.112,,,40,,,,,,,,,,,wg-a,,,,AAXX 24034 07299 12565 /0406 10020 20000 39863 40199 58015 60006 83530 90300=
07299,1997-11-24 06:00:00,3,1019,-0.9,81,0,20000,7.408,,,50,1.5,4.2,,,,,,,,,wg-a,,,,AAXX 24064 07299 02570 /0504 10030 20000 39855 40190 58009 60006 86530 90600 333 10042 20015 60004=
07299,1997-11-24 12:00:00,5,1015.9,-2,70,0,15000,11.112,,,110,,,,,,,,,,,wg-a,,,,AAXX 24124 07299 12565 71106 10050 20000 39828 40159 57020 60006 82512 91200=
07299,1997-11-24 15:00:00,4,1014.2,-1.6,75,0,12000,18.52,,,100,,,,,,,,,,,wg-a,,,,AAXX 24154 07299 12562 71010 10040 20000 39811 40142 56016 60006 82512 91500=
07299,1997-11-24 18:00:00,4,1013.1,-1,75,0,12000,11.112,,,100,1.8,5.7,,,,,,,,,wg-a,,,,AAXX 24184 07299 12/62 71006 10040 20000 39801 40131 57010 60006 82012 91800 333 10057 20018=
07299,1997-11-24 21:00:00,2,1012.4,-1,87,0,10000,3.704,,,350,,,,,,,,,,,wg-a,,,,AAXX 24214 07299 12/60 73502 10020 20000 39791 40124 56010 60006 85012 92100=
07299,1997-11-25 00:00:00,1,1012.2,-0.3,93,0,9000,3.704,,,340,,,,,,,,,,,wg-a,,,,AAXX 25004 07299 12/59 73402 10010 20000 39788 40122 58003 60006 8701/ 90000=
07299,1997-11-25 03:00:00,-1,1012.9,0.4,100,-1,6000,7.408,,,270,,,,,,,,,,,wg-a,,,,AAXX 25034 07299 12/56 /2704 11010 21010 39792 40129 50004 60006 81030 90300=
07299,1997-11-25 06:00:00,1,1011.9,-0.7,93,0,6000,11.112,,,130,-1.2,4.3,,,,,,,,,wg-a,,,,AAXX 25064 07299 02/56 51306 10010 20000 39785 40119 58007 60006 80001 90600 333 10043 21012 60004=
07299,1997-11-25 09:00:00,3,1012.1,0.4,87,1,6000,7.408,,,130,,,,,,,,,,,wg-a,,,,AAXX 25094 07299 12/56 71304 10030 20010 39789 40121 53004 60006 86071 90900=
07299,1997-11-25 12:00:00,5,1010.8,-1,81,2,6000,7.408,,,100,,,,,,,,,,,wg-a,,,,AAXX 25124 07299 12756 71004 10050 20020 39779 40108 58010 60006 81572 91200=
07299,1997-11-25 18:00:00,2,1010,-0.2,93,1,6000,7.408,,,60,1.1,7.7,,,,,,,,,wg-a,,,,AAXX 25184 07299 12/56 /0604 10020 20010 39768 40100 56002 60006 81031 91800 333 10077 20011=
07299,1997-11-25 21:00:00,1,1010.7,0.4,93,0,4000,0,,,0,,,,,,,,,,10,wg-a,,,,AAXX 25214 07299 12/40 /0000 10010 20000 39773 40107 51004 60006 71000 81030 92100=
07299,1997-11-26 00:00:00,-1,1011,0.1,100,-1,3500,3.704,,,190,,,,,,,,,,10,wg-a,,,,AAXX 26004 07299 12/35 11902 11010 21010 39773 40110 50001 60006 71000 81030 90000=
07299,1997-11-26 03:00:00,2,1010.6,-0,93,1,4000,3.704,,,130,,,,,,,,,,10,wg-a,,,,AAXX 26034 07299 12/40 71302 10020 20010 39773 40106 54000 60006 71000 87070 90300=
07299,1997-11-26 06:00:00,2,1010.8,0.2,93,1,4000,11.112,,,90,-1.9,2.6,,,,,,,,10,wg-a,,,,AAXX 26064 07299 02/40 70906 10020 20010 39775 40108 53002 60006 71011 87070 90600 333 10026 21019 60004=
07299,1997-11-26 09:00:00,4,1011.5,1,81,1,500,14.816,,,100,,,,,,,,,,,wg-a,,,,AAXX 26094 07299 12/00 /1008 10040 20010 39785 40115 53010 60006 85072 90900=
07299,1997-11-26 12:00:00,7,1010.8,-0.4,70,2,4000,3.704,,,40,,,,,,,,,,,wg-a,,,,AAXX 26124 07299 12/40 /0402 10070 20020 39781 40108 55004 60006 91200=
07299,1997-11-26 15:00:00,5,1011.9,0.9,81,2,500,11.112,,,80,,,,,,,,,,,wg-a,,,,AAXX 26154 07299 12/00 70806 10050 20020 39790 40119 53009 60006 8705/ 91500=
07299,1997-11-26 18:00:00,3,1013.1,1,93,2,4000,3.704,,,10,1.5,7.3,,,,,,,,10,wg-a,,,,AAXX 26184 07299 12/40 70102 10030 20020 39800 40131 51010 60006 71022 8707/ 91800 333 10073 20015=
07299,1997-11-26 21:00:00,1,1014.6,1.1,100,1,400,0,,,0,,,,,,,,,,41,wg-a,,,,AAXX 26214 07299 12004 20000 10010 20010 39811 40146 51011 60006 74141 82600 92100=
07299,1997-11-27 00:00:00,-1,1015.7,0.8,100,-1,300,7.408,,,300,,,,,,,,,,44,wg-a,,,,AAXX 27004 07299 12403 73004 11010 21010 39819 40157 52008 60006 74441 875// 90000=
07299,1997-11-27 03:00:00,2,1016,0.6,100,2,3500,3.704,,,50,,,,,,,,,,10,wg-a,,,,AAXX 27034 07299 12435 80502 10020 20020 39826 40160 51006 60006 71042 885// 90300=
07299,1997-11-27 06:00:00,3,1016,0.1,87,1,4000,11.112,,,60,-1.1,3.6,,,,,,,,10,wg-a,,,,AAXX 27064 07299 02440 80606 10030 20010 39827 40160 53001 60006 71042 885// 90600 333 10036 21011 60004=
07299,1997-11-27 09:00:00,3,1017,1,93,2,500,14.816,,,90,,,,,,,,,,,wg-a,,,,AAXX 27094 07299 12300 70908 10030 20020 39837 40170 53010 60006 875// 90900=
07299,1997-11-27 12:00:00,5,1016.4,-0.4,81,2,9000,11.112,,,90,,,,,,,,,,,wg-a,,,,AAXX 27124 07299 12559 70906 10050 20020 39833 40164 58004 60006 875// 91200=
07299,1997-11-27 15:00:00,5,1016.6,0.2,81,2,9000,7.408,,,100,,,,,,,,,,,wg-a,,,,AAXX 27154 07299 12759 71004 10050 20020 39835 40166 53002 60006 8553/ 91500=
07299,1997-11-27 18:00:00,4,1017.1,0.4,87,2,8000,7.408,,,120,2.5,5.4,,,,,,,,,wg-a,,,,AAXX 27184 07299 12758 71204 10040 20020 39839 40171 51004 60006 8353/ 91800 333 10054 20025=
07299,1997-11-27 21:00:00,5,1017.6,0.6,81,2,6000,3.704,,,120,,,,,,,,,,2,wg-a,,,,AAXX 27214 07299 02556 71202 10050 20020 39845 40176 51006 61000 70262 8553/ 92100 333 ////=
07299,1997-11-28 00:00:00,6,1016.7,-0.8,81,3,500,7.408,,,130,,,,,,,,,,2,wg-a,,,,AAXX 28004 07299 02500 71304 10060 20030 39837 40167 58008 61000 70262 875// 90000 333 ////=
07299,1997-11-28 03:00:00,5,1015.7,-1,87,3,500,7.408,,,160,,,,,,,,,,,wg-a,,,,AAXX 28034 07299 12400 71604 10050 20030 39827 40157 57010 60006 875// 90300=
07299,1997-11-28 06:00:00,6,1015.7,-0,81,3,6000,7.408,,,140,4.3,5.5,,,,,,,,,wg-a,,,,AAXX 28064 07299 02656 71404 10060 20030 39827 40157 55000 60006 8557/ 90600 333 10055 20043 61000=
07299,1997-11-28 09:00:00,7,1014.8,-0.7,81,4,7000,7.408,,,140,,,,,,,,,,,wg-a,,,,AAXX 28094 07299 12557 71404 10070 20040 39820 40148 56007 60006 878// 90900=
07299,1997-11-28 12:00:00,10,1012.4,-1.9,71,5,8000,7.408,,,130,,,,,,,,,,,wg-a,,,,AAXX 28124 07299 12658 81304 10100 20050 39801 40124 58019 60006 81537 91200=
07299,1997-11-28 15:00:00,10,1012.4,-0,82,7,6000,7.408,,,230,,,,,,,,,,61,wg-a,,,,AAXX 28154 07299 02656 82304 10100 20070 39800 40124 55000 61000 76162 8257/ 91500 333 ////=
07299,1997-11-28 18:00:00,8,1013,0.4,93,7,3500,7.408,,,160,5.3,10.6,,,,,,,,10,wg-a,,,,AAXX 28184 07299 02435 81604 10080 20070 39804 40130 52004 61000 71062 8387/ 91800 333 10106 20053 6002=
07299,1997-11-28 21:00:00,8,1012.8,-0.2,100,8,3500,7.408,,,160,,,,1,,,,,,10,wg-a,,,,AAXX 28214 07299 12535 81604 10080 20080 39802 40128 58002 60017 71066 8387/ 92100=
07299,1997-11-29 00:00:00,7,1012.5,-0.4,100,7,0,7.408,,,150,,,,,,,,,,,wg-a,,,,AAXX 29004 07299 12/// /1504 10070 20070 39798 40125 58004 60016 90000=
07299,1997-11-29 03:00:00,7,1011.8,-0.7,100,7,9000,3.704,,,100,,,,,,,,,,,wg-a,,,,AAXX 29034 07299 32/59 /1002 10070 20070 39792 40118 56007 90300=
07299,1997-11-29 06:00:00,7,1011,-0.7,100,7,9000,11.112,,,110,5.4,8,,,,,4,,,,wg-a,,,,AAXX 29064 07299 02/59 /1106 10070 20070 39784 40110 58007 60006 90600 333 10080 20054 60044=
07299,1997-11-29 09:00:00,10,1011,0.3,87,8,6000,7.408,,,140,,,,,,,,,,12,wg-a,,,,AAXX 29094 07299 12756 51404 10100 20080 39787 40110 52003 60006 71211 84531 90900=
07299,1997-11-29 15:00:00,10,1009,-0.7,82,7,11000,11.112,,,290,,,,,,,,,,,wg-a,,,,AAXX 29154 07299 12/61 /2906 10100 20070 39768 40090 56007 60006 91500=
07299,1997-11-29 18:00:00,8,1008.7,-0.5,93,7,25000,7.408,,,220,5.1,13.6,,,,,,,,1,wg-a,,,,AAXX 29184 07299 02775 42204 10080 20070 39763 40087 57005 60006 70186 84500 91800 333 10136 20051 61000=
07299,1997-11-29 21:00:00,6,1008.8,-0.1,100,6,20000,7.408,,,160,,,,,,,,,,,wg-a,,,,AAXX 29214 07299 12670 71604 10060 20060 39762 40088 57001 60006 878// 92100=
07299,1997-11-30 00:00:00,7,1009.6,0.8,93,6,20000,3.704,,,140,,,,1,,,,,,60,wg-a,,,,AAXX 30004 07299 02570 71402 10070 20060 39770 40096 51008 60016 76061 878// 90000 333 60017=
07299,1997-11-30 03:00:00,6,1009.8,0.1,100,6,20000,3.704,,,140,,,,,,,,,,21,wg-a,,,,AAXX 30034 07299 02470 71402 10060 20060 39771 40098 53001 61000 72162 878// 90300 333 ////=
07299,1997-11-30 06:00:00,5,1010.3,0.4,100,5,20000,7.408,,,160,4.9,7.9,,,,,1,,,3,wg-a,,,,AAXX 30064 07299 02470 /1604 10050 20050 39775 40103 52004 60006 70361 84830 90600 333 10079 20049 60014=
07299,1997-11-30 09:00:00,6,1010.8,0.6,100,6,25000,0,,,0,,,,,,,,,,,wg-a,,,,AAXX 30094 07299 12575 60000 10060 20060 39781 40108 53006 60006 85842 90900=
07299,1997-11-30 12:00:00,9,1010,-0.4,81,6,20000,14.816,,,250,,,,,,,,,,,wg-a,,,,AAXX 30124 07299 12570 72508 10090 20060 39777 40100 58004 60006 878// 91200=
07299,1997-11-30 15:00:00,9,1010.1,-0,81,6,20000,14.816,,,230,,,,,,,,,,3,wg-a,,,,AAXX 30154 07299 02570 72308 10090 20060 39777 40101 55000 61000 70362 878// 91500 333 ////=
07299,1997-11-30 18:00:00,8,1010.6,0.4,81,5,20000,11.112,,,230,4.4,9.5,,,,,,,,2,wg-a,,,,AAXX 30184 07299 12570 72306 10080 20050 39781 40106 51004 60006 70262 878// 91800 333 10095 20044=
07299,1997-11-30 21:00:00,8,1011.1,0.4,87,6,20000,11.112,,,240,,,,,,,,,,1,wg-a,,,,AAXX 30214 07299 02470 72406 10080 20060 39785 40111 52004 61000 70186 878// 92100 333 ////=
07299,1997-12-01 00:00:00,7,1011,0,100,7,10000,7.408,,,230,,,,2,,,,,,21,wg-a,,,,AAXX 01004 07299 02460 72304 10070 20070 39784 40110 50000 60026 72186 878// 90000 333 60027=
07299,1997-12-01 03:00:00,7,1011.6,0.6,93,6,10000,14.816,,,270,,,,,,,,,,60,wg-a,,,,AAXX 01034 07299 02460 72708 10070 20060 39790 40116 53006 61000 76062 878// 90300 333 ////=
07299,1997-12-01 06:00:00,7,1012.6,0.9,93,6,10000,11.112,,,250,6.7,7.9,,,,,,,,61,wg-a,,,,AAXX 01064 07299 02560 82506 10070 20060 39799 40126 53009 61000 76162 875// 90600 333 10079 20067 6002=
07299,1997-12-01 09:00:00,7,1014.5,1.9,93,6,6000,14.816,,,280,,,,3,,,,,,10,wg-a,,,,AAXX 01094 07299 12456 82808 10070 20060 39817 40145 53019 60037 71066 878// 90900=
07299,1997-12-01 12:00:00,5,1015.4,0.6,93,4,9000,11.112,,,310,,,,,,,,,,60,wg-a,,,,AAXX 01124 07299 02459 83106 10050 20040 39824 40154 50006 60036 76062 888// 91200 333 61000=
07299,1997-12-01 18:00:00,4,1014.9,-0.7,93,3,15000,7.408,,,310,3.8,6.7,,,,,,,,21,wg-a,,,,AAXX 01184 07299 02565 73104 10040 20030 39818 40149 58007 61000 72162 878// 91800 333 10067 20038 6100=
07299,1997-12-01 21:00:00,2,1013.3,-1.9,93,1,12000,0,,,0,,,,,,,,,,,wg-a,,,,AAXX 01214 07299 12662 /0000 10020 20010 39799 40133 58019 60006 85500 92100=
07299,1997-12-02 00:00:00,1,1010.4,-2.8,100,1,1500,7.408,,,320,,,,,,,,,,10,wg-a,,,,AAXX 02004 07299 12315 73204 10010 20010 39770 40104 57028 60006 71011 875// 90000=
07299,1997-12-02 03:00:00,1,1006.6,-3.6,100,1,4000,7.408,,,330,,,,,,,,,,10,wg-a,,,,AAXX 02034 07299 12540 73304 10010 20010 39734 40066 57036 60006 71022 875// 90300=
07299,1997-12-02 06:00:00,3,1001.5,-4.6,87,1,12000,18.52,,,100,0.4,3.7,,,,,3,,,,wg-a,,,,AAXX 02064 07299 02562 71010 10030 20010 39687 40015 56046 60006 8357/ 90600 333 10037 20004 60034=
07299,1997-12-02 09:00:00,3,998.5,-2.8,93,2,6000,14.816,,,100,,,,1,,,,,,61,wg-a,,,,AAXX 02094 07299 12456 81008 10030 20020 39658 49985 56028 60017 76162 8457/ 90900=
07299,1997-12-02 12:00:00,3,997.3,-1.2,93,2,500,14.816,,,120,,,,2,,,,,,61,wg-a,,,,AAXX 02124 07299 02500 81208 10030 20020 39646 49973 56012 60026 76162 8357/ 91200 333 60027=
07299,1997-12-02 15:00:00,2,998.2,0.8,100,2,1500,18.52,,,310,,,,1,,,,,,81,wg-a,,,,AAXX 02154 07299 12415 73110 10020 20020 39654 49982 53008 60017 78186 877// 91500=
07299,1997-12-02 18:00:00,2,999.7,1.3,80,-1,20000,7.408,,,240,1.3,3.8,,0,,,,,,1,wg-a,,,,AAXX 02184 07299 02470 /2404 10020 21010 39668 49997 51013 60006 70186 84870 91800 333 10038 20013 60007=
07299,1997-12-02 21:00:00,2,1001.1,1.4,75,-2,20000,14.816,,,230,,,,,,,,,,,wg-a,,,,AAXX 02214 07299 12570 82308 10020 21020 39682 40011 52014 60006 8687/ 92100=
07299,1997-12-03 00:00:00,1,1002.8,1.5,80,-2,15000,11.112,,,240,,,,,,,,,,,wg-a,,,,AAXX 03004 07299 12465 82406 10010 21020 39697 40028 51015 60006 888// 90000=
07299,1997-12-03 03:00:00,0,1003.7,0.8,93,-1,15000,22.224,,,260,,,,,,,,,,,wg-a,,,,AAXX 03034 07299 12465 82612 10000 21010 39705 40037 52008 60006 888// 90300=
07299,1997-12-03 06:00:00,0,1004.8,1,93,-1,3000,11.112,,,240,-0.1,2.4,,,,,,,,10,wg-a,,0,,AAXX 03064 07299 02430 82406 10000 21010 39715 40048 53010 61000 71072 888// 90600 333 10024 21001 4/9999 6004=
07299,1997-12-03 12:00:00,-1,1008.5,1.7,100,-1,1400,14.816,,,340,,,,1,,,,,,10,wg-a,,,,AAXX 03124 07299 02214 83408 11010 21010 39750 40085 51017 60026 71077 885// 91200 333 60017=
07299,1997-12-03 15:00:00,-1,1010.7,2.1,100,-1,2800,14.816,,,340,,,,0,,,,,,10,wg-a,,,,AAXX 03154 07299 12228 83408 11010 21010 39771 40107 53021 60007 71077 885// 91500=
07299,1997-12-03 18:00:00,-1,1012.7,1.8,100,-1,2800,14.816,,,320,-1,0.1,,,,,,,,10,wg-a,,2,,AAXX 03184 07299 02228 83208 11010 21010 39790 40127 51018 61000 71077 885// 91800 333 10001 21010 4/002 6100=
07299,1997-12-03 21:00:00,-1,1014,1.3,100,-1,3000,11.112,,,310,,,,0,,,,,,10,wg-a,,,,AAXX 03214 07299 12230 83106 11010 21010 39803 40140 51013 60007 71072 887// 92100=
07299,1997-12-04 00:00:00,-1,1014.5,0.5,100,-1,3000,11.112,,,310,,,,,,,,,,10,wg-a,,,,AAXX 04004 07299 12330 83106 11010 21010 39808 40145 51005 60006 71072 887// 90000=
07299,1997-12-04 03:00:00,-1,1014.6,0.1,100,-1,4000,11.112,,,300,,,,,,,,,,10,wg-a,,,,AAXX 04034 07299 12240 83006 11010 21010 39809 40146 52001 60006 71022 877// 90300=
07299,1997-12-04 06:00:00,-1,1014.9,0.3,100,-1,4000,7.408,,,340,-1,-0.6,,,,,2,,,10,wg-a,,1,,AAXX 04064 07299 02240 83404 11010 21010 39812 40149 53003 60006 71022 887// 90600 333 11006 21010 4/001 60024=
07299,1997-12-04 09:00:00,0,1015.6,0.7,93,-1,4500,7.408,,,340,,,,,,,,,,10,wg-a,,,,AAXX 04094 07299 12245 83404 10000 21010 39819 40156 52007 60006 71022 876// 90900=
07299,1997-12-04 12:00:00,0,1015.6,0,100,0,500,11.112,,,340,,,,,,,,,,,wg-a,,,,AAXX 04124 07299 12400 83406 10000 20000 39820 40156 50000 60006 885// 91200=
07299,1997-12-04 15:00:00,0,1016.5,0.9,100,0,3500,7.408,,,340,,,,,,,,,,10,wg-a,,,,AAXX 04154 07299 12235 83404 10000 20000 39829 40165 53009 60006 71022 886// 91500=
07299,1997-12-04 18:00:00,0,1018,1.4,100,0,3000,11.112,,,360,-0.7,0.4,,,,,,,,10,wg-a,,1,,AAXX 04184 07299 12230 83606 10000 20000 39843 40180 51014 60006 71022 886// 91800 333 10004 21007 4/001=
07299,1997-12-04 21:00:00,0,1019.4,1.4,100,0,4000,11.112,,,360,,,,,,,,,,10,wg-a,,,,AAXX 04214 07299 12240 83606 10000 20000 39857 40194 53014 60006 71022 876// 92100=
07299,1997-12-05 00:00:00,0,1020.5,0.9,93,-1,4000,11.112,,,340,,,,,,,,,,10,wg-a,,,,AAXX 05004 07299 12340 83406 10000 21010 39866 40205 53009 60006 71022 886// 90000=
07299,1997-12-05 03:00:00,-1,1021.5,0.9,100,-1,2500,11.112,,,360,,,,,,,,,,10,wg-a,,,,AAXX 05034 07299 12125 83606 11010 21010 39875 40215 53009 60006 71022 886// 90300=
07299,1997-12-05 06:00:00,-2,1022.5,0.9,100,-2,2500,3.704,,,350,-1.6,0.4,,,,,,,,10,wg-a,,1,,AAXX 05064 07299 02125 83502 11020 21020 39884 40225 53009 60006 71022 886// 90600 333 10004 21016 4/001 60004=
07299,1997-12-05 09:00:00,-2,1024,1.5,100,-2,4500,7.408,,,290,,,,,,,,,,10,wg-a,,,,AAXX 05094 07299 12145 72904 11020 21020 39899 40240 51015 60006 71022 876// 90900=
07299,1997-12-05 12:00:00,1,1023.7,0,93,0,500,3.704,,,210,,,,,,,,,,,wg-a,,,,AAXX 05124 07299 12100 72102 10010 20000 39900 40237 50000 60006 876// 91200=
07299,1997-12-05 15:00:00,1,1024.6,0.7,93,0,7000,3.704,,,350,,,,,,,,,,,wg-a,,,,AAXX 05154 07299 12257 73502 10010 20000 39907 40246 53007 60006 875// 91500=
07299,1997-12-05 18:00:00,1,1025.3,0.7,93,0,6000,7.408,,,330,-1.9,1.7,,,,,,,,,wg-a,,0,,AAXX 05184 07299 12256 73304 10010 20000 39914 40253 51007 60006 875// 91800 333 10017 21019 4/9999=
07299,1997-12-05 21:00:00,0,1026.2,0.9,100,0,3500,3.704,,,290,,,,,,,,,,10,wg-a,,,,AAXX 05214 07299 12635 72902 10000 20000 39923 40262 52009 60006 71022 875// 92100=
07299,1997-12-06 00:00:00,0,1026.4,0.1,100,0,2500,3.704,,,330,,,,,,,,,,10,wg-a,,,,AAXX 06004 07299 12225 73302 10000 20000 39924 40264 51001 60006 71022 875// 90000=
07299,1997-12-06 03:00:00,0,1026.7,0.4,100,0,2500,7.408,,,320,,,,,,,,,,10,wg-a,,,,AAXX 06034 07299 12125 83204 10000 20000 39927 40267 53004 60006 71022 886// 90300=
07299,1997-12-06 06:00:00,0,1026.5,-0.3,100,0,3500,3.704,,,330,-0.3,0.5,,,,,,,,10,wg-a,,0,,AAXX 06064 07299 02235 73302 10000 20000 39925 40265 55003 60006 71022 875// 90600 333 10005 21003 4/9999 60004=
07299,1997-12-06 12:00:00,3,1025.7,-1.2,60,-4,12000,7.408,,,110,,,,,,,,,,,wg-a,,,,AAXX 06124 07299 12462 21104 10030 21040 39921 40257 58012 60006 82801 91200=
07299,1997-12-06 15:00:00,0,1025.7,-0.2,93,-1,2000,7.408,,,330,,,,,,,,,,10,wg-a,,,,AAXX 06154 07299 12/20 /3304 10000 21010 39918 40257 55002 60006 71000 80001 91500=
07299,1997-12-06 18:00:00,-2,1026.7,0.7,100,-2,1500,3.704,,,320,-2.3,3.8,,,,,,,,10,wg-a,,,,AAXX 06184 07299 12115 33202 11020 21020 39924 40267 51007 60006 71000 8350/ 91800 333 10038 21023=
07299,1997-12-06 21:00:00,-3,1027.2,0.3,100,-3,400,3.704,,,200,,,,,,,,,,49,wg-a,,,,AAXX 06214 07299 12/04 92002 11030 21030 39928 40272 50003 60006 74941 89/// 92100=
07299,1997-12-07 00:00:00,-3,1026.3,-0.8,100,-3,0,7.408,,,180,,,,,,,,,,,wg-a,,,,AAXX 07004 07299 12/// /1804 11030 21030 39920 40263 57008 60006 90000=
07299,1997-12-07 06:00:00,-2,1024.1,-1.1,86,-4,9000,3.704,,,140,-3,-1.2,,,,,,,,,wg-a,,,,AAXX 07064 07299 02/59 31402 11020 21040 39899 40241 58011 60006 81031 90600 333 11012 21030 60004=
07299,1997-12-07 09:00:00,2,1023.1,-0.4,75,-2,10000,3.704,,,110,,,,,,,,,,,wg-a,,,,AAXX 07094 07299 12/60 41102 10020 21020 39894 40231 58004 60006 80001 90900=
07299,1997-12-07 12:00:00,6,1019.8,-2.8,52,-3,15000,3.704,,,120,,,,,,,,,,,wg-a,,,,AAXX 07124 07299 12/65 51202 10060 21030 39867 40198 58028 60006 81032 91200=
07299,1997-12-07 15:00:00,5,1018.2,-1.5,60,-2,20000,11.112,,,50,,,,,,,,,,,wg-a,,,,AAXX 07154 07299 12/70 70506 10050 21020 39851 40182 56015 60006 81032 91500=
07299,1997-12-07 18:00:00,1,1017.8,-0.8,80,-2,12000,3.704,,,100,-2.7,7.5,,,,,,,,,wg-a,,,,AAXX 07184 07299 12/62 21002 10010 21020 39842 40178 58008 60006 80002 91800 333 10075 21027=
07299,1997-12-07 21:00:00,-1,1017.2,-0.9,93,-2,8000,7.408,,,170,,,,,,,,,,,wg-a,,,,AAXX 07214 07299 12/58 21704 11010 21020 39834 40172 58009 60006 80002 92100=
07299,1997-12-08 00:00:00,-2,1017,-0.2,100,-2,6000,11.112,,,170,,,,,,,,,,,wg-a,,,,AAXX 08004 07299 12/56 21706 11020 21020 39831 40170 58002 60006 80002 90000=
07299,1997-12-08 03:00:00,-1,1016.3,-0.7,93,-2,8000,11.112,,,160,,,,,,,,,,,wg-a,,,,AAXX 08034 07299 12/58 31606 11010 21020 39825 40163 58007 60006 80002 90300=
07299,1997-12-08 06:00:00,-1,1015.9,-0.3,93,-2,500,11.112,,,200,-1.9,0.7,,,,,,,,,wg-a,,,,AAXX 08064 07299 02/00 42006 11010 21020 39821 40159 58003 60006 82032 90600 333 10007 21019 60004=
07299,1997-12-08 09:00:00,1,1016.7,0.9,93,0,6000,7.408,,,180,,,,,,,,,,,wg-a,,,,AAXX 08094 07299 12/56 71804 10010 20000 39831 40167 51009 60006 83034 90900=
07299,1997-12-08 12:00:00,3,1015.2,-1.1,81,0,7000,7.408,,,170,,,,,,,,,,,wg-a,,,,AAXX 08124 07299 12557 71704 10030 20000 39820 40152 58011 60006 875// 91200=
07299,1997-12-08 15:00:00,5,1013.6,-1.4,81,2,7000,11.112,,,170,,,,,,,,,,,wg-a,,,,AAXX 08154 07299 12757 /1706 10050 20020 39806 40136 56014 60006 83570 91500=
07299,1997-12-08 18:00:00,2,1013.7,-0.4,87,0,6000,11.112,,,160,-1.3,5.1,,,,,,,,,wg-a,,,,AAXX 08184 07299 12756 31606 10020 20000 39803 40137 56004 60006 83500 91800 333 10051 21013=
07299,1997-12-08 21:00:00,1,1014.1,0.4,93,0,6000,11.112,,,150,,,,,,,,,,,wg-a,,,,AAXX 08214 07299 12756 21506 10010 20000 39807 40141 50004 60006 82500 92100=
07299,1997-12-09 00:00:00,2,1013.8,-0.2,93,1,6000,11.112,,,150,,,,,,,,,,,wg-a,,,,AAXX 09004 07299 12756 71506 10020 20010 39805 40138 58002 60006 8457/ 90000=
07299,1997-12-09 03:00:00,3,1014.2,0.4,93,2,6000,11.112,,,160,,,,,,,,,,60,wg-a,,,,AAXX 09034 07299 02456 81606 10030 20020 39809 40142 52004 61000 76062 8557/ 90300 333 ////=
07299,1997-12-09 06:00:00,3,1014.8,0.7,93,2,6000,11.112,,,160,0.8,3.4,,,,,,,,3,wg-a,,,,AAXX 09064 07299 02556 81606 10030 20020 39816 40148 53007 60006 70362 885// 90600 333 10034 20008 61000=
07299,1997-12-09 09:00:00,4,1016.7,1.9,93,3,4500,7.408,,,150,,,,,,,,,,10,wg-a,,,,AAXX 09094 07299 02545 71504 10040 20030 39835 40167 53019 61000 71062 875// 90900 333 ////=
07299,1997-12-09 12:00:00,5,1016.8,0.3,93,4,4000,7.408,,,150,,,,0,,,,,,21,wg-a,,,,AAXX 09124 07299 02440 81504 10050 20040 39838 40168 51003 60006 72162 875// 91200 333 60007=
07299,1997-12-09 18:00:00,4,1019.8,1.5,100,4,4000,7.408,,,160,3.1,7.1,,,,,,,,10,wg-a,,,,AAXX 09184 07299 12540 71604 10040 20040 39866 40198 53015 60006 71022 875// 91800 333 10071 20031=
07299,1997-12-09 21:00:00,5,1020.2,0.4,93,4,4000,7.408,,,70,,,,,,,,,,10,wg-a,,,,AAXX 09214 07299 12740 70704 10050 20040 39870 40202 52004 60006 71022 875// 92100=
07299,1997-12-10 00:00:00,3,1020.1,-0.3,100,3,8000,11.112,,,170,,,,,,,,,,,wg-a,,,,AAXX 10004 07299 12758 71706 10030 20030 39867 40201 58003 60006 875// 90000=
07299,1997-12-10 06:00:00,1,1019.5,-0.3,100,1,8000,11.112,,,160,0.6,4.7,,,,,,,,,wg-a,,,,AAXX 10064 07299 02758 31606 10010 20010 39859 40195 55003 60006 81570 90600 333 10047 20006 60004=
07299,1997-12-10 09:00:00,5,1017.6,-1.2,87,3,8000,11.112,,,150,,,,,,,,,,,wg-a,,,,AAXX 10094 07299 12758 /1506 10050 20030 39845 40176 56012 60006 81555 90900=
07299,1997-12-10 12:00:00,8,1015.5,-1.6,76,4,15000,11.112,,,130,,,,,,,,,,,wg-a,,,,AAXX 10124 07299 12765 71306 10080 20040 39828 40155 58016 60006 82576 91200=
07299,1997-12-10 18:00:00,7,1014.6,-0,93,6,7000,7.408,,,100,0.6,8.2,,,,,,,,61,wg-a,,,,AAXX 10184 07299 02557 81004 10070 20060 39819 40146 55000 61000 76162 8687/ 91800 333 10082 20006 6001=
07299,1997-12-10 21:00:00,7,1016.1,1.6,100,7,10000,3.704,,,30,,,,0,,,,,,21,wg-a,,,,AAXX 10214 07299 12360 80302 10070 20070 39834 40161 51016 60007 72162 875// 92100=
07299,1997-12-11 00:00:00,8,1016.4,0.2,100,8,10000,3.704,,,160,,,,,,,,,,1,wg-a,,,,AAXX 11004 07299 12460 81602 10080 20080 39837 40164 51002 60016 70162 875// 90000=
07299,1997-12-11 03:00:00,11,1015,-1,87,9,15000,14.816,,,230,,,,,,,,,,,wg-a,,,,AAXX 11034 07299 12465 72308 10110 20090 39827 40150 56010 60006 875// 90300=
07299,1997-12-11 06:00:00,9,1013.5,-1.6,100,9,6000,7.408,,,150,6.9,11.2,,,,,,,,61,wg-a,,,,AAXX 11064 07299 02456 81504 10090 20090 39811 40135 57016 61000 76162 875// 90600 333 10112 20069 6003=
07299,1997-12-11 09:00:00,10,1012.6,-0.8,100,10,4000,7.408,,,120,,,,2,,,,,,61,wg-a,,,,AAXX 11094 07299 12440 81204 10100 20100 39802 40126 55008 60027 76166 878// 90900=
07299,1997-12-11 12:00:00,13,1010.7,-1.4,94,12,4500,18.52,,38.892,230,,,,2,,,,,,61,wg-a,,,,AAXX 11124 07299 02445 82310 10130 20120 39788 40107 58014 60046 76162 8557/ 91200 333 60027 91021=
07299,1997-12-11 15:00:00,14,1009.1,-1.4,88,12,15000,31.484,,,230,,,,1,,,,,,60,wg-a,,,,AAXX 11154 07299 12465 82317 10140 20120 39773 40091 56014 60017 76066 8457/ 91500=
07299,1997-12-11 18:00:00,13,1009.1,-0.1,94,12,13000,14.816,,,250,8.9,14.2,,,,,,,,60,wg-a,,,,AAXX 11184 07299 02663 82508 10130 20120 39772 40091 57001 61000 76066 8257/ 91800 333 10142 20089 6002=
07299,1997-12-11 21:00:00,13,1007.1,-1.9,88,11,20000,25.928,,,230,,,,4,,,,,,21,wg-a,,,,AAXX 11214 07299 12570 /2314 10130 20110 39753 40071 58019 60047 72162 8457/ 92100=
07299,1997-12-12 00:00:00,11,1008.3,1,87,9,6000,29.632,,50.004,260,,,,2,,,,,,2,wg-a,,,,AAXX 12004 07299 02556 72616 10110 20090 39763 40083 53010 60066 70286 8687/ 90000 333 60027 91027=
07299,1997-12-12 03:00:00,9,1010.2,1.5,81,6,15000,25.928,,,240,,,,0,,,,,,,wg-a,,,,AAXX 12034 07299 12565 32414 10090 20060 39779 40102 51015 60007 82530 90300=
07299,1997-12-12 06:00:00,7,1013,2.5,87,5,15000,11.112,,,200,6.7,13.2,,,,,14,,,1,wg-a,,,,AAXX 12064 07299 02565 42006 10070 20050 39803 40130 52025 60006 70186 84800 90600 333 10132 20067 60144=
07299,1997-12-12 12:00:00,8,1014.4,0.2,81,5,25000,29.632,,,240,,,,0,,,,,,60,wg-a,,,,AAXX 12124 07299 02475 82416 10080 20050 39818 40144 53002 60016 76086 8687/ 91200 333 60007=
07299,1997-12-12 18:00:00,7,1019.3,2.7,93,6,12000,18.52,,,270,6.8,9.6,,,,,,,,60,wg-a,,,,AAXX 12184 07299 02562 82710 10070 20060 39864 40193 53027 61000 76086 8687/ 91800 333 10096 20068 6000=
07299,1997-12-12 21:00:00,7,1021,1.7,87,5,20000,22.224,,,260,,,,,,,,,,3,wg-a,,,,AAXX 12214 07299 02570 72612 10070 20050 39880 40210 51017 61000 70362 8587/ 92100 333 ////=
07299,1997-12-13 00:00:00,6,1023,1.8,87,4,10000,18.52,,,250,,,,0,,,,,,60,wg-a,,,,AAXX 13004 07299 02560 82510 10060 20040 39898 40230 51018 60006 76062 8357/ 90000 333 60007=
07299,1997-12-13 06:00:00,5,1027.2,2.1,87,3,13000,22.224,,,250,4.4,7,,,,,2,,,1,wg-a,,,,AAXX 13064 07299 02663 72512 10050 20030 39938 40272 53021 60006 70162 8557/ 90600 333 10070 20044 60024=
07299,1997-12-13 09:00:00,5,1029.4,2,87,3,20000,11.112,,,270,,,,,,,,,,,wg-a,,,,AAXX 13094 07299 12470 72706 10050 20030 39959 40294 53020 60006 875// 90900=
07299,1997-12-13 12:00:00,6,1029.8,0.4,70,1,20000,14.816,,,350,,,,,,,,,,,wg-a,,,,AAXX 13124 07299 12570 73508 10060 20010 39964 40298 51004 60006 878// 91200=
07299,1997-12-13 15:00:00,5,1031.1,1.2,75,1,500,3.704,,,250,,,,,,,,,,,wg-a,,,,AAXX 13154 07299 12600 72502 10050 20010 39976 40311 53012 60006 878// 91500=
07299,1997-12-13 18:00:00,4,1032.6,1.3,87,2,20000,3.704,,,280,3.8,7,,,,,,,,,wg-a,,,,AAXX 13184 07299 12770 72802 10040 20020 39989 40326 51013 60006 878// 91800 333 10070 20038=
07299,1997-12-14 00:00:00,-1,1033.5,0,100,-1,15000,0,,,0,,,,,,,,,,,wg-a,,,,AAXX 14004 07299 12765 10000 11010 21010 39992 40335 50000 60006 81500 90000=
07299,1997-12-14 03:00:00,-1,1032.9,-0.6,100,-1,10000,3.704,,,160,,,,,,,,,,,wg-a,,,,AAXX 14034 07299 12/60 /1602 11010 21010 39986 40329 58006 60006 90300=
07299,1997-12-14 06:00:00,-1,1032.1,-0.8,100,-1,13000,3.704,,,10,-1.6,3.8,,,,,,,,,wg-a,,,,AAXX 14064 07299 02763 70102 11010 21010 39978 40321 56008 60006 8653/ 90600 333 10038 21016 60004=
07299,1997-12-14 09:00:00,1,1030.9,-1,100,1,12000,7.408,,,150,,,,,,,,,,,wg-a,,,,AAXX 14094 07299 12762 /1504 10010 20010 39968 40309 58010 60006 86500 90900=
07299,1997-12-14 12:00:00,4,1028,-2.4,87,2,15000,3.704,,,210,,,,,,,,,,61,wg-a,,,,AAXX 14124 07299 02565 72102 10040 20020 39944 40280 58024 61000 76162 87500 91200 333 6100=
07299,1997-12-14 15:00:00,5,1024.7,-3,81,2,20000,18.52,,,240,,,,,,,,,,21,wg-a,,,,AAXX 14154 07299 02570 72410 10050 20020 39913 40247 56030 61000 72162 875// 91500 333 ////=
07299,1997-12-14 18:00:00,3,1023.6,-1.2,93,2,8000,22.224,,,260,-1.2,4.8,,,,,,,,21,wg-a,,,,AAXX 14184 07299 02558 72612 10030 20020 39901 40236 58012 61000 72162 875// 91800 333 10048 21012 6000=
07299,1997-12-14 21:00:00,2,1022.8,-0.9,100,2,10000,3.704,,,260,,,,,,,,,,,wg-a,,,,AAXX 14214 07299 12560 72602 10020 20020 39892 40228 58009 60006 875// 92100=
07299,1997-12-15 00:00:00,2,1021.7,-1.2,93,1,0,11.112,,,340,,,,,,,,,,,wg-a,,,,AAXX 15004 07299 12/// /3406 10020 20010 39881 40217 58012 60006 90000=
07299,1997-12-15 03:00:00,1,1021,-0.9,100,1,4000,18.52,,,350,,,,,,,,,,10,wg-a,,,,AAXX 15034 07299 32/40 /3510 10010 20010 39872 40210 57009 710// 90300=
07299,1997-12-15 06:00:00,0,1021.3,0.3,100,0,1800,14.816,,,360,0.2,3.2,,,,,,,,10,wg-a,,0,,AAXX 15064 07299 02218 83608 10000 20000 39875 40213 53003 61000 71076 886// 90600 333 10032 20002 4/9999 6003=
07299,1997-12-15 09:00:00,1,1022.2,0.9,93,0,9000,11.112,,,20,,,,0,,,,,,3,wg-a,,,,AAXX 15094 07299 12259 70206 10010 20000 39884 40222 53009 60007 70372 875// 90900=
07299,1997-12-15 12:00:00,2,1022.3,0.2,93,1,18000,11.112,,,10,,,,,,,,,,2,wg-a,,,,AAXX 15124 07299 12468 70106 10020 20010 39887 40223 51002 60006 70272 878// 91200=
07299,1997-12-15 15:00:00,3,1022.4,0.2,75,-1,20000,11.112,,,40,,,,,,,,,,,wg-a,,,,AAXX 15154 07299 12570 70406 10030 21010 39888 40224 53002 60006 878// 91500=
07299,1997-12-15 18:00:00,2,1022.6,0.1,75,-2,15000,14.816,,,10,0.2,2.8,,,,,,,,,wg-a,,,,AAXX 15184 07299 12565 70108 10020 21020 39890 40226 50001 60006 878// 91800 333 10028 20002=
07299,1997-12-16 00:00:00,0,1022.3,-0.2,74,-4,8000,11.112,,,110,,,,,,,,,,,wg-a,,,,AAXX 16004 07299 12558 71106 10000 21040 39884 40223 57002 60006 875// 90000=
07299,1997-12-16 03:00:00,-1,1021.7,-0.7,69,-6,10000,14.816,,,70,,,,,,,,,,,wg-a,,,,AAXX 16034 07299 12560 80708 11010 21060 39877 40217 57007 60006 885// 90300=
07299,1997-12-16 06:00:00,-1,1020.5,-1.2,69,-6,10000,14.816,,,90,-1.2,1.9,,,,,,,,,wg-a,,,,AAXX 16064 07299 02560 80908 11010 21060 39865 40205 56012 60006 885// 90600 333 10019 21012 60004=
07299,1997-12-16 15:00:00,-1,1019.6,-0.5,69,-6,15000,14.816,,,120,,,,,,,,,,,wg-a,,,,AAXX 16154 07299 12565 /1208 11010 21060 39856 40196 55005 60006 81501 91500=
07299,1997-12-16 18:00:00,-3,1018.6,-1.2,80,-6,9000,3.704,,,70,-3.2,-0.2,,,,,,,,,wg-a,,,,AAXX 16184 07299 12/59 /0702 11030 21060 39844 40186 58012 60006 80001 91800 333 11002 21032=
07299,1997-12-16 21:00:00,-5,1017.1,-1.5,93,-6,8000,3.704,,,340,,,,,,,,,,,wg-a,,,,AAXX 16214 07299 12/58 23402 11050 21060 39828 40171 58015 60006 80001 92100=
07299,1997-12-17 00:00:00,-6,1015.7,-1.5,100,-6,500,3.704,,,340,,,,,,,,,,,wg-a,,,,AAXX 17004 07299 12/00 43402 11060 21060 39814 40157 56015 60006 81034 90000=
07299,1997-12-17 06:00:00,-4,1012,-1.4,100,-4,3500,7.408,,,340,-5.8,-3,,,,,1,,,10,wg-a,,,,AAXX 17064 07299 02235 73404 11040 21040 39780 40120 57014 60006 71076 8587/ 90600 333 11030 21058 60014=
07299,1997-12-17 09:00:00,-3,1011.9,-0,100,-3,500,7.408,,,340,,,,0,,,,,,2,wg-a,,,,AAXX 17094 07299 12500 73404 11030 21030 39780 40119 55000 60007 70272 8657/ 90900=
07299,1997-12-17 12:00:00,-2,1011.1,-0.6,93,-3,500,11.112,,,320,,,,,,,,,,2,wg-a,,,,AAXX 17124 07299 12700 83206 11020 21030 39774 40111 58006 60006 70272 875// 91200=
07299,1997-12-17 18:00:00,-2,1012.4,0.7,100,-2,3000,7.408,,,310,-3.6,-1.5,,,,,,,,10,wg-a,,,,AAXX 17184 07299 12230 83104 11020 21020 39787 40124 53007 60006 71022 887// 91800 333 11015 21036=
07299,1997-12-17 21:00:00,-1,1012.1,-0.4,93,-2,3000,7.408,,,330,,,,,,,,,,10,wg-a,,,,AAXX 17214 07299 12230 83304 11010 21020 39784 40121 58004 60006 71022 885// 92100=
07299,1997-12-18 00:00:00,-1,1012.2,0.2,93,-2,3000,3.704,,,320,,,,,,,,,,10,wg-a,,,,AAXX 18004 07299 12630 83202 11010 21020 39785 40122 50002 60006 71022 885// 90000=
07299,1997-12-18 03:00:00,-1,1011,-1.2,100,-1,3000,7.408,,,290,,,,,,,,,,10,wg-a,,,,AAXX 18034 07299 12730 72904 11010 21010 39774 40110 56012 60006 71022 875// 90300=
07299,1997-12-18 06:00:00,-1,1010.3,-0.6,100,-1,3500,7.408,,,330,-1.6,-0.6,,,,,,,,10,wg-a,,,,AAXX 18064 07299 02735 73304 11010 21010 39768 40103 58006 60006 71022 8553/ 90600 333 11006 21016 60004=
07299,1997-12-18 09:00:00,0,1009.9,-0.4,93,-1,4000,3.704,,,30,,,,,,,,,,10,wg-a,,,,AAXX 18094 07299 12740 70302 10000 21010 39764 40099 58004 60006 71022 8651/ 90900=
07299,1997-12-18 12:00:00,1,1009,-0.7,93,0,2000,3.704,,,330,,,,1,,,,,,10,wg-a,,,,AAXX 18124 07299 02720 73302 10010 20000 39757 40090 56007 60016 71062 8552/ 91200 333 60017=
07299,1997-12-18 15:00:00,1,1007.9,-1,100,1,1100,3.704,,,300,,,,1,,,,,,10,wg-a,,,,AAXX 18154 07299 12711 83002 10010 20010 39746 40079 55010 60017 71062 8/62/ 91500=
07299,1997-12-18 18:00:00,1,1007.8,-0.1,100,1,1100,7.408,,,340,-0.6,0.9,,,,,,,,10,wg-a,,,,AAXX 18184 07299 02211 83404 10010 20010 39745 40078 58001 61000 71062 876// 91800 333 10009 21006 6100=
07299,1997-12-18 21:00:00,1,1006.4,-1.3,100,1,1500,3.704,,,320,,,,1,,,,,,10,wg-a,,,,AAXX 18214 07299 12115 83202 10010 20010 39731 40064 56013 60017 71062 876// 92100=
07299,1997-12-19 00:00:00,1,1005.2,-1.2,100,1,1000,3.704,,,30,,,,,,,,,,10,wg-a,,,,AAXX 19004 07299 02010 80302 10010 20010 39720 40052 55012 60016 71062 886// 90000 333 61000=
07299,1997-12-19 03:00:00,1,1007.3,2.1,100,1,1000,18.52,,,270,,,,,,,,,,10,wg-a,,,,AAXX 19034 07299 02110 82710 10010 20010 39740 40073 53021 61000 71064 886// 90300 333 ////=
07299,1997-12-19 06:00:00,1,1004.8,-2.3,100,1,1800,14.816,,,150,0.3,1.2,,,,,2,,,10,wg-a,,,,AAXX 19064 07299 02118 41508 10010 20010 39717 40048 56023 60006 71064 84500 90600 333 10012 20003 60024=
07299,1997-12-19 09:00:00,2,1005.4,0.6,100,2,1500,14.816,,,160,,,,,,,,,,10,wg-a,,,,AAXX 19094 07299 12715 71608 10020 20020 39723 40054 53006 60006 71011 81532 90900=
07299,1997-12-19 12:00:00,4,1004.6,-0.5,100,4,4500,7.408,,,160,,,,,,,,,,10,wg-a,,,,AAXX 19124 07299 12745 71604 10040 20040 39718 40046 58005 60006 71011 82572 91200=
07299,1997-12-19 15:00:00,4,1004.2,-0.3,100,4,4000,7.408,,,330,,,,,,,,,,10,wg-a,,,,AAXX 19154 07299 12/40 73304 10040 20040 39715 40042 58003 60006 71022 84072 91500=
07299,1997-12-19 18:00:00,2,1005.1,0.6,100,2,3000,3.704,,,50,0.8,6.9,,,,,,,,10,wg-a,,,,AAXX 19184 07299 12/30 70502 10020 20020 39721 40051 50006 60006 71042 85072 91800 333 10069 20008=
07299,1997-12-19 21:00:00,2,1005.6,0.5,100,2,2000,7.408,,,280,,,,,,,,,,10,wg-a,,,,AAXX 19214 07299 02720 72804 10020 20020 39726 40056 50005 61000 71062 85572 92100 333 ////=
07299,1997-12-20 00:00:00,2,1003.7,-1.8,100,2,1100,0,,,0,,,,0,,,,,,10,wg-a,,,,AAXX 20004 07299 02211 70000 10020 20020 39707 40037 58018 60006 71062 85572 90000 333 60007=
07299,1997-12-20 03:00:00,3,1002.3,-1.2,100,3,900,14.816,,,300,,,,,,,,,,41,wg-a,,,,AAXX 20034 07299 32/09 /3008 10030 20030 39694 40023 56012 741// 90300=
07299,1997-12-20 06:00:00,2,1001.2,-1.1,100,2,2500,7.408,,,290,2,2.8,,,,,,,,61,wg-a,,,,AAXX 20064 07299 02125 82904 10020 20020 39683 40012 55011 61000 76165 876// 90600 333 10028 20020 6004=
07299,1997-12-20 09:00:00,2,1002.6,1.4,100,2,3000,3.704,,,320,,,,2,,,,,,60,wg-a,,,,AAXX 20094 07299 12230 83202 10020 20020 39697 40026 53014 60027 76066 877// 90900=
07299,1997-12-20 15:00:00,3,1002.9,0.4,100,3,1500,3.704,,,130,,,,3,,,,,,10,wg-a,,,,AAXX 20154 07299 12115 81302 10030 20030 39701 40029 53004 60037 71066 887// 91500=
07299,1997-12-20 21:00:00,6,1004.5,0.9,100,6,6000,18.52,,,250,,,,2,,,,,,61,wg-a,,,,AAXX 20214 07299 12456 82510 10060 20060 39720 40045 51009 60027 76166 8582/ 92100=
07299,1997-12-21 00:00:00,6,1005.5,0.9,100,6,6000,7.408,,,240,,,,3,,,,,,61,wg-a,,,,AAXX 21004 07299 02456 82404 10060 20060 39730 40055 52009 60056 76166 858// 90000 333 60037=
07299,1997-12-21 03:00:00,7,1005.3,-0.1,100,7,6000,22.224,,,240,,,,3,,,,,,61,wg-a,,,,AAXX 21034 07299 12456 82412 10070 20070 39729 40053 57001 60037 76166 888// 90300=
07299,1997-12-21 06:00:00,7,1005.5,0.2,100,7,10000,25.928,,,240,3.4,7.4,,,,,,,,61,wg-a,,,,AAXX 21064 07299 02560 82414 10070 20070 39731 40055 50002 61000 76166 8382/ 90600 333 10074 20034 6020=
07299,1997-12-21 09:00:00,7,1006.7,1.1,93,6,10000,25.928,,,240,,,,5,,,,,,61,wg-a,,,,AAXX 21094 07299 12460 82414 10070 20060 39742 40067 52011 60057 76166 8352/ 90900=
07299,1997-12-21 12:00:00,7,1006.4,-0.3,93,6,10000,31.484,,,240,,,,6,,,,,,63,wg-a,,,,AAXX 21124 07299 02560 82417 10070 20060 39739 40064 58003 60116 76366 8452/ 91200 333 60067=
07299,1997-12-21 15:00:00,7,1006.6,0.3,93,6,25000,25.928,,48.152,260,,,,1,,,,,,61,wg-a,,,,AAXX 21154 07299 12475 82614 10070 20060 39742 40066 53003 60017 76162 875// 91500 333 91026=
07299,1997-12-21 18:00:00,6,1008.3,1.5,93,5,15000,31.484,,,260,6.2,7.7,,,,,,,,61,wg-a,,,,AAXX 21184 07299 02465 82617 10060 20050 39757 40083 51015 61000 76162 875// 91800 333 10077 20062 6000=
07299,1997-12-21 21:00:00,6,1010.1,1.6,93,5,10000,22.224,,,270,,,,1,,,,,,60,wg-a,,,,AAXX 21214 07299 12160 82712 10060 20050 39773 40101 51016 60017 76066 885// 92100=
07299,1997-12-22 00:00:00,3,1012.3,1.8,100,3,0,3.704,,,280,,,,,,,,,,,wg-a,,,,AAXX 22004 07299 12/// /2802 10030 20030 39791 40123 51018 60086 90000=
07299,1997-12-22 03:00:00,4,1013.2,0.9,93,3,10000,18.52,,,240,,,,0,,,,,,21,wg-a,,,,AAXX 22034 07299 12560 82410 10040 20030 39801 40132 53009 60007 72162 875// 90300=
07299,1997-12-22 06:00:00,3,1013.8,0.5,100,3,15000,14.816,,,230,2.7,6.2,,,,,,,,21,wg-a,,,,AAXX 22064 07299 02465 82308 10030 20030 39806 40138 53005 61000 72162 878// 90600 333 10062 20027 6021=
07299,1997-12-22 09:00:00,4,1015.1,1.3,100,4,500,3.704,,,30,,,,0,,,,,,60,wg-a,,,,AAXX 22094 07299 12200 80302 10040 20040 39819 40151 51013 60007 76062 875// 90900=
07299,1997-12-22 12:00:00,4,1014.7,-0.4,100,4,6000,0,,,0,,,,,,,,,,1,wg-a,,,,AAXX 22124 07299 02156 80000 10040 20040 39816 40147 58004 60016 70162 877// 91200 333 61000=
07299,1997-12-22 15:00:00,4,1015.3,0.7,100,4,500,3.704,,,340,,,,,,,,,,,wg-a,,,,AAXX 22154 07299 12100 83402 10040 20040 39822 40153 53007 60006 875// 91500=
07299,1997-12-22 18:00:00,4,1016.1,0.7,100,4,4000,3.704,,,270,3.4,4.5,,,,,,,,10,wg-a,,,,AAXX 22184 07299 12140 82702 10040 20040 39829 40161 51007 60006 71022 875// 91800 333 10045 20034=
07299,1997-12-22 21:00:00,3,1016,-0.2,100,3,300,7.408,,,330,,,,,,,,,,44,wg-a,,,,AAXX 22214 07299 12/03 93304 10030 20030 39827 40160 55002 60006 74442 89/// 92100=
07299,1997-12-23 00:00:00,3,1016.4,0.4,100,3,600,7.408,,,300,,,,,,,,,,,wg-a,,,,AAXX 23004 07299 12/06 93004 10030 20030 39831 40164 52004 60006 89/// 90000=
07299,1997-12-23 03:00:00,3,1017.1,0.7,100,3,2000,0,,,0,,,,,,,,,,,wg-a,,,,AAXX 23034 07299 12120 80000 10030 20030 39838 40171 50007 60006 886// 90300=
07299,1997-12-23 06:00:00,3,1018.4,1.2,100,3,2000,0,,,0,2.7,3.8,,,,,,,,10,wg-a,,,,AAXX 23064 07299 02120 80000 10030 20030 39850 40184 53012 60006 71042 886// 90600 333 10038 20027 60004=
07299,1997-12-23 12:00:00,5,1022.6,1.2,93,4,7000,7.408,,,230,,,,,,,,,,,wg-a,,,,AAXX 23124 07299 12457 82304 10050 20040 39893 40226 51012 60006 886// 91200=
07299,1997-12-23 15:00:00,5,1024.6,2,93,4,9000,3.704,,,170,,,,,,,,,,,wg-a,,,,AAXX 23154 07299 12459 81702 10050 20040 39913 40246 53020 60006 885// 91500=
07299,1997-12-23 18:00:00,5,1026.9,2.2,93,4,8000,3.704,,,150,2.7,5.5,,,,,,,,,wg-a,,,,AAXX 23184 07299 12/58 /1502 10050 20040 39935 40269 52022 60006 91800 333 10055 20027=
07299,1997-12-23 21:00:00,4,1028.3,1.2,100,4,7000,7.408,,,140,,,,,,,,,,,wg-a,,,,AAXX 23214 07299 12557 71404 10040 20040 39948 40283 51012 60006 875// 92100=
07299,1997-12-24 00:00:00,4,1028.8,0.4,100,4,7000,7.408,,,170,,,,,,,,,,,wg-a,,,,AAXX 24004 07299 12457 81704 10040 20040 39952 40288 50004 60006 878// 90000=
07299,1997-12-24 03:00:00,5,1029.1,0.4,93,4,500,7.408,,,150,,,,0,,,,,,21,wg-a,,,,AAXX 24034 07299 12400 81504 10050 20040 39956 40291 53004 60007 72122 878// 90300=
07299,1997-12-24 06:00:00,5,1028.8,-0.2,100,5,6000,3.704,,,160,3.6,5.3,,,,,,,,2,wg-a,,,,AAXX 24064 07299 02456 81602 10050 20050 39954 40288 55002 60006 70262 878// 90600 333 10053 20036 60004=
07299,1997-12-24 09:00:00,6,1029.5,0.8,100,6,10000,3.704,,,180,,,,,,,,,,,wg-a,,,,AAXX 24094 07299 12460 71802 10060 20060 39962 40295 53008 60006 878// 90900=
07299,1997-12-24 12:00:00,9,1027.6,-1.5,87,7,20000,7.408,,,140,,,,,,,,,,,wg-a,,,,AAXX 24124 07299 12470 /1404 10090 20070 39947 40276 58015 60006 85832 91200=
07299,1997-12-24 15:00:00,9,1026.4,-1.2,93,8,10000,7.408,,,150,,,,,,,,,,,wg-a,,,,AAXX 24154 07299 12660 71504 10090 20080 39935 40264 56012 60006 84532 91500=
07299,1997-12-24 18:00:00,6,1025.2,-1.5,93,5,10000,11.112,,,180,5.3,9.4,,,,,,,,,wg-a,,,,AAXX 24184 07299 12660 41806 10060 20050 39920 40252 56015 60006 83530 91800 333 10094 20053=
07299,1997-12-24 21:00:00,6,1024.8,-0.4,100,6,1000,11.112,,,180,,,,,,,,,,,wg-a,,,,AAXX 24214 07299 12610 41806 10060 20060 39916 40248 56004 60006 83530 92100=
07299,1997-12-25 00:00:00,7,1024.4,-0.2,93,6,10000,7.408,,,80,,,,0,,,,,,50,wg-a,,,,AAXX 25004 07299 02660 /0804 10070 20060 39913 40244 58002 60016 75051 83530 90000 333 60007=
07299,1997-12-25 06:00:00,7,1024.4,0.2,100,7,10000,0,,,0,5.4,7.1,,,,,1,,,2,wg-a,,,,AAXX 25064 07299 02360 70000 10070 20070 39913 40244 53002 60006 70252 8663/ 90600 333 10071 20054 60014=
07299,1997-12-25 09:00:00,9,1023.9,-0.3,93,8,15000,3.704,,,170,,,,,,,,,,11,wg-a,,,,AAXX 25094 07299 12565 41702 10090 20080 39910 40239 58003 60006 71111 83831 90900=
07299,1997-12-25 12:00:00,12,1019.5,-3.8,88,10,35000,11.112,,,140,,,,,,,,,,,wg-a,,,,AAXX 25124 07299 12681 71406 10120 20100 39872 40195 58038 60006 85831 91200=
07299,1997-12-25 15:00:00,13,1016.9,-2.6,77,9,25000,11.112,,,150,,,,,,,,,,,wg-a,,,,AAXX 25154 07299 12675 71506 10130 20090 39847 40169 56026 60006 8683/ 91500=
07299,1997-12-25 18:00:00,15,1014,-2.4,72,10,25000,25.928,,,190,6,15.5,,,,,,,,2,wg-a,,,,AAXX 25184 07299 02675 71914 10150 20100 39822 40140 58024 60006 70262 8553/ 91800 333 10155 20060 61000=
07299,1997-12-25 21:00:00,15,1013,-0.7,67,9,25000,22.224,,,240,,,,,,,,,,,wg-a,,,,AAXX 25214 07299 12675 52412 10150 20090 39813 40130 55007 60006 85530 92100=
07299,1997-12-26 00:00:00,12,1013.7,0.2,82,9,20000,25.928,,,250,,,,2,,,,,,61,wg-a,,,,AAXX 26004 07299 02670 /2514 10120 20090 39816 40137 50002 60026 76162 85570 90000 333 60027=
07299,1997-12-26 03:00:00,9,1015.4,1.4,81,6,15000,31.484,,,220,,,,0,,,,,,61,wg-a,,,,AAXX 26034 07299 12565 82217 10090 20060 39828 40154 53014 60007 76162 8557/ 90300=
07299,1997-12-26 06:00:00,9,1014.3,-1,71,4,15000,22.224,,,200,8.1,15.9,,,,,2,,,2,wg-a,,,,AAXX 26064 07299 02565 /2012 10090 20040 39818 40143 56010 60006 70262 8457/ 90600 333 10159 20081 60024=
07299,1997-12-26 09:00:00,10,1013.6,-0.5,66,4,20000,22.224,,,210,,,,,,,,,,,wg-a,,,,AAXX 26094 07299 12670 72112 10100 20040 39812 40136 55005 60006 8787/ 90900=
07299,1997-12-26 12:00:00,10,1012.6,-1,66,4,15000,31.484,,51.856,220,,,,,,,,,,80,wg-a,,,,AAXX 26124 07299 02565 72217 10100 20040 39802 40126 58010 61000 78086 87872 91200 333 6100 91028=
07299,1997-12-26 18:00:00,8,1010,-1.1,66,2,20000,11.112,,,230,7,10.7,,,,,,,,2,wg-a,,,,AAXX 26184 07299 12670 52306 10080 20020 39774 40100 56011 60006 70286 83870 91800 333 10107 20070=
07299,1997-12-26 21:00:00,8,1010.1,0.2,76,4,25000,22.224,,,230,,,,0,,,,,,21,wg-a,,,,AAXX 26214 07299 12675 32312 10080 20040 39775 40101 53002 60007 72161 83500 92100=
07299,1997-12-27 00:00:00,5,1011.8,1.4,87,3,20000,14.816,,,220,,,,1,,,,,,2,wg-a,,,,AAXX 27004 07299 02570 22208 10050 20030 39789 40118 51014 60016 70286 82800 90000 333 60017=
07299,1997-12-27 03:00:00,6,1011.6,-0.2,81,3,20000,18.52,,,230,,,,,,,,,,,wg-a,,,,AAXX 27034 07299 12570 22310 10060 20030 39788 40116 58002 60006 82800 90300=
07299,1997-12-27 06:00:00,6,1012.3,0.8,81,3,20000,7.408,,,230,4.4,9,,,,,1,,,,wg-a,,,,AAXX 27064 07299 02570 72304 10060 20030 39795 40123 53008 60006 875// 90600 333 10090 20044 60014=
07299,1997-12-27 09:00:00,6,1013.4,1.1,81,3,20000,3.704,,,170,,,,,,,,,,,wg-a,,,,AAXX 27094 07299 12670 71702 10060 20030 39806 40134 51011 60006 875// 90900=
07299,1997-12-27 12:00:00,8,1012.4,-0.8,76,4,20000,7.408,,,310,,,,,,,,,,,wg-a,,,,AAXX 27124 07299 12670 73104 10080 20040 39798 40124 58008 60006 86870 91200=
07299,1997-12-27 15:00:00,7,1012.5,-0,81,4,25000,11.112,,,270,,,,,,,,,,,wg-a,,,,AAXX 27154 07299 12575 72706 10070 20040 39798 40125 55000 60006 85872 91500=
07299,1997-12-27 18:00:00,6,1013.1,0.6,87,4,20000,11.112,,,220,4.9,8.4,,,,,,,,,wg-a,,,,AAXX 27184 07299 12470 72206 10060 20040 39803 40131 52006 60006 875// 91800 333 10084 20049=
07299,1997-12-27 21:00:00,5,1013.7,0.4,93,4,20000,14.816,,,240,,,,,,,,,,,wg-a,,,,AAXX 27214 07299 12570 72408 10050 20040 39808 40137 50004 60006 878// 92100=
07299,1997-12-28 00:00:00,5,1014,0.2,87,3,20000,22.224,,,240,,,,,,,,,,,wg-a,,,,AAXX 28004 07299 12570 72412 10050 20030 39810 40140 53002 60006 8587/ 90000=
07299,1997-12-28 03:00:00,5,1014.3,0.3,87,3,20000,14.816,,,250,,,,,,,,,,,wg-a,,,,AAXX 28034 07299 12470 72508 10050 20030 39813 40143 50003 60006 83871 90300=
07299,1997-12-28 06:00:00,5,1015,0.6,87,3,20000,14.816,,,240,4.2,6.4,,,,,,,,,wg-a,,,,AAXX 28064 07299 02670 72408 10050 20030 39819 40150 53006 60006 8357/ 90600 333 10064 20042 60004=
07299,1997-12-28 09:00:00,5,1016.7,1.7,87,3,500,18.52,,,240,,,,,,,,,,60,wg-a,,,,AAXX 28094 07299 02400 72410 10050 20030 39836 40167 53017 61000 76062 8683/ 90900 333 ////=
07299,1997-12-28 12:00:00,6,1016,-0.6,81,3,500,14.816,,,240,,,,,,,,,,3,wg-a,,,,AAXX 28124 07299 02400 72408 10060 20030 39830 40160 58006 61000 70362 878// 91200 333 6100=
07299,1997-12-28 15:00:00,5,1015.7,-0.4,81,2,20000,11.112,,,230,,,,,,,,,,,wg-a,,,,AAXX 28154 07299 12470 52306 10050 20020 39827 40157 55004 60006 83831 91500=
07299,1997-12-28 18:00:00,4,1016.3,0.5,87,2,20000,3.704,,,240,3.3,6.8,,,,,,,,,wg-a,,,,AAXX 28184 07299 12670 72402 10040 20020 39831 40163 52005 60006 8683/ 91800 333 10068 20033=
07299,1997-12-28 21:00:00,1,1016.1,-0.5,93,0,18000,3.704,,,170,,,,,,,,,,,wg-a,,,,AAXX 28214 07299 12/68 /1702 10010 20000 39826 40161 56005 60006 80000 92100=
07299,1997-12-29 00:00:00,0,1015.5,-0.8,93,-1,15000,7.408,,,160,,,,,,,,,,,wg-a,,,,AAXX 29004 07299 12/65 01604 10000 21010 39818 40155 56008 60006 80000 90000=
07299,1997-12-29 03:00:00,-1,1015.4,-0.1,100,-1,15000,7.408,,,120,,,,,,,,,,,wg-a,,,,AAXX 29034 07299 12565 21204 11010 21010 39816 40154 58001 60006 82500 90300=
07299,1997-12-29 06:00:00,0,1015.1,-0.1,100,0,16000,7.408,,,140,-1.7,3.7,,,,,,,,,wg-a,,,,AAXX 29064 07299 02566 71404 10000 20000 39815 40151 56001 60006 875// 90600 333 10037 21017 61000=
07299,1997-12-29 09:00:00,1,1015.8,0.7,93,0,500,11.112,,,150,,,,,,,,,,,wg-a,,,,AAXX 29094 07299 12500 /1506 10010 20000 39822 40158 50007 60006 86500 90900=
07299,1997-12-29 12:00:00,6,1014.6,-0.5,65,0,40000,7.408,,,130,,,,,,,,,,,wg-a,,,,AAXX 29124 07299 12582 41304 10060 20000 39817 40146 58005 60006 82831 91200=
07299,1997-12-29 15:00:00,6,1014,-0.5,61,-1,11000,3.704,,,110,,,,,,,,,,,wg-a,,,,AAXX 29154 07299 12/61 /1102 10060 21010 39812 40140 56005 60006 91500=
07299,1997-12-29 18:00:00,2,1015.3,0.7,80,-1,20000,7.408,,,120,-0.3,7.3,,,,,,,,,wg-a,,,,AAXX 29184 07299 12/70 31204 10020 21010 39819 40153 53007 60006 80001 91800 333 10073 21003=
07299,1997-12-30 00:00:00,-2,1015.3,-0.4,100,-2,15000,7.408,,,170,,,,,,,,,,,wg-a,,,,AAXX 30004 07299 12/65 01704 11020 21020 39815 40153 58004 60006 80000 90000=
07299,1997-12-30 03:00:00,-2,1016.3,0.9,93,-3,15000,11.112,,,170,,,,,,,,,,,wg-a,,,,AAXX 30034 07299 12/65 01706 11020 21030 39824 40163 53009 60006 80000 90300=
07299,1997-12-30 06:00:00,-2,1016,-0.3,93,-3,15000,11.112,,,180,-2.2,2.2,,,,,,,,,wg-a,,,,AAXX 30064 07299 02/65 51806 11020 21030 39821 40160 56003 60006 82031 90600 333 10022 21022 60004=
07299,1997-12-30 09:00:00,1,1016.2,0.6,86,-1,45000,11.112,,,160,,,,,,,,,,,wg-a,,,,AAXX 30094 07299 12/83 71606 10010 21010 39827 40162 53006 60006 86031 90900=
07299,1997-12-30 12:00:00,4,1015.6,-0.2,70,-1,45000,7.408,,,130,,,,,,,,,,,wg-a,,,,AAXX 30124 07299 12783 71304 10040 21010 39825 40156 58002 60006 81534 91200=
07299,1997-12-30 15:00:00,5,1014.8,-0.7,70,0,500,7.408,,,120,,,,,,,,,,,wg-a,,,,AAXX 30154 07299 12700 71204 10050 20000 39818 40148 56007 60006 82871 91500=
07299,1997-12-30 18:00:00,4,1015.1,-0,81,1,18000,7.408,,,160,-1.8,5.1,,,,,,,,,wg-a,,,,AAXX 30184 07299 12768 71604 10040 20010 39819 40151 55000 60006 8257/ 91800 333 10051 21018=
07299,1997-12-30 21:00:00,5,1014.4,-0.4,75,1,15000,11.112,,,140,,,,,,,,,,,wg-a,,,,AAXX 30214 07299 12665 71406 10050 20010 39814 40144 58004 60006 8157/ 92100=
07299,1997-12-31 00:00:00,4,1013.5,-1,81,1,15000,11.112,,,160,,,,,,,,,,,wg-a,,,,AAXX 31004 07299 12765 71606 10040 20010 39804 40135 58010 60006 875// 90000=
07299,1997-12-31 06:00:00,2,1012.9,-0.6,87,0,15000,11.112,,,180,1.6,5.2,,,,,,,,,wg-a,,,,AAXX 31064 07299 02765 21806 10020 20000 39796 40129 56006 60006 82500 90600 333 10052 20016 60004=
07299,1997-12-31 09:00:00,4,1013.4,0.7,81,1,11000,7.408,,,180,,,,,,,,,,,wg-a,,,,AAXX 31094 07299 12/61 /1804 10040 20010 39803 40134 53007 60006 90900=
07299,1997-12-31 12:00:00,6,1013.1,0.2,75,2,15000,14.816,,,140,,,,,,,,,,60,wg-a,,,,AAXX 31124 07299 02665 71408 10060 20020 39803 40131 50002 61000 76061 875// 91200 333 6100=
07299,1997-12-31 15:00:00,6,1013.6,0.4,81,3,12000,11.112,,,130,,,,2,,,,,,21,wg-a,,,,AAXX 31154 07299 12562 71306 10060 20030 39808 40136 53004 60027 72162 878// 91500=
07299,1997-12-31 18:00:00,5,1014.5,0.7,87,3,11000,11.112,,,170,1.6,6.3,,,,,,,,,wg-a,,,,AAXX 31184 07299 12/61 /1706 10050 20030 39815 40145 53007 60006 91800 333 10063 20016=
07299,1997-12-31 21:00:00,5,1015.4,0.8,87,3,11000,11.112,,,160,,,,,,,,,,,wg-a,,,,AAXX 31214 07299 12/61 /1606 10050 20030 39823 40154 51008 60006 92100=
