station_id,dh_utc,temperature,pression,pression_variation_3h,humidite,point_de_rosee,visibilite,vent_moyen,vent_rafales,vent_rafales_10min,vent_direction,temperature_min,temperature_max,pluie_1h,pluie_3h,pluie_6h,pluie_12h,pluie_24h,ensoleillement,temperature_sol,temps_omm,source,radiations,neige_au_sol,nebulosite,raw_msg
07299,1998-01-01 00:00:00,3,1016.4,0.8,93,2,15000,14.816,,,170,,,,,,,,,,,wg-a,,,,AAXX 01004 07299 12765 41708 10030 20020 39831 40164 50008 60006 8353/ 90000=
07299,1998-01-01 03:00:00,1,1017.2,0.6,100,1,15000,14.816,,,170,,,,,,,,,,,wg-a,,,,AAXX 01034 07299 12765 41708 10010 20010 39837 40172 50006 60006 8353/ 90300=
07299,1998-01-01 06:00:00,2,1017.6,0.4,93,1,15000,14.816,,,170,0.7,5.2,,,,,2,,,,wg-a,,,,AAXX 01064 07299 02665 71708 10020 20010 39841 40176 53004 60006 83530 90600 333 10052 20007 60024=
07299,1998-01-01 09:00:00,5,1018.1,0.9,81,2,15000,11.112,,,150,,,,,,,,,,,wg-a,,,,AAXX 01094 07299 12665 71506 10050 20020 39850 40181 51009 60006 81531 90900=
07299,1998-01-01 12:00:00,7,1017.4,-0.6,81,4,16000,11.112,,,190,,,,,,,,,,,wg-a,,,,AAXX 01124 07299 12666 71906 10070 20040 39845 40174 57006 60006 83536 91200=
07299,1998-01-01 18:00:00,6,1015.6,0,81,3,11000,3.704,,,140,1.9,9.5,,,,,,,,,wg-a,,,,AAXX 01184 07299 12461 71402 10060 20030 39827 40156 50000 60006 8653/ 91800 333 10095 20019=
07299,1998-01-01 21:00:00,6,1013.9,-1.8,87,4,12000,11.112,,,140,,,,,,,,,,60,wg-a,,,,AAXX 01214 07299 02462 71406 10060 20040 39810 40139 58018 61000 76062 875// 92100 333 ////=
07299,1998-01-02 00:00:00,5,1010.4,-3.3,93,4,7000,7.408,,,200,,,,,,,,,,60,wg-a,,,,AAXX 02004 07299 02457 72004 10050 20040 39776 40104 56033 61000 76062 875// 90000 333 6100=
07299,1998-01-02 06:00:00,11,1005.8,-1.2,71,6,12000,18.52,,,230,5.1,10.7,,,,,3,,,1,wg-a,,,,AAXX 02064 07299 02562 72310 10110 20060 39738 40058 57012 60006 70162 875// 90600 333 10107 20051 60034=
07299,1998-01-02 09:00:00,10,1004.7,-1.2,76,6,12000,14.816,,,260,,,,0,,,,,,60,wg-a,,,,AAXX 02094 07299 12462 82608 10100 20060 39726 40047 55012 60007 76062 8787/ 90900=
07299,1998-01-02 12:00:00,11,999.4,-5,66,5,60000,14.816,,,180,,,,1,,,,,,1,wg-a,,,,AAXX 02124 07299 02586 81808 10110 20050 39676 49994 58050 60016 70162 878// 91200 333 60017=
07299,1998-01-02 15:00:00,11,999.1,-0.2,71,6,15000,35.188,,,200,,,,0,,,,,,60,wg-a,,,,AAXX 02154 07299 12565 82019 10110 20060 39672 49991 55002 60007 76062 879// 91500=
07299,1998-01-02 18:00:00,8,1003.9,4.3,76,4,15000,25.928,,,230,7.1,13.3,,,,,,,,21,wg-a,,,,AAXX 02184 07299 02565 82314 10080 20040 39716 40039 51043 61000 72162 8497/ 91800 333 10133 20071 6001=
07299,1998-01-02 21:00:00,8,1008,3.9,71,3,16000,22.224,,,220,,,,,,,,,,,wg-a,,,,AAXX 02214 07299 12566 72212 10080 20030 39756 40080 51039 60006 878// 92100=
07299,1998-01-03 00:00:00,8,1011,2.9,76,4,17000,22.224,,,240,,,,,,,,,,,wg-a,,,,AAXX 03004 07299 12567 52412 10080 20040 39784 40110 51029 60006 85800 90000=
07299,1998-01-03 03:00:00,8,1012.1,1.1,71,3,15000,18.52,,,220,,,,,,,,,,,wg-a,,,,AAXX 03034 07299 12565 72210 10080 20030 39795 40121 51011 60006 878// 90300=
07299,1998-01-03 06:00:00,5,1012.8,0.4,81,2,18000,3.704,,,100,5.2,8.4,,,,,2,,,,wg-a,,,,AAXX 03064 07299 02668 71002 10050 20020 39799 40128 51004 60006 81532 90600 333 10084 20052 60024=
07299,1998-01-03 09:00:00,5,1012.1,-0.7,87,3,11000,3.704,,,190,,,,,,,,,,,wg-a,,,,AAXX 03094 07299 12/61 /1902 10050 20030 39792 40121 56007 60006 90900=
07299,1998-01-03 12:00:00,7,1008.9,-2.7,76,3,18000,3.704,,,140,,,,,,,,,,60,wg-a,,,,AAXX 03124 07299 02668 71402 10070 20030 39764 40089 56027 61000 76062 8358/ 91200 333 6100=
07299,1998-01-03 15:00:00,13,1005.4,-2.8,67,7,11000,18.52,,,190,,,,,,,,,,,wg-a,,,,AAXX 03154 07299 32/61 /1910 10130 20070 39736 40054 56028 91500=
07299,1998-01-03 21:00:00,9,1010.8,6.7,61,2,15000,42.596,,62.968,270,,,,4,,,,,,60,wg-a,,,,AAXX 03214 07299 12565 52723 10090 20020 39784 40108 53067 60047 76086 84830 92100 333 91034=
07299,1998-01-04 00:00:00,8,1015.8,4.7,71,3,18000,38.892,,,250,,,,,,,,,,25,wg-a,,,,AAXX 04004 07299 02568 22521 10080 20030 39831 40158 51047 60046 72586 82800 90000 333 61000=
07299,1998-01-04 09:00:00,8,1016.5,-0.3,61,1,22000,11.112,,,180,,,,,,,,,,,wg-a,,,,AAXX 04094 07299 12572 71806 10080 20010 39838 40165 55003 60006 82831 90900=
07299,1998-01-04 12:00:00,10,1011.3,-4.9,50,0,50000,11.112,,,120,,,,,,,,,,,wg-a,,,,AAXX 04124 07299 12/84 /1206 10100 20000 39790 40113 58049 60006 81032 91200=
07299,1998-01-04 15:00:00,11,1006.3,-4.6,43,-1,55000,14.816,,,260,,,,,,,,,,,wg-a,,,,AAXX 04154 07299 12785 42608 10110 21010 39742 40063 56046 60006 82832 91500=
07299,1998-01-05 00:00:00,6,1012.5,1.3,81,3,7000,46.3,,66.672,240,,,,4,,,,,,,wg-a,,,,AAXX 05004 07299 02/57 /2425 10060 20030 39797 40125 53013 60046 90000 333 60047 91036=
07299,1998-01-05 03:00:00,5,1015,2.3,81,2,11000,22.224,,,240,,,,2,,,,,,,wg-a,,,,AAXX 05034 07299 12/61 /2412 10050 20020 39820 40150 51023 60027 90300=
07299,1998-01-05 06:00:00,6,1016.1,1.1,65,0,18000,38.892,,,230,4.3,8.9,,,,,,,,25,wg-a,,,,AAXX 05064 07299 02468 72321 10060 20000 39832 40161 53011 61000 72586 878// 90600 333 10089 20043 6009=
07299,1998-01-05 09:00:00,6,1017,0.9,70,1,11000,18.52,,,170,,,,,,,,,,,wg-a,,,,AAXX 05094 07299 12/61 /1710 10060 20010 39841 40170 50009 60006 90900=
07299,1998-01-05 12:00:00,10,1014.6,-1.9,46,-1,25000,25.928,,,220,,,,,,,,,,,wg-a,,,,AAXX 05124 07299 12575 /2214 10100 21010 39822 40146 58019 60006 82802 91200=
07299,1998-01-05 15:00:00,11,1010.8,-3.7,43,-1,50000,11.112,,,190,,,,,,,,,,,wg-a,,,,AAXX 05154 07299 12684 41906 10110 21010 39785 40108 56037 60006 81832 91500=
07299,1998-01-05 21:00:00,10,1005.2,-2.2,62,3,18000,53.708,,87.044,210,,,,0,,,,,,21,wg-a,,,,AAXX 05214 07299 12768 72129 10100 20030 39731 40052 56022 60007 72162 8553/ 92100 333 91047=
07299,1998-01-06 00:00:00,8,1009.5,4,76,4,15000,46.3,,,260,,,,5,,,,,,63,wg-a,,,,AAXX 06004 07299 02565 62625 10080 20040 39770 40095 53040 60056 76362 85530 90000 333 60057=
07299,1998-01-06 06:00:00,6,1016,2.6,81,3,20000,35.188,,,260,5.1,11.8,,,,,11,,,1,wg-a,,,,AAXX 06064 07299 02470 32619 10060 20030 39831 40160 53026 60006 70161 81531 90600 333 10118 20051 60114=
07299,1998-01-06 09:00:00,6,1019.2,3,81,3,9000,11.112,,,170,,,,,,,,,,80,wg-a,,,,AAXX 06094 07299 02459 81706 10060 20030 39861 40192 51030 61000 78086 888// 90900 333 ////=
07299,1998-01-06 12:00:00,7,1020.3,1.2,81,4,20000,11.112,,,210,,,,1,,,,,,60,wg-a,,,,AAXX 06124 07299 02370 82106 10070 20040 39873 40203 51012 60016 76086 888// 91200 333 60017=
07299,1998-01-06 18:00:00,6,1019.8,-0.1,93,5,15000,3.704,,,120,,,,0,,,,,,1,wg-a,,,,AAXX 06184 07299 02365 81202 10060 20050 39867 40198 57001 60006 70162 885// 91800 333 60007=
07299,1998-01-06 21:00:00,6,1019.9,0.3,100,6,15000,7.408,,,140,,,,0,,,,,,21,wg-a,,,,AAXX 06214 07299 12665 71404 10060 20060 39869 40199 51003 60007 72162 875// 92100=
07299,1998-01-07 00:00:00,7,1020.1,0.3,93,6,13000,7.408,,,170,,,,,,,,,,60,wg-a,,,,AAXX 07004 07299 02563 81704 10070 20060 39872 40201 50003 60006 76062 8557/ 90000 333 61000=
07299,1998-01-07 06:00:00,7,1020.1,-0.2,100,7,20000,7.408,,,120,5.2,7.5,,,,,,,,3,wg-a,,,,AAXX 07064 07299 12570 81204 10070 20070 39872 40201 56002 60006 70362 875// 90600 333 10075 20052=
07299,1998-01-07 09:00:00,8,1020.5,0.6,93,7,11000,0,,,0,,,,,,,,,,,wg-a,,,,AAXX 07094 07299 12/61 /0000 10080 20070 39877 40205 53006 60006 90900=
07299,1998-01-07 12:00:00,15,1019.2,-0.5,59,7,11000,22.224,,,230,,,,,,,,,,,wg-a,,,,AAXX 07124 07299 12/61 /2312 10150 20070 39872 40192 58005 60006 91200=
07299,1998-01-07 15:00:00,13,1020.5,1,62,6,500,14.816,,,260,,,,,,,,,,21,wg-a,,,,AAXX 07154 07299 02600 72608 10130 20060 39882 40205 53010 61000 72162 878// 91500 333 ////=
07299,1998-01-07 18:00:00,12,1022.6,1.9,62,5,11000,22.224,,,220,7.1,15.3,,,,,,,,,wg-a,,,,AAXX 07184 07299 12/61 /2212 10120 20050 39901 40226 53019 60006 91800 333 10153 20071=
07299,1998-01-07 21:00:00,10,1024.3,1.5,71,5,500,14.816,,,230,,,,,,,,,,,wg-a,,,,AAXX 07214 07299 12600 /2308 10100 20050 39916 40243 51015 60006 83802 92100=
07299,1998-01-08 00:00:00,7,1026.5,1.7,81,4,25000,0,,,0,,,,,,,,,,,wg-a,,,,AAXX 08004 07299 12775 20000 10070 20040 39933 40265 51017 60006 825/2 90000=
07299,1998-01-08 03:00:00,5,1028,1.2,87,3,25000,0,,,0,,,,,,,,,,,wg-a,,,,AAXX 08034 07299 12775 70000 10050 20030 39945 40280 51012 60006 875// 90300=
07299,1998-01-08 06:00:00,7,1028.1,0.4,76,3,25000,3.704,,,200,4.3,11.6,,,,,,,,,wg-a,,,,AAXX 08064 07299 02775 22002 10070 20030 39949 40281 53004 60006 82500 90600 333 10116 20043 61000=
07299,1998-01-08 09:00:00,9,1029.8,1.9,76,5,25000,7.408,,,230,,,,,,,,,,,wg-a,,,,AAXX 08094 07299 12575 22304 10090 20050 39968 40298 51019 60006 81801 90900=
07299,1998-01-08 15:00:00,12,1028.6,-0.7,58,4,500,11.112,,,270,,,,,,,,,,,wg-a,,,,AAXX 08154 07299 12500 /2706 10120 20040 39960 40286 56007 60006 82802 91500=
07299,1998-01-08 18:00:00,8,1030.6,1.4,66,2,25000,3.704,,,160,3.8,13.7,,,,,,,,,wg-a,,,,AAXX 08184 07299 12775 21602 10080 20020 39974 40306 53014 60006 81501 91800 333 10137 20038=
07299,1998-01-09 00:00:00,4,1033,0.7,87,2,10000,7.408,,,160,,,,,,,,,,,wg-a,,,,AAXX 09004 07299 12/60 /1604 10040 20020 39992 40330 52007 60006 90000=
07299,1998-01-09 03:00:00,2,1033.7,0.5,100,2,10000,3.704,,,120,,,,,,,,,,,wg-a,,,,AAXX 09034 07299 12/60 /1202 10020 20020 39997 40337 53005 60006 90300=
07299,1998-01-09 06:00:00,1,1034,0.3,100,1,10000,11.112,,,180,0.8,8.8,,,,,,,,,wg-a,,,,AAXX 09064 07299 02/60 /1806 10010 20010 39999 40340 53003 60006 90600 333 10088 20008 60004=
07299,1998-01-09 09:00:00,5,1034.5,0.9,87,3,35000,7.408,,,180,,,,,,,,,,,wg-a,,,,AAXX 09094 07299 12/81 21804 10050 20030 30008 40345 53009 60006 81032 90900=
07299,1998-01-09 12:00:00,11,1033.2,-0.5,62,4,10000,7.408,,,160,,,,,,,,,,,wg-a,,,,AAXX 09124 07299 12/60 /1604 10110 20040 30003 40332 58005 60006 91200=
07299,1998-01-09 18:00:00,6,1032.8,-0.1,87,4,40000,3.704,,,180,1.2,12.9,,,,,,,,,wg-a,,,,AAXX 09184 07299 12/82 01802 10060 20040 39994 40328 56001 60006 80000 91800 333 10129 20012=
07299,1998-01-10 00:00:00,1,1032.9,-0.4,100,1,20000,11.112,,,180,,,,,,,,,,,wg-a,,,,AAXX 10004 07299 12/70 01806 10010 20010 39989 40329 58004 60006 80000 90000=
07299,1998-01-10 03:00:00,1,1032.4,-0.6,93,0,20000,14.816,,,170,,,,,,,,,,,wg-a,,,,AAXX 10034 07299 12/70 01708 10010 20000 39983 40324 57006 60006 80000 90300=
07299,1998-01-10 06:00:00,0,1031.7,-0.7,100,0,20000,14.816,,,170,-0.5,6.2,,,,,,,,,wg-a,,,,AAXX 10064 07299 02/70 01708 10000 20000 39976 40317 56007 60006 80000 90600 333 10062 21005 60004=
07299,1998-01-10 09:00:00,6,1031.2,0.1,70,1,50000,11.112,,,140,,,,,,,,,,,wg-a,,,,AAXX 10094 07299 12/84 11406 10060 20010 39977 40312 50001 60006 81030 90900=
07299,1998-01-10 12:00:00,12,1029.2,-1.2,47,1,500,7.408,,,120,,,,,,,,,,,wg-a,,,,AAXX 10124 07299 12600 /1204 10120 20010 39965 40292 58012 60006 81131 91200=
07299,1998-01-10 15:00:00,11,1028,-1.3,47,0,500,11.112,,,110,,,,,,,,,,,wg-a,,,,AAXX 10154 07299 12/00 21106 10110 20000 39952 40280 56013 60006 81031 91500=
07299,1998-01-10 18:00:00,7,1028,-0.5,61,0,500,7.408,,,100,-0.2,12.7,,,,,,,,,wg-a,,,,AAXX 10184 07299 12/00 01004 10070 20000 39947 40280 55005 60006 80000 91800 333 10127 21002=
07299,1998-01-10 21:00:00,1,1028.1,-0.6,93,0,15000,0,,,0,,,,,,,,,,,wg-a,,,,AAXX 10214 07299 12/65 00000 10010 20000 39941 40281 56006 60006 80000 92100=
07299,1998-01-11 00:00:00,0,1027.6,-0.6,93,-1,15000,0,,,0,,,,,,,,,,,wg-a,,,,AAXX 11004 07299 12/65 00000 10000 21010 39935 40276 57006 60006 80000 90000=
07299,1998-01-11 06:00:00,2,1025.2,-1,80,-1,20000,11.112,,,150,-0.7,6.8,,,,,,,,,wg-a,,,,AAXX 11064 07299 02/70 11506 10020 21010 39914 40252 56010 60006 80001 90600 333 10068 21007 60004=
07299,1998-01-11 09:00:00,5,1025.1,0.4,75,1,18000,11.112,,,150,,,,,,,,,,,wg-a,,,,AAXX 11094 07299 12/68 51506 10050 20010 39918 40251 53004 60006 81031 90900=
07299,1998-01-11 12:00:00,11,1023.8,-0.6,47,0,18000,11.112,,,150,,,,,,,,,,,wg-a,,,,AAXX 11124 07299 12/68 11506 10110 20000 39912 40238 58006 60006 81039 91200=
07299,1998-01-11 15:00:00,12,1022.9,-0.7,47,1,18000,3.704,,,140,,,,,,,,,,,wg-a,,,,AAXX 11154 07299 12/68 11402 10120 20010 39904 40229 56007 60006 81031 91500=
07299,1998-01-11 18:00:00,3,1024.6,0.5,81,0,14000,11.112,,,170,0.5,12.4,,,,,,,,,wg-a,,,,AAXX 11184 07299 12/64 11706 10030 20000 39910 40246 53005 60006 80001 91800 333 10124 20005=
07299,1998-01-12 00:00:00,0,1025.6,0.1,93,-1,8000,14.816,,,180,,,,,,,,,,,wg-a,,,,AAXX 12004 07299 12/58 31808 10000 21010 39916 40256 50001 60006 80002 90000=
07299,1998-01-12 03:00:00,0,1025.5,-0.1,93,-1,7000,11.112,,,160,,,,,,,,,,,wg-a,,,,AAXX 12034 07299 12/57 01606 10000 21010 39915 40255 58001 60006 80000 90300=
07299,1998-01-12 06:00:00,-1,1025,-0.5,100,-1,8000,11.112,,,170,-1.2,4.1,,,,,,,,,wg-a,,,,AAXX 12064 07299 02/58 /1706 11010 21010 39910 40250 57005 60006 80001 90600 333 10041 21012 60004=
07299,1998-01-12 09:00:00,2,1024.2,-0.4,87,0,500,11.112,,,160,,,,,,,,,,,wg-a,,,,AAXX 12094 07299 12/00 /1606 10020 20000 39906 40242 57004 60006 81032 90900=
07299,1998-01-12 12:00:00,7,1022,-1.7,66,1,6000,11.112,,,160,,,,,,,,,,,wg-a,,,,AAXX 12124 07299 12/56 /1606 10070 20010 39890 40220 58017 60006 81032 91200=
07299,1998-01-12 15:00:00,9,1020.6,-1,66,3,7000,3.704,,,150,,,,,,,,,,,wg-a,,,,AAXX 12154 07299 12/57 71502 10090 20030 39879 40206 56010 60006 81032 91500=
07299,1998-01-12 18:00:00,5,1020.3,-0.7,75,1,500,7.408,,,130,-0.8,9.5,,,,,,,,,wg-a,,,,AAXX 12184 07299 12/00 71304 10050 20010 39872 40203 58007 60006 81032 91800 333 10095 21008=
07299,1998-01-12 21:00:00,5,1019.3,-1.1,75,1,6000,7.408,,,170,,,,,,,,,,,wg-a,,,,AAXX 12214 07299 12/56 /1704 10050 20010 39861 40193 55011 60006 81031 92100=
07299,1998-01-13 00:00:00,2,1018.7,-0.9,93,1,500,11.112,,,170,,,,,,,,,,,wg-a,,,,AAXX 13004 07299 12700 31706 10020 20010 39852 40187 58009 60006 83500 90000=
07299,1998-01-13 12:00:00,6,1013.9,-0.9,75,2,4800,11.112,,,130,,,,,,,,,,10,wg-a,,,,AAXX 13124 07299 12/48 71306 10060 20020 39810 40139 58009 60006 71011 8705/ 91200=
07299,1998-01-13 15:00:00,5,1012.9,-1,87,3,4800,11.112,,,190,,,,,,,,,,10,wg-a,,,,AAXX 13154 07299 12848 71906 10050 20030 39800 40129 58010 60006 71022 8357/ 91500=
07299,1998-01-13 21:00:00,5,1012.1,0.3,81,2,8000,7.408,,,160,,,,,,,,,,,wg-a,,,,AAXX 13214 07299 12858 /1604 10050 20020 39792 40121 53003 60006 84530 92100=
07299,1998-01-14 00:00:00,4,1013.2,0.9,87,2,7000,3.704,,,140,,,,,,,,,,,wg-a,,,,AAXX 14004 07299 12/57 21402 10040 20020 39801 40132 50009 60006 82030 90000=
07299,1998-01-14 06:00:00,4,1013.1,0.2,87,2,7000,3.704,,,90,1.1,6.2,,,,,,,,,wg-a,,,,AAXX 14064 07299 02757 70902 10040 20020 39800 40131 53002 60006 875// 90600 333 10062 20011 61000=
07299,1998-01-14 09:00:00,4,1015.3,2.1,87,2,500,7.408,,,140,,,,,,,,,,10,wg-a,,,,AAXX 14094 07299 12600 71404 10040 20020 39822 40153 51021 60006 71022 8553/ 90900=
07299,1998-01-14 12:00:00,9,1015.9,1.2,71,4,12000,14.816,,,230,,,,,,,,,,,wg-a,,,,AAXX 14124 07299 12662 72308 10090 20040 39833 40159 51012 60006 875// 91200=
07299,1998-01-14 15:00:00,8,1017.8,1.9,76,4,15000,14.816,,,240,,,,,,,,,,,wg-a,,,,AAXX 14154 07299 12665 72408 10080 20040 39851 40178 53019 60006 8553/ 91500=
07299,1998-01-14 18:00:00,7,1020.7,2.7,81,4,15000,11.112,,,230,3.2,9.4,,,,,,,,,wg-a,,,,AAXX 14184 07299 12665 72306 10070 20040 39878 40207 51027 60006 875// 91800 333 10094 20032=
07299,1998-01-14 21:00:00,5,1023.5,2.5,87,3,15000,11.112,,,240,,,,,,,,,,,wg-a,,,,AAXX 14214 07299 12665 32406 10050 20030 39903 40235 51025 60006 81502 92100=
07299,1998-01-15 00:00:00,2,1025.3,1.3,93,1,15000,3.704,,,330,,,,,,,,,,,wg-a,,,,AAXX 15004 07299 12665 43302 10020 20010 39916 40253 53013 60006 81502 90000=
07299,1998-01-15 06:00:00,0,1026,-0.2,100,0,8000,7.408,,,180,-0.3,7.4,,,,,,,,,wg-a,,,,AAXX 15064 07299 02558 61804 10000 20000 39921 40260 55002 60006 85501 90600 333 10074 21003 60004=
07299,1998-01-15 09:00:00,4,1025.5,-0.1,87,2,20000,7.408,,,150,,,,,,,,,,,wg-a,,,,AAXX 15094 07299 12570 71504 10040 20020 39920 40255 58001 60006 81532 90900=
07299,1998-01-15 12:00:00,7,1024.4,-0.7,70,2,20000,3.704,,,230,,,,,,,,,,,wg-a,,,,AAXX 15124 07299 12670 72302 10070 20020 39913 40244 58007 60006 8154/ 91200=
07299,1998-01-15 15:00:00,7,1023.7,-0.5,70,2,20000,3.704,,,280,,,,,,,,,,,wg-a,,,,AAXX 15154 07299 12/70 72802 10070 20020 39907 40237 56005 60006 8702/ 91500=
07299,1998-01-15 18:00:00,6,1022.9,-1,81,3,15000,0,,,0,-0.1,7.8,,,,,,,,60,wg-a,,,,AAXX 15184 07299 02665 70000 10060 20030 39898 40229 58010 61000 76062 875// 91800 333 10078 21001 6100=
07299,1998-01-16 00:00:00,5,1019.4,-1.6,87,3,15000,11.112,,,170,,,,,,,,,,2,wg-a,,,,AAXX 16004 07299 02665 71706 10050 20030 39862 40194 57016 61000 70262 875// 90000 333 ////=
07299,1998-01-16 03:00:00,5,1017.1,-2.1,93,4,15000,7.408,,,160,,,,1,,,,,,,wg-a,,,,AAXX 16034 07299 12665 71604 10050 20040 39840 40171 58021 60017 8257/ 90300=
07299,1998-01-16 06:00:00,7,1014.9,-1.9,87,5,15000,11.112,,,110,4.6,6.5,,,,,,,,61,wg-a,,,,AAXX 16064 07299 02665 71106 10070 20050 39821 40149 56019 61000 76162 8657/ 90600 333 10065 20046 6001=
07299,1998-01-16 12:00:00,7,1013.4,-0.4,100,7,7000,3.704,,,120,,,,5,,,,,,61,wg-a,,,,AAXX 16124 07299 02357 81202 10070 20070 39807 40134 58004 60056 76162 878// 91200 333 60057=
07299,1998-01-16 15:00:00,7,1012,-1.2,93,6,25000,7.408,,,100,,,,1,,,,,,21,wg-a,,,,AAXX 16154 07299 12475 81004 10070 20060 39794 40120 56012 60017 72162 878// 91500=
07299,1998-01-16 21:00:00,6,1016.4,3,93,5,20000,29.632,,,240,,,,2,,,,,,61,wg-a,,,,AAXX 16214 07299 12570 82416 10060 20050 39834 40164 52030 60027 76166 878// 92100=
07299,1998-01-17 00:00:00,6,1019.7,3.2,93,5,15000,29.632,,,250,,,,1,,,,,,2,wg-a,,,,AAXX 17004 07299 02565 82516 10060 20050 39867 40197 51032 60036 70262 878// 90000 333 60017=
07299,1998-01-17 03:00:00,5,1023.3,3.3,93,4,15000,25.928,,,260,,,,,,,,,,,wg-a,,,,AAXX 17034 07299 12665 72614 10050 20040 39900 40233 51033 60006 875// 90300=
07299,1998-01-17 06:00:00,3,1026.7,3.1,93,2,15000,3.704,,,100,1.6,7.3,,,,,9,,,,wg-a,,,,AAXX 17064 07299 02665 31002 10030 20020 39931 40267 52031 60006 83800 90600 333 10073 20030 60094=
07299,1998-01-17 09:00:00,5,1029,2.4,87,3,15000,18.52,,,250,,,,,,,,,,,wg-a,,,,AAXX 17094 07299 12665 /2510 10050 20030 39955 40290 51024 60006 86800 90900=
07299,1998-01-17 12:00:00,7,1029.9,1.1,76,3,18000,14.816,,,220,,,,,,,,,,,wg-a,,,,AAXX 17124 07299 12568 42208 10070 20030 39966 40299 51011 60006 84800 91200=
07299,1998-01-17 21:00:00,-1,1027.5,-1.1,100,-1,13000,11.112,,,180,,,,,,,,,,,wg-a,,,,AAXX 17214 07299 12/63 11806 11010 21010 39934 40275 58011 60006 80001 92100=
07299,1998-01-18 00:00:00,-2,1025.5,-2.1,100,-2,10000,11.112,,,180,,,,,,,,,,,wg-a,,,,AAXX 18004 07299 12/60 11806 11020 21020 39913 40255 56021 60006 80001 90000=
07299,1998-01-18 03:00:00,-2,1023,-2.4,100,-2,13000,11.112,,,160,,,,,,,,,,,wg-a,,,,AAXX 18034 07299 12/63 11606 11020 21020 39889 40230 58024 60006 80001 90300=
07299,1998-01-18 06:00:00,-2,1020.9,-2,100,-2,12000,11.112,,,160,-2.4,,,,,,,,,,wg-a,,,,AAXX 18064 07299 02/62 41606 11020 21020 39869 40209 56020 60006 80001 90600 333 10016 21024 60004=
07299,1998-01-18 09:00:00,2,1016.9,-3.4,75,-2,15000,11.112,,,130,,,,,,,,,,,wg-a,,,,AAXX 18094 07299 12/65 61306 10020 21020 39835 40169 58034 60006 83031 90900=
07299,1998-01-18 12:00:00,5,1012.1,-4.4,65,-1,15000,14.816,,,130,,,,,,,,,,,wg-a,,,,AAXX 18124 07299 12865 71308 10050 21010 39791 40121 58044 60006 8707/ 91200=
07299,1998-01-18 15:00:00,8,1009.1,-2.2,57,0,15000,14.816,,,240,,,,,,,,,,61,wg-a,,,,AAXX 18154 07299 02665 82408 10080 20000 39766 40091 55022 61000 76162 855// 91500 333 ////=
07299,1998-01-18 18:00:00,8,1008.7,-0.6,71,3,15000,22.224,,,230,-2.6,9.3,,,,,,,,61,wg-a,,,,AAXX 18184 07299 02665 82312 10080 20030 39762 40087 55006 61000 76162 875// 91800 333 10093 21026 6001=
07299,1998-01-18 21:00:00,7,1008.3,-0.5,70,2,20000,18.52,,,240,,,,,,,,,,1,wg-a,,,,AAXX 18214 07299 02770 /2410 10070 20020 39757 40083 58005 61000 70162 82530 92100 333 ////=
07299,1998-01-19 00:00:00,7,1002.2,-5.8,66,1,15000,7.408,,,100,,,,,,,,,,0,wg-a,,,,AAXX 19004 07299 02665 71004 10070 20010 39698 40022 58058 61000 70061 875// 90000 333 ////=
07299,1998-01-19 03:00:00,9,1,-8.5,71,4,15000,38.892,,62.968,210,,,,1,,,,,,61,wg-a,,,,AAXX 19034 07299 12765 82121 10090 20040 56085 60017 76162 8557/ 90300 333 91034=
07299,1998-01-19 06:00:00,6,999.9,6.3,81,3,18000,38.892,,61.116,250,5.7,9.1,,,,,,,,25,wg-a,,,,AAXX 19064 07299 02568 32521 10060 20030 39675 49999 53063 61000 72586 83200 90600 333 10091 20057 6003 91033=
07299,1998-01-19 09:00:00,6,1001.9,2,75,2,20000,22.224,,,200,,,,,,,,,,,wg-a,,,,AAXX 19094 07299 12570 72012 10060 20020 39695 40019 51020 60006 878// 90900=
07299,1998-01-19 15:00:00,6,1003.2,1,87,4,15000,29.632,,,250,,,,1,,,,,,61,wg-a,,,,AAXX 19154 07299 12565 82516 10060 20040 39707 40032 53010 60017 76166 8382/ 91500=
07299,1998-01-19 18:00:00,5,1006.3,3,93,4,15000,25.928,,,260,5.1,7.4,,,,,,,,60,wg-a,,,,AAXX 19184 07299 02465 82614 10050 20040 39736 40063 52030 61000 76066 8587/ 91800 333 10074 20051 6000=
07299,1998-01-20 00:00:00,4,1008,-0.6,87,2,11000,11.112,,,250,,,,,,,,,,,wg-a,,,,AAXX 20004 07299 12/61 /2506 10040 20020 39751 40080 58006 60006 90000=
07299,1998-01-20 03:00:00,1,1010,1.5,93,0,2000,14.816,,,310,,,,3,,,,,,71,wg-a,,,,AAXX 20034 07299 12320 73108 10010 20000 39766 40100 53015 60037 77172 877// 90300=
07299,1998-01-20 06:00:00,1,1014.2,4.1,86,-1,15000,22.224,,,250,0.3,5.4,,,,,4,,,2,wg-a,,,,AAXX 20064 07299 02665 /2512 10010 21010 39807 40142 53041 60006 70276 85500 90600 333 10054 20003 60044=
07299,1998-01-20 09:00:00,1,1017.4,3.2,80,-2,8000,25.928,,,250,,,,,,,,,,,wg-a,,,,AAXX 20094 07299 12458 72514 10010 21020 39838 40174 53032 60006 8682/ 90900=
07299,1998-01-20 12:00:00,2,1019.1,1.6,87,0,10000,29.632,,,250,,,,,,,,,,70,wg-a,,,,AAXX 20124 07299 02460 72516 10020 20000 39856 40191 51016 61000 77072 8682/ 91200 333 6100=
07299,1998-01-20 21:00:00,2,1025,2.6,100,2,9000,7.408,,,300,,,,1,,,,,,61,wg-a,,,,AAXX 20214 07299 12359 73004 10020 20020 39913 40250 52026 60017 76177 875// 92100=
07299,1998-01-21 00:00:00,2,1027.1,2.1,100,2,10000,11.112,,,220,,,,0,,,,,,23,wg-a,,,,AAXX 21004 07299 02260 72206 10020 20020 39934 40271 51021 60016 72376 877// 90000 333 60007=
07299,1998-01-21 03:00:00,3,1028.6,1.3,87,1,12000,22.224,,,360,,,,,,,,,,,wg-a,,,,AAXX 21034 07299 12462 73612 10030 20010 39948 40286 51013 60006 875// 90300=
07299,1998-01-21 06:00:00,2,1030.3,1.7,93,1,10000,22.224,,,350,1.2,2.8,,,,,2,,,,wg-a,,,,AAXX 21064 07299 02460 73512 10020 20010 39964 40303 53017 60006 875// 90600 333 10028 20017 60024=
07299,1998-01-21 09:00:00,2,1031.9,1.6,93,1,500,18.52,,,350,,,,,,,,,,,wg-a,,,,AAXX 21094 07299 12300 73510 10020 20010 39980 40319 51016 60006 878// 90900=
07299,1998-01-21 12:00:00,3,1031.9,0.1,87,1,7000,11.112,,,10,,,,,,,,,,,wg-a,,,,AAXX 21124 07299 12457 /0106 10030 20010 39981 40319 50001 60006 86800 91200=
07299,1998-01-21 15:00:00,3,1032.1,0.2,87,1,8000,18.52,,,340,,,,,,,,,,21,wg-a,,,,AAXX 21154 07299 02458 /3410 10030 20010 39983 40321 53002 61000 72162 86400 91500 333 ////=
07299,1998-01-21 21:00:00,1,1032.6,-0.1,93,0,8000,14.816,,,360,,,,,,,,,,,wg-a,,,,AAXX 21214 07299 12458 /3608 10010 20000 39985 40326 58001 60006 86800 92100=
07299,1998-01-22 00:00:00,-1,1032.1,-0.7,100,-1,8000,11.112,,,340,,,,,,,,,,,wg-a,,,,AAXX 22004 07299 12658 63406 11010 21010 39978 40321 58007 60006 86600 90000=
07299,1998-01-22 03:00:00,-2,1031.7,-0.6,100,-2,7000,3.704,,,340,,,,,,,,,,,wg-a,,,,AAXX 22034 07299 12757 43402 11020 21020 39972 40317 56006 60006 8/600 90300=
07299,1998-01-22 06:00:00,-3,1030.7,-1.1,93,-4,8000,7.408,,,310,-3.5,,,,,,,,,,wg-a,,,,AAXX 22064 07299 02/58 03104 11030 21040 39961 40307 56011 60006 80000 90600 333 10012 21035 61000=
07299,1998-01-22 09:00:00,-2,1030.4,-0,100,-2,500,0,,,0,,,,,,,,,,,wg-a,,,,AAXX 22094 07299 12600 /0000 11020 21020 39961 40304 55000 60006 86500 90900=
07299,1998-01-22 12:00:00,0,1028.6,-1.6,74,-4,15000,11.112,,,360,,,,,,,,,,,wg-a,,,,AAXX 22124 07299 12565 73606 10000 21040 39945 40286 58016 60006 878// 91200=
07299,1998-01-22 15:00:00,0,1026.9,-1.6,80,-3,8000,14.816,,,10,,,,,,,,,,,wg-a,,,,AAXX 22154 07299 12458 70108 10000 21030 39929 40269 56016 60006 875// 91500=
07299,1998-01-22 18:00:00,0,1026.2,-0.6,86,-2,7000,18.52,,,10,-3.8,0.9,,,,,,,,,wg-a,,,,AAXX 22184 07299 12557 80110 10000 21020 39922 40262 56006 60006 885// 91800 333 10009 21038=
07299,1998-01-22 21:00:00,0,1025.7,-0.5,86,-2,8000,14.816,,,350,,,,,,,,,,,wg-a,,,,AAXX 22214 07299 12558 83508 10000 21020 39917 40257 58005 60006 885// 92100=
07299,1998-01-23 03:00:00,0,1025.3,0.2,93,-1,7000,7.408,,,340,,,,,,,,,,,wg-a,,,,AAXX 23034 07299 12557 83404 10000 21010 39913 40253 53002 60006 885// 90300=
07299,1998-01-23 06:00:00,0,1025.6,0.3,93,-1,7000,3.704,,,340,-0.3,-0.1,,,,,,,,,wg-a,,,,AAXX 23064 07299 02557 83402 10000 21010 39916 40256 53003 60006 885// 90600 333 11001 21003 60004=
07299,1998-01-23 09:00:00,1,1026,0.5,75,-3,15000,7.408,,,90,,,,,,,,,,,wg-a,,,,AAXX 23094 07299 12565 80904 10010 21030 39921 40260 51005 60006 885// 90900=
07299,1998-01-23 12:00:00,2,1025.6,-0.3,69,-3,18000,11.112,,,100,,,,,,,,,,,wg-a,,,,AAXX 23124 07299 12568 81006 10020 21030 39918 40256 58003 60006 888// 91200=
07299,1998-01-23 15:00:00,2,1025,-0.5,69,-3,18000,3.704,,,90,,,,,,,,,,,wg-a,,,,AAXX 23154 07299 12568 80902 10020 21030 39913 40250 55005 60006 885// 91500=
07299,1998-01-23 18:00:00,1,1025.5,0.4,75,-3,18000,7.408,,,120,-0.1,1.8,,,,,,,,,wg-a,,,,AAXX 23184 07299 12568 81204 10010 21030 39917 40255 52004 60006 885// 91800 333 10018 21001=
07299,1998-01-23 21:00:00,1,1025.6,-0.1,80,-2,12000,3.704,,,80,,,,,,,,,,,wg-a,,,,AAXX 23214 07299 12562 80802 10010 21020 39917 40256 58001 60006 885// 92100=
07299,1998-01-24 00:00:00,1,1024.7,-0.8,80,-2,10000,7.408,,,110,,,,,,,,,,,wg-a,,,,AAXX 24004 07299 12560 81104 10010 21020 39909 40247 56008 60006 885// 90000=
07299,1998-01-24 03:00:00,1,1024,-0.7,86,-1,10000,3.704,,,20,,,,,,,,,,,wg-a,,,,AAXX 24034 07299 12460 80202 10010 21010 39902 40240 58007 60006 885// 90300=
07299,1998-01-24 06:00:00,1,1023.9,-0.2,93,0,4000,0,,,0,0.3,1.4,,,,,,,,10,wg-a,,,,AAXX 24064 07299 02240 80000 10010 20000 39900 40239 57002 60006 71022 886// 90600 333 10014 20003 60004=
07299,1998-01-24 09:00:00,0,1023.7,-0.2,100,0,2500,7.408,,,340,,,,,,,,,,10,wg-a,,,,AAXX 24094 07299 02225 83404 10000 20000 39898 40237 58002 61000 71052 886// 90900 333 ////=
07299,1998-01-24 12:00:00,0,1022.5,-1.2,93,-1,4000,18.52,,,350,,,,,,,,,,10,wg-a,,,,AAXX 24124 07299 02240 83510 10000 21010 39886 40225 58012 61000 71075 886// 91200 333 6100=
07299,1998-01-24 15:00:00,0,1021.7,-0.8,86,-2,500,18.52,,,350,,,,,,,,,,,wg-a,,,,AAXX 24154 07299 12300 83510 10000 21020 39878 40217 57008 60006 886// 91500=
07299,1998-01-24 18:00:00,-1,1021.9,0.1,93,-2,1500,11.112,,,350,-1.2,0.5,,,,,,,,10,wg-a,,1,,AAXX 24184 07299 02215 83506 11010 21020 39879 40219 51001 61000 71072 886// 91800 333 10005 21012 4/001 6000=
07299,1998-01-24 21:00:00,-1,1021.1,-0.8,93,-2,3500,11.112,,,330,,,,0,,,,,,10,wg-a,,,,AAXX 24214 07299 12335 83306 11010 21020 39871 40211 58008 60007 71072 875// 92100=
07299,1998-01-25 00:00:00,-2,1020.2,-0.9,100,-2,3000,7.408,,,320,,,,,,,,,,10,wg-a,,,,AAXX 25004 07299 02230 83204 11020 21020 39862 40202 58009 60006 71072 875// 90000 333 61000=
07299,1998-01-25 03:00:00,-1,1019.7,-0.4,93,-2,2500,3.704,,,350,,,,,,,,,,10,wg-a,,,,AAXX 25034 07299 02225 83502 11010 21020 39857 40197 56004 61000 71072 875// 90300 333 ////=
07299,1998-01-25 06:00:00,-2,1020.6,0.9,100,-2,3000,0,,,0,-1.9,-1.2,,,,,1,,,10,wg-a,,1,,AAXX 25064 07299 02330 80000 11020 21020 39866 40206 53009 60006 71072 875// 90600 333 11012 21019 4/001 60014=
07299,1998-01-25 09:00:00,0,1022.5,2,80,-3,10000,7.408,,,10,,,,,,,,,,,wg-a,,,,AAXX 25094 07299 12560 80104 10000 21030 39886 40225 52020 60006 885// 90900=
07299,1998-01-25 12:00:00,0,1023.7,1.2,80,-3,9000,11.112,,,10,,,,,,,,,,,wg-a,,,,AAXX 25124 07299 12559 80106 10000 21030 39898 40237 51012 60006 885// 91200=
07299,1998-01-25 15:00:00,1,1024.4,0.7,80,-2,10000,3.704,,,20,,,,,,,,,,,wg-a,,,,AAXX 25154 07299 12560 80202 10010 21020 39905 40244 53007 60006 885// 91500=
07299,1998-01-25 18:00:00,1,1025.9,1.5,69,-4,9000,7.408,,,70,-1.6,0.8,,,,,,,,,wg-a,,0,,AAXX 25184 07299 12559 80704 10010 21040 39920 40259 53015 60006 885// 91800 333 10008 21016 4/9999=
07299,1998-01-25 21:00:00,1,1027,1,69,-4,13000,7.408,,,70,,,,,,,,,,,wg-a,,,,AAXX 25214 07299 12563 80704 10010 21040 39930 40270 51010 60006 885// 92100=
07299,1998-01-26 00:00:00,1,1027.5,0.6,64,-5,13000,14.816,,,90,,,,,,,,,,,wg-a,,,,AAXX 26004 07299 12563 80908 10010 21050 39935 40275 51006 60006 885// 90000=
07299,1998-01-26 03:00:00,0,1027.7,0.1,69,-5,13000,14.816,,,110,,,,,,,,,,,wg-a,,,,AAXX 26034 07299 12563 81108 10000 21050 39936 40277 50001 60006 885// 90300=
07299,1998-01-26 06:00:00,-1,1028.4,0.6,69,-6,13000,7.408,,,60,-0.7,0.8,,,,,,,,,wg-a,,0,,AAXX 26064 07299 02563 80604 11010 21060 39942 40284 53006 60006 885// 90600 333 10008 21007 4/9999 60004=
07299,1998-01-26 09:00:00,-3,1029.5,0.8,93,-4,3500,11.112,,,340,,,,,,,,,,10,wg-a,,,,AAXX 26094 07299 12435 73406 11030 21040 39950 40295 51008 60006 71022 875// 90900=
07299,1998-01-26 12:00:00,0,1028.5,-0.6,64,-6,500,11.112,,,60,,,,,,,,,,,wg-a,,,,AAXX 26124 07299 12400 70606 10000 21060 39944 40285 58006 60006 875// 91200=
07299,1998-01-26 15:00:00,-1,1027.8,-0.8,69,-6,8000,14.816,,,100,,,,,,,,,,,wg-a,,,,AAXX 26154 07299 12558 71008 11010 21060 39936 40278 56008 60006 875// 91500=
07299,1998-01-26 18:00:00,-2,1028.1,0.2,69,-7,7000,14.816,,,110,-3.2,-0.2,,,,,,,,,wg-a,,,,AAXX 26184 07299 12557 71108 11020 21070 39938 40281 53002 60006 875// 91800 333 11002 21032=
07299,1998-01-26 21:00:00,-3,1027.8,-0.5,68,-8,7000,14.816,,,50,,,,,,,,,,,wg-a,,,,AAXX 26214 07299 12557 70508 11030 21080 39934 40278 57005 60006 875// 92100=
07299,1998-01-27 00:00:00,-3,1026.7,-1,68,-8,7000,11.112,,,60,,,,,,,,,,,wg-a,,,,AAXX 27004 07299 12557 80606 11030 21080 39923 40267 58010 60006 885// 90000=
07299,1998-01-27 03:00:00,-4,1025.4,-1.4,74,-8,6000,11.112,,,60,,,,,,,,,,,wg-a,,,,AAXX 27034 07299 12556 80606 11040 21080 39910 40254 58014 60006 885// 90300=
07299,1998-01-27 06:00:00,-3,1024.4,-0.9,74,-7,500,7.408,,,60,-3.7,-1.8,,,,,,,,,wg-a,,,,AAXX 27064 07299 02500 80604 11030 21070 39900 40244 57009 60006 885// 90600 333 11018 21037 60004=
07299,1998-01-27 09:00:00,-3,1024.2,0,74,-7,6000,11.112,,,50,,,,,,,,,,,wg-a,,,,AAXX 27094 07299 12456 80506 11030 21070 39899 40242 50000 60006 885// 90900=
07299,1998-01-27 12:00:00,-1,1023.3,-0.8,69,-6,7000,11.112,,,80,,,,,,,,,,,wg-a,,,,AAXX 27124 07299 12457 70806 11010 21060 39892 40233 58008 60006 875// 91200=
07299,1998-01-27 18:00:00,-4,1022.1,-0.2,93,-5,4000,3.704,,,360,-3.5,-0.5,,,,,,,,10,wg-a,,,,AAXX 27184 07299 12540 /3602 11040 21050 39878 40221 55002 60006 71011 81500 91800 333 11005 21035=
07299,1998-01-27 21:00:00,-5,1022.5,0.2,93,-6,4000,3.704,,,350,,,,,,,,,,10,wg-a,,,,AAXX 27214 07299 12/40 03502 11050 21060 39880 40225 52002 60006 71000 80000 92100=
07299,1998-01-28 00:00:00,-6,1022.5,-0.2,93,-7,3500,3.704,,,290,,,,,,,,,,10,wg-a,,,,AAXX 28004 07299 12/35 02902 11060 21070 39878 40225 58002 60006 71000 80000 90000=
07299,1998-01-28 03:00:00,-7,1021.4,-1.1,100,-7,3500,3.704,,,280,,,,,,,,,,10,wg-a,,,,AAXX 28034 07299 12/35 02802 11070 21070 39867 40214 57011 60006 71000 80000 90300=
07299,1998-01-28 06:00:00,-7,1021.5,-0,93,-8,3500,3.704,,,230,-7.6,-3.5,,,,,,,,10,wg-a,,,,AAXX 28064 07299 02335 32302 11070 21080 39867 40215 55000 60006 71000 83600 90600 333 11035 21076 60004=
07299,1998-01-28 12:00:00,-1,1021.1,-0.8,86,-3,3500,11.112,,,340,,,,,,,,,,10,wg-a,,,,AAXX 28124 07299 12435 /3406 11010 21030 39871 40211 58008 60006 71011 81500 91200=
07299,1998-01-28 14:00:00,0,1021.8,0.5,80,-3,75000,9.26,,,340,,,,,,,,,,10,wg-a,,,,AAXX 28144 07299 12/89 /3405 10000 21030 39876 40218 51005 60006 71022 80000 91400=
07299,1998-01-28 15:00:00,-1,1020.3,-0.8,86,-3,3200,7.408,,,330,,,,,,,,,,10,wg-a,,,,AAXX 28154 07299 12/32 23304 11010 21030 39863 40203 56008 60006 71000 80001 91500=
07299,1998-01-28 18:00:00,-3,1021.3,0.9,100,-3,2500,11.112,,,340,-7.4,-0.4,,,,,,,,10,wg-a,,,,AAXX 28184 07299 12225 83406 11030 21030 39871 40213 53009 60006 71011 886// 91800 333 11004 21074=
07299,1998-01-28 21:00:00,-2,1021.8,0.5,93,-3,2800,11.112,,,340,,,,,,,,,,10,wg-a,,,,AAXX 28214 07299 12228 83406 11020 21030 39876 40218 51005 60006 71022 886// 92100=
07299,1998-01-29 00:00:00,-3,1021.6,-0.2,100,-3,2800,7.408,,,340,,,,,,,,,,10,wg-a,,,,AAXX 29004 07299 12128 73404 11030 21030 39874 40216 56002 60006 71022 876// 90000=
07299,1998-01-29 06:00:00,-2,1022,0.6,93,-3,2800,3.704,,,340,-2.8,-2.2,,,,,,,,10,wg-a,,,,AAXX 29064 07299 02228 83402 11020 21030 39879 40220 53006 60006 71022 886// 90600 333 11022 21028 60004=
07299,1998-01-29 12:00:00,2,1022.4,-0.5,64,-4,6000,3.704,,,60,,,,,,,,,,,wg-a,,,,AAXX 29124 07299 12556 /0602 10020 21040 39887 40224 57005 60006 85800 91200=
07299,1998-01-29 15:00:00,0,1022.1,-0.5,80,-3,500,7.408,,,340,,,,,,,,,,,wg-a,,,,AAXX 29154 07299 12/00 /3404 10000 21030 39882 40221 57005 60006 91500=
07299,1998-01-29 18:00:00,0,1022.3,0.2,86,-2,4500,7.408,,,330,-2.3,2,,,,,,,,10,wg-a,,,,AAXX 29184 07299 12545 83304 10000 21020 39884 40223 50002 60006 71022 885// 91800 333 10020 21023=
07299,1998-01-29 21:00:00,-1,1022.1,-0.2,100,-1,2800,3.704,,,320,,,,,,,,,,10,wg-a,,,,AAXX 29214 07299 12528 83202 11010 21010 39882 40221 58002 60006 71022 885// 92100=
07299,1998-01-30 00:00:00,-1,1022.1,-0.2,100,-1,2200,3.704,,,330,,,,,,,,,,10,wg-a,,,,AAXX 30004 07299 12522 83302 11010 21010 39881 40221 57002 60006 71022 885// 90000=
07299,1998-01-30 03:00:00,0,1021.2,-0.8,80,-3,7000,7.408,,,70,,,,,,,,,,10,wg-a,,,,AAXX 30034 07299 12457 80704 10000 21030 39873 40212 57008 60006 71022 885// 90300=
07299,1998-01-30 06:00:00,-1,1021.4,0.2,80,-4,8000,7.408,,,40,-0.9,0,,,,,,,,,wg-a,,,,AAXX 30064 07299 02558 80404 11010 21040 39875 40214 53002 60006 885// 90600 333 10000 21009 60004=
07299,1998-01-30 09:00:00,0,1021.7,0.3,74,-4,10000,7.408,,,60,,,,,,,,,,,wg-a,,,,AAXX 30094 07299 12560 80604 10000 21040 39878 40217 51003 60006 885// 90900=
07299,1998-01-30 21:00:00,-4,1019.2,0,100,-4,500,3.704,,,330,,,,,,,,,,,wg-a,,,,AAXX 30214 07299 12/00 03302 11040 21040 39850 40192 50000 60006 80000 92100=
07299,1998-01-31 03:00:00,-4,1018.4,-0.9,100,-4,1500,0,,,0,,,,,,,,,,10,wg-a,,,,AAXX 31034 07299 12115 80000 11040 21040 39841 40184 57009 60006 71042 886// 90300=
07299,1998-01-31 06:00:00,-6,1018.4,-0.1,100,-6,700,7.408,,,330,-5.5,,,,,,,,,48,wg-a,,,,AAXX 31064 07299 02107 83304 11060 21060 39840 40184 55001 60006 74842 886// 90600 333 11019 21055 60004=
07299,1998-01-31 12:00:00,-3,1018.6,-0.6,100,-3,1800,7.408,,,330,,,,,,,,,,10,wg-a,,,,AAXX 31124 07299 12218 83304 11030 21030 39845 40186 58006 60006 71042 876// 91200=
07299,1998-01-31 15:00:00,-4,1018.3,-0.3,100,-4,1400,14.816,,,350,,,,,,,,,,10,wg-a,,,,AAXX 31154 07299 12114 83508 11040 21040 39841 40183 55003 60006 71022 876// 91500=
07299,1998-01-31 18:00:00,-3,1018.4,0.2,100,-3,1600,0,,,0,-5.8,-2.2,,,,,,,,10,wg-a,,,,AAXX 31184 07299 12216 80000 11030 21030 39843 40184 50002 60006 71022 886// 91800 333 11022 21058=
07299,1998-02-01 00:00:00,-2,1017.7,-0.6,93,-3,1700,7.408,,,320,,,,,,,,,,10,wg-a,,,,AAXX 01004 07299 12117 83204 11020 21030 39837 40177 57006 60006 71022 886// 90000=
07299,1998-02-01 03:00:00,-6,1018,-0.2,93,-7,3000,11.112,,,330,,,,,,,,,,10,wg-a,,,,AAXX 01034 07299 12130 73306 11060 21070 39835 40180 58002 60006 71022 876// 90300=
07299,1998-02-01 06:00:00,-7,1017.5,-0.6,93,-8,4000,14.816,,,340,-6.8,-2,,,,,,,,,wg-a,,,,AAXX 01064 07299 02/40 /3408 11070 21080 39829 40175 56006 60006 90600 333 11020 21068 60004=
07299,1998-02-01 09:00:00,-7,1018.2,0.7,86,-9,6000,14.816,,,340,,,,,,,,,,,wg-a,,,,AAXX 01094 07299 12556 83408 11070 21090 39836 40182 51007 60006 885// 90900=
07299,1998-02-01 12:00:00,-4,1016.8,-1,80,-7,500,14.816,,,330,,,,,,,,,,,wg-a,,,,AAXX 01124 07299 12500 /3308 11040 21070 39826 40168 58010 60006 83500 91200=
07299,1998-02-01 15:00:00,-3,1015.9,-0.7,80,-6,8000,11.112,,,330,,,,,,,,,,,wg-a,,,,AAXX 01154 07299 12558 /3306 11030 21060 39819 40159 56007 60006 81500 91500=
07299,1998-02-01 18:00:00,-5,1016.6,0.3,86,-7,500,11.112,,,330,-7.3,-2.7,,,,,,,,,wg-a,,,,AAXX 01184 07299 12/00 /3306 11050 21070 39822 40166 53003 60006 80001 91800 333 11027 21073=
07299,1998-02-01 21:00:00,-7,1016.3,-0.5,93,-8,7000,3.704,,,340,,,,,,,,,,,wg-a,,,,AAXX 01214 07299 12/57 03402 11070 21080 39817 40163 58005 60006 80000 92100=
07299,1998-02-02 00:00:00,-8,1016,-0.3,92,-9,500,3.704,,,190,,,,,,,,,,,wg-a,,,,AAXX 02004 07299 12/00 01902 11080 21090 39814 40160 58003 60006 80000 90000=
07299,1998-02-02 03:00:00,-8,1015.5,-0.6,92,-9,4000,0,,,0,,,,,,,,,,10,wg-a,,,,AAXX 02034 07299 12/40 00000 11080 21090 39808 40155 56006 60006 71000 80000 90300=
07299,1998-02-02 06:00:00,-9,1014.8,-0.6,100,-9,3500,7.408,,,340,-9,-5.4,,,,,,,,10,wg-a,,,,AAXX 02064 07299 02/35 03404 11090 21090 39801 40148 56006 60006 71000 80000 90600 333 11054 21090 60004=
07299,1998-02-02 09:00:00,-6,1014.6,0.1,93,-7,3500,0,,,0,,,,,,,,,,10,wg-a,,,,AAXX 02094 07299 12335 70000 11060 21070 39802 40146 50001 60006 71011 85602 90900=
07299,1998-02-02 12:00:00,-3,1012.6,-1.5,93,-4,3500,7.408,,,320,,,,,,,,,,,wg-a,,,,AAXX 02124 07299 12/35 /3204 11030 21040 39787 40126 56015 60006 91200=
07299,1998-02-02 15:00:00,-2,1011.7,-0.8,86,-4,4000,7.408,,,330,,,,,,,,,,10,wg-a,,,,AAXX 02154 07299 12540 73304 11020 21040 39780 40117 55008 60006 71022 875// 91500=
07299,1998-02-02 18:00:00,-2,1012.1,0.3,86,-4,4000,7.408,,,340,-8.8,-1.6,,,,,,,,10,wg-a,,,,AAXX 02184 07299 12540 73404 11020 21040 39783 40121 53003 60006 71022 875// 91800 333 11016 21088=
07299,1998-02-02 21:00:00,-2,1012.6,0.6,86,-4,4500,3.704,,,220,,,,,,,,,,10,wg-a,,,,AAXX 02214 07299 12445 82202 11020 21040 39788 40126 53006 60006 71022 885// 92100=
07299,1998-02-03 00:00:00,-2,1012.7,0,86,-4,4000,0,,,0,,,,,,,,,,10,wg-a,,,,AAXX 03004 07299 12340 80000 11020 21040 39789 40127 50000 60006 71022 886// 90000=
07299,1998-02-03 03:00:00,-2,1012.7,0,93,-3,4000,3.704,,,310,,,,,,,,,,10,wg-a,,,,AAXX 03034 07299 12340 83102 11020 21030 39789 40127 50000 60006 71022 886// 90300=
07299,1998-02-03 06:00:00,-2,1013.4,0.6,100,-2,1500,7.408,,,330,-2.4,-1.6,,,,,,,,28,wg-a,,,,AAXX 03064 07299 02115 83304 11020 21020 39795 40134 53006 60006 72842 886// 90600 333 11016 21024 60004=
07299,1998-02-03 09:00:00,-2,1014.6,1.1,86,-4,4000,3.704,,,30,,,,,,,,,,,wg-a,,,,AAXX 03094 07299 12/40 /0302 11020 21040 39807 40146 53011 60006 90900=
07299,1998-02-03 12:00:00,2,1013.7,-0.4,64,-4,4000,7.408,,,130,,,,,,,,,,10,wg-a,,,,AAXX 03124 07299 12440 /1304 10020 21040 39803 40137 58004 60006 71011 81500 91200=
07299,1998-02-03 15:00:00,2,1013.1,-0.6,69,-3,500,14.816,,,360,,,,,,,,,,,wg-a,,,,AAXX 03154 07299 12/00 03608 10020 21030 39797 40131 55006 60006 80000 91500=
07299,1998-02-03 18:00:00,-1,1013.8,0.4,86,-3,500,11.112,,,350,-2.7,3.5,,,,,,,,,wg-a,,,,AAXX 03184 07299 12/00 /3506 11010 21030 39801 40138 53004 60006 80000 91800 333 10035 21027=
07299,1998-02-03 21:00:00,-4,1015,0.8,93,-5,4000,11.112,,,300,,,,,,,,,,10,wg-a,,,,AAXX 03214 07299 12/40 03006 11040 21050 39809 40150 51008 60006 71000 80000 92100=
07299,1998-02-04 00:00:00,-6,1014.4,-0.8,100,-6,3500,7.408,,,300,,,,,,,,,,10,wg-a,,,,AAXX 04004 07299 12/35 03004 11060 21060 39801 40144 57008 60006 71000 80000 90000=
07299,1998-02-04 03:00:00,-6,1013.6,-0.8,100,-6,3500,3.704,,,310,,,,,,,,,,10,wg-a,,,,AAXX 04034 07299 12135 43102 11060 21060 39792 40136 58008 60006 71000 84600 90300=
07299,1998-02-04 06:00:00,-6,1013.6,0.1,100,-6,200,3.704,,,20,-6.3,-0.8,,,,,,,,47,wg-a,,,,AAXX 04064 07299 02/02 90202 11060 21060 39793 40136 53001 60006 74741 89/// 90600 333 11008 21063 60004=
07299,1998-02-04 09:00:00,-6,1014.5,0.8,100,-6,200,3.704,,,340,,,,,,,,,,47,wg-a,,,,AAXX 04094 07299 12/02 93402 11060 21060 39801 40145 51008 60006 74744 89/// 90900=
07299,1998-02-04 12:00:00,-4,1013.6,-0.6,100,-4,900,3.704,,,300,,,,,,,,,,42,wg-a,,,,AAXX 04124 07299 12109 73002 11040 21040 39795 40136 58006 60006 74244 876// 91200=
07299,1998-02-04 15:00:00,1,1013.1,0.3,64,-5,6000,7.408,,,10,,,,,,,,,,1,wg-a,,,,AAXX 04154 07299 12/56 00104 10010 21050 39797 40131 53003 60006 70141 80000 91500=
07299,1998-02-04 18:00:00,-2,1016.2,2.4,80,-5,6000,3.704,,,240,-6.3,2,,,,,,,,2,wg-a,,,,AAXX 04184 07299 12/56 02402 11020 21050 39822 40162 53024 60006 70241 80000 91800 333 10020 21063=
07299,1998-02-05 00:00:00,-6,1019.7,1,93,-7,4000,3.704,,,180,,,,,,,,,,10,wg-a,,,,AAXX 05004 07299 12/40 01802 11060 21070 39851 40197 51010 60006 71000 80000 90000=
07299,1998-02-05 03:00:00,-7,1020.3,0.6,100,-7,4000,7.408,,,190,,,,,,,,,,10,wg-a,,,,AAXX 05034 07299 12/40 01904 11070 21070 39857 40203 53006 60006 71000 80000 90300=
07299,1998-02-05 06:00:00,-7,1021.8,1.3,93,-8,4000,7.408,,,170,-7.1,-2.4,,,,,,,,10,wg-a,,,,AAXX 05064 07299 02/40 01704 11070 21080 39870 40218 51013 60006 71000 80000 90600 333 11024 21071 60004=
07299,1998-02-05 09:00:00,-4,1022.8,1.3,93,-5,3000,0,,,0,,,,,,,,,,10,wg-a,,,,AAXX 05094 07299 12/30 00000 11040 21050 39884 40228 51013 60006 71000 80000 90900=
07299,1998-02-05 12:00:00,3,1021.9,-0.1,60,-4,3500,3.704,,,50,,,,,,,,,,10,wg-a,,,,AAXX 05124 07299 12/35 00502 10030 21040 39883 40219 58001 60006 71000 80000 91200=
07299,1998-02-05 15:00:00,3,1021.4,-0.3,60,-4,4600,7.408,,,340,,,,,,,,,,10,wg-a,,,,AAXX 05154 07299 12/46 03404 10030 21040 39879 40214 55003 60006 71000 80000 91500=
07299,1998-02-05 18:00:00,-1,1023.1,1,80,-4,3000,3.704,,,270,-7.5,3.6,,,,,,,,10,wg-a,,,,AAXX 05184 07299 12/30 02702 11010 21040 39890 40231 53010 60006 71000 80000 91800 333 10036 21075=
07299,1998-02-06 00:00:00,-4,1025,0.5,93,-5,3500,7.408,,,140,,,,,,,,,,10,wg-a,,,,AAXX 06004 07299 12/35 01404 11040 21050 39905 40250 51005 60006 71000 80000 90000=
07299,1998-02-06 03:00:00,-6,1025.5,0.3,93,-7,3000,7.408,,,170,,,,,,,,,,10,wg-a,,,,AAXX 06034 07299 12/30 01704 11060 21070 39908 40255 50003 60006 71000 80000 90300=
07299,1998-02-06 06:00:00,-6,1026.1,0.5,93,-7,1500,3.704,,,200,-6.3,-1.5,,,,,,,,10,wg-a,,,,AAXX 06064 07299 02/15 02002 11060 21070 39913 40261 51005 60006 71000 80000 90600 333 11015 21063 60004=
07299,1998-02-06 12:00:00,4,1025.5,-0.4,52,-5,500,7.408,,,110,,,,,,,,,,,wg-a,,,,AAXX 06124 07299 12/00 21104 10040 21050 39919 40255 58004 60006 80002 91200=
07299,1998-02-06 15:00:00,5,1024.5,-0.9,48,-5,8000,11.112,,,90,,,,,,,,,,,wg-a,,,,AAXX 06154 07299 12/58 /0906 10050 21050 39911 40245 56009 60006 80001 91500=
07299,1998-02-06 18:00:00,1,1025.3,0.4,69,-4,4500,7.408,,,70,-6.9,6,,,,,,,,10,wg-a,,,,AAXX 06184 07299 12/45 00704 10010 21040 39914 40253 53004 60006 71000 80000 91800 333 10060 21069=
07299,1998-02-06 21:00:00,-2,1025.8,0.1,86,-4,4000,3.704,,,250,,,,,,,,,,10,wg-a,,,,AAXX 06214 07299 12/40 02502 11020 21040 39915 40258 50001 60006 71000 80000 92100=
07299,1998-02-07 00:00:00,-4,1025.6,-0.4,86,-6,3000,11.112,,,180,,,,,,,,,,10,wg-a,,,,AAXX 07004 07299 12/30 01806 11040 21060 39911 40256 56004 60006 71000 80000 90000=
07299,1998-02-07 03:00:00,-5,1026.2,0.3,86,-7,3000,11.112,,,180,,,,,,,,,,10,wg-a,,,,AAXX 07034 07299 12/30 01806 11050 21070 39915 40262 51003 60006 71000 80000 90300=
07299,1998-02-07 06:00:00,-5,1026.1,-0,93,-6,3000,11.112,,,170,-5.7,0.6,,,,,,,,10,wg-a,,,,AAXX 07064 07299 02/30 31706 11050 21060 39914 40261 55000 60006 71000 80001 90600 333 10006 21057 60004=
07299,1998-02-07 09:00:00,-1,1025.9,0.3,80,-4,2500,11.112,,,160,,,,,,,,,,10,wg-a,,,,AAXX 07094 07299 12/25 71606 11010 21040 39917 40259 51003 60006 71011 81032 90900=
07299,1998-02-07 12:00:00,2,1024.9,-0.5,69,-3,3500,7.408,,,150,,,,,,,,,,10,wg-a,,,,AAXX 07124 07299 12/35 71504 10020 21030 39912 40249 58005 60006 71011 86032 91200=
07299,1998-02-07 15:00:00,5,1024.6,-0,52,-4,0,3.704,,,150,,,,,,,,,,,wg-a,,,,AAXX 07154 07299 127// 71502 10050 21040 39912 40246 55000 60006 8357/ 91500=
07299,1998-02-07 18:00:00,2,1027.5,2.4,93,1,500,11.112,,,260,-6,5,,,,,,,,60,wg-a,,,,AAXX 07184 07299 02600 72606 10020 20010 39937 40275 53024 61000 76062 8657/ 91800 333 10050 21060 6000=
07299,1998-02-07 21:00:00,2,1029.7,2.1,93,1,500,7.408,,,210,,,,0,,,,,,1,wg-a,,,,AAXX 07214 07299 12400 72104 10020 20010 39958 40297 51021 60007 70162 875// 92100=
07299,1998-02-08 00:00:00,2,1031,1.3,93,1,500,14.816,,,240,,,,,,,,,,1,wg-a,,,,AAXX 08004 07299 12700 72408 10020 20010 39971 40310 51013 60006 70162 875// 90000=
07299,1998-02-08 06:00:00,-2,1033.4,0.8,100,-2,3000,3.704,,,160,-1.9,2.6,,,,,1,,,10,wg-a,,,,AAXX 08064 07299 02/30 11602 11020 21020 39989 40334 51008 60006 71011 80001 90600 333 10026 21019 60014=
07299,1998-02-08 12:00:00,7,1032.3,-0.9,61,0,7000,7.408,,,110,,,,,,,,,,3,wg-a,,,,AAXX 08124 07299 12657 /1104 10070 20000 39989 40323 58009 60006 70340 81101 91200=
07299,1998-02-08 15:00:00,9,1030.9,-1.1,46,-2,18000,3.704,,,90,,,,,,,,,,,wg-a,,,,AAXX 08154 07299 12668 20902 10090 21020 39978 40309 57011 60006 81201 91500=
07299,1998-02-08 18:00:00,2,1032.2,0.4,69,-3,15000,3.704,,,170,-2.6,9.1,,,,,,,,,wg-a,,,,AAXX 08184 07299 12/65 11702 10020 21030 39982 40322 53004 60006 80001 91800 333 10091 21026=
07299,1998-02-08 21:00:00,-1,1032.9,0.3,86,-3,15000,3.704,,,160,,,,,,,,,,,wg-a,,,,AAXX 08214 07299 12/65 01602 11010 21030 39985 40329 51003 60006 80000 92100=
07299,1998-02-09 00:00:00,-3,1032.9,-0.2,93,-4,15000,7.408,,,180,,,,,,,,,,,wg-a,,,,AAXX 09004 07299 12/65 01804 11030 21040 39983 40329 58002 60006 80000 90000=
07299,1998-02-09 03:00:00,-3,1032.2,-0.6,100,-3,15000,3.704,,,190,,,,,,,,,,,wg-a,,,,AAXX 09034 07299 12/65 01902 11030 21030 39977 40322 58006 60006 80000 90300=
07299,1998-02-09 06:00:00,-3,1032.4,0.1,86,-5,15000,14.816,,,170,-3.5,1.5,,,,,,,,,wg-a,,,,AAXX 09064 07299 02/65 11708 11030 21050 39978 40324 53001 60006 80001 90600 333 10015 21035 60004=
07299,1998-02-09 09:00:00,3,1032.3,0.8,75,-1,7000,11.112,,,150,,,,,,,,,,,wg-a,,,,AAXX 09094 07299 12/57 21506 10030 21010 39985 40323 51008 60006 80001 90900=
07299,1998-02-09 12:00:00,9,1030.7,-0.9,46,-2,8000,11.112,,,120,,,,,,,,,,,wg-a,,,,AAXX 09124 07299 12/58 /1206 10090 21020 39976 40307 58009 60006 80001 91200=
07299,1998-02-09 15:00:00,12,1029.5,-0.8,35,-3,12000,7.408,,,150,,,,,,,,,,,wg-a,,,,AAXX 09154 07299 12/62 21504 10120 21030 39968 40295 55008 60006 80001 91500=
07299,1998-02-09 17:00:00,9,1031,0.6,43,-3,16000,7.408,,,160,-3.8,12.3,,,,,,,,,wg-a,,,,AAXX 09174 07299 12/66 31604 10090 21030 39974 40310 52006 60006 91700 333 10123 21038=
07299,1998-02-09 18:00:00,5,1031,0.6,65,-1,16000,7.408,,,160,-3.8,12.3,,,,,,,,,wg-a,,,,AAXX 09184 07299 12/66 31604 10050 21010 39974 40310 52006 60006 80001 91800 333 10123 21038=
07299,1998-02-09 21:00:00,0,1032.2,0.6,86,-2,12000,14.816,,,190,,,,,,,,,,,wg-a,,,,AAXX 09214 07299 12/62 21908 10000 21020 39980 40322 53006 60006 80001 92100=
07299,1998-02-10 00:00:00,0,1032.8,0.5,86,-2,12000,14.816,,,170,,,,,,,,,,,wg-a,,,,AAXX 10004 07299 12/62 21708 10000 21020 39985 40328 52005 60006 80001 90000=
07299,1998-02-10 03:00:00,-1,1033.2,0.3,86,-3,15000,14.816,,,170,,,,,,,,,,,wg-a,,,,AAXX 10034 07299 12/65 31708 11010 21030 39988 40332 52003 60006 80001 90300=
07299,1998-02-10 06:00:00,-1,1033.9,0.7,86,-3,12000,11.112,,,160,-1.8,4.9,,,,,,,,,wg-a,,,,AAXX 10064 07299 02/62 51606 11010 21030 39995 40339 53007 60006 80001 90600 333 10049 21018 60004=
07299,1998-02-10 12:00:00,10,1033.1,-0.4,40,-3,17000,7.408,,,110,,,,,,,,,,,wg-a,,,,AAXX 10124 07299 12/67 41104 10100 21030 30001 40331 58004 60006 80002 91200=
07299,1998-02-10 15:00:00,14,1031,-1.6,31,-3,19000,7.408,,,110,,,,,,,,,,,wg-a,,,,AAXX 10154 07299 12/69 21104 10140 21030 39985 40310 56016 60006 81032 91500=
07299,1998-02-10 18:00:00,3,1032.3,-0,75,-1,18000,3.704,,,200,-2.2,14.3,,,,,,,,,wg-a,,,,AAXX 10184 07299 12/68 32002 10030 21010 39985 40323 55000 60006 80002 91800 333 10143 21022=
07299,1998-02-10 21:00:00,1,1034.2,1.6,75,-3,14000,14.816,,,170,,,,,,,,,,,wg-a,,,,AAXX 10214 07299 12/64 11708 10010 21030 30000 40342 53016 60006 80001 92100=
07299,1998-02-11 00:00:00,1,1034.9,0.6,80,-2,13000,14.816,,,160,,,,,,,,,,,wg-a,,,,AAXX 11004 07299 12/63 31608 10010 21020 30007 40349 50006 60006 80001 90000=
07299,1998-02-11 06:00:00,-1,1035.2,0.4,86,-3,12000,18.52,,,160,-2,3.9,,,,,,,,,wg-a,,,,AAXX 11064 07299 02/62 01610 11010 21030 30008 40352 53004 60006 80000 90600 333 10039 21020 60004=
07299,1998-02-11 12:00:00,12,1033.3,-1.5,40,-1,12000,11.112,,,160,,,,,,,,,,,wg-a,,,,AAXX 11124 07299 12/62 21606 10120 21010 30005 40333 58015 60006 80001 91200=
07299,1998-02-11 15:00:00,16,1031,-1.7,27,-3,500,0,,,0,,,,,,,,,,,wg-a,,,,AAXX 11154 07299 12/00 50000 10160 21030 39987 40310 56017 60006 81031 91500=
07299,1998-02-11 18:00:00,4,1033.5,1,75,0,10000,7.408,,,190,-1.9,16.8,,,,,,,,,wg-a,,,,AAXX 11184 07299 12/60 /1904 10040 20000 39997 40335 53010 60006 91800 333 10168 21019=
07299,1998-02-11 21:00:00,5,1033.9,0.7,70,0,12000,11.112,,,150,,,,,,,,,,,wg-a,,,,AAXX 11214 07299 12/62 21506 10050 20000 30003 40339 53007 60006 80001 92100=
07299,1998-02-12 00:00:00,1,1034.6,0,86,-1,13000,14.816,,,170,,,,,,,,,,,wg-a,,,,AAXX 12004 07299 12/63 01708 10010 21010 30005 40346 50000 60006 80000 90000=
07299,1998-02-12 03:00:00,1,1034.7,0.1,80,-2,15000,11.112,,,160,,,,,,,,,,,wg-a,,,,AAXX 12034 07299 12/65 21606 10010 21020 30005 40347 52001 60006 80001 90300=
07299,1998-02-12 06:00:00,0,1035.9,1.1,86,-2,16000,11.112,,,160,-0.7,6.1,,,,,,,,,wg-a,,,,AAXX 12064 07299 02/66 71606 10000 21020 30016 40359 53011 60006 81032 90600 333 10061 21007 60004=
07299,1998-02-12 09:00:00,3,1036.5,0.9,81,0,25000,7.408,,,170,,,,,,,,,,,wg-a,,,,AAXX 12094 07299 12/75 51704 10030 20000 30025 40365 51009 60006 81032 90900=
07299,1998-02-12 12:00:00,13,1034.2,-1,41,0,35000,7.408,,,120,,,,,,,,,,,wg-a,,,,AAXX 12124 07299 12/81 51204 10130 20000 30015 40342 58010 60006 81032 91200=
07299,1998-02-12 15:00:00,16,1033.1,-0.8,34,0,40000,3.704,,,160,,,,,,,,,,,wg-a,,,,AAXX 12154 07299 12/82 51602 10160 20000 30007 40331 56008 60006 81032 91500=
07299,1998-02-12 18:00:00,6,1034.6,0.4,70,1,500,7.408,,,190,-0.6,16.6,,,,,,,,,wg-a,,,,AAXX 12184 07299 12/00 51904 10060 20010 30011 40346 53004 60006 81032 91800 333 10166 21006=
07299,1998-02-12 21:00:00,4,1035.7,0.7,75,0,18000,11.112,,,150,,,,,,,,,,,wg-a,,,,AAXX 12214 07299 12/68 11506 10040 20000 30018 40357 51007 60006 80001 92100=
07299,1998-02-13 00:00:00,1,1036.2,0.2,86,-1,18000,14.816,,,170,,,,,,,,,,,wg-a,,,,AAXX 13004 07299 12/68 01708 10010 21010 30020 40362 53002 60006 80000 90000=
07299,1998-02-13 03:00:00,1,1036.3,0.1,86,-1,18000,11.112,,,170,,,,,,,,,,,wg-a,,,,AAXX 13034 07299 12/68 11706 10010 21010 30021 40363 51001 60006 80001 90300=
07299,1998-02-13 09:00:00,6,1036.7,0.9,70,1,18000,11.112,,,150,,,,,,,,,,,wg-a,,,,AAXX 13094 07299 12/68 11506 10060 20010 30031 40367 51009 60006 80001 90900=
07299,1998-02-13 12:00:00,13,1035.4,-0.4,47,2,18000,7.408,,,170,,,,,,,,,,,wg-a,,,,AAXX 13124 07299 12/68 21704 10130 20020 30027 40354 58004 60006 80001 91200=
07299,1998-02-13 15:00:00,15,1034,-1.1,44,3,18000,11.112,,,10,,,,,,,,,,,wg-a,,,,AAXX 13154 07299 12/68 30106 10150 20030 30016 40340 56011 60006 80001 91500=
07299,1998-02-13 18:00:00,9,1034.8,-0,66,3,25000,0,,,0,-0.3,15.6,,,,,,,,,wg-a,,,,AAXX 13184 07299 12/75 40000 10090 20030 30016 40348 55000 60006 80001 91800 333 10156 21003=
07299,1998-02-13 21:00:00,3,1036.1,0.6,93,2,25000,0,,,0,,,,,,,,,,,wg-a,,,,AAXX 13214 07299 12/75 30000 10030 20020 30022 40361 51006 60006 80001 92100=
07299,1998-02-14 00:00:00,1,1036.6,0.2,100,1,25000,3.704,,,170,,,,,,,,,,,wg-a,,,,AAXX 14004 07299 12/75 11702 10010 20010 30024 40366 50002 60006 80001 90000=
07299,1998-02-14 03:00:00,2,1036.1,-0.4,93,1,15000,3.704,,,150,,,,,,,,,,,wg-a,,,,AAXX 14034 07299 12/65 11502 10020 20010 30020 40361 57004 60006 80001 90300=
07299,1998-02-14 06:00:00,0,1036.5,0.2,100,0,12000,3.704,,,180,-0.4,8.2,,,,,,,,,wg-a,,,,AAXX 14064 07299 02/62 21802 10000 20000 30022 40365 51002 60006 80001 90600 333 10082 21004 60004=
07299,1998-02-14 09:00:00,5,1036.3,0.4,87,3,7000,7.408,,,170,,,,,,,,,,,wg-a,,,,AAXX 14094 07299 12/57 /1704 10050 20030 30026 40363 50004 60006 80001 90900=
07299,1998-02-14 12:00:00,13,1034.2,-1.1,67,7,8000,0,,,0,,,,,,,,,,,wg-a,,,,AAXX 14124 07299 12/58 00000 10130 20070 30015 40342 58011 60006 80000 91200=
07299,1998-02-14 15:00:00,16,1032.5,-1.3,59,8,11000,11.112,,,310,,,,,,,,,,,wg-a,,,,AAXX 14154 07299 12/61 03106 10160 20080 30002 40325 56013 60006 80000 91500=
07299,1998-02-14 18:00:00,8,1033.8,0.3,87,6,10000,7.408,,,200,0.1,16,,,,,,,,,wg-a,,,,AAXX 14184 07299 12/60 02004 10080 20060 30005 40338 52003 60006 80000 91800 333 10160 20001=
07299,1998-02-14 21:00:00,4,1036.3,1.9,93,3,10000,3.704,,,200,,,,,,,,,,,wg-a,,,,AAXX 14214 07299 12/60 12002 10040 20030 30024 40363 51019 60006 80001 92100=
07299,1998-02-15 00:00:00,4,1035.5,-0.8,93,3,10000,7.408,,,170,,,,,,,,,,,wg-a,,,,AAXX 15004 07299 12/60 11704 10040 20030 30016 40355 57008 60006 80001 90000=
07299,1998-02-15 03:00:00,1,1035.2,-0.6,93,0,11000,11.112,,,190,,,,,,,,,,,wg-a,,,,AAXX 15034 07299 12/61 11906 10010 20000 30010 40352 58006 60006 80001 90300=
07299,1998-02-15 06:00:00,2,1035.4,0.4,100,2,8000,14.816,,,150,0.5,7.7,,,,,,,,,wg-a,,,,AAXX 15064 07299 02/58 11508 10020 20020 30014 40354 50004 60006 80001 90600 333 10077 20005 60004=
07299,1998-02-15 09:00:00,6,1035.7,0.9,93,5,500,11.112,,,160,,,,,,,,,,,wg-a,,,,AAXX 15094 07299 12/00 01606 10060 20050 30022 40357 50009 60006 80000 90900=
07299,1998-02-15 12:00:00,15,1033.2,-1.5,59,7,6000,3.704,,,60,,,,,,,,,,,wg-a,,,,AAXX 15124 07299 12/56 20602 10150 20070 30007 40332 58015 60006 80001 91200=
07299,1998-02-15 15:00:00,16,1031.5,-1.5,55,7,12000,7.408,,,340,,,,,,,,,,,wg-a,,,,AAXX 15154 07299 12/62 /3404 10160 20070 39992 40315 56015 60006 80002 91500=
07299,1998-02-15 18:00:00,8,1031.8,-0.5,87,6,22000,3.704,,,230,0.5,17.3,,,,,,,,,wg-a,,,,AAXX 15184 07299 12/72 22302 10080 20060 39987 40318 57005 60006 80001 91800 333 10173 20005=
07299,1998-02-15 21:00:00,4,1031,-1.3,100,4,20000,7.408,,,190,,,,,,,,,,,wg-a,,,,AAXX 15214 07299 12/70 21904 10040 20040 39974 40310 58013 60006 80001 92100=
07299,1998-02-16 00:00:00,3,1030.3,-0.9,93,2,15000,7.408,,,170,,,,,,,,,,,wg-a,,,,AAXX 16004 07299 12/65 21704 10030 20020 39965 40303 57009 60006 80001 90000=
07299,1998-02-16 03:00:00,1,1029.4,-1,100,1,12000,11.112,,,160,,,,,,,,,,,wg-a,,,,AAXX 16034 07299 12/62 21606 10010 20010 39955 40294 58010 60006 80001 90300=
07299,1998-02-16 06:00:00,2,1029.4,-0,93,1,12000,11.112,,,180,0.9,8.2,,,,,,,,,wg-a,,,,AAXX 16064 07299 02/62 61806 10020 20010 39955 40294 54000 60006 80001 90600 333 10082 20009 60004=
07299,1998-02-16 09:00:00,6,1028.3,-0.6,87,4,12000,3.704,,,170,,,,,,,,,,,wg-a,,,,AAXX 16094 07299 12/62 61702 10060 20040 39949 40283 57006 60006 81041 90900=
07299,1998-02-16 12:00:00,10,1025.8,-1.9,66,4,8000,3.704,,,150,,,,,,,,,,,wg-a,,,,AAXX 16124 07299 12758 71502 10100 20040 39930 40258 56019 60006 8457/ 91200=
07299,1998-02-16 15:00:00,14,1024.3,-1.1,55,5,20000,7.408,,,190,,,,,,,,,,,wg-a,,,,AAXX 16154 07299 12770 71904 10140 20050 39920 40243 56011 60006 84532 91500=
07299,1998-02-16 18:00:00,12,1025,0.6,71,7,15000,11.112,,,280,1.4,15.1,,,,,,,,,wg-a,,,,AAXX 16184 07299 12665 72806 10120 20070 39925 40250 53006 60006 8457/ 91800 333 10151 20014=
07299,1998-02-16 21:00:00,10,1027.5,2.2,82,7,18000,14.816,,,250,,,,,,,,,,,wg-a,,,,AAXX 16214 07299 12668 72508 10100 20070 39947 40275 52022 60006 8657/ 92100=
07299,1998-02-17 00:00:00,8,1029.3,1.5,71,3,20000,18.52,,,240,,,,,,,,,,,wg-a,,,,AAXX 17004 07299 12670 22410 10080 20030 39962 40293 53015 60006 82500 90000=
07299,1998-02-17 03:00:00,8,1029.9,0.6,76,4,20000,14.816,,,230,,,,,,,,,,,wg-a,,,,AAXX 17034 07299 12770 72308 10080 20040 39967 40299 51006 60006 875// 90300=
07299,1998-02-17 06:00:00,8,1030.9,1.1,76,4,20000,25.928,,,260,7.1,12.2,,,,,,,,,wg-a,,,,AAXX 17064 07299 02670 82614 10080 20040 39977 40309 53011 60006 875// 90600 333 10122 20071 60004=
07299,1998-02-17 09:00:00,8,1032.9,1.8,81,5,15000,18.52,,,250,,,,,,,,,,,wg-a,,,,AAXX 17094 07299 12565 72510 10080 20050 39996 40329 53018 60006 875// 90900=
07299,1998-02-17 12:00:00,9,1034.7,1.9,81,6,15000,3.704,,,320,,,,,,,,,,,wg-a,,,,AAXX 17124 07299 12465 83202 10090 20060 30015 40347 51019 60006 8687/ 91200=
07299,1998-02-17 15:00:00,9,1035.3,0.6,76,5,11000,7.408,,,340,,,,,,,,,,,wg-a,,,,AAXX 17154 07299 12/61 /3404 10090 20050 30021 40353 53006 60006 91500=
07299,1998-02-17 18:00:00,5,1037,1.2,93,4,13000,11.112,,,310,5,9.7,,,,,,,,,wg-a,,,,AAXX 17184 07299 12763 /3106 10050 20040 30033 40370 52012 60006 81500 91800 333 10097 20050=
07299,1998-02-17 21:00:00,2,1038.3,0.8,100,2,10000,3.704,,,310,,,,,,,,,,,wg-a,,,,AAXX 17214 07299 12/60 03102 10020 20020 30041 40383 52008 60006 80000 92100=
07299,1998-02-18 00:00:00,0,1038.9,0.5,100,0,3000,0,,,0,,,,,,,,,,10,wg-a,,,,AAXX 18004 07299 12/30 00000 10000 20000 30045 40389 53005 60006 71000 80000 90000=
07299,1998-02-18 03:00:00,2,1038.3,-0.5,100,2,4000,0,,,0,,,,,,,,,,10,wg-a,,,,AAXX 18034 07299 12140 70000 10020 20020 30041 40383 58005 60006 71011 876// 90300=
07299,1998-02-18 06:00:00,-1,1038.3,-0.3,100,-1,4000,3.704,,,300,-0.7,5.1,,,,,,,,10,wg-a,,,,AAXX 18064 07299 02/40 /3002 11010 21010 30038 40383 58003 60006 71011 80000 90600 333 10051 21007 60004=
07299,1998-02-18 09:00:00,5,1037.5,-0.1,87,3,8000,7.408,,,40,,,,,,,,,,,wg-a,,,,AAXX 18094 07299 12558 /0404 10050 20030 30037 40375 58001 60006 81500 90900=
07299,1998-02-18 12:00:00,11,1035.3,-1.4,58,3,18000,14.816,,,100,,,,,,,,,,,wg-a,,,,AAXX 18124 07299 12/68 01008 10110 20030 30023 40353 58014 60006 80000 91200=
07299,1998-02-18 15:00:00,12,1032.9,-2.2,44,0,40000,14.816,,,100,,,,,,,,,,,wg-a,,,,AAXX 18154 07299 12/82 01008 10120 20000 30001 40329 56022 60006 80000 91500=
07299,1998-02-18 18:00:00,8,1033.4,-0.1,61,1,20000,3.704,,,130,-0.9,12.6,,,,,,,,,wg-a,,,,AAXX 18184 07299 12/70 01302 10080 20010 30001 40334 57001 60006 80000 91800 333 10126 21009=
07299,1998-02-18 21:00:00,5,1032.6,-1,81,2,12000,7.408,,,160,,,,,,,,,,,wg-a,,,,AAXX 18214 07299 12/62 01604 10050 20020 39990 40326 57010 60006 80000 92100=
07299,1998-02-19 00:00:00,3,1032.7,-0.2,87,1,10000,14.816,,,170,,,,,,,,,,,wg-a,,,,AAXX 19004 07299 12/60 01708 10030 20010 39988 40327 56002 60006 80000 90000=
07299,1998-02-19 03:00:00,0,1032.7,-0.3,93,-1,10000,14.816,,,180,,,,,,,,,,,wg-a,,,,AAXX 19034 07299 12/60 01808 10000 21010 39985 40327 58003 60006 80000 90300=
07299,1998-02-19 06:00:00,0,1032.8,-0.1,100,0,500,11.112,,,190,-0.3,7.7,,,,,,,,,wg-a,,,,AAXX 19064 07299 02/00 11906 10000 20000 39986 40328 56001 60006 81030 90600 333 10077 21003 60004=
07299,1998-02-19 09:00:00,5,1033.5,1.4,87,3,500,7.408,,,150,,,,,,,,,,,wg-a,,,,AAXX 19094 07299 12/00 01504 10050 20030 39999 40335 51014 60006 80000 90900=
07299,1998-02-19 12:00:00,14,1030.9,-1.2,77,10,11000,25.928,,,270,,,,,,,,,,,wg-a,,,,AAXX 19124 07299 12/61 12714 10140 20100 39998 40309 58012 60006 80001 91200=
07299,1998-02-19 15:00:00,14,1030.7,-1.1,55,5,12000,18.52,,,280,,,,,,,,,,,wg-a,,,,AAXX 19154 07299 12/62 02810 10140 20050 39982 40307 56011 60006 80000 91500=
07299,1998-02-19 18:00:00,9,1031.4,0.2,71,4,11000,3.704,,,290,0.1,15,,,,,,,,,wg-a,,,,AAXX 19184 07299 12/61 02902 10090 20040 39984 40314 53002 60006 80000 91800 333 10150 20001=
07299,1998-02-19 21:00:00,4,1032.2,0.2,93,3,9000,0,,,0,,,,,,,,,,,wg-a,,,,AAXX 19214 07299 12/59 00000 10040 20030 39985 40322 53002 60006 80000 92100=
07299,1998-02-20 00:00:00,1,1032,-0.7,100,1,8000,7.408,,,190,,,,,,,,,,,wg-a,,,,AAXX 20004 07299 12/58 01904 10010 20010 39979 40320 58007 60006 80000 90000=
07299,1998-02-20 03:00:00,-1,1030.4,-1.8,100,-1,4000,3.704,,,250,,,,,,,,,,10,wg-a,,,,AAXX 20034 07299 12/40 02502 11010 21010 39962 40304 58018 60006 71000 80000 90300=
07299,1998-02-20 06:00:00,-1,1029.1,-1.2,100,-1,500,3.704,,,260,-1.4,9.2,,,,,,,,,wg-a,,,,AAXX 20064 07299 02/00 02602 11010 21010 39949 40291 56012 60006 80000 90600 333 10092 21014 60004=
07299,1998-02-20 09:00:00,6,1027,-1.1,93,5,4500,3.704,,,240,,,,,,,,,,10,wg-a,,,,AAXX 20094 07299 12/45 /2402 10060 20050 39938 40270 58011 60006 71000 80002 90900=
07299,1998-02-20 12:00:00,16,1023.8,-2,45,4,16000,7.408,,,140,,,,,,,,,,,wg-a,,,,AAXX 20124 07299 12/66 21404 10160 20040 39917 40238 58020 60006 80002 91200=
07299,1998-02-20 15:00:00,17,1021.5,-2.1,39,3,16000,7.408,,,110,,,,,,,,,,,wg-a,,,,AAXX 20154 07299 12/66 71104 10170 20030 39896 40215 56021 60006 80006 91500=
07299,1998-02-20 18:00:00,9,1022.3,-0,71,4,10000,7.408,,,160,-1.2,17.6,,,,,,,,,wg-a,,,,AAXX 20184 07299 12/60 61604 10090 20040 39896 40223 55000 60006 80002 91800 333 10176 21012=
07299,1998-02-20 21:00:00,7,1022.2,-0.4,76,3,10000,11.112,,,170,,,,,,,,,,,wg-a,,,,AAXX 20214 07299 12/60 71706 10070 20030 39892 40222 56004 60006 80002 92100=
07299,1998-02-21 00:00:00,5,1022.3,-0.2,81,2,10000,14.816,,,180,,,,,,,,,,,wg-a,,,,AAXX 21004 07299 12/60 71808 10050 20020 39891 40223 55002 60006 80002 90000=
07299,1998-02-21 03:00:00,7,1022.1,0.1,70,2,10000,11.112,,,130,,,,,,,,,,,wg-a,,,,AAXX 21034 07299 12/60 71306 10070 20020 39890 40221 53001 60006 80002 90300=
07299,1998-02-21 06:00:00,2,1022.9,0.1,87,0,10000,11.112,,,190,1.1,9.7,,,,,,,,,wg-a,,,,AAXX 21064 07299 02/60 71906 10020 20000 39892 40229 50001 60006 80002 90600 333 10097 20011 60004=
07299,1998-02-21 09:00:00,8,1022.2,0,71,3,10000,7.408,,,160,,,,,,,,,,,wg-a,,,,AAXX 21094 07299 12/60 21604 10080 20030 39892 40222 50000 60006 80002 90900=
07299,1998-02-21 12:00:00,15,1019.4,-1.9,41,2,15000,3.704,,,210,,,,,,,,,,,wg-a,,,,AAXX 21124 07299 12/65 22102 10150 20020 39874 40194 58019 60006 80002 91200=
07299,1998-02-21 15:00:00,17,1017.4,-1.6,45,5,15000,7.408,,,320,,,,,,,,,,,wg-a,,,,AAXX 21154 07299 12/65 73204 10170 20050 39857 40174 56016 60006 80001 91500=
07299,1998-02-21 18:00:00,12,1019,0.9,62,5,15000,3.704,,,190,1.4,17.6,,,,,,,,,wg-a,,,,AAXX 21184 07299 12/65 81902 10120 20050 39866 40190 53009 60006 8707/ 91800 333 10176 20014=
07299,1998-02-21 21:00:00,11,1020.1,1,62,4,22000,3.704,,,190,,,,,,,,,,,wg-a,,,,AAXX 21214 07299 12/72 81902 10110 20040 39876 40201 51010 60006 8707/ 92100=
07299,1998-02-22 00:00:00,11,1020.7,0.7,62,4,23000,11.112,,,280,,,,,,,,,,,wg-a,,,,AAXX 22004 07299 12773 82806 10110 20040 39882 40207 53007 60006 8357/ 90000=
07299,1998-02-22 03:00:00,9,1020.2,-0.6,93,8,15000,3.704,,,90,,,,0,,,,,,60,wg-a,,,,AAXX 22034 07299 12465 80902 10090 20080 39875 40202 58006 60007 76062 875// 90300=
07299,1998-02-22 06:00:00,8,1020.1,-0.3,93,7,7000,3.704,,,190,7.6,12.5,,,,,,,,61,wg-a,,,,AAXX 22064 07299 02457 81902 10080 20070 39873 40201 55003 61000 76162 875// 90600 333 10125 20076 6002=
07299,1998-02-22 09:00:00,8,1020.9,0.8,93,7,9000,11.112,,,190,,,,6,,,,,,61,wg-a,,,,AAXX 22094 07299 12459 81906 10080 20070 39881 40209 53008 60067 76166 858// 90900=
07299,1998-02-22 12:00:00,7,1022,0.9,93,6,15000,14.816,,,220,,,,2,,,,,,61,wg-a,,,,AAXX 22124 07299 02365 82208 10070 20060 39890 40220 50009 60086 76166 878// 91200 333 60027=
07299,1998-02-22 15:00:00,8,1022.2,0.3,87,6,16000,18.52,,,240,,,,0,,,,,,21,wg-a,,,,AAXX 22154 07299 12366 82410 10080 20060 39893 40222 53003 60007 72162 878// 91500=
07299,1998-02-22 18:00:00,6,1024.6,2,93,5,25000,11.112,,,210,6,8.2,,,,,,,,60,wg-a,,,,AAXX 22184 07299 02475 82106 10060 20050 39914 40246 53020 61000 76062 8683/ 91800 333 10082 20060 6001=
07299,1998-02-22 21:00:00,6,1025.9,1.3,93,5,20000,14.816,,,250,,,,1,,,,,,60,wg-a,,,,AAXX 22214 07299 12570 82508 10060 20050 39927 40259 52013 60017 76066 8787/ 92100=
07299,1998-02-23 00:00:00,5,1027.1,1,100,5,20000,11.112,,,260,,,,0,,,,,,60,wg-a,,,,AAXX 23004 07299 02570 82606 10050 20050 39937 40271 52010 60016 76066 878// 90000 333 60007=
07299,1998-02-23 03:00:00,5,1027.5,0.4,100,5,10000,14.816,,,250,,,,1,,,,,,21,wg-a,,,,AAXX 23034 07299 12460 82508 10050 20050 39941 40275 51004 60017 72162 875// 90300=
07299,1998-02-23 06:00:00,6,1028.7,1.2,100,6,8000,14.816,,,340,4.9,6.2,,,,,,,,50,wg-a,,,,AAXX 23064 07299 02258 83408 10060 20060 39953 40287 52012 61000 75065 877// 90600 333 10062 20049 6012=
07299,1998-02-23 09:00:00,6,1030.7,1.9,100,6,3500,14.816,,,360,,,,0,,,,,,10,wg-a,,,,AAXX 23094 07299 12335 83608 10060 20060 39973 40307 51019 60007 71065 876// 90900=
07299,1998-02-23 12:00:00,7,1031.5,0.9,93,6,3000,18.52,,,350,,,,,,,,,,10,wg-a,,,,AAXX 23124 07299 12330 83510 10070 20060 39982 40315 51009 60006 71065 876// 91200=
07299,1998-02-23 15:00:00,7,1031.6,0.1,93,6,3000,14.816,,,340,,,,,,,,,,10,wg-a,,,,AAXX 23154 07299 12430 83408 10070 20060 39983 40316 53001 60006 71022 876// 91500=
07299,1998-02-23 18:00:00,7,1033.3,1.7,93,6,3000,11.112,,,350,5.7,7.2,,,,,,,,10,wg-a,,,,AAXX 23184 07299 12330 83506 10070 20060 30000 40333 52017 60006 71022 886// 91800 333 10072 20057=
07299,1998-02-23 21:00:00,7,1034.4,1,93,6,3000,11.112,,,340,,,,,,,,,,10,wg-a,,,,AAXX 23214 07299 12530 83406 10070 20060 30010 40344 51010 60006 71022 875// 92100=
07299,1998-02-24 00:00:00,7,1034.8,0.3,93,6,2500,3.704,,,350,,,,,,,,,,10,wg-a,,,,AAXX 24004 07299 12525 83502 10070 20060 30013 40348 51003 60006 71022 875// 90000=
07299,1998-02-24 03:00:00,5,1034.7,-0.3,93,4,2500,14.816,,,330,,,,,,,,,,10,wg-a,,,,AAXX 24034 07299 12525 83308 10050 20040 30011 40347 56003 60006 71022 875// 90300=
07299,1998-02-24 06:00:00,4,1035.4,0.5,100,4,1200,11.112,,,330,3.8,7.3,,,,,,,,10,wg-a,,,,AAXX 24064 07299 02112 83306 10040 20040 30016 40354 53005 60006 71022 886// 90600 333 10073 20038 60004=
07299,1998-02-24 09:00:00,4,1036.9,1.4,100,4,1200,7.408,,,300,,,,,,,,,,10,wg-a,,,,AAXX 24094 07299 12012 73004 10040 20040 30030 40369 51014 60006 71042 876// 90900=
07299,1998-02-24 12:00:00,10,1035.5,-0.6,62,3,12000,3.704,,,300,,,,,,,,,,3,wg-a,,,,AAXX 24124 07299 12562 33002 10100 20030 30024 40355 58006 60006 70341 81154 91200=
07299,1998-02-24 15:00:00,12,1034.5,-0.8,54,3,18000,7.408,,,10,,,,,,,,,,,wg-a,,,,AAXX 24154 07299 12668 50104 10120 20030 30016 40345 56008 60006 81174 91500=
07299,1998-02-24 18:00:00,9,1035.6,0.7,76,5,15000,14.816,,,340,3,12,,,,,,,,,wg-a,,,,AAXX 24184 07299 12/65 73408 10090 20050 30023 40356 53007 60006 86071 91800 333 10120 20030=
07299,1998-02-24 21:00:00,7,1036.6,0.8,93,6,7000,11.112,,,340,,,,,,,,,,,wg-a,,,,AAXX 24214 07299 12357 73406 10070 20060 30031 40366 52008 60006 875// 92100=
07299,1998-02-25 00:00:00,6,1036.8,0.1,100,6,4000,7.408,,,300,,,,,,,,,,10,wg-a,,,,AAXX 25004 07299 12340 73004 10060 20060 30032 40368 51001 60006 71022 875// 90000=
07299,1998-02-25 03:00:00,5,1036.3,-0.5,100,5,3000,3.704,,,310,,,,,,,,,,10,wg-a,,,,AAXX 25034 07299 12230 73102 10050 20050 30027 40363 57005 60006 71022 875// 90300=
07299,1998-02-25 06:00:00,5,1036.5,0.1,100,5,2200,3.704,,,280,4.6,8.5,,,,,,,,10,wg-a,,,,AAXX 25064 07299 02122 72802 10050 20050 30028 40365 52001 60006 71022 875// 90600 333 10085 20046 60004=
07299,1998-02-25 09:00:00,7,1036.7,0.5,100,7,1600,0,,,0,,,,,,,,,,10,wg-a,,,,AAXX 25094 07299 12616 70000 10070 20070 30033 40367 50005 60006 71022 8653/ 90900=
07299,1998-02-25 12:00:00,10,1035.9,-0.6,82,7,4000,11.112,,,340,,,,,,,,,,10,wg-a,,,,AAXX 25124 07299 12540 /3406 10100 20070 30020 40359 58006 60006 71022 8553/ 91200=
07299,1998-02-25 18:00:00,10,1034.7,0.2,93,9,4000,7.408,,,350,4.9,11.9,,,,,,,,10,wg-a,,,,AAXX 25184 07299 12540 83504 10100 20090 30017 40347 53002 60006 71022 878// 91800 333 10119 20049=
07299,1998-02-25 21:00:00,9,1034.7,-0.3,93,8,6000,7.408,,,310,,,,,,,,,,,wg-a,,,,AAXX 25214 07299 12556 73104 10090 20080 30015 40347 57003 60006 875// 92100=
07299,1998-02-26 00:00:00,6,1034.5,-0.4,100,6,4000,7.408,,,310,,,,,,,,,,,wg-a,,,,AAXX 26004 07299 12540 /3104 10060 20060 30010 40345 56004 60006 81500 90000=
07299,1998-02-26 03:00:00,6,1034.6,0.1,100,6,200,3.704,,,340,,,,,,,,,,,wg-a,,,,AAXX 26034 07299 12/02 /3402 10060 20060 30011 40346 53001 60006 90300=
07299,1998-02-26 06:00:00,5,1035,0.2,100,5,100,0,,,0,4.6,10.4,,,,,,,,44,wg-a,,,,AAXX 26064 07299 02101 80000 10050 20050 30013 40350 53002 60006 74441 886// 90600 333 10104 20046 60004=
07299,1998-02-26 09:00:00,7,1034.7,0,100,7,1000,3.704,,,110,,,,0,,,,,,28,wg-a,,,,AAXX 26094 07299 12110 /1102 10070 20070 30013 40347 50000 60007 72842 85600 90900=
07299,1998-02-26 12:00:00,13,1032.8,-1.2,62,6,12000,11.112,,,130,,,,,,,,,,1,wg-a,,,,AAXX 26124 07299 12662 /1306 10130 20060 30001 40328 58012 60006 70141 81100 91200=
07299,1998-02-26 15:00:00,14,1030.8,-1.8,58,6,15000,3.704,,,80,,,,,,,,,,,wg-a,,,,AAXX 26154 07299 12/65 00802 10140 20060 39983 40308 56018 60006 80000 91500=
07299,1998-02-27 00:00:00,4,1031.6,-0.5,93,3,7000,7.408,,,150,,,,,,,,,,,wg-a,,,,AAXX 27004 07299 12/57 01504 10040 20030 39979 40316 58005 60006 80000 90000=
07299,1998-02-27 06:00:00,5,1029.7,-0.9,93,4,4000,3.704,,,130,2.6,9.8,,,,,,,,10,wg-a,,,,AAXX 27064 07299 02240 71302 10050 20040 39962 40297 56009 60006 71011 87500 90600 333 10098 20026 60004=
07299,1998-02-27 09:00:00,7,1028.9,-0.5,87,5,500,7.408,,,140,,,,,,,,,,,wg-a,,,,AAXX 27094 07299 12500 81404 10070 20050 39957 40289 58005 60006 875// 90900=
07299,1998-02-27 12:00:00,11,1026.9,-1.6,71,6,11000,14.816,,,260,,,,,,,,,,,wg-a,,,,AAXX 27124 07299 12561 82608 10110 20060 39942 40269 58016 60006 875// 91200=
07299,1998-02-27 15:00:00,10,1025,-1.8,76,6,15000,14.816,,,260,,,,,,,,,,,wg-a,,,,AAXX 27154 07299 12565 82608 10100 20060 39923 40250 58018 60006 875// 91500=
07299,1998-02-27 18:00:00,10,1024.5,-0.6,71,5,10000,14.816,,,260,4.5,10.8,,,,,,,,,wg-a,,,,AAXX 27184 07299 12560 82608 10100 20050 39917 40245 55006 60006 885// 91800 333 10108 20045=
07299,1998-02-27 21:00:00,10,1023.3,-1.1,71,5,12000,7.408,,,220,,,,,,,,,,,wg-a,,,,AAXX 27214 07299 12662 82204 10100 20050 39906 40233 58011 60006 875// 92100=
07299,1998-02-28 00:00:00,10,1021.2,-2.1,71,5,12000,3.704,,,270,,,,,,,,,,,wg-a,,,,AAXX 28004 07299 12562 82702 10100 20050 39885 40212 56021 60006 885// 90000=
07299,1998-02-28 06:00:00,7,1019.2,0.2,87,5,10000,18.52,,,240,6.8,9.9,,,,,,,,1,wg-a,,,,AAXX 28064 07299 02460 82410 10070 20050 39863 40192 53002 60006 70152 885// 90600 333 10099 20068 61000=
07299,1998-02-28 09:00:00,9,1018,-0.9,71,4,20000,22.224,,,230,,,,,,,,,,14,wg-a,,,,AAXX 28094 07299 12570 72312 10090 20040 39853 40180 57009 60006 71422 878// 90900=
07299,1998-02-28 12:00:00,12,1016.6,-0.9,62,5,20000,29.632,,,240,,,,,,,,,,1,wg-a,,,,AAXX 28124 07299 02570 72416 10120 20050 39843 40166 57009 61000 70186 878// 91200 333 6100=
07299,1998-02-28 15:00:00,9,1016.2,-0.7,76,5,500,29.632,,,240,,,,,,,,,,80,wg-a,,,,AAXX 28154 07299 02400 72416 10090 20050 39836 40162 56007 61000 78086 878// 91500 333 ////=
07299,1998-02-28 18:00:00,8,1016.9,0.5,76,4,12000,25.928,,,240,6.9,11.7,,,,,,,,80,wg-a,,,,AAXX 28184 07299 02562 72414 10080 20040 39842 40169 53005 61000 78086 878// 91800 333 10117 20069 6000=
07299,1998-02-28 21:00:00,5,1018.2,0.8,93,4,12000,14.816,,,230,,,,1,,,,,,61,wg-a,,,,AAXX 28214 07299 12462 82308 10050 20040 39850 40182 50008 60017 76186 878// 92100=
07299,1998-03-01 00:00:00,5,1017.8,-0.4,93,4,10000,14.816,,,300,,,,0,,,,,,61,wg-a,,,,AAXX 01004 07299 02460 83008 10050 20040 39847 40178 56004 60016 76186 878// 90000 333 60007=
07299,1998-03-01 03:00:00,3,1017.9,-0.1,100,3,10000,18.52,,,240,,,,3,,,,,,61,wg-a,,,,AAXX 01034 07299 12460 82410 10030 20030 39846 40179 56001 60037 76166 878// 90300=
07299,1998-03-01 06:00:00,3,1019.2,1.3,100,3,10000,14.816,,,240,3,8.3,,,,,,,,21,wg-a,,,,AAXX 01064 07299 02460 82408 10030 20030 39859 40192 53013 61000 72162 878// 90600 333 10083 20030 6005=
07299,1998-03-01 09:00:00,5,1021.3,2.2,81,2,25000,18.52,,,240,,,,,,,,,,,wg-a,,,,AAXX 01094 07299 12575 72410 10050 20020 39880 40213 51022 60006 878// 90900=
07299,1998-03-01 12:00:00,7,1021.6,0.5,66,1,500,22.224,,,240,,,,,,,,,,,wg-a,,,,AAXX 01124 07299 12500 /2412 10070 20010 39886 40216 50005 60006 84801 91200=
07299,1998-03-01 15:00:00,8,1021,-0.5,49,-2,500,22.224,,,270,,,,,,,,,,,wg-a,,,,AAXX 01154 07299 12600 32712 10080 21020 39881 40210 55005 60006 82101 91500=
07299,1998-03-01 18:00:00,5,1022.2,0.8,65,-1,500,7.408,,,220,3.2,8.5,,,,,,,,,wg-a,,,,AAXX 01184 07299 12700 /2204 10050 21010 39889 40222 53008 60006 81501 91800 333 10085 20032=
07299,1998-03-01 21:00:00,5,1023.1,0.8,65,-1,25000,14.816,,,230,,,,,,,,,,,wg-a,,,,AAXX 01214 07299 12775 /2308 10050 21010 39898 40231 53008 60006 81500 92100=
07299,1998-03-02 00:00:00,6,1023.5,0.5,52,-3,20000,11.112,,,220,,,,,,,,,,,wg-a,,,,AAXX 02004 07299 12770 /2206 10060 21030 39903 40235 53005 60006 81500 90000=
07299,1998-03-02 03:00:00,2,1024.2,0.2,80,-1,25000,3.704,,,140,,,,,,,,,,,wg-a,,,,AAXX 02034 07299 12775 21402 10020 21010 39905 40242 50002 60006 82500 90300=
07299,1998-03-02 06:00:00,2,1024.2,-0.2,87,0,500,7.408,,,90,0.1,6.5,,,,,,,,,wg-a,,,,AAXX 02064 07299 02600 70904 10020 20000 39905 40242 55002 60006 878// 90600 333 10065 20001 60004=
07299,1998-03-02 09:00:00,4,1025,1.1,81,1,25000,3.704,,,110,,,,,,,,,,,wg-a,,,,AAXX 02094 07299 12575 71102 10040 20010 39916 40250 52011 60006 878// 90900=
07299,1998-03-02 15:00:00,10,1023.4,-0.6,57,2,500,14.816,,,230,,,,,,,,,,1,wg-a,,,,AAXX 02154 07299 02600 72308 10100 20020 39907 40234 56006 61000 70186 878// 91500 333 ////=
07299,1998-03-02 18:00:00,8,1024.4,0.8,66,2,20000,7.408,,,270,2.2,10.1,,,,,,,,1,wg-a,,,,AAXX 02184 07299 12770 72704 10080 20020 39915 40244 53008 60006 70186 875// 91800 333 10101 20022=
07299,1998-03-02 21:00:00,4,1025.6,0.6,81,1,20000,7.408,,,230,,,,,,,,,,,wg-a,,,,AAXX 02214 07299 12/70 /2304 10040 20010 39921 40256 53006 60006 80002 92100=
07299,1998-03-03 00:00:00,2,1025.1,-0.8,87,0,20000,3.704,,,130,,,,,,,,,,,wg-a,,,,AAXX 03004 07299 12/70 51302 10020 20000 39913 40251 57008 60006 80002 90000=
07299,1998-03-03 03:00:00,1,1023.1,-2,93,0,20000,7.408,,,140,,,,,,,,,,,wg-a,,,,AAXX 03034 07299 12/70 61404 10010 20000 39893 40231 58020 60006 80002 90300=
07299,1998-03-03 06:00:00,2,1021.9,-1,87,0,40000,14.816,,,170,0.2,8.1,,,,,,,,,wg-a,,,,AAXX 03064 07299 02/82 71708 10020 20000 39883 40219 57010 60006 86032 90600 333 10081 20002 61000=
07299,1998-03-03 09:00:00,7,1021.4,0.2,66,1,500,7.408,,,140,,,,,,,,,,,wg-a,,,,AAXX 03094 07299 12/00 71404 10070 20010 39884 40214 51002 60006 84048 90900=
07299,1998-03-03 12:00:00,13,1019.1,-1.7,41,0,40000,11.112,,,120,,,,,,,,,,,wg-a,,,,AAXX 03124 07299 12/82 71206 10130 20000 39869 40191 58017 60006 83048 91200=
07299,1998-03-03 15:00:00,17,1017.3,-1.3,39,3,20000,14.816,,,200,,,,,,,,,,21,wg-a,,,,AAXX 03154 07299 02/70 82008 10170 20030 39855 40173 58013 61000 72162 85077 91500 333 ////=
07299,1998-03-03 18:00:00,13,1017.4,-0.3,58,5,15000,7.408,,,200,1.4,17.7,,,,,,,,3,wg-a,,,,AAXX 03184 07299 12/65 82004 10130 20050 39852 40174 55003 60006 70362 8707/ 91800 333 10177 20014=
07299,1998-03-03 21:00:00,15,1018.2,0.9,39,1,13000,7.408,,,260,,,,,,,,,,,wg-a,,,,AAXX 03214 07299 12763 72604 10150 20010 39862 40182 51009 60006 875// 92100=
07299,1998-03-04 00:00:00,13,1018.8,0.4,58,5,13000,14.816,,,220,,,,,,,,,,21,wg-a,,,,AAXX 04004 07299 02763 72208 10130 20050 39866 40188 50004 61000 72162 8353/ 90000 333 6100=
07299,1998-03-04 03:00:00,13,1016.3,-2.5,51,3,15000,7.408,,,180,,,,,,,,,,,wg-a,,,,AAXX 04034 07299 12765 21804 10130 20030 39841 40163 58025 60006 82500 90300=
07299,1998-03-04 06:00:00,10,1013.6,-2.8,71,5,16000,11.112,,,160,9.3,16.9,,,,,,,,,wg-a,,,,AAXX 04064 07299 02766 71606 10100 20050 39812 40136 58028 60006 8753/ 90600 333 10169 20093 61000=
07299,1998-03-04 09:00:00,13,1012.4,-1,62,6,16000,7.408,,,110,,,,,,,,,,,wg-a,,,,AAXX 04094 07299 12866 71104 10130 20060 39804 40124 56010 60006 84072 90900=
07299,1998-03-04 12:00:00,21,1010.3,-1.1,30,3,18000,42.596,,61.116,230,,,,,,,,,,,wg-a,,,,AAXX 04124 07299 12768 62323 10210 20030 39792 40103 57011 60006 85531 91200 333 91033=
07299,1998-03-04 15:00:00,20,1008.6,-1.9,30,2,15000,31.484,,57.412,230,,,,,,,,,,,wg-a,,,,AAXX 04154 07299 12865 72317 10200 20020 39774 40086 57019 60006 8707/ 91500 333 91031=
07299,1998-03-04 18:00:00,19,1009.1,0.4,34,3,13000,42.596,,,210,8.7,22.1,,,,,,,,1,wg-a,,,,AAXX 04184 07299 02763 72123 10190 20030 39778 40091 53004 60006 70162 8457/ 91800 333 10221 20087 61000=
07299,1998-03-04 21:00:00,17,1009.7,0.5,45,5,15000,25.928,,,230,,,,,,,,,,60,wg-a,,,,AAXX 04214 07299 02/65 72314 10170 20050 39782 40097 51005 61000 76062 8707/ 92100 333 ////=
07299,1998-03-05 00:00:00,14,1010.2,0.2,67,8,10000,35.188,,53.708,220,,,,1,,,,,,60,wg-a,,,,AAXX 05004 07299 02560 82219 10140 20080 39784 40102 50002 60016 76062 8482/ 90000 333 60017 91029=
07299,1998-03-05 03:00:00,9,1013,2,93,8,10000,22.224,,,260,,,,5,,,,,,63,wg-a,,,,AAXX 05034 07299 12360 82612 10090 20080 39805 40130 53020 60057 76366 8687/ 90300=
07299,1998-03-05 06:00:00,8,1018,4.6,76,4,10000,29.632,,,260,7,18.8,,,,,,,,25,wg-a,,,,AAXX 05064 07299 02460 82616 10080 20040 39852 40180 51046 61000 72586 8487/ 90600 333 10188 20070 6007=
07299,1998-03-05 09:00:00,7,1022.5,4.2,66,1,12000,29.632,,,250,,,,0,,,,,,61,wg-a,,,,AAXX 05094 07299 12462 72516 10070 20010 39895 40225 51042 60007 76187 878// 90900=
07299,1998-03-05 12:00:00,10,1024.2,1.9,57,2,20000,35.188,,,250,,,,,,,,,,2,wg-a,,,,AAXX 05124 07299 02570 52519 10100 20020 39915 40242 51019 60006 70287 85900 91200 333 61000=
07299,1998-03-05 15:00:00,10,1024.3,0.2,43,-2,40000,29.632,,53.708,260,,,,,,,,,,,wg-a,,,,AAXX 05154 07299 12682 42616 10100 21020 39916 40243 53002 60006 84200 91500 333 91029=
07299,1998-03-05 18:00:00,8,1026.9,2.1,49,-2,40000,14.816,,,260,6.1,11.2,,,,,,,,,wg-a,,,,AAXX 05184 07299 12682 32608 10080 21020 39938 40269 53021 60006 83400 91800 333 10112 20061=
07299,1998-03-05 21:00:00,4,1028.9,1.4,65,-2,500,14.816,,,220,,,,,,,,,,,wg-a,,,,AAXX 05214 07299 12/00 02208 10040 21020 39953 40289 51014 60006 80000 92100=
07299,1998-03-06 00:00:00,3,1028.7,-0.3,70,-2,500,7.408,,,100,,,,,,,,,,,wg-a,,,,AAXX 06004 07299 12/00 41004 10030 21020 39950 40287 58003 60006 80001 90000=
07299,1998-03-06 03:00:00,3,1027.8,-0.9,75,-1,500,7.408,,,120,,,,,,,,,,,wg-a,,,,AAXX 06034 07299 12/00 71204 10030 21010 39941 40278 58009 60006 80001 90300=
07299,1998-03-06 06:00:00,4,1027.2,-0.5,75,0,25000,3.704,,,80,1.8,8.1,,,,,,,,,wg-a,,,,AAXX 06064 07299 02/75 70802 10040 20000 39936 40272 58005 60006 85072 90600 333 10081 20018 60004=
07299,1998-03-06 09:00:00,9,1026,-0.4,49,-1,50000,7.408,,,140,,,,,,,,,,,wg-a,,,,AAXX 06094 07299 12/84 31404 10090 21010 39931 40260 58004 60006 83071 90900=
07299,1998-03-06 12:00:00,13,1023,-2.5,35,-2,50000,18.52,,,250,,,,,,,,,,,wg-a,,,,AAXX 06124 07299 12584 72510 10130 21020 39906 40230 58025 60006 8287/ 91200=
07299,1998-03-06 15:00:00,12,1022.3,-0.6,44,0,20000,25.928,,,250,,,,,,,,,,21,wg-a,,,,AAXX 06154 07299 02770 82514 10120 20000 39899 40223 56006 61000 72162 8157/ 91500 333 ////=
07299,1998-03-06 18:00:00,11,1022.4,-0.2,54,2,20000,11.112,,,260,3.3,12.9,,,,,,,,21,wg-a,,,,AAXX 06184 07299 02770 72606 10110 20020 39898 40224 55002 61000 72162 8457/ 91800 333 10129 20033 6100=
07299,1998-03-06 21:00:00,10,1021.6,-0.9,66,4,15000,3.704,,,120,,,,,,,,,,60,wg-a,,,,AAXX 06214 07299 02665 81202 10100 20040 39889 40216 58009 61000 76062 8657/ 92100 333 ////=
07299,1998-03-07 00:00:00,8,1020.6,-1.2,87,6,15000,7.408,,,150,,,,0,,,,,,1,wg-a,,,,AAXX 07004 07299 02765 71504 10080 20060 39878 40206 58012 60006 70162 8157/ 90000 333 60007=
07299,1998-03-07 03:00:00,11,1017.8,-2.4,50,1,20000,22.224,,,240,,,,,,,,,,,wg-a,,,,AAXX 07034 07299 12/70 62412 10110 20010 39854 40178 57024 60006 83042 90300=
07299,1998-03-07 06:00:00,11,1017.8,-0.2,47,0,25000,14.816,,,240,7.2,11.7,,,,,,,,,wg-a,,,,AAXX 07064 07299 02/75 62408 10110 20000 39853 40178 58002 60006 83042 90600 333 10117 20072 60004=
07299,1998-03-07 12:00:00,12,1017.6,-0.2,62,5,15000,31.484,,46.3,240,,,,,,,,,,60,wg-a,,,,AAXX 07124 07299 02665 82417 10120 20050 39853 40176 58002 61000 76062 8387/ 91200 333 6100 91025=
07299,1998-03-07 15:00:00,13,1014.7,-2.7,72,8,15000,31.484,,61.116,230,,,,1,,,,,,21,wg-a,,,,AAXX 07154 07299 12565 72317 10130 20080 39826 40147 57027 60017 72162 83872 91500 333 91033=
07299,1998-03-07 18:00:00,11,1012.8,-2,87,9,15000,7.408,,,220,9.9,13.8,,,,,,,,80,wg-a,,,,AAXX 07184 07299 02565 72204 10110 20090 39806 40128 56020 61000 78086 8593/ 91800 333 10138 20099 6001=
07299,1998-03-07 21:00:00,11,1012.8,0,71,6,20000,50.004,,66.672,250,,,,1,,,,,,13,wg-a,,,,AAXX 07214 07299 12570 22527 10110 20060 39806 40128 50000 60017 71398 8293/ 92100 333 91036=
07299,1998-03-08 00:00:00,6,1014.9,1.4,93,5,20000,46.3,,64.82,290,,,,2,,,,,,1,wg-a,,,,AAXX 08004 07299 02570 82925 10060 20050 39820 40149 53014 60036 70186 8493/ 90000 333 60027 91035=
07299,1998-03-08 03:00:00,8,1012.5,-1.9,87,6,500,38.892,,66.672,250,,,,6,,,,,,63,wg-a,,,,AAXX 08034 07299 12400 82521 10080 20060 39799 40125 56019 60067 76386 8493/ 90300 333 91036=
07299,1998-03-08 06:00:00,7,1011,-1.7,87,5,15000,22.224,,,220,6,11.6,,,,,,,,21,wg-a,,,,AAXX 08064 07299 02465 72212 10070 20050 39784 40110 58017 61000 72186 8293/ 90600 333 10116 20060 6015=
07299,1998-03-08 09:00:00,8,1012.3,1.4,87,6,17000,14.816,,,230,,,,2,,,,,,1,wg-a,,,,AAXX 08094 07299 12467 72308 10080 20060 39797 40123 50014 60027 70186 85802 90900=
07299,1998-03-08 12:00:00,9,1010.5,-1.6,76,5,14000,22.224,,,270,,,,0,,,,,,2,wg-a,,,,AAXX 08124 07299 02464 72712 10090 20050 39781 40105 58016 60036 70286 878// 91200 333 60007=
07299,1998-03-08 15:00:00,9,1007.9,-2.6,76,5,10000,18.52,,,220,,,,0,,,,,,1,wg-a,,,,AAXX 08154 07299 12460 82210 10090 20050 39755 40079 56026 60007 70162 879// 91500=
07299,1998-03-08 18:00:00,7,1008,-0.1,87,5,12000,22.224,,,240,5.2,9.8,,,,,,,,25,wg-a,,,,AAXX 08184 07299 02462 /2412 10070 20050 39754 40080 56001 61000 72586 86800 91800 333 10098 20052 6001=
07299,1998-03-08 21:00:00,6,1009.6,1.4,87,4,20000,22.224,,,240,,,,,,,,,,,wg-a,,,,AAXX 08214 07299 12570 /2412 10060 20040 39768 40096 53014 60006 86800 92100=
07299,1998-03-09 00:00:00,6,1011.2,1.6,93,5,15000,14.816,,,250,,,,2,,,,,,21,wg-a,,,,AAXX 09004 07299 02465 82508 10060 20050 39784 40112 51016 60026 72165 875// 90000 333 60027=
07299,1998-03-09 03:00:00,2,1014.3,2.6,100,2,500,25.928,,,350,,,,1,,,,,,21,wg-a,,,,AAXX 09034 07299 12200 83514 10020 20020 39810 40143 53026 60017 72122 877// 90300=
07299,1998-03-09 06:00:00,1,1018.2,3.6,80,-2,15000,18.52,,,340,0.6,6.8,,,,,,,,22,wg-a,,,,AAXX 09064 07299 02465 83410 10010 21020 39846 40182 51036 61000 72276 8583/ 90600 333 10068 20006 6008=
07299,1998-03-09 09:00:00,-1,1022.5,4,86,-3,2500,22.224,,,350,,,,,,,,,,71,wg-a,,,,AAXX 09094 07299 02425 73512 11010 21030 39885 40225 53040 61000 77172 878// 90900 333 ////=
07299,1998-03-09 12:00:00,4,1024.5,2.5,60,-3,500,7.408,,,90,,,,0,,,,,,1,wg-a,,,,AAXX 09124 07299 02500 20904 10040 21030 39911 40245 51025 60016 70171 81802 91200 333 60007=
07299,1998-03-09 18:00:00,2,1028.7,3,55,-6,500,11.112,,,10,-0.9,6.2,,,,,,,,,wg-a,,,,AAXX 09184 07299 12700 /0106 10020 21060 39949 40287 53030 60006 81500 91800 333 10062 21009=
07299,1998-03-09 21:00:00,-1,1031.3,2.1,80,-4,20000,0,,,0,,,,,,,,,,,wg-a,,,,AAXX 09214 07299 12/70 00000 11010 21040 39970 40313 51021 60006 80000 92100=
07299,1998-03-10 00:00:00,-2,1033.2,1.7,93,-3,14000,3.704,,,190,,,,,,,,,,,wg-a,,,,AAXX 10004 07299 12/64 01902 11020 21030 39987 40332 53017 60006 80000 90000=
07299,1998-03-10 03:00:00,-3,1033.3,0,86,-5,14000,3.704,,,140,,,,,,,,,,11,wg-a,,,,AAXX 10034 07299 12/64 01402 11030 21050 39987 40333 50000 60006 71100 80000 90300=
07299,1998-03-10 06:00:00,-5,1035,1.4,100,-5,25000,7.408,,,210,-4.6,2.4,,,,,,,,,wg-a,,,,AAXX 10064 07299 02575 12104 11050 21050 30001 40350 53014 60006 81100 90600 333 10024 21046 60004=
07299,1998-03-10 09:00:00,2,1034.7,0.6,64,-4,40000,3.704,,,130,,,,,,,,,,,wg-a,,,,AAXX 10094 07299 12/82 01302 10020 21040 30007 40347 50006 60006 80000 90900=
07299,1998-03-10 12:00:00,7,1032.8,-1.4,39,-6,60000,7.408,,,110,,,,,,,,,,,wg-a,,,,AAXX 10124 07299 12686 21104 10070 21060 39994 40328 58014 60006 81101 91200=
07299,1998-03-10 15:00:00,7,1030.2,-2.5,31,-9,75000,11.112,,,150,,,,,,,,,,,wg-a,,,,AAXX 10154 07299 12789 21506 10070 21090 39969 40302 56025 60006 81101 91500=
07299,1998-03-10 18:00:00,4,1029,-1.4,38,-9,500,3.704,,,110,-4.5,7.7,,,,,,,,,wg-a,,,,AAXX 10184 07299 12/00 41102 10040 21090 39954 40290 56014 60006 80004 91800 333 10077 21045=
07299,1998-03-10 21:00:00,0,1026.8,-2.6,64,-6,25000,7.408,,,140,,,,,,,,,,,wg-a,,,,AAXX 10214 07299 12/75 51404 10000 21060 39928 40268 58026 60006 80004 92100=
07299,1998-03-11 00:00:00,0,1023.1,-3.6,64,-6,20000,3.704,,,110,,,,,,,,,,,wg-a,,,,AAXX 11004 07299 12/70 81102 10000 21060 39892 40231 58036 60006 80007 90000=
07299,1998-03-11 03:00:00,1,1019.1,-3.8,51,-8,20000,11.112,,,110,,,,,,,,,,,wg-a,,,,AAXX 11034 07299 12/70 81106 10010 21080 39854 40191 56038 60006 8801/ 90300=
07299,1998-03-11 06:00:00,1,1015.9,-3,51,-8,25000,14.816,,,110,-0.6,3.9,,,,,,,,,wg-a,,,,AAXX 11064 07299 02/75 71108 10010 21080 39823 40159 57030 60006 85078 90600 333 10039 21006 60004=
07299,1998-03-11 09:00:00,3,1014,-1.4,48,-7,40000,11.112,,,110,,,,,,,,,,,wg-a,,,,AAXX 11094 07299 12882 71106 10030 21070 39807 40140 56014 60006 8157/ 90900=
07299,1998-03-11 12:00:00,5,1012.1,-1.6,48,-5,40000,14.816,,,100,,,,,,,,,,,wg-a,,,,AAXX 11124 07299 12782 81008 10050 21050 39792 40121 58016 60006 8357/ 91200=
07299,1998-03-11 15:00:00,6,1011,-1,52,-3,25000,7.408,,,100,,,,,,,,,,,wg-a,,,,AAXX 11154 07299 12675 81004 10060 21030 39782 40110 56010 60006 8357/ 91500=
07299,1998-03-11 18:00:00,5,1011.9,0.8,60,-2,15000,3.704,,,220,0.4,6.6,,,,,,,,,wg-a,,,,AAXX 11184 07299 12665 72202 10050 21020 39790 40119 53008 60006 8557/ 91800 333 10066 20004=
07299,1998-03-11 21:00:00,4,1013.1,1.1,75,0,15000,11.112,,,270,,,,,,,,,,,wg-a,,,,AAXX 11214 07299 12565 82706 10040 20000 39801 40131 53011 60006 8787/ 92100=
07299,1998-03-12 00:00:00,4,1013.8,0.7,93,3,15000,7.408,,,210,,,,0,,,,,,61,wg-a,,,,AAXX 12004 07299 02365 82104 10040 20030 39807 40138 51007 60016 76162 877// 90000 333 60007=
07299,1998-03-12 03:00:00,3,1014.1,0.2,93,2,20000,11.112,,,270,,,,0,,,,,,21,wg-a,,,,AAXX 12034 07299 12370 82706 10030 20020 39809 40141 50002 60007 72162 877// 90300=
07299,1998-03-12 06:00:00,3,1015.5,1.3,100,3,7000,0,,,0,2.6,5.4,,,,,,,,61,wg-a,,,,AAXX 12064 07299 02357 80000 10030 20030 39822 40155 53013 61000 76162 888// 90600 333 10054 20026 6002=
07299,1998-03-12 09:00:00,3,1018,2.5,100,3,8000,7.408,,,330,,,,1,,,,,,60,wg-a,,,,AAXX 12094 07299 12258 83304 10030 20030 39847 40180 51025 60017 76066 888// 90900=
07299,1998-03-12 12:00:00,4,1019.8,1.8,93,3,7000,11.112,,,280,,,,1,,,,,,10,wg-a,,,,AAXX 12124 07299 02257 82806 10040 20030 39865 40198 51018 60026 71062 888// 91200 333 60017=
07299,1998-03-12 15:00:00,4,1021.3,1.4,93,3,3000,11.112,,,360,,,,0,,,,,,10,wg-a,,,,AAXX 12154 07299 12230 83606 10040 20030 39879 40213 52014 60007 71062 885// 91500=
07299,1998-03-12 18:00:00,3,1023.4,2,93,2,6000,14.816,,,360,2.9,4.1,,,,,,,,60,wg-a,,,,AAXX 12184 07299 02256 83608 10030 20020 39899 40234 53020 61000 76062 888// 91800 333 10041 20029 6000=
07299,1998-03-12 21:00:00,2,1025.6,2,100,2,9000,7.408,,,210,,,,,,,,,,1,wg-a,,,,AAXX 12214 07299 02659 82104 10020 20020 39919 40256 51020 61000 70162 885// 92100 333 ////=
07299,1998-03-13 00:00:00,2,1026.8,1.1,93,1,0,7.408,,,250,,,,,,,,,,,wg-a,,,,AAXX 13004 07299 02/// /2504 10020 20010 39930 40268 51011 61000 90000 333 ////=
07299,1998-03-13 03:00:00,1,1027.1,0.2,100,1,8000,3.704,,,320,,,,,,,,,,,wg-a,,,,AAXX 13034 07299 12558 43202 10010 20010 39932 40271 51002 60006 84500 90300=
07299,1998-03-13 06:00:00,-1,1028.3,0.9,100,-1,4000,3.704,,,310,-2,3,,,,,2,,,40,wg-a,,,,AAXX 13064 07299 02240 43102 11010 21010 39941 40283 53009 60006 74011 84500 90600 333 10030 21020 60024=
07299,1998-03-13 09:00:00,2,1029.5,1.5,93,1,500,7.408,,,320,,,,,,,,,,,wg-a,,,,AAXX 13094 07299 12300 63204 10020 20010 39956 40295 51015 60006 86600 90900=
07299,1998-03-13 12:00:00,6,1028.3,-0.7,61,-1,8000,7.408,,,280,,,,,,,,,,,wg-a,,,,AAXX 13124 07299 12558 /2804 10060 21010 39949 40283 58007 60006 85100 91200=
07299,1998-03-13 15:00:00,7,1027,-1.1,49,-3,18000,7.408,,,10,,,,,,,,,,,wg-a,,,,AAXX 13154 07299 12668 60104 10070 21030 39938 40270 56011 60006 84431 91500=
07299,1998-03-13 18:00:00,5,1027.8,0.6,65,-1,15000,0,,,0,-1.2,8.3,,,,,,,,,wg-a,,,,AAXX 13184 07299 12665 70000 10050 21010 39944 40278 53006 60006 85501 91800 333 10083 21012=
07299,1998-03-13 21:00:00,3,1029,0.9,75,-1,20000,11.112,,,160,,,,,,,,,,,wg-a,,,,AAXX 13214 07299 12770 /1606 10030 21010 39953 40290 50009 60006 86500 92100=
07299,1998-03-14 00:00:00,3,1029.2,0.2,75,-1,20000,3.704,,,110,,,,,,,,,,,wg-a,,,,AAXX 14004 07299 12770 81102 10030 21010 39955 40292 50002 60006 875// 90000=
07299,1998-03-14 03:00:00,3,1028.5,-0.7,81,0,20000,3.704,,,110,,,,,,,,,,,wg-a,,,,AAXX 14034 07299 12770 81102 10030 20000 39948 40285 58007 60006 875// 90300=
07299,1998-03-14 06:00:00,3,1029.1,0.6,81,0,20000,0,,,0,2.4,5.1,,,,,,,,,wg-a,,,,AAXX 14064 07299 02770 80000 10030 20000 39954 40291 53006 60006 875// 90600 333 10051 20024 60004=
07299,1998-03-14 09:00:00,5,1030,1.1,75,1,20000,3.704,,,210,,,,,,,,,,,wg-a,,,,AAXX 14094 07299 12670 82102 10050 20010 39965 40300 51011 60006 878// 90900=
07299,1998-03-14 12:00:00,8,1029.7,-0,66,2,20000,11.112,,,250,,,,,,,,,,,wg-a,,,,AAXX 14124 07299 12570 72506 10080 20020 39965 40297 55000 60006 878// 91200=
07299,1998-03-14 15:00:00,8,1029.1,-0.5,71,3,15000,7.408,,,230,,,,,,,,,,,wg-a,,,,AAXX 14154 07299 12665 72304 10080 20030 39960 40291 56005 60006 878// 91500=
07299,1998-03-14 18:00:00,7,1030,0.8,76,3,20000,3.704,,,260,3,8.4,,,,,,,,,wg-a,,,,AAXX 14184 07299 12570 72602 10070 20030 39968 40300 53008 60006 878// 91800 333 10084 20030=
07299,1998-03-14 21:00:00,6,1031.1,0.9,87,4,8000,7.408,,,250,,,,,,,,,,21,wg-a,,,,AAXX 14214 07299 02558 82504 10060 20040 39977 40311 53009 61000 72162 885// 92100 333 ////=
07299,1998-03-15 00:00:00,6,1029.8,-1.2,93,5,7000,7.408,,,250,,,,,,,,,,20,wg-a,,,,AAXX 15004 07299 02557 82504 10060 20050 39964 40298 57012 61000 72065 885// 90000 333 6100=
07299,1998-03-15 03:00:00,5,1029.6,-0.3,100,5,6000,7.408,,,180,,,,,,,,,,50,wg-a,,,,AAXX 15034 07299 02456 81804 10050 20050 39962 40296 58003 61000 75052 875// 90300 333 ////=
07299,1998-03-15 06:00:00,5,1030,0.4,100,5,500,3.704,,,180,5.2,7.2,,,,,,,,1,wg-a,,,,AAXX 15064 07299 02500 81802 10050 20050 39966 40300 53004 60006 70152 875// 90600 333 10072 20052 61000=
07299,1998-03-15 09:00:00,6,1031.5,1.5,100,6,4500,7.408,,,300,,,,1,,,,,,10,wg-a,,,,AAXX 15094 07299 12245 83004 10060 20060 39981 40315 51015 60017 71065 875// 90900=
07299,1998-03-15 12:00:00,9,1030.8,-0.4,76,5,18000,3.704,,,340,,,,,,,,,,1,wg-a,,,,AAXX 15124 07299 02468 73402 10090 20050 39977 40308 58004 60016 70165 82836 91200 333 61000=
07299,1998-03-15 15:00:00,10,1029.3,-1.3,66,4,20000,11.112,,,330,,,,,,,,,,,wg-a,,,,AAXX 15154 07299 12570 83306 10100 20040 39964 40293 56013 60006 8587/ 91500=
07299,1998-03-15 18:00:00,8,1029.9,0.3,87,6,11000,0,,,0,5.3,10.3,,,,,,,,60,wg-a,,,,AAXX 15184 07299 02561 80000 10080 20060 39967 40299 53003 61000 76062 8657/ 91800 333 10103 20053 6000=
07299,1998-03-15 21:00:00,7,1030.6,0.6,100,7,4000,3.704,,,20,,,,0,,,,,,60,wg-a,,,,AAXX 15214 07299 12540 80202 10070 20070 39973 40306 52006 60007 76066 875// 92100=
07299,1998-03-16 00:00:00,6,1029.8,-0.8,100,6,4000,0,,,0,,,,,,,,,,10,wg-a,,,,AAXX 16004 07299 02540 80000 10060 20060 39965 40298 57008 60006 71062 875// 90000 333 61000=
07299,1998-03-16 06:00:00,6,1029.3,0.8,100,6,4000,0,,,0,6,7.5,,,,,1,,,10,wg-a,,,,AAXX 16064 07299 02540 80000 10060 20060 39960 40293 52008 60006 71022 885// 90600 333 10075 20060 60014=
07299,1998-03-16 09:00:00,7,1030.6,1.4,100,7,1400,0,,,0,,,,0,,,,,,10,wg-a,,,,AAXX 16094 07299 12114 80000 10070 20070 39973 40306 51014 60007 71065 877// 90900=
07299,1998-03-16 12:00:00,8,1030.5,0,100,8,2200,7.408,,,320,,,,,,,,,,10,wg-a,,,,AAXX 16124 07299 02122 83204 10080 20080 39973 40305 50000 60016 71065 877// 91200 333 61000=
07299,1998-03-16 15:00:00,9,1029.7,-0.6,93,8,7000,7.408,,,330,,,,,,,,,,3,wg-a,,,,AAXX 16154 07299 02257 83304 10090 20080 39967 40297 55006 61000 70352 875// 91500 333 ////=
07299,1998-03-16 18:00:00,8,1030.2,0.4,93,7,3800,0,,,0,6.1,9.2,,,,,,,,10,wg-a,,,,AAXX 16184 07299 12438 80000 10080 20070 39971 40302 53004 60006 71052 875// 91800 333 10092 20061=
07299,1998-03-17 00:00:00,7,1030.1,-0.3,100,7,4000,0,,,0,,,,,,,,,,10,wg-a,,,,AAXX 17004 07299 12540 80000 10070 20070 39968 40301 57003 60006 71022 875// 90000=
07299,1998-03-17 03:00:00,6,1029.7,-0.4,100,6,4500,0,,,0,,,,,,,,,,10,wg-a,,,,AAXX 17034 07299 12545 80000 10060 20060 39964 40297 58004 60006 71022 875// 90300=
07299,1998-03-17 06:00:00,6,1030.2,0.4,100,6,3000,0,,,0,5.9,8.1,,,,,,,,10,wg-a,,,,AAXX 17064 07299 02530 80000 10060 20060 39968 40302 53004 60006 71022 875// 90600 333 10081 20059 60004=
07299,1998-03-17 09:00:00,8,1030.8,0.8,93,7,6000,3.704,,,330,,,,,,,,,,,wg-a,,,,AAXX 17094 07299 12556 83302 10080 20070 39976 40308 53008 60006 878// 90900=
07299,1998-03-17 12:00:00,9,1030.6,0,81,6,10000,7.408,,,360,,,,,,,,,,,wg-a,,,,AAXX 17124 07299 12460 83604 10090 20060 39976 40306 50000 60006 878// 91200=
07299,1998-03-17 15:00:00,10,1030.4,-0.1,71,5,10000,7.408,,,360,,,,,,,,,,,wg-a,,,,AAXX 17154 07299 12660 83604 10100 20050 39975 40304 55001 60006 878// 91500=
07299,1998-03-17 18:00:00,9,1031.6,1,71,4,7000,11.112,,,360,6,10.5,,,,,,,,,wg-a,,,,AAXX 17184 07299 12657 73606 10090 20040 39985 40316 53010 60006 875// 91800 333 10105 20060=
07299,1998-03-17 21:00:00,7,1032.3,0.5,87,5,8000,7.408,,,360,,,,,,,,,,,wg-a,,,,AAXX 17214 07299 12658 83604 10070 20050 39990 40323 50005 60006 885// 92100=
07299,1998-03-18 00:00:00,7,1032.9,0.6,87,5,6000,7.408,,,350,,,,,,,,,,,wg-a,,,,AAXX 18004 07299 12656 83504 10070 20050 39996 40329 52006 60006 885// 90000=
07299,1998-03-18 03:00:00,6,1033.2,0.2,93,5,6000,3.704,,,350,,,,,,,,,,,wg-a,,,,AAXX 18034 07299 12556 83502 10060 20050 39998 40332 50002 60006 885// 90300=
07299,1998-03-18 06:00:00,5,1034.4,1,100,5,2300,7.408,,,320,5.2,8.6,,,,,,,,10,wg-a,,,,AAXX 18064 07299 02623 83204 10050 20050 30008 40344 52010 60006 71022 875// 90600 333 10086 20052 60004=
07299,1998-03-18 09:00:00,10,1034.3,0.5,76,6,6000,3.704,,,190,,,,,,,,,,,wg-a,,,,AAXX 18094 07299 12456 21902 10100 20060 30013 40343 53005 60006 82800 90900=
07299,1998-03-18 12:00:00,11,1034.4,0.2,58,3,15000,14.816,,,360,,,,,,,,,,,wg-a,,,,AAXX 18124 07299 12565 73608 10110 20030 30015 40344 52002 60006 878// 91200=
07299,1998-03-18 15:00:00,13,1033.7,-0.5,54,4,20000,7.408,,,360,,,,,,,,,,,wg-a,,,,AAXX 18154 07299 12670 33604 10130 20040 30011 40337 56005 60006 83500 91500=
07299,1998-03-18 18:00:00,10,1034.6,0.5,62,3,18000,11.112,,,360,5.4,13.6,,,,,,,,,wg-a,,,,AAXX 18184 07299 12668 /3606 10100 20030 30016 40346 53005 60006 81501 91800 333 10136 20054=
07299,1998-03-18 21:00:00,6,1035.7,0.5,81,3,20000,7.408,,,280,,,,,,,,,,,wg-a,,,,AAXX 18214 07299 12/70 02804 10060 20030 30021 40357 52005 60006 80000 92100=
07299,1998-03-19 00:00:00,4,1036.1,0.2,93,3,15000,3.704,,,270,,,,,,,,,,,wg-a,,,,AAXX 19004 07299 12665 /2702 10040 20030 30023 40361 50002 60006 86500 90000=
07299,1998-03-19 06:00:00,6,1036.4,1.1,87,4,8000,7.408,,,340,3.9,10.2,,,,,,,,,wg-a,,,,AAXX 19064 07299 02558 83404 10060 20040 30028 40364 53011 60006 875// 90600 333 10102 20039 60004=
07299,1998-03-19 09:00:00,8,1038,1.8,66,2,18000,25.928,,,10,,,,,,,,,,,wg-a,,,,AAXX 19094 07299 12668 60114 10080 20020 30046 40380 51018 60006 84801 90900=
07299,1998-03-19 12:00:00,10,1038.2,0.4,50,0,500,18.52,,,350,,,,,,,,,,,wg-a,,,,AAXX 19124 07299 12600 53510 10100 20000 30050 40382 50004 60006 84801 91200=
07299,1998-03-19 15:00:00,10,1036.9,-1.2,43,-2,35000,25.928,,,350,,,,,,,,,,,wg-a,,,,AAXX 19154 07299 12781 23514 10100 21020 30038 40369 56012 60006 81801 91500=
07299,1998-03-19 18:00:00,7,1037.9,0.5,45,-4,35000,11.112,,,350,6,10.8,,,,,,,,,wg-a,,,,AAXX 19184 07299 12781 13506 10070 21040 30044 40379 53005 60006 81500 91800 333 10108 20060=
07299,1998-03-19 21:00:00,3,1038.5,0,70,-2,20000,11.112,,,300,,,,,,,,,,,wg-a,,,,AAXX 19214 07299 12770 23006 10030 21020 30044 40385 50000 60006 82500 92100=
07299,1998-03-20 00:00:00,1,1038.3,-0.5,80,-2,20000,0,,,0,,,,,,,,,,,wg-a,,,,AAXX 20004 07299 12770 40000 10010 21020 30040 40383 56005 60006 83530 90000=
07299,1998-03-20 03:00:00,-1,1037.6,-0.8,93,-2,18000,0,,,0,,,,,,,,,,,wg-a,,,,AAXX 20034 07299 12/68 20000 11010 21020 30031 40376 56008 60006 81031 90300=
07299,1998-03-20 06:00:00,-2,1037.6,-0,100,-2,13000,0,,,0,-2.2,7.2,,,,,,,,,wg-a,,,,AAXX 20064 07299 02763 30000 11020 21020 30030 40376 55000 60006 82531 90600 333 10072 21022 60004=
07299,1998-03-20 09:00:00,3,1037,-0.1,81,0,15000,7.408,,,300,,,,,,,,,,,wg-a,,,,AAXX 20094 07299 12765 /3004 10030 20000 30030 40370 58001 60006 83530 90900=
07299,1998-03-20 12:00:00,8,1035.5,-0.8,57,0,15000,11.112,,,330,,,,,,,,,,,wg-a,,,,AAXX 20124 07299 12665 /3306 10080 20000 30022 40355 58008 60006 86200 91200=
07299,1998-03-20 15:00:00,10,1032.8,-2.4,43,-2,500,7.408,,,310,,,,,,,,,,,wg-a,,,,AAXX 20154 07299 12600 73104 10100 21020 39998 40328 56024 60006 878// 91500=
07299,1998-03-20 18:00:00,8,1033.1,-0.1,49,-2,500,7.408,,,30,-2.1,10.6,,,,,,,,,wg-a,,,,AAXX 20184 07299 12600 70304 10080 21020 39998 40331 55001 60006 875// 91800 333 10106 21021=
07299,1998-03-20 21:00:00,6,1032.8,-0.4,75,2,25000,3.704,,,210,,,,,,,,,,21,wg-a,,,,AAXX 20214 07299 02675 72102 10060 20020 39993 40328 58004 61000 72162 875// 92100 333 ////=
07299,1998-03-21 00:00:00,6,1030.9,-1.8,70,1,25000,14.816,,,250,,,,0,,,,,,21,wg-a,,,,AAXX 21004 07299 02575 72508 10060 20010 39975 40309 58018 60006 72162 875// 90000 333 60007=
07299,1998-03-21 03:00:00,6,1029.5,-1.3,81,3,8000,18.52,,,250,,,,,,,,,,,wg-a,,,,AAXX 21034 07299 12/58 /2510 10060 20030 39961 40295 56013 60006 90300=
07299,1998-03-21 06:00:00,6,1029.4,-0.2,93,5,500,7.408,,,340,5.4,7.6,,,,,,,,60,wg-a,,,,AAXX 21064 07299 02400 73404 10060 20050 39960 40294 55002 61000 76062 877// 90600 333 10076 20054 6001=
07299,1998-03-21 09:00:00,6,1030.1,0.8,93,5,7000,18.52,,,360,,,,1,,,,,,3,wg-a,,,,AAXX 21094 07299 12457 73610 10060 20050 39968 40301 51008 60017 70362 878// 90900=
07299,1998-03-21 12:00:00,8,1030.2,0.2,57,0,18000,25.928,,,10,,,,,,,,,,1,wg-a,,,,AAXX 21124 07299 12568 40114 10080 20000 39970 40302 53002 60016 70161 84100 91200=
07299,1998-03-21 15:00:00,8,1029.2,-0.9,53,-1,35000,18.52,,,340,,,,,,,,,,,wg-a,,,,AAXX 21154 07299 12781 23410 10080 21010 39961 40292 56009 60006 82100 91500=
07299,1998-03-21 18:00:00,6,1030.2,0.7,52,-3,45000,14.816,,,30,5.1,8.5,,,,,,,,,wg-a,,,,AAXX 21184 07299 12683 60308 10060 21030 39968 40302 53007 60006 86500 91800 333 10085 20051=
07299,1998-03-21 21:00:00,4,1031.5,1,52,-5,500,7.408,,,100,,,,,,,,,,,wg-a,,,,AAXX 21214 07299 12600 21004 10040 21050 39978 40315 51010 60006 82500 92100=
07299,1998-03-22 00:00:00,0,1032.2,0.1,74,-4,500,7.408,,,300,,,,,,,,,,,wg-a,,,,AAXX 22004 07299 12/00 03004 10000 21040 39979 40322 53001 60006 80000 90000=
07299,1998-03-22 03:00:00,-2,1032,-0.4,93,-3,500,0,,,0,,,,,,,,,,,wg-a,,,,AAXX 22034 07299 12/00 00000 11020 21030 39975 40320 58004 60006 80000 90300=
07299,1998-03-22 06:00:00,-4,1032.8,0.6,100,-4,500,0,,,0,-3.8,6.4,,,,,1,,,,wg-a,,,,AAXX 22064 07299 02/00 00000 11040 21040 39981 40328 53006 60006 80000 90600 333 10064 21038 60014=
07299,1998-03-22 12:00:00,8,1031,-0.9,36,-6,50000,7.408,,,10,,,,,,,,,,,wg-a,,,,AAXX 22124 07299 12684 /0104 10080 21060 39978 40310 58009 60006 81101 91200=
07299,1998-03-22 15:00:00,9,1029.3,-1.5,37,-5,50000,11.112,,,20,,,,,,,,,,,wg-a,,,,AAXX 22154 07299 12784 10206 10090 21050 39963 40293 56015 60006 81502 91500=
07299,1998-03-22 18:00:00,7,1029.5,-0.1,39,-6,40000,7.408,,,350,-3.4,9.7,,,,,,,,,wg-a,,,,AAXX 22184 07299 12782 13504 10070 21060 39962 40295 55001 60006 81502 91800 333 10097 21034=
07299,1998-03-22 21:00:00,1,1030,-0.2,75,-3,500,3.704,,,250,,,,,,,,,,,wg-a,,,,AAXX 22214 07299 12700 22502 10010 21030 39960 40300 58002 60006 82500 92100=
07299,1998-03-23 00:00:00,0,1029,-1.1,74,-4,20000,7.408,,,160,,,,,,,,,,,wg-a,,,,AAXX 23004 07299 12770 41604 10000 21040 39949 40290 58011 60006 845/0 90000=
07299,1998-03-23 03:00:00,0,1027.4,-1.6,80,-3,20000,7.408,,,160,,,,,,,,,,,wg-a,,,,AAXX 23034 07299 12770 /1604 10000 21030 39933 40274 57016 60006 85500 90300=
07299,1998-03-23 06:00:00,0,1026.8,-0.5,86,-2,500,3.704,,,190,-0.9,6.7,,,,,,,,,wg-a,,,,AAXX 23064 07299 02600 71902 10000 21020 39928 40268 55005 60006 8753/ 90600 333 10067 21009 60004=
07299,1998-03-23 09:00:00,3,1025.9,-0.5,75,-1,15000,3.704,,,30,,,,,,,,,,26,wg-a,,,,AAXX 23094 07299 02565 70302 10030 21010 39923 40259 56005 61000 72687 875// 90900 333 ////=
07299,1998-03-23 12:00:00,7,1023.5,-1.8,76,3,15000,22.224,,,250,,,,,,,,,,1,wg-a,,,,AAXX 23124 07299 02565 72512 10070 20030 39905 40235 58018 61000 70187 8583/ 91200 333 6100=
07299,1998-03-23 15:00:00,6,1021.8,-1.9,81,3,20000,29.632,,,240,,,,,,,,,,25,wg-a,,,,AAXX 23154 07299 02570 72416 10060 20030 39887 40218 58019 61000 72586 8587/ 91500 333 ////=
07299,1998-03-23 18:00:00,1,1023.7,1.3,100,1,4000,14.816,,,310,0.1,8.3,,,,,,,,26,wg-a,,,,AAXX 23184 07299 02140 83108 10010 20010 39899 40237 53013 61000 72687 877// 91800 333 10083 20001 6004=
07299,1998-03-23 21:00:00,0,1024,0.2,100,0,4000,18.52,,,330,,,,1,,,,,,10,wg-a,,,,AAXX 23214 07299 12240 83310 10000 20000 39901 40240 51002 60017 71087 887// 92100=
07299,1998-03-24 00:00:00,0,1024.4,0.4,100,0,4000,18.52,,,360,,,,,,,,,,10,wg-a,,,,AAXX 24004 07299 02240 83610 10000 20000 39905 40244 53004 60016 71087 887// 90000 333 61000=
07299,1998-03-24 03:00:00,0,1025,0.5,93,-1,500,22.224,,,360,,,,,,,,,,,wg-a,,,,AAXX 24034 07299 12300 73612 10000 21010 39910 40250 53005 60006 875// 90300=
07299,1998-03-24 06:00:00,-1,1026.7,1.6,100,-1,3500,18.52,,,350,-0.8,0.8,,,,,5,,,10,wg-a,,,,AAXX 24064 07299 02335 83510 11010 21010 39926 40267 53016 60006 71072 877// 90600 333 10008 21008 60054=
07299,1998-03-24 09:00:00,1,1028.6,2.2,86,-1,9000,11.112,,,350,,,,,,,,,,,wg-a,,,,AAXX 24094 07299 12659 73506 10010 21010 39947 40286 51022 60006 875// 90900=
07299,1998-03-24 12:00:00,3,1029.7,1.1,75,-1,15000,18.52,,,340,,,,,,,,,,,wg-a,,,,AAXX 24124 07299 12565 73410 10030 21010 39960 40297 51011 60006 878// 91200=
07299,1998-03-24 15:00:00,6,1029.9,0.6,61,-1,20000,14.816,,,350,,,,,,,,,,,wg-a,,,,AAXX 24154 07299 12670 /3508 10060 21010 39965 40299 53006 60006 86800 91500=
07299,1998-03-24 18:00:00,4,1032.1,1.9,56,-4,20000,11.112,,,120,-0.7,6.7,,,,,,,,,wg-a,,,,AAXX 24184 07299 12670 31206 10040 21040 39984 40321 53019 60006 82801 91800 333 10067 21007=
07299,1998-03-24 21:00:00,0,1033.1,0.6,80,-3,15000,3.704,,,90,,,,,,,,,,,wg-a,,,,AAXX 24214 07299 12/65 00902 10000 21030 39989 40331 50006 60006 80000 92100=
07299,1998-03-25 00:00:00,-2,1033.1,-0.3,93,-3,8000,3.704,,,170,,,,,,,,,,,wg-a,,,,AAXX 25004 07299 12/58 01702 11020 21030 39986 40331 57003 60006 80000 90000=
07299,1998-03-25 03:00:00,-4,1033.4,0.1,100,-4,6000,3.704,,,330,,,,,,,,,,,wg-a,,,,AAXX 25034 07299 12/56 03302 11040 21040 39987 40334 53001 60006 80000 90300=
07299,1998-03-25 06:00:00,-5,1033.8,0.2,100,-5,3500,3.704,,,310,-5.2,3.8,,,,,,,,10,wg-a,,,,AAXX 25064 07299 02/35 53102 11050 21050 39989 40338 53002 60006 71011 81031 90600 333 10038 21052 60004=
07299,1998-03-25 09:00:00,1,1032.5,-0.5,80,-2,4500,7.408,,,300,,,,,,,,,,10,wg-a,,,,AAXX 25094 07299 12/45 23004 10010 21020 39984 40325 58005 60006 71011 81031 90900=
07299,1998-03-25 12:00:00,7,1030,-1.7,45,-4,20000,11.112,,,320,,,,,,,,,,,wg-a,,,,AAXX 25124 07299 12570 43206 10070 21040 39967 40300 58017 60006 81101 91200=
07299,1998-03-25 15:00:00,10,1027.6,-2.1,27,-8,40000,3.704,,,340,,,,,,,,,,,wg-a,,,,AAXX 25154 07299 12/82 13402 10100 21080 39947 40276 58021 60006 80001 91500=
07299,1998-03-25 18:00:00,6,1027.6,-0.4,33,-9,40000,11.112,,,110,-4.9,10.1,,,,,,,,,wg-a,,,,AAXX 25184 07299 12/82 31106 10060 21090 39942 40276 55004 60006 80004 91800 333 10101 21049=
07299,1998-03-25 21:00:00,3,1027.9,0,44,-8,20000,11.112,,,110,,,,,,,,,,,wg-a,,,,AAXX 25214 07299 12/70 11106 10030 21080 39942 40279 50000 60006 80002 92100=
07299,1998-03-26 00:00:00,0,1026.9,-1.3,59,-7,20000,3.704,,,120,,,,,,,,,,,wg-a,,,,AAXX 26004 07299 12/70 11202 10000 21070 39929 40269 58013 60006 80002 90000=
07299,1998-03-26 03:00:00,-3,1026.3,-1,86,-5,20000,7.408,,,210,,,,,,,,,,,wg-a,,,,AAXX 26034 07299 12/70 02104 11030 21050 39919 40263 56010 60006 80000 90300=
07299,1998-03-26 06:00:00,-3,1026.4,0.1,86,-5,15000,3.704,,,200,-3.7,5.9,,,,,,,,,wg-a,,,,AAXX 26064 07299 02/65 12002 11030 21050 39920 40264 53001 60006 80001 90600 333 10059 21037 60004=
07299,1998-03-26 09:00:00,5,1025.1,-0.3,48,-5,10000,11.112,,,140,,,,,,,,,,,wg-a,,,,AAXX 26094 07299 12/60 /1406 10050 21050 39917 40251 58003 60006 90900=
07299,1998-03-26 12:00:00,10,1023.3,-1.3,37,-4,10000,3.704,,,320,,,,,,,,,,,wg-a,,,,AAXX 26124 07299 12/60 /3202 10100 21040 39905 40233 58013 60006 91200=
07299,1998-03-26 15:00:00,13,1020,-2.7,28,-5,17000,3.704,,,190,,,,,,,,,,,wg-a,,,,AAXX 26154 07299 12/67 31902 10130 21050 39877 40200 58027 60006 80001 91500=
07299,1998-03-26 18:00:00,9,1020.4,-0,40,-4,15000,0,,,0,-3.3,13.2,,,,,,,,,wg-a,,,,AAXX 26184 07299 12/65 70000 10090 21040 39877 40204 55000 60006 82035 91800 333 10132 21033=
07299,1998-03-26 21:00:00,5,1021.5,0.6,65,-1,20000,0,,,0,,,,,,,,,,,wg-a,,,,AAXX 26214 07299 12/70 60000 10050 21010 39883 40215 51006 60006 82032 92100=
07299,1998-03-27 00:00:00,6,1021.5,0.1,56,-2,15000,7.408,,,140,,,,,,,,,,,wg-a,,,,AAXX 27004 07299 12/65 71404 10060 21020 39884 40215 50001 60006 84052 90000=
07299,1998-03-27 03:00:00,6,1021.4,-0.3,56,-2,15000,7.408,,,150,,,,,,,,,,,wg-a,,,,AAXX 27034 07299 12765 81504 10060 21020 39882 40214 56003 60006 82572 90300=
07299,1998-03-27 06:00:00,6,1021.8,0.6,61,-1,15000,7.408,,,140,4.9,9.2,,,,,,,,,wg-a,,,,AAXX 27064 07299 02665 81404 10060 21010 39887 40218 50006 60006 8557/ 90600 333 10092 20049 60004=
07299,1998-03-27 09:00:00,9,1022.3,0.8,49,-1,15000,3.704,,,170,,,,,,,,,,,wg-a,,,,AAXX 27094 07299 12665 81702 10090 21010 39895 40223 52008 60006 8357/ 90900=
07299,1998-03-27 12:00:00,12,1022.3,0.3,54,3,18000,7.408,,,250,,,,,,,,,,,wg-a,,,,AAXX 27124 07299 12668 82504 10120 20030 39898 40223 50003 60006 8557/ 91200=
07299,1998-03-27 15:00:00,14,1020.5,-1.4,47,3,18000,3.704,,,170,,,,,,,,,,,wg-a,,,,AAXX 27154 07299 12668 71702 10140 20030 39883 40205 56014 60006 8553/ 91500=
07299,1998-03-27 18:00:00,12,1020.6,-0.2,54,3,20000,0,,,0,6,14.2,,,,,,,,,wg-a,,,,AAXX 27184 07299 12770 70000 10120 20030 39882 40206 56002 60006 82534 91800 333 10142 20060=
07299,1998-03-27 21:00:00,6,1021.9,0.5,81,3,15000,7.408,,,190,,,,,,,,,,,wg-a,,,,AAXX 27214 07299 12/65 31904 10060 20030 39887 40219 50005 60006 81031 92100=
07299,1998-03-28 00:00:00,3,1022.4,0.2,93,2,10000,3.704,,,210,,,,,,,,,,,wg-a,,,,AAXX 28004 07299 12/60 22102 10030 20020 39889 40224 51002 60006 80001 90000=
07299,1998-03-28 03:00:00,3,1021.1,-1.3,93,2,10000,0,,,0,,,,,,,,,,,wg-a,,,,AAXX 28034 07299 12/60 00000 10030 20020 39876 40211 58013 60006 80000 90300=
07299,1998-03-28 06:00:00,1,1021.8,0.5,100,1,8000,3.704,,,220,0.6,11.9,,,,,,,,,wg-a,,,,AAXX 28064 07299 02/58 /2202 10010 20010 39881 40218 53005 60006 81031 90600 333 10119 20006 60004=
07299,1998-03-28 09:00:00,12,1020.4,-0.1,62,5,12000,3.704,,,110,,,,,,,,,,,wg-a,,,,AAXX 28094 07299 12/62 21102 10120 20050 39880 40204 58001 60006 80002 90900=
07299,1998-03-28 12:00:00,18,1017.7,-1.9,42,5,25000,7.408,,,90,,,,,,,,,,,wg-a,,,,AAXX 28124 07299 12/75 70904 10180 20050 39861 40177 58019 60006 80001 91200=
07299,1998-03-28 15:00:00,20,1014.9,-2.5,40,6,25000,7.408,,,50,,,,,,,,,,,wg-a,,,,AAXX 28154 07299 12/75 70504 10200 20060 39836 40149 56025 60006 81042 91500=
07299,1998-03-28 18:00:00,17,1015.1,-0.2,48,6,20000,3.704,,,80,1,20.2,,,,,,,,,wg-a,,,,AAXX 28184 07299 12/70 70802 10170 20060 39834 40151 55002 60006 81032 91800 333 10202 20010=
07299,1998-03-28 21:00:00,9,1016.2,0.3,87,7,20000,3.704,,,260,,,,,,,,,,,wg-a,,,,AAXX 28214 07299 12/70 42602 10090 20070 39837 40162 51003 60006 80002 92100=
07299,1998-03-29 00:00:00,8,1015.9,-0.5,81,5,20000,7.408,,,160,,,,,,,,,,,wg-a,,,,AAXX 29004 07299 12/70 41604 10080 20050 39832 40159 58005 60006 80002 90000=
07299,1998-03-29 03:00:00,6,1014.8,-1.2,93,5,20000,3.704,,,210,,,,,,,,,,,wg-a,,,,AAXX 29034 07299 12/70 52102 10060 20050 39820 40148 56012 60006 80002 90300=
07299,1998-03-29 06:00:00,6,1014.7,-0.1,93,5,20000,3.704,,,170,5.6,16.5,,,,,,,,,wg-a,,,,AAXX 29064 07299 02/70 51702 10060 20050 39819 40147 55001 60006 85031 90600 333 10165 20056 60004=
07299,1998-03-29 09:00:00,15,1013.5,-0.2,63,8,25000,3.704,,,70,,,,,,,,,,,wg-a,,,,AAXX 29094 07299 12/75 10702 10150 20080 39817 40135 57002 60006 81031 90900=
07299,1998-03-29 12:00:00,20,1011,-1.8,46,8,25000,3.704,,,30,,,,,,,,,,,wg-a,,,,AAXX 29124 07299 12/75 20302 10200 20080 39799 40110 58018 60006 80001 91200=
07299,1998-03-29 15:00:00,23,1008.6,-2,33,6,40000,7.408,,,10,,,,,,,,,,,wg-a,,,,AAXX 29154 07299 12/82 10104 10230 20060 39778 40086 56020 60006 80001 91500=
07299,1998-03-29 18:00:00,19,1009.1,0.2,46,7,40000,7.408,,,30,5.9,23.7,,,,,,,,,wg-a,,,,AAXX 29184 07299 12/82 30304 10190 20070 39779 40091 53002 60006 80001 91800 333 10237 20059=
07299,1998-03-29 21:00:00,11,1011.1,0.9,76,7,500,3.704,,,210,,,,,,,,,,,wg-a,,,,AAXX 29214 07299 12/00 02102 10110 20070 39789 40111 52009 60006 80000 92100=
07299,1998-03-30 00:00:00,9,1012.6,1.2,81,6,500,11.112,,,180,,,,,,,,,,,wg-a,,,,AAXX 30004 07299 12/00 01806 10090 20060 39801 40126 52012 60006 80000 90000=
07299,1998-03-30 03:00:00,9,1014.1,1.5,81,6,500,7.408,,,150,,,,,,,,,,,wg-a,,,,AAXX 30034 07299 12/00 01504 10090 20060 39813 40141 53015 60006 80000 90300=
07299,1998-03-30 12:00:00,21,1015.4,-0.6,25,0,500,14.816,,,270,,,,,,,,,,,wg-a,,,,AAXX 30124 07299 12700 52708 10210 20000 39841 40154 58006 60006 81102 91200=
07299,1998-03-30 15:00:00,22,1014.1,-1.1,31,4,500,11.112,,,250,,,,,,,,,,,wg-a,,,,AAXX 30154 07299 12/00 52506 10220 20040 39830 40141 57011 60006 80002 91500=
07299,1998-03-30 18:00:00,19,1015.2,0.7,37,4,40000,3.704,,,240,7.8,22.8,,,,,,,,,wg-a,,,,AAXX 30184 07299 12/82 62402 10190 20040 39837 40152 53007 60006 80002 91800 333 10228 20078=
07299,1998-03-30 21:00:00,15,1017,1.4,41,2,500,3.704,,,170,,,,,,,,,,,wg-a,,,,AAXX 30214 07299 12/00 51702 10150 20020 39850 40170 51014 60006 82032 92100=
07299,1998-03-31 00:00:00,9,1018.7,0.9,71,4,20000,3.704,,,190,,,,,,,,,,,wg-a,,,,AAXX 31004 07299 12/70 41902 10090 20040 39860 40187 51009 60006 81032 90000=
07299,1998-03-31 03:00:00,7,1018.8,-0.1,81,4,20000,7.408,,,160,,,,,,,,,,,wg-a,,,,AAXX 31034 07299 12/70 31604 10070 20040 39859 40188 58001 60006 80002 90300=
07299,1998-03-31 06:00:00,7,1018.9,0.1,81,4,40000,11.112,,,150,6.1,18.6,,,,,,,,,wg-a,,,,AAXX 31064 07299 02/82 21506 10070 20040 39860 40189 53001 60006 81031 90600 333 10186 20061 60004=
07299,1998-03-31 09:00:00,15,1017.6,-0.3,44,3,500,3.704,,,170,,,,,,,,,,,wg-a,,,,AAXX 31094 07299 12/00 01702 10150 20030 39857 40176 58003 60006 80000 90900=
07299,1998-03-31 12:00:00,22,1015.1,-1.8,33,5,500,3.704,,,110,,,,,,,,,,,wg-a,,,,AAXX 31124 07299 12700 11102 10220 20050 39839 40151 58018 60006 81200 91200=
07299,1998-03-31 15:00:00,23,1013.1,-1.8,31,5,500,3.704,,,290,,,,,,,,,,,wg-a,,,,AAXX 31154 07299 12700 /2902 10230 20050 39821 40131 56018 60006 81200 91500=
07299,1998-03-31 18:00:00,19,1013,-0.5,43,6,500,3.704,,,260,7.2,23.5,,,,,,,,,wg-a,,,,AAXX 31184 07299 12/00 02602 10190 20060 39816 40130 56005 60006 80000 91800 333 10235 20072=
07299,1998-03-31 21:00:00,14,1014.7,1.2,58,6,20000,3.704,,,130,,,,,,,,,,,wg-a,,,,AAXX 31214 07299 12/70 01302 10140 20060 39828 40147 51012 60006 80000 92100=
07299,1998-04-01 00:00:00,12,1016.3,1.2,71,7,20000,3.704,,,120,,,,,,,,,,,wg-a,,,,AAXX 01004 07299 12/70 61202 10120 20070 39840 40163 53012 60006 86030 90000=
07299,1998-04-01 03:00:00,11,1015.8,-0.6,71,6,20000,3.704,,,160,,,,,,,,,,,wg-a,,,,AAXX 01034 07299 12/70 51602 10110 20060 39834 40158 58006 60006 85030 90300=
07299,1998-04-01 06:00:00,12,1016,0.3,71,7,40000,7.408,,,110,10.6,18.5,,,,,,,,,wg-a,,,,AAXX 01064 07299 02782 71104 10120 20070 39837 40160 53003 60006 8553/ 90600 333 10185 20106 60004=
07299,1998-04-01 09:00:00,16,1015.8,0.3,51,6,500,18.52,,,280,,,,,,,,,,,wg-a,,,,AAXX 01094 07299 12700 72810 10160 20060 39840 40158 50003 60006 83832 90900=
07299,1998-04-01 12:00:00,18,1014.1,-1.4,49,7,500,11.112,,,290,,,,,,,,,,,wg-a,,,,AAXX 01124 07299 12600 72906 10180 20070 39826 40141 56014 60006 82132 91200=
07299,1998-04-01 15:00:00,16,1013.3,-1,59,8,25000,18.52,,,270,,,,,,,,,,,wg-a,,,,AAXX 01154 07299 12775 72710 10160 20080 39816 40133 56010 60006 8257/ 91500=
07299,1998-04-01 18:00:00,14,1013.7,0.2,77,10,20000,3.704,,,330,11.6,18.2,,,,,,,,1,wg-a,,,,AAXX 01184 07299 02770 /3302 10140 20100 39818 40137 53002 60006 70162 8457/ 91800 333 10182 20116 61000=
07299,1998-04-01 21:00:00,13,1014.4,0.5,77,9,20000,7.408,,,250,,,,,,,,,,,wg-a,,,,AAXX 01214 07299 12670 72504 10130 20090 39823 40144 51005 60006 875// 92100=
07299,1998-04-02 03:00:00,11,1012.7,-1.6,82,8,20000,3.704,,,140,,,,,,,,,,,wg-a,,,,AAXX 02034 07299 12770 71402 10110 20080 39805 40127 56016 60006 875// 90300=
07299,1998-04-02 06:00:00,9,1012.2,-0.7,93,8,500,0,,,0,8.3,13.8,,,,,,,,,wg-a,,,,AAXX 02064 07299 02600 70000 10090 20080 39798 40122 56007 60006 875// 90600 333 10138 20083 61000=
07299,1998-04-02 09:00:00,15,1010.5,-0.9,63,8,40000,3.704,,,180,,,,,,,,,,,wg-a,,,,AAXX 02094 07299 12582 71802 10150 20080 39788 40105 57009 60006 82802 90900=
07299,1998-04-02 12:00:00,17,1007.1,-3.2,48,6,500,3.704,,,290,,,,,,,,,,80,wg-a,,,,AAXX 02124 07299 02600 72902 10170 20060 39757 40071 56032 61000 78086 86802 91200 333 6100=
07299,1998-04-02 15:00:00,13,1007.5,-0.1,82,10,12000,29.632,,,250,,,,1,,,,,,61,wg-a,,,,AAXX 02154 07299 12562 82516 10130 20100 39756 40075 55001 60017 76186 8582/ 91500=
07299,1998-04-02 18:00:00,12,1007.2,-0.4,82,9,20000,11.112,,,150,9.4,17.9,,2,,,,,,1,wg-a,,,,AAXX 02184 07299 02570 51506 10120 20090 39752 40072 57004 60006 70186 82870 91800 333 10179 20094 60027=
07299,1998-04-02 21:00:00,10,1007.6,0.3,87,8,15000,7.408,,,200,,,,,,,,,,60,wg-a,,,,AAXX 02214 07299 02565 72004 10100 20080 39755 40076 50003 61000 76062 8687/ 92100 333 ////=
07299,1998-04-03 00:00:00,10,1006.2,-1.5,93,9,18000,7.408,,,130,,,,,,,,,,2,wg-a,,,,AAXX 03004 07299 02568 71304 10100 20090 39741 40062 56015 61000 70262 878// 90000 333 6100=
07299,1998-04-03 03:00:00,10,1005,-1,100,10,9000,7.408,,,170,,,,1,,,,,,61,wg-a,,,,AAXX 03034 07299 12559 81704 10100 20100 39729 40050 56010 60017 76162 8557/ 90300=
07299,1998-04-03 06:00:00,11,1004.1,-0.8,100,11,7000,14.816,,,110,9.7,11.6,,,,,,,,61,wg-a,,,,AAXX 03064 07299 02457 81108 10110 20110 39722 40041 56008 61000 76162 8657/ 90600 333 10116 20097 6006=
07299,1998-04-03 09:00:00,14,1003.3,-0.5,82,11,500,11.112,,,100,,,,1,,,,,,2,wg-a,,,,AAXX 03094 07299 12500 81006 10140 20110 39717 40033 57005 60017 70262 878// 90900=
07299,1998-04-03 12:00:00,20,1001,-1.7,53,10,40000,22.224,,,200,,,,,,,,,,1,wg-a,,,,AAXX 03124 07299 12682 72012 10200 20100 39701 40010 58017 60016 70162 878// 91200=
07299,1998-04-03 15:00:00,21,998,-2.8,49,10,60000,0,,,0,,,,,,,,,,,wg-a,,,,AAXX 03154 07299 12786 80000 10210 20100 39673 49980 58028 60006 8252/ 91500=
07299,1998-04-03 18:00:00,19,996.5,-1.4,52,9,500,14.816,,,140,10.9,21.3,,,,,,,,,wg-a,,,,AAXX 03184 07299 12700 71408 10190 20090 39657 49965 57014 60006 8157/ 91800 333 10213 20109=
07299,1998-04-03 21:00:00,16,995.9,-1.1,68,10,25000,3.704,,,100,,,,,,,,,,,wg-a,,,,AAXX 03214 07299 12775 71002 10160 20100 39647 49959 58011 60006 8257/ 92100=
07299,1998-04-04 00:00:00,14,998.2,2.1,77,10,25000,22.224,,,260,,,,,,,,,,,wg-a,,,,AAXX 04004 07299 12775 72612 10140 20100 39668 49982 53021 60006 8257/ 90000=
07299,1998-04-04 03:00:00,7,1004.1,4.9,87,5,10000,18.52,,,260,,,,0,,,,,,61,wg-a,,,,AAXX 04034 07299 12460 82610 10070 20050 39717 40041 51049 60007 76162 888// 90300=
07299,1998-04-04 06:00:00,5,1006.4,2.1,100,5,6000,14.816,,,160,5,19,,,,,,,,61,wg-a,,,,AAXX 04064 07299 02256 81608 10050 20050 39737 40064 53021 61000 76162 8352/ 90600 333 10190 20050 6009=
07299,1998-04-04 09:00:00,7,1008.2,1.9,87,5,20000,14.816,,,120,,,,4,,,,,,60,wg-a,,,,AAXX 04094 07299 12470 81208 10070 20050 39756 40082 51019 60047 76066 875// 90900=
07299,1998-04-04 12:00:00,8,1007.8,-0.1,76,4,25000,18.52,,,150,,,,,,,,,,60,wg-a,,,,AAXX 04124 07299 02475 71510 10080 20040 39754 40078 58001 60046 76062 8357/ 91200 333 61000=
07299,1998-04-04 15:00:00,10,1006.9,-0.8,71,5,45000,11.112,,,130,,,,,,,,,,1,wg-a,,,,AAXX 04154 07299 02583 71306 10100 20050 39747 40069 58008 61000 70162 8187/ 91500 333 ////=
07299,1998-04-04 18:00:00,10,1006.8,0,66,4,75000,11.112,,,100,4.9,10.4,,,,,,,,2,wg-a,,,,AAXX 04184 07299 12589 71006 10100 20040 39746 40068 50000 60006 70262 8187/ 91800 333 10104 20049=
07299,1998-04-04 21:00:00,9,1008.1,1.1,71,4,40000,14.816,,,110,,,,,,,,,,,wg-a,,,,AAXX 04214 07299 12782 /1108 10090 20040 39757 40081 51011 60006 82530 92100=
07299,1998-04-05 00:00:00,9,1008.9,0.8,76,5,40000,14.816,,,170,,,,,,,,,,,wg-a,,,,AAXX 05004 07299 12782 71708 10090 20050 39765 40089 51008 60006 8453/ 90000=
07299,1998-04-05 03:00:00,7,1007.6,-1.4,81,4,20000,11.112,,,100,,,,,,,,,,,wg-a,,,,AAXX 05034 07299 12/70 61006 10070 20040 39750 40076 56014 60006 82032 90300=
07299,1998-04-05 06:00:00,7,1007.3,-0.4,81,4,50000,11.112,,,120,5.2,9.5,,,,,4,,,,wg-a,,,,AAXX 05064 07299 02784 /1206 10070 20040 39747 40073 55004 60006 81502 90600 333 10095 20052 60044=
07299,1998-04-05 09:00:00,11,1006.4,-0.3,66,5,60000,18.52,,,100,,,,,,,,,,,wg-a,,,,AAXX 05094 07299 12786 /1010 10110 20050 39744 40064 58003 60006 81582 90900=
07299,1998-04-05 12:00:00,13,1006.8,0.6,58,5,20000,25.928,,,270,,,,,,,,,,15,wg-a,,,,AAXX 05124 07299 12670 72714 10130 20050 39750 40068 53006 60006 71522 8596/ 91200=
07299,1998-04-05 15:00:00,12,1008.6,1.5,58,4,20000,35.188,,48.152,260,,,,,,,,,,80,wg-a,,,,AAXX 05154 07299 02670 72619 10120 20040 39766 40086 53015 61000 78086 8596/ 91500 333 //// 91026=
07299,1998-04-05 18:00:00,11,1009,0.4,62,4,40000,3.704,,,210,6.8,14.6,,,,,,,,2,wg-a,,,,AAXX 05184 07299 02682 72102 10110 20040 39769 40090 53004 60006 70286 8396/ 91800 333 10146 20068 61000=
07299,1998-04-05 21:00:00,7,1010.9,1.2,81,4,25000,11.112,,,160,,,,,,,,,,,wg-a,,,,AAXX 05214 07299 12575 51606 10070 20040 39782 40109 51012 60006 81131 92100=
07299,1998-04-06 00:00:00,6,1011.9,0.9,93,5,20000,11.112,,,150,,,,,,,,,,,wg-a,,,,AAXX 06004 07299 12570 71506 10060 20050 39791 40119 53009 60006 81131 90000=
07299,1998-04-06 03:00:00,5,1012,-0,100,5,25000,3.704,,,130,,,,,,,,,,,wg-a,,,,AAXX 06034 07299 12575 /1302 10050 20050 39791 40120 55000 60006 81831 90300=
07299,1998-04-06 06:00:00,7,1012.7,0.9,87,5,25000,7.408,,,100,4.2,11,,,,,,,,15,wg-a,,,,AAXX 06064 07299 02575 71004 10070 20050 39800 40127 53009 60006 71522 8583/ 90600 333 10110 20042 61000=
07299,1998-04-06 09:00:00,11,1012.5,0.3,66,5,20000,7.408,,,240,,,,0,,,,,,25,wg-a,,,,AAXX 06094 07299 12670 72404 10110 20050 39803 40125 50003 60007 72586 8693/ 90900=
07299,1998-04-06 12:00:00,13,1010.9,-1.4,54,4,9000,14.816,,,260,,,,,,,,,,25,wg-a,,,,AAXX 06124 07299 02659 /2608 10130 20040 39789 40109 58014 60006 72586 86900 91200 333 61000=
07299,1998-04-06 15:00:00,15,1007.9,-2.6,48,4,500,18.52,,,200,,,,,,,,,,25,wg-a,,,,AAXX 06154 07299 02600 52010 10150 20040 39763 40079 58026 61000 72586 84903 91500 333 ////=
07299,1998-04-06 18:00:00,12,1008.3,-0,58,4,18000,14.816,,,290,6.6,15.4,,,,,,,,25,wg-a,,,,AAXX 06184 07299 02768 72908 10120 20040 39763 40083 55000 61000 72586 86903 91800 333 10154 20066 6100=
07299,1998-04-06 21:00:00,9,1007.8,-0.8,87,7,20000,11.112,,,310,,,,,,,,,,,wg-a,,,,AAXX 06214 07299 12770 73106 10090 20070 39755 40078 58008 60006 8357/ 92100=
07299,1998-04-07 00:00:00,8,1006.8,-1,93,7,20000,3.704,,,70,,,,,,,,,,,wg-a,,,,AAXX 07004 07299 12770 80702 10080 20070 39744 40068 58010 60006 81577 90000=
07299,1998-04-07 03:00:00,8,1004.7,-2,93,7,15000,3.704,,,160,,,,0,,,,,,60,wg-a,,,,AAXX 07034 07299 12465 81602 10080 20070 39724 40047 56020 60007 76062 8557/ 90300=
07299,1998-04-07 06:00:00,8,1003,-1.6,100,8,3000,3.704,,,90,7.6,11.6,,,,,,,,10,wg-a,,,,AAXX 07064 07299 02330 80902 10080 20080 39707 40030 58016 61000 71062 875// 90600 333 10116 20076 6008=
07299,1998-04-07 12:00:00,10,1001.9,0.6,93,9,15000,7.408,,,210,,,,5,,,,,,21,wg-a,,,,AAXX 07124 07299 02365 82104 10100 20090 39699 40019 53006 60116 72162 875// 91200 333 60057=
07299,1998-04-07 15:00:00,9,1003.7,1.7,76,5,11000,31.484,,59.264,220,,,,,,,,,,,wg-a,,,,AAXX 07154 07299 12/61 /2217 10090 20050 39716 40037 51017 60006 91500 333 91032=
07299,1998-04-07 18:00:00,10,1004.4,0.7,66,4,9000,25.928,,42.596,210,7.6,11.3,,,,,,,,15,wg-a,,,,AAXX 07184 07299 12659 52114 10100 20040 39723 40044 53007 60006 71511 84831 91800 333 10113 20076 91023=
07299,1998-04-07 21:00:00,7,1007.1,2.4,81,4,18000,7.408,,,170,,,,0,,,,,,3,wg-a,,,,AAXX 07214 07299 12568 /1704 10070 20040 39746 40071 51024 60007 70386 86801 92100=
07299,1998-04-08 00:00:00,8,1008,0.9,76,4,18000,7.408,,,230,,,,,,,,,,3,wg-a,,,,AAXX 08004 07299 12568 72304 10080 20040 39756 40080 51009 60006 70386 878// 90000=
07299,1998-04-08 03:00:00,6,1007.8,-0.4,93,5,15000,7.408,,,180,,,,,,,,,,0,wg-a,,,,AAXX 08034 07299 32565 71804 10060 20050 39752 40078 58004 700// 90300=
07299,1998-04-08 06:00:00,7,1007.7,0.1,87,5,18000,3.704,,,160,5.7,9.7,,,,,12,,,2,wg-a,,,,AAXX 08064 07299 02568 71602 10070 20050 39752 40077 53001 60006 70262 878// 90600 333 10097 20057 60124=
07299,1998-04-08 09:00:00,10,1007.7,0.2,66,4,500,11.112,,,270,,,,,,,,,,1,wg-a,,,,AAXX 08094 07299 02500 /2706 10100 20040 39755 40077 50002 61000 70162 86800 90900 333 ////=
07299,1998-04-08 12:00:00,10,1007.2,-0.6,66,4,15000,29.632,,,260,,,,,,,,,,16,wg-a,,,,AAXX 08124 07299 02565 /2616 10100 20040 39750 40072 58006 61000 71686 85800 91200 333 6100=
07299,1998-04-08 15:00:00,10,1005.8,-1.3,71,5,500,11.112,,,290,,,,1,,,,,,16,wg-a,,,,AAXX 08154 07299 12500 62906 10100 20050 39736 40058 58013 60017 71686 8/900 91500=
07299,1998-04-08 18:00:00,10,1003.9,-1.8,71,5,50000,3.704,,,60,7,12.8,,,,,,,,3,wg-a,,,,AAXX 08184 07299 12684 20602 10100 20050 39718 40039 56018 60006 70386 81202 91800 333 10128 20070=
07299,1998-04-08 21:00:00,7,1003.7,-0.5,81,4,20000,7.408,,,120,,,,,,,,,,,wg-a,,,,AAXX 08214 07299 12770 41204 10070 20040 39713 40037 58005 60006 82902 92100=
07299,1998-04-09 00:00:00,7,1003.6,-0.2,93,6,9000,7.408,,,110,,,,0,,,,,,25,wg-a,,,,AAXX 09004 07299 02559 81104 10070 20060 39712 40036 58002 60006 72511 879// 90000 333 60007=
07299,1998-04-09 03:00:00,6,1002.3,-1.3,93,5,9000,7.408,,,160,,,,,,,,,,,wg-a,,,,AAXX 09034 07299 12559 71604 10060 20050 39698 40023 58013 60006 875// 90300=
07299,1998-04-09 06:00:00,7,1001.9,-0.4,87,5,20000,3.704,,,150,5.4,9.7,,,,,1,,,1,wg-a,,,,AAXX 09064 07299 02570 71502 10070 20050 39695 40019 56004 60006 70162 875// 90600 333 10097 20054 60014=
07299,1998-04-09 09:00:00,11,1000.8,-0.5,71,6,20000,7.408,,,100,,,,1,,,,,,1,wg-a,,,,AAXX 09094 07299 12570 41004 10110 20060 39689 40008 58005 60017 70161 83803 90900=
07299,1998-04-09 12:00:00,14,998.2,-2.3,41,1,20000,29.632,,,180,,,,,,,,,,15,wg-a,,,,AAXX 09124 07299 12670 51816 10140 20010 39667 49982 58023 60016 71561 85302 91200=
07299,1998-04-09 15:00:00,15,996,-1.9,44,3,25000,11.112,,,320,,,,,,,,,,15,wg-a,,,,AAXX 09154 07299 02675 53206 10150 20030 39647 49960 56019 61000 71586 84903 91500 333 ////=
07299,1998-04-09 18:00:00,11,997.6,1.2,62,4,18000,7.408,,,270,6.6,15.9,,,,,,,,16,wg-a,,,,AAXX 09184 07299 12668 72704 10110 20040 39659 49976 53012 60006 71698 85903 91800 333 10159 20066=
07299,1998-04-09 21:00:00,8,999.3,1.2,76,4,25000,0,,,0,,,,,,,,,,1,wg-a,,,,AAXX 09214 07299 12675 70000 10080 20040 39671 49993 50012 60006 70192 8496/ 92100=
07299,1998-04-10 00:00:00,7,998.4,-0.9,87,5,25000,7.408,,,290,,,,,,,,,,0,wg-a,,,,AAXX 10004 07299 12575 82904 10070 20050 39662 49984 58009 60006 70092 8496/ 90000=
07299,1998-04-10 03:00:00,6,996.6,-1.9,100,6,25000,0,,,0,,,,,,,,,,,wg-a,,,,AAXX 10034 07299 12575 80000 10060 20060 39643 49966 58019 60006 8587/ 90300=
07299,1998-04-10 06:00:00,6,996.6,-0.1,93,5,7000,0,,,0,5.8,11.2,,,,,,,,60,wg-a,,,,AAXX 10064 07299 02357 80000 10060 20050 39643 49966 56001 61000 76062 888// 90600 333 10112 20058 6001=
07299,1998-04-10 09:00:00,7,994.5,-1.7,93,6,10000,3.704,,,360,,,,,,,,,,2,wg-a,,,,AAXX 10094 07299 02460 83602 10070 20060 39625 49945 56017 61000 70262 8/82/ 90900 333 ////=
07299,1998-04-10 12:00:00,6,995.6,0.8,87,4,6000,35.188,,,250,,,,0,,,,,,61,wg-a,,,,AAXX 10124 07299 02456 82519 10060 20040 39633 49956 53008 60016 76186 8/82/ 91200 333 60007=
07299,1998-04-10 15:00:00,6,995.2,-0.5,93,5,20000,11.112,,,100,,,,3,,,,,,21,wg-a,,,,AAXX 10154 07299 12270 81006 10060 20050 39629 49952 58005 60037 72186 878// 91500=
07299,1998-04-10 18:00:00,6,996.2,1.1,93,5,20000,3.704,,,120,4.7,8.5,,,,,,,,2,wg-a,,,,AAXX 10184 07299 12270 81202 10060 20050 39639 49962 51011 60006 70286 888// 91800 333 10085 20047=
07299,1998-04-10 21:00:00,5,997.5,1.2,93,4,20000,7.408,,,120,,,,,,,,,,,wg-a,,,,AAXX 10214 07299 12570 81204 10050 20040 39651 49975 53012 60006 8557/ 92100=
07299,1998-04-11 00:00:00,5,998.5,0.9,93,4,20000,7.408,,,100,,,,,,,,,,,wg-a,,,,AAXX 11004 07299 12770 81004 10050 20040 39660 49985 51009 60006 81577 90000=
07299,1998-04-11 03:00:00,2,1000.1,1.3,93,1,20000,7.408,,,170,,,,,,,,,,,wg-a,,,,AAXX 11034 07299 12670 41704 10020 20010 39672 40001 53013 60006 81541 90300=
07299,1998-04-11 06:00:00,2,1001.3,1.2,100,2,20000,7.408,,,170,1.1,5.9,,,,,4,,,,wg-a,,,,AAXX 11064 07299 02670 31704 10020 20020 39684 40013 51012 60006 82532 90600 333 10059 20011 60044=
07299,1998-04-11 09:00:00,9,1000.7,0.3,66,3,25000,11.112,,,260,,,,,,,,,,,wg-a,,,,AAXX 11094 07299 12575 /2606 10090 20030 39686 40007 53003 60006 86202 90900=
07299,1998-04-11 12:00:00,11,999.5,-1,58,3,25000,7.408,,,290,,,,,,,,,,,wg-a,,,,AAXX 11124 07299 12675 82904 10110 20030 39677 49995 58010 60006 84207 91200=
07299,1998-04-11 18:00:00,10,997.4,-0.7,57,2,20000,11.112,,,290,2.2,11.7,,,,,,,,15,wg-a,,,,AAXX 11184 07299 12670 82906 10100 20020 39655 49974 56007 60006 71522 8257/ 91800 333 10117 20022=
07299,1998-04-12 00:00:00,2,1001.8,1.6,100,2,7000,18.52,,,250,,,,2,,,,,,61,wg-a,,,,AAXX 12004 07299 02357 82510 10020 20020 39688 40018 51016 60066 76186 888// 90000 333 60027=
07299,1998-04-12 03:00:00,2,1002.2,0.5,100,2,8000,11.112,,,250,,,,,,,,,,61,wg-a,,,,AAXX 12034 07299 02358 82506 10020 20020 39693 40022 52005 61000 76166 888// 90300 333 ////=
07299,1998-04-12 06:00:00,3,1002.6,0.5,100,3,10000,14.816,,,240,1.3,10.1,,,,,,,,60,wg-a,,,,AAXX 12064 07299 02460 82408 10030 20030 39698 40026 53005 61000 76066 8782/ 90600 333 10101 20013 6021=
07299,1998-04-12 09:00:00,5,1004.2,1.7,87,3,15000,14.816,,,250,,,,,,,,,,61,wg-a,,,,AAXX 12094 07299 02365 72508 10050 20030 39715 40042 51017 61000 76162 878// 90900 333 ////=
07299,1998-04-12 12:00:00,9,1004.2,0.4,71,4,25000,14.816,,,230,,,,,,,,,,15,wg-a,,,,AAXX 12124 07299 02475 72308 10090 20040 39720 40042 50004 61000 71562 84302 91200 333 6100=
07299,1998-04-12 15:00:00,8,1004.6,0.3,81,5,20000,18.52,,,240,,,,1,,,,,,25,wg-a,,,,AAXX 12154 07299 12470 72410 10080 20050 39722 40046 50003 60017 72586 86902 91500=
07299,1998-04-12 18:00:00,7,1005,0.4,76,3,25000,14.816,,,240,3.1,9.6,,,,,,,,1,wg-a,,,,AAXX 12184 07299 12575 /2408 10070 20030 39725 40050 53004 60006 70186 84902 91800 333 10096 20031=
07299,1998-04-12 21:00:00,5,1006.3,1,81,2,15000,7.408,,,250,,,,,,,,,,2,wg-a,,,,AAXX 12214 07299 02565 72504 10050 20020 39736 40063 51010 61000 70286 869// 92100 333 ////=
07299,1998-04-13 00:00:00,4,1006.3,-0.1,93,3,15000,3.704,,,210,,,,,,,,,,61,wg-a,,,,AAXX 13004 07299 02465 82102 10040 20030 39735 40063 56001 61000 76186 885// 90000 333 6100=
07299,1998-04-13 03:00:00,3,1006,-0.5,93,2,15000,22.224,,,250,,,,,,,,,,61,wg-a,,,,AAXX 13034 07299 02465 72512 10030 20020 39730 40060 56005 61000 76162 875// 90300 333 ////=
07299,1998-04-13 06:00:00,2,1006.2,0.2,93,1,15000,25.928,,,250,2,6.6,,,,,,,,60,wg-a,,,,AAXX 13064 07299 02465 82514 10020 20010 39732 40062 53002 61000 76062 885// 90600 333 10066 20020 6007=
07299,1998-04-13 09:00:00,4,1008.3,1.9,87,2,9000,22.224,,,250,,,,,,,,,,60,wg-a,,,,AAXX 13094 07299 02459 82512 10040 20020 39753 40083 53019 61000 76066 885// 90900 333 ////=
07299,1998-04-13 12:00:00,1,1009.8,1.1,100,1,1800,3.704,,,210,,,,0,,,,,,10,wg-a,,,,AAXX 13124 07299 02118 82102 10010 20010 39764 40098 51011 60006 71076 885// 91200 333 60007=
07299,1998-04-13 15:00:00,5,1008.3,-0.9,81,2,12000,7.408,,,160,,,,0,,,,,,1,wg-a,,,,AAXX 13154 07299 12462 71604 10050 20020 39755 40083 57009 60007 70172 8183/ 91500=
07299,1998-04-13 18:00:00,2,1008.6,-0,93,1,3000,7.408,,,140,0.5,5.7,,,,,,,,10,wg-a,,,,AAXX 13184 07299 02230 71404 10020 20010 39754 40086 55000 61000 71087 84981 91800 333 10057 20005 6001=
07299,1998-04-13 21:00:00,1,1009.9,1.2,100,1,25000,3.704,,,110,,,,1,,,,,,1,wg-a,,,,AAXX 13214 07299 12575 /1102 10010 20010 39766 40099 51012 60017 70187 82232 92100=
07299,1998-04-14 00:00:00,1,1010.7,0.7,100,1,20000,3.704,,,110,,,,,,,,,,0,wg-a,,,,AAXX 14004 07299 02570 71102 10010 20010 39773 40107 52007 61000 70087 8596/ 90000 333 6001=
07299,1998-04-14 03:00:00,0,1010.7,-0.1,93,-1,10000,0,,,0,,,,1,,,,,,,wg-a,,,,AAXX 14034 07299 12460 70000 10000 21010 39772 40107 55001 60017 8683/ 90300=
07299,1998-04-14 06:00:00,0,1011.3,0.6,100,0,20000,7.408,,,200,-0.7,2.4,,,,,5,,,,wg-a,,,,AAXX 14064 07299 02570 52004 10000 20000 39778 40113 53006 60006 84801 90600 333 10024 21007 60054=
07299,1998-04-14 09:00:00,6,1010.8,0.2,61,-1,20000,7.408,,,60,,,,1,,,,,,,wg-a,,,,AAXX 14094 07299 12570 50604 10060 21010 39780 40108 50002 60017 85231 90900=
07299,1998-04-14 12:00:00,7,1009.8,-0.9,61,0,10000,3.704,,,330,,,,,,,,,,15,wg-a,,,,AAXX 14124 07299 02560 73302 10070 20000 39771 40098 58009 61000 71587 84902 91200 333 6100=
07299,1998-04-14 15:00:00,9,1007.7,-1.8,40,-4,25000,7.408,,,100,,,,,,,,,,,wg-a,,,,AAXX 14154 07299 12775 61004 10090 21040 39753 40077 57018 60006 84202 91500=
07299,1998-04-14 18:00:00,7,1007.2,-0.6,49,-3,500,7.408,,,180,-0.1,10.1,,,,,,,,,wg-a,,,,AAXX 14184 07299 12700 31804 10070 21030 39747 40072 56006 60006 81402 91800 333 10101 21001=
07299,1998-04-14 21:00:00,3,1007.4,-0.3,70,-2,500,7.408,,,150,,,,,,,,,,,wg-a,,,,AAXX 14214 07299 12/00 31504 10030 21020 39744 40074 56003 60006 80002 92100=
07299,1998-04-15 00:00:00,3,1006.6,-0.9,70,-2,25000,7.408,,,130,,,,,,,,,,,wg-a,,,,AAXX 15004 07299 12/75 21304 10030 21020 39735 40066 58009 60006 80002 90000=
07299,1998-04-15 03:00:00,4,1005.4,-1,65,-2,25000,14.816,,,130,,,,,,,,,,,wg-a,,,,AAXX 15034 07299 12/75 71308 10040 21020 39726 40054 58010 60006 85072 90300=
07299,1998-04-15 06:00:00,5,1002.5,-2.6,60,-2,18000,18.52,,,100,1.1,7.5,,,,,,,,,wg-a,,,,AAXX 15064 07299 02668 81010 10050 21020 39699 40025 58026 60006 8657/ 90600 333 10075 20011 60004=
07299,1998-04-15 09:00:00,7,1001.8,-0.7,57,-1,25000,14.816,,,110,,,,,,,,,,,wg-a,,,,AAXX 15094 07299 12675 81108 10070 21010 39694 40018 57007 60006 8557/ 90900=
07299,1998-04-15 12:00:00,10,999.8,-1.6,46,-1,25000,7.408,,,110,,,,,,,,,,,wg-a,,,,AAXX 15124 07299 12775 81104 10100 21010 39678 49998 56016 60006 8457/ 91200=
07299,1998-04-15 15:00:00,11,997.1,-2.5,47,0,20000,3.704,,,80,,,,,,,,,,,wg-a,,,,AAXX 15154 07299 12770 80802 10110 20000 39653 49971 56025 60006 8457/ 91500=
07299,1998-04-15 18:00:00,9,996.7,-0.7,76,5,15000,7.408,,,240,5.1,10.7,,,,,,,,60,wg-a,,,,AAXX 15184 07299 02765 82404 10090 20050 39647 49967 55007 61000 76062 8657/ 91800 333 10107 20051 6100=
07299,1998-04-15 21:00:00,7,998.8,2.1,93,6,10000,0,,,0,,,,2,,,,,,61,wg-a,,,,AAXX 15214 07299 12460 80000 10070 20060 39666 49988 51021 60027 76166 875// 92100=
07299,1998-04-16 00:00:00,4,1002.5,3.1,81,1,10000,11.112,,,210,,,,2,,,,,,21,wg-a,,,,AAXX 16004 07299 02460 82106 10040 20010 39698 40025 51031 60046 72162 875// 90000 333 60027=
07299,1998-04-16 06:00:00,4,1004.1,0.7,75,0,20000,7.408,,,190,2.2,8.7,,,,,4,,,,wg-a,,,,AAXX 16064 07299 02570 61904 10040 20000 39713 40041 53007 60006 8653/ 90600 333 10087 20022 60044=
07299,1998-04-16 09:00:00,8,1003,-0.7,61,1,500,18.52,,,240,,,,,,,,,,,wg-a,,,,AAXX 16094 07299 12500 /2410 10080 20010 39707 40030 58007 60006 86200 90900=
07299,1998-04-16 12:00:00,9,1000.1,-2.8,49,-1,40000,7.408,,,280,,,,,,,,,,,wg-a,,,,AAXX 16124 07299 12582 /2804 10090 21010 39680 40001 58028 60006 83801 91200=
07299,1998-04-16 15:00:00,10,996.5,-3.2,40,-3,35000,7.408,,,250,,,,,,,,,,,wg-a,,,,AAXX 16154 07299 12681 72504 10100 21030 39647 49965 56032 60006 82806 91500=
07299,1998-04-16 18:00:00,9,995,-1.5,49,-1,40000,7.408,,,180,3.8,11.5,,,,,,,,,wg-a,,,,AAXX 16184 07299 12582 /1804 10090 21010 39631 49950 56015 60006 81245 91800 333 10115 20038=
07299,1998-04-16 21:00:00,8,994,-1.1,53,-1,500,11.112,,,120,,,,,,,,,,,wg-a,,,,AAXX 16214 07299 12700 61206 10080 21010 39620 49940 58011 60006 81542 92100=
07299,1998-04-17 00:00:00,7,992.6,-1.5,76,3,15000,3.704,,,220,,,,,,,,,,,wg-a,,,,AAXX 17004 07299 12665 82202 10070 20030 39605 49926 58015 60006 8357/ 90000=
07299,1998-04-17 03:00:00,7,989.7,-2.8,66,1,15000,11.112,,,110,,,,,,,,,,,wg-a,,,,AAXX 17034 07299 12/65 /1106 10070 20010 39577 49897 58028 60006 84032 90300=
07299,1998-04-17 06:00:00,7,989.6,-0,66,1,20000,11.112,,,120,6.1,9.5,,,,,,,,,wg-a,,,,AAXX 17064 07299 02770 71206 10070 20010 39577 49896 55000 60006 8357/ 90600 333 10095 20061 60004=
07299,1998-04-17 09:00:00,11,989.5,0.3,66,5,25000,11.112,,,120,,,,0,,,,,,1,wg-a,,,,AAXX 17094 07299 12575 71206 10110 20050 39580 49895 52003 60007 70162 8683/ 90900=
07299,1998-04-17 12:00:00,10,993.1,3.3,66,4,20000,29.632,,46.3,230,,,,1,,,,,,1,wg-a,,,,AAXX 17124 07299 02570 72316 10100 20040 39613 49931 53033 60016 70186 84831 91200 333 60017 91025=
07299,1998-04-17 15:00:00,7,993.9,0.6,93,6,12000,14.816,,,230,,,,1,,,,,,81,wg-a,,,,AAXX 17154 07299 12562 62308 10070 20060 39619 49939 53006 60017 78186 85930 91500=
07299,1998-04-17 18:00:00,6,994.3,0.1,87,4,40000,11.112,,,210,5.9,12.6,,0,,,,,,2,wg-a,,,,AAXX 17184 07299 02682 52106 10060 20040 39621 49943 53001 60006 70286 83903 91800 333 10126 20059 60007=
07299,1998-04-18 00:00:00,3,996.7,0.3,100,3,18000,7.408,,,190,,,,0,,,,,,0,wg-a,,,,AAXX 18004 07299 02568 71904 10030 20030 39641 49967 51003 60016 70086 81532 90000 333 60007=
07299,1998-04-18 03:00:00,4,996.9,0.3,93,3,12000,14.816,,,200,,,,1,,,,,,61,wg-a,,,,AAXX 18034 07299 12462 82008 10040 20030 39644 49969 53003 60017 76162 875// 90300=
07299,1998-04-18 09:00:00,4,1000.3,1.9,93,3,11000,18.52,,,240,,,,,,,,,,,wg-a,,,,AAXX 18094 07299 32/61 /2410 10040 20030 39677 40003 53019 90900=
07299,1998-04-18 12:00:00,5,1002.8,2.5,93,4,15000,31.484,,,250,,,,0,,,,,,21,wg-a,,,,AAXX 18124 07299 02465 72517 10050 20040 39702 40028 51025 60026 72162 875// 91200 333 60007=
07299,1998-04-18 15:00:00,5,1005.3,2.4,87,3,15000,25.928,,,250,,,,,,,,,,21,wg-a,,,,AAXX 18154 07299 02465 82514 10050 20030 39726 40053 51024 61000 72162 875// 91500 333 ////=
07299,1998-04-18 18:00:00,4,1007.6,2.1,93,3,12000,25.928,,,240,3.6,6,,,,,,,,60,wg-a,,,,AAXX 18184 07299 02462 82414 10040 20030 39748 40076 53021 61000 76062 8557/ 91800 333 10060 20036 6100=
07299,1998-04-18 21:00:00,4,1009.5,1.8,93,3,10000,14.816,,,250,,,,,,,,,,2,wg-a,,,,AAXX 18214 07299 02460 82508 10040 20030 39766 40095 51018 61000 70262 8587/ 92100 333 ////=
07299,1998-04-19 00:00:00,5,1010.3,0.8,87,3,15000,18.52,,,230,,,,,,,,,,2,wg-a,,,,AAXX 19004 07299 02565 72310 10050 20030 39774 40103 51008 61000 70262 8557/ 90000 333 ////=
07299,1998-04-19 03:00:00,4,1010.5,0.2,87,2,20000,7.408,,,250,,,,,,,,,,,wg-a,,,,AAXX 19034 07299 12570 72504 10040 20020 39776 40105 53002 60006 875// 90300=
07299,1998-04-19 06:00:00,3,1011.9,1.2,93,2,4000,14.816,,,230,2.5,4.8,,,,,,,,61,wg-a,,,,AAXX 19064 07299 02340 72308 10030 20020 39787 40119 53012 61000 76162 878// 90600 333 10048 20025 6004=
07299,1998-04-19 09:00:00,5,1013.1,1.4,87,3,10000,11.112,,,240,,,,1,,,,,,1,wg-a,,,,AAXX 19094 07299 12460 72406 10050 20030 39802 40131 53014 60017 70162 86830 90900=
07299,1998-04-19 12:00:00,9,1013,0.3,71,4,500,22.224,,,260,,,,,,,,,,1,wg-a,,,,AAXX 19124 07299 12500 /2612 10090 20040 39805 40130 51003 60016 70162 86800 91200=
07299,1998-04-19 15:00:00,11,1013.3,0.5,47,0,35000,22.224,,,240,,,,,,,,,,,wg-a,,,,AAXX 19154 07299 12681 22412 10110 20000 39810 40133 52005 60006 82801 91500=
07299,1998-04-19 18:00:00,9,1014.3,0.7,61,2,35000,7.408,,,240,2.1,10.7,,,,,,,,,wg-a,,,,AAXX 19184 07299 12681 /2404 10090 20020 39817 40143 53007 60006 81801 91800 333 10107 20021=
07299,1998-04-19 21:00:00,5,1016.1,1.4,81,2,15000,7.408,,,130,,,,,,,,,,,wg-a,,,,AAXX 19214 07299 12/65 31304 10050 20020 39831 40161 51014 60006 80001 92100=
07299,1998-04-20 00:00:00,1,1017.2,0.4,93,0,15000,11.112,,,170,,,,,,,,,,,wg-a,,,,AAXX 20004 07299 12/65 41706 10010 20000 39836 40172 50004 60006 80001 90000=
07299,1998-04-20 03:00:00,-1,1017.3,-0,100,-1,15000,11.112,,,190,,,,,,,,,,,wg-a,,,,AAXX 20034 07299 12/65 41906 11010 21010 39835 40173 54000 60006 80001 90300=
07299,1998-04-20 06:00:00,3,1017.4,0.5,93,2,25000,11.112,,,150,-0.7,8.7,,,,,1,,,,wg-a,,,,AAXX 20064 07299 02/75 11506 10030 20020 39841 40174 53005 60006 81031 90600 333 10087 21007 60014=
07299,1998-04-20 09:00:00,12,1016.1,-0.3,54,3,25000,7.408,,,100,,,,,,,,,,,wg-a,,,,AAXX 20094 07299 12/75 71004 10120 20030 39838 40161 58003 60006 81032 90900=
07299,1998-04-20 12:00:00,16,1014.5,-1,45,4,40000,7.408,,,120,,,,,,,,,,,wg-a,,,,AAXX 20124 07299 12782 71204 10160 20040 39828 40145 58010 60006 81142 91200=
07299,1998-04-20 15:00:00,18,1013.5,-0.8,37,3,40000,3.704,,,30,,,,,,,,,,,wg-a,,,,AAXX 20154 07299 12882 70302 10180 20030 39820 40135 56008 60006 82442 91500=
07299,1998-04-20 18:00:00,11,1017.2,2.9,82,8,20000,22.224,,,260,3.6,18.2,,,,,,,,60,wg-a,,,,AAXX 20184 07299 02670 72612 10110 20080 39849 40172 53029 61000 76062 8457/ 91800 333 10182 20036 6000=
07299,1998-04-20 21:00:00,11,1018.2,0.9,87,9,20000,7.408,,,130,,,,0,,,,,,2,wg-a,,,,AAXX 20214 07299 12770 71304 10110 20090 39858 40182 51009 60007 70262 8557/ 92100=
07299,1998-04-21 00:00:00,10,1018.2,-0.1,93,9,20000,3.704,,,110,,,,0,,,,,,0,wg-a,,,,AAXX 21004 07299 02670 71102 10100 20090 39857 40182 56001 60016 70062 8557/ 90000 333 60007=
07299,1998-04-21 03:00:00,9,1018.7,0.4,100,9,20000,7.408,,,110,,,,2,,,,,,,wg-a,,,,AAXX 21034 07299 12470 71104 10090 20090 39861 40187 50004 60027 875// 90300=
07299,1998-04-21 06:00:00,9,1020.1,1.3,100,9,10000,7.408,,,160,9.1,11.2,,,,,,,,61,wg-a,,,,AAXX 21064 07299 02560 71604 10090 20090 39874 40201 53013 61000 76162 875// 90600 333 10112 20091 6006=
07299,1998-04-21 09:00:00,11,1020.9,0.8,87,9,15000,7.408,,,120,,,,,,,,,,1,wg-a,,,,AAXX 21094 07299 02565 71204 10110 20090 39884 40209 51008 61000 70162 878// 90900 333 ////=
07299,1998-04-21 12:00:00,16,1019.1,-1.1,63,9,500,3.704,,,120,,,,,,,,,,1,wg-a,,,,AAXX 21124 07299 02600 /1202 10160 20090 39872 40191 58011 61000 70162 83802 91200 333 ////=
07299,1998-04-21 15:00:00,18,1017.3,-1.5,52,8,500,3.704,,,100,,,,,,,,,,,wg-a,,,,AAXX 21154 07299 12600 31002 10180 20080 39857 40173 58015 60006 82202 91500=
07299,1998-04-21 18:00:00,16,1017.2,-0.3,55,7,500,3.704,,,110,9,17.9,,,,,,,,,wg-a,,,,AAXX 21184 07299 12800 /1102 10160 20070 39854 40172 55003 60006 81401 91800 333 10179 20090=
07299,1998-04-21 21:00:00,11,1018.3,0.5,76,7,25000,3.704,,,140,,,,,,,,,,,wg-a,,,,AAXX 21214 07299 12/75 31402 10110 20070 39859 40183 51005 60006 80002 92100=
07299,1998-04-22 00:00:00,8,1018.5,-0.2,93,7,25000,0,,,0,,,,,,,,,,,wg-a,,,,AAXX 22004 07299 12/75 30000 10080 20070 39857 40185 56002 60006 80002 90000=
07299,1998-04-22 03:00:00,6,1018.1,-0.6,100,6,25000,3.704,,,230,,,,,,,,,,,wg-a,,,,AAXX 22034 07299 12/75 22302 10060 20060 39851 40181 56006 60006 80002 90300=
07299,1998-04-22 06:00:00,7,1018,-0,100,7,18000,0,,,0,4.3,16.1,,,,,,,,,wg-a,,,,AAXX 22064 07299 02/68 20000 10070 20070 39851 40180 55000 60006 80002 90600 333 10161 20043 61000=
07299,1998-04-22 09:00:00,15,1016.2,-0.8,67,9,25000,11.112,,,350,,,,,,,,,,,wg-a,,,,AAXX 22094 07299 12675 23506 10150 20090 39843 40162 58008 60006 81101 90900=
07299,1998-04-22 12:00:00,19,1013.7,-1.8,56,10,25000,7.408,,,330,,,,,,,,,,,wg-a,,,,AAXX 22124 07299 12675 /3304 10190 20100 39824 40137 58018 60006 81101 91200=
07299,1998-04-22 15:00:00,22,1011.5,-1.9,41,8,500,7.408,,,40,,,,,,,,,,,wg-a,,,,AAXX 22154 07299 12700 /0404 10220 20080 39805 40115 56019 60006 81100 91500=
07299,1998-04-22 18:00:00,20,1011.2,-0.4,49,9,500,3.704,,,30,7,21.9,,,,,,,,,wg-a,,,,AAXX 22184 07299 12700 /0302 10200 20090 39800 40112 55004 60006 81101 91800 333 10219 20070=
07299,1998-04-22 21:00:00,15,1012.9,1.1,59,7,500,3.704,,,120,,,,,,,,,,,wg-a,,,,AAXX 22214 07299 12/00 11202 10150 20070 39811 40129 52011 60006 80001 92100=
07299,1998-04-23 00:00:00,13,1013.7,0.6,62,6,20000,7.408,,,120,,,,,,,,,,,wg-a,,,,AAXX 23004 07299 12/70 01204 10130 20060 39817 40137 51006 60006 80000 90000=
07299,1998-04-23 03:00:00,9,1014.2,-0,81,6,20000,0,,,0,,,,,,,,,,,wg-a,,,,AAXX 23034 07299 12/70 20000 10090 20060 39817 40142 54000 60006 80001 90300=
07299,1998-04-23 06:00:00,9,1015.1,0.9,87,7,20000,7.408,,,170,7.2,19.9,,,,,,,,,wg-a,,,,AAXX 23064 07299 02/70 31704 10090 20070 39826 40151 53009 60006 81031 90600 333 10199 20072 60004=
07299,1998-04-23 09:00:00,17,1014.6,0.4,52,7,25000,7.408,,,150,,,,,,,,,,,wg-a,,,,AAXX 23094 07299 12/75 31504 10170 20070 39830 40146 51004 60006 81031 90900=
07299,1998-04-23 12:00:00,22,1012.7,-1.3,46,10,25000,3.704,,,150,,,,,,,,,,,wg-a,,,,AAXX 23124 07299 12675 31502 10220 20100 39817 40127 58013 60006 81102 91200=
07299,1998-04-23 15:00:00,22,1012.5,-0.2,53,12,25000,22.224,,,280,,,,,,,,,,,wg-a,,,,AAXX 23154 07299 12675 /2812 10220 20120 39815 40125 56002 60006 83302 91500=
07299,1998-04-23 18:00:00,17,1014,1,68,11,25000,18.52,,,200,9.3,22.8,,,,,,,,,wg-a,,,,AAXX 23184 07299 12675 72010 10170 20110 39825 40140 51010 60006 85832 91800 333 10228 20093=
07299,1998-04-23 21:00:00,15,1015.7,1.4,82,12,25000,0,,,0,,,,,,,,,,,wg-a,,,,AAXX 23214 07299 12775 60000 10150 20120 39839 40157 51014 60006 81532 92100=
07299,1998-04-24 00:00:00,14,1017.4,1.4,72,9,25000,11.112,,,240,,,,,,,,,,,wg-a,,,,AAXX 24004 07299 12775 32406 10140 20090 39853 40174 51014 60006 81502 90000=
07299,1998-04-24 03:00:00,13,1018.9,1.4,67,7,25000,11.112,,,270,,,,,,,,,,,wg-a,,,,AAXX 24034 07299 12675 72706 10130 20070 39867 40189 53014 60006 8453/ 90300=
07299,1998-04-24 06:00:00,13,1020.4,1.5,72,8,25000,18.52,,,250,12.4,17.3,,,,,,,,,wg-a,,,,AAXX 24064 07299 02675 72510 10130 20080 39881 40204 53015 60006 84831 90600 333 10173 20124 60004=
07299,1998-04-24 09:00:00,15,1021.1,0.9,63,8,15000,18.52,,,260,,,,,,,,,,,wg-a,,,,AAXX 24094 07299 12665 72610 10150 20080 39891 40211 53009 60006 86801 90900=
07299,1998-04-24 12:00:00,17,1020.7,-0,52,7,20000,25.928,,42.596,240,,,,,,,,,,,wg-a,,,,AAXX 24124 07299 12670 72414 10170 20070 39889 40207 54000 60006 86801 91200 333 91023=
07299,1998-04-24 18:00:00,15,1021.5,0.7,55,6,500,18.52,,,270,12.4,17.9,,,,,,,,,wg-a,,,,AAXX 24184 07299 12600 /2710 10150 20060 39895 40215 53007 60006 84832 91800 333 10179 20124=
07299,1998-04-25 00:00:00,9,1022.9,-0.1,81,6,500,3.704,,,150,,,,,,,,,,,wg-a,,,,AAXX 25004 07299 12/00 21502 10090 20060 39901 40229 58001 60006 80001 90000=
07299,1998-04-25 06:00:00,10,1022,-0.6,82,7,20000,7.408,,,150,6.3,15.2,,,,,,,,,wg-a,,,,AAXX 25064 07299 02870 21504 10100 20070 39894 40220 55006 60006 81502 90600 333 10152 20063 60004=
07299,1998-04-25 12:00:00,21,1017,-3.1,40,7,25000,3.704,,,180,,,,,,,,,,,wg-a,,,,AAXX 25124 07299 12775 61802 10210 20070 39857 40170 56031 60006 81105 91200=
07299,1998-04-25 18:00:00,17,1016.4,0.1,68,11,18000,11.112,,,260,10.3,21.8,,,,,,,,60,wg-a,,,,AAXX 25184 07299 02768 82606 10170 20110 39848 40164 53001 61000 76062 8557/ 91800 333 10218 20103 6100=
07299,1998-04-26 00:00:00,13,1014.1,-3.2,94,12,18000,7.408,,,120,,,,0,,,,,,3,wg-a,,,,AAXX 26004 07299 02768 81204 10130 20120 39821 40141 56032 60016 70362 8687/ 90000 333 60007=
07299,1998-04-26 06:00:00,12,1011.8,-0.5,100,12,10000,7.408,,,110,12.3,17.4,,,,,,,,61,wg-a,,,,AAXX 26064 07299 02560 81104 10120 20120 39798 40118 58005 61000 76161 8752/ 90600 333 10174 20123 6002=
07299,1998-04-26 12:00:00,20,1006.6,-2.5,60,12,20000,7.408,,,120,,,,,,,,,,1,wg-a,,,,AAXX 26124 07299 12670 71204 10200 20120 39755 40066 57025 60016 70162 82832 91200=
07299,1998-04-26 18:00:00,18,1003.6,-1.2,73,13,25000,7.408,,,260,12.4,21.6,,,,,,,,,wg-a,,,,AAXX 26184 07299 12775 82604 10180 20130 39725 40036 56012 60006 8557/ 91800 333 10216 20124=
07299,1998-04-27 00:00:00,13,1002.7,-1.1,100,13,8000,11.112,,,320,,,,0,,,,,,0,wg-a,,,,AAXX 27004 07299 02258 83206 10130 20130 39711 40027 58011 60006 70062 885// 90000 333 60007=
07299,1998-04-27 06:00:00,12,998.9,-1.9,100,12,1500,11.112,,,340,11.7,17.8,,,,,,,,10,wg-a,,,,AAXX 27064 07299 02115 83406 10120 20120 39672 49989 56019 61000 71052 887// 90600 333 10178 20117 6001=
07299,1998-04-27 09:00:00,13,998.6,-0.1,94,12,2500,7.408,,,290,,,,,,,,,,10,wg-a,,,,AAXX 27094 07299 02225 82904 10130 20120 39671 49986 55001 61000 71052 877// 90900 333 ////=
07299,1998-04-27 12:00:00,10,1002,3,87,8,10000,42.596,,61.116,250,,,,,,,,,,60,wg-a,,,,AAXX 27124 07299 02460 82523 10100 20080 39700 40020 53030 61000 76065 878// 91200 333 6100 91033=
07299,1998-04-27 15:00:00,9,1005.6,3.2,76,5,20000,22.224,,,250,,,,,,,,,,60,wg-a,,,,AAXX 27154 07299 02570 72512 10090 20050 39733 40056 51032 61000 76086 878// 91500 333 ////=
07299,1998-04-27 18:00:00,8,1006.5,0.9,81,5,18000,18.52,,,240,8,14.2,,,,,,,,21,wg-a,,,,AAXX 27184 07299 02568 82410 10080 20050 39742 40065 53009 61000 72186 878// 91800 333 10142 20080 6100=
07299,1998-04-27 21:00:00,8,1007.7,1,81,5,18000,3.704,,,250,,,,,,,,,,3,wg-a,,,,AAXX 27214 07299 02568 72502 10080 20050 39753 40077 51010 61000 70362 875// 92100 333 ////=
07299,1998-04-28 00:00:00,8,1008.1,0.3,87,6,18000,0,,,0,,,,,,,,,,0,wg-a,,,,AAXX 28004 07299 02568 70000 10080 20060 39756 40081 52003 61000 70062 875// 90000 333 ////=
07299,1998-04-28 03:00:00,8,1007.8,-0.3,87,6,18000,0,,,0,,,,,,,,,,,wg-a,,,,AAXX 28034 07299 12568 70000 10080 20060 39753 40078 56003 60006 875// 90300=
07299,1998-04-28 06:00:00,8,1008.2,0.5,93,7,18000,3.704,,,260,7.3,8.3,,,,,,,,20,wg-a,,,,AAXX 28064 07299 02568 72602 10080 20070 39758 40082 53005 61000 72052 875// 90600 333 10083 20073 6000=
07299,1998-04-28 09:00:00,10,1008.5,0.5,82,7,18000,11.112,,,250,,,,,,,,,,,wg-a,,,,AAXX 28094 07299 12468 72506 10100 20070 39763 40085 51005 60006 86531 90900=
07299,1998-04-28 12:00:00,13,1007.9,-0.3,58,5,20000,7.408,,,310,,,,,,,,,,,wg-a,,,,AAXX 28124 07299 12570 73104 10130 20050 39760 40079 58003 60006 86801 91200=
07299,1998-04-28 15:00:00,12,1007.9,0.1,67,6,12000,11.112,,,130,,,,,,,,,,16,wg-a,,,,AAXX 28154 07299 02662 71306 10120 20060 39759 40079 53001 61000 71686 85833 91500 333 ////=
07299,1998-04-28 18:00:00,11,1008.3,0.2,76,7,13000,11.112,,,100,8.2,13.1,,,,,,,,25,wg-a,,,,AAXX 28184 07299 02563 71006 10110 20070 39762 40083 50002 61000 72586 8686/ 91800 333 10131 20082 6001=
07299,1998-04-28 21:00:00,9,1009,0.4,87,7,15000,3.704,,,80,,,,,,,,,,,wg-a,,,,AAXX 28214 07299 12765 /0802 10090 20070 39766 40090 50004 60006 83531 92100=
07299,1998-04-29 00:00:00,6,1008.7,-0.6,93,5,0,0,,,0,,,,,,,,,,,wg-a,,,,AAXX 29004 07299 12/// /0000 10060 20050 39760 40087 58006 60006 90000=
07299,1998-04-29 03:00:00,4,1007.6,-1.3,100,4,7000,7.408,,,190,,,,,,,,,,,wg-a,,,,AAXX 29034 07299 12/57 01904 10040 20040 39747 40076 58013 60006 80000 90300=
07299,1998-04-29 06:00:00,6,1007.1,-0.3,100,6,4500,0,,,0,2.5,10.6,,,,,1,,,10,wg-a,,,,AAXX 29064 07299 02/45 /0000 10060 20060 39744 40071 56003 60006 71040 80000 90600 333 10106 20025 60014=
07299,1998-04-29 09:00:00,12,1005.5,-0.8,71,7,10000,11.112,,,120,,,,,,,,,,,wg-a,,,,AAXX 29094 07299 12460 21206 10120 20070 39736 40055 56008 60006 82100 90900=
07299,1998-04-29 12:00:00,16,1003.9,-1.2,55,7,20000,18.52,,,130,,,,,,,,,,,wg-a,,,,AAXX 29124 07299 12670 31310 10160 20070 39724 40039 56012 60006 82102 91200=
07299,1998-04-29 18:00:00,16,1002.9,-0.2,51,6,20000,11.112,,,80,5.7,17.5,,,,,,,,,wg-a,,,,AAXX 29184 07299 12770 70806 10160 20060 39715 40029 56002 60006 814/2 91800 333 10175 20057=
07299,1998-04-29 21:00:00,11,1003.9,0.5,71,6,18000,3.704,,,60,,,,,,,,,,,wg-a,,,,AAXX 29214 07299 12768 60602 10110 20060 39720 40039 50005 60006 82532 92100=
07299,1998-04-30 00:00:00,7,1004.4,0,93,6,10000,11.112,,,320,,,,,,,,,,,wg-a,,,,AAXX 30004 07299 12/60 53206 10070 20060 39720 40044 50000 60006 80001 90000=
07299,1998-04-30 03:00:00,5,1004.3,-0.4,100,5,500,0,,,0,,,,,,,,,,,wg-a,,,,AAXX 30034 07299 12/00 00000 10050 20050 39716 40043 56004 60006 80000 90300=
07299,1998-04-30 06:00:00,7,1004.6,0.6,100,7,300,0,,,0,4.3,15.5,,,,,,,,41,wg-a,,,,AAXX 30064 07299 02103 80000 10070 20070 39722 40046 53006 60006 74141 886// 90600 333 10155 20043 60004=
07299,1998-04-30 09:00:00,12,1004.1,0.1,82,9,4500,3.704,,,300,,,,,,,,,,10,wg-a,,,,AAXX 30094 07299 12345 /3002 10120 20090 39723 40041 51001 60006 71042 81602 90900=
07299,1998-04-30 12:00:00,16,1003.1,-0.5,63,9,9000,11.112,,,340,,,,,,,,,,2,wg-a,,,,AAXX 30124 07299 12659 73406 10160 20090 39718 40031 58005 60006 70242 82132 91200=
07299,1998-04-30 15:00:00,20,1001.9,-0.8,53,10,15000,18.52,,,350,,,,,,,,,,,wg-a,,,,AAXX 30154 07299 12665 73510 10200 20100 39710 40019 57008 60006 81102 91500=
07299,1998-04-30 18:00:00,18,1002.8,0.6,59,10,25000,14.816,,,350,6.8,19.9,,,,,,,,,wg-a,,,,AAXX 30184 07299 12775 63508 10180 20100 39716 40028 53006 60006 814/2 91800 333 10199 20068=
07299,1998-04-30 21:00:00,12,1005,1.6,82,9,20000,7.408,,,260,,,,,,,,,,,wg-a,,,,AAXX 30214 07299 12770 32604 10120 20090 39732 40050 51016 60006 815/2 92100=
07299,1998-05-01 00:00:00,11,1007,1.8,87,9,15000,3.704,,,260,,,,,,,,,,,wg-a,,,,AAXX 01004 07299 12/65 32602 10110 20090 39750 40070 53018 60006 80002 90000=
07299,1998-05-01 03:00:00,12,1008.2,1.2,82,9,15000,11.112,,,230,,,,,,,,,,,wg-a,,,,AAXX 01034 07299 12565 72306 10120 20090 39762 40082 52012 60006 875// 90300=
07299,1998-05-01 06:00:00,12,1008.9,0.8,88,10,15000,25.928,,,250,9.3,17.7,,,,,,,,,wg-a,,,,AAXX 01064 07299 02465 72514 10120 20100 39770 40089 51008 60006 878// 90600 333 10177 20093 60004=
07299,1998-05-01 09:00:00,13,1009.9,1,82,10,15000,14.816,,,240,,,,,,,,,,,wg-a,,,,AAXX 01094 07299 12465 72408 10130 20100 39780 40099 51010 60006 878// 90900=
07299,1998-05-01 12:00:00,14,1009.6,-0.2,77,10,15000,22.224,,,250,,,,,,,,,,21,wg-a,,,,AAXX 01124 07299 02565 72512 10140 20100 39778 40096 58002 61000 72162 878// 91200 333 6100=
07299,1998-05-01 15:00:00,15,1008.7,-0.6,72,10,15000,22.224,,,260,,,,,,,,,,,wg-a,,,,AAXX 01154 07299 12565 72612 10150 20100 39771 40087 58006 60006 878// 91500=
07299,1998-05-01 18:00:00,14,1008.5,-0.3,72,9,15000,18.52,,,250,12.4,15.3,,,,,,,,,wg-a,,,,AAXX 01184 07299 12665 72510 10140 20090 39767 40085 55003 60006 85832 91800 333 10153 20124=
07299,1998-05-01 21:00:00,12,1009.3,0.5,82,9,15000,18.52,,,240,,,,,,,,,,,wg-a,,,,AAXX 01214 07299 12665 72410 10120 20090 39774 40093 50005 60006 8553/ 92100=
07299,1998-05-02 00:00:00,12,1009.1,-0.2,88,10,15000,11.112,,,230,,,,,,,,,,,wg-a,,,,AAXX 02004 07299 12665 72306 10120 20100 39771 40091 57002 60006 875// 90000=
07299,1998-05-02 03:00:00,11,1008.9,-0.2,94,10,8000,14.816,,,260,,,,,,,,,,,wg-a,,,,AAXX 02034 07299 12458 82608 10110 20100 39768 40089 55002 60006 887// 90300=
07299,1998-05-02 06:00:00,11,1009.7,0.8,100,11,6000,11.112,,,240,10.6,13.7,,,,,,,,60,wg-a,,,,AAXX 02064 07299 02456 82406 10110 20110 39776 40097 53008 61000 76062 887// 90600 333 10137 20106 6002=
07299,1998-05-02 09:00:00,11,1011.2,1.5,94,10,7000,14.816,,,250,,,,6,,,,,,60,wg-a,,,,AAXX 02094 07299 12657 82508 10110 20100 39791 40112 52015 60067 76066 877// 90900=
07299,1998-05-02 12:00:00,14,1011.5,0.5,77,10,15000,18.52,,,240,,,,,,,,,,2,wg-a,,,,AAXX 02124 07299 02465 82410 10140 20100 39796 40115 51005 60066 70262 878// 91200 333 61000=
07299,1998-05-02 15:00:00,14,1011.1,-0.4,77,10,12000,18.52,,,270,,,,,,,,,,,wg-a,,,,AAXX 02154 07299 12662 82710 10140 20100 39793 40111 58004 60006 878// 91500=
07299,1998-05-02 18:00:00,12,1011.6,0.3,82,9,13000,11.112,,,280,10.7,14.5,,,,,,,,,wg-a,,,,AAXX 02184 07299 12463 72806 10120 20090 39795 40116 53003 60006 878// 91800 333 10145 20107=
07299,1998-05-02 21:00:00,11,1012.3,0.6,87,9,13000,3.704,,,160,,,,,,,,,,,wg-a,,,,AAXX 02214 07299 12563 71602 10110 20090 39801 40123 53006 60006 878// 92100=
07299,1998-05-03 03:00:00,9,1010.8,-0.9,100,9,10000,3.704,,,340,,,,,,,,,,,wg-a,,,,AAXX 03034 07299 12460 73402 10090 20090 39784 40108 56009 60006 878// 90300=
07299,1998-05-03 06:00:00,10,1010.3,-0.3,93,9,10000,3.704,,,170,9,11.7,,,,,6,,,,wg-a,,,,AAXX 03064 07299 02560 71702 10100 20090 39781 40103 55003 60006 875// 90600 333 10117 20090 60064=
07299,1998-05-03 09:00:00,13,1010.1,0.1,77,9,15000,7.408,,,360,,,,,,,,,,,wg-a,,,,AAXX 03094 07299 12465 73604 10130 20090 39782 40101 51001 60006 878// 90900=
07299,1998-05-03 12:00:00,14,1009.4,-0.6,82,11,10000,22.224,,,340,,,,,,,,,,,wg-a,,,,AAXX 03124 07299 12460 73412 10140 20110 39776 40094 57006 60006 878// 91200=
07299,1998-05-03 15:00:00,16,1007.9,-1.2,72,11,15000,18.52,,,360,,,,,,,,,,,wg-a,,,,AAXX 03154 07299 12565 /3610 10160 20110 39764 40079 58012 60006 83830 91500=
07299,1998-05-03 17:00:00,15,1007.3,,72,10,10000,18.52,,,10,,,,,,,,,,,wg-a,,,,AAXX 03174 07299 12660 70110 10150 20100 39757 40073 60006 91700=
07299,1998-05-03 18:00:00,14,1007.8,-0.3,77,10,10000,18.52,,,10,10.2,16.2,,,,,,,,,wg-a,,,,AAXX 03184 07299 12660 70110 10140 20100 39761 40078 55003 60006 85531 91800 333 10162 20102=
07299,1998-05-03 21:00:00,12,1009.1,1,82,9,6000,18.52,,,340,,,,,,,,,,,wg-a,,,,AAXX 03214 07299 12756 73410 10120 20090 39771 40091 51010 60006 875// 92100=
07299,1998-05-04 00:00:00,10,1008.8,-0.5,93,9,0,22.224,,,340,,,,,,,,,,,wg-a,,,,AAXX 04004 07299 12/// /3412 10100 20090 39767 40088 58005 60006 90000=
07299,1998-05-04 03:00:00,10,1007.9,-0.9,93,9,3500,25.928,,,350,,,,,,,,,,10,wg-a,,,,AAXX 04034 07299 12335 73514 10100 20090 39757 40079 56009 60006 71022 877// 90300=
07299,1998-05-04 06:00:00,10,1008,0.1,93,9,3500,25.928,,,340,9.7,14.3,,,,,,,,10,wg-a,,,,AAXX 04064 07299 02335 73414 10100 20090 39758 40080 53001 60006 71022 876// 90600 333 10143 20097 60004=
07299,1998-05-04 09:00:00,11,1008.8,0.9,76,7,8000,29.632,,,350,,,,,,,,,,,wg-a,,,,AAXX 04094 07299 12458 73516 10110 20070 39767 40088 53009 60006 875// 90900=
07299,1998-05-04 12:00:00,12,1009.2,0.5,67,6,12000,25.928,,,10,,,,,,,,,,,wg-a,,,,AAXX 04124 07299 12562 /0114 10120 20060 39772 40092 50005 60006 86500 91200=
07299,1998-05-04 15:00:00,14,1009.2,0.2,47,3,500,29.632,,,20,,,,,,,,,,,wg-a,,,,AAXX 04154 07299 12600 40216 10140 20030 39774 40092 50002 60006 83830 91500=
07299,1998-05-04 18:00:00,12,1010.6,1.3,54,3,500,18.52,,,10,9.9,14.2,,,,,,,,,wg-a,,,,AAXX 04184 07299 12600 30110 10120 20030 39786 40106 53013 60006 83800 91800 333 10142 20099=
07299,1998-05-04 21:00:00,9,1012.7,1.5,66,3,25000,11.112,,,330,,,,,,,,,,,wg-a,,,,AAXX 04214 07299 12675 73306 10090 20030 39802 40127 52015 60006 86501 92100=
07299,1998-05-05 00:00:00,6,1013.6,0.6,81,3,25000,3.704,,,270,,,,,,,,,,,wg-a,,,,AAXX 05004 07299 12675 22702 10060 20030 39808 40136 50006 60006 82500 90000=
07299,1998-05-05 03:00:00,3,1013.6,-0.4,93,2,25000,3.704,,,220,,,,,,,,,,,wg-a,,,,AAXX 05034 07299 12775 12202 10030 20020 39804 40136 58004 60006 81500 90300=
07299,1998-05-05 06:00:00,5,1014,0.6,93,4,20000,0,,,0,2.4,12.3,,,,,,,,,wg-a,,,,AAXX 05064 07299 02/70 10000 10050 20040 39810 40140 53006 60006 80001 90600 333 10123 20024 60004=
07299,1998-05-05 09:00:00,11,1012.9,-0.3,58,3,15000,3.704,,,300,,,,,,,,,,,wg-a,,,,AAXX 05094 07299 12665 23002 10110 20030 39807 40129 58003 60006 82201 90900=
07299,1998-05-05 12:00:00,14,1011.7,-0.9,51,4,20000,7.408,,,290,,,,,,,,,,,wg-a,,,,AAXX 05124 07299 12670 32904 10140 20040 39798 40117 57009 60006 83200 91200=
07299,1998-05-05 15:00:00,15,1011,-0.6,51,5,15000,11.112,,,310,,,,,,,,,,,wg-a,,,,AAXX 05154 07299 12665 /3106 10150 20050 39792 40110 56006 60006 85800 91500=
07299,1998-05-05 18:00:00,13,1012.1,0.9,51,3,15000,14.816,,,280,4.9,16.1,,,,,,,,,wg-a,,,,AAXX 05184 07299 12665 72808 10130 20030 39801 40121 53009 60006 875// 91800 333 10161 20049=
07299,1998-05-05 21:00:00,10,1013.3,0.9,71,5,20000,11.112,,,240,,,,,,,,,,,wg-a,,,,AAXX 05214 07299 12770 62406 10100 20050 39810 40133 51009 60006 86500 92100=
07299,1998-05-06 00:00:00,9,1013.2,-0.2,76,5,20000,7.408,,,100,,,,,,,,,,,wg-a,,,,AAXX 06004 07299 12770 71004 10090 20050 39808 40132 57002 60006 875// 90000=
07299,1998-05-06 03:00:00,9,1013,-0.3,81,6,11000,0,,,0,,,,,,,,,,,wg-a,,,,AAXX 06034 07299 12/61 /0000 10090 20060 39805 40130 55003 60006 90300=
07299,1998-05-06 06:00:00,11,1013.6,0.8,82,8,15000,3.704,,,90,8.3,13.4,,,,,,,,21,wg-a,,,,AAXX 06064 07299 02565 80902 10110 20080 39813 40136 51008 61000 72162 875// 90600 333 10134 20083 6100=
07299,1998-05-06 09:00:00,12,1014.3,1,76,8,15000,18.52,,,260,,,,,,,,,,60,wg-a,,,,AAXX 06094 07299 02465 82610 10120 20080 39822 40143 52010 61000 76062 8587/ 90900 333 ////=
07299,1998-05-06 12:00:00,15,1014.2,0.1,59,7,20000,18.52,,,250,,,,,,,,,,3,wg-a,,,,AAXX 06124 07299 02670 72510 10150 20070 39824 40142 50001 61000 70362 8787/ 91200 333 6100=
07299,1998-05-06 15:00:00,14,1014.6,0.2,72,9,15000,25.928,,,300,,,,,,,,,,,wg-a,,,,AAXX 06154 07299 12665 /3014 10140 20090 39827 40146 53002 60006 85830 91500=
07299,1998-05-06 18:00:00,14,1015.7,1.1,63,7,18000,22.224,,,280,10.1,16.4,,,,,,,,,wg-a,,,,AAXX 06184 07299 12668 22812 10140 20070 39837 40157 53011 60006 82800 91800 333 10164 20101=
07299,1998-05-06 21:00:00,9,1018.9,2.6,87,7,15000,7.408,,,170,,,,,,,,,,,wg-a,,,,AAXX 06214 07299 12765 21704 10090 20070 39863 40189 51026 60006 82500 92100=
07299,1998-05-07 00:00:00,7,1019.7,0.5,93,6,15000,11.112,,,160,,,,,,,,,,,wg-a,,,,AAXX 07004 07299 12/65 11606 10070 20060 39868 40197 51005 60006 81030 90000=
07299,1998-05-07 03:00:00,4,1020.6,0.5,93,3,10000,3.704,,,170,,,,,,,,,,,wg-a,,,,AAXX 07034 07299 12/60 /1702 10040 20030 39873 40206 50005 60006 90300=
07299,1998-05-07 06:00:00,9,1021.3,1.2,87,7,20000,11.112,,,150,3.5,13.5,,,,,,,,,wg-a,,,,AAXX 07064 07299 02/70 11506 10090 20070 39885 40213 53012 60006 81030 90600 333 10135 20035 61000=
07299,1998-05-07 09:00:00,16,1020.6,0.1,51,6,22000,3.704,,,80,,,,,,,,,,,wg-a,,,,AAXX 07094 07299 12672 /0802 10160 20060 39886 40206 50001 60006 81102 90900=
07299,1998-05-07 12:00:00,19,1019.3,-0.9,46,7,28000,7.408,,,360,,,,,,,,,,,wg-a,,,,AAXX 07124 07299 12678 /3604 10190 20070 39877 40193 58009 60006 81102 91200=
07299,1998-05-07 15:00:00,21,1018.5,-0.5,43,8,35000,3.704,,,270,,,,,,,,,,,wg-a,,,,AAXX 07154 07299 12781 /2702 10210 20080 39872 40185 56005 60006 81100 91500=
07299,1998-05-07 18:00:00,19,1019.2,0.5,52,9,40000,7.408,,,330,8.4,21.6,,,,,,,,,wg-a,,,,AAXX 07184 07299 12/82 03304 10190 20090 39877 40192 53005 60006 80000 91800 333 10216 20084=
07299,1998-05-07 21:00:00,13,1022,1.9,77,9,50000,3.704,,,180,,,,,,,,,,,wg-a,,,,AAXX 07214 07299 12/84 01802 10130 20090 39897 40220 53019 60006 80000 92100=
07299,1998-05-08 00:00:00,10,1023.8,1.4,87,8,0,3.704,,,150,,,,,,,,,,,wg-a,,,,AAXX 08004 07299 12/// /1502 10100 20080 39911 40238 51014 60006 90000=
07299,1998-05-08 03:00:00,8,1024.6,0.6,93,7,500,7.408,,,180,,,,,,,,,,,wg-a,,,,AAXX 08034 07299 12/00 01804 10080 20070 39917 40246 51006 60006 80000 90300=
07299,1998-05-08 06:00:00,12,1025.4,1.1,76,8,20000,11.112,,,150,7.6,19.4,,,,,,,,,wg-a,,,,AAXX 08064 07299 02/70 01506 10120 20080 39929 40254 53011 60006 80000 90600 333 10194 20076 60004=
07299,1998-05-08 09:00:00,20,1024.1,-0.3,56,11,20000,3.704,,,100,,,,,,,,,,,wg-a,,,,AAXX 08094 07299 12/70 01002 10200 20110 39926 40241 58003 60006 80000 90900=
07299,1998-05-08 12:00:00,25,1022.4,-1.3,36,9,20000,7.408,,,150,,,,,,,,,,,wg-a,,,,AAXX 08124 07299 12670 /1504 10250 20090 39914 40224 58013 60006 81201 91200=
07299,1998-05-08 15:00:00,27,1020.5,-1.6,32,9,40000,7.408,,,70,,,,,,,,,,,wg-a,,,,AAXX 08154 07299 12682 /0704 10270 20090 39897 40205 58016 60006 81201 91500=
07299,1998-05-08 18:00:00,25,1020.5,-0.2,32,7,40000,11.112,,,90,12.1,26.6,,,,,,,,,wg-a,,,,AAXX 08184 07299 12/82 70906 10250 20070 39895 40205 55002 60006 80001 91800 333 10266 20121=
07299,1998-05-08 21:00:00,15,1023.5,1.9,72,10,28000,14.816,,,220,,,,,,,,,,,wg-a,,,,AAXX 08214 07299 12/78 62208 10150 20100 39914 40235 53019 60006 80001 92100=
07299,1998-05-09 00:00:00,15,1024.4,0.9,72,10,500,7.408,,,160,,,,,,,,,,,wg-a,,,,AAXX 09004 07299 12/00 21604 10150 20100 39923 40244 51009 60006 80001 90000=
07299,1998-05-09 03:00:00,12,1024.6,-0.1,88,10,22000,3.704,,,140,,,,,,,,,,11,wg-a,,,,AAXX 09034 07299 12/72 /1402 10120 20100 39922 40246 58001 60006 71111 80001 90300=
07299,1998-05-09 06:00:00,15,1025.1,0.7,72,10,20000,7.408,,,150,11.8,24.6,,,,,,,,,wg-a,,,,AAXX 09064 07299 02/70 71504 10150 20100 39929 40251 53007 60006 80001 90600 333 10246 20118 60004=
07299,1998-05-09 09:00:00,20,1024.6,0.2,56,11,500,3.704,,,130,,,,,,,,,,,wg-a,,,,AAXX 09094 07299 12500 71302 10200 20110 39930 40246 52002 60006 81101 90900=
07299,1998-05-09 12:00:00,25,1022.7,-1.3,39,10,40000,3.704,,,100,,,,,,,,,,,wg-a,,,,AAXX 09124 07299 12782 /1002 10250 20100 39917 40227 58013 60006 81202 91200=
07299,1998-05-09 15:00:00,26,1021,-1.6,39,11,500,7.408,,,320,,,,,,,,,,,wg-a,,,,AAXX 09154 07299 12700 /3204 10260 20110 39901 40210 56016 60006 81202 91500=
07299,1998-05-09 18:00:00,23,1020.8,-0.4,47,11,40000,11.112,,,290,14.6,26.6,,,,,,,,,wg-a,,,,AAXX 09184 07299 12782 /2906 10230 20110 39897 40208 56004 60006 81201 91800 333 10266 20146=
07299,1998-05-10 00:00:00,13,1022.5,-0.3,82,10,40000,3.704,,,210,,,,,,,,,,,wg-a,,,,AAXX 10004 07299 12/82 02102 10130 20100 39902 40225 58003 60006 80000 90000=
07299,1998-05-10 03:00:00,11,1022.3,-0.4,87,9,40000,0,,,0,,,,,,,,,,,wg-a,,,,AAXX 10034 07299 12/82 00000 10110 20090 39898 40223 56004 60006 80000 90300=
07299,1998-05-10 06:00:00,13,1022,0,88,11,40000,7.408,,,170,10,23.3,,,,,,,,,wg-a,,,,AAXX 10064 07299 02/82 01704 10130 20110 39898 40220 50000 60006 80000 90600 333 10233 20100 60004=
07299,1998-05-10 09:00:00,22,1020.2,-0.9,50,11,35000,3.704,,,130,,,,,,,,,,,wg-a,,,,AAXX 10094 07299 12/81 11302 10220 20110 39889 40202 58009 60006 80001 90900=
07299,1998-05-10 12:00:00,26,1017.5,-2.1,48,14,35000,7.408,,,10,,,,,,,,,,,wg-a,,,,AAXX 10124 07299 12781 /0104 10260 20140 39868 40175 58021 60006 81201 91200=
07299,1998-05-10 15:00:00,28,1015.2,-2,32,10,500,11.112,,,20,,,,,,,,,,,wg-a,,,,AAXX 10154 07299 12700 10206 10280 20100 39847 40152 58020 60006 81201 91500=
07299,1998-05-10 18:00:00,27,1014.5,-0.8,39,12,500,3.704,,,350,13.6,28,,,,,,,,,wg-a,,,,AAXX 10184 07299 12/00 13502 10270 20120 39839 40145 56008 60006 80001 91800 333 10280 20136=
07299,1998-05-10 21:00:00,17,1015.9,0.4,72,12,500,11.112,,,160,,,,,,,,,,,wg-a,,,,AAXX 10214 07299 12/00 01606 10170 20120 39843 40159 52004 60006 80000 92100=
07299,1998-05-11 00:00:00,13,1016.2,-0.2,88,11,25000,11.112,,,180,,,,,,,,,,,wg-a,,,,AAXX 11004 07299 12/75 01806 10130 20110 39841 40162 58002 60006 80000 90000=
07299,1998-05-11 03:00:00,11,1016.5,0.1,87,9,20000,11.112,,,170,,,,,,,,,,,wg-a,,,,AAXX 11034 07299 12/70 01706 10110 20090 39842 40165 50001 60006 80000 90300=
07299,1998-05-11 06:00:00,15,1016.7,0.5,82,12,25000,3.704,,,180,10.5,26.5,,,,,,,,,wg-a,,,,AAXX 11064 07299 02/75 01802 10150 20120 39848 40167 51005 60006 80000 90600 333 10265 20105 60004=
07299,1998-05-11 09:00:00,24,1015.5,-0.2,44,11,500,7.408,,,130,,,,,,,,,,,wg-a,,,,AAXX 11094 07299 12600 11304 10240 20110 39846 40155 58002 60006 81200 90900=
07299,1998-05-11 12:00:00,28,1014.4,-0.7,37,12,500,3.704,,,340,,,,,,,,,,,wg-a,,,,AAXX 11124 07299 12700 /3402 10280 20120 39839 40144 58007 60006 81900 91200=
07299,1998-05-11 15:00:00,29,1013.2,-1,35,12,500,3.704,,,340,,,,,,,,,,,wg-a,,,,AAXX 11154 07299 12700 /3402 10290 20120 39829 40132 56010 60006 81900 91500=
07299,1998-05-11 18:00:00,26,1013.1,-0.4,39,11,500,7.408,,,340,14.9,29.7,,,,,,,,,wg-a,,,,AAXX 11184 07299 12700 /3404 10260 20110 39825 40131 55004 60006 81963 91800 333 10297 20149=
07299,1998-05-11 21:00:00,19,1015,1.1,64,12,10000,3.704,,,240,,,,,,,,,,,wg-a,,,,AAXX 11214 07299 12/60 /2402 10190 20120 39836 40150 53011 60006 92100=
07299,1998-05-12 00:00:00,15,1016.2,0.8,82,12,500,7.408,,,160,,,,,,,,,,,wg-a,,,,AAXX 12004 07299 12/00 31604 10150 20120 39844 40162 51008 60006 80002 90000=
07299,1998-05-12 03:00:00,13,1017.3,0.8,94,12,500,3.704,,,210,,,,,,,,,,,wg-a,,,,AAXX 12034 07299 12/00 02102 10130 20120 39852 40173 53008 60006 80000 90300=
07299,1998-05-12 06:00:00,17,1018,1.1,72,12,500,7.408,,,120,12.2,25.8,,,,,,,,,wg-a,,,,AAXX 12064 07299 02/00 11204 10170 20120 39863 40180 51011 60006 80001 90600 333 10258 20122 60004=
07299,1998-05-12 09:00:00,24,1017.2,0.1,50,13,20000,3.704,,,240,,,,,,,,,,,wg-a,,,,AAXX 12094 07299 12770 12402 10240 20130 39863 40172 51001 60006 81100 90900=
07299,1998-05-12 12:00:00,28,1016.2,-0.7,37,12,25000,3.704,,,260,,,,,,,,,,,wg-a,,,,AAXX 12124 07299 12775 12602 10280 20120 39857 40162 58007 60006 81200 91200=
07299,1998-05-12 15:00:00,29,1014.9,-1,40,14,25000,11.112,,,330,,,,,,,,,,,wg-a,,,,AAXX 12154 07299 12775 23306 10290 20140 39846 40149 56010 60006 81203 91500=
07299,1998-05-12 18:00:00,26,1015.4,0.1,42,12,22000,11.112,,,350,16.9,30,,,,,,,,,wg-a,,,,AAXX 12184 07299 12/72 53506 10260 20120 39847 40154 53001 60006 80002 91800 333 10300 20169=
07299,1998-05-12 21:00:00,20,1017.5,1.4,64,13,20000,3.704,,,260,,,,,,,,,,,wg-a,,,,AAXX 12214 07299 12/70 12602 10200 20130 39861 40175 51014 60006 80001 92100=
07299,1998-05-13 00:00:00,15,1018.8,0.8,88,13,20000,3.704,,,170,,,,,,,,,,,wg-a,,,,AAXX 13004 07299 12/70 01702 10150 20130 39869 40188 51008 60006 80000 90000=
07299,1998-05-13 03:00:00,13,1019.2,0.2,94,12,20000,3.704,,,160,,,,,,,,,,11,wg-a,,,,AAXX 13034 07299 12/70 01602 10130 20120 39871 40192 51002 60006 71100 80000 90300=
07299,1998-05-13 06:00:00,15,1019.9,0.9,94,14,15000,3.704,,,180,12.5,25.9,,,,,,,,,wg-a,,,,AAXX 13064 07299 02/65 11802 10150 20140 39880 40199 52009 60006 80001 90600 333 10259 20125 60004=
07299,1998-05-13 09:00:00,23,1019,-0.1,61,15,8000,3.704,,,350,,,,,,,,,,,wg-a,,,,AAXX 13094 07299 12/58 /3502 10230 20150 39879 40190 58001 60006 90900=
07299,1998-05-13 12:00:00,28,1017.2,-1.2,37,12,10000,7.408,,,360,,,,,,,,,,,wg-a,,,,AAXX 13124 07299 12860 13604 10280 20120 39866 40172 58012 60006 81200 91200=
07299,1998-05-13 15:00:00,29,1015.3,-1.6,37,13,10000,11.112,,,310,,,,,,,,,,,wg-a,,,,AAXX 13154 07299 12860 /3106 10290 20130 39850 40153 57016 60006 81300 91500=
07299,1998-05-13 18:00:00,26,1015.5,-0.1,45,13,15000,7.408,,,350,15.6,29.3,,,,,,,,,wg-a,,,,AAXX 13184 07299 12865 23504 10260 20130 39849 40155 55001 60006 81903 91800 333 10293 20156=
07299,1998-05-13 21:00:00,21,1016.9,0.8,56,12,15000,7.408,,,350,,,,,,,,,,,wg-a,,,,AAXX 13214 07299 12/65 13504 10210 20120 39857 40169 52008 60006 80001 92100=
07299,1998-05-14 00:00:00,16,1017.8,0.3,77,12,0,3.704,,,230,,,,,,,,,,,wg-a,,,,AAXX 14004 07299 12/// /2302 10160 20120 39860 40178 51003 60006 90000=
07299,1998-05-14 03:00:00,14,1018.2,-0,88,12,15000,0,,,0,,,,,,,,,,,wg-a,,,,AAXX 14034 07299 12765 10000 10140 20120 39861 40182 55000 60006 81500 90300=
07299,1998-05-14 06:00:00,17,1018.3,0.5,82,14,7000,0,,,0,12.6,26.1,,,,,,,,,wg-a,,,,AAXX 14064 07299 02/57 50000 10170 20140 39866 40183 50005 60006 80001 90600 333 10261 20126 60004=
07299,1998-05-14 09:00:00,22,1017.6,-0.1,65,15,7000,7.408,,,10,,,,,,,,,,,wg-a,,,,AAXX 14094 07299 12/57 /0104 10220 20150 39865 40176 58001 60006 80001 90900=
07299,1998-05-14 12:00:00,25,1016.1,-1.1,57,16,8000,14.816,,,360,,,,,,,,,,,wg-a,,,,AAXX 14124 07299 12758 33608 10250 20160 39854 40161 58011 60006 82963 91200=
07299,1998-05-14 15:00:00,25,1014.6,-1.5,44,12,8000,14.816,,,30,,,,,,,,,,17,wg-a,,,,AAXX 14154 07299 02658 70308 10250 20120 39839 40146 56015 61000 71798 83963 91500 333 ////=
07299,1998-05-14 18:00:00,24,1014.8,-0,57,15,14000,3.704,,,90,16.6,26.1,,,,,,,,1,wg-a,,,,AAXX 14184 07299 02764 40902 10240 20150 39839 40148 55000 60006 70198 82801 91800 333 10261 20166 61000=
07299,1998-05-14 21:00:00,21,1016.4,1.2,49,10,14000,7.408,,,110,,,,,,,,,,,wg-a,,,,AAXX 14214 07299 12864 31104 10210 20100 39851 40164 53012 60006 814/1 92100=
07299,1998-05-15 00:00:00,16,1017,0.1,45,4,0,3.704,,,170,,,,,,,,,,,wg-a,,,,AAXX 15004 07299 12/// /1702 10160 20040 39852 40170 53001 60006 90000=
07299,1998-05-15 03:00:00,9,1017.5,-0.3,81,6,20000,3.704,,,270,,,,,,,,,,,wg-a,,,,AAXX 15034 07299 12/70 02702 10090 20060 39849 40175 58003 60006 80000 90300=
07299,1998-05-15 06:00:00,12,1017.9,0.7,71,7,10000,7.408,,,320,7.7,23.6,,,,,,,,,wg-a,,,,AAXX 15064 07299 02/60 /3204 10120 20070 39856 40179 53007 60006 90600 333 10236 20077 61000=
07299,1998-05-15 09:00:00,18,1017,-0.2,49,7,50000,11.112,,,320,,,,,,,,,,,wg-a,,,,AAXX 15094 07299 12/84 53206 10180 20070 39854 40170 58002 60006 80002 90900=
07299,1998-05-15 12:00:00,24,1014.5,-1.8,29,5,50000,7.408,,,340,,,,,,,,,,,wg-a,,,,AAXX 15124 07299 12/84 23404 10240 20050 39836 40145 58018 60006 80001 91200=
07299,1998-05-15 15:00:00,25,1012.9,-1.5,32,7,45000,22.224,,,350,,,,,,,,,,,wg-a,,,,AAXX 15154 07299 12/83 03512 10250 20070 39821 40129 56015 60006 80000 91500=
07299,1998-05-15 18:00:00,23,1013,-0.1,29,4,35000,14.816,,,110,11.6,25.3,,,,,,,,,wg-a,,,,AAXX 15184 07299 12/81 01108 10230 20040 39820 40130 55001 60006 80000 91800 333 10253 20116=
07299,1998-05-15 21:00:00,19,1015,1.6,37,4,35000,7.408,,,40,,,,,,,,,,,wg-a,,,,AAXX 15214 07299 12/81 00404 10190 20040 39835 40150 52016 60006 80000 92100=
07299,1998-05-16 03:00:00,11,1016,-0.2,62,4,35000,7.408,,,320,,,,,,,,,,,wg-a,,,,AAXX 16034 07299 12/81 03204 10110 20040 39837 40160 56002 60006 80000 90300=
07299,1998-05-16 06:00:00,12,1016.7,0.7,67,6,35000,7.408,,,320,8.5,22.7,,,,,,,,,wg-a,,,,AAXX 16064 07299 02/81 03204 10120 20060 39844 40167 51007 60006 80000 90600 333 10227 20085 60004=
07299,1998-05-16 09:00:00,18,1016,0,42,5,35000,7.408,,,60,,,,,,,,,,,wg-a,,,,AAXX 16094 07299 12681 /0604 10180 20050 39844 40160 50000 60006 81100 90900=
07299,1998-05-16 12:00:00,20,1015.2,-0.4,37,5,35000,18.52,,,350,,,,,,,,,,,wg-a,,,,AAXX 16124 07299 12781 /3510 10200 20050 39839 40152 58004 60006 81100 91200=
07299,1998-05-16 15:00:00,22,1014.4,-0.8,33,5,35000,18.52,,,360,,,,,,,,,,,wg-a,,,,AAXX 16154 07299 12781 /3610 10220 20050 39832 40144 56008 60006 81100 91500=
07299,1998-05-16 18:00:00,20,1015.1,0.6,37,5,500,7.408,,,40,12,21.9,,,,,,,,,wg-a,,,,AAXX 16184 07299 12700 /0404 10200 20050 39838 40151 53006 60006 81400 91800 333 10219 20120=
07299,1998-05-16 21:00:00,16,1017,1.4,42,3,25000,7.408,,,50,,,,,,,,,,,wg-a,,,,AAXX 16214 07299 12/75 00504 10160 20030 39852 40170 51014 60006 80000 92100=
07299,1998-05-17 00:00:00,9,1017.9,0,81,6,25000,11.112,,,310,,,,,,,,,,,wg-a,,,,AAXX 17004 07299 12/75 03106 10090 20060 39853 40179 50000 60006 80000 90000=
07299,1998-05-17 03:00:00,7,1018.8,0.7,87,5,25000,3.704,,,230,,,,,,,,,,,wg-a,,,,AAXX 17034 07299 12/75 02302 10070 20050 39859 40188 52007 60006 80000 90300=
07299,1998-05-17 06:00:00,10,1019.9,1.4,82,7,25000,7.408,,,310,6.6,20.5,,,,,,,,,wg-a,,,,AAXX 17064 07299 02/75 03104 10100 20070 39873 40199 53014 60006 80000 90600 333 10205 20066 60004=
07299,1998-05-17 09:00:00,17,1019.2,0.2,52,7,500,14.816,,,340,,,,,,,,,,,wg-a,,,,AAXX 17094 07299 12600 /3408 10170 20070 39875 40192 50002 60006 81100 90900=
07299,1998-05-17 12:00:00,21,1018.6,-0.2,30,3,45000,14.816,,,60,,,,,,,,,,,wg-a,,,,AAXX 17124 07299 12883 30608 10210 20030 39872 40186 57002 60006 83100 91200=
07299,1998-05-17 15:00:00,20,1019,0.3,35,4,55000,11.112,,,40,,,,,,,,,,,wg-a,,,,AAXX 17154 07299 12785 50406 10200 20040 39875 40190 52003 60006 84830 91500=
07299,1998-05-17 18:00:00,18,1020.2,1,42,5,45000,14.816,,,110,10.1,21.3,,,,,,,,,wg-a,,,,AAXX 17184 07299 12783 21108 10180 20050 39885 40202 53010 60006 82830 91800 333 10213 20101=
07299,1998-05-17 21:00:00,14,1022.6,1.9,51,4,25000,7.408,,,80,,,,,,,,,,,wg-a,,,,AAXX 17214 07299 12775 10804 10140 20040 39904 40226 53019 60006 81500 92100=
07299,1998-05-18 00:00:00,9,1023.5,0.3,71,4,25000,3.704,,,70,,,,,,,,,,,wg-a,,,,AAXX 18004 07299 12/75 00702 10090 20040 39907 40235 50003 60006 80000 90000=
07299,1998-05-18 03:00:00,6,1024.1,0.2,87,4,25000,3.704,,,260,,,,,,,,,,,wg-a,,,,AAXX 18034 07299 12/75 12602 10060 20040 39909 40241 52002 60006 80001 90300=
07299,1998-05-18 06:00:00,10,1025.1,1.4,76,6,18000,3.704,,,300,5,17.8,,,,,,,,,wg-a,,,,AAXX 18064 07299 02/68 03002 10100 20060 39923 40251 53014 60006 80000 90600 333 10178 20050 60004=
07299,1998-05-18 09:00:00,16,1024.6,0.2,51,6,15000,3.704,,,340,,,,,,,,,,,wg-a,,,,AAXX 18094 07299 12565 /3402 10160 20060 39925 40246 50002 60006 81100 90900=
07299,1998-05-18 12:00:00,20,1023,-1.1,40,6,20000,3.704,,,50,,,,,,,,,,,wg-a,,,,AAXX 18124 07299 12670 30502 10200 20060 39914 40230 58011 60006 83800 91200=
07299,1998-05-18 15:00:00,21,1022.1,-0.7,35,5,500,7.408,,,30,,,,,,,,,,,wg-a,,,,AAXX 18154 07299 12700 50304 10210 20050 39907 40221 56007 60006 85800 91500=
07299,1998-05-18 18:00:00,19,1023.1,0.7,40,5,25000,14.816,,,100,9.8,22.2,,,,,,,,25,wg-a,,,,AAXX 18184 07299 02775 41008 10190 20050 39914 40231 53007 61000 72586 84800 91800 333 10222 20098 6100=
07299,1998-05-18 21:00:00,16,1024.9,1.3,51,6,35000,7.408,,,130,,,,,,,,,,,wg-a,,,,AAXX 18214 07299 12881 51304 10160 20060 39928 40249 51013 60006 85500 92100=
07299,1998-05-19 00:00:00,12,1025.1,-0.2,71,7,25000,7.408,,,100,,,,,,,,,,,wg-a,,,,AAXX 19004 07299 12875 11004 10120 20070 39926 40251 58002 60006 815/0 90000=
07299,1998-05-19 03:00:00,7,1025.4,-0.2,93,6,25000,0,,,0,,,,,,,,,,,wg-a,,,,AAXX 19034 07299 12875 10000 10070 20060 39924 40254 56002 60006 81501 90300=
07299,1998-05-19 06:00:00,9,1026,0.7,93,8,16000,0,,,0,6.9,19,,,,,,,,,wg-a,,,,AAXX 19064 07299 02/66 60000 10090 20080 39931 40260 53007 60006 80002 90600 333 10190 20069 61000=
07299,1998-05-19 09:00:00,15,1024.9,-0.4,63,8,16000,0,,,0,,,,,,,,,,,wg-a,,,,AAXX 19094 07299 12566 70000 10150 20080 39927 40249 58004 60006 81102 90900=
07299,1998-05-19 12:00:00,22,1022.1,-1.9,41,8,20000,3.704,,,100,,,,,,,,,,,wg-a,,,,AAXX 19124 07299 12770 61002 10220 20080 39908 40221 58019 60006 83402 91200=
07299,1998-05-19 15:00:00,23,1021,-1.2,33,6,20000,11.112,,,110,,,,,,,,,,,wg-a,,,,AAXX 19154 07299 12770 31106 10230 20060 39897 40210 56012 60006 83800 91500=
07299,1998-05-19 18:00:00,21,1020.2,-0.7,38,6,20000,7.408,,,50,9,22.9,,,,,,,,,wg-a,,,,AAXX 19184 07299 12770 10504 10210 20060 39889 40202 56007 60006 81800 91800 333 10229 20090=
07299,1998-05-19 21:00:00,14,1021.2,0.1,67,8,20000,3.704,,,220,,,,,,,,,,,wg-a,,,,AAXX 19214 07299 12/70 02202 10140 20080 39890 40212 50001 60006 80000 92100=
07299,1998-05-20 00:00:00,10,1020.7,,82,7,20000,0,,,0,,,,,,,,,,,wg-a,,,,AAXX 20004 07299 12/70 00000 10100 20070 39880 40207 60006 80000 90000=
07299,1998-05-20 03:00:00,8,1021.2,-0.3,93,7,20000,0,,,0,,,,,,,,,,,wg-a,,,,AAXX 20034 07299 12/70 10000 10080 20070 39883 40212 57003 60006 80001 90300=
07299,1998-05-20 06:00:00,11,1020.9,0.1,82,8,15000,0,,,0,7.5,21.4,,,,,,,,,wg-a,,,,AAXX 20064 07299 02/65 10000 10110 20080 39884 40209 50001 60006 80001 90600 333 10214 20075 60004=
07299,1998-05-20 09:00:00,19,1019.4,-0.6,52,9,15000,3.704,,,270,,,,,,,,,,,wg-a,,,,AAXX 20094 07299 12665 22702 10190 20090 39878 40194 58006 60006 81101 90900=
07299,1998-05-20 12:00:00,23,1017.7,-1.2,38,8,23000,11.112,,,360,,,,,,,,,,,wg-a,,,,AAXX 20124 07299 12773 43606 10230 20080 39866 40177 58012 60006 82831 91200=
07299,1998-05-20 15:00:00,24,1016.6,-1,36,8,25000,3.704,,,360,,,,,,,,,,25,wg-a,,,,AAXX 20154 07299 02775 43602 10240 20080 39856 40166 58010 61000 72586 83101 91500 333 ////=
07299,1998-05-20 18:00:00,22,1016,-0.7,38,7,500,11.112,,,60,11.1,25,,,,,,,,3,wg-a,,,,AAXX 20184 07299 12800 50606 10220 20070 39849 40160 55007 60006 70386 85401 91800 333 10250 20111=
07299,1998-05-20 21:00:00,15,1017.5,0.7,67,9,500,3.704,,,220,,,,,,,,,,,wg-a,,,,AAXX 20214 07299 12800 32202 10150 20090 39856 40175 53007 60006 82401 92100=
07299,1998-05-21 00:00:00,12,1017.7,-0.1,82,9,25000,0,,,0,,,,,,,,,,,wg-a,,,,AAXX 21004 07299 12875 20000 10120 20090 39855 40177 56001 60006 815/1 90000=
07299,1998-05-21 03:00:00,10,1017.8,-0.2,93,9,18000,0,,,0,,,,,,,,,,,wg-a,,,,AAXX 21034 07299 12768 20000 10100 20090 39853 40178 57002 60006 82501 90300=
07299,1998-05-21 06:00:00,13,1018.1,0.6,82,10,10000,0,,,0,9.3,22.1,,,,,,,,,wg-a,,,,AAXX 21064 07299 02/60 10000 10130 20100 39859 40181 52006 60006 81030 90600 333 10221 20093 61000=
07299,1998-05-21 09:00:00,19,1016.9,-0.4,60,11,12000,7.408,,,10,,,,,,,,,,,wg-a,,,,AAXX 21094 07299 12662 /0104 10190 20110 39855 40169 58004 60006 81231 90900=
07299,1998-05-21 12:00:00,21,1015.8,-0.9,49,10,18000,11.112,,,350,,,,,,,,,,,wg-a,,,,AAXX 21124 07299 12668 63506 10210 20100 39846 40158 56009 60006 83930 91200=
07299,1998-05-21 15:00:00,23,1014.8,-0.8,41,9,25000,7.408,,,290,,,,,,,,,,2,wg-a,,,,AAXX 21154 07299 02675 72904 10230 20090 39838 40148 58008 61000 70298 81992 91500 333 ////=
07299,1998-05-21 18:00:00,16,1015.8,0.3,88,14,11000,3.704,,,200,12.6,23.4,,6,,,,,,29,wg-a,,,,AAXX 21184 07299 12661 72002 10160 20140 39841 40158 53003 60067 72998 8599/ 91800 333 10234 20126=
07299,1998-05-21 21:00:00,15,1017.4,1.5,94,14,6000,7.408,,,290,,,,,,,,,,,wg-a,,,,AAXX 21214 07299 12656 72904 10150 20140 39856 40174 52015 60006 86832 92100=
07299,1998-05-22 00:00:00,15,1018.1,0.5,72,10,9000,11.112,,,360,,,,,,,,,,3,wg-a,,,,AAXX 22004 07299 12659 73606 10150 20100 39861 40181 50005 60006 70398 878// 90000=
07299,1998-05-22 03:00:00,13,1018.7,0.4,77,9,8000,14.816,,,350,,,,,,,,,,,wg-a,,,,AAXX 22034 07299 12658 73508 10130 20090 39865 40187 53004 60006 878// 90300=
07299,1998-05-22 06:00:00,12,1019.9,1,67,6,15000,22.224,,,340,11.4,16.5,,,,,6,,,,wg-a,,,,AAXX 22064 07299 02665 73412 10120 20060 39875 40199 53010 60006 875// 90600 333 10165 20114 60064=
07299,1998-05-22 09:00:00,13,1020.5,0.8,58,5,15000,18.52,,,10,,,,,,,,,,,wg-a,,,,AAXX 22094 07299 12665 70110 10130 20050 39883 40205 51008 60006 875// 90900=
07299,1998-05-22 12:00:00,16,1020.2,0,48,5,25000,18.52,,,350,,,,,,,,,,,wg-a,,,,AAXX 22124 07299 12675 43510 10160 20050 39883 40202 50000 60006 82840 91200=
07299,1998-05-22 15:00:00,16,1019.7,-0.5,42,3,40000,18.52,,,350,,,,,,,,,,,wg-a,,,,AAXX 22154 07299 12682 /3510 10160 20030 39878 40197 56005 60006 81100 91500=
07299,1998-05-22 18:00:00,14,1020.1,0.2,44,2,40000,18.52,,,360,11.5,16.7,,,,,,,,,wg-a,,,,AAXX 22184 07299 12782 /3610 10140 20020 39880 40201 53002 60006 81401 91800 333 10167 20115=
07299,1998-05-22 21:00:00,11,1021.4,0.8,58,3,20000,11.112,,,340,,,,,,,,,,,wg-a,,,,AAXX 22214 07299 12770 13406 10110 20030 39888 40214 51008 60006 81500 92100=
07299,1998-05-23 00:00:00,8,1021.9,0.2,71,3,25000,11.112,,,330,,,,,,,,,,,wg-a,,,,AAXX 23004 07299 12775 13306 10080 20030 39890 40219 50002 60006 81500 90000=
07299,1998-05-23 06:00:00,7,1021.3,0,81,4,15000,3.704,,,330,4.3,14.3,,,,,,,,,wg-a,,,,AAXX 23064 07299 02/65 03302 10070 20040 39884 40213 50000 60006 80000 90600 333 10143 20043 60004=
07299,1998-05-23 09:00:00,13,1020,-0.7,47,2,18000,11.112,,,340,,,,,,,,,,,wg-a,,,,AAXX 23094 07299 12668 /3406 10130 20020 39877 40200 58007 60006 81100 90900=
07299,1998-05-23 12:00:00,16,1018.2,-1.5,45,4,20000,11.112,,,340,,,,,,,,,,,wg-a,,,,AAXX 23124 07299 12670 /3406 10160 20040 39863 40182 58015 60006 81100 91200=
07299,1998-05-23 15:00:00,17,1016.4,-1.5,42,4,18000,18.52,,,340,,,,,,,,,,,wg-a,,,,AAXX 23154 07299 12768 /3410 10170 20040 39847 40164 56015 60006 81100 91500=
07299,1998-05-23 18:00:00,16,1015.7,-0.8,45,4,18000,14.816,,,350,7.4,17.6,,,,,,,,,wg-a,,,,AAXX 23184 07299 12/68 03508 10160 20040 39839 40157 56008 60006 80000 91800 333 10176 20074=
07299,1998-05-23 21:00:00,11,1016.8,0.5,62,4,25000,11.112,,,300,,,,,,,,,,,wg-a,,,,AAXX 23214 07299 12/75 13006 10110 20040 39844 40168 51005 60006 81030 92100=
07299,1998-05-24 00:00:00,8,1016.5,-0.6,76,4,18000,7.408,,,320,,,,,,,,,,,wg-a,,,,AAXX 24004 07299 12/68 23204 10080 20040 39838 40165 58006 60006 80001 90000=
07299,1998-05-24 03:00:00,8,1015.7,-0.8,81,5,18000,0,,,0,,,,,,,,,,,wg-a,,,,AAXX 24034 07299 12768 50000 10080 20050 39830 40157 56008 60006 815/1 90300=
07299,1998-05-24 06:00:00,9,1015,-0.5,81,6,15000,3.704,,,190,7,15.9,,,,,,,,,wg-a,,,,AAXX 24064 07299 02765 61902 10090 20060 39825 40150 56005 60006 81531 90600 333 10159 20070 60004=
07299,1998-05-24 09:00:00,15,1014,-0.4,48,4,15000,11.112,,,360,,,,,,,,,,,wg-a,,,,AAXX 24094 07299 12665 /3606 10150 20040 39821 40140 58004 60006 81802 90900=
07299,1998-05-24 12:00:00,17,1013,-0.8,36,2,18000,14.816,,,340,,,,,,,,,,,wg-a,,,,AAXX 24124 07299 12768 73408 10170 20020 39813 40130 56008 60006 81802 91200=
07299,1998-05-24 15:00:00,18,1011.2,-1.5,39,4,18000,14.816,,,330,,,,,,,,,,,wg-a,,,,AAXX 24154 07299 12768 73308 10180 20040 39798 40112 57015 60006 82802 91500=
07299,1998-05-24 18:00:00,17,1011.5,0.1,48,6,20000,14.816,,,10,9.4,19.3,,,,,,,,,wg-a,,,,AAXX 24184 07299 12870 60108 10170 20060 39799 40115 53001 60006 85501 91800 333 10193 20094=
07299,1998-05-24 21:00:00,14,1012.3,0.6,63,7,20000,7.408,,,310,,,,,,,,,,,wg-a,,,,AAXX 24214 07299 12870 73104 10140 20070 39805 40123 53006 60006 875// 92100=
07299,1998-05-25 00:00:00,12,1011.9,-0.6,76,8,20000,11.112,,,320,,,,,,,,,,,wg-a,,,,AAXX 25004 07299 12770 73206 10120 20080 39799 40119 58006 60006 875// 90000=
07299,1998-05-25 03:00:00,10,1011.6,-0.6,82,7,20000,0,,,0,,,,,,,,,,,wg-a,,,,AAXX 25034 07299 12770 20000 10100 20070 39793 40116 56006 60006 82500 90300=
07299,1998-05-25 06:00:00,12,1011.9,0.5,76,8,12000,0,,,0,8.7,16.4,,,,,,,,,wg-a,,,,AAXX 25064 07299 02862 20000 10120 20080 39798 40119 52005 60006 82070 90600 333 10164 20087 60004=
07299,1998-05-25 09:00:00,16,1011,-0.4,59,8,18000,3.704,,,280,,,,,,,,,,,wg-a,,,,AAXX 25094 07299 12668 42802 10160 20080 39794 40110 58004 60006 84800 90900=
07299,1998-05-25 12:00:00,18,1010.3,-0.5,52,8,18000,3.704,,,300,,,,,,,,,,,wg-a,,,,AAXX 25124 07299 12668 /3002 10180 20080 39789 40103 58005 60006 86400 91200=
07299,1998-05-25 15:00:00,19,1008.9,-1.2,49,8,25000,14.816,,,290,,,,,,,,,,,wg-a,,,,AAXX 25154 07299 12675 /2908 10190 20080 39777 40089 56012 60006 86400 91500=
07299,1998-05-25 18:00:00,18,1008.4,-0.7,52,8,18000,11.112,,,280,11.9,19.9,,,,,,,,,wg-a,,,,AAXX 25184 07299 12668 42806 10180 20080 39770 40084 56007 60006 84401 91800 333 10199 20119=
07299,1998-05-25 21:00:00,14,1010.1,1.3,77,10,20000,3.704,,,190,,,,,,,,,,21,wg-a,,,,AAXX 25214 07299 02670 71902 10140 20100 39783 40101 51013 61000 72161 878// 92100 333 ////=
07299,1998-05-26 00:00:00,13,1009.4,-0.7,88,11,20000,0,,,0,,,,0,,,,,,3,wg-a,,,,AAXX 26004 07299 02770 70000 10130 20110 39776 40094 57007 60006 70361 875// 90000 333 60007=
07299,1998-05-26 03:00:00,12,1008.9,-0.5,88,10,20000,7.408,,,160,,,,,,,,,,60,wg-a,,,,AAXX 26034 07299 02670 71604 10120 20100 39770 40089 58005 61000 76062 875// 90300 333 ////=
07299,1998-05-26 06:00:00,14,1008.5,-0.3,77,10,20000,3.704,,,100,11.5,17.5,,,,,,,,1,wg-a,,,,AAXX 26064 07299 02670 71002 10140 20100 39768 40085 56003 60006 70162 8387/ 90600 333 10175 20115 60004=
07299,1998-05-26 09:00:00,13,1009.8,1.2,88,11,20000,3.704,,,130,,,,2,,,,,,21,wg-a,,,,AAXX 26094 07299 12570 71302 10130 20110 39779 40098 51012 60027 72162 8287/ 90900=
07299,1998-05-26 12:00:00,18,1008.6,-0.7,64,11,15000,14.816,,,250,,,,,,,,,,15,wg-a,,,,AAXX 26124 07299 12565 72508 10180 20110 39773 40086 58007 60026 71562 8527/ 91200=
07299,1998-05-26 15:00:00,20,1007.4,-1.1,53,10,20000,11.112,,,250,,,,,,,,,,,wg-a,,,,AAXX 26154 07299 12670 /2506 10200 20100 39763 40074 58011 60006 82230 91500=
07299,1998-05-26 18:00:00,18,1007.5,0.1,56,9,20000,14.816,,,250,12.2,20.2,,,,,,,,,wg-a,,,,AAXX 26184 07299 12670 42508 10180 20090 39762 40075 53001 60006 83330 91800 333 10202 20122=
07299,1998-05-26 21:00:00,16,1009,1.3,68,10,18000,7.408,,,180,,,,,,,,,,,wg-a,,,,AAXX 26214 07299 12768 71804 10160 20100 39774 40090 51013 60006 8743/ 92100=
07299,1998-05-27 00:00:00,13,1009.6,0.2,82,10,18000,3.704,,,180,,,,,,,,,,,wg-a,,,,AAXX 27004 07299 12768 41802 10130 20100 39777 40096 51002 60006 845/0 90000=
07299,1998-05-27 03:00:00,13,1009.2,-0.3,88,11,15000,7.408,,,170,,,,,,,,,,,wg-a,,,,AAXX 27034 07299 12765 71704 10130 20110 39774 40092 57003 60006 87530 90300=
07299,1998-05-27 06:00:00,14,1010,0.8,94,13,15000,7.408,,,170,11.9,18.1,,,,,2,,,2,wg-a,,,,AAXX 27064 07299 02665 71704 10140 20130 39782 40100 51008 60006 70261 86531 90600 333 10181 20119 60024=
07299,1998-05-27 09:00:00,18,1009.4,-0.1,68,12,20000,3.704,,,60,,,,,,,,,,,wg-a,,,,AAXX 27094 07299 12570 70602 10180 20120 39781 40094 58001 60006 83181 90900=
07299,1998-05-27 12:00:00,18,1009.2,-0.3,68,12,9000,11.112,,,280,,,,0,,,,,,80,wg-a,,,,AAXX 27124 07299 02559 72806 10180 20120 39778 40092 57003 60006 78086 85801 91200 333 60007=
07299,1998-05-27 15:00:00,21,1007,-1.6,49,10,15000,7.408,,,140,,,,0,,,,,,2,wg-a,,,,AAXX 27154 07299 12665 71404 10210 20100 39761 40070 56016 60007 70298 83801 91500=
07299,1998-05-27 18:00:00,17,1007.4,-0.1,88,15,15000,3.704,,,40,13.5,21.7,,,,,,,,29,wg-a,,,,AAXX 27184 07299 02665 70402 10170 20150 39760 40074 56001 61000 72998 85302 91800 333 10217 20135 6000=
07299,1998-05-27 21:00:00,13,1009.8,2,100,13,12000,3.704,,,180,,,,5,,,,,,61,wg-a,,,,AAXX 27214 07299 12362 81802 10130 20130 39780 40098 51020 60057 76196 8587/ 92100=
07299,1998-05-28 00:00:00,13,1010,0.3,100,13,12000,0,,,0,,,,1,,,,,,61,wg-a,,,,AAXX 28004 07299 02462 80000 10130 20130 39782 40100 50003 60076 76196 8587/ 90000 333 60017=
07299,1998-05-28 03:00:00,13,1009.3,-0.9,100,13,15000,0,,,0,,,,0,,,,,,1,wg-a,,,,AAXX 28034 07299 12765 80000 10130 20130 39774 40093 58009 60007 70162 8557/ 90300=
07299,1998-05-28 06:00:00,13,1008.9,-0.3,100,13,3000,3.704,,,40,11.8,16.5,,,,,8,,,10,wg-a,,,,AAXX 28064 07299 02230 60402 10130 20130 39771 40089 56003 60006 71062 84631 90600 333 10165 20118 60084=
07299,1998-05-28 09:00:00,17,1007.8,-0.6,77,13,15000,3.704,,,270,,,,,,,,,,,wg-a,,,,AAXX 28094 07299 12465 62702 10170 20130 39765 40078 58006 60006 82131 90900=
07299,1998-05-28 12:00:00,19,1006.5,-1.1,73,14,15000,7.408,,,360,,,,,,,,,,,wg-a,,,,AAXX 28124 07299 12565 73604 10190 20140 39754 40065 58011 60006 83802 91200=
07299,1998-05-28 15:00:00,20,1004.5,-1.7,68,14,15000,11.112,,,330,,,,,,,,,,,wg-a,,,,AAXX 28154 07299 12665 /3306 10200 20140 39736 40045 58017 60006 8257/ 91500=
07299,1998-05-28 18:00:00,20,1005,0.4,73,15,10000,14.816,,,260,13.1,20.5,,,,,,,,,wg-a,,,,AAXX 28184 07299 12660 72608 10200 20150 39740 40050 53004 60006 8557/ 91800 333 10205 20131=
07299,1998-05-28 21:00:00,13,1008.9,3.1,94,12,20000,7.408,,,190,,,,0,,,,,,21,wg-a,,,,AAXX 28214 07299 12470 81904 10130 20120 39771 40089 51031 60007 72162 878// 92100=
07299,1998-05-29 00:00:00,13,1010.3,1.3,94,12,20000,7.408,,,230,,,,4,,,,,,60,wg-a,,,,AAXX 29004 07299 02470 82304 10130 20120 39784 40103 51013 60046 76062 878// 90000 333 60047=
07299,1998-05-29 03:00:00,12,1011.1,0.7,100,12,20000,3.704,,,90,,,,1,,,,,,21,wg-a,,,,AAXX 29034 07299 12570 70902 10120 20120 39791 40111 52007 60017 72162 8787/ 90300=
07299,1998-05-29 06:00:00,13,1012.6,1.5,94,12,12000,7.408,,,230,12,19.5,,,,,,,,60,wg-a,,,,AAXX 29064 07299 02462 82304 10130 20120 39806 40126 53015 61000 76062 878// 90600 333 10195 20120 6005=
07299,1998-05-29 09:00:00,15,1013.5,1.1,88,13,15000,3.704,,,250,,,,0,,,,,,3,wg-a,,,,AAXX 29094 07299 12465 82502 10150 20130 39817 40135 51011 60007 70362 888// 90900=
07299,1998-05-29 12:00:00,17,1013.5,0.2,77,13,20000,3.704,,,20,,,,0,,,,,,3,wg-a,,,,AAXX 29124 07299 02570 70202 10170 20130 39819 40135 51002 60016 70386 8481/ 91200 333 60007=
07299,1998-05-29 15:00:00,18,1012.8,-0.5,73,13,20000,11.112,,,20,,,,,,,,,,,wg-a,,,,AAXX 29154 07299 12570 70206 10180 20130 39814 40128 56005 60006 8433/ 91500=
07299,1998-05-29 18:00:00,17,1013.3,0.3,77,13,20000,11.112,,,340,12.9,19.5,,,,,,,,,wg-a,,,,AAXX 29184 07299 12570 73406 10170 20130 39817 40133 51003 60006 83831 91800 333 10195 20129=
07299,1998-05-29 21:00:00,12,1014.8,0.9,100,12,15000,3.704,,,270,,,,,,,,,,,wg-a,,,,AAXX 29214 07299 12/65 32702 10120 20120 39827 40148 53009 60006 81031 92100=
07299,1998-05-30 00:00:00,10,1015.2,0.1,100,10,10000,3.704,,,250,,,,,,,,,,,wg-a,,,,AAXX 30004 07299 12/60 02502 10100 20100 39828 40152 50001 60006 80000 90000=
07299,1998-05-30 03:00:00,8,1014.6,-0.8,100,8,8000,3.704,,,280,,,,,,,,,,,wg-a,,,,AAXX 30034 07299 12/58 /2802 10080 20080 39820 40146 56008 60006 90300=
07299,1998-05-30 06:00:00,11,1014.3,0.1,100,11,1400,3.704,,,190,7.8,16.8,,,,,1,,,10,wg-a,,,,AAXX 30064 07299 02114 71902 10110 20110 39821 40143 51001 60006 71041 86601 90600 333 10168 20078 60014=
07299,1998-05-30 09:00:00,18,1012.4,-1.1,73,13,15000,3.704,,,20,,,,,,,,,,,wg-a,,,,AAXX 30094 07299 12465 20202 10180 20130 39810 40124 58011 60006 82101 90900=
07299,1998-05-30 12:00:00,22,1011,-1,53,12,500,7.408,,,360,,,,,,,,,,,wg-a,,,,AAXX 30124 07299 12500 /3604 10220 20120 39801 40110 58010 60006 81201 91200=
07299,1998-05-30 15:00:00,25,1009.1,-1.8,36,9,500,7.408,,,10,,,,,,,,,,,wg-a,,,,AAXX 30154 07299 12600 20104 10250 20090 39784 40091 56018 60006 81281 91500=
07299,1998-05-30 18:00:00,21,1009.3,-0,56,12,500,11.112,,,330,11,25,,,,,,,,17,wg-a,,,,AAXX 30184 07299 12700 63306 10210 20120 39783 40093 55000 60006 71791 81383 91800 333 10250 20110=
07299,1998-05-30 21:00:00,16,1011.5,1.6,94,15,20000,11.112,,,240,,,,2,,,,,,3,wg-a,,,,AAXX 30214 07299 12670 62406 10160 20150 39799 40115 53016 60027 70398 84932 92100=
07299,1998-05-31 00:00:00,15,1013.3,1.7,100,15,20000,7.408,,,340,,,,0,,,,,,3,wg-a,,,,AAXX 31004 07299 02670 73404 10150 20150 39816 40133 53017 60026 70398 85830 90000 333 60007=
07299,1998-05-31 03:00:00,15,1013.7,0.3,100,15,9000,3.704,,,150,,,,3,,,,,,60,wg-a,,,,AAXX 31034 07299 12659 71502 10150 20150 39819 40137 50003 60037 76062 86530 90300=
07299,1998-05-31 06:00:00,15,1013.1,-0.5,100,15,17000,3.704,,,170,14.5,21.4,,,,,5,,,3,wg-a,,,,AAXX 31064 07299 02267 71702 10150 20150 39814 40131 57005 60006 70362 85830 90600 333 10214 20145 60054=
07299,1998-05-31 09:00:00,20,1011.3,-1.2,60,12,20000,11.112,,,120,,,,,,,,,,,wg-a,,,,AAXX 31094 07299 12570 51206 10200 20120 39802 40113 58012 60006 81832 90900=
07299,1998-05-31 12:00:00,22,1009.7,-1.4,50,11,20000,11.112,,,10,,,,,,,,,,,wg-a,,,,AAXX 31124 07299 12670 70106 10220 20110 39788 40097 58014 60006 81832 91200=
07299,1998-05-31 15:00:00,13,1012.8,2.1,94,12,3000,38.892,,61.116,250,,,,0,,,,,,81,wg-a,,,,AAXX 31154 07299 12530 72521 10130 20120 39809 40128 53021 60007 78196 873// 91500 333 91033=
07299,1998-05-31 18:00:00,13,1014.4,1.6,94,12,12000,3.704,,,170,12.4,22.7,,,,,,,,60,wg-a,,,,AAXX 31184 07299 02262 71702 10130 20120 39824 40144 52016 61000 76096 8387/ 91800 333 10227 20124 6008=
07299,1998-05-31 21:00:00,13,1016.1,1.6,94,12,20000,7.408,,,190,,,,,,,,,,1,wg-a,,,,AAXX 31214 07299 02470 71904 10130 20120 39840 40161 53016 61000 70162 82872 92100 333 ////=
07299,1998-06-01 00:00:00,12,1016.6,0.4,100,12,25000,3.704,,,150,,,,,,,,,,1,wg-a,,,,AAXX 01004 07299 02675 41502 10120 20120 39844 40166 51004 61000 70161 81502 90000 333 ////=
07299,1998-06-01 03:00:00,9,1017.2,0.2,100,9,25000,3.704,,,60,,,,,,,,,,,wg-a,,,,AAXX 01034 07299 12675 /0602 10090 20090 39846 40172 51002 60006 81500 90300=
07299,1998-06-01 06:00:00,11,1017.6,0.7,100,11,6000,11.112,,,160,8.8,13.1,,,,,9,,,,wg-a,,,,AAXX 01064 07299 02256 /1606 10110 20110 39853 40176 53007 60006 83601 90600 333 10131 20088 60094=
07299,1998-06-01 09:00:00,18,1016.2,-0.8,56,9,40000,11.112,,,100,,,,,,,,,,,wg-a,,,,AAXX 01094 07299 12582 41006 10180 20090 39846 40162 58008 60006 81101 90900=
07299,1998-06-01 12:00:00,21,1014.4,-1.3,40,7,45000,11.112,,,20,,,,,,,,,,,wg-a,,,,AAXX 01124 07299 12683 /0206 10210 20070 39832 40144 58013 60006 81101 91200=
07299,1998-06-01 15:00:00,23,1013,-1.2,36,7,45000,11.112,,,30,,,,,,,,,,,wg-a,,,,AAXX 01154 07299 12683 /0306 10230 20070 39820 40130 58012 60006 83142 91500=
07299,1998-06-01 18:00:00,21,1012.2,-0.9,56,12,45000,7.408,,,340,11.4,23.2,,,,,,,,,wg-a,,,,AAXX 01184 07299 12783 63404 10210 20120 39811 40122 56009 60006 84442 91800 333 10232 20114=
07299,1998-06-01 21:00:00,17,1012.7,0.1,88,15,35000,0,,,0,,,,,,,,,,,wg-a,,,,AAXX 01214 07299 12/81 70000 10170 20150 39812 40127 53001 60006 8707/ 92100=
07299,1998-06-02 00:00:00,16,1012.3,-0.5,88,14,500,0,,,0,,,,,,,,,,,wg-a,,,,AAXX 02004 07299 12/00 70000 10160 20140 39807 40123 58005 60006 8707/ 90000=
07299,1998-06-02 03:00:00,14,1012.4,-0.1,94,13,500,3.704,,,200,,,,,,,,,,,wg-a,,,,AAXX 02034 07299 12/00 62002 10140 20130 39806 40124 57001 60006 84072 90300=
07299,1998-06-02 06:00:00,18,1012.8,0.7,64,11,500,11.112,,,130,13.9,20.8,,,,,,,,,wg-a,,,,AAXX 02064 07299 02/00 71306 10180 20110 39813 40128 52007 60006 8707/ 90600 333 10208 20139 60004=
07299,1998-06-02 09:00:00,22,1012.5,0.2,53,12,45000,7.408,,,150,,,,,,,,,,,wg-a,,,,AAXX 02094 07299 12583 51504 10220 20120 39815 40125 53002 60006 81132 90900=
07299,1998-06-02 12:00:00,27,1011.3,-0.5,51,16,50000,18.52,,,250,,,,,,,,,,,wg-a,,,,AAXX 02124 07299 12684 22510 10270 20160 39809 40113 58005 60006 81231 91200=
07299,1998-06-02 15:00:00,26,1010.4,-1,48,14,50000,14.816,,,300,,,,,,,,,,,wg-a,,,,AAXX 02154 07299 12684 33008 10260 20140 39799 40104 58010 60006 81231 91500=
07299,1998-06-02 18:00:00,24,1010.3,-0.3,50,13,50000,11.112,,,300,17.6,26.8,,,,,,,,,wg-a,,,,AAXX 02184 07299 12684 53006 10240 20130 39796 40103 58003 60006 82302 91800 333 10268 20176=
07299,1998-06-02 21:00:00,20,1012.1,1.3,73,15,11000,18.52,,,230,,,,,,,,,,,wg-a,,,,AAXX 02214 07299 32/61 /2310 10200 20150 39809 40121 53013 92100=
07299,1998-06-03 00:00:00,16,1018,5.2,88,14,25000,11.112,,,210,,,,,,,,,,0,wg-a,,,,AAXX 03004 07299 02675 72106 10160 20140 39862 40180 51052 61000 70086 8686/ 90000 333 ////=
07299,1998-06-03 03:00:00,15,1017.7,-0.4,94,14,20000,7.408,,,170,,,,1,,,,,,60,wg-a,,,,AAXX 03034 07299 12670 /1704 10150 20140 39858 40177 55004 60017 76062 86860 90300=
07299,1998-06-03 06:00:00,15,1018.3,0.8,88,13,12000,3.704,,,160,14.3,23.8,,,,,1,,,2,wg-a,,,,AAXX 03064 07299 02462 /1602 10150 20130 39864 40183 51008 60006 70262 85831 90600 333 10238 20143 60014=
07299,1998-06-03 09:00:00,16,1018.9,0.6,88,14,15000,11.112,,,150,,,,,,,,,,,wg-a,,,,AAXX 03094 07299 12265 /1506 10160 20140 39871 40189 51006 60006 85801 90900=
07299,1998-06-03 12:00:00,20,1017.5,-0.9,60,12,35000,7.408,,,70,,,,,,,,,,,wg-a,,,,AAXX 03124 07299 12581 30704 10200 20120 39862 40175 58009 60006 82131 91200=
07299,1998-06-03 15:00:00,24,1016.2,-0.9,47,12,45000,7.408,,,350,,,,,,,,,,,wg-a,,,,AAXX 03154 07299 12783 53504 10240 20120 39853 40162 58009 60006 81181 91500=
07299,1998-06-03 18:00:00,23,1016.2,-0.1,57,14,45000,3.704,,,290,14.8,24.1,,,,,,,,,wg-a,,,,AAXX 03184 07299 12783 72902 10230 20140 39852 40162 55001 60006 81131 91800 333 10241 20148=
07299,1998-06-03 21:00:00,18,1017.3,0.6,88,16,45000,0,,,0,,,,,,,,,,,wg-a,,,,AAXX 03214 07299 12/83 70000 10180 20160 39858 40173 50006 60006 81032 92100=
07299,1998-06-04 00:00:00,16,1018.4,0.9,100,16,40000,3.704,,,190,,,,,,,,,,,wg-a,,,,AAXX 04004 07299 12/82 71902 10160 20160 39866 40184 51009 60006 81032 90000=
07299,1998-06-04 03:00:00,14,1018.9,0.2,100,14,500,3.704,,,240,,,,,,,,,,,wg-a,,,,AAXX 04034 07299 12/00 42402 10140 20140 39869 40189 52002 60006 81032 90300=
07299,1998-06-04 06:00:00,17,1020,1.4,88,15,25000,0,,,0,12.7,22.7,,,,,,,,,wg-a,,,,AAXX 04064 07299 02/75 30000 10170 20150 39883 40200 51014 60006 81032 90600 333 10227 20127 60004=
07299,1998-06-04 09:00:00,22,1019.1,-0.3,69,16,15000,3.704,,,360,,,,,,,,,,,wg-a,,,,AAXX 04094 07299 12665 53602 10220 20160 39880 40191 58003 60006 81232 90900=
07299,1998-06-04 12:00:00,26,1017,-1.7,48,14,20000,11.112,,,50,,,,,,,,,,,wg-a,,,,AAXX 04124 07299 12670 70506 10260 20140 39863 40170 58017 60006 81202 91200=
07299,1998-06-04 15:00:00,28,1015.2,-1.5,40,13,500,7.408,,,70,,,,,,,,,,,wg-a,,,,AAXX 04154 07299 12600 70704 10280 20130 39848 40152 57015 60006 81202 91500=
07299,1998-06-04 18:00:00,26,1015.1,-0.3,48,14,20000,11.112,,,360,17.6,28.4,,,,,,,,,wg-a,,,,AAXX 04184 07299 12670 73606 10260 20140 39845 40151 56003 60006 82902 91800 333 10284 20176=
07299,1998-06-04 21:00:00,20,1016.6,0.8,73,15,25000,11.112,,,320,,,,,,,,,,,wg-a,,,,AAXX 04214 07299 12775 /3206 10200 20150 39853 40166 50008 60006 81562 92100=
07299,1998-06-05 00:00:00,18,1016.6,-0.3,88,16,18000,3.704,,,180,,,,,,,,,,,wg-a,,,,AAXX 05004 07299 12/68 51802 10180 20160 39851 40166 58003 60006 80001 90000=
07299,1998-06-05 03:00:00,15,1015.9,-0.9,100,15,10000,3.704,,,200,,,,,,,,,,,wg-a,,,,AAXX 05034 07299 12/60 62002 10150 20150 39841 40159 55009 60006 83031 90300=
07299,1998-06-05 06:00:00,19,1015.3,-0.1,83,16,12000,3.704,,,360,14.4,26.1,,,,,,,,,wg-a,,,,AAXX 05064 07299 02862 63602 10190 20160 39839 40153 58001 60006 81071 90600 333 10261 20144 60004=
07299,1998-06-05 09:00:00,25,1014.7,0,54,15,18000,7.408,,,80,,,,,,,,,,,wg-a,,,,AAXX 05094 07299 12768 60804 10250 20150 39840 40147 50000 60006 84281 90900=
07299,1998-06-05 12:00:00,31,1012.8,-1.3,38,15,20000,7.408,,,60,,,,,,,,,,,wg-a,,,,AAXX 05124 07299 12/70 50604 10310 20150 39827 40128 58013 60006 80004 91200=
07299,1998-06-05 15:00:00,33,1011,-1.5,30,13,20000,14.816,,,100,,,,,,,,,,,wg-a,,,,AAXX 05154 07299 12/70 61008 10330 20130 39812 40110 56015 60006 80001 91500=
07299,1998-06-05 18:00:00,30,1011.1,-0.2,55,20,18000,3.704,,,40,18.6,33.5,,,,,,,,,wg-a,,,,AAXX 05184 07299 12/68 70402 10300 20200 39810 40111 55002 60006 85032 91800 333 10335 20186=
07299,1998-06-05 21:00:00,22,1012.3,0.4,94,21,15000,3.704,,,200,,,,,,,,,,,wg-a,,,,AAXX 05214 07299 12/65 72002 10220 20210 39814 40123 50004 60006 82032 92100=
07299,1998-06-06 00:00:00,20,1012.3,-0.2,94,19,15000,3.704,,,170,,,,,,,,,,,wg-a,,,,AAXX 06004 07299 12/65 71702 10200 20190 39812 40123 58002 60006 80002 90000=
07299,1998-06-06 03:00:00,18,1012.2,-0.4,88,16,15000,7.408,,,210,,,,,,,,,,,wg-a,,,,AAXX 06034 07299 12/65 72104 10180 20160 39808 40122 55004 60006 81032 90300=
07299,1998-06-06 06:00:00,21,1012.8,0.9,83,18,20000,7.408,,,170,17.6,29.6,,,,,,,,,wg-a,,,,AAXX 06064 07299 02/70 71704 10210 20180 39817 40128 53009 60006 80002 90600 333 10296 20176 60004=
07299,1998-06-06 09:00:00,28,1012.4,0.3,42,14,18000,7.408,,,150,,,,,,,,,,,wg-a,,,,AAXX 06094 07299 12/68 71504 10280 20140 39820 40124 53003 60006 80002 90900=
07299,1998-06-06 12:00:00,31,1011.2,-0.8,36,14,19000,3.704,,,290,,,,,,,,,,,wg-a,,,,AAXX 06124 07299 12769 72902 10310 20140 39812 40112 58008 60006 81102 91200=
07299,1998-06-06 15:00:00,26,1010.7,-1,58,17,22000,22.224,,,260,,,,,,,,,,15,wg-a,,,,AAXX 06154 07299 12772 72612 10260 20170 39803 40107 56010 60006 71522 82992 91500=
07299,1998-06-06 18:00:00,21,1012,0.6,83,18,7000,3.704,,,250,20.5,31.8,,,,,,,,80,wg-a,,,,AAXX 06184 07299 02757 72502 10210 20180 39810 40120 53006 61000 78098 86903 91800 333 10318 20205 6002=
07299,1998-06-06 21:00:00,19,1013.1,1.1,100,19,15000,7.408,,,160,,,,,,,,,,3,wg-a,,,,AAXX 06214 07299 02765 71604 10190 20190 39819 40131 53011 61000 70386 81952 92100 333 ////=
07299,1998-06-07 00:00:00,19,1013.2,0,100,19,4000,0,,,0,,,,1,,,,,,81,wg-a,,,,AAXX 07004 07299 02540 70000 10190 20190 39820 40132 50000 60016 78186 872// 90000 333 60017=
07299,1998-06-07 03:00:00,18,1012.3,-1,100,18,7000,7.408,,,140,,,,0,,,,,,60,wg-a,,,,AAXX 07034 07299 12757 71404 10180 20180 39810 40123 56010 60007 76086 8657/ 90300=
07299,1998-06-07 06:00:00,17,1012.9,0.5,100,17,6000,11.112,,,160,17.3,20.6,,,,,,,,63,wg-a,,,,AAXX 07064 07299 02456 71606 10170 20170 39815 40129 51005 61000 76386 8687/ 90600 333 10206 20173 6010=
07299,1998-06-07 09:00:00,21,1012.4,-0.2,78,17,15000,11.112,,,120,,,,10,,,,,,1,wg-a,,,,AAXX 07094 07299 12465 61206 10210 20170 39814 40124 57002 60107 70162 85870 90900=
07299,1998-06-07 12:00:00,20,1012.3,-0.1,83,17,10000,31.484,,50.004,250,,,,1,,,,,,29,wg-a,,,,AAXX 07124 07299 02560 72517 10200 20170 39812 40123 55001 60106 72998 8596/ 91200 333 60017 91027=
07299,1998-06-07 15:00:00,18,1014.6,2,88,16,15000,7.408,,,290,,,,0,,,,,,21,wg-a,,,,AAXX 07154 07299 12565 72904 10180 20160 39832 40146 51020 60007 72165 8683/ 91500=
07299,1998-06-07 18:00:00,17,1016.3,1.5,82,14,15000,14.816,,,260,16.6,22.9,,,,,,,,3,wg-a,,,,AAXX 07184 07299 12565 72608 10170 20140 39847 40163 53015 60006 70365 8683/ 91800 333 10229 20166=
07299,1998-06-07 21:00:00,15,1018.9,2.3,88,13,20000,7.408,,,200,,,,,,,,,,,wg-a,,,,AAXX 07214 07299 12670 72004 10150 20130 39870 40189 51023 60006 8387/ 92100=
07299,1998-06-08 00:00:00,14,1019.6,0.6,94,13,20000,3.704,,,260,,,,,,,,,,,wg-a,,,,AAXX 08004 07299 12670 72602 10140 20130 39876 40196 51006 60006 8387/ 90000=
07299,1998-06-08 03:00:00,13,1020.5,0.6,88,11,20000,7.408,,,150,,,,,,,,,,,wg-a,,,,AAXX 08034 07299 12570 21504 10130 20110 39882 40205 53006 60006 81830 90300=
07299,1998-06-08 06:00:00,16,1021.1,0.9,72,11,25000,7.408,,,150,11.9,16.8,,,,,11,,,,wg-a,,,,AAXX 08064 07299 02575 41504 10160 20110 39892 40211 51009 60006 81830 90600 333 10168 20119 60114=
07299,1998-06-08 09:00:00,17,1021.4,0.5,77,13,25000,11.112,,,280,,,,,,,,,,,wg-a,,,,AAXX 08094 07299 12575 72806 10170 20130 39897 40214 53005 60006 8583/ 90900=
07299,1998-06-08 12:00:00,19,1021.6,0.3,60,11,40000,11.112,,,250,,,,,,,,,,,wg-a,,,,AAXX 08124 07299 12582 /2506 10190 20110 39900 40216 50003 60006 85830 91200=
07299,1998-06-08 15:00:00,21,1019.8,-1.5,46,9,50000,11.112,,,280,,,,0,,,,,,,wg-a,,,,AAXX 08154 07299 12584 62806 10210 20090 39884 40198 56015 60007 82832 91500=
07299,1998-06-08 18:00:00,20,1018.9,-0.9,53,10,50000,11.112,,,280,15.4,22.2,,,,,,,,,wg-a,,,,AAXX 08184 07299 12684 32806 10200 20100 39875 40189 56009 60006 81101 91800 333 10222 20154=
07299,1998-06-08 21:00:00,14,1021,1.4,94,13,500,0,,,0,,,,,,,,,,,wg-a,,,,AAXX 08214 07299 12700 30000 10140 20130 39889 40210 53014 60006 81501 92100=
07299,1998-06-09 03:00:00,12,1020.3,-0.5,100,12,500,3.704,,,150,,,,,,,,,,,wg-a,,,,AAXX 09034 07299 12/00 61502 10120 20120 39880 40203 56005 60006 85031 90300=
07299,1998-06-09 06:00:00,15,1019.9,-0.1,82,12,40000,11.112,,,150,11.4,20.4,,,,,,,,,wg-a,,,,AAXX 09064 07299 02/82 71506 10150 20120 39879 40199 56001 60006 85031 90600 333 10204 20114 60004=
07299,1998-06-09 09:00:00,20,1018.6,-0.8,49,9,40000,11.112,,,270,,,,,,,,,,,wg-a,,,,AAXX 09094 07299 12682 72706 10200 20090 39872 40186 58008 60006 8117/ 90900=
07299,1998-06-09 12:00:00,20,1017.2,-1.4,64,13,40000,7.408,,,290,,,,,,,,,,,wg-a,,,,AAXX 09124 07299 12/82 72904 10200 20130 39858 40172 58014 60006 8707/ 91200=
07299,1998-06-09 15:00:00,23,1014,-2.7,53,13,40000,7.408,,,80,,,,,,,,,,,wg-a,,,,AAXX 09154 07299 12682 /0804 10230 20130 39831 40140 58027 60006 81272 91500=
07299,1998-06-09 18:00:00,22,1012.3,-1.7,69,16,40000,0,,,0,14.7,24,,,,,,,,,wg-a,,,,AAXX 09184 07299 12/82 /0000 10220 20160 39814 40123 56017 60006 83032 91800 333 10240 20147=
07299,1998-06-09 21:00:00,18,1012.2,-0.5,94,17,25000,0,,,0,,,,,,,,,,,wg-a,,,,AAXX 09214 07299 12/75 60000 10180 20170 39809 40122 56005 60006 83032 92100=
07299,1998-06-10 00:00:00,16,1011.1,-1.3,100,16,0,11.112,,,180,,,,,,,,,,,wg-a,,,,AAXX 10004 07299 12/// /1806 10160 20160 39796 40111 58013 60006 90000=
07299,1998-06-10 03:00:00,17,1008,-3,88,15,20000,14.816,,,160,,,,,,,,,,,wg-a,,,,AAXX 10034 07299 12770 /1608 10170 20150 39766 40080 56030 60006 81532 90300=
07299,1998-06-10 06:00:00,18,1008.3,0.4,83,15,15000,11.112,,,270,15.9,22.2,,,,,,,,,wg-a,,,,AAXX 10064 07299 02665 72706 10180 20150 39771 40083 53004 60006 8593/ 90600 333 10222 20159 60004=
07299,1998-06-10 09:00:00,17,1009.7,1.4,94,16,500,3.704,,,270,,,,8,,,,,,63,wg-a,,,,AAXX 10094 07299 12300 82702 10170 20160 39783 40097 51014 60087 76362 8687/ 90900=
07299,1998-06-10 12:00:00,16,1010.8,0.9,100,16,11000,7.408,,,170,,,,,,,,,,,wg-a,,,,AAXX 10124 07299 12/61 /1704 10160 20160 39793 40108 51009 60136 91200=
07299,1998-06-10 15:00:00,19,1008.9,-1.5,73,14,25000,11.112,,,160,,,,0,,,,,,3,wg-a,,,,AAXX 10154 07299 12675 71606 10190 20140 39777 40089 56015 60007 70362 8583/ 91500=
07299,1998-06-10 18:00:00,19,1008.1,-0.7,68,13,40000,11.112,,,260,15.7,20.2,,,,,,,,1,wg-a,,,,AAXX 10184 07299 12682 72606 10190 20130 39770 40081 58007 60006 70162 83232 91800 333 10202 20157=
07299,1998-06-10 21:00:00,14,1008.8,0.1,88,12,40000,7.408,,,230,,,,,,,,,,,wg-a,,,,AAXX 10214 07299 12582 22304 10140 20120 39771 40088 53001 60006 81231 92100=
07299,1998-06-11 00:00:00,12,1007.9,-1.2,94,11,40000,7.408,,,140,,,,,,,,,,,wg-a,,,,AAXX 11004 07299 12582 21404 10120 20110 39759 40079 58012 60006 81231 90000=
07299,1998-06-11 03:00:00,13,1007.2,-0.5,82,10,10000,7.408,,,260,,,,0,,,,,,25,wg-a,,,,AAXX 11034 07299 12560 72604 10130 20100 39754 40072 58005 60007 72586 81272 90300=
07299,1998-06-11 06:00:00,14,1007.4,0.4,82,11,20000,11.112,,,240,11,19.5,,,,,,,,21,wg-a,,,,AAXX 11064 07299 02570 72406 10140 20110 39757 40074 53004 61000 72186 8487/ 90600 333 10195 20110 6013=
07299,1998-06-11 09:00:00,16,1006.8,-0.3,77,12,23000,14.816,,,250,,,,,,,,,,,wg-a,,,,AAXX 11094 07299 12573 62508 10160 20120 39754 40068 58003 60006 8587/ 90900=
07299,1998-06-11 12:00:00,17,1006.7,-0,63,10,45000,25.928,,,290,,,,,,,,,,15,wg-a,,,,AAXX 11124 07299 12583 42914 10170 20100 39754 40067 55000 60006 71511 83830 91200=
07299,1998-06-11 15:00:00,16,1006.3,-0.5,68,10,40000,11.112,,,330,,,,,,,,,,,wg-a,,,,AAXX 11154 07299 12582 73306 10160 20100 39749 40063 58005 60006 8383/ 91500=
07299,1998-06-11 18:00:00,14,1008.2,1.5,63,7,40000,22.224,,,270,13.7,18.7,,0,,,,,,1,wg-a,,,,AAXX 11184 07299 02682 72712 10140 20070 39764 40082 53015 60006 70186 82831 91800 333 10187 20137 60007=
07299,1998-06-11 21:00:00,12,1009.6,1.1,82,9,20000,18.52,,,260,,,,,,,,,,,wg-a,,,,AAXX 11214 07299 12670 72610 10120 20090 39776 40096 52011 60006 81530 92100=
07299,1998-06-12 00:00:00,11,1010.5,1,82,8,20000,18.52,,,260,,,,,,,,,,,wg-a,,,,AAXX 12004 07299 12670 72610 10110 20080 39784 40105 52010 60006 8153/ 90000=
07299,1998-06-12 03:00:00,11,1011.2,0.6,76,7,20000,18.52,,,260,,,,,,,,,,,wg-a,,,,AAXX 12034 07299 12770 72610 10110 20070 39790 40112 51006 60006 8453/ 90300=
07299,1998-06-12 06:00:00,10,1013.1,1.7,87,8,20000,18.52,,,260,10.1,13.8,,,,,,,,,wg-a,,,,AAXX 12064 07299 02470 72610 10100 20080 39808 40131 53017 60006 878// 90600 333 10138 20101 60004=
07299,1998-06-12 09:00:00,10,1014.7,1.5,93,9,15000,22.224,,,260,,,,0,,,,,,60,wg-a,,,,AAXX 12094 07299 12465 72612 10100 20090 39823 40147 52015 60007 76062 8683/ 90900=
07299,1998-06-12 12:00:00,13,1016.3,1.9,88,11,9000,14.816,,,260,,,,1,,,,,,60,wg-a,,,,AAXX 12124 07299 02459 72608 10130 20110 39842 40163 51019 60016 76062 878// 91200 333 60017=
07299,1998-06-12 15:00:00,11,1019,2.4,87,9,20000,3.704,,,300,,,,2,,,,,,60,wg-a,,,,AAXX 12154 07299 12570 73002 10110 20090 39866 40190 51024 60027 76066 878// 91500=
07299,1998-06-12 18:00:00,12,1020,1.1,67,6,25000,22.224,,,270,10,12.5,,,,,,,,3,wg-a,,,,AAXX 12184 07299 02575 72712 10120 20060 39876 40200 51011 60006 70386 8683/ 91800 333 10125 20100 61000=
07299,1998-06-12 21:00:00,8,1022.3,1.7,87,6,25000,3.704,,,150,,,,,,,,,,1,wg-a,,,,AAXX 12214 07299 02675 /1502 10080 20060 39894 40223 52017 61000 70186 81830 92100 333 ////=
07299,1998-06-13 00:00:00,7,1023,0.5,93,6,20000,0,,,0,,,,,,,,,,0,wg-a,,,,AAXX 13004 07299 02670 10000 10070 20060 39899 40230 51005 61000 70086 81530 90000 333 ////=
07299,1998-06-13 03:00:00,5,1022.5,-0.7,100,5,15000,3.704,,,150,,,,,,,,,,,wg-a,,,,AAXX 13034 07299 12665 /1502 10050 20050 39892 40225 57007 60006 81830 90300=
07299,1998-06-13 06:00:00,9,1021.5,-0.4,93,8,15000,11.112,,,130,4.2,11.4,,,,,3,,,,wg-a,,,,AAXX 13064 07299 02465 /1306 10090 20080 39888 40215 56004 60006 81830 90600 333 10114 20042 60034=
07299,1998-06-13 12:00:00,16,1018.4,-1.2,45,4,11000,7.408,,,310,,,,,,,,,,,wg-a,,,,AAXX 13124 07299 12/61 /3104 10160 20040 39866 40184 58012 60006 91200=
07299,1998-06-13 15:00:00,19,1016.1,-2,30,1,25000,7.408,,,170,,,,,,,,,,,wg-a,,,,AAXX 13154 07299 12775 31704 10190 20010 39846 40161 57020 60006 83400 91500=
07299,1998-06-13 18:00:00,18,1014.9,-1.3,34,2,25000,3.704,,,150,8.9,19,,,,,,,,,wg-a,,,,AAXX 13184 07299 12875 21502 10180 20020 39833 40149 56013 60006 82402 91800 333 10190 20089=
07299,1998-06-13 21:00:00,11,1015.3,-0.3,87,9,500,3.704,,,140,,,,,,,,,,,wg-a,,,,AAXX 13214 07299 12/00 61402 10110 20090 39830 40153 56003 60006 82032 92100=
07299,1998-06-14 00:00:00,12,1014.5,-0.6,76,8,25000,3.704,,,160,,,,,,,,,,,wg-a,,,,AAXX 14004 07299 12775 71602 10120 20080 39823 40145 58006 60006 8553/ 90000=
07299,1998-06-14 03:00:00,11,1014,-0.5,82,8,25000,7.408,,,200,,,,,,,,,,,wg-a,,,,AAXX 14034 07299 12775 72004 10110 20080 39818 40140 58005 60006 8653/ 90300=
07299,1998-06-14 06:00:00,11,1014.5,0.3,87,9,20000,11.112,,,130,10.1,17.9,,,,,,,,21,wg-a,,,,AAXX 14064 07299 02570 71306 10110 20090 39822 40145 51003 61000 72162 875// 90600 333 10179 20101 6000=
07299,1998-06-14 09:00:00,14,1014.2,0,77,10,20000,14.816,,,110,,,,0,,,,,,25,wg-a,,,,AAXX 14094 07299 12570 71108 10140 20100 39823 40142 50000 60007 72586 86270 90900=
07299,1998-06-14 12:00:00,19,1012.7,-0.9,56,10,500,14.816,,,240,,,,,,,,,,3,wg-a,,,,AAXX 14124 07299 02700 42408 10190 20100 39814 40127 58009 60006 70386 84900 91200 333 61000=
07299,1998-06-14 15:00:00,20,1012.2,-0.3,53,10,75000,18.52,,,270,,,,,,,,,,,wg-a,,,,AAXX 14154 07299 12789 /2710 10200 20100 39810 40122 55003 60006 85963 91500=
07299,1998-06-14 18:00:00,17,1012.4,-0.1,63,10,25000,7.408,,,170,11,20.7,,,,,,,,3,wg-a,,,,AAXX 14184 07299 02775 51704 10170 20100 39809 40124 58001 60006 70398 83903 91800 333 10207 20110 61000=
07299,1998-06-15 00:00:00,12,1014.8,0.5,100,12,25000,3.704,,,190,,,,,,,,,,,wg-a,,,,AAXX 15004 07299 12675 71902 10120 20120 39826 40148 51005 60006 878// 90000=
07299,1998-06-15 03:00:00,13,1014.6,-0.1,94,12,25000,7.408,,,160,,,,0,,,,,,,wg-a,,,,AAXX 15034 07299 12675 71604 10130 20120 39825 40146 58001 60007 878// 90300=
07299,1998-06-15 06:00:00,13,1015.3,0.8,88,11,25000,3.704,,,140,11.5,17.2,,,,,1,,,1,wg-a,,,,AAXX 15064 07299 02575 31402 10130 20110 39833 40153 51008 60006 70186 83800 90600 333 10172 20115 60014=
07299,1998-06-15 09:00:00,14,1015,-0.3,88,12,20000,11.112,,,270,,,,1,,,,,,25,wg-a,,,,AAXX 15094 07299 12570 72706 10140 20120 39831 40150 56003 60017 72586 879// 90900=
07299,1998-06-15 12:00:00,19,1013.6,-0.9,52,9,50000,14.816,,,230,,,,0,,,,,,1,wg-a,,,,AAXX 15124 07299 02684 32308 10190 20090 39822 40136 58009 60016 70186 83260 91200 333 60007=
07299,1998-06-15 15:00:00,19,1013.4,-0.1,52,9,500,11.112,,,250,,,,,,,,,,1,wg-a,,,,AAXX 15154 07299 02600 52506 10190 20090 39821 40134 56001 61000 70186 85903 91500 333 ////=
07299,1998-06-15 18:00:00,17,1014.9,1.2,63,10,50000,11.112,,,250,13,20.2,,,,,,,,1,wg-a,,,,AAXX 15184 07299 02684 32506 10170 20100 39833 40149 51012 60006 70186 82903 91800 333 10202 20130 61000=
07299,1998-06-15 21:00:00,13,1017.2,1.6,77,9,25000,3.704,,,190,,,,,,,,,,,wg-a,,,,AAXX 15214 07299 12775 /1902 10130 20090 39850 40172 53016 60006 85500 92100=
07299,1998-06-16 00:00:00,13,1017.8,0.7,77,9,25000,11.112,,,220,,,,,,,,,,,wg-a,,,,AAXX 16004 07299 12775 62206 10130 20090 39857 40178 51007 60006 865/0 90000=
07299,1998-06-16 03:00:00,13,1018.1,0.2,82,10,40000,7.408,,,210,,,,,,,,,,,wg-a,,,,AAXX 16034 07299 12582 72104 10130 20100 39859 40181 51002 60006 86502 90300=
07299,1998-06-16 06:00:00,12,1019.7,1.4,88,10,13000,11.112,,,250,11.5,16.4,,,,,,,,80,wg-a,,,,AAXX 16064 07299 02563 72506 10120 20100 39873 40197 53014 61000 78086 86870 90600 333 10164 20115 ////=
07299,1998-06-16 09:00:00,14,1020.4,1,88,12,15000,11.112,,,230,,,,1,,,,,,25,wg-a,,,,AAXX 16094 07299 12565 62306 10140 20120 39883 40204 53010 60017 72586 84230 90900=
07299,1998-06-16 12:00:00,13,1021.9,1.2,88,11,10000,25.928,,,270,,,,0,,,,,,16,wg-a,,,,AAXX 16124 07299 02560 62714 10130 20110 39896 40219 53012 60016 71686 84830 91200 333 60007=
07299,1998-06-16 15:00:00,16,1022.1,0.5,63,9,20000,14.816,,,240,,,,,,,,,,1,wg-a,,,,AAXX 16154 07299 02670 62408 10160 20090 39901 40221 53005 61000 70186 82870 91500 333 ////=
07299,1998-06-16 18:00:00,14,1023.9,1.4,72,9,15000,25.928,,,240,11.6,18.1,,,,,,,,80,wg-a,,,,AAXX 16184 07299 02665 72414 10140 20090 39916 40239 51014 61000 78086 85970 91800 333 10181 20116 6100=
07299,1998-06-16 21:00:00,12,1025.3,1.3,88,10,25000,3.704,,,140,,,,0,,,,,,1,wg-a,,,,AAXX 16214 07299 12775 /1402 10120 20100 39928 40253 53013 60007 70186 85830 92100=
07299,1998-06-17 00:00:00,11,1026.2,0.7,94,10,20000,3.704,,,40,,,,,,,,,,0,wg-a,,,,AAXX 17004 07299 12770 70402 10110 20100 39935 40262 51007 60006 70086 86870 90000=
07299,1998-06-17 03:00:00,11,1026.4,0.2,94,10,20000,3.704,,,130,,,,,,,,,,,wg-a,,,,AAXX 17034 07299 12670 71302 10110 20100 39937 40264 52002 60006 8687/ 90300=
07299,1998-06-17 06:00:00,14,1026.9,0.8,77,10,28000,3.704,,,100,10,13.7,,,,,1,,,,wg-a,,,,AAXX 17064 07299 02778 /1002 10140 20100 39945 40269 51008 60006 81500 90600 333 10137 20100 60014=
07299,1998-06-17 09:00:00,18,1026.6,0.2,56,9,35000,11.112,,,260,,,,,,,,,,,wg-a,,,,AAXX 17094 07299 12681 22606 10180 20090 39947 40266 51002 60006 81232 90900=
07299,1998-06-17 12:00:00,20,1025.8,-0.4,46,8,45000,18.52,,,270,,,,,,,,,,,wg-a,,,,AAXX 17124 07299 12783 72710 10200 20080 39942 40258 57004 60006 81132 91200=
07299,1998-06-17 15:00:00,20,1025.6,-0.3,40,6,50000,18.52,,,300,,,,,,,,,,,wg-a,,,,AAXX 17154 07299 12784 73010 10200 20060 39939 40256 58003 60006 81101 91500=
07299,1998-06-17 18:00:00,19,1025.4,-0.4,40,5,55000,11.112,,,270,13.4,20.6,,,,,,,,,wg-a,,,,AAXX 17184 07299 12785 72706 10190 20050 39936 40254 55004 60006 81101 91800 333 10206 20134=
07299,1998-06-17 21:00:00,14,1026.7,0.8,72,9,40000,7.408,,,340,,,,,,,,,,,wg-a,,,,AAXX 17214 07299 12782 73404 10140 20090 39944 40267 53008 60006 81131 92100=
07299,1998-06-18 00:00:00,12,1027.3,0.4,82,9,40000,3.704,,,100,,,,,,,,,,,wg-a,,,,AAXX 18004 07299 12782 71002 10120 20090 39947 40273 53004 60006 81131 90000=
07299,1998-06-18 03:00:00,9,1027.4,-0.3,100,9,40000,7.408,,,180,,,,,,,,,,,wg-a,,,,AAXX 18034 07299 12/82 31804 10090 20090 39945 40274 58003 60006 82031 90300=
07299,1998-06-18 06:00:00,13,1027.2,0.3,82,10,40000,7.408,,,160,8.8,18.5,,,,,,,,,wg-a,,,,AAXX 18064 07299 02/82 51604 10130 20100 39948 40272 51003 60006 82031 90600 333 10185 20088 60004=
07299,1998-06-18 09:00:00,19,1026.6,0,56,10,40000,3.704,,,320,,,,,,,,,,,wg-a,,,,AAXX 18094 07299 12682 73202 10190 20100 39948 40266 50000 60006 81102 90900=
07299,1998-06-18 12:00:00,22,1025.6,-0.6,41,8,40000,11.112,,,230,,,,,,,,,,,wg-a,,,,AAXX 18124 07299 12782 62306 10220 20080 39942 40256 56006 60006 81102 91200=
07299,1998-06-18 15:00:00,23,1024.6,-0.9,38,8,40000,11.112,,,290,,,,,,,,,,,wg-a,,,,AAXX 18154 07299 12782 62906 10230 20080 39933 40246 57009 60006 81102 91500=
07299,1998-06-18 18:00:00,21,1025,0.1,49,10,40000,11.112,,,260,13.1,23.5,,,,,,,,,wg-a,,,,AAXX 18184 07299 12882 72606 10210 20100 39934 40250 53001 60006 81432 91800 333 10235 20131=
07299,1998-06-18 21:00:00,16,1026.4,0.9,72,11,45000,3.704,,,130,,,,,,,,,,,wg-a,,,,AAXX 18214 07299 12883 11302 10160 20110 39943 40264 53009 60006 81532 92100=
07299,1998-06-19 00:00:00,12,1026.3,-0.6,94,11,500,7.408,,,170,,,,,,,,,,,wg-a,,,,AAXX 19004 07299 12/00 01704 10120 20110 39937 40263 58006 60006 80000 90000=
07299,1998-06-19 03:00:00,11,1026.1,-0.3,94,10,28000,3.704,,,180,,,,,,,,,,,wg-a,,,,AAXX 19034 07299 12/78 11802 10110 20100 39934 40261 56003 60006 81030 90300=
07299,1998-06-19 06:00:00,15,1025.7,0.2,77,11,25000,7.408,,,140,10.5,20.4,,,,,,,,,wg-a,,,,AAXX 19064 07299 02/75 21404 10150 20110 39936 40257 50002 60006 80002 90600 333 10204 20105 60004=
07299,1998-06-19 09:00:00,22,1024.5,-0.5,46,10,500,7.408,,,70,,,,,,,,,,,wg-a,,,,AAXX 19094 07299 12600 20704 10220 20100 39931 40245 58005 60006 81101 90900=
07299,1998-06-19 12:00:00,25,1023.4,-0.7,39,10,45000,7.408,,,320,,,,,,,,,,,wg-a,,,,AAXX 19124 07299 12783 63204 10250 20100 39924 40234 56007 60006 81104 91200=
07299,1998-06-19 15:00:00,27,1022.3,-0.9,32,9,500,7.408,,,290,,,,,,,,,,,wg-a,,,,AAXX 19154 07299 12800 12904 10270 20090 39915 40223 58009 60006 81202 91500=
07299,1998-06-19 18:00:00,26,1022,-0.4,42,12,500,11.112,,,350,15.3,27.1,,,,,,,,,wg-a,,,,AAXX 19184 07299 12800 23506 10260 20120 39911 40220 58004 60006 81501 91800 333 10271 20153=
07299,1998-06-19 21:00:00,17,1023.6,0.6,77,13,35000,3.704,,,270,,,,,,,,,,,wg-a,,,,AAXX 19214 07299 12/81 12702 10170 20130 39917 40236 53006 60006 80001 92100=
07299,1998-06-20 00:00:00,13,1023.8,-0.2,94,12,20000,3.704,,,240,,,,,,,,,,,wg-a,,,,AAXX 20004 07299 12/70 12402 10130 20120 39915 40238 56002 60006 80001 90000=
07299,1998-06-20 03:00:00,12,1024.2,0.3,100,12,18000,7.408,,,180,,,,,,,,,,,wg-a,,,,AAXX 20034 07299 12/68 21804 10120 20120 39918 40242 53003 60006 80001 90300=
07299,1998-06-20 06:00:00,17,1024.2,0.6,82,14,25000,3.704,,,190,11.6,25.6,,,,,,,,,wg-a,,,,AAXX 20064 07299 02/75 31902 10170 20140 39924 40242 51006 60006 80001 90600 333 10256 20116 60004=
07299,1998-06-20 09:00:00,24,1023.1,-0.4,54,14,40000,7.408,,,50,,,,,,,,,,,wg-a,,,,AAXX 20094 07299 12/82 50504 10240 20140 39921 40231 58004 60006 80001 90900=
07299,1998-06-20 12:00:00,30,1021,-1.5,31,11,40000,3.704,,,90,,,,,,,,,,,wg-a,,,,AAXX 20124 07299 12/82 50902 10300 20110 39905 40210 57015 60006 80001 91200=
07299,1998-06-20 15:00:00,31,1020,-0.8,29,11,40000,7.408,,,50,,,,,,,,,,,wg-a,,,,AAXX 20154 07299 12782 60504 10310 20110 39897 40200 56008 60006 81101 91500=
07299,1998-06-20 18:00:00,29,1020,-0.1,52,18,50000,3.704,,,260,17.4,31.5,,,,,,,,,wg-a,,,,AAXX 20184 07299 12/84 62602 10290 20180 39896 40200 55001 60006 80002 91800 333 10315 20174=
07299,1998-06-20 21:00:00,20,1021.7,0.7,88,18,500,0,,,0,,,,,,,,,,,wg-a,,,,AAXX 20214 07299 12/00 50000 10200 20180 39903 40217 52007 60006 80002 92100=
07299,1998-06-21 00:00:00,17,1022.1,0.1,94,16,500,3.704,,,110,,,,,,,,,,,wg-a,,,,AAXX 21004 07299 12/00 01102 10170 20160 39904 40221 50001 60006 80000 90000=
07299,1998-06-21 03:00:00,16,1022.1,-0.2,94,15,35000,3.704,,,170,,,,,,,,,,,wg-a,,,,AAXX 21034 07299 12/81 31702 10160 20150 39902 40221 56002 60006 80001 90300=
07299,1998-06-21 06:00:00,21,1022.3,0.7,73,16,40000,11.112,,,170,15.8,29.3,,,,,,,,,wg-a,,,,AAXX 21064 07299 02/82 11706 10210 20160 39909 40223 51007 60006 80001 90600 333 10293 20158 60004=
07299,1998-06-21 09:00:00,28,1021.1,-0.4,48,16,40000,3.704,,,280,,,,,,,,,,,wg-a,,,,AAXX 21094 07299 12/82 32802 10280 20160 39905 40211 58004 60006 80001 90900=
07299,1998-06-21 12:00:00,31,1019.4,-1.3,43,17,50000,11.112,,,270,,,,,,,,,,,wg-a,,,,AAXX 21124 07299 12784 72706 10310 20170 39892 40194 57013 60006 81101 91200=
07299,1998-06-21 15:00:00,33,1017.4,-1.8,44,19,10000,3.704,,,280,,,,,,,,,,,wg-a,,,,AAXX 21154 07299 12/60 /2802 10330 20190 39874 40174 56018 60006 91500=
07299,1998-06-21 18:00:00,29,1018.2,0.4,40,14,50000,14.816,,,300,20.7,32.9,,,,,,,,,wg-a,,,,AAXX 21184 07299 12884 73008 10290 20140 39878 40182 53004 60006 81231 91800 333 10329 20207=
07299,1998-06-21 21:00:00,21,1019.9,0.8,78,17,500,3.704,,,210,,,,,,,,,,,wg-a,,,,AAXX 21214 07299 12700 62102 10210 20170 39886 40199 51008 60006 81531 92100=
07299,1998-06-22 00:00:00,20,1021.4,1.3,73,15,20000,3.704,,,270,,,,,,,,,,,wg-a,,,,AAXX 22004 07299 12770 72702 10200 20150 39899 40214 51013 60006 81531 90000=
07299,1998-06-22 03:00:00,23,1020.9,-0.2,57,14,20000,18.52,,,260,,,,,,,,,,,wg-a,,,,AAXX 22034 07299 12770 62610 10230 20140 39897 40209 55002 60006 81531 90300=
07299,1998-06-22 06:00:00,22,1022.3,1.4,73,17,15000,14.816,,,250,19.3,29.2,,,,,,,,,wg-a,,,,AAXX 22064 07299 02665 32508 10220 20170 39911 40223 51014 60006 83801 90600 333 10292 20193 60004=
07299,1998-06-22 09:00:00,23,1023.1,1,69,17,8000,22.224,,,280,,,,,,,,,,,wg-a,,,,AAXX 22094 07299 12558 22812 10230 20170 39920 40231 51010 60006 82100 90900=
07299,1998-06-22 12:00:00,25,1022.4,-0.8,54,15,12000,22.224,,,270,,,,,,,,,,,wg-a,,,,AAXX 22124 07299 12562 22712 10250 20150 39914 40224 58008 60006 81130 91200=
07299,1998-06-22 15:00:00,26,1021.4,-0.9,45,13,35000,22.224,,,260,,,,,,,,,,,wg-a,,,,AAXX 22154 07299 12681 /2612 10260 20130 39905 40214 57009 60006 81230 91500=
07299,1998-06-22 18:00:00,23,1021.1,-0.6,50,12,11000,18.52,,,260,21.8,26.2,,,,,,,,,wg-a,,,,AAXX 22184 07299 12/61 /2610 10230 20120 39899 40211 55006 60006 91800 333 10262 20218=
07299,1998-06-22 21:00:00,21,1023.1,1.7,49,10,500,11.112,,,340,,,,,,,,,,,wg-a,,,,AAXX 22214 07299 12700 73406 10210 20100 39916 40231 51017 60006 86531 92100=
07299,1998-06-23 00:00:00,15,1023.8,0.1,72,10,500,7.408,,,330,,,,,,,,,,,wg-a,,,,AAXX 23004 07299 12700 53304 10150 20100 39917 40238 52001 60006 85501 90000=
07299,1998-06-23 03:00:00,13,1023.4,-0.6,88,11,500,7.408,,,320,,,,,,,,,,,wg-a,,,,AAXX 23034 07299 12800 63204 10130 20110 39911 40234 56006 60006 84531 90300=
07299,1998-06-23 06:00:00,16,1023.2,0.2,72,11,40000,7.408,,,320,12.4,22.9,,,,,,,,,wg-a,,,,AAXX 23064 07299 02/82 53204 10160 20110 39913 40232 53002 60006 81031 90600 333 10229 20124 60004=
07299,1998-06-23 09:00:00,22,1021.6,-1,46,10,40000,7.408,,,300,,,,,,,,,,,wg-a,,,,AAXX 23094 07299 12782 23004 10220 20100 39903 40216 58010 60006 81101 90900=
07299,1998-06-23 12:00:00,24,1020.1,-1.2,41,10,40000,7.408,,,290,,,,,,,,,,,wg-a,,,,AAXX 23124 07299 12782 42904 10240 20100 39890 40201 58012 60006 83401 91200=
07299,1998-06-23 15:00:00,25,1018.5,-1.4,36,9,40000,14.816,,,260,,,,,,,,,,,wg-a,,,,AAXX 23154 07299 12782 42608 10250 20090 39876 40185 57014 60006 814/1 91500=
07299,1998-06-23 18:00:00,23,1018.1,-0.6,44,10,40000,11.112,,,270,16.6,25.5,,,,,,,,,wg-a,,,,AAXX 23184 07299 12882 52706 10230 20100 39870 40181 56006 60006 814/1 91800 333 10255 20166=
07299,1998-06-23 21:00:00,17,1019.1,0.4,68,11,40000,3.704,,,250,,,,,,,,,,,wg-a,,,,AAXX 23214 07299 12882 62502 10170 20110 39874 40191 52004 60006 814/1 92100=
07299,1998-06-24 00:00:00,12,1019.3,-0.3,94,11,40000,0,,,0,,,,,,,,,,,wg-a,,,,AAXX 24004 07299 12882 60000 10120 20110 39871 40193 58003 60006 814/1 90000=
07299,1998-06-24 03:00:00,12,1018.4,-0.9,100,12,40000,0,,,0,,,,,,,,,,,wg-a,,,,AAXX 24034 07299 12/82 30000 10120 20120 39862 40184 56009 60006 81031 90300=
07299,1998-06-24 06:00:00,17,1017.7,-0.2,72,12,20000,0,,,0,11.4,22.9,,,,,,,,,wg-a,,,,AAXX 24064 07299 02/70 10000 10170 20120 39860 40177 57002 60006 81031 90600 333 10229 20114 60004=
07299,1998-06-24 09:00:00,22,1016.3,-0.8,53,12,24000,7.408,,,60,,,,,,,,,,,wg-a,,,,AAXX 24094 07299 12674 /0604 10220 20120 39852 40163 58008 60006 81131 90900=
07299,1998-06-24 12:00:00,25,1014.3,-1.6,44,12,28000,11.112,,,10,,,,,,,,,,,wg-a,,,,AAXX 24124 07299 12778 70106 10250 20120 39836 40143 56016 60006 81102 91200=
07299,1998-06-24 15:00:00,27,1012.7,-1.4,39,12,35000,11.112,,,10,,,,,,,,,,,wg-a,,,,AAXX 24154 07299 12781 50106 10270 20120 39822 40127 58014 60006 81101 91500=
07299,1998-06-24 18:00:00,24,1012.4,-0.6,47,12,35000,14.816,,,350,17.1,27.3,,,,,,,,,wg-a,,,,AAXX 24184 07299 12881 73508 10240 20120 39816 40124 56006 60006 81132 91800 333 10273 20171=
07299,1998-06-24 21:00:00,18,1013.4,0.4,73,13,35000,7.408,,,330,,,,,,,,,,,wg-a,,,,AAXX 24214 07299 12/81 63304 10180 20130 39820 40134 52004 60006 80002 92100=
07299,1998-06-25 00:00:00,14,1013.8,-0.1,94,13,500,3.704,,,230,,,,,,,,,,,wg-a,,,,AAXX 25004 07299 12/00 32302 10140 20130 39819 40138 58001 60006 80002 90000=
07299,1998-06-25 03:00:00,12,1013.1,-0.9,100,12,500,0,,,0,,,,,,,,,,,wg-a,,,,AAXX 25034 07299 12/00 10000 10120 20120 39810 40131 56009 60006 80002 90300=
07299,1998-06-25 06:00:00,18,1012.9,0.6,83,15,20000,7.408,,,100,11.5,24.2,,,,,,,,,wg-a,,,,AAXX 25064 07299 02/70 21004 10180 20150 39816 40129 53006 60006 82032 90600 333 10242 20115 60004=
07299,1998-06-25 09:00:00,26,1012.1,0,54,16,20000,11.112,,,260,,,,,,,,,,,wg-a,,,,AAXX 25094 07299 12670 52606 10260 20160 39816 40121 50000 60006 81101 90900=
07299,1998-06-25 12:00:00,29,1011.4,-0.4,43,15,25000,14.816,,,260,,,,,,,,,,,wg-a,,,,AAXX 25124 07299 12775 52608 10290 20150 39812 40114 58004 60006 81232 91200=
07299,1998-06-25 15:00:00,26,1012.9,1.1,54,16,9000,11.112,,,280,,,,,,,,,,17,wg-a,,,,AAXX 25154 07299 02659 72806 10260 20160 39823 40129 53011 61000 71798 8693/ 91500 333 ////=
07299,1998-06-25 18:00:00,21,1014.1,0.8,78,17,23000,14.816,,,240,18.5,29.5,,,,,,,,21,wg-a,,,,AAXX 25184 07299 02573 72408 10210 20170 39830 40141 53008 61000 72198 83832 91800 333 10295 20185 6009=
07299,1998-06-25 21:00:00,19,1016,1.5,78,15,23000,7.408,,,180,,,,,,,,,,,wg-a,,,,AAXX 25214 07299 12573 71804 10190 20150 39846 40160 51015 60006 8283/ 92100=
07299,1998-06-26 00:00:00,17,1016,-0.2,94,16,20000,3.704,,,210,,,,,,,,,,,wg-a,,,,AAXX 26004 07299 12770 62102 10170 20160 39844 40160 58002 60006 81530 90000=
07299,1998-06-26 03:00:00,17,1015.7,-0.3,94,16,18000,3.704,,,260,,,,,,,,,,,wg-a,,,,AAXX 26034 07299 12768 72602 10170 20160 39841 40157 58003 60006 8353/ 90300=
07299,1998-06-26 06:00:00,17,1016.2,0.5,94,16,500,3.704,,,280,15.8,20.4,,,,,,,,25,wg-a,,,,AAXX 26064 07299 02100 82802 10170 20160 39846 40162 52005 61000 72586 878// 90600 333 10204 20158 6010=
07299,1998-06-26 09:00:00,20,1015.7,-0.2,78,16,9000,7.408,,,320,,,,,,,,,,,wg-a,,,,AAXX 26094 07299 12459 73204 10200 20160 39844 40157 55002 60006 8683/ 90900=
07299,1998-06-26 12:00:00,23,1014.8,-0.5,69,17,12000,7.408,,,280,,,,,,,,,,,wg-a,,,,AAXX 26124 07299 12462 72804 10230 20170 39839 40148 58005 60006 878// 91200=
07299,1998-06-26 15:00:00,22,1014.9,0,73,17,13000,0,,,0,,,,,,,,,,,wg-a,,,,AAXX 26154 07299 12663 70000 10220 20170 39839 40149 50000 60006 8383/ 91500=
07299,1998-06-26 18:00:00,22,1014.9,0.1,78,18,13000,7.408,,,290,16.6,22.9,,,,,,,,,wg-a,,,,AAXX 26184 07299 12563 72904 10220 20180 39839 40149 53001 60006 8583/ 91800 333 10229 20166=
07299,1998-06-26 21:00:00,19,1015.8,0.4,94,18,12000,7.408,,,240,,,,,,,,,,,wg-a,,,,AAXX 26214 07299 12562 72404 10190 20180 39844 40158 53004 60006 8587/ 92100=
07299,1998-06-27 00:00:00,18,1015.4,-0.5,94,17,12000,0,,,0,,,,,,,,,,,wg-a,,,,AAXX 27004 07299 12462 /0000 10180 20170 39839 40154 58005 60006 86800 90000=
07299,1998-06-27 03:00:00,17,1014.8,-0.6,100,17,12000,7.408,,,230,,,,,,,,,,,wg-a,,,,AAXX 27034 07299 12462 72304 10170 20170 39833 40148 56006 60006 875// 90300=
07299,1998-06-27 06:00:00,18,1015.3,0.6,94,17,12000,3.704,,,180,17,21.5,,,,,,,,,wg-a,,,,AAXX 27064 07299 02262 71802 10180 20170 39839 40153 52006 60006 878// 90600 333 10215 20170 60004=
07299,1998-06-27 09:00:00,20,1015.3,0.1,83,17,14000,3.704,,,240,,,,,,,,,,,wg-a,,,,AAXX 27094 07299 12464 72402 10200 20170 39841 40153 51001 60006 878// 90900=
07299,1998-06-27 12:00:00,25,1013.4,-1.3,57,16,16000,3.704,,,260,,,,,,,,,,,wg-a,,,,AAXX 27124 07299 12666 72602 10250 20160 39827 40134 57013 60006 85801 91200=
07299,1998-06-27 18:00:00,19,1012.2,-0.3,88,17,18000,11.112,93.6,,110,18.3,27.2,,5,,,,,,29,wg-a,,,,AAXX 27184 07299 02268 61106 10190 20170 39810 40122 55003 60006 72998 83930 91800 333 10272 20183 60057=
07299,1998-06-27 21:00:00,19,1013.8,1.4,94,18,15000,3.704,,,160,,,,,,,,,,,wg-a,,,,AAXX 27214 07299 12565 /1602 10190 20180 39825 40138 51014 60006 84930 92100=
07299,1998-06-28 00:00:00,18,1014.9,1,100,18,15000,3.704,,,200,,,,,,,,,,13,wg-a,,,,AAXX 28004 07299 12565 52002 10180 20180 39835 40149 52010 60006 71398 83930 90000=
07299,1998-06-28 03:00:00,19,1016.1,1.1,78,15,18000,14.816,,,260,,,,,,,,,,,wg-a,,,,AAXX 28034 07299 12568 72608 10190 20150 39847 40161 52011 60006 8383/ 90300=
07299,1998-06-28 06:00:00,18,1018,1.7,83,15,15000,18.52,,,280,17.3,19.1,,,,,5,,,,wg-a,,,,AAXX 28064 07299 02565 52810 10180 20150 39864 40180 53017 60006 8383/ 90600 333 10191 20173 60054=
07299,1998-06-28 09:00:00,17,1020.4,2.1,72,12,25000,11.112,,,260,,,,,,,,,,,wg-a,,,,AAXX 28094 07299 12575 72606 10170 20120 39886 40204 51021 60006 878// 90900=
07299,1998-06-28 12:00:00,21,1019.8,-0.1,60,13,25000,14.816,,,260,,,,,,,,,,,wg-a,,,,AAXX 28124 07299 12575 52608 10210 20130 39885 40198 58001 60006 85800 91200=
07299,1998-06-28 18:00:00,23,1018.6,0.1,53,13,50000,11.112,,,270,16.4,23.7,,,,,,,,,wg-a,,,,AAXX 28184 07299 12684 42706 10230 20130 39875 40186 53001 60006 84800 91800 333 10237 20164=
07299,1998-06-28 21:00:00,15,1020.5,1,94,14,20000,7.408,,,230,,,,,,,,,,,wg-a,,,,AAXX 28214 07299 12670 22304 10150 20140 39886 40205 51010 60006 82800 92100=
07299,1998-06-29 00:00:00,14,1021.2,0.5,94,13,20000,3.704,,,310,,,,,,,,,,,wg-a,,,,AAXX 29004 07299 12770 33102 10140 20130 39891 40212 52005 60006 835/0 90000=
07299,1998-06-29 06:00:00,13,1021.8,0.3,100,13,17000,0,,,0,9.9,22.5,,,,,,,,,wg-a,,,,AAXX 29064 07299 02767 30000 10130 20130 39896 40218 50003 60006 83500 90600 333 10225 20099 60004=
07299,1998-06-29 09:00:00,22,1020.5,-0.4,46,10,40000,3.704,,,70,,,,,,,,,,,wg-a,,,,AAXX 29094 07299 12682 30702 10220 20100 39892 40205 58004 60006 83801 90900=
07299,1998-06-29 12:00:00,23,1019,-1.3,47,11,50000,7.408,,,280,,,,,,,,,,,wg-a,,,,AAXX 29124 07299 12784 32804 10230 20110 39879 40190 58013 60006 82101 91200=
07299,1998-06-29 15:00:00,26,1017.4,-1.3,42,12,50000,11.112,,,290,,,,,,,,,,,wg-a,,,,AAXX 29154 07299 12784 22906 10260 20120 39866 40174 56013 60006 81101 91500=
07299,1998-06-29 18:00:00,23,1016.9,-0.7,47,11,50000,11.112,,,270,13.1,25.5,,,,,,,,,wg-a,,,,AAXX 29184 07299 12784 52706 10230 20110 39859 40169 56007 60006 81101 91800 333 10255 20131=
07299,1998-06-29 21:00:00,16,1018,0.4,82,13,50000,7.408,,,220,,,,,,,,,,,wg-a,,,,AAXX 29214 07299 12884 32204 10160 20130 39863 40180 53004 60006 814/1 92100=
07299,1998-06-30 00:00:00,13,1018,-0.5,94,12,500,3.704,,,300,,,,,,,,,,,wg-a,,,,AAXX 30004 07299 12/00 33002 10130 20120 39858 40180 58005 60006 80001 90000=
07299,1998-06-30 03:00:00,11,1017.9,-0.4,100,11,500,0,,,0,,,,,,,,,,,wg-a,,,,AAXX 30034 07299 12/00 30000 10110 20110 39855 40179 56004 60006 81031 90300=
07299,1998-06-30 06:00:00,18,1016.2,-0.7,73,13,500,11.112,,,140,10.4,23.2,,,,,,,,,wg-a,,,,AAXX 30064 07299 02/00 61406 10180 20130 39847 40162 56007 60006 81032 90600 333 10232 20104 60004=
07299,1998-06-30 09:00:00,23,1014.2,-1.4,53,13,40000,7.408,,,200,,,,,,,,,,,wg-a,,,,AAXX 30094 07299 12582 /2004 10230 20130 39833 40142 56014 60006 81132 90900=
07299,1998-06-30 12:00:00,26,1013,-0.9,45,13,40000,14.816,,,270,,,,,,,,,,,wg-a,,,,AAXX 30124 07299 12682 72708 10260 20130 39824 40130 56009 60006 83232 91200=
07299,1998-06-30 15:00:00,25,1012.8,-0.3,50,14,20000,18.52,,,270,,,,,,,,,,,wg-a,,,,AAXX 30154 07299 12770 72710 10250 20140 39821 40128 56003 60006 83832 91500=
07299,1998-06-30 18:00:00,18,1014.3,0.8,94,17,500,11.112,,,260,17.9,27,,,,,,,,80,wg-a,,,,AAXX 30184 07299 02500 72606 10180 20170 39829 40143 53008 61000 78098 83332 91800 333 10270 20179 6003=
07299,1998-06-30 21:00:00,17,1015.3,0.7,82,14,500,11.112,,,250,,,,,,,,,,1,wg-a,,,,AAXX 30214 07299 02600 /2506 10170 20140 39837 40153 52007 61000 70186 86531 92100 333 ////=
07299,1998-07-01 00:00:00,15,1014.8,-0.6,94,14,20000,0,,,0,,,,,,,,,,1,wg-a,,,,AAXX 01004 07299 02670 30000 10150 20140 39830 40148 56006 61000 70186 83530 90000 333 ////=
07299,1998-07-01 03:00:00,15,1014.2,-0.5,94,14,20000,3.704,,,150,,,,,,,,,,,wg-a,,,,AAXX 01034 07299 12670 71502 10150 20140 39825 40142 55005 60006 8553/ 90300=
07299,1998-07-01 06:00:00,18,1013,-0.9,77,14,25000,7.408,,,100,14.4,18.2,,,,,3,,,,wg-a,,,,AAXX 01064 07299 02/75 71004 10180 20140 39816 40130 58009 60006 83072 90600 333 10182 20144 60034=
07299,1998-07-01 09:00:00,19,1011.9,-0.8,78,15,12000,3.704,,,150,,,,,,,,,,15,wg-a,,,,AAXX 01094 07299 12562 71502 10190 20150 39807 40119 58008 60006 71522 84302 90900=
07299,1998-07-01 12:00:00,23,1009.9,-1.6,57,14,35000,7.408,,,130,,,,,,,,,,,wg-a,,,,AAXX 01124 07299 12681 71304 10230 20140 39792 40099 58016 60006 8183/ 91200=
07299,1998-07-01 15:00:00,24,1008.6,-1.2,50,13,35000,22.224,,,30,,,,,,,,,,,wg-a,,,,AAXX 01154 07299 12681 60312 10240 20130 39779 40086 58012 60006 81831 91500=
07299,1998-07-01 18:00:00,19,1007.9,-1.1,78,15,500,29.632,,,350,17.7,25,,,,,,,,,wg-a,,,,AAXX 01184 07299 12600 73516 10190 20150 39768 40079 56011 60006 82892 91800 333 10250 20177=
07299,1998-07-01 21:00:00,16,1007.5,-0.7,82,13,500,14.816,,,340,,,,,,,,,,13,wg-a,,,,AAXX 01214 07299 12700 73408 10160 20130 39761 40075 58007 60006 71322 81332 92100=
07299,1998-07-02 00:00:00,14,1009.9,2.2,94,13,0,11.112,,,300,,,,,,,,,,,wg-a,,,,AAXX 02004 07299 12/// /3006 10140 20130 39782 40099 51022 60046 90000=
07299,1998-07-02 03:00:00,14,1010.2,0.1,100,14,3500,0,,,0,,,,,,,,,,,wg-a,,,,AAXX 02034 07299 32/35 /0000 10140 20140 39784 40102 50001 90300=
07299,1998-07-02 06:00:00,14,1012.1,1.8,100,14,2200,7.408,,,330,13.6,19.3,,,,,,,,10,wg-a,,,,AAXX 02064 07299 02222 83304 10140 20140 39803 40121 51018 61000 71066 887// 90600 333 10193 20136 6008=
07299,1998-07-02 09:00:00,14,1013.5,1.4,100,14,3000,7.408,,,330,,,,0,,,,,,10,wg-a,,,,AAXX 02094 07299 12230 83304 10140 20140 39817 40135 51014 60007 71062 887// 90900=
07299,1998-07-02 12:00:00,15,1013.9,0.5,100,15,2500,7.408,,,350,,,,0,,,,,,10,wg-a,,,,AAXX 02124 07299 02225 83504 10150 20150 39822 40139 51005 60016 71065 887// 91200 333 60007=
07299,1998-07-02 15:00:00,17,1013.6,-0.1,94,16,4500,7.408,,,100,,,,,,,,,,61,wg-a,,,,AAXX 02154 07299 02345 71004 10170 20160 39821 40136 55001 61000 76165 875// 91500 333 ////=
07299,1998-07-02 18:00:00,16,1013.7,-0,100,16,6000,11.112,,,340,13.7,17.1,,1,,,,,,3,wg-a,,,,AAXX 02184 07299 02356 83406 10160 20160 39821 40137 55000 60006 70365 875// 91800 333 10171 20137 60017=
07299,1998-07-03 00:00:00,15,1013.5,-0,100,15,2500,11.112,,,350,,,,,,,,,,10,wg-a,,,,AAXX 03004 07299 12125 83506 10150 20150 39818 40135 54000 60006 71022 875// 90000=
07299,1998-07-03 03:00:00,15,1013.4,0,100,15,3500,3.704,,,290,,,,7,,,,,,10,wg-a,,,,AAXX 03034 07299 12135 82902 10150 20150 39817 40134 50000 60077 71098 877// 90300=
07299,1998-07-03 06:00:00,15,1014,0.5,100,15,2100,7.408,,,330,14.8,16.3,,,,,9,,,10,wg-a,,,,AAXX 03064 07299 02121 83304 10150 20150 39823 40140 53005 60006 71098 877// 90600 333 10163 20148 60094=
07299,1998-07-03 09:00:00,17,1014.5,0.7,88,15,3000,7.408,,,310,,,,,,,,,,10,wg-a,,,,AAXX 03094 07299 12330 83104 10170 20150 39830 40145 51007 60006 71022 875// 90900=
07299,1998-07-03 12:00:00,21,1014.6,0.6,69,15,8000,7.408,,,30,,,,,,,,,,,wg-a,,,,AAXX 03124 07299 12/58 /0304 10210 20150 39835 40146 51006 60006 91200=
07299,1998-07-03 15:00:00,18,1015,0.1,94,17,6000,11.112,,,220,,,,4,,,,,,81,wg-a,,,,AAXX 03154 07299 12456 72206 10180 20170 39836 40150 53001 60047 78198 84963 91500=
07299,1998-07-03 18:00:00,16,1017.6,2.3,88,14,15000,3.704,,,120,15.4,23.6,,,,,,,,61,wg-a,,,,AAXX 03184 07299 02565 81202 10160 20140 39859 40176 51023 61000 76198 8696/ 91800 333 10236 20154 6001=
07299,1998-07-03 21:00:00,16,1019.8,2.1,88,14,25000,7.408,,,180,,,,,,,,,,1,wg-a,,,,AAXX 03214 07299 02675 51804 10160 20140 39880 40198 53021 61000 70162 8496/ 92100 333 ////=
07299,1998-07-04 00:00:00,14,1021.3,1.2,94,13,25000,3.704,,,210,,,,,,,,,,1,wg-a,,,,AAXX 04004 07299 02775 32102 10140 20130 39892 40213 52012 61000 70162 835/0 90000 333 ////=
07299,1998-07-04 03:00:00,13,1021.9,0.5,100,13,25000,7.408,,,240,,,,,,,,,,,wg-a,,,,AAXX 04034 07299 12/75 12404 10130 20130 39897 40219 51005 60006 81031 90300=
07299,1998-07-04 06:00:00,15,1022.7,0.9,94,14,12000,3.704,,,290,12.3,16.6,,,,,5,,,,wg-a,,,,AAXX 04064 07299 02362 72902 10150 20140 39906 40227 51009 60006 876// 90600 333 10166 20123 60054=
07299,1998-07-04 09:00:00,17,1023.3,0.8,82,14,12000,11.112,,,270,,,,,,,,,,,wg-a,,,,AAXX 04094 07299 12562 72706 10170 20140 39915 40233 51008 60006 86801 90900=
07299,1998-07-04 12:00:00,20,1022.8,-0.2,56,11,15000,18.52,,,290,,,,,,,,,,,wg-a,,,,AAXX 04124 07299 12665 72910 10200 20110 39913 40228 56002 60006 84801 91200=
07299,1998-07-04 15:00:00,22,1021.7,-0.8,43,9,10000,14.816,,,260,,,,,,,,,,,wg-a,,,,AAXX 04154 07299 12/60 /2608 10220 20090 39904 40217 57008 60006 91500=
07299,1998-07-04 18:00:00,20,1021.5,-0.4,56,11,18000,11.112,,,260,14.5,22,,,,,,,,,wg-a,,,,AAXX 04184 07299 12/68 62606 10200 20110 39900 40215 55004 60006 80001 91800 333 10220 20145=
07299,1998-07-04 21:00:00,16,1022.1,0.2,72,11,18000,11.112,,,250,,,,,,,,,,,wg-a,,,,AAXX 04214 07299 12/68 42506 10160 20110 39902 40221 53002 60006 82031 92100=
07299,1998-07-05 00:00:00,13,1022.1,-0.3,94,12,15000,3.704,,,100,,,,,,,,,,,wg-a,,,,AAXX 05004 07299 12/65 51002 10130 20120 39899 40221 58003 60006 83031 90000=
07299,1998-07-05 03:00:00,12,1021.6,-0.7,94,11,13000,0,,,0,,,,,,,,,,,wg-a,,,,AAXX 05034 07299 12/63 20000 10120 20110 39892 40216 56007 60006 82031 90300=
07299,1998-07-05 06:00:00,14,1021.4,0.1,88,12,10000,3.704,,,100,10.8,19.5,,,,,,,,,wg-a,,,,AAXX 05064 07299 02/60 71002 10140 20120 39892 40214 53001 60006 86072 90600 333 10195 20108 60004=
07299,1998-07-05 09:00:00,19,1020.5,-0.3,60,11,15000,11.112,,,270,,,,,,,,,,,wg-a,,,,AAXX 05094 07299 12765 72706 10190 20110 39889 40205 56003 60006 8153/ 90900=
07299,1998-07-05 12:00:00,22,1019.4,-0.7,53,12,15000,25.928,,,260,,,,,,,,,,,wg-a,,,,AAXX 05124 07299 12665 42614 10220 20120 39882 40194 58007 60006 82232 91200=
07299,1998-07-05 15:00:00,24,1018.1,-1,50,13,15000,14.816,,,280,,,,,,,,,,,wg-a,,,,AAXX 05154 07299 12765 32808 10240 20130 39872 40181 56010 60006 81201 91500=
07299,1998-07-05 18:00:00,22,1017.1,-1.2,60,14,15000,11.112,,,260,13.6,24.3,,,,,,,,,wg-a,,,,AAXX 05184 07299 12765 /2606 10220 20140 39860 40171 56012 60006 81100 91800 333 10243 20136=
07299,1998-07-05 21:00:00,16,1017.4,-0.3,88,14,18000,7.408,,,230,,,,,,,,,,,wg-a,,,,AAXX 05214 07299 12/68 72304 10160 20140 39857 40174 56003 60006 87050 92100=
07299,1998-07-06 00:00:00,14,1017.4,-0.3,94,13,20000,3.704,,,250,,,,,,,,,,,wg-a,,,,AAXX 06004 07299 12/70 02502 10140 20130 39854 40174 58003 60006 80000 90000=
07299,1998-07-06 03:00:00,13,1016.4,-1,94,12,10000,3.704,,,110,,,,,,,,,,,wg-a,,,,AAXX 06034 07299 12/60 /1102 10130 20120 39844 40164 56010 60006 90300=
07299,1998-07-06 06:00:00,16,1015.6,-0.5,82,13,12000,3.704,,,110,13,22.3,,,,,,,,,wg-a,,,,AAXX 06064 07299 02/62 61102 10160 20130 39839 40156 56005 60006 86050 90600 333 10223 20130 60004=
07299,1998-07-06 09:00:00,21,1014.3,-0.8,64,14,15000,7.408,,,300,,,,,,,,,,,wg-a,,,,AAXX 06094 07299 12665 /3004 10210 20140 39831 40143 58008 60006 81182 90900=
07299,1998-07-06 12:00:00,24,1011.9,-1.7,57,15,22000,22.224,,,280,,,,,,,,,,,wg-a,,,,AAXX 06124 07299 12772 22812 10240 20150 39812 40119 56017 60006 81131 91200=
07299,1998-07-06 15:00:00,24,1010.7,-1.2,57,15,500,14.816,,,290,,,,,,,,,,,wg-a,,,,AAXX 06154 07299 12700 52908 10240 20150 39800 40107 57012 60006 81180 91500=
07299,1998-07-06 18:00:00,24,1009.7,-1,50,13,500,11.112,,,260,15.8,25.2,,,,,,,,,wg-a,,,,AAXX 06184 07299 12/00 12606 10240 20130 39790 40097 56010 60006 81080 91800 333 10252 20158=
07299,1998-07-06 21:00:00,16,1010.9,0.3,82,13,20000,14.816,,,300,,,,,,,,,,,wg-a,,,,AAXX 06214 07299 12/70 13008 10160 20130 39793 40109 53003 60006 81030 92100=
07299,1998-07-07 00:00:00,14,1010.4,-0.7,94,13,20000,3.704,,,350,,,,,,,,,,,wg-a,,,,AAXX 07004 07299 12/70 03502 10140 20130 39786 40104 58007 60006 80000 90000=
07299,1998-07-07 03:00:00,11,1009.6,-1.1,94,10,4000,3.704,,,330,,,,,,,,,,10,wg-a,,,,AAXX 07034 07299 12/40 /3302 10110 20100 39775 40096 56011 60006 71011 81031 90300=
07299,1998-07-07 06:00:00,14,1008.4,-0.8,94,13,4000,3.704,,,290,10.4,23.4,,,,,,,,10,wg-a,,,,AAXX 07064 07299 02740 72902 10140 20130 39767 40084 58008 60006 71011 81501 90600 333 10234 20104 60004=
07299,1998-07-07 09:00:00,19,1007.5,-0.4,73,14,6000,3.704,,,250,,,,,,,,,,,wg-a,,,,AAXX 07094 07299 12756 72502 10190 20140 39763 40075 58004 60006 85962 90900=
07299,1998-07-07 12:00:00,21,1006.4,-0.7,73,16,15000,11.112,,,260,,,,,,,,,,,wg-a,,,,AAXX 07124 07299 12665 72606 10210 20160 39756 40064 58007 60006 86802 91200=
07299,1998-07-07 15:00:00,20,1006.4,-0.2,68,14,11000,29.632,,,350,,,,,,,,,,,wg-a,,,,AAXX 07154 07299 12/61 /3516 10200 20140 39754 40064 55002 60006 91500=
07299,1998-07-07 18:00:00,14,1010.6,3.3,77,10,20000,25.928,,44.448,340,13.9,24.8,,,,,,,,,wg-a,,,,AAXX 07184 07299 12670 73414 10140 20100 39788 40106 51033 60006 878// 91800 333 10248 20139 91024=
07299,1998-07-07 21:00:00,12,1014.2,3.3,88,10,20000,3.704,,,260,,,,,,,,,,2,wg-a,,,,AAXX 07214 07299 02770 72602 10120 20100 39821 40142 51033 61000 70262 875// 92100 333 ////=
07299,1998-07-08 00:00:00,12,1014.2,0,88,10,0,3.704,,,170,,,,,,,,,,,wg-a,,,,AAXX 08004 07299 02/// /1702 10120 20100 39821 40142 50000 61000 90000 333 ////=
07299,1998-07-08 03:00:00,12,1014.4,0.3,82,9,20000,11.112,,,270,,,,,,,,,,,wg-a,,,,AAXX 08034 07299 12770 72706 10120 20090 39823 40144 53003 60006 875// 90300=
07299,1998-07-08 06:00:00,13,1015.1,0.8,82,10,14000,14.816,,,250,10.3,14.3,,,,,,,,,wg-a,,,,AAXX 08064 07299 02564 52508 10130 20100 39831 40151 53008 60006 83830 90600 333 10143 20103 61000=
07299,1998-07-08 09:00:00,14,1015.7,0.5,67,8,17000,14.816,,,240,,,,,,,,,,,wg-a,,,,AAXX 08094 07299 12467 72408 10140 20080 39837 40157 51005 60006 878// 90900=
07299,1998-07-08 12:00:00,17,1015.2,-0.2,55,8,20000,22.224,,,270,,,,,,,,,,,wg-a,,,,AAXX 08124 07299 12670 /2712 10170 20080 39836 40152 58002 60006 84800 91200=
07299,1998-07-08 15:00:00,18,1015.3,-0,52,8,35000,18.52,,,260,,,,,,,,,,,wg-a,,,,AAXX 08154 07299 12681 72610 10180 20080 39838 40153 54000 60006 878// 91500=
07299,1998-07-08 18:00:00,17,1015.8,0.3,63,10,50000,7.408,,,250,13.5,18.9,,,,,,,,,wg-a,,,,AAXX 08184 07299 12684 72504 10170 20100 39841 40158 51003 60006 878// 91800 333 10189 20135=
07299,1998-07-08 21:00:00,12,1017.8,1.5,88,10,20000,0,,,0,,,,,,,,,,,wg-a,,,,AAXX 08214 07299 12770 30000 10120 20100 39856 40178 51015 60006 83400 92100=
07299,1998-07-09 00:00:00,10,1018.2,0.1,93,9,15000,3.704,,,140,,,,,,,,,,,wg-a,,,,AAXX 09004 07299 12/65 01402 10100 20090 39857 40182 50001 60006 80000 90000=
07299,1998-07-09 03:00:00,8,1017.4,-1,100,8,15000,0,,,0,,,,,,,,,,,wg-a,,,,AAXX 09034 07299 12/65 20000 10080 20080 39847 40174 57010 60006 82030 90300=
07299,1998-07-09 06:00:00,13,1016.9,0.2,82,10,15000,11.112,,,130,7.6,16.7,,,,,,,,,wg-a,,,,AAXX 09064 07299 02765 71306 10130 20100 39848 40169 53002 60006 82531 90600 333 10167 20076 60004=
07299,1998-07-09 09:00:00,17,1016.5,-0,68,11,15000,3.704,,,180,,,,,,,,,,60,wg-a,,,,AAXX 09094 07299 02765 81802 10170 20110 39849 40165 55000 61000 76062 8387/ 90900 333 ////=
07299,1998-07-09 12:00:00,20,1016.4,0.2,56,11,15000,14.816,,,270,,,,,,,,,,2,wg-a,,,,AAXX 09124 07299 02665 82708 10200 20110 39851 40164 51002 61000 70262 8587/ 91200 333 6100=
07299,1998-07-09 15:00:00,21,1015.6,-0.7,56,12,20000,14.816,,,250,,,,,,,,,,,wg-a,,,,AAXX 09154 07299 12670 72508 10210 20120 39844 40156 58007 60006 8587/ 91500=
07299,1998-07-09 18:00:00,20,1015.5,-0.3,60,12,25000,7.408,,,250,12.7,21.6,,,,,,,,21,wg-a,,,,AAXX 09184 07299 02775 72504 10200 20120 39842 40155 57003 61000 72162 8687/ 91800 333 10216 20127 6100=
07299,1998-07-09 21:00:00,17,1017.2,1.4,77,13,18000,18.52,,,230,,,,,,,,,,21,wg-a,,,,AAXX 09214 07299 02668 72310 10170 20130 39855 40172 53014 61000 72162 878// 92100 333 ////=
07299,1998-07-10 00:00:00,15,1018,0.6,82,12,18000,7.408,,,260,,,,,,,,,,0,wg-a,,,,AAXX 10004 07299 02568 72604 10150 20120 39861 40180 51006 61000 70062 878// 90000 333 ////=
07299,1998-07-10 03:00:00,15,1017.5,-0.6,88,13,10000,14.816,,,240,,,,,,,,,,60,wg-a,,,,AAXX 10034 07299 02460 72408 10150 20130 39856 40175 56006 61000 76062 878// 90300 333 ////=
07299,1998-07-10 06:00:00,15,1017.2,-0.1,88,13,12000,3.704,,,230,14.6,19.7,,,,,,,,1,wg-a,,,,AAXX 10064 07299 02262 72302 10150 20130 39854 40172 58001 60006 70162 8683/ 90600 333 10197 20146 61000=
07299,1998-07-10 09:00:00,19,1016.9,0.1,73,14,500,18.52,,,270,,,,,,,,,,,wg-a,,,,AAXX 10094 07299 12500 72710 10190 20140 39855 40169 51001 60006 878// 90900=
07299,1998-07-10 12:00:00,21,1016.1,-0.6,60,13,500,11.112,,,250,,,,,,,,,,,wg-a,,,,AAXX 10124 07299 12600 72506 10210 20130 39849 40161 58006 60006 878// 91200=
07299,1998-07-10 15:00:00,21,1015.9,-0.2,64,14,500,14.816,,,260,,,,,,,,,,,wg-a,,,,AAXX 10154 07299 12600 72608 10210 20140 39847 40159 58002 60006 8683/ 91500=
07299,1998-07-10 18:00:00,21,1014.9,-1,64,14,20000,11.112,,,280,15.4,23,,,,,,,,,wg-a,,,,AAXX 10184 07299 12670 /2806 10210 20140 39837 40149 56010 60006 85830 91800 333 10230 20154=
07299,1998-07-10 21:00:00,18,1015.7,0.4,77,14,20000,3.704,,,190,,,,,,,,,,,wg-a,,,,AAXX 10214 07299 12670 71902 10180 20140 39842 40157 53004 60006 8683/ 92100=
07299,1998-07-11 00:00:00,18,1015.4,-0.2,77,14,20000,11.112,,,220,,,,,,,,,,,wg-a,,,,AAXX 11004 07299 12670 72206 10180 20140 39839 40154 58002 60006 83830 90000=
07299,1998-07-11 03:00:00,18,1015.4,-0,73,13,20000,11.112,,,270,,,,,,,,,,,wg-a,,,,AAXX 11034 07299 12570 72706 10180 20130 39839 40154 55000 60006 8587/ 90300=
07299,1998-07-11 06:00:00,17,1016.3,0.7,82,14,15000,11.112,,,240,15.1,20.7,,,,,,,,3,wg-a,,,,AAXX 11064 07299 02465 82406 10170 20140 39846 40163 51007 60006 70362 8787/ 90600 333 10207 20151 60004=
07299,1998-07-11 09:00:00,19,1016.3,0.3,83,16,20000,14.816,,,260,,,,1,,,,,,25,wg-a,,,,AAXX 11094 07299 12470 72608 10190 20160 39849 40163 50003 60017 72586 8683/ 90900=
07299,1998-07-11 12:00:00,18,1016.2,-0.1,83,15,500,14.816,,,290,,,,1,,,,,,1,wg-a,,,,AAXX 11124 07299 02500 72908 10180 20150 39848 40162 55001 60026 70186 82831 91200 333 60017=
07299,1998-07-11 15:00:00,22,1015.2,-0.6,57,13,45000,22.224,,,260,,,,,,,,,,,wg-a,,,,AAXX 11154 07299 12683 72612 10220 20130 39842 40152 56006 60006 82831 91500=
07299,1998-07-11 18:00:00,22,1015.1,-0.3,46,10,45000,22.224,,,260,16.1,22.7,,,,,,,,,wg-a,,,,AAXX 11184 07299 12783 72612 10220 20100 39840 40151 58003 60006 8183/ 91800 333 10227 20161=
07299,1998-07-11 21:00:00,18,1016.2,0.8,73,13,40000,7.408,,,240,,,,,,,,,,,wg-a,,,,AAXX 11214 07299 12782 72404 10180 20130 39847 40162 51008 60006 8157/ 92100=
07299,1998-07-12 00:00:00,19,1015.4,-0.7,64,12,25000,11.112,,,220,,,,,,,,,,,wg-a,,,,AAXX 12004 07299 12775 72206 10190 20120 39840 40154 58007 60006 8157/ 90000=
07299,1998-07-12 03:00:00,19,1014.8,-0.6,60,11,25000,11.112,,,220,,,,,,,,,,,wg-a,,,,AAXX 12034 07299 12/75 72206 10190 20110 39834 40148 56006 60006 8707/ 90300=
07299,1998-07-12 06:00:00,19,1014.8,0,60,11,40000,7.408,,,220,18.2,22.3,,,,,2,,,,wg-a,,,,AAXX 12064 07299 02782 72204 10190 20110 39834 40148 50000 60006 81572 90600 333 10223 20182 60024=
07299,1998-07-12 09:00:00,22,1013.5,-0.9,43,9,50000,31.484,,,250,,,,,,,,,,,wg-a,,,,AAXX 12094 07299 12/84 42517 10220 20090 39825 40135 55009 60006 84040 90900=
07299,1998-07-12 12:00:00,26,1012.8,-0.3,45,13,11000,22.224,,,280,,,,,,,,,,,wg-a,,,,AAXX 12124 07299 12/61 /2812 10260 20130 39822 40128 58003 60006 91200=
07299,1998-07-12 15:00:00,28,1012.1,-0.3,40,13,60000,25.928,,,280,,,,,,,,,,,wg-a,,,,AAXX 12154 07299 12786 52814 10280 20130 39818 40121 57003 60006 81140 91500=
07299,1998-07-12 18:00:00,27,1011.1,-1.1,45,14,60000,11.112,,,280,19.2,28.9,,,,,,,,,wg-a,,,,AAXX 12184 07299 12786 12806 10270 20140 39807 40111 56011 60006 81142 91800 333 10289 20192=
07299,1998-07-12 21:00:00,18,1012.2,0.1,83,15,60000,11.112,,,170,,,,,,,,,,,wg-a,,,,AAXX 12214 07299 12/86 01706 10180 20150 39808 40122 53001 60006 80000 92100=
07299,1998-07-13 00:00:00,16,1012.4,-0.1,82,13,50000,7.408,,,150,,,,,,,,,,,wg-a,,,,AAXX 13004 07299 12/84 01504 10160 20130 39807 40124 58001 60006 80000 90000=
07299,1998-07-13 06:00:00,18,1011.2,-0.5,77,14,60000,3.704,,,190,11.5,27.1,,,,,,,,,wg-a,,,,AAXX 13064 07299 02486 71902 10180 20140 39798 40112 55005 60006 81834 90600 333 10271 20115 60004=
07299,1998-07-13 09:00:00,26,1009.4,-1.1,39,11,11000,18.52,,,270,,,,,,,,,,,wg-a,,,,AAXX 13094 07299 12/61 /2710 10260 20110 39789 40094 58011 60006 90900=
07299,1998-07-13 12:00:00,22,1008.7,-0.9,78,18,6000,11.112,,,270,,,,0,,,,,,61,wg-a,,,,AAXX 13124 07299 02556 82706 10220 20180 39779 40087 55009 60016 76162 8387/ 91200 333 60007=
07299,1998-07-13 15:00:00,18,1010.1,1,88,16,500,7.408,,,10,,,,1,,,,,,21,wg-a,,,,AAXX 13154 07299 12500 70104 10180 20160 39788 40101 51010 60017 72162 8387/ 91500=
07299,1998-07-13 18:00:00,20,1010.3,0.4,60,12,500,18.52,,,250,17.3,26.7,,,,,,,,21,wg-a,,,,AAXX 13184 07299 02700 72510 10200 20120 39792 40103 53004 61000 72162 8487/ 91800 333 10267 20173 6100=
07299,1998-07-13 21:00:00,16,1013.6,2.7,94,15,20000,14.816,,,260,,,,0,,,,,,60,wg-a,,,,AAXX 13214 07299 12670 72608 10160 20150 39819 40136 51027 60007 76062 878// 92100=
07299,1998-07-14 00:00:00,13,1015.4,1.3,94,12,20000,14.816,,,250,,,,,,,,,,2,wg-a,,,,AAXX 14004 07299 02670 12508 10130 20120 39833 40154 51013 60016 70261 81500 90000 333 61000=
07299,1998-07-14 03:00:00,11,1015.9,0.3,94,10,20000,3.704,,,100,,,,0,,,,,,,wg-a,,,,AAXX 14034 07299 12770 21002 10110 20100 39836 40159 53003 60007 82500 90300=
07299,1998-07-14 06:00:00,13,1016.1,0.4,88,11,12000,7.408,,,150,9.2,19.9,,,,,2,,,,wg-a,,,,AAXX 14064 07299 02562 /1504 10130 20110 39840 40161 53004 60006 85830 90600 333 10199 20092 60024=
07299,1998-07-14 09:00:00,18,1016,0.4,64,11,500,7.408,,,240,,,,,,,,,,,wg-a,,,,AAXX 14094 07299 12500 /2404 10180 20110 39844 40160 51004 60006 85100 90900=
07299,1998-07-14 12:00:00,21,1014.7,-0.9,46,9,40000,14.816,,,290,,,,,,,,,,,wg-a,,,,AAXX 14124 07299 12682 42908 10210 20090 39835 40147 58009 60006 84100 91200=
07299,1998-07-14 15:00:00,21,1014.5,-0.3,38,6,50000,22.224,,,290,,,,,,,,,,,wg-a,,,,AAXX 14154 07299 12784 32912 10210 20060 39833 40145 58003 60006 83100 91500=
07299,1998-07-14 18:00:00,19,1014.7,0.2,43,6,50000,14.816,,,280,12.8,21.9,,,,,,,,,wg-a,,,,AAXX 14184 07299 12784 32808 10190 20060 39833 40147 53002 60006 83400 91800 333 10219 20128=
07299,1998-07-14 21:00:00,14,1016.6,1.2,77,10,50000,7.408,,,230,,,,,,,,,,,wg-a,,,,AAXX 14214 07299 12784 42304 10140 20100 39846 40166 51012 60006 83501 92100=
07299,1998-07-15 00:00:00,9,1017.4,0.2,93,8,20000,0,,,0,,,,,,,,,,,wg-a,,,,AAXX 15004 07299 12770 10000 10090 20080 39848 40174 50002 60006 815/0 90000=
07299,1998-07-15 03:00:00,9,1017.7,0.2,93,8,20000,0,,,0,,,,,,,,,,,wg-a,,,,AAXX 15034 07299 12770 20000 10090 20080 39850 40177 52002 60006 82500 90300=
07299,1998-07-15 06:00:00,14,1017.4,0.4,72,9,25000,7.408,,,100,8.1,19.3,,,,,,,,,wg-a,,,,AAXX 15064 07299 02875 21004 10140 20090 39854 40174 53004 60006 82500 90600 333 10193 20081 60004=
07299,1998-07-15 09:00:00,20,1016.6,-0.1,43,7,500,22.224,,,260,,,,,,,,,,,wg-a,,,,AAXX 15094 07299 12600 32612 10200 20070 39853 40166 58001 60006 82801 90900=
07299,1998-07-15 12:00:00,22,1016.2,-0.2,41,8,500,22.224,,,270,,,,,,,,,,,wg-a,,,,AAXX 15124 07299 12700 62712 10220 20080 39851 40162 58002 60006 84802 91200=
07299,1998-07-15 15:00:00,23,1016.2,-0,41,9,500,22.224,,,290,,,,,,,,,,,wg-a,,,,AAXX 15154 07299 12700 42912 10230 20090 39851 40162 55000 60006 82802 91500=
07299,1998-07-15 18:00:00,19,1017.2,0.7,52,9,500,11.112,,,290,14.2,23.1,,,,,,,,,wg-a,,,,AAXX 15184 07299 12700 72906 10190 20090 39858 40172 53007 60006 83832 91800 333 10231 20142=
07299,1998-07-15 21:00:00,14,1018.9,1.1,77,10,500,11.112,,,240,,,,,,,,,,,wg-a,,,,AAXX 15214 07299 12/00 52406 10140 20100 39868 40189 53011 60006 83032 92100=
07299,1998-07-16 00:00:00,12,1018.9,-0.4,82,9,0,0,,,0,,,,,,,,,,,wg-a,,,,AAXX 16004 07299 12/// /0000 10120 20090 39866 40189 58004 60006 90000=
07299,1998-07-16 03:00:00,9,1017.9,-1.2,100,9,10000,3.704,,,190,,,,,,,,,,,wg-a,,,,AAXX 16034 07299 12/60 /1902 10090 20090 39853 40179 58012 60006 90300=
07299,1998-07-16 06:00:00,13,1016.8,-0.6,82,10,500,7.408,,,150,8.3,19.2,,,,,,,,,wg-a,,,,AAXX 16064 07299 02700 71504 10130 20100 39847 40168 56006 60006 8553/ 90600 333 10192 20083 60004=
07299,1998-07-16 09:00:00,18,1015,-1.2,59,10,500,11.112,,,120,,,,,,,,,,,wg-a,,,,AAXX 16094 07299 12500 /1206 10180 20100 39835 40150 58012 60006 81870 90900=
07299,1998-07-16 12:00:00,16,1015.8,0.6,88,14,15000,11.112,,,270,,,,1,,,,,,21,wg-a,,,,AAXX 16124 07299 02565 82706 10160 20140 39841 40158 53006 60016 72162 8182/ 91200 333 60017=
07299,1998-07-16 15:00:00,16,1016.4,0.7,88,14,6000,11.112,,,270,,,,0,,,,,,61,wg-a,,,,AAXX 16154 07299 12456 82706 10160 20140 39847 40164 53007 60007 76186 8482/ 91500=
07299,1998-07-16 18:00:00,17,1016.4,-0,94,16,11000,7.408,,,180,13.5,20.3,,1,,,,,,1,wg-a,,,,AAXX 16184 07299 02461 71804 10170 20160 39848 40164 55000 60006 70186 8387/ 91800 333 10203 20135 60017=
07299,1998-07-16 21:00:00,16,1016.8,0.3,94,15,12000,0,,,0,,,,,,,,,,,wg-a,,,,AAXX 16214 07299 12462 70000 10160 20150 39851 40168 50003 60006 8357/ 92100=
07299,1998-07-17 00:00:00,14,1016.9,-0.1,100,14,15000,7.408,,,180,,,,,,,,,,,wg-a,,,,AAXX 17004 07299 12665 61804 10140 20140 39850 40169 55001 60006 83572 90000=
07299,1998-07-17 03:00:00,15,1016.3,-0.6,94,14,15000,7.408,,,180,,,,,,,,,,,wg-a,,,,AAXX 17034 07299 12565 71804 10150 20140 39844 40163 56006 60006 8357/ 90300=
07299,1998-07-17 06:00:00,17,1016.4,0.4,88,15,20000,7.408,,,210,13.9,16.9,,,,,3,,,2,wg-a,,,,AAXX 17064 07299 02570 72104 10170 20150 39848 40164 53004 60006 70265 84802 90600 333 10169 20139 60034=
07299,1998-07-17 09:00:00,20,1016.6,0.5,68,14,25000,14.816,,,260,,,,,,,,,,,wg-a,,,,AAXX 17094 07299 12575 /2608 10200 20140 39853 40166 50005 60006 85802 90900=
07299,1998-07-17 12:00:00,23,1015.9,-0.3,47,11,50000,25.928,,,260,,,,,,,,,,,wg-a,,,,AAXX 17124 07299 12684 42614 10230 20110 39849 40159 58003 60006 84800 91200=
07299,1998-07-17 15:00:00,26,1015.2,-0.6,45,13,50000,18.52,,,260,,,,,,,,,,,wg-a,,,,AAXX 17154 07299 12784 42610 10260 20130 39845 40152 56006 60006 81240 91500=
07299,1998-07-17 18:00:00,24,1015.1,-0.1,54,14,18000,11.112,,,290,16.8,25.9,,,,,,,,,wg-a,,,,AAXX 17184 07299 12768 52906 10240 20140 39842 40151 55001 60006 83832 91800 333 10259 20168=
07299,1998-07-17 21:00:00,17,1016.7,0.8,88,15,20000,7.408,,,230,,,,,,,,,,,wg-a,,,,AAXX 17214 07299 12570 32304 10170 20150 39850 40167 51008 60006 83800 92100=
07299,1998-07-18 00:00:00,18,1016.8,0.2,83,15,20000,11.112,,,260,,,,,,,,,,,wg-a,,,,AAXX 18004 07299 12570 32606 10180 20150 39853 40168 50002 60006 83800 90000=
07299,1998-07-18 03:00:00,17,1016.5,-0.3,88,15,20000,0,,,0,,,,,,,,,,,wg-a,,,,AAXX 18034 07299 12570 70000 10170 20150 39849 40165 58003 60006 878// 90300=
07299,1998-07-18 06:00:00,19,1016.2,0,78,15,500,0,,,0,15.3,23.7,,,,,,,,,wg-a,,,,AAXX 18064 07299 02600 30000 10190 20150 39849 40162 50000 60006 82802 90600 333 10237 20153 60004=
07299,1998-07-18 09:00:00,24,1015.5,-0.2,57,15,40000,18.52,,,250,,,,,,,,,,,wg-a,,,,AAXX 18094 07299 12682 72510 10240 20150 39847 40155 56002 60006 81805 90900=
07299,1998-07-18 12:00:00,27,1014.2,-1,48,15,55000,22.224,,,260,,,,,,,,,,,wg-a,,,,AAXX 18124 07299 12685 52612 10270 20150 39837 40142 58010 60006 81802 91200=
07299,1998-07-18 15:00:00,27,1013.5,-0.7,45,14,50000,18.52,,,280,,,,,,,,,,,wg-a,,,,AAXX 18154 07299 12784 72810 10270 20140 39830 40135 56007 60006 81802 91500=
07299,1998-07-18 18:00:00,25,1013.7,-0,50,14,45000,11.112,,,280,19.5,27.7,,,,,,,,,wg-a,,,,AAXX 18184 07299 12783 72806 10250 20140 39830 40137 55000 60006 81802 91800 333 10277 20195=
07299,1998-07-18 21:00:00,18,1015.6,1.2,83,15,500,11.112,,,240,,,,,,,,,,,wg-a,,,,AAXX 18214 07299 12/00 72406 10180 20150 39842 40156 51012 60006 81032 92100=
07299,1998-07-19 00:00:00,17,1016.3,0.5,88,15,0,3.704,,,300,,,,,,,,,,,wg-a,,,,AAXX 19004 07299 12/// /3002 10170 20150 39847 40163 51005 60006 90000=
07299,1998-07-19 03:00:00,14,1016.8,0.2,94,13,20000,7.408,,,300,,,,,,,,,,,wg-a,,,,AAXX 19034 07299 12/70 43004 10140 20130 39849 40168 53002 60006 80001 90300=
07299,1998-07-19 06:00:00,18,1017,0.5,83,15,20000,0,,,0,13.3,25.1,,,,,,,,,wg-a,,,,AAXX 19064 07299 02/70 20000 10180 20150 39854 40170 53005 60006 80001 90600 333 10251 20133 60004=
07299,1998-07-19 09:00:00,24,1016.1,-0.2,61,16,40000,3.704,,,110,,,,,,,,,,,wg-a,,,,AAXX 19094 07299 12/82 41102 10240 20160 39852 40161 58002 60006 80001 90900=
07299,1998-07-19 12:00:00,29,1014.2,-1.4,48,17,60000,7.408,,,290,,,,,,,,,,,wg-a,,,,AAXX 19124 07299 12786 32904 10290 20170 39839 40142 58014 60006 81101 91200=
07299,1998-07-19 15:00:00,32,1012.4,-1.3,41,17,60000,3.704,,,230,,,,,,,,,,,wg-a,,,,AAXX 19154 07299 12786 32302 10320 20170 39825 40124 57013 60006 81131 91500=
07299,1998-07-19 18:00:00,30,1012.3,-0.3,55,20,50000,7.408,,,290,17.6,32.5,,,,,,,,,wg-a,,,,AAXX 19184 07299 12884 72904 10300 20200 39822 40123 55003 60006 81102 91800 333 10325 20176=
07299,1998-07-19 21:00:00,24,1014.6,1.6,65,17,25000,3.704,,,300,,,,,,,,,,17,wg-a,,,,AAXX 19214 07299 12175 73002 10240 20170 39838 40146 53016 60006 71792 8499/ 92100=
07299,1998-07-20 00:00:00,20,1015.5,0.5,88,18,40000,3.704,,,210,,,,,,,,,,0,wg-a,,,,AAXX 20004 07299 12782 72102 10200 20180 39843 40155 51005 60006 70092 81131 90000=
07299,1998-07-20 03:00:00,19,1015.4,-0.2,94,18,40000,7.408,,,240,,,,,,,,,,13,wg-a,,,,AAXX 20034 07299 12782 72404 10190 20180 39841 40154 56002 60006 71322 81991 90300=
07299,1998-07-20 06:00:00,24,1014.6,-0.3,65,17,45000,14.816,,,130,17.7,30.2,,,,,,,,,wg-a,,,,AAXX 20064 07299 02783 /1308 10240 20170 39838 40146 55003 60006 81991 90600 333 10302 20177 60004=
07299,1998-07-20 09:00:00,31,1013.7,-0.2,38,15,50000,14.816,,,120,,,,,,,,,,,wg-a,,,,AAXX 20094 07299 12/84 01208 10310 20150 39836 40137 58002 60006 80000 90900=
07299,1998-07-20 12:00:00,34,1011.9,-1.5,30,14,50000,11.112,,,310,,,,,,,,,,,wg-a,,,,AAXX 20124 07299 12/84 13106 10340 20140 39822 40119 58015 60006 81082 91200=
07299,1998-07-20 15:00:00,36,1009.7,-2,31,16,50000,11.112,,,300,,,,,,,,,,,wg-a,,,,AAXX 20154 07299 12/84 13006 10360 20160 39802 40097 58020 60006 81031 91500=
07299,1998-07-20 18:00:00,32,1008.8,-1.2,46,19,40000,7.408,,,160,24.1,35.8,,,,,,,,,wg-a,,,,AAXX 20184 07299 12/82 21604 10320 20190 39790 40088 56012 60006 82080 91800 333 10358 20241=
07299,1998-07-20 21:00:00,22,1010.1,0.2,83,19,35000,3.704,,,240,,,,,,,,,,,wg-a,,,,AAXX 20214 07299 12/81 22402 10220 20190 39792 40101 52002 60006 82080 92100=
07299,1998-07-21 00:00:00,23,1009.9,-0.1,61,15,20000,11.112,,,140,,,,,,,,,,13,wg-a,,,,AAXX 21004 07299 12770 71406 10230 20150 39791 40099 58001 60006 71311 83963 90000=
07299,1998-07-21 03:00:00,18,1010.9,0.4,88,16,15000,3.704,,,150,,,,,,,,,,,wg-a,,,,AAXX 21034 07299 12/65 51502 10180 20160 39796 40109 52004 60006 82031 90300=
07299,1998-07-21 06:00:00,24,1012.2,2,57,15,28000,0,,,0,17.4,32.3,,,,,,,,,wg-a,,,,AAXX 21064 07299 02/78 00000 10240 20150 39815 40122 51020 60006 80000 90600 333 10323 20174 60004=
07299,1998-07-21 09:00:00,29,1012.2,0.4,35,12,500,11.112,,,240,,,,,,,,,,,wg-a,,,,AAXX 21094 07299 12/00 12406 10290 20120 39819 40122 51004 60006 81080 90900=
07299,1998-07-21 12:00:00,31,1011.9,0,33,13,35000,18.52,,,290,,,,,,,,,,,wg-a,,,,AAXX 21124 07299 12/81 32910 10310 20130 39819 40119 50000 60006 83080 91200=
07299,1998-07-21 15:00:00,30,1012.6,0.5,38,14,500,14.816,,,280,,,,,,,,,,29,wg-a,,,,AAXX 21154 07299 02700 /2808 10300 20140 39824 40126 53005 61000 72998 82960 91500 333 ////=
07299,1998-07-21 18:00:00,24,1015.1,1.9,54,14,20000,14.816,,,260,23.9,31.6,,,,,,,,15,wg-a,,,,AAXX 21184 07299 12770 72608 10240 20140 39843 40151 51019 60006 71598 879// 91800 333 10316 20239=
07299,1998-07-21 21:00:00,20,1017.7,2.1,83,17,20000,7.408,,,160,,,,,,,,,,2,wg-a,,,,AAXX 21214 07299 02770 71604 10200 20170 39864 40177 51021 61000 70298 878// 92100 333 ////=
07299,1998-07-22 00:00:00,20,1018.7,0.9,83,17,20000,7.408,,,160,,,,,,,,,,1,wg-a,,,,AAXX 22004 07299 02770 71604 10200 20170 39873 40187 52009 61000 70198 878// 90000 333 ////=
07299,1998-07-22 03:00:00,19,1018.9,0,88,17,20000,3.704,,,190,,,,,,,,,,13,wg-a,,,,AAXX 22034 07299 12770 71902 10190 20170 39874 40189 50000 60006 71322 879// 90300=
07299,1998-07-22 06:00:00,19,1019.3,0.5,88,17,15000,7.408,,,160,18.3,23.9,,,,,,,,,wg-a,,,,AAXX 22064 07299 02465 71604 10190 20170 39878 40193 52005 60006 878// 90600 333 10239 20183 61000=
07299,1998-07-22 09:00:00,21,1018.9,-0.1,73,16,11000,3.704,,,70,,,,,,,,,,,wg-a,,,,AAXX 22094 07299 12/61 /0702 10210 20160 39877 40189 58001 60006 90900=
07299,1998-07-22 12:00:00,25,1017.8,-0.7,57,16,15000,7.408,,,300,,,,,,,,,,,wg-a,,,,AAXX 22124 07299 12665 73004 10250 20160 39870 40178 58007 60006 85801 91200=
07299,1998-07-22 15:00:00,27,1016.3,-1.2,51,16,15000,7.408,,,140,,,,,,,,,,,wg-a,,,,AAXX 22154 07299 12765 71404 10270 20160 39858 40163 58012 60006 84801 91500=
07299,1998-07-22 18:00:00,27,1016.1,-0.3,54,17,15000,3.704,,,20,18.8,27.9,,,,,,,,,wg-a,,,,AAXX 22184 07299 12/65 50202 10270 20170 39855 40161 55003 60006 80001 91800 333 10279 20188=
07299,1998-07-22 21:00:00,19,1017.5,0.5,88,17,20000,3.704,,,280,,,,,,,,,,,wg-a,,,,AAXX 22214 07299 12/70 32802 10190 20170 39861 40175 52005 60006 80001 92100=
07299,1998-07-23 00:00:00,17,1017.5,-0.2,100,17,18000,0,,,0,,,,,,,,,,,wg-a,,,,AAXX 23004 07299 12/68 60000 10170 20170 39859 40175 56002 60006 80001 90000=
07299,1998-07-23 03:00:00,16,1017.5,-0.3,94,15,13000,3.704,,,180,,,,,,,,,,,wg-a,,,,AAXX 23034 07299 12763 11802 10160 20150 39857 40175 58003 60006 81500 90300=
07299,1998-07-23 06:00:00,20,1017.2,0.3,88,18,9000,11.112,,,170,15,26.6,,,,,,,,,wg-a,,,,AAXX 23064 07299 02/59 31706 10200 20180 39860 40172 52003 60006 80001 90600 333 10266 20150 60004=
07299,1998-07-23 09:00:00,28,1015.7,-0.8,48,16,20000,3.704,,,50,,,,,,,,,,,wg-a,,,,AAXX 23094 07299 12670 40502 10280 20160 39852 40157 58008 60006 81134 90900=
07299,1998-07-23 12:00:00,30,1014.6,-0.8,38,14,40000,14.816,,,290,,,,,,,,,,,wg-a,,,,AAXX 23124 07299 12682 72908 10300 20140 39844 40146 56008 60006 82182 91200=
07299,1998-07-23 15:00:00,31,1014.2,-0.3,36,14,40000,14.816,,,300,,,,,,,,,,,wg-a,,,,AAXX 23154 07299 12682 53008 10310 20140 39841 40142 56003 60006 82231 91500=
07299,1998-07-23 18:00:00,24,1016.2,1.3,61,16,500,11.112,,,320,20.4,31.8,,,,,,,,,wg-a,,,,AAXX 23184 07299 12700 63206 10240 20160 39854 40162 53013 60006 85831 91800 333 10318 20204=
07299,1998-07-23 21:00:00,19,1018.6,1.6,78,15,25000,14.816,,,320,,,,,,,,,,,wg-a,,,,AAXX 23214 07299 12775 53208 10190 20150 39871 40186 53016 60006 84531 92100=
07299,1998-07-24 00:00:00,17,1019.4,0.5,82,14,25000,7.408,,,300,,,,,,,,,,,wg-a,,,,AAXX 24004 07299 12775 73004 10170 20140 39877 40194 51005 60006 8553/ 90000=
07299,1998-07-24 03:00:00,16,1020.1,0.6,88,14,20000,7.408,,,340,,,,,,,,,,,wg-a,,,,AAXX 24034 07299 12770 73404 10160 20140 39882 40201 53006 60006 8553/ 90300=
07299,1998-07-24 06:00:00,18,1020.3,0.4,77,14,20000,7.408,,,170,15.2,24.5,,,,,,,,,wg-a,,,,AAXX 24064 07299 02670 /1704 10180 20140 39886 40203 52004 60006 85830 90600 333 10245 20152 60004=
07299,1998-07-24 09:00:00,23,1019.3,-0.4,57,14,20000,7.408,,,70,,,,,,,,,,,wg-a,,,,AAXX 24094 07299 12670 20704 10230 20140 39883 40193 58004 60006 81831 90900=
07299,1998-07-24 12:00:00,27,1017.5,-1.3,42,13,20000,7.408,,,130,,,,,,,,,,,wg-a,,,,AAXX 24124 07299 12670 21304 10270 20130 39869 40175 56013 60006 82231 91200=
07299,1998-07-24 15:00:00,28,1016.6,-0.9,42,14,20000,25.928,,,10,,,,,,,,,,,wg-a,,,,AAXX 24154 07299 12670 30114 10280 20140 39861 40166 56009 60006 81202 91500=
07299,1998-07-24 18:00:00,26,1016.8,-0,48,14,25000,18.52,,,360,17.6,29.8,,,,,,,,,wg-a,,,,AAXX 24184 07299 12675 33610 10260 20140 39861 40168 55000 60006 81230 91800 333 10298 20176=
07299,1998-07-24 21:00:00,20,1018.3,0.9,73,15,20000,3.704,,,290,,,,,,,,,,,wg-a,,,,AAXX 24214 07299 12770 /2902 10200 20150 39870 40183 51009 60006 81501 92100=
07299,1998-07-25 00:00:00,17,1018.4,-0.3,82,14,20000,7.408,,,280,,,,,,,,,,,wg-a,,,,AAXX 25004 07299 12/70 12804 10170 20140 39867 40184 58003 60006 81030 90000=
07299,1998-07-25 03:00:00,18,1018.7,0.5,83,15,15000,14.816,,,310,,,,,,,,,,,wg-a,,,,AAXX 25034 07299 12665 73108 10180 20150 39872 40187 53005 60006 875// 90300=
07299,1998-07-25 06:00:00,17,1019.7,0.9,94,16,7000,3.704,,,320,15.7,25.3,,,,,3,,,3,wg-a,,,,AAXX 25064 07299 02457 73202 10170 20160 39880 40197 51009 60006 70361 878// 90600 333 10253 20157 60034=
07299,1998-07-25 09:00:00,21,1019.8,0.4,73,16,9000,14.816,,,10,,,,,,,,,,,wg-a,,,,AAXX 25094 07299 12459 40108 10210 20160 39885 40198 51004 60006 81830 90900=
07299,1998-07-25 12:00:00,25,1018.9,-0.6,47,13,13000,14.816,,,20,,,,,,,,,,,wg-a,,,,AAXX 25124 07299 12663 20208 10250 20130 39880 40189 58006 60006 82100 91200=
07299,1998-07-25 15:00:00,26,1017.6,-1,45,13,18000,18.52,,,360,,,,,,,,,,,wg-a,,,,AAXX 25154 07299 12768 /3610 10260 20130 39869 40176 57010 60006 81100 91500=
07299,1998-07-25 18:00:00,25,1017.1,-0.8,47,13,25000,18.52,,,350,16.7,27,,,,,,,,,wg-a,,,,AAXX 25184 07299 12775 /3510 10250 20130 39862 40171 56008 60006 81201 91800 333 10270 20167=
07299,1998-07-25 21:00:00,19,1017.9,0.2,68,13,25000,7.408,,,340,,,,,,,,,,,wg-a,,,,AAXX 25214 07299 12675 /3404 10190 20130 39864 40179 53002 60006 81200 92100=
07299,1998-07-26 00:00:00,16,1018,-0.1,82,13,25000,7.408,,,310,,,,,,,,,,,wg-a,,,,AAXX 26004 07299 12675 13104 10160 20130 39862 40180 58001 60006 81200 90000=
07299,1998-07-26 03:00:00,14,1018,-0.4,88,12,15000,11.112,,,330,,,,,,,,,,,wg-a,,,,AAXX 26034 07299 12665 43306 10140 20120 39859 40180 55004 60006 81230 90300=
07299,1998-07-26 06:00:00,16,1017.4,-0.3,72,11,10000,0,,,0,11.9,24.5,,,,,,,,,wg-a,,,,AAXX 26064 07299 02/60 00000 10160 20110 39856 40174 56003 60006 80000 90600 333 10245 20119 60004=
07299,1998-07-26 09:00:00,23,1015.6,-1,57,14,11000,7.408,,,50,,,,,,,,,,,wg-a,,,,AAXX 26094 07299 12/61 20504 10230 20140 39846 40156 58010 60006 80002 90900=
07299,1998-07-26 12:00:00,28,1013.1,-1.9,40,13,25000,3.704,,,290,,,,,,,,,,,wg-a,,,,AAXX 26124 07299 12675 52902 10280 20130 39827 40131 58019 60006 81101 91200=
07299,1998-07-26 15:00:00,29,1011.8,-1.1,37,13,500,7.408,,,280,,,,,,,,,,,wg-a,,,,AAXX 26154 07299 12700 /2804 10290 20130 39816 40118 56011 60006 81101 91500=
07299,1998-07-26 18:00:00,27,1011.3,-0.7,51,16,500,3.704,,,260,15.8,29.6,,,,,,,,,wg-a,,,,AAXX 26184 07299 12/00 62602 10270 20160 39809 40113 56007 60006 81032 91800 333 10296 20158=
07299,1998-07-26 21:00:00,19,1012.1,0,83,16,20000,3.704,,,230,,,,,,,,,,,wg-a,,,,AAXX 26214 07299 12870 62302 10190 20160 39809 40121 50000 60006 81532 92100=
07299,1998-07-27 00:00:00,18,1012.8,0.5,88,16,20000,7.408,,,310,,,,,,,,,,,wg-a,,,,AAXX 27004 07299 12770 83104 10180 20160 39814 40128 53005 60006 8597/ 90000=
07299,1998-07-27 03:00:00,18,1012.8,-0.1,94,17,3000,11.112,,,210,,,,1,,,,,,10,wg-a,,,,AAXX 27034 07299 12430 82106 10180 20170 39814 40128 58001 60017 71096 869// 90300=
07299,1998-07-27 06:00:00,18,1013,0.2,100,18,2000,11.112,,,150,16,26.6,,,,,,,,10,wg-a,,,,AAXX 27064 07299 02320 81506 10180 20180 39816 40130 53002 61000 71098 8697/ 90600 333 10266 20160 6005=
07299,1998-07-27 09:00:00,18,1012.9,0.1,100,18,500,11.112,,,130,,,,,,,,,,,wg-a,,,,AAXX 27094 07299 32/00 /1306 10180 20180 39816 40129 52001 90900=
07299,1998-07-27 12:00:00,20,1012.5,-0.2,94,19,9000,7.408,,,290,,,,3,,,,,,61,wg-a,,,,AAXX 27124 07299 02459 82904 10200 20190 39814 40125 55002 60146 76196 885// 91200 333 60037=
07299,1998-07-27 15:00:00,20,1012.8,0.2,88,18,11000,11.112,,,280,,,,,,,,,,,wg-a,,,,AAXX 27154 07299 32/61 /2806 10200 20180 39816 40128 53002 91500=
07299,1998-07-27 18:00:00,19,1012.9,0.1,94,18,4000,7.408,,,240,17.6,21.1,,,,,,,,80,wg-a,,,,AAXX 27184 07299 02540 72404 10190 20180 39817 40129 53001 61000 78098 873// 91800 333 10211 20176 6001=
07299,1998-07-27 21:00:00,18,1014,0.9,94,17,13000,7.408,,,180,,,,2,,,,,,17,wg-a,,,,AAXX 27214 07299 12663 71804 10180 20170 39826 40140 53009 60027 71798 879// 92100=
07299,1998-07-28 00:00:00,17,1014.9,0.8,94,16,18000,7.408,,,200,,,,,,,,,,0,wg-a,,,,AAXX 28004 07299 02568 72004 10170 20160 39834 40149 53008 60026 70098 878// 90000 333 61000=
07299,1998-07-28 03:00:00,16,1014.6,-0.4,94,15,18000,7.408,,,170,,,,,,,,,,,wg-a,,,,AAXX 28034 07299 12668 71704 10160 20150 39830 40146 58004 60006 8583/ 90300=
07299,1998-07-28 06:00:00,17,1015.2,0.7,88,15,15000,14.816,,,240,15.7,19.2,,,,,19,,,,wg-a,,,,AAXX 28064 07299 02665 52408 10170 20150 39837 40152 51007 60006 84531 90600 333 10192 20157 60194=
07299,1998-07-28 09:00:00,20,1014.9,-0.1,68,14,20000,14.816,,,270,,,,,,,,,,,wg-a,,,,AAXX 28094 07299 12570 72708 10200 20140 39836 40149 58001 60006 85802 90900=
07299,1998-07-28 12:00:00,22,1014.2,-0.5,50,11,500,14.816,,,260,,,,,,,,,,,wg-a,,,,AAXX 28124 07299 12600 72608 10220 20110 39831 40142 58005 60006 878// 91200=
07299,1998-07-28 15:00:00,20,1014,-0.1,60,12,25000,18.52,,,260,,,,,,,,,,,wg-a,,,,AAXX 28154 07299 12675 72610 10200 20120 39828 40140 58001 60006 878// 91500=
07299,1998-07-28 18:00:00,20,1013.7,-0.3,64,13,500,11.112,,,280,17.3,21.7,,,,,,,,,wg-a,,,,AAXX 28184 07299 12600 72806 10200 20130 39825 40137 57003 60006 84871 91800 333 10217 20173=
07299,1998-07-28 21:00:00,17,1014.7,0.6,88,15,20000,3.704,,,210,,,,,,,,,,,wg-a,,,,AAXX 28214 07299 12670 72102 10170 20150 39831 40147 51006 60006 8557/ 92100=
07299,1998-07-29 00:00:00,16,1014.6,-0.1,82,13,20000,7.408,,,240,,,,,,,,,,,wg-a,,,,AAXX 29004 07299 12570 72404 10160 20130 39830 40146 58001 60006 8557/ 90000=
07299,1998-07-29 03:00:00,16,1013.9,-0.8,88,14,20000,3.704,,,170,,,,,,,,,,60,wg-a,,,,AAXX 29034 07299 02570 71702 10160 20140 39822 40139 56008 61000 76062 875// 90300 333 ////=
07299,1998-07-29 06:00:00,16,1013.8,-0,94,15,9000,7.408,,,150,15.4,19.8,,,,,,,,1,wg-a,,,,AAXX 29064 07299 02559 /1504 10160 20150 39822 40138 55000 60006 70162 85530 90600 333 10198 20154 60004=
07299,1998-07-29 09:00:00,21,1013.5,0.2,69,15,18000,14.816,,,240,,,,,,,,,,,wg-a,,,,AAXX 29094 07299 12568 72408 10210 20150 39824 40135 52002 60006 8683/ 90900=
07299,1998-07-29 12:00:00,23,1013,-0.3,65,16,15000,18.52,,,250,,,,,,,,,,25,wg-a,,,,AAXX 29124 07299 02565 72510 10230 20160 39821 40130 57003 61000 72586 86830 91200 333 6100=
07299,1998-07-29 15:00:00,24,1011.5,-1.3,57,15,35000,18.52,,,260,,,,,,,,,,,wg-a,,,,AAXX 29154 07299 12681 42610 10240 20150 39808 40115 58013 60006 83130 91500=
07299,1998-07-29 18:00:00,24,1010.4,-1,54,14,40000,11.112,,,280,16.2,25.4,,,,,,,,,wg-a,,,,AAXX 29184 07299 12782 32806 10240 20140 39797 40104 55010 60006 83540 91800 333 10254 20162=
07299,1998-07-29 21:00:00,19,1011.7,0.7,78,15,40000,11.112,,,150,,,,,,,,,,,wg-a,,,,AAXX 29214 07299 12782 31506 10190 20150 39805 40117 50007 60006 82540 92100=
07299,1998-07-30 00:00:00,18,1012.1,0.4,77,14,40000,7.408,,,220,,,,,,,,,,,wg-a,,,,AAXX 30004 07299 12782 /2204 10180 20140 39808 40121 53004 60006 85530 90000=
07299,1998-07-30 03:00:00,19,1011.9,-0.2,73,14,25000,7.408,,,270,,,,,,,,,,,wg-a,,,,AAXX 30034 07299 12675 72704 10190 20140 39806 40119 58002 60006 875// 90300=
07299,1998-07-30 06:00:00,20,1011.9,0.2,68,14,20000,11.112,,,260,18.1,24.2,,,,,,,,,wg-a,,,,AAXX 30064 07299 02570 72606 10200 20140 39807 40119 52002 60006 875// 90600 333 10242 20181 61000=
07299,1998-07-30 09:00:00,23,1011.5,-0.1,61,15,20000,18.52,,,270,,,,,,,,,,,wg-a,,,,AAXX 30094 07299 12570 /2710 10230 20150 39806 40115 58001 60006 83830 90900=
07299,1998-07-30 12:00:00,24,1010.2,-1.1,61,16,40000,18.52,,,280,,,,,,,,,,,wg-a,,,,AAXX 30124 07299 12682 72810 10240 20160 39795 40102 58011 60006 8383/ 91200=
07299,1998-07-30 15:00:00,22,1011.2,0.5,69,16,500,25.928,,,280,,,,,,,,,,,wg-a,,,,AAXX 30154 07299 12500 62814 10220 20160 39803 40112 53005 60006 83830 91500=
07299,1998-07-30 18:00:00,18,1013,1.5,83,15,20000,11.112,,,280,18.1,25.4,,,,,,,,60,wg-a,,,,AAXX 30184 07299 02570 72806 10180 20150 39817 40130 51015 61000 76062 878// 91800 333 10254 20181 6100=
07299,1998-07-30 21:00:00,16,1015,1.6,94,15,20000,7.408,,,210,,,,1,,,,,,60,wg-a,,,,AAXX 30214 07299 12570 72104 10160 20150 39833 40150 51016 60017 76062 878// 92100=
07299,1998-07-31 00:00:00,15,1015.5,0.5,100,15,20000,0,,,0,,,,,,,,,,2,wg-a,,,,AAXX 31004 07299 02670 70000 10150 20150 39837 40155 50005 60016 70262 8553/ 90000 333 61000=
07299,1998-07-31 03:00:00,16,1015.7,0.3,94,15,20000,7.408,,,240,,,,,,,,,,,wg-a,,,,AAXX 31034 07299 12670 72404 10160 20150 39840 40157 53003 60006 8453/ 90300=
07299,1998-07-31 06:00:00,16,1016.4,0.8,94,15,15000,0,,,0,15.1,18.7,,,,,1,,,,wg-a,,,,AAXX 31064 07299 02565 70000 10160 20150 39847 40164 53008 60006 878// 90600 333 10187 20151 60014=
07299,1998-07-31 09:00:00,20,1016.5,0.3,60,12,500,11.112,,,260,,,,,,,,,,,wg-a,,,,AAXX 31094 07299 12500 52606 10200 20120 39852 40165 50003 60006 83801 90900=
07299,1998-07-31 12:00:00,23,1016,-0.1,44,10,500,14.816,,,270,,,,,,,,,,,wg-a,,,,AAXX 31124 07299 12700 /2708 10230 20100 39850 40160 58001 60006 83102 91200=
07299,1998-07-31 15:00:00,23,1015.7,-0.3,38,8,50000,11.112,,,300,,,,,,,,,,,wg-a,,,,AAXX 31154 07299 12784 63006 10230 20080 39847 40157 56003 60006 82102 91500=
07299,1998-07-31 18:00:00,22,1015.7,-0.1,50,11,50000,7.408,,,240,16.4,24.4,,,,,,,,,wg-a,,,,AAXX 31184 07299 12684 62404 10220 20110 39846 40157 55001 60006 81806 91800 333 10244 20164=
07299,1998-07-31 21:00:00,17,1017.4,1.1,77,13,40000,3.704,,,250,,,,,,,,,,,wg-a,,,,AAXX 31214 07299 12782 52502 10170 20130 39857 40174 52011 60006 81531 92100=
07299,1998-08-01 00:00:00,13,1017.6,-0.3,88,11,40000,3.704,,,200,,,,,,,,,,,wg-a,,,,AAXX 01004 07299 12/82 32002 10130 20110 39854 40176 58003 60006 80001 90000=
07299,1998-08-01 03:00:00,11,1017.3,-0.4,100,11,40000,0,,,0,,,,,,,,,,,wg-a,,,,AAXX 01034 07299 12782 20000 10110 20110 39850 40173 58004 60006 81530 90300=
07299,1998-08-01 06:00:00,13,1016.2,-0.9,88,11,40000,3.704,,,10,10.4,22.3,,,,,,,,,wg-a,,,,AAXX 01064 07299 02/82 40102 10130 20110 39841 40162 57009 60006 84030 90600 333 10223 20104 60004=
07299,1998-08-01 09:00:00,20,1013.3,-2.1,56,11,500,7.408,,,340,,,,,,,,,,,wg-a,,,,AAXX 01094 07299 12/00 73404 10200 20110 39820 40133 58021 60006 85031 90900=
07299,1998-08-01 12:00:00,16,1015.5,1.8,94,15,4000,3.704,,,260,,,,7,,,,,,80,wg-a,,,,AAXX 01124 07299 02640 72602 10160 20150 39838 40155 53018 60076 78098 8699/ 91200 333 60077=
07299,1998-08-01 15:00:00,17,1014.8,-0.3,94,16,500,7.408,,,270,,,,2,,,,,,80,wg-a,,,,AAXX 01154 07299 12500 72704 10170 20160 39833 40148 55003 60027 78098 879// 91500=
07299,1998-08-01 18:00:00,17,1015.5,0.6,88,15,20000,0,,,0,13.3,21.4,,,,,,,,1,wg-a,,,,AAXX 01184 07299 02570 /0000 10170 20150 39840 40155 50006 60006 70198 85930 91800 333 10214 20133 61000=
07299,1998-08-01 21:00:00,15,1017.4,1.5,94,14,8000,3.704,,,280,,,,,,,,,,,wg-a,,,,AAXX 01214 07299 12458 72802 10150 20140 39856 40174 51015 60006 878// 92100=
07299,1998-08-02 00:00:00,14,1017.7,0.1,94,13,9000,7.408,,,240,,,,,,,,,,,wg-a,,,,AAXX 02004 07299 12459 72404 10140 20130 39857 40177 50001 60006 878// 90000=
07299,1998-08-02 03:00:00,14,1017.6,-0.1,100,14,7000,3.704,,,10,,,,,,,,,,,wg-a,,,,AAXX 02034 07299 32/57 /0102 10140 20140 39857 40176 58001 90300=
07299,1998-08-02 06:00:00,14,1018.6,1.1,100,14,7000,0,,,0,14,17.4,,,,,9,,,3,wg-a,,,,AAXX 02064 07299 02357 80000 10140 20140 39866 40186 53011 60006 70362 888// 90600 333 10174 20140 60094=
07299,1998-08-02 09:00:00,16,1018.6,0,88,14,7000,11.112,,,360,,,,1,,,,,,21,wg-a,,,,AAXX 02094 07299 12357 83606 10160 20140 39868 40186 50000 60017 72162 888// 90900=
07299,1998-08-02 12:00:00,18,1018.4,0.1,77,14,15000,11.112,,,350,,,,,,,,,,1,wg-a,,,,AAXX 02124 07299 12465 73506 10180 20140 39868 40184 53001 60016 70162 878// 91200=
07299,1998-08-02 15:00:00,16,1020.5,1.8,94,15,6000,11.112,,,290,,,,2,,,,,,63,wg-a,,,,AAXX 02154 07299 12256 72906 10160 20150 39886 40205 53018 60027 76362 878// 91500=
07299,1998-08-02 18:00:00,15,1020.3,-0.2,100,15,4500,0,,,0,14.4,17.9,,,,,,,,63,wg-a,,,,AAXX 02184 07299 02445 80000 10150 20150 39884 40203 56002 61000 76362 8457/ 91800 333 10179 20144 6006=
07299,1998-08-02 21:00:00,15,1021.5,1.1,94,14,4000,7.408,,,350,,,,2,,,,,,60,wg-a,,,,AAXX 02214 07299 12340 83504 10150 20140 39895 40215 50011 60027 76066 8577/ 92100=
07299,1998-08-03 00:00:00,15,1021.7,0.3,94,14,4000,3.704,,,290,,,,2,,,,,,60,wg-a,,,,AAXX 03004 07299 02340 82902 10150 20140 39897 40217 50003 60046 76066 877// 90000 333 60027=
07299,1998-08-03 03:00:00,14,1022.7,0.8,100,14,3000,3.704,,,280,,,,2,,,,,,60,wg-a,,,,AAXX 03034 07299 12230 82802 10140 20140 39906 40227 53008 60027 76066 877// 90300=
07299,1998-08-03 06:00:00,15,1023.3,0.6,100,15,3500,3.704,,,320,14.2,15.2,,,,,,,,60,wg-a,,,,AAXX 03064 07299 02235 83202 10150 20150 39912 40233 50006 61000 76066 877// 90600 333 10152 20142 6017=
07299,1998-08-03 09:00:00,16,1023.8,0.7,94,15,4500,7.408,,,350,,,,,,,,,,10,wg-a,,,,AAXX 03094 07299 02345 83504 10160 20150 39919 40238 50007 61000 71062 877// 90900 333 ////=
07299,1998-08-03 12:00:00,18,1023.1,-0.5,83,15,11000,11.112,,,330,,,,,,,,,,1,wg-a,,,,AAXX 03124 07299 02461 73306 10180 20150 39914 40231 58005 61000 70162 878// 91200 333 ////=
07299,1998-08-03 15:00:00,21,1022.4,-0.3,69,15,20000,7.408,,,320,,,,,,,,,,,wg-a,,,,AAXX 03154 07299 12670 73204 10210 20150 39911 40224 57003 60006 878// 91500=
07299,1998-08-03 18:00:00,22,1022.2,-0.2,69,16,20000,3.704,,,310,14.5,22.2,,,,,,,,,wg-a,,,,AAXX 03184 07299 12670 33102 10220 20160 39909 40222 58002 60006 83800 91800 333 10222 20145=
07299,1998-08-03 21:00:00,15,1024.5,1.5,100,15,15000,0,,,0,,,,,,,,,,,wg-a,,,,AAXX 03214 07299 12765 30000 10150 20150 39924 40245 52015 60006 815/1 92100=
07299,1998-08-04 00:00:00,13,1023.5,-1.2,100,13,6000,3.704,,,260,,,,,,,,,,,wg-a,,,,AAXX 04004 07299 12/56 02602 10130 20130 39912 40235 56012 60006 80000 90000=
07299,1998-08-04 03:00:00,12,1023.9,0.2,100,12,2000,0,,,0,,,,,,,,,,40,wg-a,,,,AAXX 04034 07299 12120 30000 10120 20120 39914 40239 50002 60006 74000 83600 90300=
07299,1998-08-04 06:00:00,14,1024.1,0.6,100,14,2500,0,,,0,11.3,21.6,,,,,,,,40,wg-a,,,,AAXX 04064 07299 02125 /0000 10140 20140 39920 40241 51006 60006 74041 81601 90600 333 10216 20113 61000=
07299,1998-08-04 09:00:00,21,1024.3,0.9,73,16,8000,3.704,,,350,,,,,,,,,,,wg-a,,,,AAXX 04094 07299 12258 33502 10210 20160 39929 40243 51009 60006 81601 90900=
07299,1998-08-04 12:00:00,25,1022.7,-1.2,47,13,500,7.408,,,220,,,,,,,,,,,wg-a,,,,AAXX 04124 07299 12600 /2204 10250 20130 39917 40227 58012 60006 81131 91200=
07299,1998-08-04 15:00:00,27,1022.2,-0.3,42,13,500,11.112,,,250,,,,,,,,,,,wg-a,,,,AAXX 04154 07299 12600 /2506 10270 20130 39914 40222 56003 60006 81130 91500=
07299,1998-08-04 18:00:00,24,1022.7,0.2,57,15,20000,11.112,,,250,14.4,27.2,,,,,,,,,wg-a,,,,AAXX 04184 07299 12770 72506 10240 20150 39917 40227 53002 60006 83532 91800 333 10272 20144=
07299,1998-08-04 21:00:00,21,1025.3,2.1,73,16,20000,14.816,,,360,,,,,,,,,,,wg-a,,,,AAXX 04214 07299 12770 73608 10210 20160 39938 40253 53021 60006 875// 92100=
07299,1998-08-05 00:00:00,20,1025.7,0.3,78,16,20000,18.52,,,350,,,,,,,,,,,wg-a,,,,AAXX 05004 07299 12670 73510 10200 20160 39941 40257 51003 60006 875// 90000=
07299,1998-08-05 03:00:00,17,1026.1,0.1,88,15,20000,18.52,,,340,,,,,,,,,,,wg-a,,,,AAXX 05034 07299 12770 /3410 10170 20150 39942 40261 51001 60006 85500 90300=
07299,1998-08-05 06:00:00,16,1027.5,1.3,82,13,10000,18.52,,,330,16.3,24.3,,,,,,,,,wg-a,,,,AAXX 05064 07299 02460 33310 10160 20130 39955 40275 51013 60006 83500 90600 333 10243 20163 60004=
07299,1998-08-05 09:00:00,20,1028,0.8,68,14,18000,25.928,,,340,,,,,,,,,,,wg-a,,,,AAXX 05094 07299 12568 33414 10200 20140 39964 40280 52008 60006 83800 90900=
07299,1998-08-05 12:00:00,22,1027.5,-0.3,53,12,20000,25.928,,,340,,,,,,,,,,,wg-a,,,,AAXX 05124 07299 12670 /3414 10220 20120 39961 40275 58003 60006 81200 91200=
07299,1998-08-05 15:00:00,24,1026.8,-0.6,36,8,20000,25.928,,,340,,,,,,,,,,,wg-a,,,,AAXX 05154 07299 12770 /3414 10240 20080 39955 40268 56006 60006 81200 91500=
07299,1998-08-05 18:00:00,22,1026.7,-0.2,43,9,40000,18.52,,,340,16.3,24.4,,,,,,,,,wg-a,,,,AAXX 05184 07299 12782 33410 10220 20090 39953 40267 55002 60006 815/1 91800 333 10244 20163=
07299,1998-08-05 21:00:00,17,1028.1,0.8,72,12,40000,7.408,,,340,,,,,,,,,,,wg-a,,,,AAXX 05214 07299 12782 33404 10170 20120 39961 40281 53008 60006 815/1 92100=
07299,1998-08-06 00:00:00,12,1028.1,-0.6,94,11,40000,3.704,,,240,,,,,,,,,,,wg-a,,,,AAXX 06004 07299 12/82 02402 10120 20110 39955 40281 58006 60006 80000 90000=
07299,1998-08-06 03:00:00,10,1027.9,-0.4,100,10,25000,0,,,0,,,,,,,,,,,wg-a,,,,AAXX 06034 07299 12/75 00000 10100 20100 39951 40279 56004 60006 80000 90300=
07299,1998-08-06 06:00:00,13,1027.6,0.1,94,12,8000,0,,,0,9,22,,,,,,,,,wg-a,,,,AAXX 06064 07299 02/58 00000 10130 20120 39952 40276 53001 60006 80000 90600 333 10220 20090 60004=
07299,1998-08-06 09:00:00,21,1026.2,-0.5,60,13,15000,7.408,,,290,,,,,,,,,,,wg-a,,,,AAXX 06094 07299 32/65 02904 10210 20130 39947 40262 57005 80000 90900=
07299,1998-08-06 12:00:00,25,1024.6,-1.2,44,12,25000,7.408,,,30,,,,,,,,,,,wg-a,,,,AAXX 06124 07299 12675 /0304 10250 20120 39935 40246 58012 60006 81500 91200=
07299,1998-08-06 15:00:00,27,1022.8,-1.5,48,15,35000,11.112,,,320,,,,,,,,,,,wg-a,,,,AAXX 06154 07299 12781 /3206 10270 20150 39920 40228 56015 60006 81100 91500=
07299,1998-08-06 18:00:00,25,1022.6,-0.4,44,12,35000,14.816,,,350,13,27.1,,,,,,,,,wg-a,,,,AAXX 06184 07299 12/81 03508 10250 20120 39916 40226 55004 60006 80000 91800 333 10271 20130=
07299,1998-08-06 21:00:00,16,1024.1,0.5,88,14,25000,3.704,,,240,,,,,,,,,,,wg-a,,,,AAXX 06214 07299 12/75 02402 10160 20140 39921 40241 53005 60006 80000 92100=
07299,1998-08-07 00:00:00,13,1023.9,-0.6,100,13,25000,0,,,0,,,,,,,,,,,wg-a,,,,AAXX 07004 07299 12/75 00000 10130 20130 39916 40239 58006 60006 80000 90000=
07299,1998-08-07 03:00:00,11,1023.9,-0.2,100,11,20000,0,,,0,,,,,,,,,,,wg-a,,,,AAXX 07034 07299 12/70 00000 10110 20110 39914 40239 57002 60006 80000 90300=
07299,1998-08-07 06:00:00,15,1024.1,0.6,94,14,13000,3.704,,,170,9.9,24.6,,,,,,,,,wg-a,,,,AAXX 07064 07299 02/63 01702 10150 20140 39920 40241 51006 60006 80000 90600 333 10246 20099 60004=
07299,1998-08-07 09:00:00,23,1023,-0.2,53,13,15000,3.704,,,350,,,,,,,,,,,wg-a,,,,AAXX 07094 07299 12/65 13502 10230 20130 39918 40230 58002 60006 80002 90900=
07299,1998-08-07 12:00:00,27,1021.2,-1.3,45,14,25000,7.408,,,240,,,,,,,,,,,wg-a,,,,AAXX 07124 07299 12/75 12404 10270 20140 39905 40212 58013 60006 80002 91200=
07299,1998-08-07 15:00:00,29,1019.9,-1.1,40,14,500,7.408,,,350,,,,,,,,,,,wg-a,,,,AAXX 07154 07299 12/00 23504 10290 20140 39894 40199 56011 60006 80002 91500=
07299,1998-08-07 18:00:00,27,1019.7,-0.3,51,16,35000,7.408,,,350,15.1,29.3,,,,,,,,,wg-a,,,,AAXX 07184 07299 12/81 13504 10270 20160 39891 40197 55003 60006 80002 91800 333 10293 20151=
07299,1998-08-07 21:00:00,18,1021.3,0.6,94,17,20000,3.704,,,230,,,,,,,,,,,wg-a,,,,AAXX 07214 07299 12/70 12302 10180 20170 39897 40213 53006 60006 80002 92100=
07299,1998-08-08 00:00:00,14,1021.6,-0.2,94,13,20000,0,,,0,,,,,,,,,,,wg-a,,,,AAXX 08004 07299 12/70 00000 10140 20130 39895 40216 58002 60006 80000 90000=
07299,1998-08-08 03:00:00,14,1021,-0.6,100,14,18000,0,,,0,,,,,,,,,,,wg-a,,,,AAXX 08034 07299 12/68 10000 10140 20140 39889 40210 58006 60006 80001 90300=
07299,1998-08-08 09:00:00,25,1019.1,-0.7,50,14,25000,3.704,,,70,,,,,,,,,,,wg-a,,,,AAXX 08094 07299 12/75 00702 10250 20140 39882 40191 58007 60006 80000 90900=
07299,1998-08-08 12:00:00,30,1017.4,-1.1,38,14,23000,7.408,,,40,,,,,,,,,,,wg-a,,,,AAXX 08124 07299 12/73 00404 10300 20140 39871 40174 58011 60006 80000 91200=
07299,1998-08-08 15:00:00,32,1015.2,-1.9,32,13,23000,7.408,,,60,,,,,,,,,,,wg-a,,,,AAXX 08154 07299 12/73 00604 10320 20130 39852 40152 57019 60006 80000 91500=
07299,1998-08-08 18:00:00,31,1014.7,-0.6,38,15,10000,7.408,,,20,16.8,32.8,,,,,,,,,wg-a,,,,AAXX 08184 07299 12/60 /0204 10310 20150 39846 40147 56006 60006 91800 333 10328 20168=
07299,1998-08-08 21:00:00,18,1016.9,0.8,94,17,28000,0,,,0,,,,,,,,,,,wg-a,,,,AAXX 08214 07299 12/78 00000 10180 20170 39854 40169 52008 60006 80000 92100=
07299,1998-08-09 00:00:00,17,1017.1,0.1,88,15,25000,11.112,,,180,,,,,,,,,,,wg-a,,,,AAXX 09004 07299 12/75 01806 10170 20150 39855 40171 50001 60006 80000 90000=
07299,1998-08-09 03:00:00,16,1017.2,-0,88,14,25000,11.112,,,180,,,,,,,,,,,wg-a,,,,AAXX 09034 07299 12/75 01806 10160 20140 39855 40172 55000 60006 80000 90300=
07299,1998-08-09 06:00:00,19,1017.5,0.6,78,15,28000,7.408,,,170,15.5,30.6,,,,,,,,,wg-a,,,,AAXX 09064 07299 02/78 11704 10190 20150 39861 40175 53006 60006 80001 90600 333 10306 20155 60004=
07299,1998-08-09 09:00:00,28,1016.3,-0.3,51,17,500,3.704,,,150,,,,,,,,,,,wg-a,,,,AAXX 09094 07299 12/00 11502 10280 20170 39858 40163 58003 60006 80001 90900=
07299,1998-08-09 12:00:00,32,1015.3,-0.5,41,17,25000,7.408,,,290,,,,,,,,,,,wg-a,,,,AAXX 09124 07299 12775 12904 10320 20170 39853 40153 58005 60006 81101 91200=
07299,1998-08-09 15:00:00,34,1013.9,-1.2,36,17,25000,3.704,,,220,,,,,,,,,,,wg-a,,,,AAXX 09154 07299 12775 12202 10340 20170 39841 40139 57012 60006 81201 91500=
07299,1998-08-09 18:00:00,31,1013.7,-0.6,46,18,25000,7.408,,,350,19.3,34.3,,,,,,,,,wg-a,,,,AAXX 09184 07299 12875 13504 10310 20180 39836 40137 56006 60006 81232 91800 333 10343 20193=
07299,1998-08-09 21:00:00,20,1015.9,1.2,88,18,20000,7.408,,,290,,,,,,,,,,,wg-a,,,,AAXX 09214 07299 12/70 02904 10200 20180 39847 40159 51012 60006 80000 92100=
07299,1998-08-10 00:00:00,17,1017.1,0.7,94,16,15000,3.704,,,280,,,,,,,,,,,wg-a,,,,AAXX 10004 07299 12/65 02802 10170 20160 39855 40171 51007 60006 80000 90000=
07299,1998-08-10 03:00:00,15,1017.7,0.4,100,15,12000,0,,,0,,,,,,,,,,,wg-a,,,,AAXX 10034 07299 12/62 00000 10150 20150 39859 40177 53004 60006 80000 90300=
07299,1998-08-10 06:00:00,19,1017.8,0.5,88,17,15000,3.704,,,170,15,30.5,,,,,,,,,wg-a,,,,AAXX 10064 07299 02/65 11702 10190 20170 39864 40178 51005 60006 80001 90600 333 10305 20150 60004=
07299,1998-08-10 09:00:00,27,1017.3,0.3,54,17,17000,3.704,,,90,,,,,,,,,,,wg-a,,,,AAXX 10094 07299 12/67 40902 10270 20170 39867 40173 51003 60006 80001 90900=
07299,1998-08-10 12:00:00,32,1016.1,-0.6,46,19,10000,7.408,,,220,,,,,,,,,,,wg-a,,,,AAXX 10124 07299 12/60 /2204 10320 20190 39861 40161 57006 60006 91200=
07299,1998-08-10 15:00:00,35,1014.9,-0.9,30,15,20000,3.704,,,230,,,,,,,,,,,wg-a,,,,AAXX 10154 07299 12870 22302 10350 20150 39852 40149 57009 60006 81102 91500=
07299,1998-08-10 18:00:00,31,1015.3,0.1,55,21,20000,7.408,,,240,19.1,35.5,,,,,,,,,wg-a,,,,AAXX 10184 07299 12870 52404 10310 20210 39853 40153 53001 60006 81183 91800 333 10355 20191=
07299,1998-08-10 21:00:00,22,1017.5,1.1,88,20,20000,7.408,,,330,,,,,,,,,,,wg-a,,,,AAXX 10214 07299 12/70 23304 10220 20200 39864 40175 53011 60006 80002 92100=
07299,1998-08-11 00:00:00,20,1018.4,0.6,88,18,20000,3.704,,,160,,,,,,,,,,,wg-a,,,,AAXX 11004 07299 12/70 11602 10200 20180 39870 40184 51006 60006 80002 90000=
07299,1998-08-11 03:00:00,19,1018.4,-0.1,88,17,20000,11.112,,,180,,,,,,,,,,,wg-a,,,,AAXX 11034 07299 12/70 21806 10190 20170 39870 40184 58001 60006 81031 90300=
07299,1998-08-11 06:00:00,22,1018.7,0.5,73,17,20000,11.112,,,170,18.7,31.1,,,,,,,,,wg-a,,,,AAXX 11064 07299 02/70 11706 10220 20170 39875 40187 53005 60006 81030 90600 333 10311 20187 60004=
07299,1998-08-11 09:00:00,29,1018.2,0.3,52,18,20000,11.112,,,160,,,,,,,,,,,wg-a,,,,AAXX 11094 07299 12/70 01606 10290 20180 39878 40182 51003 60006 80000 90900=
07299,1998-08-11 12:00:00,35,1016.7,-1,32,16,17000,7.408,,,250,,,,,,,,,,,wg-a,,,,AAXX 11124 07299 12867 12504 10350 20160 39869 40167 58010 60006 81200 91200=
07299,1998-08-11 18:00:00,32,1015.5,-0.4,49,20,500,7.408,,,230,21.6,37.3,,,,,,,,,wg-a,,,,AAXX 11184 07299 12800 22304 10320 20200 39855 40155 55004 60006 81101 91800 333 10373 20216=
07299,1998-08-11 21:00:00,22,1017.3,0.7,78,18,22000,3.704,,,170,,,,,,,,,,,wg-a,,,,AAXX 11214 07299 12/72 21702 10220 20180 39862 40173 53007 60006 80001 92100=
07299,1998-08-12 00:00:00,20,1017.2,-0.3,83,17,22000,11.112,,,180,,,,,,,,,,,wg-a,,,,AAXX 12004 07299 12/72 51806 10200 20170 39859 40172 58003 60006 80001 90000=
07299,1998-08-12 03:00:00,19,1016.6,-0.6,83,16,22000,11.112,,,190,,,,,,,,,,,wg-a,,,,AAXX 12034 07299 12/72 51906 10190 20160 39853 40166 56006 60006 80001 90300=
07299,1998-08-12 06:00:00,21,1016.5,0.1,78,17,15000,7.408,,,200,19.3,31.4,,,,,,,,,wg-a,,,,AAXX 12064 07299 02/65 62004 10210 20170 39854 40165 53001 60006 80001 90600 333 10314 20193 60004=
07299,1998-08-12 09:00:00,29,1015.2,-0.5,52,18,15000,11.112,,,130,,,,,,,,,,,wg-a,,,,AAXX 12094 07299 12/65 61306 10290 20180 39849 40152 58005 60006 80001 90900=
07299,1998-08-12 12:00:00,34,1013.9,-0.8,36,17,15000,11.112,,,240,,,,,,,,,,,wg-a,,,,AAXX 12124 07299 12/65 72406 10340 20170 39841 40139 58008 60006 81088 91200=
07299,1998-08-12 18:00:00,29,1011.8,-0.6,55,19,15000,7.408,,,230,21.3,34.9,,,,,,,,,wg-a,,,,AAXX 12184 07299 12765 72304 10290 20190 39816 40118 55006 60006 81282 91800 333 10349 20213=
07299,1998-08-12 21:00:00,23,1012.9,0.5,73,18,14000,11.112,,,310,,,,,,,,,,,wg-a,,,,AAXX 12214 07299 12764 73106 10230 20180 39821 40129 53005 60006 81332 92100=
07299,1998-08-13 00:00:00,19,1017.8,4.3,94,18,7000,18.52,,,360,,,,3,,,,,,95,wg-a,,,,AAXX 13004 07299 02557 73610 10190 20180 39864 40178 53043 60036 79598 8593/ 90000 333 60037=
07299,1998-08-13 03:00:00,19,1015.8,-1.9,94,18,12000,3.704,,,200,,,,1,,,,,,60,wg-a,,,,AAXX 13034 07299 12662 82002 10190 20180 39845 40158 58019 60017 76096 8583/ 90300=
07299,1998-08-13 06:00:00,19,1015.8,-0.1,100,19,9000,3.704,,,280,18.7,29,,,,,,,,25,wg-a,,,,AAXX 13064 07299 02659 82802 10190 20190 39845 40158 57001 61000 72598 8583/ 90600 333 10290 20187 6004=
07299,1998-08-13 09:00:00,20,1016.2,0.5,88,18,9000,7.408,,,200,,,,0,,,,,,21,wg-a,,,,AAXX 13094 07299 12459 82004 10200 20180 39850 40162 51005 60007 72162 8583/ 90900=
07299,1998-08-13 12:00:00,24,1015.3,-0.5,74,19,12000,14.816,,,260,,,,,,,,,,3,wg-a,,,,AAXX 13124 07299 12562 82608 10240 20190 39845 40153 58005 60006 70386 878// 91200=
07299,1998-08-13 15:00:00,25,1014.8,-0.3,57,16,18000,18.52,,,260,,,,,,,,,,,wg-a,,,,AAXX 13154 07299 12668 72610 10250 20160 39841 40148 56003 60006 84802 91500=
07299,1998-08-13 18:00:00,22,1014.7,-0.5,65,15,500,11.112,,,240,18.9,25.7,,,,,,,,,wg-a,,,,AAXX 13184 07299 12600 72406 10220 20150 39837 40147 56005 60006 81802 91800 333 10257 20189=
07299,1998-08-13 21:00:00,17,1016.8,1.4,82,14,500,7.408,,,330,,,,,,,,,,,wg-a,,,,AAXX 13214 07299 12/00 43304 10170 20140 39851 40168 53014 60006 80002 92100=
07299,1998-08-14 00:00:00,13,1017.8,0.6,88,11,500,11.112,,,300,,,,,,,,,,,wg-a,,,,AAXX 14004 07299 12/00 43006 10130 20110 39857 40178 50006 60006 80002 90000=
07299,1998-08-14 03:00:00,12,1017.6,-0.4,94,11,500,3.704,,,330,,,,,,,,,,,wg-a,,,,AAXX 14034 07299 12/00 33302 10120 20110 39854 40176 58004 60006 80001 90300=
07299,1998-08-14 06:00:00,13,1017.3,-0.1,94,12,500,0,,,0,10.6,22.1,,,,,,,,,wg-a,,,,AAXX 14064 07299 02/00 50000 10130 20120 39852 40173 56001 60006 80002 90600 333 10221 20106 60004=
07299,1998-08-14 09:00:00,20,1016.3,-0.2,60,12,20000,7.408,,,30,,,,,,,,,,,wg-a,,,,AAXX 14094 07299 12670 40304 10200 20120 39850 40163 57002 60006 81102 90900=
07299,1998-08-14 12:00:00,24,1014.7,-1.2,41,10,25000,11.112,,,10,,,,,,,,,,,wg-a,,,,AAXX 14124 07299 12675 /0106 10240 20100 39838 40147 58012 60006 81102 91200=
07299,1998-08-14 15:00:00,25,1013.3,-1.2,32,7,40000,14.816,,,350,,,,,,,,,,,wg-a,,,,AAXX 14154 07299 12782 53508 10250 20070 39826 40133 56012 60006 81102 91500=
07299,1998-08-15 03:00:00,10,1015.6,-0.1,100,10,500,3.704,,,230,,,,,,,,,,,wg-a,,,,AAXX 15034 07299 12/00 52302 10100 20100 39832 40156 58001 60006 80002 90300=
07299,1998-08-15 06:00:00,14,1015.4,0.3,88,12,20000,3.704,,,200,9.8,21.1,,,,,,,,,wg-a,,,,AAXX 15064 07299 02/70 12002 10140 20120 39835 40154 50003 60006 80002 90600 333 10211 20098 60004=
07299,1998-08-15 09:00:00,24,1015.1,0.7,44,11,25000,7.408,,,150,,,,,,,,,,,wg-a,,,,AAXX 15094 07299 12/75 51504 10240 20110 39842 40151 51007 60006 80002 90900=
07299,1998-08-15 12:00:00,28,1014.9,0.3,40,13,500,11.112,,,270,,,,,,,,,,,wg-a,,,,AAXX 15124 07299 12700 72706 10280 20130 39845 40149 51003 60006 81106 91200=
07299,1998-08-15 15:00:00,30,1014.3,-0.4,31,11,45000,11.112,,,270,,,,,,,,,,,wg-a,,,,AAXX 15154 07299 12783 32706 10300 20110 39841 40143 56004 60006 81202 91500=
07299,1998-08-15 18:00:00,27,1015,0.4,42,13,40000,7.408,,,270,14.1,30.4,,,,,,,,,wg-a,,,,AAXX 15184 07299 12/82 22704 10270 20130 39845 40150 53004 60006 80002 91800 333 10304 20141=
07299,1998-08-16 15:00:00,32,1017.1,-0.9,32,13,40000,11.112,,,280,,,,,,,,,,,wg-a,,,,AAXX 16154 07299 12882 12806 10320 20130 39870 40171 58009 60006 81101 91500=
07299,1998-08-16 21:00:00,20,1019,1,73,15,35000,3.704,,,190,,,,,,,,,,,wg-a,,,,AAXX 16214 07299 12/81 21902 10200 20150 39876 40190 51010 60006 80001 92100=
07299,1998-08-17 00:00:00,16,1019.2,-0.2,94,15,25000,7.408,,,140,,,,,,,,,,,wg-a,,,,AAXX 17004 07299 12/75 11404 10160 20150 39874 40192 58002 60006 80001 90000=
07299,1998-08-17 03:00:00,14,1019,-0.4,94,13,25000,0,,,0,,,,,,,,,,,wg-a,,,,AAXX 17034 07299 12/75 10000 10140 20130 39870 40190 56004 60006 80001 90300=
07299,1998-08-17 06:00:00,16,1019.2,0.4,88,14,500,0,,,0,12.7,28,,,,,,,,,wg-a,,,,AAXX 17064 07299 02/00 10000 10160 20140 39874 40192 53004 60006 80001 90600 333 10280 20127 60004=
07299,1998-08-17 09:00:00,25,1018.2,-0.1,50,14,25000,3.704,,,120,,,,,,,,,,,wg-a,,,,AAXX 17094 07299 12675 11202 10250 20140 39874 40182 58001 60006 81101 90900=
07299,1998-08-17 12:00:00,30,1016.4,-1.2,38,14,25000,7.408,,,320,,,,,,,,,,,wg-a,,,,AAXX 17124 07299 12775 /3204 10300 20140 39861 40164 58012 60006 81200 91200=
07299,1998-08-17 15:00:00,32,1014.4,-1.7,29,12,10000,11.112,,,300,,,,,,,,,,,wg-a,,,,AAXX 17154 07299 12/60 /3006 10320 20120 39844 40144 56017 60006 91500=
07299,1998-08-17 18:00:00,28,1013.6,-1.1,55,18,20000,7.408,,,320,15.9,32.4,,,,,,,,,wg-a,,,,AAXX 17184 07299 12770 /3204 10280 20180 39833 40136 56011 60006 81903 91800 333 10324 20159=
07299,1998-08-17 21:00:00,20,1015.6,1,83,17,18000,3.704,,,170,,,,,,,,,,13,wg-a,,,,AAXX 17214 07299 12868 /1702 10200 20170 39843 40156 51010 60006 71311 81901 92100=
07299,1998-08-18 00:00:00,18,1016,0.2,88,16,15000,3.704,,,210,,,,,,,,,,,wg-a,,,,AAXX 18004 07299 12/65 22102 10180 20160 39845 40160 50002 60006 80001 90000=
07299,1998-08-18 03:00:00,19,1015.9,0,83,16,15000,3.704,,,130,,,,,,,,,,,wg-a,,,,AAXX 18034 07299 12/65 01302 10190 20160 39845 40159 50000 60006 80000 90300=
07299,1998-08-18 06:00:00,20,1016.5,0.8,78,16,13000,3.704,,,210,16.8,28,,,,,,,,,wg-a,,,,AAXX 18064 07299 02763 72102 10200 20160 39852 40165 53008 60006 83982 90600 333 10280 20168 60004=
07299,1998-08-18 09:00:00,18,1018.4,1.7,100,18,4000,7.408,,,130,,,,7,,,,,,10,wg-a,,,,AAXX 18094 07299 12540 81304 10180 20180 39869 40184 51017 60077 71098 879// 90900=
07299,1998-08-18 12:00:00,19,1017.7,-0.5,94,18,9000,7.408,,,130,,,,4,,,,,,60,wg-a,,,,AAXX 18124 07299 02259 81304 10190 20180 39864 40177 57005 60116 76098 878// 91200 333 60047=
07299,1998-08-18 15:00:00,23,1016.1,-1.3,69,17,12000,7.408,,,110,,,,,,,,,,21,wg-a,,,,AAXX 18154 07299 02462 71104 10230 20170 39851 40161 56013 61000 72162 8483/ 91500 333 ////=
07299,1998-08-18 18:00:00,21,1016.5,0.2,88,19,12000,7.408,,,110,17.8,22.7,,,,,,,,15,wg-a,,,,AAXX 18184 07299 12562 71104 10210 20190 39853 40165 53002 60006 71562 8683/ 91800 333 10227 20178=
07299,1998-08-18 21:00:00,18,1017.5,0.8,100,18,8000,0,,,0,,,,,,,,,,,wg-a,,,,AAXX 18214 07299 12558 70000 10180 20180 39861 40175 53008 60006 8483/ 92100=
07299,1998-08-19 00:00:00,17,1017.8,0.1,100,17,8000,0,,,0,,,,,,,,,,,wg-a,,,,AAXX 19004 07299 12758 20000 10170 20170 39862 40178 51001 60006 82500 90000=
07299,1998-08-19 03:00:00,15,1018,-0.1,100,15,7000,3.704,,,150,,,,,,,,,,,wg-a,,,,AAXX 19034 07299 12/57 01502 10150 20150 39861 40180 57001 60006 80000 90300=
07299,1998-08-19 06:00:00,16,1018.9,1,100,16,3000,0,,,0,13.8,20.6,,,,,11,,,10,wg-a,,,,AAXX 19064 07299 02130 50000 10160 20160 39871 40189 53010 60006 71011 85600 90600 333 10206 20138 60114=
07299,1998-08-19 09:00:00,21,1018.8,0.4,78,17,9000,7.408,,,30,,,,,,,,,,,wg-a,,,,AAXX 19094 07299 12459 /0304 10210 20170 39876 40188 50004 60006 81100 90900=
07299,1998-08-19 12:00:00,26,1017.6,-0.7,48,14,15000,11.112,,,20,,,,,,,,,,,wg-a,,,,AAXX 19124 07299 12665 /0206 10260 20140 39869 40176 58007 60006 81200 91200=
07299,1998-08-19 15:00:00,28,1016.2,-1.2,42,14,20000,3.704,,,290,,,,,,,,,,,wg-a,,,,AAXX 19154 07299 12770 /2902 10280 20140 39857 40162 57012 60006 81200 91500=
07299,1998-08-19 18:00:00,24,1016.2,-0.3,57,15,20000,11.112,,,350,16.1,28.1,,,,,,,,,wg-a,,,,AAXX 19184 07299 12770 /3506 10240 20150 39854 40162 56003 60006 81100 91800 333 10281 20161=
07299,1998-08-19 21:00:00,17,1017.9,0.8,94,16,20000,3.704,,,270,,,,,,,,,,,wg-a,,,,AAXX 19214 07299 12/70 02702 10170 20160 39863 40179 51008 60006 80000 92100=
07299,1998-08-20 00:00:00,15,1018.2,0,94,14,8000,0,,,0,,,,,,,,,,,wg-a,,,,AAXX 20004 07299 12/58 00000 10150 20140 39863 40182 50000 60006 80000 90000=
07299,1998-08-20 03:00:00,14,1018.1,-0.2,100,14,8000,0,,,0,,,,0,,,,,,,wg-a,,,,AAXX 20034 07299 12758 /0000 10140 20140 39861 40181 56002 60007 81100 90300=
07299,1998-08-20 06:00:00,14,1018.3,0.3,100,14,6000,3.704,,,250,12.7,24.2,,,,,,,,,wg-a,,,,AAXX 20064 07299 02756 22502 10140 20140 39863 40183 53003 60006 81501 90600 333 10242 20127 60004=
07299,1998-08-20 09:00:00,23,1017.5,0.2,61,15,11000,3.704,,,220,,,,,,,,,,,wg-a,,,,AAXX 20094 07299 12761 /2202 10230 20150 39865 40175 51002 60006 81501 90900=
07299,1998-08-20 12:00:00,27,1016,-1.1,42,13,15000,11.112,,,270,,,,,,,,,,,wg-a,,,,AAXX 20124 07299 12665 22706 10270 20130 39854 40160 58011 60006 81201 91200=
07299,1998-08-20 15:00:00,28,1014.9,-1,37,12,20000,22.224,,,280,,,,,,,,,,,wg-a,,,,AAXX 20154 07299 12770 12812 10280 20120 39844 40149 56010 60006 81200 91500=
07299,1998-08-20 18:00:00,25,1014.4,-0.7,54,15,500,7.408,,,270,14.3,28.4,,,,,,,,,wg-a,,,,AAXX 20184 07299 12800 12704 10250 20150 39837 40144 56007 60006 81400 91800 333 10284 20143=
07299,1998-08-20 21:00:00,17,1015.6,0.3,77,13,20000,11.112,,,230,,,,,,,,,,,wg-a,,,,AAXX 20214 07299 12/70 12306 10170 20130 39840 40156 50003 60006 80001 92100=
07299,1998-08-21 00:00:00,17,1015.3,-0.4,72,12,20000,14.816,,,240,,,,,,,,,,,wg-a,,,,AAXX 21004 07299 12/70 32408 10170 20120 39836 40153 57004 60006 80001 90000=
07299,1998-08-21 03:00:00,15,1014.8,-0.6,77,11,20000,7.408,,,200,,,,,,,,,,,wg-a,,,,AAXX 21034 07299 12/70 52004 10150 20110 39830 40148 58006 60006 80002 90300=
07299,1998-08-21 06:00:00,16,1014.2,-0.5,88,14,20000,3.704,,,170,13.6,24.6,,,,,,,,60,wg-a,,,,AAXX 21064 07299 02770 71702 10160 20140 39825 40142 56005 61000 76061 8157/ 90600 333 10246 20136 6100=
07299,1998-08-21 09:00:00,18,1014.3,0.4,73,13,16000,14.816,,,250,,,,,,,,,,60,wg-a,,,,AAXX 21094 07299 02666 82508 10180 20130 39829 40143 53004 61000 76062 8687/ 90900 333 ////=
07299,1998-08-21 12:00:00,18,1013.4,-0.8,73,13,17000,11.112,,,210,,,,1,,,,,,21,wg-a,,,,AAXX 21124 07299 02467 82106 10180 20130 39820 40134 58008 60016 72162 8587/ 91200 333 60017=
07299,1998-08-21 15:00:00,16,1014,0.2,82,13,15000,11.112,,,230,,,,,,,,,,21,wg-a,,,,AAXX 21154 07299 02465 72306 10160 20130 39823 40140 50002 61000 72165 878// 91500 333 ////=
07299,1998-08-21 18:00:00,18,1012.2,-1.5,73,13,18000,29.632,,,240,15.5,18.4,,,,,,,,1,wg-a,,,,AAXX 21184 07299 02468 72416 10180 20130 39808 40122 58015 60006 70165 8683/ 91800 333 10184 20155 61000=
07299,1998-08-21 21:00:00,18,1012,0,83,15,25000,22.224,,,230,,,,,,,,,,,wg-a,,,,AAXX 21214 07299 12575 72312 10180 20150 39807 40120 50000 60006 878// 92100=
07299,1998-08-22 00:00:00,17,1012.1,-0.1,94,16,25000,22.224,,,250,,,,5,,,,,,,wg-a,,,,AAXX 22004 07299 02275 72512 10170 20160 39806 40121 55001 60056 878// 90000 333 60057=
07299,1998-08-22 03:00:00,17,1012.8,0.7,88,15,25000,22.224,,,250,,,,0,,,,,,,wg-a,,,,AAXX 22034 07299 12375 72512 10170 20150 39813 40128 53007 60007 868// 90300=
07299,1998-08-22 06:00:00,16,1014.8,1.8,82,13,500,14.816,,,260,15.5,18.5,,,,,6,,,1,wg-a,,,,AAXX 22064 07299 02500 /2608 10160 20130 39831 40148 53018 60006 70161 83870 90600 333 10185 20155 60064=
07299,1998-08-22 09:00:00,19,1015,0.5,64,12,35000,22.224,,,250,,,,,,,,,,,wg-a,,,,AAXX 22094 07299 12581 72512 10190 20120 39836 40150 51005 60006 83271 90900=
07299,1998-08-22 12:00:00,19,1014.3,-0.7,60,11,50000,22.224,,,260,,,,,,,,,,,wg-a,,,,AAXX 22124 07299 12684 72612 10190 20110 39829 40143 55007 60006 8217/ 91200=
07299,1998-08-22 15:00:00,16,1012.8,-1.7,94,15,22000,7.408,,,210,,,,0,,,,,,60,wg-a,,,,AAXX 22154 07299 12572 72104 10160 20150 39812 40128 58017 60007 76062 8687/ 91500=
07299,1998-08-22 18:00:00,16,1010.7,-2,94,15,16000,7.408,,,130,15.6,20,,,,,,,,21,wg-a,,,,AAXX 22184 07299 02466 71304 10160 20150 39792 40107 56020 61000 72162 878// 91800 333 10200 20156 6001=
07299,1998-08-23 00:00:00,15,1014.8,3.7,100,15,10000,11.112,,,310,,,,10,,,,,,0,wg-a,,,,AAXX 23004 07299 02460 73106 10150 20150 39831 40148 51037 60106 70062 878// 90000 333 60107=
07299,1998-08-23 03:00:00,13,1017.2,2,94,12,10000,11.112,,,250,,,,,,,,,,,wg-a,,,,AAXX 23034 07299 12360 /2506 10130 20120 39851 40172 51020 60006 83801 90300=
07299,1998-08-23 06:00:00,13,1018.6,1.4,94,12,10000,3.704,,,220,11.4,18.5,,,,,11,,,,wg-a,,,,AAXX 23064 07299 02160 52202 10130 20120 39865 40186 51014 60006 81802 90600 333 10185 20114 60114=
07299,1998-08-23 09:00:00,17,1018.9,0.8,72,12,25000,7.408,,,290,,,,,,,,,,,wg-a,,,,AAXX 23094 07299 12475 /2904 10170 20120 39872 40189 53008 60006 82201 90900=
07299,1998-08-23 12:00:00,21,1018,-0.6,49,10,500,11.112,,,290,,,,,,,,,,,wg-a,,,,AAXX 23124 07299 12600 22906 10210 20100 39867 40180 58006 60006 81201 91200=
07299,1998-08-23 15:00:00,22,1016.2,-1.5,50,11,40000,14.816,,,280,,,,,,,,,,,wg-a,,,,AAXX 23154 07299 12682 /2808 10220 20110 39851 40162 58015 60006 81102 91500=
07299,1998-08-23 18:00:00,19,1015.6,-0.9,64,12,60000,11.112,,,290,13.1,22.5,,,,,,,,,wg-a,,,,AAXX 23184 07299 12/86 62906 10190 20120 39842 40156 56009 60006 81072 91800 333 10225 20131=
07299,1998-08-23 21:00:00,13,1016.5,0.2,94,12,25000,7.408,,,170,,,,,,,,,,,wg-a,,,,AAXX 23214 07299 12/75 21704 10130 20120 39844 40165 50002 60006 80001 92100=
07299,1998-08-24 00:00:00,16,1014.2,-1.8,77,12,25000,11.112,,,110,,,,,,,,,,,wg-a,,,,AAXX 24004 07299 12775 51106 10160 20120 39826 40142 58018 60006 81570 90000=
07299,1998-08-24 03:00:00,19,1011.8,-2,64,12,25000,14.816,,,230,,,,,,,,,,,wg-a,,,,AAXX 24034 07299 12/75 62308 10190 20120 39805 40118 58020 60006 86070 90300=
07299,1998-08-24 06:00:00,18,1011.7,-0,77,14,7000,18.52,,51.856,240,13,19.5,,,,,,,,60,wg-a,,,,AAXX 24064 07299 02657 72410 10180 20140 39804 40117 55000 61000 76062 8587/ 90600 333 10195 20130 6000 91028=
07299,1998-08-24 09:00:00,17,1012.1,0.1,94,16,7000,18.52,,,230,,,,4,,,,,,61,wg-a,,,,AAXX 24094 07299 12557 82310 10170 20160 39806 40121 53001 60047 76166 8687/ 90900=
07299,1998-08-24 12:00:00,15,1014.4,2,88,13,10000,18.52,,,260,,,,4,,,,,,60,wg-a,,,,AAXX 24124 07299 02460 82610 10150 20130 39826 40144 51020 60086 76066 878// 91200 333 60047=
07299,1998-08-24 15:00:00,18,1015.7,1.6,73,13,25000,25.928,,,240,,,,0,,,,,,1,wg-a,,,,AAXX 24154 07299 12575 62414 10180 20130 39842 40157 51016 60007 70162 84832 91500=
07299,1998-08-24 18:00:00,16,1017.4,1.4,88,14,8000,11.112,,,230,14.5,18,,,,,,,,15,wg-a,,,,AAXX 24184 07299 12558 72306 10160 20140 39856 40174 53014 60006 71562 8683/ 91800 333 10180 20145=
07299,1998-08-24 21:00:00,14,1019.7,2.1,94,13,15000,3.704,,,260,,,,2,,,,,,25,wg-a,,,,AAXX 24214 07299 12565 52602 10140 20130 39876 40197 51021 60027 72586 85800 92100=
07299,1998-08-25 00:00:00,14,1020.1,0.4,94,13,20000,11.112,,,260,,,,,,,,,,1,wg-a,,,,AAXX 25004 07299 12670 32606 10140 20130 39880 40201 51004 60026 70186 83500 90000=
07299,1998-08-25 03:00:00,13,1020.9,0.7,100,13,11000,0,,,0,,,,,,,,,,,wg-a,,,,AAXX 25034 07299 12/61 /0000 10130 20130 39887 40209 51007 60006 90300=
07299,1998-08-25 06:00:00,14,1021.4,0.6,94,13,12000,3.704,,,190,13,15.9,,,,,11,,,,wg-a,,,,AAXX 25064 07299 02562 /1902 10140 20130 39893 40214 53006 60006 85800 90600 333 10159 20130 60114=
07299,1998-08-25 09:00:00,17,1021.8,0.7,77,13,15000,3.704,,,40,,,,,,,,,,,wg-a,,,,AAXX 25094 07299 12465 60402 10170 20130 39900 40218 53007 60006 86800 90900=
07299,1998-08-25 12:00:00,20,1020.5,-0.9,53,10,18000,7.408,,,320,,,,,,,,,,,wg-a,,,,AAXX 25124 07299 12568 43204 10200 20100 39891 40205 58009 60006 84800 91200=
07299,1998-08-25 15:00:00,22,1019.7,-0.7,53,12,20000,11.112,,,340,,,,,,,,,,,wg-a,,,,AAXX 25154 07299 12670 23406 10220 20120 39884 40197 57007 60006 82800 91500=
07299,1998-08-25 18:00:00,19,1019.3,-0.6,60,11,500,7.408,,,20,13.9,21.9,,,,,,,,,wg-a,,,,AAXX 25184 07299 12600 /0204 10190 20110 39878 40193 55006 60006 81800 91800 333 10219 20139=
07299,1998-08-25 21:00:00,12,1020.8,0.7,100,12,23000,3.704,,,180,,,,,,,,,,,wg-a,,,,AAXX 25214 07299 12773 /1802 10120 20120 39885 40208 51007 60006 81500 92100=
07299,1998-08-26 00:00:00,10,1020.9,-0.2,93,9,20000,0,,,0,,,,,,,,,,,wg-a,,,,AAXX 26004 07299 12/70 00000 10100 20090 39883 40209 58002 60006 80000 90000=
07299,1998-08-26 03:00:00,9,1019.9,-1,100,9,8000,7.408,,,180,,,,,,,,,,,wg-a,,,,AAXX 26034 07299 12/58 01804 10090 20090 39873 40199 56010 60006 80000 90300=
07299,1998-08-26 06:00:00,11,1019,-0.6,100,11,12000,7.408,,,180,8.6,19.2,,,,,,,,,wg-a,,,,AAXX 26064 07299 02/62 01804 10110 20110 39867 40190 56006 60006 80000 90600 333 10192 20086 60004=
07299,1998-08-26 09:00:00,19,1017.3,-0.9,60,11,25000,3.704,,,120,,,,,,,,,,,wg-a,,,,AAXX 26094 07299 12575 /1202 10190 20110 39858 40173 58009 60006 81100 90900=
07299,1998-08-26 12:00:00,23,1015.5,-1.3,47,11,25000,18.52,,,260,,,,,,,,,,,wg-a,,,,AAXX 26124 07299 12675 22610 10230 20110 39845 40155 56013 60006 82100 91200=
07299,1998-08-26 15:00:00,24,1013.7,-1.8,44,11,500,22.224,,,270,,,,,,,,,,,wg-a,,,,AAXX 26154 07299 12700 /2712 10240 20110 39828 40137 56018 60006 81100 91500=
07299,1998-08-26 18:00:00,21,1013.8,-0.1,60,13,25000,7.408,,,260,11.5,24,,,,,,,,,wg-a,,,,AAXX 26184 07299 12675 /2604 10210 20130 39826 40138 58001 60006 81800 91800 333 10240 20115=
07299,1998-08-26 21:00:00,14,1015.1,0.6,94,13,18000,7.408,,,210,,,,,,,,,,,wg-a,,,,AAXX 26214 07299 12668 22104 10140 20130 39832 40151 50006 60006 82800 92100=
07299,1998-08-27 00:00:00,15,1015.1,0.1,82,12,18000,7.408,,,250,,,,,,,,,,,wg-a,,,,AAXX 27004 07299 12668 32504 10150 20120 39833 40151 52001 60006 83800 90000=
07299,1998-08-27 03:00:00,15,1015.1,-0,82,12,15000,14.816,,,270,,,,,,,,,,,wg-a,,,,AAXX 27034 07299 12665 52708 10150 20120 39833 40151 55000 60006 85800 90300=
07299,1998-08-27 06:00:00,13,1016.7,1.3,88,11,12000,14.816,,,320,12.4,20.5,,,,,,,,,wg-a,,,,AAXX 27064 07299 02562 73208 10130 20110 39846 40167 53013 60006 875// 90600 333 10205 20124 60004=
07299,1998-08-27 09:00:00,13,1017.7,1,88,11,12000,14.816,,,340,,,,0,,,,,,,wg-a,,,,AAXX 27094 07299 12462 73408 10130 20110 39856 40177 53010 60007 878// 90900=
07299,1998-08-27 12:00:00,16,1017.5,0.1,59,8,18000,18.52,,,340,,,,,,,,,,,wg-a,,,,AAXX 27124 07299 12568 73410 10160 20080 39856 40175 51001 60006 878// 91200=
07299,1998-08-27 15:00:00,16,1017.7,0.2,51,6,25000,14.816,,,340,,,,,,,,,,,wg-a,,,,AAXX 27154 07299 12675 73408 10160 20060 39859 40177 52002 60006 878// 91500=
07299,1998-08-27 18:00:00,15,1018.5,0.6,55,6,500,7.408,,,20,12.1,16.8,,,,,,,,,wg-a,,,,AAXX 27184 07299 12500 70204 10150 20060 39865 40185 53006 60006 878// 91800 333 10168 20121=
07299,1998-08-27 21:00:00,8,1020.5,1.3,93,7,35000,11.112,,,320,,,,,,,,,,,wg-a,,,,AAXX 27214 07299 12781 /3206 10080 20070 39877 40205 51013 60006 81500 92100=
07299,1998-08-28 00:00:00,7,1020.7,0.1,100,7,25000,7.408,,,240,,,,,,,,,,,wg-a,,,,AAXX 28004 07299 12775 42404 10070 20070 39878 40207 52001 60006 845/0 90000=
07299,1998-08-28 03:00:00,5,1020.9,-0.1,100,5,25000,3.704,,,280,,,,,,,,,,,wg-a,,,,AAXX 28034 07299 12775 12802 10050 20050 39877 40209 55001 60006 81500 90300=
07299,1998-08-28 06:00:00,8,1021.3,0.7,93,7,20000,3.704,,,340,4.6,14.7,,,,,,,,,wg-a,,,,AAXX 28064 07299 02770 13402 10080 20070 39884 40213 53007 60006 81500 90600 333 10147 20046 60004=
07299,1998-08-28 09:00:00,14,1020.7,0.1,67,8,20000,11.112,,,10,,,,,,,,,,,wg-a,,,,AAXX 28094 07299 12570 30106 10140 20080 39885 40207 52001 60006 83800 90900=
07299,1998-08-28 12:00:00,17,1019.3,-1.1,45,5,40000,11.112,,,350,,,,,,,,,,,wg-a,,,,AAXX 28124 07299 12682 53506 10170 20050 39875 40193 57011 60006 85800 91200=
07299,1998-08-28 15:00:00,16,1019.2,-0.1,48,5,40000,14.816,,,340,,,,,,,,,,,wg-a,,,,AAXX 28154 07299 12782 53408 10160 20050 39874 40192 55001 60006 85800 91500=
07299,1998-08-28 18:00:00,13,1020.1,0.6,67,7,40000,7.408,,,340,7.8,18.7,,,,,,,,,wg-a,,,,AAXX 28184 07299 12782 43404 10130 20070 39878 40201 53006 60006 84800 91800 333 10187 20078=
07299,1998-08-28 21:00:00,12,1021.3,1,71,7,25000,7.408,,,340,,,,,,,,,,,wg-a,,,,AAXX 28214 07299 12775 33404 10120 20070 39889 40213 51010 60006 83500 92100=
07299,1998-08-29 00:00:00,8,1021.4,-0.3,100,8,25000,3.704,,,310,,,,,,,,,,,wg-a,,,,AAXX 29004 07299 12775 53102 10080 20080 39886 40214 58003 60006 855/0 90000=
07299,1998-08-29 03:00:00,9,1020.9,-0,93,8,12000,0,,,0,,,,,,,,,,,wg-a,,,,AAXX 29034 07299 12762 /0000 10090 20080 39882 40209 54000 60006 84500 90300=
07299,1998-08-29 06:00:00,9,1021.3,0.3,93,8,15000,3.704,,,280,7.4,13.1,,,,,,,,,wg-a,,,,AAXX 29064 07299 02565 72802 10090 20080 39885 40213 53003 60006 878// 90600 333 10131 20074 60004=
07299,1998-08-29 09:00:00,15,1021.2,0.5,67,9,13000,11.112,,,20,,,,,,,,,,,wg-a,,,,AAXX 29094 07299 12563 /0206 10150 20090 39891 40212 53005 60006 84830 90900=
07299,1998-08-29 12:00:00,16,1020.5,-0.6,48,5,18000,14.816,,,350,,,,,,,,,,,wg-a,,,,AAXX 29124 07299 12568 /3508 10160 20050 39885 40205 58006 60006 86800 91200=
07299,1998-08-29 15:00:00,17,1019.6,-0.7,48,6,25000,7.408,,,360,,,,,,,,,,,wg-a,,,,AAXX 29154 07299 12675 63604 10170 20060 39878 40196 58007 60006 86800 91500=
07299,1998-08-29 18:00:00,13,1020.3,0.3,62,6,20000,11.112,,,340,8.7,17.8,,,,,,,,,wg-a,,,,AAXX 29184 07299 12770 23406 10130 20060 39881 40203 53003 60006 82500 91800 333 10178 20087=
07299,1998-08-29 21:00:00,8,1021.6,0.7,87,6,11000,7.408,,,300,,,,,,,,,,,wg-a,,,,AAXX 29214 07299 12/61 /3004 10080 20060 39888 40216 51007 60006 92100=
07299,1998-08-30 00:00:00,5,1021.8,-0.2,100,5,20000,3.704,,,280,,,,,,,,,,,wg-a,,,,AAXX 30004 07299 12/70 02802 10050 20050 39886 40218 58002 60006 80000 90000=
07299,1998-08-30 03:00:00,4,1021.4,-0.5,100,4,10000,3.704,,,200,,,,,,,,,,,wg-a,,,,AAXX 30034 07299 12/60 /2002 10040 20040 39881 40214 56005 60006 90300=
07299,1998-08-30 06:00:00,7,1021.5,0.4,100,7,12000,3.704,,,220,3.6,13.1,,,,,,,,,wg-a,,,,AAXX 30064 07299 02/62 72202 10070 20070 39885 40215 53004 60006 8707/ 90600 333 10131 20036 60004=
07299,1998-08-30 09:00:00,14,1020.9,0.3,67,8,13000,3.704,,,220,,,,,,,,,,,wg-a,,,,AAXX 30094 07299 12763 52202 10140 20080 39888 40209 52003 60006 81131 90900=
07299,1998-08-30 12:00:00,19,1019.2,-1.1,49,8,20000,3.704,,,270,,,,,,,,,,,wg-a,,,,AAXX 30124 07299 12770 32702 10190 20080 39877 40192 58011 60006 82131 91200=
07299,1998-08-30 15:00:00,20,1018,-1.1,40,6,25000,7.408,,,310,,,,,,,,,,,wg-a,,,,AAXX 30154 07299 12775 63104 10200 20060 39866 40180 56011 60006 81131 91500=
07299,1998-08-30 18:00:00,17,1018.4,0.1,55,8,500,11.112,,,350,6.6,20.7,,,,,,,,,wg-a,,,,AAXX 30184 07299 12800 13506 10170 20080 39867 40184 51001 60006 81430 91800 333 10207 20066=
07299,1998-08-30 21:00:00,9,1019.8,0.4,93,8,20000,3.704,,,210,,,,,,,,,,,wg-a,,,,AAXX 30214 07299 12/70 12102 10090 20080 39871 40198 51004 60006 80001 92100=
07299,1998-08-31 00:00:00,6,1019.8,-0.3,100,6,18000,3.704,,,270,,,,,,,,,,,wg-a,,,,AAXX 31004 07299 12/68 12702 10060 20060 39868 40198 58003 60006 80001 90000=
07299,1998-08-31 03:00:00,6,1019.1,-0.7,100,6,12000,3.704,,,200,,,,,,,,,,,wg-a,,,,AAXX 31034 07299 12/62 12002 10060 20060 39861 40191 56007 60006 80001 90300=
07299,1998-08-31 06:00:00,8,1018.5,-0.3,100,8,20000,7.408,,,200,5.7,16.7,,,,,,,,,wg-a,,,,AAXX 31064 07299 02/70 02004 10080 20080 39858 40185 56003 60006 80000 90600 333 10167 20057 60004=
07299,1998-08-31 09:00:00,17,1017.3,-0.2,59,9,500,3.704,,,40,,,,,,,,,,,wg-a,,,,AAXX 31094 07299 12/00 00402 10170 20090 39856 40173 57002 60006 80000 90900=
07299,1998-08-31 12:00:00,22,1015.3,-1.4,43,9,500,7.408,,,280,,,,,,,,,,,wg-a,,,,AAXX 31124 07299 12600 /2804 10220 20090 39842 40153 56014 60006 81101 91200=
07299,1998-08-31 15:00:00,24,1014.1,-1,36,8,11000,3.704,,,300,,,,,,,,,,,wg-a,,,,AAXX 31154 07299 12/61 /3002 10240 20080 39832 40141 56010 60006 91500=
07299,1998-08-31 18:00:00,20,1014.4,-0.1,56,11,40000,7.408,,,360,8.2,24.3,,,,,,,,,wg-a,,,,AAXX 31184 07299 12682 33604 10200 20110 39831 40144 56001 60006 81101 91800 333 10243 20082=
07299,1998-08-31 21:00:00,11,1016,0.6,94,10,500,3.704,,,240,,,,,,,,,,,wg-a,,,,AAXX 31214 07299 12/00 02402 10110 20100 39837 40160 51006 60006 80000 92100=
07299,1998-09-01 00:00:00,8,1016.7,0.4,100,8,500,3.704,,,200,,,,,,,,,,,wg-a,,,,AAXX 01004 07299 12/00 22002 10080 20080 39841 40167 51004 60006 80001 90000=
07299,1998-09-01 03:00:00,8,1016.5,-0.2,100,8,500,3.704,,,320,,,,,,,,,,,wg-a,,,,AAXX 01034 07299 12800 43202 10080 20080 39839 40165 55002 60006 84501 90300=
07299,1998-09-01 06:00:00,11,1016.8,0.6,100,11,20000,3.704,,,300,8,19.6,,,,,,,,,wg-a,,,,AAXX 01064 07299 02770 73002 10110 20110 39845 40168 53006 60006 8457/ 90600 333 10196 20080 60004=
07299,1998-09-01 09:00:00,16,1016.5,0.3,82,13,16000,7.408,,,300,,,,,,,,,,,wg-a,,,,AAXX 01094 07299 12766 73004 10160 20130 39848 40165 52003 60006 8657/ 90900=
07299,1998-09-01 12:00:00,22,1015.1,-0.7,57,13,17000,11.112,,,100,,,,,,,,,,,wg-a,,,,AAXX 01124 07299 12767 71006 10220 20130 39841 40151 58007 60006 81431 91200=
07299,1998-09-01 15:00:00,22,1015.6,0.5,69,16,17000,3.704,,,290,,,,,,,,,,,wg-a,,,,AAXX 01154 07299 12567 82902 10220 20160 39846 40156 53005 60006 8347/ 91500=
07299,1998-09-01 18:00:00,20,1015.8,-0.2,88,18,12000,11.112,,,150,11.5,24,,0,,,,,,0,wg-a,,,,AAXX 01184 07299 02/62 71506 10200 20180 39845 40158 58002 60006 7//22 8/071 91800 333 10240 20115 60007=
07299,1998-09-01 21:00:00,16,1016.9,0.6,94,15,12000,3.704,,,230,,,,,,,,,,,wg-a,,,,AAXX 01214 07299 12/62 32302 10160 20150 39851 40169 51006 60006 83071 92100=
07299,1998-09-02 00:00:00,15,1017,0,100,15,8000,11.112,,,170,,,,,,,,,,,wg-a,,,,AAXX 02004 07299 12/58 31706 10150 20150 39851 40170 50000 60006 83071 90000=
07299,1998-09-02 03:00:00,15,1016.6,-0.3,100,15,500,11.112,,,180,,,,,,,,,,,wg-a,,,,AAXX 02034 07299 12/00 /1806 10150 20150 39848 40166 56003 60006 86070 90300=
07299,1998-09-02 06:00:00,16,1016.2,-0.3,100,16,3500,7.408,,,180,13.4,20.2,,,,,,,,10,wg-a,,,,AAXX 02064 07299 02/35 71804 10160 20160 39845 40162 55003 60006 71011 85072 90600 333 10202 20134 60004=
07299,1998-09-02 09:00:00,21,1015.6,-0,78,17,9000,0,,,0,,,,,,,,,,,wg-a,,,,AAXX 02094 07299 12/59 70000 10210 20170 39845 40156 55000 60006 82082 90900=
07299,1998-09-02 12:00:00,25,1013.9,-1.2,61,17,12000,7.408,,,70,,,,,,,,,,,wg-a,,,,AAXX 02124 07299 12762 70704 10250 20170 39833 40139 56012 60006 81282 91200=
07299,1998-09-02 15:00:00,22,1013.7,-0.5,88,20,4000,14.816,,,70,,,,1,,,,,,16,wg-a,,,,AAXX 02154 07299 12740 70708 10220 20200 39827 40137 58005 60017 71686 82972 91500=
07299,1998-09-02 18:00:00,22,1013,-0.5,78,18,15000,7.408,,,70,16.3,26.4,,,,,,,,1,wg-a,,,,AAXX 02184 07299 12765 70704 10220 20180 39821 40130 58005 60006 70186 8159/ 91800 333 10264 20163=
07299,1998-09-02 21:00:00,18,1014,0.4,100,18,2000,0,,,0,,,,,,,,,,10,wg-a,,,,AAXX 02214 07299 12120 70000 10180 20180 39826 40140 50004 60006 71022 84731 92100=
07299,1998-09-03 00:00:00,18,1013.5,-0.5,100,18,200,3.704,,,290,,,,,,,,,,47,wg-a,,,,AAXX 03004 07299 12/02 92902 10180 20180 39821 40135 58005 60006 74742 89/// 90000=
07299,1998-09-03 03:00:00,18,1014.2,0.8,100,18,2500,7.408,,,110,,,,3,,,,,,10,wg-a,,,,AAXX 03034 07299 12225 81104 10180 20180 39828 40142 53008 60037 71086 879// 90300=
07299,1998-09-03 06:00:00,18,1014.4,0.1,100,18,4500,7.408,,,180,17,22.2,,,,,,,,10,wg-a,,,,AAXX 03064 07299 02245 81804 10180 20180 39830 40144 53001 61000 71098 8542/ 90600 333 10222 20170 6004=
07299,1998-09-03 09:00:00,18,1015.4,1,94,17,15000,7.408,,,210,,,,4,,,,,,61,wg-a,,,,AAXX 03094 07299 12465 82104 10180 20170 39840 40154 53010 60047 76162 8582/ 90900=
07299,1998-09-03 12:00:00,21,1014.1,-0.9,78,17,11000,3.704,,,300,,,,,,,,,,,wg-a,,,,AAXX 03124 07299 12/61 /3002 10210 20170 39830 40141 56009 60056 91200=
07299,1998-09-03 15:00:00,21,1014.7,0.6,69,15,20000,18.52,,,280,,,,4,,,,,,1,wg-a,,,,AAXX 03154 07299 12570 52810 10210 20150 39836 40147 52006 60047 70186 84802 91500=
07299,1998-09-03 18:00:00,17,1016.3,1.1,82,14,20000,7.408,,,250,17.4,22.9,,,,,,,,1,wg-a,,,,AAXX 03184 07299 12570 22504 10170 20140 39847 40163 51011 60006 70186 81802 91800 333 10229 20174=
07299,1998-09-04 00:00:00,12,1016.9,-0.6,100,12,15000,3.704,,,160,,,,,,,,,,,wg-a,,,,AAXX 04004 07299 12665 21602 10120 20120 39847 40169 58006 60006 82500 90000=
07299,1998-09-04 03:00:00,10,1016.2,-0.9,100,10,15000,0,,,0,,,,,,,,,,,wg-a,,,,AAXX 04034 07299 12265 10000 10100 20100 39838 40162 57009 60006 81600 90300=
07299,1998-09-04 06:00:00,12,1015.3,-0.6,100,12,900,7.408,,,170,9.1,17.3,,,,,9,,,41,wg-a,,,,AAXX 04064 07299 02109 71704 10120 20120 39832 40153 56006 60006 74141 876// 90600 333 10173 20091 60094=
07299,1998-09-04 09:00:00,19,1013.6,-0.9,78,15,15000,7.408,,,130,,,,,,,,,,1,wg-a,,,,AAXX 04094 07299 12465 41304 10190 20150 39823 40136 57009 60006 70141 81101 90900=
07299,1998-09-04 12:00:00,22,1010.9,-2.3,65,15,25000,7.408,,,70,,,,,,,,,,3,wg-a,,,,AAXX 04124 07299 12675 /0704 10220 20150 39800 40109 56023 60006 70341 81134 91200=
07299,1998-09-04 15:00:00,21,1009.2,-1.7,73,16,25000,7.408,,,60,,,,0,,,,,,21,wg-a,,,,AAXX 04154 07299 12775 70604 10210 20160 39783 40092 58017 60007 72162 81532 91500=
07299,1998-09-04 18:00:00,19,1008.1,-1.3,88,17,20000,7.408,,,120,12.3,22.9,,0,,,,,,2,wg-a,,,,AAXX 04184 07299 02770 71204 10190 20170 39770 40081 56013 60006 70262 8453/ 91800 333 10229 20123 60007=
07299,1998-09-04 21:00:00,18,1008.5,0.2,94,17,10000,7.408,,,170,,,,2,,,,,,61,wg-a,,,,AAXX 04214 07299 12460 81704 10180 20170 39772 40085 50002 60027 76162 8687/ 92100=
07299,1998-09-05 00:00:00,17,1007,-1.5,100,17,10000,11.112,,,110,,,,5,,,,,,61,wg-a,,,,AAXX 05004 07299 02560 81106 10170 20170 39757 40070 58015 60076 76162 878// 90000 333 60057=
07299,1998-09-05 03:00:00,15,1007.8,0.6,94,14,7000,14.816,,,260,,,,5,,,,,,61,wg-a,,,,AAXX 05034 07299 12457 82608 10150 20140 39763 40078 53006 60057 76166 878// 90300=
07299,1998-09-05 06:00:00,15,1009,1.1,100,15,4000,3.704,,,260,14.9,19.1,,,,,,,,63,wg-a,,,,AAXX 05064 07299 02240 82602 10150 20150 39774 40090 53011 61000 76366 878// 90600 333 10191 20149 6019=
07299,1998-09-05 09:00:00,17,1010.8,2,82,14,15000,14.816,,,260,,,,0,,,,,,3,wg-a,,,,AAXX 05094 07299 12565 /2608 10170 20140 39794 40108 51020 60007 70362 84802 90900=
07299,1998-09-05 12:00:00,20,1010.2,-0.4,64,13,500,22.224,,,270,,,,,,,,,,3,wg-a,,,,AAXX 05124 07299 02500 52712 10200 20130 39791 40102 58004 60006 70386 83202 91200 333 61000=
07299,1998-09-05 15:00:00,16,1011.4,0.8,94,15,12000,7.408,,,340,,,,4,,,,,,80,wg-a,,,,AAXX 05154 07299 12562 73404 10160 20150 39798 40114 53008 60047 78086 879// 91500=
07299,1998-09-05 18:00:00,16,1012.2,0.7,88,14,20000,7.408,,,250,14.9,21.5,,,,,,,,60,wg-a,,,,AAXX 05184 07299 02570 72504 10160 20140 39806 40122 53007 61000 76086 878// 91800 333 10215 20149 6001=
07299,1998-09-05 21:00:00,15,1013.5,1.2,88,13,20000,0,,,0,,,,,,,,,,2,wg-a,,,,AAXX 05214 07299 02570 70000 10150 20130 39817 40135 51012 61000 70262 878// 92100 333 ////=
07299,1998-09-06 00:00:00,15,1013.5,0,94,14,20000,3.704,,,190,,,,0,,,,,,0,wg-a,,,,AAXX 06004 07299 02570 61902 10150 20140 39817 40135 50000 60006 70062 85830 90000 333 60007=
07299,1998-09-06 03:00:00,15,1013.7,0.2,94,14,20000,7.408,,,230,,,,0,,,,,,2,wg-a,,,,AAXX 06034 07299 12570 /2304 10150 20140 39819 40137 51002 60007 70262 86830 90300=
07299,1998-09-06 06:00:00,15,1014.1,0.4,88,13,18000,11.112,,,260,13.8,16,,,,,5,,,2,wg-a,,,,AAXX 06064 07299 02468 72606 10150 20130 39823 40141 53004 60006 70262 878// 90600 333 10160 20138 60054=
07299,1998-09-06 09:00:00,17,1014.4,0.6,77,13,500,14.816,,,240,,,,,,,,,,,wg-a,,,,AAXX 06094 07299 12500 42408 10170 20130 39829 40144 53006 60006 84231 90900=
07299,1998-09-06 12:00:00,20,1012.8,-1.3,64,13,500,11.112,,,250,,,,,,,,,,,wg-a,,,,AAXX 06124 07299 12500 32506 10200 20130 39816 40128 57013 60006 82231 91200=
07299,1998-09-06 15:00:00,21,1011.3,-1.3,56,12,500,14.816,,,290,,,,,,,,,,,wg-a,,,,AAXX 06154 07299 12600 22908 10210 20120 39803 40113 56013 60006 82801 91500=
07299,1998-09-06 18:00:00,17,1011.3,-0.5,82,14,500,7.408,,,260,14.6,21.4,,,,,,,,,wg-a,,,,AAXX 06184 07299 12600 72604 10170 20140 39798 40113 58005 60006 83532 91800 333 10214 20146=
07299,1998-09-06 21:00:00,14,1011.6,-0.1,94,13,20000,3.704,,,160,,,,,,,,,,,wg-a,,,,AAXX 06214 07299 12/70 41602 10140 20130 39797 40116 58001 60006 81032 92100=
07299,1998-09-07 00:00:00,12,1010.1,-1.5,100,12,20000,7.408,,,170,,,,,,,,,,,wg-a,,,,AAXX 07004 07299 12/70 31704 10120 20120 39782 40101 58015 60006 82032 90000=
07299,1998-09-07 03:00:00,11,1009.3,-0.9,100,11,20000,3.704,,,280,,,,,,,,,,,wg-a,,,,AAXX 07034 07299 12/70 72802 10110 20110 39773 40093 58009 60006 8703/ 90300=
07299,1998-09-07 06:00:00,12,1008.7,-0.6,100,12,20000,3.704,,,300,11.1,16.6,,,,,,,,,wg-a,,,,AAXX 07064 07299 02770 73002 10120 20120 39767 40087 56006 60006 8157/ 90600 333 10166 20111 60004=
07299,1998-09-07 09:00:00,16,1009.1,0.9,82,13,20000,3.704,,,190,,,,,,,,,,,wg-a,,,,AAXX 07094 07299 12770 71902 10160 20130 39776 40091 53009 60006 8657/ 90900=
07299,1998-09-07 12:00:00,16,1008.6,-0.5,88,14,25000,3.704,,,80,,,,4,,,,,,21,wg-a,,,,AAXX 07124 07299 02475 70802 10160 20140 39771 40086 58005 60046 72162 8587/ 91200 333 60047=
07299,1998-09-07 15:00:00,19,1007.7,-0.5,73,14,20000,3.704,,,310,,,,,,,,,,,wg-a,,,,AAXX 07154 07299 12570 73102 10190 20140 39766 40077 58005 60006 84832 91500=
07299,1998-09-07 18:00:00,16,1007.9,-0.1,94,15,25000,7.408,,,350,11.6,19.6,,,,,,,,,wg-a,,,,AAXX 07184 07299 12575 73504 10160 20150 39765 40079 57001 60006 82832 91800 333 10196 20116=
07299,1998-09-08 00:00:00,13,1010.4,0.6,100,13,7000,3.704,,,260,,,,,,,,,,,wg-a,,,,AAXX 08004 07299 12/57 72602 10130 20130 39785 40104 51006 60006 82032 90000=
07299,1998-09-08 03:00:00,14,1010.8,0.5,100,14,8000,0,,,0,,,,,,,,,,,wg-a,,,,AAXX 08034 07299 12458 70000 10140 20140 39790 40108 51005 60006 83532 90300=
07299,1998-09-08 06:00:00,14,1012.4,1.6,100,14,500,0,,,0,12.6,16.1,,,,,4,,,,wg-a,,,,AAXX 08064 07299 02200 60000 10140 20140 39806 40124 53016 60006 85801 90600 333 10161 20126 60044=
07299,1998-09-08 09:00:00,19,1012.7,0.8,78,15,17000,14.816,,,270,,,,,,,,,,,wg-a,,,,AAXX 08094 07299 12567 32708 10190 20150 39814 40127 51008 60006 83800 90900=
07299,1998-09-08 12:00:00,21,1012.3,-0.3,64,14,500,14.816,,,270,,,,,,,,,,,wg-a,,,,AAXX 08124 07299 12500 32708 10210 20140 39812 40123 58003 60006 82250 91200=
07299,1998-09-08 15:00:00,22,1012.3,0.2,57,13,25000,18.52,,,280,,,,,,,,,,,wg-a,,,,AAXX 08154 07299 12675 22810 10220 20130 39813 40123 53002 60006 82230 91500=
07299,1998-09-08 18:00:00,18,1013.4,0.7,83,15,500,3.704,,,250,14.1,22.7,,,,,,,,,wg-a,,,,AAXX 08184 07299 12600 /2502 10180 20150 39820 40134 51007 60006 82430 91800 333 10227 20141=
07299,1998-09-08 21:00:00,18,1014.7,1.2,73,13,20000,3.704,,,170,,,,,,,,,,,wg-a,,,,AAXX 08214 07299 12770 71702 10180 20130 39832 40147 51012 60006 875// 92100=
07299,1998-09-09 00:00:00,17,1014.5,-0.3,82,14,20000,3.704,,,170,,,,,,,,,,,wg-a,,,,AAXX 09004 07299 12670 71702 10170 20140 39829 40145 58003 60006 875// 90000=
07299,1998-09-09 03:00:00,17,1014.1,-0.4,82,14,20000,11.112,,,150,,,,,,,,,,,wg-a,,,,AAXX 09034 07299 12670 71506 10170 20140 39825 40141 56004 60006 875// 90300=
07299,1998-09-09 06:00:00,16,1013.5,-0.6,88,14,500,11.112,,,160,14.7,17.9,,,,,,,,,wg-a,,,,AAXX 09064 07299 02500 21606 10160 20140 39819 40135 55006 60006 82800 90600 333 10179 20147 60004=
07299,1998-09-09 09:00:00,22,1012.3,-0.6,65,15,50000,11.112,,,110,,,,,,,,,,,wg-a,,,,AAXX 09094 07299 12584 21106 10220 20150 39813 40123 58006 60006 81842 90900=
07299,1998-09-09 12:00:00,26,1010,-1.8,54,16,55000,7.408,,,150,,,,,,,,,,,wg-a,,,,AAXX 09124 07299 12685 /1504 10260 20160 39795 40100 58018 60006 81844 91200=
07299,1998-09-09 15:00:00,27,1008.2,-1.4,51,16,65000,3.704,,,90,,,,,,,,,,,wg-a,,,,AAXX 09154 07299 12687 60902 10270 20160 39779 40082 58014 60006 81842 91500=
07299,1998-09-09 18:00:00,23,1008.5,-0.1,83,20,50000,0,,,0,16.4,27.6,,,,,,,,,wg-a,,,,AAXX 09184 07299 12/84 /0000 10230 20200 39778 40085 56001 60006 86080 91800 333 10276 20164=
07299,1998-09-09 21:00:00,17,1009.8,0.7,100,17,35000,3.704,,,230,,,,,,,,,,,wg-a,,,,AAXX 09214 07299 12/81 22302 10170 20170 39785 40098 52007 60006 82070 92100=
07299,1998-09-10 00:00:00,16,1011,1,100,16,35000,3.704,,,190,,,,,,,,,,,wg-a,,,,AAXX 10004 07299 12/81 21902 10160 20160 39795 40110 51010 60006 82070 90000=
07299,1998-09-10 06:00:00,16,1011.3,0.7,100,16,25000,3.704,,,110,13.4,22.4,,,,,,,,21,wg-a,,,,AAXX 10064 07299 02575 51102 10160 20160 39797 40113 50007 61000 72161 83870 90600 333 10224 20134 6000=
07299,1998-09-10 09:00:00,22,1011,0.5,73,17,18000,7.408,,,180,,,,,,,,,,60,wg-a,,,,AAXX 10094 07299 02668 71804 10220 20170 39801 40110 50005 61000 76062 8587/ 90900 333 ////=
07299,1998-09-10 12:00:00,20,1011.5,0.3,73,15,16000,14.816,,,290,,,,,,,,,,60,wg-a,,,,AAXX 10124 07299 02566 72908 10200 20150 39804 40115 51003 61000 76062 8687/ 91200 333 6100=
07299,1998-09-10 15:00:00,17,1011.9,-0.1,88,15,6000,11.112,,,270,,,,2,,,,,,63,wg-a,,,,AAXX 10154 07299 12456 82706 10170 20150 39804 40119 55001 60027 76362 878// 91500=
07299,1998-09-10 18:00:00,16,1012.7,0.6,100,16,8000,3.704,,,280,15.7,22.5,,,,,,,,61,wg-a,,,,AAXX 10184 07299 02358 82802 10160 20160 39811 40127 52006 61000 76162 888// 91800 333 10225 20157 6006=
07299,1998-09-10 21:00:00,16,1012.9,0.3,100,16,500,7.408,,,90,,,,9,,,,,,61,wg-a,,,,AAXX 10214 07299 12200 80904 10160 20160 39813 40129 52003 60097 76166 878// 92100=
07299,1998-09-11 00:00:00,16,1012.1,-1.1,100,16,6000,0,,,0,,,,9,,,,,,61,wg-a,,,,AAXX 11004 07299 02456 80000 10160 20160 39805 40121 58011 60186 76166 878// 90000 333 60097=
07299,1998-09-11 03:00:00,15,1011.2,-1,94,14,12000,11.112,,,140,,,,2,,,,,,60,wg-a,,,,AAXX 11034 07299 12562 81406 10150 20140 39795 40112 58010 60027 76066 878// 90300=
07299,1998-09-11 06:00:00,14,1010.1,-1.1,100,14,18000,3.704,,,190,14,15.7,,,,,28,,,1,wg-a,,,,AAXX 11064 07299 02568 81902 10140 20140 39784 40101 56011 60006 70162 8587/ 90600 333 10157 20140 60284=
07299,1998-09-11 09:00:00,16,1009.4,-0.5,88,14,20000,7.408,,,130,,,,,,,,,,,wg-a,,,,AAXX 11094 07299 12570 81304 10160 20140 39779 40094 58005 60006 8687/ 90900=
07299,1998-09-11 12:00:00,16,1007,-2.4,94,15,9000,11.112,,,100,,,,1,,,,,,61,wg-a,,,,AAXX 11124 07299 02259 81006 10160 20150 39755 40070 58024 60016 76162 8487/ 91200 333 60017=
07299,1998-09-11 15:00:00,15,1004.8,-2.2,100,15,3000,3.704,,,100,,,,2,,,,,,61,wg-a,,,,AAXX 11154 07299 12230 81002 10150 20150 39734 40048 56022 60027 76162 878// 91500=
07299,1998-09-11 18:00:00,13,1004,-0.9,100,13,10000,7.408,,,160,12.9,16.2,,,,,,,,61,wg-a,,,,AAXX 11184 07299 02360 81604 10130 20130 39724 40040 56009 61000 76198 8387/ 91800 333 10162 20129 6008=
07299,1998-09-11 21:00:00,13,1002.7,-1.3,100,13,8000,11.112,,,110,,,,4,,,,,,61,wg-a,,,,AAXX 11214 07299 12358 81106 10130 20130 39711 40027 58013 60047 76166 878// 92100=
07299,1998-09-12 00:00:00,12,1000.1,-2.6,100,12,15000,11.112,,,120,,,,1,,,,,,1,wg-a,,,,AAXX 12004 07299 02365 81206 10120 20120 39685 40001 58026 60046 70162 875// 90000 333 60017=
07299,1998-09-12 03:00:00,13,998.8,-1.3,94,12,500,3.704,,,200,,,,,,,,,,61,wg-a,,,,AAXX 12034 07299 02300 82002 10130 20120 39672 49988 56013 61000 76162 875// 90300 333 ////=
07299,1998-09-12 06:00:00,11,999.8,0.8,94,10,20000,7.408,,,230,11.1,13.4,,,,,17,,,2,wg-a,,,,AAXX 12064 07299 02370 72304 10110 20100 39680 49998 51008 60006 70262 8583/ 90600 333 10134 20111 60174=
07299,1998-09-12 09:00:00,14,1000.1,0.6,77,10,25000,22.224,,,250,,,,,,,,,,25,wg-a,,,,AAXX 12094 07299 02475 72512 10140 20100 39686 40001 53006 61000 72586 8683/ 90900 333 ////=
07299,1998-09-12 12:00:00,13,1000.9,0.7,82,10,25000,22.224,,,270,,,,0,,,,,,25,wg-a,,,,AAXX 12124 07299 02475 72712 10130 20100 39693 40009 51007 60006 72586 8687/ 91200 333 60007=
07299,1998-09-12 15:00:00,14,1000.8,0,77,10,15000,14.816,,,260,,,,0,,,,,,3,wg-a,,,,AAXX 12154 07299 12565 72608 10140 20100 39693 40008 50000 60007 70386 8697/ 91500=
07299,1998-09-12 18:00:00,10,1001.4,0.2,93,9,15000,3.704,,,170,10.4,13.8,,1,,,,,,15,wg-a,,,,AAXX 12184 07299 02565 51702 10100 20090 39695 40014 50002 60006 71586 84870 91800 333 10138 20104 60017=
07299,1998-09-12 21:00:00,9,999.7,-1.8,93,8,15000,11.112,,,120,,,,,,,,,,,wg-a,,,,AAXX 12214 07299 12565 71206 10090 20080 39677 49997 58018 60006 8387/ 92100=
07299,1998-09-13 00:00:00,10,998.2,-1.4,93,9,15000,7.408,,,190,,,,0,,,,,,61,wg-a,,,,AAXX 13004 07299 02565 71904 10100 20090 39663 49982 58014 60016 76161 8387/ 90000 333 60007=
07299,1998-09-13 03:00:00,9,998.3,-0,87,7,15000,14.816,,,250,,,,0,,,,,,60,wg-a,,,,AAXX 13034 07299 12565 72508 10090 20070 39663 49983 55000 60007 76066 8387/ 90300=
07299,1998-09-13 06:00:00,8,999.8,1.3,93,7,15000,14.816,,,260,8,10.5,,,,,2,,,3,wg-a,,,,AAXX 13064 07299 02465 /2608 10080 20070 39677 49998 53013 60006 70362 82870 90600 333 10105 20080 60024=
07299,1998-09-13 09:00:00,11,1000,0.6,76,7,25000,11.112,,,240,,,,,,,,,,,wg-a,,,,AAXX 13094 07299 12475 72406 10110 20070 39682 40000 50006 60006 8487/ 90900=
07299,1998-09-13 12:00:00,13,999,-0.8,58,5,18000,18.52,,48.152,220,,,,,,,,,,25,wg-a,,,,AAXX 13124 07299 02568 62210 10130 20050 39674 49990 56008 61000 72586 84872 91200 333 6100 91026=
07299,1998-09-13 15:00:00,11,999,-0.1,66,5,20000,25.928,,,270,,,,,,,,,,3,wg-a,,,,AAXX 13154 07299 02570 72714 10110 20050 39672 49990 55001 61000 70386 8587/ 91500 333 ////=
07299,1998-09-13 18:00:00,9,1000.4,1.2,93,8,20000,0,,,0,8.1,14.1,,,,,,,,21,wg-a,,,,AAXX 13184 07299 02570 70000 10090 20080 39684 40004 53012 61000 72186 8657/ 91800 333 10141 20081 6100=
07299,1998-09-13 21:00:00,9,1002.3,1.7,81,6,20000,14.816,,,240,,,,,,,,,,,wg-a,,,,AAXX 13214 07299 12570 72408 10090 20060 39701 40023 51017 60006 8657/ 92100=
07299,1998-09-14 00:00:00,9,1002.5,0.4,93,8,20000,18.52,,,250,,,,0,,,,,,60,wg-a,,,,AAXX 14004 07299 02570 72510 10090 20080 39704 40025 53004 60006 76062 8687/ 90000 333 60007=
07299,1998-09-14 03:00:00,8,1002.5,-0.1,87,6,20000,22.224,,,250,,,,0,,,,,,25,wg-a,,,,AAXX 14034 07299 12670 /2512 10080 20060 39703 40025 58001 60007 72586 8487/ 90300=
07299,1998-09-14 06:00:00,8,1003.6,1.1,87,6,20000,14.816,,,240,8,9.1,,,,,,,,21,wg-a,,,,AAXX 14064 07299 02570 72408 10080 20060 39713 40036 53011 61000 72186 8587/ 90600 333 10091 20080 6001=
07299,1998-09-14 09:00:00,11,1004.3,0.9,76,7,20000,29.632,,,240,,,,,,,,,,3,wg-a,,,,AAXX 14094 07299 02570 72416 10110 20070 39723 40043 53009 61000 70362 8687/ 90900 333 ////=
07299,1998-09-14 12:00:00,13,1005.3,1.1,67,7,15000,31.484,,,260,,,,,,,,,,21,wg-a,,,,AAXX 14124 07299 02565 72617 10130 20070 39735 40053 52011 61000 72162 8687/ 91200 333 6100=
07299,1998-09-14 15:00:00,12,1006.1,0.8,71,7,18000,22.224,93.9,38.892,240,,,,1,,,,,,25,wg-a,,,,AAXX 14154 07299 12668 72412 10120 20070 39742 40061 51008 60017 72586 85871 91500 333 91021=
07299,1998-09-14 18:00:00,10,1007.6,1.3,87,8,12000,18.52,,,240,8,12.8,,,,,,,,25,wg-a,,,,AAXX 14184 07299 02562 72410 10100 20080 39755 40076 51013 61000 72586 85871 91800 333 10128 20080 6001=
07299,1998-09-14 21:00:00,11,1008.6,1,82,8,25000,14.816,,,240,,,,1,,,,,,3,wg-a,,,,AAXX 14214 07299 12475 /2408 10110 20080 39765 40086 51010 60017 70362 84870 92100=
07299,1998-09-15 00:00:00,12,1008.4,-0.1,82,9,25000,25.928,,,250,,,,0,,,,,,3,wg-a,,,,AAXX 15004 07299 02475 72514 10120 20090 39764 40084 57001 60016 70362 8487/ 90000 333 60007=
07299,1998-09-15 03:00:00,11,1009.2,0.7,87,9,25000,25.928,,,250,,,,,,,,,,,wg-a,,,,AAXX 15034 07299 12475 72514 10110 20090 39771 40092 51007 60006 8487/ 90300=
07299,1998-09-15 06:00:00,11,1011,1.7,87,9,20000,25.928,,,250,10,11.6,,,,,2,,,2,wg-a,,,,AAXX 15064 07299 02470 72514 10110 20090 39789 40110 53017 60006 70262 8487/ 90600 333 10116 20100 60024=
07299,1998-09-15 09:00:00,12,1013.6,2.6,82,9,19000,25.928,,,250,,,,0,,,,,,21,wg-a,,,,AAXX 15094 07299 12369 72514 10120 20090 39815 40136 53026 60007 72162 8487/ 90900=
07299,1998-09-15 12:00:00,16,1014,0.8,59,8,20000,29.632,,55.56,260,,,,,,,,,,1,wg-a,,,,AAXX 15124 07299 12570 72616 10160 20080 39823 40140 52008 60006 70162 85831 91200 333 91030=
07299,1998-09-15 15:00:00,15,1014,-0.2,59,7,45000,22.224,,,220,,,,,,,,,,,wg-a,,,,AAXX 15154 07299 12683 72212 10150 20070 39822 40140 58002 60006 8287/ 91500=
07299,1998-09-15 18:00:00,13,1013.9,-0.3,77,9,12000,11.112,,,250,11.1,16.8,,0,,,,,,61,wg-a,,,,AAXX 15184 07299 12662 72506 10130 20090 39819 40139 57003 60007 76162 8287/ 91800 333 10168 20111=
07299,1998-09-16 00:00:00,12,1012.8,-0.8,94,11,10000,3.704,,,150,,,,,,,,,,60,wg-a,,,,AAXX 16004 07299 02460 71502 10120 20110 39807 40128 57008 61000 76062 8687/ 90000 333 6100=
07299,1998-09-16 06:00:00,13,1011.8,-0.3,100,13,8000,14.816,,,250,11.5,13.3,,,,,,,,21,wg-a,,,,AAXX 16064 07299 02458 72508 10130 20130 39799 40118 55003 61000 72162 86801 90600 333 10133 20115 6002=
07299,1998-09-16 09:00:00,16,1012.6,1,77,12,11000,25.928,,,260,,,,,,,,,,,wg-a,,,,AAXX 16094 07299 12461 72614 10160 20120 39809 40126 51010 60006 84801 90900=
07299,1998-09-16 12:00:00,16,1012.3,-0.2,77,12,13000,14.816,,,250,,,,,,,,,,3,wg-a,,,,AAXX 16124 07299 02563 72508 10160 20120 39807 40123 58002 61000 70362 8643/ 91200 333 6100=
07299,1998-09-16 18:00:00,15,1011.5,0.1,77,11,20000,14.816,,,250,13.3,17.2,,,,,,,,21,wg-a,,,,AAXX 16184 07299 02570 72508 10150 20110 39798 40115 52001 61000 72186 86801 91800 333 10172 20133 6100=
07299,1998-09-17 00:00:00,12,1013.1,0.1,88,10,20000,14.816,,,240,,,,2,,,,,,0,wg-a,,,,AAXX 17004 07299 02570 72408 10120 20100 39810 40131 53001 60026 70086 878// 90000 333 60027=
07299,1998-09-17 03:00:00,12,1012.5,-0.6,82,9,25000,18.52,,,240,,,,,,,,,,,wg-a,,,,AAXX 17034 07299 12575 72410 10120 20090 39804 40125 57006 60006 878// 90300=
07299,1998-09-17 06:00:00,12,1013.6,1,88,10,17000,22.224,,,260,11,14.9,,,,,3,,,,wg-a,,,,AAXX 17064 07299 02467 72612 10120 20100 39814 40136 53010 60006 878// 90600 333 10149 20110 60034=
07299,1998-09-17 09:00:00,12,1015.4,1.9,88,10,10000,14.816,,,270,,,,2,,,,,,60,wg-a,,,,AAXX 17094 07299 12460 72708 10120 20100 39832 40154 53019 60027 76086 878// 90900=
07299,1998-09-17 12:00:00,15,1015.7,0.6,72,10,500,22.224,,,260,,,,1,,,,,,3,wg-a,,,,AAXX 17124 07299 02500 /2612 10150 20100 39838 40157 51006 60036 70386 8584/ 91200 333 60017=
07299,1998-09-17 18:00:00,13,1018.4,1.8,77,9,500,14.816,,,240,11.2,16.5,,,,,,,,,wg-a,,,,AAXX 17184 07299 12600 72408 10130 20090 39863 40184 51018 60006 878// 91800 333 10165 20112=
07299,1998-09-17 21:00:00,12,1020.6,2.1,82,9,25000,0,,,0,,,,,,,,,,,wg-a,,,,AAXX 17214 07299 12775 70000 10120 20090 39883 40206 52021 60006 875// 92100=
07299,1998-09-18 00:00:00,11,1021.2,0.5,94,10,25000,0,,,0,,,,,,,,,,,wg-a,,,,AAXX 18004 07299 12775 70000 10110 20100 39887 40212 51005 60006 8653/ 90000=
07299,1998-09-18 03:00:00,9,1021.7,0.3,100,9,20000,0,,,0,,,,,,,,,,,wg-a,,,,AAXX 18034 07299 12770 70000 10090 20090 39890 40217 53003 60006 875// 90300=
07299,1998-09-18 06:00:00,10,1022.9,1.3,100,10,500,3.704,,,180,9.3,13.2,,,,,3,,,,wg-a,,,,AAXX 18064 07299 02700 61802 10100 20100 39903 40229 53013 60006 84530 90600 333 10132 20093 60034=
07299,1998-09-18 12:00:00,17,1024.4,0.1,59,9,500,11.112,,,360,,,,,,,,,,,wg-a,,,,AAXX 18124 07299 12600 23606 10170 20090 39924 40244 50001 60006 82801 91200=
07299,1998-09-18 15:00:00,18,1024.4,0.1,56,9,500,11.112,,,350,,,,,,,,,,,wg-a,,,,AAXX 18154 07299 12700 23506 10180 20090 39925 40244 53001 60006 82100 91500=
07299,1998-09-18 18:00:00,12,1026.6,1.5,76,8,500,7.408,,,330,10.3,17.8,,,,,,,,,wg-a,,,,AAXX 18184 07299 12700 13304 10120 20080 39940 40266 53015 60006 81501 91800 333 10178 20103=
07299,1998-09-18 21:00:00,7,1028.7,1.5,100,7,20000,7.408,,,270,,,,,,,,,,,wg-a,,,,AAXX 18214 07299 12770 12704 10070 20070 39955 40287 51015 60006 81500 92100=
07299,1998-09-19 00:00:00,5,1029.6,0.6,100,5,15000,0,,,0,,,,,,,,,,,wg-a,,,,AAXX 19004 07299 12/65 10000 10050 20050 39961 40296 51006 60006 81030 90000=
07299,1998-09-19 03:00:00,4,1030.3,0.5,100,4,13000,0,,,0,,,,,,,,,,,wg-a,,,,AAXX 19034 07299 12/63 00000 10040 20040 39966 40303 50005 60006 80000 90300=
07299,1998-09-19 06:00:00,4,1031.2,0.9,100,4,3000,3.704,,,220,2.3,11.3,,,,,,,,40,wg-a,,,,AAXX 19064 07299 02330 22202 10040 20040 39975 40312 53009 60006 74000 81631 90600 333 10113 20023 60004=
07299,1998-09-19 09:00:00,12,1031.1,0.9,82,9,10000,7.408,,,310,,,,,,,,,,,wg-a,,,,AAXX 19094 07299 12460 /3104 10120 20090 39984 40311 51009 60006 81101 90900=
07299,1998-09-19 12:00:00,17,1029.7,-0.8,55,8,20000,7.408,,,340,,,,,,,,,,,wg-a,,,,AAXX 19124 07299 12670 23404 10170 20080 39976 40297 58008 60006 81101 91200=
07299,1998-09-19 15:00:00,19,1028.5,-1,52,9,20000,11.112,,,360,,,,,,,,,,,wg-a,,,,AAXX 19154 07299 12770 53606 10190 20090 39966 40285 57010 60006 81101 91500=
07299,1998-09-19 18:00:00,14,1029.4,0.4,72,9,25000,14.816,,,350,3.8,18.8,,,,,,,,,wg-a,,,,AAXX 19184 07299 12675 33508 10140 20090 39970 40294 53004 60006 82501 91800 333 10188 20038=
07299,1998-09-19 21:00:00,9,1031.2,1.1,93,8,25000,3.704,,,300,,,,,,,,,,,wg-a,,,,AAXX 19214 07299 12675 23002 10090 20080 39981 40312 51011 60006 82501 92100=
07299,1998-09-20 00:00:00,5,1031.6,-0,100,5,0,3.704,,,240,,,,,,,,,,,wg-a,,,,AAXX 20004 07299 12/// /2402 10050 20050 39981 40316 54000 60006 90000=
07299,1998-09-20 03:00:00,3,1031.3,-0.6,100,3,4000,3.704,,,220,,,,,,,,,,10,wg-a,,,,AAXX 20034 07299 12340 42202 10030 20030 39976 40313 58006 60006 71000 82601 90300=
07299,1998-09-20 06:00:00,6,1031.8,0.8,100,6,100,3.704,,,330,2.8,14.5,,,,,,,,46,wg-a,,,,AAXX 20064 07299 02001 83302 10060 20060 39984 40318 53008 60006 74641 886// 90600 333 10145 20028 60004=
07299,1998-09-20 09:00:00,9,1031.8,0.3,100,9,3500,7.408,,,340,,,,,,,,,,10,wg-a,,,,AAXX 20094 07299 12235 /3404 10090 20090 39987 40318 50003 60006 71042 86600 90900=
07299,1998-09-20 12:00:00,18,1029.2,-1.5,64,11,22000,11.112,,,360,,,,,,,,,,1,wg-a,,,,AAXX 20124 07299 12572 23606 10180 20110 39972 40292 58015 60006 70141 81102 91200=
07299,1998-09-20 15:00:00,20,1027.4,-1.6,56,11,500,22.224,,,360,,,,,,,,,,,wg-a,,,,AAXX 20154 07299 12600 23612 10200 20110 39957 40274 56016 60006 81102 91500=
07299,1998-09-20 18:00:00,16,1028.8,1,59,8,35000,7.408,,,70,5.8,20.5,,,,,,,,,wg-a,,,,AAXX 20184 07299 12781 /0704 10160 20080 39966 40288 53010 60006 81401 91800 333 10205 20058=
07299,1998-09-20 21:00:00,11,1029.4,0.1,87,9,35000,11.112,,,360,,,,,,,,,,,wg-a,,,,AAXX 20214 07299 12/81 13606 10110 20090 39967 40294 50001 60006 80001 92100=
07299,1998-09-21 00:00:00,8,1029.8,-0,100,8,25000,7.408,,,290,,,,,,,,,,,wg-a,,,,AAXX 21004 07299 12/75 02904 10080 20080 39967 40298 55000 60006 80000 90000=
07299,1998-09-21 03:00:00,6,1029.6,-0.4,100,6,12000,7.408,,,310,,,,,,,,,,,wg-a,,,,AAXX 21034 07299 12/62 03104 10060 20060 39963 40296 58004 60006 80000 90300=
07299,1998-09-21 06:00:00,6,1030.3,0.6,100,6,4000,0,,,0,5,16.1,,,,,,,,10,wg-a,,,,AAXX 21064 07299 02140 70000 10060 20060 39969 40303 53006 60006 71011 876// 90600 333 10161 20050 60004=
07299,1998-09-21 09:00:00,13,1029.5,-0.1,82,10,4000,7.408,,,10,,,,,,,,,,10,wg-a,,,,AAXX 21094 07299 12440 /0104 10130 20100 39969 40295 58001 60006 71041 81100 90900=
07299,1998-09-21 12:00:00,18,1027,-1.7,56,9,13000,7.408,,,70,,,,,,,,,,1,wg-a,,,,AAXX 21124 07299 12663 /0704 10180 20090 39951 40270 58017 60006 70141 81200 91200=
07299,1998-09-21 15:00:00,19,1025.3,-1.5,56,10,11000,7.408,,,80,,,,,,,,,,,wg-a,,,,AAXX 21154 07299 12661 50804 10190 20100 39936 40253 56015 60006 85400 91500=
07299,1998-09-21 18:00:00,17,1025.7,-0,59,9,23000,7.408,,,80,5.7,20,,,,,,,,,wg-a,,,,AAXX 21184 07299 12673 40804 10170 20090 39937 40257 55000 60006 83501 91800 333 10200 20057=
07299,1998-09-21 21:00:00,12,1025.4,-0.7,71,7,22000,7.408,,,10,,,,,,,,,,,wg-a,,,,AAXX 21214 07299 12/72 00104 10120 20070 39929 40254 58007 60006 80000 92100=
07299,1998-09-22 00:00:00,7,1025.6,-0.5,93,6,25000,3.704,,,280,,,,,,,,,,,wg-a,,,,AAXX 22004 07299 12/75 02802 10070 20060 39924 40256 55005 60006 80000 90000=
07299,1998-09-22 03:00:00,5,1024.9,-0.8,100,5,15000,3.704,,,330,,,,,,,,,,,wg-a,,,,AAXX 22034 07299 12765 13302 10050 20050 39916 40249 58008 60006 81500 90300=
07299,1998-09-22 06:00:00,5,1024.8,-0.3,100,5,500,0,,,0,3.7,16.6,,,,,,,,,wg-a,,,,AAXX 22064 07299 02700 /0000 10050 20050 39914 40248 55003 60006 81500 90600 333 10166 20037 60004=
07299,1998-09-22 09:00:00,14,1023.2,-0.3,72,9,7000,3.704,,,110,,,,,,,,,,,wg-a,,,,AAXX 22094 07299 12457 /1102 10140 20090 39910 40232 58003 60006 81800 90900=
07299,1998-09-22 12:00:00,17,1022.1,-0.7,59,9,15000,22.224,,,130,,,,,,,,,,,wg-a,,,,AAXX 22124 07299 12665 /1312 10170 20090 39902 40221 56007 60006 85830 91200=
07299,1998-09-22 15:00:00,16,1021.6,-0.6,63,9,15000,18.52,,,120,,,,,,,,,,,wg-a,,,,AAXX 22154 07299 12665 /1210 10160 20090 39897 40216 56006 60006 81100 91500=
07299,1998-09-22 18:00:00,13,1022.2,0.3,77,9,10000,3.704,,,100,4.5,17,,,,,,,,,wg-a,,,,AAXX 22184 07299 12/60 01002 10130 20090 39899 40222 52003 60006 80000 91800 333 10170 20045=
07299,1998-09-22 21:00:00,7,1023.5,0.5,100,7,9000,3.704,,,230,,,,,,,,,,,wg-a,,,,AAXX 22214 07299 12/59 02302 10070 20070 39905 40235 51005 60006 80000 92100=
07299,1998-09-23 00:00:00,6,1023.7,-0.1,100,6,4000,0,,,0,,,,,,,,,,,wg-a,,,,AAXX 23004 07299 12/40 10000 10060 20060 39905 40237 58001 60006 80001 90000=
07299,1998-09-23 03:00:00,5,1023,-0.6,100,5,4000,3.704,,,230,,,,,,,,,,10,wg-a,,,,AAXX 23034 07299 32/40 02302 10050 20050 39898 40230 56006 71000 80000 90300=
07299,1998-09-23 06:00:00,6,1023.2,0.3,100,6,3000,7.408,,,170,5.1,12.9,,,,,,,,10,wg-a,,,,AAXX 23064 07299 02030 /1704 10060 20060 39901 40232 53003 60006 71000 81630 90600 333 10129 20051 60004=
07299,1998-09-23 09:00:00,14,1022.7,0.4,82,11,7000,3.704,,,50,,,,,,,,,,,wg-a,,,,AAXX 23094 07299 12/57 20502 10140 20110 39905 40227 50004 60006 82030 90900=
07299,1998-09-23 12:00:00,18,1020.3,-1.8,64,11,10000,7.408,,,40,,,,,,,,,,,wg-a,,,,AAXX 23124 07299 12760 10404 10180 20110 39887 40203 58018 60006 81100 91200=
07299,1998-09-23 15:00:00,20,1018.8,-1.3,60,12,14000,7.408,,,340,,,,,,,,,,,wg-a,,,,AAXX 23154 07299 12/64 13404 10200 20120 39874 40188 58013 60006 80001 91500=
07299,1998-09-23 18:00:00,16,1019.7,0.4,77,12,500,7.408,,,100,6.5,20.2,,,,,,,,,wg-a,,,,AAXX 23184 07299 12/00 /1004 10160 20120 39878 40197 53004 60006 81030 91800 333 10202 20065=
07299,1998-09-23 21:00:00,10,1020.8,0.4,93,9,4000,0,,,0,,,,,,,,,,10,wg-a,,,,AAXX 23214 07299 12/40 00000 10100 20090 39882 40208 51004 60006 71000 80000 92100=
07299,1998-09-24 00:00:00,8,1020.8,-0.2,100,8,4000,0,,,0,,,,,,,,,,10,wg-a,,,,AAXX 24004 07299 12/40 00000 10080 20080 39880 40208 58002 60006 71000 80000 90000=
07299,1998-09-24 03:00:00,7,1021.1,0.1,100,7,4000,7.408,,,190,,,,,,,,,,10,wg-a,,,,AAXX 24034 07299 12/40 01904 10070 20070 39881 40211 53001 60006 71000 80000 90300=
07299,1998-09-24 06:00:00,6,1021.1,-0.1,100,6,2500,3.704,,,180,6,15.9,,,,,,,,10,wg-a,,,,AAXX 24064 07299 02/25 /1802 10060 20060 39880 40211 56001 60006 71000 80000 90600 333 10159 20060 60004=
07299,1998-09-24 09:00:00,16,1019.8,-0.1,77,12,4500,0,,,0,,,,,,,,,,10,wg-a,,,,AAXX 24094 07299 12/45 20000 10160 20120 39879 40198 58001 60006 71000 80001 90900=
07299,1998-09-24 12:00:00,20,1018,-1.2,60,12,9000,3.704,,,20,,,,,,,,,,,wg-a,,,,AAXX 24124 07299 12659 50202 10200 20120 39866 40180 58012 60006 81102 91200=
07299,1998-09-24 15:00:00,21,1016.3,-1.6,64,14,9000,3.704,,,360,,,,,,,,,,,wg-a,,,,AAXX 24154 07299 12/59 /3602 10210 20140 39851 40163 56016 60006 81032 91500=
07299,1998-09-24 18:00:00,13,1017.2,0.1,94,12,9000,7.408,,,230,6.2,21,,,,,,,,,wg-a,,,,AAXX 24184 07299 12/59 72304 10130 20120 39851 40172 53001 60006 85032 91800 333 10210 20062=
07299,1998-09-24 21:00:00,12,1017.5,0.2,94,11,7000,3.704,,,110,,,,,,,,,,,wg-a,,,,AAXX 24214 07299 12757 /1102 10120 20110 39853 40175 50002 60006 86571 92100=
07299,1998-09-25 00:00:00,8,1018,0,100,8,500,3.704,,,230,,,,,,,,,,,wg-a,,,,AAXX 25004 07299 12/00 22302 10080 20080 39853 40180 50000 60006 80001 90000=
07299,1998-09-25 03:00:00,8,1017,-1,100,8,2500,7.408,,,180,,,,,,,,,,10,wg-a,,,,AAXX 25034 07299 12025 31804 10080 20080 39843 40170 58010 60006 71000 81601 90300=
07299,1998-09-25 06:00:00,9,1016.2,-0.6,100,9,2500,7.408,,,180,6.9,13.3,,,,,,,,10,wg-a,,,,AAXX 25064 07299 02/25 31804 10090 20090 39837 40162 56006 60006 71000 82031 90600 333 10133 20069 60004=
07299,1998-09-25 09:00:00,16,1015,-0.5,77,12,4000,7.408,,,120,,,,,,,,,,10,wg-a,,,,AAXX 25094 07299 12/40 71204 10160 20120 39832 40150 56005 60006 71011 81031 90900=
07299,1998-09-25 12:00:00,21,1012.5,-1.8,53,11,7000,3.704,,,20,,,,,,,,,,,wg-a,,,,AAXX 25124 07299 12/57 /0202 10210 20110 39814 40125 57018 60006 80001 91200=
07299,1998-09-25 15:00:00,23,1010.6,-1.6,44,10,10000,3.704,,,30,,,,,,,,,,,wg-a,,,,AAXX 25154 07299 12760 30302 10230 20100 39798 40106 56016 60006 81231 91500=
07299,1998-09-25 18:00:00,17,1011,-0.1,82,14,10000,7.408,,,250,9.1,23.6,,,,,,,,,wg-a,,,,AAXX 25184 07299 12/60 72504 10170 20140 39795 40110 55001 60006 8707/ 91800 333 10236 20091=
07299,1998-09-25 21:00:00,13,1011.7,0.3,94,12,9000,3.704,,,220,,,,,,,,,,,wg-a,,,,AAXX 25214 07299 12/59 /2202 10130 20120 39798 40117 50003 60006 82072 92100=
07299,1998-09-26 00:00:00,14,1011.7,-0,94,13,9000,11.112,,,240,,,,,,,,,,,wg-a,,,,AAXX 26004 07299 12759 72406 10140 20130 39799 40117 55000 60006 8153/ 90000=
07299,1998-09-26 03:00:00,14,1009.5,-2.1,94,13,8000,7.408,,,190,,,,,,,,,,,wg-a,,,,AAXX 26034 07299 12758 71904 10140 20130 39777 40095 56021 60006 81572 90300=
07299,1998-09-26 06:00:00,13,1008.8,-0.6,100,13,6000,0,,,0,12.3,16.6,,,,,,,,60,wg-a,,,,AAXX 26064 07299 02756 70000 10130 20130 39770 40088 56006 61000 76062 8457/ 90600 333 10166 20123 6100=
07299,1998-09-26 09:00:00,17,1007.1,-1.2,82,14,500,7.408,,,160,,,,,,,,,,,wg-a,,,,AAXX 26094 07299 32/00 /1604 10170 20140 39758 40071 58012 90900=
07299,1998-09-26 12:00:00,21,1004,-2.7,56,12,20000,18.52,,,110,,,,,,,,,,1,wg-a,,,,AAXX 26124 07299 12770 71110 10210 20120 39732 40040 58027 60006 70162 81532 91200=
07299,1998-09-26 15:00:00,18,1005,0.6,77,14,11000,11.112,,,290,,,,,,,,,,,wg-a,,,,AAXX 26154 07299 32/61 /2906 10180 20140 39739 40050 50006 91500=
07299,1998-09-26 18:00:00,15,1003.2,-2,94,14,12000,7.408,,,270,13.2,21.7,,,,,,,,2,wg-a,,,,AAXX 26184 07299 02762 /2704 10150 20140 39718 40032 56020 60006 70262 85502 91800 333 10217 20132 61000=
07299,1998-09-26 21:00:00,13,1003.9,0.4,100,13,12000,7.408,,,260,,,,,,,,,,60,wg-a,,,,AAXX 26214 07299 02662 72604 10130 20130 39722 40039 53004 61000 76062 8587/ 92100 333 ////=
07299,1998-09-27 00:00:00,14,1006.5,2.8,94,13,9000,7.408,,,180,,,,0,,,,,,91,wg-a,,,,AAXX 27004 07299 02559 71804 10140 20130 39749 40065 51028 60006 79196 8697/ 90000 333 60007=
07299,1998-09-27 03:00:00,12,1005.3,-1.5,100,12,20000,3.704,,,320,,,,1,,,,,,21,wg-a,,,,AAXX 27034 07299 12670 73202 10120 20120 39735 40053 55015 60017 72162 82872 90300=
07299,1998-09-27 06:00:00,12,1005.5,0.1,100,12,500,7.408,,,180,10.3,15.2,,,,,1,,,14,wg-a,,,,AAXX 27064 07299 02600 71804 10120 20120 39736 40055 53001 60006 71462 878// 90600 333 10152 20103 60014=
07299,1998-09-27 09:00:00,17,1005.1,0.1,72,12,60000,18.52,,,120,,,,,,,,,,,wg-a,,,,AAXX 27094 07299 12686 71210 10170 20120 39738 40051 50001 60006 8583/ 90900=
07299,1998-09-27 12:00:00,19,1004.7,-0.1,68,13,40000,11.112,,,170,,,,,,,,,,,wg-a,,,,AAXX 27124 07299 12782 71706 10190 20130 39736 40047 58001 60006 8587/ 91200=
07299,1998-09-27 15:00:00,20,1003.7,-0.9,64,13,40000,3.704,,,310,,,,,,,,,,,wg-a,,,,AAXX 27154 07299 12682 73102 10200 20130 39727 40037 57009 60006 8597/ 91500=
07299,1998-09-27 18:00:00,17,1004.5,0.5,68,11,500,7.408,,,230,11.9,20.1,,,,,,,,,wg-a,,,,AAXX 27184 07299 12700 72304 10170 20110 39732 40045 53005 60006 8583/ 91800 333 10201 20119=
07299,1998-09-27 21:00:00,14,1006.3,1.4,77,10,500,11.112,,,240,,,,,,,,,,,wg-a,,,,AAXX 27214 07299 12700 72406 10140 20100 39746 40063 51014 60006 8583/ 92100=
07299,1998-09-28 00:00:00,14,1006.9,0.7,82,11,500,14.816,,,230,,,,,,,,,,60,wg-a,,,,AAXX 28004 07299 02600 72308 10140 20110 39753 40069 51007 61000 76062 8583/ 90000 333 6100=
07299,1998-09-28 03:00:00,13,1006.9,-0.1,82,10,500,3.704,,,210,,,,,,,,,,2,wg-a,,,,AAXX 28034 07299 02500 72102 10130 20100 39752 40069 58001 61000 70262 8557/ 90300 333 ////=
07299,1998-09-28 06:00:00,13,1007.3,0.3,94,12,15000,0,,,0,12.9,16.6,,,,,,,,60,wg-a,,,,AAXX 28064 07299 02465 70000 10130 20120 39755 40073 53003 61000 76062 878// 90600 333 10166 20129 6001=
07299,1998-09-28 09:00:00,16,1007.9,0.8,77,12,500,11.112,,,160,,,,0,,,,,,3,wg-a,,,,AAXX 28094 07299 12500 71606 10160 20120 39764 40079 53008 60007 70362 8783/ 90900=
07299,1998-09-28 12:00:00,17,1006.7,-1,82,14,20000,7.408,,,260,,,,6,,,,,,25,wg-a,,,,AAXX 28124 07299 02470 72604 10170 20140 39754 40067 58010 60066 72586 8683/ 91200 333 60067=
07299,1998-09-28 15:00:00,17,1006.5,-0.2,72,12,20000,7.408,,,270,,,,,,,,,,2,wg-a,,,,AAXX 28154 07299 02570 72704 10170 20120 39752 40065 57002 61000 70286 878// 91500 333 ////=
07299,1998-09-28 18:00:00,14,1008,1.1,100,14,15000,3.704,,,180,12.6,18.6,,,,,,,,61,wg-a,,,,AAXX 28184 07299 02665 81802 10140 20140 39764 40080 53011 61000 76186 878// 91800 333 10186 20126 6001=
07299,1998-09-28 21:00:00,13,1008.9,0.7,100,13,20000,7.408,,,160,,,,2,,,,,,60,wg-a,,,,AAXX 28214 07299 12670 81604 10130 20130 39771 40089 51007 60027 76066 878// 92100=
07299,1998-09-29 00:00:00,14,1009.5,0.7,94,13,6000,11.112,,,260,,,,,,,,,,,wg-a,,,,AAXX 29004 07299 12/56 /2606 10140 20130 39778 40095 51007 60066 90000=
07299,1998-09-29 03:00:00,14,1009.8,0.2,94,13,6000,3.704,,,220,,,,,,,,,,60,wg-a,,,,AAXX 29034 07299 02656 82202 10140 20130 39780 40098 52002 61000 76062 875// 90300 333 ////=
07299,1998-09-29 06:00:00,14,1010.1,0.3,100,14,6000,3.704,,,180,13.2,14.3,,,,,,,,60,wg-a,,,,AAXX 29064 07299 02456 81802 10140 20140 39783 40101 53003 61000 76062 877// 90600 333 10143 20132 6013=
07299,1998-09-29 09:00:00,15,1010.6,0.6,88,13,8000,3.704,,,170,,,,0,,,,,,60,wg-a,,,,AAXX 29094 07299 12458 71702 10150 20130 39789 40106 51006 60007 76062 875// 90900=
07299,1998-09-29 12:00:00,18,1009,-1.2,77,14,9000,7.408,,,80,,,,,,,,,,1,wg-a,,,,AAXX 29124 07299 02459 70804 10180 20140 39777 40090 58012 60006 70162 878// 91200 333 61000=
07299,1998-09-29 15:00:00,19,1007.1,-1.8,68,13,18000,3.704,,,360,,,,,,,,,,,wg-a,,,,AAXX 29154 07299 12568 73602 10190 20130 39760 40071 56018 60006 81102 91500=
07299,1998-09-29 18:00:00,14,1007.4,-0.2,94,13,19000,0,,,0,13.5,19.6,,,,,,,,,wg-a,,,,AAXX 29184 07299 12769 60000 10140 20130 39757 40074 55002 60006 825/1 91800 333 10196 20135=
07299,1998-09-29 21:00:00,10,1007.6,-0.2,100,10,15000,0,,,0,,,,,,,,,,,wg-a,,,,AAXX 29214 07299 12/65 50000 10100 20100 39755 40076 58002 60006 80002 92100=
07299,1998-09-30 00:00:00,11,1006.6,-0.9,100,11,8000,3.704,,,160,,,,,,,,,,,wg-a,,,,AAXX 30004 07299 12758 21602 10110 20110 39746 40066 58009 60006 825/0 90000=
07299,1998-09-30 03:00:00,13,1005.5,-0.8,100,13,8000,11.112,,,130,,,,,,,,,,,wg-a,,,,AAXX 30034 07299 12758 71306 10130 20130 39738 40055 56008 60006 875// 90300=
07299,1998-09-30 06:00:00,13,1006,0.5,100,13,4000,7.408,,,160,10.3,13.6,,,,,,,,61,wg-a,,,,AAXX 30064 07299 02540 81604 10130 20130 39743 40060 53005 61000 76161 8587/ 90600 333 10136 20103 6002=
07299,1998-09-30 09:00:00,14,1006.5,0.4,94,13,4000,7.408,,,120,,,,11,,,,,,10,wg-a,,,,AAXX 30094 07299 12540 81204 10140 20130 39748 40065 53004 60117 71066 8587/ 90900=
07299,1998-09-30 12:00:00,15,1006.5,0.1,94,14,4000,7.408,,,140,,,,4,,,,,,10,wg-a,,,,AAXX 30124 07299 02240 81404 10150 20140 39749 40065 50001 60146 71066 8687/ 91200 333 60047=
07299,1998-09-30 15:00:00,13,1006.4,-0.1,94,12,15000,3.704,,,270,,,,4,,,,,,61,wg-a,,,,AAXX 30154 07299 12565 82702 10130 20120 39747 40064 58001 60047 76166 8387/ 91500=
07299,1998-09-30 18:00:00,13,1007.3,0.7,100,13,12000,3.704,,,90,12.7,14.9,,,,,,,,61,wg-a,,,,AAXX 30184 07299 02162 70902 10130 20130 39755 40073 51007 61000 76166 8687/ 91800 333 10149 20127 6003=
07299,1998-09-30 21:00:00,12,1007.6,0.2,100,12,15000,3.704,,,130,,,,0,,,,,,25,wg-a,,,,AAXX 30214 07299 12765 71302 10120 20120 39757 40076 51002 60007 72586 8357/ 92100=
07299,1998-10-01 00:00:00,10,1008.1,0.3,100,10,6000,3.704,,,180,,,,,,,,,,0,wg-a,,,,AAXX 01004 07299 12756 41802 10100 20100 39760 40081 51003 60016 70086 81531 90000=
07299,1998-10-01 03:00:00,10,1007.5,-0.6,100,10,500,3.704,,,170,,,,,,,,,,11,wg-a,,,,AAXX 01034 07299 12200 /1702 10100 20100 39754 40075 58006 60006 71111 84500 90300=
07299,1998-10-01 06:00:00,10,1007.7,0.2,100,10,4500,7.408,,,180,9.6,12.7,,,,,21,,,10,wg-a,,,,AAXX 01064 07299 02145 71804 10100 20100 39756 40077 50002 60006 71011 875// 90600 333 10127 20096 60214=
07299,1998-10-01 09:00:00,12,1007.8,0.3,100,12,6000,7.408,,,170,,,,,,,,,,,wg-a,,,,AAXX 01094 07299 12256 71704 10120 20120 39759 40078 52003 60006 875// 90900=
07299,1998-10-01 12:00:00,14,1007.3,-0.3,94,13,7000,7.408,,,140,,,,1,,,,,,61,wg-a,,,,AAXX 01124 07299 02457 81404 10140 20130 39756 40073 57003 60016 76162 888// 91200 333 60017=
07299,1998-10-01 18:00:00,12,1007.4,-0.1,88,10,15000,3.704,,,40,10.5,15.3,,,,,,,,1,wg-a,,,,AAXX 01184 07299 12665 /0402 10120 20100 39754 40074 55001 60006 70161 81801 91800 333 10153 20105=
07299,1998-10-01 21:00:00,7,1008.2,0.3,100,7,900,0,,,0,,,,,,,,,,41,wg-a,,,,AAXX 01214 07299 12/09 /0000 10070 20070 39757 40082 51003 60006 74140 80001 92100=
07299,1998-10-02 00:00:00,8,1007.8,-0.2,100,8,700,11.112,,,180,,,,,,,,,,47,wg-a,,,,AAXX 02004 07299 12/07 91806 10080 20080 39754 40078 58002 60006 74741 89/// 90000=
07299,1998-10-02 03:00:00,9,1007.4,-0.4,100,9,1800,3.704,,,170,,,,,,,,,,28,wg-a,,,,AAXX 02034 07299 12118 91702 10090 20090 39751 40074 56004 60006 72842 896// 90300=
07299,1998-10-02 06:00:00,9,1007.3,-0,100,9,4000,3.704,,,100,6.5,11.2,,,,,3,,,10,wg-a,,,,AAXX 02064 07299 02340 71002 10090 20090 39750 40073 55000 60006 71042 876// 90600 333 10112 20065 60034=
07299,1998-10-02 09:00:00,11,1007.7,0.7,94,10,8000,3.704,,,110,,,,,,,,,,,wg-a,,,,AAXX 02094 07299 12358 71102 10110 20100 39757 40077 51007 60006 876// 90900=
07299,1998-10-02 12:00:00,12,1007.2,-0.4,88,10,12000,11.112,,,10,,,,,,,,,,21,wg-a,,,,AAXX 02124 07299 02462 80106 10120 20100 39753 40072 58004 61000 72162 8553/ 91200 333 6100=
07299,1998-10-02 15:00:00,12,1006.9,-0.3,94,11,7000,11.112,,,360,,,,,,,,,,60,wg-a,,,,AAXX 02154 07299 02357 73606 10120 20110 39750 40069 58003 61000 76062 875// 91500 333 ////=
07299,1998-10-02 18:00:00,11,1007.9,0.9,94,10,4900,7.408,,,330,8.8,12.7,,,,,,,,10,wg-a,,,,AAXX 02184 07299 02249 73304 10110 20100 39759 40079 53009 60006 71062 875// 91800 333 10127 20088 61000=
07299,1998-10-02 21:00:00,11,1008.7,0.7,94,10,3500,3.704,,,280,,,,,,,,,,10,wg-a,,,,AAXX 02214 07299 12335 72802 10110 20100 39766 40087 51007 60006 71022 876// 92100=
07299,1998-10-03 00:00:00,11,1008.8,0.1,94,10,3500,0,,,0,,,,,,,,,,10,wg-a,,,,AAXX 03004 07299 12335 80000 10110 20100 39767 40088 50001 60006 71022 886// 90000=
07299,1998-10-03 03:00:00,10,1009.1,0.3,100,10,2400,3.704,,,290,,,,,,,,,,10,wg-a,,,,AAXX 03034 07299 12224 82902 10100 20100 39770 40091 52003 60006 71022 886// 90300=
07299,1998-10-03 06:00:00,10,1010.2,1,100,10,2000,7.408,,,320,9.9,10.8,,,,,,,,10,wg-a,,,,AAXX 03064 07299 02220 83204 10100 20100 39780 40102 53010 60006 71022 886// 90600 333 10108 20099 61000=
07299,1998-10-03 09:00:00,11,1010.7,0.5,100,11,1500,0,,,0,,,,,,,,,,10,wg-a,,,,AAXX 03094 07299 12215 80000 10110 20110 39785 40107 51005 60006 71022 886// 90900=
07299,1998-10-03 12:00:00,14,1010.2,-0,77,10,8000,18.52,,,260,,,,,,,,,,,wg-a,,,,AAXX 03124 07299 12458 82610 10140 20100 39784 40102 55000 60006 888// 91200=
07299,1998-10-03 15:00:00,12,1010.7,0.2,82,9,12000,14.816,,,260,,,,,,,,,,,wg-a,,,,AAXX 03154 07299 12562 82608 10120 20090 39787 40107 53002 60006 888// 91500=
07299,1998-10-03 18:00:00,10,1011.8,0.8,82,7,12000,7.408,,,210,9.7,13.8,,,,,,,,,wg-a,,,,AAXX 03184 07299 12562 82104 10100 20070 39795 40118 53008 60006 875// 91800 333 10138 20097=
07299,1998-10-03 21:00:00,9,1011.6,-0.4,93,8,13000,3.704,,,110,,,,,,,,,,,wg-a,,,,AAXX 03214 07299 12663 81102 10090 20080 39792 40116 58004 60006 875// 92100=
07299,1998-10-04 00:00:00,9,1010,-1.6,100,9,13000,0,,,0,,,,,,,,,,,wg-a,,,,AAXX 04004 07299 12663 80000 10090 20090 39776 40100 56016 60006 875// 90000=
07299,1998-10-04 03:00:00,9,1008.9,-1.1,93,8,4000,14.816,,,270,,,,0,,,,,,10,wg-a,,,,AAXX 04034 07299 12340 82708 10090 20080 39765 40089 56011 60007 71062 875// 90300=
07299,1998-10-04 06:00:00,8,1008.4,-0.6,93,7,4000,3.704,,,140,7.3,9.7,,,,,,,,10,wg-a,,,,AAXX 04064 07299 02340 81402 10080 20070 39759 40084 57006 61000 71062 875// 90600 333 10097 20073 6002=
07299,1998-10-04 09:00:00,8,1008.4,-0,93,7,3000,0,,,0,,,,,,,,,,10,wg-a,,,,AAXX 04094 07299 02230 80000 10080 20070 39759 40084 55000 61000 71066 8452/ 90900 333 ////=
07299,1998-10-04 12:00:00,9,1006.7,-1.4,93,8,6000,7.408,,,360,,,,,,,,,,2,wg-a,,,,AAXX 04124 07299 02256 83604 10090 20080 39745 40067 58014 61000 70262 875// 91200 333 6100=
07299,1998-10-04 15:00:00,9,1006.3,-0.5,100,9,2000,3.704,,,330,,,,3,,,,,,10,wg-a,,,,AAXX 04154 07299 12220 83302 10090 20090 39740 40063 56005 60037 71062 885// 91500=
07299,1998-10-04 18:00:00,9,1006.1,-0.2,100,9,1500,0,,,0,7.2,9.2,,,,,,,,10,wg-a,,,,AAXX 04184 07299 02215 80000 10090 20090 39738 40061 55002 61000 71062 885// 91800 333 10092 20072 6003=
07299,1998-10-04 21:00:00,8,1006.3,0.2,100,8,1500,0,,,0,,,,0,,,,,,10,wg-a,,,,AAXX 04214 07299 12015 80000 10080 20080 39740 40063 50002 60007 71065 885// 92100=
07299,1998-10-05 00:00:00,9,1005.9,-0.4,100,9,0,3.704,,,330,,,,,,,,,,,wg-a,,,,AAXX 05004 07299 12/// /3302 10090 20090 39736 40059 55004 60016 90000=
07299,1998-10-05 03:00:00,9,1006,0.2,100,9,3000,3.704,,,320,,,,,,,,,,10,wg-a,,,,AAXX 05034 07299 12330 83202 10090 20090 39738 40060 51002 60006 71022 885// 90300=
07299,1998-10-05 06:00:00,9,1006.5,0.4,100,9,3000,0,,,0,8.3,9.2,,,,,6,,,10,wg-a,,,,AAXX 05064 07299 02230 80000 10090 20090 39743 40065 52004 60006 71022 878// 90600 333 10092 20083 60064=
07299,1998-10-05 09:00:00,13,1007.1,1,88,11,7000,3.704,,,110,,,,,,,,,,,wg-a,,,,AAXX 05094 07299 12357 /1102 10130 20110 39753 40071 51010 60006 85801 90900=
07299,1998-10-05 12:00:00,16,1006.7,-0.1,63,9,12000,7.408,,,70,,,,,,,,,,,wg-a,,,,AAXX 05124 07299 12562 50704 10160 20090 39752 40067 58001 60006 85801 91200=
07299,1998-10-05 15:00:00,16,1006.5,-0.2,72,11,18000,14.816,,,360,,,,,,,,,,,wg-a,,,,AAXX 05154 07299 12668 53608 10160 20110 39751 40065 56002 60006 83811 91500=
07299,1998-10-05 18:00:00,13,1007.9,1,88,11,15000,14.816,,,360,8.9,17.2,,,,,,,,,wg-a,,,,AAXX 05184 07299 12565 73608 10130 20110 39761 40079 53010 60006 83814 91800 333 10172 20089=
07299,1998-10-05 21:00:00,11,1008.8,0.6,94,10,6000,11.112,,,330,,,,,,,,,,,wg-a,,,,AAXX 05214 07299 12256 /3306 10110 20100 39767 40088 50006 60006 875// 92100=
07299,1998-10-06 00:00:00,11,1009.1,0.2,100,11,4000,11.112,,,340,,,,,,,,,,10,wg-a,,,,AAXX 06004 07299 12140 83406 10110 20110 39770 40091 50002 60006 71022 866// 90000=
07299,1998-10-06 03:00:00,10,1008.3,-0.7,100,10,4000,11.112,,,320,,,,,,,,,,10,wg-a,,,,AAXX 06034 07299 12240 83206 10100 20100 39762 40083 58007 60006 71022 886// 90300=
07299,1998-10-06 06:00:00,10,1007.4,-1,100,10,3000,11.112,,,320,9.9,12.8,,,,,,,,10,wg-a,,,,AAXX 06064 07299 02130 83206 10100 20100 39753 40074 56010 60006 71022 886// 90600 333 10128 20099 60004=
07299,1998-10-06 09:00:00,10,1007.1,-0.3,93,9,500,11.112,,,340,,,,,,,,,,1,wg-a,,,,AAXX 06094 07299 02300 83406 10100 20090 39750 40071 58003 61000 70162 885// 90900 333 ////=
07299,1998-10-06 12:00:00,10,1007.4,0.3,93,9,4000,11.112,,,320,,,,2,,,,,,10,wg-a,,,,AAXX 06124 07299 02440 83206 10100 20090 39752 40074 50003 60026 71065 875// 91200 333 60027=
07299,1998-10-06 15:00:00,10,1009.4,2,93,9,4000,11.112,,,330,,,,,,,,,,10,wg-a,,,,AAXX 06154 07299 02240 83306 10100 20090 39772 40094 53020 61000 71052 877// 91500 333 ////=
07299,1998-10-06 18:00:00,10,1011.3,1.7,100,10,3500,7.408,,,350,9.7,10.6,,,,,,,,10,wg-a,,,,AAXX 06184 07299 02235 83504 10100 20100 39790 40113 53017 61000 71065 8677/ 91800 333 10106 20097 6100=
07299,1998-10-06 21:00:00,10,1012.7,1.6,100,10,3500,0,,,0,,,,,,,,,,10,wg-a,,,,AAXX 06214 07299 02235 70000 10100 20100 39804 40127 52016 61000 71062 877// 92100 333 ////=
07299,1998-10-07 00:00:00,9,1013.6,0.7,100,9,1300,3.704,,,170,,,,,,,,,,40,wg-a,,,,AAXX 07004 07299 02113 71702 10090 20090 39811 40136 53007 61000 74062 877// 90000 333 ////=
07299,1998-10-07 03:00:00,9,1013.4,-0.2,100,9,500,3.704,,,190,,,,,,,,,,,wg-a,,,,AAXX 07034 07299 12400 71902 10090 20090 39810 40134 58002 60006 877// 90300=
07299,1998-10-07 06:00:00,10,1014,0.7,100,10,500,0,,,0,8.2,9.9,,,,,,,,20,wg-a,,,,AAXX 07064 07299 02400 70000 10100 20100 39816 40140 53007 61000 72052 8677/ 90600 333 10099 20082 6002=
07299,1998-10-07 09:00:00,11,1014.9,0.9,94,10,8000,3.704,,,290,,,,1,,,,,,20,wg-a,,,,AAXX 07094 07299 12358 72902 10110 20100 39826 40149 51009 60017 72052 875// 90900=
07299,1998-10-07 12:00:00,11,1014.6,-0.2,94,10,4000,7.408,,,330,,,,,,,,,,10,wg-a,,,,AAXX 07124 07299 02340 73304 10110 20100 39824 40146 58002 60016 71052 878// 91200 333 61000=
07299,1998-10-07 15:00:00,11,1014.2,-0.4,94,10,12000,3.704,,,330,,,,,,,,,,,wg-a,,,,AAXX 07154 07299 12562 73302 10110 20100 39820 40142 56004 60006 878// 91500=
07299,1998-10-07 18:00:00,10,1015.7,1.4,100,10,3500,7.408,,,330,9.5,11.8,,,,,,,,10,wg-a,,,,AAXX 07184 07299 02235 73304 10100 20100 39833 40157 51014 61000 71062 878// 91800 333 10118 20095 6001=
07299,1998-10-07 21:00:00,10,1016.4,0.5,100,10,8000,3.704,,,300,,,,1,,,,,,51,wg-a,,,,AAXX 07214 07299 12258 83002 10100 20100 39839 40164 53005 60017 75166 875// 92100=
07299,1998-10-08 00:00:00,9,1016.6,0,93,8,8000,3.704,,,240,,,,0,,,,,,21,wg-a,,,,AAXX 08004 07299 02258 82402 10090 20080 39840 40166 50000 60016 72165 875// 90000 333 60007=
07299,1998-10-08 03:00:00,8,1016.5,-0.1,93,7,10000,3.704,,,260,,,,,,,,,,,wg-a,,,,AAXX 08034 07299 12460 82602 10080 20070 39839 40165 58001 60006 875// 90300=
07299,1998-10-08 06:00:00,8,1017.5,0.9,93,7,9000,3.704,,,200,7.8,10,,,,,3,,,,wg-a,,,,AAXX 08064 07299 02459 72002 10080 20070 39848 40175 53009 60006 875// 90600 333 10100 20078 60034=
07299,1998-10-08 09:00:00,10,1017.9,0.6,82,7,12000,3.704,,,230,,,,,,,,,,,wg-a,,,,AAXX 08094 07299 12462 72302 10100 20070 39854 40179 51006 60006 878// 90900=
07299,1998-10-08 12:00:00,12,1017.8,0.1,71,7,16000,11.112,,,280,,,,,,,,,,,wg-a,,,,AAXX 08124 07299 12566 72806 10120 20070 39855 40178 50001 60006 878// 91200=
07299,1998-10-08 15:00:00,12,1018.2,0.3,76,8,20000,3.704,,,260,,,,,,,,,,,wg-a,,,,AAXX 08154 07299 12570 72602 10120 20080 39859 40182 52003 60006 8487/ 91500=
07299,1998-10-08 18:00:00,10,1019.3,1,93,9,22000,3.704,,,160,7.8,12.4,,,,,,,,,wg-a,,,,AAXX 08184 07299 12572 71602 10100 20090 39868 40193 53010 60006 878// 91800 333 10124 20078=
07299,1998-10-08 21:00:00,8,1020.8,1.2,100,8,8000,3.704,,,210,,,,,,,,,,,wg-a,,,,AAXX 08214 07299 12758 72102 10080 20080 39880 40208 51012 60006 875// 92100=
07299,1998-10-09 00:00:00,8,1021.4,0.5,100,8,6000,3.704,,,300,,,,,,,,,,,wg-a,,,,AAXX 09004 07299 12556 73002 10080 20080 39886 40214 53005 60006 875// 90000=
07299,1998-10-09 03:00:00,8,1022.2,0.7,100,8,400,7.408,,,300,,,,,,,,,,45,wg-a,,,,AAXX 09034 07299 12/04 93004 10080 20080 39893 40222 51007 60006 74542 89/// 90300=
07299,1998-10-09 06:00:00,8,1022.6,0.3,100,8,400,3.704,,,110,7.1,10.3,,,,,,,,44,wg-a,,,,AAXX 09064 07299 02104 81102 10080 20080 39897 40226 51003 60006 74442 886// 90600 333 10103 20071 60004=
07299,1998-10-09 09:00:00,10,1022.9,0.5,100,10,4000,7.408,,,350,,,,,,,,,,10,wg-a,,,,AAXX 09094 07299 12140 73504 10100 20100 39902 40229 51005 60006 71042 876// 90900=
07299,1998-10-09 12:00:00,14,1021.2,-1.2,77,10,8000,3.704,,,20,,,,,,,,,,1,wg-a,,,,AAXX 09124 07299 12458 30202 10140 20100 39890 40212 58012 60006 70141 82131 91200=
07299,1998-10-09 15:00:00,16,1019.1,-1.8,68,10,10000,0,,,0,,,,,,,,,,,wg-a,,,,AAXX 09154 07299 12560 /0000 10160 20100 39872 40191 56018 60006 81130 91500=
07299,1998-10-09 18:00:00,10,1019.4,-0.3,93,9,10000,3.704,,,210,8,15.9,,,,,,,,,wg-a,,,,AAXX 09184 07299 12560 /2102 10100 20090 39869 40194 55003 60006 81130 91800 333 10159 20080=
07299,1998-10-09 21:00:00,8,1020.2,0.6,100,8,10000,3.704,,,140,,,,,,,,,,,wg-a,,,,AAXX 09214 07299 12560 41402 10080 20080 39875 40202 53006 60006 81130 92100=
07299,1998-10-10 00:00:00,7,1019.5,-0.9,100,7,12000,3.704,,,210,,,,,,,,,,,wg-a,,,,AAXX 10004 07299 12562 42102 10070 20070 39866 40195 58009 60006 82130 90000=
07299,1998-10-10 03:00:00,8,1018,-1.3,100,8,11000,3.704,,,200,,,,0,,,,,,,wg-a,,,,AAXX 10034 07299 12561 72002 10080 20080 39852 40180 56013 60007 8283/ 90300=
07299,1998-10-10 06:00:00,10,1017.9,0.1,93,9,16000,3.704,,,130,6.5,10,,,,,,,,,wg-a,,,,AAXX 10064 07299 02566 71302 10100 20090 39854 40179 53001 60006 8683/ 90600 333 10100 20065 60004=
07299,1998-10-10 09:00:00,14,1017,-0.6,67,8,16000,11.112,,,240,,,,,,,,,,,wg-a,,,,AAXX 10094 07299 12566 72406 10140 20080 39849 40170 58006 60006 85802 90900=
07299,1998-10-10 12:00:00,14,1016.1,-0.7,72,9,25000,14.816,,,280,,,,,,,,,,,wg-a,,,,AAXX 10124 07299 12575 72808 10140 20090 39841 40161 58007 60006 8487/ 91200=
07299,1998-10-10 15:00:00,15,1015,-0.9,59,7,25000,18.52,,,250,,,,,,,,,,,wg-a,,,,AAXX 10154 07299 12675 72510 10150 20070 39831 40150 56009 60006 82572 91500=
07299,1998-10-10 18:00:00,12,1016.4,1.1,82,9,15000,3.704,,,360,9.6,16.6,,,,,,,,21,wg-a,,,,AAXX 10184 07299 02665 73602 10120 20090 39842 40164 53011 61000 72162 875// 91800 333 10166 20096 6100=
07299,1998-10-10 21:00:00,11,1017.5,1,94,10,15000,0,,,0,,,,,,,,,,,wg-a,,,,AAXX 10214 07299 12665 70000 10110 20100 39852 40175 51010 60006 8657/ 92100=
07299,1998-10-11 00:00:00,13,1017.3,0,82,10,20000,7.408,,,230,,,,,,,,,,,wg-a,,,,AAXX 11004 07299 12570 72304 10130 20100 39852 40173 50000 60006 875// 90000=
07299,1998-10-11 03:00:00,13,1017.4,-0,82,10,20000,14.816,,,270,,,,,,,,,,,wg-a,,,,AAXX 11034 07299 12570 72708 10130 20100 39852 40174 55000 60006 875// 90300=
07299,1998-10-11 06:00:00,12,1018.2,0.7,94,11,10000,11.112,,,250,11,13.3,,,,,,,,21,wg-a,,,,AAXX 11064 07299 02460 72506 10120 20110 39859 40182 53007 61000 72165 875// 90600 333 10133 20110 6000=
07299,1998-10-11 09:00:00,14,1018.3,0.4,77,10,20000,22.224,,,260,,,,,,,,,,,wg-a,,,,AAXX 11094 07299 12570 72612 10140 20100 39863 40183 50004 60006 8687/ 90900=
07299,1998-10-11 12:00:00,14,1017.2,-1.1,67,8,35000,18.52,,,270,,,,,,,,,,,wg-a,,,,AAXX 11124 07299 12681 72710 10140 20080 39852 40172 56011 60006 8387/ 91200=
07299,1998-10-11 15:00:00,13,1015.8,-1.4,72,8,20000,11.112,,,220,,,,,,,,,,21,wg-a,,,,AAXX 11154 07299 02670 72206 10130 20080 39838 40158 56014 61000 72162 8357/ 91500 333 ////=
07299,1998-10-11 18:00:00,11,1016.2,0.2,87,9,20000,7.408,,,250,11,15.8,,,,,,,,21,wg-a,,,,AAXX 11184 07299 02570 72504 10110 20090 39839 40162 53002 61000 72162 8757/ 91800 333 10158 20110 6001=
07299,1998-10-11 21:00:00,12,1015.3,-0.8,88,10,20000,7.408,,,120,,,,,,,,,,,wg-a,,,,AAXX 11214 07299 12470 81204 10120 20100 39831 40153 56008 60006 878// 92100=
07299,1998-10-12 00:00:00,11,1013.9,-1.5,100,11,20000,0,,,0,,,,,,,,,,,wg-a,,,,AAXX 12004 07299 12470 80000 10110 20110 39817 40139 56015 60006 878// 90000=
07299,1998-10-12 03:00:00,12,1012.7,-1,94,11,15000,7.408,,,240,,,,,,,,,,,wg-a,,,,AAXX 12034 07299 12465 82404 10120 20110 39806 40127 57010 60006 875// 90300=
07299,1998-10-12 06:00:00,12,1012.7,-0,88,10,12000,22.224,,,260,11.1,12.6,,,,,,,,21,wg-a,,,,AAXX 12064 07299 02462 72612 10120 20100 39806 40127 55000 61000 72162 878// 90600 333 10126 20111 6001=
07299,1998-10-12 09:00:00,12,1014.5,1.8,82,9,20000,14.816,,,270,,,,,,,,,,,wg-a,,,,AAXX 12094 07299 12570 72708 10120 20090 39824 40145 51018 60006 872// 90900=
07299,1998-10-12 12:00:00,12,1016.1,1.4,76,8,15000,31.484,,,260,,,,0,,,,,,80,wg-a,,,,AAXX 12124 07299 02565 72617 10120 20080 39838 40161 52014 60006 78086 878// 91200 333 60007=
07299,1998-10-12 15:00:00,12,1017.2,1.1,82,9,20000,11.112,,,250,,,,0,,,,,,2,wg-a,,,,AAXX 12154 07299 12570 62506 10120 20090 39849 40172 51011 60007 70286 86800 91500=
07299,1998-10-12 18:00:00,10,1019.5,2,87,8,20000,14.816,,,250,9.4,13.2,,,,,,,,1,wg-a,,,,AAXX 12184 07299 12570 52508 10100 20080 39869 40195 51020 60006 70186 85800 91800 333 10132 20094=
07299,1998-10-12 21:00:00,9,1021.3,1.7,93,8,20000,22.224,,,260,,,,,,,,,,1,wg-a,,,,AAXX 12214 07299 02670 32612 10090 20080 39886 40213 51017 61000 70186 83800 92100 333 ////=
07299,1998-10-13 00:00:00,9,1022.5,1.1,87,7,20000,14.816,,,260,,,,,,,,,,2,wg-a,,,,AAXX 13004 07299 02770 42608 10090 20070 39897 40225 52011 61000 70286 84500 90000 333 ////=
07299,1998-10-13 03:00:00,8,1023.4,0.8,87,6,20000,3.704,,,160,,,,,,,,,,,wg-a,,,,AAXX 13034 07299 12770 /1602 10080 20060 39905 40234 51008 60006 85500 90300=
07299,1998-10-13 06:00:00,5,1024.9,1,100,5,20000,7.408,,,100,4.8,10.3,,,,,,,,,wg-a,,,,AAXX 13064 07299 02770 /1004 10050 20050 39916 40249 53010 60006 81531 90600 333 10103 20048 60004=
07299,1998-10-13 09:00:00,12,1025.4,1.3,71,7,20000,3.704,,,250,,,,,,,,,,,wg-a,,,,AAXX 13094 07299 12570 /2502 10120 20070 39929 40254 51013 60006 81801 90900=
07299,1998-10-13 12:00:00,14,1024.5,-0.7,55,5,25000,14.816,,,290,,,,,,,,,,,wg-a,,,,AAXX 13124 07299 12675 52908 10140 20050 39923 40245 58007 60006 83202 91200=
07299,1998-10-13 15:00:00,14,1024.1,-0.5,55,5,500,14.816,,,300,,,,,,,,,,,wg-a,,,,AAXX 13154 07299 12600 /3008 10140 20050 39918 40241 56005 60006 81131 91500=
07299,1998-10-13 18:00:00,9,1025.1,0.4,87,7,500,7.408,,,250,5.2,15.4,,,,,,,,,wg-a,,,,AAXX 13184 07299 12700 72504 10090 20070 39922 40251 53004 60006 81572 91800 333 10154 20052=
07299,1998-10-13 21:00:00,9,1025.4,0.3,93,8,25000,3.704,,,110,,,,,,,,,,,wg-a,,,,AAXX 13214 07299 12/75 71102 10090 20080 39925 40254 51003 60006 8707/ 92100=
07299,1998-10-14 00:00:00,10,1025.1,-0.1,87,8,20000,3.704,,,210,,,,,,,,,,,wg-a,,,,AAXX 14004 07299 12570 72102 10100 20080 39924 40251 58001 60006 8757/ 90000=
07299,1998-10-14 03:00:00,10,1023.9,-1.2,93,9,20000,7.408,,,110,,,,,,,,,,,wg-a,,,,AAXX 14034 07299 12570 71104 10100 20090 39912 40239 57012 60006 875// 90300=
07299,1998-10-14 06:00:00,10,1024.3,0.4,93,9,20000,7.408,,,170,7.6,10.9,,,,,,,,2,wg-a,,,,AAXX 14064 07299 02570 71704 10100 20090 39916 40243 53004 60006 70262 875// 90600 333 10109 20076 61000=
07299,1998-10-14 09:00:00,13,1024.7,0.8,82,10,20000,7.408,,,130,,,,0,,,,,,2,wg-a,,,,AAXX 14094 07299 12570 71304 10130 20100 39923 40247 51008 60007 70262 875// 90900=
07299,1998-10-14 12:00:00,14,1024.1,-0.4,82,11,25000,7.408,,,90,,,,,,,,,,2,wg-a,,,,AAXX 14124 07299 12475 70904 10140 20110 39919 40241 58004 60006 70262 875// 91200=
07299,1998-10-14 15:00:00,15,1024.2,0.2,88,13,8000,14.816,,,250,,,,,,,,,,,wg-a,,,,AAXX 14154 07299 32/58 /2508 10150 20130 39921 40242 53002 91500=
07299,1998-10-14 18:00:00,14,1025.4,1.1,88,12,20000,0,,,0,10.2,15.8,,,,,,,,1,wg-a,,,,AAXX 14184 07299 12470 70000 10140 20120 39932 40254 53011 60006 70162 8587/ 91800 333 10158 20102=
07299,1998-10-14 21:00:00,13,1026,0.5,88,11,20000,0,,,0,,,,,,,,,,,wg-a,,,,AAXX 14214 07299 12570 70000 10130 20110 39936 40260 52005 60006 875// 92100=
07299,1998-10-15 00:00:00,14,1025.7,-0.2,82,11,20000,7.408,,,210,,,,,,,,,,,wg-a,,,,AAXX 15004 07299 12570 72104 10140 20110 39934 40257 57002 60006 875// 90000=
07299,1998-10-15 03:00:00,13,1024.8,-0.9,88,11,20000,7.408,,,190,,,,,,,,,,,wg-a,,,,AAXX 15034 07299 12570 /1904 10130 20110 39925 40248 57009 60006 86500 90300=
07299,1998-10-15 06:00:00,13,1024.5,-0.4,88,11,20000,7.408,,,150,12.3,14.3,,,,,,,,,wg-a,,,,AAXX 15064 07299 02570 71504 10130 20110 39921 40245 58004 60006 875// 90600 333 10143 20123 60004=
07299,1998-10-15 12:00:00,18,1023.4,-1.1,73,13,0,14.816,,,280,,,,,,,,,,,wg-a,,,,AAXX 15124 07299 12/// /2808 10180 20130 39916 40234 57011 60006 91200=
07299,1998-10-15 18:00:00,15,1023.6,0.8,94,14,10000,3.704,,,240,12.7,17.8,,,,,,,,25,wg-a,,,,AAXX 15184 07299 02460 72402 10150 20140 39915 40236 53008 61000 72586 873// 91800 333 10178 20127 6100=
07299,1998-10-15 21:00:00,14,1023.6,-0.1,94,13,15000,0,,,0,,,,,,,,,,2,wg-a,,,,AAXX 15214 07299 02465 70000 10140 20130 39914 40236 56001 61000 70286 878// 92100 333 ////=
07299,1998-10-16 00:00:00,14,1023.2,-0.3,94,13,15000,7.408,,,210,,,,,,,,,,2,wg-a,,,,AAXX 16004 07299 02565 72104 10140 20130 39911 40232 58003 61000 70286 8353/ 90000 333 ////=
07299,1998-10-16 03:00:00,13,1022.6,-0.7,100,13,20000,3.704,,,200,,,,0,,,,,,60,wg-a,,,,AAXX 16034 07299 12470 72002 10130 20130 39904 40226 58007 60007 76062 878// 90300=
07299,1998-10-16 06:00:00,13,1021.9,-0.7,100,13,6000,7.408,,,90,12.8,14.6,,,,,1,,,11,wg-a,,,,AAXX 16064 07299 02256 20904 10130 20130 39897 40219 58007 60006 71161 82501 90600 333 10146 20128 60014=
07299,1998-10-16 09:00:00,15,1021.5,-0.2,94,14,4000,11.112,,,360,,,,,,,,,,10,wg-a,,,,AAXX 16094 07299 12240 33606 10150 20140 39895 40215 58002 60006 71040 83800 90900=
07299,1998-10-16 12:00:00,19,1019,-2,73,14,12000,3.704,,,90,,,,,,,,,,1,wg-a,,,,AAXX 16124 07299 12462 30902 10190 20140 39875 40190 58020 60006 70141 83800 91200=
07299,1998-10-16 15:00:00,20,1016.4,-2.4,68,14,14000,11.112,,,80,,,,,,,,,,,wg-a,,,,AAXX 16154 07299 12564 /0806 10200 20140 39851 40164 56024 60006 81101 91500=
07299,1998-10-16 18:00:00,13,1016.7,-0.4,94,12,10000,7.408,,,210,11.6,20.3,,,,,,,,,wg-a,,,,AAXX 16184 07299 12560 32104 10130 20120 39846 40167 55004 60006 81501 91800 333 10203 20116=
07299,1998-10-16 21:00:00,11,1016.3,-0.7,100,11,9000,7.408,,,200,,,,,,,,,,,wg-a,,,,AAXX 16214 07299 12/59 02004 10110 20110 39839 40163 56007 60006 80000 92100=
07299,1998-10-17 00:00:00,10,1015.5,-0.7,100,10,8000,7.408,,,210,,,,,,,,,,,wg-a,,,,AAXX 17004 07299 12/58 02104 10100 20100 39831 40155 56007 60006 80000 90000=
07299,1998-10-17 03:00:00,8,1015.3,-0.5,100,8,8000,7.408,,,180,,,,,,,,,,,wg-a,,,,AAXX 17034 07299 12/58 01804 10080 20080 39827 40153 58005 60006 80000 90300=
07299,1998-10-17 06:00:00,10,1014.2,-0.9,100,10,2200,7.408,,,170,7.9,12.6,,,,,,,,10,wg-a,,,,AAXX 17064 07299 02722 71704 10100 20100 39818 40142 58009 60006 71011 81532 90600 333 10126 20079 60004=
07299,1998-10-17 09:00:00,15,1013.4,-0.2,82,12,8000,3.704,,,160,,,,0,,,,,,,wg-a,,,,AAXX 17094 07299 12/58 31602 10150 20120 39816 40134 58002 60007 81032 90900=
07299,1998-10-17 12:00:00,21,1010.5,-2.1,53,11,20000,3.704,,,150,,,,,,,,,,,wg-a,,,,AAXX 17124 07299 12770 71502 10210 20110 39795 40105 56021 60006 83132 91200=
07299,1998-10-17 15:00:00,21,1009.4,-1.1,56,12,22000,3.704,,,260,,,,,,,,,,,wg-a,,,,AAXX 17154 07299 12772 72602 10210 20120 39784 40094 56011 60006 85832 91500=
07299,1998-10-17 18:00:00,17,1010.2,0.4,72,12,13000,3.704,,,210,9.4,23.7,,,,,,,,17,wg-a,,,,AAXX 17184 07299 02663 82102 10170 20120 39787 40102 53004 60006 71798 879// 91800 333 10237 20094 61000=
07299,1998-10-17 21:00:00,14,1013.2,2.5,94,13,8000,14.816,,,230,,,,7,,,,,,61,wg-a,,,,AAXX 17214 07299 12458 82308 10140 20130 39814 40132 51025 60077 76198 878// 92100=
07299,1998-10-18 00:00:00,11,1017,3.3,94,10,15000,7.408,,,290,,,,2,,,,,,21,wg-a,,,,AAXX 18004 07299 02465 82904 10110 20100 39847 40170 53033 60106 72198 878// 90000 333 60027=
07299,1998-10-18 03:00:00,8,1019.4,2,100,8,18000,7.408,,,230,,,,,,,,,,,wg-a,,,,AAXX 18034 07299 12568 72304 10080 20080 39867 40194 51020 60006 83802 90300=
07299,1998-10-18 06:00:00,6,1020.7,0.9,100,6,25000,7.408,,,230,5.7,16.5,,,,,,,,,wg-a,,,,AAXX 18064 07299 12575 32304 10060 20060 39876 40207 51009 60006 82801 90600 333 10165 20057=
07299,1998-10-18 09:00:00,12,1020.9,1,76,8,500,14.816,,,270,,,,,,,,,,,wg-a,,,,AAXX 18094 07299 12400 /2708 10120 20080 39886 40209 51010 60006 81802 90900=
07299,1998-10-18 12:00:00,14,1019.9,-0.8,58,6,45000,11.112,,,270,,,,,,,,,,,wg-a,,,,AAXX 18124 07299 12683 72706 10140 20060 39878 40199 58008 60006 81132 91200=
07299,1998-10-18 15:00:00,14,1019.1,-0.9,55,5,60000,11.112,,,300,,,,,,,,,,,wg-a,,,,AAXX 18154 07299 12686 73006 10140 20050 39869 40191 56009 60006 82802 91500=
07299,1998-10-18 18:00:00,9,1019.5,-0,87,7,25000,7.408,,,300,5.2,15,,,,,,,,,wg-a,,,,AAXX 18184 07299 12775 73004 10090 20070 39868 40195 55000 60006 82807 91800 333 10150 20052=
07299,1998-10-18 21:00:00,7,1019.6,-0.1,93,6,20000,3.704,,,350,,,,,,,,,,,wg-a,,,,AAXX 18214 07299 12770 53502 10070 20060 39867 40196 58001 60006 825/2 92100=
07299,1998-10-19 00:00:00,5,1019,-0.8,100,5,18000,3.704,,,340,,,,,,,,,,,wg-a,,,,AAXX 19004 07299 12/68 23402 10050 20050 39859 40190 58008 60006 80001 90000=
07299,1998-10-19 03:00:00,4,1018.4,-0.6,100,4,4500,3.704,,,360,,,,,,,,,,10,wg-a,,,,AAXX 19034 07299 12245 73602 10040 20040 39852 40184 58006 60006 71011 8763/ 90300=
07299,1998-10-19 06:00:00,5,1018.4,-0,100,5,1400,3.704,,,320,2.5,8.5,,,,,,,,40,wg-a,,,,AAXX 19064 07299 02114 73202 10050 20050 39852 40184 55000 60006 74011 876// 90600 333 10085 20025 60004=
07299,1998-10-19 09:00:00,5,1019.4,1.1,100,5,2300,7.408,,,320,,,,,,,,,,10,wg-a,,,,AAXX 19094 07299 12123 83204 10050 20050 39863 40194 51011 60006 71022 876// 90900=
07299,1998-10-19 12:00:00,9,1019.3,0.3,87,7,6000,3.704,,,310,,,,,,,,,,,wg-a,,,,AAXX 19124 07299 12456 /3102 10090 20070 39866 40193 50003 60006 86600 91200=
07299,1998-10-19 15:00:00,11,1018.7,-0.4,71,6,13000,7.408,,,20,,,,,,,,,,,wg-a,,,,AAXX 19154 07299 12563 20204 10110 20060 39862 40187 55004 60006 81801 91500=
07299,1998-10-19 18:00:00,8,1020.7,1.6,87,6,15000,3.704,,,300,4.8,11.3,,,,,,,,,wg-a,,,,AAXX 19184 07299 12665 73002 10080 20060 39878 40207 53016 60006 86501 91800 333 10113 20048=
07299,1998-10-19 21:00:00,5,1022.2,1.1,93,4,15000,3.704,,,200,,,,,,,,,,,wg-a,,,,AAXX 19214 07299 12665 /2002 10050 20040 39889 40222 51011 60006 81500 92100=
07299,1998-10-20 00:00:00,3,1022.9,0.6,100,3,15000,0,,,0,,,,,,,,,,,wg-a,,,,AAXX 20004 07299 12665 70000 10030 20030 39894 40229 51006 60006 875// 90000=
07299,1998-10-20 03:00:00,4,1023.1,0.3,100,4,15000,3.704,,,170,,,,,,,,,,,wg-a,,,,AAXX 20034 07299 12665 21702 10040 20040 39897 40231 53003 60006 81530 90300=
07299,1998-10-20 06:00:00,5,1023.8,0.7,93,4,17000,3.704,,,170,3.1,7.6,,,,,,,,,wg-a,,,,AAXX 20064 07299 02667 51702 10050 20040 39905 40238 53007 60006 85500 90600 333 10076 20031 60004=
07299,1998-10-20 09:00:00,9,1024.9,1.6,81,6,17000,14.816,,,250,,,,,,,,,,,wg-a,,,,AAXX 20094 07299 12467 42508 10090 20060 39921 40249 51016 60006 84800 90900=
07299,1998-10-20 12:00:00,13,1025,0.4,51,3,35000,22.224,,,250,,,,,,,,,,,wg-a,,,,AAXX 20124 07299 12581 /2512 10130 20030 39925 40250 50004 60006 81830 91200=
07299,1998-10-20 15:00:00,12,1025.3,0.2,47,1,40000,18.52,,,280,,,,,,,,,,,wg-a,,,,AAXX 20154 07299 12682 /2810 10120 20010 39928 40253 53002 60006 81801 91500=
07299,1998-10-20 18:00:00,6,1027.2,1.2,81,3,25000,3.704,,,190,4.6,13.3,,,,,,,,,wg-a,,,,AAXX 20184 07299 12775 /1902 10060 20030 39939 40272 53012 60006 81501 91800 333 10133 20046=
07299,1998-10-20 21:00:00,3,1028.1,0.6,93,2,20000,3.704,,,180,,,,,,,,,,,wg-a,,,,AAXX 20214 07299 12/70 61802 10030 20020 39944 40281 50006 60006 80001 92100=
07299,1998-10-21 00:00:00,2,1027.3,-1,100,2,20000,7.408,,,210,,,,,,,,,,,wg-a,,,,AAXX 21004 07299 12/70 52104 10020 20020 39936 40273 58010 60006 80001 90000=
07299,1998-10-21 03:00:00,3,1026.2,-1,93,2,20000,7.408,,,180,,,,,,,,,,,wg-a,,,,AAXX 21034 07299 12/70 61804 10030 20020 39925 40262 56010 60006 80001 90300=
07299,1998-10-21 06:00:00,4,1025.9,-0.1,93,3,20000,11.112,,,180,2.1,5.9,,,,,,,,,wg-a,,,,AAXX 21064 07299 02/70 71806 10040 20030 39924 40259 58001 60006 81032 90600 333 10059 20021 60004=
07299,1998-10-21 09:00:00,9,1025.3,0.1,71,4,20000,7.408,,,140,,,,,,,,,,,wg-a,,,,AAXX 21094 07299 12/70 71404 10090 20040 39924 40253 53001 60006 82032 90900=
07299,1998-10-21 12:00:00,11,1024.7,-0.3,66,5,500,3.704,,,180,,,,,,,,,,,wg-a,,,,AAXX 21124 07299 12/00 71802 10110 20050 39921 40247 57003 60006 82032 91200=
07299,1998-10-21 15:00:00,12,1024.3,-0.2,71,7,15000,3.704,,,160,,,,,,,,,,,wg-a,,,,AAXX 21154 07299 12/65 61602 10120 20070 39919 40243 55002 60006 83032 91500=
07299,1998-10-21 18:00:00,8,1025.6,0.8,87,6,20000,7.408,,,190,3.4,13,,,,,,,,,wg-a,,,,AAXX 21184 07299 12/70 51904 10080 20060 39927 40256 53008 60006 85030 91800 333 10130 20034=
07299,1998-10-21 21:00:00,8,1026.7,0.9,87,6,20000,11.112,,,190,,,,,,,,,,,wg-a,,,,AAXX 21214 07299 12/70 41906 10080 20060 39936 40267 52009 60006 82031 92100=
07299,1998-10-22 00:00:00,5,1028,0.9,100,5,20000,7.408,,,180,,,,,,,,,,,wg-a,,,,AAXX 22004 07299 12/70 21804 10050 20050 39945 40280 51009 60006 8/0/1 90000=
07299,1998-10-22 03:00:00,5,1028.4,0.3,93,4,20000,3.704,,,170,,,,,,,,,,,wg-a,,,,AAXX 22034 07299 12/70 21702 10050 20040 39949 40284 51003 60006 81031 90300=
07299,1998-10-22 06:00:00,5,1028.4,-0,93,4,20000,11.112,,,190,4.3,8.2,,,,,,,,,wg-a,,,,AAXX 22064 07299 02/70 71906 10050 20040 39949 40284 54000 60006 81031 90600 333 10082 20043 60004=
07299,1998-10-22 09:00:00,10,1028.8,1,82,7,20000,7.408,,,160,,,,,,,,,,,wg-a,,,,AAXX 22094 07299 12/70 71604 10100 20070 39959 40288 51010 60006 81031 90900=
07299,1998-10-22 12:00:00,17,1026.7,-1.2,52,7,20000,3.704,,,110,,,,,,,,,,,wg-a,,,,AAXX 22124 07299 12/70 71102 10170 20070 39947 40267 58012 60006 81031 91200=
07299,1998-10-22 15:00:00,17,1026.9,0.2,59,9,20000,7.408,,,230,,,,,,,,,,,wg-a,,,,AAXX 22154 07299 12/70 72304 10170 20090 39949 40269 53002 60006 81032 91500=
07299,1998-10-22 18:00:00,9,1027.7,-0,93,8,500,3.704,,,240,4.8,17.3,,,,,,,,,wg-a,,,,AAXX 22184 07299 12/00 22402 10090 20080 39948 40277 55000 60006 81032 91800 333 10173 20048=
07299,1998-10-22 21:00:00,7,1028.7,0.7,100,7,20000,11.112,,,160,,,,,,,,,,,wg-a,,,,AAXX 22214 07299 12/70 01606 10070 20070 39955 40287 51007 60006 80000 92100=
07299,1998-10-23 00:00:00,7,1027.9,-0.8,93,6,20000,11.112,,,180,,,,,,,,,,,wg-a,,,,AAXX 23004 07299 12/70 01806 10070 20060 39947 40279 57008 60006 80000 90000=
07299,1998-10-23 03:00:00,6,1026.2,-1.7,100,6,20000,11.112,,,190,,,,,,,,,,,wg-a,,,,AAXX 23034 07299 12/70 51906 10060 20060 39930 40262 58017 60006 84031 90300=
07299,1998-10-23 06:00:00,6,1026.1,-0.1,100,6,500,11.112,,,190,5.7,8.8,,,,,,,,,wg-a,,,,AAXX 23064 07299 02/00 31906 10060 20060 39928 40261 58001 60006 83031 90600 333 10088 20057 60004=
07299,1998-10-23 09:00:00,11,1024.6,-1,82,8,13000,7.408,,,160,,,,,,,,,,,wg-a,,,,AAXX 23094 07299 12763 71604 10110 20080 39920 40246 58010 60006 81532 90900=
07299,1998-10-23 12:00:00,17,1022.1,-1.8,63,10,15000,3.704,,,170,,,,,,,,,,,wg-a,,,,AAXX 23124 07299 12/65 71702 10170 20100 39902 40221 56018 60006 82032 91200=
07299,1998-10-23 15:00:00,18,1019.6,-2.2,56,9,15000,7.408,,,160,,,,,,,,,,,wg-a,,,,AAXX 23154 07299 12765 71604 10180 20090 39880 40196 56022 60006 81532 91500=
07299,1998-10-23 18:00:00,14,1020,-0.1,88,12,13000,7.408,,,90,5.9,18.6,,,,,,,,21,wg-a,,,,AAXX 23184 07299 02663 80904 10140 20120 39879 40200 58001 61000 72162 8587/ 91800 333 10186 20059 6100=
07299,1998-10-23 21:00:00,12,1018.7,-1.4,94,11,15000,11.112,,,270,,,,,,,,,,60,wg-a,,,,AAXX 23214 07299 02665 72706 10120 20110 39865 40187 56014 61000 76062 8487/ 92100 333 ////=
07299,1998-10-24 00:00:00,13,1018.4,-0.3,88,11,9000,14.816,,,250,,,,10,,,,,,61,wg-a,,,,AAXX 24004 07299 02559 72508 10130 20110 39862 40184 55003 60106 76162 8587/ 90000 333 60107=
07299,1998-10-24 03:00:00,12,1020.7,2.2,88,10,20000,14.816,,,240,,,,,,,,,,1,wg-a,,,,AAXX 24034 07299 02570 52408 10120 20100 39884 40207 51022 61000 70162 85800 90300 333 ////=
07299,1998-10-24 06:00:00,11,1020.8,-0.1,87,9,15000,11.112,,,240,10.4,13.5,,,,,10,,,2,wg-a,,,,AAXX 24064 07299 02565 /2406 10110 20090 39883 40208 55001 60006 70286 84800 90600 333 10135 20104 60104=
07299,1998-10-24 09:00:00,13,1020.5,0,82,10,25000,14.816,,,260,,,,,,,,,,,wg-a,,,,AAXX 24094 07299 12575 72608 10130 20100 39883 40205 50000 60006 85801 90900=
07299,1998-10-24 12:00:00,15,1017.4,-2.8,67,9,500,11.112,,,250,,,,,,,,,,,wg-a,,,,AAXX 24124 07299 12600 72506 10150 20090 39855 40174 58028 60006 83838 91200=
07299,1998-10-24 15:00:00,14,1013.4,-4.1,72,9,35000,7.408,,,270,,,,,,,,,,,wg-a,,,,AAXX 24154 07299 12681 72704 10140 20090 39815 40134 56041 60006 81157 91500=
07299,1998-10-24 18:00:00,13,1010,-3.3,77,9,25000,14.816,,,250,10,15.5,,,,,,,,60,wg-a,,,,AAXX 24184 07299 02775 72508 10130 20090 39781 40100 56033 61000 76062 8557/ 91800 333 10155 20100 6100=
07299,1998-10-24 21:00:00,14,1002.8,-6.8,77,10,15000,14.816,,,150,,,,1,,,,,,60,wg-a,,,,AAXX 24214 07299 12765 71508 10140 20100 39713 40028 58068 60017 76066 875// 92100=
07299,1998-10-25 00:00:00,17,996.5,-5.8,72,12,15000,35.188,,,220,,,,2,,,,,,61,wg-a,,,,AAXX 25004 07299 02765 72219 10170 20120 39655 49965 56058 60036 76166 875// 90000 333 60027=
07299,1998-10-25 03:00:00,16,996.8,0.2,72,11,15000,42.596,,64.82,260,,,,3,,,,,,60,wg-a,,,,AAXX 25034 07299 12765 72623 10160 20110 39656 49968 53002 60037 76066 875// 90300 333 91035=
07299,1998-10-25 06:00:00,13,1001.3,3.9,77,9,15000,29.632,,,260,11.4,18.1,,,,,7,,,1,wg-a,,,,AAXX 25064 07299 02565 /2616 10130 20090 39696 40013 51039 60006 70186 85830 90600 333 10181 20114 60074=
07299,1998-10-25 09:00:00,11,1004.4,2.9,87,9,8000,35.188,,,280,,,,3,,,,,,25,wg-a,,,,AAXX 25094 07299 12558 /2819 10110 20090 39725 40044 51029 60037 72586 86830 90900=
07299,1998-10-25 12:00:00,15,1005,0.9,55,6,25000,35.188,,,260,,,,,,,,,,3,wg-a,,,,AAXX 25124 07299 12575 32619 10150 20060 39734 40050 50009 60036 70386 83200 91200=
07299,1998-10-25 15:00:00,14,1005.5,0.4,55,5,500,22.224,,44.448,250,,,,,,,,,,,wg-a,,,,AAXX 25154 07299 12600 32512 10140 20050 39738 40055 51004 60006 83801 91500 333 91024=
07299,1998-10-25 18:00:00,10,1006.7,0.8,82,7,15000,7.408,,,180,9.7,15.6,,,,,,,,25,wg-a,,,,AAXX 25184 07299 02565 /1804 10100 20070 39746 40067 53008 61000 72598 85930 91800 333 10156 20097 6000=
07299,1998-10-25 21:00:00,8,1010.8,3.7,81,5,25000,18.52,,,250,,,,1,,,,,,1,wg-a,,,,AAXX 25214 07299 12575 42510 10080 20050 39783 40108 51037 60017 70198 84900 92100=
07299,1998-10-26 00:00:00,8,1012.4,1.6,87,6,25000,7.408,,,220,,,,,,,,,,3,wg-a,,,,AAXX 26004 07299 12575 /2204 10080 20060 39799 40124 51016 60016 70398 84850 90000=
07299,1998-10-26 03:00:00,8,1012.4,0,87,6,25000,11.112,,,260,,,,,,,,,,,wg-a,,,,AAXX 26034 07299 12575 72606 10080 20060 39799 40124 50000 60006 84870 90300=
07299,1998-10-26 06:00:00,6,1014.5,1.6,93,5,20000,7.408,,,230,5.8,10.9,,,,,,,,21,wg-a,,,,AAXX 26064 07299 02570 /2304 10060 20050 39816 40145 51016 61000 72186 83870 90600 333 10109 20058 6004=
07299,1998-10-26 09:00:00,10,1015.9,1.7,82,7,20000,14.816,,,240,,,,,,,,,,,wg-a,,,,AAXX 26094 07299 12270 /2408 10100 20070 39834 40159 51017 60006 84800 90900=
07299,1998-10-26 12:00:00,12,1014.7,-0.9,67,6,15000,18.52,,,260,,,,,,,,,,25,wg-a,,,,AAXX 26124 07299 02465 72610 10120 20060 39825 40147 57009 61000 72586 8293/ 91200 333 6100=
07299,1998-10-26 15:00:00,12,1013,-1.7,62,5,20000,18.52,,,230,,,,1,,,,,,3,wg-a,,,,AAXX 26154 07299 12470 72310 10120 20050 39808 40130 58017 60017 70386 8127/ 91500=
07299,1998-10-26 18:00:00,7,1015.9,2.4,87,5,12000,22.224,,40.744,230,5.8,12.2,,,,,,,,21,wg-a,,,,AAXX 26184 07299 02462 82312 10070 20050 39832 40159 53024 61000 72186 8287/ 91800 333 10122 20058 6001 91022=
07299,1998-10-27 00:00:00,8,1020.5,1.6,87,6,12000,22.224,,,260,,,,,,,,,,1,wg-a,,,,AAXX 27004 07299 02562 82612 10080 20060 39877 40205 53016 61000 70162 878// 90000 333 6100=
07299,1998-10-27 03:00:00,8,1022.5,1.9,81,5,15000,18.52,,,260,,,,,,,,,,,wg-a,,,,AAXX 27034 07299 12665 42610 10080 20050 39896 40225 51019 60006 84500 90300=
07299,1998-10-27 06:00:00,7,1023.9,1.3,87,5,20000,7.408,,,210,6.5,8.1,,,,,7,,,,wg-a,,,,AAXX 27064 07299 02570 82104 10070 20050 39909 40239 51013 60006 84832 90600 333 10081 20065 60074=
07299,1998-10-27 09:00:00,10,1024.8,1.2,66,4,20000,22.224,,,230,,,,,,,,,,21,wg-a,,,,AAXX 27094 07299 02570 82312 10100 20040 39920 40248 51012 61000 72162 8387/ 90900 333 ////=
07299,1998-10-27 12:00:00,13,1023.2,-1.3,58,5,20000,29.632,,,240,,,,,,,,,,2,wg-a,,,,AAXX 27124 07299 02670 72416 10130 20050 39908 40232 58013 61000 70262 8587/ 91200 333 ////=
07299,1998-10-27 15:00:00,13,1022.9,-0.3,58,5,20000,22.224,,,250,,,,,,,,,,,wg-a,,,,AAXX 27154 07299 12670 72512 10130 20050 39905 40229 55003 60006 85532 91500=
07299,1998-10-27 18:00:00,11,1022.1,-0.9,66,5,20000,11.112,,,270,7.1,13.4,,,,,,,,,wg-a,,,,AAXX 27184 07299 12670 72706 10110 20050 39896 40221 55009 60006 8257/ 91800 333 10134 20071=
07299,1998-10-27 21:00:00,10,1021,-1.2,66,4,20000,7.408,,,70,,,,,,,,,,,wg-a,,,,AAXX 27214 07299 12670 70704 10100 20040 39884 40210 56012 60006 8257/ 92100=
07299,1998-10-28 00:00:00,9,1019.5,-1.6,76,5,20000,3.704,,,30,,,,,,,,,,,wg-a,,,,AAXX 28004 07299 12670 70302 10090 20050 39868 40195 58016 60006 8257/ 90000=
07299,1998-10-28 03:00:00,13,1016.3,-2.7,51,3,20000,14.816,,,250,,,,,,,,,,,wg-a,,,,AAXX 28034 07299 12670 72508 10130 20030 39841 40163 58027 60006 8257/ 90300=
07299,1998-10-28 06:00:00,13,1015.3,-0.8,62,6,12000,29.632,,50.004,260,8.5,14.1,,,,,,,,61,wg-a,,,,AAXX 28064 07299 02462 72616 10130 20060 39832 40153 55008 61000 76162 8557/ 90600 333 10141 20085 6100 91027=
07299,1998-10-28 09:00:00,15,1015.3,0.4,72,10,18000,22.224,,50.004,250,,,,,,,,,,15,wg-a,,,,AAXX 28094 07299 02568 82512 10150 20100 39835 40153 53004 61000 71562 875// 90900 333 //// 91027=
07299,1998-10-28 12:00:00,17,1013.8,-1.2,68,11,23000,29.632,,55.56,230,,,,,,,,,,1,wg-a,,,,AAXX 28124 07299 02573 72316 10170 20110 39823 40138 58012 61000 70162 878// 91200 333 //// 91030=
07299,1998-10-28 18:00:00,18,1012.2,-0,64,11,18000,53.708,,77.784,240,12.5,19.5,,,,,,,,,wg-a,,,,AAXX 28184 07299 12468 /2429 10180 20110 39808 40122 55000 60006 85800 91800 333 10195 20125 91042=
07299,1998-10-28 21:00:00,18,1011.4,-0.7,64,11,18000,42.596,,59.264,240,,,,,,,,,,,wg-a,,,,AAXX 28214 07299 12668 42423 10180 20110 39800 40114 58007 60006 84500 92100 333 91032=
07299,1998-10-29 00:00:00,17,1011,-0.4,63,10,18000,38.892,,61.116,250,,,,,,,,,,2,wg-a,,,,AAXX 29004 07299 02668 /2521 10170 20100 39796 40110 55004 61000 70261 86500 90000 333 6100 91033=
07299,1998-10-29 06:00:00,18,1006.7,-1.9,59,10,18000,46.3,,62.968,240,17.1,18.2,,,,,,,,60,wg-a,,,,AAXX 29064 07299 02668 72425 10180 20100 39755 40067 58019 61000 76062 83572 90600 333 10182 20171 6100 91034=
07299,1998-10-29 09:00:00,11,1012,4.4,87,9,7000,18.52,,,260,,,,4,,,,,,10,wg-a,,,,AAXX 29094 07299 12457 82610 10110 20090 39798 40120 53044 60047 71066 875// 90900=
07299,1998-10-29 12:00:00,7,1017.5,4.9,87,5,10000,31.484,,,240,,,,8,,,,,,61,wg-a,,,,AAXX 29124 07299 02460 82417 10070 20050 39847 40175 51049 60126 76166 875// 91200 333 60087=
07299,1998-10-29 18:00:00,8,1023.9,2.9,76,4,20000,25.928,,,250,6.9,18.2,,,,,,,,21,wg-a,,,,AAXX 29184 07299 02570 /2514 10080 20040 39909 40239 53029 61000 72161 81570 91800 333 10182 20069 6100=
07299,1998-10-29 21:00:00,8,1025.3,1.4,76,4,20000,22.224,,,250,,,,,,,,,,,wg-a,,,,AAXX 29214 07299 12570 32512 10080 20040 39923 40253 51014 60006 82502 92100=
07299,1998-10-30 00:00:00,6,1025.1,-0.3,81,3,20000,7.408,,,120,,,,,,,,,,,wg-a,,,,AAXX 30004 07299 12570 61204 10060 20030 39919 40251 58003 60006 81576 90000=
07299,1998-10-30 03:00:00,8,1023.5,-1.3,76,4,20000,18.52,,,250,,,,,,,,,,,wg-a,,,,AAXX 30034 07299 12670 72510 10080 20040 39906 40235 57013 60006 8157/ 90300=
07299,1998-10-30 06:00:00,7,1022.8,-0.8,81,4,7000,31.484,,53.708,250,5.5,8.3,,,,,,,,61,wg-a,,,,AAXX 30064 07299 02357 82517 10070 20040 39898 40228 58008 61000 76162 878// 90600 333 10083 20055 6012 91029=
07299,1998-10-30 12:00:00,8,1019.2,-2,87,6,15000,29.632,,,250,,,,1,,,,,,60,wg-a,,,,AAXX 30124 07299 02565 82516 10080 20060 39864 40192 56020 60026 76066 878// 91200 333 60017=
07299,1998-10-30 15:00:00,9,1017.1,-1.9,81,6,12000,29.632,,,250,,,,1,,,,,,60,wg-a,,,,AAXX 30154 07299 12462 /2516 10090 20060 39845 40171 58019 60017 76062 85902 91500=
07299,1998-10-30 18:00:00,7,1019.2,1.9,87,5,20000,25.928,,,260,6.1,8.8,,7,,,,,,3,wg-a,,,,AAXX 30184 07299 02470 72614 10070 20050 39863 40192 53019 60006 70362 8483/ 91800 333 10088 20061 60077=
07299,1998-10-30 21:00:00,7,1021.3,2,87,5,20000,25.928,,,250,,,,,,,,,,,wg-a,,,,AAXX 30214 07299 12670 /2514 10070 20050 39884 40213 53020 60006 8353/ 92100=
07299,1998-10-31 00:00:00,7,1021.5,0.1,87,5,20000,11.112,,,240,,,,,,,,,,,wg-a,,,,AAXX 31004 07299 12670 62406 10070 20050 39885 40215 52001 60006 81531 90000=
07299,1998-10-31 03:00:00,6,1021.1,-0.5,93,5,20000,3.704,,,230,,,,,,,,,,,wg-a,,,,AAXX 31034 07299 12470 72302 10060 20050 39880 40211 58005 60006 8353/ 90300=
07299,1998-10-31 06:00:00,6,1020.2,-0.7,93,5,11000,11.112,,,280,5.4,7.7,,,,,10,,,,wg-a,,,,AAXX 31064 07299 02/61 /2806 10060 20050 39872 40202 58007 60006 90600 333 10077 20054 60104=
07299,1998-10-31 09:00:00,8,1019.4,-0.6,87,6,18000,3.704,,,250,,,,,,,,,,21,wg-a,,,,AAXX 31094 07299 02568 82502 10080 20060 39866 40194 58006 61000 72162 8687/ 90900 333 ////=
07299,1998-10-31 12:00:00,10,1016.9,-2.1,82,7,15000,18.52,,,240,,,,0,,,,,,60,wg-a,,,,AAXX 31124 07299 02465 82410 10100 20070 39844 40169 58021 60006 76062 8687/ 91200 333 60007=
07299,1998-10-31 15:00:00,10,1014.1,-2.7,82,7,20000,11.112,,,240,,,,,,,,,,3,wg-a,,,,AAXX 31154 07299 02470 82406 10100 20070 39818 40141 56027 61000 70362 8787/ 91500 333 ////=
07299,1998-10-31 18:00:00,10,1011.8,-2.3,76,6,20000,3.704,,,230,6.1,10.3,,,,,,,,1,wg-a,,,,AAXX 31184 07299 12570 72302 10100 20060 39795 40118 56023 60006 70162 8687/ 91800 333 10103 20061=
07299,1998-10-31 21:00:00,12,1007.9,-3.5,67,6,15000,18.52,,,220,,,,,,,,,,60,wg-a,,,,AAXX 31214 07299 02565 72210 10120 20060 39759 40079 58035 61000 76062 8687/ 92100 333 ////=
07299,1998-11-01 00:00:00,10,1004.6,-3.5,82,7,15000,11.112,,,220,,,,1,,,,,,60,wg-a,,,,AAXX 01004 07299 02665 72206 10100 20070 39725 40046 56035 60016 76062 8687/ 90000 333 60017=
07299,1998-11-01 03:00:00,9,1000.2,-4.4,93,8,12000,7.408,,,140,,,,3,,,,,,60,wg-a,,,,AAXX 01034 07299 12662 71404 10090 20080 39681 40002 58044 60037 76066 8587/ 90300=
07299,1998-11-01 06:00:00,12,996.6,-3,82,9,10000,46.3,,75.932,240,8.4,12.6,,,,,,,,21,wg-a,,,,AAXX 01064 07299 02560 62425 10120 20090 39651 49966 56030 61000 72162 84830 90600 333 10126 20084 6006 91041=
07299,1998-11-01 09:00:00,13,1001.8,4.8,82,10,18000,35.188,,51.856,260,,,,,,,,,,21,wg-a,,,,AAXX 01094 07299 02468 72619 10130 20100 39701 40018 53048 61000 72162 85832 90900 333 //// 91028=
07299,1998-11-01 12:00:00,13,1005,3.1,72,8,25000,25.928,,,280,,,,,,,,,,1,wg-a,,,,AAXX 01124 07299 02575 62814 10130 20080 39733 40050 51031 61000 70186 85832 91200 333 6100=
07299,1998-11-01 15:00:00,11,1007.9,2.7,71,6,25000,18.52,,,270,,,,,,,,,,,wg-a,,,,AAXX 01154 07299 12575 /2710 10110 20060 39758 40079 53027 60006 86801 91500=
07299,1998-11-02 00:00:00,6,1014.2,0.8,87,4,20000,7.408,,,230,,,,,,,,,,,wg-a,,,,AAXX 02004 07299 12/70 32304 10060 20040 39813 40142 51008 60006 83030 90000=
07299,1998-11-02 03:00:00,3,1014.1,-0.5,93,2,15000,0,,,0,,,,,,,,,,,wg-a,,,,AAXX 02034 07299 12765 70000 10030 20020 39808 40141 58005 60006 81532 90300=
07299,1998-11-02 06:00:00,3,1013.8,-0.2,100,3,10000,3.704,,,190,2.5,8.6,,,,,,,,,wg-a,,,,AAXX 02064 07299 02660 51902 10030 20030 39806 40138 55002 60006 83832 90600 333 10086 20025 61000=
07299,1998-11-02 09:00:00,8,1013,-0.3,81,5,15000,7.408,,,140,,,,,,,,,,,wg-a,,,,AAXX 02094 07299 12665 71404 10080 20050 39804 40130 58003 60006 81802 90900=
07299,1998-11-02 12:00:00,12,1009.4,-3,54,3,18000,3.704,,,320,,,,,,,,,,,wg-a,,,,AAXX 02124 07299 12568 73202 10120 20030 39773 40094 58030 60006 81102 91200=
07299,1998-11-02 15:00:00,13,1005.1,-4,51,3,18000,14.816,,,110,,,,,,,,,,,wg-a,,,,AAXX 02154 07299 12/68 71108 10130 20030 39733 40051 56040 60006 80002 91500=
07299,1998-11-02 18:00:00,7,1004.8,-0.9,87,5,18000,7.408,,,190,2.5,13,,,,,,,,,wg-a,,,,AAXX 02184 07299 12668 71904 10070 20050 39724 40048 55009 60006 84532 91800 333 10130 20025=
07299,1998-11-02 21:00:00,8,1003.1,-1.6,87,6,18000,7.408,,,180,,,,,,,,,,3,wg-a,,,,AAXX 02214 07299 02668 71804 10080 20060 39709 40031 58016 61000 70362 875// 92100 333 ////=
07299,1998-11-03 00:00:00,9,1001.5,-1.4,93,8,15000,14.816,,,130,,,,1,,,,,,0,wg-a,,,,AAXX 03004 07299 02565 71308 10090 20080 39694 40015 57014 60016 70062 875// 90000 333 60017=
07299,1998-11-03 03:00:00,13,999.3,-1.6,72,8,15000,11.112,,,210,,,,,,,,,,60,wg-a,,,,AAXX 03034 07299 02665 72106 10130 20080 39678 49993 56016 61000 76062 875// 90300 333 ////=
07299,1998-11-03 06:00:00,9,1002.4,2.4,81,6,9000,29.632,,53.708,270,7.2,13.8,,,,,,,,60,wg-a,,,,AAXX 03064 07299 02559 72716 10090 20060 39702 40024 53024 61000 76062 875// 90600 333 10138 20072 6007 91029=
07299,1998-11-03 09:00:00,10,1003.4,1.2,76,6,20000,11.112,,,240,,,,1,,,,,,21,wg-a,,,,AAXX 03094 07299 12670 82406 10100 20060 39713 40034 51012 60017 72162 8352/ 90900=
07299,1998-11-03 12:00:00,11,1003.5,0.1,71,6,20000,7.408,,,230,,,,,,,,,,2,wg-a,,,,AAXX 03124 07299 12570 82304 10110 20060 39716 40035 50001 60016 70262 8387/ 91200=
07299,1998-11-03 15:00:00,10,1002.4,-1.2,82,7,10000,18.52,,,220,,,,1,,,,,,61,wg-a,,,,AAXX 03154 07299 12660 82210 10100 20070 39704 40024 55012 60017 76162 8587/ 91500=
07299,1998-11-03 18:00:00,8,1003.4,0.9,87,6,11000,22.224,,,230,8.2,11.1,,,,,,,,,wg-a,,,,AAXX 03184 07299 12/61 /2312 10080 20060 39712 40034 53009 60006 91800 333 10111 20082=
07299,1998-11-03 21:00:00,8,1004.3,0.7,93,7,10000,11.112,,,140,,,,1,,,,,,21,wg-a,,,,AAXX 03214 07299 12660 81406 10080 20070 39720 40043 51007 60017 72162 875// 92100=
07299,1998-11-04 00:00:00,8,1003.2,-1,93,7,8000,3.704,,,190,,,,1,,,,,,61,wg-a,,,,AAXX 04004 07299 02658 81902 10080 20070 39710 40032 58010 60036 76162 875// 90000 333 60017=
07299,1998-11-04 03:00:00,8,1002.7,-0.5,87,6,8000,14.816,,,230,,,,3,,,,,,61,wg-a,,,,AAXX 04034 07299 12558 82308 10080 20060 39704 40027 55005 60037 76166 8587/ 90300=
07299,1998-11-04 06:00:00,7,1003.6,0.7,93,6,10000,11.112,,,160,6.9,8.5,,,,,,,,61,wg-a,,,,AAXX 04064 07299 02560 81606 10070 20060 39712 40036 53007 61000 76166 8667/ 90600 333 10085 20069 6012=
07299,1998-11-04 12:00:00,10,1005,0.3,76,6,500,14.816,,,230,,,,,,,,,,3,wg-a,,,,AAXX 04124 07299 12500 72308 10100 20060 39729 40050 50003 60016 70362 8257/ 91200=
07299,1998-11-04 15:00:00,10,1005.7,0.7,76,6,12000,11.112,,,270,,,,0,,,,,,15,wg-a,,,,AAXX 04154 07299 12562 72706 10100 20060 39735 40057 53007 60007 71562 8657/ 91500=
07299,1998-11-04 18:00:00,7,1009.3,3.1,87,5,15000,14.816,,,280,6.5,10.2,,,,,,,,60,wg-a,,,,AAXX 04184 07299 02565 72808 10070 20050 39767 40093 53031 61000 76061 875// 91800 333 10102 20065 6000=
07299,1998-11-04 21:00:00,6,1011.2,1.7,87,4,20000,3.704,,,210,,,,,,,,,,1,wg-a,,,,AAXX 04214 07299 02470 62102 10060 20040 39784 40112 53017 61000 70162 86800 92100 333 ////=
07299,1998-11-05 00:00:00,5,1013.5,2.1,87,3,20000,14.816,,,270,,,,,,,,,,1,wg-a,,,,AAXX 05004 07299 02470 /2708 10050 20030 39805 40135 53021 61000 70161 81800 90000 333 ////=
07299,1998-11-05 03:00:00,5,1015.3,1.7,87,3,20000,11.112,,,250,,,,,,,,,,,wg-a,,,,AAXX 05034 07299 12570 42506 10050 20030 39822 40153 51017 60006 84800 90300=
07299,1998-11-05 06:00:00,4,1018,2.5,93,3,12000,7.408,,,280,1.8,6.5,,,,,,,,25,wg-a,,,,AAXX 05064 07299 02262 52804 10040 20030 39847 40180 51025 61000 72586 85800 90600 333 10065 20018 6001=
07299,1998-11-05 09:00:00,7,1020.6,2.9,81,4,20000,18.52,,,240,,,,,,,,,,,wg-a,,,,AAXX 05094 07299 12470 22410 10070 20040 39877 40206 51029 60006 82800 90900=
07299,1998-11-05 12:00:00,8,1022.1,1.5,66,2,500,14.816,,,270,,,,,,,,,,,wg-a,,,,AAXX 05124 07299 12600 42708 10080 20020 39892 40221 51015 60006 84800 91200=
07299,1998-11-05 15:00:00,8,1023,0.9,61,1,50000,18.52,,,280,,,,,,,,,,,wg-a,,,,AAXX 05154 07299 12684 /2810 10080 20010 39901 40230 53009 60006 81100 91500=
07299,1998-11-05 18:00:00,2,1025.4,1.6,93,1,500,7.408,,,220,1.8,9.5,,,,,,,,,wg-a,,,,AAXX 05184 07299 12600 22204 10020 20010 39917 40254 53016 60006 81501 91800 333 10095 20018=
07299,1998-11-05 21:00:00,1,1026.6,1.1,93,0,25000,3.704,,,200,,,,,,,,,,,wg-a,,,,AAXX 05214 07299 12/75 /2002 10010 20000 39927 40266 51011 60006 80000 92100=
07299,1998-11-06 00:00:00,-1,1027.5,0.7,100,-1,25000,7.408,,,170,,,,,,,,,,,wg-a,,,,AAXX 06004 07299 12/75 01704 11010 21010 39934 40275 53007 60006 80000 90000=
07299,1998-11-06 06:00:00,-1,1028.9,0.9,93,-2,20000,7.408,,,140,-1.7,2.2,,,,,,,,,wg-a,,,,AAXX 06064 07299 02670 11404 11010 21020 39947 40289 51009 60006 81500 90600 333 10022 21017 60004=
07299,1998-11-06 09:00:00,5,1029.3,1.1,81,2,18000,7.408,,,110,,,,,,,,,,,wg-a,,,,AAXX 06094 07299 12768 31104 10050 20020 39958 40293 51011 60006 82530 90900=
07299,1998-11-06 12:00:00,10,1028.3,-0.4,71,5,22000,18.52,,,270,,,,,,,,,,,wg-a,,,,AAXX 06124 07299 12572 72710 10100 20050 39954 40283 57004 60006 8383/ 91200=
07299,1998-11-06 15:00:00,9,1028.5,0.2,76,5,22000,14.816,,,290,,,,,,,,,,,wg-a,,,,AAXX 06154 07299 12572 72908 10090 20050 39956 40285 53002 60006 8383/ 91500=
07299,1998-11-06 18:00:00,7,1030.4,1.5,87,5,20000,3.704,,,20,-1.1,10.7,,,,,,,,,wg-a,,,,AAXX 06184 07299 12470 70202 10070 20050 39971 40304 53015 60006 878// 91800 333 10107 21011=
07299,1998-11-06 21:00:00,6,1031.4,0.9,93,5,20000,0,,,0,,,,,,,,,,,wg-a,,,,AAXX 06214 07299 12570 70000 10060 20050 39980 40314 53009 60006 875// 92100=
07299,1998-11-07 00:00:00,6,1031.2,-0.2,93,5,20000,0,,,0,,,,,,,,,,,wg-a,,,,AAXX 07004 07299 12570 70000 10060 20050 39978 40312 55002 60006 875// 90000=
07299,1998-11-07 03:00:00,3,1031,-0.5,100,3,15000,3.704,,,110,,,,,,,,,,,wg-a,,,,AAXX 07034 07299 12565 41102 10030 20030 39973 40310 56005 60006 84500 90300=
07299,1998-11-07 06:00:00,1,1031.7,0.5,93,0,6000,3.704,,,210,0.8,7.1,,,,,,,,11,wg-a,,,,AAXX 07064 07299 02156 /2102 10010 20000 39976 40317 53005 60006 71111 81600 90600 333 10071 20008 60004=
07299,1998-11-07 09:00:00,5,1031.9,0.7,100,5,2500,3.704,,,90,,,,,,,,,,10,wg-a,,,,AAXX 07094 07299 12125 50902 10050 20050 39984 40319 51007 60006 71041 85800 90900=
07299,1998-11-07 12:00:00,10,1030,-1.3,76,6,13000,11.112,,,350,,,,,,,,,,3,wg-a,,,,AAXX 07124 07299 12463 23506 10100 20060 39971 40300 58013 60006 70341 82201 91200=
07299,1998-11-07 15:00:00,10,1028.2,-1.7,76,6,15000,11.112,,,360,,,,,,,,,,,wg-a,,,,AAXX 07154 07299 12565 43606 10100 20060 39954 40282 56017 60006 81105 91500=
07299,1998-11-07 18:00:00,4,1029.6,0.6,93,3,4000,11.112,,,330,-0.3,10.7,,,,,,,,10,wg-a,,,,AAXX 07184 07299 12/40 23306 10040 20030 39960 40296 52006 60006 71000 80001 91800 333 10107 21003=
07299,1998-11-07 21:00:00,5,1029.9,0.4,93,4,200,3.704,,,330,,,,,,,,,,43,wg-a,,,,AAXX 07214 07299 12/02 93302 10050 20040 39964 40299 51004 60006 74341 89/// 92100=
07299,1998-11-08 00:00:00,4,1029.4,-0.6,100,4,2800,3.704,,,150,,,,,,,,,,10,wg-a,,,,AAXX 08004 07299 12228 71502 10040 20040 39958 40294 56006 60006 71041 876// 90000=
07299,1998-11-08 03:00:00,2,1028.9,-0.8,93,1,4000,11.112,,,190,,,,,,,,,,10,wg-a,,,,AAXX 08034 07299 12240 21906 10020 20010 39950 40289 55008 60006 71011 82600 90300=
07299,1998-11-08 06:00:00,1,1029.2,0.2,93,0,4500,14.816,,,190,0.9,5,,,,,,,,10,wg-a,,,,AAXX 08064 07299 02/45 /1908 10010 20000 39952 40292 52002 60006 71011 80001 90600 333 10050 20009 60004=
07299,1998-11-08 12:00:00,11,1027.7,-1.1,58,3,13000,3.704,,,210,,,,,,,,,,,wg-a,,,,AAXX 08124 07299 12/63 72102 10110 20030 39950 40277 56011 60006 80002 91200=
07299,1998-11-08 15:00:00,11,1026.7,-1,66,5,20000,7.408,,,180,,,,,,,,,,,wg-a,,,,AAXX 08154 07299 12/70 71804 10110 20050 39940 40267 56010 60006 84032 91500=
07299,1998-11-08 18:00:00,8,1026.9,-0.2,81,5,13000,7.408,,,180,0.6,12.4,,,,,,,,,wg-a,,,,AAXX 08184 07299 12/63 71804 10080 20050 39938 40269 55002 60006 84032 91800 333 10124 20006=
07299,1998-11-08 21:00:00,8,1026.8,-0.1,81,5,13000,11.112,,,160,,,,,,,,,,,wg-a,,,,AAXX 08214 07299 12763 81606 10080 20050 39937 40268 58001 60006 8153/ 92100=
07299,1998-11-09 00:00:00,7,1026,-0.8,87,5,13000,11.112,,,160,,,,,,,,,,21,wg-a,,,,AAXX 09004 07299 02663 81606 10070 20050 39929 40260 58008 61000 72162 8253/ 90000 333 6100=
07299,1998-11-09 03:00:00,7,1025.4,-0.6,93,6,13000,11.112,,,140,,,,,,,,,,60,wg-a,,,,AAXX 09034 07299 02563 81406 10070 20060 39923 40254 58006 61000 76062 8453/ 90300 333 ////=
07299,1998-11-09 06:00:00,8,1025.4,0.1,87,6,15000,11.112,,,160,6.9,8,,,,,,,,1,wg-a,,,,AAXX 09064 07299 02565 81606 10080 20060 39924 40254 50001 60006 70162 875// 90600 333 10080 20069 61000=
07299,1998-11-09 09:00:00,9,1025.8,0.5,87,7,25000,11.112,,,180,,,,,,,,,,1,wg-a,,,,AAXX 09094 07299 02675 81806 10090 20070 39929 40258 50005 61000 70162 875// 90900 333 ////=
07299,1998-11-09 12:00:00,12,1024.1,-1.2,76,8,25000,14.816,,,140,,,,,,,,,,3,wg-a,,,,AAXX 09124 07299 02675 81408 10120 20080 39916 40241 58012 61000 70362 875// 91200 333 ////=
07299,1998-11-09 15:00:00,12,1022.9,-1,76,8,25000,11.112,,,180,,,,,,,,,,,wg-a,,,,AAXX 09154 07299 12775 81806 10120 20080 39905 40229 56010 60006 875// 91500=
07299,1998-11-09 18:00:00,11,1022.8,-0.3,82,8,20000,11.112,,,180,7.8,12.8,,,,,,,,,wg-a,,,,AAXX 09184 07299 12770 81806 10110 20080 39903 40228 56003 60006 875// 91800 333 10128 20078=
07299,1998-11-09 21:00:00,10,1021.6,-1.3,87,8,15000,7.408,,,180,,,,,,,,,,,wg-a,,,,AAXX 09214 07299 12665 71804 10100 20080 39890 40216 56013 60006 8587/ 92100=
07299,1998-11-10 00:00:00,11,1020.6,-0.9,82,8,0,3.704,,,110,,,,,,,,,,,wg-a,,,,AAXX 10004 07299 02/// /1102 10110 20080 39881 40206 58009 61000 90000 333 ////=
07299,1998-11-10 03:00:00,10,1018.9,-1.8,93,9,3000,7.408,,,170,,,,0,,,,,,10,wg-a,,,,AAXX 10034 07299 12430 71704 10100 20090 39863 40189 58018 60007 71062 878// 90300=
07299,1998-11-10 06:00:00,10,1017.1,-1.6,93,9,2500,7.408,,,160,9.6,11.2,,,,,,,,10,wg-a,,,,AAXX 10064 07299 02125 81604 10100 20090 39846 40171 56016 61000 71065 878// 90600 333 10112 20096 6001=
07299,1998-11-10 09:00:00,10,1016.7,-0.2,100,10,1200,7.408,,,220,,,,10,,,,,,10,wg-a,,,,AAXX 10094 07299 12112 82204 10100 20100 39843 40167 55002 60107 71065 875// 90900=
07299,1998-11-10 12:00:00,11,1017.7,1,94,10,13000,7.408,,,240,,,,5,,,,,,61,wg-a,,,,AAXX 10124 07299 02463 82404 10110 20100 39854 40177 51010 60156 76165 8687/ 91200 333 60057=
07299,1998-11-10 15:00:00,11,1017.3,-0.4,87,9,20000,14.816,,,240,,,,1,,,,,,21,wg-a,,,,AAXX 10154 07299 12470 72408 10110 20090 39850 40173 58004 60017 72162 8687/ 91500=
07299,1998-11-10 18:00:00,11,1017.9,0.5,87,9,18000,14.816,,,270,9.7,12,,,,,,,,2,wg-a,,,,AAXX 10184 07299 02568 72708 10110 20090 39855 40179 53005 60006 70262 8687/ 91800 333 10120 20097 61000=
07299,1998-11-10 21:00:00,8,1020.8,2.4,93,7,20000,7.408,,,270,,,,2,,,,,,21,wg-a,,,,AAXX 10214 07299 12770 72704 10080 20070 39880 40208 51024 60027 72162 875// 92100=
07299,1998-11-11 00:00:00,6,1024.1,2.9,81,3,20000,7.408,,,280,,,,,,,,,,2,wg-a,,,,AAXX 11004 07299 12770 52804 10060 20030 39909 40241 52029 60026 70262 8453/ 90000=
07299,1998-11-11 03:00:00,4,1026.1,1.7,87,2,20000,7.408,,,40,,,,,,,,,,,wg-a,,,,AAXX 11034 07299 12770 30404 10040 20020 39926 40261 51017 60006 83500 90300=
07299,1998-11-11 06:00:00,2,1027.6,1.2,93,1,20000,7.408,,,90,1.3,10.8,,,,,18,,,,wg-a,,,,AAXX 11064 07299 02670 50904 10020 20010 39938 40276 51012 60006 85500 90600 333 10108 20013 60184=
07299,1998-11-11 09:00:00,6,1028,0.9,87,4,18000,3.704,,,100,,,,,,,,,,,wg-a,,,,AAXX 11094 07299 12668 21002 10060 20040 39947 40280 53009 60006 82500 90900=
07299,1998-11-11 12:00:00,9,1026.1,-1.5,53,0,25000,3.704,,,360,,,,,,,,,,,wg-a,,,,AAXX 11124 07299 12675 33602 10090 20000 39932 40261 58015 60006 83201 91200=
07299,1998-11-11 15:00:00,8,1025.1,-1.1,66,2,25000,7.408,,,20,,,,,,,,,,,wg-a,,,,AAXX 11154 07299 12675 40204 10080 20020 39921 40251 56011 60006 83201 91500=
07299,1998-11-11 18:00:00,2,1024.8,-1,93,1,500,3.704,,,270,1,10.1,,,,,,,,,wg-a,,,,AAXX 11184 07299 12700 12702 10020 20010 39911 40248 56010 60006 81500 91800 333 10101 20010=
07299,1998-11-11 21:00:00,-1,1023.1,-2,93,-2,13000,7.408,,,300,,,,,,,,,,,wg-a,,,,AAXX 11214 07299 12/63 03004 11010 21020 39891 40231 57020 60006 80000 92100=
07299,1998-11-12 00:00:00,2,1024.8,-1,93,1,500,3.704,,,270,1,10.1,,,,,,,,,wg-a,,,,AAXX 12004 07299 12700 12702 10020 20010 39911 40248 56010 60006 815// 90000 333 10101 20010=
07299,1998-11-12 03:00:00,-1,1017.6,-1.8,100,-1,6000,3.704,,,140,,,,,,,,,,,wg-a,,,,AAXX 12034 07299 12756 /1402 11010 21010 39838 40176 58018 60006 85500 90300=
07299,1998-11-12 12:00:00,6,1013.1,-0.8,65,0,11000,3.704,,,190,,,,,,,,,,,wg-a,,,,AAXX 12124 07299 12/61 71902 10060 20000 39803 40131 58008 60006 81032 91200=
07299,1998-11-12 15:00:00,6,1013.2,0.1,65,0,20000,7.408,,,270,,,,,,,,,,,wg-a,,,,AAXX 12154 07299 12770 72704 10060 20000 39804 40132 53001 60006 81572 91500=
07299,1998-11-12 18:00:00,5,1014.9,1.5,81,2,15000,3.704,,,250,-1.1,6.8,,,,,,,,60,wg-a,,,,AAXX 12184 07299 02565 72502 10050 20020 39819 40149 53015 61000 76062 878// 91800 333 10068 21011 6100=
07299,1998-11-12 21:00:00,4,1016.6,1.5,93,3,7000,3.704,,,70,,,,1,,,,,,61,wg-a,,,,AAXX 12214 07299 12457 70702 10040 20030 39834 40166 52015 60017 76166 875// 92100=
07299,1998-11-13 00:00:00,4,1016,-0.5,93,3,9000,3.704,,,90,,,,0,,,,,,0,wg-a,,,,AAXX 13004 07299 02459 70902 10040 20030 39829 40160 58005 60016 70062 875// 90000 333 60007=
07299,1998-11-13 03:00:00,4,1015.9,-0.2,93,3,11000,7.408,,,110,,,,,,,,,,,wg-a,,,,AAXX 13034 07299 12/61 /1104 10040 20030 39827 40159 58002 60006 90300=
07299,1998-11-13 06:00:00,4,1015.1,-0.7,100,4,20000,11.112,,,150,3.2,5.4,,,,,,,,60,wg-a,,,,AAXX 13064 07299 02470 71506 10040 20040 39820 40151 57007 61000 76061 875// 90600 333 10054 20032 6001=
07299,1998-11-13 09:00:00,6,1014.5,-0.4,87,4,22000,7.408,,,200,,,,,,,,,,1,wg-a,,,,AAXX 13094 07299 02472 72004 10060 20040 39816 40145 58004 61000 70162 878// 90900 333 ////=
07299,1998-11-13 12:00:00,8,1011.8,-2.4,76,4,24000,3.704,,,60,,,,,,,,,,3,wg-a,,,,AAXX 13124 07299 02474 70602 10080 20040 39792 40118 57024 61000 70362 878// 91200 333 ////=
07299,1998-11-13 15:00:00,4,1015.1,-0.7,100,4,20000,11.112,,,150,3.2,5.4,,0,,,1,,,60,wg-a,,,,AAXX 13154 07299 02470 /1506 10040 20040 39820 40151 57007 60014 76061 875// 91500 333 10054 20032 60007=
07299,1998-11-13 18:00:00,5,1009.2,-1.6,87,3,22000,0,,,0,4.4,7.8,,,,,,,,,wg-a,,,,AAXX 13184 07299 12572 70000 10050 20030 39764 40092 58016 60006 81131 91800 333 10078 20044=
07299,1998-11-13 21:00:00,4,1009.4,0.1,93,3,15000,3.704,,,200,,,,,,,,,,,wg-a,,,,AAXX 13214 07299 12765 72002 10040 20030 39764 40094 50001 60006 8153/ 92100=
07299,1998-11-14 00:00:00,2,1007.2,-2.3,93,1,7000,7.408,,,180,,,,,,,,,,,wg-a,,,,AAXX 14004 07299 12757 41804 10020 20010 39741 40072 56023 60006 81530 90000=
07299,1998-11-14 03:00:00,3,1004.7,-2.3,93,2,12000,3.704,,,180,,,,,,,,,,,wg-a,,,,AAXX 14034 07299 12762 71802 10030 20020 39718 40047 58023 60006 81570 90300=
07299,1998-11-14 06:00:00,5,1001.5,-2.9,87,3,12000,11.112,,,100,1.5,5.2,,,,,,,,60,wg-a,,,,AAXX 14064 07299 02562 71006 10050 20030 39689 40015 58029 61000 76061 878// 90600 333 10052 20015 6100=
07299,1998-11-14 09:00:00,5,1000.9,-0.5,93,4,4000,7.408,,,180,,,,6,,,,,,61,wg-a,,,,AAXX 14094 07299 12340 81804 10050 20040 39684 40009 55005 60067 76166 888// 90900=
07299,1998-11-14 12:00:00,7,1004.2,3.3,76,3,10000,29.632,,,250,,,,2,,,,,,21,wg-a,,,,AAXX 14124 07299 02460 72516 10070 20030 39717 40042 53033 60076 72162 878// 91200 333 60027=
07299,1998-11-14 15:00:00,8,1004.8,0.7,71,3,20000,22.224,,,240,,,,,,,,,,,wg-a,,,,AAXX 14154 07299 12670 /2412 10080 20030 39724 40048 51007 60006 81800 91500=
07299,1998-11-14 18:00:00,7,1003.8,-1,70,2,20000,42.596,,,240,4.7,8.3,,,,,,,,,wg-a,,,,AAXX 14184 07299 12670 52423 10070 20020 39714 40038 58010 60006 82830 91800 333 10083 20047=
07299,1998-11-14 21:00:00,5,1006.5,2.5,87,3,23000,25.928,,,240,,,,,,,,,,60,wg-a,,,,AAXX 14214 07299 02373 82414 10050 20030 39738 40065 53025 61000 76061 878// 92100 333 ////=
07299,1998-11-15 00:00:00,5,1009.2,2.8,87,3,23000,22.224,,,260,,,,,,,,,,0,wg-a,,,,AAXX 15004 07299 02473 82612 10050 20030 39764 40092 53028 61000 70061 878// 90000 333 6100=
07299,1998-11-15 03:00:00,5,1011.2,2,87,3,20000,29.632,,,260,,,,,,,,,,,wg-a,,,,AAXX 15034 07299 12470 82616 10050 20030 39784 40112 53020 60006 878// 90300=
07299,1998-11-15 06:00:00,5,1013,1.6,81,2,25000,18.52,,,240,4.5,7.3,,,,,7,,,,wg-a,,,,AAXX 15064 07299 02575 72410 10050 20020 39800 40130 53016 60006 86501 90600 333 10073 20045 60074=
07299,1998-11-15 09:00:00,6,1013.8,1,81,3,25000,11.112,,,240,,,,,,,,,,,wg-a,,,,AAXX 15094 07299 12475 72406 10060 20030 39810 40138 51010 60006 8684/ 90900=
07299,1998-11-15 12:00:00,7,1013.5,-0.2,81,4,20000,29.632,,,240,,,,,,,,,,60,wg-a,,,,AAXX 15124 07299 02570 /2416 10070 20040 39808 40135 58002 61000 76062 86830 91200 333 6100=
07299,1998-11-15 15:00:00,6,1014.9,1.2,81,3,9000,25.928,,,240,,,,,,,,,,60,wg-a,,,,AAXX 15154 07299 02459 72414 10060 20030 39820 40149 53012 61000 76062 878// 91500 333 ////=
07299,1998-11-15 21:00:00,5,1019.5,1.5,87,3,15000,25.928,,,250,,,,,,,,,,21,wg-a,,,,AAXX 15214 07299 02465 /2514 10050 20030 39863 40195 51015 61000 72162 84800 92100 333 ////=
07299,1998-11-16 00:00:00,5,1020.2,0.6,87,3,15000,18.52,,,250,,,,,,,,,,3,wg-a,,,,AAXX 16004 07299 02465 72510 10050 20030 39870 40202 51006 61000 70361 8653/ 90000 333 ////=
07299,1998-11-16 03:00:00,5,1019.8,-0.4,87,3,15000,18.52,,,250,,,,0,,,,,,21,wg-a,,,,AAXX 16034 07299 12465 72510 10050 20030 39866 40198 58004 60007 72122 8653/ 90300=
07299,1998-11-16 06:00:00,3,1020.1,0.1,93,2,10000,14.816,,,240,3.2,5.8,,,,,,,,21,wg-a,,,,AAXX 16064 07299 02460 /2408 10030 20020 39867 40201 51001 61000 72162 85800 90600 333 10058 20032 6005=
07299,1998-11-16 09:00:00,4,1020.7,0.7,93,3,13000,25.928,,,250,,,,2,,,,,,1,wg-a,,,,AAXX 16094 07299 12463 /2514 10040 20030 39874 40207 51007 60027 70162 86800 90900=
07299,1998-11-16 12:00:00,5,1022,1.2,81,2,16000,25.928,,,250,,,,,,,,,,1,wg-a,,,,AAXX 16124 07299 12466 72514 10050 20020 39887 40220 51012 60026 70162 8683/ 91200=
07299,1998-11-16 15:00:00,5,1022.9,0.9,81,2,16000,25.928,,,250,,,,,,,,,,,wg-a,,,,AAXX 16154 07299 12466 /2514 10050 20020 39896 40229 53009 60006 86800 91500=
07299,1998-11-16 18:00:00,4,1024.7,1.6,87,2,17000,22.224,,,260,2.7,5.5,,,,,,,,,wg-a,,,,AAXX 16184 07299 12467 72612 10040 20020 39912 40247 53016 60006 878// 91800 333 10055 20027=
07299,1998-11-17 00:00:00,2,1028.4,1.7,80,-1,10000,11.112,,,330,,,,,,,,,,3,wg-a,,,,AAXX 17004 07299 02660 /3306 10020 21010 39946 40284 51017 61000 70362 85500 90000 333 6100=
07299,1998-11-17 03:00:00,0,1029.6,0.9,86,-2,20000,7.408,,,270,,,,,,,,,,,wg-a,,,,AAXX 17034 07299 12670 32704 10000 21020 39955 40296 50009 60006 83501 90300=
07299,1998-11-17 06:00:00,-2,1030.7,0.8,93,-3,10000,3.704,,,180,-1.9,3.7,,,,,2,,,,wg-a,,,,AAXX 17064 07299 02560 41802 11020 21030 39963 40307 52008 60006 84501 90600 333 10037 21019 60024=
07299,1998-11-17 09:00:00,1,1030.6,0.2,86,-1,500,0,,,0,,,,,,,,,,,wg-a,,,,AAXX 17094 07299 12500 /0000 10010 21010 39965 40306 53002 60006 86800 90900=
07299,1998-11-17 12:00:00,3,1029.5,-0.8,65,-3,18000,7.408,,,350,,,,,,,,,,16,wg-a,,,,AAXX 17124 07299 02568 /3504 10030 21030 39957 40295 58008 61000 71671 86800 91200 333 6100=
07299,1998-11-17 15:00:00,2,1029.4,-0.1,64,-4,18000,14.816,,,20,,,,,,,,,,,wg-a,,,,AAXX 17154 07299 12568 70208 10020 21040 39956 40294 55001 60006 878// 91500=
07299,1998-11-17 18:00:00,-1,1029.9,-0.1,86,-3,15000,7.408,,,350,-1.9,3.8,,,,,,,,,wg-a,,,,AAXX 17184 07299 12565 /3504 11010 21030 39956 40299 58001 60006 85500 91800 333 10038 21019=
07299,1998-11-17 21:00:00,-3,1029.5,-0.5,93,-4,11000,3.704,,,330,,,,,,,,,,,wg-a,,,,AAXX 17214 07299 12661 43302 11030 21040 39951 40295 55005 60006 84500 92100=
07299,1998-11-18 00:00:00,-3,1029.1,-0.5,93,-4,500,3.704,,,300,,,,,,,,,,,wg-a,,,,AAXX 18004 07299 12600 /3002 11030 21040 39946 40291 56005 60006 81500 90000=
07299,1998-11-18 03:00:00,-4,1028.5,-0.7,93,-5,500,3.704,,,310,,,,,,,,,,,wg-a,,,,AAXX 18034 07299 12/00 03102 11040 21050 39939 40285 58007 60006 80000 90300=
07299,1998-11-18 06:00:00,-4,1028.5,0.1,100,-4,1800,3.704,,,340,-4.4,-1,,,,,,,,10,wg-a,,,,AAXX 18064 07299 02118 73402 11040 21040 39940 40285 53001 60006 71011 876// 90600 333 11010 21044 61000=
07299,1998-11-18 09:00:00,-4,1028.9,0.3,100,-4,1100,7.408,,,310,,,,,,,,,,10,wg-a,,,,AAXX 18094 07299 02011 73104 11040 21040 39943 40289 51003 61000 71074 876// 90900 333 ////=
07299,1998-11-18 12:00:00,0,1027.2,-1.1,80,-3,500,14.816,,,350,,,,,,,,,,1,wg-a,,,,AAXX 18124 07299 02400 /3508 10000 21030 39932 40272 58011 61000 70174 81101 91200 333 6100=
07299,1998-11-18 15:00:00,2,1026.2,-0.8,64,-4,15000,11.112,,,360,,,,,,,,,,,wg-a,,,,AAXX 18154 07299 12/65 13606 10020 21040 39924 40262 56008 60006 80001 91500=
07299,1998-11-18 18:00:00,-2,1027.4,0.7,80,-5,14000,11.112,,,320,-4.2,2.1,,,,,,,,,wg-a,,,,AAXX 18184 07299 12/64 03206 11020 21050 39931 40274 53007 60006 80000 91800 333 10021 21042=
07299,1998-11-18 21:00:00,-3,1028.3,0.7,93,-4,12000,3.704,,,280,,,,,,,,,,,wg-a,,,,AAXX 18214 07299 12/62 12802 11030 21040 39938 40283 51007 60006 80001 92100=
07299,1998-11-19 00:00:00,-5,1028.4,-0.2,93,-6,11000,0,,,0,,,,,,,,,,,wg-a,,,,AAXX 19004 07299 12/61 00000 11050 21060 39936 40284 58002 60006 80000 90000=
07299,1998-11-19 03:00:00,-5,1027.2,-1.1,93,-6,10000,7.408,,,150,,,,,,,,,,,wg-a,,,,AAXX 19034 07299 12/60 01504 11050 21060 39925 40272 58011 60006 80000 90300=
07299,1998-11-19 06:00:00,-5,1027.2,0,93,-6,15000,11.112,,,190,-6.2,-2.1,,,,,,,,,wg-a,,,,AAXX 19064 07299 02865 21906 11050 21060 39925 40272 50000 60006 82030 90600 333 11021 21062 61000=
07299,1998-11-19 09:00:00,-2,1027.2,0.3,86,-4,11000,7.408,,,180,,,,,,,,,,,wg-a,,,,AAXX 19094 07299 12761 61804 11020 21040 39929 40272 51003 60006 81531 90900=
07299,1998-11-19 12:00:00,0,1026.4,-0.5,74,-4,9000,7.408,,,160,,,,,,,,,,,wg-a,,,,AAXX 19124 07299 12459 71604 10000 21040 39924 40264 58005 60006 8583/ 91200=
07299,1998-11-19 15:00:00,1,1026.4,0.1,80,-2,10000,11.112,,,250,,,,,,,,,,22,wg-a,,,,AAXX 19154 07299 02460 72506 10010 21020 39925 40264 53001 61000 72272 878// 91500 333 ////=
07299,1998-11-19 18:00:00,0,1027.8,1.2,86,-2,500,3.704,,,280,-5.4,1.2,,,,,,,,22,wg-a,,,,AAXX 19184 07299 02400 82802 10000 21020 39937 40278 51012 61000 72272 888// 91800 333 10012 21054 ////=
07299,1998-11-19 21:00:00,-1,1028.8,0.9,100,-1,2800,7.408,,,330,,,,,,,,,,10,wg-a,,,,AAXX 19214 07299 12128 83304 11010 21010 39946 40288 53009 60006 71022 886// 92100=
07299,1998-11-20 00:00:00,-2,1029.4,0.5,100,-2,3000,3.704,,,310,,,,,,,,,,10,wg-a,,,,AAXX 20004 07299 12230 73102 11020 21020 39951 40294 51005 60006 71072 876// 90000=
07299,1998-11-20 03:00:00,-1,1030,0.6,93,-2,1800,7.408,,,340,,,,,,,,,,10,wg-a,,,,AAXX 20034 07299 12118 83404 11010 21020 39957 40300 53006 60006 71022 886// 90300=
07299,1998-11-20 06:00:00,-1,1031,1.1,93,-2,3000,18.52,,,350,-2.3,-0.1,,,,,,,,10,wg-a,,1,,AAXX 20064 07299 02230 83510 11010 21020 39967 40310 53011 61000 71072 887// 90600 333 11001 21023 4/001 6100=
07299,1998-11-20 09:00:00,-2,1032.8,1.6,93,-3,3500,22.224,,,350,,,,,,,,,,10,wg-a,,,,AAXX 20094 07299 02335 83512 11020 21030 39984 40328 51016 61000 71072 885// 90900 333 ////=
07299,1998-11-20 12:00:00,-1,1033.6,0.7,86,-3,4000,18.52,,,350,,,,,,,,,,10,wg-a,,,,AAXX 20124 07299 02340 73510 11010 21030 39992 40336 51007 61000 71072 875// 91200 333 6100=
07299,1998-11-20 15:00:00,-1,1034.3,0.7,69,-6,20000,7.408,,,30,,,,,,,,,,1,wg-a,,,,AAXX 20154 07299 02570 /0304 11010 21060 39999 40343 53007 61000 70172 86800 91500 333 ////=
07299,1998-11-20 18:00:00,-2,1035.8,1.4,63,-8,20000,11.112,,,70,-1.9,-0.2,,,,,,,,3,wg-a,,,,AAXX 20184 07299 12670 20706 11020 21080 30013 40358 52014 60006 70371 82500 91800 333 11002 21019=
07299,1998-11-20 21:00:00,-5,1037.4,1,86,-7,11000,7.408,,,330,,,,,,,,,,,wg-a,,,,AAXX 20214 07299 12/61 /3304 11050 21070 30023 40374 51010 60006 92100=
07299,1998-11-21 00:00:00,-6,1037.7,0.2,93,-7,15000,7.408,,,310,,,,,,,,,,,wg-a,,,,AAXX 21004 07299 12/65 03104 11060 21070 30025 40377 51002 60006 80000 90000=
07299,1998-11-21 06:00:00,-7,1037.7,-0.3,100,-7,12000,14.816,,,330,-7.3,-1.5,,,,,,,,,wg-a,,,,AAXX 21064 07299 02662 /3308 11070 21070 30025 40377 55003 60006 81500 90600 333 11015 21073 61000=
07299,1998-11-21 09:00:00,-4,1037.7,0.3,86,-6,4500,14.816,,,350,,,,,,,,,,10,wg-a,,,,AAXX 21094 07299 12545 33508 11040 21060 30028 40377 51003 60006 71000 83500 90900=
07299,1998-11-21 12:00:00,1,1035.6,-1.4,64,-5,15000,18.52,,,350,,,,,,,,,,,wg-a,,,,AAXX 21124 07299 12665 43510 10010 21050 30014 40356 58014 60006 84500 91200=
07299,1998-11-21 15:00:00,-1,1034.6,-1.2,54,-9,20000,14.816,,,100,,,,,,,,,,,wg-a,,,,AAXX 21154 07299 12670 31008 11010 21090 30002 40346 55012 60006 83500 91500=
07299,1998-11-21 18:00:00,-2,1034.3,-0.5,54,-10,20000,14.816,,,70,-6.9,1,,,,,,,,,wg-a,,,,AAXX 21184 07299 12670 20708 11020 21100 39997 40343 57005 60006 82500 91800 333 10010 21069=
07299,1998-11-21 21:00:00,-4,1033.6,-0.9,63,-10,20000,11.112,,,70,,,,,,,,,,,wg-a,,,,AAXX 21214 07299 12/70 /0706 11040 21100 39988 40336 56009 60006 80000 92100=
07299,1998-11-22 00:00:00,-2,1034.3,-0.5,54,-10,20000,14.816,,,70,-6.9,1,,,,,,,,,wg-a,,,,AAXX 22004 07299 12670 20708 11020 21100 39997 40343 57005 60006 82500 90000 333 10010 21069=
07299,1998-11-22 03:00:00,-2,1034.3,-0.5,54,-10,20000,14.816,,,70,-6.9,1,,,,,,,,,wg-a,,,,AAXX 22034 07299 12670 20708 11020 21100 39997 40343 57005 60006 82500 90300 333 10010 21069=
07299,1998-11-22 06:00:00,-9,1030.6,-0.7,85,-11,15000,3.704,,,350,-9.3,-2.3,,,,,,,,,wg-a,,,,AAXX 22064 07299 02765 23502 11090 21110 39953 40306 56007 60006 82500 90600 333 11023 21093 60004=
07299,1998-11-22 09:00:00,-7,1030.5,0.2,86,-9,6000,3.704,,,20,,,,,,,,,,10,wg-a,,,,AAXX 22094 07299 02556 /0202 11070 21090 39955 40305 50002 61000 71071 83500 90900 333 ////=
07299,1998-11-22 12:00:00,-3,1028.4,-1.6,58,-10,7000,14.816,,,110,,,,,,,,,,2,wg-a,,,,AAXX 22124 07299 02657 /1108 11030 21100 39939 40284 58016 61000 70271 81500 91200 333 ////=
07299,1998-11-22 15:00:00,-2,1027.5,-0.8,54,-10,7000,7.408,,,90,,,,,,,,,,,wg-a,,,,AAXX 22154 07299 12/57 00904 11020 21100 39931 40275 56008 60006 80000 91500=
07299,1998-11-22 18:00:00,-5,1028.3,0.4,73,-9,500,11.112,,,90,-9.7,-2,,,,,,,,,wg-a,,,,AAXX 22184 07299 12/00 00906 11050 21090 39936 40283 53004 60006 80000 91800 333 11020 21097=
07299,1998-11-23 00:00:00,-7,1026.7,-0.8,79,-10,500,7.408,,,60,,,,,,,,,,,wg-a,,,,AAXX 23004 07299 12/00 00604 11070 21100 39917 40267 57008 60006 80000 90000=
07299,1998-11-23 03:00:00,-10,1025.8,-1.1,92,-11,500,3.704,,,330,,,,,,,,,,,wg-a,,,,AAXX 23034 07299 12/00 03302 11100 21110 39905 40258 56011 60006 80000 90300=
07299,1998-11-23 06:00:00,-10,1025,-0.7,85,-12,500,3.704,,,270,-10.5,-4.5,,,,,,,,,wg-a,,,,AAXX 23064 07299 02/00 02702 11100 21120 39897 40250 58007 60006 80000 90600 333 11045 21105 61000=
07299,1998-11-23 09:00:00,-8,1025,0.3,92,-9,3500,7.408,,,330,,,,,,,,,,10,wg-a,,,,AAXX 23094 07299 12/35 /3304 11080 21090 39901 40250 50003 60006 71000 80001 90900=
07299,1998-11-23 12:00:00,-4,1023.5,-0.9,74,-8,4000,3.704,,,340,,,,,,,,,,10,wg-a,,,,AAXX 23124 07299 12/40 53402 11040 21080 39891 40235 58009 60006 71011 80001 91200=
07299,1998-11-23 15:00:00,-3,1023.2,-0,74,-7,4500,7.408,,,360,,,,,,,,,,10,wg-a,,,,AAXX 23154 07299 12/45 /3604 11030 21070 39890 40232 55000 60006 71022 80001 91500=
07299,1998-11-23 18:00:00,-6,1024.6,0.8,93,-7,4000,7.408,,,300,-10.6,-2,,,,,,,,10,wg-a,,,,AAXX 23184 07299 12/40 33004 11060 21070 39899 40246 52008 60006 71011 80001 91800 333 11020 21106=
07299,1998-11-23 21:00:00,-7,1024.9,0.2,93,-8,3500,0,,,0,,,,,,,,,,10,wg-a,,,,AAXX 23214 07299 12/35 00000 11070 21080 39901 40249 53002 60006 71000 80000 92100=
07299,1998-11-24 00:00:00,-7,1024.7,-0.2,93,-8,2500,0,,,0,,,,,,,,,,10,wg-a,,,,AAXX 24004 07299 12/25 00000 11070 21080 39899 40247 58002 60006 71000 80000 90000=
07299,1998-11-24 03:00:00,-6,1024.5,-0.2,93,-7,2500,3.704,,,290,,,,,,,,,,10,wg-a,,,,AAXX 24034 07299 12/25 02902 11060 21070 39897 40245 56002 60006 71000 80000 90300=
07299,1998-11-24 06:00:00,-6,1024.9,0.5,93,-7,2000,0,,,0,-7.5,-5.6,,,,,,,,10,wg-a,,,,AAXX 24064 07299 02/20 50000 11060 21070 39902 40249 50005 60006 71011 80001 90600 333 11056 21075 60004=
07299,1998-11-24 09:00:00,-5,1025.5,0.7,93,-6,1800,3.704,,,330,,,,,,,,,,10,wg-a,,,,AAXX 24094 07299 12/18 63302 11050 21060 39909 40255 51007 60006 71022 80009 90900=
07299,1998-11-24 12:00:00,-1,1023.6,-1.3,69,-6,2400,3.704,,,290,,,,,,,,,,10,wg-a,,,,AAXX 24124 07299 12/24 32902 11010 21060 39895 40236 58013 60006 71011 80009 91200=
07299,1998-11-24 15:00:00,-1,1024,0.4,74,-5,2400,7.408,,,340,,,,,,,,,,10,wg-a,,,,AAXX 24154 07299 12/24 /3404 11010 21050 39899 40240 53004 60006 71011 80009 91500=
07299,1998-11-24 18:00:00,-3,1024.9,0.7,86,-5,2500,7.408,,,250,-5.9,-0.1,,,,,,,,10,wg-a,,,,AAXX 24184 07299 12/25 42504 11030 21050 39906 40249 52007 60006 71011 80004 91800 333 11001 21059=
07299,1998-11-24 21:00:00,-2,1024.6,-0.3,80,-5,2500,3.704,,,220,,,,,,,,,,10,wg-a,,,,AAXX 24214 07299 12/25 72202 11020 21050 39904 40246 58003 60006 71011 85034 92100=
07299,1998-11-25 00:00:00,-4,1024.2,-0.6,93,-5,2500,7.408,,,180,,,,,,,,,,10,wg-a,,,,AAXX 25004 07299 12/25 11804 11040 21050 39898 40242 58006 60006 71011 80001 90000=
07299,1998-11-25 03:00:00,-4,1023.1,-1.1,93,-5,2500,3.704,,,180,,,,,,,,,,10,wg-a,,,,AAXX 25034 07299 12/25 71802 11040 21050 39887 40231 58011 60006 71011 8703/ 90300=
07299,1998-11-25 06:00:00,-4,1021.5,-1.5,93,-5,3000,7.408,,,170,-5.3,-2.2,,,,,,,,10,wg-a,,,,AAXX 25064 07299 02/30 /1704 11040 21050 39872 40215 58015 60006 71011 85031 90600 333 11022 21053 60004=
07299,1998-11-25 09:00:00,-3,1019.8,-1.6,86,-5,1800,7.408,,,310,,,,,,,,,,10,wg-a,,,,AAXX 25094 07299 12/18 /3104 11030 21050 39856 40198 58016 60006 71022 85031 90900=
07299,1998-11-25 12:00:00,-1,1017.6,-1.9,80,-4,2800,11.112,,,320,,,,,,,,,,10,wg-a,,,,AAXX 25124 07299 12/28 73206 11010 21040 39837 40176 56019 60006 71022 8707/ 91200=
07299,1998-11-25 15:00:00,-1,1017.2,-0.3,80,-4,2500,7.408,,,340,,,,,,,,,,10,wg-a,,,,AAXX 25154 07299 12/25 83404 11010 21040 39834 40172 55003 60006 71022 8807/ 91500=
07299,1998-11-25 18:00:00,-2,1018.4,1.1,93,-3,2500,3.704,,,300,-5.5,-0.5,,,,,,,,10,wg-a,,,,AAXX 25184 07299 12/25 83002 11020 21030 39845 40184 51011 60006 71022 8807/ 91800 333 11005 21055=
07299,1998-11-25 21:00:00,-2,1019.6,1.1,86,-4,2500,0,,,0,,,,,,,,,,10,wg-a,,,,AAXX 25214 07299 12825 80000 11020 21040 39856 40196 51011 60006 71022 8157/ 92100=
07299,1998-11-26 00:00:00,-2,1020.6,0.9,93,-3,2500,0,,,0,,,,,,,,,,10,wg-a,,,,AAXX 26004 07299 12/25 80000 11020 21030 39865 40206 53009 60006 71022 8807/ 90000=
07299,1998-11-26 03:00:00,-2,1021.1,0.5,93,-3,2300,3.704,,,90,,,,,,,,,,10,wg-a,,,,AAXX 26034 07299 12623 80902 11020 21030 39870 40211 52005 60006 71022 8157/ 90300=
07299,1998-11-26 06:00:00,-2,1022.3,1.3,93,-3,2600,0,,,0,-2.5,-1.5,,,,,,,,10,wg-a,,,,AAXX 26064 07299 02/26 80000 11020 21030 39882 40223 51013 60006 71022 8807/ 90600 333 11015 21025 60004=
07299,1998-11-26 09:00:00,-1,1024.1,1.8,86,-3,2300,0,,,0,,,,,,,,,,10,wg-a,,,,AAXX 26094 07299 12723 80000 11010 21030 39901 40241 53018 60006 71022 8157/ 90900=
07299,1998-11-26 12:00:00,3,1023.7,0,70,-2,3500,3.704,,,150,,,,,,,,,,10,wg-a,,,,AAXX 26124 07299 12/35 81502 10030 21020 39901 40237 50000 60006 71022 8707/ 91200=
07299,1998-11-26 15:00:00,3,1023.5,-0.1,75,-1,6000,3.704,,,100,,,,,,,,,,,wg-a,,,,AAXX 26154 07299 12456 71002 10030 21010 39899 40235 58001 60006 878// 91500=
07299,1998-11-26 18:00:00,2,1024.6,0.9,87,0,4500,11.112,,,230,-2.2,3.3,,,,,,,,10,wg-a,,,,AAXX 26184 07299 12445 72306 10020 20000 39909 40246 50009 60006 71022 878// 91800 333 10033 21022=
07299,1998-11-26 21:00:00,2,1024.2,-0.4,87,0,6000,3.704,,,270,,,,,,,,,,,wg-a,,,,AAXX 26214 07299 12456 82702 10020 20000 39905 40242 58004 60006 888// 92100=
07299,1998-11-27 00:00:00,1,1022.8,-1.5,93,0,4000,7.408,,,150,,,,1,,,,,,10,wg-a,,,,AAXX 27004 07299 02440 81504 10010 20000 39890 40228 58015 60016 71062 888// 90000 333 60017=
07299,1998-11-27 03:00:00,1,1020.3,-2.4,93,0,4000,0,,,0,,,,2,,,,,,61,wg-a,,,,AAXX 27034 07299 12440 80000 10010 20000 39866 40203 56024 60027 76162 885// 90300=
07299,1998-11-27 06:00:00,1,1020,-0.2,100,1,3500,3.704,,,110,0.5,2,,,,,,,,10,wg-a,,,,AAXX 27064 07299 02335 81102 10010 20010 39864 40200 55002 61000 71062 885// 90600 333 10020 20005 6004=
07299,1998-11-27 09:00:00,3,1020,0.1,93,2,4800,3.704,,,80,,,,,,,,,,10,wg-a,,,,AAXX 27094 07299 12348 80802 10030 20020 39865 40200 53001 60006 71022 885// 90900=
07299,1998-11-27 12:00:00,4,1019.6,-0.1,100,4,6000,7.408,,,250,,,,1,,,,,,58,wg-a,,,,AAXX 27124 07299 02256 /2504 10040 20040 39864 40196 58001 60016 75865 875// 91200 333 60017=
07299,1998-11-27 15:00:00,5,1020.2,0.6,87,3,7000,7.408,,,270,,,,,,,,,,60,wg-a,,,,AAXX 27154 07299 02357 72704 10050 20030 39870 40202 53006 61000 76065 878// 91500 333 ////=
07299,1998-11-27 18:00:00,3,1021.8,1.4,100,3,2800,3.704,,,110,1,5.1,,,,,,,,10,wg-a,,,,AAXX 27184 07299 02428 71102 10030 20030 39884 40218 51014 60006 71065 878// 91800 333 10051 20010 61000=
07299,1998-11-27 21:00:00,2,1023,0.9,93,1,600,3.704,,,180,,,,0,,,,,,41,wg-a,,,,AAXX 27214 07299 12106 71802 10020 20010 39893 40230 51009 60007 74164 877// 92100=
07299,1998-11-28 00:00:00,1,1023.4,0.4,100,1,600,0,,,0,,,,,,,,,,46,wg-a,,,,AAXX 28004 07299 12206 70000 10010 20010 39897 40234 52004 60016 74664 877// 90000=
07299,1998-11-28 03:00:00,2,1023.3,-0.1,93,1,1000,3.704,,,140,,,,,,,,,,40,wg-a,,,,AAXX 28034 07299 12210 81402 10020 20010 39896 40233 57001 60006 74042 886// 90300=
07299,1998-11-28 06:00:00,1,1023.6,0.4,100,1,600,7.408,,,40,0.3,3.2,,,,,1,,,44,wg-a,,,,AAXX 28064 07299 02206 80404 10010 20010 39898 40236 51004 60006 74442 886// 90600 333 10032 20003 60014=
07299,1998-11-28 12:00:00,2,1022.1,-1.3,100,2,1600,3.704,,,330,,,,,,,,,,10,wg-a,,,,AAXX 28124 07299 12116 73302 10020 20020 39885 40221 58013 60006 71042 875// 91200=
07299,1998-11-28 15:00:00,4,1020.3,-1.4,75,0,17000,18.52,,,120,,,,,,,,,,,wg-a,,,,AAXX 28154 07299 12467 /1210 10040 20000 39870 40203 56014 60006 81800 91500=
07299,1998-11-28 18:00:00,1,1020.4,-0.3,80,-2,15000,7.408,,,120,-0.2,5,,,,,,,,,wg-a,,,,AAXX 28184 07299 12/65 01204 10010 21020 39867 40204 56003 60006 80000 91800 333 10050 21002=
07299,1998-11-28 21:00:00,-1,1018.7,-1.9,86,-3,8000,7.408,,,130,,,,,,,,,,,wg-a,,,,AAXX 28214 07299 12/58 01304 11010 21030 39848 40187 58019 60006 80000 92100=
07299,1998-11-29 00:00:00,-1,1016.7,-1.7,93,-2,7000,11.112,,,170,,,,,,,,,,,wg-a,,,,AAXX 29004 07299 12/57 31706 11010 21020 39829 40167 56017 60006 81032 90000=
07299,1998-11-29 03:00:00,0,1014.6,-2,86,-2,6000,7.408,,,140,,,,,,,,,,,wg-a,,,,AAXX 29034 07299 12656 81404 10000 21020 39810 40146 56020 60006 8157/ 90300=
07299,1998-11-29 06:00:00,0,1014.1,-0.4,93,-1,4500,7.408,,,130,-1.8,0.7,,,,,,,,71,wg-a,,,,AAXX 29064 07299 02545 81304 10000 21010 39806 40141 58004 61000 77171 8357/ 90600 333 10007 21018 6100=
07299,1998-11-29 09:00:00,0,1014.3,0.1,100,0,1200,7.408,,,140,,,,,,,,,,,wg-a,,,,AAXX 29094 07299 32/12 /1404 10000 20000 39807 40143 53001 90900=
07299,1998-11-29 12:00:00,1,1013.6,-0.6,93,0,1200,3.704,,,350,,,,1,,,,,,10,wg-a,,,,AAXX 29124 07299 02212 83502 10010 20000 39801 40136 57006 60026 71076 877// 91200 333 60017=
07299,1998-11-29 15:00:00,0,1014.2,0.5,100,0,900,3.704,,,310,,,,1,,,,,,44,wg-a,,,,AAXX 29154 07299 12209 83102 10000 20000 39806 40142 53005 60017 74477 877// 91500=
07299,1998-11-29 18:00:00,0,1015.6,1.4,100,0,1200,7.408,,,300,0,1.3,,,,,,,,10,wg-a,,1,,AAXX 29184 07299 02112 83004 10000 20000 39820 40156 52014 61000 71077 877// 91800 333 10013 20000 4/001 6001=
07299,1998-11-29 21:00:00,0,1017.1,1.4,93,-1,1100,3.704,,,310,,,,1,,,,,,10,wg-a,,,,AAXX 29214 07299 12111 83102 10000 21010 39834 40171 51014 60017 71077 877// 92100=
07299,1998-11-30 00:00:00,0,1018.2,1,93,-1,2300,7.408,,,310,,,,1,,,,,,22,wg-a,,,,AAXX 30004 07299 02123 83104 10000 21010 39844 40182 52010 60026 72274 877// 90000 333 60017=
07299,1998-11-30 03:00:00,0,1018.8,0.6,93,-1,2500,7.408,,,320,,,,0,,,,,,10,wg-a,,,,AAXX 30034 07299 12225 83204 10000 21010 39850 40188 51006 60007 71022 877// 90300=
07299,1998-11-30 06:00:00,0,1019.8,1,93,-1,1300,7.408,,,330,-0.4,0,,,,,6,,,10,wg-a,,3,,AAXX 30064 07299 02113 83304 10000 21010 39860 40198 53010 60006 71022 877// 90600 333 10000 21004 4/003 60064=
07299,1998-11-30 09:00:00,0,1021.8,1.9,93,-1,900,11.112,,,350,,,,,,,,,,44,wg-a,,,,AAXX 30094 07299 02109 83506 10000 21010 39879 40218 52019 61000 74454 887// 90900 333 ////=
07299,1998-11-30 12:00:00,0,1022.2,0.4,93,-1,1500,11.112,,,340,,,,,,,,,,10,wg-a,,,,AAXX 30124 07299 02215 83406 10000 21010 39883 40222 51004 61000 71054 887// 91200 333 6100=
07299,1998-11-30 15:00:00,0,1022.4,0.2,93,-1,2000,7.408,,,330,,,,,,,,,,10,wg-a,,,,AAXX 30154 07299 02220 83304 10000 21010 39885 40224 53002 61000 71052 887// 91500 333 ////=
07299,1998-11-30 18:00:00,0,1024,1.5,93,-1,1800,7.408,,,340,-0.5,-0.2,,,,,,,,10,wg-a,,2,,AAXX 30184 07299 12318 83404 10000 21010 39900 40240 51015 60006 71052 877// 91800 333 11002 21005 4/002=
07299,1998-11-30 21:00:00,0,1025.2,1.3,93,-1,3500,11.112,,,360,,,,,,,,,,10,wg-a,,,,AAXX 30214 07299 12335 83606 10000 21010 39913 40252 51013 60006 71022 887// 92100=
07299,1998-12-01 00:00:00,0,1026.6,1.3,93,-1,0,7.408,,,330,,,,,,,,,,,wg-a,,,,AAXX 01004 07299 12/// /3304 10000 21010 39926 40266 51013 60006 90000=
07299,1998-12-01 03:00:00,0,1027,0.4,93,-1,2500,7.408,,,330,,,,,,,,,,10,wg-a,,,,AAXX 01034 07299 12225 83304 10000 21010 39930 40270 51004 60006 71022 877// 90300=
07299,1998-12-01 06:00:00,0,1027.6,0.4,93,-1,2500,3.704,,,310,-0.4,0.3,,,,,,,,10,wg-a,,1,,AAXX 01064 07299 02225 83102 10000 21010 39935 40276 53004 60006 71022 877// 90600 333 10003 21004 4/001 61000=
07299,1998-12-01 12:00:00,1,1028.1,-0.5,93,0,2600,7.408,,,340,,,,,,,,,,10,wg-a,,,,AAXX 01124 07299 12226 83404 10010 20000 39942 40281 58005 60006 71022 875// 91200=
07299,1998-12-01 15:00:00,1,1027.7,-0.4,93,0,4000,14.816,,,360,,,,,,,,,,10,wg-a,,,,AAXX 01154 07299 12340 83608 10010 20000 39938 40277 57004 60006 71022 875// 91500=
07299,1998-12-01 18:00:00,0,1027.5,-0.3,93,-1,4000,18.52,,,360,-0.3,1.2,,,,,,,,10,wg-a,,1,,AAXX 01184 07299 12440 83610 10000 21010 39935 40275 56003 60006 71022 875// 91800 333 10012 21003 4/001=
07299,1998-12-01 21:00:00,-1,1027.8,0.3,93,-2,4000,11.112,,,360,,,,,,,,,,10,wg-a,,,,AAXX 01214 07299 12240 83606 11010 21020 39937 40278 51003 60006 71022 885// 92100=
07299,1998-12-02 00:00:00,-1,1027.3,-0.6,93,-2,0,7.408,,,10,,,,,,,,,,,wg-a,,,,AAXX 02004 07299 12/// /0104 11010 21020 39932 40273 58006 60006 90000=
07299,1998-12-02 03:00:00,-1,1026.4,-0.9,93,-2,500,7.408,,,360,,,,,,,,,,,wg-a,,,,AAXX 02034 07299 12200 83604 11010 21020 39923 40264 57009 60006 885// 90300=
07299,1998-12-02 06:00:00,-1,1026.1,-0.2,80,-4,6000,11.112,,,80,-1.1,0,,,,,,,,,wg-a,,2,,AAXX 02064 07299 02256 80806 11010 21040 39920 40261 55002 60006 875// 90600 333 10000 21011 4/002 60004=
07299,1998-12-02 09:00:00,-1,1027,0.8,86,-3,7000,3.704,,,320,,,,,,,,,,,wg-a,,,,AAXX 02094 07299 12357 83202 11010 21030 39928 40270 52008 60006 875// 90900=
07299,1998-12-02 12:00:00,0,1026.6,-0.2,80,-3,8000,11.112,,,120,,,,,,,,,,,wg-a,,,,AAXX 02124 07299 12458 81206 10000 21030 39926 40266 58002 60006 875// 91200=
07299,1998-12-02 15:00:00,0,1026.1,-0.4,74,-4,8000,14.816,,,90,,,,,,,,,,,wg-a,,,,AAXX 02154 07299 12558 80908 10000 21040 39921 40261 55004 60006 875// 91500=
07299,1998-12-02 18:00:00,-1,1026.5,0.3,80,-4,6000,14.816,,,100,-1.2,0.8,,,,,,,,,wg-a,,1,,AAXX 02184 07299 12456 /1008 11010 21040 39924 40265 52003 60006 86500 91800 333 10008 21012 4/001=
07299,1998-12-02 21:00:00,-1,1026.6,0.1,80,-4,6000,18.52,,,110,,,,,,,,,,,wg-a,,,,AAXX 02214 07299 12456 71110 11010 21040 39925 40266 53001 60006 875// 92100=
07299,1998-12-03 00:00:00,-1,1025.9,-0.7,80,-4,6000,14.816,,,100,,,,,,,,,,,wg-a,,,,AAXX 03004 07299 12456 71008 11010 21040 39918 40259 58007 60006 875// 90000=
07299,1998-12-03 03:00:00,-2,1024.7,-1.3,86,-4,6000,14.816,,,90,,,,,,,,,,,wg-a,,,,AAXX 03034 07299 12456 70908 11020 21040 39905 40247 58013 60006 875// 90300=
07299,1998-12-03 06:00:00,-2,1024,-0.7,86,-4,500,11.112,,,70,-1.9,-0.9,,,,,,,,,wg-a,,1,,AAXX 03064 07299 02400 70706 11020 21040 39898 40240 56007 60006 875// 90600 333 11009 21019 4/001 60004=
07299,1998-12-03 09:00:00,-2,1023.6,-0.3,86,-4,500,14.816,,,90,,,,,,,,,,,wg-a,,,,AAXX 03094 07299 12400 70908 11020 21040 39895 40236 56003 60006 875// 90900=
07299,1998-12-03 12:00:00,-1,1021,-2.5,86,-3,4000,11.112,,,70,,,,,,,,,,10,wg-a,,,,AAXX 03124 07299 12540 /0706 11010 21030 39871 40210 58025 60006 71022 85500 91200=
07299,1998-12-03 15:00:00,-1,1018.8,-2.1,86,-3,4000,11.112,,,50,,,,,,,,,,10,wg-a,,,,AAXX 03154 07299 12/40 40506 11010 21030 39849 40188 57021 60006 71011 80001 91500=
07299,1998-12-03 21:00:00,-2,1017.2,-0.8,93,-3,3500,3.704,,,40,,,,,,,,,,10,wg-a,,,,AAXX 03214 07299 12235 70402 11020 21030 39833 40172 58008 60006 71011 876// 92100=
07299,1998-12-04 00:00:00,-3,1015.5,-1.8,93,-4,3000,7.408,,,20,,,,,,,,,,10,wg-a,,,,AAXX 04004 07299 12130 70204 11030 21040 39815 40155 58018 60006 71011 876// 90000=
07299,1998-12-04 03:00:00,-3,1013.7,-1.8,93,-4,1200,3.704,,,20,,,,,,,,,,10,wg-a,,,,AAXX 04034 07299 12112 80202 11030 21040 39797 40137 56018 60006 71022 886// 90300=
07299,1998-12-04 06:00:00,-3,1011.7,-1.8,100,-3,1800,3.704,,,220,-3.8,-1.7,,,,,,,,10,wg-a,,0,,AAXX 04064 07299 02118 82202 11030 21030 39778 40117 56018 60006 71022 886// 90600 333 11017 21038 4/9999 60004=
07299,1998-12-04 12:00:00,-1,1010.3,-0.5,86,-3,500,3.704,,,90,,,,,,,,,,10,wg-a,,,,AAXX 04124 07299 02300 70902 11010 21030 39767 40103 56005 61000 71075 876// 91200 333 6100=
07299,1998-12-04 15:00:00,-1,1010.2,-0.1,86,-3,6000,18.52,,,250,,,,,,,,,,20,wg-a,,,,AAXX 04154 07299 02456 72510 11010 21030 39766 40102 55001 61000 72072 876// 91500 333 ////=
07299,1998-12-04 18:00:00,-1,1011,0.9,93,-2,2500,18.52,,,250,-3,-0.4,,,,,,,,10,wg-a,,,,AAXX 04184 07299 12/25 /2510 11010 21020 39774 40110 53009 60006 710// 91800 333 11004 21030=
07299,1998-12-04 21:00:00,0,1012.9,1.9,86,-2,6000,25.928,,,260,,,,,,,,,,22,wg-a,,,,AAXX 04214 07299 02456 72614 10000 21020 39793 40129 53019 61000 72272 875// 92100 333 ////=
07299,1998-12-05 00:00:00,0,1013.5,0.5,86,-2,7000,7.408,,,280,,,,,,,,,,2,wg-a,,,,AAXX 05004 07299 02657 32804 10000 21020 39799 40135 51005 61000 70271 83300 90000 333 ////=
07299,1998-12-05 03:00:00,0,1013,-0.5,86,-2,8000,3.704,,,190,,,,,,,,,,,wg-a,,,,AAXX 05034 07299 12558 81902 10000 21020 39794 40130 57005 60006 8/500 90300=
07299,1998-12-05 06:00:00,1,1012.1,-0.8,80,-2,500,25.928,,,250,-1.3,0.6,,,,,,,,22,wg-a,,1,,AAXX 05064 07299 02400 82514 10010 21020 39786 40121 56008 61000 72271 875// 90600 333 10006 21013 4/001 6100=
07299,1998-12-05 09:00:00,1,1013.7,1.6,86,-1,10000,22.224,,,260,,,,,,,,,,22,wg-a,,,,AAXX 05094 07299 02460 82612 10010 21010 39802 40137 53016 61000 72272 875// 90900 333 ////=
07299,1998-12-05 12:00:00,1,1014.6,1,80,-2,19000,31.484,,53.708,260,,,,,,,,,,22,wg-a,,,,AAXX 05124 07299 02469 72617 10010 21020 39812 40146 51010 61000 72272 8283/ 91200 333 6100 91029=
07299,1998-12-05 15:00:00,1,1015.6,0.9,75,-3,20000,29.632,,,260,,,,,,,,,,,wg-a,,,,AAXX 05154 07299 12570 72616 10010 21030 39821 40156 52009 60006 8383/ 91500=
07299,1998-12-05 18:00:00,1,1016.5,0.8,75,-3,16000,18.52,,,240,0.2,1.4,,,,,,,,1,wg-a,,0,,AAXX 05184 07299 02566 82410 10010 21030 39829 40165 53008 60006 70172 8583/ 91800 333 10014 20002 4/9999 61000=
07299,1998-12-05 21:00:00,1,1015.9,-0.5,75,-3,18000,29.632,,,250,,,,,,,,,,,wg-a,,,,AAXX 05214 07299 12568 /2516 10010 21030 39823 40159 56005 60006 84830 92100=
07299,1998-12-06 00:00:00,0,1014.7,-1.2,93,-1,4000,29.632,,57.412,250,,,,0,,,,,,72,wg-a,,,,AAXX 06004 07299 02240 72516 10000 21010 39811 40147 58012 60006 77272 878// 90000 333 60007 91031=
07299,1998-12-06 03:00:00,0,1016.8,2,86,-2,9000,14.816,,,270,,,,0,,,,,,22,wg-a,,,,AAXX 06034 07299 12459 /2708 10000 21020 39831 40168 52020 60007 72272 85800 90300=
07299,1998-12-06 06:00:00,-1,1019,2,80,-4,18000,11.112,,,220,-1.4,0.7,,,,,1,,,3,wg-a,,1,,AAXX 06064 07299 02468 52206 11010 21040 39851 40190 53020 60006 70371 85800 90600 333 10007 21014 4/001 60014=
07299,1998-12-06 09:00:00,0,1021.1,2.2,80,-3,15000,22.224,,,250,,,,,,,,,,,wg-a,,,,AAXX 06094 07299 12465 62512 10000 21030 39873 40211 51022 60006 83831 90900=
07299,1998-12-06 12:00:00,1,1022.3,1.2,80,-2,15000,22.224,,,250,,,,,,,,,,,wg-a,,,,AAXX 06124 07299 12565 /2512 10010 21020 39885 40223 52012 60006 85801 91200=
07299,1998-12-06 15:00:00,0,1024.1,1.6,86,-2,4900,22.224,,,260,,,,,,,,,,10,wg-a,,,,AAXX 06154 07299 02449 72612 10000 21020 39901 40241 53016 61000 71087 878// 91500 333 ////=
07299,1998-12-06 18:00:00,0,1025.7,1.6,86,-2,7000,22.224,,,240,-1.6,1.4,,,,,,,,70,wg-a,,0,,AAXX 06184 07299 02457 72412 10000 21020 39917 40257 53016 61000 77087 878// 91800 333 10014 21016 4/9999 6100=
07299,1998-12-06 21:00:00,0,1027.2,1.5,80,-3,18000,22.224,,,250,,,,,,,,,,1,wg-a,,,,AAXX 06214 07299 02468 72512 10000 21030 39931 40272 53015 61000 70172 8483/ 92100 333 ////=
07299,1998-12-07 00:00:00,-1,1028.1,0.7,86,-3,18000,22.224,,,240,,,,,,,,,,0,wg-a,,,,AAXX 07004 07299 02468 72412 11010 21030 39939 40281 51007 61000 70072 8383/ 90000 333 ////=
07299,1998-12-07 03:00:00,-1,1028.8,0.5,80,-4,18000,14.816,,,240,,,,,,,,,,,wg-a,,,,AAXX 07034 07299 12668 72408 11010 21040 39945 40288 51005 60006 8253/ 90300=
07299,1998-12-07 06:00:00,0,1028.8,0.2,80,-3,20000,14.816,,,240,-1.4,0.1,,,,,,,,,wg-a,,0,,AAXX 07064 07299 02470 82408 10000 21030 39947 40288 53002 60006 8653/ 90600 333 10001 21014 4/9999 61000=
07299,1998-12-07 09:00:00,0,1029.9,1.1,80,-3,18000,25.928,,,250,,,,,,,,,,,wg-a,,,,AAXX 07094 07299 12468 72514 10000 21030 39958 40299 51011 60006 8583/ 90900=
07299,1998-12-07 12:00:00,1,1029.4,-0.4,80,-2,18000,22.224,,,260,,,,,,,,,,,wg-a,,,,AAXX 07124 07299 12468 72612 10010 21020 39954 40294 58004 60006 8583/ 91200=
07299,1998-12-07 15:00:00,1,1030.2,0.8,80,-2,9000,22.224,,,260,,,,,,,,,,22,wg-a,,,,AAXX 07154 07299 02459 72612 10010 21020 39961 40302 53008 61000 72272 878// 91500 333 ////=
07299,1998-12-07 18:00:00,0,1031.7,1.4,86,-2,7000,18.52,,,250,-0.2,1.3,,,,,,,,70,wg-a,,0,,AAXX 07184 07299 02457 82510 10000 21020 39976 40317 51014 61000 77072 878// 91800 333 10013 21002 4/9999 6100=
07299,1998-12-07 21:00:00,0,1033.1,1.3,86,-2,13000,18.52,,,260,,,,,,,,,,22,wg-a,,,,AAXX 07214 07299 02563 72610 10000 21020 39989 40331 51013 61000 72272 878// 92100 333 ////=
07299,1998-12-08 00:00:00,-1,1033.4,0.2,86,-3,13000,18.52,,,250,,,,,,,,,,2,wg-a,,,,AAXX 08004 07299 02563 72510 11010 21030 39991 40334 53002 61000 70272 878// 90000 333 ////=
07299,1998-12-08 03:00:00,-2,1034.2,0.6,86,-4,10000,7.408,,,240,,,,,,,,,,,wg-a,,,,AAXX 08034 07299 12660 22404 11020 21040 39997 40342 50006 60006 82800 90300=
07299,1998-12-08 06:00:00,-4,1034.7,0.2,93,-5,12000,7.408,,,170,-4.7,0.5,,,,,,,,,wg-a,,0,,AAXX 08064 07299 02462 /1704 11040 21050 39999 40347 53002 60006 85800 90600 333 10005 21047 4/9999 61000=
07299,1998-12-08 09:00:00,-1,1034.9,0.5,86,-3,13000,11.112,,,180,,,,,,,,,,,wg-a,,,,AAXX 08094 07299 12463 /1806 11010 21030 30004 40349 50005 60006 85500 90900=
07299,1998-12-08 12:00:00,2,1033.1,-1.4,69,-3,18000,11.112,,,130,,,,,,,,,,,wg-a,,,,AAXX 08124 07299 12768 21306 10020 21030 39991 40331 58014 60006 81501 91200=
07299,1998-12-08 18:00:00,-4,1034.1,0.9,93,-5,10000,3.704,,,180,-4,3.1,,,,,,,,,wg-a,,0,,AAXX 08184 07299 12760 41802 11040 21050 39993 40341 52009 60006 81502 91800 333 10031 21040 4/9999=
07299,1998-12-08 21:00:00,-4,1033.9,-0.2,86,-6,8000,11.112,,,160,,,,,,,,,,,wg-a,,,,AAXX 08214 07299 12/58 11606 11040 21060 39991 40339 58002 60006 80001 92100=
07299,1998-12-09 00:00:00,-5,1032.9,-1.2,86,-7,8000,11.112,,,140,,,,,,,,,,,wg-a,,,,AAXX 09004 07299 12/58 31406 11050 21070 39980 40329 58012 60006 83030 90000=
07299,1998-12-09 03:00:00,-3,1031.4,-1.2,80,-6,8000,11.112,,,130,,,,,,,,,,,wg-a,,,,AAXX 09034 07299 12/58 41306 11030 21060 39968 40314 56012 60006 82031 90300=
07299,1998-12-09 06:00:00,-3,1030.5,-0.8,80,-6,10000,14.816,,,120,-5,-2.9,,,,,,,,,wg-a,,0,,AAXX 09064 07299 02/60 71208 11030 21060 39959 40305 57008 60006 8703/ 90600 333 11029 21050 4/9999 60004=
07299,1998-12-09 09:00:00,-2,1030.3,0,69,-7,20000,11.112,,,130,,,,,,,,,,,wg-a,,,,AAXX 09094 07299 12/70 71306 11020 21070 39959 40303 50000 60006 85032 90900=
07299,1998-12-09 12:00:00,-1,1029.2,-1,69,-6,10000,14.816,,,150,,,,,,,,,,,wg-a,,,,AAXX 09124 07299 12660 81508 11010 21060 39950 40292 58010 60006 8352/ 91200=
07299,1998-12-09 18:00:00,-2,1029,-0.5,93,-3,3000,11.112,,,120,-3.3,-0.4,,,,,,,,10,wg-a,,3,,AAXX 09184 07299 02230 81206 11020 21030 39947 40290 58005 61000 71072 885// 91800 333 11004 21033 4/003 6002=
07299,1998-12-09 21:00:00,-1,1028.3,-0.5,93,-2,4000,7.408,,,180,,,,1,,,,,,10,wg-a,,,,AAXX 09214 07299 12540 81804 11010 21020 39942 40283 56005 60017 71076 885// 92100=
07299,1998-12-10 00:00:00,-1,1027.6,-0.7,93,-2,4000,11.112,,,170,,,,0,,,,,,10,wg-a,,,,AAXX 10004 07299 02440 81706 11010 21020 39935 40276 58007 60016 71076 885// 90000 333 60007=
07299,1998-12-10 03:00:00,0,1027,-0.6,93,-1,4000,7.408,,,160,,,,,,,,,,,wg-a,,,,AAXX 10034 07299 12/40 /1604 10000 21010 39929 40270 58006 60006 90300=
07299,1998-12-10 06:00:00,0,1025.8,-1,93,-1,4000,14.816,,,170,-1.5,0.3,,,,,,,,10,wg-a,,3,,AAXX 10064 07299 02440 81708 10000 21010 39919 40258 56010 61000 71076 875// 90600 333 10003 21015 4/003 6004=
07299,1998-12-10 09:00:00,1,1025.6,-0.2,93,0,3500,11.112,,,160,,,,1,,,,,,10,wg-a,,,,AAXX 10094 07299 12435 81606 10010 20000 39917 40256 58002 60017 71076 875// 90900=
07299,1998-12-10 12:00:00,1,1024.3,-1.3,100,1,3000,7.408,,,160,,,,,,,,,,10,wg-a,,,,AAXX 10124 07299 02430 81604 10010 20010 39905 40243 58013 60016 71076 875// 91200 333 61000=
07299,1998-12-10 15:00:00,2,1023.1,-1.1,93,1,2500,7.408,,,170,,,,0,,,,,,10,wg-a,,,,AAXX 10154 07299 12425 81704 10020 20010 39894 40231 56011 60007 71062 875// 91500=
07299,1998-12-10 18:00:00,1,1022.3,-0.8,100,1,2500,7.408,,,190,0.3,1.7,,,,,,,,10,wg-a,,0,,AAXX 10184 07299 02425 81904 10010 20010 39886 40223 58008 61000 71062 875// 91800 333 10017 20003 4/9999 6100=
07299,1998-12-10 21:00:00,2,1021.1,-1.1,93,1,2500,14.816,,,160,,,,,,,,,,10,wg-a,,,,AAXX 10214 07299 12425 71608 10020 20010 39875 40211 58011 60006 71022 875// 92100=
07299,1998-12-11 00:00:00,2,1018.6,-2.3,93,1,2500,11.112,,,180,,,,,,,,,,10,wg-a,,,,AAXX 11004 07299 12425 71806 10020 20010 39851 40186 58023 60006 71022 875// 90000=
07299,1998-12-11 03:00:00,2,1016.7,-1.9,93,1,500,7.408,,,190,,,,,,,,,,,wg-a,,,,AAXX 11034 07299 12/00 /1904 10020 20010 39832 40167 56019 60006 90300=
07299,1998-12-11 06:00:00,2,1016.7,-0,93,1,4500,7.408,,,180,1,2.1,,,,,,,,10,wg-a,,0,,AAXX 11064 07299 02445 81804 10020 20010 39832 40167 55000 61000 71062 875// 90600 333 10021 20010 4/9999 6003=
07299,1998-12-11 09:00:00,3,1018.6,2,93,2,3000,11.112,,,160,,,,3,,,,,,10,wg-a,,,,AAXX 11094 07299 12330 81606 10030 20020 39852 40186 53020 60037 71066 885// 90900=
07299,1998-12-11 12:00:00,7,1019.5,1.3,87,5,8000,18.52,,,260,,,,0,,,,,,1,wg-a,,,,AAXX 11124 07299 02558 72610 10070 20050 39865 40195 51013 60036 70162 8657/ 91200 333 60007=
07299,1998-12-11 15:00:00,6,1021.3,1.8,93,5,12000,18.52,,,250,,,,0,,,,,,2,wg-a,,,,AAXX 11154 07299 12562 72510 10060 20050 39883 40213 53018 60007 70262 8557/ 91500=
07299,1998-12-11 18:00:00,6,1023.9,2.3,87,4,7000,14.816,,,240,1.8,6.6,,,,,,,,60,wg-a,,,,AAXX 11184 07299 02657 82408 10060 20040 39907 40239 52023 61000 76062 875// 91800 333 10066 20018 6100=
07299,1998-12-11 21:00:00,6,1025.1,1.2,87,4,15000,18.52,,,250,,,,,,,,,,3,wg-a,,,,AAXX 11214 07299 02765 72510 10060 20040 39919 40251 51012 61000 70362 875// 92100 333 ////=
07299,1998-12-12 00:00:00,5,1026,0.8,93,4,15000,11.112,,,250,,,,,,,,,,2,wg-a,,,,AAXX 12004 07299 02665 72506 10050 20040 39927 40260 51008 61000 70262 875// 90000 333 ////=
07299,1998-12-12 03:00:00,1,1027.4,0.8,100,1,15000,3.704,,,170,,,,,,,,,,,wg-a,,,,AAXX 12034 07299 12565 /1702 10010 20010 39935 40274 51008 60006 81600 90300=
07299,1998-12-12 06:00:00,1,1028,0.6,100,1,15000,11.112,,,170,0.7,6.4,,,,,3,,,,wg-a,,,,AAXX 12064 07299 02665 71706 10010 20010 39941 40280 53006 60006 8155/ 90600 333 10064 20007 60034=
07299,1998-12-12 09:00:00,3,1027.5,-0.1,100,3,20000,11.112,,,150,,,,,,,,,,,wg-a,,,,AAXX 12094 07299 12670 71506 10030 20030 39939 40275 58001 60006 82532 90900=
07299,1998-12-12 12:00:00,5,1026.3,-1,93,4,15000,11.112,,,150,,,,1,,,,,,61,wg-a,,,,AAXX 12124 07299 02565 /1506 10050 20040 39929 40263 58010 60016 76162 8357/ 91200 333 60017=
07299,1998-12-12 15:00:00,5,1026.2,-0.1,93,4,4000,11.112,,,150,,,,2,,,,,,10,wg-a,,,,AAXX 12154 07299 12540 71506 10050 20040 39928 40262 55001 60027 71062 875// 91500=
07299,1998-12-12 18:00:00,5,1026.9,0.7,93,4,2500,7.408,,,180,1.2,5.3,,,,,,,,10,wg-a,,,,AAXX 12184 07299 02425 81804 10050 20040 39935 40269 53007 61000 71062 875// 91800 333 10053 20012 6005=
07299,1998-12-12 21:00:00,5,1027.2,0.4,100,5,3000,7.408,,,180,,,,2,,,,,,10,wg-a,,,,AAXX 12214 07299 12130 81804 10050 20050 39938 40272 52004 60027 71062 877// 92100=
07299,1998-12-13 00:00:00,6,1026.7,-0.6,93,5,3000,14.816,,,160,,,,,,,,,,10,wg-a,,,,AAXX 13004 07299 02430 81608 10060 20050 39934 40267 58006 60026 71062 875// 90000 333 61000=
07299,1998-12-13 06:00:00,13,1028.5,2.6,82,10,10000,22.224,,,250,4.6,12.5,,,,,,,,25,wg-a,,,,AAXX 13064 07299 02560 72512 10130 20100 39960 40285 53026 61000 72586 875// 90600 333 10125 20046 6010=
07299,1998-12-13 09:00:00,12,1031.6,2.9,82,9,500,22.224,,,260,,,,,,,,,,,wg-a,,,,AAXX 13094 07299 12500 72612 10120 20090 39989 40316 51029 60006 86102 90900=
07299,1998-12-13 12:00:00,11,1033.9,1.9,76,7,60000,25.928,,,280,,,,,,,,,,,wg-a,,,,AAXX 13124 07299 12586 72814 10110 20070 30010 40339 52019 60006 8687/ 91200=
07299,1998-12-13 15:00:00,11,1034.6,0.6,76,7,60000,14.816,,,280,,,,,,,,,,,wg-a,,,,AAXX 13154 07299 12786 72808 10110 20070 30016 40346 53006 60006 82132 91500=
07299,1998-12-13 18:00:00,7,1036.6,1.7,87,5,50000,3.704,,,100,7.3,12.5,,,,,,,,,wg-a,,,,AAXX 13184 07299 12/84 71002 10070 20050 30032 40366 51017 60006 83032 91800 333 10125 20073=
07299,1998-12-13 21:00:00,5,1036.5,-0.6,93,4,25000,3.704,,,110,,,,,,,,,,,wg-a,,,,AAXX 13214 07299 12775 71102 10050 20040 30028 40365 58006 60006 8253/ 92100=
07299,1998-12-14 00:00:00,4,1035.9,-0.7,100,4,10000,7.408,,,190,,,,,,,,,,,wg-a,,,,AAXX 14004 07299 12760 71904 10040 20040 30021 40359 58007 60006 8253/ 90000=
07299,1998-12-14 03:00:00,4,1035.3,-0.6,93,3,20000,0,,,0,,,,,,,,,,,wg-a,,,,AAXX 14034 07299 12770 70000 10040 20030 30015 40353 58006 60006 875// 90300=
07299,1998-12-14 06:00:00,5,1035.7,0.5,87,3,10000,7.408,,,100,3.5,7.4,,,,,,,,,wg-a,,,,AAXX 14064 07299 02/60 /1004 10050 20030 30020 40357 52005 60006 90600 333 10074 20035 60004=
07299,1998-12-14 09:00:00,6,1036,0.4,87,4,50000,7.408,,,170,,,,,,,,,,,wg-a,,,,AAXX 14094 07299 12884 71704 10060 20040 30024 40360 53004 60006 8157/ 90900=
07299,1998-12-14 12:00:00,9,1034.3,-1.3,71,4,60000,7.408,,,150,,,,,,,,,,,wg-a,,,,AAXX 14124 07299 12486 71504 10090 20040 30011 40343 58013 60006 8183/ 91200=
07299,1998-12-14 15:00:00,10,1033.1,-1,71,5,60000,3.704,,,150,,,,,,,,,,,wg-a,,,,AAXX 14154 07299 12886 71502 10100 20050 30001 40331 56010 60006 875// 91500=
07299,1998-12-14 18:00:00,6,1034.4,0.9,81,3,45000,7.408,,,210,4,10.4,,,,,,,,,wg-a,,,,AAXX 14184 07299 12883 52104 10060 20030 30009 40344 53009 60006 81534 91800 333 10104 20040=
07299,1998-12-15 00:00:00,3,1034.4,-0.8,87,1,20000,18.52,,,170,,,,,,,,,,,wg-a,,,,AAXX 15004 07299 12870 21710 10030 20010 30005 40344 58008 60006 815/1 90000=
07299,1998-12-15 06:00:00,2,1033.1,-1.2,93,1,20000,14.816,,,180,1.4,6.1,,,,,,,,,wg-a,,,,AAXX 15064 07299 02/70 11808 10020 20010 39991 40331 56012 60006 80001 90600 333 10061 20014 60004=
07299,1998-12-15 09:00:00,3,1033.3,0.4,87,1,40000,14.816,,,160,,,,,,,,,,,wg-a,,,,AAXX 15094 07299 12/82 31608 10030 20010 39995 40333 53004 60006 80001 90900=
07299,1998-12-15 12:00:00,10,1030.8,-1.7,62,3,45000,11.112,,,150,,,,,,,,,,,wg-a,,,,AAXX 15124 07299 12/83 11506 10100 20030 39978 40308 58017 60006 80001 91200=
07299,1998-12-15 15:00:00,9,1029.3,-1.5,71,4,45000,11.112,,,170,,,,,,,,,,,wg-a,,,,AAXX 15154 07299 12/83 11706 10090 20040 39963 40293 56015 60006 80001 91500=
07299,1998-12-15 18:00:00,5,1030,0.2,87,3,35000,11.112,,,170,1.4,10.7,,,,,,,,,wg-a,,,,AAXX 15184 07299 12/81 11706 10050 20030 39965 40300 53002 60006 80001 91800 333 10107 20014=
07299,1998-12-15 21:00:00,3,1030.6,0.3,87,1,25000,11.112,,,170,,,,,,,,,,,wg-a,,,,AAXX 15214 07299 12/75 11706 10030 20010 39968 40306 53003 60006 80001 92100=
07299,1998-12-16 00:00:00,1,1031.7,1,93,0,20000,7.408,,,150,,,,,,,,,,,wg-a,,,,AAXX 16004 07299 12/70 21504 10010 20000 39977 40317 51010 60006 80001 90000=
07299,1998-12-16 03:00:00,6,1032.4,1.2,87,4,25000,31.484,,,250,,,,,,,,,,,wg-a,,,,AAXX 16034 07299 12475 72517 10060 20040 39989 40324 52012 60006 82504 90300=
07299,1998-12-16 06:00:00,6,1036.3,3.9,93,5,12000,7.408,,,50,0.8,6.6,,,,,,,,21,wg-a,,,,AAXX 16064 07299 02362 80504 10060 20050 30027 40363 53039 61000 72111 877// 90600 333 10066 20008 6100=
07299,1998-12-16 09:00:00,5,1036.8,0.3,100,5,500,0,,,0,,,,,,,,,,,wg-a,,,,AAXX 16094 07299 12400 /0000 10050 20050 30031 40368 53003 60006 81701 90900=
07299,1998-12-16 12:00:00,8,1034.7,-1.7,87,6,8000,3.704,,,60,,,,,,,,,,,wg-a,,,,AAXX 16124 07299 12/58 70602 10080 20060 30014 40347 58017 60006 80002 91200=
07299,1998-12-16 15:00:00,7,1034.2,-0.6,87,5,15000,3.704,,,320,,,,,,,,,,,wg-a,,,,AAXX 16154 07299 12/65 53202 10070 20050 30008 40342 55006 60006 80001 91500=
07299,1998-12-16 18:00:00,2,1035.9,1.1,93,1,4000,3.704,,,180,1.9,8.7,,,,,,,,10,wg-a,,,,AAXX 16184 07299 12240 /1802 10020 20010 30018 40359 53011 60006 71022 83601 91800 333 10087 20019=
07299,1998-12-16 21:00:00,1,1036.2,0.2,100,1,600,0,,,0,,,,,,,,,,43,wg-a,,,,AAXX 16214 07299 12/06 90000 10010 20010 30020 40362 52002 60006 74342 89/// 92100=
07299,1998-12-17 00:00:00,1,1035.4,-0.8,100,1,400,3.704,,,150,,,,,,,,,,47,wg-a,,,,AAXX 17004 07299 12/04 91502 10010 20010 30012 40354 58008 60006 74742 89/// 90000=
07299,1998-12-17 03:00:00,-1,1034.4,-1.2,100,-1,500,3.704,,,210,,,,,,,,,,44,wg-a,,,,AAXX 17034 07299 12/05 02102 11010 21010 30000 40344 58012 60006 74444 80000 90300=
07299,1998-12-17 06:00:00,-1,1033.3,-1.2,100,-1,4500,3.704,,,330,-1.6,2.2,,,,,,,,10,wg-a,,,,AAXX 17064 07299 02/45 23302 11010 21010 39989 40333 56012 60006 71041 80001 90600 333 10022 21016 60004=
07299,1998-12-17 12:00:00,7,1029.8,-1.8,66,1,40000,11.112,,,60,,,,,,,,,,,wg-a,,,,AAXX 17124 07299 12/82 30606 10070 20010 39965 40298 58018 60006 80002 91200=
07299,1998-12-17 18:00:00,3,1028.3,-0.8,81,0,25000,7.408,,,120,-0.9,8.5,,,,,,,,,wg-a,,,,AAXX 17184 07299 12/75 21204 10030 20000 39946 40283 58008 60006 81031 91800 333 10085 21009=
07299,1998-12-17 21:00:00,2,1028.2,-0.2,80,-1,15000,11.112,,,150,,,,,,,,,,,wg-a,,,,AAXX 17214 07299 12/65 01506 10020 21010 39944 40282 58002 60006 80000 92100=
07299,1998-12-18 00:00:00,1,1028.1,-0.2,86,-1,15000,14.816,,,180,,,,,,,,,,,wg-a,,,,AAXX 18004 07299 12/65 01808 10010 21010 39942 40281 56002 60006 80000 90000=
07299,1998-12-18 03:00:00,0,1028.5,0.2,93,-1,12000,11.112,,,170,,,,,,,,,,,wg-a,,,,AAXX 18034 07299 12/62 01706 10000 21010 39944 40285 50002 60006 80000 90300=
07299,1998-12-18 06:00:00,-1,1028.1,-0.4,93,-2,8000,11.112,,,160,-0.6,2.7,,,,,,,,,wg-a,,,,AAXX 18064 07299 02/58 01606 11010 21020 39940 40281 55004 60006 80000 90600 333 10027 21006 60004=
07299,1998-12-18 09:00:00,2,1028.3,0.3,87,0,8000,11.112,,,170,,,,,,,,,,,wg-a,,,,AAXX 18094 07299 12/58 01706 10020 20000 39944 40283 50003 60006 80000 90900=
07299,1998-12-18 12:00:00,7,1026.1,-1.4,66,1,9000,7.408,,,110,,,,,,,,,,,wg-a,,,,AAXX 18124 07299 12/59 /1104 10070 20010 39930 40261 58014 60006 80001 91200=
07299,1998-12-18 15:00:00,6,1024.8,-1.4,70,1,12000,7.408,,,150,,,,,,,,,,,wg-a,,,,AAXX 18154 07299 12/62 21504 10060 20010 39916 40248 56014 60006 81031 91500=
07299,1998-12-18 18:00:00,2,1024.2,-1.1,87,0,10000,11.112,,,180,-1,8.4,,,,,,,,,wg-a,,,,AAXX 18184 07299 12/60 21806 10020 20000 39905 40242 58011 60006 81031 91800 333 10084 21010=
07299,1998-12-18 21:00:00,1,1022.8,-1.6,93,0,10000,14.816,,,160,,,,,,,,,,,wg-a,,,,AAXX 18214 07299 12760 31608 10010 20000 39890 40228 58016 60006 81530 92100=
07299,1998-12-19 00:00:00,1,1021.3,-1.3,93,0,7000,11.112,,,190,,,,,,,,,,,wg-a,,,,AAXX 19004 07299 12757 81906 10010 20000 39876 40213 56013 60006 875// 90000=
07299,1998-12-19 03:00:00,2,1019.5,-1.6,87,0,10000,7.408,,,190,,,,,,,,,,60,wg-a,,,,AAXX 19034 07299 02660 81904 10020 20000 39859 40195 57016 61000 76062 875// 90300 333 ////=
07299,1998-12-19 06:00:00,9,1017.2,-1.3,71,4,20000,22.224,,,230,0.7,8.7,,,,,,,,2,wg-a,,,,AAXX 19064 07299 02670 82312 10090 20040 39846 40172 56013 60006 70262 875// 90600 333 10087 20007 61000=
07299,1998-12-19 09:00:00,9,1018.6,1.3,71,4,15000,25.928,,,230,,,,,,,,,,15,wg-a,,,,AAXX 19094 07299 02465 72314 10090 20040 39859 40186 51013 61000 71562 878// 90900 333 ////=
07299,1998-12-19 12:00:00,8,1018.9,0.1,71,3,17000,29.632,,53.708,250,,,,,,,,,,1,wg-a,,,,AAXX 19124 07299 02467 42516 10080 20030 39861 40189 50001 61000 70161 84800 91200 333 6100 91029=
07299,1998-12-19 15:00:00,6,1020.1,1.1,81,3,17000,14.816,,44.448,260,,,,0,,,,,,25,wg-a,,,,AAXX 19154 07299 12467 /2608 10060 20030 39871 40201 53011 60007 72586 86801 91500 333 91024=
07299,1998-12-19 18:00:00,4,1020.6,0.2,81,1,18000,3.704,,,230,3.6,9.2,,,,,,,,3,wg-a,,,,AAXX 19184 07299 12568 72302 10040 20010 39873 40206 50002 60006 70386 83831 91800 333 10092 20036=
07299,1998-12-19 21:00:00,5,1018.9,-1.6,75,1,18000,7.408,,,160,,,,,,,,,,,wg-a,,,,AAXX 19214 07299 12668 /1604 10050 20010 39857 40189 58016 60006 84830 92100=
07299,1998-12-20 00:00:00,2,1016.8,-2.3,87,0,20000,0,,,0,,,,,,,,,,,wg-a,,,,AAXX 20004 07299 12570 70000 10020 20000 39834 40168 58023 60006 8553/ 90000=
07299,1998-12-20 03:00:00,2,1013.7,-3,93,1,20000,7.408,,,150,,,,,,,,,,,wg-a,,,,AAXX 20034 07299 12570 71504 10020 20010 39804 40137 56030 60006 8653/ 90300=
07299,1998-12-20 06:00:00,2,1010.3,-3.3,87,0,20000,3.704,,,150,1.7,5.2,,,,,,,,,wg-a,,,,AAXX 20064 07299 02570 81502 10020 20000 39771 40103 56033 60006 8653/ 90600 333 10052 20017 60004=
07299,1998-12-20 09:00:00,3,1008.5,-1.7,87,1,17000,3.704,,,110,,,,,,,,,,21,wg-a,,,,AAXX 20094 07299 02467 81102 10030 20010 39754 40085 56017 61000 72162 8387/ 90900 333 ////=
07299,1998-12-20 12:00:00,3,1006.8,-1.6,93,2,12000,7.408,,,90,,,,0,,,,,,60,wg-a,,,,AAXX 20124 07299 02362 80904 10030 20020 39738 40068 58016 60016 76062 878// 91200 333 60007=
07299,1998-12-20 15:00:00,3,1007,0.2,93,2,9000,3.704,,,60,,,,0,,,,,,60,wg-a,,,,AAXX 20154 07299 12359 80602 10030 20020 39740 40070 53002 60007 76066 871// 91500=
07299,1998-12-20 18:00:00,2,1008.1,1,100,2,12000,14.816,,,10,1.8,3.4,,0,,,,,,1,wg-a,,,,AAXX 20184 07299 02262 80108 10020 20020 39750 40081 53010 60006 70162 875// 91800 333 10034 20018 60007=
07299,1998-12-20 21:00:00,3,1010.3,2.2,93,2,4500,18.52,,,350,,,,,,,,,,10,wg-a,,,,AAXX 20214 07299 12245 83510 10030 20020 39772 40103 52022 60006 71022 875// 92100=
07299,1998-12-21 00:00:00,2,1013,2.5,87,0,10000,22.224,,,340,,,,,,,,,,,wg-a,,,,AAXX 21004 07299 12460 73412 10020 20000 39797 40130 53025 60006 875// 90000=
07299,1998-12-21 06:00:00,0,1018.3,2.7,86,-2,9000,14.816,,,340,-0.4,3,,,,,1,,,,wg-a,,,,AAXX 21064 07299 02359 73408 10000 21020 39845 40183 52027 60006 878// 90600 333 10030 21004 60014=
07299,1998-12-21 09:00:00,0,1021.1,2.8,86,-2,12000,7.408,,,310,,,,,,,,,,,wg-a,,,,AAXX 21094 07299 12562 43104 10000 21020 39873 40211 51028 60006 84800 90900=
07299,1998-12-21 12:00:00,2,1022.2,1.2,75,-2,12000,7.408,,,320,,,,,,,,,,22,wg-a,,,,AAXX 21124 07299 02462 /3204 10020 21020 39885 40222 51012 61000 72271 86800 91200 333 6100=
07299,1998-12-21 15:00:00,2,1023.9,1.7,75,-2,15000,3.704,,,120,,,,,,,,,,22,wg-a,,,,AAXX 21154 07299 02465 /1202 10020 21020 39902 40239 53017 61000 72271 86800 91500 333 ////=
07299,1998-12-21 18:00:00,-1,1026.3,2.1,93,-2,15000,3.704,,,260,-1.3,3,,,,,,,,3,wg-a,,,,AAXX 21184 07299 12665 32602 11010 21020 39922 40263 51021 60006 70371 83500 91800 333 10030 21013=
07299,1998-12-21 21:00:00,-2,1028,1.4,100,-2,8000,0,,,0,,,,,,,,,,,wg-a,,,,AAXX 21214 07299 12458 50000 11020 21020 39937 40280 53014 60006 85500 92100=
07299,1998-12-22 00:00:00,-2,1028.6,0.6,93,-3,8000,7.408,,,140,,,,,,,,,,,wg-a,,,,AAXX 22004 07299 12558 /1404 11020 21030 39943 40286 50006 60006 86500 90000=
07299,1998-12-22 03:00:00,-4,1029.6,0.7,100,-4,8000,0,,,0,,,,,,,,,,,wg-a,,,,AAXX 22034 07299 12558 30000 11040 21040 39950 40296 53007 60006 83500 90300=
07299,1998-12-22 06:00:00,-4,1029.9,0.2,93,-5,8000,3.704,,,210,-4.4,-0.8,,,,,,,,,wg-a,,,,AAXX 22064 07299 02/58 02102 11040 21050 39952 40299 53002 60006 80000 90600 333 11008 21044 61000=
07299,1998-12-22 09:00:00,-2,1030.7,1.1,93,-3,500,7.408,,,160,,,,,,,,,,,wg-a,,,,AAXX 22094 07299 12100 21604 11020 21030 39963 40307 53011 60006 82670 90900=
07299,1998-12-22 12:00:00,2,1029.5,-0.8,69,-3,25000,3.704,,,130,,,,,,,,,,,wg-a,,,,AAXX 22124 07299 12475 /1302 10020 21030 39957 40295 58008 60006 81270 91200=
07299,1998-12-22 15:00:00,3,1029.1,-0.3,65,-3,25000,3.704,,,170,,,,,,,,,,,wg-a,,,,AAXX 22154 07299 12775 /1702 10030 21030 39953 40291 56003 60006 81530 91500=
07299,1998-12-22 18:00:00,1,1030.1,0.8,80,-2,15000,0,,,0,-4.6,3.3,,,,,,,,,wg-a,,,,AAXX 22184 07299 12665 /0000 10010 21020 39961 40301 51008 60006 86500 91800 333 10033 21046=
07299,1998-12-22 21:00:00,0,1030.2,-0.1,86,-2,12000,3.704,,,130,,,,,,,,,,,wg-a,,,,AAXX 22214 07299 12662 /1302 10000 21020 39960 40302 57001 60006 86500 92100=
07299,1998-12-23 00:00:00,-2,1029.5,-0.8,93,-3,10000,11.112,,,150,,,,,,,,,,,wg-a,,,,AAXX 23004 07299 12660 21506 11020 21030 39952 40295 58008 60006 82500 90000=
07299,1998-12-23 03:00:00,-3,1029.2,-0.5,86,-5,9000,7.408,,,100,,,,,,,,,,,wg-a,,,,AAXX 23034 07299 12759 /1004 11030 21050 39947 40292 58005 60006 81500 90300=
07299,1998-12-23 06:00:00,-5,1028.6,-0.8,93,-6,7000,3.704,,,270,-5.4,0.7,,,,,,,,,wg-a,,,,AAXX 23064 07299 02/57 02702 11050 21060 39939 40286 56008 60006 80000 90600 333 10007 21054 60004=
07299,1998-12-23 09:00:00,-3,1028.2,-0.1,93,-4,4500,3.704,,,300,,,,,,,,,,10,wg-a,,,,AAXX 23094 07299 12/45 /3002 11030 21040 39938 40282 57001 60006 71000 80001 90900=
07299,1998-12-23 12:00:00,3,1025.2,-2.2,60,-4,10000,7.408,,,50,,,,,,,,,,,wg-a,,,,AAXX 23124 07299 12/60 40504 10030 21040 39916 40252 58022 60006 80001 91200=
07299,1998-12-23 15:00:00,2,1024.4,-0.9,64,-4,13000,14.816,,,150,,,,,,,,,,,wg-a,,,,AAXX 23154 07299 12/63 61508 10020 21040 39907 40244 56009 60006 80006 91500=
07299,1998-12-23 18:00:00,-1,1024.3,-0.4,86,-3,11000,7.408,,,140,-5.7,4.3,,,,,,,,,wg-a,,,,AAXX 23184 07299 12/61 61404 11010 21030 39903 40243 56004 60006 80006 91800 333 10043 21057=
07299,1998-12-23 21:00:00,-1,1024.3,-0.1,80,-4,10000,14.816,,,160,,,,,,,,,,,wg-a,,,,AAXX 23214 07299 32/60 /1608 11010 21040 39902 40243 58001 92100=
07299,1998-12-24 00:00:00,-1,1023.9,-0.4,80,-4,12000,11.112,,,160,,,,,,,,,,0,wg-a,,,,AAXX 24004 07299 32/62 61606 11010 21040 39898 40239 58004 700// 80006 90000=
07299,1998-12-24 03:00:00,-1,1023,-0.8,86,-3,12000,11.112,,,170,,,,,,,,,,0,wg-a,,,,AAXX 24034 07299 32/62 61706 11010 21030 39890 40230 58008 700// 80006 90300=
07299,1998-12-24 06:00:00,-1,1022.9,-0.1,86,-3,12000,7.408,,,180,-1.7,-0.3,,,,,,,,0,wg-a,,,,AAXX 24064 07299 12662 81804 11010 21030 39889 40229 55001 60004 700// 8457/ 90600 333 11003 21017=
07299,1998-12-24 12:00:00,1,1023.6,-0.5,93,0,3000,11.112,,,160,,,,0,,,,,,10,wg-a,,,,AAXX 24124 07299 12430 81606 10010 20000 39899 40236 58005 60007 71076 875// 91200=
07299,1998-12-24 15:00:00,2,1025,1.4,93,1,12000,18.52,,,250,,,,,,,,,,21,wg-a,,,,AAXX 24154 07299 02462 82510 10020 20010 39913 40250 53014 61000 72162 875// 91500 333 ////=
07299,1998-12-24 18:00:00,2,1027.7,2.6,87,0,10000,11.112,,,250,-0.5,2.6,,,,,,,,21,wg-a,,,,AAXX 24184 07299 02560 82506 10020 20000 39939 40277 51026 61000 72162 875// 91800 333 10026 21005 ////=
07299,1998-12-24 21:00:00,2,1029.8,2.1,87,0,12000,11.112,,,240,,,,,,,,,,0,wg-a,,,,AAXX 24214 07299 32662 82406 10020 20000 39959 40298 51021 700// 8652/ 92100=
07299,1998-12-25 00:00:00,1,1031.1,1.1,86,-1,11000,7.408,,,210,,,,,,,,,,,wg-a,,,,AAXX 25004 07299 32661 82104 10010 21010 39971 40311 51011 8653/ 90000=
07299,1998-12-25 03:00:00,-1,1031.9,0.5,93,-2,11000,3.704,,,150,,,,,,,,,,0,wg-a,,,,AAXX 25034 07299 32661 31502 11010 21020 39976 40319 50005 700// 81530 90300=
07299,1998-12-25 06:00:00,-2,1032.4,0.3,93,-3,800,7.408,,,150,-3.2,1.8,,,,,,,,46,wg-a,,,,AAXX 25064 07299 12208 71504 11020 21030 39979 40324 53003 60004 74641 876// 90600 333 10018 21032=
07299,1998-12-25 09:00:00,-1,1032.8,0.6,100,-1,500,11.112,,,150,,,,,,,,,,28,wg-a,,,,AAXX 25094 07299 32200 71506 11010 21010 39985 40328 51006 72842 82632 90900=
07299,1998-12-25 12:00:00,2,1031.9,-0.6,87,0,12000,3.704,,,190,,,,,,,,,,1,wg-a,,,,AAXX 25124 07299 32/62 71902 10020 20000 39979 40319 58006 70142 8707/ 91200=
07299,1998-12-25 15:00:00,2,1030.6,-1.1,87,0,15000,7.408,,,170,,,,,,,,,,0,wg-a,,,,AAXX 25154 07299 32665 71704 10020 20000 39968 40306 56011 700// 8757/ 91500=
07299,1998-12-25 18:00:00,1,1030.3,-0.5,93,0,12000,7.408,,,200,-2.2,2.6,,,,,,,,0,wg-a,,,,AAXX 25184 07299 32562 72004 10010 20000 39963 40303 55005 700// 875// 91800 333 10026 21022=
07299,1998-12-25 21:00:00,2,1029.6,-0.6,87,0,9000,7.408,,,190,,,,,,,,,,0,wg-a,,,,AAXX 25214 07299 32559 71904 10020 20000 39957 40296 57006 700// 875// 92100=
07299,1998-12-26 00:00:00,2,1028.4,-1,87,0,9000,7.408,,,240,,,,,,,,,,,wg-a,,,,AAXX 26004 07299 12559 72404 10020 20000 39946 40284 56010 60006 875// 90000=
07299,1998-12-26 03:00:00,1,1028.4,-0.1,93,0,12000,11.112,,,150,,,,,,,,,,,wg-a,,,,AAXX 26034 07299 12562 71506 10010 20000 39945 40284 56001 60006 875// 90300=
07299,1998-12-26 06:00:00,2,1027.8,-0.6,87,0,12000,14.816,,,160,1.1,2.5,,,,,,,,,wg-a,,,,AAXX 26064 07299 02662 71608 10020 20000 39940 40278 58006 60006 875// 90600 333 10025 20011 60004=
07299,1998-12-26 09:00:00,4,1028.1,0.5,87,2,20000,7.408,,,200,,,,,,,,,,,wg-a,,,,AAXX 26094 07299 12670 72004 10040 20020 39945 40281 52005 60006 875// 90900=
07299,1998-12-26 12:00:00,6,1025.9,-1.9,75,2,20000,3.704,,,140,,,,,,,,,,,wg-a,,,,AAXX 26124 07299 12670 71402 10060 20020 39926 40259 56019 60006 8557/ 91200=
07299,1998-12-26 15:00:00,6,1023.5,-2.2,81,3,20000,7.408,,,170,,,,,,,,,,,wg-a,,,,AAXX 26154 07299 12670 71704 10060 20030 39903 40235 56022 60006 8157/ 91500=
07299,1998-12-26 18:00:00,4,1021.8,-1.9,87,2,20000,11.112,,,150,2.2,6.3,,,,,,,,,wg-a,,,,AAXX 26184 07299 12770 71506 10040 20020 39885 40218 58019 60006 8157/ 91800 333 10063 20022=
07299,1998-12-27 06:00:00,5,1017.2,-0.5,87,3,20000,7.408,,,190,3.5,5.2,,,,,,,,21,wg-a,,,,AAXX 27064 07299 02670 71904 10050 20030 39841 40172 58005 61000 72162 83572 90600 333 10052 20035 6100=
07299,1998-12-27 09:00:00,12,1015.7,-0.6,54,3,20000,11.112,,,220,,,,,,,,,,,wg-a,,,,AAXX 27094 07299 12670 72206 10120 20030 39835 40157 56006 60006 83572 90900=
07299,1998-12-27 12:00:00,12,1014.4,-1.3,67,6,500,7.408,,,90,,,,,,,,,,2,wg-a,,,,AAXX 27124 07299 02500 70904 10120 20060 39822 40144 58013 61000 70262 8157/ 91200 333 6100=
07299,1998-12-27 15:00:00,9,1013.9,-0.7,81,6,500,7.408,,,120,,,,,,,,,,,wg-a,,,,AAXX 27154 07299 12700 71204 10090 20060 39815 40139 55007 60006 8157/ 91500=
07299,1998-12-27 18:00:00,8,1013.9,-0.2,76,4,500,14.816,,,130,5.3,13.9,,,,,,,,,wg-a,,,,AAXX 27184 07299 12700 71308 10080 20040 39813 40139 57002 60006 8157/ 91800 333 10139 20053=
07299,1998-12-27 21:00:00,4,1014.4,-0,87,2,500,7.408,,,190,,,,,,,,,,,wg-a,,,,AAXX 27214 07299 12/00 71904 10040 20020 39813 40144 55000 60006 81032 92100=
07299,1998-12-28 00:00:00,1,1015.8,1,93,0,500,7.408,,,220,,,,,,,,,,,wg-a,,,,AAXX 28004 07299 12/00 42204 10010 20000 39823 40158 51010 60006 80002 90000=
07299,1998-12-28 03:00:00,1,1016.4,0.5,86,-1,500,7.408,,,230,,,,,,,,,,,wg-a,,,,AAXX 28034 07299 12/00 42304 10010 21010 39828 40164 53005 60006 80002 90300=
07299,1998-12-28 06:00:00,0,1017.1,0.6,93,-1,500,7.408,,,180,-0.7,7.9,,,,,,,,,wg-a,,,,AAXX 28064 07299 02/00 41804 10000 21010 39834 40171 53006 60006 80002 90600 333 10079 21007 61000=
07299,1998-12-28 09:00:00,3,1016.8,0.1,87,1,35000,7.408,,,190,,,,,,,,,,,wg-a,,,,AAXX 28094 07299 12581 /1904 10030 20010 39835 40168 53001 60006 81132 90900=
07299,1998-12-28 12:00:00,9,1015.2,-0.9,66,3,11000,7.408,,,170,,,,,,,,,,,wg-a,,,,AAXX 28124 07299 12/61 /1704 10090 20030 39826 40152 58009 60006 91200=
07299,1998-12-28 18:00:00,7,1017.4,1.7,81,4,17000,7.408,,,160,0,12,,,,,,,,,wg-a,,,,AAXX 28184 07299 12767 71604 10070 20040 39845 40174 53017 60006 875// 91800 333 10120 20000=
07299,1998-12-28 21:00:00,5,1019,1.3,87,3,20000,3.704,,,130,,,,,,,,,,,wg-a,,,,AAXX 28214 07299 12/70 61302 10050 20030 39858 40190 53013 60006 86030 92100=
07299,1998-12-29 00:00:00,4,1020.1,1,93,3,20000,3.704,,,280,,,,,,,,,,,wg-a,,,,AAXX 29004 07299 12670 72802 10040 20030 39868 40201 51010 60006 8453/ 90000=
07299,1998-12-29 03:00:00,4,1019.9,-0.1,93,3,20000,3.704,,,210,,,,,,,,,,,wg-a,,,,AAXX 29034 07299 12770 72102 10040 20030 39867 40199 56001 60006 8353/ 90300=
07299,1998-12-29 06:00:00,0,1020,-0.5,100,0,20000,7.408,,,310,0,7.1,,,,,,,,,wg-a,,,,AAXX 29064 07299 02770 43104 10000 20000 39862 40200 56005 60006 81530 90600 333 10071 20000 60004=
07299,1998-12-29 09:00:00,2,1019.7,0,100,2,500,3.704,,,260,,,,,,,,,,44,wg-a,,,,AAXX 29094 07299 12100 82602 10020 20020 39862 40197 50000 60006 74441 886// 90900=
07299,1998-12-29 12:00:00,6,1017,-2.1,93,5,2000,7.408,,,310,,,,,,,,,,10,wg-a,,,,AAXX 29124 07299 12/20 /3104 10060 20050 39841 40170 58021 60006 71041 81050 91200=
07299,1998-12-29 15:00:00,7,1015.4,-1.4,87,5,10000,7.408,,,330,,,,,,,,,,,wg-a,,,,AAXX 29154 07299 12/60 13304 10070 20050 39827 40154 56014 60006 81050 91500=
07299,1998-12-29 18:00:00,3,1016,-0,93,2,10000,0,,,0,-0.3,9,,,,,,,,,wg-a,,,,AAXX 29184 07299 12/60 00000 10030 20020 39827 40160 55000 60006 80000 91800 333 10090 21003=
07299,1998-12-29 21:00:00,-1,1016.7,0.2,100,-1,800,3.704,,,240,,,,,,,,,,41,wg-a,,,,AAXX 29214 07299 32008 42402 11010 21010 39829 40167 53002 74140 84600 92100=
07299,1998-12-30 00:00:00,-1,1017.3,0.5,93,-2,200,0,,,0,,,,,,,,,,49,wg-a,,,,AAXX 30004 07299 32/02 90000 11010 21020 39834 40173 51005 74941 89/// 90000=
07299,1998-12-30 03:00:00,-3,1017.4,-0.1,100,-3,200,3.704,,,360,,,,,,,,,,49,wg-a,,,,AAXX 30034 07299 32/02 93602 11030 21030 39833 40174 56001 74944 89/// 90300=
07299,1998-12-30 06:00:00,-4,1018,0.5,100,-4,900,0,,,0,-4,2.7,,,,,,,,41,wg-a,,,,AAXX 30064 07299 12009 40000 11040 21040 39838 40180 53005 60004 74144 83600 90600 333 10027 21040=
07299,1998-12-30 09:00:00,-1,1019,1.4,100,-1,500,0,,,0,,,,,,,,,,40,wg-a,,,,AAXX 30094 07299 32000 /0000 11010 21010 39852 40190 51014 74040 81600 90900=
07299,1998-12-30 12:00:00,7,1016.9,-1.1,70,2,7000,7.408,,,130,,,,,,,,,,2,wg-a,,,,AAXX 30124 07299 32/57 01304 10070 20020 39841 40169 58011 70240 80000 91200=
07299,1998-12-30 15:00:00,8,1016.2,-0.6,61,1,15000,14.816,,,100,,,,,,,,,,0,wg-a,,,,AAXX 30154 07299 32/65 01008 10080 20010 39835 40162 55006 700// 80000 91500=
07299,1998-12-30 18:00:00,3,1017.1,0.2,81,0,15000,7.408,,,180,-3.8,9.3,,,,,,,,0,wg-a,,,,AAXX 30184 07299 32/65 01804 10030 20000 39837 40171 53002 700// 80000 91800 333 10093 21038=
07299,1998-12-30 21:00:00,1,1017.2,-0.1,86,-1,8000,7.408,,,170,,,,,,,,,,0,wg-a,,,,AAXX 30214 07299 32/58 01704 10010 21010 39836 40172 58001 700// 80000 92100=
07299,1998-12-31 00:00:00,-1,1017.5,0.1,93,-2,6000,11.112,,,190,,,,,,,,,,0,wg-a,,,,AAXX 31004 07299 32/56 01906 11010 21020 39837 40175 51001 700// 80000 90000=
07299,1998-12-31 03:00:00,0,1016.5,-1,93,-1,6000,11.112,,,160,,,,,,,,,,0,wg-a,,,,AAXX 31034 07299 32/56 41606 10000 21010 39828 40165 56010 700// 81051 90300=
07299,1998-12-31 06:00:00,0,1015.3,-1.1,86,-2,8000,7.408,,,170,-1.7,2.4,,,,,,,,0,wg-a,,,,AAXX 31064 07299 12/58 51704 10000 21020 39816 40153 56011 60004 700// 83051 90600 333 10024 21017=
07299,1998-12-31 12:00:00,2,1013.6,-1.1,93,1,13000,7.408,,,320,,,,,,,,,,0,wg-a,,,,AAXX 31124 07299 32/63 73204 10020 20010 39803 40136 58011 700// 86072 91200=
07299,1998-12-31 18:00:00,-1,1012.7,-0.1,100,-1,400,7.408,,,320,-1.1,2.5,,,,,,,,45,wg-a,,,,AAXX 31184 07299 32/04 93204 11010 21010 39791 40127 55001 74542 89/// 91800 333 10025 21011=
07299,1998-12-31 21:00:00,-1,1013,0.2,100,-1,300,7.408,,,350,,,,,,,,,,45,wg-a,,,,AAXX 31214 07299 32/03 93504 11010 21010 39793 40130 53002 74544 89/// 92100=
