station_id,dh_utc,temperature,pression,pression_variation_3h,humidite,point_de_rosee,visibilite,vent_moyen,vent_rafales,vent_rafales_10min,vent_direction,temperature_min,temperature_max,pluie_1h,pluie_3h,pluie_6h,pluie_12h,pluie_24h,ensoleillement,temperature_sol,temps_omm,source,radiations,neige_au_sol,nebulosite,raw_msg
07222,1996-01-01 00:00:00,8,999.5,-0.3,100,8,800,7.408,,,160,,,,,,,,,,44,wg-a,,,,AAXX 01004 07222 12008 71604 10080 20080 39964 49995 58003 60006 74441 876// 90000=
07222,1996-01-01 03:00:00,8,998.3,-1.2,100,8,600,11.112,,,140,,,,,,,,,,44,wg-a,,,,AAXX 01034 07222 12006 81406 10080 20080 39952 49983 56012 60006 74442 876// 90300=
07222,1996-01-01 06:00:00,9,995.9,-2.4,100,9,800,14.816,,,120,7.3,10.4,,,,,2,,,42,wg-a,,,,AAXX 01064 07222 12008 71208 10090 20090 39928 49959 56024 60024 74244 877// 90600 333 10104 20073=
07222,1996-01-01 09:00:00,9,995.1,-0.8,100,9,7000,18.52,,,120,,,,0,,,,,,21,wg-a,,,,AAXX 01094 07222 12257 81210 10090 20090 39920 49951 58008 60007 72162 887// 90900=
07222,1996-01-01 12:00:00,10,993.5,-1.6,93,9,10000,22.224,,,130,,,,0,,,,,,61,wg-a,,,,AAXX 01124 07222 02460 81312 10100 20090 39904 49935 58016 60016 76162 875// 91200 333 60007=
07222,1996-01-01 15:00:00,11,992.1,-1.4,87,9,12000,18.52,,,120,,,,0,,,,,,,wg-a,,,,AAXX 01154 07222 12462 81210 10110 20090 39890 49921 55014 60007 875// 91500=
07222,1996-01-01 18:00:00,9,991,-1.1,100,9,4000,25.928,,,70,8.8,10.9,,7,,,,,,61,wg-a,,,,AAXX 01184 07222 12240 80714 10090 20090 39879 49910 58011 60077 76166 887// 91800 333 10109 20088=
07222,1996-01-01 21:00:00,10,991.6,0.6,100,10,500,14.816,,,50,,,,3,,,,,,60,wg-a,,,,AAXX 01214 07222 12200 80508 10100 20100 39885 49916 53006 60037 76062 877// 92100=
07222,1996-01-02 00:00:00,9,995.7,4.1,100,9,3000,14.816,,,320,,,,1,,,,,,61,wg-a,,,,AAXX 02004 07222 02230 83208 10090 20090 39926 49957 53041 60046 76162 887// 90000 333 60017=
07222,1996-01-02 03:00:00,8,1001.9,6.2,100,8,3000,22.224,,,320,,,,5,,,,,,61,wg-a,,,,AAXX 02034 07222 12430 83212 10080 20080 39988 40019 53062 60057 76166 887// 90300=
07222,1996-01-02 06:00:00,8,1006.7,4.7,100,8,10000,18.52,,,310,8.1,9.9,,,,,17,,,3,wg-a,,,,AAXX 02064 07222 02460 83110 10080 20080 30035 40067 53047 60174 70362 875// 90600 333 10099 20081 61000=
07222,1996-01-02 09:00:00,9,1011.5,4.8,87,7,18000,11.112,,,300,,,,,,,,,,,wg-a,,,,AAXX 02094 07222 12568 /3006 10090 20070 30083 40115 51048 60006 86500 90900=
07222,1996-01-02 12:00:00,11,1014.7,3.2,87,9,20000,14.816,,,310,,,,,,,,,,,wg-a,,,,AAXX 02124 07222 12470 73108 10110 20090 30115 40147 51032 60006 878// 91200=
07222,1996-01-02 15:00:00,11,1016.8,2.1,94,10,20000,3.704,,,320,,,,,,,,,,,wg-a,,,,AAXX 02154 07222 12470 73202 10110 20100 30136 40168 53021 60006 875// 91500=
07222,1996-01-02 18:00:00,7,1018.2,1.4,100,7,15000,3.704,,,170,7.2,11.4,,,,,,,,11,wg-a,,,,AAXX 02184 07222 12/65 01702 10070 20070 30150 40182 52014 60006 71111 80000 91800 333 10114 20072=
07222,1996-01-02 21:00:00,6,1020,1.8,100,6,400,7.408,,,200,,,,,,,,,,44,wg-a,,,,AAXX 02214 07222 12/04 02004 10060 20060 30168 40200 53018 60006 74444 80000 92100=
07222,1996-01-03 00:00:00,4,1020.2,0.1,100,4,500,3.704,,,180,,,,,,,,,,44,wg-a,,,,AAXX 03004 07222 12/05 01802 10040 20040 30169 40202 50001 60006 74444 80000 90000=
07222,1996-01-03 03:00:00,4,1019.3,-0.8,100,4,500,7.408,,,100,,,,,,,,,,44,wg-a,,,,AAXX 03034 07222 32/05 01004 10040 20040 30161 40193 56008 74444 80000 90300=
07222,1996-01-03 06:00:00,4,1019.5,0.2,100,4,400,7.408,,,120,3.3,7.2,,,,,,,,45,wg-a,,,,AAXX 03064 07222 12/04 91204 10040 20040 30163 40195 52002 60004 74542 89/// 90600 333 10072 20033=
07222,1996-01-03 09:00:00,4,1020.1,0.6,100,4,2000,11.112,,,110,,,,,,,,,,28,wg-a,,,,AAXX 03094 07222 12/20 91106 10040 20040 30169 40201 52006 60006 72844 8900/ 90900=
07222,1996-01-03 12:00:00,8,1019.4,-0.7,100,8,3000,14.816,,,120,,,,,,,,,,10,wg-a,,,,AAXX 03124 07222 12330 71208 10080 20080 30162 40194 58007 60006 71042 876// 91200=
07222,1996-01-03 15:00:00,8,1018.2,-1.2,93,7,500,14.816,,,120,,,,,,,,,,,wg-a,,,,AAXX 03154 07222 12400 /1208 10080 20070 30150 40182 58012 60006 86600 91500=
07222,1996-01-03 18:00:00,6,1018,-0.2,93,5,4000,18.52,,,110,3.5,8.3,,,,,,,,10,wg-a,,,,AAXX 03184 07222 12340 71110 10060 20050 30148 40180 56002 60006 71022 876// 91800 333 10083 20035=
07222,1996-01-03 21:00:00,5,1017.3,-0.7,93,4,7000,18.52,,,90,,,,,,,,,,,wg-a,,,,AAXX 03214 07222 12/57 00910 10050 20040 30141 40173 57007 60006 80000 92100=
07222,1996-01-04 00:00:00,4,1015,-2.3,93,3,9000,18.52,,,100,,,,,,,,,,,wg-a,,,,AAXX 04004 07222 12/59 21010 10040 20030 30118 40150 58023 60006 82030 90000=
07222,1996-01-04 03:00:00,5,1011.8,-3.2,87,3,10000,22.224,,,110,,,,,,,,,,,wg-a,,,,AAXX 04034 07222 12/60 41112 10050 20030 30086 40118 58032 60006 80001 90300=
07222,1996-01-04 06:00:00,5,1009.3,-2.5,87,3,10000,14.816,,,100,3.6,6.2,,,,,,,,,wg-a,,,,AAXX 04064 07222 12/60 81008 10050 20030 30061 40093 56025 60006 86032 90600 333 10062 20036=
07222,1996-01-04 09:00:00,7,1007.3,-2,76,3,15000,22.224,,,130,,,,,,,,,,,wg-a,,,,AAXX 04094 07222 12765 61312 10070 20030 30041 40073 56020 60006 82531 90900=
07222,1996-01-04 12:00:00,9,1005.6,-1.7,76,5,15000,22.224,,,150,,,,,,,,,,60,wg-a,,,,AAXX 04124 07222 02565 81512 10090 20050 30024 40056 58017 61000 76062 8557/ 91200 333 6100=
07222,1996-01-04 15:00:00,10,1003.8,-1.7,82,7,15000,22.224,,,160,,,,,,,,,,3,wg-a,,,,AAXX 04154 07222 02565 71612 10100 20070 30007 40038 56017 61000 70362 84872 91500 333 ////=
07222,1996-01-04 18:00:00,10,1004.6,0.8,87,8,15000,18.52,,,180,5.3,10.3,,,,,,,,3,wg-a,,,,AAXX 04184 07222 32465 71810 10100 20080 30015 40046 51008 70362 875// 91800 333 10103 20053=
07222,1996-01-04 21:00:00,8,1004.4,-0.3,93,7,12000,14.816,,,140,,,,,,,,,,,wg-a,,,,AAXX 04214 07222 12462 71408 10080 20070 30012 40044 58003 60006 87500 92100=
07222,1996-01-05 00:00:00,5,1002.4,-2,100,5,12000,14.816,,,130,,,,,,,,,,,wg-a,,,,AAXX 05004 07222 12/62 /1308 10050 20050 39992 40024 58020 60006 90000=
07222,1996-01-05 03:00:00,6,999.5,-2.9,93,5,12000,18.52,,,140,,,,,,,,,,,wg-a,,,,AAXX 05034 07222 12/62 71410 10060 20050 39963 49995 56029 60006 87031 90300=
07222,1996-01-05 06:00:00,7,996.5,-2.9,93,6,15000,22.224,,,140,4.9,10.1,,,,,,,,,wg-a,,,,AAXX 05064 07222 02665 81412 10070 20060 39934 49965 56029 60006 8657/ 90600 333 10101 20049 61000=
07222,1996-01-05 09:00:00,9,996.6,0.1,87,7,12000,18.52,,,170,,,,,,,,,,,wg-a,,,,AAXX 05094 07222 12562 81710 10090 20070 39935 49966 53001 60006 8557/ 90900=
07222,1996-01-05 12:00:00,11,997.3,0.7,94,10,10000,11.112,,,200,,,,,,,,,,21,wg-a,,,,AAXX 05124 07222 02560 82006 10110 20100 39942 49973 50007 61000 72162 8357/ 91200 333 6100=
07222,1996-01-05 15:00:00,11,998.2,0.9,82,8,15000,11.112,,,250,,,,,,,,,,,wg-a,,,,AAXX 05154 07222 12565 /2506 10110 20080 39951 49982 51009 60006 81208 91500=
07222,1996-01-05 18:00:00,8,999.3,1.1,87,6,15000,11.112,,,250,7.2,11.1,,,,,,,,,wg-a,,,,AAXX 05184 07222 32/65 32506 10080 20060 39962 49993 51011 80002 91800 333 10111 20072=
07222,1996-01-05 21:00:00,5,1000.2,0.8,100,5,15000,11.112,,,220,,,,,,,,,,,wg-a,,,,AAXX 05214 07222 12/65 02206 10050 20050 39970 40002 53008 60006 80000 92100=
07222,1996-01-06 00:00:00,2,999,-1.2,100,2,10000,11.112,,,150,,,,,,,,,,,wg-a,,,,AAXX 06004 07222 12/60 01506 10020 20020 39958 49990 58012 60006 80000 90000=
07222,1996-01-06 03:00:00,3,997,-2,100,3,10000,18.52,,,140,,,,,,,,,,,wg-a,,,,AAXX 06034 07222 12/60 71410 10030 20030 39938 49970 56020 60006 85054 90300=
07222,1996-01-06 06:00:00,6,993.2,-3.7,93,5,10000,22.224,,,140,2.1,7.4,,,,,,,,,wg-a,,,,AAXX 06064 07222 12760 81412 10060 20050 39901 49932 58037 60004 8457/ 90600 333 10074 20021=
07222,1996-01-06 09:00:00,6,991.2,-2,93,5,10000,31.484,,,150,,,,,,,,,,60,wg-a,,,,AAXX 06094 07222 02460 81517 10060 20050 39881 49912 58020 61000 76062 8277/ 90900 333 ////=
07222,1996-01-06 12:00:00,7,989.5,-1.7,93,6,8000,29.632,,,160,,,,2,,,,,,60,wg-a,,,,AAXX 06124 07222 02458 81616 10070 20060 39864 49895 58017 60026 76062 8657/ 91200 333 60027=
07222,1996-01-06 15:00:00,8,984.7,-4.8,93,7,11000,29.632,,,150,,,,1,,,,,,,wg-a,,,,AAXX 06154 07222 12/61 /1516 10080 20070 39816 49847 56048 60017 91500=
07222,1996-01-06 18:00:00,9,984.8,0.1,87,7,20000,25.928,,,170,5.5,8.5,,,,,,,,,wg-a,,,,AAXX 06184 07222 32470 71714 10090 20070 39817 49848 51001 8457/ 91800 333 10085 20055=
07222,1996-01-06 21:00:00,11,985.1,0.3,94,10,10000,18.52,,,180,,,,,,,,,,,wg-a,,,,AAXX 06214 07222 12760 21810 10110 20100 39820 49851 53003 60006 82500 92100=
07222,1996-01-07 00:00:00,11,986.6,1.5,87,9,10000,25.928,,46.3,210,,,,,,,,,,,wg-a,,,,AAXX 07004 07222 12560 52114 10110 20090 39835 49866 53015 60006 85800 90000 333 91025=
07222,1996-01-07 03:00:00,11,988.9,2.3,87,9,11000,25.928,,,200,,,,,,,,,,,wg-a,,,,AAXX 07034 07222 12/61 /2014 10110 20090 39858 49889 52023 60006 90300=
07222,1996-01-07 06:00:00,9,991.7,2.8,93,8,12000,14.816,,,220,8.5,11.7,,,,,3,,,,wg-a,,,,AAXX 07064 07222 02662 62208 10090 20080 39886 49917 52028 60006 82502 90600 333 10117 20085 60034=
07222,1996-01-07 09:00:00,10,994.6,2.9,93,9,11000,18.52,,,210,,,,,,,,,,,wg-a,,,,AAXX 07094 07222 12/61 /2110 10100 20090 39915 49946 53029 60006 90900=
07222,1996-01-07 10:00:00,9,1001.7,2.4,93,8,20000,14.816,,,210,9.1,14,,0,,,,,,1,wg-a,,,,AAXX 07104 07222 12570 72108 10090 20080 40017 53024 60007 70182 878// 91000 333 10140 20091=
07222,1996-01-07 12:00:00,13,997.5,2.9,77,9,15000,22.224,,,220,,,,,,,,,,,wg-a,,,,AAXX 07124 07222 12565 52212 10130 20090 39944 49975 51029 60006 82502 91200=
07222,1996-01-07 15:00:00,11,999.3,1.8,87,9,11000,14.816,,,230,,,,,,,,,,,wg-a,,,,AAXX 07154 07222 32/61 /2308 10110 20090 39962 49993 53018 91500=
07222,1996-01-07 18:00:00,9,1001.7,2.4,93,8,20000,14.816,,,210,9.1,14,,0,,,,,,1,wg-a,,,,AAXX 07184 07222 12570 72108 10090 20080 39986 40017 53024 60007 70182 878// 91800 333 10140 20091=
07222,1996-01-07 21:00:00,8,1004.9,3.1,93,7,20000,14.816,,,210,,,,,,,,,,,wg-a,,,,AAXX 07214 07222 12770 32108 10080 20070 30017 40049 52031 60006 83500 92100=
07222,1996-01-08 00:00:00,7,1006.5,1.6,100,7,20000,14.816,,,170,,,,,,,,,,,wg-a,,,,AAXX 08004 07222 12570 /1708 10070 20070 30033 40065 51016 60006 8251/ 90000=
07222,1996-01-08 03:00:00,10,1006.3,-0.1,100,10,15000,18.52,,,170,,,,,,,,,,21,wg-a,,,,AAXX 08034 07222 02665 81710 10100 20100 30032 40063 56001 61000 72162 8357/ 90300 333 ////=
07222,1996-01-08 06:00:00,9,1005.1,-1.2,93,8,12000,25.928,,,140,6,10.7,,0,,,1,,,1,wg-a,,,,AAXX 08064 07222 02/62 31414 10090 20080 30020 40051 56012 60014 70161 81031 90600 333 10107 20060 60007=
07222,1996-01-08 09:00:00,8,1004.3,-0.9,87,6,500,29.632,,,150,,,,,,,,,,,wg-a,,,,AAXX 08094 07222 12/00 51516 10080 20060 30011 40043 57009 60006 81031 90900=
07222,1996-01-08 12:00:00,11,1002.3,-1.9,71,6,500,31.484,,50.004,160,,,,,,,,,,,wg-a,,,,AAXX 08124 07222 12700 81617 10110 20060 39992 40023 58019 60006 8257/ 91200 333 91027=
07222,1996-01-08 15:00:00,12,1000.3,-2,67,6,500,31.484,,50.004,160,,,,,,,,,,,wg-a,,,,AAXX 08154 07222 12700 81617 10120 20060 39972 40003 55020 60006 8457/ 91500 333 91027=
07222,1996-01-08 18:00:00,11,998.9,-1.4,71,6,20000,29.632,,,160,7.6,12.3,,,,,,,,60,wg-a,,,,AAXX 08184 07222 02770 81616 10110 20060 39958 49989 57014 61000 76062 8657/ 91800 333 10123 20076 ////=
07222,1996-01-08 21:00:00,10,997.8,-1.1,82,7,10000,29.632,,,160,,,,0,,,,,,61,wg-a,,,,AAXX 08214 07222 12560 81616 10100 20070 39947 49978 58011 60007 76162 8257/ 92100=
07222,1996-01-09 00:00:00,9,996.5,-1.3,100,9,10000,29.632,,,160,,,,2,,,,,,61,wg-a,,,,AAXX 09004 07222 02560 81616 10090 20090 39934 49965 58013 60026 76166 82572 90000 333 60027=
07222,1996-01-09 03:00:00,9,996.2,-0.3,100,9,10000,18.52,,,210,,,,2,,,,,,61,wg-a,,,,AAXX 09034 07222 12360 82110 10090 20090 39931 49962 55003 60027 76166 875// 90300=
07222,1996-01-09 06:00:00,10,996.8,0.6,93,9,10000,18.52,,,190,9.2,11.3,,2,,,7,,,61,wg-a,,,,AAXX 09064 07222 02560 81910 10100 20090 39937 49968 53006 60074 76166 8357/ 90600 333 10113 20092 60027=
07222,1996-01-09 09:00:00,9,998.7,1.9,93,8,15000,18.52,,,170,,,,,,,,,,,wg-a,,,,AAXX 09094 07222 02565 /1710 10090 20080 39956 49987 53019 61000 82571 90900 333 ////=
07222,1996-01-09 12:00:00,12,1000.2,1.5,88,10,500,25.928,,,170,,,,,,,,,,,wg-a,,,,AAXX 09124 07222 02400 31714 10120 20100 39971 40002 51015 61000 81801 91200 333 ////=
07222,1996-01-09 15:00:00,13,1000.8,0.6,77,9,20000,18.52,,,190,,,,,,,,,,,wg-a,,,,AAXX 09154 07222 12670 /1910 10130 20090 39977 40008 53006 60006 86800 91500=
07222,1996-01-09 18:00:00,10,1002.3,1.5,93,9,15000,11.112,,,140,9.1,13.7,,,,,,,,,wg-a,,,,AAXX 09184 07222 32765 61406 10100 20090 39992 40023 53015 86500 91800 333 10137 20091=
07222,1996-01-09 21:00:00,8,1003.5,1.1,93,7,15000,11.112,,,140,,,,0,,,,,,2,wg-a,,,,AAXX 09214 07222 12465 71406 10080 20070 30003 40035 51011 60007 70282 878// 92100=
07222,1996-01-10 00:00:00,6,1003.9,0.4,100,6,2500,3.704,,,180,,,,0,,,,,,10,wg-a,,,,AAXX 10004 07222 02725 81802 10060 20060 30007 40039 51004 60016 71022 875// 90000 333 60007=
07222,1996-01-10 03:00:00,6,1004.2,0.3,100,6,2500,11.112,,,130,,,,,,,,,,10,wg-a,,,,AAXX 10034 07222 12725 81306 10060 20060 30010 40042 53003 60006 71022 875// 90300=
07222,1996-01-10 06:00:00,5,1004.2,0,100,5,500,3.704,,,190,5.2,9.6,,,,,1,,,40,wg-a,,,,AAXX 10064 07222 12700 71902 10050 20050 30010 40042 50000 60014 74022 82501 90600 333 10096 20052=
07222,1996-01-10 09:00:00,4,1005.8,1.6,100,4,400,0,,,0,,,,,,,,,,,wg-a,,,,AAXX 10094 07222 12/04 /0000 10040 20040 30026 40058 53016 60006 90900=
07222,1996-01-10 12:00:00,8,1005.7,-0.1,100,8,200,3.704,,,170,,,,,,,,,,44,wg-a,,,,AAXX 10124 07222 12002 /1702 10080 20080 30025 40057 58001 60006 74442 81602 91200=
07222,1996-01-10 15:00:00,9,1005.8,0.2,100,9,100,3.704,,,30,,,,,,,,,,45,wg-a,,,,AAXX 10154 07222 12/01 90302 10090 20090 30027 40058 53002 60006 74544 89/// 91500=
07222,1996-01-10 18:00:00,8,1006.7,0.8,100,8,200,3.704,,,170,4.1,9.1,,,,,,,,45,wg-a,,,,AAXX 10184 07222 12/02 91702 10080 20080 30035 40067 52008 60006 74544 89/// 91800 333 10091 20041=
07222,1996-01-10 21:00:00,7,1006.8,0.1,100,7,400,11.112,,,140,,,,,,,,,,43,wg-a,,,,AAXX 10214 07222 12/04 91406 10070 20070 30036 40068 50001 60006 7434/ 89/// 92100=
07222,1996-01-11 00:00:00,5,1004.9,-1.9,100,5,1500,11.112,,,130,,,,0,,,,,,28,wg-a,,,,AAXX 11004 07222 02215 91306 10050 20050 30017 40049 58019 60006 72842 89600 90000 333 60007=
07222,1996-01-11 03:00:00,6,1001.4,-3.5,100,6,10000,18.52,,,140,,,,,,,,,,,wg-a,,,,AAXX 11034 07222 12560 81410 10060 20060 39982 40014 56035 60006 8357/ 90300=
07222,1996-01-11 06:00:00,8,997.5,-3.8,93,7,10000,35.188,,,160,4.3,8,,0,,,,,,61,wg-a,,,,AAXX 11064 07222 02460 81619 10080 20070 39944 49975 58038 60004 76162 8357/ 90600 333 10080 20043 60007=
07222,1996-01-11 09:00:00,8,994.8,-2.7,93,7,10000,42.596,,,170,,,,,,,,,,61,wg-a,,,,AAXX 11094 07222 02460 81723 10080 20070 39917 49948 58027 61000 76162 875// 90900 333 ////=
07222,1996-01-11 12:00:00,9,993.1,-1.7,100,9,7000,38.892,,50.004,170,,,,3,,,,,,61,wg-a,,,,AAXX 11124 07222 02357 81721 10090 20090 39900 49931 58017 60036 76162 875// 91200 333 60037 91027=
07222,1996-01-11 15:00:00,11,993.2,0.1,94,10,18000,25.928,,,200,,,,6,,,,,,1,wg-a,,,,AAXX 11154 07222 12668 72014 10110 20100 39901 49932 53001 60067 70162 82572 91500=
07222,1996-01-11 18:00:00,10,993.2,-0,87,8,15000,25.928,,,190,7.7,11.4,,1,,,,,,25,wg-a,,,,AAXX 11184 07222 12465 41914 10100 20080 39901 49932 55000 60017 72586 83802 91800 333 10114 20077=
07222,1996-01-11 21:00:00,8,994.2,1,93,7,10000,25.928,,,180,,,,2,,,,,,25,wg-a,,,,AAXX 11214 07222 12460 71814 10080 20070 39911 49942 53010 60027 72581 85802 92100=
07222,1996-01-12 00:00:00,9,994.2,0,93,8,11000,22.224,,,170,,,,,,,,,,,wg-a,,,,AAXX 12004 07222 12/61 /1712 10090 20080 39911 49942 50000 60046 90000=
07222,1996-01-12 03:00:00,9,994.9,0.7,93,8,15000,18.52,,,170,,,,,,,,,,,wg-a,,,,AAXX 12034 07222 12565 41710 10090 20080 39918 49949 53007 60006 84500 90300=
07222,1996-01-12 06:00:00,9,995.4,0.5,93,8,12000,22.224,,,170,7.7,9.9,,,,,14,,,,wg-a,,,,AAXX 12064 07222 12462 /1712 10090 20080 39923 49954 53005 60144 86800 90600 333 10099 20077=
07222,1996-01-12 09:00:00,9,997.2,1.8,93,8,20000,11.112,,,160,,,,0,,,,,,,wg-a,,,,AAXX 12094 07222 12470 21606 10090 20080 39941 49972 53018 60007 82900 90900=
07222,1996-01-12 12:00:00,13,998.4,1.2,77,9,20000,29.632,,,210,,,,0,,,,,,3,wg-a,,,,AAXX 12124 07222 02570 72116 10130 20090 39953 49984 51012 60016 70381 872// 91200 333 60007=
07222,1996-01-12 15:00:00,12,1000.5,2.1,88,10,20000,18.52,,,220,,,,,,,,,,,wg-a,,,,AAXX 12154 07222 12570 52210 10120 20100 39974 40005 53021 60006 85800 91500=
07222,1996-01-12 18:00:00,10,1003.1,2.6,87,8,20000,18.52,,,200,7.6,13.3,,1,,,,,,1,wg-a,,,,AAXX 12184 07222 12570 22010 10100 20080 30000 40031 53026 60017 70181 82200 91800 333 10133 20076=
07222,1996-01-12 21:00:00,9,1005.3,2.2,93,8,15000,18.52,,,180,,,,,,,,,,,wg-a,,,,AAXX 12214 07222 12565 51810 10090 20080 30022 40053 53022 60006 85800 92100=
07222,1996-01-13 00:00:00,9,1007.8,2.5,93,8,15000,14.816,,,210,,,,,,,,,,25,wg-a,,,,AAXX 13004 07222 02565 42108 10090 20080 30047 40078 51025 61000 72511 84800 90000 333 6100=
07222,1996-01-13 06:00:00,9,1010.7,1.5,93,8,15000,14.816,,,200,8.5,10.1,,,,,1,,,,wg-a,,,,AAXX 13064 07222 02665 32008 10090 20080 30075 40107 53015 60014 83800 90600 333 10101 20085 61000=
07222,1996-01-13 09:00:00,9,1012.2,1.5,93,8,15000,14.816,,,180,,,,0,,,,,,3,wg-a,,,,AAXX 13094 07222 12565 51808 10090 20080 30090 40122 53015 60007 70381 83801 90900=
07222,1996-01-13 12:00:00,12,1012.2,0.1,82,9,15000,22.224,,,160,,,,,,,,,,3,wg-a,,,,AAXX 13124 07222 12565 61612 10120 20090 30091 40122 50001 60006 70381 84801 91200=
07222,1996-01-13 15:00:00,12,1011.9,-0.3,82,9,20000,25.928,,,190,,,,,,,,,,,wg-a,,,,AAXX 13154 07222 12570 41914 10120 20090 30088 40119 56003 60006 83801 91500=
07222,1996-01-13 18:00:00,9,1012.6,0.6,93,8,20000,18.52,,,150,7.4,13.1,,,,,,,,,wg-a,,,,AAXX 13184 07222 32570 51510 10090 20080 30094 40126 51006 83501 91800 333 10131 20074=
07222,1996-01-13 21:00:00,8,1012.1,-0.5,93,7,10000,22.224,,,140,,,,,,,,,,,wg-a,,,,AAXX 13214 07222 12/60 41412 10080 20070 30089 40121 58005 60006 80001 92100=
07222,1996-01-14 00:00:00,7,1010.7,-1.4,93,6,10000,18.52,,,130,,,,,,,,,,,wg-a,,,,AAXX 14004 07222 12/60 71310 10070 20060 30075 40107 56014 60006 82032 90000=
07222,1996-01-14 03:00:00,6,1009.8,-0.9,100,6,10000,14.816,,,130,,,,,,,,,,,wg-a,,,,AAXX 14034 07222 12/60 01308 10060 20060 30066 40098 57009 60006 80000 90300=
07222,1996-01-14 06:00:00,8,1009.2,-0.6,93,7,15000,18.52,,,130,6.2,9.1,,,,,,,,,wg-a,,,,AAXX 14064 07222 02/65 71310 10080 20070 30060 40092 56006 60006 85032 90600 333 10091 20062 60004=
07222,1996-01-14 09:00:00,10,1010,0.8,87,8,20000,25.928,,,140,,,,,,,,,,,wg-a,,,,AAXX 14094 07222 12/70 71414 10100 20080 30068 40100 53008 60006 86032 90900=
07222,1996-01-14 12:00:00,11,1009.6,-0.3,87,9,20000,25.928,,,140,,,,,,,,,,21,wg-a,,,,AAXX 14124 07222 02770 81414 10110 20090 30065 40096 58003 61000 72162 8667/ 91200 333 6100=
07222,1996-01-14 15:00:00,12,1010.2,0.6,82,9,20000,18.52,,,140,,,,,,,,,,,wg-a,,,,AAXX 14154 07222 12770 71410 10120 20090 30071 40102 53006 60006 82532 91500=
07222,1996-01-14 18:00:00,11,1012,1.8,87,9,20000,14.816,,,140,7.6,12.2,,,,,,,,,wg-a,,,,AAXX 14184 07222 32770 71408 10110 20090 30089 40120 53018 82532 91800 333 10122 20076=
07222,1996-01-14 21:00:00,11,1014.1,2.1,94,10,18000,11.112,,,120,,,,,,,,,,,wg-a,,,,AAXX 14214 07222 12/68 71206 10110 20100 30110 40141 53021 60006 8707/ 92100=
07222,1996-01-15 00:00:00,11,1015.1,1,87,9,18000,14.816,,,140,,,,,,,,,,,wg-a,,,,AAXX 15004 07222 12768 71408 10110 20090 30120 40151 53010 60006 8557/ 90000=
07222,1996-01-15 03:00:00,11,1016.9,1.7,87,9,18000,11.112,,,120,,,,,,,,,,,wg-a,,,,AAXX 15034 07222 12768 81206 10110 20090 30137 40169 51017 60006 8557/ 90300=
07222,1996-01-15 06:00:00,10,1018.2,1.3,87,8,15000,7.408,,,80,9.9,11.6,,,,,,,,,wg-a,,,,AAXX 15064 07222 02765 70804 10100 20080 30150 40182 53013 60006 8253/ 90600 333 10116 20099 61000=
07222,1996-01-15 09:00:00,8,1019.9,1.7,93,7,15000,7.408,,,80,,,,,,,,,,,wg-a,,,,AAXX 15094 07222 12/65 70804 10080 20070 30167 40199 51017 60006 82048 90900=
07222,1996-01-15 12:00:00,13,1021.3,1.5,82,10,15000,11.112,,,110,,,,,,,,,,,wg-a,,,,AAXX 15124 07222 12/65 71106 10130 20100 30182 40213 51015 60006 80008 91200=
07222,1996-01-15 15:00:00,14,1021.4,0.1,82,11,10000,11.112,,,130,,,,,,,,,,,wg-a,,,,AAXX 15154 07222 12/60 /1306 10140 20110 30183 40214 53001 60006 91500=
07222,1996-01-15 18:00:00,11,1022.9,1.4,87,9,10000,7.408,,,60,7.9,14.7,,,,,,,,,wg-a,,,,AAXX 15184 07222 12/60 60604 10110 20090 30197 40229 53014 60006 80002 91800 333 10147 20079=
07222,1996-01-15 21:00:00,10,1024.3,1.4,93,9,10000,7.408,,,60,,,,,,,,,,,wg-a,,,,AAXX 15214 07222 12/60 60604 10100 20090 30211 40243 51014 60006 80002 92100=
07222,1996-01-16 00:00:00,8,1024.8,0.5,93,7,10000,7.408,,,60,,,,,,,,,,,wg-a,,,,AAXX 16004 07222 12/60 40604 10080 20070 30216 40248 50005 60006 80001 90000=
07222,1996-01-16 03:00:00,5,1025.5,0.7,100,5,10000,3.704,,,40,,,,,,,,,,,wg-a,,,,AAXX 16034 07222 32/60 /0402 10050 20050 30223 40255 51007 90300=
07222,1996-01-16 06:00:00,6,1025.7,0.2,100,6,10000,7.408,,,60,5.2,11,,,,,,,,,wg-a,,,,AAXX 16064 07222 12/60 /0604 10060 20060 30225 40257 53002 60004 90600 333 10110 20052=
07222,1996-01-16 12:00:00,12,1026.4,-0.2,82,9,9000,3.704,,,70,,,,,,,,,,,wg-a,,,,AAXX 16124 07222 12/59 30702 10120 20090 30232 40264 58002 60006 80001 91200=
07222,1996-01-16 15:00:00,13,1025.4,-1,82,10,8000,7.408,,,60,,,,,,,,,,,wg-a,,,,AAXX 16154 07222 12/58 30604 10130 20100 30222 40254 56010 60006 80001 91500=
07222,1996-01-16 18:00:00,7,1026.1,0.7,100,7,300,11.112,,,50,5.3,13.5,,,,,,,,45,wg-a,,,,AAXX 16184 07222 12/03 90506 10070 20070 30229 40261 53007 60006 74540 89/// 91800 333 10135 20053=
07222,1996-01-16 21:00:00,6,1026.5,0.4,100,6,400,7.408,,,60,,,,,,,,,,45,wg-a,,,,AAXX 16214 07222 12/04 90604 10060 20060 30233 40265 50004 60006 74544 89/// 92100=
07222,1996-01-17 00:00:00,6,1025.5,-1,100,6,400,7.408,,,80,,,,,,,,,,43,wg-a,,,,AAXX 17004 07222 12/04 90804 10060 20060 30223 40255 58010 60006 74344 89/// 90000=
07222,1996-01-17 03:00:00,5,1024.7,-0.9,100,5,400,11.112,,,70,,,,,,,,,,45,wg-a,,,,AAXX 17034 07222 12/04 90706 10050 20050 30214 40247 57009 60006 74544 89/// 90300=
07222,1996-01-17 06:00:00,4,1024.2,-0.5,100,4,500,14.816,,,60,4,7,,0,,,,,,43,wg-a,,,,AAXX 17064 07222 02/05 90608 10040 20040 30209 40242 56005 60004 74344 89/// 90600 333 10070 20040 60007=
07222,1996-01-17 09:00:00,4,1024.9,0.7,100,4,300,11.112,,,60,,,,,,,,,,45,wg-a,,,,AAXX 17094 07222 12/03 90606 10040 20040 30216 40249 53007 60006 74544 89/// 90900=
07222,1996-01-17 12:00:00,6,1023.8,-1,100,6,3000,11.112,,,60,,,,,,,,,,10,wg-a,,,,AAXX 17124 07222 12230 70606 10060 20060 30206 40238 58010 60006 71042 875// 91200=
07222,1996-01-17 15:00:00,8,1021.7,-2.1,93,7,6000,14.816,,,70,,,,,,,,,,,wg-a,,,,AAXX 17154 07222 12756 70708 10080 20070 30185 40217 56021 60006 875// 91500=
07222,1996-01-17 18:00:00,6,1021.6,-0.1,93,5,500,18.52,,,80,3.7,8.6,,,,,,,,,wg-a,,,,AAXX 17184 07222 12700 /0810 10060 20050 30184 40216 58001 60006 81500 91800 333 10086 20037=
07222,1996-01-17 21:00:00,5,1021.5,-0.1,100,5,3000,14.816,,,70,,,,,,,,,,10,wg-a,,,,AAXX 17214 07222 12230 /0708 10050 20050 30183 40215 58001 60006 71011 86600 92100=
07222,1996-01-18 00:00:00,5,1021,-0.5,100,5,1200,14.816,,,80,,,,,,,,,,10,wg-a,,,,AAXX 18004 07222 12112 70808 10050 20050 30178 40210 58005 60006 71022 876// 90000=
07222,1996-01-18 03:00:00,4,1020.3,-0.8,100,4,2000,14.816,,,80,,,,,,,,,,10,wg-a,,,,AAXX 18034 07222 12120 /0808 10040 20040 30170 40203 56008 60006 71022 85600 90300=
07222,1996-01-18 06:00:00,6,1018.9,-1.3,87,4,7000,14.816,,,110,3.8,6,,,,,,,,,wg-a,,,,AAXX 18064 07222 12757 /1108 10060 20040 30157 40189 57013 60006 86500 90600 333 10060 20038=
07222,1996-01-18 09:00:00,6,1018.8,-0.1,87,4,12000,18.52,,,130,,,,,,,,,,,wg-a,,,,AAXX 18094 07222 12/62 01310 10060 20040 30156 40188 56001 60006 80000 90900=
07222,1996-01-18 12:00:00,10,1018.1,-0.7,82,7,15000,22.224,,,150,,,,,,,,,,,wg-a,,,,AAXX 18124 07222 12465 31512 10100 20070 30149 40181 58007 60006 83500 91200=
07222,1996-01-18 15:00:00,11,1017.1,-1,82,8,12000,18.52,,,160,,,,,,,,,,,wg-a,,,,AAXX 18154 07222 12662 71610 10110 20080 30139 40171 56010 60006 875// 91500=
07222,1996-01-18 18:00:00,11,1017.4,0.3,82,8,10000,18.52,,,170,4.8,11,,,,,,,,,wg-a,,,,AAXX 18184 07222 12560 71710 10110 20080 30142 40174 53003 60006 875// 91800 333 10110 20048=
07222,1996-01-18 21:00:00,10,1017.6,0.2,87,8,10000,18.52,,,150,,,,,,,,,,,wg-a,,,,AAXX 18214 07222 12560 71510 10100 20080 30144 40176 50002 60006 875// 92100=
07222,1996-01-19 00:00:00,5,1017.4,-0.2,100,5,8000,7.408,,,140,,,,,,,,,,,wg-a,,,,AAXX 19004 07222 12/58 01404 10050 20050 30142 40174 58002 60006 80000 90000=
07222,1996-01-19 03:00:00,4,1016.1,-1.3,100,4,8000,14.816,,,140,,,,,,,,,,,wg-a,,,,AAXX 19034 07222 12/58 01408 10040 20040 30129 40161 56013 60006 80000 90300=
07222,1996-01-19 06:00:00,3,1015.1,-1,100,3,15000,14.816,,,150,3.3,10.6,,,,,,,,,wg-a,,,,AAXX 19064 07222 12/65 01508 10030 20030 30119 40151 56010 60006 80000 90600 333 10106 20033=
07222,1996-01-19 09:00:00,4,1014.5,-0.6,93,3,15000,14.816,,,140,,,,,,,,,,,wg-a,,,,AAXX 19094 07222 12/65 21408 10040 20030 30113 40145 58006 60006 81041 90900=
07222,1996-01-19 12:00:00,10,1013,-1.5,76,6,25000,22.224,,,140,,,,,,,,,,,wg-a,,,,AAXX 19124 07222 12/75 31412 10100 20060 30098 40130 58015 60006 80001 91200=
07222,1996-01-19 18:00:00,9,1009.3,-1.4,81,6,10000,14.816,,,100,3,11.9,,,,,,,,,wg-a,,,,AAXX 19184 07222 12760 71008 10090 20060 30061 40093 56014 60006 875// 91800 333 10119 20030=
07222,1996-01-19 21:00:00,6,1007.7,-1.6,87,4,10000,14.816,,,100,,,,,,,,,,,wg-a,,,,AAXX 19214 07222 12/60 01008 10060 20040 30045 40077 58016 60006 80000 92100=
07222,1996-01-20 00:00:00,5,1005.9,-1.8,93,4,10000,11.112,,,110,,,,,,,,,,,wg-a,,,,AAXX 20004 07222 12/60 01106 10050 20040 30027 40059 58018 60006 80000 90000=
07222,1996-01-20 03:00:00,5,1004.2,-1.7,93,4,10000,18.52,,,140,,,,,,,,,,,wg-a,,,,AAXX 20034 07222 12/60 01410 10050 20040 30010 40042 56017 60006 80000 90300=
07222,1996-01-20 06:00:00,6,1002.8,-1.4,87,4,10000,22.224,,,150,4.2,8.9,,,,,,,,,wg-a,,,,AAXX 20064 07222 12/60 51512 10060 20040 39996 40028 58014 60006 80001 90600 333 10089 20042=
07222,1996-01-20 09:00:00,7,1003.2,0.4,87,5,15000,25.928,,,150,,,,,,,,,,,wg-a,,,,AAXX 20094 07222 12/65 71514 10070 20050 30000 40032 53004 60006 8707/ 90900=
07222,1996-01-20 12:00:00,9,1002.4,-0.7,81,6,20000,29.632,,,150,,,,,,,,,,,wg-a,,,,AAXX 20124 07222 12670 51516 10090 20060 39993 40024 58007 60006 82843 91200=
07222,1996-01-20 15:00:00,11,1002.1,-0.3,76,7,20000,22.224,,,150,,,,,,,,,,,wg-a,,,,AAXX 20154 07222 02570 /1512 10110 20070 39990 40021 58003 61000 81800 91500 333 ////=
07222,1996-01-20 18:00:00,8,1002.9,0.8,87,6,15000,18.52,,,120,5.6,11.4,,,,,,,,2,wg-a,,,,AAXX 20184 07222 32765 11210 10080 20060 39998 40029 53008 70281 81500 91800 333 10114 20056=
07222,1996-01-20 21:00:00,7,1004.6,1.6,81,4,15000,18.52,,,100,,,,,,,,,,,wg-a,,,,AAXX 20214 07222 12/65 01010 10070 20040 30014 40046 53016 60006 80000 92100=
07222,1996-01-21 00:00:00,5,1004.9,0.3,87,3,15000,22.224,,,90,,,,,,,,,,,wg-a,,,,AAXX 21004 07222 12/65 00912 10050 20030 30017 40049 51003 60006 80000 90000=
07222,1996-01-21 03:00:00,4,1004.9,-0,93,3,15000,18.52,,,90,,,,,,,,,,,wg-a,,,,AAXX 21034 07222 12/65 30910 10040 20030 30017 40049 54000 60006 80001 90300=
07222,1996-01-21 06:00:00,3,1005,0.1,93,2,10000,18.52,,,80,3.2,8.1,,,,,,,,,wg-a,,,,AAXX 21064 07222 02/60 20810 10030 20020 30018 40050 51001 60006 80001 90600 333 10081 20032 61000=
07222,1996-01-21 09:00:00,4,1005.7,0.7,87,2,9000,18.52,,,70,,,,,,,,,,,wg-a,,,,AAXX 21094 07222 12/59 60710 10040 20020 30025 40057 51007 60006 82032 90900=
07222,1996-01-21 12:00:00,7,1004.8,-0.9,81,4,15000,22.224,,,80,,,,,,,,,,,wg-a,,,,AAXX 21124 07222 12/65 70812 10070 20040 30016 40048 58009 60006 80001 91200=
07222,1996-01-21 15:00:00,9,1003.7,-1,76,5,15000,25.928,,,80,,,,,,,,,,,wg-a,,,,AAXX 21154 07222 12/65 70814 10090 20050 30006 40037 56010 60006 8703/ 91500=
07222,1996-01-21 18:00:00,8,1003.9,0.1,81,5,15000,25.928,,,70,2.9,9,,,,,,,,,wg-a,,,,AAXX 21184 07222 12/65 70714 10080 20050 30007 40039 53001 60006 82032 91800 333 10090 20029=
07222,1996-01-21 21:00:00,8,1003.2,-0.6,87,6,15000,25.928,,,80,,,,,,,,,,,wg-a,,,,AAXX 21214 07222 12/65 70814 10080 20060 30001 40032 58006 60006 83042 92100=
07222,1996-01-22 00:00:00,8,1003.2,-0.6,87,6,15000,25.928,,,80,,,,,,,,,,,wg-a,,,,AAXX 22004 07222 12/65 70814 10080 20060 30001 40032 58006 60006 83042 90000=
07222,1996-01-22 03:00:00,8,1000.5,-1.4,81,5,15000,25.928,,,80,,,,,,,,,,,wg-a,,,,AAXX 22034 07222 12/65 70814 10080 20050 39974 40005 57014 60006 86072 90300=
07222,1996-01-22 06:00:00,7,999.6,-0.9,87,5,15000,22.224,,,80,7.2,8.6,,,,,,,,,wg-a,,,,AAXX 22064 07222 12/65 70812 10070 20050 39965 49996 56009 60006 87030 90600 333 10086 20072=
07222,1996-01-22 09:00:00,8,998.9,-0.7,81,5,15000,25.928,,,90,,,,,,,,,,,wg-a,,,,AAXX 22094 07222 12765 70914 10080 20050 39958 49989 56007 60006 8557/ 90900=
07222,1996-01-22 12:00:00,9,998,-0.9,87,7,15000,14.816,,,90,,,,0,,,,,,61,wg-a,,,,AAXX 22124 07222 02565 80908 10090 20070 39949 49980 56009 60016 76162 8357/ 91200 333 60007=
07222,1996-01-22 15:00:00,8,998.7,,100,8,20000,7.408,,,100,,,,,,,,,,21,wg-a,,,,AAXX 22154 07222 32570 71004 10080 20080 39955 49987 72162 8557/ 91500=
07222,1996-01-22 18:00:00,6,1000.7,2,100,6,10000,11.112,,,100,6.1,9,,,,,,,,1,wg-a,,,,AAXX 22184 07222 32/60 11006 10060 20060 39975 40007 51020 70161 81040 91800 333 10090 20061=
07222,1996-01-22 21:00:00,6,1000.4,-0.3,100,6,10000,11.112,,,50,,,,,,,,,,,wg-a,,,,AAXX 22214 07222 32/60 /0506 10060 20060 39972 40004 58003 92100=
07222,1996-01-23 00:00:00,7,1000.3,-0.1,100,7,10000,11.112,,,110,,,,,,,,,,,wg-a,,,,AAXX 23004 07222 12560 81106 10070 20070 39971 40003 55001 60006 8357/ 90000=
07222,1996-01-23 03:00:00,7,997.7,-2.5,100,7,10000,14.816,,,60,,,,2,,,,,,,wg-a,,,,AAXX 23034 07222 12560 80608 10070 20070 39946 49977 56025 60027 875// 90300=
07222,1996-01-23 06:00:00,8,995.2,-2.5,100,8,10000,11.112,,,60,5.7,8.8,,,,,,,,,wg-a,,,,AAXX 23064 07222 32360 80606 10080 20080 39921 49952 57025 876// 90600 333 10088 20057=
07222,1996-01-23 09:00:00,8,994.3,-0.9,93,7,6000,18.52,,,60,,,,,,,,,,,wg-a,,,,AAXX 23094 07222 32/56 /0610 10080 20070 39912 49943 56009 90900=
07222,1996-01-23 12:00:00,8,992.5,-1.8,100,8,6000,18.52,,,100,,,,7,,,,,,61,wg-a,,,,AAXX 23124 07222 02356 81010 10080 20080 39894 49925 56018 60096 76162 875// 91200 333 60077=
07222,1996-01-23 15:00:00,10,991.9,-0.6,93,9,15000,11.112,,,110,,,,2,,,,,,25,wg-a,,,,AAXX 23154 07222 12465 71106 10100 20090 39888 49919 56006 60027 72586 86933 91500=
07222,1996-01-23 18:00:00,8,992.5,0.6,93,7,12000,18.52,,,110,7.8,10.8,,0,,,,,,21,wg-a,,,,AAXX 23184 07222 12462 71110 10080 20070 39894 49925 50006 60007 72186 875// 91800 333 10108 20078=
07222,1996-01-23 21:00:00,7,993.3,0.8,100,7,15000,7.408,,,90,,,,,,,,,,,wg-a,,,,AAXX 23214 07222 12365 70904 10070 20070 39902 49933 53008 60006 876// 92100=
07222,1996-01-24 00:00:00,7,995.5,2.2,100,7,8000,11.112,,,220,,,,,,,,,,,wg-a,,,,AAXX 24004 07222 12358 72206 10070 20070 39924 49955 53022 60006 876// 90000=
07222,1996-01-24 03:00:00,8,996.5,1,100,8,10000,11.112,,,160,,,,,,,,,,,wg-a,,,,AAXX 24034 07222 12460 71606 10080 20080 39934 49965 53010 60006 875// 90300=
07222,1996-01-24 06:00:00,8,997.5,1,100,8,12000,14.816,,,160,6.9,8.3,,0,,,11,,,,wg-a,,,,AAXX 24064 07222 02462 71608 10080 20080 39944 49975 53010 60114 875// 90600 333 10083 20069 60007=
07222,1996-01-24 12:00:00,11,1000.9,1.2,94,10,10000,14.816,,,140,,,,,,,,,,,wg-a,,,,AAXX 24124 07222 12460 51408 10110 20100 39978 40009 51012 60006 83101 91200=
07222,1996-01-24 15:00:00,12,1000.6,-0.3,76,8,15000,11.112,,,190,,,,,,,,,,,wg-a,,,,AAXX 24154 07222 12565 61906 10120 20080 39975 40006 55003 60006 83205 91500=
07222,1996-01-24 18:00:00,9,1001.7,1.1,93,8,12000,3.704,,,60,8.3,12.5,,,,,,,,,wg-a,,,,AAXX 24184 07222 12562 /0602 10090 20080 39986 40017 51011 60006 82438 91800 333 10125 20083=
07222,1996-01-24 21:00:00,7,1002.1,0.3,100,7,8000,3.704,,,30,,,,,,,,,,,wg-a,,,,AAXX 24214 07222 12458 40302 10070 20070 39989 40021 50003 60006 83501 92100=
07222,1996-01-25 00:00:00,4,1001.8,-0.3,100,4,3000,7.408,,,30,,,,,,,,,,11,wg-a,,,,AAXX 25004 07222 12/30 00304 10040 20040 39986 40018 58003 60006 71111 80000 90000=
07222,1996-01-25 03:00:00,5,1001.1,-0.7,100,5,800,11.112,,,40,,,,,,,,,,45,wg-a,,,,AAXX 25034 07222 32/08 90406 10050 20050 39979 40011 58007 74541 89/// 90300=
07222,1996-01-25 06:00:00,5,1000.8,-0.3,100,5,2500,14.816,,,80,3.1,9,,,,,,,,10,wg-a,,,,AAXX 25064 07222 12225 80808 10050 20050 39976 40008 56003 60004 71041 886// 90600 333 10090 20031=
07222,1996-01-25 09:00:00,4,1001.9,1.1,100,4,1500,18.52,,,60,,,,,,,,,,10,wg-a,,,,AAXX 25094 07222 12215 80610 10040 20040 39987 40019 53011 60006 71042 886// 90900=
07222,1996-01-25 12:00:00,3,1002.5,0.6,93,2,2000,18.52,,,80,,,,,,,,,,10,wg-a,,,,AAXX 25124 07222 12220 80810 10030 20020 39993 40025 50006 60006 71042 886// 91200=
07222,1996-01-25 15:00:00,4,1002.5,-0,93,3,2000,18.52,,,70,,,,,,,,,,10,wg-a,,,,AAXX 25154 07222 12320 80710 10040 20030 39993 40025 55000 60006 71022 886// 91500=
07222,1996-01-25 18:00:00,3,1003.8,1.3,93,2,3000,22.224,,,70,3,5.1,,,,,,,,10,wg-a,,,,AAXX 25184 07222 12330 80712 10030 20020 30006 40038 53013 60006 71022 886// 91800 333 10051 20030=
07222,1996-01-25 21:00:00,3,1005.4,1.6,93,2,500,14.816,,,60,,,,,,,,,,,wg-a,,,,AAXX 25214 07222 12300 80608 10030 20020 30022 40054 52016 60006 886// 92100=
07222,1996-01-26 00:00:00,3,1006.2,0.8,87,1,500,18.52,,,60,,,,,,,,,,,wg-a,,,,AAXX 26004 07222 12400 80610 10030 20010 30030 40062 53008 60006 886// 90000=
07222,1996-01-26 03:00:00,2,1006.7,0.5,93,1,500,18.52,,,60,,,,,,,,,,,wg-a,,,,AAXX 26034 07222 12400 80610 10020 20010 30035 40067 52005 60006 886// 90300=
07222,1996-01-26 06:00:00,1,1007.1,0.4,100,1,3000,14.816,,,60,1.1,3.5,,,,,,,,10,wg-a,,,,AAXX 26064 07222 02230 80608 10010 20010 30039 40071 53004 61000 71052 886// 90600 333 10035 20011 6100=
07222,1996-01-26 09:00:00,1,1008.7,1.5,93,0,2000,18.52,,,60,,,,,,,,,,10,wg-a,,,,AAXX 26094 07222 02320 80610 10010 20000 30054 40087 51015 61000 71052 886// 90900 333 ////=
07222,1996-01-26 12:00:00,0,1009,0.3,100,0,2000,18.52,,,50,,,,,,,,,,10,wg-a,,,,AAXX 26124 07222 02220 80510 10000 20000 30057 40090 50003 61000 71052 886// 91200 333 6100=
07222,1996-01-26 15:00:00,0,1009,-0,93,-1,3000,18.52,,,50,,,,,,,,,,10,wg-a,,,,AAXX 26154 07222 02330 80510 10000 21010 30057 40090 55000 61000 71052 886// 91500 333 ////=
07222,1996-01-26 18:00:00,-1,1010.3,1.3,93,-2,3500,14.816,,,40,-1,1.3,,,,,,,,10,wg-a,,,,AAXX 26184 07222 32335 80408 11010 21020 30070 40103 53013 71052 886// 91800 333 10013 21010=
07222,1996-01-26 21:00:00,-2,1011.3,1,100,-2,2000,18.52,,,40,,,,,,,,,,10,wg-a,,,,AAXX 26214 07222 02220 80410 11020 21020 30080 40113 53010 61000 71052 886// 92100 333 ////=
07222,1996-01-27 00:00:00,-2,1011.2,-0.1,93,-3,4000,18.52,,,40,,,,,,,,,,10,wg-a,,,,AAXX 27004 07222 02340 80410 11020 21030 30079 40112 58001 61000 71052 886// 90000 333 6100=
07222,1996-01-27 03:00:00,-2,1010.9,-0.3,86,-4,500,18.52,,,50,,,,,,,,,,,wg-a,,,,AAXX 27034 07222 12400 80510 11020 21040 30076 40109 58003 60006 885// 90300=
07222,1996-01-27 06:00:00,-2,1010.8,-0.1,86,-4,500,22.224,,,50,-2.2,-0.9,,,,,,,,,wg-a,,,,AAXX 27064 07222 02400 80512 11020 21040 30075 40108 55001 61000 885// 90600 333 11009 21022 ////=
07222,1996-01-27 09:00:00,-2,1011.3,0.5,86,-4,3500,18.52,,,50,,,,,,,,,,10,wg-a,,,,AAXX 27094 07222 12435 80510 11020 21040 30080 40113 53005 60006 71022 885// 90900=
07222,1996-01-27 12:00:00,-2,1010.7,-0.6,100,-2,2000,18.52,,,60,,,,,,,,,,10,wg-a,,,,AAXX 27124 07222 12220 80610 11020 21020 30074 40107 58006 60006 71022 885// 91200=
07222,1996-01-27 15:00:00,0,1009.6,-1.1,93,-1,1800,22.224,,,70,,,,,,,,,,10,wg-a,,,,AAXX 27154 07222 12218 80712 10000 21010 30063 40096 56011 60006 71022 886// 91500=
07222,1996-01-27 18:00:00,1,1010,0.4,93,0,2000,22.224,,,70,-2.2,0.7,,,,,,,,10,wg-a,,,,AAXX 27184 07222 12220 80712 10010 20000 30067 40100 51004 60006 71022 886// 91800 333 10007 21022=
07222,1996-01-27 21:00:00,1,1009.7,-0.3,100,1,2500,22.224,,,70,,,,,,,,,,10,wg-a,,,,AAXX 27214 07222 12225 30712 10010 20010 30064 40097 58003 60006 71011 83600 92100=
07222,1996-01-28 00:00:00,2,1010.2,0.6,100,2,2500,25.928,,,80,,,,,,,,,,10,wg-a,,,,AAXX 28004 07222 12225 80814 10020 20020 30070 40102 53006 60006 71011 876// 90000=
07222,1996-01-28 06:00:00,3,1007.4,-1.3,100,3,2500,25.928,,,80,0.7,2.9,,,,,,,,10,wg-a,,,,AAXX 28064 07222 02125 80814 10030 20030 30042 40074 56013 60006 71022 876// 90600 333 10029 20007 60004=
07222,1996-01-28 09:00:00,4,1006.7,-0.7,93,3,3500,31.484,,,70,,,,,,,,,,10,wg-a,,,,AAXX 28094 07222 12235 70717 10040 20030 30035 40067 58007 60006 71022 876// 90900=
07222,1996-01-28 12:00:00,6,1006,-0.7,87,4,7000,29.632,,,70,,,,,,,,,,,wg-a,,,,AAXX 28124 07222 12657 70716 10060 20040 30028 40060 58007 60006 875// 91200=
07222,1996-01-28 15:00:00,8,1004.9,-1.1,81,5,7000,29.632,,,70,,,,,,,,,,,wg-a,,,,AAXX 28154 07222 12657 70716 10080 20050 30017 40049 56011 60006 82532 91500=
07222,1996-01-28 18:00:00,6,1005.5,0.6,87,4,7000,29.632,,,70,2.8,8,,,,,,,,,wg-a,,,,AAXX 28184 07222 12657 70716 10060 20040 30023 40055 50006 60006 81552 91800 333 10080 20028=
07222,1996-01-29 00:00:00,4,1006.8,0.6,93,3,6000,22.224,,,70,,,,,,,,,,60,wg-a,,,,AAXX 29004 07222 02456 80712 10040 20030 30036 40068 51006 61000 76062 8777/ 90000 333 6100=
07222,1996-01-29 03:00:00,4,1006.8,-0,87,2,6000,22.224,,,60,,,,,,,,,,2,wg-a,,,,AAXX 29034 07222 02456 80612 10040 20020 30036 40068 55000 61000 70262 876// 90300 333 ////=
07222,1996-01-29 06:00:00,4,1007.5,0.7,87,2,6000,22.224,,,60,3.5,6.1,,,,,,,,3,wg-a,,,,AAXX 29064 07222 02456 80612 10040 20020 30043 40075 53007 61000 70362 876// 90600 333 10061 20035 ////=
07222,1996-01-29 09:00:00,4,1009.1,1.6,87,2,2500,22.224,,,70,,,,,,,,,,10,wg-a,,,,AAXX 29094 07222 02325 80712 10040 20020 30059 40091 52016 61000 71052 876// 90900 333 ////=
07222,1996-01-29 12:00:00,4,1009.9,0.8,87,2,3000,22.224,,,70,,,,,,,,,,10,wg-a,,,,AAXX 29124 07222 02430 70712 10040 20020 30067 40099 51008 61000 71052 876// 91200 333 6100=
07222,1996-01-29 15:00:00,6,1010,0.1,81,3,3500,22.224,,,50,,,,,,,,,,10,wg-a,,,,AAXX 29154 07222 12635 70512 10060 20030 30068 40100 53001 60006 71022 855// 91500=
07222,1996-01-29 18:00:00,4,1011.5,1.5,87,2,500,14.816,,,40,3.3,5.5,,,,,,,,,wg-a,,,,AAXX 29184 07222 32400 /0408 10040 20020 30083 40115 51015 84600 91800 333 10055 20033=
07222,1996-01-29 21:00:00,4,1012.7,1.2,87,2,6000,14.816,,,50,,,,,,,,,,,wg-a,,,,AAXX 29214 07222 12/56 00508 10040 20020 30095 40127 51012 60006 80000 92100=
07222,1996-01-30 00:00:00,4,1013.7,1,87,2,6000,14.816,,,50,,,,,,,,,,,wg-a,,,,AAXX 30004 07222 12/56 /0508 10040 20020 30105 40137 53010 60006 90000=
07222,1996-01-30 03:00:00,4,1014.2,0.5,93,3,6000,14.816,,,50,,,,,,,,,,,wg-a,,,,AAXX 30034 07222 12756 70508 10040 20030 30110 40142 53005 60006 875// 90300=
07222,1996-01-30 06:00:00,4,1015.3,1.1,93,3,4000,11.112,,,50,3.4,4.2,,,,,,,,10,wg-a,,,,AAXX 30064 07222 02740 /0506 10040 20030 30121 40153 53011 60006 71022 85500 90600 333 10042 20034 61000=
07222,1996-01-30 09:00:00,4,1017,1.7,93,3,6000,14.816,,,60,,,,,,,,,,,wg-a,,,,AAXX 30094 07222 12756 /0608 10040 20030 30138 40170 52017 60006 81501 90900=
07222,1996-01-30 12:00:00,8,1017.8,0.8,81,5,7000,18.52,,,70,,,,,,,,,,,wg-a,,,,AAXX 30124 07222 12/57 30710 10080 20050 30146 40178 51008 60006 82031 91200=
07222,1996-01-30 15:00:00,9,1017.5,-0.3,76,5,6000,18.52,,,50,,,,,,,,,,,wg-a,,,,AAXX 30154 07222 12/56 /0510 10090 20050 30143 40175 56003 60006 80001 91500=
07222,1996-01-30 18:00:00,7,1018.2,0.7,81,4,6000,14.816,,,60,3.7,9,,,,,,,,,wg-a,,,,AAXX 30184 07222 12/56 40608 10070 20040 30150 40182 53007 60006 80001 91800 333 10090 20037=
07222,1996-01-30 21:00:00,5,1018.7,0.5,87,3,6000,14.816,,,60,,,,,,,,,,,wg-a,,,,AAXX 30214 07222 12/56 00608 10050 20030 30155 40187 52005 60006 80000 92100=
07222,1996-01-31 00:00:00,2,1018.9,0.1,87,0,500,14.816,,,60,,,,,,,,,,,wg-a,,,,AAXX 31004 07222 12/00 00608 10020 20000 30156 40189 53001 60006 80000 90000=
07222,1996-01-31 03:00:00,0,1018.2,-0.7,93,-1,500,18.52,,,60,,,,,,,,,,,wg-a,,,,AAXX 31034 07222 12/00 /0610 10000 21010 30149 40182 58007 60006 90300=
07222,1996-01-31 06:00:00,-1,1017.9,-0.3,93,-2,3000,18.52,,,60,-1.1,7.1,,,,,,,,10,wg-a,,,,AAXX 31064 07222 02330 20610 11010 21020 30146 40179 56003 60006 71000 82600 90600 333 10071 21011 60004=
07222,1996-01-31 09:00:00,-1,1018,0.1,93,-2,2500,22.224,,,60,,,,,,,,,,10,wg-a,,,,AAXX 31094 07222 12225 70612 11010 21020 30147 40180 53001 60006 71011 876// 90900=
07222,1996-01-31 12:00:00,1,1016.8,-1.2,80,-2,500,22.224,,,60,,,,,,,,,,,wg-a,,,,AAXX 31124 07222 12400 40612 10010 21020 30135 40168 58012 60006 84500 91200=
07222,1996-01-31 15:00:00,2,1014.4,-2.4,80,-1,500,22.224,,,50,,,,,,,,,,,wg-a,,,,AAXX 31154 07222 12400 40512 10020 21010 30111 40144 56024 60006 84100 91500=
07222,1996-01-31 18:00:00,0,1014.7,0.3,80,-3,500,22.224,,,80,-1,2.5,,,,,,,,,wg-a,,,,AAXX 31184 07222 12400 /0812 10000 21030 30114 40147 50003 60006 86500 91800 333 10025 21010=
07222,1996-01-31 21:00:00,0,1013.6,-1.1,86,-2,7000,22.224,,,100,,,,,,,,,,,wg-a,,,,AAXX 31214 07222 12457 71012 10000 21020 30103 40136 58011 60006 875// 92100=
07222,1996-02-01 00:00:00,1,1012.2,-1.4,86,-1,6000,11.112,,,80,,,,,,,,,,,wg-a,,,,AAXX 01004 07222 12456 70806 10010 21010 30089 40122 56014 60006 875// 90000=
07222,1996-02-01 03:00:00,1,1011.4,-0.8,93,0,500,11.112,,,70,,,,,,,,,,,wg-a,,,,AAXX 01034 07222 12400 70706 10010 20000 30081 40114 57008 60006 875// 90300=
07222,1996-02-01 06:00:00,1,1011.1,-0.3,100,1,4000,7.408,,,80,-0.5,1.7,,,,,,,,10,wg-a,,,,AAXX 01064 07222 02640 20804 10010 20010 30078 40111 57003 60006 71011 82500 90600 333 10017 21005 60004=
07222,1996-02-01 09:00:00,5,1011.4,0.4,81,2,12000,18.52,,,120,,,,,,,,,,,wg-a,,,,AAXX 01094 07222 12762 41210 10050 20020 30082 40114 51004 60006 84500 90900=
07222,1996-02-01 12:00:00,9,1011.2,-0.2,61,2,500,22.224,,,130,,,,,,,,,,,wg-a,,,,AAXX 01124 07222 12/00 01312 10090 20020 30080 40112 58002 60006 80000 91200=
07222,1996-02-01 15:00:00,10,1009.6,-1.6,62,3,20000,18.52,,,80,,,,,,,,,,,wg-a,,,,AAXX 01154 07222 12/70 00810 10100 20030 30064 40096 56016 60006 80000 91500=
07222,1996-02-01 18:00:00,6,1010.3,0.7,75,2,10000,11.112,,,70,1.2,10.6,,,,,,,,,wg-a,,,,AAXX 01184 07222 12/60 00706 10060 20020 30071 40103 53007 60006 80000 91800 333 10106 20012=
07222,1996-02-01 21:00:00,4,1009.9,-0.4,75,0,10000,14.816,,,90,,,,,,,,,,,wg-a,,,,AAXX 01214 07222 12/60 00908 10040 20000 30067 40099 58004 60006 80000 92100=
07222,1996-02-02 00:00:00,1,1009.7,-0.3,86,-1,10000,7.408,,,40,,,,,,,,,,,wg-a,,,,AAXX 02004 07222 12/60 00404 10010 21010 30064 40097 58003 60006 80000 90000=
07222,1996-02-02 03:00:00,1,1009.3,-0.3,93,0,10000,7.408,,,40,,,,,,,,,,,wg-a,,,,AAXX 02034 07222 12660 20404 10010 20000 30061 40093 58003 60006 81501 90300=
07222,1996-02-02 06:00:00,3,1009.2,-0.1,87,1,6000,7.408,,,50,0.2,6.1,,,,,,,,,wg-a,,,,AAXX 02064 07222 02556 70504 10030 20010 30060 40092 58001 60006 875// 90600 333 10061 20002 60004=
07222,1996-02-02 12:00:00,8,1010.4,0.3,76,4,9000,14.816,,,40,,,,,,,,,,,wg-a,,,,AAXX 02124 07222 12/59 00408 10080 20040 30072 40104 50003 60006 80000 91200=
07222,1996-02-02 15:00:00,10,1010.2,-0.2,66,4,10000,11.112,,,60,,,,,,,,,,,wg-a,,,,AAXX 02154 07222 12/60 00606 10100 20040 30070 40102 55002 60006 80000 91500=
07222,1996-02-02 18:00:00,7,1011.8,1.6,81,4,6000,7.408,,,60,2.1,9.6,,,,,,,,,wg-a,,,,AAXX 02184 07222 12/56 00604 10070 20040 30086 40118 53016 60006 80000 91800 333 10096 20021=
07222,1996-02-02 21:00:00,3,1013.2,1.4,93,2,500,7.408,,,50,,,,,,,,,,,wg-a,,,,AAXX 02214 07222 12/00 00504 10030 20020 30100 40132 51014 60006 80000 92100=
07222,1996-02-03 00:00:00,-1,1014,0.7,100,-1,500,7.408,,,40,,,,,,,,,,46,wg-a,,,,AAXX 03004 07222 12/05 00404 11010 21010 30107 40140 51007 60006 74640 80000 90000=
07222,1996-02-03 03:00:00,-3,1014.4,0.4,100,-3,100,0,,,0,,,,,,,,,,44,wg-a,,,,AAXX 03034 07222 12/01 00000 11030 21030 30111 40144 53004 60006 74444 80000 90300=
07222,1996-02-03 06:00:00,0,1015.4,1,100,0,800,14.816,,,40,-3,6.9,,,,,,,,44,wg-a,,,,AAXX 03064 07222 02008 70408 10000 20000 30121 40154 53010 60006 74441 87600 90600 333 10069 21030 60004=
07222,1996-02-03 09:00:00,0,1016.4,1,100,0,700,14.816,,,80,,,,0,,,,,,44,wg-a,,,,AAXX 03094 07222 12107 70808 10000 20000 30131 40164 52010 60007 74444 876// 90900=
07222,1996-02-03 12:00:00,3,1016.3,-0.1,100,3,2500,11.112,,,60,,,,,,,,,,10,wg-a,,,,AAXX 03124 07222 12325 70606 10030 20030 30130 40163 58001 60006 71042 876// 91200=
07222,1996-02-03 15:00:00,4,1015.3,-0.9,81,1,4000,14.816,,,60,,,,,,,,,,10,wg-a,,,,AAXX 03154 07222 12440 /0608 10040 20010 30121 40153 56009 60006 71022 85501 91500=
07222,1996-02-03 18:00:00,3,1016.1,0.8,87,1,3000,14.816,,,60,-0.1,4.1,,,,,,,,10,wg-a,,,,AAXX 03184 07222 32630 /0608 10030 20010 30129 40161 53008 71022 86500 91800 333 10041 21001=
07222,1996-02-03 21:00:00,3,1016.8,0.6,81,0,6000,7.408,,,20,,,,,,,,,,,wg-a,,,,AAXX 03214 07222 12656 /0204 10030 20000 30135 40168 53006 60006 86500 92100=
07222,1996-02-04 00:00:00,3,1017,0.2,81,0,6000,14.816,,,40,,,,,,,,,,,wg-a,,,,AAXX 04004 07222 12656 /0408 10030 20000 30137 40170 50002 60006 86500 90000=
07222,1996-02-04 03:00:00,2,1016.9,-0.1,80,-1,6000,11.112,,,30,,,,,,,,,,,wg-a,,,,AAXX 04034 07222 12656 /0306 10020 21010 30136 40169 55001 60006 86500 90300=
07222,1996-02-04 06:00:00,0,1017.7,0.8,93,-1,500,11.112,,,20,-0.7,3.3,,,,,,,,,wg-a,,,,AAXX 04064 07222 02700 70206 10000 21010 30144 40177 53008 60006 865// 90600 333 10033 21007 60004=
07222,1996-02-04 09:00:00,2,1018.7,1,80,-1,6000,11.112,,,20,,,,,,,,,,,wg-a,,,,AAXX 04094 07222 12756 70206 10020 21010 30154 40187 53010 60006 875// 90900=
07222,1996-02-04 12:00:00,4,1019.1,0.4,70,-1,12000,11.112,,,20,,,,,,,,,,,wg-a,,,,AAXX 04124 07222 12562 70206 10040 21010 30158 40191 51004 60006 878// 91200=
07222,1996-02-04 15:00:00,3,1018.1,-1,56,-5,15000,14.816,,,30,,,,,,,,,,,wg-a,,,,AAXX 04154 07222 12665 /0308 10030 21050 30148 40181 55010 60006 86800 91500=
07222,1996-02-04 18:00:00,3,1019.3,1.2,60,-4,10000,11.112,,,30,0.3,4,,,,,,,,,wg-a,,,,AAXX 04184 07222 12660 70306 10030 21040 30160 40193 51012 60006 878// 91800 333 10040 20003=
07222,1996-02-04 21:00:00,2,1019.2,-0.1,69,-3,10000,3.704,,,110,,,,,,,,,,,wg-a,,,,AAXX 04214 07222 12660 71102 10020 21030 30159 40192 58001 60006 875// 92100=
07222,1996-02-05 00:00:00,1,1018.9,-0.3,75,-3,10000,3.704,,,260,,,,,,,,,,,wg-a,,,,AAXX 05004 07222 12660 72602 10010 21030 30156 40189 58003 60006 875// 90000=
07222,1996-02-05 03:00:00,-2,1017.4,-1.5,86,-4,15000,7.408,,,160,,,,,,,,,,,wg-a,,,,AAXX 05034 07222 12/65 01604 11020 21040 30141 40174 58015 60006 80000 90300=
07222,1996-02-05 06:00:00,-4,1016,-1.4,86,-6,15000,14.816,,,140,-3.8,2.6,,,,,,,,,wg-a,,,,AAXX 05064 07222 02/65 21408 11040 21060 30127 40160 56014 60006 80001 90600 333 10026 21038 60004=
07222,1996-02-05 12:00:00,3,1011.6,-2.9,65,-3,10000,25.928,,,160,,,,,,,,,,,wg-a,,,,AAXX 05124 07222 12660 71614 10030 21030 30084 40116 58029 60006 81506 91200=
07222,1996-02-05 18:00:00,1,1001.5,-4.9,86,-1,6000,31.484,,,140,-4.6,3.3,,,,,,,,71,wg-a,,,,AAXX 05184 07222 02556 81417 10010 21010 39983 40015 56049 61000 77172 8757/ 91800 333 10033 21046 ////=
07222,1996-02-05 21:00:00,0,996,-5.5,100,0,600,29.632,,,130,,,,,,,,,,73,wg-a,,,,AAXX 05214 07222 02006 81316 10000 20000 39928 49960 58055 61000 77377 877// 92100 333 ////=
07222,1996-02-06 00:00:00,1,991.1,-4.9,93,0,8000,29.632,,,160,,,,2,,,,,,21,wg-a,,,,AAXX 06004 07222 02358 81616 10010 20000 39879 49911 56049 60026 72176 877// 90000 333 60027=
07222,1996-02-06 06:00:00,1,987.7,0.3,100,1,2000,3.704,,,290,0.1,1.3,,1,,,4,,,10,wg-a,,,,AAXX 06064 07222 02320 82902 10010 20010 39845 49877 53003 60044 71062 875// 90600 333 10013 20001 60017=
07222,1996-02-06 09:00:00,2,991.3,3.6,100,2,2000,14.816,,,300,,,,0,,,,,,10,wg-a,,,,AAXX 06094 07222 12120 83008 10020 20020 39881 49913 51036 60007 71062 887// 90900=
07222,1996-02-06 12:00:00,8,993.7,2.5,76,4,1000,35.188,,,300,,,,0,,,,,,2,wg-a,,,,AAXX 06124 07222 02510 83019 10080 20040 39906 49937 51025 60016 70262 887// 91200 333 60007=
07222,1996-02-06 18:00:00,6,1003,4.5,65,0,15000,22.224,,,300,,,,,,,,,,1,wg-a,,,,AAXX 06184 07222 32765 33012 10060 20000 39998 40030 53045 70161 83600 91800=
07222,1996-02-06 21:00:00,4,1005.2,2.2,81,1,15000,18.52,,,290,,,,,,,,,,,wg-a,,,,AAXX 06214 07222 12/65 22910 10040 20010 30020 40052 52022 60006 82030 92100=
07222,1996-02-07 00:00:00,2,1005.6,0.4,80,-1,15000,11.112,,,270,,,,,,,,,,,wg-a,,,,AAXX 07004 07222 12/65 32706 10020 21010 30024 40056 53004 60006 83030 90000=
07222,1996-02-07 03:00:00,1,1003,-2.6,100,1,15000,7.408,,,140,,,,,,,,,,,wg-a,,,,AAXX 07034 07222 12/65 71404 10010 20010 39998 40030 58026 60006 8707/ 90300=
07222,1996-02-07 06:00:00,3,996.9,-6.1,93,2,12000,22.224,,,130,0.9,5.6,,0,,,,,,61,wg-a,,,,AAXX 07064 07222 12462 81312 10030 20020 39937 49969 58061 60007 76161 8257/ 90600 333 10056 20009=
07222,1996-02-07 09:00:00,2,989.9,-7,100,2,500,35.188,,,150,,,,6,,,,,,63,wg-a,,,,AAXX 07094 07222 12300 81519 10020 20020 39867 49899 58070 60067 76376 875// 90900=
07222,1996-02-07 12:00:00,11,986.3,-3.5,71,6,20000,50.004,,75.932,280,,,,3,,,,,,1,wg-a,,,,AAXX 07124 07222 02570 32827 10110 20060 39832 49863 56035 60096 70187 83800 91200 333 60037 91041=
07222,1996-02-07 15:00:00,8,983.3,-3,81,5,8000,53.708,,94.452,270,,,,2,,,,,,61,wg-a,,,,AAXX 07154 07222 12458 82729 10080 20050 39802 49833 58030 60027 76161 87870 91500 333 91051=
07222,1996-02-07 18:00:00,8,982,-1.3,87,6,12000,50.004,,74.08,290,2.2,10.9,,0,,,,,,21,wg-a,,,,AAXX 07184 07222 12562 72927 10080 20060 39789 49820 55013 60007 72161 8753/ 91800 333 10109 20022 91040=
07222,1996-02-07 21:00:00,5,998.3,0.2,81,2,15000,38.892,,64.82,340,,,,,,,,,,2,wg-a,,,,AAXX 07214 07222 02565 73421 10050 20020 39951 49983 51162 61000 70262 875// 92100 333 //// 91035=
07222,1996-02-08 00:00:00,3,1006.8,8.5,87,1,15000,22.224,,,310,,,,,,,,,,1,wg-a,,,,AAXX 08004 07222 02565 43112 10030 20010 30036 40068 51085 61000 70161 84500 90000 333 ////=
07222,1996-02-08 03:00:00,4,1010.4,3.6,87,2,15000,25.928,,,300,,,,,,,,,,,wg-a,,,,AAXX 08034 07222 12565 43014 10040 20020 30072 40104 51036 60006 84500 90300=
07222,1996-02-08 06:00:00,4,1014.4,4,87,2,15000,18.52,,,300,3.1,8.5,,,,,11,,,,wg-a,,,,AAXX 08064 07222 12565 23010 10040 20020 30112 40144 52040 60114 82500 90600 333 10085 20031=
07222,1996-02-08 09:00:00,5,1017.7,3.3,81,2,20000,22.224,,,310,,,,,,,,,,,wg-a,,,,AAXX 08094 07222 12670 23112 10050 20020 30145 40177 51033 60006 81530 90900=
07222,1996-02-08 12:00:00,9,1019.7,2,57,1,25000,22.224,,,290,,,,,,,,,,,wg-a,,,,AAXX 08124 07222 12575 32912 10090 20010 30165 40197 51020 60006 83200 91200=
07222,1996-02-08 15:00:00,10,1020.6,0.9,50,0,25000,22.224,,,300,,,,,,,,,,,wg-a,,,,AAXX 08154 07222 12675 /3012 10100 20000 30174 40206 53009 60006 85200 91500=
07222,1996-02-08 18:00:00,6,1021.7,1.1,81,3,25000,11.112,,,250,2.6,10.2,,,,,,,,,wg-a,,,,AAXX 08184 07222 12775 52506 10060 20030 30185 40217 53011 60006 85530 91800 333 10102 20026=
07222,1996-02-08 21:00:00,5,1021.1,-0.6,87,3,15000,11.112,,,210,,,,,,,,,,,wg-a,,,,AAXX 08214 07222 12765 42106 10050 20030 30179 40211 58006 60006 84500 92100=
07222,1996-02-09 00:00:00,2,1020,-1.2,93,1,12000,14.816,,,180,,,,,,,,,,,wg-a,,,,AAXX 09004 07222 12/62 01808 10020 20010 30167 40200 57012 60006 80000 90000=
07222,1996-02-09 03:00:00,3,1017.6,-2.4,93,2,10000,18.52,,,140,,,,,,,,,,,wg-a,,,,AAXX 09034 07222 12/60 21410 10030 20020 30143 40176 58024 60006 80001 90300=
07222,1996-02-09 06:00:00,4,1015.3,-2.2,93,3,10000,18.52,,,160,1.8,6,,,,,,,,,wg-a,,,,AAXX 09064 07222 02/60 71610 10040 20030 30121 40153 56022 60006 84072 90600 333 10060 20018 60004=
07222,1996-02-09 09:00:00,4,1013.6,-1.7,87,2,12000,25.928,,,150,,,,,,,,,,,wg-a,,,,AAXX 09094 07222 12/62 71514 10040 20020 30104 40136 58017 60006 85072 90900=
07222,1996-02-09 12:00:00,7,1011.1,-2.5,66,1,15000,35.188,,,170,,,,,,,,,,,wg-a,,,,AAXX 09124 07222 12765 81719 10070 20010 30079 40111 58025 60006 8357/ 91200=
07222,1996-02-09 18:00:00,6,1008.1,-0.1,100,6,1000,14.816,,,180,3.7,8,,2,,,,,,1,wg-a,,,,AAXX 09184 07222 12410 61808 10060 20060 30049 40081 55001 60027 70162 85530 91800 333 10080 20037=
07222,1996-02-10 00:00:00,5,1010.4,1.2,93,4,2000,11.112,,,260,,,,,,,,,,,wg-a,,,,AAXX 10004 07222 12/20 /2606 10050 20040 30072 40104 51012 60026 90000=
07222,1996-02-10 03:00:00,4,1010.7,0.3,93,3,2000,11.112,,,220,,,,,,,,,,,wg-a,,,,AAXX 10034 07222 12520 /2206 10040 20030 30075 40107 51003 60006 86800 90300=
07222,1996-02-10 06:00:00,4,1011,0.3,93,3,20000,7.408,,,260,2.9,7.3,,1,,,5,,,25,wg-a,,,,AAXX 10064 07222 02570 /2604 10040 20030 30078 40110 53003 60054 72522 86800 90600 333 10073 20029 60017=
07222,1996-02-10 09:00:00,5,1012.2,1.2,93,4,20000,11.112,,,200,,,,0,,,,,,25,wg-a,,,,AAXX 10094 07222 12570 52006 10050 20040 30090 40122 51012 60007 72586 85800 90900=
07222,1996-02-10 12:00:00,10,1011.9,-0.3,71,5,20000,18.52,,,250,,,,,,,,,,3,wg-a,,,,AAXX 10124 07222 12570 52510 10100 20050 30087 40119 58003 60016 70386 82832 91200=
07222,1996-02-10 15:00:00,9,1011.9,0,76,5,500,18.52,,,240,,,,1,,,,,,2,wg-a,,,,AAXX 10154 07222 12500 72410 10090 20050 30087 40119 50000 60017 70286 82231 91500=
07222,1996-02-10 18:00:00,6,1012.9,1,93,5,15000,14.816,,,240,2.3,10.5,,,,,,,,80,wg-a,,,,AAXX 10184 07222 02565 62408 10060 20050 30097 40129 53010 61000 78086 86800 91800 333 10105 20023 ////=
07222,1996-02-10 21:00:00,4,1013.7,0.8,93,3,10000,11.112,,,200,,,,,,,,,,1,wg-a,,,,AAXX 10214 07222 32/60 02006 10040 20030 30105 40137 51008 70186 80000 92100=
07222,1996-02-11 00:00:00,4,1014.1,0.4,93,3,10000,11.112,,,240,,,,1,,,,,,25,wg-a,,,,AAXX 11004 07222 02560 22406 10040 20030 30109 40141 51004 60016 72586 82200 90000 333 60017=
07222,1996-02-11 06:00:00,3,1014.8,0.5,93,2,10000,7.408,,,220,2.3,6.5,,0,,,2,,,25,wg-a,,,,AAXX 11064 07222 02560 32204 10030 20020 30116 40148 51005 60024 72586 83800 90600 333 10065 20023 60007=
07222,1996-02-11 09:00:00,6,1016.3,1.5,93,5,500,14.816,,,250,,,,,,,,,,,wg-a,,,,AAXX 11094 07222 12500 32508 10060 20050 30131 40163 51015 60006 83801 90900=
07222,1996-02-11 12:00:00,10,1017.2,0.9,71,5,500,29.632,,,290,,,,,,,,,,,wg-a,,,,AAXX 11124 07222 12500 52916 10100 20050 30140 40172 51009 60006 82801 91200=
07222,1996-02-11 15:00:00,10,1016.8,-0.4,76,6,500,22.224,,,270,,,,,,,,,,25,wg-a,,,,AAXX 11154 07222 02500 42712 10100 20060 30136 40168 56004 61000 72586 81801 91500 333 ////=
07222,1996-02-11 18:00:00,7,1017,0.2,93,6,20000,11.112,,,240,2.4,10.8,,,,,,,,1,wg-a,,,,AAXX 11184 07222 32770 62406 10070 20060 30138 40170 53002 70186 82541 91800 333 10108 20024=
07222,1996-02-11 21:00:00,7,1016.4,-0.6,93,6,20000,14.816,,,220,,,,,,,,,,,wg-a,,,,AAXX 11214 07222 12/70 72208 10070 20060 30132 40164 58006 60006 84042 92100=
07222,1996-02-12 00:00:00,8,1014,-2.4,93,7,15000,14.816,,,210,,,,,,,,,,,wg-a,,,,AAXX 12004 07222 12665 72108 10080 20070 30108 40140 57024 60006 84531 90000=
07222,1996-02-12 03:00:00,9,1009.2,-4.8,100,9,12000,25.928,,,210,,,,1,,,,,,21,wg-a,,,,AAXX 12034 07222 12462 72114 10090 20090 30060 40092 58048 60017 72162 875// 90300=
07222,1996-02-12 06:00:00,10,1004.5,-4.6,100,10,6000,31.484,,,240,6,10.3,,1,,,2,,,51,wg-a,,,,AAXX 12064 07222 02256 72417 10100 20100 30014 40045 56046 60024 75165 877// 90600 333 10103 20060 60017=
07222,1996-02-12 09:00:00,11,1001.1,-3.4,100,11,7000,42.596,,64.82,260,,,,4,,,,,,61,wg-a,,,,AAXX 12094 07222 12357 82623 10110 20110 39980 40011 56034 60047 76166 877// 90900 333 91035=
07222,1996-02-12 12:00:00,11,1001.9,0.8,71,6,500,35.188,,53.708,290,,,,1,,,,,,1,wg-a,,,,AAXX 12124 07222 02500 /2919 10110 20060 39988 40019 53008 60066 70165 81800 91200 333 60017 91029=
07222,1996-02-12 15:00:00,11,1000.8,-1.1,66,5,500,53.708,,87.044,280,,,,,,,,,,,wg-a,,,,AAXX 12154 07222 12600 32829 10110 20050 39977 40008 58011 60006 83200 91500 333 91047=
07222,1996-02-12 18:00:00,10,1002.1,1.3,76,6,20000,46.3,,,280,9.5,11.2,,,,,,,,,wg-a,,,,AAXX 12184 07222 32570 /2825 10100 20060 39990 40021 53013 85200 91800 333 10112 20095=
07222,1996-02-12 21:00:00,9,1005.3,3.2,76,5,20000,35.188,,53.708,290,,,,,,,,,,,wg-a,,,,AAXX 12214 07222 12670 22919 10090 20050 30022 40053 51032 60006 82200 92100 333 91029=
07222,1996-02-13 00:00:00,8,1007.4,2,76,4,20000,31.484,,,290,,,,,,,,,,,wg-a,,,,AAXX 13004 07222 12/70 02917 10080 20040 30042 40074 51020 60006 80000 90000=
07222,1996-02-13 03:00:00,7,1008.5,1.1,87,5,20000,18.52,,,300,,,,,,,,,,,wg-a,,,,AAXX 13034 07222 12670 23010 10070 20050 30053 40085 51011 60006 82200 90300=
07222,1996-02-13 06:00:00,6,1009.8,1.3,87,4,20000,18.52,,,310,5.8,10,,,,,6,,,,wg-a,,,,AAXX 13064 07222 02670 33110 10060 20040 30066 40098 53013 60006 83500 90600 333 10100 20058 60064=
07222,1996-02-13 09:00:00,6,1012.1,2.3,87,4,20000,18.52,,,310,,,,,,,,,,,wg-a,,,,AAXX 13094 07222 12670 23110 10060 20040 30089 40121 51023 60006 82500 90900=
07222,1996-02-13 12:00:00,9,1013,0.9,61,2,20000,14.816,,,350,,,,,,,,,,,wg-a,,,,AAXX 13124 07222 12670 53508 10090 20020 30098 40130 51009 60006 85800 91200=
07222,1996-02-13 15:00:00,9,1013.7,0.7,57,1,20000,14.816,,,360,,,,,,,,,,,wg-a,,,,AAXX 13154 07222 12670 43608 10090 20010 30105 40137 52007 60006 84800 91500=
07222,1996-02-13 18:00:00,6,1016.4,2.7,81,3,15000,14.816,,,10,5.1,9.4,,,,,,,,,wg-a,,,,AAXX 13184 07222 12565 /0108 10060 20030 30132 40164 53027 60006 86500 91800 333 10094 20051=
07222,1996-02-13 21:00:00,4,1019.6,3.2,87,2,12000,11.112,,,20,,,,,,,,,,,wg-a,,,,AAXX 13214 07222 12762 30206 10040 20020 30164 40196 51032 60006 83500 92100=
07222,1996-02-14 00:00:00,3,1022.2,2.5,93,2,11000,11.112,,,10,,,,,,,,,,,wg-a,,,,AAXX 14004 07222 12/61 /0106 10030 20020 30189 40222 53025 60006 90000=
07222,1996-02-14 03:00:00,3,1023.6,1.4,87,1,15000,14.816,,,360,,,,,,,,,,,wg-a,,,,AAXX 14034 07222 12/65 03608 10030 20010 30203 40236 53014 60006 80000 90300=
07222,1996-02-14 06:00:00,3,1025.4,1.8,81,0,15000,18.52,,,360,2,5.7,,,,,,,,,wg-a,,,,AAXX 14064 07222 02765 73610 10030 20000 30221 40254 51018 60006 875// 90600 333 10057 20020 60004=
07222,1996-02-14 09:00:00,4,1028,2.6,75,0,25000,25.928,,42.596,10,,,,,,,,,,,wg-a,,,,AAXX 14094 07222 12/75 00114 10040 20000 30247 40280 53026 60006 80000 90900 333 91023=
07222,1996-02-14 12:00:00,4,1028,2.6,75,0,25000,25.928,,,10,,,,,,,,,,,wg-a,,,,AAXX 14124 07222 12/75 /0114 10040 20000 30247 40280 53026 60006 80000 91200=
07222,1996-02-14 15:00:00,6,1030.1,0.7,65,0,15000,22.224,,38.892,30,,,,,,,,,,,wg-a,,,,AAXX 14154 07222 12565 70312 10060 20000 30268 40301 53007 60006 875// 91500 333 91021=
07222,1996-02-14 18:00:00,5,1031.9,1.8,70,0,12000,14.816,,,40,2.7,6.3,,,,,,,,,wg-a,,,,AAXX 14184 07222 12662 70408 10050 20000 30286 40319 53018 60006 875// 91800 333 10063 20027=
07222,1996-02-14 21:00:00,4,1034.4,2.5,70,-1,12000,18.52,,,30,,,,,,,,,,,wg-a,,,,AAXX 14214 07222 12662 70310 10040 21010 30311 40344 51025 60006 875// 92100=
07222,1996-02-15 00:00:00,3,1035.5,1.1,75,-1,12000,11.112,,,20,,,,,,,,,,,wg-a,,,,AAXX 15004 07222 12562 70206 10030 21010 30322 40355 53011 60006 87500 90000=
07222,1996-02-15 03:00:00,1,1036.1,0.6,80,-2,10000,7.408,,,30,,,,,,,,,,,wg-a,,,,AAXX 15034 07222 12/60 00304 10010 21020 30328 40361 50006 60006 80000 90300=
07222,1996-02-15 06:00:00,0,1037,0.8,80,-3,10000,11.112,,,40,-0.4,5.2,,,,,,,,,wg-a,,,,AAXX 15064 07222 02/60 20406 10000 21030 30336 40370 53008 60006 80001 90600 333 10052 21004 60004=
07222,1996-02-15 12:00:00,4,1037.9,-0.5,65,-2,18000,18.52,,,60,,,,,,,,,,,wg-a,,,,AAXX 15124 07222 12568 70610 10040 21020 30346 40379 58005 60006 81502 91200=
07222,1996-02-15 18:00:00,4,1036.2,0,70,-1,10000,11.112,,,30,-1.7,5.4,,,,,,,,,wg-a,,,,AAXX 15184 07222 12/60 70306 10040 21010 30329 40362 50000 60006 83032 91800 333 10054 21017=
07222,1996-02-15 21:00:00,2,1036.6,0.4,80,-1,10000,3.704,,,320,,,,,,,,,,,wg-a,,,,AAXX 15214 07222 12/60 23202 10020 21010 30333 40366 51004 60006 80001 92100=
07222,1996-02-16 00:00:00,0,1036.3,-0.4,93,-1,10000,7.408,,,330,,,,,,,,,,,wg-a,,,,AAXX 16004 07222 12/60 03304 10000 21010 30329 40363 56004 60006 80000 90000=
07222,1996-02-16 03:00:00,2,1034.6,-1.6,93,1,10000,7.408,,,280,,,,,,,,,,,wg-a,,,,AAXX 16034 07222 12760 72804 10020 20010 30313 40346 58016 60006 875// 90300=
07222,1996-02-16 06:00:00,2,1034.2,-0.4,93,1,10000,7.408,,,290,-0.6,3.6,,,,,,,,,wg-a,,,,AAXX 16064 07222 02560 62904 10020 20010 30309 40342 56004 60006 86500 90600 333 10036 21006 60004=
07222,1996-02-16 09:00:00,4,1034.1,-0.1,93,3,6000,11.112,,,300,,,,,,,,,,,wg-a,,,,AAXX 16094 07222 12556 73006 10040 20030 30308 40341 58001 60006 875// 90900=
07222,1996-02-16 12:00:00,8,1033.5,-0.5,81,5,8000,11.112,,,280,,,,,,,,,,,wg-a,,,,AAXX 16124 07222 12558 72806 10080 20050 30303 40335 58005 60006 875// 91200=
07222,1996-02-16 15:00:00,10,1031.3,-2.2,76,6,10000,14.816,,,270,,,,,,,,,,,wg-a,,,,AAXX 16154 07222 12560 72708 10100 20060 30281 40313 58022 60006 875// 91500=
07222,1996-02-16 18:00:00,9,1031.5,0.2,81,6,10000,14.816,,,260,2.1,9.7,,,,,,,,,wg-a,,,,AAXX 16184 07222 12560 72608 10090 20060 30283 40315 50002 60006 875// 91800 333 10097 20021=
07222,1996-02-16 21:00:00,9,1031.3,-0.2,87,7,10000,11.112,,,280,,,,,,,,,,,wg-a,,,,AAXX 16214 07222 12560 72806 10090 20070 30281 40313 58002 60006 875// 92100=
07222,1996-02-17 00:00:00,8,1031.3,-0,87,6,10000,14.816,,,280,,,,,,,,,,,wg-a,,,,AAXX 17004 07222 12560 32808 10080 20060 30281 40313 55000 60006 83500 90000=
07222,1996-02-17 03:00:00,6,1030.6,-0.8,93,5,9000,11.112,,,310,,,,,,,,,,,wg-a,,,,AAXX 17034 07222 12559 /3106 10060 20050 30273 40306 56008 60006 85500 90300=
07222,1996-02-17 06:00:00,7,1030.2,-0.4,87,5,10000,14.816,,,290,5.2,8.9,,,,,,,,,wg-a,,,,AAXX 17064 07222 02560 72908 10070 20050 30269 40302 56004 60006 875// 90600 333 10089 20052 60004=
07222,1996-02-17 09:00:00,8,1030.5,0.4,81,5,12000,18.52,,,280,,,,,,,,,,,wg-a,,,,AAXX 17094 07222 12662 /2810 10080 20050 30273 40305 50004 60006 81500 90900=
07222,1996-02-17 12:00:00,11,1030.3,-0.2,62,4,20000,22.224,,,310,,,,,,,,,,,wg-a,,,,AAXX 17124 07222 12670 23112 10110 20040 30271 40303 58002 60006 82101 91200=
07222,1996-02-17 15:00:00,11,1029.2,-1.1,62,4,20000,18.52,,,310,,,,,,,,,,,wg-a,,,,AAXX 17154 07222 12670 /3110 10110 20040 30260 40292 56011 60006 86500 91500=
07222,1996-02-17 18:00:00,8,1028.6,-0.6,81,5,20000,11.112,,,270,5.8,12.5,,,,,,,,,wg-a,,,,AAXX 17184 07222 12670 /2706 10080 20050 30254 40286 58006 60006 85500 91800 333 10125 20058=
07222,1996-02-17 21:00:00,7,1027.4,-1.2,93,6,15000,11.112,,,240,,,,,,,,,,,wg-a,,,,AAXX 17214 07222 12665 72406 10070 20060 30242 40274 58012 60006 875// 92100=
07222,1996-02-18 00:00:00,7,1025.8,-1.6,87,5,15000,11.112,,,250,,,,,,,,,,,wg-a,,,,AAXX 18004 07222 12565 72506 10070 20050 30226 40258 58016 60006 875// 90000=
07222,1996-02-18 03:00:00,8,1021.5,-4.3,87,6,15000,18.52,,,250,,,,,,,,,,,wg-a,,,,AAXX 18034 07222 12565 82510 10080 20060 30183 40215 56043 60006 875// 90300=
07222,1996-02-18 06:00:00,8,1017.4,-4.1,87,6,7000,22.224,,,240,6.3,8.5,,,,,,,,21,wg-a,,,,AAXX 18064 07222 02557 82412 10080 20060 30142 40174 56041 61000 72162 875// 90600 333 10085 20063 6100=
07222,1996-02-18 09:00:00,9,1013.1,-4.3,93,8,6000,29.632,,48.152,240,,,,,,,,,,61,wg-a,,,,AAXX 18094 07222 02356 82416 10090 20080 30099 40131 58043 61000 76162 877// 90900 333 //// 91026=
07222,1996-02-18 12:00:00,9,1009.8,-3.3,87,7,12000,29.632,,,300,,,,4,,,,,,21,wg-a,,,,AAXX 18124 07222 02462 83016 10090 20070 30066 40098 56033 60046 72162 875// 91200 333 60047=
07222,1996-02-18 15:00:00,9,1006.9,-2.9,71,4,20000,31.484,,,280,,,,,,,,,,,wg-a,,,,AAXX 18154 07222 12670 72817 10090 20040 30037 40069 58029 60006 8387/ 91500=
07222,1996-02-18 18:00:00,5,1006.1,-0.8,87,3,8000,31.484,,61.116,310,4.8,9.7,,1,,,,,,80,wg-a,,,,AAXX 18184 07222 12658 73117 10050 20030 30029 40061 55008 60017 78086 878// 91800 333 10097 20048 91033=
07222,1996-02-18 21:00:00,5,1003.9,-2.2,87,3,15000,18.52,,,270,,,,0,,,,,,3,wg-a,,,,AAXX 18214 07222 12665 /2710 10050 20030 30007 40039 56022 60007 70386 85800 92100=
07222,1996-02-19 00:00:00,5,1001.5,-2.4,81,2,12000,18.52,,,280,,,,,,,,,,1,wg-a,,,,AAXX 19004 07222 12762 22810 10050 20020 39983 40015 56024 60006 70186 82500 90000=
07222,1996-02-19 03:00:00,6,999.2,-2.3,87,4,10000,18.52,,,260,,,,0,,,,,,61,wg-a,,,,AAXX 19034 07222 12460 72610 10060 20040 39960 49992 58023 60007 76161 875// 90300=
07222,1996-02-19 06:00:00,4,998.3,-0.9,100,4,15000,7.408,,,310,2.6,6.1,,0,,,6,,,1,wg-a,,,,AAXX 19064 07222 02465 33104 10040 20040 39951 49983 55009 60064 70161 83800 90600 333 10061 20026 60007=
07222,1996-02-19 09:00:00,4,1002.8,4.5,87,2,15000,25.928,,46.3,10,,,,,,,,,,,wg-a,,,,AAXX 19094 07222 12465 70114 10040 20020 39996 40028 53045 60006 8/500 90900 333 91025=
07222,1996-02-19 12:00:00,4,1006.3,3.5,70,-1,20000,22.224,,,10,,,,,,,,,,,wg-a,,,,AAXX 19124 07222 12570 60112 10040 21010 30031 40063 51035 60006 86/00 91200=
07222,1996-02-19 15:00:00,4,1008.6,2.3,60,-3,20000,22.224,,,360,,,,,,,,,,,wg-a,,,,AAXX 19154 07222 12670 73612 10040 21030 30054 40086 53023 60006 87800 91500=
07222,1996-02-19 18:00:00,2,1011,2.4,55,-6,20000,18.52,,40.744,350,2,5.1,,,,,,,,,wg-a,,,,AAXX 19184 07222 12670 23510 10020 21060 30078 40110 51024 60006 82500 91800 333 10051 20020 91022=
07222,1996-02-19 21:00:00,1,1012.8,1.7,75,-3,20000,14.816,,,320,,,,,,,,,,,wg-a,,,,AAXX 19214 07222 12770 13208 10010 21030 30095 40128 53017 60006 81500 92100=
07222,1996-02-20 00:00:00,0,1012.5,-0.3,93,-1,10000,11.112,,,310,,,,,,,,,,26,wg-a,,,,AAXX 20004 07222 02560 73106 10000 21010 30092 40125 58003 61000 72611 87500 90000 333 ////=
07222,1996-02-20 03:00:00,-2,1012.8,0.3,93,-3,10000,11.112,,,330,,,,,,,,,,,wg-a,,,,AAXX 20034 07222 12660 /3306 11020 21030 30095 40128 50003 60006 81200 90300=
07222,1996-02-20 06:00:00,-2,1012.6,-0.2,93,-3,10000,14.816,,,310,-2.4,2.3,,,,,,,,,wg-a,,0,,AAXX 20064 07222 02560 23108 11020 21030 30093 40126 58002 61000 82800 90600 333 10023 21024 4/9999 ////=
07222,1996-02-20 09:00:00,0,1013.2,0.6,100,0,4000,22.224,,,10,,,,,,,,,,,wg-a,,,,AAXX 20094 07222 32/40 /0112 10000 20000 30099 40132 53006 90900=
07222,1996-02-20 12:00:00,2,1015.9,2.7,80,-1,8000,25.928,,,30,,,,0,,,,,,70,wg-a,,,,AAXX 20124 07222 02458 70314 10020 21010 30126 40159 51027 60006 77071 875// 91200 333 60007=
07222,1996-02-20 15:00:00,2,1016.9,1,75,-2,15000,31.484,,55.56,10,,,,,,,,,,3,wg-a,,,,AAXX 20154 07222 02465 70117 10020 21020 30136 40169 53010 61000 70372 87800 91500 333 //// 91030=
07222,1996-02-20 18:00:00,1,1018.6,1.7,80,-2,10000,22.224,,42.596,10,-2.2,3.4,,,,,,,,22,wg-a,,,,AAXX 20184 07222 02460 80112 10010 21020 30153 40186 53017 61000 72272 885// 91800 333 10034 21022 //// 91023=
07222,1996-02-20 21:00:00,1,1019.6,1,86,-1,500,18.52,,38.892,20,,,,,,,,,,71,wg-a,,,,AAXX 20214 07222 02400 70210 10010 21010 30163 40196 51010 61000 77172 875// 92100 333 //// 91021=
07222,1996-02-21 00:00:00,1,1020.1,0.5,75,-3,10000,25.928,,48.152,30,,,,,,,,,,1,wg-a,,,,AAXX 21004 07222 02560 70314 10010 21030 30168 40201 51005 61000 70172 875// 90000 333 6100 91026=
07222,1996-02-21 03:00:00,0,1020.4,0.3,80,-3,10000,22.224,,,30,,,,,,,,,,,wg-a,,,,AAXX 21034 07222 12460 70312 10000 21030 30171 40204 53003 60006 875// 90300=
07222,1996-02-21 06:00:00,-1,1021,0.6,69,-6,10000,18.52,,,30,-1.2,0.8,,,,,,,,,wg-a,,,,AAXX 21064 07222 12560 70310 11010 21060 30177 40210 53006 60004 875// 90600 333 10008 21012=
07222,1996-02-21 09:00:00,-1,1022.5,1.5,46,-11,15000,22.224,,50.004,30,,,,,,,,,,,wg-a,,,,AAXX 21094 07222 12/65 00312 11010 21110 30192 40225 53015 60006 80000 90900 333 91027=
07222,1996-02-21 12:00:00,2,1022.5,0,40,-10,15000,31.484,,48.152,30,,,,,,,,,,,wg-a,,,,AAXX 21124 07222 12/65 00317 10020 21100 30192 40225 50000 60006 80000 91200 333 91026=
07222,1996-02-21 15:00:00,3,1022.6,0.1,48,-7,15000,25.928,,,30,,,,,,,,,,,wg-a,,,,AAXX 21154 07222 12665 /0314 10030 21070 30193 40226 53001 60006 81100 91500=
07222,1996-02-21 18:00:00,0,1024.2,1.6,69,-5,12000,18.52,,,360,-2.5,3.2,,,,,,,,,wg-a,,,,AAXX 21184 07222 12662 /3610 10000 21050 30209 40242 53016 60006 81100 91800 333 10032 21025=
07222,1996-02-22 00:00:00,-2,1026.7,0.7,86,-4,10000,7.408,,,330,,,,,,,,,,,wg-a,,,,AAXX 22004 07222 12660 33304 11020 21040 30234 40267 51007 60006 83500 90000=
07222,1996-02-22 03:00:00,-3,1026.5,-0.3,93,-4,12000,11.112,,,320,,,,,,,,,,,wg-a,,,,AAXX 22034 07222 12662 /3206 11030 21040 30231 40265 58003 60006 81500 90300=
07222,1996-02-22 06:00:00,-4,1026.4,-0.1,93,-5,10000,3.704,,,300,-4.1,0,,,,,,,,,wg-a,,,,AAXX 22064 07222 02760 13002 11040 21050 30230 40264 57001 60006 81500 90600 333 10000 21041 60004=
07222,1996-02-22 09:00:00,-1,1026.6,0.3,93,-2,3000,3.704,,,180,,,,,,,,,,70,wg-a,,,,AAXX 22094 07222 02430 81802 11010 21020 30233 40266 50003 61000 77071 875// 90900 333 ////=
07222,1996-02-22 12:00:00,1,1025,-1.6,100,1,3500,14.816,,,180,,,,1,,,,,,10,wg-a,,,,AAXX 22124 07222 02235 81808 10010 20010 30217 40250 58016 60016 71071 875// 91200 333 60017=
07222,1996-02-22 15:00:00,5,1021.7,-3.2,100,5,6000,11.112,,,210,,,,2,,,,,,61,wg-a,,,,AAXX 22154 07222 12456 82106 10050 20050 30185 40217 56032 60027 76166 875// 91500=
07222,1996-02-22 18:00:00,6,1019.5,-2.2,100,6,500,3.704,,,210,-3.9,5.8,,0,,,,,,51,wg-a,,,,AAXX 22184 07222 12100 82102 10060 20060 30163 40195 56022 60007 75165 875// 91800 333 10058 21039=
07222,1996-02-22 21:00:00,6,1018.9,-0.6,93,5,7000,11.112,,,320,,,,1,,,,,,21,wg-a,,,,AAXX 22214 07222 12557 /3206 10060 20050 30157 40189 56006 60017 72165 84500 92100=
07222,1996-02-23 00:00:00,3,1018.9,-0.1,100,3,10000,11.112,,,300,,,,,,,,,,2,wg-a,,,,AAXX 23004 07222 12/60 03006 10030 20030 30156 40189 56001 60016 70265 80000 90000=
07222,1996-02-23 03:00:00,2,1018.4,-0.5,93,1,10000,11.112,,,300,,,,,,,,,,,wg-a,,,,AAXX 23034 07222 12760 43006 10020 20010 30151 40184 57005 60006 84500 90300=
07222,1996-02-23 06:00:00,2,1018.2,-0.2,100,2,10000,7.408,,,300,1.9,6.2,,,,,3,,,,wg-a,,,,AAXX 23064 07222 12660 73004 10020 20020 30149 40182 55002 60034 87500 90600 333 10062 20019=
07222,1996-02-23 09:00:00,4,1018.7,0.5,93,3,9000,3.704,,,290,,,,,,,,,,,wg-a,,,,AAXX 23094 07222 12659 72902 10040 20030 30154 40187 52005 60006 875// 90900=
07222,1996-02-23 12:00:00,8,1018,-0.6,71,3,15000,11.112,,,290,,,,,,,,,,,wg-a,,,,AAXX 23124 07222 12565 72906 10080 20030 30148 40180 58006 60006 878// 91200=
07222,1996-02-23 15:00:00,9,1016.7,-1.3,66,3,15000,14.816,,,250,,,,,,,,,,,wg-a,,,,AAXX 23154 07222 12565 72508 10090 20030 30135 40167 56013 60006 878// 91500=
07222,1996-02-23 18:00:00,7,1016.2,-0.5,87,5,15000,14.816,,,210,1.6,9.5,,,,,,,,,wg-a,,,,AAXX 23184 07222 12665 72108 10070 20050 30130 40162 56005 60006 875// 91800 333 10095 20016=
07222,1996-02-23 21:00:00,7,1015.6,-0.6,93,6,15000,14.816,,,190,,,,0,,,,,,3,wg-a,,,,AAXX 23214 07222 12465 71908 10070 20060 30124 40156 58006 60007 70365 875// 92100=
07222,1996-02-24 00:00:00,7,1014.3,-1.3,100,7,0,18.52,,,190,,,,,,,,,,3,wg-a,,,,AAXX 24004 07222 12/// /1910 10070 20070 30111 40143 56013 60016 70365 90000=
07222,1996-02-24 03:00:00,8,1012.2,-2.1,100,8,12000,18.52,,,200,,,,2,,,,,,60,wg-a,,,,AAXX 24034 07222 12462 82010 10080 20080 30090 40122 58021 60027 76062 875// 90300=
07222,1996-02-24 06:00:00,8,1010.6,-1.6,93,7,12000,18.52,,,200,6.5,8,,1,,,3,,,21,wg-a,,,,AAXX 24064 07222 02462 82010 10080 20070 30074 40106 56016 60034 72162 8657/ 90600 333 10080 20065 60017=
07222,1996-02-24 09:00:00,9,1009.3,-1.3,93,8,20000,22.224,,,200,,,,1,,,,,,,wg-a,,,,AAXX 24094 07222 12570 72012 10090 20080 30061 40093 56013 60017 8683/ 90900=
07222,1996-02-24 12:00:00,10,1008.1,-1.1,93,9,20000,29.632,,,210,,,,0,,,,,,21,wg-a,,,,AAXX 24124 07222 02570 72116 10100 20090 30050 40081 57011 60016 72122 878// 91200 333 60007=
07222,1996-02-24 15:00:00,10,1006.3,-1.8,87,8,12000,31.484,,,210,,,,,,,,,,21,wg-a,,,,AAXX 24154 07222 02462 82117 10100 20080 30032 40063 56018 61000 72162 878// 91500 333 ////=
07222,1996-02-24 18:00:00,10,1005.2,-1.1,87,8,8000,35.188,,,210,7.6,11.3,,1,,,,,,61,wg-a,,,,AAXX 24184 07222 12458 82119 10100 20080 30021 40052 56011 60017 76162 878// 91800 333 10113 20076=
07222,1996-02-24 21:00:00,9,1004.4,-0.8,93,8,8000,31.484,,,210,,,,1,,,,,,62,wg-a,,,,AAXX 24214 07222 12358 82117 10090 20080 30013 40044 58008 60017 76262 875// 92100=
07222,1996-02-25 00:00:00,9,1004,-0.4,93,8,8000,31.484,,53.708,220,,,,1,,,,,,61,wg-a,,,,AAXX 25004 07222 02458 82217 10090 20080 30009 40040 58004 60026 76162 885// 90000 333 60017 91029=
07222,1996-02-25 03:00:00,8,1003.1,-0.9,100,8,10000,14.816,,,210,,,,6,,,,,,62,wg-a,,,,AAXX 25034 07222 12460 82108 10080 20080 30000 40031 58009 60067 76266 885// 90300=
07222,1996-02-25 06:00:00,10,1001.8,-1.3,87,8,8000,31.484,,,200,8.2,10.2,,4,,,14,,,21,wg-a,,,,AAXX 25064 07222 02458 82017 10100 20080 39987 40018 56013 60144 72162 885// 90600 333 10102 20082 60047=
07222,1996-02-25 09:00:00,10,1001.7,-0.1,93,9,8000,35.188,,,200,,,,3,,,,,,60,wg-a,,,,AAXX 25094 07222 12558 82019 10100 20090 39986 40017 58001 60037 76062 875// 90900=
07222,1996-02-25 12:00:00,8,1002.4,0.7,93,7,500,29.632,,51.856,240,,,,5,,,,,,63,wg-a,,,,AAXX 25124 07222 02400 82416 10080 20070 39993 40024 50007 60096 76362 875// 91200 333 60057 91028=
07222,1996-02-25 14:00:00,8,1001.7,-0.7,100,8,6000,25.928,,,250,,,,5,,,,,,61,wg-a,,,,AAXX 25144 07222 12256 82514 10080 20080 39986 40017 58007 60057 76162 875// 91400=
07222,1996-02-25 15:00:00,8,1001.7,-0.7,100,8,6000,25.928,,44.448,250,,,,5,,,,,,61,wg-a,,,,AAXX 25154 07222 12256 82514 10080 20080 39986 40017 58007 60057 76162 875// 91500 333 91024=
07222,1996-02-25 18:00:00,7,1003,1.2,93,6,500,11.112,,,260,7,10.3,,7,,,,,,63,wg-a,,,,AAXX 25184 07222 12500 82606 10070 20060 39998 40030 53012 60077 76362 875// 91800 333 10103 20070=
07222,1996-02-25 21:00:00,6,1004.4,1.4,93,5,8000,11.112,,,180,,,,5,,,,,,61,wg-a,,,,AAXX 25214 07222 12558 81806 10060 20050 30012 40044 52014 60057 76166 875// 92100=
07222,1996-02-26 00:00:00,5,1005.6,1.2,100,5,10000,7.408,,,150,,,,6,,,,,,61,wg-a,,,,AAXX 26004 07222 02560 81504 10050 20050 30024 40056 53012 60116 76162 875// 90000 333 60067=
07222,1996-02-26 03:00:00,5,1006.4,0.8,100,5,12000,3.704,,,240,,,,1,,,,,,61,wg-a,,,,AAXX 26034 07222 12562 82402 10050 20050 30032 40064 53008 60017 76162 875// 90300=
07222,1996-02-26 06:00:00,3,1008,1.6,100,3,10000,11.112,,,150,3.2,7.1,,,,,33,,,,wg-a,,,,AAXX 26064 07222 02/60 /1506 10030 20030 30048 40080 53016 60334 90600 333 10071 20032 61000=
07222,1996-02-26 09:00:00,5,1010.6,2.6,100,5,15000,0,,,0,,,,,,,,,,,wg-a,,,,AAXX 26094 07222 12465 /0000 10050 20050 30074 40106 53026 60006 86800 90900=
07222,1996-02-26 12:00:00,8,1011.8,1.2,76,4,20000,7.408,,,270,,,,,,,,,,,wg-a,,,,AAXX 26124 07222 32470 /2704 10080 20040 30086 40118 51012 82801 91200=
07222,1996-02-26 15:00:00,10,1011.9,0.1,62,3,500,11.112,,,230,,,,,,,,,,,wg-a,,,,AAXX 26154 07222 12500 52306 10100 20030 30087 40119 52001 60006 83201 91500=
07222,1996-02-26 18:00:00,8,1013.5,1.6,71,3,500,7.408,,,280,2.6,10.3,,,,,,,,,wg-a,,,,AAXX 26184 07222 32500 /2804 10080 20030 30103 40135 53016 81200 91800 333 10103 20026=
07222,1996-02-26 21:00:00,4,1015.2,1.7,93,3,20000,3.704,,,330,,,,,,,,,,,wg-a,,,,AAXX 26214 07222 12/70 03302 10040 20030 30120 40152 51017 60006 80000 92100=
07222,1996-02-27 00:00:00,2,1016.3,1,100,2,15000,3.704,,,140,,,,,,,,,,,wg-a,,,,AAXX 27004 07222 12/65 01402 10020 20020 30130 40163 52010 60006 80000 90000=
07222,1996-02-27 03:00:00,0,1016.8,0.5,100,0,500,0,,,0,,,,,,,,,,11,wg-a,,,,AAXX 27034 07222 12/00 00000 10000 20000 30135 40168 50005 60006 71100 80000 90300=
07222,1996-02-27 06:00:00,0,1017.5,0.7,93,-1,8000,3.704,,,120,-0.6,7.6,,,,,,,,,wg-a,,,,AAXX 27064 07222 12/58 01202 10000 21010 30142 40175 53007 60006 80000 90600 333 10076 21006=
07222,1996-02-27 09:00:00,4,1018.9,1.4,100,4,10000,3.704,,,100,,,,0,,,,,,,wg-a,,,,AAXX 27094 07222 12560 /1002 10040 20040 30156 40189 51014 60007 81800 90900=
07222,1996-02-27 12:00:00,10,1018.9,0.1,62,3,0,11.112,,,160,,,,,,,,,,,wg-a,,,,AAXX 27124 07222 125// 31606 10100 20030 30157 40189 50001 60006 83101 91200=
07222,1996-02-27 18:00:00,8,1019,0.8,66,2,20000,11.112,,,110,-0.6,11.3,,,,,,,,,wg-a,,,,AAXX 27184 07222 32670 31106 10080 20020 30158 40190 53008 83101 91800 333 10113 21006=
07222,1996-02-27 21:00:00,5,1020.1,1.1,81,2,20000,3.704,,,80,,,,,,,,,,,wg-a,,,,AAXX 27214 07222 12/70 00802 10050 20020 30169 40201 51011 60006 80000 92100=
07222,1996-02-28 00:00:00,2,1020.6,0.4,93,1,20000,3.704,,,40,,,,,,,,,,,wg-a,,,,AAXX 28004 07222 12/70 00402 10020 20010 30173 40206 51004 60006 80000 90000=
07222,1996-02-28 03:00:00,2,1020.4,-0.2,93,1,20000,7.408,,,50,,,,,,,,,,,wg-a,,,,AAXX 28034 07222 12/70 00504 10020 20010 30171 40204 58002 60006 80000 90300=
07222,1996-02-28 06:00:00,2,1021.3,0.9,93,1,8000,11.112,,,40,0.7,7.9,,,,,,,,,wg-a,,,,AAXX 28064 07222 02/58 00406 10020 20010 30180 40213 53009 60006 80000 90600 333 10079 20007 60004=
07222,1996-02-28 09:00:00,4,1023,1.7,87,2,6000,14.816,,,50,,,,,,,,,,,wg-a,,,,AAXX 28094 07222 12/56 20508 10040 20020 30197 40230 51017 60006 80001 90900=
07222,1996-02-28 12:00:00,7,1023.6,0.7,81,4,6000,18.52,,,50,,,,,,,,,,,wg-a,,,,AAXX 28124 07222 12456 /0510 10070 20040 30204 40236 51007 60006 86500 91200=
07222,1996-02-28 15:00:00,5,1024,0.4,93,4,6000,22.224,,,70,,,,,,,,,,,wg-a,,,,AAXX 28154 07222 12356 70712 10050 20040 30208 40240 51004 60006 876// 91500=
07222,1996-02-28 18:00:00,5,1025.1,1,87,3,8000,3.704,,,120,2,7.3,,,,,,,,,wg-a,,,,AAXX 28184 07222 12758 /1202 10050 20030 30218 40251 53010 60006 81500 91800 333 10073 20020=
07222,1996-02-28 21:00:00,3,1026.4,1.3,93,2,500,3.704,,,30,,,,,,,,,,,wg-a,,,,AAXX 28214 07222 12600 /0302 10030 20020 30231 40264 51013 60006 85500 92100=
07222,1996-02-29 03:00:00,4,1026.4,-0.5,93,3,6000,14.816,,,20,,,,,,,,,,,wg-a,,,,AAXX 29034 07222 12556 70208 10040 20030 30231 40264 58005 60006 875// 90300=
07222,1996-02-29 06:00:00,5,1026.8,0.4,87,3,6000,11.112,,,40,1.9,4.9,,,,,,,,,wg-a,,,,AAXX 29064 07222 02456 70406 10050 20030 30235 40268 53004 60006 875// 90600 333 10049 20019 60004=
07222,1996-02-29 09:00:00,5,1028.1,1.3,81,2,8000,14.816,,,40,,,,,,,,,,,wg-a,,,,AAXX 29094 07222 12558 70408 10050 20020 30248 40281 53013 60006 875// 90900=
07222,1996-02-29 12:00:00,7,1028.9,0.9,81,4,7000,18.52,,,40,,,,,,,,,,,wg-a,,,,AAXX 29124 07222 12457 70410 10070 20040 30257 40289 51009 60006 875// 91200=
07222,1996-02-29 15:00:00,8,1028.4,-0.5,76,4,6000,14.816,,,50,,,,,,,,,,,wg-a,,,,AAXX 29154 07222 12556 /0508 10080 20040 30252 40284 56005 60006 86500 91500=
07222,1996-02-29 18:00:00,7,1029.5,1.1,81,4,4000,11.112,,,20,4.7,8.5,,,,,,,,10,wg-a,,,,AAXX 29184 07222 12/40 00206 10070 20040 30263 40295 53011 60006 71011 80000 91800 333 10085 20047=
07222,1996-02-29 21:00:00,6,1030.6,1,87,4,500,11.112,,,30,,,,,,,,,,,wg-a,,,,AAXX 29214 07222 12/00 00306 10060 20040 30273 40306 51010 60006 80000 92100=
07222,1996-03-01 00:00:00,5,1031.6,1,87,3,500,11.112,,,30,,,,,,,,,,,wg-a,,,,AAXX 01004 07222 12/00 00306 10050 20030 30283 40316 51010 60006 80000 90000=
07222,1996-03-01 03:00:00,3,1031.9,0.3,93,2,500,11.112,,,30,,,,,,,,,,,wg-a,,,,AAXX 01034 07222 12/00 00306 10030 20020 30286 40319 51003 60006 80000 90300=
07222,1996-03-01 06:00:00,3,1032.7,0.8,81,0,9000,11.112,,,20,2.1,6.9,,,,,,,,,wg-a,,,,AAXX 01064 07222 02759 40206 10030 20000 30294 40327 53008 60006 8153/ 90600 333 10069 20021 60004=
07222,1996-03-01 09:00:00,6,1033.7,1,75,2,12000,11.112,,,30,,,,,,,,,,,wg-a,,,,AAXX 01094 07222 12762 10306 10060 20020 30304 40337 51010 60006 81500 90900=
07222,1996-03-01 12:00:00,10,1032.9,-0.7,66,4,15000,18.52,,,50,,,,,,,,,,,wg-a,,,,AAXX 01124 07222 12565 20510 10100 20040 30297 40329 58007 60006 82800 91200=
07222,1996-03-01 15:00:00,11,1030.9,-2,66,5,15000,14.816,,,30,,,,,,,,,,,wg-a,,,,AAXX 01154 07222 12565 /0308 10110 20050 30277 40309 58020 60006 86500 91500=
07222,1996-03-01 18:00:00,8,1030.6,-0.3,76,4,12000,14.816,,,350,1.8,11.6,,,,,,,,,wg-a,,,,AAXX 01184 07222 12662 /3508 10080 20040 30274 40306 55003 60006 81400 91800 333 10116 20018=
07222,1996-03-01 19:00:00,8,1030.6,,76,4,12000,14.816,,,350,1.8,11.6,,,,,,,,,wg-a,,,,AAXX 01194 07222 12662 13508 10080 20040 30274 40306 60006 81400 91900 333 10116 20018=
07222,1996-03-01 21:00:00,6,1030.3,-0.4,87,4,10000,14.816,,,350,,,,,,,,,,,wg-a,,,,AAXX 01214 07222 12760 23508 10060 20040 30270 40303 56004 60006 82500 92100=
07222,1996-03-02 00:00:00,6,1029.5,-0.8,87,4,10000,11.112,,,350,,,,,,,,,,,wg-a,,,,AAXX 02004 07222 12560 73506 10060 20040 30262 40295 58008 60006 875// 90000=
07222,1996-03-02 03:00:00,6,1027.7,-1.8,87,4,8000,14.816,,,10,,,,,,,,,,,wg-a,,,,AAXX 02034 07222 12558 70108 10060 20040 30244 40277 58018 60006 875// 90300=
07222,1996-03-02 06:00:00,6,1027.1,-0.6,87,4,8000,11.112,,,360,5.4,8.3,,,,,,,,,wg-a,,,,AAXX 02064 07222 02558 73606 10060 20040 30238 40271 56006 60006 875// 90600 333 10083 20054 60004=
07222,1996-03-02 12:00:00,7,1026.9,-0.4,70,2,15000,18.52,,35.188,40,,,,0,,,,,,3,wg-a,,,,AAXX 02124 07222 02565 70410 10070 20020 30237 40269 58004 60006 70362 872// 91200 333 60007 91019=
07222,1996-03-02 15:00:00,8,1025.4,-1.5,57,0,20000,18.52,,,30,,,,,,,,,,,wg-a,,,,AAXX 02154 07222 12770 20310 10080 20000 30222 40254 56015 60006 821// 91500=
07222,1996-03-02 18:00:00,6,1025.6,0.1,61,-1,20000,11.112,,,40,4.9,8.4,,,,,,,,,wg-a,,,,AAXX 02184 07222 32/70 10406 10060 21010 30223 40256 53001 80001 91800 333 10084 20049=
07222,1996-03-02 21:00:00,3,1025.8,0.2,75,-1,20000,11.112,,,30,,,,,,,,,,,wg-a,,,,AAXX 02214 07222 12/70 10306 10030 21010 30225 40258 53002 60006 80001 92100=
07222,1996-03-03 00:00:00,1,1024.9,-0.9,86,-1,15000,7.408,,,10,,,,,,,,,,,wg-a,,,,AAXX 03004 07222 12/65 40104 10010 21010 30216 40249 58009 60006 83031 90000=
07222,1996-03-03 03:00:00,1,1023.2,-1.7,93,0,15000,3.704,,,340,,,,,,,,,,,wg-a,,,,AAXX 03034 07222 12/65 73402 10010 20000 30199 40232 58017 60006 85052 90300=
07222,1996-03-03 06:00:00,1,1022.3,-0.9,100,1,8000,3.704,,,230,0.7,5.6,,0,,,,,,60,wg-a,,,,AAXX 03064 07222 02558 82302 10010 20010 30190 40223 58009 60004 76061 875// 90600 333 10056 20007 60007=
07222,1996-03-03 09:00:00,2,1022.2,-0.1,100,2,6000,11.112,,,280,,,,,,,,,,,wg-a,,,,AAXX 03094 07222 32/56 /2806 10020 20020 30189 40222 56001 90900=
07222,1996-03-03 12:00:00,5,1021.7,-0.4,93,4,6000,7.408,,,300,,,,0,,,,,,21,wg-a,,,,AAXX 03124 07222 02356 83004 10050 20040 30185 40217 58004 60016 72162 887// 91200 333 60007=
07222,1996-03-03 15:00:00,7,1020.8,-0.9,87,5,8000,7.408,,,40,,,,,,,,,,,wg-a,,,,AAXX 03154 07222 12458 80404 10070 20050 30176 40208 56009 60006 885// 91500=
07222,1996-03-03 18:00:00,7,1021.2,0.4,87,5,8000,11.112,,,350,1.2,7.7,,,,,,,,,wg-a,,,,AAXX 03184 07222 32558 83506 10070 20050 30180 40212 53004 885// 91800 333 10077 20012=
07222,1996-03-03 21:00:00,7,1021.5,0.3,87,5,7000,11.112,,,10,,,,,,,,,,,wg-a,,,,AAXX 03214 07222 12757 80106 10070 20050 30183 40215 51003 60006 875// 92100=
07222,1996-03-04 00:00:00,5,1021.7,0.2,93,4,7000,7.408,,,330,,,,,,,,,,1,wg-a,,,,AAXX 04004 07222 02757 43304 10050 20040 30185 40217 51002 61000 70161 84500 90000 333 6100=
07222,1996-03-04 03:00:00,5,1021.2,-0.5,87,3,8000,7.408,,,20,,,,,,,,,,,wg-a,,,,AAXX 04034 07222 12658 80204 10050 20030 30180 40212 58005 60006 875// 90300=
07222,1996-03-04 06:00:00,4,1022.1,0.8,93,3,10000,7.408,,,40,4.2,6.8,,,,,,,,,wg-a,,,,AAXX 04064 07222 12360 80404 10040 20030 30188 40221 51008 60004 876// 90600 333 10068 20042=
07222,1996-03-04 09:00:00,5,1023.7,1.7,87,3,7000,7.408,,,40,,,,,,,,,,,wg-a,,,,AAXX 04094 07222 12457 70404 10050 20030 30205 40237 51017 60006 875// 90900=
07222,1996-03-04 12:00:00,5,1023.9,0.2,81,2,9000,11.112,,,70,,,,,,,,,,,wg-a,,,,AAXX 04124 07222 12459 70706 10050 20020 30207 40239 50002 60006 875// 91200=
07222,1996-03-04 15:00:00,7,1023.4,-0.5,66,1,12000,14.816,,,70,,,,,,,,,,,wg-a,,,,AAXX 04154 07222 12562 70708 10070 20010 30202 40234 58005 60006 875// 91500=
07222,1996-03-04 18:00:00,6,1024,0.6,70,1,500,3.704,,,80,4.2,7.1,,,,,,,,,wg-a,,,,AAXX 04184 07222 12700 /0802 10060 20010 30208 40240 53006 60006 85500 91800 333 10071 20042=
07222,1996-03-04 21:00:00,6,1025.1,1.1,87,4,9000,11.112,,,20,,,,,,,,,,,wg-a,,,,AAXX 04214 07222 12659 70206 10060 20040 30219 40251 51011 60006 875// 92100=
07222,1996-03-05 00:00:00,6,1025.8,0.7,87,4,10000,7.408,,,20,,,,,,,,,,,wg-a,,,,AAXX 05004 07222 12460 70204 10060 20040 30226 40258 53007 60006 875// 90000=
07222,1996-03-05 03:00:00,5,1026,0.1,93,4,9000,7.408,,,350,,,,,,,,,,,wg-a,,,,AAXX 05034 07222 12659 73504 10050 20040 30227 40260 50001 60006 875// 90300=
07222,1996-03-05 06:00:00,5,1026.9,0.9,93,4,7000,7.408,,,350,4.4,6.2,,,,,,,,,wg-a,,,,AAXX 05064 07222 02657 73504 10050 20040 30236 40269 53009 60006 875// 90600 333 10062 20044 60004=
07222,1996-03-05 12:00:00,8,1027.8,-0.1,71,3,10000,11.112,,,40,,,,,,,,,,,wg-a,,,,AAXX 05124 07222 12560 70406 10080 20030 30246 40278 58001 60006 878// 91200=
07222,1996-03-05 15:00:00,9,1027.1,-0.7,61,2,12000,11.112,,,60,,,,,,,,,,,wg-a,,,,AAXX 05154 07222 12562 70606 10090 20020 30239 40271 58007 60006 878// 91500=
07222,1996-03-05 18:00:00,8,1027.6,0.5,66,2,10000,7.408,,,70,4.8,9,,,,,,,,,wg-a,,,,AAXX 05184 07222 12660 70704 10080 20020 30244 40276 53005 60006 875// 91800 333 10090 20048=
07222,1996-03-05 21:00:00,7,1028.1,0.5,76,3,10000,7.408,,,30,,,,,,,,,,,wg-a,,,,AAXX 05214 07222 12660 70304 10070 20030 30249 40281 53005 60006 875// 92100=
07222,1996-03-06 00:00:00,6,1027.8,-0.3,81,3,7000,7.408,,,30,,,,,,,,,,,wg-a,,,,AAXX 06004 07222 12657 70304 10060 20030 30246 40278 58003 60006 875// 90000=
07222,1996-03-06 03:00:00,6,1027,-0.9,81,3,8000,14.816,,,50,,,,,,,,,,,wg-a,,,,AAXX 06034 07222 12558 70508 10060 20030 30237 40270 58009 60006 875// 90300=
07222,1996-03-06 06:00:00,5,1026.9,-0.1,81,2,10000,11.112,,,40,5,7.7,,,,,,,,,wg-a,,,,AAXX 06064 07222 02660 70406 10050 20020 30236 40269 58001 60006 875// 90600 333 10077 20050 60004=
07222,1996-03-06 09:00:00,5,1026.7,-0.2,75,1,12000,22.224,,,50,,,,,,,,,,,wg-a,,,,AAXX 06094 07222 12662 80512 10050 20010 30234 40267 58002 60006 885// 90900=
07222,1996-03-06 12:00:00,7,1025.3,-1.3,66,1,15000,22.224,,,60,,,,,,,,,,,wg-a,,,,AAXX 06124 07222 12565 70612 10070 20010 30221 40253 56013 60006 87800 91200=
07222,1996-03-06 15:00:00,6,1023.6,-1.7,65,0,15000,22.224,,,60,,,,,,,,,,,wg-a,,,,AAXX 06154 07222 12565 80612 10060 20000 30204 40236 57017 60006 885// 91500=
07222,1996-03-06 18:00:00,5,1023.3,-0.4,65,-1,12000,22.224,,,50,,,,,,,,,,,wg-a,,,,AAXX 06184 07222 12562 80512 10050 21010 30200 40233 55004 60006 885// 91800=
07222,1996-03-06 21:00:00,4,1023.1,-0.2,70,-1,12000,14.816,,,70,,,,,,,,,,,wg-a,,,,AAXX 06214 07222 12662 80708 10040 21010 30198 40231 58002 60006 885// 92100=
07222,1996-03-07 00:00:00,4,1021.8,-1.3,75,0,12000,14.816,,,60,,,,,,,,,,,wg-a,,,,AAXX 07004 07222 12662 80608 10040 20000 30185 40218 58013 60006 885// 90000=
07222,1996-03-07 03:00:00,2,1019.4,-2.4,87,0,10000,11.112,,,30,,,,,,,,,,,wg-a,,,,AAXX 07034 07222 12/60 00306 10020 20000 30161 40194 58024 60006 80000 90300=
07222,1996-03-07 06:00:00,3,1017.8,-1.6,87,1,8000,11.112,,,30,0.5,5.1,,,,,,,,,wg-a,,,,AAXX 07064 07222 02658 /0306 10030 20010 30145 40178 58016 60006 86500 90600 333 10051 20005 60004=
07222,1996-03-07 09:00:00,5,1016.5,-1.2,87,3,8000,11.112,,,30,,,,,,,,,,,wg-a,,,,AAXX 07094 07222 12558 70306 10050 20030 30133 40165 58012 60006 875// 90900=
07222,1996-03-07 12:00:00,6,1014.9,-1.6,70,1,10000,18.52,,,50,,,,,,,,,,,wg-a,,,,AAXX 07124 07222 12560 70510 10060 20010 30117 40149 56016 60006 878// 91200=
07222,1996-03-07 15:00:00,7,1012.3,-2.6,66,1,12000,14.816,,,20,,,,,,,,,,,wg-a,,,,AAXX 07154 07222 12662 50208 10070 20010 30091 40123 56026 60006 85800 91500=
07222,1996-03-07 18:00:00,5,1012.4,0.1,81,2,10000,7.408,,,360,2.6,8,,,,,,,,1,wg-a,,,,AAXX 07184 07222 02660 73604 10050 20020 30092 40124 53001 61000 70186 875// 91800 333 10080 20026 ////=
07222,1996-03-07 21:00:00,4,1012.5,0.1,87,2,8000,7.408,,,50,,,,,,,,,,25,wg-a,,,,AAXX 07214 07222 02558 70504 10040 20020 30093 40125 50001 61000 72522 875// 92100 333 ////=
07222,1996-03-08 00:00:00,1,1012.7,0.1,93,0,10000,11.112,,,100,,,,,,,,,,,wg-a,,,,AAXX 08004 07222 12560 /1006 10010 20000 30094 40127 51001 60006 81500 90000=
07222,1996-03-08 03:00:00,0,1012.2,-0.5,93,-1,8000,11.112,,,100,,,,,,,,,,,wg-a,,,,AAXX 08034 07222 12/58 01006 10000 21010 30089 40122 58005 60006 80000 90300=
07222,1996-03-08 06:00:00,-2,1012.8,0.6,100,-2,6000,7.408,,,80,-1.6,4.7,,,,,,,,,wg-a,,,,AAXX 08064 07222 02/56 00804 11020 21020 30095 40128 53006 60006 80000 90600 333 10047 21016 61000=
07222,1996-03-08 09:00:00,3,1013.6,0.9,93,2,7000,14.816,,,160,,,,0,,,,,,,wg-a,,,,AAXX 08094 07222 12757 31608 10030 20020 30104 40136 53009 60007 83500 90900=
07222,1996-03-08 12:00:00,9,1013.6,-0,53,0,10000,18.52,,,180,,,,,,,,,,,wg-a,,,,AAXX 08124 07222 12660 31810 10090 20000 30104 40136 54000 60006 83800 91200=
07222,1996-03-08 15:00:00,7,1013.7,0.1,70,2,10000,14.816,,,260,,,,,,,,,,,wg-a,,,,AAXX 08154 07222 12660 72608 10070 20020 30105 40137 52001 60006 877// 91500=
07222,1996-03-08 18:00:00,7,1014.4,0.7,76,3,7000,7.408,,,150,4.1,,,,,,,,,,wg-a,,,,AAXX 08184 07222 32757 /1504 10070 20030 30112 40144 53007 86500 91800 333 20041=
07222,1996-03-08 21:00:00,6,1015,0.6,81,3,10000,7.408,,,70,,,,,,,,,,,wg-a,,,,AAXX 08214 07222 12760 70704 10060 20030 30118 40150 51006 60006 875// 92100=
07222,1996-03-09 00:00:00,6,1015.2,0.2,93,5,10000,11.112,,,110,,,,0,,,,,,80,wg-a,,,,AAXX 09004 07222 02560 81106 10060 20050 30120 40152 50002 60006 78086 878// 90000 333 60007=
07222,1996-03-09 03:00:00,6,1014.6,-0.6,93,5,10000,11.112,,,70,,,,,,,,,,3,wg-a,,,,AAXX 09034 07222 02660 80706 10060 20050 30114 40146 58006 61000 70386 875// 90300 333 ////=
07222,1996-03-09 12:00:00,13,1014.7,-0.4,67,7,15000,18.52,,,160,,,,,,,,,,,wg-a,,,,AAXX 09124 07222 12765 41610 10130 20070 30116 40147 58004 60006 83530 91200=
07222,1996-03-09 18:00:00,13,1015.5,1.2,67,7,10000,7.408,,,100,5.3,15.7,,,,,,,,,wg-a,,,,AAXX 09184 07222 12/60 01004 10130 20070 30124 40155 53012 60006 80000 91800 333 10157 20053=
07222,1996-03-09 21:00:00,10,1017.1,1.5,76,6,10000,14.816,,,90,,,,,,,,,,,wg-a,,,,AAXX 09214 07222 12/60 00908 10100 20060 30139 40171 53015 60006 80000 92100=
07222,1996-03-10 00:00:00,7,1018.3,1.2,81,4,10000,11.112,,,90,,,,,,,,,,,wg-a,,,,AAXX 10004 07222 12/60 00906 10070 20040 30151 40183 51012 60006 80000 90000=
07222,1996-03-10 03:00:00,7,1019.4,1.1,81,4,10000,7.408,,,50,,,,,,,,,,,wg-a,,,,AAXX 10034 07222 12/60 00504 10070 20040 30162 40194 51011 60006 80000 90300=
07222,1996-03-10 06:00:00,5,1020.5,1.1,87,3,10000,11.112,,,40,3.7,13.1,,,,,,,,,wg-a,,,,AAXX 10064 07222 02/60 10406 10050 20030 30173 40205 53011 60006 80001 90600 333 10131 20037 60004=
07222,1996-03-10 09:00:00,7,1022,1.5,81,4,8000,18.52,,,50,,,,,,,,,,,wg-a,,,,AAXX 10094 07222 12/58 /0510 10070 20040 30188 40220 51015 60006 80001 90900=
07222,1996-03-10 12:00:00,13,1022.3,0.3,54,4,8000,18.52,,,50,,,,,,,,,,,wg-a,,,,AAXX 10124 07222 12/58 30510 10130 20040 30191 40223 50003 60006 80001 91200=
07222,1996-03-10 15:00:00,15,1021.5,-0.7,31,-2,12000,22.224,,,60,,,,,,,,,,,wg-a,,,,AAXX 10154 07222 12/62 00612 10150 21020 30184 40215 57007 60006 80000 91500=
07222,1996-03-10 18:00:00,12,1021.2,-0.4,47,1,10000,14.816,,,20,5.1,15.3,,,,,,,,,wg-a,,,,AAXX 10184 07222 12/60 00208 10120 20010 30180 40212 55004 60006 80000 91800 333 10153 20051=
07222,1996-03-10 21:00:00,9,1022.1,0.9,53,0,10000,14.816,,,30,,,,,,,,,,,wg-a,,,,AAXX 10214 07222 12/60 00308 10090 20000 30189 40221 53009 60006 80000 92100=
07222,1996-03-11 03:00:00,2,1022,-0.4,87,0,6000,7.408,,,20,,,,,,,,,,,wg-a,,,,AAXX 11034 07222 12/56 00204 10020 20000 30187 40220 58004 60006 80000 90300=
07222,1996-03-11 06:00:00,0,1021.6,-0.4,93,-1,4000,7.408,,,20,-0.1,12.4,,,,,,,,10,wg-a,,,,AAXX 11064 07222 02/40 00204 10000 21010 30183 40216 56004 60006 71000 80000 90600 333 10124 21001 60004=
07222,1996-03-11 09:00:00,3,1021.7,0.1,75,-1,4000,7.408,,,30,,,,,,,,,,10,wg-a,,,,AAXX 11094 07222 12/40 20304 10030 21010 30184 40217 52001 60006 71000 80001 90900=
07222,1996-03-11 12:00:00,8,1020.5,-1.1,49,-2,9000,14.816,,,50,,,,,,,,,,,wg-a,,,,AAXX 11124 07222 12/59 00508 10080 21020 30173 40205 58011 60006 80000 91200=
07222,1996-03-11 21:00:00,3,1016.4,-0.5,81,0,7000,3.704,,,300,,,,,,,,,,,wg-a,,,,AAXX 11214 07222 12/57 23002 10030 20000 30131 40164 58005 60006 80001 92100=
07222,1996-03-12 00:00:00,1,1014.7,-1.7,93,0,500,3.704,,,180,,,,,,,,,,,wg-a,,,,AAXX 12004 07222 12/00 31802 10010 20000 30114 40147 56017 60006 80002 90000=
07222,1996-03-12 03:00:00,0,1011.9,-2.8,100,0,500,3.704,,,80,,,,,,,,,,,wg-a,,,,AAXX 12034 07222 12/00 30802 10000 20000 30086 40119 58028 60006 80002 90300=
07222,1996-03-12 06:00:00,1,1010.2,-1.7,86,-1,4000,3.704,,,70,-0.6,8.8,,,,,,,,10,wg-a,,,,AAXX 12064 07222 02/40 /0702 10010 21010 30069 40102 56017 60006 71011 80002 90600 333 10088 21006 60004=
07222,1996-03-12 09:00:00,5,1009.1,-1,75,1,500,11.112,,,110,,,,,,,,,,,wg-a,,,,AAXX 12094 07222 12/00 /1106 10050 20010 30059 40091 58010 60006 80002 90900=
07222,1996-03-12 12:00:00,10,1007.4,-1.6,46,-1,6000,18.52,,,120,,,,,,,,,,,wg-a,,,,AAXX 12124 07222 12/56 /1210 10100 21010 30043 40074 58016 60006 80002 91200=
07222,1996-03-12 15:00:00,11,1004.6,-2.8,43,-1,7000,22.224,,,100,,,,,,,,,,,wg-a,,,,AAXX 12154 07222 12/57 71012 10110 21010 30015 40046 56028 60006 83032 91500=
07222,1996-03-12 18:00:00,7,1003.5,-1.2,61,0,500,25.928,,,80,0.5,11.3,,,,,,,,,wg-a,,,,AAXX 12184 07222 12/00 /0814 10070 20000 30003 40035 56012 60006 91800 333 10113 20005=
07222,1996-03-12 21:00:00,5,1003.2,-0.3,56,-3,8000,22.224,,,80,,,,,,,,,,,wg-a,,,,AAXX 12214 07222 12/58 70812 10050 21030 30000 40032 58003 60006 82032 92100=
07222,1996-03-13 00:00:00,4,1002.1,-1.1,52,-5,10000,25.928,,,90,,,,,,,,,,,wg-a,,,,AAXX 13004 07222 12/60 70914 10040 21050 39989 40021 58011 60006 84032 90000=
07222,1996-03-13 03:00:00,3,1000.9,-1.2,52,-6,12000,25.928,,,80,,,,,,,,,,,wg-a,,,,AAXX 13034 07222 12/62 70814 10030 21060 39977 40009 58012 60006 82032 90300=
07222,1996-03-13 06:00:00,2,1000.5,-0.4,51,-7,15000,22.224,,,80,1.7,7.1,,,,,,,,,wg-a,,,,AAXX 13064 07222 02/65 70812 10020 21070 39973 40005 55004 60006 83032 90600 333 10071 20017 60004=
07222,1996-03-13 09:00:00,3,1000.2,-0.3,48,-7,15000,31.484,,,90,,,,,,,,,,,wg-a,,,,AAXX 13094 07222 12/65 60917 10030 21070 39970 40002 55003 60006 81032 90900=
07222,1996-03-13 12:00:00,7,999,-1.2,45,-4,15000,29.632,,,80,,,,,,,,,,,wg-a,,,,AAXX 13124 07222 12/65 60816 10070 21040 39958 49990 58012 60006 81032 91200=
07222,1996-03-13 15:00:00,9,997.5,-1.4,46,-2,15000,29.632,,,90,,,,,,,,,,,wg-a,,,,AAXX 13154 07222 12/65 60916 10090 21020 39944 49975 56014 60006 81032 91500=
07222,1996-03-13 18:00:00,8,998,0.5,49,-2,12000,22.224,,,80,0.9,9.5,,,,,,,,,wg-a,,,,AAXX 13184 07222 12/62 70812 10080 21020 39949 49980 53005 60006 83055 91800 333 10095 20009=
07222,1996-03-13 21:00:00,6,998.8,0.7,52,-3,12000,18.52,,,90,,,,,,,,,,,wg-a,,,,AAXX 13214 07222 12/62 70910 10060 21030 39956 49988 53007 60006 82031 92100=
07222,1996-03-14 00:00:00,4,998.7,-0.1,60,-3,12000,11.112,,,80,,,,,,,,,,,wg-a,,,,AAXX 14004 07222 12/62 70806 10040 21030 39955 49987 57001 60006 83032 90000=
07222,1996-03-14 03:00:00,3,998.7,-0,70,-2,12000,11.112,,,70,,,,,,,,,,,wg-a,,,,AAXX 14034 07222 12/62 70706 10030 21020 39955 49987 55000 60006 80002 90300=
07222,1996-03-14 06:00:00,3,998.7,-0,87,1,7000,7.408,,,70,2.4,7.8,,0,,,,,,61,wg-a,,,,AAXX 14064 07222 02757 80704 10030 20010 39955 49987 55000 60004 76162 8557/ 90600 333 10078 20024 60007=
07222,1996-03-14 09:00:00,6,999.9,1.2,93,5,3500,7.408,,,100,,,,,,,,,,10,wg-a,,,,AAXX 14094 07222 02335 81004 10060 20050 39967 49999 53012 61000 71062 8557/ 90900 333 ////=
07222,1996-03-14 12:00:00,9,1000.5,0.7,100,9,3500,11.112,,,130,,,,0,,,,,,10,wg-a,,,,AAXX 14124 07222 02335 81306 10090 20090 39974 40005 51007 60016 71062 875// 91200 333 60007=
07222,1996-03-14 15:00:00,11,1000.9,0.4,94,10,7000,11.112,,,180,,,,3,,,,,,21,wg-a,,,,AAXX 14154 07222 12557 81806 10110 20100 39978 40009 53004 60037 72162 8557/ 91500=
07222,1996-03-14 18:00:00,10,1001.8,0.9,82,7,10000,7.408,,,190,3,11.9,,,,,,,,1,wg-a,,,,AAXX 14184 07222 32560 /1904 10100 20070 39987 40018 53009 70162 86800 91800 333 10119 20030=
07222,1996-03-14 21:00:00,8,1003.2,1.4,93,7,8000,7.408,,,290,,,,,,,,,,,wg-a,,,,AAXX 14214 07222 12458 72904 10080 20070 30001 40032 51014 60006 8253/ 92100=
07222,1996-03-15 00:00:00,6,1003.7,0.4,93,5,500,7.408,,,280,,,,,,,,,,,wg-a,,,,AAXX 15004 07222 12500 72804 10060 20050 30005 40037 51004 60006 82530 90000=
07222,1996-03-15 03:00:00,4,1004,0.3,100,4,3000,3.704,,,320,,,,,,,,,,10,wg-a,,,,AAXX 15034 07222 12/30 33202 10040 20040 30008 40040 50003 60006 71011 83030 90300=
07222,1996-03-15 06:00:00,4,1004.7,0.7,100,4,1800,3.704,,,300,3.7,10.2,,0,,,3,,,10,wg-a,,,,AAXX 15064 07222 02718 73002 10040 20040 30015 40047 51007 60034 71011 8453/ 90600 333 10102 20037 60007=
07222,1996-03-15 09:00:00,6,1005.8,1.1,100,6,1500,3.704,,,310,,,,,,,,,,28,wg-a,,,,AAXX 15094 07222 12/15 /3102 10060 20060 30026 40058 51011 60006 72842 81032 90900=
07222,1996-03-15 12:00:00,12,1005.8,0.1,62,5,10000,11.112,,,280,,,,,,,,,,1,wg-a,,,,AAXX 15124 07222 12660 /2806 10120 20050 30027 40058 51001 60006 70142 81102 91200=
07222,1996-03-15 15:00:00,13,1005.4,-0.4,47,2,15000,14.816,,,280,,,,,,,,,,,wg-a,,,,AAXX 15154 07222 12765 22808 10130 20020 30023 40054 55004 60006 82102 91500=
07222,1996-03-15 18:00:00,10,1006.7,1.3,57,2,500,11.112,,,260,3.1,13.4,,,,,,,,,wg-a,,,,AAXX 15184 07222 12/00 32606 10100 20020 30036 40067 53013 60006 82042 91800 333 10134 20031=
07222,1996-03-15 21:00:00,6,1007.1,0.3,87,4,12000,7.408,,,190,,,,,,,,,,,wg-a,,,,AAXX 15214 07222 12/62 31904 10060 20040 30039 40071 51003 60006 80001 92100=
07222,1996-03-16 00:00:00,4,1007.5,0.4,100,4,10000,11.112,,,180,,,,,,,,,,,wg-a,,,,AAXX 16004 07222 12/60 31806 10040 20040 30043 40075 52004 60006 80001 90000=
07222,1996-03-16 03:00:00,4,1008,0.5,100,4,10000,11.112,,,250,,,,,,,,,,,wg-a,,,,AAXX 16034 07222 12460 52506 10040 20040 30048 40080 53005 60006 85500 90300=
07222,1996-03-16 06:00:00,3,1009.1,1.1,100,3,11000,7.408,,,210,2.4,9.7,,0,,,,,,,wg-a,,,,AAXX 16064 07222 02/61 /2104 10030 20030 30059 40091 51011 60004 90600 333 10097 20024 60007=
07222,1996-03-16 09:00:00,7,1011,1.9,100,7,25000,7.408,,,250,,,,,,,,,,,wg-a,,,,AAXX 16094 07222 12575 72504 10070 20070 30078 40110 52019 60006 81231 90900=
07222,1996-03-16 12:00:00,11,1012.1,1.2,66,5,500,25.928,,,290,,,,,,,,,,,wg-a,,,,AAXX 16124 07222 12500 72914 10110 20050 30090 40121 52012 60006 85202 91200=
07222,1996-03-16 15:00:00,12,1012.3,0.2,62,5,500,25.928,,,280,,,,,,,,,,,wg-a,,,,AAXX 16154 07222 12600 /2814 10120 20050 30092 40123 53002 60006 86200 91500=
07222,1996-03-16 18:00:00,9,1014.7,2.3,61,2,500,18.52,,,270,2.4,12,,,,,,,,,wg-a,,,,AAXX 16184 07222 12600 /2710 10090 20020 30115 40147 51023 60006 81200 91800 333 10120 20024=
07222,1996-03-16 21:00:00,5,1016.2,1.5,81,2,500,11.112,,,280,,,,,,,,,,,wg-a,,,,AAXX 16214 07222 12700 12806 10050 20020 30130 40162 51015 60006 81500 92100=
07222,1996-03-17 00:00:00,3,1017.2,0.9,87,1,25000,3.704,,,280,,,,,,,,,,,wg-a,,,,AAXX 17004 07222 12/75 02802 10030 20010 30139 40172 52009 60006 80000 90000=
07222,1996-03-17 03:00:00,0,1017.2,0,100,0,20000,7.408,,,130,,,,,,,,,,,wg-a,,,,AAXX 17034 07222 12/70 01304 10000 20000 30139 40172 50000 60006 80000 90300=
07222,1996-03-17 06:00:00,0,1017.5,0.3,100,0,15000,7.408,,,130,-1.1,8.4,,,,,,,,,wg-a,,,,AAXX 17064 07222 02/65 01304 10000 20000 30142 40175 53003 60006 80000 90600 333 10084 21011 60004=
07222,1996-03-17 12:00:00,12,1017.3,-0.6,62,5,500,22.224,,,210,,,,,,,,,,,wg-a,,,,AAXX 17124 07222 12500 /2112 10120 20050 30141 40173 58006 60006 85200 91200=
07222,1996-03-17 15:00:00,13,1016.1,-1.1,58,5,500,22.224,,,210,,,,,,,,,,,wg-a,,,,AAXX 17154 07222 12600 42112 10130 20050 30130 40161 56011 60006 84201 91500=
07222,1996-03-17 18:00:00,9,1016.6,0.4,87,7,500,11.112,,,200,-0.6,13.7,,,,,,,,25,wg-a,,,,AAXX 17184 07222 02600 72006 10090 20070 30134 40166 53004 61000 72586 87801 91800 333 10137 21006 ////=
07222,1996-03-17 21:00:00,8,1016.9,0.3,87,6,20000,11.112,,,190,,,,,,,,,,,wg-a,,,,AAXX 17214 07222 12470 51906 10080 20060 30137 40169 51003 60006 84801 92100=
07222,1996-03-18 00:00:00,7,1016.6,-0.3,93,6,20000,11.112,,,150,,,,0,,,,,,1,wg-a,,,,AAXX 18004 07222 02670 /1506 10070 20060 30134 40166 56003 60016 70162 86500 90000 333 60007=
07222,1996-03-18 03:00:00,6,1016,-0.6,100,6,10000,7.408,,,140,,,,,,,,,,,wg-a,,,,AAXX 18034 07222 12660 71404 10060 20060 30128 40160 58006 60006 87500 90300=
07222,1996-03-18 06:00:00,6,1016.4,0.4,100,6,6000,7.408,,,140,5.1,9.5,,1,,,1,,,1,wg-a,,,,AAXX 18064 07222 02356 71404 10060 20060 30132 40164 52004 60014 70186 877// 90600 333 10095 20051 60017=
07222,1996-03-18 12:00:00,11,1016.8,-0.3,82,8,25000,3.704,,,210,,,,0,,,,,,25,wg-a,,,,AAXX 18124 07222 02575 52102 10110 20080 30136 40168 58003 60016 72586 85200 91200 333 60007=
07222,1996-03-18 15:00:00,13,1016.2,-0.5,77,9,15000,11.112,,,240,,,,4,,,,,,1,wg-a,,,,AAXX 18154 07222 12565 /2406 10130 20090 30131 40162 56005 60047 70187 86900 91500=
07222,1996-03-18 18:00:00,10,1016.2,-0.1,71,5,500,7.408,,,270,5,13.4,,,,,,,,1,wg-a,,,,AAXX 18184 07222 32500 22704 10100 20050 30130 40162 55001 70187 81202 91800 333 10134 20050=
07222,1996-03-18 21:00:00,6,1016.8,0.6,87,4,20000,0,,,0,,,,,,,,,,,wg-a,,,,AAXX 18214 07222 12/70 00000 10060 20040 30136 40168 51006 60006 80000 92100=
07222,1996-03-19 00:00:00,5,1016.3,-0.5,93,4,20000,3.704,,,70,,,,,,,,,,,wg-a,,,,AAXX 19004 07222 12/70 20702 10050 20040 30131 40163 57005 60006 80001 90000=
07222,1996-03-19 03:00:00,4,1015,-1.3,93,3,20000,3.704,,,60,,,,,,,,,,,wg-a,,,,AAXX 19034 07222 12/70 30602 10040 20030 30118 40150 58013 60006 80001 90300=
07222,1996-03-19 06:00:00,4,1014.3,-0.7,93,3,12000,14.816,,,80,3.3,10.2,,0,,,4,,,,wg-a,,,,AAXX 19064 07222 02/62 10808 10040 20030 30111 40143 55007 60044 81031 90600 333 10102 20033 60007=
07222,1996-03-19 09:00:00,10,1013.8,-0.5,66,4,15000,14.816,,,100,,,,,,,,,,,wg-a,,,,AAXX 19094 07222 12/65 21008 10100 20040 30106 40138 57005 60006 80001 90900=
07222,1996-03-19 12:00:00,14,1011.6,-2.1,44,2,20000,25.928,,,100,,,,,,,,,,,wg-a,,,,AAXX 19124 07222 12/70 31014 10140 20020 30085 40116 58021 60006 80001 91200=
07222,1996-03-19 18:00:00,12,1007.9,-1.3,54,3,15000,18.52,,,90,4.1,15.3,,,,,,,,,wg-a,,,,AAXX 19184 07222 12/65 60910 10120 20030 30048 40079 56013 60006 83051 91800 333 10153 20041=
07222,1996-03-19 21:00:00,11,1006.5,-1.4,58,3,10000,22.224,,,90,,,,,,,,,,,wg-a,,,,AAXX 19214 07222 12/60 /0912 10110 20030 30034 40065 58014 60006 92100=
07222,1996-03-20 00:00:00,11,1005.5,-1,62,4,12000,18.52,,,110,,,,,,,,,,,wg-a,,,,AAXX 20004 07222 12/62 71110 10110 20040 30024 40055 56010 60006 8407/ 90000=
07222,1996-03-20 03:00:00,8,1004.5,-1.1,93,7,8000,14.816,,,110,,,,3,,,,,,,wg-a,,,,AAXX 20034 07222 12558 81108 10080 20070 30013 40045 58011 60037 875// 90300=
07222,1996-03-20 06:00:00,8,1004.9,0.4,100,8,500,11.112,,,180,7.8,12.2,,1,,,4,,,1,wg-a,,,,AAXX 20064 07222 02500 /1806 10080 20080 30017 40049 53004 60044 70162 85500 90600 333 10122 20078 60017=
07222,1996-03-20 09:00:00,11,1006.2,1.4,87,9,12000,18.52,,,200,,,,0,,,,,,,wg-a,,,,AAXX 20094 07222 12762 52010 10110 20090 30031 40062 51014 60007 85501 90900=
07222,1996-03-20 12:00:00,14,1006.8,0.6,58,6,20000,29.632,,,220,,,,,,,,,,,wg-a,,,,AAXX 20124 07222 12570 52216 10140 20060 30037 40068 51006 60006 85800 91200=
07222,1996-03-20 15:00:00,13,1006.8,-0,72,8,20000,29.632,,,210,,,,1,,,,,,3,wg-a,,,,AAXX 20154 07222 12570 /2116 10130 20080 30037 40068 55000 60017 70386 86800 91500=
07222,1996-03-20 18:00:00,11,1007.4,0.6,87,9,12000,22.224,,,200,7.4,14.6,,,,,,,,3,wg-a,,,,AAXX 20184 07222 32662 72012 10110 20090 30043 40074 50006 70386 8352/ 91800 333 10146 20074=
07222,1996-03-20 21:00:00,10,1007.5,0.1,93,9,8000,18.52,,,180,,,,1,,,,,,61,wg-a,,,,AAXX 20214 07222 12658 81810 10100 20090 30044 40075 50001 60017 76162 8557/ 92100=
07222,1996-03-21 00:00:00,10,1006.7,-0.8,93,9,8000,22.224,,,180,,,,1,,,,,,61,wg-a,,,,AAXX 21004 07222 02558 81812 10100 20090 30036 40067 55008 60026 76162 8557/ 90000 333 60017=
07222,1996-03-21 03:00:00,10,1005.2,-1.5,93,9,8000,25.928,,,200,,,,1,,,,,,61,wg-a,,,,AAXX 21034 07222 12658 82014 10100 20090 30021 40052 56015 60017 76166 8457/ 90300=
07222,1996-03-21 06:00:00,8,1006.6,1.3,100,8,15000,11.112,,,240,8.4,11.1,,,,,3,,,21,wg-a,,,,AAXX 21064 07222 02/65 22406 10080 20080 30034 40066 53013 60034 72161 80001 90600 333 10111 20084 61000=
07222,1996-03-21 09:00:00,12,1008.7,2.2,82,9,20000,25.928,,,230,,,,,,,,,,,wg-a,,,,AAXX 21094 07222 12570 62314 10120 20090 30056 40087 51022 60006 84201 90900=
07222,1996-03-21 12:00:00,12,1010.8,2.1,82,9,15000,29.632,,,240,,,,,,,,,,,wg-a,,,,AAXX 21124 07222 12565 72416 10120 20090 30077 40108 52021 60006 8582/ 91200=
07222,1996-03-21 15:00:00,12,1011.7,0.9,82,9,15000,29.632,,,260,,,,,,,,,,,wg-a,,,,AAXX 21154 07222 12565 72616 10120 20090 30086 40117 53009 60006 8423/ 91500=
07222,1996-03-21 18:00:00,11,1013,1.3,87,9,15000,14.816,,,240,8.1,13.1,,,,,,,,,wg-a,,,,AAXX 21184 07222 12465 72408 10110 20090 30099 40130 53013 60006 81231 91800 333 10131 20081=
07222,1996-03-21 21:00:00,9,1013.9,0.8,93,8,15000,11.112,,,210,,,,,,,,,,,wg-a,,,,AAXX 21214 07222 12/65 72106 10090 20080 30107 40139 51008 60006 85031 92100=
07222,1996-03-22 00:00:00,9,1014.5,0.6,100,9,10000,7.408,,,200,,,,0,,,,,,61,wg-a,,,,AAXX 22004 07222 02660 82004 10090 20090 30113 40145 53006 60006 76162 8557/ 90000 333 60007=
07222,1996-03-22 03:00:00,9,1013.7,-0.8,100,9,15000,11.112,,,160,,,,,,,,,,2,wg-a,,,,AAXX 22034 07222 02665 71606 10090 20090 30105 40137 58008 61000 70262 8557/ 90300 333 ////=
07222,1996-03-22 06:00:00,10,1014.3,0.6,100,10,15000,11.112,,,200,8.6,11,,,,,,,,3,wg-a,,,,AAXX 22064 07222 12565 72006 10100 20100 30111 40143 51006 60004 70362 875// 90600 333 10110 20086=
07222,1996-03-22 09:00:00,13,1015.1,0.9,94,12,15000,14.816,,,220,,,,0,,,,,,1,wg-a,,,,AAXX 22094 07222 12665 72208 10130 20120 30120 40151 53009 60007 70152 875// 90900=
07222,1996-03-22 12:00:00,17,1015.3,0.2,72,12,20000,18.52,,,220,,,,,,,,,,3,wg-a,,,,AAXX 22124 07222 12570 /2210 10170 20120 30122 40153 51002 60006 70352 85842 91200=
07222,1996-03-22 15:00:00,17,1015.3,-0,68,11,20000,22.224,,,260,,,,,,,,,,,wg-a,,,,AAXX 22154 07222 12570 /2612 10170 20110 30122 40153 55000 60006 85101 91500=
07222,1996-03-22 18:00:00,14,1015.8,0.5,88,12,20000,11.112,,,300,10.3,18.9,,,,,,,,,wg-a,,,,AAXX 22184 07222 32770 33006 10140 20120 30127 40158 52005 81531 91800 333 10189 20103=
07222,1996-03-22 21:00:00,11,1016.2,0.3,94,10,10000,3.704,,,20,,,,,,,,,,,wg-a,,,,AAXX 22214 07222 12760 10202 10110 20100 30130 40162 50003 60006 81500 92100=
07222,1996-03-23 00:00:00,9,1016.1,-0.1,100,9,500,3.704,,,40,,,,,,,,,,11,wg-a,,,,AAXX 23004 07222 12/00 00402 10090 20090 30129 40161 58001 60006 71100 80000 90000=
07222,1996-03-23 03:00:00,8,1015.6,-0.5,100,8,500,7.408,,,50,,,,,,,,,,45,wg-a,,,,AAXX 23034 07222 32/05 90504 10080 20080 30124 40156 58005 74541 89/// 90300=
07222,1996-03-23 06:00:00,8,1014.9,-0.7,100,8,700,11.112,,,50,7.3,13.9,,0,,,1,,,10,wg-a,,,,AAXX 23064 07222 02007 20506 10080 20080 30117 40149 56007 60014 71041 82600 90600 333 10139 20073 60007=
07222,1996-03-23 09:00:00,14,1014.8,0,88,12,10000,11.112,,,70,,,,,,,,,,2,wg-a,,,,AAXX 23094 07222 12/60 30706 10140 20120 30117 40148 50000 60006 70240 80001 90900=
07222,1996-03-23 12:00:00,21,1013.5,-1.2,53,11,20000,18.52,,,120,,,,,,,,,,2,wg-a,,,,AAXX 23124 07222 12/70 61210 10210 20110 30105 40135 58012 60006 70241 80002 91200=
07222,1996-03-23 15:00:00,23,1012.4,-1.1,50,12,25000,18.52,,,140,,,,,,,,,,,wg-a,,,,AAXX 23154 07222 12/75 31410 10230 20120 30094 40124 58011 60006 80001 91500=
07222,1996-03-23 18:00:00,20,1012.3,-0.1,53,10,500,7.408,,,110,8.1,22.9,,,,,,,,,wg-a,,,,AAXX 23184 07222 12/00 61104 10200 20100 30093 40123 55001 60006 80002 91800 333 10229 20081=
07222,1996-03-23 21:00:00,15,1013.1,0.7,72,10,25000,7.408,,,140,,,,,,,,,,,wg-a,,,,AAXX 23214 07222 12/75 31404 10150 20100 30100 40131 51007 60006 82032 92100=
07222,1996-03-24 00:00:00,15,1013.1,0,72,10,25000,14.816,,,110,,,,,,,,,,,wg-a,,,,AAXX 24004 07222 12/75 51108 10150 20100 30100 40131 50000 60006 82032 90000=
07222,1996-03-24 03:00:00,11,1013.3,0.2,82,8,18000,11.112,,,140,,,,,,,,,,,wg-a,,,,AAXX 24034 07222 12/68 41406 10110 20080 30102 40133 53002 60006 82032 90300=
07222,1996-03-24 06:00:00,11,1013.7,0.3,87,9,18000,14.816,,,140,10.5,19.8,,,,,,,,,wg-a,,,,AAXX 24064 07222 02/68 21408 10110 20090 30105 40137 53003 60006 81032 90600 333 10198 20105 60004=
07222,1996-03-24 09:00:00,15,1013.9,0.3,72,10,18000,25.928,,,140,,,,,,,,,,,wg-a,,,,AAXX 24094 07222 12/68 21414 10150 20100 30108 40139 53003 60006 80001 90900=
07222,1996-03-24 12:00:00,18,1014.4,0.5,68,12,20000,18.52,,,140,,,,,,,,,,,wg-a,,,,AAXX 24124 07222 12/70 51410 10180 20120 30113 40144 53005 60006 83031 91200=
07222,1996-03-24 15:00:00,20,1012.1,-2.2,60,12,20000,18.52,,,110,,,,,,,,,,,wg-a,,,,AAXX 24154 07222 12/70 61110 10200 20120 30091 40121 58022 60006 85032 91500=
07222,1996-03-24 21:00:00,16,1011.3,-1.9,77,12,12000,14.816,,,50,,,,1,,,,,,21,wg-a,,,,AAXX 24214 07222 12762 70508 10160 20120 30082 40113 58019 60017 72162 8257/ 92100=
07222,1996-03-25 00:00:00,14,1012.8,1.5,88,12,12000,7.408,,,140,,,,1,,,,,,61,wg-a,,,,AAXX 25004 07222 02562 81404 10140 20120 30097 40128 51015 60026 76162 8597/ 90000 333 60017=
07222,1996-03-25 03:00:00,13,1011.9,-0.9,94,12,10000,3.704,,,140,,,,2,,,,,,21,wg-a,,,,AAXX 25034 07222 12560 81402 10130 20120 30088 40119 58009 60027 72162 878// 90300=
07222,1996-03-25 06:00:00,12,1012.4,0.5,100,12,7000,11.112,,,130,11.6,17.9,,,,,4,,,1,wg-a,,,,AAXX 25064 07222 12457 71306 10120 20120 30093 40124 53005 60044 70162 875// 90600 333 10179 20116=
07222,1996-03-25 09:00:00,13,1013.7,1.3,94,12,500,11.112,,,230,,,,,,,,,,,wg-a,,,,AAXX 25094 07222 12200 72306 10130 20120 30106 40137 52013 60006 87700 90900=
07222,1996-03-25 12:00:00,18,1014.5,0.8,73,13,11000,14.816,,,260,,,,,,,,,,,wg-a,,,,AAXX 25124 07222 12/61 /2608 10180 20130 30114 40145 53008 60006 91200=
07222,1996-03-25 15:00:00,17,1014.6,0.1,72,12,11000,18.52,,,240,,,,,,,,,,,wg-a,,,,AAXX 25154 07222 12/61 /2410 10170 20120 30115 40146 50001 60006 91500=
07222,1996-03-25 18:00:00,15,1014.8,0.2,77,11,25000,7.408,,,270,11.1,17.8,,,,,,,,,wg-a,,,,AAXX 25184 07222 12775 22704 10150 20110 30117 40148 53002 60006 81501 91800 333 10178 20111=
07222,1996-03-25 21:00:00,12,1014.6,-0.2,88,10,15000,3.704,,,30,,,,,,,,,,,wg-a,,,,AAXX 25214 07222 12/65 20302 10120 20100 30115 40146 58002 60006 80001 92100=
07222,1996-03-26 00:00:00,10,1013.6,-1.1,93,9,12000,0,,,0,,,,,,,,,,,wg-a,,,,AAXX 26004 07222 12/62 30000 10100 20090 30104 40136 58011 60006 83051 90000=
07222,1996-03-26 03:00:00,11,1012.4,-1.1,94,10,12000,7.408,,,50,,,,,,,,,,,wg-a,,,,AAXX 26034 07222 12/62 60504 10110 20100 30093 40124 56011 60006 86050 90300=
07222,1996-03-26 06:00:00,11,1012.3,-0.1,94,10,9000,7.408,,,60,9.7,14.8,,,,,,,,,wg-a,,,,AAXX 26064 07222 02759 70604 10110 20100 30092 40123 55001 60006 8357/ 90600 333 10148 20097 60004=
07222,1996-03-26 09:00:00,11,1012.7,0.4,100,11,3000,0,,,0,,,,1,,,,,,61,wg-a,,,,AAXX 26094 07222 12630 70000 10110 20110 30096 40127 51004 60017 76162 8557/ 90900=
07222,1996-03-26 12:00:00,13,1012.4,-0.3,94,12,500,3.704,,,350,,,,2,,,,,,60,wg-a,,,,AAXX 26124 07222 02600 73502 10130 20120 30093 40124 56003 60036 76062 8587/ 91200 333 60027=
07222,1996-03-26 15:00:00,13,1012,-0.4,94,12,4000,7.408,,,300,,,,1,,,,,,51,wg-a,,,,AAXX 26154 07222 12440 83004 10130 20120 30089 40120 56004 60017 75165 8657/ 91500=
07222,1996-03-26 18:00:00,13,1012.4,0.4,94,12,500,7.408,,,320,10.6,13.4,,1,,,,,,21,wg-a,,,,AAXX 26184 07222 12300 73204 10130 20120 30093 40124 53004 60017 72165 8357/ 91800 333 10134 20106=
07222,1996-03-26 21:00:00,12,1013.1,0.7,94,11,6000,14.816,,,40,,,,,,,,,,,wg-a,,,,AAXX 26214 07222 12356 70408 10120 20110 30100 40131 51007 60006 865// 92100=
07222,1996-03-27 00:00:00,9,1014.1,0.9,100,9,3000,11.112,,,50,,,,4,,,,,,10,wg-a,,,,AAXX 27004 07222 02330 70506 10090 20090 30109 40141 51009 60046 71062 877// 90000 333 60047=
07222,1996-03-27 03:00:00,7,1014.3,0.2,93,6,3000,18.52,,,50,,,,5,,,,,,10,wg-a,,,,AAXX 27034 07222 12330 70510 10070 20060 30111 40143 53002 60057 71066 8573/ 90300=
07222,1996-03-27 06:00:00,5,1015.9,1.6,87,3,2500,29.632,,50.004,60,4.7,12.7,,0,,,14,,,10,wg-a,,,,AAXX 27064 07222 02425 80616 10050 20030 30127 40159 53016 60144 71066 875// 90600 333 10127 20047 60007 91027=
07222,1996-03-27 09:00:00,5,1017.4,1.5,87,3,3000,25.928,,,60,,,,0,,,,,,10,wg-a,,,,AAXX 27094 07222 12430 80614 10050 20030 30142 40174 51015 60007 71062 875// 90900=
07222,1996-03-27 12:00:00,6,1018.7,1.3,75,2,6000,22.224,,,50,,,,,,,,,,1,wg-a,,,,AAXX 27124 07222 12556 80512 10060 20020 30155 40187 51013 60006 70162 875// 91200=
07222,1996-03-27 15:00:00,8,1018.5,-0.2,71,3,10000,18.52,,,50,,,,,,,,,,,wg-a,,,,AAXX 27154 07222 12560 /0510 10080 20030 30153 40185 57002 60006 81500 91500=
07222,1996-03-27 18:00:00,8,1019.4,0.9,57,0,15000,14.816,,,40,4.2,9,,,,,,,,,wg-a,,,,AAXX 27184 07222 32/65 00408 10080 20000 30162 40194 53009 80000 91800 333 10090 20042=
07222,1996-03-27 21:00:00,6,1020.5,1.1,61,-1,15000,11.112,,,50,,,,,,,,,,,wg-a,,,,AAXX 27214 07222 12/65 00506 10060 21010 30173 40205 51011 60006 80000 92100=
07222,1996-03-28 00:00:00,3,1020.8,0.2,75,-1,10000,11.112,,,60,,,,,,,,,,,wg-a,,,,AAXX 28004 07222 12/60 00606 10030 21010 30175 40208 53002 60006 80000 90000=
07222,1996-03-28 03:00:00,-1,1020.4,-0.4,86,-3,10000,7.408,,,360,,,,,,,,,,,wg-a,,,,AAXX 28034 07222 12/60 03604 11010 21030 30171 40204 56004 60006 80000 90300=
07222,1996-03-28 06:00:00,-1,1020.2,-0.2,86,-3,8000,3.704,,,10,-1.6,8.3,,,,,,,,,wg-a,,,,AAXX 28064 07222 02/58 /0102 11010 21030 30169 40202 55002 60006 81030 90600 333 10083 21016 60004=
07222,1996-03-28 09:00:00,6,1020.4,0.3,70,1,12000,3.704,,,210,,,,,,,,,,,wg-a,,,,AAXX 28094 07222 12/62 12102 10060 20010 30172 40204 50003 60006 80002 90900=
07222,1996-03-28 12:00:00,9,1020.1,-0.3,53,0,18000,7.408,,,310,,,,,,,,,,,wg-a,,,,AAXX 28124 07222 12/68 43104 10090 20000 30169 40201 58003 60006 80001 91200=
07222,1996-03-28 15:00:00,10,1018.6,-1.5,53,1,18000,18.52,,,280,,,,,,,,,,,wg-a,,,,AAXX 28154 07222 12/68 02810 10100 20010 30154 40186 56015 60006 80000 91500=
07222,1996-03-28 18:00:00,8,1018.7,0.1,71,3,18000,14.816,,,280,-1.4,10.8,,,,,,,,,wg-a,,,,AAXX 28184 07222 12/68 02808 10080 20030 30155 40187 53001 60006 80000 91800 333 10108 21014=
07222,1996-03-29 06:00:00,1,1019.3,-0.2,93,0,8000,3.704,,,280,1.1,8.1,,,,,,,,,wg-a,,,,AAXX 29064 07222 02558 42802 10010 20000 30160 40193 55002 60006 84500 90600 333 10081 20011 60004=
07222,1996-03-29 09:00:00,7,1019.5,0.3,76,3,12000,3.704,,,280,,,,,,,,,,,wg-a,,,,AAXX 29094 07222 12562 22802 10070 20030 30163 40195 51003 60006 82800 90900=
07222,1996-03-29 12:00:00,11,1018.2,-1.3,62,4,18000,7.408,,,210,,,,,,,,,,,wg-a,,,,AAXX 29124 07222 12668 32104 10110 20040 30150 40182 58013 60006 83200 91200=
07222,1996-03-29 15:00:00,11,1016.7,-1.5,54,2,15000,3.704,,,270,,,,,,,,,,,wg-a,,,,AAXX 29154 07222 12665 72702 10110 20020 30135 40167 58015 60006 875// 91500=
07222,1996-03-29 18:00:00,10,1015.8,-0.9,71,5,12000,11.112,,,40,1.3,12.7,,,,,,,,,wg-a,,,,AAXX 29184 07222 12662 70406 10100 20050 30126 40158 55009 60006 875// 91800 333 10127 20013=
07222,1996-03-29 21:00:00,9,1016,0.2,71,4,12000,7.408,,,20,,,,,,,,,,,wg-a,,,,AAXX 29214 07222 12762 70204 10090 20040 30128 40160 50002 60006 875// 92100=
07222,1996-03-30 00:00:00,7,1015.6,-0.4,66,1,12000,14.816,,,30,,,,,,,,,,,wg-a,,,,AAXX 30004 07222 12762 70308 10070 20010 30124 40156 57004 60006 875// 90000=
07222,1996-03-30 03:00:00,4,1014.7,-0.9,81,1,12000,11.112,,,30,,,,,,,,,,,wg-a,,,,AAXX 30034 07222 12/62 00306 10040 20010 30115 40147 58009 60006 80000 90300=
07222,1996-03-30 06:00:00,2,1015.3,0.5,93,1,10000,7.408,,,30,1.6,9.8,,,,,,,,,wg-a,,,,AAXX 30064 07222 02/60 10304 10020 20010 30120 40153 53005 60006 81030 90600 333 10098 20016 60004=
07222,1996-03-30 09:00:00,5,1016.4,1.2,81,2,10000,18.52,,,50,,,,,,,,,,,wg-a,,,,AAXX 30094 07222 12660 70510 10050 20020 30132 40164 51012 60006 878// 90900=
07222,1996-03-30 12:00:00,9,1017.2,0.8,46,-2,15000,18.52,,,70,,,,,,,,,,,wg-a,,,,AAXX 30124 07222 12665 /0710 10090 21020 30140 40172 53008 60006 85200 91200=
07222,1996-03-30 15:00:00,10,1017.3,0.1,46,-1,20000,14.816,,,80,,,,,,,,,,,wg-a,,,,AAXX 30154 07222 12770 60808 10100 21010 30141 40173 50001 60006 86400 91500=
07222,1996-03-30 18:00:00,9,1018.1,0.8,49,-1,20000,14.816,,,60,2.2,10.6,,,,,,,,,wg-a,,,,AAXX 30184 07222 12770 60608 10090 21010 30149 40181 53008 60006 86500 91800 333 10106 20022=
07222,1996-03-30 21:00:00,6,1018.7,0.6,65,0,20000,14.816,,,60,,,,,,,,,,,wg-a,,,,AAXX 30214 07222 12/70 00608 10060 20000 30155 40187 51006 60006 80000 92100=
07222,1996-03-31 00:00:00,4,1019.4,0.6,70,-1,20000,11.112,,,80,,,,,,,,,,,wg-a,,,,AAXX 31004 07222 12/70 00806 10040 21010 30161 40194 53006 60006 80000 90000=
07222,1996-03-31 03:00:00,2,1018.1,-1.3,75,-2,20000,18.52,,,60,,,,,,,,,,,wg-a,,,,AAXX 31034 07222 12/70 00610 10020 21020 30148 40181 58013 60006 80000 90300=
07222,1996-03-31 06:00:00,0,1017.7,-0.4,86,-2,1200,11.112,,,100,0.1,9.1,,,,,,,,,wg-a,,,,AAXX 31064 07222 02/12 21006 10000 21020 30144 40177 55004 60006 80002 90600 333 10091 20001 60004=
07222,1996-03-31 09:00:00,7,1017.2,-0.4,57,-1,15000,14.816,,,130,,,,,,,,,,,wg-a,,,,AAXX 31094 07222 12/65 51308 10070 21010 30140 40172 58004 60006 82032 90900=
07222,1996-03-31 12:00:00,9,1015.7,-1.5,53,0,18000,7.408,,,130,,,,,,,,,,,wg-a,,,,AAXX 31124 07222 12768 61304 10090 20000 30125 40157 58015 60006 81102 91200=
07222,1996-03-31 15:00:00,9,1013.5,-2.2,49,-1,15000,18.52,,,100,,,,,,,,,,,wg-a,,,,AAXX 31154 07222 12665 81010 10090 21010 30103 40135 58022 60006 8152/ 91500=
07222,1996-03-31 18:00:00,8,1011.7,-1.8,57,0,15000,11.112,,,100,0.2,9.9,,,,,,,,,wg-a,,,,AAXX 31184 07222 12665 71006 10080 20000 30085 40117 56018 60006 8553/ 91800 333 10099 20002=
07222,1996-03-31 21:00:00,8,1010.4,-1.3,53,-1,15000,14.816,,,90,,,,,,,,,,,wg-a,,,,AAXX 31214 07222 12665 70908 10080 21010 30072 40104 56013 60006 875// 92100=
07222,1996-04-01 00:00:00,7,1008.3,-2.1,53,-2,15000,18.52,,,80,,,,,,,,,,,wg-a,,,,AAXX 01004 07222 12665 70810 10070 21020 30051 40083 58021 60006 875// 90000=
07222,1996-04-01 03:00:00,5,1005.7,-2.6,60,-2,15000,25.928,,,70,,,,,,,,,,,wg-a,,,,AAXX 01034 07222 12765 70714 10050 21020 30025 40057 57026 60006 875// 90300=
07222,1996-04-01 06:00:00,5,1004.9,-0.8,56,-3,10000,29.632,,,70,4.6,8.5,,,,,,,,,wg-a,,,,AAXX 01064 07222 02760 80716 10050 21030 30017 40049 57008 60006 8352/ 90600 333 10085 20046 60004=
07222,1996-04-01 09:00:00,6,1005.3,0.4,56,-2,12000,29.632,,,70,,,,,,,,,,,wg-a,,,,AAXX 01094 07222 12762 70716 10060 21020 30021 40053 50004 60006 81572 90900=
07222,1996-04-01 12:00:00,8,1005.2,-0.1,53,-1,15000,31.484,,,60,,,,,,,,,,,wg-a,,,,AAXX 01124 07222 12/65 70617 10080 21010 30020 40052 57001 60006 83036 91200=
07222,1996-04-01 15:00:00,9,1005.4,0.3,49,-1,12000,29.632,,46.3,50,,,,,,,,,,,wg-a,,,,AAXX 01154 07222 12/62 70516 10090 21010 30023 40054 51003 60006 81036 91500 333 91025=
07222,1996-04-01 21:00:00,5,1010.9,3.3,60,-2,15000,18.52,,,30,,,,,,,,,,,wg-a,,,,AAXX 01214 07222 12/65 00310 10050 21020 30077 40109 53033 60006 80000 92100=
07222,1996-04-02 00:00:00,3,1013.6,2.7,70,-2,15000,18.52,,,20,,,,,,,,,,,wg-a,,,,AAXX 02004 07222 12/65 00210 10030 21020 30104 40136 51027 60006 80000 90000=
07222,1996-04-02 03:00:00,1,1015.2,1.5,75,-3,10000,14.816,,,20,,,,,,,,,,,wg-a,,,,AAXX 02034 07222 12/60 00208 10010 21030 30119 40152 51015 60006 80000 90300=
07222,1996-04-02 06:00:00,0,1017.6,2.4,74,-4,10000,11.112,,,20,-0.2,8.2,,,,,,,,,wg-a,,,,AAXX 02064 07222 02/60 00206 10000 21040 30143 40176 53024 60006 80000 90600 333 10082 21002 60004=
07222,1996-04-02 09:00:00,5,1020,2.5,52,-4,20000,22.224,,,40,,,,,,,,,,,wg-a,,,,AAXX 02094 07222 12/70 00412 10050 21040 30168 40200 51025 60006 80000 90900=
07222,1996-04-02 12:00:00,8,1021.1,1.1,46,-3,20000,22.224,,,30,,,,,,,,,,,wg-a,,,,AAXX 02124 07222 12/70 00312 10080 21030 30179 40211 51011 60006 80000 91200=
07222,1996-04-02 15:00:00,9,1020.9,-0.2,46,-2,25000,18.52,,,20,,,,,,,,,,,wg-a,,,,AAXX 02154 07222 12775 30210 10090 21020 30177 40209 58002 60006 83200 91500=
07222,1996-04-02 18:00:00,7,1022.5,1.6,49,-3,25000,11.112,,,10,-0.1,9.5,,,,,,,,,wg-a,,,,AAXX 02184 07222 12775 20106 10070 21030 30193 40225 52016 60006 82500 91800 333 10095 21001=
07222,1996-04-02 21:00:00,4,1024.4,1.8,60,-3,18000,11.112,,,10,,,,,,,,,,,wg-a,,,,AAXX 02214 07222 12/68 00106 10040 21030 30211 40244 52018 60006 80000 92100=
07222,1996-04-03 00:00:00,1,1025.4,1,75,-3,15000,11.112,,,350,,,,,,,,,,,wg-a,,,,AAXX 03004 07222 12/65 03506 10010 21030 30221 40254 51010 60006 80000 90000=
07222,1996-04-03 03:00:00,0,1025.6,0.2,80,-3,15000,7.408,,,20,,,,,,,,,,,wg-a,,,,AAXX 03034 07222 12/65 00204 10000 21030 30223 40256 52002 60006 80000 90300=
07222,1996-04-03 06:00:00,0,1026.2,0.6,80,-3,12000,3.704,,,330,-1.5,6.6,,,,,,,,,wg-a,,,,AAXX 03064 07222 02762 73302 10000 21030 30229 40262 53006 60006 875// 90600 333 10066 21015 60004=
07222,1996-04-03 09:00:00,6,1027.5,1.3,61,-1,15000,11.112,,,20,,,,,,,,,,,wg-a,,,,AAXX 03094 07222 12/65 00206 10060 21010 30242 40275 52013 60006 80000 90900=
07222,1996-04-03 12:00:00,8,1026.8,-0.6,46,-3,15000,22.224,,,40,,,,,,,,,,,wg-a,,,,AAXX 03124 07222 32765 30412 10080 21030 30236 40268 58006 83200 91200=
07222,1996-04-03 15:00:00,9,1026.3,-0,37,-5,20000,18.52,,,50,,,,,,,,,,,wg-a,,,,AAXX 03154 07222 12770 20510 10090 21050 30231 40263 54000 60006 82100 91500=
07222,1996-04-03 18:00:00,8,1027.1,0.8,39,-5,15000,14.816,,,40,-0.4,9.6,,,,,,,,,wg-a,,,,AAXX 03184 07222 12765 10408 10080 21050 30239 40271 53008 60006 81100 91800 333 10096 21004=
07222,1996-04-03 21:00:00,5,1028.6,1.4,48,-5,12000,7.408,,,50,,,,,,,,,,,wg-a,,,,AAXX 03214 07222 12/62 00504 10050 21050 30253 40286 51014 60006 80000 92100=
07222,1996-04-04 00:00:00,3,1028.9,0.3,60,-4,12000,7.408,,,40,,,,,,,,,,,wg-a,,,,AAXX 04004 07222 12/62 00404 10030 21040 30256 40289 50003 60006 80000 90000=
07222,1996-04-04 03:00:00,0,1028.4,-0.5,80,-3,12000,11.112,,,40,,,,,,,,,,,wg-a,,,,AAXX 04034 07222 12/62 00406 10000 21030 30251 40284 58005 60006 80000 90300=
07222,1996-04-04 06:00:00,0,1027.8,-0.6,80,-3,3500,14.816,,,60,-0.8,7.5,,,,,,,,10,wg-a,,,,AAXX 04064 07222 02/35 00608 10000 21030 30245 40278 56006 60006 71000 80000 90600 333 10075 21008 60004=
07222,1996-04-04 09:00:00,5,1027.6,-0.2,60,-2,6000,14.816,,,80,,,,,,,,,,,wg-a,,,,AAXX 04094 07222 12/56 00808 10050 21020 30243 40276 58002 60006 80000 90900=
07222,1996-04-04 12:00:00,9,1025.4,-2.1,43,-3,8000,22.224,,,90,,,,,,,,,,,wg-a,,,,AAXX 04124 07222 12/58 00912 10090 21030 30222 40254 58021 60006 80000 91200=
07222,1996-04-04 15:00:00,11,1023.2,-2.2,43,-1,8000,18.52,,,60,,,,,,,,,,,wg-a,,,,AAXX 04154 07222 12/58 /0610 10110 21010 30200 40232 56022 60006 91500=
07222,1996-04-04 18:00:00,10,1022.1,-1.1,46,-1,6000,18.52,,,50,0.3,11.2,,,,,,,,,wg-a,,,,AAXX 04184 07222 12/56 20510 10100 21010 30189 40221 56011 60006 80001 91800 333 10112 20003=
07222,1996-04-04 21:00:00,7,1021.4,-0.7,61,0,9000,14.816,,,70,,,,,,,,,,,wg-a,,,,AAXX 04214 07222 12/59 00708 10070 20000 30182 40214 58007 60006 80000 92100=
07222,1996-04-05 00:00:00,5,1020.6,-0.8,70,0,10000,14.816,,,70,,,,,,,,,,,wg-a,,,,AAXX 05004 07222 12/60 30708 10050 20000 30174 40206 56008 60006 80001 90000=
07222,1996-04-05 03:00:00,3,1019.5,-1.2,75,-1,10000,11.112,,,70,,,,,,,,,,,wg-a,,,,AAXX 05034 07222 12/60 00706 10030 21010 30162 40195 56012 60006 80000 90300=
07222,1996-04-05 06:00:00,2,1018.4,-1.1,80,-1,4000,7.408,,,30,1.7,9.9,,,,,,,,10,wg-a,,,,AAXX 05064 07222 02540 30304 10020 21010 30151 40184 56011 60006 71000 82501 90600 333 10099 20017 60004=
07222,1996-04-05 09:00:00,7,1017.5,-0.8,61,0,8000,22.224,,,70,,,,,,,,,,,wg-a,,,,AAXX 05094 07222 12558 30712 10070 20000 30143 40175 56008 60006 81102 90900=
07222,1996-04-05 12:00:00,8,1016,-1.4,61,1,9000,22.224,,,70,,,,,,,,,,,wg-a,,,,AAXX 05124 07222 12559 70712 10080 20010 30129 40160 56014 60006 875// 91200=
07222,1996-04-05 15:00:00,8,1015.2,-0.9,61,1,7000,18.52,,,50,,,,,,,,,,,wg-a,,,,AAXX 05154 07222 12557 70510 10080 20010 30120 40152 58009 60006 875// 91500=
07222,1996-04-05 18:00:00,6,1015.2,-0,70,1,6000,18.52,,,50,2,8.9,,,,,,,,,wg-a,,,,AAXX 05184 07222 12/56 00510 10060 20010 30120 40152 55000 60006 80000 91800 333 10089 20020=
07222,1996-04-05 21:00:00,4,1015.7,0.5,75,0,500,11.112,,,30,,,,,,,,,,,wg-a,,,,AAXX 05214 07222 12/00 00306 10040 20000 30125 40157 52005 60006 80000 92100=
07222,1996-04-06 00:00:00,4,1015.4,-0.3,75,0,6000,7.408,,,50,,,,,,,,,,,wg-a,,,,AAXX 06004 07222 12/56 00504 10040 20000 30122 40154 57003 60006 80000 90000=
07222,1996-04-06 03:00:00,3,1015.1,-0.4,87,1,500,7.408,,,40,,,,,,,,,,,wg-a,,,,AAXX 06034 07222 12/00 00404 10030 20010 30118 40151 55004 60006 80000 90300=
07222,1996-04-06 06:00:00,1,1015.5,0.4,93,0,3000,7.408,,,30,1.1,6.3,,,,,,,,10,wg-a,,,,AAXX 06064 07222 02/30 00304 10010 20000 30122 40155 53004 60006 71000 80000 90600 333 10063 20011 60004=
07222,1996-04-06 09:00:00,7,1016.5,1.1,76,3,500,11.112,,,40,,,,,,,,,,,wg-a,,,,AAXX 06094 07222 12/00 00406 10070 20030 30133 40165 51011 60006 80000 90900=
07222,1996-04-06 12:00:00,12,1016.2,-0.2,54,3,9000,7.408,,,50,,,,,,,,,,,wg-a,,,,AAXX 06124 07222 12/59 00504 10120 20030 30131 40162 55002 60006 80000 91200=
07222,1996-04-06 15:00:00,14,1016.1,-0.1,47,3,11000,11.112,,,210,,,,,,,,,,,wg-a,,,,AAXX 06154 07222 12661 /2106 10140 20030 30130 40161 58001 60006 81100 91500=
07222,1996-04-06 18:00:00,12,1017.1,0.9,58,4,9000,11.112,,,20,1.2,14.8,,,,,,,,,wg-a,,,,AAXX 06184 07222 12659 20206 10120 20040 30139 40171 53009 60006 82100 91800 333 10148 20012=
07222,1996-04-06 21:00:00,7,1019,1.9,76,3,6000,7.408,,,20,,,,,,,,,,,wg-a,,,,AAXX 06214 07222 12/56 00204 10070 20030 30158 40190 51019 60006 80000 92100=
07222,1996-04-07 00:00:00,4,1019.4,0.4,87,2,6000,3.704,,,320,,,,,,,,,,,wg-a,,,,AAXX 07004 07222 12/56 03202 10040 20020 30162 40194 51004 60006 80000 90000=
07222,1996-04-07 03:00:00,3,1020.2,0.7,93,2,6000,7.408,,,330,,,,,,,,,,,wg-a,,,,AAXX 07034 07222 12656 23304 10030 20020 30169 40202 52007 60006 82500 90300=
07222,1996-04-07 06:00:00,5,1020.8,0.7,100,5,1500,3.704,,,350,3.2,11.8,,,,,,,,10,wg-a,,,,AAXX 07064 07222 02615 73502 10050 20050 30176 40208 53007 60006 71011 855// 90600 333 10118 20032 60004=
07222,1996-04-07 09:00:00,9,1022.4,1.6,81,6,2500,7.408,,,20,,,,,,,,,,10,wg-a,,,,AAXX 07094 07222 12625 70204 10090 20060 30192 40224 51016 60006 71022 875// 90900=
07222,1996-04-07 15:00:00,12,1023.1,0.2,67,6,7000,11.112,,,360,,,,,,,,,,,wg-a,,,,AAXX 07154 07222 12657 73606 10120 20060 30199 40231 53002 60006 875// 91500=
07222,1996-04-07 18:00:00,11,1024.3,1.2,66,5,7000,11.112,,,20,5.3,12.3,,,,,,,,,wg-a,,,,AAXX 07184 07222 12657 70206 10110 20050 30211 40243 53012 60006 875// 91800 333 10123 20053=
07222,1996-04-07 21:00:00,8,1025.5,1.2,81,5,7000,7.408,,,340,,,,,,,,,,,wg-a,,,,AAXX 07214 07222 12757 43404 10080 20050 30223 40255 52012 60006 84500 92100=
07222,1996-04-08 00:00:00,6,1026.7,1.2,93,5,7000,3.704,,,320,,,,,,,,,,,wg-a,,,,AAXX 08004 07222 12757 73202 10060 20050 30235 40267 51012 60006 875// 90000=
07222,1996-04-08 03:00:00,7,1026.9,0.2,93,6,6000,3.704,,,360,,,,,,,,,,,wg-a,,,,AAXX 08034 07222 12656 73602 10070 20060 30237 40269 51002 60006 875// 90300=
07222,1996-04-08 06:00:00,8,1028,1.1,87,6,3000,0,,,0,5.5,11.2,,,,,,,,10,wg-a,,,,AAXX 08064 07222 02630 80000 10080 20060 30248 40280 53011 60006 71022 875// 90600 333 10112 20055 60004=
07222,1996-04-08 09:00:00,10,1029.7,1.7,82,7,3000,7.408,,,70,,,,,,,,,,10,wg-a,,,,AAXX 08094 07222 12630 80704 10100 20070 30265 40297 51017 60006 71022 875// 90900=
07222,1996-04-08 12:00:00,13,1029.4,-0.3,62,6,500,3.704,,,140,,,,,,,,,,,wg-a,,,,AAXX 08124 07222 12600 71402 10130 20060 30262 40294 58003 60006 875// 91200=
07222,1996-04-08 15:00:00,13,1029.1,-0.3,62,6,6000,0,,,0,,,,,,,,,,,wg-a,,,,AAXX 08154 07222 12656 80000 10130 20060 30259 40291 56003 60006 885// 91500=
07222,1996-04-08 18:00:00,13,1029,-0.1,67,7,6000,3.704,,,330,8,13.7,,,,,,,,,wg-a,,,,AAXX 08184 07222 12656 83302 10130 20070 30258 40290 58001 60006 885// 91800 333 10137 20080=
07222,1996-04-08 21:00:00,11,1029.5,0.5,71,6,6000,3.704,,,290,,,,,,,,,,,wg-a,,,,AAXX 08214 07222 12656 82902 10110 20060 30263 40295 51005 60006 875// 92100=
07222,1996-04-09 03:00:00,6,1028,-1,87,4,6000,3.704,,,330,,,,,,,,,,,wg-a,,,,AAXX 09034 07222 12656 73302 10060 20040 30247 40280 58010 60006 855// 90300=
07222,1996-04-09 06:00:00,7,1027.1,-0.8,87,5,4000,11.112,,,100,5.4,12.8,,,,,,,,10,wg-a,,,,AAXX 09064 07222 02640 71006 10070 20050 30239 40271 56008 60006 71022 875// 90600 333 10128 20054 60004=
07222,1996-04-09 09:00:00,12,1027.3,0.2,67,6,6000,14.816,,,150,,,,,,,,,,,wg-a,,,,AAXX 09094 07222 12756 /1508 10120 20060 30241 40273 51002 60006 85500 90900=
07222,1996-04-09 12:00:00,16,1026,-1.2,51,6,8000,14.816,,,140,,,,,,,,,,,wg-a,,,,AAXX 09124 07222 12758 /1408 10160 20060 30229 40260 58012 60006 81501 91200=
07222,1996-04-09 15:00:00,17,1023.9,-2.1,55,8,9000,7.408,,,150,,,,,,,,,,,wg-a,,,,AAXX 09154 07222 12/59 01504 10170 20080 30208 40239 57021 60006 80000 91500=
07222,1996-04-09 18:00:00,16,1022.6,-1.3,55,7,9000,11.112,,,130,6.9,17.3,,,,,,,,,wg-a,,,,AAXX 09184 07222 12/59 /1306 10160 20070 30195 40226 56013 60006 91800 333 10173 20069=
07222,1996-04-09 21:00:00,10,1023,0.3,76,6,6000,0,,,0,,,,,,,,,,,wg-a,,,,AAXX 09214 07222 12/56 /0000 10100 20060 30198 40230 50003 60006 80002 92100=
07222,1996-04-10 00:00:00,7,1022,-1,93,6,6000,3.704,,,210,,,,,,,,,,,wg-a,,,,AAXX 10004 07222 12/56 72102 10070 20060 30188 40220 57010 60006 80002 90000=
07222,1996-04-10 03:00:00,6,1020.5,-1.5,100,6,6000,3.704,,,190,,,,,,,,,,,wg-a,,,,AAXX 10034 07222 12/56 71902 10060 20060 30173 40205 56015 60006 8707/ 90300=
07222,1996-04-10 06:00:00,6,1019.4,-1.1,100,6,3000,7.408,,,160,5.7,15.6,,,,,,,,10,wg-a,,,,AAXX 10064 07222 02730 81604 10060 20060 30162 40194 55011 60006 71022 8557/ 90600 333 10156 20057 60004=
07222,1996-04-10 09:00:00,9,1019.5,0.1,93,8,2000,11.112,,,120,,,,2,,,,,,10,wg-a,,,,AAXX 10094 07222 12220 81206 10090 20080 30163 40195 51001 60027 71062 8577/ 90900=
07222,1996-04-10 12:00:00,12,1018.3,-1.1,100,12,1200,11.112,,,190,,,,,,,,,,10,wg-a,,,,AAXX 10124 07222 02212 81906 10120 20120 30152 40183 56011 60026 71062 877// 91200 333 61000=
07222,1996-04-10 15:00:00,13,1018.1,-0.2,88,11,20000,18.52,,,280,,,,,,,,,,3,wg-a,,,,AAXX 10154 07222 02470 82810 10130 20110 30150 40181 56002 61000 70362 875// 91500 333 ////=
07222,1996-04-10 18:00:00,13,1017.9,-0.2,94,12,20000,11.112,,,230,6.5,13.6,,,,,,,,3,wg-a,,,,AAXX 10184 07222 32470 72306 10130 20120 30148 40179 57002 70362 875// 91800 333 10136 20065=
07222,1996-04-10 21:00:00,10,1018.9,0.9,93,9,10000,11.112,,,260,,,,,,,,,,,wg-a,,,,AAXX 10214 07222 12560 /2606 10100 20090 30157 40189 51009 60006 85500 92100=
07222,1996-04-11 00:00:00,7,1018.6,-0.3,100,7,10000,3.704,,,340,,,,,,,,,,,wg-a,,,,AAXX 11004 07222 12/60 03402 10070 20070 30154 40186 56003 60006 80000 90000=
07222,1996-04-11 03:00:00,9,1018,-0.6,93,8,10000,11.112,,,40,,,,,,,,,,,wg-a,,,,AAXX 11034 07222 12360 70406 10090 20080 30148 40180 58006 60006 876// 90300=
07222,1996-04-11 06:00:00,9,1018.4,0.4,93,8,6000,3.704,,,20,7.1,12.7,,,,,2,,,,wg-a,,,,AAXX 11064 07222 02256 80202 10090 20080 30152 40184 53004 60006 886// 90600 333 10127 20071 60024=
07222,1996-04-11 09:00:00,10,1018.7,0.3,87,8,7000,11.112,,,70,,,,,,,,,,,wg-a,,,,AAXX 11094 07222 12457 /0706 10100 20080 30155 40187 51003 60006 876// 90900=
07222,1996-04-11 12:00:00,14,1017.5,-1.1,72,9,10000,0,,,0,,,,,,,,,,,wg-a,,,,AAXX 11124 07222 12560 /0000 10140 20090 30144 40175 58011 60006 85230 91200=
07222,1996-04-11 15:00:00,15,1016.2,-1.3,59,7,15000,0,,,0,,,,,,,,,,,wg-a,,,,AAXX 11154 07222 12665 60000 10150 20070 30131 40162 58013 60006 83201 91500=
07222,1996-04-11 18:00:00,14,1015.5,-0.7,67,8,15000,7.408,,,280,8.4,15.8,,,,,,,,,wg-a,,,,AAXX 11184 07222 12665 52804 10140 20080 30124 40155 56007 60006 82201 91800 333 10158 20084=
07222,1996-04-12 00:00:00,8,1015.8,-0.2,93,7,12000,3.704,,,340,,,,,,,,,,,wg-a,,,,AAXX 12004 07222 12/62 33402 10080 20070 30126 40158 58002 60006 80001 90000=
07222,1996-04-12 06:00:00,8,1014.6,0.1,93,7,7000,7.408,,,80,6.7,13.9,,0,,,,,,,wg-a,,,,AAXX 12064 07222 02/57 50804 10080 20070 30114 40146 53001 60004 83031 90600 333 10139 20067 60007=
07222,1996-04-12 12:00:00,18,1013.6,-1.4,45,6,12000,7.408,,,140,,,,,,,,,,,wg-a,,,,AAXX 12124 07222 12/62 31404 10180 20060 30105 40136 58014 60006 81031 91200=
07222,1996-04-12 15:00:00,19,1012.6,-1,49,8,15000,7.408,,,240,,,,,,,,,,,wg-a,,,,AAXX 12154 07222 12/65 22404 10190 20080 30095 40126 58010 60006 80001 91500=
07222,1996-04-12 18:00:00,15,1012.8,0.2,67,9,10000,18.52,,,290,7.5,19.1,,,,,,,,,wg-a,,,,AAXX 12184 07222 12/60 72910 10150 20090 30097 40128 53002 60006 83052 91800 333 10191 20075=
07222,1996-04-12 21:00:00,12,1013.7,0.9,82,9,10000,3.704,,,300,,,,,,,,,,,wg-a,,,,AAXX 12214 07222 12/60 73002 10120 20090 30106 40137 51009 60006 8707/ 92100=
07222,1996-04-13 03:00:00,11,1013.6,-0.3,94,10,7000,11.112,,,280,,,,,,,,,,21,wg-a,,,,AAXX 13034 07222 02/57 82806 10110 20100 30105 40136 55003 61000 72162 8807/ 90300 333 ////=
07222,1996-04-13 06:00:00,10,1014.6,0.9,93,9,7000,3.704,,,280,10.1,14.9,,,,,,,,60,wg-a,,,,AAXX 13064 07222 02/57 72802 10100 20090 30114 40146 53009 61000 76062 8707/ 90600 333 10149 20101 6100=
07222,1996-04-13 07:00:00,10,1014.6,0.9,93,9,7000,3.704,,,280,10.1,14.9,,,,,,,,60,wg-a,,,,AAXX 13074 07222 02/57 72802 10100 20090 30114 40146 53009 61000 76062 8707/ 90700 333 10149 20101 6100=
07222,1996-04-13 12:00:00,14,1016.3,0.3,94,13,20000,11.112,,,300,,,,1,,,,,,21,wg-a,,,,AAXX 13124 07222 02470 /3006 10140 20130 30132 40163 52003 60016 72162 86200 91200 333 60017=
07222,1996-04-13 15:00:00,17,1015.8,-0.5,68,11,25000,14.816,,,270,,,,,,,,,,,wg-a,,,,AAXX 13154 07222 12675 /2708 10170 20110 30127 40158 56005 60006 85200 91500=
07222,1996-04-13 18:00:00,14,1016.9,1.1,88,12,25000,18.52,,,270,10.3,17.8,,,,,,,,,wg-a,,,,AAXX 13184 07222 32475 72710 10140 20120 30138 40169 53011 873// 91800 333 10178 20103=
07222,1996-04-13 21:00:00,12,1018.8,1.9,94,11,18000,11.112,,,280,,,,,,,,,,,wg-a,,,,AAXX 13214 07222 12568 72806 10120 20110 30157 40188 53019 60006 875// 92100=
07222,1996-04-14 00:00:00,11,1019.4,0.5,94,10,10000,7.408,,,30,,,,,,,,,,,wg-a,,,,AAXX 14004 07222 12560 /0304 10110 20100 30162 40194 53005 60006 85500 90000=
07222,1996-04-14 03:00:00,10,1019.3,-0.1,93,9,600,3.704,,,60,,,,,,,,,,45,wg-a,,,,AAXX 14034 07222 12/06 90602 10100 20090 30161 40193 57001 60006 74542 89/// 90300=
07222,1996-04-14 06:00:00,9,1020.3,1,100,9,500,3.704,,,280,9.2,14.1,,,,,1,,,45,wg-a,,,,AAXX 14064 07222 02/05 92802 10090 20090 30171 40203 53010 60006 74542 89/// 90600 333 10141 20092 60014=
07222,1996-04-14 09:00:00,11,1022,1.7,94,10,4000,7.408,,,300,,,,,,,,,,10,wg-a,,,,AAXX 14094 07222 12240 83004 10110 20100 30188 40220 51017 60006 71042 886// 90900=
07222,1996-04-14 12:00:00,15,1022,0.1,63,8,10000,11.112,,,290,,,,,,,,,,1,wg-a,,,,AAXX 14124 07222 12660 72906 10150 20080 30189 40220 51001 60006 70142 83532 91200=
07222,1996-04-14 15:00:00,14,1022.1,0.1,72,9,7000,14.816,,,300,,,,,,,,,,,wg-a,,,,AAXX 14154 07222 12557 73008 10140 20090 30190 40221 50001 60006 8587/ 91500=
07222,1996-04-14 21:00:00,11,1024.6,2,94,10,6000,7.408,,,320,,,,0,,,,,,21,wg-a,,,,AAXX 14214 07222 12656 83204 10110 20100 30214 40246 51020 60007 72162 875// 92100=
07222,1996-04-15 00:00:00,11,1024.7,0.1,100,11,4000,3.704,,,300,,,,,,,,,,10,wg-a,,,,AAXX 15004 07222 12540 83002 10110 20110 30215 40247 53001 60006 71062 875// 90000=
07222,1996-04-15 03:00:00,11,1024.5,-0.2,100,11,4000,0,,,0,,,,,,,,,,10,wg-a,,,,AAXX 15034 07222 12240 80000 10110 20110 30213 40245 56002 60006 71022 876// 90300=
07222,1996-04-15 06:00:00,11,1025,0.5,100,11,3000,0,,,0,10.6,13,,,,,,,,10,wg-a,,,,AAXX 15064 07222 12230 70000 10110 20110 30218 40250 53005 60004 71022 875// 90600 333 10130 20106=
07222,1996-04-15 09:00:00,14,1025.7,0.7,82,11,6000,3.704,,,170,,,,,,,,,,,wg-a,,,,AAXX 15094 07222 12656 71702 10140 20110 30225 40257 51007 60006 875// 90900=
07222,1996-04-15 12:00:00,17,1025.3,-0.3,63,10,10000,11.112,,,100,,,,,,,,,,,wg-a,,,,AAXX 15124 07222 12560 71006 10170 20100 30222 40253 58003 60006 87800 91200=
07222,1996-04-15 15:00:00,18,1024.1,-1.2,59,10,10000,3.704,,,210,,,,,,,,,,,wg-a,,,,AAXX 15154 07222 12760 72102 10180 20100 30210 40241 58012 60006 875// 91500=
07222,1996-04-15 18:00:00,15,1023.3,-0.8,82,12,10000,7.408,,,300,10.8,18,,,,,,,,,wg-a,,,,AAXX 15184 07222 12/60 73004 10150 20120 30202 40233 56008 60006 82032 91800 333 10180 20108=
07222,1996-04-15 21:00:00,11,1023.4,-0,100,11,12000,7.408,,,270,,,,,,,,,,,wg-a,,,,AAXX 15214 07222 12/62 32704 10110 20110 30202 40234 55000 60006 81033 92100=
07222,1996-04-16 00:00:00,9,1021.7,-1.7,100,9,800,0,,,0,,,,0,,,,,,44,wg-a,,,,AAXX 16004 07222 02108 70000 10090 20090 30185 40217 58017 60006 74441 876// 90000 333 60007=
07222,1996-04-16 03:00:00,9,1018.8,-2.9,100,9,300,3.704,,,100,,,,,,,,,,44,wg-a,,,,AAXX 16034 07222 12103 81002 10090 20090 30156 40188 56029 60006 74444 886// 90300=
07222,1996-04-16 06:00:00,7,1016.6,-2.2,87,5,10000,11.112,,,120,6.9,15.3,,,,,,,,2,wg-a,,,,AAXX 16064 07222 12/60 71206 10070 20050 30134 40166 56022 60004 70242 82031 90600 333 10153 20069=
07222,1996-04-16 09:00:00,14,1014.7,-1.8,58,6,12000,18.52,,,150,,,,,,,,,,,wg-a,,,,AAXX 16094 07222 12/62 71510 10140 20060 30116 40147 58018 60006 82031 90900=
07222,1996-04-16 12:00:00,18,1011.8,-2.9,49,7,15000,18.52,,,170,,,,,,,,,,,wg-a,,,,AAXX 16124 07222 12/65 71710 10180 20070 30087 40118 58029 60006 80001 91200=
07222,1996-04-16 15:00:00,17,1009.5,-2.3,59,9,12000,14.816,,,140,,,,,,,,,,,wg-a,,,,AAXX 16154 07222 12/62 71408 10170 20090 30064 40095 58023 60006 8703/ 91500=
07222,1996-04-16 18:00:00,15,1008.3,-1.2,63,8,12000,3.704,,,160,7.3,19,,,,,,,,2,wg-a,,,,AAXX 16184 07222 02762 71602 10150 20080 30052 40083 58012 61000 70262 875// 91800 333 10190 20073 ////=
07222,1996-04-17 00:00:00,11,1009.7,1.3,87,9,10000,22.224,,,280,,,,0,,,,,,1,wg-a,,,,AAXX 17004 07222 02460 62812 10110 20090 30066 40097 51013 60016 70162 86800 90000 333 60007=
07222,1996-04-17 03:00:00,10,1011,1.2,93,9,10000,14.816,,,270,,,,,,,,,,,wg-a,,,,AAXX 17034 07222 12460 /2708 10100 20090 30078 40110 53012 60006 86800 90300=
07222,1996-04-17 06:00:00,8,1012.7,1.7,93,7,15000,11.112,,,260,7.9,15.5,,,,,1,,,,wg-a,,,,AAXX 17064 07222 12465 22606 10080 20070 30095 40127 53017 60014 81201 90600 333 10155 20079=
07222,1996-04-17 09:00:00,13,1014.4,1.8,72,8,20000,22.224,,,300,,,,,,,,,,,wg-a,,,,AAXX 17094 07222 12570 33012 10130 20080 30113 40144 53018 60006 83800 90900=
07222,1996-04-17 12:00:00,14,1015.3,0.9,63,7,25000,22.224,,,270,,,,,,,,,,,wg-a,,,,AAXX 17124 07222 12675 /2712 10140 20070 30122 40153 51009 60006 85800 91200=
07222,1996-04-17 15:00:00,15,1016.4,1.1,55,6,25000,29.632,,,280,,,,,,,,,,,wg-a,,,,AAXX 17154 07222 12675 22816 10150 20060 30133 40164 51011 60006 82100 91500=
07222,1996-04-17 18:00:00,13,1018.2,1.8,72,8,11000,25.928,,,270,8.1,15.4,,,,,,,,,wg-a,,,,AAXX 17184 07222 12/61 /2714 10130 20080 30151 40182 53018 60006 91800 333 10154 20081=
07222,1996-04-17 21:00:00,9,1019.8,1.5,93,8,15000,7.408,,,230,,,,,,,,,,,wg-a,,,,AAXX 17214 07222 12/65 12304 10090 20080 30166 40198 51015 60006 80001 92100=
07222,1996-04-18 03:00:00,6,1020.1,-0.3,100,6,15000,11.112,,,180,,,,,,,,,,,wg-a,,,,AAXX 18034 07222 12765 21806 10060 20060 30169 40201 58003 60006 82500 90300=
07222,1996-04-18 12:00:00,15,1019.6,-0.8,63,8,500,29.632,,,200,,,,,,,,,,,wg-a,,,,AAXX 18124 07222 12500 52016 10150 20080 30165 40196 58008 60006 84201 91200=
07222,1996-04-18 18:00:00,13,1018.5,-0.3,72,8,500,14.816,,,230,5.1,15.8,,,,,,,,,wg-a,,,,AAXX 18184 07222 12500 /2308 10130 20080 30154 40185 55003 60006 82201 91800 333 10158 20051=
07222,1996-04-18 21:00:00,9,1018.8,0.2,93,8,20000,7.408,,,180,,,,,,,,,,,wg-a,,,,AAXX 18214 07222 12/70 41804 10090 20080 30156 40188 50002 60006 80001 92100=
07222,1996-04-19 00:00:00,7,1018.3,-0.5,93,6,15000,11.112,,,140,,,,,,,,,,,wg-a,,,,AAXX 19004 07222 12/65 21406 10070 20060 30151 40183 58005 60006 80001 90000=
07222,1996-04-19 03:00:00,7,1017.6,-0.7,100,7,15000,7.408,,,130,,,,0,,,,,,,wg-a,,,,AAXX 19034 07222 12665 61304 10070 20070 30144 40176 58007 60007 84501 90300=
07222,1996-04-19 06:00:00,6,1017.2,-0.4,100,6,15000,7.408,,,120,5.5,13,,,,,,,,,wg-a,,,,AAXX 19064 07222 12665 /1204 10060 20060 30140 40172 56004 60004 81501 90600 333 10130 20055=
07222,1996-04-19 09:00:00,15,1016.5,-0.6,63,8,500,11.112,,,120,,,,,,,,,,,wg-a,,,,AAXX 19094 07222 12/00 41206 10150 20080 30134 40165 58006 60006 80001 90900=
07222,1996-04-19 12:00:00,18,1015.1,-1.4,56,9,500,11.112,,,190,,,,,,,,,,,wg-a,,,,AAXX 19124 07222 12600 /1906 10180 20090 30120 40151 58014 60006 81131 91200=
07222,1996-04-19 15:00:00,20,1013.3,-1.8,49,9,500,11.112,,,150,,,,,,,,,,,wg-a,,,,AAXX 19154 07222 12/00 71506 10200 20090 30102 40133 57018 60006 81042 91500=
07222,1996-04-19 18:00:00,18,1012.1,-1.2,56,9,500,11.112,,,180,6.3,19.9,,,,,,,,,wg-a,,,,AAXX 19184 07222 12700 71806 10180 20090 30090 40121 56012 60006 82542 91800 333 10199 20063=
07222,1996-04-19 21:00:00,14,1011.7,-0.4,72,9,20000,7.408,,,120,,,,,,,,,,,wg-a,,,,AAXX 19214 07222 12/70 71204 10140 20090 30086 40117 57004 60006 82042 92100=
07222,1996-04-20 00:00:00,15,1010.5,-1.2,67,9,20000,14.816,,,110,,,,,,,,,,,wg-a,,,,AAXX 20004 07222 12/70 71108 10150 20090 30074 40105 56012 60006 83042 90000=
07222,1996-04-20 03:00:00,13,1009.6,-0.9,72,8,20000,14.816,,,140,,,,,,,,,,,wg-a,,,,AAXX 20034 07222 12/70 71408 10130 20080 30065 40096 56009 60006 85042 90300=
07222,1996-04-20 06:00:00,11,1009.2,-0.4,66,5,20000,25.928,,,140,11,18.2,,,,,,,,,wg-a,,,,AAXX 20064 07222 02/70 71414 10110 20050 30061 40092 58004 60006 83042 90600 333 10182 20110 60004=
07222,1996-04-20 09:00:00,14,1009.2,0,63,7,20000,29.632,,,150,,,,,,,,,,,wg-a,,,,AAXX 20094 07222 12770 71516 10140 20070 30061 40092 50000 60006 81242 90900=
07222,1996-04-20 12:00:00,19,1008.8,-0.3,56,10,25000,31.484,,,200,,,,,,,,,,,wg-a,,,,AAXX 20124 07222 12/75 62017 10190 20100 30058 40088 58003 60006 81082 91200=
07222,1996-04-20 15:00:00,19,1008.5,-0.4,49,8,25000,25.928,,,180,,,,,,,,,,,wg-a,,,,AAXX 20154 07222 12/75 61814 10190 20080 30054 40085 58004 60006 83032 91500=
07222,1996-04-20 18:00:00,18,1007.4,-1.1,52,8,25000,11.112,,,180,11.3,19.7,,,,,,,,,wg-a,,,,AAXX 20184 07222 12/75 21806 10180 20080 30043 40074 56011 60006 81041 91800 333 10197 20113=
07222,1996-04-20 21:00:00,14,1006.6,-0.8,63,7,25000,11.112,,,90,,,,,,,,,,,wg-a,,,,AAXX 20214 07222 12/75 30906 10140 20070 30035 40066 57008 60006 80001 92100=
07222,1996-04-21 00:00:00,12,1005.6,-1,67,6,20000,14.816,,,130,,,,,,,,,,,wg-a,,,,AAXX 21004 07222 12/70 31308 10120 20060 30025 40056 56010 60006 80001 90000=
07222,1996-04-21 06:00:00,12,1003.4,-0.7,62,5,25000,22.224,,,160,11.6,17.6,,,,,,,,,wg-a,,,,AAXX 21064 07222 02/75 21612 10120 20050 30003 40034 55007 60006 81032 90600 333 10176 20116 60004=
07222,1996-04-21 09:00:00,18,1003.4,0.1,52,8,25000,31.484,,,160,,,,,,,,,,,wg-a,,,,AAXX 21094 07222 12/75 11617 10180 20080 30004 40034 51001 60006 81030 90900=
07222,1996-04-21 12:00:00,19,1003.9,0.5,56,10,20000,35.188,,59.264,190,,,,,,,,,,,wg-a,,,,AAXX 21124 07222 12/70 71919 10190 20100 30009 40039 53005 60006 8707/ 91200 333 91032=
07222,1996-04-21 15:00:00,18,1006,2.1,56,9,15000,25.928,,,240,,,,,,,,,,,wg-a,,,,AAXX 21154 07222 12565 52414 10180 20090 30030 40060 53021 60006 85800 91500=
07222,1996-04-21 18:00:00,14,1007.5,1.4,72,9,20000,14.816,,,220,12.3,20.6,,,,,,,,,wg-a,,,,AAXX 21184 07222 12770 72208 10140 20090 30044 40075 53014 60006 875// 91800 333 10206 20123=
07222,1996-04-21 21:00:00,12,1008.5,1,94,11,10000,7.408,,,150,,,,2,,,,,,61,wg-a,,,,AAXX 21214 07222 12660 81504 10120 20110 30054 40085 53010 60027 76162 875// 92100=
07222,1996-04-22 00:00:00,11,1008.2,-0.3,94,10,10000,7.408,,,110,,,,4,,,,,,61,wg-a,,,,AAXX 22004 07222 02660 81104 10110 20100 30051 40082 58003 60066 76162 875// 90000 333 60047=
07222,1996-04-22 03:00:00,10,1007.4,-0.8,93,9,10000,7.408,,,310,,,,3,,,,,,61,wg-a,,,,AAXX 22034 07222 12460 83104 10100 20090 30043 40074 58008 60037 76166 875// 90300=
07222,1996-04-22 06:00:00,10,1005.3,-2.1,100,10,15000,11.112,,,40,9.3,14.1,,9,,,17,,,21,wg-a,,,,AAXX 22064 07222 02565 70406 10100 20100 30022 40053 58021 60174 72162 8657/ 90600 333 10141 20093 60097=
07222,1996-04-22 09:00:00,12,1004.9,-0.4,88,10,12000,14.816,,,50,,,,,,,,,,61,wg-a,,,,AAXX 22094 07222 02462 80508 10120 20100 30018 40049 55004 61000 76162 878// 90900 333 ////=
07222,1996-04-22 12:00:00,16,1002.6,-2.3,82,13,12000,14.816,,,130,,,,,,,,,,3,wg-a,,,,AAXX 22124 07222 02462 81308 10160 20130 39995 40026 58023 61000 70362 878// 91200 333 6100=
07222,1996-04-22 18:00:00,14,999.9,-1.1,94,13,500,7.408,,,110,10.2,15.9,,7,,,,,,17,wg-a,,,,AAXX 22184 07222 12200 81104 10140 20130 39968 49999 55011 60077 71796 879// 91800 333 10159 20102=
07222,1996-04-22 21:00:00,13,1001.9,2,100,13,7000,18.52,,,200,,,,0,,,,,,1,wg-a,,,,AAXX 22214 07222 12357 82010 10130 20130 39988 40019 53020 60007 70162 878// 92100=
07222,1996-04-23 00:00:00,12,1002.8,0.9,100,12,10000,22.224,,,210,,,,,,,,,,1,wg-a,,,,AAXX 23004 07222 12460 72112 10120 20120 39997 40028 53009 60016 70162 872// 90000=
07222,1996-04-23 03:00:00,11,1004.5,1.7,87,9,12000,18.52,,,240,,,,,,,,,,,wg-a,,,,AAXX 23034 07222 12462 /2410 10110 20090 30014 40045 52017 60006 85800 90300=
07222,1996-04-23 06:00:00,10,1007,2.5,93,9,15000,18.52,,,260,9.8,13.8,,,,,10,,,,wg-a,,,,AAXX 23064 07222 12465 52610 10100 20090 30039 40070 53025 60104 83801 90600 333 10138 20098=
07222,1996-04-23 09:00:00,12,1009.9,2.9,88,10,20000,22.224,,,250,,,,1,,,,,,1,wg-a,,,,AAXX 23094 07222 12470 62512 10120 20100 30068 40099 51029 60017 70186 86800 90900=
07222,1996-04-23 12:00:00,14,1011.6,1.7,67,8,25000,22.224,,,240,,,,,,,,,,1,wg-a,,,,AAXX 23124 07222 12575 /2412 10140 20080 30085 40116 51017 60016 70186 85200 91200=
07222,1996-04-23 15:00:00,13,1012.9,1.3,72,8,25000,25.928,,,230,,,,,,,,,,25,wg-a,,,,AAXX 23154 07222 02575 /2314 10130 20080 30098 40129 53013 61000 72586 85902 91500 333 ////=
07222,1996-04-23 18:00:00,12,1013.9,1,71,7,25000,22.224,,,240,9.8,15.3,,,,,,,,1,wg-a,,,,AAXX 23184 07222 32575 32412 10120 20070 30108 40139 51010 70186 83900 91800 333 10153 20098=
07222,1996-04-23 21:00:00,9,1016.2,2.2,87,7,25000,11.112,,,240,,,,,,,,,,,wg-a,,,,AAXX 23214 07222 12575 32406 10090 20070 30130 40162 51022 60006 83900 92100=
07222,1996-04-24 00:00:00,8,1017.3,1.1,93,7,20000,11.112,,,160,,,,1,,,,,,25,wg-a,,,,AAXX 24004 07222 02570 61606 10080 20070 30141 40173 53011 60016 72586 86900 90000 333 60017=
07222,1996-04-24 03:00:00,8,1017.6,0.3,93,7,20000,11.112,,,180,,,,1,,,,,,25,wg-a,,,,AAXX 24034 07222 12570 /1806 10080 20070 30144 40176 52003 60017 72586 86800 90300=
07222,1996-04-24 06:00:00,6,1018.9,1.3,100,6,25000,7.408,,,180,5.7,12.5,,,,,2,,,3,wg-a,,,,AAXX 24064 07222 12575 41804 10060 20060 30157 40189 53013 60024 70386 82831 90600 333 10125 20057=
07222,1996-04-24 09:00:00,13,1020.6,1.8,72,8,25000,14.816,,,270,,,,,,,,,,,wg-a,,,,AAXX 24094 07222 12575 52708 10130 20080 30175 40206 51018 60006 84801 90900=
07222,1996-04-24 12:00:00,15,1021.7,1.1,67,9,500,18.52,,,280,,,,,,,,,,,wg-a,,,,AAXX 24124 07222 12500 42810 10150 20090 30186 40217 51011 60006 84200 91200=
07222,1996-04-24 15:00:00,15,1022.7,1,59,7,500,25.928,,,270,,,,0,,,,,,2,wg-a,,,,AAXX 24154 07222 12500 42714 10150 20070 30196 40227 51010 60007 70286 84200 91500=
07222,1996-04-24 18:00:00,13,1023.8,1,62,6,500,18.52,,,280,6.2,15.3,,,,,,,,1,wg-a,,,,AAXX 24184 07222 32500 /2810 10130 20060 30206 40238 51010 70186 81800 91800 333 10153 20062=
07222,1996-04-24 21:00:00,9,1025.9,2.1,81,6,25000,14.816,,,280,,,,,,,,,,,wg-a,,,,AAXX 24214 07222 12/75 02808 10090 20060 30227 40259 52021 60006 80000 92100=
07222,1996-04-25 00:00:00,7,1026.6,0.7,93,6,15000,3.704,,,340,,,,,,,,,,,wg-a,,,,AAXX 25004 07222 12/65 03402 10070 20060 30234 40266 51007 60006 80000 90000=
07222,1996-04-25 03:00:00,5,1027,0.3,100,5,15000,0,,,0,,,,,,,,,,,wg-a,,,,AAXX 25034 07222 32/65 00000 10050 20050 30237 40270 53003 80000 90300=
07222,1996-04-25 06:00:00,5,1027.8,0.8,100,5,12000,3.704,,,330,4.4,13,,,,,,,,11,wg-a,,,,AAXX 25064 07222 12762 /3302 10050 20050 30245 40278 53008 60004 71100 81500 90600 333 10130 20044=
07222,1996-04-25 09:00:00,12,1028.5,0.8,67,6,500,11.112,,,360,,,,,,,,,,,wg-a,,,,AAXX 25094 07222 12500 33606 10120 20060 30253 40285 51008 60006 83200 90900=
07222,1996-04-25 12:00:00,14,1027.8,-0.7,51,4,500,11.112,,,330,,,,,,,,,,,wg-a,,,,AAXX 25124 07222 12600 /3306 10140 20040 30246 40278 58007 60006 85400 91200=
07222,1996-04-25 15:00:00,15,1027,-0.7,44,3,25000,11.112,,,30,,,,,,,,,,,wg-a,,,,AAXX 25154 07222 12775 70306 10150 20030 30239 40270 58007 60006 875// 91500=
07222,1996-04-25 18:00:00,13,1026.6,-0.5,62,6,25000,7.408,,,20,5.2,15.8,,,,,,,,,wg-a,,,,AAXX 25184 07222 12775 20204 10130 20060 30234 40266 58005 60006 82500 91800 333 10158 20052=
07222,1996-04-25 21:00:00,11,1027,0.4,62,4,25000,3.704,,,50,,,,,,,,,,,wg-a,,,,AAXX 25214 07222 12775 10502 10110 20040 30238 40270 53004 60006 81500 92100=
07222,1996-04-26 00:00:00,7,1026.4,-0.6,87,5,25000,7.408,,,20,,,,,,,,,,,wg-a,,,,AAXX 26004 07222 12/75 00204 10070 20050 30232 40264 57006 60006 80000 90000=
07222,1996-04-26 03:00:00,6,1025,-1.4,93,5,10000,7.408,,,30,,,,,,,,,,,wg-a,,,,AAXX 26034 07222 12/60 /0304 10060 20050 30218 40250 56014 60006 90300=
07222,1996-04-26 06:00:00,7,1024.5,-0.5,87,5,10000,7.408,,,50,4.7,13.2,,0,,,,,,,wg-a,,,,AAXX 26064 07222 02/60 00504 10070 20050 30213 40245 55005 60004 80000 90600 333 10132 20047 60007=
07222,1996-04-26 09:00:00,13,1024.1,-0.4,58,5,25000,11.112,,,60,,,,,,,,,,,wg-a,,,,AAXX 26094 07222 12/75 00606 10130 20050 30209 40241 58004 60006 80000 90900=
07222,1996-04-26 12:00:00,15,1022.2,-1.8,51,5,500,14.816,,,30,,,,,,,,,,,wg-a,,,,AAXX 26124 07222 12/00 10308 10150 20050 30191 40222 58018 60006 80001 91200=
07222,1996-04-26 15:00:00,17,1020,-2.2,48,6,500,22.224,,,70,,,,,,,,,,,wg-a,,,,AAXX 26154 07222 12/00 00712 10170 20060 30169 40200 58022 60006 80000 91500=
07222,1996-04-26 18:00:00,17,1018.4,-1.6,48,6,500,18.52,,,60,7,17.4,,,,,,,,,wg-a,,,,AAXX 26184 07222 12/00 00610 10170 20060 30153 40184 56016 60006 80000 91800 333 10174 20070=
07222,1996-04-26 21:00:00,11,1019,0.5,76,7,20000,11.112,,,340,,,,,,,,,,,wg-a,,,,AAXX 26214 07222 12/70 03406 10110 20070 30158 40190 53005 60006 80000 92100=
07222,1996-04-27 00:00:00,10,1018.2,-0.8,87,8,15000,11.112,,,20,,,,,,,,,,,wg-a,,,,AAXX 27004 07222 12/65 00206 10100 20080 30150 40182 57008 60006 80000 90000=
07222,1996-04-27 03:00:00,9,1016.8,-1.4,87,7,15000,11.112,,,20,,,,,,,,,,,wg-a,,,,AAXX 27034 07222 12/65 00206 10090 20070 30136 40168 56014 60006 80000 90300=
07222,1996-04-27 06:00:00,9,1016.2,-0.6,93,8,8000,11.112,,,30,7.9,16.8,,,,,,,,,wg-a,,,,AAXX 27064 07222 02/58 /0306 10090 20080 30130 40162 56006 60006 80001 90600 333 10168 20079 60004=
07222,1996-04-27 09:00:00,15,1015.3,-0.8,72,10,10000,14.816,,,30,,,,,,,,,,,wg-a,,,,AAXX 27094 07222 12/60 30308 10150 20100 30122 40153 58008 60006 80001 90900=
07222,1996-04-27 12:00:00,19,1013.9,-1.4,52,9,12000,18.52,,,50,,,,,,,,,,,wg-a,,,,AAXX 27124 07222 12/62 30510 10190 20090 30108 40139 58014 60006 80001 91200=
07222,1996-04-27 15:00:00,21,1012.1,-1.7,40,7,15000,18.52,,,50,,,,,,,,,,,wg-a,,,,AAXX 27154 07222 12/65 50510 10210 20070 30091 40121 56017 60006 80002 91500=
07222,1996-04-27 18:00:00,19,1011.8,-0.4,46,7,15000,11.112,,,20,8.9,20.7,,,,,,,,,wg-a,,,,AAXX 27184 07222 12/65 80206 10190 20070 30087 40118 56004 60006 80002 91800 333 10207 20089=
07222,1996-04-27 21:00:00,16,1012.7,0.9,63,9,12000,11.112,,,30,,,,,,,,,,,wg-a,,,,AAXX 27214 07222 12/62 70306 10160 20090 30096 40127 51009 60006 80002 92100=
07222,1996-04-28 00:00:00,13,1012.6,-0.1,82,10,10000,11.112,,,30,,,,,,,,,,,wg-a,,,,AAXX 28004 07222 12/60 60306 10130 20100 30095 40126 57001 60006 80002 90000=
07222,1996-04-28 03:00:00,11,1011.6,-1,87,9,10000,11.112,,,20,,,,,,,,,,,wg-a,,,,AAXX 28034 07222 12/60 50206 10110 20090 30085 40116 56010 60006 80002 90300=
07222,1996-04-28 06:00:00,11,1011.6,-0,82,8,7000,11.112,,,20,10,19,,,,,,,,,wg-a,,,,AAXX 28064 07222 02/57 70206 10110 20080 30085 40116 55000 60006 80002 90600 333 10190 20100 60004=
07222,1996-04-28 09:00:00,15,1011.6,-0,67,9,12000,14.816,,,30,,,,,,,,,,,wg-a,,,,AAXX 28094 07222 12/62 70308 10150 20090 30085 40116 54000 60006 80002 90900=
07222,1996-04-28 12:00:00,19,1010.6,-0.9,60,11,15000,14.816,,,40,,,,,,,,,,,wg-a,,,,AAXX 28124 07222 12/65 50408 10190 20110 30076 40106 58009 60006 80001 91200=
07222,1996-04-28 15:00:00,20,1009.2,-1.4,53,10,15000,14.816,,,10,,,,,,,,,,,wg-a,,,,AAXX 28154 07222 12765 50108 10200 20100 30062 40092 58014 60006 83201 91500=
07222,1996-04-28 18:00:00,17,1009.2,-0.1,63,10,15000,18.52,,,10,10.5,20.6,,,,,,,,,wg-a,,,,AAXX 28184 07222 12765 20110 10170 20100 30061 40092 55001 60006 81401 91800 333 10206 20105=
07222,1996-04-28 21:00:00,13,1010.7,1.5,82,10,15000,18.52,,,10,,,,,,,,,,,wg-a,,,,AAXX 28214 07222 12/65 00110 10130 20100 30076 40107 52015 60006 80000 92100=
07222,1996-04-29 00:00:00,10,1010.6,-0.1,82,7,15000,11.112,,,20,,,,,,,,,,,wg-a,,,,AAXX 29004 07222 12/65 00206 10100 20070 30075 40106 58001 60006 80000 90000=
07222,1996-04-29 03:00:00,9,1009.8,-0.9,81,6,15000,14.816,,,20,,,,,,,,,,,wg-a,,,,AAXX 29034 07222 12/65 30208 10090 20060 30066 40098 56009 60006 80001 90300=
07222,1996-04-29 06:00:00,8,1010.2,0.4,81,5,12000,14.816,,,20,7.5,17.2,,,,,,,,,wg-a,,,,AAXX 29064 07222 02/62 20208 10080 20050 30070 40102 53004 60006 80001 90600 333 10172 20075 60004=
07222,1996-04-29 09:00:00,13,1010.2,0.1,58,5,18000,14.816,,,30,,,,,,,,,,,wg-a,,,,AAXX 29094 07222 12668 /0308 10130 20050 30071 40102 51001 60006 81100 90900=
07222,1996-04-29 12:00:00,16,1009.4,-0.8,48,5,25000,14.816,,,30,,,,,,,,,,,wg-a,,,,AAXX 29124 07222 12775 10308 10160 20050 30063 40094 58008 60006 81501 91200=
07222,1996-04-29 15:00:00,16,1007.7,-1.7,48,5,500,14.816,,,350,,,,,,,,,,,wg-a,,,,AAXX 29154 07222 12700 23508 10160 20050 30046 40077 58017 60006 82200 91500=
07222,1996-04-29 18:00:00,15,1007,-0.7,44,3,500,7.408,,,340,7.7,17.3,,,,,,,,,wg-a,,,,AAXX 29184 07222 12700 23404 10150 20030 30039 40070 56007 60006 81501 91800 333 10173 20077=
07222,1996-04-29 21:00:00,10,1007.9,0.9,76,6,500,7.408,,,340,,,,,,,,,,,wg-a,,,,AAXX 29214 07222 12/00 23404 10100 20060 30048 40079 53009 60006 80001 92100=
07222,1996-04-30 00:00:00,9,1008,0,81,6,25000,11.112,,,10,,,,,,,,,,,wg-a,,,,AAXX 30004 07222 12775 20106 10090 20060 30048 40080 50000 60006 81501 90000=
07222,1996-04-30 03:00:00,7,1006.4,-1.6,93,6,20000,7.408,,,340,,,,,,,,,,,wg-a,,,,AAXX 30034 07222 12/70 23404 10070 20060 30032 40064 56016 60006 80001 90300=
07222,1996-04-30 06:00:00,7,1006.6,0.2,93,6,6000,7.408,,,330,6.2,14.8,,,,,,,,,wg-a,,,,AAXX 30064 07222 02756 43304 10070 20060 30034 40066 53002 60006 82501 90600 333 10148 20062 60004=
07222,1996-04-30 09:00:00,12,1006.3,-0.2,67,6,18000,11.112,,,320,,,,,,,,,,,wg-a,,,,AAXX 30094 07222 12568 23206 10120 20060 30032 40063 58002 60006 82800 90900=
07222,1996-04-30 12:00:00,14,1004.9,-1.4,47,3,20000,7.408,,,260,,,,,,,,,,,wg-a,,,,AAXX 30124 07222 12670 62604 10140 20030 30018 40049 58014 60006 86800 91200=
07222,1996-04-30 15:00:00,14,1003.5,-1.4,51,4,25000,22.224,,,270,,,,,,,,,,,wg-a,,,,AAXX 30154 07222 12675 22712 10140 20040 30004 40035 57014 60006 82200 91500=
07222,1996-04-30 18:00:00,12,1002.8,-0.7,62,5,25000,22.224,,,280,6.7,15.2,,,,,,,,,wg-a,,,,AAXX 30184 07222 12675 /2812 10120 20050 39997 40028 58007 60006 81201 91800 333 10152 20067=
07222,1996-04-30 21:00:00,8,1002.6,-0.2,87,6,15000,7.408,,,170,,,,,,,,,,,wg-a,,,,AAXX 30214 07222 12565 /1704 10080 20060 39995 40026 58002 60006 81232 92100=
07222,1996-05-01 00:00:00,9,1001.7,-0.9,93,8,8000,11.112,,,230,,,,1,,,,,,61,wg-a,,,,AAXX 01004 07222 02558 72306 10090 20080 39986 40017 57009 60016 76162 8357/ 90000 333 60017=
07222,1996-05-01 03:00:00,7,999.6,-2.2,93,6,15000,7.408,,,150,,,,0,,,,,,21,wg-a,,,,AAXX 01034 07222 12565 41504 10070 20060 39964 49996 58022 60007 72161 84800 90300=
07222,1996-05-01 06:00:00,8,998.4,-1.1,93,7,20000,11.112,,,150,5.7,11.5,,0,,,2,,,3,wg-a,,,,AAXX 01064 07222 02570 71506 10080 20070 39953 49984 56011 60024 70386 8493/ 90600 333 10115 20057 60007=
07222,1996-05-01 09:00:00,11,997.9,-0.5,82,8,20000,22.224,,,160,,,,1,,,,,,1,wg-a,,,,AAXX 01094 07222 12570 71612 10110 20080 39948 49979 58005 60017 70186 8583/ 90900=
07222,1996-05-01 12:00:00,12,996.8,-1.1,82,9,20000,25.928,,,180,,,,1,,,,,,16,wg-a,,,,AAXX 01124 07222 02570 71814 10120 20090 39937 49968 58011 60036 71686 879// 91200 333 60017=
07222,1996-05-01 15:00:00,10,995.5,-1.3,93,9,15000,18.52,,,180,,,,2,,,,,,80,wg-a,,,,AAXX 01154 07222 12565 71810 10100 20090 39924 49955 57013 60027 78086 86901 91500=
07222,1996-05-01 18:00:00,10,993.9,-1.6,100,10,15000,7.408,,,180,7.5,13.7,,4,,,,,,25,wg-a,,,,AAXX 01184 07222 12565 71804 10100 20100 39908 49939 56016 60047 72586 879// 91800 333 10137 20075=
07222,1996-05-01 21:00:00,9,993.7,-0.2,93,8,15000,18.52,,,130,,,,3,,,,,,25,wg-a,,,,AAXX 01214 07222 12565 61310 10090 20080 39906 49937 58002 60037 72586 84802 92100=
07222,1996-05-02 00:00:00,8,992.9,-0.8,93,7,15000,14.816,,,160,,,,1,,,,,,25,wg-a,,,,AAXX 02004 07222 02565 51608 10080 20070 39898 49929 57008 60046 72586 85800 90000 333 60017=
07222,1996-05-02 06:00:00,7,992.7,0.3,100,7,15000,14.816,,,130,6.7,11.6,,4,,,17,,,25,wg-a,,,,AAXX 02064 07222 02565 71308 10070 20070 39896 49927 53003 60174 72586 879// 90600 333 10116 20067 60047=
07222,1996-05-02 12:00:00,9,992.3,-0.3,93,8,8000,25.928,,,140,,,,2,,,,,,61,wg-a,,,,AAXX 02124 07222 02458 71414 10090 20080 39892 49923 58003 60036 76186 879// 91200 333 60027=
07222,1996-05-02 15:00:00,11,991.5,-0.8,87,9,25000,11.112,,,190,,,,3,,,,,,25,wg-a,,,,AAXX 02154 07222 12475 71906 10110 20090 39884 49915 56008 60037 72586 8497/ 91500=
07222,1996-05-02 18:00:00,12,992.2,0.7,82,9,15000,11.112,,,50,7.3,12.7,,,,,,,,25,wg-a,,,,AAXX 02184 07222 02465 50506 10120 20090 39891 49922 53007 61000 72586 85900 91800 333 10127 20073 ////=
07222,1996-05-03 00:00:00,9,996.3,1.8,100,9,10000,14.816,,,330,,,,0,,,,,,21,wg-a,,,,AAXX 03004 07222 02360 73308 10090 20090 39932 49963 52018 60006 72162 878// 90000 333 60007=
07222,1996-05-03 03:00:00,8,998.1,1.8,93,7,12000,14.816,,,320,,,,,,,,,,,wg-a,,,,AAXX 03034 07222 12462 73208 10080 20070 39950 49981 53018 60006 876// 90300=
07222,1996-05-03 06:00:00,9,1000.2,2.1,93,8,6000,11.112,,,320,7.8,11.6,,0,,,7,,,21,wg-a,,,,AAXX 03064 07222 02456 83206 10090 20080 39971 40002 53021 60074 72162 875// 90600 333 10116 20078 60007=
07222,1996-05-03 09:00:00,9,1002.9,2.7,93,8,8000,14.816,,,350,,,,0,,,,,,80,wg-a,,,,AAXX 03094 07222 12458 83508 10090 20080 39998 40029 53027 60007 78086 875// 90900=
07222,1996-05-03 12:00:00,12,1004.8,1.9,71,7,20000,11.112,,,20,,,,,,,,,,3,wg-a,,,,AAXX 03124 07222 02570 70206 10120 20070 30017 40048 51019 60006 70386 872// 91200 333 61000=
07222,1996-05-03 15:00:00,12,1006.2,1.4,71,7,20000,11.112,,,10,,,,,,,,,,,wg-a,,,,AAXX 03154 07222 12570 70106 10120 20070 30031 40062 51014 60006 878// 91500=
07222,1996-05-04 09:00:00,11,1014.9,1.4,76,7,15000,18.52,,,90,,,,,,,,,,,wg-a,,,,AAXX 04094 07222 12465 /0910 10110 20070 30117 40149 51014 60006 86801 90900=
07222,1996-05-04 12:00:00,13,1015.2,0.4,58,5,18000,14.816,,,60,,,,,,,,,,,wg-a,,,,AAXX 04124 07222 12668 70608 10130 20050 30121 40152 51004 60006 85201 91200=
07222,1996-05-04 15:00:00,14,1015.1,-0.1,51,4,25000,18.52,,,60,,,,,,,,,,,wg-a,,,,AAXX 04154 07222 12675 70610 10140 20040 30120 40151 57001 60006 858// 91500=
07222,1996-05-04 18:00:00,13,1015.3,0.2,51,3,25000,18.52,,,60,7.7,14.1,,,,,,,,,wg-a,,,,AAXX 04184 07222 12775 10610 10130 20030 30122 40153 52002 60006 81501 91800 333 10141 20077=
07222,1996-05-04 21:00:00,10,1016.2,0.8,66,4,25000,11.112,,,50,,,,,,,,,,,wg-a,,,,AAXX 04214 07222 12/75 10506 10100 20040 30130 40162 52008 60006 80002 92100=
07222,1996-05-05 00:00:00,8,1016.8,0.6,71,3,20000,14.816,,,50,,,,,,,,,,,wg-a,,,,AAXX 05004 07222 12/70 20508 10080 20030 30136 40168 51006 60006 80002 90000=
07222,1996-05-05 03:00:00,6,1016,-0.8,75,2,15000,18.52,,,60,,,,,,,,,,,wg-a,,,,AAXX 05034 07222 12/65 50610 10060 20020 30128 40160 58008 60006 83032 90300=
07222,1996-05-05 06:00:00,7,1015.8,-0.2,70,2,20000,14.816,,,50,5.5,13.2,,,,,,,,,wg-a,,,,AAXX 05064 07222 02770 20508 10070 20020 30126 40158 55002 60006 82500 90600 333 10132 20055 60004=
07222,1996-05-05 09:00:00,12,1015.4,-0.3,62,5,20000,18.52,,,60,,,,,,,,,,,wg-a,,,,AAXX 05094 07222 12770 20610 10120 20050 30123 40154 57003 60006 82500 90900=
07222,1996-05-05 12:00:00,16,1013.8,-1.6,48,5,500,25.928,,,70,,,,,,,,,,,wg-a,,,,AAXX 05124 07222 12600 /0714 10160 20050 30107 40138 58016 60006 81101 91200=
07222,1996-05-05 15:00:00,18,1012.1,-1.7,49,7,500,22.224,,,80,,,,,,,,,,,wg-a,,,,AAXX 05154 07222 12/00 10812 10180 20070 30090 40121 57017 60006 80001 91500=
07222,1996-05-05 18:00:00,17,1011,-1.1,48,6,500,18.52,,,50,6.4,18,,,,,,,,,wg-a,,,,AAXX 05184 07222 12/00 00510 10170 20060 30079 40110 56011 60006 80000 91800 333 10180 20064=
07222,1996-05-05 21:00:00,13,1011,0,58,5,500,18.52,,,50,,,,,,,,,,,wg-a,,,,AAXX 05214 07222 12/00 00510 10130 20050 30079 40110 50000 60006 80000 92100=
07222,1996-05-06 00:00:00,11,1010.2,-0.8,62,4,20000,22.224,,,60,,,,,,,,,,,wg-a,,,,AAXX 06004 07222 12/70 00612 10110 20040 30071 40102 58008 60006 80000 90000=
07222,1996-05-06 03:00:00,10,1009.4,-0.9,66,4,20000,14.816,,,50,,,,,,,,,,,wg-a,,,,AAXX 06034 07222 12770 70508 10100 20040 30062 40094 55009 60006 8352/ 90300=
07222,1996-05-06 06:00:00,7,1009.8,0.4,87,5,8000,22.224,,,50,6.5,17,,2,,,2,,,61,wg-a,,,,AAXX 06064 07222 02658 70512 10070 20050 30066 40098 53004 60024 76161 8257/ 90600 333 10170 20065 60027=
07222,1996-05-06 09:00:00,8,1009,,87,6,8000,29.632,,,50,,,,,,,,,,60,wg-a,,,,AAXX 06094 07222 32658 70516 10080 20060 30058 40090 76066 8257/ 90900=
07222,1996-05-06 12:00:00,13,1008.2,-0.7,67,7,10000,29.632,,,50,,,,,,,,,,3,wg-a,,,,AAXX 06124 07222 02760 70516 10130 20070 30051 40082 56007 61000 70362 8457/ 91200 333 ////=
07222,1996-05-06 15:00:00,14,1007.4,-0.8,63,7,10000,22.224,,,40,,,,,,,,,,,wg-a,,,,AAXX 06154 07222 12760 70412 10140 20070 30043 40074 58008 60006 8357/ 91500=
07222,1996-05-06 18:00:00,12,1007.1,-0.3,71,7,9000,18.52,,,40,6.3,14,,0,,,,,,60,wg-a,,,,AAXX 06184 07222 12759 70410 10120 20070 30040 40071 56003 60007 76086 8557/ 91800 333 10140 20063=
07222,1996-05-06 21:00:00,11,1007.5,0.4,71,6,7000,25.928,,48.152,50,,,,,,,,,,60,wg-a,,,,AAXX 06214 07222 02657 80514 10110 20060 30044 40075 53004 61000 76062 8557/ 92100 333 //// 91026=
07222,1996-05-07 00:00:00,9,1007.6,-0,93,8,50000,22.224,,,40,,,,11,,,,,,61,wg-a,,,,AAXX 07004 07222 02284 80412 10090 20080 30044 40076 54000 60116 76162 8697/ 90000 333 60117=
07222,1996-05-07 03:00:00,9,1006.9,-0.7,93,8,7000,14.816,,,40,,,,,,,,,,1,wg-a,,,,AAXX 07034 07222 02657 80408 10090 20080 30037 40069 58007 61000 70162 8357/ 90300 333 ////=
07222,1996-05-07 06:00:00,9,1006.5,-0.3,87,7,7000,22.224,,,50,8.6,11.6,,,,,,,,2,wg-a,,,,AAXX 07064 07222 32757 70512 10090 20070 30034 40065 56003 70262 8357/ 90600 333 10116 20086=
07222,1996-05-07 09:00:00,11,1006.5,0,82,8,7000,25.928,,,60,,,,,,,,,,,wg-a,,,,AAXX 07094 07222 12657 80614 10110 20080 30034 40065 50000 60006 8357/ 90900=
07222,1996-05-07 12:00:00,15,1006.4,-0.1,72,10,8000,25.928,,,50,,,,,,,,,,,wg-a,,,,AAXX 07124 07222 12558 80514 10150 20100 30033 40064 58001 60006 83137 91200=
07222,1996-05-07 15:00:00,18,1005.8,-0.5,64,11,10000,25.928,,,60,,,,,,,,,,,wg-a,,,,AAXX 07154 07222 12760 70614 10180 20110 30028 40058 58005 60006 82531 91500=
07222,1996-05-07 18:00:00,17,1006.4,0.5,72,12,8000,14.816,,,40,9.1,18.4,,,,,,,,,wg-a,,,,AAXX 07184 07222 12658 70408 10170 20120 30033 40064 53005 60006 8457/ 91800 333 10184 20091=
07222,1996-05-07 21:00:00,15,1008.6,2.2,82,12,8000,14.816,,,30,,,,,,,,,,,wg-a,,,,AAXX 07214 07222 12558 70308 10150 20120 30055 40086 53022 60006 8487/ 92100=
07222,1996-05-08 00:00:00,13,1009.9,1.3,88,11,7000,11.112,,,40,,,,,,,,,,,wg-a,,,,AAXX 08004 07222 12557 70406 10130 20110 30068 40099 53013 60006 8587/ 90000=
07222,1996-05-08 03:00:00,12,1010.6,0.7,88,10,7000,14.816,,,30,,,,,,,,,,,wg-a,,,,AAXX 08034 07222 12457 70308 10120 20100 30075 40106 52007 60006 8587/ 90300=
07222,1996-05-08 06:00:00,11,1012,1.4,94,10,4000,14.816,,,20,10.6,17.3,,0,,,,,,60,wg-a,,,,AAXX 08064 07222 02440 80208 10110 20100 30089 40120 53014 60004 76062 875// 90600 333 10173 20106 60007=
07222,1996-05-08 09:00:00,11,1013.4,1.4,94,10,3000,18.52,,,30,,,,,,,,,,1,wg-a,,,,AAXX 08094 07222 02330 80310 10110 20100 30103 40134 51014 61000 70162 877// 90900 333 ////=
07222,1996-05-08 12:00:00,12,1014.5,1.1,88,10,4500,22.224,,,30,,,,,,,,,,1,wg-a,,,,AAXX 08124 07222 02445 80312 10120 20100 30114 40145 51011 61000 70162 877// 91200 333 ////=
07222,1996-05-08 18:00:00,11,1015.7,0.7,82,8,500,25.928,,,40,10.6,12,,,,,,,,,wg-a,,,,AAXX 08184 07222 32400 80414 10110 20080 30125 40157 51007 877// 91800 333 10120 20106=
07222,1996-05-08 21:00:00,11,1017.4,1.7,76,7,10000,22.224,,,40,,,,,,,,,,,wg-a,,,,AAXX 08214 07222 12560 80412 10110 20070 30142 40174 51017 60006 875// 92100=
07222,1996-05-09 00:00:00,9,1017.8,0.4,87,7,10000,22.224,,,30,,,,,,,,,,,wg-a,,,,AAXX 09004 07222 12460 80312 10090 20070 30146 40178 51004 60006 878// 90000=
07222,1996-05-09 03:00:00,8,1017.7,-0.1,81,5,10000,18.52,,,40,,,,,,,,,,,wg-a,,,,AAXX 09034 07222 12660 80410 10080 20050 30145 40177 55001 60006 875// 90300=
07222,1996-05-09 06:00:00,6,1017.9,0.2,87,4,10000,22.224,,42.596,40,5.8,11.1,,,,,,,,,wg-a,,,,AAXX 09064 07222 02760 10412 10060 20040 30147 40179 53002 60006 81500 90600 333 10111 20058 61000 91023=
07222,1996-05-09 09:00:00,10,1017.8,-0.1,66,4,20000,25.928,,,40,,,,,,,,,,,wg-a,,,,AAXX 09094 07222 12/70 10414 10100 20040 30146 40178 58001 60006 80001 90900=
07222,1996-05-09 12:00:00,14,1016.6,-1.1,55,5,500,25.928,,,30,,,,,,,,,,,wg-a,,,,AAXX 09124 07222 12600 30314 10140 20050 30135 40166 58011 60006 83200 91200=
07222,1996-05-09 15:00:00,15,1015.2,-1.4,44,3,500,29.632,,,40,,,,,,,,,,,wg-a,,,,AAXX 09154 07222 12600 20416 10150 20030 30121 40152 57014 60006 82200 91500=
07222,1996-05-09 18:00:00,13,1014.7,-0.5,54,4,500,22.224,,42.596,40,6.2,15.3,,,,,,,,,wg-a,,,,AAXX 09184 07222 12600 40412 10130 20040 30116 40147 56005 60006 84200 91800 333 10153 20062 91023=
07222,1996-05-09 21:00:00,9,1015.6,0.8,76,5,15000,18.52,,44.448,30,,,,,,,,,,,wg-a,,,,AAXX 09214 07222 12/65 00310 10090 20050 30124 40156 53008 60006 80000 92100 333 91024=
07222,1996-05-10 00:00:00,7,1015.3,-0.3,81,4,15000,18.52,,,30,,,,,,,,,,,wg-a,,,,AAXX 10004 07222 12/65 00310 10070 20040 30121 40153 58003 60006 80000 90000=
07222,1996-05-10 03:00:00,6,1014.4,-0.9,81,3,15000,14.816,,,30,,,,,,,,,,,wg-a,,,,AAXX 10034 07222 12765 30308 10060 20030 30112 40144 56009 60006 83500 90300=
07222,1996-05-10 06:00:00,6,1014.1,-0.3,81,3,15000,18.52,,,30,5.4,13.3,,,,,,,,,wg-a,,,,AAXX 10064 07222 02765 60310 10060 20030 30109 40141 55003 60006 86500 90600 333 10133 20054 60004=
07222,1996-05-10 09:00:00,9,1013.6,-0.5,71,4,20000,18.52,,,30,,,,,,,,,,,wg-a,,,,AAXX 10094 07222 12570 /0310 10090 20040 30104 40136 56005 60006 81100 90900=
07222,1996-05-10 12:00:00,13,1012.2,-1.3,47,2,25000,22.224,,,50,,,,,,,,,,,wg-a,,,,AAXX 10124 07222 12675 30512 10130 20020 30091 40122 56013 60006 83200 91200=
07222,1996-05-10 15:00:00,14,1010.7,-1.5,38,0,25000,18.52,,,50,,,,,,,,,,,wg-a,,,,AAXX 10154 07222 12775 40510 10140 20000 30076 40107 58015 60006 84200 91500=
07222,1996-05-10 18:00:00,13,1010.6,-0.1,54,4,11000,14.816,,,30,5.5,14.6,,,,,,,,,wg-a,,,,AAXX 10184 07222 12/61 /0308 10130 20040 30075 40106 55001 60006 91800 333 10146 20055=
07222,1996-05-10 21:00:00,10,1012.4,1.7,71,5,15000,14.816,,,30,,,,,,,,,,,wg-a,,,,AAXX 10214 07222 12765 60308 10100 20050 30092 40124 51017 60006 845/1 92100=
07222,1996-05-11 00:00:00,8,1012.3,-0.1,81,5,15000,14.816,,,30,,,,,,,,,,,wg-a,,,,AAXX 11004 07222 12765 50308 10080 20050 30091 40123 58001 60006 85500 90000=
07222,1996-05-11 03:00:00,7,1011.8,-0.5,87,5,15000,14.816,,,30,,,,,,,,,,,wg-a,,,,AAXX 11034 07222 12765 70308 10070 20050 30086 40118 56005 60006 87500 90300=
07222,1996-05-11 06:00:00,7,1012.7,0.9,87,5,15000,14.816,,,30,6.9,12.8,,,,,,,,,wg-a,,,,AAXX 11064 07222 02765 70308 10070 20050 30095 40127 53009 60006 875/0 90600 333 10128 20069 60004=
07222,1996-05-11 09:00:00,10,1013,0.3,71,5,10000,18.52,,,40,,,,,,,,,,,wg-a,,,,AAXX 11094 07222 12760 30410 10100 20050 30098 40130 50003 60006 82501 90900=
07222,1996-05-11 12:00:00,15,1012.8,-0.1,44,3,12000,14.816,,,40,,,,,,,,,,,wg-a,,,,AAXX 11124 07222 12662 60408 10150 20030 30097 40128 58001 60006 83801 91200=
07222,1996-05-11 15:00:00,13,1013.1,0.3,51,3,15000,18.52,,,40,,,,,,,,,,,wg-a,,,,AAXX 11154 07222 12765 70410 10130 20030 30100 40131 52003 60006 878// 91500=
07222,1996-05-11 18:00:00,12,1014.1,1,58,4,10000,14.816,,,30,7.1,15,,,,,,,,,wg-a,,,,AAXX 11184 07222 12760 50308 10120 20040 30110 40141 53010 60006 82801 91800 333 10150 20071=
07222,1996-05-11 21:00:00,9,1016.7,2.5,76,5,10000,11.112,,,10,,,,,,,,,,,wg-a,,,,AAXX 11214 07222 12/60 20106 10090 20050 30135 40167 52025 60006 80001 92100=
07222,1996-05-12 00:00:00,6,1017.2,0.5,87,4,10000,11.112,,,350,,,,,,,,,,,wg-a,,,,AAXX 12004 07222 12/60 03506 10060 20040 30140 40172 50005 60006 80000 90000=
07222,1996-05-12 03:00:00,4,1018,0.8,93,3,10000,7.408,,,340,,,,,,,,,,,wg-a,,,,AAXX 12034 07222 12/60 03404 10040 20030 30148 40180 53008 60006 80000 90300=
07222,1996-05-12 06:00:00,6,1019.9,1.9,93,5,9000,11.112,,,350,4,12.2,,,,,,,,,wg-a,,,,AAXX 12064 07222 02/59 23506 10060 20050 30167 40199 52019 60006 80001 90600 333 10122 20040 60004=
07222,1996-05-12 09:00:00,11,1021.3,1.4,66,5,12000,14.816,,,350,,,,,,,,,,,wg-a,,,,AAXX 12094 07222 12562 23508 10110 20050 30181 40213 51014 60006 82100 90900=
07222,1996-05-12 12:00:00,12,1022,0.7,58,4,12000,14.816,,,340,,,,,,,,,,,wg-a,,,,AAXX 12124 07222 12662 /3408 10120 20040 30188 40220 53007 60006 86800 91200=
07222,1996-05-12 15:00:00,14,1022.7,0.8,51,4,20000,11.112,,,340,,,,,,,,,,,wg-a,,,,AAXX 12154 07222 12670 /3406 10140 20040 30196 40227 51008 60006 86800 91500=
07222,1996-05-12 18:00:00,12,1024,1.2,71,7,20000,7.408,,,340,6.2,14.3,,,,,,,,,wg-a,,,,AAXX 12184 07222 12670 73404 10120 20070 30208 40240 53012 60006 878// 91800 333 10143 20062=
07222,1996-05-12 21:00:00,9,1025.6,1.6,76,5,15000,7.408,,,300,,,,,,,,,,,wg-a,,,,AAXX 12214 07222 12765 23004 10090 20050 30224 40256 51016 60006 82500 92100=
07222,1996-05-13 00:00:00,6,1026.3,0.7,87,4,15000,3.704,,,320,,,,,,,,,,,wg-a,,,,AAXX 13004 07222 12/65 03202 10060 20040 30231 40263 51007 60006 80000 90000=
07222,1996-05-13 03:00:00,6,1026.3,-0.1,87,4,15000,7.408,,,30,,,,,,,,,,,wg-a,,,,AAXX 13034 07222 12/65 00304 10060 20040 30230 40263 58001 60006 80000 90300=
07222,1996-05-13 06:00:00,7,1026.5,0.3,93,6,4500,7.408,,,30,4.2,12.3,,,,,,,,10,wg-a,,,,AAXX 13064 07222 02/45 00304 10070 20060 30233 40265 53003 60006 71000 80000 90600 333 10123 20042 60004=
07222,1996-05-13 09:00:00,13,1026.3,-0.2,54,4,9000,7.408,,,360,,,,,,,,,,,wg-a,,,,AAXX 13094 07222 12459 /3604 10130 20040 30231 40263 58002 60006 81101 90900=
07222,1996-05-13 12:00:00,15,1025.1,-1.1,44,3,15000,7.408,,,20,,,,,,,,,,,wg-a,,,,AAXX 13124 07222 12665 /0204 10150 20030 30220 40251 58011 60006 85800 91200=
07222,1996-05-13 15:00:00,16,1023.6,-1.5,45,4,15000,14.816,,,40,,,,,,,,,,,wg-a,,,,AAXX 13154 07222 12765 60408 10160 20040 30205 40236 57015 60006 86800 91500=
07222,1996-05-13 18:00:00,15,1023,-0.6,51,5,11000,11.112,,,30,6.7,16.2,,,,,,,,,wg-a,,,,AAXX 13184 07222 12/61 /0306 10150 20050 30199 40230 58006 60006 91800 333 10162 20067=
07222,1996-05-13 21:00:00,13,1023.4,0.3,67,7,10000,11.112,,,20,,,,,,,,,,,wg-a,,,,AAXX 13214 07222 12760 70206 10130 20070 30202 40234 53003 60006 875// 92100=
07222,1996-05-14 00:00:00,12,1022.4,-1,71,7,10000,11.112,,,30,,,,,,,,,,,wg-a,,,,AAXX 14004 07222 12660 70306 10120 20070 30192 40224 57010 60006 875// 90000=
07222,1996-05-14 03:00:00,10,1021.3,-1.1,71,5,10000,11.112,,,50,,,,,,,,,,,wg-a,,,,AAXX 14034 07222 12660 20506 10100 20050 30181 40213 56011 60006 82500 90300=
07222,1996-05-14 06:00:00,8,1020.5,-0.8,81,5,8000,18.52,,,60,7.5,14.7,,,,,,,,,wg-a,,,,AAXX 14064 07222 02/58 00610 10080 20050 30173 40205 57008 60006 80000 90600 333 10147 20075 60004=
07222,1996-05-14 09:00:00,12,1019.3,-1.2,58,4,20000,22.224,,,60,,,,,,,,,,,wg-a,,,,AAXX 14094 07222 12570 /0612 10120 20040 30161 40193 56012 60006 81100 90900=
07222,1996-05-14 12:00:00,14,1017.6,-1.6,58,6,20000,22.224,,,50,,,,,,,,,,,wg-a,,,,AAXX 14124 07222 12570 30512 10140 20060 30145 40176 58016 60006 83100 91200=
07222,1996-05-14 15:00:00,15,1015.9,-1.7,59,7,25000,22.224,,,40,,,,,,,,,,,wg-a,,,,AAXX 14154 07222 12675 /0412 10150 20070 30128 40159 58017 60006 81100 91500=
07222,1996-05-14 18:00:00,14,1015.1,-0.8,67,8,15000,18.52,,,50,7.9,15.8,,,,,,,,,wg-a,,,,AAXX 14184 07222 12565 70510 10140 20080 30120 40151 56008 60006 875// 91800 333 10158 20079=
07222,1996-05-14 21:00:00,13,1015.4,0.3,77,9,15000,14.816,,,50,,,,,,,,,,,wg-a,,,,AAXX 14214 07222 12565 70508 10130 20090 30123 40154 53003 60006 855// 92100=
07222,1996-05-15 00:00:00,11,1015,-0.5,82,8,12000,14.816,,,50,,,,,,,,,,,wg-a,,,,AAXX 15004 07222 12662 70508 10110 20080 30118 40150 58005 60006 855// 90000=
07222,1996-05-15 03:00:00,11,1013.9,-1,87,9,12000,14.816,,,40,,,,,,,,,,,wg-a,,,,AAXX 15034 07222 12462 70408 10110 20090 30108 40139 58010 60006 855// 90300=
07222,1996-05-15 06:00:00,11,1013.6,-0.3,87,9,4000,18.52,,,50,10.6,14.4,,,,,,,,10,wg-a,,,,AAXX 15064 07222 02440 80510 10110 20090 30105 40136 56003 60006 71022 875// 90600 333 10144 20106 60004=
07222,1996-05-15 09:00:00,12,1013.8,0.2,82,9,6000,18.52,,,50,,,,,,,,,,,wg-a,,,,AAXX 15094 07222 12456 80510 10120 20090 30107 40138 51002 60006 875// 90900=
07222,1996-05-15 12:00:00,14,1013.2,-0.6,77,10,10000,14.816,,,60,,,,,,,,,,,wg-a,,,,AAXX 15124 07222 12560 80608 10140 20100 30101 40132 57006 60006 875// 91200=
07222,1996-05-15 15:00:00,15,1012.1,-1.1,72,10,10000,25.928,,,60,,,,,,,,,,,wg-a,,,,AAXX 15154 07222 12460 70614 10150 20100 30090 40121 57011 60006 875// 91500=
07222,1996-05-15 18:00:00,12,1012,-0.1,82,9,7000,25.928,,,60,10.7,14.9,,,,,,,,,wg-a,,,,AAXX 15184 07222 12457 80614 10120 20090 30089 40120 56001 60006 875// 91800 333 10149 20107=
07222,1996-05-15 21:00:00,10,1012.6,0.5,82,7,7000,25.928,,,60,,,,,,,,,,,wg-a,,,,AAXX 15214 07222 12457 70614 10100 20070 30094 40126 53005 60006 875// 92100=
07222,1996-05-16 00:00:00,10,1011.5,-1.1,76,6,8000,22.224,,,70,,,,,,,,,,,wg-a,,,,AAXX 16004 07222 12458 80712 10100 20060 30083 40115 58011 60006 875// 90000=
07222,1996-05-16 03:00:00,10,1010.2,-1.2,76,6,10000,18.52,,,60,,,,,,,,,,,wg-a,,,,AAXX 16034 07222 12560 70610 10100 20060 30071 40102 55012 60006 875// 90300=
07222,1996-05-16 06:00:00,10,1008.5,-1.7,82,7,8000,25.928,,,70,9.5,12.2,,,,,,,,,wg-a,,,,AAXX 16064 07222 02458 80714 10100 20070 30054 40085 56017 60006 885// 90600 333 10122 20095 60004=
07222,1996-05-16 09:00:00,10,1005.1,-3.4,93,9,4000,29.632,,,70,,,,,,,,,,80,wg-a,,,,AAXX 16094 07222 32340 80716 10100 20090 30020 40051 56034 78096 885// 90900=
07222,1996-05-16 12:00:00,10,1005.5,0.4,93,9,3000,14.816,,,50,,,,2,,,,,,10,wg-a,,,,AAXX 16124 07222 12230 80508 10100 20090 30024 40055 50004 60027 71096 887// 91200=
07222,1996-05-16 15:00:00,12,1004.8,-0.7,100,12,2000,0,,,0,,,,,,,,,,10,wg-a,,,,AAXX 16154 07222 12220 80000 10120 20120 30017 40048 56007 60006 71022 887// 91500=
07222,1996-05-16 18:00:00,13,1004.8,0,94,12,4000,11.112,,,250,9.3,13.5,,,,,,,,10,wg-a,,,,AAXX 16184 07222 32440 82506 10130 20120 30017 40048 50000 71022 876// 91800 333 10135 20093=
07222,1996-05-16 21:00:00,13,1005.9,1.1,94,12,6000,11.112,,,200,,,,,,,,,,,wg-a,,,,AAXX 16214 07222 12556 82006 10130 20120 30028 40059 52011 60006 875// 92100=
07222,1996-05-17 00:00:00,13,1005.5,-0.4,94,12,6000,14.816,,,190,,,,,,,,,,,wg-a,,,,AAXX 17004 07222 12556 81908 10130 20120 30024 40055 56004 60006 875// 90000=
07222,1996-05-17 03:00:00,13,1004.8,-0.7,88,11,7000,18.52,,,200,,,,,,,,,,,wg-a,,,,AAXX 17034 07222 12557 82010 10130 20110 30017 40048 58007 60006 875// 90300=
07222,1996-05-17 06:00:00,12,1004,-0.8,100,12,500,7.408,,,210,11.8,13.1,,1,,,,,,61,wg-a,,,,AAXX 17064 07222 12200 82104 10120 20120 30009 40040 56008 60017 76162 8457/ 90600 333 10131 20118=
07222,1996-05-17 09:00:00,11,1004,-0,100,11,500,3.704,,,20,,,,5,,,,,,61,wg-a,,,,AAXX 17094 07222 12400 80202 10110 20110 30009 40040 55000 60057 76166 875// 90900=
07222,1996-05-17 12:00:00,14,1004,0,88,12,8000,3.704,,,360,,,,1,,,,,,61,wg-a,,,,AAXX 17124 07222 02458 73602 10140 20120 30009 40040 50000 60066 76162 875// 91200 333 60017=
07222,1996-05-17 15:00:00,15,1003.2,-0.8,88,13,18000,7.408,,,100,,,,,,,,,,3,wg-a,,,,AAXX 17154 07222 02468 71004 10150 20130 30001 40032 57008 61000 70362 878// 91500 333 ////=
07222,1996-05-17 18:00:00,17,1001.9,-1.2,77,13,18000,7.408,,,320,10.8,17.2,,,,,,,,3,wg-a,,,,AAXX 17184 07222 32568 73204 10170 20130 39989 40019 56012 70362 86802 91800 333 10172 20108=
07222,1996-05-17 21:00:00,13,1002,-0,100,13,10000,7.408,,,340,,,,1,,,,,,61,wg-a,,,,AAXX 17214 07222 12560 73404 10130 20130 39989 40020 55000 60017 76162 8587/ 92100=
07222,1996-05-18 00:00:00,13,1000.4,-1.6,94,12,10000,7.408,,,40,,,,6,,,,,,21,wg-a,,,,AAXX 18004 07222 02560 70404 10130 20120 39973 40004 58016 60076 72162 8587/ 90000 333 60067=
07222,1996-05-18 03:00:00,12,998.8,-1.6,100,12,10000,3.704,,,310,,,,0,,,,,,,wg-a,,,,AAXX 18034 07222 12560 73102 10120 20120 39957 49988 58016 60007 878// 90300=
07222,1996-05-18 06:00:00,12,998.6,-0.2,100,12,1500,3.704,,,170,12,16.5,,,,,13,,,28,wg-a,,,,AAXX 18064 07222 12115 71702 10120 20120 39955 49986 56002 60134 72886 876// 90600 333 10165 20120=
07222,1996-05-18 09:00:00,14,998.5,-0.1,94,13,4500,3.704,,,140,,,,,,,,,,10,wg-a,,,,AAXX 18094 07222 12345 71402 10140 20130 39954 49985 58001 60006 71022 876// 90900=
07222,1996-05-18 12:00:00,16,996.7,-1.7,82,13,15000,29.632,,,170,,,,1,,,,,,80,wg-a,,,,AAXX 18124 07222 02565 71716 10160 20130 39937 49967 58017 60016 78086 878// 91200 333 60017=
07222,1996-05-18 15:00:00,18,994.2,-2.5,68,12,15000,25.928,,53.708,200,,,,0,,,,,,,wg-a,,,,AAXX 18154 07222 12565 /2014 10180 20120 39912 49942 56025 60007 85200 91500 333 91029=
07222,1996-05-18 18:00:00,13,996.5,2.2,77,9,15000,38.892,,62.968,220,12.4,18.2,,,,,,,,3,wg-a,,,,AAXX 18184 07222 32565 72221 10130 20090 39934 49965 53022 70386 878// 91800 333 10182 20124 91034=
07222,1996-05-18 21:00:00,9,1000.7,4.2,93,8,20000,25.928,,,240,,,,0,,,,,,25,wg-a,,,,AAXX 18214 07222 12470 72414 10090 20080 39976 40007 53042 60007 72586 878// 92100=
07222,1996-05-19 00:00:00,9,1003.2,2.5,87,7,20000,14.816,,,250,,,,,,,,,,2,wg-a,,,,AAXX 19004 07222 12570 72508 10090 20070 30001 40032 51025 60006 70286 878// 90000=
07222,1996-05-19 03:00:00,6,1003.5,0.2,93,5,20000,11.112,,,230,,,,,,,,,,,wg-a,,,,AAXX 19034 07222 12670 22306 10060 20050 30003 40035 52002 60006 82500 90300=
07222,1996-05-19 06:00:00,7,1004.6,1.1,93,6,15000,11.112,,,160,5.6,12.6,,,,,1,,,,wg-a,,,,AAXX 19064 07222 12565 /1606 10070 20060 30014 40046 53011 60014 85801 90600 333 10126 20056=
07222,1996-05-19 09:00:00,11,1005.9,1.4,76,7,18000,18.52,,,250,,,,1,,,,,,25,wg-a,,,,AAXX 19094 07222 12568 52510 10110 20070 30028 40059 53014 60017 72586 85803 90900=
07222,1996-05-19 12:00:00,13,1006.8,0.9,54,4,35000,25.928,,,240,,,,,,,,,,3,wg-a,,,,AAXX 19124 07222 12581 62414 10130 20040 30037 40068 51009 60016 70386 86901 91200=
07222,1996-05-19 15:00:00,12,1007.8,1,76,8,35000,14.816,,,250,,,,0,,,,,,25,wg-a,,,,AAXX 19154 07222 12581 62508 10120 20080 30047 40078 53010 60007 72586 86900 91500=
07222,1996-05-19 18:00:00,12,1008.8,1,67,6,35000,11.112,,,230,7.2,14.4,,,,,,,,1,wg-a,,,,AAXX 19184 07222 02581 /2306 10120 20060 30057 40088 53010 61000 70186 85230 91800 333 10144 20072 ////=
07222,1996-05-19 21:00:00,9,1011,2.1,93,8,15000,7.408,,,210,,,,3,,,,,,25,wg-a,,,,AAXX 19214 07222 12565 62104 10090 20080 30078 40110 53021 60037 72586 86200 92100=
07222,1996-05-20 00:00:00,8,1011.5,0.5,93,7,15000,3.704,,,170,,,,0,,,,,,1,wg-a,,,,AAXX 20004 07222 02765 21702 10080 20070 30083 40115 53005 60046 70186 82500 90000 333 60007=
07222,1996-05-20 03:00:00,6,1013,1.5,100,6,15000,11.112,,,160,,,,,,,,,,,wg-a,,,,AAXX 20034 07222 12765 31606 10060 20060 30098 40130 51015 60006 83500 90300=
07222,1996-05-20 06:00:00,8,1014.5,1.5,93,7,15000,7.408,,,160,6.3,11.6,,,,,5,,,,wg-a,,,,AAXX 20064 07222 12565 /1604 10080 20070 30113 40145 51015 60054 86830 90600 333 10116 20063=
07222,1996-05-20 09:00:00,13,1015.7,1.3,82,10,18000,7.408,,,220,,,,0,,,,,,3,wg-a,,,,AAXX 20094 07222 12568 72204 10130 20100 30126 40157 50013 60007 70386 86902 90900=
07222,1996-05-20 12:00:00,14,1016.4,0.7,72,9,15000,14.816,,,270,,,,,,,,,,2,wg-a,,,,AAXX 20124 07222 02565 72708 10140 20090 30133 40164 51007 60006 70286 86902 91200 333 61000=
07222,1996-05-20 15:00:00,15,1017.3,0.9,59,7,22000,22.224,,,270,,,,1,,,,,,1,wg-a,,,,AAXX 20154 07222 12672 32712 10150 20070 30142 40173 52009 60017 70186 82202 91500=
07222,1996-05-20 18:00:00,13,1018.4,1.1,62,6,25000,22.224,,,260,7.5,15.5,,,,,,,,1,wg-a,,,,AAXX 20184 07222 32675 /2612 10130 20060 30153 40184 51011 70186 81200 91800 333 10155 20075=
07222,1996-05-20 21:00:00,9,1019.4,0.9,87,7,20000,11.112,,,220,,,,,,,,,,,wg-a,,,,AAXX 20214 07222 12570 /2206 10090 20070 30162 40194 53009 60006 81100 92100=
07222,1996-05-21 00:00:00,9,1019.6,0.2,87,7,20000,11.112,,,180,,,,,,,,,,,wg-a,,,,AAXX 21004 07222 12570 /1806 10090 20070 30164 40196 50002 60006 81500 90000=
07222,1996-05-21 03:00:00,9,1019.4,-0.2,93,8,20000,11.112,,,210,,,,0,,,,,,,wg-a,,,,AAXX 21034 07222 12570 /2106 10090 20080 30162 40194 58002 60007 81500 90300=
07222,1996-05-21 06:00:00,10,1020.8,1.4,100,10,20000,7.408,,,250,7.8,13.1,,1,,,3,,,3,wg-a,,,,AAXX 21064 07222 02570 52504 10100 20100 30176 40208 53014 60034 70386 84801 90600 333 10131 20078 60017=
07222,1996-05-21 09:00:00,14,1022.5,1.8,67,8,7000,14.816,,,300,,,,0,,,,,,81,wg-a,,,,AAXX 21094 07222 12557 73008 10140 20080 30194 40225 52018 60007 78186 878// 90900=
07222,1996-05-21 12:00:00,15,1023.8,1.3,55,6,500,25.928,,,270,,,,2,,,,,,1,wg-a,,,,AAXX 21124 07222 02600 /2714 10150 20060 30207 40238 53013 60026 70186 85200 91200 333 60027=
07222,1996-05-21 15:00:00,15,1024.9,1.1,55,6,500,25.928,,,260,,,,,,,,,,,wg-a,,,,AAXX 21154 07222 12600 22614 10150 20060 30218 40249 51011 60006 82200 91500=
07222,1996-05-21 18:00:00,14,1026.1,1.1,58,6,500,25.928,,,280,9.1,15.7,,,,,,,,,wg-a,,,,AAXX 21184 07222 32600 /2814 10140 20060 30229 40261 53011 81201 91800 333 10157 20091=
07222,1996-05-21 21:00:00,9,1027.7,1.6,87,7,20000,7.408,,,230,,,,,,,,,,,wg-a,,,,AAXX 21214 07222 12/70 32304 10090 20070 30245 40277 53016 60006 80001 92100=
07222,1996-05-22 00:00:00,7,1026.8,-0.9,100,7,15000,7.408,,,180,,,,,,,,,,,wg-a,,,,AAXX 22004 07222 12/65 41804 10070 20070 30236 40268 58009 60006 80001 90000=
07222,1996-05-22 03:00:00,7,1025.6,-1.2,100,7,15000,7.408,,,160,,,,0,,,,,,,wg-a,,,,AAXX 22034 07222 12/65 51604 10070 20070 30224 40256 58012 60007 80001 90300=
07222,1996-05-22 06:00:00,10,1025,-0.6,93,9,15000,14.816,,,180,6.6,13.6,,,,,2,,,,wg-a,,,,AAXX 22064 07222 12565 71808 10100 20090 30218 40250 56006 60024 8251/ 90600 333 10136 20066=
07222,1996-05-22 09:00:00,14,1024.1,-0.8,77,10,20000,25.928,,,200,,,,,,,,,,,wg-a,,,,AAXX 22094 07222 12570 72014 10140 20100 30210 40241 58008 60006 85132 90900=
07222,1996-05-22 12:00:00,15,1023.2,-0.9,72,10,20000,29.632,,,210,,,,,,,,,,,wg-a,,,,AAXX 22124 07222 12570 72116 10150 20100 30201 40232 58009 60006 8617/ 91200=
07222,1996-05-22 18:00:00,12,1021,-1.2,100,12,3000,25.928,,,210,9.7,16.3,,3,,,,,,51,wg-a,,,,AAXX 22184 07222 12230 82114 10120 20120 30178 40210 57012 60037 75165 8677/ 91800 333 10163 20097=
07222,1996-05-22 21:00:00,13,1020.8,-0.1,100,13,3000,25.928,,,240,,,,3,,,,,,51,wg-a,,,,AAXX 22214 07222 12230 82414 10130 20130 30177 40208 55001 60037 75166 877// 92100=
07222,1996-05-23 00:00:00,13,1020.9,0.1,100,13,3500,25.928,,,260,,,,1,,,,,,58,wg-a,,,,AAXX 23004 07222 02235 82614 10130 20130 30178 40209 50001 60046 75866 887// 90000 333 60017=
07222,1996-05-23 03:00:00,13,1021,0.1,100,13,10000,22.224,,,250,,,,0,,,,,,21,wg-a,,,,AAXX 23034 07222 12260 82512 10130 20130 30179 40210 53001 60007 72165 887// 90300=
07222,1996-05-23 06:00:00,13,1021.9,0.9,100,13,500,18.52,,,250,12,13.6,,,,,7,,,20,wg-a,,,,AAXX 23064 07222 02200 82510 10130 20130 30188 40219 52009 60074 72065 887// 90600 333 10136 20120 61000=
07222,1996-05-23 09:00:00,14,1022.7,0.8,94,13,3000,18.52,,,250,,,,1,,,,,,10,wg-a,,,,AAXX 23094 07222 12230 82510 10140 20130 30196 40227 51008 60017 71052 887// 90900=
07222,1996-05-23 12:00:00,15,1022.6,-0.1,94,14,12000,22.224,,,230,,,,0,,,,,,20,wg-a,,,,AAXX 23124 07222 02462 82312 10150 20140 30195 40226 58001 60016 72052 887// 91200 333 60007=
07222,1996-05-23 15:00:00,15,1021.5,-1.1,88,13,12000,14.816,,,250,,,,,,,,,,,wg-a,,,,AAXX 23154 07222 12462 82508 10150 20130 30184 40215 58011 60006 885// 91500=
07222,1996-05-23 18:00:00,15,1020.5,-1,88,13,15000,7.408,,,230,13.4,16.2,,,,,,,,,wg-a,,,,AAXX 23184 07222 32465 82304 10150 20130 30174 40205 56010 885// 91800 333 10162 20134=
07222,1996-05-23 21:00:00,14,1019.6,-0.9,88,12,20000,3.704,,,230,,,,,,,,,,,wg-a,,,,AAXX 23214 07222 12470 82302 10140 20120 30165 40196 56009 60006 875// 92100=
07222,1996-05-24 00:00:00,12,1018.6,-1,94,11,15000,14.816,,,240,,,,,,,,,,,wg-a,,,,AAXX 24004 07222 12465 82408 10120 20110 30155 40186 56010 60006 875// 90000=
07222,1996-05-24 03:00:00,12,1016.8,-1.8,94,11,15000,11.112,,,240,,,,,,,,,,,wg-a,,,,AAXX 24034 07222 12465 82406 10120 20110 30137 40168 57018 60006 875// 90300=
07222,1996-05-24 06:00:00,13,1016.2,-0.6,88,11,10000,7.408,,,230,12.1,14.7,,,,,1,,,,wg-a,,,,AAXX 24064 07222 02460 82304 10130 20110 30131 40162 56006 60006 875// 90600 333 10147 20121 60014=
07222,1996-05-24 09:00:00,15,1015.7,-0.5,77,11,12000,18.52,,,230,,,,,,,,,,,wg-a,,,,AAXX 24094 07222 12462 82310 10150 20110 30126 40157 58005 60006 84531 90900=
07222,1996-05-24 12:00:00,17,1015.3,-0.4,72,12,15000,22.224,,,230,,,,,,,,,,,wg-a,,,,AAXX 24124 07222 12465 82312 10170 20120 30122 40153 58004 60006 84531 91200=
07222,1996-05-24 15:00:00,17,1014.3,-1,72,12,25000,25.928,,,230,,,,,,,,,,,wg-a,,,,AAXX 24154 07222 12575 72314 10170 20120 30112 40143 56010 60006 85201 91500=
07222,1996-05-24 18:00:00,15,1013.8,-0.5,82,12,25000,18.52,,,230,12.6,18,,,,,,,,,wg-a,,,,AAXX 24184 07222 12475 72310 10150 20120 30107 40138 57005 60006 875// 91800 333 10180 20126=
07222,1996-05-24 21:00:00,14,1013.5,-0.3,94,13,7000,18.52,,,220,,,,1,,,,,,60,wg-a,,,,AAXX 24214 07222 12357 72210 10140 20130 30104 40135 55003 60017 76065 877// 92100=
07222,1996-05-25 00:00:00,13,1013.3,-0.2,94,12,10000,18.52,,,240,,,,,,,,,,1,wg-a,,,,AAXX 25004 07222 02560 72410 10130 20120 30102 40133 58002 60016 70165 875// 90000 333 61000=
07222,1996-05-25 03:00:00,13,1012.6,-0.7,94,12,6000,14.816,,,240,,,,3,,,,,,61,wg-a,,,,AAXX 25034 07222 12256 72408 10130 20120 30095 40126 56007 60037 76162 875// 90300=
07222,1996-05-25 06:00:00,13,1012.2,-0.4,94,12,6000,14.816,,,220,12.4,15.3,,2,,,6,,,61,wg-a,,,,AAXX 25064 07222 02256 82208 10130 20120 30091 40122 58004 60064 76165 877// 90600 333 10153 20124 60027=
07222,1996-05-25 09:00:00,12,1012.7,0.5,100,12,12000,14.816,,,230,,,,3,,,,,,61,wg-a,,,,AAXX 25094 07222 12462 82308 10120 20120 30096 40127 51005 60037 76166 877// 90900=
07222,1996-05-25 12:00:00,13,1012.5,-0.2,100,13,500,11.112,,,170,,,,6,,,,,,61,wg-a,,,,AAXX 25124 07222 02300 81706 10130 20130 30094 40125 58002 60096 76166 877// 91200 333 60067=
07222,1996-05-25 15:00:00,15,1012.3,-0.2,100,15,8000,14.816,,,250,,,,1,,,,,,60,wg-a,,,,AAXX 25154 07222 12458 82508 10150 20150 30092 40123 56002 60017 76066 877// 91500=
07222,1996-05-25 18:00:00,14,1013.9,1.6,100,14,6000,18.52,,,260,12.2,15.2,,,,,,,,51,wg-a,,,,AAXX 25184 07222 02256 82610 10140 20140 30108 40139 51016 61000 75165 877// 91800 333 10152 20122 ////=
07222,1996-05-25 21:00:00,13,1016.1,2.2,100,13,10000,14.816,,,250,,,,,,,,,,1,wg-a,,,,AAXX 25214 07222 02260 82508 10130 20130 30130 40161 53022 61000 70152 877// 92100 333 ////=
07222,1996-05-26 00:00:00,13,1017.4,1.3,94,12,10000,14.816,,,250,,,,,,,,,,3,wg-a,,,,AAXX 26004 07222 02260 82508 10130 20120 30143 40174 52013 61000 70352 877// 90000 333 ////=
07222,1996-05-26 03:00:00,12,1018.2,0.8,100,12,10000,7.408,,,240,,,,,,,,,,,wg-a,,,,AAXX 26034 07222 12360 72404 10120 20120 30151 40182 53008 60006 875// 90300=
07222,1996-05-26 06:00:00,13,1019,0.8,94,12,500,11.112,,,240,12.1,14.2,,,,,10,,,,wg-a,,,,AAXX 26064 07222 12300 72406 10130 20120 30159 40190 53008 60104 86501 90600 333 10142 20121=
07222,1996-05-26 09:00:00,13,1019.8,0.8,94,12,7000,18.52,,,250,,,,,,,,,,3,wg-a,,,,AAXX 26094 07222 02457 72510 10130 20120 30167 40198 50008 61000 70352 877// 90900 333 ////=
07222,1996-05-26 12:00:00,14,1020.5,0.7,88,12,15000,22.224,,,230,,,,,,,,,,3,wg-a,,,,AAXX 26124 07222 02465 82312 10140 20120 30174 40205 50007 61000 70352 885// 91200 333 6100=
07222,1996-05-26 15:00:00,14,1019.3,-1.2,100,14,4000,25.928,,42.596,230,,,,,,,,,,50,wg-a,,,,AAXX 26154 07222 02240 72314 10140 20140 30162 40193 56012 61000 75052 877// 91500 333 //// 91023=
07222,1996-05-26 18:00:00,14,1018.3,-1,100,14,3000,25.928,,,240,12.8,14.8,,1,,,,,,50,wg-a,,,,AAXX 26184 07222 12230 72414 10140 20140 30152 40183 58010 60017 75065 877// 91800 333 10148 20128=
07222,1996-05-26 21:00:00,14,1018,-0.3,94,13,8000,22.224,,,260,,,,0,,,,,,20,wg-a,,,,AAXX 26214 07222 12258 82612 10140 20130 30149 40180 55003 60007 72065 877// 92100=
07222,1996-05-27 00:00:00,13,1017.4,-0.6,94,12,10000,25.928,,,260,,,,,,,,,,1,wg-a,,,,AAXX 27004 07222 12560 82614 10130 20120 30143 40174 58006 60016 70165 875// 90000=
07222,1996-05-27 03:00:00,12,1017.3,-0.1,94,11,8000,25.928,,,260,,,,,,,,,,,wg-a,,,,AAXX 27034 07222 12458 82614 10120 20110 30142 40173 58001 60006 875// 90300=
07222,1996-05-27 06:00:00,12,1018.1,0.8,94,11,500,31.484,,50.004,270,12,14,,,,,2,,,50,wg-a,,,,AAXX 27064 07222 02400 82717 10120 20110 30150 40181 53008 60024 75052 875// 90600 333 10140 20120 61000 91027=
07222,1996-05-27 12:00:00,15,1020.3,1.3,77,11,20000,22.224,,,280,,,,,,,,,,3,wg-a,,,,AAXX 27124 07222 02470 72812 10150 20110 30172 40203 53013 61000 70352 878// 91200 333 ////=
07222,1996-05-27 15:00:00,16,1020.9,0.6,77,12,20000,25.928,,,280,,,,,,,,,,,wg-a,,,,AAXX 27154 07222 12570 72814 10160 20120 30178 40209 50006 60006 878// 91500=
07222,1996-05-27 18:00:00,15,1022.2,1.3,82,12,20000,18.52,,,270,11.9,16,,,,,,,,,wg-a,,,,AAXX 27184 07222 32470 72710 10150 20120 30191 40222 53013 878// 91800 333 10160 20119=
07222,1996-05-27 21:00:00,12,1024.1,1.8,94,11,20000,7.408,,,280,,,,,,,,,,,wg-a,,,,AAXX 27214 07222 12670 /2804 10120 20110 30209 40241 53018 60006 86500 92100=
07222,1996-05-28 00:00:00,13,1025.6,1.5,94,12,0,3.704,,,330,,,,,,,,,,,wg-a,,,,AAXX 28004 07222 12/// /3302 10130 20120 30224 40256 51015 60006 90000=
07222,1996-05-28 03:00:00,12,1025.6,0,94,11,15000,0,,,0,,,,,,,,,,,wg-a,,,,AAXX 28034 07222 12665 70000 10120 20110 30224 40256 50000 60006 875// 90300=
07222,1996-05-28 06:00:00,13,1026.7,1.1,88,11,20000,11.112,,,50,11.7,14.7,,,,,,,,,wg-a,,,,AAXX 28064 07222 02670 50506 10130 20110 30235 40267 53011 60006 84501 90600 333 10147 20117 61000=
07222,1996-05-28 09:00:00,16,1027,0.4,63,9,20000,3.704,,,340,,,,,,,,,,,wg-a,,,,AAXX 28094 07222 12570 73402 10160 20090 30239 40270 52004 60006 8780/ 90900=
07222,1996-05-28 12:00:00,17,1026.8,-0.2,59,9,20000,3.704,,,210,,,,,,,,,,,wg-a,,,,AAXX 28124 07222 12570 82102 10170 20090 30237 40268 58002 60006 88800 91200=
07222,1996-05-28 15:00:00,19,1025.7,-1.1,64,12,500,7.408,,,250,,,,,,,,,,,wg-a,,,,AAXX 28154 07222 12700 52504 10190 20120 30226 40257 58011 60006 85500 91500=
07222,1996-05-28 18:00:00,17,1025,-0.7,72,12,500,14.816,,,280,12.6,19.4,,,,,,,,,wg-a,,,,AAXX 28184 07222 12700 22808 10170 20120 30219 40250 55007 60006 81502 91800 333 10194 20126=
07222,1996-05-28 21:00:00,13,1025.6,0.5,82,10,10000,7.408,,,300,,,,,,,,,,,wg-a,,,,AAXX 28214 07222 12/60 /3004 10130 20100 30224 40256 53005 60006 92100=
07222,1996-05-29 00:00:00,10,1024.8,-0.8,93,9,20000,0,,,0,,,,,,,,,,,wg-a,,,,AAXX 29004 07222 12/70 00000 10100 20090 30216 40248 58008 60006 80000 90000=
07222,1996-05-29 03:00:00,9,1023.9,-0.9,100,9,15000,0,,,0,,,,,,,,,,,wg-a,,,,AAXX 29034 07222 12/65 10000 10090 20090 30207 40239 56009 60006 81030 90300=
07222,1996-05-29 06:00:00,11,1023.8,-0.1,100,11,10000,0,,,0,8.2,17.4,,0,,,,,,,wg-a,,,,AAXX 29064 07222 02760 10000 10110 20110 30206 40238 56001 60004 81500 90600 333 10174 20082 60007=
07222,1996-05-29 09:00:00,18,1023.9,0.2,73,13,15000,7.408,,,160,,,,,,,,,,,wg-a,,,,AAXX 29094 07222 12765 11604 10180 20130 30208 40239 51002 60006 81501 90900=
07222,1996-05-29 12:00:00,21,1022.6,-1.3,64,14,20000,7.408,,,160,,,,,,,,,,,wg-a,,,,AAXX 29124 07222 12670 /1604 10210 20140 30195 40226 58013 60006 81100 91200=
07222,1996-05-29 15:00:00,23,1021.1,-1.4,57,14,20000,3.704,,,210,,,,,,,,,,,wg-a,,,,AAXX 29154 07222 12670 /2102 10230 20140 30181 40211 58014 60006 81400 91500=
07222,1996-05-29 18:00:00,23,1019.6,-1.5,53,13,20000,3.704,,,200,11.2,24.3,,,,,,,,,wg-a,,,,AAXX 29184 07222 12/70 02002 10230 20130 30166 40196 56015 60006 80000 91800 333 10243 20112=
07222,1996-05-29 21:00:00,17,1019.9,0.2,88,15,20000,7.408,,,320,,,,,,,,,,,wg-a,,,,AAXX 29214 07222 12/70 23204 10170 20150 30168 40199 50002 60006 80001 92100=
07222,1996-05-30 00:00:00,15,1018.7,-1.2,94,14,20000,3.704,,,10,,,,,,,,,,,wg-a,,,,AAXX 30004 07222 12/70 00102 10150 20140 30156 40187 58012 60006 80000 90000=
07222,1996-05-30 03:00:00,14,1016.7,-2,88,12,20000,3.704,,,100,,,,,,,,,,,wg-a,,,,AAXX 30034 07222 12/70 21002 10140 20120 30136 40167 56020 60006 80001 90300=
07222,1996-05-30 06:00:00,16,1016,-0.7,77,12,20000,7.408,,,110,13.7,23.6,,,,,,,,,wg-a,,,,AAXX 30064 07222 02/70 21104 10160 20120 30129 40160 56007 60006 80001 90600 333 10236 20137 60004=
07222,1996-05-30 09:00:00,23,1015.2,-0.7,57,14,20000,18.52,,,150,,,,,,,,,,,wg-a,,,,AAXX 30094 07222 12/70 41510 10230 20140 30122 40152 58007 60006 80001 90900=
07222,1996-05-30 12:00:00,27,1013.8,-1.4,48,15,20000,22.224,,,170,,,,,,,,,,,wg-a,,,,AAXX 30124 07222 12/70 41712 10270 20150 30108 40138 58014 60006 80001 91200=
07222,1996-05-30 15:00:00,29,1012.6,-1.2,43,15,20000,29.632,,,190,,,,,,,,,,,wg-a,,,,AAXX 30154 07222 12/70 41916 10290 20150 30096 40126 56012 60006 80001 91500=
07222,1996-05-30 18:00:00,23,1013.1,0.5,61,15,20000,22.224,,,240,15.8,29,,,,,,,,,wg-a,,,,AAXX 30184 07222 12/70 42412 10230 20150 30101 40131 53005 60006 80001 91800 333 10290 20158=
07222,1996-05-30 21:00:00,15,1016.2,3,88,13,10000,14.816,,,260,,,,,,,,,,,wg-a,,,,AAXX 30214 07222 12360 /2608 10150 20130 30131 40162 53030 60006 83601 92100=
07222,1996-05-31 00:00:00,15,1018.3,2.1,88,13,12000,22.224,,,270,,,,,,,,,,,wg-a,,,,AAXX 31004 07222 12462 72712 10150 20130 30152 40183 52021 60006 875// 90000=
07222,1996-05-31 03:00:00,15,1019.8,1.5,82,12,12000,11.112,,,260,,,,,,,,,,,wg-a,,,,AAXX 31034 07222 12562 72606 10150 20120 30167 40198 53015 60006 875// 90300=
07222,1996-05-31 06:00:00,14,1021.8,2,88,12,20000,11.112,,,270,13.7,22.7,,,,,,,,,wg-a,,,,AAXX 31064 07222 02570 72706 10140 20120 30187 40218 53020 60006 85501 90600 333 10227 20137 60004=
07222,1996-05-31 09:00:00,17,1023.3,1.5,68,11,20000,14.816,,,300,,,,,,,,,,,wg-a,,,,AAXX 31094 07222 12570 73008 10170 20110 30202 40233 53015 60006 85201 90900=
07222,1996-05-31 12:00:00,18,1023.9,0.6,64,11,20000,18.52,,,280,,,,,,,,,,,wg-a,,,,AAXX 31124 07222 12670 72810 10180 20110 30208 40239 52006 60006 85202 91200=
07222,1996-05-31 15:00:00,17,1023.6,-0.3,63,10,20000,18.52,,,310,,,,,,,,,,,wg-a,,,,AAXX 31154 07222 12570 73110 10170 20100 30205 40236 58003 60006 82102 91500=
07222,1996-05-31 18:00:00,15,1023.6,-0,72,10,20000,18.52,,,280,13.8,18.4,,,,,,,,,wg-a,,,,AAXX 31184 07222 12670 72810 10150 20100 30205 40236 55000 60006 81502 91800 333 10184 20138=
07222,1996-05-31 21:00:00,11,1024.8,1.1,87,9,20000,11.112,,,260,,,,,,,,,,,wg-a,,,,AAXX 31214 07222 12/70 02606 10110 20090 30216 40248 53011 60006 80000 92100=
07222,1996-06-01 00:00:00,10,1024.9,0.1,93,9,20000,11.112,,,280,,,,,,,,,,,wg-a,,,,AAXX 01004 07222 12/70 02806 10100 20090 30217 40249 53001 60006 80000 90000=
07222,1996-06-01 03:00:00,8,1024.4,-0.5,100,8,20000,3.704,,,170,,,,,,,,,,,wg-a,,,,AAXX 01034 07222 12/70 01702 10080 20080 30212 40244 55005 60006 80000 90300=
07222,1996-06-01 06:00:00,10,1024.8,0.4,100,10,12000,3.704,,,210,7.7,14.8,,0,,,,,,,wg-a,,,,AAXX 01064 07222 02562 /2102 10100 20100 30216 40248 52004 60004 81201 90600 333 10148 20077 60007=
07222,1996-06-01 09:00:00,15,1024.9,0.2,72,10,15000,11.112,,,280,,,,,,,,,,,wg-a,,,,AAXX 01094 07222 12565 /2806 10150 20100 30218 40249 50002 60006 83801 90900=
07222,1996-06-01 12:00:00,17,1024,-0.9,55,8,20000,18.52,,,260,,,,,,,,,,,wg-a,,,,AAXX 01124 07222 12670 /2610 10170 20080 30209 40240 58009 60006 85201 91200=
07222,1996-06-01 15:00:00,17,1023.8,-0.2,59,9,20000,14.816,,,250,,,,,,,,,,,wg-a,,,,AAXX 01154 07222 12670 72508 10170 20090 30207 40238 58002 60006 878// 91500=
07222,1996-06-01 18:00:00,15,1022.9,-0.9,55,6,20000,18.52,,,250,10.1,17.9,,,,,,,,,wg-a,,,,AAXX 01184 07222 12670 /2510 10150 20060 30198 40229 58009 60006 81101 91800 333 10179 20101=
07222,1996-06-01 21:00:00,11,1022.8,-0.2,82,8,20000,7.408,,,260,,,,,,,,,,,wg-a,,,,AAXX 01214 07222 12/70 62604 10110 20080 30196 40228 55002 60006 80002 92100=
07222,1996-06-02 00:00:00,9,1021,-1.8,93,8,20000,3.704,,,250,,,,,,,,,,,wg-a,,,,AAXX 02004 07222 12/70 62502 10090 20080 30178 40210 56018 60006 80002 90000=
07222,1996-06-02 03:00:00,9,1019.5,-1.5,93,8,20000,3.704,,,180,,,,,,,,,,,wg-a,,,,AAXX 02034 07222 12/70 61802 10090 20080 30163 40195 56015 60006 82032 90300=
07222,1996-06-02 06:00:00,9,1018.8,-0.7,100,9,15000,3.704,,,220,7.5,15,,,,,,,,,wg-a,,,,AAXX 02064 07222 02/65 72202 10090 20090 30156 40188 58007 60006 82032 90600 333 10150 20075 60004=
07222,1996-06-02 09:00:00,14,1018.6,-0.1,72,9,15000,11.112,,,300,,,,,,,,,,,wg-a,,,,AAXX 02094 07222 12565 /3006 10140 20090 30155 40186 58001 60006 82102 90900=
07222,1996-06-02 12:00:00,15,1018.2,-0.4,63,8,25000,14.816,,,330,,,,,,,,,,,wg-a,,,,AAXX 02124 07222 12575 63308 10150 20080 30151 40182 58004 60006 86802 91200=
07222,1996-06-02 15:00:00,17,1017.7,-0.5,59,9,25000,14.816,,,300,,,,,,,,,,25,wg-a,,,,AAXX 02154 07222 02675 /3008 10170 20090 30146 40177 56005 61000 72586 86800 91500 333 ////=
07222,1996-06-02 18:00:00,15,1018.5,0.8,72,10,20000,18.52,,,300,9.2,17.8,,,,,,,,3,wg-a,,,,AAXX 02184 07222 32670 73010 10150 20100 30154 40185 53008 70386 86802 91800 333 10178 20092=
07222,1996-06-02 21:00:00,12,1020.6,2,82,9,20000,7.408,,,360,,,,,,,,,,,wg-a,,,,AAXX 02214 07222 12770 13604 10120 20090 30174 40206 53020 60006 81500 92100=
07222,1996-06-03 00:00:00,10,1021.4,0.8,87,8,20000,11.112,,,330,,,,,,,,,,,wg-a,,,,AAXX 03004 07222 12/70 03306 10100 20080 30182 40214 51008 60006 80000 90000=
07222,1996-06-03 03:00:00,8,1021.5,0.1,93,7,15000,7.408,,,350,,,,,,,,,,,wg-a,,,,AAXX 03034 07222 12/65 03504 10080 20070 30183 40215 52001 60006 80000 90300=
07222,1996-06-03 06:00:00,10,1023.3,1.8,93,9,15000,7.408,,,20,6.7,14.5,,,,,,,,,wg-a,,,,AAXX 03064 07222 02/65 00204 10100 20090 30201 40233 52018 60006 80000 90600 333 10145 20067 61000=
07222,1996-06-03 12:00:00,18,1023.9,0,56,9,500,7.408,,,250,,,,,,,,,,,wg-a,,,,AAXX 03124 07222 12600 12504 10180 20090 30208 40239 50000 60006 81200 91200=
07222,1996-06-03 15:00:00,19,1023.5,-0.4,52,9,500,22.224,,,270,,,,,,,,,,,wg-a,,,,AAXX 03154 07222 12600 /2712 10190 20090 30204 40235 55004 60006 81200 91500=
07222,1996-06-03 21:00:00,13,1026,1.5,82,10,500,7.408,,,260,,,,,,,,,,,wg-a,,,,AAXX 03214 07222 12800 12604 10130 20100 30228 40260 53015 60006 81040 92100=
07222,1996-06-04 00:00:00,11,1026.1,0.1,94,10,0,7.408,,,300,,,,,,,,,,,wg-a,,,,AAXX 04004 07222 12/// /3004 10110 20100 30229 40261 50001 60006 90000=
07222,1996-06-04 03:00:00,8,1026.4,0.3,100,8,20000,0,,,0,,,,0,,,,,,,wg-a,,,,AAXX 04034 07222 12870 10000 10080 20080 30232 40264 53003 60007 81040 90300=
07222,1996-06-04 06:00:00,10,1027.6,1.2,100,10,8000,3.704,,,180,8.1,17.4,,,,,,,,11,wg-a,,,,AAXX 04064 07222 12858 /1802 10100 20100 30244 40276 53012 60004 71100 81040 90600 333 10174 20081=
07222,1996-06-04 09:00:00,18,1027.8,0.3,68,12,12000,7.408,,,60,,,,,,,,,,,wg-a,,,,AAXX 04094 07222 12462 /0604 10180 20120 30247 40278 50003 60006 81100 90900=
07222,1996-06-04 12:00:00,22,1026.9,-0.9,46,10,25000,3.704,,,170,,,,,,,,,,,wg-a,,,,AAXX 04124 07222 12675 /1702 10220 20100 30238 40269 58009 60006 81100 91200=
07222,1996-06-04 15:00:00,24,1025.5,-1.3,41,10,500,3.704,,,120,,,,,,,,,,,wg-a,,,,AAXX 04154 07222 12/00 01202 10240 20100 30225 40255 57013 60006 80000 91500=
07222,1996-06-04 18:00:00,25,1024.7,-0.8,36,9,500,11.112,,,110,9.7,24.7,,,,,,,,,wg-a,,,,AAXX 04184 07222 12/00 01106 10250 20090 30217 40247 56008 60006 80000 91800 333 10247 20097=
07222,1996-06-04 21:00:00,19,1025.1,0.3,60,11,25000,7.408,,,40,,,,,,,,,,,wg-a,,,,AAXX 04214 07222 12/75 00404 10190 20110 30220 40251 53003 60006 80000 92100=
07222,1996-06-05 00:00:00,18,1024.5,-0.6,59,10,20000,3.704,,,60,,,,,,,,,,,wg-a,,,,AAXX 05004 07222 12/70 00602 10180 20100 30214 40245 58006 60006 80000 90000=
07222,1996-06-05 03:00:00,15,1023.3,-1.2,77,11,20000,7.408,,,90,,,,,,,,,,,wg-a,,,,AAXX 05034 07222 12/70 00904 10150 20110 30202 40233 56012 60006 80000 90300=
07222,1996-06-05 06:00:00,17,1023.1,-0.2,72,12,18000,14.816,,,90,14.3,24.7,,,,,,,,,wg-a,,,,AAXX 05064 07222 02/68 00908 10170 20120 30200 40231 58002 60006 80000 90600 333 10247 20143 60004=
07222,1996-06-05 09:00:00,24,1022.3,-0.7,54,14,20000,14.816,,,100,,,,,,,,,,,wg-a,,,,AAXX 05094 07222 12/70 01008 10240 20140 30193 40223 58007 60006 80000 90900=
07222,1996-06-05 12:00:00,27,1021.2,-1.1,42,13,20000,14.816,,,120,,,,,,,,,,,wg-a,,,,AAXX 05124 07222 12/70 01208 10270 20130 30182 40212 58011 60006 80000 91200=
07222,1996-06-05 15:00:00,29,1019.8,-1.4,37,13,20000,14.816,,,120,,,,,,,,,,,wg-a,,,,AAXX 05154 07222 12/70 01208 10290 20130 30168 40198 56014 60006 80000 91500=
07222,1996-06-05 18:00:00,28,1018.8,-1,42,14,20000,14.816,,,150,16.8,29.2,,,,,,,,,wg-a,,,,AAXX 05184 07222 12/70 11508 10280 20140 30158 40188 56010 60006 80001 91800 333 10292 20168=
07222,1996-06-05 21:00:00,21,1019.4,0.5,64,14,20000,3.704,,,340,,,,,,,,,,,wg-a,,,,AAXX 05214 07222 12/70 13402 10210 20140 30163 40194 53005 60006 80001 92100=
07222,1996-06-06 00:00:00,18,1018.6,-0.8,83,15,15000,0,,,0,,,,,,,,,,,wg-a,,,,AAXX 06004 07222 12/65 10000 10180 20150 30155 40186 56008 60006 80001 90000=
07222,1996-06-06 03:00:00,17,1017.6,-1,82,14,15000,3.704,,,100,,,,,,,,,,,wg-a,,,,AAXX 06034 07222 12/65 11002 10170 20140 30145 40176 56010 60006 80001 90300=
07222,1996-06-06 06:00:00,19,1017.5,-0.1,83,16,15000,14.816,,,140,16.2,27.8,,,,,,,,,wg-a,,,,AAXX 06064 07222 02/65 31408 10190 20160 30144 40175 56001 60006 80001 90600 333 10278 20162 60004=
07222,1996-06-06 09:00:00,26,1017.3,-0.1,61,18,18000,14.816,,,160,,,,,,,,,,,wg-a,,,,AAXX 06094 07222 12/68 21608 10260 20180 30143 40173 58001 60006 80001 90900=
07222,1996-06-06 12:00:00,30,1016.7,-0.5,49,18,20000,18.52,,,160,,,,,,,,,,,wg-a,,,,AAXX 06124 07222 12/70 31610 10300 20180 30138 40167 58005 60006 80001 91200=
07222,1996-06-06 15:00:00,29,1016.5,-0.3,43,15,25000,25.928,,,190,,,,,,,,,,,wg-a,,,,AAXX 06154 07222 12/75 11914 10290 20150 30135 40165 56003 60006 80001 91500=
07222,1996-06-06 18:00:00,27,1016,-0.5,51,16,25000,14.816,,,220,18.9,30.3,,,,,,,,,wg-a,,,,AAXX 06184 07222 12/75 02208 10270 20160 30130 40160 55005 60006 80000 91800 333 10303 20189=
07222,1996-06-06 21:00:00,22,1016.3,0.3,69,16,20000,3.704,,,230,,,,,,,,,,,wg-a,,,,AAXX 06214 07222 12/70 02302 10220 20160 30133 40163 53003 60006 80000 92100=
07222,1996-06-07 00:00:00,18,1016.2,-0.2,77,14,20000,7.408,,,110,,,,,,,,,,,wg-a,,,,AAXX 07004 07222 12/70 01104 10180 20140 30131 40162 58002 60006 80000 90000=
07222,1996-06-07 03:00:00,18,1015,-1.2,83,15,20000,14.816,,,140,,,,,,,,,,,wg-a,,,,AAXX 07034 07222 12/70 01408 10180 20150 30119 40150 56012 60006 80000 90300=
07222,1996-06-07 06:00:00,21,1014.9,-0,73,16,15000,18.52,,,160,17.4,26.6,,,,,,,,,wg-a,,,,AAXX 07064 07222 02/65 01610 10210 20160 30119 40149 55000 60006 80000 90600 333 10266 20174 60004=
07222,1996-06-07 09:00:00,26,1014.9,0,58,17,18000,18.52,,,160,,,,,,,,,,,wg-a,,,,AAXX 07094 07222 12/68 01610 10260 20170 30119 40149 50000 60006 80000 90900=
07222,1996-06-07 12:00:00,29,1014,,48,17,18000,22.224,,,180,,,,,,,,,,,wg-a,,,,AAXX 07124 07222 12/68 01812 10290 20170 30111 40140 60006 80000 91200=
07222,1996-06-07 15:00:00,29,1013.6,-0.5,43,15,20000,29.632,,,180,,,,,,,,,,,wg-a,,,,AAXX 07154 07222 12/70 01816 10290 20150 30106 40136 55005 60006 80000 91500=
07222,1996-06-07 18:00:00,21,1013.8,0.2,78,17,8000,18.52,,,230,20.4,29.8,,,,,,,,,wg-a,,,,AAXX 07184 07222 12/58 32310 10210 20170 30108 40138 53002 60006 80002 91800 333 10298 20204=
07222,1996-06-07 21:00:00,17,1014.9,1,94,16,7000,11.112,,,240,,,,,,,,,,,wg-a,,,,AAXX 07214 07222 12457 /2406 10170 20160 30118 40149 53010 60006 82632 92100=
07222,1996-06-08 00:00:00,17,1016.8,1.9,94,16,8000,22.224,,,250,,,,,,,,,,,wg-a,,,,AAXX 08004 07222 12358 82512 10170 20160 30137 40168 52019 60006 876// 90000=
07222,1996-06-08 03:00:00,16,1017.2,0.4,100,16,7000,7.408,,,230,,,,2,,,,,,25,wg-a,,,,AAXX 08034 07222 12457 82304 10160 20160 30141 40172 53004 60027 72522 877// 90300=
07222,1996-06-08 06:00:00,17,1018.6,1.4,94,16,3000,18.52,,,230,16.1,20.7,,,,,2,,,10,wg-a,,,,AAXX 08064 07222 12130 82310 10170 20160 30155 40186 53014 60024 71062 877// 90600 333 10207 20161=
07222,1996-06-08 09:00:00,15,1020.7,2.1,94,14,6000,14.816,,,340,,,,0,,,,,,3,wg-a,,,,AAXX 08094 07222 12256 83408 10150 20140 30176 40207 53021 60007 70362 877// 90900=
07222,1996-06-08 12:00:00,14,1022.5,1.8,88,12,18000,11.112,,,340,,,,,,,,,,20,wg-a,,,,AAXX 08124 07222 02468 83406 10140 20120 30194 40225 51018 60016 72065 878// 91200 333 61000=
07222,1996-06-08 15:00:00,17,1023.1,0.6,77,13,25000,7.408,,,350,,,,,,,,,,,wg-a,,,,AAXX 08154 07222 12575 73504 10170 20130 30200 40231 53006 60006 875// 91500=
07222,1996-06-08 18:00:00,19,1022.6,-0.5,68,13,25000,7.408,,,340,12.6,18.7,,,,,,,,,wg-a,,,,AAXX 08184 07222 32575 33404 10190 20130 30195 40226 56005 82201 91800 333 10187 20126=
07222,1996-06-08 21:00:00,15,1023.6,1,82,12,20000,7.408,,,60,,,,,,,,,,,wg-a,,,,AAXX 08214 07222 12670 /0604 10150 20120 30205 40236 53010 60006 81500 92100=
07222,1996-06-09 00:00:00,12,1023.8,0.1,94,11,20000,7.408,,,110,,,,,,,,,,,wg-a,,,,AAXX 09004 07222 12/70 01104 10120 20110 30206 40238 52001 60006 80000 90000=
07222,1996-06-09 03:00:00,10,1022.9,-0.9,100,10,15000,0,,,0,,,,,,,,,,,wg-a,,,,AAXX 09034 07222 12/65 00000 10100 20100 30197 40229 56009 60006 80000 90300=
07222,1996-06-09 06:00:00,12,1023,0.1,94,11,8000,7.408,,,100,10.4,18.5,,0,,,1,,,,wg-a,,,,AAXX 09064 07222 02/58 /1004 10120 20110 30198 40230 53001 60014 80001 90600 333 10185 20104 60007=
07222,1996-06-09 09:00:00,16,1022.6,-0.3,82,13,15000,7.408,,,110,,,,,,,,,,,wg-a,,,,AAXX 09094 07222 12/65 11104 10160 20130 30195 40226 58003 60006 80002 90900=
07222,1996-06-09 12:00:00,22,1021.9,-0.7,53,12,15000,7.408,,,90,,,,,,,,,,,wg-a,,,,AAXX 09124 07222 12/65 20904 10220 20120 30188 40219 58007 60006 80002 91200=
07222,1996-06-09 15:00:00,24,1020.5,-1.3,50,13,20000,7.408,,,200,,,,,,,,,,,wg-a,,,,AAXX 09154 07222 12770 12004 10240 20130 30175 40205 58013 60006 81501 91500=
07222,1996-06-09 18:00:00,23,1019.7,-0.8,65,16,20000,11.112,,,280,11.5,24.5,,,,,,,,,wg-a,,,,AAXX 09184 07222 12770 52806 10230 20160 30167 40197 56008 60006 835/2 91800 333 10245 20115=
07222,1996-06-09 21:00:00,18,1020.4,0.6,68,12,18000,7.408,,,310,,,,,,,,,,,wg-a,,,,AAXX 09214 07222 12668 43104 10180 20120 30173 40204 53006 60006 82502 92100=
07222,1996-06-10 00:00:00,17,1020.4,0,72,12,15000,7.408,,,310,,,,,,,,,,,wg-a,,,,AAXX 10004 07222 12665 /3104 10170 20120 30173 40204 50000 60006 86500 90000=
07222,1996-06-10 03:00:00,15,1020.5,0.1,88,13,12000,7.408,,,290,,,,,,,,,,,wg-a,,,,AAXX 10034 07222 12662 /2904 10150 20130 30174 40205 53001 60006 86500 90300=
07222,1996-06-10 06:00:00,16,1021.1,0.6,82,13,15000,7.408,,,320,14,23,,,,,,,,,wg-a,,,,AAXX 10064 07222 02665 /3204 10160 20130 30180 40211 51006 60006 85500 90600 333 10230 20140 60004=
07222,1996-06-10 09:00:00,19,1021.8,0.7,68,13,20000,11.112,,,310,,,,,,,,,,,wg-a,,,,AAXX 10094 07222 12770 53106 10190 20130 30187 40218 51007 60006 85500 90900=
07222,1996-06-10 12:00:00,22,1021.8,0,69,16,18000,14.816,,,280,,,,,,,,,,,wg-a,,,,AAXX 10124 07222 12568 /2808 10220 20160 30187 40218 50000 60006 85801 91200=
07222,1996-06-10 15:00:00,22,1021.6,-0.1,57,13,18000,14.816,,,270,,,,,,,,,,,wg-a,,,,AAXX 10154 07222 12668 72708 10220 20130 30186 40216 57001 60006 83802 91500=
07222,1996-06-10 18:00:00,19,1021.9,0.2,83,16,15000,14.816,,,280,15.9,22.8,,,,,,,,,wg-a,,,,AAXX 10184 07222 12/65 72808 10190 20160 30188 40219 53002 60006 80002 91800 333 10228 20159=
07222,1996-06-10 21:00:00,17,1023.6,1.7,88,15,12000,7.408,,,280,,,,,,,,,,,wg-a,,,,AAXX 10214 07222 12/62 22804 10170 20150 30205 40236 53017 60006 80001 92100=
07222,1996-06-11 00:00:00,14,1023.6,0,94,13,10000,3.704,,,280,,,,,,,,,,,wg-a,,,,AAXX 11004 07222 12/60 22802 10140 20130 30205 40236 50000 60006 80001 90000=
07222,1996-06-11 03:00:00,13,1023.9,0.2,94,12,8000,3.704,,,300,,,,,,,,,,,wg-a,,,,AAXX 11034 07222 12/58 23002 10130 20120 30207 40239 51002 60006 80001 90300=
07222,1996-06-11 06:00:00,14,1024.6,0.8,100,14,500,7.408,,,290,11.9,19,,0,,,,,,45,wg-a,,,,AAXX 11064 07222 02/05 92904 10140 20140 30215 40246 53008 60004 74541 89/// 90600 333 10190 20119 60007=
07222,1996-06-11 09:00:00,19,1025.2,0.6,83,16,10000,7.408,,,290,,,,,,,,,,1,wg-a,,,,AAXX 11094 07222 12360 /2904 10190 20160 30221 40252 51006 60006 70141 81100 90900=
07222,1996-06-11 12:00:00,23,1025,-0.1,61,15,25000,18.52,,,250,,,,,,,,,,2,wg-a,,,,AAXX 11124 07222 12575 /2510 10230 20150 30220 40250 56001 60006 70241 81100 91200=
07222,1996-06-11 15:00:00,23,1025,-0,61,15,25000,22.224,,,270,,,,,,,,,,,wg-a,,,,AAXX 11154 07222 12675 /2712 10230 20150 30220 40250 55000 60006 81100 91500=
07222,1996-06-11 18:00:00,21,1025.5,0.4,64,14,25000,18.52,,,270,14.1,23.4,,,,,,,,,wg-a,,,,AAXX 11184 07222 12/75 02710 10210 20140 30224 40255 53004 60006 80000 91800 333 10234 20141=
07222,1996-06-11 21:00:00,16,1026.8,1.3,88,14,20000,11.112,,,270,,,,,,,,,,,wg-a,,,,AAXX 11214 07222 12/70 12706 10160 20140 30237 40268 53013 60006 80001 92100=
07222,1996-06-12 00:00:00,16,1027.7,0.9,94,15,20000,11.112,,,290,,,,,,,,,,,wg-a,,,,AAXX 12004 07222 12470 72906 10160 20150 30246 40277 51009 60006 87500 90000=
07222,1996-06-12 03:00:00,17,1027.8,0.1,88,15,20000,3.704,,,250,,,,,,,,,,,wg-a,,,,AAXX 12034 07222 12570 72502 10170 20150 30247 40278 52001 60006 875// 90300=
07222,1996-06-12 06:00:00,17,1029.1,1.3,88,15,15000,7.408,,,280,15.3,20.7,,,,,,,,,wg-a,,,,AAXX 12064 07222 02465 72804 10170 20150 30260 40291 53013 60006 875// 90600 333 10207 20153 60004=
07222,1996-06-12 09:00:00,18,1030.1,1,94,17,500,7.408,,,360,,,,,,,,,,58,wg-a,,,,AAXX 12094 07222 02400 83604 10180 20170 30270 40301 51010 61000 75865 875// 90900 333 ////=
07222,1996-06-12 12:00:00,20,1030.6,0.5,78,16,20000,14.816,,,60,,,,,,,,,,1,wg-a,,,,AAXX 12124 07222 02470 60608 10200 20160 30275 40306 51005 61000 70165 86800 91200 333 6100=
07222,1996-06-12 15:00:00,22,1030,-0.6,60,14,500,11.112,,,30,,,,,,,,,,,wg-a,,,,AAXX 12154 07222 12500 50306 10220 20140 30269 40300 58006 60006 85800 91500=
07222,1996-06-12 18:00:00,21,1030.1,0.1,60,13,11000,18.52,,,10,17.1,22.5,,,,,,,,,wg-a,,,,AAXX 12184 07222 32/61 /0110 10210 20130 30270 40301 53001 91800 333 10225 20171=
07222,1996-06-12 21:00:00,17,1031.5,1.4,72,12,25000,11.112,,,20,,,,,,,,,,,wg-a,,,,AAXX 12214 07222 12/75 00206 10170 20120 30284 40315 53014 60006 80000 92100=
07222,1996-06-13 00:00:00,14,1032.2,0.6,82,11,25000,14.816,,,40,,,,,,,,,,,wg-a,,,,AAXX 13004 07222 12/75 00408 10140 20110 30290 40322 51006 60006 80000 90000=
07222,1996-06-13 03:00:00,13,1032,-0.2,82,10,20000,11.112,,,40,,,,,,,,,,,wg-a,,,,AAXX 13034 07222 12/70 00406 10130 20100 30288 40320 57002 60006 80000 90300=
07222,1996-06-13 06:00:00,13,1032.1,0.1,82,10,15000,18.52,,,60,11.2,21.2,,,,,,,,,wg-a,,,,AAXX 13064 07222 02/65 00610 10130 20100 30289 40321 52001 60006 80000 90600 333 10212 20112 61000=
07222,1996-06-13 09:00:00,19,1032,0,56,10,25000,22.224,,,80,,,,,,,,,,,wg-a,,,,AAXX 13094 07222 12/75 00812 10190 20100 30289 40320 50000 60006 80000 90900=
07222,1996-06-13 12:00:00,22,1031.1,-0.9,46,10,500,22.224,,,50,,,,,,,,,,,wg-a,,,,AAXX 13124 07222 12/00 00512 10220 20100 30280 40311 58009 60006 80000 91200=
07222,1996-06-13 15:00:00,24,1029.3,-1.8,38,9,500,25.928,,,50,,,,,,,,,,,wg-a,,,,AAXX 13154 07222 12/00 00514 10240 20090 30262 40293 58018 60006 80000 91500=
07222,1996-06-13 18:00:00,24,1028,-1.3,34,7,500,25.928,,,50,12.7,24.6,,,,,,,,,wg-a,,,,AAXX 13184 07222 12/00 00514 10240 20070 30249 40280 56013 60006 80000 91800 333 10246 20127=
07222,1996-06-13 21:00:00,20,1029.1,1.1,49,9,500,14.816,,,50,,,,,,,,,,,wg-a,,,,AAXX 13214 07222 12/00 00508 10200 20090 30260 40291 53011 60006 80000 92100=
07222,1996-06-14 00:00:00,17,1029,-0.1,59,9,20000,18.52,,,60,,,,,,,,,,,wg-a,,,,AAXX 14004 07222 12/70 00610 10170 20090 30259 40290 58001 60006 80000 90000=
07222,1996-06-14 03:00:00,14,1028.5,-0.6,72,9,20000,14.816,,,40,,,,,,,,,,,wg-a,,,,AAXX 14034 07222 12/70 00408 10140 20090 30253 40285 58006 60006 80000 90300=
07222,1996-06-14 06:00:00,14,1028.8,0.3,72,9,15000,22.224,,,60,13.3,23.9,,,,,,,,,wg-a,,,,AAXX 14064 07222 02/65 00612 10140 20090 30256 40288 52003 60006 80000 90600 333 10239 20133 60004=
07222,1996-06-14 09:00:00,19,1028.2,-0.5,52,9,22000,22.224,,,60,,,,,,,,,,,wg-a,,,,AAXX 14094 07222 12/72 10612 10190 20090 30251 40282 56005 60006 80001 90900=
07222,1996-06-14 12:00:00,23,1027.1,-1.1,36,7,22000,22.224,,,50,,,,,,,,,,,wg-a,,,,AAXX 14124 07222 12/72 10512 10230 20070 30240 40271 58011 60006 80001 91200=
07222,1996-06-14 15:00:00,26,1024.9,-2.1,32,8,25000,25.928,,,50,,,,,,,,,,,wg-a,,,,AAXX 14154 07222 12/75 10514 10260 20080 30219 40249 58021 60006 80001 91500=
07222,1996-06-14 18:00:00,25,1023.8,-1.1,34,8,500,25.928,,,60,13.8,26,,,,,,,,,wg-a,,,,AAXX 14184 07222 12/00 10614 10250 20080 30208 40238 56011 60006 80001 91800 333 10260 20138=
07222,1996-06-14 21:00:00,21,1024.9,1,43,8,20000,14.816,,,50,,,,,,,,,,,wg-a,,,,AAXX 14214 07222 12/70 10508 10210 20080 30218 40249 53010 60006 80001 92100=
07222,1996-06-15 00:00:00,18,1025,0.1,52,8,20000,22.224,,,60,,,,,,,,,,,wg-a,,,,AAXX 15004 07222 12/70 00612 10180 20080 30219 40250 50001 60006 80000 90000=
07222,1996-06-15 03:00:00,14,1023.8,-1.2,67,8,20000,22.224,,,60,,,,,,,,,,,wg-a,,,,AAXX 15034 07222 12/70 10612 10140 20080 30207 40238 57012 60006 80001 90300=
07222,1996-06-15 06:00:00,14,1023.7,-0.1,72,9,20000,22.224,,,60,13.5,25.3,,,,,,,,,wg-a,,,,AAXX 15064 07222 02/70 20612 10140 20090 30206 40237 55001 60006 80001 90600 333 10253 20135 60004=
07222,1996-06-15 09:00:00,21,1023.4,-0.3,49,10,20000,25.928,,,70,,,,,,,,,,,wg-a,,,,AAXX 15094 07222 12/70 20714 10210 20100 30203 40234 58003 60006 80001 90900=
07222,1996-06-15 12:00:00,26,1022.1,-1.2,34,9,20000,29.632,,,80,,,,,,,,,,,wg-a,,,,AAXX 15124 07222 12/70 20816 10260 20090 30191 40221 58012 60006 80001 91200=
07222,1996-06-15 15:00:00,28,1021.2,-0.9,25,6,20000,25.928,,,70,,,,,,,,,,,wg-a,,,,AAXX 15154 07222 12/70 20714 10280 20060 30182 40212 58009 60006 80001 91500=
07222,1996-06-15 18:00:00,27,1020.1,-1.1,23,4,10000,29.632,,,80,14.4,28.3,,,,,,,,,wg-a,,,,AAXX 15184 07222 12/60 /0816 10270 20040 30171 40201 56011 60006 91800 333 10283 20144=
07222,1996-06-15 21:00:00,23,1021.1,1,41,9,20000,11.112,,,50,,,,,,,,,,,wg-a,,,,AAXX 15214 07222 12/70 20506 10230 20090 30181 40211 53010 60006 80001 92100=
07222,1996-06-16 00:00:00,19,1021.7,0.5,52,9,20000,14.816,,,60,,,,,,,,,,,wg-a,,,,AAXX 16004 07222 12/70 10608 10190 20090 30186 40217 52005 60006 80001 90000=
07222,1996-06-16 03:00:00,16,1020.8,-0.9,63,9,15000,18.52,,,60,,,,,,,,,,,wg-a,,,,AAXX 16034 07222 12/65 00610 10160 20090 30177 40208 58009 60006 80000 90300=
07222,1996-06-16 06:00:00,16,1020.8,-0,63,9,10000,18.52,,,60,14.9,27.3,,,,,,,,,wg-a,,,,AAXX 16064 07222 02/60 /0610 10160 20090 30177 40208 55000 60006 90600 333 10273 20149 60004=
07222,1996-06-16 09:00:00,23,1020.7,0,47,11,25000,22.224,,,60,,,,,,,,,,,wg-a,,,,AAXX 16094 07222 12/75 10612 10230 20110 30177 40207 50000 60006 80001 90900=
07222,1996-06-16 12:00:00,28,1020.1,-0.6,30,9,25000,25.928,,,70,,,,,,,,,,,wg-a,,,,AAXX 16124 07222 12/75 10714 10280 20090 30171 40201 58006 60006 80001 91200=
07222,1996-06-16 15:00:00,29,1018.9,-1.2,25,7,25000,22.224,,,70,,,,,,,,,,,wg-a,,,,AAXX 16154 07222 12/75 20712 10290 20070 30159 40189 58012 60006 80001 91500=
07222,1996-06-16 18:00:00,29,1018.1,-0.8,23,6,25000,18.52,,,70,16.3,29.6,,,,,,,,,wg-a,,,,AAXX 16184 07222 12/75 20710 10290 20060 30151 40181 56008 60006 80001 91800 333 10296 20163=
07222,1996-06-16 21:00:00,24,1018.9,0.8,34,7,25000,11.112,,,60,,,,,,,,,,,wg-a,,,,AAXX 16214 07222 12/75 10606 10240 20070 30159 40189 53008 60006 80001 92100=
07222,1996-06-17 00:00:00,20,1019.3,0.3,49,9,25000,11.112,,,60,,,,,,,,,,,wg-a,,,,AAXX 17004 07222 12/75 00606 10200 20090 30162 40193 52003 60006 80000 90000=
07222,1996-06-17 03:00:00,17,1018.8,-0.5,59,9,25000,11.112,,,50,,,,,,,,,,,wg-a,,,,AAXX 17034 07222 12/75 00506 10170 20090 30157 40188 58005 60006 80000 90300=
07222,1996-06-17 06:00:00,17,1019,0.2,63,10,25000,11.112,,,60,15.4,28.7,,,,,,,,,wg-a,,,,AAXX 17064 07222 02/75 20606 10170 20100 30159 40190 53002 60006 80001 90600 333 10287 20154 60004=
07222,1996-06-17 09:00:00,24,1018.9,0,44,11,25000,11.112,,,70,,,,,,,,,,,wg-a,,,,AAXX 17094 07222 12/75 50706 10240 20110 30159 40189 50000 60006 80001 90900=
07222,1996-06-17 12:00:00,28,1018,-0.9,37,12,25000,7.408,,,30,,,,,,,,,,,wg-a,,,,AAXX 17124 07222 12/75 70304 10280 20120 30150 40180 56009 60006 80001 91200=
07222,1996-06-17 15:00:00,29,1016.9,-1.1,27,8,25000,11.112,,,50,,,,,,,,,,,wg-a,,,,AAXX 17154 07222 12/75 50506 10290 20080 30139 40169 58011 60006 80001 91500=
07222,1996-06-17 18:00:00,28,1016.4,-0.5,32,10,25000,11.112,,,350,17.4,29.8,,,,,,,,,wg-a,,,,AAXX 17184 07222 12/75 33506 10280 20100 30134 40164 56005 60006 80001 91800 333 10298 20174=
07222,1996-06-17 21:00:00,23,1016.9,0.5,44,10,25000,3.704,,,20,,,,,,,,,,,wg-a,,,,AAXX 17214 07222 12/75 30202 10230 20100 30139 40169 53005 60006 80001 92100=
07222,1996-06-18 00:00:00,18,1017,-0,64,11,25000,3.704,,,320,,,,,,,,,,,wg-a,,,,AAXX 18004 07222 12/75 33202 10180 20110 30139 40170 54000 60006 80001 90000=
07222,1996-06-18 03:00:00,15,1016.3,-0.7,82,12,10000,0,,,0,,,,,,,,,,,wg-a,,,,AAXX 18034 07222 12/60 /0000 10150 20120 30132 40163 58007 60006 90300=
07222,1996-06-18 06:00:00,17,1016.5,0.2,88,15,15000,3.704,,,340,14,28,,,,,,,,,wg-a,,,,AAXX 18064 07222 02/65 13402 10170 20150 30134 40165 53002 60006 80001 90600 333 10280 20140 60004=
07222,1996-06-18 09:00:00,25,1016.2,-0.2,44,12,18000,7.408,,,50,,,,,,,,,,,wg-a,,,,AAXX 18094 07222 12/68 10504 10250 20120 30132 40162 58002 60006 80001 90900=
07222,1996-06-18 12:00:00,28,1015.7,-0.5,40,13,22000,11.112,,,280,,,,,,,,,,,wg-a,,,,AAXX 18124 07222 12/72 12806 10280 20130 30127 40157 58005 60006 80001 91200=
07222,1996-06-18 15:00:00,29,1015.1,-0.6,37,13,28000,11.112,,,320,,,,,,,,,,,wg-a,,,,AAXX 18154 07222 12/78 23206 10290 20130 30121 40151 58006 60006 80001 91500=
07222,1996-06-18 18:00:00,27,1014.3,-0.8,42,13,500,18.52,,,280,16.9,29.4,,,,,,,,,wg-a,,,,AAXX 18184 07222 12/00 22810 10270 20130 30113 40143 55008 60006 80001 91800 333 10294 20169=
07222,1996-06-18 21:00:00,21,1014.5,0.2,64,14,20000,11.112,,,340,,,,,,,,,,,wg-a,,,,AAXX 18214 07222 12/70 23406 10210 20140 30115 40145 53002 60006 80001 92100=
07222,1996-06-19 00:00:00,19,1014.8,0.2,68,13,20000,0,,,0,,,,,,,,,,,wg-a,,,,AAXX 19004 07222 12/70 00000 10190 20130 30117 40148 51002 60006 80000 90000=
07222,1996-06-19 03:00:00,16,1014.1,-0.7,82,13,10000,3.704,,,250,,,,,,,,,,,wg-a,,,,AAXX 19034 07222 12/60 /2502 10160 20130 30110 40141 56007 60006 90300=
07222,1996-06-19 09:00:00,24,1013.7,-0.2,50,13,20000,7.408,,,260,,,,,,,,,,,wg-a,,,,AAXX 19094 07222 12/70 42604 10240 20130 30107 40137 58002 60006 81081 90900=
07222,1996-06-19 12:00:00,26,1013.2,-0.5,51,15,20000,18.52,,,250,,,,,,,,,,,wg-a,,,,AAXX 19124 07222 12/70 42510 10260 20150 30102 40132 56005 60006 81041 91200=
07222,1996-06-19 15:00:00,21,1013.2,-0,73,16,15000,22.224,,,270,,,,,,,,,,,wg-a,,,,AAXX 19154 07222 12565 62712 10210 20160 30102 40132 55000 60006 81181 91500=
07222,1996-06-19 18:00:00,19,1012.3,-1,83,16,12000,18.52,,,270,18,26,,,,,,,,,wg-a,,,,AAXX 19184 07222 12462 72710 10190 20160 30092 40123 56010 60006 875// 91800 333 10260 20180=
07222,1996-06-19 21:00:00,17,1012.7,0.4,82,14,12000,18.52,,,260,,,,,,,,,,,wg-a,,,,AAXX 19214 07222 12562 82610 10170 20140 30096 40127 53004 60006 8228/ 92100=
07222,1996-06-20 00:00:00,17,1012.2,-0.5,88,15,12000,11.112,,,250,,,,,,,,,,,wg-a,,,,AAXX 20004 07222 12562 82506 10170 20150 30091 40122 58005 60006 872// 90000=
07222,1996-06-20 03:00:00,15,1011.3,-0.9,94,14,12000,11.112,,,250,,,,,,,,,,,wg-a,,,,AAXX 20034 07222 12662 22506 10150 20140 30082 40113 57009 60006 82500 90300=
07222,1996-06-20 06:00:00,16,1011.3,-0,94,15,20000,14.816,,,270,13.8,18.8,,,,,,,,,wg-a,,,,AAXX 20064 07222 02570 32708 10160 20150 30082 40113 55000 60006 83800 90600 333 10188 20138 60004=
07222,1996-06-20 09:00:00,20,1011.1,-0.1,64,13,500,18.52,,,250,,,,,,,,,,,wg-a,,,,AAXX 20094 07222 12500 /2510 10200 20130 30081 40111 58001 60006 85200 90900=
07222,1996-06-20 12:00:00,21,1011,-0.1,60,13,500,22.224,,,250,,,,,,,,,,,wg-a,,,,AAXX 20124 07222 12600 /2512 10210 20130 30080 40110 58001 60006 85200 91200=
07222,1996-06-20 15:00:00,22,1010.3,-0.7,57,13,500,18.52,,,260,,,,,,,,,,,wg-a,,,,AAXX 20154 07222 12600 /2610 10220 20130 30073 40103 58007 60006 86200 91500=
07222,1996-06-20 18:00:00,20,1009.8,-0.5,64,13,500,18.52,,,260,16,22.4,,,,,,,,,wg-a,,,,AAXX 20184 07222 12600 52610 10200 20130 30068 40098 55005 60006 83202 91800 333 10224 20160=
07222,1996-06-20 21:00:00,17,1010.1,0.2,82,14,25000,7.408,,,260,,,,,,,,,,,wg-a,,,,AAXX 20214 07222 12675 /2604 10170 20140 30070 40101 53002 60006 86800 92100=
07222,1996-06-21 00:00:00,15,1009.4,-0.7,88,13,20000,7.408,,,240,,,,,,,,,,,wg-a,,,,AAXX 21004 07222 12670 /2404 10150 20130 30063 40094 58007 60006 85500 90000=
07222,1996-06-21 03:00:00,14,1007.6,-1.8,94,13,20000,3.704,,,310,,,,,,,,,,,wg-a,,,,AAXX 21034 07222 12670 33102 10140 20130 30045 40076 58018 60006 83500 90300=
07222,1996-06-21 06:00:00,15,1007.8,0.2,88,13,15000,11.112,,,20,13.9,19.6,,,,,,,,,wg-a,,,,AAXX 21064 07222 02765 70206 10150 20130 30047 40078 50002 60006 83532 90600 333 10196 20139 60004=
07222,1996-06-21 12:00:00,19,1008.4,0,64,12,15000,11.112,,,20,,,,,,,,,,,wg-a,,,,AAXX 21124 07222 12565 70206 10190 20120 30054 40084 50000 60006 878// 91200=
07222,1996-06-21 18:00:00,20,1009.7,1.4,49,9,15000,0,,,0,15.2,21.7,,,,,,,,,wg-a,,,,AAXX 21184 07222 12765 7//// 10200 20090 30067 40097 53014 60006 843// 91800 333 10217 20152=
07222,1996-06-21 21:00:00,17,1012.6,2.8,55,8,15000,11.112,,,340,,,,,,,,,,,wg-a,,,,AAXX 21214 07222 12765 73406 10170 20080 30095 40126 53028 60006 86530 92100=
07222,1996-06-22 00:00:00,14,1014.8,2.2,72,9,12000,7.408,,,350,,,,,,,,,,,wg-a,,,,AAXX 22004 07222 12762 63504 10140 20090 30117 40148 51022 60006 86500 90000=
07222,1996-06-22 03:00:00,10,1016.8,1.9,87,8,12000,7.408,,,340,,,,,,,,,,,wg-a,,,,AAXX 22034 07222 12/62 03404 10100 20080 30136 40168 51019 60006 80000 90300=
07222,1996-06-22 06:00:00,10,1018.8,2,93,9,7000,3.704,,,10,8.7,19.6,,,,,,,,,wg-a,,,,AAXX 22064 07222 02757 /0102 10100 20090 30156 40188 53020 60006 81500 90600 333 10196 20087 60004=
07222,1996-06-22 09:00:00,17,1020.3,1.6,55,8,12000,7.408,,,330,,,,,,,,,,,wg-a,,,,AAXX 22094 07222 12562 /3304 10170 20080 30172 40203 51016 60006 81100 90900=
07222,1996-06-22 12:00:00,20,1020.7,0.4,46,8,15000,18.52,,,300,,,,,,,,,,,wg-a,,,,AAXX 22124 07222 12665 43010 10200 20080 30176 40207 50004 60006 84200 91200=
07222,1996-06-22 15:00:00,20,1021,0.3,46,8,25000,18.52,,,280,,,,,,,,,,,wg-a,,,,AAXX 22154 07222 12675 32810 10200 20080 30179 40210 51003 60006 83100 91500=
07222,1996-06-22 18:00:00,18,1021.5,0.5,56,9,25000,25.928,,,270,10.3,20.3,,,,,,,,,wg-a,,,,AAXX 22184 07222 12675 52714 10180 20090 30184 40215 53005 60006 83101 91800 333 10203 20103=
07222,1996-06-22 21:00:00,15,1023,1.5,63,8,25000,11.112,,,320,,,,,,,,,,,wg-a,,,,AAXX 22214 07222 12/75 13206 10150 20080 30199 40230 53015 60006 80001 92100=
07222,1996-06-23 00:00:00,12,1023.8,0.7,71,7,15000,11.112,,,330,,,,,,,,,,,wg-a,,,,AAXX 23004 07222 12/65 13306 10120 20070 30206 40238 50007 60006 80001 90000=
07222,1996-06-23 03:00:00,11,1023.2,-0.6,87,9,15000,14.816,,,350,,,,,,,,,,,wg-a,,,,AAXX 23034 07222 12765 63508 10110 20090 30200 40232 56006 60006 825/1 90300=
07222,1996-06-23 06:00:00,12,1024.2,1,82,9,20000,11.112,,,330,10.1,18.2,,,,,,,,,wg-a,,,,AAXX 23064 07222 02770 33306 10120 20090 30210 40242 52010 60006 83500 90600 333 10182 20101 60004=
07222,1996-06-23 09:00:00,17,1025.2,1.1,55,8,20000,11.112,,,40,,,,,,,,,,,wg-a,,,,AAXX 23094 07222 12/70 20406 10170 20080 30221 40252 52011 60006 80001 90900=
07222,1996-06-23 12:00:00,20,1025.4,0.2,35,4,20000,14.816,,,40,,,,,,,,,,,wg-a,,,,AAXX 23124 07222 12670 20408 10200 20040 30223 40254 50002 60006 81101 91200=
07222,1996-06-23 15:00:00,21,1025,-0.4,38,6,20000,18.52,,,40,,,,,,,,,,,wg-a,,,,AAXX 23154 07222 12670 30410 10210 20060 30219 40250 56004 60006 83101 91500=
07222,1996-06-23 18:00:00,21,1025,-0,40,7,20000,11.112,,,40,11.3,21.8,,,,,,,,,wg-a,,,,AAXX 23184 07222 12770 20406 10210 20070 30219 40250 55000 60006 82500 91800 333 10218 20113=
07222,1996-06-23 21:00:00,17,1026.7,1.7,63,10,15000,11.112,,,10,,,,,,,,,,,wg-a,,,,AAXX 23214 07222 12/65 20106 10170 20100 30236 40267 53017 60006 80001 92100=
07222,1996-06-24 00:00:00,14,1027.9,1.1,63,7,15000,7.408,,,30,,,,,,,,,,,wg-a,,,,AAXX 24004 07222 12/65 00304 10140 20070 30247 40279 51011 60006 80000 90000=
07222,1996-06-24 03:00:00,10,1027.9,0,82,7,15000,3.704,,,10,,,,,,,,,,,wg-a,,,,AAXX 24034 07222 12/65 20102 10100 20070 30247 40279 50000 60006 80001 90300=
07222,1996-06-24 06:00:00,12,1028.7,0.8,76,8,12000,7.408,,,20,9.3,20.7,,,,,,,,,wg-a,,,,AAXX 24064 07222 02/62 50204 10120 20080 30255 40287 53008 60006 80001 90600 333 10207 20093 60004=
07222,1996-06-24 09:00:00,18,1028.4,-0.2,56,9,12000,11.112,,,20,,,,,,,,,,,wg-a,,,,AAXX 24094 07222 12/62 40206 10180 20090 30253 40284 58002 60006 80001 90900=
07222,1996-06-24 12:00:00,20,1027.8,-0.6,53,10,12000,11.112,,,360,,,,,,,,,,,wg-a,,,,AAXX 24124 07222 12662 63606 10200 20100 30247 40278 58006 60006 84201 91200=
07222,1996-06-24 15:00:00,21,1026.8,-1,46,9,12000,14.816,,,10,,,,,,,,,,,wg-a,,,,AAXX 24154 07222 12662 /0108 10210 20090 30237 40268 56010 60006 83201 91500=
07222,1996-06-24 18:00:00,21,1026.2,-0.6,46,9,12000,14.816,,,10,12.1,22.5,,,,,,,,,wg-a,,,,AAXX 24184 07222 12662 70108 10210 20090 30231 40262 55006 60006 85201 91800 333 10225 20121=
07222,1996-06-24 21:00:00,18,1027.5,1.3,64,11,12000,11.112,,,10,,,,,,,,,,,wg-a,,,,AAXX 24214 07222 12762 60106 10180 20110 30244 40275 53013 60006 83201 92100=
07222,1996-06-25 00:00:00,14,1027.7,0.2,88,12,12000,11.112,,,30,,,,,,,,,,,wg-a,,,,AAXX 25004 07222 12762 30306 10140 20120 30246 40277 52002 60006 83500 90000=
07222,1996-06-25 03:00:00,12,1027.6,-0.2,88,10,12000,7.408,,,30,,,,,,,,,,,wg-a,,,,AAXX 25034 07222 12/62 20304 10120 20100 30244 40276 57002 60006 80001 90300=
07222,1996-06-25 06:00:00,13,1027.9,0.3,82,10,10000,3.704,,,360,10.4,21,,,,,,,,,wg-a,,,,AAXX 25064 07222 02760 33602 10130 20100 30247 40279 51003 60006 83501 90600 333 10210 20104 60004=
07222,1996-06-25 09:00:00,18,1027.6,-0.2,56,9,12000,11.112,,,40,,,,,,,,,,,wg-a,,,,AAXX 25094 07222 12562 /0406 10180 20090 30245 40276 58002 60006 82101 90900=
07222,1996-06-25 12:00:00,21,1026.4,-1.2,49,10,20000,14.816,,,30,,,,,,,,,,,wg-a,,,,AAXX 25124 07222 12670 /0308 10210 20100 30233 40264 58012 60006 85202 91200=
07222,1996-06-25 18:00:00,22,1024.2,-1,46,10,25000,11.112,,,340,,23.1,,,,,,,,,wg-a,,,,AAXX 25184 07222 12775 53406 10220 20100 30211 40242 56010 60006 84501 91800 333 10231=
07222,1996-06-25 21:00:00,17,1024.7,0.5,77,13,20000,11.112,,,300,,,,,,,,,,,wg-a,,,,AAXX 25214 07222 12770 73006 10170 20130 30216 40247 53005 60006 82532 92100=
07222,1996-06-26 00:00:00,16,1025,0.3,68,10,15000,14.816,,,20,,,,,,,,,,,wg-a,,,,AAXX 26004 07222 12765 70208 10160 20100 30219 40250 52003 60006 82530 90000=
07222,1996-06-26 03:00:00,14,1024.2,-0.8,82,11,15000,7.408,,,40,,,,,,,,,,,wg-a,,,,AAXX 26034 07222 12/65 50404 10140 20110 30211 40242 58008 60006 85030 90300=
07222,1996-06-26 06:00:00,13,1024.5,0.2,88,11,10000,11.112,,,320,12.6,22.2,,,,,,,,,wg-a,,,,AAXX 26064 07222 02/60 53206 10130 20110 30213 40245 53002 60006 83031 90600 333 10222 20126 60004=
07222,1996-06-26 12:00:00,18,1024.8,0.1,64,11,18000,14.816,,,330,,,,,,,,,,,wg-a,,,,AAXX 26124 07222 12568 73308 10180 20110 30217 40248 53001 60006 875// 91200=
07222,1996-06-26 15:00:00,19,1024.6,-0.2,56,10,20000,11.112,,,10,,,,,,,,,,,wg-a,,,,AAXX 26154 07222 12670 70106 10190 20100 30215 40246 58002 60006 875// 91500=
07222,1996-06-26 18:00:00,20,1023.9,-0.7,60,12,15000,18.52,,,290,13.3,20.4,,,,,,,,,wg-a,,,,AAXX 26184 07222 12665 42910 10200 20120 30208 40239 56007 60006 83501 91800 333 10204 20133=
07222,1996-06-26 21:00:00,15,1024.8,0.9,88,13,15000,7.408,,,270,,,,,,,,,,,wg-a,,,,AAXX 26214 07222 12/65 62704 10150 20130 30217 40248 53009 60006 84031 92100=
07222,1996-06-27 00:00:00,15,1024.9,0.1,94,14,15000,3.704,,,310,,,,,,,,,,,wg-a,,,,AAXX 27004 07222 12665 73102 10150 20140 30218 40249 50001 60006 875// 90000=
07222,1996-06-27 03:00:00,16,1024.5,-0.4,100,16,12000,3.704,,,350,,,,,,,,,,,wg-a,,,,AAXX 27034 07222 12562 73502 10160 20160 30214 40245 56004 60006 875// 90300=
07222,1996-06-27 06:00:00,17,1025.2,0.7,88,15,8000,7.408,,,330,14,19.6,,,,,,,,,wg-a,,,,AAXX 27064 07222 02458 73304 10170 20150 30221 40252 53007 60006 8657/ 90600 333 10196 20140 60004=
07222,1996-06-27 09:00:00,18,1025.8,0.6,88,16,10000,7.408,,,210,,,,,,,,,,1,wg-a,,,,AAXX 27094 07222 02560 72104 10180 20160 30227 40258 51006 61000 70152 875// 90900 333 ////=
07222,1996-06-27 12:00:00,19,1026.1,0.3,83,16,18000,11.112,,,280,,,,,,,,,,1,wg-a,,,,AAXX 27124 07222 02468 72806 10190 20160 30230 40261 53003 61000 70152 878// 91200 333 ////=
07222,1996-06-27 15:00:00,20,1025.2,-0.9,78,16,18000,7.408,,,330,,,,,,,,,,,wg-a,,,,AAXX 27154 07222 12568 73304 10200 20160 30221 40252 56009 60006 878// 91500=
07222,1996-06-27 18:00:00,20,1024.3,-0.9,78,16,18000,14.816,,,290,16.3,21,,,,,,,,,wg-a,,,,AAXX 27184 07222 32568 72908 10200 20160 30212 40243 56009 878// 91800 333 10210 20163=
07222,1996-06-27 21:00:00,17,1024.8,0.5,88,15,18000,7.408,,,260,,,,,,,,,,,wg-a,,,,AAXX 27214 07222 12768 22604 10170 20150 30217 40248 53005 60006 82501 92100=
07222,1996-06-28 00:00:00,14,1023.9,-0.9,94,13,15000,3.704,,,300,,,,,,,,,,,wg-a,,,,AAXX 28004 07222 12/65 23002 10140 20130 30208 40239 58009 60006 80001 90000=
07222,1996-06-28 03:00:00,11,1023.1,-0.9,100,11,15000,3.704,,,220,,,,,,,,,,,wg-a,,,,AAXX 28034 07222 12765 22202 10110 20110 30199 40231 56009 60006 81501 90300=
07222,1996-06-28 06:00:00,13,1023,-0,100,13,6000,3.704,,,200,10.8,20.4,,0,,,,,,,wg-a,,,,AAXX 28064 07222 02656 72002 10130 20130 30199 40230 55000 60004 875// 90600 333 10204 20108 60007=
07222,1996-06-28 09:00:00,17,1022.6,-0.4,82,14,10000,7.408,,,270,,,,,,,,,,,wg-a,,,,AAXX 28094 07222 12560 72704 10170 20140 30195 40226 58004 60006 875// 90900=
07222,1996-06-28 12:00:00,20,1022,-0.6,64,13,20000,22.224,,,260,,,,,,,,,,,wg-a,,,,AAXX 28124 07222 12670 72612 10200 20130 30189 40220 58006 60006 875// 91200=
07222,1996-06-28 15:00:00,21,1021,-1,64,14,11000,22.224,,,260,,,,,,,,,,,wg-a,,,,AAXX 28154 07222 12/61 /2612 10210 20140 30179 40210 57010 60006 91500=
07222,1996-06-28 18:00:00,19,1019.7,-1.3,73,14,20000,22.224,,,260,13.4,21.6,,,,,,,,,wg-a,,,,AAXX 28184 07222 12570 72612 10190 20140 30166 40197 57013 60006 85830 91800 333 10216 20134=
07222,1996-06-28 21:00:00,17,1019.7,-0,88,15,15000,18.52,,,250,,,,,,,,,,,wg-a,,,,AAXX 28214 07222 12465 72510 10170 20150 30166 40197 55000 60006 875// 92100=
07222,1996-06-29 00:00:00,16,1019.5,-0.2,94,15,10000,14.816,,,270,,,,0,,,,,,,wg-a,,,,AAXX 29004 07222 02460 72708 10160 20150 30164 40195 58002 60006 875// 90000 333 60007=
07222,1996-06-29 03:00:00,16,1019.2,-0.3,82,13,10000,18.52,,,300,,,,,,,,,,,wg-a,,,,AAXX 29034 07222 12560 73010 10160 20130 30161 40192 55003 60006 878// 90300=
07222,1996-06-29 06:00:00,15,1020.7,1.5,82,12,12000,14.816,,,290,14.9,19.5,,,,,,,,,wg-a,,,,AAXX 29064 07222 12562 72908 10150 20120 30176 40207 52015 60004 875// 90600 333 10195 20149=
07222,1996-06-29 09:00:00,17,1021.9,1.2,63,10,15000,22.224,,,300,,,,,,,,,,,wg-a,,,,AAXX 29094 07222 12565 73012 10170 20100 30188 40219 51012 60006 878// 90900=
07222,1996-06-29 12:00:00,20,1021.9,0,56,11,20000,22.224,,38.892,290,,,,,,,,,,,wg-a,,,,AAXX 29124 07222 12670 /2912 10200 20110 30188 40219 50000 60006 86500 91200 333 91021=
07222,1996-06-29 15:00:00,21,1021.6,-0.3,53,11,20000,25.928,,,270,,,,,,,,,,,wg-a,,,,AAXX 29154 07222 12670 /2714 10210 20110 30185 40216 55003 60006 85500 91500=
07222,1996-06-29 18:00:00,19,1021.8,0.2,60,11,25000,25.928,,,270,15.5,21.2,,,,,,,,,wg-a,,,,AAXX 29184 07222 12675 22714 10190 20110 30187 40218 53002 60006 82500 91800 333 10212 20155=
07222,1996-06-29 21:00:00,15,1023.5,1.7,82,12,15000,7.408,,,310,,,,,,,,,,,wg-a,,,,AAXX 29214 07222 12/65 03104 10150 20120 30204 40235 52017 60006 80000 92100=
07222,1996-06-30 00:00:00,11,1024,0.4,87,9,15000,3.704,,,320,,,,,,,,,,,wg-a,,,,AAXX 30004 07222 12/65 03202 10110 20090 30208 40240 51004 60006 80000 90000=
07222,1996-06-30 03:00:00,9,1022.9,-1.1,93,8,15000,3.704,,,220,,,,,,,,,,,wg-a,,,,AAXX 30034 07222 12/65 32202 10090 20080 30197 40229 58011 60006 82031 90300=
07222,1996-06-30 06:00:00,11,1023.1,0.2,94,10,15000,0,,,0,8.5,19.3,,,,,,,,,wg-a,,,,AAXX 30064 07222 02565 70000 10110 20100 30199 40231 52002 60006 875// 90600 333 10193 20085 60004=
07222,1996-06-30 09:00:00,16,1021.6,-1.4,77,12,20000,11.112,,,260,,,,,,,,,,,wg-a,,,,AAXX 30094 07222 12570 72606 10160 20120 30185 40216 58014 60006 875// 90900=
07222,1996-06-30 12:00:00,20,1020.7,-0.9,60,12,11000,25.928,,,250,,,,,,,,,,,wg-a,,,,AAXX 30124 07222 12/61 /2514 10200 20120 30176 40207 58009 60006 91200=
07222,1996-06-30 15:00:00,20,1019,-1.7,56,11,20000,29.632,,,260,,,,,,,,,,,wg-a,,,,AAXX 30154 07222 12570 /2616 10200 20110 30159 40190 57017 60006 83532 91500=
07222,1996-06-30 18:00:00,17,1017.9,-1.1,77,13,11000,25.928,,,260,10.9,20.6,,,,,,,,,wg-a,,,,AAXX 30184 07222 12/61 /2614 10170 20130 30148 40179 57011 60006 91800 333 10206 20109=
07222,1996-06-30 21:00:00,15,1016.7,-1.2,100,15,10000,14.816,,,270,,,,1,,,,,,21,wg-a,,,,AAXX 30214 07222 12260 72708 10150 20150 30136 40167 56012 60017 72165 875// 92100=
07222,1996-07-01 00:00:00,14,1015.8,-0.9,94,13,10000,11.112,,,280,,,,,,,,,,2,wg-a,,,,AAXX 01004 07222 12660 72806 10140 20130 30127 40158 57009 60016 70265 875// 90000=
07222,1996-07-01 03:00:00,13,1014.7,-1.1,94,12,10000,11.112,,,280,,,,,,,,,,,wg-a,,,,AAXX 01034 07222 12760 82806 10130 20120 30116 40147 58011 60006 875// 90300=
07222,1996-07-01 06:00:00,14,1014.1,-0.6,88,12,12000,3.704,,,240,12.8,16.5,,,,,1,,,,wg-a,,,,AAXX 01064 07222 12662 72402 10140 20120 30110 40141 58006 60014 84502 90600 333 10165 20128=
07222,1996-07-01 09:00:00,16,1014.2,0.1,72,11,18000,18.52,,,250,,,,,,,,,,,wg-a,,,,AAXX 01094 07222 12568 72510 10160 20110 30111 40142 50001 60006 878// 90900=
07222,1996-07-01 12:00:00,19,1013.5,-0.7,56,10,22000,29.632,,,250,,,,,,,,,,1,wg-a,,,,AAXX 01124 07222 02672 62516 10190 20100 30104 40135 58007 61000 70186 86800 91200 333 6100=
07222,1996-07-01 18:00:00,17,1013.2,-0.3,63,10,25000,29.632,,,270,13.7,19.7,,,,,,,,,wg-a,,,,AAXX 01184 07222 32675 /2716 10170 20100 30101 40132 56003 81101 91800 333 10197 20137=
07222,1996-07-02 00:00:00,11,1014,-0.1,94,10,25000,11.112,,,280,,,,,,,,,,,wg-a,,,,AAXX 02004 07222 12/75 42806 10110 20100 30109 40140 57001 60006 80001 90000=
07222,1996-07-02 03:00:00,11,1013.3,-0.7,94,10,25000,3.704,,,330,,,,,,,,,,,wg-a,,,,AAXX 02034 07222 12775 73302 10110 20100 30102 40133 56007 60006 835/1 90300=
07222,1996-07-02 06:00:00,12,1013.6,0.3,100,12,18000,3.704,,,220,9.5,16.9,,,,,,,,,wg-a,,,,AAXX 02064 07222 02768 72202 10120 20120 30105 40136 53003 60006 865/2 90600 333 10169 20095 61000=
07222,1996-07-02 12:00:00,19,1014,-0.4,,,20000,14.816,,,260,,,,,,,,,,,wg-a,,,,AAXX 02124 07222 12670 72608 10190 2//// 40140 58004 60006 8683/ 91200=
07222,1996-07-02 15:00:00,20,1013.9,-0.1,53,10,20000,22.224,,,270,,,,,,,,,,,wg-a,,,,AAXX 02154 07222 12670 62712 10200 20100 30108 40139 55001 60006 85801 91500=
07222,1996-07-02 18:00:00,18,1013.7,-0.2,64,11,500,22.224,,,270,11.9,20.6,,,,,,,,,wg-a,,,,AAXX 02184 07222 12600 32712 10180 20110 30106 40137 56002 60006 81132 91800 333 10206 20119=
07222,1996-07-02 21:00:00,14,1013.8,0.1,82,11,500,7.408,,,220,,,,,,,,,,,wg-a,,,,AAXX 02214 07222 12700 12204 10140 20110 30107 40138 53001 60006 81501 92100=
07222,1996-07-03 00:00:00,11,1012.9,-0.9,94,10,500,7.408,,,180,,,,,,,,,,,wg-a,,,,AAXX 03004 07222 12/00 01804 10110 20100 30098 40129 58009 60006 80000 90000=
07222,1996-07-03 03:00:00,13,1010.5,-2.4,94,12,20000,18.52,,,150,,,,,,,,,,,wg-a,,,,AAXX 03034 07222 12670 71510 10130 20120 30074 40105 57024 60006 8557/ 90300=
07222,1996-07-03 06:00:00,15,1009.4,-1.1,100,15,8000,18.52,,,190,10.4,18.1,,0,,,,,,60,wg-a,,,,AAXX 03064 07222 02258 71910 10150 20150 30063 40094 56011 60004 76061 877// 90600 333 10181 20104 60007=
07222,1996-07-03 09:00:00,18,1009.4,0.1,88,16,10000,18.52,,,230,,,,1,,,,,,1,wg-a,,,,AAXX 03094 07222 12460 82310 10180 20160 30064 40094 52001 60017 70162 875// 90900=
07222,1996-07-03 12:00:00,19,1009.4,-0,88,17,10000,22.224,,,250,,,,,,,,,,1,wg-a,,,,AAXX 03124 07222 12460 82512 10190 20170 30064 40094 55000 60016 70162 875// 91200=
07222,1996-07-03 15:00:00,19,1009.8,0.4,88,17,15000,25.928,,40.744,240,,,,0,,,,,,60,wg-a,,,,AAXX 03154 07222 12465 82414 10190 20170 30068 40098 50004 60007 76062 875// 91500 333 91022=
07222,1996-07-03 18:00:00,16,1009.7,-0.2,94,15,500,18.52,,,240,15,21,,1,,,,,,60,wg-a,,,,AAXX 03184 07222 12300 82410 10160 20150 30066 40097 58002 60017 76062 875// 91800 333 10210 20150=
07222,1996-07-03 21:00:00,17,1009.4,-0.3,100,17,3500,22.224,,,210,,,,4,,,,,,51,wg-a,,,,AAXX 03214 07222 12235 82112 10170 20170 30063 40094 57003 60047 75165 877// 92100=
07222,1996-07-04 00:00:00,17,1009.8,0.4,100,17,10000,25.928,,,250,,,,2,,,,,,20,wg-a,,,,AAXX 04004 07222 02360 82514 10170 20170 30067 40098 53004 60056 72065 877// 90000 333 60027=
07222,1996-07-04 03:00:00,16,1010.8,1,94,15,500,18.52,,,260,,,,0,,,,,,50,wg-a,,,,AAXX 04034 07222 12300 82610 10160 20150 30077 40108 52010 60007 75052 877// 90300=
07222,1996-07-04 06:00:00,15,1012.1,1.3,100,15,10000,11.112,,,220,14.3,17.4,,0,,,8,,,3,wg-a,,,,AAXX 04064 07222 02460 72206 10150 20150 30090 40121 51013 60084 70352 875// 90600 333 10174 20143 60007=
07222,1996-07-04 09:00:00,17,1013.3,1.2,82,14,10000,22.224,,,250,,,,,,,,,,1,wg-a,,,,AAXX 04094 07222 02460 72512 10170 20140 30102 40133 50012 61000 70152 8523/ 90900 333 ////=
07222,1996-07-04 12:00:00,17,1014.2,0.9,88,15,8000,25.928,,,240,,,,,,,,,,50,wg-a,,,,AAXX 04124 07222 02458 72414 10170 20150 30111 40142 51009 61000 75052 865// 91200 333 6100=
07222,1996-07-04 15:00:00,19,1013.6,-0.5,83,16,10000,18.52,,,230,,,,,,,,,,1,wg-a,,,,AAXX 04154 07222 02560 72310 10190 20160 30106 40136 56005 61000 70152 878// 91500 333 ////=
07222,1996-07-04 18:00:00,17,1013.2,-0.5,94,16,10000,11.112,,,230,14.5,19.6,,0,,,,,,60,wg-a,,,,AAXX 04184 07222 12360 72306 10170 20160 30101 40132 57005 60007 76065 875// 91800 333 10196 20145=
07222,1996-07-04 21:00:00,15,1012.7,-0.5,100,15,500,3.704,,,350,,,,6,,,,,,61,wg-a,,,,AAXX 04214 07222 12100 73502 10150 20150 30096 40127 56005 60067 76166 875// 92100=
07222,1996-07-05 00:00:00,15,1011.1,-1.6,100,15,6000,3.704,,,30,,,,2,,,,,,60,wg-a,,,,AAXX 05004 07222 02256 70302 10150 20150 30080 40111 58016 60086 76066 877// 90000 333 60027=
07222,1996-07-05 03:00:00,14,1008.6,-2.5,100,14,10000,11.112,,,10,,,,14,,,,,,61,wg-a,,,,AAXX 05034 07222 12260 70106 10140 20140 30055 40086 56025 60147 76166 877// 90300=
07222,1996-07-05 06:00:00,12,1009.3,0.7,100,12,10000,3.704,,,340,11.8,16.9,,3,,,26,,,60,wg-a,,,,AAXX 05064 07222 02460 83402 10120 20120 30062 40093 51007 60264 76062 875// 90600 333 10169 20118 60037=
07222,1996-07-05 09:00:00,14,1010.1,0.8,100,14,8000,11.112,,,330,,,,1,,,,,,60,wg-a,,,,AAXX 05094 07222 12258 83306 10140 20140 30070 40101 51008 60017 76066 875// 90900=
07222,1996-07-05 12:00:00,17,1010.7,0.6,77,13,20000,7.408,,,330,,,,0,,,,,,1,wg-a,,,,AAXX 05124 07222 02470 /3304 10170 20130 30076 40107 50006 60016 70162 86800 91200 333 60007=
07222,1996-07-05 15:00:00,19,1010.3,-0.3,60,11,20000,18.52,,,250,,,,,,,,,,,wg-a,,,,AAXX 05154 07222 12570 42510 10190 20110 30073 40103 58003 60006 84801 91500=
07222,1996-07-05 18:00:00,17,1011,0.6,63,10,20000,18.52,,,300,12.3,19.6,,,,,,,,,wg-a,,,,AAXX 05184 07222 32570 73010 10170 20100 30079 40110 53006 82232 91800 333 10196 20123=
07222,1996-07-05 21:00:00,14,1011.6,0.6,82,11,20000,7.408,,,260,,,,,,,,,,,wg-a,,,,AAXX 05214 07222 12570 /2604 10140 20110 30085 40116 53006 60006 82832 92100=
07222,1996-07-06 00:00:00,11,1012.2,0.6,94,10,20000,11.112,,,300,,,,,,,,,,,wg-a,,,,AAXX 06004 07222 12/70 03006 10110 20100 30091 40122 53006 60006 80000 90000=
07222,1996-07-06 03:00:00,9,1013.1,0.8,93,8,10000,7.408,,,290,,,,,,,,,,,wg-a,,,,AAXX 06034 07222 32/60 02904 10090 20080 30099 40131 53008 80000 90300=
07222,1996-07-06 06:00:00,10,1013.7,0.6,93,9,12000,0,,,0,8.1,16.5,,,,,1,,,,wg-a,,,,AAXX 06064 07222 12562 /0000 10100 20090 30105 40137 51006 60014 81840 90600 333 10165 20081=
07222,1996-07-06 09:00:00,15,1013.7,0.1,63,8,15000,14.816,,,290,,,,,,,,,,,wg-a,,,,AAXX 06094 07222 12665 /2908 10150 20080 30106 40137 50001 60006 83230 90900=
07222,1996-07-06 12:00:00,17,1013.4,-0.3,59,9,15000,18.52,,,270,,,,,,,,,,,wg-a,,,,AAXX 06124 07222 12665 /2710 10170 20090 30103 40134 58003 60006 85332 91200=
07222,1996-07-06 15:00:00,17,1012.9,-0.5,59,9,15000,22.224,,,260,,,,,,,,,,,wg-a,,,,AAXX 06154 07222 12665 72612 10170 20090 30098 40129 55005 60006 8427/ 91500=
07222,1996-07-06 18:00:00,16,1011.5,-1.4,63,9,15000,18.52,,,270,9.9,18.5,,,,,,,,,wg-a,,,,AAXX 06184 07222 12665 62710 10160 20090 30084 40115 58014 60006 81232 91800 333 10185 20099=
07222,1996-07-06 21:00:00,12,1011,-0.5,82,9,18000,7.408,,,270,,,,,,,,,,,wg-a,,,,AAXX 06214 07222 12/68 62704 10120 20090 30079 40110 55005 60006 82032 92100=
07222,1996-07-07 00:00:00,11,1009.2,-1.8,94,10,18000,3.704,,,130,,,,,,,,,,,wg-a,,,,AAXX 07004 07222 12/68 81302 10110 20100 30061 40092 58018 60006 84031 90000=
07222,1996-07-07 03:00:00,11,1007.5,-1.7,94,10,18000,3.704,,,70,,,,,,,,,,,wg-a,,,,AAXX 07034 07222 12/68 80702 10110 20100 30044 40075 58017 60006 86072 90300=
07222,1996-07-07 06:00:00,12,1006.7,-0.8,94,11,15000,7.408,,,20,10.3,16.4,,,,,,,,,wg-a,,,,AAXX 07064 07222 02/65 70204 10120 20110 30036 40067 58008 60006 83072 90600 333 10164 20103 60004=
07222,1996-07-07 09:00:00,15,1006.7,0,72,10,20000,11.112,,,30,,,,,,,,,,,wg-a,,,,AAXX 07094 07222 12570 70306 10150 20100 30036 40067 50000 60006 83232 90900=
07222,1996-07-07 12:00:00,17,1007.5,0.8,68,11,25000,14.816,,,10,,,,0,,,,,,25,wg-a,,,,AAXX 07124 07222 02675 60108 10170 20110 30044 40075 53008 60006 72586 85832 91200 333 60007=
07222,1996-07-07 15:00:00,16,1009.6,2.1,63,9,25000,22.224,,,20,,,,0,,,,,,25,wg-a,,,,AAXX 07154 07222 12675 70212 10160 20090 30065 40096 53021 60007 72586 8593/ 91500=
07222,1996-07-07 18:00:00,17,1011.5,1.9,55,8,25000,18.52,,35.188,360,12.1,19.4,,,,,,,,1,wg-a,,,,AAXX 07184 07222 32675 53610 10170 20080 30084 40115 53019 70186 85802 91800 333 10194 20121 91019=
07222,1996-07-07 21:00:00,13,1015.1,3.6,67,7,25000,11.112,,,330,,,,,,,,,,,wg-a,,,,AAXX 07214 07222 12/75 03306 10130 20070 30120 40151 53036 60006 80000 92100=
07222,1996-07-08 03:00:00,10,1018.5,1.3,93,9,15000,11.112,,,310,,,,,,,,,,,wg-a,,,,AAXX 08034 07222 12/65 03106 10100 20090 30153 40185 53013 60006 80000 90300=
07222,1996-07-08 06:00:00,11,1021.1,2.6,94,10,20000,11.112,,,310,9.8,17.5,,,,,,,,,wg-a,,,,AAXX 08064 07222 02/70 23106 10110 20100 30179 40211 53026 60006 80002 90600 333 10175 20098 60004=
07222,1996-07-08 09:00:00,17,1023.1,2.1,68,11,20000,14.816,,,320,,,,,,,,,,,wg-a,,,,AAXX 08094 07222 12570 53208 10170 20110 30200 40231 51021 60006 84201 90900=
07222,1996-07-08 12:00:00,19,1024.2,1.1,60,11,20000,18.52,,,300,,,,,,,,,,,wg-a,,,,AAXX 08124 07222 12670 /3010 10190 20110 30211 40242 51011 60006 86800 91200=
07222,1996-07-08 15:00:00,20,1024.9,0.7,60,12,20000,25.928,,,270,,,,,,,,,,,wg-a,,,,AAXX 08154 07222 12670 52714 10200 20120 30218 40249 52007 60006 85800 91500=
07222,1996-07-08 18:00:00,19,1025.3,0.4,64,12,20000,22.224,,,280,11.4,20.4,,,,,,,,,wg-a,,,,AAXX 08184 07222 12770 22812 10190 20120 30222 40253 53004 60006 81501 91800 333 10204 20114=
07222,1996-07-08 21:00:00,14,1026.8,1.5,82,11,20000,7.408,,,270,,,,,,,,,,,wg-a,,,,AAXX 08214 07222 12770 32704 10140 20110 30237 40268 53015 60006 83501 92100=
07222,1996-07-09 00:00:00,12,1027.9,1,88,10,18000,7.408,,,350,,,,,,,,,,,wg-a,,,,AAXX 09004 07222 12768 23504 10120 20100 30247 40279 53010 60006 825/0 90000=
07222,1996-07-09 03:00:00,12,1028.2,0.3,88,10,18000,3.704,,,330,,,,,,,,,,,wg-a,,,,AAXX 09034 07222 12/68 13302 10120 20100 30250 40282 53003 60006 80001 90300=
07222,1996-07-09 06:00:00,11,1028.8,0.6,100,11,18000,3.704,,,260,9.5,18.9,,,,,,,,,wg-a,,,,AAXX 09064 07222 02/68 12602 10110 20110 30256 40288 51006 60006 80001 90600 333 10189 20095 60004=
07222,1996-07-09 09:00:00,17,1029,0.3,68,11,25000,11.112,,,290,,,,,,,,,,,wg-a,,,,AAXX 09094 07222 12575 32906 10170 20110 30259 40290 50003 60006 83201 90900=
07222,1996-07-09 12:00:00,18,1029,0,68,12,25000,18.52,,,290,,,,,,,,,,,wg-a,,,,AAXX 09124 07222 12575 72910 10180 20120 30259 40290 50000 60006 878// 91200=
07222,1996-07-09 15:00:00,18,1028.4,-0.6,73,13,25000,22.224,,,250,,,,,,,,,,,wg-a,,,,AAXX 09154 07222 12575 72512 10180 20130 30253 40284 58006 60006 875// 91500=
07222,1996-07-09 18:00:00,17,1027.7,-0.7,82,14,15000,18.52,,,250,11.2,19.2,,,,,,,,,wg-a,,,,AAXX 09184 07222 12465 82510 10170 20140 30246 40277 58007 60006 885// 91800 333 10192 20112=
07222,1996-07-09 21:00:00,16,1027.5,-0.2,100,16,7000,11.112,,,250,,,,1,,,,,,21,wg-a,,,,AAXX 09214 07222 12257 82506 10160 20160 30244 40275 56002 60017 72165 887// 92100=
07222,1996-07-10 00:00:00,16,1027.3,-0.2,94,15,8000,7.408,,,280,,,,,,,,,,3,wg-a,,,,AAXX 10004 07222 12258 72804 10160 20150 30242 40273 56002 60016 70365 876// 90000=
07222,1996-07-10 03:00:00,15,1026.8,-0.5,94,14,10000,7.408,,,320,,,,,,,,,,,wg-a,,,,AAXX 10034 07222 12560 73204 10150 20140 30237 40268 56005 60006 875// 90300=
07222,1996-07-10 06:00:00,15,1027.4,0.6,94,14,15000,11.112,,,320,14.8,16.8,,,,,1,,,,wg-a,,,,AAXX 10064 07222 12565 73206 10150 20140 30243 40274 53006 60014 875// 90600 333 10168 20148=
07222,1996-07-10 09:00:00,17,1027.7,0.3,88,15,12000,11.112,,,340,,,,,,,,,,,wg-a,,,,AAXX 10094 07222 12462 73406 10170 20150 30246 40277 50003 60006 875// 90900=
07222,1996-07-10 12:00:00,21,1027.1,-0.6,64,14,500,14.816,,,320,,,,,,,,,,,wg-a,,,,AAXX 10124 07222 12500 63208 10210 20140 30240 40271 58006 60006 86200 91200=
07222,1996-07-10 15:00:00,23,1026.3,-0.8,53,13,500,14.816,,,350,,,,,,,,,,,wg-a,,,,AAXX 10154 07222 12600 33508 10230 20130 30232 40263 56008 60006 83200 91500=
07222,1996-07-10 18:00:00,23,1025.8,-0.5,53,13,20000,14.816,,,340,15,24.1,,,,,,,,,wg-a,,,,AAXX 10184 07222 12770 23408 10230 20130 30227 40258 55005 60006 82500 91800 333 10241 20150=
07222,1996-07-10 21:00:00,18,1026.6,0.8,77,14,20000,11.112,,,340,,,,,,,,,,,wg-a,,,,AAXX 10214 07222 12/70 03406 10180 20140 30235 40266 53008 60006 80000 92100=
07222,1996-07-11 00:00:00,15,1026.6,0,88,13,20000,3.704,,,10,,,,,,,,,,,wg-a,,,,AAXX 11004 07222 12/70 00102 10150 20130 30235 40266 50000 60006 80000 90000=
07222,1996-07-11 03:00:00,13,1025.8,-0.9,94,12,20000,3.704,,,330,,,,,,,,,,,wg-a,,,,AAXX 11034 07222 12/70 03302 10130 20120 30226 40258 56009 60006 80000 90300=
07222,1996-07-11 06:00:00,15,1025.8,0.1,94,14,8000,3.704,,,340,12.1,23.3,,,,,,,,,wg-a,,,,AAXX 11064 07222 02/58 03402 10150 20140 30227 40258 53001 60006 80000 90600 333 10233 20121 60004=
07222,1996-07-11 09:00:00,19,1025.7,-0.1,78,15,8000,3.704,,,330,,,,,,,,,,,wg-a,,,,AAXX 11094 07222 12258 /3302 10190 20150 30226 40257 58001 60006 81601 90900=
07222,1996-07-11 12:00:00,23,1024.5,-1.1,65,16,15000,11.112,,,350,,,,,,,,,,,wg-a,,,,AAXX 11124 07222 12565 /3506 10230 20160 30215 40245 58011 60006 85500 91200=
07222,1996-07-11 15:00:00,24,1022.9,-1.6,61,16,20000,11.112,,,320,,,,,,,,,,,wg-a,,,,AAXX 11154 07222 12570 33206 10240 20160 30199 40229 58016 60006 83100 91500=
07222,1996-07-11 18:00:00,23,1022.4,-0.5,69,17,500,18.52,,,270,14.5,24.5,,,,,,,,,wg-a,,,,AAXX 11184 07222 12600 /2710 10230 20170 30194 40224 55005 60006 81400 91800 333 10245 20145=
07222,1996-07-11 21:00:00,17,1023.2,0.7,88,15,500,7.408,,,270,,,,,,,,,,,wg-a,,,,AAXX 11214 07222 12700 12704 10170 20150 30201 40232 53007 60006 81500 92100=
07222,1996-07-12 00:00:00,15,1023.3,0.1,88,13,25000,11.112,,,20,,,,,,,,,,,wg-a,,,,AAXX 12004 07222 12/75 00206 10150 20130 30202 40233 50001 60006 80000 90000=
07222,1996-07-12 03:00:00,13,1022.3,-1,94,12,20000,3.704,,,20,,,,,,,,,,,wg-a,,,,AAXX 12034 07222 12/70 00202 10130 20120 30192 40223 56010 60006 80000 90300=
07222,1996-07-12 06:00:00,14,1022.6,0.3,88,12,10000,7.408,,,20,12.4,23.1,,,,,,,,,wg-a,,,,AAXX 12064 07222 02360 60204 10140 20120 30195 40226 51003 60006 86630 90600 333 10231 20124 60004=
07222,1996-07-12 09:00:00,17,1023.2,0.6,77,13,10000,11.112,,,10,,,,,,,,,,,wg-a,,,,AAXX 12094 07222 12460 /0106 10170 20130 30201 40232 51006 60006 85530 90900=
07222,1996-07-12 12:00:00,21,1022,-1.2,56,12,20000,7.408,,,310,,,,,,,,,,,wg-a,,,,AAXX 12124 07222 12/70 63104 10210 20120 30189 40220 58012 60006 85032 91200=
07222,1996-07-12 15:00:00,22,1021.5,-0.4,53,12,20000,11.112,,,310,,,,,,,,,,,wg-a,,,,AAXX 12154 07222 12770 73106 10220 20120 30185 40215 57004 60006 81532 91500=
07222,1996-07-12 18:00:00,20,1021.7,0.1,68,14,25000,18.52,,,280,13.8,22.4,,,,,,,,,wg-a,,,,AAXX 12184 07222 12/75 62810 10200 20140 30186 40217 53001 60006 81032 91800 333 10224 20138=
07222,1996-07-12 21:00:00,16,1022.4,0.7,88,14,20000,11.112,,,300,,,,,,,,,,,wg-a,,,,AAXX 12214 07222 12/70 33006 10160 20140 30193 40224 53007 60006 82031 92100=
07222,1996-07-13 00:00:00,14,1022.5,0.1,94,13,20000,0,,,0,,,,,,,,,,,wg-a,,,,AAXX 13004 07222 12/70 30000 10140 20130 30194 40225 52001 60006 82031 90000=
07222,1996-07-13 03:00:00,13,1022,-0.5,100,13,20000,3.704,,,220,,,,,,,,,,,wg-a,,,,AAXX 13034 07222 12670 42202 10130 20130 30189 40220 56005 60006 83530 90300=
07222,1996-07-13 06:00:00,15,1022.8,0.8,100,15,8000,7.408,,,270,12.9,20.7,,,,,,,,,wg-a,,,,AAXX 13064 07222 02658 72704 10150 20150 30197 40228 53008 60006 85501 90600 333 10207 20129 60004=
07222,1996-07-13 09:00:00,21,1023.4,0.6,73,16,20000,7.408,,,280,,,,,,,,,,,wg-a,,,,AAXX 13094 07222 12570 /2804 10210 20160 30203 40234 51006 60006 86200 90900=
07222,1996-07-13 12:00:00,24,1023.6,0.3,65,17,500,11.112,,,260,,,,,,,,,,,wg-a,,,,AAXX 13124 07222 12600 72606 10240 20170 30206 40236 50003 60006 87200 91200=
07222,1996-07-13 15:00:00,24,1023.9,0.3,69,18,500,14.816,,,300,,,,,,,,,,,wg-a,,,,AAXX 13154 07222 12500 73008 10240 20180 30209 40239 53003 60006 878// 91500=
07222,1996-07-13 18:00:00,24,1023.6,-0.3,65,17,500,14.816,,,290,15.1,24.5,,,,,,,,,wg-a,,,,AAXX 13184 07222 12600 22908 10240 20170 30206 40236 57003 60006 82801 91800 333 10245 20151=
07222,1996-07-13 21:00:00,18,1024.8,1.1,88,16,500,11.112,,,280,,,,,,,,,,,wg-a,,,,AAXX 13214 07222 12/00 12806 10180 20160 30217 40248 52011 60006 80001 92100=
07222,1996-07-14 00:00:00,15,1025.5,0.7,94,14,15000,0,,,0,,,,,,,,,,,wg-a,,,,AAXX 14004 07222 12/65 00000 10150 20140 30224 40255 51007 60006 80000 90000=
07222,1996-07-14 03:00:00,14,1025.7,0.2,94,13,12000,3.704,,,310,,,,,,,,,,,wg-a,,,,AAXX 14034 07222 12/62 03102 10140 20130 30226 40257 52002 60006 80000 90300=
07222,1996-07-14 06:00:00,17,1026.4,0.7,94,16,10000,11.112,,,50,13.4,23.9,,,,,,,,,wg-a,,,,AAXX 14064 07222 02/60 10506 10170 20160 30233 40264 53007 60006 80001 90600 333 10239 20134 60004=
07222,1996-07-14 09:00:00,23,1026.9,0.6,73,18,20000,7.408,,,70,,,,,,,,,,,wg-a,,,,AAXX 14094 07222 12570 30704 10230 20180 30239 40269 51006 60006 81101 90900=
07222,1996-07-14 12:00:00,27,1026.3,-0.6,51,16,25000,3.704,,,350,,,,,,,,,,,wg-a,,,,AAXX 14124 07222 12675 /3502 10270 20160 30233 40263 58006 60006 82101 91200=
07222,1996-07-14 15:00:00,29,1025.3,-1,48,17,25000,7.408,,,20,,,,,,,,,,,wg-a,,,,AAXX 14154 07222 12775 30204 10290 20170 30223 40253 57010 60006 82401 91500=
07222,1996-07-14 18:00:00,28,1024.8,-0.5,48,16,25000,11.112,,,30,16.9,28.9,,,,,,,,,wg-a,,,,AAXX 14184 07222 12775 20306 10280 20160 30218 40248 56005 60006 815/1 91800 333 10289 20169=
07222,1996-07-14 21:00:00,23,1025.5,0.7,65,16,25000,11.112,,,30,,,,,,,,,,,wg-a,,,,AAXX 14214 07222 12/75 00306 10230 20160 30225 40255 53007 60006 80000 92100=
07222,1996-07-15 00:00:00,19,1025.9,0.3,88,17,25000,11.112,,,30,,,,,,,,,,,wg-a,,,,AAXX 15004 07222 12/75 00306 10190 20170 30228 40259 50003 60006 80000 90000=
07222,1996-07-15 03:00:00,17,1025.4,-0.5,94,16,25000,11.112,,,30,,,,,,,,,,,wg-a,,,,AAXX 15034 07222 12/75 00306 10170 20160 30223 40254 56005 60006 80000 90300=
07222,1996-07-15 06:00:00,18,1025.8,0.4,88,16,8000,11.112,,,40,16.9,27.8,,,,,,,,,wg-a,,,,AAXX 15064 07222 02/58 00406 10180 20160 30227 40258 52004 60006 80000 90600 333 10278 20169 60004=
07222,1996-07-15 09:00:00,23,1025.6,-0.1,73,18,18000,18.52,,,60,,,,,,,,,,,wg-a,,,,AAXX 15094 07222 12/68 00610 10230 20180 30226 40256 58001 60006 80000 90900=
07222,1996-07-15 12:00:00,26,1024.9,-0.7,58,17,25000,22.224,,,60,,,,,,,,,,,wg-a,,,,AAXX 15124 07222 12675 30612 10260 20170 30219 40249 58007 60006 83200 91200=
07222,1996-07-15 15:00:00,28,1023.8,-1.1,51,17,25000,25.928,,,60,,,,,,,,,,,wg-a,,,,AAXX 15154 07222 12675 20614 10280 20170 30208 40238 58011 60006 82400 91500=
07222,1996-07-15 18:00:00,27,1022.9,-0.9,51,16,25000,18.52,,,60,17.9,28.3,,,,,,,,,wg-a,,,,AAXX 15184 07222 12675 20610 10270 20160 30199 40229 56009 60006 82400 91800 333 10283 20179=
07222,1996-07-15 21:00:00,25,1023.9,1,57,16,25000,7.408,,,60,,,,,,,,,,,wg-a,,,,AAXX 15214 07222 12/75 00604 10250 20160 30209 40239 53010 60006 80000 92100=
07222,1996-07-16 00:00:00,21,1024.7,0.7,78,17,25000,14.816,,,40,,,,,,,,,,,wg-a,,,,AAXX 16004 07222 12/75 00408 10210 20170 30216 40247 52007 60006 80000 90000=
07222,1996-07-16 03:00:00,19,1024.7,0,73,14,25000,18.52,,,60,,,,,,,,,,,wg-a,,,,AAXX 16034 07222 12/75 00610 10190 20140 30216 40247 50000 60006 80000 90300=
07222,1996-07-16 06:00:00,17,1024.7,0,68,11,15000,25.928,,,60,16.4,27.3,,,,,,,,,wg-a,,,,AAXX 16064 07222 02/65 00614 10170 20110 30216 40247 50000 60006 80000 90600 333 10273 20164 60004=
07222,1996-07-16 09:00:00,20,1024.6,-0.1,60,12,15000,22.224,,,50,,,,,,,,,,,wg-a,,,,AAXX 16094 07222 12/65 00512 10200 20120 30215 40246 58001 60006 80000 90900=
07222,1996-07-16 12:00:00,25,1023.9,-0.6,47,13,15000,29.632,,,70,,,,,,,,,,,wg-a,,,,AAXX 16124 07222 12/65 00716 10250 20130 30209 40239 58006 60006 80000 91200=
07222,1996-07-16 15:00:00,28,1022.2,-1.7,37,12,20000,25.928,,,60,,,,,,,,,,,wg-a,,,,AAXX 16154 07222 12/70 00614 10280 20120 30192 40222 57017 60006 80000 91500=
07222,1996-07-16 18:00:00,27,1021.3,-0.9,32,9,500,22.224,,40.744,50,16.5,28,,,,,,,,,wg-a,,,,AAXX 16184 07222 12/00 10512 10270 20090 30183 40213 56009 60006 80001 91800 333 10280 20165 91022=
07222,1996-07-16 21:00:00,23,1022.2,0.9,44,10,500,14.816,,,50,,,,,,,,,,,wg-a,,,,AAXX 16214 07222 12/00 20508 10230 20100 30192 40222 52009 60006 80001 92100=
07222,1996-07-17 00:00:00,19,1022.6,0.3,52,9,25000,22.224,,,60,,,,,,,,,,,wg-a,,,,AAXX 17004 07222 12/75 00612 10190 20090 30195 40226 50003 60006 80000 90000=
07222,1996-07-17 06:00:00,16,1022.6,0.4,63,9,20000,22.224,,,50,15.2,27.1,,,,,,,,,wg-a,,,,AAXX 17064 07222 02/70 00512 10160 20090 30195 40226 53004 60006 80000 90600 333 10271 20152 60004=
07222,1996-07-17 09:00:00,21,1022.3,-0.3,46,9,20000,25.928,,,60,,,,,,,,,,,wg-a,,,,AAXX 17094 07222 12/70 10614 10210 20090 30192 40223 58003 60006 80001 90900=
07222,1996-07-17 12:00:00,25,1021.3,-0.9,41,11,25000,22.224,,,60,,,,,,,,,,,wg-a,,,,AAXX 17124 07222 12/75 10612 10250 20110 30183 40213 58009 60006 80001 91200=
07222,1996-07-17 18:00:00,28,1019.3,-0.7,25,6,25000,22.224,,,60,15.4,28.8,,,,,,,,,wg-a,,,,AAXX 17184 07222 12/75 10612 10280 20060 30163 40193 56007 60006 80001 91800 333 10288 20154=
07222,1996-07-17 21:00:00,24,1020.7,1.4,38,9,25000,11.112,,,50,,,,,,,,,,,wg-a,,,,AAXX 17214 07222 12/75 10506 10240 20090 30177 40207 53014 60006 80001 92100=
07222,1996-07-18 00:00:00,20,1021.6,0.8,49,9,20000,18.52,,,60,,,,,,,,,,,wg-a,,,,AAXX 18004 07222 12/70 00610 10200 20090 30185 40216 53008 60006 80000 90000=
07222,1996-07-18 03:00:00,17,1021.4,-0.2,59,9,18000,22.224,,,60,,,,,,,,,,,wg-a,,,,AAXX 18034 07222 12/68 00612 10170 20090 30183 40214 58002 60006 80000 90300=
07222,1996-07-18 06:00:00,16,1022.1,0.7,63,9,20000,22.224,,,60,16.1,28.1,,,,,,,,,wg-a,,,,AAXX 18064 07222 02/70 20612 10160 20090 30190 40221 53007 60006 80001 90600 333 10281 20161 60004=
07222,1996-07-18 09:00:00,22,1022.4,0.3,46,10,20000,14.816,,,60,,,,,,,,,,,wg-a,,,,AAXX 18094 07222 12/70 20608 10220 20100 30193 40224 51003 60006 80001 90900=
07222,1996-07-18 12:00:00,27,1021.7,-0.6,32,9,20000,22.224,,,60,,,,,,,,,,,wg-a,,,,AAXX 18124 07222 12/70 20612 10270 20090 30187 40217 56006 60006 80001 91200=
07222,1996-07-18 15:00:00,29,1020.9,-0.8,29,9,20000,18.52,,,50,,,,,,,,,,,wg-a,,,,AAXX 18154 07222 12/70 00510 10290 20090 30179 40209 58008 60006 80000 91500=
07222,1996-07-18 18:00:00,28,1020.6,-0.3,28,8,20000,18.52,,,50,16.3,29.3,,,,,,,,,wg-a,,,,AAXX 18184 07222 12/70 00510 10280 20080 30176 40206 56003 60006 80000 91800 333 10293 20163=
07222,1996-07-18 21:00:00,23,1021.7,1.1,38,8,20000,7.408,,,40,,,,,,,,,,,wg-a,,,,AAXX 18214 07222 12/70 00404 10230 20080 30187 40217 53011 60006 80000 92100=
07222,1996-07-19 00:00:00,20,1022.6,0.8,46,8,20000,14.816,,,60,,,,,,,,,,,wg-a,,,,AAXX 19004 07222 12/70 00608 10200 20080 30195 40226 51008 60006 80000 90000=
07222,1996-07-19 03:00:00,17,1022.8,0.2,55,8,20000,14.816,,,50,,,,,,,,,,,wg-a,,,,AAXX 19034 07222 12/70 00508 10170 20080 30197 40228 53002 60006 80000 90300=
07222,1996-07-19 06:00:00,17,1023.1,0.3,55,8,20000,14.816,,,60,15.7,28.4,,,,,,,,,wg-a,,,,AAXX 19064 07222 02/70 30608 10170 20080 30200 40231 52003 60006 80001 90600 333 10284 20157 60004=
07222,1996-07-19 09:00:00,23,1023,0,41,9,25000,14.816,,,60,,,,,,,,,,,wg-a,,,,AAXX 19094 07222 12/75 20608 10230 20090 30200 40230 50000 60006 80001 90900=
07222,1996-07-19 11:00:00,26,1,-0.8,37,10,500,11.112,,,50,,,,,,,,,,,wg-a,,,,AAXX 19114 07222 12/00 20506 10260 20100 30192 58008 60006 80001 91100=
07222,1996-07-19 12:00:00,27,1022.2,-0.8,32,9,500,11.112,,,50,,,,,,,,,,,wg-a,,,,AAXX 19124 07222 12/00 20506 10270 20090 30192 40222 58008 60006 80001 91200=
07222,1996-07-19 15:00:00,30,1021.1,-1.1,22,6,10000,14.816,,,70,,,,,,,,,,,wg-a,,,,AAXX 19154 07222 12/60 /0708 10300 20060 30181 40211 56011 60006 91500=
07222,1996-07-19 18:00:00,29,1020.7,-0.4,22,5,500,11.112,,,70,16.5,29.9,,,,,,,,,wg-a,,,,AAXX 19184 07222 12/00 00706 10290 20050 30177 40207 55004 60006 80000 91800 333 10299 20165=
07222,1996-07-20 00:00:00,21,1021.4,-0.2,46,9,500,7.408,,,50,,,,,,,,,,,wg-a,,,,AAXX 20004 07222 12/00 20504 10210 20090 30183 40214 56002 60006 80001 90000=
07222,1996-07-20 03:00:00,16,1021.3,-0.1,68,10,500,7.408,,,30,,,,,,,,,,,wg-a,,,,AAXX 20034 07222 12/00 00304 10160 20100 30182 40213 58001 60006 80000 90300=
07222,1996-07-20 06:00:00,18,1022,0.7,59,10,500,3.704,,,50,15.4,29.2,,,,,,,,,wg-a,,,,AAXX 20064 07222 02/00 10502 10180 20100 30189 40220 53007 60006 80001 90600 333 10292 20154 60004=
07222,1996-07-20 09:00:00,26,1022.2,0.3,39,11,500,14.816,,,100,,,,,,,,,,,wg-a,,,,AAXX 20094 07222 12/00 21008 10260 20110 30192 40222 50003 60006 80001 90900=
07222,1996-07-20 12:00:00,29,1021.7,-0.5,27,8,500,11.112,,,70,,,,,,,,,,,wg-a,,,,AAXX 20124 07222 12/00 10706 10290 20080 30187 40217 58005 60006 80001 91200=
07222,1996-07-20 15:00:00,31,1021.1,-0.6,24,8,500,7.408,,,40,,,,,,,,,,,wg-a,,,,AAXX 20154 07222 12/00 00404 10310 20080 30181 40211 58006 60006 80000 91500=
07222,1996-07-20 18:00:00,30,1020.6,-0.5,24,7,500,7.408,,,50,18.3,31.1,,,,,,,,,wg-a,,,,AAXX 20184 07222 12/00 10504 10300 20070 30176 40206 56005 60006 80001 91800 333 10311 20183=
07222,1996-07-20 21:00:00,24,1021.4,0.8,41,10,500,7.408,,,30,,,,,,,,,,,wg-a,,,,AAXX 20214 07222 12/00 10304 10240 20100 30184 40214 53008 60006 80001 92100=
07222,1996-07-21 00:00:00,20,1021.5,-0,60,12,15000,0,,,0,,,,,,,,,,,wg-a,,,,AAXX 21004 07222 12/65 00000 10200 20120 30184 40215 54000 60006 80000 90000=
07222,1996-07-21 03:00:00,17,1020.9,-0.6,72,12,15000,0,,,0,,,,,,,,,,,wg-a,,,,AAXX 21034 07222 12/65 00000 10170 20120 30178 40209 56006 60006 80000 90300=
07222,1996-07-21 06:00:00,18,1021.3,0.4,68,12,15000,3.704,,,50,15.8,30,,,,,,,,,wg-a,,,,AAXX 21064 07222 02/65 10502 10180 20120 30182 40213 53004 60006 80001 90600 333 10300 20158 60004=
07222,1996-07-21 09:00:00,27,1021.2,0,32,9,20000,7.408,,,140,,,,,,,,,,,wg-a,,,,AAXX 21094 07222 12/70 11404 10270 20090 30182 40212 50000 60006 80001 90900=
07222,1996-07-21 12:00:00,31,1020.1,-1.1,22,7,500,14.816,,,90,,,,,,,,,,,wg-a,,,,AAXX 21124 07222 12/00 00908 10310 20070 30171 40201 58011 60006 80000 91200=
07222,1996-07-21 15:00:00,32,1018.4,-1.6,18,5,500,7.408,,,100,,,,,,,,,,,wg-a,,,,AAXX 21154 07222 12/00 01004 10320 20050 30155 40184 57016 60006 80000 91500=
07222,1996-07-21 18:00:00,31,1017.1,-1.3,31,12,35000,11.112,,,280,18,32.5,,,,,,,,,wg-a,,,,AAXX 21184 07222 12/81 02806 10310 20120 30142 40171 56013 60006 80000 91800 333 10325 20180=
07222,1996-07-21 21:00:00,24,1017.4,0.2,41,10,500,11.112,,,100,,,,,,,,,,,wg-a,,,,AAXX 21214 07222 12/00 01006 10240 20100 30144 40174 52002 60006 80000 92100=
07222,1996-07-22 00:00:00,20,1017,-0.5,46,8,500,11.112,,,100,,,,,,,,,,,wg-a,,,,AAXX 22004 07222 12/00 01006 10200 20080 30139 40170 58005 60006 80000 90000=
07222,1996-07-22 03:00:00,19,1016.3,-0.7,49,8,500,11.112,,,80,,,,,,,,,,,wg-a,,,,AAXX 22034 07222 12/00 00806 10190 20080 30132 40163 56007 60006 80000 90300=
07222,1996-07-22 06:00:00,19,1016,-0.3,56,10,500,14.816,,,90,16.9,31.1,,,,,,,,,wg-a,,,,AAXX 22064 07222 02/00 00908 10190 20100 30129 40160 58003 60006 80000 90600 333 10311 20169 60004=
07222,1996-07-22 09:00:00,28,1014.6,-1.3,37,12,500,14.816,,,90,,,,,,,,,,,wg-a,,,,AAXX 22094 07222 12/00 00908 10280 20120 30116 40146 57013 60006 80000 90900=
07222,1996-07-22 12:00:00,33,1012.9,-1.6,24,10,10000,14.816,,,160,,,,,,,,,,,wg-a,,,,AAXX 22124 07222 12/60 /1608 10330 20100 30100 40129 58016 60006 91200=
07222,1996-07-22 15:00:00,34,1011.2,-1.7,28,13,10000,22.224,,,170,,,,,,,,,,,wg-a,,,,AAXX 22154 07222 12/60 /1712 10340 20130 30083 40112 58017 60006 91500=
07222,1996-07-22 18:00:00,31,1010.7,-0.5,43,17,500,11.112,,,230,19.5,34.7,,,,,,,,,wg-a,,,,AAXX 22184 07222 12/00 02306 10310 20170 30078 40107 56005 60006 80000 91800 333 10347 20195=
07222,1996-07-22 21:00:00,22,1011.9,1.1,83,19,20000,11.112,,,240,,,,,,,,,,,wg-a,,,,AAXX 22214 07222 12/70 02406 10220 20190 30089 40119 53011 60006 80000 92100=
07222,1996-07-23 00:00:00,20,1012.4,0.5,94,19,8000,14.816,,,230,,,,,,,,,,,wg-a,,,,AAXX 23004 07222 12258 /2308 10200 20190 30094 40124 51005 60006 86600 90000=
07222,1996-07-23 03:00:00,18,1013.2,0.7,94,17,10000,14.816,,,240,,,,,,,,,,,wg-a,,,,AAXX 23034 07222 12/60 02408 10180 20170 30101 40132 51007 60006 80000 90300=
07222,1996-07-23 06:00:00,17,1014.3,1.1,94,16,6000,7.408,,,240,16.2,30.4,,,,,,,,,wg-a,,,,AAXX 23064 07222 02/56 32404 10170 20160 30112 40143 53011 60006 80001 90600 333 10304 20162 60004=
07222,1996-07-23 09:00:00,22,1015,0.8,65,15,12000,11.112,,,250,,,,,,,,,,,wg-a,,,,AAXX 23094 07222 12/62 52506 10220 20150 30120 40150 51008 60006 80001 90900=
07222,1996-07-23 12:00:00,25,1015.2,0.2,50,14,20000,22.224,,,270,,,,,,,,,,,wg-a,,,,AAXX 23124 07222 12/70 62712 10250 20140 30122 40152 53002 60006 84031 91200=
07222,1996-07-23 15:00:00,24,1015.3,0.1,57,15,25000,22.224,,,250,,,,,,,,,,,wg-a,,,,AAXX 23154 07222 12675 /2512 10240 20150 30123 40153 53001 60006 81201 91500=
07222,1996-07-23 18:00:00,22,1015.8,0.5,60,14,500,22.224,,,270,16.9,25.3,,,,,,,,,wg-a,,,,AAXX 23184 07222 12700 12712 10220 20140 30128 40158 53005 60006 81200 91800 333 10253 20169=
07222,1996-07-23 21:00:00,17,1017,1.1,88,15,25000,14.816,,,260,,,,,,,,,,,wg-a,,,,AAXX 23214 07222 12/75 02608 10170 20150 30139 40170 53011 60006 80000 92100=
07222,1996-07-24 00:00:00,15,1017.3,0.3,94,14,20000,11.112,,,270,,,,,,,,,,,wg-a,,,,AAXX 24004 07222 12/70 02706 10150 20140 30142 40173 51003 60006 80000 90000=
07222,1996-07-24 03:00:00,14,1017.7,0.4,94,13,15000,3.704,,,340,,,,,,,,,,,wg-a,,,,AAXX 24034 07222 12565 33402 10140 20130 30146 40177 50004 60006 82501 90300=
07222,1996-07-24 06:00:00,14,1018.7,1,94,13,20000,7.408,,,330,12,21.9,,0,,,,,,,wg-a,,,,AAXX 24064 07222 02/70 13304 10140 20130 30156 40187 53010 60004 80001 90600 333 10219 20120 60007=
07222,1996-07-24 09:00:00,18,1019.7,1,77,14,25000,14.816,,,330,,,,,,,,,,,wg-a,,,,AAXX 24094 07222 12475 53308 10180 20140 30166 40197 51010 60006 84501 90900=
07222,1996-07-24 12:00:00,21,1019.8,0.1,60,13,500,11.112,,,360,,,,,,,,,,,wg-a,,,,AAXX 24124 07222 12500 73606 10210 20130 30167 40198 50001 60006 83232 91200=
07222,1996-07-24 15:00:00,25,1018.8,-0.9,44,12,500,14.816,,,330,,,,,,,,,,,wg-a,,,,AAXX 24154 07222 12600 33308 10250 20120 30158 40188 56009 60006 82202 91500=
07222,1996-07-24 18:00:00,24,1018.6,-0.2,54,14,500,22.224,,,290,14.3,26,,,,,,,,,wg-a,,,,AAXX 24184 07222 12700 32912 10240 20140 30156 40186 56002 60006 83400 91800 333 10260 20143=
07222,1996-07-24 21:00:00,19,1020.8,2.1,64,12,25000,14.816,,,10,,,,,,,,,,,wg-a,,,,AAXX 24214 07222 12/75 20108 10190 20120 30177 40208 53021 60006 80001 92100=
07222,1996-07-25 00:00:00,16,1021.7,0.9,72,11,20000,11.112,,,20,,,,,,,,,,,wg-a,,,,AAXX 25004 07222 12/70 00206 10160 20110 30186 40217 50009 60006 80000 90000=
07222,1996-07-25 03:00:00,13,1021.9,0.2,88,11,20000,7.408,,,20,,,,,,,,,,,wg-a,,,,AAXX 25034 07222 12/70 00204 10130 20110 30188 40219 52002 60006 80000 90300=
07222,1996-07-25 06:00:00,14,1021.6,-0.3,88,12,20000,11.112,,,40,13.1,23.5,,,,,,,,,wg-a,,,,AAXX 25064 07222 02/70 30406 10140 20120 30185 40216 55003 60006 80001 90600 333 10235 20131 60004=
07222,1996-07-25 09:00:00,20,1022,0.4,60,12,500,18.52,,,70,,,,,,,,,,,wg-a,,,,AAXX 25094 07222 12500 20710 10200 20120 30189 40220 50004 60006 81101 90900=
07222,1996-07-25 12:00:00,24,1021.3,-0.6,44,11,500,22.224,,,50,,,,,,,,,,,wg-a,,,,AAXX 25124 07222 12/00 30512 10240 20110 30183 40213 58006 60006 80001 91200=
07222,1996-07-25 15:00:00,27,1019.1,-2.2,34,10,500,22.224,,40.744,60,,,,,,,,,,,wg-a,,,,AAXX 25154 07222 12/00 40612 10270 20100 30161 40191 58022 60006 80001 91500 333 91022=
07222,1996-07-25 18:00:00,25,1018.1,-1,39,10,500,22.224,,,60,14.1,26.9,,,,,,,,,wg-a,,,,AAXX 25184 07222 12/00 30612 10250 20100 30151 40181 55010 60006 80002 91800 333 10269 20141=
07222,1996-07-25 21:00:00,22,1020.1,2,46,10,500,7.408,,,40,,,,,,,,,,,wg-a,,,,AAXX 25214 07222 12/00 30404 10220 20100 30171 40201 53020 60006 81031 92100=
07222,1996-07-26 00:00:00,19,1019.6,-0.6,60,11,25000,18.52,,,40,,,,,,,,,,,wg-a,,,,AAXX 26004 07222 12/75 50410 10190 20110 30165 40196 56006 60006 82031 90000=
07222,1996-07-26 03:00:00,18,1019.6,-0,68,12,20000,14.816,,,40,,,,,,,,,,,wg-a,,,,AAXX 26034 07222 12/70 00408 10180 20120 30165 40196 55000 60006 80000 90300=
07222,1996-07-26 06:00:00,16,1020.3,0.7,77,12,10000,14.816,,,40,16.2,25.7,,,,,,,,,wg-a,,,,AAXX 26064 07222 02/60 60408 10160 20120 30172 40203 51007 60006 80002 90600 333 10257 20162 60004=
07222,1996-07-26 09:00:00,21,1020.4,0.1,60,13,15000,22.224,,,60,,,,,,,,,,,wg-a,,,,AAXX 26094 07222 12/65 40612 10210 20130 30173 40204 50001 60006 80002 90900=
07222,1996-07-26 12:00:00,26,1019.2,-1.1,45,13,20000,18.52,,,50,,,,,,,,,,,wg-a,,,,AAXX 26124 07222 12/70 40510 10260 20130 30162 40192 58011 60006 80002 91200=
07222,1996-07-26 15:00:00,29,1018.3,-0.9,35,12,500,18.52,,,60,,,,,,,,,,,wg-a,,,,AAXX 26154 07222 12/00 30610 10290 20120 30153 40183 58009 60006 81082 91500=
07222,1996-07-26 18:00:00,28,1017.7,-0.6,35,11,500,18.52,,,30,16.4,28.7,,,,,,,,,wg-a,,,,AAXX 26184 07222 12/00 10310 10280 20110 30147 40177 57006 60006 81081 91800 333 10287 20164=
07222,1996-07-26 21:00:00,22,1019.5,1.8,57,13,20000,14.816,,,360,,,,,,,,,,,wg-a,,,,AAXX 26214 07222 12/70 13608 10220 20130 30165 40195 51018 60006 80001 92100=
07222,1996-07-27 00:00:00,19,1019.8,0.2,64,12,18000,14.816,,,350,,,,,,,,,,,wg-a,,,,AAXX 27004 07222 12/68 03508 10190 20120 30167 40198 50002 60006 80000 90000=
07222,1996-07-27 03:00:00,17,1019.4,-0.4,72,12,15000,7.408,,,20,,,,,,,,,,,wg-a,,,,AAXX 27034 07222 12/65 00204 10170 20120 30163 40194 58004 60006 80000 90300=
07222,1996-07-27 06:00:00,17,1019.8,0.4,68,11,15000,14.816,,,20,15.9,28,,,,,,,,,wg-a,,,,AAXX 27064 07222 02/65 20208 10170 20110 30167 40198 53004 60006 80001 90600 333 10280 20159 60004=
07222,1996-07-27 09:00:00,22,1020.5,0.8,53,12,25000,11.112,,,20,,,,,,,,,,,wg-a,,,,AAXX 27094 07222 12/75 10206 10220 20120 30175 40205 52008 60006 80001 90900=
07222,1996-07-27 12:00:00,26,1019.8,-0.7,42,12,500,11.112,,,350,,,,,,,,,,,wg-a,,,,AAXX 27124 07222 12700 33506 10260 20120 30168 40198 58007 60006 81101 91200=
07222,1996-07-27 15:00:00,27,1019.1,-0.7,45,14,500,11.112,,,340,,,,,,,,,,,wg-a,,,,AAXX 27154 07222 12600 43406 10270 20140 30161 40191 56007 60006 83201 91500=
07222,1996-07-27 18:00:00,26,1018.9,-0.2,51,15,500,18.52,,,330,16.8,27.7,,,,,,,,,wg-a,,,,AAXX 27184 07222 12700 43310 10260 20150 30159 40189 55002 60006 82201 91800 333 10277 20168=
07222,1996-07-27 21:00:00,20,1020.7,1.7,78,16,500,11.112,,,310,,,,,,,,,,,wg-a,,,,AAXX 27214 07222 12700 23106 10200 20160 30176 40207 53017 60006 81201 92100=
07222,1996-07-28 00:00:00,19,1020.9,0.2,78,15,500,11.112,,,20,,,,,,,,,,,wg-a,,,,AAXX 28004 07222 12700 50206 10190 20150 30178 40209 52002 60006 85200 90000=
07222,1996-07-28 03:00:00,16,1020.3,-0.6,88,14,500,3.704,,,10,,,,,,,,,,,wg-a,,,,AAXX 28034 07222 12/00 00102 10160 20140 30172 40203 56006 60006 80000 90300=
07222,1996-07-28 06:00:00,15,1021.3,1,94,14,20000,7.408,,,330,13.8,25.4,,,,,,,,,wg-a,,,,AAXX 28064 07222 02/70 13304 10150 20140 30182 40213 53010 60006 80001 90600 333 10254 20138 60004=
07222,1996-07-28 09:00:00,20,1021.1,-0.2,60,12,500,3.704,,,330,,,,,,,,,,,wg-a,,,,AAXX 28094 07222 12/00 13302 10200 20120 30180 40211 58002 60006 80001 90900=
07222,1996-07-28 12:00:00,25,1020.4,-0.6,41,11,500,7.408,,,290,,,,,,,,,,,wg-a,,,,AAXX 28124 07222 12600 /2904 10250 20110 30174 40204 58006 60006 81101 91200=
07222,1996-07-28 15:00:00,26,1019.5,-0.9,39,11,500,18.52,,,260,,,,,,,,,,,wg-a,,,,AAXX 28154 07222 12700 12610 10260 20110 30165 40195 57009 60006 81800 91500=
07222,1996-07-28 18:00:00,22,1018.7,-0.8,60,14,500,14.816,,,300,15,26.2,,,,,,,,,wg-a,,,,AAXX 28184 07222 12800 23008 10220 20140 30157 40187 57008 60006 81031 91800 333 10262 20150=
07222,1996-07-28 21:00:00,17,1019.2,0.4,88,15,20000,0,,,0,,,,,,,,,,,wg-a,,,,AAXX 28214 07222 12870 20000 10170 20150 30161 40192 51004 60006 81031 92100=
07222,1996-07-29 00:00:00,15,1018.9,-0.3,94,14,20000,7.408,,,250,,,,,,,,,,,wg-a,,,,AAXX 29004 07222 12870 32504 10150 20140 30158 40189 55003 60006 81031 90000=
07222,1996-07-29 03:00:00,14,1017.5,-1.4,100,14,20000,7.408,,,160,,,,,,,,,,,wg-a,,,,AAXX 29034 07222 12870 61604 10140 20140 30144 40175 58014 60006 82031 90300=
07222,1996-07-29 06:00:00,15,1017.6,0.1,100,15,7000,7.408,,,170,14,22.3,,,,,,,,,wg-a,,,,AAXX 29064 07222 02457 71704 10150 20150 30145 40176 52001 60006 83531 90600 333 10223 20140 60004=
07222,1996-07-29 09:00:00,21,1017.4,-0.1,78,17,20000,18.52,,,240,,,,,,,,,,,wg-a,,,,AAXX 29094 07222 12470 72410 10210 20170 30144 40174 58001 60006 878// 90900=
07222,1996-07-29 12:00:00,24,1017,-0.4,65,17,500,11.112,,,260,,,,1,,,,,,1,wg-a,,,,AAXX 29124 07222 02500 62606 10240 20170 30140 40170 58004 60016 70162 86800 91200 333 60017=
07222,1996-07-29 15:00:00,23,1016.7,-0.3,57,14,500,22.224,,,260,,,,,,,,,,,wg-a,,,,AAXX 29154 07222 12600 32612 10230 20140 30137 40167 56003 60006 83100 91500=
07222,1996-07-29 18:00:00,21,1016.8,0.1,73,16,500,25.928,,,280,15.3,24.5,,,,,,,,,wg-a,,,,AAXX 29184 07222 32500 22814 10210 20160 30138 40168 53001 82100 91800 333 10245 20153=
07222,1996-07-29 21:00:00,17,1018,1.1,88,15,20000,11.112,,,250,,,,,,,,,,,wg-a,,,,AAXX 29214 07222 12/70 12506 10170 20150 30149 40180 51011 60006 80001 92100=
07222,1996-07-30 00:00:00,16,1018.6,0.6,94,15,20000,11.112,,,260,,,,,,,,,,,wg-a,,,,AAXX 30004 07222 12770 12606 10160 20150 30155 40186 51006 60006 81500 90000=
07222,1996-07-30 03:00:00,15,1018.5,-0.1,100,15,20000,3.704,,,260,,,,,,,,,,,wg-a,,,,AAXX 30034 07222 12370 72602 10150 20150 30154 40185 57001 60006 875// 90300=
07222,1996-07-30 06:00:00,17,1019,0.5,94,16,15000,7.408,,,270,14.9,21.3,,0,,,1,,,,wg-a,,,,AAXX 30064 07222 02565 72704 10170 20160 30159 40190 51005 60014 875// 90600 333 10213 20149 60007=
07222,1996-07-30 09:00:00,20,1020.2,1.2,73,15,11000,11.112,,,310,,,,,,,,,,,wg-a,,,,AAXX 30094 07222 12/61 /3106 10200 20150 30171 40202 51012 60006 90900=
07222,1996-07-30 12:00:00,21,1020.5,0.3,64,14,25000,14.816,,,290,,,,,,,,,,,wg-a,,,,AAXX 30124 07222 12575 72908 10210 20140 30174 40205 51003 60006 878// 91200=
07222,1996-07-30 15:00:00,23,1020.4,0,57,14,25000,14.816,,,260,,,,,,,,,,,wg-a,,,,AAXX 30154 07222 12675 72608 10230 20140 30174 40204 50000 60006 878// 91500=
07222,1996-07-30 18:00:00,22,1020.2,-0.2,57,13,25000,18.52,,,280,16.6,23.6,,,,,,,,,wg-a,,,,AAXX 30184 07222 12675 12810 10220 20130 30172 40202 58002 60006 81500 91800 333 10236 20166=
07222,1996-07-30 21:00:00,16,1021.3,1,88,14,500,11.112,,,270,,,,,,,,,,,wg-a,,,,AAXX 30214 07222 12/00 02706 10160 20140 30182 40213 53010 60006 80000 92100=
07222,1996-07-31 00:00:00,15,1021,-0.3,88,13,25000,7.408,,,260,,,,,,,,,,,wg-a,,,,AAXX 31004 07222 12575 42604 10150 20130 30179 40210 57003 60006 84500 90000=
07222,1996-07-31 03:00:00,15,1020,-1,82,12,20000,7.408,,,290,,,,,,,,,,,wg-a,,,,AAXX 31034 07222 12570 72904 10150 20120 30169 40200 56010 60006 875// 90300=
07222,1996-07-31 06:00:00,15,1020.2,0.2,88,13,20000,3.704,,,240,13.9,22,,,,,,,,,wg-a,,,,AAXX 31064 07222 02570 72402 10150 20130 30171 40202 53002 60006 875// 90600 333 10220 20139 60004=
07222,1996-07-31 09:00:00,19,1020.3,0.1,68,13,20000,11.112,,,210,,,,,,,,,,,wg-a,,,,AAXX 31094 07222 12570 72106 10190 20130 30172 40203 50001 60006 87500 90900=
07222,1996-07-31 12:00:00,23,1019.7,-0.5,50,12,500,14.816,,,260,,,,,,,,,,,wg-a,,,,AAXX 31124 07222 12600 /2608 10230 20120 30167 40197 56005 60006 81500 91200=
07222,1996-07-31 15:00:00,24,1018.8,-0.9,50,13,500,18.52,,,260,,,,,,,,,,,wg-a,,,,AAXX 31154 07222 12600 /2610 10240 20130 30158 40188 58009 60006 81500 91500=
07222,1996-07-31 18:00:00,22,1018.3,-0.5,60,14,500,18.52,,,290,14.8,24.4,,,,,,,,,wg-a,,,,AAXX 31184 07222 12600 /2910 10220 20140 30153 40183 56005 60006 81500 91800 333 10244 20148=
07222,1996-07-31 21:00:00,17,1019.1,0.7,88,15,25000,7.408,,,260,,,,,,,,,,,wg-a,,,,AAXX 31214 07222 12775 12604 10170 20150 30160 40191 51007 60006 81500 92100=
07222,1996-08-01 00:00:00,15,1018.8,-0.3,94,14,20000,3.704,,,270,,,,,,,,,,,wg-a,,,,AAXX 01004 07222 12770 12702 10150 20140 30157 40188 56003 60006 81500 90000=
07222,1996-08-01 03:00:00,16,1017.8,-1,94,15,15000,0,,,0,,,,,,,,,,,wg-a,,,,AAXX 01034 07222 12465 30000 10160 20150 30147 40178 58010 60006 83600 90300=
07222,1996-08-01 04:00:00,16,1018.4,,100,16,7000,3.704,,,180,14.3,21.9,,,,,,,,,wg-a,,,,AAXX 01044 07222 02157 71802 10160 20160 30153 40184 60006 90400 333 10219 20143 60004=
07222,1996-08-01 06:00:00,16,1018.4,0.6,100,16,7000,3.704,,,180,14.3,21.9,,,,,,,,,wg-a,,,,AAXX 01064 07222 02157 71802 10160 20160 30153 40184 53006 60006 876// 90600 333 10219 20143 60004=
07222,1996-08-01 09:00:00,21,1018.9,0.6,73,16,15000,11.112,,,310,,,,,,,,,,,wg-a,,,,AAXX 01094 07222 12465 73106 10210 20160 30159 40189 51006 60006 878// 90900=
07222,1996-08-01 12:00:00,23,1019.1,0.2,53,13,20000,14.816,,,270,,,,,,,,,,,wg-a,,,,AAXX 01124 07222 12670 72708 10230 20130 30161 40191 53002 60006 878// 91200=
07222,1996-08-01 15:00:00,24,1019,-0.1,44,11,500,22.224,,,260,,,,,,,,,,,wg-a,,,,AAXX 01154 07222 12700 22612 10240 20110 30160 40190 55001 60006 81102 91500=
07222,1996-08-01 18:00:00,20,1019.7,0.6,56,11,25000,18.52,,,270,16,24.7,,,,,,,,,wg-a,,,,AAXX 01184 07222 12775 72710 10200 20110 30166 40197 53006 60006 81532 91800 333 10247 20160=
07222,1996-08-02 00:00:00,17,1021.7,1,72,12,20000,11.112,,,40,,,,,,,,,,,wg-a,,,,AAXX 02004 07222 12/70 40406 10170 20120 30186 40217 51010 60006 82042 90000=
07222,1996-08-02 03:00:00,15,1022.4,0.7,88,13,15000,11.112,,,30,,,,,,,,,,,wg-a,,,,AAXX 02034 07222 12/65 40306 10150 20130 30193 40224 50007 60006 83031 90300=
07222,1996-08-02 06:00:00,16,1023.5,1.1,88,14,15000,3.704,,,30,14.8,19.7,,,,,,,,,wg-a,,,,AAXX 02064 07222 02665 70302 10160 20140 30204 40235 53011 60006 85531 90600 333 10197 20148 60004=
07222,1996-08-02 12:00:00,23,1024.1,-0.1,47,11,500,7.408,,,350,,,,,,,,,,,wg-a,,,,AAXX 02124 07222 12600 43504 10230 20110 30211 40241 58001 60006 84200 91200=
07222,1996-08-02 15:00:00,25,1023.6,-0.5,41,11,500,11.112,,,10,,,,,,,,,,,wg-a,,,,AAXX 02154 07222 12700 30106 10250 20110 30206 40236 56005 60006 83800 91500=
07222,1996-08-02 18:00:00,23,1023.8,0.1,44,10,500,14.816,,,340,15.5,25.4,,,,,,,,,wg-a,,,,AAXX 02184 07222 12700 13408 10230 20100 30207 40238 53001 60006 81500 91800 333 10254 20155=
07222,1996-08-02 21:00:00,18,1025.6,1.8,56,9,500,11.112,,,20,,,,,,,,,,,wg-a,,,,AAXX 02214 07222 12/00 00206 10180 20090 30225 40256 53018 60006 80000 92100=
07222,1996-08-03 00:00:00,15,1026.5,0.9,77,11,20000,11.112,,,20,,,,,,,,,,,wg-a,,,,AAXX 03004 07222 12/70 00206 10150 20110 30234 40265 51009 60006 80000 90000=
07222,1996-08-03 03:00:00,13,1026.5,-0.1,88,11,20000,11.112,,,20,,,,,,,,,,,wg-a,,,,AAXX 03034 07222 12/70 00206 10130 20110 30233 40265 55001 60006 80000 90300=
07222,1996-08-03 06:00:00,13,1026.9,0.4,88,11,500,7.408,,,20,11.7,22.5,,,,,,,,,wg-a,,,,AAXX 03064 07222 02/00 00204 10130 20110 30237 40269 53004 60006 80000 90600 333 10225 20117 60004=
07222,1996-08-03 12:00:00,23,1025.7,-1.1,41,9,500,11.112,,,30,,,,,,,,,,,wg-a,,,,AAXX 03124 07222 12/00 00306 10230 20090 30226 40257 58011 60006 80000 91200=
07222,1996-08-03 15:00:00,26,1024.1,-1.5,34,9,500,11.112,,,80,,,,,,,,,,,wg-a,,,,AAXX 03154 07222 12/00 00806 10260 20090 30211 40241 58015 60006 80000 91500=
07222,1996-08-03 18:00:00,25,1023.1,-1,34,8,500,11.112,,,60,13.4,26.1,,,,,,,,,wg-a,,,,AAXX 03184 07222 12/00 00606 10250 20080 30201 40231 56010 60006 80000 91800 333 10261 20134=
07222,1996-08-03 21:00:00,20,1023.4,0.2,49,9,20000,7.408,,,30,,,,,,,,,,,wg-a,,,,AAXX 03214 07222 12/70 00304 10200 20090 30203 40234 51002 60006 80000 92100=
07222,1996-08-04 00:00:00,17,1022.6,-0.8,68,11,20000,7.408,,,30,,,,,,,,,,,wg-a,,,,AAXX 04004 07222 12/70 00304 10170 20110 30195 40226 58008 60006 80000 90000=
07222,1996-08-04 03:00:00,16,1021.2,-1.4,68,10,15000,11.112,,,50,,,,,,,,,,,wg-a,,,,AAXX 04034 07222 12/65 00506 10160 20100 30181 40212 58014 60006 80000 90300=
07222,1996-08-04 06:00:00,16,1020.6,-0.6,59,8,15000,11.112,,,70,14.8,25.3,,,,,,,,,wg-a,,,,AAXX 04064 07222 02/65 10706 10160 20080 30175 40206 56006 60006 80001 90600 333 10253 20148 60004=
07222,1996-08-04 09:00:00,24,1019.5,-1,38,9,20000,22.224,,40.744,90,,,,,,,,,,,wg-a,,,,AAXX 04094 07222 12/70 10912 10240 20090 30165 40195 58010 60006 80001 90900 333 91022=
07222,1996-08-04 12:00:00,27,1017.1,-2.4,30,8,20000,22.224,,,100,,,,,,,,,,,wg-a,,,,AAXX 04124 07222 12/70 31012 10270 20080 30141 40171 58024 60006 80001 91200=
07222,1996-08-04 15:00:00,29,1015,-2.1,25,7,20000,22.224,,,80,,,,,,,,,,,wg-a,,,,AAXX 04154 07222 12/70 60812 10290 20070 30120 40150 58021 60006 80004 91500=
07222,1996-08-04 18:00:00,27,1013.5,-1.5,32,9,20000,18.52,,,60,16.1,28.5,,,,,,,,,wg-a,,,,AAXX 04184 07222 12/70 60610 10270 20090 30105 40135 56015 60006 81032 91800 333 10285 20161=
07222,1996-08-04 21:00:00,23,1013.1,-0.4,44,10,20000,7.408,,,50,,,,,,,,,,,wg-a,,,,AAXX 04214 07222 12/70 30504 10230 20100 30101 40131 58004 60006 81032 92100=
07222,1996-08-05 00:00:00,20,1012.3,-0.8,53,10,20000,7.408,,,50,,,,,,,,,,,wg-a,,,,AAXX 05004 07222 12/70 30504 10200 20100 30093 40123 58008 60006 81031 90000=
07222,1996-08-05 03:00:00,17,1011,-1.4,63,10,20000,3.704,,,50,,,,,,,,,,,wg-a,,,,AAXX 05034 07222 12/70 00502 10170 20100 30079 40110 57014 60006 80000 90300=
07222,1996-08-05 06:00:00,16,1010.5,-0.5,68,10,20000,11.112,,,90,15.4,27,,,,,,,,,wg-a,,,,AAXX 05064 07222 02/70 30906 10160 20100 30074 40105 55005 60006 82031 90600 333 10270 20154 60004=
07222,1996-08-05 09:00:00,21,1010.6,0.2,53,11,15000,14.816,,,190,,,,,,,,,,,wg-a,,,,AAXX 05094 07222 12/65 71908 10210 20110 30076 40106 53002 60006 86054 90900=
07222,1996-08-05 12:00:00,21,1010.7,0.1,69,15,15000,0,,,0,,,,1,,,,,,1,wg-a,,,,AAXX 05124 07222 02765 80000 10210 20150 30077 40107 53001 60016 70186 8587/ 91200 333 60017=
07222,1996-08-05 15:00:00,25,1010.1,-0.6,54,15,15000,14.816,,,210,,,,,,,,,,,wg-a,,,,AAXX 05154 07222 12765 72108 10250 20150 30071 40101 57006 60006 8387/ 91500=
07222,1996-08-05 18:00:00,21,1010.8,0.7,73,16,15000,22.224,,,260,16.4,25.3,,,,,,,,,wg-a,,,,AAXX 05184 07222 32565 72612 10210 20160 30078 40108 53007 85832 91800 333 10253 20164=
07222,1996-08-05 21:00:00,18,1011.8,0.9,88,16,15000,7.408,,,220,,,,,,,,,,,wg-a,,,,AAXX 05214 07222 12465 52204 10180 20160 30087 40118 51009 60006 83231 92100=
07222,1996-08-06 00:00:00,17,1011.2,-0.6,100,17,12000,7.408,,,180,,,,,,,,,,25,wg-a,,,,AAXX 06004 07222 02462 71804 10170 20170 30081 40112 58006 61000 72586 875// 90000 333 6100=
07222,1996-08-06 03:00:00,17,1010.6,-0.6,100,17,12000,7.408,,,180,,,,0,,,,,,,wg-a,,,,AAXX 06034 07222 12462 /1804 10170 20170 30075 40106 57006 60007 82531 90300=
07222,1996-08-06 06:00:00,18,1011,0.4,100,18,8000,11.112,,,220,17,21,,,,,1,,,,wg-a,,,,AAXX 06064 07222 12258 82206 10180 20180 30079 40110 53004 60014 8482/ 90600 333 10210 20170=
07222,1996-08-06 09:00:00,18,1013,2,83,15,15000,18.52,,,310,,,,0,,,,,,21,wg-a,,,,AAXX 06094 07222 12465 73110 10180 20150 30099 40130 51020 60007 72186 86830 90900=
07222,1996-08-06 12:00:00,22,1014.1,1.2,46,10,20000,22.224,,,310,,,,,,,,,,1,wg-a,,,,AAXX 06124 07222 12670 53112 10220 20100 30111 40141 51012 60006 70186 82501 91200=
07222,1996-08-06 15:00:00,22,1014.7,0.6,50,11,20000,22.224,,,270,,,,,,,,,,,wg-a,,,,AAXX 06154 07222 12770 22712 10220 20110 30117 40147 53006 60006 81101 91500=
07222,1996-08-06 18:00:00,20,1016.1,1.3,53,10,20000,22.224,,,270,16.9,22.7,,,,,,,,,wg-a,,,,AAXX 06184 07222 32/70 22712 10200 20100 30130 40161 51013 80001 91800 333 10227 20169=
07222,1996-08-06 21:00:00,15,1018,1.9,77,11,20000,11.112,,,300,,,,,,,,,,,wg-a,,,,AAXX 06214 07222 12/70 63006 10150 20110 30149 40180 53019 60006 80002 92100=
07222,1996-08-07 00:00:00,13,1019.3,1.3,67,7,20000,7.408,,,350,,,,,,,,,,,wg-a,,,,AAXX 07004 07222 12/70 23504 10130 20070 30162 40193 51013 60006 80002 90000=
07222,1996-08-07 03:00:00,9,1019.9,0.5,87,7,10000,3.704,,,300,,,,,,,,,,,wg-a,,,,AAXX 07034 07222 12/60 /3002 10090 20070 30167 40199 50005 60006 90300=
07222,1996-08-07 06:00:00,9,1020.9,1,93,8,20000,0,,,0,8.6,19.7,,,,,,,,,wg-a,,,,AAXX 07064 07222 02/70 60000 10090 20080 30177 40209 51010 60006 81032 90600 333 10197 20086 60004=
07222,1996-08-07 09:00:00,16,1021,0.2,63,9,500,3.704,,,160,,,,,,,,,,,wg-a,,,,AAXX 07094 07222 12500 51602 10160 20090 30179 40210 50002 60006 81202 90900=
07222,1996-08-07 12:00:00,21,1020.4,-0.6,43,8,500,7.408,,,30,,,,,,,,,,,wg-a,,,,AAXX 07124 07222 12600 30304 10210 20080 30173 40204 57006 60006 81202 91200=
07222,1996-08-07 18:00:00,21,1018,-0.7,53,11,500,18.52,,,280,9.4,23.7,,,,,,,,,wg-a,,,,AAXX 07184 07222 12/00 12810 10210 20110 30150 40180 55007 60006 80001 91800 333 10237 20094=
07222,1996-08-07 21:00:00,16,1018.8,0.7,77,12,25000,7.408,,,320,,,,,,,,,,,wg-a,,,,AAXX 07214 07222 12/75 13204 10160 20120 30157 40188 53007 60006 80001 92100=
07222,1996-08-08 00:00:00,14,1017.7,-1.1,77,10,25000,7.408,,,20,,,,,,,,,,,wg-a,,,,AAXX 08004 07222 12/75 10204 10140 20100 30146 40177 58011 60006 80001 90000=
07222,1996-08-08 03:00:00,13,1016.5,-1.2,77,9,20000,3.704,,,60,,,,,,,,,,,wg-a,,,,AAXX 08034 07222 12/70 00602 10130 20090 30134 40165 57012 60006 80000 90300=
07222,1996-08-08 06:00:00,13,1016,-0.5,72,8,20000,7.408,,,80,11.5,21.1,,,,,,,,,wg-a,,,,AAXX 08064 07222 02/70 20804 10130 20080 30129 40160 58005 60006 80001 90600 333 10211 20115 60004=
07222,1996-08-08 09:00:00,20,1016.2,0.2,49,9,500,11.112,,,210,,,,,,,,,,,wg-a,,,,AAXX 08094 07222 12/00 62106 10200 20090 30131 40162 53002 60006 82081 90900=
07222,1996-08-08 12:00:00,23,1015.6,-0.5,50,12,500,11.112,,,190,,,,,,,,,,,wg-a,,,,AAXX 08124 07222 12/00 31906 10230 20120 30126 40156 58005 60006 81081 91200=
07222,1996-08-08 15:00:00,23,1014.9,-0.7,50,12,500,18.52,,,230,,,,,,,,,,,wg-a,,,,AAXX 08154 07222 12/00 32310 10230 20120 30119 40149 58007 60006 80001 91500=
07222,1996-08-08 18:00:00,20,1015.6,0.6,53,10,500,18.52,,,250,13,25.2,,,,,,,,,wg-a,,,,AAXX 08184 07222 12/00 52510 10200 20100 30125 40156 53006 60006 81042 91800 333 10252 20130=
07222,1996-08-08 21:00:00,16,1016.3,0.7,82,13,20000,7.408,,,240,,,,,,,,,,,wg-a,,,,AAXX 08214 07222 12/70 62404 10160 20130 30132 40163 53007 60006 82032 92100=
07222,1996-08-09 00:00:00,15,1015.6,-0.7,88,13,20000,7.408,,,170,,,,,,,,,,,wg-a,,,,AAXX 09004 07222 12/70 51704 10150 20130 30125 40156 58007 60006 80001 90000=
07222,1996-08-09 03:00:00,15,1014.5,-1.1,94,14,20000,7.408,,,160,,,,,,,,,,,wg-a,,,,AAXX 09034 07222 12/70 61604 10150 20140 30114 40145 58011 60006 82031 90300=
07222,1996-08-09 06:00:00,17,1014,-0.5,94,16,15000,14.816,,,170,14.1,19.8,,,,,,,,,wg-a,,,,AAXX 09064 07222 02/65 71708 10170 20160 30109 40140 55005 60006 8707/ 90600 333 10198 20141 60004=
07222,1996-08-09 12:00:00,25,1012.9,-0.7,54,15,20000,22.224,,,210,,,,,,,,,,,wg-a,,,,AAXX 09124 07222 12670 62112 10250 20150 30099 40129 58007 60006 83231 91200=
07222,1996-08-09 18:00:00,22,1011.9,-0.5,65,15,20000,18.52,,,240,16.7,26,,,,,,,,,wg-a,,,,AAXX 09184 07222 12670 52410 10220 20150 30089 40119 56005 60006 83231 91800 333 10260 20167=
07222,1996-08-09 21:00:00,20,1011.8,-0.1,78,16,15000,14.816,,,200,,,,,,,,,,,wg-a,,,,AAXX 09214 07222 12665 /2008 10200 20160 30088 40118 58001 60006 85500 92100=
07222,1996-08-10 00:00:00,18,1011,-0.9,94,17,15000,14.816,,,210,,,,,,,,,,,wg-a,,,,AAXX 10004 07222 12465 72108 10180 20170 30079 40110 58009 60006 875// 90000=
07222,1996-08-10 03:00:00,18,1009.6,-1.3,94,17,15000,14.816,,,200,,,,,,,,,,,wg-a,,,,AAXX 10034 07222 12465 72008 10180 20170 30066 40096 56013 60006 878// 90300=
07222,1996-08-10 06:00:00,17,1009.1,-0.6,94,16,10000,18.52,,,210,16.4,22.4,,2,,,2,,,21,wg-a,,,,AAXX 10064 07222 02460 72110 10170 20160 30060 40091 56006 60024 72162 878// 90600 333 10224 20164 60027=
07222,1996-08-10 09:00:00,18,1009.2,0.2,94,17,12000,18.52,,,270,,,,0,,,,,,21,wg-a,,,,AAXX 10094 07222 12462 82710 10180 20170 30062 40092 53002 60007 72162 878// 90900=
07222,1996-08-10 12:00:00,17,1009.6,0.3,94,16,500,7.408,,,250,,,,3,,,,,,61,wg-a,,,,AAXX 10124 07222 02200 72504 10170 20160 30065 40096 51003 60036 76162 878// 91200 333 60037=
07222,1996-08-10 15:00:00,21,1009.4,-0.1,60,13,20000,25.928,,,260,,,,1,,,,,,1,wg-a,,,,AAXX 10154 07222 12570 /2614 10210 20130 30064 40094 55001 60017 70162 85800 91500=
07222,1996-08-10 18:00:00,19,1009.1,-0.3,68,13,11000,22.224,,,240,16.6,21.3,,,,,,,,,wg-a,,,,AAXX 10184 07222 32/61 /2412 10190 20130 30061 40091 58003 91800 333 10213 20166=
07222,1996-08-10 21:00:00,16,1008.4,-0.8,94,15,15000,14.816,,,200,,,,,,,,,,61,wg-a,,,,AAXX 10214 07222 02465 82008 10160 20150 30053 40084 58008 61000 76186 875// 92100 333 ////=
07222,1996-08-11 00:00:00,16,1007.5,-0.9,94,15,15000,14.816,,,200,,,,1,,,,,,1,wg-a,,,,AAXX 11004 07222 02465 82008 10160 20150 30044 40075 58009 60016 70186 875// 90000 333 60017=
07222,1996-08-11 03:00:00,17,1006.4,-1.1,94,16,10000,11.112,,,260,,,,,,,,,,,wg-a,,,,AAXX 11034 07222 12460 82606 10170 20160 30033 40064 56011 60006 875// 90300=
07222,1996-08-11 06:00:00,16,1006.6,0.2,100,16,25000,11.112,,,250,15.7,18.7,,,,,5,,,,wg-a,,,,AAXX 11064 07222 12475 62506 10160 20160 30035 40066 53002 60054 86830 90600 333 10187 20157=
07222,1996-08-11 09:00:00,19,1007.2,0.7,68,13,25000,29.632,,,270,,,,,,,,,,80,wg-a,,,,AAXX 11094 07222 02575 72716 10190 20130 30042 40072 53007 61000 78086 87800 90900 333 ////=
07222,1996-08-11 12:00:00,20,1007.4,0.2,64,13,500,31.484,,,270,,,,0,,,,,,1,wg-a,,,,AAXX 11124 07222 02500 52717 10200 20130 30044 40074 50002 60016 70186 85800 91200 333 60007=
07222,1996-08-11 15:00:00,21,1008.3,0.9,60,13,500,31.484,,,280,,,,,,,,,,,wg-a,,,,AAXX 11154 07222 12500 42817 10210 20130 30053 40083 51009 60006 84200 91500=
07222,1996-08-11 18:00:00,19,1009,0.7,68,13,500,29.632,,,270,16.2,21.7,,,,,,,,,wg-a,,,,AAXX 11184 07222 32500 22716 10190 20130 30060 40090 52007 82200 91800 333 10217 20162=
07222,1996-08-11 21:00:00,16,1010.9,1.8,88,14,20000,18.52,,,280,,,,,,,,,,,wg-a,,,,AAXX 11214 07222 12/70 02810 10160 20140 30078 40109 53018 60006 80000 92100=
07222,1996-08-12 00:00:00,13,1012.2,1.3,94,12,20000,14.816,,,280,,,,,,,,,,,wg-a,,,,AAXX 12004 07222 12/70 02808 10130 20120 30091 40122 51013 60006 80000 90000=
07222,1996-08-12 03:00:00,12,1012.1,-0.1,100,12,20000,11.112,,,270,,,,,,,,,,,wg-a,,,,AAXX 12034 07222 32/70 02706 10120 20120 30090 40121 57001 80000 90300=
07222,1996-08-12 06:00:00,13,1013.3,1.2,94,12,12000,7.408,,,290,11.2,18.8,,,,,1,,,,wg-a,,,,AAXX 12064 07222 12/62 12904 10130 20120 30102 40133 53012 60014 81030 90600 333 10188 20112=
07222,1996-08-12 09:00:00,19,1014.1,0.8,73,14,20000,18.52,,,310,,,,,,,,,,,wg-a,,,,AAXX 12094 07222 12570 43110 10190 20140 30110 40141 51008 60006 84200 90900=
07222,1996-08-12 12:00:00,22,1014.5,0.5,57,13,25000,25.928,,,300,,,,,,,,,,,wg-a,,,,AAXX 12124 07222 12575 /3014 10220 20130 30115 40145 53005 60006 86200 91200=
07222,1996-08-12 15:00:00,21,1014.4,-0.1,64,14,25000,22.224,,,280,,,,,,,,,,25,wg-a,,,,AAXX 12154 07222 02675 72812 10210 20140 30114 40144 55001 61000 72586 878// 91500 333 ////=
07222,1996-08-12 18:00:00,20,1014.6,0.2,68,14,20000,22.224,,,270,12.6,22.7,,,,,,,,2,wg-a,,,,AAXX 12184 07222 32570 72712 10200 20140 30116 40146 53002 70286 878// 91800 333 10227 20126=
07222,1996-08-12 21:00:00,17,1016,1.3,88,15,20000,7.408,,,280,,,,,,,,,,,wg-a,,,,AAXX 12214 07222 12/70 02804 10170 20150 30129 40160 51013 60006 80000 92100=
07222,1996-08-13 00:00:00,14,1016.3,0.3,94,13,20000,7.408,,,350,,,,,,,,,,,wg-a,,,,AAXX 13004 07222 12/70 03504 10140 20130 30132 40163 50003 60006 80000 90000=
07222,1996-08-13 03:00:00,12,1016.1,-0.2,100,12,20000,3.704,,,330,,,,,,,,,,,wg-a,,,,AAXX 13034 07222 12/70 03302 10120 20120 30130 40161 56002 60006 80000 90300=
07222,1996-08-13 06:00:00,12,1016.8,0.7,100,12,2000,3.704,,,320,11.1,20,,0,,,,,,10,wg-a,,,,AAXX 13064 07222 02020 53202 10120 20120 30137 40168 53007 60004 71011 85500 90600 333 10200 20111 60007=
07222,1996-08-13 09:00:00,14,1017.8,1,100,14,3000,7.408,,,250,,,,,,,,,,10,wg-a,,,,AAXX 13094 07222 12230 72504 10140 20140 30147 40178 51010 60006 71022 87700 90900=
07222,1996-08-13 12:00:00,23,1017.4,-0.3,53,13,15000,7.408,,,320,,,,,,,,,,,wg-a,,,,AAXX 13124 07222 12565 /3204 10230 20130 30144 40174 57003 60006 81100 91200=
07222,1996-08-13 18:00:00,22,1017,0.1,57,13,15000,18.52,,,290,11.9,25.3,,,,,,,,,wg-a,,,,AAXX 13184 07222 12765 32910 10220 20130 30140 40170 53001 60006 83500 91800 333 10253 20119=
07222,1996-08-13 21:00:00,18,1018.7,1.6,77,14,15000,11.112,,,310,,,,,,,,,,,wg-a,,,,AAXX 13214 07222 12765 23106 10180 20140 30156 40187 53016 60006 82500 92100=
07222,1996-08-14 00:00:00,15,1018.9,0.2,88,13,15000,3.704,,,320,,,,,,,,,,,wg-a,,,,AAXX 14004 07222 12/65 03202 10150 20130 30158 40189 52002 60006 80000 90000=
07222,1996-08-14 03:00:00,13,1018.5,-0.4,94,12,10000,3.704,,,360,,,,,,,,,,,wg-a,,,,AAXX 14034 07222 12/60 03602 10130 20120 30154 40185 58004 60006 80000 90300=
07222,1996-08-14 06:00:00,13,1018.7,0.2,94,12,3500,3.704,,,60,12.2,21.8,,,,,,,,10,wg-a,,,,AAXX 14064 07222 02/35 00602 10130 20120 30156 40187 53002 60006 71000 80000 90600 333 10218 20122 60004=
07222,1996-08-14 09:00:00,21,1019.4,0.7,64,14,12000,7.408,,,10,,,,,,,,,,,wg-a,,,,AAXX 14094 07222 12/62 10104 10210 20140 30163 40194 53007 60006 80001 90900=
07222,1996-08-14 12:00:00,24,1018.5,-0.8,50,13,20000,7.408,,,360,,,,,,,,,,,wg-a,,,,AAXX 14124 07222 12670 33604 10240 20130 30155 40185 58008 60006 83200 91200=
07222,1996-08-14 15:00:00,26,1017.6,-0.9,42,12,20000,11.112,,,40,,,,,,,,,,,wg-a,,,,AAXX 14154 07222 12770 30406 10260 20120 30146 40176 57009 60006 83800 91500=
07222,1996-08-14 18:00:00,25,1017.1,-0.5,47,13,20000,14.816,,,20,12.6,27.3,,,,,,,,,wg-a,,,,AAXX 14184 07222 12770 10208 10250 20130 30141 40171 56005 60006 81500 91800 333 10273 20126=
07222,1996-08-14 21:00:00,21,1018.4,1.3,64,14,10000,11.112,,,20,,,,,,,,,,,wg-a,,,,AAXX 14214 07222 12/60 00206 10210 20140 30154 40184 53013 60006 80000 92100=
07222,1996-08-15 00:00:00,18,1019.3,0.8,83,15,7000,11.112,,,30,,,,,,,,,,,wg-a,,,,AAXX 15004 07222 12/57 00306 10180 20150 30162 40193 51008 60006 80000 90000=
07222,1996-08-15 03:00:00,16,1019.1,-0.2,88,14,4000,7.408,,,30,,,,,,,,,,10,wg-a,,,,AAXX 15034 07222 12/40 00304 10160 20140 30160 40191 58002 60006 71000 80000 90300=
07222,1996-08-15 06:00:00,16,1019.7,0.6,94,15,4500,3.704,,,40,15,25.3,,,,,,,,10,wg-a,,,,AAXX 15064 07222 02/45 00402 10160 20150 30166 40197 53006 60006 71000 80000 90600 333 10253 20150 60004=
07222,1996-08-15 09:00:00,23,1020.4,0.8,65,16,8000,11.112,,,100,,,,,,,,,,,wg-a,,,,AAXX 15094 07222 12/58 01006 10230 20160 30174 40204 52008 60006 80000 90900=
07222,1996-08-15 10:00:00,26,1018.5,-0.5,45,13,10000,14.816,,,60,15.6,27.8,,,,,,,,,wg-a,,,,AAXX 15104 07222 12760 20608 10260 20130 30155 40185 57005 60006 82200 91000 333 10278 20156=
07222,1996-08-15 12:00:00,25,1020,-0.4,47,13,10000,11.112,,,70,,,,,,,,,,,wg-a,,,,AAXX 15124 07222 12660 30706 10250 20130 30170 40200 58004 60006 83200 91200=
07222,1996-08-15 15:00:00,27,1019,-1,42,13,10000,7.408,,,50,,,,,,,,,,,wg-a,,,,AAXX 15154 07222 12760 30504 10270 20130 30160 40190 58010 60006 83200 91500=
07222,1996-08-15 18:00:00,26,1018.5,-0.5,45,13,10000,14.816,,,60,15.6,27.8,,,,,,,,,wg-a,,,,AAXX 15184 07222 12760 20608 10260 20130 30155 40185 57005 60006 82200 91800 333 10278 20156=
07222,1996-08-15 21:00:00,22,1019.9,1.4,57,13,10000,11.112,,,70,,,,,,,,,,,wg-a,,,,AAXX 15214 07222 12/60 00706 10220 20130 30169 40199 53014 60006 80000 92100=
07222,1996-08-16 00:00:00,18,1020.4,0.4,68,12,10000,7.408,,,100,,,,,,,,,,,wg-a,,,,AAXX 16004 07222 12/60 01004 10180 20120 30173 40204 51004 60006 80000 90000=
07222,1996-08-16 06:00:00,17,1020.8,0.8,77,13,10000,3.704,,,60,14.5,26.3,,,,,,,,,wg-a,,,,AAXX 16064 07222 02/60 00602 10170 20130 30177 40208 53008 60006 80000 90600 333 10263 20145 60004=
07222,1996-08-16 09:00:00,23,1020.9,0.2,57,14,15000,11.112,,,60,,,,,,,,,,,wg-a,,,,AAXX 16094 07222 12/65 00606 10230 20140 30179 40209 50002 60006 80000 90900=
07222,1996-08-16 12:00:00,28,1020.1,-0.8,37,12,18000,14.816,,,90,,,,,,,,,,,wg-a,,,,AAXX 16124 07222 12/68 00908 10280 20120 30171 40201 58008 60006 80000 91200=
07222,1996-08-16 15:00:00,29,1018.8,-1.3,29,9,20000,11.112,,,50,,,,,,,,,,,wg-a,,,,AAXX 16154 07222 12/70 00506 10290 20090 30158 40188 56013 60006 80000 91500=
07222,1996-08-16 18:00:00,29,1018.8,-0,29,9,20000,11.112,,,80,16.4,29.8,,,,,,,,,wg-a,,,,AAXX 16184 07222 12/70 00806 10290 20090 30158 40188 55000 60006 80000 91800 333 10298 20164=
07222,1996-08-16 21:00:00,24,1019.9,1.1,44,11,20000,7.408,,,60,,,,,,,,,,,wg-a,,,,AAXX 16214 07222 12/70 00604 10240 20110 30169 40199 53011 60006 80000 92100=
07222,1996-08-17 00:00:00,18,1020.3,0.3,64,11,20000,0,,,0,,,,,,,,,,,wg-a,,,,AAXX 17004 07222 12/70 00000 10180 20110 30172 40203 53003 60006 80000 90000=
07222,1996-08-17 06:00:00,17,1020.9,0.5,72,12,10000,7.408,,,50,16.2,28.5,,,,,,,,,wg-a,,,,AAXX 17064 07222 02/60 00504 10170 20120 30178 40209 53005 60006 80000 90600 333 10285 20162 60004=
07222,1996-08-17 09:00:00,26,1021.4,0.6,45,13,20000,7.408,,,100,,,,,,,,,,,wg-a,,,,AAXX 17094 07222 12/70 01004 10260 20130 30184 40214 51006 60006 80000 90900=
07222,1996-08-17 12:00:00,30,1020.4,-1,27,9,25000,14.816,,38.892,110,,,,,,,,,,,wg-a,,,,AAXX 17124 07222 12/75 01108 10300 20090 30174 40204 58010 60006 80000 91200 333 91021=
07222,1996-08-17 15:00:00,31,1019.4,-1,26,9,25000,18.52,,,90,,,,,,,,,,,wg-a,,,,AAXX 17154 07222 12/75 00910 10310 20090 30164 40194 58010 60006 80000 91500=
07222,1996-08-17 18:00:00,30,1018.8,-0.6,27,9,25000,11.112,,,80,17.4,30.9,,,,,,,,,wg-a,,,,AAXX 17184 07222 12/75 00806 10300 20090 30158 40188 56006 60006 80000 91800 333 10309 20174=
07222,1996-08-17 21:00:00,23,1019.2,0.4,47,11,20000,14.816,,,80,,,,,,,,,,,wg-a,,,,AAXX 17214 07222 12/70 00808 10230 20110 30162 40192 52004 60006 80000 92100=
07222,1996-08-18 00:00:00,20,1019.1,-0.2,56,11,20000,11.112,,,90,,,,,,,,,,,wg-a,,,,AAXX 18004 07222 12/70 00906 10200 20110 30160 40191 58002 60006 80000 90000=
07222,1996-08-18 03:00:00,18,1018.8,-0.3,59,10,20000,3.704,,,80,,,,,,,,,,,wg-a,,,,AAXX 18034 07222 12/70 00802 10180 20100 30157 40188 58003 60006 80000 90300=
07222,1996-08-18 06:00:00,18,1018.5,-0.3,64,11,20000,11.112,,,80,16.5,29.5,,,,,,,,,wg-a,,,,AAXX 18064 07222 02/70 00806 10180 20110 30154 40185 55003 60006 80000 90600 333 10295 20165 60004=
07222,1996-08-18 09:00:00,27,1018.4,0,37,11,20000,22.224,,,110,,,,,,,,,,,wg-a,,,,AAXX 18094 07222 12/70 01112 10270 20110 30154 40184 50000 60006 80000 90900=
07222,1996-08-18 12:00:00,30,1017,-1.4,27,9,20000,22.224,,,90,,,,,,,,,,,wg-a,,,,AAXX 18124 07222 12/70 00912 10300 20090 30140 40170 58014 60006 80000 91200=
07222,1996-08-18 15:00:00,31,1015.4,-1.5,22,7,20000,11.112,,,100,,,,,,,,,,,wg-a,,,,AAXX 18154 07222 12/70 01006 10310 20070 30125 40154 58015 60006 80000 91500=
07222,1996-08-18 18:00:00,30,1014.2,-1.3,24,7,20000,14.816,,,80,17.7,31.5,,,,,,,,,wg-a,,,,AAXX 18184 07222 12/70 10808 10300 20070 30112 40142 56013 60006 80001 91800 333 10315 20177=
07222,1996-08-18 21:00:00,25,1014.1,-0.1,39,10,20000,14.816,,,80,,,,,,,,,,,wg-a,,,,AAXX 18214 07222 12/70 10808 10250 20100 30111 40141 57001 60006 80001 92100=
07222,1996-08-19 00:00:00,19,1014,-0.2,60,11,20000,0,,,0,,,,,,,,,,,wg-a,,,,AAXX 19004 07222 12/70 10000 10190 20110 30109 40140 58002 60006 80001 90000=
07222,1996-08-19 03:00:00,19,1013.1,-0.9,60,11,20000,3.704,,,80,,,,,,,,,,,wg-a,,,,AAXX 19034 07222 12/70 00802 10190 20110 30100 40131 56009 60006 80000 90300=
07222,1996-08-19 06:00:00,19,1012.7,-0.4,64,12,20000,7.408,,,60,17.5,30,,,,,,,,,wg-a,,,,AAXX 19064 07222 02/70 10604 10190 20120 30096 40127 56004 60006 81080 90600 333 10300 20175 60004=
07222,1996-08-19 09:00:00,27,1012.5,-0.1,42,13,20000,3.704,,,90,,,,,,,,,,,wg-a,,,,AAXX 19094 07222 12/70 10902 10270 20130 30095 40125 58001 60006 81080 90900=
07222,1996-08-19 12:00:00,31,1011.5,-0.9,33,13,20000,11.112,,,240,,,,,,,,,,,wg-a,,,,AAXX 19124 07222 12/70 32406 10310 20130 30086 40115 57009 60006 83080 91200=
07222,1996-08-19 15:00:00,27,1011.3,-0.3,48,15,10000,14.816,,,260,,,,,,,,,,,wg-a,,,,AAXX 19154 07222 12/60 /2608 10270 20150 30083 40113 56003 60006 91500=
07222,1996-08-19 18:00:00,26,1011,-0.3,51,15,15000,3.704,,,340,19,31.9,,,,,,,,,wg-a,,,,AAXX 19184 07222 12765 63402 10260 20150 30080 40110 56003 60006 8258/ 91800 333 10319 20190=
07222,1996-08-19 21:00:00,20,1012.4,1.4,83,17,8000,11.112,,,230,,,,,,,,,,,wg-a,,,,AAXX 19214 07222 12/58 72306 10200 20170 30094 40124 53014 60006 85082 92100=
07222,1996-08-20 00:00:00,20,1012.2,-0.2,88,18,10000,11.112,,,200,,,,,,,,,,,wg-a,,,,AAXX 20004 07222 12760 72006 10200 20180 30092 40122 56002 60006 875// 90000=
07222,1996-08-20 03:00:00,17,1012.2,-0.1,94,16,10000,7.408,,,280,,,,,,,,,,,wg-a,,,,AAXX 20034 07222 12/60 22804 10170 20160 30091 40122 56001 60006 80001 90300=
07222,1996-08-20 06:00:00,17,1012.8,0.6,94,16,3000,7.408,,,270,16.4,26.5,,,,,,,,10,wg-a,,,,AAXX 20064 07222 02230 72704 10170 20160 30097 40128 53006 60006 71011 86502 90600 333 10265 20164 60004=
07222,1996-08-20 09:00:00,20,1013.4,0.7,78,16,7000,11.112,,,280,,,,,,,,,,,wg-a,,,,AAXX 20094 07222 12457 52806 10200 20160 30104 40134 53007 60006 84802 90900=
07222,1996-08-20 12:00:00,23,1013.4,-0,65,16,10000,7.408,,,270,,,,,,,,,,,wg-a,,,,AAXX 20124 07222 12560 72704 10230 20160 30104 40134 54000 60006 85231 91200=
07222,1996-08-20 15:00:00,24,1012.9,-0.5,61,16,18000,18.52,,,260,,,,,,,,,,,wg-a,,,,AAXX 20154 07222 12668 42610 10240 20160 30099 40129 58005 60006 81231 91500=
07222,1996-08-20 18:00:00,22,1013,0.1,69,16,18000,14.816,,,260,16.7,24.2,,,,,,,,,wg-a,,,,AAXX 20184 07222 12668 42608 10220 20160 30100 40130 52001 60006 81231 91800 333 10242 20167=
07222,1996-08-20 21:00:00,16,1014.3,1.2,94,15,18000,7.408,,,270,,,,,,,,,,,wg-a,,,,AAXX 20214 07222 12/68 52704 10160 20150 30112 40143 53012 60006 85031 92100=
07222,1996-08-21 00:00:00,14,1014.2,-0.1,100,14,15000,7.408,,,260,,,,,,,,,,,wg-a,,,,AAXX 21004 07222 12/65 02604 10140 20140 30111 40142 58001 60006 80000 90000=
07222,1996-08-21 03:00:00,13,1013.7,-0.5,100,13,15000,3.704,,,300,,,,,,,,,,,wg-a,,,,AAXX 21034 07222 12/65 53002 10130 20130 30106 40137 58005 60006 82031 90300=
07222,1996-08-21 06:00:00,13,1013.5,-0.2,100,13,10000,3.704,,,310,12.3,21.9,,0,,,,,,,wg-a,,,,AAXX 21064 07222 02/60 73102 10130 20130 30104 40135 56002 60004 82031 90600 333 10219 20123 60007=
07222,1996-08-21 09:00:00,19,1014.1,0.6,78,15,12000,7.408,,,320,,,,,,,,,,,wg-a,,,,AAXX 21094 07222 12462 /3204 10190 20150 30110 40141 51006 60006 81102 90900=
07222,1996-08-21 12:00:00,23,1014,0,50,12,25000,14.816,,,280,,,,,,,,,,,wg-a,,,,AAXX 21124 07222 12675 52808 10230 20120 30110 40140 50000 60006 83102 91200=
07222,1996-08-21 15:00:00,24,1013.3,-0.7,47,12,500,18.52,,,280,,,,,,,,,,,wg-a,,,,AAXX 21154 07222 12600 52810 10240 20120 30103 40133 58007 60006 83202 91500=
07222,1996-08-21 18:00:00,20,1014.1,0.8,60,12,500,25.928,,,270,13.2,24.6,,,,,,,,,wg-a,,,,AAXX 21184 07222 12600 22714 10200 20120 30111 40141 53008 60006 81101 91800 333 10246 20132=
07222,1996-08-21 21:00:00,16,1015.5,1.3,77,12,500,11.112,,,270,,,,,,,,,,,wg-a,,,,AAXX 21214 07222 12700 32706 10160 20120 30124 40155 53013 60006 814/2 92100=
07222,1996-08-22 00:00:00,14,1016.1,0.6,82,11,25000,11.112,,,280,,,,,,,,,,,wg-a,,,,AAXX 22004 07222 12775 22806 10140 20110 30130 40161 51006 60006 81502 90000=
07222,1996-08-22 03:00:00,11,1015.7,-0.4,94,10,20000,0,,,0,,,,,,,,,,,wg-a,,,,AAXX 22034 07222 12/70 00000 10110 20100 30126 40157 58004 60006 80000 90300=
07222,1996-08-22 06:00:00,10,1015.7,-0.1,93,9,12000,3.704,,,130,9.1,20.3,,,,,,,,,wg-a,,,,AAXX 22064 07222 02762 11302 10100 20090 30125 40157 56001 60006 81501 90600 333 10203 20091 60004=
07222,1996-08-22 09:00:00,20,1015.6,0,56,11,22000,14.816,,,170,,,,,,,,,,,wg-a,,,,AAXX 22094 07222 12672 /1708 10200 20110 30125 40156 50000 60006 81800 90900=
07222,1996-08-22 12:00:00,24,1014.3,-1.2,50,13,25000,22.224,,,210,,,,,,,,,,,wg-a,,,,AAXX 22124 07222 12675 42112 10240 20130 30113 40143 56012 60006 84800 91200=
07222,1996-08-22 15:00:00,24,1013.1,-1.2,54,14,25000,25.928,,,220,,,,,,,,,,,wg-a,,,,AAXX 22154 07222 12675 42214 10240 20140 30101 40131 58012 60006 83202 91500=
07222,1996-08-22 18:00:00,21,1012.4,-0.7,64,14,20000,22.224,,,210,9.9,24.6,,,,,,,,,wg-a,,,,AAXX 22184 07222 12670 72112 10210 20140 30094 40124 58007 60006 8557/ 91800 333 10246 20099=
07222,1996-08-22 21:00:00,19,1011.9,-0.5,78,15,15000,14.816,,,170,,,,,,,,,,,wg-a,,,,AAXX 22214 07222 12665 71708 10190 20150 30089 40119 56005 60006 8557/ 92100=
07222,1996-08-23 00:00:00,19,1009.7,-2.2,73,14,10000,22.224,,,180,,,,,,,,,,,wg-a,,,,AAXX 23004 07222 12660 71812 10190 20140 30067 40097 56022 60006 8557/ 90000=
07222,1996-08-23 03:00:00,17,1008.4,-1.4,100,17,11000,22.224,,,170,,,,,,,,,,,wg-a,,,,AAXX 23034 07222 32/61 /1712 10170 20170 30053 40084 58014 90300=
07222,1996-08-23 06:00:00,17,1007.7,-0.7,94,16,6000,29.632,,,260,16.4,21.3,,2,,,4,,,61,wg-a,,,,AAXX 23064 07222 02456 72616 10170 20160 30046 40077 55007 60044 76162 877// 90600 333 10213 20164 60027=
07222,1996-08-23 09:00:00,20,1010.6,3,64,13,20000,29.632,,,270,,,,,,,,,,3,wg-a,,,,AAXX 23094 07222 02470 42716 10200 20130 30076 40106 51030 61000 70361 84200 90900 333 ////=
07222,1996-08-23 12:00:00,18,1011.9,1.2,83,15,20000,22.224,,,270,,,,0,,,,,,25,wg-a,,,,AAXX 23124 07222 02670 62712 10180 20150 30088 40119 53012 60006 72586 85802 91200 333 60007=
07222,1996-08-23 15:00:00,22,1011.8,-0,57,13,25000,35.188,,,240,,,,,,,,,,,wg-a,,,,AAXX 23154 07222 12675 32419 10220 20130 30088 40118 55000 60006 83200 91500=
07222,1996-08-23 18:00:00,19,1012,0.1,68,13,25000,25.928,,,240,16.4,22.7,,,,,,,,,wg-a,,,,AAXX 23184 07222 32675 32414 10190 20130 30089 40120 53001 83200 91800 333 10227 20164=
07222,1996-08-23 21:00:00,17,1012.5,0.5,82,14,25000,14.816,,,220,,,,,,,,,,,wg-a,,,,AAXX 23214 07222 12675 32208 10170 20140 30094 40125 51005 60006 83200 92100=
07222,1996-08-24 00:00:00,15,1011.9,-0.6,100,15,15000,14.816,,,200,,,,5,,,,,,2,wg-a,,,,AAXX 24004 07222 02665 22008 10150 20150 30088 40119 58006 60056 70286 82200 90000 333 60057=
07222,1996-08-24 03:00:00,15,1010.6,-1.3,100,15,15000,11.112,,,190,,,,0,,,,,,25,wg-a,,,,AAXX 24034 07222 12565 41906 10150 20150 30075 40106 58013 60007 72500 84200 90300=
07222,1996-08-24 06:00:00,15,1010.5,-0.1,94,14,18000,11.112,,,210,14.2,19.2,,6,,,11,,,3,wg-a,,,,AAXX 24064 07222 02468 /2106 10150 20140 30074 40105 58001 60114 70386 86900 90600 333 10192 20142 60067=
07222,1996-08-24 09:00:00,18,1011.8,1.3,77,14,20000,25.928,,,260,,,,,,,,,,,wg-a,,,,AAXX 24094 07222 12570 32614 10180 20140 30087 40118 51013 60006 83201 90900=
07222,1996-08-24 12:00:00,21,1011.9,0.2,60,13,20000,29.632,,,260,,,,,,,,,,3,wg-a,,,,AAXX 24124 07222 02670 42616 10210 20130 30089 40119 50002 61000 70386 84200 91200 333 6100=
07222,1996-08-24 15:00:00,21,1012.1,0.2,56,12,20000,29.632,,,260,,,,,,,,,,,wg-a,,,,AAXX 24154 07222 12670 32616 10210 20120 30091 40121 50002 60006 83200 91500=
07222,1996-08-24 18:00:00,18,1012.9,0.7,73,13,20000,18.52,,,260,14.7,21.7,,,,,,,,,wg-a,,,,AAXX 24184 07222 32570 32610 10180 20130 30098 40129 51007 83200 91800 333 10217 20147=
07222,1996-08-24 21:00:00,15,1014.5,1.6,88,13,20000,11.112,,,250,,,,,,,,,,,wg-a,,,,AAXX 24214 07222 12570 22506 10150 20130 30114 40145 51016 60006 82800 92100=
07222,1996-08-25 00:00:00,14,1014.6,0.1,94,13,20000,7.408,,,230,,,,,,,,,,,wg-a,,,,AAXX 25004 07222 12570 32304 10140 20130 30115 40146 50001 60006 83800 90000=
07222,1996-08-25 03:00:00,14,1014.1,-0.5,94,13,15000,11.112,,,220,,,,,,,,,,,wg-a,,,,AAXX 25034 07222 12565 42206 10140 20130 30110 40141 56005 60006 84800 90300=
07222,1996-08-25 06:00:00,14,1014.4,0.3,100,14,12000,7.408,,,200,13.3,18.1,,0,,,,,,,wg-a,,,,AAXX 25064 07222 02562 62004 10140 20140 30113 40144 53003 60004 86800 90600 333 10181 20133 60007=
07222,1996-08-25 09:00:00,18,1015.1,0.7,83,15,20000,11.112,,,220,,,,,,,,,,,wg-a,,,,AAXX 25094 07222 12570 62206 10180 20150 30120 40151 51007 60006 86880 90900=
07222,1996-08-25 12:00:00,21,1014.6,-0.4,53,11,500,22.224,,,260,,,,,,,,,,,wg-a,,,,AAXX 25124 07222 12600 42612 10210 20110 30116 40146 58004 60006 84800 91200=
07222,1996-08-25 15:00:00,21,1014.4,-0.2,49,10,500,18.52,,,280,,,,,,,,,,,wg-a,,,,AAXX 25154 07222 12600 42810 10210 20100 30114 40144 58002 60006 84800 91500=
07222,1996-08-25 18:00:00,19,1014.5,-0,56,10,500,22.224,,,270,14.2,22,,,,,,,,,wg-a,,,,AAXX 25184 07222 12600 /2712 10190 20100 30114 40145 55000 60006 81201 91800 333 10220 20142=
07222,1996-08-25 21:00:00,14,1015.6,1.1,82,11,20000,7.408,,,250,,,,,,,,,,,wg-a,,,,AAXX 25214 07222 12/70 02504 10140 20110 30125 40156 52011 60006 80000 92100=
07222,1996-08-26 00:00:00,12,1015.6,-0,94,11,20000,0,,,0,,,,,,,,,,,wg-a,,,,AAXX 26004 07222 12/70 00000 10120 20110 30125 40156 54000 60006 80000 90000=
07222,1996-08-26 03:00:00,10,1015.4,-0.3,100,10,20000,0,,,0,,,,,,,,,,,wg-a,,,,AAXX 26034 07222 12770 70000 10100 20100 30122 40154 55003 60006 875// 90300=
07222,1996-08-26 06:00:00,11,1016,0.6,94,10,2000,3.704,,,220,10,18.7,,0,,,,,,,wg-a,,,,AAXX 26064 07222 02720 42202 10110 20100 30128 40160 53006 60004 84400 90600 333 10187 20100 60007=
07222,1996-08-26 09:00:00,18,1017,1.1,68,12,25000,11.112,,,300,,,,,,,,,,,wg-a,,,,AAXX 26094 07222 12575 23006 10180 20120 30139 40170 51011 60006 82100 90900=
07222,1996-08-26 12:00:00,21,1016.5,-0.5,46,9,500,7.408,,,220,,,,,,,,,,,wg-a,,,,AAXX 26124 07222 12600 32204 10210 20090 30134 40165 58005 60006 83200 91200=
07222,1996-08-26 15:00:00,22,1015.5,-0.9,46,10,500,18.52,,,280,,,,,,,,,,,wg-a,,,,AAXX 26154 07222 12700 32810 10220 20100 30125 40155 56009 60006 83200 91500=
07222,1996-08-26 18:00:00,19,1016.5,0.9,60,11,500,18.52,,,270,10.7,22.6,,,,,,,,,wg-a,,,,AAXX 26184 07222 12700 22710 10190 20110 30134 40165 53009 60006 81101 91800 333 10226 20107=
07222,1996-08-27 00:00:00,12,1017.5,-0,94,11,20000,3.704,,,300,,,,,,,,,,,wg-a,,,,AAXX 27004 07222 12/70 13002 10120 20110 30144 40175 54000 60006 81030 90000=
07222,1996-08-27 03:00:00,11,1017.2,-0.4,94,10,15000,3.704,,,320,,,,,,,,,,,wg-a,,,,AAXX 27034 07222 12765 63202 10110 20100 30140 40172 56004 60006 86500 90300=
07222,1996-08-27 06:00:00,12,1017.3,0.2,100,12,15000,3.704,,,320,10,18.7,,,,,,,,,wg-a,,,,AAXX 27064 07222 02765 63202 10120 20120 30142 40173 53002 60006 86500 90600 333 10187 20100 60004=
07222,1996-08-27 09:00:00,17,1018.2,0.9,68,11,20000,11.112,,,310,,,,,,,,,,,wg-a,,,,AAXX 27094 07222 12570 43106 10170 20110 30151 40182 51009 60006 84200 90900=
07222,1996-08-27 12:00:00,18,1018,-0.2,64,11,20000,14.816,,,290,,,,,,,,,,,wg-a,,,,AAXX 27124 07222 12670 62908 10180 20110 30149 40180 55002 60006 86800 91200=
07222,1996-08-27 15:00:00,18,1017.9,-0.1,68,12,15000,22.224,,,290,,,,0,,,,,,80,wg-a,,,,AAXX 27154 07222 12565 62912 10180 20120 30148 40179 55001 60007 78086 85902 91500=
07222,1996-08-27 21:00:00,14,1020,1.2,82,11,15000,7.408,,,270,,,,,,,,,,,wg-a,,,,AAXX 27214 07222 12765 22704 10140 20110 30169 40200 53012 60006 82500 92100=
07222,1996-08-28 00:00:00,12,1020.2,0.1,94,11,15000,0,,,0,,,,,,,,,,,wg-a,,,,AAXX 28004 07222 12765 20000 10120 20110 30170 40202 50001 60006 82500 90000=
07222,1996-08-28 03:00:00,11,1019.9,-0.3,94,10,15000,3.704,,,310,,,,,,,,,,,wg-a,,,,AAXX 28034 07222 32/65 03102 10110 20100 30167 40199 57003 80000 90300=
07222,1996-08-28 06:00:00,11,1020.2,0.3,100,11,9000,11.112,,,300,10.2,18.1,,,,,1,,,,wg-a,,,,AAXX 28064 07222 12559 /3006 10110 20110 30170 40202 53003 60014 81200 90600 333 10181 20102=
07222,1996-08-28 09:00:00,17,1020.5,0.4,77,13,12000,14.816,,,290,,,,,,,,,,,wg-a,,,,AAXX 28094 07222 12462 32908 10170 20130 30174 40205 53004 60006 83200 90900=
07222,1996-08-28 12:00:00,18,1019.8,-0.7,68,12,18000,18.52,,,300,,,,,,,,,,,wg-a,,,,AAXX 28124 07222 12568 /3010 10180 20120 30167 40198 56007 60006 86800 91200=
07222,1996-08-28 15:00:00,17,1019.3,-0.5,88,15,9000,11.112,,,280,,,,1,,,,,,25,wg-a,,,,AAXX 28154 07222 12659 72806 10170 20150 30162 40193 57005 60017 72586 878// 91500=
07222,1996-08-28 18:00:00,17,1019.5,0.2,68,11,8000,18.52,,35.188,310,10.9,20.7,,1,,,,,,80,wg-a,,,,AAXX 28184 07222 12558 73110 10170 20110 30164 40195 53002 60017 78098 879// 91800 333 10207 20109 91019=
07222,1996-08-28 21:00:00,14,1020,0.5,94,13,10000,7.408,,,320,,,,,,,,,,1,wg-a,,,,AAXX 28214 07222 32/60 03204 10140 20130 30169 40200 53005 70198 80000 92100=
07222,1996-08-29 00:00:00,12,1019.9,-0.1,100,12,10000,3.704,,,300,,,,,,,,,,2,wg-a,,,,AAXX 29004 07222 12/60 03002 10120 20120 30168 40199 57001 60026 70298 80000 90000=
07222,1996-08-29 03:00:00,12,1019.2,-0.8,94,11,8000,11.112,,,310,,,,,,,,,,,wg-a,,,,AAXX 29034 07222 12/58 03106 10120 20110 30160 40192 57008 60006 80000 90300=
07222,1996-08-29 06:00:00,11,1018.9,-0.3,100,11,2000,7.408,,,290,10.7,16.8,,0,,,3,,,10,wg-a,,,,AAXX 29064 07222 02720 22904 10110 20110 30157 40189 56003 60034 71000 82500 90600 333 10168 20107 60007=
07222,1996-08-29 09:00:00,16,1019.3,0.5,88,14,10000,11.112,,,330,,,,,,,,,,,wg-a,,,,AAXX 29094 07222 12460 43306 10160 20140 30162 40193 53005 60006 84800 90900=
07222,1996-08-29 12:00:00,19,1018.9,-0.4,64,12,18000,14.816,,,300,,,,,,,,,,,wg-a,,,,AAXX 29124 07222 12568 63008 10190 20120 30158 40189 58004 60006 86800 91200=
07222,1996-08-29 15:00:00,17,1018.9,-0,77,13,20000,18.52,,,260,,,,0,,,,,,1,wg-a,,,,AAXX 29154 07222 12570 /2610 10170 20130 30158 40189 55000 60007 70186 85800 91500=
07222,1996-08-29 18:00:00,18,1018.8,-0.1,77,14,20000,11.112,,,280,11,20,,,,,,,,1,wg-a,,,,AAXX 29184 07222 32570 /2806 10180 20140 30157 40188 56001 70186 83801 91800 333 10200 20110=
07222,1996-08-29 21:00:00,17,1020.2,1.4,72,12,15000,7.408,,,350,,,,,,,,,,,wg-a,,,,AAXX 29214 07222 12665 /3504 10170 20120 30171 40202 51014 60006 85500 92100=
07222,1996-08-30 00:00:00,14,1020.7,0.5,88,12,15000,7.408,,,320,,,,,,,,,,,wg-a,,,,AAXX 30004 07222 12665 /3204 10140 20120 30176 40207 51005 60006 85500 90000=
07222,1996-08-30 03:00:00,12,1021.1,0.3,88,10,15000,3.704,,,310,,,,,,,,,,,wg-a,,,,AAXX 30034 07222 12/65 23102 10120 20100 30179 40211 50003 60006 80001 90300=
07222,1996-08-30 06:00:00,11,1022.1,1,94,10,15000,3.704,,,290,9.9,17.8,,,,,,,,,wg-a,,,,AAXX 30064 07222 02665 72902 10110 20100 30189 40221 51010 60006 87500 90600 333 10178 20099 60004=
07222,1996-08-30 09:00:00,15,1023.3,1.3,72,10,15000,7.408,,,340,,,,,,,,,,,wg-a,,,,AAXX 30094 07222 12665 73404 10150 20100 30202 40233 51013 60006 878// 90900=
07222,1996-08-30 12:00:00,19,1023.4,0.1,52,9,20000,14.816,,,340,,,,,,,,,,,wg-a,,,,AAXX 30124 07222 12670 73408 10190 20090 30203 40234 51001 60006 87201 91200=
07222,1996-08-30 15:00:00,19,1023.7,0.3,56,10,500,14.816,,,10,,,,,,,,,,,wg-a,,,,AAXX 30154 07222 12600 /0108 10190 20100 30206 40237 52003 60006 86500 91500=
07222,1996-08-30 18:00:00,19,1023.9,0.2,56,10,500,14.816,,,340,11.2,20.7,,,,,,,,,wg-a,,,,AAXX 30184 07222 12700 33408 10190 20100 30208 40239 53002 60006 83500 91800 333 10207 20112=
07222,1996-08-30 21:00:00,16,1025.6,1.7,68,10,25000,7.408,,,340,,,,,,,,,,,wg-a,,,,AAXX 30214 07222 12675 73404 10160 20100 30225 40256 51017 60006 875// 92100=
07222,1996-08-31 00:00:00,14,1026,0.4,82,11,20000,3.704,,,310,,,,,,,,,,,wg-a,,,,AAXX 31004 07222 12670 73102 10140 20110 30229 40260 51004 60006 875// 90000=
07222,1996-08-31 03:00:00,15,1025.8,-0.2,88,13,18000,7.408,,,340,,,,,,,,,,,wg-a,,,,AAXX 31034 07222 12668 73404 10150 20130 30227 40258 55002 60006 875// 90300=
07222,1996-08-31 06:00:00,13,1026.7,0.8,94,12,20000,3.704,,,290,12.4,18.9,,,,,,,,,wg-a,,,,AAXX 31064 07222 02670 /2902 10130 20120 30235 40267 53008 60006 85500 90600 333 10189 20124 60004=
07222,1996-08-31 09:00:00,18,1027.4,0.8,73,13,20000,11.112,,,20,,,,,,,,,,,wg-a,,,,AAXX 31094 07222 12570 40206 10180 20130 30243 40274 51008 60006 82801 90900=
07222,1996-08-31 12:00:00,21,1026.6,-0.8,49,10,20000,11.112,,,340,,,,,,,,,,,wg-a,,,,AAXX 31124 07222 12670 53406 10210 20100 30235 40266 58008 60006 84201 91200=
07222,1996-08-31 15:00:00,23,1025.9,-0.7,44,10,11000,14.816,,,320,,,,,,,,,,,wg-a,,,,AAXX 31154 07222 12/61 /3208 10230 20100 30228 40259 58007 60006 91500=
07222,1996-08-31 18:00:00,20,1026,0.1,56,11,10000,14.816,,,340,12.6,23.2,,,,,,,,,wg-a,,,,AAXX 31184 07222 12/60 /3408 10200 20110 30229 40260 53001 60006 91800 333 10232 20126=
07222,1996-08-31 21:00:00,15,1028,2,67,9,20000,14.816,,,350,,,,,,,,,,,wg-a,,,,AAXX 31214 07222 12/70 43508 10150 20090 30249 40280 53020 60006 80001 92100=
07222,1996-09-01 00:00:00,13,1027.8,-0.3,77,9,20000,7.408,,,20,,,,,,,,,,,wg-a,,,,AAXX 01004 07222 12/70 30204 10130 20090 30246 40278 56003 60006 80001 90000=
07222,1996-09-01 03:00:00,11,1027.7,-0.1,87,9,15000,11.112,,,30,,,,,,,,,,,wg-a,,,,AAXX 01034 07222 12/65 30306 10110 20090 30245 40277 55001 60006 80001 90300=
07222,1996-09-01 06:00:00,11,1027.8,0.1,87,9,20000,7.408,,,30,10.8,20.2,,,,,,,,,wg-a,,,,AAXX 01064 07222 02/70 60304 10110 20090 30246 40278 53001 60006 83031 90600 333 10202 20108 60004=
07222,1996-09-01 09:00:00,16,1027.8,0.1,72,11,12000,11.112,,,40,,,,,,,,,,,wg-a,,,,AAXX 01094 07222 12/62 50406 10160 20110 30247 40278 53001 60006 82042 90900=
07222,1996-09-01 12:00:00,20,1026.9,-0.9,53,10,12000,11.112,,,60,,,,,,,,,,,wg-a,,,,AAXX 01124 07222 12662 70606 10200 20100 30238 40269 58009 60006 82142 91200=
07222,1996-09-01 15:00:00,23,1025.5,-1.4,41,9,15000,11.112,,,10,,,,,,,,,,,wg-a,,,,AAXX 01154 07222 12665 /0106 10230 20090 30224 40255 58014 60006 81142 91500=
07222,1996-09-01 18:00:00,21,1025.4,-0.1,46,9,15000,14.816,,,50,10.9,23,,,,,,,,,wg-a,,,,AAXX 01184 07222 12765 30508 10210 20090 30223 40254 55001 60006 82401 91800 333 10230 20109=
07222,1996-09-01 21:00:00,18,1026.4,1,52,8,15000,7.408,,,50,,,,,,,,,,,wg-a,,,,AAXX 01214 07222 12/65 20504 10180 20080 30233 40264 51010 60006 80001 92100=
07222,1996-09-02 00:00:00,13,1026.7,0.2,72,8,15000,7.408,,,40,,,,,,,,,,,wg-a,,,,AAXX 02004 07222 12/65 20404 10130 20080 30235 40267 53002 60006 80001 90000=
07222,1996-09-02 03:00:00,10,1026.3,-0.4,82,7,15000,7.408,,,30,,,,,,,,,,,wg-a,,,,AAXX 02034 07222 12/65 00304 10100 20070 30231 40263 58004 60006 80000 90300=
07222,1996-09-02 06:00:00,10,1026.2,-0.1,82,7,15000,3.704,,,20,9.1,21.1,,,,,,,,,wg-a,,,,AAXX 02064 07222 02/65 10202 10100 20070 30230 40262 56001 60006 81030 90600 333 10211 20091 60004=
07222,1996-09-02 09:00:00,17,1026.6,0.5,55,8,15000,7.408,,,20,,,,,,,,,,,wg-a,,,,AAXX 02094 07222 12/65 00204 10170 20080 30235 40266 51005 60006 80000 90900=
07222,1996-09-02 10:00:00,21,1022.6,-0.7,38,6,11000,12.964,,,50,9.4,22.9,,,,,,,,,wg-a,,,,AAXX 02104 07222 12/61 /0507 10210 20060 30195 40226 56007 60006 91000 333 10229 20094=
07222,1996-09-02 12:00:00,21,1024.9,-1.7,43,8,15000,18.52,,,50,,,,,,,,,,,wg-a,,,,AAXX 02124 07222 12665 /0510 10210 20080 30218 40249 57017 60006 81100 91200=
07222,1996-09-02 15:00:00,22,1023.3,-1.6,35,6,20000,18.52,,,50,,,,,,,,,,,wg-a,,,,AAXX 02154 07222 12770 30510 10220 20060 30202 40233 58016 60006 83100 91500=
07222,1996-09-02 18:00:00,21,1022.6,-0.7,38,6,10000,18.52,,,60,9.4,22.9,,,,,,,,,wg-a,,,,AAXX 02184 07222 12/60 /0610 10210 20060 30195 40226 56007 60006 91800 333 10229 20094=
07222,1996-09-02 21:00:00,16,1023.5,0.9,68,10,20000,7.408,,,10,,,,,,,,,,,wg-a,,,,AAXX 02214 07222 12/70 00104 10160 20100 30204 40235 52009 60006 80000 92100=
07222,1996-09-03 00:00:00,14,1023.4,-0.1,77,10,20000,11.112,,,40,,,,,,,,,,,wg-a,,,,AAXX 03004 07222 12/70 00406 10140 20100 30203 40234 58001 60006 80000 90000=
07222,1996-09-03 03:00:00,11,1022.5,-1,87,9,15000,7.408,,,30,,,,,,,,,,,wg-a,,,,AAXX 03034 07222 12/65 00304 10110 20090 30193 40225 58010 60006 80000 90300=
07222,1996-09-03 06:00:00,11,1021.6,-0.9,87,9,9000,7.408,,,30,10.4,21.3,,,,,,,,,wg-a,,,,AAXX 03064 07222 02/59 00304 10110 20090 30184 40216 56009 60006 80000 90600 333 10213 20104 60004=
07222,1996-09-03 09:00:00,18,1021.1,-0.4,56,9,10000,14.816,,,40,,,,,,,,,,,wg-a,,,,AAXX 03094 07222 12/60 /0408 10180 20090 30180 40211 58004 60006 90900=
07222,1996-09-03 12:00:00,22,1019.3,-1.8,33,5,20000,22.224,,,40,,,,,,,,,,,wg-a,,,,AAXX 03124 07222 12/70 10412 10220 20050 30162 40193 58018 60006 80001 91200=
07222,1996-09-03 15:00:00,23,1017.7,-1.5,33,6,20000,22.224,,,40,,,,,,,,,,,wg-a,,,,AAXX 03154 07222 12770 40412 10230 20060 30147 40177 58015 60006 82530 91500=
07222,1996-09-03 18:00:00,21,1017.7,-0.1,38,6,20000,22.224,,,60,10.8,23.2,,,,,,,,,wg-a,,,,AAXX 03184 07222 12/70 10612 10210 20060 30146 40177 55001 60006 81030 91800 333 10232 20108=
07222,1996-09-03 21:00:00,16,1018.3,0.6,55,7,20000,7.408,,,20,,,,,,,,,,,wg-a,,,,AAXX 03214 07222 12/70 00204 10160 20070 30152 40183 51006 60006 80000 92100=
07222,1996-09-04 00:00:00,17,1018.3,0,55,8,15000,11.112,,,30,,,,,,,,,,,wg-a,,,,AAXX 04004 07222 12/65 60306 10170 20080 30152 40183 50000 60006 86050 90000=
07222,1996-09-04 03:00:00,16,1017.8,-0.5,63,9,15000,11.112,,,30,,,,,,,,,,,wg-a,,,,AAXX 04034 07222 12/65 70306 10160 20090 30147 40178 57005 60006 87030 90300=
07222,1996-09-04 06:00:00,15,1017.7,-0.1,67,9,15000,11.112,,,40,14.1,21.2,,,,,,,,,wg-a,,,,AAXX 04064 07222 02/65 20406 10150 20090 30146 40177 55001 60006 82030 90600 333 10212 20141 60004=
07222,1996-09-04 09:00:00,18,1017.5,-0.2,64,11,15000,14.816,,,60,,,,,,,,,,,wg-a,,,,AAXX 04094 07222 12/65 /0608 10180 20110 30144 40175 58002 60006 90900=
07222,1996-09-04 12:00:00,24,1016.2,-1.2,47,12,20000,22.224,,,50,,,,,,,,,,,wg-a,,,,AAXX 04124 07222 12670 /0512 10240 20120 30132 40162 58012 60006 81100 91200=
07222,1996-09-04 15:00:00,27,1014.8,-1.4,34,10,20000,25.928,,,70,,,,,,,,,,,wg-a,,,,AAXX 04154 07222 12/70 00714 10270 20100 30118 40148 58014 60006 80000 91500=
07222,1996-09-04 18:00:00,26,1014.3,-0.5,37,10,20000,18.52,,,70,14.2,27.3,,,,,,,,,wg-a,,,,AAXX 04184 07222 12/70 00710 10260 20100 30113 40143 56005 60006 80000 91800 333 10273 20142=
07222,1996-09-04 21:00:00,22,1015.7,1.4,43,9,20000,11.112,,,50,,,,,,,,,,,wg-a,,,,AAXX 04214 07222 12/70 00506 10220 20090 30127 40157 52014 60006 80000 92100=
07222,1996-09-05 00:00:00,19,1016.1,0.3,56,10,20000,14.816,,,50,,,,,,,,,,,wg-a,,,,AAXX 05004 07222 12/70 00508 10190 20100 30130 40161 51003 60006 80000 90000=
07222,1996-09-05 03:00:00,17,1016.2,0.1,72,12,20000,18.52,,,60,,,,,,,,,,,wg-a,,,,AAXX 05034 07222 12/70 00610 10170 20120 30131 40162 52001 60006 80000 90300=
07222,1996-09-05 06:00:00,15,1016.8,0.6,88,13,4000,14.816,,,60,15.2,25.6,,,,,,,,10,wg-a,,,,AAXX 05064 07222 02740 10608 10150 20130 30137 40168 53006 60006 71000 81500 90600 333 10256 20152 60004=
07222,1996-09-05 09:00:00,18,1017.6,0.8,73,13,6000,22.224,,,60,,,,,,,,,,,wg-a,,,,AAXX 05094 07222 12/56 00612 10180 20130 30145 40176 53008 60006 80000 90900=
07222,1996-09-05 12:00:00,23,1016.6,-0.9,53,13,10000,14.816,,,40,,,,,,,,,,,wg-a,,,,AAXX 05124 07222 12/60 00408 10230 20130 30136 40166 58009 60006 80000 91200=
07222,1996-09-05 15:00:00,26,1015.4,-1.2,39,11,15000,11.112,,,50,,,,,,,,,,,wg-a,,,,AAXX 05154 07222 12765 10506 10260 20110 30124 40154 58012 60006 81200 91500=
07222,1996-09-05 18:00:00,25,1015.5,0.1,41,11,15000,7.408,,,50,15.1,26.4,,,,,,,,,wg-a,,,,AAXX 05184 07222 12765 30504 10250 20110 30125 40155 53001 60006 83200 91800 333 10264 20151=
07222,1996-09-05 21:00:00,19,1017.1,1.5,60,11,15000,7.408,,,20,,,,,,,,,,,wg-a,,,,AAXX 05214 07222 12/65 00204 10190 20110 30140 40171 51015 60006 80000 92100=
07222,1996-09-06 00:00:00,16,1017.9,0.8,68,10,15000,3.704,,,20,,,,,,,,,,,wg-a,,,,AAXX 06004 07222 12/65 00202 10160 20100 30148 40179 51008 60006 80000 90000=
07222,1996-09-06 03:00:00,15,1018,0.1,67,9,15000,7.408,,,50,,,,,,,,,,,wg-a,,,,AAXX 06034 07222 12/65 00504 10150 20090 30149 40180 50001 60006 80000 90300=
07222,1996-09-06 06:00:00,13,1018.8,0.8,77,9,10000,3.704,,,40,12.7,25,,,,,,,,,wg-a,,,,AAXX 06064 07222 02/60 00402 10130 20090 30157 40188 53008 60006 80000 90600 333 10250 20127 60004=
07222,1996-09-06 09:00:00,20,1019.3,0.5,56,11,10000,7.408,,,60,,,,,,,,,,,wg-a,,,,AAXX 06094 07222 12/60 00604 10200 20110 30162 40193 51005 60006 80000 90900=
07222,1996-09-06 12:00:00,24,1018.7,-0.5,38,9,18000,7.408,,,80,,,,,,,,,,,wg-a,,,,AAXX 06124 07222 12/68 00804 10240 20090 30157 40187 58005 60006 80000 91200=
07222,1996-09-06 15:00:00,26,1017.5,-1.2,32,8,20000,11.112,,,30,,,,,,,,,,,wg-a,,,,AAXX 06154 07222 12/70 00306 10260 20080 30145 40175 58012 60006 80000 91500=
07222,1996-09-06 18:00:00,24,1017.4,-0.1,36,8,20000,7.408,,,350,13.1,26.4,,,,,,,,,wg-a,,,,AAXX 06184 07222 12/70 03504 10240 20080 30144 40174 55001 60006 80000 91800 333 10264 20131=
07222,1996-09-06 21:00:00,18,1018.8,1.3,56,9,20000,3.704,,,10,,,,,,,,,,,wg-a,,,,AAXX 06214 07222 12/70 00102 10180 20090 30157 40188 52013 60006 80000 92100=
07222,1996-09-07 00:00:00,14,1019.4,0.6,72,9,20000,7.408,,,20,,,,,,,,,,,wg-a,,,,AAXX 07004 07222 12/70 00204 10140 20090 30163 40194 51006 60006 80000 90000=
07222,1996-09-07 03:00:00,15,1019.5,0.1,51,5,15000,14.816,,,60,,,,,,,,,,,wg-a,,,,AAXX 07034 07222 12/65 00608 10150 20050 30164 40195 52001 60006 80000 90300=
07222,1996-09-07 06:00:00,13,1020.7,1.1,62,6,15000,7.408,,,50,12.7,24,,,,,,,,,wg-a,,,,AAXX 07064 07222 02/65 00504 10130 20060 30175 40207 53011 60006 80000 90600 333 10240 20127 60004=
07222,1996-09-07 09:00:00,18,1021.7,1.1,49,7,500,18.52,,,70,,,,,,,,,,,wg-a,,,,AAXX 07094 07222 12/00 00710 10180 20070 30186 40217 51011 60006 80000 90900=
07222,1996-09-07 12:00:00,22,1021.2,-0.5,33,5,500,22.224,,,70,,,,,,,,,,,wg-a,,,,AAXX 07124 07222 12/00 00712 10220 20050 30181 40212 58005 60006 80000 91200=
07222,1996-09-07 15:00:00,23,1020.4,-0.7,33,6,500,14.816,,,50,,,,,,,,,,,wg-a,,,,AAXX 07154 07222 12/00 00508 10230 20060 30174 40204 57007 60006 80000 91500=
07222,1996-09-07 18:00:00,22,1020.2,-0.2,38,7,500,11.112,,,50,12.8,24.1,,,,,,,,,wg-a,,,,AAXX 07184 07222 12/00 00506 10220 20070 30172 40202 55002 60006 80000 91800 333 10241 20128=
07222,1996-09-07 21:00:00,19,1021.1,0.8,46,7,15000,11.112,,,60,,,,,,,,,,,wg-a,,,,AAXX 07214 07222 12/65 00606 10190 20070 30180 40211 51008 60006 80000 92100=
07222,1996-09-08 00:00:00,15,1022.1,1,51,5,15000,11.112,,,60,,,,,,,,,,,wg-a,,,,AAXX 08004 07222 12/65 00606 10150 20050 30190 40221 51010 60006 80000 90000=
07222,1996-09-08 03:00:00,12,1021.8,-0.4,58,4,15000,14.816,,,60,,,,,,,,,,,wg-a,,,,AAXX 08034 07222 12/65 00608 10120 20040 30186 40218 58004 60006 80000 90300=
07222,1996-09-08 06:00:00,11,1021.6,-0.2,62,4,20000,18.52,,,60,10.8,22.2,,,,,,,,,wg-a,,,,AAXX 08064 07222 02/70 10610 10110 20040 30184 40216 55002 60006 80001 90600 333 10222 20108 60004=
07222,1996-09-08 09:00:00,16,1022.3,0.8,48,5,500,22.224,,,60,,,,,,,,,,,wg-a,,,,AAXX 08094 07222 12/00 20612 10160 20050 30192 40223 52008 60006 80001 90900=
07222,1996-09-08 12:00:00,20,1021.2,-1.1,35,4,500,18.52,,38.892,50,,,,,,,,,,,wg-a,,,,AAXX 08124 07222 12/00 50510 10200 20040 30181 40212 56011 60006 80001 91200 333 91021=
07222,1996-09-08 15:00:00,20,1020.3,-0.9,32,3,500,25.928,,,60,,,,,,,,,,,wg-a,,,,AAXX 08154 07222 12/00 60614 10200 20030 30172 40203 56009 60006 80002 91500=
07222,1996-09-08 18:00:00,20,1019.9,-0.4,32,3,500,18.52,,,50,10.9,21.5,,,,,,,,,wg-a,,,,AAXX 08184 07222 12/00 10510 10200 20030 30168 40199 55004 60006 80002 91800 333 10215 20109=
07222,1996-09-08 21:00:00,16,1021,1.1,45,4,20000,11.112,,,30,,,,,,,,,,,wg-a,,,,AAXX 08214 07222 12/70 00306 10160 20040 30179 40210 51011 60006 80000 92100=
07222,1996-09-09 00:00:00,14,1021.8,0.8,55,5,20000,14.816,,,30,,,,,,,,,,,wg-a,,,,AAXX 09004 07222 12/70 00308 10140 20050 30187 40218 52008 60006 80000 90000=
07222,1996-09-09 03:00:00,12,1021.7,-0.2,62,5,15000,14.816,,,30,,,,,,,,,,,wg-a,,,,AAXX 09034 07222 12/65 00308 10120 20050 30185 40217 56002 60006 80000 90300=
07222,1996-09-09 06:00:00,11,1022.4,0.7,76,7,15000,11.112,,,30,10.9,19.6,,,,,,,,,wg-a,,,,AAXX 09064 07222 02765 20306 10110 20070 30192 40224 53007 60006 82500 90600 333 10196 20109 60004=
07222,1996-09-09 09:00:00,17,1022.7,0.4,52,7,20000,14.816,,,30,,,,,,,,,,,wg-a,,,,AAXX 09094 07222 12/70 00308 10170 20070 30196 40227 51004 60006 80000 90900=
07222,1996-09-09 12:00:00,20,1021.6,-1.1,37,5,500,25.928,,40.744,60,,,,,,,,,,,wg-a,,,,AAXX 09124 07222 12700 30614 10200 20050 30185 40216 57011 60006 83100 91200 333 91022=
07222,1996-09-09 15:00:00,22,1020.2,-1.4,29,3,500,22.224,,,50,,,,,,,,,,,wg-a,,,,AAXX 09154 07222 12700 20512 10220 20030 30171 40202 57014 60006 82100 91500=
07222,1996-09-09 18:00:00,21,1020,-0.2,33,4,500,18.52,,,50,10.9,22.3,,,,,,,,,wg-a,,,,AAXX 09184 07222 12700 20510 10210 20040 30169 40200 55002 60006 81101 91800 333 10223 20109=
07222,1996-09-09 21:00:00,17,1021.9,1.9,59,9,20000,14.816,,,30,,,,,,,,,,,wg-a,,,,AAXX 09214 07222 12770 10308 10170 20090 30188 40219 53019 60006 81500 92100=
07222,1996-09-10 00:00:00,14,1022.4,0.5,82,11,20000,11.112,,,40,,,,,,,,,,,wg-a,,,,AAXX 10004 07222 12770 10406 10140 20110 30193 40224 51005 60006 81500 90000=
07222,1996-09-10 03:00:00,13,1021.5,-0.9,88,11,20000,11.112,,,30,,,,,,,,,,,wg-a,,,,AAXX 10034 07222 12/70 00306 10130 20110 30184 40215 56009 60006 80000 90300=
07222,1996-09-10 06:00:00,11,1021.6,-0,94,10,15000,7.408,,,20,11.1,20.6,,,,,,,,,wg-a,,,,AAXX 10064 07222 02/65 40204 10110 20100 30184 40216 55000 60006 80001 90600 333 10206 20111 60004=
07222,1996-09-10 09:00:00,15,1022.2,0.7,77,11,25000,18.52,,,50,,,,,,,,,,,wg-a,,,,AAXX 10094 07222 12775 50510 10150 20110 30191 40222 51007 60006 85500 90900=
07222,1996-09-10 12:00:00,20,1020.6,-1.6,49,9,25000,14.816,,,50,,,,,,,,,,,wg-a,,,,AAXX 10124 07222 12675 50508 10200 20090 30175 40206 58016 60006 84201 91200=
07222,1996-09-10 15:00:00,21,1018.8,-1.8,43,8,25000,14.816,,,60,,,,,,,,,,,wg-a,,,,AAXX 10154 07222 12675 30608 10210 20080 30157 40188 57018 60006 83200 91500=
07222,1996-09-10 18:00:00,19,1018.8,-0,52,9,25000,14.816,,,30,11.3,21.9,,,,,,,,,wg-a,,,,AAXX 10184 07222 12775 70308 10190 20090 30157 40188 55000 60006 82531 91800 333 10219 20113=
07222,1996-09-10 21:00:00,15,1020,1.2,72,10,25000,14.816,,,30,,,,,,,,,,,wg-a,,,,AAXX 10214 07222 12/75 20308 10150 20100 30169 40200 51012 60006 80001 92100=
07222,1996-09-11 00:00:00,14,1019.9,-0.1,72,9,20000,14.816,,,30,,,,,,,,,,,wg-a,,,,AAXX 11004 07222 12/70 00308 10140 20090 30168 40199 58001 60006 80000 90000=
07222,1996-09-11 03:00:00,12,1019,-1,82,9,20000,7.408,,,40,,,,,,,,,,,wg-a,,,,AAXX 11034 07222 12770 50404 10120 20090 30158 40190 58010 60006 84530 90300=
07222,1996-09-11 06:00:00,14,1018.3,-0.6,72,9,20000,7.408,,,50,11.7,19.1,,,,,,,,,wg-a,,,,AAXX 11064 07222 02770 70504 10140 20090 30152 40183 56006 60006 875// 90600 333 10191 20117 60004=
07222,1996-09-11 09:00:00,16,1018.2,-0.1,68,10,10000,14.816,,,40,,,,,,,,,,,wg-a,,,,AAXX 11094 07222 12/60 /0408 10160 20100 30151 40182 58001 60006 90900=
07222,1996-09-11 12:00:00,19,1016.7,-1.5,49,8,25000,11.112,,,30,,,,,,,,,,,wg-a,,,,AAXX 11124 07222 12675 /0306 10190 20080 30136 40167 57015 60006 86200 91200=
07222,1996-09-11 15:00:00,21,1015.1,-1.5,35,5,25000,14.816,,,50,,,,,,,,,,,wg-a,,,,AAXX 11154 07222 12775 50508 10210 20050 30121 40151 56015 60006 85801 91500=
07222,1996-09-11 18:00:00,18,1014.7,-0.5,49,7,25000,11.112,,,30,13.8,21.5,,,,,,,,,wg-a,,,,AAXX 11184 07222 12775 50306 10180 20070 30116 40147 56005 60006 855/1 91800 333 10215 20138=
07222,1996-09-11 21:00:00,13,1015.4,0.7,62,6,20000,3.704,,,20,,,,,,,,,,,wg-a,,,,AAXX 11214 07222 12/70 00202 10130 20060 30123 40154 51007 60006 80000 92100=
07222,1996-09-12 00:00:00,12,1014.8,-0.6,82,9,20000,7.408,,,30,,,,,,,,,,,wg-a,,,,AAXX 12004 07222 12/70 00304 10120 20090 30117 40148 56006 60006 80000 90000=
07222,1996-09-12 03:00:00,10,1014,-0.9,87,8,20000,7.408,,,10,,,,,,,,,,,wg-a,,,,AAXX 12034 07222 12/70 00104 10100 20080 30108 40140 58009 60006 80000 90300=
07222,1996-09-12 06:00:00,9,1013.7,-0.3,93,8,10000,7.408,,,20,8.7,17.6,,,,,,,,,wg-a,,,,AAXX 12064 07222 02/60 20204 10090 20080 30105 40137 55003 60006 80001 90600 333 10176 20087 60004=
07222,1996-09-12 12:00:00,20,1012.5,-1.1,46,8,20000,11.112,,,10,,,,,,,,,,,wg-a,,,,AAXX 12124 07222 12670 /0106 10200 20080 30095 40125 58011 60006 86200 91200=
07222,1996-09-12 15:00:00,18,1012.5,-0.1,59,10,20000,18.52,,,330,,,,,,,,,,,wg-a,,,,AAXX 12154 07222 12670 83310 10180 20100 30094 40125 55001 60006 8657/ 91500=
07222,1996-09-12 18:00:00,17,1012.9,,68,11,15000,11.112,,,320,9.5,20.6,,,,,,,,,wg-a,,,,AAXX 12184 07222 12765 73206 10170 20110 30098 40129 60006 875// 91800 333 10206 20095=
07222,1996-09-12 21:00:00,14,1014.7,1.8,77,10,10000,7.408,,,310,,,,,,,,,,,wg-a,,,,AAXX 12214 07222 12/60 03104 10140 20100 30116 40147 53018 60006 80000 92100=
07222,1996-09-13 00:00:00,11,1015.4,0.6,87,9,10000,7.408,,,340,,,,,,,,,,,wg-a,,,,AAXX 13004 07222 12/60 03404 10110 20090 30122 40154 53006 60006 80000 90000=
07222,1996-09-13 03:00:00,9,1015.9,0.5,93,8,10000,3.704,,,320,,,,,,,,,,,wg-a,,,,AAXX 13034 07222 12/60 03202 10090 20080 30127 40159 53005 60006 80000 90300=
07222,1996-09-13 06:00:00,8,1016.9,1,100,8,500,3.704,,,330,7.8,17,,,,,,,,,wg-a,,,,AAXX 13064 07222 02/00 03302 10080 20080 30137 40169 53010 60006 80000 90600 333 10170 20078 60004=
07222,1996-09-13 09:00:00,15,1018.3,1.5,63,8,15000,14.816,,,30,,,,,,,,,,,wg-a,,,,AAXX 13094 07222 12765 10308 10150 20080 30152 40183 53015 60006 81500 90900=
07222,1996-09-13 12:00:00,18,1018.3,0,42,5,20000,14.816,,,360,,,,,,,,,,,wg-a,,,,AAXX 13124 07222 12670 33608 10180 20050 30152 40183 50000 60006 83200 91200=
07222,1996-09-13 15:00:00,20,1017.8,-0.5,35,4,25000,14.816,,,360,,,,,,,,,,,wg-a,,,,AAXX 13154 07222 12775 13608 10200 20040 30147 40178 56005 60006 81100 91500=
07222,1996-09-13 18:00:00,17,1018.8,1,42,4,25000,14.816,,,360,8.1,20,,,,,,,,,wg-a,,,,AAXX 13184 07222 12/75 03608 10170 20040 30157 40188 53010 60006 80000 91800 333 10200 20081=
07222,1996-09-13 21:00:00,13,1020.9,2.1,67,7,25000,11.112,,,20,,,,,,,,,,,wg-a,,,,AAXX 13214 07222 12/75 00206 10130 20070 30178 40209 51021 60006 80000 92100=
07222,1996-09-14 00:00:00,11,1021.9,0.9,71,6,12000,7.408,,,40,,,,,,,,,,,wg-a,,,,AAXX 14004 07222 12/62 00404 10110 20060 30187 40219 51009 60006 80000 90000=
07222,1996-09-14 03:00:00,7,1022.2,0.3,87,5,12000,3.704,,,40,,,,,,,,,,,wg-a,,,,AAXX 14034 07222 12/62 00402 10070 20050 30190 40222 52003 60006 80000 90300=
07222,1996-09-14 06:00:00,7,1023.1,0.9,87,5,12000,3.704,,,10,6.3,17.3,,,,,,,,,wg-a,,,,AAXX 14064 07222 02/62 00102 10070 20050 30199 40231 53009 60006 80000 90600 333 10173 20063 60004=
07222,1996-09-14 09:00:00,14,1024.4,1.3,63,7,15000,11.112,,,70,,,,,,,,,,,wg-a,,,,AAXX 14094 07222 12/65 30706 10140 20070 30212 40244 53013 60006 81031 90900=
07222,1996-09-14 12:00:00,19,1023.6,-0.7,40,5,20000,14.816,,,50,,,,,,,,,,,wg-a,,,,AAXX 14124 07222 12770 20508 10190 20050 30205 40236 58007 60006 82101 91200=
07222,1996-09-14 15:00:00,21,1022.3,-1.3,30,3,25000,14.816,,,60,,,,,,,,,,,wg-a,,,,AAXX 14154 07222 12/75 20608 10210 20030 30192 40223 56013 60006 80001 91500=
07222,1996-09-14 18:00:00,19,1022,-0.3,34,3,25000,11.112,,,50,6.7,20.8,,,,,,,,,wg-a,,,,AAXX 14184 07222 12/75 10506 10190 20030 30189 40220 55003 60006 8/001 91800 333 10208 20067=
07222,1996-09-14 21:00:00,13,1023.1,1,54,4,20000,3.704,,,20,,,,,,,,,,,wg-a,,,,AAXX 14214 07222 12/70 00202 10130 20040 30199 40231 51010 60006 80000 92100=
07222,1996-09-15 00:00:00,9,1023.7,0.6,76,5,20000,7.408,,,20,,,,,,,,,,,wg-a,,,,AAXX 15004 07222 12/70 00204 10090 20050 30205 40237 53006 60006 80000 90000=
07222,1996-09-15 03:00:00,10,1023.3,-0.4,76,6,15000,3.704,,,70,,,,,,,,,,,wg-a,,,,AAXX 15034 07222 12/65 00702 10100 20060 30201 40233 58004 60006 80000 90300=
07222,1996-09-15 06:00:00,9,1023.4,0.1,81,6,15000,7.408,,,70,8.5,18.6,,,,,,,,,wg-a,,,,AAXX 15064 07222 02/65 00704 10090 20060 30202 40234 53001 60006 80000 90600 333 10186 20085 60004=
07222,1996-09-15 09:00:00,16,1023.8,0.5,59,8,20000,11.112,,,70,,,,,,,,,,,wg-a,,,,AAXX 15094 07222 12/70 00706 10160 20080 30207 40238 52005 60006 80000 90900=
07222,1996-09-15 12:00:00,19,1022.6,-1.2,43,6,500,25.928,,,80,,,,,,,,,,,wg-a,,,,AAXX 15124 07222 12/00 00814 10190 20060 30195 40226 58012 60006 80000 91200=
07222,1996-09-15 15:00:00,22,1021.4,-1.2,38,7,500,22.224,,,80,,,,,,,,,,,wg-a,,,,AAXX 15154 07222 12/00 00812 10220 20070 30183 40214 56012 60006 80000 91500=
07222,1996-09-15 18:00:00,20,1020.9,-0.5,40,6,500,14.816,,,80,9.2,22.1,,,,,,,,,wg-a,,,,AAXX 15184 07222 12/00 00808 10200 20060 30178 40209 55005 60006 80000 91800 333 10221 20092=
07222,1996-09-15 21:00:00,16,1021.5,0.6,51,6,20000,14.816,,,70,,,,,,,,,,,wg-a,,,,AAXX 15214 07222 12/70 00708 10160 20060 30184 40215 52006 60006 80000 92100=
07222,1996-09-16 00:00:00,14,1021.6,0.1,63,7,20000,11.112,,,80,,,,,,,,,,,wg-a,,,,AAXX 16004 07222 12/70 00806 10140 20070 30185 40216 51001 60006 80000 90000=
07222,1996-09-16 03:00:00,12,1020.6,-1.1,71,7,20000,14.816,,,70,,,,,,,,,,,wg-a,,,,AAXX 16034 07222 12/70 00708 10120 20070 30174 40206 56011 60006 80000 90300=
07222,1996-09-16 06:00:00,10,1019.9,-0.7,82,7,12000,18.52,,,60,10.1,20.2,,,,,,,,,wg-a,,,,AAXX 16064 07222 02/62 00610 10100 20070 30167 40199 58007 60006 80000 90600 333 10202 20101 60004=
07222,1996-09-16 09:00:00,16,1018.6,-1.2,55,7,20000,29.632,,,90,,,,,,,,,,,wg-a,,,,AAXX 16094 07222 12/70 00916 10160 20070 30155 40186 56012 60006 80000 90900=
07222,1996-09-16 12:00:00,21,1017.1,-1.5,35,5,500,29.632,,,80,,,,,,,,,,,wg-a,,,,AAXX 16124 07222 12/00 00816 10210 20050 30140 40171 58015 60006 80000 91200=
07222,1996-09-16 15:00:00,23,1014.5,-2.5,31,5,500,25.928,,,90,,,,,,,,,,,wg-a,,,,AAXX 16154 07222 12/00 00914 10230 20050 30115 40145 58025 60006 80000 91500=
07222,1996-09-16 18:00:00,21,1013.1,-1.4,35,5,500,18.52,,,80,10,23.5,,,,,,,,,wg-a,,,,AAXX 16184 07222 12/00 10810 10210 20050 30101 40131 56014 60006 80001 91800 333 10235 20100=
07222,1996-09-16 21:00:00,16,1013,-0.2,48,5,25000,14.816,,,70,,,,,,,,,,,wg-a,,,,AAXX 16214 07222 12/75 20708 10160 20050 30099 40130 58002 60006 80001 92100=
07222,1996-09-17 00:00:00,15,1011.3,-1.7,51,5,25000,14.816,,,60,,,,,,,,,,,wg-a,,,,AAXX 17004 07222 12/75 30608 10150 20050 30082 40113 56017 60006 80001 90000=
07222,1996-09-17 03:00:00,13,1010.1,-1.2,58,5,20000,11.112,,,60,,,,,,,,,,,wg-a,,,,AAXX 17034 07222 12/70 60606 10130 20050 30070 40101 58012 60006 80001 90300=
07222,1996-09-17 06:00:00,11,1009.6,-0.5,71,6,20000,11.112,,,50,11.2,20.8,,,,,,,,,wg-a,,,,AAXX 17064 07222 02/70 50506 10110 20060 30065 40096 58005 60006 80001 90600 333 10208 20112 60004=
07222,1996-09-17 09:00:00,14,1010,0.4,58,6,20000,14.816,,,60,,,,,,,,,,,wg-a,,,,AAXX 17094 07222 12/70 50608 10140 20060 30069 40100 51004 60006 80001 90900=
07222,1996-09-17 12:00:00,20,1009,-0.9,43,7,25000,14.816,,,60,,,,,,,,,,,wg-a,,,,AAXX 17124 07222 12/75 30608 10200 20070 30060 40090 56009 60006 80001 91200=
07222,1996-09-17 15:00:00,23,1008.2,-0.8,38,8,25000,11.112,,,100,,,,,,,,,,,wg-a,,,,AAXX 17154 07222 12/75 51006 10230 20080 30052 40082 56008 60006 80002 91500=
07222,1996-09-17 18:00:00,22,1008.4,0.2,41,8,25000,7.408,,,60,10.8,23.6,,,,,,,,,wg-a,,,,AAXX 17184 07222 12/75 00604 10220 20080 30054 40084 53002 60006 80000 91800 333 10236 20108=
07222,1996-09-18 00:00:00,13,1008,-0.7,77,9,25000,7.408,,,90,,,,,,,,,,,wg-a,,,,AAXX 18004 07222 12/75 00904 10130 20090 30049 40080 56007 60006 80000 90000=
07222,1996-09-18 03:00:00,10,1007.6,-0.4,87,8,20000,3.704,,,160,,,,,,,,,,,wg-a,,,,AAXX 18034 07222 12/70 01602 10100 20080 30045 40076 55004 60006 80000 90300=
07222,1996-09-18 06:00:00,10,1006.2,-1.4,82,7,12000,14.816,,,70,9.7,22.1,,,,,,,,,wg-a,,,,AAXX 18064 07222 02/62 40708 10100 20070 30031 40062 56014 60006 80001 90600 333 10221 20097 60004=
07222,1996-09-18 09:00:00,15,1006.1,-0.1,72,10,15000,14.816,,,140,,,,,,,,,,,wg-a,,,,AAXX 18094 07222 12465 /1408 10150 20100 30030 40061 55001 60006 82532 90900=
07222,1996-09-18 12:00:00,19,1004.6,-1.4,68,13,11000,18.52,,,120,,,,,,,,,,,wg-a,,,,AAXX 18124 07222 12/61 /1210 10190 20130 30016 40046 57014 60006 91200=
07222,1996-09-18 15:00:00,18,1002.9,-1.7,73,13,9000,18.52,,,80,,,,,,,,,,,wg-a,,,,AAXX 18154 07222 12659 80810 10180 20130 39999 40029 56017 60006 8487/ 91500=
07222,1996-09-18 18:00:00,15,1003,-0,94,14,500,7.408,,,80,10.2,19,,2,,,,,,61,wg-a,,,,AAXX 18184 07222 12500 80804 10150 20140 39999 40030 55000 60027 76162 8352/ 91800 333 10190 20102=
07222,1996-09-18 21:00:00,13,1003.4,0.4,94,12,6000,22.224,,,60,,,,3,,,,,,61,wg-a,,,,AAXX 18214 07222 12556 80612 10130 20120 30003 40034 51004 60037 76166 875// 92100=
07222,1996-09-19 00:00:00,11,1003.4,-0,94,10,6000,14.816,,,40,,,,3,,,,,,61,wg-a,,,,AAXX 19004 07222 02556 80408 10110 20100 30003 40034 54000 60066 76166 875// 90000 333 60037=
07222,1996-09-19 03:00:00,11,1002.7,-0.7,87,9,8000,11.112,,,30,,,,3,,,,,,21,wg-a,,,,AAXX 19034 07222 12558 80306 10110 20090 39996 40027 58007 60037 72162 875// 90300=
07222,1996-09-19 06:00:00,10,1003.4,0.7,87,8,6000,14.816,,,30,9.7,15,,0,,,12,,,60,wg-a,,,,AAXX 19064 07222 02456 80308 10100 20080 30003 40034 53007 60124 76062 875// 90600 333 10150 20097 60007=
07222,1996-09-19 09:00:00,10,1003.7,0.3,93,9,8000,7.408,,,350,,,,0,,,,,,3,wg-a,,,,AAXX 19094 07222 12458 83504 10100 20090 30006 40037 51003 60007 70362 875// 90900=
07222,1996-09-19 12:00:00,12,1003.9,0.2,76,8,10000,14.816,,,350,,,,,,,,,,1,wg-a,,,,AAXX 19124 07222 12560 83508 10120 20080 30008 40039 51002 60016 70162 875// 91200=
07222,1996-09-19 15:00:00,13,1003.3,-0.6,77,9,6000,3.704,,,320,,,,,,,,,,25,wg-a,,,,AAXX 19154 07222 02556 73202 10130 20090 30002 40033 58006 61000 72586 878// 91500 333 ////=
07222,1996-09-19 18:00:00,12,1004,0.7,88,10,6000,7.408,,,160,9.5,14,,,,,,,,1,wg-a,,,,AAXX 19184 07222 32756 71604 10120 20100 30009 40040 53007 70186 8387/ 91800 333 10140 20095=
07222,1996-09-19 21:00:00,12,1004.5,0.5,88,10,6000,7.408,,,240,,,,,,,,,,,wg-a,,,,AAXX 19214 07222 12556 82404 10120 20100 30014 40045 52005 60006 875// 92100=
07222,1996-09-20 00:00:00,12,1003.9,-0.6,88,10,10000,14.816,,,270,,,,,,,,,,,wg-a,,,,AAXX 20004 07222 12660 82708 10120 20100 30008 40039 57006 60006 875// 90000=
07222,1996-09-20 03:00:00,12,1003.2,-0.7,88,10,6000,14.816,,,270,,,,,,,,,,,wg-a,,,,AAXX 20034 07222 12/56 22708 10120 20100 30001 40032 58007 60006 82040 90300=
07222,1996-09-20 06:00:00,9,1003,-0.2,100,9,500,3.704,,,340,9.1,12.8,,0,,,1,,,11,wg-a,,,,AAXX 20064 07222 02/00 33402 10090 20090 39999 40030 56002 60014 71111 83040 90600 333 10128 20091 60007=
07222,1996-09-20 09:00:00,14,1003.5,0.5,82,11,7000,7.408,,,240,,,,,,,,,,,wg-a,,,,AAXX 20094 07222 12/57 /2404 10140 20110 30004 40035 52005 60006 80001 90900=
07222,1996-09-20 12:00:00,18,1002.8,-0.6,52,8,15000,11.112,,,230,,,,,,,,,,,wg-a,,,,AAXX 20124 07222 12665 /2306 10180 20080 39998 40028 58006 60006 81201 91200=
07222,1996-09-20 15:00:00,19,1002.3,-0.5,43,6,15000,7.408,,,220,,,,,,,,,,,wg-a,,,,AAXX 20154 07222 12765 52204 10190 20060 39993 40023 58005 60006 81101 91500=
07222,1996-09-20 18:00:00,17,1002.2,-0.2,52,7,15000,7.408,,,100,8.3,19.2,,,,,,,,,wg-a,,,,AAXX 20184 07222 12765 11004 10170 20070 39991 40022 56002 60006 81100 91800 333 10192 20083=
07222,1996-09-20 21:00:00,13,1002.3,0.1,88,11,10000,18.52,,,70,,,,,,,,,,,wg-a,,,,AAXX 20214 07222 12660 60710 10130 20110 39992 40023 50001 60006 83530 92100=
07222,1996-09-21 00:00:00,11,1001.5,-0.8,94,10,8000,11.112,,,70,,,,,,,,,,,wg-a,,,,AAXX 21004 07222 12658 50706 10110 20100 39984 40015 58008 60006 82530 90000=
07222,1996-09-21 03:00:00,11,1000.4,-1.1,94,10,500,11.112,,,50,,,,,,,,,,,wg-a,,,,AAXX 21034 07222 12600 30506 10110 20100 39973 40004 58011 60006 81530 90300=
07222,1996-09-21 06:00:00,10,1000.8,0.4,93,9,3500,18.52,,,50,10.1,16.5,,,,,,,,10,wg-a,,,,AAXX 21064 07222 02735 60510 10100 20090 39977 40008 53004 60006 71011 84501 90600 333 10165 20101 60004=
07222,1996-09-21 09:00:00,12,1002,1.2,82,9,7000,22.224,,,50,,,,,,,,,,,wg-a,,,,AAXX 21094 07222 12757 /0512 10120 20090 39989 40020 53012 60006 82501 90900=
07222,1996-09-21 12:00:00,19,1001.9,0,49,8,15000,29.632,,,70,,,,,,,,,,,wg-a,,,,AAXX 21124 07222 12665 /0716 10190 20080 39989 40019 50000 60006 81101 91200=
07222,1996-09-21 15:00:00,20,1002.4,0.5,40,6,15000,18.52,,,50,,,,,,,,,,,wg-a,,,,AAXX 21154 07222 12765 50510 10200 20060 39994 40024 53005 60006 83101 91500=
07222,1996-09-21 18:00:00,17,1004.3,1.8,55,8,15000,14.816,,,30,9.9,19.9,,,,,,,,,wg-a,,,,AAXX 21184 07222 12/65 60308 10170 20080 30012 40043 53018 60006 80001 91800 333 10199 20099=
07222,1996-09-21 21:00:00,13,1006.6,2.3,77,9,10000,7.408,,,30,,,,,,,,,,,wg-a,,,,AAXX 21214 07222 12/60 /0304 10130 20090 30035 40066 51023 60006 92100=
07222,1996-09-22 00:00:00,11,1007.6,1,87,9,10000,11.112,,,10,,,,,,,,,,,wg-a,,,,AAXX 22004 07222 12/60 20106 10110 20090 30045 40076 51010 60006 80001 90000=
07222,1996-09-22 03:00:00,11,1008.6,1,94,10,8000,7.408,,,360,,,,,,,,,,,wg-a,,,,AAXX 22034 07222 12758 73604 10110 20100 30055 40086 51010 60006 8453/ 90300=
07222,1996-09-22 06:00:00,11,1009.4,0.8,94,10,500,7.408,,,330,10.4,17,,,,,,,,,wg-a,,,,AAXX 22064 07222 02700 73304 10110 20100 30063 40094 53008 60006 875// 90600 333 10170 20104 60004=
07222,1996-09-22 09:00:00,13,1010.6,1.2,82,10,10000,11.112,,,340,,,,,,,,,,,wg-a,,,,AAXX 22094 07222 12760 73406 10130 20100 30075 40106 51012 60006 875// 90900=
07222,1996-09-22 12:00:00,17,1010.7,0.1,52,7,15000,14.816,,,30,,,,,,,,,,,wg-a,,,,AAXX 22124 07222 12665 /0308 10170 20070 30076 40107 50001 60006 83230 91200=
07222,1996-09-22 15:00:00,17,1010.9,0.2,48,6,20000,14.816,,,350,,,,,,,,,,,wg-a,,,,AAXX 22154 07222 12770 73508 10170 20060 30078 40109 53002 60006 875// 91500=
07222,1996-09-22 18:00:00,15,1011.3,0.4,63,8,20000,11.112,,,300,11.3,17.6,,,,,,,,,wg-a,,,,AAXX 22184 07222 12670 73006 10150 20080 30082 40113 53004 60006 878// 91800 333 10176 20113=
07222,1996-09-22 21:00:00,13,1012.3,1,77,9,15000,7.408,,,340,,,,,,,,,,,wg-a,,,,AAXX 22214 07222 12765 73404 10130 20090 30092 40123 51010 60006 875// 92100=
07222,1996-09-23 00:00:00,12,1011.9,-0.4,82,9,10000,7.408,,,340,,,,,,,,,,,wg-a,,,,AAXX 23004 07222 12760 73404 10120 20090 30088 40119 57004 60006 875// 90000=
07222,1996-09-23 03:00:00,10,1011.4,-0.6,87,8,8000,3.704,,,350,,,,,,,,,,,wg-a,,,,AAXX 23034 07222 12758 /3502 10100 20080 30082 40114 58006 60006 86500 90300=
07222,1996-09-23 06:00:00,8,1011.5,0.1,93,7,3500,0,,,0,7.6,14.5,,,,,,,,11,wg-a,,,,AAXX 23064 07222 02735 20000 10080 20070 30083 40115 53001 60006 71111 82500 90600 333 10145 20076 60004=
07222,1996-09-23 09:00:00,13,1012,0.6,82,10,500,0,,,0,,,,,,,,,,,wg-a,,,,AAXX 23094 07222 12/00 /0000 10130 20100 30089 40120 53006 60006 85031 90900=
07222,1996-09-23 12:00:00,17,1011.1,-0.9,55,8,12000,11.112,,,180,,,,,,,,,,,wg-a,,,,AAXX 23124 07222 12662 /1806 10170 20080 30080 40111 58009 60006 82201 91200=
07222,1996-09-23 15:00:00,18,1010.6,-0.5,49,7,15000,11.112,,,230,,,,,,,,,,,wg-a,,,,AAXX 23154 07222 12665 /2306 10180 20070 30075 40106 56005 60006 8287/ 91500=
07222,1996-09-23 18:00:00,15,1011.5,0.9,59,7,15000,11.112,,,260,7.1,18.6,,,,,,,,,wg-a,,,,AAXX 23184 07222 12765 62606 10150 20070 30084 40115 53009 60006 82530 91800 333 10186 20071=
07222,1996-09-23 21:00:00,11,1012.4,0.9,87,9,15000,0,,,0,,,,,,,,,,,wg-a,,,,AAXX 23214 07222 12765 40000 10110 20090 30093 40124 51009 60006 81530 92100=
07222,1996-09-24 00:00:00,11,1012.3,-0.1,87,9,10000,7.408,,,90,,,,,,,,,,,wg-a,,,,AAXX 24004 07222 12660 40904 10110 20090 30092 40123 56001 60006 84530 90000=
07222,1996-09-24 03:00:00,8,1012.1,-0.3,93,7,10000,3.704,,,170,,,,,,,,,,,wg-a,,,,AAXX 24034 07222 12/60 21702 10080 20070 30089 40121 58003 60006 82030 90300=
07222,1996-09-24 06:00:00,7,1012.8,0.7,100,7,4000,0,,,0,6.8,15.3,,,,,,,,11,wg-a,,,,AAXX 24064 07222 02/40 30000 10070 20070 30096 40128 53007 60006 71100 80001 90600 333 10153 20068 60004=
07222,1996-09-24 09:00:00,15,1013.3,0.6,67,9,10000,3.704,,,140,,,,,,,,,,,wg-a,,,,AAXX 24094 07222 12/60 31402 10150 20090 30102 40133 51006 60006 80001 90900=
07222,1996-09-24 12:00:00,19,1012.7,-0.6,52,9,12000,11.112,,,220,,,,,,,,,,,wg-a,,,,AAXX 24124 07222 12662 32206 10190 20090 30096 40127 58006 60006 82101 91200=
07222,1996-09-24 15:00:00,19,1011.5,-1.1,60,11,12000,22.224,,,270,,,,,,,,,,,wg-a,,,,AAXX 24154 07222 12762 42712 10190 20110 30085 40115 56011 60006 81131 91500=
07222,1996-09-24 18:00:00,16,1011.6,-0,82,13,12000,14.816,,,260,6.9,21,,,,,,,,,wg-a,,,,AAXX 24184 07222 12762 /2608 10160 20130 30085 40116 55000 60006 82571 91800 333 10210 20069=
07222,1996-09-24 21:00:00,14,1010.9,-0.7,88,12,10000,7.408,,,250,,,,,,,,,,,wg-a,,,,AAXX 24214 07222 12660 82504 10140 20120 30078 40109 58007 60006 8557/ 92100=
07222,1996-09-25 00:00:00,14,1009.6,-1.3,94,13,12000,11.112,,,200,,,,,,,,,,,wg-a,,,,AAXX 25004 07222 12462 82006 10140 20130 30065 40096 58013 60006 8557/ 90000=
07222,1996-09-25 03:00:00,13,1008.6,-1,100,13,8000,7.408,,,180,,,,3,,,,,,61,wg-a,,,,AAXX 25034 07222 12258 81804 10130 20130 30055 40086 56010 60037 76162 8557/ 90300=
07222,1996-09-25 06:00:00,13,1007.7,-0.9,100,13,10000,11.112,,,180,12.5,16.3,,2,,,5,,,21,wg-a,,,,AAXX 25064 07222 02460 51806 10130 20130 30046 40077 56009 60054 72162 85800 90600 333 10163 20125 60027=
07222,1996-09-25 09:00:00,15,1008.1,0.4,94,14,15000,11.112,,,160,,,,,,,,,,,wg-a,,,,AAXX 25094 07222 12365 /1606 10150 20140 30050 40081 50004 60006 82731 90900=
07222,1996-09-25 12:00:00,20,1009.5,1.5,60,12,11000,11.112,,,300,,,,,,,,,,,wg-a,,,,AAXX 25124 07222 12/61 /3006 10200 20120 30065 40095 51015 60006 91200=
07222,1996-09-25 15:00:00,19,1011.1,1.5,68,13,20000,7.408,,,50,,,,,,,,,,25,wg-a,,,,AAXX 25154 07222 02670 /0504 10190 20130 30080 40111 53015 61000 72586 85230 91500 333 ////=
07222,1996-09-25 18:00:00,17,1014,2.9,77,13,20000,18.52,,,280,12.4,20.5,,,,,,,,1,wg-a,,,,AAXX 25184 07222 02670 22810 10170 20130 30109 40140 53029 61000 70186 81101 91800 333 10205 20124 ////=
07222,1996-09-25 21:00:00,13,1016.1,2.1,94,12,15000,3.704,,,230,,,,,,,,,,,wg-a,,,,AAXX 25214 07222 12/65 42302 10130 20120 30130 40161 51021 60006 80002 92100=
07222,1996-09-26 00:00:00,11,1017.7,1.5,100,11,10000,7.408,,,260,,,,,,,,,,,wg-a,,,,AAXX 26004 07222 12/60 62604 10110 20110 30145 40177 53015 60006 84052 90000=
07222,1996-09-26 03:00:00,11,1018.2,0.5,94,10,10000,3.704,,,320,,,,0,,,,,,,wg-a,,,,AAXX 26034 07222 12/60 13202 10110 20100 30150 40182 51005 60007 81030 90300=
07222,1996-09-26 06:00:00,8,1018.5,0.3,100,8,400,7.408,,,170,7.9,16.7,,,,,,,,41,wg-a,,,,AAXX 26064 07222 12/04 /1704 10080 20080 30153 40185 52003 60004 74141 81030 90600 333 10167 20079=
07222,1996-09-26 09:00:00,15,1018.7,0.3,94,14,20000,18.52,,,190,,,,,,,,,,28,wg-a,,,,AAXX 26094 07222 12370 51910 10150 20140 30156 40187 50003 60006 72841 82101 90900=
07222,1996-09-26 12:00:00,18,1018,-0.7,73,13,20000,22.224,,,210,,,,,,,,,,3,wg-a,,,,AAXX 26124 07222 12570 72112 10180 20130 30149 40180 58007 60006 70341 86801 91200=
07222,1996-09-26 15:00:00,16,1016.7,-1.3,94,15,15000,22.224,,,200,,,,1,,,,,,61,wg-a,,,,AAXX 26154 07222 12465 82012 10160 20150 30136 40167 56013 60017 76162 878// 91500=
07222,1996-09-26 18:00:00,14,1015.4,-1.3,94,13,8000,25.928,,,180,8,19.6,,6,,,,,,61,wg-a,,,,AAXX 26184 07222 12258 81814 10140 20130 30123 40154 58013 60067 76162 888// 91800 333 10196 20080=
07222,1996-09-26 21:00:00,15,1014.6,-0.8,100,15,8000,35.188,,,200,,,,2,,,,,,60,wg-a,,,,AAXX 26214 07222 12258 82019 10150 20150 30115 40146 56008 60027 76066 877// 92100=
07222,1996-09-27 00:00:00,17,1014.6,-0,94,16,12000,22.224,,,270,,,,1,,,,,,21,wg-a,,,,AAXX 27004 07222 02362 82712 10170 20160 30115 40146 55000 60036 72165 875// 90000 333 60017=
07222,1996-09-27 03:00:00,16,1015.2,0.6,94,15,12000,11.112,,,240,,,,,,,,,,,wg-a,,,,AAXX 27034 07222 12362 72406 10160 20150 30121 40152 51006 60006 876// 90300=
07222,1996-09-27 06:00:00,14,1015.8,0.6,100,14,8000,7.408,,,230,13.6,16.9,,,,,10,,,,wg-a,,,,AAXX 27064 07222 12458 62304 10140 20140 30127 40158 52006 60104 86800 90600 333 10169 20136=
07222,1996-09-27 09:00:00,18,1017,1.2,83,15,15000,22.224,,,260,,,,,,,,,,,wg-a,,,,AAXX 27094 07222 12465 /2612 10180 20150 30139 40170 51012 60006 85801 90900=
07222,1996-09-27 12:00:00,19,1018.1,1.1,73,14,500,29.632,,,270,,,,1,,,,,,3,wg-a,,,,AAXX 27124 07222 02500 32716 10190 20140 30150 40181 51011 60016 70386 83200 91200 333 60017=
07222,1996-09-27 15:00:00,19,1019.5,1.4,68,13,500,29.632,,,280,,,,,,,,,,,wg-a,,,,AAXX 27154 07222 12500 22816 10190 20130 30164 40195 51014 60006 82200 91500=
07222,1996-09-27 18:00:00,16,1021.7,2.2,77,12,500,18.52,,,270,13.8,19.8,,,,,,,,,wg-a,,,,AAXX 27184 07222 32/00 12710 10160 20120 30186 40217 53022 80001 91800 333 10198 20138=
07222,1996-09-27 20:00:00,16,1021.7,2.2,77,12,500,18.52,,,270,13.8,19.8,,,,,,,,,wg-a,,,,AAXX 27204 07222 32/00 12710 10160 20120 30186 40217 53022 80001 92000 333 10198 20138=
07222,1996-09-27 21:00:00,13,1024.5,2.7,94,12,20000,14.816,,,290,,,,,,,,,,,wg-a,,,,AAXX 27214 07222 12/70 02908 10130 20120 30213 40245 52027 60006 80000 92100=
07222,1996-09-28 00:00:00,11,1025.4,0.9,94,10,15000,3.704,,,210,,,,,,,,,,,wg-a,,,,AAXX 28004 07222 12/65 22102 10110 20100 30222 40254 51009 60006 80001 90000=
07222,1996-09-28 03:00:00,10,1025.7,0.3,100,10,12000,3.704,,,250,,,,0,,,,,,,wg-a,,,,AAXX 28034 07222 12462 22502 10100 20100 30225 40257 51003 60007 81501 90300=
07222,1996-09-28 12:00:00,19,1027.1,-0.4,64,12,20000,7.408,,,210,,,,,,,,,,1,wg-a,,,,AAXX 28124 07222 12670 62104 10190 20120 30240 40271 58004 60006 70141 84201 91200=
07222,1996-09-28 15:00:00,20,1026.1,-1,53,10,20000,11.112,,,250,,,,,,,,,,,wg-a,,,,AAXX 28154 07222 12670 /2506 10200 20100 30230 40261 56010 60006 82202 91500=
07222,1996-09-28 18:00:00,15,1026.1,-0,82,12,20000,11.112,,,230,7.7,19.9,,,,,,,,,wg-a,,,,AAXX 28184 07222 12/70 42306 10150 20120 30230 40261 55000 60006 81031 91800 333 10199 20077=
07222,1996-09-28 21:00:00,13,1026.5,0.3,94,12,20000,7.408,,,180,,,,,,,,,,,wg-a,,,,AAXX 28214 07222 12/70 31804 10130 20120 30233 40265 51003 60006 80001 92100=
07222,1996-09-29 00:00:00,11,1025.2,-1.3,100,11,20000,11.112,,,180,,,,0,,,,,,,wg-a,,,,AAXX 29004 07222 02/70 51806 10110 20110 30220 40252 56013 60006 80001 90000 333 60007=
07222,1996-09-29 03:00:00,10,1024.3,-0.9,100,10,600,7.408,,,140,,,,,,,,,,44,wg-a,,,,AAXX 29034 07222 12006 41404 10100 20100 30211 40243 58009 60006 74441 82601 90300=
07222,1996-09-29 06:00:00,10,1024.6,0.3,100,10,7000,7.408,,,170,9.7,14.7,,0,,,,,,3,wg-a,,,,AAXX 29064 07222 02157 21704 10100 20100 30214 40246 53003 60004 70341 81601 90600 333 10147 20097 60007=
07222,1996-09-29 09:00:00,17,1024.9,0.4,88,15,15000,18.52,,,210,,,,,,,,,,,wg-a,,,,AAXX 29094 07222 12465 /2110 10170 20150 30218 40249 51004 60006 81800 90900=
07222,1996-09-29 12:00:00,20,1024.7,-0.2,68,14,500,22.224,,,230,,,,,,,,,,,wg-a,,,,AAXX 29124 07222 12500 22312 10200 20140 30216 40247 58002 60006 82200 91200=
07222,1996-09-29 15:00:00,20,1023.2,-1.5,64,13,500,18.52,,,240,,,,,,,,,,,wg-a,,,,AAXX 29154 07222 12500 22410 10200 20130 30201 40232 58015 60006 82800 91500=
07222,1996-09-29 18:00:00,17,1022.9,-0.3,82,14,20000,14.816,,,230,10.1,21.3,,,,,,,,,wg-a,,,,AAXX 29184 07222 12470 72308 10170 20140 30198 40229 56003 60006 878// 91800 333 10213 20101=
07222,1996-09-29 21:00:00,15,1022.3,-0.6,94,14,18000,14.816,,,210,,,,,,,,,,,wg-a,,,,AAXX 29214 07222 12468 72108 10150 20140 30192 40223 58006 60006 875// 92100=
07222,1996-09-30 00:00:00,16,1020.9,-1.4,94,15,6000,11.112,,,220,,,,,,,,,,,wg-a,,,,AAXX 30004 07222 12356 82206 10160 20150 30178 40209 57014 60006 886// 90000=
07222,1996-09-30 03:00:00,16,1019.2,-1.7,100,16,4000,14.816,,,210,,,,0,,,,,,10,wg-a,,,,AAXX 30034 07222 12140 82108 10160 20160 30161 40192 58017 60007 71052 887// 90300=
07222,1996-09-30 06:00:00,16,1017.5,-1.7,100,16,4000,14.816,,,190,14.8,17.2,,0,,,1,,,20,wg-a,,,,AAXX 30064 07222 02240 81908 10160 20160 30144 40175 56017 60014 72052 877// 90600 333 10172 20148 60007=
07222,1996-09-30 09:00:00,17,1016,-1.5,94,16,12000,18.52,,,190,,,,,,,,,,,wg-a,,,,AAXX 30094 07222 12362 71910 10170 20160 30129 40160 58015 60006 875// 90900=
07222,1996-09-30 12:00:00,17,1013,-3,88,15,15000,22.224,,,180,,,,,,,,,,,wg-a,,,,AAXX 30124 07222 12465 71812 10170 20150 30099 40130 56030 60006 875// 91200=
07222,1996-09-30 15:00:00,17,1010,-3,88,15,15000,22.224,,,200,,,,,,,,,,,wg-a,,,,AAXX 30154 07222 12465 72012 10170 20150 30069 40100 56030 60006 875// 91500=
07222,1996-09-30 18:00:00,16,1008.1,-1.9,88,14,15000,14.816,,,210,15.5,17.7,,,,,,,,,wg-a,,,,AAXX 30184 07222 12465 72108 10160 20140 30050 40081 56019 60006 875// 91800 333 10177 20155=
07222,1996-09-30 21:00:00,16,1006.9,-1.2,94,15,10000,18.52,,,180,,,,0,,,,,,61,wg-a,,,,AAXX 30214 07222 12460 71810 10160 20150 30038 40069 58012 60007 76162 877// 92100=
07222,1996-10-01 00:00:00,13,1006,-0.9,100,13,8000,14.816,,,330,,,,2,,,,,,61,wg-a,,,,AAXX 01004 07222 02358 73308 10130 20130 30029 40060 56009 60026 76162 877// 90000 333 60027=
07222,1996-10-01 03:00:00,12,1006.4,0.4,94,11,10000,11.112,,,340,,,,1,,,,,,61,wg-a,,,,AAXX 01034 07222 12460 73406 10120 20110 30033 40064 53004 60017 76166 877// 90300=
07222,1996-10-01 06:00:00,11,1008,1.6,94,10,15000,14.816,,,340,11,16.4,,1,,,5,,,61,wg-a,,,,AAXX 01064 07222 02365 73408 10110 20100 30049 40080 53016 60054 76166 877// 90600 333 10164 20110 60017=
07222,1996-10-01 09:00:00,13,1010.8,2.8,88,11,500,14.816,,,320,,,,,,,,,,1,wg-a,,,,AAXX 01094 07222 02400 23208 10130 20110 30077 40108 52028 61000 70161 8113/ 90900 333 ////=
07222,1996-10-01 12:00:00,14,1013.2,2.4,88,12,20000,14.816,,,320,,,,1,,,,,,25,wg-a,,,,AAXX 01124 07222 02570 73208 10140 20120 30101 40132 52024 60016 72586 8684/ 91200 333 60017=
07222,1996-10-01 15:00:00,13,1014.2,1,88,11,20000,14.816,,,260,,,,1,,,,,,25,wg-a,,,,AAXX 01154 07222 12570 /2608 10130 20110 30111 40142 53010 60017 72586 86800 91500=
07222,1996-10-01 18:00:00,14,1015.6,1.4,77,10,20000,18.52,,,270,10.8,17.6,,,,,,,,1,wg-a,,,,AAXX 01184 07222 32670 /2710 10140 20100 30125 40156 53014 70186 81800 91800 333 10176 20108=
07222,1996-10-02 00:00:00,11,1014.5,-1.7,94,10,11000,7.408,,,180,,,,,,,,,,,wg-a,,,,AAXX 02004 07222 02/61 /1804 10110 20100 30114 40145 58017 61000 90000 333 ////=
07222,1996-10-02 03:00:00,12,1011.3,-3.2,94,11,12000,11.112,,,180,,,,8,,,,,,21,wg-a,,,,AAXX 02034 07222 12462 /1806 10120 20110 30082 40113 57032 60087 72162 85500 90300=
07222,1996-10-02 06:00:00,11,1012.1,0.8,100,11,12000,18.52,,,300,10.4,13.7,,0,,,11,,,2,wg-a,,,,AAXX 02064 07222 02762 53010 10110 20110 30090 40121 52008 60114 70262 85500 90600 333 10137 20104 60007=
07222,1996-10-02 12:00:00,16,1018.3,3.2,68,10,25000,11.112,,,20,,,,,,,,,,,wg-a,,,,AAXX 02124 07222 12475 50206 10160 20100 30152 40183 51032 60006 85800 91200=
07222,1996-10-02 18:00:00,15,1023.3,2.3,67,9,25000,3.704,,,300,10.7,18,,,,,,,,,wg-a,,,,AAXX 02184 07222 12/75 03002 10150 20090 30202 40233 53023 60006 80000 91800 333 10180 20107=
07222,1996-10-02 21:00:00,11,1026.1,2.7,87,9,15000,7.408,,,350,,,,,,,,,,,wg-a,,,,AAXX 02214 07222 12/65 03504 10110 20090 30229 40261 52027 60006 80000 92100=
07222,1996-10-03 00:00:00,10,1027.2,1.1,93,9,15000,3.704,,,360,,,,,,,,,,,wg-a,,,,AAXX 03004 07222 12/65 03602 10100 20090 30240 40272 50011 60006 80000 90000=
07222,1996-10-03 03:00:00,7,1027.2,0,100,7,9000,3.704,,,190,,,,,,,,,,11,wg-a,,,,AAXX 03034 07222 12/59 01902 10070 20070 30240 40272 50000 60006 71100 80000 90300=
07222,1996-10-03 06:00:00,6,1027.9,0.6,100,6,600,3.704,,,180,6,14.5,,0,,,,,,40,wg-a,,,,AAXX 03064 07222 02106 31802 10060 20060 30246 40279 53006 60004 74000 83600 90600 333 10145 20060 60007=
07222,1996-10-03 09:00:00,12,1028.7,0.9,100,12,7000,11.112,,,200,,,,,,,,,,,wg-a,,,,AAXX 03094 07222 12/57 /2006 10120 20120 30255 40287 51009 60006 80001 90900=
07222,1996-10-03 12:00:00,18,1027.7,-0.9,73,13,20000,18.52,,,250,,,,,,,,,,,wg-a,,,,AAXX 03124 07222 12570 /2510 10180 20130 30246 40277 58009 60006 83101 91200=
07222,1996-10-03 18:00:00,14,1026.6,0.1,82,11,25000,11.112,,,250,5.8,19,,,,,,,,,wg-a,,,,AAXX 03184 07222 12575 42506 10140 20110 30235 40266 53001 60006 83801 91800 333 10190 20058=
07222,1996-10-04 00:00:00,14,1024.8,-1,88,12,10000,11.112,,,240,,,,,,,,,,,wg-a,,,,AAXX 04004 07222 12560 72406 10140 20120 30217 40248 57010 60006 875// 90000=
07222,1996-10-04 03:00:00,15,1023.2,-1.6,88,13,10000,14.816,,,220,,,,,,,,,,,wg-a,,,,AAXX 04034 07222 12460 72208 10150 20130 30201 40232 58016 60006 875// 90300=
07222,1996-10-04 06:00:00,14,1022.4,-0.8,100,14,1500,14.816,,,230,12.7,14.8,,1,,,1,,,51,wg-a,,,,AAXX 04064 07222 02115 82308 10140 20140 30193 40224 56008 60014 75165 887// 90600 333 10148 20127 60017=
07222,1996-10-04 09:00:00,13,1024,1.5,88,11,20000,7.408,,,310,,,,2,,,,,,1,wg-a,,,,AAXX 04094 07222 12670 53104 10130 20110 30208 40240 51015 60027 70165 84501 90900=
07222,1996-10-04 12:00:00,17,1023,-0.9,52,7,500,18.52,,,310,,,,,,,,,,3,wg-a,,,,AAXX 04124 07222 12600 23110 10170 20070 30199 40230 57009 60026 70365 82230 91200=
07222,1996-10-04 18:00:00,13,1020.7,-0.5,77,9,500,18.52,,,280,11.8,17.7,,,,,,,,,wg-a,,,,AAXX 04184 07222 32700 22810 10130 20090 30176 40207 56005 82500 91800 333 10177 20118=
07222,1996-10-05 00:00:00,11,1019.2,-1.3,82,8,500,14.816,,,280,,,,,,,,,,,wg-a,,,,AAXX 05004 07222 12700 12808 10110 20080 30160 40192 58013 60006 81500 90000=
07222,1996-10-05 06:00:00,9,1019,0.6,93,8,15000,14.816,,,310,8.9,13.2,,,,,2,,,,wg-a,,,,AAXX 05064 07222 02765 13108 10090 20080 30158 40190 53006 60006 81500 90600 333 10132 20089 60024=
07222,1996-10-05 09:00:00,13,1020.5,1.6,77,9,18000,14.816,,,310,,,,,,,,,,,wg-a,,,,AAXX 05094 07222 12468 /3108 10130 20090 30174 40205 51016 60006 81801 90900=
07222,1996-10-05 12:00:00,16,1020.5,0,55,7,11000,14.816,,,340,,,,,,,,,,,wg-a,,,,AAXX 05124 07222 12561 33408 10160 20070 30174 40205 50000 60006 83900 91200=
07222,1996-10-05 15:00:00,14,1020.4,-0.1,67,8,10000,7.408,,,40,,,,1,,,,,,25,wg-a,,,,AAXX 05154 07222 12560 50404 10140 20080 30173 40204 55001 60017 72586 85900 91500=
07222,1996-10-05 18:00:00,11,1022,1.5,82,8,20000,11.112,,,340,8.9,16.9,,1,,,,,,1,wg-a,,,,AAXX 05184 07222 12670 33406 10110 20080 30188 40220 53015 60017 70186 83900 91800 333 10169 20089=
07222,1996-10-05 21:00:00,8,1023.5,1.5,93,7,20000,7.408,,,310,,,,,,,,,,,wg-a,,,,AAXX 05214 07222 12/70 03104 10080 20070 30203 40235 51015 60006 80000 92100=
07222,1996-10-06 00:00:00,7,1023.9,0.4,93,6,15000,7.408,,,330,,,,,,,,,,,wg-a,,,,AAXX 06004 07222 12/65 03304 10070 20060 30207 40239 51004 60006 80000 90000=
07222,1996-10-06 03:00:00,6,1023.9,-0,100,6,15000,3.704,,,20,,,,0,,,,,,,wg-a,,,,AAXX 06034 07222 12/65 40202 10060 20060 30207 40239 55000 60007 80001 90300=
07222,1996-10-06 06:00:00,7,1024.7,0.8,93,6,10000,7.408,,,350,5.9,10.9,,,,,2,,,,wg-a,,,,AAXX 06064 07222 12760 73504 10070 20060 30215 40247 53008 60024 87532 90600 333 10109 20059=
07222,1996-10-06 09:00:00,11,1025.5,0.8,82,8,25000,7.408,,,330,,,,,,,,,,,wg-a,,,,AAXX 06094 07222 12775 73304 10110 20080 30223 40255 52008 60006 8453/ 90900=
07222,1996-10-06 12:00:00,14,1025.2,-0.3,63,7,25000,11.112,,,360,,,,,,,,,,,wg-a,,,,AAXX 06124 07222 12575 83606 10140 20070 30220 40252 58003 60006 878// 91200=
07222,1996-10-06 18:00:00,12,1025,0.7,71,7,25000,11.112,,,360,6.9,14.1,,,,,,,,,wg-a,,,,AAXX 06184 07222 12775 83606 10120 20070 30218 40250 53007 60006 8557/ 91800 333 10141 20069=
07222,1996-10-06 21:00:00,10,1025.4,0.4,87,8,20000,3.704,,,10,,,,,,,,,,,wg-a,,,,AAXX 06214 07222 12770 70102 10100 20080 30222 40254 52004 60006 83531 92100=
07222,1996-10-07 00:00:00,9,1024.7,-0.7,93,8,20000,7.408,,,320,,,,,,,,,,,wg-a,,,,AAXX 07004 07222 12770 73204 10090 20080 30215 40247 57007 60006 83531 90000=
07222,1996-10-07 03:00:00,10,1023.9,-0.8,93,9,20000,3.704,,,360,,,,,,,,,,,wg-a,,,,AAXX 07034 07222 12770 73602 10100 20090 30207 40239 58008 60006 875// 90300=
07222,1996-10-07 06:00:00,10,1023.6,-0.3,93,9,10000,3.704,,,320,8.4,11.7,,,,,,,,,wg-a,,,,AAXX 07064 07222 02560 73202 10100 20090 30204 40236 56003 60006 875// 90600 333 10117 20084 60004=
07222,1996-10-07 09:00:00,10,1024.2,0.6,93,9,8000,3.704,,,120,,,,,,,,,,50,wg-a,,,,AAXX 07094 07222 02458 81202 10100 20090 30210 40242 53006 61000 75052 875// 90900 333 ////=
07222,1996-10-07 12:00:00,12,1023.4,-0.8,82,9,10000,7.408,,,290,,,,,,,,,,20,wg-a,,,,AAXX 07124 07222 02360 82904 10120 20090 30202 40234 58008 61000 72052 885// 91200 333 6100=
07222,1996-10-07 15:00:00,13,1022.2,-1.1,94,12,7000,7.408,,,290,,,,,,,,,,3,wg-a,,,,AAXX 07154 07222 02457 82904 10130 20120 30191 40222 56011 61000 70352 885// 91500 333 ////=
07222,1996-10-07 18:00:00,13,1022.6,0.4,94,12,500,3.704,,,240,9.9,14.1,,,,,,,,1,wg-a,,,,AAXX 07184 07222 32400 82402 10130 20120 30195 40226 53004 70152 885// 91800 333 10141 20099=
07222,1996-10-07 21:00:00,13,1023.1,0.4,94,12,6000,7.408,,,280,,,,,,,,,,,wg-a,,,,AAXX 07214 07222 12456 72804 10130 20120 30199 40231 52004 60006 875// 92100=
07222,1996-10-08 00:00:00,13,1022.3,-0.7,100,13,2000,3.704,,,310,,,,,,,,,,10,wg-a,,,,AAXX 08004 07222 12220 83102 10130 20130 30192 40223 58007 60006 71022 876// 90000=
07222,1996-10-08 03:00:00,13,1022.1,-0.2,94,12,8000,7.408,,,340,,,,,,,,,,,wg-a,,,,AAXX 08034 07222 12558 83404 10130 20120 30190 40221 58002 60006 875// 90300=
07222,1996-10-08 06:00:00,12,1022.3,0.1,100,12,9000,7.408,,,340,12.4,13.3,,,,,,,,,wg-a,,,,AAXX 08064 07222 02759 83404 10120 20120 30191 40223 53001 60006 875// 90600 333 10133 20124 61000=
07222,1996-10-08 09:00:00,14,1023.4,1.2,94,13,500,7.408,,,310,,,,,,,,,,,wg-a,,,,AAXX 08094 07222 12300 83104 10140 20130 30203 40234 51012 60006 876// 90900=
07222,1996-10-08 12:00:00,15,1022.9,-0.5,88,13,8000,0,,,0,,,,0,,,,,,25,wg-a,,,,AAXX 08124 07222 02458 70000 10150 20130 30198 40229 58005 60006 72586 878// 91200 333 60007=
07222,1996-10-08 15:00:00,16,1022.2,-0.7,77,12,10000,11.112,,,290,,,,,,,,,,,wg-a,,,,AAXX 08154 07222 12560 72906 10160 20120 30191 40222 56007 60006 878// 91500=
07222,1996-10-08 18:00:00,15,1022.6,0.4,82,12,10000,7.408,,,290,12.4,16.7,,,,,,,,,wg-a,,,,AAXX 08184 07222 32760 72904 10150 20120 30195 40226 53004 875// 91800 333 10167 20124=
07222,1996-10-08 21:00:00,14,1023,0.4,88,12,10000,3.704,,,320,,,,,,,,,,,wg-a,,,,AAXX 08214 07222 12760 73202 10140 20120 30199 40230 53004 60006 875// 92100=
07222,1996-10-09 00:00:00,13,1022.7,-0.3,94,12,10000,7.408,,,290,,,,,,,,,,,wg-a,,,,AAXX 09004 07222 12660 82904 10130 20120 30196 40227 58003 60006 875// 90000=
07222,1996-10-09 03:00:00,13,1022,-0.8,94,12,8000,7.408,,,270,,,,,,,,,,,wg-a,,,,AAXX 09034 07222 12758 82704 10130 20120 30188 40220 57008 60006 875// 90300=
07222,1996-10-09 06:00:00,12,1022.1,0.1,100,12,4000,3.704,,,300,11.7,14.8,,,,,,,,10,wg-a,,,,AAXX 09064 07222 02640 73002 10120 20120 30189 40221 53001 60006 71022 875// 90600 333 10148 20117 60004=
07222,1996-10-09 09:00:00,14,1023,1,94,13,6000,7.408,,,320,,,,,,,,,,,wg-a,,,,AAXX 09094 07222 12256 83204 10140 20130 30199 40230 51010 60006 875// 90900=
07222,1996-10-09 12:00:00,15,1022.7,-0.3,88,13,7000,7.408,,,320,,,,,,,,,,20,wg-a,,,,AAXX 09124 07222 02457 83204 10150 20130 30196 40227 58003 61000 72052 876// 91200 333 6100=
07222,1996-10-09 15:00:00,15,1022.4,-0.3,88,13,10000,7.408,,,340,,,,0,,,,,,20,wg-a,,,,AAXX 09154 07222 12460 73404 10150 20130 30193 40224 56003 60007 72052 878// 91500=
07222,1996-10-09 18:00:00,13,1023.2,0.8,94,12,12000,3.704,,,360,12,15.3,,,,,,,,1,wg-a,,,,AAXX 09184 07222 32462 73602 10130 20120 30201 40232 53008 70152 878// 91800 333 10153 20120=
07222,1996-10-09 21:00:00,10,1025,1.7,82,7,11000,3.704,,,340,,,,,,,,,,,wg-a,,,,AAXX 09214 07222 12/61 /3402 10100 20070 30218 40250 51017 60006 92100=
07222,1996-10-10 00:00:00,7,1024.7,-0.3,93,6,10000,7.408,,,330,,,,,,,,,,,wg-a,,,,AAXX 10004 07222 12/60 03304 10070 20060 30215 40247 58003 60006 80000 90000=
07222,1996-10-10 03:00:00,6,1024.4,-0.3,100,6,10000,7.408,,,340,,,,,,,,,,,wg-a,,,,AAXX 10034 07222 12/60 03404 10060 20060 30212 40244 58003 60006 80000 90300=
07222,1996-10-10 06:00:00,5,1024.9,0.4,93,4,7000,3.704,,,320,4.5,13.5,,,,,,,,,wg-a,,,,AAXX 10064 07222 02/57 /3202 10050 20040 30216 40249 52004 60006 81030 90600 333 10135 20045 60004=
07222,1996-10-10 09:00:00,11,1025.5,0.7,94,10,10000,7.408,,,330,,,,,,,,,,,wg-a,,,,AAXX 10094 07222 12/60 33304 10110 20100 30223 40255 51007 60006 81033 90900=
07222,1996-10-10 12:00:00,17,1024.9,-0.5,59,9,15000,11.112,,,360,,,,,,,,,,,wg-a,,,,AAXX 10124 07222 12565 43606 10170 20090 30218 40249 58005 60006 84200 91200=
07222,1996-10-10 15:00:00,17,1023.7,-1.2,55,8,15000,11.112,,,50,,,,,,,,,,,wg-a,,,,AAXX 10154 07222 12665 40506 10170 20080 30206 40237 56012 60006 84200 91500=
07222,1996-10-10 18:00:00,15,1023.9,0.2,67,9,15000,3.704,,,10,3.9,17.7,,,,,,,,,wg-a,,,,AAXX 10184 07222 12765 40102 10150 20090 30208 40239 53002 60006 845/0 91800 333 10177 20039=
07222,1996-10-10 21:00:00,14,1024.3,0.4,77,10,10000,3.704,,,60,,,,,,,,,,,wg-a,,,,AAXX 10214 07222 12760 70602 10140 20100 30212 40243 52004 60006 875// 92100=
07222,1996-10-11 00:00:00,10,1023.4,-1,93,9,10000,3.704,,,50,,,,,,,,,,,wg-a,,,,AAXX 11004 07222 12760 20502 10100 20090 30202 40234 58010 60006 82500 90000=
07222,1996-10-11 03:00:00,9,1021.9,-1.5,100,9,500,7.408,,,70,,,,0,,,,,,,wg-a,,,,AAXX 11034 07222 12700 20704 10090 20090 30187 40219 58015 60007 82500 90300=
07222,1996-10-11 06:00:00,8,1021.7,-0.2,100,8,800,7.408,,,60,7.6,14.9,,,,,,,,41,wg-a,,,,AAXX 11064 07222 12208 30604 10080 20080 30185 40217 56002 60004 74140 83500 90600 333 10149 20076=
07222,1996-10-11 09:00:00,11,1021.6,-0.1,94,10,4000,14.816,,,120,,,,,,,,,,10,wg-a,,,,AAXX 11094 07222 12140 71208 10110 20100 30184 40216 58001 60006 71041 86602 90900=
07222,1996-10-11 12:00:00,15,1019.8,-1.7,77,11,6000,7.408,,,110,,,,,,,,,,1,wg-a,,,,AAXX 11124 07222 12456 /1104 10150 20110 30167 40198 58017 60006 70141 86500 91200=
07222,1996-10-11 15:00:00,17,1017.9,-1.9,63,10,10000,7.408,,,170,,,,,,,,,,,wg-a,,,,AAXX 11154 07222 12560 41704 10170 20100 30148 40179 58019 60006 84200 91500=
07222,1996-10-11 18:00:00,13,1016.9,-1,82,10,8000,3.704,,,100,7.2,17.9,,,,,,,,,wg-a,,,,AAXX 11184 07222 12658 71002 10130 20100 30138 40169 55010 60006 875// 91800 333 10179 20072=
07222,1996-10-11 21:00:00,10,1016.3,-0.7,93,9,6000,3.704,,,170,,,,,,,,,,,wg-a,,,,AAXX 11214 07222 12/56 21702 10100 20090 30131 40163 58007 60006 80001 92100=
07222,1996-10-12 00:00:00,8,1015.4,-0.9,100,8,500,3.704,,,120,,,,0,,,,,,42,wg-a,,,,AAXX 12004 07222 02105 41202 10080 20080 30122 40154 58009 60006 74241 84600 90000 333 60007=
07222,1996-10-12 03:00:00,7,1013.5,-1.9,100,7,6000,7.408,,,150,,,,,,,,,,28,wg-a,,,,AAXX 12034 07222 12456 31504 10070 20070 30103 40135 56019 60006 72840 83600 90300=
07222,1996-10-12 06:00:00,7,1012.5,-1,100,7,3500,11.112,,,130,6.8,13.5,,0,,,,,,10,wg-a,,,,AAXX 12064 07222 02635 21306 10070 20070 30093 40125 56010 60004 71041 82500 90600 333 10135 20068 60007=
07222,1996-10-12 09:00:00,12,1012.2,-0.2,88,10,8000,11.112,,,160,,,,,,,,,,,wg-a,,,,AAXX 12094 07222 12/58 01606 10120 20100 30091 40122 56002 60006 80000 90900=
07222,1996-10-12 12:00:00,18,1010.6,-1.6,73,13,15000,14.816,,,170,,,,,,,,,,,wg-a,,,,AAXX 12124 07222 12565 /1708 10180 20130 30075 40106 58016 60006 81100 91200=
07222,1996-10-12 15:00:00,19,1008.7,-1.8,68,13,20000,14.816,,,170,,,,,,,,,,,wg-a,,,,AAXX 12154 07222 12/70 01708 10190 20130 30057 40087 56018 60006 80000 91500=
07222,1996-10-12 18:00:00,14,1007.9,-0.9,82,11,20000,14.816,,,150,6.5,19.5,,,,,,,,,wg-a,,,,AAXX 12184 07222 12/70 01508 10140 20110 30048 40079 56009 60006 80000 91800 333 10195 20065=
07222,1996-10-12 21:00:00,13,1006.6,-1.3,88,11,15000,11.112,,,120,,,,,,,,,,,wg-a,,,,AAXX 12214 07222 12/65 01206 10130 20110 30035 40066 57013 60006 80000 92100=
07222,1996-10-13 00:00:00,14,1005.3,-1.3,88,12,15000,25.928,,,150,,,,,,,,,,,wg-a,,,,AAXX 13004 07222 12/65 01514 10140 20120 30022 40053 58013 60006 80000 90000=
07222,1996-10-13 03:00:00,14,1003.1,-2.2,82,11,12000,29.632,,,140,,,,,,,,,,,wg-a,,,,AAXX 13034 07222 12/62 01416 10140 20110 30000 40031 58022 60006 80000 90300=
07222,1996-10-13 06:00:00,13,1001.9,-1.2,82,10,8000,31.484,,,150,12.4,14.5,,,,,,,,,wg-a,,,,AAXX 13064 07222 02/58 31517 10130 20100 39988 40019 56012 60006 82031 90600 333 10145 20124 60004=
07222,1996-10-13 09:00:00,17,1001.9,0.1,68,11,12000,35.188,,,150,,,,,,,,,,,wg-a,,,,AAXX 13094 07222 12/62 11519 10170 20110 39989 40019 50001 60006 80001 90900=
07222,1996-10-13 12:00:00,21,1000.5,-1.4,53,11,18000,35.188,,,170,,,,,,,,,,,wg-a,,,,AAXX 13124 07222 12/68 31719 10210 20110 39975 40005 58014 60006 80001 91200=
07222,1996-10-13 15:00:00,22,1000.1,-0.4,46,10,20000,31.484,,,180,,,,,,,,,,,wg-a,,,,AAXX 13154 07222 12770 51817 10220 20100 39971 40001 57004 60006 81101 91500=
07222,1996-10-13 18:00:00,18,999.7,-0.4,59,10,20000,11.112,,,110,13.3,22.5,,,,,,,,,wg-a,,,,AAXX 13184 07222 12770 71106 10180 20100 39967 49997 58004 60006 81252 91800 333 10225 20133=
07222,1996-10-13 21:00:00,17,1000.1,0.4,68,11,15000,22.224,,,140,,,,,,,,,,,wg-a,,,,AAXX 13214 07222 12/65 41412 10170 20110 39971 40001 53004 60006 83032 92100=
07222,1996-10-14 00:00:00,16,1000.6,0.5,72,11,15000,22.224,,,150,,,,,,,,,,,wg-a,,,,AAXX 14004 07222 12765 51512 10160 20110 39976 40006 53005 60006 85500 90000=
07222,1996-10-14 03:00:00,16,999.9,-0.8,77,12,15000,18.52,,,140,,,,,,,,,,,wg-a,,,,AAXX 14034 07222 12765 71410 10160 20120 39968 49999 58008 60006 875// 90300=
07222,1996-10-14 06:00:00,16,1000.4,0.5,77,12,15000,22.224,,,140,15.3,17.7,,,,,,,,3,wg-a,,,,AAXX 14064 07222 02765 81412 10160 20120 39973 40004 53005 61000 70362 875// 90600 333 10177 20153 6100=
07222,1996-10-14 09:00:00,16,1001.6,1.3,82,13,15000,22.224,,,160,,,,,,,,,,,wg-a,,,,AAXX 14094 07222 12765 81612 10160 20130 39986 40016 51013 60006 8757/ 90900=
07222,1996-10-14 12:00:00,16,1002.2,0.6,88,14,10000,18.52,,,200,,,,,,,,,,61,wg-a,,,,AAXX 14124 07222 02460 82010 10160 20140 39992 40022 50006 61000 76162 8787/ 91200 333 6100=
07222,1996-10-14 15:00:00,17,1002.4,0.2,77,13,20000,18.52,,,210,,,,,,,,,,1,wg-a,,,,AAXX 14154 07222 02570 62110 10170 20130 39994 40024 52002 61000 70162 86202 91500 333 ////=
07222,1996-10-14 18:00:00,14,1003.6,1.1,94,13,20000,7.408,,,220,14.2,18.1,,,,,,,,1,wg-a,,,,AAXX 14184 07222 32570 32204 10140 20130 30005 40036 53011 70161 83202 91800 333 10181 20142=
07222,1996-10-14 21:00:00,14,1005.1,1.5,94,13,10000,14.816,,,270,,,,1,,,,,,25,wg-a,,,,AAXX 14214 07222 12560 /2708 10140 20130 30020 40051 53015 60017 72586 85200 92100=
07222,1996-10-15 00:00:00,11,1007.1,2,94,10,10000,11.112,,,240,,,,0,,,,,,1,wg-a,,,,AAXX 15004 07222 02560 22406 10110 20100 30040 40071 51020 60026 70186 82200 90000 333 60007=
07222,1996-10-15 06:00:00,9,1009.9,1.7,100,9,10000,3.704,,,210,9.1,14.4,,0,,,2,,,,wg-a,,,,AAXX 15064 07222 02560 22102 10090 20090 30067 40099 51017 60024 82200 90600 333 10144 20091 60007=
07222,1996-10-15 09:00:00,14,1010.8,1,88,12,25000,11.112,,,220,,,,,,,,,,,wg-a,,,,AAXX 15094 07222 12575 /2206 10140 20120 30077 40108 51010 60006 81800 90900=
07222,1996-10-15 12:00:00,15,1011.5,0.7,82,12,11000,14.816,,,280,,,,,,,,,,,wg-a,,,,AAXX 15124 07222 12/61 /2808 10150 20120 30084 40115 52007 60006 91200=
07222,1996-10-15 15:00:00,16,1012.4,0.9,48,5,500,29.632,,,270,,,,,,,,,,,wg-a,,,,AAXX 15154 07222 12600 32716 10160 20050 30093 40124 52009 60006 83800 91500=
07222,1996-10-15 18:00:00,11,1013.7,1.3,71,6,500,14.816,,,280,8.1,17.2,,,,,,,,,wg-a,,,,AAXX 15184 07222 32500 /2808 10110 20060 30106 40137 53013 81200 91800 333 10172 20081=
07222,1996-10-15 21:00:00,7,1014.8,1,93,6,20000,7.408,,,170,,,,,,,,,,,wg-a,,,,AAXX 15214 07222 12/70 01704 10070 20060 30116 40148 51010 60006 80000 92100=
07222,1996-10-16 00:00:00,6,1014.1,-0.7,100,6,20000,11.112,,,220,,,,,,,,,,,wg-a,,,,AAXX 16004 07222 12/70 02206 10060 20060 30109 40141 58007 60006 80000 90000=
07222,1996-10-16 03:00:00,6,1013,-1.1,93,5,20000,7.408,,,170,,,,,,,,,,,wg-a,,,,AAXX 16034 07222 12670 31704 10060 20050 30098 40130 57011 60006 83500 90300=
07222,1996-10-16 06:00:00,7,1012.5,-0.5,93,6,500,11.112,,,180,5.4,11.4,,1,,,1,,,1,wg-a,,,,AAXX 16064 07222 02600 31806 10070 20060 30093 40125 58005 60014 70186 83100 90600 333 10114 20054 60017=
07222,1996-10-16 09:00:00,12,1012.4,-0,94,11,25000,11.112,,,230,,,,0,,,,,,25,wg-a,,,,AAXX 16094 07222 12575 52306 10120 20110 30093 40124 55000 60007 72586 85800 90900=
07222,1996-10-16 12:00:00,16,1011.4,-1,68,10,500,22.224,,,260,,,,,,,,,,1,wg-a,,,,AAXX 16124 07222 12500 52612 10160 20100 30083 40114 56010 60006 70186 84830 91200=
07222,1996-10-16 15:00:00,15,1010.2,-1.2,67,9,25000,18.52,,,240,,,,,,,,,,25,wg-a,,,,AAXX 16154 07222 02675 42410 10150 20090 30071 40102 56012 61000 72586 83830 91500 333 ////=
07222,1996-10-16 18:00:00,12,1009.9,-0.3,88,10,25000,11.112,,,210,6.1,16.8,,,,,,,,3,wg-a,,,,AAXX 16184 07222 32575 72106 10120 20100 30068 40099 58003 70386 8693/ 91800 333 10168 20061=
07222,1996-10-17 00:00:00,9,1008.1,-1.1,100,9,0,14.816,,,180,,,,,,,,,,,wg-a,,,,AAXX 17004 07222 12/// /1808 10090 20090 30049 40081 58011 60076 90000=
07222,1996-10-17 06:00:00,5,1010,0.9,100,5,0,0,,,0,4.4,12.2,,0,,,8,,,,wg-a,,,,AAXX 17064 07222 02/// /0000 10050 20050 30068 40100 53009 60084 90600 333 10122 20044 60007=
07222,1996-10-17 09:00:00,10,1011.2,1.3,100,10,20000,3.704,,,240,,,,,,,,,,,wg-a,,,,AAXX 17094 07222 12570 /2402 10100 20100 30081 40112 53013 60006 81800 90900=
07222,1996-10-17 12:00:00,14,1011.2,0,67,8,500,14.816,,,270,,,,,,,,,,,wg-a,,,,AAXX 17124 07222 12600 /2708 10140 20080 30081 40112 50000 60006 85200 91200=
07222,1996-10-17 15:00:00,16,1011.2,-0,51,6,500,18.52,,,250,,,,,,,,,,,wg-a,,,,AAXX 17154 07222 12600 32510 10160 20060 30081 40112 55000 60006 83200 91500=
07222,1996-10-17 18:00:00,11,1011.8,0.6,82,8,20000,7.408,,,240,4,16.1,,,,,,,,,wg-a,,,,AAXX 17184 07222 12570 /2404 10110 20080 30087 40118 53006 60006 81200 91800 333 10161 20040=
07222,1996-10-17 21:00:00,7,1012,0.1,93,6,15000,7.408,,,150,,,,,,,,,,,wg-a,,,,AAXX 17214 07222 12/65 01504 10070 20060 30088 40120 51001 60006 80000 92100=
07222,1996-10-18 00:00:00,5,1012,0,100,5,10000,11.112,,,140,,,,,,,,,,,wg-a,,,,AAXX 18004 07222 12/60 01406 10050 20050 30088 40120 50000 60006 80000 90000=
07222,1996-10-18 03:00:00,6,1011,-1,93,5,10000,14.816,,,140,,,,,,,,,,,wg-a,,,,AAXX 18034 07222 12760 21408 10060 20050 30078 40110 58010 60006 82500 90300=
07222,1996-10-18 06:00:00,10,1009.9,-1,87,8,8000,22.224,,,160,4.8,10.4,,,,,,,,51,wg-a,,,,AAXX 18064 07222 02458 71612 10100 20080 30068 40099 58010 60004 75151 875// 90600 333 10104 20048 61000=
07222,1996-10-18 09:00:00,12,1010.3,0.4,100,12,7000,18.52,,,170,,,,0,,,,,,20,wg-a,,,,AAXX 18094 07222 12257 71710 10120 20120 30072 40103 53004 60007 72052 875// 90900=
07222,1996-10-18 12:00:00,17,1011.9,1.6,68,11,15000,31.484,,,280,,,,,,,,,,1,wg-a,,,,AAXX 18124 07222 12565 /2817 10170 20110 30088 40119 51016 60016 70152 85200 91200=
07222,1996-10-18 15:00:00,17,1013,1.1,72,12,15000,25.928,,,260,,,,,,,,,,,wg-a,,,,AAXX 18154 07222 12565 52614 10170 20120 30099 40130 53011 60006 82201 91500=
07222,1996-10-18 18:00:00,16,1014.1,1.1,88,14,10000,22.224,,,240,9.9,18.4,,,,,,,,,wg-a,,,,AAXX 18184 07222 32460 72412 10160 20140 30110 40141 51011 878// 91800 333 10184 20099=
07222,1996-10-18 21:00:00,16,1015.4,1.3,88,14,10000,22.224,,46.3,260,,,,,,,,,,,wg-a,,,,AAXX 18214 07222 12460 /2612 10160 20140 30123 40154 53013 60006 86500 92100 333 91025=
07222,1996-10-19 00:00:00,15,1017.2,1.8,88,13,10000,18.52,,,270,,,,,,,,,,,wg-a,,,,AAXX 19004 07222 12460 72710 10150 20130 30141 40172 51018 60006 875// 90000=
07222,1996-10-19 03:00:00,13,1019.3,2.1,88,11,10000,18.52,,,290,,,,,,,,,,,wg-a,,,,AAXX 19034 07222 12460 42910 10130 20110 30162 40193 53021 60006 84500 90300=
07222,1996-10-19 06:00:00,12,1021.2,1.8,94,11,10000,11.112,,,240,11.9,15.6,,,,,,,,,wg-a,,,,AAXX 19064 07222 02760 62406 10120 20110 30180 40212 52018 60006 86500 90600 333 10156 20119 60004=
07222,1996-10-19 09:00:00,15,1024.5,3.4,88,13,15000,11.112,,,260,,,,,,,,,,,wg-a,,,,AAXX 19094 07222 12565 72606 10150 20130 30214 40245 53034 60006 878// 90900=
07222,1996-10-19 12:00:00,18,1025.9,1.4,68,12,20000,18.52,,,270,,,,,,,,,,,wg-a,,,,AAXX 19124 07222 12670 /2710 10180 20120 30228 40259 51014 60006 86200 91200=
07222,1996-10-19 15:00:00,18,1026.5,0.6,64,11,20000,14.816,,,260,,,,,,,,,,,wg-a,,,,AAXX 19154 07222 12670 32608 10180 20110 30234 40265 53006 60006 81101 91500=
07222,1996-10-19 18:00:00,13,1027.3,0.7,88,11,20000,11.112,,,220,12,18.8,,,,,,,,,wg-a,,,,AAXX 19184 07222 12/70 62206 10130 20110 30241 40273 53007 60006 80002 91800 333 10188 20120=
07222,1996-10-19 21:00:00,11,1027.9,0.6,100,11,10000,11.112,,,200,,,,,,,,,,,wg-a,,,,AAXX 19214 07222 12/60 52006 10110 20110 30247 40279 50006 60006 80002 92100=
07222,1996-10-20 00:00:00,8,1027.5,-0.4,100,8,800,7.408,,,140,,,,0,,,,,,41,wg-a,,,,AAXX 20004 07222 02008 41404 10080 20080 30243 40275 58004 60006 74141 82602 90000 333 60007=
07222,1996-10-20 06:00:00,9,1025.8,-0.7,100,9,300,7.408,,,150,7.6,12.5,,0,,,1,,,45,wg-a,,,,AAXX 20064 07222 02/03 91504 10090 20090 30226 40258 56007 60014 74544 89/// 90600 333 10125 20076 60007=
07222,1996-10-20 12:00:00,17,1024.3,-1.5,88,15,10000,22.224,,,200,,,,,,,,,,1,wg-a,,,,AAXX 20124 07222 12460 72012 10170 20150 30212 40243 58015 60006 70142 8357/ 91200=
07222,1996-10-20 15:00:00,17,1023.4,-0.9,82,14,15000,18.52,,,220,,,,,,,,,,,wg-a,,,,AAXX 20154 07222 12665 72210 10170 20140 30203 40234 55009 60006 8557/ 91500=
07222,1996-10-20 18:00:00,16,1023.2,-0.2,100,16,6000,14.816,,,220,8.7,18.8,,1,,,,,,50,wg-a,,,,AAXX 20184 07222 12156 72208 10160 20160 30201 40232 55002 60017 75052 877// 91800 333 10188 20087=
07222,1996-10-20 21:00:00,16,1023.1,-0.1,100,16,7000,14.816,,,220,,,,,,,,,,1,wg-a,,,,AAXX 20214 07222 02357 72208 10160 20160 30200 40231 58001 61000 70152 877// 92100 333 ////=
07222,1996-10-21 00:00:00,16,1022.7,-0.4,100,16,3000,18.52,,,240,,,,,,,,,,51,wg-a,,,,AAXX 21004 07222 02230 82410 10160 20160 30196 40227 57004 61000 75165 877// 90000 333 6100=
07222,1996-10-21 03:00:00,16,1022,-0.7,100,16,2000,18.52,,,260,,,,1,,,,,,51,wg-a,,,,AAXX 21034 07222 12120 82610 10160 20160 30189 40220 56007 60017 75166 877// 90300=
07222,1996-10-21 06:00:00,16,1022.7,0.7,100,16,3000,14.816,,,270,15.8,16.6,,0,,,2,,,21,wg-a,,,,AAXX 21064 07222 02130 82708 10160 20160 30196 40227 52007 60024 72165 877// 90600 333 10166 20158 60007=
07222,1996-10-21 09:00:00,16,1024.3,1.6,100,16,10000,7.408,,,310,,,,0,,,,,,,wg-a,,,,AAXX 21094 07222 12260 83104 10160 20160 30212 40243 51016 60007 877// 90900=
07222,1996-10-21 12:00:00,19,1024.4,0.1,88,17,15000,7.408,,,240,,,,,,,,,,,wg-a,,,,AAXX 21124 07222 12465 62404 10190 20170 30213 40244 50001 60006 86801 91200=
07222,1996-10-21 18:00:00,16,1024.4,0.8,94,15,11000,7.408,,,240,15.4,20.9,,,,,,,,,wg-a,,,,AAXX 21184 07222 32/61 /2404 10160 20150 30213 40244 53008 91800 333 10209 20154=
07222,1996-10-21 21:00:00,14,1024.7,0.3,100,14,9000,3.704,,,360,,,,,,,,,,11,wg-a,,,,AAXX 21214 07222 12459 73602 10140 20140 30216 40247 50003 60006 71111 875// 92100=
07222,1996-10-22 00:00:00,13,1024.2,-0.5,100,13,600,3.704,,,200,,,,,,,,,,45,wg-a,,,,AAXX 22004 07222 12/06 92002 10130 20130 30211 40242 58005 60006 74541 89/// 90000=
07222,1996-10-22 03:00:00,14,1023.4,-0.8,100,14,700,7.408,,,150,,,,,,,,,,45,wg-a,,,,AAXX 22034 07222 32/07 91504 10140 20140 30203 40234 58008 74544 89/// 90300=
07222,1996-10-22 06:00:00,14,1023.5,0.1,100,14,2000,7.408,,,110,13.1,15.6,,,,,,,,10,wg-a,,,,AAXX 22064 07222 12120 /1104 10140 20140 30204 40235 53001 60004 71042 876// 90600 333 10156 20131=
07222,1996-10-22 09:00:00,15,1024,0.5,100,15,900,11.112,,,100,,,,,,,,,,42,wg-a,,,,AAXX 22094 07222 12109 71006 10150 20150 30209 40240 50005 60006 74242 876// 90900=
07222,1996-10-22 12:00:00,21,1022.5,-1.5,69,15,15000,14.816,,,110,,,,,,,,,,1,wg-a,,,,AAXX 22124 07222 12565 /1108 10210 20150 30194 40225 58015 60006 70141 81100 91200=
07222,1996-10-22 15:00:00,22,1020.7,-1.8,53,12,20000,14.816,,,100,,,,,,,,,,,wg-a,,,,AAXX 22154 07222 12/70 11008 10220 20120 30176 40207 56018 60006 80001 91500=
07222,1996-10-22 18:00:00,17,1020.7,-0,63,10,15000,11.112,,,80,14.2,21.9,,,,,,,,,wg-a,,,,AAXX 22184 07222 12/65 20806 10170 20100 30176 40207 55000 60006 80001 91800 333 10219 20142=
07222,1996-10-22 21:00:00,14,1020,-0.7,77,10,15000,14.816,,,80,,,,,,,,,,,wg-a,,,,AAXX 22214 07222 12/65 00808 10140 20100 30169 40200 58007 60006 80000 92100=
07222,1996-10-23 00:00:00,13,1018.8,-1.2,77,9,15000,11.112,,,70,,,,,,,,,,,wg-a,,,,AAXX 23004 07222 12/65 00706 10130 20090 30157 40188 56012 60006 80000 90000=
07222,1996-10-23 03:00:00,10,1018.2,-0.7,87,8,15000,7.408,,,50,,,,,,,,,,,wg-a,,,,AAXX 23034 07222 12/65 00504 10100 20080 30150 40182 56007 60006 80000 90300=
07222,1996-10-23 06:00:00,9,1017.6,-0.6,93,8,10000,11.112,,,80,9.2,16.8,,,,,,,,,wg-a,,,,AAXX 23064 07222 02/60 00806 10090 20080 30144 40176 55006 60006 80000 90600 333 10168 20092 60004=
07222,1996-10-23 12:00:00,20,1017.3,-1.1,53,10,20000,11.112,,,110,,,,,,,,,,,wg-a,,,,AAXX 23124 07222 12/70 11106 10200 20100 30142 40173 58011 60006 81040 91200=
07222,1996-10-23 18:00:00,17,1017.3,1,72,12,20000,7.408,,,170,9,22.9,,,,,,,,,wg-a,,,,AAXX 23184 07222 12/70 21704 10170 20120 30142 40173 51010 60006 80001 91800 333 10229 20090=
07222,1996-10-23 21:00:00,13,1017.7,0.4,94,12,9000,0,,,0,,,,,,,,,,,wg-a,,,,AAXX 23214 07222 12/59 20000 10130 20120 30146 40177 51004 60006 80001 92100=
07222,1996-10-24 00:00:00,10,1017.7,-0.1,100,10,9000,3.704,,,140,,,,,,,,,,,wg-a,,,,AAXX 24004 07222 12/59 41402 10100 20100 30145 40177 58001 60006 80001 90000=
07222,1996-10-24 06:00:00,11,1018,0.3,94,10,6000,3.704,,,30,9.8,16.6,,0,,,,,,,wg-a,,,,AAXX 24064 07222 02/56 60302 10110 20100 30148 40180 53003 60004 80006 90600 333 10166 20098 60007=
07222,1996-10-24 09:00:00,14,1018.1,0.2,88,12,7000,7.408,,,100,,,,,,,,,,,wg-a,,,,AAXX 24094 07222 12/57 /1004 10140 20120 30150 40181 50002 60006 81036 90900=
07222,1996-10-24 12:00:00,20,1017.2,-0.9,73,15,10000,14.816,,,140,,,,,,,,,,,wg-a,,,,AAXX 24124 07222 12/60 51408 10200 20150 30141 40172 58009 60006 81035 91200=
07222,1996-10-24 15:00:00,20,1016.4,-0.8,78,16,8000,7.408,,,160,,,,,,,,,,,wg-a,,,,AAXX 24154 07222 12/58 71604 10200 20160 30133 40164 56008 60006 83036 91500=
07222,1996-10-24 18:00:00,17,1015.3,-1.1,88,15,7000,14.816,,,130,10.4,21.1,,,,,,,,,wg-a,,,,AAXX 24184 07222 12757 71308 10170 20150 30122 40153 58011 60006 83532 91800 333 10211 20104=
07222,1996-10-24 21:00:00,16,1017.1,1.8,88,14,8000,14.816,,,260,,,,,,,,,,,wg-a,,,,AAXX 24214 07222 12758 /2608 10160 20140 30140 40171 53018 60006 85500 92100=
07222,1996-10-25 00:00:00,15,1016.9,-0.2,,,8000,11.112,,,190,,,,,,,,,,,wg-a,,,,AAXX 25004 07222 12758 71906 10150 2//// 30138 40169 57002 60006 875// 90000=
07222,1996-10-25 03:00:00,14,1017.6,0.7,100,14,8000,11.112,,,230,,,,0,,,,,,61,wg-a,,,,AAXX 25034 07222 12558 82306 10140 20140 30145 40176 53007 60007 76162 8557/ 90300=
07222,1996-10-25 06:00:00,14,1019,1.4,100,14,10000,11.112,,,200,13.4,17.4,,2,,,2,,,21,wg-a,,,,AAXX 25064 07222 02460 82006 10140 20140 30159 40190 53014 60024 72162 8557/ 90600 333 10174 20134 60027=
07222,1996-10-25 09:00:00,16,1020.8,1.8,94,15,10000,18.52,,,220,,,,,,,,,,,wg-a,,,,AAXX 25094 07222 12460 52210 10160 20150 30177 40208 53018 60006 85800 90900=
07222,1996-10-25 12:00:00,17,1021.9,1.1,68,11,20000,29.632,,,250,,,,,,,,,,,wg-a,,,,AAXX 25124 07222 12570 32516 10170 20110 30188 40219 51011 60006 83100 91200=
07222,1996-10-25 18:00:00,13,1023.7,1.3,88,11,25000,14.816,,,200,13.1,18.1,,,,,,,,,wg-a,,,,AAXX 25184 07222 12675 32008 10130 20110 30205 40237 53013 60006 82801 91800 333 10181 20131=
07222,1996-10-26 00:00:00,13,1024.2,-0.2,94,12,15000,11.112,,,200,,,,,,,,,,,wg-a,,,,AAXX 26004 07222 12565 /2006 10130 20120 30210 40242 57002 60006 86500 90000=
07222,1996-10-26 06:00:00,13,1024.7,0.6,94,12,15000,14.816,,,200,12.2,14.5,,,,,4,,,1,wg-a,,,,AAXX 26064 07222 02565 72008 10130 20120 30215 40247 53006 60044 70162 875// 90600 333 10145 20122 61000=
07222,1996-10-26 12:00:00,16,1026.1,-0.2,72,11,15000,11.112,,,250,,,,,,,,,,3,wg-a,,,,AAXX 26124 07222 12065 72506 10160 20110 30230 40261 58002 60006 70386 83801 91200=
07222,1996-10-26 15:00:00,17,1025.7,-0.4,63,10,20000,11.112,,,250,,,,,,,,,,,wg-a,,,,AAXX 26154 07222 12570 /2506 10170 20100 30226 40257 58004 60006 82801 91500=
07222,1996-10-26 18:00:00,14,1025.8,0,88,12,20000,11.112,,,190,12.3,17.1,,,,,,,,,wg-a,,,,AAXX 26184 07222 32770 71906 10140 20120 30226 40258 50000 8151/ 91800 333 10171 20123=
07222,1996-10-26 21:00:00,13,1025.2,-0.6,100,13,10000,7.408,,,190,,,,,,,,,,,wg-a,,,,AAXX 26214 07222 12760 81904 10130 20130 30220 40252 58006 60006 8357/ 92100=
07222,1996-10-27 00:00:00,13,1024.6,-0.6,100,13,10000,7.408,,,170,,,,,,,,,,,wg-a,,,,AAXX 27004 07222 12460 81704 10130 20130 30214 40246 56006 60006 876// 90000=
07222,1996-10-27 03:00:00,12,1022.9,-1.7,100,12,10000,7.408,,,180,,,,,,,,,,,wg-a,,,,AAXX 27034 07222 12360 61804 10120 20120 30197 40229 56017 60006 85530 90300=
07222,1996-10-27 06:00:00,12,1022.4,-0.5,100,12,10000,11.112,,,180,12.1,13.5,,0,,,,,,,wg-a,,,,AAXX 27064 07222 02460 71806 10120 20120 30192 40224 57005 60004 87500 90600 333 10135 20121 60007=
07222,1996-10-27 09:00:00,14,1022.5,0.2,100,14,12000,14.816,,,200,,,,,,,,,,,wg-a,,,,AAXX 27094 07222 12/62 72008 10140 20140 30194 40225 52002 60006 8707/ 90900=
07222,1996-10-27 12:00:00,18,1021.5,-1,73,13,25000,22.224,,,230,,,,,,,,,,,wg-a,,,,AAXX 27124 07222 12575 62312 10180 20130 30184 40215 56010 60006 84231 91200=
07222,1996-10-27 15:00:00,17,1019.9,-1.6,68,11,25000,22.224,,,220,,,,,,,,,,,wg-a,,,,AAXX 27154 07222 12575 /2212 10170 20110 30168 40199 56016 60006 82201 91500=
07222,1996-10-27 18:00:00,13,1019.2,-0.7,94,12,25000,11.112,,,200,12,18.2,,,,,,,,,wg-a,,,,AAXX 27184 07222 12/75 42006 10130 20120 30161 40192 57007 60006 80001 91800 333 10182 20120=
07222,1996-10-27 21:00:00,11,1018.6,-0.7,100,11,15000,11.112,,,180,,,,,,,,,,,wg-a,,,,AAXX 27214 07222 12665 31806 10110 20110 30154 40186 58007 60006 83501 92100=
07222,1996-10-28 00:00:00,12,1017.3,-1.2,94,11,15000,11.112,,,180,,,,,,,,,,,wg-a,,,,AAXX 28004 07222 12565 61806 10120 20110 30142 40173 58012 60006 85501 90000=
07222,1996-10-28 03:00:00,13,1014.8,-2.5,94,12,15000,18.52,,,190,,,,,,,,,,,wg-a,,,,AAXX 28034 07222 12665 71910 10130 20120 30117 40148 58025 60006 8357/ 90300=
07222,1996-10-28 06:00:00,14,1013.4,-1.4,100,14,500,25.928,,,210,11.2,14.2,,1,,,1,,,51,wg-a,,,,AAXX 28064 07222 02300 82114 10140 20140 30103 40134 56014 60014 75152 877// 90600 333 10142 20112 60017=
07222,1996-10-28 09:00:00,15,1013.3,-0.1,94,14,10000,18.52,,,230,,,,1,,,,,,10,wg-a,,,,AAXX 28094 07222 12260 82310 10150 20140 30102 40133 55001 60017 71065 875// 90900=
07222,1996-10-28 12:00:00,17,1012,-1.3,82,14,12000,35.188,,,240,,,,,,,,,,25,wg-a,,,,AAXX 28124 07222 02462 72419 10170 20140 30089 40120 58013 60016 72565 87800 91200 333 61000=
07222,1996-10-28 15:00:00,17,1011.8,-0.2,59,9,18000,29.632,,,250,,,,,,,,,,,wg-a,,,,AAXX 28154 07222 12568 /2516 10170 20090 30087 40118 55002 60006 85800 91500=
07222,1996-10-28 18:00:00,14,1011,-0.8,77,10,20000,25.928,,42.596,230,14.1,17.9,,,,,,,,,wg-a,,,,AAXX 28184 07222 32670 52314 10140 20100 30079 40110 56008 84501 91800 333 10179 20141 91023=
07222,1996-10-28 21:00:00,15,1011.3,0.3,72,10,20000,31.484,,,250,,,,,,,,,,2,wg-a,,,,AAXX 28214 07222 02570 32517 10150 20100 30082 40113 51003 61000 70286 83800 92100 333 ////=
07222,1996-10-29 00:00:00,14,1011.7,0.4,82,11,10000,31.484,,,260,,,,,,,,,,61,wg-a,,,,AAXX 29004 07222 02560 82617 10140 20110 30086 40117 52004 61000 76186 875// 90000 333 6100=
07222,1996-10-29 03:00:00,12,1012.5,0.8,88,10,10000,35.188,,57.412,280,,,,1,,,,,,21,wg-a,,,,AAXX 29034 07222 12560 32819 10120 20100 30094 40125 53008 60017 72161 83200 90300 333 91031=
07222,1996-10-29 06:00:00,12,1014.5,2,82,9,10000,22.224,,,280,11.6,14.8,,,,,2,,,3,wg-a,,,,AAXX 29064 07222 12560 42812 10120 20090 30114 40145 53020 60024 70386 83802 90600 333 10148 20116=
07222,1996-10-29 09:00:00,13,1018,3.5,72,8,20000,29.632,,,300,,,,,,,,,,,wg-a,,,,AAXX 29094 07222 12470 53016 10130 20080 30149 40180 53035 60006 82801 90900=
07222,1996-10-29 12:00:00,14,1020.1,2.1,63,7,500,25.928,,,300,,,,,,,,,,,wg-a,,,,AAXX 29124 07222 12600 63014 10140 20070 30170 40201 51021 60006 85830 91200=
07222,1996-10-29 15:00:00,13,1021.8,1.7,67,7,500,18.52,,,310,,,,,,,,,,,wg-a,,,,AAXX 29154 07222 12600 73110 10130 20070 30187 40218 53017 60006 878// 91500=
07222,1996-10-29 21:00:00,7,1027.5,3,81,4,20000,3.704,,,320,,,,,,,,,,,wg-a,,,,AAXX 29214 07222 12/70 03202 10070 20040 30243 40275 51030 60006 80000 92100=
07222,1996-10-30 00:00:00,5,1028.5,0.9,87,3,20000,3.704,,,280,,,,,,,,,,,wg-a,,,,AAXX 30004 07222 12/70 02802 10050 20030 30252 40285 51009 60006 80000 90000=
07222,1996-10-30 03:00:00,3,1029.1,0.6,93,2,20000,3.704,,,250,,,,,,,,,,,wg-a,,,,AAXX 30034 07222 12770 22502 10030 20020 30258 40291 50006 60006 82500 90300=
07222,1996-10-30 06:00:00,4,1030,0.9,100,4,20000,3.704,,,130,2.1,,,0,,,,,,,wg-a,,,,AAXX 30064 07222 02670 71302 10040 20040 30267 40300 51009 60004 875// 90600 333 10103 20021 60007=
07222,1996-10-30 09:00:00,7,1031.6,1.7,93,6,10000,3.704,,,190,,,,,,,,,,,wg-a,,,,AAXX 30094 07222 12660 71902 10070 20060 30284 40316 51017 60006 875// 90900=
07222,1996-10-30 12:00:00,14,1031.4,-0.2,51,4,18000,3.704,,,30,,,,,,,,,,,wg-a,,,,AAXX 30124 07222 12668 30302 10140 20040 30282 40314 58002 60006 83500 91200=
07222,1996-10-30 15:00:00,14,1030.2,-1.2,51,4,500,3.704,,,170,,,,,,,,,,,wg-a,,,,AAXX 30154 07222 12600 /1702 10140 20040 30270 40302 58012 60006 81501 91500=
07222,1996-10-30 18:00:00,9,1030.4,0.2,76,5,500,3.704,,,180,3.9,14.6,,,,,,,,,wg-a,,,,AAXX 30184 07222 12700 41802 10090 20050 30272 40304 53002 60006 815/4 91800 333 10146 20039=
07222,1996-10-30 21:00:00,6,1029.8,-0.7,93,5,15000,3.704,,,180,,,,,,,,,,,wg-a,,,,AAXX 30214 07222 12/65 61802 10060 20050 30265 40298 58007 60006 80001 92100=
07222,1996-10-31 00:00:00,4,1028.4,-1.4,100,4,15000,3.704,,,120,,,,,,,,,,,wg-a,,,,AAXX 31004 07222 12/65 61202 10040 20040 30251 40284 58014 60006 80001 90000=
07222,1996-10-31 03:00:00,5,1027.7,-0.7,93,4,15000,7.408,,,160,,,,,,,,,,,wg-a,,,,AAXX 31034 07222 12565 71604 10050 20040 30244 40277 56007 60006 875// 90300=
07222,1996-10-31 06:00:00,7,1025.9,-1.7,93,6,15000,7.408,,,150,3.5,8.9,,,,,,,,,wg-a,,,,AAXX 31064 07222 02665 71504 10070 20060 30227 40259 56017 60006 875// 90600 333 10089 20035 60004=
07222,1996-10-31 09:00:00,12,1025.1,-0.8,82,9,20000,22.224,,,190,,,,,,,,,,,wg-a,,,,AAXX 31094 07222 12670 51912 10120 20090 30219 40251 58008 60006 81532 90900=
07222,1996-10-31 12:00:00,14,1024.3,-0.7,88,12,12000,25.928,,,220,,,,,,,,,,51,wg-a,,,,AAXX 31124 07222 02462 82214 10140 20120 30212 40243 58007 61000 75165 878// 91200 333 6100=
07222,1996-10-31 15:00:00,14,1022.7,-1.6,100,14,6000,18.52,,,230,,,,0,,,,,,51,wg-a,,,,AAXX 31154 07222 12256 82310 10140 20140 30196 40227 57016 60007 75166 887// 91500=
07222,1996-10-31 18:00:00,15,1023.6,0.9,94,14,6000,22.224,,,270,6.6,15.2,,,,,,,,51,wg-a,,,,AAXX 31184 07222 02356 82712 10150 20140 30205 40236 53009 61000 75165 887// 91800 333 10152 20066 ////=
07222,1996-10-31 21:00:00,15,1024.7,1.1,88,13,8000,22.224,,,260,,,,0,,,,,,3,wg-a,,,,AAXX 31214 07222 12458 72612 10150 20130 30216 40247 52011 60007 70365 878// 92100=
07222,1996-11-01 00:00:00,14,1025.6,0.9,94,13,10000,22.224,,,270,,,,,,,,,,3,wg-a,,,,AAXX 01004 07222 12460 72712 10140 20130 30225 40256 51009 60006 70365 878// 90000=
07222,1996-11-01 03:00:00,14,1026.7,1.1,94,13,12000,14.816,,,280,,,,,,,,,,,wg-a,,,,AAXX 01034 07222 12362 72808 10140 20130 30236 40267 53011 60006 876// 90300=
07222,1996-11-01 06:00:00,14,1028.5,1.7,94,13,10000,14.816,,,270,13.6,14.9,,,,,,,,20,wg-a,,,,AAXX 01064 07222 02260 /2708 10140 20130 30253 40285 51017 60004 72052 86800 90600 333 10149 20136 61000=
07222,1996-11-01 12:00:00,15,1031.3,0.6,88,13,15000,11.112,,,280,,,,,,,,,,3,wg-a,,,,AAXX 01124 07222 02465 82806 10150 20130 30281 40313 50006 61000 70352 875// 91200 333 6100=
07222,1996-11-01 15:00:00,15,1030.9,-0.4,82,12,15000,14.816,,,280,,,,,,,,,,,wg-a,,,,AAXX 01154 07222 12465 82808 10150 20120 30277 40309 55004 60006 875// 91500=
07222,1996-11-01 18:00:00,14,1031.8,0.9,88,12,20000,7.408,,,220,13.4,14.9,,,,,,,,,wg-a,,,,AAXX 01184 07222 32570 82204 10140 20120 30286 40318 53009 875// 91800 333 10149 20134=
07222,1996-11-01 21:00:00,13,1032,0.2,94,12,18000,7.408,,,190,,,,,,,,,,,wg-a,,,,AAXX 01214 07222 12468 81904 10130 20120 30288 40320 52002 60006 875// 92100=
07222,1996-11-02 00:00:00,13,1031.7,-0.3,94,12,15000,7.408,,,180,,,,,,,,,,,wg-a,,,,AAXX 02004 07222 12565 81804 10130 20120 30285 40317 57003 60006 875// 90000=
07222,1996-11-02 03:00:00,13,1031,-0.7,94,12,12000,7.408,,,200,,,,,,,,,,,wg-a,,,,AAXX 02034 07222 12562 82004 10130 20120 30278 40310 58007 60006 875// 90300=
07222,1996-11-02 06:00:00,13,1030.4,-0.6,94,12,12000,7.408,,,210,12.8,13.9,,,,,,,,,wg-a,,,,AAXX 02064 07222 02562 82104 10130 20120 30272 40304 58006 60006 875// 90600 333 10139 20128 61000=
07222,1996-11-02 09:00:00,14,1031.1,0.7,88,12,20000,7.408,,,220,,,,,,,,,,,wg-a,,,,AAXX 02094 07222 12570 72204 10140 20120 30279 40311 51007 60006 875// 90900=
07222,1996-11-02 12:00:00,16,1030.7,-0.3,77,12,500,14.816,,,250,,,,,,,,,,,wg-a,,,,AAXX 02124 07222 12500 72508 10160 20120 30276 40307 58003 60006 875// 91200=
07222,1996-11-02 15:00:00,16,1029.6,-1.1,72,11,500,14.816,,,250,,,,,,,,,,,wg-a,,,,AAXX 02154 07222 12500 82508 10160 20110 30265 40296 56011 60006 875// 91500=
07222,1996-11-02 18:00:00,14,1029.9,0.2,88,12,500,7.408,,,230,12.7,16.1,,,,,,,,,wg-a,,,,AAXX 02184 07222 12400 82304 10140 20120 30267 40299 53002 60006 875// 91800 333 10161 20127=
07222,1996-11-02 21:00:00,13,1030,0.1,88,11,20000,7.408,,,210,,,,,,,,,,,wg-a,,,,AAXX 02214 07222 12570 72104 10130 20110 30268 40300 53001 60006 875// 92100=
07222,1996-11-03 00:00:00,14,1028.8,-1.2,82,11,20000,7.408,,,230,,,,,,,,,,,wg-a,,,,AAXX 03004 07222 12470 72304 10140 20110 30256 40288 56012 60006 875// 90000=
07222,1996-11-03 03:00:00,13,1027.5,-1.3,94,12,20000,11.112,,,230,,,,,,,,,,,wg-a,,,,AAXX 03034 07222 12470 72306 10130 20120 30243 40275 56013 60006 875// 90300=
07222,1996-11-03 06:00:00,13,1026.6,-0.9,94,12,20000,7.408,,,230,13.2,14.1,,,,,,,,,wg-a,,,,AAXX 03064 07222 02470 72304 10130 20120 30234 40266 58009 60006 875// 90600 333 10141 20132 60004=
07222,1996-11-03 09:00:00,14,1027.2,0.6,88,12,20000,11.112,,,230,,,,,,,,,,,wg-a,,,,AAXX 03094 07222 12570 52306 10140 20120 30240 40272 53006 60006 81532 90900=
07222,1996-11-03 12:00:00,16,1026.4,-0.7,77,12,15000,18.52,,,220,,,,,,,,,,,wg-a,,,,AAXX 03124 07222 12565 82210 10160 20120 30233 40264 58007 60006 875// 91200=
07222,1996-11-03 15:00:00,16,1024.7,-1.7,82,13,10000,18.52,,,230,,,,,,,,,,,wg-a,,,,AAXX 03154 07222 12460 82310 10160 20130 30216 40247 56017 60006 875// 91500=
07222,1996-11-03 18:00:00,15,1023.7,-1,88,13,6000,18.52,,,210,12.6,16.5,,,,,,,,,wg-a,,,,AAXX 03184 07222 12456 82110 10150 20130 30206 40237 56010 60006 875// 91800 333 10165 20126=
07222,1996-11-03 21:00:00,15,1022.2,-1.5,88,13,8000,18.52,,,200,,,,,,,,,,,wg-a,,,,AAXX 03214 07222 12458 82010 10150 20130 30191 40222 57015 60006 875// 92100=
07222,1996-11-04 00:00:00,15,1019.9,-2.3,88,13,500,22.224,,,200,,,,,,,,,,,wg-a,,,,AAXX 04004 07222 12500 82012 10150 20130 30168 40199 57023 60006 875// 90000=
07222,1996-11-04 03:00:00,15,1016.6,-3.3,88,13,7000,29.632,,,190,,,,,,,,,,,wg-a,,,,AAXX 04034 07222 12457 81916 10150 20130 30135 40166 56033 60006 875// 90300=
07222,1996-11-04 06:00:00,14,1014.3,-2.3,94,13,8000,35.188,,,200,13.8,14.9,,,,,,,,2,wg-a,,,,AAXX 04064 07222 02458 82019 10140 20130 30112 40143 58023 61000 70252 875// 90600 333 10149 20138 6100=
07222,1996-11-04 09:00:00,14,1012.3,-2,100,14,3000,25.928,,,210,,,,3,,,,,,10,wg-a,,,,AAXX 04094 07222 12230 82114 10140 20140 30092 40123 58020 60037 71065 877// 90900=
07222,1996-11-04 12:00:00,15,1009.6,-2.7,100,15,500,29.632,,,220,,,,6,,,,,,61,wg-a,,,,AAXX 04124 07222 02400 82216 10150 20150 30065 40096 58027 60096 76165 875// 91200 333 60067=
07222,1996-11-04 15:00:00,13,1006.9,-2.7,100,13,6000,22.224,,51.856,220,,,,20,,,,,,61,wg-a,,,,AAXX 04154 07222 12356 82212 10130 20130 30038 40069 56027 60207 76166 877// 91500 333 91028=
07222,1996-11-04 18:00:00,13,1006.6,-0.3,82,10,10000,22.224,,,240,12.8,15.2,,0,,,,,,1,wg-a,,,,AAXX 04184 07222 12460 72412 10130 20100 30035 40066 56003 60007 70162 8483/ 91800 333 10152 20128=
07222,1996-11-04 21:00:00,12,1007.9,1.3,88,10,15000,18.52,,,230,,,,0,,,,,,,wg-a,,,,AAXX 04214 07222 12565 /2310 10120 20100 30048 40079 53013 60007 81800 92100=
07222,1996-11-05 00:00:00,10,1010.3,2.3,87,8,15000,14.816,,,260,,,,,,,,,,1,wg-a,,,,AAXX 05004 07222 12/65 02608 10100 20080 30071 40103 51023 60016 70186 80000 90000=
07222,1996-11-05 03:00:00,11,1011.4,1.2,87,9,15000,22.224,,,270,,,,,,,,,,,wg-a,,,,AAXX 05034 07222 12565 22712 10110 20090 30083 40114 53012 60006 82800 90300=
07222,1996-11-05 06:00:00,11,1015.2,3.7,82,8,15000,18.52,,,280,9.4,12.8,,,,,30,,,,wg-a,,,,AAXX 05064 07222 12765 22810 10110 20080 30120 40152 51037 60304 82500 90600 333 10128 20094=
07222,1996-11-05 09:00:00,12,1018.9,3.7,67,6,15000,22.224,,,290,,,,,,,,,,,wg-a,,,,AAXX 05094 07222 12/65 12912 10120 20060 30157 40189 51037 60006 80001 90900=
07222,1996-11-05 12:00:00,14,1021.1,2.3,55,5,20000,22.224,,,300,,,,,,,,,,,wg-a,,,,AAXX 05124 07222 12670 /3012 10140 20050 30180 40211 51023 60006 81100 91200=
07222,1996-11-05 15:00:00,13,1021.9,0.7,54,4,20000,14.816,,,290,,,,,,,,,,,wg-a,,,,AAXX 05154 07222 12670 22908 10130 20040 30187 40219 53007 60006 82100 91500=
07222,1996-11-05 18:00:00,8,1023,1.1,87,6,20000,11.112,,,230,8,14.3,,,,,,,,,wg-a,,,,AAXX 05184 07222 12670 /2306 10080 20060 30198 40230 51011 60006 81100 91800 333 10143 20080=
07222,1996-11-05 21:00:00,9,1022.9,-0.1,87,7,15000,14.816,,,190,,,,,,,,,,,wg-a,,,,AAXX 05214 07222 12565 31908 10090 20070 30197 40229 58001 60006 83500 92100=
07222,1996-11-06 00:00:00,11,1021.7,-1.2,87,9,15000,14.816,,,190,,,,,,,,,,,wg-a,,,,AAXX 06004 07222 12565 71908 10110 20090 30185 40217 56012 60006 875// 90000=
07222,1996-11-06 03:00:00,14,1019.6,-2,94,13,10000,22.224,,,230,,,,,,,,,,60,wg-a,,,,AAXX 06034 07222 02460 72312 10140 20130 30165 40196 56020 61000 76062 875// 90300 333 ////=
07222,1996-11-06 06:00:00,15,1018.5,-1.1,94,14,10000,25.928,,,240,7.8,14.7,,0,,,,,,21,wg-a,,,,AAXX 06064 07222 02360 82414 10150 20140 30154 40185 58011 60004 72165 877// 90600 333 10147 20078 60007=
07222,1996-11-06 09:00:00,16,1018.3,-0.2,88,14,8000,29.632,,46.3,230,,,,,,,,,,1,wg-a,,,,AAXX 06094 07222 02458 72316 10160 20140 30152 40183 55002 61000 70165 875// 90900 333 //// 91025=
07222,1996-11-06 12:00:00,16,1017.5,-0.8,94,15,8000,31.484,,50.004,230,,,,,,,,,,21,wg-a,,,,AAXX 06124 07222 02458 72317 10160 20150 30144 40175 58008 61000 72165 875// 91200 333 6100 91027=
07222,1996-11-06 15:00:00,16,1016.7,-0.8,94,15,3000,29.632,,,240,,,,2,,,,,,51,wg-a,,,,AAXX 06154 07222 12230 82416 10160 20150 30136 40167 56008 60027 75165 877// 91500=
07222,1996-11-06 18:00:00,12,1018,1.3,100,12,3500,14.816,,,280,12,16.4,,3,,,,,,51,wg-a,,,,AAXX 06184 07222 12235 82808 10120 20120 30149 40180 53013 60037 75165 877// 91800 333 10164 20120=
07222,1996-11-06 21:00:00,12,1017.6,-0.4,100,12,10000,18.52,,,200,,,,1,,,,,,20,wg-a,,,,AAXX 06214 07222 12260 72010 10120 20120 30145 40176 58004 60017 72065 875// 92100=
07222,1996-11-07 00:00:00,13,1016.1,-1.5,100,13,6000,22.224,,,220,,,,1,,,,,,61,wg-a,,,,AAXX 07004 07222 02256 82212 10130 20130 30130 40161 58015 60026 76165 877// 90000 333 60017=
07222,1996-11-07 03:00:00,13,1014,-2.1,100,13,500,14.816,,,250,,,,3,,,,,,61,wg-a,,,,AAXX 07034 07222 12200 82508 10130 20130 30109 40140 58021 60037 76166 877// 90300=
07222,1996-11-07 06:00:00,12,1013.7,-0.3,94,11,500,11.112,,,240,11.6,13.4,,6,,,17,,,63,wg-a,,,,AAXX 07064 07222 02200 82406 10120 20110 30106 40137 55003 60174 76366 877// 90600 333 10134 20116 60067=
07222,1996-11-07 09:00:00,14,1016.4,2.7,88,12,20000,22.224,,,260,,,,1,,,,,,1,wg-a,,,,AAXX 07094 07222 12470 62612 10140 20120 30133 40164 52027 60017 70162 86800 90900=
07222,1996-11-07 12:00:00,14,1018.5,2.1,82,11,20000,25.928,,,280,,,,1,,,,,,3,wg-a,,,,AAXX 07124 07222 02570 /2814 10140 20110 30154 40185 51021 60036 70386 85200 91200 333 60017=
07222,1996-11-07 15:00:00,14,1020,1.5,72,9,25000,25.928,,,270,,,,,,,,,,,wg-a,,,,AAXX 07154 07222 12575 42714 10140 20090 30169 40200 53015 60006 84200 91500=
07222,1996-11-07 18:00:00,11,1022.7,2.6,82,8,20000,14.816,,,260,11,15,,,,,,,,,wg-a,,,,AAXX 07184 07222 32670 42608 10110 20080 30195 40227 53026 84200 91800 333 10150 20110=
07222,1996-11-07 21:00:00,9,1024.2,1.5,93,8,15000,7.408,,,260,,,,1,,,,,,2,wg-a,,,,AAXX 07214 07222 12565 22604 10090 20080 30210 40242 51015 60017 70286 82800 92100=
07222,1996-11-08 00:00:00,8,1026,1.8,93,7,15000,3.704,,,190,,,,1,,,,,,1,wg-a,,,,AAXX 08004 07222 02565 31902 10080 20070 30228 40260 51018 60016 70186 83800 90000 333 60017=
07222,1996-11-08 03:00:00,5,1026.6,0.5,100,5,15000,3.704,,,160,,,,,,,,,,,wg-a,,,,AAXX 08034 07222 12/65 01602 10050 20050 30233 40266 52005 60006 80000 90300=
07222,1996-11-08 06:00:00,4,1027.1,0.5,100,4,15000,7.408,,,180,3.8,11.5,,0,,,4,,,,wg-a,,,,AAXX 08064 07222 02/65 01804 10040 20040 30238 40271 51005 60044 80000 90600 333 10115 20038 60007=
07222,1996-11-08 09:00:00,8,1028.8,1.8,100,8,15000,7.408,,,190,,,,0,,,,,,25,wg-a,,,,AAXX 08094 07222 12565 41904 10080 20080 30256 40288 51018 60007 72586 83360 90900=
07222,1996-11-08 12:00:00,14,1029,0.2,72,9,15000,7.408,,,230,,,,1,,,,,,25,wg-a,,,,AAXX 08124 07222 02565 62304 10140 20090 30258 40290 50002 60016 72586 85302 91200 333 60017=
07222,1996-11-08 15:00:00,14,1028.8,-0.2,67,8,20000,25.928,,,280,,,,,,,,,,,wg-a,,,,AAXX 08154 07222 12670 32814 10140 20080 30256 40288 55002 60006 83200 91500=
07222,1996-11-08 18:00:00,9,1029.5,0.7,87,7,20000,7.408,,,240,3.9,14.7,,,,,,,,,wg-a,,,,AAXX 08184 07222 32670 /2404 10090 20070 30263 40295 52007 81800 91800 333 10147 20039=
07222,1996-11-08 21:00:00,7,1030.4,0.9,100,7,15000,7.408,,,190,,,,,,,,,,,wg-a,,,,AAXX 08214 07222 12/65 01904 10070 20070 30272 40304 53009 60006 80000 92100=
07222,1996-11-09 00:00:00,5,1031.2,0.7,100,5,10000,7.408,,,140,,,,0,,,,,,,wg-a,,,,AAXX 09004 07222 02560 11404 10050 20050 30279 40312 51007 60006 81500 90000 333 60007=
07222,1996-11-09 03:00:00,4,1030.2,-1,100,4,10000,7.408,,,140,,,,0,,,,,,21,wg-a,,,,AAXX 09034 07222 12560 /1404 10040 20040 30269 40302 58010 60007 72100 81500 90300=
07222,1996-11-09 06:00:00,6,1030.4,0.2,100,6,10000,7.408,,,150,4.2,9.2,,0,,,2,,,1,wg-a,,,,AAXX 09064 07222 02560 /1504 10060 20060 30271 40304 51002 60024 70161 85500 90600 333 10092 20042 60007=
07222,1996-11-09 09:00:00,8,1030.9,0.6,100,8,10000,7.408,,,170,,,,,,,,,,,wg-a,,,,AAXX 09094 07222 12560 41704 10080 20080 30277 40309 52006 60006 81231 90900=
07222,1996-11-09 12:00:00,14,1029.4,-1.5,77,10,10000,3.704,,,190,,,,,,,,,,,wg-a,,,,AAXX 09124 07222 12460 /1902 10140 20100 30262 40294 58015 60006 85202 91200=
07222,1996-11-09 15:00:00,14,1027.1,-2.3,77,10,500,7.408,,,230,,,,,,,,,,,wg-a,,,,AAXX 09154 07222 12500 22304 10140 20100 30239 40271 56023 60006 82202 91500=
07222,1996-11-09 18:00:00,10,1026.1,-1,93,9,500,7.408,,,190,5.1,14.6,,,,,,,,,wg-a,,,,AAXX 09184 07222 12600 31904 10100 20090 30229 40261 56010 60006 83502 91800 333 10146 20051=
07222,1996-11-09 21:00:00,9,1024.2,-1.9,100,9,15000,11.112,,,140,,,,,,,,,,,wg-a,,,,AAXX 09214 07222 12765 71406 10090 20090 30210 40242 58019 60006 82530 92100=
07222,1996-11-10 00:00:00,10,1021.5,-2.7,93,9,10000,14.816,,,180,,,,,,,,,,,wg-a,,,,AAXX 10004 07222 12/60 /1808 10100 20090 30183 40215 58027 60006 90000=
07222,1996-11-10 03:00:00,10,1017.7,-3.8,93,9,15000,11.112,,,170,,,,,,,,,,,wg-a,,,,AAXX 10034 07222 12765 51706 10100 20090 30145 40177 58038 60006 85500 90300=
07222,1996-11-10 09:00:00,9,1012.5,-1.6,93,8,8000,7.408,,,100,,,,8,,,,,,63,wg-a,,,,AAXX 10094 07222 12458 81004 10090 20080 30093 40125 56016 60087 76366 8652/ 90900=
07222,1996-11-10 12:00:00,11,1009.3,-3.1,94,10,15000,22.224,,,310,,,,1,,,,,,3,wg-a,,,,AAXX 10124 07222 02265 73112 10110 20100 30062 40093 58031 60096 70386 875// 91200 333 60017=
07222,1996-11-10 15:00:00,11,1008.3,-1,82,8,20000,7.408,,,340,,,,,,,,,,,wg-a,,,,AAXX 10154 07222 12470 /3404 10110 20080 30052 40083 58010 60006 84804 91500=
07222,1996-11-10 18:00:00,8,1007.5,-0.9,93,7,20000,3.704,,,320,7.8,11.5,,,,,,,,,wg-a,,,,AAXX 10184 07222 32470 73202 10080 20070 30043 40075 56009 82836 91800 333 10115 20078=
07222,1996-11-10 21:00:00,8,1004.9,-2.6,93,7,12000,11.112,,,80,,,,0,,,,,,,wg-a,,,,AAXX 10214 07222 12/62 70806 10080 20070 30017 40049 57026 60007 85072 92100=
07222,1996-11-11 00:00:00,8,1000.9,-3.9,93,7,10000,14.816,,,70,,,,,,,,,,,wg-a,,,,AAXX 11004 07222 12460 70708 10080 20070 39978 40009 58039 60006 8257/ 90000=
07222,1996-11-11 03:00:00,8,996.7,-4.2,100,8,500,11.112,,,60,,,,2,,,,,,61,wg-a,,,,AAXX 11034 07222 12400 70606 10080 20080 39936 49967 58042 60027 76162 8257/ 90300=
07222,1996-11-11 06:00:00,7,993.3,-3.4,100,7,6000,7.408,,,100,7.2,8,,3,,,14,,,61,wg-a,,,,AAXX 11064 07222 02556 81004 10070 20070 39902 49933 56034 60144 76162 8557/ 90600 333 10080 20072 60037=
07222,1996-11-11 09:00:00,8,992.3,-1,93,7,12000,14.816,,,70,,,,0,,,,,,21,wg-a,,,,AAXX 11094 07222 12262 70708 10080 20070 39892 49923 56010 60007 72162 878// 90900=
07222,1996-11-11 12:00:00,8,990.2,-2.1,93,7,15000,22.224,,,70,,,,,,,,,,61,wg-a,,,,AAXX 11124 07222 02365 80712 10080 20070 39871 49902 58021 60006 76162 875// 91200 333 61000=
07222,1996-11-11 15:00:00,8,988.3,-1.9,93,7,10000,22.224,,,60,,,,8,,,,,,21,wg-a,,,,AAXX 11154 07222 12260 80612 10080 20070 39852 49883 58019 60087 72162 8677/ 91500=
07222,1996-11-11 18:00:00,8,989.4,1.1,93,7,500,7.408,,,20,7.3,8.3,,,,,,,,1,wg-a,,,,AAXX 11184 07222 32200 80204 10080 20070 39863 49894 53011 70162 8677/ 91800 333 10083 20073=
07222,1996-11-11 21:00:00,8,990.4,1,93,7,500,7.408,,,40,,,,1,,,,,,25,wg-a,,,,AAXX 11214 07222 12400 /0404 10080 20070 39873 49904 53010 60017 72562 86800 92100=
07222,1996-11-12 00:00:00,7,991.1,0.7,100,7,4000,0,,,0,,,,,,,,,,10,wg-a,,,,AAXX 12004 07222 12540 80000 10070 20070 39880 49911 51007 60016 71064 875// 90000=
07222,1996-11-12 03:00:00,7,991.5,0.4,100,7,8000,7.408,,,10,,,,0,,,,,,,wg-a,,,,AAXX 12034 07222 12458 70104 10070 20070 39884 49915 52004 60007 875// 90300=
07222,1996-11-12 06:00:00,8,992.7,1.2,100,8,2500,7.408,,,30,6.4,8,,0,,,10,,,10,wg-a,,,,AAXX 12064 07222 02125 70304 10080 20080 39896 49927 53012 60104 71086 875// 90600 333 10080 20064 60007=
07222,1996-11-12 09:00:00,9,995.4,2.7,100,9,500,7.408,,,50,,,,,,,,,,,wg-a,,,,AAXX 12094 07222 12200 40504 10090 20090 39923 49954 51027 60006 83501 90900=
07222,1996-11-12 12:00:00,11,996.9,1.5,94,10,10000,11.112,,,50,,,,,,,,,,,wg-a,,,,AAXX 12124 07222 12460 /0506 10110 20100 39938 49969 51015 60006 86800 91200=
07222,1996-11-12 15:00:00,11,999,2.1,94,10,10000,11.112,,,50,,,,0,,,,,,25,wg-a,,,,AAXX 12154 07222 12360 70506 10110 20100 39959 49990 53021 60007 72586 878// 91500=
07222,1996-11-12 18:00:00,10,1001.4,2.4,93,9,10000,7.408,,,20,7.3,11.7,,0,,,,,,3,wg-a,,,,AAXX 12184 07222 12460 70204 10100 20090 39983 40014 51024 60007 70386 878// 91800 333 10117 20073=
07222,1996-11-12 21:00:00,10,1004.1,2.7,93,9,10000,14.816,,,30,,,,,,,,,,,wg-a,,,,AAXX 12214 07222 12460 70308 10100 20090 30010 40041 53027 60006 875// 92100=
07222,1996-11-13 00:00:00,9,1006.8,2.7,93,8,10000,11.112,,,20,,,,,,,,,,,wg-a,,,,AAXX 13004 07222 12560 70206 10090 20080 30037 40068 53027 60006 875// 90000=
07222,1996-11-13 03:00:00,9,1008.7,1.8,93,8,10000,14.816,,,10,,,,,,,,,,,wg-a,,,,AAXX 13034 07222 12460 70108 10090 20080 30055 40087 53018 60006 875// 90300=
07222,1996-11-13 06:00:00,9,1011.1,2.4,87,7,10000,14.816,,,10,8.7,10.4,,,,,1,,,,wg-a,,,,AAXX 13064 07222 02460 70108 10090 20070 30079 40111 53024 60006 875// 90600 333 10104 20087 60014=
07222,1996-11-13 09:00:00,9,1013.9,2.8,87,7,15000,14.816,,,20,,,,,,,,,,,wg-a,,,,AAXX 13094 07222 12465 70208 10090 20070 30107 40139 52028 60006 875// 90900=
07222,1996-11-13 12:00:00,9,1016.2,2.3,87,7,15000,14.816,,,30,,,,,,,,,,60,wg-a,,,,AAXX 13124 07222 02465 70308 10090 20070 30130 40162 51023 61000 76062 875// 91200 333 6100=
07222,1996-11-13 15:00:00,10,1016.6,0.4,76,6,15000,14.816,,,30,,,,,,,,,,3,wg-a,,,,AAXX 13154 07222 02565 70308 10100 20060 30134 40166 53004 61000 70362 875// 91500 333 ////=
07222,1996-11-13 18:00:00,7,1018.6,2,87,5,15000,11.112,,,20,7.1,10.1,,,,,,,,1,wg-a,,,,AAXX 13184 07222 32665 20206 10070 20050 30154 40186 53020 70161 82500 91800 333 10101 20071=
07222,1996-11-13 21:00:00,5,1020,1.4,87,3,12000,11.112,,,20,,,,,,,,,,,wg-a,,,,AAXX 13214 07222 12/62 00206 10050 20030 30168 40200 51014 60006 80000 92100=
07222,1996-11-14 00:00:00,4,1020.8,0.8,93,3,12000,11.112,,,30,,,,,,,,,,,wg-a,,,,AAXX 14004 07222 12/62 00306 10040 20030 30176 40208 53008 60006 80000 90000=
07222,1996-11-14 03:00:00,2,1021.1,0.2,93,1,12000,7.408,,,20,,,,,,,,,,,wg-a,,,,AAXX 14034 07222 12/62 00204 10020 20010 30178 40211 53002 60006 80000 90300=
07222,1996-11-14 06:00:00,3,1021.7,0.6,93,2,12000,7.408,,,40,1.3,7.2,,,,,,,,,wg-a,,,,AAXX 14064 07222 02/62 00404 10030 20020 30184 40217 53006 60006 80000 90600 333 10072 20013 61000=
07222,1996-11-14 09:00:00,3,1022.7,0.6,93,2,12000,0,,,0,1.3,,,,,,,,,,wg-a,,,,AAXX 14094 07222 02/62 /0000 10030 20020 30194 40227 53006 60006 90900 333 20013 61000=
07222,1996-11-14 12:00:00,9,1022.5,-0.3,66,3,15000,18.52,,,60,,,,,,,,,,,wg-a,,,,AAXX 14124 07222 12465 20610 10090 20030 30193 40225 56003 60006 82200 91200=
07222,1996-11-14 15:00:00,9,1022.1,-0.4,61,2,20000,14.816,,,30,,,,,,,,,,,wg-a,,,,AAXX 14154 07222 12670 30308 10090 20020 30189 40221 55004 60006 83200 91500=
07222,1996-11-14 18:00:00,5,1022.7,0.5,81,2,20000,3.704,,,360,1.3,9.7,,,,,,,,,wg-a,,,,AAXX 14184 07222 12/70 03602 10050 20020 30194 40227 51005 60006 80000 91800 333 10097 20013=
07222,1996-11-14 21:00:00,1,1022.7,0,93,0,12000,3.704,,,10,,,,,,,,,,,wg-a,,,,AAXX 14214 07222 12/62 00102 10010 20000 30194 40227 50000 60006 80000 92100=
07222,1996-11-15 00:00:00,1,1022.5,-0.2,100,1,10000,7.408,,,20,,,,0,,,,,,,wg-a,,,,AAXX 15004 07222 02660 30204 10010 20010 30192 40225 56002 60006 83500 90000 333 60007=
07222,1996-11-15 03:00:00,1,1021,-1.5,100,1,10000,7.408,,,340,,,,,,,,,,,wg-a,,,,AAXX 15034 07222 12760 63404 10010 20010 30177 40210 58015 60006 86500 90300=
07222,1996-11-15 06:00:00,3,1020.6,-0.4,93,2,10000,7.408,,,30,0.7,4.5,,,,,,,,,wg-a,,,,AAXX 15064 07222 12660 70304 10030 20020 30173 40206 56004 60004 875// 90600 333 10045 20007=
07222,1996-11-15 09:00:00,4,1020.7,0.1,87,2,10000,11.112,,,30,,,,,,,,,,,wg-a,,,,AAXX 15094 07222 12760 10306 10040 20020 30174 40207 50001 60006 81500 90900=
07222,1996-11-15 12:00:00,5,1019.9,-0.7,75,1,12000,11.112,,,30,,,,,,,,,,,wg-a,,,,AAXX 15124 07222 12762 60306 10050 20010 30167 40199 58007 60006 86500 91200=
07222,1996-11-15 15:00:00,6,1019.2,-0.7,65,0,12000,11.112,,,40,,,,,,,,,,,wg-a,,,,AAXX 15154 07222 12662 70406 10060 20000 30160 40192 55007 60006 875// 91500=
07222,1996-11-15 18:00:00,4,1020.6,1.4,81,1,8000,18.52,,,60,2.1,6.4,,,,,,,,,wg-a,,,,AAXX 15184 07222 12558 70610 10040 20010 30174 40206 51014 60006 875// 91800 333 10064 20021=
07222,1996-11-15 20:00:00,4,1020.6,1.4,81,1,8000,18.52,,,60,2.1,6.4,,,,,,,,,wg-a,,,,AAXX 15204 07222 12558 70610 10040 20010 30174 40206 51014 60006 875// 92000 333 10064 20021=
07222,1996-11-15 21:00:00,4,1022.2,1.5,87,2,10000,14.816,,,90,,,,,,,,,,,wg-a,,,,AAXX 15214 07222 12460 70908 10040 20020 30189 40222 53015 60006 875// 92100=
07222,1996-11-16 00:00:00,4,1021.8,-0.4,87,2,7000,11.112,,,40,,,,,,,,,,,wg-a,,,,AAXX 16004 07222 12557 70406 10040 20020 30185 40218 56004 60006 875// 90000=
07222,1996-11-16 03:00:00,4,1022,0.2,87,2,7000,14.816,,,50,,,,,,,,,,,wg-a,,,,AAXX 16034 07222 12/57 /0508 10040 20020 30187 40220 53002 60006 90300=
07222,1996-11-16 06:00:00,4,1022,-0,87,2,8000,14.816,,,40,3.7,4.7,,,,,,,,,wg-a,,,,AAXX 16064 07222 02558 70408 10040 20020 30187 40220 55000 60006 875// 90600 333 10047 20037 60004=
07222,1996-11-16 09:00:00,4,1022.9,0.9,87,2,8000,11.112,,,40,,,,,,,,,,21,wg-a,,,,AAXX 16094 07222 02658 70406 10040 20020 30196 40229 51009 61000 72162 8657/ 90900 333 ////=
07222,1996-11-16 12:00:00,5,1022.7,-0.1,87,3,6000,14.816,,,60,,,,,,,,,,3,wg-a,,,,AAXX 16124 07222 02456 80608 10050 20030 30195 40227 58001 61000 70362 875// 91200 333 ////=
07222,1996-11-16 15:00:00,6,1021.7,-1,75,2,8000,18.52,,,70,,,,,,,,,,,wg-a,,,,AAXX 16154 07222 12458 /0710 10060 20020 30185 40217 56010 60006 8653/ 91500=
07222,1996-11-16 18:00:00,5,1021.9,0.2,87,3,500,11.112,,,50,3.5,6.5,,,,,,,,,wg-a,,,,AAXX 16184 07222 32/00 /0506 10050 20030 30187 40219 50002 91800 333 10065 20035=
07222,1996-11-16 21:00:00,4,1021.3,-0.7,87,2,500,11.112,,,60,,,,,,,,,,,wg-a,,,,AAXX 16214 07222 12400 80606 10040 20020 30180 40213 58007 60006 876// 92100=
07222,1996-11-17 00:00:00,4,1019.6,-1.6,87,2,0,11.112,,,20,,,,,,,,,,,wg-a,,,,AAXX 17004 07222 12/// /0206 10040 20020 30164 40196 58016 60006 90000=
07222,1996-11-17 03:00:00,3,1018.5,-1.2,93,2,4000,11.112,,,350,,,,,,,,,,10,wg-a,,,,AAXX 17034 07222 12340 83506 10030 20020 30152 40185 58012 60006 71022 876// 90300=
07222,1996-11-17 06:00:00,2,1016.1,-2.4,100,2,4000,11.112,,,10,2.3,5.5,,,,,,,,10,wg-a,,,,AAXX 17064 07222 02240 80106 10020 20020 30128 40161 56024 60006 71022 876// 90600 333 10055 20023 61000=
07222,1996-11-17 09:00:00,3,1015.6,-0.5,93,2,2000,7.408,,,320,,,,,,,,,,10,wg-a,,,,AAXX 17094 07222 12120 83204 10030 20020 30123 40156 56005 60006 71022 886// 90900=
07222,1996-11-17 12:00:00,5,1012.7,-2.8,93,4,4000,3.704,,,30,,,,,,,,,,10,wg-a,,,,AAXX 17124 07222 12240 80302 10050 20040 30095 40127 58028 60006 71022 886// 91200=
07222,1996-11-17 15:00:00,5,1010.4,-2.3,93,4,4000,3.704,,,160,,,,,,,,,,10,wg-a,,,,AAXX 17154 07222 12340 81602 10050 20040 30072 40104 58023 60006 71022 8467/ 91500=
07222,1996-11-17 18:00:00,5,1009.2,-1.2,93,4,3500,3.704,,,150,2.1,5.4,,,,,,,,10,wg-a,,,,AAXX 17184 07222 02235 81502 10050 20040 30060 40092 56012 61000 71062 875// 91800 333 10054 20021 ////=
07222,1996-11-17 21:00:00,5,1009,-0.2,100,5,3000,7.408,,,270,,,,0,,,,,,10,wg-a,,,,AAXX 17214 07222 12230 82704 10050 20050 30058 40090 55002 60007 71062 877// 92100=
07222,1996-11-18 00:00:00,7,1009.7,0.7,93,6,12000,7.408,,,330,,,,,,,,,,1,wg-a,,,,AAXX 18004 07222 12662 63304 10070 20060 30065 40097 53007 60016 70162 86500 90000=
07222,1996-11-18 03:00:00,4,1010.1,0.4,93,3,15000,14.816,,,310,,,,,,,,,,,wg-a,,,,AAXX 18034 07222 12665 23108 10040 20030 30069 40101 53004 60006 82500 90300=
07222,1996-11-18 06:00:00,3,1010.9,0.8,87,1,15000,14.816,,,310,2.9,6.8,,,,,1,,,,wg-a,,,,AAXX 18064 07222 12/65 03108 10030 20010 30077 40109 53008 60014 80000 90600 333 10068 20029=
07222,1996-11-18 09:00:00,4,1012,1.1,87,2,20000,18.52,,,310,,,,,,,,,,,wg-a,,,,AAXX 18094 07222 12670 23110 10040 20020 30088 40120 52011 60006 81201 90900=
07222,1996-11-18 12:00:00,9,1012.2,0.2,61,2,20000,18.52,,,310,,,,,,,,,,,wg-a,,,,AAXX 18124 07222 12570 33110 10090 20020 30090 40122 50002 60006 83200 91200=
07222,1996-11-18 15:00:00,9,1012.1,-0.1,61,2,15000,14.816,,,320,,,,,,,,,,16,wg-a,,,,AAXX 18154 07222 12665 /3208 10090 20020 30089 40121 55001 60006 71611 85200 91500=
07222,1996-11-18 18:00:00,5,1011.9,-0.2,75,1,0,11.112,,,270,2.7,9.8,,,,,,,,,wg-a,,,,AAXX 18184 07222 12/// /2706 10050 20010 30087 40119 58002 60006 91800 333 10098 20027=
07222,1996-11-18 21:00:00,1,1011.4,-0.6,93,0,15000,3.704,,,180,,,,,,,,,,,wg-a,,,,AAXX 18214 07222 12/65 41802 10010 20000 30081 40114 58006 60006 80001 92100=
07222,1996-11-19 00:00:00,0,1008.5,-2.9,100,0,12000,11.112,,,150,,,,,,,,,,,wg-a,,,,AAXX 19004 07222 12662 /1506 10000 20000 30052 40085 58029 60006 83505 90000=
07222,1996-11-19 03:00:00,5,1001.9,-6.5,87,3,15000,22.224,,,160,,,,,,,,,,,wg-a,,,,AAXX 19034 07222 12665 71612 10050 20030 39987 40019 58065 60006 8357/ 90300=
07222,1996-11-19 06:00:00,9,991.6,-10.2,93,8,6000,46.3,,64.82,170,-0.3,8.7,,5,,,5,,,63,wg-a,,,,AAXX 19064 07222 02456 81725 10090 20080 39885 49916 58102 60054 76362 8657/ 90600 333 10087 21003 60057 91035=
07222,1996-11-19 09:00:00,10,984.6,-7,87,8,6000,38.892,,55.56,210,,,,12,,,,,,58,wg-a,,,,AAXX 19094 07222 12556 82121 10100 20080 39815 49846 56070 60127 75865 875// 90900 333 91030=
07222,1996-11-19 12:00:00,8,983.6,-1,87,6,12000,18.52,,40.744,260,,,,4,,,,,,25,wg-a,,,,AAXX 19124 07222 02462 72610 10080 20060 39805 49836 58010 60166 72586 8492/ 91200 333 60047 91022=
07222,1996-11-19 15:00:00,11,982,-1.6,71,6,20000,35.188,,57.412,250,,,,1,,,,,,3,wg-a,,,,AAXX 19154 07222 12570 62519 10110 20060 39789 49820 58016 60017 70386 85903 91500 333 91031=
07222,1996-11-19 18:00:00,8,981.5,-0.5,81,5,7000,46.3,,77.784,270,7.5,11.3,,3,,,,,,80,wg-a,,,,AAXX 19184 07222 12557 72725 10080 20050 39784 49815 56005 60037 78086 879// 91800 333 10113 20075 91042=
07222,1996-11-19 21:00:00,10,982.2,0.7,76,6,15000,38.892,,61.116,260,,,,0,,,,,,1,wg-a,,,,AAXX 19214 07222 12565 62621 10100 20060 39791 49822 53007 60007 70186 86800 92100 333 91033=
07222,1996-11-20 00:00:00,9,983.6,1.4,71,4,15000,42.596,,64.82,270,,,,1,,,,,,3,wg-a,,,,AAXX 20004 07222 02665 72723 10090 20040 39805 49836 51014 60016 70386 878// 90000 333 60017 91035=
07222,1996-11-20 03:00:00,8,986.5,2.9,71,3,15000,35.188,,,290,,,,1,,,,,,,wg-a,,,,AAXX 20034 07222 12565 /2919 10080 20030 39834 49865 53029 60017 81200 90300=
07222,1996-11-20 06:00:00,7,989.9,3.4,70,2,15000,31.484,,,290,6.8,9.8,,,,,21,,,3,wg-a,,,,AAXX 20064 07222 12565 52917 10070 20020 39868 49899 53034 60214 70386 81262 90600 333 10098 20068=
07222,1996-11-20 12:00:00,9,997.7,3.5,61,2,11000,46.3,,77.784,290,,,,,,,,,,,wg-a,,,,AAXX 20124 07222 12/61 /2925 10090 20020 39946 49977 51035 60006 91200 333 91042=
07222,1996-11-20 15:00:00,9,1001.3,3.6,57,1,500,31.484,,50.004,290,,,,,,,,,,,wg-a,,,,AAXX 20154 07222 12600 32917 10090 20010 39982 40013 51036 60006 82880 91500 333 91027=
07222,1996-11-20 18:00:00,6,1005,3.6,61,-1,500,14.816,,,290,5.8,9.8,,,,,,,,,wg-a,,,,AAXX 20184 07222 12600 /2908 10060 21010 30018 40050 53036 60006 81800 91800 333 10098 20058=
07222,1996-11-20 21:00:00,5,1007.2,2.2,70,0,20000,18.52,,,290,,,,,,,,,,,wg-a,,,,AAXX 20214 07222 12/70 02910 10050 20000 30040 40072 51022 60006 80000 92100=
07222,1996-11-21 00:00:00,4,1008.5,1.3,70,-1,20000,14.816,,,280,,,,,,,,,,,wg-a,,,,AAXX 21004 07222 12/70 02808 10040 21010 30053 40085 51013 60006 80000 90000=
07222,1996-11-21 03:00:00,3,1009.6,1.1,81,0,20000,7.408,,,290,,,,,,,,,,,wg-a,,,,AAXX 21034 07222 12/70 02904 10030 20000 30064 40096 52011 60006 80000 90300=
07222,1996-11-21 06:00:00,3,1010.6,1,81,0,15000,7.408,,,290,1.5,5.8,,,,,,,,,wg-a,,,,AAXX 21064 07222 02/65 32904 10030 20000 30074 40106 51010 60006 80001 90600 333 10058 20015 60004=
07222,1996-11-21 09:00:00,3,1011.5,0.9,87,1,15000,7.408,,,270,,,,,,,,,,,wg-a,,,,AAXX 21094 07222 12/65 72704 10030 20010 30083 40115 53009 60006 80002 90900=
07222,1996-11-21 12:00:00,6,1009.8,-1.7,81,3,15000,3.704,,,150,,,,,,,,,,,wg-a,,,,AAXX 21124 07222 12/65 81502 10060 20030 30066 40098 58017 60006 84037 91200=
07222,1996-11-21 15:00:00,6,1007,-2.8,81,3,15000,11.112,,,100,,,,,,,,,,,wg-a,,,,AAXX 21154 07222 12465 81006 10060 20030 30038 40070 56028 60006 8657/ 91500=
07222,1996-11-21 18:00:00,2,1005.6,-1.4,100,2,10000,14.816,,,80,1.5,6.5,,3,,,,,,61,wg-a,,,,AAXX 21184 07222 12360 80808 10020 20020 30024 40056 58014 60037 76162 875// 91800 333 10065 20015=
07222,1996-11-21 21:00:00,3,1007.6,2,93,2,8000,11.112,,,50,,,,1,,,,,,61,wg-a,,,,AAXX 21214 07222 12658 80506 10030 20020 30044 40076 53020 60017 76162 8552/ 92100=
07222,1996-11-22 00:00:00,2,1011.1,3.4,93,1,12000,11.112,,,340,,,,,,,,,,1,wg-a,,,,AAXX 22004 07222 02462 53406 10020 20010 30078 40111 53034 60016 70162 85800 90000 333 61000=
07222,1996-11-22 03:00:00,0,1014,2.9,93,-1,500,0,,,0,,,,0,,,,,,,wg-a,,,,AAXX 22034 07222 12700 /0000 10000 21010 30107 40140 53029 60007 81500 90300=
07222,1996-11-22 06:00:00,0,1016.5,2.5,100,0,200,0,,,0,-1.4,3.2,,,,,4,,,44,wg-a,,,,AAXX 22064 07222 12/02 90000 10000 20000 30132 40165 51025 60044 74441 89/// 90600 333 10032 21014=
07222,1996-11-22 12:00:00,2,1017.4,-0.5,100,2,800,11.112,,,160,,,,,,,,,,43,wg-a,,,,AAXX 22124 07222 12/08 91606 10020 20020 30141 40174 58005 60006 74344 89/// 91200=
07222,1996-11-22 15:00:00,4,1015.7,-1.6,93,3,7000,11.112,,,170,,,,,,,,,,1,wg-a,,,,AAXX 22154 07222 12357 71706 10040 20030 30125 40157 56016 60006 70142 85602 91500=
07222,1996-11-22 18:00:00,2,1014.1,-1.7,93,1,7000,14.816,,,160,-0.9,4,,,,,,,,,wg-a,,,,AAXX 22184 07222 12/57 /1608 10020 20010 30108 40141 56017 60006 91800 333 10040 21009=
07222,1996-11-22 21:00:00,1,1013.9,-0.2,100,1,500,14.816,,,140,,,,,,,,,,,wg-a,,,,AAXX 22214 07222 12200 71408 10010 20010 30106 40139 58002 60006 876// 92100=
07222,1996-11-23 00:00:00,2,1012.4,-1.4,100,2,10000,14.816,,,160,,,,,,,,,,,wg-a,,,,AAXX 23004 07222 12760 71608 10020 20020 30092 40124 56014 60006 875// 90000=
07222,1996-11-23 06:00:00,2,1013.2,1.6,100,2,1200,3.704,,,270,1.2,3.1,,2,,,3,,,10,wg-a,,,,AAXX 23064 07222 02112 72702 10020 20020 30100 40132 51016 60034 71062 87600 90600 333 10031 20012 60027=
07222,1996-11-23 09:00:00,2,1015.6,2.3,100,2,500,3.704,,,280,,,,,,,,,,28,wg-a,,,,AAXX 23094 07222 12100 92802 10020 20020 30123 40156 53023 60006 72841 8960/ 90900=
07222,1996-11-23 12:00:00,9,1017.4,1.9,76,5,20000,18.52,,,310,,,,,,,,,,3,wg-a,,,,AAXX 23124 07222 12570 23110 10090 20050 30142 40174 51019 60006 70341 82200 91200=
07222,1996-11-23 15:00:00,7,1019.5,2.1,70,2,25000,11.112,,,320,,,,,,,,,,,wg-a,,,,AAXX 23154 07222 12675 43206 10070 20020 30163 40195 53021 60006 84800 91500=
07222,1996-11-23 18:00:00,4,1022.6,3,81,1,15000,0,,,0,1.2,9.6,,,,,,,,,wg-a,,,,AAXX 23184 07222 12565 /0000 10040 20010 30193 40226 51030 60006 81200 91800 333 10096 20012=
07222,1996-11-23 21:00:00,4,1024.3,1.7,87,2,12000,11.112,,,290,,,,,,,,,,,wg-a,,,,AAXX 23214 07222 12762 12906 10040 20020 30210 40243 52017 60006 81500 92100=
07222,1996-11-24 00:00:00,2,1026,1.7,87,0,6000,3.704,,,310,,,,,,,,,,,wg-a,,,,AAXX 24004 07222 12/56 03102 10020 20000 30227 40260 53017 60006 80000 90000=
07222,1996-11-24 03:00:00,-2,1026.5,0.5,100,-2,6000,7.408,,,180,,,,,,,,,,,wg-a,,,,AAXX 24034 07222 12/56 01804 11020 21020 30232 40265 51005 60006 80000 90300=
07222,1996-11-24 06:00:00,-2,1027,0.4,93,-3,6000,7.408,,,160,-2.3,4.9,,,,,,,,,wg-a,,,,AAXX 24064 07222 02/56 01604 11020 21030 30236 40270 53004 60006 80000 90600 333 10049 21023 60004=
07222,1996-11-24 09:00:00,0,1027,0.1,100,0,10000,7.408,,,140,,,,,,,,,,,wg-a,,,,AAXX 24094 07222 12/60 71404 10000 20000 30237 40270 52001 60006 83036 90900=
07222,1996-11-24 12:00:00,6,1024.1,-2.8,87,4,12000,18.52,,,170,,,,0,,,,,,,wg-a,,,,AAXX 24124 07222 02662 71710 10060 20040 30209 40241 58028 60006 84536 91200 333 60007=
07222,1996-11-24 15:00:00,8,1020.5,-3.6,81,5,18000,25.928,,,180,,,,,,,,,,,wg-a,,,,AAXX 24154 07222 12568 71814 10080 20050 30173 40205 56036 60006 875// 91500=
07222,1996-11-24 18:00:00,9,1018,-2.5,81,6,15000,11.112,,,190,-2.4,8.6,,,,,,,,,wg-a,,,,AAXX 24184 07222 32665 71906 10090 20060 30148 40180 56025 875// 91800 333 10086 21024=
07222,1996-11-24 21:00:00,9,1014.6,-3.4,93,8,6000,14.816,,,210,,,,2,,,,,,63,wg-a,,,,AAXX 24214 07222 12556 82108 10090 20080 30114 40146 56034 60027 76362 875// 92100=
07222,1996-11-25 00:00:00,10,1009.8,-4.7,100,10,3500,29.632,,,210,,,,6,,,,,,63,wg-a,,,,AAXX 25004 07222 02235 82116 10100 20100 30067 40098 58047 60076 76362 887// 90000 333 60067=
07222,1996-11-25 03:00:00,13,1006.2,-3.6,100,13,3500,31.484,,,260,,,,7,,,,,,63,wg-a,,,,AAXX 25034 07222 12235 82617 10130 20130 30031 40062 56036 60077 76366 887// 90300=
07222,1996-11-25 06:00:00,12,1004.8,-1.4,100,12,15000,25.928,,,290,8.6,12.9,,2,,,17,,,21,wg-a,,,,AAXX 25064 07222 02265 72914 10120 20120 30017 40048 56014 60174 72165 877// 90600 333 10129 20086 60027=
07222,1996-11-25 09:00:00,10,1006.5,1.7,93,9,15000,18.52,,,280,,,,,,,,,,,wg-a,,,,AAXX 25094 07222 12665 72810 10100 20090 30034 40065 51017 60006 8357/ 90900=
07222,1996-11-25 12:00:00,12,1005.1,-1.4,94,11,15000,18.52,,,260,,,,,,,,,,,wg-a,,,,AAXX 25124 07222 12465 72610 10120 20110 30020 40051 58014 60006 878// 91200=
07222,1996-11-25 15:00:00,12,1003.3,-1.8,82,9,15000,25.928,,,280,,,,0,,,,,,3,wg-a,,,,AAXX 25154 07222 12565 62814 10120 20090 30002 40033 56018 60007 70386 85830 91500=
07222,1996-11-25 18:00:00,9,1004,0.7,93,8,20000,22.224,,,280,9.5,12.5,,1,,,,,,25,wg-a,,,,AAXX 25184 07222 12570 32812 10090 20080 30009 40040 53007 60017 72586 83800 91800 333 10125 20095=
07222,1996-11-25 21:00:00,8,1007.1,3,93,7,20000,18.52,,,300,,,,,,,,,,,wg-a,,,,AAXX 25214 07222 12/70 03010 10080 20070 30039 40071 51030 60006 80000 92100=
07222,1996-11-26 00:00:00,7,1009.5,2.4,93,6,20000,14.816,,,290,,,,,,,,,,,wg-a,,,,AAXX 26004 07222 12/70 02908 10070 20060 30063 40095 51024 60006 80000 90000=
07222,1996-11-26 03:00:00,6,1011.4,1.9,100,6,20000,14.816,,,300,,,,,,,,,,,wg-a,,,,AAXX 26034 07222 12670 33008 10060 20060 30082 40114 53019 60006 83500 90300=
07222,1996-11-26 06:00:00,5,1013.6,2.2,93,4,12000,11.112,,,300,5,9.5,,0,,,1,,,,wg-a,,,,AAXX 26064 07222 02/62 03006 10050 20040 30104 40136 52022 60014 80000 90600 333 10095 20050 60007=
07222,1996-11-26 09:00:00,6,1015.5,1.9,93,5,15000,7.408,,,310,,,,,,,,,,,wg-a,,,,AAXX 26094 07222 12/65 43104 10060 20050 30123 40155 53019 60006 80002 90900=
07222,1996-11-26 12:00:00,9,1016,0.5,76,5,18000,11.112,,,310,,,,,,,,,,,wg-a,,,,AAXX 26124 07222 12468 /3106 10090 20050 30128 40160 50005 60006 81102 91200=
07222,1996-11-26 15:00:00,9,1015.8,-0.2,81,6,18000,7.408,,,300,,,,,,,,,,,wg-a,,,,AAXX 26154 07222 12468 73004 10090 20060 30126 40158 56002 60006 82276 91500=
07222,1996-11-26 18:00:00,7,1015.2,-0.6,87,5,15000,0,,,0,3.7,9.5,,,,,,,,,wg-a,,,,AAXX 26184 07222 12765 70000 10070 20050 30120 40152 58006 60006 83576 91800 333 10095 20037=
07222,1996-11-26 21:00:00,6,1015.6,0.4,93,5,15000,7.408,,,120,,,,,,,,,,,wg-a,,,,AAXX 26214 07222 12765 81204 10060 20050 30124 40156 53004 60006 8257/ 92100=
07222,1996-11-27 00:00:00,6,1013.8,-1.8,93,5,12000,11.112,,,130,,,,0,,,,,,21,wg-a,,,,AAXX 27004 07222 02662 81306 10060 20050 30106 40138 58018 60006 72162 8257/ 90000 333 60007=
07222,1996-11-27 03:00:00,6,1011.6,-2.2,93,5,6000,18.52,,,140,,,,1,,,,,,21,wg-a,,,,AAXX 27034 07222 12256 81410 10060 20050 30084 40116 58022 60017 72122 877// 90300=
07222,1996-11-27 06:00:00,6,1007,-4.6,100,6,6000,22.224,,,150,5.4,6.6,,3,,,4,,,51,wg-a,,,,AAXX 27064 07222 02256 81512 10060 20060 30038 40070 56046 60044 75165 877// 90600 333 10066 20054 60037=
07222,1996-11-27 09:00:00,7,1002.9,-4.1,100,7,2000,14.816,,,150,,,,2,,,,,,10,wg-a,,,,AAXX 27094 07222 12120 81508 10070 20070 39997 40029 56041 60027 71065 877// 90900=
07222,1996-11-27 12:00:00,9,1002.5,-0.3,93,8,15000,35.188,,,300,,,,1,,,,,,20,wg-a,,,,AAXX 27124 07222 02465 73019 10090 20080 39994 40025 55003 60036 72065 877// 91200 333 60017=
07222,1996-11-27 15:00:00,11,1003.2,0.7,71,6,11000,38.892,,,290,,,,,,,,,,,wg-a,,,,AAXX 27154 07222 12/61 /2921 10110 20060 30001 40032 51007 60006 91500=
07222,1996-11-27 18:00:00,9,1004.8,1.6,76,5,15000,31.484,,,290,5.9,12.4,,,,,,,,,wg-a,,,,AAXX 27184 07222 32665 72917 10090 20050 30017 40048 51016 875// 91800 333 10124 20059=
07222,1996-11-28 00:00:00,3,1015.3,5.9,93,2,15000,14.816,,,340,,,,0,,,,,,1,wg-a,,,,AAXX 28004 07222 02465 /3408 10030 20020 30120 40153 51059 60006 70162 86500 90000 333 60007=
07222,1996-11-28 03:00:00,3,1018.1,2.8,93,2,12000,7.408,,,300,,,,,,,,,,,wg-a,,,,AAXX 28034 07222 12562 73004 10030 20020 30148 40181 51028 60006 875// 90300=
07222,1996-11-28 06:00:00,4,1020,1.9,93,3,6000,7.408,,,260,1.7,9.5,,0,,,4,,,21,wg-a,,,,AAXX 28064 07222 02556 82604 10040 20030 30167 40200 51019 60044 72162 875// 90600 333 10095 20017 60007=
07222,1996-11-28 09:00:00,5,1022.2,2.2,93,4,9000,3.704,,,310,,,,,,,,,,,wg-a,,,,AAXX 28094 07222 12/59 03102 10050 20040 30189 40222 51022 60006 80000 90900=
07222,1996-11-28 12:00:00,8,1023.2,1.1,71,3,15000,11.112,,,330,,,,,,,,,,,wg-a,,,,AAXX 28124 07222 12565 33306 10080 20030 30200 40232 51011 60006 83200 91200=
07222,1996-11-28 15:00:00,9,1023,-0.2,66,3,15000,7.408,,,310,,,,,,,,,,,wg-a,,,,AAXX 28154 07222 12665 /3104 10090 20030 30198 40230 58002 60006 81200 91500=
07222,1996-11-28 18:00:00,8,1023.2,1.1,71,3,15000,11.112,,,330,,,,,,,,,,,wg-a,,,,AAXX 28184 07222 12565 33306 10080 20030 30200 40232 51011 60006 83200 91800=
07222,1996-11-28 21:00:00,3,1024.1,0.3,100,3,6000,7.408,,,230,,,,,,,,,,,wg-a,,,,AAXX 28214 07222 12656 22304 10030 20030 30208 40241 50003 60006 82500 92100=
07222,1996-11-29 00:00:00,3,1023.1,-1,100,3,500,7.408,,,180,,,,,,,,,,,wg-a,,,,AAXX 29004 07222 12/00 71804 10030 20030 30198 40231 58010 60006 86072 90000=
07222,1996-11-29 03:00:00,7,1020.2,-2.8,93,6,10000,14.816,,,200,,,,,,,,,,61,wg-a,,,,AAXX 29034 07222 02560 82008 10070 20060 30170 40202 58028 61000 76162 8757/ 90300 333 ////=
07222,1996-11-29 06:00:00,10,1016.5,-3.7,100,10,3000,25.928,,44.448,240,2.6,10,,3,,,3,,,63,wg-a,,,,AAXX 29064 07222 02230 82414 10100 20100 30133 40165 56037 60034 76362 875// 90600 333 10100 20026 60037 91024=
07222,1996-11-29 09:00:00,12,1015.5,-0.9,94,11,6000,35.188,,53.708,270,,,,3,,,,,,61,wg-a,,,,AAXX 29094 07222 12356 82719 10120 20110 30124 40155 56009 60037 76166 875// 90900 333 91029=
07222,1996-11-29 12:00:00,12,1014.5,-1,94,11,8000,38.892,,,270,,,,1,,,,,,50,wg-a,,,,AAXX 29124 07222 02458 82721 10120 20110 30114 40145 58010 60036 75065 875// 91200 333 60017=
07222,1996-11-29 15:00:00,12,1012.9,-1.6,94,11,10000,31.484,,51.856,260,,,,,,,,,,20,wg-a,,,,AAXX 29154 07222 02460 82617 10120 20110 30098 40129 58016 61000 72052 875// 91500 333 //// 91028=
07222,1996-11-29 18:00:00,12,1011.7,-1.2,100,12,500,35.188,,53.708,270,10,13,,1,,,,,,50,wg-a,,,,AAXX 29184 07222 12200 82719 10120 20120 30086 40117 56012 60017 75052 877// 91800 333 10130 20100 91029=
07222,1996-11-29 21:00:00,12,1010.8,-0.9,94,11,10000,29.632,,,270,,,,,,,,,,20,wg-a,,,,AAXX 29214 07222 02360 82716 10120 20110 30077 40108 58009 61000 72052 877// 92100 333 ////=
07222,1996-11-30 00:00:00,12,1010.6,-0.2,100,12,8000,25.928,,,280,,,,0,,,,,,20,wg-a,,,,AAXX 30004 07222 02258 82814 10120 20120 30075 40106 57002 60006 72052 877// 90000 333 60007=
07222,1996-11-30 03:00:00,12,1010.4,-0.2,94,11,10000,31.484,,,280,,,,,,,,,,,wg-a,,,,AAXX 30034 07222 12460 82817 10120 20110 30073 40104 58002 60006 877// 90300=
07222,1996-11-30 06:00:00,12,1010,-0.4,94,11,10000,29.632,,,280,12,12.7,,,,,4,,,,wg-a,,,,AAXX 30064 07222 12460 82816 10120 20110 30069 40100 55004 60044 877// 90600 333 10127 20120=
07222,1996-11-30 09:00:00,12,1011.2,1.2,94,11,6000,29.632,,,290,,,,,,,,,,20,wg-a,,,,AAXX 30094 07222 02456 72916 10120 20110 30081 40112 53012 61000 72052 86501 90900 333 ////=
07222,1996-11-30 12:00:00,12,1012.1,0.9,100,12,2500,22.224,,,310,,,,2,,,,,,50,wg-a,,,,AAXX 30124 07222 02225 83112 10120 20120 30090 40121 51009 60026 75052 875// 91200 333 60027=
07222,1996-11-30 15:00:00,12,1012.9,0.8,94,11,15000,18.52,,,330,,,,2,,,,,,25,wg-a,,,,AAXX 30154 07222 12465 73310 10120 20110 30098 40129 53008 60027 72586 878// 91500=
07222,1996-11-30 18:00:00,11,1016.2,3.2,76,7,15000,14.816,,,330,10.7,12.7,,,,,,,,1,wg-a,,,,AAXX 30184 07222 32465 /3308 10110 20070 30130 40162 53032 70186 81530 91800 333 10127 20107=
07222,1996-11-30 21:00:00,9,1019.2,3,87,7,15000,7.408,,,310,,,,,,,,,,,wg-a,,,,AAXX 30214 07222 12/65 03104 10090 20070 30160 40192 51030 60006 80000 92100=
07222,1996-12-01 00:00:00,6,1021.6,2.4,100,6,10000,7.408,,,300,,,,,,,,,,,wg-a,,,,AAXX 01004 07222 12/60 33004 10060 20060 30184 40216 51024 60006 83030 90000=
07222,1996-12-01 03:00:00,5,1022.7,1.1,100,5,10000,3.704,,,300,,,,,,,,,,,wg-a,,,,AAXX 01034 07222 12/60 23002 10050 20050 30195 40227 51011 60006 80001 90300=
07222,1996-12-01 06:00:00,5,1023.4,0.6,93,4,6000,7.408,,,170,4.3,10.7,,,,,3,,,11,wg-a,,,,AAXX 01064 07222 02756 31704 10050 20040 30201 40234 53006 60006 71100 835/0 90600 333 10107 20043 60034=
07222,1996-12-01 09:00:00,8,1023.6,0.3,100,8,8000,7.408,,,180,,,,0,,,,,,,wg-a,,,,AAXX 01094 07222 12358 81804 10080 20080 30204 40236 52003 60007 875// 90900=
07222,1996-12-01 15:00:00,13,1020.6,-1.3,100,13,8000,25.928,,,280,,,,1,,,,,,21,wg-a,,,,AAXX 01154 07222 12258 82814 10130 20130 30175 40206 56013 60017 72165 877// 91500=
07222,1996-12-01 18:00:00,12,1020.6,-0.1,100,12,10000,22.224,,,260,4.4,13,,,,,,,,1,wg-a,,,,AAXX 01184 07222 02360 72612 10120 20120 30174 40206 57001 61000 70165 875// 91800 333 10130 20044 ////=
07222,1996-12-02 00:00:00,9,1022.5,0.9,93,8,10000,14.816,,,270,,,,,,,,,,,wg-a,,,,AAXX 02004 07222 12560 22708 10090 20080 30193 40225 51009 60006 82500 90000=
07222,1996-12-02 06:00:00,7,1024.5,0.9,87,5,8000,14.816,,,280,7.1,12.1,,,,,2,,,,wg-a,,,,AAXX 02064 07222 02/58 32808 10070 20050 30213 40245 51009 60006 83030 90600 333 10121 20071 60024=
07222,1996-12-02 12:00:00,11,1026,-0.2,71,6,15000,14.816,,,290,,,,,,,,,,,wg-a,,,,AAXX 02124 07222 12765 72908 10110 20060 30228 40260 58002 60006 875// 91200=
07222,1996-12-02 15:00:00,11,1024.7,-1.3,66,5,25000,18.52,,,280,,,,,,,,,,,wg-a,,,,AAXX 02154 07222 12575 72810 10110 20050 30215 40247 57013 60006 878// 91500=
07222,1996-12-02 18:00:00,9,1024.4,-0.3,81,6,20000,7.408,,,230,7.2,11.9,,,,,,,,,wg-a,,,,AAXX 02184 07222 12670 72304 10090 20060 30212 40244 57003 60006 8553/ 91800 333 10119 20072=
07222,1996-12-02 21:00:00,8,1023.2,-1.2,93,7,20000,11.112,,,210,,,,,,,,,,,wg-a,,,,AAXX 02214 07222 12770 72106 10080 20070 30200 40232 58012 60006 8757/ 92100=
07222,1996-12-03 00:00:00,9,1020.3,-2.9,87,7,15000,11.112,,,200,,,,,,,,,,,wg-a,,,,AAXX 03004 07222 12665 82006 10090 20070 30171 40203 56029 60006 8357/ 90000=
07222,1996-12-03 03:00:00,10,1016.8,-3.5,82,7,15000,18.52,,,200,,,,,,,,,,,wg-a,,,,AAXX 03034 07222 12565 82010 10100 20070 30136 40168 58035 60006 8357/ 90300=
07222,1996-12-03 06:00:00,11,1012.7,-4,82,8,15000,25.928,,,210,7.9,10.7,,,,,,,,,wg-a,,,,AAXX 03064 07222 02665 82114 10110 20080 30096 40127 58040 60006 875// 90600 333 10107 20079 60004=
07222,1996-12-03 09:00:00,11,1010.1,-2.6,94,10,6000,22.224,,,210,,,,,,,,,,50,wg-a,,,,AAXX 03094 07222 02356 72112 10110 20100 30070 40101 56026 61000 75052 875// 90900 333 ////=
07222,1996-12-03 12:00:00,12,1005.7,-4.4,88,10,10000,38.892,,,210,,,,,,,,,,3,wg-a,,,,AAXX 03124 07222 02460 72121 10120 20100 30026 40057 58044 61000 70352 875// 91200 333 6100=
07222,1996-12-03 15:00:00,12,1001.7,-4,94,11,3000,35.188,,,210,,,,3,,,,,,51,wg-a,,,,AAXX 03154 07222 12230 72119 10120 20110 39986 40017 57040 60037 75152 877// 91500=
07222,1996-12-03 18:00:00,9,1001.2,-0.5,100,9,8000,14.816,,,280,9.3,12.8,,4,,,,,,61,wg-a,,,,AAXX 03184 07222 12558 72808 10090 20090 39981 40012 55005 60047 76165 875// 91800 333 10128 20093=
07222,1996-12-03 21:00:00,9,1002.3,1.1,100,9,500,14.816,,,240,,,,4,,,,,,61,wg-a,,,,AAXX 03214 07222 12200 82408 10090 20090 39992 40023 53011 60047 76166 877// 92100=
07222,1996-12-04 00:00:00,8,1003.6,1.2,93,7,8000,11.112,,,250,,,,2,,,,,,21,wg-a,,,,AAXX 04004 07222 02458 82506 10080 20070 30004 40036 52012 60066 72162 875// 90000 333 60027=
07222,1996-12-04 03:00:00,7,1004.2,0.6,100,7,12000,11.112,,,160,,,,,,,,,,,wg-a,,,,AAXX 04034 07222 12562 81606 10070 20070 30010 40042 53006 60006 875// 90300=
07222,1996-12-04 06:00:00,6,1004.8,0.6,100,6,12000,7.408,,,160,6.3,9.3,,,,,13,,,,wg-a,,,,AAXX 04064 07222 12762 71604 10060 20060 30016 40048 53006 60134 875// 90600 333 10093 20063=
07222,1996-12-04 09:00:00,7,1006.2,1.4,100,7,15000,7.408,,,150,,,,0,,,,,,,wg-a,,,,AAXX 04094 07222 12565 71504 10070 20070 30030 40062 53014 60007 83832 90900=
07222,1996-12-04 12:00:00,9,1006.5,0.3,87,7,20000,7.408,,,160,,,,,,,,,,,wg-a,,,,AAXX 04124 07222 12570 71604 10090 20070 30033 40065 50003 60006 8387/ 91200=
07222,1996-12-04 15:00:00,9,1006.8,0.4,93,8,20000,3.704,,,170,,,,,,,,,,,wg-a,,,,AAXX 04154 07222 12470 71702 10090 20080 30037 40068 51004 60006 878// 91500=
07222,1996-12-04 18:00:00,7,1007.9,1,87,5,18000,3.704,,,280,5.3,9.6,,,,,,,,,wg-a,,,,AAXX 04184 07222 32568 72802 10070 20050 30047 40079 53010 8783/ 91800 333 10096 20053=
07222,1996-12-04 21:00:00,6,1009.5,1.6,93,5,10000,7.408,,,350,,,,,,,,,,,wg-a,,,,AAXX 04214 07222 12560 73504 10060 20050 30063 40095 51016 60006 8453/ 92100=
07222,1996-12-05 00:00:00,5,1010.5,1,93,4,10000,0,,,0,,,,,,,,,,,wg-a,,,,AAXX 05004 07222 12560 70000 10050 20040 30073 40105 51010 60006 82501 90000=
07222,1996-12-05 03:00:00,5,1011.4,0.9,100,5,9000,7.408,,,80,,,,,,,,,,,wg-a,,,,AAXX 05034 07222 12459 70804 10050 20050 30082 40114 53009 60006 81501 90300=
07222,1996-12-05 06:00:00,4,1011.5,0.1,100,4,4000,3.704,,,350,3.4,6.8,,,,,,,,10,wg-a,,,,AAXX 05064 07222 02/40 73502 10040 20040 30083 40115 53001 60006 71022 80001 90600 333 10068 20034 60004=
07222,1996-12-05 09:00:00,5,1013.2,1.7,100,5,200,11.112,,,70,,,,,,,,,,45,wg-a,,,,AAXX 05094 07222 12/02 90706 10050 20050 30100 40132 51017 60006 74542 89/// 90900=
07222,1996-12-05 12:00:00,6,1013.6,0.4,100,6,3000,11.112,,,50,,,,,,,,,,10,wg-a,,,,AAXX 05124 07222 12230 70506 10060 20060 30104 40136 50004 60006 71042 876// 91200=
07222,1996-12-05 15:00:00,6,1012.7,-0.9,93,5,6000,11.112,,,20,,,,,,,,,,,wg-a,,,,AAXX 05154 07222 12356 60206 10060 20050 30095 40127 56009 60006 83601 91500=
07222,1996-12-05 18:00:00,4,1013.5,0.8,100,4,500,11.112,,,350,3.5,6.4,,,,,,,,,wg-a,,,,AAXX 05184 07222 12200 /3506 10040 20040 30103 40135 53008 60006 85601 91800 333 10064 20035=
07222,1996-12-05 21:00:00,4,1014,0.5,100,4,8000,11.112,,,20,,,,0,,,,,,,wg-a,,,,AAXX 05214 07222 12358 70206 10040 20040 30108 40140 53005 60007 82601 92100=
07222,1996-12-06 00:00:00,5,1013.2,-0.8,87,3,10000,18.52,,,40,,,,,,,,,,60,wg-a,,,,AAXX 06004 07222 02660 70410 10050 20030 30100 40132 56008 60006 76061 8557/ 90000 333 61000=
07222,1996-12-06 03:00:00,5,1012.6,-0.6,93,4,10000,18.52,,,30,,,,1,,,,,,61,wg-a,,,,AAXX 06034 07222 12660 70310 10050 20040 30094 40126 57006 60017 76166 8557/ 90300=
07222,1996-12-06 06:00:00,5,1012.2,-0.4,93,4,10000,18.52,,,40,3.8,5.4,,1,,,2,,,61,wg-a,,,,AAXX 06064 07222 02560 80410 10050 20040 30090 40122 55004 60024 76166 875// 90600 333 10054 20038 60017=
07222,1996-12-06 09:00:00,6,1013,0.8,93,5,3000,18.52,,,40,,,,1,,,,,,51,wg-a,,,,AAXX 06094 07222 12230 80410 10060 20050 30098 40130 52008 60017 75165 887// 90900=
07222,1996-12-06 12:00:00,6,1012.9,-0.1,100,6,3000,14.816,,,40,,,,1,,,,,,51,wg-a,,,,AAXX 06124 07222 02230 80408 10060 20060 30097 40129 58001 60016 75165 877// 91200 333 60017=
07222,1996-12-06 18:00:00,7,1015.4,2,100,7,3500,3.704,,,40,5.3,7.1,,0,,,,,,10,wg-a,,,,AAXX 06184 07222 12235 80402 10070 20070 30122 40154 53020 60007 71065 877// 91800 333 10071 20053=
07222,1996-12-06 21:00:00,7,1016.9,1.5,100,7,3000,3.704,,,50,,,,,,,,,,10,wg-a,,,,AAXX 06214 07222 12130 80502 10070 20070 30137 40169 51015 60006 71022 886// 92100=
07222,1996-12-07 00:00:00,7,1017.8,0.9,100,7,4000,3.704,,,20,,,,,,,,,,10,wg-a,,,,AAXX 07004 07222 12140 80202 10070 20070 30146 40178 51009 60006 71022 885// 90000=
07222,1996-12-07 03:00:00,7,1018.2,0.4,100,7,7000,7.408,,,30,,,,,,,,,,,wg-a,,,,AAXX 07034 07222 12257 80304 10070 20070 30150 40182 53004 60006 886// 90300=
07222,1996-12-07 06:00:00,8,1018.9,0.7,100,8,3500,11.112,,,40,7.1,7.7,,,,,3,,,10,wg-a,,,,AAXX 07064 07222 02235 80406 10080 20080 30157 40189 53007 60006 71022 886// 90600 333 10077 20071 60034=
07222,1996-12-07 09:00:00,7,1020.5,1.6,100,7,3500,11.112,,,50,,,,,,,,,,10,wg-a,,,,AAXX 07094 07222 12235 80506 10070 20070 30173 40205 53016 60006 71022 886// 90900=
07222,1996-12-07 12:00:00,8,1020.8,0.3,93,7,6000,14.816,,,40,,,,,,,,,,,wg-a,,,,AAXX 07124 07222 12356 80408 10080 20070 30176 40208 50003 60006 876// 91200=
07222,1996-12-07 15:00:00,9,1020.7,-0.1,87,7,8000,14.816,,,50,,,,,,,,,,,wg-a,,,,AAXX 07154 07222 12758 30508 10090 20070 30175 40207 57001 60006 83500 91500=
07222,1996-12-07 18:00:00,7,1022.1,1.4,93,6,7000,7.408,,,30,6.7,8.9,,,,,,,,,wg-a,,,,AAXX 07184 07222 12757 /0304 10070 20060 30189 40221 52014 60006 81500 91800 333 10089 20067=
07222,1996-12-07 21:00:00,7,1023,0.9,93,6,4000,7.408,,,50,,,,,,,,,,10,wg-a,,,,AAXX 07214 07222 12/40 00504 10070 20060 30198 40230 51009 60006 71000 80000 92100=
07222,1996-12-08 00:00:00,4,1023.5,0.4,100,4,3000,7.408,,,30,,,,,,,,,,10,wg-a,,,,AAXX 08004 07222 12/30 00304 10040 20040 30202 40235 50004 60006 71000 80000 90000=
07222,1996-12-08 03:00:00,4,1023.1,-0.4,100,4,4000,7.408,,,40,,,,,,,,,,10,wg-a,,,,AAXX 08034 07222 32/40 00404 10040 20040 30198 40231 56004 71000 80000 90300=
07222,1996-12-08 06:00:00,3,1023.1,-0,100,3,4000,7.408,,,40,2.7,7.5,,,,,,,,10,wg-a,,,,AAXX 08064 07222 12/40 00404 10030 20030 30198 40231 55000 60004 71000 80000 90600 333 10075 20027=
07222,1996-12-08 09:00:00,4,1024.2,1.1,93,3,6000,11.112,,,30,,,,,,,,,,,wg-a,,,,AAXX 08094 07222 32/56 00306 10040 20030 30209 40242 52011 80000 90900=
07222,1996-12-08 12:00:00,9,1023.1,-1,71,4,10000,14.816,,,50,,,,,,,,,,,wg-a,,,,AAXX 08124 07222 12/60 00508 10090 20040 30199 40231 57010 60006 80000 91200=
07222,1996-12-08 15:00:00,10,1021.5,-1.6,71,5,15000,7.408,,,20,,,,,,,,,,,wg-a,,,,AAXX 08154 07222 12/65 00204 10100 20050 30183 40215 56016 60006 80000 91500=
07222,1996-12-08 18:00:00,7,1021.5,-0,93,6,10000,11.112,,,30,2.4,10.3,,,,,,,,,wg-a,,,,AAXX 08184 07222 32/60 00306 10070 20060 30183 40215 54000 80000 91800 333 10103 20024=
07222,1996-12-08 21:00:00,5,1022,0.5,87,3,7000,11.112,,,50,,,,,,,,,,,wg-a,,,,AAXX 08214 07222 12/57 00506 10050 20030 30188 40220 51005 60006 80000 92100=
07222,1996-12-09 00:00:00,2,1022,-0.1,93,1,4000,18.52,,,70,,,,,,,,,,10,wg-a,,,,AAXX 09004 07222 12240 70710 10020 20010 30187 40220 58001 60006 71011 87600 90000=
07222,1996-12-09 03:00:00,1,1021,-1,100,1,4000,18.52,,,70,,,,,,,,,,10,wg-a,,,,AAXX 09034 07222 12140 70710 10010 20010 30177 40210 58010 60006 71022 87600 90300=
07222,1996-12-09 06:00:00,1,1020.2,-0.8,93,0,3000,18.52,,,70,0.7,7.3,,,,,,,,10,wg-a,,,,AAXX 09064 07222 02130 70710 10010 20000 30169 40202 58008 60006 71022 876// 90600 333 10073 20007 60004=
07222,1996-12-09 09:00:00,1,1020.9,0.7,93,0,2500,11.112,,,30,,,,,,,,,,10,wg-a,,,,AAXX 09094 07222 12125 80306 10010 20000 30176 40209 53007 60006 71022 876// 90900=
07222,1996-12-09 12:00:00,1,1019.6,-1.3,93,0,3000,14.816,,,50,,,,,,,,,,10,wg-a,,,,AAXX 09124 07222 12230 80508 10010 20000 30163 40196 58013 60006 71022 876// 91200=
07222,1996-12-09 15:00:00,1,1018.1,-1.5,93,0,3000,18.52,,,60,,,,,,,,,,10,wg-a,,,,AAXX 09154 07222 12230 80610 10010 20000 30148 40181 56015 60006 71022 876// 91500=
07222,1996-12-09 18:00:00,1,1018,-0.1,93,0,3500,22.224,,,60,0.6,1.2,,,,,,,,10,wg-a,,,,AAXX 09184 07222 12235 80612 10010 20000 30147 40180 55001 60006 71022 876// 91800 333 10012 20006=
07222,1996-12-09 21:00:00,1,1017.6,-0.4,86,-1,4000,18.52,,,60,,,,,,,,,,10,wg-a,,,,AAXX 09214 07222 12240 80610 10010 21010 30143 40176 58004 60006 71022 886// 92100=
07222,1996-12-10 00:00:00,1,1016.4,-1.2,93,0,4000,14.816,,,70,,,,,,,,,,10,wg-a,,,,AAXX 10004 07222 12240 80708 10010 20000 30131 40164 58012 60006 71022 886// 90000=
07222,1996-12-10 03:00:00,1,1015.4,-1,93,0,4000,18.52,,,60,,,,,,,,,,10,wg-a,,,,AAXX 10034 07222 12240 80610 10010 20000 30121 40154 58010 60006 71022 886// 90300=
07222,1996-12-10 06:00:00,0,1014.7,-0.7,93,-1,4000,18.52,,,60,0.3,0.9,,,,,,,,10,wg-a,,,,AAXX 10064 07222 02240 80610 10000 21010 30114 40147 56007 60006 71022 886// 90600 333 10009 20003 60004=
07222,1996-12-10 09:00:00,1,1015,0.3,93,0,3000,18.52,,,70,,,,,,,,,,10,wg-a,,,,AAXX 10094 07222 12230 80710 10010 20000 30117 40150 53003 60006 71022 886// 90900=
07222,1996-12-10 12:00:00,2,1014.6,-0.4,93,1,3000,11.112,,,60,,,,,,,,,,10,wg-a,,,,AAXX 10124 07222 12230 80606 10020 20010 30113 40146 58004 60006 71022 886// 91200=
07222,1996-12-10 15:00:00,3,1013.6,-0.9,93,2,2000,14.816,,,60,,,,,,,,,,10,wg-a,,,,AAXX 10154 07222 12220 80608 10030 20020 30104 40136 55009 60006 71022 886// 91500=
07222,1996-12-10 18:00:00,3,1014.2,0.6,100,3,2000,14.816,,,80,0,3.4,,,,,,,,10,wg-a,,,,AAXX 10184 07222 12120 80808 10030 20030 30110 40142 53006 60006 71022 886// 91800 333 10034 20000=
07222,1996-12-10 21:00:00,4,1014.4,0.2,100,4,2000,18.52,,,80,,,,,,,,,,10,wg-a,,,,AAXX 10214 07222 12120 80810 10040 20040 30112 40144 50002 60006 71022 886// 92100=
07222,1996-12-11 00:00:00,4,1014.4,0,100,4,2500,14.816,,,70,,,,,,,,,,10,wg-a,,,,AAXX 11004 07222 12125 80708 10040 20040 30112 40144 50000 60006 71022 886// 90000=
07222,1996-12-11 03:00:00,2,1014.3,-0.2,100,2,1800,18.52,,,90,,,,,,,,,,10,wg-a,,,,AAXX 11034 07222 12118 80910 10020 20020 30110 40143 58002 60006 71022 886// 90300=
07222,1996-12-11 06:00:00,1,1013.6,-0.7,100,1,1200,18.52,,,70,1.3,4.5,,,,,,,,10,wg-a,,,,AAXX 11064 07222 02112 80710 10010 20010 30103 40136 56007 60006 71022 886// 90600 333 10045 20013 60004=
07222,1996-12-11 09:00:00,1,1014.1,0.5,100,1,1000,22.224,,,70,,,,,,,,,,10,wg-a,,,,AAXX 11094 07222 12110 80712 10010 20010 30108 40141 51005 60006 71042 886// 90900=
07222,1996-12-11 12:00:00,1,1013.4,,100,1,3500,22.224,,,70,,,,,,,,,,10,wg-a,,,,AAXX 11124 07222 12135 80712 10010 20010 30101 40134 60006 71042 876// 91200=
07222,1996-12-11 15:00:00,1,1011.4,-2,93,0,3000,25.928,,,70,,,,,,,,,,10,wg-a,,,,AAXX 11154 07222 12130 80714 10010 20000 30081 40114 56020 60006 71022 876// 91500=
07222,1996-12-11 18:00:00,1,1010.6,-0.8,93,0,2500,22.224,,,70,0.3,1.8,,,,,,,,10,wg-a,,,,AAXX 11184 07222 12125 80712 10010 20000 30073 40106 58008 60006 71022 876// 91800 333 10018 20003=
07222,1996-12-11 21:00:00,1,1010,-0.6,93,0,2000,18.52,,,70,,,,,,,,,,10,wg-a,,,,AAXX 11214 07222 12120 80710 10010 20000 30067 40100 57006 60006 71022 886// 92100=
07222,1996-12-12 00:00:00,1,1009.4,-0.6,100,1,2000,22.224,,,70,,,,,,,,,,10,wg-a,,,,AAXX 12004 07222 12120 80712 10010 20010 30061 40094 58006 60006 71022 886// 90000=
07222,1996-12-12 03:00:00,1,1008,-1.3,100,1,2500,18.52,,,70,,,,,,,,,,10,wg-a,,,,AAXX 12034 07222 12125 80710 10010 20010 30048 40080 56013 60006 71022 886// 90300=
07222,1996-12-12 06:00:00,3,1007.6,-0.4,93,2,7000,11.112,,,70,0.5,2.5,,,,,,,,60,wg-a,,,,AAXX 12064 07222 02557 80706 10030 20020 30044 40076 57004 61000 76062 8657/ 90600 333 10025 20005 6100=
07222,1996-12-12 09:00:00,4,1007.8,0.2,100,4,500,11.112,,,60,,,,2,,,,,,61,wg-a,,,,AAXX 12094 07222 12300 80606 10040 20040 30046 40078 52002 60027 76166 877// 90900=
07222,1996-12-12 12:00:00,6,1006.7,-1.1,100,6,3000,11.112,,,60,,,,0,,,,,,61,wg-a,,,,AAXX 12124 07222 02330 80606 10060 20060 30035 40067 58011 60026 76166 877// 91200 333 60007=
07222,1996-12-12 15:00:00,7,1005.1,-1.6,93,6,3000,7.408,,,40,,,,0,,,,,,10,wg-a,,,,AAXX 12154 07222 12330 80404 10070 20060 30019 40051 56016 60007 71062 886// 91500=
07222,1996-12-12 18:00:00,6,1004.9,-0.2,100,6,2000,7.408,,,30,2.5,7.1,,,,,,,,,wg-a,,,,AAXX 12184 07222 32/20 /0304 10060 20060 30017 40049 55002 91800 333 10071 20025=
07222,1996-12-12 21:00:00,6,1004.7,-0.2,100,6,700,3.704,,,70,,,,,,,,,,43,wg-a,,,,AAXX 12214 07222 12/07 90702 10060 20060 30015 40047 58002 60006 74342 89/// 92100=
07222,1996-12-13 00:00:00,6,1004,-0.7,100,6,1500,3.704,,,100,,,,,,,,,,10,wg-a,,,,AAXX 13004 07222 12115 81002 10060 20060 30008 40040 58007 60006 71042 886// 90000=
07222,1996-12-13 03:00:00,7,1002.6,-1.4,100,7,300,0,,,0,,,,,,,,,,45,wg-a,,,,AAXX 13034 07222 12/03 90000 10070 20070 39994 40026 56014 60006 74542 89/// 90300=
07222,1996-12-13 06:00:00,7,1001.5,-1.1,100,7,200,7.408,,,50,6.2,6.9,,,,,2,,,43,wg-a,,,,AAXX 13064 07222 02/02 90504 10070 20070 39983 40015 56011 60006 74342 89/// 90600 333 10069 20062 60024=
07222,1996-12-13 09:00:00,7,1001.4,-0.1,100,7,300,7.408,,,30,,,,,,,,,,45,wg-a,,,,AAXX 13094 07222 32/03 90304 10070 20070 39982 40014 55001 74544 89/// 90900=
07222,1996-12-13 12:00:00,7,1001.1,-0.2,100,7,1200,11.112,,,30,,,,,,,,,,10,wg-a,,,,AAXX 13124 07222 12112 80306 10070 20070 39980 40011 58002 60006 71042 876// 91200=
07222,1996-12-13 15:00:00,7,1000.5,-0.6,100,7,3500,14.816,,,30,,,,,,,,,,10,wg-a,,,,AAXX 13154 07222 02135 80308 10070 20070 39974 40005 55006 61000 71062 877// 91500 333 ////=
07222,1996-12-13 18:00:00,7,1000.5,-0.1,93,6,4000,11.112,,,30,6.6,7.6,,1,,,,,,10,wg-a,,,,AAXX 13184 07222 12240 80306 10070 20060 39973 40005 58001 60017 71062 877// 91800 333 10076 20066=
07222,1996-12-13 21:00:00,6,1001.7,1.2,100,6,7000,14.816,,,30,,,,1,,,,,,10,wg-a,,,,AAXX 13214 07222 12257 80308 10060 20060 39985 40017 51012 60017 71062 877// 92100=
07222,1996-12-14 00:00:00,5,1003,1.3,93,4,10000,25.928,,,60,,,,,,,,,,1,wg-a,,,,AAXX 14004 07222 12460 80614 10050 20040 39998 40030 51013 60016 70162 877// 90000=
07222,1996-12-14 03:00:00,5,1004.3,1.3,87,3,10000,22.224,,,50,,,,,,,,,,,wg-a,,,,AAXX 14034 07222 12460 80512 10050 20030 30011 40043 53013 60006 875// 90300=
07222,1996-12-14 06:00:00,4,1006.7,2.4,87,2,10000,18.52,,,50,4.1,6.6,,,,,2,,,,wg-a,,,,AAXX 14064 07222 12460 /0510 10040 20020 30035 40067 53024 60024 86500 90600 333 10066 20041=
07222,1996-12-14 09:00:00,2,1009.5,2.8,87,0,10000,14.816,,,40,,,,,,,,,,,wg-a,,,,AAXX 14094 07222 12/60 10408 10020 20000 30063 40095 51028 60006 80001 90900=
07222,1996-12-14 12:00:00,5,1011.3,1.8,60,-2,20000,18.52,,,40,,,,,,,,,,,wg-a,,,,AAXX 14124 07222 12/70 20410 10050 21020 30081 40113 51018 60006 80001 91200=
07222,1996-12-14 15:00:00,5,1012.6,1.3,48,-5,25000,14.816,,,40,,,,,,,,,,,wg-a,,,,AAXX 14154 07222 12/75 20408 10050 21050 30094 40126 53013 60006 80001 91500=
07222,1996-12-14 18:00:00,1,1014.8,2.1,69,-4,25000,11.112,,,10,0.6,5.5,,,,,,,,,wg-a,,,,AAXX 14184 07222 12/75 00106 10010 21040 30115 40148 51021 60006 80000 91800 333 10055 20006=
07222,1996-12-15 00:00:00,-2,1017.4,0.9,86,-4,20000,3.704,,,20,,,,,,,,,,,wg-a,,,,AAXX 15004 07222 12/70 00202 11020 21040 30141 40174 52009 60006 80000 90000=
07222,1996-12-15 06:00:00,-3,1018.1,0.4,93,-4,10000,0,,,0,-3.4,1,,,,,,,,,wg-a,,,,AAXX 15064 07222 02/60 00000 11030 21040 30148 40181 52004 60006 80000 90600 333 10010 21034 60004=
07222,1996-12-15 09:00:00,-2,1019,0.9,93,-3,12000,3.704,,,100,,,,,,,,,,,wg-a,,,,AAXX 15094 07222 12/62 01002 11020 21030 30157 40190 51009 60006 80000 90900=
07222,1996-12-15 12:00:00,6,1018.9,0,56,-2,15000,3.704,,,170,,,,,,,,,,,wg-a,,,,AAXX 15124 07222 12/65 01702 10060 21020 30157 40189 50000 60006 80000 91200=
07222,1996-12-15 15:00:00,6,1017.9,-1,56,-2,20000,11.112,,,60,,,,,,,,,,,wg-a,,,,AAXX 15154 07222 12/70 30606 10060 21020 30147 40179 56010 60006 80001 91500=
07222,1996-12-15 18:00:00,3,1018.5,0.5,75,-1,10000,11.112,,,60,-3.9,6.9,,,,,,,,,wg-a,,,,AAXX 15184 07222 32/60 00606 10030 21010 30152 40185 51005 80000 91800 333 10069 21039=
07222,1996-12-15 21:00:00,2,1017.7,-0.8,75,-2,10000,11.112,,,70,,,,,,,,,,,wg-a,,,,AAXX 15214 07222 12/60 00706 10020 21020 30144 40177 58008 60006 80000 92100=
07222,1996-12-16 00:00:00,0,1016.7,-1,80,-3,10000,7.408,,,70,,,,,,,,,,,wg-a,,,,AAXX 16004 07222 12/60 00704 10000 21030 30134 40167 58010 60006 80000 90000=
07222,1996-12-16 03:00:00,-1,1015.5,-1.2,86,-3,10000,7.408,,,50,,,,,,,,,,,wg-a,,,,AAXX 16034 07222 12/60 00504 11010 21030 30122 40155 56012 60006 80000 90300=
07222,1996-12-16 06:00:00,-1,1014.5,-1,86,-3,10000,7.408,,,110,-1.6,3.1,,,,,,,,,wg-a,,,,AAXX 16064 07222 02460 /1104 11010 21030 30112 40145 55010 60006 85500 90600 333 10031 21016 60004=
07222,1996-12-16 12:00:00,2,1013,-1,100,2,1800,14.816,,,140,,,,,,,,,,10,wg-a,,,,AAXX 16124 07222 12118 81408 10020 20020 30097 40130 58010 60006 71022 886// 91200=
07222,1996-12-16 15:00:00,2,1011.6,-1.3,100,2,3500,22.224,,,150,,,,,,,,,,10,wg-a,,,,AAXX 16154 07222 12235 81512 10020 20020 30084 40116 55013 60006 71022 886// 91500=
07222,1996-12-16 18:00:00,3,1011.6,-0,93,2,4000,22.224,,,140,-1.2,2.6,,,,,,,,10,wg-a,,,,AAXX 16184 07222 12240 81412 10030 20020 30084 40116 55000 60006 71022 885// 91800 333 10026 21012=
07222,1996-12-16 21:00:00,4,1011,-0.6,93,3,6000,22.224,,,140,,,,,,,,,,,wg-a,,,,AAXX 16214 07222 12456 81412 10040 20030 30078 40110 58006 60006 8/501 92100=
07222,1996-12-17 00:00:00,6,1010.1,-0.9,93,5,500,18.52,,,160,,,,1,,,,,,21,wg-a,,,,AAXX 17004 07222 02700 81610 10060 20050 30069 40101 58009 60016 72162 875// 90000 333 60017=
07222,1996-12-17 03:00:00,7,1009.6,-0.5,93,6,7000,22.224,,,160,,,,,,,,,,,wg-a,,,,AAXX 17034 07222 12457 81612 10070 20060 30064 40096 56005 60006 875// 90300=
07222,1996-12-17 06:00:00,8,1009.5,-0.1,100,8,4500,18.52,,,180,2.6,7.7,,2,,,3,,,10,wg-a,,,,AAXX 17064 07222 02245 81810 10080 20080 30063 40095 55001 60034 71065 877// 90600 333 10077 20026 60027=
07222,1996-12-17 09:00:00,9,1010.6,1.1,93,8,2500,18.52,,,170,,,,1,,,,,,50,wg-a,,,,AAXX 17094 07222 12125 81710 10090 20080 30074 40106 53011 60017 75052 877// 90900=
07222,1996-12-17 12:00:00,11,1010.6,0.1,87,9,8000,22.224,,,180,,,,,,,,,,,wg-a,,,,AAXX 17124 07222 12/58 /1812 10110 20090 30075 40106 50001 60016 91200=
07222,1996-12-17 15:00:00,11,1010.1,-0.5,87,9,12000,14.816,,,180,,,,,,,,,,,wg-a,,,,AAXX 17154 07222 12762 61808 10110 20090 30070 40101 55005 60006 855/1 91500=
07222,1996-12-17 18:00:00,9,1009.2,-1,93,8,12000,18.52,,,140,7.7,12,,,,,,,,,wg-a,,,,AAXX 17184 07222 12/62 21410 10090 20080 30060 40092 56010 60006 80001 91800 333 10120 20077=
07222,1996-12-17 21:00:00,8,1008.7,-0.5,93,7,10000,14.816,,,140,,,,,,,,,,,wg-a,,,,AAXX 17214 07222 12/60 01408 10080 20070 30055 40087 58005 60006 80000 92100=
07222,1996-12-18 00:00:00,8,1007.5,-1.2,93,7,10000,22.224,,,140,,,,,,,,,,,wg-a,,,,AAXX 18004 07222 12/60 01412 10080 20070 30043 40075 58012 60006 80000 90000=
07222,1996-12-18 03:00:00,9,1006.1,-1.4,87,7,10000,18.52,,,140,,,,,,,,,,,wg-a,,,,AAXX 18034 07222 12760 71410 10090 20070 30029 40061 58014 60006 875// 90300=
07222,1996-12-18 06:00:00,8,1004.3,-1.8,87,6,10000,18.52,,,150,7.7,9.6,,,,,1,,,,wg-a,,,,AAXX 18064 07222 02760 11510 10080 20060 30011 40043 56018 60006 81500 90600 333 10096 20077 60014=
07222,1996-12-18 09:00:00,9,1003.9,-0.3,87,7,12000,18.52,,,150,,,,,,,,,,,wg-a,,,,AAXX 18094 07222 12762 71510 10090 20070 30008 40039 56003 60006 83532 90900=
07222,1996-12-18 12:00:00,10,1002.7,-1.2,87,8,15000,14.816,,,160,,,,0,,,,,,21,wg-a,,,,AAXX 18124 07222 02665 81608 10100 20080 39996 40027 58012 60006 72161 8557/ 91200 333 60007=
07222,1996-12-18 15:00:00,11,1001.1,-1.6,94,10,500,14.816,,,160,,,,0,,,,,,61,wg-a,,,,AAXX 18154 07222 12400 71608 10110 20100 39980 40011 56016 60007 76162 875// 91500=
07222,1996-12-18 18:00:00,10,1001.4,0.3,100,10,2000,3.704,,,190,7.7,11,,,,,,,,10,wg-a,,,,AAXX 18184 07222 02220 81902 10100 20100 39983 40014 51003 61000 71062 8477/ 91800 333 10110 20077 6005=
07222,1996-12-18 21:00:00,10,1001.9,0.5,100,10,400,7.408,,,260,,,,,,,,,,45,wg-a,,,,AAXX 18214 07222 32/04 92604 10100 20100 39988 40019 51005 74564 89/// 92100=
07222,1996-12-19 00:00:00,9,1001.8,-0.1,100,9,400,3.704,,,170,,,,,,,,,,45,wg-a,,,,AAXX 19004 07222 12/04 91702 10090 20090 39987 40018 57001 60006 74564 89/// 90000=
07222,1996-12-19 03:00:00,10,1001.6,-0.2,100,10,400,0,,,0,,,,,,,,,,,wg-a,,,,AAXX 19034 07222 32/04 /0000 10100 20100 39985 40016 56002 90300=
07222,1996-12-19 06:00:00,10,1000.1,-1.5,100,10,900,7.408,,,120,8.6,10.1,,,,,6,,,43,wg-a,,,,AAXX 19064 07222 02/09 91204 10100 20100 39970 40001 56015 60006 74344 89/// 90600 333 10101 20086 60064=
07222,1996-12-19 09:00:00,10,1000.3,0.2,100,10,1300,7.408,,,130,,,,0,,,,,,10,wg-a,,,,AAXX 19094 07222 12113 81304 10100 20100 39972 40003 53002 60007 71054 885// 90900=
07222,1996-12-19 12:00:00,11,998.8,-1.5,100,11,3500,11.112,,,130,,,,2,,,,,,10,wg-a,,,,AAXX 19124 07222 02135 81306 10110 20110 39957 49988 58015 60026 71065 885// 91200 333 60027=
07222,1996-12-19 15:00:00,11,997.8,-1,100,11,3000,11.112,,,140,,,,1,,,,,,10,wg-a,,,,AAXX 19154 07222 12430 81406 10110 20110 39947 49978 56010 60017 71062 875// 91500=
07222,1996-12-19 18:00:00,11,997.9,0.1,100,11,3500,7.408,,,180,9.9,11.2,,,,,,,,10,wg-a,,,,AAXX 19184 07222 12/35 /1804 10110 20110 39948 49979 50001 60006 710// 91800 333 10112 20099=
07222,1996-12-19 21:00:00,9,998.2,0.3,100,9,7000,14.816,,,210,,,,,,,,,,,wg-a,,,,AAXX 19214 07222 12457 32108 10090 20090 39951 49982 50003 60006 83500 92100=
07222,1996-12-20 00:00:00,9,998.5,0.3,100,9,8000,11.112,,,190,,,,1,,,,,,,wg-a,,,,AAXX 20004 07222 02258 71906 10090 20090 39954 49985 50003 60016 87500 90000 333 60017=
07222,1996-12-20 03:00:00,6,998.4,-0.2,100,6,700,11.112,,,160,,,,,,,,,,42,wg-a,,,,AAXX 20034 07222 12007 71606 10060 20060 39952 49984 55002 60006 74242 877// 90300=
07222,1996-12-20 06:00:00,5,997.9,-0.5,100,5,600,7.408,,,110,5.1,10.8,,,,,5,,,44,wg-a,,,,AAXX 20064 07222 02106 71104 10050 20050 39947 49979 56005 60006 74441 877// 90600 333 10108 20051 60054=
07222,1996-12-20 09:00:00,5,1000,2.1,100,5,600,11.112,,,120,,,,,,,,,,44,wg-a,,,,AAXX 20094 07222 12106 /1206 10050 20050 39968 40000 52021 60006 74444 86600 90900=
07222,1996-12-20 12:00:00,9,999.8,-0.1,100,9,10000,18.52,,,130,,,,,,,,,,1,wg-a,,,,AAXX 20124 07222 12360 71310 10090 20090 39967 49998 58001 60006 70142 86501 91200=
07222,1996-12-20 15:00:00,10,999.3,-0.5,93,9,15000,14.816,,,110,,,,,,,,,,,wg-a,,,,AAXX 20154 07222 12665 71108 10100 20090 39962 49993 55005 60006 82501 91500=
07222,1996-12-20 18:00:00,9,999.7,0.4,93,8,15000,22.224,,,80,3.9,10.2,,,,,,,,,wg-a,,,,AAXX 20184 07222 12565 70812 10090 20080 39966 49997 51004 60006 85501 91800 333 10102 20039=
07222,1996-12-20 21:00:00,9,1000.1,0.4,93,8,12000,22.224,,,90,,,,,,,,,,,wg-a,,,,AAXX 20214 07222 12/62 70912 10090 20080 39970 40001 51004 60006 8702/ 92100=
07222,1996-12-21 00:00:00,7,1000.1,0,93,6,12000,11.112,,,80,,,,,,,,,,,wg-a,,,,AAXX 21004 07222 12/62 40806 10070 20060 39970 40001 50000 60006 80001 90000=
07222,1996-12-21 03:00:00,7,999.6,-0.6,93,6,12000,14.816,,,60,,,,,,,,,,,wg-a,,,,AAXX 21034 07222 12/62 60608 10070 20060 39964 49996 58006 60006 80001 90300=
07222,1996-12-21 06:00:00,6,999.7,0.1,93,5,7000,18.52,,,50,6,9.4,,,,,,,,,wg-a,,,,AAXX 21064 07222 02/57 /0510 10060 20050 39965 49997 53001 60006 90600 333 10094 20060 60004=
07222,1996-12-21 09:00:00,7,999.6,0,93,6,4000,29.632,,,60,,,,,,,,,,10,wg-a,,,,AAXX 21094 07222 12340 80616 10070 20060 39965 49996 50000 60006 71022 876// 90900=
07222,1996-12-21 12:00:00,8,1000.5,0.9,93,7,500,22.224,,,90,,,,0,,,,,,61,wg-a,,,,AAXX 21124 07222 02400 80912 10080 20070 39974 40005 51009 60006 76162 8677/ 91200 333 60007=
07222,1996-12-21 15:00:00,8,999.8,-0.7,93,7,6000,29.632,,,70,,,,0,,,,,,61,wg-a,,,,AAXX 21154 07222 12456 80716 10080 20070 39967 49998 56007 60007 76162 8677/ 91500=
07222,1996-12-21 18:00:00,8,1000.4,0.6,93,7,6000,25.928,,,70,5.9,8.1,,1,,,,,,3,wg-a,,,,AAXX 21184 07222 02356 80714 10080 20070 39973 40004 53006 60006 70362 877// 91800 333 10081 20059 60017=
07222,1996-12-21 21:00:00,8,1001.3,0.9,93,7,8000,25.928,,,80,,,,,,,,,,,wg-a,,,,AAXX 21214 07222 12358 80814 10080 20070 39982 40013 51009 60006 877// 92100=
07222,1996-12-22 00:00:00,7,1002.3,0.9,100,7,6000,25.928,,,70,,,,,,,,,,,wg-a,,,,AAXX 22004 07222 12256 80714 10070 20070 39991 40023 51009 60006 877// 90000=
07222,1996-12-22 03:00:00,7,1002.7,0.4,100,7,500,22.224,,,80,,,,,,,,,,,wg-a,,,,AAXX 22034 07222 12100 80812 10070 20070 39995 40027 52004 60006 877// 90300=
07222,1996-12-22 06:00:00,7,1002.3,-0.4,100,7,3000,22.224,,,70,6.8,8.2,,,,,1,,,10,wg-a,,,,AAXX 22064 07222 02130 80712 10070 20070 39991 40023 55004 60006 71022 877// 90600 333 10082 20068 60014=
07222,1996-12-22 09:00:00,6,1002.4,0.1,100,6,2000,22.224,,,60,,,,,,,,,,10,wg-a,,,,AAXX 22094 07222 12120 80612 10060 20060 39992 40024 53001 60006 71022 876// 90900=
07222,1996-12-22 12:00:00,7,1002,-0.4,93,6,3500,22.224,,,70,,,,,,,,,,10,wg-a,,,,AAXX 22124 07222 12235 80712 10070 20060 39988 40020 58004 60006 71022 876// 91200=
07222,1996-12-22 15:00:00,7,1000.5,-1.4,100,7,4500,18.52,,,60,,,,2,,,,,,10,wg-a,,,,AAXX 22154 07222 12245 80610 10070 20070 39974 40005 56014 60027 71062 877// 91500=
07222,1996-12-22 18:00:00,7,1000.2,-0.3,100,7,8000,18.52,,,70,6.3,7.5,,0,,,,,,3,wg-a,,,,AAXX 22184 07222 02258 80710 10070 20070 39971 40002 55003 60006 70362 877// 91800 333 10075 20063 60007=
07222,1996-12-22 21:00:00,8,999.6,-0.6,100,8,1200,14.816,,,80,,,,,,,,,,10,wg-a,,,,AAXX 22214 07222 12012 80808 10080 20080 39965 49996 57006 60006 71022 877// 92100=
07222,1996-12-23 00:00:00,8,998.8,-0.8,100,8,700,14.816,,,60,,,,,,,,,,44,wg-a,,,,AAXX 23004 07222 12007 80608 10080 20080 39957 49988 56008 60006 74442 876// 90000=
07222,1996-12-23 03:00:00,7,998.1,-0.7,100,7,600,11.112,,,60,,,,,,,,,,45,wg-a,,,,AAXX 23034 07222 12/06 90606 10070 20070 39950 49981 56007 60006 74544 89/// 90300=
07222,1996-12-23 06:00:00,7,997.5,-0.6,100,7,900,11.112,,,70,7.2,7.7,,,,,3,,,42,wg-a,,,,AAXX 23064 07222 02009 80706 10070 20070 39944 49975 56006 60006 74244 876// 90600 333 10077 20072 60034=
07222,1996-12-23 09:00:00,7,997.9,0.4,100,7,1100,14.816,,,60,,,,,,,,,,50,wg-a,,,,AAXX 23094 07222 02111 80608 10070 20070 39948 49979 52004 61000 75054 876// 90900 333 ////=
07222,1996-12-23 12:00:00,7,997.7,-0.2,100,7,1000,14.816,,,50,,,,0,,,,,,10,wg-a,,,,AAXX 23124 07222 02110 80508 10070 20070 39946 49977 58002 60006 71054 876// 91200 333 60007=
07222,1996-12-23 15:00:00,7,997.4,-0.3,100,7,900,14.816,,,50,,,,,,,,,,44,wg-a,,,,AAXX 23154 07222 02109 80508 10070 20070 39943 49974 55003 61000 74454 876// 91500 333 ////=
07222,1996-12-23 18:00:00,6,998.2,0.7,100,6,800,14.816,,,50,5.8,7.4,,,,,,,,60,wg-a,,,,AAXX 23184 07222 02108 80508 10060 20060 39950 49982 51007 61000 76065 887// 91800 333 10074 20058 6100=
07222,1996-12-23 21:00:00,4,998.4,0.2,100,4,3000,22.224,,,50,,,,,,,,,,10,wg-a,,,,AAXX 23214 07222 32/30 /0512 10040 20040 39952 49984 53002 710// 92100=
07222,1996-12-24 00:00:00,2,998.6,0.2,93,1,6000,29.632,,,60,,,,0,,,,,,61,wg-a,,,,AAXX 24004 07222 02256 80616 10020 20010 39954 49986 53002 60016 76164 887// 90000 333 60007=
07222,1996-12-24 03:00:00,0,998.2,-0.4,100,0,6000,25.928,,,60,,,,,,,,,,,wg-a,,,,AAXX 24034 07222 32/56 /0614 10000 20000 39950 49982 55004 90300=
07222,1996-12-24 06:00:00,-1,997.7,-0.5,100,-1,1500,18.52,,,50,-0.7,5.8,,,,,,,,72,wg-a,,1,,AAXX 24064 07222 02315 80510 11010 21010 39945 49977 55005 61000 77276 887// 90600 333 10058 21007 4/001 6006=
07222,1996-12-24 09:00:00,-2,998.4,0.7,100,-2,500,18.52,,,40,,,,,,,,,,73,wg-a,,,,AAXX 24094 07222 02005 80410 11020 21020 39952 49984 53007 61000 77377 887// 90900 333 ////=
07222,1996-12-24 12:00:00,-1,998.9,0.5,93,-2,3000,18.52,,,50,,,,,,,,,,22,wg-a,,,,AAXX 24124 07222 02330 80510 11010 21020 39957 49989 51005 61000 72272 887// 91200 333 6100=
07222,1996-12-24 15:00:00,-1,999.3,0.4,100,-1,2500,25.928,,,60,,,,,,,,,,,wg-a,,,,AAXX 24154 07222 12225 80614 11010 21010 39961 49993 53004 60006 887// 91500=
07222,1996-12-24 18:00:00,0,1001.7,2.4,93,-1,2000,14.816,,,40,-1.5,-0.3,,,,,,,,,wg-a,,5,,AAXX 24184 07222 12220 80408 10000 21010 39985 40017 52024 60006 887// 91800 333 11003 21015 4/005=
07222,1996-12-24 21:00:00,0,1003.5,1.8,93,-1,3500,11.112,,,40,,,,,,,,,,10,wg-a,,,,AAXX 24214 07222 12235 80406 10000 21010 30003 40035 53018 60006 71022 886// 92100=
07222,1996-12-25 00:00:00,0,1006,2.4,93,-1,4000,11.112,,,20,,,,,,,,,,10,wg-a,,,,AAXX 25004 07222 12240 80206 10000 21010 30027 40060 51024 60006 71022 886// 90000=
07222,1996-12-25 03:00:00,0,1007.9,1.9,93,-1,3500,11.112,,,30,,,,,,,,,,10,wg-a,,,,AAXX 25034 07222 02235 80306 10000 21010 30046 40079 53019 61000 71052 887// 90300 333 ////=
07222,1996-12-25 06:00:00,0,1009.8,1.9,93,-1,3500,7.408,,,30,-0.3,-0.1,,,,,,,,10,wg-a,,,,AAXX 25064 07222 02/35 /0304 10000 21010 30065 40098 51019 60006 710// 90600 333 11001 21003 61000=
07222,1996-12-25 09:00:00,0,1013,3.2,93,-1,3500,14.816,,,40,,,,,,,,,,10,wg-a,,,,AAXX 25094 07222 02335 80408 10000 21010 30097 40130 52032 61000 71062 877// 90900 333 ////=
07222,1996-12-25 12:00:00,0,1016,3,86,-2,10000,14.816,,,20,,,,,,,,,,1,wg-a,,,,AAXX 25124 07222 02460 30208 10000 21020 30127 40160 51030 61000 70161 83500 91200 333 ////=
07222,1996-12-25 15:00:00,0,1018.6,2.6,86,-2,12000,7.408,,,30,,,,0,,,,,,,wg-a,,,,AAXX 25154 07222 12/62 00304 10000 21020 30153 40186 53026 60007 80000 91500=
07222,1996-12-25 18:00:00,-2,1021.9,3.3,80,-5,12000,11.112,,,20,-2.3,0.2,,,,,,,,,wg-a,,4,,AAXX 25184 07222 12/62 00206 11020 21050 30186 40219 51033 60006 80000 91800 333 10002 21023 4/004=
07222,1996-12-25 21:00:00,-1,1025.4,3.5,74,-5,12000,11.112,,,30,,,,,,,,,,,wg-a,,,,AAXX 25214 07222 12/62 00306 11010 21050 30221 40254 52035 60006 80000 92100=
07222,1996-12-26 00:00:00,-2,1027.2,1.8,80,-5,12000,11.112,,,30,,,,,,,,,,,wg-a,,,,AAXX 26004 07222 12/62 00306 11020 21050 30239 40272 51018 60006 80000 90000=
07222,1996-12-26 03:00:00,-2,1030.1,2.8,74,-6,12000,18.52,,,40,,,,,,,,,,,wg-a,,,,AAXX 26034 07222 12/62 00410 11020 21060 30267 40301 51028 60006 80000 90300=
07222,1996-12-26 06:00:00,-3,1031.8,1.7,74,-7,12000,14.816,,,50,-3.2,-0.9,,,,,,,,,wg-a,,4,,AAXX 26064 07222 02/62 00508 11030 21070 30284 40318 53017 60006 80000 90600 333 11009 21032 4/004 60004=
07222,1996-12-26 09:00:00,-3,1034.8,3,74,-7,15000,14.816,,,50,,,,,,,,,,,wg-a,,,,AAXX 26094 07222 12/65 00508 11030 21070 30314 40348 51030 60006 80000 90900=
07222,1996-12-26 12:00:00,-2,1035.9,1.1,74,-6,20000,18.52,,,50,,,,,,,,,,,wg-a,,,,AAXX 26124 07222 12/70 20510 11020 21060 30325 40359 51011 60006 80001 91200=
07222,1996-12-26 15:00:00,-2,1036,0.1,74,-6,20000,14.816,,,40,,,,,,,,,,,wg-a,,,,AAXX 26154 07222 12/70 20408 11020 21060 30326 40360 53001 60006 80001 91500=
07222,1996-12-26 18:00:00,-4,1036.4,0.4,80,-7,20000,18.52,,,60,-3.8,-1.8,,,,,,,,,wg-a,,4,,AAXX 26184 07222 12/70 00610 11040 21070 30330 40364 50004 60006 80000 91800 333 11018 21038 4/004=
07222,1996-12-26 21:00:00,-5,1036.7,0.3,79,-8,20000,14.816,,,50,,,,,,,,,,,wg-a,,,,AAXX 26214 07222 12/70 00508 11050 21080 30333 40367 51003 60006 80000 92100=
07222,1996-12-27 00:00:00,-6,1034.9,-1.8,86,-8,12000,18.52,,,60,,,,,,,,,,,wg-a,,,,AAXX 27004 07222 12/62 00610 11060 21080 30315 40349 58018 60006 80000 90000=
07222,1996-12-27 03:00:00,-6,1033.9,-1,86,-8,12000,18.52,,,60,,,,,,,,,,,wg-a,,,,AAXX 27034 07222 12/62 00610 11060 21080 30305 40339 56010 60006 80000 90300=
07222,1996-12-27 06:00:00,-6,1030.9,-3,86,-8,12000,11.112,,,50,-7,-3.6,,,,,,,,,wg-a,,3,,AAXX 27064 07222 02/62 50506 11060 21080 30275 40309 56030 60006 80008 90600 333 11036 21070 4/003 60004=
07222,1996-12-27 09:00:00,-6,1029.8,-1.1,86,-8,12000,11.112,,,50,,,,,,,,,,,wg-a,,,,AAXX 27094 07222 12/62 20506 11060 21080 30264 40298 56011 60006 82030 90900=
07222,1996-12-27 12:00:00,-5,1027.5,-2.3,86,-7,12000,14.816,,,50,,,,,,,,,,,wg-a,,,,AAXX 27124 07222 12/62 30508 11050 21070 30241 40275 58023 60006 83030 91200=
07222,1996-12-27 15:00:00,-3,1025,-2.5,68,-8,10000,11.112,,,40,,,,,,,,,,,wg-a,,,,AAXX 27154 07222 12/60 /0406 11030 21080 30216 40250 58025 60006 91500=
07222,1996-12-27 18:00:00,-5,1023.9,-1.1,79,-8,12000,7.408,,,60,,-3,,,,,,,,,wg-a,,,,AAXX 27184 07222 12/62 00604 11050 21080 30205 40239 58011 60006 80000 91800 333 11030=
07222,1996-12-27 21:00:00,-6,1022.8,-1.1,86,-8,12000,3.704,,,60,,,,,,,,,,,wg-a,,,,AAXX 27214 07222 12562 /0602 11060 21080 30194 40228 56011 60006 85500 92100=
07222,1996-12-28 00:00:00,-4,1021.4,-1.4,86,-6,12000,3.704,,,330,,,,,,,,,,,wg-a,,,,AAXX 28004 07222 12562 /3302 11040 21060 30180 40214 57014 60006 86500 90000=
07222,1996-12-28 03:00:00,-4,1019,-2.3,86,-6,12000,7.408,,,290,,,,,,,,,,,wg-a,,,,AAXX 28034 07222 12662 42904 11040 21060 30157 40190 56023 60006 84500 90300=
07222,1996-12-28 06:00:00,2,1018.2,-0.8,87,0,12000,11.112,,,10,-6.3,2.1,,,,,,,,,wg-a,,3,,AAXX 28064 07222 02662 70106 10020 20000 30149 40182 56008 60006 87500 90600 333 10021 21063 4/003 60004=
07222,1996-12-28 09:00:00,0,1019.5,1.3,86,-2,6000,25.928,,,70,,,,0,,,,,,,wg-a,,,,AAXX 28094 07222 12456 70714 10000 21020 30162 40195 53013 60007 875// 90900=
07222,1996-12-28 12:00:00,-1,1019.2,-0.3,80,-4,8000,25.928,,,60,,,,,,,,,,,wg-a,,,,AAXX 28124 07222 12458 50614 11010 21040 30159 40192 58003 60006 85500 91200=
07222,1996-12-28 18:00:00,-4,1018.7,0.5,63,-10,18000,18.52,,,70,-4.4,2,,,,,,,,,wg-a,,3,,AAXX 28184 07222 12/68 00710 11040 21100 30153 40187 53005 60006 80000 91800 333 10020 21044 4/003=
07222,1996-12-28 21:00:00,-6,1019.4,0.7,73,-10,15000,22.224,,,60,,,,,,,,,,,wg-a,,,,AAXX 28214 07222 12/65 00612 11060 21100 30160 40194 53007 60006 80000 92100=
07222,1996-12-29 00:00:00,-7,1018.8,-0.6,67,-12,15000,14.816,,,40,,,,,,,,,,,wg-a,,,,AAXX 29004 07222 12/65 00408 11070 21120 30154 40188 58006 60006 80000 90000=
07222,1996-12-29 03:00:00,-8,1017.9,-0.9,73,-12,12000,22.224,,,50,,,,,,,,,,,wg-a,,,,AAXX 29034 07222 12/62 00512 11080 21120 30145 40179 56009 60006 80000 90300=
07222,1996-12-29 06:00:00,-8,1016.9,-1,67,-13,12000,31.484,,53.708,60,-8.3,-4.4,,,,,,,,,wg-a,,3,,AAXX 29064 07222 02/62 00617 11080 21130 30135 40169 58010 60006 80000 90600 333 11044 21083 4/003 60004 91029=
07222,1996-12-29 09:00:00,-9,1017.9,1,73,-13,12000,29.632,,53.708,60,,,,,,,,,,,wg-a,,,,AAXX 29094 07222 12/62 00616 11090 21130 30145 40179 52010 60006 80000 90900 333 91029=
07222,1996-12-29 12:00:00,-7,1017.2,-0.7,67,-12,12000,31.484,,53.708,60,,,,,,,,,,,wg-a,,,,AAXX 29124 07222 12/62 00617 11070 21120 30138 40172 58007 60006 80000 91200 333 91029=
07222,1996-12-29 15:00:00,-6,1016.6,-0.6,68,-11,12000,29.632,,53.708,60,,,,,,,,,,,wg-a,,,,AAXX 29154 07222 12/62 00616 11060 21110 30132 40166 56006 60006 80000 91500 333 91029=
07222,1996-12-29 18:00:00,-6,1016.5,-0.1,68,-11,10000,14.816,,53.708,50,-9,-5.3,,,,,,,,,wg-a,,3,,AAXX 29184 07222 12/60 00508 11060 21110 30131 40165 58001 60006 80000 91800 333 11053 21090 4/003 91029=
07222,1996-12-29 21:00:00,-6,1016,-0.5,62,-12,10000,14.816,,,50,,,,,,,,,,,wg-a,,,,AAXX 29214 07222 12/60 00508 11060 21120 30126 40160 58005 60006 80000 92100=
07222,1996-12-30 00:00:00,-7,1014.7,-1.3,67,-12,10000,7.408,,,60,,,,,,,,,,,wg-a,,,,AAXX 30004 07222 12/60 00604 11070 21120 30113 40147 58013 60006 80000 90000=
07222,1996-12-30 03:00:00,-8,1013.1,-1.6,73,-12,10000,0,,,0,,,,,,,,,,,wg-a,,,,AAXX 30034 07222 12660 /0000 11080 21120 30097 40131 58016 60006 81500 90300=
07222,1996-12-30 06:00:00,-5,1011,-2,79,-8,10000,3.704,,,260,-9,-5.1,,,,,,,,,wg-a,,3,,AAXX 30064 07222 02360 72602 11050 21080 30077 40110 58020 60006 875// 90600 333 11051 21090 4/003 60004=
07222,1996-12-30 09:00:00,-4,1009.7,-1.3,80,-7,10000,7.408,,,280,,,,,,,,,,,wg-a,,,,AAXX 30094 07222 12460 72804 11040 21070 30064 40097 56013 60006 875// 90900=
07222,1996-12-30 12:00:00,1,1008.9,-0.7,86,-1,12000,11.112,,,20,,,,,,,,,,,wg-a,,,,AAXX 30124 07222 12762 70206 10010 21010 30057 40089 58007 60006 875// 91200=
07222,1996-12-30 15:00:00,2,1008.3,-0.6,87,0,15000,7.408,,,40,,,,,,,,,,,wg-a,,,,AAXX 30154 07222 12765 70404 10020 20000 30051 40083 56006 60006 875// 91500=
07222,1996-12-30 18:00:00,-1,1009.1,0.7,69,-6,15000,7.408,,,70,-5.1,2.4,,,,,,,,,wg-a,,3,,AAXX 30184 07222 12/65 00704 11010 21060 30058 40091 53007 60006 80000 91800 333 10024 21051 4/003=
07222,1996-12-30 21:00:00,-3,1009.5,0.4,80,-6,7000,3.704,,,50,,,,,,,,,,,wg-a,,,,AAXX 30214 07222 12/57 00502 11030 21060 30062 40095 53004 60006 80000 92100=
07222,1996-12-31 00:00:00,-7,1009.8,0.2,93,-8,6000,3.704,,,40,,,,,,,,,,,wg-a,,,,AAXX 31004 07222 12/56 00402 11070 21080 30064 40098 50002 60006 80000 90000=
07222,1996-12-31 03:00:00,-8,1009.7,-0.1,92,-9,6000,3.704,,,30,,,,,,,,,,,wg-a,,,,AAXX 31034 07222 12/56 00302 11080 21090 30063 40097 55001 60006 80000 90300=
07222,1996-12-31 06:00:00,-8,1009.8,0.1,92,-9,7000,3.704,,,10,-8.3,-1.1,,,,,,,,,wg-a,,3,,AAXX 31064 07222 02/57 00102 11080 21090 30064 40098 51001 60006 80000 90600 333 11011 21083 4/003 60004=
07222,1996-12-31 09:00:00,-5,1010.9,1.2,93,-6,8000,7.408,,,50,,,,,,,,,,,wg-a,,,,AAXX 31094 07222 12658 20504 11050 21060 30076 40109 53012 60006 82500 90900=
07222,1996-12-31 12:00:00,-2,1010.7,-0.2,80,-5,10000,11.112,,,50,,,,,,,,,,,wg-a,,,,AAXX 31124 07222 12/60 00506 11020 21050 30074 40107 58002 60006 80000 91200=
07222,1996-12-31 15:00:00,-2,1011.3,0.6,80,-5,10000,25.928,,,60,,,,,,,,,,,wg-a,,,,AAXX 31154 07222 12560 40614 11020 21050 30080 40113 53006 60006 84500 91500=
07222,1996-12-31 18:00:00,-3,1012.1,0.8,80,-6,7000,25.928,,,50,-8.2,-1.1,,,,,,,,,wg-a,,2,,AAXX 31184 07222 12457 30514 11030 21060 30088 40121 53008 60006 83500 91800 333 11011 21082 4/002=
