station_id,dh_utc,temperature,pression,pression_variation_3h,humidite,point_de_rosee,visibilite,vent_moyen,vent_rafales,vent_rafales_10min,vent_direction,temperature_min,temperature_max,pluie_1h,pluie_3h,pluie_6h,pluie_12h,pluie_24h,ensoleillement,temperature_sol,temps_omm,source,radiations,neige_au_sol,nebulosite,raw_msg
07222,1997-01-01 00:00:00,-6,1013.7,0.3,73,-10,10000,25.928,,,60,,,,,,,,,,,wg-a,,,,AAXX 01004 07222 12460 70614 11060 21100 30103 40137 51003 60006 875// 90000=
07222,1997-01-01 03:00:00,-6,1013.7,-0,68,-11,10000,18.52,,,50,,,,,,,,,,,wg-a,,,,AAXX 01034 07222 12560 70510 11060 21110 30103 40137 55000 60006 875// 90300=
07222,1997-01-01 06:00:00,-6,1014.1,0.4,79,-9,10000,11.112,,,40,-6.3,-2.9,,,,,,,,22,wg-a,,2,,AAXX 01064 07222 02560 70406 11060 21090 30107 40141 52004 61000 72272 875// 90600 333 11029 21063 4/002 6100=
07222,1997-01-01 09:00:00,-6,1015.6,1.5,79,-9,500,18.52,,,70,,,,,,,,,,,wg-a,,,,AAXX 01094 07222 12400 70710 11060 21090 30122 40156 53015 60006 875// 90900=
07222,1997-01-01 12:00:00,-6,1016,0.4,79,-9,4000,14.816,,,60,,,,,,,,,,,wg-a,,,,AAXX 01124 07222 02/40 /0608 11060 21090 30126 40160 50004 61000 91200 333 ////=
07222,1997-01-01 15:00:00,-7,1017,1,86,-9,4000,11.112,,,50,,,,,,,,,,10,wg-a,,,,AAXX 01154 07222 02440 80506 11070 21090 30136 40170 53010 61000 71072 875// 91500 333 ////=
07222,1997-01-01 18:00:00,-7,1018.5,1.5,86,-9,3500,11.112,,,60,-6.9,-5.5,,,,,,,,10,wg-a,,2,,AAXX 01184 07222 12435 80606 11070 21090 30151 40185 51015 60006 71072 875// 91800 333 11055 21069 4/002=
07222,1997-01-01 21:00:00,-9,1019.3,0.8,79,-12,3500,14.816,,,70,,,,,,,,,,10,wg-a,,,,AAXX 01214 07222 12435 /0708 11090 21120 30159 40193 53008 60006 71011 84500 92100=
07222,1997-01-02 00:00:00,-11,1019.7,0.4,85,-13,3000,11.112,,,60,,,,,,,,,,10,wg-a,,,,AAXX 02004 07222 12/30 00606 11110 21130 30163 40197 51004 60006 71011 80000 90000=
07222,1997-01-02 03:00:00,-11,1018.3,-1.4,85,-13,3500,14.816,,,50,,,,,,,,,,10,wg-a,,,,AAXX 02034 07222 12/35 00508 11110 21130 30149 40183 57014 60006 71000 80000 90300=
07222,1997-01-02 06:00:00,-11,1017.2,-1.1,85,-13,2500,18.52,,,60,-11.2,-6.7,,,,,,,,10,wg-a,,2,,AAXX 02064 07222 02/25 70610 11110 21130 30138 40172 56011 60006 71011 87030 90600 333 11067 21112 4/002 61000=
07222,1997-01-02 09:00:00,-10,1017.2,-0,92,-11,2500,14.816,,,50,,,,,,,,,,,wg-a,,,,AAXX 02094 07222 12/25 /0508 11100 21110 30138 40172 55000 60006 90900=
07222,1997-01-02 12:00:00,-7,1015.4,-1.8,86,-9,2500,22.224,,,50,,,,,,,,,,10,wg-a,,,,AAXX 02124 07222 12225 70512 11070 21090 30120 40154 58018 60006 71022 876// 91200=
07222,1997-01-02 15:00:00,-7,1013.4,-2,93,-8,3000,22.224,,,50,,,,,,,,,,10,wg-a,,,,AAXX 02154 07222 12230 70512 11070 21080 30100 40134 56020 60006 71022 87600 91500=
07222,1997-01-02 18:00:00,-6,1012.3,-1.1,86,-8,3500,22.224,,,50,-11,-6.3,,,,,,,,10,wg-a,,2,,AAXX 02184 07222 12335 70512 11060 21080 30089 40123 56011 60006 71022 87600 91800 333 11063 21110 4/002=
07222,1997-01-02 21:00:00,-6,1010.7,-1.6,86,-8,3200,22.224,,,50,,,,,,,,,,10,wg-a,,,,AAXX 02214 07222 12332 70512 11060 21080 30073 40107 58016 60006 71022 875// 92100=
07222,1997-01-03 00:00:00,-7,1010.1,-0.6,93,-8,3200,18.52,,,50,,,,,,,,,,10,wg-a,,,,AAXX 03004 07222 12332 80510 11070 21080 30067 40101 58006 60006 71022 876// 90000=
07222,1997-01-03 03:00:00,-7,1007.7,-2.3,93,-8,3500,31.484,,,60,,,,,,,,,,10,wg-a,,,,AAXX 03034 07222 12335 80617 11070 21080 30044 40077 58023 60006 71022 876// 90300=
07222,1997-01-03 06:00:00,-6,1006.9,-0.8,86,-8,3500,25.928,,,50,-6.8,-6.1,,,,,,,,10,wg-a,,2,,AAXX 03064 07222 02335 80514 11060 21080 30036 40069 55008 60006 71022 876// 90600 333 11061 21068 4/002 60004=
07222,1997-01-03 09:00:00,-5,1007.2,0.3,86,-7,3500,18.52,,,50,,,,,,,,,,10,wg-a,,,,AAXX 03094 07222 12335 80510 11050 21070 30039 40072 53003 60006 71022 886// 90900=
07222,1997-01-03 12:00:00,-3,1004.3,-2.9,86,-5,3500,22.224,,,30,,,,,,,,,,,wg-a,,,,AAXX 03124 07222 12/35 /0312 11030 21050 30010 40043 56029 60006 91200=
07222,1997-01-03 15:00:00,-2,1002.3,-2,86,-4,6000,18.52,,,20,,,,,,,,,,,wg-a,,,,AAXX 03154 07222 12456 80210 11020 21040 39990 40023 58020 60006 885// 91500=
07222,1997-01-03 18:00:00,-2,1001.4,-0.9,80,-5,6000,22.224,,42.596,30,-6.4,-1.5,,,,,,,,,wg-a,,2,,AAXX 03184 07222 12456 80312 11020 21050 39981 40014 56009 60006 885// 91800 333 11015 21064 4/002 91023=
07222,1997-01-03 21:00:00,-2,1002,0.6,80,-5,500,25.928,,,30,,,,,,,,,,70,wg-a,,,,AAXX 03214 07222 02400 80314 11020 21050 39987 40020 51006 61000 77072 885// 92100 333 ////=
07222,1997-01-04 00:00:00,-3,1002.1,0.1,100,-3,2000,22.224,,42.596,10,,,,,,,,,,71,wg-a,,,,AAXX 04004 07222 02320 80112 11030 21030 39988 40021 50001 61000 77172 885// 90000 333 6100 91023=
07222,1997-01-04 03:00:00,-2,1002.2,0.1,100,-2,2500,18.52,,,10,,,,,,,,,,71,wg-a,,,,AAXX 04034 07222 02325 80110 11020 21020 39989 40022 53001 61000 77177 885// 90300 333 ////=
07222,1997-01-04 06:00:00,-2,1003.5,1.3,100,-2,3500,18.52,,,360,-3,-1.4,,,,,,,,71,wg-a,,10,,AAXX 04064 07222 02435 83610 11020 21020 30002 40035 51013 61000 77177 885// 90600 333 11014 21030 4/010 6100=
07222,1997-01-04 09:00:00,-1,1005.8,2.3,93,-2,3000,11.112,,,350,,,,,,,,,,71,wg-a,,,,AAXX 04094 07222 02430 83506 11010 21020 30025 40058 51023 61000 77177 885// 90900 333 ////=
07222,1997-01-04 12:00:00,1,1006.3,0.6,86,-1,4500,14.816,,,340,,,,,,,,,,10,wg-a,,,,AAXX 04124 07222 02445 83408 10010 21010 30031 40063 50006 61000 71072 885// 91200 333 6100=
07222,1997-01-04 15:00:00,1,1006.8,0.5,93,0,3000,18.52,,,310,,,,,,,,,,10,wg-a,,,,AAXX 04154 07222 02230 83110 10010 20000 30036 40068 53005 61000 71052 886// 91500 333 ////=
07222,1997-01-04 18:00:00,1,1008,1.2,100,1,2000,11.112,,,300,-1.6,1,,,,,,,,10,wg-a,,6,,AAXX 04184 07222 12220 83006 10010 20010 30048 40080 52012 60006 71052 886// 91800 333 10010 21016 4/006=
07222,1997-01-04 21:00:00,1,1008.7,0.6,100,1,2000,7.408,,,310,,,,,,,,,,10,wg-a,,,,AAXX 04214 07222 12120 83104 10010 20010 30054 40087 51006 60006 71022 886// 92100=
07222,1997-01-05 00:00:00,1,1009,0.3,100,1,2000,7.408,,,310,,,,,,,,,,10,wg-a,,,,AAXX 05004 07222 12120 83104 10010 20010 30057 40090 53003 60006 71022 877// 90000=
07222,1997-01-05 03:00:00,1,1008.7,-0.3,93,0,2000,11.112,,,310,,,,,,,,,,10,wg-a,,,,AAXX 05034 07222 12120 83106 10010 20000 30054 40087 56003 60006 71022 877// 90300=
07222,1997-01-05 06:00:00,1,1008.4,-0.3,100,1,2000,7.408,,,300,0.5,0.9,,,,,,,,10,wg-a,,4,,AAXX 05064 07222 02120 83004 10010 20010 30051 40084 58003 61000 71052 887// 90600 333 10009 20005 4/004 6100=
07222,1997-01-05 09:00:00,1,1009.5,1.1,93,0,3000,7.408,,,340,,,,,,,,,,10,wg-a,,,,AAXX 05094 07222 02230 83404 10010 20000 30062 40095 53011 61000 71052 885// 90900 333 ////=
07222,1997-01-05 12:00:00,-1,1010.2,0.7,93,-2,3500,14.816,,,50,,,,,,,,,,10,wg-a,,,,AAXX 05124 07222 02235 80508 11010 21020 30069 40102 50007 61000 71052 887// 91200 333 6100=
07222,1997-01-05 15:00:00,-2,1010.3,0.1,93,-3,3000,11.112,,,50,,,,,,,,,,10,wg-a,,,,AAXX 05154 07222 02230 80506 11020 21030 30070 40103 52001 61000 71052 887// 91500 333 ////=
07222,1997-01-05 18:00:00,-2,1011.3,1,93,-3,2000,14.816,,,60,-2.3,0.6,,,,,,,,10,wg-a,,3,,AAXX 05184 07222 02220 80608 11020 21030 30080 40113 53010 60006 71075 877// 91800 333 10006 21023 4/003 61000=
07222,1997-01-05 21:00:00,-2,1012.3,1,93,-3,2500,14.816,,,80,,,,,,,,,,10,wg-a,,,,AAXX 05214 07222 02225 80808 11020 21030 30090 40123 53010 61000 71072 877// 92100 333 ////=
07222,1997-01-06 00:00:00,-2,1012.8,0.5,93,-3,3000,14.816,,,70,,,,,,,,,,10,wg-a,,,,AAXX 06004 07222 02330 80708 11020 21030 30095 40128 50005 61000 71072 876// 90000 333 ////=
07222,1997-01-06 03:00:00,-2,1013.2,0.4,93,-3,3000,14.816,,,70,,,,,,,,,,10,wg-a,,,,AAXX 06034 07222 12430 80708 11020 21030 30099 40132 52004 60006 71022 876// 90300=
07222,1997-01-06 06:00:00,-1,1013.7,0.5,86,-3,3000,14.816,,,70,-2.3,-1.3,,,,,,,,10,wg-a,,3,,AAXX 06064 07222 02330 80708 11010 21030 30104 40137 53005 60006 71022 875// 90600 333 11013 21023 4/003 61000=
07222,1997-01-06 09:00:00,-1,1015.4,1.7,86,-3,3000,14.816,,,60,,,,,,,,,,,wg-a,,,,AAXX 06094 07222 12/30 /0608 11010 21030 30121 40154 52017 60006 90900=
07222,1997-01-06 12:00:00,0,1016,0.6,86,-2,3000,14.816,,,70,,,,,,,,,,10,wg-a,,,,AAXX 06124 07222 12530 70708 10000 21020 30127 40160 51006 60006 71022 875// 91200=
07222,1997-01-06 15:00:00,1,1016.3,0.3,80,-2,4000,18.52,,,60,,,,,,,,,,10,wg-a,,,,AAXX 06154 07222 12540 70610 10010 21020 30130 40163 53003 60006 71022 875// 91500=
07222,1997-01-06 18:00:00,0,1017.4,1.1,93,-1,4000,14.816,,,60,-1.5,0.8,,,,,,,,10,wg-a,,3,,AAXX 06184 07222 12640 80608 10000 21010 30141 40174 51011 60006 71022 875// 91800 333 10008 21015 4/003=
07222,1997-01-06 21:00:00,0,1018.6,1.2,93,-1,4000,14.816,,,60,,,,,,,,,,10,wg-a,,,,AAXX 06214 07222 12340 80608 10000 21010 30153 40186 51012 60006 71022 875// 92100=
07222,1997-01-07 00:00:00,0,1018.6,-0,86,-2,4000,7.408,,,40,,,,,,,,,,10,wg-a,,,,AAXX 07004 07222 12640 80404 10000 21020 30153 40186 54000 60006 71022 875// 90000=
07222,1997-01-07 03:00:00,-3,1018.8,0.2,93,-4,3000,7.408,,,50,,,,,,,,,,10,wg-a,,,,AAXX 07034 07222 12730 80504 11030 21040 30155 40188 53002 60006 71022 875// 90300=
07222,1997-01-07 06:00:00,-6,1019,0.1,100,-6,1500,14.816,,,60,-5.7,0.2,,,,,,,,10,wg-a,,3,,AAXX 07064 07222 02415 80608 11060 21060 30156 40190 53001 60006 71011 875// 90600 333 10002 21057 4/003 60004=
07222,1997-01-07 09:00:00,-6,1019.3,0.3,100,-6,800,14.816,,,60,,,,,,,,,,48,wg-a,,,,AAXX 07094 07222 12208 80608 11060 21060 30159 40193 53003 60006 74842 876// 90900=
07222,1997-01-07 12:00:00,-5,1017.9,-1.4,100,-5,2000,14.816,,,80,,,,,,,,,,22,wg-a,,,,AAXX 07124 07222 02120 70808 11050 21050 30145 40179 58014 61000 72274 877// 91200 333 6100=
07222,1997-01-07 15:00:00,-4,1015.8,,93,-5,2000,18.52,,,80,,,,,,,,,,10,wg-a,,,,AAXX 07154 07222 32220 80810 11040 21050 30125 40158 71022 887// 91500=
07222,1997-01-07 18:00:00,-4,1013.9,-1.9,93,-5,2000,25.928,,,80,-5.9,-3.9,,,,,,,,10,wg-a,,3,,AAXX 07184 07222 12220 80814 11040 21050 30106 40139 58019 60006 71022 887// 91800 333 11039 21059 4/003=
07222,1997-01-07 21:00:00,-5,1012.4,-1.5,100,-5,2800,25.928,,,80,,,,,,,,,,10,wg-a,,,,AAXX 07214 07222 12228 80814 11050 21050 30091 40124 58015 60006 71022 887// 92100=
07222,1997-01-08 00:00:00,-5,1010.1,-2.3,93,-6,3500,22.224,,,80,,,,,,,,,,10,wg-a,,,,AAXX 08004 07222 12235 80812 11050 21060 30068 40101 58023 60006 71022 886// 90000=
07222,1997-01-08 03:00:00,-5,1008.3,-1.8,100,-5,4000,25.928,,,70,,,,,,,,,,10,wg-a,,,,AAXX 08034 07222 12240 80714 11050 21050 30050 40083 58018 60006 71022 886// 90300=
07222,1997-01-08 06:00:00,-4,1006,-2.3,93,-5,4500,25.928,,,70,-5.7,-3.9,,,,,,,,10,wg-a,,3,,AAXX 08064 07222 02245 80714 11040 21050 30027 40060 56023 60006 71022 886// 90600 333 11039 21057 4/003 61000=
07222,1997-01-08 09:00:00,-4,1004.9,-1.1,93,-5,1100,22.224,,,70,,,,,,,,,,10,wg-a,,,,AAXX 08094 07222 02211 80712 11040 21050 30016 40049 56011 61000 71072 886// 90900 333 ////=
07222,1997-01-08 12:00:00,-2,1003.2,-1.7,86,-4,2000,18.52,,,80,,,,,,,,,,71,wg-a,,,,AAXX 08124 07222 02220 80810 11020 21040 39999 40032 58017 61000 77172 885// 91200 333 6100=
07222,1997-01-08 15:00:00,-2,1001.2,-2,100,-2,2000,18.52,,,60,,,,,,,,,,10,wg-a,,,,AAXX 08154 07222 02220 80610 11020 21020 39979 40012 56020 61000 71075 886// 91500 333 ////=
07222,1997-01-08 17:00:00,-1,1001.2,-0,93,-2,3000,14.816,,,60,-4.3,-1.1,,,,,,,,10,wg-a,,6,,AAXX 08174 07222 02230 80608 11010 21020 39979 40012 54000 61000 71075 886// 91700 333 11011 21043 4/006 ////=
07222,1997-01-08 18:00:00,-1,1001.2,-0,93,-2,3000,14.816,,,60,-4.3,-1.1,,,,,,,,10,wg-a,,6,,AAXX 08184 07222 02230 80608 11010 21020 39979 40012 54000 60006 71075 886// 91800 333 11011 21043 4/006 61000=
07222,1997-01-08 21:00:00,-1,1000.7,-0.5,93,-2,3000,11.112,,,50,,,,,,,,,,10,wg-a,,,,AAXX 08214 07222 12230 80506 11010 21020 39974 40007 56005 60006 71022 886// 92100=
07222,1997-01-09 00:00:00,-1,1000.9,0.2,100,-1,1500,7.408,,,30,,,,,,,,,,10,wg-a,,,,AAXX 09004 07222 12215 80304 11010 21010 39976 40009 50002 60006 71022 886// 90000=
07222,1997-01-09 03:00:00,-1,1000.4,-0.4,100,-1,1500,7.408,,,350,,,,,,,,,,50,wg-a,,,,AAXX 09034 07222 02115 83504 11010 21010 39972 40004 55004 61000 75052 886// 90300 333 ////=
07222,1997-01-09 06:00:00,0,1001.3,0.9,93,-1,2000,7.408,,,360,-1.5,-0.3,,,,,,,,10,wg-a,,6,,AAXX 09064 07222 02120 83604 10000 21010 39981 40013 53009 60006 71052 886// 90600 333 11003 21015 4/006 61000=
07222,1997-01-09 09:00:00,0,1003.2,1.9,100,0,1500,7.408,,,350,,,,,,,,,,10,wg-a,,,,AAXX 09094 07222 12115 83504 10000 20000 30000 40032 53019 60006 71022 886// 90900=
07222,1997-01-09 12:00:00,0,1005.3,2.1,100,0,2000,7.408,,,330,,,,,,,,,,10,wg-a,,,,AAXX 09124 07222 12220 83304 10000 20000 30021 40053 51021 60006 71022 886// 91200=
07222,1997-01-09 15:00:00,1,1007.1,1.7,93,0,2500,14.816,,,310,,,,,,,,,,10,wg-a,,,,AAXX 09154 07222 12225 83108 10010 20000 30038 40071 53017 60006 71022 886// 91500=
07222,1997-01-09 18:00:00,1,1009.5,2.4,93,0,2000,11.112,,,330,-0.4,0.7,,,,,,,,10,wg-a,,6,,AAXX 09184 07222 02320 83306 10010 20000 30062 40095 52024 61000 71072 886// 91800 333 10007 21004 4/006 6100=
07222,1997-01-09 21:00:00,2,1011.4,2,93,1,3500,14.816,,,320,,,,0,,,,,,10,wg-a,,,,AAXX 09214 07222 12335 83208 10020 20010 30082 40114 52020 60007 71022 886// 92100=
07222,1997-01-10 00:00:00,2,1013.8,2.3,93,1,500,7.408,,,310,,,,,,,,,,,wg-a,,,,AAXX 10004 07222 12500 83104 10020 20010 30105 40138 51023 60006 875// 90000=
07222,1997-01-10 03:00:00,1,1015.7,1.9,93,0,4000,11.112,,,300,,,,,,,,,,10,wg-a,,,,AAXX 10034 07222 12440 83006 10010 20000 30124 40157 53019 60006 71022 875// 90300=
07222,1997-01-10 06:00:00,1,1016.8,1.1,93,0,3500,3.704,,,290,0.6,2.4,,,,,,,,10,wg-a,,6,,AAXX 10064 07222 02335 82902 10010 20000 30135 40168 53011 60006 71022 875// 90600 333 10024 20006 4/006 60004=
07222,1997-01-10 09:00:00,1,1018.7,1.9,93,0,3000,0,,,0,,,,,,,,,,10,wg-a,,,,AAXX 10094 07222 12230 80000 10010 20000 30154 40187 51019 60006 71022 875// 90900=
07222,1997-01-10 12:00:00,3,1020.2,1.5,93,2,2500,0,,,0,,,,,,,,,,10,wg-a,,,,AAXX 10124 07222 12225 80000 10030 20020 30169 40202 51015 60006 71022 875// 91200=
07222,1997-01-10 15:00:00,2,1020.4,0.2,93,1,2000,11.112,,,110,,,,,,,,,,10,wg-a,,,,AAXX 10154 07222 12220 71106 10020 20010 30171 40204 53002 60006 71022 876// 91500=
07222,1997-01-10 18:00:00,1,1021.9,1.5,100,1,700,7.408,,,80,0.3,5,,,,,,,,44,wg-a,,0,,AAXX 10184 07222 12107 80804 10010 20010 30186 40219 51015 60006 74442 886// 91800 333 10050 20003 4/9999=
07222,1997-01-10 21:00:00,1,1022.5,0.6,100,1,4000,11.112,,,140,,,,,,,,,,10,wg-a,,,,AAXX 10214 07222 12240 81406 10010 20010 30192 40225 53006 60006 71042 886// 92100=
07222,1997-01-11 00:00:00,1,1022.7,0.2,100,1,3000,11.112,,,150,,,,,,,,,,10,wg-a,,,,AAXX 11004 07222 12230 81506 10010 20010 30194 40227 50002 60006 71042 876// 90000=
07222,1997-01-11 03:00:00,1,1022.9,0.2,100,1,6000,11.112,,,140,,,,,,,,,,3,wg-a,,,,AAXX 11034 07222 02456 81406 10010 20010 30196 40229 53002 61000 70362 875// 90300 333 ////=
07222,1997-01-11 06:00:00,2,1023.2,0.3,93,1,6000,14.816,,,150,0.7,1.7,,,,,,,,1,wg-a,,0,,AAXX 11064 07222 02556 81508 10020 20010 30199 40232 53003 60006 70162 875// 90600 333 10017 20007 4/9999 61000=
07222,1997-01-11 09:00:00,2,1024.6,1.4,93,1,3500,14.816,,,150,,,,,,,,,,10,wg-a,,,,AAXX 11094 07222 02535 81508 10020 20010 30213 40246 53014 61000 71062 875// 90900 333 ////=
07222,1997-01-11 12:00:00,3,1025.3,0.7,93,2,4000,11.112,,,160,,,,,,,,,,10,wg-a,,,,AAXX 11124 07222 02440 81606 10030 20020 30220 40253 51007 61000 71062 875// 91200 333 6100=
07222,1997-01-11 15:00:00,3,1025.1,-0.2,93,2,4000,11.112,,,130,,,,,,,,,,10,wg-a,,,,AAXX 11154 07222 12440 81306 10030 20020 30218 40251 55002 60006 71022 875// 91500=
07222,1997-01-11 18:00:00,3,1026,0.9,100,3,1500,11.112,,,150,1.6,3.3,,,,,,,,10,wg-a,,0,,AAXX 11184 07222 02115 81506 10030 20030 30227 40260 52009 61000 71062 877// 91800 333 10033 20016 4/9999 6000=
07222,1997-01-11 21:00:00,3,1026.4,0.4,100,3,3000,11.112,,,150,,,,0,,,,,,10,wg-a,,,,AAXX 11214 07222 12330 81506 10030 20030 30231 40264 53004 60007 71065 877// 92100=
07222,1997-01-12 00:00:00,3,1027,0.6,100,3,2500,7.408,,,150,,,,,,,,,,10,wg-a,,,,AAXX 12004 07222 12225 81504 10030 20030 30237 40270 50006 60016 71065 877// 90000=
07222,1997-01-12 03:00:00,4,1026.7,-0.3,100,4,4000,11.112,,,80,,,,0,,,,,,10,wg-a,,,,AAXX 12034 07222 12240 80806 10040 20040 30234 40267 55003 60007 71022 877// 90300=
07222,1997-01-12 06:00:00,3,1026.8,0.1,100,3,6000,7.408,,,100,2.7,3.8,,,,,1,,,1,wg-a,,0,,AAXX 12064 07222 02456 81004 10030 20030 30235 40268 52001 60006 70152 876// 90600 333 10038 20027 4/9999 60014=
07222,1997-01-12 09:00:00,4,1027.3,0.5,87,2,10000,7.408,,,90,,,,,,,,,,,wg-a,,,,AAXX 12094 07222 12460 30904 10040 20020 30240 40273 53005 60006 83500 90900=
07222,1997-01-12 12:00:00,7,1026.9,-0.3,76,3,10000,11.112,,,100,,,,,,,,,,,wg-a,,,,AAXX 12124 07222 12560 31006 10070 20030 30237 40269 58003 60006 82501 91200=
07222,1997-01-12 15:00:00,11,1025.2,-1.7,47,0,15000,11.112,,,100,,,,,,,,,,,wg-a,,,,AAXX 12154 07222 12/65 11006 10110 20000 30220 40252 56017 60006 80001 91500=
07222,1997-01-12 18:00:00,6,1025.3,0.1,70,1,15000,14.816,,,60,3.4,10.9,,,,,,,,,wg-a,,,,AAXX 12184 07222 12/65 10608 10060 20010 30221 40253 50001 60006 80001 91800 333 10109 20034=
07222,1997-01-12 21:00:00,3,1025.5,0.1,81,0,10000,11.112,,,90,,,,,,,,,,,wg-a,,,,AAXX 12214 07222 12/60 00906 10030 20000 30222 40255 50001 60006 80000 92100=
07222,1997-01-13 00:00:00,1,1025.1,-0.4,86,-1,10000,7.408,,,50,,,,,,,,,,,wg-a,,,,AAXX 13004 07222 12/60 00504 10010 21010 30218 40251 58004 60006 80000 90000=
07222,1997-01-13 03:00:00,2,1023.8,-1.3,69,-3,10000,18.52,,,60,,,,,,,,,,,wg-a,,,,AAXX 13034 07222 12/60 00610 10020 21030 30205 40238 58013 60006 80000 90300=
07222,1997-01-13 06:00:00,2,1023.2,-0.6,64,-4,8000,18.52,,,60,0.9,6.4,,,,,,,,,wg-a,,,,AAXX 13064 07222 02/58 00610 10020 21040 30199 40232 55006 60006 80000 90600 333 10064 20009 60004=
07222,1997-01-13 09:00:00,1,1023.6,0.4,75,-3,10000,14.816,,,60,,,,,,,,,,,wg-a,,,,AAXX 13094 07222 12/60 00608 10010 21030 30203 40236 53004 60006 80000 90900=
07222,1997-01-13 12:00:00,7,1022.8,-0.7,49,-3,10000,14.816,,,60,,,,,,,,,,,wg-a,,,,AAXX 13124 07222 12/60 10608 10070 21030 30196 40228 58007 60006 80002 91200=
07222,1997-01-13 15:00:00,8,1021.7,-1.1,57,0,12000,14.816,,,50,,,,,,,,,,,wg-a,,,,AAXX 13154 07222 12/62 10508 10080 20000 30185 40217 56011 60006 80001 91500=
07222,1997-01-13 18:00:00,4,1021.8,-0,65,-2,10000,11.112,,,60,0,8.2,,,,,,,,,wg-a,,,,AAXX 13184 07222 12/60 00606 10040 21020 30185 40218 55000 60006 80000 91800 333 10082 20000=
07222,1997-01-13 21:00:00,1,1021.9,0.1,80,-2,10000,11.112,,,90,,,,,,,,,,,wg-a,,,,AAXX 13214 07222 12/60 00906 10010 21020 30186 40219 51001 60006 80000 92100=
07222,1997-01-14 00:00:00,1,1021.3,-0.6,80,-2,10000,7.408,,,60,,,,,,,,,,,wg-a,,,,AAXX 14004 07222 12/60 00604 10010 21020 30180 40213 57006 60006 80000 90000=
07222,1997-01-14 03:00:00,-1,1020.6,-0.7,86,-3,8000,7.408,,,60,,,,,,,,,,,wg-a,,,,AAXX 14034 07222 12/58 00604 11010 21030 30173 40206 56007 60006 80000 90300=
07222,1997-01-14 06:00:00,0,1020.1,-0.5,86,-2,8000,7.408,,,60,-1.1,3.8,,,,,,,,,wg-a,,,,AAXX 14064 07222 02/58 00604 10000 21020 30168 40201 56005 60006 80000 90600 333 10038 21011 60004=
07222,1997-01-14 09:00:00,1,1020.5,0.4,80,-2,7000,11.112,,,90,,,,,,,,,,,wg-a,,,,AAXX 14094 07222 12/57 00906 10010 21020 30172 40205 53004 60006 80000 90900=
07222,1997-01-14 12:00:00,8,1020.1,-0.3,71,3,18000,14.816,,,140,,,,,,,,,,,wg-a,,,,AAXX 14124 07222 12/68 01408 10080 20030 30169 40201 58003 60006 80000 91200=
07222,1997-01-14 15:00:00,10,1019.5,-0.6,62,3,20000,14.816,,,130,,,,,,,,,,,wg-a,,,,AAXX 14154 07222 12/70 01308 10100 20030 30163 40195 55006 60006 80000 91500=
07222,1997-01-14 18:00:00,5,1020.2,0.7,81,2,10000,3.704,,,100,-0.9,9.9,,,,,,,,,wg-a,,,,AAXX 14184 07222 12/60 01002 10050 20020 30170 40202 51007 60006 80000 91800 333 10099 21009=
07222,1997-01-14 21:00:00,2,1020.6,0.6,87,0,10000,11.112,,,130,,,,,,,,,,,wg-a,,,,AAXX 14214 07222 12/60 01306 10020 20000 30173 40206 53006 60006 80000 92100=
07222,1997-01-15 00:00:00,2,1021.2,0.3,87,0,10000,14.816,,,140,,,,,,,,,,,wg-a,,,,AAXX 15004 07222 12/60 81408 10020 20000 30179 40212 51003 60006 90000=
07222,1997-01-15 06:00:00,3,1021.2,-0.1,87,1,10000,18.52,,,140,1.3,5.6,,,,,,,,,wg-a,,,,AAXX 15064 07222 02/60 01410 10030 20010 30179 40212 55001 60006 80000 90600 333 10056 20013 60004=
07222,1997-01-15 09:00:00,4,1022.2,1,87,2,15000,18.52,,,140,,,,,,,,,,,wg-a,,,,AAXX 15094 07222 12/65 01410 10040 20020 30189 40222 51010 60006 80000 90900=
07222,1997-01-15 12:00:00,10,1021.6,-0.5,62,3,22000,18.52,,,140,,,,,,,,,,,wg-a,,,,AAXX 15124 07222 12/72 01410 10100 20030 30184 40216 58005 60006 80000 91200=
07222,1997-01-15 15:00:00,11,1020.3,-1.3,66,5,25000,18.52,,,140,,,,,,,,,,,wg-a,,,,AAXX 15154 07222 12/75 01410 10110 20050 30171 40203 56013 60006 80000 91500=
07222,1997-01-15 18:00:00,7,1020.3,-0,76,3,10000,11.112,,,100,2.2,11.6,,,,,,,,,wg-a,,,,AAXX 15184 07222 12/60 /1006 10070 20030 30171 40203 55000 60006 91800 333 10116 20022=
07222,1997-01-15 21:00:00,4,1020.3,-0.1,87,2,15000,7.408,,,90,,,,,,,,,,,wg-a,,,,AAXX 15214 07222 12/65 00904 10040 20020 30170 40203 58001 60006 80000 92100=
07222,1997-01-16 00:00:00,3,1019.9,-0.4,87,1,15000,7.408,,,130,,,,,,,,,,,wg-a,,,,AAXX 16004 07222 12/65 01304 10030 20010 30166 40199 56004 60006 80000 90000=
07222,1997-01-16 03:00:00,3,1018.4,-1.5,87,1,15000,18.52,,,140,,,,,,,,,,,wg-a,,,,AAXX 16034 07222 12/65 01410 10030 20010 30151 40184 57015 60006 80000 90300=
07222,1997-01-16 06:00:00,2,1017.5,-0.9,100,2,10000,18.52,,,140,2.2,7.2,,,,,,,,,wg-a,,,,AAXX 16064 07222 02/60 01410 10020 20020 30142 40175 57009 60006 80000 90600 333 10072 20022 60004=
07222,1997-01-16 09:00:00,4,1017.4,-0,93,3,10000,22.224,,,140,,,,,,,,,,,wg-a,,,,AAXX 16094 07222 12760 21412 10040 20030 30142 40174 54000 60006 81530 90900=
07222,1997-01-16 12:00:00,9,1016,-1.4,81,6,18000,22.224,,,140,,,,,,,,,,,wg-a,,,,AAXX 16124 07222 12768 51412 10090 20060 30128 40160 58014 60006 81530 91200=
07222,1997-01-16 15:00:00,12,1013.9,-2,71,7,20000,25.928,,,140,,,,,,,,,,,wg-a,,,,AAXX 16154 07222 12/70 11414 10120 20070 30108 40139 56020 60006 81030 91500=
07222,1997-01-16 18:00:00,8,1013.7,-0.3,87,6,20000,18.52,,,130,2.2,12.1,,,,,,,,,wg-a,,,,AAXX 16184 07222 12/70 31310 10080 20060 30105 40137 55003 60006 81031 91800 333 10121 20022=
07222,1997-01-16 21:00:00,8,1012.4,-1.3,87,6,15000,22.224,,,140,,,,,,,,,,,wg-a,,,,AAXX 16214 07222 12/65 01412 10080 20060 30092 40124 58013 60006 80000 92100=
07222,1997-01-17 00:00:00,9,1011.1,-1.3,81,6,15000,25.928,,,160,,,,,,,,,,,wg-a,,,,AAXX 17004 07222 12/65 21614 10090 20060 30079 40111 56013 60006 82030 90000=
07222,1997-01-17 03:00:00,8,1010.2,-0.9,87,6,15000,25.928,,,150,,,,,,,,,,,wg-a,,,,AAXX 17034 07222 12/65 71514 10080 20060 30070 40102 57009 60006 8707/ 90300=
07222,1997-01-17 06:00:00,9,1009.7,-0.5,87,7,15000,29.632,,,160,6.7,8.8,,,,,,,,21,wg-a,,,,AAXX 17064 07222 02565 81616 10090 20070 30065 40097 56005 61000 72161 875// 90600 333 10088 20067 6100=
07222,1997-01-17 09:00:00,8,1011.4,1.7,100,8,4000,25.928,,,170,,,,4,,,,,,10,wg-a,,,,AAXX 17094 07222 12240 81714 10080 20080 30082 40114 53017 60047 71062 885// 90900=
07222,1997-01-17 12:00:00,10,1013.6,2.2,87,8,10000,22.224,,,280,,,,2,,,,,,1,wg-a,,,,AAXX 17124 07222 02360 72812 10100 20080 30104 40136 51022 60066 70162 875// 91200 333 60027=
07222,1997-01-17 15:00:00,11,1015.4,1.9,87,9,10000,14.816,,,270,,,,,,,,,,,wg-a,,,,AAXX 17154 07222 12460 /2708 10110 20090 30123 40154 53019 60006 85832 91500=
07222,1997-01-17 21:00:00,6,1018.5,1.3,100,6,600,11.112,,,190,,,,,,,,,,44,wg-a,,,,AAXX 17214 07222 12506 31906 10060 20060 30153 40185 51013 60006 74441 8350/ 92100=
07222,1997-01-18 00:00:00,5,1019,0.5,100,5,300,7.408,,,170,,,,0,,,,,,44,wg-a,,,,AAXX 18004 07222 02003 71704 10050 20050 30158 40190 51005 60006 74441 877// 90000 333 60007=
07222,1997-01-18 03:00:00,5,1018.3,-0.7,100,5,3000,7.408,,,140,,,,,,,,,,10,wg-a,,,,AAXX 18034 07222 12130 71404 10050 20050 30151 40183 58007 60006 71042 877// 90300=
07222,1997-01-18 06:00:00,5,1017.7,-0.6,100,5,300,14.816,,,140,4.1,7.6,,,,,7,,,45,wg-a,,,,AAXX 18064 07222 02/03 91408 10050 20050 30145 40177 58006 60006 74542 89/// 90600 333 10076 20041 60074=
07222,1997-01-18 09:00:00,6,1016.8,-0.9,100,6,400,18.52,,,150,,,,,,,,,,45,wg-a,,,,AAXX 18094 07222 32/04 91510 10060 20060 30136 40168 58009 74544 89/// 90900=
07222,1997-01-18 12:00:00,7,1013.9,-2.9,100,7,7000,22.224,,,150,,,,,,,,,,1,wg-a,,,,AAXX 18124 07222 12157 71512 10070 20070 30107 40139 56029 60006 70142 876// 91200=
07222,1997-01-18 15:00:00,8,1009.4,-4.5,87,6,10000,25.928,,,110,,,,,,,,,,,wg-a,,,,AAXX 18154 07222 12460 71114 10080 20060 30062 40094 56045 60006 8353/ 91500=
07222,1997-01-18 18:00:00,7,1007.3,-2.1,100,7,8000,18.52,,,110,4.9,8.1,,,,,,,,21,wg-a,,,,AAXX 18184 07222 02458 71110 10070 20070 30041 40073 58021 61000 72162 8357/ 91800 333 10081 20049 6001=
07222,1997-01-18 21:00:00,9,1005.2,-2,87,7,15000,35.188,,57.412,170,,,,1,,,,,,21,wg-a,,,,AAXX 18214 07222 12465 71719 10090 20070 30021 40052 56020 60017 72162 875// 92100 333 91031=
07222,1997-01-19 00:00:00,9,1006.2,0.9,93,8,15000,14.816,,,180,,,,,,,,,,3,wg-a,,,,AAXX 19004 07222 12565 31808 10090 20080 30030 40062 50009 60016 70361 83200 90000=
07222,1997-01-19 03:00:00,7,1006.4,0.2,100,7,15000,14.816,,,170,,,,,,,,,,,wg-a,,,,AAXX 19034 07222 12665 31708 10070 20070 30032 40064 52002 60006 82202 90300=
07222,1997-01-19 06:00:00,7,1006,-0.4,93,6,15000,14.816,,,160,6.6,9.6,,,,,1,,,,wg-a,,,,AAXX 19064 07222 02565 /1608 10070 20060 30028 40060 58004 60006 81201 90600 333 10096 20066 60014=
07222,1997-01-19 09:00:00,7,1007.8,1.8,93,6,15000,18.52,,,150,,,,,,,,,,,wg-a,,,,AAXX 19094 07222 12665 31510 10070 20060 30046 40078 53018 60006 83500 90900=
07222,1997-01-19 12:00:00,11,1008.3,0.6,87,9,12000,18.52,,,160,,,,,,,,,,,wg-a,,,,AAXX 19124 07222 12462 /1610 10110 20090 30052 40083 50006 60006 85200 91200=
07222,1997-01-19 15:00:00,9,1008.8,0.4,81,6,12000,18.52,,,210,,,,5,,,,,,89,wg-a,,,,AAXX 19154 07222 12562 72110 10090 20060 30056 40088 53004 60057 78987 87900 91500=
07222,1997-01-19 18:00:00,9,1010.4,1.6,93,8,15000,11.112,,,170,5.7,12.5,,0,,,,,,1,wg-a,,,,AAXX 19184 07222 02565 61706 10090 20080 30072 40104 53016 60006 70187 86800 91800 333 10125 20057 60007=
07222,1997-01-19 21:00:00,6,1011.8,1.4,93,5,15000,14.816,,,140,,,,,,,,,,,wg-a,,,,AAXX 19214 07222 12665 /1408 10060 20050 30086 40118 51014 60006 81500 92100=
07222,1997-01-20 00:00:00,5,1013.3,1.5,100,5,10000,7.408,,,110,,,,,,,,,,,wg-a,,,,AAXX 20004 07222 12/60 21104 10050 20050 30101 40133 51015 60006 82030 90000=
07222,1997-01-20 03:00:00,5,1013.8,0.5,100,5,3000,7.408,,,40,,,,,,,,,,10,wg-a,,,,AAXX 20034 07222 12/30 /0404 10050 20050 30106 40138 53005 60006 71011 82032 90300=
07222,1997-01-20 06:00:00,4,1014.5,0.7,100,4,3000,11.112,,,30,2.3,9.1,,,,,5,,,10,wg-a,,,,AAXX 20064 07222 02/30 /0306 10040 20040 30113 40145 51007 60006 71011 83032 90600 333 10091 20023 60054=
07222,1997-01-20 09:00:00,3,1017.3,2.8,100,3,1500,14.816,,,30,,,,,,,,,,28,wg-a,,,,AAXX 20094 07222 12115 90308 10030 20030 30141 40173 53028 60006 72842 897// 90900=
07222,1997-01-20 12:00:00,6,1018.6,1.3,100,6,8000,22.224,,,50,,,,,,,,,,3,wg-a,,,,AAXX 20124 07222 12258 70512 10060 20060 30154 40186 50013 60006 70342 84101 91200=
07222,1997-01-20 15:00:00,8,1018.8,0.2,87,6,10000,31.484,,,60,,,,,,,,,,,wg-a,,,,AAXX 20154 07222 12460 /0617 10080 20060 30156 40188 51002 60006 85101 91500=
07222,1997-01-20 18:00:00,6,1020.4,1.6,87,4,10000,29.632,,46.3,50,3,8.5,,,,,,,,,wg-a,,,,AAXX 20184 07222 12460 70516 10060 20040 30172 40204 51016 60006 875// 91800 333 10085 20030 91025=
07222,1997-01-20 21:00:00,6,1021.4,1,87,4,10000,29.632,,48.152,50,,,,,,,,,,,wg-a,,,,AAXX 20214 07222 12460 70516 10060 20040 30182 40214 51010 60006 875// 92100 333 91026=
07222,1997-01-21 00:00:00,5,1021.1,-0.3,87,3,10000,29.632,,,60,,,,,,,,,,,wg-a,,,,AAXX 21004 07222 12460 70616 10050 20030 30179 40211 58003 60006 875// 90000=
07222,1997-01-21 03:00:00,4,1020.5,-0.6,87,2,10000,29.632,,,60,,,,,,,,,,,wg-a,,,,AAXX 21034 07222 12460 80616 10040 20020 30173 40205 58006 60006 875// 90300=
07222,1997-01-21 06:00:00,4,1018.7,-1.8,87,2,10000,31.484,,,60,3.9,6.2,,,,,,,,,wg-a,,,,AAXX 21064 07222 02460 80617 10040 20020 30155 40187 56018 60006 875// 90600 333 10062 20039 60004=
07222,1997-01-21 09:00:00,5,1018,-0.7,87,3,10000,29.632,,,60,,,,,,,,,,,wg-a,,,,AAXX 21094 07222 12460 80616 10050 20030 30148 40180 58007 60006 875// 90900=
07222,1997-01-21 12:00:00,5,1016.6,-1.4,87,3,8000,29.632,,,70,,,,,,,,,,,wg-a,,,,AAXX 21124 07222 12458 80716 10050 20030 30134 40166 57014 60006 875// 91200=
07222,1997-01-21 15:00:00,6,1014.3,-2.3,93,5,500,22.224,,,70,,,,0,,,,,,60,wg-a,,,,AAXX 21154 07222 12400 80712 10060 20050 30111 40143 56023 60007 76062 875// 91500=
07222,1997-01-21 18:00:00,6,1013.6,-0.7,93,5,500,18.52,,,80,3.9,6,,,,,,,,,wg-a,,,,AAXX 21184 07222 12/00 /0810 10060 20050 30104 40136 58007 60006 91800 333 10060 20039=
07222,1997-01-21 21:00:00,6,1012.6,-1,100,6,7000,18.52,,,100,,,,1,,,,,,21,wg-a,,,,AAXX 21214 07222 12557 81010 10060 20060 30094 40126 55010 60017 72162 8557/ 92100=
07222,1997-01-22 00:00:00,7,1012.7,0.1,100,7,6000,11.112,,,140,,,,,,,,,,3,wg-a,,,,AAXX 22004 07222 12256 71406 10070 20070 30095 40127 50001 60016 70362 875// 90000=
07222,1997-01-22 03:00:00,9,1012.9,0.2,100,9,10000,18.52,,,160,,,,,,,,,,,wg-a,,,,AAXX 22034 07222 12260 71610 10090 20090 30097 40129 53002 60006 875// 90300=
07222,1997-01-22 06:00:00,8,1013.8,0.9,100,8,10000,11.112,,,160,5.9,9.1,,,,,2,,,,wg-a,,,,AAXX 22064 07222 02460 71606 10080 20080 30106 40138 53009 60006 875// 90600 333 10091 20059 60024=
07222,1997-01-22 09:00:00,9,1015.1,1.3,100,9,700,11.112,,,180,,,,,,,,,,10,wg-a,,,,AAXX 22094 07222 12107 71806 10090 20090 30119 40151 53013 60006 71042 876// 90900=
07222,1997-01-22 12:00:00,12,1015.8,0.8,88,10,15000,25.928,,,180,,,,,,,,,,1,wg-a,,,,AAXX 22124 07222 12465 31814 10120 20100 30127 40158 50008 60006 70141 83800 91200=
07222,1997-01-22 15:00:00,13,1016,0.2,67,7,25000,22.224,,,220,,,,,,,,,,,wg-a,,,,AAXX 22154 07222 12675 32212 10130 20070 30129 40160 53002 60006 82830 91500=
07222,1997-01-22 18:00:00,9,1016.6,0.5,81,6,20000,18.52,,,180,8.3,13.7,,,,,,,,,wg-a,,,,AAXX 22184 07222 12770 11810 10090 20060 30134 40166 53005 60006 81500 91800 333 10137 20083=
07222,1997-01-22 21:00:00,9,1016.6,0.5,81,6,20000,18.52,,,180,8.3,13.7,,,,,,,,,wg-a,,,,AAXX 22214 07222 12770 /1810 10090 20060 30134 40166 53005 60006 81500 92100 333 10137 20083=
07222,1997-01-23 00:00:00,5,1019,0.9,100,5,15000,11.112,,,160,,,,,,,,,,,wg-a,,,,AAXX 23004 07222 12465 51606 10050 20050 30158 40190 51009 60006 84530 90000=
07222,1997-01-23 03:00:00,4,1019.2,0.1,100,4,15000,3.704,,,110,,,,,,,,,,,wg-a,,,,AAXX 23034 07222 12/65 11102 10040 20040 30159 40192 53001 60006 80001 90300=
07222,1997-01-23 06:00:00,4,1019.6,0.4,100,4,500,7.408,,,80,2.3,9.2,,,,,,,,40,wg-a,,,,AAXX 23064 07222 02700 /0804 10040 20040 30163 40196 52004 60006 74011 81502 90600 333 10092 20023 60004=
07222,1997-01-23 09:00:00,5,1020.5,1,100,5,7000,7.408,,,20,,,,,,,,,,,wg-a,,,,AAXX 23094 07222 12757 70204 10050 20050 30173 40205 53010 60006 82502 90900=
07222,1997-01-23 12:00:00,8,1020.7,0.2,87,6,8000,11.112,,,70,,,,,,,,,,60,wg-a,,,,AAXX 23124 07222 02658 70706 10080 20060 30175 40207 50002 61000 76062 875// 91200 333 6100=
07222,1997-01-23 18:00:00,7,1020.8,1,100,7,2000,7.408,,,30,2.9,8.1,,,,,,,,10,wg-a,,,,AAXX 23184 07222 02120 80304 10070 20070 30176 40208 53010 61000 71065 877// 91800 333 10081 20029 6000=
07222,1997-01-23 21:00:00,7,1021.9,1.1,100,7,2500,7.408,,,50,,,,,,,,,,10,wg-a,,,,AAXX 23214 07222 02125 80504 10070 20070 30187 40219 51011 61000 71052 887// 92100 333 ////=
07222,1997-01-24 00:00:00,7,1022,0.1,100,7,2500,7.408,,,30,,,,,,,,,,10,wg-a,,,,AAXX 24004 07222 02225 70304 10070 20070 30188 40220 51001 61000 71052 875// 90000 333 ////=
07222,1997-01-24 03:00:00,7,1021.9,-0.1,100,7,2000,7.408,,,40,,,,0,,,,,,10,wg-a,,,,AAXX 24034 07222 12220 70404 10070 20070 30187 40219 55001 60007 71022 875// 90300=
07222,1997-01-24 06:00:00,7,1023,1.1,100,7,1500,7.408,,,20,6.9,7.3,,,,,,,,10,wg-a,,,,AAXX 24064 07222 02115 80204 10070 20070 30198 40230 53011 61000 71062 8657/ 90600 333 10073 20069 6001=
07222,1997-01-24 09:00:00,8,1024.2,1.2,100,8,1200,7.408,,,20,,,,0,,,,,,10,wg-a,,,,AAXX 24094 07222 12712 80204 10080 20080 30210 40242 53012 60007 71066 8557/ 90900=
07222,1997-01-24 12:00:00,10,1025.1,0.9,93,9,2000,11.112,,,60,,,,0,,,,,,10,wg-a,,,,AAXX 24124 07222 02220 80606 10100 20090 30219 40251 50009 60016 71062 8557/ 91200 333 60007=
07222,1997-01-24 15:00:00,12,1024.8,-0.3,88,10,6000,11.112,,,80,,,,,,,,,,,wg-a,,,,AAXX 24154 07222 12756 70806 10120 20100 30216 40248 55003 60006 875// 91500=
07222,1997-01-24 18:00:00,10,1026.3,1.5,93,9,500,7.408,,,60,7.2,11.8,,,,,,,,58,wg-a,,,,AAXX 24184 07222 02500 70604 10100 20090 30231 40263 53015 61000 75865 875// 91800 333 10118 20072 ////=
07222,1997-01-25 00:00:00,10,1027.7,0.4,100,10,2000,3.704,,,30,,,,1,,,,,,10,wg-a,,,,AAXX 25004 07222 02220 70302 10100 20100 30245 40277 50004 60016 71065 877// 90000 333 60017=
07222,1997-01-25 03:00:00,9,1027.2,-0.5,100,9,2500,14.816,,,50,,,,0,,,,,,10,wg-a,,,,AAXX 25034 07222 12125 70508 10090 20090 30240 40272 58005 60007 71052 877// 90300=
07222,1997-01-25 06:00:00,9,1027.1,-0.1,100,9,4000,14.816,,,70,9.1,10.3,,,,,2,,,10,wg-a,,,,AAXX 25064 07222 02240 70708 10090 20090 30239 40271 56001 60006 71052 875// 90600 333 10103 20091 60024=
07222,1997-01-25 09:00:00,9,1028,0.9,100,9,2000,7.408,,,90,,,,,,,,,,10,wg-a,,,,AAXX 25094 07222 02220 80904 10090 20090 30248 40280 53009 61000 71052 877// 90900 333 ////=
07222,1997-01-25 12:00:00,10,1028,0,100,10,3000,11.112,,,100,,,,,,,,,,,wg-a,,,,AAXX 25124 07222 02/30 /1006 10100 20100 30248 40280 50000 61000 91200 333 ////=
07222,1997-01-25 15:00:00,11,1027,-1,94,10,500,7.408,,,70,,,,,,,,,,,wg-a,,,,AAXX 25154 07222 12400 70704 10110 20100 30238 40270 55010 60006 875// 91500=
07222,1997-01-25 18:00:00,10,1027.4,0.4,100,10,4000,11.112,,,50,9.3,11.7,,,,,,,,20,wg-a,,,,AAXX 25184 07222 02440 80506 10100 20100 30242 40274 52004 61000 72052 875// 91800 333 10117 20093 6100=
07222,1997-01-25 21:00:00,10,1027.6,0.2,93,9,4000,3.704,,,50,,,,,,,,,,10,wg-a,,,,AAXX 25214 07222 12740 /0502 10100 20090 30244 40276 50002 60006 71022 85500 92100=
07222,1997-01-26 00:00:00,7,1027.6,0,100,7,2000,14.816,,,80,,,,,,,,,,10,wg-a,,,,AAXX 26004 07222 12120 80808 10070 20070 30244 40276 50000 60006 71011 886// 90000=
07222,1997-01-26 03:00:00,5,1027.4,-0.3,100,5,2000,18.52,,,90,,,,,,,,,,10,wg-a,,,,AAXX 26034 07222 12120 80910 10050 20050 30241 40274 58003 60006 71022 886// 90300=
07222,1997-01-26 06:00:00,5,1027.1,-0.3,100,5,2000,14.816,,,80,4.7,10.5,,,,,,,,10,wg-a,,,,AAXX 26064 07222 02120 80808 10050 20050 30238 40271 57003 60006 71022 886// 90600 333 10105 20047 61000=
07222,1997-01-26 09:00:00,5,1027.8,0.7,100,5,1100,14.816,,,80,,,,,,,,,,28,wg-a,,,,AAXX 26094 07222 12111 80808 10050 20050 30245 40278 53007 60006 72842 886// 90900=
07222,1997-01-26 12:00:00,6,1027.9,0.2,100,6,2500,18.52,,,70,,,,,,,,,,10,wg-a,,,,AAXX 26124 07222 12225 80710 10060 20060 30247 40279 50002 60006 71042 886// 91200=
07222,1997-01-26 15:00:00,6,1027.4,-0.5,100,6,2500,14.816,,,60,,,,,,,,,,10,wg-a,,,,AAXX 26154 07222 12225 80608 10060 20060 30242 40274 55005 60006 71022 886// 91500=
07222,1997-01-26 18:00:00,5,1028,0.5,93,4,500,11.112,,,80,4.6,6.5,,,,,,,,,wg-a,,,,AAXX 26184 07222 12/00 /0806 10050 20040 30247 40280 53005 60006 80000 91800 333 10065 20046=
07222,1997-01-26 21:00:00,4,1029,1,93,3,500,7.408,,,80,,,,,,,,,,,wg-a,,,,AAXX 26214 07222 12/00 00804 10040 20030 30257 40290 51010 60006 80000 92100=
07222,1997-01-27 00:00:00,2,1029.7,0.7,93,1,4000,14.816,,,70,,,,,,,,,,10,wg-a,,,,AAXX 27004 07222 12240 80708 10020 20010 30264 40297 51007 60006 71011 876// 90000=
07222,1997-01-27 03:00:00,2,1030.4,0.7,93,1,4000,14.816,,,50,,,,,,,,,,10,wg-a,,,,AAXX 27034 07222 12240 80508 10020 20010 30271 40304 52007 60006 71022 876// 90300=
07222,1997-01-27 06:00:00,1,1031.3,0.9,100,1,4000,18.52,,,50,1.2,4.6,,,,,,,,10,wg-a,,,,AAXX 27064 07222 02240 80510 10010 20010 30280 40313 53009 60006 71022 886// 90600 333 10046 20012 60004=
07222,1997-01-27 09:00:00,1,1033.1,1.8,93,0,3000,18.52,,,60,,,,,,,,,,10,wg-a,,,,AAXX 27094 07222 12230 80610 10010 20000 30298 40331 53018 60006 71022 886// 90900=
07222,1997-01-27 12:00:00,2,1034,0.9,93,1,7000,14.816,,,40,,,,,,,,,,,wg-a,,,,AAXX 27124 07222 12/57 /0408 10020 20010 30307 40340 51009 60006 91200=
07222,1997-01-27 15:00:00,2,1034.4,0.4,93,1,6000,14.816,,,50,,,,,,,,,,,wg-a,,,,AAXX 27154 07222 12456 80508 10020 20010 30311 40344 53004 60006 885// 91500=
07222,1997-01-27 18:00:00,3,1035.5,1.1,81,0,8000,11.112,,,50,0.9,2.9,,,,,,,,,wg-a,,,,AAXX 27184 07222 12458 80506 10030 20000 30322 40355 51011 60006 885// 91800 333 10029 20009=
07222,1997-01-27 21:00:00,3,1036.8,1.3,87,1,7000,11.112,,,60,,,,,,,,,,,wg-a,,,,AAXX 27214 07222 12457 80606 10030 20010 30335 40368 51013 60006 885// 92100=
07222,1997-01-28 00:00:00,4,1037.4,0.6,87,2,8000,11.112,,,50,,,,,,,,,,,wg-a,,,,AAXX 28004 07222 12458 80506 10040 20020 30341 40374 51006 60006 885// 90000=
07222,1997-01-28 03:00:00,4,1037,-0.4,87,2,8000,3.704,,,30,,,,,,,,,,,wg-a,,,,AAXX 28034 07222 12458 80302 10040 20020 30337 40370 56004 60006 885// 90300=
07222,1997-01-28 06:00:00,3,1036.7,-0.3,93,2,6000,3.704,,,340,2.8,3.6,,,,,,,,,wg-a,,,,AAXX 28064 07222 02456 83402 10030 20020 30334 40367 58003 60006 875// 90600 333 10036 20028 60004=
07222,1997-01-28 09:00:00,4,1037,0.3,93,3,4000,11.112,,,10,,,,,,,,,,10,wg-a,,,,AAXX 28094 07222 12340 80106 10040 20030 30337 40370 53003 60006 71022 875// 90900=
07222,1997-01-28 12:00:00,6,1036.2,-0.8,93,5,3500,11.112,,,30,,,,,,,,,,10,wg-a,,,,AAXX 28124 07222 12335 80306 10060 20050 30329 40362 58008 60006 71022 875// 91200=
07222,1997-01-28 15:00:00,7,1035,-1.2,53,-2,12000,29.632,,,60,,,,,,,,,,,wg-a,,,,AAXX 28154 07222 12562 20616 10070 21020 30317 40350 55012 60006 82500 91500=
07222,1997-01-28 18:00:00,3,1036,1,70,-2,12000,14.816,,,50,3.2,8.1,,,,,,,,,wg-a,,,,AAXX 28184 07222 12662 /0508 10030 21020 30327 40360 51010 60006 81500 91800 333 10081 20032=
07222,1997-01-28 21:00:00,2,1036.7,0.7,80,-1,10000,14.816,,,60,,,,,,,,,,,wg-a,,,,AAXX 28214 07222 12560 70608 10020 21010 30334 40367 52007 60006 875// 92100=
07222,1997-01-29 00:00:00,3,1036.3,-0.4,81,0,10000,22.224,,,60,,,,,,,,,,,wg-a,,,,AAXX 29004 07222 12560 70612 10030 20000 30330 40363 56004 60006 875// 90000=
07222,1997-01-29 03:00:00,2,1035.8,-0.5,80,-1,10000,18.52,,,60,,,,,,,,,,,wg-a,,,,AAXX 29034 07222 12460 80610 10020 21010 30325 40358 57005 60006 885// 90300=
07222,1997-01-29 06:00:00,0,1035,-0.8,93,-1,8000,22.224,,,70,-0.1,3.4,,,,,,,,,wg-a,,,,AAXX 29064 07222 02/58 00712 10000 21010 30317 40350 58008 60006 80000 90600 333 10034 21001 60004=
07222,1997-01-29 09:00:00,1,1035.4,0.4,86,-1,6000,22.224,,,70,,,,,,,,,,,wg-a,,,,AAXX 29094 07222 12456 /0712 10010 21010 30321 40354 51004 60006 81100 90900=
07222,1997-01-29 12:00:00,2,1034.7,-0.7,87,0,6000,29.632,,,80,,,,,,,,,,,wg-a,,,,AAXX 29124 07222 12456 70816 10020 20000 30314 40347 58007 60006 875// 91200=
07222,1997-01-29 15:00:00,5,1033.1,-1.6,75,1,7000,25.928,,,60,,,,,,,,,,,wg-a,,,,AAXX 29154 07222 12457 /0614 10050 20010 30298 40331 56016 60006 81500 91500=
07222,1997-01-29 18:00:00,2,1033.5,0.4,87,0,500,31.484,,,70,0,5.2,,,,,,,,,wg-a,,,,AAXX 29184 07222 12400 40717 10020 20000 30302 40335 50004 60006 84600 91800 333 10052 20000=
07222,1997-01-29 21:00:00,1,1034.2,0.7,93,0,500,29.632,,,80,,,,,,,,,,,wg-a,,,,AAXX 29214 07222 12300 70816 10010 20000 30309 40342 51007 60006 876// 92100=
07222,1997-01-30 00:00:00,1,1033.6,-0.6,86,-1,500,18.52,,,80,,,,,,,,,,,wg-a,,,,AAXX 30004 07222 12400 /0810 10010 21010 30303 40336 57006 60006 82600 90000=
07222,1997-01-30 03:00:00,0,1032.8,-0.8,93,-1,500,22.224,,,70,,,,,,,,,,,wg-a,,,,AAXX 30034 07222 12/00 00712 10000 21010 30295 40328 58008 60006 80000 90300=
07222,1997-01-30 06:00:00,0,1032.6,-0.2,93,-1,4000,14.816,,,70,-0.6,2.1,,,,,,,,10,wg-a,,,,AAXX 30064 07222 02240 70708 10000 21010 30293 40326 58002 60006 71011 876// 90600 333 10021 21006 60004=
07222,1997-01-30 09:00:00,0,1034,1.4,93,-1,2000,14.816,,,80,,,,,,,,,,,wg-a,,,,AAXX 30094 07222 12/20 /0808 10000 21010 30307 40340 53014 60006 90900=
07222,1997-01-30 12:00:00,4,1033.3,-0.7,81,1,6000,18.52,,,60,,,,,,,,,,,wg-a,,,,AAXX 30124 07222 12/56 00610 10040 20010 30300 40333 58007 60006 80000 91200=
07222,1997-01-30 18:00:00,2,1031.9,0.2,87,0,3000,22.224,,,70,-0.6,6.1,,,,,,,,,wg-a,,,,AAXX 30184 07222 12/30 /0712 10020 20000 30286 40319 52002 60006 91800 333 10061 21006=
07222,1997-01-31 00:00:00,-1,1031.5,-0.4,93,-2,4000,29.632,,,70,,,,,,,,,,10,wg-a,,,,AAXX 31004 07222 12240 80716 11010 21020 30282 40315 58004 60006 71011 886// 90000=
07222,1997-01-31 03:00:00,-1,1030.8,-0.7,93,-2,4000,29.632,,,70,,,,,,,,,,10,wg-a,,,,AAXX 31034 07222 12240 80716 11010 21020 30275 40308 58007 60006 71022 886// 90300=
07222,1997-01-31 09:00:00,-1,1030.8,0.1,93,-2,2500,25.928,,,70,,,,,,,,,,10,wg-a,,,,AAXX 31094 07222 12225 80714 11010 21020 30275 40308 53001 60006 71022 876// 90900=
07222,1997-01-31 12:00:00,1,1030.3,-0.5,86,-1,500,25.928,,,70,,,,,,,,,,,wg-a,,,,AAXX 31124 07222 12400 40714 10010 21010 30270 40303 58005 60006 82101 91200=
07222,1997-01-31 15:00:00,3,1029.3,-1,81,0,8000,18.52,,,90,,,,,,,,,,,wg-a,,,,AAXX 31154 07222 12/58 /0910 10030 20000 30260 40293 56010 60006 80001 91500=
07222,1997-01-31 18:00:00,0,1029.5,0.2,93,-1,4500,18.52,,,80,-1.4,3,,,,,,,,10,wg-a,,,,AAXX 31184 07222 12/45 30810 10000 21010 30262 40295 53002 60006 71000 82031 91800 333 10030 21014=
07222,1997-01-31 21:00:00,0,1029.5,0,93,-1,500,22.224,,,80,,,,,,,,,,,wg-a,,,,AAXX 31214 07222 12300 70812 10000 21010 30262 40295 50000 60006 876// 92100=
07222,1997-02-01 00:00:00,0,1029.2,-0.3,93,-1,500,22.224,,,90,,,,,,,,,,,wg-a,,,,AAXX 01004 07222 12300 70912 10000 21010 30259 40292 58003 60006 8367/ 90000=
07222,1997-02-01 03:00:00,0,1029.1,-0.1,93,-1,500,14.816,,,80,,,,,,,,,,,wg-a,,,,AAXX 01034 07222 12300 70808 10000 21010 30258 40291 58001 60006 8367/ 90300=
07222,1997-02-01 06:00:00,0,1028.9,-0.2,93,-1,500,14.816,,,90,-0.3,0.4,,,,,,,,,wg-a,,,,AAXX 01064 07222 02300 70908 10000 21010 30256 40289 57002 60006 875// 90600 333 10004 21003 60004=
07222,1997-02-01 09:00:00,1,1029.7,0.8,93,0,3000,11.112,,,80,,,,,,,,,,10,wg-a,,,,AAXX 01094 07222 02630 70806 10010 20000 30264 40297 53008 61000 71062 875// 90900 333 ////=
07222,1997-02-01 12:00:00,3,1029.6,-0.1,81,0,3000,3.704,,,90,,,,,,,,,,10,wg-a,,,,AAXX 01124 07222 02530 70902 10030 20000 30263 40296 58001 61000 71062 875// 91200 333 6100=
07222,1997-02-01 15:00:00,4,1029,-0.6,81,1,3000,3.704,,,20,,,,,,,,,,10,wg-a,,,,AAXX 01154 07222 12430 70202 10040 20010 30257 40290 56006 60006 71022 875// 91500=
07222,1997-02-01 18:00:00,4,1029.3,0.3,87,2,4000,0,,,0,0.3,4,,,,,,,,10,wg-a,,,,AAXX 01184 07222 12440 70000 10040 20020 30260 40293 53003 60006 71022 876// 91800 333 10040 20003=
07222,1997-02-01 21:00:00,4,1029.4,0.1,87,2,4000,3.704,,,300,,,,,,,,,,10,wg-a,,,,AAXX 01214 07222 12340 83002 10040 20020 30261 40294 53001 60006 71022 876// 92100=
07222,1997-02-02 06:00:00,3,1027,-0.9,100,3,400,3.704,,,350,3.1,3.8,,,,,,,,43,wg-a,,,,AAXX 02064 07222 02/04 93502 10030 20030 30237 40270 57009 60006 74342 89/// 90600 333 10038 20031 61000=
07222,1997-02-02 09:00:00,4,1027.4,0.4,100,4,400,7.408,,,50,,,,,,,,,,45,wg-a,,,,AAXX 02094 07222 12/04 90504 10040 20040 30241 40274 53004 60006 74544 89/// 90900=
07222,1997-02-02 12:00:00,5,1027.9,0.5,100,5,2000,3.704,,,50,,,,1,,,,,,10,wg-a,,,,AAXX 02124 07222 02220 80502 10050 20050 30246 40279 51005 60016 71064 877// 91200 333 60017=
07222,1997-02-02 15:00:00,5,1027.3,-0.6,100,5,4500,3.704,,,30,,,,3,,,,,,10,wg-a,,,,AAXX 02154 07222 12245 80302 10050 20050 30240 40273 56006 60037 71066 877// 91500=
07222,1997-02-02 18:00:00,6,1028.7,1.4,93,5,6000,7.408,,,10,3.3,5.7,,,,,,,,60,wg-a,,,,AAXX 02184 07222 02256 80104 10060 20050 30254 40287 53014 61000 76066 877// 91800 333 10057 20033 6001=
07222,1997-02-02 21:00:00,5,1029.8,1.1,100,5,6000,3.704,,,20,,,,0,,,,,,1,wg-a,,,,AAXX 02214 07222 12356 80202 10050 20050 30265 40298 53011 60007 70162 877// 92100=
07222,1997-02-03 00:00:00,4,1029.7,-0.1,100,4,3000,0,,,0,,,,,,,,,,10,wg-a,,,,AAXX 03004 07222 12230 80000 10040 20040 30264 40297 56001 60006 71062 877// 90000=
07222,1997-02-03 03:00:00,5,1029.9,0.2,100,5,800,3.704,,,340,,,,,,,,,,44,wg-a,,,,AAXX 03034 07222 12108 83402 10050 20050 30266 40299 51002 60006 74442 877// 90300=
07222,1997-02-03 06:00:00,4,1029.9,-0,100,4,500,0,,,0,4.2,5.7,,,,,4,,,44,wg-a,,,,AAXX 03064 07222 02105 80000 10040 20040 30266 40299 55000 60006 74442 877// 90600 333 10057 20042 60044=
07222,1997-02-03 09:00:00,4,1030.9,1,100,4,1100,3.704,,,270,,,,,,,,,,28,wg-a,,,,AAXX 03094 07222 12211 82702 10040 20040 30276 40309 53010 60006 72842 877// 90900=
07222,1997-02-03 12:00:00,6,1030.9,0,100,6,3000,7.408,,,250,,,,,,,,,,10,wg-a,,,,AAXX 03124 07222 12430 82504 10060 20060 30276 40309 50000 60006 71042 876// 91200=
07222,1997-02-03 15:00:00,7,1029.6,-1.2,87,5,6000,3.704,,,260,,,,,,,,,,,wg-a,,,,AAXX 03154 07222 12456 72602 10070 20050 30264 40296 56012 60006 875// 91500=
07222,1997-02-03 18:00:00,5,1029.7,-0,93,4,8000,11.112,,,210,4.4,7.2,,,,,,,,,wg-a,,,,AAXX 03184 07222 12458 72106 10050 20040 30264 40297 55000 60006 875// 91800 333 10072 20044=
07222,1997-02-03 21:00:00,4,1029.5,-0.2,100,4,500,11.112,,,190,,,,,,,,,,,wg-a,,,,AAXX 03214 07222 12400 /1906 10040 20040 30262 40295 57002 60006 86500 92100=
07222,1997-02-04 00:00:00,5,1026.2,-1.3,93,4,6000,18.52,,,180,3.3,4.9,,,,,,,,1,wg-a,,,,AAXX 04004 07222 02256 71810 10050 20040 30229 40262 57013 60006 70142 876// 90000 333 10049 20033 60004=
07222,1997-02-04 03:00:00,4,1027.5,-1.5,100,4,800,22.224,,,180,,,,,,,,,,,wg-a,,,,AAXX 04034 07222 32/08 /1812 10040 20040 30242 40275 57015 90300=
07222,1997-02-04 06:00:00,5,1026.2,-1.3,93,4,6000,18.52,,,180,3.3,4.9,,,,,,,,1,wg-a,,,,AAXX 04064 07222 02256 71810 10050 20040 30229 40262 57013 60006 70142 876// 90600 333 10049 20033 60004=
07222,1997-02-04 09:00:00,5,1025.9,-0.3,93,4,7000,18.52,,,180,,,,,,,,,,,wg-a,,,,AAXX 04094 07222 12357 71810 10050 20040 30226 40259 58003 60006 875// 90900=
07222,1997-02-04 12:00:00,8,1024.6,-1.2,93,7,12000,25.928,,,190,,,,,,,,,,,wg-a,,,,AAXX 04124 07222 12662 71914 10080 20070 30214 40246 58012 60006 875// 91200=
07222,1997-02-04 15:00:00,8,1022.2,-2.4,87,6,15000,29.632,,,190,,,,,,,,,,,wg-a,,,,AAXX 04154 07222 12465 71916 10080 20060 30190 40222 56024 60006 875// 91500=
07222,1997-02-04 18:00:00,7,1021.3,-0.9,93,6,10000,22.224,,,190,4.5,8.6,,,,,,,,,wg-a,,,,AAXX 04184 07222 12360 71912 10070 20060 30181 40213 57009 60006 875// 91800 333 10086 20045=
07222,1997-02-04 21:00:00,8,1020.8,-0.5,93,7,10000,22.224,,,190,,,,,,,,,,61,wg-a,,,,AAXX 04214 07222 02460 81912 10080 20070 30176 40208 58005 61000 76162 875// 92100 333 ////=
07222,1997-02-05 00:00:00,9,1019,-1.8,100,9,8000,25.928,,,220,,,,3,,,,,,61,wg-a,,,,AAXX 05004 07222 02258 82214 10090 20090 30158 40190 56018 60036 76162 877// 90000 333 60037=
07222,1997-02-05 03:00:00,11,1017.3,-1.7,100,11,8000,35.188,,55.56,240,,,,3,,,,,,61,wg-a,,,,AAXX 05034 07222 12258 82419 10110 20110 30141 40173 56017 60037 76166 877// 90300 333 91030=
07222,1997-02-05 06:00:00,10,1018.2,0.9,100,10,6000,18.52,,,260,7.1,11,,,,,,,,61,wg-a,,,,AAXX 05064 07222 02256 82610 10100 20100 30150 40182 52009 61000 76162 877// 90600 333 10110 20071 6007=
07222,1997-02-05 09:00:00,10,1022.6,4.4,93,9,15000,14.816,,,300,,,,,,,,,,1,wg-a,,,,AAXX 05094 07222 02465 23008 10100 20090 30194 40226 53044 61000 70161 82200 90900 333 ////=
07222,1997-02-05 12:00:00,11,1026.1,3.5,76,7,20000,18.52,,,320,,,,,,,,,,1,wg-a,,,,AAXX 05124 07222 02570 33210 10110 20070 30229 40261 51035 61000 70161 83200 91200 333 ////=
07222,1997-02-05 15:00:00,12,1027.4,1.3,58,4,500,14.816,,,310,,,,,,,,,,,wg-a,,,,AAXX 05154 07222 12600 33108 10120 20040 30242 40274 53013 60006 83200 91500=
07222,1997-02-05 18:00:00,8,1030.1,2.7,87,6,20000,11.112,,,290,8.1,13,,,,,,,,,wg-a,,,,AAXX 05184 07222 12/70 32906 10080 20060 30269 40301 53027 60006 80001 91800 333 10130 20081=
07222,1997-02-05 21:00:00,5,1031.4,1.2,93,4,15000,7.408,,,200,,,,,,,,,,,wg-a,,,,AAXX 05214 07222 12/65 02004 10050 20040 30281 40314 53012 60006 80000 92100=
07222,1997-02-06 00:00:00,3,1032,0.6,100,3,500,11.112,,,150,,,,,,,,,,43,wg-a,,,,AAXX 06004 07222 12/05 91506 10030 20030 30287 40320 50006 60006 74341 89/// 90000=
07222,1997-02-06 03:00:00,1,1031.5,-0.5,100,1,600,3.704,,,200,,,,,,,,,,42,wg-a,,,,AAXX 06034 07222 12006 32002 10010 20010 30282 40315 56005 60006 74244 83600 90300=
07222,1997-02-06 06:00:00,2,1030.8,-0.7,100,2,6000,14.816,,,140,1.1,8.1,,,,,,,,1,wg-a,,,,AAXX 06064 07222 02556 /1408 10020 20020 30275 40308 58007 60006 70141 82500 90600 333 10081 20011 61000=
07222,1997-02-06 09:00:00,3,1031.7,0.9,100,3,300,14.816,,,150,,,,,,,,,,44,wg-a,,,,AAXX 06094 07222 12103 81508 10030 20030 30284 40317 52009 60006 74441 886// 90900=
07222,1997-02-06 12:00:00,9,1030.8,-0.8,100,9,500,18.52,,,170,,,,,,,,,,10,wg-a,,,,AAXX 06124 07222 12300 /1710 10090 20090 30276 40308 58008 60006 71041 83101 91200=
07222,1997-02-06 15:00:00,11,1029.5,-1.3,76,7,25000,18.52,,,190,,,,,,,,,,,wg-a,,,,AAXX 06154 07222 12575 51910 10110 20070 30263 40295 57013 60006 84801 91500=
07222,1997-02-06 18:00:00,8,1029.2,-0.3,87,6,25000,7.408,,,170,0.8,12.1,,,,,,,,,wg-a,,,,AAXX 06184 07222 12675 41704 10080 20060 30260 40292 55003 60006 82501 91800 333 10121 20008=
07222,1997-02-06 21:00:00,4,1028.9,-0.4,93,3,15000,3.704,,,150,,,,,,,,,,,wg-a,,,,AAXX 06214 07222 12/65 21502 10040 20030 30256 40289 57004 60006 80001 92100=
07222,1997-02-07 00:00:00,2,1028.8,-0.1,100,2,15000,7.408,,,160,,,,,,,,,,,wg-a,,,,AAXX 07004 07222 12/65 01604 10020 20020 30255 40288 58001 60006 80000 90000=
07222,1997-02-07 03:00:00,2,1028.2,-0.6,100,2,12000,11.112,,,140,,,,,,,,,,,wg-a,,,,AAXX 07034 07222 12/62 01406 10020 20020 30249 40282 58006 60006 80000 90300=
07222,1997-02-07 06:00:00,2,1028.2,0,100,2,8000,7.408,,,130,1.6,7.7,,,,,,,,,wg-a,,,,AAXX 07064 07222 02/58 41304 10020 20020 30249 40282 50000 60006 82021 90600 333 10077 20016 60004=
07222,1997-02-07 09:00:00,5,1029.9,1.7,87,3,15000,7.408,,,150,,,,,,,,,,,wg-a,,,,AAXX 07094 07222 12765 61504 10050 20030 30266 40299 53017 60006 815/1 90900=
07222,1997-02-07 12:00:00,11,1030.6,0.8,62,4,15000,3.704,,,190,,,,,,,,,,,wg-a,,,,AAXX 07124 07222 12/65 31902 10110 20040 30274 40306 50008 60006 80001 91200=
07222,1997-02-07 15:00:00,13,1030.2,-0.4,67,7,15000,3.704,,,230,,,,,,,,,,,wg-a,,,,AAXX 07154 07222 12765 72302 10130 20070 30270 40302 56004 60006 815/2 91500=
07222,1997-02-07 18:00:00,10,1031.2,1,87,8,10000,0,,,0,1.7,13,,,,,,,,,wg-a,,,,AAXX 07184 07222 12/60 40000 10100 20080 30280 40312 53010 60006 80001 91800 333 10130 20017=
07222,1997-02-07 21:00:00,5,1032.8,1.5,100,5,500,0,,,0,,,,,,,,,,,wg-a,,,,AAXX 07214 07222 12700 40000 10050 20050 30295 40328 51015 60006 82502 92100=
07222,1997-02-08 00:00:00,4,1032.9,0.1,100,4,6000,3.704,,,20,,,,,,,,,,,wg-a,,,,AAXX 08004 07222 12/56 30202 10040 20040 30296 40329 53001 60006 80002 90000=
07222,1997-02-08 03:00:00,3,1032.5,-0.4,100,3,500,3.704,,,50,,,,,,,,,,,wg-a,,,,AAXX 08034 07222 12/00 30502 10030 20030 30292 40325 58004 60006 80002 90300=
07222,1997-02-08 06:00:00,2,1032.8,0.3,100,2,3200,3.704,,,40,1.4,9.6,,,,,,,,10,wg-a,,,,AAXX 08064 07222 02/32 30402 10020 20020 30295 40328 50003 60006 71000 80002 90600 333 10096 20014 60004=
07222,1997-02-08 09:00:00,4,1033.3,0.5,100,4,4000,3.704,,,30,,,,,,,,,,10,wg-a,,,,AAXX 08094 07222 12/40 30302 10040 20040 30300 40333 52005 60006 71040 80002 90900=
07222,1997-02-08 12:00:00,12,1032.7,-0.5,58,4,10000,7.408,,,180,,,,,,,,,,2,wg-a,,,,AAXX 08124 07222 12/60 41804 10120 20040 30295 40327 58005 60006 70240 80002 91200=
07222,1997-02-08 15:00:00,13,1031.3,-1.4,62,6,10000,7.408,,,120,,,,,,,,,,,wg-a,,,,AAXX 08154 07222 12/60 21204 10130 20060 30281 40313 57014 60006 80002 91500=
07222,1997-02-08 18:00:00,9,1031.1,-0.2,81,6,10000,7.408,,,150,1.1,14.1,,,,,,,,,wg-a,,,,AAXX 08184 07222 12/60 21504 10090 20060 30279 40311 55002 60006 80002 91800 333 10141 20011=
07222,1997-02-08 21:00:00,5,1031.6,0.4,93,4,8000,3.704,,,300,,,,,,,,,,,wg-a,,,,AAXX 08214 07222 12/58 03002 10050 20040 30283 40316 52004 60006 80000 92100=
07222,1997-02-09 00:00:00,3,1031.5,-0.1,100,3,3000,0,,,0,,,,,,,,,,40,wg-a,,,,AAXX 09004 07222 12230 40000 10030 20030 30282 40315 58001 60006 74000 84600 90000=
07222,1997-02-09 03:00:00,0,1030.2,-1.3,100,0,400,0,,,0,,,,,,,,,,44,wg-a,,,,AAXX 09034 07222 12204 40000 10000 20000 30269 40302 58013 60006 74440 84600 90300=
07222,1997-02-09 06:00:00,2,1029.5,-0.7,100,2,3000,7.408,,,140,0.3,8.9,,,,,,,,10,wg-a,,,,AAXX 09064 07222 02/30 01404 10020 20020 30262 40295 56007 60006 71040 80000 90600 333 10089 20003 60004=
07222,1997-02-09 09:00:00,3,1030.1,0.6,100,3,6000,11.112,,,160,,,,,,,,,,,wg-a,,,,AAXX 09094 07222 32/56 01606 10030 20030 30268 40301 51006 80000 90900=
07222,1997-02-09 12:00:00,6,1030.2,0.1,100,6,300,7.408,,,220,,,,,,,,,,43,wg-a,,,,AAXX 09124 07222 12/03 92204 10060 20060 30269 40302 50001 60006 74341 89/// 91200=
07222,1997-02-09 15:00:00,10,1029,-1.1,93,9,3500,3.704,,,290,,,,,,,,,,10,wg-a,,,,AAXX 09154 07222 12535 72902 10100 20090 30258 40290 56011 60006 71042 875// 91500=
07222,1997-02-09 18:00:00,9,1029.2,0.2,93,8,10000,11.112,,,230,0.6,10.2,,,,,,,,3,wg-a,,,,AAXX 09184 07222 12460 72306 10090 20080 30260 40292 53002 60006 70342 875// 91800 333 10102 20006=
07222,1997-02-09 21:00:00,8,1028.8,-0.4,93,7,10000,11.112,,,200,,,,,,,,,,,wg-a,,,,AAXX 09214 07222 12560 72006 10080 20070 30256 40288 58004 60006 875// 92100=
07222,1997-02-10 00:00:00,6,1027.9,-1,93,5,8000,14.816,,,180,,,,,,,,,,,wg-a,,,,AAXX 10004 07222 12/58 01808 10060 20050 30246 40279 56010 60006 80000 90000=
07222,1997-02-10 03:00:00,9,1025.7,-2.1,93,8,10000,14.816,,,200,,,,,,,,,,,wg-a,,,,AAXX 10034 07222 12360 72008 10090 20080 30225 40257 57021 60006 877// 90300=
07222,1997-02-10 06:00:00,9,1023.8,-1.9,93,8,7000,22.224,,,200,5.4,9.3,,,,,,,,,wg-a,,,,AAXX 10064 07222 02257 72012 10090 20080 30206 40238 57019 60006 8667/ 90600 333 10093 20054 60004=
07222,1997-02-10 09:00:00,10,1022.1,-1.7,93,9,7000,29.632,,,190,,,,,,,,,,,wg-a,,,,AAXX 10094 07222 12357 71916 10100 20090 30189 40221 57017 60006 86601 90900=
07222,1997-02-10 12:00:00,12,1021,-1.1,88,10,10000,31.484,,,220,,,,,,,,,,,wg-a,,,,AAXX 10124 07222 12460 82217 10120 20100 30178 40210 57011 60006 875// 91200=
07222,1997-02-10 15:00:00,11,1019.7,-1.3,100,11,2000,25.928,,,230,,,,8,,,,,,10,wg-a,,,,AAXX 10154 07222 12220 82314 10110 20110 30165 40197 56013 60087 71065 877// 91500=
07222,1997-02-10 18:00:00,10,1021.8,2.1,100,10,8000,18.52,,,250,8.4,13.4,,1,,,,,,1,wg-a,,,,AAXX 10184 07222 02258 72510 10100 20100 30186 40218 53021 60006 70165 875// 91800 333 10134 20084 60017=
07222,1997-02-10 21:00:00,7,1024.5,2.7,93,6,10000,11.112,,,270,,,,0,,,,,,,wg-a,,,,AAXX 10214 07222 12660 72706 10070 20060 30213 40245 51027 60007 85531 92100=
07222,1997-02-11 00:00:00,5,1026.1,1.5,100,5,8000,3.704,,,180,,,,,,,,,,,wg-a,,,,AAXX 11004 07222 12/58 /1802 10050 20050 30228 40261 51015 60006 80001 90000=
07222,1997-02-11 03:00:00,5,1026.2,0.1,100,5,10000,7.408,,,180,,,,,,,,,,,wg-a,,,,AAXX 11034 07222 12660 71804 10050 20050 30229 40262 50001 60006 8557/ 90300=
07222,1997-02-11 06:00:00,5,1025.5,-0.7,100,5,10000,11.112,,,170,3.8,10.4,,,,,9,,,,wg-a,,,,AAXX 11064 07222 02560 71706 10050 20050 30222 40255 58007 60006 875// 90600 333 10104 20038 60094=
07222,1997-02-11 09:00:00,8,1026,0.6,93,7,8000,7.408,,,180,,,,,,,,,,,wg-a,,,,AAXX 11094 07222 12658 81804 10080 20070 30228 40260 51006 60006 8557/ 90900=
07222,1997-02-11 12:00:00,10,1024.9,-1.1,93,9,8000,22.224,,,200,,,,0,,,,,,61,wg-a,,,,AAXX 11124 07222 02558 82012 10100 20090 30217 40249 58011 60006 76162 8552/ 91200 333 60007=
07222,1997-02-11 15:00:00,10,1022,-2.9,100,10,1800,25.928,,,210,,,,1,,,,,,51,wg-a,,,,AAXX 11154 07222 12118 82114 10100 20100 30188 40220 57029 60017 75165 877// 91500=
07222,1997-02-11 18:00:00,11,1021.4,-0.6,100,11,4000,29.632,,,250,5.1,11.7,,,,,,,,51,wg-a,,,,AAXX 11184 07222 02240 82516 10110 20110 30182 40214 55006 61000 75165 877// 91800 333 10117 20051 6001=
07222,1997-02-11 21:00:00,11,1021.7,0.3,94,10,6000,29.632,,,240,,,,,,,,,,,wg-a,,,,AAXX 11214 07222 32/56 /2416 10110 20100 30185 40217 50003 92100=
07222,1997-02-12 00:00:00,11,1022.3,0.6,94,10,8000,29.632,,,250,,,,,,,,,,1,wg-a,,,,AAXX 12004 07222 02358 82516 10110 20100 30191 40223 52006 61000 70152 877// 90000 333 ////=
07222,1997-02-12 03:00:00,11,1021.8,-0.5,94,10,10000,29.632,,46.3,240,,,,,,,,,,,wg-a,,,,AAXX 12034 07222 12460 72416 10110 20100 30186 40218 57005 60006 876// 90300 333 91025=
07222,1997-02-12 06:00:00,12,1021.2,-0.6,88,10,10000,25.928,,,240,11,11.7,,,,,2,,,,wg-a,,,,AAXX 12064 07222 02460 72414 10120 20100 30180 40212 56006 60006 875// 90600 333 10117 20110 60024=
07222,1997-02-12 09:00:00,12,1020.9,-0.3,88,10,12000,29.632,,46.3,240,,,,,,,,,,,wg-a,,,,AAXX 12094 07222 12662 72416 10120 20100 30177 40209 56003 60006 875// 90900 333 91025=
07222,1997-02-12 12:00:00,12,1019.1,-1.8,88,10,12000,29.632,,,230,,,,,,,,,,1,wg-a,,,,AAXX 12124 07222 02462 72316 10120 20100 30159 40191 58018 61000 70162 878// 91200 333 6100=
07222,1997-02-12 15:00:00,12,1015.5,-3.5,88,10,10000,31.484,,55.56,230,,,,0,,,,,,,wg-a,,,,AAXX 12154 07222 12460 72317 10120 20100 30124 40155 56035 60007 875// 91500 333 91030=
07222,1997-02-12 18:00:00,11,1013.1,-2.4,100,11,10000,35.188,,,240,10.6,13.1,,,,,,,,21,wg-a,,,,AAXX 12184 07222 02360 72419 10110 20110 30100 40131 56024 61000 72165 875// 91800 333 10131 20106 6002=
07222,1997-02-12 21:00:00,11,1013.3,0.2,87,9,10000,38.892,,62.968,260,,,,1,,,,,,21,wg-a,,,,AAXX 12214 07222 12360 72621 10110 20090 30102 40133 53002 60017 72165 875// 92100 333 91034=
07222,1997-02-13 00:00:00,10,1014,0.6,93,9,10000,25.928,,,250,,,,,,,,,,3,wg-a,,,,AAXX 13004 07222 02560 /2514 10100 20090 30108 40140 50006 60016 70365 86500 90000 333 61000=
07222,1997-02-13 03:00:00,10,1011.2,-2.7,87,8,10000,31.484,,,230,,,,0,,,,,,,wg-a,,,,AAXX 13034 07222 12460 72317 10100 20080 30081 40112 58027 60007 875// 90300=
07222,1997-02-13 06:00:00,8,1012.4,1.1,81,5,10000,46.3,,68.524,280,8.2,11.5,,,,,,,,80,wg-a,,,,AAXX 13064 07222 02560 72825 10080 20050 30092 40124 53011 61000 78086 878// 90600 333 10115 20082 6008 91037=
07222,1997-02-13 09:00:00,7,1016.6,4.2,70,2,20000,35.188,,51.856,290,,,,0,,,,,,1,wg-a,,,,AAXX 13094 07222 12570 52919 10070 20020 30134 40166 53042 60007 70162 81131 90900 333 91028=
07222,1997-02-13 12:00:00,10,1018.8,2.2,62,3,20000,35.188,,55.56,280,,,,,,,,,,1,wg-a,,,,AAXX 13124 07222 12570 /2819 10100 20030 30156 40188 51022 60016 70162 81101 91200 333 91030=
07222,1997-02-13 18:00:00,7,1017.9,-1.1,87,5,20000,11.112,,,230,7.1,10.5,,,,,,,,1,wg-a,,,,AAXX 13184 07222 12770 62306 10070 20050 30147 40179 58011 60006 70186 83535 91800 333 10105 20071=
07222,1997-02-13 21:00:00,7,1014.6,-3.3,93,6,8000,11.112,,,200,,,,1,,,,,,61,wg-a,,,,AAXX 13214 07222 12558 82006 10070 20060 30114 40146 58033 60017 76162 875// 92100=
07222,1997-02-14 00:00:00,8,1008,-6.6,100,8,4000,18.52,,,170,,,,6,,,,,,63,wg-a,,,,AAXX 14004 07222 02240 81710 10080 20080 30048 40080 58066 60076 76365 877// 90000 333 60067=
07222,1997-02-14 03:00:00,12,1005.9,-2,94,11,4000,35.188,,55.56,260,,,,6,,,,,,62,wg-a,,,,AAXX 14034 07222 12240 82619 10120 20110 30028 40059 56020 60067 76266 877// 90300 333 91030=
07222,1997-02-14 06:00:00,12,1005.6,-0.3,94,11,500,38.892,,,260,6.7,11.7,,,,,,,,60,wg-a,,,,AAXX 14064 07222 02200 82621 10120 20110 30025 40056 56003 61000 76066 877// 90600 333 10117 20067 6014=
07222,1997-02-14 09:00:00,11,1006.1,0.5,100,11,8000,29.632,,,250,,,,,,,,,,1,wg-a,,,,AAXX 14094 07222 02458 82516 10110 20110 30030 40061 53005 61000 70162 877// 90900 333 ////=
07222,1997-02-14 12:00:00,13,1005.3,-0.8,88,11,8000,35.188,,48.152,240,,,,,,,,,,2,wg-a,,,,AAXX 14124 07222 02458 72419 10130 20110 30022 40053 58008 61000 70262 875// 91200 333 //// 91026=
07222,1997-02-14 15:00:00,13,1002.8,-2.5,88,11,6000,31.484,,,240,,,,2,,,,,,1,wg-a,,,,AAXX 14154 07222 12456 72417 10130 20110 39997 40028 58025 60027 70162 879// 91500=
07222,1997-02-14 18:00:00,11,1001.4,-1.4,94,10,500,29.632,,48.152,240,11,13.2,,,,,,,,61,wg-a,,,,AAXX 14184 07222 02400 72416 10110 20100 39983 40014 56014 61000 76162 875// 91800 333 10132 20110 6000 91026=
07222,1997-02-14 21:00:00,10,1001.5,0.1,93,9,10000,25.928,,,270,,,,4,,,,,,1,wg-a,,,,AAXX 14214 07222 12460 72714 10100 20090 39984 40015 53001 60047 70162 875// 92100=
07222,1997-02-15 00:00:00,10,1004.2,2.7,93,9,11000,18.52,,,310,,,,0,,,,,,,wg-a,,,,AAXX 15004 07222 02/61 /3110 10100 20090 30011 40042 53027 60046 90000 333 60007=
07222,1997-02-15 03:00:00,7,1012.1,7.8,81,4,10000,25.928,,50.004,10,,,,,,,,,,,wg-a,,,,AAXX 15034 07222 12560 /0114 10070 20040 30089 40121 51078 60006 85500 90300 333 91027=
07222,1997-02-15 06:00:00,5,1019.3,7.2,81,2,10000,18.52,,,340,4.8,11.1,,,,,6,,,,wg-a,,,,AAXX 15064 07222 02/60 03410 10050 20020 30161 40193 51072 60006 80000 90600 333 10111 20048 60064=
07222,1997-02-15 09:00:00,5,1024.3,5,87,3,15000,14.816,,,330,,,,,,,,,,,wg-a,,,,AAXX 15094 07222 12/65 13308 10050 20030 30211 40243 51050 60006 80001 90900=
07222,1997-02-15 12:00:00,9,1026.2,1.9,57,1,20000,7.408,,,330,,,,,,,,,,,wg-a,,,,AAXX 15124 07222 12570 23304 10090 20010 30230 40262 51019 60006 82100 91200=
07222,1997-02-15 15:00:00,10,1025.6,-0.6,53,1,20000,7.408,,,40,,,,,,,,,,,wg-a,,,,AAXX 15154 07222 12670 30404 10100 20010 30224 40256 58006 60006 82102 91500=
07222,1997-02-15 21:00:00,3,1025.8,-0.4,93,2,20000,7.408,,,140,,,,,,,,,,,wg-a,,,,AAXX 15214 07222 12/70 01404 10030 20020 30225 40258 57004 60006 80000 92100=
07222,1997-02-16 00:00:00,1,1024.9,-0.9,100,1,15000,11.112,,,130,,,,,,,,,,,wg-a,,,,AAXX 16004 07222 12/65 01306 10010 20010 30216 40249 58009 60006 80000 90000=
07222,1997-02-16 03:00:00,1,1023.3,-1.6,93,0,15000,14.816,,,140,,,,,,,,,,,wg-a,,,,AAXX 16034 07222 12/65 01408 10010 20000 30200 40233 58016 60006 80000 90300=
07222,1997-02-16 06:00:00,1,1021.7,-1.6,93,0,10000,14.816,,,150,0.6,6,,,,,,,,,wg-a,,,,AAXX 16064 07222 02/60 31508 10010 20000 30184 40217 56016 60006 80001 90600 333 10060 20006 60004=
07222,1997-02-16 09:00:00,3,1021.1,-0.6,93,2,12000,22.224,,,150,,,,0,,,,,,,wg-a,,,,AAXX 16094 07222 12762 71512 10030 20020 30178 40211 57006 60007 83532 90900=
07222,1997-02-16 12:00:00,8,1019.8,-1.2,81,5,15000,25.928,,,170,,,,,,,,,,,wg-a,,,,AAXX 16124 07222 12665 81714 10080 20050 30166 40198 58012 60006 8457/ 91200=
07222,1997-02-16 15:00:00,7,1018.7,-1.1,100,7,10000,18.52,,,190,,,,2,,,,,,21,wg-a,,,,AAXX 16154 07222 12360 81910 10070 20070 30155 40187 56011 60027 72162 875// 91500=
07222,1997-02-16 18:00:00,9,1018.8,0.1,93,8,10000,11.112,,,210,-0.2,9,,,,,,,,1,wg-a,,,,AAXX 16184 07222 12360 52106 10090 20080 30156 40188 53001 60006 70161 85800 91800 333 10090 21002=
07222,1997-02-16 21:00:00,7,1019.6,0.8,100,7,10000,11.112,,,220,,,,,,,,,,,wg-a,,,,AAXX 16214 07222 12460 52206 10070 20070 30164 40196 52008 60006 85800 92100=
07222,1997-02-17 00:00:00,7,1020.2,0.6,100,7,10000,14.816,,,210,,,,,,,,,,,wg-a,,,,AAXX 17004 07222 12460 /2108 10070 20070 30170 40202 51006 60006 85500 90000=
07222,1997-02-17 03:00:00,6,1020.5,0.3,100,6,10000,14.816,,,210,,,,0,,,,,,,wg-a,,,,AAXX 17034 07222 12460 32108 10060 20060 30173 40205 53003 60007 81202 90300=
07222,1997-02-17 06:00:00,7,1021.3,0.8,93,6,10000,14.816,,,210,5.9,9,,,,,2,,,,wg-a,,,,AAXX 17064 07222 02560 72108 10070 20060 30181 40213 53008 60006 8685/ 90600 333 10090 20059 60024=
07222,1997-02-17 09:00:00,9,1022.3,1,93,8,15000,14.816,,,220,,,,,,,,,,,wg-a,,,,AAXX 17094 07222 12565 72208 10090 20080 30191 40223 53010 60006 81532 90900=
07222,1997-02-17 12:00:00,12,1022.2,-0.1,82,9,20000,25.928,,,240,,,,,,,,,,,wg-a,,,,AAXX 17124 07222 12570 72414 10120 20090 30190 40222 58001 60006 8357/ 91200=
07222,1997-02-17 15:00:00,12,1021.2,-1,82,9,25000,25.928,,44.448,240,,,,,,,,,,,wg-a,,,,AAXX 17154 07222 12475 82414 10120 20090 30180 40212 58010 60006 8557/ 91500 333 91024=
07222,1997-02-17 18:00:00,11,1021.1,-0.1,87,9,10000,22.224,,,220,6.3,12.4,,,,,,,,61,wg-a,,,,AAXX 17184 07222 02460 82212 10110 20090 30179 40211 58001 61000 76162 8657/ 91800 333 10124 20063 6100=
07222,1997-02-17 21:00:00,11,1020.8,-0.3,94,10,8000,25.928,,,220,,,,3,,,,,,3,wg-a,,,,AAXX 17214 07222 12458 82214 10110 20100 30176 40208 58003 60037 70362 875// 92100=
07222,1997-02-18 00:00:00,11,1019.7,-1.1,94,10,8000,31.484,,55.56,220,,,,,,,,,,61,wg-a,,,,AAXX 18004 07222 02458 82217 10110 20100 30165 40197 56011 60036 76162 875// 90000 333 61000 91030=
07222,1997-02-18 03:00:00,11,1017.7,-2,94,10,3000,25.928,,,220,,,,1,,,,,,51,wg-a,,,,AAXX 18034 07222 12230 82214 10110 20100 30145 40177 58020 60017 75166 887// 90300=
07222,1997-02-18 06:00:00,11,1017.3,-0.4,100,11,4000,31.484,,55.56,240,10.1,11.2,,,,,,,,51,wg-a,,,,AAXX 18064 07222 02240 82417 10110 20110 30141 40173 56004 61000 75166 887// 90600 333 10112 20101 6008 91030=
07222,1997-02-18 09:00:00,12,1019.2,1.9,82,9,15000,35.188,,,250,,,,0,,,,,,1,wg-a,,,,AAXX 18094 07222 12/65 12519 10120 20090 30160 40192 53019 60007 70165 80001 90900=
07222,1997-02-18 12:00:00,12,1021.8,2.6,71,7,15000,31.484,,51.856,280,,,,2,,,,,,21,wg-a,,,,AAXX 18124 07222 02465 /2817 10120 20070 30186 40218 53026 60026 72165 85800 91200 333 60027 91028=
07222,1997-02-18 15:00:00,11,1023.5,1.7,62,4,20000,46.3,,68.524,280,,,,,,,,,,,wg-a,,,,AAXX 18154 07222 12570 22825 10110 20040 30203 40235 51017 60006 82201 91500 333 91037=
07222,1997-02-18 18:00:00,9,1027.7,4.2,71,4,20000,29.632,,,270,8.6,12.5,,0,,,,,,1,wg-a,,,,AAXX 18184 07222 02770 22716 10090 20040 30245 40277 51042 60006 70186 825/1 91800 333 10125 20086 60007=
07222,1997-02-18 21:00:00,7,1031,3.2,87,5,15000,18.52,,,260,,,,,,,,,,,wg-a,,,,AAXX 18214 07222 12/65 02610 10070 20050 30277 40310 51032 60006 80000 92100=
07222,1997-02-19 03:00:00,4,1032.3,-0.6,100,4,12000,11.112,,,170,,,,,,,,,,,wg-a,,,,AAXX 19034 07222 12/62 21706 10040 20040 30290 40323 58006 60006 80001 90300=
07222,1997-02-19 06:00:00,5,1030.9,-1.4,100,5,10000,14.816,,,180,3.3,8.9,,,,,2,,,,wg-a,,,,AAXX 19064 07222 02/60 61808 10050 20050 30276 40309 58014 60006 81034 90600 333 10089 20033 60024=
07222,1997-02-19 09:00:00,9,1029.8,-1,87,7,12000,22.224,,,180,,,,,,,,,,,wg-a,,,,AAXX 19094 07222 12862 71812 10090 20070 30266 40298 55010 60006 84031 90900=
07222,1997-02-19 12:00:00,12,1027.3,-2.5,76,8,15000,35.188,,51.856,210,,,,,,,,,,,wg-a,,,,AAXX 19124 07222 12565 72119 10120 20080 30241 40273 57025 60006 84508 91200 333 91028=
07222,1997-02-19 18:00:00,11,1022.2,-2.3,94,10,4000,31.484,,,220,4.7,13.3,,,,,,,,51,wg-a,,,,AAXX 19184 07222 02440 82217 10110 20100 30190 40222 56023 61000 75152 875// 91800 333 10133 20047 6100=
07222,1997-02-19 21:00:00,12,1023.3,1.1,88,10,10000,35.188,,55.56,250,,,,0,,,,,,21,wg-a,,,,AAXX 19214 07222 12460 72519 10120 20100 30201 40233 53011 60007 72165 878// 92100 333 91030=
07222,1997-02-20 00:00:00,10,1027,3.7,87,8,10000,22.224,,,270,,,,,,,,,,1,wg-a,,,,AAXX 20004 07222 12460 22712 10100 20080 30238 40270 52037 60016 70165 82800 90000=
07222,1997-02-20 03:00:00,9,1028.5,1.5,81,6,12000,18.52,,,270,,,,,,,,,,,wg-a,,,,AAXX 20034 07222 12/62 02710 10090 20060 30253 40285 51015 60006 80000 90300=
07222,1997-02-20 06:00:00,5,1029.8,1.2,100,5,12000,11.112,,,230,5.4,12,,,,,,,,,wg-a,,,,AAXX 20064 07222 02/62 12306 10050 20050 30265 40298 51012 60006 80002 90600 333 10120 20054 60004=
07222,1997-02-20 12:00:00,13,1030.7,-0.2,67,7,12000,29.632,,,250,,,,,,,,,,,wg-a,,,,AAXX 20124 07222 12562 72516 10130 20070 30275 40307 58002 60006 84801 91200=
07222,1997-02-20 15:00:00,13,1029.3,-1.4,58,5,15000,25.928,,,250,,,,,,,,,,,wg-a,,,,AAXX 20154 07222 12565 52514 10130 20050 30261 40293 56014 60006 83201 91500=
07222,1997-02-20 18:00:00,9,1028.8,-0.5,93,8,15000,11.112,,,220,5,13.6,,,,,,,,,wg-a,,,,AAXX 20184 07222 12565 /2206 10090 20080 30256 40288 55005 60006 81101 91800 333 10136 20050=
07222,1997-02-20 21:00:00,9,1028.6,-0.2,100,9,6000,11.112,,,220,,,,,,,,,,,wg-a,,,,AAXX 20214 07222 12256 52206 10090 20090 30254 40286 58002 60006 85500 92100=
07222,1997-02-21 00:00:00,9,1029,0.4,100,9,4000,11.112,,,240,,,,,,,,,,10,wg-a,,,,AAXX 21004 07222 12440 72406 10090 20090 30258 40290 51004 60006 71022 875// 90000=
07222,1997-02-21 03:00:00,9,1029.2,0.2,93,8,6000,7.408,,,220,,,,,,,,,,,wg-a,,,,AAXX 21034 07222 12256 72204 10090 20080 30260 40292 50002 60006 875// 90300=
07222,1997-02-21 06:00:00,7,1029.8,0.6,100,7,6000,11.112,,,210,7.4,9.9,,,,,,,,,wg-a,,,,AAXX 21064 07222 02756 42106 10070 20070 30266 40298 53006 60006 84501 90600 333 10099 20074 60004=
07222,1997-02-21 12:00:00,13,1032.7,0.9,67,7,25000,22.224,,,260,,,,,,,,,,1,wg-a,,,,AAXX 21124 07222 12575 72612 10130 20070 30295 40327 51009 60006 70141 878// 91200=
07222,1997-02-21 15:00:00,14,1032.1,-0.6,63,7,500,22.224,,,240,,,,,,,,,,,wg-a,,,,AAXX 21154 07222 12500 /2412 10140 20070 30289 40321 55006 60006 86800 91500=
07222,1997-02-21 18:00:00,10,1032.5,0.4,93,9,25000,11.112,,,240,5.7,14.3,,,,,,,,,wg-a,,,,AAXX 21184 07222 12575 42406 10100 20090 30293 40325 53004 60006 84500 91800 333 10143 20057=
07222,1997-02-21 21:00:00,9,1032.7,0.2,93,8,20000,3.704,,,170,,,,,,,,,,,wg-a,,,,AAXX 21214 07222 12570 71702 10090 20080 30295 40327 50002 60006 875// 92100=
07222,1997-02-22 00:00:00,7,1032.3,-0.5,100,7,20000,3.704,,,50,,,,,,,,,,,wg-a,,,,AAXX 22004 07222 12570 30502 10070 20070 30290 40323 58005 60006 83500 90000=
07222,1997-02-22 03:00:00,4,1031,-1.3,93,3,500,7.408,,,160,,,,,,,,,,44,wg-a,,,,AAXX 22034 07222 12505 21604 10040 20030 30277 40310 58013 60006 74440 82500 90300=
07222,1997-02-22 06:00:00,6,1029.7,-1.3,100,6,6000,3.704,,,40,3.5,10.4,,,,,,,,,wg-a,,,,AAXX 22064 07222 02/56 /0402 10060 20060 30264 40297 58013 60006 90600 333 10104 20035 60004=
07222,1997-02-22 09:00:00,8,1028.8,-0.8,93,7,10000,3.704,,,110,,,,,,,,,,,wg-a,,,,AAXX 22094 07222 12560 71102 10080 20070 30256 40288 56008 60006 875// 90900=
07222,1997-02-22 12:00:00,13,1027.3,-1.5,72,8,20000,7.408,,,220,,,,,,,,,,,wg-a,,,,AAXX 22124 07222 12570 /2204 10130 20080 30241 40273 58015 60006 81102 91200=
07222,1997-02-22 15:00:00,14,1024.6,-2.6,67,8,25000,7.408,,,270,,,,,,,,,,,wg-a,,,,AAXX 22154 07222 12/75 62704 10140 20080 30215 40246 56026 60006 80001 91500=
07222,1997-02-22 18:00:00,12,1023.3,-1.4,71,7,25000,0,,,0,5.9,14.7,,,,,,,,,wg-a,,,,AAXX 22184 07222 12/75 70000 10120 20070 30201 40233 56014 60006 80001 91800 333 10147 20059=
07222,1997-02-22 21:00:00,8,1022.2,-1.1,93,7,10000,3.704,,,120,,,,,,,,,,,wg-a,,,,AAXX 22214 07222 12/60 31202 10080 20070 30190 40222 58011 60006 80001 92100=
07222,1997-02-23 00:00:00,6,1019.6,-2.6,100,6,10000,11.112,,,130,,,,,,,,,,,wg-a,,,,AAXX 23004 07222 12/60 61306 10060 20060 30164 40196 58026 60006 85031 90000=
07222,1997-02-23 03:00:00,8,1018.3,-1.3,100,8,10000,11.112,,,220,,,,,,,,,,,wg-a,,,,AAXX 23034 07222 12460 72206 10080 20080 30151 40183 56013 60006 8753/ 90300=
07222,1997-02-23 06:00:00,10,1018.2,-0.1,100,10,6000,14.816,,,220,6,11.7,,,,,,,,,wg-a,,,,AAXX 23064 07222 02256 72208 10100 20100 30150 40182 56001 60006 876// 90600 333 10117 20060 60004=
07222,1997-02-23 09:00:00,11,1018.1,-0.1,94,10,7000,18.52,,,200,,,,,,,,,,,wg-a,,,,AAXX 23094 07222 12357 72010 10110 20100 30149 40181 58001 60006 875// 90900=
07222,1997-02-23 12:00:00,14,1016.7,-1.3,77,10,20000,29.632,,,210,,,,,,,,,,,wg-a,,,,AAXX 23124 07222 12470 52116 10140 20100 30136 40167 58013 60006 84801 91200=
07222,1997-02-23 15:00:00,13,1014.1,-2.6,82,10,12000,31.484,,,200,,,,,,,,,,,wg-a,,,,AAXX 23154 07222 12462 62017 10130 20100 30110 40141 58026 60006 84802 91500=
07222,1997-02-23 18:00:00,12,1012.6,-1.5,88,10,12000,25.928,,,200,9.6,14.3,,,,,,,,,wg-a,,,,AAXX 23184 07222 12562 72014 10120 20100 30095 40126 57015 60006 83832 91800 333 10143 20096=
07222,1997-02-23 21:00:00,11,1011.1,-1.5,94,10,8000,29.632,,,220,,,,0,,,,,,61,wg-a,,,,AAXX 23214 07222 12458 82216 10110 20100 30080 40111 56015 60007 76162 875// 92100=
07222,1997-02-24 00:00:00,12,1009.2,-1.9,94,11,10000,31.484,,59.264,220,,,,0,,,,,,61,wg-a,,,,AAXX 24004 07222 02460 82217 10120 20110 30061 40092 58019 60016 76162 875// 90000 333 60007 91032=
07222,1997-02-24 06:00:00,12,1005.2,-1.7,94,11,15000,31.484,,48.152,220,11,12,,,,,,,,21,wg-a,,,,AAXX 24064 07222 02365 82217 10120 20110 30021 40052 56017 61000 72162 877// 90600 333 10120 20110 6002 91026=
07222,1997-02-24 09:00:00,11,1006.2,1,100,11,15000,22.224,,,250,,,,1,,,,,,1,wg-a,,,,AAXX 24094 07222 12265 72512 10110 20110 30031 40062 53010 60017 70165 875// 90900=
07222,1997-02-24 12:00:00,12,1006.2,-0,94,11,8000,31.484,,,250,,,,0,,,,,,80,wg-a,,,,AAXX 24124 07222 02358 72517 10120 20110 30031 40062 55000 60026 78086 878// 91200 333 60007=
07222,1997-02-24 15:00:00,12,1004.1,-2.1,94,11,7000,29.632,,,220,,,,,,,,,,60,wg-a,,,,AAXX 24154 07222 02457 72216 10120 20110 30010 40041 56021 61000 76086 857// 91500 333 ////=
07222,1997-02-24 18:00:00,12,1003.1,-1,94,11,8000,35.188,,,220,10.8,13.3,,,,,,,,61,wg-a,,,,AAXX 24184 07222 02458 72219 10120 20110 30000 40031 58010 61000 76186 875// 91800 333 10133 20108 6000=
07222,1997-02-25 00:00:00,13,1004.7,1.5,94,12,10000,38.892,,77.784,240,,,,1,,,,,,20,wg-a,,,,AAXX 25004 07222 02360 72421 10130 20120 30016 40047 51015 60096 72065 877// 90000 333 60017 91042=
07222,1997-02-25 03:00:00,13,1005,0.3,94,12,4000,35.188,,59.264,240,,,,2,,,,,,51,wg-a,,,,AAXX 25034 07222 12340 72419 10130 20120 30019 40050 50003 60027 75165 877// 90300 333 91032=
07222,1997-02-25 06:00:00,12,1005.7,0.7,100,12,4000,46.3,,70.376,240,12,13,,,,,,,,51,wg-a,,,,AAXX 25064 07222 02340 72425 10120 20120 30026 40057 53007 61000 75165 877// 90600 333 10130 20120 6016 91038=
07222,1997-02-25 09:00:00,12,1007.5,1.8,100,12,2500,38.892,,64.82,240,,,,6,,,,,,10,wg-a,,,,AAXX 25094 07222 12225 82421 10120 20120 30044 40075 53018 60067 71066 877// 90900 333 91035=
07222,1997-02-25 12:00:00,12,1008.3,0.8,100,12,3000,46.3,,77.784,240,,,,2,,,,,,10,wg-a,,,,AAXX 25124 07222 02330 82425 10120 20120 30052 40083 51008 60096 71066 877// 91200 333 60027 91042=
07222,1997-02-25 15:00:00,13,1008.3,-0,94,12,4000,42.596,,83.34,240,,,,3,,,,,,10,wg-a,,,,AAXX 25154 07222 12440 82423 10130 20120 30052 40083 55000 60037 71066 877// 91500 333 91045=
07222,1997-02-25 18:00:00,12,1009.2,0.9,100,12,3500,42.596,,66.672,230,11.9,12.7,,,,,,,,51,wg-a,,,,AAXX 25184 07222 02235 82323 10120 20120 30061 40092 53009 61000 75166 877// 91800 333 10127 20119 6001 91036=
07222,1997-02-26 00:00:00,12,1012,0.6,94,11,10000,35.188,,,250,,,,,,,,,,3,wg-a,,,,AAXX 26004 07222 02360 82519 10120 20110 30089 40120 53006 60046 70365 877// 90000 333 61000=
07222,1997-02-26 03:00:00,11,1013.8,1.8,87,9,10000,31.484,,,260,,,,0,,,,,,,wg-a,,,,AAXX 26034 07222 12460 82617 10110 20090 30107 40138 51018 60007 875// 90300=
07222,1997-02-26 06:00:00,10,1016.6,2.7,87,8,15000,22.224,,,260,9.7,12.5,,,,,17,,,1,wg-a,,,,AAXX 26064 07222 02565 32612 10100 20080 30134 40166 53027 60006 70151 83800 90600 333 10125 20097 60174=
07222,1997-02-26 09:00:00,11,1019,2.4,76,7,20000,29.632,,,260,,,,,,,,,,25,wg-a,,,,AAXX 26094 07222 02670 /2616 10110 20070 30158 40190 51024 61000 72586 81200 90900 333 ////=
07222,1997-02-26 12:00:00,11,1020.8,1.8,82,8,20000,31.484,,51.856,260,,,,1,,,,,,25,wg-a,,,,AAXX 26124 07222 02570 32617 10110 20080 30176 40208 50018 60016 72586 82230 91200 333 60017 91028=
07222,1997-02-26 15:00:00,11,1022.8,2,71,6,500,46.3,,64.82,280,,,,,,,,,,3,wg-a,,,,AAXX 26154 07222 02500 42825 10110 20060 30196 40228 53020 61000 70386 84200 91500 333 //// 91035=
07222,1997-02-26 18:00:00,9,1027.1,4.3,81,6,20000,29.632,,,280,7.8,12.8,,,,,,,,3,wg-a,,,,AAXX 26184 07222 12570 22816 10090 20060 30239 40271 53043 60006 70386 82200 91800 333 10128 20078=
07222,1997-02-27 00:00:00,6,1033.5,2.4,87,4,15000,11.112,,,270,,,,,,,,,,,wg-a,,,,AAXX 27004 07222 12/65 02706 10060 20040 30302 40335 51024 60006 80000 90000=
07222,1997-02-27 03:00:00,6,1035.6,2.1,93,5,15000,0,,,0,,,,,,,,,,,wg-a,,,,AAXX 27034 07222 12/65 00000 10060 20050 30323 40356 51021 60006 80000 90300=
07222,1997-02-27 06:00:00,3,1036.4,0.8,100,3,10000,7.408,,,180,2.6,8.8,,,,,1,,,,wg-a,,,,AAXX 27064 07222 02/60 01804 10030 20030 30331 40364 51008 60006 80000 90600 333 10088 20026 60014=
07222,1997-02-27 09:00:00,7,1037.4,1,100,7,10000,11.112,,,170,,,,,,,,,,,wg-a,,,,AAXX 27094 07222 12760 71706 10070 20070 30341 40374 51010 60006 87500 90900=
07222,1997-02-27 12:00:00,12,1036.8,-0.5,67,6,15000,18.52,,,210,,,,,,,,,,,wg-a,,,,AAXX 27124 07222 12565 32110 10120 20060 30336 40368 58005 60006 83200 91200=
07222,1997-02-27 18:00:00,9,1034.1,-0.7,71,4,20000,11.112,,,170,2.3,13.9,,,,,,,,,wg-a,,,,AAXX 27184 07222 12/70 31706 10090 20040 30309 40341 58007 60006 80001 91800 333 10139 20023=
07222,1997-02-28 00:00:00,8,1030.9,-1.7,76,4,20000,22.224,,,160,,,,,,,,,,,wg-a,,,,AAXX 28004 07222 12/70 01612 10080 20040 30277 40309 58017 60006 80000 90000=
07222,1997-02-28 03:00:00,8,1029.1,-1.8,71,3,15000,22.224,,,180,,,,,,,,,,,wg-a,,,,AAXX 28034 07222 12/65 01812 10080 20030 30259 40291 57018 60006 80000 90300=
07222,1997-02-28 06:00:00,5,1028.5,-0.7,81,2,15000,11.112,,,170,4.7,9,,,,,,,,,wg-a,,,,AAXX 28064 07222 02/65 31706 10050 20020 30252 40285 56007 60006 80001 90600 333 10090 20047 60004=
07222,1997-02-28 09:00:00,8,1029,0.6,71,3,20000,14.816,,,170,,,,,,,,,,,wg-a,,,,AAXX 28094 07222 12/70 51708 10080 20030 30258 40290 53006 60006 80001 90900=
07222,1997-02-28 12:00:00,14,1027.7,-1.3,67,8,25000,25.928,,,190,,,,,,,,,,,wg-a,,,,AAXX 28124 07222 12/75 51914 10140 20080 30245 40277 58013 60006 80001 91200=
07222,1997-02-28 18:00:00,12,1027.9,1.1,88,10,15000,11.112,,,250,4.5,17,,,,,,,,,wg-a,,,,AAXX 28184 07222 12/65 32506 10120 20100 30247 40279 53011 60006 81031 91800 333 10170 20045=
07222,1997-02-28 21:00:00,10,1028.7,0.8,100,10,8000,7.408,,,220,,,,,,,,,,,wg-a,,,,AAXX 28214 07222 12258 42204 10100 20100 30255 40287 51008 60006 83601 92100=
07222,1997-03-01 00:00:00,11,1029,0.3,100,11,4000,14.816,,,260,,,,,,,,,,10,wg-a,,,,AAXX 01004 07222 12140 72608 10110 20110 30258 40290 50003 60006 71011 876// 90000=
07222,1997-03-01 03:00:00,11,1028.1,-0.9,100,11,7000,11.112,,,210,,,,,,,,,,,wg-a,,,,AAXX 01034 07222 12357 72106 10110 20110 30249 40281 58009 60006 876// 90300=
07222,1997-03-01 06:00:00,11,1028.1,-0,100,11,7000,18.52,,,190,9.5,11.6,,,,,,,,,wg-a,,,,AAXX 01064 07222 02357 81910 10110 20110 30249 40281 55000 60006 875// 90600 333 10116 20095 60004=
07222,1997-03-01 09:00:00,12,1029.4,1.3,94,11,10000,11.112,,,190,,,,,,,,,,,wg-a,,,,AAXX 01094 07222 12260 71906 10120 20110 30262 40294 53013 60006 875// 90900=
07222,1997-03-01 12:00:00,13,1028.5,-0.9,88,11,12000,14.816,,,220,,,,,,,,,,,wg-a,,,,AAXX 01124 07222 12462 72208 10130 20110 30253 40285 55009 60006 875// 91200=
07222,1997-03-01 15:00:00,14,1027,-1.4,88,12,20000,14.816,,,210,,,,,,,,,,,wg-a,,,,AAXX 01154 07222 12470 /2108 10140 20120 30239 40270 56014 60006 85500 91500=
07222,1997-03-01 18:00:00,12,1025.9,-1.2,88,10,500,3.704,,,220,10.7,14.4,,,,,,,,,wg-a,,,,AAXX 01184 07222 12/00 12202 10120 20100 30227 40259 56012 60006 80001 91800 333 10144 20107=
07222,1997-03-01 21:00:00,9,1025.6,-0.3,93,8,400,7.408,,,230,,,,,,,,,,,wg-a,,,,AAXX 01214 07222 12104 72304 10090 20080 30224 40256 58003 60006 8760/ 92100=
07222,1997-03-02 00:00:00,7,1024.9,-0.7,100,7,800,7.408,,,260,,,,,,,,,,44,wg-a,,,,AAXX 02004 07222 12008 72604 10070 20070 30217 40249 58007 60006 74441 8760/ 90000=
07222,1997-03-02 03:00:00,7,1024.5,-0.4,100,7,400,11.112,,,250,,,,,,,,,,45,wg-a,,,,AAXX 02034 07222 12/04 92506 10070 20070 30213 40245 55004 60006 74544 89/// 90300=
07222,1997-03-02 06:00:00,10,1024.8,0.3,100,10,6000,14.816,,,200,6.4,11.9,,,,,,,,28,wg-a,,,,AAXX 02064 07222 02556 82008 10100 20100 30216 40248 50003 60006 72842 875// 90600 333 10119 20064 60004=
07222,1997-03-02 09:00:00,12,1026.3,1.5,94,11,10000,18.52,,,220,,,,,,,,,,,wg-a,,,,AAXX 02094 07222 12660 72210 10120 20110 30231 40263 53015 60006 875// 90900=
07222,1997-03-02 12:00:00,14,1027.3,1,88,12,20000,22.224,,,240,,,,,,,,,,,wg-a,,,,AAXX 02124 07222 12470 82412 10140 20120 30241 40273 53010 60006 875// 91200=
07222,1997-03-02 15:00:00,13,1027.6,0.3,94,12,500,22.224,,,250,,,,,,,,,,20,wg-a,,,,AAXX 02154 07222 02400 82512 10130 20120 30244 40276 53003 61000 72052 875// 91500 333 ////=
07222,1997-03-02 18:00:00,12,1028.9,1.3,100,12,7000,18.52,,,240,9.8,14.2,,,,,,,,20,wg-a,,,,AAXX 02184 07222 02457 82410 10120 20120 30257 40289 53013 61000 72052 877// 91800 333 10142 20098 6000=
07222,1997-03-02 21:00:00,12,1030.5,1.6,100,12,6000,14.816,,,240,,,,,,,,,,3,wg-a,,,,AAXX 02214 07222 02356 82408 10120 20120 30273 40305 51016 61000 70352 877// 92100 333 ////=
07222,1997-03-03 00:00:00,12,1031.3,0.8,94,11,7000,14.816,,,240,,,,,,,,,,3,wg-a,,,,AAXX 03004 07222 02357 82408 10120 20110 30281 40313 51008 61000 70352 877// 90000 333 ////=
07222,1997-03-03 03:00:00,11,1031.6,0.3,100,11,6000,11.112,,,210,,,,,,,,,,,wg-a,,,,AAXX 03034 07222 12256 82106 10110 20110 30284 40316 51003 60006 877// 90300=
07222,1997-03-03 06:00:00,11,1032.2,0.6,94,10,6000,11.112,,,200,10.6,12.4,,,,,,,,,wg-a,,,,AAXX 03064 07222 02256 72006 10110 20100 30290 40322 51006 60006 875// 90600 333 10124 20106 60004=
07222,1997-03-03 09:00:00,12,1033,0.8,94,11,8000,11.112,,,200,,,,,,,,,,,wg-a,,,,AAXX 03094 07222 12558 72006 10120 20110 30298 40330 52008 60006 875// 90900=
07222,1997-03-03 12:00:00,15,1033.1,0.1,82,12,18000,22.224,,,170,,,,,,,,,,,wg-a,,,,AAXX 03124 07222 12468 71712 10150 20120 30299 40331 51001 60006 87801 91200=
07222,1997-03-03 15:00:00,16,1030.8,-2.2,77,12,22000,22.224,,,190,,,,,,,,,,,wg-a,,,,AAXX 03154 07222 12572 /1912 10160 20120 30277 40308 56022 60006 82201 91500=
07222,1997-03-03 18:00:00,14,1029.7,-1.2,77,10,20000,18.52,,,180,10.2,16,,,,,,,,,wg-a,,,,AAXX 03184 07222 12770 71810 10140 20100 30265 40297 55012 60006 82532 91800 333 10160 20102=
07222,1997-03-03 21:00:00,12,1029.4,-0.3,88,10,15000,3.704,,,200,,,,,,,,,,,wg-a,,,,AAXX 03214 07222 12/65 52002 10120 20100 30262 40294 57003 60006 82031 92100=
07222,1997-03-04 00:00:00,11,1028.4,-1,87,9,0,11.112,,,190,,,,,,,,,,,wg-a,,,,AAXX 04004 07222 12/// /1906 10110 20090 30252 40284 58010 60006 90000=
07222,1997-03-04 03:00:00,10,1028,-0.4,93,9,12000,11.112,,,240,,,,,,,,,,,wg-a,,,,AAXX 04034 07222 12/62 62406 10100 20090 30248 40280 58004 60006 82031 90300=
07222,1997-03-04 06:00:00,10,1027.4,-0.6,100,10,4000,11.112,,,180,9.7,14.2,,,,,,,,10,wg-a,,,,AAXX 04064 07222 02140 71806 10100 20100 30242 40274 58006 60006 71022 876// 90600 333 10142 20097 60004=
07222,1997-03-04 09:00:00,11,1028.7,1.3,100,11,3000,11.112,,,210,,,,0,,,,,,10,wg-a,,,,AAXX 04094 07222 12430 72106 10110 20110 30255 40287 53013 60007 71042 875// 90900=
07222,1997-03-04 12:00:00,13,1027.6,-1.1,88,11,7000,22.224,,,200,,,,,,,,,,1,wg-a,,,,AAXX 04124 07222 12457 72012 10130 20110 30244 40276 58011 60006 70142 8457/ 91200=
07222,1997-03-04 15:00:00,12,1026.8,-0.8,94,11,7000,22.224,,,230,,,,1,,,,,,21,wg-a,,,,AAXX 04154 07222 12357 72312 10120 20110 30236 40268 55008 60017 72162 876// 91500=
07222,1997-03-04 18:00:00,11,1028.1,1.3,82,8,15000,18.52,,,260,9.7,12.7,,,,,,,,3,wg-a,,,,AAXX 04184 07222 12465 72610 10110 20080 30249 40281 53013 60006 70362 8583/ 91800 333 10127 20097=
07222,1997-03-04 21:00:00,10,1029.2,1.1,87,8,15000,18.52,,,280,,,,,,,,,,,wg-a,,,,AAXX 04214 07222 12565 72810 10100 20080 30260 40292 51011 60006 875// 92100=
07222,1997-03-05 00:00:00,9,1029.5,0.3,87,7,15000,14.816,,,270,,,,,,,,,,,wg-a,,,,AAXX 05004 07222 12465 72708 10090 20070 30263 40295 51003 60006 875// 90000=
07222,1997-03-05 03:00:00,9,1029.7,0.2,87,7,12000,11.112,,,250,,,,,,,,,,,wg-a,,,,AAXX 05034 07222 12562 72506 10090 20070 30265 40297 50002 60006 875// 90300=
07222,1997-03-05 06:00:00,8,1030.3,0.6,76,4,10000,7.408,,,240,7.3,10.5,,,,,1,,,,wg-a,,,,AAXX 05064 07222 02660 42404 10080 20040 30271 40303 53006 60006 84500 90600 333 10105 20073 60014=
07222,1997-03-05 09:00:00,10,1031.3,1,82,7,11000,11.112,,,200,,,,,,,,,,,wg-a,,,,AAXX 05094 07222 12/61 /2006 10100 20070 30281 40313 51010 60006 90900=
07222,1997-03-05 12:00:00,12,1031.1,-0.2,76,8,20000,18.52,,,250,,,,,,,,,,,wg-a,,,,AAXX 05124 07222 12570 82510 10120 20080 30279 40311 58002 60006 8/500 91200=
07222,1997-03-05 15:00:00,12,1030.7,-0.4,82,9,11000,14.816,,,240,,,,,,,,,,,wg-a,,,,AAXX 05154 07222 12/61 /2408 10120 20090 30275 40307 55004 60006 91500=
07222,1997-03-05 18:00:00,11,1030.5,-0.2,94,10,9000,11.112,,,230,7.1,12.4,,,,,,,,50,wg-a,,,,AAXX 05184 07222 02359 82306 10110 20100 30273 40305 55002 61000 75052 8/500 91800 333 10124 20071 6100=
07222,1997-03-06 00:00:00,11,1030.2,-0.5,100,11,0,14.816,,,230,,,,,,,,,,,wg-a,,,,AAXX 06004 07222 12/// /2308 10110 20110 30270 40302 57005 60006 90000=
07222,1997-03-06 06:00:00,10,1030.6,0.3,100,10,0,3.704,,,230,10.3,11.2,,,,,,,,,wg-a,,,,AAXX 06064 07222 02/// /2302 10100 20100 30274 40306 50003 60004 90600 333 10112 20103 61000=
07222,1997-03-06 12:00:00,15,1031.9,-0.2,77,11,0,3.704,,,260,,,,,,,,,,,wg-a,,,,AAXX 06124 07222 02/// /2602 10150 20110 30287 40319 58002 61000 91200 333 ////=
07222,1997-03-06 18:00:00,13,1031.2,0.4,82,10,0,11.112,,,270,9.9,16.4,,,,,,,,,wg-a,,,,AAXX 06184 07222 32/// /2706 10130 20100 30280 40312 53004 91800 333 10164 20099=
07222,1997-03-07 00:00:00,6,1031.8,-0.3,100,6,0,0,,,0,,,,,,,,,,,wg-a,,,,AAXX 07004 07222 12/// /0000 10060 20060 30285 40318 58003 60006 90000=
07222,1997-03-07 06:00:00,5,1030.7,-0.3,100,5,500,3.704,,,100,5.3,12.5,,,,,,,,45,wg-a,,,,AAXX 07064 07222 02/05 91002 10050 20050 30274 40307 55003 60006 74544 89/// 90600 333 10125 20053 61000=
07222,1997-03-07 09:00:00,8,1030.8,0.2,100,8,2500,7.408,,,110,,,,,,,,,,10,wg-a,,,,AAXX 07094 07222 12125 /1104 10080 20080 30276 40308 53002 60006 71042 86630 90900=
07222,1997-03-07 12:00:00,16,1030.1,-0.6,63,9,12000,7.408,,,140,,,,,,,,,,3,wg-a,,,,AAXX 07124 07222 12762 21404 10160 20090 30270 40301 57006 60006 70341 81101 91200=
07222,1997-03-07 15:00:00,16,1028.6,-1.5,68,10,20000,11.112,,,130,,,,,,,,,,,wg-a,,,,AAXX 07154 07222 12/70 31306 10160 20100 30255 40286 56015 60006 80001 91500=
07222,1997-03-07 18:00:00,14,1028.7,-0,67,8,15000,0,,,0,5.4,16.9,,,,,,,,,wg-a,,,,AAXX 07184 07222 12/65 10000 10140 20080 30255 40287 55000 60006 80001 91800 333 10169 20054=
07222,1997-03-07 21:00:00,10,1030.1,1.4,93,9,8000,3.704,,,310,,,,,,,,,,,wg-a,,,,AAXX 07214 07222 12/58 03102 10100 20090 30269 40301 51014 60006 80000 92100=
07222,1997-03-08 00:00:00,7,1030.3,0.2,100,7,500,3.704,,,10,,,,,,,,,,,wg-a,,,,AAXX 08004 07222 12/00 00102 10070 20070 30271 40303 51002 60006 80000 90000=
07222,1997-03-08 03:00:00,7,1030.7,0.4,100,7,6000,3.704,,,30,,,,,,,,,,,wg-a,,,,AAXX 08034 07222 12/56 00302 10070 20070 30275 40307 50004 60006 80000 90300=
07222,1997-03-08 06:00:00,6,1032.2,1.4,100,6,6000,3.704,,,30,5.5,14.4,,,,,,,,,wg-a,,,,AAXX 08064 07222 02/56 30302 10060 20060 30289 40322 53014 60006 80001 90600 333 10144 20055 60004=
07222,1997-03-08 09:00:00,10,1033.3,1.2,87,8,7000,7.408,,,80,,,,,,,,,,,wg-a,,,,AAXX 08094 07222 12/57 30804 10100 20080 30301 40333 51012 60006 80001 90900=
07222,1997-03-08 12:00:00,16,1033.2,-0.1,55,7,10000,14.816,,,50,,,,,,,,,,,wg-a,,,,AAXX 08124 07222 12/60 50508 10160 20070 30300 40332 58001 60006 80001 91200=
07222,1997-03-08 15:00:00,17,1031.9,-1.2,55,8,12000,14.816,,,70,,,,,,,,,,,wg-a,,,,AAXX 08154 07222 12/62 40708 10170 20080 30288 40319 57012 60006 80001 91500=
07222,1997-03-08 18:00:00,15,1032.1,0.1,63,8,10000,7.408,,,50,6.1,17.2,,,,,,,,,wg-a,,,,AAXX 08184 07222 12/60 30504 10150 20080 30289 40321 53001 60006 80001 91800 333 10172 20061=
07222,1997-03-08 21:00:00,13,1032,-0.1,72,8,6000,11.112,,,40,,,,,,,,,,,wg-a,,,,AAXX 08214 07222 12/56 40406 10130 20080 30288 40320 58001 60006 80001 92100=
07222,1997-03-09 00:00:00,10,1031.8,-0.2,87,8,7000,7.408,,,50,,,,,,,,,,,wg-a,,,,AAXX 09004 07222 12/57 40504 10100 20080 30286 40318 58002 60006 80001 90000=
07222,1997-03-09 03:00:00,9,1030.9,-0.9,81,6,7000,7.408,,,60,,,,,,,,,,,wg-a,,,,AAXX 09034 07222 12/57 40604 10090 20060 30277 40309 58009 60006 80001 90300=
07222,1997-03-09 06:00:00,8,1030.8,-0.1,87,6,500,7.408,,,50,7.5,14.9,,,,,,,,,wg-a,,,,AAXX 09064 07222 02/00 20504 10080 20060 30276 40308 56001 60006 80001 90600 333 10149 20075 60004=
07222,1997-03-09 09:00:00,9,1031.6,0.8,87,7,6000,11.112,,,70,,,,,,,,,,,wg-a,,,,AAXX 09094 07222 12/56 30706 10090 20070 30284 40316 51008 60006 80002 90900=
07222,1997-03-09 12:00:00,16,1030.6,-0.9,59,8,8000,11.112,,,130,,,,,,,,,,,wg-a,,,,AAXX 09124 07222 12/58 /1306 10160 20080 30275 40306 58009 60006 80001 91200=
07222,1997-03-09 18:00:00,16,1029.3,0.4,63,9,10000,11.112,,,60,7,18.8,,,,,,,,,wg-a,,,,AAXX 09184 07222 12/60 10606 10160 20090 30262 40293 53004 60006 80001 91800 333 10188 20070=
07222,1997-03-09 21:00:00,12,1030,0.6,76,8,10000,7.408,,,60,,,,,,,,,,,wg-a,,,,AAXX 09214 07222 12/60 10604 10120 20080 30268 40300 52006 60006 80001 92100=
07222,1997-03-10 00:00:00,10,1029.9,-0.1,82,7,10000,3.704,,,70,,,,,,,,,,,wg-a,,,,AAXX 10004 07222 12/60 10702 10100 20070 30267 40299 55001 60006 80001 90000=
07222,1997-03-10 03:00:00,8,1029.5,-0.4,87,6,10000,7.408,,,80,,,,,,,,,,,wg-a,,,,AAXX 10034 07222 12/60 10804 10080 20060 30263 40295 58004 60006 80001 90300=
07222,1997-03-10 06:00:00,8,1030.7,1.2,87,6,7000,11.112,,,70,7.1,15.5,,,,,,,,,wg-a,,,,AAXX 10064 07222 02/57 /0706 10080 20060 30275 40307 53012 60006 80001 90600 333 10155 20071 60004=
07222,1997-03-10 09:00:00,12,1032.1,1.4,71,7,9000,14.816,,,140,,,,,,,,,,,wg-a,,,,AAXX 10094 07222 12/59 /1408 10120 20070 30289 40321 51014 60006 80001 90900=
07222,1997-03-10 12:00:00,19,1031.3,-0.7,49,8,15000,11.112,,,160,,,,,,,,,,,wg-a,,,,AAXX 10124 07222 12/65 01606 10190 20080 30282 40313 58007 60006 80000 91200=
07222,1997-03-10 15:00:00,21,1030.3,-1,46,9,18000,11.112,,,130,,,,,,,,,,,wg-a,,,,AAXX 10154 07222 12/68 01306 10210 20090 30272 40303 56010 60006 80000 91500=
07222,1997-03-10 18:00:00,18,1030.1,-0.2,59,10,10000,11.112,,,60,7.4,21,,,,,,,,,wg-a,,,,AAXX 10184 07222 12/60 00606 10180 20100 30270 40301 55002 60006 80000 91800 333 10210 20074=
07222,1997-03-10 21:00:00,14,1031,0.8,67,8,10000,11.112,,,60,,,,,,,,,,,wg-a,,,,AAXX 10214 07222 12/60 00606 10140 20080 30278 40310 51008 60006 80000 92100=
07222,1997-03-11 00:00:00,12,1030.8,-0.2,71,7,10000,11.112,,,60,,,,,,,,,,,wg-a,,,,AAXX 11004 07222 12/60 00606 10120 20070 30276 40308 58002 60006 80000 90000=
07222,1997-03-11 03:00:00,8,1030.2,-0.6,81,5,10000,3.704,,,30,,,,,,,,,,,wg-a,,,,AAXX 11034 07222 12/60 00302 10080 20050 30270 40302 58006 60006 80000 90300=
07222,1997-03-11 06:00:00,8,1030.7,0.5,87,6,10000,11.112,,,60,7.4,18.2,,,,,,,,,wg-a,,,,AAXX 11064 07222 02/60 00606 10080 20060 30275 40307 51005 60006 80000 90600 333 10182 20074 60004=
07222,1997-03-11 09:00:00,13,1030.9,0.2,67,7,10000,11.112,,,90,,,,,,,,,,,wg-a,,,,AAXX 11094 07222 12/60 00906 10130 20070 30277 40309 50002 60006 80000 90900=
07222,1997-03-11 12:00:00,19,1030.6,-0.2,43,6,15000,14.816,,,110,,,,,,,,,,,wg-a,,,,AAXX 11124 07222 12/65 01108 10190 20060 30275 40306 58002 60006 80000 91200=
07222,1997-03-11 15:00:00,21,1029.2,-1.4,43,8,15000,14.816,,,80,,,,,,,,,,,wg-a,,,,AAXX 11154 07222 12/65 10808 10210 20080 30261 40292 56014 60006 80001 91500=
07222,1997-03-11 18:00:00,18,1029.4,0.2,49,7,15000,7.408,,,70,7.8,20.8,,,,,,,,,wg-a,,,,AAXX 11184 07222 12/65 30704 10180 20070 30263 40294 53002 60006 80001 91800 333 10208 20078=
07222,1997-03-12 00:00:00,9,1030.3,0.3,87,7,10000,0,,,0,,,,,,,,,,,wg-a,,,,AAXX 12004 07222 12/60 20000 10090 20070 30271 40303 51003 60006 80001 90000=
07222,1997-03-12 03:00:00,6,1029.7,-0.7,100,6,10000,0,,,0,,,,,,,,,,,wg-a,,,,AAXX 12034 07222 12/60 /0000 10060 20060 30264 40297 57007 60006 90300=
07222,1997-03-12 06:00:00,5,1030.1,0.4,100,5,500,3.704,,,120,5,17.5,,,,,,,,,wg-a,,,,AAXX 12064 07222 02/00 01202 10050 20050 30268 40301 50004 60006 80000 90600 333 10175 20050 60004=
07222,1997-03-12 09:00:00,10,1031.3,1.3,87,8,500,7.408,,,180,,,,,,,,,,,wg-a,,,,AAXX 12094 07222 12/00 /1804 10100 20080 30281 40313 51013 60006 80001 90900=
07222,1997-03-12 12:00:00,18,1031.8,0.6,59,10,8000,14.816,,,270,,,,,,,,,,,wg-a,,,,AAXX 12124 07222 12/58 42708 10180 20100 30287 40318 50006 60006 80001 91200=
07222,1997-03-12 15:00:00,19,1031.1,-0.7,52,9,10000,11.112,,,290,,,,,,,,,,,wg-a,,,,AAXX 12154 07222 12/60 62906 10190 20090 30280 40311 58007 60006 80001 91500=
07222,1997-03-12 18:00:00,14,1031.9,0.7,88,12,7000,7.408,,,330,4.7,19.1,,,,,,,,,wg-a,,,,AAXX 12184 07222 12457 /3304 10140 20120 30287 40319 53007 60006 82501 91800 333 10191 20047=
07222,1997-03-12 21:00:00,10,1033.2,1.3,93,9,10000,11.112,,,40,,,,,,,,,,,wg-a,,,,AAXX 12214 07222 12/60 00406 10100 20090 30300 40332 51013 60006 80000 92100=
07222,1997-03-13 00:00:00,8,1033.1,-0.1,93,7,7000,3.704,,,80,,,,,,,,,,,wg-a,,,,AAXX 13004 07222 12/57 00802 10080 20070 30299 40331 57001 60006 80000 90000=
07222,1997-03-13 03:00:00,5,1032.8,-0.4,100,5,100,7.408,,,150,,,,,,,,,,44,wg-a,,,,AAXX 13034 07222 12101 71504 10050 20050 30295 40328 58004 60006 74441 87600 90300=
07222,1997-03-13 06:00:00,6,1032.3,-0.5,100,6,100,3.704,,,50,4.2,14.2,,,,,,,,45,wg-a,,,,AAXX 13064 07222 02/01 90502 10060 20060 30290 40323 58005 60006 74541 89/// 90600 333 10142 20042 60004=
07222,1997-03-13 12:00:00,14,1032.1,-0.7,67,8,15000,3.704,,,30,,,,,,,,,,1,wg-a,,,,AAXX 13124 07222 12565 /0302 10140 20080 30289 40321 58007 60006 70141 81101 91200=
07222,1997-03-13 18:00:00,14,1029.1,-0.8,67,8,20000,7.408,,,70,5.3,16.8,,,,,,,,,wg-a,,,,AAXX 13184 07222 12/70 30704 10140 20080 30259 40291 56008 60006 80001 91800 333 10168 20053=
07222,1997-03-13 21:00:00,9,1029.4,0.3,93,8,10000,7.408,,,330,,,,,,,,,,,wg-a,,,,AAXX 13214 07222 12/60 /3304 10090 20080 30262 40294 50003 60006 92100=
07222,1997-03-14 00:00:00,8,1028.9,-0.5,93,7,10000,7.408,,,280,,,,,,,,,,,wg-a,,,,AAXX 14004 07222 12560 /2804 10080 20070 30257 40289 58005 60006 82501 90000=
07222,1997-03-14 06:00:00,8,1028.3,0.2,93,7,4000,0,,,0,6.3,14.1,,,,,,,,10,wg-a,,,,AAXX 14064 07222 02540 70000 10080 20070 30251 40283 53002 60006 71022 875// 90600 333 10141 20063 60004=
07222,1997-03-14 09:00:00,10,1029.3,1,87,8,4000,7.408,,,270,,,,,,,,,,,wg-a,,,,AAXX 14094 07222 12/40 /2704 10100 20080 30261 40293 51010 60006 90900=
07222,1997-03-14 12:00:00,13,1028.9,-0.4,77,9,10000,22.224,,,280,,,,,,,,,,,wg-a,,,,AAXX 14124 07222 12460 82812 10130 20090 30257 40289 56004 60006 875// 91200=
07222,1997-03-14 15:00:00,12,1027.8,-1.1,94,11,8000,22.224,,,280,,,,,,,,,,20,wg-a,,,,AAXX 14154 07222 02258 82812 10120 20110 30246 40278 57011 61000 72052 887// 91500 333 ////=
07222,1997-03-14 18:00:00,12,1027.8,-0,94,11,10000,14.816,,,280,7.5,12.8,,,,,,,,1,wg-a,,,,AAXX 14184 07222 02360 72808 10120 20110 30246 40278 54000 61000 70152 8653/ 91800 333 10128 20075 ////=
07222,1997-03-14 21:00:00,12,1028.8,1,94,11,10000,14.816,,,280,,,,,,,,,,,wg-a,,,,AAXX 14214 07222 12260 72808 10120 20110 30256 40288 51010 60006 877// 92100=
07222,1997-03-15 00:00:00,11,1029,0.2,100,11,8000,14.816,,,280,,,,,,,,,,,wg-a,,,,AAXX 15004 07222 12158 72808 10110 20110 30258 40290 52002 60006 877// 90000=
07222,1997-03-15 06:00:00,11,1029.2,0.7,100,11,6000,11.112,,,300,11.2,11.7,,,,,,,,1,wg-a,,,,AAXX 15064 07222 02356 73006 10110 20110 30260 40292 53007 60006 70152 875// 90600 333 10117 20112 61000=
07222,1997-03-15 09:00:00,12,1030.4,1.2,100,12,7000,11.112,,,320,,,,,,,,,,20,wg-a,,,,AAXX 15094 07222 02257 73206 10120 20120 30272 40304 53012 61000 72052 878// 90900 333 ////=
07222,1997-03-15 12:00:00,14,1030.3,-0.1,77,10,15000,14.816,,,330,,,,,,,,,,1,wg-a,,,,AAXX 15124 07222 02465 73308 10140 20100 30271 40303 58001 61000 70152 878// 91200 333 ////=
07222,1997-03-15 15:00:00,14,1029.8,-0.5,72,9,15000,11.112,,,280,,,,,,,,,,,wg-a,,,,AAXX 15154 07222 12465 82806 10140 20090 30266 40298 58005 60006 878// 91500=
07222,1997-03-15 18:00:00,13,1030,0.2,67,7,12000,7.408,,,320,11.2,14.2,,,,,,,,,wg-a,,,,AAXX 15184 07222 12662 83204 10130 20070 30268 40300 53002 60006 875// 91800 333 10142 20112=
07222,1997-03-15 21:00:00,11,1030.9,0.9,71,6,12000,0,,,0,,,,,,,,,,,wg-a,,,,AAXX 15214 07222 12662 80000 10110 20060 30277 40309 51009 60006 875// 92100=
07222,1997-03-16 00:00:00,8,1031.4,0.5,93,7,12000,0,,,0,,,,,,,,,,,wg-a,,,,AAXX 16004 07222 12/62 00000 10080 20070 30282 40314 50005 60006 80000 90000=
07222,1997-03-16 03:00:00,5,1031,-0.5,100,5,8000,3.704,,,10,,,,,,,,,,,wg-a,,,,AAXX 16034 07222 12/58 00102 10050 20050 30277 40310 58005 60006 80000 90300=
07222,1997-03-16 06:00:00,5,1031.4,0.4,100,5,2000,0,,,0,3.9,12.9,,,,,,,,11,wg-a,,,,AAXX 16064 07222 02620 70000 10050 20050 30281 40314 51004 60006 71111 875// 90600 333 10129 20039 61000=
07222,1997-03-16 12:00:00,14,1031.2,-0.7,72,9,20000,7.408,,,60,,,,,,,,,,,wg-a,,,,AAXX 16124 07222 12570 70604 10140 20090 30280 40312 58007 60006 878// 91200=
07222,1997-03-16 18:00:00,13,1029.6,-0.5,77,9,18000,11.112,,,50,4.8,14.6,,,,,,,,,wg-a,,,,AAXX 16184 07222 12568 /0506 10130 20090 30264 40296 55005 60006 86500 91800 333 10146 20048=
07222,1997-03-16 21:00:00,11,1029.6,-0,87,9,10000,3.704,,,40,,,,,,,,,,,wg-a,,,,AAXX 16214 07222 12560 30402 10110 20090 30264 40296 54000 60006 83500 92100=
07222,1997-03-17 00:00:00,8,1029.5,-0.1,100,8,8000,7.408,,,20,,,,,,,,,,,wg-a,,,,AAXX 17004 07222 12/58 00204 10080 20080 30263 40295 58001 60006 80000 90000=
07222,1997-03-17 03:00:00,8,1028.8,-0.7,100,8,400,11.112,,,50,,,,,,,,,,44,wg-a,,,,AAXX 17034 07222 12104 80506 10080 20080 30256 40288 58007 60006 74441 886// 90300=
07222,1997-03-17 06:00:00,8,1029.3,0.5,100,8,2000,14.816,,,50,7.1,13.4,,,,,,,,10,wg-a,,,,AAXX 17064 07222 02120 80508 10080 20080 30261 40293 53005 60006 71041 886// 90600 333 10134 20071 60004=
07222,1997-03-17 09:00:00,8,1029.3,0,100,8,1800,14.816,,,90,,,,,,,,,,,wg-a,,,,AAXX 17094 07222 12/18 /0908 10080 20080 30261 40293 50000 60006 90900=
07222,1997-03-17 12:00:00,11,1028.6,-0.7,87,9,8000,7.408,,,60,,,,,,,,,,,wg-a,,,,AAXX 17124 07222 12458 80604 10110 20090 30254 40286 56007 60006 886// 91200=
07222,1997-03-17 15:00:00,14,1026.5,-2,77,10,10000,7.408,,,60,,,,,,,,,,,wg-a,,,,AAXX 17154 07222 12460 /0604 10140 20100 30234 40265 57020 60006 86500 91500=
07222,1997-03-17 18:00:00,12,1025.6,-1,88,10,10000,7.408,,,320,7.4,15.2,,,,,,,,,wg-a,,,,AAXX 17184 07222 12760 33204 10120 20100 30224 40256 56010 60006 815/1 91800 333 10152 20074=
07222,1997-03-17 21:00:00,8,1025.7,0.1,93,7,8000,7.408,,,340,,,,,,,,,,,wg-a,,,,AAXX 17214 07222 12/58 /3404 10080 20070 30225 40257 53001 60006 80002 92100=
07222,1997-03-18 00:00:00,7,1024.7,-1,100,7,6000,7.408,,,320,,,,,,,,,,,wg-a,,,,AAXX 18004 07222 12456 53204 10070 20070 30215 40247 56010 60006 85500 90000=
07222,1997-03-18 03:00:00,9,1022.8,-1.9,93,8,6000,11.112,,,290,,,,,,,,,,,wg-a,,,,AAXX 18034 07222 12256 72906 10090 20080 30196 40228 56019 60006 87600 90300=
07222,1997-03-18 06:00:00,8,1022.4,-0.4,93,7,6000,11.112,,,300,6.3,12.3,,,,,,,,,wg-a,,,,AAXX 18064 07222 02256 73006 10080 20070 30192 40224 56004 60006 876// 90600 333 10123 20063 60004=
07222,1997-03-18 09:00:00,10,1022.3,-0.1,93,9,8000,7.408,,,230,,,,,,,,,,,wg-a,,,,AAXX 18094 07222 12458 72304 10100 20090 30191 40223 58001 60006 876// 90900=
07222,1997-03-18 12:00:00,13,1021.3,-1,77,9,10000,25.928,,,270,,,,,,,,,,,wg-a,,,,AAXX 18124 07222 12560 72714 10130 20090 30181 40213 56010 60006 875// 91200=
07222,1997-03-18 15:00:00,13,1019.3,-1.9,72,8,15000,31.484,,,270,,,,,,,,,,,wg-a,,,,AAXX 18154 07222 12565 /2717 10130 20080 30162 40193 56019 60006 85500 91500=
07222,1997-03-18 18:00:00,12,1018.6,-0.8,88,10,15000,25.928,,,280,7.7,14.6,,,,,,,,,wg-a,,,,AAXX 18184 07222 12465 72814 10120 20100 30154 40186 56008 60006 875// 91800 333 10146 20077=
07222,1997-03-18 21:00:00,9,1019.2,0.6,87,7,15000,22.224,,,280,,,,,,,,,,,wg-a,,,,AAXX 18214 07222 12/65 02812 10090 20070 30160 40192 53006 60006 80000 92100=
07222,1997-03-19 00:00:00,8,1019.1,-0.1,87,6,15000,14.816,,,290,,,,,,,,,,,wg-a,,,,AAXX 19004 07222 12665 42908 10080 20060 30159 40191 58001 60006 84500 90000=
07222,1997-03-19 06:00:00,7,1017.5,-0.1,87,5,15000,18.52,,,290,7.1,11.9,,,,,,,,,wg-a,,,,AAXX 19064 07222 02665 22910 10070 20050 30143 40175 57001 60006 82500 90600 333 10119 20071 60004=
07222,1997-03-19 09:00:00,10,1018.5,1,76,6,10000,31.484,,,290,,,,,,,,,,80,wg-a,,,,AAXX 19094 07222 02560 72917 10100 20060 30153 40185 51010 61000 78086 87800 90900 333 ////=
07222,1997-03-19 12:00:00,12,1018.3,-0.1,62,5,10000,29.632,,,320,,,,,,,,,,1,wg-a,,,,AAXX 19124 07222 02560 /3216 10120 20050 30152 40183 57001 61000 70186 86800 91200 333 6100=
07222,1997-03-19 15:00:00,13,1018.3,-0,54,4,20000,22.224,,,340,,,,,,,,,,,wg-a,,,,AAXX 19154 07222 12670 /3412 10130 20040 30152 40183 54000 60006 86500 91500=
07222,1997-03-19 18:00:00,10,1019.6,1.2,57,2,11000,14.816,,,330,7.3,13.2,,,,,,,,,wg-a,,,,AAXX 19184 07222 12/61 /3308 10100 20020 30164 40196 53012 60006 91800 333 10132 20073=
07222,1997-03-19 21:00:00,7,1021.8,2.2,81,4,15000,7.408,,,310,,,,,,,,,,,wg-a,,,,AAXX 19214 07222 12/65 03104 10070 20040 30186 40218 51022 60006 80000 92100=
07222,1997-03-20 00:00:00,6,1022,0.2,87,4,12000,11.112,,,330,,,,,,,,,,,wg-a,,,,AAXX 20004 07222 12/62 03306 10060 20040 30188 40220 51002 60006 80000 90000=
07222,1997-03-20 03:00:00,3,1022.1,0,93,2,12000,7.408,,,340,,,,,,,,,,,wg-a,,,,AAXX 20034 07222 12/62 03404 10030 20020 30188 40221 50000 60006 80000 90300=
07222,1997-03-20 06:00:00,2,1022.2,0.1,100,2,10000,3.704,,,330,1.2,10,,,,,,,,,wg-a,,,,AAXX 20064 07222 02/60 03302 10020 20020 30189 40222 53001 60006 80000 90600 333 10100 20012 61000=
07222,1997-03-20 09:00:00,8,1023.2,1.1,87,6,12000,7.408,,,60,,,,,,,,,,,wg-a,,,,AAXX 20094 07222 12/62 10604 10080 20060 30200 40232 53011 60006 80001 90900=
07222,1997-03-20 12:00:00,13,1022.7,-0.5,54,4,15000,7.408,,,20,,,,,,,,,,,wg-a,,,,AAXX 20124 07222 12565 /0204 10130 20040 30195 40227 58005 60006 85200 91200=
07222,1997-03-20 15:00:00,14,1021.4,-1.2,47,3,15000,7.408,,,20,,,,,,,,,,,wg-a,,,,AAXX 20154 07222 12665 30204 10140 20030 30183 40214 56012 60006 83200 91500=
07222,1997-03-20 18:00:00,12,1021.4,-0.1,54,3,18000,7.408,,,30,0.8,14.4,,,,,,,,,wg-a,,,,AAXX 20184 07222 12/68 20304 10120 20030 30182 40214 55001 60006 80001 91800 333 10144 20008=
07222,1997-03-20 21:00:00,9,1022.3,0.9,66,3,18000,7.408,,,50,,,,,,,,,,,wg-a,,,,AAXX 20214 07222 12/68 20504 10090 20030 30191 40223 51009 60006 80001 92100=
07222,1997-03-21 00:00:00,5,1022.5,0.1,81,2,12000,7.408,,,20,,,,,,,,,,,wg-a,,,,AAXX 21004 07222 12/62 00204 10050 20020 30192 40225 53001 60006 80000 90000=
07222,1997-03-21 03:00:00,3,1022.1,-0.4,93,2,10000,3.704,,,40,,,,,,,,,,,wg-a,,,,AAXX 21034 07222 12/60 00402 10030 20020 30188 40221 58004 60006 80000 90300=
07222,1997-03-21 06:00:00,2,1023,0.9,100,2,6000,7.408,,,20,1.5,11.6,,,,,,,,,wg-a,,,,AAXX 21064 07222 02/56 /0204 10020 20020 30197 40230 52009 60006 80002 90600 333 10116 20015 60004=
07222,1997-03-21 09:00:00,8,1023.6,0.7,81,5,7000,7.408,,,50,,,,,,,,,,,wg-a,,,,AAXX 21094 07222 12/57 /0504 10080 20050 30204 40236 53007 60006 80002 90900=
07222,1997-03-21 12:00:00,13,1023.9,0.3,54,4,12000,11.112,,,50,,,,,,,,,,,wg-a,,,,AAXX 21124 07222 12/62 60506 10130 20040 30207 40239 50003 60006 80002 91200=
07222,1997-03-21 15:00:00,15,1023,-0.8,48,4,15000,7.408,,,40,,,,,,,,,,,wg-a,,,,AAXX 21154 07222 12/65 60404 10150 20040 30199 40230 58008 60006 81032 91500=
07222,1997-03-21 18:00:00,14,1023.3,0.3,63,7,20000,11.112,,,40,2.4,15.1,,,,,,,,,wg-a,,,,AAXX 21184 07222 12770 60406 10140 20070 30202 40233 53003 60006 825/2 91800 333 10151 20024=
07222,1997-03-21 21:00:00,10,1024.6,1.2,82,7,12000,11.112,,,30,,,,,,,,,,,wg-a,,,,AAXX 21214 07222 12/62 40306 10100 20070 30214 40246 52012 60006 80001 92100=
07222,1997-03-22 00:00:00,8,1025,0.4,87,6,10000,14.816,,,60,,,,,,,,,,,wg-a,,,,AAXX 22004 07222 12/60 30608 10080 20060 30218 40250 53004 60006 80001 90000=
07222,1997-03-22 06:00:00,5,1025.8,0.3,87,3,3500,11.112,,,60,4.7,13.7,,,,,,,,10,wg-a,,,,AAXX 22064 07222 02/35 30606 10050 20030 30225 40258 52003 60006 71000 80001 90600 333 10137 20047 60004=
07222,1997-03-22 09:00:00,8,1026.6,0.9,71,3,8000,11.112,,,70,,,,,,,,,,,wg-a,,,,AAXX 22094 07222 12/58 /0706 10080 20030 30234 40266 51009 60006 80001 90900=
07222,1997-03-22 12:00:00,12,1025.6,-1,50,2,10000,18.52,,,80,,,,,,,,,,,wg-a,,,,AAXX 22124 07222 12/60 /0810 10120 20020 30224 40256 58010 60006 91200=
07222,1997-03-22 15:00:00,14,1024,-1.6,44,2,20000,14.816,,,70,,,,,,,,,,,wg-a,,,,AAXX 22154 07222 12/70 10708 10140 20020 30208 40240 57016 60006 80001 91500=
07222,1997-03-22 18:00:00,13,1023.3,-0.7,47,2,500,7.408,,,60,4.5,14.3,,,,,,,,,wg-a,,,,AAXX 22184 07222 12/00 00604 10130 20020 30201 40233 55007 60006 80000 91800 333 10143 20045=
07222,1997-03-22 21:00:00,8,1023.1,-0.2,66,2,15000,0,,,0,,,,,,,,,,,wg-a,,,,AAXX 22214 07222 12/65 00000 10080 20020 30199 40231 56002 60006 80000 92100=
07222,1997-03-23 00:00:00,6,1021.8,-1.3,75,2,15000,0,,,0,,,,,,,,,,,wg-a,,,,AAXX 23004 07222 12/65 00000 10060 20020 30186 40218 58013 60006 80000 90000=
07222,1997-03-23 03:00:00,3,1020.2,-1.7,87,1,10000,0,,,0,,,,,,,,,,,wg-a,,,,AAXX 23034 07222 12/60 20000 10030 20010 30169 40202 58017 60006 81031 90300=
07222,1997-03-23 06:00:00,2,1019,-1.2,93,1,7000,3.704,,,170,1.8,12.4,,,,,,,,,wg-a,,,,AAXX 23064 07222 02/57 71702 10020 20010 30157 40190 58012 60006 83031 90600 333 10124 20018 60004=
07222,1997-03-23 09:00:00,9,1018.4,-0.5,87,7,7000,14.816,,,230,,,,,,,,,,,wg-a,,,,AAXX 23094 07222 12/57 72308 10090 20070 30152 40184 58005 60006 84031 90900=
07222,1997-03-23 12:00:00,13,1017.4,-0.9,72,8,10000,25.928,,,270,,,,,,,,,,,wg-a,,,,AAXX 23124 07222 12760 62714 10130 20080 30143 40174 57009 60006 83831 91200=
07222,1997-03-23 15:00:00,14,1015.7,-1.7,77,10,10000,22.224,,,270,,,,,,,,,,,wg-a,,,,AAXX 23154 07222 12560 /2712 10140 20100 30126 40157 56017 60006 86500 91500=
07222,1997-03-23 18:00:00,12,1015.2,-0.5,82,9,12000,22.224,,,270,1.7,14.7,,,,,,,,,wg-a,,,,AAXX 23184 07222 12462 /2712 10120 20090 30121 40152 55005 60006 83504 91800 333 10147 20017=
07222,1997-03-23 21:00:00,10,1016.1,0.8,93,9,10000,11.112,,,330,,,,,,,,,,,wg-a,,,,AAXX 23214 07222 12760 73306 10100 20090 30129 40161 53008 60006 875// 92100=
07222,1997-03-24 00:00:00,8,1015.9,-0.2,93,7,10000,3.704,,,320,,,,,,,,,,,wg-a,,,,AAXX 24004 07222 12560 73202 10080 20070 30127 40159 58002 60006 875// 90000=
07222,1997-03-24 03:00:00,9,1015,-0.9,87,7,15000,7.408,,,340,,,,,,,,,,,wg-a,,,,AAXX 24034 07222 12465 73404 10090 20070 30118 40150 56009 60006 875// 90300=
07222,1997-03-24 06:00:00,8,1014.5,-0.5,100,8,6000,3.704,,,220,7.6,11.4,,,,,,,,51,wg-a,,,,AAXX 24064 07222 02256 82202 10080 20080 30113 40145 56005 61000 75152 885// 90600 333 10114 20076 6100=
07222,1997-03-24 09:00:00,9,1014.2,-0.3,100,9,4000,11.112,,,190,,,,,,,,,,20,wg-a,,,,AAXX 24094 07222 02140 81906 10090 20090 30110 40142 56003 61000 72052 877// 90900 333 ////=
07222,1997-03-24 12:00:00,12,1012.4,-1.7,94,11,6000,11.112,,,240,,,,0,,,,,,21,wg-a,,,,AAXX 24124 07222 02256 72406 10120 20110 30093 40124 58017 60006 72165 878// 91200 333 60007=
07222,1997-03-24 15:00:00,14,1011.8,-0.6,72,9,15000,22.224,,,320,,,,0,,,,,,3,wg-a,,,,AAXX 24154 07222 12565 53212 10140 20090 30087 40118 55006 60007 70386 85800 91500=
07222,1997-03-24 18:00:00,9,1013.1,1.2,93,8,15000,11.112,,,310,7.7,14.3,,,,,,,,25,wg-a,,,,AAXX 24184 07222 02565 43106 10090 20080 30099 40131 53012 61000 72586 84800 91800 333 10143 20077 6001=
07222,1997-03-24 21:00:00,9,1015.1,2,87,7,15000,14.816,,,320,,,,,,,,,,25,wg-a,,,,AAXX 24214 07222 02565 73208 10090 20070 30119 40151 51020 61000 72586 875// 92100 333 ////=
07222,1997-03-25 00:00:00,9,1015.8,0.7,93,8,15000,14.816,,,330,,,,,,,,,,3,wg-a,,,,AAXX 25004 07222 02465 73308 10090 20080 30126 40158 53007 61000 70386 875// 90000 333 6100=
07222,1997-03-25 03:00:00,9,1017,1.2,93,8,12000,11.112,,,340,,,,,,,,,,,wg-a,,,,AAXX 25034 07222 12462 73406 10090 20080 30138 40170 52012 60006 875// 90300=
07222,1997-03-25 06:00:00,9,1018.8,1.8,93,8,8000,7.408,,,350,8.5,9.4,,,,,1,,,,wg-a,,,,AAXX 25064 07222 02458 73504 10090 20080 30156 40188 51018 60006 875// 90600 333 10094 20085 60014=
07222,1997-03-25 09:00:00,11,1020.3,1.5,82,8,10000,11.112,,,360,,,,,,,,,,,wg-a,,,,AAXX 25094 07222 12460 43606 10110 20080 30171 40203 51015 60006 84200 90900=
07222,1997-03-25 12:00:00,15,1020.5,0.3,55,6,15000,14.816,,,340,,,,,,,,,,,wg-a,,,,AAXX 25124 07222 12665 53408 10150 20060 30174 40205 51003 60006 83230 91200=
07222,1997-03-25 15:00:00,15,1020.2,-0.3,51,5,500,14.816,,,310,,,,,,,,,,,wg-a,,,,AAXX 25154 07222 12600 43108 10150 20050 30171 40202 56003 60006 83230 91500=
07222,1997-03-25 18:00:00,13,1021,0.8,72,8,20000,11.112,,,300,9.1,15.7,,,,,,,,,wg-a,,,,AAXX 25184 07222 12670 43006 10130 20080 30179 40210 53008 60006 82230 91800 333 10157 20091=
07222,1997-03-25 21:00:00,11,1022.5,1.4,76,7,12000,7.408,,,310,,,,,,,,,,,wg-a,,,,AAXX 25214 07222 12/62 73104 10110 20070 30193 40225 51014 60006 8703/ 92100=
07222,1997-03-26 00:00:00,8,1022.7,0.2,93,7,12000,3.704,,,240,,,,,,,,,,,wg-a,,,,AAXX 26004 07222 12/62 62402 10080 20070 30195 40227 50002 60006 86030 90000=
07222,1997-03-26 03:00:00,7,1022.3,-0.4,93,6,10000,3.704,,,250,,,,,,,,,,,wg-a,,,,AAXX 26034 07222 12/60 /2502 10070 20060 30191 40223 55004 60006 90300=
07222,1997-03-26 06:00:00,8,1022.6,0.3,100,8,10000,7.408,,,200,6.5,12.8,,,,,,,,,wg-a,,,,AAXX 26064 07222 02760 72004 10080 20080 30194 40226 53003 60006 8657/ 90600 333 10128 20065 60004=
07222,1997-03-26 12:00:00,14,1023.4,0.3,72,9,15000,22.224,,,250,,,,,,,,,,,wg-a,,,,AAXX 26124 07222 12565 72512 10140 20090 30203 40234 50003 60006 8627/ 91200=
07222,1997-03-26 18:00:00,12,1023.9,0.6,88,10,15000,18.52,,,250,7.8,15.2,,,,,,,,,wg-a,,,,AAXX 26184 07222 12465 82510 10120 20100 30207 40239 53006 60006 878// 91800 333 10152 20078=
07222,1997-03-26 21:00:00,11,1024.6,0.7,94,10,10000,11.112,,,230,,,,0,,,,,,1,wg-a,,,,AAXX 26214 07222 12560 82306 10110 20100 30214 40246 53007 60007 70152 875// 92100=
07222,1997-03-27 00:00:00,11,1024.9,0.3,100,11,10000,14.816,,,240,,,,,,,,,,3,wg-a,,,,AAXX 27004 07222 12260 82408 10110 20110 30217 40249 51003 60006 70352 887// 90000=
07222,1997-03-27 06:00:00,12,1025.1,0.4,100,12,1000,7.408,,,240,10.9,12,,,,,,,,10,wg-a,,,,AAXX 27064 07222 02110 82404 10120 20120 30219 40251 53004 61000 71052 887// 90600 333 10120 20109 6000=
07222,1997-03-27 09:00:00,13,1026,0.9,100,13,2500,11.112,,,250,,,,0,,,,,,10,wg-a,,,,AAXX 27094 07222 12125 82506 10130 20130 30228 40260 51009 60007 71055 877// 90900=
07222,1997-03-27 12:00:00,14,1025.3,-0.6,94,13,500,14.816,,,240,,,,,,,,,,50,wg-a,,,,AAXX 27124 07222 02300 82408 10140 20130 30222 40253 57006 60006 75052 877// 91200 333 61000=
07222,1997-03-27 15:00:00,14,1024.5,-0.8,94,13,10000,18.52,,,250,,,,,,,,,,2,wg-a,,,,AAXX 27154 07222 02360 72510 10140 20130 30214 40245 57008 61000 70252 877// 91500 333 ////=
07222,1997-03-27 18:00:00,13,1024.3,-0.3,94,12,9000,14.816,,,260,11.6,14.5,,,,,,,,1,wg-a,,,,AAXX 27184 07222 12359 82608 10130 20120 30211 40243 56003 60006 70152 877// 91800 333 10145 20116=
07222,1997-03-27 21:00:00,12,1024.1,-0.2,94,11,8000,14.816,,,270,,,,,,,,,,,wg-a,,,,AAXX 27214 07222 12258 82708 10120 20110 30209 40241 58002 60006 877// 92100=
07222,1997-03-28 00:00:00,11,1023.3,-0.8,100,11,9000,14.816,,,280,,,,,,,,,,,wg-a,,,,AAXX 28004 07222 12259 82808 10110 20110 30201 40233 58008 60006 877// 90000=
07222,1997-03-28 03:00:00,11,1022.6,-0.7,94,10,10000,11.112,,,300,,,,,,,,,,,wg-a,,,,AAXX 28034 07222 12360 73006 10110 20100 30194 40226 56007 60006 877// 90300=
07222,1997-03-28 06:00:00,9,1024.4,1.8,87,7,10000,18.52,,,360,9,13,,,,,,,,,wg-a,,,,AAXX 28064 07222 02460 43610 10090 20070 30212 40244 53018 60006 83501 90600 333 10130 20090 60004=
07222,1997-03-28 09:00:00,10,1026.5,2.1,66,4,20000,25.928,,,10,,,,,,,,,,,wg-a,,,,AAXX 28094 07222 12570 40114 10100 20040 30233 40265 51021 60006 84200 90900=
07222,1997-03-28 12:00:00,13,1026.9,0.4,51,3,20000,18.52,,,20,,,,,,,,,,,wg-a,,,,AAXX 28124 07222 12670 30210 10130 20030 30237 40269 50004 60006 83200 91200=
07222,1997-03-28 15:00:00,13,1026.3,-0.6,44,1,25000,18.52,,,10,,,,,,,,,,,wg-a,,,,AAXX 28154 07222 12775 20110 10130 20010 30231 40263 58006 60006 82100 91500=
07222,1997-03-28 18:00:00,10,1027.2,0.9,50,0,25000,18.52,,,10,8.8,13.9,,,,,,,,,wg-a,,,,AAXX 28184 07222 12/75 00110 10100 20000 30240 40272 53009 60006 80000 91800 333 10139 20088=
07222,1997-03-28 21:00:00,6,1028.9,1.6,75,2,20000,11.112,,,340,,,,,,,,,,,wg-a,,,,AAXX 28214 07222 12/70 03406 10060 20020 30256 40289 51016 60006 80000 92100=
07222,1997-03-29 00:00:00,4,1029.1,0.2,87,2,15000,0,,,0,,,,,,,,,,,wg-a,,,,AAXX 29004 07222 12/65 00000 10040 20020 30258 40291 50002 60006 80000 90000=
07222,1997-03-29 03:00:00,3,1028.6,-0.5,93,2,10000,0,,,0,,,,,,,,,,,wg-a,,,,AAXX 29034 07222 12/60 00000 10030 20020 30253 40286 57005 60006 80000 90300=
07222,1997-03-29 06:00:00,3,1029,0.4,87,1,15000,0,,,0,2,10,,,,,,,,,wg-a,,,,AAXX 29064 07222 02/65 00000 10030 20010 30257 40290 53004 60006 80000 90600 333 10100 20020 60004=
07222,1997-03-29 09:00:00,9,1029.4,0.5,66,3,500,11.112,,,40,,,,,,,,,,,wg-a,,,,AAXX 29094 07222 12/00 00406 10090 20030 30262 40294 52005 60006 80000 90900=
07222,1997-03-29 12:00:00,12,1028.7,-0.7,47,1,500,14.816,,,50,,,,,,,,,,,wg-a,,,,AAXX 29124 07222 12600 20508 10120 20010 30255 40287 58007 60006 82100 91200=
07222,1997-03-29 15:00:00,14,1026.8,-1.9,41,1,500,14.816,,,20,,,,,,,,,,,wg-a,,,,AAXX 29154 07222 12700 20208 10140 20010 30236 40268 58019 60006 82400 91500=
07222,1997-03-29 18:00:00,12,1026.4,-0.4,50,2,500,11.112,,,30,2.6,14.1,,,,,,,,,wg-a,,,,AAXX 29184 07222 12700 10306 10120 20020 30232 40264 55004 60006 81400 91800 333 10141 20026=
07222,1997-03-29 21:00:00,9,1027.2,0.8,71,4,20000,14.816,,,30,,,,,,,,,,,wg-a,,,,AAXX 29214 07222 12/70 00308 10090 20040 30240 40272 53008 60006 80000 92100=
07222,1997-03-30 00:00:00,6,1027.3,0.1,87,4,20000,11.112,,,30,,,,,,,,,,,wg-a,,,,AAXX 30004 07222 12/70 00306 10060 20040 30241 40273 51001 60006 80000 90000=
07222,1997-03-30 03:00:00,5,1027.4,-0,81,2,20000,0,,,0,,,,,,,,,,,wg-a,,,,AAXX 30034 07222 12/70 00000 10050 20020 30241 40274 55000 60006 80000 90300=
07222,1997-03-30 06:00:00,4,1027.8,0.4,87,2,20000,0,,,0,3.6,12.1,,,,,,,,,wg-a,,,,AAXX 30064 07222 02/70 00000 10040 20020 30245 40278 53004 60006 80000 90600 333 10121 20036 60004=
07222,1997-03-30 09:00:00,10,1028.2,0.5,66,4,25000,14.816,,,90,,,,,,,,,,,wg-a,,,,AAXX 30094 07222 12/75 00908 10100 20040 30250 40282 51005 60006 80000 90900=
07222,1997-03-30 12:00:00,13,1027.3,-0.9,51,3,500,18.52,,,100,,,,,,,,,,,wg-a,,,,AAXX 30124 07222 12600 /1010 10130 20030 30241 40273 58009 60006 81100 91200=
07222,1997-03-30 15:00:00,15,1025.6,-1.6,48,4,500,18.52,,37.04,70,,,,,,,,,,,wg-a,,,,AAXX 30154 07222 12700 10710 10150 20040 30225 40256 58016 60006 81100 91500 333 91020=
07222,1997-03-30 18:00:00,14,1025.5,-0.2,47,3,500,14.816,,,60,3.8,15.3,,,,,,,,,wg-a,,,,AAXX 30184 07222 12700 10608 10140 20030 30223 40255 56002 60006 81500 91800 333 10153 20038=
07222,1997-03-30 21:00:00,10,1025.8,0.3,66,4,25000,0,,,0,,,,,,,,,,,wg-a,,,,AAXX 30214 07222 12/75 00000 10100 20040 30226 40258 52003 60006 80000 92100=
07222,1997-03-31 00:00:00,8,1025.6,-0.2,71,3,25000,0,,,0,,,,,,,,,,,wg-a,,,,AAXX 31004 07222 12/75 00000 10080 20030 30224 40256 57002 60006 80000 90000=
07222,1997-03-31 06:00:00,5,1024.9,-0,87,3,10000,0,,,0,5.2,13.8,,,,,,,,,wg-a,,,,AAXX 31064 07222 02/60 00000 10050 20030 30216 40249 55000 60006 80000 90600 333 10138 20052 60004=
07222,1997-03-31 09:00:00,11,1025.6,0.8,62,4,18000,14.816,,,60,,,,,,,,,,,wg-a,,,,AAXX 31094 07222 12/68 00608 10110 20040 30224 40256 51008 60006 80000 90900=
07222,1997-03-31 12:00:00,16,1023.9,-1.6,45,4,25000,25.928,,,80,,,,,,,,,,,wg-a,,,,AAXX 31124 07222 12/75 00814 10160 20040 30208 40239 58016 60006 80000 91200=
07222,1997-03-31 15:00:00,17,1022.3,-1.6,42,4,25000,18.52,,,50,,,,,,,,,,,wg-a,,,,AAXX 31154 07222 12/75 00510 10170 20040 30192 40223 57016 60006 80000 91500=
07222,1997-03-31 18:00:00,16,1021.7,-0.6,42,3,25000,14.816,,,50,5.2,17.5,,,,,,,,,wg-a,,,,AAXX 31184 07222 12/75 00508 10160 20030 30186 40217 56006 60006 80000 91800 333 10175 20052=
07222,1997-03-31 21:00:00,10,1022.3,0.5,71,5,20000,7.408,,,30,,,,,,,,,,,wg-a,,,,AAXX 31214 07222 12/70 00304 10100 20050 30191 40223 51005 60006 80000 92100=
07222,1997-04-01 00:00:00,9,1021.9,-0.4,76,5,20000,0,,,0,,,,,,,,,,,wg-a,,,,AAXX 01004 07222 12/70 00000 10090 20050 30187 40219 58004 60006 80000 90000=
07222,1997-04-01 03:00:00,5,1021,-0.9,87,3,15000,0,,,0,,,,,,,,,,,wg-a,,,,AAXX 01034 07222 12/65 00000 10050 20030 30178 40210 56009 60006 80000 90300=
07222,1997-04-01 06:00:00,5,1021.7,0.7,87,3,10000,0,,,0,4.9,16.2,,,,,,,,,wg-a,,,,AAXX 01064 07222 02/60 00000 10050 20030 30185 40217 53007 60006 80000 90600 333 10162 20049 60004=
07222,1997-04-01 09:00:00,12,1022.4,0.7,67,6,12000,11.112,,,50,,,,,,,,,,,wg-a,,,,AAXX 01094 07222 12/62 00506 10120 20060 30192 40224 51007 60006 80000 90900=
07222,1997-04-01 12:00:00,18,1021.4,-0.9,45,6,20000,14.816,,,60,,,,,,,,,,,wg-a,,,,AAXX 01124 07222 12/70 00608 10180 20060 30183 40214 58009 60006 80000 91200=
07222,1997-04-01 15:00:00,20,1019.9,-1.5,43,7,500,14.816,,,50,,,,,,,,,,,wg-a,,,,AAXX 01154 07222 12/00 00508 10200 20070 30168 40199 57015 60006 80000 91500=
07222,1997-04-01 18:00:00,18,1019.7,-0.2,49,7,500,11.112,,,20,5.2,20.5,,,,,,,,,wg-a,,,,AAXX 01184 07222 12/00 00206 10180 20070 30166 40197 55002 60006 80000 91800 333 10205 20052=
07222,1997-04-01 21:00:00,14,1020.8,1.1,72,9,20000,0,,,0,,,,,,,,,,,wg-a,,,,AAXX 01214 07222 12/70 00000 10140 20090 30177 40208 53011 60006 80000 92100=
07222,1997-04-02 00:00:00,10,1020.9,-0,82,7,20000,0,,,0,,,,,,,,,,,wg-a,,,,AAXX 02004 07222 12/70 00000 10100 20070 30177 40209 54000 60006 80000 90000=
07222,1997-04-02 03:00:00,8,1020.2,-0.7,87,6,15000,0,,,0,,,,,,,,,,,wg-a,,,,AAXX 02034 07222 12/65 00000 10080 20060 30170 40202 58007 60006 80000 90300=
07222,1997-04-02 06:00:00,6,1020.5,0.3,93,5,7000,7.408,,,20,6.4,18.3,,,,,,,,,wg-a,,,,AAXX 02064 07222 02/57 00204 10060 20050 30173 40205 53003 60006 80000 90600 333 10183 20064 60004=
07222,1997-04-02 12:00:00,20,1019.7,-0.8,46,8,18000,7.408,,,80,,,,,,,,,,,wg-a,,,,AAXX 02124 07222 12/68 00804 10200 20080 30166 40197 58008 60006 80000 91200=
07222,1997-04-02 18:00:00,18,1018.4,-0,52,8,20000,3.704,,,340,6.4,21.5,,,,,,,,,wg-a,,,,AAXX 02184 07222 12/70 03402 10180 20080 30153 40184 55000 60006 80000 91800 333 10215 20064=
07222,1997-04-02 21:00:00,13,1019.7,1.3,72,8,15000,0,,,0,,,,,,,,,,,wg-a,,,,AAXX 02214 07222 12/65 00000 10130 20080 30166 40197 51013 60006 80000 92100=
07222,1997-04-03 00:00:00,10,1019.7,-0.1,76,6,15000,0,,,0,,,,,,,,,,,wg-a,,,,AAXX 03004 07222 12/65 00000 10100 20060 30165 40197 58001 60006 80000 90000=
07222,1997-04-03 03:00:00,7,1019.4,-0.3,76,3,15000,7.408,,,360,,,,,,,,,,,wg-a,,,,AAXX 03034 07222 12/65 03604 10070 20030 30162 40194 56003 60006 80000 90300=
07222,1997-04-03 06:00:00,6,1020.3,0.9,87,4,12000,3.704,,,350,6,18,,,,,,,,,wg-a,,,,AAXX 03064 07222 02/62 03502 10060 20040 30171 40203 53009 60006 80000 90600 333 10180 20060 60004=
07222,1997-04-03 09:00:00,10,1021.9,1.6,87,8,8000,11.112,,,10,,,,,,,,,,,wg-a,,,,AAXX 03094 07222 12458 20106 10100 20080 30187 40219 51016 60006 82100 90900=
07222,1997-04-03 12:00:00,15,1021.5,-0.3,59,7,15000,18.52,,,320,,,,,,,,,,,wg-a,,,,AAXX 03124 07222 12565 43210 10150 20070 30184 40215 58003 60006 84100 91200=
07222,1997-04-03 15:00:00,16,1021.3,-0.2,55,7,25000,14.816,,,360,,,,,,,,,,,wg-a,,,,AAXX 03154 07222 12675 /3608 10160 20070 30182 40213 56002 60006 85500 91500=
07222,1997-04-03 18:00:00,14,1021.6,0.3,58,6,25000,14.816,,,340,5.9,16.4,,,,,,,,,wg-a,,,,AAXX 03184 07222 12675 43408 10140 20060 30185 40216 53003 60006 82501 91800 333 10164 20059=
07222,1997-04-04 00:00:00,7,1025.3,1,87,5,15000,11.112,,,330,,,,,,,,,,,wg-a,,,,AAXX 04004 07222 12/65 43306 10070 20050 30221 40253 53010 60006 80001 90000=
07222,1997-04-04 03:00:00,8,1026.1,0.8,87,6,15000,11.112,,,340,,,,,,,,,,,wg-a,,,,AAXX 04034 07222 12/65 43406 10080 20060 30229 40261 53008 60006 80001 90300=
07222,1997-04-04 06:00:00,7,1028.2,2.1,93,6,10000,11.112,,,360,5.7,14.1,,,,,,,,,wg-a,,,,AAXX 04064 07222 02/60 43606 10070 20060 30250 40282 53021 60006 80001 90600 333 10141 20057 60004=
07222,1997-04-04 09:00:00,11,1029.8,1.6,62,4,25000,14.816,,,10,,,,,,,,,,,wg-a,,,,AAXX 04094 07222 12575 /0108 10110 20040 30266 40298 51016 60006 81100 90900=
07222,1997-04-04 12:00:00,13,1029.6,-0.2,47,2,500,18.52,,,20,,,,,,,,,,,wg-a,,,,AAXX 04124 07222 12600 20210 10130 20020 30264 40296 58002 60006 82100 91200=
07222,1997-04-04 18:00:00,13,1029.2,0.2,47,2,500,11.112,,,350,6.6,14.7,,,,,,,,,wg-a,,,,AAXX 04184 07222 12/00 13506 10130 20020 30260 40292 53002 60006 80001 91800 333 10147 20066=
07222,1997-04-04 21:00:00,9,1030.2,1,57,1,500,7.408,,,360,,,,,,,,,,,wg-a,,,,AAXX 04214 07222 12/00 03604 10090 20010 30270 40302 52010 60006 80000 92100=
07222,1997-04-05 00:00:00,6,1030.4,0.1,75,2,500,7.408,,,20,,,,,,,,,,,wg-a,,,,AAXX 05004 07222 12/00 00204 10060 20020 30271 40304 51001 60006 80000 90000=
07222,1997-04-05 03:00:00,3,1029.1,-1.3,87,1,500,3.704,,,290,,,,,,,,,,,wg-a,,,,AAXX 05034 07222 12/00 12902 10030 20010 30258 40291 57013 60006 80001 90300=
07222,1997-04-05 06:00:00,3,1029.3,0.2,93,2,15000,3.704,,,270,2.5,12.7,,,,,,,,,wg-a,,,,AAXX 05064 07222 02/65 32702 10030 20020 30260 40293 53002 60006 80001 90600 333 10127 20025 60004=
07222,1997-04-05 09:00:00,10,1029.1,-0.1,71,5,15000,7.408,,,260,,,,,,,,,,,wg-a,,,,AAXX 05094 07222 12565 72604 10100 20050 30259 40291 58001 60006 86501 90900=
07222,1997-04-05 12:00:00,13,1027.6,-1.5,67,7,11000,14.816,,,290,,,,,,,,,,,wg-a,,,,AAXX 05124 07222 12/61 /2908 10130 20070 30244 40276 58015 60006 91200=
07222,1997-04-05 15:00:00,14,1025.2,-2.3,72,9,20000,14.816,,,290,,,,,,,,,,,wg-a,,,,AAXX 05154 07222 12570 32908 10140 20090 30221 40252 57023 60006 81101 91500=
07222,1997-04-05 18:00:00,13,1024.6,-0.7,82,10,20000,14.816,,,260,3.1,15.4,,,,,,,,,wg-a,,,,AAXX 05184 07222 12/70 22608 10130 20100 30214 40246 57007 60006 80001 91800 333 10154 20031=
07222,1997-04-05 21:00:00,8,1025.1,0.5,100,8,12000,3.704,,,330,,,,,,,,,,,wg-a,,,,AAXX 05214 07222 12/62 03302 10080 20080 30219 40251 53005 60006 80000 92100=
07222,1997-04-06 00:00:00,6,1025.7,0.6,100,6,12000,7.408,,,300,,,,,,,,,,,wg-a,,,,AAXX 06004 07222 12/62 03004 10060 20060 30225 40257 53006 60006 80000 90000=
07222,1997-04-06 03:00:00,4,1025.1,-0.7,100,4,12000,3.704,,,310,,,,,,,,,,,wg-a,,,,AAXX 06034 07222 12/62 03102 10040 20040 30218 40251 56007 60006 80000 90300=
07222,1997-04-06 06:00:00,7,1025,-0,100,7,10000,11.112,,,20,3.6,12.5,,,,,,,,,wg-a,,,,AAXX 06064 07222 02360 70206 10070 20070 30218 40250 55000 60006 876// 90600 333 10125 20036 60004=
07222,1997-04-06 09:00:00,11,1025.6,0.6,87,9,11000,14.816,,,60,,,,,,,,,,,wg-a,,,,AAXX 06094 07222 12/61 /0608 10110 20090 30224 40256 53006 60006 90900=
07222,1997-04-06 12:00:00,16,1024.5,-1,68,10,15000,18.52,,,60,,,,,,,,,,,wg-a,,,,AAXX 06124 07222 12565 30610 10160 20100 30214 40245 58010 60006 83800 91200=
07222,1997-04-06 15:00:00,17,1023.7,-0.8,63,10,20000,18.52,,,60,,,,,,,,,,,wg-a,,,,AAXX 06154 07222 12670 /0610 10170 20100 30206 40237 57008 60006 86500 91500=
07222,1997-04-06 18:00:00,17,1023,-0.7,59,9,20000,14.816,,,60,7.2,18,,,,,,,,,wg-a,,,,AAXX 06184 07222 12670 30608 10170 20090 30199 40230 56007 60006 83200 91800 333 10180 20072=
07222,1997-04-06 21:00:00,14,1023.8,0.8,67,8,18000,22.224,,,60,,,,,,,,,,,wg-a,,,,AAXX 06214 07222 12/68 10612 10140 20080 30207 40238 53008 60006 80001 92100=
07222,1997-04-07 00:00:00,11,1024.6,0.7,62,4,15000,22.224,,,70,,,,,,,,,,,wg-a,,,,AAXX 07004 07222 12/65 00712 10110 20040 30214 40246 52007 60006 80000 90000=
07222,1997-04-07 03:00:00,8,1024.8,0.2,57,0,15000,22.224,,,70,,,,,,,,,,,wg-a,,,,AAXX 07034 07222 12/65 00712 10080 20000 30216 40248 51002 60006 80000 90300=
07222,1997-04-07 06:00:00,6,1025.5,0.6,61,-1,15000,25.928,,,60,5.7,17.1,,,,,,,,,wg-a,,,,AAXX 07064 07222 02665 /0614 10060 21010 30222 40255 53006 60006 81500 90600 333 10171 20057 60004=
07222,1997-04-07 12:00:00,14,1023.6,-1.3,33,-2,20000,35.188,,,70,,,,,,,,,,,wg-a,,,,AAXX 07124 07222 12/70 20719 10140 21020 30205 40236 57013 60006 80001 91200=
07222,1997-04-07 15:00:00,17,1022,-1.6,25,-3,25000,35.188,,,70,,,,,,,,,,,wg-a,,,,AAXX 07154 07222 12/75 50719 10170 21030 30189 40220 56016 60006 80001 91500=
07222,1997-04-07 18:00:00,15,1021.1,-0.9,31,-2,25000,38.892,,,70,5.6,17.1,,,,,,,,,wg-a,,,,AAXX 07184 07222 12/75 50721 10150 21020 30180 40211 56009 60006 80001 91800 333 10171 20056=
07222,1997-04-07 21:00:00,12,1022.2,1,38,-2,20000,25.928,,,70,,,,,,,,,,,wg-a,,,,AAXX 07214 07222 12/70 00714 10120 21020 30190 40222 51010 60006 80000 92100=
07222,1997-04-08 00:00:00,9,1022.2,-0,46,-2,20000,25.928,,,70,,,,,,,,,,,wg-a,,,,AAXX 08004 07222 12/70 00714 10090 21020 30190 40222 55000 60006 80000 90000=
07222,1997-04-08 03:00:00,8,1021.6,-0.6,46,-3,20000,18.52,,,70,,,,,,,,,,,wg-a,,,,AAXX 08034 07222 12/70 00710 10080 21030 30184 40216 56006 60006 80000 90300=
07222,1997-04-08 06:00:00,6,1022.4,0.8,56,-2,20000,18.52,,,70,6.1,15.1,,,,,,,,,wg-a,,,,AAXX 08064 07222 02/70 10710 10060 21020 30192 40224 53008 60006 80001 90600 333 10151 20061 60004=
07222,1997-04-08 09:00:00,11,1022.7,0.3,47,0,10000,18.52,,,80,,,,,,,,,,,wg-a,,,,AAXX 08094 07222 12/60 30810 10110 20000 30195 40227 51003 60006 80002 90900=
07222,1997-04-08 12:00:00,19,1021.9,-0.7,40,5,10000,14.816,,,120,,,,,,,,,,,wg-a,,,,AAXX 08124 07222 12/60 /1208 10190 20050 30188 40219 58007 60006 91200=
07222,1997-04-08 15:00:00,21,1021.4,-0.5,40,7,20000,14.816,,,100,,,,,,,,,,,wg-a,,,,AAXX 08154 07222 12/70 51008 10210 20070 30183 40214 56005 60006 80002 91500=
07222,1997-04-08 18:00:00,19,1021.4,-0,46,7,20000,11.112,,,120,6.1,21.5,,,,,,,,,wg-a,,,,AAXX 08184 07222 12/70 31206 10190 20070 30183 40214 55000 60006 80001 91800 333 10215 20061=
07222,1997-04-08 21:00:00,16,1022.9,1.5,48,5,20000,18.52,,,80,,,,,,,,,,,wg-a,,,,AAXX 08214 07222 12/70 20810 10160 20050 30198 40229 51015 60006 80001 92100=
07222,1997-04-09 00:00:00,12,1023.7,0.7,58,4,20000,11.112,,,80,,,,,,,,,,,wg-a,,,,AAXX 09004 07222 12/70 20806 10120 20040 30205 40237 52007 60006 80001 90000=
07222,1997-04-09 03:00:00,9,1024.4,0.7,71,4,20000,7.408,,,100,,,,,,,,,,,wg-a,,,,AAXX 09034 07222 12/70 21004 10090 20040 30212 40244 53007 60006 80001 90300=
07222,1997-04-09 06:00:00,7,1025.5,1.1,87,5,15000,11.112,,,140,7.4,19.3,,,,,,,,,wg-a,,,,AAXX 09064 07222 02/65 31406 10070 20050 30223 40255 53011 60006 80001 90600 333 10193 20074 60004=
07222,1997-04-09 09:00:00,14,1027.2,1.7,72,9,18000,14.816,,,170,,,,,,,,,,,wg-a,,,,AAXX 09094 07222 12/68 31708 10140 20090 30240 40272 53017 60006 80001 90900=
07222,1997-04-09 12:00:00,19,1027.3,0.2,56,10,20000,7.408,,,230,,,,,,,,,,,wg-a,,,,AAXX 09124 07222 12/70 32304 10190 20100 30242 40273 50002 60006 80001 91200=
07222,1997-04-09 15:00:00,21,1026.6,-0.7,46,9,20000,7.408,,,150,,,,,,,,,,,wg-a,,,,AAXX 09154 07222 12/70 31504 10210 20090 30235 40266 58007 60006 80001 91500=
07222,1997-04-09 18:00:00,19,1027.2,0.6,56,10,20000,7.408,,,230,7.3,21.8,,,,,,,,,wg-a,,,,AAXX 09184 07222 12/70 32304 10190 20100 30241 40272 53006 60006 80001 91800 333 10218 20073=
07222,1997-04-09 21:00:00,13,1029.1,1.8,82,10,12000,7.408,,,320,,,,,,,,,,,wg-a,,,,AAXX 09214 07222 12/62 03204 10130 20100 30259 40291 51018 60006 80000 92100=
07222,1997-04-10 00:00:00,10,1029.8,0.7,87,8,10000,3.704,,,10,,,,,,,,,,,wg-a,,,,AAXX 10004 07222 12/60 /0102 10100 20080 30266 40298 53007 60006 90000=
07222,1997-04-10 03:00:00,10,1029.6,-0.2,93,9,10000,0,,,0,,,,,,,,,,,wg-a,,,,AAXX 10034 07222 12/60 00000 10100 20090 30264 40296 58002 60006 80000 90300=
07222,1997-04-10 06:00:00,10,1029.8,0.2,87,8,9000,3.704,,,50,9.1,19,,,,,,,,,wg-a,,,,AAXX 10064 07222 02/59 20502 10100 20080 30266 40298 53002 60006 80001 90600 333 10190 20091 60004=
07222,1997-04-10 09:00:00,17,1030.5,0.8,68,11,10000,3.704,,,110,,,,,,,,,,,wg-a,,,,AAXX 10094 07222 12/60 /1102 10170 20110 30274 40305 51008 60006 90900=
07222,1997-04-10 12:00:00,22,1029.9,-0.6,38,7,20000,14.816,,,50,,,,,,,,,,,wg-a,,,,AAXX 10124 07222 12/70 00508 10220 20070 30268 40299 58006 60006 80000 91200=
07222,1997-04-10 18:00:00,21,1028.7,-0,35,5,20000,7.408,,,40,9.5,23.2,,,,,,,,,wg-a,,,,AAXX 10184 07222 12/70 00404 10210 20050 30256 40287 55000 60006 80000 91800 333 10232 20095=
07222,1997-04-10 21:00:00,14,1029.7,0.9,58,6,15000,3.704,,,360,,,,,,,,,,,wg-a,,,,AAXX 10214 07222 12/65 03602 10140 20060 30265 40297 51009 60006 80000 92100=
07222,1997-04-11 00:00:00,11,1029.5,-0.2,71,6,10000,7.408,,,30,,,,,,,,,,,wg-a,,,,AAXX 11004 07222 12/60 /0304 10110 20060 30263 40295 58002 60006 90000=
07222,1997-04-11 03:00:00,10,1028.6,-0.9,76,6,12000,3.704,,,360,,,,,,,,,,,wg-a,,,,AAXX 11034 07222 12/62 03602 10100 20060 30254 40286 56009 60006 80000 90300=
07222,1997-04-11 06:00:00,9,1028.1,-0.5,76,5,10000,7.408,,,40,7.8,21.3,,,,,,,,,wg-a,,,,AAXX 11064 07222 02/60 00404 10090 20050 30249 40281 55005 60006 80000 90600 333 10213 20078 60004=
07222,1997-04-11 09:00:00,15,1028.2,0.2,55,6,9000,11.112,,,40,,,,,,,,,,,wg-a,,,,AAXX 11094 07222 12/59 00406 10150 20060 30251 40282 50002 60006 80000 90900=
07222,1997-04-11 12:00:00,21,1026.7,-1.5,35,5,12000,11.112,,,360,,,,,,,,,,,wg-a,,,,AAXX 11124 07222 12/62 03606 10210 20050 30236 40267 58015 60006 80000 91200=
07222,1997-04-11 18:00:00,19,1024.3,-0.3,34,3,15000,14.816,,,360,8.7,22.2,,,,,,,,,wg-a,,,,AAXX 11184 07222 12/65 03608 10190 20030 30212 40243 55003 60006 80000 91800 333 10222 20087=
07222,1997-04-11 21:00:00,13,1025.9,1.5,77,9,15000,14.816,,,20,,,,,,,,,,,wg-a,,,,AAXX 11214 07222 12/65 10208 10130 20090 30227 40259 53015 60006 80001 92100=
07222,1997-04-12 00:00:00,11,1026.9,1,66,5,15000,29.632,,,60,,,,,,,,,,,wg-a,,,,AAXX 12004 07222 12/65 10616 10110 20050 30237 40269 53010 60006 80001 90000=
07222,1997-04-12 03:00:00,8,1026.8,-0.1,71,3,15000,22.224,,,50,,,,,,,,,,,wg-a,,,,AAXX 12034 07222 12/65 00512 10080 20030 30236 40268 57001 60006 80000 90300=
07222,1997-04-12 06:00:00,5,1027.9,1,65,-1,20000,14.816,,,50,4.4,18.8,,,,,,,,,wg-a,,,,AAXX 12064 07222 02/70 10508 10050 21010 30246 40279 53010 60006 80001 90600 333 10188 20044 60004=
07222,1997-04-12 09:00:00,7,1028.6,0.8,57,-1,500,29.632,,,70,,,,,,,,,,,wg-a,,,,AAXX 12094 07222 12/00 10716 10070 21010 30254 40286 51008 60006 80001 90900=
07222,1997-04-12 12:00:00,12,1027.7,-0.9,40,-1,500,25.928,,,60,,,,,,,,,,,wg-a,,,,AAXX 12124 07222 12/00 50614 10120 21010 30245 40277 57009 60006 80001 91200=
07222,1997-04-12 15:00:00,14,1026.3,-1.4,36,-1,500,22.224,,42.596,40,,,,,,,,,,,wg-a,,,,AAXX 12154 07222 12/00 10412 10140 21010 30231 40263 58014 60006 80001 91500 333 91023=
07222,1997-04-12 18:00:00,13,1025.9,-0.4,41,0,0,18.52,,,50,4.4,13.9,,,,,,,,,wg-a,,,,AAXX 12184 07222 12/// /0510 10130 20000 30227 40259 56004 60006 91800 333 10139 20044=
07222,1997-04-12 21:00:00,10,1026.7,0.8,57,2,500,14.816,,,30,,,,,,,,,,,wg-a,,,,AAXX 12214 07222 12/00 00308 10100 20020 30235 40267 53008 60006 80000 92100=
07222,1997-04-13 00:00:00,7,1027,0.3,66,1,20000,14.816,,,50,,,,,,,,,,,wg-a,,,,AAXX 13004 07222 12/70 00508 10070 20010 30238 40270 51003 60006 80000 90000=
07222,1997-04-13 03:00:00,6,1027,-0.1,70,1,20000,14.816,,,50,,,,,,,,,,,wg-a,,,,AAXX 13034 07222 12/70 00508 10060 20010 30237 40270 56001 60006 80000 90300=
07222,1997-04-13 06:00:00,4,1027.3,0.3,75,0,20000,14.816,,,40,3.6,12.7,,,,,,,,,wg-a,,,,AAXX 13064 07222 02/70 00408 10040 20000 30240 40273 53003 60006 80000 90600 333 10127 20036 60004=
07222,1997-04-13 09:00:00,8,1027.3,0.1,61,1,25000,18.52,,,70,,,,,,,,,,,wg-a,,,,AAXX 13094 07222 12/75 00710 10080 20010 30241 40273 50001 60006 80000 90900=
07222,1997-04-13 12:00:00,12,1025.6,-1.7,44,0,25000,29.632,,,70,,,,,,,,,,,wg-a,,,,AAXX 13124 07222 12/75 00716 10120 20000 30224 40256 58017 60006 80000 91200=
07222,1997-04-13 18:00:00,14,1023.1,-0.7,44,2,25000,18.52,,,50,3.8,14.7,,,,,,,,,wg-a,,,,AAXX 13184 07222 12/75 00510 10140 20020 30199 40231 56007 60006 80000 91800 333 10147 20038=
07222,1997-04-13 21:00:00,11,1023.6,0.5,54,2,20000,14.816,,,60,,,,,,,,,,,wg-a,,,,AAXX 13214 07222 12/70 00608 10110 20020 30204 40236 53005 60006 80000 92100=
07222,1997-04-14 00:00:00,8,1023.6,0,71,3,20000,11.112,,,40,,,,,,,,,,,wg-a,,,,AAXX 14004 07222 12/70 00406 10080 20030 30204 40236 50000 60006 80000 90000=
07222,1997-04-14 03:00:00,7,1023.5,-0.1,70,2,20000,11.112,,,50,,,,,,,,,,,wg-a,,,,AAXX 14034 07222 12/70 00506 10070 20020 30203 40235 56001 60006 80000 90300=
07222,1997-04-14 06:00:00,6,1023.9,0.4,75,2,15000,11.112,,,50,5.4,13.7,,,,,,,,,wg-a,,,,AAXX 14064 07222 02/65 00506 10060 20020 30207 40239 53004 60006 80000 90600 333 10137 20054 60004=
07222,1997-04-14 09:00:00,11,1024.2,0.3,58,3,20000,14.816,,,50,,,,,,,,,,,wg-a,,,,AAXX 14094 07222 12/70 00508 10110 20030 30210 40242 50003 60006 80000 90900=
07222,1997-04-14 12:00:00,16,1023.3,-0.8,39,2,25000,18.52,,,40,,,,,,,,,,,wg-a,,,,AAXX 14124 07222 12/75 00410 10160 20020 30202 40233 58008 60006 80000 91200=
07222,1997-04-14 15:00:00,18,1022.2,-1.1,42,5,25000,18.52,,,50,,,,,,,,,,,wg-a,,,,AAXX 14154 07222 12/75 00510 10180 20050 30191 40222 58011 60006 80000 91500=
07222,1997-04-14 18:00:00,17,1022.1,-0.1,42,4,25000,18.52,,44.448,50,5.9,18,,,,,,,,,wg-a,,,,AAXX 14184 07222 12/75 00510 10170 20040 30190 40221 55001 60006 80000 91800 333 10180 20059 91024=
07222,1997-04-14 21:00:00,12,1023.5,1.3,58,4,20000,11.112,,,20,,,,,,,,,,,wg-a,,,,AAXX 14214 07222 12/70 00206 10120 20040 30203 40235 52013 60006 80000 92100=
07222,1997-04-15 00:00:00,11,1024,0.5,71,6,20000,14.816,,,50,,,,,,,,,,,wg-a,,,,AAXX 15004 07222 12/70 00508 10110 20060 30208 40240 51005 60006 80000 90000=
07222,1997-04-15 03:00:00,9,1024.7,0.7,76,5,20000,22.224,,,60,,,,,,,,,,,wg-a,,,,AAXX 15034 07222 12/70 00612 10090 20050 30215 40247 53007 60006 80000 90300=
07222,1997-04-15 06:00:00,8,1025.7,1,87,6,6000,18.52,,,50,7.7,16.9,,,,,,,,,wg-a,,,,AAXX 15064 07222 02/56 00510 10080 20060 30225 40257 53010 60006 80000 90600 333 10169 20077 60004=
07222,1997-04-15 09:00:00,12,1026.4,0.7,71,7,8000,25.928,,,60,,,,,,,,,,,wg-a,,,,AAXX 15094 07222 12/58 00614 10120 20070 30232 40264 51007 60006 80000 90900=
07222,1997-04-15 12:00:00,14,1026.4,0,51,4,12000,22.224,,,50,,,,,,,,,,,wg-a,,,,AAXX 15124 07222 12/62 00512 10140 20040 30232 40264 50000 60006 80000 91200=
07222,1997-04-15 15:00:00,17,1024.7,-1.6,39,3,25000,25.928,,,60,,,,,,,,,,,wg-a,,,,AAXX 15154 07222 12/75 00614 10170 20030 30216 40247 56016 60006 80000 91500=
07222,1997-04-15 18:00:00,16,1024.5,-0.2,36,1,10000,25.928,,,60,7.8,17,,,,,,,,,wg-a,,,,AAXX 15184 07222 12/60 /0614 10160 20010 30214 40245 56002 60006 91800 333 10170 20078=
07222,1997-04-15 21:00:00,12,1025.9,1.3,47,1,25000,22.224,,,60,,,,,,,,,,,wg-a,,,,AAXX 15214 07222 12/75 00612 10120 20010 30227 40259 51013 60006 80000 92100=
07222,1997-04-16 00:00:00,9,1026.1,0.2,57,1,10000,18.52,,,50,,,,,,,,,,,wg-a,,,,AAXX 16004 07222 12/60 /0510 10090 20010 30229 40261 51002 60006 90000=
07222,1997-04-16 03:00:00,6,1025.5,-0.6,75,2,20000,25.928,,,60,,,,,,,,,,,wg-a,,,,AAXX 16034 07222 12/70 00614 10060 20020 30223 40255 58006 60006 80000 90300=
07222,1997-04-16 06:00:00,4,1025.5,-0.1,81,1,20000,22.224,,,70,4.3,15.6,,,,,,,,,wg-a,,,,AAXX 16064 07222 02/70 00712 10040 20010 30222 40255 58001 60006 80000 90600 333 10156 20043 60004=
07222,1997-04-16 09:00:00,9,1025.3,-0.1,57,1,25000,25.928,,,60,,,,,,,,,,,wg-a,,,,AAXX 16094 07222 12/75 00614 10090 20010 30221 40253 55001 60006 80000 90900=
07222,1997-04-16 12:00:00,13,1023.7,-1.6,41,0,500,29.632,,,70,,,,,,,,,,,wg-a,,,,AAXX 16124 07222 12/00 00716 10130 20000 30205 40237 58016 60006 80000 91200=
07222,1997-04-16 15:00:00,16,1021.2,-2.4,34,0,500,25.928,,,50,,,,,,,,,,,wg-a,,,,AAXX 16154 07222 12/00 00514 10160 20000 30181 40212 58024 60006 80000 91500=
07222,1997-04-16 18:00:00,15,1020.1,-1.1,41,2,500,25.928,,,60,4.4,15.8,,,,,,,,,wg-a,,,,AAXX 16184 07222 12/00 00614 10150 20020 30170 40201 56011 60006 80000 91800 333 10158 20044=
07222,1997-04-16 21:00:00,11,1020.4,0.2,54,2,20000,22.224,,,60,,,,,,,,,,,wg-a,,,,AAXX 16214 07222 12/70 00612 10110 20020 30172 40204 53002 60006 80000 92100=
07222,1997-04-17 00:00:00,8,1019.9,-0.5,66,2,20000,25.928,,,60,,,,,,,,,,,wg-a,,,,AAXX 17004 07222 12/70 00614 10080 20020 30167 40199 56005 60006 80000 90000=
07222,1997-04-17 03:00:00,6,1019.2,-0.7,75,2,15000,25.928,,,70,,,,,,,,,,,wg-a,,,,AAXX 17034 07222 12/65 00714 10060 20020 30160 40192 55007 60006 80000 90300=
07222,1997-04-17 06:00:00,6,1019.4,0.2,75,2,8000,22.224,,,60,5.2,14.5,,,,,,,,,wg-a,,,,AAXX 17064 07222 02/58 00612 10060 20020 30162 40194 52002 60006 80000 90600 333 10145 20052 60004=
07222,1997-04-17 09:00:00,9,1019.4,-0,61,2,10000,25.928,,,60,,,,,,,,,,,wg-a,,,,AAXX 17094 07222 12/60 00614 10090 20020 30162 40194 54000 60006 80000 90900=
07222,1997-04-17 12:00:00,14,1018.2,-1.1,41,1,10000,25.928,,,60,,,,,,,,,,,wg-a,,,,AAXX 17124 07222 12660 /0614 10140 20010 30151 40182 58011 60006 81100 91200=
07222,1997-04-17 15:00:00,14,1017,-1.2,33,-2,12000,25.928,,46.3,50,,,,,,,,,,,wg-a,,,,AAXX 17154 07222 12762 20514 10140 21020 30139 40170 56012 60006 82100 91500 333 91025=
07222,1997-04-17 18:00:00,13,1016.9,-0.1,28,-5,12000,31.484,,51.856,60,5.5,14.9,,,,,,,,,wg-a,,,,AAXX 17184 07222 12/62 00617 10130 21050 30138 40169 55001 60006 80000 91800 333 10149 20055 91028=
07222,1997-04-17 21:00:00,10,1018.9,1.9,37,-4,15000,18.52,,,50,,,,,,,,,,,wg-a,,,,AAXX 17214 07222 12/65 00510 10100 21040 30157 40189 51019 60006 80000 92100=
07222,1997-04-18 00:00:00,8,1019.3,0.4,46,-3,15000,18.52,,,50,,,,,,,,,,,wg-a,,,,AAXX 18004 07222 12/65 00510 10080 21030 30161 40193 53004 60006 80000 90000=
07222,1997-04-18 03:00:00,6,1019,-0.3,52,-3,15000,22.224,,,60,,,,,,,,,,,wg-a,,,,AAXX 18034 07222 12/65 00612 10060 21030 30158 40190 56003 60006 80000 90300=
07222,1997-04-18 06:00:00,5,1019,-0,60,-2,20000,18.52,,,60,4.5,12.8,,,,,,,,,wg-a,,,,AAXX 18064 07222 02/70 00610 10050 21020 30158 40190 55000 60006 80000 90600 333 10128 20045 60004=
07222,1997-04-18 12:00:00,15,1017.3,-1.6,29,-3,500,25.928,,,80,,,,,,,,,,,wg-a,,,,AAXX 18124 07222 12/00 00814 10150 21030 30142 40173 58016 60006 80000 91200=
07222,1997-04-18 15:00:00,16,1015.1,-2.2,27,-3,500,25.928,,,70,,,,,,,,,,,wg-a,,,,AAXX 18154 07222 12/00 00714 10160 21030 30120 40151 56022 60006 80000 91500=
07222,1997-04-18 18:00:00,16,1013.9,-1.2,25,-4,500,18.52,,,60,4.7,16.9,,,,,,,,,wg-a,,,,AAXX 18184 07222 12/00 00610 10160 21040 30108 40139 56012 60006 80000 91800 333 10169 20047=
07222,1997-04-18 21:00:00,12,1014.6,0.7,40,-1,500,11.112,,,60,,,,,,,,,,,wg-a,,,,AAXX 18214 07222 12/00 00606 10120 21010 30115 40146 51007 60006 80000 92100=
07222,1997-04-19 00:00:00,9,1014,-0.7,57,1,500,11.112,,,50,,,,,,,,,,,wg-a,,,,AAXX 19004 07222 12/00 00506 10090 20010 30108 40140 56007 60006 80000 90000=
07222,1997-04-19 03:00:00,7,1012.9,-1.1,76,3,15000,22.224,,,50,,,,,,,,,,,wg-a,,,,AAXX 19034 07222 12/65 00512 10070 20030 30097 40129 56011 60006 80000 90300=
07222,1997-04-19 06:00:00,6,1012.6,-0.3,81,3,10000,25.928,,,60,5.6,15.9,,,,,,,,,wg-a,,,,AAXX 19064 07222 02/60 00614 10060 20030 30094 40126 56003 60006 80000 90600 333 10159 20056 60004=
07222,1997-04-19 12:00:00,14,1010.8,-1.5,51,4,15000,25.928,,,60,,,,,,,,,,,wg-a,,,,AAXX 19124 07222 12/65 00614 10140 20040 30077 40108 58015 60006 80000 91200=
07222,1997-04-19 18:00:00,12,1010,0.3,54,3,20000,25.928,,,50,5.6,15.5,,,,,,,,,wg-a,,,,AAXX 19184 07222 12/70 00514 10120 20030 30069 40100 53003 60006 80000 91800 333 10155 20056=
07222,1997-04-19 21:00:00,9,1011.9,1.8,66,3,18000,14.816,,,40,,,,,,,,,,,wg-a,,,,AAXX 19214 07222 12/68 00408 10090 20030 30087 40119 51018 60006 80000 92100=
07222,1997-04-20 00:00:00,7,1013.1,1.2,57,-1,18000,25.928,,,50,,,,,,,,,,,wg-a,,,,AAXX 20004 07222 12/68 00514 10070 21010 30099 40131 53012 60006 80000 90000=
07222,1997-04-20 06:00:00,3,1014.1,0.3,65,-3,20000,25.928,,,50,2.7,12.4,,,,,,,,,wg-a,,,,AAXX 20064 07222 02/70 10514 10030 21030 30109 40141 53003 60006 81030 90600 333 10124 20027 60004=
07222,1997-04-20 09:00:00,7,1014.8,0.7,45,-4,500,38.892,,59.264,60,,,,,,,,,,,wg-a,,,,AAXX 20094 07222 12/00 10621 10070 21040 30116 40148 51007 60006 81031 90900 333 91032=
07222,1997-04-20 12:00:00,11,1014.1,-0.7,37,-3,500,31.484,,,60,,,,,,,,,,,wg-a,,,,AAXX 20124 07222 12/00 10617 10110 21030 30109 40141 58007 60006 80001 91200=
07222,1997-04-20 15:00:00,12,1013,-1,35,-3,500,31.484,,53.708,60,,,,,,,,,,,wg-a,,,,AAXX 20154 07222 12/00 00617 10120 21030 30099 40130 56010 60006 80000 91500 333 91029=
07222,1997-04-20 18:00:00,12,1012.9,-0.1,30,-5,500,29.632,,,60,2.9,12.8,,,,,,,,,wg-a,,,,AAXX 20184 07222 12/00 10616 10120 21050 30098 40129 56001 60006 80001 91800 333 10128 20029=
07222,1997-04-20 21:00:00,8,1014.4,1.4,42,-4,500,18.52,,,60,,,,,,,,,,,wg-a,,,,AAXX 20214 07222 12/00 10610 10080 21040 30112 40144 53014 60006 80001 92100=
07222,1997-04-21 00:00:00,6,1015.3,0.9,45,-5,500,18.52,,,50,,,,,,,,,,,wg-a,,,,AAXX 21004 07222 12/00 00510 10060 21050 30121 40153 51009 60006 80000 90000=
07222,1997-04-21 03:00:00,3,1014.9,-0.4,56,-5,500,11.112,,,30,,,,,,,,,,,wg-a,,,,AAXX 21034 07222 12/00 00306 10030 21050 30117 40149 56004 60006 80000 90300=
07222,1997-04-21 06:00:00,3,1015.1,0.1,56,-5,500,14.816,,,40,1.9,11.8,,,,,,,,,wg-a,,,,AAXX 21064 07222 02/00 00408 10030 21050 30118 40151 53001 60006 80000 90600 333 10118 20019 60004=
07222,1997-04-21 09:00:00,8,1015,0,53,-1,500,18.52,,,40,,,,,,,,,,,wg-a,,,,AAXX 21094 07222 12/00 10410 10080 21010 30118 40150 50000 60006 80001 90900=
07222,1997-04-21 12:00:00,12,1013.8,-1.1,28,-6,500,22.224,,,40,,,,,,,,,,,wg-a,,,,AAXX 21124 07222 12/00 10412 10120 21060 30107 40138 58011 60006 80001 91200=
07222,1997-04-21 15:00:00,14,1012.4,-1.4,31,-3,10000,18.52,,35.188,20,,,,,,,,,,,wg-a,,,,AAXX 21154 07222 12/60 /0210 10140 21030 30093 40124 57014 60006 91500 333 91019=
07222,1997-04-21 18:00:00,13,1012.3,-0.1,33,-3,500,14.816,,,30,2.6,14.4,,,,,,,,,wg-a,,,,AAXX 21184 07222 12/00 00308 10130 21030 30092 40123 55001 60006 80000 91800 333 10144 20026=
07222,1997-04-21 21:00:00,8,1013.8,1.4,57,0,25000,11.112,,,350,,,,,,,,,,,wg-a,,,,AAXX 21214 07222 12/75 03506 10080 20000 30106 40138 53014 60006 80000 92100=
07222,1997-04-22 00:00:00,5,1014.7,0.9,65,-1,25000,14.816,,,30,,,,,,,,,,,wg-a,,,,AAXX 22004 07222 12/75 00308 10050 21010 30115 40147 51009 60006 80000 90000=
07222,1997-04-22 03:00:00,2,1014.5,-0.3,80,-1,20000,7.408,,,20,,,,,,,,,,,wg-a,,,,AAXX 22034 07222 12/70 00204 10020 21010 30112 40145 57003 60006 80000 90300=
07222,1997-04-22 06:00:00,2,1015.4,0.9,87,0,12000,11.112,,,30,1.3,12.7,,,,,,,,,wg-a,,,,AAXX 22064 07222 02/62 00306 10020 20000 30121 40154 53009 60006 80000 90600 333 10127 20013 60004=
07222,1997-04-22 09:00:00,9,1016.5,1.2,49,-1,20000,14.816,,,50,,,,,,,,,,,wg-a,,,,AAXX 22094 07222 32/70 00508 10090 21010 30133 40165 51012 80000 90900=
07222,1997-04-22 12:00:00,13,1016.2,-0.2,33,-3,20000,18.52,,,50,,,,,,,,,,,wg-a,,,,AAXX 22124 07222 12/70 00510 10130 21030 30131 40162 58002 60006 80000 91200=
07222,1997-04-22 15:00:00,15,1015.2,-1,39,1,20000,22.224,,,60,,,,,,,,,,,wg-a,,,,AAXX 22154 07222 12770 20612 10150 20010 30121 40152 56010 60006 82400 91500=
07222,1997-04-22 18:00:00,14,1015.8,0.6,38,0,20000,7.408,,,40,2.4,15.1,,,,,,,,,wg-a,,,,AAXX 22184 07222 12770 20404 10140 20000 30127 40158 53006 60006 82500 91800 333 10151 20024=
07222,1997-04-22 21:00:00,11,1017.3,1.4,54,2,15000,7.408,,,60,,,,,,,,,,,wg-a,,,,AAXX 22214 07222 12765 20604 10110 20020 30141 40173 51014 60006 82500 92100=
07222,1997-04-23 00:00:00,8,1018.1,0.8,61,1,15000,7.408,,,50,,,,,,,,,,,wg-a,,,,AAXX 23004 07222 12765 10504 10080 20010 30149 40181 52008 60006 815/0 90000=
07222,1997-04-23 03:00:00,6,1018.4,0.3,65,0,15000,3.704,,,20,,,,,,,,,,,wg-a,,,,AAXX 23034 07222 12765 20202 10060 20000 30152 40184 53003 60006 82500 90300=
07222,1997-04-23 06:00:00,5,1019.2,0.8,75,1,15000,7.408,,,60,4.4,13.6,,,,,,,,,wg-a,,,,AAXX 23064 07222 02/65 00604 10050 20010 30160 40192 53008 60006 80000 90600 333 10136 20044 60004=
07222,1997-04-23 09:00:00,12,1020,0.8,47,1,15000,3.704,,,130,,,,,,,,,,,wg-a,,,,AAXX 23094 07222 12/65 01302 10120 20010 30168 40200 50008 60006 80000 90900=
07222,1997-04-23 12:00:00,16,1019.5,-0.4,34,0,20000,11.112,,,40,,,,,,,,,,,wg-a,,,,AAXX 23124 07222 12770 20406 10160 20000 30164 40195 58004 60006 81101 91200=
07222,1997-04-23 15:00:00,17,1019.1,-0.4,34,1,20000,11.112,,,20,,,,,,,,,,,wg-a,,,,AAXX 23154 07222 12770 30206 10170 20010 30160 40191 56004 60006 82101 91500=
07222,1997-04-23 18:00:00,15,1019.4,0.3,36,0,20000,7.408,,,360,5.1,16.7,,,,,,,,,wg-a,,,,AAXX 23184 07222 12770 33604 10150 20000 30163 40194 53003 60006 82501 91800 333 10167 20051=
07222,1997-04-23 21:00:00,9,1021,1.5,61,2,20000,7.408,,,340,,,,,,,,,,,wg-a,,,,AAXX 23214 07222 12/70 33404 10090 20020 30178 40210 53015 60006 80001 92100=
07222,1997-04-24 00:00:00,7,1021.1,0.1,76,3,15000,3.704,,,310,,,,,,,,,,,wg-a,,,,AAXX 24004 07222 12/65 03102 10070 20030 30179 40211 50001 60006 80000 90000=
07222,1997-04-24 03:00:00,4,1020.7,-0.5,87,2,10000,0,,,0,,,,,,,,,,,wg-a,,,,AAXX 24034 07222 12560 /0000 10040 20020 30174 40207 57005 60006 81500 90300=
07222,1997-04-24 06:00:00,3,1021,0.3,87,1,15000,3.704,,,110,2.8,15.3,,,,,,,,,wg-a,,,,AAXX 24064 07222 02/65 01102 10030 20010 30177 40210 53003 60006 80000 90600 333 10153 20028 60004=
07222,1997-04-24 12:00:00,17,1019.8,-1.4,32,0,25000,11.112,,,220,,,,,,,,,,,wg-a,,,,AAXX 24124 07222 12/75 32206 10170 20000 30167 40198 58014 60006 80001 91200=
07222,1997-04-24 18:00:00,15,1018.6,-0.3,44,3,25000,14.816,,,260,2.9,18.8,,,,,,,,,wg-a,,,,AAXX 24184 07222 12/75 12608 10150 20030 30155 40186 58003 60006 80001 91800 333 10188 20029=
07222,1997-04-24 21:00:00,9,1019.2,0.5,87,7,20000,3.704,,,280,,,,,,,,,,,wg-a,,,,AAXX 24214 07222 12/70 22802 10090 20070 30160 40192 53005 60006 80001 92100=
07222,1997-04-25 00:00:00,7,1018.8,-0.4,93,6,15000,3.704,,,260,,,,,,,,,,,wg-a,,,,AAXX 25004 07222 12/65 42602 10070 20060 30156 40188 58004 60006 80001 90000=
07222,1997-04-25 03:00:00,3,1018.3,-0.6,100,3,7000,11.112,,,150,,,,,,,,,,,wg-a,,,,AAXX 25034 07222 12/57 /1506 10030 20030 30150 40183 56006 60006 90300=
07222,1997-04-25 06:00:00,5,1018.3,0.1,100,5,2500,3.704,,,170,3.3,14.9,,,,,,,,12,wg-a,,,,AAXX 25064 07222 02/25 71702 10050 20050 30151 40183 53001 60006 71241 85031 90600 333 10149 20033 60004=
07222,1997-04-25 09:00:00,13,1018.4,0.2,58,5,10000,11.112,,,220,,,,,,,,,,,wg-a,,,,AAXX 25094 07222 12/60 72206 10130 20050 30153 40184 51002 60006 8703/ 90900=
07222,1997-04-25 12:00:00,15,1018.2,-0.2,55,6,15000,22.224,,,230,,,,,,,,,,,wg-a,,,,AAXX 25124 07222 12565 72312 10150 20060 30151 40182 58002 60006 8753/ 91200=
07222,1997-04-25 15:00:00,13,1017.8,-0.4,88,11,8000,14.816,,,230,,,,1,,,,,,21,wg-a,,,,AAXX 25154 07222 12458 82308 10130 20110 30147 40178 58004 60017 72165 875// 91500=
07222,1997-04-25 18:00:00,13,1017.4,-0.4,100,13,2000,11.112,,,240,4.6,16.1,,0,,,,,,50,wg-a,,,,AAXX 25184 07222 12120 82406 10130 20130 30143 40174 56004 60007 75065 877// 91800 333 10161 20046=
07222,1997-04-25 21:00:00,11,1018.1,0.6,100,11,12000,11.112,,,240,,,,,,,,,,1,wg-a,,,,AAXX 25214 07222 02562 52406 10110 20110 30149 40181 53006 61000 70152 83501 92100 333 ////=
07222,1997-04-26 00:00:00,9,1017.9,-0.2,100,9,500,7.408,,,210,,,,,,,,,,44,wg-a,,,,AAXX 26004 07222 02105 72104 10090 20090 30147 40179 58002 61000 74454 876// 90000 333 ////=
07222,1997-04-26 06:00:00,11,1015.2,-1.5,100,11,8000,7.408,,,170,9.2,12.8,,,,,1,,,1,wg-a,,,,AAXX 26064 07222 02358 81704 10110 20110 30120 40152 56015 60006 70142 875// 90600 333 10128 20092 60014=
07222,1997-04-26 09:00:00,12,1013.3,-1.8,100,12,500,25.928,,,190,,,,1,,,,,,61,wg-a,,,,AAXX 26094 07222 12300 81914 10120 20120 30102 40133 58018 60017 76162 875// 90900=
07222,1997-04-26 12:00:00,13,1011.2,-2.1,100,13,10000,25.928,,,230,,,,3,,,,,,60,wg-a,,,,AAXX 26124 07222 02260 82314 10130 20130 30081 40112 58021 60056 76062 877// 91200 333 60037=
07222,1997-04-26 15:00:00,15,1009.8,-1.4,88,13,18000,31.484,,,260,,,,0,,,,,,25,wg-a,,,,AAXX 26154 07222 12468 72617 10150 20130 30067 40098 57014 60007 72586 8/800 91500=
07222,1997-04-26 18:00:00,13,1009.7,-0.1,94,12,10000,22.224,,,250,10.7,16.4,,,,,,,,60,wg-a,,,,AAXX 26184 07222 02460 82512 10130 20120 30066 40097 58001 61000 76086 875// 91800 333 10164 20107 6000=
07222,1997-04-26 21:00:00,12,1009.7,-0,94,11,10000,18.52,,,260,,,,2,,,,,,21,wg-a,,,,AAXX 26214 07222 12360 /2610 10120 20110 30066 40097 55000 60027 72162 85770 92100=
07222,1997-04-27 00:00:00,12,1010,0.3,94,11,10000,18.52,,,260,,,,0,,,,,,21,wg-a,,,,AAXX 27004 07222 02460 72610 10120 20110 30069 40100 53003 60026 72162 876// 90000 333 60007=
07222,1997-04-27 03:00:00,12,1010.2,0.2,94,11,10000,18.52,,,270,,,,0,,,,,,3,wg-a,,,,AAXX 27034 07222 12460 72710 10120 20110 30071 40102 53002 60007 70362 876// 90300=
07222,1997-04-27 06:00:00,11,1012,1.8,94,10,15000,18.52,,,280,10.4,13.2,,,,,7,,,1,wg-a,,,,AAXX 27064 07222 02565 22810 10110 20100 30089 40120 53018 60006 70161 82500 90600 333 10132 20104 60074=
07222,1997-04-27 12:00:00,15,1015.2,0.9,72,10,11000,29.632,,,280,,,,,,,,,,,wg-a,,,,AAXX 27124 07222 02/61 /2816 10150 20100 30121 40152 53009 61000 91200 333 ////=
07222,1997-04-27 18:00:00,14,1017.1,1.2,88,12,20000,18.52,,,270,11,16.3,,,,,,,,,wg-a,,,,AAXX 27184 07222 12470 72710 10140 20120 30140 40171 53012 60006 8787/ 91800 333 10163 20110=
07222,1997-04-27 21:00:00,12,1017.9,0.8,100,12,11000,14.816,,,230,,,,,,,,,,,wg-a,,,,AAXX 27214 07222 12/61 /2308 10120 20120 30148 40179 50008 60006 92100=
07222,1997-04-28 00:00:00,13,1017.2,-0.7,100,13,3000,18.52,,,250,,,,1,,,,,,51,wg-a,,,,AAXX 28004 07222 02130 72510 10130 20130 30141 40172 58007 60016 75152 876// 90000 333 60017=
07222,1997-04-28 03:00:00,13,1017.4,0.2,100,13,10000,22.224,,,270,,,,0,,,,,,20,wg-a,,,,AAXX 28034 07222 12160 72712 10130 20130 30143 40174 52002 60007 72052 876// 90300=
07222,1997-04-28 06:00:00,13,1017.8,0.4,100,13,4000,18.52,,,260,12.4,13.7,,,,,,,,50,wg-a,,,,AAXX 28064 07222 02240 82610 10130 20130 30147 40178 53004 61000 75052 876// 90600 333 10137 20124 6001=
07222,1997-04-28 09:00:00,14,1018.4,0.6,100,14,6000,18.52,,,260,,,,0,,,,,,50,wg-a,,,,AAXX 28094 07222 12256 82610 10140 20140 30153 40184 50006 60007 75055 877// 90900=
07222,1997-04-28 12:00:00,16,1018.5,0.1,77,12,15000,25.928,,,280,,,,0,,,,,,1,wg-a,,,,AAXX 28124 07222 02465 72814 10160 20120 30154 40185 50001 60016 70152 878// 91200 333 60007=
07222,1997-04-28 15:00:00,15,1018.2,-0.3,82,12,12000,31.484,,51.856,270,,,,,,,,,,,wg-a,,,,AAXX 28154 07222 12462 72717 10150 20120 30151 40182 58003 60006 878// 91500 333 91028=
07222,1997-04-28 18:00:00,14,1017.9,-0.3,82,11,12000,29.632,,,270,13.2,16.1,,,,,,,,,wg-a,,,,AAXX 28184 07222 12462 72716 10140 20110 30148 40179 58003 60006 8683/ 91800 333 10161 20132=
07222,1997-04-28 21:00:00,12,1019.5,1.6,94,11,12000,22.224,,,280,,,,,,,,,,,wg-a,,,,AAXX 28214 07222 12462 72812 10120 20110 30164 40195 51016 60006 875// 92100=
07222,1997-04-29 03:00:00,11,1019.6,-0.1,87,9,10000,18.52,,,280,,,,,,,,,,,wg-a,,,,AAXX 29034 07222 12560 72810 10110 20090 30164 40196 55001 60006 875// 90300=
07222,1997-04-29 06:00:00,12,1020.8,1.2,82,9,12000,14.816,,,290,10.6,13.8,,,,,,,,,wg-a,,,,AAXX 29064 07222 02662 72908 10120 20090 30176 40208 53012 60006 875// 90600 333 10138 20106 60004=
07222,1997-04-29 09:00:00,14,1021.9,1.2,67,8,20000,18.52,,,290,,,,,,,,,,,wg-a,,,,AAXX 29094 07222 12570 72910 10140 20080 30188 40219 53012 60006 878// 90900=
07222,1997-04-29 12:00:00,15,1022,0.1,67,9,20000,18.52,,,300,,,,,,,,,,,wg-a,,,,AAXX 29124 07222 12570 /3010 10150 20090 30189 40220 50001 60006 86500 91200=
07222,1997-04-29 18:00:00,15,1021.6,0,72,10,20000,18.52,,,270,11.7,17.6,,,,,,,,,wg-a,,,,AAXX 29184 07222 12670 /2710 10150 20100 30185 40216 50000 60006 81501 91800 333 10176 20117=
07222,1997-04-29 21:00:00,12,1023.5,1.8,82,9,15000,7.408,,,20,,,,,,,,,,,wg-a,,,,AAXX 29214 07222 12/65 10204 10120 20090 30203 40235 53018 60006 80001 92100=
07222,1997-04-30 00:00:00,8,1024.2,0.7,93,7,15000,7.408,,,350,,,,,,,,,,,wg-a,,,,AAXX 30004 07222 12/65 03504 10080 20070 30210 40242 53007 60006 80000 90000=
07222,1997-04-30 03:00:00,6,1024.1,-0.1,93,5,10000,7.408,,,340,,,,,,,,,,,wg-a,,,,AAXX 30034 07222 12/60 /3404 10060 20050 30209 40241 56001 60006 90300=
07222,1997-04-30 06:00:00,8,1025.4,1.3,93,7,15000,7.408,,,340,5.9,15,,,,,,,,,wg-a,,,,AAXX 30064 07222 02365 /3404 10080 20070 30222 40254 53013 60006 81100 90600 333 10150 20059 60004=
07222,1997-04-30 09:00:00,12,1026.1,0.7,82,9,12000,7.408,,,60,,,,,,,,,,,wg-a,,,,AAXX 30094 07222 12/62 00604 10120 20090 30229 40261 51007 60006 80000 90900=
07222,1997-04-30 12:00:00,18,1025.8,-0.2,52,8,11000,11.112,,,70,,,,,,,,,,,wg-a,,,,AAXX 30124 07222 12/61 /0706 10180 20080 30227 40258 58002 60006 91200=
07222,1997-04-30 15:00:00,19,1025.2,-0.6,49,8,20000,11.112,,,70,,,,,,,,,,,wg-a,,,,AAXX 30154 07222 12670 20706 10190 20080 30221 40252 58006 60006 82100 91500=
07222,1997-04-30 18:00:00,19,1025.2,-0,49,8,20000,11.112,,,50,7.7,20.1,,,,,,,,,wg-a,,,,AAXX 30184 07222 12770 10506 10190 20080 30221 40252 55000 60006 81101 91800 333 10201 20077=
07222,1997-04-30 21:00:00,16,1026.1,0.9,59,8,20000,7.408,,,50,,,,,,,,,,,wg-a,,,,AAXX 30214 07222 12/70 00504 10160 20080 30230 40261 53009 60006 80000 92100=
07222,1997-05-01 00:00:00,13,1026.5,0.3,72,8,20000,11.112,,,70,,,,,,,,,,,wg-a,,,,AAXX 01004 07222 12/70 00706 10130 20080 30233 40265 51003 60006 80000 90000=
07222,1997-05-01 06:00:00,10,1027.2,0.7,87,8,8000,7.408,,,60,8.9,19.1,,,,,,,,,wg-a,,,,AAXX 01064 07222 02/58 00604 10100 20080 30240 40272 53007 60006 80000 90600 333 10191 20089 60004=
07222,1997-05-01 09:00:00,16,1026.6,-0.5,63,9,12000,22.224,,,100,,,,,,,,,,,wg-a,,,,AAXX 01094 07222 12/62 01012 10160 20090 30235 40266 58005 60006 80000 90900=
07222,1997-05-01 12:00:00,20,1025.3,-1.3,43,7,12000,25.928,,,90,,,,,,,,,,,wg-a,,,,AAXX 01124 07222 12/62 00914 10200 20070 30222 40253 58013 60006 80000 91200=
07222,1997-05-01 15:00:00,23,1023.7,-1.6,33,6,20000,29.632,,,100,,,,,,,,,,,wg-a,,,,AAXX 01154 07222 12/70 11016 10230 20060 30206 40237 57016 60006 80001 91500=
07222,1997-05-01 18:00:00,22,1022.9,-0.8,33,5,500,22.224,,,100,9.8,23.2,,,,,,,,,wg-a,,,,AAXX 01184 07222 12/00 11012 10220 20050 30198 40229 56008 60006 80001 91800 333 10232 20098=
07222,1997-05-01 21:00:00,17,1023.4,0.5,52,7,500,18.52,,,80,,,,,,,,,,,wg-a,,,,AAXX 01214 07222 12/00 00810 10170 20070 30203 40234 53005 60006 80000 92100=
07222,1997-05-02 00:00:00,15,1023.3,-0.1,63,8,500,22.224,,,80,,,,,,,,,,,wg-a,,,,AAXX 02004 07222 12/00 00812 10150 20080 30202 40233 56001 60006 80000 90000=
07222,1997-05-02 03:00:00,12,1022.9,-0.5,76,8,15000,14.816,,,90,,,,,,,,,,,wg-a,,,,AAXX 02034 07222 12/65 00908 10120 20080 30197 40229 56005 60006 80000 90300=
07222,1997-05-02 06:00:00,13,1022.2,-0.7,72,8,15000,18.52,,,90,11.6,21.8,,,,,,,,,wg-a,,,,AAXX 02064 07222 02/65 00910 10130 20080 30190 40222 56007 60006 80000 90600 333 10218 20116 60004=
07222,1997-05-02 12:00:00,25,1020.1,-1.7,34,8,25000,22.224,,,110,,,,,,,,,,,wg-a,,,,AAXX 02124 07222 12/75 01112 10250 20080 30171 40201 58017 60006 80000 91200=
07222,1997-05-02 15:00:00,27,1018.2,-1.9,28,7,500,22.224,,,110,,,,,,,,,,,wg-a,,,,AAXX 02154 07222 12/00 01112 10270 20070 30152 40182 58019 60006 80000 91500=
07222,1997-05-02 18:00:00,26,1017.4,-0.8,28,6,500,11.112,,,110,12.6,26.9,,,,,,,,,wg-a,,,,AAXX 02184 07222 12/00 01106 10260 20060 30144 40174 58008 60006 80000 91800 333 10269 20126=
07222,1997-05-02 21:00:00,20,1018.3,0.8,40,6,500,11.112,,,100,,,,,,,,,,,wg-a,,,,AAXX 02214 07222 12/00 11006 10200 20060 30152 40183 53008 60006 80002 92100=
07222,1997-05-03 00:00:00,14,1017.9,-0.4,67,8,20000,3.704,,,60,,,,,,,,,,,wg-a,,,,AAXX 03004 07222 12/70 10602 10140 20080 30148 40179 58004 60006 80002 90000=
07222,1997-05-03 06:00:00,13,1018,0.7,77,9,25000,11.112,,,190,11.1,25.9,,,,,,,,,wg-a,,,,AAXX 03064 07222 02775 71906 10130 20090 30149 40180 53007 60006 82532 90600 333 10259 20111 60004=
07222,1997-05-03 09:00:00,18,1019,1,77,14,25000,18.52,,,280,,,,,,,,,,,wg-a,,,,AAXX 03094 07222 12775 72810 10180 20140 30159 40190 52010 60006 8457/ 90900=
07222,1997-05-03 12:00:00,21,1019,0,69,15,25000,29.632,,,280,,,,,,,,,,,wg-a,,,,AAXX 03124 07222 12575 42816 10210 20150 30159 40190 50000 60006 82131 91200=
07222,1997-05-03 15:00:00,20,1018.5,-0.5,68,14,25000,18.52,,,280,,,,,,,,,,,wg-a,,,,AAXX 03154 07222 12575 42810 10200 20140 30154 40185 58005 60006 82230 91500=
07222,1997-05-03 18:00:00,15,1018.4,-0.1,88,13,20000,18.52,,,250,13.3,21.5,,,,,,,,,wg-a,,,,AAXX 03184 07222 12370 72510 10150 20130 30153 40184 55001 60006 875// 91800 333 10215 20133=
07222,1997-05-03 21:00:00,13,1018.4,-0,94,12,15000,7.408,,,220,,,,,,,,,,,wg-a,,,,AAXX 03214 07222 12465 32204 10130 20120 30153 40184 55000 60006 83500 92100=
07222,1997-05-04 00:00:00,13,1017.3,-1.1,100,13,3000,14.816,,,200,,,,,,,,,,10,wg-a,,,,AAXX 04004 07222 12130 82008 10130 20130 30142 40173 58011 60006 71011 886// 90000=
07222,1997-05-04 03:00:00,14,1014.8,-2.5,100,14,3000,14.816,,,200,,,,,,,,,,10,wg-a,,,,AAXX 04034 07222 12230 82008 10140 20140 30117 40148 56025 60006 71042 876// 90300=
07222,1997-05-04 06:00:00,14,1012.7,-2.1,100,14,4500,11.112,,,170,11.2,15.2,,,,,,,,10,wg-a,,,,AAXX 04064 07222 02245 71706 10140 20140 30096 40127 56021 60006 71042 876// 90600 333 10152 20112 60004=
07222,1997-05-04 09:00:00,16,1011.4,-1.3,88,14,15000,18.52,,,180,,,,0,,,,,,21,wg-a,,,,AAXX 04094 07222 12365 81810 10160 20140 30083 40114 57013 60007 72162 875// 90900=
07222,1997-05-04 12:00:00,16,1010.3,-1.1,94,15,3500,22.224,,,230,,,,,,,,,,61,wg-a,,,,AAXX 04124 07222 02335 82312 10160 20150 30072 40103 58011 60006 76162 877// 91200 333 61000=
07222,1997-05-04 15:00:00,18,1007.6,-2.6,77,14,500,29.632,,,240,,,,,,,,,,1,wg-a,,,,AAXX 04154 07222 02500 /2416 10180 20140 30046 40076 56026 61000 70162 86200 91500 333 ////=
07222,1997-05-04 18:00:00,15,1005.1,-2.6,88,13,20000,18.52,,,230,13.9,18.9,,,,,,,,61,wg-a,,,,AAXX 04184 07222 02470 82310 10150 20130 30020 40051 58026 61000 76162 875// 91800 333 10189 20139 6100=
07222,1997-05-05 00:00:00,14,1000.9,-2.6,94,13,20000,18.52,,,220,,,,,,,,,,2,wg-a,,,,AAXX 05004 07222 02370 82210 10140 20130 39978 40009 57026 60006 70262 877// 90000 333 61000=
07222,1997-05-05 03:00:00,14,997.9,-3,88,12,20000,25.928,,46.3,220,,,,0,,,,,,,wg-a,,,,AAXX 05034 07222 12470 82214 10140 20120 39948 49979 56030 60007 875// 90300 333 91025=
07222,1997-05-05 06:00:00,13,997.1,-0.8,94,12,18000,18.52,,,240,12.2,15,,,,,,,,25,wg-a,,,,AAXX 05064 07222 02468 72410 10130 20120 39940 49971 55008 61000 72586 87800 90600 333 10150 20122 6002=
07222,1997-05-05 09:00:00,15,996.9,-0.2,82,12,15000,25.928,,,230,,,,1,,,,,,25,wg-a,,,,AAXX 05094 07222 12565 62314 10150 20120 39938 49969 57002 60017 72586 86900 90900=
07222,1997-05-05 12:00:00,15,995.3,-1.5,88,13,10000,31.484,,51.856,210,,,,2,,,,,,25,wg-a,,,,AAXX 05124 07222 02460 72117 10150 20130 39923 49953 58015 60026 72586 878// 91200 333 60027 91028=
07222,1997-05-05 15:00:00,15,994.1,-1.2,88,13,15000,29.632,,,230,,,,2,,,,,,21,wg-a,,,,AAXX 05154 07222 12465 72316 10150 20130 39911 49941 56012 60027 72186 878// 91500=
07222,1997-05-05 18:00:00,14,993.9,-0.2,88,12,20000,25.928,,,250,12.7,16.6,,1,,,,,,1,wg-a,,,,AAXX 05184 07222 02470 /2514 10140 20120 39909 49939 55002 60006 70186 86802 91800 333 10166 20127 60017=
07222,1997-05-05 21:00:00,12,993.5,-0.5,88,10,20000,7.408,,,230,,,,,,,,,,,wg-a,,,,AAXX 05214 07222 12470 72304 10120 20100 39904 49935 56005 60006 8688/ 92100=
07222,1997-05-06 00:00:00,10,992.7,-0.8,93,9,6000,14.816,,,280,,,,5,,,,,,63,wg-a,,,,AAXX 06004 07222 02256 82808 10100 20090 39896 49927 56008 60056 76362 885// 90000 333 60057=
07222,1997-05-06 03:00:00,9,992.2,-0.5,93,8,8000,14.816,,,270,,,,1,,,,,,63,wg-a,,,,AAXX 06034 07222 12358 82708 10090 20080 39891 49922 56005 60017 76366 885// 90300=
07222,1997-05-06 06:00:00,9,992.5,0.3,100,9,10000,14.816,,,250,8.7,14.2,,,,,12,,,3,wg-a,,,,AAXX 06064 07222 02460 72508 10090 20090 39894 49925 53003 60006 70362 8687/ 90600 333 10142 20087 60124=
07222,1997-05-06 09:00:00,8,997.3,4.8,87,6,10000,25.928,,,320,,,,1,,,,,,60,wg-a,,,,AAXX 06094 07222 12560 73214 10080 20060 39942 49973 51048 60017 76086 8687/ 90900=
07222,1997-05-06 12:00:00,9,1001.5,4.2,71,4,15000,29.632,,51.856,330,,,,,,,,,,3,wg-a,,,,AAXX 06124 07222 02565 73316 10090 20040 39984 40015 51042 60016 70386 879// 91200 333 61000 91028=
07222,1997-05-06 15:00:00,12,1003.3,1.8,47,1,20000,31.484,,,320,,,,0,,,,,,1,wg-a,,,,AAXX 06154 07222 12570 53217 10120 20010 30002 40033 51018 60007 70186 84201 91500=
07222,1997-05-06 18:00:00,11,1005,1.7,43,-1,20000,14.816,,,320,6.8,12.2,,,,,,,,2,wg-a,,,,AAXX 06184 07222 12570 43208 10110 21010 30019 40050 52017 60006 70286 83201 91800 333 10122 20068=
07222,1997-05-07 00:00:00,5,1005.1,-1.1,87,3,12000,11.112,,,60,,,,3,,,,,,61,wg-a,,,,AAXX 07004 07222 02462 80606 10050 20030 30019 40051 58011 60036 76161 8657/ 90000 333 60037=
07222,1997-05-07 03:00:00,4,1003.5,-1.6,93,3,15000,3.704,,,60,,,,0,,,,,,21,wg-a,,,,AAXX 07034 07222 12665 80602 10040 20030 30003 40035 56016 60007 72162 8557/ 90300=
07222,1997-05-07 06:00:00,4,1002.8,-0.7,87,2,20000,7.408,,,70,2.9,10.8,,,,,5,,,2,wg-a,,,,AAXX 07064 07222 02570 50704 10040 20020 39996 40028 55007 60006 70262 85802 90600 333 10108 20029 60054=
07222,1997-05-07 09:00:00,7,1003.6,0.8,70,2,11000,11.112,,,360,,,,,,,,,,,wg-a,,,,AAXX 07094 07222 12/61 /3606 10070 20020 30004 40036 53008 60006 90900=
07222,1997-05-07 12:00:00,10,1004.2,0.7,53,1,500,14.816,,,310,,,,0,,,,,,1,wg-a,,,,AAXX 07124 07222 02600 /3108 10100 20010 30011 40042 51007 60006 70187 86200 91200 333 60007=
07222,1997-05-07 15:00:00,7,1006.2,1.9,76,3,15000,25.928,,,280,,,,,,,,,,25,wg-a,,,,AAXX 07154 07222 02565 /2814 10070 20030 30030 40062 53019 61000 72586 86900 91500 333 ////=
07222,1997-05-07 18:00:00,8,1007.6,1.4,66,2,500,11.112,,,320,3.8,11.4,,,,,,,,2,wg-a,,,,AAXX 07184 07222 12400 43206 10080 20020 30044 40076 53014 60006 70286 84900 91800 333 10114 20038=
07222,1997-05-07 21:00:00,4,1009.9,2.3,87,2,15000,3.704,,,230,,,,,,,,,,,wg-a,,,,AAXX 07214 07222 12/65 02302 10040 20020 30067 40099 51023 60006 80000 92100=
07222,1997-05-08 00:00:00,2,1010,0.1,100,2,15000,3.704,,,220,,,,,,,,,,,wg-a,,,,AAXX 08004 07222 12/65 22202 10020 20020 30068 40100 50001 60006 80001 90000=
07222,1997-05-08 03:00:00,6,1008.5,-1.5,93,5,15000,11.112,,,220,,,,,,,,,,,wg-a,,,,AAXX 08034 07222 12665 72206 10060 20050 30053 40085 56015 60006 82501 90300=
07222,1997-05-08 06:00:00,7,1007.5,-1,93,6,20000,14.816,,,190,1.4,9,,,,,,,,21,wg-a,,,,AAXX 08064 07222 02570 71908 10070 20060 30043 40075 56010 61000 72161 875// 90600 333 10090 20014 6001=
07222,1997-05-08 09:00:00,11,1006.7,-0.7,87,9,15000,18.52,,,210,,,,2,,,,,,3,wg-a,,,,AAXX 08094 07222 12465 72110 10110 20090 30036 40067 56007 60027 70362 8587/ 90900=
07222,1997-05-08 12:00:00,13,1006,-0.7,82,10,20000,25.928,,,260,,,,1,,,,,,25,wg-a,,,,AAXX 08124 07222 02570 72614 10130 20100 30029 40060 58007 60036 72586 8683/ 91200 333 60017=
07222,1997-05-08 15:00:00,13,1004.7,-1.3,77,9,18000,29.632,,,250,,,,0,,,,,,21,wg-a,,,,AAXX 08154 07222 12568 72516 10130 20090 30016 40047 58013 60007 72162 868// 91500=
07222,1997-05-08 18:00:00,12,1002.8,-1.9,94,11,8000,31.484,,53.708,240,6.7,13.8,,,,,,,,62,wg-a,,,,AAXX 08184 07222 02358 72417 10120 20110 39997 40028 56019 61000 76262 875// 91800 333 10138 20067 6003 91029=
07222,1997-05-08 21:00:00,11,1003.4,0.6,94,10,8000,22.224,,,260,,,,1,,,,,,80,wg-a,,,,AAXX 08214 07222 12458 72612 10110 20100 30003 40034 51006 60017 78086 878// 92100=
07222,1997-05-09 00:00:00,9,1003.6,0.2,87,7,20000,18.52,,,260,,,,0,,,,,,1,wg-a,,,,AAXX 09004 07222 02570 32610 10090 20070 30005 40036 52002 60016 70186 83800 90000 333 60007=
07222,1997-05-09 03:00:00,8,1003.3,-0.3,93,7,20000,14.816,,,260,,,,0,,,,,,,wg-a,,,,AAXX 09034 07222 12670 32608 10080 20070 30002 40033 56003 60007 83500 90300=
07222,1997-05-09 06:00:00,10,1004.2,0.9,82,7,15000,14.816,,,260,7.9,12.4,,,,,,,,80,wg-a,,,,AAXX 09064 07222 02565 62608 10100 20070 30011 40042 53009 61000 78086 86900 90600 333 10124 20079 6008=
07222,1997-05-09 09:00:00,13,1005.7,1.5,72,8,20000,31.484,,,270,,,,1,,,,,,2,wg-a,,,,AAXX 09094 07222 12570 /2717 10130 20080 30026 40057 51015 60017 70286 85200 90900=
07222,1997-05-09 12:00:00,14,1007.3,1.6,63,7,500,29.632,,,270,,,,,,,,,,1,wg-a,,,,AAXX 09124 07222 02600 62716 10140 20070 30042 40073 51016 60016 70186 86200 91200 333 61000=
07222,1997-05-09 15:00:00,15,1008.8,1.5,59,7,500,31.484,,,260,,,,,,,,,,,wg-a,,,,AAXX 09154 07222 12500 32617 10150 20070 30057 40088 51015 60006 83201 91500=
07222,1997-05-09 18:00:00,13,1009.7,0.9,72,8,500,25.928,,,250,9.2,15.4,,,,,,,,,wg-a,,,,AAXX 09184 07222 12500 /2514 10130 20080 30066 40097 51009 60006 85201 91800 333 10154 20092=
07222,1997-05-09 21:00:00,10,1010.8,1,87,8,20000,3.704,,,280,,,,0,,,,,,2,wg-a,,,,AAXX 09214 07222 12570 /2802 10100 20080 30076 40108 52010 60007 70286 86200 92100=
07222,1997-05-10 00:00:00,10,1010.6,-0.1,93,9,20000,14.816,,,210,,,,0,,,,,,1,wg-a,,,,AAXX 10004 07222 02670 42108 10100 20090 30075 40106 58001 60016 70186 84500 90000 333 60007=
07222,1997-05-10 03:00:00,10,1009.3,-1.3,87,8,20000,14.816,,,190,,,,,,,,,,,wg-a,,,,AAXX 10034 07222 12570 31908 10100 20080 30062 40093 58013 60006 83800 90300=
07222,1997-05-10 06:00:00,10,1008.5,-0.8,93,9,12000,22.224,,,180,9.3,13,,,,,1,,,,wg-a,,,,AAXX 10064 07222 02462 51812 10100 20090 30054 40085 56008 60006 82531 90600 333 10130 20093 60014=
07222,1997-05-10 09:00:00,14,1008.4,-0.1,82,11,11000,29.632,,,210,,,,,,,,,,,wg-a,,,,AAXX 10094 07222 02/61 /2116 10140 20110 30053 40084 58001 61000 90900 333 ////=
07222,1997-05-10 12:00:00,15,1008.1,-0.3,77,11,15000,42.596,,64.82,220,,,,1,,,,,,25,wg-a,,,,AAXX 10124 07222 02565 72223 10150 20110 30050 40081 56003 60016 72586 878// 91200 333 60017 91035=
07222,1997-05-10 15:00:00,15,1008,-0.1,82,12,20000,35.188,,,210,,,,0,,,,,,,wg-a,,,,AAXX 10154 07222 12470 72119 10150 20120 30049 40080 58001 60007 86202 91500=
07222,1997-05-10 18:00:00,14,1007.7,-0.3,82,11,20000,29.632,,50.004,210,10.3,15.9,,,,,,,,21,wg-a,,,,AAXX 10184 07222 02570 72116 10140 20110 30046 40077 56003 61000 72162 8627/ 91800 333 10159 20103 6100 91027=
07222,1997-05-10 21:00:00,12,1008.5,0.8,94,11,15000,14.816,,,220,,,,,,,,,,21,wg-a,,,,AAXX 10214 07222 02465 52208 10120 20110 30054 40085 53008 61000 72132 85800 92100 333 ////=
07222,1997-05-11 00:00:00,11,1008.6,0.1,87,9,15000,14.816,,,190,,,,,,,,,,3,wg-a,,,,AAXX 11004 07222 02465 71908 10110 20090 30055 40086 51001 61000 70361 83570 90000 333 ////=
07222,1997-05-11 03:00:00,11,1008.4,-0.2,100,11,11000,14.816,,,230,,,,,,,,,,,wg-a,,,,AAXX 11034 07222 12/61 /2308 10110 20110 30053 40084 58002 60006 90300=
07222,1997-05-11 06:00:00,11,1008.7,0.3,94,10,15000,14.816,,,230,10.6,14.2,,,,,,,,21,wg-a,,,,AAXX 11064 07222 02465 72308 10110 20100 30056 40087 53003 61000 72162 8683/ 90600 333 10142 20106 6001=
07222,1997-05-11 09:00:00,14,1009.7,1,72,9,25000,18.52,,,250,,,,,,,,,,,wg-a,,,,AAXX 11094 07222 12475 /2510 10140 20090 30066 40097 51010 60006 85231 90900=
07222,1997-05-11 12:00:00,16,1010.9,1.2,51,6,500,29.632,,,250,,,,,,,,,,,wg-a,,,,AAXX 11124 07222 12500 42516 10160 20060 30078 40109 52012 60006 84100 91200=
07222,1997-05-11 18:00:00,13,1013.2,1.2,72,8,500,22.224,,44.448,240,11.1,16.9,,,,,,,,,wg-a,,,,AAXX 11184 07222 12500 42412 10130 20080 30101 40132 53012 60006 84900 91800 333 10169 20111 91024=
07222,1997-05-11 21:00:00,11,1015.7,2.4,82,8,500,14.816,,,220,,,,,,,,,,,wg-a,,,,AAXX 11214 07222 12500 32208 10110 20080 30125 40157 53024 60006 83200 92100=
07222,1997-05-12 00:00:00,9,1017.2,1.5,93,8,500,7.408,,,190,,,,0,,,,,,,wg-a,,,,AAXX 12004 07222 02500 21904 10090 20080 30140 40172 53015 60006 82200 90000 333 60007=
07222,1997-05-12 03:00:00,7,1017.9,0.7,93,6,500,11.112,,,150,,,,,,,,,,,wg-a,,,,AAXX 12034 07222 12500 21506 10070 20060 30147 40179 53007 60006 82200 90300=
07222,1997-05-12 06:00:00,9,1019.1,1.2,93,8,500,7.408,,,190,6.3,13.7,,,,,,,,,wg-a,,,,AAXX 12064 07222 02500 21904 10090 20080 30159 40191 53012 60006 82900 90600 333 10137 20063 60004=
07222,1997-05-12 09:00:00,13,1020.7,1.6,82,10,500,14.816,,,190,,,,1,,,,,,25,wg-a,,,,AAXX 12094 07222 12500 51908 10130 20100 30175 40207 51016 60017 72586 83902 90900=
07222,1997-05-12 12:00:00,16,1021.1,0.5,55,7,500,18.52,,37.04,250,,,,,,,,,,3,wg-a,,,,AAXX 12124 07222 12600 32510 10160 20070 30180 40211 51005 60016 70386 83202 91200 333 91020=
07222,1997-05-12 15:00:00,16,1020.9,-0.2,63,9,500,18.52,,,240,,,,,,,,,,,wg-a,,,,AAXX 12154 07222 12600 32410 10160 20090 30178 40209 58002 60006 83200 91500=
07222,1997-05-12 18:00:00,15,1020.7,-0.2,59,7,500,14.816,,,270,8.5,17.2,,,,,,,,,wg-a,,,,AAXX 12184 07222 12600 /2708 10150 20070 30176 40207 57002 60006 81200 91800 333 10172 20085=
07222,1997-05-12 21:00:00,10,1022,1.2,87,8,500,7.408,,,190,,,,,,,,,,,wg-a,,,,AAXX 12214 07222 12/00 01904 10100 20080 30188 40220 53012 60006 80000 92100=
07222,1997-05-13 00:00:00,7,1021.9,-0.1,100,7,500,0,,,0,,,,,,,,,,,wg-a,,,,AAXX 13004 07222 12/00 00000 10070 20070 30187 40219 58001 60006 80000 90000=
07222,1997-05-13 03:00:00,5,1021.1,-0.8,100,5,500,3.704,,,130,,,,,,,,,,,wg-a,,,,AAXX 13034 07222 12/00 01302 10050 20050 30179 40211 56008 60006 80000 90300=
07222,1997-05-13 06:00:00,7,1021.1,-0,100,7,15000,7.408,,,130,4.4,15,,,,,1,,,,wg-a,,,,AAXX 13064 07222 02/65 11304 10070 20070 30179 40211 55000 60006 80001 90600 333 10150 20044 60014=
07222,1997-05-13 09:00:00,15,1020.8,-0.2,59,7,40000,7.408,,,120,,,,,,,,,,,wg-a,,,,AAXX 13094 07222 12682 /1204 10150 20070 30177 40208 58002 60006 81201 90900=
07222,1997-05-13 12:00:00,18,1020.1,-0.7,45,6,40000,11.112,,,260,,,,,,,,,,,wg-a,,,,AAXX 13124 07222 12682 42606 10180 20060 30170 40201 58007 60006 81231 91200=
07222,1997-05-13 15:00:00,18,1019.2,-0.9,52,8,40000,11.112,,,290,,,,,,,,,,,wg-a,,,,AAXX 13154 07222 12682 72906 10180 20080 30161 40192 58009 60006 81288 91500=
07222,1997-05-13 18:00:00,16,1019.1,-0.1,59,8,40000,14.816,,,300,7.2,18.7,,,,,,,,,wg-a,,,,AAXX 13184 07222 12782 73008 10160 20080 30160 40191 55001 60006 8252/ 91800 333 10187 20072=
07222,1997-05-13 21:00:00,13,1020.3,1.2,77,9,15000,11.112,,,300,,,,,,,,,,,wg-a,,,,AAXX 13214 07222 12/65 73006 10130 20090 30172 40203 53012 60006 83032 92100=
07222,1997-05-14 00:00:00,11,1021,0.6,87,9,15000,7.408,,,330,,,,,,,,,,,wg-a,,,,AAXX 14004 07222 12/65 53304 10110 20090 30178 40210 51006 60006 81031 90000=
07222,1997-05-14 03:00:00,8,1020.7,-0.3,100,8,10000,3.704,,,310,,,,,,,,,,,wg-a,,,,AAXX 14034 07222 12/60 43102 10080 20080 30175 40207 56003 60006 80001 90300=
07222,1997-05-14 06:00:00,9,1021.5,0.8,100,9,15000,7.408,,,340,7.2,15.5,,,,,,,,,wg-a,,,,AAXX 14064 07222 02/65 13404 10090 20090 30183 40215 53008 60006 80001 90600 333 10155 20072 60004=
07222,1997-05-14 09:00:00,16,1021.7,0.3,59,8,15000,7.408,,,70,,,,,,,,,,,wg-a,,,,AAXX 14094 07222 12565 /0704 10160 20080 30186 40217 50003 60006 81100 90900=
07222,1997-05-14 12:00:00,20,1020.8,-0.9,43,7,11000,7.408,,,110,,,,,,,,,,,wg-a,,,,AAXX 14124 07222 12/61 /1104 10200 20070 30177 40208 58009 60006 91200=
07222,1997-05-14 15:00:00,21,1019.1,-1.7,38,6,15000,7.408,,,50,,,,,,,,,,,wg-a,,,,AAXX 14154 07222 12665 40504 10210 20060 30160 40191 58017 60006 84200 91500=
07222,1997-05-14 18:00:00,19,1018.8,-0.3,49,8,15000,7.408,,,110,9,21.1,,,,,,,,,wg-a,,,,AAXX 14184 07222 12765 31104 10190 20080 30157 40188 55003 60006 83500 91800 333 10211 20090=
07222,1997-05-14 21:00:00,14,1018.9,0.1,72,9,15000,3.704,,,320,,,,,,,,,,,wg-a,,,,AAXX 14214 07222 12/65 03202 10140 20090 30158 40189 53001 60006 80000 92100=
07222,1997-05-15 00:00:00,13,1018.3,-0.6,88,11,15000,3.704,,,60,,,,,,,,,,,wg-a,,,,AAXX 15004 07222 12/65 00602 10130 20110 30152 40183 58006 60006 80000 90000=
07222,1997-05-15 03:00:00,14,1016.5,-1.8,82,11,15000,7.408,,,40,,,,,,,,,,,wg-a,,,,AAXX 15034 07222 12665 70404 10140 20110 30134 40165 56018 60006 875// 90300=
07222,1997-05-15 06:00:00,13,1015.9,-0.6,94,12,9000,11.112,,,60,12.9,19.2,,,,,,,,21,wg-a,,,,AAXX 15064 07222 02559 70606 10130 20120 30128 40159 56006 61000 72161 875// 90600 333 10192 20129 6100=
07222,1997-05-15 09:00:00,16,1015.3,-0.6,82,13,10000,14.816,,,80,,,,,,,,,,,wg-a,,,,AAXX 15094 07222 12460 70808 10160 20130 30122 40153 58006 60006 875// 90900=
07222,1997-05-15 12:00:00,17,1014.7,-0.6,77,13,15000,11.112,,,100,,,,,,,,,,,wg-a,,,,AAXX 15124 07222 12565 71006 10170 20130 30116 40147 58006 60006 875// 91200=
07222,1997-05-15 15:00:00,20,1013.6,-1,64,13,15000,7.408,,,60,,,,,,,,,,,wg-a,,,,AAXX 15154 07222 12565 50604 10200 20130 30106 40136 57010 60006 83101 91500=
07222,1997-05-15 18:00:00,19,1013.4,-0.3,73,14,15000,14.816,,,50,13.2,20.2,,,,,,,,,wg-a,,,,AAXX 15184 07222 12/65 60508 10190 20140 30103 40134 55003 60006 80001 91800 333 10202 20132=
07222,1997-05-15 21:00:00,17,1013.3,-0.1,82,14,15000,14.816,,,60,,,,,,,,,,,wg-a,,,,AAXX 15214 07222 12/65 60608 10170 20140 30102 40133 58001 60006 80001 92100=
07222,1997-05-16 00:00:00,16,1012.7,-0.6,82,13,12000,7.408,,,60,,,,,,,,,,,wg-a,,,,AAXX 16004 07222 12762 70604 10160 20130 30096 40127 57006 60006 83532 90000=
07222,1997-05-16 03:00:00,15,1011.3,-1.4,94,14,500,11.112,,,70,,,,3,,,,,,,wg-a,,,,AAXX 16034 07222 12700 70706 10150 20140 30082 40113 56014 60037 83582 90300=
07222,1997-05-16 06:00:00,15,1011.5,0.2,100,15,2000,3.704,,,60,14.7,18.9,,,,,3,,,10,wg-a,,,,AAXX 16064 07222 02720 70602 10150 20150 30084 40115 52002 60006 71096 8558/ 90600 333 10189 20147 60034=
07222,1997-05-16 09:00:00,17,1011.6,0.1,94,16,3000,3.704,,,40,,,,0,,,,,,10,wg-a,,,,AAXX 16094 07222 12730 80402 10170 20160 30085 40116 50001 60007 71062 8557/ 90900=
07222,1997-05-16 12:00:00,20,1011,-0.5,73,15,10000,7.408,,,20,,,,,,,,,,1,wg-a,,,,AAXX 16124 07222 02560 50204 10200 20150 30080 40110 58005 60016 70162 84801 91200 333 61000=
07222,1997-05-16 18:00:00,22,1010.1,0,57,13,15000,3.704,,,220,15.3,23.1,,,,,,,,,wg-a,,,,AAXX 16184 07222 12565 72202 10220 20130 30071 40101 50000 60006 84982 91800 333 10231 20153=
07222,1997-05-16 21:00:00,18,1011,0.8,83,15,10000,7.408,,,130,,,,,,,,,,,wg-a,,,,AAXX 16214 07222 12/60 /1304 10180 20150 30079 40110 50008 60006 92100=
07222,1997-05-17 00:00:00,15,1011,0,94,14,15000,3.704,,,70,,,,,,,,,,,wg-a,,,,AAXX 17004 07222 12865 60702 10150 20140 30079 40110 50000 60006 82071 90000=
07222,1997-05-17 03:00:00,15,1009.9,-1.1,100,15,500,7.408,,,140,,,,,,,,,,,wg-a,,,,AAXX 17034 07222 32/00 /1404 10150 20150 30068 40099 58011 90300=
07222,1997-05-17 06:00:00,15,1010.2,0.3,94,14,500,3.704,,,260,14.6,22,,,,,3,,,1,wg-a,,,,AAXX 17064 07222 02200 82602 10150 20140 30071 40102 53003 60006 70162 8657/ 90600 333 10220 20146 60034=
07222,1997-05-17 09:00:00,17,1011.3,1.1,88,15,8000,11.112,,,200,,,,,,,,,,,wg-a,,,,AAXX 17094 07222 12458 62006 10170 20150 30082 40113 51011 60006 86800 90900=
07222,1997-05-17 12:00:00,19,1010.4,-0.8,73,14,12000,18.52,,,190,,,,,,,,,,,wg-a,,,,AAXX 17124 07222 12562 /1910 10190 20140 30074 40104 58008 60006 86800 91200=
07222,1997-05-17 15:00:00,19,1010.2,-0.2,73,14,15000,18.52,,,170,,,,0,,,,,,1,wg-a,,,,AAXX 17154 07222 12565 61710 10190 20140 30072 40102 58002 60007 70186 85831 91500=
07222,1997-05-17 18:00:00,17,1010.4,0.1,68,11,18000,25.928,,,170,14.7,19.7,,,,,,,,1,wg-a,,,,AAXX 17184 07222 12568 31714 10170 20110 30073 40104 53001 60006 70186 83201 91800 333 10197 20147=
07222,1997-05-17 21:00:00,14,1010.8,0.4,88,12,10000,14.816,,,150,,,,,,,,,,,wg-a,,,,AAXX 17214 07222 12460 /1508 10140 20120 30077 40108 51004 60006 85800 92100=
07222,1997-05-18 00:00:00,14,1010.8,-0,94,13,10000,3.704,,,180,,,,,,,,,,,wg-a,,,,AAXX 18004 07222 12460 71802 10140 20130 30077 40108 55000 60006 878// 90000=
07222,1997-05-18 03:00:00,14,1011.3,0.5,94,13,6000,14.816,,,250,,,,0,,,,,,51,wg-a,,,,AAXX 18034 07222 12356 72508 10140 20130 30082 40113 53005 60007 75152 877// 90300=
07222,1997-05-18 06:00:00,13,1011.9,0.6,94,12,10000,11.112,,,230,12.6,16.9,,,,,1,,,3,wg-a,,,,AAXX 18064 07222 02460 72306 10130 20120 30088 40119 53006 60006 70352 8757/ 90600 333 10169 20126 60014=
07222,1997-05-18 09:00:00,17,1012.1,0.2,72,12,20000,11.112,,,190,,,,,,,,,,,wg-a,,,,AAXX 18094 07222 12570 /1906 10170 20120 30090 40121 50002 60006 86800 90900=
07222,1997-05-18 12:00:00,19,1011.3,-0.7,64,12,20000,22.224,,,180,,,,,,,,,,,wg-a,,,,AAXX 18124 07222 12570 /1812 10190 20120 30083 40113 58007 60006 85201 91200=
07222,1997-05-18 18:00:00,19,1008.3,-1.1,68,13,20000,14.816,,,140,13.4,21.5,,,,,,,,,wg-a,,,,AAXX 18184 07222 12570 81408 10190 20130 30053 40083 56011 60006 81178 91800 333 10215 20134=
07222,1997-05-18 19:00:00,19,1008.3,-1.1,68,13,11000,0,,,140,13.4,21.5,,,,,,,,,wg-a,,,,AAXX 18194 07222 12561 814// 10190 20130 40083 56011 60006 81178 91900 333 10215 20134=
07222,1997-05-18 21:00:00,18,1007.6,-0.8,68,12,20000,18.52,,,130,,,,,,,,,,,wg-a,,,,AAXX 18214 07222 12670 81310 10180 20120 30045 40076 56008 60006 818// 92100=
07222,1997-05-19 00:00:00,17,1005.7,-1.9,72,12,12000,18.52,,,120,,,,,,,,,,,wg-a,,,,AAXX 19004 07222 12762 81210 10170 20120 30026 40057 57019 60006 8150/ 90000=
07222,1997-05-19 03:00:00,15,1004.3,-1.4,94,14,12000,18.52,,,140,,,,1,,,,,,60,wg-a,,,,AAXX 19034 07222 12562 81410 10150 20140 30012 40043 58014 60017 76062 8150/ 90300=
07222,1997-05-19 06:00:00,14,1004.4,0.1,94,13,10000,18.52,,,180,14.3,19.2,,,,,,,,21,wg-a,,,,AAXX 19064 07222 02460 81810 10140 20130 30013 40044 53001 61000 72162 8557/ 90600 333 10192 20143 6002=
07222,1997-05-19 09:00:00,17,1005.8,1.4,72,12,20000,18.52,,,200,,,,1,,,,,,1,wg-a,,,,AAXX 19094 07222 12470 62010 10170 20120 30027 40058 51014 60017 70186 86800 90900=
07222,1997-05-19 12:00:00,20,1006.6,0.9,60,12,500,22.224,,,220,,,,,,,,,,1,wg-a,,,,AAXX 19124 07222 12500 22212 10200 20120 30036 40066 51009 60016 70186 82232 91200=
07222,1997-05-19 15:00:00,17,1007.7,1,63,10,20000,18.52,,,270,,,,,,,,,,,wg-a,,,,AAXX 19154 07222 12670 72710 10170 20100 30046 40077 51010 60006 8583/ 91500=
07222,1997-05-19 18:00:00,19,1006.2,-1.4,56,10,500,11.112,,,210,14.3,19.8,,,,,,,,,wg-a,,,,AAXX 19184 07222 12600 32106 10190 20100 30032 40062 57014 60006 83200 91800 333 10198 20143=
07222,1997-05-19 21:00:00,14,1006.8,0.5,77,10,20000,11.112,,,180,,,,,,,,,,,wg-a,,,,AAXX 19214 07222 12670 31806 10140 20100 30037 40068 53005 60006 82541 92100=
07222,1997-05-20 00:00:00,14,1006.6,-0.2,88,12,10000,14.816,,,210,,,,,,,,,,,wg-a,,,,AAXX 20004 07222 12560 82108 10140 20120 30035 40066 58002 60006 8557/ 90000=
07222,1997-05-20 03:00:00,12,1005.4,-1.2,100,12,10000,18.52,,,190,,,,1,,,,,,61,wg-a,,,,AAXX 20034 07222 12460 81910 10120 20120 30023 40054 56012 60017 76162 8557/ 90300=
07222,1997-05-20 06:00:00,12,1005.7,0.3,100,12,15000,18.52,,,220,11.2,18.5,,,,,,,,25,wg-a,,,,AAXX 20064 07222 02465 72210 10120 20120 30026 40057 50003 61000 72586 84940 90600 333 10185 20112 6004=
07222,1997-05-20 09:00:00,13,1006.5,0.8,94,12,7000,18.52,,,260,,,,1,,,,,,80,wg-a,,,,AAXX 20094 07222 12457 72610 10130 20120 30034 40065 53008 60017 78086 879// 90900=
07222,1997-05-20 12:00:00,14,1007.3,0.8,88,12,10000,25.928,,,230,,,,4,,,,,,21,wg-a,,,,AAXX 20124 07222 02560 72314 10140 20120 30042 40073 53008 60056 72186 86203 91200 333 60047=
07222,1997-05-20 15:00:00,15,1008.1,0.8,77,11,20000,22.224,,,240,,,,,,,,,,,wg-a,,,,AAXX 20154 07222 12570 72412 10150 20110 30050 40081 52008 60006 85231 91500=
07222,1997-05-20 18:00:00,14,1008.9,0.8,94,13,20000,22.224,,,250,11.9,16.2,,1,,,,,,,wg-a,,,,AAXX 20184 07222 02470 /2512 10140 20130 30058 40089 53008 60006 85230 91800 333 10162 20119 60017=
07222,1997-05-20 21:00:00,14,1010,1.1,82,11,15000,22.224,,,250,,,,,,,,,,,wg-a,,,,AAXX 20214 07222 12465 72512 10140 20110 30069 40100 53011 60006 85201 92100=
07222,1997-05-21 00:00:00,13,1010.3,0.3,88,11,15000,22.224,,,260,,,,0,,,,,,25,wg-a,,,,AAXX 21004 07222 02465 72612 10130 20110 30072 40103 53003 60016 72586 878// 90000 333 60007=
07222,1997-05-21 03:00:00,13,1010.1,-0.2,82,10,15000,25.928,,,260,,,,,,,,,,,wg-a,,,,AAXX 21034 07222 12465 72614 10130 20100 30070 40101 56002 60006 878// 90300=
07222,1997-05-21 06:00:00,12,1011.1,1,100,12,20000,18.52,,,260,11.7,14.4,,,,,,,,21,wg-a,,,,AAXX 21064 07222 02370 72610 10120 20120 30080 40111 53010 61000 72186 8583/ 90600 333 10144 20117 6007=
07222,1997-05-21 12:00:00,16,1013.5,1.3,77,12,25000,25.928,,,260,,,,,,,,,,1,wg-a,,,,AAXX 21124 07222 02475 72614 10160 20120 30104 40135 51013 61000 70186 85802 91200 333 6100=
07222,1997-05-21 15:00:00,17,1014,0.5,72,12,25000,29.632,,,270,,,,,,,,,,,wg-a,,,,AAXX 21154 07222 12475 /2716 10170 20120 30109 40140 51005 60006 86800 91500=
07222,1997-05-21 18:00:00,15,1015,1,72,10,25000,25.928,,,270,12.2,17.1,,,,,,,,,wg-a,,,,AAXX 21184 07222 12575 52714 10150 20100 30119 40150 53010 60006 84130 91800 333 10171 20122=
07222,1997-05-21 21:00:00,12,1016.4,1.4,94,11,25000,11.112,,,240,,,,,,,,,,,wg-a,,,,AAXX 21214 07222 12475 32406 10120 20110 30133 40164 53014 60006 83800 92100=
07222,1997-05-22 00:00:00,10,1016.5,0,93,9,25000,11.112,,,250,,,,0,,,,,,,wg-a,,,,AAXX 22004 07222 02/75 12506 10100 20090 30133 40165 50000 60006 81040 90000 333 60007=
07222,1997-05-22 03:00:00,10,1016.3,-0.2,100,10,20000,7.408,,,230,,,,,,,,,,,wg-a,,,,AAXX 22034 07222 12570 72304 10100 20100 30131 40163 56002 60006 875// 90300=
07222,1997-05-22 06:00:00,12,1016.6,0.4,94,11,7000,7.408,,,250,9.3,15.2,,,,,,,,,wg-a,,,,AAXX 22064 07222 02457 72504 10120 20110 30135 40166 53004 60006 90600 333 10152 20093 60004=
07222,1997-05-22 09:00:00,14,1017.2,0.6,88,12,15000,7.408,,,290,,,,0,,,,,,3,wg-a,,,,AAXX 22094 07222 12565 72904 10140 20120 30141 40172 51006 60007 70362 878// 90900=
07222,1997-05-22 12:00:00,15,1017.3,0.1,77,11,20000,7.408,,,280,,,,,,,,,,1,wg-a,,,,AAXX 22124 07222 12670 72804 10150 20110 30142 40173 50001 60016 70162 878// 91200=
07222,1997-05-22 18:00:00,17,1015.9,-0.1,63,10,25000,11.112,,,270,11.6,18.4,,,,,,,,,wg-a,,,,AAXX 22184 07222 12675 52706 10170 20100 30128 40159 55001 60006 82201 91800 333 10184 20116=
07222,1997-05-22 21:00:00,13,1016,0.1,82,10,25000,3.704,,,300,,,,,,,,,,,wg-a,,,,AAXX 22214 07222 12/75 73002 10130 20100 30129 40160 51001 60006 80002 92100=
07222,1997-05-23 00:00:00,13,1015.1,-0.9,82,10,20000,3.704,,,60,,,,,,,,,,,wg-a,,,,AAXX 23004 07222 12770 70602 10130 20100 30120 40151 56009 60006 825/2 90000=
07222,1997-05-23 03:00:00,13,1014.6,-0.5,88,11,15000,7.408,,,60,,,,,,,,,,,wg-a,,,,AAXX 23034 07222 12/65 70604 10130 20110 30115 40146 58005 60006 84032 90300=
07222,1997-05-23 06:00:00,13,1014.8,0.2,88,11,12000,11.112,,,80,11.5,16.4,,,,,,,,,wg-a,,,,AAXX 23064 07222 02/62 60806 10130 20110 30117 40148 53002 60006 86030 90600 333 10164 20115 60004=
07222,1997-05-23 09:00:00,19,1014.4,-0.4,60,11,15000,22.224,,,120,,,,,,,,,,,wg-a,,,,AAXX 23094 07222 12565 /1212 10190 20110 30113 40144 56004 60006 81101 90900=
07222,1997-05-23 12:00:00,21,1014.3,0,53,11,20000,25.928,,,80,,,,,,,,,,,wg-a,,,,AAXX 23124 07222 12670 60814 10210 20110 30113 40143 50000 60006 84202 91200=
07222,1997-05-23 15:00:00,21,1013.8,-0.5,53,11,20000,25.928,,,70,,,,,,,,,,,wg-a,,,,AAXX 23154 07222 12670 70714 10210 20110 30108 40138 58005 60006 84202 91500=
07222,1997-05-23 18:00:00,21,1013.5,-0.3,53,11,11000,25.928,,,70,12.9,22.2,,,,,,,,,wg-a,,,,AAXX 23184 07222 12/61 /0714 10210 20110 30105 40135 55003 60006 91800 333 10222 20129=
07222,1997-05-23 21:00:00,17,1015.1,1.5,68,11,20000,22.224,,,60,,,,,,,,,,,wg-a,,,,AAXX 23214 07222 12/70 50612 10170 20110 30120 40151 51015 60006 83032 92100=
07222,1997-05-24 00:00:00,15,1015.8,0.7,72,10,20000,25.928,,,60,,,,,,,,,,,wg-a,,,,AAXX 24004 07222 12/70 50614 10150 20100 30127 40158 51007 60006 80002 90000=
07222,1997-05-24 03:00:00,13,1015.2,-0.6,77,9,15000,29.632,,,60,,,,,,,,,,,wg-a,,,,AAXX 24034 07222 12/65 70616 10130 20090 30121 40152 58006 60006 8707/ 90300=
07222,1997-05-24 06:00:00,12,1015.6,0.4,76,8,10000,31.484,,,60,11.7,20.9,,,,,,,,,wg-a,,,,AAXX 24064 07222 02760 60617 10120 20080 30125 40156 50004 60006 81531 90600 333 10209 20117 60004=
07222,1997-05-24 09:00:00,13,1017.2,1.6,82,10,15000,18.52,,,60,,,,0,,,,,,61,wg-a,,,,AAXX 24094 07222 12765 80610 10130 20100 30141 40172 52016 60007 76162 8557/ 90900=
07222,1997-05-24 12:00:00,15,1017.3,0.1,82,12,15000,18.52,,,50,,,,1,,,,,,61,wg-a,,,,AAXX 24124 07222 02665 80510 10150 20120 30142 40173 50001 60016 76162 8457/ 91200 333 60017=
07222,1997-05-24 15:00:00,18,1018.3,1,64,11,15000,25.928,,,70,,,,,,,,,,1,wg-a,,,,AAXX 24154 07222 02765 80714 10180 20110 30152 40183 53010 61000 70162 8657/ 91500 333 ////=
07222,1997-05-24 18:00:00,18,1018.2,-0.1,64,11,25000,29.632,,,60,11.7,17.8,,,,,,,,1,wg-a,,,,AAXX 24184 07222 12775 60616 10180 20110 30151 40182 55001 60006 70162 86500 91800 333 10178 20117=
07222,1997-05-25 00:00:00,14,1020.5,0.3,67,8,20000,18.52,,,50,,,,,,,,,,,wg-a,,,,AAXX 25004 07222 12/70 00510 10140 20080 30174 40205 50003 60006 80000 90000=
07222,1997-05-25 03:00:00,12,1020.5,-0.1,67,6,20000,22.224,,,60,,,,,,,,,,,wg-a,,,,AAXX 25034 07222 12/70 00612 10120 20060 30173 40205 55001 60006 80000 90300=
07222,1997-05-25 06:00:00,11,1020.9,0.4,71,6,25000,29.632,,,60,10.8,17.7,,,,,1,,,,wg-a,,,,AAXX 25064 07222 02/75 70616 10110 20060 30177 40209 53004 60006 80002 90600 333 10177 20108 60014=
07222,1997-05-25 09:00:00,16,1021.1,0.3,59,8,25000,29.632,,,50,,,,,,,,,,,wg-a,,,,AAXX 25094 07222 12/75 70516 10160 20080 30180 40211 50003 60006 80002 90900=
07222,1997-05-25 12:00:00,21,1020.3,-0.8,49,10,500,29.632,,,50,,,,,,,,,,,wg-a,,,,AAXX 25124 07222 12/00 50516 10210 20100 30172 40203 58008 60006 80002 91200=
07222,1997-05-25 15:00:00,23,1019.5,-0.7,38,8,500,29.632,,48.152,60,,,,,,,,,,,wg-a,,,,AAXX 25154 07222 12/00 40616 10230 20080 30165 40195 56007 60006 80002 91500 333 91026=
07222,1997-05-25 18:00:00,22,1019.5,-0,41,8,500,25.928,,,60,11.2,23.2,,,,,,,,,wg-a,,,,AAXX 25184 07222 12/00 30614 10220 20080 30165 40195 55000 60006 80002 91800 333 10232 20112=
07222,1997-05-25 21:00:00,18,1020.8,1.2,49,7,20000,14.816,,,60,,,,,,,,,,,wg-a,,,,AAXX 25214 07222 12/70 30608 10180 20070 30177 40208 53012 60006 80002 92100=
07222,1997-05-26 00:00:00,15,1021.5,0.7,59,7,10000,22.224,,,60,,,,,,,,,,,wg-a,,,,AAXX 26004 07222 12/60 /0612 10150 20070 30184 40215 51007 60006 90000=
07222,1997-05-26 03:00:00,13,1020.9,-0.7,67,7,20000,22.224,,,60,,,,,,,,,,,wg-a,,,,AAXX 26034 07222 12/70 30612 10130 20070 30177 40209 55007 60006 80002 90300=
07222,1997-05-26 06:00:00,12,1021.6,0.7,67,6,15000,22.224,,,60,11.6,22,,,,,,,,,wg-a,,,,AAXX 26064 07222 02/65 50612 10120 20060 30184 40216 53007 60006 80001 90600 333 10220 20116 60004=
07222,1997-05-26 09:00:00,18,1021.5,-0,52,8,15000,25.928,,,80,,,,,,,,,,,wg-a,,,,AAXX 26094 07222 12/65 30814 10180 20080 30184 40215 55000 60006 80001 90900=
07222,1997-05-26 12:00:00,23,1021.2,-0.2,41,9,20000,25.928,,,70,,,,,,,,,,,wg-a,,,,AAXX 26124 07222 12/70 10714 10230 20090 30182 40212 55002 60006 80001 91200=
07222,1997-05-26 18:00:00,24,1018.7,-1.2,31,6,20000,22.224,,,60,11.7,24.9,,,,,,,,,wg-a,,,,AAXX 26184 07222 12/70 10612 10240 20060 30157 40187 58012 60006 80001 91800 333 10249 20117=
07222,1997-05-26 21:00:00,19,1019.7,0.9,49,8,20000,14.816,,,60,,,,,,,,,,,wg-a,,,,AAXX 26214 07222 12/70 10608 10190 20080 30166 40197 51009 60006 80001 92100=
07222,1997-05-27 00:00:00,16,1019.3,-0.4,59,8,20000,14.816,,,60,,,,,,,,,,,wg-a,,,,AAXX 27004 07222 12/70 00608 10160 20080 30162 40193 58004 60006 80000 90000=
07222,1997-05-27 03:00:00,14,1018.4,-0.9,67,8,20000,22.224,,,60,,,,,,,,,,,wg-a,,,,AAXX 27034 07222 12/70 10612 10140 20080 30153 40184 56009 60006 80001 90300=
07222,1997-05-27 06:00:00,14,1018.6,0.2,63,7,22000,18.52,,,60,13.1,24.1,,,,,,,,,wg-a,,,,AAXX 27064 07222 02/72 10610 10140 20070 30155 40186 53002 60006 81031 90600 333 10241 20131 60004=
07222,1997-05-27 09:00:00,21,1018.5,-0.1,43,8,20000,29.632,,,80,,,,,,,,,,,wg-a,,,,AAXX 27094 07222 12/70 10816 10210 20080 30154 40185 58001 60006 81080 90900=
07222,1997-05-27 12:00:00,24,1017.7,-0.7,34,7,25000,31.484,,50.004,80,,,,,,,,,,,wg-a,,,,AAXX 27124 07222 12/75 10817 10240 20070 30147 40177 58007 60006 81030 91200 333 91027=
07222,1997-05-28 00:00:00,16,1019.5,0.7,63,9,25000,25.928,,,60,,,,,,,,,,,wg-a,,,,AAXX 28004 07222 12/75 10614 10160 20090 30164 40195 51007 60006 81030 90000=
07222,1997-05-28 03:00:00,13,1019.5,0,77,9,2000,25.928,,,60,,,,,,,,,,,wg-a,,,,AAXX 28034 07222 12/20 /0614 10130 20090 30164 40195 50000 60006 81030 90300=
07222,1997-05-28 06:00:00,12,1020.3,0.7,71,7,15000,25.928,,,60,11.6,23.3,,,,,,,,,wg-a,,,,AAXX 28064 07222 02765 20614 10120 20070 30171 40203 52007 60006 81501 90600 333 10233 20116 60004=
07222,1997-05-28 09:00:00,16,1021,0.8,59,8,20000,29.632,,,60,,,,,,,,,,,wg-a,,,,AAXX 28094 07222 12/70 20616 10160 20080 30179 40210 50008 60006 81081 90900=
07222,1997-05-28 12:00:00,20,1020.8,-0.2,40,6,25000,31.484,,,70,,,,,,,,,,,wg-a,,,,AAXX 28124 07222 12/75 10717 10200 20060 30177 40208 58002 60006 80001 91200=
07222,1997-05-28 18:00:00,20,1019.9,-0,35,4,10000,31.484,,,80,11.7,22.1,,,,,,,,,wg-a,,,,AAXX 28184 07222 12/60 /0817 10200 20040 30168 40199 55000 60006 91800 333 10221 20117=
07222,1997-05-28 21:00:00,16,1021.5,1.6,51,6,25000,22.224,,,70,,,,,,,,,,,wg-a,,,,AAXX 28214 07222 12/75 10712 10160 20060 30184 40215 53016 60006 80001 92100=
07222,1997-05-29 00:00:00,14,1021.7,0.2,55,5,25000,22.224,,,60,,,,,,,,,,,wg-a,,,,AAXX 29004 07222 12/75 00612 10140 20050 30186 40217 53002 60006 80000 90000=
07222,1997-05-29 03:00:00,12,1021.3,-0.5,67,6,25000,18.52,,,60,,,,,,,,,,,wg-a,,,,AAXX 29034 07222 12/75 00610 10120 20060 30181 40213 57005 60006 80000 90300=
07222,1997-05-29 06:00:00,12,1021.6,0.3,67,6,25000,14.816,,,60,10.7,20.4,,,,,,,,,wg-a,,,,AAXX 29064 07222 02/75 10608 10120 20060 30184 40216 53003 60006 80001 90600 333 10204 20107 60004=
07222,1997-05-29 09:00:00,17,1021.4,-0.1,52,7,25000,25.928,,,50,,,,,,,,,,,wg-a,,,,AAXX 29094 07222 12/75 20514 10170 20070 30183 40214 58001 60006 80001 90900=
07222,1997-05-29 12:00:00,23,1020.1,-1.2,29,4,10000,29.632,,,60,,,,,,,,,,,wg-a,,,,AAXX 29124 07222 12/60 /0616 10230 20040 30171 40201 57012 60006 91200=
07222,1997-05-29 15:00:00,26,1019.7,-0.4,28,6,10000,29.632,,,70,,,,,,,,,,,wg-a,,,,AAXX 29154 07222 12/60 /0716 10260 20060 30167 40197 56004 60006 91500=
07222,1997-05-29 18:00:00,25,1019.5,-0.2,32,7,500,25.928,,,70,11.9,26,,,,,,,,,wg-a,,,,AAXX 29184 07222 12/00 20714 10250 20070 30165 40195 55002 60006 80001 91800 333 10260 20119=
07222,1997-05-29 21:00:00,20,1021,1.4,43,7,500,22.224,,,70,,,,,,,,,,,wg-a,,,,AAXX 29214 07222 12/00 30712 10200 20070 30179 40210 52014 60006 80001 92100=
07222,1997-05-30 00:00:00,18,1020.7,-0.3,49,7,25000,22.224,,,70,,,,,,,,,,,wg-a,,,,AAXX 30004 07222 12/75 30712 10180 20070 30176 40207 58003 60006 80001 90000=
07222,1997-05-30 03:00:00,16,1020.6,-0.1,55,7,25000,18.52,,,80,,,,,,,,,,,wg-a,,,,AAXX 30034 07222 12/75 50810 10160 20070 30175 40206 58001 60006 80001 90300=
07222,1997-05-30 06:00:00,16,1021.1,0.5,55,7,25000,22.224,,,70,14.5,24.6,,,,,,,,,wg-a,,,,AAXX 30064 07222 02/75 60712 10160 20070 30180 40211 50005 60006 80002 90600 333 10246 20145 60004=
07222,1997-05-30 09:00:00,21,1020.8,-0.3,46,9,25000,25.928,,,80,,,,,,,,,,,wg-a,,,,AAXX 30094 07222 12/75 60814 10210 20090 30177 40208 58003 60006 80002 90900=
07222,1997-05-30 12:00:00,26,1020,-0.7,30,7,25000,29.632,,,90,,,,,,,,,,,wg-a,,,,AAXX 30124 07222 12/75 60916 10260 20070 30170 40200 58007 60006 80002 91200=
07222,1997-05-30 15:00:00,28,1018.6,-1.4,25,6,25000,31.484,,,80,,,,,,,,,,,wg-a,,,,AAXX 30154 07222 12/75 60817 10280 20060 30156 40186 56014 60006 80002 91500=
07222,1997-05-30 18:00:00,25,1017.5,-1.1,44,12,25000,25.928,,,60,15.6,28.1,,,,,,,,,wg-a,,,,AAXX 30184 07222 12/75 70614 10250 20120 30145 40175 56011 60006 80002 91800 333 10281 20156=
07222,1997-05-30 21:00:00,22,1017.8,0.3,43,9,25000,25.928,,,70,,,,,,,,,,,wg-a,,,,AAXX 30214 07222 12/75 50714 10220 20090 30148 40178 53003 60006 80002 92100=
07222,1997-05-31 00:00:00,19,1017.5,-0.4,49,8,25000,25.928,,,60,,,,,,,,,,,wg-a,,,,AAXX 31004 07222 12/75 30614 10190 20080 30144 40175 58004 60006 80001 90000=
07222,1997-05-31 03:00:00,16,1016.1,-1.4,55,7,25000,22.224,,,60,,,,,,,,,,,wg-a,,,,AAXX 31034 07222 12/75 40612 10160 20070 30130 40161 56014 60006 80001 90300=
07222,1997-05-31 06:00:00,14,1015.6,-0.5,58,6,25000,22.224,,,60,13.9,25.4,,,,,,,,,wg-a,,,,AAXX 31064 07222 02/75 30612 10140 20060 30125 40156 56005 60006 80//1 90600 333 10254 20139 60004=
07222,1997-05-31 09:00:00,20,1014.4,-1.2,43,7,25000,25.928,,,50,,,,,,,,,,,wg-a,,,,AAXX 31094 07222 12/75 20514 10200 20070 30113 40144 57012 60006 80001 90900=
07222,1997-05-31 12:00:00,24,1012.6,-1.7,29,5,25000,31.484,,51.856,60,,,,,,,,,,,wg-a,,,,AAXX 31124 07222 12/75 50617 10240 20050 30096 40126 58017 60006 80001 91200 333 91028=
07222,1997-05-31 15:00:00,25,1012,-0.6,18,-1,25000,38.892,,,80,,,,,,,,,,,wg-a,,,,AAXX 31154 07222 12/75 40821 10250 21010 30090 40120 58006 60006 80001 91500=
07222,1997-05-31 18:00:00,24,1011.3,-0.7,24,2,25000,29.632,,,60,14.3,25.7,,,,,,,,,wg-a,,,,AAXX 31184 07222 12/75 30616 10240 20020 30083 40113 56007 60006 80001 91800 333 10257 20143=
07222,1997-06-01 00:00:00,16,1012,-0.8,36,1,25000,22.224,,,60,,,,,,,,,,,wg-a,,,,AAXX 01004 07222 12/75 00612 10160 20010 30089 40120 58008 60006 80000 90000=
07222,1997-06-01 03:00:00,14,1010.9,-1.1,41,1,25000,22.224,,40.744,50,,,,,,,,,,,wg-a,,,,AAXX 01034 07222 12/75 00512 10140 20010 30078 40109 56011 60006 80000 90300 333 91022=
07222,1997-06-01 06:00:00,13,1010.7,-0.2,44,1,500,25.928,,,50,12.1,23.7,,,,,,,,,wg-a,,,,AAXX 01064 07222 02/00 00514 10130 20010 30076 40107 55002 60006 80000 90600 333 10237 20121 60004=
07222,1997-06-01 09:00:00,16,1010.4,-0.3,36,1,500,38.892,,61.116,60,,,,,,,,,,,wg-a,,,,AAXX 01094 07222 12/00 00621 10160 20010 30073 40104 58003 60006 80000 90900 333 91033=
07222,1997-06-01 12:00:00,19,1009.7,-0.7,24,-2,500,42.596,,64.82,70,,,,,,,,,,,wg-a,,,,AAXX 01124 07222 12/00 00723 10190 21020 30066 40097 56007 60006 80000 91200 333 91035=
07222,1997-06-01 15:00:00,20,1009.3,-0.3,23,-2,500,42.596,,68.524,60,,,,,,,,,,,wg-a,,,,AAXX 01154 07222 12/00 00623 10200 21020 30063 40093 55003 60006 80000 91500 333 91037=
07222,1997-06-01 18:00:00,18,1009.7,0.3,34,2,500,31.484,,51.856,60,12.6,20.4,,,,,,,,,wg-a,,,,AAXX 01184 07222 12700 10617 10180 20020 30066 40097 53003 60006 81200 91800 333 10204 20126 91028=
07222,1997-06-01 21:00:00,14,1010.9,1.2,51,4,25000,18.52,,,20,,,,,,,,,,,wg-a,,,,AAXX 01214 07222 12775 10210 10140 20040 30078 40109 53012 60006 81500 92100=
07222,1997-06-02 00:00:00,9,1010.3,-0.7,76,5,25000,14.816,,,360,,,,,,,,,,,wg-a,,,,AAXX 02004 07222 12/75 03608 10090 20050 30071 40103 56007 60006 80000 90000=
07222,1997-06-02 06:00:00,9,1009.7,0.6,81,6,12000,7.408,,,40,5.8,18.3,,,,,,,,,wg-a,,,,AAXX 02064 07222 02/62 00404 10090 20060 30065 40097 51006 60006 80000 90600 333 10183 20058 60004=
07222,1997-06-02 09:00:00,16,1010.6,1,59,8,15000,7.408,,,200,,,,,,,,,,,wg-a,,,,AAXX 02094 07222 12/65 02004 10160 20080 30075 40106 52010 60006 80000 90900=
07222,1997-06-02 12:00:00,19,1011.1,0.5,43,6,20000,14.816,,,200,,,,,,,,,,,wg-a,,,,AAXX 02124 07222 12670 /2008 10190 20060 30080 40111 51005 60006 81100 91200=
07222,1997-06-02 18:00:00,16,1013.1,1.1,59,8,25000,14.816,,,270,9.4,19.8,,,,,,,,,wg-a,,,,AAXX 02184 07222 12775 12708 10160 20080 30100 40131 51011 60006 81100 91800 333 10198 20094=
07222,1997-06-02 21:00:00,11,1014.2,1.1,82,8,20000,7.408,,,240,,,,,,,,,,,wg-a,,,,AAXX 02214 07222 12/70 02404 10110 20080 30111 40142 51011 60006 80000 92100=
07222,1997-06-03 00:00:00,9,1014.8,0.5,87,7,20000,0,,,0,,,,,,,,,,,wg-a,,,,AAXX 03004 07222 12/70 00000 10090 20070 30116 40148 50005 60006 80000 90000=
07222,1997-06-03 03:00:00,7,1015,0.2,100,7,15000,3.704,,,150,,,,,,,,,,,wg-a,,,,AAXX 03034 07222 12/65 31502 10070 20070 30118 40150 52002 60006 80001 90300=
07222,1997-06-03 06:00:00,9,1015.8,0.8,100,9,9000,7.408,,,150,5.5,15.8,,,,,,,,,wg-a,,,,AAXX 03064 07222 02659 31504 10090 20090 30126 40158 53008 60006 81501 90600 333 10158 20055 60004=
07222,1997-06-03 09:00:00,17,1016.3,0.6,59,9,15000,11.112,,,200,,,,,,,,,,,wg-a,,,,AAXX 03094 07222 12665 42006 10170 20090 30132 40163 51006 60006 84200 90900=
07222,1997-06-03 12:00:00,20,1016.6,0.3,43,7,11000,18.52,,,210,,,,,,,,,,,wg-a,,,,AAXX 03124 07222 12/61 /2110 10200 20070 30135 40166 51003 60006 91200=
07222,1997-06-03 15:00:00,19,1016.8,0.2,49,8,15000,11.112,,,230,,,,,,,,,,,wg-a,,,,AAXX 03154 07222 12665 32306 10190 20080 30137 40168 50002 60006 83201 91500=
07222,1997-06-03 18:00:00,20,1016.2,-0.6,40,6,15000,11.112,,,260,9.5,20.5,,,,,,,,,wg-a,,,,AAXX 03184 07222 12/65 12606 10200 20060 30131 40162 56006 60006 80001 91800 333 10205 20095=
07222,1997-06-03 21:00:00,14,1017,0.8,72,9,15000,3.704,,,310,,,,,,,,,,,wg-a,,,,AAXX 03214 07222 12/65 13102 10140 20090 30139 40170 52008 60006 80001 92100=
07222,1997-06-04 00:00:00,13,1016.8,-0.2,72,8,15000,3.704,,,20,,,,,,,,,,,wg-a,,,,AAXX 04004 07222 12/65 30202 10130 20080 30137 40168 57002 60006 80001 90000=
07222,1997-06-04 03:00:00,11,1015.7,-1.1,87,9,15000,7.408,,,30,,,,,,,,,,,wg-a,,,,AAXX 04034 07222 12/65 50304 10110 20090 30126 40157 57011 60006 80001 90300=
07222,1997-06-04 06:00:00,14,1014.7,-1,72,9,15000,7.408,,,50,10.6,19.5,,,,,,,,,wg-a,,,,AAXX 04064 07222 02/65 30504 10140 20090 30116 40147 56010 60006 80001 90600 333 10195 20106 60004=
07222,1997-06-04 09:00:00,20,1013.1,-1.6,49,9,15000,18.52,,,70,,,,,,,,,,,wg-a,,,,AAXX 04094 07222 12/65 70710 10200 20090 30100 40131 56016 60006 82032 90900=
07222,1997-06-04 12:00:00,24,1012.1,-0.9,36,8,25000,18.52,,,90,,,,,,,,,,,wg-a,,,,AAXX 04124 07222 12/75 70910 10240 20080 30091 40121 58009 60006 83032 91200=
07222,1997-06-04 15:00:00,25,1009.6,-2.5,34,8,25000,14.816,,,110,,,,,,,,,,,wg-a,,,,AAXX 04154 07222 12775 61108 10250 20080 30066 40096 58025 60006 81232 91500=
07222,1997-06-04 18:00:00,24,1007.4,-2.2,41,10,25000,11.112,,,60,14.2,25.9,,,,,,,,,wg-a,,,,AAXX 04184 07222 12775 70606 10240 20100 30044 40074 56022 60006 82272 91800 333 10259 20142=
07222,1997-06-04 21:00:00,17,1006.5,-0.9,94,16,10000,11.112,,,330,,,,2,,,,,,61,wg-a,,,,AAXX 04214 07222 12560 83306 10170 20160 30035 40065 58009 60027 76162 8357/ 92100=
07222,1997-06-05 00:00:00,18,1003.6,-2.9,88,16,10000,11.112,,,40,,,,1,,,,,,1,wg-a,,,,AAXX 05004 07222 02660 80406 10180 20160 30006 40036 58029 60036 70162 8257/ 90000 333 60017=
07222,1997-06-05 03:00:00,17,1001.7,-1.9,88,15,10000,14.816,,,110,,,,,,,,,,,wg-a,,,,AAXX 05034 07222 12660 81108 10170 20150 39987 40017 56019 60006 8257/ 90300=
07222,1997-06-05 06:00:00,18,1000.3,-1.4,83,15,20000,14.816,,,120,16.9,24.3,,,,,3,,,,wg-a,,,,AAXX 05064 07222 02570 81208 10180 20150 39973 40003 58014 60006 8357/ 90600 333 10243 20169 60034=
07222,1997-06-05 12:00:00,16,1000.9,1.3,94,15,500,22.224,,,220,,,,0,,,,,,20,wg-a,,,,AAXX 05124 07222 02300 72212 10160 20150 39979 40009 53013 60016 72052 8767/ 91200 333 60007=
07222,1997-06-05 18:00:00,18,1002.9,1.3,77,14,25000,14.816,,,220,15.8,20.6,,,,,,,,1,wg-a,,,,AAXX 05184 07222 12575 72208 10180 20140 39999 40029 52013 60006 70165 878// 91800 333 10206 20158=
07222,1997-06-05 21:00:00,15,1003.7,0.7,94,14,15000,7.408,,,130,,,,,,,,,,,wg-a,,,,AAXX 05214 07222 12665 /1304 10150 20140 30006 40037 50007 60006 82531 92100=
07222,1997-06-06 00:00:00,14,1003.5,-0.2,94,13,15000,11.112,,,120,,,,,,,,,,,wg-a,,,,AAXX 06004 07222 12/65 41206 10140 20130 30004 40035 58002 60006 83031 90000=
07222,1997-06-06 06:00:00,17,1004,1.2,88,15,15000,14.816,,,170,13.4,17.6,,,,,,,,,wg-a,,,,AAXX 06064 07222 02/65 71708 10170 20150 30010 40040 53012 60006 87030 90600 333 10176 20134 60004=
07222,1997-06-06 09:00:00,21,1005.1,1.1,69,15,20000,22.224,,,170,,,,,,,,,,,wg-a,,,,AAXX 06094 07222 12770 61712 10210 20150 30021 40051 51011 60006 81534 90900=
07222,1997-06-06 12:00:00,26,1005,-0.1,48,14,25000,35.188,,,170,,,,,,,,,,,wg-a,,,,AAXX 06124 07222 12775 51719 10260 20140 30020 40050 58001 60006 81532 91200=
07222,1997-06-06 15:00:00,27,1004.2,-0.7,42,13,25000,42.596,,,180,,,,,,,,,,,wg-a,,,,AAXX 06154 07222 12/75 51823 10270 20130 30013 40042 57007 60006 82082 91500=
07222,1997-06-06 18:00:00,26,1004.5,0.2,45,13,25000,18.52,,,190,17.1,27.6,,,,,,,,,wg-a,,,,AAXX 06184 07222 12775 71910 10260 20130 30015 40045 53002 60006 8458/ 91800 333 10276 20171=
07222,1997-06-07 00:00:00,18,1007.3,1.7,94,17,15000,7.408,,,90,,,,3,,,,,,21,wg-a,,,,AAXX 07004 07222 02565 70904 10180 20170 30043 40073 50017 60036 72186 8587/ 90000 333 60037=
07222,1997-06-07 03:00:00,17,1005.9,-1.5,94,16,15000,14.816,,,120,,,,0,,,,,,21,wg-a,,,,AAXX 07034 07222 12565 71208 10170 20160 30028 40059 56015 60007 72122 8587/ 90300=
07222,1997-06-07 06:00:00,16,1008.4,2.5,94,15,10000,14.816,,,190,15.6,26.1,,,,,,,,61,wg-a,,,,AAXX 07064 07222 02760 81908 10160 20150 30053 40084 52025 61000 76162 8457/ 90600 333 10261 20156 6007=
07222,1997-06-07 12:00:00,23,1008.6,0.5,57,14,500,7.408,,,230,,,,,,,,,,3,wg-a,,,,AAXX 07124 07222 12600 /2304 10230 20140 30056 40086 50005 60006 70361 86300 91200=
07222,1997-06-07 15:00:00,24,1008.8,0.2,50,13,500,18.52,,,260,,,,0,,,,,,1,wg-a,,,,AAXX 07154 07222 12600 22610 10240 20130 30058 40088 51002 60007 70186 82200 91500=
07222,1997-06-07 17:00:00,22,1010.3,,46,10,500,22.224,,,280,,,,,,,,,,0,wg-a,,,,AAXX 07174 07222 32600 /2812 10220 20100 30073 40103 700// 91700=
07222,1997-06-07 18:00:00,22,1010.3,1.5,46,10,500,22.224,,,280,15.8,24.3,,,,,,,,1,wg-a,,,,AAXX 07184 07222 12600 /2812 10220 20100 30073 40103 53015 60006 70186 81100 91800 333 10243 20158=
07222,1997-06-07 21:00:00,17,1011.3,0.9,72,12,500,11.112,,,240,,,,,,,,,,,wg-a,,,,AAXX 07214 07222 12700 22406 10170 20120 30082 40113 53009 60006 82400 92100=
07222,1997-06-08 00:00:00,13,1013.2,1.9,94,12,500,11.112,,,160,,,,,,,,,,,wg-a,,,,AAXX 08004 07222 12/00 01606 10130 20120 30101 40132 51019 60006 80000 90000=
07222,1997-06-08 03:00:00,12,1013.2,-0,94,11,1500,11.112,,,170,,,,,,,,,,,wg-a,,,,AAXX 08034 07222 12715 21706 10120 20110 30101 40132 55000 60006 82500 90300=
07222,1997-06-08 06:00:00,14,1015.1,1.9,94,13,15000,7.408,,,170,11.4,21.4,,,,,1,,,,wg-a,,,,AAXX 08064 07222 02565 71704 10140 20130 30120 40151 53019 60006 87800 90600 333 10214 20114 60014=
07222,1997-06-08 12:00:00,20,1017.6,0.9,68,14,500,22.224,,,220,,,,0,,,,,,25,wg-a,,,,AAXX 08124 07222 02500 /2212 10200 20140 30145 40176 51009 60016 72586 86200 91200 333 60007=
07222,1997-06-08 15:00:00,21,1018.9,1.3,60,13,500,25.928,,,260,,,,,,,,,,,wg-a,,,,AAXX 08154 07222 12500 42614 10210 20130 30158 40189 52013 60006 84200 91500=
07222,1997-06-08 18:00:00,19,1020.3,1.4,68,13,500,18.52,,,270,13.8,21.3,,,,,,,,,wg-a,,,,AAXX 08184 07222 12600 /2710 10190 20130 30172 40203 51014 60006 81101 91800 333 10213 20138=
07222,1997-06-09 00:00:00,12,1022.1,0.3,94,11,15000,3.704,,,180,,,,,,,,,,,wg-a,,,,AAXX 09004 07222 12/65 21802 10120 20110 30189 40221 51003 60006 80001 90000=
07222,1997-06-09 03:00:00,10,1021.9,-0.2,100,10,10000,3.704,,,130,,,,0,,,,,,,wg-a,,,,AAXX 09034 07222 12/60 21302 10100 20100 30187 40219 57002 60007 80001 90300=
07222,1997-06-09 06:00:00,11,1022.4,0.5,100,11,2000,3.704,,,150,9,18.8,,,,,2,,,10,wg-a,,,,AAXX 09064 07222 02020 41502 10110 20110 30192 40224 53005 60006 71040 82601 90600 333 10188 20090 60024=
07222,1997-06-09 09:00:00,18,1022.6,0.3,77,14,12000,11.112,,,100,,,,,,,,,,,wg-a,,,,AAXX 09094 07222 12362 71006 10180 20140 30195 40226 50003 60006 81801 90900=
07222,1997-06-09 12:00:00,22,1020.6,-1.9,53,12,20000,14.816,,,90,,,,,,,,,,,wg-a,,,,AAXX 09124 07222 12/70 70908 10220 20120 30176 40206 56019 60006 80006 91200=
07222,1997-06-09 15:00:00,23,1019.5,-1.1,50,12,20000,22.224,,,90,,,,,,,,,,,wg-a,,,,AAXX 09154 07222 12770 70912 10230 20120 30165 40195 58011 60006 825/2 91500=
07222,1997-06-09 18:00:00,24,1018.1,-1.4,47,12,25000,22.224,,,70,11.4,24.8,,,,,,,,,wg-a,,,,AAXX 09184 07222 12/75 50712 10240 20120 30151 40181 58014 60006 83031 91800 333 10248 20114=
07222,1997-06-10 00:00:00,18,1016.3,-1.4,73,13,25000,14.816,,,60,,,,,,,,,,,wg-a,,,,AAXX 10004 07222 12/75 00608 10180 20130 30132 40163 58014 60006 80000 90000=
07222,1997-06-10 06:00:00,19,1013.4,-0.4,73,14,15000,11.112,,,120,18,24,,,,,,,,80,wg-a,,,,AAXX 10064 07222 02465 71206 10190 20140 30103 40134 55004 61000 78086 8296/ 90600 333 10240 20180 6100=
07222,1997-06-10 09:00:00,18,1013.1,-0.3,88,16,11000,11.112,,,120,,,,,,,,,,,wg-a,,,,AAXX 10094 07222 32/61 /1206 10180 20160 30100 40131 55003 90900=
07222,1997-06-10 12:00:00,20,1010.8,-2.2,88,18,10000,22.224,,,90,,,,3,,,,,,1,wg-a,,,,AAXX 10124 07222 02560 80912 10200 20180 30078 40108 58022 60056 70186 8796/ 91200 333 60037=
07222,1997-06-10 15:00:00,26,1008.9,-1.9,65,19,15000,18.52,,,140,,,,,,,,,,25,wg-a,,,,AAXX 10154 07222 02665 71410 10260 20190 30059 40089 56019 61000 72522 8687/ 91500 333 ////=
07222,1997-06-10 18:00:00,23,1009.2,0.3,78,19,2000,18.52,,,220,17.5,26.2,,,,,,,,,wg-a,,,,AAXX 10184 07222 12620 72210 10230 20190 30062 40092 53003 60006 8687/ 91800 333 10262 20175=
07222,1997-06-10 21:00:00,19,1009.6,0.4,88,17,10000,11.112,,,280,,,,,,,,,,0,wg-a,,,,AAXX 10214 07222 32/60 /2806 10190 20170 30060 40096 53004 700// 92100=
07222,1997-06-11 00:00:00,17,1009.1,-0.6,88,15,20000,3.704,,,60,,,,,,,,,,,wg-a,,,,AAXX 11004 07222 12770 40602 10170 20150 30060 40091 57006 60006 82530 90000=
07222,1997-06-11 03:00:00,16,1008.4,-0.7,94,15,12000,3.704,,,230,,,,,,,,,,17,wg-a,,,,AAXX 11034 07222 12762 72302 10160 20150 30053 40084 57007 60006 71791 8298/ 90300=
07222,1997-06-11 06:00:00,17,1008.1,-0.3,94,16,10000,0,,,0,15.6,22.4,,,,,5,,,3,wg-a,,,,AAXX 11064 07222 02760 /0000 10170 20160 30050 40081 55003 60006 70398 85980 90600 333 10224 20156 60054=
07222,1997-06-11 09:00:00,14,1009.2,1.1,100,14,6000,11.112,,,290,,,,21,,,,,,,wg-a,,,,AAXX 11094 07222 12/56 /2906 10140 20140 30061 40092 51011 60217 90900=
07222,1997-06-11 12:00:00,21,1009.6,0.5,78,17,10000,11.112,,,240,,,,0,,,,,,3,wg-a,,,,AAXX 11124 07222 02060 72406 10210 20170 30066 40096 51005 60216 70398 85861 91200 333 60007=
07222,1997-06-11 15:00:00,21,1009.6,0.5,78,17,10000,11.112,,,240,,,,0,,,,,,3,wg-a,,,,AAXX 11154 07222 02060 72406 10210 20170 30066 40096 51005 60216 70398 85861 91500 333 60007=
07222,1997-06-11 18:00:00,19,1010.1,0.1,78,15,500,25.928,,,240,11.3,22.6,,,,,,,,,wg-a,,,,AAXX 11184 07222 12500 72414 10190 20150 30071 40101 53001 60006 86380 91800 333 10226 20113=
07222,1997-06-11 21:00:00,16,1011.2,1,94,15,25000,14.816,,,210,,,,,,,,,,,wg-a,,,,AAXX 11214 07222 12575 /2108 10160 20150 30081 40112 52010 60006 85201 92100=
07222,1997-06-12 00:00:00,16,1011.3,0.1,94,15,12000,14.816,,,220,,,,0,,,,,,21,wg-a,,,,AAXX 12004 07222 02462 72208 10160 20150 30082 40113 52001 60006 72161 875// 90000 333 60007=
07222,1997-06-12 03:00:00,16,1010.8,-0.5,94,15,12000,14.816,,,190,,,,,,,,,,,wg-a,,,,AAXX 12034 07222 12562 71908 10160 20150 30077 40108 58005 60006 875// 90300=
07222,1997-06-12 06:00:00,17,1011.1,0.3,94,16,15000,18.52,,,220,15.4,18.6,,,,,,,,21,wg-a,,,,AAXX 12064 07222 02465 /2210 10170 20160 30080 40111 53003 61000 72162 86800 90600 333 10186 20154 6021=
07222,1997-06-12 09:00:00,19,1011.5,0.5,83,16,15000,25.928,,,210,,,,,,,,,,,wg-a,,,,AAXX 12094 07222 12465 /2114 10190 20160 30085 40115 51005 60006 86800 90900=
07222,1997-06-12 12:00:00,20,1011.5,-0,73,15,20000,22.224,,,220,,,,,,,,,,,wg-a,,,,AAXX 12124 07222 12570 62212 10200 20150 30085 40115 55000 60006 86800 91200=
07222,1997-06-12 15:00:00,21,1011,-0.5,73,16,25000,22.224,,,230,,,,,,,,,,1,wg-a,,,,AAXX 12154 07222 02575 /2312 10210 20160 30080 40110 56005 61000 70186 85800 91500 333 ////=
07222,1997-06-12 18:00:00,19,1010.6,-0.4,78,15,25000,18.52,,,240,16.7,21.3,,,,,,,,1,wg-a,,,,AAXX 12184 07222 12575 42410 10190 20150 30076 40106 56004 60006 70186 84800 91800 333 10213 20167=
07222,1997-06-13 00:00:00,15,1010.4,-0.4,100,15,15000,11.112,,,200,,,,,,,,,,,wg-a,,,,AAXX 13004 07222 12265 72006 10150 20150 30073 40104 58004 60006 875// 90000=
07222,1997-06-13 06:00:00,16,1008.6,-0.5,94,15,10000,7.408,,,180,14.7,19.4,,,,,,,,21,wg-a,,,,AAXX 13064 07222 02460 71804 10160 20150 30055 40086 56005 61000 72162 868// 90600 333 10194 20147 6000=
07222,1997-06-13 09:00:00,17,1008.5,-0.1,94,16,11000,7.408,,,210,,,,,,,,,,,wg-a,,,,AAXX 13094 07222 32/61 /2104 10170 20160 30054 40085 57001 90900=
07222,1997-06-13 12:00:00,17,1008.2,-0.3,94,16,7000,7.408,,,230,,,,,,,,,,,wg-a,,,,AAXX 13124 07222 12/57 /2304 10170 20160 30051 40082 57003 60016 91200=
07222,1997-06-13 15:00:00,16,1008.1,-0.1,94,15,3000,18.52,,,210,,,,1,,,,,,58,wg-a,,,,AAXX 13154 07222 12330 82110 10160 20150 30050 40081 55001 60017 75866 888// 91500=
07222,1997-06-13 18:00:00,17,1007.6,-0.5,94,16,12000,11.112,,,220,15.5,18.1,,1,,,,,,3,wg-a,,,,AAXX 13184 07222 02462 82206 10170 20160 30045 40076 56005 60006 70365 875// 91800 333 10181 20155 60017=
07222,1997-06-14 00:00:00,16,1008.6,0.7,100,16,12000,11.112,,,280,,,,1,,,,,,3,wg-a,,,,AAXX 14004 07222 02262 82806 10160 20160 30055 40086 53007 60016 70362 875// 90000 333 60017=
07222,1997-06-14 03:00:00,15,1010.2,1.6,94,14,12000,18.52,,,290,,,,0,,,,,,,wg-a,,,,AAXX 14034 07222 12562 62910 10150 20140 30071 40102 53016 60007 86800 90300=
07222,1997-06-14 06:00:00,14,1012.3,2.1,94,13,15000,7.408,,,270,13.7,16.8,,,,,5,,,,wg-a,,,,AAXX 14064 07222 02465 32704 10140 20130 30092 40123 51021 60006 83800 90600 333 10168 20137 60054=
07222,1997-06-14 09:00:00,17,1014.1,1.8,77,13,15000,22.224,,,280,,,,,,,,,,,wg-a,,,,AAXX 14094 07222 12565 72812 10170 20130 30110 40141 53018 60006 878// 90900=
07222,1997-06-14 12:00:00,20,1015.5,1.4,64,13,18000,29.632,,,260,,,,,,,,,,1,wg-a,,,,AAXX 14124 07222 02568 62616 10200 20130 30124 40155 52014 61000 70186 84230 91200 333 6100=
07222,1997-06-14 15:00:00,19,1016.7,1.2,64,12,20000,29.632,,,260,,,,,,,,,,,wg-a,,,,AAXX 14154 07222 12570 /2616 10190 20120 30136 40167 53012 60006 85200 91500=
07222,1997-06-14 18:00:00,17,1017.5,0.8,77,13,20000,22.224,,,260,14.3,20.4,,,,,,,,,wg-a,,,,AAXX 14184 07222 12570 32612 10170 20130 30144 40175 53008 60006 83200 91800 333 10204 20143=
07222,1997-06-14 21:00:00,14,1019.1,1.6,88,12,20000,11.112,,,240,,,,,,,,,,,wg-a,,,,AAXX 14214 07222 12/70 32406 10140 20120 30160 40191 53016 60006 80001 92100=
07222,1997-06-15 00:00:00,12,1019.3,0.1,94,11,15000,7.408,,,260,,,,,,,,,,,wg-a,,,,AAXX 15004 07222 12/65 32604 10120 20110 30161 40193 51001 60006 80001 90000=
07222,1997-06-15 06:00:00,13,1019,0.2,100,13,10000,3.704,,,190,9.4,17.4,,,,,,,,,wg-a,,,,AAXX 15064 07222 02460 71902 10130 20130 30159 40190 53002 60006 875// 90600 333 10174 20094 61000=
07222,1997-06-15 09:00:00,18,1019.2,0.2,68,12,18000,7.408,,,280,,,,,,,,,,,wg-a,,,,AAXX 15094 07222 12568 62804 10180 20120 30161 40192 50002 60006 86800 90900=
07222,1997-06-15 12:00:00,19,1018.8,-0.4,60,11,20000,7.408,,,340,,,,,,,,,,,wg-a,,,,AAXX 15124 07222 12670 73404 10190 20110 30157 40188 58004 60006 87802 91200=
07222,1997-06-15 18:00:00,20,1018.1,-0,56,11,20000,14.816,,,270,13,21.9,,,,,,,,,wg-a,,,,AAXX 15184 07222 12670 32708 10200 20110 30150 40181 55000 60006 83200 91800 333 10219 20130=
07222,1997-06-15 21:00:00,15,1019.2,1.1,77,11,15000,3.704,,,280,,,,,,,,,,,wg-a,,,,AAXX 15214 07222 12/65 12802 10150 20110 30161 40192 51011 60006 81031 92100=
07222,1997-06-16 00:00:00,12,1018.3,-1,88,10,15000,7.408,,,250,,,,,,,,,,,wg-a,,,,AAXX 16004 07222 12/65 32504 10120 20100 30151 40183 58010 60006 83030 90000=
07222,1997-06-16 03:00:00,11,1017.4,-0.9,94,10,15000,7.408,,,350,,,,,,,,,,,wg-a,,,,AAXX 16034 07222 12665 43504 10110 20100 30142 40174 58009 60006 84500 90300=
07222,1997-06-16 06:00:00,13,1017.1,-0.2,94,12,10000,0,,,0,10.8,20.2,,,,,,,,,wg-a,,,,AAXX 16064 07222 02660 30000 10130 20120 30140 40171 55002 60006 82530 90600 333 10202 20108 60004=
07222,1997-06-16 09:00:00,18,1017,-0.1,73,13,12000,3.704,,,280,,,,,,,,,,,wg-a,,,,AAXX 16094 07222 12562 42802 10180 20130 30139 40170 58001 60006 82801 90900=
07222,1997-06-16 12:00:00,20,1016.7,-0.3,68,14,15000,14.816,,,270,,,,,,,,,,,wg-a,,,,AAXX 16124 07222 12565 62708 10200 20140 30136 40167 58003 60006 85231 91200=
07222,1997-06-16 18:00:00,17,1016.4,-0.3,82,14,15000,7.408,,,320,12.6,21.7,,,,,,,,80,wg-a,,,,AAXX 16184 07222 02565 73204 10170 20140 30133 40164 58003 61000 78086 8683/ 91800 333 10217 20126 6100=
07222,1997-06-16 21:00:00,16,1017.8,1.4,77,12,10000,0,,,0,,,,0,,,,,,3,wg-a,,,,AAXX 16214 07222 12560 70000 10160 20120 30147 40178 53014 60007 70386 872// 92100=
07222,1997-06-17 00:00:00,13,1017.6,-0.2,100,13,10000,3.704,,,290,,,,,,,,,,2,wg-a,,,,AAXX 17004 07222 12560 42902 10130 20130 30145 40176 56002 60006 70286 84200 90000=
07222,1997-06-17 03:00:00,11,1017.5,-0.2,100,11,10000,0,,,0,,,,,,,,,,,wg-a,,,,AAXX 17034 07222 12760 30000 10110 20110 30143 40175 55002 60006 83500 90300=
07222,1997-06-17 06:00:00,13,1018.1,0.7,100,13,700,3.704,,,20,10.4,17.1,,,,,,,,10,wg-a,,,,AAXX 17064 07222 02107 70202 10130 20130 30150 40181 51007 60006 71041 876// 90600 333 10171 20104 60004=
07222,1997-06-17 09:00:00,15,1019.5,1.4,88,13,8000,7.408,,,360,,,,,,,,,,1,wg-a,,,,AAXX 17094 07222 12258 73604 10150 20130 30164 40195 51014 60006 70142 876// 90900=
07222,1997-06-17 12:00:00,19,1019.3,-0.2,68,13,12000,3.704,,,60,,,,,,,,,,25,wg-a,,,,AAXX 17124 07222 02562 70602 10190 20130 30162 40193 55002 61000 72586 872// 91200 333 6100=
07222,1997-06-17 15:00:00,20,1018.8,-0.5,64,13,15000,14.816,,,10,,,,1,,,,,,1,wg-a,,,,AAXX 17154 07222 12565 50108 10200 20130 30157 40188 57005 60017 70186 85800 91500=
07222,1997-06-17 18:00:00,19,1019.1,0.3,68,13,15000,11.112,,,30,12.9,21.9,,,,,,,,1,wg-a,,,,AAXX 17184 07222 12665 60306 10190 20130 30160 40191 53003 60006 70186 85802 91800 333 10219 20129=
07222,1997-06-17 21:00:00,16,1020.6,1.5,68,10,15000,3.704,,,20,,,,,,,,,,,wg-a,,,,AAXX 17214 07222 12765 10202 10160 20100 30175 40206 53015 60006 81401 92100=
07222,1997-06-18 00:00:00,13,1021,0.4,88,11,15000,7.408,,,340,,,,,,,,,,,wg-a,,,,AAXX 18004 07222 12/65 13404 10130 20110 30179 40210 51004 60006 80001 90000=
07222,1997-06-18 06:00:00,14,1020.4,-0.1,88,12,6000,0,,,0,10.5,19.7,,,,,1,,,,wg-a,,,,AAXX 18064 07222 02/56 /0000 10140 20120 30173 40204 55001 60006 80001 90600 333 10197 20105 60014=
07222,1997-06-18 09:00:00,19,1020.1,-0.3,64,12,10000,3.704,,,50,,,,,,,,,,,wg-a,,,,AAXX 18094 07222 12560 /0502 10190 20120 30170 40201 56003 60006 81100 90900=
07222,1997-06-18 12:00:00,22,1018.8,-1.2,50,11,500,7.408,,,260,,,,,,,,,,,wg-a,,,,AAXX 18124 07222 12600 32604 10220 20110 30158 40188 58012 60006 83201 91200=
07222,1997-06-18 18:00:00,20,1016.4,-0.9,64,13,20000,18.52,,,270,13.7,23.4,,,,,,,,,wg-a,,,,AAXX 18184 07222 12670 72710 10200 20130 30133 40164 56009 60006 8128/ 91800 333 10234 20137=
07222,1997-06-18 21:00:00,16,1016.3,-0.1,82,13,10000,7.408,,,290,,,,,,,,,,,wg-a,,,,AAXX 18214 07222 12760 72904 10160 20130 30132 40163 55001 60006 875// 92100=
07222,1997-06-19 00:00:00,13,1014.8,-1.5,88,11,10000,11.112,,,260,,,,,,,,,,,wg-a,,,,AAXX 19004 07222 12760 72606 10130 20110 30117 40148 58015 60006 855/1 90000=
07222,1997-06-19 03:00:00,12,1012.9,-1.9,94,11,10000,3.704,,,260,,,,,,,,,,,wg-a,,,,AAXX 19034 07222 12760 72602 10120 20110 30098 40129 58019 60006 855/1 90300=
07222,1997-06-19 06:00:00,13,1012,-0.9,100,13,9000,7.408,,,200,11.9,19.6,,,,,,,,21,wg-a,,,,AAXX 19064 07222 02359 72004 10130 20130 30089 40120 56009 61000 72165 875// 90600 333 10196 20119 6001=
07222,1997-06-19 12:00:00,18,1011,-0.6,64,11,11000,29.632,,,280,,,,,,,,,,,wg-a,,,,AAXX 19124 07222 12/61 /2816 10180 20110 30079 40110 56006 60016 91200=
07222,1997-06-19 15:00:00,16,1011,0,82,13,10000,11.112,,,270,,,,2,,,,,,60,wg-a,,,,AAXX 19154 07222 12460 72706 10160 20130 30079 40110 50000 60027 76062 8657/ 91500=
07222,1997-06-19 18:00:00,16,1010.2,-0.8,68,10,15000,22.224,,,260,13.4,19.3,,,,,,,,1,wg-a,,,,AAXX 19184 07222 02565 72612 10160 20100 30071 40102 58008 60006 70162 878// 91800 333 10193 20134 61000=
07222,1997-06-19 21:00:00,14,1010.3,0.1,94,13,10000,11.112,,,250,,,,1,,,,,,25,wg-a,,,,AAXX 19214 07222 12460 72506 10140 20130 30072 40103 53001 60017 72586 87800 92100=
07222,1997-06-20 00:00:00,14,1010,-0.3,94,13,10000,11.112,,,260,,,,4,,,,,,25,wg-a,,,,AAXX 20004 07222 02560 72606 10140 20130 30069 40100 58003 60056 72586 87800 90000 333 60047=
07222,1997-06-20 03:00:00,12,1008.8,-1.2,94,11,15000,3.704,,,180,,,,0,,,,,,3,wg-a,,,,AAXX 20034 07222 12565 71802 10120 20110 30057 40088 58012 60007 70386 87800 90300=
07222,1997-06-20 06:00:00,14,1007.9,-0.9,100,14,10000,11.112,,,190,11,15.7,,,,,9,,,3,wg-a,,,,AAXX 20064 07222 02460 71906 10140 20140 30048 40079 58009 60006 70386 878// 90600 333 10157 20110 60094=
07222,1997-06-20 09:00:00,16,1006.9,-1,88,14,8000,18.52,,,220,,,,0,,,,,,60,wg-a,,,,AAXX 20094 07222 12458 82210 10160 20140 30038 40069 58010 60007 76065 878// 90900=
07222,1997-06-20 12:00:00,15,1005.9,-1,88,13,10000,22.224,,,220,,,,1,,,,,,21,wg-a,,,,AAXX 20124 07222 02560 82212 10150 20130 30028 40059 58010 60016 72165 875// 91200 333 60017=
07222,1997-06-20 15:00:00,16,1003.5,-2.4,94,15,3000,29.632,,50.004,220,,,,1,,,,,,51,wg-a,,,,AAXX 20154 07222 12330 82216 10160 20150 30004 40035 58024 60017 75165 875// 91500 333 91027=
07222,1997-06-20 18:00:00,14,1001.9,-1.6,100,14,15000,18.52,,,230,14,16.6,,,,,,,,51,wg-a,,,,AAXX 20184 07222 02265 82310 10140 20140 39988 40019 55016 61000 75165 875// 91800 333 10166 20140 6002=
07222,1997-06-20 21:00:00,15,1002,0.1,94,14,12000,14.816,,,230,,,,,,,,,,3,wg-a,,,,AAXX 20214 07222 02462 72308 10150 20140 39989 40020 53001 61000 70352 878// 92100 333 ////=
07222,1997-06-21 00:00:00,14,1002,-0,94,13,10000,14.816,,,230,,,,,,,,,,1,wg-a,,,,AAXX 21004 07222 02460 72308 10140 20130 39989 40020 55000 61000 70186 878// 90000 333 6100=
07222,1997-06-21 03:00:00,13,1001.4,-0.6,94,12,15000,14.816,,,210,,,,1,,,,,,,wg-a,,,,AAXX 21034 07222 12565 72108 10130 20120 39983 40014 58006 60017 878// 90300=
07222,1997-06-21 06:00:00,14,1001.7,0.3,88,12,12000,14.816,,,210,12.7,15.1,,,,,5,,,3,wg-a,,,,AAXX 21064 07222 02462 72108 10140 20120 39986 40017 50003 60006 70386 879// 90600 333 10151 20127 60054=
07222,1997-06-21 12:00:00,18,1001.4,-0.5,68,12,500,29.632,,,240,,,,,,,,,,1,wg-a,,,,AAXX 21124 07222 02500 /2416 10180 20120 39984 40014 58005 60016 70186 85800 91200 333 61000=
07222,1997-06-21 15:00:00,17,1001.6,0.2,68,11,500,31.484,,,250,,,,,,,,,,,wg-a,,,,AAXX 21154 07222 12500 /2517 10170 20110 39986 40016 53002 60006 86200 91500=
07222,1997-06-21 18:00:00,16,1002.3,0.6,68,10,20000,35.188,,,260,13.4,18.6,,1,,,,,,3,wg-a,,,,AAXX 21184 07222 02570 /2619 10160 20100 39992 40023 53006 60006 70386 86900 91800 333 10186 20134 60017=
07222,1997-06-21 21:00:00,12,1003.7,1.4,94,11,20000,14.816,,,250,,,,2,,,,,,25,wg-a,,,,AAXX 21214 07222 12570 52508 10120 20110 30006 40037 53014 60027 72586 85900 92100=
07222,1997-06-22 00:00:00,12,1003.5,-0.2,94,11,20000,7.408,,,230,,,,1,,,,,,25,wg-a,,,,AAXX 22004 07222 02570 62304 10120 20110 30004 40035 58002 60026 72586 85903 90000 333 60017=
07222,1997-06-22 03:00:00,12,1003.1,-0.4,94,11,10000,7.408,,,220,,,,2,,,,,,61,wg-a,,,,AAXX 22034 07222 12460 72204 10120 20110 30000 40031 55004 60027 76186 878// 90300=
07222,1997-06-22 06:00:00,13,1004.6,1.5,94,12,20000,7.408,,,240,11,15.6,,,,,6,,,1,wg-a,,,,AAXX 22064 07222 02570 32404 10130 20120 30015 40046 52015 60006 70186 83900 90600 333 10156 20110 60064=
07222,1997-06-22 09:00:00,15,1005.8,1.2,82,12,7000,22.224,,,260,,,,0,,,,,,80,wg-a,,,,AAXX 22094 07222 12557 72612 10150 20120 30027 40058 53012 60007 78086 879// 90900=
07222,1997-06-22 12:00:00,15,1007,1.2,82,12,8000,31.484,,,260,,,,1,,,,,,80,wg-a,,,,AAXX 22124 07222 02558 72617 10150 20120 30039 40070 52012 60026 78086 879// 91200 333 60017=
07222,1997-06-22 15:00:00,17,1007.8,0.8,72,12,500,31.484,,50.004,280,,,,1,,,,,,25,wg-a,,,,AAXX 22154 07222 12500 /2817 10170 20120 30047 40078 53008 60017 72586 86200 91500 333 91027=
07222,1997-06-22 18:00:00,17,1009,1.2,68,11,500,29.632,,48.152,270,12.9,17.7,,,,,,,,1,wg-a,,,,AAXX 22184 07222 12500 22716 10170 20110 30059 40090 53012 60006 70186 82200 91800 333 10177 20129 91026=
07222,1997-06-22 21:00:00,14,1010.7,1.7,88,12,500,14.816,,,260,,,,,,,,,,,wg-a,,,,AAXX 22214 07222 12500 /2608 10140 20120 30076 40107 53017 60006 81800 92100=
07222,1997-06-23 00:00:00,12,1011.4,0.7,94,11,20000,11.112,,,260,,,,,,,,,,,wg-a,,,,AAXX 23004 07222 12/70 02606 10120 20110 30083 40114 51007 60006 80000 90000=
07222,1997-06-23 03:00:00,11,1011.6,0.2,100,11,20000,3.704,,,280,,,,,,,,,,,wg-a,,,,AAXX 23034 07222 12/70 02802 10110 20110 30085 40116 53002 60006 80000 90300=
07222,1997-06-23 06:00:00,13,1012.8,1.2,100,13,8000,7.408,,,300,10.2,16.7,,,,,3,,,,wg-a,,,,AAXX 23064 07222 02758 /3004 10130 20130 30097 40128 52012 60006 81500 90600 333 10167 20102 60034=
07222,1997-06-23 09:00:00,18,1014,1.2,68,12,15000,18.52,,,310,,,,,,,,,,,wg-a,,,,AAXX 23094 07222 12565 /3110 10180 20120 30109 40140 51012 60006 85200 90900=
07222,1997-06-23 12:00:00,18,1014.8,0.8,77,14,15000,18.52,,,280,,,,1,,,,,,25,wg-a,,,,AAXX 23124 07222 02565 72810 10180 20140 30117 40148 51008 60016 72586 86201 91200 333 60017=
07222,1997-06-23 15:00:00,18,1015.7,0.9,83,15,15000,18.52,,,260,,,,0,,,,,,3,wg-a,,,,AAXX 23154 07222 12565 /2610 10180 20150 30126 40157 51009 60007 70386 86500 91500=
07222,1997-06-23 18:00:00,18,1016.4,0.7,59,10,20000,22.224,,,320,13.1,19.6,,,,,,,,1,wg-a,,,,AAXX 23184 07222 12670 73212 10180 20100 30133 40164 53007 60006 70186 875// 91800 333 10196 20131=
07222,1997-06-24 00:00:00,14,1018.9,0.7,88,12,15000,11.112,,,290,,,,,,,,,,,wg-a,,,,AAXX 24004 07222 12765 32906 10140 20120 30158 40189 51007 60006 83500 90000=
07222,1997-06-24 03:00:00,13,1019.1,0.2,77,9,15000,11.112,,,330,,,,,,,,,,,wg-a,,,,AAXX 24034 07222 12665 73306 10130 20090 30160 40191 53002 60006 875// 90300=
07222,1997-06-24 06:00:00,13,1019.6,0.5,82,10,15000,7.408,,,270,13.1,18,,,,,1,,,,wg-a,,,,AAXX 24064 07222 02665 72704 10130 20100 30165 40196 53005 60006 875// 90600 333 10180 20131 60014=
07222,1997-06-24 09:00:00,16,1020.3,0.7,68,10,15000,11.112,,,320,,,,,,,,,,,wg-a,,,,AAXX 24094 07222 12665 73206 10160 20100 30172 40203 51007 60006 878// 90900=
07222,1997-06-24 12:00:00,18,1019.9,-0.4,56,9,15000,18.52,,,280,,,,,,,,,,,wg-a,,,,AAXX 24124 07222 12665 72810 10180 20090 30168 40199 56004 60006 878// 91200=
07222,1997-06-24 15:00:00,19,1019.1,-0.8,49,8,15000,18.52,,,270,,,,,,,,,,,wg-a,,,,AAXX 24154 07222 12665 /2710 10190 20080 30160 40191 56008 60006 86830 91500=
07222,1997-06-24 18:00:00,18,1018,-1.1,59,10,20000,22.224,,,260,13.4,19.9,,,,,,,,,wg-a,,,,AAXX 24184 07222 12670 32612 10180 20100 30149 40180 56011 60006 82801 91800 333 10199 20134=
07222,1997-06-24 21:00:00,13,1017.5,-0.5,82,10,15000,11.112,,,230,,,,,,,,,,,wg-a,,,,AAXX 24214 07222 12765 52306 10130 20100 30144 40175 58005 60006 825/1 92100=
07222,1997-06-25 00:00:00,12,1016.2,-1.3,94,11,15000,7.408,,,200,,,,,,,,,,,wg-a,,,,AAXX 25004 07222 12765 62004 10120 20110 30131 40162 58013 60006 825/1 90000=
07222,1997-06-25 06:00:00,13,1011.8,-1.6,94,12,9000,11.112,,,210,11.6,17.6,,,,,,,,60,wg-a,,,,AAXX 25064 07222 02559 72106 10130 20120 30087 40118 56016 61000 76062 875// 90600 333 10176 20116 6000=
07222,1997-06-25 09:00:00,14,1009.5,-2.3,94,13,8000,22.224,,,190,,,,3,,,,,,61,wg-a,,,,AAXX 25094 07222 12458 81912 10140 20130 30064 40095 58023 60037 76166 885// 90900=
07222,1997-06-25 12:00:00,14,1006.6,-2.9,100,14,3000,31.484,,,210,,,,3,,,,,,61,wg-a,,,,AAXX 25124 07222 02230 82117 10140 20140 30035 40066 58029 60066 76166 887// 91200 333 60037=
07222,1997-06-25 15:00:00,16,1004.3,-2.3,94,15,15000,29.632,,42.596,260,,,,4,,,,,,21,wg-a,,,,AAXX 25154 07222 12165 82616 10160 20150 30012 40043 56023 60047 72165 887// 91500 333 91023=
07222,1997-06-25 18:00:00,16,1003.2,-1.1,82,13,12000,25.928,,,270,12.8,17.1,,,,,,,,21,wg-a,,,,AAXX 25184 07222 02462 72714 10160 20130 30001 40032 56011 61000 72165 875// 91800 333 10171 20128 6000=
07222,1997-06-25 21:00:00,15,1003.4,0.2,88,13,12000,22.224,,,270,,,,,,,,,,,wg-a,,,,AAXX 25214 07222 12562 72712 10150 20130 30003 40034 53002 60006 878// 92100=
07222,1997-06-26 00:00:00,14,1002.2,-1.2,88,12,10000,18.52,,,250,,,,,,,,,,,wg-a,,,,AAXX 26004 07222 12460 72510 10140 20120 39991 40022 58012 60006 878// 90000=
07222,1997-06-26 03:00:00,14,999.7,-2.5,100,14,15000,14.816,,,250,,,,2,,,,,,25,wg-a,,,,AAXX 26034 07222 12365 72508 10140 20140 39966 49997 58025 60027 72522 875// 90300=
07222,1997-06-26 06:00:00,15,998.7,-1,94,14,12000,22.224,,,270,13.6,15.6,,,,,13,,,1,wg-a,,,,AAXX 26064 07222 02462 /2712 10150 20140 39956 49987 56010 60006 70186 84530 90600 333 10156 20136 60134=
07222,1997-06-26 12:00:00,18,998.3,-0.4,68,12,18000,29.632,,,280,,,,,,,,,,1,wg-a,,,,AAXX 26124 07222 02568 62816 10180 20120 39953 49983 58004 60006 70186 86800 91200 333 61000=
07222,1997-06-26 15:00:00,16,997.3,-1,68,10,18000,31.484,,,280,,,,,,,,,,,wg-a,,,,AAXX 26154 07222 12568 /2817 10160 20100 39943 49973 56010 60006 86800 91500=
07222,1997-06-26 18:00:00,12,997.8,0.4,100,12,10000,18.52,,,300,12.3,18.5,,,,,,,,21,wg-a,,,,AAXX 26184 07222 02460 73010 10120 20120 39947 49978 53004 61000 72186 878// 91800 333 10185 20123 6002=
07222,1997-06-26 21:00:00,11,998,0.2,94,10,7000,22.224,,,280,,,,,,,,,,53,wg-a,,,,AAXX 26214 07222 02457 72812 10110 20100 39949 49980 50002 61000 75365 878// 92100 333 ////=
07222,1997-06-27 00:00:00,11,996.8,-1.2,94,10,6000,25.928,,,270,,,,2,,,,,,53,wg-a,,,,AAXX 27004 07222 02356 82714 10110 20100 39937 49968 58012 60026 75365 888// 90000 333 60027=
07222,1997-06-27 03:00:00,11,995.8,-1,94,10,11000,25.928,,,300,,,,,,,,,,,wg-a,,,,AAXX 27034 07222 32/61 /3014 10110 20100 39927 49958 56010 90300=
07222,1997-06-27 06:00:00,12,996.7,0.9,100,12,8000,18.52,,,300,10.6,12.4,,,,,,,,51,wg-a,,,,AAXX 27064 07222 02258 83010 10120 20120 39936 49967 53009 61000 75165 887// 90600 333 10124 20106 6007=
07222,1997-06-27 09:00:00,14,998.4,1.7,94,13,10000,18.52,,,310,,,,0,,,,,,2,wg-a,,,,AAXX 27094 07222 12260 83110 10140 20130 39953 49984 51017 60007 70252 887// 90900=
07222,1997-06-27 12:00:00,16,999.4,1.1,72,11,500,18.52,,,310,,,,,,,,,,1,wg-a,,,,AAXX 27124 07222 12500 73110 10160 20110 39964 49994 51011 60006 70152 878// 91200=
07222,1997-06-27 18:00:00,15,1001,1,82,12,15000,18.52,,,310,11.8,17.3,,,,,,,,,wg-a,,,,AAXX 27184 07222 12365 73110 10150 20120 39979 40010 51010 60006 878// 91800 333 10173 20118=
07222,1997-06-28 00:00:00,12,1002.5,0.1,94,11,15000,7.408,,,230,,,,,,,,,,,wg-a,,,,AAXX 28004 07222 12665 72304 10120 20110 39994 40025 52001 60006 875// 90000=
07222,1997-06-28 06:00:00,13,1003.1,0.5,94,12,6000,11.112,,,200,12,14.6,,,,,,,,60,wg-a,,,,AAXX 28064 07222 02456 72006 10130 20120 30000 40031 53005 61000 76062 875// 90600 333 10146 20120 6000=
07222,1997-06-28 09:00:00,15,1004.5,1.4,94,14,11000,11.112,,,200,,,,,,,,,,,wg-a,,,,AAXX 28094 07222 32/61 /2006 10150 20140 30014 40045 51014 90900=
07222,1997-06-28 12:00:00,15,1005.8,1.3,94,14,10000,7.408,,,280,,,,1,,,,,,80,wg-a,,,,AAXX 28124 07222 02460 72804 10150 20140 30027 40058 52013 60016 78086 879// 91200 333 60017=
07222,1997-06-28 15:00:00,18,1006.1,0.4,73,13,10000,11.112,,,270,,,,,,,,,,2,wg-a,,,,AAXX 28154 07222 02560 72706 10180 20130 30031 40061 50004 61000 70286 879// 91500 333 ////=
07222,1997-06-28 18:00:00,17,1006.2,-0,77,13,15000,3.704,,,10,12.9,18.5,,,,,,,,3,wg-a,,,,AAXX 28184 07222 12565 70102 10170 20130 30031 40062 55000 60006 70386 8798/ 91800 333 10185 20129=
07222,1997-06-28 21:00:00,15,1007.1,0.9,88,13,15000,3.704,,,10,,,,,,,,,,,wg-a,,,,AAXX 28214 07222 12565 /0102 10150 20130 30040 40071 53009 60006 83801 92100=
07222,1997-06-29 00:00:00,13,1006.3,-0.8,94,12,15000,7.408,,,10,,,,,,,,,,,wg-a,,,,AAXX 29004 07222 12765 70104 10130 20120 30032 40063 56008 60006 825/1 90000=
07222,1997-06-29 03:00:00,12,1005.4,-0.9,88,10,15000,11.112,,,360,,,,,,,,,,,wg-a,,,,AAXX 29034 07222 12/65 73606 10120 20100 30023 40054 56009 60006 8707/ 90300=
07222,1997-06-29 06:00:00,12,1005.4,0,94,11,10000,11.112,,,340,11.6,17.4,,,,,1,,,,wg-a,,,,AAXX 29064 07222 02460 83406 10120 20110 30023 40054 50000 60006 8457/ 90600 333 10174 20116 60014=
07222,1997-06-29 09:00:00,14,1005.4,0,88,12,6000,7.408,,,350,,,,,,,,,,,wg-a,,,,AAXX 29094 07222 12256 83504 10140 20120 30023 40054 50000 60006 877// 90900=
07222,1997-06-29 12:00:00,16,1005.5,0.1,82,13,10000,11.112,,,320,,,,,,,,,,1,wg-a,,,,AAXX 29124 07222 02460 83206 10160 20130 30024 40055 51001 61000 70165 8657/ 91200 333 6100=
07222,1997-06-29 15:00:00,15,1005.2,-0.3,94,14,7000,11.112,,,290,,,,1,,,,,,60,wg-a,,,,AAXX 29154 07222 12457 82906 10150 20140 30021 40052 56003 60017 76062 8557/ 91500=
07222,1997-06-29 18:00:00,14,1006.1,0.9,94,13,6000,14.816,,,280,12,15.8,,,,,,,,60,wg-a,,,,AAXX 29184 07222 02456 82808 10140 20130 30030 40061 53009 61000 76062 8687/ 91800 333 10158 20120 6001=
07222,1997-06-29 21:00:00,13,1006.6,0.5,100,13,12000,3.704,,,250,,,,0,,,,,,1,wg-a,,,,AAXX 29214 07222 12462 72502 10130 20130 30035 40066 51005 60007 70162 8551/ 92100=
07222,1997-06-30 00:00:00,12,1006.7,0.1,100,12,10000,7.408,,,300,,,,,,,,,,1,wg-a,,,,AAXX 30004 07222 12560 73004 10120 20120 30036 40067 53001 60016 70162 8357/ 90000=
07222,1997-06-30 03:00:00,12,1006.1,-0.6,100,12,10000,7.408,,,280,,,,,,,,,,,wg-a,,,,AAXX 30034 07222 12660 72804 10120 20120 30030 40061 57006 60006 8557/ 90300=
07222,1997-06-30 06:00:00,13,1006.3,0.2,94,12,4500,11.112,,,290,11.8,13.6,,,,,,,,10,wg-a,,,,AAXX 30064 07222 02645 72906 10130 20120 30032 40063 53002 61000 71062 8357/ 90600 333 10136 20118 6002=
07222,1997-06-30 09:00:00,14,1006.9,0.6,100,14,4500,14.816,,,280,,,,0,,,,,,21,wg-a,,,,AAXX 30094 07222 12345 82808 10140 20140 30038 40069 53006 60007 72162 8767/ 90900=
07222,1997-06-30 12:00:00,17,1007.5,0.6,82,14,6000,14.816,,,290,,,,,,,,,,1,wg-a,,,,AAXX 30124 07222 12456 82908 10170 20140 30044 40075 51006 60016 70162 8627/ 91200=
07222,1997-06-30 15:00:00,13,1008.1,0.6,94,12,500,3.704,,,340,,,,5,,,,,,60,wg-a,,,,AAXX 30154 07222 12500 73402 10130 20120 30050 40081 53006 60057 76086 868// 91500=
07222,1997-06-30 18:00:00,15,1008.7,0.6,88,13,7000,14.816,,,290,12.6,16.8,,0,,,,,,1,wg-a,,,,AAXX 30184 07222 02557 72908 10150 20130 30056 40087 53006 60006 70186 8683/ 91800 333 10168 20126 60007=
07222,1997-06-30 21:00:00,14,1009.6,0.9,94,13,7000,14.816,,,260,,,,,,,,,,,wg-a,,,,AAXX 30214 07222 12757 72608 10140 20130 30065 40096 53009 60006 85532 92100=
07222,1997-07-01 00:00:00,14,1009.8,0.2,88,12,7000,14.816,,,260,,,,,,,,,,,wg-a,,,,AAXX 01004 07222 12557 72608 10140 20120 30067 40098 52002 60006 875// 90000=
07222,1997-07-01 03:00:00,13,1009.1,-0.7,94,12,7000,11.112,,,230,,,,2,,,,,,61,wg-a,,,,AAXX 01034 07222 12457 82306 10130 20120 30060 40091 57007 60027 76162 875// 90300=
07222,1997-07-01 06:00:00,12,1009.6,0.5,100,12,10000,7.408,,,260,11.7,15.3,,,,,8,,,1,wg-a,,,,AAXX 01064 07222 02760 72604 10120 20120 30065 40096 53005 60006 70162 875// 90600 333 10153 20117 60084=
07222,1997-07-01 12:00:00,18,1009.4,-0.5,68,12,500,22.224,,,220,,,,,,,,,,,wg-a,,,,AAXX 01124 07222 12500 72212 10180 20120 30063 40094 56005 60006 878// 91200=
07222,1997-07-01 15:00:00,16,1009.4,0,82,13,15000,18.52,,,260,,,,4,,,,,,25,wg-a,,,,AAXX 01154 07222 12465 72610 10160 20130 30063 40094 50000 60047 72586 878// 91500=
07222,1997-07-01 18:00:00,16,1009.5,0.1,72,11,500,18.52,,,260,12.4,18.5,,,,,,,,3,wg-a,,,,AAXX 01184 07222 12500 72610 10160 20110 30064 40095 53001 60006 70386 878// 91800 333 10185 20124=
07222,1997-07-01 21:00:00,12,1010,0.5,88,10,20000,11.112,,,220,,,,,,,,,,,wg-a,,,,AAXX 01214 07222 12570 22206 10120 20100 30069 40100 53005 60006 82800 92100=
07222,1997-07-02 00:00:00,10,1009.9,-0.1,93,9,20000,7.408,,,180,,,,,,,,,,,wg-a,,,,AAXX 02004 07222 12/70 01804 10100 20090 30068 40099 57001 60006 80000 90000=
07222,1997-07-02 03:00:00,11,1008.7,-1.2,94,10,20000,3.704,,,160,,,,,,,,,,,wg-a,,,,AAXX 02034 07222 12770 51602 10110 20100 30056 40087 58012 60006 85500 90300=
07222,1997-07-02 06:00:00,12,1008.3,-0.4,94,11,500,7.408,,,160,9.6,16.1,,,,,4,,,,wg-a,,,,AAXX 02064 07222 02600 71604 10120 20110 30052 40083 55004 60006 878// 90600 333 10161 20096 60044=
07222,1997-07-02 12:00:00,16,1008.8,0.8,68,10,25000,25.928,,,270,,,,1,,,,,,1,wg-a,,,,AAXX 02124 07222 02675 52714 10160 20100 30057 40088 52008 60016 70186 84201 91200 333 60017=
07222,1997-07-02 15:00:00,17,1009.7,0.9,59,9,500,29.632,,,240,,,,,,,,,,,wg-a,,,,AAXX 02154 07222 12500 52416 10170 20090 30066 40097 51009 60006 84801 91500=
07222,1997-07-02 18:00:00,16,1010.7,1,68,10,35000,22.224,,,250,11.7,18,,,,,,,,1,wg-a,,,,AAXX 02184 07222 02581 /2512 10160 20100 30076 40107 53010 60006 70186 86800 91800 333 10180 20117 61000=
07222,1997-07-02 21:00:00,13,1012.5,1.8,94,12,20000,7.408,,,220,,,,,,,,,,25,wg-a,,,,AAXX 02214 07222 02570 72204 10130 20120 30094 40125 52018 61000 72586 878// 92100 333 ////=
07222,1997-07-03 00:00:00,12,1012.4,-0.1,94,11,20000,11.112,,,200,,,,,,,,,,25,wg-a,,,,AAXX 03004 07222 02570 /2006 10120 20110 30093 40124 58001 61000 72586 86800 90000 333 ////=
07222,1997-07-03 03:00:00,12,1012.3,-0.1,94,11,11000,7.408,,,220,,,,,,,,,,,wg-a,,,,AAXX 03034 07222 32/61 /2204 10120 20110 30092 40123 58001 90300=
07222,1997-07-03 06:00:00,12,1013.1,0.8,94,11,20000,11.112,,,180,11.1,15.5,,,,,4,,,2,wg-a,,,,AAXX 03064 07222 02470 /1806 10120 20110 30100 40131 51008 60006 70286 86800 90600 333 10155 20111 60044=
07222,1997-07-03 09:00:00,15,1014.1,1,82,12,20000,14.816,,,230,,,,,,,,,,3,wg-a,,,,AAXX 03094 07222 02570 /2308 10150 20120 30110 40141 51010 61000 70386 86800 90900 333 ////=
07222,1997-07-03 12:00:00,16,1014.4,0.3,72,11,20000,25.928,,,230,,,,1,,,,,,80,wg-a,,,,AAXX 03124 07222 02570 72314 10160 20110 30113 40144 52003 60016 78086 878// 91200 333 60017=
07222,1997-07-03 15:00:00,18,1014.8,0.4,59,10,25000,25.928,,,260,,,,0,,,,,,3,wg-a,,,,AAXX 03154 07222 12575 62614 10180 20100 30117 40148 53004 60007 70386 85830 91500=
07222,1997-07-03 18:00:00,16,1014.7,-0.1,82,13,20000,14.816,,,230,11.5,18.2,,,,,,,,25,wg-a,,,,AAXX 03184 07222 02470 /2308 10160 20130 30116 40147 58001 61000 72586 84801 91800 333 10182 20115 6000=
07222,1997-07-03 21:00:00,14,1015.5,0.8,94,13,25000,11.112,,,200,,,,,,,,,,,wg-a,,,,AAXX 03214 07222 12475 /2006 10140 20130 30124 40155 53008 60006 84802 92100=
07222,1997-07-04 00:00:00,13,1015.9,0.4,94,12,15000,3.704,,,190,,,,0,,,,,,61,wg-a,,,,AAXX 04004 07222 02465 81902 10130 20120 30128 40159 50004 60006 76162 8357/ 90000 333 60007=
07222,1997-07-04 06:00:00,13,1017.2,1.4,100,13,8000,0,,,0,11.4,15.9,,,,,3,,,3,wg-a,,,,AAXX 04064 07222 02258 70000 10130 20130 30141 40172 53014 60006 70362 875// 90600 333 10159 20114 60034=
07222,1997-07-04 09:00:00,16,1018.2,1,82,13,15000,7.408,,,270,,,,,,,,,,,wg-a,,,,AAXX 04094 07222 12465 /2704 10160 20130 30151 40182 51010 60006 86800 90900=
07222,1997-07-04 12:00:00,18,1019,0.8,68,12,25000,11.112,,,330,,,,,,,,,,,wg-a,,,,AAXX 04124 07222 12675 73306 10180 20120 30159 40190 51008 60006 86830 91200=
07222,1997-07-04 15:00:00,18,1019.4,0.4,68,12,11000,25.928,,,270,,,,,,,,,,,wg-a,,,,AAXX 04154 07222 12/61 /2714 10180 20120 30163 40194 53004 60006 91500=
07222,1997-07-04 18:00:00,17,1020.3,0.9,77,13,25000,14.816,,,310,12.5,19.2,,,,,,,,,wg-a,,,,AAXX 04184 07222 12475 53108 10170 20130 30172 40203 51009 60006 83243 91800 333 10192 20125=
07222,1997-07-04 21:00:00,13,1022.4,2.1,94,12,15000,7.408,,,310,,,,,,,,,,,wg-a,,,,AAXX 04214 07222 12565 /3104 10130 20120 30193 40224 53021 60006 81501 92100=
07222,1997-07-05 00:00:00,12,1023.8,1.3,94,11,15000,7.408,,,300,,,,0,,,,,,,wg-a,,,,AAXX 05004 07222 02/65 13004 10120 20110 30206 40238 51013 60006 80001 90000 333 60007=
07222,1997-07-05 06:00:00,12,1026.1,1.6,94,11,4500,14.816,,,330,10.6,16.7,,,,,,,,10,wg-a,,,,AAXX 05064 07222 02345 73308 10120 20110 30229 40261 51016 60006 71011 876// 90600 333 10167 20106 60004=
07222,1997-07-05 09:00:00,15,1026.9,0.9,88,13,7000,7.408,,,310,,,,0,,,,,,,wg-a,,,,AAXX 05094 07222 12457 73104 10150 20130 30238 40269 51009 60007 875// 90900=
07222,1997-07-05 12:00:00,20,1027.4,0.5,60,12,15000,11.112,,,310,,,,,,,,,,,wg-a,,,,AAXX 05124 07222 12565 53106 10200 20120 30243 40274 51005 60006 85800 91200=
07222,1997-07-05 15:00:00,21,1027.4,-0,64,14,25000,22.224,,,300,,,,,,,,,,,wg-a,,,,AAXX 05154 07222 12675 43012 10210 20140 30243 40274 54000 60006 84800 91500=
07222,1997-07-05 18:00:00,19,1027.9,0.5,73,14,25000,22.224,,,280,11.6,21.6,,,,,,,,,wg-a,,,,AAXX 05184 07222 12675 32812 10190 20140 30248 40279 53005 60006 83800 91800 333 10216 20116=
07222,1997-07-05 21:00:00,15,1029.4,1.5,94,14,20000,7.408,,,280,,,,,,,,,,,wg-a,,,,AAXX 05214 07222 12/70 02804 10150 20140 30263 40294 53015 60006 80000 92100=
07222,1997-07-06 00:00:00,14,1030.7,1.2,88,12,20000,7.408,,,30,,,,,,,,,,,wg-a,,,,AAXX 06004 07222 12/70 00304 10140 20120 30275 40307 51012 60006 80000 90000=
07222,1997-07-06 03:00:00,12,1030.3,-0.4,88,10,15000,3.704,,,20,,,,,,,,,,,wg-a,,,,AAXX 06034 07222 12/65 00202 10120 20100 30271 40303 58004 60006 80000 90300=
07222,1997-07-06 06:00:00,13,1030.8,0.5,94,12,8000,3.704,,,40,10.2,19.3,,,,,,,,,wg-a,,,,AAXX 06064 07222 02/58 00402 10130 20120 30276 40308 53005 60006 80000 90600 333 10193 20102 60004=
07222,1997-07-06 09:00:00,19,1030.9,0.2,68,13,15000,7.408,,,50,,,,,,,,,,,wg-a,,,,AAXX 06094 07222 12565 /0504 10190 20130 30278 40309 51002 60006 81200 90900=
07222,1997-07-06 12:00:00,21,1030.4,-0.5,56,12,20000,3.704,,,60,,,,,,,,,,,wg-a,,,,AAXX 06124 07222 12670 20602 10210 20120 30273 40304 58005 60006 82200 91200=
07222,1997-07-06 18:00:00,24,1028.7,-0.6,44,11,500,7.408,,,80,13.1,24.6,,,,,,,,,wg-a,,,,AAXX 06184 07222 12700 20804 10240 20110 30256 40287 56006 60006 82400 91800 333 10246 20131=
07222,1997-07-06 21:00:00,18,1029.5,0.8,73,13,25000,7.408,,,320,,,,,,,,,,,wg-a,,,,AAXX 06214 07222 12/75 03204 10180 20130 30264 40295 53008 60006 80000 92100=
07222,1997-07-07 00:00:00,15,1029.3,-0.3,88,13,25000,7.408,,,340,,,,,,,,,,,wg-a,,,,AAXX 07004 07222 12/75 03404 10150 20130 30261 40293 57003 60006 80000 90000=
07222,1997-07-07 03:00:00,13,1028.7,-0.6,94,12,20000,3.704,,,20,,,,,,,,,,,wg-a,,,,AAXX 07034 07222 12/70 00202 10130 20120 30255 40287 58006 60006 80000 90300=
07222,1997-07-07 06:00:00,16,1028.7,0.1,82,13,15000,7.408,,,30,12.8,23.9,,,,,,,,,wg-a,,,,AAXX 07064 07222 02/65 00304 10160 20130 30256 40287 52001 60006 80000 90600 333 10239 20128 60004=
07222,1997-07-07 09:00:00,21,1028.1,-0.6,60,13,15000,11.112,,,60,,,,,,,,,,,wg-a,,,,AAXX 07094 07222 12/65 00606 10210 20130 30250 40281 58006 60006 80000 90900=
07222,1997-07-07 12:00:00,25,1026.8,-1.2,50,14,500,14.816,,,40,,,,,,,,,,,wg-a,,,,AAXX 07124 07222 12600 /0408 10250 20140 30238 40268 57012 60006 81100 91200=
07222,1997-07-07 15:00:00,26,1025.5,-1.3,45,13,500,14.816,,,50,,,,,,,,,,,wg-a,,,,AAXX 07154 07222 12700 30508 10260 20130 30225 40255 58013 60006 83100 91500=
07222,1997-07-07 18:00:00,25,1024.4,-1.1,50,14,0,14.816,,,80,15.4,26.2,,,,,,,,,wg-a,,,,AAXX 07184 07222 12/// /0808 10250 20140 30214 40244 56011 60006 91800 333 10262 20154=
07222,1997-07-07 21:00:00,22,1024.4,-0.1,60,14,500,3.704,,,40,,,,,,,,,,,wg-a,,,,AAXX 07214 07222 12/00 00402 10220 20140 30213 40244 55001 60006 80000 92100=
07222,1997-07-08 00:00:00,18,1024.3,-0.1,88,16,500,7.408,,,30,,,,,,,,,,,wg-a,,,,AAXX 08004 07222 12/00 00304 10180 20160 30212 40243 58001 60006 80000 90000=
07222,1997-07-08 06:00:00,18,1023.2,0.1,83,15,10000,14.816,,,60,16.7,25.2,,,,,,,,,wg-a,,,,AAXX 08064 07222 02/60 00608 10180 20150 30201 40232 53001 60006 80000 90600 333 10252 20167 60004=
07222,1997-07-08 09:00:00,23,1022.6,-0.5,61,15,15000,22.224,,,70,,,,,,,,,,,wg-a,,,,AAXX 08094 07222 12/65 /0712 10230 20150 30196 40226 58005 60006 80002 90900=
07222,1997-07-08 12:00:00,25,1021,-1.6,47,13,20000,29.632,,,70,,,,,,,,,,,wg-a,,,,AAXX 08124 07222 12670 /0716 10250 20130 30180 40210 58016 60006 81101 91200=
07222,1997-07-08 15:00:00,27,1019.5,-1.5,42,13,10000,25.928,,,80,,,,,,,,,,,wg-a,,,,AAXX 08154 07222 12/60 /0814 10270 20130 30165 40195 58015 60006 91500=
07222,1997-07-08 18:00:00,26,1018.2,-1.3,48,14,500,25.928,,,80,17.8,27,,,,,,,,,wg-a,,,,AAXX 08184 07222 12700 10814 10260 20140 30152 40182 56013 60006 81100 91800 333 10270 20178=
07222,1997-07-08 21:00:00,23,1018.5,0.3,57,14,500,11.112,,,60,,,,,,,,,,,wg-a,,,,AAXX 08214 07222 12/00 10606 10230 20140 30155 40185 53003 60006 80001 92100=
07222,1997-07-09 00:00:00,20,1018.5,-0.1,73,15,500,14.816,,,70,,,,,,,,,,,wg-a,,,,AAXX 09004 07222 12/00 00708 10200 20150 30154 40185 55001 60006 80000 90000=
07222,1997-07-09 03:00:00,18,1017.7,-0.8,77,14,500,14.816,,,60,,,,,,,,,,,wg-a,,,,AAXX 09034 07222 12/00 00608 10180 20140 30146 40177 56008 60006 80000 90300=
07222,1997-07-09 06:00:00,18,1017.6,-0.1,83,15,15000,14.816,,,50,17.1,26.2,,,,,,,,,wg-a,,,,AAXX 09064 07222 02/65 10508 10180 20150 30145 40176 55001 60006 80001 90600 333 10262 20171 60004=
07222,1997-07-09 12:00:00,25,1015.5,-1.2,50,14,25000,14.816,,,60,,,,,,,,,,,wg-a,,,,AAXX 09124 07222 12675 /0608 10250 20140 30125 40155 58012 60006 81100 91200=
07222,1997-07-09 15:00:00,27,1014.4,-1.1,48,15,500,14.816,,,70,,,,,,,,,,,wg-a,,,,AAXX 09154 07222 12600 40708 10270 20150 30114 40144 56011 60006 84200 91500=
07222,1997-07-09 18:00:00,26,1013.6,-0.8,48,14,25000,14.816,,,50,17.9,27.2,,,,,,,,,wg-a,,,,AAXX 09184 07222 12775 20508 10260 20140 30106 40136 56008 60006 82400 91800 333 10272 20179=
07222,1997-07-10 00:00:00,20,1014.3,-0.2,73,15,25000,11.112,,,50,,,,,,,,,,,wg-a,,,,AAXX 10004 07222 12/75 10506 10200 20150 30113 40143 58002 60006 80001 90000=
07222,1997-07-10 03:00:00,18,1013.5,-0.9,83,15,15000,14.816,,,50,,,,,,,,,,,wg-a,,,,AAXX 10034 07222 12/65 00508 10180 20150 30104 40135 58009 60006 80000 90300=
07222,1997-07-10 06:00:00,18,1013.7,0.2,83,15,8000,7.408,,,40,16.9,26.1,,,,,,,,,wg-a,,,,AAXX 10064 07222 02/58 00404 10180 20150 30106 40137 53002 60006 80000 90600 333 10261 20169 60004=
07222,1997-07-10 09:00:00,22,1013.3,-0.3,69,16,10000,7.408,,,40,,,,,,,,,,,wg-a,,,,AAXX 10094 07222 12/60 00404 10220 20160 30103 40133 58003 60006 80000 90900=
07222,1997-07-10 12:00:00,25,1013,-0.3,57,16,20000,7.408,,,20,,,,,,,,,,,wg-a,,,,AAXX 10124 07222 12670 /0204 10250 20160 30100 40130 58003 60006 86200 91200=
07222,1997-07-10 15:00:00,26,1012.5,-0.5,58,17,25000,11.112,,,320,,,,,,,,,,,wg-a,,,,AAXX 10154 07222 12675 /3206 10260 20170 30095 40125 56005 60006 85200 91500=
07222,1997-07-10 18:00:00,26,1012.6,0.1,54,16,25000,22.224,,,290,17.8,27.4,,,,,,,,,wg-a,,,,AAXX 10184 07222 12675 52912 10260 20160 30096 40126 53001 60006 85800 91800 333 10274 20178=
07222,1997-07-11 00:00:00,17,1014.5,0.1,88,15,20000,7.408,,,330,,,,,,,,,,,wg-a,,,,AAXX 11004 07222 12/70 03304 10170 20150 30114 40145 50001 60006 80000 90000=
07222,1997-07-11 03:00:00,16,1014.3,-0.2,94,15,10000,3.704,,,30,,,,,,,,,,,wg-a,,,,AAXX 11034 07222 12/60 50302 10160 20150 30112 40143 58002 60006 80001 90300=
07222,1997-07-11 06:00:00,16,1015.5,1.2,94,15,900,7.408,,,270,14.5,25.6,,,,,,,,40,wg-a,,,,AAXX 11064 07222 02109 52704 10160 20150 30124 40155 53012 60006 74041 83581 90600 333 10256 20145 60004=
07222,1997-07-11 12:00:00,20,1017.3,0.9,78,16,8000,18.52,,,250,,,,,,,,,,3,wg-a,,,,AAXX 11124 07222 12458 /2510 10200 20160 30142 40173 53009 60006 70341 86200 91200=
07222,1997-07-11 15:00:00,21,1017.1,-0.1,73,16,18000,22.224,,,240,,,,,,,,,,,wg-a,,,,AAXX 11154 07222 12568 32412 10210 20160 30141 40171 58001 60006 83200 91500=
07222,1997-07-11 18:00:00,18,1017.5,0.3,83,15,20000,22.224,,,260,15.6,21.5,,,,,,,,,wg-a,,,,AAXX 11184 07222 12470 72612 10180 20150 30144 40175 53003 60006 875// 91800 333 10215 20156=
07222,1997-07-11 21:00:00,15,1018.3,0.8,94,14,20000,7.408,,,230,,,,,,,,,,,wg-a,,,,AAXX 11214 07222 12770 22304 10150 20140 30152 40183 53008 60006 82500 92100=
07222,1997-07-12 00:00:00,14,1018,-0.3,94,13,20000,7.408,,,230,,,,,,,,,,,wg-a,,,,AAXX 12004 07222 12/70 02304 10140 20130 30149 40180 58003 60006 80000 90000=
07222,1997-07-12 03:00:00,12,1017.3,-0.7,100,12,20000,3.704,,,180,,,,,,,,,,,wg-a,,,,AAXX 12034 07222 12/70 01802 10120 20120 30142 40173 57007 60006 80000 90300=
07222,1997-07-12 06:00:00,14,1017.8,0.5,100,14,12000,3.704,,,180,11.5,18.3,,,,,,,,28,wg-a,,,,AAXX 12064 07222 02562 /1802 10140 20140 30147 40178 53005 60006 72840 81530 90600 333 10183 20115 60004=
07222,1997-07-12 09:00:00,19,1017.7,-0.1,73,14,25000,11.112,,,200,,,,,,,,,,,wg-a,,,,AAXX 12094 07222 12575 42006 10190 20140 30146 40177 58001 60006 84200 90900=
07222,1997-07-12 12:00:00,22,1017.1,-0.5,65,15,25000,14.816,,,190,,,,,,,,,,,wg-a,,,,AAXX 12124 07222 12575 41908 10220 20150 30141 40171 58005 60006 84800 91200=
07222,1997-07-12 15:00:00,23,1016.6,-0.5,61,15,25000,14.816,,,240,,,,,,,,,,,wg-a,,,,AAXX 12154 07222 12675 52408 10230 20150 30136 40166 56005 60006 85801 91500=
07222,1997-07-12 18:00:00,22,1016.3,-0.3,60,14,25000,14.816,,,260,13.8,23.4,,,,,,,,,wg-a,,,,AAXX 12184 07222 12/75 42608 10220 20140 30133 40163 55003 60006 80004 91800 333 10234 20138=
07222,1997-07-12 21:00:00,18,1017.1,0.7,83,15,20000,3.704,,,330,,,,,,,,,,,wg-a,,,,AAXX 12214 07222 12/70 63302 10180 20150 30140 40171 52007 60006 80002 92100=
07222,1997-07-13 00:00:00,16,1017.1,-0,94,15,20000,3.704,,,10,,,,,,,,,,,wg-a,,,,AAXX 13004 07222 12/70 60102 10160 20150 30140 40171 54000 60006 80002 90000=
07222,1997-07-13 03:00:00,14,1016.6,-0.5,94,13,10000,0,,,0,,,,,,,,,,,wg-a,,,,AAXX 13034 07222 12/60 60000 10140 20130 30135 40166 58005 60006 82032 90300=
07222,1997-07-13 06:00:00,16,1017.2,0.6,94,15,12000,3.704,,,360,13.2,21.8,,,,,,,,,wg-a,,,,AAXX 13064 07222 02/62 73602 10160 20150 30141 40172 50006 60006 81031 90600 333 10218 20132 60004=
07222,1997-07-13 09:00:00,21,1017.9,0.8,73,16,20000,3.704,,,30,,,,,,,,,,,wg-a,,,,AAXX 13094 07222 12/70 60302 10210 20160 30149 40179 50008 60006 81031 90900=
07222,1997-07-13 12:00:00,24,1018,0.1,57,15,20000,7.408,,,300,,,,,,,,,,,wg-a,,,,AAXX 13124 07222 12570 73004 10240 20150 30150 40180 53001 60006 81131 91200=
07222,1997-07-13 15:00:00,23,1017.8,-0.2,69,17,20000,11.112,,,280,,,,,,,,,,,wg-a,,,,AAXX 13154 07222 12570 72806 10230 20170 30148 40178 55002 60006 8117/ 91500=
07222,1997-07-13 18:00:00,22,1017.6,-0.2,69,16,15000,11.112,,,320,15.6,24,,,,,,,,,wg-a,,,,AAXX 13184 07222 12/65 63206 10220 20160 30146 40176 58002 60006 82031 91800 333 10240 20156=
07222,1997-07-13 21:00:00,18,1019.4,1.7,77,14,15000,7.408,,,270,,,,,,,,,,,wg-a,,,,AAXX 13214 07222 12/65 32704 10180 20140 30163 40194 53017 60006 80001 92100=
07222,1997-07-14 06:00:00,15,1021.2,1.3,94,14,15000,7.408,,,20,14.2,22.2,,,,,,,,,wg-a,,,,AAXX 14064 07222 02565 20204 10150 20140 30181 40212 51013 60006 82500 90600 333 10222 20142 60004=
07222,1997-07-14 09:00:00,20,1021.8,0.6,68,14,500,11.112,,,310,,,,,,,,,,,wg-a,,,,AAXX 14094 07222 12500 33106 10200 20140 30187 40218 51006 60006 82102 90900=
07222,1997-07-14 12:00:00,22,1022.2,0.4,60,14,500,11.112,,,290,,,,,,,,,,,wg-a,,,,AAXX 14124 07222 12500 32906 10220 20140 30191 40222 51004 60006 82101 91200=
07222,1997-07-14 15:00:00,23,1021.9,-0.2,53,13,500,18.52,,,290,,,,,,,,,,,wg-a,,,,AAXX 14154 07222 12600 /2910 10230 20130 30189 40219 56002 60006 81102 91500=
07222,1997-07-14 18:00:00,21,1022.4,0.4,60,13,500,18.52,,,270,15.3,23.6,,,,,,,,,wg-a,,,,AAXX 14184 07222 12/00 22710 10210 20130 30193 40224 52004 60006 80001 91800 333 10236 20153=
07222,1997-07-14 21:00:00,17,1023.7,1.3,82,14,500,7.408,,,300,,,,,,,,,,,wg-a,,,,AAXX 14214 07222 12/00 13004 10170 20140 30206 40237 53013 60006 80001 92100=
07222,1997-07-15 00:00:00,16,1024.4,0.7,77,12,20000,7.408,,,40,,,,,,,,,,,wg-a,,,,AAXX 15004 07222 12/70 00404 10160 20120 30213 40244 50007 60006 80000 90000=
07222,1997-07-15 03:00:00,14,1024.6,0.2,82,11,20000,7.408,,,50,,,,,,,,,,,wg-a,,,,AAXX 15034 07222 12/70 00504 10140 20110 30215 40246 50002 60006 80000 90300=
07222,1997-07-15 06:00:00,15,1024.5,-0.1,82,12,10000,3.704,,,50,12.2,21.2,,,,,,,,,wg-a,,,,AAXX 15064 07222 02/60 00502 10150 20120 30214 40245 58001 60006 80000 90600 333 10212 20122 60004=
07222,1997-07-15 12:00:00,23,1024.3,-1,50,12,500,3.704,,,20,,,,,,,,,,,wg-a,,,,AAXX 15124 07222 12/00 00202 10230 20120 30213 40243 58010 60006 80000 91200=
07222,1997-07-15 18:00:00,26,1021.2,-1.4,48,14,500,3.704,,,30,15.3,26.6,,,,,,,,,wg-a,,,,AAXX 15184 07222 12700 20302 10260 20140 30182 40212 58014 60006 81101 91800 333 10266 20153=
07222,1997-07-15 21:00:00,22,1021.9,0.7,65,15,25000,3.704,,,30,,,,,,,,,,,wg-a,,,,AAXX 15214 07222 12/75 10302 10220 20150 30189 40219 53007 60006 80001 92100=
07222,1997-07-16 00:00:00,17,1021.5,-0.5,88,15,20000,3.704,,,330,,,,,,,,,,,wg-a,,,,AAXX 16004 07222 12/70 13302 10170 20150 30184 40215 58005 60006 80001 90000=
07222,1997-07-16 03:00:00,17,1020.5,-1,88,15,20000,7.408,,,20,,,,,,,,,,,wg-a,,,,AAXX 16034 07222 12/70 30204 10170 20150 30174 40205 56010 60006 80001 90300=
07222,1997-07-16 06:00:00,17,1020.4,-0.1,94,16,500,11.112,,,40,15.7,26,,,,,,,,,wg-a,,,,AAXX 16064 07222 02200 70406 10170 20160 30173 40204 55001 60006 876// 90600 333 10260 20157 60004=
07222,1997-07-16 12:00:00,22,1019.2,-0.8,73,17,12000,18.52,,,20,,,,,,,,,,,wg-a,,,,AAXX 16124 07222 12562 /0210 10220 20170 30162 40192 58008 60006 85500 91200=
07222,1997-07-16 15:00:00,25,1017.4,-1.8,57,16,15000,14.816,,,20,,,,,,,,,,,wg-a,,,,AAXX 16154 07222 12/65 10208 10250 20160 30144 40174 58018 60006 81081 91500=
07222,1997-07-16 18:00:00,23,1016.9,-0.5,57,14,20000,18.52,,,20,16.9,25.2,,,,,,,,,wg-a,,,,AAXX 16184 07222 12/70 10210 10230 20140 30139 40169 56005 60006 80001 91800 333 10252 20169=
07222,1997-07-16 21:00:00,17,1018.4,1.4,77,13,20000,14.816,,,20,,,,,,,,,,,wg-a,,,,AAXX 16214 07222 12/70 10208 10170 20130 30153 40184 53014 60006 80001 92100=
07222,1997-07-17 00:00:00,15,1018.1,-0.3,88,13,20000,14.816,,,360,,,,,,,,,,,wg-a,,,,AAXX 17004 07222 12/70 23608 10150 20130 30150 40181 58003 60006 82030 90000=
07222,1997-07-17 03:00:00,15,1017.1,-1,88,13,20000,14.816,,,30,,,,,,,,,,,wg-a,,,,AAXX 17034 07222 12/70 30308 10150 20130 30140 40171 56010 60006 80003 90300=
07222,1997-07-17 06:00:00,15,1017.4,0.3,94,14,15000,7.408,,,360,13.9,23.3,,,,,,,,,wg-a,,,,AAXX 17064 07222 02365 43604 10150 20140 30143 40174 50003 60006 82601 90600 333 10233 20139 60004=
07222,1997-07-17 09:00:00,17,1017.6,0.2,82,14,15000,14.816,,,350,,,,,,,,,,,wg-a,,,,AAXX 17094 07222 12465 73508 10170 20140 30145 40176 50002 60006 875// 90900=
07222,1997-07-17 12:00:00,22,1017.1,-0.4,65,15,20000,14.816,,,320,,,,,,,,,,,wg-a,,,,AAXX 17124 07222 12570 /3208 10220 20150 30141 40171 58004 60006 85500 91200=
07222,1997-07-17 15:00:00,23,1016.4,-0.7,65,16,20000,22.224,,,310,,,,,,,,,,,wg-a,,,,AAXX 17154 07222 12570 63112 10230 20160 30134 40164 56007 60006 86801 91500=
07222,1997-07-17 18:00:00,22,1016,-0.4,69,16,20000,25.928,,,280,15.4,23.3,,,,,,,,,wg-a,,,,AAXX 17184 07222 12570 32814 10220 20160 30130 40160 56004 60006 81101 91800 333 10233 20154=
07222,1997-07-18 00:00:00,16,1018.6,0.7,77,12,20000,14.816,,,330,,,,,,,,,,,wg-a,,,,AAXX 18004 07222 12670 23308 10160 20120 30155 40186 52007 60006 81501 90000=
07222,1997-07-18 06:00:00,13,1019.9,1.1,88,11,20000,18.52,,,300,11.4,21.6,,,,,,,,,wg-a,,,,AAXX 18064 07222 02570 /3010 10130 20110 30168 40199 53011 60006 86200 90600 333 10216 20114 60004=
07222,1997-07-18 09:00:00,19,1020.2,0.3,60,11,500,14.816,,,360,,,,,,,,,,,wg-a,,,,AAXX 18094 07222 12500 33608 10190 20110 30171 40202 50003 60006 83200 90900=
07222,1997-07-18 12:00:00,21,1020.6,0.4,53,11,500,7.408,,,30,,,,,,,,,,,wg-a,,,,AAXX 18124 07222 12600 40304 10210 20110 30175 40206 52004 60006 84200 91200=
07222,1997-07-18 15:00:00,23,1020.4,-0.1,47,11,500,14.816,,,10,,,,,,,,,,,wg-a,,,,AAXX 18154 07222 12700 30108 10230 20110 30174 40204 56001 60006 83200 91500=
07222,1997-07-18 18:00:00,23,1020.7,0.3,47,11,500,14.816,,,350,12.7,23.5,,,,,,,,,wg-a,,,,AAXX 18184 07222 12700 13508 10230 20110 30177 40207 53003 60006 81200 91800 333 10235 20127=
07222,1997-07-19 00:00:00,15,1023.6,0.8,77,11,25000,11.112,,,360,,,,,,,,,,,wg-a,,,,AAXX 19004 07222 12/75 03606 10150 20110 30205 40236 50008 60006 80000 90000=
07222,1997-07-19 03:00:00,12,1023.9,0.2,88,10,20000,7.408,,,310,,,,,,,,,,,wg-a,,,,AAXX 19034 07222 12/70 03104 10120 20100 30207 40239 53002 60006 80000 90300=
07222,1997-07-19 06:00:00,13,1024.8,0.9,88,11,15000,3.704,,,330,10.8,22.6,,,,,,,,,wg-a,,,,AAXX 19064 07222 02/65 03302 10130 20110 30216 40248 53009 60006 80000 90600 333 10226 20108 60004=
07222,1997-07-19 09:00:00,19,1025.4,0.7,73,14,15000,7.408,,,30,,,,,,,,,,,wg-a,,,,AAXX 19094 07222 12565 20304 10190 20140 30223 40254 51007 60006 82800 90900=
07222,1997-07-19 12:00:00,23,1024.9,-0.5,57,14,20000,11.112,,,350,,,,,,,,,,,wg-a,,,,AAXX 19124 07222 12670 /3506 10230 20140 30218 40249 58005 60006 85200 91200=
07222,1997-07-19 15:00:00,25,1024.3,-0.5,47,13,25000,3.704,,,60,,,,,,,,,,,wg-a,,,,AAXX 19154 07222 12675 /0602 10250 20130 30213 40243 57005 60006 85200 91500=
07222,1997-07-19 18:00:00,23,1024.1,-0.2,61,15,20000,22.224,,,270,12.8,25,,,,,,,,,wg-a,,,,AAXX 19184 07222 12770 52712 10230 20150 30211 40241 55002 60006 85800 91800 333 10250 20128=
07222,1997-07-19 21:00:00,18,1025.2,1,77,14,20000,7.408,,,320,,,,,,,,,,,wg-a,,,,AAXX 19214 07222 12770 33204 10180 20140 30221 40252 51010 60006 82201 92100=
07222,1997-07-20 00:00:00,17,1025.4,0.2,88,15,20000,7.408,,,20,,,,,,,,,,,wg-a,,,,AAXX 20004 07222 12/70 20204 10170 20150 30223 40254 50002 60006 80001 90000=
07222,1997-07-20 06:00:00,16,1024.8,0.1,88,14,8000,14.816,,,60,15.5,23,,,,,,,,,wg-a,,,,AAXX 20064 07222 02/58 20608 10160 20140 30217 40248 53001 60006 81031 90600 333 10230 20155 60004=
07222,1997-07-20 09:00:00,20,1024.8,0,73,15,20000,11.112,,,50,,,,,,,,,,,wg-a,,,,AAXX 20094 07222 12/70 20506 10200 20150 30217 40248 50000 60006 80001 90900=
07222,1997-07-20 12:00:00,24,1023.5,-1.2,44,11,25000,11.112,,,60,,,,,,,,,,,wg-a,,,,AAXX 20124 07222 12675 40606 10240 20110 30205 40235 58012 60006 81101 91200=
07222,1997-07-20 15:00:00,26,1022.1,-1.4,32,8,25000,18.52,,,60,,,,,,,,,,,wg-a,,,,AAXX 20154 07222 12775 60610 10260 20080 30191 40221 57014 60006 81101 91500=
07222,1997-07-20 18:00:00,25,1021.2,-0.9,36,9,25000,14.816,,,60,15.8,26.4,,,,,,,,,wg-a,,,,AAXX 20184 07222 12775 50608 10250 20090 30182 40212 56009 60006 81101 91800 333 10264 20158=
07222,1997-07-20 21:00:00,22,1021.8,0.5,50,11,25000,7.408,,,40,,,,,,,,,,,wg-a,,,,AAXX 20214 07222 12775 70404 10220 20110 30187 40218 53005 60006 815/1 92100=
07222,1997-07-21 00:00:00,19,1021.7,-0.1,60,11,25000,11.112,,,50,,,,,,,,,,,wg-a,,,,AAXX 21004 07222 12/75 70506 10190 20110 30186 40217 58001 60006 80001 90000=
07222,1997-07-21 06:00:00,16,1021.4,0.2,77,12,20000,14.816,,,60,16.1,24.8,,,,,,,,,wg-a,,,,AAXX 21064 07222 02/70 60608 10160 20120 30183 40214 53002 60006 80001 90600 333 10248 20161 60004=
07222,1997-07-21 09:00:00,21,1021.4,0,64,14,20000,14.816,,,70,,,,,,,,,,,wg-a,,,,AAXX 21094 07222 12/70 50708 10210 20140 30183 40214 50000 60006 80001 90900=
07222,1997-07-21 12:00:00,25,1020.2,-1.1,41,11,20000,14.816,,,40,,,,,,,,,,,wg-a,,,,AAXX 21124 07222 12670 30408 10250 20110 30172 40202 58011 60006 81101 91200=
07222,1997-07-21 15:00:00,26,1018.8,-1.4,39,11,25000,18.52,,,80,,,,,,,,,,,wg-a,,,,AAXX 21154 07222 12775 40810 10260 20110 30158 40188 57014 60006 83101 91500=
07222,1997-07-21 18:00:00,26,1017.8,-1,37,10,25000,14.816,,,80,16.4,26.5,,,,,,,,,wg-a,,,,AAXX 21184 07222 12775 40808 10260 20100 30148 40178 56010 60006 81131 91800 333 10265 20164=
07222,1997-07-21 21:00:00,22,1018.5,0.7,50,11,20000,11.112,,,60,,,,,,,,,,,wg-a,,,,AAXX 21214 07222 12770 30606 10220 20110 30155 40185 53007 60006 815/1 92100=
07222,1997-07-22 00:00:00,20,1018.7,0.1,53,10,15000,11.112,,,50,,,,,,,,,,,wg-a,,,,AAXX 22004 07222 12/65 00506 10200 20100 30156 40187 50001 60006 80000 90000=
07222,1997-07-22 03:00:00,17,1018.2,-0.5,68,11,15000,14.816,,,60,,,,,,,,,,,wg-a,,,,AAXX 22034 07222 12/65 30608 10170 20110 30151 40182 56005 60006 80001 90300=
07222,1997-07-22 06:00:00,17,1018,-0.2,72,12,15000,14.816,,,50,16.4,25.5,,,,,,,,,wg-a,,,,AAXX 22064 07222 02/65 50508 10170 20120 30149 40180 55002 60006 80001 90600 333 10255 20164 60004=
07222,1997-07-22 09:00:00,23,1017.8,-0.1,57,14,20000,18.52,,,60,,,,,,,,,,,wg-a,,,,AAXX 22094 07222 12/70 40610 10230 20140 30148 40178 58001 60006 80001 90900=
07222,1997-07-22 12:00:00,26,1017.1,-0.7,45,13,500,22.224,,,80,,,,,,,,,,,wg-a,,,,AAXX 22124 07222 12700 60812 10260 20130 30141 40171 56007 60006 84101 91200=
07222,1997-07-22 15:00:00,28,1016.3,-0.8,37,12,500,25.928,,,90,,,,,,,,,,,wg-a,,,,AAXX 22154 07222 12700 50914 10280 20120 30133 40163 56008 60006 82101 91500=
07222,1997-07-22 18:00:00,27,1016.1,-0.2,39,12,500,14.816,,,60,16.6,28.3,,,,,,,,,wg-a,,,,AAXX 22184 07222 12700 40608 10270 20120 30131 40161 55002 60006 82101 91800 333 10283 20166=
07222,1997-07-22 21:00:00,24,1017,0.9,47,12,25000,7.408,,,40,,,,,,,,,,,wg-a,,,,AAXX 22214 07222 12/75 30404 10240 20120 30140 40170 53009 60006 81031 92100=
07222,1997-07-23 00:00:00,20,1017.4,0.3,64,13,20000,11.112,,,30,,,,,,,,,,,wg-a,,,,AAXX 23004 07222 12/70 20306 10200 20130 30143 40174 50003 60006 81031 90000=
07222,1997-07-23 03:00:00,18,1017.1,-0.3,73,13,20000,7.408,,,30,,,,,,,,,,,wg-a,,,,AAXX 23034 07222 12/70 20304 10180 20130 30140 40171 58003 60006 80001 90300=
07222,1997-07-23 06:00:00,18,1017.6,0.5,77,14,15000,7.408,,,20,16.6,27.1,,,,,,,,,wg-a,,,,AAXX 23064 07222 02/65 20204 10180 20140 30145 40176 53005 60006 80001 90600 333 10271 20166 60004=
07222,1997-07-23 09:00:00,23,1018,0.5,61,15,15000,11.112,,,30,,,,,,,,,,,wg-a,,,,AAXX 23094 07222 12/65 30306 10230 20150 30150 40180 51005 60006 80001 90900=
07222,1997-07-23 12:00:00,28,1017.7,-0.3,37,12,15000,7.408,,,90,,,,,,,,,,,wg-a,,,,AAXX 23124 07222 12765 20904 10280 20120 30147 40177 58003 60006 81101 91200=
07222,1997-07-23 18:00:00,27,1016.8,-0,45,14,25000,22.224,,,300,18,30,,,,,,,,,wg-a,,,,AAXX 23184 07222 12775 13012 10270 20140 30138 40168 55000 60006 81100 91800 333 10300 20180=
07222,1997-07-24 00:00:00,19,1018.1,0,68,13,20000,11.112,,,10,,,,,,,,,,,wg-a,,,,AAXX 24004 07222 12/70 00106 10190 20130 30150 40181 50000 60006 80000 90000=
07222,1997-07-24 03:00:00,16,1017.1,-1,82,13,10000,7.408,,,340,,,,,,,,,,,wg-a,,,,AAXX 24034 07222 12/60 23404 10160 20130 30140 40171 58010 60006 80001 90300=
07222,1997-07-24 06:00:00,16,1018,0.9,82,13,7000,11.112,,,320,15.1,27.4,,,,,,,,,wg-a,,,,AAXX 24064 07222 02457 73206 10160 20130 30149 40180 53009 60006 82502 90600 333 10274 20151 60004=
07222,1997-07-24 09:00:00,21,1018.4,0.5,56,12,15000,7.408,,,320,,,,,,,,,,,wg-a,,,,AAXX 24094 07222 12/65 53204 10210 20120 30154 40184 51005 60006 81032 90900=
07222,1997-07-24 12:00:00,25,1018.2,-0.2,39,10,22000,25.928,,,270,,,,,,,,,,,wg-a,,,,AAXX 24124 07222 12/72 42714 10250 20100 30152 40182 58002 60006 81032 91200=
07222,1997-07-24 15:00:00,23,1018,-0.2,50,12,25000,29.632,,,260,,,,,,,,,,,wg-a,,,,AAXX 24154 07222 12675 72616 10230 20120 30150 40180 58002 60006 84832 91500=
07222,1997-07-24 18:00:00,18,1017.4,-0.7,100,18,3500,18.52,,,240,16,25.5,,,,,,,,51,wg-a,,,,AAXX 24184 07222 02335 82410 10180 20180 30143 40174 58007 61000 75165 877// 91800 333 10255 20160 6100=
07222,1997-07-25 00:00:00,17,1018.7,0.4,88,15,10000,18.52,,,280,,,,,,,,,,1,wg-a,,,,AAXX 25004 07222 12660 32810 10170 20150 30156 40187 52004 60006 70165 83500 90000=
07222,1997-07-25 03:00:00,15,1018.8,0.1,94,14,10000,11.112,,,280,,,,,,,,,,,wg-a,,,,AAXX 25034 07222 12/60 32806 10150 20140 30157 40188 51001 60006 80001 90300=
07222,1997-07-25 06:00:00,15,1019.4,0.6,94,14,15000,7.408,,,250,14.3,18.7,,,,,,,,,wg-a,,,,AAXX 25064 07222 02765 72504 10150 20140 30163 40194 51006 60006 8257/ 90600 333 10187 20143 60004=
07222,1997-07-25 12:00:00,19,1017.5,-1.3,100,19,2000,25.928,,,250,,,,2,,,,,,51,wg-a,,,,AAXX 25124 07222 02220 82514 10190 20190 30144 40175 56013 60026 75165 887// 91200 333 60027=
07222,1997-07-25 15:00:00,21,1017.2,-0.2,88,19,8000,29.632,,,270,,,,0,,,,,,20,wg-a,,,,AAXX 25154 07222 12458 82716 10210 20190 30142 40172 56002 60007 72052 887// 91500=
07222,1997-07-25 18:00:00,19,1017.9,0.6,94,18,8000,25.928,,,280,15.2,20.6,,,,,,,,3,wg-a,,,,AAXX 25184 07222 12458 82814 10190 20180 30148 40179 53006 60006 70352 885// 91800 333 10206 20152=
07222,1997-07-25 21:00:00,18,1019.4,1.5,88,16,8000,22.224,,,270,,,,,,,,,,,wg-a,,,,AAXX 25214 07222 12358 82712 10180 20160 30163 40194 53015 60006 885// 92100=
07222,1997-07-26 00:00:00,17,1020.2,0.8,94,16,12000,11.112,,,260,,,,,,,,,,,wg-a,,,,AAXX 26004 07222 12362 82606 10170 20160 30171 40202 51008 60006 886// 90000=
07222,1997-07-26 03:00:00,17,1020.5,0.3,94,16,12000,14.816,,,270,,,,,,,,,,,wg-a,,,,AAXX 26034 07222 12462 82708 10170 20160 30174 40205 51003 60006 885// 90300=
07222,1997-07-26 06:00:00,17,1021.4,0.9,94,16,15000,7.408,,,260,16.3,19.1,,,,,,,,20,wg-a,,,,AAXX 26064 07222 02265 82604 10170 20160 30183 40214 53009 61000 72052 885// 90600 333 10191 20163 6003=
07222,1997-07-26 09:00:00,19,1022.1,0.7,94,18,15000,11.112,,,270,,,,,,,,,,,wg-a,,,,AAXX 26094 07222 12465 72706 10190 20180 30190 40221 52007 60006 875// 90900=
07222,1997-07-26 12:00:00,21,1022,-0.1,88,19,15000,14.816,,,250,,,,,,,,,,,wg-a,,,,AAXX 26124 07222 12465 72508 10210 20190 30189 40220 58001 60006 875// 91200=
07222,1997-07-26 18:00:00,21,1021.2,-0.2,83,18,15000,18.52,,,260,16.6,23.6,,,,,,,,,wg-a,,,,AAXX 26184 07222 12465 42610 10210 20180 30182 40212 55002 60006 83801 91800 333 10236 20166=
07222,1997-07-26 21:00:00,19,1021.8,0.5,94,18,15000,11.112,,,240,,,,,,,,,,,wg-a,,,,AAXX 26214 07222 12365 72406 10190 20180 30187 40218 53005 60006 875// 92100=
07222,1997-07-27 00:00:00,19,1021.6,-0.2,94,18,10000,14.816,,,240,,,,,,,,,,,wg-a,,,,AAXX 27004 07222 12260 72408 10190 20180 30185 40216 58002 60006 875// 90000=
07222,1997-07-27 03:00:00,19,1021.3,-0.3,100,19,2000,11.112,,,250,,,,,,,,,,10,wg-a,,,,AAXX 27034 07222 12220 82506 10190 20190 30182 40213 56003 60006 71022 886// 90300=
07222,1997-07-27 06:00:00,19,1021.6,0.3,100,19,6000,11.112,,,240,18.5,21.2,,,,,,,,2,wg-a,,,,AAXX 27064 07222 02156 72406 10190 20190 30185 40216 53003 60006 70252 876// 90600 333 10212 20185 61000=
07222,1997-07-27 09:00:00,21,1022.2,0.6,94,20,15000,14.816,,,260,,,,0,,,,,,1,wg-a,,,,AAXX 27094 07222 12465 72608 10210 20200 30191 40222 51006 60007 70162 878// 90900=
07222,1997-07-27 12:00:00,24,1022.2,0.1,74,19,20000,22.224,,,250,,,,,,,,,,3,wg-a,,,,AAXX 27124 07222 12570 72512 10240 20190 30192 40222 53001 60006 70362 87801 91200=
07222,1997-07-27 15:00:00,24,1022.2,-0,65,17,20000,14.816,,,270,,,,,,,,,,,wg-a,,,,AAXX 27154 07222 12570 62708 10240 20170 30192 40222 54000 60006 84831 91500=
07222,1997-07-27 18:00:00,23,1021.8,-0.4,61,15,20000,14.816,,,260,18.9,25.6,,,,,,,,,wg-a,,,,AAXX 27184 07222 12670 /2608 10230 20150 30188 40218 55004 60006 81201 91800 333 10256 20189=
07222,1997-07-27 21:00:00,17,1023,1.1,88,15,20000,3.704,,,240,,,,,,,,,,,wg-a,,,,AAXX 27214 07222 12/70 22402 10170 20150 30199 40230 53011 60006 80001 92100=
07222,1997-07-28 00:00:00,15,1023,0,94,14,12000,7.408,,,360,,,,,,,,,,,wg-a,,,,AAXX 28004 07222 12/62 23604 10150 20140 30199 40230 50000 60006 80001 90000=
07222,1997-07-28 03:00:00,15,1022.3,-0.7,94,14,12000,0,,,0,,,,,,,,,,,wg-a,,,,AAXX 28034 07222 12662 30000 10150 20140 30192 40223 57007 60006 83500 90300=
07222,1997-07-28 06:00:00,16,1022.6,0.3,88,14,12000,7.408,,,30,13.7,23.2,,,,,,,,,wg-a,,,,AAXX 28064 07222 02662 30304 10160 20140 30195 40226 53003 60006 82501 90600 333 10232 20137 60004=
07222,1997-07-28 09:00:00,22,1022.9,0.3,65,15,20000,7.408,,,60,,,,,,,,,,,wg-a,,,,AAXX 28094 07222 12670 /0604 10220 20150 30198 40229 51003 60006 81201 90900=
07222,1997-07-28 12:00:00,27,1022,-0.8,51,16,25000,3.704,,,170,,,,,,,,,,,wg-a,,,,AAXX 28124 07222 12675 31702 10270 20160 30190 40220 58008 60006 83200 91200=
07222,1997-07-28 15:00:00,27,1020.6,-1.4,48,15,25000,3.704,,,290,,,,,,,,,,,wg-a,,,,AAXX 28154 07222 12775 32902 10270 20150 30176 40206 56014 60006 81201 91500=
07222,1997-07-28 18:00:00,25,1020.3,-0.3,57,16,25000,18.52,,,270,15.8,28.6,,,,,,,,,wg-a,,,,AAXX 28184 07222 12775 42710 10250 20160 30173 40203 55003 60006 81101 91800 333 10286 20158=
07222,1997-07-28 21:00:00,20,1021.2,0.8,78,16,25000,3.704,,,320,,,,,,,,,,,wg-a,,,,AAXX 28214 07222 12/75 43202 10200 20160 30181 40212 53008 60006 80001 92100=
07222,1997-07-29 00:00:00,20,1021.1,-0.1,64,13,25000,11.112,,,50,,,,,,,,,,,wg-a,,,,AAXX 29004 07222 12/75 00506 10200 20130 30180 40211 58001 60006 80000 90000=
07222,1997-07-29 03:00:00,18,1020.4,-0.7,73,13,25000,7.408,,,60,,,,,,,,,,,wg-a,,,,AAXX 29034 07222 12/75 00604 10180 20130 30173 40204 57007 60006 80000 90300=
07222,1997-07-29 06:00:00,17,1020.9,0.5,82,14,20000,3.704,,,60,16.7,24.9,,,,,,,,,wg-a,,,,AAXX 29064 07222 02770 30602 10170 20140 30178 40209 53005 60006 815/1 90600 333 10249 20167 60004=
07222,1997-07-29 09:00:00,24,1020.7,-0.1,54,14,25000,7.408,,,170,,,,,,,,,,,wg-a,,,,AAXX 29094 07222 12/75 31704 10240 20140 30177 40207 58001 60006 80001 90900=
07222,1997-07-29 12:00:00,28,1020,-0.7,51,17,25000,14.816,,,200,,,,,,,,,,,wg-a,,,,AAXX 29124 07222 12675 42008 10280 20170 30170 40200 58007 60006 83201 91200=
07222,1997-07-29 15:00:00,28,1019.7,-0.3,51,17,25000,22.224,,,250,,,,,,,,,,,wg-a,,,,AAXX 29154 07222 12775 12512 10280 20170 30167 40197 57003 60006 81201 91500=
07222,1997-07-29 18:00:00,25,1019.1,-0.6,54,15,500,14.816,,,270,17.4,29,,,,,,,,,wg-a,,,,AAXX 29184 07222 12/00 12708 10250 20150 30161 40191 58006 60006 80001 91800 333 10290 20174=
07222,1997-07-29 21:00:00,19,1020.3,1.1,88,17,500,11.112,,,280,,,,,,,,,,,wg-a,,,,AAXX 29214 07222 12/00 12806 10190 20170 30172 40203 53011 60006 80001 92100=
07222,1997-07-30 00:00:00,15,1019.9,-0.4,100,15,8000,3.704,,,220,,,,,,,,,,,wg-a,,,,AAXX 30004 07222 12/58 /2202 10150 20150 30168 40199 58004 60006 80001 90000=
07222,1997-07-30 03:00:00,14,1019.4,-0.5,100,14,10000,0,,,0,,,,,,,,,,11,wg-a,,,,AAXX 30034 07222 32/60 00000 10140 20140 30163 40194 56005 71100 80000 90300=
07222,1997-07-30 06:00:00,15,1020.2,0.8,100,15,8000,3.704,,,310,13.1,25.1,,,,,,,,28,wg-a,,,,AAXX 30064 07222 02/58 33102 10150 20150 30171 40202 51008 60006 72840 81031 90600 333 10251 20131 60004=
07222,1997-07-30 09:00:00,20,1020.9,0.7,78,16,15000,11.112,,,290,,,,,,,,,,,wg-a,,,,AAXX 30094 07222 12465 /2906 10200 20160 30178 40209 51007 60006 8183/ 90900=
07222,1997-07-30 12:00:00,23,1021.1,0.3,73,18,15000,14.816,,,310,,,,,,,,,,,wg-a,,,,AAXX 30124 07222 12565 73108 10230 20180 30181 40211 50003 60006 878// 91200=
07222,1997-07-30 15:00:00,22,1020.9,-0.2,83,19,10000,11.112,,,290,,,,,,,,,,21,wg-a,,,,AAXX 30154 07222 02460 72906 10220 20190 30179 40209 58002 61000 72162 878// 91500 333 ////=
07222,1997-07-30 18:00:00,24,1020.2,-0.7,61,16,20000,7.408,,,290,15.1,24.1,,,,,,,,1,wg-a,,,,AAXX 30184 07222 12570 42904 10240 20160 30172 40202 56007 60006 70161 82201 91800 333 10241 20151=
07222,1997-07-30 21:00:00,19,1022.3,2,60,11,20000,11.112,,,20,,,,,,,,,,,wg-a,,,,AAXX 30214 07222 12670 30206 10190 20110 30192 40223 53020 60006 81401 92100=
07222,1997-07-31 00:00:00,15,1022.9,0.6,77,11,20000,3.704,,,10,,,,,,,,,,,wg-a,,,,AAXX 31004 07222 12/70 20102 10150 20110 30198 40229 51006 60006 80001 90000=
07222,1997-07-31 03:00:00,13,1022.7,-0.3,82,10,20000,3.704,,,310,,,,,,,,,,,wg-a,,,,AAXX 31034 07222 12/70 73102 10130 20100 30195 40227 57003 60006 80001 90300=
07222,1997-07-31 06:00:00,13,1023.1,0.4,88,11,25000,3.704,,,310,11.7,24,,,,,,,,,wg-a,,,,AAXX 31064 07222 02775 53102 10130 20110 30199 40231 53004 60006 825/2 90600 333 10240 20117 61000=
07222,1997-07-31 09:00:00,18,1023.5,0.5,73,13,500,11.112,,,310,,,,,,,,,,,wg-a,,,,AAXX 31094 07222 12500 /3106 10180 20130 30204 40235 50005 60006 82102 90900=
07222,1997-07-31 12:00:00,21,1022.6,-0.9,53,11,500,11.112,,,310,,,,,,,,,,,wg-a,,,,AAXX 31124 07222 12600 73106 10210 20110 30195 40226 58009 60006 83302 91200=
07222,1997-07-31 15:00:00,23,1021.1,-1.4,50,12,500,18.52,,,280,,,,,,,,,,,wg-a,,,,AAXX 31154 07222 12/00 72810 10230 20120 30181 40211 58014 60006 80002 91500=
07222,1997-07-31 18:00:00,20,1020.7,-0.5,64,13,500,22.224,,,270,12.6,23.6,,,,,,,,,wg-a,,,,AAXX 31184 07222 12/00 72712 10200 20130 30176 40207 57005 60006 80002 91800 333 10236 20126=
07222,1997-07-31 21:00:00,17,1020.9,0.2,77,13,10000,11.112,,,280,,,,,,,,,,,wg-a,,,,AAXX 31214 07222 12/60 /2806 10170 20130 30178 40209 53002 60006 92100=
07222,1997-08-01 00:00:00,15,1020.7,-0.2,88,13,20000,7.408,,,30,,,,,,,,,,,wg-a,,,,AAXX 01004 07222 12/70 20304 10150 20130 30176 40207 58002 60006 80001 90000=
07222,1997-08-01 03:00:00,13,1019.8,-0.9,88,11,20000,3.704,,,310,,,,,,,,,,,wg-a,,,,AAXX 01034 07222 12/70 03102 10130 20110 30167 40198 56009 60006 80000 90300=
07222,1997-08-01 06:00:00,13,1019.8,-0,94,12,15000,3.704,,,280,11.8,20.1,,,,,,,,,wg-a,,,,AAXX 01064 07222 02/65 02802 10130 20120 30167 40198 55000 60006 80000 90600 333 10201 20118 60004=
07222,1997-08-01 09:00:00,18,1020.2,0.4,73,13,500,14.816,,,320,,,,,,,,,,,wg-a,,,,AAXX 01094 07222 12500 /3208 10180 20130 30171 40202 50004 60006 86200 90900=
07222,1997-08-01 12:00:00,21,1019.3,-0.9,53,11,500,11.112,,,280,,,,,,,,,,,wg-a,,,,AAXX 01124 07222 12600 32806 10210 20110 30162 40193 57009 60006 81101 91200=
07222,1997-08-01 15:00:00,24,1018.4,-0.8,50,13,500,14.816,,,310,,,,,,,,,,,wg-a,,,,AAXX 01154 07222 12/00 13108 10240 20130 30154 40184 56008 60006 80001 91500=
07222,1997-08-01 18:00:00,22,1018.1,-0.3,60,14,500,18.52,,,270,12.7,23.8,,,,,,,,,wg-a,,,,AAXX 01184 07222 12/00 12710 10220 20140 30151 40181 55003 60006 80001 91800 333 10238 20127=
07222,1997-08-01 21:00:00,17,1018.9,0.7,82,14,10000,3.704,,,240,,,,,,,,,,,wg-a,,,,AAXX 01214 07222 12/60 /2402 10170 20140 30158 40189 53007 60006 92100=
07222,1997-08-02 00:00:00,15,1019.2,0.3,94,14,20000,0,,,0,,,,,,,,,,,wg-a,,,,AAXX 02004 07222 12/70 10000 10150 20140 30161 40192 51003 60006 80002 90000=
07222,1997-08-02 03:00:00,14,1018.8,-0.4,94,13,15000,0,,,0,,,,,,,,,,,wg-a,,,,AAXX 02034 07222 12/65 10000 10140 20130 30157 40188 56004 60006 80002 90300=
07222,1997-08-02 06:00:00,15,1018.8,-0,100,15,20000,3.704,,,60,13.5,21.6,,,,,,,,,wg-a,,,,AAXX 02064 07222 02770 30602 10150 20150 30157 40188 54000 60006 82501 90600 333 10216 20135 60004=
07222,1997-08-02 09:00:00,23,1018.7,0,73,18,20000,7.408,,,80,,,,,,,,,,,wg-a,,,,AAXX 02094 07222 12670 /0804 10230 20180 30157 40187 50000 60006 82501 90900=
07222,1997-08-02 12:00:00,27,1018.2,-0.5,51,16,25000,3.704,,,30,,,,,,,,,,,wg-a,,,,AAXX 02124 07222 12675 70302 10270 20160 30152 40182 58005 60006 85802 91200=
07222,1997-08-02 15:00:00,26,1017.6,-0.6,61,18,25000,3.704,,,260,,,,,,,,,,,wg-a,,,,AAXX 02154 07222 12675 72602 10260 20180 30146 40176 56006 60006 875// 91500=
07222,1997-08-02 18:00:00,25,1016.9,-0.7,69,19,25000,11.112,,,20,15.4,26.6,,,,,,,,,wg-a,,,,AAXX 02184 07222 12675 70206 10250 20190 30139 40169 56007 60006 878// 91800 333 10266 20154=
07222,1997-08-02 21:00:00,23,1017.4,0.5,78,19,20000,3.704,,,30,,,,,,,,,,,wg-a,,,,AAXX 02214 07222 12670 50302 10230 20190 30144 40174 53005 60006 82501 92100=
07222,1997-08-03 00:00:00,21,1017.1,-0.3,83,18,18000,7.408,,,50,,,,,,,,,,,wg-a,,,,AAXX 03004 07222 12/68 30504 10210 20180 30141 40171 58003 60006 80001 90000=
07222,1997-08-03 03:00:00,19,1016.1,-1.1,88,17,18000,3.704,,,20,,,,,,,,,,,wg-a,,,,AAXX 03034 07222 12/68 20202 10190 20170 30130 40161 56011 60006 80001 90300=
07222,1997-08-03 06:00:00,20,1015.7,-0.3,88,18,15000,3.704,,,50,17.4,25.4,,,,,,,,,wg-a,,,,AAXX 03064 07222 02/65 20502 10200 20180 30127 40157 57003 60006 82030 90600 333 10254 20174 60004=
07222,1997-08-03 09:00:00,26,1015.8,0.1,70,20,500,3.704,,,70,,,,,,,,,,,wg-a,,,,AAXX 03094 07222 12/00 30702 10260 20200 30128 40158 50001 60006 83030 90900=
07222,1997-08-03 12:00:00,29,1014.6,-1.2,52,18,500,7.408,,,280,,,,,,,,,,,wg-a,,,,AAXX 03124 07222 12600 32804 10290 20180 30116 40146 57012 60006 83200 91200=
07222,1997-08-03 15:00:00,30,1013.7,-0.8,49,18,500,18.52,,,270,,,,,,,,,,,wg-a,,,,AAXX 03154 07222 12700 22710 10300 20180 30108 40137 55008 60006 81232 91500=
07222,1997-08-03 18:00:00,27,1013.5,-0.3,51,16,500,14.816,,,270,19.8,31.2,,,,,,,,,wg-a,,,,AAXX 03184 07222 12/00 62708 10270 20160 30105 40135 55003 60006 85032 91800 333 10312 20198=
07222,1997-08-03 21:00:00,23,1013.8,0.3,73,18,500,7.408,,,280,,,,,,,,,,,wg-a,,,,AAXX 03214 07222 12/00 62804 10230 20180 30108 40138 53003 60006 86030 92100=
07222,1997-08-04 00:00:00,20,1013.9,0.1,94,19,500,7.408,,,300,,,,,,,,,,,wg-a,,,,AAXX 04004 07222 12/00 63004 10200 20190 30109 40139 50001 60006 86030 90000=
07222,1997-08-04 03:00:00,17,1013.8,-0.2,100,17,15000,11.112,,,290,,,,,,,,,,,wg-a,,,,AAXX 04034 07222 12/65 22906 10170 20170 30107 40138 55002 60006 82030 90300=
07222,1997-08-04 06:00:00,17,1013.7,-0.1,94,16,7000,3.704,,,320,16.3,26.5,,,,,,,,,wg-a,,,,AAXX 04064 07222 02/57 /3202 10170 20160 30106 40137 56001 60006 81080 90600 333 10265 20163 60004=
07222,1997-08-04 12:00:00,22,1014.9,-0.1,73,17,12000,11.112,,,270,,,,,,,,,,3,wg-a,,,,AAXX 04124 07222 12662 72706 10220 20170 30119 40149 58001 60006 70391 8598/ 91200=
07222,1997-08-04 15:00:00,24,1014.8,-0.1,65,17,18000,11.112,,,190,,,,,,,,,,1,wg-a,,,,AAXX 04154 07222 02568 51906 10240 20170 30118 40148 58001 61000 70162 81282 91500 333 ////=
07222,1997-08-04 18:00:00,23,1014.4,-0.4,69,17,12000,11.112,,,240,16.7,24.8,,,,,,,,1,wg-a,,,,AAXX 04184 07222 12662 72406 10230 20170 30114 40144 57004 60006 70162 875// 91800 333 10248 20167=
07222,1997-08-04 21:00:00,20,1016.3,1.8,83,17,10000,7.408,,,280,,,,,,,,,,,wg-a,,,,AAXX 04214 07222 12660 72804 10200 20170 30132 40163 53018 60006 875// 92100=
07222,1997-08-05 00:00:00,18,1015.5,-0.8,100,18,10000,3.704,,,350,,,,0,,,,,,,wg-a,,,,AAXX 05004 07222 02560 73502 10180 20180 30124 40155 58008 60006 875// 90000 333 60007=
07222,1997-08-05 03:00:00,18,1015.2,-0.3,94,17,11000,7.408,,,260,,,,,,,,,,,wg-a,,,,AAXX 05034 07222 32/61 /2604 10180 20170 30121 40152 57003 90300=
07222,1997-08-05 06:00:00,18,1015.8,0.6,100,18,7000,3.704,,,260,17.5,23.2,,,,,,,,1,wg-a,,,,AAXX 05064 07222 02257 72602 10180 20180 30127 40158 53006 60006 70162 877// 90600 333 10232 20175 60004=
07222,1997-08-05 09:00:00,21,1015.5,-0.2,83,18,15000,3.704,,,280,,,,,,,,,,,wg-a,,,,AAXX 05094 07222 12465 /2802 10210 20180 30125 40155 55002 60006 86800 90900=
07222,1997-08-05 12:00:00,20,1015.7,0.2,88,18,25000,7.408,,,290,,,,1,,,,,,61,wg-a,,,,AAXX 05124 07222 02575 82904 10200 20180 30127 40157 52002 60016 76162 878// 91200 333 60017=
07222,1997-08-05 15:00:00,22,1014.8,-0.9,78,18,25000,3.704,,,250,,,,,,,,,,1,wg-a,,,,AAXX 05154 07222 02575 72502 10220 20180 30118 40148 57009 61000 70186 878// 91500 333 ////=
07222,1997-08-05 18:00:00,21,1014.2,-0.6,83,18,25000,11.112,,,220,17.9,22.6,,,,,,,,3,wg-a,,,,AAXX 05184 07222 12475 72206 10210 20180 30112 40142 56006 60006 70386 873// 91800 333 10226 20179=
07222,1997-08-05 21:00:00,19,1015.1,0.8,88,17,20000,7.408,,,230,,,,,,,,,,,wg-a,,,,AAXX 05214 07222 12570 72304 10190 20170 30120 40151 51008 60006 875// 92100=
07222,1997-08-06 00:00:00,17,1014.9,-0.2,88,15,20000,7.408,,,260,,,,0,,,,,,2,wg-a,,,,AAXX 06004 07222 02470 72604 10170 20150 30118 40149 58002 60006 70286 878// 90000 333 60007=
07222,1997-08-06 03:00:00,16,1013.9,-1,100,16,15000,3.704,,,230,,,,,,,,,,,wg-a,,,,AAXX 06034 07222 12465 42302 10160 20160 30108 40139 58010 60006 84800 90300=
07222,1997-08-06 06:00:00,17,1014,0.1,94,16,8000,3.704,,,230,15.7,20.4,,,,,1,,,,wg-a,,,,AAXX 06064 07222 02458 /2302 10170 20160 30109 40140 52001 60006 86800 90600 333 10204 20157 60014=
07222,1997-08-06 09:00:00,21,1014,0.1,73,16,3000,11.112,,,210,,,,,,,,,,,wg-a,,,,AAXX 06094 07222 12530 22106 10210 20160 30110 40140 53001 60006 81201 90900=
07222,1997-08-06 12:00:00,24,1013.7,-0.3,57,15,500,11.112,,29.632,210,,,,,,,,,,,wg-a,,,,AAXX 06124 07222 12500 32106 10240 20150 30107 40137 58003 60006 82201 91200 333 91016=
07222,1997-08-06 15:00:00,26,1012.4,-1.3,51,15,500,11.112,,,220,,,,,,,,,,,wg-a,,,,AAXX 06154 07222 12600 /2206 10260 20150 30094 40124 58013 60006 82201 91500=
07222,1997-08-06 18:00:00,23,1012.3,-0.1,65,16,500,18.52,,,270,16.6,26.7,,,,,,,,,wg-a,,,,AAXX 06184 07222 12600 72710 10230 20160 30093 40123 57001 60006 85881 91800 333 10267 20166=
07222,1997-08-06 21:00:00,19,1013.4,1.1,83,16,15000,3.704,,,310,,,,,,,,,,25,wg-a,,,,AAXX 06214 07222 02765 43102 10190 20160 30104 40134 53011 61000 72586 83501 92100 333 ////=
07222,1997-08-07 00:00:00,18,1013.2,-0.3,94,17,20000,0,,,0,,,,,,,,,,2,wg-a,,,,AAXX 07004 07222 02770 50000 10180 20170 30101 40132 58003 61000 70286 85500 90000 333 ////=
07222,1997-08-07 03:00:00,18,1012.4,-0.8,94,17,20000,7.408,,,70,,,,,,,,,,,wg-a,,,,AAXX 07034 07222 12770 50704 10180 20170 30093 40124 56008 60006 85500 90300=
07222,1997-08-07 06:00:00,20,1012.1,-0.2,83,17,10000,14.816,,,60,17.1,22.8,,,,,,,,,wg-a,,,,AAXX 07064 07222 02760 70608 10200 20170 30091 40121 58002 60006 85531 90600 333 10228 20171 61000=
07222,1997-08-07 09:00:00,23,1012.3,0.2,73,18,12000,11.112,,,80,,,,,,,,,,,wg-a,,,,AAXX 07094 07222 12762 70806 10230 20180 30093 40123 50002 60006 84532 90900=
07222,1997-08-07 12:00:00,27,1012.3,0,54,17,500,11.112,,,70,,,,,,,,,,,wg-a,,,,AAXX 07124 07222 12600 40706 10270 20170 30093 40123 50000 60006 83230 91200=
07222,1997-08-07 15:00:00,28,1011.5,-0.8,51,17,500,11.112,,,120,,,,,,,,,,,wg-a,,,,AAXX 07154 07222 12600 51206 10280 20170 30085 40115 56008 60006 84201 91500=
07222,1997-08-07 18:00:00,22,1012.4,0.9,94,21,12000,7.408,,,350,19.8,28.9,,1,,,,,,29,wg-a,,,,AAXX 07184 07222 02662 63504 10220 20210 30094 40124 53009 60006 72998 84931 91800 333 10289 20198 60017=
07222,1997-08-07 21:00:00,20,1014,1.6,83,17,12000,11.112,,,40,,,,,,,,,,,wg-a,,,,AAXX 07214 07222 12/62 30406 10200 20170 30110 40140 53016 60006 81041 92100=
07222,1997-08-08 00:00:00,20,1014.3,0.3,83,17,12000,7.408,,,50,,,,,,,,,,,wg-a,,,,AAXX 08004 07222 12/62 00504 10200 20170 30113 40143 50003 60006 80000 90000=
07222,1997-08-08 03:00:00,18,1014.9,0.5,94,17,12000,3.704,,,20,,,,,,,,,,,wg-a,,,,AAXX 08034 07222 12/62 00202 10180 20170 30118 40149 51005 60006 80000 90300=
07222,1997-08-08 06:00:00,19,1016,1.1,94,18,10000,3.704,,,30,17.4,22.6,,,,,1,,,,wg-a,,,,AAXX 08064 07222 02/60 20302 10190 20180 30129 40160 52011 60006 80001 90600 333 10226 20174 60014=
07222,1997-08-08 09:00:00,26,1017.1,1.2,61,18,15000,7.408,,,50,,,,,,,,,,,wg-a,,,,AAXX 08094 07222 12/65 20504 10260 20180 30141 40171 51012 60006 80001 90900=
07222,1997-08-08 12:00:00,30,1016.7,-0.3,46,17,20000,11.112,,,50,,,,,,,,,,,wg-a,,,,AAXX 08124 07222 12670 /0506 10300 20170 30138 40167 58003 60006 81101 91200=
07222,1997-08-08 15:00:00,32,1015.8,-0.9,36,15,25000,7.408,,,70,,,,,,,,,,,wg-a,,,,AAXX 08154 07222 12775 20704 10320 20150 30129 40158 56009 60006 82100 91500=
07222,1997-08-08 18:00:00,31,1015.9,0.1,33,13,500,11.112,,,80,18.8,32,,,,,,,,,wg-a,,,,AAXX 08184 07222 12700 10806 10310 20130 30130 40159 53001 60006 81100 91800 333 10320 20188=
07222,1997-08-09 00:00:00,23,1017.7,0.5,69,17,500,7.408,,,40,,,,,,,,,,,wg-a,,,,AAXX 09004 07222 12/00 00404 10230 20170 30147 40177 51005 60006 80000 90000=
07222,1997-08-09 06:00:00,21,1018.5,0.8,78,17,12000,7.408,,,70,20.2,31.1,,,,,,,,,wg-a,,,,AAXX 09064 07222 02/62 30704 10210 20170 30155 40185 53008 60006 80001 90600 333 10311 20202 60004=
07222,1997-08-09 09:00:00,27,1018.7,0.2,54,17,18000,18.52,,,70,,,,,,,,,,,wg-a,,,,AAXX 09094 07222 12/68 30710 10270 20170 30157 40187 50002 60006 80001 90900=
07222,1997-08-09 12:00:00,31,1017.8,-0.8,38,15,20000,25.928,,,70,,,,,,,,,,,wg-a,,,,AAXX 09124 07222 12/70 40714 10310 20150 30149 40178 58008 60006 80001 91200=
07222,1997-08-09 15:00:00,32,1016.7,-1.1,32,13,20000,18.52,,,80,,,,,,,,,,,wg-a,,,,AAXX 09154 07222 12/70 50810 10320 20130 30138 40167 56011 60006 80002 91500=
07222,1997-08-09 18:00:00,31,1015.3,-1.4,31,12,20000,18.52,,,50,20.8,32.6,,,,,,,,,wg-a,,,,AAXX 09184 07222 12/70 30510 10310 20120 30124 40153 57014 60006 80002 91800 333 10326 20208=
07222,1997-08-09 21:00:00,27,1016.1,0.7,45,14,20000,11.112,,,50,,,,,,,,,,,wg-a,,,,AAXX 09214 07222 12/70 20506 10270 20140 30131 40161 51007 60006 80002 92100=
07222,1997-08-10 00:00:00,24,1015.9,-0.2,61,16,20000,18.52,,,60,,,,,,,,,,,wg-a,,,,AAXX 10004 07222 12/70 50610 10240 20160 30129 40159 58002 60006 83032 90000=
07222,1997-08-10 03:00:00,22,1014.3,-1.6,78,18,20000,14.816,,,50,,,,,,,,,,,wg-a,,,,AAXX 10034 07222 12/70 20508 10220 20180 30113 40143 56016 60006 80001 90300=
07222,1997-08-10 06:00:00,21,1014,-0.3,78,17,15000,11.112,,,60,20.7,31.1,,,,,,,,,wg-a,,,,AAXX 10064 07222 02765 70606 10210 20170 30110 40140 55003 60006 82572 90600 333 10311 20207 60004=
07222,1997-08-10 09:00:00,27,1012.4,-1.6,54,17,20000,11.112,,,50,,,,,,,,,,,wg-a,,,,AAXX 10094 07222 12/70 50506 10270 20170 30094 40124 58016 60006 80002 90900=
07222,1997-08-10 12:00:00,34,1010.4,-1.9,39,18,20000,22.224,,,120,,,,,,,,,,,wg-a,,,,AAXX 10124 07222 12/70 71212 10340 20180 30075 40104 56019 60006 83032 91200=
07222,1997-08-10 15:00:00,25,1011.7,1.2,69,19,11000,22.224,,,300,,,,,,,,,,,wg-a,,,,AAXX 10154 07222 12/61 /3012 10250 20190 30087 40117 51012 60006 91500=
07222,1997-08-10 18:00:00,25,1010.6,-1.1,69,19,15000,11.112,,,60,21.3,33.8,,,,,,,,3,wg-a,,,,AAXX 10184 07222 12665 70606 10250 20190 30076 40106 55011 60006 70392 85902 91800 333 10338 20213=
07222,1997-08-10 21:00:00,23,1012,1.4,83,20,15000,7.408,,,290,,,,,,,,,,1,wg-a,,,,AAXX 10214 07222 12665 72904 10230 20200 30090 40120 52014 60006 70192 83832 92100=
07222,1997-08-11 00:00:00,20,1012.7,0.7,94,19,15000,11.112,,,260,,,,,,,,,,3,wg-a,,,,AAXX 11004 07222 12565 72606 10200 20190 30097 40127 53007 60006 70392 8353/ 90000=
07222,1997-08-11 03:00:00,20,1012.1,-0.6,88,18,15000,11.112,,,270,,,,,,,,,,,wg-a,,,,AAXX 11034 07222 12465 72706 10200 20180 30091 40121 55006 60006 84531 90300=
07222,1997-08-11 06:00:00,19,1013.5,1.4,100,19,500,11.112,,,280,19.1,25.3,,,,,,,,61,wg-a,,,,AAXX 11064 07222 02400 82806 10190 20190 30105 40135 52014 61000 76162 8758/ 90600 333 10253 20191 6001=
07222,1997-08-11 09:00:00,21,1015.4,1.9,94,20,4000,14.816,,,310,,,,0,,,,,,10,wg-a,,,,AAXX 11094 07222 12440 83108 10210 20200 30124 40154 51019 60007 71062 876// 90900=
07222,1997-08-11 12:00:00,24,1016.8,1.4,69,18,12000,18.52,,,290,,,,,,,,,,1,wg-a,,,,AAXX 11124 07222 12562 72910 10240 20180 30138 40168 51014 60006 70162 8683/ 91200=
07222,1997-08-11 15:00:00,26,1017.4,0.6,61,18,15000,14.816,,,290,,,,,,,,,,,wg-a,,,,AAXX 11154 07222 12665 /2908 10260 20180 30144 40174 50006 60006 82201 91500=
07222,1997-08-11 18:00:00,25,1018.5,1.1,65,18,20000,18.52,,,290,19.1,27.2,,,,,,,,,wg-a,,,,AAXX 11184 07222 12/70 02910 10250 20180 30155 40185 53011 60006 80000 91800 333 10272 20191=
07222,1997-08-11 21:00:00,20,1020.2,1.6,88,18,20000,14.816,,,270,,,,,,,,,,,wg-a,,,,AAXX 11214 07222 12/70 02708 10200 20180 30171 40202 51016 60006 80000 92100=
07222,1997-08-12 00:00:00,17,1020.7,0.5,100,17,15000,0,,,0,,,,,,,,,,,wg-a,,,,AAXX 12004 07222 12/65 00000 10170 20170 30176 40207 51005 60006 80000 90000=
07222,1997-08-12 03:00:00,16,1020.9,0.2,94,15,10000,0,,,0,,,,,,,,,,,wg-a,,,,AAXX 12034 07222 12/60 00000 10160 20150 30178 40209 50002 60006 80000 90300=
07222,1997-08-12 06:00:00,14,1021.7,0.8,100,14,6000,0,,,0,13.6,24.9,,,,,,,,28,wg-a,,,,AAXX 12064 07222 02156 30000 10140 20140 30186 40217 52008 60006 72840 81601 90600 333 10249 20136 60004=
07222,1997-08-12 09:00:00,24,1021.7,0.1,61,16,15000,7.408,,,80,,,,0,,,,,,,wg-a,,,,AAXX 12094 07222 12/65 30804 10240 20160 30187 40217 50001 60007 81031 90900=
07222,1997-08-12 12:00:00,28,1021.2,-0.5,48,16,25000,7.408,,,200,,,,,,,,,,,wg-a,,,,AAXX 12124 07222 12/75 32004 10280 20160 30182 40212 58005 60006 80001 91200=
07222,1997-08-12 15:00:00,30,1020,-1.2,38,14,25000,7.408,,,100,,,,,,,,,,,wg-a,,,,AAXX 12154 07222 12/75 51004 10300 20140 30170 40200 58012 60006 80002 91500=
07222,1997-08-12 18:00:00,28,1019.5,-0.5,55,18,25000,14.816,,,240,14.3,30.7,,,,,,,,,wg-a,,,,AAXX 12184 07222 12/75 42408 10280 20180 30165 40195 55005 60006 80002 91800 333 10307 20143=
07222,1997-08-12 21:00:00,22,1020.8,1.3,65,15,15000,14.816,,,280,,,,,,,,,,,wg-a,,,,AAXX 12214 07222 12/65 62808 10220 20150 30178 40208 53013 60006 80002 92100=
07222,1997-08-13 03:00:00,,1,-0.7,,,15000,0,,,0,,,,,,,,,,1,wg-a,,,,AAXX 13034 07222 32765 20000 1//// 2//// 30185 55007 70196 82500 90300=
07222,1997-08-13 06:00:00,18,1023.5,1.9,100,18,10000,0,,,0,,,,,,,,,,3,wg-a,,,,AAXX 13064 07222 12760 60000 10180 20180 30204 40235 53019 60006 70396 86500 90600=
07222,1997-08-13 09:00:00,23,1024.1,0.7,69,17,500,7.408,,,330,,,,,,,,,,,wg-a,,,,AAXX 13094 07222 12600 63304 10230 20170 30211 40241 51007 60006 82582 90900=
07222,1997-08-13 12:00:00,27,1024.1,0,51,16,500,14.816,,,300,,,,,,,,,,,wg-a,,,,AAXX 13124 07222 12600 23008 10270 20160 30211 40241 50000 60006 82801 91200=
07222,1997-08-13 18:00:00,25,1024.4,0.1,57,16,500,18.52,,,300,17.5,27.8,,,,,,,,,wg-a,,,,AAXX 13184 07222 12/00 23010 10250 20160 30214 40244 53001 60006 81031 91800 333 10278 20175=
07222,1997-08-13 21:00:00,20,1025.1,0.6,83,17,20000,11.112,,,290,,,,,,,,,,,wg-a,,,,AAXX 13214 07222 12770 32906 10200 20170 30220 40251 51006 60006 83500 92100=
07222,1997-08-14 00:00:00,18,1025.2,0.1,94,17,20000,7.408,,,330,,,,,,,,,,,wg-a,,,,AAXX 14004 07222 12770 33304 10180 20170 30221 40252 50001 60006 83500 90000=
07222,1997-08-14 03:00:00,18,1024.6,-0.6,83,15,20000,7.408,,,20,,,,,,,,,,,wg-a,,,,AAXX 14034 07222 12770 30204 10180 20150 30215 40246 56006 60006 83500 90300=
07222,1997-08-14 06:00:00,17,1024.5,-0.1,88,15,15000,7.408,,,30,16.8,25.3,,,,,,,,,wg-a,,,,AAXX 14064 07222 02/65 10304 10170 20150 30214 40245 55001 60006 80001 90600 333 10253 20168 60004=
07222,1997-08-14 09:00:00,25,1023.6,-0.8,61,17,20000,18.52,,,80,,,,,,,,,,,wg-a,,,,AAXX 14094 07222 12670 /0810 10250 20170 30206 40236 58008 60006 81501 90900=
07222,1997-08-14 12:00:00,29,1022.2,-1.4,48,17,500,7.408,,,20,,,,,,,,,,,wg-a,,,,AAXX 14124 07222 12600 /0204 10290 20170 30192 40222 56014 60006 86801 91200=
07222,1997-08-14 15:00:00,30,1020.9,-1.3,46,17,500,7.408,,,70,,,,,,,,,,,wg-a,,,,AAXX 14154 07222 12600 70704 10300 20170 30179 40209 57013 60006 87800 91500=
07222,1997-08-14 18:00:00,29,1019.9,-1,48,17,25000,7.408,,,40,17.3,30,,,,,,,,,wg-a,,,,AAXX 14184 07222 12775 20404 10290 20170 30169 40199 56010 60006 82500 91800 333 10300 20173=
07222,1997-08-14 21:00:00,24,1020.7,0.8,65,17,20000,7.408,,,30,,,,,,,,,,,wg-a,,,,AAXX 14214 07222 12770 20304 10240 20170 30177 40207 53008 60006 81502 92100=
07222,1997-08-15 00:00:00,23,1020.4,-0.3,69,17,10000,7.408,,,30,,,,,,,,,,,wg-a,,,,AAXX 15004 07222 12/60 /0304 10230 20170 30174 40204 58003 60006 90000=
07222,1997-08-15 03:00:00,21,1019.8,-0.6,78,17,15000,7.408,,,40,,,,,,,,,,,wg-a,,,,AAXX 15034 07222 12765 20404 10210 20170 30168 40198 58006 60006 82502 90300=
07222,1997-08-15 06:00:00,21,1019.5,-0.4,78,17,20000,14.816,,,50,20.4,28.6,,,,,,,,,wg-a,,,,AAXX 15064 07222 02570 /0508 10210 20170 30164 40195 56004 60006 81201 90600 333 10286 20204 60004=
07222,1997-08-15 12:00:00,29,1019.1,-0.4,52,18,500,18.52,,,90,,,,,,,,,,,wg-a,,,,AAXX 15124 07222 12600 30910 10290 20180 30161 40191 58004 60006 81382 91200=
07222,1997-08-15 15:00:00,22,1018.9,-0.2,94,21,10000,7.408,,,190,,,,,,,,,,17,wg-a,,,,AAXX 15154 07222 32460 71904 10220 20210 30159 40189 58002 71798 86902 91500=
07222,1997-08-15 18:00:00,23,1018,-0.9,78,19,20000,11.112,,,80,20.7,30,,,,,,,,1,wg-a,,,,AAXX 15184 07222 12/70 60806 10230 20190 30150 40180 58009 60006 70198 81041 91800 333 10300 20207=
07222,1997-08-15 21:00:00,20,1018.8,0.7,94,19,20000,3.704,,,210,,,,,,,,,,,wg-a,,,,AAXX 15214 07222 32770 22102 10200 20190 30157 40188 51007 81501 92100=
07222,1997-08-16 00:00:00,20,1018.4,-0.4,94,19,20000,0,,,0,,,,,,,,,,,wg-a,,,,AAXX 16004 07222 12670 /0000 10200 20190 30153 40184 58004 60006 8550/ 90000=
07222,1997-08-16 03:00:00,19,1017.2,-1.2,100,19,20000,3.704,,,50,,,,,,,,,,,wg-a,,,,AAXX 16034 07222 12/70 00502 10190 20190 30141 40172 56012 60006 80000 90300=
07222,1997-08-16 06:00:00,19,1016.6,-0.6,100,19,6000,0,,,0,,,,0,,,,,,,wg-a,,,,AAXX 16064 07222 02656 50000 10190 20190 30135 40166 56006 60006 85800 90600 333 60007=
07222,1997-08-16 09:00:00,24,1017.5,1,83,21,12000,11.112,,,210,,,,,,,,,,,wg-a,,,,AAXX 16094 07222 12662 32106 10240 20210 30145 40175 50010 60006 81501 90900=
07222,1997-08-16 12:00:00,26,1017.5,-0,74,21,15000,3.704,,,190,,,,,,,,,,,wg-a,,,,AAXX 16124 07222 12565 71902 10260 20210 30145 40175 55000 60006 858// 91200=
07222,1997-08-16 15:00:00,27,1016.5,-1,70,21,12000,18.52,,,190,,,,,,,,,,,wg-a,,,,AAXX 16154 07222 12562 71910 10270 20210 30135 40165 57010 60006 87300 91500=
07222,1997-08-16 18:00:00,23,1015.1,-1.4,89,21,10000,14.816,,,220,19.4,27,,,,,,,,,wg-a,,,,AAXX 16184 07222 12560 /2208 10230 20210 30121 40151 58014 60006 8399/ 91800 333 10270 20194=
07222,1997-08-16 21:00:00,22,1018.1,3,88,20,10000,0,,,0,,,,,,,,,,,wg-a,,,,AAXX 16214 07222 12460 70000 10220 20200 30151 40181 51030 60006 875// 92100=
07222,1997-08-17 00:00:00,21,1017.8,-0.3,94,20,11000,11.112,,,220,,,,,,,,,,,wg-a,,,,AAXX 17004 07222 12/61 /2206 10210 20200 30148 40178 58003 60006 90000=
07222,1997-08-17 03:00:00,20,1017.7,-0.1,94,19,10000,7.408,,,200,,,,,,,,,,,wg-a,,,,AAXX 17034 07222 12360 72004 10200 20190 30147 40177 58001 60006 876// 90300=
07222,1997-08-17 06:00:00,20,1017.8,0.1,94,19,6000,7.408,,,160,19.8,23.2,,,,,,,,,wg-a,,,,AAXX 17064 07222 02356 71604 10200 20190 30148 40178 53001 60006 876// 90600 333 10232 20198 60004=
07222,1997-08-17 09:00:00,22,1018.7,0.9,88,20,7000,0,,,0,,,,,,,,,,,wg-a,,,,AAXX 17094 07222 12457 70000 10220 20200 30157 40187 51009 60006 86801 90900=
07222,1997-08-17 12:00:00,25,1018.4,-0.3,74,20,10000,3.704,,,290,,,,,,,,,,,wg-a,,,,AAXX 17124 07222 12560 72902 10250 20200 30154 40184 58003 60006 86802 91200=
07222,1997-08-17 15:00:00,26,1017.9,-0.5,65,19,12000,7.408,,,320,,,,,,,,,,,wg-a,,,,AAXX 17154 07222 12562 73204 10260 20190 30149 40179 58005 60006 878// 91500=
07222,1997-08-17 18:00:00,25,1017.8,-0.1,65,18,12000,11.112,,,320,20.1,26.1,,,,,,,,,wg-a,,,,AAXX 17184 07222 12662 23206 10250 20180 30148 40178 58001 60006 81801 91800 333 10261 20201=
07222,1997-08-17 21:00:00,20,1019.4,1.5,88,18,10000,7.408,,,300,,,,,,,,,,,wg-a,,,,AAXX 17214 07222 12/60 33004 10200 20180 30163 40194 51015 60006 80001 92100=
07222,1997-08-18 00:00:00,18,1019.4,-0,100,18,10000,7.408,,,310,,,,,,,,,,,wg-a,,,,AAXX 18004 07222 12/60 /3104 10180 20180 30163 40194 55000 60006 90000=
07222,1997-08-18 03:00:00,17,1018.4,-1,94,16,10000,3.704,,,10,,,,,,,,,,,wg-a,,,,AAXX 18034 07222 12560 20102 10170 20160 30153 40184 56010 60006 81501 90300=
07222,1997-08-18 06:00:00,17,1018.4,-0,100,17,900,7.408,,,360,16.7,25.1,,,,,,,,40,wg-a,,,,AAXX 18064 07222 02109 73604 10170 20170 30153 40184 55000 60006 74041 876// 90600 333 10251 20167 60004=
07222,1997-08-18 09:00:00,19,1018.9,0.5,94,18,3000,7.408,,,50,,,,,,,,,,10,wg-a,,,,AAXX 18094 07222 12230 70504 10190 20180 30158 40189 52005 60006 71042 876// 90900=
07222,1997-08-18 12:00:00,25,1018.3,-0.5,65,18,10000,7.408,,,10,,,,,,,,,,1,wg-a,,,,AAXX 18124 07222 12560 /0104 10250 20180 30153 40183 58005 60006 70141 81101 91200=
07222,1997-08-18 15:00:00,28,1017.3,-1,55,18,20000,7.408,,,240,,,,,,,,,,,wg-a,,,,AAXX 18154 07222 12670 /2404 10280 20180 30143 40173 58010 60006 82201 91500=
07222,1997-08-18 18:00:00,25,1016.9,-0.4,69,19,10000,14.816,,,300,17,28.3,,,,,,,,,wg-a,,,,AAXX 18184 07222 12/60 73008 10250 20190 30139 40169 55004 60006 82012 91800 333 10283 20170=
07222,1997-08-18 21:00:00,21,1017.9,1,83,18,10000,11.112,,,310,,,,,,,,,,,wg-a,,,,AAXX 18214 07222 12/60 73106 10210 20180 30149 40179 51010 60006 83012 92100=
07222,1997-08-19 00:00:00,21,1017.5,-0.4,88,19,10000,7.408,,,310,,,,,,,,,,,wg-a,,,,AAXX 19004 07222 12/60 73104 10210 20190 30145 40175 58004 60006 84032 90000=
07222,1997-08-19 06:00:00,19,1016.5,-0.2,100,19,500,0,,,0,19.1,24.9,,,,,,,,,wg-a,,,,AAXX 19064 07222 02/00 70000 10190 20190 30134 40165 55002 60006 84031 90600 333 10249 20191 60004=
07222,1997-08-19 09:00:00,24,1017,0.6,83,21,7000,7.408,,,250,,,,,,,,,,,wg-a,,,,AAXX 19094 07222 12/57 72504 10240 20210 30140 40170 53006 60006 8703/ 90900=
07222,1997-08-19 12:00:00,29,1016.3,-0.7,55,19,10000,7.408,,,100,,,,,,,,,,,wg-a,,,,AAXX 19124 07222 12660 61004 10290 20190 30133 40163 56007 60006 83330 91200=
07222,1997-08-19 15:00:00,28,1015.6,-0.7,62,20,18000,3.704,,,30,,,,8,,,,,,1,wg-a,,,,AAXX 19154 07222 12668 50302 10280 20200 30126 40156 56007 60087 70196 84903 91500=
07222,1997-08-19 18:00:00,25,1015.8,0.2,74,20,18000,3.704,,,300,19.5,29.5,,,,,,,,1,wg-a,,,,AAXX 19184 07222 12668 73002 10250 20200 30128 40158 53002 60006 70196 81933 91800 333 10295 20195=
07222,1997-08-19 21:00:00,21,1016.8,1,83,18,15000,7.408,,,260,,,,,,,,,,,wg-a,,,,AAXX 19214 07222 12765 52604 10210 20180 30138 40168 52010 60006 81530 92100=
07222,1997-08-20 00:00:00,20,1016,-0.8,94,19,12000,0,,,0,,,,,,,,,,,wg-a,,,,AAXX 20004 07222 12762 70000 10200 20190 30130 40160 58008 60006 875// 90000=
07222,1997-08-20 03:00:00,19,1016.3,0.2,94,18,10000,3.704,,,180,,,,,,,,,,,wg-a,,,,AAXX 20034 07222 12/60 11802 10190 20180 30132 40163 50002 60006 81040 90300=
07222,1997-08-20 06:00:00,18,1016.7,0.4,100,18,9000,3.704,,,170,18,25.3,,,,,8,,,,wg-a,,,,AAXX 20064 07222 02/59 /1702 10180 20180 30136 40167 53004 60006 81030 90600 333 10253 20180 60084=
07222,1997-08-20 09:00:00,25,1017.2,0.6,74,20,10000,3.704,,,90,,,,,,,,,,,wg-a,,,,AAXX 20094 07222 12660 20902 10250 20200 30142 40172 51006 60006 81231 90900=
07222,1997-08-20 12:00:00,29,1016.8,-0.4,52,18,15000,7.408,,,190,,,,,,,,,,,wg-a,,,,AAXX 20124 07222 12665 31904 10290 20180 30138 40168 57004 60006 82231 91200=
07222,1997-08-20 15:00:00,30,1016,-0.7,52,19,15000,11.112,,,250,,,,,,,,,,,wg-a,,,,AAXX 20154 07222 12765 22506 10300 20190 30131 40160 56007 60006 82200 91500=
07222,1997-08-20 18:00:00,27,1016.3,0.2,58,18,15000,18.52,,,280,18,30.7,,,,,,,,,wg-a,,,,AAXX 20184 07222 12765 22810 10270 20180 30133 40163 53002 60006 81230 91800 333 10307 20180=
07222,1997-08-20 21:00:00,22,1017.2,0.9,69,16,15000,7.408,,,320,,,,,,,,,,,wg-a,,,,AAXX 20214 07222 12765 73204 10220 20160 30142 40172 51009 60006 82232 92100=
07222,1997-08-21 00:00:00,19,1018,0.7,83,16,15000,3.704,,,200,,,,,,,,,,,wg-a,,,,AAXX 21004 07222 12/65 42002 10190 20160 30149 40180 51007 60006 80001 90000=
07222,1997-08-21 03:00:00,19,1018.2,0.2,94,18,10000,11.112,,,300,,,,,,,,,,,wg-a,,,,AAXX 21034 07222 12/60 03006 10190 20180 30151 40182 51002 60006 80000 90300=
07222,1997-08-21 06:00:00,19,1018.9,0.7,100,19,700,3.704,,,230,18.4,27.2,,,,,,,,45,wg-a,,,,AAXX 21064 07222 02/07 92302 10190 20190 30158 40189 51007 60006 74541 89/// 90600 333 10272 20184 60004=
07222,1997-08-21 07:00:00,19,1018.9,0.7,100,19,700,3.704,,,230,18.4,27.2,,,,,,,,44,wg-a,,,,AAXX 21074 07222 02/07 92302 10190 20190 30158 40189 51007 60006 74441 89/// 90700 333 10272 20184 60004=
07222,1997-08-21 12:00:00,28,1019.1,-0.8,51,17,10000,11.112,,,310,,,,,,,,,,,wg-a,,,,AAXX 21124 07222 12/60 /3106 10280 20170 30161 40191 56008 60006 91200=
07222,1997-08-21 18:00:00,24,1019.8,1.1,69,18,10000,18.52,,,270,18.6,30.2,,,,,,,,,wg-a,,,,AAXX 21184 07222 12/60 /2710 10240 20180 30168 40198 51011 60006 91800 333 10302 20186=
07222,1997-08-22 00:00:00,17,1021.1,0.2,100,17,20000,3.704,,,260,,,,,,,,,,,wg-a,,,,AAXX 22004 07222 12/70 12602 10170 20170 30180 40211 52002 60006 80001 90000=
07222,1997-08-22 06:00:00,16,1021.6,0.7,100,16,8000,3.704,,,320,15.3,24.1,,,,,,,,28,wg-a,,,,AAXX 22064 07222 02/58 /3202 10160 20160 30185 40216 53007 60006 72840 81041 90600 333 10241 20153 60004=
07222,1997-08-22 09:00:00,23,1021.6,0.1,78,19,10000,3.704,,,180,,,,,,,,,,,wg-a,,,,AAXX 22094 07222 12/60 31802 10230 20190 30186 40216 51001 60006 81031 90900=
07222,1997-08-22 12:00:00,28,1020.7,-0.9,55,18,25000,11.112,,,210,,,,,,,,,,,wg-a,,,,AAXX 22124 07222 12/75 02106 10280 20180 30177 40207 57009 60006 80000 91200=
07222,1997-08-22 15:00:00,30,1019.7,-1,55,20,25000,11.112,,,270,,,,,,,,,,,wg-a,,,,AAXX 22154 07222 12675 /2706 10300 20200 30167 40197 56010 60006 81100 91500=
07222,1997-08-22 18:00:00,26,1019.1,-0.6,61,18,25000,11.112,,,240,16.3,29.9,,,,,,,,,wg-a,,,,AAXX 22184 07222 12/75 02406 10260 20180 30161 40191 56006 60006 80000 91800 333 10299 20163=
07222,1997-08-22 21:00:00,20,1019.5,0.3,88,18,20000,3.704,,,270,,,,,,,,,,,wg-a,,,,AAXX 22214 07222 12/70 02702 10200 20180 30164 40195 51003 60006 80000 92100=
07222,1997-08-23 00:00:00,18,1018.5,-1,94,17,18000,7.408,,,210,,,,,,,,,,,wg-a,,,,AAXX 23004 07222 12/68 02104 10180 20170 30154 40185 58010 60006 80000 90000=
07222,1997-08-23 03:00:00,17,1017.5,-1,100,17,400,3.704,,,170,,,,,,,,,,41,wg-a,,,,AAXX 23034 07222 12004 /1702 10170 20170 30144 40175 57010 60006 74141 85600 90300=
07222,1997-08-23 06:00:00,18,1017.4,-0.1,100,18,600,7.408,,,240,16.5,26,,,,,,,,43,wg-a,,,,AAXX 23064 07222 02/06 92404 10180 20180 30143 40174 57001 60006 74341 89/// 90600 333 10260 20165 60004=
07222,1997-08-23 09:00:00,20,1017.7,0.4,94,19,10000,11.112,,,230,,,,,,,,,,1,wg-a,,,,AAXX 23094 07222 12360 /2306 10200 20190 30147 40177 51004 60006 70142 86600 90900=
07222,1997-08-23 12:00:00,28,1016.6,-1.1,45,15,500,11.112,,,220,,,,,,,,,,1,wg-a,,,,AAXX 23124 07222 12/00 02206 10280 20150 30136 40166 58011 60006 70141 80000 91200=
07222,1997-08-23 15:00:00,29,1015.5,-1.1,52,18,500,18.52,,,250,,,,,,,,,,,wg-a,,,,AAXX 23154 07222 12/00 02510 10290 20180 30125 40155 56011 60006 80000 91500=
07222,1997-08-23 18:00:00,26,1015,-0.5,54,16,500,18.52,,,300,18.2,29.3,,,,,,,,,wg-a,,,,AAXX 23184 07222 12/00 03010 10260 20160 30120 40150 58005 60006 80000 91800 333 10293 20182=
07222,1997-08-23 21:00:00,21,1015.1,0.1,83,18,25000,7.408,,,300,,,,,,,,,,,wg-a,,,,AAXX 23214 07222 12/75 03004 10210 20180 30121 40151 50001 60006 80000 92100=
07222,1997-08-24 00:00:00,19,1014.7,-0.5,94,18,20000,11.112,,,300,,,,,,,,,,,wg-a,,,,AAXX 24004 07222 12/70 03006 10190 20180 30116 40147 55005 60006 80000 90000=
07222,1997-08-24 03:00:00,18,1014.5,-0.2,94,17,12000,0,,,0,,,,,,,,,,,wg-a,,,,AAXX 24034 07222 12/62 00000 10180 20170 30114 40145 58002 60006 80000 90300=
07222,1997-08-24 06:00:00,18,1014.4,-0.1,100,18,4000,3.704,,,330,17.2,25.8,,,,,,,,10,wg-a,,,,AAXX 24064 07222 02640 43302 10180 20180 30113 40144 55001 60006 71011 82531 90600 333 10258 20172 60004=
07222,1997-08-24 09:00:00,23,1014.4,0.1,78,19,12000,7.408,,,320,,,,,,,,,,,wg-a,,,,AAXX 24094 07222 12662 73204 10230 20190 30114 40144 52001 60006 81530 90900=
07222,1997-08-24 12:00:00,28,1013.6,-0.8,58,19,15000,7.408,,,270,,,,,,,,,,,wg-a,,,,AAXX 24124 07222 12/65 52704 10280 20190 30106 40136 56008 60006 84031 91200=
07222,1997-08-24 15:00:00,25,1012.4,-1.2,79,21,12000,3.704,,,340,,,,0,,,,,,80,wg-a,,,,AAXX 24154 07222 12762 73402 10250 20210 30094 40124 58012 60007 78086 8359/ 91500=
07222,1997-08-24 18:00:00,24,1011.3,-1.1,74,19,15000,18.52,,,280,17.9,28.4,,0,,,,,,3,wg-a,,,,AAXX 24184 07222 02665 72810 10240 20190 30083 40113 56011 60006 70386 8693/ 91800 333 10284 20179 60007=
07222,1997-08-24 21:00:00,21,1011.5,0.2,88,19,15000,3.704,,,320,,,,,,,,,,,wg-a,,,,AAXX 24214 07222 12765 73202 10210 20190 30085 40115 50002 60006 875// 92100=
07222,1997-08-25 00:00:00,21,1010,-1.5,94,20,10000,11.112,,,310,,,,,,,,,,,wg-a,,,,AAXX 25004 07222 12660 73106 10210 20200 30070 40100 58015 60006 873// 90000=
07222,1997-08-25 03:00:00,20,1009.1,-0.9,94,19,10000,11.112,,,330,,,,,,,,,,,wg-a,,,,AAXX 25034 07222 12560 83306 10200 20190 30061 40091 58009 60006 875// 90300=
07222,1997-08-25 06:00:00,19,1008.4,-0.7,100,19,8000,11.112,,,330,18.9,23.9,,,,,,,,61,wg-a,,,,AAXX 25064 07222 02258 83306 10190 20190 30054 40084 55007 61000 76196 8757/ 90600 333 10239 20189 6002=
07222,1997-08-25 09:00:00,20,1010.3,1.9,94,19,15000,11.112,,,280,,,,0,,,,,,1,wg-a,,,,AAXX 25094 07222 12365 82806 10200 20190 30073 40103 52019 60007 70162 8787/ 90900=
07222,1997-08-25 12:00:00,21,1011.1,0.8,88,19,25000,11.112,,,250,,,,0,,,,,,1,wg-a,,,,AAXX 25124 07222 02475 72506 10210 20190 30081 40111 51008 60016 70162 878// 91200 333 60007=
07222,1997-08-25 15:00:00,23,1011.1,0,69,17,500,14.816,,,270,,,,,,,,,,,wg-a,,,,AAXX 25154 07222 12500 62708 10230 20170 30081 40111 50000 60006 86802 91500=
07222,1997-08-25 18:00:00,22,1011.9,0.8,73,17,500,7.408,,,10,18.9,24,,,,,,,,,wg-a,,,,AAXX 25184 07222 32500 50104 10220 20170 30089 40119 53008 82802 91800 333 10240 20189=
07222,1997-08-26 00:00:00,16,1014,0.5,82,13,20000,7.408,,,40,,,,,,,,,,,wg-a,,,,AAXX 26004 07222 12670 30404 10160 20130 30109 40140 52005 60006 82501 90000=
07222,1997-08-26 03:00:00,15,1013.8,-0.2,88,13,20000,3.704,,,350,,,,,,,,,,,wg-a,,,,AAXX 26034 07222 12670 33502 10150 20130 30107 40138 55002 60006 82201 90300=
07222,1997-08-26 06:00:00,14,1013.6,-0.2,100,14,20000,3.704,,,20,13.7,22,,,,,1,,,,wg-a,,,,AAXX 26064 07222 02570 50202 10140 20140 30105 40136 56002 60006 84802 90600 333 10220 20137 60014=
07222,1997-08-26 09:00:00,19,1013.6,0,73,14,20000,11.112,,,70,,,,,,,,,,,wg-a,,,,AAXX 26094 07222 12570 /0706 10190 20140 30105 40136 50000 60006 81801 90900=
07222,1997-08-26 12:00:00,22,1012.1,-1.4,50,11,20000,3.704,,,110,,,,,,,,,,,wg-a,,,,AAXX 26124 07222 12670 /1102 10220 20110 30091 40121 58014 60006 81102 91200=
07222,1997-08-26 15:00:00,22,1009.9,-2.2,57,13,20000,7.408,,,230,,,,,,,,,,,wg-a,,,,AAXX 26154 07222 12770 62304 10220 20130 30069 40099 58022 60006 81182 91500=
07222,1997-08-26 18:00:00,20,1008.9,-1,68,14,20000,11.112,,,220,14.5,23.1,,,,,,,,,wg-a,,,,AAXX 26184 07222 12/70 72206 10200 20140 30059 40089 56010 60006 81042 91800 333 10231 20145=
07222,1997-08-26 21:00:00,16,1007.9,-1.1,88,14,10000,11.112,,,150,,,,,,,,,,,wg-a,,,,AAXX 26214 07222 12/60 /1506 10160 20140 30048 40079 58011 60006 92100=
07222,1997-08-27 00:00:00,16,1005.7,-2.2,88,14,15000,14.816,,,140,,,,,,,,,,,wg-a,,,,AAXX 27004 07222 12765 71408 10160 20140 30026 40057 58022 60006 84531 90000=
07222,1997-08-27 06:00:00,17,1002.7,-1.4,94,16,8000,7.408,,,220,15.4,20.1,,,,,1,,,,wg-a,,,,AAXX 27064 07222 02/58 /2204 10170 20160 39997 40027 56014 60006 90600 333 10201 20154 60014=
07222,1997-08-27 09:00:00,19,1001.9,-0.8,100,19,10000,14.816,,,180,,,,4,,,,,,21,wg-a,,,,AAXX 27094 07222 12460 71808 10190 20190 39989 40019 57008 60047 72162 878// 90900=
07222,1997-08-27 12:00:00,21,1002,0.1,88,19,12000,22.224,,,230,,,,1,,,,,,1,wg-a,,,,AAXX 27124 07222 02562 72312 10210 20190 39990 40020 51001 60056 70198 8587/ 91200 333 60017=
07222,1997-08-27 15:00:00,22,1002.1,0.1,69,16,20000,25.928,,,250,,,,,,,,,,1,wg-a,,,,AAXX 27154 07222 02570 /2514 10220 20160 39991 40021 50001 61000 70186 83201 91500 333 ////=
07222,1997-08-27 18:00:00,20,1002.4,0.3,78,16,20000,14.816,,,230,16.4,22.3,,,,,,,,3,wg-a,,,,AAXX 27184 07222 12570 /2308 10200 20160 39994 40024 50003 60006 70386 83831 91800 333 10223 20164=
07222,1997-08-27 21:00:00,15,1001.7,-0.8,94,14,20000,11.112,,,180,,,,,,,,,,,wg-a,,,,AAXX 27214 07222 12570 51806 10150 20140 39986 40017 58008 60006 83803 92100=
07222,1997-08-28 00:00:00,15,1000.6,-1.1,100,15,20000,11.112,,,180,,,,2,,,,,,25,wg-a,,,,AAXX 28004 07222 02670 71806 10150 20150 39975 40006 57011 60026 72522 8484/ 90000 333 60027=
07222,1997-08-28 06:00:00,14,1001.9,1.2,88,12,15000,11.112,,,240,13,19.8,,,,,7,,,1,wg-a,,,,AAXX 28064 07222 02565 42406 10140 20120 39988 40019 53012 60006 70186 84900 90600 333 10198 20130 60074=
07222,1997-08-28 09:00:00,16,1003.9,2,77,12,3000,22.224,,,270,,,,1,,,,,,81,wg-a,,,,AAXX 28094 07222 12430 72712 10160 20120 30008 40039 53020 60017 78186 879// 90900=
07222,1997-08-28 12:00:00,19,1005,1.2,78,15,11000,25.928,,,250,,,,,,,,,,,wg-a,,,,AAXX 28124 07222 12/61 /2514 10190 20150 30020 40050 53012 60026 91200=
07222,1997-08-28 18:00:00,17,1009.3,1.8,77,13,20000,25.928,,,260,13.4,20.1,,,,,,,,25,wg-a,,,,AAXX 28184 07222 02670 /2614 10170 20130 30062 40093 53018 61000 72587 85302 91800 333 10201 20134 6000=
07222,1997-08-28 21:00:00,16,1011.7,2.4,77,12,20000,25.928,,,250,,,,,,,,,,,wg-a,,,,AAXX 28214 07222 12670 52514 10160 20120 30086 40117 51024 60006 85800 92100=
07222,1997-08-29 00:00:00,16,1013.8,2.1,72,11,20000,18.52,,,260,,,,,,,,,,,wg-a,,,,AAXX 29004 07222 12670 32610 10160 20110 30107 40138 52021 60006 83800 90000=
07222,1997-08-29 03:00:00,14,1014.6,0.8,94,13,20000,18.52,,,240,,,,,,,,,,25,wg-a,,,,AAXX 29034 07222 02570 32410 10140 20130 30115 40146 51008 61000 72500 83800 90300 333 ////=
07222,1997-08-29 06:00:00,14,1015.6,1,94,13,20000,11.112,,,210,13.2,17.2,,,,,3,,,3,wg-a,,,,AAXX 29064 07222 02570 22106 10140 20130 30125 40156 53010 60006 70386 81801 90600 333 10172 20132 60034=
07222,1997-08-29 09:00:00,19,1017.2,1.6,73,14,20000,18.52,,,250,,,,1,,,,,,3,wg-a,,,,AAXX 29094 07222 12570 42510 10190 20140 30141 40172 51016 60017 70386 84201 90900=
07222,1997-08-29 12:00:00,20,1017.7,0.5,64,13,20000,25.928,,,250,,,,,,,,,,1,wg-a,,,,AAXX 29124 07222 12570 72514 10200 20130 30146 40177 53005 60016 70186 83831 91200=
07222,1997-08-29 15:00:00,21,1017.1,-0.5,56,12,20000,25.928,,,240,,,,,,,,,,,wg-a,,,,AAXX 29154 07222 12670 72414 10210 20120 30141 40171 58005 60006 83232 91500=
07222,1997-08-29 18:00:00,19,1016.7,-0.5,73,14,20000,22.224,,,220,13.6,22,,,,,,,,,wg-a,,,,AAXX 29184 07222 12670 82212 10190 20140 30136 40167 56005 60006 8227/ 91800 333 10220 20136=
07222,1997-08-30 00:00:00,18,1014,-1.6,100,18,7000,31.484,,46.3,240,,,,8,,,,,,61,wg-a,,,,AAXX 30004 07222 02257 82417 10180 20180 30109 40140 56016 60116 76162 877// 90000 333 60087 91025=
07222,1997-08-30 03:00:00,19,1014.4,0.4,94,18,10000,29.632,,53.708,240,,,,,,,,,,21,wg-a,,,,AAXX 30034 07222 02460 82416 10190 20180 30113 40144 52004 61000 72162 875// 90300 333 //// 91029=
07222,1997-08-30 06:00:00,18,1015.1,0.7,100,18,8000,22.224,,,230,16,19.1,,,,,,,,50,wg-a,,,,AAXX 30064 07222 02358 82312 10180 20180 30120 40151 53007 61000 75065 877// 90600 333 10191 20160 6012=
07222,1997-08-30 09:00:00,20,1016.3,1.3,88,18,8000,25.928,,,250,,,,,,,,,,1,wg-a,,,,AAXX 30094 07222 02458 72514 10200 20180 30133 40163 53013 61000 70152 875// 90900 333 ////=
07222,1997-08-30 12:00:00,22,1017.5,1.2,78,18,10000,29.632,,,260,,,,,,,,,,3,wg-a,,,,AAXX 30124 07222 02460 72616 10220 20180 30145 40175 53012 61000 70352 878// 91200 333 ////=
07222,1997-08-30 15:00:00,22,1017.8,0.3,73,17,15000,25.928,,,250,,,,,,,,,,,wg-a,,,,AAXX 30154 07222 12565 72514 10220 20170 30148 40178 52003 60006 878// 91500=
07222,1997-08-30 18:00:00,21,1016.7,-1.1,83,18,15000,7.408,,,210,18.4,22.5,,,,,,,,,wg-a,,,,AAXX 30184 07222 12565 /2104 10210 20180 30137 40167 58011 60006 83831 91800 333 10225 20184=
07222,1997-08-30 21:00:00,18,1016.9,0.1,94,17,15000,3.704,,,190,,,,,,,,,,,wg-a,,,,AAXX 30214 07222 12565 61902 10180 20170 30138 40169 53001 60006 82531 92100=
07222,1997-08-31 00:00:00,17,1015.1,-1.8,100,17,15000,7.408,,,90,,,,,,,,,,,wg-a,,,,AAXX 31004 07222 12765 40904 10170 20170 30120 40151 58018 60006 83530 90000=
07222,1997-08-31 03:00:00,17,1012.6,-2.5,94,16,15000,14.816,,,90,,,,,,,,,,,wg-a,,,,AAXX 31034 07222 12765 10908 10170 20160 30095 40126 58025 60006 81500 90300=
07222,1997-08-31 06:00:00,17,1011.3,-1.3,94,16,20000,14.816,,,130,16.5,20.7,,,,,,,,,wg-a,,,,AAXX 31064 07222 02770 31308 10170 20160 30082 40113 55013 60006 82530 90600 333 10207 20165 61000=
07222,1997-08-31 12:00:00,23,1013.4,1.4,65,16,25000,25.928,,,260,,,,,,,,,,,wg-a,,,,AAXX 31124 07222 12575 32614 10230 20160 30104 40134 52014 60006 83200 91200=
07222,1997-08-31 15:00:00,22,1014.4,1,73,17,25000,25.928,,,250,,,,,,,,,,,wg-a,,,,AAXX 31154 07222 12575 /2514 10220 20170 30114 40144 51010 60006 85200 91500=
07222,1997-08-31 18:00:00,19,1015.6,1.1,83,16,25000,25.928,,,270,17,23.7,,,,,,,,,wg-a,,,,AAXX 31184 07222 12575 32714 10190 20160 30125 40156 53011 60006 83800 91800 333 10237 20170=
07222,1997-08-31 21:00:00,15,1017.4,1.8,94,14,20000,11.112,,,230,,,,,,,,,,,wg-a,,,,AAXX 31214 07222 12/70 22306 10150 20140 30143 40174 51018 60006 80001 92100=
07222,1997-09-01 00:00:00,14,1018.2,0.8,94,13,15000,7.408,,,210,,,,,,,,,,,wg-a,,,,AAXX 01004 07222 12/65 12104 10140 20130 30151 40182 51008 60006 81030 90000=
07222,1997-09-01 03:00:00,13,1018.2,-0,94,12,11000,3.704,,,290,,,,,,,,,,,wg-a,,,,AAXX 01034 07222 32/61 /2902 10130 20120 30151 40182 55000 90300=
07222,1997-09-01 06:00:00,13,1019.2,1,94,12,15000,3.704,,,300,12.5,19.1,,,,,,,,,wg-a,,,,AAXX 01064 07222 02/65 73002 10130 20120 30161 40192 51010 60006 87042 90600 333 10191 20125 60004=
07222,1997-09-01 12:00:00,19,1020.1,0.8,60,11,20000,3.704,,,310,,,,,,,,,,,wg-a,,,,AAXX 01124 07222 12670 /3102 10190 20110 30170 40201 50008 60006 83131 91200=
07222,1997-09-01 15:00:00,21,1019.1,-1,53,11,20000,11.112,,,320,,,,,,,,,,,wg-a,,,,AAXX 01154 07222 12670 63206 10210 20110 30160 40191 55010 60006 83232 91500=
07222,1997-09-01 18:00:00,18,1019.8,0.7,68,12,500,18.52,,,280,13.2,21.5,,,,,,,,,wg-a,,,,AAXX 01184 07222 12700 62810 10180 20120 30167 40198 53007 60006 81132 91800 333 10215 20132=
07222,1997-09-01 21:00:00,15,1021,1.2,82,12,20000,11.112,,,310,,,,,,,,,,,wg-a,,,,AAXX 01214 07222 12/70 03106 10150 20120 30179 40210 53012 60006 80000 92100=
07222,1997-09-02 00:00:00,13,1021.7,0.7,94,12,15000,3.704,,,20,,,,,,,,,,,wg-a,,,,AAXX 02004 07222 12/65 20202 10130 20120 30186 40217 53007 60006 82030 90000=
07222,1997-09-02 03:00:00,11,1021.8,0,100,11,15000,3.704,,,120,,,,,,,,,,,wg-a,,,,AAXX 02034 07222 12/65 01202 10110 20110 30186 40218 50000 60006 80000 90300=
07222,1997-09-02 06:00:00,10,1022.1,0.3,93,9,25000,3.704,,,200,9.2,18.4,,,,,,,,,wg-a,,,,AAXX 02064 07222 02/75 12002 10100 20090 30189 40221 53003 60006 80001 90600 333 10184 20092 60004=
07222,1997-09-02 09:00:00,18,1022.9,0.9,73,13,25000,3.704,,,130,,,,,,,,,,,wg-a,,,,AAXX 02094 07222 12/75 11302 10180 20130 30198 40229 50009 60006 80001 90900=
07222,1997-09-02 12:00:00,22,1023.2,0.3,57,13,500,11.112,,,210,,,,,,,,,,,wg-a,,,,AAXX 02124 07222 12600 42106 10220 20130 30201 40232 52003 60006 82202 91200=
07222,1997-09-02 18:00:00,19,1022.4,0.1,64,12,500,14.816,,,250,9.5,22.8,,,,,,,,,wg-a,,,,AAXX 02184 07222 12/00 12508 10190 20120 30193 40224 53001 60006 80001 91800 333 10228 20095=
07222,1997-09-02 21:00:00,14,1023.1,0.7,94,13,15000,3.704,,,250,,,,,,,,,,,wg-a,,,,AAXX 02214 07222 12/65 12502 10140 20130 30200 40231 51007 60006 81040 92100=
07222,1997-09-03 00:00:00,12,1022.7,-0.5,100,12,15000,3.704,,,140,,,,,,,,,,,wg-a,,,,AAXX 03004 07222 12/65 01402 10120 20120 30195 40227 58005 60006 80000 90000=
07222,1997-09-03 03:00:00,11,1021.3,-1.4,100,11,10000,7.408,,,130,,,,,,,,,,,wg-a,,,,AAXX 03034 07222 12/60 01304 10110 20110 30181 40213 58014 60006 80000 90300=
07222,1997-09-03 06:00:00,10,1021.5,0.2,100,10,10000,7.408,,,150,9.8,,,,,,,,,,wg-a,,,,AAXX 03064 07222 02/60 21504 10100 20100 30183 40215 53002 60006 80001 90600 333 20098 60004=
07222,1997-09-03 09:00:00,19,1021,-0.4,73,14,20000,14.816,,,180,,,,,,,,,,,wg-a,,,,AAXX 03094 07222 12570 51808 10190 20140 30179 40210 55004 60006 82131 90900=
07222,1997-09-03 12:00:00,23,1020.2,-0.7,57,14,500,18.52,,,200,,,,,,,,,,,wg-a,,,,AAXX 03124 07222 12600 52010 10230 20140 30172 40202 58007 60006 82131 91200=
07222,1997-09-03 18:00:00,20,1019.4,-0.2,73,15,500,11.112,,,220,10.4,24.2,,,,,,,,,wg-a,,,,AAXX 03184 07222 12700 62206 10200 20150 30163 40194 57002 60006 81142 91800 333 10242 20104=
07222,1997-09-03 21:00:00,17,1019.9,0.5,94,16,20000,7.408,,,200,,,,,,,,,,,wg-a,,,,AAXX 03214 07222 12770 72004 10170 20160 30168 40199 53005 60006 875// 92100=
07222,1997-09-04 00:00:00,17,1019.6,-0.3,94,16,20000,7.408,,,180,,,,,,,,,,,wg-a,,,,AAXX 04004 07222 12770 51804 10170 20160 30165 40196 56003 60006 85500 90000=
07222,1997-09-04 03:00:00,15,1018.9,-0.7,100,15,20000,7.408,,,180,,,,,,,,,,,wg-a,,,,AAXX 04034 07222 12770 51804 10150 20150 30158 40189 58007 60006 85500 90300=
07222,1997-09-04 06:00:00,15,1019.2,0.3,100,15,500,7.408,,,140,13.6,20.4,,,,,,,,,wg-a,,,,AAXX 04064 07222 02400 /1404 10150 20150 30161 40192 53003 60006 84531 90600 333 10204 20136 60004=
07222,1997-09-04 09:00:00,20,1020,0.8,88,18,10000,14.816,,,200,,,,,,,,,,,wg-a,,,,AAXX 04094 07222 12460 72008 10200 20180 30169 40200 51008 60006 8583/ 90900=
07222,1997-09-04 15:00:00,19,1019.9,0.1,94,18,7000,11.112,,,340,,,,,,,,,,50,wg-a,,,,AAXX 04154 07222 02257 83406 10190 20180 30168 40199 50001 61000 75052 875// 91500 333 ////=
07222,1997-09-04 18:00:00,20,1020,0.1,83,17,25000,3.704,,,30,14.4,23.1,,,,,,,,1,wg-a,,,,AAXX 04184 07222 02575 70302 10200 20170 30169 40200 52001 60006 70152 878// 91800 333 10231 20144 61000=
07222,1997-09-04 21:00:00,18,1020.9,0.9,88,16,20000,7.408,,,60,,,,,,,,,,,wg-a,,,,AAXX 04214 07222 12470 50604 10180 20160 30178 40209 53009 60006 84502 92100=
07222,1997-09-05 00:00:00,17,1020.7,-0.2,88,15,20000,7.408,,,50,,,,,,,,,,,wg-a,,,,AAXX 05004 07222 12770 70504 10170 20150 30176 40207 56002 60006 875// 90000=
07222,1997-09-05 03:00:00,16,1020.2,-0.5,88,14,20000,11.112,,,60,,,,,,,,,,,wg-a,,,,AAXX 05034 07222 12770 60606 10160 20140 30171 40202 56005 60006 86500 90300=
07222,1997-09-05 06:00:00,16,1020.3,0.1,77,12,15000,7.408,,,40,16.2,19.8,,,,,,,,,wg-a,,,,AAXX 05064 07222 02665 70404 10160 20120 30172 40203 53001 60006 875// 90600 333 10198 20162 61000=
07222,1997-09-05 12:00:00,22,1020.5,-0.1,57,13,20000,7.408,,,80,,,,,,,,,,,wg-a,,,,AAXX 05124 07222 12570 /0804 10220 20130 30174 40205 57001 60006 85501 91200=
07222,1997-09-05 15:00:00,21,1020.8,0.3,60,13,11000,14.816,,,10,,,,,,,,,,,wg-a,,,,AAXX 05154 07222 12/61 /0108 10210 20130 30177 40208 53003 60006 91500=
07222,1997-09-05 18:00:00,18,1021.7,0.9,68,12,20000,14.816,,,10,16.2,22.5,,,,,,,,,wg-a,,,,AAXX 05184 07222 12670 70108 10180 20120 30186 40217 53009 60006 875// 91800 333 10225 20162=
07222,1997-09-05 21:00:00,17,1023.1,1.4,72,12,15000,7.408,,,20,,,,,,,,,,,wg-a,,,,AAXX 05214 07222 12665 70204 10170 20120 30200 40231 51014 60006 8553/ 92100=
07222,1997-09-06 00:00:00,15,1024.2,1.1,82,12,10000,7.408,,,360,,,,,,,,,,,wg-a,,,,AAXX 06004 07222 12/60 /3604 10150 20120 30211 40242 51011 60006 90000=
07222,1997-09-06 03:00:00,13,1024.6,0.3,94,12,10000,7.408,,,10,,,,,,,,,,,wg-a,,,,AAXX 06034 07222 12/60 00104 10130 20120 30214 40246 51003 60006 80000 90300=
07222,1997-09-06 06:00:00,12,1025.6,1,94,11,15000,7.408,,,10,11.4,18.4,,,,,,,,,wg-a,,,,AAXX 06064 07222 02/65 30104 10120 20110 30224 40256 53010 60006 82031 90600 333 10184 20114 60004=
07222,1997-09-06 09:00:00,17,1026.7,1.2,77,13,20000,11.112,,,20,,,,,,,,,,,wg-a,,,,AAXX 06094 07222 12470 30206 10170 20130 30236 40267 51012 60006 81131 90900=
07222,1997-09-06 12:00:00,20,1026.7,0,53,10,20000,11.112,,,30,,,,,,,,,,,wg-a,,,,AAXX 06124 07222 12670 30306 10200 20100 30236 40267 50000 60006 83200 91200=
07222,1997-09-06 15:00:00,20,1026,-0.7,53,10,25000,7.408,,,30,,,,,,,,,,,wg-a,,,,AAXX 06154 07222 12675 30304 10200 20100 30229 40260 57007 60006 83100 91500=
07222,1997-09-06 18:00:00,20,1026,-0,49,9,25000,7.408,,,360,11.8,22.5,,,,,,,,,wg-a,,,,AAXX 06184 07222 12775 13604 10200 20090 30229 40260 54000 60006 81500 91800 333 10225 20118=
07222,1997-09-06 21:00:00,16,1027.3,1.3,68,10,15000,11.112,,,30,,,,,,,,,,,wg-a,,,,AAXX 06214 07222 12/65 00306 10160 20100 30242 40273 51013 60006 80000 92100=
07222,1997-09-07 00:00:00,13,1027.6,0.2,88,11,15000,11.112,,,20,,,,,,,,,,,wg-a,,,,AAXX 07004 07222 12/65 00206 10130 20110 30244 40276 50002 60006 80000 90000=
07222,1997-09-07 03:00:00,12,1027.6,-0,94,11,15000,0,,,0,,,,,,,,,,,wg-a,,,,AAXX 07034 07222 12/65 00000 10120 20110 30244 40276 54000 60006 80000 90300=
07222,1997-09-07 06:00:00,10,1028.2,0.6,100,10,15000,3.704,,,30,9.6,19.7,,,,,,,,,wg-a,,,,AAXX 07064 07222 02/65 20302 10100 20100 30250 40282 52006 60006 80001 90600 333 10197 20096 60004=
07222,1997-09-07 09:00:00,17,1029.3,1.2,72,12,11000,7.408,,,20,,,,,,,,,,,wg-a,,,,AAXX 07094 07222 12/61 /0204 10170 20120 30262 40293 52012 60006 90900=
07222,1997-09-07 12:00:00,20,1028.6,-0.7,56,11,500,11.112,,,50,,,,,,,,,,,wg-a,,,,AAXX 07124 07222 12600 40506 10200 20110 30255 40286 58007 60006 83201 91200=
07222,1997-09-07 18:00:00,20,1028.3,0.2,64,13,500,11.112,,,30,9.8,21.6,,,,,,,,,wg-a,,,,AAXX 07184 07222 12600 70306 10200 20130 30252 40283 53002 60006 875// 91800 333 10216 20098=
07222,1997-09-07 21:00:00,17,1029,0.7,77,13,20000,3.704,,,30,,,,,,,,,,,wg-a,,,,AAXX 07214 07222 12/70 00302 10170 20130 30259 40290 52007 60006 80000 92100=
07222,1997-09-08 00:00:00,15,1029.4,0.4,88,13,20000,7.408,,,30,,,,,,,,,,,wg-a,,,,AAXX 08004 07222 12/70 00304 10150 20130 30263 40294 53004 60006 80000 90000=
07222,1997-09-08 03:00:00,14,1028.7,-0.8,94,13,20000,7.408,,,20,,,,,,,,,,,wg-a,,,,AAXX 08034 07222 12/70 00204 10140 20130 30255 40287 58008 60006 80000 90300=
07222,1997-09-08 06:00:00,12,1028.8,0.1,100,12,10000,3.704,,,20,12.1,19.5,,,,,,,,,wg-a,,,,AAXX 08064 07222 02/60 10202 10120 20120 30256 40288 52001 60006 80001 90600 333 10195 20121 60004=
07222,1997-09-08 09:00:00,18,1029.2,0.5,73,13,12000,11.112,,,50,,,,0,,,,,,,wg-a,,,,AAXX 08094 07222 12562 /0506 10180 20130 30261 40292 51005 60007 81102 90900=
07222,1997-09-08 12:00:00,22,1028,-1.2,60,14,11000,11.112,,,40,,,,,,,,,,,wg-a,,,,AAXX 08124 07222 12/61 /0406 10220 20140 30249 40280 58012 60006 91200=
07222,1997-09-08 15:00:00,23,1026.7,-1.3,57,14,20000,11.112,,,30,,,,,,,,,,,wg-a,,,,AAXX 08154 07222 12/70 10306 10230 20140 30236 40267 58013 60006 80001 91500=
07222,1997-09-08 18:00:00,21,1026.1,-0.6,64,14,500,11.112,,,360,12.1,23.1,,,,,,,,,wg-a,,,,AAXX 08184 07222 12/00 13606 10210 20140 30230 40261 56006 60006 80001 91800 333 10231 20121=
07222,1997-09-08 21:00:00,17,1026.6,0.5,82,14,20000,11.112,,,30,,,,,,,,,,,wg-a,,,,AAXX 08214 07222 12/70 00306 10170 20140 30235 40266 53005 60006 80000 92100=
07222,1997-09-09 03:00:00,12,1025.7,-0.8,94,11,15000,7.408,,,30,,,,,,,,,,,wg-a,,,,AAXX 09034 07222 12/65 00304 10120 20110 30225 40257 58008 60006 80000 90300=
07222,1997-09-09 06:00:00,11,1025.4,-0.3,94,10,8000,7.408,,,40,11.2,21.1,,,,,,,,,wg-a,,,,AAXX 09064 07222 02/58 20404 10110 20100 30222 40254 55003 60006 80001 90600 333 10211 20112 60004=
07222,1997-09-09 09:00:00,16,1025.7,0.4,82,13,8000,11.112,,,20,,,,,,,,,,,wg-a,,,,AAXX 09094 07222 12/58 /0206 10160 20130 30226 40257 53004 60006 80001 90900=
07222,1997-09-09 12:00:00,20,1024.6,-1.1,64,13,15000,14.816,,,70,,,,,,,,,,,wg-a,,,,AAXX 09124 07222 12/65 30708 10200 20130 30215 40246 58011 60006 80001 91200=
07222,1997-09-09 18:00:00,21,1022.6,-0.7,60,13,20000,14.816,,,40,11.2,23.1,,,,,,,,,wg-a,,,,AAXX 09184 07222 12/70 00408 10210 20130 30195 40226 56007 60006 80000 91800 333 10231 20112=
07222,1997-09-10 03:00:00,13,1022.9,-0.5,88,11,10000,11.112,,,60,,,,,,,,,,,wg-a,,,,AAXX 10034 07222 12/60 00606 10130 20110 30197 40229 58005 60006 80000 90300=
07222,1997-09-10 06:00:00,12,1022.5,-0.4,88,10,10000,18.52,,,60,11.9,20.6,,,,,,,,,wg-a,,,,AAXX 10064 07222 02/60 00610 10120 20100 30193 40225 55004 60006 80000 90600 333 10206 20119 60004=
07222,1997-09-10 09:00:00,16,1022.1,-0.3,72,11,12000,14.816,,,60,,,,,,,,,,,wg-a,,,,AAXX 10094 07222 12/62 10608 10160 20110 30190 40221 58003 60006 80001 90900=
07222,1997-09-10 12:00:00,22,1020.6,-1.5,43,9,15000,25.928,,,80,,,,,,,,,,,wg-a,,,,AAXX 10124 07222 12/65 00814 10220 20090 30175 40206 56015 60006 80000 91200=
07222,1997-09-10 18:00:00,22,1017,-1.1,38,7,20000,14.816,,,80,11.9,24.5,,,,,,,,,wg-a,,,,AAXX 10184 07222 12/70 00808 10220 20070 30140 40170 56011 60006 80000 91800 333 10245 20119=
07222,1997-09-11 00:00:00,14,1016,-1.7,67,8,20000,7.408,,,80,,,,,,,,,,,wg-a,,,,AAXX 11004 07222 12/70 00804 10140 20080 30129 40160 57017 60006 80000 90000=
07222,1997-09-11 03:00:00,12,1014.4,-1.6,82,9,20000,7.408,,,60,,,,,,,,,,,wg-a,,,,AAXX 11034 07222 12/70 00604 10120 20090 30113 40144 56016 60006 80000 90300=
07222,1997-09-11 06:00:00,11,1013.4,-1,87,9,20000,7.408,,,110,10.7,22.3,,,,,,,,,wg-a,,,,AAXX 11064 07222 02/70 51104 10110 20090 30103 40134 56010 60006 80001 90600 333 10223 20107 60004=
07222,1997-09-11 09:00:00,20,1013,-0.3,78,16,20000,14.816,,,210,,,,,,,,,,,wg-a,,,,AAXX 11094 07222 12/70 42108 10200 20160 30100 40130 58003 60006 80001 90900=
07222,1997-09-11 12:00:00,24,1012,-1,69,18,12000,14.816,,,230,,,,,,,,,,,wg-a,,,,AAXX 11124 07222 12562 52308 10240 20180 30090 40120 58010 60006 83101 91200=
07222,1997-09-11 15:00:00,23,1011.7,-0.3,69,17,12000,22.224,,,250,,,,,,,,,,,wg-a,,,,AAXX 11154 07222 12562 72512 10230 20170 30087 40117 58003 60006 878// 91500=
07222,1997-09-11 18:00:00,19,1011.4,-0.3,83,16,10000,18.52,,,270,10.8,24.4,,,,,,,,,wg-a,,,,AAXX 11184 07222 12560 72710 10190 20160 30084 40114 55003 60006 878// 91800 333 10244 20108=
07222,1997-09-11 21:00:00,17,1012.2,0.7,94,16,10000,7.408,,,240,,,,,,,,,,,wg-a,,,,AAXX 11214 07222 12560 72404 10170 20160 30091 40122 53007 60006 85531 92100=
07222,1997-09-12 00:00:00,16,1012.4,0.2,94,15,10000,11.112,,,230,,,,,,,,,,,wg-a,,,,AAXX 12004 07222 12460 72306 10160 20150 30093 40124 53002 60006 85531 90000=
07222,1997-09-12 03:00:00,16,1012.1,-0.3,88,14,10000,11.112,,,280,,,,,,,,,,,wg-a,,,,AAXX 12034 07222 12760 72806 10160 20140 30090 40121 58003 60006 875// 90300=
07222,1997-09-12 06:00:00,14,1012.1,-0,94,13,10000,0,,,0,14.3,19.4,,,,,,,,,wg-a,,,,AAXX 12064 07222 02760 70000 10140 20130 30090 40121 55000 60006 875// 90600 333 10194 20143 60004=
07222,1997-09-12 09:00:00,17,1012.9,0.8,82,14,10000,11.112,,,190,,,,,,,,,,21,wg-a,,,,AAXX 12094 07222 02760 71906 10170 20140 30098 40129 53008 61000 72162 8357/ 90900 333 ////=
07222,1997-09-12 12:00:00,17,1012.2,-0.7,100,17,9000,11.112,,,210,,,,,,,,,,,wg-a,,,,AAXX 12124 07222 12/59 /2106 10170 20170 30091 40122 58007 60016 91200=
07222,1997-09-12 15:00:00,20,1011.7,-0.4,73,15,25000,25.928,,,250,,,,,,,,,,1,wg-a,,,,AAXX 12154 07222 02575 /2514 10200 20150 30087 40117 58004 61000 70165 85200 91500 333 ////=
07222,1997-09-12 18:00:00,17,1012.3,0.5,94,16,20000,14.816,,,240,14.3,21,,,,,,,,25,wg-a,,,,AAXX 12184 07222 02570 42408 10170 20160 30092 40123 53005 61000 72586 83801 91800 333 10210 20143 6000=
07222,1997-09-13 00:00:00,12,1015.7,1.8,94,11,20000,11.112,,,310,,,,,,,,,,,wg-a,,,,AAXX 13004 07222 12570 33106 10120 20110 30126 40157 51018 60006 8353/ 90000=
07222,1997-09-13 03:00:00,10,1016.8,1,93,9,20000,7.408,,,280,,,,,,,,,,,wg-a,,,,AAXX 13034 07222 12/70 02804 10100 20090 30136 40168 53010 60006 80000 90300=
07222,1997-09-13 06:00:00,9,1018.1,1.3,93,8,20000,3.704,,,290,8,16.5,,,,,1,,,,wg-a,,,,AAXX 13064 07222 02570 /2902 10090 20080 30149 40181 53013 60006 81801 90600 333 10165 20080 60014=
07222,1997-09-13 09:00:00,15,1020.4,2.4,67,9,20000,18.52,,,310,,,,,,,,,,,wg-a,,,,AAXX 13094 07222 12570 /3110 10150 20090 30173 40204 51024 60006 81100 90900=
07222,1997-09-13 12:00:00,18,1021.7,1.3,45,6,500,14.816,,,320,,,,0,,,,,,,wg-a,,,,AAXX 13124 07222 02600 43208 10180 20060 30186 40217 51013 60006 84200 91200 333 60007=
07222,1997-09-13 15:00:00,19,1021.8,0.1,46,7,500,11.112,,,330,,,,,,,,,,,wg-a,,,,AAXX 13154 07222 12600 33306 10190 20070 30187 40218 50001 60006 83201 91500=
07222,1997-09-13 18:00:00,17,1022.8,1,48,6,500,11.112,,,320,9.3,19.9,,,,,,,,,wg-a,,,,AAXX 13184 07222 12600 23206 10170 20060 30197 40228 53010 60006 81101 91800 333 10199 20093=
07222,1997-09-13 21:00:00,13,1025.1,2.2,67,7,25000,7.408,,,30,,,,,,,,,,,wg-a,,,,AAXX 13214 07222 12775 10304 10130 20070 30219 40251 51022 60006 81400 92100=
07222,1997-09-14 00:00:00,11,1025.5,0.4,76,7,25000,7.408,,,40,,,,,,,,,,,wg-a,,,,AAXX 14004 07222 12/75 00404 10110 20070 30223 40255 51004 60006 80000 90000=
07222,1997-09-14 03:00:00,9,1025.7,0.2,87,7,20000,3.704,,,30,,,,,,,,,,,wg-a,,,,AAXX 14034 07222 12/70 30302 10090 20070 30225 40257 52002 60006 80001 90300=
07222,1997-09-14 06:00:00,8,1026.2,0.5,93,7,20000,3.704,,,50,8.2,17.2,,,,,,,,,wg-a,,,,AAXX 14064 07222 02/70 50502 10080 20070 30230 40262 53005 60006 80001 90600 333 10172 20082 60004=
07222,1997-09-14 12:00:00,18,1026.7,-0.5,45,6,500,14.816,,,110,,,,,,,,,,,wg-a,,,,AAXX 14124 07222 12600 /1108 10180 20060 30236 40267 58005 60006 81101 91200=
07222,1997-09-14 18:00:00,18,1025.2,-0.3,42,5,35000,11.112,,,50,8.1,19.8,,,,,,,,,wg-a,,,,AAXX 14184 07222 12/81 00506 10180 20050 30221 40252 56003 60006 80000 91800 333 10198 20081=
07222,1997-09-14 21:00:00,15,1026.1,0.9,51,5,500,7.408,,,60,,,,,,,,,,,wg-a,,,,AAXX 14214 07222 12/00 00604 10150 20050 30230 40261 52009 60006 80000 92100=
07222,1997-09-15 00:00:00,12,1025.9,-0.3,62,5,500,7.408,,,70,,,,,,,,,,,wg-a,,,,AAXX 15004 07222 12/00 00704 10120 20050 30227 40259 58003 60006 80000 90000=
07222,1997-09-15 03:00:00,10,1024.6,-1.3,76,6,20000,3.704,,,40,,,,,,,,,,,wg-a,,,,AAXX 15034 07222 12/70 00402 10100 20060 30214 40246 56013 60006 80000 90300=
07222,1997-09-15 06:00:00,9,1024.9,0.3,81,6,20000,11.112,,,50,7,17.7,,,,,,,,,wg-a,,,,AAXX 15064 07222 02/70 10506 10090 20060 30217 40249 51003 60006 80001 90600 333 10177 20070 60004=
07222,1997-09-15 09:00:00,15,1025.2,0.4,59,7,500,11.112,,,50,,,,,,,,,,,wg-a,,,,AAXX 15094 07222 12/00 10506 10150 20070 30221 40252 51004 60006 80001 90900=
07222,1997-09-15 12:00:00,20,1023.7,-1.5,40,6,500,14.816,,,50,,,,,,,,,,,wg-a,,,,AAXX 15124 07222 12/00 10508 10200 20060 30206 40237 58015 60006 80001 91200=
07222,1997-09-15 18:00:00,21,1022.1,-0.2,35,5,500,7.408,,,60,9.1,23.4,,,,,,,,,wg-a,,,,AAXX 15184 07222 12/00 40604 10210 20050 30190 40221 57002 60006 80002 91800 333 10234 20091=
07222,1997-09-16 00:00:00,13,1022.7,-0.3,67,7,20000,3.704,,,30,,,,,,,,,,,wg-a,,,,AAXX 16004 07222 12/70 80302 10130 20070 30195 40227 56003 60006 80007 90000=
07222,1997-09-16 03:00:00,11,1021.2,-1.5,76,7,20000,7.408,,,40,,,,,,,,,,,wg-a,,,,AAXX 16034 07222 12/70 00404 10110 20070 30180 40212 58015 60006 80000 90300=
07222,1997-09-16 06:00:00,10,1021.3,0.1,82,7,10000,3.704,,,50,9.7,20.9,,,,,,,,,wg-a,,,,AAXX 16064 07222 02/60 20502 10100 20070 30181 40213 53001 60006 80001 90600 333 10209 20097 60004=
07222,1997-09-16 09:00:00,18,1020.9,-0.3,59,10,15000,7.408,,,140,,,,,,,,,,,wg-a,,,,AAXX 16094 07222 12/65 21404 10180 20100 30178 40209 58003 60006 80001 90900=
07222,1997-09-16 12:00:00,24,1019.6,-1.2,36,8,0,11.112,,,200,,,,,,,,,,,wg-a,,,,AAXX 16124 07222 12/// /2006 10240 20080 30166 40196 58012 60006 91200=
07222,1997-09-16 15:00:00,26,1018.2,-1.4,28,6,25000,11.112,,,210,,,,,,,,,,,wg-a,,,,AAXX 16154 07222 12/75 42106 10260 20060 30152 40182 56014 60006 80001 91500=
07222,1997-09-16 18:00:00,21,1018.4,0.1,49,10,25000,3.704,,,310,10.1,25.8,,,,,,,,,wg-a,,,,AAXX 16184 07222 12/75 43102 10210 20100 30153 40184 53001 60006 80001 91800 333 10258 20101=
07222,1997-09-16 21:00:00,15,1019,0.6,72,10,20000,3.704,,,310,,,,,,,,,,,wg-a,,,,AAXX 16214 07222 12/70 03102 10150 20100 30159 40190 51006 60006 80000 92100=
07222,1997-09-17 00:00:00,13,1019.2,0.2,88,11,20000,0,,,0,,,,,,,,,,,wg-a,,,,AAXX 17004 07222 12/70 00000 10130 20110 30161 40192 50002 60006 80000 90000=
07222,1997-09-17 06:00:00,12,1019.9,0.4,94,11,8000,7.408,,,60,11.3,20.7,,,,,,,,,wg-a,,,,AAXX 17064 07222 02/58 40604 10120 20110 30167 40199 53004 60006 80001 90600 333 10207 20113 60004=
07222,1997-09-17 12:00:00,27,1020.6,-0.1,48,15,15000,14.816,,,170,,,,,,,,,,,wg-a,,,,AAXX 17124 07222 12/65 51708 10270 20150 30176 40206 58001 60006 80001 91200=
07222,1997-09-17 15:00:00,29,1020.1,-0.5,43,15,20000,11.112,,,210,,,,,,,,,,,wg-a,,,,AAXX 17154 07222 12/70 52106 10290 20150 30171 40201 57005 60006 80001 91500=
07222,1997-09-17 18:00:00,25,1020.5,0.4,57,16,25000,7.408,,,280,12,29,,,,,,,,,wg-a,,,,AAXX 17184 07222 12/75 42804 10250 20160 30175 40205 53004 60006 80001 91800 333 10290 20120=
07222,1997-09-18 00:00:00,18,1021.7,-0,77,14,20000,0,,,0,,,,,,,,,,,wg-a,,,,AAXX 18004 07222 12/70 00000 10180 20140 30186 40217 55000 60006 80000 90000=
07222,1997-09-18 03:00:00,15,1021.4,-0.3,88,13,15000,3.704,,,120,,,,,,,,,,,wg-a,,,,AAXX 18034 07222 12/65 01202 10150 20130 30183 40214 58003 60006 80000 90300=
07222,1997-09-18 06:00:00,15,1022,0.6,82,12,15000,11.112,,,130,14,25.4,,,,,,,,,wg-a,,,,AAXX 18064 07222 02/65 11306 10150 20120 30189 40220 53006 60006 81030 90600 333 10254 20140 60004=
07222,1997-09-18 09:00:00,24,1022.8,0.9,54,14,20000,11.112,,,170,,,,,,,,,,,wg-a,,,,AAXX 18094 07222 12/70 01706 10240 20140 30198 40228 51009 60006 80000 90900=
07222,1997-09-18 12:00:00,29,1022.3,-0.5,35,12,500,11.112,,,150,,,,,,,,,,,wg-a,,,,AAXX 18124 07222 12/00 01506 10290 20120 30193 40223 58005 60006 80000 91200=
07222,1997-09-18 15:00:00,30,1021.1,-1.2,31,11,500,7.408,,,140,,,,,,,,,,,wg-a,,,,AAXX 18154 07222 12/00 01404 10300 20110 30181 40211 56012 60006 80000 91500=
07222,1997-09-18 18:00:00,25,1021.1,-0,47,13,500,11.112,,,310,14.5,30,,,,,,,,,wg-a,,,,AAXX 18184 07222 12/00 03106 10250 20130 30181 40211 55000 60006 80000 91800 333 10300 20145=
07222,1997-09-19 00:00:00,15,1021.6,-0.5,82,12,15000,3.704,,,50,,,,,,,,,,,wg-a,,,,AAXX 19004 07222 12/65 00502 10150 20120 30185 40216 58005 60006 80000 90000=
07222,1997-09-19 03:00:00,14,1021.6,-0,88,12,12000,0,,,0,,,,,,,,,,,wg-a,,,,AAXX 19034 07222 12/62 00000 10140 20120 30185 40216 55000 60006 80000 90300=
07222,1997-09-19 06:00:00,14,1021.9,0.3,88,12,10000,3.704,,,20,13.2,24.7,,,,,,,,,wg-a,,,,AAXX 19064 07222 02/60 00202 10140 20120 30188 40219 53003 60006 80000 90600 333 10247 20132 60004=
07222,1997-09-19 09:00:00,23,1022,0.2,50,12,15000,14.816,,,60,,,,,,,,,,,wg-a,,,,AAXX 19094 07222 12/65 00608 10230 20120 30190 40220 50002 60006 80000 90900=
07222,1997-09-19 12:00:00,29,1021,-1,33,11,20000,18.52,,37.04,100,,,,,,,,,,,wg-a,,,,AAXX 19124 07222 12/70 01010 10290 20110 30180 40210 58010 60006 80000 91200 333 91020=
07222,1997-09-19 15:00:00,30,1019.9,-1.1,25,8,20000,14.816,,,100,,,,,,,,,,,wg-a,,,,AAXX 19154 07222 12/70 01008 10300 20080 30169 40199 58011 60006 80000 91500=
07222,1997-09-19 18:00:00,27,1019.7,-0.2,34,10,20000,7.408,,,90,13.3,30.4,,,,,,,,,wg-a,,,,AAXX 19184 07222 12/70 00904 10270 20100 30167 40197 55002 60006 80000 91800 333 10304 20133=
07222,1997-09-20 00:00:00,20,1020.9,0.2,64,13,15000,14.816,,,70,,,,,,,,,,,wg-a,,,,AAXX 20004 07222 12/65 00708 10200 20130 30178 40209 51002 60006 80000 90000=
07222,1997-09-20 03:00:00,19,1020.7,-0.2,78,15,10000,14.816,,,70,,,,,,,,,,,wg-a,,,,AAXX 20034 07222 12/60 00708 10190 20150 30176 40207 58002 60006 80000 90300=
07222,1997-09-20 06:00:00,18,1021,0.3,83,15,4000,11.112,,,80,17.5,27,,,,,,,,10,wg-a,,,,AAXX 20064 07222 02/40 00806 10180 20150 30179 40210 53003 60006 71000 80000 90600 333 10270 20175 60004=
07222,1997-09-20 09:00:00,22,1021.5,0.6,69,16,6000,18.52,,,80,,,,,,,,,,,wg-a,,,,AAXX 20094 07222 12/56 00810 10220 20160 30185 40215 52006 60006 80000 90900=
07222,1997-09-20 12:00:00,27,1021,-0.5,48,15,20000,22.224,,,90,,,,,,,,,,,wg-a,,,,AAXX 20124 07222 12670 /0912 10270 20150 30180 40210 58005 60006 81100 91200=
07222,1997-09-20 18:00:00,25,1020.1,0.1,50,14,10000,18.52,,,70,17.4,28.5,,,,,,,,,wg-a,,,,AAXX 20184 07222 12760 10710 10250 20140 30171 40201 53001 60006 81201 91800 333 10285 20174=
07222,1997-09-20 21:00:00,21,1021.3,1.1,49,10,10000,14.816,,,70,,,,,,,,,,,wg-a,,,,AAXX 20214 07222 12/60 10708 10210 20100 30182 40213 51011 60006 81031 92100=
07222,1997-09-21 00:00:00,18,1021.6,0.3,56,9,10000,11.112,,,70,,,,,,,,,,,wg-a,,,,AAXX 21004 07222 12/60 20706 10180 20090 30185 40216 51003 60006 80001 90000=
07222,1997-09-21 03:00:00,15,1021,-0.6,63,8,10000,11.112,,,70,,,,,,,,,,,wg-a,,,,AAXX 21034 07222 12/60 30706 10150 20080 30179 40210 57006 60006 82031 90300=
07222,1997-09-21 06:00:00,14,1021,-0,67,8,10000,7.408,,,60,14,24.6,,,,,,,,,wg-a,,,,AAXX 21064 07222 02760 50604 10140 20080 30179 40210 55000 60006 81533 90600 333 10246 20140 60004=
07222,1997-09-21 09:00:00,17,1021.6,0.6,63,10,500,11.112,,,100,,,,,,,,,,,wg-a,,,,AAXX 21094 07222 12500 51006 10170 20100 30185 40216 53006 60006 82830 90900=
07222,1997-09-21 12:00:00,24,1020.7,-0.8,50,13,500,7.408,,,140,,,,,,,,,,,wg-a,,,,AAXX 21124 07222 12/00 31404 10240 20130 30177 40207 58008 60006 83030 91200=
07222,1997-09-21 15:00:00,25,1019.9,-0.8,50,14,500,11.112,,,170,,,,,,,,,,,wg-a,,,,AAXX 21154 07222 12800 31706 10250 20140 30169 40199 56008 60006 83030 91500=
07222,1997-09-21 18:00:00,21,1020.5,0.5,78,17,20000,14.816,,,270,14,25.3,,,,,,,,,wg-a,,,,AAXX 21184 07222 12870 52708 10210 20170 30174 40205 53005 60006 83031 91800 333 10253 20140=
07222,1997-09-21 21:00:00,16,1021.4,0.9,94,15,8000,7.408,,,280,,,,,,,,,,,wg-a,,,,AAXX 21214 07222 12758 52804 10160 20150 30183 40214 51009 60006 82530 92100=
07222,1997-09-22 00:00:00,14,1021.5,0.1,94,13,8000,3.704,,,290,,,,,,,,,,,wg-a,,,,AAXX 22004 07222 12758 32902 10140 20130 30184 40215 50001 60006 82530 90000=
07222,1997-09-22 03:00:00,14,1021.1,-0.4,100,14,8000,3.704,,,270,,,,,,,,,,,wg-a,,,,AAXX 22034 07222 12/58 72702 10140 20140 30180 40211 58004 60006 8703/ 90300=
07222,1997-09-22 09:00:00,18,1021.8,0.7,88,16,10000,3.704,,,300,,,,,,,,,,,wg-a,,,,AAXX 22094 07222 12260 53002 10180 20160 30187 40218 51007 60006 83530 90900=
07222,1997-09-22 12:00:00,24,1021,-0.7,54,14,15000,3.704,,,320,,,,,,,,,,,wg-a,,,,AAXX 22124 07222 12665 33202 10240 20140 30180 40210 58007 60006 83230 91200=
07222,1997-09-22 15:00:00,24,1020.2,-0.8,54,14,15000,3.704,,,350,,,,,,,,,,,wg-a,,,,AAXX 22154 07222 12665 33502 10240 20140 30172 40202 56008 60006 83800 91500=
07222,1997-09-22 18:00:00,21,1020,-0.2,73,16,15000,7.408,,,310,14.9,24.4,,,,,,,,,wg-a,,,,AAXX 22184 07222 12/65 53104 10210 20160 30170 40200 55002 60006 80001 91800 333 10244 20149=
07222,1997-09-22 21:00:00,17,1021.1,1,88,15,12000,7.408,,,340,,,,,,,,,,,wg-a,,,,AAXX 22214 07222 12/62 23404 10170 20150 30180 40211 52010 60006 80001 92100=
07222,1997-09-23 00:00:00,16,1020.5,-0.6,77,12,10000,7.408,,,30,,,,,,,,,,,wg-a,,,,AAXX 23004 07222 12/60 30304 10160 20120 30174 40205 58006 60006 80001 90000=
07222,1997-09-23 03:00:00,16,1020.3,-0.2,77,12,10000,7.408,,,60,,,,,,,,,,,wg-a,,,,AAXX 23034 07222 12/60 30604 10160 20120 30172 40203 56002 60006 80001 90300=
07222,1997-09-23 06:00:00,14,1020.6,0.3,77,10,10000,7.408,,,50,14.2,21.4,,,,,,,,,wg-a,,,,AAXX 23064 07222 02/60 30504 10140 20100 30175 40206 53003 60006 80001 90600 333 10214 20142 60004=
07222,1997-09-23 09:00:00,19,1021.1,0.5,60,11,10000,11.112,,,60,,,,,,,,,,,wg-a,,,,AAXX 23094 07222 12/60 30606 10190 20110 30180 40211 53005 60006 80001 90900=
07222,1997-09-23 12:00:00,24,1020.3,-0.7,41,10,20000,18.52,,,60,,,,,,,,,,,wg-a,,,,AAXX 23124 07222 12/70 30610 10240 20100 30173 40203 58007 60006 80001 91200=
07222,1997-09-23 15:00:00,26,1019.2,-1.1,34,9,20000,18.52,,,50,,,,,,,,,,,wg-a,,,,AAXX 23154 07222 12/70 20510 10260 20090 30162 40192 56011 60006 80001 91500=
07222,1997-09-23 18:00:00,23,1019.5,0.3,33,6,20000,7.408,,,50,14.2,25.9,,,,,,,,,wg-a,,,,AAXX 23184 07222 12/70 20504 10230 20060 30165 40195 53003 60006 80001 91800 333 10259 20142=
07222,1997-09-23 21:00:00,20,1020.6,1,53,10,20000,7.408,,,60,,,,,,,,,,,wg-a,,,,AAXX 23214 07222 12/70 00604 10200 20100 30175 40206 52010 60006 80000 92100=
07222,1997-09-24 00:00:00,17,1020.5,-0.1,59,9,20000,14.816,,,60,,,,,,,,,,,wg-a,,,,AAXX 24004 07222 12/70 00608 10170 20090 30174 40205 58001 60006 80000 90000=
07222,1997-09-24 06:00:00,13,1020.8,0.4,72,8,9000,11.112,,,40,12.6,23,,,,,,,,,wg-a,,,,AAXX 24064 07222 02/59 00406 10130 20080 30176 40208 53004 60006 80000 90600 333 10230 20126 60004=
07222,1997-09-24 09:00:00,17,1021.1,0.4,59,9,12000,14.816,,,60,,,,,,,,,,,wg-a,,,,AAXX 24094 07222 12/62 00608 10170 20090 30180 40211 51004 60006 80000 90900=
07222,1997-09-24 12:00:00,24,1020,-1,47,12,15000,22.224,,,80,,,,,,,,,,,wg-a,,,,AAXX 24124 07222 12/65 00812 10240 20120 30170 40200 58010 60006 80000 91200=
07222,1997-09-24 15:00:00,26,1018.6,-1.4,39,11,20000,14.816,,,70,,,,,,,,,,,wg-a,,,,AAXX 24154 07222 12/70 10708 10260 20110 30156 40186 56014 60006 80001 91500=
07222,1997-09-24 18:00:00,23,1018.7,0.1,41,9,20000,11.112,,,50,12.6,26.1,,,,,,,,,wg-a,,,,AAXX 24184 07222 12/70 10506 10230 20090 30157 40187 53001 60006 80001 91800 333 10261 20126=
07222,1997-09-24 21:00:00,20,1019.8,1,56,11,20000,11.112,,,50,,,,,,,,,,,wg-a,,,,AAXX 24214 07222 12/70 10506 10200 20110 30167 40198 51010 60006 80001 92100=
07222,1997-09-25 00:00:00,17,1019.7,-0.1,63,10,20000,11.112,,,60,,,,,,,,,,,wg-a,,,,AAXX 25004 07222 12/70 00606 10170 20100 30166 40197 58001 60006 80000 90000=
07222,1997-09-25 03:00:00,15,1019.7,-0,67,9,15000,11.112,,,50,,,,,,,,,,,wg-a,,,,AAXX 25034 07222 12/65 00506 10150 20090 30166 40197 55000 60006 80000 90300=
07222,1997-09-25 06:00:00,13,1020.2,0.5,82,10,10000,11.112,,,50,13.2,22.8,,,,,,,,,wg-a,,,,AAXX 25064 07222 02/60 10506 10130 20100 30171 40202 50005 60006 80001 90600 333 10228 20132 60004=
07222,1997-09-25 09:00:00,18,1021.4,1.2,64,11,15000,14.816,,,70,,,,,,,,,,,wg-a,,,,AAXX 25094 07222 12/65 10708 10180 20110 30183 40214 51012 60006 80001 90900=
07222,1997-09-25 12:00:00,25,1021.1,-0.2,41,11,20000,18.52,,,70,,,,,,,,,,,wg-a,,,,AAXX 25124 07222 12/70 10710 10250 20110 30181 40211 58002 60006 80001 91200=
07222,1997-09-25 15:00:00,27,1020.2,-0.9,32,9,500,14.816,,,60,,,,,,,,,,,wg-a,,,,AAXX 25154 07222 12/00 10608 10270 20090 30172 40202 56009 60006 80001 91500=
07222,1997-09-26 00:00:00,17,1021.9,0,59,9,20000,11.112,,,50,,,,,,,,,,,wg-a,,,,AAXX 26004 07222 12/70 00506 10170 20090 30188 40219 50000 60006 80000 90000=
07222,1997-09-26 06:00:00,13,1022,0.2,82,10,10000,7.408,,,40,12.2,23.9,,,,,,,,,wg-a,,,,AAXX 26064 07222 02/60 00404 10130 20100 30188 40220 52002 60006 80000 90600 333 10239 20122 60004=
07222,1997-09-26 09:00:00,18,1022.2,0.3,64,11,15000,14.816,,,50,,,,,,,,,,,wg-a,,,,AAXX 26094 07222 12/65 10508 10180 20110 30191 40222 51003 60006 80001 90900=
07222,1997-09-26 12:00:00,24,1020.6,-1.5,47,12,20000,14.816,,,40,,,,,,,,,,,wg-a,,,,AAXX 26124 07222 12/70 10408 10240 20120 30176 40206 58015 60006 80001 91200=
07222,1997-09-26 15:00:00,26,1019,-1.6,37,10,22000,11.112,,,40,,,,,,,,,,,wg-a,,,,AAXX 26154 07222 12/72 30406 10260 20100 30160 40190 56016 60006 80001 91500=
07222,1997-09-26 18:00:00,23,1018.3,-0.7,44,10,25000,7.408,,,40,12.5,26.4,,,,,,,,,wg-a,,,,AAXX 26184 07222 12/75 50404 10230 20100 30153 40183 56007 60006 80001 91800 333 10264 20125=
07222,1997-09-26 21:00:00,18,1018.5,0.1,56,9,25000,3.704,,,20,,,,,,,,,,,wg-a,,,,AAXX 26214 07222 12/75 30202 10180 20090 30154 40185 50001 60006 80001 92100=
07222,1997-09-27 00:00:00,15,1017.5,-1,67,9,20000,0,,,0,,,,,,,,,,,wg-a,,,,AAXX 27004 07222 12/70 20000 10150 20090 30144 40175 57010 60006 80001 90000=
07222,1997-09-27 03:00:00,13,1016.5,-1,82,10,12000,3.704,,,40,,,,,,,,,,,wg-a,,,,AAXX 27034 07222 12/62 20402 10130 20100 30134 40165 58010 60006 80001 90300=
07222,1997-09-27 06:00:00,12,1016,-0.5,88,10,8000,3.704,,,40,11.9,22.7,,,,,,,,,wg-a,,,,AAXX 27064 07222 02/58 20402 10120 20100 30129 40160 56005 60006 80001 90600 333 10227 20119 60004=
07222,1997-09-27 09:00:00,19,1016.2,0.2,60,11,10000,11.112,,,70,,,,,,,,,,,wg-a,,,,AAXX 27094 07222 12/60 40706 10190 20110 30131 40162 51002 60006 80001 90900=
07222,1997-09-27 12:00:00,26,1015,-1.1,39,11,15000,11.112,,,50,,,,,,,,,,,wg-a,,,,AAXX 27124 07222 12/65 50506 10260 20110 30120 40150 57011 60006 80001 91200=
07222,1997-09-27 15:00:00,28,1013.5,-1.5,32,10,15000,3.704,,,350,,,,,,,,,,,wg-a,,,,AAXX 27154 07222 12/65 53502 10280 20100 30105 40135 56015 60006 80002 91500=
07222,1997-09-27 18:00:00,23,1013.8,0.3,47,11,15000,7.408,,,30,12.1,28.1,,,,,,,,,wg-a,,,,AAXX 27184 07222 12/65 60304 10230 20110 30108 40138 53003 60006 82032 91800 333 10281 20121=
07222,1997-09-27 21:00:00,18,1014.3,0.4,64,11,15000,7.408,,,30,,,,,,,,,,,wg-a,,,,AAXX 27214 07222 12/65 00304 10180 20110 30112 40143 51004 60006 80000 92100=
07222,1997-09-28 00:00:00,15,1014.2,-0.1,77,11,15000,3.704,,,30,,,,,,,,,,,wg-a,,,,AAXX 28004 07222 12/65 00302 10150 20110 30111 40142 55001 60006 80000 90000=
07222,1997-09-28 03:00:00,13,1013.9,-0.3,88,11,15000,3.704,,,40,,,,,,,,,,,wg-a,,,,AAXX 28034 07222 12/65 00402 10130 20110 30108 40139 58003 60006 80000 90300=
07222,1997-09-28 06:00:00,13,1014.2,0.3,88,11,6000,3.704,,,40,12.2,23,,,,,,,,,wg-a,,,,AAXX 28064 07222 02/56 00402 10130 20110 30111 40142 53003 60006 80000 90600 333 10230 20122 60004=
07222,1997-09-28 09:00:00,19,1015.7,0.9,64,12,8000,11.112,,,50,,,,,,,,,,,wg-a,,,,AAXX 28094 07222 12/58 00506 10190 20120 30120 40157 51009 60006 80000 90900=
07222,1997-09-28 12:00:00,26,1014.4,-0.6,42,12,12000,11.112,,,50,,,,,,,,,,,wg-a,,,,AAXX 28124 07222 12/62 00506 10260 20120 30114 40144 58006 60006 80000 91200=
07222,1997-09-28 15:00:00,28,1013.9,-0.5,35,11,18000,7.408,,,360,,,,,,,,,,,wg-a,,,,AAXX 28154 07222 12/68 03604 10280 20110 30109 40139 57005 60006 80000 91500=
07222,1997-09-28 18:00:00,24,1014.6,0.7,44,11,15000,3.704,,,50,12.4,28,,,,,,,,,wg-a,,,,AAXX 28184 07222 12/65 20502 10240 20110 30116 40146 53007 60006 80001 91800 333 10280 20124=
07222,1997-09-28 21:00:00,19,1016.4,1.7,64,12,10000,3.704,,,60,,,,,,,,,,,wg-a,,,,AAXX 28214 07222 12/60 /0602 10190 20120 30133 40164 51017 60006 92100=
07222,1997-09-29 00:00:00,17,1017.1,0.7,72,12,10000,3.704,,,50,,,,,,,,,,,wg-a,,,,AAXX 29004 07222 12/60 00502 10170 20120 30140 40171 51007 60006 80000 90000=
07222,1997-09-29 03:00:00,16,1017.4,0.3,72,11,10000,3.704,,,60,,,,,,,,,,,wg-a,,,,AAXX 29034 07222 12/60 00602 10160 20110 30143 40174 52003 60006 80000 90300=
07222,1997-09-29 06:00:00,15,1018.7,1.3,77,11,8000,3.704,,,50,13.5,24.3,,,,,,,,,wg-a,,,,AAXX 29064 07222 02/58 40502 10150 20110 30156 40187 53013 60006 80001 90600 333 10243 20135 60004=
07222,1997-09-29 09:00:00,21,1020.7,2,49,10,12000,11.112,,,80,,,,,,,,,,,wg-a,,,,AAXX 29094 07222 12/62 40806 10210 20100 30176 40207 51020 60006 80001 90900=
07222,1997-09-29 12:00:00,28,1020.7,0.1,35,11,18000,7.408,,,70,,,,,,,,,,,wg-a,,,,AAXX 29124 07222 12/68 30704 10280 20110 30177 40207 53001 60006 80001 91200=
07222,1997-09-29 15:00:00,28,1020.4,-0.3,37,12,22000,7.408,,,30,,,,,,,,,,,wg-a,,,,AAXX 29154 07222 12/72 20304 10280 20120 30174 40204 58003 60006 80001 91500=
07222,1997-09-29 18:00:00,25,1021.2,0.8,44,12,15000,7.408,,,50,13.6,28.5,,,,,,,,,wg-a,,,,AAXX 29184 07222 12/65 20504 10250 20120 30182 40212 53008 60006 80001 91800 333 10285 20136=
07222,1997-09-29 21:00:00,19,1022.6,1.3,60,11,15000,3.704,,,60,,,,,,,,,,,wg-a,,,,AAXX 29214 07222 12/65 00602 10190 20110 30195 40226 53013 60006 80000 92100=
07222,1997-09-30 00:00:00,18,1023.1,0.5,59,10,15000,7.408,,,60,,,,,,,,,,,wg-a,,,,AAXX 30004 07222 12/65 00604 10180 20100 30200 40231 51005 60006 80000 90000=
07222,1997-09-30 03:00:00,14,1023.7,0.6,82,11,10000,3.704,,,50,,,,,,,,,,,wg-a,,,,AAXX 30034 07222 12/60 00502 10140 20110 30206 40237 51006 60006 80000 90300=
07222,1997-09-30 06:00:00,13,1024.2,0.4,88,11,6000,7.408,,,50,12.5,25,,,,,,,,,wg-a,,,,AAXX 30064 07222 02/56 20504 10130 20110 30210 40242 53004 60006 80001 90600 333 10250 20125 60004=
07222,1997-09-30 09:00:00,20,1024.8,0.7,53,10,10000,7.408,,,50,,,,,,,,,,,wg-a,,,,AAXX 30094 07222 12/60 10504 10200 20100 30217 40248 53007 60006 80001 90900=
07222,1997-09-30 12:00:00,27,1024.4,-0.3,32,9,20000,11.112,,,60,,,,,,,,,,,wg-a,,,,AAXX 30124 07222 12/70 10606 10270 20090 30214 40244 57003 60006 80001 91200=
07222,1997-09-30 15:00:00,28,1023.2,-1.2,30,9,20000,11.112,,,60,,,,,,,,,,,wg-a,,,,AAXX 30154 07222 12/70 00606 10280 20090 30202 40232 56012 60006 80000 91500=
07222,1997-09-30 18:00:00,25,1022.9,-0.3,36,9,10000,7.408,,,50,12.9,28.4,,,,,,,,,wg-a,,,,AAXX 30184 07222 12/60 /0504 10250 20090 30199 40229 55003 60006 80001 91800 333 10284 20129=
07222,1997-10-01 00:00:00,17,1023.2,-0.4,77,13,15000,3.704,,,30,,,,,,,,,,,wg-a,,,,AAXX 01004 07222 12/65 00302 10170 20130 30201 40232 57004 60006 80000 90000=
07222,1997-10-01 03:00:00,14,1022.7,-0.5,88,12,15000,3.704,,,10,,,,,,,,,,,wg-a,,,,AAXX 01034 07222 12/65 00102 10140 20120 30196 40227 58005 60006 80000 90300=
07222,1997-10-01 06:00:00,13,1022.6,-0.2,88,11,500,7.408,,,30,12.9,25.1,,,,,,,,,wg-a,,,,AAXX 01064 07222 02/00 /0304 10130 20110 30194 40226 55002 60006 80001 90600 333 10251 20129 60004=
07222,1997-10-01 09:00:00,19,1022.7,0.2,64,12,8000,11.112,,,30,,,,,,,,,,,wg-a,,,,AAXX 01094 07222 12/58 /0306 10190 20120 30196 40227 52002 60006 80001 90900=
07222,1997-10-01 12:00:00,26,1021.8,-0.8,39,11,15000,11.112,,,40,,,,,,,,,,,wg-a,,,,AAXX 01124 07222 12/65 10406 10260 20110 30188 40218 58008 60006 80001 91200=
07222,1997-10-01 15:00:00,28,1020.2,-1.6,32,10,25000,11.112,,,10,,,,,,,,,,,wg-a,,,,AAXX 01154 07222 12/75 30106 10280 20100 30172 40202 56016 60006 80001 91500=
07222,1997-10-01 18:00:00,22,1020,-0.2,46,10,20000,7.408,,,340,12.9,27.7,,,,,,,,,wg-a,,,,AAXX 01184 07222 12/70 13404 10220 20100 30170 40200 55002 60006 80001 91800 333 10277 20129=
07222,1997-10-01 21:00:00,19,1020.6,0.5,73,14,20000,14.816,,,20,,,,,,,,,,,wg-a,,,,AAXX 01214 07222 12/70 00208 10190 20140 30175 40206 53005 60006 80000 92100=
07222,1997-10-02 00:00:00,14,1020.1,-0.5,94,13,15000,7.408,,,20,,,,,,,,,,,wg-a,,,,AAXX 02004 07222 12/65 00204 10140 20130 30170 40201 58005 60006 80000 90000=
07222,1997-10-02 03:00:00,15,1019.3,-0.8,100,15,3000,7.408,,,20,,,,,,,,,,,wg-a,,,,AAXX 02034 07222 12130 70204 10150 20150 30162 40193 58008 60006 87600 90300=
07222,1997-10-02 06:00:00,15,1019.5,0.2,100,15,2000,11.112,,,10,14,22.3,,,,,,,,10,wg-a,,,,AAXX 02064 07222 02120 70106 10150 20150 30164 40195 53002 60006 71011 876// 90600 333 10223 20140 60004=
07222,1997-10-02 12:00:00,20,1020.1,-0.4,73,15,20000,11.112,,,50,,,,,,,,,,,wg-a,,,,AAXX 02124 07222 12470 /0506 10200 20150 30170 40201 58004 60006 86500 91200=
07222,1997-10-02 15:00:00,20,1019.3,-0.8,73,15,20000,11.112,,,20,,,,,,,,,,,wg-a,,,,AAXX 02154 07222 12570 70206 10200 20150 30162 40193 56008 60006 87500 91500=
07222,1997-10-02 18:00:00,19,1019.6,0.3,78,15,15000,14.816,,,360,15.3,21.6,,,,,,,,,wg-a,,,,AAXX 02184 07222 12565 73608 10190 20150 30165 40196 53003 60006 87500 91800 333 10216 20153=
07222,1997-10-02 21:00:00,16,1019.7,0.1,88,14,15000,7.408,,,20,,,,,,,,,,,wg-a,,,,AAXX 02214 07222 12/65 00204 10160 20140 30166 40197 50001 60006 80000 92100=
07222,1997-10-03 00:00:00,14,1019.7,0,94,13,15000,7.408,,,20,,,,,,,,,,,wg-a,,,,AAXX 03004 07222 12/65 00204 10140 20130 30166 40197 50000 60006 80000 90000=
07222,1997-10-03 03:00:00,14,1019.4,-0.3,88,12,10000,7.408,,,30,,,,,,,,,,,wg-a,,,,AAXX 03034 07222 12/60 00304 10140 20120 30163 40194 58003 60006 80000 90300=
07222,1997-10-03 06:00:00,12,1019.6,0.2,100,12,500,7.408,,,30,12.3,18.6,,,,,,,,,wg-a,,,,AAXX 03064 07222 02/00 00304 10120 20120 30165 40196 53002 60006 80000 90600 333 10186 20123 60004=
07222,1997-10-03 09:00:00,17,1020.4,0.8,72,12,10000,11.112,,,60,,,,,,,,,,,wg-a,,,,AAXX 03094 07222 12/60 00606 10170 20120 30173 40204 51008 60006 80000 90900=
07222,1997-10-03 12:00:00,22,1019.9,-0.4,53,12,20000,14.816,,,60,,,,,,,,,,,wg-a,,,,AAXX 03124 07222 12/70 00608 10220 20120 30169 40199 58004 60006 80000 91200=
07222,1997-10-03 15:00:00,23,1018.9,-1,41,9,25000,18.52,,,70,,,,,,,,,,,wg-a,,,,AAXX 03154 07222 12/75 00710 10230 20090 30159 40189 56010 60006 80000 91500=
07222,1997-10-03 18:00:00,21,1019.9,0.9,49,10,25000,7.408,,,50,12.4,23.5,,,,,,,,,wg-a,,,,AAXX 03184 07222 12/75 00504 10210 20100 30168 40199 53009 60006 80000 91800 333 10235 20124=
07222,1997-10-03 21:00:00,18,1021,1.1,59,10,20000,11.112,,,60,,,,,,,,,,,wg-a,,,,AAXX 03214 07222 12/70 00606 10180 20100 30179 40210 51011 60006 80000 92100=
07222,1997-10-04 00:00:00,16,1021.3,0.3,68,10,20000,7.408,,,50,,,,,,,,,,,wg-a,,,,AAXX 04004 07222 12/70 00504 10160 20100 30182 40213 50003 60006 80000 90000=
07222,1997-10-04 03:00:00,11,1022.2,0.8,87,9,20000,7.408,,,30,,,,,,,,,,,wg-a,,,,AAXX 04034 07222 12/70 00304 10110 20090 30190 40222 51008 60006 80000 90300=
07222,1997-10-04 06:00:00,12,1022.5,0.3,82,9,9000,7.408,,,40,11.1,21,,,,,,,,,wg-a,,,,AAXX 04064 07222 02/59 00404 10120 20090 30193 40225 53003 60006 80000 90600 333 10210 20111 60004=
07222,1997-10-04 09:00:00,16,1023.3,0.9,63,9,15000,11.112,,,60,,,,,,,,,,,wg-a,,,,AAXX 04094 07222 12/65 00606 10160 20090 30202 40233 51009 60006 80000 90900=
07222,1997-10-04 12:00:00,21,1022.4,-0.9,49,10,10000,14.816,,,70,,,,,,,,,,,wg-a,,,,AAXX 04124 07222 12/60 /0708 10210 20100 30193 40224 58009 60006 91200=
07222,1997-10-04 15:00:00,23,1020.7,-1.6,44,10,20000,14.816,,,50,,,,,,,,,,,wg-a,,,,AAXX 04154 07222 12/70 00508 10230 20100 30177 40207 56016 60006 80000 91500=
07222,1997-10-04 18:00:00,20,1020.4,-0.4,53,10,500,7.408,,,60,11.5,23,,,,,,,,,wg-a,,,,AAXX 04184 07222 12/00 10604 10200 20100 30173 40204 55004 60006 80001 91800 333 10230 20115=
07222,1997-10-04 21:00:00,17,1019.9,-0.5,68,11,20000,7.408,,,60,,,,,,,,,,,wg-a,,,,AAXX 04214 07222 12/70 00604 10170 20110 30168 40199 57005 60006 80000 92100=
07222,1997-10-05 00:00:00,13,1019.2,-0.7,82,10,20000,3.704,,,50,,,,,,,,,,,wg-a,,,,AAXX 05004 07222 12/70 00502 10130 20100 30161 40192 58007 60006 80000 90000=
07222,1997-10-05 03:00:00,10,1018.1,-1.2,93,9,20000,3.704,,,40,,,,,,,,,,,wg-a,,,,AAXX 05034 07222 12/70 00402 10100 20090 30149 40181 58012 60006 80000 90300=
07222,1997-10-05 06:00:00,11,1017.2,-0.9,87,9,10000,3.704,,,60,9.8,19.9,,,,,,,,,wg-a,,,,AAXX 05064 07222 02/60 00602 10110 20090 30140 40172 56009 60006 80000 90600 333 10199 20098 60004=
07222,1997-10-05 09:00:00,17,1016.1,-1,59,9,15000,14.816,,,80,,,,,,,,,,,wg-a,,,,AAXX 05094 07222 12/65 00808 10170 20090 30130 40161 58010 60006 80000 90900=
07222,1997-10-05 11:00:00,22,1014.4,-1.6,43,9,20000,18.52,,,90,,,,,,,,,,,wg-a,,,,AAXX 05114 07222 12/70 00910 10220 20090 30114 40144 58016 60006 80000 91100=
07222,1997-10-05 12:00:00,23,1014.4,-1.6,44,10,20000,18.52,,,80,,,,,,,,,,,wg-a,,,,AAXX 05124 07222 12/70 00810 10230 20100 30114 40144 58016 60006 80000 91200=
07222,1997-10-05 15:00:00,25,1011.2,-3.2,36,9,10000,14.816,,,90,,,,,,,,,,,wg-a,,,,AAXX 05154 07222 12/60 /0908 10250 20090 30082 40112 56032 60006 91500=
07222,1997-10-05 18:00:00,21,1010.1,-1.1,46,9,25000,7.408,,,80,10.7,25.5,,,,,,,,,wg-a,,,,AAXX 05184 07222 12/75 20804 10210 20090 30071 40101 55011 60006 80001 91800 333 10255 20107=
07222,1997-10-05 21:00:00,17,1009,-1.2,59,9,20000,11.112,,,70,,,,,,,,,,,wg-a,,,,AAXX 05214 07222 12/70 50706 10170 20090 30059 40090 57012 60006 80001 92100=
07222,1997-10-06 00:00:00,16,1006.8,-2.2,68,10,20000,11.112,,,110,,,,,,,,,,,wg-a,,,,AAXX 06004 07222 12/70 51106 10160 20100 30037 40068 58022 60006 80001 90000=
07222,1997-10-06 03:00:00,15,1004.8,-2,82,12,15000,11.112,,,150,,,,,,,,,,,wg-a,,,,AAXX 06034 07222 12/65 21506 10150 20120 30017 40048 58020 60006 80001 90300=
07222,1997-10-06 06:00:00,16,1004.1,-0.7,94,15,10000,11.112,,,160,14.6,21,,,,,,,,,wg-a,,,,AAXX 06064 07222 02760 41606 10160 20150 30010 40041 56007 60006 825/1 90600 333 10210 20146 60004=
07222,1997-10-06 09:00:00,20,1004,-0,88,18,8000,18.52,,,180,,,,,,,,,,,wg-a,,,,AAXX 06094 07222 12458 71810 10200 20180 30010 40040 55000 60006 8553/ 90900=
07222,1997-10-06 12:00:00,22,1004.3,0.3,78,18,10000,22.224,,,240,,,,,,,,,,,wg-a,,,,AAXX 06124 07222 12560 72412 10220 20180 30013 40043 51003 60006 85531 91200=
07222,1997-10-06 15:00:00,19,1003.7,-0.6,94,18,4500,14.816,,,210,,,,0,,,,,,10,wg-a,,,,AAXX 06154 07222 12445 72108 10190 20180 30007 40037 56006 60007 71062 878// 91500=
07222,1997-10-06 18:00:00,19,1002.9,-0.8,94,18,4000,18.52,,,220,16.2,22.6,,,,,,,,10,wg-a,,,,AAXX 06184 07222 02440 82210 10190 20180 39999 40029 56008 61000 71062 878// 91800 333 10226 20162 6001=
07222,1997-10-06 21:00:00,18,1002.5,-0.4,94,17,500,14.816,,,190,,,,2,,,,,,61,wg-a,,,,AAXX 06214 07222 12300 81908 10180 20170 39995 40025 58004 60027 76162 8353/ 92100=
07222,1997-10-07 00:00:00,16,1001.9,-0.6,100,16,12000,11.112,,,200,,,,14,,,,,,1,wg-a,,,,AAXX 07004 07222 02462 22006 10160 20160 39989 40019 56006 60166 70196 82500 90000 333 60147=
07222,1997-10-07 06:00:00,15,1001.9,0,94,14,11000,18.52,,,200,14.4,18.8,,,,,18,,,,wg-a,,,,AAXX 07064 07222 02/61 /2010 10150 20140 39988 40019 50000 60006 90600 333 10188 20144 60184=
07222,1997-10-07 12:00:00,19,1006.3,2.1,60,11,15000,31.484,,,250,,,,,,,,,,1,wg-a,,,,AAXX 07124 07222 02565 /2517 10190 20110 30033 40063 53021 61000 70186 86800 91200 333 6100=
07222,1997-10-07 15:00:00,19,1007.2,0.9,64,12,11000,22.224,,,250,,,,,,,,,,,wg-a,,,,AAXX 07154 07222 12/61 /2512 10190 20120 30042 40072 51009 60006 91500=
07222,1997-10-07 18:00:00,15,1008.6,1.3,88,13,9000,14.816,,,220,14.8,20.5,,,,,,,,25,wg-a,,,,AAXX 07184 07222 02559 52208 10150 20130 30055 40086 53013 61000 72586 83803 91800 333 10205 20148 6100=
07222,1997-10-07 21:00:00,15,1009.7,1.1,88,13,10000,14.816,,,200,,,,,,,,,,,wg-a,,,,AAXX 07214 07222 12760 82008 10150 20130 30066 40097 51011 60006 8557/ 92100=
07222,1997-10-08 00:00:00,17,1010,0.3,88,15,10000,14.816,,,220,,,,,,,,,,60,wg-a,,,,AAXX 08004 07222 02560 82208 10170 20150 30069 40100 51003 61000 76062 875// 90000 333 6100=
07222,1997-10-08 03:00:00,17,1009.9,-0.1,88,15,10000,14.816,,,210,,,,0,,,,,,21,wg-a,,,,AAXX 08034 07222 12660 82108 10170 20150 30068 40099 58001 60007 72162 875// 90300=
07222,1997-10-08 06:00:00,17,1010,0.1,88,15,10000,18.52,,,220,14.1,17.8,,,,,,,,2,wg-a,,,,AAXX 08064 07222 02660 82210 10170 20150 30069 40100 53001 60006 70262 8553/ 90600 333 10178 20141 60004=
07222,1997-10-08 12:00:00,18,1009.7,-0.5,88,16,15000,25.928,,,210,,,,0,,,,,,60,wg-a,,,,AAXX 08124 07222 02565 82114 10180 20160 30066 40097 56005 60006 76062 875// 91200 333 60007=
07222,1997-10-08 18:00:00,20,1009.9,0.6,78,16,15000,31.484,,53.708,220,17.4,20.1,,,,,,,,1,wg-a,,,,AAXX 08184 07222 12565 82217 10200 20160 30069 40099 51006 60006 70162 875// 91800 333 10201 20174 91029=
07222,1997-10-08 21:00:00,20,1010.2,0.3,78,16,11000,29.632,,,230,,,,,,,,,,,wg-a,,,,AAXX 08214 07222 12/61 /2316 10200 20160 30072 40102 51003 60006 92100=
07222,1997-10-09 00:00:00,18,1010.5,0.2,94,17,4000,31.484,,51.856,230,,,,1,,,,,,61,wg-a,,,,AAXX 09004 07222 02440 82317 10180 20170 30074 40105 53002 60016 76162 875// 90000 333 60017 91028=
07222,1997-10-09 03:00:00,18,1010.5,0,100,18,500,25.928,,48.152,230,,,,2,,,,,,61,wg-a,,,,AAXX 09034 07222 12200 82314 10180 20180 30074 40105 50000 60027 76166 877// 90300 333 91026=
07222,1997-10-09 06:00:00,19,1011.4,1,94,18,10000,25.928,,51.856,250,17.5,20.4,,,,,4,,,2,wg-a,,,,AAXX 09064 07222 02360 82514 10190 20180 30084 40114 53010 60006 70265 877// 90600 333 10204 20175 60044 91028=
07222,1997-10-09 09:00:00,21,1013.7,2.3,83,18,18000,29.632,,,260,,,,,,,,,,,wg-a,,,,AAXX 09094 07222 12468 52616 10210 20180 30107 40137 51023 60006 85800 90900=
07222,1997-10-09 12:00:00,22,1015.1,1.4,69,16,20000,31.484,,,260,,,,,,,,,,,wg-a,,,,AAXX 09124 07222 12570 42617 10220 20160 30121 40151 51014 60006 83202 91200=
07222,1997-10-09 15:00:00,21,1015.3,0.2,73,16,22000,29.632,,,250,,,,,,,,,,,wg-a,,,,AAXX 09154 07222 12572 52516 10210 20160 30123 40153 52002 60006 84202 91500=
07222,1997-10-09 18:00:00,19,1015.9,0.5,88,17,15000,18.52,,,230,18.6,22.3,,,,,,,,,wg-a,,,,AAXX 09184 07222 12465 72310 10190 20170 30128 40159 52005 60006 878// 91800 333 10223 20186=
07222,1997-10-09 21:00:00,18,1015.4,-0.5,94,17,15000,14.816,,,210,,,,,,,,,,,wg-a,,,,AAXX 09214 07222 12365 72108 10180 20170 30123 40154 58005 60006 878// 92100=
07222,1997-10-10 00:00:00,18,1013.7,-1.7,94,17,10000,18.52,,,220,,,,,,,,,,,wg-a,,,,AAXX 10004 07222 12460 72210 10180 20170 30106 40137 58017 60006 8685/ 90000=
07222,1997-10-10 03:00:00,18,1012,-1.7,94,17,10000,14.816,,,230,,,,1,,,,,,63,wg-a,,,,AAXX 10034 07222 12460 82308 10180 20170 30089 40120 57017 60017 76362 878// 90300=
07222,1997-10-10 06:00:00,19,1008.3,-3.6,100,19,500,35.188,,66.672,240,17.3,19,,,,,,,,61,wg-a,,,,AAXX 10064 07222 02200 82419 10190 20190 30053 40083 56036 61000 76162 877// 90600 333 10190 20173 6015 91036=
07222,1997-10-10 09:00:00,19,1010.1,1.8,94,18,6000,25.928,,,280,,,,1,,,,,,50,wg-a,,,,AAXX 10094 07222 12256 82814 10190 20180 30071 40101 52018 60017 75065 877// 90900=
07222,1997-10-10 12:00:00,20,1011.5,1.4,88,18,10000,22.224,,,280,,,,0,,,,,,3,wg-a,,,,AAXX 10124 07222 02460 82812 10200 20180 30085 40115 51014 60026 70365 875// 91200 333 60007=
07222,1997-10-10 15:00:00,21,1012.1,0.6,78,17,20000,25.928,,,280,,,,,,,,,,,wg-a,,,,AAXX 10154 07222 12470 /2814 10210 20170 30091 40121 53006 60006 85200 91500=
07222,1997-10-10 21:00:00,13,1016.7,1.9,94,12,15000,3.704,,,320,,,,,,,,,,,wg-a,,,,AAXX 10214 07222 12/65 03202 10130 20120 30136 40167 51019 60006 80000 92100=
07222,1997-10-11 00:00:00,11,1017,0.2,94,10,15000,3.704,,,310,,,,,,,,,,,wg-a,,,,AAXX 11004 07222 12/65 03102 10110 20100 30138 40170 50002 60006 80000 90000=
07222,1997-10-11 03:00:00,10,1015.8,-1.2,100,10,12000,0,,,0,,,,0,,,,,,,wg-a,,,,AAXX 11034 07222 12562 /0000 10100 20100 30126 40158 58012 60007 86500 90300=
07222,1997-10-11 06:00:00,9,1014.8,-1,100,9,12000,0,,,0,8.5,,,,,,2,,,,wg-a,,,,AAXX 11064 07222 02562 70000 10090 20090 30116 40148 56010 60006 875// 90600 333 10168 20085 60024=
07222,1997-10-11 12:00:00,17,1008.7,-3.5,100,17,4500,14.816,,,200,,,,1,,,,,,51,wg-a,,,,AAXX 11124 07222 02245 82008 10170 20170 30056 40087 58035 60016 7516/ 875// 91200 333 60017=
07222,1997-10-11 15:00:00,19,1006.1,-2.5,94,18,12000,25.928,,,260,,,,0,,,,,,50,wg-a,,,,AAXX 11154 07222 12262 82614 10190 20180 30031 40061 56025 60007 75055 877// 91500=
07222,1997-10-11 18:00:00,17,1005.5,-0.6,94,16,10000,25.928,,,260,9,18.8,,,,,,,,21,wg-a,,,,AAXX 11184 07222 02560 72614 10170 20160 30025 40055 58006 61000 72165 8653/ 91800 333 10188 20090 6000=
07222,1997-10-11 21:00:00,16,1006.2,0.6,88,14,15000,31.484,,55.56,280,,,,0,,,,,,1,wg-a,,,,AAXX 11214 07222 12565 52817 10160 20140 30031 40062 53006 60007 70186 85800 92100 333 91030=
07222,1997-10-12 00:00:00,15,1006.1,-0.1,72,10,15000,31.484,,51.856,280,,,,,,,,,,1,wg-a,,,,AAXX 12004 07222 12565 42817 10150 20100 30030 40061 58001 60016 70186 84800 90000 333 91028=
07222,1997-10-12 03:00:00,14,1005.9,-0.2,88,12,15000,42.596,,61.116,290,,,,,,,,,,,wg-a,,,,AAXX 12034 07222 12565 /2923 10140 20120 30028 40059 58002 60006 86800 90300 333 91033=
07222,1997-10-12 06:00:00,14,1007.9,2,77,10,15000,38.892,,57.412,290,14.2,17.6,,,,,2,,,,wg-a,,,,AAXX 12064 07222 02565 72921 10140 20100 30048 40079 53020 60006 87500 90600 333 10176 20142 60024 91031=
07222,1997-10-12 09:00:00,14,1012.8,4.9,82,11,15000,18.52,,,320,,,,,,,,,,25,wg-a,,,,AAXX 12094 07222 02465 73210 10140 20110 30097 40128 53049 61000 72586 878// 90900 333 ////=
07222,1997-10-12 12:00:00,14,1016.3,3.5,82,11,20000,22.224,,,330,,,,0,,,,,,80,wg-a,,,,AAXX 12124 07222 02470 73312 10140 20110 30132 40163 51035 60006 78086 878// 91200 333 60007=
07222,1997-10-12 18:00:00,11,1018.8,1.5,82,8,20000,7.408,,,310,11.3,14.4,,,,,,,,1,wg-a,,,,AAXX 12184 07222 12770 43104 10110 20080 30156 40188 53015 60006 70186 84500 91800 333 10144 20113=
07222,1997-10-12 21:00:00,11,1020.5,1.7,76,7,15000,7.408,,,310,,,,,,,,,,,wg-a,,,,AAXX 12214 07222 12765 43104 10110 20070 30173 40205 53017 60006 84500 92100=
07222,1997-10-13 00:00:00,10,1021,0.5,87,8,15000,3.704,,,330,,,,,,,,,,,wg-a,,,,AAXX 13004 07222 12765 63302 10100 20080 30178 40210 51005 60006 86500 90000=
07222,1997-10-13 03:00:00,10,1020.8,-0.2,87,8,15000,14.816,,,320,,,,,,,,,,,wg-a,,,,AAXX 13034 07222 12765 63208 10100 20080 30176 40208 55002 60006 86500 90300=
07222,1997-10-13 06:00:00,8,1021.3,0.5,93,7,15000,14.816,,,300,7.9,12.2,,,,,,,,,wg-a,,,,AAXX 13064 07222 02765 23008 10080 20070 30181 40213 53005 60006 82500 90600 333 10122 20079 60004=
07222,1997-10-13 09:00:00,12,1022.6,1.3,76,8,20000,14.816,,,320,,,,,,,,,,,wg-a,,,,AAXX 13094 07222 12670 /3208 10120 20080 30194 40226 51013 60006 85500 90900=
07222,1997-10-13 12:00:00,14,1022.1,-0.4,67,8,20000,22.224,,,300,,,,,,,,,,1,wg-a,,,,AAXX 13124 07222 02570 /3012 10140 20080 30190 40221 58004 61000 70186 86800 91200 333 6100=
07222,1997-10-13 15:00:00,15,1021.2,-0.9,51,5,25000,18.52,,,330,,,,,,,,,,,wg-a,,,,AAXX 13154 07222 12675 /3310 10150 20050 30181 40212 56009 60006 85800 91500=
07222,1997-10-13 18:00:00,12,1022.4,1.1,82,9,20000,14.816,,,340,7.7,15.8,,,,,,,,80,wg-a,,,,AAXX 13184 07222 02570 73408 10120 20090 30192 40224 53011 61000 78086 878// 91800 333 10158 20077 6000=
07222,1997-10-13 21:00:00,10,1023.6,1.2,93,9,20000,7.408,,,330,,,,,,,,,,2,wg-a,,,,AAXX 13214 07222 02770 33304 10100 20090 30204 40236 53012 61000 70286 83500 92100 333 ////=
07222,1997-10-14 00:00:00,8,1025.2,1.6,93,7,15000,7.408,,,10,,,,,,,,,,2,wg-a,,,,AAXX 14004 07222 02765 20104 10080 20070 30220 40252 51016 61000 70286 82500 90000 333 ////=
07222,1997-10-14 03:00:00,6,1026.1,0.8,93,5,15000,7.408,,,340,,,,,,,,,,,wg-a,,,,AAXX 14034 07222 12/65 03404 10060 20050 30228 40261 51008 60006 80000 90300=
07222,1997-10-14 06:00:00,5,1027.5,1.4,93,4,15000,3.704,,,330,4.9,11.9,,,,,,,,,wg-a,,,,AAXX 14064 07222 02/65 03302 10050 20040 30242 40275 51014 60006 80000 90600 333 10119 20049 60004=
07222,1997-10-14 09:00:00,10,1028.8,1.4,76,6,15000,7.408,,,340,,,,,,,,,,,wg-a,,,,AAXX 14094 07222 12/65 13404 10100 20060 30256 40288 53014 60006 80001 90900=
07222,1997-10-14 12:00:00,14,1028.5,-0.3,51,4,15000,11.112,,,340,,,,,,,,,,,wg-a,,,,AAXX 14124 07222 12665 43406 10140 20040 30253 40285 58003 60006 82501 91200=
07222,1997-10-14 15:00:00,14,1026.9,-1.6,51,4,15000,11.112,,,30,,,,,,,,,,,wg-a,,,,AAXX 14154 07222 12665 60306 10140 20040 30237 40269 57016 60006 84531 91500=
07222,1997-10-14 18:00:00,11,1026.3,-0.6,71,6,15000,7.408,,,250,4.1,14.2,,,,,,,,,wg-a,,,,AAXX 14184 07222 12765 52504 10110 20060 30231 40263 55006 60006 81531 91800 333 10142 20041=
07222,1997-10-14 21:00:00,10,1025.8,-0.5,87,8,10000,7.408,,,210,,,,,,,,,,60,wg-a,,,,AAXX 14214 07222 02660 72104 10100 20080 30226 40258 56005 61000 76062 8557/ 92100 333 ////=
07222,1997-10-15 00:00:00,9,1023.7,-2.1,93,8,10000,7.408,,,190,,,,,,,,,,2,wg-a,,,,AAXX 15004 07222 02760 61904 10090 20080 30205 40237 57021 61000 70262 86500 90000 333 6100=
07222,1997-10-15 03:00:00,11,1020.8,-2.9,87,9,10000,11.112,,,220,,,,,,,,,,,wg-a,,,,AAXX 15034 07222 12660 72206 10110 20090 30176 40208 57029 60006 8557/ 90300=
07222,1997-10-15 06:00:00,12,1018.6,-2.2,94,11,3500,14.816,,,230,9.2,11.5,,,,,,,,51,wg-a,,,,AAXX 15064 07222 02135 82308 10120 20110 30154 40186 57022 61000 75165 877// 90600 333 10115 20092 6003=
07222,1997-10-15 09:00:00,15,1016.5,-2,100,15,3000,14.816,,,250,,,,2,,,,,,51,wg-a,,,,AAXX 15094 07222 12130 82508 10150 20150 30134 40165 58020 60027 75165 877// 90900=
07222,1997-10-15 12:00:00,17,1014.8,-1.7,94,16,10000,25.928,,,290,,,,1,,,,,,1,wg-a,,,,AAXX 15124 07222 02460 72914 10170 20160 30117 40148 58017 60026 70165 875// 91200 333 60017=
07222,1997-10-15 15:00:00,18,1014,-0.8,88,16,15000,25.928,,,280,,,,,,,,,,,wg-a,,,,AAXX 15154 07222 12465 62814 10180 20160 30109 40140 56008 60006 85801 91500=
07222,1997-10-15 18:00:00,15,1014.3,0.3,94,14,15000,11.112,,,290,11.5,18.9,,,,,,,,,wg-a,,,,AAXX 15184 07222 12465 /2906 10150 20140 30112 40143 53003 60006 82501 91800 333 10189 20115=
07222,1997-10-15 21:00:00,13,1015.6,1.3,94,12,15000,11.112,,,300,,,,,,,,,,,wg-a,,,,AAXX 15214 07222 12665 43006 10130 20120 30125 40156 51013 60006 83501 92100=
07222,1997-10-16 00:00:00,12,1015.7,0.1,94,11,15000,11.112,,,310,,,,,,,,,,,wg-a,,,,AAXX 16004 07222 12665 73106 10120 20110 30126 40157 50001 60006 84531 90000=
07222,1997-10-16 03:00:00,11,1015.7,-0.1,94,10,15000,7.408,,,300,,,,0,,,,,,,wg-a,,,,AAXX 16034 07222 12665 63004 10110 20100 30125 40157 58001 60007 83531 90300=
07222,1997-10-16 06:00:00,9,1016,0.3,100,9,12000,7.408,,,180,9,15,,,,,3,,,11,wg-a,,,,AAXX 16064 07222 02662 71804 10090 20090 30128 40160 51003 60006 71111 82531 90600 333 10150 20090 60034=
07222,1997-10-16 09:00:00,13,1016.7,0.8,100,13,9000,7.408,,,170,,,,,,,,,,,wg-a,,,,AAXX 16094 07222 12459 71704 10130 20130 30136 40167 51008 60006 85531 90900=
07222,1997-10-16 12:00:00,15,1016.4,-0.3,100,15,3000,7.408,,,210,,,,,,,,,,51,wg-a,,,,AAXX 16124 07222 02230 82104 10150 20150 30133 40164 58003 61000 75152 877// 91200 333 6100=
07222,1997-10-16 15:00:00,16,1015.4,-1,100,16,6000,11.112,,,200,,,,,,,,,,,wg-a,,,,AAXX 16154 07222 32/56 /2006 10160 20160 30123 40154 56010 91500=
07222,1997-10-16 18:00:00,15,1015.4,-0,100,15,6000,11.112,,,190,8.6,15.8,,1,,,,,,1,wg-a,,,,AAXX 16184 07222 02256 81906 10150 20150 30123 40154 55000 60006 70152 877// 91800 333 10158 20086 60017=
07222,1997-10-17 00:00:00,13,1013.5,-1.4,94,12,11000,14.816,,,140,,,,,,,,,,,wg-a,,,,AAXX 17004 07222 12/61 /1408 10130 20120 30104 40135 56014 60006 90000=
07222,1997-10-17 03:00:00,12,1012.4,-1.1,94,11,10000,11.112,,,110,,,,0,,,,,,,wg-a,,,,AAXX 17034 07222 12560 51106 10120 20110 30093 40124 58011 60007 82501 90300=
07222,1997-10-17 06:00:00,11,1011.6,-0.8,94,10,10000,14.816,,,140,10.5,14.9,,,,,1,,,,wg-a,,,,AAXX 17064 07222 02/60 61408 10110 20100 30085 40116 57008 60006 80001 90600 333 10149 20105 60014=
07222,1997-10-17 09:00:00,14,1011.2,-0.4,88,12,12000,22.224,,,140,,,,,,,,,,,wg-a,,,,AAXX 17094 07222 12/62 21412 10140 20120 30081 40112 58004 60006 80001 90900=
07222,1997-10-17 12:00:00,20,1010.1,-1,64,13,20000,22.224,,,170,,,,,,,,,,,wg-a,,,,AAXX 17124 07222 12/70 11712 10200 20130 30071 40101 58010 60006 80001 91200=
07222,1997-10-17 15:00:00,22,1009.3,-0.8,60,14,500,22.224,,,150,,,,,,,,,,,wg-a,,,,AAXX 17154 07222 12/00 11512 10220 20140 30063 40093 56008 60006 80001 91500=
07222,1997-10-17 18:00:00,18,1010.2,0.8,73,13,20000,14.816,,,120,10.3,22,,,,,,,,,wg-a,,,,AAXX 17184 07222 12/70 11208 10180 20130 30071 40102 53008 60006 80001 91800 333 10220 20103=
07222,1997-10-17 21:00:00,15,1011.3,1.1,82,12,20000,14.816,,,130,,,,,,,,,,,wg-a,,,,AAXX 17214 07222 12/70 01308 10150 20120 30082 40113 51011 60006 80000 92100=
07222,1997-10-18 00:00:00,15,1011.9,0.6,82,12,20000,22.224,,,140,,,,,,,,,,,wg-a,,,,AAXX 18004 07222 12/70 21412 10150 20120 30088 40119 53006 60006 81041 90000=
07222,1997-10-18 03:00:00,14,1012.2,0.3,88,12,15000,14.816,,,130,,,,,,,,,,,wg-a,,,,AAXX 18034 07222 12/65 51308 10140 20120 30091 40122 52003 60006 81041 90300=
07222,1997-10-18 06:00:00,14,1013.6,1.4,88,12,15000,11.112,,,120,13.3,17.5,,,,,,,,,wg-a,,,,AAXX 18064 07222 02/65 21206 10140 20120 30105 40136 52014 60006 80001 90600 333 10175 20133 60004=
07222,1997-10-18 09:00:00,18,1014.7,1.1,77,14,20000,22.224,,,150,,,,,,,,,,,wg-a,,,,AAXX 18094 07222 12/70 21512 10180 20140 30116 40147 51011 60006 80001 90900=
07222,1997-10-18 11:00:00,21,1014,-0.2,69,15,20000,14.816,,,100,13.7,24.9,,,,,,,,,wg-a,,,,AAXX 18114 07222 12/70 31008 10210 20150 30110 40140 56002 60006 81032 91100 333 10249 20137=
07222,1997-10-18 12:00:00,23,1014.7,0.1,61,15,10000,22.224,,,150,,,,,,,,,,,wg-a,,,,AAXX 18124 07222 12/60 /1512 10230 20150 30117 40147 50001 60006 91200=
07222,1997-10-18 15:00:00,25,1014.2,-0.5,54,15,500,22.224,,,140,,,,,,,,,,,wg-a,,,,AAXX 18154 07222 12/00 01412 10250 20150 30112 40142 57005 60006 80000 91500=
07222,1997-10-18 18:00:00,21,1014,-0.2,69,15,20000,14.816,,,100,13.7,24.9,,,,,,,,,wg-a,,,,AAXX 18184 07222 12/70 31008 10210 20150 30110 40140 56002 60006 81032 91800 333 10249 20137=
07222,1997-10-18 21:00:00,19,1013.7,-0.4,78,15,18000,14.816,,,110,,,,,,,,,,,wg-a,,,,AAXX 18214 07222 12/68 31108 10190 20150 30106 40137 56004 60006 81032 92100=
07222,1997-10-19 00:00:00,19,1013.5,-0.2,73,14,15000,22.224,,,140,,,,,,,,,,,wg-a,,,,AAXX 19004 07222 12765 71412 10190 20140 30104 40135 58002 60006 875// 90000=
07222,1997-10-19 03:00:00,17,1013,-0.5,77,13,15000,22.224,,,140,,,,,,,,,,,wg-a,,,,AAXX 19034 07222 12765 71412 10170 20130 30099 40130 58005 60006 875// 90300=
07222,1997-10-19 06:00:00,15,1012.6,-0.4,88,13,15000,18.52,,,140,15.1,20.6,,,,,,,,,wg-a,,,,AAXX 19064 07222 02/65 61410 10150 20130 30095 40126 55004 60006 81031 90600 333 10206 20151 60004=
07222,1997-10-19 09:00:00,18,1013.2,0.6,73,13,15000,22.224,,,140,,,,,,,,,,,wg-a,,,,AAXX 19094 07222 12/65 71412 10180 20130 30101 40132 51006 60006 83032 90900=
07222,1997-10-19 12:00:00,20,1013.3,0.2,68,14,15000,11.112,,,130,,,,,,,,,,,wg-a,,,,AAXX 19124 07222 12665 71306 10200 20140 30103 40133 50002 60006 81272 91200=
07222,1997-10-19 15:00:00,19,1013.1,-0.2,78,15,11000,14.816,,,140,,,,,,,,,,,wg-a,,,,AAXX 19154 07222 12/61 /1408 10190 20150 30101 40131 55002 60006 91500=
07222,1997-10-19 18:00:00,18,1012.5,-0.7,77,14,15000,14.816,,,100,15.1,20,,,,,,,,,wg-a,,,,AAXX 19184 07222 12665 71008 10180 20140 30094 40125 55007 60006 85502 91800 333 10200 20151=
07222,1997-10-20 00:00:00,18,1011,-1.3,88,16,15000,18.52,,,140,,,,,,,,,,,wg-a,,,,AAXX 20004 07222 12765 81410 10180 20160 30079 40110 57013 60006 8557/ 90000=
07222,1997-10-20 03:00:00,17,1010.3,-0.7,94,16,10000,22.224,,,150,,,,4,,,,,,61,wg-a,,,,AAXX 20034 07222 12160 81512 10170 20160 30072 40103 58007 60047 76162 8557/ 90300=
07222,1997-10-20 06:00:00,16,1009.1,-1.2,100,16,500,14.816,,,150,16.2,18,,,,,,,,60,wg-a,,,,AAXX 20064 07222 02200 81508 10160 20160 30060 40091 58012 61000 76062 8457/ 90600 333 10180 20162 6011=
07222,1997-10-20 09:00:00,17,1008.8,-0.3,94,16,8000,14.816,,,100,,,,1,,,,,,1,wg-a,,,,AAXX 20094 07222 12758 71008 10170 20160 30057 40088 58003 60017 70162 8451/ 90900=
07222,1997-10-20 12:00:00,19,1007.4,-1.3,88,17,10000,18.52,,,110,,,,,,,,,,1,wg-a,,,,AAXX 20124 07222 12760 81110 10190 20170 30044 40074 58013 60016 70162 8457/ 91200=
07222,1997-10-20 15:00:00,20,1006.5,-0.9,83,17,12000,14.816,,,100,,,,,,,,,,,wg-a,,,,AAXX 20154 07222 12/62 71008 10200 20170 30035 40065 55009 60006 8207/ 91500=
07222,1997-10-20 18:00:00,19,1006.5,-0,88,17,12000,18.52,,,90,16,20.5,,,,,,,,,wg-a,,,,AAXX 20184 07222 12/62 60910 10190 20170 30035 40065 55000 60006 84041 91800 333 10205 20160=
07222,1997-10-20 21:00:00,18,1006.7,0.2,88,16,10000,18.52,,,80,,,,,,,,,,,wg-a,,,,AAXX 20214 07222 12/60 70810 10180 20160 30037 40067 51002 60006 8707/ 92100=
07222,1997-10-21 00:00:00,17,1007.1,0.3,88,15,10000,18.52,,,80,,,,,,,,,,,wg-a,,,,AAXX 21004 07222 12560 80810 10170 20150 30040 40071 51003 60006 8357/ 90000=
07222,1997-10-21 03:00:00,16,1007.2,0.1,94,15,10000,18.52,,,80,,,,,,,,,,,wg-a,,,,AAXX 21034 07222 12460 80810 10160 20150 30041 40072 50001 60006 8457/ 90300=
07222,1997-10-21 06:00:00,15,1007.3,0.1,94,14,500,22.224,,,80,15,19.4,,,,,,,,60,wg-a,,,,AAXX 21064 07222 02300 80812 10150 20140 30042 40073 52001 61000 76062 877// 90600 333 10194 20150 6001=
07222,1997-10-21 09:00:00,15,1009.2,1.9,94,14,500,22.224,,,90,,,,,,,,,,2,wg-a,,,,AAXX 21094 07222 02300 80912 10150 20140 30061 40092 51019 61000 70262 877// 90900 333 ////=
07222,1997-10-21 12:00:00,16,1009,-0.2,88,14,500,29.632,,,80,,,,,,,,,,3,wg-a,,,,AAXX 21124 07222 02300 80816 10160 20140 30059 40090 58002 61000 70362 877// 91200 333 ////=
07222,1997-10-21 15:00:00,15,1010,1,94,14,500,18.52,,,80,,,,,,,,,,,wg-a,,,,AAXX 21154 07222 12300 80810 10150 20140 30069 40100 53010 60006 877// 91500=
07222,1997-10-21 18:00:00,15,1011.2,1.2,88,13,6000,14.816,,,90,14.6,16.1,,,,,,,,,wg-a,,,,AAXX 21184 07222 12456 80908 10150 20130 30081 40112 53012 60006 877// 91800 333 10161 20146=
07222,1997-10-21 21:00:00,14,1011.6,0.4,94,13,7000,11.112,,,110,,,,,,,,,,,wg-a,,,,AAXX 21214 07222 12457 81106 10140 20130 30085 40116 53004 60006 885// 92100=
07222,1997-10-22 00:00:00,13,1010.9,-0.7,94,12,500,14.816,,,80,,,,2,,,,,,10,wg-a,,,,AAXX 22004 07222 02200 70808 10130 20120 30078 40109 58007 60026 71065 875// 90000 333 60027=
07222,1997-10-22 03:00:00,12,1009.9,-1,100,12,500,7.408,,,70,,,,,,,,,,,wg-a,,,,AAXX 22034 07222 12200 70704 10120 20120 30068 40099 57010 60006 875// 90300=
07222,1997-10-22 06:00:00,12,1009.7,-0.2,100,12,500,11.112,,,70,12,14.6,,,,,2,,,,wg-a,,,,AAXX 22064 07222 02500 70706 10120 20120 30066 40097 58002 60006 875// 90600 333 10146 20120 60024=
07222,1997-10-22 09:00:00,13,1010.7,1,94,12,4000,3.704,,,80,,,,,,,,,,10,wg-a,,,,AAXX 22094 07222 12440 80802 10130 20120 30076 40107 51010 60006 71022 875// 90900=
07222,1997-10-22 12:00:00,14,1010.1,-0.6,100,14,3500,7.408,,,100,,,,0,,,,,,10,wg-a,,,,AAXX 22124 07222 02335 81004 10140 20140 30070 40101 58006 60006 71062 877// 91200 333 60007=
07222,1997-10-22 15:00:00,15,1010.5,0.4,100,15,3000,3.704,,,300,,,,1,,,,,,10,wg-a,,,,AAXX 22154 07222 12230 83002 10150 20150 30074 40105 53004 60017 71066 877// 91500=
07222,1997-10-22 18:00:00,15,1010.7,0.2,94,14,3000,3.704,,,40,11.9,15.3,,,,,,,,10,wg-a,,,,AAXX 22184 07222 02230 80402 10150 20140 30076 40107 53002 61000 71062 877// 91800 333 10153 20119 6003=
07222,1997-10-22 21:00:00,14,1011.1,0.4,100,14,3500,11.112,,,90,,,,1,,,,,,10,wg-a,,,,AAXX 22214 07222 12735 80906 10140 20140 30080 40111 53004 60017 71062 875// 92100=
07222,1997-10-23 00:00:00,14,1011.2,0.1,94,13,3000,11.112,,,70,,,,3,,,,,,10,wg-a,,,,AAXX 23004 07222 02230 80706 10140 20130 30081 40112 53001 60036 71062 875// 90000 333 60037=
07222,1997-10-23 03:00:00,13,1010.8,-0.4,100,13,3000,7.408,,,50,,,,1,,,,,,10,wg-a,,,,AAXX 23034 07222 12730 80504 10130 20130 30077 40108 58004 60017 71062 875// 90300=
07222,1997-10-23 06:00:00,13,1011.7,0.9,100,13,3000,3.704,,,20,12.6,14.6,,,,,,,,10,wg-a,,,,AAXX 23064 07222 02230 80202 10130 20130 30086 40117 53009 61000 71062 875// 90600 333 10146 20126 6008=
07222,1997-10-23 09:00:00,13,1012.5,0.8,100,13,3000,7.408,,,50,,,,0,,,,,,10,wg-a,,,,AAXX 23094 07222 12230 70504 10130 20130 30094 40125 51008 60007 71062 875// 90900=
07222,1997-10-23 12:00:00,14,1012.9,0.4,94,13,4000,7.408,,,50,,,,,,,,,,10,wg-a,,,,AAXX 23124 07222 12440 70504 10140 20130 30098 40129 50004 60006 71062 875// 91200=
07222,1997-10-23 18:00:00,12,1014.3,1.5,88,10,6000,7.408,,,70,12.4,15.6,,,,,,,,,wg-a,,,,AAXX 23184 07222 12/56 /0704 10120 20100 30112 40143 53015 60006 80001 91800 333 10156 20124=
07222,1997-10-24 00:00:00,12,1017,1.3,76,8,9000,18.52,,,50,,,,,,,,,,,wg-a,,,,AAXX 24004 07222 12559 70510 10120 20080 30139 40170 52013 60006 875// 90000=
07222,1997-10-24 03:00:00,8,1018.5,1.4,81,5,10000,14.816,,,50,,,,,,,,,,,wg-a,,,,AAXX 24034 07222 12560 30508 10080 20050 30153 40185 51014 60006 83500 90300=
07222,1997-10-24 06:00:00,6,1020.2,1.7,87,4,10000,18.52,,,60,6.3,12.5,,,,,,,,,wg-a,,,,AAXX 24064 07222 02/60 00610 10060 20040 30170 40202 53017 60006 80000 90600 333 10125 20063 60004=
07222,1997-10-24 09:00:00,9,1022.3,2.1,76,5,15000,18.52,,,80,,,,,,,,,,,wg-a,,,,AAXX 24094 07222 12/65 00810 10090 20050 30191 40223 51021 60006 80000 90900=
07222,1997-10-24 12:00:00,13,1023,0.7,54,4,20000,29.632,,,70,,,,,,,,,,,wg-a,,,,AAXX 24124 07222 12/70 10716 10130 20040 30198 40230 51007 60006 80001 91200=
07222,1997-10-24 15:00:00,13,1022.9,-0.1,54,4,20000,22.224,,,60,,,,,,,,,,,wg-a,,,,AAXX 24154 07222 12/70 00612 10130 20040 30197 40229 57001 60006 80000 91500=
07222,1997-10-24 18:00:00,10,1024.3,1.4,71,5,20000,11.112,,,60,5.6,13.4,,,,,,,,,wg-a,,,,AAXX 24184 07222 12/70 00606 10100 20050 30211 40243 53014 60006 80000 91800 333 10134 20056=
07222,1997-10-24 21:00:00,9,1025.1,0.8,71,4,20000,18.52,,,70,,,,,,,,,,,wg-a,,,,AAXX 24214 07222 12/70 00710 10090 20040 30219 40251 53008 60006 80000 92100=
07222,1997-10-25 00:00:00,7,1025.5,0.4,81,4,20000,18.52,,,60,,,,,,,,,,,wg-a,,,,AAXX 25004 07222 12/70 00610 10070 20040 30223 40255 51004 60006 80000 90000=
07222,1997-10-25 03:00:00,6,1025.8,0.2,81,3,20000,18.52,,,60,,,,,,,,,,,wg-a,,,,AAXX 25034 07222 12/70 00610 10060 20030 30225 40258 50002 60006 80000 90300=
07222,1997-10-25 06:00:00,4,1025.5,-0.3,87,2,20000,18.52,,,60,4.3,10.3,,,,,,,,,wg-a,,,,AAXX 25064 07222 02/70 00610 10040 20020 30222 40255 56003 60006 80000 90600 333 10103 20043 60004=
07222,1997-10-25 09:00:00,8,1026.5,1.1,61,1,25000,22.224,,,70,,,,,,,,,,,wg-a,,,,AAXX 25094 07222 12/75 00712 10080 20010 30233 40265 51011 60006 80000 90900=
07222,1997-10-25 12:00:00,12,1025.7,-0.8,50,2,500,25.928,,,80,,,,,,,,,,,wg-a,,,,AAXX 25124 07222 12/00 00814 10120 20020 30225 40257 58008 60006 80000 91200=
07222,1997-10-25 15:00:00,13,1024.4,-1.3,47,2,10000,22.224,,,60,,,,,,,,,,,wg-a,,,,AAXX 25154 07222 12/60 /0612 10130 20020 30212 40244 56013 60006 91500=
07222,1997-10-25 18:00:00,10,1024.4,-0,57,2,10000,18.52,,,60,4,13.4,,,,,,,,,wg-a,,,,AAXX 25184 07222 12/60 /0610 10100 20020 30212 40244 55000 60006 91800 333 10134 20040=
07222,1997-10-25 21:00:00,8,1024.4,-0,66,2,20000,14.816,,,70,,,,,,,,,,,wg-a,,,,AAXX 25214 07222 12/70 00708 10080 20020 30212 40244 54000 60006 80000 92100=
07222,1997-10-26 00:00:00,7,1023.5,-0.9,76,3,20000,18.52,,,80,,,,,,,,,,,wg-a,,,,AAXX 26004 07222 12/70 00810 10070 20030 30203 40235 58009 60006 80000 90000=
07222,1997-10-26 03:00:00,5,1022.2,-1.3,87,3,20000,18.52,,,70,,,,,,,,,,,wg-a,,,,AAXX 26034 07222 12/70 00710 10050 20030 30190 40222 58013 60006 80000 90300=
07222,1997-10-26 06:00:00,4,1021.9,-0.4,87,2,15000,11.112,,,70,4.1,10.3,,,,,,,,,wg-a,,,,AAXX 26064 07222 02/65 00706 10040 20020 30186 40219 56004 60006 80000 90600 333 10103 20041 60004=
07222,1997-10-26 09:00:00,9,1021.9,0.1,66,3,20000,18.52,,,80,,,,,,,,,,,wg-a,,,,AAXX 26094 07222 12/70 00810 10090 20030 30187 40219 50001 60006 80000 90900=
07222,1997-10-26 12:00:00,14,1021.1,-0.7,51,4,500,18.52,,,80,,,,,,,,,,,wg-a,,,,AAXX 26124 07222 12/00 00810 10140 20040 30180 40211 58007 60006 80000 91200=
07222,1997-10-26 15:00:00,16,1019.5,-1.6,45,4,500,22.224,,,80,,,,,,,,,,,wg-a,,,,AAXX 26154 07222 12/00 00812 10160 20040 30164 40195 56016 60006 80000 91500=
07222,1997-10-26 18:00:00,12,1019.7,0.1,62,5,500,11.112,,,60,4,16.7,,,,,,,,,wg-a,,,,AAXX 26184 07222 12/00 00606 10120 20050 30165 40197 53001 60006 80000 91800 333 10167 20040=
07222,1997-10-26 21:00:00,9,1019.8,0.1,76,5,25000,14.816,,,70,,,,,,,,,,,wg-a,,,,AAXX 26214 07222 12/75 00708 10090 20050 30166 40198 50001 60006 80000 92100=
07222,1997-10-27 00:00:00,7,1019.1,-0.7,81,4,15000,11.112,,,60,,,,,,,,,,,wg-a,,,,AAXX 27004 07222 12/65 00606 10070 20040 30159 40191 58007 60006 80000 90000=
07222,1997-10-27 03:00:00,6,1018.7,-0.4,87,4,15000,14.816,,,60,,,,,,,,,,,wg-a,,,,AAXX 27034 07222 12/65 00608 10060 20040 30155 40187 58004 60006 80000 90300=
07222,1997-10-27 06:00:00,5,1018.6,-0.1,93,4,10000,14.816,,,60,5.2,12.2,,,,,,,,,wg-a,,,,AAXX 27064 07222 02/60 /0608 10050 20040 30154 40186 56001 60006 90600 333 10122 20052 60004=
07222,1997-10-27 09:00:00,9,1019.1,0.5,76,5,20000,22.224,,,70,,,,,,,,,,,wg-a,,,,AAXX 27094 07222 12/70 10712 10090 20050 30159 40191 51005 60006 81031 90900=
07222,1997-10-27 12:00:00,13,1018.5,-0.5,62,6,25000,29.632,,,70,,,,,,,,,,,wg-a,,,,AAXX 27124 07222 12/75 20716 10130 20060 30154 40185 58005 60006 81031 91200=
07222,1997-10-27 18:00:00,12,1018.5,0.9,62,5,25000,22.224,,,60,5.3,15,,,,,,,,,wg-a,,,,AAXX 27184 07222 12/75 30612 10120 20050 30153 40185 53009 60006 80001 91800 333 10150 20053=
07222,1997-10-27 21:00:00,10,1019.4,0.9,71,5,20000,29.632,,,80,,,,,,,,,,,wg-a,,,,AAXX 27214 07222 12/70 00816 10100 20050 30162 40194 52009 60006 80000 92100=
07222,1997-10-28 00:00:00,8,1020,0.6,76,4,20000,25.928,,,70,,,,,,,,,,,wg-a,,,,AAXX 28004 07222 12/70 00714 10080 20040 30168 40200 51006 60006 80000 90000=
07222,1997-10-28 03:00:00,6,1020,0,75,2,20000,25.928,,,70,,,,,,,,,,,wg-a,,,,AAXX 28034 07222 12/70 00714 10060 20020 30168 40200 50000 60006 80000 90300=
07222,1997-10-28 06:00:00,3,1020.9,0.8,75,-1,15000,29.632,,,60,3.1,12.1,,,,,,,,,wg-a,,,,AAXX 28064 07222 02/65 50616 10030 21010 30176 40209 52008 60006 80001 90600 333 10121 20031 60004=
07222,1997-10-28 09:00:00,3,1023.3,2.4,65,-3,25000,25.928,,,60,,,,,,,,,,,wg-a,,,,AAXX 28094 07222 12/75 30614 10030 21030 30200 40233 51024 60006 80001 90900=
07222,1997-10-28 12:00:00,7,1024.1,0.9,53,-2,25000,29.632,,,60,,,,,,,,,,,wg-a,,,,AAXX 28124 07222 12/75 10616 10070 21020 30209 40241 53009 60006 80001 91200=
07222,1997-10-28 15:00:00,8,1024.7,0.6,49,-2,25000,25.928,,,60,,,,,,,,,,,wg-a,,,,AAXX 28154 07222 12/75 00614 10080 21020 30215 40247 53006 60006 80000 91500=
07222,1997-10-28 18:00:00,6,1027,2.3,45,-5,25000,18.52,,,60,2,8.5,,,,,,,,,wg-a,,,,AAXX 28184 07222 12/75 00610 10060 21050 30238 40270 53023 60006 80000 91800 333 10085 20020=
07222,1997-10-28 21:00:00,4,1029.1,2,48,-6,20000,14.816,,,60,,,,,,,,,,,wg-a,,,,AAXX 28214 07222 12/70 00608 10040 21060 30258 40291 51020 60006 80000 92100=
07222,1997-10-29 00:00:00,3,1029.9,0.8,48,-7,20000,18.52,,,60,,,,,,,,,,,wg-a,,,,AAXX 29004 07222 12/70 00610 10030 21070 30266 40299 50008 60006 80000 90000=
07222,1997-10-29 03:00:00,1,1030,0.1,55,-7,20000,18.52,,,60,,,,,,,,,,,wg-a,,,,AAXX 29034 07222 12/70 00610 10010 21070 30267 40300 50001 60006 80000 90300=
07222,1997-10-29 06:00:00,0,1030.7,0.7,59,-7,15000,14.816,,,70,-0.1,6.3,,,,,,,,,wg-a,,,,AAXX 29064 07222 02/65 00708 10000 21070 30274 40307 51007 60006 80000 90600 333 10063 21001 60004=
07222,1997-10-29 09:00:00,2,1031.9,1.2,55,-6,500,18.52,,,60,,,,,,,,,,,wg-a,,,,AAXX 29094 07222 12/00 00610 10020 21060 30286 40319 51012 60006 80000 90900=
07222,1997-10-29 12:00:00,7,1031.2,-0.7,42,-5,500,18.52,,,60,,,,,,,,,,,wg-a,,,,AAXX 29124 07222 12/00 00610 10070 21050 30279 40312 58007 60006 80000 91200=
07222,1997-10-29 15:00:00,9,1030.1,-1,40,-4,500,18.52,,,60,,,,,,,,,,,wg-a,,,,AAXX 29154 07222 12/00 00610 10090 21040 30269 40301 57010 60006 80000 91500=
07222,1997-10-29 18:00:00,6,1030.8,0.6,52,-3,500,7.408,,,40,-0.4,9.4,,,,,,,,,wg-a,,,,AAXX 29184 07222 12/00 10404 10060 21030 30275 40308 52006 60006 80001 91800 333 10094 21004=
07222,1997-10-29 21:00:00,3,1031.8,1,60,-4,15000,7.408,,,20,,,,,,,,,,,wg-a,,,,AAXX 29214 07222 12/65 00204 10030 21040 30285 40318 53010 60006 80000 92100=
07222,1997-10-30 00:00:00,1,1030.9,-0.9,69,-4,15000,7.408,,,60,,,,,,,,,,,wg-a,,,,AAXX 30004 07222 12/65 00604 10010 21040 30276 40309 56009 60006 80000 90000=
07222,1997-10-30 03:00:00,0,1030.2,-0.7,69,-5,15000,7.408,,,30,,,,,,,,,,,wg-a,,,,AAXX 30034 07222 12/65 00304 10000 21050 30269 40302 58007 60006 80000 90300=
07222,1997-10-30 06:00:00,-2,1030.6,,80,-5,15000,7.408,,,20,,,,,,,,,,,wg-a,,,,AAXX 30064 07222 12/65 00204 11020 21050 30272 40306 60006 80000 90600=
07222,1997-10-30 09:00:00,3,1030.6,0.1,56,-5,12000,18.52,,,60,,,,,,,,,,,wg-a,,,,AAXX 30094 07222 12/62 20610 10030 21050 30273 40306 53001 60006 80001 90900=
07222,1997-10-30 12:00:00,9,1029.3,-1.2,43,-3,15000,11.112,,,20,,,,,,,,,,,wg-a,,,,AAXX 30124 07222 12/65 40206 10090 21030 30261 40293 58012 60006 80001 91200=
07222,1997-10-30 18:00:00,6,1028.1,0.3,56,-2,12000,7.408,,,360,-2.7,11.5,,,,,,,,,wg-a,,,,AAXX 30184 07222 12/62 73604 10060 21020 30248 40281 53003 60006 81034 91800 333 10115 21027=
07222,1997-10-30 21:00:00,8,1028.8,0.8,46,-3,15000,11.112,,,60,,,,,,,,,,,wg-a,,,,AAXX 30214 07222 12/65 60606 10080 21030 30256 40288 53008 60006 83034 92100=
07222,1997-10-31 00:00:00,5,1028.6,-0.3,56,-3,15000,11.112,,,50,,,,,,,,,,,wg-a,,,,AAXX 31004 07222 12/65 40506 10050 21030 30253 40286 58003 60006 82031 90000=
07222,1997-10-31 03:00:00,2,1028,-0.6,75,-2,15000,7.408,,,20,,,,,,,,,,,wg-a,,,,AAXX 31034 07222 12/65 30204 10020 21020 30247 40280 58006 60006 81031 90300=
07222,1997-10-31 06:00:00,0,1028.3,0.3,86,-2,15000,3.704,,,10,-0.1,8.1,,,,,,,,,wg-a,,,,AAXX 31064 07222 02/65 00102 10000 21020 30250 40283 50003 60006 80000 90600 333 10081 21001 60004=
07222,1997-10-31 09:00:00,5,1029.2,0.9,70,0,25000,18.52,,,50,,,,,,,,,,,wg-a,,,,AAXX 31094 07222 12/75 10510 10050 20000 30259 40292 51009 60006 81030 90900=
07222,1997-10-31 12:00:00,11,1027.5,-1.6,54,2,25000,14.816,,,40,,,,,,,,,,,wg-a,,,,AAXX 31124 07222 12/75 20408 10110 20020 30243 40275 58016 60006 80001 91200=
07222,1997-10-31 15:00:00,13,1026.4,-1.1,47,2,500,14.816,,,30,,,,,,,,,,,wg-a,,,,AAXX 31154 07222 12/00 00308 10130 20020 30232 40264 56011 60006 80000 91500=
07222,1997-10-31 18:00:00,9,1026.4,-0,61,2,20000,11.112,,,30,-0.1,13.1,,,,,,,,,wg-a,,,,AAXX 31184 07222 12/70 00306 10090 20020 30232 40264 55000 60006 80000 91800 333 10131 21001=
07222,1997-10-31 21:00:00,6,1026.5,0.1,75,2,20000,7.408,,,30,,,,,,,,,,,wg-a,,,,AAXX 31214 07222 12/70 00304 10060 20020 30233 40265 52001 60006 80000 92100=
07222,1997-11-01 00:00:00,4,1026.2,-0.4,81,1,20000,7.408,,,40,,,,,,,,,,,wg-a,,,,AAXX 01004 07222 12/70 00404 10040 20010 30229 40262 56004 60006 80000 90000=
07222,1997-11-01 03:00:00,3,1025.1,-1.1,93,2,20000,7.408,,,30,,,,,,,,,,,wg-a,,,,AAXX 01034 07222 12/70 00304 10030 20020 30218 40251 58011 60006 80000 90300=
07222,1997-11-01 06:00:00,1,1024.3,-0.8,100,1,15000,7.408,,,30,1,9.8,,,,,,,,,wg-a,,,,AAXX 01064 07222 02/65 00304 10010 20010 30210 40243 56008 60006 80000 90600 333 10098 20010 60004=
07222,1997-11-01 09:00:00,5,1024.8,0.5,87,3,8000,14.816,,,60,,,,,,,,,,,wg-a,,,,AAXX 01094 07222 12/58 00608 10050 20030 30215 40248 53005 60006 80000 90900=
07222,1997-11-01 12:00:00,9,1023.7,-1,57,1,10000,11.112,,,40,,,,,,,,,,,wg-a,,,,AAXX 01124 07222 12/60 10406 10090 20010 30205 40237 58010 60006 81030 91200=
07222,1997-11-01 15:00:00,9,1022,-1.7,57,1,10000,14.816,,,60,,,,,,,,,,,wg-a,,,,AAXX 01154 07222 12/60 00608 10090 20010 30188 40220 56017 60006 80000 91500=
07222,1997-11-01 18:00:00,5,1021.8,-0.2,75,1,8000,0,,,0,1.4,9.7,,,,,,,,,wg-a,,,,AAXX 01184 07222 12/58 00000 10050 20010 30186 40218 56002 60006 80000 91800 333 10097 20014=
07222,1997-11-01 21:00:00,2,1021.3,-0.6,87,0,500,0,,,0,,,,,,,,,,,wg-a,,,,AAXX 01214 07222 12/00 00000 10020 20000 30180 40213 56006 60006 80000 92100=
07222,1997-11-02 00:00:00,1,1021.1,-0.2,93,0,500,3.704,,,40,,,,,,,,,,,wg-a,,,,AAXX 02004 07222 12/00 00402 10010 20000 30178 40211 58002 60006 80000 90000=
07222,1997-11-02 03:00:00,-1,1019.6,-1.5,93,-2,500,7.408,,,30,,,,,,,,,,,wg-a,,,,AAXX 02034 07222 12/00 00304 11010 21020 30163 40196 56015 60006 80000 90300=
07222,1997-11-02 06:00:00,0,1019.1,-0.5,93,-1,500,7.408,,,40,-1.4,4.9,,,,,,,,,wg-a,,,,AAXX 02064 07222 02/00 00404 10000 21010 30158 40191 58005 60006 80000 90600 333 10049 21014 60004=
07222,1997-11-02 12:00:00,9,1017.3,-1.4,61,2,8000,11.112,,,60,,,,,,,,,,,wg-a,,,,AAXX 02124 07222 12/58 00606 10090 20020 30141 40173 58014 60006 80000 91200=
07222,1997-11-02 15:00:00,12,1014.7,-2.5,47,1,10000,18.52,,,70,,,,,,,,,,,wg-a,,,,AAXX 02154 07222 12/60 00710 10120 20010 30116 40147 56025 60006 80000 91500=
07222,1997-11-02 18:00:00,8,1014.7,-0.1,66,2,500,11.112,,,60,-0.1,12.3,,,,,,,,,wg-a,,,,AAXX 02184 07222 12/00 /0606 10080 20020 30115 40147 55001 60006 80001 91800 333 10123 21001=
07222,1997-11-02 21:00:00,6,1013.9,-0.8,70,1,6000,11.112,,,60,,,,,,,,,,,wg-a,,,,AAXX 02214 07222 12/56 20606 10060 20010 30107 40139 58008 60006 80001 92100=
07222,1997-11-03 00:00:00,4,1013,-0.9,81,1,6000,14.816,,,70,,,,,,,,,,,wg-a,,,,AAXX 03004 07222 12/56 20708 10040 20010 30098 40130 58009 60006 80001 90000=
07222,1997-11-03 06:00:00,2,1009.5,-1.2,87,0,3500,14.816,,,60,1.7,8.3,,,,,,,,10,wg-a,,,,AAXX 03064 07222 02/35 00608 10020 20000 30063 40095 58012 60006 71000 80000 90600 333 10083 20017 60004=
07222,1997-11-03 09:00:00,5,1008.6,-0.9,81,2,500,14.816,,,60,,,,,,,,,,,wg-a,,,,AAXX 03094 07222 12/00 00608 10050 20020 30054 40086 56009 60006 80000 90900=
07222,1997-11-03 12:00:00,13,1005.7,-2.8,67,7,8000,25.928,,,80,,,,,,,,,,,wg-a,,,,AAXX 03124 07222 12/58 /0814 10130 20070 30026 40057 58028 60006 80001 91200=
07222,1997-11-03 15:00:00,15,1004,-1.7,63,8,8000,22.224,,,90,,,,,,,,,,,wg-a,,,,AAXX 03154 07222 12/58 70912 10150 20080 30009 40040 57017 60006 80004 91500=
07222,1997-11-03 18:00:00,13,1003.5,-0.5,67,7,8000,18.52,,,80,1.5,15.3,,,,,,,,,wg-a,,,,AAXX 03184 07222 12/58 /0810 10130 20070 30004 40035 57005 60006 91800 333 10153 20015=
07222,1997-11-03 21:00:00,13,1002.3,-1.2,72,8,8000,22.224,,,100,,,,,,,,,,,wg-a,,,,AAXX 03214 07222 12/58 71012 10130 20080 39992 40023 56012 60006 85032 92100=
07222,1997-11-04 00:00:00,13,1001.6,-0.7,82,10,10000,7.408,,,110,,,,,,,,,,,wg-a,,,,AAXX 04004 07222 12/60 81104 10130 20100 39985 40016 58007 60006 8707/ 90000=
07222,1997-11-04 03:00:00,13,1000.7,-0.9,94,12,10000,14.816,,,110,,,,1,,,,,,61,wg-a,,,,AAXX 04034 07222 12660 81108 10130 20120 39976 40007 58009 60017 76162 875// 90300=
07222,1997-11-04 06:00:00,13,1000.2,-0.5,100,13,10000,14.816,,,130,12.5,13.7,,,,,,,,21,wg-a,,,,AAXX 04064 07222 02260 81308 10130 20130 39971 40002 56005 61000 72162 875// 90600 333 10137 20125 6004=
07222,1997-11-04 12:00:00,18,1002.3,0.5,77,14,11000,29.632,,,210,,,,,,,,,,,wg-a,,,,AAXX 04124 07222 12/61 /2116 10180 20140 39993 40023 50005 60016 91200=
07222,1997-11-04 18:00:00,15,1002.9,0.7,88,13,10000,25.928,,,200,12.7,18.1,,,,,,,,3,wg-a,,,,AAXX 04184 07222 12560 72014 10150 20130 39998 40029 53007 60006 70386 8683/ 91800 333 10181 20127=
07222,1997-11-04 21:00:00,15,1003.3,0.4,82,12,10000,18.52,,,210,,,,,,,,,,,wg-a,,,,AAXX 04214 07222 12560 72110 10150 20120 30002 40033 53004 60006 8683/ 92100=
07222,1997-11-05 00:00:00,13,1003.3,0,94,12,10000,14.816,,,180,,,,,,,,,,,wg-a,,,,AAXX 05004 07222 12560 41808 10130 20120 30002 40033 50000 60006 84800 90000=
07222,1997-11-05 03:00:00,12,1002.6,-0.7,100,12,8000,14.816,,,190,,,,4,,,,,,61,wg-a,,,,AAXX 05034 07222 12458 81908 10120 20120 39995 40026 58007 60047 76161 875// 90300=
07222,1997-11-05 06:00:00,12,1001.3,-1.3,100,12,12000,18.52,,,170,11.4,15.5,,,,,4,,,1,wg-a,,,,AAXX 05064 07222 02562 51710 10120 20120 39982 40013 56013 60006 70161 85500 90600 333 10155 20114 60044=
07222,1997-11-05 12:00:00,13,998,-2.5,94,12,7000,14.816,,,170,,,,,,,,,,1,wg-a,,,,AAXX 05124 07222 02357 71708 10130 20120 39949 49980 56025 61000 70162 877// 91200 333 6100=
07222,1997-11-05 15:00:00,13,994.7,-3.3,100,13,7000,18.52,,,160,,,,0,,,,,,61,wg-a,,,,AAXX 05154 07222 12457 71610 10130 20130 39916 49947 56033 60007 76162 875// 91500=
07222,1997-11-05 18:00:00,12,992.8,-1.9,100,12,7000,11.112,,,190,11.6,14.1,,,,,,,,61,wg-a,,,,AAXX 05184 07222 02357 81906 10120 20120 39897 49928 56019 61000 76162 8687/ 91800 333 10141 20116 6005=
07222,1997-11-05 21:00:00,12,992.1,-0.7,94,11,10000,14.816,,,200,,,,2,,,,,,80,wg-a,,,,AAXX 05214 07222 12560 72008 10120 20110 39890 49921 57007 60027 78086 8527/ 92100=
07222,1997-11-06 00:00:00,11,991.2,-0.9,94,10,10000,11.112,,,200,,,,0,,,,,,3,wg-a,,,,AAXX 06004 07222 02560 72006 10110 20100 39881 49912 58009 60026 70386 84530 90000 333 60007=
07222,1997-11-06 03:00:00,9,989.6,-1.6,100,9,10000,7.408,,,200,,,,,,,,,,,wg-a,,,,AAXX 06034 07222 12760 72004 10090 20090 39865 49896 56016 60006 83530 90300=
07222,1997-11-06 06:00:00,9,989,-0.6,100,9,10000,11.112,,,180,8.6,12.8,,,,,7,,,,wg-a,,,,AAXX 06064 07222 02/60 71806 10090 20090 39859 49890 55006 60006 87030 90600 333 10128 20086 60074=
07222,1997-11-06 12:00:00,14,989.3,-0.7,82,11,20000,7.408,,,280,,,,,,,,,,,wg-a,,,,AAXX 06124 07222 12470 72804 10140 20110 39863 49893 58007 60006 81232 91200=
07222,1997-11-06 15:00:00,14,988,-1.3,82,11,20000,7.408,,,290,,,,,,,,,,,wg-a,,,,AAXX 06154 07222 12570 72904 10140 20110 39850 49880 55013 60006 8487/ 91500=
07222,1997-11-06 18:00:00,12,989.3,1.2,88,10,15000,7.408,,,280,8.7,14.1,,,,,,,,,wg-a,,,,AAXX 06184 07222 12565 72804 10120 20100 39862 49893 53012 60006 8127/ 91800 333 10141 20087=
07222,1997-11-06 21:00:00,11,990.3,1,94,10,10000,14.816,,,250,,,,,,,,,,,wg-a,,,,AAXX 06214 07222 12/60 72508 10110 20100 39872 49903 53010 60006 8707/ 92100=
07222,1997-11-07 00:00:00,9,991.6,1.3,100,9,10000,7.408,,,230,,,,0,,,,,,25,wg-a,,,,AAXX 07004 07222 02460 22304 10090 20090 39885 49916 53013 60006 72511 82200 90000 333 60007=
07222,1997-11-07 03:00:00,8,992.5,0.9,100,8,10000,14.816,,,210,,,,,,,,,,25,wg-a,,,,AAXX 07034 07222 02560 22108 10080 20080 39894 49925 51009 61000 72500 82200 90300 333 ////=
07222,1997-11-07 06:00:00,7,993.9,1.4,93,6,10000,14.816,,,200,6.9,11.8,,,,,,,,2,wg-a,,,,AAXX 07064 07222 02560 22008 10070 20060 39908 49939 51014 60006 70286 82200 90600 333 10118 20069 60004=
07222,1997-11-07 09:00:00,10,995.1,1.2,100,10,15000,11.112,,,180,,,,,,,,,,,wg-a,,,,AAXX 07094 07222 12765 31806 10100 20100 39920 49951 53012 60006 83500 90900=
07222,1997-11-07 12:00:00,14,994,-1,82,11,2000,22.224,,,190,,,,,,,,,,,wg-a,,,,AAXX 07124 07222 12520 71912 10140 20110 39910 49940 58010 60006 87834 91200=
07222,1997-11-07 18:00:00,14,990.4,-1.6,82,11,11000,29.632,,,170,5.8,15,,,,,,,,,wg-a,,,,AAXX 07184 07222 12/61 /1716 10140 20110 39874 49904 56016 60006 91800 333 10150 20058=
07222,1997-11-08 00:00:00,11,993.9,2.4,87,9,15000,18.52,,,260,,,,,,,,,,2,wg-a,,,,AAXX 08004 07222 12665 22610 10110 20090 39908 49939 53024 60076 70261 81530 90000=
07222,1997-11-08 06:00:00,9,998.3,2.2,93,8,15000,11.112,,,220,9.2,14.1,,,,,,,,25,wg-a,,,,AAXX 08064 07222 02565 32206 10090 20080 39952 49983 52022 61000 72586 8/800 90600 333 10141 20092 6007=
07222,1997-11-08 12:00:00,15,998.6,-1.7,72,10,500,29.632,,,210,,,,,,,,,,25,wg-a,,,,AAXX 08124 07222 02700 72116 10150 20100 39955 49986 58017 61000 72586 8757/ 91200 333 6100=
07222,1997-11-08 15:00:00,13,993.4,-5.2,88,11,8000,42.596,,62.968,180,,,,6,,,,,,80,wg-a,,,,AAXX 08154 07222 12458 81823 10130 20110 39903 49934 58052 60067 78096 879// 91500 333 91034=
07222,1997-11-08 18:00:00,11,993.5,0.1,100,11,4000,18.52,,,230,,,,,,,,,,61,wg-a,,,,AAXX 08184 07222 02340 82310 10110 20110 39904 49935 53001 61000 76196 877// 91800 333 ////=
07222,1997-11-08 21:00:00,11,994.3,0.8,87,9,10000,18.52,,,230,,,,0,,,,,,25,wg-a,,,,AAXX 08214 07222 12660 82310 10110 20090 39912 49943 53008 60007 72562 878// 92100=
07222,1997-11-09 00:00:00,9,995,0.7,87,7,10000,11.112,,,220,,,,,,,,,,2,wg-a,,,,AAXX 09004 07222 12/60 22206 10090 20070 39919 49950 51007 60006 70286 80001 90000=
07222,1997-11-09 03:00:00,9,995.3,0.3,87,7,10000,18.52,,,220,,,,,,,,,,,wg-a,,,,AAXX 09034 07222 12760 62210 10090 20070 39922 49953 52003 60006 845/1 90300=
07222,1997-11-09 06:00:00,8,995.5,0.2,87,6,11000,18.52,,,210,7.6,12.1,,,,,,,,,wg-a,,,,AAXX 09064 07222 12/61 /2110 10080 20060 39924 49955 50002 60006 90600 333 10121 20076=
07222,1997-11-09 09:00:00,10,995.6,0.1,87,8,20000,18.52,,,220,,,,1,,,,,,25,wg-a,,,,AAXX 09094 07222 12570 /2210 10100 20080 39925 49956 50001 60017 72586 84902 90900=
07222,1997-11-09 12:00:00,14,993.4,-2.2,67,8,20000,38.892,,61.116,240,,,,,,,,,,3,wg-a,,,,AAXX 09124 07222 12570 /2421 10140 20080 39903 49934 58022 60016 70386 85902 91200 333 91033=
07222,1997-11-09 15:00:00,14,995.8,2.4,67,8,500,35.188,,57.412,270,,,,1,,,,,,1,wg-a,,,,AAXX 09154 07222 12500 42719 10140 20080 39927 49958 53024 60017 70198 83902 91500 333 91031=
07222,1997-11-09 18:00:00,10,998.2,2.4,93,9,25000,18.52,,,220,7.4,14,,,,,,,,3,wg-a,,,,AAXX 09184 07222 02575 62210 10100 20090 39951 49982 53024 60006 70398 85903 91800 333 10140 20074 61000=
07222,1997-11-09 21:00:00,9,999.3,1.1,93,8,20000,14.816,,,220,,,,,,,,,,25,wg-a,,,,AAXX 09214 07222 02570 42208 10090 20080 39962 49993 51011 61000 72586 84900 92100 333 ////=
07222,1997-11-10 00:00:00,9,999.7,0.4,87,7,20000,11.112,,,210,,,,,,,,,,2,wg-a,,,,AAXX 10004 07222 02570 32106 10090 20070 39966 49997 51004 61000 70286 83200 90000 333 ////=
07222,1997-11-10 03:00:00,9,998.3,-1.4,87,7,20000,14.816,,,200,,,,1,,,,,,25,wg-a,,,,AAXX 10034 07222 12570 32008 10090 20070 39952 49983 58014 60017 72500 82201 90300=
07222,1997-11-10 06:00:00,9,997.1,-1.2,93,8,12000,11.112,,,200,7.6,10.5,,,,,,,,63,wg-a,,,,AAXX 10064 07222 02462 82006 10090 20080 39940 49971 56012 61000 76386 877// 90600 333 10105 20076 6012=
07222,1997-11-10 09:00:00,9,997.6,0.5,93,8,500,18.52,,,200,,,,1,,,,,,1,wg-a,,,,AAXX 10094 07222 12500 42010 10090 20080 39945 49976 53005 60017 70186 84900 90900=
07222,1997-11-10 12:00:00,12,998.6,1,71,7,500,29.632,,,260,,,,,,,,,,3,wg-a,,,,AAXX 10124 07222 02600 42616 10120 20070 39955 49986 52010 60016 70386 84900 91200 333 61000=
07222,1997-11-10 15:00:00,11,998.6,-0,76,7,25000,22.224,,,230,,,,0,,,,,,80,wg-a,,,,AAXX 10154 07222 12575 72312 10110 20070 39955 49986 55000 60007 78086 879// 91500=
07222,1997-11-10 18:00:00,8,998.2,-0.4,93,7,25000,14.816,,,190,7.6,13.4,,2,,,,,,1,wg-a,,,,AAXX 10184 07222 02575 51908 10080 20070 39951 49982 58004 60006 70186 85900 91800 333 10134 20076 60027=
07222,1997-11-11 00:00:00,7,996,-1.1,100,7,15000,11.112,,,170,,,,1,,,,,,25,wg-a,,,,AAXX 11004 07222 02565 61706 10070 20070 39929 49960 58011 60036 72562 84902 90000 333 60017=
07222,1997-11-11 03:00:00,7,995.2,-0.8,100,7,15000,7.408,,,180,,,,,,,,,,,wg-a,,,,AAXX 11034 07222 12565 71804 10070 20070 39921 49952 56008 60006 86802 90300=
07222,1997-11-11 06:00:00,7,994.9,-0.3,93,6,15000,7.408,,,290,5.6,8.3,,,,,,,,80,wg-a,,,,AAXX 11064 07222 02565 72904 10070 20060 39918 49949 55003 61000 78087 879// 90600 333 10083 20056 6007=
07222,1997-11-11 12:00:00,11,995.2,-0.2,87,9,500,14.816,,,180,,,,,,,,,,1,wg-a,,,,AAXX 11124 07222 02500 31808 10110 20090 39921 49952 58002 60016 70187 83902 91200 333 61000=
07222,1997-11-11 15:00:00,10,994.9,-0.3,87,8,20000,11.112,,,200,,,,0,,,,,,25,wg-a,,,,AAXX 11154 07222 12570 72006 10100 20080 39918 49949 57003 60007 72586 879// 91500=
07222,1997-11-11 18:00:00,8,995.7,0.8,93,7,15000,11.112,,,210,6.7,12.8,,,,,,,,61,wg-a,,,,AAXX 11184 07222 02565 72106 10080 20070 39926 49957 53008 61000 76186 879// 91800 333 10128 20067 6000=
07222,1997-11-11 21:00:00,6,996.5,0.7,100,6,15000,3.704,,,100,,,,1,,,,,,1,wg-a,,,,AAXX 11214 07222 12765 21002 10060 20060 39933 49965 53007 60017 70161 82500 92100=
07222,1997-11-12 00:00:00,6,997.4,0.9,100,6,500,7.408,,,170,,,,,,,,,,44,wg-a,,,,AAXX 12004 07222 12105 /1704 10060 20060 39942 49974 53009 60016 74464 86700 90000=
07222,1997-11-12 03:00:00,6,998.3,0.9,100,6,600,0,,,0,,,,,,,,,,45,wg-a,,,,AAXX 12034 07222 12/06 90000 10060 20060 39951 49983 53009 60006 74544 89/// 90300=
07222,1997-11-12 06:00:00,7,999.9,1.6,100,7,3000,3.704,,,270,4.8,8.2,,,,,2,,,28,wg-a,,,,AAXX 12064 07222 02130 82702 10070 20070 39967 49999 53016 60006 72842 887// 90600 333 10082 20048 60024=
07222,1997-11-12 09:00:00,7,1002.4,2.5,100,7,1300,7.408,,,290,,,,,,,,,,,wg-a,,,,AAXX 12094 07222 12/13 /2904 10070 20070 39992 40024 51025 60006 90900=
07222,1997-11-12 12:00:00,8,1003.7,1.3,100,8,2500,7.408,,,240,,,,,,,,,,28,wg-a,,,,AAXX 12124 07222 12125 92404 10080 20080 30005 40037 51013 60006 72842 896// 91200=
07222,1997-11-12 18:00:00,7,1005.7,1.3,93,6,15000,11.112,,,200,6.3,11.2,,,,,,,,,wg-a,,,,AAXX 12184 07222 12565 /2006 10070 20060 30025 40057 52013 60006 86800 91800 333 10112 20063=
07222,1997-11-12 21:00:00,6,1006.6,0.9,93,5,8000,7.408,,,160,,,,,,,,,,,wg-a,,,,AAXX 12214 07222 12658 21604 10060 20050 30034 40066 52009 60006 82500 92100=
07222,1997-11-13 00:00:00,4,1006.6,-0,100,4,500,3.704,,,150,,,,,,,,,,,wg-a,,,,AAXX 13004 07222 12700 31502 10040 20040 30034 40066 55000 60006 83500 90000=
07222,1997-11-13 03:00:00,5,1006.1,-0.5,100,5,8000,7.408,,,240,,,,,,,,,,,wg-a,,,,AAXX 13034 07222 12658 32404 10050 20050 30029 40061 57005 60006 83500 90300=
07222,1997-11-13 06:00:00,3,1005.5,-0.6,100,3,10000,7.408,,,170,2.7,7.1,,,,,,,,,wg-a,,,,AAXX 13064 07222 02660 31704 10030 20030 30023 40055 58006 60006 83500 90600 333 10071 20027 60004=
07222,1997-11-13 09:00:00,6,1006.5,1,100,6,11000,7.408,,,160,,,,,,,,,,,wg-a,,,,AAXX 13094 07222 12/61 /1604 10060 20060 30033 40065 53010 60006 90900=
07222,1997-11-13 12:00:00,13,1006.3,-0.1,67,7,15000,7.408,,,220,,,,,,,,,,,wg-a,,,,AAXX 13124 07222 12565 42204 10130 20070 30032 40063 58001 60006 82802 91200=
07222,1997-11-13 15:00:00,12,1006.2,-0.1,71,7,500,7.408,,,330,,,,,,,,,,,wg-a,,,,AAXX 13154 07222 12600 73304 10120 20070 30031 40062 55001 60006 85832 91500=
07222,1997-11-13 18:00:00,9,1007.8,1.5,81,6,10000,3.704,,,240,2.2,13.6,,,,,,,,,wg-a,,,,AAXX 13184 07222 12/60 /2402 10090 20060 30046 40078 53015 60006 91800 333 10136 20022=
07222,1997-11-13 21:00:00,6,1009.6,1.8,100,6,15000,0,,,0,,,,,,,,,,,wg-a,,,,AAXX 13214 07222 12765 50000 10060 20060 30064 40096 51018 60006 83530 92100=
07222,1997-11-14 00:00:00,4,1010.6,1,93,3,8000,7.408,,,160,,,,,,,,,,,wg-a,,,,AAXX 14004 07222 12/58 /1604 10040 20030 30074 40106 51010 60006 80001 90000=
07222,1997-11-14 03:00:00,3,1011.4,0.8,100,3,800,7.408,,,140,,,,,,,,,,42,wg-a,,,,AAXX 14034 07222 12008 71404 10030 20030 30082 40114 53008 60006 74241 875// 90300=
07222,1997-11-14 06:00:00,5,1011.9,0.5,100,5,400,11.112,,,150,2,8.7,,,,,,,,45,wg-a,,,,AAXX 14064 07222 12/04 91506 10050 20050 30087 40119 53005 60006 74541 89/// 90600 333 10087 20020=
07222,1997-11-14 09:00:00,7,1013.7,1.8,100,7,500,11.112,,,150,,,,0,,,,,,1,wg-a,,,,AAXX 14094 07222 12100 71506 10070 20070 30105 40137 51018 60007 70142 875// 90900=
07222,1997-11-14 12:00:00,14,1014.1,0.5,82,11,10000,18.52,,,170,,,,,,,,,,3,wg-a,,,,AAXX 14124 07222 12760 51710 10140 20110 30110 40141 51005 60006 70341 83531 91200=
07222,1997-11-14 15:00:00,14,1014,-0.1,88,12,20000,18.52,,,190,,,,,,,,,,,wg-a,,,,AAXX 14154 07222 12470 61910 10140 20120 30109 40140 55001 60006 84501 91500=
07222,1997-11-14 18:00:00,12,1015.2,1.2,94,11,20000,14.816,,,190,4.7,14.8,,,,,,,,,wg-a,,,,AAXX 14184 07222 12470 71908 10120 20110 30121 40152 53012 60006 875// 91800 333 10148 20047=
07222,1997-11-14 21:00:00,13,1015.4,0.2,94,12,10000,18.52,,,170,,,,,,,,,,,wg-a,,,,AAXX 14214 07222 12360 71710 10130 20120 30123 40154 53002 60006 875// 92100=
07222,1997-11-15 00:00:00,13,1015.6,0.2,100,13,10000,18.52,,,170,,,,,,,,,,,wg-a,,,,AAXX 15004 07222 12260 81710 10130 20130 30125 40156 50002 60006 876// 90000=
07222,1997-11-15 03:00:00,13,1016,0.4,100,13,8000,14.816,,,180,,,,1,,,,,,51,wg-a,,,,AAXX 15034 07222 12258 81808 10130 20130 30129 40160 51004 60017 75152 876// 90300=
07222,1997-11-15 06:00:00,13,1016.1,0.1,100,13,4000,18.52,,,170,12,13.2,,,,,,,,50,wg-a,,,,AAXX 15064 07222 02140 81710 10130 20130 30130 40161 50001 61000 75065 876// 90600 333 10132 20120 6001=
07222,1997-11-15 09:00:00,13,1017.1,1,100,13,2500,18.52,,,170,,,,0,,,,,,10,wg-a,,,,AAXX 15094 07222 12125 81710 10130 20130 30140 40171 51010 60007 71052 877// 90900=
07222,1997-11-15 12:00:00,15,1017,-0.1,100,15,1300,14.816,,,180,,,,2,,,,,,10,wg-a,,,,AAXX 15124 07222 02113 81808 10150 20150 30139 40170 58001 60026 71052 877// 91200 333 60027=
07222,1997-11-15 15:00:00,15,1016.9,-0.1,100,15,4000,11.112,,,220,,,,3,,,,,,10,wg-a,,,,AAXX 15154 07222 12140 82206 10150 20150 30138 40169 55001 60037 71065 877// 91500=
07222,1997-11-15 18:00:00,15,1017.5,0.6,100,15,6000,11.112,,,220,12.2,15.3,,,,,,,,20,wg-a,,,,AAXX 15184 07222 02256 82206 10150 20150 30144 40175 52006 61000 72065 877// 91800 333 10153 20122 6001=
07222,1997-11-15 21:00:00,14,1017.6,0.1,100,14,7000,11.112,,,190,,,,,,,,,,20,wg-a,,,,AAXX 15214 07222 02257 81906 10140 20140 30145 40176 53001 61000 72052 875// 92100 333 ////=
07222,1997-11-16 00:00:00,14,1017.2,-0.4,100,14,7000,11.112,,,170,,,,,,,,,,2,wg-a,,,,AAXX 16004 07222 02257 81706 10140 20140 30141 40172 57004 61000 70252 875// 90000 333 ////=
07222,1997-11-16 03:00:00,12,1016.3,-0.9,94,11,8000,14.816,,,150,,,,,,,,,,,wg-a,,,,AAXX 16034 07222 12/58 /1508 10120 20110 30132 40163 56009 60006 90300=
07222,1997-11-16 06:00:00,10,1015.6,-0.8,100,10,12000,11.112,,,140,10.1,14.8,,,,,6,,,,wg-a,,,,AAXX 16064 07222 02/62 41406 10100 20100 30124 40156 56008 60006 82031 90600 333 10148 20101 60064=
07222,1997-11-16 09:00:00,11,1015.8,0.2,87,9,12000,14.816,,,160,,,,0,,,,,,,wg-a,,,,AAXX 16094 07222 12662 61608 10110 20090 30126 40158 51002 60007 82531 90900=
07222,1997-11-16 12:00:00,14,1015.4,-0.3,82,11,25000,11.112,,,190,,,,,,,,,,,wg-a,,,,AAXX 16124 07222 12775 71906 10140 20110 30123 40154 56003 60006 865/2 91200=
07222,1997-11-16 15:00:00,14,1014.7,-0.7,88,12,25000,11.112,,,160,,,,,,,,,,,wg-a,,,,AAXX 16154 07222 12775 71606 10140 20120 30116 40147 56007 60006 83572 91500=
07222,1997-11-16 18:00:00,12,1015.1,0.4,94,11,25000,11.112,,,160,9.6,14.7,,,,,,,,,wg-a,,,,AAXX 16184 07222 12775 61606 10120 20110 30120 40151 51004 60006 84570 91800 333 10147 20096=
07222,1997-11-16 21:00:00,11,1015.6,0.5,100,11,15000,7.408,,,180,,,,,,,,,,,wg-a,,,,AAXX 16214 07222 12765 71804 10110 20110 30125 40156 51005 60006 8457/ 92100=
07222,1997-11-17 00:00:00,10,1015.2,-0.5,93,9,10000,11.112,,,150,,,,,,,,,,,wg-a,,,,AAXX 17004 07222 12760 61506 10100 20090 30120 40152 55005 60006 83570 90000=
07222,1997-11-17 03:00:00,9,1014.7,-0.5,100,9,4000,7.408,,,140,,,,,,,,,,10,wg-a,,,,AAXX 17034 07222 12240 71404 10090 20090 30115 40147 57005 60006 71022 875// 90300=
07222,1997-11-17 06:00:00,10,1013.9,-0.8,100,10,3000,11.112,,,140,8.9,12,,,,,,,,10,wg-a,,,,AAXX 17064 07222 02/30 61406 10100 20100 30107 40139 58008 60006 71022 83031 90600 333 10120 20089 60004=
07222,1997-11-17 09:00:00,11,1013.7,-0.1,100,11,4000,7.408,,,180,,,,0,,,,,,10,wg-a,,,,AAXX 17094 07222 12740 81804 10110 20110 30106 40137 55001 60007 71022 8257/ 90900=
07222,1997-11-17 12:00:00,14,1011.2,-2.5,94,13,9000,14.816,,,130,,,,,,,,,,,wg-a,,,,AAXX 17124 07222 12759 81308 10140 20130 30081 40112 58025 60006 8257/ 91200=
07222,1997-11-17 15:00:00,15,1009.4,-1.8,88,13,10000,14.816,,,140,,,,,,,,,,,wg-a,,,,AAXX 17154 07222 12/60 /1408 10150 20130 30063 40094 56018 60006 91500=
07222,1997-11-17 18:00:00,14,1007.3,-2.1,88,12,10000,18.52,,,130,9.6,15.3,,,,,,,,,wg-a,,,,AAXX 17184 07222 12760 81310 10140 20120 30042 40073 58021 60006 8257/ 91800 333 10153 20096=
07222,1997-11-17 21:00:00,14,1004.7,-2.6,82,11,12000,22.224,,,140,,,,,,,,,,,wg-a,,,,AAXX 17214 07222 12762 81412 10140 20110 30016 40047 56026 60006 8357/ 92100=
07222,1997-11-18 00:00:00,14,1002.7,-2,82,11,12000,22.224,,,140,,,,,,,,,,,wg-a,,,,AAXX 18004 07222 12762 81412 10140 20110 39996 40027 56020 60006 8357/ 90000=
07222,1997-11-18 06:00:00,13,1002,0.3,88,11,10000,25.928,,,170,12.9,14.2,,,,,,,,60,wg-a,,,,AAXX 18064 07222 02560 81714 10130 20110 39989 40020 53003 61000 76062 8557/ 90600 333 10142 20129 6000=
07222,1997-11-18 09:00:00,13,1003.7,1.7,100,13,2500,14.816,,,170,,,,2,,,,,,63,wg-a,,,,AAXX 18094 07222 12225 81708 10130 20130 30006 40037 52017 60027 76366 875// 90900=
07222,1997-11-18 12:00:00,15,1004.6,0.9,100,15,8000,14.816,,,200,,,,1,,,,,,60,wg-a,,,,AAXX 18124 07222 02258 82008 10150 20150 30015 40046 50009 60036 76062 8687/ 91200 333 60017=
07222,1997-11-18 15:00:00,15,1005.1,0.5,94,14,10000,14.816,,,230,,,,,,,,,,21,wg-a,,,,AAXX 18154 07222 02460 82308 10150 20140 30020 40051 53005 61000 72162 8687/ 91500 333 ////=
07222,1997-11-18 18:00:00,13,1005.3,,100,13,11000,7.408,,,200,12.7,15.3,,,,,,,,0,wg-a,,,,AAXX 18184 07222 12/61 /2004 10130 20130 30022 40053 60006 700// 91800 333 10153 20127=
07222,1997-11-19 00:00:00,10,1003.5,-1.1,100,10,9000,11.112,,,170,,,,0,,,,,,,wg-a,,,,AAXX 19004 07222 02459 31706 10100 20100 30004 40035 58011 60006 82501 90000 333 60007=
07222,1997-11-19 06:00:00,12,999.5,-1.7,100,12,12000,22.224,,,170,9.6,12.8,,,,,,,,21,wg-a,,,,AAXX 19064 07222 02562 71712 10120 20120 39964 49995 56017 61000 72161 875// 90600 333 10128 20096 6004=
07222,1997-11-19 09:00:00,13,999.4,-0.1,94,12,12000,18.52,,,210,,,,1,,,,,,1,wg-a,,,,AAXX 19094 07222 12562 42110 10130 20120 39963 49994 58001 60017 70161 84800 90900=
07222,1997-11-19 12:00:00,16,998.5,-0.8,82,13,15000,25.928,,,220,,,,,,,,,,3,wg-a,,,,AAXX 19124 07222 12465 /2214 10160 20130 39955 49985 58008 60016 70361 86800 91200=
07222,1997-11-19 15:00:00,15,998.1,-0.5,77,11,20000,22.224,,,220,,,,,,,,,,,wg-a,,,,AAXX 19154 07222 12570 52212 10150 20110 39950 49981 56005 60006 85800 91500=
07222,1997-11-19 18:00:00,11,998.9,0.8,94,10,12000,14.816,,,210,10.8,16.6,,,,,,,,21,wg-a,,,,AAXX 19184 07222 02462 72108 10110 20100 39958 49989 51008 61000 72186 878// 91800 333 10166 20108 6001=
07222,1997-11-19 21:00:00,11,997.9,-1,94,10,15000,14.816,,,180,,,,,,,,,,,wg-a,,,,AAXX 19214 07222 12565 31808 10110 20100 39948 49979 56010 60006 83803 92100=
07222,1997-11-20 03:00:00,12,993.4,-1.7,94,11,15000,29.632,,,200,,,,1,,,,,,21,wg-a,,,,AAXX 20034 07222 12465 82016 10120 20110 39903 49934 58017 60017 72162 8391/ 90300=
07222,1997-11-20 06:00:00,10,994.2,0.8,93,9,10000,11.112,,,250,10,13,,,,,,,,25,wg-a,,,,AAXX 20064 07222 02260 72506 10100 20090 39911 49942 53008 61000 72586 878// 90600 333 10130 20100 6005=
07222,1997-11-20 09:00:00,10,996.5,2.3,93,9,18000,11.112,,,210,,,,1,,,,,,25,wg-a,,,,AAXX 20094 07222 12568 42106 10100 20090 39934 49965 51023 60017 72586 83903 90900=
07222,1997-11-20 12:00:00,12,997.9,1.4,82,9,6000,25.928,,,250,,,,3,,,,,,80,wg-a,,,,AAXX 20124 07222 02456 72514 10120 20090 39948 49979 51014 60046 78087 879// 91200 333 60037=
07222,1997-11-20 15:00:00,11,999.7,1.8,82,8,6000,25.928,,42.596,290,,,,7,,,,,,80,wg-a,,,,AAXX 20154 07222 12556 72914 10110 20080 39966 49997 53018 60077 78087 87903 91500 333 91023=
07222,1997-11-20 18:00:00,9,1002.1,2.4,100,9,20000,11.112,,,190,8.5,13.7,,1,,,,,,3,wg-a,,,,AAXX 20184 07222 02570 51906 10090 20090 39990 40021 53024 60006 70387 83903 91800 333 10137 20085 60017=
07222,1997-11-20 21:00:00,9,1003.8,1.7,93,8,10000,14.816,,,260,,,,1,,,,,,80,wg-a,,,,AAXX 20214 07222 12560 52608 10090 20080 30007 40038 51017 60017 78086 83903 92100=
07222,1997-11-21 00:00:00,7,1004.8,0.9,100,7,15000,11.112,,,180,,,,,,,,,,1,wg-a,,,,AAXX 21004 07222 02765 21806 10070 20070 30016 40048 53009 60016 70186 81503 90000 333 61000=
07222,1997-11-21 03:00:00,8,1005.5,0.7,93,7,15000,11.112,,,220,,,,0,,,,,,60,wg-a,,,,AAXX 21034 07222 12765 72206 10080 20070 30023 40055 53007 60007 76061 8453/ 90300=
07222,1997-11-21 06:00:00,7,1005.6,0.1,100,7,15000,11.112,,,120,5.4,9.5,,,,,14,,,1,wg-a,,,,AAXX 21064 07222 02465 /1206 10070 20070 30024 40056 53001 60006 70161 84830 90600 333 10095 20054 60144=
07222,1997-11-21 09:00:00,7,1006.4,0.8,100,7,11000,11.112,,,170,,,,,,,,,,,wg-a,,,,AAXX 21094 07222 32/61 /1706 10070 20070 30032 40064 53008 90900=
07222,1997-11-21 15:00:00,11,1007.4,0.3,87,9,20000,11.112,,,190,,,,,,,,,,,wg-a,,,,AAXX 21154 07222 12570 51906 10110 20090 30043 40074 53003 60006 83902 91500=
07222,1997-11-21 18:00:00,8,1008.8,1.3,100,8,20000,11.112,,,160,6.3,12.7,,,,,,,,,wg-a,,,,AAXX 21184 07222 12570 21606 10080 20080 30056 40088 53013 60006 81902 91800 333 10127 20063=
07222,1997-11-21 21:00:00,5,1009.7,0.9,100,5,15000,14.816,,,150,,,,,,,,,,,wg-a,,,,AAXX 21214 07222 12/65 21508 10050 20050 30065 40097 53009 60006 80001 92100=
07222,1997-11-22 00:00:00,5,1010,0.3,100,5,700,11.112,,,150,,,,0,,,,,,44,wg-a,,,,AAXX 22004 07222 02107 /1506 10050 20050 30068 40100 51003 60006 74441 86600 90000 333 60007=
07222,1997-11-22 03:00:00,5,1010.6,0.6,100,5,500,11.112,,,150,,,,,,,,,,45,wg-a,,,,AAXX 22034 07222 32/05 91506 10050 20050 30074 40106 51006 74544 89/// 90300=
07222,1997-11-22 06:00:00,5,1011.3,0.7,100,5,500,7.408,,,150,4.4,8.4,,,,,1,,,43,wg-a,,,,AAXX 22064 07222 02/05 91504 10050 20050 30081 40113 53007 60006 74344 89/// 90600 333 10084 20044 60014=
07222,1997-11-22 09:00:00,5,1012.5,1.2,100,5,8000,11.112,,,130,,,,,,,,,,3,wg-a,,,,AAXX 22094 07222 12458 /1306 10050 20050 30093 40125 53012 60006 70341 82903 90900=
07222,1997-11-22 12:00:00,9,1013.6,1.1,100,9,15000,7.408,,,240,,,,1,,,,,,25,wg-a,,,,AAXX 22124 07222 02565 72404 10090 20090 30104 40136 51011 60016 72586 86903 91200 333 60017=
07222,1997-11-22 15:00:00,10,1013.8,0.2,87,8,500,11.112,,,170,,,,0,,,,,,,wg-a,,,,AAXX 22154 07222 12500 61706 10100 20080 30106 40138 53002 60007 85983 91500=
07222,1997-11-22 18:00:00,7,1015.2,1.4,93,6,15000,0,,,0,4.1,11.5,,0,,,,,,1,wg-a,,,,AAXX 22184 07222 02565 40000 10070 20060 30120 40152 53014 60006 70186 83983 91800 333 10115 20041 60007=
07222,1997-11-22 21:00:00,4,1016.6,1.4,100,4,12000,3.704,,,140,,,,,,,,,,,wg-a,,,,AAXX 22214 07222 12762 21402 10040 20040 30134 40166 51014 60006 82500 92100=
07222,1997-11-23 00:00:00,3,1017.7,1,100,3,7000,0,,,0,,,,,,,,,,,wg-a,,,,AAXX 23004 07222 12/57 /0000 10030 20030 30144 40177 53010 60006 90000=
07222,1997-11-23 03:00:00,2,1017.7,-0,100,2,6000,7.408,,,140,,,,,,,,,,,wg-a,,,,AAXX 23034 07222 32/56 01404 10020 20020 30144 40177 55000 80000 90300=
07222,1997-11-23 06:00:00,2,1017.5,-0.2,100,2,10000,7.408,,,140,1.6,6.6,,,,,2,,,2,wg-a,,,,AAXX 23064 07222 02/60 01404 10020 20020 30142 40175 56002 60006 70240 80000 90600 333 10066 20016 60024=
07222,1997-11-23 12:00:00,10,1017.4,-0.9,87,8,500,22.224,,,150,,,,,,,,,,,wg-a,,,,AAXX 23124 07222 12500 71512 10100 20080 30142 40174 58009 60006 82532 91200=
07222,1997-11-23 15:00:00,10,1015.8,-1.6,87,8,20000,22.224,,,140,,,,,,,,,,60,wg-a,,,,AAXX 23154 07222 02/70 81412 10100 20080 30126 40158 57016 61000 76062 8802/ 91500 333 ////=
07222,1997-11-23 18:00:00,9,1015.4,-0.4,87,7,12000,22.224,,,150,1.6,10.4,,,,,,,,60,wg-a,,,,AAXX 23184 07222 02562 81512 10090 20070 30122 40154 55004 61000 76062 8652/ 91800 333 10104 20016 6100=
07222,1997-11-23 21:00:00,8,1015,-0.4,93,7,12000,18.52,,,150,,,,,,,,,,21,wg-a,,,,AAXX 23214 07222 02662 81510 10080 20070 30118 40150 58004 61000 72162 8652/ 92100 333 ////=
07222,1997-11-24 00:00:00,8,1013.8,-1.2,87,6,10000,14.816,,,140,,,,,,,,,,1,wg-a,,,,AAXX 24004 07222 02760 81408 10080 20060 30106 40138 56012 61000 70162 8653/ 90000 333 ////=
07222,1997-11-24 03:00:00,7,1012.2,-1.6,93,6,10000,14.816,,,120,,,,0,,,,,,,wg-a,,,,AAXX 24034 07222 12560 81208 10070 20060 30090 40122 58016 60007 8657/ 90300=
07222,1997-11-24 06:00:00,7,1009.5,-2.7,87,5,10000,14.816,,,110,6.7,8.6,,,,,,,,1,wg-a,,,,AAXX 24064 07222 02660 41108 10070 20050 30063 40095 56027 60006 70161 8353/ 90600 333 10086 20067 60004=
07222,1997-11-24 09:00:00,8,1007.5,-2,81,5,15000,22.224,,,100,,,,,,,,,,,wg-a,,,,AAXX 24094 07222 12/65 61012 10080 20050 30043 40075 56020 60006 83032 90900=
07222,1997-11-24 12:00:00,9,1004.8,-2.6,76,5,12000,18.52,,,100,,,,,,,,,,,wg-a,,,,AAXX 24124 07222 12/62 71010 10090 20050 30017 40048 58026 60006 85052 91200=
07222,1997-11-24 15:00:00,9,1002.1,-2.7,81,6,10000,18.52,,,100,,,,,,,,,,,wg-a,,,,AAXX 24154 07222 12/60 81010 10090 20060 39990 40021 56027 60006 8807/ 91500=
07222,1997-11-24 18:00:00,8,1002.1,-0.1,81,5,10000,11.112,,,100,6.1,9.7,,,,,,,,,wg-a,,,,AAXX 24184 07222 12760 81006 10080 20050 39989 40021 56001 60006 83572 91800 333 10097 20061=
07222,1997-11-24 21:00:00,9,1001.2,-0.8,81,6,10000,18.52,,,140,,,,,,,,,,,wg-a,,,,AAXX 24214 07222 12660 81410 10090 20060 39981 40012 56008 60006 8557/ 92100=
07222,1997-11-25 00:00:00,10,1001.1,-0.1,93,9,10000,14.816,,,150,,,,,,,,,,,wg-a,,,,AAXX 25004 07222 12460 81508 10100 20090 39980 40011 55001 60006 8457/ 90000=
07222,1997-11-25 03:00:00,9,1001.7,0.6,100,9,500,22.224,,,150,,,,4,,,,,,61,wg-a,,,,AAXX 25034 07222 12100 81512 10090 20090 39986 40017 51006 60047 76162 875// 90300=
07222,1997-11-25 06:00:00,9,1001,-0.7,100,9,6000,18.52,,,150,7.5,10.4,,1,,,5,,,21,wg-a,,,,AAXX 25064 07222 02256 71510 10090 20090 39979 40010 56007 60054 72162 877// 90600 333 10104 20075 60017=
07222,1997-11-25 09:00:00,9,1001.6,0.6,100,9,3000,18.52,,,150,,,,0,,,,,,10,wg-a,,,,AAXX 25094 07222 12130 71510 10090 20090 39985 40016 53006 60007 71052 877// 90900=
07222,1997-11-25 12:00:00,14,1000.8,-0.8,88,12,12000,14.816,,,150,,,,,,,,,,1,wg-a,,,,AAXX 25124 07222 12462 31508 10140 20120 39977 40008 58008 60006 70151 82101 91200=
07222,1997-11-25 18:00:00,11,999.5,-0,87,9,15000,14.816,,,90,9,14.8,,,,,,,,,wg-a,,,,AAXX 25184 07222 12/65 80908 10110 20090 39964 49995 54000 60006 82037 91800 333 10148 20090=
07222,1997-11-25 21:00:00,11,999.3,-0.2,82,8,15000,14.816,,,90,,,,,,,,,,,wg-a,,,,AAXX 25214 07222 12765 80908 10110 20080 39962 49993 56002 60006 8357/ 92100=
07222,1997-11-26 00:00:00,11,998.8,-0.5,82,8,15000,14.816,,,80,,,,,,,,,,,wg-a,,,,AAXX 26004 07222 12765 80808 10110 20080 39957 49988 57005 60006 8357/ 90000=
07222,1997-11-26 03:00:00,10,999,0.2,87,8,15000,11.112,,,80,,,,,,,,,,,wg-a,,,,AAXX 26034 07222 12765 80806 10100 20080 39959 49990 53002 60006 8357/ 90300=
07222,1997-11-26 06:00:00,9,999.5,0.5,93,8,8000,11.112,,,100,9.2,11,,,,,,,,61,wg-a,,,,AAXX 26064 07222 02758 81006 10090 20080 39964 49995 53005 61000 76162 8557/ 90600 333 10110 20092 6000=
07222,1997-11-26 09:00:00,10,1001.2,1.7,87,8,10000,7.408,,,60,,,,,,,,,,60,wg-a,,,,AAXX 26094 07222 02760 80604 10100 20080 39981 40012 53017 61000 76062 8657/ 90900 333 ////=
07222,1997-11-26 12:00:00,13,1001.3,0.1,82,10,15000,14.816,,,100,,,,0,,,,,,1,wg-a,,,,AAXX 26124 07222 02665 /1008 10130 20100 39982 40013 50001 60006 70162 8453/ 91200 333 60007=
07222,1997-11-26 15:00:00,14,1002.2,0.9,82,11,15000,14.816,,,150,,,,,,,,,,,wg-a,,,,AAXX 26154 07222 12565 71508 10140 20110 39991 40022 53009 60006 875// 91500=
07222,1997-11-26 18:00:00,13,1003.7,1.5,94,12,15000,14.816,,,160,9.3,14.5,,,,,,,,,wg-a,,,,AAXX 26184 07222 12565 71608 10130 20120 30006 40037 52015 60006 878// 91800 333 10145 20093=
07222,1997-11-26 21:00:00,13,1005.2,1.5,94,12,7000,14.816,,,160,,,,,,,,,,,wg-a,,,,AAXX 26214 07222 12357 71608 10130 20120 30021 40052 51015 60006 875// 92100=
07222,1997-11-27 00:00:00,12,1006.1,0.9,100,12,500,11.112,,,180,,,,1,,,,,,60,wg-a,,,,AAXX 27004 07222 02200 81806 10120 20120 30030 40061 51009 60016 76062 875// 90000 333 60017=
07222,1997-11-27 03:00:00,10,1008.3,2.2,100,10,500,7.408,,,250,,,,,,,,,,21,wg-a,,,,AAXX 27034 07222 02700 72504 10100 20100 30052 40083 51022 61000 72162 875// 90300 333 ////=
07222,1997-11-27 06:00:00,9,1010,1.6,100,9,6000,7.408,,,220,8.1,13.3,,,,,1,,,28,wg-a,,,,AAXX 27064 07222 02456 42204 10090 20090 30068 40100 52016 60006 72864 83502 90600 333 10133 20081 60014=
07222,1997-11-27 09:00:00,9,1010,1.6,100,9,6000,7.408,,,220,8.1,13.3,,0,,,7,,,28,wg-a,,,,AAXX 27094 07222 02456 /2204 10090 20090 30068 40100 52016 60074 72864 83502 90900 333 10133 20081 60007=
07222,1997-11-27 12:00:00,13,1012.4,0.4,82,10,20000,11.112,,,220,,,,,,,,,,,wg-a,,,,AAXX 27124 07222 12570 72206 10130 20100 30093 40124 50004 60006 85875 91200=
07222,1997-11-27 15:00:00,13,1012.3,-0.1,82,10,500,11.112,,,220,,,,,,,,,,,wg-a,,,,AAXX 27154 07222 12600 72206 10130 20100 30092 40123 58001 60006 8557/ 91500=
07222,1997-11-27 18:00:00,12,1012.1,-0.2,88,10,12000,11.112,,,170,8.2,13.6,,,,,,,,,wg-a,,,,AAXX 27184 07222 12362 71706 10120 20100 30090 40121 58002 60006 8657/ 91800 333 10136 20082=
07222,1997-11-27 21:00:00,12,1010.7,-1.4,88,10,15000,18.52,,,150,,,,,,,,,,2,wg-a,,,,AAXX 27214 07222 02765 81510 10120 20100 30076 40107 58014 61000 70262 8557/ 92100 333 ////=
07222,1997-11-28 00:00:00,12,1009.4,-1.3,94,11,8000,22.224,,,170,,,,0,,,,,,61,wg-a,,,,AAXX 28004 07222 02458 81712 10120 20110 30063 40094 56013 60016 76162 8557/ 90000 333 60007=
07222,1997-11-28 03:00:00,12,1007.8,-1.6,94,11,4000,25.928,,,180,,,,5,,,,,,10,wg-a,,,,AAXX 28034 07222 12240 81814 10120 20110 30047 40078 56016 60057 71066 8557/ 90300=
07222,1997-11-28 06:00:00,13,1007.2,-0.6,100,13,10000,22.224,,,230,11.3,12.8,,,,,,,,61,wg-a,,,,AAXX 28064 07222 02260 82312 10130 20130 30041 40072 55006 61000 76166 8677/ 90600 333 10128 20113 6007=
07222,1997-11-28 09:00:00,13,1008.1,0.9,94,12,12000,14.816,,,220,,,,,,,,,,1,wg-a,,,,AAXX 28094 07222 02562 32208 10130 20120 30050 40081 53009 61000 70161 83800 90900 333 ////=
07222,1997-11-28 12:00:00,15,1008,-0.1,82,12,20000,22.224,,,240,,,,,,,,,,1,wg-a,,,,AAXX 28124 07222 02570 /2412 10150 20120 30049 40080 58001 61000 70161 85200 91200 333 ////=
07222,1997-11-28 15:00:00,12,1007,-1,88,10,20000,14.816,,,220,,,,6,,,,,,21,wg-a,,,,AAXX 28154 07222 12470 62208 10120 20100 30039 40070 56010 60067 72162 86900 91500=
07222,1997-11-28 18:00:00,12,1006.4,-0.6,88,10,10000,22.224,,,220,11.2,15.8,,,,,,,,21,wg-a,,,,AAXX 28184 07222 02560 72212 10120 20100 30033 40064 56006 61000 72162 879// 91800 333 10158 20112 6100=
07222,1997-11-28 21:00:00,12,1006.6,0.2,88,10,15000,29.632,,,250,,,,6,,,,,,21,wg-a,,,,AAXX 28214 07222 12465 62516 10120 20100 30035 40066 53002 60067 72162 86900 92100=
07222,1997-11-29 00:00:00,11,1008.7,2.1,94,10,10000,22.224,,,250,,,,0,,,,,,1,wg-a,,,,AAXX 29004 07222 02560 32512 10110 20100 30056 40087 51021 60066 70161 83800 90000 333 60007=
07222,1997-11-29 03:00:00,9,1008.9,0.1,100,9,10000,11.112,,,220,,,,,,,,,,25,wg-a,,,,AAXX 29034 07222 02560 42206 10090 20090 30057 40089 50001 61000 72500 84800 90300 333 ////=
07222,1997-11-29 06:00:00,9,1008.7,-0.2,100,9,11000,14.816,,,210,8.5,12.1,,,,,12,,,,wg-a,,,,AAXX 29064 07222 02/61 /2108 10090 20090 30055 40087 55002 60006 90600 333 10121 20085 60124=
07222,1997-11-29 09:00:00,9,1009.2,0.5,93,8,18000,11.112,,,180,,,,2,,,,,,1,wg-a,,,,AAXX 29094 07222 12568 /1806 10090 20080 30060 40092 51005 60027 70186 83902 90900=
07222,1997-11-29 15:00:00,13,1007.9,-0.3,77,9,500,18.52,,,270,,,,,,,,,,,wg-a,,,,AAXX 29154 07222 12500 42710 10130 20090 30048 40079 55003 60006 83202 91500=
07222,1997-11-29 18:00:00,9,1009.7,1.7,87,7,500,14.816,,,310,8.2,13.1,,,,,,,,25,wg-a,,,,AAXX 29184 07222 02600 23108 10090 20070 30065 40097 53017 61000 72586 82501 91800 333 10131 20082 6100=
07222,1997-11-29 21:00:00,8,1011.5,1.8,93,7,20000,14.816,,,290,,,,,,,,,,,wg-a,,,,AAXX 29214 07222 12/70 02908 10080 20070 30083 40115 51018 60006 80000 92100=
07222,1997-11-30 00:00:00,8,1012.8,1.3,93,7,10000,11.112,,,290,,,,,,,,,,,wg-a,,,,AAXX 30004 07222 12/60 /2906 10080 20070 30096 40128 51013 60006 90000=
07222,1997-11-30 06:00:00,9,1013.6,0.3,93,8,10000,18.52,,,290,7.7,9.2,,,,,4,,,,wg-a,,,,AAXX 30064 07222 02/60 02910 10090 20080 30104 40136 52003 60006 80000 90600 333 10092 20077 60044=
07222,1997-11-30 09:00:00,9,1015.2,1.6,93,8,40000,22.224,,,290,,,,,,,,,,,wg-a,,,,AAXX 30094 07222 12582 /2912 10090 20080 30120 40152 52016 60006 81800 90900=
07222,1997-11-30 12:00:00,13,1015.8,0.7,77,9,50000,22.224,,,300,,,,,,,,,,,wg-a,,,,AAXX 30124 07222 12584 /3012 10130 20090 30127 40158 51007 60006 81800 91200=
07222,1997-11-30 15:00:00,12,1016.3,0.5,82,9,500,18.52,,,300,,,,,,,,,,,wg-a,,,,AAXX 30154 07222 12500 73010 10120 20090 30132 40163 53005 60006 878// 91500=
07222,1997-11-30 18:00:00,10,1017.9,1.5,87,8,20000,11.112,,,310,8.5,13.1,,,,,,,,,wg-a,,,,AAXX 30184 07222 12770 43106 10100 20080 30147 40179 53015 60006 84500 91800 333 10131 20085=
07222,1997-11-30 21:00:00,8,1019.1,1.2,93,7,15000,7.408,,,310,,,,,,,,,,,wg-a,,,,AAXX 30214 07222 12465 33104 10080 20070 30159 40191 53012 60006 83500 92100=
07222,1997-12-01 00:00:00,6,1019.5,0.4,100,6,12000,7.408,,,300,,,,,,,,,,,wg-a,,,,AAXX 01004 07222 12762 43004 10060 20060 30163 40195 53004 60006 82501 90000=
07222,1997-12-01 03:00:00,5,1019.3,-0.2,100,5,500,3.704,,,220,,,,,,,,,,,wg-a,,,,AAXX 01034 07222 12/00 /2202 10050 20050 30161 40193 58002 60006 90300=
07222,1997-12-01 06:00:00,5,1018.1,-1.2,100,5,3000,7.408,,,180,4,10.1,,,,,,,,10,wg-a,,,,AAXX 01064 07222 02130 71804 10050 20050 30149 40181 56012 60006 71041 8263/ 90600 333 10101 20040 60004=
07222,1997-12-01 09:00:00,7,1017.1,-1,100,7,3000,7.408,,,150,,,,0,,,,,,10,wg-a,,,,AAXX 01094 07222 12430 81504 10070 20070 30139 40171 58010 60007 71062 8387/ 90900=
07222,1997-12-01 12:00:00,10,1013.6,-3.5,93,9,8000,18.52,,,160,,,,0,,,,,,61,wg-a,,,,AAXX 01124 07222 02258 71610 10100 20090 30104 40136 58035 60016 76162 878// 91200 333 60007=
07222,1997-12-01 15:00:00,10,1010.4,-3.2,93,9,7000,18.52,,,180,,,,0,,,,,,60,wg-a,,,,AAXX 01154 07222 12457 71810 10100 20090 30072 40104 56032 60007 76062 875// 91500=
07222,1997-12-01 18:00:00,9,1007,-3.3,100,9,7000,22.224,,,180,4.8,10.2,,,,,,,,51,wg-a,,,,AAXX 01184 07222 02257 81812 10090 20090 30039 40070 56033 61000 75165 877// 91800 333 10102 20048 6001=
07222,1997-12-01 21:00:00,12,1003.4,-3.6,94,11,6000,22.224,,,270,,,,2,,,,,,61,wg-a,,,,AAXX 01214 07222 12456 82712 10120 20110 30003 40034 57036 60027 76165 877// 92100=
07222,1997-12-02 00:00:00,11,1002.3,-1.1,82,8,10000,31.484,,,300,,,,,,,,,,2,wg-a,,,,AAXX 02004 07222 02560 73017 10110 20080 39992 40023 55011 60026 70265 875// 90000 333 61000=
07222,1997-12-02 03:00:00,9,1002.6,0.3,87,7,10000,25.928,,,300,,,,,,,,,,,wg-a,,,,AAXX 02034 07222 12560 53014 10090 20070 39995 40026 53003 60006 85800 90300=
07222,1997-12-02 06:00:00,7,1004.4,1.7,87,5,15000,25.928,,,320,7.4,11.9,,,,,3,,,,wg-a,,,,AAXX 02064 07222 02565 33214 10070 20050 30012 40044 53017 60006 83200 90600 333 10119 20074 60034=
07222,1997-12-02 09:00:00,7,1007.4,3,81,4,15000,22.224,,,320,,,,,,,,,,21,wg-a,,,,AAXX 02094 07222 02565 53212 10070 20040 30042 40074 53030 61000 72161 85800 90900 333 ////=
07222,1997-12-02 12:00:00,8,1009.9,2.5,57,0,25000,29.632,,51.856,340,,,,0,,,,,,1,wg-a,,,,AAXX 02124 07222 02675 33416 10080 20000 30067 40099 51025 60006 70161 83100 91200 333 60007 91028=
07222,1997-12-02 15:00:00,8,1011.5,1.6,53,-1,25000,22.224,,40.744,340,,,,,,,,,,,wg-a,,,,AAXX 02154 07222 12675 23412 10080 21010 30083 40115 53016 60006 82100 91500 333 91022=
07222,1997-12-02 18:00:00,5,1012.5,1,65,-1,20000,11.112,,,310,4.5,7.9,,,,,,,,,wg-a,,,,AAXX 02184 07222 12670 /3106 10050 21010 30093 40125 51010 60006 81100 91800 333 10079 20045=
07222,1997-12-02 21:00:00,4,1012.4,-0.1,75,0,12000,7.408,,,280,,,,,,,,,,60,wg-a,,,,AAXX 02214 07222 02662 72804 10040 20000 30092 40124 58001 61000 76061 85530 92100 333 ////=
07222,1997-12-03 00:00:00,2,1013.8,1.3,93,1,15000,7.408,,,310,,,,0,,,,,,1,wg-a,,,,AAXX 03004 07222 02465 43104 10020 20010 30105 40138 53013 60006 70161 84700 90000 333 60007=
07222,1997-12-03 03:00:00,1,1014.4,0.6,100,1,15000,11.112,,,320,,,,,,,,,,,wg-a,,,,AAXX 03034 07222 12/65 03206 10010 20010 30111 40144 51006 60006 80000 90300=
07222,1997-12-03 06:00:00,0,1015.5,1.1,93,-1,15000,7.408,,,340,-0.2,5,,,,,1,,,,wg-a,,,,AAXX 03064 07222 02/65 03404 10000 21010 30122 40155 53011 60006 80000 90600 333 10050 21002 60014=
07222,1997-12-03 12:00:00,6,1017.9,0.7,81,3,500,11.112,,,40,,,,,,,,,,,wg-a,,,,AAXX 03124 07222 12400 20406 10060 20030 30147 40179 50007 60006 81101 91200=
07222,1997-12-03 15:00:00,7,1017.9,-0,76,3,500,7.408,,,40,,,,,,,,,,,wg-a,,,,AAXX 03154 07222 12500 /0404 10070 20030 30147 40179 55000 60006 86800 91500=
07222,1997-12-03 18:00:00,3,1018.4,0.4,93,2,12000,3.704,,,360,-0.8,6.9,,,,,,,,,wg-a,,,,AAXX 03184 07222 12762 13602 10030 20020 30151 40184 52004 60006 81500 91800 333 10069 21008=
07222,1997-12-04 00:00:00,0,1019.2,0.4,100,0,12000,3.704,,,10,,,,,,,,,,,wg-a,,,,AAXX 04004 07222 12/62 00102 10000 20000 30159 40192 51004 60006 80000 90000=
07222,1997-12-04 03:00:00,-1,1019.1,-0.1,93,-2,12000,7.408,,,20,,,,,,,,,,,wg-a,,,,AAXX 04034 07222 12/62 00204 11010 21020 30158 40191 55001 60006 80000 90300=
07222,1997-12-04 06:00:00,-1,1018.9,-0.2,100,-1,4000,7.408,,,340,-2.1,2.9,,,,,,,,10,wg-a,,,,AAXX 04064 07222 02/40 03404 11010 21010 30156 40189 56002 60006 71000 80000 90600 333 10029 21021 60004=
07222,1997-12-04 09:00:00,0,1019.5,0.6,100,0,3500,7.408,,,360,,,,,,,,,,10,wg-a,,,,AAXX 04094 07222 12/35 73604 10000 20000 30162 40195 53006 60006 71011 81042 90900=
07222,1997-12-04 12:00:00,5,1019,-0.4,87,3,12000,14.816,,,10,,,,0,,,,,,,wg-a,,,,AAXX 04124 07222 02762 70108 10050 20030 30158 40190 58004 60006 81542 91200 333 60007=
07222,1997-12-04 15:00:00,6,1018.3,-0.7,81,3,12000,11.112,,,10,,,,,,,,,,,wg-a,,,,AAXX 04154 07222 12662 70106 10060 20030 30151 40183 56007 60006 875// 91500=
07222,1997-12-04 18:00:00,3,1019.6,1.2,87,1,15000,11.112,,,40,-2,6.4,,,,,,,,,wg-a,,,,AAXX 04184 07222 12565 30406 10030 20010 30163 40196 51012 60006 83500 91800 333 10064 21020=
07222,1997-12-04 21:00:00,3,1021.2,1.6,81,0,15000,7.408,,,40,,,,,,,,,,,wg-a,,,,AAXX 04214 07222 12565 70404 10030 20000 30179 40212 51016 60006 875// 92100=
07222,1997-12-05 00:00:00,3,1021.7,0.5,81,0,10000,11.112,,,30,,,,,,,,,,,wg-a,,,,AAXX 05004 07222 12560 70306 10030 20000 30184 40217 50005 60006 875// 90000=
07222,1997-12-05 03:00:00,3,1022,0.3,81,0,10000,11.112,,,40,,,,,,,,,,,wg-a,,,,AAXX 05034 07222 12560 70406 10030 20000 30187 40220 50003 60006 875// 90300=
07222,1997-12-05 06:00:00,3,1022.9,0.9,81,0,10000,11.112,,,50,1,3.4,,,,,,,,,wg-a,,,,AAXX 05064 07222 02460 70506 10030 20000 30196 40229 50009 60006 875// 90600 333 10034 20010 60004=
07222,1997-12-05 09:00:00,3,1024.6,1.7,87,1,6000,11.112,,,60,,,,,,,,,,,wg-a,,,,AAXX 05094 07222 12456 70606 10030 20010 30213 40246 51017 60006 875// 90900=
07222,1997-12-05 12:00:00,5,1025.1,0.5,70,0,20000,14.816,,,50,,,,,,,,,,,wg-a,,,,AAXX 05124 07222 12570 20508 10050 20000 30218 40251 51005 60006 82500 91200=
07222,1997-12-05 15:00:00,5,1024.9,-0.2,65,-1,20000,7.408,,,50,,,,,,,,,,,wg-a,,,,AAXX 05154 07222 12/70 20504 10050 21010 30216 40249 55002 60006 80001 91500=
07222,1997-12-05 18:00:00,2,1026.3,1.4,87,0,8000,3.704,,,30,1.9,5.7,,,,,,,,,wg-a,,,,AAXX 05184 07222 12/58 /0302 10020 20000 30230 40263 53014 60006 80001 91800 333 10057 20019=
07222,1997-12-05 21:00:00,1,1026.9,0.6,86,-1,500,7.408,,,80,,,,,,,,,,,wg-a,,,,AAXX 05214 07222 12/00 /0804 10010 21010 30236 40269 51006 60006 80000 92100=
07222,1997-12-06 00:00:00,-1,1027,0.1,93,-2,500,3.704,,,90,,,,,,,,,,,wg-a,,,,AAXX 06004 07222 12/00 00902 11010 21020 30237 40270 50001 60006 80000 90000=
07222,1997-12-06 03:00:00,-3,1027.1,-0,93,-4,400,7.408,,,110,,,,,,,,,,45,wg-a,,,,AAXX 06034 07222 12/04 91104 11030 21040 30237 40271 55000 60006 74541 89/// 90300=
07222,1997-12-06 06:00:00,-3,1026.9,-0.2,100,-3,500,7.408,,,110,-3.4,2.2,,,,,,,,49,wg-a,,,,AAXX 06064 07222 02/05 91104 11030 21030 30235 40269 55002 60006 74941 89/// 90600 333 10022 21034 60004=
07222,1997-12-06 09:00:00,-2,1027.2,0.3,100,-2,1000,7.408,,,140,,,,,,,,,,10,wg-a,,,,AAXX 06094 07222 12110 81404 11020 21020 30238 40272 53003 60006 71042 886// 90900=
07222,1997-12-06 12:00:00,-1,1026.5,-0.6,100,-1,400,7.408,,,150,,,,,,,,,,45,wg-a,,,,AAXX 06124 07222 12/04 91504 11010 21010 30232 40265 58006 60006 74542 89/// 91200=
07222,1997-12-06 15:00:00,-1,1025.1,-1.4,100,-1,900,7.408,,,170,,,,,,,,,,44,wg-a,,,,AAXX 06154 07222 12109 /1704 11010 21010 30218 40251 56014 60006 74442 876// 91500=
07222,1997-12-06 18:00:00,-2,1025.1,-0,100,-2,300,7.408,,,150,,-0.3,,,,,,,,45,wg-a,,,,AAXX 06184 07222 12/03 91504 11020 21020 30218 40251 55000 60006 74542 89/// 91800 333 11003=
07222,1997-12-06 21:00:00,-3,1024,-1.1,100,-3,600,3.704,,,120,,,,,,,,,,48,wg-a,,,,AAXX 06214 07222 12006 91202 11030 21030 30207 40240 58011 60006 74844 896// 92100=
07222,1997-12-07 00:00:00,-4,1022.5,-1.6,100,-4,3000,7.408,,,120,,,,,,,,,,10,wg-a,,,,AAXX 07004 07222 12130 31204 11040 21040 30191 40225 58016 60006 71041 83600 90000=
07222,1997-12-07 06:00:00,-3,1017.8,-3,100,-3,6000,11.112,,,140,-4.3,-1.5,,,,,,,,,wg-a,,,,AAXX 07064 07222 02/56 21406 11030 21030 30145 40178 56030 60006 80001 90600 333 11015 21043 60004=
07222,1997-12-07 09:00:00,-1,1017.6,-0.2,100,-1,500,11.112,,,140,,,,,,,,,,,wg-a,,,,AAXX 07094 07222 12/00 41406 11010 21010 30143 40176 56002 60006 82031 90900=
07222,1997-12-07 12:00:00,2,1015.9,-1.7,93,1,500,14.816,,,170,,,,0,,,,,,,wg-a,,,,AAXX 07124 07222 02200 71708 10020 20010 30126 40159 58017 60006 876// 91200 333 60007=
07222,1997-12-07 15:00:00,2,1012.6,-3.3,100,2,600,22.224,,,150,,,,,,,,,,44,wg-a,,,,AAXX 07154 07222 12/06 91512 10020 20020 30093 40126 56033 60006 74442 89/// 91500=
07222,1997-12-07 18:00:00,3,1011.9,-0.6,100,3,4500,18.52,,,160,-3,3,,,,,,,,10,wg-a,,,,AAXX 07184 07222 02245 81610 10030 20030 30087 40119 58006 61000 71064 8/77/ 91800 333 10030 21030 6100=
07222,1997-12-07 21:00:00,6,1010.2,-1.7,100,6,500,22.224,,,180,,,,2,,,,,,58,wg-a,,,,AAXX 07214 07222 12300 81812 10060 20060 30070 40102 56017 60027 75866 875// 92100=
07222,1997-12-08 00:00:00,8,1009.8,-0.4,100,8,8000,14.816,,,180,,,,0,,,,,,3,wg-a,,,,AAXX 08004 07222 02458 51808 10080 20080 30066 40098 57004 60026 70365 85500 90000 333 60007=
07222,1997-12-08 03:00:00,8,1009.4,-0.4,100,8,10000,14.816,,,180,,,,,,,,,,,wg-a,,,,AAXX 08034 07222 12560 71808 10080 20080 30062 40094 57004 60006 875// 90300=
07222,1997-12-08 06:00:00,8,1008.9,-0.5,100,8,10000,14.816,,,180,3,8.5,,,,,2,,,,wg-a,,,,AAXX 08064 07222 02560 51808 10080 20080 30057 40089 56005 60006 85500 90600 333 10085 20030 60024=
07222,1997-12-08 09:00:00,10,1009.2,0.4,100,10,6000,14.816,,,190,,,,,,,,,,,wg-a,,,,AAXX 08094 07222 12556 /1908 10100 20100 30061 40092 53004 60006 86200 90900=
07222,1997-12-08 12:00:00,14,1007.5,-1.7,88,12,15000,29.632,,,220,,,,,,,,,,25,wg-a,,,,AAXX 08124 07222 02465 62216 10140 20120 30044 40075 58017 61000 72586 86800 91200 333 6100=
07222,1997-12-08 15:00:00,9,1006.5,-1,100,9,15000,18.52,,,210,,,,2,,,,,,21,wg-a,,,,AAXX 08154 07222 12465 62110 10090 20090 30034 40065 56010 60027 72186 86800 91500=
07222,1997-12-08 18:00:00,8,1008.4,1.8,93,7,15000,11.112,,,240,8.2,14.1,,1,,,,,,1,wg-a,,,,AAXX 08184 07222 02465 32406 10080 20070 30052 40084 53018 60006 70186 83200 91800 333 10141 20082 60017=
07222,1997-12-08 21:00:00,7,1010.3,1.9,100,7,15000,3.704,,,270,,,,,,,,,,,wg-a,,,,AAXX 08214 07222 12465 22702 10070 20070 30071 40103 52019 60006 82100 92100=
07222,1997-12-09 00:00:00,6,1011.5,1.2,100,6,11000,11.112,,,200,,,,,,,,,,,wg-a,,,,AAXX 09004 07222 12/61 /2006 10060 20060 30083 40115 51012 60006 90000=
07222,1997-12-09 03:00:00,6,1012.8,1.3,100,6,12000,7.408,,,210,,,,0,,,,,,,wg-a,,,,AAXX 09034 07222 12562 42104 10060 20060 30096 40128 53013 60007 84500 90300=
07222,1997-12-09 06:00:00,6,1013.8,1,100,6,10000,11.112,,,200,4.7,8.3,,,,,4,,,,wg-a,,,,AAXX 09064 07222 02560 42006 10060 20060 30106 40138 51010 60006 81531 90600 333 10083 20047 60044=
07222,1997-12-09 09:00:00,8,1014.7,0.9,100,8,12000,11.112,,,190,,,,,,,,,,,wg-a,,,,AAXX 09094 07222 12562 61906 10080 20080 30115 40147 51009 60006 81132 90900=
07222,1997-12-09 12:00:00,13,1015.5,0.9,88,11,15000,14.816,,,230,,,,,,,,,,,wg-a,,,,AAXX 09124 07222 12465 72308 10130 20110 30124 40155 50009 60006 8653/ 91200=
07222,1997-12-09 18:00:00,11,1015.7,-0.2,94,10,15000,11.112,,,200,5,13,,,,,,,,,wg-a,,,,AAXX 09184 07222 12465 72006 10110 20100 30125 40157 56002 60006 8357/ 91800 333 10130 20050=
07222,1997-12-09 21:00:00,11,1015.3,-0.4,94,10,10000,18.52,,,210,,,,,,,,,,,wg-a,,,,AAXX 09214 07222 12460 72110 10110 20100 30121 40153 58004 60006 81531 92100=
07222,1997-12-10 00:00:00,12,1014.2,-1,94,11,10000,18.52,,,210,,,,,,,,,,,wg-a,,,,AAXX 10004 07222 12460 72110 10120 20110 30111 40142 58010 60006 8557/ 90000=
07222,1997-12-10 03:00:00,12,1013,-1.2,100,12,10000,25.928,,,210,,,,,,,,,,61,wg-a,,,,AAXX 10034 07222 02260 82114 10120 20120 30099 40130 58012 61000 76162 8677/ 90300 333 ////=
07222,1997-12-10 06:00:00,12,1010.5,-2.5,100,12,500,29.632,,50.004,210,10.4,12.5,,,,,,,,61,wg-a,,,,AAXX 10064 07222 02200 82116 10120 20120 30074 40105 56025 61000 76162 877// 90600 333 10125 20104 6006 91027=
07222,1997-12-10 09:00:00,12,1010.6,0.1,100,12,3000,22.224,,,230,,,,12,,,,,,51,wg-a,,,,AAXX 10094 07222 12230 82312 10120 20120 30075 40106 53001 60127 75166 877// 90900=
07222,1997-12-10 12:00:00,14,1011.7,1.1,100,14,3000,29.632,,,260,,,,1,,,,,,50,wg-a,,,,AAXX 10124 07222 02230 82616 10140 20140 30086 40117 53011 60146 75065 877// 91200 333 60017=
07222,1997-12-10 18:00:00,13,1013.9,1.4,100,13,3000,14.816,,,240,12,14.3,,,,,,,,50,wg-a,,,,AAXX 10184 07222 02130 82408 10130 20130 30108 40139 53014 61000 75052 877// 91800 333 10143 20120 6000=
07222,1997-12-10 21:00:00,13,1014,0.1,100,13,500,18.52,,,220,,,,0,,,,,,20,wg-a,,,,AAXX 10214 07222 12200 82210 10130 20130 30109 40140 50001 60007 72052 885// 92100=
07222,1997-12-11 00:00:00,14,1012.4,-1.6,100,14,4000,25.928,,,220,,,,2,,,,,,10,wg-a,,,,AAXX 11004 07222 02240 82214 10140 20140 30093 40124 58016 60036 71065 887// 90000 333 60027=
07222,1997-12-11 03:00:00,14,1012.2,-0.2,100,14,3000,29.632,,,250,,,,8,,,,,,10,wg-a,,,,AAXX 11034 07222 12230 82516 10140 20140 30091 40122 57002 60087 71066 887// 90300=
07222,1997-12-11 06:00:00,14,1011,-1.2,100,14,4000,25.928,,,240,13,14.3,,,,,,,,10,wg-a,,,,AAXX 11064 07222 02240 82414 10140 20140 30079 40110 58012 61000 71066 887// 90600 333 10143 20130 6032=
07222,1997-12-11 09:00:00,14,1011.6,0.6,100,14,2500,25.928,,,250,,,,8,,,,,,58,wg-a,,,,AAXX 11094 07222 12225 82514 10140 20140 30085 40116 51006 60087 75866 887// 90900=
07222,1997-12-11 12:00:00,,1,-0.5,,,10000,25.928,,,250,,,,,,,,,,21,wg-a,,,,AAXX 11124 07222 02260 82514 1//// 2//// 30080 58005 61000 72165 8557/ 91200 333 ////=
07222,1997-12-11 15:00:00,14,1011.1,-0,88,12,10000,25.928,,,260,,,,1,,,,,,3,wg-a,,,,AAXX 11154 07222 12460 82614 10140 20120 30080 40111 55000 60017 70362 875// 91500=
07222,1997-12-11 21:00:00,,1,1.8,,,15000,18.52,,,270,,,,,,,,,,,wg-a,,,,AAXX 11214 07222 32765 42710 1//// 2//// 30112 53018 8450/ 92100=
07222,1997-12-12 00:00:00,,1,2.4,,,15000,14.816,,,280,,,,,,,,,,,wg-a,,,,AAXX 12004 07222 12765 12808 1//// 2//// 30136 51024 60006 8150/ 90000=
07222,1997-12-12 03:00:00,,1,2.1,,,15000,14.816,,,300,,,,,,,,,,,wg-a,,,,AAXX 12034 07222 32/65 03008 1//// 2//// 30157 52021 80000 90300=
07222,1997-12-12 06:00:00,,1,1.9,,,15000,14.816,,,300,,,,,,,,,,,wg-a,,,,AAXX 12064 07222 12/65 03008 1//// 2//// 30176 53019 60006 80000 90600=
07222,1997-12-12 12:00:00,10,1025.4,1.6,82,7,25000,14.816,,,310,,,,,,,,,,,wg-a,,,,AAXX 12124 07222 12475 33108 10100 20070 30222 40254 51016 60006 81101 91200=
07222,1997-12-12 18:00:00,9,1029.2,2.7,81,6,25000,3.704,,,320,6.5,11.4,,,,,,,,,wg-a,,,,AAXX 12184 07222 12675 33202 10090 20060 30260 40292 52027 60006 83500 91800 333 10114 20065=
07222,1997-12-12 21:00:00,6,1030.7,1.4,93,5,20000,7.408,,,330,,,,,,,,,,,wg-a,,,,AAXX 12214 07222 12770 63304 10060 20050 30274 40307 51014 60006 82531 92100=
07222,1997-12-13 00:00:00,5,1031.1,0.4,93,4,20000,3.704,,,310,,,,,,,,,,,wg-a,,,,AAXX 13004 07222 12770 73102 10050 20040 30278 40311 52004 60006 81531 90000=
07222,1997-12-13 06:00:00,3,1032.2,0.5,100,3,10000,3.704,,,10,2.3,8.4,,,,,11,,,,wg-a,,,,AAXX 13064 07222 02760 70102 10030 20030 30289 40322 53005 60006 875// 90600 333 10084 20023 60114=
07222,1997-12-13 09:00:00,2,1033.7,1.5,100,2,10000,3.704,,,340,,,,0,,,,,,,wg-a,,,,AAXX 13094 07222 12760 13402 10020 20020 30304 40337 53015 60007 81500 90900=
07222,1997-12-13 12:00:00,10,1033.8,0.2,66,4,20000,11.112,,,100,,,,,,,,,,,wg-a,,,,AAXX 13124 07222 12/70 21006 10100 20040 30306 40338 50002 60006 80001 91200=
07222,1997-12-13 15:00:00,9,1033.5,-0.3,61,2,500,14.816,,,80,,,,,,,,,,,wg-a,,,,AAXX 13154 07222 12700 10808 10090 20020 30303 40335 55003 60006 81401 91500=
07222,1997-12-13 18:00:00,5,1034,0.4,81,2,25000,3.704,,,90,1.8,10.4,,,,,,,,,wg-a,,,,AAXX 13184 07222 12/75 00902 10050 20020 30307 40340 53004 60006 80000 91800 333 10104 20018=
07222,1997-12-14 00:00:00,2,1033.6,-0.4,93,1,10000,7.408,,,80,,,,,,,,,,,wg-a,,,,AAXX 14004 07222 12/60 /0804 10020 20010 30303 40336 58004 60006 90000=
07222,1997-12-14 03:00:00,2,1032.5,-1.1,93,1,10000,14.816,,,90,,,,,,,,,,,wg-a,,,,AAXX 14034 07222 12/60 70908 10020 20010 30292 40325 56011 60006 85032 90300=
07222,1997-12-14 06:00:00,3,1030.8,-1.7,93,2,10000,14.816,,,90,1.8,5.3,,,,,,,,,wg-a,,,,AAXX 14064 07222 02/60 /0908 10030 20020 30275 40308 56017 60006 90600 333 10053 20018 60004=
07222,1997-12-14 09:00:00,3,1030.9,0.1,93,2,10000,11.112,,,70,,,,,,,,,,,wg-a,,,,AAXX 14094 07222 12760 60706 10030 20020 30276 40309 51001 60006 86500 90900=
07222,1997-12-14 12:00:00,6,1029.6,-1.3,75,2,15000,25.928,,,80,,,,,,,,,,,wg-a,,,,AAXX 14124 07222 12/65 10814 10060 20020 30263 40296 58013 60006 81031 91200=
07222,1997-12-14 15:00:00,7,1027.1,-2.4,66,1,20000,18.52,,,80,,,,,,,,,,,wg-a,,,,AAXX 14154 07222 12/70 10810 10070 20010 30239 40271 56024 60006 81030 91500=
07222,1997-12-14 18:00:00,4,1026.1,-1.1,81,1,15000,18.52,,,60,2.9,7.6,,,,,,,,,wg-a,,,,AAXX 14184 07222 12/65 00610 10040 20010 30228 40261 57011 60006 80000 91800 333 10076 20029=
07222,1997-12-14 21:00:00,4,1025.9,-0.2,87,2,10000,14.816,,,60,,,,,,,,,,,wg-a,,,,AAXX 14214 07222 12/60 00608 10040 20020 30226 40259 57002 60006 80000 92100=
07222,1997-12-15 00:00:00,2,1025,-0.9,93,1,10000,7.408,,,50,,,,,,,,,,,wg-a,,,,AAXX 15004 07222 12/60 00504 10020 20010 30217 40250 58009 60006 80000 90000=
07222,1997-12-15 06:00:00,3,1023.7,-0.6,93,2,12000,14.816,,,50,0.6,4.4,,,,,,,,,wg-a,,,,AAXX 15064 07222 02/62 00508 10030 20020 30204 40237 56006 60006 80000 90600 333 10044 20006 60004=
07222,1997-12-15 09:00:00,3,1024,0.3,93,2,15000,22.224,,,50,,,,,,,,,,,wg-a,,,,AAXX 15094 07222 12/65 00512 10030 20020 30207 40240 52003 60006 80000 90900=
07222,1997-12-15 12:00:00,5,1023.5,-0.5,70,0,18000,29.632,,,70,,,,,,,,,,,wg-a,,,,AAXX 15124 07222 12568 40716 10050 20000 30202 40235 58005 60006 84200 91200=
07222,1997-12-15 15:00:00,4,1022.6,-0.9,75,0,18000,25.928,,,60,,,,,,,,,,,wg-a,,,,AAXX 15154 07222 12568 70614 10040 20000 30193 40226 56009 60006 87500 91500=
07222,1997-12-15 18:00:00,4,1022.3,-0.3,70,-1,15000,22.224,,,50,2.1,5.2,,,,,,,,,wg-a,,,,AAXX 15184 07222 12565 70512 10040 21010 30190 40223 58003 60006 878// 91800 333 10052 20021=
07222,1997-12-16 00:00:00,4,1019.8,-1.6,60,-3,11000,31.484,,,70,,,,,,,,,,,wg-a,,,,AAXX 16004 07222 12/61 /0717 10040 21030 30165 40198 56016 60006 90000=
07222,1997-12-16 03:00:00,3,1016.9,-2.9,65,-3,12000,31.484,,,60,,,,,,,,,,,wg-a,,,,AAXX 16034 07222 12662 80617 10030 21030 30136 40169 57029 60006 885// 90300=
07222,1997-12-16 06:00:00,2,1014.4,-2.5,69,-3,12000,25.928,,,60,2.1,3.9,,,,,,,,,wg-a,,,,AAXX 16064 07222 02662 70614 10020 21030 30111 40144 56025 60006 875// 90600 333 10039 20021 60004=
07222,1997-12-16 15:00:00,0,1004.9,-3.8,93,-1,4500,29.632,,,70,,,,,,,,,,10,wg-a,,,,AAXX 16154 07222 32/45 /0716 10000 21010 30017 40049 56038 710// 91500=
07222,1997-12-16 18:00:00,0,1001.2,-3.7,93,-1,1000,22.224,,53.708,70,-0.4,2.2,,,,,,,,10,wg-a,,1,,AAXX 16184 07222 02210 80712 10000 21010 39980 40012 56037 61000 71072 887// 91800 333 10022 21004 4/001 6001 91029=
07222,1997-12-16 21:00:00,1,998.9,-2.3,93,0,4500,18.52,,,110,,,,,,,,,,10,wg-a,,,,AAXX 16214 07222 32245 81110 10010 20000 39957 49989 57023 71077 887// 92100=
07222,1997-12-17 00:00:00,1,998.4,-0.5,93,0,10000,3.704,,,140,,,,,,,,,,1,wg-a,,,,AAXX 17004 07222 12360 81402 10010 20000 39952 49984 58005 60006 70172 887// 90000=
07222,1997-12-17 03:00:00,1,997.7,-0.7,100,1,10000,14.816,,,130,,,,,,,,,,,wg-a,,,,AAXX 17034 07222 32260 81308 10010 20010 39945 49977 56007 887// 90300=
07222,1997-12-17 06:00:00,0,997,-0.7,100,0,2000,14.816,,,120,-0.1,0.8,,,,,,,,10,wg-a,,0,,AAXX 17064 07222 12120 81208 10000 20000 39938 49970 58007 60006 71022 886// 90600 333 10008 21001 4/9999=
07222,1997-12-17 09:00:00,0,996.8,-0.2,100,0,1500,14.816,,,90,,,,,,,,,,10,wg-a,,,,AAXX 17094 07222 32115 80908 10000 20000 39936 49968 58002 71022 886// 90900=
07222,1997-12-17 12:00:00,3,995.2,-1.6,100,3,7000,18.52,,,80,,,,,,,,,,,wg-a,,,,AAXX 17124 07222 12257 70810 10030 20030 39920 49952 58016 60006 875// 91200=
07222,1997-12-17 15:00:00,5,991.8,-3.3,100,5,6000,22.224,,,100,,,,,,,,,,,wg-a,,,,AAXX 17154 07222 12256 71012 10050 20050 39887 49918 56033 60006 876// 91500=
07222,1997-12-17 18:00:00,6,990.7,-1.1,100,6,7000,18.52,,,100,0.2,6.2,,,,,,,,,wg-a,,,,AAXX 17184 07222 12657 /1010 10060 20060 39876 49907 58011 60006 84501 91800 333 10062 20002=
07222,1997-12-17 21:00:00,12,990,-0.7,82,9,8000,29.632,,,150,,,,,,,,,,,wg-a,,,,AAXX 17214 07222 12658 /1516 10120 20090 39869 49900 56007 60006 82501 92100=
07222,1997-12-18 00:00:00,13,989.6,-0.3,82,10,10000,29.632,,,150,,,,,,,,,,,wg-a,,,,AAXX 18004 07222 12760 71516 10130 20100 39866 49896 56003 60006 875// 90000=
07222,1997-12-18 03:00:00,13,991.2,1.5,94,12,500,29.632,,,180,,,,,,,,,,61,wg-a,,,,AAXX 18034 07222 02500 71816 10130 20120 39881 49912 53015 61000 76162 875// 90300 333 ////=
07222,1997-12-18 06:00:00,11,992.4,1.2,94,10,500,7.408,,,150,6.1,14.1,,,,,,,,63,wg-a,,,,AAXX 18064 07222 02500 71504 10110 20100 39893 49924 52012 61000 76362 875// 90600 333 10141 20061 6004=
07222,1997-12-18 09:00:00,,1,2.4,,,12000,14.816,,,160,,,,,,,,,,3,wg-a,,,,AAXX 18094 07222 12562 71608 1//// 2//// 39917 53024 60006 70362 8557/ 90900=
07222,1997-12-18 12:00:00,11,995.4,0.6,100,11,6000,11.112,,,180,,,,,,,,,,2,wg-a,,,,AAXX 18124 07222 12256 71806 10110 20110 39923 49954 52006 60006 70262 877// 91200=
07222,1997-12-18 15:00:00,12,994.6,-0.8,94,11,10000,7.408,,,140,,,,,,,,,,1,wg-a,,,,AAXX 18154 07222 12460 /1404 10120 20110 39915 49946 58008 60006 70186 82231 91500=
07222,1997-12-18 18:00:00,9,995.7,1.1,100,9,7000,3.704,,,100,8.9,12.2,,,,,,,,11,wg-a,,,,AAXX 18184 07222 12757 51002 10090 20090 39926 49957 50011 60006 71186 82531 91800 333 10122 20089=
07222,1997-12-18 21:00:00,8,996.8,1.1,100,8,600,7.408,,,130,,,,,,,,,,44,wg-a,,,,AAXX 18214 07222 12206 51304 10080 20080 39937 49968 53011 60006 74441 84601 92100=
07222,1997-12-19 00:00:00,8,996.6,-0.2,100,8,400,7.408,,,130,,,,,,,,,,45,wg-a,,,,AAXX 19004 07222 12/04 91304 10080 20080 39935 49966 58002 60006 74541 89/// 90000=
07222,1997-12-19 03:00:00,6,996.3,-0.3,100,6,600,11.112,,,110,,,,,,,,,,43,wg-a,,,,AAXX 19034 07222 12/06 91106 10060 20060 39932 49963 58003 60006 74344 89/// 90300=
07222,1997-12-19 06:00:00,8,995.6,-0.7,100,8,900,11.112,,,110,6,8.9,,,,,4,,,43,wg-a,,,,AAXX 19064 07222 02/09 91106 10080 20080 39925 49956 55007 60006 74344 89/// 90600 333 10089 20060 60044=
07222,1997-12-19 09:00:00,7,996.1,0.5,100,7,10000,14.816,,,120,,,,,,,,,,1,wg-a,,,,AAXX 19094 07222 12660 61208 10070 20070 39930 49961 53005 60006 70142 84501 90900=
07222,1997-12-19 12:00:00,12,995.3,-0.8,82,9,25000,25.928,,,140,,,,,,,,,,1,wg-a,,,,AAXX 19124 07222 12575 41414 10120 20090 39922 49953 58008 60006 70141 82802 91200=
07222,1997-12-19 15:00:00,12,994.8,-0.5,88,10,25000,18.52,,,160,,,,,,,,,,,wg-a,,,,AAXX 19154 07222 12575 61610 10120 20100 39917 49948 55005 60006 84805 91500=
07222,1997-12-19 18:00:00,11,995.3,0.5,87,9,15000,18.52,,,150,6.8,13.1,,,,,,,,,wg-a,,,,AAXX 19184 07222 12765 71510 10110 20090 39922 49953 51005 60006 8357/ 91800 333 10131 20068=
07222,1997-12-19 21:00:00,9,996.4,1.1,100,9,12000,14.816,,,160,,,,1,,,,,,21,wg-a,,,,AAXX 19214 07222 12662 81608 10090 20090 39933 49964 51011 60017 72162 875// 92100=
07222,1997-12-20 00:00:00,8,996.5,0.1,93,7,0,14.816,,,150,,,,,,,,,,,wg-a,,,,AAXX 20004 07222 12/// /1508 10080 20070 39934 49965 53001 60026 90000=
07222,1997-12-20 03:00:00,8,996.5,-0,93,7,10000,18.52,,,160,,,,0,,,,,,,wg-a,,,,AAXX 20034 07222 12760 31610 10080 20070 39934 49965 54000 60007 83500 90300=
07222,1997-12-20 06:00:00,8,996.4,-0.1,93,7,12000,18.52,,,160,6.8,10.6,,,,,2,,,3,wg-a,,,,AAXX 20064 07222 02562 /1610 10080 20070 39933 49964 57001 60006 70386 86800 90600 333 10106 20068 60024=
07222,1997-12-20 09:00:00,10,997.6,1.2,93,9,20000,22.224,,,170,,,,,,,,,,,wg-a,,,,AAXX 20094 07222 12470 71712 10100 20090 39945 49976 53012 60006 878// 90900=
07222,1997-12-20 15:00:00,11,996.4,-1.1,94,10,500,22.224,,,110,,,,3,,,,,,63,wg-a,,,,AAXX 20154 07222 12300 71112 10110 20100 39933 49964 56011 60037 76386 877// 91500=
07222,1997-12-20 18:00:00,10,1000,3.6,100,10,15000,14.816,,,10,8.1,12.7,,,,,,,,21,wg-a,,,,AAXX 20184 07222 02365 70108 10100 20100 39969 40000 53036 61000 72186 877// 91800 333 10127 20081 6004=
07222,1997-12-20 21:00:00,10,1004.5,4.5,93,9,12000,11.112,,,340,,,,,,,,,,60,wg-a,,,,AAXX 20214 07222 02362 73406 10100 20090 30014 40045 51045 61000 76062 875// 92100 333 ////=
07222,1997-12-21 00:00:00,8,1007.4,2.8,100,8,11000,7.408,,,320,,,,,,,,,,,wg-a,,,,AAXX 21004 07222 02/61 /3204 10080 20080 30042 40074 51028 61000 90000 333 ////=
07222,1997-12-21 03:00:00,8,1009.5,2.1,100,8,500,7.408,,,310,,,,0,,,,,,,wg-a,,,,AAXX 21034 07222 12400 73104 10080 20080 30063 40095 53021 60007 875// 90300=
07222,1997-12-21 06:00:00,8,1011.2,1.7,100,8,3000,3.704,,,330,7.5,10.2,,,,,7,,,10,wg-a,,,,AAXX 21064 07222 02230 73302 10080 20080 30080 40112 53017 60006 71022 875// 90600 333 10102 20075 60074=
07222,1997-12-21 09:00:00,8,1013.2,2,100,8,3000,3.704,,,300,,,,,,,,,,10,wg-a,,,,AAXX 21094 07222 12330 73002 10080 20080 30100 40132 53020 60006 71022 876// 90900=
07222,1997-12-21 12:00:00,10,1013.2,0,93,9,6000,3.704,,,60,,,,,,,,,,,wg-a,,,,AAXX 21124 07222 12356 70602 10100 20090 30100 40132 50000 60006 876// 91200=
07222,1997-12-21 15:00:00,10,1012.8,-0.4,93,9,6000,3.704,,,170,,,,,,,,,,,wg-a,,,,AAXX 21154 07222 12456 71702 10100 20090 30096 40128 55004 60006 876// 91500=
07222,1997-12-21 18:00:00,9,1012.8,0,93,8,8000,7.408,,,110,7.4,10.1,,,,,,,,,wg-a,,,,AAXX 21184 07222 12458 71104 10090 20080 30096 40128 50000 60006 876// 91800 333 10101 20074=
07222,1997-12-21 21:00:00,7,1013,0.2,100,7,7000,11.112,,,110,,,,,,,,,,,wg-a,,,,AAXX 21214 07222 12457 41106 10070 20070 30098 40130 50002 60006 82501 92100=
07222,1997-12-22 00:00:00,7,1012.8,-0.2,93,6,6000,11.112,,,140,,,,,,,,,,,wg-a,,,,AAXX 22004 07222 12256 81406 10070 20060 30096 40128 55002 60006 885// 90000=
07222,1997-12-22 03:00:00,5,1011.8,-1,100,5,500,14.816,,,100,,,,,,,,,,,wg-a,,,,AAXX 22034 07222 12100 81008 10050 20050 30086 40118 55010 60006 885// 90300=
07222,1997-12-22 06:00:00,6,1010.2,-1.6,93,5,6000,18.52,,,110,4.7,9,,,,,,,,,wg-a,,,,AAXX 22064 07222 02256 71110 10060 20050 30070 40102 56016 60006 876// 90600 333 10090 20047 60004=
07222,1997-12-22 09:00:00,5,1010.6,0.4,100,5,10000,22.224,,,100,,,,,,,,,,,wg-a,,,,AAXX 22094 07222 12760 71012 10050 20050 30074 40106 50004 60006 82536 90900=
07222,1997-12-22 12:00:00,8,1010.3,-0.3,87,6,15000,14.816,,,100,,,,,,,,,,,wg-a,,,,AAXX 22124 07222 12765 71008 10080 20060 30071 40103 58003 60006 8653/ 91200=
07222,1997-12-22 15:00:00,7,1009.4,-0.9,93,6,7000,18.52,,,90,,,,,,,,,,60,wg-a,,,,AAXX 22154 07222 02657 80910 10070 20060 30062 40094 56009 61000 76062 8657/ 91500 333 ////=
07222,1997-12-22 18:00:00,7,1011.2,1.8,93,6,10000,11.112,,,100,4.5,7.8,,,,,,,,61,wg-a,,,,AAXX 22184 07222 02560 81006 10070 20060 30080 40112 53018 61000 76162 8657/ 91800 333 10078 20045 6001=
07222,1997-12-22 21:00:00,7,1012.9,1.7,93,6,6000,7.408,,,120,,,,3,,,,,,21,wg-a,,,,AAXX 22214 07222 12456 81204 10070 20060 30097 40129 51017 60037 72162 877// 92100=
07222,1997-12-23 00:00:00,7,1015.4,2.5,100,7,3500,3.704,,,280,,,,,,,,,,10,wg-a,,,,AAXX 23004 07222 12435 82802 10070 20070 30122 40154 52025 60036 71062 877// 90000=
07222,1997-12-23 03:00:00,7,1017.4,2,100,7,3500,3.704,,,300,,,,,,,,,,10,wg-a,,,,AAXX 23034 07222 12635 73002 10070 20070 30142 40174 53020 60006 71022 875// 90300=
07222,1997-12-23 06:00:00,8,1019,1.6,93,7,10000,0,,,0,6.5,8.2,,,,,3,,,,wg-a,,,,AAXX 23064 07222 02660 70000 10080 20070 30158 40190 53016 60006 87500 90600 333 10082 20065 60034=
07222,1997-12-23 12:00:00,13,1021.8,0.3,88,11,18000,18.52,,,220,,,,,,,,,,,wg-a,,,,AAXX 23124 07222 12468 /2210 10130 20110 30187 40218 50003 60006 83530 91200=
07222,1997-12-23 18:00:00,13,1023,1.6,94,12,6000,22.224,,,220,7.1,13.4,,,,,,,,20,wg-a,,,,AAXX 23184 07222 02456 82212 10130 20120 30198 40230 53016 61000 72065 877// 91800 333 10134 20071 6000=
07222,1997-12-23 21:00:00,13,1023.9,0.9,94,12,10000,22.224,,,230,,,,,,,,,,,wg-a,,,,AAXX 23214 07222 12460 82312 10130 20120 30207 40239 53009 60006 875// 92100=
07222,1997-12-24 00:00:00,13,1024.1,0.2,94,12,10000,22.224,,,220,,,,,,,,,,,wg-a,,,,AAXX 24004 07222 12460 82212 10130 20120 30209 40241 50002 60006 875// 90000=
07222,1997-12-24 03:00:00,13,1024.2,0.1,88,11,10000,18.52,,,220,,,,,,,,,,,wg-a,,,,AAXX 24034 07222 12560 82210 10130 20110 30210 40242 50001 60006 875// 90300=
07222,1997-12-24 06:00:00,13,1023.2,-1,88,11,10000,18.52,,,210,12.3,13.1,,,,,,,,20,wg-a,,,,AAXX 24064 07222 02660 82110 10130 20110 30200 40232 56010 61000 72052 875// 90600 333 10131 20123 6002=
07222,1997-12-24 09:00:00,14,1022.6,-0.5,82,11,10000,22.224,,,200,,,,,,,,,,,wg-a,,,,AAXX 24094 07222 12660 82012 10140 20110 30195 40226 58005 60006 8557/ 90900=
07222,1997-12-24 12:00:00,13,1021.4,-1.2,88,11,15000,31.484,,,200,,,,0,,,,,,21,wg-a,,,,AAXX 24124 07222 02665 82017 10130 20110 30183 40214 58012 60016 72162 8557/ 91200 333 60007=
07222,1997-12-24 15:00:00,12,1020,-1.5,94,11,10000,31.484,,,200,,,,5,,,,,,61,wg-a,,,,AAXX 24154 07222 12460 82017 10120 20110 30168 40200 56015 60057 76162 875// 91500=
07222,1997-12-24 18:00:00,14,1020,0.1,94,13,8000,29.632,,,240,11.8,13.8,,,,,,,,21,wg-a,,,,AAXX 24184 07222 02458 82416 10140 20130 30169 40200 53001 61000 72165 875// 91800 333 10138 20118 6001=
07222,1997-12-24 21:00:00,13,1021.6,1.5,94,12,10000,18.52,,,250,,,,,,,,,,,wg-a,,,,AAXX 24214 07222 12660 32510 10130 20120 30184 40216 51015 60006 83500 92100=
07222,1997-12-25 00:00:00,12,1021.4,-0.2,100,12,7000,18.52,,,210,,,,,,,,,,,wg-a,,,,AAXX 25004 07222 12257 72110 10120 20120 30182 40214 57002 60006 876// 90000=
07222,1997-12-25 06:00:00,14,1015.9,-3,94,13,15000,29.632,,,200,10.7,13.8,,,,,,,,21,wg-a,,,,AAXX 25064 07222 02365 82016 10140 20130 30128 40159 58030 61000 72162 877// 90600 333 10138 20107 6007=
07222,1997-12-25 09:00:00,14,1015.3,-0.6,94,13,2000,31.484,,,220,,,,4,,,,,,63,wg-a,,,,AAXX 25094 07222 12220 82217 10140 20130 30122 40153 56006 60047 76362 875// 90900=
07222,1997-12-25 12:00:00,15,1013,-2.3,88,13,15000,38.892,,61.116,220,,,,3,,,,,,1,wg-a,,,,AAXX 25124 07222 02465 82221 10150 20130 30099 40130 58023 60066 70162 878// 91200 333 60037 91033=
07222,1997-12-25 15:00:00,14,1012.7,-0.3,77,10,10000,38.892,,57.412,240,,,,1,,,,,,1,wg-a,,,,AAXX 25154 07222 12560 82421 10140 20100 30096 40127 55003 60017 70162 87802 91500 333 91031=
07222,1997-12-25 18:00:00,12,1014.3,1.6,82,9,15000,31.484,,51.856,240,11.5,14.7,,,,,,,,1,wg-a,,,,AAXX 25184 07222 02565 32417 10120 20090 30112 40143 51016 60006 70186 83800 91800 333 10147 20115 61000 91028=
07222,1997-12-25 21:00:00,10,1015.1,0.7,93,9,15000,18.52,,,240,,,,,,,,,,,wg-a,,,,AAXX 25214 07222 12465 72410 10100 20090 30119 40151 51007 60006 878// 92100=
07222,1997-12-26 00:00:00,11,1014.4,-0.6,82,8,12000,22.224,,,240,,,,,,,,,,,wg-a,,,,AAXX 26004 07222 12562 72412 10110 20080 30113 40144 58006 60006 8787/ 90000=
07222,1997-12-26 03:00:00,10,1014,-0.5,87,8,12000,18.52,,,240,,,,,,,,,,,wg-a,,,,AAXX 26034 07222 12562 32410 10100 20080 30108 40140 58005 60006 83200 90300=
07222,1997-12-26 06:00:00,10,1012.3,-1.7,82,7,12000,22.224,,,240,9.3,11.6,,,,,7,,,,wg-a,,,,AAXX 26064 07222 02662 32412 10100 20070 30091 40123 56017 60006 83200 90600 333 10116 20093 60074=
07222,1997-12-26 09:00:00,11,1011.5,-0.7,76,7,15000,29.632,,,250,,,,,,,,,,,wg-a,,,,AAXX 26094 07222 12565 72516 10110 20070 30084 40115 56007 60006 879// 90900=
07222,1997-12-26 12:00:00,12,1011.5,0,82,9,25000,29.632,,,260,,,,2,,,,,,25,wg-a,,,,AAXX 26124 07222 02475 52616 10120 20090 30084 40115 50000 60026 72586 84902 91200 333 60027=
07222,1997-12-26 18:00:00,8,1013,1.3,93,7,15000,14.816,,,260,7.9,12.2,,,,,,,,2,wg-a,,,,AAXX 26184 07222 12565 42608 10080 20070 30098 40130 51013 60006 70286 82902 91800 333 10122 20079=
07222,1997-12-26 21:00:00,7,1013.7,0.7,93,6,15000,11.112,,,250,,,,,,,,,,,wg-a,,,,AAXX 26214 07222 12665 22506 10070 20060 30105 40137 51007 60006 82500 92100=
07222,1997-12-27 00:00:00,7,1013.8,0.1,87,5,15000,11.112,,,250,,,,,,,,,,,wg-a,,,,AAXX 27004 07222 12/65 02506 10070 20050 30106 40138 51001 60006 80000 90000=
07222,1997-12-27 03:00:00,7,1014.2,0.4,93,6,15000,14.816,,,280,,,,,,,,,,,wg-a,,,,AAXX 27034 07222 12665 22808 10070 20060 30110 40142 53004 60006 82500 90300=
07222,1997-12-27 06:00:00,6,1015.2,1,93,5,15000,14.816,,,290,5.8,9.2,,,,,2,,,,wg-a,,,,AAXX 27064 07222 02/65 02908 10060 20050 30120 40152 53010 60006 80000 90600 333 10092 20058 60024=
07222,1997-12-27 09:00:00,7,1017,1.8,87,5,500,14.816,,,280,,,,,,,,,,,wg-a,,,,AAXX 27094 07222 12700 32808 10070 20050 30138 40170 53018 60006 81240 90900=
07222,1997-12-27 12:00:00,10,1017.2,0.2,71,5,500,22.224,,,290,,,,,,,,,,,wg-a,,,,AAXX 27124 07222 12500 /2912 10100 20050 30140 40172 50002 60006 81102 91200=
07222,1997-12-27 15:00:00,10,1017,-0.2,71,5,11000,22.224,,,280,,,,,,,,,,,wg-a,,,,AAXX 27154 07222 12/61 /2812 10100 20050 30138 40170 55002 60006 91500=
07222,1997-12-27 21:00:00,5,1018.4,0.3,93,4,15000,3.704,,,250,,,,,,,,,,,wg-a,,,,AAXX 27214 07222 12/65 02502 10050 20040 30152 40184 51003 60006 80000 92100=
07222,1997-12-28 00:00:00,4,1018,-0.4,100,4,15000,3.704,,,250,,,,,,,,,,,wg-a,,,,AAXX 28004 07222 12/65 02502 10040 20040 30148 40180 58004 60006 80000 90000=
07222,1997-12-28 03:00:00,3,1018,-0.1,100,3,12000,3.704,,,160,,,,0,,,,,,,wg-a,,,,AAXX 28034 07222 12762 71602 10030 20030 30147 40180 58001 60007 87500 90300=
07222,1997-12-28 06:00:00,2,1017,-1,100,2,800,3.704,,,190,1.8,6.6,,,,,,,,41,wg-a,,,,AAXX 28064 07222 02708 21902 10020 20020 30137 40170 56010 60006 74141 82500 90600 333 10066 20018 60004=
07222,1997-12-28 09:00:00,3,1017,-0,100,3,2000,7.408,,,150,,,,,,,,,,28,wg-a,,,,AAXX 28094 07222 12020 71504 10030 20030 30137 40170 55000 60006 72841 81502 90900=
07222,1997-12-28 12:00:00,7,1015.3,-1.6,100,7,12000,3.704,,,150,,,,,,,,,,3,wg-a,,,,AAXX 28124 07222 12762 71502 10070 20070 30121 40153 58016 60006 70341 81536 91200=
07222,1997-12-28 15:00:00,10,1013.4,-1.9,82,7,20000,7.408,,,170,,,,,,,,,,,wg-a,,,,AAXX 28154 07222 12/70 11704 10100 20070 30102 40134 56019 60006 80001 91500=
07222,1997-12-28 18:00:00,6,1013.2,-0.2,93,5,15000,11.112,,,120,1.4,10.2,,,,,,,,,wg-a,,,,AAXX 28184 07222 12465 31206 10060 20050 30100 40132 58002 60006 81531 91800 333 10102 20014=
07222,1997-12-28 21:00:00,4,1012.3,-0.9,100,4,10000,14.816,,,130,,,,,,,,,,,wg-a,,,,AAXX 28214 07222 32/60 01308 10040 20040 30091 40123 58009 80000 92100=
07222,1997-12-29 00:00:00,3,1011.6,-0.7,100,3,6000,11.112,,,140,,,,,,,,,,,wg-a,,,,AAXX 29004 07222 12/56 /1406 10030 20030 30084 40116 56007 60006 90000=
07222,1997-12-29 03:00:00,7,1011.1,-0.5,100,7,800,14.816,,,160,,,,0,,,,,,44,wg-a,,,,AAXX 29034 07222 12108 81608 10070 20070 30079 40111 58005 60007 74442 886// 90300=
07222,1997-12-29 06:00:00,6,1010.2,-0.9,100,6,6000,18.52,,,150,3.1,6.9,,,,,,,,2,wg-a,,,,AAXX 29064 07222 02156 81510 10060 20060 30070 40102 56009 60006 70242 886// 90600 333 10069 20031 60004=
07222,1997-12-29 09:00:00,6,1010.3,0.1,100,6,10000,14.816,,,130,,,,,,,,,,,wg-a,,,,AAXX 29094 07222 12760 71308 10060 20060 30071 40103 53001 60006 87500 90900=
07222,1997-12-29 12:00:00,9,1009.1,-1.2,81,6,15000,22.224,,,140,,,,,,,,,,,wg-a,,,,AAXX 29124 07222 12765 71412 10090 20060 30059 40091 58012 60006 87500 91200=
07222,1997-12-29 15:00:00,10,1007.6,-1.4,76,6,25000,22.224,,,150,,,,,,,,,,,wg-a,,,,AAXX 29154 07222 12775 51512 10100 20060 30045 40076 56014 60006 84530 91500=
07222,1997-12-29 18:00:00,9,1007.5,-0.2,81,6,20000,18.52,,,150,5.4,10.6,,,,,,,,,wg-a,,,,AAXX 29184 07222 12670 71510 10090 20060 30043 40075 56002 60006 875// 91800 333 10106 20054=
07222,1997-12-30 00:00:00,9,1006.9,-0.1,93,8,12000,22.224,,,170,,,,,,,,,,3,wg-a,,,,AAXX 30004 07222 02562 81712 10090 20080 30038 40069 58001 61000 70362 875// 90000 333 6100=
07222,1997-12-30 06:00:00,8,1007,-0,100,8,10000,14.816,,,170,7.7,9.2,,,,,,,,21,wg-a,,,,AAXX 30064 07222 02360 81708 10080 20080 30038 40070 55000 61000 72165 877// 90600 333 10092 20077 6008=
07222,1997-12-30 09:00:00,8,1007.9,0.9,100,8,6000,18.52,,,160,,,,1,,,,,,2,wg-a,,,,AAXX 30094 07222 12256 81610 10080 20080 30047 40079 53009 60017 70262 877// 90900=
07222,1997-12-30 12:00:00,10,1007.9,0.1,100,10,3000,7.408,,,180,,,,,,,,,,10,wg-a,,,,AAXX 30124 07222 02130 81804 10100 20100 30048 40079 50001 60016 71065 877// 91200 333 61000=
07222,1997-12-30 15:00:00,10,1006.9,-1,93,9,15000,11.112,,,210,,,,0,,,,,,21,wg-a,,,,AAXX 30154 07222 12565 /2106 10100 20090 30038 40069 56010 60007 72162 86801 91500=
07222,1997-12-30 18:00:00,10,1006.5,-0.4,93,9,20000,18.52,,,190,7.8,10.8,,,,,,,,3,wg-a,,,,AAXX 30184 07222 12570 71910 10100 20090 30034 40065 58004 60006 70362 83570 91800 333 10108 20078=
07222,1997-12-30 21:00:00,10,1005.4,-1.1,93,9,10000,18.52,,,190,,,,,,,,,,60,wg-a,,,,AAXX 30214 07222 02460 81910 10100 20090 30023 40054 58011 61000 76062 8657/ 92100 333 ////=
07222,1997-12-31 00:00:00,11,1003.6,-1.8,94,10,8000,31.484,,,200,,,,1,,,,,,61,wg-a,,,,AAXX 31004 07222 02458 82017 10110 20100 30005 40036 56018 60016 76162 875// 90000 333 60017=
07222,1997-12-31 06:00:00,10,1004.5,1.4,93,9,12000,18.52,,,270,9.4,10.9,,,,,,,,21,wg-a,,,,AAXX 31064 07222 02662 82710 10100 20090 30014 40045 53014 61000 72162 8757/ 90600 333 10109 20094 6008=
07222,1997-12-31 09:00:00,8,1008.2,3.6,93,7,10000,7.408,,,270,,,,,,,,,,,wg-a,,,,AAXX 31094 07222 12760 82704 10080 20070 30050 40082 53036 60006 8757/ 90900=
07222,1997-12-31 12:00:00,11,1009.5,1.4,76,7,15000,11.112,,,280,,,,,,,,,,,wg-a,,,,AAXX 31124 07222 12565 42806 10110 20070 30064 40095 51014 60006 81231 91200=
07222,1997-12-31 15:00:00,11,1010.2,0.7,62,4,20000,14.816,,,250,,,,,,,,,,,wg-a,,,,AAXX 31154 07222 12570 22508 10110 20040 30071 40102 53007 60006 82200 91500=
07222,1997-12-31 18:00:00,8,1011.8,1.5,81,5,12000,11.112,,,200,7.2,12.3,,,,,,,,,wg-a,,,,AAXX 31184 07222 12562 /2006 10080 20050 30086 40118 51015 60006 81100 91800 333 10123 20072=
07222,1997-12-31 21:00:00,6,1013.1,1.3,100,6,7000,14.816,,,230,,,,0,,,,,,80,wg-a,,,,AAXX 31214 07222 12557 /2308 10060 20060 30099 40131 53013 60007 78086 85200 92100=
