station_id,dh_utc,temperature,pression,pression_variation_3h,humidite,point_de_rosee,visibilite,vent_moyen,vent_rafales,vent_rafales_10min,vent_direction,temperature_min,temperature_max,pluie_1h,pluie_3h,pluie_6h,pluie_12h,pluie_24h,ensoleillement,temperature_sol,temps_omm,source,radiations,neige_au_sol,nebulosite,raw_msg
07607,1997-01-01 00:00:00,-1,1007.2,0.5,80,-4,8000,3.704,,,40,,,,,,,,,,,wg-a,,,,AAXX 01004 07607 12558 80402 11010 21040 39998 40072 53005 60006 8657/ 90000=
07607,1997-01-01 06:00:00,-2,1010.9,1.8,93,-3,3000,3.704,,,320,-2,-0.1,,,,,,,,22,wg-a,,2,,AAXX 01064 07607 02330 83202 11020 21030 30034 40109 53018 60004 72272 886// 90600 333 11001 21020 4/002 61000=
07607,1997-01-01 12:00:00,0,1014.1,0.7,86,-2,20000,3.704,,,90,,,,,,,,,,,wg-a,,,,AAXX 01124 07607 12470 50902 10000 21020 30067 40141 50007 60006 85500 91200=
07607,1997-01-01 18:00:00,-1,1015.3,1,93,-2,0,11.112,,,100,-2.2,1.9,,,,,,,,,wg-a,,,,AAXX 01184 07607 12/// /1006 11010 21020 30078 40153 53010 60006 91800 333 10019 21022=
07607,1997-01-02 00:00:00,-1,1014.2,-1,93,-2,0,11.112,,,90,,,,,,,,,,,wg-a,,,,AAXX 02004 07607 12/// /0906 11010 21020 30068 40142 58010 60006 90000=
07607,1997-01-02 06:00:00,0,1010.9,-1.9,93,-1,6000,11.112,,,80,-1.5,-0.4,,,,,,,,,wg-a,,,,AAXX 02064 07607 12356 70806 10000 21010 30035 40109 56019 60006 84632 90600 333 11004 21015=
07607,1997-01-02 12:00:00,1,1008.6,-1.1,86,-1,0,7.408,,,40,,,,,,,,,,,wg-a,,,,AAXX 02124 07607 12/// /0404 10010 21010 30012 40086 58011 60006 91200=
07607,1997-01-02 18:00:00,0,1005.7,-1.2,93,-1,8000,7.408,,,50,-0.6,5.3,,,,,,,,,wg-a,,,,AAXX 02184 07607 12/58 30504 10000 21010 39983 40057 58012 60006 82032 91800 333 10053 21006=
07607,1997-01-03 00:00:00,0,1002.4,-2.1,100,0,7000,11.112,,,60,,,,,,,,,,,wg-a,,,,AAXX 03004 07607 12457 80606 10000 20000 39951 40024 56021 60006 875/1 90000=
07607,1997-01-03 06:00:00,2,998.2,-1.8,93,1,500,7.408,,,50,-2.5,1.9,,,,,,,,61,wg-a,,,,AAXX 03064 07607 02200 80504 10020 20010 39909 49982 55018 61000 76122 877// 90600 333 10019 21025 6100=
07607,1997-01-03 12:00:00,2,995.8,-1.8,100,2,0,11.112,,,240,,,,,,,,,,,wg-a,,,,AAXX 03124 07607 12/// /2406 10020 20020 39886 49958 58018 60026 91200=
07607,1997-01-03 18:00:00,0,991.5,-1.4,100,0,0,18.52,,,250,0.2,2.4,,,,,,,,,wg-a,,6,,AAXX 03184 07607 32/// /2510 10000 20000 39842 49915 56014 91800 333 10024 20002 4/006=
07607,1997-01-04 00:00:00,0,994.7,2.5,100,0,1200,11.112,,,280,,,,2,,,,,,71,wg-a,,,,AAXX 04004 07607 02312 82806 10000 20000 39874 49947 53025 60116 77177 886// 90000 333 60027=
07607,1997-01-04 06:00:00,0,1001.8,3.6,93,-1,1500,0,,,0,-0.5,0.3,,0,,,28,,,20,wg-a,,17,,AAXX 04064 07607 02215 80000 10000 21010 39945 40018 53036 60284 72075 886// 90600 333 10003 21005 4/017 60007=
07607,1997-01-04 12:00:00,1,1006.3,1.3,100,1,600,3.704,,,230,,,,,,,,,,44,wg-a,,,,AAXX 04124 07607 12206 82302 10010 20010 39989 40063 50013 60006 74442 886// 91200=
07607,1997-01-04 18:00:00,1,1009.8,2.2,100,1,1500,7.408,,,210,-0.4,1.7,,1,,,,,,21,wg-a,,10,,AAXX 04184 07607 12315 82104 10010 20010 30024 40098 51022 60017 72164 886// 91800 333 10017 21004 4/010=
07607,1997-01-05 00:00:00,1,1010.7,-0.2,93,0,2000,7.408,,,90,,,,,,,,,,10,wg-a,,,,AAXX 05004 07607 02420 60904 10010 20000 30033 40107 58002 60006 71065 86500 90000 333 61000=
07607,1997-01-05 06:00:00,3,1010.1,-0.3,93,2,4000,7.408,,,180,-0.1,2.6,,,,,1,,,10,wg-a,,5,,AAXX 05064 07607 12640 61804 10030 20020 30028 40101 58003 60014 71011 86500 90600 333 10026 21001 4/005=
07607,1997-01-05 12:00:00,6,1010.5,-0.1,87,4,10000,11.112,,,210,,,,,,,,,,,wg-a,,,,AAXX 05124 07607 12460 52106 10060 20040 30033 40105 58001 60006 85800 91200=
07607,1997-01-05 18:00:00,2,1010.1,0.3,93,1,7000,3.704,,,110,0.1,6.9,,,,,,,,,wg-a,,5,,AAXX 05184 07607 12757 51102 10020 20010 30028 40101 53003 60006 84530 91800 333 10069 20001 4/005=
07607,1997-01-06 00:00:00,-1,1011.3,0.1,100,-1,7000,3.704,,,70,,,,,,,,,,,wg-a,,,,AAXX 06004 07607 12757 50702 11010 21010 30039 40113 50001 60006 855/0 90000=
07607,1997-01-06 06:00:00,-1,1011.7,0.1,100,-1,800,3.704,,,40,-1.4,2.4,,,,,,,,46,wg-a,,5,,AAXX 06064 07607 12708 70402 11010 21010 30043 40117 53001 60006 7464/ 875// 90600 333 10024 21014 4/005=
07607,1997-01-06 12:00:00,3,1013.6,0.2,93,2,3000,3.704,,,50,,,,,,,,,,10,wg-a,,,,AAXX 06124 07607 12330 70502 10030 20020 30062 40136 50002 60006 71022 83532 91200=
07607,1997-01-06 18:00:00,0,1015.3,1.2,93,-1,10000,3.704,,,30,-1.7,4.6,,,,,,,,,wg-a,,4,,AAXX 06184 07607 12/60 60302 10000 21010 30079 40153 53012 60006 81032 91800 333 10046 21017 4/004=
07607,1997-01-07 00:00:00,-1,1016.7,0.3,100,-1,6000,0,,,0,,,,,,,,,,,wg-a,,,,AAXX 07004 07607 12556 80000 11010 21010 30092 40167 50003 60006 875// 90000=
07607,1997-01-07 06:00:00,-3,1016.5,0.1,100,-3,3000,3.704,,,70,-3.1,0.1,,,,,,,,10,wg-a,,,,AAXX 07064 07607 12730 50702 11030 21030 30090 40165 50001 60006 71011 856/0 90600 333 10001 21031=
07607,1997-01-07 12:00:00,5,1014.6,-1.8,70,0,12000,7.408,,,90,,,,,,,,,,,wg-a,,,,AAXX 07124 07607 12/62 10904 10050 20000 30073 40146 58018 60006 80002 91200=
07607,1997-01-07 18:00:00,1,1010.7,-1.7,86,-1,0,11.112,,,80,-3.8,5.5,,,,,,,,,wg-a,,,,AAXX 07184 07607 12/// /0806 10010 21010 30033 40107 56017 60006 91800 333 10055 21038=
07607,1997-01-08 00:00:00,2,1006.1,-2.7,80,-1,10000,14.816,,,100,,,,,,,,,,,wg-a,,,,AAXX 08004 07607 12760 81008 10020 21010 39988 40061 58027 60006 83532 90000=
07607,1997-01-08 06:00:00,1,1003.1,-1.5,93,0,6000,3.704,,,300,-0.7,2.2,,,,,,,,61,wg-a,,4,,AAXX 08064 07607 02656 83002 10010 20000 39958 40031 55015 61000 7616/ 8557/ 90600 333 10022 21007 4/004 6100=
07607,1997-01-08 12:00:00,4,1001.9,-0.6,93,3,500,7.408,,,110,,,,,,,,,,,wg-a,,,,AAXX 08124 07607 12600 61104 10040 20030 39947 40019 58006 60016 81532 91200=
07607,1997-01-08 18:00:00,2,1000.2,-0.2,93,1,500,7.408,,,90,1.1,6.7,,,,,,,,,wg-a,,3,,AAXX 08184 07607 32/00 30904 10020 20010 39929 40002 56002 80002 91800 333 10067 20011 4/003=
07607,1997-01-09 00:00:00,2,1000.2,0.3,93,1,500,7.408,,,90,,,,,,,,,,,wg-a,,,,AAXX 09004 07607 12500 70904 10020 20010 39929 40002 51003 60006 875// 90000=
07607,1997-01-09 06:00:00,2,999.6,-0.1,93,1,7000,7.408,,,80,1.1,2.5,,,,,,,,,wg-a,,3,,AAXX 09064 07607 02557 70804 10020 20010 39923 49996 55001 60006 8457/ 90600 333 10025 20011 4/003 60004=
07607,1997-01-09 12:00:00,5,1004.1,2.5,100,5,100,0,,,0,,,,0,,,,,,46,wg-a,,,,AAXX 09124 07607 02201 80000 10050 20050 39969 40041 51025 60036 74665 886// 91200 333 60007=
07607,1997-01-09 18:00:00,7,1010.1,3.2,93,6,20000,11.112,,,250,1.9,8.4,,,,,,,,,wg-a,,0,,AAXX 09184 07607 32570 82506 10070 20060 30029 40101 51032 855// 91800 333 10084 20019 4/9999=
07607,1997-01-10 00:00:00,6,1014,2.8,93,5,10000,11.112,,,300,,,,1,,,,,,1,wg-a,,,,AAXX 10004 07607 02560 83006 10060 20050 30067 40140 51028 60016 70162 885// 90000 333 60017=
07607,1997-01-10 06:00:00,1,1017.7,1.6,100,1,8000,3.704,,,150,1.1,7.1,,,,,4,,,,wg-a,,,,AAXX 10064 07607 12358 61502 10010 20010 30103 40177 52016 60044 86500 90600 333 10071 20011=
07607,1997-01-10 12:00:00,5,1019.9,0.5,87,3,12000,7.408,,,70,,,,,,,,,,,wg-a,,,,AAXX 10124 07607 12462 70704 10050 20030 30126 40199 50005 60006 878// 91200=
07607,1997-01-10 18:00:00,1,1022.2,1.4,93,0,10000,7.408,,,80,0.5,5.6,,,,,,,,,wg-a,,,,AAXX 10184 07607 12760 50804 10010 20000 30147 40222 51014 60006 845/2 91800 333 10056 20005=
07607,1997-01-11 00:00:00,1,1023.5,0.7,93,0,6000,7.408,,,100,,,,,,,,,,,wg-a,,,,AAXX 11004 07607 12756 81004 10010 20000 30160 40235 50007 60006 8757/ 90000=
07607,1997-01-11 06:00:00,1,1024.3,0.8,93,0,0,7.408,,,100,-1.4,1.2,,,,,,,,,wg-a,,,,AAXX 11064 07607 12/// /1004 10010 20000 30168 40243 51008 60006 90600 333 10012 21014=
07607,1997-01-11 12:00:00,8,1025.3,-0.1,71,3,0,7.408,,,80,,,,,,,,,,,wg-a,,,,AAXX 11124 07607 12/// /0804 10080 20030 30180 40253 58001 60006 91200=
07607,1997-01-11 18:00:00,8,1025.5,0.5,81,5,12000,3.704,,,60,0.1,10.2,,,,,,,,,wg-a,,,,AAXX 11184 07607 12762 70602 10080 20050 30182 40255 51005 60006 875// 91800 333 10102 20001=
07607,1997-01-12 00:00:00,3,1025.8,-0.9,93,2,8000,7.408,,,50,,,,,,,,,,,wg-a,,,,AAXX 12004 07607 12/58 00504 10030 20020 30184 40258 56009 60006 80000 90000=
07607,1997-01-12 06:00:00,-1,1025.5,-0.2,100,-1,500,3.704,,,40,-0.8,7.6,,,,,,,,,wg-a,,,,AAXX 12064 07607 12/00 00402 11010 21010 30180 40255 57002 60006 80000 90600 333 10076 21008=
07607,1997-01-12 12:00:00,11,1023.8,-1.6,50,1,20000,11.112,,,80,,,,,,,,,,,wg-a,,,,AAXX 12124 07607 12/70 10806 10110 20010 30166 40238 58016 60006 80001 91200=
07607,1997-01-12 18:00:00,7,1022.1,-0.1,61,0,500,11.112,,,70,-1.2,14.6,,,,,,,,,wg-a,,,,AAXX 12184 07607 12/00 10706 10070 20000 30148 40221 56001 60006 80001 91800 333 10146 21012=
07607,1997-01-13 00:00:00,-1,1021.9,-0.4,100,-1,10000,7.408,,,70,,,,,,,,,,,wg-a,,,,AAXX 13004 07607 12/60 00704 11010 21010 30144 40219 58004 60006 80000 90000=
07607,1997-01-13 06:00:00,-2,1020.7,-0.5,93,-3,8000,11.112,,,90,-2.7,7.1,,,,,,,,,wg-a,,,,AAXX 13064 07607 12/58 20906 11020 21030 30132 40207 56005 60006 80002 90600 333 10071 21027=
07607,1997-01-13 12:00:00,9,1020.5,-0.5,57,1,500,14.816,,,100,,,,,,,,,,,wg-a,,,,AAXX 13124 07607 12/00 01008 10090 20010 30133 40205 58005 60006 80000 91200=
07607,1997-01-13 18:00:00,5,1019.7,0.1,81,2,15000,7.408,,,60,-2,12.1,,,,,,,,,wg-a,,,,AAXX 13184 07607 12/65 00604 10050 20020 30124 40197 53001 60006 80000 91800 333 10121 21020=
07607,1997-01-14 00:00:00,1,1019.9,-0.4,93,0,8000,7.408,,,80,,,,,,,,,,,wg-a,,,,AAXX 14004 07607 12/58 00804 10010 20000 30124 40199 58004 60006 80000 90000=
07607,1997-01-14 06:00:00,0,1019.4,-0.3,93,-1,500,7.408,,,80,-1.6,4.7,,,,,,,,,wg-a,,,,AAXX 14064 07607 12/00 00804 10000 21010 30119 40194 56003 60006 80000 90600 333 10047 21016=
07607,1997-01-14 12:00:00,9,1019.8,-0.3,66,3,20000,7.408,,,80,,,,,,,,,,,wg-a,,,,AAXX 14124 07607 12/70 00804 10090 20030 30126 40198 58003 60006 80000 91200=
07607,1997-01-14 18:00:00,5,1020.1,1.2,87,3,15000,7.408,,,40,-2.1,13.9,,,,,,,,,wg-a,,,,AAXX 14184 07607 12/65 00404 10050 20030 30128 40201 51012 60006 80000 91800 333 10139 21021=
07607,1997-01-15 06:00:00,-2,1021.3,-0.1,100,-2,300,7.408,,,100,-1.9,5.5,,,,,,,,48,wg-a,,,,AAXX 15064 07607 12/03 01004 11020 21020 30138 40213 55001 60006 74844 80000 90600 333 10055 21019=
07607,1997-01-15 12:00:00,9,1020.8,-0.8,76,5,20000,7.408,,,90,,,,,,,,,,2,wg-a,,,,AAXX 15124 07607 12/70 00904 10090 20050 30136 40208 58008 60006 70240 80000 91200=
07607,1997-01-15 18:00:00,8,1019.4,-0.3,87,6,20000,7.408,,,80,-2.4,14.1,,,,,,,,,wg-a,,,,AAXX 15184 07607 12/70 00804 10080 20060 30122 40194 56003 60006 80000 91800 333 10141 21024=
07607,1997-01-16 00:00:00,1,1020.3,-0.1,100,1,10000,7.408,,,80,,,,,,,,,,,wg-a,,,,AAXX 16004 07607 12/60 00804 10010 20010 30129 40203 58001 60006 80000 90000=
07607,1997-01-16 06:00:00,3,1017.7,-1.6,100,3,500,11.112,,,80,-1.1,8,,,,,,,,,wg-a,,,,AAXX 16064 07607 12/00 70806 10030 20030 30103 40177 58016 60006 85072 90600 333 10080 21011=
07607,1997-01-16 12:00:00,12,1016.9,-1.2,58,4,500,14.816,,,110,,,,,,,,,,,wg-a,,,,AAXX 16124 07607 12/00 11108 10120 20040 30098 40169 58012 60006 80002 91200=
07607,1997-01-16 18:00:00,9,1015.5,-0,81,6,15000,7.408,,,100,1.1,15.1,,,,,,,,,wg-a,,,,AAXX 16184 07607 12/65 21004 10090 20060 30083 40155 55000 60006 82032 91800 333 10151 20011=
07607,1997-01-17 00:00:00,7,1013.6,-1.1,93,6,0,7.408,,,100,,,,,,,,,,,wg-a,,,,AAXX 17004 07607 12/// /1004 10070 20060 30064 40136 57011 60006 90000=
07607,1997-01-17 06:00:00,7,1013.4,1.1,93,6,6000,3.704,,,70,6.5,8.9,,,,,,,,61,wg-a,,,,AAXX 17064 07607 02656 80702 10070 20060 30062 40134 53011 61000 76162 8457/ 90600 333 10089 20065 6100=
07607,1997-01-17 12:00:00,9,1016.9,1,100,9,500,3.704,,,170,,,,0,,,,,,61,wg-a,,,,AAXX 17124 07607 02600 81702 10090 20090 30097 40169 51010 60046 76166 8553/ 91200 333 60007=
07607,1997-01-17 18:00:00,10,1019.8,2.2,93,9,8000,7.408,,,260,6.7,10.7,,2,,,,,,61,wg-a,,,,AAXX 17184 07607 12358 72604 10100 20090 30126 40198 53022 60027 76166 878// 91800 333 10107 20067=
07607,1997-01-18 00:00:00,5,1021.7,0.1,100,5,1500,0,,,0,,,,,,,,,,2,wg-a,,,,AAXX 18004 07607 02/15 20000 10050 20050 30144 40217 50001 61000 70261 80002 90000 333 ////=
07607,1997-01-18 06:00:00,4,1019.1,-1.6,100,4,1200,11.112,,,80,3.4,9.6,,,,,9,,,10,wg-a,,,,AAXX 18064 07607 12612 40806 10040 20040 30117 40191 56016 60094 7104/ 83502 90600 333 10096 20034=
07607,1997-01-18 12:00:00,7,1014.3,-3.4,100,7,10000,11.112,,,110,,,,,,,,,,1,wg-a,,,,AAXX 18124 07607 12460 81106 10070 20070 30071 40143 58034 60006 70141 885// 91200=
07607,1997-01-18 18:00:00,8,1,,93,7,500,0,,,0,,,,,,,,,,21,wg-a,,,,AAXX 18184 07607 02700 80000 10080 20070 61000 72162 8557/ 91800 333 ////=
07607,1997-01-19 00:00:00,7,1011,0.2,100,7,20000,3.704,,,90,,,,,,,,,,,wg-a,,,,AAXX 19004 07607 12770 80902 10070 20070 30038 40110 53002 60006 8657/ 90000=
07607,1997-01-19 06:00:00,6,1010.4,-0.1,100,6,6000,3.704,,,100,6.2,8.7,,,,,,,,,wg-a,,,,AAXX 19064 07607 12656 51002 10060 20060 30032 40104 55001 60004 85500 90600 333 10087 20062=
07607,1997-01-19 12:00:00,11,1010.8,-0.6,87,9,20000,7.408,,,80,,,,,,,,,,,wg-a,,,,AAXX 19124 07607 12/70 60804 10110 20090 30037 40108 58006 60006 85072 91200=
07607,1997-01-19 18:00:00,8,1010.5,-0.3,93,7,20000,7.408,,,60,4,13,,,,,,,,,wg-a,,,,AAXX 19184 07607 12/70 60604 10080 20070 30033 40105 55003 60006 84072 91800 333 10130 20040=
07607,1997-01-20 00:00:00,7,1010.1,-0.7,100,7,10000,7.408,,,80,,,,,,,,,,,wg-a,,,,AAXX 20004 07607 12760 70804 10070 20070 30029 40101 56007 60006 8457/ 90000=
07607,1997-01-20 06:00:00,7,1007.9,-1.2,100,7,4000,11.112,,,40,6.7,8.2,,1,,,3,,,61,wg-a,,,,AAXX 20064 07607 02640 80406 10070 20070 30007 40079 58012 60034 76166 875// 90600 333 10082 20067 60017=
07607,1997-01-20 12:00:00,9,1010.6,0.4,93,8,10000,3.704,,,60,,,,,,,,,,,wg-a,,,,AAXX 20124 07607 02260 80602 10090 20080 30034 40106 50004 61000 878// 91200 333 ////=
07607,1997-01-20 18:00:00,10,1010.8,0.6,87,8,0,11.112,,,40,7,9.9,,,,,,,,,wg-a,,,,AAXX 20184 07607 32/// /0406 10100 20080 30037 40108 51006 91800 333 10099 20070=
07607,1997-01-21 00:00:00,10,1011.4,0,87,8,8000,11.112,,,50,,,,,,,,,,2,wg-a,,,,AAXX 21004 07607 02558 80506 10100 20080 30043 40114 50000 61000 70262 885// 90000 333 ////=
07607,1997-01-21 06:00:00,10,1010.6,-0.4,93,9,15000,0,,,0,9.4,10.1,,,,,,,,,wg-a,,,,AAXX 21064 07607 02665 70000 10100 20090 30035 40106 56004 61000 84572 90600 333 10101 20094 ////=
07607,1997-01-21 12:00:00,13,1011.4,-0.7,88,11,20000,7.408,,,130,,,,,,,,,,3,wg-a,,,,AAXX 21124 07607 02570 71304 10130 20110 30044 40114 58007 61000 70362 8583/ 91200 333 6100=
07607,1997-01-21 18:00:00,12,1011.4,0.3,94,11,7000,3.704,,,260,9.4,14.7,,0,,,,,,60,wg-a,,,,AAXX 21184 07607 12557 72602 10120 20110 30043 40114 53003 60007 76062 8683/ 91800 333 10147 20094=
07607,1997-01-22 00:00:00,10,1014.7,1.6,100,10,10000,3.704,,,30,,,,,,,,,,2,wg-a,,,,AAXX 22004 07607 12760 40302 10100 20100 30076 40147 51016 60006 70261 82530 90000=
07607,1997-01-22 06:00:00,4,1016.3,1.1,100,4,6000,0,,,0,3.9,11.7,,,,,,,,11,wg-a,,,,AAXX 22064 07607 12356 20000 10040 20040 30090 40163 51011 60004 7110/ 82700 90600 333 10117 20039=
07607,1997-01-22 12:00:00,9,1018.2,0.6,100,9,500,3.704,,,100,,,,,,,,,,42,wg-a,,,,AAXX 22124 07607 12405 31002 10090 20090 30110 40182 50006 60006 74240 83700 91200=
07607,1997-01-22 18:00:00,11,1018,0.3,87,9,40000,3.704,,,70,3,15.4,,,,,,,,3,wg-a,,,,AAXX 22184 07607 12/82 50702 10110 20090 30109 40180 53003 60006 70341 85030 91800 333 10154 20030=
07607,1997-01-23 00:00:00,10,1017.6,-0.4,100,10,20000,11.112,,,40,,,,0,,,,,,61,wg-a,,,,AAXX 23004 07607 02770 80406 10100 20100 30104 40176 58004 60016 76162 8457/ 90000 333 60007=
07607,1997-01-23 06:00:00,10,1016.2,-0.6,100,10,6000,3.704,,,40,9,11.2,,,,,,,,60,wg-a,,,,AAXX 23064 07607 02356 80402 10100 20100 30090 40162 55006 60004 76062 878// 90600 333 10112 20090 61000=
07607,1997-01-23 12:00:00,14,1017.5,0.1,82,11,0,7.408,,,70,,,,,,,,,,,wg-a,,,,AAXX 23124 07607 02/// /0704 10140 20110 30104 40175 50001 61000 91200 333 ////=
07607,1997-01-23 18:00:00,13,1017.7,0.7,88,11,15000,11.112,,,70,9.9,15.6,,,,,,,,,wg-a,,,,AAXX 23184 07607 32665 70706 10130 20110 30106 40177 53007 83532 91800 333 10156 20099=
07607,1997-01-24 00:00:00,10,1020.3,1.3,93,9,10000,3.704,,,210,,,,,,,,,,,wg-a,,,,AAXX 24004 07607 12760 62102 10100 20090 30131 40203 51013 60006 83530 90000=
07607,1997-01-24 06:00:00,10,1021.6,0.8,100,10,300,0,,,0,9.5,13.4,,,,,,,,46,wg-a,,,,AAXX 24064 07607 02103 80000 10100 20100 30144 40216 53008 60006 74644 876// 90600 333 10134 20095 61000=
07607,1997-01-24 12:00:00,12,1024.8,0.9,94,11,2000,0,,,0,,,,0,,,,,,61,wg-a,,,,AAXX 24124 07607 02120 80000 10120 20110 30176 40248 51009 60006 76164 886// 91200 333 60007=
07607,1997-01-25 00:00:00,11,1026.5,-0.2,100,11,1500,3.704,,,340,,,,0,,,,,,58,wg-a,,,,AAXX 25004 07607 02115 83402 10110 20110 30193 40265 58002 60006 75854 886// 90000 333 60007=
07607,1997-01-25 06:00:00,11,1026.1,0.2,94,10,2000,0,,,0,10.4,11.4,,0,,,1,,,58,wg-a,,,,AAXX 25064 07607 02420 80000 10110 20100 30189 40261 53002 60014 75866 887// 90600 333 10114 20104 60007=
07607,1997-01-25 12:00:00,12,1026.4,-0.1,94,11,4000,0,,,0,,,,,,,,,,10,wg-a,,,,AAXX 25124 07607 12240 80000 10120 20110 30192 40264 58001 60006 71064 877// 91200=
07607,1997-01-25 18:00:00,10,1025.4,0.3,93,9,6000,3.704,,,30,9.7,13.3,,,,,,,,,wg-a,,,,AAXX 25184 07607 32656 40302 10100 20090 30182 40254 53003 81532 91800 333 10133 20097=
07607,1997-01-26 00:00:00,4,1025.7,-0.3,100,4,200,7.408,,,80,,,,,,,,,,47,wg-a,,,,AAXX 26004 07607 12/02 90804 10040 20040 30183 40257 58003 60006 74741 89/// 90000=
07607,1997-01-26 06:00:00,4,1024.7,-0.3,100,4,100,11.112,,,70,3.8,9.8,,,,,,,,45,wg-a,,,,AAXX 26064 07607 02/01 90706 10040 20040 30173 40247 58003 60006 74544 89/// 90600 333 10098 20038 60004=
07607,1997-01-26 12:00:00,11,1025.3,-0.1,82,8,20000,3.704,,,100,,,,,,,,,,1,wg-a,,,,AAXX 26124 07607 12/70 01002 10110 20080 30181 40253 58001 60006 70141 80000 91200=
07607,1997-01-26 18:00:00,10,1025.1,0.7,93,9,8000,3.704,,,240,4.2,15.7,,,,,,,,,wg-a,,,,AAXX 26184 07607 12/58 32402 10100 20090 30179 40251 53007 60006 81032 91800 333 10157 20042=
07607,1997-01-27 00:00:00,7,1026.5,0.2,100,7,4000,0,,,0,,,,,,,,,,10,wg-a,,,,AAXX 27004 07607 12740 70000 10070 20070 30192 40265 53002 60006 71041 8253/ 90000=
07607,1997-01-27 06:00:00,7,1027.8,0.8,100,7,200,3.704,,,10,6.2,10.2,,,,,,,,51,wg-a,,,,AAXX 27064 07607 02002 80102 10070 20070 30205 40278 52008 61000 7515/ 886// 90600 333 10102 20062 6100=
07607,1997-01-27 12:00:00,6,1030.6,,100,6,1200,7.408,,,350,,,,,,,,,,10,wg-a,,,,AAXX 27124 07607 32212 83504 10060 20060 30232 40306 71065 886// 91200=
07607,1997-01-27 18:00:00,5,1032,1.4,93,4,10000,7.408,,,360,4.7,6.8,,,,,,,,,wg-a,,,,AAXX 27184 07607 32260 83604 10050 20040 30246 40320 52014 886// 91800 333 10068 20047=
07607,1997-01-28 00:00:00,4,1033.9,0.5,87,2,10000,3.704,,,340,,,,,,,,,,,wg-a,,,,AAXX 28004 07607 12460 83402 10040 20020 30264 40339 50005 60006 886// 90000=
07607,1997-01-28 06:00:00,4,1033.5,-0.6,87,2,4000,3.704,,,240,3.5,4.7,,,,,,,,10,wg-a,,,,AAXX 28064 07607 02340 72402 10040 20020 30260 40335 56006 60006 71022 878// 90600 333 10047 20035 61000=
07607,1997-01-28 12:00:00,3,1033.1,-0.9,75,-1,9000,11.112,,,330,,,,,,,,,,,wg-a,,,,AAXX 28124 07607 12459 63306 10030 21010 30256 40331 58009 60006 86800 91200=
07607,1997-01-28 18:00:00,2,1032.4,-0,80,-1,10000,3.704,,,50,1.9,3.7,,,,,,,,,wg-a,,,,AAXX 28184 07607 12560 70502 10020 21010 30249 40324 55000 60006 8567/ 91800 333 10037 20019=
07607,1997-01-29 00:00:00,1,1032.8,-0,86,-1,6000,11.112,,,80,,,,,,,,,,,wg-a,,,,AAXX 29004 07607 12/56 70806 10010 21010 30253 40328 55000 60006 8703/ 90000=
07607,1997-01-29 06:00:00,-2,1031.6,-0.6,93,-3,500,3.704,,,20,-1.9,2,,,,,,,,,wg-a,,,,AAXX 29064 07607 12/00 60202 11020 21030 30240 40316 57006 60006 86030 90600 333 10020 21019=
07607,1997-01-29 12:00:00,7,1031,-1.1,76,3,15000,11.112,,,120,,,,,,,,,,,wg-a,,,,AAXX 29124 07607 12565 61206 10070 20030 30236 40310 58011 60006 83532 91200=
07607,1997-01-29 18:00:00,6,1030.4,0.5,87,4,20000,3.704,,,10,-1.9,10.6,,,,,,,,,wg-a,,,,AAXX 29184 07607 12/70 00102 10060 20040 30230 40304 53005 60006 80000 91800 333 10106 21019=
07607,1997-01-30 00:00:00,1,1030.9,0.2,100,1,8000,7.408,,,80,,,,,,,,,,,wg-a,,,,AAXX 30004 07607 12/58 00804 10010 20010 30234 40309 52002 60006 80000 90000=
07607,1997-01-30 06:00:00,-1,1030.3,-0.2,100,-1,600,7.408,,,90,-0.7,5.7,,,,,,,,42,wg-a,,,,AAXX 30064 07607 12206 20904 11010 21010 30227 40303 57002 60006 74240 82700 90600 333 10057 21007=
07607,1997-01-30 12:00:00,6,1030.8,-0.4,100,6,500,14.816,,,80,,,,,,,,,,1,wg-a,,,,AAXX 30124 07607 12400 70808 10060 20060 30234 40308 58004 60006 70142 876// 91200=
07607,1997-01-30 18:00:00,7,1028.5,-0.6,93,6,12000,3.704,,,80,-0.8,11.1,,,,,,,,,wg-a,,,,AAXX 30184 07607 12/62 30802 10070 20060 30212 40285 56006 60006 81032 91800 333 10111 21008=
07607,1997-01-31 00:00:00,5,1028.2,-0.2,93,4,6000,11.112,,,90,,,,,,,,,,,wg-a,,,,AAXX 31004 07607 12/56 00906 10050 20040 30208 40282 57002 60006 80000 90000=
07607,1997-01-31 18:00:00,10,1026.3,1,82,7,20000,0,,,0,3.6,17.1,,,,,,,,,wg-a,,,,AAXX 31184 07607 12/70 30000 10100 20070 30191 40263 53010 60006 83031 91800 333 10171 20036=
07607,1997-02-01 00:00:00,6,1028,0.6,100,6,10000,0,,,0,,,,,,,,,,,wg-a,,,,AAXX 01004 07607 12/60 70000 10060 20060 30206 40280 51006 60006 8703/ 90000=
07607,1997-02-01 06:00:00,10,1028.4,0.3,100,10,500,7.408,,,250,4.6,10.4,,0,,,,,,1,wg-a,,,,AAXX 01064 07607 02300 72504 10100 20100 30212 40284 51003 60004 70162 875// 90600 333 10104 20046 60007=
07607,1997-02-01 12:00:00,12,1029.3,-0.2,94,11,10000,7.408,,,220,,,,,,,,,,20,wg-a,,,,AAXX 01124 07607 02360 82204 10120 20110 30221 40293 58002 61000 72052 888// 91200 333 6100=
07607,1997-02-01 18:00:00,10,1028.7,0.5,82,7,15000,7.408,,,250,9.9,15,,,,,,,,,wg-a,,,,AAXX 01184 07607 32/65 32504 10100 20070 30214 40287 53005 82032 91800 333 10150 20099=
07607,1997-02-02 06:00:00,6,1,,100,6,200,3.704,,,60,,,,,,,,,,45,wg-a,,,,AAXX 02064 07607 32/02 90602 10060 20060 7454/ 89/// 90600=
07607,1997-02-02 12:00:00,8,1026,-0.4,100,8,0,7.408,,,120,,,,,,,,,,,wg-a,,,,AAXX 02124 07607 12/// /1204 10080 20080 30187 40260 58004 60006 91200=
07607,1997-02-02 18:00:00,9,1025,0.2,93,8,7000,7.408,,,120,5.4,9,,1,,,,,,21,wg-a,,,,AAXX 02184 07607 12357 71204 10090 20080 30177 40250 53002 60017 72162 875// 91800 333 10090 20054=
07607,1997-02-03 00:00:00,8,1025,0.8,100,8,8000,22.224,,,310,,,,1,,,,,,61,wg-a,,,,AAXX 03004 07607 02258 83112 10080 20080 30177 40250 53008 60016 76165 885// 90000 333 60017=
07607,1997-02-03 06:00:00,7,1027.7,0.8,93,6,0,11.112,,,280,6.8,10.1,,,,,2,,,,wg-a,,,,AAXX 03064 07607 02/// /2806 10070 20060 30204 40277 51008 60024 90600 333 10101 20068 61000=
07607,1997-02-03 12:00:00,6,1029.9,0.4,87,4,4000,11.112,,,340,,,,,,,,,,10,wg-a,,,,AAXX 03124 07607 02340 73406 10060 20040 30225 40299 50004 61000 71065 876// 91200 333 ////=
07607,1997-02-03 18:00:00,4,1029.5,0.6,93,3,6000,3.704,,,100,4.1,6.8,,,,,,,,,wg-a,,,,AAXX 03184 07607 32/56 51002 10040 20030 30221 40295 53006 80002 91800 333 10068 20041=
07607,1997-02-04 00:00:00,-1,1030,-0.5,100,-1,400,3.704,,,30,,,,,,,,,,49,wg-a,,,,AAXX 04004 07607 12/04 90302 11010 21010 30224 40300 58005 60006 74941 89/// 90000=
07607,1997-02-04 06:00:00,-1,1028.6,-0.5,100,-1,200,3.704,,,40,-1.4,4.1,,,,,,,,46,wg-a,,,,AAXX 04064 07607 02002 80402 11010 21010 30210 40286 56005 60006 7464/ 887// 90600 333 10041 21014 61000=
07607,1997-02-04 12:00:00,5,1027.9,-0.8,100,5,8000,7.408,,,110,,,,,,,,,,1,wg-a,,,,AAXX 04124 07607 12358 71104 10050 20050 30205 40279 58008 60006 70142 875// 91200=
07607,1997-02-04 18:00:00,6,1025.9,-0.1,87,4,500,3.704,,,70,-0.6,9.9,,,,,,,,,wg-a,,,,AAXX 04184 07607 12/00 40702 10060 20040 30185 40259 55001 60006 8/0/2 91800 333 10099 21006=
07607,1997-02-05 00:00:00,1,1027,0.5,93,0,8000,3.704,,,80,,,,,,,,,,,wg-a,,,,AAXX 05004 07607 12/58 20802 10010 20000 30195 40270 51005 60006 80001 90000=
07607,1997-02-05 06:00:00,7,1026.6,-0,93,6,10000,3.704,,,180,0.7,7,,,,,,,,,wg-a,,,,AAXX 05064 07607 12760 71802 10070 20060 30193 40266 54000 60006 8557/ 90600 333 10070 20007=
07607,1997-02-05 12:00:00,12,1028.7,1.2,94,11,10000,18.52,,,230,,,,,,,,,,20,wg-a,,,,AAXX 05124 07607 02360 72310 10120 20110 30215 40287 51012 60006 72052 875// 91200 333 61000=
07607,1997-02-05 18:00:00,12,1030.8,1.9,88,10,500,7.408,,,350,6.9,13.9,,,,,,,,3,wg-a,,,,AAXX 05184 07607 02500 63504 10120 20100 30236 40308 53019 61000 70362 86500 91800 333 10139 20069 ////=
07607,1997-02-06 00:00:00,3,1033.4,0.8,100,3,200,7.408,,,60,,,,,,,,,,44,wg-a,,,,AAXX 06004 07607 12/02 00604 10030 20030 30259 40334 53008 60006 74441 80000 90000=
07607,1997-02-06 06:00:00,-1,1031.6,-0.7,100,-1,500,3.704,,,40,-0.5,11.6,,,,,,,,46,wg-a,,,,AAXX 06064 07607 02/05 10402 11010 21010 30240 40316 56007 60006 7464/ 80002 90600 333 10116 21005 60004=
07607,1997-02-06 12:00:00,12,1030.6,-0.8,67,6,20000,18.52,,,120,,,,,,,,,,1,wg-a,,,,AAXX 06124 07607 12/70 41210 10120 20060 30234 40306 58008 60006 70140 83032 91200=
07607,1997-02-06 18:00:00,8,1028.7,-0.5,81,5,15000,7.408,,,80,-0.6,13.1,,,,,,,,,wg-a,,,,AAXX 06184 07607 12/65 20804 10080 20050 30214 40287 56005 60006 82030 91800 333 10131 21006=
07607,1997-02-07 00:00:00,1,1028.4,-0.3,100,1,500,3.704,,,60,,,,,,,,,,,wg-a,,,,AAXX 07004 07607 12/00 00602 10010 20010 30209 40284 55003 60006 80000 90000=
07607,1997-02-07 06:00:00,-2,1029,0.5,93,-3,8000,7.408,,,60,-1.8,8.3,,,,,,,,,wg-a,,,,AAXX 07064 07607 12/58 30604 11020 21030 30214 40290 52005 60006 80002 90600 333 10083 21018=
07607,1997-02-07 12:00:00,10,1030.4,0.3,66,4,500,0,,,0,,,,,,,,,,,wg-a,,,,AAXX 07124 07607 12/00 40000 10100 20040 30231 40304 51003 60006 83032 91200=
07607,1997-02-07 18:00:00,8,1029.9,0.6,76,4,40000,7.408,,,40,-1.9,16.6,,,,,,,,,wg-a,,,,AAXX 07184 07607 12/82 30404 10080 20040 30226 40299 53006 60006 81032 91800 333 10166 21019=
07607,1997-02-08 00:00:00,1,1031.9,0.8,93,0,20000,7.408,,,90,,,,,,,,,,,wg-a,,,,AAXX 08004 07607 12/70 00904 10010 20000 30244 40319 51008 60006 80000 90000=
07607,1997-02-08 06:00:00,-1,1032.3,0.3,100,-1,6000,3.704,,,70,-0.5,8.1,,,,,,,,,wg-a,,,,AAXX 08064 07607 12/56 00702 11010 21010 30247 40323 53003 60006 80000 90600 333 10081 21005=
07607,1997-02-08 12:00:00,13,1032.1,-0.2,67,7,0,3.704,,,110,,,,,,,,,,,wg-a,,,,AAXX 08124 07607 12/// /1102 10130 20070 30249 40321 58002 60006 91200=
07607,1997-02-08 18:00:00,11,1030.7,0.3,66,5,20000,3.704,,,100,-1.3,18.7,,,,,,,,,wg-a,,,,AAXX 08184 07607 12/70 21002 10110 20050 30234 40307 53003 60006 80001 91800 333 10187 21013=
07607,1997-02-09 00:00:00,0,1031.6,-0.3,93,-1,15000,7.408,,,80,,,,,,,,,,,wg-a,,,,AAXX 09004 07607 12/65 00804 10000 21010 30240 40316 58003 60006 80000 90000=
07607,1997-02-09 06:00:00,-2,1031,-0,93,-3,8000,3.704,,,60,-2.6,10.9,,,,,,,,,wg-a,,,,AAXX 09064 07607 12/58 00602 11020 21030 30234 40310 55000 60006 80000 90600 333 10109 21026=
07607,1997-02-09 12:00:00,14,1031.4,-0.2,51,4,12000,0,,,0,,,,,,,,,,2,wg-a,,,,AAXX 09124 07607 12/62 10000 10140 20040 30242 40314 58002 60006 70240 80002 91200=
07607,1997-02-09 18:00:00,11,1030.3,0.3,58,3,20000,0,,,0,-2.6,18.2,,,,,,,,11,wg-a,,,,AAXX 09184 07607 12/70 30000 10110 20030 30230 40303 53003 60006 71100 80002 91800 333 10182 21026=
07607,1997-02-10 00:00:00,0,1030.6,-0.4,93,-1,0,3.704,,,60,,,,,,,,,,,wg-a,,,,AAXX 10004 07607 12/// /0602 10000 21010 30230 40306 57004 60006 90000=
07607,1997-02-10 06:00:00,-3,1028.6,-0.7,93,-4,10000,3.704,,,100,-3.1,10.5,,,,,,,,,wg-a,,,,AAXX 10064 07607 12/60 31002 11030 21040 30210 40286 55007 60006 80002 90600 333 10105 21031=
07607,1997-02-10 12:00:00,16,1027.1,-0.9,34,0,500,7.408,,,240,,,,,,,,,,,wg-a,,,,AAXX 10124 07607 12/00 32404 10160 20000 30200 40271 58009 60006 80002 91200=
07607,1997-02-10 18:00:00,13,1027.6,1.6,51,3,500,0,,,0,-2.9,18.4,,,,,,,,,wg-a,,,,AAXX 10184 07607 12/00 70000 10130 20030 30204 40276 53016 60006 82032 91800 333 10184 21029=
07607,1997-02-11 00:00:00,11,1029.3,0.1,87,9,20000,3.704,,,180,,,,,,,,,,1,wg-a,,,,AAXX 11004 07607 02670 81802 10110 20090 30221 40293 50001 61000 70162 8657/ 90000 333 6100=
07607,1997-02-11 06:00:00,10,1028.6,0.1,93,9,3000,7.408,,,210,9.2,12.6,,,,,,,,50,wg-a,,,,AAXX 11064 07607 02230 72104 10100 20090 30213 40286 53001 61000 75052 877// 90600 333 10126 20092 6100=
07607,1997-02-11 12:00:00,14,1029.5,0,88,12,10000,22.224,,,240,,,,,,,,,,1,wg-a,,,,AAXX 11124 07607 02460 82412 10140 20120 30223 40295 50000 61000 70152 888// 91200 333 ////=
07607,1997-02-11 18:00:00,12,1029.7,0.6,100,12,500,14.816,,,210,9.7,13.6,,0,,,,,,21,wg-a,,,,AAXX 11184 07607 12300 82108 10120 20120 30225 40297 53006 60007 72165 885// 91800 333 10136 20097=
07607,1997-02-12 00:00:00,13,1030.1,0,88,11,8000,7.408,,,210,,,,,,,,,,,wg-a,,,,AAXX 12004 07607 12558 62104 10130 20110 30229 40301 50000 60006 86500 90000=
07607,1997-02-12 06:00:00,12,1028.7,-0.6,94,11,10000,3.704,,,240,11.1,12.8,,,,,,,,,wg-a,,,,AAXX 12064 07607 02460 82402 10120 20110 30215 40287 58006 60006 885// 90600 333 10128 20111 60004=
07607,1997-02-12 12:00:00,16,1025.6,-2.2,59,8,25000,3.704,,,20,,,,,,,,,,,wg-a,,,,AAXX 12124 07607 12475 60202 10160 20080 30185 40256 58022 60006 84802 91200=
07607,1997-02-12 18:00:00,14,1023.6,1.1,77,10,15000,0,,,0,11.5,17.6,,,,,,,,,wg-a,,,,AAXX 12184 07607 12665 70000 10140 20100 30165 40236 53011 60006 875// 91800 333 10176 20115=
07607,1997-02-13 00:00:00,10,1024.3,-0,93,9,10000,7.408,,,240,,,,0,,,,,,21,wg-a,,,,AAXX 13004 07607 02660 52404 10100 20090 30171 40243 55000 60006 72162 85500 90000 333 60007=
07607,1997-02-13 06:00:00,12,1023.2,0.2,82,9,15000,14.816,,,230,10.1,14.1,,,,,,,,,wg-a,,,,AAXX 13064 07607 12465 62308 10120 20090 30160 40232 53002 60004 86800 90600 333 10141 20101=
07607,1997-02-13 12:00:00,12,1024.8,1.2,88,10,10000,22.224,,,250,,,,2,,,,,,80,wg-a,,,,AAXX 13124 07607 02460 82512 10120 20100 30176 40248 51012 60026 78082 878// 91200 333 60027=
07607,1997-02-13 18:00:00,9,1024.2,-0.2,100,9,500,7.408,,,220,9.3,13.2,,1,,,,,,61,wg-a,,,,AAXX 13184 07607 12300 82204 10090 20090 30170 40242 58002 60017 76186 885// 91800 333 10132 20093=
07607,1997-02-14 00:00:00,10,1018.3,-3.2,93,9,0,3.704,,,160,,,,,,,,,,,wg-a,,,,AAXX 14004 07607 12/// /1602 10100 20090 30111 40183 57032 60006 90000=
07607,1997-02-14 06:00:00,12,1015.9,-1.2,94,11,8000,7.408,,,210,9.3,11.9,,0,,,4,,,1,wg-a,,,,AAXX 14064 07607 02658 72104 10120 20110 30088 40159 56012 60044 70162 8657/ 90600 333 10119 20093 60007=
07607,1997-02-14 12:00:00,13,1015,-1.1,94,12,15000,14.816,,,240,,,,1,,,,,,25,wg-a,,,,AAXX 14124 07607 02465 72408 10130 20120 30079 40150 58011 60016 72562 878// 91200 333 60017=
07607,1997-02-14 18:00:00,13,1011.1,-0.6,88,11,8000,18.52,,,250,11.7,16.1,,2,,,,,,25,wg-a,,,,AAXX 14184 07607 12258 72510 10130 20110 30040 40111 55006 60027 72598 879// 91800 333 10161 20117=
07607,1997-02-15 00:00:00,11,1010.5,-0.1,94,10,10000,38.892,,,260,,,,2,,,,,,25,wg-a,,,,AAXX 15004 07607 02260 62621 10110 20100 30034 40105 55001 60066 72598 86200 90000 333 60027=
07607,1997-02-15 06:00:00,10,1017,5.5,87,8,500,29.632,,,310,9.5,13,,4,,,18,,,80,wg-a,,,,AAXX 15064 07607 02300 73116 10100 20080 30098 40170 53055 60184 78082 872// 90600 333 10130 20095 60047=
07607,1997-02-15 12:00:00,11,1026,2.5,62,4,25000,14.816,,,310,,,,,,,,,,2,wg-a,,,,AAXX 15124 07607 02575 53108 10110 20040 30188 40260 51025 61000 70282 85200 91200 333 ////=
07607,1997-02-15 18:00:00,7,1026.6,0.5,66,1,0,3.704,,,310,7.3,11.8,,,,,,,,,wg-a,,,,AAXX 15184 07607 32/// /3102 10070 20010 30193 40266 53005 91800 333 10118 20073=
07607,1997-02-16 00:00:00,-1,1025.4,-1.3,93,-2,8000,11.112,,,80,,,,,,,,,,,wg-a,,,,AAXX 16004 07607 12/58 10806 11010 21020 30179 40254 58013 60006 80002 90000=
07607,1997-02-16 06:00:00,-1,1022.5,-1.2,93,-2,10000,7.408,,,80,-2,7.3,,,,,,,,,wg-a,,,,AAXX 16064 07607 02/60 10804 11010 21020 30150 40225 55012 60006 80001 90600 333 10073 21020 61000=
07607,1997-02-16 12:00:00,12,1020.8,-0.7,44,0,500,11.112,,,130,,,,,,,,,,,wg-a,,,,AAXX 16124 07607 12/00 51306 10120 20000 30136 40208 58007 60006 80002 91200=
07607,1997-02-16 18:00:00,11,1022.9,2.1,82,8,20000,7.408,,,230,-2.3,15.2,,,,,,,,,wg-a,,,,AAXX 16184 07607 12770 72304 10110 20080 30157 40229 53021 60006 85572 91800 333 10152 21023=
07607,1997-02-17 00:00:00,10,1025.3,0.9,93,9,10000,7.408,,,210,,,,,,,,,,,wg-a,,,,AAXX 17004 07607 12460 72104 10100 20090 30181 40253 53009 60006 8457/ 90000=
07607,1997-02-17 06:00:00,7,1026.1,0.6,93,6,8000,7.408,,,230,5.7,11.1,,,,,,,,,wg-a,,,,AAXX 17064 07607 12758 52304 10070 20060 30188 40261 53006 60006 82530 90600 333 10111 20057=
07607,1997-02-17 12:00:00,11,1028.3,0.9,82,8,10000,22.224,,,240,,,,,,,,,,80,wg-a,,,,AAXX 17124 07607 02560 72412 10110 20080 30211 40283 50009 61000 78082 8523/ 91200 333 6100=
07607,1997-02-17 18:00:00,11,1027.8,1.1,71,6,20000,3.704,,,270,6.1,14.1,,,,,,,,3,wg-a,,,,AAXX 17184 07607 32770 72702 10110 20060 30206 40278 53011 70382 83532 91800 333 10141 20061=
07607,1997-02-18 00:00:00,10,1028.2,-0.8,71,5,10000,7.408,,,160,,,,,,,,,,,wg-a,,,,AAXX 18004 07607 12860 71604 10100 20050 30209 40282 58008 60006 8703/ 90000=
07607,1997-02-18 06:00:00,8,1026.6,0.2,76,4,10000,3.704,,,160,6,11.4,,,,,1,,,,wg-a,,,,AAXX 18064 07607 02760 81602 10080 20040 30193 40266 50002 60006 82532 90600 333 10114 20060 60014=
07607,1997-02-18 12:00:00,14,1029.9,0.8,67,8,20000,18.52,,,220,,,,,,,,,,,wg-a,,,,AAXX 18124 07607 12470 82210 10140 20080 30227 40299 51008 60006 878// 91200=
07607,1997-02-18 18:00:00,12,1033.3,2.3,76,8,20000,11.112,,,240,6.9,15.1,,,,,,,,,wg-a,,,,AAXX 18184 07607 32570 42406 10120 20080 30261 40333 53023 83102 91800 333 10151 20069=
07607,1997-02-19 00:00:00,10,1036.2,0.7,93,9,10000,7.408,,,210,,,,,,,,,,,wg-a,,,,AAXX 19004 07607 12660 42104 10100 20090 30289 40362 51007 60006 83502 90000=
07607,1997-02-19 06:00:00,6,1034.3,-0.8,93,5,500,3.704,,,80,5.4,11.9,,,,,,,,42,wg-a,,,,AAXX 19064 07607 02305 40802 10060 20050 30269 40343 58008 60006 7424/ 84700 90600 333 10119 20054 61000=
07607,1997-02-19 12:00:00,14,1030.8,-3,63,7,20000,14.816,,,120,,,,,,,,,,,wg-a,,,,AAXX 19124 07607 12/70 61208 10140 20070 30236 40308 58030 60006 80002 91200=
07607,1997-02-19 18:00:00,12,1028.8,0.7,71,7,0,0,,,0,4.2,17.3,,,,,,,,,wg-a,,,,AAXX 19184 07607 12/// /0000 10120 20070 30216 40288 53007 60006 91800 333 10173 20042=
07607,1997-02-20 06:00:00,10,1033.3,0.2,93,9,8000,3.704,,,210,4.6,12.1,,,,,,,,,wg-a,,,,AAXX 20064 07607 12358 82102 10100 20090 30260 40333 53002 60006 885// 90600 333 10121 20046=
07607,1997-02-20 12:00:00,15,1032.8,-1,72,10,20000,3.704,,,210,,,,,,,,,,,wg-a,,,,AAXX 20124 07607 12570 72102 10150 20100 30257 40328 58010 60006 878// 91200=
07607,1997-02-21 00:00:00,8,1032.1,0.5,93,7,10000,0,,,0,,,,,,,,,,,wg-a,,,,AAXX 21004 07607 12760 40000 10080 20070 30248 40321 53005 60006 835/2 90000=
07607,1997-02-21 06:00:00,8,1031.9,0.5,93,7,8000,3.704,,,100,7.2,13.7,,,,,,,,,wg-a,,,,AAXX 21064 07607 12758 71002 10080 20070 30246 40319 53005 60006 8553/ 90600 333 10137 20072=
07607,1997-02-21 12:00:00,13,1033.8,0.6,77,9,8000,3.704,,,50,,,,,,,,,,,wg-a,,,,AAXX 21124 07607 12458 70502 10130 20090 30266 40338 51006 60006 878// 91200=
07607,1997-02-21 18:00:00,12,1031.8,-0.3,71,7,10000,7.408,,,40,7.6,17.3,,,,,,,,11,wg-a,,,,AAXX 21184 07607 12660 70404 10120 20070 30246 40318 55003 60006 71122 848/2 91800 333 10173 20076=
07607,1997-02-22 00:00:00,5,1031.4,-0.5,100,5,8000,3.704,,,100,,,,,,,,,,,wg-a,,,,AAXX 22004 07607 12/58 51002 10050 20050 30240 40314 58005 60006 80002 90000=
07607,1997-02-22 06:00:00,2,1028.2,-1.6,100,2,2500,7.408,,,100,0.7,12.2,,,,,,,,11,wg-a,,,,AAXX 22064 07607 12/25 61004 10020 20020 30207 40282 56016 60006 7111/ 80002 90600 333 10122 20007=
07607,1997-02-22 18:00:00,15,1023,-0.5,63,8,20000,7.408,,,80,0.5,20.3,,,,,,,,,wg-a,,,,AAXX 22184 07607 12/70 60804 10150 20080 30159 40230 56005 60006 81032 91800 333 10203 20005=
07607,1997-02-23 00:00:00,10,1022.2,-0.6,82,7,10000,7.408,,,100,,,,,,,,,,,wg-a,,,,AAXX 23004 07607 12/60 71004 10100 20070 30150 40222 58006 60006 80002 90000=
07607,1997-02-23 06:00:00,8,1020.6,-0.4,93,7,8000,7.408,,,80,7.8,14.6,,,,,,,,,wg-a,,,,AAXX 23064 07607 12/58 70804 10080 20070 30134 40206 58004 60006 80002 90600 333 10146 20078=
07607,1997-02-23 12:00:00,11,1020.4,-0.9,94,10,2500,3.704,,,90,,,,1,,,,,,61,wg-a,,,,AAXX 23124 07607 02625 80902 10110 20100 30132 40204 58009 60016 76162 8657/ 91200 333 60017=
07607,1997-02-23 18:00:00,14,1016.6,-1,82,11,500,7.408,,,120,8.3,15.9,,,,,,,,,wg-a,,,,AAXX 23184 07607 32600 61204 10140 20110 30095 40166 56010 82532 91800 333 10159 20083=
07607,1997-02-24 00:00:00,7,1016.2,-1.1,93,6,1200,3.704,,,80,,,,,,,,,,10,wg-a,,,,AAXX 24004 07607 12/12 00802 10070 20060 30089 40162 58011 60006 71011 80000 90000=
07607,1997-02-24 06:00:00,7,1014.7,-0.7,100,7,500,7.408,,,60,5.3,13.7,,,,,1,,,,wg-a,,,,AAXX 24064 07607 02700 70604 10070 20070 30075 40147 56007 60006 8357/ 90600 333 10137 20053 60014=
07607,1997-02-24 12:00:00,17,1015.2,0.1,59,9,15000,7.408,,,210,,,,,,,,,,21,wg-a,,,,AAXX 24124 07607 02765 72104 10170 20090 30082 40152 50001 61000 72162 8557/ 91200 333 6100=
07607,1997-02-24 18:00:00,17,1014,0.8,55,8,20000,3.704,,,190,6.6,19.1,,,,,,,,1,wg-a,,,,AAXX 24184 07607 02670 71902 10170 20080 30070 40140 51008 61000 70162 8325/ 91800 333 10191 20066 ////=
07607,1997-02-25 00:00:00,13,1015.5,0.9,82,10,10000,0,,,0,,,,,,,,,,,wg-a,,,,AAXX 25004 07607 12660 80000 10130 20100 30084 40155 53009 60006 82572 90000=
07607,1997-02-25 06:00:00,7,1016.9,1,100,7,500,0,,,0,7.3,16.9,,,,,,,,,wg-a,,,,AAXX 25064 07607 02/00 30000 10070 20070 30097 40169 53010 60006 83032 90600 333 10169 20073 61000=
07607,1997-02-25 12:00:00,21,1017.2,0.2,46,9,20000,29.632,,,240,,,,,,,,,,,wg-a,,,,AAXX 25124 07607 12570 62416 10210 20090 30103 40172 50002 60006 84132 91200=
07607,1997-02-26 00:00:00,13,1022,0.8,82,10,15000,3.704,,,170,,,,,,,,,,,wg-a,,,,AAXX 26004 07607 12/65 01702 10130 20100 30149 40220 51008 60006 80000 90000=
07607,1997-02-26 06:00:00,13,1023.4,1.3,77,9,10000,11.112,,,220,12.1,16.2,,,,,,,,,wg-a,,,,AAXX 26064 07607 12660 72206 10130 20090 30163 40234 53013 60006 875// 90600 333 10162 20121=
07607,1997-02-26 12:00:00,14,1029.2,2,77,10,15000,22.224,,,240,,,,,,,,,,3,wg-a,,,,AAXX 26124 07607 02465 82412 10140 20100 30220 40292 53020 61000 70362 888// 91200 333 6100=
07607,1997-02-27 00:00:00,7,1037.2,1.4,93,6,20000,0,,,0,,,,,,,,,,,wg-a,,,,AAXX 27004 07607 12/70 00000 10070 20060 30298 40372 53014 60006 80000 90000=
07607,1997-02-27 06:00:00,0,1039.2,0.4,93,-1,500,7.408,,,80,0.1,,,,,,,,,,wg-a,,,,AAXX 27064 07607 02/00 00804 10000 21010 30316 40392 52004 60006 80000 90600 333 10112 20001 61000=
07607,1997-02-27 12:00:00,14,1037.7,,51,4,500,14.816,,,100,,,,,,,,,,,wg-a,,,,AAXX 27124 07607 12/00 01008 10140 20040 30305 40377 60006 80000 91200=
07607,1997-02-27 18:00:00,13,1,-1.9,54,4,0,11.112,,,100,,,,,,,,,,,wg-a,,,,AAXX 27184 07607 32/// /1006 10130 20040 55019 91800=
07607,1997-02-28 06:00:00,4,1030.3,-0.7,75,0,15000,7.408,,,90,3.7,12.5,,,,,,,,,wg-a,,,,AAXX 28064 07607 12/65 00904 10040 20000 30229 40303 56007 60006 80000 90600 333 10125 20037=
07607,1997-02-28 18:00:00,18,1029.1,0.4,42,5,20000,3.704,,,140,2.3,24.4,,,,,,,,,wg-a,,,,AAXX 28184 07607 12/70 71402 10180 20050 30220 40291 53004 60006 80002 91800 333 10244 20023=
07607,1997-03-01 00:00:00,6,1029.6,-0.5,87,4,10000,3.704,,,20,,,,,,,,,,,wg-a,,,,AAXX 01004 07607 12/60 00202 10060 20040 30222 40296 55005 60006 80000 90000=
07607,1997-03-01 06:00:00,4,1029.1,-0,100,4,6000,0,,,0,3.6,17.7,,,,,,,,,wg-a,,,,AAXX 01064 07607 12/56 50000 10040 20040 30217 40291 54000 60006 80002 90600 333 10177 20036=
07607,1997-03-01 12:00:00,15,1028.5,-1,67,9,0,3.704,,,100,,,,,,,,,,,wg-a,,,,AAXX 01124 07607 12/// /1002 10150 20090 30214 40285 58010 60006 91200=
07607,1997-03-01 18:00:00,16,1026.2,-0.3,59,8,40000,7.408,,,80,3.9,19.7,,,,,,,,,wg-a,,,,AAXX 01184 07607 12/82 70804 10160 20080 30191 40262 55003 60006 84072 91800 333 10197 20039=
07607,1997-03-02 00:00:00,5,1026,-0.7,93,4,500,7.408,,,80,,,,,,,,,,,wg-a,,,,AAXX 02004 07607 12/00 00804 10050 20040 30186 40260 58007 60006 80000 90000=
07607,1997-03-02 06:00:00,3,1027.4,1.4,93,2,6000,3.704,,,70,2.7,15.6,,,,,,,,11,wg-a,,,,AAXX 02064 07607 12/56 30702 10030 20020 30200 40274 53014 60006 71100 80002 90600 333 10156 20027=
07607,1997-03-02 12:00:00,18,1030.3,0.7,49,7,12000,7.408,,,250,,,,,,,,,,,wg-a,,,,AAXX 02124 07607 12/62 32504 10180 20070 30232 40303 51007 60006 80001 91200=
07607,1997-03-02 18:00:00,17,1031.1,1.5,63,10,15000,7.408,,,300,2.4,21.2,,,,,,,,,wg-a,,,,AAXX 02184 07607 12/65 33004 10170 20100 30240 40311 53015 60006 80001 91800 333 10212 20024=
07607,1997-03-03 00:00:00,7,1034.2,0.6,100,7,15000,0,,,0,,,,,,,,,,,wg-a,,,,AAXX 03004 07607 12/65 00000 10070 20070 30268 40342 51006 60006 80000 90000=
07607,1997-03-03 06:00:00,3,1034.4,0.1,100,3,100,7.408,,,70,3.4,16.7,,,,,,,,44,wg-a,,,,AAXX 03064 07607 12201 30704 10030 20030 30269 40344 53001 60006 7444/ 83700 90600 333 10167 20034=
07607,1997-03-03 12:00:00,20,1033,-1,53,10,20000,11.112,,,100,,,,,,,,,,1,wg-a,,,,AAXX 03124 07607 12/70 21006 10200 20100 30260 40330 58010 60006 70141 80001 91200=
07607,1997-03-03 18:00:00,19,1030.9,-0.1,52,9,40000,7.408,,,70,3.3,24.1,,,,,,,,,wg-a,,,,AAXX 03184 07607 12/82 00704 10190 20090 30239 40309 55001 60006 80000 91800 333 10241 20033=
07607,1997-03-04 00:00:00,8,1030.5,-1,93,7,10000,7.408,,,80,,,,,,,,,,,wg-a,,,,AAXX 04004 07607 12/60 30804 10080 20070 30232 40305 58010 60006 80001 90000=
07607,1997-03-04 06:00:00,5,1029.5,-0.2,93,4,7000,3.704,,,90,4.2,18.9,,,,,,,,,wg-a,,,,AAXX 04064 07607 12/57 10902 10050 20040 30221 40295 57002 60006 80002 90600 333 10189 20042=
07607,1997-03-04 12:00:00,21,1029.5,-0.7,43,8,12000,11.112,,,240,,,,,,,,,,,wg-a,,,,AAXX 04124 07607 12/62 72406 10210 20080 30225 40295 58007 60006 81032 91200=
07607,1997-03-04 18:00:00,17,1029.5,1.2,52,7,20000,7.408,,,300,4.6,22.8,,,,,,,,,wg-a,,,,AAXX 04184 07607 12/70 43004 10170 20070 30224 40295 53012 60006 83032 91800 333 10228 20046=
07607,1997-03-05 00:00:00,12,1032.1,0.6,88,10,7000,11.112,,,270,,,,,,,,,,,wg-a,,,,AAXX 05004 07607 12657 82706 10120 20100 30249 40321 51006 60006 85/32 90000=
07607,1997-03-05 12:00:00,15,1032.6,-0.6,67,9,20000,7.408,,,260,,,,,,,,,,,wg-a,,,,AAXX 05124 07607 12570 62604 10150 20090 30254 40326 58006 60006 86400 91200=
07607,1997-03-06 00:00:00,7,1031.9,-0.8,93,6,15000,0,,,0,,,,,,,,,,,wg-a,,,,AAXX 06004 07607 12/65 00000 10070 20060 30245 40319 56008 60006 80000 90000=
07607,1997-03-06 06:00:00,7,1032.1,0.9,93,6,4000,0,,,0,5.5,14.1,,,,,,,,10,wg-a,,,,AAXX 06064 07607 12440 70000 10070 20060 30247 40321 51009 60006 7102/ 875// 90600 333 10141 20055=
07607,1997-03-06 12:00:00,16,1032,-0.6,68,10,8000,3.704,,,280,,,,,,,,,,,wg-a,,,,AAXX 06124 07607 12558 22802 10160 20100 30249 40320 56006 60006 82100 91200=
07607,1997-03-06 18:00:00,14,1030.4,0.2,72,9,15000,11.112,,,260,6.7,19,,,,,,,,,wg-a,,,,AAXX 06184 07607 12/65 22606 10140 20090 30232 40304 53002 60006 81052 91800 333 10190 20067=
07607,1997-03-07 00:00:00,9,1031,-0.9,93,8,10000,0,,,0,,,,,,,,,,,wg-a,,,,AAXX 07004 07607 12/60 40000 10090 20080 30237 40310 57009 60006 81032 90000=
07607,1997-03-07 06:00:00,9,1029.6,-0.4,93,8,100,0,,,0,8.2,14,,,,,,,,45,wg-a,,,,AAXX 07064 07607 12/01 90000 10090 20080 30223 40296 56004 60006 7454/ 89/// 90600 333 10140 20082=
07607,1997-03-07 12:00:00,15,1028.5,-1.5,67,9,15000,0,,,0,,,,,,,,,,3,wg-a,,,,AAXX 07124 07607 12465 40000 10150 20090 30214 40285 58015 60006 70341 84100 91200=
07607,1997-03-08 00:00:00,5,1028.4,1,93,4,10000,0,,,0,,,,,,,,,,,wg-a,,,,AAXX 08004 07607 12/60 00000 10050 20040 30210 40284 51010 60006 80000 90000=
07607,1997-03-08 06:00:00,1,1030,1.1,93,0,0,3.704,,,90,0.5,15.1,,,,,,,,,wg-a,,,,AAXX 08064 07607 12/// /0902 10010 20000 30225 40300 53011 60006 90600 333 10151 20005=
07607,1997-03-08 12:00:00,19,1030.2,-1,46,7,50000,0,,,0,,,,,,,,,,,wg-a,,,,AAXX 08124 07607 12/84 00000 10190 20070 30231 40302 58010 60006 80000 91200=
07607,1997-03-08 18:00:00,18,1029.2,0.5,45,6,40000,7.408,,,110,-0.1,20.9,,,,,,,,,wg-a,,,,AAXX 08184 07607 12/82 01104 10180 20060 30221 40292 53005 60006 80000 91800 333 10209 21001=
07607,1997-03-09 00:00:00,5,1029.8,-0.3,87,3,10000,3.704,,,80,,,,,,,,,,,wg-a,,,,AAXX 09004 07607 12/60 00802 10050 20030 30224 40298 58003 60006 80000 90000=
07607,1997-03-09 06:00:00,1,1029.9,0.6,93,0,10000,3.704,,,60,0.6,17.6,,,,,,,,,wg-a,,,,AAXX 09064 07607 12/60 00602 10010 20000 30224 40299 53006 60006 80000 90600 333 10176 20006=
07607,1997-03-09 12:00:00,21,1029.3,-1.2,35,5,20000,7.408,,,100,,,,,,,,,,,wg-a,,,,AAXX 09124 07607 12/70 01004 10210 20050 30223 40293 58012 60006 80000 91200=
07607,1997-03-09 18:00:00,18,1027.8,0.4,42,5,20000,7.408,,,90,0.4,22.9,,,,,,,,,wg-a,,,,AAXX 09184 07607 12/70 00904 10180 20050 30208 40278 53004 60006 80000 91800 333 10229 20004=
07607,1997-03-10 00:00:00,7,1029,0,81,4,20000,3.704,,,120,,,,,,,,,,,wg-a,,,,AAXX 10004 07607 12/70 01202 10070 20040 30217 40290 50000 60006 80000 90000=
07607,1997-03-10 12:00:00,20,1029.7,-1.3,35,4,500,0,,,0,,,,,,,,,,,wg-a,,,,AAXX 10124 07607 12/00 00000 10200 20040 30227 40297 58013 60006 80000 91200=
07607,1997-03-10 18:00:00,19,1028.5,0.2,40,5,500,7.408,,,100,1.1,23.5,,,,,,,,,wg-a,,,,AAXX 10184 07607 12/00 01004 10190 20050 30214 40285 53002 60006 80000 91800 333 10235 20011=
07607,1997-03-11 00:00:00,5,1028.9,-0.4,87,3,10000,7.408,,,80,,,,,,,,,,,wg-a,,,,AAXX 11004 07607 12/60 00804 10050 20030 30215 40289 58004 60006 80000 90000=
07607,1997-03-11 06:00:00,0,1029.1,0.5,93,-1,0,7.408,,,80,0.2,18.4,,,,,,,,,wg-a,,,,AAXX 11064 07607 12/// /0804 10000 21010 30216 40291 52005 60006 90600 333 10184 20002=
07607,1997-03-11 12:00:00,22,1028.4,-0.7,27,2,50000,7.408,,,100,,,,,,,,,,,wg-a,,,,AAXX 11124 07607 12/84 01004 10220 20020 30214 40284 58007 60006 80000 91200=
07607,1997-03-11 18:00:00,21,1027.3,0.5,33,4,50000,14.816,,,280,-0.2,25.8,,,,,,,,,wg-a,,,,AAXX 11184 07607 12/84 12808 10210 20040 30203 40273 53005 60006 80002 91800 333 10258 21002=
07607,1997-03-12 00:00:00,7,1030.5,0.7,81,4,20000,3.704,,,210,,,,,,,,,,,wg-a,,,,AAXX 12004 07607 12270 12102 10070 20040 30232 40305 51007 60006 81602 90000=
07607,1997-03-12 06:00:00,11,1032.2,1.2,94,10,3000,3.704,,,190,7.3,20.6,,,,,,,,10,wg-a,,,,AAXX 12064 07607 12230 71902 10110 20100 30249 40322 53012 60006 7102/ 876// 90600 333 10206 20073=
07607,1997-03-12 18:00:00,19,1031.2,0.3,34,3,20000,7.408,,,320,10.7,22.2,,,,,,,,,wg-a,,,,AAXX 12184 07607 12/70 13204 10190 20030 30241 40312 53003 60006 80001 91800 333 10222 20107=
07607,1997-03-15 12:00:00,16,1030,-0.6,72,11,20000,3.704,,,230,,,,,,,,,,,wg-a,,,,AAXX 15124 07607 02570 72302 10160 20110 30229 40300 58006 61000 878// 91200 333 ////=
07607,1997-03-16 00:00:00,10,1030.5,0.3,100,10,10000,0,,,0,,,,,,,,,,,wg-a,,,,AAXX 16004 07607 12660 40000 10100 20100 30232 40305 51003 60006 84500 90000=
07607,1997-03-16 06:00:00,11,1029.4,0.3,100,11,4000,7.408,,,60,9.7,14.8,,,,,,,,10,wg-a,,,,AAXX 16064 07607 02340 70604 10110 20110 30222 40294 53003 60006 71022 876// 90600 333 10148 20097 60004=
07607,1997-03-16 18:00:00,17,1026.2,-0.5,59,9,50000,11.112,,,40,11,19.3,,,,,,,,,wg-a,,,,AAXX 16184 07607 12/84 10406 10170 20090 30191 40262 55005 60006 80001 91800 333 10193 20110=
07607,1997-03-17 06:00:00,1,1026.4,0.3,100,1,500,3.704,,,70,1,17,,,,,,,,46,wg-a,,,,AAXX 17064 07607 12105 30702 10010 20010 30189 40264 53003 60006 74600 82702 90600 333 10170 20010=
07607,1997-03-17 18:00:00,22,1022.9,-0.5,41,8,20000,7.408,,,270,1,25.1,,,,,,,,,wg-a,,,,AAXX 17184 07607 12/70 12704 10220 20080 30160 40229 55005 60006 80002 91800 333 10251 20010=
07607,1997-03-18 06:00:00,7,1023.9,0.3,100,7,100,11.112,,,240,5.9,22,,,,,,,,47,wg-a,,,,AAXX 18064 07607 12/01 92406 10070 20070 30166 40239 53003 60006 74744 89/// 90600 333 10220 20059=
07607,1997-03-18 12:00:00,17,1022.8,-1,72,12,20000,14.816,,,250,,,,,,,,,,,wg-a,,,,AAXX 18124 07607 02570 12508 10170 20120 30158 40228 58010 61000 81100 91200 333 ////=
07607,1997-03-18 18:00:00,16,1021,-0,48,5,0,14.816,,,280,6.7,20.9,,,,,,,,,wg-a,,,,AAXX 18184 07607 32/// /2808 10160 20050 30139 40210 55000 91800 333 10209 20067=
07607,1997-03-22 06:00:00,-2,1021.8,0.8,93,-3,0,0,,,0,-1.5,14.2,,,,,,,,,wg-a,,,,AAXX 22064 07607 12/// /0000 11020 21030 30143 40218 53008 60006 90600 333 10142 21015=
07607,1997-03-23 18:00:00,17,1017.1,0.7,29,-1,0,18.52,,,290,3.5,20.9,,,,,,,,,wg-a,,,,AAXX 23184 07607 12/// /2910 10170 21010 30101 40171 53007 60006 91800 333 10209 20035=
07607,1997-03-27 00:00:00,7,1025.7,0,93,6,10000,0,,,0,,,,,,,,,,,wg-a,,,,AAXX 27004 07607 12/60 30000 10070 20060 30184 40257 50000 60006 80002 90000=
07607,1997-03-28 06:00:00,6,1022.9,0.5,93,5,800,3.704,,,320,5.7,20.6,,,,,,,,44,wg-a,,,,AAXX 28064 07607 12108 73202 10060 20050 30156 40229 53005 60006 74441 876// 90600 333 10206 20057=
07607,1997-03-28 18:00:00,15,1022.1,0.1,67,9,500,7.408,,,330,5.7,15.9,,,,,,,,,wg-a,,,,AAXX 28184 07607 12500 43304 10150 20090 30150 40221 53001 60006 84800 91800 333 10159 20057=
07607,1997-03-29 00:00:00,5,1025.3,0.7,81,2,15000,0,,,0,,,,,,,,,,,wg-a,,,,AAXX 29004 07607 12/65 00000 10050 20020 30179 40253 50007 60006 80000 90000=
07607,1997-03-29 18:00:00,13,1022.9,-0.1,38,-1,40000,14.816,,,40,-0.9,16.2,,,,,,,,,wg-a,,,,AAXX 29184 07607 12/82 00408 10130 21010 30158 40229 55001 60006 80000 91800 333 10162 21009=
07607,1997-03-30 00:00:00,4,1023.5,-0.4,70,-1,15000,7.408,,,50,,,,,,,,,,,wg-a,,,,AAXX 30004 07607 12/65 00504 10040 21010 30161 40235 57004 60006 80000 90000=
07607,1997-04-01 00:00:00,4,1019.3,-0.3,87,2,10000,7.408,,,80,,,,,,,,,,,wg-a,,,,AAXX 01004 07607 12/60 00804 10040 20020 30120 40193 58003 60006 80000 90000=
07607,1997-04-01 03:00:00,2,1019,-0.4,87,0,10000,0,,,0,,,,,,,,,,,wg-a,,,,AAXX 01034 07607 12/60 00000 10020 20000 30116 40190 56004 60006 80000 90300=
07607,1997-04-01 06:00:00,0,1020,0.9,93,-1,6000,3.704,,,50,-0.1,19.3,,,,,,,,,wg-a,,,,AAXX 01064 07607 12156 /0502 10000 21010 30125 40200 53009 60006 84602 90600 333 10193 21001=
07607,1997-04-01 09:00:00,8,1020.4,0.7,100,8,800,0,,,0,,,,,,,,,,42,wg-a,,,,AAXX 01094 07607 12108 90000 10080 20080 30132 40204 51007 60006 74242 896// 90900=
07607,1997-04-01 12:00:00,19,1019.1,-1.1,49,8,500,3.704,,,160,,,,,,,,,,3,wg-a,,,,AAXX 01124 07607 12400 /1602 10190 20080 30121 40191 58011 60006 70341 81200 91200=
07607,1997-04-01 15:00:00,22,1017,-2,29,3,50000,7.408,,,260,,,,,,,,,,,wg-a,,,,AAXX 01154 07607 12784 12604 10220 20030 30101 40170 58020 60006 81100 91500=
07607,1997-04-01 18:00:00,18,1017.6,0.5,45,6,50000,22.224,,,280,0.4,22.4,,,,,,,,,wg-a,,,,AAXX 01184 07607 12/84 02812 10180 20060 30106 40176 53005 60006 80000 91800 333 10224 20004=
07607,1997-04-01 21:00:00,12,1019,1.2,67,6,500,7.408,,,260,,,,,,,,,,,wg-a,,,,AAXX 01214 07607 12/00 02604 10120 20060 30118 40190 51012 60006 80000 92100=
07607,1997-04-02 00:00:00,9,1019.1,-0.1,93,8,20000,3.704,,,230,,,,,,,,,,,wg-a,,,,AAXX 02004 07607 12270 /2302 10090 20080 30119 40191 55001 60006 86600 90000=
07607,1997-04-02 06:00:00,10,1018.6,0.3,93,9,4000,7.408,,,230,8.2,18.2,,,,,,,,10,wg-a,,,,AAXX 02064 07607 12240 72304 10100 20090 30114 40186 53003 60006 71022 876// 90600 333 10182 20082=
07607,1997-04-02 09:00:00,13,1019,0.5,77,9,12000,11.112,,,250,,,,,,,,,,,wg-a,,,,AAXX 02094 07607 12462 72506 10130 20090 30119 40190 51005 60006 871// 90900=
07607,1997-04-02 12:00:00,19,1017.3,-1.6,52,9,25000,11.112,,,280,,,,,,,,,,,wg-a,,,,AAXX 02124 07607 12/75 02806 10190 20090 30103 40173 58016 60006 80000 91200=
07607,1997-04-02 15:00:00,23,1015.5,-1.7,33,6,500,7.408,,,240,,,,,,,,,,,wg-a,,,,AAXX 02154 07607 12700 12404 10230 20060 30086 40155 58017 60006 81100 91500=
07607,1997-04-02 18:00:00,21,1015.9,0.4,49,10,0,7.408,,,260,10,23,,,,,,,,,wg-a,,,,AAXX 02184 07607 12/// /2604 10210 20100 30090 40159 53004 60006 91800 333 10230 20100=
07607,1997-04-02 21:00:00,13,1018.2,2.1,82,10,20000,7.408,,,260,,,,,,,,,,,wg-a,,,,AAXX 02214 07607 12/70 02604 10130 20100 30111 40182 51021 60006 80000 92100=
07607,1997-04-03 00:00:00,10,1018.3,0,93,9,10000,14.816,,,260,,,,,,,,,,,wg-a,,,,AAXX 03004 07607 12/60 02608 10100 20090 30111 40183 50000 60006 80000 90000=
07607,1997-04-03 03:00:00,10,1018.5,0.2,100,10,900,11.112,,,240,,,,,,,,,,,wg-a,,,,AAXX 03034 07607 12/09 /2406 10100 20100 30113 40185 51002 60006 90300=
07607,1997-04-03 09:00:00,13,1020.3,1.3,82,10,10000,7.408,,,280,,,,,,,,,,,wg-a,,,,AAXX 03094 07607 12460 /2804 10130 20100 30132 40203 53013 60006 86500 90900=
07607,1997-04-03 12:00:00,21,1019.7,-0.4,46,9,40000,3.704,,,190,,,,,,,,,,,wg-a,,,,AAXX 03124 07607 12582 31902 10210 20090 30128 40197 58004 60006 83100 91200=
07607,1997-04-03 18:00:00,19,1019.6,1.2,40,5,50000,18.52,,,310,10.6,23.5,,,,,,,,,wg-a,,,,AAXX 03184 07607 12/84 13110 10190 20050 30126 40196 53012 60006 80001 91800 333 10235 20106=
07607,1997-04-03 21:00:00,11,1022.3,2.5,71,6,500,7.408,,,270,,,,,,,,,,,wg-a,,,,AAXX 03214 07607 12/00 02704 10110 20060 30151 40223 51025 60006 80000 92100=
07607,1997-04-04 00:00:00,9,1024,1.7,93,8,20000,11.112,,,240,,,,,,,,,,,wg-a,,,,AAXX 04004 07607 12/70 02406 10090 20080 30168 40240 52017 60006 80000 90000=
07607,1997-04-04 03:00:00,10,1024.8,0.8,93,9,8000,3.704,,,230,,,,,,,,,,,wg-a,,,,AAXX 04034 07607 12658 72302 10100 20090 30176 40248 51008 60006 8353/ 90300=
07607,1997-04-04 06:00:00,9,1026.1,1.2,93,8,4000,3.704,,,260,7.8,18.8,,,,,,,,,wg-a,,,,AAXX 04064 07607 12640 /2602 10090 20080 30188 40261 53012 60006 86500 90600 333 10188 20078=
07607,1997-04-04 09:00:00,11,1027.8,1.8,76,7,10000,7.408,,,10,,,,,,,,,,,wg-a,,,,AAXX 04094 07607 12660 50104 10110 20070 30206 40278 52018 60006 85800 90900=
07607,1997-04-04 12:00:00,16,1026.4,-1.3,42,3,10000,7.408,,,300,,,,,,,,,,,wg-a,,,,AAXX 04124 07607 12/60 /3004 10160 20030 30193 40264 58013 60006 91200=
07607,1997-04-04 15:00:00,19,1025,-1.3,32,2,20000,14.816,,,310,,,,,,,,,,,wg-a,,,,AAXX 04154 07607 12770 23108 10190 20020 30180 40250 56013 60006 82100 91500=
07607,1997-04-04 18:00:00,15,1026,0.9,51,5,20000,18.52,,,310,8.8,18.6,,,,,,,,,wg-a,,,,AAXX 04184 07607 12/70 13110 10150 20050 30189 40260 53009 60006 80002 91800 333 10186 20088=
07607,1997-04-04 21:00:00,10,1028,1.8,71,5,20000,11.112,,,330,,,,,,,,,,,wg-a,,,,AAXX 04214 07607 12/70 03306 10100 20050 30207 40280 51018 60006 80000 92100=
07607,1997-04-05 00:00:00,5,1028.8,0.7,87,3,10000,0,,,0,,,,,,,,,,,wg-a,,,,AAXX 05004 07607 12/60 00000 10050 20030 30214 40288 53007 60006 80000 90000=
07607,1997-04-05 06:00:00,-1,1028.8,0.4,100,-1,10000,0,,,0,-0.7,14.8,,,,,,,,11,wg-a,,,,AAXX 05064 07607 12/60 40000 11010 21010 30212 40288 53004 60006 7110/ 80002 90600 333 10148 21007=
07607,1997-04-05 09:00:00,12,1028.2,-0.2,54,3,500,3.704,,,120,,,,,,,,,,,wg-a,,,,AAXX 05094 07607 12/00 41202 10120 20030 30210 40282 58002 60006 80002 90900=
07607,1997-04-05 12:00:00,17,1026.2,-1.9,29,-1,500,11.112,,29.632,80,,,,,,,,,,,wg-a,,,,AAXX 05124 07607 12/00 30806 10170 21010 30191 40262 58019 60006 80002 91200 333 91016=
07607,1997-04-05 15:00:00,19,1023.4,-2.7,24,-2,10000,14.816,,,30,,,,,,,,,,,wg-a,,,,AAXX 05154 07607 12/60 /0308 10190 21020 30164 40234 58027 60006 91500=
07607,1997-04-05 18:00:00,18,1022.4,-1,32,1,10000,11.112,,,40,-0.5,20.1,,,,,,,,,wg-a,,,,AAXX 05184 07607 12/60 /0406 10180 20010 30154 40224 56010 60006 91800 333 10201 21005=
07607,1997-04-05 21:00:00,11,1024,1.4,50,1,10000,3.704,,,110,,,,,,,,,,,wg-a,,,,AAXX 05214 07607 12/60 /1102 10110 20010 30168 40240 51014 60006 92100=
07607,1997-04-06 03:00:00,3,1022.9,-1.2,87,1,6000,0,,,0,,,,,,,,,,,wg-a,,,,AAXX 06034 07607 12/56 00000 10030 20010 30155 40229 57012 60006 80000 90300=
07607,1997-04-06 06:00:00,1,1023.2,0.2,86,-1,8000,3.704,,,120,0.2,17.9,,,,,,,,,wg-a,,,,AAXX 06064 07607 12/58 01202 10010 21010 30157 40232 53002 60006 80000 90600 333 10179 20002=
07607,1997-04-06 09:00:00,14,1022.6,-0.2,63,7,25000,11.112,,,110,,,,,,,,,,,wg-a,,,,AAXX 06094 07607 12/75 11106 10140 20070 30155 40226 58002 60006 80001 90900=
07607,1997-04-06 12:00:00,21,1020.3,-2.1,30,3,500,14.816,,,90,,,,,,,,,,,wg-a,,,,AAXX 06124 07607 12/00 10908 10210 20030 30134 40203 58021 60006 80001 91200=
07607,1997-04-06 18:00:00,21,1016.7,-1.1,40,7,500,14.816,,,60,0.6,23,,,,,,,,,wg-a,,,,AAXX 06184 07607 12/00 10608 10210 20070 30098 40167 56011 60006 80001 91800 333 10230 20006=
07607,1997-04-06 21:00:00,15,1017.7,0.8,59,7,20000,14.816,,,40,,,,,,,,,,,wg-a,,,,AAXX 06214 07607 12/70 10408 10150 20070 30106 40177 53008 60006 80001 92100=
07607,1997-04-07 00:00:00,12,1018.2,0.5,67,6,15000,14.816,,,40,,,,,,,,,,,wg-a,,,,AAXX 07004 07607 12/65 20408 10120 20060 30111 40182 50005 60006 80002 90000=
07607,1997-04-07 03:00:00,8,1017.3,-1,76,4,15000,7.408,,,40,,,,,,,,,,,wg-a,,,,AAXX 07034 07607 12/65 40404 10080 20040 30101 40173 55010 60006 80002 90300=
07607,1997-04-07 09:00:00,15,1017.1,-0.7,48,4,500,18.52,,,110,,,,,,,,,,,wg-a,,,,AAXX 07094 07607 12/00 21110 10150 20040 30100 40171 57007 60006 80002 90900=
07607,1997-04-07 12:00:00,20,1016.2,-0.7,32,3,50000,18.52,,,110,,,,,,,,,,,wg-a,,,,AAXX 07124 07607 12/84 61110 10200 20030 30093 40162 58007 60006 80002 91200=
07607,1997-04-07 18:00:00,21,1015.2,0.3,30,3,10000,11.112,,,80,4.8,22.9,,,,,,,,,wg-a,,,,AAXX 07184 07607 12/60 /0806 10210 20030 30083 40152 53003 60006 91800 333 10229 20048=
07607,1997-04-07 21:00:00,15,1016.9,1.5,51,5,10000,11.112,,,90,,,,,,,,,,,wg-a,,,,AAXX 07214 07607 12/60 /0906 10150 20050 30098 40169 52015 60006 92100=
07607,1997-04-08 06:00:00,7,1018.7,1.6,93,6,8000,7.408,,,60,6.5,20.7,,,,,,,,,wg-a,,,,AAXX 08064 07607 12/58 60604 10070 20060 30114 40187 52016 60006 83032 90600 333 10207 20065=
07607,1997-04-08 09:00:00,15,1019.8,1.3,67,9,20000,7.408,,,110,,,,,,,,,,,wg-a,,,,AAXX 08094 07607 12/70 41104 10150 20090 30127 40198 51013 60006 80002 90900=
07607,1997-04-08 12:00:00,22,1019.5,-0.1,41,8,500,11.112,,,70,,,,,,,,,,,wg-a,,,,AAXX 08124 07607 12/00 60706 10220 20080 30126 40195 58001 60006 80002 91200=
07607,1997-04-08 15:00:00,23,1018.7,-0.8,36,7,500,18.52,,,100,,,,,,,,,,,wg-a,,,,AAXX 08154 07607 12/00 61010 10230 20070 30118 40187 57008 60006 80002 91500=
07607,1997-04-08 18:00:00,20,1019.7,1,40,6,500,18.52,,,100,7,22.8,,,,,,,,,wg-a,,,,AAXX 08184 07607 12/00 71010 10200 20060 30128 40197 53010 60006 83032 91800 333 10228 20070=
07607,1997-04-08 21:00:00,15,1022,2.1,55,6,10000,14.816,,,100,,,,,,,,,,,wg-a,,,,AAXX 08214 07607 12/60 21008 10150 20060 30149 40220 51021 60006 80002 92100=
07607,1997-04-09 00:00:00,10,1023.4,1.3,82,7,10000,11.112,,,80,,,,,,,,,,,wg-a,,,,AAXX 09004 07607 12/60 00806 10100 20070 30162 40234 51013 60006 80000 90000=
07607,1997-04-09 03:00:00,8,1024,0.5,87,6,10000,11.112,,,70,,,,,,,,,,,wg-a,,,,AAXX 09034 07607 12/60 00706 10080 20060 30167 40240 51005 60006 80000 90300=
07607,1997-04-09 06:00:00,5,1024.8,0.7,93,4,15000,7.408,,,40,4.7,20.1,,,,,,,,,wg-a,,,,AAXX 09064 07607 12/65 20404 10050 20040 30174 40248 53007 60006 80002 90600 333 10201 20047=
07607,1997-04-09 09:00:00,13,1025.8,1.2,67,7,35000,7.408,,,130,,,,,,,,,,,wg-a,,,,AAXX 09094 07607 12/81 31304 10130 20070 30186 40258 51012 60006 80002 90900=
07607,1997-04-09 15:00:00,22,1024.2,-1,38,7,75000,14.816,,,110,,,,,,,,,,,wg-a,,,,AAXX 09154 07607 12689 41108 10220 20070 30173 40242 56010 60006 81102 91500=
07607,1997-04-09 18:00:00,20,1025.1,0.8,43,7,40000,18.52,,,90,4.8,22.2,,,,,,,,,wg-a,,,,AAXX 09184 07607 12/82 20910 10200 20070 30181 40251 53008 60006 80002 91800 333 10222 20048=
07607,1997-04-09 21:00:00,14,1027.5,2.2,55,5,20000,14.816,,,100,,,,,,,,,,,wg-a,,,,AAXX 09214 07607 12/70 11008 10140 20050 30203 40275 51022 60006 80001 92100=
07607,1997-04-10 03:00:00,7,1028.5,-0.2,81,4,10000,11.112,,,60,,,,,,,,,,,wg-a,,,,AAXX 10034 07607 12/60 /0606 10070 20040 30211 40285 58002 60006 90300=
07607,1997-04-10 06:00:00,5,1029.1,0.6,87,3,10000,7.408,,,80,4,19.9,,,,,,,,,wg-a,,,,AAXX 10064 07607 12/60 00804 10050 20030 30217 40291 53006 60006 80000 90600 333 10199 20040=
07607,1997-04-10 09:00:00,13,1029,0.1,62,6,15000,7.408,,,100,,,,,,,,,,,wg-a,,,,AAXX 10094 07607 12/65 01004 10130 20060 30218 40290 51001 60006 80000 90900=
07607,1997-04-10 12:00:00,20,1027.6,-1.2,32,3,500,14.816,,,100,,,,,,,,,,,wg-a,,,,AAXX 10124 07607 12/00 01008 10200 20030 30206 40276 58012 60006 80000 91200=
07607,1997-04-10 15:00:00,23,1026,-1.5,25,2,500,11.112,,,90,,,,,,,,,,,wg-a,,,,AAXX 10154 07607 12/00 00906 10230 20020 30191 40260 56015 60006 80000 91500=
07607,1997-04-10 18:00:00,21,1026.1,-0,26,1,500,7.408,,,110,4.5,23,,,,,,,,,wg-a,,,,AAXX 10184 07607 12/00 01104 10210 20010 30191 40261 55000 60006 80000 91800 333 10230 20045=
07607,1997-04-10 21:00:00,11,1027.7,1.4,58,3,500,0,,,0,,,,,,,,,,,wg-a,,,,AAXX 10214 07607 12/00 00000 10110 20030 30205 40277 51014 60006 80000 92100=
07607,1997-04-11 00:00:00,6,1027.9,0,75,2,20000,3.704,,,90,,,,,,,,,,,wg-a,,,,AAXX 11004 07607 12/70 00902 10060 20020 30205 40279 50000 60006 80000 90000=
07607,1997-04-11 06:00:00,1,1026.7,-0.3,93,0,10000,3.704,,,80,0.9,21.3,,,,,,,,,wg-a,,,,AAXX 11064 07607 12/60 10802 10010 20000 30192 40267 55003 60006 80002 90600 333 10213 20009=
07607,1997-04-11 09:00:00,16,1025.9,-0.4,51,6,20000,11.112,,,270,,,,,,,,,,,wg-a,,,,AAXX 11094 07607 12/70 /2706 10160 20060 30188 40259 58004 60006 80000 90900=
07607,1997-04-11 18:00:00,22,1020.7,-0.4,29,3,10000,18.52,,,280,1.3,26.3,,,,,,,,,wg-a,,,,AAXX 11184 07607 12/60 /2810 10220 20030 30138 40207 55004 60006 91800 333 10263 20013=
07607,1997-04-12 00:00:00,11,1022.1,-0.2,82,8,10000,7.408,,,210,,,,,,,,,,,wg-a,,,,AAXX 12004 07607 12/60 /2104 10110 20080 30149 40221 58002 60006 90000=
07607,1997-04-12 03:00:00,9,1021.4,-0.7,100,9,500,7.408,,,230,,,,,,,,,,,wg-a,,,,AAXX 12034 07607 12/05 /2304 10090 20090 30142 40214 56007 60006 90300=
07607,1997-04-12 06:00:00,9,1021.4,-0,100,9,1200,3.704,,,320,8,21.8,,,,,,,,10,wg-a,,,,AAXX 12064 07607 12212 83202 10090 20090 30142 40214 55000 60006 71042 886// 90600 333 10218 20080=
07607,1997-04-12 09:00:00,13,1021.4,0.1,67,7,10000,3.704,,,10,,,,,,,,,,,wg-a,,,,AAXX 12094 07607 12/60 30102 10130 20070 30143 40214 50001 60006 80002 90900=
07607,1997-04-12 15:00:00,21,1018.5,-1.4,25,0,50000,14.816,,,340,,,,,,,,,,,wg-a,,,,AAXX 12154 07607 12784 43408 10210 20000 30116 40185 56014 60006 81101 91500=
07607,1997-04-12 18:00:00,18,1019.2,0.6,24,-3,50000,14.816,,,10,9,21.1,,,,,,,,,wg-a,,,,AAXX 12184 07607 12/84 20108 10180 21030 30122 40192 53006 60006 80001 91800 333 10211 20090=
07607,1997-04-13 00:00:00,6,1021.6,0.6,56,-2,500,3.704,,,260,,,,,,,,,,,wg-a,,,,AAXX 13004 07607 12/00 02602 10060 21020 30143 40216 51006 60006 80000 90000=
07607,1997-04-13 06:00:00,0,1021.6,0.6,80,-3,15000,3.704,,,360,-0.4,17.6,,,,,,,,,wg-a,,,,AAXX 13064 07607 12/65 03602 10000 21030 30141 40216 53006 60006 80000 90600 333 10176 21004=
07607,1997-04-13 09:00:00,10,1021.3,0,50,0,40000,3.704,,,160,,,,,,,,,,,wg-a,,,,AAXX 13094 07607 12/82 01602 10100 20000 30141 40213 50000 60006 80000 90900=
07607,1997-04-13 12:00:00,17,1019.4,-1.7,32,0,50000,7.408,,,270,,,,,,,,,,,wg-a,,,,AAXX 13124 07607 12/84 02704 10170 20000 30124 40194 58017 60006 80000 91200=
07607,1997-04-13 15:00:00,20,1017.7,-1.6,21,-3,50000,11.112,,,20,,,,,,,,,,,wg-a,,,,AAXX 13154 07607 12/84 00206 10200 21030 30108 40177 58016 60006 80000 91500=
07607,1997-04-13 18:00:00,18,1017.7,-0.1,24,-3,500,14.816,,,30,-0.3,20.7,,,,,,,,,wg-a,,,,AAXX 13184 07607 12/00 00308 10180 21030 30107 40177 55001 60006 80000 91800 333 10207 21003=
07607,1997-04-13 21:00:00,10,1019,1.1,50,0,20000,0,,,0,,,,,,,,,,,wg-a,,,,AAXX 13214 07607 12/70 00000 10100 20000 30118 40190 52011 60006 80000 92100=
07607,1997-04-14 00:00:00,6,1019.1,-0,75,2,20000,3.704,,,270,,,,,,,,,,,wg-a,,,,AAXX 14004 07607 12/70 02702 10060 20020 30118 40191 54000 60006 80000 90000=
07607,1997-04-14 03:00:00,1,1019.2,-0,86,-1,12000,3.704,,,80,,,,,,,,,,,wg-a,,,,AAXX 14034 07607 12/62 00802 10010 21010 30118 40192 55000 60006 80000 90300=
07607,1997-04-14 06:00:00,0,1019.8,0.5,86,-2,10000,3.704,,,60,-0.7,18.3,,,,,,,,,wg-a,,,,AAXX 14064 07607 12/60 00602 10000 21020 30123 40198 53005 60006 80000 90600 333 10183 21007=
07607,1997-04-14 09:00:00,12,1019.9,0.5,67,6,500,7.408,,,290,,,,,,,,,,,wg-a,,,,AAXX 14094 07607 12/00 12904 10120 20060 30128 40199 51005 60006 80001 90900=
07607,1997-04-14 12:00:00,20,1018.6,-1.1,30,2,500,11.112,,,160,,,,,,,,,,,wg-a,,,,AAXX 14124 07607 12/00 01606 10200 20020 30117 40186 58011 60006 80000 91200=
07607,1997-04-14 18:00:00,22,1017.2,0.4,29,3,500,7.408,,,150,-0.2,23.6,,,,,,,,,wg-a,,,,AAXX 14184 07607 12/00 01504 10220 20030 30103 40172 53004 60006 80000 91800 333 10236 21002=
07607,1997-04-15 00:00:00,8,1019.6,0.3,76,4,20000,3.704,,,190,,,,,,,,,,,wg-a,,,,AAXX 15004 07607 12/70 01902 10080 20040 30124 40196 53003 60006 80000 90000=
07607,1997-04-15 06:00:00,6,1020.5,0.6,87,4,7000,0,,,0,3.6,22,,,,,,,,,wg-a,,,,AAXX 15064 07607 12157 70000 10060 20040 30132 40205 53006 60006 876// 90600 333 10220 20036=
07607,1997-04-15 12:00:00,22,1019.7,-1.2,38,7,20000,3.704,,,90,,,,,,,,,,,wg-a,,,,AAXX 15124 07607 12/70 00902 10220 20070 30128 40197 58012 60006 80000 91200=
07607,1997-04-15 18:00:00,22,1018.3,0.1,23,0,0,11.112,,,30,6,24.6,,,,,,,,,wg-a,,,,AAXX 15184 07607 12/// /0306 10220 20000 30114 40183 52001 60006 91800 333 10246 20060=
07607,1997-04-16 00:00:00,11,1019.8,-0.2,66,5,0,0,,,0,,,,,,,,,,,wg-a,,,,AAXX 16004 07607 12/// /0000 10110 20050 30126 40198 56002 60006 90000=
07607,1997-04-16 06:00:00,3,1019.7,0.2,93,2,25000,0,,,0,3.1,22.3,,,,,,,,,wg-a,,,,AAXX 16064 07607 12/75 00000 10030 20020 30123 40197 53002 60006 80000 90600 333 10223 20031=
07607,1997-04-16 12:00:00,21,1016.1,-2.7,23,-1,60000,7.408,,,20,,,,,,,,,,,wg-a,,,,AAXX 16124 07607 12/86 00204 10210 21010 30092 40161 58027 60006 80000 91200=
07607,1997-04-16 18:00:00,21,1012.9,-0.8,21,-2,500,14.816,,,50,3.4,23.8,,,,,,,,,wg-a,,,,AAXX 16184 07607 12/00 10508 10210 21020 30060 40129 58008 60006 80001 91800 333 10238 20034=
07607,1997-04-17 00:00:00,11,1012.5,-0.8,47,0,15000,18.52,,,40,,,,,,,,,,,wg-a,,,,AAXX 17004 07607 12/65 20410 10110 20000 30054 40125 58008 60006 80001 90000=
07607,1997-04-17 06:00:00,6,1012.1,0.4,61,-1,20000,11.112,,,50,4.8,21,,,,,,,,,wg-a,,,,AAXX 17064 07607 12/70 20506 10060 21010 30048 40121 53004 60006 80002 90600 333 10210 20048=
07607,1997-04-17 09:00:00,14,1011.4,-0.4,36,-1,50000,14.816,,,40,,,,,,,,,,,wg-a,,,,AAXX 17094 07607 12/84 30408 10140 21010 30044 40114 58004 60006 80002 90900=
07607,1997-04-17 12:00:00,18,1009.9,-1.4,24,-3,0,14.816,,,50,,,,,,,,,,,wg-a,,,,AAXX 17124 07607 12/// /0508 10180 21030 30030 40099 57014 60006 91200=
07607,1997-04-17 18:00:00,18,1008.6,0.2,24,-3,50000,18.52,,,80,5.7,20.7,,,,,,,,3,wg-a,,,,AAXX 17184 07607 12784 20810 10180 21030 30017 40086 53002 60006 70330 81202 91800 333 10207 20057=
07607,1997-04-18 00:00:00,10,1012.9,1.3,57,2,15000,18.52,,,90,,,,,,,,,,,wg-a,,,,AAXX 18004 07607 12/65 10910 10100 20020 30057 40129 51013 60006 81030 90000=
07607,1997-04-18 06:00:00,9,1013.4,0.8,61,2,500,14.816,,,80,7.9,18.3,,,,,,,,,wg-a,,,,AAXX 18064 07607 12800 60808 10090 20020 30062 40134 53008 60006 85082 90600 333 10183 20079=
07607,1997-04-18 12:00:00,18,1011.2,-1.6,37,3,60000,22.224,,,80,,,,,,,,,,,wg-a,,,,AAXX 18124 07607 12586 40812 10180 20030 30042 40112 58016 60006 83180 91200=
07607,1997-04-18 15:00:00,19,1009.7,-1.4,37,4,60000,22.224,,,100,,,,,,,,,,,wg-a,,,,AAXX 18154 07607 12686 71012 10190 20040 30028 40097 56014 60006 84402 91500=
07607,1997-04-18 18:00:00,16,1009.8,-0,51,6,50000,18.52,,,80,8.4,19.3,,,,,,,,61,wg-a,,,,AAXX 18184 07607 02884 80810 10160 20060 30028 40098 55000 61000 76161 85082 91800 333 10193 20084 6100=
07607,1997-04-19 00:00:00,11,1009.3,-1.6,82,8,20000,7.408,,,40,,,,,,,,,,21,wg-a,,,,AAXX 19004 07607 02870 80404 10110 20080 30022 40093 56016 60016 72162 8708/ 90000 333 61000=
07607,1997-04-19 06:00:00,9,1008.1,-0.3,87,7,9000,3.704,,,80,8.6,15.7,,,,,1,,,,wg-a,,,,AAXX 19064 07607 02/59 /0802 10090 20070 30010 40081 55003 60006 90600 333 10157 20086 60014=
07607,1997-04-19 09:00:00,10,1008.1,-0,93,9,9000,7.408,,,60,,,,0,,,,,,61,wg-a,,,,AAXX 19094 07607 12459 80604 10100 20090 30010 40081 54000 60007 76166 878// 90900=
07607,1997-04-19 12:00:00,13,1007,-1,82,10,20000,0,,,0,,,,,,,,,,21,wg-a,,,,AAXX 19124 07607 02470 80000 10130 20100 30000 40070 58010 60006 72162 878// 91200 333 61000=
07607,1997-04-19 15:00:00,15,1005.6,-1.4,77,11,20000,7.408,,,90,,,,0,,,,,,25,wg-a,,,,AAXX 19154 07607 12570 70904 10150 20110 39986 40056 56014 60007 72582 878// 91500=
07607,1997-04-19 18:00:00,14,1005.1,-0.5,88,12,15000,7.408,,,60,8.4,15.3,,,,,,,,60,wg-a,,,,AAXX 19184 07607 02565 80604 10140 20120 39981 40051 58005 61000 76086 8487/ 91800 333 10153 20084 6100=
07607,1997-04-20 06:00:00,9,1005.6,0.7,93,8,10000,11.112,,,60,8.8,13.5,,,,,1,,,,wg-a,,,,AAXX 20064 07607 12660 60606 10090 20080 39985 40056 52007 60014 82502 90600 333 10135 20088=
07607,1997-04-20 12:00:00,18,1004.6,-1.2,42,5,500,22.224,,,70,,,,,,,,,,,wg-a,,,,AAXX 20124 07607 12/00 50712 10180 20050 39977 40046 58012 60006 80002 91200=
07607,1997-04-20 15:00:00,20,1003.2,-1.4,26,0,500,25.928,,,70,,,,,,,,,,,wg-a,,,,AAXX 20154 07607 12/00 50714 10200 20000 39963 40032 56014 60006 80002 91500=
07607,1997-04-20 18:00:00,17,1003.5,0.3,25,-3,500,18.52,,,40,9.2,19.9,,,,,,,,,wg-a,,,,AAXX 20184 07607 12/00 50410 10170 21030 39966 40035 53003 60006 80002 91800 333 10199 20092=
07607,1997-04-20 21:00:00,12,1006.1,2.4,32,-4,20000,25.928,,,40,,,,,,,,,,,wg-a,,,,AAXX 20214 07607 12/70 20414 10120 21040 39990 40061 52024 60006 80002 92100=
07607,1997-04-21 00:00:00,8,1007.6,1.4,42,-4,10000,11.112,,,50,,,,,,,,,,,wg-a,,,,AAXX 21004 07607 12/60 10506 10080 21040 30004 40076 51014 60006 80002 90000=
07607,1997-04-21 03:00:00,4,1007.4,-0.3,56,-4,15000,7.408,,,50,,,,,,,,,,,wg-a,,,,AAXX 21034 07607 12/65 00504 10040 21040 30001 40074 56003 60006 80000 90300=
07607,1997-04-21 06:00:00,4,1007.8,0.4,60,-3,15000,14.816,,,20,2.7,17.2,,,,,,,,,wg-a,,,,AAXX 21064 07607 12/65 10208 10040 21030 30005 40078 53004 60006 80001 90600 333 10172 20027=
07607,1997-04-21 09:00:00,10,1007.9,0.3,34,-5,500,7.408,,,30,,,,,,,,,,,wg-a,,,,AAXX 21094 07607 12/00 00304 10100 21050 30008 40079 50003 60006 80000 90900=
07607,1997-04-22 09:00:00,12,1013.3,1.3,32,-4,500,11.112,,,360,,,,,,,,,,,wg-a,,,,AAXX 22094 07607 12/00 13606 10120 21040 30062 40133 51013 60006 80001 90900=
07607,1997-04-22 12:00:00,16,1012.6,-0.6,21,-6,10000,14.816,,,340,,,,,,,,,,,wg-a,,,,AAXX 22124 07607 12/60 /3408 10160 21060 30056 40126 58006 60006 91200=
07607,1997-04-22 15:00:00,18,1011.3,-1.3,18,-7,500,14.816,,,320,,,,,,,,,,,wg-a,,,,AAXX 22154 07607 12/00 53208 10180 21070 30043 40113 57013 60006 80001 91500=
07607,1997-04-22 18:00:00,16,1011.9,0.6,31,-1,500,18.52,,,330,-1.5,18.2,,,,,,,,,wg-a,,,,AAXX 22184 07607 12/00 53310 10160 21010 30049 40119 53006 60006 80002 91800 333 10182 21015=
07607,1997-04-22 21:00:00,10,1014.8,2.7,53,1,20000,7.408,,,330,,,,,,,,,,,wg-a,,,,AAXX 22214 07607 12/70 13304 10100 20010 30076 40148 51027 60006 80002 92100=
07607,1997-04-23 03:00:00,1,1015.7,-0.1,93,0,20000,0,,,0,,,,,,,,,,,wg-a,,,,AAXX 23034 07607 12/70 70000 10010 20000 30083 40157 56001 60006 80001 90300=
07607,1997-04-23 09:00:00,12,1018,0.8,47,1,40000,3.704,,,140,,,,,,,,,,,wg-a,,,,AAXX 23094 07607 12/82 31402 10120 20010 30108 40180 50008 60006 80002 90900=
07607,1997-04-23 12:00:00,17,1017.3,-0.5,25,-3,50000,7.408,,,130,,,,,,,,,,,wg-a,,,,AAXX 23124 07607 12/84 51304 10170 21030 30103 40173 58005 60006 80002 91200=
07607,1997-04-23 15:00:00,20,1016.2,-1,19,-4,75000,3.704,,,240,,,,,,,,,,,wg-a,,,,AAXX 23154 07607 12/89 32402 10200 21040 30093 40162 58010 60006 80002 91500=
07607,1997-04-23 18:00:00,19,1017,0.7,21,-4,40000,11.112,,,270,-0.8,20.8,,,,,,,,,wg-a,,,,AAXX 23184 07607 12/82 22706 10190 21040 30100 40170 53007 60006 80002 91800 333 10208 21008=
07607,1997-04-24 00:00:00,5,1019.9,0.2,75,1,15000,3.704,,,80,,,,,,,,,,,wg-a,,,,AAXX 24004 07607 12/65 20802 10050 20010 30126 40199 50002 60006 80002 90000=
07607,1997-04-24 03:00:00,1,1020.1,-0,80,-2,10000,3.704,,,60,,,,,,,,,,,wg-a,,,,AAXX 24034 07607 12/60 /0602 10010 21020 30126 40201 55000 60006 90300=
07607,1997-04-24 06:00:00,0,1020.9,0.8,93,-1,10000,7.408,,,80,-1.1,19,,,,,,,,,wg-a,,,,AAXX 24064 07607 12/60 00804 10000 21010 30134 40209 53008 60006 80000 90600 333 10190 21011=
07607,1997-04-24 09:00:00,14,1020.7,0.2,51,4,20000,3.704,,,90,,,,,,,,,,,wg-a,,,,AAXX 24094 07607 12/70 00902 10140 20040 30136 40207 50002 60006 80000 90900=
07607,1997-04-24 12:00:00,21,1019.2,-1.3,20,-3,50000,7.408,,,120,,,,,,,,,,,wg-a,,,,AAXX 24124 07607 12/84 01204 10210 21030 30123 40192 58013 60006 80000 91200=
07607,1997-04-24 15:00:00,24,1017.1,-2,20,0,75000,0,,22.224,0,,,,,,,,,,,wg-a,,,,AAXX 24154 07607 12/89 00000 10240 20000 30103 40171 58020 60006 80000 91500 333 91012=
07607,1997-04-24 18:00:00,24,1016.3,-0.8,24,2,50000,3.704,,,320,0.1,24.8,,,,,,,,,wg-a,,,,AAXX 24184 07607 12/84 13202 10240 20020 30095 40163 56008 60006 80002 91800 333 10248 20001=
07607,1997-04-24 21:00:00,15,1017.7,1.1,51,5,20000,7.408,,,60,,,,,,,,,,,wg-a,,,,AAXX 24214 07607 12/70 30604 10150 20050 30106 40177 52011 60006 80002 92100=
07607,1997-04-25 00:00:00,10,1017.9,0.1,62,3,15000,7.408,,,80,,,,,,,,,,,wg-a,,,,AAXX 25004 07607 12/65 30804 10100 20030 30107 40179 50001 60006 80002 90000=
07607,1997-04-25 03:00:00,7,1018.2,0.2,76,3,10000,3.704,,,90,,,,,,,,,,,wg-a,,,,AAXX 25034 07607 12/60 40902 10070 20030 30109 40182 51002 60006 80002 90300=
07607,1997-04-25 06:00:00,6,1019.6,1.4,87,4,10000,3.704,,,90,5.4,23.8,,,,,,,,,wg-a,,,,AAXX 25064 07607 12/60 50902 10060 20040 30123 40196 53014 60006 80002 90600 333 10238 20054=
07607,1997-04-25 09:00:00,16,1019.8,0.5,63,9,20000,0,,,0,,,,,,,,,,,wg-a,,,,AAXX 25094 07607 12/70 50000 10160 20090 30128 40198 51005 60006 80002 90900=
07607,1997-04-25 15:00:00,25,1017.7,-1.2,34,8,20000,22.224,,,280,,,,,,,,,,,wg-a,,,,AAXX 25154 07607 12770 42812 10250 20080 30109 40177 56012 60006 81102 91500=
07607,1997-04-25 18:00:00,22,1018.2,0.4,33,5,500,14.816,,,320,6.1,25.4,,,,,,,,,wg-a,,,,AAXX 25184 07607 12/00 33208 10220 20050 30113 40182 52004 60006 81032 91800 333 10254 20061=
07607,1997-04-25 21:00:00,17,1020.7,2.4,45,5,500,11.112,,,290,,,,,,,,,,,wg-a,,,,AAXX 25214 07607 12/00 42906 10170 20050 30137 40207 51024 60006 82032 92100=
07607,1997-04-26 06:00:00,11,1018.3,-0.8,76,7,10000,3.704,,,80,10.5,21.7,,,,,,,,,wg-a,,,,AAXX 26064 07607 12660 70802 10110 20070 30111 40183 57008 60006 83532 90600 333 10217 20105=
07607,1997-04-26 15:00:00,16,1016,0.1,88,14,20000,11.112,,,250,,,,1,,,,,,21,wg-a,,,,AAXX 26154 07607 12470 82506 10160 20140 30090 40160 50001 60017 72162 8557/ 91500=
07607,1997-04-26 21:00:00,13,1017.2,1.3,94,12,8000,14.816,,,220,,,,5,,,,,,63,wg-a,,,,AAXX 26214 07607 12258 82208 10130 20120 30101 40172 50013 60057 76386 878// 92100=
07607,1997-04-27 03:00:00,13,1014.3,-2.5,94,12,6000,14.816,,,210,,,,1,,,,,,61,wg-a,,,,AAXX 27034 07607 12256 82108 10130 20120 30072 40143 56025 60017 761// 885// 90300=
07607,1997-04-27 06:00:00,14,1015.7,1.4,94,13,8000,14.816,,,240,12.4,15.6,,1,,,10,,,21,wg-a,,,,AAXX 27064 07607 02258 72408 10140 20130 30086 40157 53014 60104 72162 8623/ 90600 333 10156 20124 60017=
07607,1997-04-27 09:00:00,16,1018,2.4,77,12,20000,18.52,,,290,,,,,,,,,,,wg-a,,,,AAXX 27094 07607 12370 /2910 10160 20120 30110 40180 51024 60006 85202 90900=
07607,1997-04-27 12:00:00,16,1019.1,1.1,68,10,25000,25.928,,,290,,,,,,,,,,,wg-a,,,,AAXX 27124 07607 12475 72914 10160 20100 30121 40191 51011 60006 878// 91200=
07607,1997-04-28 00:00:00,14,1023.1,-0,94,13,4000,7.408,,,220,,,,,,,,,,10,wg-a,,,,AAXX 28004 07607 02240 82204 10140 20130 30160 40231 54000 60006 71055 885// 90000 333 61000=
07607,1997-04-28 03:00:00,14,1022.8,-0.3,100,14,4000,18.52,,,240,,,,0,,,,,,51,wg-a,,,,AAXX 28034 07607 12240 82410 10140 20140 30157 40228 55003 60007 751// 885// 90300=
07607,1997-04-28 06:00:00,14,1023.6,0.8,100,14,2500,18.52,,,250,11.2,14.2,,,,,,,,51,wg-a,,,,AAXX 28064 07607 02225 82510 10140 20140 30165 40236 53008 61000 75165 885// 90600 333 10142 20112 6003=
07607,1997-04-28 09:00:00,15,1024.5,0.9,94,14,10000,22.224,,,240,,,,,,,,,,21,wg-a,,,,AAXX 28094 07607 02260 82412 10150 20140 30174 40245 52009 61000 72165 885// 90900 333 ////=
07607,1997-04-28 12:00:00,16,1024.5,-0,94,15,6000,22.224,,,240,,,,0,,,,,,61,wg-a,,,,AAXX 28124 07607 02356 82412 10160 20150 30174 40245 54000 60016 76165 885// 91200 333 60007=
07607,1997-04-28 15:00:00,15,1024.2,-0.3,100,15,2000,29.632,,,260,,,,0,,,,,,61,wg-a,,,,AAXX 28154 07607 12320 82616 10150 20150 30171 40242 55003 60007 76166 885// 91500=
07607,1997-04-28 18:00:00,15,1023.7,-0.5,94,14,3000,18.52,,,240,14.1,16,,,,,,,,58,wg-a,,,,AAXX 28184 07607 02230 82410 10150 20140 30166 40237 58005 61000 75865 885// 91800 333 10160 20141 6000=
07607,1997-04-28 21:00:00,14,1024.2,0.5,100,14,8000,14.816,,,230,,,,0,,,,,,,wg-a,,,,AAXX 28214 07607 12258 82308 10140 20140 30171 40242 52005 60007 885// 92100=
07607,1997-04-29 06:00:00,12,1024,1.3,100,12,8000,7.408,,,260,11.7,14.9,,,,,7,,,3,wg-a,,,,AAXX 29064 07607 02358 72604 10120 20120 30168 40240 53013 60006 70362 878// 90600 333 10149 20117 60074=
07607,1997-04-29 12:00:00,18,1023.7,-0.6,56,9,500,18.52,,,260,,,,,,,,,,,wg-a,,,,AAXX 29124 07607 12600 /2610 10180 20090 30167 40237 58006 60006 85200 91200=
07607,1997-04-29 15:00:00,18,1023,-0.7,52,8,500,18.52,,,310,,,,,,,,,,,wg-a,,,,AAXX 29154 07607 12600 /3110 10180 20080 30160 40230 58007 60006 85500 91500=
07607,1997-04-29 18:00:00,15,1023.4,0.3,63,8,500,18.52,,,290,12.1,19.5,,,,,,,,,wg-a,,,,AAXX 29184 07607 12700 42910 10150 20080 30163 40234 53003 60006 84500 91800 333 10195 20121=
07607,1997-04-30 00:00:00,8,1024.7,0.1,100,8,500,3.704,,,260,,,,,,,,,,,wg-a,,,,AAXX 30004 07607 12/00 /2602 10080 20080 30174 40247 53001 60006 90000=
07607,1997-04-30 06:00:00,9,1024.1,0.5,93,8,10000,0,,,0,7.6,15.3,,,,,,,,,wg-a,,,,AAXX 30064 07607 12560 /0000 10090 20080 30168 40241 53005 60006 85500 90600 333 10153 20076=
07607,1997-04-30 09:00:00,15,1024.3,0.4,63,8,500,7.408,,,110,,,,,,,,,,,wg-a,,,,AAXX 30094 07607 12400 /1104 10150 20080 30172 40243 50004 60006 85400 90900=
07607,1997-04-30 12:00:00,17,1023.3,-0.9,55,8,40000,7.408,,,90,,,,,,,,,,,wg-a,,,,AAXX 30124 07607 12/82 60904 10170 20080 30163 40233 57009 60006 86200 91200=
07607,1997-04-30 15:00:00,21,1022.1,-1.2,40,7,60000,14.816,,,90,,,,,,,,,,,wg-a,,,,AAXX 30154 07607 12686 40908 10210 20070 30151 40221 57012 60006 84400 91500=
07607,1997-04-30 18:00:00,19,1021.9,-0.2,43,6,50000,14.816,,,70,8.8,20.7,,,,,,,,,wg-a,,,,AAXX 30184 07607 12/84 00708 10190 20060 30149 40219 58002 60006 80000 91800 333 10207 20088=
07607,1997-05-01 03:00:00,8,1022.2,-1.1,87,6,8000,3.704,,,120,,,,,,,,,,,wg-a,,,,AAXX 01034 07607 12/58 01202 10080 20060 30149 40222 56011 60006 80000 90300=
07607,1997-05-01 09:00:00,18,1021.9,-0.9,45,6,500,18.52,,,60,,,,,,,,,,,wg-a,,,,AAXX 01094 07607 12/00 00610 10180 20060 30149 40219 58009 60006 80000 90900=
07607,1997-05-01 12:00:00,22,1020.4,-1.4,38,7,40000,18.52,,,90,,,,,,,,,,,wg-a,,,,AAXX 01124 07607 12/82 00910 10220 20070 30135 40204 56014 60006 80000 91200=
07607,1997-05-01 15:00:00,24,1018.7,-1.6,27,4,40000,22.224,,,110,,,,,,,,,,,wg-a,,,,AAXX 01154 07607 12/82 01112 10240 20040 30119 40187 58016 60006 80000 91500=
07607,1997-05-01 18:00:00,24,1018.3,-0.5,29,5,40000,18.52,,,80,7,24.9,,,,,,,,,wg-a,,,,AAXX 01184 07607 12/82 00810 10240 20050 30114 40183 56005 60006 80000 91800 333 10249 20070=
07607,1997-05-01 21:00:00,16,1019.4,0.9,51,6,20000,3.704,,,80,,,,,,,,,,,wg-a,,,,AAXX 01214 07607 12/70 00802 10160 20060 30123 40194 53009 60006 80000 92100=
07607,1997-05-02 12:00:00,26,1018.1,-1.2,39,11,40000,14.816,,,110,,,,,,,,,,,wg-a,,,,AAXX 02124 07607 12/82 21108 10260 20110 30113 40181 58012 60006 80001 91200=
07607,1997-05-02 15:00:00,29,1016.7,-1.3,29,9,50000,14.816,,,110,,,,,,,,,,,wg-a,,,,AAXX 02154 07607 12/84 21108 10290 20090 30100 40167 57013 60006 80001 91500=
07607,1997-05-02 18:00:00,28,1016.3,-0.4,32,10,50000,14.816,,,110,11.6,29.1,,,,,,,,,wg-a,,,,AAXX 02184 07607 12/84 21108 10280 20100 30096 40163 57004 60006 80001 91800 333 10291 20116=
07607,1997-05-02 21:00:00,22,1018.3,1.8,46,10,20000,11.112,,,100,,,,,,,,,,,wg-a,,,,AAXX 02214 07607 12/70 31006 10220 20100 30114 40183 53018 60006 80002 92100=
07607,1997-05-03 00:00:00,17,1019.6,1.2,59,9,15000,0,,,0,,,,,,,,,,,wg-a,,,,AAXX 03004 07607 12/65 30000 10170 20090 30126 40196 51012 60006 80002 90000=
07607,1997-05-03 06:00:00,16,1021,0.8,88,14,6000,11.112,,,220,14.8,27.8,,,,,,,,,wg-a,,,,AAXX 03064 07607 12756 72206 10160 20140 30139 40210 53008 60006 84532 90600 333 10278 20148=
07607,1997-05-03 09:00:00,20,1021.6,0.7,64,13,12000,18.52,,,250,,,,,,,,,,,wg-a,,,,AAXX 03094 07607 12762 72510 10200 20130 30146 40216 51007 60006 8257/ 90900=
07607,1997-05-03 12:00:00,20,1020.8,-0.7,64,13,20000,7.408,,,290,,,,,,,,,,21,wg-a,,,,AAXX 03124 07607 02770 72904 10200 20130 30139 40208 58007 61000 72162 8357/ 91200 333 6100=
07607,1997-05-03 15:00:00,24,1019.1,-1.7,44,11,500,3.704,,,360,,,,,,,,,,,wg-a,,,,AAXX 03154 07607 12700 53602 10240 20110 30122 40191 58017 60006 81572 91500=
07607,1997-05-03 18:00:00,24,1017.6,-1.4,47,12,40000,7.408,,,130,15.6,24.6,,,,,,,,,wg-a,,,,AAXX 03184 07607 12782 41304 10240 20120 30108 40176 56014 60006 82572 91800 333 10246 20156=
07607,1997-05-03 21:00:00,17,1018.6,0.8,72,12,15000,3.704,,,310,,,,,,,,,,,wg-a,,,,AAXX 03214 07607 12/65 43102 10170 20120 30116 40186 52008 60006 82072 92100=
07607,1997-05-04 00:00:00,14,1017.6,-1.1,88,12,10000,3.704,,,120,,,,,,,,,,,wg-a,,,,AAXX 04004 07607 12/60 41202 10140 20120 30105 40176 58011 60006 82072 90000=
07607,1997-05-04 06:00:00,12,1014.3,-1.1,94,11,10000,3.704,,,60,11.9,23.5,,,,,,,,,wg-a,,,,AAXX 04064 07607 02660 60602 10120 20110 30072 40143 56011 60006 81582 90600 333 10235 20119 61000=
07607,1997-05-04 09:00:00,22,1012.7,-1.3,65,15,20000,11.112,,,130,,,,,,,,,,,wg-a,,,,AAXX 04094 07607 12/70 31306 10220 20150 30059 40127 58013 60006 81082 90900=
07607,1997-05-04 12:00:00,27,1010.7,-1.9,42,13,35000,18.52,,42.596,220,,,,,,,,,,,wg-a,,,,AAXX 04124 07607 12781 32210 10270 20130 30040 40107 56019 60006 83201 91200 333 91023=
07607,1997-05-04 21:00:00,21,1002.8,-3.1,64,14,15000,7.408,,,80,,,,,,,,,,17,wg-a,,,,AAXX 04214 07607 12565 70804 10210 20140 39960 40028 58031 60006 71792 8698/ 92100=
07607,1997-05-05 00:00:00,16,1003.7,0.8,94,15,15000,3.704,,,300,,,,11,,,,,,25,wg-a,,,,AAXX 05004 07607 02265 73002 10160 20150 39968 40037 51008 60116 72598 8588/ 90000 333 60117=
07607,1997-05-05 06:00:00,14,1003.8,,94,13,20000,7.408,,,140,13.2,25.9,,,,,12,,,,wg-a,,,,AAXX 05064 07607 02570 51404 10140 20130 39968 40038 60006 85800 90600 333 10259 20132 60124=
07607,1997-05-05 09:00:00,19,1003.1,-0.6,64,12,20000,7.408,,,190,,,,,,,,,,,wg-a,,,,AAXX 05094 07607 12570 31904 10190 20120 39962 40031 58006 60006 81132 90900=
07607,1997-05-05 15:00:00,22,999.9,-1.4,46,10,20000,14.816,,46.3,210,,,,0,,,,,,25,wg-a,,,,AAXX 05154 07607 12570 /2108 10220 20100 39931 49999 58014 60007 72582 82230 91500 333 91025=
07607,1997-05-05 18:00:00,16,998.6,-1.4,88,14,11000,3.704,,,310,13.8,23.1,,,,,,,,,wg-a,,,,AAXX 05184 07607 12/61 /3102 10160 20140 39917 49986 58014 60006 91800 333 10231 20138=
07607,1997-05-05 21:00:00,15,998,-0.6,88,13,3000,29.632,,61.116,210,,,,1,,,,,,80,wg-a,,,,AAXX 05214 07607 12530 72116 10150 20130 39911 49980 55006 60017 78081 879// 92100 333 91033=
07607,1997-05-06 03:00:00,10,1000.1,-1,87,8,10000,14.816,,,210,,,,,,,,,,,wg-a,,,,AAXX 06034 07607 12560 22108 10100 20080 39930 40001 58010 60006 82500 90300=
07607,1997-05-06 06:00:00,10,999.7,-0.4,82,7,10000,22.224,,,220,9.4,15.6,,,,,,,,25,wg-a,,,,AAXX 06064 07607 02360 72212 10100 20070 39926 49997 55004 61000 72586 878// 90600 333 10156 20094 6007=
07607,1997-05-06 09:00:00,10,1001.6,1.9,93,9,8000,14.816,,46.3,220,,,,5,,,,,,80,wg-a,,,,AAXX 06094 07607 12358 72208 10100 20090 39945 40016 53019 60057 78086 873// 90900 333 91025=
07607,1997-05-06 12:00:00,13,1004.6,3.1,72,8,10000,31.484,,,290,,,,2,,,,,,1,wg-a,,,,AAXX 06124 07607 02360 72917 10130 20080 39976 40046 53031 60076 70186 87202 91200 333 60027=
07607,1997-05-06 15:00:00,12,1008.3,3.6,62,5,20000,31.484,,53.708,280,,,,0,,,,,,1,wg-a,,,,AAXX 06154 07607 12470 /2817 10120 20050 30012 40083 51036 60007 70186 86800 91500 333 91029=
07607,1997-05-06 18:00:00,11,1009.5,1.2,58,3,500,22.224,,,280,9,14,,0,,,,,,1,wg-a,,,,AAXX 06184 07607 12500 82812 10110 20030 30024 40095 51012 60007 70186 8327/ 91800 333 10140 20090=
07607,1997-05-07 00:00:00,8,1008.4,-2.1,87,6,15000,14.816,,,200,,,,,,,,,,,wg-a,,,,AAXX 07004 07607 12/65 62008 10080 20060 30012 40084 58021 60006 86030 90000=
07607,1997-05-07 06:00:00,8,1003.4,-1.2,93,7,500,18.52,,,210,7.1,11,,2,,,11,,,61,wg-a,,,,AAXX 07064 07607 02300 82110 10080 20070 39963 40034 55012 60114 76186 8787/ 90600 333 10110 20071 60027=
07607,1997-05-07 18:00:00,9,1008.7,4.4,76,5,25000,14.816,,,300,7.1,9.4,,0,,,,,,1,wg-a,,,,AAXX 07184 07607 12275 63008 10090 20050 30016 40087 51044 60007 70186 85270 91800 333 10094 20071=
07607,1997-05-08 00:00:00,5,1014.3,1.6,93,4,10000,7.408,,,240,,,,0,,,,,,1,wg-a,,,,AAXX 08004 07607 02460 62404 10050 20040 30070 40143 51016 60006 70162 86800 90000 333 60007=
07607,1997-05-08 06:00:00,6,1014.3,-0.1,93,5,15000,11.112,,,190,4.6,9.3,,0,,,14,,,3,wg-a,,,,AAXX 08064 07607 02565 71906 10060 20050 30070 40143 55001 60144 7038/ 8487/ 90600 333 10093 20046 60007=
07607,1997-05-08 12:00:00,13,1013.7,-0.9,72,8,15000,29.632,,,250,,,,1,,,,,,3,wg-a,,,,AAXX 08124 07607 02465 72516 10130 20080 30066 40137 58009 60026 70382 878// 91200 333 60017=
07607,1997-05-09 00:00:00,11,1012.4,-1.3,82,8,15000,14.816,,,210,,,,,,,,,,3,wg-a,,,,AAXX 09004 07607 02465 62108 10110 20080 30053 40124 56013 61000 70361 86200 90000 333 ////=
07607,1997-05-09 06:00:00,12,1012.2,0.8,88,10,10000,18.52,,,220,10.1,12.2,,3,,,6,,,61,wg-a,,,,AAXX 09064 07607 02360 82210 10120 20100 30051 40122 53008 60064 7616/ 885// 90600 333 10122 20101 60037=
07607,1997-05-09 12:00:00,13,1014.9,1.3,94,12,10000,22.224,,,230,,,,2,,,,,,61,wg-a,,,,AAXX 09124 07607 02360 72312 10130 20120 30078 40149 51013 60036 76162 8653/ 91200 333 60027=
07607,1997-05-09 18:00:00,15,1014.9,-0.2,59,7,500,18.52,,,260,11.2,16.4,,,,,,,,,wg-a,,,,AAXX 09184 07607 32/00 62610 10150 20070 30079 40149 56002 85031 91800 333 10164 20112=
07607,1997-05-10 00:00:00,11,1016.5,0.4,94,10,15000,7.408,,,180,,,,0,,,,,,21,wg-a,,,,AAXX 10004 07607 02665 81804 10110 20100 30094 40165 51004 60016 72162 8557/ 90000 333 60007=
07607,1997-05-10 06:00:00,11,1014.2,-1.2,94,10,20000,7.408,,,80,10.5,15,,,,,4,,,61,wg-a,,,,AAXX 10064 07607 02770 70804 10110 20100 30071 40142 56012 60044 7616/ 878// 90600 333 10150 20105 61000=
07607,1997-05-10 12:00:00,21,1011.2,-2.1,46,9,40000,11.112,,,130,,,,,,,,,,1,wg-a,,,,AAXX 10124 07607 02782 51306 10210 20090 30043 40112 58021 61000 70162 82532 91200 333 ////=
07607,1997-05-11 00:00:00,13,1011.7,0.6,100,13,8000,14.816,,,270,,,,3,,,,,,29,wg-a,,,,AAXX 11004 07607 02558 72708 10130 20130 30047 40117 51006 60036 72998 8587/ 90000 333 60037=
07607,1997-05-11 06:00:00,12,1011.4,0.6,100,12,9000,0,,,0,11.7,20.5,,,,,3,,,3,wg-a,,,,AAXX 11064 07607 02259 70000 10120 20120 30043 40114 53006 60034 7038/ 876// 90600 333 10205 20117 61000=
07607,1997-05-11 12:00:00,18,1013.5,1.4,64,11,40000,18.52,,,290,,,,,,,,,,,wg-a,,,,AAXX 11124 07607 12582 72910 10180 20110 30065 40135 53014 60006 84232 91200=
07607,1997-05-11 15:00:00,16,1014.9,1.4,59,8,11000,11.112,,,350,,,,,,,,,,,wg-a,,,,AAXX 11154 07607 12/61 /3506 10160 20080 30079 40149 51014 60006 91500=
07607,1997-05-11 21:00:00,13,1019.5,2.7,82,10,15000,7.408,,,240,,,,,,,,,,,wg-a,,,,AAXX 11214 07607 12/65 72404 10130 20100 30124 40195 53027 60006 8703/ 92100=
07607,1997-05-12 00:00:00,12,1020.3,0.8,88,10,12000,7.408,,,290,,,,,,,,,,,wg-a,,,,AAXX 12004 07607 12/62 72904 10120 20100 30132 40203 51008 60006 8703/ 90000=
07607,1997-05-12 03:00:00,11,1020.1,-0.3,94,10,10000,0,,,0,,,,0,,,,,,0,wg-a,,,,AAXX 12034 07607 12760 60000 10110 20100 30129 40201 55003 60007 7006/ 86500 90300=
07607,1997-05-12 06:00:00,11,1021,0.9,94,10,20000,3.704,,,90,10.9,14.9,,,,,,,,1,wg-a,,,,AAXX 12064 07607 12770 70902 10110 20100 30138 40210 53009 60004 7016/ 8557/ 90600 333 10149 20109=
07607,1997-05-12 09:00:00,12,1021.9,1,88,10,10000,11.112,,,90,,,,1,,,,,,21,wg-a,,,,AAXX 12094 07607 12460 70906 10120 20100 30148 40219 51010 60017 72162 8427/ 90900=
07607,1997-05-12 12:00:00,15,1021.9,0,63,8,20000,7.408,,,70,,,,,,,,,,1,wg-a,,,,AAXX 12124 07607 12570 60704 10150 20080 30148 40219 50000 60016 70162 82870 91200=
07607,1997-05-12 15:00:00,17,1020.5,-1.3,59,9,20000,3.704,,,50,,,,,,,,,,,wg-a,,,,AAXX 12154 07607 12670 70502 10170 20090 30135 40205 56013 60006 875// 91500=
07607,1997-05-12 18:00:00,16,1020.2,-0.3,72,11,20000,7.408,,,10,10.9,17.2,,,,,,,,,wg-a,,,,AAXX 12184 07607 12670 70104 10160 20110 30132 40202 58003 60006 875// 91800 333 10172 20109=
07607,1997-05-13 00:00:00,14,1020.5,-0.6,82,11,20000,3.704,,,50,,,,,,,,,,,wg-a,,,,AAXX 13004 07607 12670 70502 10140 20110 30134 40205 55006 60006 875// 90000=
07607,1997-05-13 03:00:00,12,1019.5,-1,94,11,20000,3.704,,,70,,,,,,,,,,,wg-a,,,,AAXX 13034 07607 12670 /0702 10120 20110 30124 40195 58010 60006 85500 90300=
07607,1997-05-13 12:00:00,20,1016.6,-1.6,64,13,500,11.112,,,80,,,,,,,,,,,wg-a,,,,AAXX 13124 07607 12500 70806 10200 20130 30097 40166 58016 60006 875// 91200=
07607,1997-05-13 15:00:00,16,1017.3,0.6,88,14,6000,18.52,,,280,,,,,,,,,,,wg-a,,,,AAXX 13154 07607 32/56 72810 10160 20140 30103 40173 53006 91500=
07607,1997-05-13 18:00:00,15,1018.5,1.2,94,14,4000,11.112,,,260,12.1,20.4,,,,,,,,61,wg-a,,,,AAXX 13184 07607 02240 82606 10150 20140 30115 40185 53012 61000 76162 877// 91800 333 10204 20121 6004=
07607,1997-05-13 21:00:00,14,1019.7,1.1,100,14,500,3.704,,,310,,,,,,,,,,,wg-a,,,,AAXX 13214 07607 32/00 /3102 10140 20140 30126 40197 51011 92100=
07607,1997-05-14 00:00:00,14,1020.2,0.5,94,13,0,0,,,0,,,,,,,,,,,wg-a,,,,AAXX 14004 07607 12/// /0000 10140 20130 30131 40202 50005 60026 90000=
07607,1997-05-14 03:00:00,13,1019.2,-1,100,13,8000,0,,,0,,,,,,,,,,,wg-a,,,,AAXX 14034 07607 12558 /0000 10130 20130 30121 40192 58010 60006 86500 90300=
07607,1997-05-14 12:00:00,16,1018.9,-1.3,82,13,25000,11.112,,,60,,,,,,,,,,2,wg-a,,,,AAXX 14124 07607 12575 80606 10160 20130 30119 40189 58013 60006 70262 8657/ 91200=
07607,1997-05-14 18:00:00,19,1016.7,-0.3,64,12,25000,0,,,0,12.8,20.1,,,,,,,,,wg-a,,,,AAXX 14184 07607 32675 70000 10190 20120 30098 40167 55003 83432 91800 333 10201 20128=
07607,1997-05-15 00:00:00,15,1015.8,-1.5,94,14,8000,3.704,,,100,,,,0,,,,,,60,wg-a,,,,AAXX 15004 07607 02658 81002 10150 20140 30088 40158 57015 60016 76062 8557/ 90000 333 60007=
07607,1997-05-15 06:00:00,13,1014.3,0.1,94,12,300,0,,,0,12.6,18.9,,,,,2,,,44,wg-a,,,,AAXX 15064 07607 02603 40000 10130 20120 30072 40143 53001 60006 74464 82532 90600 333 10189 20126 60024=
07607,1997-05-15 12:00:00,22,1012.5,-0.8,60,14,15000,11.112,,,120,,,,,,,,,,,wg-a,,,,AAXX 15124 07607 12565 71206 10220 20140 30057 40125 58008 60006 82132 91200=
07607,1997-05-15 15:00:00,22,1011.7,-0.8,69,16,20000,14.816,,,110,,,,,,,,,,,wg-a,,,,AAXX 15154 07607 12570 71108 10220 20160 30049 40117 56008 60006 82282 91500=
07607,1997-05-15 18:00:00,20,1011.2,-0.6,78,16,20000,11.112,,,110,12.7,23,,,,,,,,,wg-a,,,,AAXX 15184 07607 12770 81106 10200 20160 30043 40112 57006 60006 83582 91800 333 10230 20127=
07607,1997-05-15 21:00:00,18,1012,0.8,88,16,15000,3.704,,,40,,,,0,,,,,,61,wg-a,,,,AAXX 15214 07607 12765 80402 10180 20160 30051 40120 50008 60007 76162 84582 92100=
07607,1997-05-16 00:00:00,17,1011.1,-1,94,16,15000,3.704,,,60,,,,,,,,,,61,wg-a,,,,AAXX 16004 07607 02865 80602 10170 20160 30041 40111 56010 60006 76162 86082 90000 333 61000=
07607,1997-05-16 03:00:00,16,1010.1,-1,100,16,3500,0,,,0,,,,,,,,,,10,wg-a,,,,AAXX 16034 07607 02435 80000 10160 20160 30031 40101 56010 61000 7106/ 875// 90300 333 ////=
07607,1997-05-16 06:00:00,15,1010.6,0.5,100,15,200,0,,,0,14.1,20.1,,,,,,,,43,wg-a,,,,AAXX 16064 07607 02/02 90000 10150 20150 30036 40106 53005 60006 7434/ 89/// 90600 333 10201 20141 60004=
07607,1997-05-16 12:00:00,24,1010.2,-0.8,50,13,20000,7.408,,,170,,,,,,,,,,3,wg-a,,,,AAXX 16124 07607 12570 61704 10240 20130 30034 40102 58008 60006 70342 84232 91200=
07607,1997-05-16 18:00:00,21,1010.3,1.2,60,13,10000,3.704,,,330,14.9,25.6,,,,,,,,17,wg-a,,,,AAXX 16184 07607 02560 73302 10210 20130 30034 40103 53012 60006 71798 8696/ 91800 333 10256 20149 61000=
07607,1997-05-17 06:00:00,14,1011.5,0.5,100,14,6000,7.408,,,110,13.3,20.4,,1,,,14,,,61,wg-a,,,,AAXX 17064 07607 02656 71104 10140 20140 30045 40115 53005 60144 7616/ 8487/ 90600 333 10204 20133 60017=
07607,1997-05-17 09:00:00,16,1012.7,1.2,88,14,15000,3.704,,,200,,,,2,,,,,,1,wg-a,,,,AAXX 17094 07607 12465 72002 10160 20140 30057 40127 51012 60027 70162 84872 90900=
07607,1997-05-17 12:00:00,21,1011.5,-1.1,60,13,500,14.816,,,210,,,,,,,,,,1,wg-a,,,,AAXX 17124 07607 12400 /2108 10210 20130 30046 40115 58011 60026 70162 86930 91200=
07607,1997-05-17 18:00:00,18,1014.1,1.3,59,10,40000,22.224,,,260,14.1,21.2,,,,,,,,1,wg-a,,,,AAXX 17184 07607 32682 52612 10180 20100 30071 40141 53013 70182 83232 91800 333 10212 20141=
07607,1997-05-18 00:00:00,11,1016,0.1,87,9,10000,3.704,,,60,,,,,,,,,,,wg-a,,,,AAXX 18004 07607 12/60 00602 10110 20090 30088 40160 50001 60006 80000 90000=
07607,1997-05-18 18:00:00,22,1008.2,-0.9,53,12,500,14.816,,,120,8.9,24,,,,,,,,,wg-a,,,,AAXX 18184 07607 12/00 61208 10220 20120 30014 40082 56009 60006 85032 91800 333 10240 20089=
07607,1997-05-19 00:00:00,17,1006.4,-0.9,77,13,10000,14.816,,,100,,,,,,,,,,,wg-a,,,,AAXX 19004 07607 12/60 71008 10170 20130 39995 40064 58009 60006 83032 90000=
07607,1997-05-19 06:00:00,16,1007.3,2.2,88,14,10000,7.408,,,360,15.5,22.3,,0,,,,,,1,wg-a,,,,AAXX 19064 07607 02660 73604 10160 20140 30003 40073 51022 60004 7018/ 84572 90600 333 10223 20155 60007=
07607,1997-05-19 12:00:00,23,1008.6,0.6,50,12,25000,14.816,,,200,,,,,,,,,,,wg-a,,,,AAXX 19124 07607 12675 62008 10230 20120 30018 40086 51006 60006 84802 91200=
07607,1997-05-19 18:00:00,24,1006.8,-0.6,34,7,500,11.112,,,220,15.7,25.3,,,,,,,,,wg-a,,,,AAXX 19184 07607 12600 22206 10240 20070 30000 40068 57006 60006 82800 91800 333 10253 20157=
07607,1997-05-20 00:00:00,16,1010,1.4,72,11,20000,14.816,,,240,,,,,,,,,,,wg-a,,,,AAXX 20004 07607 12670 52408 10160 20110 30030 40100 51014 60006 84530 90000=
07607,1997-05-20 06:00:00,13,1011.8,1,94,12,15000,0,,,0,10.9,23.7,,,,,,,,,wg-a,,,,AAXX 20064 07607 12665 40000 10130 20120 30047 40118 53010 60006 84500 90600 333 10237 20109=
07607,1997-05-20 09:00:00,19,1012.4,0.8,56,10,500,18.52,,,220,,,,,,,,,,,wg-a,,,,AAXX 20094 07607 12500 /2210 10190 20100 30055 40124 51008 60006 86200 90900=
07607,1997-05-20 15:00:00,22,1012.5,-0.2,38,7,500,22.224,,,270,,,,,,,,,,,wg-a,,,,AAXX 20154 07607 12600 32712 10220 20070 30056 40125 56002 60006 83100 91500=
07607,1997-05-20 21:00:00,15,1015.4,2,59,7,500,11.112,,,280,,,,,,,,,,,wg-a,,,,AAXX 20214 07607 12/00 32806 10150 20070 30084 40154 52020 60006 83030 92100=
07607,1997-05-21 00:00:00,15,1015.7,0.3,72,10,20000,7.408,,,220,,,,,,,,,,,wg-a,,,,AAXX 21004 07607 12670 82204 10150 20100 30087 40157 50003 60006 8757/ 90000=
07607,1997-05-21 03:00:00,14,1015.4,-0.4,88,12,500,7.408,,,220,,,,,,,,,,3,wg-a,,,,AAXX 21034 07607 02500 72204 10140 20120 30083 40154 58004 61000 70362 875// 90300 333 ////=
07607,1997-05-21 06:00:00,14,1016.3,0.9,88,12,11000,7.408,,,210,13.4,20,,,,,1,,,,wg-a,,,,AAXX 21064 07607 02/61 /2104 10140 20120 30092 40163 53009 60006 90600 333 10200 20134 60014=
07607,1997-05-21 09:00:00,17,1016.7,0.5,68,11,10000,14.816,,,240,,,,,,,,,,,wg-a,,,,AAXX 21094 07607 12560 72408 10170 20110 30097 40167 51005 60006 878// 90900=
07607,1997-05-21 18:00:00,18,1017,1.1,56,9,25000,18.52,,,270,13.6,20.4,,,,,,,,,wg-a,,,,AAXX 21184 07607 12675 /2710 10180 20090 30100 40170 53011 60006 81101 91800 333 10204 20136=
07607,1997-05-21 21:00:00,13,1019,1.9,77,9,20000,7.408,,,300,,,,,,,,,,,wg-a,,,,AAXX 21214 07607 12/70 13004 10130 20090 30119 40190 53019 60006 80001 92100=
07607,1997-05-22 00:00:00,10,1018.8,-0.3,93,9,20000,0,,,0,,,,,,,,,,,wg-a,,,,AAXX 22004 07607 12/70 20000 10100 20090 30116 40188 58003 60006 80001 90000=
07607,1997-05-22 06:00:00,9,1018.4,0.1,100,9,10000,3.704,,,70,7.3,18.4,,,,,2,,,,wg-a,,,,AAXX 22064 07607 02460 /0702 10090 20090 30112 40184 53001 60006 84830 90600 333 10184 20073 60024=
07607,1997-05-22 09:00:00,17,1017.9,-0.3,63,10,15000,3.704,,,120,,,,,,,,,,,wg-a,,,,AAXX 22094 07607 12465 71202 10170 20100 30109 40179 58003 60006 8523/ 90900=
07607,1997-05-22 12:00:00,20,1016.7,-1.1,53,10,20000,3.704,,,130,,,,,,,,,,,wg-a,,,,AAXX 22124 07607 12570 71302 10200 20100 30098 40167 58011 60006 86202 91200=
07607,1997-05-22 18:00:00,21,1013.9,-0.8,46,9,40000,11.112,,,110,9.5,22.1,,,,,,,,,wg-a,,,,AAXX 22184 07607 12782 61106 10210 20090 30070 40139 56008 60006 824/2 91800 333 10221 20095=
07607,1997-05-22 21:00:00,16,1014.7,0.7,72,11,500,11.112,,,90,,,,,,,,,,,wg-a,,,,AAXX 22214 07607 12/00 80906 10160 20110 30077 40147 51007 60006 85072 92100=
07607,1997-05-23 00:00:00,13,1013.4,-1.4,82,10,20000,7.408,,,80,,,,,,,,,,,wg-a,,,,AAXX 23004 07607 12/70 50804 10130 20100 30063 40134 58014 60006 81032 90000=
07607,1997-05-23 06:00:00,14,1011.5,-0,77,10,15000,11.112,,,90,12.2,21.1,,,,,,,,,wg-a,,,,AAXX 23064 07607 12665 70906 10140 20100 30045 40115 55000 60006 82532 90600 333 10211 20122=
07607,1997-05-23 12:00:00,25,1009.9,-0.9,44,12,40000,22.224,,,90,,,,,,,,,,,wg-a,,,,AAXX 23124 07607 12/82 50912 10250 20120 30031 40099 57009 60006 82032 91200=
07607,1997-05-23 18:00:00,26,1008.3,-0.5,45,13,50000,14.816,,,100,14.3,27.7,,,,,,,,,wg-a,,,,AAXX 23184 07607 12/84 71008 10260 20130 30016 40083 56005 60006 81032 91800 333 10277 20143=
07607,1997-05-24 00:00:00,19,1009.9,0.8,73,14,20000,7.408,,,130,,,,,,,,,,,wg-a,,,,AAXX 24004 07607 12/70 81304 10190 20140 30030 40099 51008 60006 83039 90000=
07607,1997-05-24 03:00:00,17,1011.5,1.6,94,16,12000,0,,,0,,,,1,,,,,,21,wg-a,,,,AAXX 24034 07607 12862 80000 10170 20160 30046 40115 53016 60017 72162 86089 90300=
07607,1997-05-24 06:00:00,16,1011.2,-0.4,94,15,0,11.112,,,30,15.9,25.8,,0,,,1,,,,wg-a,,,,AAXX 24064 07607 02/// /0306 10160 20150 30042 40112 57004 60014 90600 333 10258 20159 60007=
07607,1997-05-24 09:00:00,22,1012.6,1.6,69,16,15000,14.816,,,120,,,,,,,,,,,wg-a,,,,AAXX 24094 07607 12/65 61208 10220 20160 30058 40126 51016 60006 86082 90900=
07607,1997-05-24 12:00:00,24,1012.9,0.3,57,15,20000,18.52,,,100,,,,,,,,,,,wg-a,,,,AAXX 24124 07607 12570 61010 10240 20150 30061 40129 50003 60006 81281 91200=
07607,1997-05-24 18:00:00,25,1012.2,0.1,54,15,20000,18.52,,,80,16.2,26.6,,,,,,,,,wg-a,,,,AAXX 24184 07607 12870 70810 10250 20150 30054 40122 53001 60006 84082 91800 333 10266 20162=
07607,1997-05-24 21:00:00,22,1013.4,1.2,60,14,20000,14.816,,,90,,,,,,,,,,,wg-a,,,,AAXX 24214 07607 12670 70908 10220 20140 30066 40134 52012 60006 8488/ 92100=
07607,1997-05-25 00:00:00,19,1013.9,0.4,60,11,20000,11.112,,,100,,,,,,,,,,,wg-a,,,,AAXX 25004 07607 12/70 71006 10190 20110 30070 40139 53004 60006 82032 90000=
07607,1997-05-25 03:00:00,17,1013.5,-0.5,68,11,20000,11.112,,,60,,,,,,,,,,,wg-a,,,,AAXX 25034 07607 12/70 70606 10170 20110 30065 40135 56005 60006 82032 90300=
07607,1997-05-25 12:00:00,23,1014.2,-0.3,61,15,500,7.408,,,60,,,,,,,,,,,wg-a,,,,AAXX 25124 07607 12/00 70604 10230 20150 30074 40142 58003 60006 82082 91200=
07607,1997-05-25 15:00:00,22,1014.1,-0.1,65,15,500,22.224,,,90,,,,,,,,,,,wg-a,,,,AAXX 25154 07607 12700 80912 10220 20150 30073 40141 58001 60006 83572 91500=
07607,1997-05-25 18:00:00,24,1013.9,-0.2,50,13,500,14.816,,,80,15.9,24.1,,,,,,,,,wg-a,,,,AAXX 25184 07607 12/00 60808 10240 20130 30071 40139 55002 60006 84032 91800 333 10241 20159=
07607,1997-05-25 21:00:00,20,1015,1,56,11,20000,14.816,,,80,,,,,,,,,,,wg-a,,,,AAXX 25214 07607 12/70 50808 10200 20110 30081 40150 53010 60006 82032 92100=
07607,1997-05-26 00:00:00,18,1014.8,-0.3,59,10,20000,7.408,,,100,,,,,,,,,,,wg-a,,,,AAXX 26004 07607 12/70 21004 10180 20100 30078 40148 57003 60006 81032 90000=
07607,1997-05-26 03:00:00,15,1015.1,0.3,77,11,15000,14.816,,,40,,,,,,,,,,,wg-a,,,,AAXX 26034 07607 12/65 20408 10150 20110 30081 40151 51003 60006 81032 90300=
07607,1997-05-26 06:00:00,17,1016.2,1.1,63,10,20000,11.112,,,80,14,23.9,,,,,,,,,wg-a,,,,AAXX 26064 07607 12770 20806 10170 20100 30092 40162 52011 60006 81131 90600 333 10239 20140=
07607,1997-05-26 12:00:00,28,1016,-1.2,40,13,40000,11.112,,,80,,,,,,,,,,,wg-a,,,,AAXX 26124 07607 12/82 30806 10280 20130 30093 40160 55012 60006 81042 91200=
07607,1997-05-26 15:00:00,29,1014.6,-1.4,40,14,60000,18.52,,,110,,,,,,,,,,,wg-a,,,,AAXX 26154 07607 12/86 31110 10290 20140 30079 40146 56014 60006 83080 91500=
07607,1997-05-26 21:00:00,24,1014.4,0.5,57,15,500,3.704,,,70,,,,,,,,,,,wg-a,,,,AAXX 26214 07607 12/00 40702 10240 20150 30076 40144 51005 60006 83082 92100=
07607,1997-05-27 00:00:00,19,1015,0.5,78,15,500,7.408,,,230,,,,,,,,,,,wg-a,,,,AAXX 27004 07607 12/00 02304 10190 20150 30081 40150 53005 60006 80000 90000=
07607,1997-05-27 03:00:00,16,1015.1,-0,88,14,8000,7.408,,,200,,,,,,,,,,,wg-a,,,,AAXX 27034 07607 12/58 02004 10160 20140 30081 40151 55000 60006 80000 90300=
07607,1997-05-27 06:00:00,17,1015.5,0.4,82,14,10000,7.408,,,180,15.6,28.8,,,,,,,,,wg-a,,,,AAXX 27064 07607 12/60 01804 10170 20140 30085 40155 53004 60006 80000 90600 333 10288 20156=
07607,1997-05-27 12:00:00,29,1014.6,-0.8,43,15,20000,7.408,,,180,,,,,,,,,,,wg-a,,,,AAXX 27124 07607 12/70 01804 10290 20150 30079 40146 58008 60006 80000 91200=
07607,1997-05-27 18:00:00,30,1012.3,-0.1,43,16,500,11.112,,,190,17.2,31.3,,,,,,,,,wg-a,,,,AAXX 27184 07607 12700 31906 10300 20160 30056 40123 55001 60006 83200 91800 333 10313 20172=
07607,1997-05-28 00:00:00,20,1015,0.3,64,13,20000,3.704,,,20,,,,,,,,,,,wg-a,,,,AAXX 28004 07607 12/70 40202 10200 20130 30081 40150 50003 60006 83082 90000=
07607,1997-05-28 03:00:00,18,1014.5,-0.5,83,15,20000,3.704,,,230,,,,,,,,,,,wg-a,,,,AAXX 28034 07607 12770 62302 10180 20150 30076 40145 58005 60006 83582 90300=
07607,1997-05-28 06:00:00,18,1014.5,-0,88,16,25000,3.704,,,310,17.4,29.7,,,,,,,,,wg-a,,,,AAXX 28064 07607 12/75 63102 10180 20160 30076 40145 54000 60006 85082 90600 333 10297 20174=
07607,1997-05-28 09:00:00,24,1014.5,0.1,57,15,500,3.704,,,350,,,,,,,,,,,wg-a,,,,AAXX 28094 07607 12/00 03502 10240 20150 30077 40145 50001 60006 80000 90900=
07607,1997-05-28 12:00:00,29,1013.7,-0.7,45,16,40000,11.112,,,360,,,,,,,,,,,wg-a,,,,AAXX 28124 07607 12682 /3606 10290 20160 30070 40137 58007 60006 81100 91200=
07607,1997-05-28 18:00:00,29,1013.1,0.2,37,13,50000,14.816,,,40,17.9,31,,,,,,,,,wg-a,,,,AAXX 28184 07607 12/84 60408 10290 20130 30064 40131 53002 60006 81083 91800 333 10310 20179=
07607,1997-05-29 00:00:00,19,1015.2,0.8,64,12,20000,7.408,,,50,,,,,,,,,,,wg-a,,,,AAXX 29004 07607 12/70 00504 10190 20120 30083 40152 53008 60006 80000 90000=
07607,1997-05-29 06:00:00,16,1015.9,0.5,68,10,20000,7.408,,,60,12.8,28.7,,,,,,,,,wg-a,,,,AAXX 29064 07607 12/70 40604 10160 20100 30089 40159 52005 60006 81031 90600 333 10287 20128=
07607,1997-05-29 12:00:00,28,1015.9,-0.2,51,17,500,7.408,,,120,,,,,,,,,,,wg-a,,,,AAXX 29124 07607 12/00 61204 10280 20170 30092 40159 58002 60006 80002 91200=
07607,1997-05-29 18:00:00,28,1015.6,0.2,45,15,500,14.816,,,110,15.5,30.3,,,,,,,,,wg-a,,,,AAXX 29184 07607 12/00 71108 10280 20150 30089 40156 52002 60006 83072 91800 333 10303 20155=
07607,1997-05-30 00:00:00,20,1017.5,0.8,73,15,10000,11.112,,,80,,,,,,,,,,,wg-a,,,,AAXX 30004 07607 12/60 20806 10200 20150 30106 40175 51008 60006 80002 90000=
07607,1997-05-30 06:00:00,15,1017.8,0.1,67,9,20000,11.112,,,80,14,28,,,,,,,,,wg-a,,,,AAXX 30064 07607 12/70 70806 10150 20090 30108 40178 51001 60006 82082 90600 333 10280 20140=
07607,1997-05-30 12:00:00,27,1015.6,-1.6,42,13,10000,11.112,,,130,,,,,,,,,,,wg-a,,,,AAXX 30124 07607 12/60 /1306 10270 20130 30088 40156 56016 60006 91200=
07607,1997-05-30 21:00:00,23,1011.9,-0.6,47,11,20000,11.112,,,40,,,,,,,,,,,wg-a,,,,AAXX 30214 07607 12/70 30406 10230 20110 30051 40119 57006 60006 80002 92100=
07607,1997-05-31 00:00:00,19,1010.8,-1.2,64,12,20000,3.704,,,90,,,,,,,,,,,wg-a,,,,AAXX 31004 07607 12/70 30902 10190 20120 30039 40108 58012 60006 80002 90000=
07607,1997-05-31 03:00:00,16,1010.1,-0.8,77,12,15000,0,,,0,,,,,,,,,,,wg-a,,,,AAXX 31034 07607 12/65 20000 10160 20120 30031 40101 57008 60006 80002 90300=
07607,1997-05-31 06:00:00,17,1010.4,0.3,82,14,10000,0,,,0,14.9,28.6,,,,,,,,,wg-a,,,,AAXX 31064 07607 12/60 50000 10170 20140 30034 40104 50003 60006 83082 90600 333 10286 20149=
07607,1997-05-31 09:00:00,23,1009.7,-0.5,61,15,20000,7.408,,,310,,,,,,,,,,,wg-a,,,,AAXX 31094 07607 12/70 73104 10230 20150 30029 40097 57005 60006 84082 90900=
07607,1997-05-31 12:00:00,26,1008.9,-0.7,48,14,500,14.816,,,330,,,,0,,,,,,1,wg-a,,,,AAXX 31124 07607 02/00 63308 10260 20140 30022 40089 58007 60006 70182 84082 91200 333 60007=
07607,1997-05-31 15:00:00,25,1007.6,-1.3,50,14,20000,18.52,,,330,,,,,,,,,,,wg-a,,,,AAXX 31154 07607 12570 73310 10250 20140 30009 40076 57013 60006 8498/ 91500=
07607,1997-05-31 18:00:00,17,1009.6,1.8,94,16,7000,7.408,,,190,16.5,26.9,,,,,,,,81,wg-a,,,,AAXX 31184 07607 02557 81904 10170 20160 30027 40096 53018 61000 78122 879// 91800 333 10269 20165 6008=
07607,1997-05-31 21:00:00,16,1008.3,-1.3,100,16,8000,11.112,,,250,,,,11,,,,,,61,wg-a,,,,AAXX 31214 07607 12558 82506 10160 20160 30014 40083 58013 60117 76122 879// 92100=
07607,1997-06-01 06:00:00,16,1004.1,-0.8,94,15,500,11.112,,,40,15.3,17.2,,,,,,,,63,wg-a,,,,AAXX 01064 07607 02200 80406 10160 20150 39972 40041 57008 61000 76362 875// 90600 333 10172 20153 6037=
07607,1997-06-01 12:00:00,17,1003.9,-0.1,77,13,20000,3.704,,,310,,,,,,,,,,1,wg-a,,,,AAXX 01124 07607 12470 73102 10170 20130 39970 40039 58001 60016 70162 878// 91200=
07607,1997-06-01 15:00:00,17,1004.2,0.3,82,14,25000,7.408,,,300,,,,,,,,,,,wg-a,,,,AAXX 01154 07607 12575 73004 10170 20140 39973 40042 50003 60006 8283/ 91500=
07607,1997-06-01 21:00:00,15,1006.9,1.6,94,14,500,3.704,,,220,,,,3,,,,,,21,wg-a,,,,AAXX 01214 07607 12300 82202 10150 20140 39999 40069 53016 60037 72162 885// 92100=
07607,1997-06-02 00:00:00,15,1006.7,-0.2,88,13,500,7.408,,,190,,,,,,,,,,2,wg-a,,,,AAXX 02004 07607 12300 81904 10150 20130 39997 40067 58002 60036 70262 885// 90000=
07607,1997-06-02 03:00:00,15,1007,0.3,88,13,7000,11.112,,,220,,,,,,,,,,,wg-a,,,,AAXX 02034 07607 12657 /2206 10150 20130 30000 40070 53003 60006 86500 90300=
07607,1997-06-02 06:00:00,13,1009.2,2.2,94,12,6000,0,,,0,12.8,15.5,,,,,5,,,,wg-a,,,,AAXX 02064 07607 02356 80000 10130 20120 30022 40092 53022 60006 875// 90600 333 10155 20128 60054=
07607,1997-06-02 09:00:00,17,1010.7,1.6,77,13,15000,3.704,,,30,,,,,,,,,,,wg-a,,,,AAXX 02094 07607 12565 40302 10170 20130 30038 40107 51016 60006 84800 90900=
07607,1997-06-02 12:00:00,21,1011.5,0.8,43,8,500,7.408,,,20,,,,,,,,,,,wg-a,,,,AAXX 02124 07607 12600 30204 10210 20080 30046 40115 51008 60006 83800 91200=
07607,1997-06-02 15:00:00,22,1011.4,-0,46,10,11000,0,,,0,,,,,,,,,,,wg-a,,,,AAXX 02154 07607 12/61 /0000 10220 20100 30046 40114 55000 60006 91500=
07607,1997-06-02 18:00:00,21,1012,0.5,49,10,0,3.704,,,140,13,22,,,,,,,,,wg-a,,,,AAXX 02184 07607 12/// /1402 10210 20100 30051 40120 53005 60006 91800 333 10220 20130=
07607,1997-06-03 00:00:00,15,1014.3,0.8,82,12,4000,3.704,,,260,,,,2,,,,,,10,wg-a,,,,AAXX 03004 07607 02540 72602 10150 20120 30073 40143 51008 60026 71086 878// 90000 333 60027=
07607,1997-06-03 03:00:00,13,1015.6,1.2,88,11,6000,0,,,0,,,,2,,,,,,21,wg-a,,,,AAXX 03034 07607 12556 70000 10130 20110 30085 40156 51012 60027 72122 8457/ 90300=
07607,1997-06-03 12:00:00,21,1016.3,-0.5,60,13,35000,3.704,,,110,,,,,,,,,,,wg-a,,,,AAXX 03124 07607 12681 41102 10210 20130 30094 40163 57005 60006 84200 91200=
07607,1997-06-04 03:00:00,15,1012.4,-1.9,88,13,15000,7.408,,,80,,,,,,,,,,,wg-a,,,,AAXX 04034 07607 12/65 70804 10150 20130 30054 40124 56019 60006 82032 90300=
07607,1997-06-04 06:00:00,17,1010.2,-2.1,82,14,12000,14.816,,,90,14.5,23.6,,,,,,,,,wg-a,,,,AAXX 04064 07607 12762 70908 10170 20140 30033 40102 56021 60006 83532 90600 333 10236 20145=
07607,1997-06-04 12:00:00,21,1008.5,-1.3,73,16,12000,11.112,,,10,,,,,,,,,,60,wg-a,,,,AAXX 04124 07607 02662 80106 10210 20160 30017 40085 58013 61000 76062 85572 91200 333 6100=
07607,1997-06-04 15:00:00,21,1006.8,-1.7,83,18,11000,11.112,,,280,,,,,,,,,,,wg-a,,,,AAXX 04154 07607 32/61 /2806 10210 20180 30000 40068 56017 91500=
07607,1997-06-04 18:00:00,21,1004,-2.8,83,18,10000,11.112,,,310,16.7,21.3,,,,,,,,,wg-a,,,,AAXX 04184 07607 12560 73106 10210 20180 39972 40040 57028 60006 8687/ 91800 333 10213 20167=
07607,1997-06-04 21:00:00,18,1003,-1.1,94,17,10000,7.408,,,40,,,,0,,,,,,2,wg-a,,,,AAXX 04214 07607 12460 80404 10180 20170 39961 40030 58011 60007 70282 8687/ 92100=
07607,1997-06-05 03:00:00,15,1003.9,0.4,94,14,4000,7.408,,,230,,,,,,,,,,,wg-a,,,,AAXX 05034 07607 32/40 /2304 10150 20140 39970 40039 53004 90300=
07607,1997-06-05 06:00:00,16,1004.2,0.3,94,15,10000,7.408,,,220,15.1,20.6,,,,,6,,,3,wg-a,,,,AAXX 05064 07607 02460 72204 10160 20150 39973 40042 53003 60006 70386 8687/ 90600 333 10206 20151 60064=
07607,1997-06-05 12:00:00,22,1003.9,-0.4,57,13,20000,11.112,,,190,,,,,,,,,,,wg-a,,,,AAXX 05124 07607 12570 51906 10220 20130 39971 40039 58004 60006 85200 91200=
07607,1997-06-05 18:00:00,24,1002.5,-0.3,50,13,25000,7.408,,,110,15.6,25,,,,,,,,,wg-a,,,,AAXX 05184 07607 12775 71104 10240 20130 39958 40025 56003 60006 83532 91800 333 10250 20156=
07607,1997-06-06 00:00:00,19,1005.6,1,78,15,20000,7.408,,,140,,,,,,,,,,,wg-a,,,,AAXX 06004 07607 12770 21404 10190 20150 39987 40056 51010 60006 825/0 90000=
07607,1997-06-06 06:00:00,17,1007.3,1.3,88,15,500,7.408,,,110,14.3,23.7,,,,,,,,,wg-a,,,,AAXX 06064 07607 02/00 71104 10170 20150 30004 40073 51013 60006 83032 90600 333 10237 20143 60004=
07607,1997-06-06 12:00:00,29,1007.5,-0.2,37,13,500,11.112,,,130,,,,,,,,,,,wg-a,,,,AAXX 06124 07607 12700 21306 10290 20130 30008 40075 58002 60006 81131 91200=
07607,1997-06-06 18:00:00,29,1005.9,-0.4,43,15,500,11.112,,,130,17,30.8,,,,,,,,,wg-a,,,,AAXX 06184 07607 12/00 51306 10290 20150 39993 40059 55004 60006 82034 91800 333 10308 20170=
07607,1997-06-07 00:00:00,22,1006.7,-0.3,78,18,20000,7.408,,,110,,,,,,,,,,,wg-a,,,,AAXX 07004 07607 12670 71104 10220 20180 39999 40067 58003 60006 8393/ 90000=
07607,1997-06-07 06:00:00,19,1007.7,1,88,17,20000,3.704,,,110,17.4,29.1,,,,,,,,,wg-a,,,,AAXX 07064 07607 02570 21102 10190 20170 30008 40077 53010 60006 81830 90600 333 10291 20174 60004=
07607,1997-06-07 12:00:00,29,1009,0.5,40,14,20000,18.52,,,240,,,,,,,,,,,wg-a,,,,AAXX 07124 07607 12670 52410 10290 20140 30023 40090 50005 60006 82102 91200=
07607,1997-06-07 18:00:00,17,1009.7,1.2,94,16,10000,11.112,,,330,15.8,29.4,,24,,,,,,29,wg-a,,,,AAXX 07184 07607 12660 63306 10170 20160 30028 40097 50012 60247 72998 869/0 91800 333 10294 20158=
07607,1997-06-08 00:00:00,17,1014.6,2.5,94,16,15000,0,,,0,,,,,,,,,,1,wg-a,,,,AAXX 08004 07607 12765 50000 10170 20160 30076 40146 51025 60006 70186 855/0 90000=
07607,1997-06-08 12:00:00,25,1018.2,1.3,36,9,500,25.928,,,270,,,,,,,,,,,wg-a,,,,AAXX 08124 07607 12700 52714 10250 20090 30114 40182 51013 60006 81132 91200=
07607,1997-06-08 18:00:00,25,1019.6,0.9,39,10,0,11.112,,,360,15.8,25.6,,,,,,,,,wg-a,,,,AAXX 08184 07607 12/// /3606 10250 20100 30128 40196 53009 60006 91800 333 10256 20158=
07607,1997-06-09 00:00:00,16,1020.6,-0.6,77,12,20000,11.112,,,60,,,,,,,,,,,wg-a,,,,AAXX 09004 07607 12/70 50606 10160 20120 30135 40206 58006 60006 80002 90000=
07607,1997-06-09 06:00:00,16,1019.4,-0.5,77,12,20000,7.408,,,90,12,24.6,,,,,,,,,wg-a,,,,AAXX 09064 07607 02670 40904 10160 20120 30124 40194 56005 60006 81802 90600 333 10246 20120 60004=
07607,1997-06-09 12:00:00,28,1017.1,-1.6,48,16,500,22.224,,,100,,,,,,,,,,,wg-a,,,,AAXX 09124 07607 12800 71012 10280 20160 30104 40171 56016 60006 83082 91200=
07607,1997-06-09 15:00:00,30,1015.4,-1.7,40,15,500,14.816,,,120,,,,,,,,,,,wg-a,,,,AAXX 09154 07607 12800 71208 10300 20150 30087 40154 56017 60006 81082 91500=
07607,1997-06-09 21:00:00,24,1014,-0.3,57,15,500,11.112,,,70,,,,,,,,,,,wg-a,,,,AAXX 09214 07607 12/00 70706 10240 20150 30072 40140 55003 60006 81082 92100=
07607,1997-06-10 00:00:00,22,1012.7,-1.3,69,16,20000,14.816,,,90,,,,,,,,,,,wg-a,,,,AAXX 10004 07607 12/70 50908 10220 20160 30059 40127 58013 60006 83082 90000=
07607,1997-06-10 03:00:00,20,1011.2,-1.6,83,17,20000,11.112,,,90,,,,,,,,,,,wg-a,,,,AAXX 10034 07607 12/70 40906 10200 20170 30043 40112 56016 60006 80002 90300=
07607,1997-06-10 06:00:00,19,1010.6,-0.6,88,17,10000,7.408,,,100,18.7,30,,,,,,,,,wg-a,,,,AAXX 10064 07607 02/60 71004 10190 20170 30037 40106 56006 60006 85/82 90600 333 10300 20187 60004=
07607,1997-06-10 09:00:00,23,1011.1,0.6,73,18,20000,14.816,,,80,,,,,,,,,,,wg-a,,,,AAXX 10094 07607 12/70 70808 10230 20180 30043 40111 51006 60006 86082 90900=
07607,1997-06-10 12:00:00,26,1011.3,0.3,61,18,500,7.408,,,20,,,,,,,,,,2,wg-a,,,,AAXX 10124 07607 02700 80204 10260 20180 30046 40113 52003 61000 70286 8228/ 91200 333 6100=
07607,1997-06-10 15:00:00,27,1010.1,-1.2,58,18,500,14.816,,,120,,,,,,,,,,60,wg-a,,,,AAXX 10154 07607 02600 71208 10270 20180 30034 40101 55012 61000 76062 8358/ 91500 333 ////=
07607,1997-06-10 18:00:00,27,1008.2,-1.9,58,18,40000,18.52,,,100,19.4,28.3,,,,,,,,2,wg-a,,,,AAXX 10184 07607 02/82 51010 10270 20180 30015 40082 55019 61000 70262 83082 91800 333 10283 20194 ////=
07607,1997-06-11 00:00:00,20,1009.2,0.1,83,17,7000,11.112,,,40,,,,1,,,,,,95,wg-a,,,,AAXX 11004 07607 02657 70406 10200 20170 30023 40092 51001 60016 79598 85982 90000 333 60017=
07607,1997-06-11 12:00:00,27,1010.7,0.3,42,13,500,22.224,,,270,,,,,,,,,,,wg-a,,,,AAXX 11124 07607 12600 32712 10270 20130 30040 40107 53003 60006 81132 91200=
07607,1997-06-11 15:00:00,27,1010.9,0.2,39,12,500,22.224,,,290,,,,,,,,,,,wg-a,,,,AAXX 11154 07607 12600 42912 10270 20120 30042 40109 53002 60006 82142 91500=
07607,1997-06-11 18:00:00,26,1010.7,-0.2,42,12,40000,7.408,,,310,18.5,27.3,,,,,,,,,wg-a,,,,AAXX 11184 07607 12782 43104 10260 20120 30040 40107 56002 60006 81442 91800 333 10273 20185=
07607,1997-06-12 00:00:00,18,1012.2,0.2,83,15,20000,3.704,,,40,,,,,,,,,,,wg-a,,,,AAXX 12004 07607 12/70 40402 10180 20150 30053 40122 51002 60006 83032 90000=
07607,1997-06-12 06:00:00,17,1012,0.7,82,14,25000,7.408,,,330,15.5,26.4,,,,,,,,,wg-a,,,,AAXX 12064 07607 02575 83304 10170 20140 30050 40120 53007 60006 82582 90600 333 10264 20155 60004=
07607,1997-06-12 09:00:00,22,1011.3,-0.5,69,16,40000,3.704,,,30,,,,,,,,,,,wg-a,,,,AAXX 12094 07607 12682 70302 10220 20160 30045 40113 57005 60006 81582 90900=
07607,1997-06-12 12:00:00,27,1010.1,-1.1,51,16,50000,11.112,,,250,,,,,,,,,,,wg-a,,,,AAXX 12124 07607 12584 42506 10270 20160 30034 40101 58011 60006 81102 91200=
07607,1997-06-12 15:00:00,28,1009.5,-0.6,42,14,50000,14.816,,,230,,,,,,,,,,,wg-a,,,,AAXX 12154 07607 12684 72308 10280 20140 30028 40095 56006 60006 82202 91500=
07607,1997-06-12 18:00:00,26,1009.5,-0,51,15,11000,11.112,,,300,16.5,28.2,,,,,,,,,wg-a,,,,AAXX 12184 07607 12/61 /3006 10260 20150 30028 40095 54000 60006 91800 333 10282 20165=
07607,1997-06-12 21:00:00,21,1011.1,1.4,73,16,40000,7.408,,,280,,,,,,,,,,,wg-a,,,,AAXX 12214 07607 12/82 82804 10210 20160 30042 40111 53014 60006 85082 92100=
07607,1997-06-13 00:00:00,19,1011.3,0.2,83,16,0,3.704,,,330,,,,,,,,,,,wg-a,,,,AAXX 13004 07607 12/// /3302 10190 20160 30044 40113 50002 60006 90000=
07607,1997-06-13 06:00:00,17,1007.2,-2.1,88,15,10000,7.408,,,350,16.7,25.5,,,,,,,,,wg-a,,,,AAXX 13064 07607 02760 73504 10170 20150 30003 40072 56021 60006 8257/ 90600 333 10255 20167 60004=
07607,1997-06-13 09:00:00,21,1007.1,0,78,17,20000,0,,,0,,,,,,,,,,,wg-a,,,,AAXX 13094 07607 12670 70000 10210 20170 30003 40071 50000 60006 8257/ 90900=
07607,1997-06-13 15:00:00,26,1007.7,0.4,54,16,20000,25.928,,,270,,,,,,,,,,,wg-a,,,,AAXX 13154 07607 12770 52714 10260 20160 30010 40077 52004 60006 81132 91500=
07607,1997-06-13 18:00:00,22,1009.8,2,60,14,25000,18.52,,,260,17.2,27.1,,,,,,,,,wg-a,,,,AAXX 13184 07607 12/75 72610 10220 20140 30030 40098 53020 60006 85032 91800 333 10271 20172=
07607,1997-06-13 21:00:00,19,1011.7,1.8,78,15,25000,11.112,,,250,,,,,,,,,,,wg-a,,,,AAXX 13214 07607 12/75 72506 10190 20150 30048 40117 52018 60006 84032 92100=
07607,1997-06-14 00:00:00,19,1012.6,0.9,83,16,20000,11.112,,,230,,,,,,,,,,,wg-a,,,,AAXX 14004 07607 12/70 72306 10190 20160 30057 40126 51009 60006 85032 90000=
07607,1997-06-14 03:00:00,18,1012.8,0.2,83,15,20000,11.112,,,230,,,,,,,,,,,wg-a,,,,AAXX 14034 07607 12670 72306 10180 20150 30059 40128 52002 60006 82532 90300=
07607,1997-06-14 06:00:00,18,1015.1,2.2,83,15,20000,14.816,,,240,17.5,22.1,,,,,,,,,wg-a,,,,AAXX 14064 07607 02270 72408 10180 20150 30081 40151 53022 60006 8553/ 90600 333 10221 20175 60004=
07607,1997-06-14 09:00:00,20,1016.5,1.5,73,15,500,14.816,,,270,,,,0,,,,,,21,wg-a,,,,AAXX 14094 07607 12400 72708 10200 20150 30096 40165 51015 60007 72162 8383/ 90900=
07607,1997-06-14 12:00:00,22,1017.5,1,53,12,50000,14.816,,,230,,,,,,,,,,1,wg-a,,,,AAXX 14124 07607 12584 /2308 10220 20120 30106 40175 52010 60006 70162 85202 91200=
07607,1997-06-14 18:00:00,22,1017.8,0.5,50,11,50000,14.816,,,300,17.1,23.8,,,,,,,,,wg-a,,,,AAXX 14184 07607 12684 /3008 10220 20110 30109 40178 53005 60006 81400 91800 333 10238 20171=
07607,1997-06-15 00:00:00,14,1019.9,0,88,12,12000,3.704,,,340,,,,,,,,,,,wg-a,,,,AAXX 15004 07607 12/62 13402 10140 20120 30128 40199 50000 60006 80002 90000=
07607,1997-06-15 03:00:00,11,1019.2,-0.8,87,9,10000,0,,,0,,,,,,,,,,,wg-a,,,,AAXX 15034 07607 12760 30000 10110 20090 30120 40192 57008 60006 83500 90300=
07607,1997-06-15 09:00:00,19,1017.8,-0.9,64,12,25000,11.112,,,100,,,,,,,,,,,wg-a,,,,AAXX 15094 07607 12775 61006 10190 20120 30109 40178 58009 60006 84532 90900=
07607,1997-06-15 12:00:00,23,1016.6,-1.1,57,14,500,11.112,,,60,,,,,,,,,,,wg-a,,,,AAXX 15124 07607 12700 30606 10230 20140 30098 40166 56011 60006 82581 91200=
07607,1997-06-15 15:00:00,25,1015.6,-1,50,14,10000,7.408,,,60,,,,,,,,,,,wg-a,,,,AAXX 15154 07607 12/60 /0604 10250 20140 30088 40156 56010 60006 91500=
07607,1997-06-15 21:00:00,21,1016.6,1.1,60,13,500,11.112,,,20,,,,,,,,,,,wg-a,,,,AAXX 15214 07607 12/00 50206 10210 20130 30097 40166 53011 60006 84082 92100=
07607,1997-06-16 00:00:00,20,1017.2,1.1,64,13,20000,7.408,,,270,,,,,,,,,,,wg-a,,,,AAXX 16004 07607 12/70 72704 10200 20130 30103 40172 51011 60006 86082 90000=
07607,1997-06-16 06:00:00,16,1016.8,0.8,88,14,15000,11.112,,,290,16.1,25.9,,,,,,,,,wg-a,,,,AAXX 16064 07607 02765 82906 10160 20140 30098 40168 53008 60006 8358/ 90600 333 10259 20161 60004=
07607,1997-06-16 18:00:00,20,1017.6,-0,64,13,40000,14.816,,,310,16.1,21.4,,,,,,,,,wg-a,,,,AAXX 16184 07607 12682 63108 10200 20130 30107 40176 55000 60006 86800 91800 333 10214 20161=
07607,1997-06-16 21:00:00,16,1019.7,2,82,13,500,11.112,,,260,,,,,,,,,,,wg-a,,,,AAXX 16214 07607 12800 22606 10160 20130 30127 40197 53020 60006 82500 92100=
07607,1997-06-17 00:00:00,13,1019.5,-0.3,94,12,15000,0,,,0,,,,,,,,,,,wg-a,,,,AAXX 17004 07607 12/65 00000 10130 20120 30124 40195 58003 60006 80000 90000=
07607,1997-06-17 06:00:00,14,1019,0.3,94,13,8000,3.704,,,130,11.1,20,,,,,,,,,wg-a,,,,AAXX 17064 07607 02/58 51302 10140 20130 30119 40190 53003 60006 82032 90600 333 10200 20111 60004=
07607,1997-06-17 12:00:00,21,1019,-0.5,56,12,20000,7.408,,,210,,,,,,,,,,,wg-a,,,,AAXX 17124 07607 12570 72104 10210 20120 30121 40190 56005 60006 86802 91200=
07607,1997-06-17 15:00:00,22,1018.3,-0.7,53,12,20000,18.52,,,280,,,,,,,,,,,wg-a,,,,AAXX 17154 07607 12670 /2810 10220 20120 30114 40183 58007 60006 85202 91500=
07607,1997-06-17 18:00:00,22,1018.4,0.1,50,11,20000,18.52,,,290,13.7,23.4,,,,,,,,,wg-a,,,,AAXX 17184 07607 12670 /2910 10220 20110 30115 40184 53001 60006 83202 91800 333 10234 20137=
07607,1997-06-17 21:00:00,16,1020.4,1.9,77,12,25000,11.112,,,290,,,,,,,,,,,wg-a,,,,AAXX 17214 07607 12775 32906 10160 20120 30134 40204 53019 60006 815/2 92100=
07607,1997-06-18 00:00:00,14,1021.2,0.7,88,12,20000,7.408,,,230,,,,,,,,,,,wg-a,,,,AAXX 18004 07607 12/70 32304 10140 20120 30141 40212 53007 60006 80002 90000=
07607,1997-06-18 12:00:00,22,1018.7,-1.1,46,10,500,7.408,,,320,,,,,,,,,,,wg-a,,,,AAXX 18124 07607 12500 53204 10220 20100 30118 40187 58011 60006 84401 91200=
07607,1997-06-18 15:00:00,24,1016.8,-1.8,50,13,40000,11.112,,,250,,,,,,,,,,,wg-a,,,,AAXX 18154 07607 12682 52506 10240 20130 30100 40168 56018 60006 84430 91500=
07607,1997-06-18 18:00:00,22,1015.6,-1.3,57,13,20000,18.52,,,310,12.6,24.7,,,,,,,,,wg-a,,,,AAXX 18184 07607 12670 63110 10220 20130 30087 40156 56013 60006 84502 91800 333 10247 20126=
07607,1997-06-18 21:00:00,18,1016.8,1.1,73,13,20000,14.816,,,290,,,,,,,,,,,wg-a,,,,AAXX 18214 07607 12670 52908 10180 20130 30098 40168 53011 60006 84530 92100=
07607,1997-06-19 00:00:00,16,1015.8,-1,82,13,20000,3.704,,,260,,,,,,,,,,,wg-a,,,,AAXX 19004 07607 12770 32602 10160 20130 30088 40158 58010 60006 83500 90000=
07607,1997-06-19 03:00:00,15,1014.1,-1.7,88,13,8000,7.408,,,260,,,,,,,,,,,wg-a,,,,AAXX 19034 07607 12558 /2604 10150 20130 30071 40141 56017 60006 86500 90300=
07607,1997-06-19 06:00:00,15,1014.2,0.1,94,14,6000,7.408,,,270,14.3,22.3,,,,,,,,,wg-a,,,,AAXX 19064 07607 02556 72704 10150 20140 30072 40142 51001 60006 82532 90600 333 10223 20143 60004=
07607,1997-06-19 15:00:00,23,1013.3,-0.5,41,9,500,29.632,,46.3,260,,,,,,,,,,,wg-a,,,,AAXX 19154 07607 12600 /2616 10230 20090 30065 40133 56005 60006 84101 91500 333 91025=
07607,1997-06-19 18:00:00,18,1014.3,0.8,64,11,10000,18.52,,,240,15.1,22.8,,,,,,,,14,wg-a,,,,AAXX 19184 07607 12560 82410 10180 20110 30073 40143 51008 60006 71422 8587/ 91800 333 10228 20151=
07607,1997-06-19 21:00:00,16,1015.2,0.9,82,13,20000,11.112,,,210,,,,,,,,,,,wg-a,,,,AAXX 19214 07607 12570 22106 10160 20130 30082 40152 52009 60006 81102 92100=
07607,1997-06-20 03:00:00,13,1013.8,-1.1,94,12,15000,3.704,,,210,,,,,,,,,,,wg-a,,,,AAXX 20034 07607 12/65 72102 10130 20120 30067 40138 57011 60006 81032 90300=
07607,1997-06-20 06:00:00,15,1013,-0.7,82,12,20000,11.112,,,200,12.9,18.2,,,,,,,,,wg-a,,,,AAXX 20064 07607 02870 52006 10150 20120 30060 40130 58007 60006 83032 90600 333 10182 20129 60004=
07607,1997-06-20 12:00:00,22,1010.7,-1.8,46,10,500,7.408,,,220,,,,,,,,,,,wg-a,,,,AAXX 20124 07607 12600 52204 10220 20100 30039 40107 58018 60006 83432 91200=
07607,1997-06-20 18:00:00,25,1006.8,-1.7,39,10,50000,7.408,,,320,14.7,25.9,,,,,,,,,wg-a,,,,AAXX 20184 07607 12/84 63204 10250 20100 30001 40068 56017 60006 86030 91800 333 10259 20147=
07607,1997-06-20 21:00:00,19,1008.9,1.9,56,10,10000,7.408,,,320,,,,,,,,,,,wg-a,,,,AAXX 20214 07607 12/60 /3204 10190 20100 30020 40089 53019 60006 92100=
07607,1997-06-21 00:00:00,18,1008.7,-0.2,68,12,20000,7.408,,,180,,,,,,,,,,,wg-a,,,,AAXX 21004 07607 12770 81804 10180 20120 30018 40087 58002 60006 8457/ 90000=
07607,1997-06-21 03:00:00,17,1007.4,-1.3,77,13,10000,7.408,,,180,,,,,,,,,,60,wg-a,,,,AAXX 21034 07607 02560 81804 10170 20130 30005 40074 56013 61000 76062 875// 90300 333 ////=
07607,1997-06-21 09:00:00,16,1007.6,-0,94,15,2000,7.408,,,260,,,,,,,,,,51,wg-a,,,,AAXX 21094 07607 02320 82604 10160 20150 30007 40076 55000 61000 75165 885// 90900 333 ////=
07607,1997-06-21 12:00:00,16,1008.1,0.4,88,14,0,3.704,,,220,,,,,,,,,,,wg-a,,,,AAXX 21124 07607 12/// /2202 10160 20140 30011 40081 50004 60026 91200=
07607,1997-06-21 18:00:00,15,1008.3,0.7,94,14,6000,14.816,,,210,15,18.2,,0,,,,,,60,wg-a,,,,AAXX 21184 07607 12456 82108 10150 20140 30013 40083 51007 60007 76062 878// 91800 333 10182 20150=
07607,1997-06-22 00:00:00,14,1010,-0,94,13,8000,11.112,,,200,,,,1,,,,,,21,wg-a,,,,AAXX 22004 07607 02258 82006 10140 20130 30030 40100 55000 60016 72165 875// 90000 333 60017=
07607,1997-06-22 06:00:00,14,1010.1,0.6,88,12,0,11.112,,,200,12.9,15,,0,,,4,,,,wg-a,,,,AAXX 22064 07607 02/// /2006 10140 20120 30031 40101 53006 60044 90600 333 10150 20129 60007=
07607,1997-06-22 09:00:00,16,1011,0.9,82,13,10000,14.816,,,200,,,,1,,,,,,3,wg-a,,,,AAXX 22094 07607 12260 72008 10160 20130 30040 40110 51009 60017 70386 878// 90900=
07607,1997-06-22 15:00:00,16,1014.1,1.4,72,11,10000,25.928,,66.672,230,,,,0,,,,,,3,wg-a,,,,AAXX 22154 07607 12560 /2314 10160 20110 30071 40141 53014 60007 70386 86900 91500 333 91036=
07607,1997-06-22 18:00:00,17,1014.8,0.7,72,12,20000,18.52,,,230,13.3,19.8,,,,,,,,25,wg-a,,,,AAXX 22184 07607 02470 /2310 10170 20120 30078 40148 53007 61000 72586 85930 91800 333 10198 20133 6100=
07607,1997-06-22 21:00:00,15,1016.6,1.8,82,12,15000,11.112,,,210,,,,1,,,,,,3,wg-a,,,,AAXX 22214 07607 12565 52106 10150 20120 30096 40166 53018 60017 70386 85900 92100=
07607,1997-06-23 00:00:00,13,1016.8,0.1,94,12,20000,7.408,,,200,,,,0,,,,,,1,wg-a,,,,AAXX 23004 07607 02570 62004 10130 20120 30097 40168 52001 60016 70186 84830 90000 333 60007=
07607,1997-06-23 03:00:00,13,1016.1,-0.7,94,12,15000,7.408,,,200,,,,0,,,,,,25,wg-a,,,,AAXX 23034 07607 12565 /2004 10130 20120 30090 40161 58007 60007 72522 8483/ 90300=
07607,1997-06-23 06:00:00,13,1016.8,0.7,100,13,15000,11.112,,,220,12.7,17,,,,,,,,25,wg-a,,,,AAXX 23064 07607 02565 72206 10130 20130 30097 40168 52007 61000 72586 8683/ 90600 333 10170 20127 6010=
07607,1997-06-23 12:00:00,18,1018.3,0.5,77,14,15000,22.224,,,250,,,,2,,,,,,25,wg-a,,,,AAXX 23124 07607 02365 /2512 10180 20140 30113 40183 53005 60026 72586 86800 91200 333 60027=
07607,1997-06-23 15:00:00,19,1018.8,0.5,64,12,25000,22.224,,,280,,,,1,,,,,,1,wg-a,,,,AAXX 23154 07607 12575 52812 10190 20120 30118 40188 53005 60017 70186 84830 91500=
07607,1997-06-23 18:00:00,18,1019.5,0.7,64,11,25000,22.224,,,240,13.5,20.1,,,,,,,,1,wg-a,,,,AAXX 23184 07607 12575 62412 10180 20110 30125 40195 53007 60006 70186 85830 91800 333 10201 20135=
07607,1997-06-23 21:00:00,16,1021.3,1.7,77,12,20000,11.112,,,240,,,,,,,,,,,wg-a,,,,AAXX 23214 07607 12570 32406 10160 20120 30142 40213 53017 60006 82830 92100=
07607,1997-06-24 03:00:00,12,1020.7,-0.6,94,11,6000,3.704,,,220,,,,,,,,,,,wg-a,,,,AAXX 24034 07607 12/56 22202 10120 20110 30136 40207 56006 60006 82030 90300=
07607,1997-06-24 06:00:00,13,1021,0.3,94,12,500,3.704,,,260,11.3,17.8,,,,,2,,,,wg-a,,,,AAXX 24064 07607 02500 32602 10130 20120 30139 40210 50003 60006 83130 90600 333 10178 20113 60024=
07607,1997-06-24 12:00:00,21,1019.8,-1.2,53,11,25000,11.112,,,250,,,,,,,,,,,wg-a,,,,AAXX 24124 07607 12675 52506 10210 20110 30129 40198 58012 60006 85800 91200=
07607,1997-06-24 15:00:00,22,1018.5,-1.3,50,11,25000,14.816,,,310,,,,,,,,,,,wg-a,,,,AAXX 24154 07607 12775 53108 10220 20110 30116 40185 58013 60006 85800 91500=
07607,1997-06-24 21:00:00,16,1018,0.6,72,11,20000,7.408,,,310,,,,,,,,,,,wg-a,,,,AAXX 24214 07607 12770 23104 10160 20110 30110 40180 53006 60006 81502 92100=
07607,1997-06-25 00:00:00,12,1017.2,-0.9,88,10,15000,3.704,,,270,,,,,,,,,,,wg-a,,,,AAXX 25004 07607 12/65 12702 10120 20100 30101 40172 58009 60006 80002 90000=
07607,1997-06-25 03:00:00,11,1015.7,-1.5,94,10,10000,3.704,,,290,,,,,,,,,,,wg-a,,,,AAXX 25034 07607 12860 72902 10110 20100 30086 40157 56015 60006 8703/ 90300=
07607,1997-06-25 06:00:00,12,1014.7,-1,94,11,10000,0,,,0,10.1,20.8,,,,,,,,,wg-a,,,,AAXX 25064 07607 02/60 60000 10120 20110 30076 40147 56010 60006 85032 90600 333 10208 20101 60004=
07607,1997-06-25 15:00:00,21,1010.2,-1.8,56,12,40000,22.224,,,250,,,,,,,,,,,wg-a,,,,AAXX 25154 07607 12782 72512 10210 20120 30033 40102 56018 60006 8143/ 91500=
07607,1997-06-25 18:00:00,19,1009.5,-0.7,60,11,25000,18.52,,,230,11.8,22.1,,,,,,,,,wg-a,,,,AAXX 25184 07607 12675 72310 10190 20110 30026 40095 56007 60006 8283/ 91800 333 10221 20118=
07607,1997-06-25 21:00:00,18,1009.5,-0,73,13,15000,14.816,,,220,,,,,,,,,,,wg-a,,,,AAXX 25214 07607 12665 72208 10180 20130 30026 40095 55000 60006 8557/ 92100=
07607,1997-06-26 00:00:00,16,1008.4,-1.1,94,15,10000,11.112,,,210,,,,0,,,,,,21,wg-a,,,,AAXX 26004 07607 02460 72106 10160 20150 30015 40084 58011 60006 72165 875// 90000 333 60007=
07607,1997-06-26 06:00:00,15,1006,-0.5,94,14,15000,14.816,,,210,15.1,19.4,,,,,,,,21,wg-a,,,,AAXX 26064 07607 02365 72108 10150 20140 39990 40060 58005 61000 72165 82532 90600 333 10194 20151 6000=
07607,1997-06-26 15:00:00,17,1003.6,-1,88,15,15000,18.52,,,230,,,,3,,,,,,25,wg-a,,,,AAXX 26154 07607 12365 72310 10170 20150 39967 40036 58010 60037 72586 878// 91500=
07607,1997-06-26 18:00:00,15,1004.2,0.5,88,13,10000,18.52,,46.3,280,15,18.8,,,,,,,,25,wg-a,,,,AAXX 26184 07607 02360 72810 10150 20130 39972 40042 53005 61000 72586 85230 91800 333 10188 20150 6001 91025=
07607,1997-06-26 21:00:00,14,1005,0.8,88,12,11000,18.52,,,260,,,,,,,,,,,wg-a,,,,AAXX 26214 07607 32/61 /2610 10140 20120 39980 40050 52008 92100=
07607,1997-06-27 00:00:00,12,1005.1,0.1,88,10,10000,7.408,,,200,,,,,,,,,,1,wg-a,,,,AAXX 27004 07607 12/60 02004 10120 20100 39981 40051 50001 60006 70186 80000 90000=
07607,1997-06-27 03:00:00,12,1004.2,-0.9,82,9,10000,11.112,,,200,,,,,,,,,,25,wg-a,,,,AAXX 27034 07607 02660 /2006 10120 20090 39972 40042 58009 61000 72586 81500 90300 333 ////=
07607,1997-06-27 06:00:00,12,1004.2,0,82,9,8000,14.816,,,220,10.8,15,,,,,6,,,3,wg-a,,,,AAXX 27064 07607 02558 /2208 10120 20090 39972 40042 50000 60006 70386 85830 90600 333 10150 20108 60064=
07607,1997-06-27 09:00:00,16,1004.1,0,68,10,15000,29.632,,,240,,,,,,,,,,,wg-a,,,,AAXX 27094 07607 12465 /2416 10160 20100 39972 40041 50000 60006 85830 90900=
07607,1997-06-27 15:00:00,18,1005.2,0.4,52,8,2000,31.484,,,270,,,,,,,,,,,wg-a,,,,AAXX 27154 07607 12520 /2717 10180 20080 39983 40052 53004 60006 85200 91500=
07607,1997-06-27 18:00:00,16,1006.2,1,68,10,15000,18.52,,,240,12.2,19.7,,,,,,,,25,wg-a,,,,AAXX 27184 07607 02565 42410 10160 20100 39993 40062 53010 61000 72586 83830 91800 333 10197 20122 6100=
07607,1997-06-27 21:00:00,14,1007.3,1,72,9,15000,3.704,,,170,,,,,,,,,,,wg-a,,,,AAXX 27214 07607 12/65 01702 10140 20090 30003 40073 53010 60006 80000 92100=
07607,1997-06-28 00:00:00,11,1007.5,0.1,87,9,15000,7.408,,,140,,,,,,,,,,,wg-a,,,,AAXX 28004 07607 12465 /1404 10110 20090 30004 40075 51001 60006 85100 90000=
07607,1997-06-28 03:00:00,11,1007.1,-0.4,87,9,10000,3.704,,,170,,,,,,,,,,,wg-a,,,,AAXX 28034 07607 12/60 /1702 10110 20090 30000 40071 57004 60006 90300=
07607,1997-06-28 06:00:00,12,1007.5,0.4,88,10,20000,3.704,,,150,9.6,16.2,,,,,,,,,wg-a,,,,AAXX 28064 07607 02670 61502 10120 20100 30004 40075 53004 60006 82532 90600 333 10162 20096 61000=
07607,1997-06-28 09:00:00,14,1007.7,0.3,77,10,25000,7.408,,,140,,,,,,,,,,,wg-a,,,,AAXX 28094 07607 12575 71404 10140 20100 30007 40077 51003 60006 82232 90900=
07607,1997-06-28 12:00:00,16,1006.9,-0.7,72,11,20000,3.704,,,50,,,,,,,,,,,wg-a,,,,AAXX 28124 07607 12470 70502 10160 20110 30000 40069 58007 60006 84872 91200=
07607,1997-06-28 15:00:00,17,1006,-0.9,59,9,15000,3.704,,,320,,,,,,,,,,60,wg-a,,,,AAXX 28154 07607 02465 73202 10170 20090 39991 40060 57009 61000 76062 8387/ 91500 333 ////=
07607,1997-06-28 18:00:00,14,1005.8,-0.3,94,13,10000,11.112,,,350,11.8,17.4,,,,,,,,63,wg-a,,,,AAXX 28184 07607 02460 83506 10140 20130 39988 40058 56003 61000 76362 8587/ 91800 333 10174 20118 6001=
07607,1997-06-28 21:00:00,13,1005.8,0,94,12,8000,7.408,,,320,,,,5,,,,,,63,wg-a,,,,AAXX 28214 07607 12458 83204 10130 20120 39988 40058 50000 60057 76366 878// 92100=
07607,1997-06-29 00:00:00,12,1005.1,-0.7,100,12,10000,14.816,,,280,,,,2,,,,,,63,wg-a,,,,AAXX 29004 07607 02360 82808 10120 20120 39981 40051 56007 60086 76366 875// 90000 333 60027=
07607,1997-06-29 03:00:00,12,1004.3,-0.8,94,11,10000,18.52,,,240,,,,0,,,,,,60,wg-a,,,,AAXX 29034 07607 12360 82410 10120 20110 39973 40043 56008 60007 76066 875// 90300=
07607,1997-06-29 06:00:00,12,1004.8,0.5,100,12,6000,11.112,,,230,11.6,14.1,,,,,9,,,2,wg-a,,,,AAXX 29064 07607 02456 82306 10120 20120 39978 40048 53005 60006 70262 885// 90600 333 10141 20116 60094=
07607,1997-06-29 12:00:00,14,1007,1.3,94,13,7000,22.224,,,230,,,,13,,,,,,63,wg-a,,,,AAXX 29124 07607 02457 82312 10140 20130 30000 40070 51013 60166 76362 885// 91200 333 60137=
07607,1997-06-29 15:00:00,15,1008.7,1.7,88,13,10000,18.52,,,260,,,,1,,,,,,61,wg-a,,,,AAXX 29154 07607 12460 82610 10150 20130 30017 40087 52017 60017 76162 8658/ 91500=
07607,1997-06-29 18:00:00,15,1009.9,1.2,88,13,15000,22.224,,,230,12.1,16.6,,,,,,,,25,wg-a,,,,AAXX 29184 07607 02465 72312 10150 20130 30029 40099 53012 61000 72586 8583/ 91800 333 10166 20121 6001=
07607,1997-06-29 21:00:00,13,1011.4,1.4,94,12,8000,7.408,,,200,,,,4,,,,,,61,wg-a,,,,AAXX 29214 07607 12458 72004 10130 20120 30043 40114 51014 60047 76186 8687/ 92100=
07607,1997-06-30 00:00:00,13,1011.2,-0.2,94,12,6000,14.816,,,200,,,,2,,,,,,61,wg-a,,,,AAXX 30004 07607 02556 72008 10130 20120 30041 40112 58002 60066 76186 878// 90000 333 60027=
07607,1997-06-30 03:00:00,12,1009.8,-1.4,94,11,10000,11.112,,,190,,,,0,,,,,,3,wg-a,,,,AAXX 30034 07607 12760 41906 10120 20110 30027 40098 57014 60007 70361 82532 90300=
07607,1997-06-30 06:00:00,13,1010.1,0.4,94,12,500,11.112,,,210,12,14.9,,,,,,,,61,wg-a,,,,AAXX 30064 07607 02200 72106 10130 20120 30031 40101 53004 61000 76161 8553/ 90600 333 10149 20120 6024=
07607,1997-06-30 12:00:00,16,1011.8,0.6,94,15,8000,22.224,,,230,,,,5,,,,,,25,wg-a,,,,AAXX 30124 07607 02258 72312 10160 20150 30048 40118 51006 60206 72586 878// 91200 333 60057=
07607,1997-06-30 15:00:00,17,1011.8,0.1,88,15,8000,14.816,,,220,,,,1,,,,,,25,wg-a,,,,AAXX 30154 07607 12258 72208 10170 20150 30049 40118 51001 60017 72586 873// 91500=
07607,1997-06-30 18:00:00,17,1012.9,1,88,15,10000,7.408,,,230,12.8,18.5,,,,,,,,25,wg-a,,,,AAXX 30184 07607 02360 52304 10170 20150 30059 40129 51010 61000 72586 84230 91800 333 10185 20128 6003=
07607,1997-07-01 00:00:00,14,1014.7,0.1,100,14,500,7.408,,,200,,,,1,,,,,,25,wg-a,,,,AAXX 01004 07607 02400 72004 10140 20140 30077 40147 50001 60036 72586 878// 90000 333 60017=
07607,1997-07-01 03:00:00,14,1014,-0.7,94,13,10000,7.408,,,200,,,,2,,,,,,21,wg-a,,,,AAXX 01034 07607 12460 72004 10140 20130 30070 40140 58007 60027 72122 8683/ 90300=
07607,1997-07-01 06:00:00,14,1013.9,-0.2,88,12,10000,7.408,,,200,12.7,17,,,,,28,,,,wg-a,,,,AAXX 01064 07607 02760 42004 10140 20120 30068 40139 57002 60006 82531 90600 333 10170 20127 60284=
07607,1997-07-01 09:00:00,18,1013.6,-0.1,73,13,15000,14.816,,,260,,,,,,,,,,,wg-a,,,,AAXX 01094 07607 12465 62608 10180 20130 30067 40136 58001 60006 84232 90900=
07607,1997-07-01 12:00:00,20,1012.9,-0.7,60,12,20000,7.408,,,230,,,,,,,,,,,wg-a,,,,AAXX 01124 07607 12570 72304 10200 20120 30060 40129 58007 60006 8597/ 91200=
07607,1997-07-01 15:00:00,21,1011.7,-1.2,60,13,25000,3.704,,,130,,,,,,,,,,,wg-a,,,,AAXX 01154 07607 12675 71302 10210 20130 30048 40117 56012 60006 8487/ 91500=
07607,1997-07-01 18:00:00,19,1010.5,-1.2,78,15,20000,7.408,,,10,13.7,20.8,,,,,,,,60,wg-a,,,,AAXX 01184 07607 02570 70104 10190 20150 30036 40105 56012 61000 76062 8487/ 91800 333 10208 20137 6100=
07607,1997-07-01 21:00:00,16,1011.1,0.5,94,15,6000,3.704,,,340,,,,,,,,,,,wg-a,,,,AAXX 01214 07607 32/56 /3402 10160 20150 30041 40111 53005 92100=
07607,1997-07-02 00:00:00,15,1009.9,-1.2,100,15,8000,0,,,0,,,,0,,,,,,21,wg-a,,,,AAXX 02004 07607 02658 /0000 10150 20150 30029 40099 58012 60046 72162 85500 90000 333 60007=
07607,1997-07-02 03:00:00,13,1009.2,-0.7,100,13,8000,3.704,,,330,,,,1,,,,,,60,wg-a,,,,AAXX 02034 07607 12258 73302 10130 20130 30022 40092 58007 60017 76062 87700 90300=
07607,1997-07-02 06:00:00,13,1009.2,-0,100,13,1600,11.112,,,280,12.9,19.4,,,,,,,,61,wg-a,,,,AAXX 02064 07607 02216 82806 10130 20130 30022 40092 55000 61000 76162 887// 90600 333 10194 20129 6008=
07607,1997-07-02 09:00:00,14,1011.2,2,94,13,7000,7.408,,,260,,,,10,,,,,,61,wg-a,,,,AAXX 02094 07607 12257 82604 10140 20130 30042 40112 53020 60107 76166 888// 90900=
07607,1997-07-02 12:00:00,14,1013,1.8,94,13,8000,7.408,,,240,,,,5,,,,,,61,wg-a,,,,AAXX 02124 07607 02158 72404 10140 20130 30060 40130 51018 60146 76166 878// 91200 333 60057=
07607,1997-07-02 15:00:00,15,1013.3,0.3,94,14,12000,7.408,,,200,,,,1,,,,,,60,wg-a,,,,AAXX 02154 07607 12262 82004 10150 20140 30063 40133 53003 60017 76062 8687/ 91500=
07607,1997-07-02 21:00:00,14,1016.7,2.1,94,13,10000,7.408,,,210,,,,0,,,,,,,wg-a,,,,AAXX 02214 07607 12860 72104 10140 20130 30096 40167 53021 60007 8707/ 92100=
07607,1997-07-03 00:00:00,13,1016.9,0.2,94,12,10000,3.704,,,180,,,,0,,,,,,2,wg-a,,,,AAXX 03004 07607 02760 81802 10130 20120 30098 40169 51002 60016 70262 8357/ 90000 333 60007=
07607,1997-07-03 03:00:00,12,1016.5,-0.4,100,12,10000,3.704,,,190,,,,,,,,,,,wg-a,,,,AAXX 03034 07607 12760 71902 10120 20120 30094 40165 56004 60006 8453/ 90300=
07607,1997-07-03 06:00:00,13,1017.2,0.7,88,11,10000,3.704,,,210,12.4,15,,,,,16,,,,wg-a,,,,AAXX 03064 07607 02460 72102 10130 20110 30101 40172 53007 60006 8683/ 90600 333 10150 20124 60164=
07607,1997-07-03 09:00:00,16,1018,0.9,77,12,20000,11.112,,,200,,,,,,,,,,,wg-a,,,,AAXX 03094 07607 12470 72006 10160 20120 30110 40180 50009 60006 878// 90900=
07607,1997-07-03 12:00:00,17,1018.1,0.1,68,11,20000,7.408,,,230,,,,,,,,,,,wg-a,,,,AAXX 03124 07607 12470 72304 10170 20110 30111 40181 50001 60006 879// 91200=
07607,1997-07-03 18:00:00,20,1017.7,-0.2,53,10,20000,11.112,,,240,12.9,20.4,,,,,,,,,wg-a,,,,AAXX 03184 07607 12670 52406 10200 20100 30108 40177 55002 60006 84830 91800 333 10204 20129=
07607,1997-07-03 21:00:00,15,1019,1.1,72,10,20000,3.704,,,320,,,,,,,,,,,wg-a,,,,AAXX 03214 07607 12770 33202 10150 20100 30119 40190 53011 60006 83500 92100=
07607,1997-07-04 03:00:00,11,1018.7,-0.3,94,10,10000,0,,,0,,,,,,,,,,,wg-a,,,,AAXX 04034 07607 12/60 /0000 10110 20100 30115 40187 58003 60006 90300=
07607,1997-07-04 06:00:00,13,1020,1.4,88,11,12000,0,,,0,10.1,20,,,,,,,,,wg-a,,,,AAXX 04064 07607 02662 70000 10130 20110 30129 40200 53014 60006 8653/ 90600 333 10200 20101 60004=
07607,1997-07-04 09:00:00,15,1021,1,88,13,15000,11.112,,,210,,,,,,,,,,21,wg-a,,,,AAXX 04094 07607 02565 72106 10150 20130 30139 40210 51010 61000 72162 8587/ 90900 333 ////=
07607,1997-07-04 15:00:00,17,1021.9,0.3,77,13,12000,22.224,,,260,,,,1,,,,,,80,wg-a,,,,AAXX 04154 07607 12462 72612 10170 20130 30149 40219 53003 60017 78086 878// 91500=
07607,1997-07-04 18:00:00,17,1022.5,0.6,77,13,10000,22.224,,,250,12.6,20,,,,,,,,25,wg-a,,,,AAXX 04184 07607 02560 72512 10170 20130 30155 40225 53006 61000 72586 878// 91800 333 10200 20126 6001=
07607,1997-07-05 00:00:00,14,1025.7,0.9,94,13,0,7.408,,,230,,,,,,,,,,,wg-a,,,,AAXX 05004 07607 32/// /2304 10140 20130 30186 40257 51009 90000=
07607,1997-07-05 03:00:00,13,1025.6,-0.1,100,13,11000,11.112,,,240,,,,,,,,,,,wg-a,,,,AAXX 05034 07607 32/61 /2406 10130 20130 30185 40256 57001 90300=
07607,1997-07-05 09:00:00,16,1027.8,1,82,13,8000,11.112,,,320,,,,,,,,,,,wg-a,,,,AAXX 05094 07607 12/58 /3206 10160 20130 30207 40278 51010 60006 90900=
07607,1997-07-05 12:00:00,17,1028.4,0.6,77,13,15000,11.112,,,280,,,,1,,,,,,1,wg-a,,,,AAXX 05124 07607 02565 72806 10170 20130 30213 40284 50006 60016 70186 878// 91200 333 60017=
07607,1997-07-05 15:00:00,17,1028.6,0.2,88,15,15000,7.408,,,10,,,,,,,,,,21,wg-a,,,,AAXX 05154 07607 02565 70104 10170 20150 30215 40286 53002 61000 72162 878// 91500 333 ////=
07607,1997-07-05 18:00:00,19,1028.7,0.2,64,12,500,14.816,,,290,12.9,19.6,,,,,,,,1,wg-a,,,,AAXX 05184 07607 12600 62908 10190 20120 30217 40287 53002 60006 70162 85802 91800 333 10196 20129=
07607,1997-07-05 21:00:00,14,1030.6,1.7,82,11,10000,7.408,,,250,,,,,,,,,,,wg-a,,,,AAXX 05214 07607 12/60 /2504 10140 20110 30234 40306 53017 60006 92100=
07607,1997-07-06 00:00:00,11,1031.2,0.6,94,10,12000,3.704,,,290,,,,,,,,,,,wg-a,,,,AAXX 06004 07607 12/62 02902 10110 20100 30240 40312 50006 60006 80000 90000=
07607,1997-07-06 03:00:00,9,1030.7,-0.6,93,8,8000,0,,,0,,,,,,,,,,,wg-a,,,,AAXX 06034 07607 12/58 00000 10090 20080 30234 40307 57006 60006 80000 90300=
07607,1997-07-06 06:00:00,9,1030.7,-0,93,8,2500,0,,,0,7.1,18.9,,,,,2,,,11,wg-a,,,,AAXX 06064 07607 02/25 00000 10090 20080 30234 40307 55000 60006 71100 80000 90600 333 10189 20071 60024=
07607,1997-07-06 09:00:00,17,1030.3,-0.2,77,13,15000,3.704,,,280,,,,,,,,,,,wg-a,,,,AAXX 06094 07607 12565 32802 10170 20130 30232 40303 57002 60006 83100 90900=
07607,1997-07-06 12:00:00,,1,-1.1,,8,40000,11.112,,,350,,,,,,,,,,,wg-a,,,,AAXX 06124 07607 12/82 /3506 1//// 20080 30225 58011 60006 80000 91200=
07607,1997-07-06 18:00:00,23,1026.6,-0.9,50,12,500,14.816,,,60,8.7,24.1,,,,,,,,,wg-a,,,,AAXX 06184 07607 12700 30608 10230 20120 30197 40266 56009 60006 83200 91800 333 10241 20087=
07607,1997-07-06 21:00:00,17,1027.5,0.7,77,13,20000,0,,,0,,,,,,,,,,,wg-a,,,,AAXX 06214 07607 12/70 20000 10170 20130 30204 40275 53007 60006 80002 92100=
07607,1997-07-07 00:00:00,13,1027.3,-0.3,94,12,12000,0,,,0,,,,,,,,,,,wg-a,,,,AAXX 07004 07607 12/62 10000 10130 20120 30201 40273 58003 60006 80002 90000=
07607,1997-07-07 03:00:00,11,1026.3,-1,94,10,8000,0,,,0,,,,,,,,,,,wg-a,,,,AAXX 07034 07607 12/58 /0000 10110 20100 30191 40263 56010 60006 80002 90300=
07607,1997-07-07 06:00:00,12,1026.3,-0,94,11,10000,3.704,,,80,9.6,22.7,,,,,,,,,wg-a,,,,AAXX 07064 07607 02/60 00802 10120 20110 30191 40263 54000 60006 80000 90600 333 10227 20096 60004=
07607,1997-07-07 12:00:00,26,1023.2,-1.7,42,12,20000,14.816,,,70,,,,,,,,,,,wg-a,,,,AAXX 07124 07607 12670 /0708 10260 20120 30164 40232 58017 60006 81100 91200=
07607,1997-07-07 15:00:00,27,1021.6,-1.6,42,13,20000,18.52,,,40,,,,,,,,,,,wg-a,,,,AAXX 07154 07607 12770 40410 10270 20130 30148 40216 57016 60006 84100 91500=
07607,1997-07-07 18:00:00,26,1020.5,-1.1,45,13,40000,14.816,,,40,11.8,26.9,,,,,,,,,wg-a,,,,AAXX 07184 07607 12782 10408 10260 20130 30137 40205 57011 60006 81500 91800 333 10269 20118=
07607,1997-07-07 21:00:00,19,1021,0.3,73,14,40000,3.704,,,40,,,,,,,,,,,wg-a,,,,AAXX 07214 07607 12/82 00402 10190 20140 30140 40210 53003 60006 80000 92100=
07607,1997-07-08 00:00:00,16,1020.3,-0.7,82,13,500,7.408,,,60,,,,,,,,,,,wg-a,,,,AAXX 08004 07607 12/00 00604 10160 20130 30133 40203 58007 60006 80000 90000=
07607,1997-07-08 06:00:00,15,1019.4,0.2,88,13,15000,3.704,,,60,12.7,25.6,,,,,,,,,wg-a,,,,AAXX 08064 07607 02/65 00602 10150 20130 30123 40194 53002 60006 80000 90600 333 10256 20127 60004=
07607,1997-07-08 09:00:00,23,1018.3,-0.9,50,12,500,14.816,,,30,,,,,,,,,,,wg-a,,,,AAXX 08094 07607 12/00 00308 10230 20120 30114 40183 58009 60006 80000 90900=
07607,1997-07-08 12:00:00,26,1016.6,-1.6,48,14,10000,3.704,,,30,,,,,,,,,,,wg-a,,,,AAXX 08124 07607 12/60 /0302 10260 20140 30098 40166 58016 60006 91200=
07607,1997-07-08 15:00:00,27,1015.2,-1.4,39,12,50000,11.112,,,120,,,,,,,,,,,wg-a,,,,AAXX 08154 07607 12/84 11206 10270 20120 30084 40152 58014 60006 81032 91500=
07607,1997-07-08 21:00:00,20,1014,-0,64,13,20000,7.408,,,60,,,,,,,,,,,wg-a,,,,AAXX 08214 07607 12/70 50604 10200 20130 30071 40140 55000 60006 80002 92100=
07607,1997-07-09 00:00:00,17,1013.7,-0.4,82,14,15000,0,,,0,,,,,,,,,,,wg-a,,,,AAXX 09004 07607 12/65 30000 10170 20140 30067 40137 56004 60006 80002 90000=
07607,1997-07-09 03:00:00,15,1013.2,-0.5,88,13,10000,0,,,0,,,,,,,,,,,wg-a,,,,AAXX 09034 07607 12/60 30000 10150 20130 30062 40132 56005 60006 80002 90300=
07607,1997-07-09 06:00:00,16,1013.4,0.2,88,14,10000,3.704,,,210,12.6,26.6,,,,,,,,,wg-a,,,,AAXX 09064 07607 02760 62102 10160 20140 30064 40134 53002 60006 82682 90600 333 10266 20126 60004=
07607,1997-07-09 12:00:00,22,1013,0.2,73,17,15000,11.112,,,240,,,,,,,,,,,wg-a,,,,AAXX 09124 07607 12665 72406 10220 20170 30062 40130 50002 60006 8688/ 91200=
07607,1997-07-09 18:00:00,22,1012.7,-0.5,73,17,20000,3.704,,,310,16,22.5,,,,,,,,3,wg-a,,,,AAXX 09184 07607 12670 73102 10220 20170 30059 40127 58005 60006 70386 8483/ 91800 333 10225 20160=
07607,1997-07-09 21:00:00,18,1013.7,0.9,88,16,20000,7.408,,,290,,,,,,,,,,,wg-a,,,,AAXX 09214 07607 12/70 72904 10180 20160 30068 40137 53009 60006 83032 92100=
07607,1997-07-10 00:00:00,16,1013.5,-0.3,100,16,20000,3.704,,,300,,,,,,,,,,,wg-a,,,,AAXX 10004 07607 12/70 03002 10160 20160 30065 40135 58003 60006 80000 90000=
07607,1997-07-10 03:00:00,17,1013.2,-0.3,94,16,500,3.704,,,190,,,,,,,,,,,wg-a,,,,AAXX 10034 07607 12/00 /1902 10170 20160 30062 40132 58003 60006 90300=
07607,1997-07-10 09:00:00,21,1013.5,0.3,73,16,10000,14.816,,,230,,,,,,,,,,,wg-a,,,,AAXX 10094 07607 12460 62308 10210 20160 30066 40135 50003 60006 86800 90900=
07607,1997-07-10 12:00:00,24,1013.4,-0,61,16,10000,14.816,,,230,,,,,,,,,,,wg-a,,,,AAXX 10124 07607 12560 62308 10240 20160 30066 40134 55000 60006 84530 91200=
07607,1997-07-10 15:00:00,23,1013.3,-0.1,69,17,15000,22.224,,,230,,,,,,,,,,,wg-a,,,,AAXX 10154 07607 12565 52312 10230 20170 30065 40133 57001 60006 83830 91500=
07607,1997-07-10 18:00:00,21,1014.5,1.1,73,16,15000,22.224,,,240,17.5,23.9,,,,,,,,,wg-a,,,,AAXX 10184 07607 12565 /2412 10210 20160 30076 40145 53011 60006 84202 91800 333 10239 20175=
07607,1997-07-10 21:00:00,19,1016.4,1.9,88,17,4000,11.112,,,210,,,,,,,,,,10,wg-a,,,,AAXX 10214 07607 12340 72106 10190 20170 30095 40164 51019 60006 71022 877// 92100=
07607,1997-07-11 00:00:00,18,1017.1,0.6,94,17,500,11.112,,,220,,,,0,,,,,,2,wg-a,,,,AAXX 11004 07607 02300 72206 10180 20170 30101 40171 51006 60006 70262 875// 90000 333 60007=
07607,1997-07-11 03:00:00,18,1017.1,-0,88,16,6000,14.816,,,230,,,,,,,,,,,wg-a,,,,AAXX 11034 07607 12/56 /2308 10180 20160 30101 40171 55000 60006 90300=
07607,1997-07-11 06:00:00,18,1018.2,1.1,88,16,500,7.408,,,230,17.4,20.6,,,,,,,,,wg-a,,,,AAXX 11064 07607 02200 82304 10180 20160 30112 40182 51011 60006 885// 90600 333 10206 20174 60004=
07607,1997-07-11 12:00:00,22,1019,0.2,60,14,500,14.816,,,260,,,,,,,,,,,wg-a,,,,AAXX 11124 07607 12600 52608 10220 20140 30121 40190 50002 60006 85500 91200=
07607,1997-07-11 15:00:00,23,1018.3,-0.7,57,14,50000,11.112,,,290,,,,,,,,,,,wg-a,,,,AAXX 11154 07607 12684 72906 10230 20140 30114 40183 58007 60006 878// 91500=
07607,1997-07-11 18:00:00,23,1017.6,-0.6,61,15,50000,11.112,,,240,17.5,23.8,,,,,,,,,wg-a,,,,AAXX 11184 07607 12684 32406 10230 20150 30108 40176 56006 60006 82802 91800 333 10238 20175=
07607,1997-07-11 21:00:00,18,1018.8,1,83,15,20000,3.704,,,270,,,,,,,,,,,wg-a,,,,AAXX 11214 07607 12/70 42702 10180 20150 30118 40188 53010 60006 80002 92100=
07607,1997-07-12 00:00:00,14,1018.5,-0.4,94,13,10000,0,,,0,,,,,,,,,,,wg-a,,,,AAXX 12004 07607 12/60 20000 10140 20130 30114 40185 58004 60006 80002 90000=
07607,1997-07-12 03:00:00,12,1018,-0.5,100,12,1600,0,,,0,,,,,,,,,,10,wg-a,,,,AAXX 12034 07607 12/16 20000 10120 20120 30109 40180 56005 60006 71000 80002 90300=
07607,1997-07-12 06:00:00,13,1018,0,100,13,6000,3.704,,,130,11.5,23.1,,,,,,,,,wg-a,,,,AAXX 12064 07607 02756 /1302 10130 20130 30109 40180 50000 60006 86500 90600 333 10231 20115 60004=
07607,1997-07-12 09:00:00,21,1017,-0.8,73,16,15000,11.112,,,120,,,,,,,,,,,wg-a,,,,AAXX 12094 07607 12465 21206 10210 20160 30101 40170 58008 60006 82200 90900=
07607,1997-07-12 15:00:00,27,1014.5,-1.2,51,16,50000,11.112,,,120,,,,,,,,,,,wg-a,,,,AAXX 12154 07607 12684 /1206 10270 20160 30078 40145 58012 60006 81101 91500=
07607,1997-07-12 18:00:00,27,1013.7,-0.8,51,16,50000,11.112,,,110,13.3,27.7,,,,,,,,,wg-a,,,,AAXX 12184 07607 12/84 11106 10270 20160 30070 40137 56008 60006 80001 91800 333 10277 20133=
07607,1997-07-12 21:00:00,22,1014.8,0.9,73,17,25000,7.408,,,50,,,,,,,,,,,wg-a,,,,AAXX 12214 07607 12/75 10504 10220 20170 30079 40148 53009 60006 81080 92100=
07607,1997-07-13 00:00:00,20,1014.7,-0.1,83,17,12000,7.408,,,10,,,,0,,,,,,25,wg-a,,,,AAXX 13004 07607 02462 70104 10200 20170 30078 40147 55001 60016 72511 8598/ 90000 333 60007=
07607,1997-07-13 03:00:00,18,1014.4,-0.3,94,17,500,11.112,,,40,,,,,,,,,,,wg-a,,,,AAXX 13034 07607 32/00 /0406 10180 20170 30075 40144 58003 90300=
07607,1997-07-13 06:00:00,18,1016.2,1.8,94,17,9000,11.112,,,30,17.8,27,,,,,8,,,29,wg-a,,,,AAXX 13064 07607 02459 70306 10180 20170 30093 40162 50018 60006 72998 8698/ 90600 333 10270 20178 60084=
07607,1997-07-13 12:00:00,23,1017.5,-0.1,69,17,10000,18.52,,33.336,290,,,,,,,,,,17,wg-a,,,,AAXX 13124 07607 12560 72910 10230 20170 30107 40175 55001 60006 71798 8598/ 91200 333 91018=
07607,1997-07-13 15:00:00,24,1016,-1.5,78,20,20000,18.52,,,20,,,,2,,,,,,1,wg-a,,,,AAXX 13154 07607 12670 20210 10240 20200 30092 40160 56015 60027 70198 81980 91500=
07607,1997-07-13 18:00:00,22,1016.6,0.5,83,19,11000,11.112,,,50,18.3,24.1,,,,,,,,,wg-a,,,,AAXX 13184 07607 12/61 /0506 10220 20190 30097 40166 53005 60006 91800 333 10241 20183=
07607,1997-07-13 21:00:00,20,1017.2,0.6,94,19,20000,7.408,,,120,,,,0,,,,,,80,wg-a,,,,AAXX 13214 07607 12570 71204 10200 20190 30103 40172 51006 60007 78086 8498/ 92100=
07607,1997-07-14 00:00:00,20,1019,-0,94,19,0,3.704,,,350,,,,,,,,,,,wg-a,,,,AAXX 14004 07607 32/// /3502 10200 20190 30121 40190 54000 90000=
07607,1997-07-14 06:00:00,19,1019.9,1.3,94,18,500,3.704,,,330,,,,,,,,,,1,wg-a,,,,AAXX 14064 07607 32600 53302 10190 20180 30129 40199 53013 70186 84532 90600=
07607,1997-07-14 18:00:00,24,1021.1,0.7,69,18,10000,18.52,,,290,18.6,26.8,,,,,,,,,wg-a,,,,AAXX 14184 07607 12660 62910 10240 20180 30143 40211 53007 60006 848/2 91800 333 10268 20186=
07607,1997-07-15 00:00:00,18,1024,0.3,88,16,10000,11.112,,,280,,,,,,,,,,,wg-a,,,,AAXX 15004 07607 12560 72806 10180 20160 30170 40240 53003 60006 87800 90000=
07607,1997-07-15 06:00:00,18,1023.5,-0,83,15,0,3.704,,,280,17.2,24.3,,,,,,,,,wg-a,,,,AAXX 15064 07607 32/// /2802 10180 20150 30165 40235 55000 90600 333 10243 20172=
07607,1997-07-15 09:00:00,21,1023.2,-0.2,73,16,10000,7.408,,,40,,,,,,,,,,,wg-a,,,,AAXX 15094 07607 12/60 /0404 10210 20160 30163 40232 58002 60006 90900=
07607,1997-07-15 12:00:00,25,1021.6,-1.5,61,17,500,11.112,,,70,,,,,,,,,,,wg-a,,,,AAXX 15124 07607 12700 70706 10250 20170 30148 40216 58015 60006 8353/ 91200=
07607,1997-07-15 15:00:00,27,1019.6,-2,58,18,500,11.112,,,120,,,,,,,,,,,wg-a,,,,AAXX 15154 07607 12600 71206 10270 20180 30128 40196 56020 60006 82132 91500=
07607,1997-07-15 18:00:00,26,1017.4,-2.2,65,19,40000,11.112,,,70,17.5,27.5,,,,,,,,,wg-a,,,,AAXX 15184 07607 12/82 70706 10260 20190 30106 40174 58022 60006 81032 91800 333 10275 20175=
07607,1997-07-15 21:00:00,22,1018.2,0.7,73,17,25000,11.112,,,10,,,,,,,,,,,wg-a,,,,AAXX 15214 07607 12/75 50106 10220 20170 30113 40182 53007 60006 81032 92100=
07607,1997-07-16 00:00:00,20,1017.7,-0.5,83,17,15000,3.704,,,220,,,,,,,,,,,wg-a,,,,AAXX 16004 07607 12765 42202 10200 20170 30108 40177 58005 60006 82532 90000=
07607,1997-07-16 06:00:00,18,1015.6,-0.4,88,16,11000,11.112,,,250,16.9,26.3,,,,,,,,,wg-a,,,,AAXX 16064 07607 02/61 /2506 10180 20160 30086 40156 55004 60006 90600 333 10263 20169 60004=
07607,1997-07-16 12:00:00,27,1013.1,-1.9,58,18,10000,7.408,,,360,,,,,,,,,,1,wg-a,,,,AAXX 16124 07607 02760 /3604 10270 20180 30064 40131 58019 61000 70186 82532 91200 333 ////=
07607,1997-07-16 15:00:00,23,1012.3,-0.9,83,20,10000,14.816,,,220,,,,,,,,,,29,wg-a,,,,AAXX 16154 07607 12660 72208 10230 20200 30055 40123 56009 60006 72992 8393/ 91500=
07607,1997-07-16 18:00:00,20,1012.9,0.5,94,19,3000,25.928,,,240,17.5,28.4,,,,,,,,17,wg-a,,,,AAXX 16184 07607 02330 72414 10200 20190 30060 40129 51005 61000 71798 879// 91800 333 10284 20175 6100=
07607,1997-07-17 00:00:00,17,1013.7,-0.6,100,17,10000,11.112,,,200,,,,3,,,,,,1,wg-a,,,,AAXX 17004 07607 02560 52006 10170 20170 30067 40137 56006 60166 70198 82530 90000 333 60037=
07607,1997-07-17 03:00:00,18,1011.8,-1.8,100,18,500,11.112,,,210,,,,,,,,,,17,wg-a,,,,AAXX 17034 07607 02300 82106 10180 20180 30049 40118 58018 61000 71795 889// 90300 333 ////=
07607,1997-07-17 06:00:00,18,1012.5,0.7,100,18,9000,14.816,,,270,17.2,19.9,,,,,,,,61,wg-a,,,,AAXX 17064 07607 02259 82708 10180 20180 30056 40125 53007 61000 76196 889// 90600 333 10199 20172 6025=
07607,1997-07-17 12:00:00,20,1015.9,1.5,83,17,20000,22.224,,,260,,,,,,,,,,1,wg-a,,,,AAXX 17124 07607 02470 82612 10200 20170 30090 40159 51015 61000 70162 889// 91200 333 ////=
07607,1997-07-17 15:00:00,20,1017.6,1.7,78,16,25000,29.632,,,280,,,,,,,,,,,wg-a,,,,AAXX 17154 07607 12575 82816 10200 20160 30107 40176 53017 60006 875// 91500=
07607,1997-07-17 18:00:00,19,1019.3,1.6,73,14,25000,29.632,,,270,18.1,21.4,,,,,,,,,wg-a,,,,AAXX 17184 07607 12575 72716 10190 20140 30123 40193 53016 60006 875// 91800 333 10214 20181=
07607,1997-07-17 21:00:00,17,1021.4,2.1,94,16,500,11.112,,,250,,,,0,,,,,,51,wg-a,,,,AAXX 17214 07607 12300 72506 10170 20160 30144 40214 53021 60007 75152 875// 92100=
07607,1997-07-18 00:00:00,17,1020.6,-0.8,94,16,8000,11.112,,,230,,,,1,,,,,,1,wg-a,,,,AAXX 18004 07607 02558 72306 10170 20160 30136 40206 58008 60016 70165 875// 90000 333 60017=
07607,1997-07-18 06:00:00,17,1020.4,0.5,94,16,4000,11.112,,,270,16.4,19.1,,,,,1,,,10,wg-a,,,,AAXX 18064 07607 02340 72706 10170 20160 30134 40204 53005 60006 71052 875// 90600 333 10191 20164 60014=
07607,1997-07-18 09:00:00,20,1020.2,-0.1,73,15,11000,18.52,,,260,,,,,,,,,,,wg-a,,,,AAXX 18094 07607 32/61 /2610 10200 20150 30133 40202 58001 90900=
07607,1997-07-18 12:00:00,22,1020.4,0.2,60,14,15000,18.52,,,260,,,,,,,,,,1,wg-a,,,,AAXX 18124 07607 02665 /2610 10220 20140 30135 40204 53002 61000 70152 85500 91200 333 ////=
07607,1997-07-18 15:00:00,22,1020.3,-0.1,57,13,11000,25.928,,,270,,,,,,,,,,,wg-a,,,,AAXX 18154 07607 12/61 /2714 10220 20130 30134 40203 57001 60006 91500=
07607,1997-07-18 18:00:00,20,1021.4,1,56,11,20000,22.224,,,280,16.4,23,,,,,,,,,wg-a,,,,AAXX 18184 07607 12770 42812 10200 20110 30144 40214 53010 60006 84500 91800 333 10230 20164=
07607,1997-07-18 21:00:00,17,1023.2,1.8,72,12,15000,11.112,,,240,,,,,,,,,,,wg-a,,,,AAXX 18214 07607 12765 62406 10170 20120 30162 40232 53018 60006 86500 92100=
07607,1997-07-19 00:00:00,14,1023.7,0.4,82,11,12000,7.408,,,240,,,,,,,,,,,wg-a,,,,AAXX 19004 07607 12762 62404 10140 20110 30166 40237 50004 60006 86500 90000=
07607,1997-07-19 06:00:00,15,1024.5,1.3,88,13,8000,3.704,,,180,13,19.5,,,,,,,,,wg-a,,,,AAXX 19064 07607 02758 71802 10150 20130 30174 40245 53013 60006 875// 90600 333 10195 20130 61000=
07607,1997-07-19 09:00:00,20,1025,0.6,64,13,15000,11.112,,,240,,,,,,,,,,,wg-a,,,,AAXX 19094 07607 12465 52406 10200 20130 30180 40250 50006 60006 8423/ 90900=
07607,1997-07-19 12:00:00,22,1024.4,-0.5,57,13,20000,11.112,,,290,,,,,,,,,,,wg-a,,,,AAXX 19124 07607 12570 /2906 10220 20130 30175 40244 58005 60006 85200 91200=
07607,1997-07-19 15:00:00,23,1023.6,-0.8,53,13,500,7.408,,,230,,,,,,,,,,,wg-a,,,,AAXX 19154 07607 12600 72304 10230 20130 30167 40236 56008 60006 872// 91500=
07607,1997-07-19 21:00:00,18,1024.3,0.6,77,14,20000,7.408,,,320,,,,,,,,,,,wg-a,,,,AAXX 19214 07607 12770 33204 10180 20140 30173 40243 53006 60006 83500 92100=
07607,1997-07-20 00:00:00,15,1024,-0.4,88,13,10000,0,,,0,,,,,,,,,,,wg-a,,,,AAXX 20004 07607 12/60 /0000 10150 20130 30169 40240 58004 60006 90000=
07607,1997-07-20 03:00:00,13,1022.9,-1.1,94,12,15000,0,,,0,,,,,,,,,,,wg-a,,,,AAXX 20034 07607 12/65 50000 10130 20120 30158 40229 56011 60006 80002 90300=
07607,1997-07-20 06:00:00,13,1022.9,-0,94,12,10000,0,,,0,11.9,21.2,,,,,,,,,wg-a,,,,AAXX 20064 07607 02/60 30000 10130 20120 30158 40229 55000 60006 80002 90600 333 10212 20119 60004=
07607,1997-07-20 09:00:00,22,1022.4,-0.3,69,16,500,7.408,,,110,,,,,,,,,,,wg-a,,,,AAXX 20094 07607 12/00 11104 10220 20160 30155 40224 58003 60006 80002 90900=
07607,1997-07-20 12:00:00,25,1020.9,-1.4,50,14,500,11.112,,,30,,,,,,,,,,,wg-a,,,,AAXX 20124 07607 12600 /0306 10250 20140 30141 40209 58014 60006 85202 91200=
07607,1997-07-20 15:00:00,6,1019.9,-1.5,42,-6,500,7.408,,,140,,,,,,,,,,,wg-a,,,,AAXX 20154 07607 12600 51404 10060 21060 30126 40199 56015 60006 85800 91500=
07607,1997-07-20 18:00:00,6,1018.8,-1.1,45,-5,500,7.408,,,110,13,25.9,,,,,,,,,wg-a,,,,AAXX 20184 07607 12700 41104 10060 21050 30115 40188 56011 60006 824/2 91800 333 10259 21080=
07607,1997-07-21 00:00:00,-2,1019,-0.4,86,-4,0,3.704,,,50,,,,,,,,,,,wg-a,,,,AAXX 21004 07607 12/// /0502 11020 21040 30115 40190 58004 60006 90000=
07607,1997-07-21 06:00:00,,1,0,,,10000,0,,,0,,,,,,,,,,,wg-a,,,,AAXX 21064 07607 02/60 40000 1//// 2//// 30107 50000 60006 83032 90600 333 60004=
07607,1997-07-21 12:00:00,27,1016.2,-1.2,42,13,500,7.408,,,90,,,,,,,,,,,wg-a,,,,AAXX 21124 07607 12/00 20904 10270 20130 30094 40162 58012 60006 80002 91200=
07607,1997-07-21 15:00:00,27,1014.8,-1.3,45,14,40000,7.408,,,120,,,,,,,,,,,wg-a,,,,AAXX 21154 07607 12782 51204 10270 20140 30081 40148 57013 60006 81102 91500=
07607,1997-07-21 18:00:00,26,1014.3,-0.6,48,14,20000,11.112,,,130,,,,,,,,,,,wg-a,,,,AAXX 21184 07607 12770 41306 10260 20140 30075 40143 55006 60006 82502 91800=
07607,1997-07-21 21:00:00,,1,0.5,,,20000,7.408,,,40,,,,,,,,,,,wg-a,,,,AAXX 21214 07607 12/70 10404 1//// 2//// 30080 53005 60006 80002 92100=
07607,1997-07-22 00:00:00,,1,-0.2,,,10000,3.704,,,100,,,,,,,,,,,wg-a,,,,AAXX 22004 07607 12660 71002 1//// 2//// 30078 58002 60006 8493/ 90000=
07607,1997-07-22 03:00:00,18,1014.5,-0.3,77,14,15000,0,,,0,,,,,,,,,,13,wg-a,,,,AAXX 22034 07607 12/65 50000 10180 20140 30075 40145 55003 60006 71311 84032 90300=
07607,1997-07-22 09:00:00,24,1014.2,-0.1,57,15,20000,7.408,,,120,,,,,,,,,,,wg-a,,,,AAXX 22094 07607 12670 71204 10240 20150 30074 40142 57001 60006 82582 90900=
07607,1997-07-22 12:00:00,26,1014.5,0.4,58,17,500,3.704,,,150,,,,,,,,,,,wg-a,,,,AAXX 22124 07607 12600 71502 10260 20170 30078 40145 53004 60006 82982 91200=
07607,1997-07-22 18:00:00,25,1014.1,-0.2,65,18,11000,11.112,,,120,,,,,,,,,,,wg-a,,,,AAXX 22184 07607 12/61 /1206 10250 20180 30073 40141 55002 60006 91800=
07607,1997-07-22 21:00:00,21,1015.5,1.3,88,19,20000,0,,,0,,,,,,,,,,,wg-a,,,,AAXX 22214 07607 12670 70000 10210 20190 30086 40155 53013 60006 81582 92100=
07607,1997-07-23 00:00:00,20,1015.6,0.1,94,19,20000,3.704,,,60,,,,,,,,,,,wg-a,,,,AAXX 23004 07607 12/70 80602 10200 20190 30087 40156 50001 60006 83082 90000=
07607,1997-07-23 03:00:00,19,1015.6,0,94,18,15000,3.704,,,40,,,,,,,,,,,wg-a,,,,AAXX 23034 07607 12/65 70402 10190 20180 30087 40156 50000 60006 83082 90300=
07607,1997-07-23 06:00:00,18,1016.1,0.5,100,18,500,0,,,0,17.5,25.1,,,,,,,,,wg-a,,,,AAXX 23064 07607 02/00 50000 10180 20180 30092 40161 52005 60006 82082 90600 333 10251 20175 61000=
07607,1997-07-23 09:00:00,23,1017.6,1.6,83,20,6000,11.112,,,210,,,,,,,,,,,wg-a,,,,AAXX 23094 07607 12656 72106 10230 20200 30108 40176 51016 60006 85132 90900=
07607,1997-07-23 12:00:00,27,1017.3,-0.2,66,20,20000,7.408,,,330,,,,,,,,,,,wg-a,,,,AAXX 23124 07607 12670 73304 10270 20200 30106 40173 58002 60006 84202 91200=
07607,1997-07-23 18:00:00,24,1016.5,-0,69,18,500,22.224,,,280,18.2,28.6,,,,,,,,,wg-a,,,,AAXX 23184 07607 12600 72812 10240 20180 30097 40165 55000 60006 83202 91800 333 10286 20182=
07607,1997-07-24 00:00:00,19,1019.3,1.1,94,18,10000,11.112,,,200,,,,,,,,,,13,wg-a,,,,AAXX 24004 07607 12660 72006 10190 20180 30124 40193 53011 60006 71322 879// 90000=
07607,1997-07-24 03:00:00,18,1018.1,-1.3,94,17,11000,3.704,,,190,,,,,,,,,,,wg-a,,,,AAXX 24034 07607 32/61 /1902 10180 20170 30111 40181 56013 90300=
07607,1997-07-24 06:00:00,19,1018.9,0.9,100,19,3000,11.112,,,220,17.6,23.7,,,,,6,,,10,wg-a,,,,AAXX 24064 07607 02330 82206 10190 20190 30120 40189 53009 60006 71098 885// 90600 333 10237 20176 60064=
07607,1997-07-24 09:00:00,20,1020.2,1.3,94,19,500,14.816,,,240,,,,,,,,,,,wg-a,,,,AAXX 24094 07607 12300 82408 10200 20190 30133 40202 51013 60006 885// 90900=
07607,1997-07-24 12:00:00,24,1020.6,0.5,74,19,11000,11.112,,,220,,,,,,,,,,,wg-a,,,,AAXX 24124 07607 12/61 /2206 10240 20190 30138 40206 50005 60006 91200=
07607,1997-07-24 15:00:00,26,1020.4,-0.2,51,15,20000,25.928,,,270,,,,,,,,,,,wg-a,,,,AAXX 24154 07607 12670 /2714 10260 20150 30136 40204 55002 60006 83502 91500=
07607,1997-07-24 18:00:00,24,1021.1,0.6,50,13,20000,22.224,,,250,18.9,26.9,,,,,,,,,wg-a,,,,AAXX 24184 07607 12/70 32512 10240 20130 30142 40211 53006 60006 81032 91800 333 10269 20189=
07607,1997-07-25 00:00:00,18,1022.9,0.3,94,17,20000,11.112,,,220,,,,,,,,,,,wg-a,,,,AAXX 25004 07607 12/70 72206 10180 20170 30159 40229 50003 60006 82032 90000=
07607,1997-07-25 03:00:00,18,1022.1,-0.8,94,17,500,11.112,,,210,,,,,,,,,,,wg-a,,,,AAXX 25034 07607 32/00 /2106 10180 20170 30151 40221 56008 90300=
07607,1997-07-25 06:00:00,17,1022.8,0.7,100,17,10000,11.112,,,220,17.3,23.5,,,,,,,,1,wg-a,,,,AAXX 25064 07607 02360 72206 10170 20170 30158 40228 53007 60006 70165 877// 90600 333 10235 20173 60004=
07607,1997-07-25 09:00:00,21,1023.7,1,78,17,20000,18.52,,,240,,,,,,,,,,,wg-a,,,,AAXX 25094 07607 12370 72410 10210 20170 30168 40237 53010 60006 878// 90900=
07607,1997-07-25 12:00:00,23,1023.4,-0.3,65,16,25000,18.52,,,230,,,,,,,,,,1,wg-a,,,,AAXX 25124 07607 02575 72310 10230 20160 30165 40234 58003 61000 70186 878// 91200 333 6100=
07607,1997-07-25 15:00:00,22,1023,-0.4,69,16,500,25.928,,,250,,,,,,,,,,,wg-a,,,,AAXX 25154 07607 12500 72514 10220 20160 30161 40230 58004 60006 878// 91500=
07607,1997-07-25 18:00:00,21,1022.7,-0.3,73,16,40000,18.52,,,280,17.4,22.9,,,,,,,,,wg-a,,,,AAXX 25184 07607 12582 72810 10210 20160 30158 40227 55003 60006 875// 91800 333 10229 20174=
07607,1997-07-25 21:00:00,19,1024.2,1.4,88,17,20000,7.408,,,220,,,,,,,,,,,wg-a,,,,AAXX 25214 07607 12570 72204 10190 20170 30172 40242 53014 60006 875// 92100=
07607,1997-07-26 00:00:00,18,1024.4,0.2,100,18,500,11.112,,,210,,,,,,,,,,50,wg-a,,,,AAXX 26004 07607 02300 72106 10180 20180 30174 40244 50002 61000 75052 877// 90000 333 6100=
07607,1997-07-26 06:00:00,19,1023.9,0.4,94,18,2000,7.408,,,290,18.1,21.3,,,,,,,,51,wg-a,,,,AAXX 26064 07607 02320 72904 10190 20180 30169 40239 53004 61000 75152 877// 90600 333 10213 20181 6002=
07607,1997-07-26 09:00:00,20,1024.4,0.6,94,19,1000,11.112,,,230,,,,0,,,,,,3,wg-a,,,,AAXX 26094 07607 12310 72306 10200 20190 30175 40244 51006 60007 70352 878// 90900=
07607,1997-07-26 12:00:00,21,1024.1,-0.3,88,19,10000,7.408,,,270,,,,0,,,,,,1,wg-a,,,,AAXX 26124 07607 02360 72704 10210 20190 30172 40241 58003 60016 70152 878// 91200 333 60007=
07607,1997-07-26 15:00:00,24,1022.7,-1.4,69,18,11000,7.408,,,290,,,,,,,,,,,wg-a,,,,AAXX 26154 07607 12/61 /2904 10240 20180 30158 40227 58014 60006 91500=
07607,1997-07-26 18:00:00,24,1022.1,-0.5,74,19,35000,7.408,,,290,18.4,24.1,,,,,,,,,wg-a,,,,AAXX 26184 07607 12581 /2904 10240 20190 30153 40221 56005 60006 86800 91800 333 10241 20184=
07607,1997-07-26 21:00:00,20,1023,0.7,88,18,25000,7.408,,,340,,,,,,,,,,,wg-a,,,,AAXX 26214 07607 12875 33404 10200 20180 30160 40230 53007 60006 81032 92100=
07607,1997-07-27 00:00:00,18,1022.8,-0.2,100,18,20000,0,,,0,,,,,,,,,,,wg-a,,,,AAXX 27004 07607 12770 70000 10180 20180 30158 40228 58002 60006 875// 90000=
07607,1997-07-27 03:00:00,18,1022.3,-0.5,100,18,12000,0,,,0,,,,,,,,,,,wg-a,,,,AAXX 27034 07607 12762 70000 10180 20180 30153 40223 58005 60006 875// 90300=
07607,1997-07-27 09:00:00,22,1022.7,0.1,78,18,11000,0,,,0,,,,,,,,,,,wg-a,,,,AAXX 27094 07607 12/61 /0000 10220 20180 30158 40227 51001 60006 90900=
07607,1997-07-27 12:00:00,26,1022.1,-0.5,54,16,25000,3.704,,,120,,,,,,,,,,,wg-a,,,,AAXX 27124 07607 12675 71202 10260 20160 30153 40221 58005 60006 877// 91200=
07607,1997-07-27 15:00:00,27,1021.6,-0.5,58,18,25000,3.704,,,350,,,,,,,,,,,wg-a,,,,AAXX 27154 07607 12775 73502 10270 20180 30148 40216 58005 60006 867// 91500=
07607,1997-07-27 18:00:00,25,1021.2,-0.4,65,18,500,7.408,,,60,18.4,27.5,,,,,,,,,wg-a,,,,AAXX 27184 07607 12700 70604 10250 20180 30144 40212 55004 60006 875// 91800 333 10275 20184=
07607,1997-07-27 21:00:00,23,1022.1,0.8,78,19,20000,3.704,,,80,,,,,,,,,,,wg-a,,,,AAXX 27214 07607 12770 70802 10230 20190 30152 40221 53008 60006 875// 92100=
07607,1997-07-28 00:00:00,19,1022.1,-0.1,94,18,20000,3.704,,,360,,,,,,,,,,,wg-a,,,,AAXX 28004 07607 12770 23602 10190 20180 30151 40221 58001 60006 82500 90000=
07607,1997-07-28 03:00:00,18,1021.4,-0.7,94,17,15000,3.704,,,50,,,,,,,,,,,wg-a,,,,AAXX 28034 07607 12/65 10502 10180 20170 30144 40214 56007 60006 8103/ 90300=
07607,1997-07-28 09:00:00,25,1021.5,0,69,19,500,3.704,,,90,,,,,,,,,,,wg-a,,,,AAXX 28094 07607 12600 50902 10250 20190 30147 40215 50000 60006 81132 90900=
07607,1997-07-28 12:00:00,28,1020.6,-0.9,55,18,40000,3.704,,,360,,,,,,,,,,,wg-a,,,,AAXX 28124 07607 12682 53602 10280 20180 30138 40206 56009 60006 84502 91200=
07607,1997-07-28 18:00:00,29,1018.5,-0.4,55,19,40000,11.112,,,210,17.4,30.2,,,,,,,,,wg-a,,,,AAXX 28184 07607 12682 42106 10290 20190 30118 40185 57004 60006 83501 91800 333 10302 20174=
07607,1997-07-28 21:00:00,23,1020.3,1.6,83,20,20000,11.112,,,280,,,,,,,,,,,wg-a,,,,AAXX 28214 07607 12770 12806 10230 20200 30134 40203 53016 60006 81500 92100=
07607,1997-07-29 00:00:00,19,1020.9,0.5,94,18,10000,7.408,,,250,,,,,,,,,,,wg-a,,,,AAXX 29004 07607 12/60 02504 10190 20180 30139 40209 50005 60006 80000 90000=
07607,1997-07-29 06:00:00,18,1020.8,0.2,94,17,15000,3.704,,,220,17.1,28.8,,,,,,,,,wg-a,,,,AAXX 29064 07607 02/65 12202 10180 20170 30138 40208 53002 60006 80002 90600 333 10288 20171 60004=
07607,1997-07-29 09:00:00,23,1021.2,0.5,73,18,500,3.704,,,240,,,,,,,,,,,wg-a,,,,AAXX 29094 07607 12/00 12402 10230 20180 30143 40212 50005 60006 80001 90900=
07607,1997-07-29 12:00:00,28,1020.3,-0.7,58,19,50000,7.408,,,60,,,,,,,,,,,wg-a,,,,AAXX 29124 07607 12584 20604 10280 20190 30136 40203 58007 60006 81101 91200=
07607,1997-07-29 18:00:00,29,1018.5,-0.3,58,20,40000,11.112,,,190,17.7,31.5,,,,,,,,,wg-a,,,,AAXX 29184 07607 12782 41906 10290 20200 30118 40185 56003 60006 83501 91800 333 10315 20177=
07607,1997-07-29 21:00:00,23,1020.1,1.4,78,19,20000,7.408,,,290,,,,,,,,,,,wg-a,,,,AAXX 29214 07607 12/70 12904 10230 20190 30132 40201 53014 60006 80001 92100=
07607,1997-07-30 00:00:00,20,1020.7,0.6,88,18,10000,14.816,,,250,,,,,,,,,,,wg-a,,,,AAXX 30004 07607 12/60 02508 10200 20180 30138 40207 51006 60006 80000 90000=
07607,1997-07-30 03:00:00,20,1020.8,0.1,94,19,8000,11.112,,,240,,,,,,,,,,,wg-a,,,,AAXX 30034 07607 12258 72406 10200 20190 30139 40208 53001 60006 85530 90300=
07607,1997-07-30 06:00:00,20,1021.2,0.4,94,19,10000,7.408,,,270,19.1,29,,,,,,,,,wg-a,,,,AAXX 30064 07607 02260 82704 10200 20190 30143 40212 53004 60006 885// 90600 333 10290 20191 60004=
07607,1997-07-30 09:00:00,23,1021.8,0.6,73,18,20000,3.704,,,270,,,,,,,,,,,wg-a,,,,AAXX 30094 07607 12370 72702 10230 20180 30149 40218 51006 60006 878// 90900=
07607,1997-07-30 12:00:00,26,1021.3,-0.4,70,20,35000,3.704,,,360,,,,,,,,,,,wg-a,,,,AAXX 30124 07607 12581 83602 10260 20200 30145 40213 58004 60006 878// 91200=
07607,1997-07-30 15:00:00,27,1020.4,-0.9,62,19,40000,11.112,,,250,,,,,,,,,,,wg-a,,,,AAXX 30154 07607 12582 72506 10270 20190 30136 40204 58009 60006 87801 91500=
07607,1997-07-30 21:00:00,20,1021.9,1.8,78,16,40000,7.408,,,270,,,,,,,,,,,wg-a,,,,AAXX 30214 07607 12/82 12704 10200 20160 30150 40219 53018 60006 80001 92100=
07607,1997-07-31 00:00:00,18,1022.5,0.5,94,17,40000,7.408,,,230,,,,,,,,,,,wg-a,,,,AAXX 31004 07607 12882 12304 10180 20170 30155 40225 50005 60006 81501 90000=
07607,1997-07-31 03:00:00,18,1022.2,-0.3,94,17,75000,7.408,,,210,,,,,,,,,,,wg-a,,,,AAXX 31034 07607 12389 72104 10180 20170 30152 40222 56003 60006 877// 90300=
07607,1997-07-31 06:00:00,18,1022.5,0.3,94,17,11000,3.704,,,320,17.6,27.2,,,,,,,,,wg-a,,,,AAXX 31064 07607 02/61 /3202 10180 20170 30155 40225 52003 60006 90600 333 10272 20176 60004=
07607,1997-07-31 09:00:00,23,1022.3,-0.1,69,17,20000,3.704,,,360,,,,,,,,,,,wg-a,,,,AAXX 31094 07607 12670 53602 10230 20170 30154 40223 58001 60006 83502 90900=
07607,1997-07-31 12:00:00,26,1021.3,-0.9,58,17,500,7.408,,,230,,,,,,,,,,,wg-a,,,,AAXX 31124 07607 12600 52304 10260 20170 30145 40213 57009 60006 84102 91200=
07607,1997-07-31 15:00:00,28,1020.1,-1.2,51,17,500,14.816,,,260,,,,,,,,,,,wg-a,,,,AAXX 31154 07607 12600 /2608 10280 20170 30133 40201 56012 60006 84102 91500=
07607,1997-07-31 21:00:00,19,1021,1.2,78,15,20000,7.408,,,270,,,,,,,,,,,wg-a,,,,AAXX 31214 07607 12/70 22704 10190 20150 30140 40210 51012 60006 80002 92100=
07607,1997-08-01 00:00:00,16,1020.5,-0.5,94,15,20000,11.112,,,260,,,,,,,,,,,wg-a,,,,AAXX 01004 07607 12/70 02606 10160 20150 30135 40205 58005 60006 80000 90000=
07607,1997-08-01 03:00:00,15,1020.2,-0.4,94,14,10000,7.408,,,290,,,,,,,,,,,wg-a,,,,AAXX 01034 07607 12/60 22904 10150 20140 30131 40202 58004 60006 81032 90300=
07607,1997-08-01 06:00:00,14,1020.3,0.1,94,13,20000,7.408,,,290,13.5,25.1,,,,,,,,,wg-a,,,,AAXX 01064 07607 02/70 32904 10140 20130 30132 40203 53001 60006 82032 90600 333 10251 20135 60004=
07607,1997-08-01 12:00:00,25,1019,-0.8,47,13,500,14.816,,,270,,,,,,,,,,,wg-a,,,,AAXX 01124 07607 12600 22708 10250 20130 30122 40190 58008 60006 81102 91200=
07607,1997-08-01 15:00:00,26,1017.9,-1.1,39,11,11000,14.816,,,230,,,,,,,,,,,wg-a,,,,AAXX 01154 07607 12/61 /2308 10260 20110 30111 40179 58011 60006 91500=
07607,1997-08-01 18:00:00,25,1017.4,-0.5,54,15,25000,14.816,,,300,13.9,26.6,,,,,,,,,wg-a,,,,AAXX 01184 07607 12/75 23008 10250 20150 30106 40174 55005 60006 80002 91800 333 10266 20139=
07607,1997-08-01 21:00:00,18,1019.3,1.7,83,15,20000,11.112,,,270,,,,,,,,,,,wg-a,,,,AAXX 01214 07607 12/70 22706 10180 20150 30123 40193 53017 60006 80001 92100=
07607,1997-08-02 00:00:00,15,1019.2,-0.1,94,14,15000,3.704,,,320,,,,,,,,,,,wg-a,,,,AAXX 02004 07607 12/65 03202 10150 20140 30122 40192 58001 60006 80000 90000=
07607,1997-08-02 09:00:00,21,1018.4,-0.2,69,15,500,0,,,0,,,,,,,,,,,wg-a,,,,AAXX 02094 07607 12/00 00000 10210 20150 30115 40184 58002 60006 80000 90900=
07607,1997-08-02 12:00:00,26,1016.9,-1.4,54,16,500,7.408,,,120,,,,,,,,,,,wg-a,,,,AAXX 02124 07607 12/00 11204 10260 20160 30101 40169 58014 60006 80001 91200=
07607,1997-08-02 18:00:00,29,1015,-1,45,16,500,11.112,,,170,,,,,,,,,,,wg-a,,,,AAXX 02184 07607 12/00 21706 10290 20160 30083 40150 56010 60006 80001 91800=
07607,1997-08-02 21:00:00,22,1016.4,1,78,18,500,7.408,,,270,,,,,,,,,,,wg-a,,,,AAXX 02214 07607 12/00 22704 10220 20180 30095 40164 53010 60006 80001 92100=
07607,1997-08-03 00:00:00,19,1016.5,0.1,88,17,500,7.408,,,210,,,,,,,,,,,wg-a,,,,AAXX 03004 07607 12/00 02104 10190 20170 30096 40165 50001 60006 80000 90000=
07607,1997-08-03 03:00:00,17,1016.2,-0.4,94,16,12000,3.704,,,220,,,,,,,,,,,wg-a,,,,AAXX 03034 07607 12/62 02202 10170 20160 30092 40162 56004 60006 80000 90300=
07607,1997-08-03 06:00:00,17,1016.3,0.1,100,17,700,3.704,,,210,16.6,28.3,,,,,,,,45,wg-a,,,,AAXX 03064 07607 02/07 92102 10170 20170 30093 40163 53001 60006 74541 89/// 90600 333 10283 20166 60004=
07607,1997-08-03 09:00:00,21,1016,-0.2,88,19,10000,7.408,,,140,,,,,,,,,,2,wg-a,,,,AAXX 03094 07607 12360 71404 10210 20190 30091 40160 58002 60006 70242 86601 90900=
07607,1997-08-03 12:00:00,29,1014.7,-1.1,52,18,25000,7.408,,,90,,,,,,,,,,2,wg-a,,,,AAXX 03124 07607 12/75 20904 10290 20180 30080 40147 56011 60006 70241 80001 91200=
07607,1997-08-03 18:00:00,32,1012.2,-0.7,43,18,25000,0,,,0,16.8,32.2,,,,,,,,,wg-a,,,,AAXX 03184 07607 12/75 00000 10320 20180 30056 40122 56007 60006 80000 91800 333 10322 20168=
07607,1997-08-04 00:00:00,22,1014.9,0.5,94,21,7000,7.408,,,230,,,,,,,,,,,wg-a,,,,AAXX 04004 07607 12357 72304 10220 20210 30081 40149 50005 60006 876// 90000=
07607,1997-08-04 03:00:00,21,1013.9,-1.1,94,20,7000,11.112,,,260,,,,,,,,,,,wg-a,,,,AAXX 04034 07607 12457 72606 10210 20200 30070 40139 58011 60006 879// 90300=
07607,1997-08-04 09:00:00,22,1015.7,-0.3,88,20,12000,7.408,,,250,,,,,,,,,,,wg-a,,,,AAXX 04094 07607 12462 72504 10220 20200 30089 40157 55003 60006 875// 90900=
07607,1997-08-04 12:00:00,23,1015.9,0.2,83,20,11000,3.704,,,120,,,,,,,,,,,wg-a,,,,AAXX 04124 07607 12/61 /1202 10230 20200 30091 40159 50002 60006 91200=
07607,1997-08-04 15:00:00,27,1014.1,-1.7,70,21,25000,3.704,,,20,,,,,,,,,,,wg-a,,,,AAXX 04154 07607 12575 70202 10270 20210 30074 40141 56017 60006 85482 91500=
07607,1997-08-04 21:00:00,21,1017,2.4,88,19,15000,18.52,,,290,,,,1,,,,,,29,wg-a,,,,AAXX 04214 07607 12565 72910 10210 20190 30101 40170 53024 60017 72998 8589/ 92100=
07607,1997-08-05 00:00:00,20,1017,-0,94,19,10000,11.112,,,300,,,,,,,,,,3,wg-a,,,,AAXX 05004 07607 12460 83006 10200 20190 30101 40170 55000 60016 70398 889// 90000=
07607,1997-08-05 03:00:00,20,1016.3,-0.7,94,19,8000,7.408,,,270,,,,0,,,,,,17,wg-a,,,,AAXX 05034 07607 12458 82704 10200 20190 30094 40163 55007 60007 71798 889// 90300=
07607,1997-08-05 06:00:00,19,1015.3,-1,100,19,1500,7.408,,,300,19.3,26.7,,,,,1,,,10,wg-a,,,,AAXX 05064 07607 02415 83004 10190 20190 30084 40153 56010 60006 71098 888// 90600 333 10267 20193 60014=
07607,1997-08-05 09:00:00,21,1015.6,0.3,94,20,500,3.704,,,340,,,,0,,,,,,21,wg-a,,,,AAXX 05094 07607 12400 83402 10210 20200 30087 40156 50003 60007 72162 888// 90900=
07607,1997-08-05 12:00:00,21,1015.7,0.1,94,20,8000,11.112,,,50,,,,,,,,,,3,wg-a,,,,AAXX 05124 07607 12358 80506 10210 20200 30088 40157 50001 60006 70362 888// 91200=
07607,1997-08-05 15:00:00,23,1014.6,-1,83,20,15000,3.704,,,350,,,,,,,,,,,wg-a,,,,AAXX 05154 07607 12365 83502 10230 20200 30078 40146 57010 60006 888// 91500=
07607,1997-08-05 18:00:00,22,1014.8,0.2,88,20,15000,11.112,,,240,19.3,22.8,,,,,,,,,wg-a,,,,AAXX 05184 07607 12365 82406 10220 20200 30080 40148 53002 60006 888// 91800 333 10228 20193=
07607,1997-08-05 21:00:00,20,1015.9,1,100,20,10000,7.408,,,250,,,,,,,,,,,wg-a,,,,AAXX 05214 07607 12460 82504 10200 20200 30090 40159 53010 60006 888// 92100=
07607,1997-08-06 03:00:00,19,1014.4,-1.3,100,19,6000,7.408,,,320,,,,,,,,,,,wg-a,,,,AAXX 06034 07607 12356 83204 10190 20190 30075 40144 58013 60006 878// 90300=
07607,1997-08-06 06:00:00,18,1013.9,-0.5,100,18,500,3.704,,,240,18.4,21.8,,,,,33,,,,wg-a,,,,AAXX 06064 07607 02300 82402 10180 20180 30070 40139 57005 60006 8553/ 90600 333 10218 20184 60334=
07607,1997-08-06 09:00:00,19,1013.7,-0.2,100,19,500,3.704,,,250,,,,,,,,,,,wg-a,,,,AAXX 06094 07607 12/00 /2502 10190 20190 30068 40137 58002 60006 90900=
07607,1997-08-06 12:00:00,22,1013.5,-0.1,83,19,10000,7.408,,,200,,,,,,,,,,2,wg-a,,,,AAXX 06124 07607 12460 82004 10220 20190 30067 40135 58001 60006 70242 878// 91200=
07607,1997-08-06 18:00:00,25,1010.6,-0.9,79,21,20000,11.112,,,270,18.3,26.4,,,,,,,,,wg-a,,,,AAXX 06184 07607 12570 62706 10250 20210 30039 40106 56009 60006 83202 91800 333 10264 20183=
07607,1997-08-07 00:00:00,20,1012.6,0.5,88,18,12000,22.224,,,280,,,,,,,,,,13,wg-a,,,,AAXX 07004 07607 12562 72812 10200 20180 30057 40126 53005 60006 71311 879// 90000=
07607,1997-08-07 06:00:00,16,1011.5,-0.2,100,16,8000,3.704,,,110,15.6,25.4,,,,,5,,,3,wg-a,,,,AAXX 07064 07607 02458 61102 10160 20160 30045 40115 55002 60006 70398 84882 90600 333 10254 20156 60054=
07607,1997-08-07 09:00:00,23,1011.5,0.2,69,17,10000,0,,,0,,,,,,,,,,,wg-a,,,,AAXX 07094 07607 12460 70000 10230 20170 30047 40115 51002 60006 8583/ 90900=
07607,1997-08-07 12:00:00,26,1011.3,-0.1,70,20,500,7.408,,,330,,,,,,,,,,,wg-a,,,,AAXX 07124 07607 12500 73304 10260 20200 30046 40113 57001 60006 878// 91200=
07607,1997-08-07 18:00:00,22,1010.6,0.5,73,17,500,14.816,,,330,16.1,28.4,,,,,,,,29,wg-a,,,,AAXX 07184 07607 12500 63308 10220 20170 30038 40106 53005 60006 72991 86900 91800 333 10284 20161=
07607,1997-08-08 00:00:00,19,1013.6,0.6,100,19,10000,3.704,,,210,,,,,,,,,,13,wg-a,,,,AAXX 08004 07607 02660 52102 10190 20190 30067 40136 53006 61000 71398 83802 90000 333 6100=
07607,1997-08-08 06:00:00,20,1014.7,1.1,94,19,10000,3.704,,,140,17.9,21.9,,,,,,,,,wg-a,,,,AAXX 08064 07607 02460 71402 10200 20190 30078 40147 53011 61000 85502 90600 333 10219 20179 ////=
07607,1997-08-08 09:00:00,23,1015.7,1.1,89,21,15000,7.408,,,120,,,,,,,,,,,wg-a,,,,AAXX 08094 07607 12465 71204 10230 20210 30089 40157 51011 60006 875// 90900=
07607,1997-08-08 12:00:00,28,1014.8,-0.8,66,21,25000,11.112,,,80,,,,,,,,,,,wg-a,,,,AAXX 08124 07607 12575 70806 10280 20210 30081 40148 58008 60006 85132 91200=
07607,1997-08-08 15:00:00,30,1014.3,-0.5,62,22,500,14.816,,,80,,,,,,,,,,,wg-a,,,,AAXX 08154 07607 12600 70808 10300 20220 30076 40143 56005 60006 83182 91500=
07607,1997-08-08 18:00:00,28,1014.5,0.2,74,23,20000,7.408,,,50,19.8,30,,,,,,,,,wg-a,,,,AAXX 08184 07607 12870 70504 10280 20230 30078 40145 53002 60006 84082 91800 333 10300 20198=
07607,1997-08-08 21:00:00,25,1015.3,0.7,89,23,20000,0,,,0,,,,,,,,,,,wg-a,,,,AAXX 08214 07607 12/70 70000 10250 20230 30085 40153 53007 60006 83082 92100=
07607,1997-08-09 00:00:00,23,1015.7,0.4,94,22,15000,0,,,0,,,,,,,,,,,wg-a,,,,AAXX 09004 07607 12/65 50000 10230 20220 30089 40157 51004 60006 83082 90000=
07607,1997-08-09 03:00:00,22,1015.3,-0.4,94,21,10000,0,,,0,,,,,,,,,,,wg-a,,,,AAXX 09034 07607 12/60 60000 10220 20210 30085 40153 56004 60006 82082 90300=
07607,1997-08-09 06:00:00,21,1015.9,0.5,94,20,7000,3.704,,,80,20.4,27.7,,,,,,,,,wg-a,,,,AAXX 09064 07607 02/57 40802 10210 20200 30090 40159 51005 60006 81082 90600 333 10277 20204 60004=
07607,1997-08-09 09:00:00,27,1016,0.3,79,23,20000,3.704,,,110,,,,,,,,,,,wg-a,,,,AAXX 09094 07607 12/70 31102 10270 20230 30093 40160 50003 60006 80002 90900=
07607,1997-08-09 12:00:00,31,1014.9,-1,59,22,25000,3.704,,,50,,,,,,,,,,,wg-a,,,,AAXX 09124 07607 12/75 20502 10310 20220 30083 40149 58010 60006 80002 91200=
07607,1997-08-09 15:00:00,32,1013.9,-1,52,21,25000,11.112,,,120,,,,,,,,,,,wg-a,,,,AAXX 09154 07607 12675 21206 10320 20210 30073 40139 58010 60006 81101 91500=
07607,1997-08-09 18:00:00,30,1013.6,-0.3,62,22,500,3.704,,,130,20.8,32.4,,,,,,,,,wg-a,,,,AAXX 09184 07607 12/00 71302 10300 20220 30070 40136 55003 60006 80002 91800 333 10324 20208=
07607,1997-08-09 21:00:00,25,1013.6,-0.2,89,23,20000,3.704,,,70,,,,,,,,,,,wg-a,,,,AAXX 09214 07607 12/70 40702 10250 20230 30068 40136 56002 60006 80002 92100=
07607,1997-08-10 00:00:00,22,1013.3,-0.3,100,22,20000,0,,,0,,,,,,,,,,,wg-a,,,,AAXX 10004 07607 12/70 00000 10220 20220 30065 40133 58003 60006 80000 90000=
07607,1997-08-10 03:00:00,20,1012.4,-1,100,20,20000,0,,,0,,,,,,,,,,,wg-a,,,,AAXX 10034 07607 32/70 00000 10200 20200 30055 40124 56010 80000 90300=
07607,1997-08-10 06:00:00,21,1012.6,0.3,100,21,800,7.408,,,210,19.9,29.7,,,,,,,,44,wg-a,,,,AAXX 10064 07607 02208 72104 10210 20210 30058 40126 51003 60006 74441 876// 90600 333 10297 20199 60004=
07607,1997-08-10 09:00:00,23,1012.5,-0.1,94,22,3000,7.408,,,110,,,,,,,,,,10,wg-a,,,,AAXX 10094 07607 12330 71104 10230 20220 30057 40125 58001 60006 71042 876// 90900=
07607,1997-08-10 18:00:00,23,1013.6,2.6,83,20,10000,14.816,,,220,21.1,28.7,,1,,,,,,25,wg-a,,,,AAXX 10184 07607 12560 72208 10230 20200 30068 40136 51026 60017 72598 8588/ 91800 333 10287 20211=
07607,1997-08-10 21:00:00,21,1012.7,-0.9,100,21,15000,3.704,,,190,,,,1,,,,,,1,wg-a,,,,AAXX 10214 07607 12/65 71902 10210 20210 30059 40127 57009 60017 70186 85072 92100=
07607,1997-08-11 00:00:00,20,1013.4,0.6,100,20,11000,7.408,,,20,,,,,,,,,,,wg-a,,,,AAXX 11004 07607 12/61 /0204 10200 20200 30065 40134 50006 60036 90000=
07607,1997-08-11 03:00:00,20,1013.6,0.2,100,20,10000,3.704,,,90,,,,0,,,,,,20,wg-a,,,,AAXX 11034 07607 12260 80902 10200 20200 30067 40136 52002 60007 72065 888// 90300=
07607,1997-08-11 12:00:00,23,1017,0.9,78,19,20000,22.224,,,280,,,,,,,,,,1,wg-a,,,,AAXX 11124 07607 02570 82812 10230 20190 30102 40170 53009 61000 70186 85232 91200 333 ////=
07607,1997-08-11 18:00:00,24,1019.7,1,65,17,500,14.816,,,270,18.8,25.6,,,,,,,,,wg-a,,,,AAXX 11184 07607 12600 32708 10240 20170 30129 40197 51010 60006 81102 91800 333 10256 20188=
07607,1997-08-11 21:00:00,19,1021.5,1.6,94,18,15000,0,,,0,,,,,,,,,,,wg-a,,,,AAXX 11214 07607 12/65 20000 10190 20180 30145 40215 53016 60006 80002 92100=
07607,1997-08-12 00:00:00,16,1021.7,0.2,100,16,12000,7.408,,,100,,,,,,,,,,,wg-a,,,,AAXX 12004 07607 12/62 01004 10160 20160 30147 40217 53002 60006 80000 90000=
07607,1997-08-12 03:00:00,15,1021.6,-0.2,100,15,1500,3.704,,,90,,,,,,,,,,,wg-a,,,,AAXX 12034 07607 12/15 /0902 10150 20150 30145 40216 58002 60006 90300=
07607,1997-08-12 06:00:00,14,1021.9,0.3,100,14,700,3.704,,,70,13.7,24.1,,,,,,,,42,wg-a,,,,AAXX 12064 07607 02207 20702 10140 20140 30148 40219 53003 60006 74240 82700 90600 333 10241 20137 61000=
07607,1997-08-12 09:00:00,22,1021.7,0,83,19,10000,7.408,,,100,,,,,,,,,,2,wg-a,,,,AAXX 12094 07607 12/60 01004 10220 20190 30148 40217 50000 60006 70240 80000 90900=
07607,1997-08-12 12:00:00,27,1020.6,-1,58,18,20000,11.112,,,110,,,,,,,,,,3,wg-a,,,,AAXX 12124 07607 12570 21106 10270 20180 30138 40206 58010 60006 70340 82100 91200=
07607,1997-08-12 15:00:00,29,1019.5,-1,55,19,500,11.112,,,110,,,,,,,,,,,wg-a,,,,AAXX 12154 07607 12600 31106 10290 20190 30128 40195 58010 60006 82103 91500=
07607,1997-08-13 06:00:00,21,1023,1.1,100,21,0,7.408,,,210,18.1,28.2,,,,,,,,,wg-a,,,,AAXX 13064 07607 12/// /2104 10210 20210 30161 40230 53011 60004 90600 333 10282 20181=
07607,1997-08-13 09:00:00,22,1023.7,0.7,88,20,4500,7.408,,,200,,,,,,,,,,10,wg-a,,,,AAXX 13094 07607 12345 82004 10220 20200 30168 40237 51007 60006 71022 886// 90900=
07607,1997-08-13 12:00:00,27,1023.6,0,70,21,11000,3.704,,,350,,,,,,,,,,,wg-a,,,,AAXX 13124 07607 12/61 /3502 10270 20210 30168 40236 50000 60006 91200=
07607,1997-08-13 18:00:00,28,1022.9,-0.1,70,22,20000,11.112,,,210,20.9,29.8,,,,,,,,,wg-a,,,,AAXX 13184 07607 12670 /2106 10280 20220 30162 40229 55001 60006 81200 91800 333 10298 20209=
07607,1997-08-14 00:00:00,21,1023.7,-0.5,94,20,8000,3.704,,,260,,,,,,,,,,,wg-a,,,,AAXX 14004 07607 12/58 02602 10210 20200 30168 40237 58005 60006 80000 90000=
07607,1997-08-14 12:00:00,29,1020.7,-1.9,66,22,20000,18.52,,,90,,,,,,,,,,2,wg-a,,,,AAXX 14124 07607 12/70 00910 10290 20220 30140 40207 58019 60006 70241 80000 91200=
07607,1997-08-14 18:00:00,31,1018,-0.9,59,22,500,7.408,,,90,19.8,31.5,,,,,,,,,wg-a,,,,AAXX 14184 07607 12/00 40904 10310 20220 30113 40180 56009 60006 81032 91800 333 10315 20198=
07607,1997-08-14 21:00:00,24,1018.9,0.8,94,23,15000,0,,,0,,,,,,,,,,,wg-a,,,,AAXX 14214 07607 12/65 30000 10240 20230 30121 40189 53008 60006 81032 92100=
07607,1997-08-15 00:00:00,23,1020.1,1.1,94,22,6000,14.816,,,220,,,,,,,,,,,wg-a,,,,AAXX 15004 07607 12256 72208 10230 20220 30132 40201 51011 60006 876// 90000=
07607,1997-08-15 06:00:00,22,1020.5,0.6,94,21,500,7.408,,,220,21.5,30.6,,,,,,,,,wg-a,,,,AAXX 15064 07607 02300 72204 10220 20210 30136 40205 53006 60006 875// 90600 333 10306 20215 60004=
07607,1997-08-15 09:00:00,22,1020.2,-0.3,94,21,500,7.408,,,100,,,,0,,,,,,80,wg-a,,,,AAXX 15094 07607 12400 71004 10220 20210 30133 40202 58003 60007 78086 8588/ 90900=
07607,1997-08-15 12:00:00,23,1020.4,0.3,94,22,6000,7.408,,,340,,,,,,,,,,,wg-a,,,,AAXX 15124 07607 12/56 /3404 10230 20220 30136 40204 50003 60016 91200=
07607,1997-08-15 15:00:00,28,1018.6,-1.7,62,20,500,7.408,,,130,,,,,,,,,,,wg-a,,,,AAXX 15154 07607 12600 21304 10280 20200 30119 40186 58017 60006 81232 91500=
07607,1997-08-15 18:00:00,27,1017.9,-0.7,70,21,500,3.704,,,200,21.6,28.5,,,,,,,,,wg-a,,,,AAXX 15184 07607 12600 /2002 10270 20210 30112 40179 55007 60006 81282 91800 333 10285 20216=
07607,1997-08-15 21:00:00,23,1019,1,89,21,20000,18.52,,,280,,,,,,,,,,13,wg-a,,,,AAXX 15214 07607 12670 /2810 10230 20210 30122 40190 51010 60006 71322 81282 92100=
07607,1997-08-16 03:00:00,19,1017.5,-2.7,94,18,8000,7.408,,,90,,,,4,,,,,,29,wg-a,,,,AAXX 16034 07607 12458 70904 10190 20180 30106 40175 58027 60047 72998 879// 90300=
07607,1997-08-16 06:00:00,19,1018.1,0.6,100,19,3000,11.112,,,20,18.8,27.2,,,,,22,,,10,wg-a,,,,AAXX 16064 07607 02230 70206 10190 20190 30112 40181 53006 60006 71098 876// 90600 333 10272 20188 60224=
07607,1997-08-16 09:00:00,23,1019.8,1.8,83,20,20000,11.112,,,50,,,,,,,,,,,wg-a,,,,AAXX 16094 07607 12470 50506 10230 20200 30130 40198 51018 60006 84130 90900=
07607,1997-08-16 12:00:00,26,1019.3,-0.5,70,20,3000,7.408,,,270,,,,,,,,,,,wg-a,,,,AAXX 16124 07607 12630 42704 10260 20200 30125 40193 58005 60006 84200 91200=
07607,1997-08-16 15:00:00,29,1017.6,-1.6,55,19,3000,7.408,,,250,,,,,,,,,,,wg-a,,,,AAXX 16154 07607 12630 42504 10290 20190 30109 40176 56016 60006 84200 91500=
07607,1997-08-16 18:00:00,26,1018.2,0.5,74,21,500,14.816,,,270,18.9,28.8,,,,,,,,,wg-a,,,,AAXX 16184 07607 12600 /2708 10260 20210 30114 40182 52005 60006 85800 91800 333 10288 20189=
07607,1997-08-16 21:00:00,23,1019.9,1.6,89,21,15000,11.112,,,300,,,,,,,,,,,wg-a,,,,AAXX 16214 07607 12665 73006 10230 20210 30130 40199 52016 60006 85802 92100=
07607,1997-08-17 06:00:00,20,1020.1,0.2,100,20,3500,3.704,,,200,19.2,25.5,,,,,,,,10,wg-a,,,,AAXX 17064 07607 02235 72002 10200 20200 30132 40201 53002 60006 71022 845// 90600 333 10255 20192 60004=
07607,1997-08-17 12:00:00,26,1019.4,-0.9,70,20,25000,3.704,,,120,,,,,,,,,,,wg-a,,,,AAXX 17124 07607 12575 /1202 10260 20200 30126 40194 58009 60006 84232 91200=
07607,1997-08-17 18:00:00,26,1017.4,-0.3,74,21,20000,7.408,,,360,19.5,28.3,,,,,,,,,wg-a,,,,AAXX 17184 07607 12670 73604 10260 20210 30106 40174 56003 60006 872// 91800 333 10283 20195=
07607,1997-08-17 21:00:00,23,1019.1,1.7,89,21,10000,0,,,0,,,,0,,,,,,29,wg-a,,,,AAXX 17214 07607 12660 70000 10230 20210 30123 40191 53017 60007 72998 85902 92100=
07607,1997-08-18 00:00:00,21,1018.5,-0.7,94,20,10000,0,,,0,,,,,,,,,,2,wg-a,,,,AAXX 18004 07607 12660 70000 10210 20200 30116 40185 56007 60016 70298 85902 90000=
07607,1997-08-18 06:00:00,19,1017.7,-0.4,100,19,6000,7.408,,,60,19.2,25.9,,,,,,,,3,wg-a,,,,AAXX 18064 07607 02656 /0604 10190 20190 30108 40177 58004 60006 70392 85902 90600 333 10259 20192 60004=
07607,1997-08-18 09:00:00,25,1018.2,0.6,74,20,15000,0,,,0,,,,,,,,,,,wg-a,,,,AAXX 18094 07607 12565 50000 10250 20200 30114 40182 51006 60006 82132 90900=
07607,1997-08-18 12:00:00,28,1017.6,-0.5,66,21,20000,7.408,,,110,,,,,,,,,,,wg-a,,,,AAXX 18124 07607 12570 71104 10280 20210 30109 40176 56005 60006 84281 91200=
07607,1997-08-18 18:00:00,28,1016.5,0.1,66,21,11000,7.408,,,290,19.5,30,,,,,,,,,wg-a,,,,AAXX 18184 07607 12/61 /2904 10280 20210 30098 40165 53001 60006 91800 333 10300 20195=
07607,1997-08-18 21:00:00,23,1018.7,2,78,19,20000,7.408,,,130,,,,,,,,,,29,wg-a,,,,AAXX 18214 07607 12670 71304 10230 20190 30118 40187 53020 60006 72992 85382 92100=
07607,1997-08-19 00:00:00,21,1018.3,-0.4,88,19,20000,3.704,,,140,,,,,,,,,,1,wg-a,,,,AAXX 19004 07607 12/70 51402 10210 20190 30114 40183 58004 60006 70192 84082 90000=
07607,1997-08-19 09:00:00,22,1017.8,0.1,88,20,500,0,,,0,,,,,,,,,,1,wg-a,,,,AAXX 19094 07607 12400 /0000 10220 20200 30109 40178 53001 60006 70142 86600 90900=
07607,1997-08-19 12:00:00,27,1016.7,-0.9,70,21,15000,7.408,,,90,,,,,,,,,,1,wg-a,,,,AAXX 19124 07607 12565 /0904 10270 20210 30100 40167 58009 60006 70142 81102 91200=
07607,1997-08-19 15:00:00,29,1015.4,-1.3,58,20,500,7.408,,,100,,,,,,,,,,,wg-a,,,,AAXX 19154 07607 12/00 61004 10290 20200 30087 40154 57013 60006 81032 91500=
07607,1997-08-19 18:00:00,28,1014.8,-0.6,66,21,500,7.408,,,100,19.5,29.2,,,,,,,,,wg-a,,,,AAXX 19184 07607 12/00 31004 10280 20210 30081 40148 55006 60006 80002 91800 333 10292 20195=
07607,1997-08-19 21:00:00,23,1015.9,1,94,22,15000,0,,,0,,,,,,,,,,,wg-a,,,,AAXX 19214 07607 12/65 00000 10230 20220 30091 40159 53010 60006 80000 92100=
07607,1997-08-20 00:00:00,20,1015.8,-0.2,100,20,10000,0,,,0,,,,,,,,,,,wg-a,,,,AAXX 20004 07607 12/60 00000 10200 20200 30089 40158 57002 60006 80000 90000=
07607,1997-08-20 03:00:00,19,1015.3,-0.5,94,18,8000,0,,,0,,,,,,,,,,,wg-a,,,,AAXX 20034 07607 12/58 00000 10190 20180 30084 40153 56005 60006 80000 90300=
07607,1997-08-20 06:00:00,18,1016.7,1.4,100,18,7000,0,,,0,17.5,28,,,,,,,,11,wg-a,,,,AAXX 20064 07607 02/57 /0000 10180 20180 30098 40167 53014 60006 71100 80000 90600 333 10280 20175 60004=
07607,1997-08-20 12:00:00,30,1016.2,-0.8,52,19,500,14.816,,,100,,,,,,,,,,,wg-a,,,,AAXX 20124 07607 12/00 11008 10300 20190 30095 40162 57008 60006 81082 91200=
07607,1997-08-20 15:00:00,32,1014.8,-1.3,49,20,40000,7.408,,,80,,,,,,,,,,,wg-a,,,,AAXX 20154 07607 12/82 20804 10320 20200 30082 40148 56013 60006 81082 91500=
07607,1997-08-20 18:00:00,30,1015,0.1,55,20,500,3.704,,,110,18.1,32,,,,,,,,,wg-a,,,,AAXX 20184 07607 12/00 51102 10300 20200 30083 40150 53001 60006 82082 91800 333 10320 20181=
07607,1997-08-20 21:00:00,25,1017.7,2.6,83,22,20000,14.816,,,200,,,,,,,,,,13,wg-a,,,,AAXX 20214 07607 12670 72008 10250 20220 30109 40177 53026 60006 71322 82982 92100=
07607,1997-08-21 00:00:00,21,1019,1.2,94,20,10000,25.928,,,310,,,,1,,,,,,17,wg-a,,,,AAXX 21004 07607 02660 73114 10210 20200 30121 40190 50012 60016 71798 8498/ 90000 333 60017=
07607,1997-08-21 03:00:00,20,1018.2,-0.8,100,20,10000,3.704,,,130,,,,5,,,,,,25,wg-a,,,,AAXX 21034 07607 12760 71302 10200 20200 30113 40182 58008 60057 72598 8697/ 90300=
07607,1997-08-21 06:00:00,19,1019.3,1.1,100,19,8000,7.408,,,50,19.3,30.3,,,,,,,,1,wg-a,,,,AAXX 21064 07607 02758 70504 10190 20190 30124 40193 53011 60006 70198 83572 90600 333 10303 20193 60004=
07607,1997-08-21 09:00:00,25,1020.4,1.2,74,20,20000,3.704,,,230,,,,,,,,,,,wg-a,,,,AAXX 21094 07607 12/70 42302 10250 20200 30136 40204 51012 60006 82072 90900=
07607,1997-08-21 12:00:00,28,1019.4,-0.9,62,20,25000,3.704,,,100,,,,,,,,,,,wg-a,,,,AAXX 21124 07607 12575 31002 10280 20200 30127 40194 58009 60006 81201 91200=
07607,1997-08-21 15:00:00,30,1018.4,-1,55,20,500,0,,,0,,,,,,,,,,,wg-a,,,,AAXX 21154 07607 12600 30000 10300 20200 30117 40184 56010 60006 82101 91500=
07607,1997-08-21 21:00:00,24,1020.2,1.6,89,22,10000,3.704,,,50,,,,,,,,,,,wg-a,,,,AAXX 21214 07607 12/60 /0502 10240 20220 30134 40202 51016 60006 92100=
07607,1997-08-22 00:00:00,22,1020.4,0.1,88,20,10000,0,,,0,,,,,,,,,,,wg-a,,,,AAXX 22004 07607 12/60 00000 10220 20200 30135 40204 52001 60006 80000 90000=
07607,1997-08-22 03:00:00,19,1020.5,0.1,100,19,10000,0,,,0,,,,,,,,,,,wg-a,,,,AAXX 22034 07607 12/60 20000 10190 20190 30136 40205 53001 60006 80002 90300=
07607,1997-08-22 06:00:00,18,1021,0.4,100,18,8000,3.704,,,120,17.8,29,,,,,,,,,wg-a,,,,AAXX 22064 07607 02/58 /1202 10180 20180 30140 40210 53004 60006 90600 333 10290 20178 60004=
07607,1997-08-22 09:00:00,26,1021.1,0.3,74,21,500,0,,,0,,,,,,,,,,,wg-a,,,,AAXX 22094 07607 12/00 30000 10260 20210 30143 40211 51003 60006 80002 90900=
07607,1997-08-22 12:00:00,31,1020,-1,52,20,500,11.112,,,60,,,,,,,,,,,wg-a,,,,AAXX 22124 07607 12600 20606 10310 20200 30133 40200 58010 60006 81102 91200=
07607,1997-08-22 15:00:00,32,1018.3,-1.6,49,20,40000,11.112,,,120,,,,,,,,,,,wg-a,,,,AAXX 22154 07607 12782 21206 10320 20200 30117 40183 57016 60006 81102 91500=
07607,1997-08-22 21:00:00,24,1018.6,0.6,89,22,25000,3.704,,,100,,,,,,,,,,,wg-a,,,,AAXX 22214 07607 12/75 21002 10240 20220 30118 40186 51006 60006 80002 92100=
07607,1997-08-23 00:00:00,21,1018.3,-0.4,100,21,20000,3.704,,,70,,,,,,,,,,,wg-a,,,,AAXX 23004 07607 12/70 20702 10210 20210 30114 40183 58004 60006 80002 90000=
07607,1997-08-23 03:00:00,20,1017.7,-0.6,94,19,10000,0,,,0,,,,,,,,,,,wg-a,,,,AAXX 23034 07607 12/60 10000 10200 20190 30108 40177 57006 60006 80002 90300=
07607,1997-08-23 09:00:00,24,1017.9,0.3,83,21,8000,3.704,,,200,,,,,,,,,,1,wg-a,,,,AAXX 23094 07607 12358 22002 10240 20210 30111 40179 51003 60006 70141 82100 90900=
07607,1997-08-23 12:00:00,31,1016.6,-1.1,59,22,500,7.408,,,110,,,,,,,,,,3,wg-a,,,,AAXX 23124 07607 12600 /1104 10310 20220 30100 40166 58011 60006 70341 81100 91200=
07607,1997-08-23 15:00:00,32,1015,-1.6,49,20,40000,11.112,,,100,,,,,,,,,,,wg-a,,,,AAXX 23154 07607 12782 11006 10320 20200 30084 40150 56016 60006 81100 91500=
07607,1997-08-23 18:00:00,31,1014.1,-0.9,55,21,40000,7.408,,,80,18.4,32.6,,,,,,,,,wg-a,,,,AAXX 23184 07607 12/82 00804 10310 20210 30075 40141 56009 60006 80000 91800 333 10326 20184=
07607,1997-08-23 21:00:00,23,1014.7,0.4,94,22,20000,0,,,0,,,,,,,,,,,wg-a,,,,AAXX 23214 07607 12/70 00000 10230 20220 30079 40147 51004 60006 80000 92100=
07607,1997-08-24 00:00:00,22,1014.8,0.1,94,21,0,0,,,0,,,,,,,,,,,wg-a,,,,AAXX 24004 07607 12/// /0000 10220 20210 30080 40148 53001 60006 90000=
07607,1997-08-24 03:00:00,23,1014.9,0.1,94,22,4000,11.112,,,250,,,,,,,,,,10,wg-a,,,,AAXX 24034 07607 12240 72506 10230 20220 30081 40149 50001 60006 71011 876// 90300=
07607,1997-08-24 06:00:00,22,1015.5,0.6,100,22,3000,0,,,0,21,30.6,,,,,,,,10,wg-a,,,,AAXX 24064 07607 02230 /0000 10220 20220 30087 40155 53006 60006 71011 86600 90600 333 10306 20210 60004=
07607,1997-08-24 09:00:00,24,1015.1,-0.4,89,22,4000,7.408,,,100,,,,,,,,,,10,wg-a,,,,AAXX 24094 07607 12440 /1004 10240 20220 30083 40151 58004 60006 71022 86100 90900=
07607,1997-08-24 12:00:00,29,1013.8,-1.2,70,23,20000,7.408,,,80,,,,,,,,,,,wg-a,,,,AAXX 24124 07607 12/70 00804 10290 20230 30071 40138 58012 60006 80000 91200=
07607,1997-08-24 18:00:00,30,1010.1,-1.7,55,20,500,7.408,,,140,22.3,31.9,,,,,,,,,wg-a,,,,AAXX 24184 07607 12/00 51404 10300 20200 30035 40101 56017 60006 81082 91800 333 10319 20223=
07607,1997-08-25 00:00:00,25,1010.8,0.9,83,22,12000,7.408,,,220,,,,,,,,,,,wg-a,,,,AAXX 25004 07607 12/62 72204 10250 20220 30041 40108 53009 60006 83082 90000=
07607,1997-08-25 03:00:00,21,1010.7,-0.2,88,19,12000,3.704,,,220,,,,,,,,,,,wg-a,,,,AAXX 25034 07607 12/62 62202 10210 20190 30039 40107 58002 60006 83082 90300=
07607,1997-08-25 06:00:00,21,1010.7,-0,94,20,15000,7.408,,,230,20.5,30.4,,,,,,,,,wg-a,,,,AAXX 25064 07607 02765 62304 10210 20200 30039 40107 55000 60006 82582 90600 333 10304 20205 60004=
07607,1997-08-25 09:00:00,24,1011.7,1,83,21,20000,11.112,,,280,,,,,,,,,,,wg-a,,,,AAXX 25094 07607 12470 72806 10240 20210 30049 40117 51010 60006 85872 90900=
07607,1997-08-25 12:00:00,25,1011.9,0.2,74,20,25000,18.52,,,280,,,,,,,,,,,wg-a,,,,AAXX 25124 07607 12575 72810 10250 20200 30051 40119 50002 60006 878// 91200=
07607,1997-08-25 15:00:00,23,1012.2,0.3,89,21,20000,7.408,,,60,,,,3,,,,,,1,wg-a,,,,AAXX 25154 07607 12470 70604 10230 20210 30054 40122 52003 60037 70198 878// 91500=
07607,1997-08-25 18:00:00,21,1013.1,0.8,94,20,8000,7.408,,,90,20.5,26,,,,,,,,80,wg-a,,,,AAXX 25184 07607 02458 70904 10210 20200 30062 40131 53008 61000 78098 872// 91800 333 10260 20205 6006=
07607,1997-08-26 00:00:00,19,1014.2,-0.1,100,19,8000,7.408,,,260,,,,1,,,,,,1,wg-a,,,,AAXX 26004 07607 02358 82604 10190 20190 30073 40142 57001 60016 70186 8557/ 90000 333 60017=
07607,1997-08-26 03:00:00,19,1013.7,-0.5,100,19,500,7.408,,,270,,,,0,,,,,,51,wg-a,,,,AAXX 26034 07607 12300 82704 10190 20190 30068 40137 58005 60007 75165 875// 90300=
07607,1997-08-26 06:00:00,18,1014.2,0.5,100,18,10000,11.112,,,260,17.9,20.5,,,,,12,,,1,wg-a,,,,AAXX 26064 07607 02460 82606 10180 20180 30073 40142 53005 60006 70165 8657/ 90600 333 10205 20179 60124=
07607,1997-08-26 15:00:00,24,1011.5,-1.8,69,18,15000,7.408,,,120,,,,,,,,,,,wg-a,,,,AAXX 26154 07607 12465 /1204 10240 20180 30047 40115 57018 60006 86800 91500=
07607,1997-08-26 18:00:00,23,1010.2,-1.3,73,18,10000,3.704,,,120,17.8,23.8,,,,,,,,,wg-a,,,,AAXX 26184 07607 12/60 /1202 10230 20180 30034 40102 56013 60006 91800 333 10238 20178=
07607,1997-08-26 21:00:00,19,1009.3,-1,100,19,10000,7.408,,,80,,,,,,,,,,,wg-a,,,,AAXX 26214 07607 12760 40804 10190 20190 30024 40093 56010 60006 825/2 92100=
07607,1997-08-27 00:00:00,18,1007.5,-1.8,100,18,10000,7.408,,,100,,,,,,,,,,,wg-a,,,,AAXX 27004 07607 12760 11004 10180 20180 30006 40075 56018 60006 81500 90000=
07607,1997-08-27 06:00:00,19,1007,0.3,94,18,10000,7.408,,,260,17.9,22.9,,,,,,,,,wg-a,,,,AAXX 27064 07607 02/60 /2604 10190 20180 30001 40070 50003 60006 90600 333 10229 20179 60004=
07607,1997-08-27 09:00:00,22,1006.9,-0,73,17,500,3.704,,,130,,,,,,,,,,,wg-a,,,,AAXX 27094 07607 12700 71302 10220 20170 30001 40069 55000 60006 8457/ 90900=
07607,1997-08-27 15:00:00,20,1007.9,0.1,94,19,6000,7.408,,,200,,,,2,,,,,,61,wg-a,,,,AAXX 27154 07607 12456 82004 10200 20190 30010 40079 53001 60027 76166 8457/ 91500=
07607,1997-08-27 18:00:00,18,1005.9,-2,94,17,11000,14.816,,,160,18,23.5,,,,,,,,,wg-a,,,,AAXX 27184 07607 12/61 /1608 10180 20170 39990 40059 58020 60006 91800 333 10235 20180=
07607,1997-08-27 21:00:00,18,1005.6,-0.3,83,15,15000,3.704,,,240,,,,,,,,,,,wg-a,,,,AAXX 27214 07607 12565 82402 10180 20150 39987 40056 55003 60006 8457/ 92100=
07607,1997-08-28 00:00:00,15,1008.7,3,100,15,10000,7.408,,,240,,,,0,,,,,,25,wg-a,,,,AAXX 28004 07607 02560 82404 10150 20150 30017 40087 53030 60006 72522 8698/ 90000 333 60007=
07607,1997-08-28 03:00:00,15,1009.2,0.5,100,15,8000,11.112,,,250,,,,1,,,,,,80,wg-a,,,,AAXX 28034 07607 12358 82506 10150 20150 30022 40092 53005 60017 78086 872// 90300=
07607,1997-08-28 06:00:00,15,1010.4,1.2,88,13,8000,18.52,,51.856,220,14.6,18.6,,,,,,,,80,wg-a,,,,AAXX 28064 07607 02358 72210 10150 20130 30034 40104 53012 61000 78086 879// 90600 333 10186 20146 6014 91028=
07607,1997-08-28 09:00:00,17,1012.3,2,82,14,20000,18.52,,,210,,,,,,,,,,3,wg-a,,,,AAXX 28094 07607 02470 62110 10170 20140 30054 40123 53020 61000 70386 85901 90900 333 ////=
07607,1997-08-28 12:00:00,16,1014.1,1.7,88,14,10000,22.224,,50.004,220,,,,4,,,,,,25,wg-a,,,,AAXX 28124 07607 02460 72212 10160 20140 30071 40141 51017 60046 72586 879// 91200 333 60047 91027=
07607,1997-08-28 15:00:00,19,1015.3,1.3,73,14,500,25.928,,42.596,220,,,,0,,,,,,80,wg-a,,,,AAXX 28154 07607 12400 72214 10190 20140 30084 40153 51013 60007 78086 879// 91500 333 91023=
07607,1997-08-28 18:00:00,18,1017,1.6,73,13,12000,11.112,,,230,14.7,19.5,,2,,,,,,1,wg-a,,,,AAXX 28184 07607 02462 42306 10180 20130 30100 40170 51016 60006 70186 84900 91800 333 10195 20147 60027=
07607,1997-08-29 00:00:00,15,1020.8,1,94,14,10000,7.408,,,190,,,,,,,,,,1,wg-a,,,,AAXX 29004 07607 12/60 01904 10150 20140 30137 40208 51010 60016 70186 80000 90000=
07607,1997-08-29 03:00:00,14,1021.1,0.3,100,14,10000,7.408,,,200,,,,1,,,,,,1,wg-a,,,,AAXX 29034 07607 12/60 22004 10140 20140 30140 40211 52003 60017 70186 80001 90300=
07607,1997-08-29 06:00:00,15,1021.9,0.8,94,14,10000,11.112,,,180,14.1,17.7,,,,,,,,25,wg-a,,,,AAXX 29064 07607 02560 71806 10150 20140 30148 40219 53008 61000 72586 8687/ 90600 333 10177 20141 6008=
07607,1997-08-29 09:00:00,18,1022.8,1,88,16,15000,11.112,,,180,,,,1,,,,,,1,wg-a,,,,AAXX 29094 07607 12565 61806 10180 20160 30158 40228 51010 60017 70186 85802 90900=
07607,1997-08-29 12:00:00,22,1021.8,-0.9,57,13,25000,14.816,,,210,,,,,,,,,,1,wg-a,,,,AAXX 29124 07607 12575 /2108 10220 20130 30149 40218 58009 60016 70186 85230 91200=
07607,1997-08-29 18:00:00,22,1021.1,-0.3,57,13,25000,3.704,,,310,14.8,23.7,,,,,,,,,wg-a,,,,AAXX 29184 07607 12/75 43102 10220 20130 30142 40211 56003 60006 82042 91800 333 10237 20148=
07607,1997-08-30 00:00:00,13,1021.9,-0.4,100,13,25000,7.408,,,60,,,,,,,,,,,wg-a,,,,AAXX 30004 07607 12/75 00604 10130 20130 30148 40219 58004 60006 80000 90000=
07607,1997-08-30 03:00:00,12,1020.8,-1.1,100,12,10000,7.408,,,60,,,,,,,,,,,wg-a,,,,AAXX 30034 07607 12/60 00604 10120 20120 30137 40208 56011 60006 80000 90300=
07607,1997-08-30 06:00:00,12,1020.7,-0.1,100,12,6000,7.408,,,40,11.3,21.7,,,,,1,,,,wg-a,,,,AAXX 30064 07607 02/56 20404 10120 20120 30136 40207 55001 60006 80001 90600 333 10217 20113 60014=
07607,1997-08-30 09:00:00,20,1020.6,0.1,73,15,20000,0,,,0,,,,,,,,,,,wg-a,,,,AAXX 30094 07607 12/70 00000 10200 20150 30137 40206 51001 60006 80000 90900=
07607,1997-08-30 18:00:00,26,1016.5,-1.2,61,18,500,11.112,,,80,12,28,,,,,,,,,wg-a,,,,AAXX 30184 07607 12/00 50806 10260 20180 30097 40165 56012 60006 80002 91800 333 10280 20120=
07607,1997-08-30 21:00:00,20,1016.3,-0.3,88,18,20000,11.112,,,80,,,,,,,,,,,wg-a,,,,AAXX 30214 07607 12/70 00806 10200 20180 30094 40163 58003 60006 80000 92100=
07607,1997-08-31 00:00:00,19,1015,-1.3,83,16,20000,3.704,,,120,,,,,,,,,,,wg-a,,,,AAXX 31004 07607 12/70 01202 10190 20160 30081 40150 56013 60006 80000 90000=
07607,1997-08-31 06:00:00,15,1013.9,0.2,100,15,1500,7.408,,,100,14.6,25.9,,,,,,,,,wg-a,,,,AAXX 31064 07607 02/15 21004 10150 20150 30069 40139 53002 60006 80001 90600 333 10259 20146 60004=
07607,1997-08-31 09:00:00,24,1015.5,1.8,65,17,25000,18.52,,,260,,,,,,,,,,,wg-a,,,,AAXX 31094 07607 12/75 32610 10240 20170 30087 40155 51018 60006 80001 90900=
07607,1997-08-31 12:00:00,27,1016,0.6,51,16,500,14.816,,,290,,,,,,,,,,,wg-a,,,,AAXX 31124 07607 12/00 42908 10270 20160 30093 40160 51006 60006 80001 91200=
07607,1997-08-31 15:00:00,27,1016,0,54,17,500,14.816,,,280,,,,,,,,,,,wg-a,,,,AAXX 31154 07607 12600 52808 10270 20170 30093 40160 50000 60006 82102 91500=
07607,1997-08-31 18:00:00,22,1017.2,1,73,17,500,14.816,,,300,15.2,28.2,,,,,,,,,wg-a,,,,AAXX 31184 07607 12700 53008 10220 20170 30103 40172 53010 60006 83532 91800 333 10282 20152=
07607,1997-08-31 21:00:00,20,1018.6,1.4,83,17,25000,7.408,,,280,,,,,,,,,,,wg-a,,,,AAXX 31214 07607 12/75 72804 10200 20170 30117 40186 52014 60006 86072 92100=
07607,1997-09-01 00:00:00,19,1018.2,-0.4,83,16,11000,0,,,0,,,,,,,,,,,wg-a,,,,AAXX 01004 07607 12/61 /0000 10190 20160 30113 40182 58004 60006 90000=
07607,1997-09-01 06:00:00,18,1017.1,-0.1,94,17,0,3.704,,,260,18,22.4,,,,,,,,,wg-a,,,,AAXX 01064 07607 02/// /2602 10180 20170 30101 40171 55001 61000 90600 333 10224 20180 6100=
07607,1997-09-01 12:00:00,18,1017.6,0.6,100,18,10000,14.816,,,330,,,,1,,,,,,80,wg-a,,,,AAXX 01124 07607 02360 73308 10180 20180 30106 40176 53006 60076 78098 878// 91200 333 60017=
07607,1997-09-01 15:00:00,17,1018,0.4,100,17,10000,7.408,,,40,,,,6,,,,,,25,wg-a,,,,AAXX 01154 07607 12360 70404 10170 20170 30110 40180 50004 60067 72586 878// 91500=
07607,1997-09-01 18:00:00,16,1019.7,1.7,100,16,15000,11.112,,,260,16.1,18.7,,1,,,,,,80,wg-a,,,,AAXX 01184 07607 12365 72606 10160 20160 30127 40197 53017 60017 78086 878// 91800 333 10187 20161=
07607,1997-09-02 03:00:00,15,1022.6,-0.3,100,15,8000,3.704,,,210,,,,1,,,,,,21,wg-a,,,,AAXX 02034 07607 12558 72102 10150 20150 30155 40226 58003 60017 72162 878// 90300=
07607,1997-09-02 06:00:00,15,1023.1,0.5,100,15,3000,3.704,,,190,14.8,16.2,,,,,,,,10,wg-a,,,,AAXX 02064 07607 02330 71902 10150 20150 30160 40231 53005 61000 71065 878// 90600 333 10162 20148 6018=
07607,1997-09-02 12:00:00,21,1023.7,-0.7,64,14,15000,3.704,,,320,,,,,,,,,,,wg-a,,,,AAXX 02124 07607 12565 /3202 10210 20140 30168 40237 58007 60006 85230 91200=
07607,1997-09-02 15:00:00,22,1022.6,-1.1,60,14,25000,7.408,,,300,,,,,,,,,,,wg-a,,,,AAXX 02154 07607 12475 /3004 10220 20140 30157 40226 58011 60006 85202 91500=
07607,1997-09-02 18:00:00,21,1022.6,-0,69,15,10000,3.704,,,300,15,22.8,,,,,,,,,wg-a,,,,AAXX 02184 07607 12/60 /3002 10210 20150 30157 40226 55000 60006 91800 333 10228 20150=
07607,1997-09-03 00:00:00,13,1023.2,-0.8,100,13,15000,7.408,,,100,,,,,,,,,,,wg-a,,,,AAXX 03004 07607 12/65 01004 10130 20130 30161 40232 56008 60006 80000 90000=
07607,1997-09-03 03:00:00,11,1022,-1.3,100,11,8000,3.704,,,70,,,,,,,,,,,wg-a,,,,AAXX 03034 07607 12/58 00702 10110 20110 30148 40220 56013 60006 80000 90300=
07607,1997-09-03 06:00:00,9,1021.9,-0.1,100,9,10000,3.704,,,40,9,21,,,,,,,,,wg-a,,,,AAXX 03064 07607 02/60 /0402 10090 20090 30147 40219 55001 60006 90600 333 10210 20090 60004=
07607,1997-09-03 09:00:00,19,1021.5,-0.2,73,14,10000,7.408,,,120,,,,,,,,,,,wg-a,,,,AAXX 03094 07607 12/60 11204 10190 20140 30145 40215 58002 60006 80002 90900=
07607,1997-09-03 12:00:00,23,1019.9,-1.5,57,14,20000,11.112,,,80,,,,,,,,,,,wg-a,,,,AAXX 03124 07607 12770 10806 10230 20140 30130 40199 58015 60006 81102 91200=
07607,1997-09-03 18:00:00,24,1019.5,0.2,54,14,20000,3.704,,,130,9.3,25.5,,,,,,,,,wg-a,,,,AAXX 03184 07607 12/70 21302 10240 20140 30127 40195 53002 60006 80002 91800 333 10255 20093=
07607,1997-09-03 21:00:00,17,1020.3,0.6,94,16,20000,3.704,,,70,,,,,,,,,,,wg-a,,,,AAXX 03214 07607 12/70 30702 10170 20160 30133 40203 50006 60006 80002 92100=
07607,1997-09-04 00:00:00,14,1020.2,-0.2,100,14,10000,3.704,,,60,,,,,,,,,,,wg-a,,,,AAXX 04004 07607 12/60 20602 10140 20140 30131 40202 57002 60006 80002 90000=
07607,1997-09-04 03:00:00,13,1020.1,-0.1,94,12,8000,0,,,0,,,,,,,,,,,wg-a,,,,AAXX 04034 07607 12/58 20000 10130 20120 30130 40201 55001 60006 80002 90300=
07607,1997-09-04 06:00:00,11,1020.9,0.7,100,11,800,3.704,,,50,10.8,24,,,,,,,,10,wg-a,,,,AAXX 04064 07607 02/08 20502 10110 20110 30137 40209 53007 60006 71040 81032 90600 333 10240 20108 60004=
07607,1997-09-04 12:00:00,26,1020.3,-0.7,58,17,35000,3.704,,,180,,,,,,,,,,2,wg-a,,,,AAXX 04124 07607 12581 31802 10260 20170 30135 40203 58007 60006 70240 81102 91200=
07607,1997-09-04 15:00:00,28,1019,-1.3,45,15,50000,0,,,0,,,,,,,,,,,wg-a,,,,AAXX 04154 07607 12/84 30000 10280 20150 30122 40190 58013 60006 80001 91500=
07607,1997-09-04 18:00:00,26,1018.8,-0.2,54,16,40000,0,,,0,11.1,27.9,,,,,,,,,wg-a,,,,AAXX 04184 07607 12/82 20000 10260 20160 30120 40188 56002 60006 80001 91800 333 10279 20111=
07607,1997-09-04 21:00:00,19,1020,1,88,17,20000,7.408,,,260,,,,,,,,,,,wg-a,,,,AAXX 04214 07607 12/70 02604 10190 20170 30130 40200 51010 60006 80000 92100=
07607,1997-09-05 00:00:00,16,1019.7,-0.3,100,16,20000,0,,,0,,,,,,,,,,,wg-a,,,,AAXX 05004 07607 12/70 00000 10160 20160 30127 40197 58003 60006 80000 90000=
07607,1997-09-05 03:00:00,14,1019.4,-0.4,100,14,800,3.704,,,110,,,,,,,,,,44,wg-a,,,,AAXX 05034 07607 12/08 01102 10140 20140 30123 40194 56004 60006 74440 80000 90300=
07607,1997-09-05 06:00:00,15,1019.3,-0,100,15,300,3.704,,,110,13.6,26,,,,,,,,45,wg-a,,,,AAXX 05064 07607 02/03 91102 10150 20150 30123 40193 55000 60006 74541 89/// 90600 333 10260 20136 60004=
07607,1997-09-05 09:00:00,18,1020,0.7,100,18,2000,0,,,0,,,,,,,,,,10,wg-a,,,,AAXX 05094 07607 12220 80000 10180 20180 30130 40200 53007 60006 71042 886// 90900=
07607,1997-09-05 12:00:00,24,1019,-0.8,74,19,25000,3.704,,,150,,,,,,,,,,1,wg-a,,,,AAXX 05124 07607 12/75 01502 10240 20190 30122 40190 58008 60006 70141 80000 91200=
07607,1997-09-05 15:00:00,28,1018.4,-0.5,55,18,25000,7.408,,,320,,,,,,,,,,,wg-a,,,,AAXX 05154 07607 12675 /3204 10280 20180 30117 40184 56005 60006 81100 91500=
07607,1997-09-05 18:00:00,23,1019.6,1,73,18,10000,22.224,,,270,15.2,28.3,,,,,,,,,wg-a,,,,AAXX 05184 07607 12/60 /2712 10230 20180 30127 40196 53010 60006 91800 333 10283 20152=
07607,1997-09-06 00:00:00,20,1022,0.7,88,18,10000,7.408,,,240,,,,,,,,,,,wg-a,,,,AAXX 06004 07607 12660 /2404 10200 20180 30150 40220 51007 60006 86500 90000=
07607,1997-09-06 03:00:00,19,1021.7,-0.3,94,18,10000,7.408,,,230,,,,,,,,,,,wg-a,,,,AAXX 06034 07607 12660 /2304 10190 20180 30147 40217 56003 60006 86500 90300=
07607,1997-09-06 06:00:00,18,1022.3,0.6,100,18,6000,7.408,,,260,18.3,22.8,,,,,,,,,wg-a,,,,AAXX 06064 07607 02656 72604 10180 20180 30153 40223 53006 60006 875// 90600 333 10228 20183 60004=
07607,1997-09-06 12:00:00,25,1023,0.2,61,17,25000,3.704,,,230,,,,,,,,,,,wg-a,,,,AAXX 06124 07607 12575 72302 10250 20170 30162 40230 52002 60006 878// 91200=
07607,1997-09-06 18:00:00,21,1023.5,0.4,83,18,15000,3.704,,,70,18.1,24.5,,,,,,,,,wg-a,,,,AAXX 06184 07607 12765 70702 10210 20180 30166 40235 53004 60006 875// 91800 333 10245 20181=
07607,1997-09-06 21:00:00,20,1024.6,1,88,18,10000,3.704,,,340,,,,,,,,,,,wg-a,,,,AAXX 06214 07607 12760 73402 10200 20180 30176 40246 52010 60006 875// 92100=
07607,1997-09-07 00:00:00,19,1024.8,0.2,88,17,10000,0,,,0,,,,,,,,,,,wg-a,,,,AAXX 07004 07607 12760 70000 10190 20170 30178 40248 50002 60006 875// 90000=
07607,1997-09-07 09:00:00,19,1026.8,1.2,78,15,25000,3.704,,,10,,,,,,,,,,,wg-a,,,,AAXX 07094 07607 12775 30102 10190 20150 30198 40268 51012 60006 83500 90900=
07607,1997-09-07 12:00:00,24,1026,-0.7,50,13,500,7.408,,,340,,,,,,,,,,,wg-a,,,,AAXX 07124 07607 12700 13404 10240 20130 30191 40260 56007 60006 81500 91200=
07607,1997-09-07 15:00:00,25,1025.3,-0.7,47,13,500,7.408,,,10,,,,,,,,,,,wg-a,,,,AAXX 07154 07607 12/00 00104 10250 20130 30184 40253 56007 60006 80000 91500=
07607,1997-09-07 18:00:00,23,1025,-0.3,57,14,500,7.408,,,20,15.5,25.4,,,,,,,,,wg-a,,,,AAXX 07184 07607 12/00 00204 10230 20140 30181 40250 56003 60006 80000 91800 333 10254 20155=
07607,1997-09-08 00:00:00,13,1026.8,0.1,94,12,10000,3.704,,,270,,,,,,,,,,,wg-a,,,,AAXX 08004 07607 12/60 02702 10130 20120 30196 40268 51001 60006 80000 90000=
07607,1997-09-08 03:00:00,11,1026.2,-0.6,94,10,10000,3.704,,,230,,,,,,,,,,,wg-a,,,,AAXX 08034 07607 12/60 02302 10110 20100 30190 40262 56006 60006 80000 90300=
07607,1997-09-08 06:00:00,9,1026.6,0.3,93,8,8000,0,,,0,8.7,22.8,,,,,,,,,wg-a,,,,AAXX 08064 07607 02/58 00000 10090 20080 30193 40266 53003 60006 80000 90600 333 10228 20087 60004=
07607,1997-09-08 12:00:00,24,1025,-1.5,47,12,35000,7.408,,,340,,,,,,,,,,,wg-a,,,,AAXX 08124 07607 12/81 03404 10240 20120 30181 40250 58015 60006 80000 91200=
07607,1997-09-08 15:00:00,26,1023.6,-1.3,42,12,50000,3.704,,,350,,,,,,,,,,,wg-a,,,,AAXX 08154 07607 12/84 03502 10260 20120 30168 40236 56013 60006 80000 91500=
07607,1997-09-08 18:00:00,24,1023.6,-0.1,54,14,50000,7.408,,,20,8.8,26.6,,,,,,,,,wg-a,,,,AAXX 08184 07607 12/84 00204 10240 20140 30167 40236 55001 60006 80000 91800 333 10266 20088=
07607,1997-09-09 00:00:00,13,1024.1,-0.4,100,13,10000,3.704,,,70,,,,,,,,,,,wg-a,,,,AAXX 09004 07607 12/60 00702 10130 20130 30170 40241 58004 60006 80000 90000=
07607,1997-09-09 06:00:00,12,1023.6,-0.1,100,12,200,0,,,0,10.2,23.5,,,,,,,,45,wg-a,,,,AAXX 09064 07607 02/02 90000 10120 20120 30164 40236 55001 60006 74541 89/// 90600 333 10235 20102 60004=
07607,1997-09-09 09:00:00,19,1023.7,0.3,88,17,8000,3.704,,,100,,,,,,,,,,,wg-a,,,,AAXX 09094 07607 12/58 /1002 10190 20170 30167 40237 51003 60006 90900=
07607,1997-09-09 18:00:00,26,1020,-0.4,54,16,500,3.704,,,180,11.9,27.8,,,,,,,,,wg-a,,,,AAXX 09184 07607 12/00 /1802 10260 20160 30132 40200 55004 60006 91800 333 10278 20119=
07607,1997-09-09 21:00:00,19,1021,0.8,88,17,15000,3.704,,,260,,,,,,,,,,,wg-a,,,,AAXX 09214 07607 12/65 /2602 10190 20170 30140 40210 51008 60006 92100=
07607,1997-09-10 00:00:00,16,1020.1,-0.9,94,15,10000,0,,,0,,,,,,,,,,,wg-a,,,,AAXX 10004 07607 12/60 /0000 10160 20150 30131 40201 58009 60006 90000=
07607,1997-09-10 03:00:00,13,1019.4,-0.8,100,13,8000,3.704,,,250,,,,,,,,,,,wg-a,,,,AAXX 10034 07607 12/58 /2502 10130 20130 30123 40194 57008 60006 90300=
07607,1997-09-10 09:00:00,18,1018.7,-0.3,100,18,2500,3.704,,,60,,,,,,,,,,10,wg-a,,,,AAXX 10094 07607 12125 40602 10180 20180 30117 40187 56003 60006 71040 84100 90900=
07607,1997-09-10 12:00:00,27,1017.4,-1.1,51,16,15000,0,,,0,,,,,,,,,,2,wg-a,,,,AAXX 10124 07607 12565 /0000 10270 20160 30106 40174 58011 60006 70240 81100 91200=
07607,1997-09-10 15:00:00,28,1015.6,-1.7,42,14,20000,7.408,,,80,,,,,,,,,,,wg-a,,,,AAXX 10154 07607 12/70 00804 10280 20140 30089 40156 56017 60006 80000 91500=
07607,1997-09-10 18:00:00,26,1015.2,-0.5,54,16,20000,3.704,,,150,13,28.6,,,,,,,,,wg-a,,,,AAXX 10184 07607 12/70 01502 10260 20160 30084 40152 56005 60006 80000 91800 333 10286 20130=
07607,1997-09-11 00:00:00,15,1015.5,-0.7,94,14,20000,7.408,,,80,,,,,,,,,,,wg-a,,,,AAXX 11004 07607 12/70 00804 10150 20140 30085 40155 56007 60006 80000 90000=
07607,1997-09-11 06:00:00,11,1015.2,0.3,100,11,600,3.704,,,50,10.9,26.3,,,,,,,,46,wg-a,,,,AAXX 11064 07607 02106 60502 10110 20110 30081 40152 51003 60006 74641 85602 90600 333 10263 20109 60004=
07607,1997-09-11 09:00:00,18,1015.5,0.5,100,18,1200,3.704,,,70,,,,,,,,,,10,wg-a,,,,AAXX 11094 07607 12212 70702 10180 20180 30086 40155 51005 60006 71041 876// 90900=
07607,1997-09-11 12:00:00,26,1013.8,-1.5,70,20,20000,0,,,0,,,,,,,,,,1,wg-a,,,,AAXX 11124 07607 12/70 00000 10260 20200 30071 40138 58015 60006 70141 80000 91200=
07607,1997-09-11 15:00:00,29,1011.6,-2.2,52,18,500,11.112,,,100,,,,,,,,,,,wg-a,,,,AAXX 11154 07607 12/00 01006 10290 20180 30049 40116 56022 60006 80000 91500=
07607,1997-09-11 18:00:00,26,1010.6,-1,70,20,0,7.408,,,300,11,29.4,,,,,,,,,wg-a,,,,AAXX 11184 07607 12/// /3004 10260 20200 30039 40106 56010 60006 91800 333 10294 20110=
07607,1997-09-12 00:00:00,20,1014.3,-0,94,19,15000,7.408,,,260,,,,,,,,,,,wg-a,,,,AAXX 12004 07607 12765 72604 10200 20190 30074 40143 54000 60006 875// 90000=
07607,1997-09-12 03:00:00,19,1013.3,-1,100,19,7000,0,,,0,,,,,,,,,,51,wg-a,,,,AAXX 12034 07607 02357 70000 10190 20190 30064 40133 56010 61000 75152 875// 90300 333 ////=
07607,1997-09-12 09:00:00,20,1013.1,0.7,94,19,500,3.704,,,80,,,,,,,,,,,wg-a,,,,AAXX 12094 07607 12200 80802 10200 20190 30062 40131 53007 60006 875// 90900=
07607,1997-09-12 15:00:00,21,1013.7,0.6,83,18,15000,18.52,,,300,,,,,,,,,,,wg-a,,,,AAXX 12154 07607 12565 73010 10210 20180 30068 40137 53006 60006 8457/ 91500=
07607,1997-09-12 18:00:00,20,1014.5,0.8,88,18,7000,7.408,,,270,18.4,22.2,,,,,,,,,wg-a,,,,AAXX 12184 07607 12757 72704 10200 20180 30076 40145 51008 60006 875// 91800 333 10222 20184=
07607,1997-09-12 21:00:00,18,1015.9,1.4,100,18,4000,3.704,,,300,,,,6,,,,,,10,wg-a,,,,AAXX 12214 07607 12440 83002 10180 20180 30090 40159 51014 60067 71062 878// 92100=
07607,1997-09-13 00:00:00,17,1016.6,0.6,100,17,8000,3.704,,,350,,,,2,,,,,,61,wg-a,,,,AAXX 13004 07607 02458 83502 10170 20170 30096 40166 50006 60096 76198 878// 90000 333 60027=
07607,1997-09-13 03:00:00,17,1016.7,0.1,100,17,8000,3.704,,,160,,,,3,,,,,,61,wg-a,,,,AAXX 13034 07607 12458 81602 10170 20170 30097 40167 53001 60037 76162 878// 90300=
07607,1997-09-13 06:00:00,16,1017.6,0.9,100,16,500,3.704,,,290,16.3,19.7,,,,,,,,61,wg-a,,,,AAXX 13064 07607 02300 82902 10160 20160 30106 40176 53009 61000 76162 875// 90600 333 10197 20163 6018=
07607,1997-09-13 09:00:00,14,1020.4,2.7,100,14,8000,3.704,,,360,,,,6,,,,,,61,wg-a,,,,AAXX 13094 07607 12458 83602 10140 20140 30133 40204 53027 60067 76166 878// 90900=
07607,1997-09-13 18:00:00,17,1022.5,1,82,14,25000,0,,,0,14,18.2,,,,,,,,,wg-a,,,,AAXX 13184 07607 12/75 70000 10170 20140 30155 40225 53010 60006 83072 91800 333 10182 20140=
07607,1997-09-14 03:00:00,7,1023.8,-0.6,100,7,10000,0,,,0,,,,,,,,,,,wg-a,,,,AAXX 14034 07607 12/60 00000 10070 20070 30165 40238 56006 60006 80000 90300=
07607,1997-09-14 09:00:00,15,1025,0.8,77,11,15000,7.408,,,100,,,,,,,,,,,wg-a,,,,AAXX 14094 07607 12/65 51004 10150 20110 30179 40250 51008 60006 80002 90900=
07607,1997-09-14 15:00:00,19,1022.8,-1.7,46,7,20000,14.816,,,60,,,,,,,,,,,wg-a,,,,AAXX 14154 07607 12/70 70608 10190 20070 30158 40228 56017 60006 82032 91500=
07607,1997-09-14 18:00:00,16,1023,0.1,68,10,20000,3.704,,,20,5.4,20,,,,,,,,,wg-a,,,,AAXX 14184 07607 12/70 70202 10160 20100 30159 40230 53001 60006 80002 91800 333 10200 20054=
07607,1997-09-14 21:00:00,12,1023.5,0.4,88,10,20000,0,,,0,,,,,,,,,,,wg-a,,,,AAXX 14214 07607 12/70 30000 10120 20100 30163 40235 52004 60006 83030 92100=
07607,1997-09-15 00:00:00,10,1022.6,-0.9,93,9,20000,3.704,,,100,,,,,,,,,,,wg-a,,,,AAXX 15004 07607 12/70 71002 10100 20090 30154 40226 58009 60006 8703/ 90000=
07607,1997-09-15 09:00:00,15,1022.5,0.7,77,11,25000,0,,,0,,,,,,,,,,,wg-a,,,,AAXX 15094 07607 12/75 00000 10150 20110 30154 40225 52007 60006 80000 90900=
07607,1997-09-15 12:00:00,21,1021.9,-0.4,43,8,50000,3.704,,,330,,,,,,,,,,,wg-a,,,,AAXX 15124 07607 12/84 03302 10210 20080 30150 40219 58004 60006 80000 91200=
07607,1997-09-15 15:00:00,23,1020.8,-1.1,38,8,75000,3.704,,,50,,,,,,,,,,,wg-a,,,,AAXX 15154 07607 12/89 00502 10230 20080 30139 40208 58011 60006 80000 91500=
07607,1997-09-15 18:00:00,21,1021.1,0.3,53,11,0,3.704,,,120,5.3,23.7,,,,,,,,,wg-a,,,,AAXX 15184 07607 12/// /1202 10210 20110 30142 40211 52003 60006 91800 333 10237 20053=
07607,1997-09-15 21:00:00,13,1022.2,0.9,88,11,50000,0,,,0,,,,,,,,,,,wg-a,,,,AAXX 15214 07607 12/84 00000 10130 20110 30151 40222 52009 60006 80000 92100=
07607,1997-09-16 00:00:00,11,1022.4,0.1,94,10,20000,0,,,0,,,,,,,,,,,wg-a,,,,AAXX 16004 07607 12/70 00000 10110 20100 30152 40224 52001 60006 80000 90000=
07607,1997-09-16 03:00:00,9,1021.5,-0.9,100,9,20000,3.704,,,100,,,,,,,,,,,wg-a,,,,AAXX 16034 07607 12/70 01002 10090 20090 30143 40215 58009 60006 80000 90300=
07607,1997-09-16 06:00:00,8,1021.5,-0,100,8,20000,7.408,,,100,7.9,21.1,,,,,,,,,wg-a,,,,AAXX 16064 07607 02/70 41004 10080 20080 30143 40215 54000 60006 80002 90600 333 10211 20079 60004=
07607,1997-09-16 09:00:00,18,1021.5,0.2,77,14,500,11.112,,,110,,,,,,,,,,,wg-a,,,,AAXX 16094 07607 12/00 31106 10180 20140 30145 40215 50002 60006 80002 90900=
07607,1997-09-16 12:00:00,25,1020.1,-1.2,54,15,40000,7.408,,,130,,,,,,,,,,,wg-a,,,,AAXX 16124 07607 12/82 21304 10250 20150 30133 40201 58012 60006 80002 91200=
07607,1997-09-16 18:00:00,24,1018.5,-0.1,65,17,50000,3.704,,,70,8.3,27.2,,,,,,,,,wg-a,,,,AAXX 16184 07607 12/84 30702 10240 20170 30117 40185 55001 60006 80002 91800 333 10272 20083=
07607,1997-09-17 06:00:00,12,1020.4,0.8,100,12,20000,11.112,,,80,12.3,23.4,,,,,,,,,wg-a,,,,AAXX 17064 07607 02/70 10806 10120 20120 30133 40204 53008 60006 80001 90600 333 10234 20123 60004=
07607,1997-09-17 09:00:00,20,1021.2,1,73,15,20000,11.112,,,90,,,,,,,,,,,wg-a,,,,AAXX 17094 07607 12/70 10906 10200 20150 30143 40212 51010 60006 80001 90900=
07607,1997-09-17 12:00:00,27,1020.7,-0.4,51,16,20000,11.112,,,110,,,,,,,,,,,wg-a,,,,AAXX 17124 07607 12/70 21106 10270 20160 30139 40207 58004 60006 80001 91200=
07607,1997-09-17 15:00:00,28,1019.8,-0.8,42,14,20000,14.816,,,110,,,,,,,,,,,wg-a,,,,AAXX 17154 07607 12/70 31108 10280 20140 30131 40198 56008 60006 80001 91500=
07607,1997-09-17 18:00:00,24,1020.1,0.2,65,17,10000,3.704,,,20,12.5,28.5,,,,,,,,,wg-a,,,,AAXX 17184 07607 12/60 /0202 10240 20170 30133 40201 53002 60006 91800 333 10285 20125=
07607,1997-09-17 21:00:00,18,1021.3,1,83,15,20000,7.408,,,80,,,,,,,,,,,wg-a,,,,AAXX 17214 07607 12/70 50804 10180 20150 30143 40213 51010 60006 80002 92100=
07607,1997-09-18 09:00:00,19,1022.4,0.7,83,16,16000,11.112,,,110,,,,,,,,,,,wg-a,,,,AAXX 18094 07607 12/66 01106 10190 20160 30154 40224 51007 60006 80000 90900=
07607,1997-09-18 12:00:00,26,1021.3,-0.9,61,18,25000,7.408,,,60,,,,,,,,,,,wg-a,,,,AAXX 18124 07607 12/75 00604 10260 20180 30145 40213 58009 60006 80000 91200=
07607,1997-09-18 15:00:00,29,1020.1,-1.1,40,14,25000,7.408,,,130,,,,,,,,,,,wg-a,,,,AAXX 18154 07607 12775 11304 10290 20140 30134 40201 56011 60006 81100 91500=
07607,1997-09-18 18:00:00,25,1020.2,-0,54,15,25000,3.704,,,100,12.3,29.1,,,,,,,,,wg-a,,,,AAXX 18184 07607 12/75 01002 10250 20150 30134 40202 55000 60006 80000 91800 333 10291 20123=
07607,1997-09-18 21:00:00,17,1021.1,0.7,94,16,10000,3.704,,,80,,,,,,,,,,,wg-a,,,,AAXX 18214 07607 12/60 /0802 10170 20160 30141 40211 51007 60006 92100=
07607,1997-09-19 00:00:00,14,1021.1,-0.1,100,14,20000,3.704,,,90,,,,,,,,,,,wg-a,,,,AAXX 19004 07607 12/70 00902 10140 20140 30140 40211 58001 60006 80000 90000=
07607,1997-09-19 03:00:00,11,1020.7,-0.5,100,11,10000,7.408,,,80,,,,,,,,,,,wg-a,,,,AAXX 19034 07607 12/60 00804 10110 20110 30135 40207 57005 60006 80000 90300=
07607,1997-09-19 06:00:00,10,1021.4,0.7,100,10,10000,7.408,,,100,10.1,24.8,,,,,,,,,wg-a,,,,AAXX 19064 07607 02/60 /1004 10100 20100 30142 40214 53007 60006 90600 333 10248 20101 60004=
07607,1997-09-19 09:00:00,20,1021.4,0.3,78,16,20000,0,,,0,,,,,,,,,,,wg-a,,,,AAXX 19094 07607 12/70 00000 10200 20160 30145 40214 51003 60006 80000 90900=
07607,1997-09-19 12:00:00,28,1020.2,-1.1,45,15,500,7.408,,,130,,,,,,,,,,,wg-a,,,,AAXX 19124 07607 12/00 01304 10280 20150 30134 40202 57011 60006 80000 91200=
07607,1997-09-19 15:00:00,30,1019,-1.1,35,13,500,3.704,,,90,,,,,,,,,,,wg-a,,,,AAXX 19154 07607 12700 10902 10300 20130 30123 40190 56011 60006 81100 91500=
07607,1997-09-19 18:00:00,25,1018.9,-0.2,57,16,500,3.704,,,80,10.2,29.8,,,,,,,,,wg-a,,,,AAXX 19184 07607 12/00 20802 10250 20160 30121 40189 55002 60006 80002 91800 333 10298 20102=
07607,1997-09-20 00:00:00,20,1021.2,0.2,94,19,10000,11.112,,,230,,,,,,,,,,,wg-a,,,,AAXX 20004 07607 12460 32306 10200 20190 30143 40212 51002 60006 83600 90000=
07607,1997-09-20 03:00:00,19,1020.7,-0.6,94,18,8000,7.408,,,200,,,,,,,,,,,wg-a,,,,AAXX 20034 07607 12458 /2004 10190 20180 30137 40207 58006 60006 86600 90300=
07607,1997-09-20 06:00:00,18,1020.9,0.2,100,18,3000,7.408,,,220,17.8,24.8,,,,,,,,10,wg-a,,,,AAXX 20064 07607 02430 72204 10180 20180 30139 40209 53002 60006 71011 87600 90600 333 10248 20178 60004=
07607,1997-09-20 09:00:00,21,1021.7,0.9,88,19,4000,11.112,,,250,,,,,,,,,,,wg-a,,,,AAXX 20094 07607 12/40 /2506 10210 20190 30148 40217 51009 60006 90900=
07607,1997-09-20 18:00:00,21,1021,0.4,88,19,8000,7.408,,,300,17.9,24.6,,,,,,,,,wg-a,,,,AAXX 20184 07607 12558 73004 10210 20190 30141 40210 53004 60006 878// 91800 333 10246 20179=
07607,1997-09-20 21:00:00,18,1022.2,1.1,100,18,8000,7.408,,,270,,,,,,,,,,,wg-a,,,,AAXX 20214 07607 12658 52704 10180 20180 30152 40222 51011 60006 82272 92100=
07607,1997-09-21 00:00:00,17,1022.2,0,100,17,3000,3.704,,,210,,,,,,,,,,10,wg-a,,,,AAXX 21004 07607 12430 72102 10170 20170 30152 40222 50000 60006 71011 876// 90000=
07607,1997-09-21 03:00:00,17,1021.7,-0.5,100,17,300,3.704,,,210,,,,,,,,,,44,wg-a,,,,AAXX 21034 07607 12203 72102 10170 20170 30147 40217 58005 60006 74442 876// 90300=
07607,1997-09-21 06:00:00,17,1021.6,-0.1,100,17,300,0,,,0,16.3,21.4,,,,,,,,44,wg-a,,,,AAXX 21064 07607 02203 70000 10170 20170 30146 40216 57001 60006 74442 876// 90600 333 10214 20163 60004=
07607,1997-09-21 12:00:00,23,1021.7,-0.5,73,18,10000,3.704,,,330,,,,,,,,,,3,wg-a,,,,AAXX 21124 07607 12460 73302 10230 20180 30148 40217 58005 60006 70342 85802 91200=
07607,1997-09-21 21:00:00,19,1022.2,1.2,88,17,8000,7.408,,,290,,,,,,,,,,,wg-a,,,,AAXX 21214 07607 12758 72904 10190 20170 30152 40222 50012 60006 82532 92100=
07607,1997-09-22 00:00:00,17,1021.7,-0.5,100,17,8000,7.408,,,280,,,,,,,,,,,wg-a,,,,AAXX 22004 07607 12/58 /2804 10170 20170 30147 40217 58005 60006 90000=
07607,1997-09-22 03:00:00,17,1021.3,-0.4,100,17,500,0,,,0,,,,,,,,,,,wg-a,,,,AAXX 22034 07607 12700 70000 10170 20170 30143 40213 58004 60006 875// 90300=
07607,1997-09-22 09:00:00,19,1022.1,0.6,88,17,4000,0,,,0,,,,,,,,,,10,wg-a,,,,AAXX 22094 07607 12340 70000 10190 20170 30151 40221 53006 60006 71022 875// 90900=
07607,1997-09-22 12:00:00,23,1020.8,-1.2,73,18,8000,7.408,,,70,,,,,,,,,,,wg-a,,,,AAXX 22124 07607 12558 70704 10230 20180 30139 40208 56012 60006 878// 91200=
07607,1997-09-22 18:00:00,22,1019.1,-0.1,78,18,8000,3.704,,,20,16.8,25.1,,,,,,,,,wg-a,,,,AAXX 22184 07607 12/58 20202 10220 20180 30122 40191 55001 60006 80002 91800 333 10251 20168=
07607,1997-09-22 21:00:00,18,1019.8,0.6,94,17,8000,0,,,0,,,,,,,,,,,wg-a,,,,AAXX 22214 07607 12/58 20000 10180 20170 30128 40198 51006 60006 80002 92100=
07607,1997-09-23 00:00:00,16,1019,-0.8,100,16,4000,3.704,,,40,,,,,,,,,,10,wg-a,,,,AAXX 23004 07607 12/40 20402 10160 20160 30120 40190 58008 60006 71000 80002 90000=
07607,1997-09-23 03:00:00,14,1018.4,-0.7,100,14,3000,0,,,0,,,,,,,,,,10,wg-a,,,,AAXX 23034 07607 12/30 20000 10140 20140 30113 40184 57007 60006 71000 80002 90300=
07607,1997-09-23 06:00:00,13,1018.4,-0,100,13,2000,3.704,,,60,12.8,21.5,,,,,,,,10,wg-a,,,,AAXX 23064 07607 02420 70602 10130 20130 30113 40184 55000 60006 71011 84502 90600 333 10215 20128 60004=
07607,1997-09-23 09:00:00,20,1018.4,0.2,83,17,6000,7.408,,,100,,,,,,,,,,,wg-a,,,,AAXX 23094 07607 12756 41004 10200 20170 30115 40184 50002 60006 81502 90900=
07607,1997-09-23 12:00:00,26,1017.6,-0.7,58,17,25000,7.408,,,80,,,,,,,,,,,wg-a,,,,AAXX 23124 07607 12/75 50804 10260 20170 30108 40176 58007 60006 80002 91200=
07607,1997-09-23 15:00:00,28,1016.4,-1.1,48,16,500,11.112,,,90,,,,,,,,,,,wg-a,,,,AAXX 23154 07607 12500 50906 10280 20160 30097 40164 56011 60006 81102 91500=
07607,1997-09-23 21:00:00,17,1017.8,1,94,16,25000,0,,,0,,,,,,,,,,,wg-a,,,,AAXX 23214 07607 12/75 00000 10170 20160 30108 40178 51010 60006 80000 92100=
07607,1997-09-24 00:00:00,14,1017.4,-0.5,100,14,20000,7.408,,,60,,,,,,,,,,,wg-a,,,,AAXX 24004 07607 12/70 00604 10140 20140 30103 40174 58005 60006 80000 90000=
07607,1997-09-24 12:00:00,28,1017.1,-0.9,42,14,500,7.408,,,100,,,,,,,,,,,wg-a,,,,AAXX 24124 07607 12/00 31004 10280 20140 30104 40171 58009 60006 80002 91200=
07607,1997-09-24 15:00:00,28,1015.8,-1.3,37,12,40000,14.816,,,100,,,,,,,,,,,wg-a,,,,AAXX 24154 07607 12/82 31008 10280 20120 30091 40158 56013 60006 80002 91500=
07607,1997-09-24 18:00:00,23,1016.3,0.4,61,15,25000,0,,,0,11.1,28.8,,,,,,,,,wg-a,,,,AAXX 24184 07607 12/75 30000 10230 20150 30095 40163 53004 60006 80002 91800 333 10288 20111=
07607,1997-09-25 00:00:00,19,1018.2,0.1,94,18,1600,11.112,,,240,,,,,,,,,,28,wg-a,,,,AAXX 25004 07607 12116 72406 10190 20180 30113 40182 53001 60006 72841 877// 90000=
07607,1997-09-25 06:00:00,17,1018.8,0.4,100,17,100,3.704,,,110,16.2,22.9,,,,,,,,47,wg-a,,,,AAXX 25064 07607 02/01 91102 10170 20170 30118 40188 53004 60006 74742 89/// 90600 333 10229 20162 60004=
07607,1997-09-25 12:00:00,22,1020.2,0,78,18,8000,3.704,,,80,,,,,,,,,,1,wg-a,,,,AAXX 25124 07607 12458 70802 10220 20180 30133 40202 50000 60006 70142 875// 91200=
07607,1997-09-26 00:00:00,14,1020.3,-0.3,100,14,6000,3.704,,,80,,,,,,,,,,,wg-a,,,,AAXX 26004 07607 12/56 10802 10140 20140 30132 40203 56003 60006 80001 90000=
07607,1997-09-26 06:00:00,12,1020.1,0.2,100,12,3000,3.704,,,80,11,21,,,,,,,,10,wg-a,,,,AAXX 26064 07607 02230 30802 10120 20120 30130 40201 52002 60006 71000 82602 90600 333 10210 20110 60004=
07607,1997-09-26 09:00:00,19,1020.3,0.3,88,17,8000,7.408,,,90,,,,,,,,,,,wg-a,,,,AAXX 26094 07607 12/58 20904 10190 20170 30133 40203 51003 60006 80002 90900=
07607,1997-09-26 12:00:00,25,1018.7,-1.4,61,17,500,0,,,0,,,,,,,,,,,wg-a,,,,AAXX 26124 07607 12/00 30000 10250 20170 30119 40187 58014 60006 80002 91200=
07607,1997-09-26 15:00:00,26,1017.2,-1.5,48,14,500,7.408,,,60,,,,,,,,,,,wg-a,,,,AAXX 26154 07607 12/00 60604 10260 20140 30104 40172 56015 60006 80002 91500=
07607,1997-09-26 18:00:00,22,1017.2,-0.1,73,17,20000,3.704,,,60,11.9,26.9,,,,,,,,,wg-a,,,,AAXX 26184 07607 12/70 60602 10220 20170 30103 40172 57001 60006 80002 91800 333 10269 20119=
07607,1997-09-26 21:00:00,16,1017.2,-0.1,100,16,15000,0,,,0,,,,,,,,,,,wg-a,,,,AAXX 26214 07607 12/65 20000 10160 20160 30102 40172 58001 60006 80002 92100=
07607,1997-09-27 00:00:00,14,1016.9,-0.4,100,14,10000,7.408,,,90,,,,,,,,,,,wg-a,,,,AAXX 27004 07607 12/60 10904 10140 20140 30098 40169 58004 60006 80001 90000=
07607,1997-09-27 06:00:00,11,1015.8,-0.3,100,11,6000,3.704,,,60,10.7,21.6,,,,,,,,11,wg-a,,,,AAXX 27064 07607 02/56 30602 10110 20110 30087 40158 55003 60006 71100 80004 90600 333 10216 20107 60004=
07607,1997-09-27 12:00:00,27,1014,-1.3,51,16,20000,3.704,,,100,,,,,,,,,,,wg-a,,,,AAXX 27124 07607 12/70 41002 10270 20160 30073 40140 58013 60006 80001 91200=
07607,1997-09-27 18:00:00,21,1013.4,0.4,78,17,15000,0,,,0,10.6,27.8,,,,,,,,,wg-a,,,,AAXX 27184 07607 12/65 60000 10210 20170 30065 40134 53004 60006 80002 91800 333 10278 20106=
07607,1997-09-28 00:00:00,14,1013.7,0.3,94,13,15000,0,,,0,,,,,,,,,,,wg-a,,,,AAXX 28004 07607 12/65 00000 10140 20130 30067 40137 53003 60006 80000 90000=
07607,1997-09-28 03:00:00,11,1013.4,-0.4,100,11,10000,7.408,,,80,,,,,,,,,,,wg-a,,,,AAXX 28034 07607 12/60 00804 10110 20110 30063 40134 58004 60006 80000 90300=
07607,1997-09-28 09:00:00,18,1014.8,0.9,88,16,10000,3.704,,,100,,,,,,,,,,,wg-a,,,,AAXX 28094 07607 12/60 01002 10180 20160 30079 40148 51009 60006 80000 90900=
07607,1997-09-28 12:00:00,26,1013.9,-0.7,54,16,0,3.704,,,120,,,,,,,,,,,wg-a,,,,AAXX 28124 07607 12/// /1202 10260 20160 30072 40139 58007 60006 91200=
07607,1997-09-28 15:00:00,28,1013.1,-0.8,37,12,20000,7.408,,,140,,,,,,,,,,,wg-a,,,,AAXX 28154 07607 12/70 21404 10280 20120 30064 40131 56008 60006 80001 91500=
07607,1997-09-28 18:00:00,22,1014.2,1,73,17,25000,0,,,0,9.5,28.4,,,,,,,,,wg-a,,,,AAXX 28184 07607 12/75 40000 10220 20170 30074 40142 53010 60006 83031 91800 333 10284 20095=
07607,1997-09-28 21:00:00,19,1015.7,1.4,88,17,10000,3.704,,,100,,,,,,,,,,,wg-a,,,,AAXX 28214 07607 12/60 /1002 10190 20170 30088 40157 51014 60006 92100=
07607,1997-09-29 00:00:00,15,1016.3,0.5,94,14,20000,0,,,0,,,,,,,,,,,wg-a,,,,AAXX 29004 07607 12/70 00000 10150 20140 30093 40163 51005 60006 80000 90000=
07607,1997-09-29 09:00:00,20,1019.7,1.6,73,15,10000,3.704,,,120,,,,,,,,,,,wg-a,,,,AAXX 29094 07607 12/60 31202 10200 20150 30128 40197 51016 60006 80002 90900=
07607,1997-09-29 15:00:00,29,1018.8,-0.5,40,14,50000,3.704,,,60,,,,,,,,,,,wg-a,,,,AAXX 29154 07607 12/84 30602 10290 20140 30121 40188 56005 60006 80002 91500=
07607,1997-09-29 18:00:00,22,1019.7,0.7,73,17,10000,7.408,,,30,10.7,29.1,,,,,,,,,wg-a,,,,AAXX 29184 07607 12/60 /0304 10220 20170 30128 40197 53007 60006 91800 333 10291 20107=
07607,1997-09-29 21:00:00,17,1021.1,1.3,94,16,500,3.704,,,80,,,,,,,,,,,wg-a,,,,AAXX 29214 07607 12/00 00802 10170 20160 30141 40211 51013 60006 80000 92100=
07607,1997-09-30 03:00:00,12,1022.2,0.4,100,12,20000,3.704,,,100,,,,,,,,,,,wg-a,,,,AAXX 30034 07607 12/70 01002 10120 20120 30151 40222 52004 60006 80000 90300=
07607,1997-09-30 06:00:00,10,1022.7,0.4,100,10,4000,3.704,,,90,10.1,22.3,,,,,,,,10,wg-a,,,,AAXX 30064 07607 02/40 /0902 10100 20100 30155 40227 53004 60006 71000 80002 90600 333 10223 20101 60004=
07607,1997-09-30 09:00:00,20,1022.9,0.4,78,16,8000,7.408,,,120,,,,,,,,,,,wg-a,,,,AAXX 30094 07607 12/58 /1204 10200 20160 30159 40229 51004 60006 80000 90900=
07607,1997-09-30 12:00:00,28,1022.1,-0.6,42,14,25000,11.112,,,100,,,,,,,,,,,wg-a,,,,AAXX 30124 07607 12/75 01006 10280 20140 30153 40221 58006 60006 80000 91200=
07607,1997-09-30 18:00:00,23,1020.7,-0.2,65,16,500,3.704,,,40,10.2,29.8,,,,,,,,,wg-a,,,,AAXX 30184 07607 12/00 50402 10230 20160 30138 40207 55002 60006 80001 91800 333 10298 20102=
07607,1997-10-01 00:00:00,14,1021.3,-0.7,94,13,10000,0,,,0,,,,,,,,,,,wg-a,,,,AAXX 01004 07607 12/60 00000 10140 20130 30142 40213 56007 60006 80000 90000=
07607,1997-10-01 06:00:00,11,1021.4,0.4,94,10,10000,3.704,,,40,10.4,22.5,,,,,,,,11,wg-a,,,,AAXX 01064 07607 02/60 30402 10110 20100 30142 40214 53004 60006 71100 80001 90600 333 10225 20104 60004=
07607,1997-10-01 12:00:00,28,1019.9,-1.1,42,14,500,0,,,0,,,,,,,,,,,wg-a,,,,AAXX 01124 07607 12/00 20000 10280 20140 30132 40199 58011 60006 80001 91200=
07607,1997-10-01 18:00:00,23,1018.3,0.2,57,14,20000,7.408,,,320,10.3,30.4,,,,,,,,,wg-a,,,,AAXX 01184 07607 12/70 33204 10230 20140 30114 40183 53002 60006 80001 91800 333 10304 20103=
07607,1997-10-02 00:00:00,13,1018.6,-0.3,94,12,15000,0,,,0,,,,,,,,,,,wg-a,,,,AAXX 02004 07607 12/65 00000 10130 20120 30115 40186 58003 60006 80000 90000=
07607,1997-10-02 03:00:00,10,1018,-0.7,100,10,10000,3.704,,,60,,,,,,,,,,,wg-a,,,,AAXX 02034 07607 12/60 00602 10100 20100 30108 40180 56007 60006 80000 90300=
07607,1997-10-02 06:00:00,9,1018.3,0.3,93,8,2500,0,,,0,8.3,23.4,,,,,,,,10,wg-a,,,,AAXX 02064 07607 02125 70000 10090 20080 30111 40183 52003 60006 71011 876// 90600 333 10234 20083 60004=
07607,1997-10-02 09:00:00,16,1018.7,0.6,100,16,2500,0,,,0,,,,,,,,,,10,wg-a,,,,AAXX 02094 07607 12125 /0000 10160 20160 30117 40187 53006 60006 71041 86600 90900=
07607,1997-10-02 15:00:00,28,1016.4,-1.3,37,12,40000,7.408,,,320,,,,,,,,,,,wg-a,,,,AAXX 02154 07607 12/82 03204 10280 20120 30097 40164 56013 60006 80000 91500=
07607,1997-10-02 18:00:00,21,1017,0.4,69,15,500,11.112,,,260,8.5,28.1,,,,,,,,,wg-a,,,,AAXX 02184 07607 12/00 02606 10210 20150 30101 40170 53004 60006 80000 91800 333 10281 20085=
07607,1997-10-02 21:00:00,17,1017.7,0.6,82,14,20000,3.704,,,220,,,,,,,,,,,wg-a,,,,AAXX 02214 07607 12/70 02202 10170 20140 30107 40177 51006 60006 80000 92100=
07607,1997-10-03 00:00:00,13,1017.8,0,100,13,4000,0,,,0,,,,,,,,,,10,wg-a,,,,AAXX 03004 07607 12/40 00000 10130 20130 30107 40178 50000 60006 71000 80000 90000=
07607,1997-10-03 03:00:00,14,1017.7,-0.1,100,14,100,3.704,,,150,,,,,,,,,,45,wg-a,,,,AAXX 03034 07607 12/01 91502 10140 20140 30106 40177 58001 60006 74541 89/// 90300=
07607,1997-10-03 06:00:00,13,1017.8,0.1,100,13,300,3.704,,,340,13,21.4,,,,,,,,44,wg-a,,,,AAXX 03064 07607 02103 83402 10130 20130 30107 40178 53001 60006 74441 877// 90600 333 10214 20130 60004=
07607,1997-10-03 09:00:00,16,1018.5,0.8,100,16,400,0,,,0,,,,,,,,,,44,wg-a,,,,AAXX 03094 07607 12004 80000 10160 20160 30115 40185 51008 60006 74444 887// 90900=
07607,1997-10-03 12:00:00,24,1017.6,-0.7,65,17,15000,3.704,,,10,,,,,,,,,,3,wg-a,,,,AAXX 03124 07607 12565 20102 10240 20170 30108 40176 58007 60006 70341 82100 91200=
07607,1997-10-03 18:00:00,23,1017.7,1.1,69,17,25000,3.704,,,230,13,27.1,,,,,,,,,wg-a,,,,AAXX 03184 07607 12/75 12302 10230 20170 30108 40177 53011 60006 80001 91800 333 10271 20130=
07607,1997-10-03 21:00:00,18,1019.1,1.3,94,17,15000,3.704,,,230,,,,,,,,,,,wg-a,,,,AAXX 03214 07607 12/65 02302 10180 20170 30121 40191 51013 60006 80000 92100=
07607,1997-10-04 00:00:00,14,1019,-0.2,100,14,10000,0,,,0,,,,,,,,,,,wg-a,,,,AAXX 04004 07607 12/60 00000 10140 20140 30119 40190 57002 60006 80000 90000=
07607,1997-10-04 03:00:00,16,1019.3,0.4,100,16,300,7.408,,,200,,,,,,,,,,45,wg-a,,,,AAXX 04034 07607 12/03 92004 10160 20160 30123 40193 51004 60006 74541 89/// 90300=
07607,1997-10-04 06:00:00,17,1019.8,0.5,100,17,3000,3.704,,,220,13.8,22.6,,,,,,,,10,wg-a,,,,AAXX 04064 07607 02130 82202 10170 20170 30128 40198 51005 60006 71041 886// 90600 333 10226 20138 60004=
07607,1997-10-04 12:00:00,22,1019.6,-1,73,17,10000,3.704,,,210,,,,,,,,,,,wg-a,,,,AAXX 04124 07607 12/60 02102 10220 20170 30127 40196 58010 60006 80000 91200=
07607,1997-10-04 15:00:00,26,1017.8,-1.7,58,17,20000,7.408,,,80,,,,,,,,,,,wg-a,,,,AAXX 04154 07607 12/70 00804 10260 20170 30110 40178 56017 60006 80000 91500=
07607,1997-10-05 00:00:00,12,1017,-1,100,12,10000,3.704,,,80,,,,,,,,,,,wg-a,,,,AAXX 05004 07607 12/60 /0802 10120 20120 30099 40170 58010 60006 90000=
07607,1997-10-05 03:00:00,10,1015.9,-1.2,100,10,10000,7.408,,,100,,,,,,,,,,,wg-a,,,,AAXX 05034 07607 12/60 01004 10100 20100 30087 40159 58012 60006 80000 90300=
07607,1997-10-05 09:00:00,19,1014.7,-0,73,14,500,14.816,,,100,,,,,,,,,,,wg-a,,,,AAXX 05094 07607 12/00 01008 10190 20140 30078 40147 55000 60006 80000 90900=
07607,1997-10-05 15:00:00,28,1010,-2.8,48,16,500,14.816,,,110,,,,,,,,,,,wg-a,,,,AAXX 05154 07607 12/00 31108 10280 20160 30033 40100 56028 60006 80004 91500=
07607,1997-10-05 18:00:00,20,1009.2,-1,88,18,25000,3.704,,,80,9.1,28.2,,,,,,,,,wg-a,,,,AAXX 05184 07607 12/75 60802 10200 20180 30023 40092 56010 60006 81032 91800 333 10282 20091=
07607,1997-10-05 21:00:00,19,1009.3,0.1,88,17,15000,7.408,,,90,,,,,,,,,,,wg-a,,,,AAXX 05214 07607 12/65 70904 10190 20170 30024 40093 52001 60006 81032 92100=
07607,1997-10-06 00:00:00,18,1008.9,-0.4,94,17,10000,3.704,,,60,,,,,,,,,,,wg-a,,,,AAXX 06004 07607 12/60 60602 10180 20170 30020 40089 56004 60006 80002 90000=
07607,1997-10-06 06:00:00,16,1007.6,-0.2,100,16,2000,7.408,,,100,15.2,19.9,,,,,,,,10,wg-a,,,,AAXX 06064 07607 02/20 81004 10160 20160 30006 40076 57002 60006 71011 8707/ 90600 333 10199 20152 60004=
07607,1997-10-06 09:00:00,18,1008.4,0.9,100,18,6000,7.408,,,80,,,,,,,,,,,wg-a,,,,AAXX 06094 07607 12/56 70804 10180 20180 30015 40084 53009 60006 84082 90900=
07607,1997-10-06 12:00:00,20,1008.1,-0.2,88,18,6000,0,,,0,,,,,,,,,,2,wg-a,,,,AAXX 06124 07607 02756 70000 10200 20180 30013 40081 58002 61000 70262 8557/ 91200 333 6100=
07607,1997-10-06 15:00:00,21,1006.7,-1.4,88,19,8000,7.408,,,130,,,,0,,,,,,3,wg-a,,,,AAXX 06154 07607 12558 71304 10210 20190 39999 40067 57014 60007 70362 8587/ 91500=
07607,1997-10-06 18:00:00,19,1006.2,-0.6,88,17,15000,7.408,,,100,15.4,21.8,,,,,,,,1,wg-a,,,,AAXX 06184 07607 12/65 61004 10190 20170 39993 40062 56006 60006 70162 83032 91800 333 10218 20154=
07607,1997-10-07 03:00:00,14,1006.7,0.2,100,14,10000,3.704,,,90,,,,,,,,,,,wg-a,,,,AAXX 07034 07607 12/60 40902 10140 20140 39997 40067 53002 60006 83032 90300=
07607,1997-10-07 06:00:00,12,1008,1.3,100,12,500,3.704,,,100,12.3,19,,,,,,,,11,wg-a,,,,AAXX 07064 07607 02700 /1002 10120 20120 30010 40080 53013 60006 71111 85500 90600 333 10190 20123 60004=
07607,1997-10-07 09:00:00,19,1010.1,2.2,88,17,8000,7.408,,,120,,,,,,,,,,,wg-a,,,,AAXX 07094 07607 12758 /1204 10190 20170 30032 40101 53022 60006 81532 90900=
07607,1997-10-07 12:00:00,25,1010.4,0.4,57,16,20000,14.816,,,200,,,,,,,,,,,wg-a,,,,AAXX 07124 07607 12570 /2008 10250 20160 30036 40104 51004 60006 84202 91200=
07607,1997-10-07 15:00:00,24,1010.8,0.4,61,16,20000,18.52,,,300,,,,,,,,,,,wg-a,,,,AAXX 07154 07607 12670 43010 10240 20160 30040 40108 53004 60006 83202 91500=
07607,1997-10-08 00:00:00,17,1015.4,0.5,94,16,10000,0,,,0,,,,,,,,,,,wg-a,,,,AAXX 08004 07607 12760 70000 10170 20160 30084 40154 51005 60006 87500 90000=
07607,1997-10-08 06:00:00,13,1014.7,-0.2,100,13,3000,3.704,,,70,12.8,19.6,,,,,,,,10,wg-a,,,,AAXX 08064 07607 02130 40702 10130 20130 30076 40147 55002 60006 71011 82701 90600 333 10196 20128 60004=
07607,1997-10-08 09:00:00,20,1015.3,0.8,83,17,10000,3.704,,,140,,,,,,,,,,,wg-a,,,,AAXX 08094 07607 12/60 /1402 10200 20170 30084 40153 53008 60006 90900=
07607,1997-10-08 12:00:00,26,1014.6,-0.6,51,15,20000,7.408,,,300,,,,,,,,,,,wg-a,,,,AAXX 08124 07607 12/70 53004 10260 20150 30078 40146 58006 60006 80001 91200=
07607,1997-10-08 15:00:00,28,1014,-0.5,45,15,11000,7.408,,,220,,,,,,,,,,,wg-a,,,,AAXX 08154 07607 12/61 /2204 10280 20150 30073 40140 58005 60006 91500=
07607,1997-10-08 18:00:00,21,1015.2,1,78,17,500,0,,,0,12.8,28.1,,,,,,,,,wg-a,,,,AAXX 08184 07607 12/00 20000 10210 20170 30083 40152 53010 60006 80001 91800 333 10281 20128=
07607,1997-10-08 21:00:00,16,1015.5,0.2,100,16,10000,7.408,,,90,,,,,,,,,,,wg-a,,,,AAXX 08214 07607 12/60 00904 10160 20160 30085 40155 50002 60006 80000 92100=
07607,1997-10-09 00:00:00,14,1016,0.4,100,14,10000,3.704,,,70,,,,,,,,,,,wg-a,,,,AAXX 09004 07607 12/60 00702 10140 20140 30089 40160 52004 60006 80000 90000=
07607,1997-10-09 03:00:00,13,1016.3,0.3,100,13,8000,7.408,,,100,,,,,,,,,,,wg-a,,,,AAXX 09034 07607 12/58 31004 10130 20130 30092 40163 53003 60006 82031 90300=
07607,1997-10-09 06:00:00,12,1017.9,1.6,100,12,8000,7.408,,,90,11.2,20.7,,,,,,,,,wg-a,,,,AAXX 09064 07607 02758 60904 10120 20120 30108 40179 53016 60006 84531 90600 333 10207 20112 60004=
07607,1997-10-09 09:00:00,20,1020.1,2.4,73,15,15000,3.704,,,110,,,,,,,,,,,wg-a,,,,AAXX 09094 07607 12765 51102 10200 20150 30132 40201 51024 60006 82581 90900=
07607,1997-10-09 12:00:00,26,1019.9,-0.1,58,17,500,11.112,,,50,,,,,,,,,,,wg-a,,,,AAXX 09124 07607 12600 40506 10260 20170 30131 40199 58001 60006 83230 91200=
07607,1997-10-09 15:00:00,28,1019.2,-0.6,51,17,500,3.704,,,230,,,,,,,,,,,wg-a,,,,AAXX 09154 07607 12600 52302 10280 20170 30125 40192 56006 60006 82231 91500=
07607,1997-10-09 18:00:00,22,1019.4,-0,73,17,500,11.112,,,40,12.1,28.3,,,,,,,,,wg-a,,,,AAXX 09184 07607 12/00 30406 10220 20170 30125 40194 55000 60006 81031 91800 333 10283 20121=
07607,1997-10-09 21:00:00,18,1020.6,1.1,94,17,15000,7.408,,,80,,,,,,,,,,,wg-a,,,,AAXX 09214 07607 12/65 30804 10180 20170 30136 40206 51011 60006 82031 92100=
07607,1997-10-10 00:00:00,17,1018.7,-1.9,100,17,10000,7.408,,,100,,,,,,,,,,,wg-a,,,,AAXX 10004 07607 12/60 71004 10170 20170 30117 40187 58019 60006 85032 90000=
07607,1997-10-10 03:00:00,15,1017.3,-1.4,100,15,8000,3.704,,,100,,,,,,,,,,,wg-a,,,,AAXX 10034 07607 12/58 41002 10150 20150 30103 40173 58014 60006 81032 90300=
07607,1997-10-10 06:00:00,15,1016.8,-0.5,100,15,7000,0,,,0,14.5,22.2,,,,,,,,,wg-a,,,,AAXX 10064 07607 02/57 /0000 10150 20150 30098 40168 56005 60006 84032 90600 333 10222 20145 60004=
07607,1997-10-10 09:00:00,20,1018,1.3,83,17,15000,11.112,,,230,,,,,,,,,,,wg-a,,,,AAXX 10094 07607 12665 72306 10200 20170 30111 40180 51013 60006 8453/ 90900=
07607,1997-10-10 12:00:00,25,1017.6,-0.3,57,16,20000,18.52,,,240,,,,,,,,,,,wg-a,,,,AAXX 10124 07607 12670 72410 10250 20160 30108 40176 57003 60006 8553/ 91200=
07607,1997-10-10 15:00:00,20,1017.5,-0.2,100,20,4500,18.52,,,240,,,,0,,,,,,58,wg-a,,,,AAXX 10154 07607 12445 72410 10200 20200 30106 40175 56002 60007 75865 878// 91500=
07607,1997-10-10 18:00:00,20,1018.1,0.6,100,20,2000,18.52,,,240,14.7,24.7,,1,,,,,,51,wg-a,,,,AAXX 10184 07607 12220 82410 10200 20200 30112 40181 53006 60017 75165 885// 91800 333 10247 20147=
07607,1997-10-10 21:00:00,20,1019.2,1.1,100,20,3000,11.112,,,230,,,,0,,,,,,10,wg-a,,,,AAXX 10214 07607 12230 82306 10200 20200 30123 40192 51011 60007 71052 885// 92100=
07607,1997-10-11 00:00:00,20,1018.6,-0.6,100,20,2000,14.816,,,230,,,,0,,,,,,10,wg-a,,,,AAXX 11004 07607 02220 82308 10200 20200 30117 40186 58006 60016 71052 885// 90000 333 60007=
07607,1997-10-11 03:00:00,20,1017.3,-1.3,100,20,3000,11.112,,,230,,,,1,,,,,,10,wg-a,,,,AAXX 11034 07607 12330 72306 10200 20200 30104 40173 58013 60017 71052 877// 90300=
07607,1997-10-11 12:00:00,22,1015.2,-1.7,88,20,15000,22.224,,,240,,,,,,,,,,25,wg-a,,,,AAXX 11124 07607 02465 82412 10220 20200 30084 40152 58017 60016 72586 878// 91200 333 61000=
07607,1997-10-11 15:00:00,20,1013.8,-1.5,100,20,6000,14.816,,,230,,,,1,,,,,,61,wg-a,,,,AAXX 11154 07607 12456 82308 10200 20200 30069 40138 56015 60017 76186 885// 91500=
07607,1997-10-11 18:00:00,20,1013.4,-0.4,100,20,500,18.52,,,250,19.4,22.3,,,,,,,,21,wg-a,,,,AAXX 11184 07607 02300 82510 10200 20200 30065 40134 58004 61000 72186 885// 91800 333 10223 20194 6003=
07607,1997-10-11 21:00:00,20,1014.5,1.1,94,19,500,35.188,,,260,,,,0,,,,,,1,wg-a,,,,AAXX 11214 07607 12400 72619 10200 20190 30076 40145 53011 60007 70165 878// 92100=
07607,1997-10-12 00:00:00,18,1014.2,-0.3,94,17,10000,25.928,,,240,,,,,,,,,,3,wg-a,,,,AAXX 12004 07607 12460 42414 10180 20170 30073 40142 56003 60006 70365 84800 90000=
07607,1997-10-12 03:00:00,17,1013.7,-0.6,100,17,500,18.52,,,270,,,,4,,,,,,21,wg-a,,,,AAXX 12034 07607 12400 72710 10170 20170 30067 40137 55006 60047 72161 87800 90300=
07607,1997-10-12 06:00:00,15,1015,1.3,88,13,10000,18.52,,,240,15,19.9,,,,,8,,,1,wg-a,,,,AAXX 12064 07607 02460 32410 10150 20130 30080 40150 53013 60006 70161 83800 90600 333 10199 20150 60084=
07607,1997-10-12 09:00:00,16,1017.6,2.6,82,13,15000,29.632,,51.856,260,,,,,,,,,,,wg-a,,,,AAXX 12094 07607 12465 62616 10160 20130 30106 40176 53026 60006 86800 90900 333 91028=
07607,1997-10-12 12:00:00,19,1017.3,-0.2,64,12,500,31.484,,,250,,,,,,,,,,1,wg-a,,,,AAXX 12124 07607 02500 /2517 10190 20120 30104 40173 58002 61000 70186 86800 91200 333 6100=
07607,1997-10-12 18:00:00,14,1019.4,0.9,88,12,20000,18.52,,,250,13.8,19.3,,0,,,,,,1,wg-a,,,,AAXX 12184 07607 02470 72510 10140 20120 30123 40194 53009 60006 70186 878// 91800 333 10193 20138 60007=
07607,1997-10-12 21:00:00,13,1020.4,1,94,12,20000,7.408,,,240,,,,,,,,,,3,wg-a,,,,AAXX 12214 07607 02670 72404 10130 20120 30133 40204 52010 61000 70362 875// 92100 333 ////=
07607,1997-10-13 00:00:00,12,1020.2,-0.2,94,11,20000,3.704,,,240,,,,,,,,,,21,wg-a,,,,AAXX 13004 07607 02670 /2402 10120 20110 30131 40202 58002 61000 72162 86500 90000 333 6100=
07607,1997-10-13 03:00:00,11,1020,-0.3,100,11,500,3.704,,,230,,,,,,,,,,44,wg-a,,,,AAXX 13034 07607 12405 42302 10110 20110 30128 40200 56003 60006 74441 84600 90300=
07607,1997-10-13 09:00:00,12,1023.2,1.7,88,10,15000,7.408,,,320,,,,,,,,,,,wg-a,,,,AAXX 13094 07607 12765 73204 10120 20100 30160 40232 51017 60006 8553/ 90900=
07607,1997-10-13 12:00:00,14,1022.9,-0.2,72,9,20000,14.816,,,280,,,,,,,,,,,wg-a,,,,AAXX 13124 07607 12570 72808 10140 20090 30158 40229 58002 60006 878// 91200=
07607,1997-10-13 15:00:00,13,1023.3,0.4,77,9,500,22.224,,,270,,,,,,,,,,3,wg-a,,,,AAXX 13154 07607 02500 72712 10130 20090 30162 40233 53004 61000 70386 878// 91500 333 ////=
07607,1997-10-13 18:00:00,12,1024,0.6,94,11,10000,0,,,0,9.3,14.6,,,,,,,,25,wg-a,,,,AAXX 13184 07607 02460 /0000 10120 20110 30168 40240 53006 61000 72586 85800 91800 333 10146 20093 6000=
07607,1997-10-13 21:00:00,11,1024.1,0.1,100,11,10000,7.408,,,230,,,,,,,,,,21,wg-a,,,,AAXX 13214 07607 02660 /2304 10110 20110 30169 40241 50001 61000 72162 86500 92100 333 ////=
07607,1997-10-14 00:00:00,10,1023.6,-0.5,100,10,10000,7.408,,,230,,,,0,,,,,,3,wg-a,,,,AAXX 14004 07607 02660 72304 10100 20100 30164 40236 58005 60006 70361 875// 90000 333 60007=
07607,1997-10-14 03:00:00,11,1023.3,-0.3,100,11,2500,7.408,,,260,,,,,,,,,,10,wg-a,,,,AAXX 14034 07607 02525 72604 10110 20110 30161 40233 58003 61000 71062 875// 90300 333 ////=
07607,1997-10-14 06:00:00,9,1024.9,1.5,93,8,8000,7.408,,,10,8.9,11.9,,,,,,,,3,wg-a,,,,AAXX 14064 07607 02658 /0104 10090 20080 30176 40249 53015 60006 70362 85530 90600 333 10119 20089 60004=
07607,1997-10-14 15:00:00,15,1026.4,-1.2,51,5,500,11.112,,,20,,,,,,,,,,,wg-a,,,,AAXX 14154 07607 12500 50206 10150 20050 30193 40264 56012 60006 83101 91500=
07607,1997-10-14 18:00:00,10,1027.3,0.7,76,6,11000,3.704,,,360,8.4,15.1,,,,,,,,,wg-a,,,,AAXX 14184 07607 12/61 /3602 10100 20060 30200 40273 53007 60006 91800 333 10151 20084=
07607,1997-10-15 00:00:00,4,1027.5,-0.8,100,4,15000,0,,,0,,,,,,,,,,,wg-a,,,,AAXX 15004 07607 12/65 10000 10040 20040 30201 40275 58008 60006 80001 90000=
07607,1997-10-15 03:00:00,2,1026.4,-1.2,100,2,15000,3.704,,,30,,,,,,,,,,,wg-a,,,,AAXX 15034 07607 12/65 30302 10020 20020 30189 40264 56012 60006 82031 90300=
07607,1997-10-15 06:00:00,4,1024.9,-1.4,100,4,10000,0,,,0,1.8,9.9,,,,,,,,,wg-a,,,,AAXX 15064 07607 02860 70000 10040 20040 30175 40249 56014 60006 8707/ 90600 333 10099 20018 60004=
07607,1997-10-15 09:00:00,11,1024.1,-0.6,76,7,20000,11.112,,,220,,,,,,,,,,,wg-a,,,,AAXX 15094 07607 12/70 72206 10110 20070 30169 40241 56006 60006 8703/ 90900=
07607,1997-10-15 12:00:00,16,1022.1,-1.9,63,9,25000,14.816,,,220,,,,,,,,,,,wg-a,,,,AAXX 15124 07607 12/75 72208 10160 20090 30150 40221 58019 60006 85072 91200=
07607,1997-10-15 18:00:00,14,1019.4,-1.2,94,13,8000,14.816,,,220,3.4,16,,,,,,,,51,wg-a,,,,AAXX 15184 07607 02458 82208 10140 20130 30123 40194 56012 61000 75165 875// 91800 333 10160 20034 6100=
07607,1997-10-15 21:00:00,14,1018.5,-0.9,100,14,6000,14.816,,,230,,,,2,,,,,,51,wg-a,,,,AAXX 15214 07607 12356 82308 10140 20140 30114 40185 56009 60027 75165 875// 92100=
07607,1997-10-16 00:00:00,14,1017.9,-0.6,100,14,6000,3.704,,,220,,,,2,,,,,,51,wg-a,,,,AAXX 16004 07607 02456 82202 10140 20140 30108 40179 58006 60046 75165 875// 90000 333 60027=
07607,1997-10-16 03:00:00,14,1017.5,-0.4,100,14,7000,3.704,,,290,,,,1,,,,,,21,wg-a,,,,AAXX 16034 07607 12457 82902 10140 20140 30104 40175 57004 60017 72165 877// 90300=
07607,1997-10-16 09:00:00,16,1018.8,0.9,100,16,10000,0,,,0,,,,,,,,,,,wg-a,,,,AAXX 16094 07607 12360 70000 10160 20160 30118 40188 51009 60006 865// 90900=
07607,1997-10-16 12:00:00,19,1018.1,-0.7,68,13,20000,3.704,,,250,,,,,,,,,,,wg-a,,,,AAXX 16124 07607 12370 /2502 10190 20130 30111 40181 58007 60006 86800 91200=
07607,1997-10-16 15:00:00,21,1016.2,-1.8,60,13,20000,3.704,,,220,,,,,,,,,,,wg-a,,,,AAXX 16154 07607 12570 /2202 10210 20130 30093 40162 57018 60006 85202 91500=
07607,1997-10-16 18:00:00,15,1016.1,-0.2,94,14,20000,0,,,0,13.4,20.8,,,,,,,,,wg-a,,,,AAXX 16184 07607 12/70 30000 10150 20140 30091 40161 55002 60006 80002 91800 333 10208 20134=
07607,1997-10-16 21:00:00,11,1015.6,-0.6,100,11,20000,7.408,,,60,,,,,,,,,,,wg-a,,,,AAXX 16214 07607 12/70 20604 10110 20110 30085 40156 58006 60006 80002 92100=
07607,1997-10-17 00:00:00,11,1014.3,-1.3,100,11,15000,11.112,,,100,,,,,,,,,,,wg-a,,,,AAXX 17004 07607 12/65 31006 10110 20110 30072 40143 58013 60006 80002 90000=
07607,1997-10-17 03:00:00,10,1012.9,-1.5,93,9,10000,14.816,,,80,,,,,,,,,,,wg-a,,,,AAXX 17034 07607 12/60 40808 10100 20090 30057 40129 58015 60006 80002 90300=
07607,1997-10-17 06:00:00,9,1012.1,-0.8,100,9,14000,11.112,,,70,8.6,15.2,,,,,,,,,wg-a,,,,AAXX 17064 07607 02/64 30706 10090 20090 30049 40121 56008 60006 80002 90600 333 10152 20086 60004=
07607,1997-10-17 09:00:00,16,1012.7,0.8,77,12,500,11.112,,,110,,,,,,,,,,,wg-a,,,,AAXX 17094 07607 12/00 21106 10160 20120 30057 40127 51008 60006 80002 90900=
07607,1997-10-17 12:00:00,22,1011.5,-1,60,14,500,11.112,,,90,,,,,,,,,,,wg-a,,,,AAXX 17124 07607 12/00 20906 10220 20140 30047 40115 58010 60006 80002 91200=
07607,1997-10-17 15:00:00,22,1010.9,-0.6,65,15,500,18.52,,,90,,,,,,,,,,,wg-a,,,,AAXX 17154 07607 12/00 40910 10220 20150 30041 40109 56006 60006 80002 91500=
07607,1997-10-17 18:00:00,17,1011.3,0.3,82,14,25000,14.816,,,90,8.9,23.6,,,,,,,,,wg-a,,,,AAXX 17184 07607 12/75 50908 10170 20140 30044 40113 53003 60006 80002 91800 333 10236 20089=
07607,1997-10-17 21:00:00,15,1012.1,0.7,94,14,20000,11.112,,,90,,,,,,,,,,,wg-a,,,,AAXX 17214 07607 12/70 10906 10150 20140 30051 40121 53007 60006 80002 92100=
07607,1997-10-18 00:00:00,13,1013.1,0.9,100,13,20000,11.112,,,80,,,,,,,,,,,wg-a,,,,AAXX 18004 07607 12/70 10806 10130 20130 30060 40131 51009 60006 80002 90000=
07607,1997-10-18 03:00:00,13,1013.9,0.8,100,13,10000,7.408,,,100,,,,,,,,,,,wg-a,,,,AAXX 18034 07607 12/60 31004 10130 20130 30068 40139 52008 60006 80002 90300=
07607,1997-10-18 06:00:00,13,1015,1.1,100,13,8000,11.112,,,100,12.8,17.4,,,,,,,,11,wg-a,,,,AAXX 18064 07607 02/58 21006 10130 20130 30079 40150 53011 60006 71100 80002 90600 333 10174 20128 60004=
07607,1997-10-18 09:00:00,18,1016,1.1,77,14,500,18.52,,,110,,,,,,,,,,,wg-a,,,,AAXX 18094 07607 12/00 11110 10180 20140 30090 40160 51011 60006 80002 90900=
07607,1997-10-18 12:00:00,25,1015.3,-0.5,54,15,500,18.52,,,100,,,,,,,,,,,wg-a,,,,AAXX 18124 07607 12/00 11010 10250 20150 30085 40153 58005 60006 80002 91200=
07607,1997-10-18 15:00:00,26,1014.6,-0.7,54,16,500,14.816,,,90,,,,,,,,,,,wg-a,,,,AAXX 18154 07607 12/00 10908 10260 20160 30078 40146 56007 60006 80002 91500=
07607,1997-10-18 18:00:00,21,1014.7,-0,78,17,500,18.52,,,100,12.8,26.3,,,,,,,,,wg-a,,,,AAXX 18184 07607 12/00 31010 10210 20170 30078 40147 55000 60006 82032 91800 333 10263 20128=
07607,1997-10-18 21:00:00,18,1014.6,-0.1,88,16,25000,22.224,,,100,,,,,,,,,,,wg-a,,,,AAXX 18214 07607 12/75 31012 10180 20160 30077 40146 58001 60006 83030 92100=
07607,1997-10-19 00:00:00,16,1015.4,0.7,94,15,10000,3.704,,,120,,,,,,,,,,,wg-a,,,,AAXX 19004 07607 12/60 /1202 10160 20150 30084 40154 53007 60006 90000=
07607,1997-10-19 03:00:00,15,1014,-1.4,94,14,20000,14.816,,,90,,,,,,,,,,,wg-a,,,,AAXX 19034 07607 12/70 20908 10150 20140 30070 40140 56014 60006 81032 90300=
07607,1997-10-19 06:00:00,15,1014.3,0.3,94,14,10000,7.408,,,110,14.5,20.9,,,,,,,,,wg-a,,,,AAXX 19064 07607 02660 71104 10150 20140 30073 40143 53003 60006 83532 90600 333 10209 20145 60004=
07607,1997-10-19 09:00:00,17,1014.8,0.5,88,15,15000,11.112,,,110,,,,,,,,,,,wg-a,,,,AAXX 19094 07607 12665 71106 10170 20150 30078 40148 53005 60006 83532 90900=
07607,1997-10-19 12:00:00,19,1014.4,-0.3,83,16,20000,7.408,,,110,,,,,,,,,,,wg-a,,,,AAXX 19124 07607 12670 71104 10190 20160 30075 40144 58003 60006 8553/ 91200=
07607,1997-10-19 15:00:00,22,1014.1,-0.3,73,17,11000,11.112,,,80,,,,,,,,,,,wg-a,,,,AAXX 19154 07607 12/61 /0806 10220 20170 30072 40141 58003 60006 91500=
07607,1997-10-19 18:00:00,20,1013.9,-0.2,83,17,20000,14.816,,,100,14.4,21.6,,,,,,,,,wg-a,,,,AAXX 19184 07607 12770 71008 10200 20170 30070 40139 55002 60006 875// 91800 333 10216 20144=
07607,1997-10-19 21:00:00,18,1013.6,-0.3,94,17,10000,11.112,,,110,,,,,,,,,,2,wg-a,,,,AAXX 19214 07607 02760 71106 10180 20170 30067 40136 56003 61000 70262 875// 92100 333 ////=
07607,1997-10-20 00:00:00,18,1012.6,-1,94,17,10000,7.408,,,100,,,,,,,,,,1,wg-a,,,,AAXX 20004 07607 02760 71004 10180 20170 30057 40126 58010 61000 70162 8657/ 90000 333 ////=
07607,1997-10-20 03:00:00,17,1011.6,-1.1,94,16,10000,3.704,,,100,,,,,,,,,,,wg-a,,,,AAXX 20034 07607 12860 71002 10170 20160 30046 40116 56011 60006 83017 90300=
07607,1997-10-20 06:00:00,16,1009.9,-1.7,100,16,15000,11.112,,,110,15.9,20,,,,,,,,,wg-a,,,,AAXX 20064 07607 02/65 71106 10160 20160 30029 40099 56017 60006 84037 90600 333 10200 20159 61000=
07607,1997-10-20 09:00:00,19,1009.6,-0.2,88,17,20000,14.816,,,100,,,,,,,,,,,wg-a,,,,AAXX 20094 07607 12/70 71008 10190 20170 30027 40096 57002 60006 85072 90900=
07607,1997-10-20 12:00:00,19,1007.9,-1.7,88,17,10000,7.408,,,90,,,,,,,,,,,wg-a,,,,AAXX 20124 07607 02/60 /0904 10190 20170 30010 40079 58017 61000 91200 333 ////=
07607,1997-10-20 15:00:00,21,1006.9,-0.9,83,18,500,3.704,,,120,,,,,,,,,,,wg-a,,,,AAXX 20154 07607 12800 71202 10210 20180 30001 40069 56009 60006 85072 91500=
07607,1997-10-20 21:00:00,19,1006.6,-0.2,94,18,10000,7.408,,,80,,,,,,,,,,,wg-a,,,,AAXX 20214 07607 12860 70804 10190 20180 39997 40066 57002 60006 87070 92100=
07607,1997-10-21 00:00:00,18,1006.2,-0.4,100,18,10000,7.408,,,100,,,,,,,,,,,wg-a,,,,AAXX 21004 07607 12860 41004 10180 20180 39993 40062 58004 60006 84070 90000=
07607,1997-10-21 03:00:00,17,1006,-0.2,100,17,10000,3.704,,,90,,,,,,,,,,,wg-a,,,,AAXX 21034 07607 12860 50902 10170 20170 39991 40060 58002 60006 85070 90300=
07607,1997-10-21 06:00:00,17,1006,0,100,17,8000,7.408,,,80,16.5,19.3,,,,,,,,,wg-a,,,,AAXX 21064 07607 02658 /0804 10170 20170 39991 40060 50000 60006 84570 90600 333 10193 20165 61000=
07607,1997-10-21 12:00:00,25,1007.6,0.4,57,16,25000,18.52,,,260,,,,,,,,,,,wg-a,,,,AAXX 21124 07607 12675 /2610 10250 20160 30009 40076 50004 60006 83801 91200=
07607,1997-10-21 15:00:00,25,1007.9,0.3,54,15,500,7.408,,,210,,,,,,,,,,,wg-a,,,,AAXX 21154 07607 12600 /2104 10250 20150 30012 40079 52003 60006 83802 91500=
07607,1997-10-21 18:00:00,19,1009.4,1.3,88,17,10000,0,,,0,16.4,25.9,,,,,,,,,wg-a,,,,AAXX 21184 07607 12/60 /0000 10190 20170 30025 40094 53013 60006 91800 333 10259 20164=
07607,1997-10-21 21:00:00,17,1010,0.6,94,16,10000,0,,,0,,,,,,,,,,,wg-a,,,,AAXX 21214 07607 12/60 60000 10170 20160 30031 40100 53006 60006 84032 92100=
07607,1997-10-22 00:00:00,15,1009.9,-0.2,100,15,500,0,,,0,,,,,,,,,,,wg-a,,,,AAXX 22004 07607 12/00 /0000 10150 20150 30029 40099 58002 60006 83032 90000=
07607,1997-10-22 06:00:00,13,1008.9,-0.5,100,13,3000,7.408,,,50,13,19.4,,,,,,,,10,wg-a,,,,AAXX 22064 07607 02230 70504 10130 20130 30019 40089 56005 60006 71042 8173/ 90600 333 10194 20130 60004=
07607,1997-10-22 09:00:00,15,1009.8,0.9,100,15,8000,0,,,0,,,,,,,,,,61,wg-a,,,,AAXX 22094 07607 02758 70000 10150 20150 30028 40098 51009 61000 76162 8253/ 90900 333 ////=
07607,1997-10-22 12:00:00,22,1008.9,-0.7,78,18,20000,0,,,0,,,,,,,,,,1,wg-a,,,,AAXX 22124 07607 02770 70000 10220 20180 30021 40089 58007 61000 70162 81532 91200 333 6100=
07607,1997-10-22 15:00:00,24,1008.2,-0.7,57,15,40000,7.408,,,210,,,,,,,,,,,wg-a,,,,AAXX 22154 07607 12582 72104 10240 20150 30014 40082 56007 60006 81232 91500=
07607,1997-10-22 21:00:00,15,1009.5,0.6,100,15,10000,0,,,0,,,,,,,,,,,wg-a,,,,AAXX 22214 07607 12/60 /0000 10150 20150 30025 40095 53006 60006 92100=
07607,1997-10-23 00:00:00,16,1010.1,0.6,94,15,10000,0,,,0,,,,,,,,,,,wg-a,,,,AAXX 23004 07607 12760 70000 10160 20150 30031 40101 51006 60006 875// 90000=
07607,1997-10-23 03:00:00,15,1008.8,-1.3,100,15,300,0,,,0,,,,,,,,,,45,wg-a,,,,AAXX 23034 07607 12/03 90000 10150 20150 30018 40088 58013 60006 74542 89/// 90300=
07607,1997-10-23 06:00:00,15,1009.7,0.9,100,15,3000,3.704,,,240,14.6,18.8,,,,,,,,10,wg-a,,,,AAXX 23064 07607 02230 72402 10150 20150 30027 40097 53009 60006 71042 876// 90600 333 10188 20146 60004=
07607,1997-10-23 09:00:00,16,1011.4,1.7,100,16,2000,0,,,0,,,,,,,,,,10,wg-a,,,,AAXX 23094 07607 12220 80000 10160 20160 30044 40114 53017 60006 71042 886// 90900=
07607,1997-10-23 12:00:00,17,1011.4,0.1,100,17,8000,7.408,,,200,,,,,,,,,,1,wg-a,,,,AAXX 23124 07607 12258 72004 10170 20170 30045 40114 50001 60006 70142 878// 91200=
07607,1997-10-23 15:00:00,20,1011,-0.4,78,16,15000,7.408,,,180,,,,,,,,,,,wg-a,,,,AAXX 23154 07607 12565 71804 10200 20160 30041 40110 55004 60006 86302 91500=
07607,1997-10-23 18:00:00,16,1012.8,1.7,100,16,6000,0,,,0,14.7,19.7,,,,,,,,,wg-a,,,,AAXX 23184 07607 12556 40000 10160 20160 30058 40128 53017 60006 84800 91800 333 10197 20147=
07607,1997-10-24 00:00:00,12,1015,0.8,100,12,500,0,,,0,,,,,,,,,,44,wg-a,,,,AAXX 24004 07607 12505 40000 10120 20120 30079 40150 51008 60006 74440 84500 90000=
07607,1997-10-24 03:00:00,11,1015.6,0.6,100,11,400,0,,,0,,,,,,,,,,44,wg-a,,,,AAXX 24034 07607 12104 30000 10110 20110 30085 40156 50006 60006 74440 83700 90300=
07607,1997-10-24 06:00:00,11,1016.6,1,100,11,400,3.704,,,20,10.4,16.5,,,,,,,,43,wg-a,,,,AAXX 24064 07607 02/04 90202 10110 20110 30095 40166 53010 60006 74341 89/// 90600 333 10165 20104 60004=
07607,1997-10-24 12:00:00,15,1018.5,0.2,88,13,15000,3.704,,,320,,,,,,,,,,1,wg-a,,,,AAXX 24124 07607 12365 73202 10150 20130 30114 40185 50002 60006 70142 878// 91200=
07607,1997-10-24 18:00:00,12,1019.7,0.9,94,11,3000,0,,,0,10.7,15.3,,,,,,,,10,wg-a,,,,AAXX 24184 07607 12/30 20000 10120 20110 30126 40197 53009 60006 71011 81032 91800 333 10153 20107=
07607,1997-10-24 21:00:00,7,1020.9,1,100,7,500,0,,,0,,,,,,,,,,,wg-a,,,,AAXX 24214 07607 12/00 00000 10070 20070 30136 40209 53010 60006 80000 92100=
07607,1997-10-25 00:00:00,5,1021.3,0.4,100,5,500,0,,,0,,,,,,,,,,,wg-a,,,,AAXX 25004 07607 12/00 /0000 10050 20050 30140 40213 51004 60006 90000=
07607,1997-10-25 03:00:00,2,1021.4,0,100,2,500,3.704,,,40,,,,,,,,,,,wg-a,,,,AAXX 25034 07607 12/00 00402 10020 20020 30140 40214 50000 60006 80000 90300=
07607,1997-10-25 06:00:00,0,1021.9,0.4,100,0,2000,3.704,,,60,0,11.6,,,,,,,,10,wg-a,,,,AAXX 25064 07607 02/20 00602 10000 20000 30144 40219 53004 60006 71000 80000 90600 333 10116 20000 60004=
07607,1997-10-25 09:00:00,7,1022.5,0.8,93,6,10000,0,,,0,,,,,,,,,,,wg-a,,,,AAXX 25094 07607 12/60 /0000 10070 20060 30152 40225 51008 60006 90900=
07607,1997-10-25 12:00:00,17,1021,-1.2,59,9,25000,7.408,,,80,,,,,,,,,,,wg-a,,,,AAXX 25124 07607 12/75 10804 10170 20090 30140 40210 58012 60006 80001 91200=
07607,1997-10-25 15:00:00,19,1020,-1,49,8,25000,11.112,,,100,,,,,,,,,,,wg-a,,,,AAXX 25154 07607 12/75 21006 10190 20080 30130 40200 56010 60006 80001 91500=
07607,1997-10-25 21:00:00,6,1021.1,0.3,93,5,6000,7.408,,,60,,,,,,,,,,,wg-a,,,,AAXX 25214 07607 12/56 00604 10060 20050 30138 40211 51003 60006 80000 92100=
07607,1997-10-26 03:00:00,3,1019.4,-0.8,100,3,3000,3.704,,,100,,,,,,,,,,10,wg-a,,,,AAXX 26034 07607 12/30 01002 10030 20030 30120 40194 58008 60006 71000 80000 90300=
07607,1997-10-26 06:00:00,3,1019.2,-0.2,100,3,8000,7.408,,,70,1.9,11.4,,,,,,,,,wg-a,,,,AAXX 26064 07607 02/58 00704 10030 20030 30118 40192 58002 60006 80000 90600 333 10114 20019 60004=
07607,1997-10-26 09:00:00,11,1019.6,0.6,87,9,25000,11.112,,,80,,,,,,,,,,,wg-a,,,,AAXX 26094 07607 12/75 10806 10110 20090 30124 40196 51006 60006 81030 90900=
07607,1997-10-26 12:00:00,20,1018.4,-0.9,53,10,500,11.112,,,90,,,,,,,,,,,wg-a,,,,AAXX 26124 07607 12700 10906 10200 20100 30115 40184 58009 60006 81500 91200=
07607,1997-10-26 15:00:00,22,1017.1,-1.3,43,9,500,3.704,,,90,,,,,,,,,,,wg-a,,,,AAXX 26154 07607 12700 20902 10220 20090 30102 40171 56013 60006 82500 91500=
07607,1997-10-26 18:00:00,13,1017.4,0.1,94,12,15000,3.704,,,80,3,22.8,,,,,,,,,wg-a,,,,AAXX 26184 07607 12765 20802 10130 20120 30103 40174 53001 60006 81502 91800 333 10228 20030=
07607,1997-10-26 21:00:00,9,1017.7,0.2,93,8,10000,3.704,,,100,,,,,,,,,,,wg-a,,,,AAXX 26214 07607 12760 41002 10090 20080 30105 40177 52002 60006 84500 92100=
07607,1997-10-27 00:00:00,9,1016.9,-0.8,100,9,10000,3.704,,,80,,,,,,,,,,,wg-a,,,,AAXX 27004 07607 12760 20802 10090 20090 30097 40169 56008 60006 82500 90000=
07607,1997-10-27 03:00:00,8,1015.9,-1,93,7,10000,7.408,,,60,,,,,,,,,,,wg-a,,,,AAXX 27034 07607 12/60 00604 10080 20070 30087 40159 56010 60006 80000 90300=
07607,1997-10-27 06:00:00,6,1015.2,-0.8,100,6,10000,7.408,,,60,6.2,13.1,,,,,,,,,wg-a,,,,AAXX 27064 07607 02/60 10604 10060 20060 30079 40152 57008 60006 81030 90600 333 10131 20062 60004=
07607,1997-10-27 09:00:00,13,1015.5,0.5,77,9,10000,11.112,,,90,,,,,,,,,,,wg-a,,,,AAXX 27094 07607 12/60 20906 10130 20090 30084 40155 51005 60006 82030 90900=
07607,1997-10-27 12:00:00,21,1013.9,-1.4,46,9,20000,14.816,,,80,,,,,,,,,,,wg-a,,,,AAXX 27124 07607 12/70 00808 10210 20090 30070 40139 58014 60006 80000 91200=
07607,1997-10-27 15:00:00,22,1012.6,-1.3,35,6,20000,14.816,,,80,,,,,,,,,,,wg-a,,,,AAXX 27154 07607 12/70 00808 10220 20060 30057 40126 56013 60006 80000 91500=
07607,1997-10-27 18:00:00,14,1012.8,0.1,72,9,20000,11.112,,,60,5.9,22.6,,,,,,,,,wg-a,,,,AAXX 27184 07607 12/70 10606 10140 20090 30058 40128 53001 60006 81030 91800 333 10226 20059=
07607,1997-10-27 21:00:00,11,1013.2,0.3,82,8,20000,0,,,0,,,,,,,,,,,wg-a,,,,AAXX 27214 07607 12/70 00000 10110 20080 30061 40132 53003 60006 80000 92100=
07607,1997-10-28 00:00:00,7,1012.9,-0.4,93,6,15000,3.704,,,80,,,,,,,,,,,wg-a,,,,AAXX 28004 07607 12/65 00802 10070 20060 30057 40129 58004 60006 80000 90000=
07607,1997-10-28 06:00:00,5,1013.1,0.6,100,5,8000,11.112,,,40,5,14,,,,,,,,,wg-a,,,,AAXX 28064 07607 02/58 10406 10050 20050 30058 40131 53006 60006 81032 90600 333 10140 20050 60004=
07607,1997-10-28 12:00:00,18,1014.6,-0,56,9,500,14.816,,,50,,,,,,,,,,,wg-a,,,,AAXX 28124 07607 12/00 10508 10180 20090 30076 40146 55000 60006 80002 91200=
07607,1997-10-28 15:00:00,17,1016.2,1.6,52,7,500,22.224,,,10,,,,,,,,,,,wg-a,,,,AAXX 28154 07607 12/00 10112 10170 20070 30092 40162 53016 60006 80002 91500=
07607,1997-10-28 18:00:00,12,1019.4,3,58,4,500,14.816,,,360,5,19.1,,,,,,,,,wg-a,,,,AAXX 28184 07607 12/00 33608 10120 20040 30122 40194 53030 60006 80002 91800 333 10191 20050=
07607,1997-10-29 00:00:00,3,1024.1,1.9,81,0,15000,3.704,,,340,,,,,,,,,,,wg-a,,,,AAXX 29004 07607 12/65 23402 10030 20000 30167 40241 51019 60006 80002 90000=
07607,1997-10-29 03:00:00,-1,1025.2,1,93,-2,15000,3.704,,,270,,,,,,,,,,,wg-a,,,,AAXX 29034 07607 12/65 02702 11010 21020 30177 40252 51010 60006 80000 90300=
07607,1997-10-29 09:00:00,2,1028.2,1.6,80,-1,15000,3.704,,,230,,,,,,,,,,,wg-a,,,,AAXX 29094 07607 12/65 02302 10020 21010 30207 40282 52016 60006 80000 90900=
07607,1997-10-29 12:00:00,10,1027.6,-0.4,53,1,500,3.704,,,200,,,,,,,,,,,wg-a,,,,AAXX 29124 07607 12/00 02002 10100 20010 30203 40276 58004 60006 80000 91200=
07607,1997-10-29 18:00:00,7,1028.1,0.9,81,4,20000,0,,,0,-2.8,12.9,,,,,,,,,wg-a,,,,AAXX 29184 07607 12/70 30000 10070 20040 30208 40281 53009 60006 82032 91800 333 10129 21028=
07607,1997-10-29 21:00:00,2,1029.1,0.8,100,2,10000,0,,,0,,,,,,,,,,,wg-a,,,,AAXX 29214 07607 12/60 00000 10020 20020 30216 40291 52008 60006 80000 92100=
07607,1997-10-30 00:00:00,-1,1029,-0.2,100,-1,10000,0,,,0,,,,,,,,,,,wg-a,,,,AAXX 30004 07607 12/60 00000 11010 21010 30214 40290 58002 60006 80000 90000=
07607,1997-10-30 03:00:00,-1,1028.3,-0.7,100,-1,500,0,,,0,,,,,,,,,,,wg-a,,,,AAXX 30034 07607 12/05 /0000 11010 21010 30207 40283 58007 60006 90300=
07607,1997-10-30 06:00:00,-1,1027.8,-0.5,100,-1,200,3.704,,,20,-1.3,6.9,,,,,,,,49,wg-a,,,,AAXX 30064 07607 02/02 90202 11010 21010 30202 40278 57005 60006 74941 89/// 90600 333 10069 21013 60004=
07607,1997-10-30 09:00:00,1,1028,0.3,100,1,300,3.704,,,260,,,,,,,,,,43,wg-a,,,,AAXX 30094 07607 12/03 92602 10010 20010 30205 40280 50003 60006 74344 89/// 90900=
07607,1997-10-30 12:00:00,11,1026.4,-1.3,71,6,15000,7.408,,,250,,,,,,,,,,2,wg-a,,,,AAXX 30124 07607 12/65 02504 10110 20060 30192 40264 58013 60006 70241 80000 91200=
07607,1997-10-30 18:00:00,7,1026,0.8,70,2,20000,3.704,,,240,-1.1,13.9,,,,,,,,,wg-a,,,,AAXX 30184 07607 12/70 52402 10070 20020 30187 40260 53008 60006 80002 91800 333 10139 21011=
07607,1997-10-30 21:00:00,1,1026.8,0.6,93,0,10000,0,,,0,,,,,,,,,,,wg-a,,,,AAXX 30214 07607 12/60 40000 10010 20000 30193 40268 51006 60006 80002 92100=
07607,1997-10-31 00:00:00,-1,1026.6,-0.3,93,-2,10000,0,,,0,,,,,,,,,,,wg-a,,,,AAXX 31004 07607 12/60 30000 11010 21020 30190 40266 55003 60006 80002 90000=
07607,1997-10-31 03:00:00,-3,1025.8,-0.8,100,-3,8000,0,,,0,,,,,,,,,,,wg-a,,,,AAXX 31034 07607 12/58 30000 11030 21030 30182 40258 56008 60006 80002 90300=
07607,1997-10-31 06:00:00,-4,1025.7,-0.1,93,-5,8000,3.704,,,60,-4.1,6.8,,,,,,,,,wg-a,,,,AAXX 31064 07607 02/58 20602 11040 21050 30181 40257 58001 60006 80002 90600 333 10068 21041 60004=
07607,1997-10-31 09:00:00,2,1026,0.4,80,-1,20000,3.704,,,70,,,,,,,,,,,wg-a,,,,AAXX 31094 07607 12/70 70702 10020 21010 30185 40260 50004 60006 80002 90900=
07607,1997-10-31 12:00:00,11,1024.3,-1.4,43,-1,20000,3.704,,,50,,,,,,,,,,,wg-a,,,,AAXX 31124 07607 12/70 60502 10110 21010 30171 40243 58014 60006 80002 91200=
07607,1997-10-31 15:00:00,13,1023.5,-0.8,38,-1,25000,0,,,0,,,,,,,,,,,wg-a,,,,AAXX 31154 07607 12/75 50000 10130 21010 30163 40235 56008 60006 80002 91500=
07607,1997-10-31 18:00:00,6,1024.1,0.5,70,1,12000,3.704,,,40,-4.3,13.3,,,,,,,,,wg-a,,,,AAXX 31184 07607 12/62 20402 10060 20010 30168 40241 53005 60006 80002 91800 333 10133 21043=
07607,1997-10-31 21:00:00,0,1024.2,-0.1,100,0,10000,0,,,0,,,,,,,,,,,wg-a,,,,AAXX 31214 07607 12/60 00000 10000 20000 30167 40242 57001 60006 80000 92100=
07607,1997-11-01 00:00:00,-2,1023.6,-0.7,93,-3,0,3.704,,,60,,,,,,,,,,,wg-a,,,,AAXX 01004 07607 12/// /0602 11020 21030 30160 40236 56007 60006 90000=
07607,1997-11-01 03:00:00,-3,1022.8,-0.8,93,-4,10000,3.704,,,100,,,,,,,,,,,wg-a,,,,AAXX 01034 07607 12/60 /1002 11030 21040 30152 40228 58008 60006 90300=
07607,1997-11-01 09:00:00,1,1023,0.7,93,0,10000,3.704,,,50,,,,,,,,,,,wg-a,,,,AAXX 01094 07607 12/60 50502 10010 20000 30155 40230 51007 60006 82032 90900=
07607,1997-11-01 12:00:00,11,1021.4,-1.3,47,0,15000,3.704,,,30,,,,,,,,,,,wg-a,,,,AAXX 01124 07607 12/65 30302 10110 20000 30142 40214 58013 60006 80002 91200=
07607,1997-11-01 15:00:00,14,1020.1,-1.2,38,0,500,3.704,,,40,,,,,,,,,,,wg-a,,,,AAXX 01154 07607 12/00 30402 10140 20000 30130 40201 56012 60006 80002 91500=
07607,1997-11-01 18:00:00,6,1020.3,-0,75,2,10000,0,,,0,-4.8,15.1,,,,,,,,,wg-a,,,,AAXX 01184 07607 12/60 30000 10060 20020 30130 40203 55000 60006 82032 91800 333 10151 21048=
07607,1997-11-01 21:00:00,2,1019.9,-0.5,93,1,10000,7.408,,,80,,,,,,,,,,,wg-a,,,,AAXX 01214 07607 12/60 30804 10020 20010 30125 40199 56005 60006 81032 92100=
07607,1997-11-02 00:00:00,-1,1019.6,-0.4,100,-1,10000,3.704,,,100,,,,,,,,,,,wg-a,,,,AAXX 02004 07607 12/60 31002 11010 21010 30121 40196 58004 60006 81032 90000=
07607,1997-11-02 03:00:00,-2,1018.3,-1.3,100,-2,6000,7.408,,,80,,,,,,,,,,,wg-a,,,,AAXX 02034 07607 12/56 30804 11020 21020 30108 40183 58013 60006 80002 90300=
07607,1997-11-02 06:00:00,-2,1017.1,-1.2,100,-2,4000,7.408,,,90,-2.8,6,,,,,,,,10,wg-a,,,,AAXX 02064 07607 02/40 /0904 11020 21020 30096 40171 56012 60006 71000 80002 90600 333 10060 21028 60004=
07607,1997-11-02 15:00:00,13,1012.7,-1.8,67,7,10000,14.816,,,90,,,,,,,,,,,wg-a,,,,AAXX 02154 07607 12760 70908 10130 20070 30056 40127 56018 60006 83530 91500=
07607,1997-11-02 18:00:00,10,1012,-0.7,82,7,10000,11.112,,,90,-2,12.9,,,,,,,,,wg-a,,,,AAXX 02184 07607 12/60 70906 10100 20070 30049 40120 56007 60006 8707/ 91800 333 10129 21020=
07607,1997-11-03 00:00:00,8,1010.7,-1.2,93,7,10000,3.704,,,100,,,,,,,,,,,wg-a,,,,AAXX 03004 07607 12760 51002 10080 20070 30035 40107 58012 60006 8253/ 90000=
07607,1997-11-03 03:00:00,4,1009.2,-1.6,100,4,10000,7.408,,,80,,,,,,,,,,,wg-a,,,,AAXX 03034 07607 12/60 20804 10040 20040 30019 40092 56016 60006 82030 90300=
07607,1997-11-03 06:00:00,3,1007.4,-1.8,100,3,400,11.112,,,80,2.4,9.8,,,,,,,,44,wg-a,,,,AAXX 03064 07607 02104 70806 10030 20030 30001 40074 58018 60006 74441 876// 90600 333 10098 20024 60004=
07607,1997-11-03 12:00:00,19,1004.5,-1.8,52,9,20000,11.112,,,100,,,,,,,,,,3,wg-a,,,,AAXX 03124 07607 12/70 61006 10190 20090 39976 40045 58018 60006 70341 85032 91200=
07607,1997-11-03 15:00:00,19,1003,-1.4,64,12,20000,7.408,,,60,,,,,,,,,,,wg-a,,,,AAXX 03154 07607 12770 80604 10190 20120 39962 40030 56014 60006 8553/ 91500=
07607,1997-11-03 18:00:00,15,1003.7,0.6,100,15,10000,7.408,,,70,2.6,21.5,,,,,,,,21,wg-a,,,,AAXX 03184 07607 02660 80704 10150 20150 39968 40037 50006 61000 72162 8553/ 91800 333 10215 20026 6000=
07607,1997-11-03 21:00:00,15,1002.8,-0.9,88,13,10000,7.408,,,120,,,,,,,,,,,wg-a,,,,AAXX 03214 07607 12660 /1204 10150 20130 39959 40028 55009 60006 84530 92100=
07607,1997-11-04 03:00:00,14,1003.1,0.6,94,13,10000,3.704,,,110,,,,,,,,,,,wg-a,,,,AAXX 04034 07607 12660 /1102 10140 20130 39961 40031 53006 60006 83530 90300=
07607,1997-11-04 06:00:00,15,1004.5,1.4,88,13,10000,7.408,,,140,13.3,15.4,,,,,,,,,wg-a,,,,AAXX 04064 07607 02560 71404 10150 20130 39975 40045 53014 60006 875// 90600 333 10154 20133 60004=
07607,1997-11-04 09:00:00,15,1007.2,2.7,100,15,2000,18.52,,,270,,,,8,,,,,,10,wg-a,,,,AAXX 04094 07607 12220 82710 10150 20150 30002 40072 53027 60087 71062 875// 90900=
07607,1997-11-04 12:00:00,15,1008,0.8,94,14,10000,3.704,,,250,,,,2,,,,,,3,wg-a,,,,AAXX 04124 07607 02360 82502 10150 20140 30010 40080 50008 60106 70362 878// 91200 333 60027=
07607,1997-11-04 15:00:00,15,1008.2,0.2,94,14,10000,7.408,,,150,,,,0,,,,,,21,wg-a,,,,AAXX 04154 07607 12460 71504 10150 20140 30012 40082 51002 60007 72162 878// 91500=
07607,1997-11-04 18:00:00,14,1009.2,1,94,13,8000,3.704,,,170,13.6,15.3,,,,,,,,1,wg-a,,,,AAXX 04184 07607 12658 /1702 10140 20130 30022 40092 50010 60006 70162 8353/ 91800 333 10153 20136=
07607,1997-11-04 21:00:00,12,1008.5,-0.8,94,11,7000,3.704,,,120,,,,,,,,,,,wg-a,,,,AAXX 04214 07607 12/57 /1202 10120 20110 30014 40085 58008 60006 92100=
07607,1997-11-05 00:00:00,9,1008.2,-0.3,100,9,200,11.112,,,80,,,,,,,,,,,wg-a,,,,AAXX 05004 07607 12/02 /0806 10090 20090 30011 40082 58003 60006 90000=
07607,1997-11-05 03:00:00,8,1007.1,-1.2,100,8,200,7.408,,,70,,,,,,,,,,45,wg-a,,,,AAXX 05034 07607 12/02 90704 10080 20080 39999 40071 58012 60006 74544 89/// 90300=
07607,1997-11-05 06:00:00,7,1006,-1.1,100,7,800,7.408,,,90,6.8,13.6,,,,,11,,,44,wg-a,,,,AAXX 05064 07607 02/08 50904 10070 20070 39988 40060 56011 60006 74441 82031 90600 333 10136 20068 60114=
07607,1997-11-05 09:00:00,10,1003.8,-2.1,100,10,10000,3.704,,,100,,,,,,,,,,3,wg-a,,,,AAXX 05094 07607 12/60 61002 10100 20100 39967 40038 56021 60006 70342 82032 90900=
07607,1997-11-05 12:00:00,16,1000.9,-2.7,82,13,15000,3.704,,,200,,,,,,,,,,3,wg-a,,,,AAXX 05124 07607 12665 82002 10160 20130 39940 40009 58027 60006 70342 82527 91200=
07607,1997-11-05 15:00:00,16,997.2,-3.7,88,14,15000,7.408,,,350,,,,,,,,,,3,wg-a,,,,AAXX 05154 07607 02665 83504 10160 20140 39903 49972 56037 61000 70362 8552/ 91500 333 ////=
07607,1997-11-05 18:00:00,13,997.3,0.1,100,13,10000,11.112,,,350,6.6,16.4,,,,,,,,60,wg-a,,,,AAXX 05184 07607 02560 83506 10130 20130 39904 49973 53001 61000 76062 8557/ 91800 333 10164 20066 6100=
07607,1997-11-06 00:00:00,13,993.3,-3.5,100,13,7000,7.408,,,100,,,,5,,,,,,61,wg-a,,,,AAXX 06004 07607 02357 81004 10130 20130 39864 49933 58035 60086 76166 885// 90000 333 60057=
07607,1997-11-06 06:00:00,11,988.3,-1.8,100,11,7000,7.408,,,20,10.8,13.4,,,,,,,,61,wg-a,,,,AAXX 06064 07607 02357 80204 10110 20110 39814 49883 55018 61000 76166 875// 90600 333 10134 20108 6022=
07607,1997-11-06 12:00:00,12,987.1,0.1,100,12,8000,14.816,,,310,,,,6,,,,,,1,wg-a,,,,AAXX 06124 07607 02258 83108 10120 20120 39802 49871 50001 60096 70162 877// 91200 333 60067=
07607,1997-11-06 15:00:00,12,988.8,1.7,100,12,7000,14.816,,,260,,,,0,,,,,,21,wg-a,,,,AAXX 06154 07607 12257 82608 10120 20120 39819 49888 53017 60007 72162 877// 91500=
07607,1997-11-06 18:00:00,11,993.6,4.7,100,11,6000,18.52,,,240,10.8,11.8,,,,,,,,61,wg-a,,,,AAXX 06184 07607 02456 82410 10110 20110 39866 49936 52047 61000 76165 8587/ 91800 333 10118 20108 6001=
07607,1997-11-06 21:00:00,10,996.9,3.3,100,10,10000,7.408,,,180,,,,1,,,,,,61,wg-a,,,,AAXX 06214 07607 12460 81804 10100 20100 39899 49969 51033 60017 76162 8587/ 92100=
07607,1997-11-07 00:00:00,11,998.4,1.5,94,10,10000,11.112,,,200,,,,0,,,,,,2,wg-a,,,,AAXX 07004 07607 02460 62006 10110 20100 39914 49984 52015 60016 70286 86800 90000 333 60007=
07607,1997-11-07 03:00:00,10,999.5,1,93,9,6000,0,,,0,,,,4,,,,,,21,wg-a,,,,AAXX 07034 07607 12356 /0000 10100 20090 39924 49995 50010 60047 72186 86500 90300=
07607,1997-11-07 06:00:00,6,1000.4,0.8,100,6,8000,3.704,,,170,6.1,11.2,,,,,15,,,1,wg-a,,,,AAXX 07064 07607 02458 31702 10060 20060 39932 40004 50008 60006 70186 83500 90600 333 10112 20061 60154=
07607,1997-11-07 09:00:00,11,1001,0.8,82,8,25000,3.704,,,150,,,,,,,,,,,wg-a,,,,AAXX 07094 07607 12/75 11502 10110 20080 39940 40010 51008 60006 81032 90900=
07607,1997-11-07 12:00:00,17,999.1,-1.8,52,7,40000,11.112,,,190,,,,,,,,,,,wg-a,,,,AAXX 07124 07607 12/82 51906 10170 20070 39922 49991 58018 60006 81032 91200=
07607,1997-11-07 18:00:00,15,998.4,0.7,67,9,20000,3.704,,,170,5.2,17.8,,,,,,,,,wg-a,,,,AAXX 07184 07607 12570 81702 10150 20090 39915 49984 53007 60006 889// 91800 333 10178 20052=
07607,1997-11-08 00:00:00,12,1002.9,2.2,100,12,0,11.112,,,220,,,,,,,,,,,wg-a,,,,AAXX 08004 07607 12/// /2206 10120 20120 39959 40029 51022 60096 90000=
07607,1997-11-08 03:00:00,11,1005.6,2.6,94,10,10000,14.816,,,210,,,,,,,,,,,wg-a,,,,AAXX 08034 07607 12460 72108 10110 20100 39985 40056 51026 60006 878// 90300=
07607,1997-11-08 06:00:00,11,1007.6,2,94,10,10000,11.112,,,190,10.6,14.7,,,,,,,,25,wg-a,,,,AAXX 08064 07607 02460 81906 10110 20100 30005 40076 51020 61000 72586 888// 90600 333 10147 20106 6012=
07607,1997-11-08 09:00:00,11,1009.1,1.5,100,11,11000,3.704,,,220,,,,,,,,,,,wg-a,,,,AAXX 08094 07607 32/61 /2202 10110 20110 30020 40091 51015 90900=
07607,1997-11-08 12:00:00,18,1007.2,-1.7,52,8,11000,22.224,,,220,,,,,,,,,,,wg-a,,,,AAXX 08124 07607 12/61 /2212 10180 20080 30003 40072 58017 60056 91200=
07607,1997-11-08 15:00:00,16,1004.4,-2.8,68,10,500,7.408,,,150,,,,,,,,,,,wg-a,,,,AAXX 08154 07607 12/00 71504 10160 20100 39975 40044 56028 60006 83032 91500=
07607,1997-11-08 18:00:00,15,1003.1,-1.4,67,9,500,3.704,,,160,10.2,18.1,,,,,,,,,wg-a,,,,AAXX 08184 07607 12700 81602 10150 20090 39961 40031 55014 60006 83532 91800 333 10181 20102=
07607,1997-11-08 21:00:00,13,1002.3,-0.8,94,12,10000,3.704,,,270,,,,2,,,,,,61,wg-a,,,,AAXX 08214 07607 12760 82702 10130 20120 39953 40023 58008 60027 76162 8557/ 92100=
07607,1997-11-09 00:00:00,12,1004.3,2,100,12,8000,7.408,,,190,,,,,,,,,,,wg-a,,,,AAXX 09004 07607 12/58 /1904 10120 20120 39973 40043 51020 60076 90000=
07607,1997-11-09 03:00:00,12,1004.7,0.4,100,12,11000,11.112,,,190,,,,,,,,,,,wg-a,,,,AAXX 09034 07607 32/61 /1906 10120 20120 39977 40047 53004 90300=
07607,1997-11-09 06:00:00,11,1006.9,2.1,94,10,10000,11.112,,,200,10.5,15,,,,,,,,21,wg-a,,,,AAXX 09064 07607 02660 42006 10110 20100 39998 40069 51021 61000 72196 84500 90600 333 10150 20105 6018=
07607,1997-11-09 09:00:00,13,1008.3,1.5,77,9,10000,11.112,,,200,,,,1,,,,,,,wg-a,,,,AAXX 09094 07607 12460 /2006 10130 20090 30013 40083 51015 60017 85100 90900=
07607,1997-11-09 12:00:00,17,1007.7,-0.6,45,5,10000,29.632,,,220,,,,,,,,,,1,wg-a,,,,AAXX 09124 07607 12660 52216 10170 20050 30007 40077 58006 60016 70186 85830 91200=
07607,1997-11-09 15:00:00,17,1006.9,-0.7,42,4,11000,18.52,,38.892,230,,,,,,,,,,,wg-a,,,,AAXX 09154 07607 12/61 /2310 10170 20040 30000 40069 58007 60006 91500 333 91021=
07607,1997-11-09 18:00:00,13,1008.7,1.7,72,8,10000,11.112,,,230,10,17.3,,,,,,,,,wg-a,,,,AAXX 09184 07607 12560 /2306 10130 20080 30017 40087 53017 60006 85800 91800 333 10173 20100=
07607,1997-11-10 00:00:00,10,1008.3,-1.1,100,10,11000,3.704,,,170,,,,,,,,,,,wg-a,,,,AAXX 10004 07607 12/61 /1702 10100 20100 30012 40083 56011 60046 90000=
07607,1997-11-10 03:00:00,8,1006.8,-1.6,93,7,10000,3.704,,,110,,,,,,,,,,,wg-a,,,,AAXX 10034 07607 12/60 01102 10080 20070 39996 40068 56016 60006 80000 90300=
07607,1997-11-10 06:00:00,6,1005.7,-1.1,100,6,10000,0,,,0,5.5,13,,,,,5,,,,wg-a,,,,AAXX 10064 07607 02/60 10000 10060 20060 39985 40057 56011 60006 80001 90600 333 10130 20055 60054=
07607,1997-11-10 09:00:00,10,1008,2.4,93,9,11000,11.112,,,210,,,,,,,,,,,wg-a,,,,AAXX 10094 07607 32/61 /2106 10100 20090 30009 40080 53024 90900=
07607,1997-11-10 12:00:00,11,1008.3,0.3,87,9,15000,22.224,,,260,,,,1,,,,,,61,wg-a,,,,AAXX 10124 07607 02365 /2612 10110 20090 30012 40083 51003 60036 76186 82932 91200 333 60017=
07607,1997-11-10 15:00:00,14,1007.1,-1.1,63,7,11000,18.52,,,290,,,,,,,,,,,wg-a,,,,AAXX 10154 07607 32/61 /2910 10140 20070 30001 40071 58011 91500=
07607,1997-11-10 18:00:00,8,1006.1,-1.1,93,7,20000,3.704,,,120,6,14.1,,,,,,,,1,wg-a,,,,AAXX 10184 07607 12/70 11202 10080 20070 39990 40061 56011 60006 70186 80002 91800 333 10141 20060=
07607,1997-11-10 21:00:00,10,1003.3,-2.8,82,7,10000,7.408,,,140,,,,,,,,,,13,wg-a,,,,AAXX 10214 07607 12560 41404 10100 20070 39962 40033 58028 60006 71311 84900 92100=
07607,1997-11-11 00:00:00,13,1002.7,-0.5,62,6,10000,18.52,,44.448,200,,,,,,,,,,,wg-a,,,,AAXX 11004 07607 12560 72010 10130 20060 39957 40027 58005 60006 875// 90000 333 91024=
07607,1997-11-11 03:00:00,7,1001.8,-1.1,93,6,8000,3.704,,,120,,,,,,,,,,,wg-a,,,,AAXX 11034 07607 12/58 01202 10070 20060 39946 40018 58011 60006 80000 90300=
07607,1997-11-11 06:00:00,10,1000.2,-1.5,76,6,10000,11.112,,,190,5.6,13.1,,,,,4,,,,wg-a,,,,AAXX 11064 07607 02660 71906 10100 20060 39931 40002 56015 60006 875// 90600 333 10131 20056 60044=
07607,1997-11-11 09:00:00,9,999.9,-0.3,87,7,20000,3.704,,,120,,,,,,,,,,,wg-a,,,,AAXX 11094 07607 12570 71202 10090 20070 39928 49999 57003 60006 8587/ 90900=
07607,1997-11-11 12:00:00,12,999.6,-0.2,82,9,20000,14.816,,,260,,,,,,,,,,,wg-a,,,,AAXX 11124 07607 12370 72608 10120 20090 39926 49996 56002 60006 879// 91200=
07607,1997-11-11 15:00:00,9,999.9,0.2,100,9,10000,14.816,,,200,,,,5,,,,,,61,wg-a,,,,AAXX 11154 07607 12460 72008 10090 20090 39928 49999 51002 60057 76186 8587/ 91500=
07607,1997-11-11 18:00:00,8,1000.5,0.6,100,8,8000,7.408,,,190,8.3,12.3,,,,,,,,61,wg-a,,,,AAXX 11184 07607 02458 81904 10080 20080 39934 40005 53006 61000 76186 878// 91800 333 10123 20083 6004=
07607,1997-11-12 00:00:00,8,1001,-0.2,100,8,8000,18.52,,,200,,,,1,,,,,,61,wg-a,,,,AAXX 12004 07607 02458 82010 10080 20080 39939 40010 55002 60036 76162 878// 90000 333 60017=
07607,1997-11-12 06:00:00,8,1002.5,1.3,100,8,500,14.816,,,200,7.2,8.6,,8,,,25,,,61,wg-a,,,,AAXX 12064 07607 02400 82008 10080 20080 39954 40025 51013 60254 76166 878// 90600 333 10086 20072 60087=
07607,1997-11-12 09:00:00,8,1005.3,2.8,100,8,500,14.816,,,210,,,,4,,,,,,10,wg-a,,,,AAXX 12094 07607 12300 82108 10080 20080 39982 40053 53028 60047 71066 878// 90900=
07607,1997-11-12 12:00:00,8,1007.6,2.2,100,8,10000,11.112,,,220,,,,3,,,,,,61,wg-a,,,,AAXX 12124 07607 02460 82206 10080 20080 30004 40076 51022 60086 76162 8587/ 91200 333 60037=
07607,1997-11-12 15:00:00,9,1008.8,1.3,93,8,25000,14.816,,,210,,,,1,,,,,,3,wg-a,,,,AAXX 12154 07607 12375 /2108 10090 20080 30017 40088 53013 60017 70362 84902 91500=
07607,1997-11-12 18:00:00,8,1011.3,2.4,100,8,6000,14.816,,,180,7.1,9.1,,,,,,,,63,wg-a,,,,AAXX 12184 07607 02456 71808 10080 20080 30041 40113 51024 61000 76362 879// 91800 333 10091 20071 6006=
07607,1997-11-12 21:00:00,8,1012.2,0.9,100,8,10000,7.408,,,190,,,,4,,,,,,61,wg-a,,,,AAXX 12214 07607 12560 81904 10080 20080 30050 40122 53009 60047 76161 8587/ 92100=
07607,1997-11-13 00:00:00,8,1011.4,-0.8,93,7,10000,7.408,,,190,,,,,,,,,,3,wg-a,,,,AAXX 13004 07607 02560 71904 10080 20070 30042 40114 58008 60046 70361 8583/ 90000 333 61000=
07607,1997-11-13 03:00:00,8,1010.1,-1.3,100,8,10000,11.112,,,210,,,,0,,,,,,3,wg-a,,,,AAXX 13034 07607 12560 72106 10080 20080 30029 40101 56013 60007 70362 878// 90300=
07607,1997-11-13 06:00:00,7,1008.5,-1.6,100,7,0,0,,,0,7.2,8.1,,,,,19,,,,wg-a,,,,AAXX 13064 07607 02/// /0000 10070 20070 30013 40085 58016 60194 90600 333 10081 20072 61000=
07607,1997-11-13 12:00:00,15,1007.2,-1.1,51,5,500,0,,,0,,,,,,,,,,,wg-a,,,,AAXX 13124 07607 12700 30000 10150 20050 30002 40072 58011 60006 81532 91200=
07607,1997-11-13 18:00:00,10,1008,1.4,93,9,10000,7.408,,,70,6.7,15.7,,,,,,,,,wg-a,,,,AAXX 13184 07607 12660 70704 10100 20090 30009 40080 53014 60006 875// 91800 333 10157 20067=
07607,1997-11-14 03:00:00,8,1012.4,0.7,100,8,8000,0,,,0,,,,,,,,,,,wg-a,,,,AAXX 14034 07607 12658 70000 10080 20080 30052 40124 53007 60006 875// 90300=
07607,1997-11-14 06:00:00,9,1013.9,1.5,100,9,8000,0,,,0,8.3,9.9,,,,,,,,,wg-a,,,,AAXX 14064 07607 02658 70000 10090 20090 30067 40139 53015 60006 875// 90600 333 10099 20083 60004=
07607,1997-11-14 12:00:00,15,1016,0.5,77,11,15000,0,,,0,,,,,,,,,,,wg-a,,,,AAXX 14124 07607 12565 70000 10150 20110 30090 40160 50005 60006 878// 91200=
07607,1997-11-14 21:00:00,8,1019.6,1.4,100,8,500,3.704,,,70,,,,,,,,,,11,wg-a,,,,AAXX 14214 07607 12/00 /0702 10080 20080 30123 40196 53014 60006 71100 80002 92100=
07607,1997-11-15 00:00:00,6,1019.8,0.2,100,6,500,3.704,,,60,,,,,,,,,,,wg-a,,,,AAXX 15004 07607 12/00 00602 10060 20060 30125 40198 53002 60006 80000 90000=
07607,1997-11-15 03:00:00,7,1020.1,0.3,100,7,500,3.704,,,90,,,,,,,,,,,wg-a,,,,AAXX 15034 07607 12700 70902 10070 20070 30128 40201 50003 60006 85502 90300=
07607,1997-11-15 06:00:00,7,1021,0.9,100,7,3000,3.704,,,80,5.4,12,,,,,,,,10,wg-a,,,,AAXX 15064 07607 02730 30802 10070 20070 30137 40210 52009 60006 71011 82502 90600 333 10120 20054 60004=
07607,1997-11-15 09:00:00,10,1021.4,0.5,100,10,8000,7.408,,,100,,,,,,,,,,,wg-a,,,,AAXX 15094 07607 12758 21004 10100 20100 30142 40214 50005 60006 81502 90900=
07607,1997-11-15 12:00:00,17,1020.5,-0.7,68,11,500,7.408,,,80,,,,,,,,,,,wg-a,,,,AAXX 15124 07607 12/00 40804 10170 20110 30135 40205 58007 60006 80002 91200=
07607,1997-11-15 15:00:00,19,1019.3,-1.2,56,10,500,3.704,,,120,,,,,,,,,,,wg-a,,,,AAXX 15154 07607 12/00 21202 10190 20100 30123 40193 55012 60006 80002 91500=
07607,1997-11-15 21:00:00,9,1019.2,-0.8,100,9,10000,7.408,,,80,,,,,,,,,,,wg-a,,,,AAXX 15214 07607 12/60 10804 10090 20090 30120 40192 57008 60006 80001 92100=
07607,1997-11-16 00:00:00,8,1018.7,-0.5,100,8,6000,11.112,,,100,,,,,,,,,,,wg-a,,,,AAXX 16004 07607 12/56 /1006 10080 20080 30115 40187 56005 60006 90000=
07607,1997-11-16 03:00:00,6,1017.7,-1.1,100,6,500,7.408,,,80,,,,,,,,,,,wg-a,,,,AAXX 16034 07607 12/00 30804 10060 20060 30104 40177 58011 60006 80001 90300=
07607,1997-11-16 09:00:00,10,1017.6,0.3,93,9,15000,11.112,,,100,,,,,,,,,,,wg-a,,,,AAXX 16094 07607 12/65 71006 10100 20090 30104 40176 52003 60006 80002 90900=
07607,1997-11-16 12:00:00,17,1016.4,-1,68,11,500,3.704,,,120,,,,,,,,,,,wg-a,,,,AAXX 16124 07607 12/00 71202 10170 20110 30094 40164 58010 60006 80002 91200=
07607,1997-11-16 15:00:00,20,1015.8,-0.5,64,13,500,0,,,0,,,,,,,,,,,wg-a,,,,AAXX 16154 07607 12/00 70000 10200 20130 30089 40158 55005 60006 81032 91500=
07607,1997-11-16 18:00:00,13,1016.8,0.8,94,12,20000,0,,,0,5.6,20.8,,,,,,,,,wg-a,,,,AAXX 16184 07607 12/70 70000 10130 20120 30097 40168 53008 60006 85032 91800 333 10208 20056=
07607,1997-11-16 21:00:00,10,1017.2,0.3,100,10,15000,3.704,,,110,,,,,,,,,,,wg-a,,,,AAXX 16214 07607 12/65 11102 10100 20100 30100 40172 53003 60006 80002 92100=
07607,1997-11-17 00:00:00,7,1017,-0.3,100,7,10000,3.704,,,80,,,,,,,,,,,wg-a,,,,AAXX 17004 07607 12/60 30802 10070 20070 30097 40170 58003 60006 80002 90000=
07607,1997-11-17 03:00:00,5,1016.3,-0.7,100,5,4000,3.704,,,130,,,,,,,,,,10,wg-a,,,,AAXX 17034 07607 12/40 /1302 10050 20050 30090 40163 58007 60006 71011 80002 90300=
07607,1997-11-17 06:00:00,5,1016.2,-0.1,100,5,8000,3.704,,,60,4.5,12.7,,,,,,,,,wg-a,,,,AAXX 17064 07607 02/58 /0602 10050 20050 30089 40162 57001 60006 83032 90600 333 10127 20045 60004=
07607,1997-11-17 09:00:00,8,1015.2,-0.9,100,8,10000,7.408,,,80,,,,,,,,,,,wg-a,,,,AAXX 17094 07607 12/60 50804 10080 20080 30080 40152 58009 60006 82032 90900=
07607,1997-11-17 12:00:00,18,1012.3,-2.7,64,11,10000,7.408,,,120,,,,,,,,,,,wg-a,,,,AAXX 17124 07607 12/60 51204 10180 20110 30053 40123 58027 60006 83032 91200=
07607,1997-11-17 15:00:00,18,1010.5,-1.7,64,11,10000,11.112,,,100,,,,,,,,,,,wg-a,,,,AAXX 17154 07607 12/60 61006 10180 20110 30036 40105 55017 60006 85032 91500=
07607,1997-11-17 18:00:00,15,1009.2,-1.4,82,12,10000,11.112,,,110,4.4,19.8,,,,,,,,,wg-a,,,,AAXX 17184 07607 12760 71106 10150 20120 30022 40092 56014 60006 8553/ 91800 333 10198 20044=
07607,1997-11-17 21:00:00,14,1007.2,-2,77,10,10000,11.112,,,100,,,,,,,,,,,wg-a,,,,AAXX 17214 07607 12760 31006 10140 20100 30002 40072 56020 60006 81530 92100=
07607,1997-11-18 00:00:00,12,1006.5,-0.7,94,11,10000,11.112,,,90,,,,,,,,,,,wg-a,,,,AAXX 18004 07607 12/60 50906 10120 20110 39995 40065 56007 60006 85030 90000=
07607,1997-11-18 03:00:00,12,1005.2,-1.3,94,11,10000,11.112,,,100,,,,,,,,,,,wg-a,,,,AAXX 18034 07607 12/60 41006 10120 20110 39982 40052 58013 60006 84030 90300=
07607,1997-11-18 06:00:00,13,1004.7,-0.5,88,11,10000,14.816,,,90,11.9,15.4,,,,,,,,,wg-a,,,,AAXX 18064 07607 02760 70908 10130 20110 39977 40047 58005 60006 875// 90600 333 10154 20119 60004=
07607,1997-11-18 09:00:00,14,1006.9,2.2,88,12,10000,7.408,,,80,,,,,,,,,,,wg-a,,,,AAXX 18094 07607 12660 70804 10140 20120 39999 40069 51022 60006 875// 90900=
07607,1997-11-18 15:00:00,14,1009.3,1.2,100,14,10000,14.816,,,260,,,,1,,,,,,61,wg-a,,,,AAXX 18154 07607 12260 72608 10140 20140 30023 40093 51012 60017 76162 875// 91500=
07607,1997-11-19 09:00:00,12,1004.5,0.2,100,12,7000,3.704,,,130,,,,0,,,,,,3,wg-a,,,,AAXX 19094 07607 12557 71302 10120 20120 39975 40045 50002 60007 70362 875// 90900=
07607,1997-11-19 12:00:00,16,1004.3,-0.1,72,11,15000,11.112,,,230,,,,,,,,,,1,wg-a,,,,AAXX 19124 07607 12565 /2306 10160 20110 39974 40043 58001 60016 70162 84530 91200=
07607,1997-11-19 18:00:00,10,1005.5,0.8,93,9,15000,0,,,0,9.7,17,,,,,,,,,wg-a,,,,AAXX 19184 07607 12765 20000 10100 20090 39984 40055 53008 60006 82500 91800 333 10170 20097=
07607,1997-11-19 21:00:00,9,1005.5,,100,9,8000,3.704,,,140,,,,,,,,,,,wg-a,,,,AAXX 19214 07607 32758 /1402 10090 20090 39984 40055 81500 92100=
07607,1997-11-20 00:00:00,7,1003.7,-1.9,100,7,10000,7.408,,,120,,,,,,,,,,,wg-a,,,,AAXX 20004 07607 32/60 01204 10070 20070 39965 40037 58019 80000 90000=
07607,1997-11-20 03:00:00,9,1002.5,-1.1,87,7,10000,7.408,,,130,,,,,,,,,,,wg-a,,,,AAXX 20034 07607 12760 11304 10090 20070 39954 40025 56011 60006 81500 90300=
07607,1997-11-20 06:00:00,7,1003.8,1.3,100,7,12000,0,,,0,5.7,10.4,,,,,,,,,wg-a,,,,AAXX 20064 07607 02762 60000 10070 20070 39967 40038 53013 60006 86500 90600 333 10104 20057 60004=
07607,1997-11-20 09:00:00,11,1006.4,2.6,100,11,500,11.112,,,200,,,,,,,,,,,wg-a,,,,AAXX 20094 07607 32/00 /2006 10110 20110 39993 40064 51026 90900=
07607,1997-11-20 12:00:00,13,1007,0.7,88,11,15000,11.112,,,200,,,,0,,,,,,1,wg-a,,,,AAXX 20124 07607 02465 72006 10130 20110 30000 40070 51007 60046 70186 878// 91200 333 60007=
07607,1997-11-20 15:00:00,14,1007.9,0.9,72,9,20000,22.224,,,240,,,,,,,,,,25,wg-a,,,,AAXX 20154 07607 02470 52412 10140 20090 30009 40079 51009 61000 72586 83902 91500 333 ////=
07607,1997-11-21 00:00:00,10,1010.6,0.2,93,9,15000,3.704,,,220,,,,,,,,,,,wg-a,,,,AAXX 21004 07607 12465 72202 10100 20090 30035 40106 52002 60006 87800 90000=
07607,1997-11-21 06:00:00,9,1010,-0.7,93,8,8000,3.704,,,70,8.6,11.1,,,,,4,,,2,wg-a,,,,AAXX 21064 07607 02658 80702 10090 20080 30028 40100 58007 60006 70262 875// 90600 333 10111 20086 60044=
07607,1997-11-21 09:00:00,9,1010.7,0.7,100,9,10000,7.408,,,70,,,,,,,,,,,wg-a,,,,AAXX 21094 07607 12560 70704 10090 20090 30035 40107 52007 60006 83832 90900=
07607,1997-11-21 12:00:00,14,1010,-0.5,72,9,20000,3.704,,,100,,,,,,,,,,,wg-a,,,,AAXX 21124 07607 12670 71002 10140 20090 30030 40100 58005 60006 83232 91200=
07607,1997-11-21 15:00:00,15,1009.1,-0.9,63,8,500,0,,,0,,,,,,,,,,,wg-a,,,,AAXX 21154 07607 12600 70000 10150 20080 30021 40091 56009 60006 82232 91500=
07607,1997-11-21 18:00:00,11,1010.3,1.1,87,9,10000,11.112,,,340,7.2,15.6,,,,,,,,,wg-a,,,,AAXX 21184 07607 12660 73406 10110 20090 30032 40103 53011 60006 82232 91800 333 10156 20072=
07607,1997-11-21 21:00:00,9,1011.2,0.9,100,9,10000,0,,,0,,,,0,,,,,,25,wg-a,,,,AAXX 21214 07607 12560 60000 10090 20090 30041 40112 51009 60007 72586 84802 92100=
07607,1997-11-22 00:00:00,8,1011.3,0,100,8,10000,3.704,,,300,,,,,,,,,,2,wg-a,,,,AAXX 22004 07607 02560 73002 10080 20080 30041 40113 50000 60006 70286 85802 90000 333 61000=
07607,1997-11-22 03:00:00,8,1011.9,0.6,100,8,8000,0,,,0,,,,,,,,,,,wg-a,,,,AAXX 22034 07607 12558 70000 10080 20080 30047 40119 51006 60006 878// 90300=
07607,1997-11-22 06:00:00,8,1012.7,0.8,100,8,6000,3.704,,,240,7.6,10.9,,,,,,,,,wg-a,,,,AAXX 22064 07607 02656 72402 10080 20080 30055 40127 53008 60006 875// 90600 333 10109 20076 60004=
07607,1997-11-22 09:00:00,9,1014.9,2.2,100,9,6000,11.112,,,230,,,,,,,,,,21,wg-a,,,,AAXX 22094 07607 02456 72306 10090 20090 30077 40149 51022 61000 72162 8587/ 90900 333 ////=
07607,1997-11-22 12:00:00,10,1015.6,0.7,100,10,10000,11.112,,,210,,,,,,,,,,61,wg-a,,,,AAXX 22124 07607 02560 82106 10100 20100 30084 40156 50007 61000 76162 872// 91200 333 6100=
07607,1997-11-22 18:00:00,9,1018.1,2.2,100,9,10000,11.112,,,220,7.7,12.1,,0,,,,,,1,wg-a,,,,AAXX 22184 07607 02560 62206 10090 20090 30109 40181 53022 60006 70186 86800 91800 333 10121 20077 60007=
07607,1997-11-22 21:00:00,8,1019.6,1.4,93,7,10000,3.704,,,200,,,,,,,,,,,wg-a,,,,AAXX 22214 07607 12560 32002 10080 20070 30123 40196 51014 60006 83800 92100=
07607,1997-11-23 00:00:00,6,1020.5,0.9,100,6,8000,7.408,,,220,,,,,,,,,,,wg-a,,,,AAXX 23004 07607 12558 32204 10060 20060 30132 40205 53009 60006 83500 90000=
07607,1997-11-23 03:00:00,5,1020,-0.5,100,5,8000,3.704,,,210,,,,,,,,,,,wg-a,,,,AAXX 23034 07607 12658 32102 10050 20050 30127 40200 56005 60006 83500 90300=
07607,1997-11-23 06:00:00,1,1020.4,0.3,100,1,4000,3.704,,,80,0.8,9.2,,,,,,,,,wg-a,,,,AAXX 23064 07607 02640 30802 10010 20010 30130 40204 53003 60006 82502 90600 333 10092 20008 60004=
07607,1997-11-23 12:00:00,14,1019.5,-1.5,63,7,500,7.408,,,150,,,,,,,,,,3,wg-a,,,,AAXX 23124 07607 12/00 51504 10140 20070 30124 40195 58015 60006 70341 82032 91200=
07607,1997-11-23 15:00:00,13,1017.9,-1.6,58,5,500,14.816,,,120,,,,,,,,,,,wg-a,,,,AAXX 23154 07607 12/00 61208 10130 20050 30108 40179 56016 60006 84032 91500=
07607,1997-11-23 18:00:00,9,1016.8,-1.2,87,7,20000,11.112,,,100,0.1,14.2,,,,,,,,,wg-a,,,,AAXX 23184 07607 12/70 31006 10090 20070 30096 40168 56012 60006 83030 91800 333 10142 20001=
07607,1997-11-24 00:00:00,6,1014.2,-2.1,93,5,15000,11.112,,,90,,,,,,,,,,,wg-a,,,,AAXX 24004 07607 12/65 40906 10060 20050 30069 40142 57021 60006 84030 90000=
07607,1997-11-24 03:00:00,4,1012.1,-2.1,100,4,10000,7.408,,,100,,,,,,,,,,,wg-a,,,,AAXX 24034 07607 12/60 21004 10040 20040 30048 40121 58021 60006 82030 90300=
07607,1997-11-24 06:00:00,4,1009.2,-2.9,100,4,10000,14.816,,,100,3.1,8.7,,,,,,,,,wg-a,,,,AAXX 24064 07607 02/60 41008 10040 20040 30019 40092 58029 60006 81031 90600 333 10087 20031 60004=
07607,1997-11-24 09:00:00,7,1007.4,-1.7,81,4,500,11.112,,,100,,,,,,,,,,,wg-a,,,,AAXX 24094 07607 12700 61006 10070 20040 30002 40074 58017 60006 845/1 90900=
07607,1997-11-24 12:00:00,12,1004.8,-2.5,62,5,500,14.816,,,90,,,,,,,,,,,wg-a,,,,AAXX 24124 07607 12700 70908 10120 20050 39977 40048 58025 60006 82532 91200=
07607,1997-11-24 18:00:00,9,1004.7,1.4,87,7,15000,3.704,,,100,4.1,11.9,,,,,,,,,wg-a,,,,AAXX 24184 07607 12565 71002 10090 20070 39976 40047 51014 60006 8553/ 91800 333 10119 20041=
07607,1997-11-24 21:00:00,9,1005.8,1.1,87,7,8000,3.704,,,120,,,,,,,,,,60,wg-a,,,,AAXX 24214 07607 02558 71202 10090 20070 39987 40058 53011 61000 76062 875// 92100 333 ////=
07607,1997-11-25 03:00:00,6,1006,-0,100,6,4000,3.704,,,80,,,,,,,,,,,wg-a,,,,AAXX 25034 07607 12/40 /0802 10060 20060 39988 40060 55000 60006 90300=
07607,1997-11-25 06:00:00,6,1005.1,-0.9,100,6,8000,11.112,,,90,5.9,9.5,,,,,,,,,wg-a,,,,AAXX 25064 07607 02558 /0906 10060 20060 39979 40051 58009 60006 82532 90600 333 10095 20059 61000=
07607,1997-11-25 09:00:00,9,1003.9,-1.1,87,7,11000,11.112,,,100,,,,,,,,,,,wg-a,,,,AAXX 25094 07607 12/61 /1006 10090 20070 39968 40039 56011 60006 90900=
07607,1997-11-25 12:00:00,15,1001.3,-2.4,59,7,500,14.816,,,130,,,,,,,,,,,wg-a,,,,AAXX 25124 07607 12/00 51308 10150 20070 39944 40013 58024 60006 82032 91200=
07607,1997-11-25 18:00:00,12,997.6,-1.3,88,10,15000,11.112,,,90,5.5,16.3,,,,,,,,,wg-a,,,,AAXX 25184 07607 12765 70906 10120 20100 39906 49976 56013 60006 8357/ 91800 333 10163 20055=
07607,1997-11-25 21:00:00,11,997.9,0.3,94,10,10000,7.408,,,40,,,,,,,,,,61,wg-a,,,,AAXX 25214 07607 02360 70404 10110 20100 39909 49979 53003 61000 76162 8557/ 92100 333 ////=
07607,1997-11-26 00:00:00,10,998.7,0.8,100,10,10000,7.408,,,260,,,,,,,,,,2,wg-a,,,,AAXX 26004 07607 02760 72604 10100 20100 39917 49987 53008 61000 70262 8557/ 90000 333 6100=
07607,1997-11-26 06:00:00,9,1000.2,1.1,100,9,8000,0,,,0,8.6,12.2,,,,,,,,,wg-a,,,,AAXX 26064 07607 02758 70000 10090 20090 39931 40002 53011 60006 82532 90600 333 10122 20086 61000=
07607,1997-11-26 09:00:00,9,1002.9,2.7,100,9,8000,3.704,,,80,,,,,,,,,,,wg-a,,,,AAXX 26094 07607 12758 70802 10090 20090 39958 40029 53027 60006 82572 90900=
07607,1997-11-26 12:00:00,16,1003.3,0.6,72,11,20000,7.408,,,240,,,,,,,,,,,wg-a,,,,AAXX 26124 07607 12770 62404 10160 20110 39964 40033 51006 60006 82572 91200=
07607,1997-11-26 15:00:00,15,1004.6,1.2,82,12,50000,11.112,,,240,,,,,,,,,,,wg-a,,,,AAXX 26154 07607 12584 72406 10150 20120 39976 40046 53012 60006 8687/ 91500=
07607,1997-11-26 18:00:00,13,1006.9,2.3,94,12,15000,0,,,0,8,16.8,,,,,,,,,wg-a,,,,AAXX 26184 07607 12665 70000 10130 20120 39999 40069 51023 60006 878// 91800 333 10168 20080=
07607,1997-11-26 21:00:00,12,1009.1,2.1,94,11,10000,3.704,,,190,,,,,,,,,,,wg-a,,,,AAXX 26214 07607 12760 61902 10120 20110 30020 40091 53021 60006 83532 92100=
07607,1997-11-27 00:00:00,12,1010.6,1.5,100,12,10000,11.112,,,230,,,,,,,,,,,wg-a,,,,AAXX 27004 07607 12760 62306 10120 20120 30035 40106 51015 60006 82532 90000=
07607,1997-11-27 03:00:00,12,1012.5,1.9,100,12,10000,7.408,,,230,,,,,,,,,,,wg-a,,,,AAXX 27034 07607 12460 82304 10120 20120 30054 40125 51019 60006 878// 90300=
07607,1997-11-27 06:00:00,11,1014.4,1.9,100,11,6000,3.704,,,230,11.1,13.4,,,,,,,,,wg-a,,,,AAXX 27064 07607 02/56 /2302 10110 20110 30073 40144 53019 60006 90600 333 10134 20111 60004=
07607,1997-11-27 12:00:00,16,1016.2,0.4,72,11,20000,7.408,,,220,,,,,,,,,,,wg-a,,,,AAXX 27124 07607 12570 /2204 10160 20110 30092 40162 51004 60006 83232 91200=
07607,1997-11-27 18:00:00,9,1015.3,-0.4,100,9,20000,7.408,,,60,9,16.6,,,,,,,,,wg-a,,,,AAXX 27184 07607 12/70 30604 10090 20090 30081 40153 55004 60006 80002 91800 333 10166 20090=
07607,1997-11-27 21:00:00,7,1014.7,-0.6,100,7,10000,7.408,,,80,,,,,,,,,,,wg-a,,,,AAXX 27214 07607 12/60 00804 10070 20070 30075 40147 58006 60006 80000 92100=
07607,1997-11-28 00:00:00,8,1013.1,-1.6,100,8,10000,7.408,,,60,,,,,,,,,,,wg-a,,,,AAXX 28004 07607 12/60 20604 10080 20080 30059 40131 56016 60006 82030 90000=
07607,1997-11-28 06:00:00,9,1013.3,0.7,100,9,10000,3.704,,,100,7.1,9.3,,,,,,,,60,wg-a,,,,AAXX 28064 07607 02660 71002 10090 20090 30061 40133 53007 61000 76061 8557/ 90600 333 10093 20071 6100=
07607,1997-11-28 09:00:00,10,1014.6,1.3,100,10,7000,3.704,,,120,,,,1,,,,,,21,wg-a,,,,AAXX 28094 07607 12557 81202 10100 20100 30074 40146 53013 60017 72162 8557/ 90900=
07607,1997-11-28 12:00:00,13,1014.7,0.2,94,12,12000,7.408,,,190,,,,,,,,,,3,wg-a,,,,AAXX 28124 07607 12362 71904 10130 20120 30076 40147 50002 60016 70362 878// 91200=
07607,1997-11-28 15:00:00,16,1014.6,-0,82,13,20000,11.112,,,220,,,,,,,,,,,wg-a,,,,AAXX 28154 07607 12470 32206 10160 20130 30076 40146 54000 60006 83200 91500=
07607,1997-11-28 18:00:00,11,1015.7,1,94,10,10000,0,,,0,8.5,15.8,,,,,,,,11,wg-a,,,,AAXX 28184 07607 12660 /0000 10110 20100 30086 40157 51010 60006 71111 81500 91800 333 10158 20085=
07607,1997-11-28 21:00:00,12,1016.4,0.7,94,11,11000,3.704,,,220,,,,,,,,,,,wg-a,,,,AAXX 28214 07607 12/61 /2202 10120 20110 30093 40164 51007 60006 92100=
07607,1997-11-29 00:00:00,11,1016.8,0.4,100,11,15000,11.112,,,210,,,,,,,,,,,wg-a,,,,AAXX 29004 07607 12465 82106 10110 20110 30097 40168 50004 60006 889// 90000=
07607,1997-11-29 03:00:00,11,1015.9,-0.9,94,10,10000,3.704,,,180,,,,1,,,,,,25,wg-a,,,,AAXX 29034 07607 12560 81802 10110 20100 30088 40159 56009 60017 72586 888// 90300=
07607,1997-11-29 06:00:00,10,1015.9,-0.1,93,9,10000,22.224,,,260,9.4,12.6,,,,,,,,80,wg-a,,,,AAXX 29064 07607 02560 82612 10100 20090 30087 40159 55001 61000 78098 889// 90600 333 10126 20094 6005=
07607,1997-11-29 09:00:00,10,1015.3,-0.6,100,10,8000,11.112,,,190,,,,7,,,,,,80,wg-a,,,,AAXX 29094 07607 12558 71906 10100 20100 30081 40153 58006 60077 78098 878// 90900=
07607,1997-11-29 15:00:00,10,1012.5,-1.3,100,10,10000,18.52,,,210,,,,0,,,,,,60,wg-a,,,,AAXX 29154 07607 12460 82110 10100 20100 30054 40125 56013 60007 76086 878// 91500=
07607,1997-11-29 18:00:00,9,1014.3,1.7,93,8,6000,14.816,,,300,9.1,11.5,,,,,,,,,wg-a,,,,AAXX 29184 07607 12/56 /3008 10090 20080 30071 40143 53017 60006 91800 333 10115 20091=
07607,1997-11-29 21:00:00,7,1015.8,1.5,100,7,10000,7.408,,,260,,,,,,,,,,3,wg-a,,,,AAXX 29214 07607 02660 72604 10070 20070 30086 40158 53015 61000 70361 87500 92100 333 ////=
07607,1997-11-30 00:00:00,8,1017,1.2,100,8,0,7.408,,,210,,,,,,,,,,,wg-a,,,,AAXX 30004 07607 12/// /2104 10080 20080 30098 40170 52012 60036 90000=
07607,1997-11-30 03:00:00,7,1017.8,0.8,100,7,10000,0,,,0,,,,0,,,,,,25,wg-a,,,,AAXX 30034 07607 12660 20000 10070 20070 30106 40178 53008 60007 72586 82500 90300=
07607,1997-11-30 06:00:00,7,1018.1,0.2,100,7,10000,3.704,,,190,6.5,9.1,,,,,19,,,1,wg-a,,,,AAXX 30064 07607 02660 31902 10070 20070 30108 40181 53002 60006 70186 83200 90600 333 10091 20065 60194=
07607,1997-11-30 09:00:00,9,1019.4,1.4,100,9,10000,7.408,,,240,,,,0,,,,,,,wg-a,,,,AAXX 30094 07607 12560 32404 10090 20090 30122 40194 53014 60007 83900 90900=
07607,1997-11-30 15:00:00,13,1019.4,-0,82,10,10000,14.816,,,240,,,,1,,,,,,3,wg-a,,,,AAXX 30154 07607 12460 /2408 10130 20100 30123 40194 55000 60017 70386 86800 91500=
07607,1997-11-30 18:00:00,10,1020.5,1,93,9,10000,7.408,,,230,6.1,13.8,,,,,,,,25,wg-a,,,,AAXX 30184 07607 02560 32304 10100 20090 30133 40205 51010 61000 72586 83200 91800 333 10138 20061 6000=
07607,1997-11-30 21:00:00,9,1021.2,0.7,100,9,10000,11.112,,,240,,,,1,,,,,,25,wg-a,,,,AAXX 30214 07607 12460 42406 10090 20090 30140 40212 52007 60017 72586 84200 92100=
07607,1997-12-01 00:00:00,8,1021.6,0.3,100,8,10000,7.408,,,260,,,,1,,,,,,25,wg-a,,,,AAXX 01004 07607 02560 /2604 10080 20080 30143 40216 53003 60026 72586 85200 90000 333 60017=
07607,1997-12-01 03:00:00,7,1021.3,-0.3,100,7,10000,7.408,,,240,,,,0,,,,,,,wg-a,,,,AAXX 01034 07607 12560 32404 10070 20070 30140 40213 58003 60007 83800 90300=
07607,1997-12-01 06:00:00,8,1020.8,-0.5,100,8,8000,3.704,,,200,6.9,9.7,,,,,4,,,1,wg-a,,,,AAXX 01064 07607 02558 72002 10080 20080 30135 40208 58005 60006 70186 878// 90600 333 10097 20069 60044=
07607,1997-12-01 09:00:00,9,1020.6,-0.1,100,9,8000,3.704,,,180,,,,,,,,,,,wg-a,,,,AAXX 01094 07607 12458 81802 10090 20090 30134 40206 58001 60006 8587/ 90900=
07607,1997-12-01 12:00:00,11,1018.5,-2.1,94,10,7000,7.408,,,180,,,,,,,,,,61,wg-a,,,,AAXX 01124 07607 02557 81804 10110 20100 30113 40185 58021 61000 76162 8387/ 91200 333 6100=
07607,1997-12-01 15:00:00,11,1014.8,-3.6,94,10,4000,7.408,,,170,,,,2,,,,,,51,wg-a,,,,AAXX 01154 07607 12240 81704 10110 20100 30077 40148 58036 60027 75166 877// 91500=
07607,1997-12-01 18:00:00,13,1012.8,-2,100,13,7000,14.816,,,260,7.6,12.7,,,,,,,,10,wg-a,,,,AAXX 01184 07607 02257 /2608 10130 20130 30057 40128 56020 61000 71065 86700 91800 333 10127 20076 6002=
07607,1997-12-01 21:00:00,12,1012.2,-0.6,94,11,11000,11.112,,,230,,,,,,,,,,,wg-a,,,,AAXX 01214 07607 12/61 /2306 10120 20110 30051 40122 58006 60006 92100=
07607,1997-12-02 00:00:00,12,1011.2,-1,88,10,12000,11.112,,,220,,,,,,,,,,,wg-a,,,,AAXX 02004 07607 12562 82206 10120 20100 30041 40112 57010 60006 888// 90000=
07607,1997-12-02 03:00:00,13,1008.4,-2.7,82,10,12000,22.224,,42.596,230,,,,,,,,,,,wg-a,,,,AAXX 02034 07607 12562 /2312 10130 20100 30014 40084 58027 60006 86800 90300 333 91023=
07607,1997-12-02 06:00:00,12,1006.1,-2.3,88,10,10000,22.224,,,230,11,12.8,,,,,4,,,,wg-a,,,,AAXX 02064 07607 02660 /2312 10120 20100 39991 40061 56023 60006 86500 90600 333 10128 20110 60044=
07607,1997-12-02 09:00:00,11,1008.8,2.6,94,10,10000,22.224,,,280,,,,2,,,,,,25,wg-a,,,,AAXX 02094 07607 12360 62812 10110 20100 30017 40088 51026 60027 72586 86800 90900=
07607,1997-12-02 12:00:00,11,1010.2,1.4,87,9,12000,25.928,,42.596,290,,,,1,,,,,,25,wg-a,,,,AAXX 02124 07607 02362 72914 10110 20090 30031 40102 51014 60036 72586 878// 91200 333 60017 91023=
07607,1997-12-02 15:00:00,9,1011.9,1.6,87,7,20000,14.816,,,270,,,,,,,,,,,wg-a,,,,AAXX 02154 07607 12470 62708 10090 20070 30047 40119 53016 60006 86800 91500=
07607,1997-12-02 18:00:00,5,1014.7,2.7,93,4,20000,11.112,,,250,5.2,12.6,,,,,,,,,wg-a,,,,AAXX 02184 07607 12670 32506 10050 20040 30074 40147 51027 60006 83100 91800 333 10126 20052=
07607,1997-12-03 00:00:00,1,1015.9,-0.7,100,1,10000,0,,,0,,,,,,,,,,,wg-a,,,,AAXX 03004 07607 12/60 00000 10010 20010 30085 40159 58007 60006 80000 90000=
07607,1997-12-03 03:00:00,2,1013.7,-2.2,100,2,10000,7.408,,,250,,,,,,,,,,,wg-a,,,,AAXX 03034 07607 12660 /2504 10020 20020 30063 40137 56022 60006 86500 90300=
07607,1997-12-03 06:00:00,5,1014.7,1.1,93,4,8000,14.816,,,330,0.4,5.3,,,,,,,,21,wg-a,,,,AAXX 03064 07607 02358 83308 10050 20040 30074 40147 53011 61000 72161 885// 90600 333 10053 20004 6004=
07607,1997-12-03 09:00:00,4,1017.5,2.8,93,3,12000,7.408,,,250,,,,,,,,,,,wg-a,,,,AAXX 03094 07607 12462 22504 10040 20030 30102 40175 51028 60006 82100 90900=
07607,1997-12-03 12:00:00,6,1017.3,-0.2,75,2,12000,3.704,,,330,,,,,,,,,,,wg-a,,,,AAXX 03124 07607 12462 43302 10060 20020 30100 40173 58002 60006 84100 91200=
07607,1997-12-03 15:00:00,8,1016.9,-0.3,49,-2,25000,3.704,,,320,,,,,,,,,,,wg-a,,,,AAXX 03154 07607 12575 /3202 10080 21020 30097 40169 56003 60006 81100 91500=
07607,1997-12-03 18:00:00,1,1017.4,0.3,93,0,15000,0,,,0,0.9,8.8,,,,,,,,,wg-a,,,,AAXX 03184 07607 12665 /0000 10010 20000 30100 40174 52003 60006 81500 91800 333 10088 20009=
07607,1997-12-04 00:00:00,-3,1017.8,-0.2,100,-3,12000,0,,,0,,,,,,,,,,,wg-a,,,,AAXX 04004 07607 12/62 00000 11030 21030 30103 40178 58002 60006 80000 90000=
07607,1997-12-04 03:00:00,-4,1017.3,-0.6,100,-4,10000,3.704,,,100,,,,,,,,,,,wg-a,,,,AAXX 04034 07607 12/60 01002 11040 21040 30097 40173 56006 60006 80000 90300=
07607,1997-12-04 06:00:00,-5,1016.5,-0.8,100,-5,10000,3.704,,,120,-5.2,1,,,,,,,,,wg-a,,,,AAXX 04064 07607 02/60 01202 11050 21050 30089 40165 56008 60006 80000 90600 333 10010 21052 60004=
07607,1997-12-04 12:00:00,4,1017,-0.2,70,-1,25000,14.816,,,30,,,,,,,,,,,wg-a,,,,AAXX 04124 07607 12/75 20308 10040 21010 30096 40170 58002 60006 80002 91200=
07607,1997-12-04 15:00:00,6,1015.7,-1.2,61,-1,25000,7.408,,,60,,,,,,,,,,,wg-a,,,,AAXX 04154 07607 12675 70604 10060 21010 30084 40157 56012 60006 8587/ 91500=
07607,1997-12-04 18:00:00,3,1016.8,1,87,1,12000,0,,,0,-5.6,5.9,,,,,,,,,wg-a,,,,AAXX 04184 07607 12662 70000 10030 20010 30094 40168 52010 60006 8553/ 91800 333 10059 21056=
07607,1997-12-05 00:00:00,-1,1018.6,0.8,100,-1,10000,0,,,0,,,,,,,,,,,wg-a,,,,AAXX 05004 07607 12760 50000 11010 21010 30111 40186 51008 60006 85500 90000=
07607,1997-12-05 03:00:00,-3,1019.2,0.6,100,-3,10000,0,,,0,,,,,,,,,,,wg-a,,,,AAXX 05034 07607 12/60 00000 11030 21030 30117 40192 53006 60006 80000 90300=
07607,1997-12-05 06:00:00,-4,1020.4,1.1,100,-4,10000,3.704,,,250,-3.7,3.3,,,,,,,,,wg-a,,,,AAXX 05064 07607 02760 32502 11040 21040 30128 40204 53011 60006 83500 90600 333 10033 21037 60004=
07607,1997-12-05 09:00:00,-2,1022.9,2.5,100,-2,15000,0,,,0,,,,,,,,,,,wg-a,,,,AAXX 05094 07607 12/65 00000 11020 21020 30153 40229 53025 60006 80000 90900=
07607,1997-12-05 12:00:00,2,1023.6,0.9,93,1,6000,0,,,0,,,,,,,,,,,wg-a,,,,AAXX 05124 07607 12356 50000 10020 20010 30162 40236 51009 60006 85500 91200=
07607,1997-12-05 15:00:00,3,1023.7,0.1,87,1,10000,7.408,,,160,,,,,,,,,,,wg-a,,,,AAXX 05154 07607 12560 31604 10030 20010 30163 40237 53001 60006 83500 91500=
07607,1997-12-05 18:00:00,0,1025.6,1.8,93,-1,4000,0,,,0,-4.2,3.8,,,,,,,,10,wg-a,,,,AAXX 05184 07607 12/40 00000 10000 21010 30181 40256 52018 60006 71011 80000 91800 333 10038 21042=
07607,1997-12-06 00:00:00,-3,1026.9,0.1,100,-3,1500,0,,,0,,,,,,,,,,10,wg-a,,,,AAXX 06004 07607 12/15 00000 11030 21030 30193 40269 50001 60006 71000 80000 90000=
07607,1997-12-06 03:00:00,-2,1027,0.1,100,-2,1500,0,,,0,,,,,,,,,,10,wg-a,,,,AAXX 06034 07607 12615 /0000 11020 21020 30194 40270 53001 60006 71011 86500 90300=
07607,1997-12-06 12:00:00,3,1026.1,-1,93,2,8000,0,,,0,,,,,,,,,,,wg-a,,,,AAXX 06124 07607 12/58 00000 10030 20020 30187 40261 58010 60006 80000 91200=
07607,1997-12-06 15:00:00,6,1024.3,-1.7,75,2,12000,3.704,,,20,,,,,,,,,,,wg-a,,,,AAXX 06154 07607 12/62 00202 10060 20020 30170 40243 56017 60006 80000 91500=
07607,1997-12-06 18:00:00,1,1025.2,0.7,100,1,500,11.112,,,80,-4.9,7.4,,,,,,,,44,wg-a,,,,AAXX 06184 07607 12205 70806 10010 20010 30177 40252 51007 60006 74441 876// 91800 333 10074 21049=
07607,1997-12-06 21:00:00,-1,1025.2,-0,100,-1,400,14.816,,,80,,,,,,,,,,44,wg-a,,,,AAXX 06214 07607 12204 70808 11010 21010 30177 40252 54000 60006 74444 876// 92100=
07607,1997-12-07 00:00:00,0,1024,-1.2,100,0,400,7.408,,,100,,,,,,,,,,45,wg-a,,,,AAXX 07004 07607 12/04 91004 10000 20000 30165 40240 56012 60006 74544 89/// 90000=
07607,1997-12-07 09:00:00,-1,1019.7,-0.9,100,-1,600,14.816,,,100,,,,,,,,,,44,wg-a,,,,AAXX 07094 07607 12106 71008 11010 21010 30122 40197 58009 60006 74444 876// 90900=
07607,1997-12-07 12:00:00,1,1018.4,-1.2,100,1,7000,11.112,,,80,,,,,,,,,,1,wg-a,,,,AAXX 07124 07607 12157 70806 10010 20010 30110 40184 58012 60006 70142 876// 91200=
07607,1997-12-07 15:00:00,4,1016.6,-1.7,87,2,15000,7.408,,,130,,,,,,,,,,,wg-a,,,,AAXX 07154 07607 12/65 41304 10040 20020 30093 40166 56017 60006 82031 91500=
07607,1997-12-07 21:00:00,0,1016.2,-0.3,100,0,4000,7.408,,,80,,,,,,,,,,10,wg-a,,,,AAXX 07214 07607 12/40 /0804 10000 20000 30087 40162 58003 60006 71011 83035 92100=
07607,1997-12-08 00:00:00,2,1015.6,-0.5,100,2,4000,3.704,,,60,,,,,,,,,,10,wg-a,,,,AAXX 08004 07607 12740 70602 10020 20020 30082 40156 58005 60006 71011 8253/ 90000=
07607,1997-12-08 03:00:00,3,1015.3,-0.3,100,3,3000,7.408,,,100,,,,,,,,,,,wg-a,,,,AAXX 08034 07607 12/30 /1004 10030 20030 30079 40153 58003 60006 90300=
07607,1997-12-08 06:00:00,3,1015.3,-0,100,3,4000,3.704,,,90,-0.7,3.5,,,,,,,,10,wg-a,,,,AAXX 08064 07607 02740 40902 10030 20030 30079 40153 55000 60006 71011 8153/ 90600 333 10035 21007 60004=
07607,1997-12-08 09:00:00,6,1016.3,1.1,87,4,10000,0,,,0,,,,,,,,,,,wg-a,,,,AAXX 08094 07607 12560 40000 10060 20040 30090 40163 53011 60006 83830 90900=
07607,1997-12-08 12:00:00,12,1014.9,-1.2,82,9,20000,11.112,,,250,,,,,,,,,,,wg-a,,,,AAXX 08124 07607 12570 72506 10120 20090 30078 40149 58012 60006 878// 91200=
07607,1997-12-08 18:00:00,9,1014,0.1,93,8,15000,0,,,0,2.3,14.8,,,,,,,,,wg-a,,,,AAXX 08184 07607 12665 60000 10090 20080 30068 40140 52001 60006 85830 91800 333 10148 20023=
07607,1997-12-08 21:00:00,10,1016,2,100,10,8000,7.408,,,240,,,,1,,,,,,80,wg-a,,,,AAXX 08214 07607 12458 72404 10100 20100 30088 40160 52020 60017 78086 878// 92100=
07607,1997-12-09 00:00:00,10,1016.4,0.4,93,9,8000,7.408,,,210,,,,0,,,,,,3,wg-a,,,,AAXX 09004 07607 02558 72104 10100 20090 30092 40164 51004 60026 70386 878// 90000 333 60007=
07607,1997-12-09 06:00:00,9,1018.8,1.5,100,9,10000,7.408,,,200,8.1,10.1,,,,,3,,,1,wg-a,,,,AAXX 09064 07607 02660 32004 10090 20090 30116 40188 53015 60006 70186 82530 90600 333 10101 20081 60034=
07607,1997-12-09 12:00:00,13,1020.4,-0.2,88,11,20000,11.112,,,230,,,,,,,,,,,wg-a,,,,AAXX 09124 07607 12470 72306 10130 20110 30133 40204 58002 60006 84872 91200=
07607,1997-12-09 15:00:00,13,1020.5,0.1,88,11,20000,11.112,,,210,,,,0,,,,,,2,wg-a,,,,AAXX 09154 07607 12470 72106 10130 20110 30134 40205 53001 60007 70286 85202 91500=
07607,1997-12-10 00:00:00,7,1020.6,-0.6,100,7,8000,3.704,,,100,,,,,,,,,,,wg-a,,,,AAXX 10004 07607 12758 71002 10070 20070 30133 40206 58006 60006 82532 90000=
07607,1997-12-10 03:00:00,7,1020.5,-0.1,100,7,10000,7.408,,,90,,,,,,,,,,,wg-a,,,,AAXX 10034 07607 12760 80904 10070 20070 30132 40205 55001 60006 84572 90300=
07607,1997-12-10 06:00:00,7,1019.8,-0.7,100,7,10000,3.704,,,120,6.4,11.7,,,,,,,,,wg-a,,,,AAXX 10064 07607 02660 81202 10070 20070 30125 40198 56007 60006 8557/ 90600 333 10117 20064 60004=
07607,1997-12-10 18:00:00,13,1021.1,1,100,13,500,11.112,,,210,6.7,13.1,,,,,,,,50,wg-a,,,,AAXX 10184 07607 02300 82106 10130 20130 30140 40211 53010 61000 75065 875// 91800 333 10131 20067 6000=
07607,1997-12-10 21:00:00,13,1021.9,0.8,100,13,8000,3.704,,,240,,,,,,,,,,51,wg-a,,,,AAXX 10214 07607 02458 72402 10130 20130 30148 40219 51008 61000 75152 875// 92100 333 ////=
07607,1997-12-11 06:00:00,9,1020,0,100,9,600,7.408,,,80,7.9,13.5,,,,,3,,,,wg-a,,,,AAXX 11064 07607 02/06 /0804 10090 20090 30128 40200 50000 60006 90600 333 10135 20079 60034=
07607,1997-12-11 09:00:00,10,1020.7,0.7,100,10,500,0,,,0,,,,,,,,,,1,wg-a,,,,AAXX 11094 07607 12700 /0000 10100 20100 30135 40207 53007 60006 70141 82532 90900=
07607,1997-12-11 12:00:00,18,1019.5,-1,73,13,10000,7.408,,,210,,,,,,,,,,3,wg-a,,,,AAXX 11124 07607 12/60 72104 10180 20130 30125 40195 58010 60006 70341 83032 91200=
07607,1997-12-11 15:00:00,17,1018.4,-1.1,77,13,10000,7.408,,,310,,,,,,,,,,,wg-a,,,,AAXX 11154 07607 12760 73104 10170 20130 30114 40184 55011 60006 865/2 91500=
07607,1997-12-11 18:00:00,15,1019.1,0.6,94,14,10000,14.816,,,280,7.4,18.3,,,,,,,,,wg-a,,,,AAXX 11184 07607 12660 72808 10150 20140 30120 40191 53006 60006 8553/ 91800 333 10183 20074=
07607,1997-12-11 21:00:00,14,1019.6,0.5,100,14,10000,11.112,,,240,,,,1,,,,,,60,wg-a,,,,AAXX 11214 07607 12360 82406 10140 20140 30125 40196 52005 60017 76062 875// 92100=
07607,1997-12-12 00:00:00,13,1020.3,0.7,94,12,11000,14.816,,,230,,,,,,,,,,,wg-a,,,,AAXX 12004 07607 12/61 /2308 10130 20120 30132 40203 50007 60026 90000=
07607,1997-12-12 03:00:00,11,1021.8,1.4,100,11,10000,11.112,,,250,,,,0,,,,,,1,wg-a,,,,AAXX 12034 07607 12460 72506 10110 20110 30146 40218 53014 60007 70186 81830 90300=
07607,1997-12-12 06:00:00,10,1022.6,0.8,100,10,8000,7.408,,,240,10.4,15,,,,,2,,,1,wg-a,,,,AAXX 12064 07607 02658 /2404 10100 20100 30154 40226 53008 60006 70186 8453/ 90600 333 10150 20104 60024=
07607,1997-12-12 09:00:00,10,1025.1,2.5,100,10,8000,0,,,0,,,,0,,,,,,61,wg-a,,,,AAXX 12094 07607 12558 70000 10100 20100 30179 40251 53025 60007 76164 83832 90900=
07607,1997-12-12 12:00:00,12,1026,0.9,76,8,15000,11.112,,,350,,,,0,,,,,,3,wg-a,,,,AAXX 12124 07607 02465 53506 10120 20080 30188 40260 50009 60016 70386 83132 91200 333 60007=
07607,1997-12-12 18:00:00,6,1029.6,2.6,100,6,15000,3.704,,,280,5.9,12.8,,,,,,,,,wg-a,,,,AAXX 12184 07607 32/65 32802 10060 20060 30222 40296 53026 80001 91800 333 10128 20059=
07607,1997-12-13 00:00:00,0,1031.9,0.3,100,0,0,0,,,0,,,,,,,,,,,wg-a,,,,AAXX 13004 07607 12/// /0000 10000 20000 30244 40319 50003 60006 90000=
07607,1997-12-13 06:00:00,-1,1032.3,0.1,100,-1,400,0,,,0,-0.9,5.8,,,,,1,,,46,wg-a,,,,AAXX 13064 07607 02104 60000 11010 21010 30247 40323 53001 60006 74641 83705 90600 333 10058 21009 60014=
07607,1997-12-13 12:00:00,5,1033.3,0,100,5,800,3.704,,,110,,,,,,,,,,42,wg-a,,,,AAXX 13124 07607 12108 51102 10050 20050 30259 40333 50000 60006 74244 85700 91200=
07607,1997-12-13 18:00:00,3,1032.7,0.4,93,2,20000,7.408,,,40,-0.9,11.4,,,,,,,,2,wg-a,,,,AAXX 13184 07607 12570 20404 10030 20020 30252 40327 53004 60006 70241 82501 91800 333 10114 21009=
07607,1997-12-14 00:00:00,-2,1031.7,-0.6,100,-2,6000,3.704,,,60,,,,,,,,,,,wg-a,,,,AAXX 14004 07607 12/56 00602 11020 21020 30241 40317 58006 60006 80000 90000=
07607,1997-12-14 06:00:00,-3,1028.7,-1.5,100,-3,3000,7.408,,,90,-2.7,3.4,,,,,,,,28,wg-a,,,,AAXX 14064 07607 02/30 20904 11030 21030 30211 40287 56015 60006 72841 80001 90600 333 10034 21027 60004=
07607,1997-12-14 12:00:00,8,1025.4,-2.5,66,2,500,18.52,,,90,,,,,,,,,,,wg-a,,,,AAXX 14124 07607 12/00 30910 10080 20020 30181 40254 58025 60006 83030 91200=
07607,1997-12-14 18:00:00,4,1022.2,-1.8,87,2,15000,7.408,,,80,-3.5,9.8,,,,,,,,,wg-a,,,,AAXX 14184 07607 12/65 20804 10040 20020 30148 40222 58018 60006 82030 91800 333 10098 21035=
07607,1997-12-15 00:00:00,3,1020.1,-1.1,87,1,15000,11.112,,,40,,,,,,,,,,,wg-a,,,,AAXX 15004 07607 12/65 70406 10030 20010 30127 40201 57011 60006 8703/ 90000=
07607,1997-12-15 06:00:00,0,1018.5,-1,100,0,0,7.408,,,60,-0.1,4.4,,,,,,,,,wg-a,,,,AAXX 15064 07607 02/// /0604 10000 20000 30110 40185 58010 60006 90600 333 10044 21001 60004=
07607,1997-12-15 12:00:00,7,1017.4,-1.5,70,2,20000,11.112,,,40,,,,,,,,,,,wg-a,,,,AAXX 15124 07607 12470 /0406 10070 20020 30101 40174 58015 60006 81100 91200=
07607,1997-12-15 15:00:00,7,1015.7,-1.7,61,0,20000,18.52,,,60,,,,,,,,,,,wg-a,,,,AAXX 15154 07607 12570 20610 10070 20000 30084 40157 56017 60006 82500 91500=
07607,1997-12-15 18:00:00,2,1015.6,-0.2,87,0,20000,3.704,,,20,0.2,7.6,,,,,,,,,wg-a,,,,AAXX 15184 07607 12670 /0202 10020 20000 30082 40156 57002 60006 81500 91800 333 10076 20002=
07607,1997-12-15 21:00:00,1,1015.6,0,80,-2,15000,14.816,,,20,,,,,,,,,,,wg-a,,,,AAXX 15214 07607 12665 /0208 10010 21020 30082 40156 50000 60006 85500 92100=
07607,1997-12-16 00:00:00,1,1013.6,-2,80,-2,15000,3.704,,,360,,,,,,,,,,,wg-a,,,,AAXX 16004 07607 12665 /3602 10010 21020 30062 40136 58020 60006 85500 90000=
07607,1997-12-16 03:00:00,-1,1011.5,-2.1,93,-2,15000,7.408,,,30,,,,,,,,,,,wg-a,,,,AAXX 16034 07607 12665 40304 11010 21020 30041 40115 58021 60006 84500 90300=
07607,1997-12-16 06:00:00,-1,1009.2,-2.3,100,-1,15000,7.408,,,60,-1.7,2,,,,,,,,,wg-a,,,,AAXX 16064 07607 02665 70604 11010 21010 30018 40092 58023 60006 875// 90600 333 10020 21017 60004=
07607,1997-12-16 15:00:00,1,1000.7,-3.6,100,1,1000,7.408,,,260,,,,2,,,,,,10,wg-a,,,,AAXX 16154 07607 12210 82604 10010 20010 39934 40007 56036 60027 71076 877// 91500=
07607,1997-12-16 18:00:00,1,999.3,-1.4,100,1,1000,3.704,,,250,-1.1,1.4,,,,,,,,61,wg-a,,,,AAXX 16184 07607 02210 82502 10010 20010 39920 49993 56014 61000 76176 877// 91800 333 10014 21011 6001=
07607,1997-12-16 21:00:00,1,999.7,0.4,100,1,2000,3.704,,,170,,,,0,,,,,,10,wg-a,,,,AAXX 16214 07607 12220 81702 10010 20010 39924 49997 50004 60007 71066 877// 92100=
07607,1997-12-17 00:00:00,1,999.5,-0.2,100,1,3000,3.704,,,260,,,,,,,,,,10,wg-a,,,,AAXX 17004 07607 02230 82602 10010 20010 39922 49995 57002 60006 71066 877// 90000 333 61000=
07607,1997-12-17 03:00:00,2,998.1,-1.4,100,2,2500,7.408,,,80,,,,1,,,,,,10,wg-a,,,,AAXX 17034 07607 12225 80804 10020 20020 39908 49981 56014 60017 71066 877// 90300=
07607,1997-12-17 06:00:00,2,997.2,-0.8,100,2,4000,3.704,,,100,0.6,2.4,,,,,,,,10,wg-a,,,,AAXX 17064 07607 02240 81002 10020 20020 39900 49972 58008 61000 71066 875// 90600 333 10024 20006 6005=
07607,1997-12-17 09:00:00,5,996.6,-0.6,100,5,3000,11.112,,,100,,,,0,,,,,,10,wg-a,,,,AAXX 17094 07607 12530 81006 10050 20050 39894 49966 58006 60007 71066 8757/ 90900=
07607,1997-12-17 21:00:00,13,994.6,-0.4,82,10,10000,11.112,,,100,,,,0,,,,,,,wg-a,,,,AAXX 17214 07607 12660 71006 10130 20100 39877 49946 58004 60007 875// 92100=
07607,1997-12-18 00:00:00,12,994.5,-0.2,94,11,10000,11.112,,,90,,,,0,,,,,,61,wg-a,,,,AAXX 18004 07607 02660 70906 10120 20110 39875 49945 58002 60006 76162 875// 90000 333 60007=
07607,1997-12-18 03:00:00,13,993.6,-0.8,94,12,10000,18.52,,,100,,,,1,,,,,,21,wg-a,,,,AAXX 18034 07607 12660 71010 10130 20120 39867 49936 58008 60017 72162 875// 90300=
07607,1997-12-18 06:00:00,12,995.3,1.6,100,12,10000,7.408,,,300,11.7,13.1,,,,,,,,61,wg-a,,,,AAXX 18064 07607 02660 73004 10120 20120 39883 49953 53016 61000 76162 875// 90600 333 10131 20117 6003=
07607,1997-12-18 09:00:00,12,997,1.7,100,12,6000,3.704,,,150,,,,2,,,,,,62,wg-a,,,,AAXX 18094 07607 12356 71502 10120 20120 39900 49970 53017 60027 76262 875// 90900=
07607,1997-12-18 12:00:00,12,996.1,-0.9,100,12,8000,7.408,,,360,,,,1,,,,,,60,wg-a,,,,AAXX 18124 07607 02458 83604 10120 20120 39891 49961 58009 60046 76086 878// 91200 333 60017=
07607,1997-12-18 18:00:00,8,997.6,0.7,100,8,10000,0,,,0,8.4,13,,,,,,,,12,wg-a,,,,AAXX 18184 07607 02560 40000 10080 20080 39905 49976 51007 60006 71286 81162 91800 333 10130 20084 61000=
07607,1997-12-18 21:00:00,5,999.1,1.4,100,5,8000,7.408,,,100,,,,,,,,,,,wg-a,,,,AAXX 18214 07607 12/58 01004 10050 20050 39919 49991 53014 60006 80000 92100=
07607,1997-12-19 00:00:00,6,999.4,0.3,100,6,500,7.408,,,90,,,,,,,,,,42,wg-a,,,,AAXX 19004 07607 12/05 40904 10060 20060 39922 49994 50003 60006 74240 80002 90000=
07607,1997-12-19 03:00:00,6,998.8,-0.5,100,6,4000,7.408,,,80,,,,,,,,,,10,wg-a,,,,AAXX 19034 07607 12740 /0804 10060 20060 39917 49988 58005 60006 71041 85500 90300=
07607,1997-12-19 06:00:00,6,998,-0.8,100,6,500,7.408,,,100,4.3,8.7,,,,,7,,,3,wg-a,,,,AAXX 19064 07607 02/00 /1004 10060 20060 39909 49980 55008 60006 70341 83032 90600 333 10087 20043 60074=
07607,1997-12-19 09:00:00,7,999.1,1.1,100,7,8000,3.704,,,110,,,,,,,,,,1,wg-a,,,,AAXX 19094 07607 12258 41102 10070 20070 39920 49991 53011 60006 70141 81632 90900=
07607,1997-12-19 12:00:00,14,998.4,-0.6,72,9,25000,7.408,,,90,,,,,,,,,,3,wg-a,,,,AAXX 19124 07607 12775 60904 10140 20090 39914 49984 58006 60006 70341 81532 91200=
07607,1997-12-19 15:00:00,15,998.3,-0,72,10,500,11.112,,,110,,,,,,,,,,,wg-a,,,,AAXX 19154 07607 12700 61106 10150 20100 39914 49983 55000 60006 82572 91500=
07607,1997-12-19 18:00:00,11,1000.5,2.1,94,10,15000,7.408,,,80,4.3,16,,,,,,,,,wg-a,,,,AAXX 19184 07607 12665 70804 10110 20100 39935 40005 52021 60006 875// 91800 333 10160 20043=
07607,1997-12-19 21:00:00,9,1001.6,1,100,9,10000,0,,,0,,,,,,,,,,1,wg-a,,,,AAXX 19214 07607 02660 /0000 10090 20090 39945 40016 52010 61000 70162 85500 92100 333 ////=
07607,1997-12-20 03:00:00,8,1003.6,0.3,100,8,6000,3.704,,,220,,,,1,,,,,,1,wg-a,,,,AAXX 20034 07607 12556 /2202 10080 20080 39965 40036 53003 60017 70186 86800 90300=
07607,1997-12-20 06:00:00,8,1004.6,1,100,8,8000,3.704,,,210,6.7,10.8,,,,,,,,25,wg-a,,,,AAXX 20064 07607 02558 82102 10080 20080 39975 40046 53010 61000 72586 878// 90600 333 10108 20067 6006=
07607,1997-12-20 15:00:00,8,1007.3,0,93,7,10000,22.224,,38.892,200,,,,3,,,,,,25,wg-a,,,,AAXX 20154 07607 12460 82012 10080 20070 30002 40073 50000 60037 72586 8787/ 91500 333 91021=
07607,1997-12-20 18:00:00,9,1009,1.7,100,9,500,14.816,,,210,7.4,10.5,,,,,,,,61,wg-a,,,,AAXX 20184 07607 02400 82108 10090 20090 30019 40090 53017 61000 76186 878// 91800 333 10105 20074 6004=
07607,1997-12-20 21:00:00,10,1010.6,1.6,100,10,7000,14.816,,,220,,,,2,,,,,,25,wg-a,,,,AAXX 20214 07607 12457 72208 10100 20100 30035 40106 51016 60027 72586 878// 92100=
07607,1997-12-21 00:00:00,10,1012,1.4,100,10,7000,18.52,,,220,,,,0,,,,,,2,wg-a,,,,AAXX 21004 07607 02457 62210 10100 20100 30049 40120 51014 60026 70286 86800 90000 333 60007=
07607,1997-12-21 03:00:00,9,1013,0.9,100,9,7000,11.112,,,210,,,,1,,,,,,,wg-a,,,,AAXX 21034 07607 12457 62106 10090 20090 30058 40130 51009 60017 86800 90300=
07607,1997-12-21 06:00:00,10,1014.2,1.2,93,9,8000,14.816,,,230,9.3,10.5,,,,,14,,,1,wg-a,,,,AAXX 21064 07607 02558 52308 10100 20090 30070 40142 53012 60006 70186 82832 90600 333 10105 20093 60144=
07607,1997-12-21 12:00:00,12,1015.6,-0.3,82,9,15000,11.112,,,210,,,,0,,,,,,2,wg-a,,,,AAXX 21124 07607 02565 /2106 10120 20090 30085 40156 58003 60016 70286 86800 91200 333 60007=
07607,1997-12-21 15:00:00,13,1014.4,-1.2,77,9,25000,14.816,,,230,,,,,,,,,,,wg-a,,,,AAXX 21154 07607 12575 62308 10130 20090 30073 40144 56012 60006 85802 91500=
07607,1997-12-21 21:00:00,4,1013.8,-0.6,100,4,8000,7.408,,,70,,,,,,,,,,,wg-a,,,,AAXX 21214 07607 12/58 /0704 10040 20040 30065 40138 56006 60006 80002 92100=
07607,1997-12-22 00:00:00,3,1012.4,-1.4,100,3,8000,11.112,,,80,,,,,,,,,,,wg-a,,,,AAXX 22004 07607 12/58 /0806 10030 20030 30051 40124 58014 60006 80002 90000=
07607,1997-12-22 06:00:00,4,1010.2,-1.6,100,4,7000,11.112,,,90,3,,,,,,1,,,,wg-a,,,,AAXX 22064 07607 02/57 30906 10040 20040 30029 40102 56016 60006 80002 90600 333 10068 20030 60014=
07607,1997-12-22 09:00:00,7,1010.3,0.2,93,6,15000,11.112,,,100,,,,,,,,,,,wg-a,,,,AAXX 22094 07607 12/65 71006 10070 20060 30031 40103 53002 60006 83032 90900=
07607,1997-12-22 12:00:00,10,1009.8,-0.4,76,6,20000,7.408,,,100,,,,,,,,,,,wg-a,,,,AAXX 22124 07607 12770 81004 10100 20060 30027 40098 58004 60006 8357/ 91200=
07607,1997-12-22 15:00:00,9,1010.1,0.3,93,8,3000,7.408,,,110,,,,,,,,,,10,wg-a,,,,AAXX 22154 07607 02330 81104 10090 20080 30030 40101 53003 61000 71065 875// 91500 333 ////=
07607,1997-12-22 18:00:00,10,1011.8,1.7,100,10,500,7.408,,,270,3.8,10,,,,,,,,60,wg-a,,,,AAXX 22184 07607 02500 82704 10100 20100 30047 40118 53017 61000 76065 8652/ 91800 333 10100 20038 6100=
07607,1997-12-23 00:00:00,12,1017.3,2.8,100,12,500,18.52,,,290,,,,1,,,,,,21,wg-a,,,,AAXX 23004 07607 02300 82910 10120 20120 30102 40173 53028 60026 72162 875// 90000 333 60017=
07607,1997-12-23 03:00:00,11,1021,3.6,94,10,8000,11.112,,,260,,,,1,,,,,,21,wg-a,,,,AAXX 23034 07607 12358 82606 10110 20100 30138 40210 53036 60017 72162 875// 90300=
07607,1997-12-23 06:00:00,10,1023.3,2.3,100,10,10000,11.112,,,230,10,12.4,,,,,2,,,3,wg-a,,,,AAXX 23064 07607 02560 72306 10100 20100 30161 40233 53023 60006 70362 875// 90600 333 10124 20100 60024=
07607,1997-12-23 09:00:00,10,1026.2,2.9,100,10,10000,3.704,,,220,,,,,,,,,,,wg-a,,,,AAXX 23094 07607 12460 72202 10100 20100 30190 40262 53029 60006 878// 90900=
07607,1997-12-23 12:00:00,14,1026.9,0.8,77,10,15000,11.112,,,250,,,,,,,,,,,wg-a,,,,AAXX 23124 07607 12465 72506 10140 20100 30198 40269 50008 60006 878// 91200=
07607,1997-12-23 15:00:00,15,1027.6,0.7,72,10,11000,11.112,,,260,,,,,,,,,,,wg-a,,,,AAXX 23154 07607 12/61 /2606 10150 20100 30205 40276 53007 60006 91500=
07607,1997-12-23 18:00:00,9,1029.3,1.5,100,9,10000,3.704,,,140,8.8,15.3,,,,,,,,,wg-a,,,,AAXX 23184 07607 12660 51402 10090 20090 30220 40293 53015 60006 81531 91800 333 10153 20088=
07607,1997-12-23 21:00:00,8,1030.3,1,100,8,8000,3.704,,,100,,,,,,,,,,,wg-a,,,,AAXX 23214 07607 12/58 61002 10080 20080 30230 40303 51010 60006 84031 92100=
07607,1997-12-24 00:00:00,6,1030.4,0,100,6,8000,7.408,,,80,,,,,,,,,,,wg-a,,,,AAXX 24004 07607 12/58 60804 10060 20060 30230 40304 50000 60006 82031 90000=
07607,1997-12-24 03:00:00,5,1029.6,-0.8,100,5,6000,7.408,,,80,,,,,,,,,,,wg-a,,,,AAXX 24034 07607 12/56 50804 10050 20050 30222 40296 56008 60006 83031 90300=
07607,1997-12-24 06:00:00,4,1028.1,-1.5,100,4,6000,7.408,,,80,3.5,10.1,,,,,,,,,wg-a,,,,AAXX 24064 07607 02/56 50804 10040 20040 30207 40281 56015 60006 83031 90600 333 10101 20035 60004=
07607,1997-12-24 09:00:00,8,1027.7,-0.3,93,7,15000,7.408,,,100,,,,,,,,,,,wg-a,,,,AAXX 24094 07607 12/65 71004 10080 20070 30204 40277 55003 60006 82032 90900=
07607,1997-12-24 12:00:00,14,1026.6,-0.9,67,8,25000,7.408,,,110,,,,,,,,,,,wg-a,,,,AAXX 24124 07607 12775 71104 10140 20080 30195 40266 58009 60006 83532 91200=
07607,1997-12-24 15:00:00,15,1025.6,-1,67,9,25000,3.704,,,140,,,,,,,,,,,wg-a,,,,AAXX 24154 07607 12675 71402 10150 20090 30185 40256 56010 60006 8457/ 91500=
07607,1997-12-24 18:00:00,11,1027,1.3,94,10,10000,0,,,0,3.9,15.9,,,,,,,,,wg-a,,,,AAXX 24184 07607 12660 80000 10110 20100 30198 40270 53013 60006 8557/ 91800 333 10159 20039=
07607,1997-12-24 21:00:00,10,1027,0,100,10,10000,7.408,,,80,,,,,,,,,,,wg-a,,,,AAXX 24214 07607 12660 80804 10100 20100 30198 40270 50000 60006 8557/ 92100=
07607,1997-12-25 00:00:00,10,1026.5,-0.5,93,9,10000,3.704,,,40,,,,,,,,,,,wg-a,,,,AAXX 25004 07607 12660 80402 10100 20090 30193 40265 58005 60006 8557/ 90000=
07607,1997-12-25 06:00:00,9,1024.3,-1.4,100,9,10000,7.408,,,70,8.6,11,,,,,,,,,wg-a,,,,AAXX 25064 07607 02660 50704 10090 20090 30170 40243 58014 60006 83570 90600 333 10110 20086 60004=
07607,1997-12-25 09:00:00,10,1024,-0.2,93,9,15000,3.704,,,80,,,,,,,,,,,wg-a,,,,AAXX 25094 07607 12765 50802 10100 20090 30168 40240 58002 60006 83570 90900=
07607,1997-12-25 12:00:00,18,1021.9,-1.9,59,10,0,3.704,,,210,,,,,,,,,,,wg-a,,,,AAXX 25124 07607 12/// /2102 10180 20100 30149 40219 58019 60006 91200=
07607,1997-12-25 15:00:00,19,1020.1,-1.8,52,9,15000,7.408,,,220,,,,,,,,,,,wg-a,,,,AAXX 25154 07607 12765 82204 10190 20090 30131 40201 56018 60006 83571 91500=
07607,1997-12-25 18:00:00,14,1022,1.8,82,11,15000,11.112,,,260,6.5,20,,,,,,,,,wg-a,,,,AAXX 25184 07607 12765 82606 10140 20110 30149 40220 51018 60006 8357/ 91800 333 10200 20065=
07607,1997-12-25 21:00:00,12,1024.1,2,100,12,12000,11.112,,,280,,,,,,,,,,,wg-a,,,,AAXX 25214 07607 12562 82806 10120 20120 30169 40241 51020 60006 875// 92100=
07607,1997-12-26 00:00:00,11,1023.3,-0.8,100,11,8000,7.408,,,210,,,,0,,,,,,60,wg-a,,,,AAXX 26004 07607 02458 82104 10110 20110 30161 40233 58008 60006 76062 885// 90000 333 60007=
07607,1997-12-26 03:00:00,11,1022.2,-1.1,100,11,8000,7.408,,,210,,,,3,,,,,,61,wg-a,,,,AAXX 26034 07607 12358 82104 10110 20110 30150 40222 56011 60037 76166 885// 90300=
07607,1997-12-26 06:00:00,10,1020.3,-1.9,100,10,8000,7.408,,,220,10.2,14.7,,0,,,4,,,60,wg-a,,,,AAXX 26064 07607 02358 82204 10100 20100 30131 40203 56019 60044 76062 885// 90600 333 10147 20102 60007=
07607,1997-12-26 12:00:00,12,1020.9,-0.4,88,10,20000,18.52,,,240,,,,1,,,,,,1,wg-a,,,,AAXX 26124 07607 02470 62410 10120 20100 30138 40209 58004 60026 70186 85802 91200 333 60017=
07607,1997-12-26 21:00:00,9,1020.9,-0.3,93,8,8000,11.112,,,210,,,,3,,,,,,,wg-a,,,,AAXX 26214 07607 12/58 /2106 10090 20080 30137 40209 56003 60037 92100=
07607,1997-12-27 00:00:00,8,1020.1,-0.9,100,8,8000,11.112,,,190,,,,2,,,,,,,wg-a,,,,AAXX 27004 07607 02/58 /1906 10080 20080 30128 40201 57009 60056 90000 333 60027=
07607,1997-12-27 03:00:00,8,1019.7,-0.4,93,7,8000,11.112,,,230,,,,3,,,,,,,wg-a,,,,AAXX 27034 07607 12/58 /2306 10080 20070 30124 40197 56004 60037 90300=
07607,1997-12-27 06:00:00,7,1020.2,0.5,100,7,7000,3.704,,,220,7.1,,,,,,,,,80,wg-a,,,,AAXX 27064 07607 02457 72202 10070 20070 30129 40202 53005 61000 78098 879// 90600 333 10092 20071 6013=
07607,1997-12-27 09:00:00,8,1022.1,1.9,93,7,10000,14.816,,,280,,,,3,,,,,,25,wg-a,,,,AAXX 27094 07607 12560 72808 10080 20070 30148 40221 53019 60037 72586 879// 90900=
07607,1997-12-27 12:00:00,9,1021.8,-0.2,93,8,11000,14.816,,,240,,,,,,,,,,,wg-a,,,,AAXX 27124 07607 12/61 /2408 10090 20080 30146 40218 58002 60066 91200=
07607,1997-12-27 15:00:00,9,1021.6,-0.2,100,9,15000,14.816,,,250,,,,1,,,,,,25,wg-a,,,,AAXX 27154 07607 12565 52508 10090 20090 30144 40216 55002 60017 72586 85900 91500=
07607,1997-12-27 21:00:00,7,1023.2,0.2,100,7,10000,3.704,,,270,,,,2,,,,,,25,wg-a,,,,AAXX 27214 07607 12560 72702 10070 20070 30159 40232 50002 60027 72586 878// 92100=
07607,1997-12-28 00:00:00,7,1022.3,-0.9,100,7,10000,3.704,,,180,,,,0,,,,,,20,wg-a,,,,AAXX 28004 07607 02460 51802 10070 20070 30150 40223 56009 60026 72086 85800 90000 333 60007=
07607,1997-12-28 03:00:00,7,1021.5,-0.8,100,7,10000,0,,,0,,,,1,,,,,,,wg-a,,,,AAXX 28034 07607 12260 80000 10070 20070 30142 40215 56008 60017 8687/ 90300=
07607,1997-12-28 06:00:00,7,1020.1,-1.4,100,7,10000,7.408,,,210,6.3,7.6,,,,,13,,,3,wg-a,,,,AAXX 28064 07607 02560 72104 10070 20070 30128 40201 56014 60006 70386 878// 90600 333 10076 20063 60134=
07607,1997-12-28 09:00:00,8,1019.8,-0.3,93,7,15000,3.704,,,190,,,,,,,,,,,wg-a,,,,AAXX 28094 07607 12465 71902 10080 20070 30125 40198 56003 60006 83802 90900=
07607,1997-12-28 12:00:00,11,1017.4,-2.3,82,8,25000,7.408,,,200,,,,,,,,,,,wg-a,,,,AAXX 28124 07607 12575 62004 10110 20080 30102 40174 58023 60006 83832 91200=
07607,1997-12-28 15:00:00,11,1015,-2.3,76,7,25000,3.704,,,190,,,,,,,,,,,wg-a,,,,AAXX 28154 07607 12575 71902 10110 20070 30079 40150 56023 60006 8387/ 91500=
07607,1997-12-28 18:00:00,8,1014,-1.1,100,8,20000,7.408,,,80,7.2,12.8,,,,,,,,,wg-a,,,,AAXX 28184 07607 12/70 60804 10080 20080 30068 40140 56011 60006 83072 91800 333 10128 20072=
07607,1997-12-28 21:00:00,6,1013.2,-0.9,100,6,20000,7.408,,,70,,,,,,,,,,,wg-a,,,,AAXX 28214 07607 12/70 40704 10060 20060 30059 40132 58009 60006 82072 92100=
07607,1997-12-29 00:00:00,5,1012.4,-0.8,100,5,15000,7.408,,,90,,,,,,,,,,,wg-a,,,,AAXX 29004 07607 12/65 00904 10050 20050 30051 40124 56008 60006 80000 90000=
07607,1997-12-29 03:00:00,3,1011.4,-1,100,3,10000,7.408,,,90,,,,,,,,,,,wg-a,,,,AAXX 29034 07607 12/60 00904 10030 20030 30041 40114 58010 60006 80000 90300=
07607,1997-12-29 06:00:00,3,1010.8,-0.6,100,3,10000,7.408,,,100,2.5,8.1,,,,,,,,,wg-a,,,,AAXX 29064 07607 02/60 01004 10030 20030 30035 40108 55006 60006 80000 90600 333 10081 20025 60004=
07607,1997-12-29 09:00:00,4,1011.7,0.9,100,4,10000,7.408,,,80,,,,,,,,,,,wg-a,,,,AAXX 29094 07607 12760 60804 10040 20040 30044 40117 51009 60006 86500 90900=
07607,1997-12-29 12:00:00,11,1010.3,-1.2,76,7,20000,7.408,,,110,,,,,,,,,,,wg-a,,,,AAXX 29124 07607 12/70 01104 10110 20070 30032 40103 58012 60006 80000 91200=
07607,1997-12-29 15:00:00,13,1009,-1.2,67,7,10000,11.112,,,100,,,,,,,,,,,wg-a,,,,AAXX 29154 07607 12/60 /1006 10130 20070 30020 40090 56012 60006 91500=
07607,1997-12-29 18:00:00,9,1009.7,0.5,87,7,20000,11.112,,,90,2.1,13.6,,,,,,,,,wg-a,,,,AAXX 29184 07607 12/70 30906 10090 20070 30025 40097 53005 60006 83030 91800 333 10136 20021=
07607,1997-12-29 21:00:00,6,1010.1,0.4,93,5,20000,7.408,,,100,,,,,,,,,,,wg-a,,,,AAXX 29214 07607 12/70 41004 10060 20050 30029 40101 50004 60006 84030 92100=
07607,1997-12-30 00:00:00,4,1010.3,0.1,100,4,15000,11.112,,,90,,,,,,,,,,,wg-a,,,,AAXX 30004 07607 12/65 30906 10040 20040 30030 40103 50001 60006 83030 90000=
07607,1997-12-30 03:00:00,5,1011.2,0.9,100,5,10000,7.408,,,100,,,,,,,,,,,wg-a,,,,AAXX 30034 07607 12760 71004 10050 20050 30039 40112 53009 60006 8353/ 90300=
07607,1997-12-30 06:00:00,6,1011.6,0.5,93,5,10000,7.408,,,100,3.7,8.8,,,,,,,,,wg-a,,,,AAXX 30064 07607 02660 71004 10060 20050 30044 40116 53005 60006 8553/ 90600 333 10088 20037 60004=
07607,1997-12-30 09:00:00,7,1013.4,1.8,93,6,10000,7.408,,,110,,,,,,,,,,,wg-a,,,,AAXX 30094 07607 12460 71104 10070 20060 30062 40134 53018 60006 8583/ 90900=
07607,1997-12-30 12:00:00,11,1012.6,-0.7,87,9,20000,0,,,0,,,,,,,,,,,wg-a,,,,AAXX 30124 07607 12670 70000 10110 20090 30055 40126 58007 60006 875// 91200=
07607,1997-12-30 15:00:00,13,1012.2,-0.4,88,11,20000,3.704,,,80,,,,,,,,,,,wg-a,,,,AAXX 30154 07607 12470 70802 10130 20110 30051 40122 56004 60006 878// 91500=
07607,1997-12-30 18:00:00,11,1011.8,-0.4,94,10,10000,7.408,,,100,6.1,12.6,,,,,,,,,wg-a,,,,AAXX 30184 07607 12660 /1004 10110 20100 30047 40118 57004 60006 85500 91800 333 10126 20061=
07607,1997-12-30 21:00:00,10,1010.9,-0.9,93,9,8000,11.112,,,100,,,,,,,,,,,wg-a,,,,AAXX 30214 07607 12658 71006 10100 20090 30038 40109 58009 60006 87500 92100=
07607,1997-12-31 00:00:00,9,1009.7,-1.3,87,7,10000,7.408,,,110,,,,,,,,,,,wg-a,,,,AAXX 31004 07607 12660 /1104 10090 20070 30025 40097 56013 60006 86500 90000=
07607,1997-12-31 03:00:00,8,1009.4,-0.3,93,7,10000,7.408,,,120,,,,,,,,,,,wg-a,,,,AAXX 31034 07607 12660 71204 10080 20070 30022 40094 55003 60006 8557/ 90300=
07607,1997-12-31 09:00:00,10,1011.5,1.3,100,10,7000,18.52,,37.04,210,,,,1,,,,,,61,wg-a,,,,AAXX 31094 07607 12357 72110 10100 20100 30044 40115 53013 60017 76166 875// 90900 333 91020=
07607,1997-12-31 15:00:00,10,1013.7,0.2,93,9,6000,7.408,,,210,,,,0,,,,,,61,wg-a,,,,AAXX 31154 07607 12356 82104 10100 20090 30065 40137 53002 60007 76166 8357/ 91500=
07607,1997-12-31 18:00:00,8,1015.5,1.8,100,8,6000,11.112,,,200,7,10.5,,,,,,,,61,wg-a,,,,AAXX 31184 07607 02356 82006 10080 20080 30083 40155 51018 61000 76166 8557/ 91800 333 10105 20070 6003=
