station_id,dh_utc,temperature,pression,pression_variation_3h,humidite,point_de_rosee,visibilite,vent_moyen,vent_rafales,vent_rafales_10min,vent_direction,temperature_min,temperature_max,pluie_1h,pluie_3h,pluie_6h,pluie_12h,pluie_24h,ensoleillement,temperature_sol,temps_omm,source,radiations,neige_au_sol,nebulosite,raw_msg
07747,1996-01-01 00:00:00,13,1003.8,-0.4,62,6,500,18.52,,,340,,,,,,,,,,,wg-a,,,,AAXX 01004 07747 12700 33410 10130 20060 39982 40038 58004 60006 82501 90000=
07747,1996-01-01 03:00:00,8,1003.7,-0.2,81,5,500,7.408,,,220,,,,,,,,,,,wg-a,,,,AAXX 01034 07747 12600 62204 10080 20050 39980 40037 58002 60006 81532 90300=
07747,1996-01-01 06:00:00,7,1001.3,-2.4,87,5,500,3.704,,,270,6.3,14.1,,,,,,,,,wg-a,,,,AAXX 01064 07747 02600 72702 10070 20050 39956 40013 56024 60006 8457/ 90600 333 10141 20063 60004=
07747,1996-01-01 09:00:00,11,998,-3.2,82,8,50000,7.408,,,360,,,,,,,,,,,wg-a,,,,AAXX 01094 07747 12684 13604 10110 20080 39924 49980 58032 60006 81841 90900=
07747,1996-01-01 12:00:00,14,995.3,-2.6,72,9,50000,14.816,,,30,,,,,,,,,,,wg-a,,,,AAXX 01124 07747 12584 50308 10140 20090 39898 49953 58026 60006 81242 91200=
07747,1996-01-01 15:00:00,13,997.1,1.7,82,10,25000,22.224,,,20,,,,,,,,,,,wg-a,,,,AAXX 01154 07747 12575 30212 10130 20100 39915 49971 53017 60006 81842 91500=
07747,1996-01-01 18:00:00,11,1000.7,3.6,76,7,25000,7.408,,,10,6.7,14.7,,,,,,,,,wg-a,,,,AAXX 01184 07747 12575 50104 10110 20070 39951 40007 53036 60006 8254/ 91800 333 10147 20067=
07747,1996-01-01 21:00:00,13,1003.6,2.9,72,8,25000,14.816,,,300,,,,0,,,,,,1,wg-a,,,,AAXX 01214 07747 12575 53008 10130 20080 39980 40036 50029 60007 70162 83540 92100=
07747,1996-01-02 00:00:00,14,1004.6,1,55,5,25000,29.632,,66.672,290,,,,,,,,,,1,wg-a,,,,AAXX 02004 07747 12675 /2916 10140 20050 39990 40046 53010 60016 70161 81500 90000 333 91036=
07747,1996-01-02 03:00:00,13,1006.8,2.2,54,4,25000,31.484,,59.264,290,,,,,,,,,,,wg-a,,,,AAXX 02034 07747 12675 /2917 10130 20040 30012 40068 51022 60006 81500 90300 333 91032=
07747,1996-01-02 06:00:00,14,1008.3,1.5,47,3,25000,35.188,,,290,9.7,15.1,,,,,,,,,wg-a,,,,AAXX 02064 07747 12675 /2919 10140 20030 30027 40083 52015 60004 81500 90600 333 10151 20097=
07747,1996-01-02 09:00:00,14,1010.1,1.8,51,4,50000,50.004,,70.376,300,,,,0,,,,,,,wg-a,,,,AAXX 02094 07747 12584 53027 10140 20040 30045 40101 51018 60007 84140 90900 333 91038=
07747,1996-01-02 12:00:00,14,1012.5,2.4,58,6,500,50.004,,79.636,300,,,,,,,,,,,wg-a,,,,AAXX 02124 07747 12500 73027 10140 20060 30069 40125 51024 60006 8584/ 91200 333 91043=
07747,1996-01-02 15:00:00,14,1014,1.5,58,6,25000,38.892,,,310,,,,,,,,,,,wg-a,,,,AAXX 02154 07747 12575 63121 10140 20060 30084 40140 53015 60006 84242 91500=
07747,1996-01-02 18:00:00,12,1016.1,2,71,7,9000,35.188,,,310,11.7,14.4,,0,,,,,,21,wg-a,,,,AAXX 02184 07747 12559 73119 10120 20070 30104 40161 51020 60007 72162 878// 91800 333 10144 20117=
07747,1996-01-02 21:00:00,12,1017.1,1,62,5,25000,31.484,,59.264,310,,,,,,,,,,25,wg-a,,,,AAXX 02214 07747 02575 23117 10120 20050 30114 40171 50010 61000 72586 82800 92100 333 //// 91032=
07747,1996-01-03 00:00:00,12,1018.2,1.1,62,5,25000,14.816,,,320,,,,,,,,,,3,wg-a,,,,AAXX 03004 07747 02675 /3208 10120 20050 30125 40182 53011 61000 70386 81500 90000 333 ////=
07747,1996-01-03 03:00:00,11,1017.6,-0.6,66,5,25000,29.632,,,330,,,,,,,,,,,wg-a,,,,AAXX 03034 07747 12675 23316 10110 20050 30119 40176 56006 60006 81102 90300=
07747,1996-01-03 06:00:00,10,1017.2,-0.4,66,4,25000,7.408,,,200,9.2,12.6,,,,,1,,,,wg-a,,,,AAXX 03064 07747 12/75 02004 10100 20040 30115 40172 58004 60014 80000 90600 333 10126 20092=
07747,1996-01-03 09:00:00,8,1017.9,0.6,76,4,40000,7.408,,,250,,,,,,,,,,,wg-a,,,,AAXX 03094 07747 12/82 42504 10080 20040 30121 40179 51006 60006 80001 90900=
07747,1996-01-03 12:00:00,14,1017.2,-0.5,51,4,40000,7.408,,,150,,,,,,,,,,,wg-a,,,,AAXX 03124 07747 12/82 31504 10140 20040 30116 40172 58005 60006 80001 91200=
07747,1996-01-03 15:00:00,14,1016.2,-1,58,6,40000,11.112,,,140,,,,,,,,,,,wg-a,,,,AAXX 03154 07747 12/82 31406 10140 20060 30106 40162 55010 60006 80002 91500=
07747,1996-01-03 18:00:00,8,1017.7,1.3,87,6,40000,7.408,,,290,7.9,15.8,,,,,,,,,wg-a,,,,AAXX 03184 07747 12/82 22904 10080 20060 30119 40177 51013 60006 80002 91800 333 10158 20079=
07747,1996-01-03 21:00:00,5,1018.3,0.6,87,3,25000,7.408,,,280,,,,,,,,,,,wg-a,,,,AAXX 03214 07747 12/75 42804 10050 20030 30125 40183 51006 60006 80002 92100=
07747,1996-01-04 00:00:00,4,1018.2,-0.2,75,0,25000,3.704,,,220,,,,,,,,,,,wg-a,,,,AAXX 04004 07747 12/75 02202 10040 20000 30123 40182 58002 60006 80000 90000=
07747,1996-01-04 03:00:00,2,1017,-1.2,80,-1,25000,3.704,,,80,,,,,,,,,,,wg-a,,,,AAXX 04034 07747 12/75 00802 10020 21010 30111 40170 56012 60006 80000 90300=
07747,1996-01-04 06:00:00,3,1006.5,-0,87,1,25000,7.408,,,350,1.3,7.8,,,,,,,,,wg-a,,,,AAXX 04064 07747 02/75 33504 10030 20010 30007 40065 54000 60006 81032 90600 333 10078 20013 60004=
07747,1996-01-04 09:00:00,6,1015.5,9,93,5,12000,7.408,,,40,,,,,,,,,,,wg-a,,,,AAXX 04094 07747 12562 70404 10060 20050 30097 40155 50090 60006 83534 90900=
07747,1996-01-04 12:00:00,10,1013.7,-1.7,82,7,9000,18.52,,,30,,,,,,,,,,,wg-a,,,,AAXX 04124 07747 12459 70310 10100 20070 30080 40137 58017 60006 875// 91200=
07747,1996-01-04 15:00:00,10,1013,-0.7,82,7,6000,11.112,,,340,,,,,,,,,,,wg-a,,,,AAXX 04154 07747 12456 73406 10100 20070 30073 40130 56007 60006 8587/ 91500=
07747,1996-01-04 18:00:00,8,1012.2,-0.8,87,6,7000,11.112,,,320,1.9,10.1,,,,,,,,,wg-a,,,,AAXX 04184 07747 12457 83206 10080 20060 30065 40122 58008 60006 8557/ 91800 333 10101 20019=
07747,1996-01-04 21:00:00,7,1011.5,-0.7,93,6,9000,7.408,,,280,,,,,,,,,,,wg-a,,,,AAXX 04214 07747 12459 62804 10070 20060 30058 40115 56007 60006 83531 92100=
07747,1996-01-05 00:00:00,8,1009.8,-1.7,93,7,8000,14.816,,,260,,,,,,,,,,,wg-a,,,,AAXX 05004 07747 12458 72608 10080 20070 30041 40098 56017 60006 875// 90000=
07747,1996-01-05 03:00:00,8,1007.2,-2.6,93,7,9000,7.408,,,290,,,,,,,,,,,wg-a,,,,AAXX 05034 07747 12459 72904 10080 20070 30015 40072 58026 60006 875// 90300=
07747,1996-01-05 06:00:00,6,1005.2,-2,100,6,500,3.704,,,250,6.1,8.5,,,,,,,,,wg-a,,,,AAXX 05064 07747 02500 72502 10060 20060 39995 40052 57020 60006 875// 90600 333 10085 20061 60004=
07747,1996-01-05 09:00:00,7,1003.7,-1.5,93,6,500,7.408,,,250,,,,,,,,,,60,wg-a,,,,AAXX 05094 07747 02400 82504 10070 20060 39980 40037 57015 61000 76062 8357/ 90900 333 ////=
07747,1996-01-05 12:00:00,9,1001,-2.7,93,8,2000,7.408,,,330,,,,0,,,,,,10,wg-a,,,,AAXX 05124 07747 02220 83304 10090 20080 39953 40010 58027 60006 71062 886// 91200 333 60007=
07747,1996-01-05 15:00:00,10,998.2,-2.7,87,8,6000,11.112,,,320,,,,,,,,,,,wg-a,,,,AAXX 05154 07747 12456 73206 10100 20080 39926 49982 55027 60006 875// 91500=
07747,1996-01-05 18:00:00,11,998.8,0.6,66,5,15000,53.708,,75.932,320,6.3,11.8,,,,,,,,60,wg-a,,,,AAXX 05184 07747 02565 73229 10110 20050 39932 49988 50006 61000 76062 875// 91800 333 10118 20063 //// 91041=
07747,1996-01-05 21:00:00,10,1001.4,2.6,62,3,11000,29.632,,,320,,,,0,,,,,,,wg-a,,,,AAXX 05214 07747 12/61 /3216 10100 20030 39958 40014 51026 60007 92100=
07747,1996-01-06 00:00:00,10,1001.8,0.4,66,4,40000,25.928,,,320,,,,,,,,,,1,wg-a,,,,AAXX 06004 07747 12/82 23214 10100 20040 39962 40018 53004 60006 70161 82040 90000=
07747,1996-01-06 06:00:00,5,1001.3,-0.1,81,2,500,3.704,,,200,4.7,10.6,,,,,,,,,wg-a,,,,AAXX 06064 07747 12/00 52002 10050 20020 39956 40013 58001 60004 82031 90600 333 10106 20047=
07747,1996-01-06 09:00:00,7,1001.4,0.1,87,5,60000,3.704,,,70,,,,,,,,,,,wg-a,,,,AAXX 06094 07747 12/86 30702 10070 20050 39957 40014 52001 60006 82042 90900=
07747,1996-01-06 12:00:00,12,999.3,-2,71,7,25000,3.704,,,100,,,,,,,,,,,wg-a,,,,AAXX 06124 07747 12575 /1002 10120 20070 39937 49993 58020 60006 81141 91200=
07747,1996-01-06 15:00:00,12,997.6,-1.7,71,7,500,11.112,,,20,,,,,,,,,,,wg-a,,,,AAXX 06154 07747 12600 70206 10120 20070 39920 49976 55017 60006 8153/ 91500=
07747,1996-01-06 18:00:00,9,996.2,-1.4,87,7,20000,7.408,,,20,3.1,13.4,,,,,,,,,wg-a,,,,AAXX 06184 07747 12670 70204 10090 20070 39906 49962 58014 60006 8157/ 91800 333 10134 20031=
07747,1996-01-06 21:00:00,9,996.4,0.2,87,7,15000,3.704,,,280,,,,0,,,,,,1,wg-a,,,,AAXX 06214 07747 12665 /2802 10090 20070 39908 49964 50002 60007 70162 8153/ 92100=
07747,1996-01-07 00:00:00,9,995.8,-0.6,87,7,12000,11.112,,,320,,,,,,,,,,2,wg-a,,,,AAXX 07004 07747 12662 43206 10090 20070 39902 49958 55006 60016 70261 81534 90000=
07747,1996-01-07 03:00:00,9,995.7,-0.1,87,7,18000,11.112,,,320,,,,,,,,,,,wg-a,,,,AAXX 07034 07747 12668 /3206 10090 20070 39901 49957 56001 60006 81532 90300=
07747,1996-01-07 06:00:00,11,998.3,2.6,87,9,20000,11.112,,,20,6.5,12,,,,,,,,,wg-a,,,,AAXX 07064 07747 12570 /0206 10110 20090 39927 49983 53026 60004 81104 90600 333 10120 20065=
07747,1996-01-07 09:00:00,10,1001.3,3,93,9,40000,11.112,,,250,,,,,,,,,,,wg-a,,,,AAXX 07094 07747 12482 72506 10100 20090 39957 40013 53030 60006 85142 90900=
07747,1996-01-07 10:00:00,10,1002.6,3,82,7,6000,18.52,,,310,7.8,13.6,,,,,,,,25,wg-a,,,,AAXX 07104 07747 32256 83110 10100 20070 39970 40026 51030 72586 887// 91000 333 10136 20078=
07747,1996-01-07 12:00:00,13,1002.7,1.4,88,11,25000,14.816,,,60,,,,,,,,,,,wg-a,,,,AAXX 07124 07747 12575 60608 10130 20110 39971 40027 50014 60006 84232 91200=
07747,1996-01-07 15:00:00,12,1004.7,2,88,10,15000,11.112,,,60,,,,,,,,,,,wg-a,,,,AAXX 07154 07747 12365 80606 10120 20100 39991 40047 53020 60006 8577/ 91500=
07747,1996-01-07 18:00:00,10,1009.8,5,82,7,6000,18.52,,,310,7.8,13.6,,3,,,,,,25,wg-a,,,,AAXX 07184 07747 12256 83110 10100 20070 30041 40098 51050 60037 72586 887// 91800 333 10136 20078=
07747,1996-01-07 21:00:00,10,1012.1,2.3,76,6,25000,7.408,,,340,,,,,,,,,,,wg-a,,,,AAXX 07214 07747 12775 /3404 10100 20060 30064 40121 53023 60006 8154/ 92100=
07747,1996-01-08 00:00:00,7,1013.3,1.1,81,4,500,11.112,,,240,,,,,,,,,,,wg-a,,,,AAXX 08004 07747 12/00 02406 10070 20040 30075 40133 51011 60006 80000 90000=
07747,1996-01-08 03:00:00,4,1014,0.7,93,3,500,11.112,,,230,,,,,,,,,,,wg-a,,,,AAXX 08034 07747 12/00 02306 10040 20030 30082 40140 51007 60006 80000 90300=
07747,1996-01-08 06:00:00,4,1014.3,0.3,87,2,40000,7.408,,,270,3.8,11,,,,,,,,,wg-a,,,,AAXX 08064 07747 12/82 12704 10040 20020 30085 40143 53003 60004 80002 90600 333 10110 20038=
07747,1996-01-08 09:00:00,7,1014.1,-0.2,87,5,60000,3.704,,,50,,,,,,,,,,,wg-a,,,,AAXX 08094 07747 12/86 10502 10070 20050 30083 40141 55002 60006 80001 90900=
07747,1996-01-08 12:00:00,14,1011.6,-2.3,63,7,40000,18.52,,,90,,,,,,,,,,,wg-a,,,,AAXX 08124 07747 12/82 10910 10140 20070 30060 40116 58023 60006 80002 91200=
07747,1996-01-08 15:00:00,13,1008.9,-2.7,77,9,40000,18.52,,,70,,,,,,,,,,,wg-a,,,,AAXX 08154 07747 12582 /0710 10130 20090 30033 40089 56027 60006 81102 91500=
07747,1996-01-08 18:00:00,10,1008.2,-0.8,93,9,15000,11.112,,,350,3.3,15,,,,,,,,,wg-a,,,,AAXX 08184 07747 32465 73506 10100 20090 30025 40082 55008 82732 91800 333 10150 20033=
07747,1996-01-09 00:00:00,7,1005.8,-1.2,100,7,11000,3.704,,,290,,,,,,,,,,,wg-a,,,,AAXX 09004 07747 12/61 /2902 10070 20070 30001 40058 58012 60006 90000=
07747,1996-01-09 03:00:00,7,1005.3,-0.5,100,7,11000,3.704,,,270,,,,,,,,,,,wg-a,,,,AAXX 09034 07747 12/61 /2702 10070 20070 39996 40053 56005 60006 90300=
07747,1996-01-09 06:00:00,13,1004.3,-0.9,72,8,15000,7.408,,,60,6.7,13.3,,,,,,,,,wg-a,,,,AAXX 09064 07747 12565 80604 10130 20080 39987 40043 55009 60004 8587/ 90600 333 10133 20067=
07747,1996-01-09 09:00:00,14,1004.8,0.5,77,10,20000,46.3,,66.672,190,,,,,,,,,,,wg-a,,,,AAXX 09094 07747 12470 71925 10140 20100 39992 40048 53005 60006 83872 90900 333 91036=
07747,1996-01-09 12:00:00,18,1005.2,0.5,59,10,20000,31.484,,,210,,,,,,,,,,,wg-a,,,,AAXX 09124 07747 12570 72117 10180 20100 39997 40052 50005 60006 81842 91200=
07747,1996-01-09 15:00:00,15,1004.5,-0.7,82,12,8000,22.224,,,120,,,,,,,,,,,wg-a,,,,AAXX 09154 07747 12458 71212 10150 20120 39990 40045 56007 60006 83672 91500=
07747,1996-01-09 18:00:00,13,1005.7,1.1,88,11,4000,31.484,,61.116,150,12.8,18.1,,,,,,,,10,wg-a,,,,AAXX 09184 07747 02440 81517 10130 20110 30001 40057 51011 61000 71062 887// 91800 333 10181 20128 //// 91033=
07747,1996-01-09 21:00:00,13,1004.1,-1.6,88,11,4000,35.188,,53.708,140,,,,1,,,,,,10,wg-a,,,,AAXX 09214 07747 12140 81419 10130 20110 39985 40041 58016 60017 71062 887// 92100 333 91029=
07747,1996-01-10 00:00:00,13,1001.9,-2.2,88,11,4000,35.188,,59.264,120,,,,0,,,,,,60,wg-a,,,,AAXX 10004 07747 02140 81219 10130 20110 39963 40019 56022 60016 76062 887// 90000 333 60007 91032=
07747,1996-01-10 03:00:00,13,998.1,-3.8,94,12,4000,31.484,,53.708,100,,,,7,,,,,,60,wg-a,,,,AAXX 10034 07747 12140 81017 10130 20120 39925 49981 58038 60077 76066 887// 90300 333 91029=
07747,1996-01-10 06:00:00,8,1000.8,2.6,81,5,4000,31.484,,,310,7.7,13.3,,14,,,,,,60,wg-a,,,,AAXX 10064 07747 02240 83117 10080 20050 39951 40008 51026 60004 76066 887// 90600 333 10133 20077 60147=
07747,1996-01-10 09:00:00,10,1003.3,2.6,76,6,15000,22.224,,31.484,320,,,,2,,,,,,21,wg-a,,,,AAXX 10094 07747 12265 83212 10100 20060 39977 40033 51026 60027 72162 875// 90900 333 91017=
07747,1996-01-10 12:00:00,12,1004.2,0.9,67,6,25000,25.928,,,320,,,,,,,,,,1,wg-a,,,,AAXX 10124 07747 12275 83214 10120 20060 39986 40042 51009 60026 70162 878// 91200=
07747,1996-01-10 15:00:00,12,1006.1,1.9,71,7,25000,14.816,,,270,,,,,,,,,,,wg-a,,,,AAXX 10154 07747 12275 82708 10120 20070 30005 40061 53019 60006 878// 91500=
07747,1996-01-10 18:00:00,12,1009.4,3.3,58,4,25000,18.52,,,310,7.4,12.6,,,,,,,,,wg-a,,,,AAXX 10184 07747 32575 73110 10120 20040 30038 40094 53033 8783/ 91800 333 10126 20074=
07747,1996-01-10 21:00:00,11,1011.6,2.1,66,5,18000,11.112,,,340,,,,,,,,,,,wg-a,,,,AAXX 10214 07747 12668 43406 10110 20050 30059 40116 51021 60006 81550 92100=
07747,1996-01-11 00:00:00,8,1012.2,0.6,81,5,15000,3.704,,,290,,,,,,,,,,,wg-a,,,,AAXX 11004 07747 12665 42902 10080 20050 30065 40122 50006 60006 81530 90000=
07747,1996-01-11 03:00:00,5,1011,-1.3,93,4,20000,3.704,,,270,,,,,,,,,,,wg-a,,,,AAXX 11034 07747 12670 32702 10050 20040 30052 40110 56013 60006 81530 90300=
07747,1996-01-11 06:00:00,4,1008.9,-2.1,100,4,12000,7.408,,,350,3.3,11.8,,0,,,,,,,wg-a,,,,AAXX 11064 07747 02662 /3504 10040 20040 30031 40089 56021 60004 81531 90600 333 10118 20033 60007=
07747,1996-01-11 09:00:00,7,1007.5,-1.3,93,6,50000,7.408,,,60,,,,,,,,,,,wg-a,,,,AAXX 11094 07747 12484 /0604 10070 20060 30018 40075 58013 60006 81132 90900=
07747,1996-01-11 12:00:00,12,1004.4,-3,62,5,50000,3.704,,,240,,,,,,,,,,,wg-a,,,,AAXX 11124 07747 12684 72402 10120 20050 39988 40044 58030 60006 8117/ 91200=
07747,1996-01-11 15:00:00,13,1002.6,-1.8,58,5,40000,7.408,,,20,,,,,,,,,,,wg-a,,,,AAXX 11154 07747 12782 40204 10130 20050 39970 40026 56018 60006 81540 91500=
07747,1996-01-11 18:00:00,10,1002.5,-0.2,76,6,25000,3.704,,,20,4.3,13.8,,,,,,,,,wg-a,,,,AAXX 11184 07747 12775 /0202 10100 20060 39968 40025 56002 60006 81500 91800 333 10138 20043=
07747,1996-01-11 21:00:00,7,1002.3,-0.2,87,5,25000,3.704,,,360,,,,,,,,,,,wg-a,,,,AAXX 11214 07747 12775 73602 10070 20050 39966 40023 58002 60006 8353/ 92100=
07747,1996-01-12 00:00:00,8,1000.8,-1.5,81,5,25000,7.408,,,340,,,,,,,,,,,wg-a,,,,AAXX 12004 07747 12575 83404 10080 20050 39951 40008 56015 60006 8587/ 90000=
07747,1996-01-12 03:00:00,8,999.8,-1,87,6,25000,3.704,,,250,,,,,,,,,,,wg-a,,,,AAXX 12034 07747 12575 82502 10080 20060 39941 49998 56010 60006 878// 90300=
07747,1996-01-12 06:00:00,8,1000.2,0.4,93,7,2000,11.112,,,260,7.3,9.6,,0,,,2,,,21,wg-a,,,,AAXX 12064 07747 02520 82606 10080 20070 39945 40002 53004 60024 72162 878// 90600 333 10096 20073 60007=
07747,1996-01-12 09:00:00,9,1001.7,1.5,93,8,25000,7.408,,,270,,,,0,,,,,,2,wg-a,,,,AAXX 12094 07747 12575 /2704 10090 20080 39960 40017 53015 60007 70262 85872 90900=
07747,1996-01-12 12:00:00,11,1001.8,0.2,87,9,11000,3.704,,,220,,,,,,,,,,,wg-a,,,,AAXX 12124 07747 12/61 /2202 10110 20090 39962 40018 50002 60016 91200=
07747,1996-01-12 15:00:00,12,1004.3,2.5,71,7,25000,0,,,0,,,,,,,,,,25,wg-a,,,,AAXX 12154 07747 02575 80000 10120 20070 39987 40043 53025 61000 72586 8487/ 91500 333 ////=
07747,1996-01-12 18:00:00,11,1006.4,2,76,7,15000,22.224,,,320,7.7,12.9,,1,,,,,,1,wg-a,,,,AAXX 12184 07747 12765 83212 10110 20070 30007 40064 51020 60017 70186 8557/ 91800 333 10129 20077=
07747,1996-01-12 21:00:00,10,1008.8,2.4,76,6,15000,29.632,,,320,,,,0,,,,,,21,wg-a,,,,AAXX 12214 07747 12765 83216 10100 20060 30031 40088 51024 60007 72162 8557/ 92100=
07747,1996-01-13 00:00:00,9,1011.2,2.4,87,7,12000,22.224,,,320,,,,4,,,,,,61,wg-a,,,,AAXX 13004 07747 02662 83212 10090 20070 30055 40112 51024 60046 76162 885// 90000 333 60047=
07747,1996-01-13 03:00:00,9,1012.8,1.6,87,7,12000,14.816,,,310,,,,6,,,,,,61,wg-a,,,,AAXX 13034 07747 12662 83108 10090 20070 30071 40128 51016 60067 76166 885// 90300=
07747,1996-01-13 06:00:00,10,1013.8,1,82,7,15000,22.224,,,310,8.9,11.3,,2,,,13,,,60,wg-a,,,,AAXX 13064 07747 02665 83112 10100 20070 30081 40138 53010 60134 76066 8557/ 90600 333 10113 20089 60027=
07747,1996-01-13 09:00:00,10,1016,2.2,82,7,15000,11.112,,,270,,,,0,,,,,,60,wg-a,,,,AAXX 13094 07747 12465 82706 10100 20070 30103 40160 51022 60007 76066 8587/ 90900=
07747,1996-01-13 12:00:00,12,1016.1,0.1,76,8,20000,3.704,,,290,,,,0,,,,,,3,wg-a,,,,AAXX 13124 07747 02670 82902 10120 20080 30104 40161 50001 60016 70362 8557/ 91200 333 60007=
07747,1996-01-13 15:00:00,12,1015.4,-0.7,82,9,20000,3.704,,,200,,,,,,,,,,,wg-a,,,,AAXX 13154 07747 12570 82002 10120 20090 30097 40154 56007 60006 8557/ 91500=
07747,1996-01-13 18:00:00,10,1016.6,1.2,93,9,8000,3.704,,,200,9.6,12,,,,,,,,,wg-a,,,,AAXX 13184 07747 32458 82002 10100 20090 30109 40166 51012 887// 91800 333 10120 20096=
07747,1996-01-13 21:00:00,10,1017.1,0.5,93,9,6000,0,,,0,,,,,,,,,,,wg-a,,,,AAXX 13214 07747 12456 80000 10100 20090 30114 40171 52005 60006 887// 92100=
07747,1996-01-14 00:00:00,9,1016.5,-0.6,93,8,6000,3.704,,,310,,,,,,,,,,,wg-a,,,,AAXX 14004 07747 12456 83102 10090 20080 30108 40165 58006 60006 885// 90000=
07747,1996-01-14 03:00:00,10,1015.8,-0.7,93,9,6000,3.704,,,60,,,,,,,,,,,wg-a,,,,AAXX 14034 07747 12256 70602 10100 20090 30101 40158 56007 60006 875// 90300=
07747,1996-01-14 06:00:00,12,1015.7,-0.1,94,11,500,18.52,,,150,8.6,11.9,,0,,,1,,,21,wg-a,,,,AAXX 14064 07747 02200 81510 10120 20110 30100 40157 55001 60014 72162 885// 90600 333 10119 20086 60007=
07747,1996-01-14 09:00:00,12,1016.5,0.8,94,11,8000,22.224,,,140,,,,0,,,,,,1,wg-a,,,,AAXX 14094 07747 12258 41412 10120 20110 30108 40165 51008 60007 70161 84801 90900=
07747,1996-01-14 12:00:00,16,1014.9,-1.5,72,11,15000,25.928,,,150,,,,,,,,,,2,wg-a,,,,AAXX 14124 07747 12465 31514 10160 20110 30093 40149 58015 60006 70261 82851 91200=
07747,1996-01-14 15:00:00,15,1014.4,-0.5,77,11,15000,29.632,,,140,,,,,,,,,,,wg-a,,,,AAXX 14154 07747 12465 51416 10150 20110 30088 40144 55005 60006 82831 91500=
07747,1996-01-14 18:00:00,13,1015.8,1.3,82,10,10000,25.928,,,140,11.4,15.7,,,,,,,,,wg-a,,,,AAXX 14184 07747 32460 71414 10130 20100 30101 40158 53013 8285/ 91800 333 10157 20114=
07747,1996-01-14 21:00:00,14,1017.1,1.4,77,10,8000,29.632,,,150,,,,,,,,,,,wg-a,,,,AAXX 14214 07747 12458 71516 10140 20100 30115 40171 51014 60006 8455/ 92100=
07747,1996-01-15 00:00:00,14,1018,0.8,77,10,9000,31.484,,,140,,,,,,,,,,,wg-a,,,,AAXX 15004 07747 12459 61417 10140 20100 30123 40180 51008 60006 84502 90000=
07747,1996-01-15 03:00:00,13,1018.5,0.5,77,9,9000,25.928,,,140,,,,,,,,,,,wg-a,,,,AAXX 15034 07747 12459 31414 10130 20090 30128 40185 51005 60006 81502 90300=
07747,1996-01-15 06:00:00,13,1019.3,0.8,82,10,9000,18.52,,,140,12.2,14.3,,,,,,,,,wg-a,,,,AAXX 15064 07747 02459 31410 10130 20100 30136 40193 53008 60006 81732 90600 333 10143 20122 60004=
07747,1996-01-15 12:00:00,17,1020.5,0,68,11,500,25.928,,,140,,,,,,,,,,,wg-a,,,,AAXX 15124 07747 12400 /1414 10170 20110 30149 40205 50000 60006 81102 91200=
07747,1996-01-15 15:00:00,17,1020.6,0.1,68,11,500,14.816,,,120,,,,,,,,,,,wg-a,,,,AAXX 15154 07747 12400 51208 10170 20110 30150 40206 53001 60006 81142 91500=
07747,1996-01-15 18:00:00,12,1022.6,1.9,88,10,10000,7.408,,,20,11.7,17.5,,,,,,,,,wg-a,,,,AAXX 15184 07747 12460 20204 10120 20100 30169 40226 53019 60006 81141 91800 333 10175 20117=
07747,1996-01-15 21:00:00,11,1023.9,1.3,94,10,6000,7.408,,,350,,,,,,,,,,,wg-a,,,,AAXX 15214 07747 12456 43504 10110 20100 30182 40239 51013 60006 81101 92100=
07747,1996-01-16 00:00:00,11,1024.4,0.5,100,11,400,7.408,,,330,,,,,,,,,,43,wg-a,,,,AAXX 16004 07747 12/04 93304 10110 20110 30187 40244 51005 60006 74341 89/// 90000=
07747,1996-01-16 03:00:00,10,1025.5,1,100,10,6000,3.704,,,290,,,,0,,,,,,2,wg-a,,,,AAXX 16034 07747 12256 42902 10100 20100 30197 40255 51010 60007 70241 84600 90300=
07747,1996-01-16 06:00:00,9,1026.1,0.6,93,8,500,3.704,,,220,7.9,11.8,,,,,,,,45,wg-a,,,,AAXX 16064 07747 02/00 92202 10090 20080 30203 40261 53006 60006 74541 89/// 90600 333 10118 20079 60004=
07747,1996-01-16 09:00:00,10,1027.3,1.2,100,10,300,0,,,0,,,,,,,,,,,wg-a,,,,AAXX 16094 07747 32/03 /0000 10100 20100 30215 40273 51012 90900=
07747,1996-01-16 12:00:00,13,1026.4,-0.8,94,12,9000,11.112,,,140,,,,,,,,,,1,wg-a,,,,AAXX 16124 07747 12459 /1406 10130 20120 30207 40264 58008 60006 70142 878// 91200=
07747,1996-01-16 15:00:00,14,1025.1,-1.3,82,11,9000,18.52,,,130,,,,,,,,,,,wg-a,,,,AAXX 16154 07747 12459 71310 10140 20110 30194 40251 56013 60006 8683/ 91500=
07747,1996-01-16 18:00:00,13,1025.7,0.6,88,11,6000,11.112,,,140,8.6,14.4,,,,,,,,,wg-a,,,,AAXX 16184 07747 12356 81406 10130 20110 30200 40257 53006 60006 875// 91800 333 10144 20086=
07747,1996-01-16 21:00:00,12,1026.3,0.6,94,11,500,14.816,,,110,,,,,,,,,,,wg-a,,,,AAXX 16214 07747 12300 71108 10120 20110 30206 40263 50006 60006 875// 92100=
07747,1996-01-17 00:00:00,12,1025.7,-0.6,94,11,500,22.224,,,140,,,,,,,,,,,wg-a,,,,AAXX 17004 07747 12300 71412 10120 20110 30200 40257 58006 60006 875// 90000=
07747,1996-01-17 03:00:00,12,1025.4,-0.3,88,10,500,22.224,,,140,,,,,,,,,,,wg-a,,,,AAXX 17034 07747 12300 71412 10120 20100 30197 40254 56003 60006 875// 90300=
07747,1996-01-17 06:00:00,12,1025.4,-0,76,8,9000,22.224,,,150,11.5,12.7,,,,,,,,,wg-a,,,,AAXX 17064 07747 02359 71512 10120 20080 30197 40254 55000 60006 875// 90600 333 10127 20115 60004=
07747,1996-01-17 09:00:00,12,1026.5,1.1,71,7,15000,22.224,,,130,,,,,,,,,,,wg-a,,,,AAXX 17094 07747 12465 51312 10120 20070 30208 40265 51011 60006 85800 90900=
07747,1996-01-17 12:00:00,13,1025.1,-1.4,67,7,20000,25.928,,,120,,,,,,,,,,,wg-a,,,,AAXX 17124 07747 12470 /1214 10130 20070 30194 40251 58014 60006 85201 91200=
07747,1996-01-17 15:00:00,13,1024.3,-0.8,62,6,20000,25.928,,,130,,,,,,,,,,,wg-a,,,,AAXX 17154 07747 12470 41314 10130 20060 30186 40243 55008 60006 83201 91500=
07747,1996-01-17 18:00:00,10,1024.2,-0.2,82,7,15000,14.816,,,130,10.1,13.8,,,,,,,,,wg-a,,,,AAXX 17184 07747 12465 21308 10100 20070 30184 40242 56002 60006 82500 91800 333 10138 20101=
07747,1996-01-17 21:00:00,11,1024.2,0.1,82,8,15000,18.52,,,130,,,,,,,,,,,wg-a,,,,AAXX 17214 07747 12465 71310 10110 20080 30185 40242 50001 60006 875// 92100=
07747,1996-01-18 00:00:00,10,1023.2,-1,82,7,15000,18.52,,,140,,,,,,,,,,,wg-a,,,,AAXX 18004 07747 12465 31410 10100 20070 30175 40232 58010 60006 83500 90000=
07747,1996-01-18 03:00:00,10,1022.7,-0.5,82,7,15000,22.224,,,140,,,,,,,,,,,wg-a,,,,AAXX 18034 07747 12465 41412 10100 20070 30170 40227 56005 60006 8/500 90300=
07747,1996-01-18 06:00:00,9,1022.2,-0.6,76,5,15000,18.52,,,150,9.3,11.2,,,,,,,,,wg-a,,,,AAXX 18064 07747 02465 41510 10090 20050 30164 40222 56006 60006 8/500 90600 333 10112 20093 60004=
07747,1996-01-18 09:00:00,10,1022.7,0.6,76,6,20000,11.112,,,140,,,,,,,,,,,wg-a,,,,AAXX 18094 07747 12570 61406 10100 20060 30170 40227 51006 60006 82501 90900=
07747,1996-01-18 12:00:00,12,1021.9,-0.8,62,5,20000,22.224,,,130,,,,,,,,,,,wg-a,,,,AAXX 18124 07747 12570 /1312 10120 20050 30162 40219 58008 60006 85832 91200=
07747,1996-01-18 15:00:00,12,1020,-1.9,71,7,15000,29.632,,,130,,,,,,,,,,,wg-a,,,,AAXX 18154 07747 12565 51316 10120 20070 30143 40200 56019 60006 82802 91500=
07747,1996-01-18 18:00:00,10,1019.8,-0.2,87,8,9000,11.112,,,140,7.5,12.7,,,,,,,,,wg-a,,,,AAXX 18184 07747 12559 41406 10100 20080 30141 40198 57002 60006 84800 91800 333 10127 20075=
07747,1996-01-18 21:00:00,7,1020.1,0.2,93,6,10000,3.704,,,310,,,,,,,,,,,wg-a,,,,AAXX 18214 07747 12360 23102 10070 20060 30143 40201 50002 60006 82600 92100=
07747,1996-01-19 00:00:00,4,1019.5,-0.7,100,4,0,7.408,,,250,,,,,,,,,,,wg-a,,,,AAXX 19004 07747 12/// /2504 10040 20040 30136 40195 56007 60006 90000=
07747,1996-01-19 06:00:00,2,1017.5,-0.9,93,1,8000,7.408,,,260,1.9,10.3,,,,,,,,,wg-a,,,,AAXX 19064 07747 02358 22604 10020 20010 30116 40175 56009 60006 82600 90600 333 10103 20019 60004=
07747,1996-01-19 09:00:00,6,1017.3,-0.1,100,6,20000,0,,,0,,,,,,,,,,,wg-a,,,,AAXX 19094 07747 12570 /0000 10060 20060 30115 40173 56001 60006 81100 90900=
07747,1996-01-19 12:00:00,11,1015.4,-1.8,71,6,15000,11.112,,,80,,,,0,,,,,,,wg-a,,,,AAXX 19124 07747 02565 /0806 10110 20060 30097 40154 58018 60006 81100 91200 333 60007=
07747,1996-01-19 18:00:00,9,1012.8,-0.6,81,6,15000,3.704,,,150,1.6,12.9,,,,,,,,,wg-a,,,,AAXX 19184 07747 12565 31502 10090 20060 30071 40128 57006 60006 83500 91800 333 10129 20016=
07747,1996-01-19 21:00:00,7,1012.1,-0.8,87,5,8000,7.408,,,330,,,,,,,,,,,wg-a,,,,AAXX 19214 07747 12458 33304 10070 20050 30063 40121 58008 60006 83500 92100=
07747,1996-01-20 00:00:00,5,1010.8,-1.3,87,3,9000,3.704,,,300,,,,,,,,,,,wg-a,,,,AAXX 20004 07747 12459 23002 10050 20030 30050 40108 57013 60006 82500 90000=
07747,1996-01-20 03:00:00,3,1009.3,-1.5,93,2,15000,3.704,,,310,,,,,,,,,,,wg-a,,,,AAXX 20034 07747 12/65 03102 10030 20020 30035 40093 56015 60006 80000 90300=
07747,1996-01-20 06:00:00,1,1008.5,-0.9,93,0,15000,7.408,,,270,0.8,9.3,,,,,,,,,wg-a,,,,AAXX 20064 07747 02/65 02704 10010 20000 30026 40085 56009 60006 80000 90600 333 10093 20008 60004=
07747,1996-01-20 09:00:00,6,1008.3,-0,100,6,10000,3.704,,,250,,,,0,,,,,,,wg-a,,,,AAXX 20094 07747 12460 22502 10060 20060 30026 40083 54000 60007 81202 90900=
07747,1996-01-20 12:00:00,10,1006.6,-1.7,66,4,15000,7.408,,,30,,,,,,,,,,,wg-a,,,,AAXX 20124 07747 12465 30304 10100 20040 30009 40066 58017 60006 81202 91200=
07747,1996-01-20 15:00:00,11,1005.2,-1.3,71,6,15000,7.408,,,10,,,,,,,,,,,wg-a,,,,AAXX 20154 07747 12565 /0104 10110 20060 39996 40052 56013 60006 81242 91500=
07747,1996-01-20 18:00:00,11,1005.5,0.3,71,6,15000,7.408,,,160,0.8,11.7,,,,,,,,,wg-a,,,,AAXX 20184 07747 32565 71604 10110 20060 39999 40055 53003 81242 91800 333 10117 20008=
07747,1996-01-20 21:00:00,12,1006.9,1.4,62,5,15000,29.632,,,160,,,,,,,,,,,wg-a,,,,AAXX 20214 07747 12565 71616 10120 20050 30013 40069 51014 60006 81542 92100=
07747,1996-01-21 00:00:00,12,1007.2,0.3,58,4,15000,29.632,,,160,,,,,,,,,,,wg-a,,,,AAXX 21004 07747 12565 51616 10120 20040 30016 40072 51003 60006 82542 90000=
07747,1996-01-21 03:00:00,10,1007.6,0.3,71,5,15000,18.52,,,140,,,,,,,,,,,wg-a,,,,AAXX 21034 07747 12565 /1410 10100 20050 30019 40076 50003 60006 81540 90300=
07747,1996-01-21 06:00:00,10,1007.6,-0,82,7,15000,22.224,,,160,9.5,12.8,,,,,,,,,wg-a,,,,AAXX 21064 07747 02565 /1612 10100 20070 30019 40076 54000 60006 81540 90600 333 10128 20095 60004=
07747,1996-01-21 09:00:00,12,1009.1,1.6,71,7,12000,22.224,,,150,,,,,,,,,,,wg-a,,,,AAXX 21094 07747 12462 /1512 10120 20070 30035 40091 53016 60006 82804 90900=
07747,1996-01-21 12:00:00,14,1007.8,-1.3,67,8,12000,31.484,,,150,,,,,,,,,,,wg-a,,,,AAXX 21124 07747 12462 71517 10140 20080 30022 40078 58013 60006 81802 91200=
07747,1996-01-21 15:00:00,14,1008.6,0.8,67,8,12000,25.928,,,160,,,,,,,,,,,wg-a,,,,AAXX 21154 07747 12462 71614 10140 20080 30030 40086 53008 60006 82842 91500=
07747,1996-01-21 18:00:00,13,1009.2,0.6,82,10,10000,25.928,,,140,9.9,15.3,,,,,,,,,wg-a,,,,AAXX 21184 07747 12460 71414 10130 20100 30036 40092 53006 60006 86602 91800 333 10153 20099=
07747,1996-01-21 21:00:00,13,1008.8,-0.4,88,11,9000,25.928,,,140,,,,0,,,,,,21,wg-a,,,,AAXX 21214 07747 12459 81414 10130 20110 30032 40088 58004 60007 72162 878// 92100=
07747,1996-01-22 00:00:00,13,1007.7,-1.1,94,12,6000,31.484,,,140,,,,0,,,,,,60,wg-a,,,,AAXX 22004 07747 02256 81417 10130 20120 30021 40077 58011 60016 76062 875// 90000 333 60007=
07747,1996-01-22 03:00:00,13,1006.2,-1.5,94,12,6000,35.188,,,150,,,,2,,,,,,60,wg-a,,,,AAXX 22034 07747 12256 81519 10130 20120 30006 40062 58015 60027 76062 877// 90300=
07747,1996-01-22 06:00:00,13,1004.6,-1.6,94,12,500,25.928,,,140,12.3,13,,4,,,7,,,63,wg-a,,,,AAXX 22064 07747 02200 81414 10130 20120 39990 40046 56016 60074 76362 877// 90600 333 10130 20123 60047=
07747,1996-01-22 09:00:00,13,1005.7,1.1,100,13,3000,29.632,,,150,,,,11,,,,,,63,wg-a,,,,AAXX 22094 07747 12230 81516 10130 20130 30001 40057 53011 60117 76366 887// 90900=
07747,1996-01-22 12:00:00,14,1004,-1.7,94,13,500,29.632,,,140,,,,3,,,,,,60,wg-a,,,,AAXX 22124 07747 02200 81416 10140 20130 39984 40040 58017 60146 76062 885// 91200 333 60037=
07747,1996-01-22 15:00:00,14,1004.3,0.3,94,13,500,31.484,,,140,,,,1,,,,,,60,wg-a,,,,AAXX 22154 07747 12200 81417 10140 20130 39987 40043 50003 60017 76066 885// 91500=
07747,1996-01-22 18:00:00,14,1002.8,-1.5,94,13,500,35.188,,61.116,140,12.8,14.3,,0,,,,,,60,wg-a,,,,AAXX 22184 07747 12200 81419 10140 20130 39972 40028 56015 60007 76062 885// 91800 333 10143 20128 91033=
07747,1996-01-22 21:00:00,14,1002.8,-0,82,11,10000,22.224,,,160,,,,1,,,,,,21,wg-a,,,,AAXX 22214 07747 12260 /1612 10140 20110 39972 40028 55000 60017 72162 85500 92100=
07747,1996-01-23 00:00:00,14,1002.3,-0.5,77,10,10000,14.816,,33.336,150,,,,,,,,,,2,wg-a,,,,AAXX 23004 07747 12560 41508 10140 20100 39967 40023 56005 60016 70261 84500 90000 333 91018=
07747,1996-01-23 03:00:00,14,1002.3,-0,77,10,10000,18.52,,,160,,,,,,,,,,,wg-a,,,,AAXX 23034 07747 12560 71610 10140 20100 39967 40023 55000 60006 875// 90300=
07747,1996-01-23 06:00:00,13,998.8,-3.4,94,12,6000,31.484,,,150,13,14.2,,1,,,18,,,60,wg-a,,,,AAXX 23064 07747 02356 81517 10130 20120 39933 49988 56034 60184 76062 885// 90600 333 10142 20130 60017=
07747,1996-01-23 09:00:00,14,999.5,0.7,82,11,9000,25.928,,,190,,,,,,,,,,,wg-a,,,,AAXX 23094 07747 32/59 /1914 10140 20110 39940 49995 53007 90900=
07747,1996-01-23 12:00:00,15,999.4,-0.1,67,9,25000,29.632,,50.004,180,,,,,,,,,,1,wg-a,,,,AAXX 23124 07747 12575 71816 10150 20090 39939 49994 55001 60066 70162 8487/ 91200 333 91027=
07747,1996-01-23 15:00:00,15,998.8,-0.6,55,6,25000,18.52,,,150,,,,,,,,,,,wg-a,,,,AAXX 23154 07747 12575 /1510 10150 20060 39933 49988 55006 60006 81870 91500=
07747,1996-01-23 18:00:00,13,1000,1.1,54,4,25000,11.112,,,180,12.5,16.8,,,,,,,,,wg-a,,,,AAXX 23184 07747 32575 41806 10130 20040 39944 40000 53011 81272 91800 333 10168 20125=
07747,1996-01-23 21:00:00,9,1000.8,0.7,76,5,25000,11.112,,,350,,,,,,,,,,,wg-a,,,,AAXX 23214 07747 12575 33506 10090 20050 39951 40008 51007 60006 81502 92100=
07747,1996-01-24 00:00:00,5,1000.4,-0.4,93,4,25000,3.704,,,310,,,,,,,,,,,wg-a,,,,AAXX 24004 07747 12575 23102 10050 20040 39947 40004 58004 60006 81501 90000=
07747,1996-01-24 03:00:00,4,1000,-0.5,93,3,20000,0,,,0,,,,,,,,,,,wg-a,,,,AAXX 24034 07747 12570 30000 10040 20030 39942 40000 56005 60006 81501 90300=
07747,1996-01-24 06:00:00,5,999.6,-0.3,93,4,15000,7.408,,,290,3,12.5,,0,,,6,,,,wg-a,,,,AAXX 24064 07747 02565 72904 10050 20040 39939 49996 55003 60064 82542 90600 333 10125 20030 60007=
07747,1996-01-24 09:00:00,8,1000.3,0.7,93,7,8000,3.704,,,300,,,,2,,,,,,21,wg-a,,,,AAXX 24094 07747 12258 83002 10080 20070 39946 40003 51007 60027 72162 887// 90900=
07747,1996-01-24 12:00:00,8,999,-1.3,93,7,4000,18.52,,,270,,,,3,,,,,,63,wg-a,,,,AAXX 24124 07747 02140 82710 10080 20070 39933 49990 57013 60046 76396 889// 91200 333 60037=
07747,1996-01-24 18:00:00,7,999,1.6,100,7,9000,11.112,,,280,4.8,9,,0,,,,,,1,wg-a,,,,AAXX 24184 07747 12259 42806 10070 20070 39933 49990 51016 60007 70196 84500 91800 333 10090 20048=
07747,1996-01-24 21:00:00,7,1000.9,1.9,93,6,12000,14.816,,,220,,,,0,,,,,,61,wg-a,,,,AAXX 24214 07747 12262 82208 10070 20060 39952 40009 53019 60007 76161 875// 92100=
07747,1996-01-25 00:00:00,6,999.8,-1.1,93,5,2000,7.408,,,290,,,,0,,,,,,3,wg-a,,,,AAXX 25004 07747 02220 42904 10060 20050 39941 49998 56011 60016 70386 84800 90000 333 60007=
07747,1996-01-25 03:00:00,6,1000.1,0.3,100,6,2000,3.704,,,270,,,,0,,,,,,,wg-a,,,,AAXX 25034 07747 12520 82702 10060 20060 39944 40001 52003 60007 888// 90300=
07747,1996-01-25 06:00:00,7,999.8,-0.3,93,6,11000,11.112,,,230,4.9,7.4,,0,,,12,,,,wg-a,,,,AAXX 25064 07747 02/61 /2306 10070 20060 39941 49998 55003 60124 90600 333 10074 20049 60007=
07747,1996-01-25 09:00:00,8,1001.2,1.4,93,7,40000,11.112,,,240,,,,,,,,,,1,wg-a,,,,AAXX 25094 07747 02582 52406 10080 20070 39955 40012 53014 61000 70162 82570 90900 333 ////=
07747,1996-01-25 12:00:00,13,1001.8,0.7,58,5,500,3.704,,,40,,,,,,,,,,3,wg-a,,,,AAXX 25124 07747 02500 /0402 10130 20050 39962 40018 50007 61000 70361 85801 91200 333 ////=
07747,1996-01-25 18:00:00,10,1004.4,2,82,7,500,0,,,0,6.2,14.1,,,,,,,,,wg-a,,,,AAXX 25184 07747 32500 /0000 10100 20070 39987 40044 53020 82801 91800 333 10141 20062=
07747,1996-01-25 21:00:00,8,1005.8,1.4,87,6,11000,3.704,,,270,,,,,,,,,,,wg-a,,,,AAXX 25214 07747 12/61 /2702 10080 20060 30001 40058 51014 60006 92100=
07747,1996-01-26 00:00:00,6,1006.5,0.7,93,5,10000,3.704,,,360,,,,,,,,,,,wg-a,,,,AAXX 26004 07747 12460 23602 10060 20050 30008 40065 51007 60006 82800 90000=
07747,1996-01-26 03:00:00,6,1007,0.5,93,5,11000,11.112,,,200,,,,,,,,,,,wg-a,,,,AAXX 26034 07747 12/61 /2006 10060 20050 30013 40070 52005 60006 90300=
07747,1996-01-26 06:00:00,6,1007.6,0.5,93,5,10000,7.408,,,260,5.4,9.6,,0,,,,,,,wg-a,,,,AAXX 26064 07747 02460 72604 10060 20050 30018 40076 53005 60004 878// 90600 333 10096 20054 60007=
07747,1996-01-26 09:00:00,10,1008.4,0.9,82,7,25000,7.408,,,260,,,,,,,,,,,wg-a,,,,AAXX 26094 07747 12575 22604 10100 20070 30027 40084 52009 60006 81831 90900=
07747,1996-01-26 12:00:00,13,1008.4,0.1,58,5,25000,3.704,,,160,,,,,,,,,,,wg-a,,,,AAXX 26124 07747 12575 51602 10130 20050 30028 40084 50001 60006 83834 91200=
07747,1996-01-26 15:00:00,12,1007.6,-0.8,82,9,11000,14.816,,,80,,,,,,,,,,,wg-a,,,,AAXX 26154 07747 12/61 /0808 10120 20090 30020 40076 56008 60006 91500=
07747,1996-01-26 21:00:00,7,1009.5,1,93,6,7000,0,,,0,,,,,,,,,,,wg-a,,,,AAXX 26214 07747 12357 20000 10070 20060 30038 40095 51010 60006 81601 92100=
07747,1996-01-27 00:00:00,5,1009.6,0,100,5,6000,3.704,,,330,,,,,,,,,,,wg-a,,,,AAXX 27004 07747 12256 13302 10050 20050 30038 40096 50000 60006 81601 90000=
07747,1996-01-27 03:00:00,4,1009,-0.6,100,4,6000,3.704,,,230,,,,0,,,,,,,wg-a,,,,AAXX 27034 07747 12256 72302 10040 20040 30032 40090 58006 60007 876// 90300=
07747,1996-01-27 06:00:00,6,1008.8,-0.2,100,6,6000,3.704,,,230,3.8,9.3,,,,,,,,,wg-a,,,,AAXX 27064 07747 02256 72302 10060 20060 30030 40088 55002 60006 876// 90600 333 10093 20038 60004=
07747,1996-01-27 09:00:00,8,1010,1.3,93,7,6000,0,,,0,,,,,,,,,,,wg-a,,,,AAXX 27094 07747 12456 70000 10080 20070 30043 40100 51013 60006 875// 90900=
07747,1996-01-27 12:00:00,11,1009.2,-0.8,82,8,12000,7.408,,,90,,,,,,,,,,,wg-a,,,,AAXX 27124 07747 12562 20904 10110 20080 30035 40092 58008 60006 81101 91200=
07747,1996-01-27 15:00:00,13,1008,-1.1,77,9,15000,11.112,,,30,,,,,,,,,,,wg-a,,,,AAXX 27154 07747 12565 30306 10130 20090 30024 40080 56011 60006 81131 91500=
07747,1996-01-28 12:00:00,11,1005,-1.7,94,10,10000,3.704,,,80,,,,10,,,,,,29,wg-a,,,,AAXX 28124 07747 02260 80802 10110 20100 39994 40050 56017 60326 72996 889// 91200 333 60107=
07747,1996-01-28 18:00:00,11,1003.6,0.5,94,10,6000,11.112,,,10,10,14.6,,,,,,,,1,wg-a,,,,AAXX 28184 07747 32556 30106 10110 20100 39980 40036 53005 70161 83900 91800 333 10146 20100=
07747,1996-01-29 00:00:00,9,1005.6,0.8,93,8,8000,7.408,,,340,,,,0,,,,,,13,wg-a,,,,AAXX 29004 07747 02558 33404 10090 20080 39999 40056 51008 60006 71300 83980 90000 333 60007=
07747,1996-01-29 03:00:00,9,1005.6,-0,100,9,6000,7.408,,,180,,,,,,,,,,,wg-a,,,,AAXX 29034 07747 12556 71804 10090 20090 39999 40056 55000 60006 875// 90300=
07747,1996-01-29 06:00:00,12,1005.7,0.2,94,11,500,29.632,,,130,7.9,11.6,,2,,,34,,,61,wg-a,,,,AAXX 29064 07747 02400 81316 10120 20110 30001 40057 50002 60344 76165 885// 90600 333 10116 20079 60027=
07747,1996-01-29 09:00:00,12,1007,1.3,88,10,7000,35.188,,,130,,,,1,,,,,,2,wg-a,,,,AAXX 29094 07747 12457 81319 10120 20100 30014 40070 51013 60017 70262 885// 90900=
07747,1996-01-29 12:00:00,12,1006.8,-0.2,88,10,7000,31.484,,,130,,,,2,,,,,,25,wg-a,,,,AAXX 29124 07747 02457 81317 10120 20100 30012 40068 58002 60036 72586 885// 91200 333 60027=
07747,1996-01-29 15:00:00,12,1006.8,-0,88,10,6000,35.188,,53.708,120,,,,0,,,,,,25,wg-a,,,,AAXX 29154 07747 12456 81219 10120 20100 30012 40068 55000 60007 72522 885// 91500 333 91029=
07747,1996-01-29 18:00:00,11,1008.4,1.6,94,10,6000,25.928,,48.152,120,11,12.4,,6,,,,,,61,wg-a,,,,AAXX 29184 07747 12456 81214 10110 20100 30028 40084 51016 60067 76186 885// 91800 333 10124 20110 91026=
07747,1996-01-29 21:00:00,11,1009.8,1.3,94,10,3000,25.928,,,120,,,,8,,,,,,61,wg-a,,,,AAXX 29214 07747 12430 81214 10110 20100 30041 40098 51013 60087 76166 885// 92100=
07747,1996-01-30 00:00:00,12,1010.2,0.5,88,10,3000,25.928,,,110,,,,6,,,,,,61,wg-a,,,,AAXX 30004 07747 02330 81114 10120 20100 30046 40102 50005 60146 76166 887// 90000 333 60067=
07747,1996-01-30 03:00:00,12,1010.5,0.2,88,10,3000,29.632,,,110,,,,1,,,,,,21,wg-a,,,,AAXX 30034 07747 12330 81116 10120 20100 30048 40105 52002 60017 72162 887// 90300=
07747,1996-01-30 06:00:00,11,1011.6,1.1,94,10,4000,22.224,,,80,10.8,11.8,,3,,,27,,,61,wg-a,,,,AAXX 30064 07747 02340 80812 10110 20100 30059 40116 51011 60274 76162 887// 90600 333 10118 20108 60037=
07747,1996-01-30 09:00:00,10,1013.7,2.1,93,9,4500,18.52,,,30,,,,2,,,,,,21,wg-a,,,,AAXX 30094 07747 12345 80310 10100 20090 30080 40137 51021 60027 72162 887// 90900=
07747,1996-01-30 12:00:00,11,1014.6,0.9,87,9,6000,14.816,,,50,,,,0,,,,,,1,wg-a,,,,AAXX 30124 07747 02456 70508 10110 20090 30089 40146 50009 60026 70162 84570 91200 333 60007=
07747,1996-01-30 15:00:00,13,1014.3,-0.2,72,8,8000,7.408,,,90,,,,,,,,,,,wg-a,,,,AAXX 30154 07747 12558 70904 10130 20080 30087 40143 55002 60006 84832 91500=
07747,1996-01-30 18:00:00,10,1014.7,0.3,87,8,8000,3.704,,,270,9.7,13.6,,,,,,,,,wg-a,,,,AAXX 30184 07747 32558 22702 10100 20080 30090 40147 53003 81832 91800 333 10136 20097=
07747,1996-01-30 21:00:00,7,1015.5,0.7,100,7,11000,7.408,,,260,,,,,,,,,,,wg-a,,,,AAXX 30214 07747 12/61 /2604 10070 20070 30097 40155 53007 60006 92100=
07747,1996-01-31 00:00:00,6,1015.8,0.3,93,5,12000,3.704,,,300,,,,,,,,,,,wg-a,,,,AAXX 31004 07747 12562 /3002 10060 20050 30100 40158 50003 60026 81530 90000=
07747,1996-01-31 03:00:00,5,1015.5,-0.3,100,5,12000,0,,,0,,,,0,,,,,,,wg-a,,,,AAXX 31034 07747 12662 70000 10050 20050 30097 40155 56003 60007 875// 90300=
07747,1996-01-31 06:00:00,6,1015.7,0.2,93,5,12000,3.704,,,350,4.7,10.1,,,,,25,,,,wg-a,,,,AAXX 31064 07747 12662 /3502 10060 20050 30099 40157 53002 60254 81500 90600 333 10101 20047=
07747,1996-01-31 12:00:00,12,1015.6,-0.7,67,6,10000,29.632,,,150,,,,,,,,,,,wg-a,,,,AAXX 31124 07747 12560 61516 10120 20060 30099 40156 58007 60026 85830 91200=
07747,1996-01-31 15:00:00,10,1015.1,-0.5,66,4,10000,25.928,,50.004,150,,,,,,,,,,,wg-a,,,,AAXX 31154 07747 12460 71514 10100 20040 30094 40151 55005 60006 878// 91500 333 91027=
07747,1996-01-31 18:00:00,9,1015.7,0.6,66,3,11000,25.928,,,150,4.9,12.2,,,,,,,,,wg-a,,,,AAXX 31184 07747 32/61 /1514 10090 20030 30100 40157 50006 91800 333 10122 20049=
07747,1996-01-31 21:00:00,9,1017.1,1.3,66,3,9000,25.928,,,150,,,,,,,,,,,wg-a,,,,AAXX 31214 07747 12459 81514 10090 20030 30113 40171 51013 60006 875// 92100=
07747,1996-02-01 00:00:00,8,1016.9,-0.2,81,5,10000,22.224,,,160,,,,0,,,,,,21,wg-a,,,,AAXX 01004 07747 02460 81612 10080 20050 30111 40169 55002 60006 72122 875// 90000 333 60007=
07747,1996-02-01 03:00:00,8,1015.8,-1.1,76,4,10000,14.816,,,150,,,,0,,,,,,2,wg-a,,,,AAXX 01034 07747 12460 81508 10080 20040 30100 40158 57011 60007 70262 875// 90300=
07747,1996-02-01 06:00:00,7,1014.9,-0.9,87,5,8000,7.408,,,240,7.1,9.4,,,,,,,,1,wg-a,,,,AAXX 01064 07747 12458 82404 10070 20050 30091 40149 56009 60004 70162 876// 90600 333 10094 20071=
07747,1996-02-01 09:00:00,7,1014.7,-0.2,93,6,6000,3.704,,,60,,,,2,,,,,,61,wg-a,,,,AAXX 01094 07747 12456 80602 10070 20060 30089 40147 55002 60027 76162 885// 90900=
07747,1996-02-01 12:00:00,9,1013.1,-1.5,93,8,500,11.112,,,220,,,,3,,,,,,61,wg-a,,,,AAXX 01124 07747 02300 82206 10090 20080 30074 40131 58015 60056 76162 885// 91200 333 60037=
07747,1996-02-01 15:00:00,11,1010.3,-2.8,87,9,6000,35.188,,57.412,130,,,,3,,,,,,21,wg-a,,,,AAXX 01154 07747 12456 81319 10110 20090 30046 40103 56028 60037 72162 885// 91500 333 91031=
07747,1996-02-01 18:00:00,11,1010.5,0.2,94,10,500,29.632,,48.152,140,6.8,11.1,,,,,,,,61,wg-a,,,,AAXX 01184 07747 02400 81416 10110 20100 30048 40105 53002 61000 76162 885// 91800 333 10111 20068 //// 91026=
07747,1996-02-01 21:00:00,11,1009.6,-0.9,87,9,3000,38.892,,59.264,110,,,,2,,,,,,61,wg-a,,,,AAXX 01214 07747 12130 81121 10110 20090 30039 40096 58009 60027 76166 887// 92100 333 91032=
07747,1996-02-02 00:00:00,11,1007.8,-1.7,94,10,4000,38.892,,59.264,110,,,,7,,,,,,61,wg-a,,,,AAXX 02004 07747 02140 81121 10110 20100 30022 40078 56017 60096 76166 887// 90000 333 60077 91032=
07747,1996-02-02 03:00:00,11,1006.6,-1.2,94,10,40000,29.632,,,110,,,,7,,,,,,61,wg-a,,,,AAXX 02034 07747 12182 81116 10110 20100 30010 40066 56012 60077 76166 887// 90300=
07747,1996-02-02 06:00:00,9,1006.6,-0.1,93,8,4000,22.224,,,10,8.7,11,,13,,,38,,,,wg-a,,,,AAXX 02064 07747 02/40 /0112 10090 20080 30009 40066 57001 60384 90600 333 10110 20087 60137=
07747,1996-02-02 09:00:00,9,1008.1,1.5,93,8,15000,18.52,,,320,,,,1,,,,,,21,wg-a,,,,AAXX 02094 07747 12465 73210 10090 20080 30024 40081 52015 60017 72162 875// 90900=
07747,1996-02-02 12:00:00,12,1008,0,82,9,500,14.816,,,350,,,,,,,,,,2,wg-a,,,,AAXX 02124 07747 12400 73508 10120 20090 30024 40080 50000 60016 70262 8587/ 91200=
07747,1996-02-02 15:00:00,12,1007.9,-0.1,76,8,500,11.112,,,320,,,,0,,,,,,25,wg-a,,,,AAXX 02154 07747 12400 73206 10120 20080 30023 40079 55001 60007 72586 8587/ 91500=
07747,1996-02-02 18:00:00,11,1010,2,82,8,500,11.112,,,340,8.7,12.4,,0,,,,,,2,wg-a,,,,AAXX 02184 07747 12400 73406 10110 20080 30043 40100 53020 60007 70286 8587/ 91800 333 10124 20087=
07747,1996-02-02 21:00:00,10,1011.5,1.5,87,8,20000,3.704,,,120,,,,,,,,,,60,wg-a,,,,AAXX 02214 07747 02470 81202 10100 20080 30058 40115 51015 61000 76062 8487/ 92100 333 ////=
07747,1996-02-03 00:00:00,10,1012,0.5,82,7,25000,7.408,,,260,,,,,,,,,,2,wg-a,,,,AAXX 03004 07747 02475 72604 10100 20070 30063 40120 51005 61000 70262 8384/ 90000 333 6100=
07747,1996-02-03 03:00:00,8,1011.3,-0.7,87,6,25000,14.816,,,250,,,,,,,,,,,wg-a,,,,AAXX 03034 07747 12675 22508 10080 20060 30056 40113 57007 60006 81540 90300=
07747,1996-02-03 06:00:00,6,1011.7,0.3,93,5,11000,7.408,,,280,6.2,11.2,,,,,1,,,,wg-a,,,,AAXX 03064 07747 12/61 /2804 10060 20050 30059 40117 53003 60014 90600 333 10112 20062=
07747,1996-02-03 12:00:00,13,1011.2,-1.2,67,7,50000,3.704,,,40,,,,,,,,,,,wg-a,,,,AAXX 03124 07747 12684 70402 10130 20070 30056 40112 58012 60006 8584/ 91200=
07747,1996-02-03 15:00:00,13,1009.5,-1.7,67,7,500,11.112,,,190,,,,,,,,,,,wg-a,,,,AAXX 03154 07747 12600 71906 10130 20070 30039 40095 56017 60006 8584/ 91500=
07747,1996-02-03 18:00:00,11,1010.3,0.7,82,8,25000,3.704,,,240,5.7,14.3,,,,,,,,,wg-a,,,,AAXX 03184 07747 12675 72402 10110 20080 30046 40103 53007 60006 8584/ 91800 333 10143 20057=
07747,1996-02-03 21:00:00,9,1010.8,0.5,87,7,11000,7.408,,,280,,,,,,,,,,,wg-a,,,,AAXX 03214 07747 12/61 /2804 10090 20070 30051 40108 50005 60006 92100=
07747,1996-02-04 00:00:00,10,1010.5,-0.3,76,6,25000,11.112,,,340,,,,,,,,,,,wg-a,,,,AAXX 04004 07747 12775 33406 10100 20060 30048 40105 58003 60006 83500 90000=
07747,1996-02-04 03:00:00,9,1009.1,-1.4,81,6,20000,18.52,,,340,,,,,,,,,,,wg-a,,,,AAXX 04034 07747 12770 /3410 10090 20060 30034 40091 58014 60006 85500 90300=
07747,1996-02-04 06:00:00,9,1009.7,0.6,71,4,500,14.816,,,330,7.5,10.9,,,,,,,,,wg-a,,,,AAXX 04064 07747 02500 33308 10090 20040 30040 40097 53006 60006 83800 90600 333 10109 20075 60004=
07747,1996-02-04 12:00:00,10,1010,0,43,-2,18000,25.928,,,340,,,,,,,,,,,wg-a,,,,AAXX 04124 07747 12568 73414 10100 21020 30043 40100 50000 60006 86840 91200=
07747,1996-02-04 15:00:00,9,1009.9,-0.1,49,-1,18000,22.224,,,340,,,,,,,,,,,wg-a,,,,AAXX 04154 07747 12568 63412 10090 21010 30042 40099 55001 60006 83834 91500=
07747,1996-02-04 18:00:00,6,1012.4,2.4,52,-3,10000,38.892,,74.08,340,5.5,11.9,,,,,,,,,wg-a,,,,AAXX 04184 07747 12560 33421 10060 21030 30066 40124 53024 60006 83800 91800 333 10119 20055 91040=
07747,1996-02-04 21:00:00,5,1014,1.6,52,-4,15000,35.188,,59.264,320,,,,,,,,,,,wg-a,,,,AAXX 04214 07747 12565 43219 10050 21040 30082 40140 53016 60006 84800 92100 333 91032=
07747,1996-02-05 00:00:00,4,1013.3,-0.7,52,-5,15000,22.224,,,330,,,,,,,,,,,wg-a,,,,AAXX 05004 07747 12565 63312 10040 21050 30075 40133 58007 60006 85830 90000=
07747,1996-02-05 03:00:00,3,1012.2,-1.2,52,-6,15000,11.112,,,340,,,,,,,,,,,wg-a,,,,AAXX 05034 07747 12565 73406 10030 21060 30063 40122 58012 60006 878// 90300=
07747,1996-02-05 06:00:00,3,1010.1,-2,52,-6,25000,57.412,,85.192,320,2.3,5.5,,,,,,,,,wg-a,,,,AAXX 05064 07747 02575 43231 10030 21060 30043 40101 57020 60006 83830 90600 333 10055 20023 60004 91046=
07747,1996-02-05 09:00:00,4,1011.3,1.2,48,-6,50000,35.188,,57.412,330,,,,,,,,,,,wg-a,,,,AAXX 05094 07747 12/84 03319 10040 21060 30055 40113 51012 60006 80000 90900 333 91031=
07747,1996-02-05 12:00:00,8,1009.5,-1.7,36,-6,50000,35.188,,,330,,,,,,,,,,,wg-a,,,,AAXX 05124 07747 12684 /3319 10080 21060 30038 40095 58017 60006 81100 91200=
07747,1996-02-05 15:00:00,9,1007,-2.5,31,-7,50000,22.224,,,340,,,,,,,,,,,wg-a,,,,AAXX 05154 07747 12/84 13412 10090 21070 30013 40070 56025 60006 81040 91500=
07747,1996-02-05 18:00:00,5,1006.9,-0.2,52,-4,50000,7.408,,,150,2.6,9.3,,,,,,,,,wg-a,,,,AAXX 05184 07747 12/84 31504 10050 21040 30011 40069 55002 60006 81042 91800 333 10093 20026=
07747,1996-02-05 21:00:00,1,1004,-2.9,75,-3,10000,3.704,,,200,,,,,,,,,,,wg-a,,,,AAXX 05214 07747 12/60 22002 10010 21030 39982 40040 58029 60006 81042 92100=
07747,1996-02-06 00:00:00,2,1000.1,-3.9,80,-1,9000,14.816,,,350,,,,,,,,,,,wg-a,,,,AAXX 06004 07747 12/59 73508 10020 21010 39943 40001 58039 60006 8702/ 90000=
07747,1996-02-06 03:00:00,4,997.6,-2.4,81,1,8000,14.816,,,40,,,,,,,,,,,wg-a,,,,AAXX 06034 07747 12458 80408 10040 20010 39919 49976 56024 60006 886// 90300=
07747,1996-02-06 06:00:00,1,996.8,-0.9,93,0,3000,7.408,,,360,0.6,5.3,,3,,,3,,,61,wg-a,,,,AAXX 06064 07747 02230 83604 10010 20000 39910 49968 57009 60034 76176 887// 90600 333 10053 20006 60037=
07747,1996-02-06 09:00:00,2,995.4,-1.4,93,1,500,0,,,0,,,,1,,,,,,21,wg-a,,,,AAXX 06094 07747 12200 /0000 10020 20010 39896 49954 56014 60017 72176 85501 90900=
07747,1996-02-06 12:00:00,4,995,-0.3,100,4,500,3.704,,,80,,,,1,,,,,,61,wg-a,,,,AAXX 06124 07747 02400 80802 10040 20040 39893 49950 58003 60036 76176 887// 91200 333 60017=
07747,1996-02-06 15:00:00,9,993.7,-1.2,71,4,25000,50.004,,70.376,300,,,,0,,,,,,21,wg-a,,,,AAXX 06154 07747 12575 53027 10090 20040 39881 49937 55012 60007 72162 83282 91500 333 91038=
07747,1996-02-06 18:00:00,8,999.9,6.1,66,2,25000,38.892,,62.968,310,0.3,9.1,,,,,,,,2,wg-a,,,,AAXX 06184 07747 32575 /3121 10080 20020 39942 49999 53061 70262 85202 91800 333 10091 20003 91034=
07747,1996-02-06 21:00:00,8,1002.9,3,61,1,20000,38.892,,57.412,320,,,,,,,,,,,wg-a,,,,AAXX 06214 07747 12570 73221 10080 20010 39972 40029 52030 60006 871// 92100 333 91031=
07747,1996-02-07 00:00:00,8,1004.9,2,53,-1,20000,46.3,,72.228,320,,,,,,,,,,,wg-a,,,,AAXX 07004 07747 12570 33225 10080 21010 39992 40049 53020 60006 831// 90000 333 91039=
07747,1996-02-07 03:00:00,7,1006.7,1.8,53,-2,25000,25.928,,42.596,320,,,,,,,,,,,wg-a,,,,AAXX 07034 07747 12575 33214 10070 21020 30010 40067 51018 60006 831// 90300 333 91023=
07747,1996-02-07 06:00:00,7,1005.8,-0.9,57,-1,25000,18.52,,,340,6.3,8.6,,,,,3,,,,wg-a,,,,AAXX 07064 07747 02575 43410 10070 21010 30001 40058 57009 60006 841// 90600 333 10086 20063 60034=
07747,1996-02-07 09:00:00,7,1003.3,-2.5,66,1,500,7.408,,,170,,,,,,,,,,,wg-a,,,,AAXX 07094 07747 12500 71704 10070 20010 39976 40033 58025 60006 8487/ 90900=
07747,1996-02-07 12:00:00,6,999.5,-3.8,81,3,8000,11.112,,,190,,,,0,,,,,,61,wg-a,,,,AAXX 07124 07747 02558 71906 10060 20030 39938 49995 58038 60016 76161 8387/ 91200 333 60007=
07747,1996-02-07 15:00:00,5,997.9,-1.6,93,4,6000,14.816,,,300,,,,7,,,,,,61,wg-a,,,,AAXX 07154 07747 12556 73008 10050 20040 39922 49979 55016 60077 76166 8387/ 91500=
07747,1996-02-07 18:00:00,7,999,1.1,87,5,6000,35.188,,61.116,310,5.1,7.8,,7,,,,,,61,wg-a,,,,AAXX 07184 07747 12556 73119 10070 20050 39933 49990 53011 60077 76162 878// 91800 333 10078 20051 91033=
07747,1996-02-07 21:00:00,9,997.5,-1.4,53,0,15000,50.004,,75.932,310,,,,2,,,,,,2,wg-a,,,,AAXX 07214 07747 12665 /3127 10090 20000 39919 49975 56014 60027 70262 85500 92100 333 91041=
07747,1996-02-08 00:00:00,9,996.4,-1.1,61,2,25000,68.524,,103.712,310,,,,,,,,,,1,wg-a,,,,AAXX 08004 07747 12675 23137 10090 20020 39908 49964 55011 60026 70161 82500 90000 333 91056=
07747,1996-02-08 03:00:00,8,1000.3,3.8,57,0,25000,61.116,,85.192,320,,,,,,,,,,,wg-a,,,,AAXX 08034 07747 12775 /3233 10080 20000 39946 40003 53038 60006 85500 90300 333 91046=
07747,1996-02-08 06:00:00,6,1007,6.6,56,-2,25000,53.708,,81.488,330,6,,,,,,15,,,,wg-a,,,,AAXX 08064 07747 12775 /3329 10060 21020 30012 40070 51066 60154 85500 90600 333 20060 91044=
07747,1996-02-08 09:00:00,6,1010.9,3.9,65,0,15000,53.708,,75.932,320,,,,,,,,,,,wg-a,,,,AAXX 08094 07747 12465 43229 10060 20000 30051 40109 53039 60006 84200 90900 333 91041=
07747,1996-02-08 12:00:00,6,1013.2,2.3,75,2,12000,46.3,,68.524,330,,,,2,,,,,,80,wg-a,,,,AAXX 08124 07747 02562 73325 10060 20020 30074 40132 51023 60026 78086 872// 91200 333 60027 91037=
07747,1996-02-08 15:00:00,9,1014.8,1.7,46,-2,500,42.596,,68.524,330,,,,,,,,,,3,wg-a,,,,AAXX 08154 07747 02500 43323 10090 21020 30091 40148 53017 61000 70386 84100 91500 333 //// 91037=
07747,1996-02-08 18:00:00,9,1019,4.1,46,-2,500,35.188,,57.412,330,5.3,9.4,,,,,,,,3,wg-a,,,,AAXX 08184 07747 32500 33319 10090 21020 30132 40190 51041 70386 83100 91800 333 10094 20053 91031=
07747,1996-02-08 21:00:00,8,1020.9,1.9,49,-2,500,25.928,,53.708,340,,,,,,,,,,,wg-a,,,,AAXX 08214 07747 12500 /3414 10080 21020 30151 40209 51019 60006 81100 92100 333 91029=
07747,1996-02-09 00:00:00,7,1021.2,0.3,57,-1,500,29.632,,,320,,,,,,,,,,,wg-a,,,,AAXX 09004 07747 12/00 03216 10070 21010 30154 40212 52003 60006 80000 90000=
07747,1996-02-09 03:00:00,6,1020.1,-1.1,56,-2,500,29.632,,,320,,,,,,,,,,,wg-a,,,,AAXX 09034 07747 12/00 03216 10060 21020 30143 40201 58011 60006 80000 90300=
07747,1996-02-09 06:00:00,4,1019.5,-0.7,60,-3,500,18.52,,,310,4.2,8.8,,,,,2,,,,wg-a,,,,AAXX 09064 07747 02/00 03110 10040 21030 30136 40195 57007 60006 80000 90600 333 10088 20042 60024=
07747,1996-02-09 09:00:00,7,1018.9,-0.5,53,-2,60000,14.816,,,260,,,,,,,,,,,wg-a,,,,AAXX 09094 07747 12/86 42608 10070 21020 30131 40189 57005 60006 80002 90900=
07747,1996-02-09 12:00:00,10,1017.1,-1.7,37,-4,60000,11.112,,,100,,,,,,,,,,,wg-a,,,,AAXX 09124 07747 12/86 41006 10100 21040 30114 40171 58017 60006 81032 91200=
07747,1996-02-09 15:00:00,9,1015.2,-1.9,43,-3,60000,18.52,,,110,,,,,,,,,,,wg-a,,,,AAXX 09154 07747 12/86 71110 10090 21030 30095 40152 56019 60006 83072 91500=
07747,1996-02-09 18:00:00,7,1015.5,0.2,57,-1,25000,0,,,0,3,11.3,,,,,,,,,wg-a,,,,AAXX 09184 07747 12/75 70000 10070 21010 30097 40155 53002 60006 83072 91800 333 10113 20030=
07747,1996-02-09 21:00:00,4,1016.4,0.9,75,0,25000,7.408,,,310,,,,,,,,,,,wg-a,,,,AAXX 09214 07747 12/75 73104 10040 20000 30106 40164 53009 60006 82072 92100=
07747,1996-02-10 00:00:00,4,1016.9,0.4,75,0,25000,0,,,0,,,,,,,,,,,wg-a,,,,AAXX 10004 07747 12/75 70000 10040 20000 30110 40169 51004 60006 83072 90000=
07747,1996-02-10 03:00:00,4,1017,0.1,87,2,25000,3.704,,,250,,,,,,,,,,,wg-a,,,,AAXX 10034 07747 12675 72502 10040 20020 30111 40170 50001 60006 8257/ 90300=
07747,1996-02-10 06:00:00,4,1017.9,0.9,87,2,25000,7.408,,,230,3,6.8,,,,,,,,60,wg-a,,,,AAXX 10064 07747 02675 72304 10040 20020 30120 40179 53009 61000 76062 8557/ 90600 333 10068 20030 6100=
07747,1996-02-10 09:00:00,9,1019.3,1.5,71,4,25000,0,,,0,,,,,,,,,,3,wg-a,,,,AAXX 10094 07747 02575 70000 10090 20040 30135 40193 51015 61000 70362 8387/ 90900 333 ////=
07747,1996-02-10 12:00:00,12,1018.5,-0.7,54,3,500,7.408,,,340,,,,,,,,,,3,wg-a,,,,AAXX 10124 07747 02500 73404 10120 20030 30128 40185 58007 61000 70362 8385/ 91200 333 ////=
07747,1996-02-10 15:00:00,12,1017.7,-0.8,54,3,20000,3.704,,,280,,,,,,,,,,,wg-a,,,,AAXX 10154 07747 12570 72802 10120 20030 30120 40177 56008 60006 8783/ 91500=
07747,1996-02-10 18:00:00,9,1018.7,0.9,71,4,18000,7.408,,,290,4.3,12.5,,,,,,,,,wg-a,,,,AAXX 10184 07747 32568 72904 10090 20040 30129 40187 53009 85830 91800 333 10125 20043=
07747,1996-02-10 21:00:00,8,1019.8,1.1,76,4,25000,14.816,,,260,,,,,,,,,,,wg-a,,,,AAXX 10214 07747 12575 52608 10080 20040 30140 40198 51011 60006 84830 92100=
07747,1996-02-11 00:00:00,7,1019.8,0,76,3,25000,11.112,,,250,,,,,,,,,,,wg-a,,,,AAXX 11004 07747 12575 42506 10070 20030 30140 40198 50000 60006 83830 90000=
07747,1996-02-11 03:00:00,8,1018.8,-1,71,3,25000,25.928,,,320,,,,,,,,,,,wg-a,,,,AAXX 11034 07747 12575 43214 10080 20030 30130 40188 58010 60006 82842 90300=
07747,1996-02-11 06:00:00,7,1019.6,0.8,70,2,25000,11.112,,,300,6.3,9,,,,,,,,,wg-a,,,,AAXX 11064 07747 02575 43006 10070 20020 30138 40196 51008 60006 82842 90600 333 10090 20063 61000=
07747,1996-02-11 09:00:00,10,1020.9,1.3,57,2,60000,25.928,,,320,,,,,,,,,,,wg-a,,,,AAXX 11094 07747 12586 53214 10100 20020 30151 40209 51013 60006 82842 90900=
07747,1996-02-11 12:00:00,12,1020,-0.8,47,1,60000,38.892,,59.264,320,,,,,,,,,,,wg-a,,,,AAXX 11124 07747 12586 23221 10120 20010 30143 40200 58008 60006 82200 91200 333 91032=
07747,1996-02-11 15:00:00,12,1019.3,-0.7,47,1,60000,31.484,,53.708,310,,,,,,,,,,,wg-a,,,,AAXX 11154 07747 12586 /3117 10120 20010 30136 40193 55007 60006 85802 91500 333 91029=
07747,1996-02-11 18:00:00,10,1021,1.7,53,1,25000,18.52,,,300,6.3,13.5,,,,,,,,,wg-a,,,,AAXX 11184 07747 12575 43010 10100 20010 30153 40210 53017 60006 84840 91800 333 10135 20063=
07747,1996-02-11 21:00:00,10,1021.9,0.8,62,3,20000,22.224,,,320,,,,,,,,,,,wg-a,,,,AAXX 11214 07747 12570 /3212 10100 20030 30161 40219 51008 60006 81150 92100=
07747,1996-02-12 00:00:00,9,1021.3,-0.6,71,4,18000,25.928,,,310,,,,,,,,,,,wg-a,,,,AAXX 12004 07747 12768 33114 10090 20040 30155 40213 55006 60006 81530 90000=
07747,1996-02-12 03:00:00,9,1019.7,-1.6,71,4,18000,35.188,,,320,,,,,,,,,,,wg-a,,,,AAXX 12034 07747 12768 23219 10090 20040 30139 40197 56016 60006 81540 90300=
07747,1996-02-12 06:00:00,7,1019.3,-0.4,70,2,20000,11.112,,,240,7.1,10.4,,,,,,,,,wg-a,,,,AAXX 12064 07747 02770 22406 10070 20020 30135 40193 58004 60006 81540 90600 333 10104 20071 60004=
07747,1996-02-12 09:00:00,11,1018.4,-0.8,62,4,40000,11.112,,,240,,,,,,,,,,,wg-a,,,,AAXX 12094 07747 12782 62406 10110 20040 30127 40184 58008 60006 83542 90900=
07747,1996-02-12 12:00:00,13,1015.3,-3.1,54,4,40000,7.408,,,50,,,,,,,,,,,wg-a,,,,AAXX 12124 07747 12782 60504 10130 20040 30096 40153 58031 60006 83542 91200=
07747,1996-02-12 15:00:00,15,1011.1,-4.1,41,2,40000,3.704,,,260,,,,,,,,,,,wg-a,,,,AAXX 12154 07747 12782 62602 10150 20020 30055 40111 56041 60006 83541 91500=
07747,1996-02-12 18:00:00,12,1008.7,-2.4,62,5,20000,11.112,,,180,5.8,15.5,,,,,,,,,wg-a,,,,AAXX 12184 07747 12670 71806 10120 20050 30031 40087 57024 60006 8457/ 91800 333 10155 20058=
07747,1996-02-12 21:00:00,12,1008.4,-0.3,67,6,15000,7.408,,,240,,,,,,,,,,21,wg-a,,,,AAXX 12214 07747 02665 82404 10120 20060 30028 40084 55003 61000 72162 8557/ 92100 333 ////=
07747,1996-02-13 00:00:00,13,1009.8,1.4,54,4,15000,29.632,,,310,,,,,,,,,,21,wg-a,,,,AAXX 13004 07747 02665 73116 10130 20040 30042 40098 53014 61000 72162 875// 90000 333 6100=
07747,1996-02-13 03:00:00,11,1010.3,0.4,50,1,15000,25.928,,,310,,,,,,,,,,,wg-a,,,,AAXX 13034 07747 12765 43114 10110 20010 30046 40103 50004 60006 84500 90300=
07747,1996-02-13 06:00:00,11,1009.6,-0.7,47,0,15000,38.892,,,300,10.4,14,,,,,,,,,wg-a,,,,AAXX 13064 07747 02765 43021 10110 20000 30039 40096 58007 61000 84500 90600 333 10140 20104 ////=
07747,1996-02-13 09:00:00,12,1010.7,1.2,47,1,50000,42.596,,,310,,,,0,,,,,,,wg-a,,,,AAXX 13094 07747 12584 63123 10120 20010 30051 40107 51012 60007 85802 90900=
07747,1996-02-13 12:00:00,10,1011.1,0.3,71,5,500,29.632,,,330,,,,0,,,,,,3,wg-a,,,,AAXX 13124 07747 02500 73316 10100 20050 30054 40111 50003 60016 70386 8584/ 91200 333 60007=
07747,1996-02-13 15:00:00,12,1010.1,-0.9,58,4,40000,31.484,,51.856,310,,,,,,,,,,,wg-a,,,,AAXX 13154 07747 12582 53117 10120 20040 30045 40101 56009 60006 82102 91500 333 91028=
07747,1996-02-13 18:00:00,9,1011.3,1.1,71,4,9000,22.224,,,350,8.6,12.7,,,,,,,,,wg-a,,,,AAXX 13184 07747 32459 73512 10090 20040 30056 40113 53011 85732 91800 333 10127 20086=
07747,1996-02-13 21:00:00,8,1012.5,1.2,76,4,20000,7.408,,,270,,,,,,,,,,,wg-a,,,,AAXX 13214 07747 12570 32704 10080 20040 30068 40125 53012 60006 83200 92100=
07747,1996-02-14 00:00:00,7,1012.9,0.3,81,4,20000,11.112,,,280,,,,,,,,,,,wg-a,,,,AAXX 14004 07747 12570 62806 10070 20040 30071 40129 53003 60006 86800 90000=
07747,1996-02-14 03:00:00,6,1013.5,0.6,70,1,20000,14.816,,,330,,,,,,,,,,,wg-a,,,,AAXX 14034 07747 12570 33308 10060 20010 30077 40135 51006 60006 81201 90300=
07747,1996-02-14 06:00:00,5,1015.4,1.9,65,-1,500,14.816,,,300,4.9,9.4,,,,,,,,,wg-a,,,,AAXX 14064 07747 02/00 23008 10050 21010 30096 40154 53019 60006 80001 90600 333 10094 20049 60004=
07747,1996-02-14 09:00:00,6,1016.1,0.7,61,-1,25000,50.004,,62.968,320,,,,0,,,,,,,wg-a,,,,AAXX 14094 07747 12575 23227 10060 21010 30103 40161 51007 60007 82140 90900 333 91034=
07747,1996-02-14 12:00:00,6,1016.1,0.7,61,-1,25000,50.004,,50.004,320,,,,0,,,,,,,wg-a,,,,AAXX 14124 07747 12575 23227 10060 21010 30103 40161 51007 60007 82140 91200 333 91027=
07747,1996-02-14 15:00:00,7,1017.9,-0.4,53,-2,15000,50.004,,62.968,310,,,,,,,,,,,wg-a,,,,AAXX 14154 07747 12565 /3127 10070 21020 30121 40179 58004 60006 81800 91500 333 91034=
07747,1996-02-14 18:00:00,6,1021.2,3.3,56,-2,15000,25.928,,,320,5.1,7.4,,,,,,,,,wg-a,,,,AAXX 14184 07747 12665 /3214 10060 21020 30154 40212 53033 60006 81800 91800 333 10074 20051=
07747,1996-02-14 21:00:00,5,1023.1,1.8,60,-2,15000,42.596,,,320,,,,,,,,,,,wg-a,,,,AAXX 14214 07747 12565 33223 10050 21020 30172 40231 53018 60006 83100 92100=
07747,1996-02-15 00:00:00,5,1024.2,1.1,56,-3,15000,31.484,,,320,,,,,,,,,,,wg-a,,,,AAXX 15004 07747 12/65 03217 10050 21030 30183 40242 51011 60006 80000 90000=
07747,1996-02-15 03:00:00,4,1025.4,1.2,60,-3,15000,31.484,,,330,,,,,,,,,,,wg-a,,,,AAXX 15034 07747 12/65 03317 10040 21030 30195 40254 53012 60006 80000 90300=
07747,1996-02-15 06:00:00,4,1027.4,2,56,-4,15000,29.632,,,320,3.4,5.8,,,,,,,,,wg-a,,,,AAXX 15064 07747 02/65 03216 10040 21040 30215 40274 53020 60006 80000 90600 333 10058 20034 60004=
07747,1996-02-15 09:00:00,6,1029.2,1.8,49,-4,25000,29.632,,,320,,,,,,,,,,,wg-a,,,,AAXX 15094 07747 12575 /3216 10060 21040 30233 40292 51018 60006 81100 90900=
07747,1996-02-15 12:00:00,8,1027.9,-1.2,42,-4,25000,25.928,,,330,,,,,,,,,,,wg-a,,,,AAXX 15124 07747 12575 /3314 10080 21040 30221 40279 58012 60006 81100 91200=
07747,1996-02-15 15:00:00,7,1026.8,-1.1,49,-3,15000,42.596,,64.82,320,,,,,,,,,,,wg-a,,,,AAXX 15154 07747 12565 /3223 10070 21030 30210 40268 56011 60006 81100 91500 333 91035=
07747,1996-02-15 18:00:00,6,1028.1,1.2,45,-5,20000,35.188,,55.56,330,3.6,8.4,,,,,,,,,wg-a,,,,AAXX 15184 07747 12570 /3319 10060 21050 30222 40281 53012 60006 81801 91800 333 10084 20036 91030=
07747,1996-02-15 21:00:00,5,1028.7,0.6,52,-4,25000,29.632,,,330,,,,,,,,,,,wg-a,,,,AAXX 15214 07747 12/75 03316 10050 21040 30228 40287 51006 60006 80000 92100=
07747,1996-02-16 00:00:00,5,1028.5,-0.2,52,-4,25000,35.188,,,330,,,,,,,,,,,wg-a,,,,AAXX 16004 07747 12/75 03319 10050 21040 30226 40285 58002 60006 80000 90000=
07747,1996-02-16 03:00:00,4,1028,-0.5,56,-4,25000,38.892,,59.264,320,,,,,,,,,,,wg-a,,,,AAXX 16034 07747 12/75 03221 10040 21040 30221 40280 56005 60006 80000 90300 333 91032=
07747,1996-02-16 06:00:00,4,1026.9,-1.1,56,-4,25000,46.3,,68.524,320,3.7,5.8,,,,,,,,,wg-a,,,,AAXX 16064 07747 02/75 03225 10040 21040 30210 40269 58011 60006 80000 90600 333 10058 20037 60004 91037=
07747,1996-02-16 09:00:00,6,1026.5,-0.4,49,-4,40000,35.188,,,320,,,,,,,,,,,wg-a,,,,AAXX 16094 07747 12/82 13219 10060 21040 30206 40265 58004 60006 81040 90900=
07747,1996-02-16 12:00:00,8,1025.7,-0.7,36,-6,40000,53.708,,74.08,320,,,,,,,,,,,wg-a,,,,AAXX 16124 07747 12/82 43229 10080 21060 30199 40257 57007 60006 84040 91200 333 91040=
07747,1996-02-16 15:00:00,9,1023.4,-2.3,27,-9,40000,61.116,,87.044,310,,,,,,,,,,,wg-a,,,,AAXX 16154 07747 12782 43133 10090 21090 30176 40234 57023 60006 82540 91500 333 91047=
07747,1996-02-16 18:00:00,8,1025.5,2.1,23,-12,40000,38.892,,,310,3.6,9.8,,,,,,,,,wg-a,,,,AAXX 16184 07747 12/82 13121 10080 21120 30197 40255 53021 60006 81040 91800 333 10098 20036=
07747,1996-02-16 21:00:00,8,1025.9,0.4,42,-4,25000,31.484,,,320,,,,,,,,,,,wg-a,,,,AAXX 16214 07747 12775 /3217 10080 21040 30201 40259 51004 60006 81540 92100=
07747,1996-02-17 00:00:00,8,1026.4,0.5,57,0,25000,38.892,,59.264,340,,,,,,,,,,,wg-a,,,,AAXX 17004 07747 12775 /3421 10080 20000 30206 40264 53005 60006 81500 90000 333 91032=
07747,1996-02-17 03:00:00,8,1026,-0.3,57,0,25000,25.928,,50.004,300,,,,,,,,,,,wg-a,,,,AAXX 17034 07747 12/75 13014 10080 20000 30203 40260 55003 60006 81040 90300 333 91027=
07747,1996-02-17 06:00:00,9,1023.8,-2.3,57,1,25000,61.116,,83.34,330,7.5,9,,,,,,,,,wg-a,,,,AAXX 17064 07747 02675 /3333 10090 20010 30180 40238 56023 60006 81140 90600 333 10090 20075 60004 91045=
07747,1996-02-17 09:00:00,12,1024.4,0.7,50,2,75000,61.116,,85.192,330,,,,,,,,,,,wg-a,,,,AAXX 17094 07747 12589 /3333 10120 20020 30187 40244 53007 60006 81841 90900 333 91046=
07747,1996-02-17 12:00:00,13,1024.6,0.2,51,3,75000,46.3,,,320,,,,,,,,,,,wg-a,,,,AAXX 17124 07747 12689 33225 10130 20030 30189 40246 50002 60006 82141 91200=
07747,1996-02-17 15:00:00,14,1023.3,-1.3,47,3,60000,53.708,,74.08,320,,,,,,,,,,,wg-a,,,,AAXX 17154 07747 12686 23229 10140 20030 30176 40233 56013 60006 81102 91500 333 91040=
07747,1996-02-17 18:00:00,11,1026,2.6,58,3,40000,31.484,,,330,8.9,14,,,,,,,,,wg-a,,,,AAXX 17184 07747 12682 33317 10110 20030 30202 40260 53026 60006 83100 91800 333 10140 20089=
07747,1996-02-17 21:00:00,10,1024.9,-1.1,62,3,500,42.596,,62.968,340,,,,,,,,,,,wg-a,,,,AAXX 17214 07747 12600 /3423 10100 20030 30191 40249 58011 60006 81100 92100 333 91034=
07747,1996-02-18 00:00:00,10,1025.3,0.4,57,2,25000,29.632,,48.152,340,,,,,,,,,,,wg-a,,,,AAXX 18004 07747 12675 /3416 10100 20020 30195 40253 50004 60006 81500 90000 333 91026=
07747,1996-02-18 03:00:00,7,1024.2,-1.1,66,1,25000,11.112,,,160,,,,,,,,,,,wg-a,,,,AAXX 18034 07747 12775 /1606 10070 20010 30184 40242 58011 60006 81500 90300=
07747,1996-02-18 06:00:00,6,1022.2,-2,70,1,500,7.408,,,230,5.6,11.4,,,,,,,,,wg-a,,,,AAXX 18064 07747 02500 /2304 10060 20010 30164 40222 58020 60006 81800 90600 333 10114 20056 60004=
07747,1996-02-18 09:00:00,10,1021.2,-1,57,2,60000,14.816,,,300,,,,,,,,,,,wg-a,,,,AAXX 18094 07747 12/86 23008 10100 20020 30154 40212 58010 60006 80001 90900=
07747,1996-02-18 12:00:00,13,1017.8,-3.3,51,3,60000,11.112,,,190,,,,,,,,,,,wg-a,,,,AAXX 18124 07747 12/86 21906 10130 20030 30121 40178 58033 60006 80001 91200=
07747,1996-02-18 15:00:00,13,1011.7,-6,58,5,25000,3.704,,,70,,,,,,,,,,,wg-a,,,,AAXX 18154 07747 12/75 30702 10130 20050 30061 40117 56060 60006 80002 91500=
07747,1996-02-18 18:00:00,11,1010.4,-1.4,71,6,25000,3.704,,,10,4,13.9,,,,,,,,,wg-a,,,,AAXX 18184 07747 12/75 /0102 10110 20060 30047 40104 56014 60006 82032 91800 333 10139 20040=
07747,1996-02-18 21:00:00,9,1008.4,-2,61,2,25000,14.816,,,300,,,,,,,,,,,wg-a,,,,AAXX 18214 07747 12/75 /3008 10090 20020 30027 40084 56020 60006 83032 92100=
07747,1996-02-19 00:00:00,12,1005.7,-2.6,44,0,20000,14.816,,,290,,,,,,,,,,,wg-a,,,,AAXX 19004 07747 12670 72908 10120 20000 30001 40057 56026 60006 8457/ 90000=
07747,1996-02-19 03:00:00,9,1003.9,-1.9,61,2,20000,42.596,,66.672,320,,,,,,,,,,,wg-a,,,,AAXX 19034 07747 12670 73223 10090 20020 39982 40039 56019 60006 875// 90300 333 91036=
07747,1996-02-19 06:00:00,7,1003.6,-0.3,66,1,20000,29.632,,,310,6.8,12.2,,,,,,,,,wg-a,,,,AAXX 19064 07747 02670 53116 10070 20010 39979 40036 56003 60006 83531 90600 333 10122 20068 60004=
07747,1996-02-19 09:00:00,10,1002.1,-1.4,50,0,50000,18.52,,,320,,,,,,,,,,,wg-a,,,,AAXX 19094 07747 12684 /3210 10100 20000 39965 40021 58014 60006 81800 90900=
07747,1996-02-19 12:00:00,13,1000.4,-1.7,38,-1,50000,31.484,,50.004,310,,,,,,,,,,,wg-a,,,,AAXX 19124 07747 12684 33117 10130 21010 39948 40004 58017 60006 83801 91200 333 91027=
07747,1996-02-19 15:00:00,13,998.1,-2.3,38,-1,40000,31.484,,,320,,,,,,,,,,,wg-a,,,,AAXX 19154 07747 12682 73217 10130 21010 39925 49981 55023 60006 8327/ 91500=
07747,1996-02-19 18:00:00,10,999.5,1.4,53,1,500,38.892,,59.264,320,6.8,14.4,,,,,,,,,wg-a,,,,AAXX 19184 07747 12500 73221 10100 20010 39939 49995 50014 60006 8583/ 91800 333 10144 20068 91032=
07747,1996-02-19 21:00:00,8,1002.7,3.1,61,1,25000,25.928,,,330,,,,,,,,,,,wg-a,,,,AAXX 19214 07747 12575 43314 10080 20010 39970 40027 53031 60006 84800 92100=
07747,1996-02-20 00:00:00,5,1006.7,3.9,65,-1,15000,29.632,,,320,,,,,,,,,,,wg-a,,,,AAXX 20004 07747 12365 73216 10050 21010 30009 40067 51039 60006 875// 90000=
07747,1996-02-20 03:00:00,3,1007.1,0.4,56,-5,20000,42.596,,62.968,330,,,,,,,,,,,wg-a,,,,AAXX 20034 07747 12570 /3323 10030 21050 30013 40071 50004 60006 86800 90300 333 91034=
07747,1996-02-20 06:00:00,2,1007.2,0.1,55,-6,20000,46.3,,68.524,330,2,10,,,,,,,,,wg-a,,,,AAXX 20064 07747 02570 63325 10020 21060 30014 40072 53001 60006 85840 90600 333 10100 20020 60004 91037=
07747,1996-02-20 09:00:00,3,1009.2,2,41,-9,20000,35.188,,57.412,320,,,,,,,,,,,wg-a,,,,AAXX 20094 07747 12570 23219 10030 21090 30034 40092 53020 60006 81842 90900 333 91031=
07747,1996-02-20 12:00:00,5,1008,-1.2,30,-11,20000,35.188,,51.856,330,,,,,,,,,,,wg-a,,,,AAXX 20124 07747 12570 /3319 10050 21110 30022 40080 58012 60006 81842 91200 333 91028=
07747,1996-02-20 15:00:00,6,1007.1,-0.9,31,-10,20000,42.596,,59.264,340,,,,,,,,,,,wg-a,,,,AAXX 20154 07747 12670 43423 10060 21100 30013 40071 58009 60006 83840 91500 333 91032=
07747,1996-02-20 18:00:00,3,1010.2,3.1,48,-7,15000,22.224,,46.3,330,1.2,6.3,,,,,,,,,wg-a,,,,AAXX 20184 07747 12265 73312 10030 21070 30044 40102 51031 60006 8687/ 91800 333 10063 20012 91025=
07747,1996-02-20 21:00:00,1,1010.7,0.4,64,-5,10000,31.484,,,320,,,,,,,,,,,wg-a,,,,AAXX 20214 07747 12260 83217 10010 21050 30048 40107 51004 60006 885// 92100=
07747,1996-02-21 00:00:00,-1,1011.4,0.7,80,-4,10000,14.816,,,300,,,,,,,,,,,wg-a,,,,AAXX 21004 07747 12560 /3008 11010 21040 30055 40114 53007 60006 82570 90000=
07747,1996-02-21 03:00:00,0,1009.7,-1.7,74,-4,500,25.928,,,310,,,,,,,,,,70,wg-a,,,,AAXX 21034 07747 02200 83114 10000 21040 30038 40097 58017 61000 77072 8657/ 90300 333 ////=
07747,1996-02-21 06:00:00,1,1009,-0.7,59,-6,15000,38.892,,,320,-0.7,2.5,,,,,,,,3,wg-a,,,,AAXX 21064 07747 02565 83221 10010 21060 30031 40090 56007 61000 70372 8457/ 90600 333 10025 21007 6100=
07747,1996-02-21 09:00:00,1,1010,1,59,-6,15000,35.188,,,310,,,,,,,,,,,wg-a,,,,AAXX 21094 07747 12565 63119 10010 21060 30041 40100 53010 60006 85830 90900=
07747,1996-02-21 12:00:00,3,1009.6,-0.3,48,-7,11000,57.412,,81.488,310,,,,,,,,,,,wg-a,,,,AAXX 21124 07747 12/61 /3131 10030 21070 30038 40096 58003 60006 91200 333 91044=
07747,1996-02-21 18:00:00,0,1012.6,1.9,80,-3,500,42.596,,66.672,300,0.2,3.5,,,,,,,,71,wg-a,,,,AAXX 21184 07747 02400 73023 10000 21030 30067 40126 51019 61000 77172 878// 91800 333 10035 20002 //// 91036=
07747,1996-02-21 21:00:00,1,1015.6,3,64,-5,6000,38.892,,74.08,330,,,,,,,,,,,wg-a,,,,AAXX 21214 07747 02/56 /3321 10010 21050 30097 40156 53030 61000 92100 333 //// 91040=
07747,1996-02-22 00:00:00,0,1016,0.4,64,-6,12000,50.004,,68.524,320,,,,,,,,,,70,wg-a,,,,AAXX 22004 07747 02462 53227 10000 21060 30101 40160 53004 61000 77077 85800 90000 333 6100 91037=
07747,1996-02-22 03:00:00,0,1016,0,64,-6,10000,53.708,,85.192,320,,,,,,,,,,3,wg-a,,,,AAXX 22034 07747 02460 73229 10000 21060 30101 40160 50000 61000 70372 8587/ 90300 333 //// 91046=
07747,1996-02-22 06:00:00,0,1016.3,0.3,59,-7,15000,57.412,,79.636,320,-0.7,0.9,,,,,,,,1,wg-a,,,,AAXX 22064 07747 02465 23231 10000 21070 30104 40163 53003 61000 70171 82840 90600 333 10009 21007 //// 91043=
07747,1996-02-22 09:00:00,0,1019.3,2.9,47,-10,20000,42.596,,75.932,320,,,,,,,,,,,wg-a,,,,AAXX 22094 07747 12570 /3223 10000 21100 30133 40193 53029 60006 81140 90900 333 91041=
07747,1996-02-22 12:00:00,2,1020.2,1,35,-12,25000,61.116,,94.452,310,,,,,,,,,,,wg-a,,,,AAXX 22124 07747 12575 /3133 10020 21120 30143 40202 51010 60006 81140 91200 333 91051=
07747,1996-02-22 15:00:00,3,1019.5,-0.7,18,-19,25000,68.524,,94.452,320,,,,,,,,,,,wg-a,,,,AAXX 22154 07747 12575 /3237 10030 21190 30136 40195 55007 60006 81100 91500 333 91051=
07747,1996-02-22 18:00:00,2,1022.9,3.4,37,-11,500,22.224,,46.3,310,-1.3,3.8,,,,,,,,,wg-a,,,,AAXX 22184 07747 12500 23112 10020 21110 30170 40229 51034 60006 81140 91800 333 10038 21013 91025=
07747,1996-02-22 21:00:00,4,1021.5,-1.4,38,-9,18000,25.928,,,320,,,,,,,,,,,wg-a,,,,AAXX 22214 07747 12568 /3214 10040 21090 30156 40215 58014 60006 81144 92100=
07747,1996-02-23 00:00:00,5,1019.6,-1.8,56,-3,18000,3.704,,,20,,,,,,,,,,,wg-a,,,,AAXX 23004 07747 12568 30202 10050 21030 30138 40196 58018 60006 81151 90000=
07747,1996-02-23 03:00:00,7,1017.6,-2,66,1,18000,18.52,,,320,,,,,,,,,,,wg-a,,,,AAXX 23034 07747 12568 23210 10070 20010 30118 40176 56020 60006 81830 90300=
07747,1996-02-23 06:00:00,7,1017.1,-0.5,76,3,12000,29.632,,,300,1.6,6.8,,0,,,,,,21,wg-a,,,,AAXX 23064 07747 02462 73016 10070 20030 30113 40171 55005 60004 72161 8585/ 90600 333 10068 20016 60007=
07747,1996-02-23 09:00:00,8,1017.4,0.3,66,2,500,31.484,,,310,,,,,,,,,,,wg-a,,,,AAXX 23094 07747 12500 /3117 10080 20020 30116 40174 53003 60006 86800 90900=
07747,1996-02-23 12:00:00,10,1017.7,0.4,57,2,500,25.928,,,320,,,,,,,,,,,wg-a,,,,AAXX 23124 07747 12500 53214 10100 20020 30120 40177 50004 60006 83840 91200=
07747,1996-02-23 15:00:00,11,1016.2,-1.5,54,2,500,35.188,,55.56,330,,,,,,,,,,,wg-a,,,,AAXX 23154 07747 12500 43319 10110 20020 30105 40162 56015 60006 82842 91500 333 91030=
07747,1996-02-23 18:00:00,10,1017.3,1.1,62,3,500,18.52,,,330,6.4,11,,,,,,,,,wg-a,,,,AAXX 23184 07747 12500 /3310 10100 20030 30116 40173 53011 60006 85840 91800 333 10110 20064=
07747,1996-02-23 21:00:00,9,1018.1,0.7,71,4,500,14.816,,,340,,,,,,,,,,,wg-a,,,,AAXX 23214 07747 12500 73408 10090 20040 30123 40181 52007 60006 878// 92100=
07747,1996-02-24 00:00:00,7,1018.5,0.4,81,4,500,14.816,,,10,,,,,,,,,,,wg-a,,,,AAXX 24004 07747 12500 60108 10070 20040 30127 40185 50004 60006 86800 90000=
07747,1996-02-24 03:00:00,7,1017.7,-0.8,76,3,500,14.816,,,350,,,,,,,,,,,wg-a,,,,AAXX 24034 07747 12600 23508 10070 20030 30119 40177 58008 60006 82500 90300=
07747,1996-02-24 06:00:00,5,1018.1,0.4,87,3,500,0,,,0,4.3,9.6,,,,,,,,,wg-a,,,,AAXX 24064 07747 02600 30000 10050 20030 30123 40181 53004 60006 82540 90600 333 10096 20043 60004=
07747,1996-02-24 09:00:00,8,1018.5,0.4,76,4,11000,7.408,,,240,,,,,,,,,,,wg-a,,,,AAXX 24094 07747 12/61 /2404 10080 20040 30127 40185 50004 60006 90900=
07747,1996-02-24 12:00:00,12,1017.3,-1.1,62,5,45000,14.816,,,130,,,,,,,,,,,wg-a,,,,AAXX 24124 07747 12583 41308 10120 20050 30116 40173 58011 60006 84100 91200=
07747,1996-02-24 15:00:00,10,1016.2,-1.1,62,3,500,14.816,,,110,,,,,,,,,,,wg-a,,,,AAXX 24154 07747 12500 21108 10100 20030 30105 40162 56011 60006 82800 91500=
07747,1996-02-24 18:00:00,9,1016.1,-0.1,76,5,15000,7.408,,,130,3.5,11.9,,,,,,,,,wg-a,,,,AAXX 24184 07747 12465 81304 10090 20050 30104 40161 57001 60006 887// 91800 333 10119 20035=
07747,1996-02-24 21:00:00,8,1015.9,-0.3,81,5,20000,7.408,,,350,,,,,,,,,,,wg-a,,,,AAXX 24214 07747 12470 23504 10080 20050 30101 40159 58003 60006 82500 92100=
07747,1996-02-25 00:00:00,4,1015.4,-0.5,87,2,20000,3.704,,,280,,,,,,,,,,,wg-a,,,,AAXX 25004 07747 12570 /2802 10040 20020 30096 40154 57005 60006 81500 90000=
07747,1996-02-25 03:00:00,4,1014.4,-1,93,3,15000,7.408,,,230,,,,,,,,,,,wg-a,,,,AAXX 25034 07747 12465 72304 10040 20030 30086 40144 57010 60006 876// 90300=
07747,1996-02-25 06:00:00,4,1014.2,-0.2,100,4,15000,3.704,,,230,2.7,9.2,,,,,,,,,wg-a,,,,AAXX 25064 07747 02465 /2302 10040 20040 30084 40142 56002 60006 86600 90600 333 10092 20027 60004=
07747,1996-02-25 09:00:00,7,1013.9,-0.3,93,6,8000,3.704,,,30,,,,,,,,,,,wg-a,,,,AAXX 25094 07747 12458 70302 10070 20060 30081 40139 58003 60006 871// 90900=
07747,1996-02-25 12:00:00,13,1011.5,-2.2,54,4,15000,7.408,,,100,,,,,,,,,,,wg-a,,,,AAXX 25124 07747 12565 /1004 10130 20040 30059 40115 58022 60006 811// 91200=
07747,1996-02-25 14:00:00,16,1009.4,-2.1,42,3,40000,42.596,,53.708,170,,,,,,,,,,,wg-a,,,,AAXX 25144 07747 12582 /1723 10160 20030 30038 40094 56021 60006 81180 91400 333 91029=
07747,1996-02-25 15:00:00,16,1009.4,-2.1,42,3,40000,42.596,,62.968,170,,,,,,,,,,,wg-a,,,,AAXX 25154 07747 12582 /1723 10160 20030 30038 40094 56021 60006 81180 91500 333 91034=
07747,1996-02-25 18:00:00,12,1011,1.6,58,4,40000,38.892,,,170,4.4,17.4,,,,,,,,,wg-a,,,,AAXX 25184 07747 12582 /1721 10120 20040 30054 40110 53016 60006 81280 91800 333 10174 20044=
07747,1996-02-25 21:00:00,12,1012.7,1.6,58,4,15000,35.188,,57.412,180,,,,,,,,,,,wg-a,,,,AAXX 25214 07747 12565 /1819 10120 20040 30070 40127 50016 60006 81100 92100 333 91031=
07747,1996-02-26 00:00:00,10,1013.1,0.4,71,5,10000,25.928,,,160,,,,,,,,,,,wg-a,,,,AAXX 26004 07747 12460 31614 10100 20050 30074 40131 51004 60006 83700 90000=
07747,1996-02-26 03:00:00,10,1012.1,-1,66,4,10000,31.484,,,180,,,,,,,,,,13,wg-a,,,,AAXX 26034 07747 12460 41817 10100 20040 30064 40121 58010 60006 71300 84900 90300=
07747,1996-02-26 06:00:00,9,1011.2,-0.9,81,6,10000,18.52,,,120,8.8,12.2,,,,,,,,13,wg-a,,,,AAXX 26064 07747 02460 41210 10090 20060 30055 40112 58009 60006 71300 84900 90600 333 10122 20088 60004=
07747,1996-02-26 09:00:00,12,1011.2,0.1,76,8,500,31.484,,,130,,,,,,,,,,,wg-a,,,,AAXX 26094 07747 12500 /1317 10120 20080 30056 40112 53001 60006 83802 90900=
07747,1996-02-26 12:00:00,14,1011.1,-0.1,67,8,500,31.484,,,140,,,,,,,,,,,wg-a,,,,AAXX 26124 07747 12500 61417 10140 20080 30055 40111 58001 60006 83832 91200=
07747,1996-02-26 15:00:00,13,1009.7,-1.4,82,10,500,22.224,,,120,,,,,,,,,,,wg-a,,,,AAXX 26154 07747 12500 71212 10130 20100 30041 40097 55014 60006 83832 91500=
07747,1996-02-26 18:00:00,11,1011.1,1.3,82,8,20000,18.52,,,120,8.7,14.9,,,,,,,,,wg-a,,,,AAXX 26184 07747 12470 81210 10110 20080 30054 40111 53013 60006 8487/ 91800 333 10149 20087=
07747,1996-02-26 21:00:00,10,1011.8,0.7,87,8,20000,11.112,,,110,,,,,,,,,,,wg-a,,,,AAXX 26214 07747 12470 81106 10100 20080 30061 40118 52007 60006 878// 92100=
07747,1996-02-27 00:00:00,8,1011.9,0.1,93,7,10000,18.52,,,320,,,,1,,,,,,61,wg-a,,,,AAXX 27004 07747 02260 83210 10080 20070 30062 40119 50001 60016 76165 875// 90000 333 60017=
07747,1996-02-27 03:00:00,7,1012.8,0.8,76,3,25000,14.816,,,300,,,,,,,,,,1,wg-a,,,,AAXX 27034 07747 02475 83008 10070 20030 30070 40128 50008 61000 70162 875// 90300 333 ////=
07747,1996-02-27 06:00:00,7,1013.6,0.8,76,3,25000,29.632,,,320,7,11.2,,,,,1,,,1,wg-a,,,,AAXX 27064 07747 12475 73216 10070 20030 30078 40136 53008 60014 70162 8654/ 90600 333 10112 20070=
07747,1996-02-27 09:00:00,9,1014.8,1.3,66,3,500,29.632,,,330,,,,,,,,,,,wg-a,,,,AAXX 27094 07747 12400 83316 10090 20030 30091 40148 51013 60006 8487/ 90900=
07747,1996-02-27 12:00:00,10,1015.5,0.7,66,4,25000,25.928,,,340,,,,,,,,,,,wg-a,,,,AAXX 27124 07747 12475 83414 10100 20040 30098 40155 50007 60006 8687/ 91200=
07747,1996-02-27 15:00:00,11,1015.2,-0.3,58,3,20000,25.928,,,340,,,,,,,,,,,wg-a,,,,AAXX 27154 07747 12570 73414 10110 20030 30095 40152 58003 60006 8581/ 91500=
07747,1996-02-27 18:00:00,9,1016.7,1.5,76,5,15000,18.52,,,350,7.4,10.7,,,,,,,,21,wg-a,,,,AAXX 27184 07747 02465 73510 10090 20050 30110 40167 53015 61000 72162 8687/ 91800 333 10107 20074 ////=
07747,1996-02-27 21:00:00,9,1018.3,1.5,76,5,12000,3.704,,,190,,,,0,,,,,,,wg-a,,,,AAXX 27214 07747 12462 81902 10090 20050 30125 40183 53015 60007 875// 92100=
07747,1996-02-28 00:00:00,8,1018.5,0.2,81,5,12000,3.704,,,270,,,,,,,,,,,wg-a,,,,AAXX 28004 07747 12462 82702 10080 20050 30127 40185 52002 60006 875// 90000=
07747,1996-02-28 03:00:00,8,1018.1,-0.4,81,5,10000,3.704,,,200,,,,,,,,,,,wg-a,,,,AAXX 28034 07747 12460 82002 10080 20050 30123 40181 58004 60006 8657/ 90300=
07747,1996-02-28 06:00:00,6,1018.5,0.4,87,4,15000,0,,,0,5.6,9.1,,,,,,,,,wg-a,,,,AAXX 28064 07747 12465 40000 10060 20040 30127 40185 53004 60004 83530 90600 333 10091 20056=
07747,1996-02-28 09:00:00,10,1019.6,1.2,76,6,60000,0,,,0,,,,,,,,,,,wg-a,,,,AAXX 28094 07747 12486 60000 10100 20060 30139 40196 52012 60006 82531 90900=
07747,1996-02-28 12:00:00,14,1019.1,-0.5,63,7,25000,7.408,,,10,,,,,,,,,,,wg-a,,,,AAXX 28124 07747 12575 /0104 10140 20070 30134 40191 58005 60006 81101 91200=
07747,1996-02-28 15:00:00,14,1018.3,-0.7,58,6,20000,11.112,,,110,,,,,,,,,,,wg-a,,,,AAXX 28154 07747 12570 /1106 10140 20060 30127 40183 56007 60006 81100 91500=
07747,1996-02-28 18:00:00,11,1019.4,1,71,6,20000,3.704,,,180,5.5,15.2,,,,,,,,,wg-a,,,,AAXX 28184 07747 12570 /1802 10110 20060 30137 40194 53010 60006 81500 91800 333 10152 20055=
07747,1996-02-28 21:00:00,9,1020.2,0.7,76,5,20000,18.52,,,290,,,,,,,,,,,wg-a,,,,AAXX 28214 07747 12/70 02910 10090 20050 30144 40202 51007 60006 80000 92100=
07747,1996-02-29 03:00:00,7,1019.8,-0.2,66,1,20000,3.704,,,300,,,,,,,,,,,wg-a,,,,AAXX 29034 07747 12/70 /3002 10070 20010 30140 40198 57002 60006 90300=
07747,1996-02-29 06:00:00,7,1020.7,0.9,70,2,20000,18.52,,,290,5.9,10.8,,,,,,,,,wg-a,,,,AAXX 29064 07747 02/70 /2910 10070 20020 30149 40207 52009 60006 90600 333 10108 20059 60004=
07747,1996-02-29 09:00:00,12,1021.8,1.2,47,1,60000,14.816,,,320,,,,,,,,,,,wg-a,,,,AAXX 29094 07747 12/86 03208 10120 20010 30161 40218 51012 60006 80000 90900=
07747,1996-02-29 12:00:00,15,1021.9,0.1,48,4,50000,14.816,,,120,,,,,,,,,,,wg-a,,,,AAXX 29124 07747 12584 /1208 10150 20040 30162 40219 51001 60006 81100 91200=
07747,1996-02-29 15:00:00,15,1021.2,-0.6,51,5,25000,11.112,,,130,,,,,,,,,,,wg-a,,,,AAXX 29154 07747 12575 /1306 10150 20050 30156 40212 55006 60006 81100 91500=
07747,1996-02-29 18:00:00,12,1022.5,1.2,54,3,25000,11.112,,,310,6.6,15.7,,,,,,,,,wg-a,,,,AAXX 29184 07747 12/75 13106 10120 20030 30168 40225 53012 60006 81040 91800 333 10157 20066=
07747,1996-02-29 21:00:00,10,1023.6,1,46,-1,25000,29.632,,,310,,,,,,,,,,,wg-a,,,,AAXX 29214 07747 12/75 03116 10100 21010 30178 40236 51010 60006 80000 92100=
07747,1996-03-01 00:00:00,8,1024.4,0.8,57,0,25000,14.816,,,290,,,,,,,,,,,wg-a,,,,AAXX 01004 07747 12/75 02908 10080 20000 30186 40244 51008 60006 80000 90000=
07747,1996-03-01 03:00:00,8,1023,-1.4,66,2,25000,18.52,,,310,,,,,,,,,,,wg-a,,,,AAXX 01034 07747 12/75 03110 10080 20020 30172 40230 56014 60006 80000 90300=
07747,1996-03-01 06:00:00,8,1023.3,0.3,66,2,25000,14.816,,,300,7.3,11.8,,,,,,,,,wg-a,,,,AAXX 01064 07747 02475 /3008 10080 20020 30175 40233 51003 60006 81100 90600 333 10118 20073 60004=
07747,1996-03-01 09:00:00,10,1023.1,-0.2,62,3,25000,42.596,,,320,,,,,,,,,,,wg-a,,,,AAXX 01094 07747 12575 /3223 10100 20030 30173 40231 58002 60006 81140 90900=
07747,1996-03-01 12:00:00,12,1022.1,-0.9,50,2,25000,42.596,,62.968,330,,,,,,,,,,,wg-a,,,,AAXX 01124 07747 12575 /3323 10120 20020 30164 40221 58009 60006 81140 91200 333 91034=
07747,1996-03-01 15:00:00,13,1020,-2.1,44,1,20000,29.632,,,330,,,,,,,,,,,wg-a,,,,AAXX 01154 07747 12570 43316 10130 20010 30143 40200 56021 60006 81140 91500=
07747,1996-03-01 18:00:00,11,1018.8,-1.2,54,2,15000,53.708,,77.784,310,8.1,13.4,,,,,,,,,wg-a,,,,AAXX 01184 07747 12565 23129 10110 20020 30131 40188 56012 60006 81140 91800 333 10134 20081 91042=
07747,1996-03-01 19:00:00,11,1018.8,-1.2,54,2,15000,53.708,,79.636,310,8.1,13.4,,,,,,,,,wg-a,,,,AAXX 01194 07747 12565 23129 10110 20020 30131 40188 56012 60006 81140 91900 333 10134 20081 91043=
07747,1996-03-01 21:00:00,10,1018.7,-0.1,57,2,25000,38.892,,64.82,320,,,,,,,,,,,wg-a,,,,AAXX 01214 07747 12575 /3221 10100 20020 30130 40187 55001 60006 81100 92100 333 91035=
07747,1996-03-02 00:00:00,8,1017.3,-1.5,57,0,25000,42.596,,66.672,320,,,,,,,,,,,wg-a,,,,AAXX 02004 07747 12575 /3223 10080 20000 30115 40173 58015 60006 81100 90000 333 91036=
07747,1996-03-02 03:00:00,8,1016.4,-0.9,57,0,25000,53.708,,81.488,320,,,,,,,,,,,wg-a,,,,AAXX 02034 07747 12575 /3229 10080 20000 30106 40164 58009 60006 81100 90300 333 91044=
07747,1996-03-02 06:00:00,8,1015.7,-0.7,61,1,500,50.004,,72.228,320,7.9,11.1,,,,,,,,,wg-a,,,,AAXX 02064 07747 02500 43227 10080 20010 30099 40157 56007 60006 84100 90600 333 10111 20079 60004 91039=
07747,1996-03-02 09:00:00,9,1017.6,2,57,1,40000,38.892,,68.524,340,,,,,,,,,,,wg-a,,,,AAXX 02094 07747 12582 73421 10090 20010 30119 40176 53020 60006 8624/ 90900 333 91037=
07747,1996-03-02 12:00:00,10,1017.2,-0.4,53,1,40000,35.188,,55.56,330,,,,,,,,,,,wg-a,,,,AAXX 02124 07747 12582 53319 10100 20010 30115 40172 55004 60006 84240 91200 333 91030=
07747,1996-03-02 15:00:00,12,1016,-1.2,44,0,40000,38.892,,59.264,340,,,,,,,,,,,wg-a,,,,AAXX 02154 07747 12682 53421 10120 20000 30103 40160 56012 60006 82142 91500 333 91032=
07747,1996-03-02 18:00:00,9,1016.7,0.7,53,0,40000,29.632,,,350,8.2,11.8,,,,,,,,,wg-a,,,,AAXX 02184 07747 12682 73516 10090 20000 30110 40167 53007 60006 82842 91800 333 10118 20082=
07747,1996-03-02 21:00:00,8,1018.3,1.5,53,-1,15000,11.112,,,350,,,,,,,,,,,wg-a,,,,AAXX 02214 07747 12565 33506 10080 21010 30125 40183 52015 60006 81152 92100=
07747,1996-03-03 00:00:00,6,1018.5,0.2,52,-3,15000,14.816,,,340,,,,,,,,,,,wg-a,,,,AAXX 03004 07747 12565 /3408 10060 21030 30127 40185 53002 60006 81100 90000=
07747,1996-03-03 03:00:00,6,1016.9,-1.6,49,-4,18000,22.224,,,320,,,,,,,,,,,wg-a,,,,AAXX 03034 07747 12568 /3212 10060 21040 30111 40169 58016 60006 8113/ 90300=
07747,1996-03-03 06:00:00,6,1017,0.1,39,-7,18000,29.632,,,330,5.3,9.2,,,,,,,,,wg-a,,,,AAXX 03064 07747 02568 73316 10060 21070 30112 40170 53001 60006 81144 90600 333 10092 20053 60004=
07747,1996-03-03 09:00:00,7,1017.3,0.3,45,-4,500,31.484,,,330,,,,,,,,,,,wg-a,,,,AAXX 03094 07747 12500 73317 10070 21040 30115 40173 52003 60006 81832 90900=
07747,1996-03-03 12:00:00,10,1016.1,-1.1,29,-7,500,31.484,,,330,,,,,,,,,,,wg-a,,,,AAXX 03124 07747 12500 /3317 10100 21070 30104 40161 58011 60006 81232 91200=
07747,1996-03-03 15:00:00,9,1013.8,-2.3,25,-10,500,35.188,,,300,,,,,,,,,,,wg-a,,,,AAXX 03154 07747 12/00 63019 10090 21100 30081 40138 56023 60006 83042 91500=
07747,1996-03-03 18:00:00,8,1015.9,2,34,-7,500,29.632,,,340,5.8,10.2,,,,,,,,,wg-a,,,,AAXX 03184 07747 12/00 33416 10080 21070 30101 40159 53020 60006 82042 91800 333 10102 20058=
07747,1996-03-03 21:00:00,7,1016.3,0.4,39,-6,25000,22.224,,,330,,,,,,,,,,,wg-a,,,,AAXX 03214 07747 12/75 43312 10070 21060 30105 40163 50004 60006 84040 92100=
07747,1996-03-04 00:00:00,6,1017.2,0.9,49,-4,25000,25.928,,40.744,330,,,,,,,,,,,wg-a,,,,AAXX 04004 07747 12/75 23314 10060 21040 30114 40172 53009 60006 81042 90000 333 91022=
07747,1996-03-04 03:00:00,4,1017.2,-0.1,70,-1,25000,18.52,,,50,,,,,,,,,,,wg-a,,,,AAXX 04034 07747 12/75 20510 10040 21010 30113 40172 58001 60006 81042 90300=
07747,1996-03-04 06:00:00,4,1017.5,0.3,70,-1,12000,18.52,,,20,3.3,8,,,,,,,,,wg-a,,,,AAXX 04064 07747 02562 /0210 10040 21010 30116 40175 53003 60006 81802 90600 333 10080 20033 60004=
07747,1996-03-04 09:00:00,8,1018.3,0.9,49,-2,40000,25.928,,,340,,,,,,,,,,,wg-a,,,,AAXX 04094 07747 12582 /3414 10080 21020 30125 40183 51009 60006 81800 90900=
07747,1996-03-04 12:00:00,11,1017.2,-1,43,-1,60000,29.632,,48.152,330,,,,,,,,,,,wg-a,,,,AAXX 04124 07747 12586 23316 10110 21010 30115 40172 58010 60006 82100 91200 333 91026=
07747,1996-03-04 15:00:00,12,1016.3,-0.9,35,-3,50000,38.892,,,320,,,,,,,,,,,wg-a,,,,AAXX 04154 07747 12584 /3221 10120 21030 30106 40163 55009 60006 81100 91500=
07747,1996-03-04 18:00:00,10,1017.9,1.6,46,-1,50000,25.928,,,330,3.3,12.6,,,,,,,,,wg-a,,,,AAXX 04184 07747 12584 /3314 10100 21010 30122 40179 53016 60006 81500 91800 333 10126 20033=
07747,1996-03-04 21:00:00,8,1020,2,49,-2,40000,18.52,,,340,,,,,,,,,,,wg-a,,,,AAXX 04214 07747 12/82 03410 10080 21020 30142 40200 51020 60006 80000 92100=
07747,1996-03-05 00:00:00,7,1021.4,1.4,57,-1,40000,14.816,,,310,,,,,,,,,,,wg-a,,,,AAXX 05004 07747 12/82 03108 10070 21010 30156 40214 52014 60006 80000 90000=
07747,1996-03-05 12:00:00,9,1024.5,-0.5,46,-2,12000,18.52,,,120,,,,,,,,,,,wg-a,,,,AAXX 05124 07747 12562 71210 10090 21020 30187 40245 56005 60006 878// 91200=
07747,1996-03-05 15:00:00,9,1023.3,-1.2,46,-2,12000,7.408,,,120,,,,,,,,,,,wg-a,,,,AAXX 05154 07747 12762 81204 10090 21020 30175 40233 56012 60006 885// 91500=
07747,1996-03-05 18:00:00,8,1023.8,0.5,57,0,12000,3.704,,,150,2.5,9.4,,,,,,,,,wg-a,,,,AAXX 05184 07747 12762 81502 10080 20000 30180 40238 53005 60006 885// 91800 333 10094 20025=
07747,1996-03-05 21:00:00,7,1024.1,0.3,70,2,12000,7.408,,,240,,,,,,,,,,,wg-a,,,,AAXX 05214 07747 12762 82404 10070 20020 30183 40241 50003 60006 885// 92100=
07747,1996-03-06 00:00:00,8,1023.9,-0.2,49,-2,12000,11.112,,,280,,,,,,,,,,,wg-a,,,,AAXX 06004 07747 12762 82806 10080 21020 30181 40239 58002 60006 885// 90000=
07747,1996-03-06 03:00:00,7,1023,-0.9,57,-1,12000,3.704,,,340,,,,,,,,,,,wg-a,,,,AAXX 06034 07747 12762 83402 10070 21010 30172 40230 58009 60006 885// 90300=
07747,1996-03-06 06:00:00,6,1023,0,65,0,12000,3.704,,,330,5.7,8.1,,,,,,,,,wg-a,,,,AAXX 06064 07747 02662 73302 10060 20000 30172 40230 50000 60006 875// 90600 333 10081 20057 60004=
07747,1996-03-06 09:00:00,6,1022.9,-0.1,65,0,9000,11.112,,,30,,,,,,,,,,,wg-a,,,,AAXX 06094 07747 12359 80306 10060 20000 30171 40229 58001 60006 887// 90900=
07747,1996-03-06 12:00:00,6,1022,-0.9,75,2,8000,7.408,,,330,,,,,,,,,,60,wg-a,,,,AAXX 06124 07747 02258 83304 10060 20020 30162 40220 58009 61000 76062 887// 91200 333 6100=
07747,1996-03-06 15:00:00,5,1020.1,-2,87,3,6000,7.408,,,210,,,,2,,,,,,60,wg-a,,,,AAXX 06154 07747 12256 82104 10050 20030 30142 40201 56020 60027 76066 887// 91500=
07747,1996-03-06 18:00:00,5,1018.9,-1.1,93,4,4000,7.408,,,120,4.7,6.7,,0,,,,,,10,wg-a,,,,AAXX 06184 07747 12340 81204 10050 20040 30131 40189 56011 60007 71062 887// 91800 333 10067 20047=
07747,1996-03-07 00:00:00,2,1016.9,-1.5,93,1,3000,7.408,,,270,,,,,,,,,,10,wg-a,,,,AAXX 07004 07747 12330 /2704 10020 20010 30110 40169 56015 60006 71022 85500 90000=
07747,1996-03-07 03:00:00,3,1014.7,-2.2,87,1,500,11.112,,,270,,,,,,,,,,,wg-a,,,,AAXX 07034 07747 32700 82706 10030 20010 30088 40147 58022 885// 90300=
07747,1996-03-07 06:00:00,4,1013.6,-1,81,1,8000,11.112,,,250,1.7,4.9,,,,,2,,,,wg-a,,,,AAXX 07064 07747 02758 82506 10040 20010 30078 40136 56010 60006 885// 90600 333 10049 20017 60024=
07747,1996-03-07 09:00:00,7,1013.1,-0.5,66,1,9000,3.704,,,10,,,,,,,,,,,wg-a,,,,AAXX 07094 07747 12759 20102 10070 20010 30073 40131 58005 60006 82531 90900=
07747,1996-03-07 12:00:00,9,1012.1,-0.9,57,1,9000,14.816,,,110,,,,,,,,,,,wg-a,,,,AAXX 07124 07747 12559 /1108 10090 20010 30064 40121 58009 60006 81100 91200=
07747,1996-03-07 15:00:00,10,1011.4,-0.7,53,1,9000,18.52,,,100,,,,,,,,,,,wg-a,,,,AAXX 07154 07747 12559 /1010 10100 20010 30057 40114 55007 60006 81130 91500=
07747,1996-03-07 18:00:00,8,1012.6,1.2,76,4,7000,3.704,,,140,3.2,10.2,,,,,,,,,wg-a,,,,AAXX 07184 07747 12457 71402 10080 20040 30069 40126 53012 60006 8453/ 91800 333 10102 20032=
07747,1996-03-07 21:00:00,8,1014.3,1.7,76,4,4000,0,,,0,,,,,,,,,,10,wg-a,,,,AAXX 07214 07747 12240 80000 10080 20040 30086 40143 52017 60006 71022 887// 92100=
07747,1996-03-08 00:00:00,8,1015.1,0.7,81,5,6000,11.112,,,160,,,,,,,,,,,wg-a,,,,AAXX 08004 07747 12456 71606 10080 20050 30093 40151 52007 60006 875// 90000=
07747,1996-03-08 03:00:00,7,1015.1,0,81,4,8000,7.408,,,180,,,,,,,,,,,wg-a,,,,AAXX 08034 07747 12458 /1804 10070 20040 30093 40151 50000 60006 86500 90300=
07747,1996-03-08 06:00:00,5,1016.2,1.1,87,3,9000,11.112,,,80,4.6,8.7,,,,,,,,,wg-a,,,,AAXX 08064 07747 02459 60806 10050 20030 30104 40162 53011 60006 83502 90600 333 10087 20046 60004=
07747,1996-03-08 09:00:00,10,1017.8,1.7,82,7,12000,22.224,,,120,,,,,,,,,,,wg-a,,,,AAXX 08094 07747 12462 71212 10100 20070 30121 40178 52017 60006 8688/ 90900=
07747,1996-03-08 12:00:00,9,1018.4,0.6,81,6,9000,25.928,,,150,,,,,,,,,,21,wg-a,,,,AAXX 08124 07747 02459 71514 10090 20060 30127 40184 53006 61000 72111 878// 91200 333 ////=
07747,1996-03-08 15:00:00,9,1018,-0.4,76,5,12000,11.112,,,180,,,,0,,,,,,2,wg-a,,,,AAXX 08154 07747 12462 71806 10090 20050 30123 40180 58004 60007 70262 878// 91500=
07747,1996-03-08 18:00:00,9,1018.5,0.4,93,8,4500,18.52,,,170,4.7,11.9,,5,,,,,,61,wg-a,,,,AAXX 08184 07747 12445 71710 10090 20080 30127 40185 50004 60057 76162 878// 91800 333 10119 20047=
07747,1996-03-08 21:00:00,9,1019.4,0.9,93,8,6000,18.52,,,150,,,,2,,,,,,21,wg-a,,,,AAXX 08214 07747 12456 81510 10090 20080 30136 40194 52009 60027 72162 878// 92100=
07747,1996-03-09 00:00:00,8,1018.9,-0.5,100,8,500,7.408,,,190,,,,1,,,,,,60,wg-a,,,,AAXX 09004 07747 02400 81904 10080 20080 30131 40189 58005 60036 76062 878// 90000 333 60017=
07747,1996-03-09 03:00:00,9,1018.1,-0.7,93,8,6000,14.816,,,190,,,,1,,,,,,21,wg-a,,,,AAXX 09034 07747 12456 81908 10090 20080 30124 40181 58007 60017 72162 875// 90300=
07747,1996-03-09 06:00:00,9,1018.5,0.3,93,8,4500,3.704,,,220,8.2,9.1,,2,,,12,,,21,wg-a,,,,AAXX 09064 07747 02445 82202 10090 20080 30127 40185 53003 60124 72162 878// 90600 333 10091 20082 60027=
07747,1996-03-09 09:00:00,11,1019.3,0.9,87,9,8000,29.632,,,130,,,,1,,,,,,1,wg-a,,,,AAXX 09094 07747 12458 81316 10110 20090 30136 40193 51009 60017 70162 888// 90900=
07747,1996-03-09 12:00:00,12,1018.7,-0.6,82,9,6000,29.632,,,130,,,,0,,,,,,1,wg-a,,,,AAXX 09124 07747 02356 81316 10120 20090 30130 40187 58006 60016 70162 8587/ 91200 333 60007=
07747,1996-03-09 14:00:00,12,1018.7,-0.6,82,9,6000,29.632,,,130,,,,0,,,,,,1,wg-a,,,,AAXX 09144 07747 02356 81316 10120 20090 30130 40187 58006 60016 70165 8/87/ 91400 333 60007=
07747,1996-03-09 15:00:00,11,1017.8,-0.9,82,8,7000,29.632,,,120,,,,,,,,,,,wg-a,,,,AAXX 09154 07747 12457 71216 10110 20080 30121 40178 56009 60006 8583/ 91500=
07747,1996-03-09 21:00:00,10,1018.1,0.1,87,8,500,14.816,,,130,,,,,,,,,,,wg-a,,,,AAXX 09214 07747 12400 81308 10100 20080 30124 40181 51001 60006 878// 92100=
07747,1996-03-10 00:00:00,10,1017.8,-0.3,87,8,7000,11.112,,,150,,,,,,,,,,,wg-a,,,,AAXX 10004 07747 12457 71506 10100 20080 30121 40178 58003 60006 878// 90000=
07747,1996-03-10 03:00:00,10,1017.2,-0.6,82,7,7000,14.816,,,130,,,,,,,,,,,wg-a,,,,AAXX 10034 07747 12457 81308 10100 20070 30115 40172 58006 60006 878// 90300=
07747,1996-03-10 06:00:00,10,1017.3,0.1,82,7,500,11.112,,,110,9.7,10.8,,,,,1,,,,wg-a,,,,AAXX 10064 07747 02400 81106 10100 20070 30116 40173 53001 60006 878// 90600 333 10108 20097 60014=
07747,1996-03-10 09:00:00,11,1017.9,0.6,76,7,4500,11.112,,,100,,,,,,,,,,10,wg-a,,,,AAXX 10094 07747 12445 81006 10110 20070 30122 40179 51006 60006 71022 8782/ 90900=
07747,1996-03-10 12:00:00,11,1017.5,-0.4,71,6,500,14.816,,,60,,,,,,,,,,,wg-a,,,,AAXX 10124 07747 12400 70608 10110 20060 30118 40175 58004 60006 878// 91200=
07747,1996-03-10 15:00:00,12,1016.1,-1.4,62,5,7000,7.408,,,160,,,,,,,,,,,wg-a,,,,AAXX 10154 07747 12457 /1604 10120 20050 30104 40161 56014 60006 8283/ 91500=
07747,1996-03-10 18:00:00,10,1015.7,-0.4,71,5,500,11.112,,,190,9.9,12.2,,,,,,,,,wg-a,,,,AAXX 10184 07747 12/00 71906 10100 20050 30100 40157 56004 60006 8705/ 91800 333 10122 20099=
07747,1996-03-10 21:00:00,8,1015.2,-0.5,87,6,6000,3.704,,,240,,,,,,,,,,,wg-a,,,,AAXX 10214 07747 12/56 72402 10080 20060 30095 40152 58005 60006 8703/ 92100=
07747,1996-03-11 03:00:00,7,1013.8,-0.6,87,5,7000,7.408,,,10,,,,,,,,,,,wg-a,,,,AAXX 11034 07747 12557 /0104 10070 20050 30080 40138 58006 60006 81530 90300=
07747,1996-03-11 06:00:00,7,1013.9,0.1,87,5,7000,7.408,,,260,6.8,10.1,,,,,,,,,wg-a,,,,AAXX 11064 07747 02557 /2604 10070 20050 30081 40139 53001 60006 8153/ 90600 333 10101 20068 60004=
07747,1996-03-11 09:00:00,10,1014.9,1.1,43,-2,8000,31.484,,50.004,330,,,,,,,,,,,wg-a,,,,AAXX 11094 07747 12558 23317 10100 21020 30092 40149 51011 60006 82100 90900 333 91027=
07747,1996-03-11 12:00:00,12,1014.4,-0.5,32,-4,8000,38.892,,,330,,,,,,,,,,,wg-a,,,,AAXX 11124 07747 12558 23321 10120 21040 30087 40144 58005 60006 82240 91200=
07747,1996-03-11 21:00:00,10,1013,0.1,40,-3,12000,31.484,,,320,,,,,,,,,,,wg-a,,,,AAXX 11214 07747 12/62 03217 10100 21030 30073 40130 50001 60006 80000 92100=
07747,1996-03-12 00:00:00,8,1012.2,-0.8,42,-4,12000,18.52,,,300,,,,,,,,,,,wg-a,,,,AAXX 12004 07747 12/62 03010 10080 21040 30065 40122 58008 60006 80000 90000=
07747,1996-03-12 03:00:00,9,1010.1,-2.1,34,-6,12000,22.224,,,320,,,,,,,,,,,wg-a,,,,AAXX 12034 07747 12/62 03212 10090 21060 30044 40101 58021 60006 80000 90300=
07747,1996-03-12 06:00:00,6,1009.4,-0.8,42,-6,20000,11.112,,,260,4.7,11.1,,,,,,,,,wg-a,,,,AAXX 12064 07747 02/70 12606 10060 21060 30036 40094 56008 60006 81030 90600 333 10111 20047 60004=
07747,1996-03-12 09:00:00,12,1008,-1.2,32,-4,60000,7.408,,,260,,,,,,,,,,,wg-a,,,,AAXX 12094 07747 12/86 02604 10120 21040 30024 40080 58012 60006 80000 90900=
07747,1996-03-12 12:00:00,16,1005.4,-2.5,17,-9,60000,7.408,,,170,,,,,,,,,,,wg-a,,,,AAXX 12124 07747 12/86 21704 10160 21090 39999 40054 58025 60006 82041 91200=
07747,1996-03-12 15:00:00,15,1002.9,-2.6,36,0,25000,14.816,,,140,,,,,,,,,,,wg-a,,,,AAXX 12154 07747 12/75 51408 10150 20000 39973 40029 56026 60006 80002 91500=
07747,1996-03-12 18:00:00,11,1001.4,-1.5,62,4,12000,3.704,,,90,3.6,16.6,,,,,,,,,wg-a,,,,AAXX 12184 07747 12/62 50902 10110 20040 39958 40014 56015 60006 80002 91800 333 10166 20036=
07747,1996-03-12 21:00:00,6,1001.5,-0,70,1,8000,7.408,,,260,,,,,,,,,,,wg-a,,,,AAXX 12214 07747 12558 32604 10060 20010 39958 40015 54000 60006 81502 92100=
07747,1996-03-13 00:00:00,8,1002.4,0.9,87,6,8000,14.816,,,10,,,,,,,,,,,wg-a,,,,AAXX 13004 07747 12458 40108 10080 20060 39967 40024 52009 60006 84500 90000=
07747,1996-03-13 03:00:00,7,1001.8,-0.6,70,2,8000,18.52,,,20,,,,,,,,,,,wg-a,,,,AAXX 13034 07747 12458 70210 10070 20020 39961 40018 58006 60006 875// 90300=
07747,1996-03-13 06:00:00,7,1001.5,-0.3,70,2,500,14.816,,,30,4.8,11.2,,,,,,,,,wg-a,,,,AAXX 13064 07747 02400 70308 10070 20020 39958 40015 56003 60006 877// 90600 333 10112 20048 60004=
07747,1996-03-13 09:00:00,9,1001.1,-0.4,66,3,6000,11.112,,,60,,,,,,,,,,,wg-a,,,,AAXX 13094 07747 12456 70606 10090 20030 39954 40011 58004 60006 875// 90900=
07747,1996-03-13 12:00:00,16,998.8,-2.1,45,4,8000,11.112,,,150,,,,,,,,,,,wg-a,,,,AAXX 13124 07747 12558 21506 10160 20040 39933 49988 58021 60006 81130 91200=
07747,1996-03-13 15:00:00,16,998.2,-0.6,51,6,9000,31.484,,,170,,,,,,,,,,,wg-a,,,,AAXX 13154 07747 12559 /1717 10160 20060 39927 49982 55006 60006 81130 91500=
07747,1996-03-13 18:00:00,12,999.3,1,67,6,8000,29.632,,,160,6.7,17.5,,,,,,,,,wg-a,,,,AAXX 13184 07747 12558 21616 10120 20060 39937 49993 53010 60006 81140 91800 333 10175 20067=
07747,1996-03-13 21:00:00,11,1001.6,2.3,76,7,10000,18.52,,,150,,,,,,,,,,,wg-a,,,,AAXX 13214 07747 12560 61510 10110 20070 39960 40016 51023 60006 83542 92100=
07747,1996-03-14 00:00:00,11,1001.7,0.1,76,7,10000,25.928,,,150,,,,,,,,,,,wg-a,,,,AAXX 14004 07747 12560 /1514 10110 20070 39961 40017 51001 60006 83570 90000=
07747,1996-03-14 03:00:00,10,1001.1,-0.6,93,9,10000,18.52,,,140,,,,,,,,,,2,wg-a,,,,AAXX 14034 07747 02260 81410 10100 20090 39955 40011 58006 61000 70262 8577/ 90300 333 ////=
07747,1996-03-14 06:00:00,10,1000.4,-0.7,93,9,6000,3.704,,,20,9.7,12.4,,,,,,,,2,wg-a,,,,AAXX 14064 07747 02256 80202 10100 20090 39948 40004 58007 61000 70262 8577/ 90600 333 10124 20097 ////=
07747,1996-03-14 09:00:00,10,1000.9,0.5,87,8,8000,0,,,0,,,,0,,,,,,1,wg-a,,,,AAXX 14094 07747 12358 70000 10100 20080 39953 40009 52005 60007 70162 8583/ 90900=
07747,1996-03-14 12:00:00,14,1000.3,-0.5,72,9,12000,11.112,,,110,,,,,,,,,,3,wg-a,,,,AAXX 14124 07747 12562 71106 10140 20090 39948 40003 57005 60006 70362 83882 91200=
07747,1996-03-14 15:00:00,13,1000.6,0.2,82,10,9000,22.224,,,70,,,,,,,,,,,wg-a,,,,AAXX 14154 07747 12459 70712 10130 20100 39950 40006 53002 60006 878// 91500=
07747,1996-03-14 18:00:00,12,1001.8,1.2,88,10,9000,11.112,,,110,8.9,14.7,,,,,,,,,wg-a,,,,AAXX 14184 07747 32559 71106 10120 20100 39962 40018 53012 878// 91800 333 10147 20089=
07747,1996-03-14 21:00:00,12,1003.2,1.4,94,11,7000,14.816,,,120,,,,1,,,,,,61,wg-a,,,,AAXX 14214 07747 12457 71208 10120 20110 39976 40032 53014 60017 76162 875// 92100=
07747,1996-03-15 00:00:00,10,1003.3,0.1,100,10,6000,3.704,,,160,,,,7,,,,,,63,wg-a,,,,AAXX 15004 07747 02256 81602 10100 20100 39977 40033 53001 60086 76362 875// 90000 333 60077=
07747,1996-03-15 03:00:00,8,1003.2,-0.2,93,7,4500,22.224,,,320,,,,13,,,,,,63,wg-a,,,,AAXX 15034 07747 12245 83212 10080 20070 39975 40032 58002 60137 76362 877// 90300=
07747,1996-03-15 06:00:00,8,1003,-0.2,81,5,500,29.632,,,320,7.7,11.8,,3,,,24,,,60,wg-a,,,,AAXX 15064 07747 02200 83216 10080 20050 39973 40030 57002 60244 76062 877// 90600 333 10118 20077 60037=
07747,1996-03-15 09:00:00,7,1004.2,1.2,87,5,6000,22.224,,,330,,,,5,,,,,,61,wg-a,,,,AAXX 15094 07747 12456 83312 10070 20050 39985 40042 51012 60057 76166 885// 90900=
07747,1996-03-15 12:00:00,8,1004.6,0.4,87,6,8000,18.52,,,330,,,,6,,,,,,61,wg-a,,,,AAXX 15124 07747 02358 83310 10080 20060 39989 40046 51004 60116 76166 8657/ 91200 333 60067=
07747,1996-03-15 15:00:00,8,1003.9,-0.7,87,6,6000,18.52,,,330,,,,4,,,,,,61,wg-a,,,,AAXX 15154 07747 12356 83310 10080 20060 39982 40039 56007 60047 76166 8657/ 91500=
07747,1996-03-15 18:00:00,8,1004.7,0.8,81,5,12000,22.224,,,320,7,8.1,,4,,,,,,60,wg-a,,,,AAXX 15184 07747 12462 83212 10080 20050 39990 40047 53008 60047 76066 8657/ 91800 333 10081 20070=
07747,1996-03-15 21:00:00,8,1006.3,1.6,81,5,15000,18.52,,,320,,,,1,,,,,,60,wg-a,,,,AAXX 15214 07747 12465 83210 10080 20050 30006 40063 53016 60017 76066 875// 92100=
07747,1996-03-16 00:00:00,8,1007,0.7,76,4,20000,25.928,,,320,,,,0,,,,,,21,wg-a,,,,AAXX 16004 07747 02470 83214 10080 20040 30013 40070 50007 60016 72162 878// 90000 333 60007=
07747,1996-03-16 03:00:00,8,1006.7,-0.3,71,3,20000,18.52,,,330,,,,,,,,,,,wg-a,,,,AAXX 16034 07747 12470 83310 10080 20030 30010 40067 58003 60006 878// 90300=
07747,1996-03-16 06:00:00,8,1006.6,-0.1,71,3,25000,38.892,,59.264,320,7.4,8.6,,,,,20,,,,wg-a,,,,AAXX 16064 07747 12475 83221 10080 20030 30009 40066 57001 60204 878// 90600 333 10086 20074 91032=
07747,1996-03-16 09:00:00,9,1007.8,1.2,66,3,500,50.004,,,320,,,,,,,,,,,wg-a,,,,AAXX 16094 07747 12400 73227 10090 20030 30021 40078 52012 60006 878// 90900=
07747,1996-03-16 12:00:00,10,1008.8,1,62,3,40000,46.3,,75.932,320,,,,0,,,,,,,wg-a,,,,AAXX 16124 07747 02582 73225 10100 20030 30031 40088 51010 60006 83841 91200 333 60007 91041=
07747,1996-03-16 15:00:00,11,1008.8,-0,54,2,40000,50.004,,70.376,320,,,,,,,,,,,wg-a,,,,AAXX 16154 07747 12582 73227 10110 20020 30031 40088 55000 60006 84841 91500 333 91038=
07747,1996-03-16 18:00:00,10,1011.1,2.3,62,3,40000,42.596,,70.376,310,8.2,11.2,,,,,,,,,wg-a,,,,AAXX 16184 07747 12582 73123 10100 20030 30054 40111 51023 60006 81841 91800 333 10112 20082 91038=
07747,1996-03-17 00:00:00,9,1014.6,1.5,61,2,500,29.632,,59.264,330,,,,,,,,,,,wg-a,,,,AAXX 17004 07747 12500 53316 10090 20020 30089 40146 51015 60006 85800 90000 333 91032=
07747,1996-03-17 03:00:00,8,1014.9,0.2,66,2,40000,29.632,,51.856,320,,,,,,,,,,,wg-a,,,,AAXX 17034 07747 12782 /3216 10080 20020 30091 40149 50002 60006 85500 90300 333 91028=
07747,1996-03-17 06:00:00,8,1015.1,0.2,57,0,40000,38.892,,57.412,320,8,10,,,,,,,,,wg-a,,,,AAXX 17064 07747 02682 /3221 10080 20000 30093 40151 53002 60006 86800 90600 333 10100 20080 60004 91031=
07747,1996-03-17 09:00:00,10,1015.7,0.7,50,0,50000,46.3,,62.968,320,,,,,,,,,,,wg-a,,,,AAXX 17094 07747 12684 53225 10100 20000 30100 40157 51007 60006 81132 90900 333 91034=
07747,1996-03-17 12:00:00,13,1015.2,-0.5,44,1,50000,38.892,,,320,,,,,,,,,,,wg-a,,,,AAXX 17124 07747 12684 43221 10130 20010 30095 40152 58005 60006 81132 91200=
07747,1996-03-17 15:00:00,14,1014.4,-0.7,36,-1,45000,35.188,,,340,,,,,,,,,,,wg-a,,,,AAXX 17154 07747 12683 63419 10140 21010 30088 40144 56007 60006 82132 91500=
07747,1996-03-17 18:00:00,12,1015.2,0.7,40,-1,45000,31.484,,,330,8.2,14.2,,,,,,,,,wg-a,,,,AAXX 17184 07747 12683 63317 10120 21010 30095 40152 53007 60006 81132 91800 333 10142 20082=
07747,1996-03-17 21:00:00,10,1016.6,1.4,53,1,25000,18.52,,,290,,,,,,,,,,,wg-a,,,,AAXX 17214 07747 12/75 42910 10100 20010 30109 40166 51014 60006 8403/ 92100=
07747,1996-03-18 00:00:00,8,1017.1,0.4,61,1,25000,14.816,,,300,,,,,,,,,,,wg-a,,,,AAXX 18004 07747 12/75 23008 10080 20010 30113 40171 53004 60006 8204/ 90000=
07747,1996-03-18 03:00:00,8,1016.3,-0.8,53,-1,25000,18.52,,,310,,,,,,,,,,,wg-a,,,,AAXX 18034 07747 12/75 03110 10080 21010 30105 40163 58008 60006 80000 90300=
07747,1996-03-18 06:00:00,7,1016.4,0.1,57,-1,25000,14.816,,,300,4.8,11.9,,,,,,,,,wg-a,,,,AAXX 18064 07747 02675 /3008 10070 21010 30106 40164 53001 60006 81140 90600 333 10119 20048 60004=
07747,1996-03-18 12:00:00,16,1015.3,-1.5,29,-2,75000,22.224,,,340,,,,,,,,,,,wg-a,,,,AAXX 18124 07747 12689 43412 10160 21020 30097 40153 58015 60006 81134 91200=
07747,1996-03-18 15:00:00,17,1013.9,-1.4,23,-4,75000,22.224,,,350,,,,,,,,,,,wg-a,,,,AAXX 18154 07747 12689 /3512 10170 21040 30083 40139 56014 60006 81104 91500=
07747,1996-03-18 18:00:00,13,1014.8,0.8,44,1,500,3.704,,,230,6.9,17.2,,,,,,,,,wg-a,,,,AAXX 18184 07747 12600 42302 10130 20010 30091 40148 53008 60006 81142 91800 333 10172 20069=
07747,1996-03-18 21:00:00,9,1016,1.2,66,3,11000,7.408,,,280,,,,,,,,,,,wg-a,,,,AAXX 18214 07747 12/61 /2804 10090 20030 30103 40160 51012 60006 92100=
07747,1996-03-19 00:00:00,8,1016.6,0.5,71,3,25000,11.112,,,340,,,,,,,,,,,wg-a,,,,AAXX 19004 07747 12575 /3406 10080 20030 30108 40166 52005 60006 81100 90000=
07747,1996-03-19 03:00:00,5,1015.5,-1.1,87,3,15000,0,,,0,,,,,,,,,,,wg-a,,,,AAXX 19034 07747 12565 /0000 10050 20030 30097 40155 58011 60006 81100 90300=
07747,1996-03-19 06:00:00,4,1014.9,-0.6,93,3,15000,7.408,,,280,3.1,13.2,,,,,,,,,wg-a,,,,AAXX 19064 07747 02565 42804 10040 20030 30091 40149 56006 60006 81102 90600 333 10132 20031 60004=
07747,1996-03-19 09:00:00,10,1014.6,-0.2,82,7,10000,7.408,,,50,,,,,,,,,,,wg-a,,,,AAXX 19094 07747 12660 80504 10100 20070 30089 40146 57002 60006 885// 90900=
07747,1996-03-19 12:00:00,14,1012.9,-1.6,58,6,12000,22.224,,,120,,,,,,,,,,,wg-a,,,,AAXX 19124 07747 12562 /1212 10140 20060 30073 40129 58016 60006 85801 91200=
07747,1996-03-19 15:00:00,13,1010.8,-2.1,72,8,8000,25.928,,,100,,,,,,,,,,,wg-a,,,,AAXX 19154 07747 12558 51014 10130 20080 30052 40108 57021 60006 85800 91500=
07747,1996-03-19 18:00:00,11,1009.8,-1.1,87,9,7000,18.52,,,40,3.9,13.9,,,,,,,,,wg-a,,,,AAXX 19184 07747 12557 70410 10110 20090 30041 40098 56011 60006 84532 91800 333 10139 20039=
07747,1996-03-19 21:00:00,11,1009.5,-0.3,87,9,7000,11.112,,,340,,,,,,,,,,,wg-a,,,,AAXX 19214 07747 12357 83406 10110 20090 30038 40095 58003 60006 875// 92100=
07747,1996-03-20 00:00:00,10,1008.8,-0.7,87,8,7000,3.704,,,300,,,,,,,,,,,wg-a,,,,AAXX 20004 07747 12357 83002 10100 20080 30031 40088 58007 60006 875// 90000=
07747,1996-03-20 03:00:00,8,1008.5,-0.3,93,7,7000,3.704,,,300,,,,,,,,,,,wg-a,,,,AAXX 20034 07747 12357 73002 10080 20070 30028 40085 58003 60006 875// 90300=
07747,1996-03-20 06:00:00,9,1009.6,1.1,93,8,500,7.408,,,270,7.5,11.4,,,,,,,,,wg-a,,,,AAXX 20064 07747 02300 72704 10090 20080 30039 40096 53011 60006 875// 90600 333 10114 20075 60004=
07747,1996-03-20 09:00:00,12,1011.3,1.8,88,10,8000,7.408,,,340,,,,,,,,,,,wg-a,,,,AAXX 20094 07747 12558 73404 10120 20100 30057 40113 53018 60006 875// 90900=
07747,1996-03-20 12:00:00,16,1011.2,-0.1,68,10,12000,14.816,,,100,,,,,,,,,,,wg-a,,,,AAXX 20124 07747 12462 31008 10160 20100 30056 40112 58001 60006 83200 91200=
07747,1996-03-20 15:00:00,14,1011,-0.2,77,10,10000,14.816,,,110,,,,,,,,,,,wg-a,,,,AAXX 20154 07747 12560 71108 10140 20100 30054 40110 55002 60006 878// 91500=
07747,1996-03-20 18:00:00,13,1012.2,1.2,82,10,6000,3.704,,,60,9.2,16.4,,,,,,,,,wg-a,,,,AAXX 20184 07747 12456 70602 10130 20100 30066 40122 53012 60006 878// 91800 333 10164 20092=
07747,1996-03-20 21:00:00,12,1012.7,0.5,88,10,6000,3.704,,,90,,,,,,,,,,,wg-a,,,,AAXX 20214 07747 12456 70902 10120 20100 30071 40127 51005 60006 875// 92100=
07747,1996-03-21 00:00:00,11,1012.8,-0,94,10,0,11.112,,,60,,,,,,,,,,,wg-a,,,,AAXX 21004 07747 12/// /0606 10110 20100 30071 40128 54000 60006 90000=
07747,1996-03-21 03:00:00,11,1012.8,-0,100,11,3000,7.408,,,40,,,,,,,,,,,wg-a,,,,AAXX 21034 07747 12330 80404 10110 20110 30071 40128 54000 60006 886// 90300=
07747,1996-03-21 06:00:00,11,1013.8,1,100,11,2500,3.704,,,30,10.5,12.5,,,,,,,,10,wg-a,,,,AAXX 21064 07747 02325 80302 10110 20110 30081 40138 51010 60006 71022 886// 90600 333 10125 20105 60004=
07747,1996-03-21 09:00:00,12,1015.2,1.4,94,11,500,3.704,,,30,,,,,,,,,,,wg-a,,,,AAXX 21094 07747 12/00 /0302 10120 20110 30095 40152 53014 60006 90900=
07747,1996-03-21 12:00:00,15,1015.6,0.5,67,9,8000,14.816,,,90,,,,,,,,,,,wg-a,,,,AAXX 21124 07747 12358 70908 10150 20090 30100 40156 52005 60006 86501 91200=
07747,1996-03-21 15:00:00,15,1015,-0.6,67,9,8000,14.816,,,60,,,,,,,,,,,wg-a,,,,AAXX 21154 07747 12358 70608 10150 20090 30094 40150 56006 60006 86501 91500=
07747,1996-03-21 18:00:00,13,1016.1,1,77,9,8000,7.408,,,140,11.1,16.2,,,,,,,,,wg-a,,,,AAXX 21184 07747 12358 71404 10130 20090 30104 40161 53010 60006 85501 91800 333 10162 20111=
07747,1996-03-21 21:00:00,12,1016.9,0.8,88,10,8000,0,,,0,,,,,,,,,,,wg-a,,,,AAXX 21214 07747 12358 /0000 10120 20100 30112 40169 51008 60006 86500 92100=
07747,1996-03-22 00:00:00,9,1017.2,0.3,93,8,7000,7.408,,,250,,,,,,,,,,,wg-a,,,,AAXX 22004 07747 12357 52504 10090 20080 30115 40172 51003 60006 83501 90000=
07747,1996-03-22 06:00:00,7,1017.6,0.3,93,6,3000,0,,,0,6.5,12.9,,,,,,,,10,wg-a,,,,AAXX 22064 07747 02/30 20000 10070 20060 30118 40176 53003 60006 71011 80001 90600 333 10129 20065 60004=
07747,1996-03-22 09:00:00,10,1019,1.5,100,10,1200,3.704,,,90,,,,,,,,,,10,wg-a,,,,AAXX 22094 07747 12312 80902 10100 20100 30133 40190 52015 60006 71011 886// 90900=
07747,1996-03-22 12:00:00,14,1018.3,-0.6,82,11,6000,7.408,,,130,,,,,,,,,,,wg-a,,,,AAXX 22124 07747 12456 71304 10140 20110 30127 40183 58006 60006 871// 91200=
07747,1996-03-22 15:00:00,15,1016.8,-1.5,77,11,9000,14.816,,,130,,,,,,,,,,,wg-a,,,,AAXX 22154 07747 12/59 41308 10150 20110 30112 40168 56015 60006 80001 91500=
07747,1996-03-22 18:00:00,13,1017.3,0.4,88,11,6000,7.408,,,70,6.4,16.5,,,,,,,,,wg-a,,,,AAXX 22184 07747 12/56 40704 10130 20110 30116 40173 53004 60006 80001 91800 333 10165 20064=
07747,1996-03-22 21:00:00,11,1017.9,0.6,94,10,500,7.408,,,10,,,,,,,,,,,wg-a,,,,AAXX 22214 07747 12300 40104 10110 20100 30122 40179 51006 60006 82601 92100=
07747,1996-03-23 00:00:00,11,1018.2,0.3,94,10,500,7.408,,,70,,,,,,,,,,45,wg-a,,,,AAXX 23004 07747 12/00 90704 10110 20100 30125 40182 51003 60006 74541 89/// 90000=
07747,1996-03-23 06:00:00,11,1017.2,-0,100,11,1000,3.704,,,60,9.9,12.7,,,,,,,,10,wg-a,,,,AAXX 23064 07747 02310 80602 10110 20110 30115 40172 55000 60006 71042 886// 90600 333 10127 20099 60004=
07747,1996-03-23 09:00:00,11,1018.6,1.4,100,11,900,7.408,,,60,,,,,,,,,,42,wg-a,,,,AAXX 23094 07747 12109 80604 10110 20110 30129 40186 51014 60006 74242 886// 90900=
07747,1996-03-23 12:00:00,12,1018.5,-0.1,94,11,500,11.112,,,50,,,,,,,,,,1,wg-a,,,,AAXX 23124 07747 12300 80506 10120 20110 30128 40185 58001 60006 70142 886// 91200=
07747,1996-03-23 15:00:00,13,1017.8,-0.7,82,10,500,11.112,,,70,,,,,,,,,,,wg-a,,,,AAXX 23154 07747 12300 80706 10130 20100 30121 40178 56007 60006 886// 91500=
07747,1996-03-23 18:00:00,12,1018.4,0.6,88,10,4000,11.112,,,50,10,12.9,,,,,,,,10,wg-a,,,,AAXX 23184 07747 12240 80506 10120 20100 30127 40184 53006 60006 71022 886// 91800 333 10129 20100=
07747,1996-03-23 21:00:00,12,1019,0.6,94,11,500,11.112,,,40,,,,,,,,,,,wg-a,,,,AAXX 23214 07747 12300 70406 10120 20110 30133 40190 53006 60006 876// 92100=
07747,1996-03-24 00:00:00,11,1020,1,100,11,1000,7.408,,,90,,,,,,,,,,10,wg-a,,,,AAXX 24004 07747 12110 70904 10110 20110 30143 40200 53010 60006 71042 876// 90000=
07747,1996-03-24 03:00:00,11,1019.9,-0.1,94,10,4000,7.408,,,40,,,,,,,,,,10,wg-a,,,,AAXX 24034 07747 12340 20404 10110 20100 30142 40199 58001 60006 71011 82600 90300=
07747,1996-03-24 06:00:00,10,1021.2,1.3,93,9,100,11.112,,,340,8.1,12.4,,,,,,,,45,wg-a,,,,AAXX 24064 07747 02/01 93406 10100 20090 30155 40212 52013 60006 74541 89/// 90600 333 10124 20081 60004=
07747,1996-03-24 09:00:00,12,1022.2,1,94,11,8000,11.112,,,110,,,,,,,,,,3,wg-a,,,,AAXX 24094 07747 32358 71106 10120 20110 30165 40222 51010 70342 877// 90900=
07747,1996-03-24 12:00:00,14,1021.8,-0.4,82,11,12000,18.52,,,100,,,,,,,,,,2,wg-a,,,,AAXX 24124 07747 12462 81010 10140 20110 30161 40218 56004 60006 70242 887// 91200=
07747,1996-03-24 15:00:00,13,1020.5,-1.3,82,10,6000,14.816,,,90,,,,,,,,,,,wg-a,,,,AAXX 24154 07747 12356 80908 10130 20100 30148 40205 56013 60006 887// 91500=
07747,1996-03-24 21:00:00,12,1018.6,-1,94,11,2000,11.112,,,120,,,,,,,,,,10,wg-a,,,,AAXX 24214 07747 12220 81206 10120 20110 30129 40186 55010 60006 71022 886// 92100=
07747,1996-03-25 00:00:00,12,1016.9,-1.7,94,11,3000,22.224,,,40,,,,,,,,,,10,wg-a,,,,AAXX 25004 07747 12230 80412 10120 20110 30112 40169 57017 60006 71022 886// 90000=
07747,1996-03-25 03:00:00,11,1017.2,0.3,94,10,3000,11.112,,,350,,,,,,,,,,10,wg-a,,,,AAXX 25034 07747 12230 83506 10110 20100 30115 40172 51003 60006 71022 886// 90300=
07747,1996-03-25 06:00:00,11,1018.5,1.3,94,10,3000,3.704,,,320,10.8,12.3,,,,,,,,10,wg-a,,,,AAXX 25064 07747 02330 73202 10110 20100 30128 40185 53013 60006 71022 876// 90600 333 10123 20108 60004=
07747,1996-03-25 09:00:00,13,1019.6,1.1,88,11,3500,7.408,,,340,,,,,,,,,,10,wg-a,,,,AAXX 25094 07747 02335 83404 10130 20110 30139 40196 51011 61000 71052 876// 90900 333 ////=
07747,1996-03-25 12:00:00,16,1018.9,-0.6,77,12,7000,7.408,,,50,,,,,,,,,,,wg-a,,,,AAXX 25124 07747 02/57 /0504 10160 20120 30133 40189 58006 61000 91200 333 ////=
07747,1996-03-25 15:00:00,17,1016.2,-2.7,77,13,7000,14.816,,,80,,,,,,,,,,,wg-a,,,,AAXX 25154 07747 12457 70808 10170 20130 30106 40162 57027 60006 81832 91500=
07747,1996-03-25 18:00:00,13,1015.9,-0.4,88,11,500,11.112,,,120,11,17.1,,,,,,,,,wg-a,,,,AAXX 25184 07747 32300 /1206 10130 20110 30102 40159 58004 82632 91800 333 10171 20110=
07747,1996-03-25 21:00:00,12,1015.9,-0,94,11,500,3.704,,,20,,,,,,,,,,,wg-a,,,,AAXX 25214 07747 12300 /0202 10120 20110 30102 40159 55000 60006 86602 92100=
07747,1996-03-26 00:00:00,12,1015.1,-0.8,94,11,500,11.112,,,20,,,,,,,,,,,wg-a,,,,AAXX 26004 07747 12300 80206 10120 20110 30094 40151 58008 60006 886// 90000=
07747,1996-03-26 03:00:00,12,1013.7,-1.4,100,12,400,7.408,,,70,,,,0,,,,,,50,wg-a,,,,AAXX 26034 07747 12104 80704 10120 20120 30080 40137 58014 60007 75054 887// 90300=
07747,1996-03-26 06:00:00,12,1013.1,-0.6,94,11,400,7.408,,,50,11.7,13,,,,,,,,50,wg-a,,,,AAXX 26064 07747 02204 80504 10120 20110 30074 40131 58006 60004 75054 887// 90600 333 10130 20117 61000=
07747,1996-03-26 09:00:00,12,1013,0,100,12,1200,11.112,,,10,,,,0,,,,,,28,wg-a,,,,AAXX 26094 07747 12112 80106 10120 20120 30074 40130 50000 60007 72854 887// 90900=
07747,1996-03-26 12:00:00,14,1012.6,-0.4,88,12,6000,3.704,,,90,,,,,,,,,,1,wg-a,,,,AAXX 26124 07747 12356 80902 10140 20120 30070 40126 58004 60006 70154 887// 91200=
07747,1996-03-26 15:00:00,14,1011,-1.6,88,12,10000,3.704,,,200,,,,,,,,,,,wg-a,,,,AAXX 26154 07747 12460 82002 10140 20120 30054 40110 56016 60006 885// 91500=
07747,1996-03-26 18:00:00,13,1011.6,0.6,94,12,3000,3.704,,,170,11.7,14.6,,4,,,,,,61,wg-a,,,,AAXX 26184 07747 12330 81702 10130 20120 30060 40116 51006 60047 76162 885// 91800 333 10146 20117=
07747,1996-03-26 21:00:00,14,1011.6,0,72,9,20000,18.52,,,320,,,,1,,,,,,2,wg-a,,,,AAXX 26214 07747 12470 73210 10140 20090 30060 40116 50000 60017 70262 875// 92100=
07747,1996-03-27 00:00:00,14,1011.1,-0.5,67,8,500,14.816,,,320,,,,,,,,,,1,wg-a,,,,AAXX 27004 07747 12200 43208 10140 20080 30055 40111 58005 60016 70161 81502 90000=
07747,1996-03-27 03:00:00,14,1010.1,-1,58,6,500,25.928,,,300,,,,,,,,,,,wg-a,,,,AAXX 27034 07747 12/00 23014 10140 20060 30045 40101 56010 60006 80002 90300=
07747,1996-03-27 06:00:00,14,1010.4,0.3,67,8,40000,42.596,,,320,12.5,15.2,,,,,5,,,,wg-a,,,,AAXX 27064 07747 12582 63223 10140 20080 30048 40104 50003 60054 82242 90600 333 10152 20125=
07747,1996-03-27 09:00:00,14,1012.3,1.9,72,9,35000,18.52,,,310,,,,,,,,,,,wg-a,,,,AAXX 27094 07747 12581 73110 10140 20090 30067 40123 51019 60006 85842 90900=
07747,1996-03-27 12:00:00,14,1011.7,-0.6,72,9,500,29.632,,,320,,,,,,,,,,,wg-a,,,,AAXX 27124 07747 12500 73216 10140 20090 30061 40117 58006 60006 84842 91200=
07747,1996-03-27 15:00:00,17,1010.2,-1.4,52,7,11000,38.892,,62.968,320,,,,,,,,,,,wg-a,,,,AAXX 27154 07747 12/61 /3221 10170 20070 30047 40102 56014 60006 91500 333 91034=
07747,1996-03-27 18:00:00,15,1011.9,1.6,59,7,35000,31.484,,51.856,310,13,17.3,,,,,,,,,wg-a,,,,AAXX 27184 07747 12581 63117 10150 20070 30063 40119 53016 60006 84842 91800 333 10173 20130 91028=
07747,1996-03-27 21:00:00,14,1012.9,1,67,8,500,29.632,,46.3,310,,,,,,,,,,,wg-a,,,,AAXX 27214 07747 12600 63116 10140 20080 30073 40129 53010 60006 83542 92100 333 91025=
07747,1996-03-28 00:00:00,13,1013,0.1,72,8,500,14.816,,,310,,,,,,,,,,,wg-a,,,,AAXX 28004 07747 12600 63108 10130 20080 30074 40130 51001 60006 83542 90000=
07747,1996-03-28 03:00:00,12,1012.3,-0.7,76,8,500,11.112,,,320,,,,,,,,,,,wg-a,,,,AAXX 28034 07747 12600 63206 10120 20080 30067 40123 56007 60006 82542 90300=
07747,1996-03-28 06:00:00,12,1013,0.6,71,7,25000,25.928,,,330,11.3,14.9,,,,,,,,16,wg-a,,,,AAXX 28064 07747 02575 /3314 10120 20070 30073 40130 53006 60006 71622 8554/ 90600 333 10149 20113 60004=
07747,1996-03-28 09:00:00,13,1013.8,0.9,47,2,25000,31.484,,,320,,,,,,,,,,,wg-a,,,,AAXX 28094 07747 12575 23217 10130 20020 30082 40138 52009 60006 81140 90900=
07747,1996-03-28 12:00:00,15,1014.1,0.3,36,0,500,35.188,,55.56,320,,,,,,,,,,,wg-a,,,,AAXX 28124 07747 12500 /3219 10150 20000 30085 40141 53003 60006 81140 91200 333 91030=
07747,1996-03-28 15:00:00,17,1013.8,-0.3,29,-1,500,31.484,,59.264,330,,,,,,,,,,,wg-a,,,,AAXX 28154 07747 12500 /3317 10170 21010 30082 40138 55003 60006 81240 91500 333 91032=
07747,1996-03-28 18:00:00,15,1014.6,0.8,44,3,500,22.224,,,340,11.2,16.9,,,,,,,,,wg-a,,,,AAXX 28184 07747 12500 /3412 10150 20030 30090 40146 53008 60006 81141 91800 333 10169 20112=
07747,1996-03-29 00:00:00,12,1016.3,-0.4,58,4,500,22.224,,,320,,,,,,,,,,,wg-a,,,,AAXX 29004 07747 12500 23212 10120 20040 30106 40163 58004 60006 82500 90000=
07747,1996-03-29 03:00:00,11,1015.4,-0.9,62,4,20000,25.928,,,310,,,,,,,,,,,wg-a,,,,AAXX 29034 07747 12/70 03114 10110 20040 30097 40154 58009 60006 80000 90300=
07747,1996-03-29 06:00:00,10,1015.6,0.2,66,4,15000,18.52,,,280,9.6,14.6,,,,,,,,,wg-a,,,,AAXX 29064 07747 02565 /2810 10100 20040 30099 40156 51002 60006 81100 90600 333 10146 20096 60004=
07747,1996-03-29 09:00:00,13,1015.8,0.2,54,4,25000,31.484,,,340,,,,,,,,,,,wg-a,,,,AAXX 29094 07747 12575 /3417 10130 20040 30101 40158 50002 60006 81100 90900=
07747,1996-03-29 12:00:00,16,1014,-1.7,45,4,500,18.52,,38.892,330,,,,,,,,,,,wg-a,,,,AAXX 29124 07747 12500 /3310 10160 20040 30084 40140 58017 60006 81100 91200 333 91021=
07747,1996-03-29 15:00:00,17,1012.2,-1.8,42,4,25000,18.52,,,330,,,,,,,,,,,wg-a,,,,AAXX 29154 07747 12575 /3310 10170 20040 30066 40122 56018 60006 81102 91500=
07747,1996-03-29 18:00:00,14,1012.5,0.3,51,4,25000,14.816,,,330,10,17.7,,,,,,,,,wg-a,,,,AAXX 29184 07747 12575 63308 10140 20040 30069 40125 53003 60006 81842 91800 333 10177 20100=
07747,1996-03-29 21:00:00,11,1012.7,0.1,62,4,25000,7.408,,,330,,,,,,,,,,,wg-a,,,,AAXX 29214 07747 12/75 73304 10110 20040 30070 40127 50001 60006 83042 92100=
07747,1996-03-30 00:00:00,9,1012,-0.7,71,4,25000,11.112,,,270,,,,,,,,,,,wg-a,,,,AAXX 30004 07747 12/75 72706 10090 20040 30063 40120 58007 60006 83042 90000=
07747,1996-03-30 03:00:00,8,1010.3,-1.7,81,5,25000,3.704,,,240,,,,,,,,,,,wg-a,,,,AAXX 30034 07747 12/75 72402 10080 20050 30046 40103 56017 60006 8703/ 90300=
07747,1996-03-30 06:00:00,8,1010.3,-0,81,5,20000,3.704,,,40,6.8,13.7,,,,,,,,,wg-a,,,,AAXX 30064 07747 02770 70402 10080 20050 30046 40103 55000 60006 875// 90600 333 10137 20068 60004=
07747,1996-03-30 09:00:00,10,1011.2,0.9,71,5,12000,3.704,,,70,,,,,,,,,,,wg-a,,,,AAXX 30094 07747 12562 70702 10100 20050 30055 40112 51009 60006 878// 90900=
07747,1996-03-30 12:00:00,14,1010,-1.1,58,6,11000,11.112,,,100,,,,,,,,,,,wg-a,,,,AAXX 30124 07747 12561 /1006 10140 20060 30044 40100 56011 60006 82242 91200=
07747,1996-03-30 15:00:00,16,1009.2,-0.8,36,1,15000,22.224,,,340,,,,,,,,,,,wg-a,,,,AAXX 30154 07747 12565 /3412 10160 20010 30036 40092 56008 60006 82242 91500=
07747,1996-03-30 18:00:00,14,1010.9,1.7,41,1,20000,31.484,,59.264,340,8.1,16.2,,,,,,,,,wg-a,,,,AAXX 30184 07747 12570 73417 10140 20010 30053 40109 53017 60006 82282 91800 333 10162 20081 91032=
07747,1996-03-30 21:00:00,13,1013.6,2.6,41,0,15000,25.928,,,330,,,,,,,,,,,wg-a,,,,AAXX 30214 07747 12565 73314 10130 20000 30079 40136 51026 60006 81132 92100=
07747,1996-03-31 00:00:00,10,1014.5,0.9,50,0,15000,14.816,,,350,,,,,,,,,,,wg-a,,,,AAXX 31004 07747 12/65 63508 10100 20000 30088 40145 51009 60006 80002 90000=
07747,1996-03-31 03:00:00,9,1014.4,-0.1,49,-1,15000,3.704,,,310,,,,,,,,,,,wg-a,,,,AAXX 31034 07747 12/65 03102 10090 21010 30087 40144 55001 60006 80000 90300=
07747,1996-03-31 06:00:00,6,1015,0.5,70,1,25000,14.816,,,280,5.7,13.9,,,,,,,,,wg-a,,,,AAXX 31064 07747 02/75 32808 10060 20010 30092 40150 53005 60006 80002 90600 333 10139 20057 60004=
07747,1996-03-31 09:00:00,12,1014.7,-0.2,40,-1,25000,11.112,,,320,,,,,,,,,,,wg-a,,,,AAXX 31094 07747 12/75 53206 10120 21010 30090 40147 58002 60006 80002 90900=
07747,1996-03-31 12:00:00,14,1013.2,-1.4,51,4,25000,11.112,,,110,,,,,,,,,,,wg-a,,,,AAXX 31124 07747 12575 /1106 10140 20040 30076 40132 58014 60006 81142 91200=
07747,1996-03-31 15:00:00,13,1012,-1.2,58,5,15000,11.112,,,130,,,,,,,,,,,wg-a,,,,AAXX 31154 07747 12565 71306 10130 20050 30064 40120 56012 60006 85142 91500=
07747,1996-03-31 18:00:00,13,1010.8,-1.2,62,6,15000,7.408,,,10,6.2,15.1,,,,,,,,,wg-a,,,,AAXX 31184 07747 12565 /0104 10130 20060 30052 40108 56012 60006 85842 91800 333 10151 20062=
07747,1996-03-31 21:00:00,11,1010.4,-0.5,71,6,15000,3.704,,,20,,,,,,,,,,,wg-a,,,,AAXX 31214 07747 12765 /0202 10110 20060 30047 40104 58005 60006 85500 92100=
07747,1996-04-01 00:00:00,10,1008,-2.4,82,7,15000,7.408,,,330,,,,,,,,,,,wg-a,,,,AAXX 01004 07747 12765 83304 10100 20070 30023 40080 58024 60006 885// 90000=
07747,1996-04-01 03:00:00,10,1004.4,-3.5,82,7,12000,7.408,,,350,,,,,,,,,,,wg-a,,,,AAXX 01034 07747 12262 83504 10100 20070 39988 40044 58035 60006 885// 90300=
07747,1996-04-01 06:00:00,10,1002.9,-1.5,87,8,6000,14.816,,,360,9.4,12.5,,,,,,,,,wg-a,,,,AAXX 01064 07747 02256 73608 10100 20080 39973 40029 56015 60006 876// 90600 333 10125 20094 60004=
07747,1996-04-01 09:00:00,11,1002.3,-0.6,82,8,6000,7.408,,,70,,,,,,,,,,,wg-a,,,,AAXX 01094 07747 12256 80704 10110 20080 39967 40023 58006 60006 886// 90900=
07747,1996-04-01 12:00:00,12,1000.9,-1.4,82,9,7000,7.408,,,130,,,,0,,,,,,1,wg-a,,,,AAXX 01124 07747 02457 81304 10120 20090 39953 40009 58014 60006 70162 84872 91200 333 60007=
07747,1996-04-01 15:00:00,12,999.3,-1.6,82,9,500,22.224,,,80,,,,,,,,,,,wg-a,,,,AAXX 01154 07747 12300 70812 10120 20090 39937 49993 56016 60006 86262 91500=
07747,1996-04-01 21:00:00,11,1000.9,2,87,9,4500,3.704,,,310,,,,,,,,,,10,wg-a,,,,AAXX 01214 07747 12345 83102 10110 20090 39953 40009 51020 60006 71022 876// 92100=
07747,1996-04-02 00:00:00,11,1001.3,0.4,71,6,12000,31.484,,,310,,,,,,,,,,,wg-a,,,,AAXX 02004 07747 12462 73117 10110 20060 39957 40013 50004 60006 875// 90000=
07747,1996-04-02 03:00:00,12,1002.3,1,67,6,12000,29.632,,,310,,,,0,,,,,,,wg-a,,,,AAXX 02034 07747 12462 83116 10120 20060 39967 40023 52010 60007 878// 90300=
07747,1996-04-02 06:00:00,9,1003.5,1.1,61,2,500,68.524,,85.192,310,8.6,11.7,,0,,,1,,,1,wg-a,,,,AAXX 02064 07747 02400 73137 10090 20020 39978 40035 53011 60014 70162 84842 90600 333 10117 20086 60007 91046=
07747,1996-04-02 09:00:00,11,1006.7,3.3,47,0,40000,61.116,,81.488,310,,,,,,,,,,,wg-a,,,,AAXX 02094 07747 12582 33133 10110 20000 30011 40067 50033 60006 83800 90900 333 91044=
07747,1996-04-02 12:00:00,13,1008.6,1.9,35,-2,11000,46.3,,72.228,330,,,,,,,,,,,wg-a,,,,AAXX 02124 07747 12/61 /3325 10130 21020 30030 40086 51019 60006 91200 333 91039=
07747,1996-04-02 15:00:00,13,1009.2,0.6,33,-3,40000,50.004,,77.784,320,,,,,,,,,,,wg-a,,,,AAXX 02154 07747 12582 /3227 10130 21030 30036 40092 51006 60006 81200 91500 333 91042=
07747,1996-04-02 18:00:00,11,1012.3,3,40,-2,25000,46.3,,68.524,330,8.8,13.8,,,,,,,,,wg-a,,,,AAXX 02184 07747 32575 53325 10110 21020 30066 40123 53030 82801 91800 333 10138 20088 91037=
07747,1996-04-02 21:00:00,10,1014.4,2.1,34,-5,20000,38.892,,59.264,310,,,,,,,,,,,wg-a,,,,AAXX 02214 07747 12/70 03121 10100 21050 30087 40144 51021 60006 80000 92100 333 91032=
07747,1996-04-03 00:00:00,8,1015.2,0.7,42,-4,20000,35.188,,53.708,330,,,,,,,,,,,wg-a,,,,AAXX 03004 07747 12/70 03319 10080 21040 30094 40152 53007 60006 80000 90000 333 91029=
07747,1996-04-03 03:00:00,7,1015.3,0.1,42,-5,20000,38.892,,57.412,320,,,,,,,,,,,wg-a,,,,AAXX 03034 07747 12/70 03221 10070 21050 30095 40153 53001 60006 80000 90300 333 91031=
07747,1996-04-03 06:00:00,5,1015.9,0.6,41,-7,15000,42.596,,64.82,330,5.2,10.7,,,,,,,,,wg-a,,,,AAXX 03064 07747 12/65 03323 10050 21070 30101 40159 50006 60004 80000 90600 333 10107 20052 91035=
07747,1996-04-03 09:00:00,7,1016.4,0.5,36,-7,15000,50.004,,72.228,320,,,,,,,,,,,wg-a,,,,AAXX 03094 07747 12565 43227 10070 21070 30106 40164 51005 60006 84200 90900 333 91039=
07747,1996-04-03 12:00:00,8,1014.6,-1.8,42,-4,15000,57.412,,85.192,310,,,,,,,,,,,wg-a,,,,AAXX 03124 07747 12565 33131 10080 21040 30088 40146 56018 60006 83200 91200 333 91046=
07747,1996-04-03 15:00:00,10,1016.2,1.7,34,-5,15000,53.708,,,320,,,,,,,,,,,wg-a,,,,AAXX 03154 07747 12565 43229 10100 21050 30105 40162 50017 60006 84200 91500=
07747,1996-04-03 18:00:00,8,1019.2,2.9,36,-6,15000,38.892,,70.376,330,5.3,10,,,,,,,,,wg-a,,,,AAXX 03184 07747 32565 /3321 10080 21060 30134 40192 53029 81100 91800 333 10100 20053 91038=
07747,1996-04-03 21:00:00,7,1021.3,2.1,36,-7,20000,38.892,,62.968,320,,,,,,,,,,,wg-a,,,,AAXX 03214 07747 12/70 03221 10070 21070 30155 40213 53021 60006 80000 92100 333 91034=
07747,1996-04-04 00:00:00,6,1,0.8,42,-6,20000,31.484,,,320,,,,,,,,,,,wg-a,,,,AAXX 04004 07747 12/70 03217 10060 21060 30221 51008 60006 80000 90000=
07747,1996-04-04 03:00:00,6,1021,-1.1,42,-6,20000,31.484,,,320,,,,,,,,,,,wg-a,,,,AAXX 04034 07747 12/70 03217 10060 21060 30152 40210 56011 60006 80000 90300=
07747,1996-04-04 06:00:00,6,1020.1,-0.9,39,-7,10000,38.892,,,310,5.5,7.9,,,,,,,,,wg-a,,,,AAXX 04064 07747 02/60 03121 10060 21070 30143 40201 58009 60006 80000 90600 333 10079 20055 60004=
07747,1996-04-04 09:00:00,10,1019.8,-0.3,27,-8,12000,42.596,,,310,,,,,,,,,,,wg-a,,,,AAXX 04094 07747 12/62 03123 10100 21080 30140 40198 57003 60006 80000 90900=
07747,1996-04-04 12:00:00,14,1017.5,-2.2,21,-8,20000,31.484,,,330,,,,,,,,,,,wg-a,,,,AAXX 04124 07747 12/70 03317 10140 21080 30118 40175 56022 60006 80000 91200=
07747,1996-04-04 15:00:00,16,1015.7,-1.7,16,-10,20000,22.224,,,330,,,,,,,,,,,wg-a,,,,AAXX 04154 07747 12/70 13312 10160 21100 30101 40157 56017 60006 80001 91500=
07747,1996-04-04 18:00:00,13,1016.7,0.9,30,-4,20000,25.928,,,340,5.9,16,,,,,,,,,wg-a,,,,AAXX 04184 07747 12/70 13414 10130 21040 30110 40167 53009 60006 80001 91800 333 10160 20059=
07747,1996-04-05 00:00:00,6,1017.4,0.3,65,0,20000,7.408,,,30,,,,,,,,,,,wg-a,,,,AAXX 05004 07747 12/70 00304 10060 20000 30116 40174 50003 60006 80000 90000=
07747,1996-04-05 06:00:00,2,1015.6,-0.4,93,1,15000,3.704,,,260,1.2,12.7,,,,,,,,,wg-a,,,,AAXX 05064 07747 02/65 12602 10020 20010 30097 40156 56004 60006 81040 90600 333 10127 20012 60004=
07747,1996-04-05 09:00:00,10,1015.2,-0.2,62,3,9000,11.112,,,110,,,,,,,,,,,wg-a,,,,AAXX 05094 07747 12659 /1106 10100 20030 30095 40152 58002 60006 81100 90900=
07747,1996-04-05 12:00:00,12,1014.2,-1,58,4,8000,18.52,,,110,,,,,,,,,,,wg-a,,,,AAXX 05124 07747 12558 31110 10120 20040 30085 40142 58010 60006 83100 91200=
07747,1996-04-05 15:00:00,12,1013.7,-0.5,62,5,8000,18.52,,,90,,,,,,,,,,,wg-a,,,,AAXX 05154 07747 12558 70910 10120 20050 30080 40137 56005 60006 878// 91500=
07747,1996-04-05 18:00:00,11,1013.7,0,82,8,7000,14.816,,,80,1.9,12.5,,,,,,,,,wg-a,,,,AAXX 05184 07747 12457 80808 10110 20080 30080 40137 50000 60006 885// 91800 333 10125 20019=
07747,1996-04-05 21:00:00,11,1014.3,0.6,82,8,10000,3.704,,,220,,,,,,,,,,,wg-a,,,,AAXX 05214 07747 12560 82202 10110 20080 30086 40143 51006 60006 885// 92100=
07747,1996-04-06 00:00:00,8,1014.4,0.1,93,7,15000,11.112,,,300,,,,,,,,,,,wg-a,,,,AAXX 06004 07747 12665 /3006 10080 20070 30087 40144 53001 60006 82501 90000=
07747,1996-04-06 03:00:00,8,1015.1,0.6,87,6,12000,7.408,,,300,,,,,,,,,,,wg-a,,,,AAXX 06034 07747 12662 53004 10080 20060 30093 40151 53006 60006 82501 90300=
07747,1996-04-06 06:00:00,6,1016.4,1.3,93,5,500,7.408,,,230,5.3,11.6,,,,,,,,,wg-a,,,,AAXX 06064 07747 02700 72304 10060 20050 30106 40164 53013 60006 82552 90600 333 10116 20053 60004=
07747,1996-04-06 09:00:00,12,1017.2,0.9,76,8,7000,7.408,,,80,,,,,,,,,,,wg-a,,,,AAXX 06094 07747 12557 70804 10120 20080 30115 40172 51009 60006 81134 90900=
07747,1996-04-06 12:00:00,15,1017.1,0,63,8,8000,11.112,,,130,,,,,,,,,,,wg-a,,,,AAXX 06124 07747 12558 /1306 10150 20080 30115 40171 50000 60006 82102 91200=
07747,1996-04-06 15:00:00,16,1017.1,-0,63,9,8000,18.52,,,130,,,,,,,,,,,wg-a,,,,AAXX 06154 07747 12558 71310 10160 20090 30115 40171 54000 60006 85202 91500=
07747,1996-04-06 18:00:00,13,1017.9,0.7,82,10,8000,14.816,,,40,6.1,16.2,,,,,,,,,wg-a,,,,AAXX 06184 07747 12558 40408 10130 20100 30122 40179 53007 60006 81832 91800 333 10162 20061=
07747,1996-04-06 21:00:00,10,1018.8,0.9,87,8,8000,11.112,,,360,,,,,,,,,,,wg-a,,,,AAXX 06214 07747 12/58 03606 10100 20080 30131 40188 51009 60006 80000 92100=
07747,1996-04-07 00:00:00,8,1018.9,0,93,7,8000,3.704,,,250,,,,,,,,,,,wg-a,,,,AAXX 07004 07747 12/58 02502 10080 20070 30131 40189 50000 60006 80000 90000=
07747,1996-04-07 03:00:00,7,1019.1,0.2,93,6,7000,3.704,,,280,,,,,,,,,,,wg-a,,,,AAXX 07034 07747 12/57 02802 10070 20060 30133 40191 53002 60006 80000 90300=
07747,1996-04-07 06:00:00,6,1019.7,0.6,93,5,6000,11.112,,,240,4.9,13.2,,,,,,,,,wg-a,,,,AAXX 07064 07747 02/56 /2406 10060 20050 30139 40197 53006 60006 80001 90600 333 10132 20049 60004=
07747,1996-04-07 09:00:00,16,1019.8,0.3,48,5,10000,7.408,,,10,,,,,,,,,,,wg-a,,,,AAXX 07094 07747 12560 /0104 10160 20050 30142 40198 51003 60006 81101 90900=
07747,1996-04-07 12:00:00,20,1018.8,-0.9,21,-3,20000,18.52,,,20,,,,,,,,,,,wg-a,,,,AAXX 07124 07747 12570 40210 10200 21030 30133 40188 58009 60006 82201 91200=
07747,1996-04-07 15:00:00,21,1017.9,-0.9,28,2,20000,29.632,,,360,,,,,,,,,,,wg-a,,,,AAXX 07154 07747 12570 53616 10210 20020 30124 40179 56009 60006 81281 91500=
07747,1996-04-07 21:00:00,15,1020.9,1.7,59,7,15000,14.816,,,310,,,,,,,,,,,wg-a,,,,AAXX 07214 07747 12/65 03108 10150 20070 30153 40209 53017 60006 80000 92100=
07747,1996-04-08 00:00:00,14,1021.6,0.6,63,7,15000,31.484,,,320,,,,,,,,,,,wg-a,,,,AAXX 08004 07747 12/65 03217 10140 20070 30159 40216 51006 60006 80000 90000=
07747,1996-04-08 03:00:00,14,1022.1,0.5,63,7,15000,25.928,,,330,,,,,,,,,,,wg-a,,,,AAXX 08034 07747 12565 /3314 10140 20070 30164 40221 51005 60006 85100 90300=
07747,1996-04-08 06:00:00,13,1022.7,0.6,67,7,9000,31.484,,,320,12.9,17.5,,,,,,,,,wg-a,,,,AAXX 08064 07747 02559 43217 10130 20070 30170 40227 53006 60006 81830 90600 333 10175 20129 60004=
07747,1996-04-08 12:00:00,18,1023.6,-0.2,42,5,10000,35.188,,,330,,,,,,,,,,,wg-a,,,,AAXX 08124 07747 12560 63319 10180 20050 30180 40236 58002 60006 85830 91200=
07747,1996-04-08 15:00:00,19,1022.8,-0.8,40,5,15000,31.484,,,340,,,,,,,,,,,wg-a,,,,AAXX 08154 07747 12565 /3417 10190 20050 30172 40228 55008 60006 81800 91500=
07747,1996-04-08 18:00:00,17,1022.9,0.1,45,5,15000,38.892,,,320,13.2,19.5,,,,,,,,,wg-a,,,,AAXX 08184 07747 12565 /3221 10170 20050 30173 40229 53001 60006 81100 91800 333 10195 20132=
07747,1996-04-08 21:00:00,15,1024.4,1.4,51,5,15000,38.892,,,320,,,,,,,,,,,wg-a,,,,AAXX 08214 07747 12/65 03221 10150 20050 30187 40244 52014 60006 80000 92100=
07747,1996-04-09 03:00:00,13,1023.3,-1.4,58,5,15000,18.52,,,310,,,,,,,,,,,wg-a,,,,AAXX 09034 07747 12/65 03110 10130 20050 30176 40233 56014 60006 80000 90300=
07747,1996-04-09 06:00:00,13,1022.4,-0.9,58,5,10000,29.632,,,320,12,16.5,,,,,,,,,wg-a,,,,AAXX 09064 07747 02/60 13216 10130 20050 30167 40224 56009 60006 80001 90600 333 10165 20120 60004=
07747,1996-04-09 09:00:00,19,1022,-0.3,40,5,15000,25.928,,,330,,,,,,,,,,,wg-a,,,,AAXX 09094 07747 12/65 13314 10190 20050 30164 40220 58003 60006 80001 90900=
07747,1996-04-09 12:00:00,22,1020.6,-1.3,21,-1,500,18.52,,,350,,,,,,,,,,,wg-a,,,,AAXX 09124 07747 12600 33510 10220 21010 30151 40206 58013 60006 81501 91200=
07747,1996-04-09 15:00:00,20,1019.9,-0.7,49,9,25000,18.52,,,130,,,,,,,,,,,wg-a,,,,AAXX 09154 07747 12675 31310 10200 20090 30144 40199 56007 60006 81501 91500=
07747,1996-04-09 18:00:00,15,1020.7,0.7,55,6,20000,7.408,,,100,13.4,22.7,,,,,,,,,wg-a,,,,AAXX 09184 07747 12670 31004 10150 20060 30151 40207 51007 60006 81501 91800 333 10227 20134=
07747,1996-04-09 21:00:00,12,1021.5,0.7,71,7,20000,3.704,,,240,,,,,,,,,,,wg-a,,,,AAXX 09214 07747 12/70 02402 10120 20070 30158 40215 51007 60006 80000 92100=
07747,1996-04-10 00:00:00,11,1021.5,0,71,6,20000,3.704,,,280,,,,,,,,,,,wg-a,,,,AAXX 10004 07747 12/70 02802 10110 20060 30158 40215 50000 60006 80000 90000=
07747,1996-04-10 03:00:00,9,1020.5,-1.1,76,5,20000,11.112,,,250,,,,,,,,,,,wg-a,,,,AAXX 10034 07747 12/70 02506 10090 20050 30147 40205 56011 60006 80000 90300=
07747,1996-04-10 06:00:00,10,1020.2,-0.2,76,6,12000,7.408,,,200,7.8,15.1,,,,,,,,,wg-a,,,,AAXX 10064 07747 02/62 12004 10100 20060 30145 40202 55002 60006 80001 90600 333 10151 20078 60004=
07747,1996-04-10 09:00:00,18,1019.8,-0.3,45,6,12000,7.408,,,330,,,,,,,,,,,wg-a,,,,AAXX 10094 07747 12/62 23304 10180 20060 30142 40198 58003 60006 80001 90900=
07747,1996-04-10 12:00:00,22,1017.8,-1.9,33,5,25000,18.52,,,330,,,,,,,,,,,wg-a,,,,AAXX 10124 07747 12675 73310 10220 20050 30123 40178 58019 60006 81141 91200=
07747,1996-04-10 15:00:00,23,1016.1,-1.7,25,2,25000,25.928,,,350,,,,,,,,,,,wg-a,,,,AAXX 10154 07747 12675 73514 10230 20020 30106 40161 58017 60006 81142 91500=
07747,1996-04-10 18:00:00,21,1016.5,0.4,33,4,25000,18.52,,,350,9.7,23.7,,,,,,,,,wg-a,,,,AAXX 10184 07747 12675 73510 10210 20040 30110 40165 53004 60006 82542 91800 333 10237 20097=
07747,1996-04-10 21:00:00,18,1017.5,0.9,45,6,25000,14.816,,,310,,,,,,,,,,,wg-a,,,,AAXX 10214 07747 12675 73108 10180 20060 30119 40175 50009 60006 82542 92100=
07747,1996-04-11 00:00:00,17,1017,-0.5,52,7,25000,3.704,,,200,,,,,,,,,,,wg-a,,,,AAXX 11004 07747 12675 72002 10170 20070 30114 40170 56005 60006 82542 90000=
07747,1996-04-11 03:00:00,15,1016.3,-0.7,67,9,25000,0,,,0,,,,,,,,,,,wg-a,,,,AAXX 11034 07747 12675 70000 10150 20090 30107 40163 56007 60006 84542 90300=
07747,1996-04-11 06:00:00,16,1016,-0.3,68,10,15000,18.52,,,320,14.9,20.8,,,,,,,,,wg-a,,,,AAXX 11064 07747 02665 73210 10160 20100 30104 40160 55003 60006 84542 90600 333 10208 20149 60004=
07747,1996-04-11 09:00:00,17,1016,-0,63,10,15000,11.112,,,340,,,,,,,,,,,wg-a,,,,AAXX 11094 07747 12565 73406 10170 20100 30104 40160 54000 60006 83832 90900=
07747,1996-04-11 12:00:00,20,1013.7,-2.2,53,10,25000,22.224,,,340,,,,,,,,,,,wg-a,,,,AAXX 11124 07747 12575 43412 10200 20100 30082 40137 58022 60006 82132 91200=
07747,1996-04-11 15:00:00,21,1012,-1.7,49,10,20000,25.928,,,340,,,,,,,,,,,wg-a,,,,AAXX 11154 07747 12570 63414 10210 20100 30065 40120 56017 60006 84132 91500=
07747,1996-04-11 18:00:00,19,1012,-0,52,9,25000,18.52,,,320,15.7,21.6,,,,,,,,,wg-a,,,,AAXX 11184 07747 12575 73210 10190 20090 30065 40120 54000 60006 82842 91800 333 10216 20157=
07747,1996-04-11 21:00:00,17,1012.2,0.1,59,9,25000,25.928,,,330,,,,,,,,,,,wg-a,,,,AAXX 11214 07747 12575 23314 10170 20090 30066 40122 50001 60006 81542 92100=
07747,1996-04-12 00:00:00,16,1011.9,-0.3,59,8,25000,25.928,,,320,,,,,,,,,,,wg-a,,,,AAXX 12004 07747 12575 /3214 10160 20080 30063 40119 56003 60006 81540 90000=
07747,1996-04-12 03:00:00,13,1011.7,-0.2,67,7,25000,7.408,,,230,,,,,,,,,,,wg-a,,,,AAXX 12034 07747 12575 22304 10130 20070 30061 40117 55002 60006 81541 90300=
07747,1996-04-12 06:00:00,12,1012.4,0.6,76,8,500,3.704,,,250,11.8,18.9,,,,,,,,,wg-a,,,,AAXX 12064 07747 02600 /2502 10120 20080 30067 40124 53006 60006 81541 90600 333 10189 20118 60004=
07747,1996-04-12 09:00:00,20,1011.8,-0.4,43,7,500,7.408,,,120,,,,,,,,,,,wg-a,,,,AAXX 12094 07747 12500 31204 10200 20070 30063 40118 58004 60006 81141 90900=
07747,1996-04-12 12:00:00,20,1010.8,-1,43,7,500,14.816,,,130,,,,,,,,,,,wg-a,,,,AAXX 12124 07747 12500 21308 10200 20070 30053 40108 56010 60006 81141 91200=
07747,1996-04-12 15:00:00,20,1009.9,-0.9,40,6,25000,18.52,,,140,,,,,,,,,,,wg-a,,,,AAXX 12154 07747 12575 21410 10200 20060 30044 40099 57009 60006 81141 91500=
07747,1996-04-12 18:00:00,19,1009.7,-0.2,49,8,25000,3.704,,,360,12.1,21,,,,,,,,,wg-a,,,,AAXX 12184 07747 12575 /3602 10190 20080 30042 40097 55002 60006 81102 91800 333 10210 20121=
07747,1996-04-12 21:00:00,16,1011.5,1.7,63,9,20000,11.112,,,260,,,,,,,,,,,wg-a,,,,AAXX 12214 07747 12670 42606 10160 20090 30059 40115 52017 60006 81501 92100=
07747,1996-04-13 03:00:00,12,1012.2,0.4,82,9,20000,3.704,,,60,,,,,,,,,,,wg-a,,,,AAXX 13034 07747 12670 40602 10120 20090 30066 40122 53004 60006 81501 90300=
07747,1996-04-13 06:00:00,11,1013.2,0.9,87,9,20000,11.112,,,260,9.3,18.5,,,,,,,,,wg-a,,,,AAXX 13064 07747 02/70 62606 10110 20090 30075 40132 53009 60006 80004 90600 333 10185 20093 60004=
07747,1996-04-13 07:00:00,11,1013.2,0.9,87,9,20000,11.112,,,260,9.3,18.5,,,,,,,,,wg-a,,,,AAXX 13074 07747 02/70 /2606 10110 20090 30075 40132 53009 60006 80004 90700 333 10185 20093 60004=
07747,1996-04-13 09:00:00,20,1013.3,0.3,49,9,500,3.704,,,120,,,,,,,,,,,wg-a,,,,AAXX 13094 07747 12600 /1202 10200 20090 30078 40133 53003 60006 81142 90900=
07747,1996-04-13 12:00:00,24,1011.9,-1.3,31,6,25000,29.632,,,340,,,,,,,,,,,wg-a,,,,AAXX 13124 07747 12675 73416 10240 20060 30065 40119 56013 60006 81842 91200=
07747,1996-04-13 14:00:00,23,1012.6,0.8,33,6,18000,0,,,320,11.2,24.5,,,,,,,,,wg-a,,,,AAXX 13144 07747 12568 732// 10230 20060 30071 40126 53008 60006 83842 91400 333 10245 20112=
07747,1996-04-13 15:00:00,22,1011.8,-0.2,35,6,15000,22.224,,,340,,,,,,,,,,,wg-a,,,,AAXX 13154 07747 12565 73412 10220 20060 30063 40118 55002 60006 86842 91500=
07747,1996-04-13 18:00:00,22,1012.6,0.8,33,5,18000,22.224,,,320,11.2,24.5,,,,,,,,,wg-a,,,,AAXX 13184 07747 12568 73212 10220 20050 30071 40126 53008 60006 83842 91800 333 10245 20112=
07747,1996-04-13 21:00:00,18,1014.9,2.2,45,6,15000,14.816,,,310,,,,,,,,,,,wg-a,,,,AAXX 13214 07747 12565 33108 10180 20060 30093 40149 53022 60006 81802 92100=
07747,1996-04-14 00:00:00,17,1015.8,0.9,48,6,15000,29.632,,,320,,,,,,,,,,,wg-a,,,,AAXX 14004 07747 12665 /3216 10170 20060 30102 40158 51009 60006 81500 90000=
07747,1996-04-14 06:00:00,15,1017.7,1.5,41,2,500,29.632,,,330,13.9,21.5,,,,,,,,,wg-a,,,,AAXX 14064 07747 02500 23316 10150 20020 30121 40177 51015 60006 81840 90600 333 10215 20139 60004=
07747,1996-04-14 09:00:00,17,1018.4,0.7,45,5,60000,31.484,,,330,,,,,,,,,,,wg-a,,,,AAXX 14094 07747 12586 63317 10170 20050 30128 40184 51007 60006 83841 90900=
07747,1996-04-14 12:00:00,19,1018.4,0,46,7,25000,29.632,,46.3,330,,,,,,,,,,,wg-a,,,,AAXX 14124 07747 12575 83316 10190 20070 30128 40184 50000 60006 8387/ 91200 333 91025=
07747,1996-04-14 15:00:00,18,1018.1,-0.3,49,7,25000,22.224,,,330,,,,,,,,,,,wg-a,,,,AAXX 14154 07747 12575 83312 10180 20070 30125 40181 58003 60006 8587/ 91500=
07747,1996-04-14 18:00:00,17,1018,-0.1,52,7,25000,31.484,,,330,14.8,19.4,,,,,,,,,wg-a,,,,AAXX 14184 07747 12575 73317 10170 20070 30124 40180 55001 60006 82242 91800 333 10194 20148=
07747,1996-04-14 21:00:00,15,1020.8,2.8,67,9,25000,29.632,,,310,,,,,,,,,,,wg-a,,,,AAXX 14214 07747 12575 /3116 10150 20090 30152 40208 51028 60006 81142 92100=
07747,1996-04-15 00:00:00,15,1021.1,0.2,67,9,20000,29.632,,,320,,,,1,,,,,,2,wg-a,,,,AAXX 15004 07747 02/70 03216 10150 20090 30154 40211 53002 60016 70286 80000 90000 333 60017=
07747,1996-04-15 03:00:00,14,1021.3,0.2,67,8,20000,18.52,,,330,,,,,,,,,,,wg-a,,,,AAXX 15034 07747 12570 43310 10140 20080 30156 40213 53002 60006 84800 90300=
07747,1996-04-15 06:00:00,14,1021.9,0.6,67,8,15000,22.224,,,360,13.3,17.4,,,,,1,,,,wg-a,,,,AAXX 15064 07747 12565 73612 10140 20080 30162 40219 53006 60014 878// 90600 333 10174 20133=
07747,1996-04-15 09:00:00,14,1023,1.1,58,6,20000,22.224,,,330,,,,,,,,,,,wg-a,,,,AAXX 15094 07747 12570 63312 10140 20060 30173 40230 52011 60006 85840 90900=
07747,1996-04-15 12:00:00,17,1022,-0.9,48,6,20000,35.188,,,320,,,,,,,,,,,wg-a,,,,AAXX 15124 07747 12570 43219 10170 20060 30164 40220 58009 60006 83142 91200=
07747,1996-04-15 15:00:00,18,1021,-1,49,7,25000,35.188,,,320,,,,,,,,,,,wg-a,,,,AAXX 15154 07747 12575 23219 10180 20070 30154 40210 56010 60006 82140 91500=
07747,1996-04-15 21:00:00,14,1021.6,1.1,51,4,25000,14.816,,,270,,,,,,,,,,,wg-a,,,,AAXX 15214 07747 12/75 02708 10140 20040 30159 40216 52011 60006 80000 92100=
07747,1996-04-16 00:00:00,12,1021.1,-0.5,58,4,25000,11.112,,,260,,,,,,,,,,,wg-a,,,,AAXX 16004 07747 12/75 02606 10120 20040 30154 40211 58005 60006 80000 90000=
07747,1996-04-16 03:00:00,8,1019.7,-1.5,76,4,25000,7.408,,,270,,,,,,,,,,,wg-a,,,,AAXX 16034 07747 12/75 02704 10080 20040 30139 40197 56015 60006 80000 90300=
07747,1996-04-16 06:00:00,7,1018.6,-1.1,81,4,60000,0,,,0,6.2,16.4,,,,,,,,,wg-a,,,,AAXX 16064 07747 02/86 20000 10070 20040 30128 40186 56011 60006 80001 90600 333 10164 20062 60004=
07747,1996-04-16 09:00:00,16,1016.9,-1.5,55,7,40000,18.52,,,100,,,,,,,,,,,wg-a,,,,AAXX 16094 07747 12/82 41010 10160 20070 30113 40169 58015 60006 80004 90900=
07747,1996-04-16 12:00:00,17,1014.6,-2.3,68,11,25000,22.224,,,100,,,,,,,,,,,wg-a,,,,AAXX 16124 07747 12/75 61012 10170 20110 30090 40146 58023 60006 80002 91200=
07747,1996-04-16 15:00:00,17,1011.7,-2.8,72,12,8000,25.928,,,50,,,,,,,,,,,wg-a,,,,AAXX 16154 07747 12/58 /0514 10170 20120 30062 40117 57028 60006 81032 91500=
07747,1996-04-16 18:00:00,15,1011,-0.8,77,11,9000,14.816,,,70,6.8,17.9,,,,,,,,,wg-a,,,,AAXX 16184 07747 12/59 70708 10150 20110 30054 40110 56008 60006 86082 91800 333 10179 20068=
07747,1996-04-17 00:00:00,14,1011,-0.1,82,11,8000,14.816,,,310,,,,,,,,,,,wg-a,,,,AAXX 17004 07747 12558 73108 10140 20110 30054 40110 55001 60006 8337/ 90000=
07747,1996-04-17 03:00:00,15,1010.3,-0.7,59,7,12000,29.632,,,320,,,,,,,,,,,wg-a,,,,AAXX 17034 07747 12462 73216 10150 20070 30047 40103 55007 60006 8687/ 90300=
07747,1996-04-17 06:00:00,9,1011.9,1.5,81,6,6000,38.892,,64.82,320,8.5,15.2,,4,,,4,,,61,wg-a,,,,AAXX 17064 07747 02456 83221 10090 20060 30062 40119 53015 60044 76162 878// 90600 333 10152 20085 60047 91035=
07747,1996-04-17 09:00:00,12,1013.3,1.4,67,6,500,35.188,,,320,,,,0,,,,,,2,wg-a,,,,AAXX 17094 07747 12500 73219 10120 20060 30076 40133 53014 60007 70262 878// 90900=
07747,1996-04-17 12:00:00,13,1014.7,1.5,58,5,500,31.484,,,320,,,,,,,,,,2,wg-a,,,,AAXX 17124 07747 12500 73217 10130 20050 30091 40147 51015 60006 70262 878// 91200=
07747,1996-04-17 15:00:00,14,1015.1,0.4,58,6,20000,35.188,,,310,,,,,,,,,,,wg-a,,,,AAXX 17154 07747 12570 73119 10140 20060 30095 40151 53004 60006 878// 91500=
07747,1996-04-17 18:00:00,12,1017.5,2.3,62,5,45000,29.632,,,310,8.9,16.3,,,,,,,,,wg-a,,,,AAXX 17184 07747 32583 /3116 10120 20050 30118 40175 53023 82801 91800 333 10163 20089=
07747,1996-04-17 21:00:00,12,1019,1.5,62,5,25000,35.188,,,320,,,,,,,,,,,wg-a,,,,AAXX 17214 07747 12575 /3219 10120 20050 30133 40190 53015 60006 81100 92100=
07747,1996-04-18 00:00:00,12,1019.6,0.6,62,5,25000,35.188,,,320,,,,,,,,,,,wg-a,,,,AAXX 18004 07747 12575 13219 10120 20050 30139 40196 50006 60006 81100 90000=
07747,1996-04-18 03:00:00,12,1020.3,0.7,62,5,25000,22.224,,,330,,,,,,,,,,,wg-a,,,,AAXX 18034 07747 12/75 03312 10120 20050 30146 40203 52007 60006 80000 90300=
07747,1996-04-18 06:00:00,12,1020.7,0.4,62,5,60000,29.632,,,310,10.9,12.4,,,,,,,,,wg-a,,,,AAXX 18064 07747 02586 23116 10120 20050 30150 40207 53004 60006 81102 90600 333 10124 20109 60004=
07747,1996-04-18 12:00:00,20,1019.2,-1.5,28,1,60000,22.224,,,20,,,,,,,,,,,wg-a,,,,AAXX 18124 07747 12586 /0212 10200 20010 30136 40192 58015 60006 81102 91200=
07747,1996-04-18 15:00:00,21,1017.7,-1.4,35,5,60000,11.112,,,100,,,,,,,,,,,wg-a,,,,AAXX 18154 07747 12586 31006 10210 20050 30122 40177 56014 60006 81102 91500=
07747,1996-04-18 18:00:00,17,1018.3,0.5,39,3,40000,11.112,,,170,11.5,21.2,,,,,,,,,wg-a,,,,AAXX 18184 07747 12/82 71706 10170 20030 30127 40183 53005 60006 80002 91800 333 10212 20115=
07747,1996-04-18 21:00:00,13,1019.4,1,54,4,500,11.112,,,260,,,,,,,,,,,wg-a,,,,AAXX 18214 07747 12/00 42606 10130 20040 30137 40194 51010 60006 80002 92100=
07747,1996-04-19 00:00:00,9,1019.3,-0.2,76,5,500,11.112,,,240,,,,,,,,,,,wg-a,,,,AAXX 19004 07747 12/00 22406 10090 20050 30135 40193 58002 60006 80002 90000=
07747,1996-04-19 03:00:00,8,1018.9,-0.4,81,5,20000,3.704,,,220,,,,,,,,,,,wg-a,,,,AAXX 19034 07747 12/70 22202 10080 20050 30131 40189 56004 60006 80002 90300=
07747,1996-04-19 06:00:00,8,1019.6,0.7,87,6,60000,0,,,0,6.4,16.9,,,,,,,,,wg-a,,,,AAXX 19064 07747 02/86 20000 10080 20060 30138 40196 53007 60006 80001 90600 333 10169 20064 60004=
07747,1996-04-19 09:00:00,16,1019.3,-0.1,63,9,60000,18.52,,,100,,,,,,,,,,,wg-a,,,,AAXX 19094 07747 12486 /1010 10160 20090 30137 40193 58001 60006 81101 90900=
07747,1996-04-19 12:00:00,22,1017.7,-1.5,41,8,10000,29.632,,,130,,,,,,,,,,,wg-a,,,,AAXX 19124 07747 12/60 /1316 10220 20080 30122 40177 58015 60006 91200=
07747,1996-04-19 15:00:00,20,1016.8,-0.9,46,8,10000,29.632,,,140,,,,,,,,,,,wg-a,,,,AAXX 19154 07747 12/60 /1416 10200 20080 30113 40168 56009 60006 91500=
07747,1996-04-19 18:00:00,16,1016.5,-0.4,59,8,50000,22.224,,,140,7.7,22.2,,,,,,,,,wg-a,,,,AAXX 19184 07747 12/84 51412 10160 20080 30109 40165 55004 60006 80001 91800 333 10222 20077=
07747,1996-04-19 21:00:00,13,1017.9,1.3,72,8,25000,7.408,,,360,,,,,,,,,,,wg-a,,,,AAXX 19214 07747 12/75 33604 10130 20080 30122 40179 51013 60006 80002 92100=
07747,1996-04-20 00:00:00,10,1017.5,-0.4,87,8,0,7.408,,,30,,,,,,,,,,,wg-a,,,,AAXX 20004 07747 12/// /0304 10100 20080 30118 40175 57004 60006 90000=
07747,1996-04-20 03:00:00,13,1016,-1.5,58,5,25000,29.632,,,150,,,,,,,,,,,wg-a,,,,AAXX 20034 07747 12/75 31516 10130 20050 30103 40160 56015 60006 80002 90300=
07747,1996-04-20 06:00:00,15,1016.5,0.6,51,5,60000,25.928,,,160,10.1,15.9,,,,,,,,,wg-a,,,,AAXX 20064 07747 02586 /1614 10150 20050 30109 40165 53006 60006 81142 90600 333 10159 20101 60004=
07747,1996-04-20 09:00:00,19,1016.9,0.4,32,2,40000,29.632,,,170,,,,,,,,,,,wg-a,,,,AAXX 20094 07747 12782 71716 10190 20020 30113 40169 50004 60006 81532 90900=
07747,1996-04-20 12:00:00,18,1016.2,-0.6,59,10,500,35.188,,,130,,,,,,,,,,,wg-a,,,,AAXX 20124 07747 12600 71319 10180 20100 30107 40162 58006 60006 81832 91200=
07747,1996-04-20 15:00:00,19,1014.4,-1.8,52,9,500,31.484,,,130,,,,,,,,,,,wg-a,,,,AAXX 20154 07747 12600 /1317 10190 20090 30089 40144 58018 60006 82802 91500=
07747,1996-04-20 18:00:00,15,1014.8,0.3,72,10,40000,22.224,,,130,14.7,19.8,,,,,,,,,wg-a,,,,AAXX 20184 07747 12482 61312 10150 20100 30092 40148 53003 60006 82882 91800 333 10198 20147=
07747,1996-04-20 21:00:00,14,1014.9,0.1,77,10,11000,22.224,,,140,,,,,,,,,,,wg-a,,,,AAXX 20214 07747 12/61 /1412 10140 20100 30093 40149 53001 60006 92100=
07747,1996-04-21 00:00:00,14,1014.7,-0.2,82,11,40000,22.224,,,130,,,,,,,,,,,wg-a,,,,AAXX 21004 07747 12482 61312 10140 20110 30091 40147 58002 60006 82582 90000=
07747,1996-04-21 03:00:00,14,1013.8,-0.9,82,11,15000,29.632,,,120,,,,,,,,,,,wg-a,,,,AAXX 21034 07747 12465 81216 10140 20110 30082 40138 56009 60006 83582 90300=
07747,1996-04-21 06:00:00,14,1013.3,-0.5,82,11,10000,18.52,,,110,13.6,15.6,,,,,,,,,wg-a,,,,AAXX 21064 07747 02460 71110 10140 20110 30077 40133 56005 60006 8458/ 90600 333 10156 20136 60004=
07747,1996-04-21 09:00:00,15,1014.1,0.8,77,11,7000,25.928,,,120,,,,,,,,,,,wg-a,,,,AAXX 21094 07747 12457 81214 10150 20110 30085 40141 53008 60006 887// 90900=
07747,1996-04-21 12:00:00,16,1013.8,-0.3,72,11,6000,31.484,,,130,,,,,,,,,,,wg-a,,,,AAXX 21124 07747 12356 81317 10160 20110 30082 40138 58003 60006 887// 91200=
07747,1996-04-21 15:00:00,15,1012.3,-1.5,77,11,4000,29.632,,,140,,,,,,,,,,10,wg-a,,,,AAXX 21154 07747 12340 81416 10150 20110 30067 40123 58015 60006 71022 887// 91500=
07747,1996-04-21 18:00:00,15,1011.9,-0.4,82,12,3000,29.632,,,130,13.6,16.2,,,,,,,,10,wg-a,,,,AAXX 21184 07747 12330 81316 10150 20120 30063 40119 56004 60006 71022 887// 91800 333 10162 20136=
07747,1996-04-21 21:00:00,14,1013.1,1.2,88,12,3000,22.224,,,130,,,,,,,,,,10,wg-a,,,,AAXX 21214 07747 12230 81312 10140 20120 30075 40131 51012 60006 71022 887// 92100=
07747,1996-04-22 03:00:00,14,1010.7,-1.2,94,13,4000,18.52,,,130,,,,,,,,,,10,wg-a,,,,AAXX 22034 07747 12240 81310 10140 20130 30051 40107 56012 60006 71022 887// 90300=
07747,1996-04-22 06:00:00,14,1010.4,-0.3,94,13,7000,31.484,,,130,13.7,14.6,,,,,,,,,wg-a,,,,AAXX 22064 07747 02357 81317 10140 20130 30048 40104 55003 60006 85782 90600 333 10146 20137 60004=
07747,1996-04-22 09:00:00,15,1011.4,1,88,13,6000,29.632,,,140,,,,1,,,,,,21,wg-a,,,,AAXX 22094 07747 12256 81416 10150 20130 30058 40114 50010 60017 72162 877// 90900=
07747,1996-04-22 12:00:00,15,1011,-0.4,94,14,3500,31.484,,,130,,,,1,,,,,,60,wg-a,,,,AAXX 22124 07747 02235 81317 10150 20140 30054 40110 58004 60016 76062 877// 91200 333 60017=
07747,1996-04-22 15:00:00,15,1009.5,-1.5,88,13,6000,25.928,,,120,,,,,,,,,,61,wg-a,,,,AAXX 22154 07747 02256 81214 10150 20130 30039 40095 58015 61000 76162 877// 91500 333 ////=
07747,1996-04-22 18:00:00,14,1009.1,-0.4,100,14,2000,25.928,,,130,13.9,15.6,,1,,,,,,61,wg-a,,,,AAXX 22184 07747 12220 81314 10140 20140 30035 40091 57004 60017 76162 877// 91800 333 10156 20139=
07747,1996-04-22 21:00:00,14,1009.6,0.5,94,13,500,31.484,,,130,,,,0,,,,,,1,wg-a,,,,AAXX 22214 07747 12300 81317 10140 20130 30040 40096 50005 60007 70162 876// 92100=
07747,1996-04-23 00:00:00,14,1009.2,-0.4,100,14,4500,14.816,,,140,,,,1,,,,,,21,wg-a,,,,AAXX 23004 07747 02345 71408 10140 20140 30036 40092 58004 60026 72162 877// 90000 333 60017=
07747,1996-04-23 03:00:00,14,1009.6,0.4,94,13,7000,11.112,,,140,,,,0,,,,,,,wg-a,,,,AAXX 23034 07747 12357 /1406 10140 20130 30040 40096 53004 60007 85600 90300=
07747,1996-04-23 06:00:00,14,1011.4,1.8,88,12,7000,18.52,,,330,13.3,14.3,,,,,4,,,10,wg-a,,,,AAXX 23064 07747 02357 73310 10140 20120 30058 40114 53018 60044 71062 875// 90600 333 10143 20133 61000=
07747,1996-04-23 09:00:00,16,1012.8,1.4,68,10,25000,14.816,,,340,,,,,,,,,,1,wg-a,,,,AAXX 23094 07747 02575 /3408 10160 20100 30072 40128 51014 61000 70162 86802 90900 333 ////=
07747,1996-04-23 12:00:00,19,1012.8,0.1,52,9,500,18.52,,,320,,,,,,,,,,1,wg-a,,,,AAXX 23124 07747 02600 73210 10190 20090 30073 40128 51001 61000 70162 86802 91200 333 ////=
07747,1996-04-23 15:00:00,16,1014.2,1.3,59,8,500,18.52,,,340,,,,,,,,,,21,wg-a,,,,AAXX 23154 07747 02600 73410 10160 20080 30086 40142 51013 61000 72162 878// 91500 333 ////=
07747,1996-04-23 18:00:00,16,1015.6,1.4,59,8,500,11.112,,,300,13.4,19,,,,,,,,3,wg-a,,,,AAXX 23184 07747 32600 73006 10160 20080 30100 40156 53014 70362 878// 91800 333 10190 20134=
07747,1996-04-23 21:00:00,14,1018.6,2.9,67,8,25000,14.816,,,300,,,,,,,,,,,wg-a,,,,AAXX 23214 07747 12675 /3008 10140 20080 30129 40186 51029 60006 85500 92100=
07747,1996-04-24 00:00:00,12,1019.7,1.1,71,7,25000,11.112,,,300,,,,,,,,,,,wg-a,,,,AAXX 24004 07747 12675 43006 10120 20070 30140 40197 51011 60006 84500 90000=
07747,1996-04-24 03:00:00,12,1019.4,-0.3,67,6,25000,11.112,,,310,,,,,,,,,,,wg-a,,,,AAXX 24034 07747 12675 /3106 10120 20060 30137 40194 58003 60006 81500 90300=
07747,1996-04-24 06:00:00,11,1020.3,0.9,76,7,60000,3.704,,,240,8.5,15.7,,,,,,,,,wg-a,,,,AAXX 24064 07747 02786 /2402 10110 20070 30146 40203 53009 60006 81532 90600 333 10157 20085 61000=
07747,1996-04-24 09:00:00,17,1021.1,0.9,48,6,60000,11.112,,,330,,,,,,,,,,,wg-a,,,,AAXX 24094 07747 12586 /3306 10170 20060 30155 40211 51009 60006 81102 90900=
07747,1996-04-24 12:00:00,20,1020.5,-0.6,37,5,40000,29.632,,,350,,,,,,,,,,,wg-a,,,,AAXX 24124 07747 12582 53516 10200 20050 30149 40205 58006 60006 83102 91200=
07747,1996-04-24 15:00:00,20,1020,-0.5,35,4,40000,35.188,,,340,,,,,,,,,,,wg-a,,,,AAXX 24154 07747 12582 /3419 10200 20040 30144 40200 56005 60006 82102 91500=
07747,1996-04-24 18:00:00,18,1020.5,0.5,39,4,500,29.632,,,340,10.3,20.6,,,,,,,,,wg-a,,,,AAXX 24184 07747 12600 /3416 10180 20040 30149 40205 53005 60006 81802 91800 333 10206 20103=
07747,1996-04-24 21:00:00,15,1022.1,1.5,51,5,500,31.484,,,320,,,,,,,,,,,wg-a,,,,AAXX 24214 07747 12/00 03217 10150 20050 30164 40221 52015 60006 80000 92100=
07747,1996-04-25 00:00:00,14,1021.8,-0.3,55,5,500,29.632,,,320,,,,,,,,,,,wg-a,,,,AAXX 25004 07747 12/00 03216 10140 20050 30161 40218 57003 60006 80000 90000=
07747,1996-04-25 03:00:00,14,1021.9,0.1,55,5,500,31.484,,,320,,,,,,,,,,,wg-a,,,,AAXX 25034 07747 12/00 03217 10140 20050 30162 40219 53001 60006 80000 90300=
07747,1996-04-25 06:00:00,14,1022.5,0.6,55,5,0,25.928,,,320,12.9,17.8,,,,,,,,,wg-a,,,,AAXX 25064 07747 02/// /3214 10140 20050 30168 40225 53006 60006 90600 333 10178 20129 60004=
07747,1996-04-25 09:00:00,17,1022,-0.4,39,3,50000,35.188,,,340,,,,,,,,,,,wg-a,,,,AAXX 25094 07747 12684 /3419 10170 20030 30164 40220 58004 60006 81804 90900=
07747,1996-04-25 12:00:00,19,1020.7,-1.3,32,2,45000,38.892,,,330,,,,,,,,,,,wg-a,,,,AAXX 25124 07747 12583 73321 10190 20020 30151 40207 58013 60006 81106 91200=
07747,1996-04-25 15:00:00,20,1019.5,-1.1,28,1,45000,31.484,,55.56,330,,,,,,,,,,,wg-a,,,,AAXX 25154 07747 12583 73317 10200 20010 30140 40195 57011 60006 81102 91500 333 91030=
07747,1996-04-25 18:00:00,18,1019,-0.6,30,0,45000,35.188,,,320,13.7,20.7,,,,,,,,,wg-a,,,,AAXX 25184 07747 12683 73219 10180 20000 30134 40190 58006 60006 81832 91800 333 10207 20137=
07747,1996-04-25 21:00:00,17,1020.1,1.1,36,2,20000,31.484,,,320,,,,,,,,,,,wg-a,,,,AAXX 25214 07747 12770 73217 10170 20020 30145 40201 51011 60006 81552 92100=
07747,1996-04-26 00:00:00,16,1019.5,-0.6,42,3,20000,22.224,,,320,,,,,,,,,,,wg-a,,,,AAXX 26004 07747 12/70 43212 10160 20030 30139 40195 56006 60006 8/030 90000=
07747,1996-04-26 03:00:00,14,1017.8,-1.7,47,3,18000,22.224,,,310,,,,,,,,,,,wg-a,,,,AAXX 26034 07747 12/68 53112 10140 20030 30122 40178 56017 60006 83032 90300=
07747,1996-04-26 06:00:00,14,1017.4,-0.4,47,3,60000,18.52,,,330,13.9,18.4,,,,,,,,,wg-a,,,,AAXX 26064 07747 02/86 73310 10140 20030 30118 40174 56004 60006 8707/ 90600 333 10184 20139 60004=
07747,1996-04-26 09:00:00,17,1016.8,-0.6,39,3,40000,18.52,,,340,,,,,,,,,,,wg-a,,,,AAXX 26094 07747 12/82 73410 10170 20030 30112 40168 56006 60006 8707/ 90900=
07747,1996-04-26 12:00:00,18,1016,-0.8,37,3,500,22.224,,,350,,,,,,,,,,,wg-a,,,,AAXX 26124 07747 12700 73512 10180 20030 30104 40160 58008 60006 8257/ 91200=
07747,1996-04-26 15:00:00,15,1015.5,-0.5,67,9,12000,18.52,,,320,,,,,,,,,,60,wg-a,,,,AAXX 26154 07747 02762 73210 10150 20090 30099 40155 57005 61000 76062 8457/ 91500 333 ////=
07747,1996-04-26 18:00:00,12,1014.9,-0.7,88,10,8000,11.112,,,300,12.4,18,,1,,,,,,61,wg-a,,,,AAXX 26184 07747 12558 83006 10120 20100 30092 40149 57007 60017 76162 885// 91800 333 10180 20124=
07747,1996-04-26 21:00:00,12,1015.4,0.5,88,10,7000,14.816,,,290,,,,1,,,,,,60,wg-a,,,,AAXX 26214 07747 12557 82908 10120 20100 30097 40154 51005 60017 76066 885// 92100=
07747,1996-04-27 00:00:00,12,1014.3,-1.1,88,10,6000,14.816,,,300,,,,1,,,,,,60,wg-a,,,,AAXX 27004 07747 02456 83008 10120 20100 30086 40143 58011 60026 76066 885// 90000 333 60017=
07747,1996-04-27 03:00:00,12,1013.1,-1.2,94,11,9000,7.408,,,260,,,,1,,,,,,21,wg-a,,,,AAXX 27034 07747 12459 82604 10120 20110 30074 40131 56012 60017 72162 885// 90300=
07747,1996-04-27 06:00:00,12,1013,-0,94,11,11000,3.704,,,240,11.7,12.4,,,,,5,,,,wg-a,,,,AAXX 27064 07747 12/61 /2402 10120 20110 30074 40130 55000 60054 90600 333 10124 20117=
07747,1996-04-27 09:00:00,14,1013.1,0.1,82,11,20000,3.704,,,310,,,,,,,,,,,wg-a,,,,AAXX 27094 07747 12570 83102 10140 20110 30075 40131 51001 60006 878// 90900=
07747,1996-04-27 12:00:00,16,1012.5,-0.6,77,12,15000,11.112,,,80,,,,,,,,,,,wg-a,,,,AAXX 27124 07747 12565 80806 10160 20120 30069 40125 58006 60006 878// 91200=
07747,1996-04-27 15:00:00,16,1011,-1.5,77,12,15000,7.408,,,80,,,,,,,,,,,wg-a,,,,AAXX 27154 07747 12565 70804 10160 20120 30054 40110 56015 60006 8487/ 91500=
07747,1996-04-27 18:00:00,14,1011.2,0.2,88,12,15000,7.408,,,100,12.2,16.7,,,,,,,,60,wg-a,,,,AAXX 27184 07747 02565 81004 10140 20120 30056 40112 53002 61000 76062 878// 91800 333 10167 20122 ////=
07747,1996-04-27 21:00:00,14,1012,0.8,94,13,12000,3.704,,,220,,,,,,,,,,60,wg-a,,,,AAXX 27214 07747 02562 82202 10140 20130 30064 40120 51008 61000 76062 878// 92100 333 ////=
07747,1996-04-28 00:00:00,14,1011.2,-0.8,94,13,9000,3.704,,,40,,,,0,,,,,,61,wg-a,,,,AAXX 28004 07747 02559 80402 10140 20130 30056 40112 58008 60006 76162 875// 90000 333 60007=
07747,1996-04-28 03:00:00,13,1010,-1.2,94,12,12000,3.704,,,40,,,,0,,,,,,21,wg-a,,,,AAXX 28034 07747 12562 80402 10130 20120 30044 40100 56012 60007 72162 875// 90300=
07747,1996-04-28 06:00:00,13,1009.5,-0.5,94,12,6000,3.704,,,10,12.6,14.4,,,,,1,,,50,wg-a,,,,AAXX 28064 07747 02456 80102 10130 20120 30039 40095 56005 60014 75065 877// 90600 333 10144 20126 61000=
07747,1996-04-28 09:00:00,13,1009.2,-0.3,100,13,500,7.408,,,70,,,,3,,,,,,61,wg-a,,,,AAXX 28094 07747 12200 80704 10130 20130 30036 40092 58003 60037 76165 877// 90900=
07747,1996-04-28 12:00:00,14,1008.4,-0.8,94,13,6000,11.112,,,60,,,,1,,,,,,60,wg-a,,,,AAXX 28124 07747 02256 80606 10140 20130 30028 40084 58008 60046 76065 887// 91200 333 60017=
07747,1996-04-28 15:00:00,14,1007.1,-1.3,94,13,7000,11.112,,,80,,,,2,,,,,,61,wg-a,,,,AAXX 28154 07747 12357 80806 10140 20130 30015 40071 58013 60027 76166 887// 91500=
07747,1996-04-28 18:00:00,13,1006.9,-0.2,100,13,6000,11.112,,,70,12.9,14.2,,0,,,,,,60,wg-a,,,,AAXX 28184 07747 12156 80706 10130 20130 30013 40069 56002 60007 76066 882// 91800 333 10142 20129=
07747,1996-04-28 21:00:00,13,1007.4,0.5,100,13,500,3.704,,,20,,,,3,,,,,,61,wg-a,,,,AAXX 28214 07747 12200 80202 10130 20130 30018 40074 51005 60037 76166 887// 92100=
07747,1996-04-29 00:00:00,13,1006.4,-1,100,13,8000,3.704,,,280,,,,3,,,,,,60,wg-a,,,,AAXX 29004 07747 02258 82802 10130 20130 30008 40064 58010 60066 76066 887// 90000 333 60037=
07747,1996-04-29 03:00:00,13,1005.1,-1.3,94,12,10000,7.408,,,310,,,,1,,,,,,21,wg-a,,,,AAXX 29034 07747 12460 83104 10130 20120 39995 40051 56013 60017 72162 885// 90300=
07747,1996-04-29 06:00:00,13,1005.3,0.2,94,12,4000,3.704,,,340,12.8,13.4,,5,,,17,,,61,wg-a,,,,AAXX 29064 07747 02240 83402 10130 20120 39997 40053 53002 60174 76162 887// 90600 333 10134 20128 60057=
07747,1996-04-29 09:00:00,14,1006.1,0.8,94,13,7000,7.408,,,350,,,,4,,,,,,60,wg-a,,,,AAXX 29094 07747 12257 83504 10140 20130 30005 40061 52008 60047 76066 887// 90900=
07747,1996-04-29 12:00:00,15,1005.6,-0.5,94,14,7000,7.408,,,340,,,,3,,,,,,60,wg-a,,,,AAXX 29124 07747 02157 83404 10150 20140 30000 40056 58005 60076 76066 887// 91200 333 60037=
07747,1996-04-29 15:00:00,16,1004.2,-1.3,82,13,9000,18.52,,,310,,,,1,,,,,,21,wg-a,,,,AAXX 29154 07747 12259 73110 10160 20130 39987 40042 58013 60017 72162 878// 91500=
07747,1996-04-29 18:00:00,15,1004.2,-0,82,12,8000,22.224,,,330,12.9,16.6,,0,,,,,,80,wg-a,,,,AAXX 29184 07747 12558 73312 10150 20120 39987 40042 55000 60007 78086 8685/ 91800 333 10166 20129=
07747,1996-04-29 21:00:00,14,1006.1,1.8,82,11,9000,25.928,,,300,,,,1,,,,,,21,wg-a,,,,AAXX 29214 07747 12559 83014 10140 20110 30005 40061 51018 60017 72162 878// 92100=
07747,1996-04-30 00:00:00,13,1005.9,-0.2,82,10,8000,18.52,,,330,,,,0,,,,,,60,wg-a,,,,AAXX 30004 07747 02458 83310 10130 20100 30003 40059 58002 60016 76062 878// 90000 333 60007=
07747,1996-04-30 03:00:00,14,1004.9,-1,67,8,12000,35.188,,,330,,,,0,,,,,,2,wg-a,,,,AAXX 30034 07747 12562 83319 10140 20080 39993 40049 56010 60007 70262 878// 90300=
07747,1996-04-30 04:00:00,13,1005.3,0.4,62,6,20000,35.188,,,320,12.8,15.5,,,,,10,,,1,wg-a,,,,AAXX 30044 07747 12570 73219 10130 20060 39997 40053 53004 60104 70162 8583/ 90400 333 10155 20128=
07747,1996-04-30 06:00:00,13,1005.3,0.4,62,6,20000,35.188,,57.412,320,12.8,15.5,,,,,10,,,1,wg-a,,,,AAXX 30064 07747 12570 73219 10130 20060 39997 40053 53004 60104 70162 8583/ 90600 333 10155 20128 91031=
07747,1996-04-30 09:00:00,15,1005.7,0.4,55,6,20000,31.484,,,320,,,,,,,,,,,wg-a,,,,AAXX 30094 07747 12570 /3217 10150 20060 30001 40057 50004 60006 83830 90900=
07747,1996-04-30 12:00:00,18,1004.6,-1,45,6,20000,18.52,,,330,,,,,,,,,,,wg-a,,,,AAXX 30124 07747 12670 /3310 10180 20060 39991 40046 58010 60006 81830 91200=
07747,1996-04-30 15:00:00,20,1003.1,-1.4,49,9,20000,7.408,,,270,,,,,,,,,,,wg-a,,,,AAXX 30154 07747 12670 42704 10200 20090 39977 40031 58014 60006 83830 91500=
07747,1996-04-30 18:00:00,17,1002.6,-0.6,72,12,20000,11.112,,,140,12.7,20.3,,,,,,,,,wg-a,,,,AAXX 30184 07747 12570 61406 10170 20120 39971 40026 55006 60006 84832 91800 333 10203 20127=
07747,1996-04-30 21:00:00,16,1003.3,0.7,59,8,10000,11.112,,,10,,,,,,,,,,,wg-a,,,,AAXX 30214 07747 12560 80106 10160 20080 39978 40033 50007 60006 881// 92100=
07747,1996-05-01 00:00:00,13,1003.1,-0.3,82,10,15000,7.408,,,230,,,,,,,,,,,wg-a,,,,AAXX 01004 07747 12565 72304 10130 20100 39975 40031 58003 60006 871// 90000=
07747,1996-05-01 03:00:00,13,1002.1,-1,77,9,15000,11.112,,,300,,,,,,,,,,,wg-a,,,,AAXX 01034 07747 12565 73006 10130 20090 39965 40021 58010 60006 871// 90300=
07747,1996-05-01 06:00:00,13,1002.3,0.2,72,8,15000,3.704,,,290,13,17,,,,,,,,,wg-a,,,,AAXX 01064 07747 02565 82902 10130 20080 39967 40023 53002 60006 888// 90600 333 10170 20130 60004=
07747,1996-05-01 09:00:00,16,1002.2,0,59,8,15000,3.704,,,160,,,,,,,,,,,wg-a,,,,AAXX 01094 07747 12565 81602 10160 20080 39967 40022 50000 60006 888// 90900=
07747,1996-05-01 12:00:00,15,1000.9,-1.3,82,12,8000,18.52,,,110,,,,1,,,,,,61,wg-a,,,,AAXX 01124 07747 02558 81110 10150 20120 39954 40009 58013 60016 76162 8687/ 91200 333 60017=
07747,1996-05-01 15:00:00,14,1000.3,-0.6,82,11,15000,22.224,,,60,,,,8,,,,,,29,wg-a,,,,AAXX 01154 07747 12265 50612 10140 20110 39948 40003 56006 60087 72996 85900 91500=
07747,1996-05-01 18:00:00,14,1000.2,-0.1,77,10,25000,3.704,,,50,11.2,16.9,,,,,,,,1,wg-a,,,,AAXX 01184 07747 32375 20502 10140 20100 39947 40002 58001 70196 82980 91800 333 10169 20112=
07747,1996-05-01 21:00:00,11,1000.9,0.6,94,10,15000,0,,,0,,,,,,,,,,,wg-a,,,,AAXX 01214 07747 12365 /0000 10110 20100 39953 40009 53006 60006 81800 92100=
07747,1996-05-02 00:00:00,10,1000.5,-0.4,93,9,15000,3.704,,,340,,,,,,,,,,,wg-a,,,,AAXX 02004 07747 12365 /3402 10100 20090 39949 40005 58004 60006 81800 90000=
07747,1996-05-02 03:00:00,8,999.4,-1.2,100,8,12000,11.112,,,350,,,,,,,,,,,wg-a,,,,AAXX 02034 07747 12362 /3506 10080 20080 39937 49994 56012 60006 86600 90300=
07747,1996-05-02 06:00:00,11,1000.2,0.9,82,8,40000,11.112,,,300,7.3,14.3,,0,,,9,,,,wg-a,,,,AAXX 02064 07747 02382 23006 10110 20080 39946 40002 53009 60094 81830 90600 333 10143 20073 60007=
07747,1996-05-02 09:00:00,13,1001.6,1.4,58,5,500,18.52,,,320,,,,,,,,,,,wg-a,,,,AAXX 02094 07747 12400 73210 10130 20050 39960 40016 51014 60006 878// 90900=
07747,1996-05-02 12:00:00,15,1001.3,-0.2,44,3,500,14.816,,,360,,,,,,,,,,1,wg-a,,,,AAXX 02124 07747 02500 /3608 10150 20030 39958 40013 56002 61000 70161 86800 91200 333 6100=
07747,1996-05-02 15:00:00,14,1001.8,0.4,63,7,500,14.816,,,190,,,,,,,,,,60,wg-a,,,,AAXX 02154 07747 02500 71908 10140 20070 39962 40018 53004 61000 76062 8687/ 91500 333 ////=
07747,1996-05-02 18:00:00,11,1003.8,2,87,9,15000,18.52,,,280,11,17.7,,1,,,,,,21,wg-a,,,,AAXX 02184 07747 12465 72810 10110 20090 39982 40038 53020 60017 72162 879// 91800 333 10177 20110=
07747,1996-05-02 21:00:00,9,1005.5,1.6,81,6,15000,7.408,,,320,,,,1,,,,,,1,wg-a,,,,AAXX 02214 07747 12465 53204 10090 20060 39998 40055 50016 60017 70162 85800 92100=
07747,1996-05-03 00:00:00,7,1004.5,-1,93,6,25000,3.704,,,310,,,,,,,,,,1,wg-a,,,,AAXX 03004 07747 12/75 03102 10070 20060 39988 40045 58010 60016 70161 80000 90000=
07747,1996-05-03 03:00:00,6,1004.6,0.1,93,5,500,7.408,,,280,,,,0,,,,,,,wg-a,,,,AAXX 03034 07747 12500 22804 10060 20050 39989 40046 53001 60007 82500 90300=
07747,1996-05-03 06:00:00,8,1005.7,1.1,87,6,60000,14.816,,,240,5.8,11.2,,,,,2,,,,wg-a,,,,AAXX 03064 07747 12786 22408 10080 20060 30000 40057 51011 60024 81530 90600 333 10112 20058=
07747,1996-05-03 09:00:00,15,1006.3,0.7,51,5,60000,11.112,,,170,,,,,,,,,,,wg-a,,,,AAXX 03094 07747 12686 21706 10150 20050 30007 40063 53007 60006 81242 90900=
07747,1996-05-03 12:00:00,18,1005.8,-0.4,52,8,60000,14.816,,,120,,,,,,,,,,,wg-a,,,,AAXX 03124 07747 12686 21208 10180 20080 30003 40058 58004 60006 81201 91200=
07747,1996-05-03 15:00:00,16,1006.1,0.3,55,7,500,25.928,,,150,,,,,,,,,,,wg-a,,,,AAXX 03154 07747 12600 71514 10160 20070 30006 40061 51003 60006 81982 91500=
07747,1996-05-03 18:00:00,15,1007.7,1.5,67,9,500,14.816,,,10,7.9,18.4,,,,,,,,,wg-a,,,,AAXX 03184 07747 12500 70108 10150 20090 30021 40077 53015 60006 84842 91800 333 10184 20079=
07747,1996-05-03 21:00:00,14,1009.1,1.4,77,10,25000,11.112,,,260,,,,,,,,,,,wg-a,,,,AAXX 03214 07747 12775 72606 10140 20100 30035 40091 51014 60006 82541 92100=
07747,1996-05-04 00:00:00,13,1009.9,0.8,72,8,25000,3.704,,,350,,,,,,,,,,,wg-a,,,,AAXX 04004 07747 12775 33502 10130 20080 30043 40099 52008 60006 81540 90000=
07747,1996-05-04 03:00:00,10,1010.1,0.1,87,8,500,11.112,,,280,,,,,,,,,,,wg-a,,,,AAXX 04034 07747 12600 /2806 10100 20080 30044 40101 53001 60006 81530 90300=
07747,1996-05-04 06:00:00,11,1011.3,1.2,87,9,60000,3.704,,,260,8.9,15,,,,,,,,,wg-a,,,,AAXX 04064 07747 02686 /2602 10110 20090 30056 40113 53012 60006 81531 90600 333 10150 20089 60004=
07747,1996-05-04 09:00:00,17,1012.4,1.2,59,9,60000,7.408,,,110,,,,,,,,,,,wg-a,,,,AAXX 04094 07747 12686 /1104 10170 20090 30068 40124 51012 60006 81200 90900=
07747,1996-05-04 12:00:00,18,1012.7,0.4,68,12,60000,18.52,,,110,,,,,,,,,,,wg-a,,,,AAXX 04124 07747 12686 /1110 10180 20120 30072 40127 51004 60006 81282 91200=
07747,1996-05-04 15:00:00,18,1012.3,-0.4,59,10,60000,14.816,,,150,,,,,,,,,,,wg-a,,,,AAXX 04154 07747 12586 /1508 10180 20100 30068 40123 56004 60006 81282 91500=
07747,1996-05-04 18:00:00,16,1012.9,0.5,63,9,50000,11.112,,,90,11.2,18.4,,,,,,,,,wg-a,,,,AAXX 04184 07747 12/84 30906 10160 20090 30073 40129 53005 60006 82041 91800 333 10184 20112=
07747,1996-05-04 21:00:00,15,1013.8,0.9,82,12,40000,7.408,,,20,,,,,,,,,,,wg-a,,,,AAXX 04214 07747 12/82 70204 10150 20120 30082 40138 51009 60006 8703/ 92100=
07747,1996-05-05 00:00:00,14,1013.7,-0.1,88,12,40000,3.704,,,220,,,,,,,,,,,wg-a,,,,AAXX 05004 07747 12/82 72202 10140 20120 30081 40137 56001 60006 8703/ 90000=
07747,1996-05-05 03:00:00,12,1013.1,-0.7,88,10,40000,7.408,,,280,,,,,,,,,,,wg-a,,,,AAXX 05034 07747 12/82 72804 10120 20100 30074 40131 58007 60006 82042 90300=
07747,1996-05-05 06:00:00,13,1013.4,0.4,88,11,9000,11.112,,,360,10.9,15.7,,,,,,,,,wg-a,,,,AAXX 05064 07747 02459 73606 10130 20110 30078 40134 53004 60006 81542 90600 333 10157 20109 60004=
07747,1996-05-05 09:00:00,17,1014.2,0.8,68,11,15000,14.816,,,100,,,,,,,,,,,wg-a,,,,AAXX 05094 07747 12565 31008 10170 20110 30086 40142 51008 60006 82102 90900=
07747,1996-05-05 12:00:00,18,1013.6,-0.5,64,11,25000,22.224,,,100,,,,,,,,,,,wg-a,,,,AAXX 05124 07747 12575 31012 10180 20110 30081 40136 58005 60006 83903 91200=
07747,1996-05-05 15:00:00,18,1012.2,-1.4,68,12,500,25.928,,,110,,,,,,,,,,,wg-a,,,,AAXX 05154 07747 12500 31114 10180 20120 30067 40122 58014 60006 82903 91500=
07747,1996-05-05 18:00:00,16,1011.8,-0.5,82,13,25000,14.816,,,100,12.7,18.5,,,,,,,,,wg-a,,,,AAXX 05184 07747 12575 21008 10160 20130 30062 40118 56005 60006 81102 91800 333 10185 20127=
07747,1996-05-05 21:00:00,14,1012.4,0.6,88,12,7000,11.112,,,60,,,,,,,,,,,wg-a,,,,AAXX 05214 07747 12257 30606 10140 20120 30068 40124 51006 60006 83700 92100=
07747,1996-05-06 00:00:00,13,1011.9,-0.5,94,12,9000,7.408,,,40,,,,,,,,,,,wg-a,,,,AAXX 06004 07747 12259 20404 10130 20120 30063 40119 57005 60006 82700 90000=
07747,1996-05-06 03:00:00,12,1009.8,-2.1,94,11,10000,7.408,,,360,,,,,,,,,,,wg-a,,,,AAXX 06034 07747 12460 23604 10120 20110 30042 40098 57021 60006 82700 90300=
07747,1996-05-06 06:00:00,13,1009.7,-0.1,82,10,11000,3.704,,,40,11.2,16,,0,,,,,,,wg-a,,,,AAXX 06064 07747 02/61 /0402 10130 20100 30041 40097 55001 60004 90600 333 10160 20112 60007=
07747,1996-05-06 09:00:00,18,1009.1,-0.5,59,10,25000,25.928,,,120,,,,,,,,,,,wg-a,,,,AAXX 06094 07747 12475 /1214 10180 20100 30036 40091 58005 60006 81100 90900=
07747,1996-05-06 12:00:00,20,1008.1,-1,60,12,25000,31.484,,,140,,,,,,,,,,,wg-a,,,,AAXX 06124 07747 12575 21417 10200 20120 30026 40081 57010 60006 82800 91200=
07747,1996-05-06 15:00:00,20,1006.9,-1.2,60,12,25000,31.484,,51.856,150,,,,,,,,,,,wg-a,,,,AAXX 06154 07747 12575 31517 10200 20120 30014 40069 58012 60006 83800 91500 333 91028=
07747,1996-05-06 18:00:00,17,1006.9,-0,68,11,20000,22.224,,,130,13.3,20.2,,,,,,,,,wg-a,,,,AAXX 06184 07747 12570 61312 10170 20110 30014 40069 55000 60006 85880 91800 333 10202 20133=
07747,1996-05-06 21:00:00,16,1007.3,0.3,63,9,25000,18.52,,,160,,,,,,,,,,,wg-a,,,,AAXX 06214 07747 12475 41610 10160 20090 30017 40073 51003 60006 82880 92100=
07747,1996-05-07 00:00:00,15,1007.5,0.2,82,12,25000,18.52,,,140,,,,,,,,,,,wg-a,,,,AAXX 07004 07747 12475 71410 10150 20120 30019 40075 50002 60006 8488/ 90000=
07747,1996-05-07 03:00:00,16,1006.4,-1,72,11,25000,14.816,,,160,,,,,,,,,,,wg-a,,,,AAXX 07034 07747 12475 71608 10160 20110 30009 40064 56010 60006 8488/ 90300=
07747,1996-05-07 06:00:00,15,1005.4,-1,94,14,10000,18.52,,,150,14.6,17.5,,2,,,2,,,61,wg-a,,,,AAXX 07064 07747 02260 71510 10150 20140 39999 40054 58010 60024 76162 878// 90600 333 10175 20146 60027=
07747,1996-05-07 09:00:00,20,1004.7,-0.7,64,13,25000,22.224,,,160,,,,0,,,,,,2,wg-a,,,,AAXX 07094 07747 12475 41612 10200 20130 39992 40047 58007 60007 70261 83802 90900=
07747,1996-05-07 12:00:00,20,1004.2,-0.4,68,14,25000,31.484,,,140,,,,,,,,,,2,wg-a,,,,AAXX 07124 07747 02575 61417 10200 20140 39988 40042 58004 61000 70261 83902 91200 333 ////=
07747,1996-05-07 15:00:00,20,1003.7,-0.5,73,15,25000,31.484,,,130,,,,,,,,,,,wg-a,,,,AAXX 07154 07747 12575 61317 10200 20150 39983 40037 58005 60006 83902 91500=
07747,1996-05-07 18:00:00,18,1005,1.2,77,14,15000,18.52,,,350,14.9,21.7,,,,,,,,,wg-a,,,,AAXX 07184 07747 32565 63510 10180 20140 39995 40050 53012 84902 91800 333 10217 20149=
07747,1996-05-07 21:00:00,16,1007.5,2.5,82,13,20000,7.408,,,310,,,,,,,,,,,wg-a,,,,AAXX 07214 07747 12570 53104 10160 20130 30020 40075 52025 60006 83202 92100=
07747,1996-05-08 00:00:00,14,1008.6,1,94,13,20000,7.408,,,210,,,,,,,,,,,wg-a,,,,AAXX 08004 07747 12570 52104 10140 20130 30030 40086 53010 60006 83202 90000=
07747,1996-05-08 03:00:00,14,1008.6,0,94,13,20000,0,,,0,,,,,,,,,,,wg-a,,,,AAXX 08034 07747 12570 40000 10140 20130 30030 40086 50000 60006 82102 90300=
07747,1996-05-08 06:00:00,15,1009.9,1.3,88,13,15000,7.408,,,320,12.7,18.1,,,,,,,,,wg-a,,,,AAXX 08064 07747 02565 73204 10150 20130 30043 40099 53013 60006 8393/ 90600 333 10181 20127 61000=
07747,1996-05-08 09:00:00,16,1011.9,2,72,11,500,7.408,,,330,,,,,,,,,,60,wg-a,,,,AAXX 08094 07747 02500 73304 10160 20110 30063 40119 53020 61000 76062 8597/ 90900 333 ////=
07747,1996-05-08 12:00:00,19,1011.5,-0.3,56,10,25000,14.816,,,350,,,,0,,,,,,3,wg-a,,,,AAXX 08124 07747 02575 73508 10190 20100 30060 40115 56003 60006 70362 84942 91200 333 60007=
07747,1996-05-08 15:00:00,20,1010.5,-1,56,11,25000,7.408,,,300,,,,,,,,,,,wg-a,,,,AAXX 08154 07747 12575 63004 10200 20110 30050 40105 58010 60006 84940 91500=
07747,1996-05-08 18:00:00,18,1010.5,-0,64,11,25000,7.408,,,230,14.5,20.6,,,,,,,,,wg-a,,,,AAXX 08184 07747 32575 42304 10180 20110 30050 40105 55000 84900 91800 333 10206 20145=
07747,1996-05-08 21:00:00,16,1011.6,1,82,13,15000,3.704,,,300,,,,,,,,,,60,wg-a,,,,AAXX 08214 07747 02565 73002 10160 20130 30060 40116 51010 61000 76061 878// 92100 333 ////=
07747,1996-05-09 00:00:00,14,1010.3,-1.3,88,12,15000,11.112,,,310,,,,,,,,,,,wg-a,,,,AAXX 09004 07747 02765 33106 10140 20120 30047 40103 58013 61000 83500 90000 333 6100=
07747,1996-05-09 03:00:00,15,1009.1,-1.2,77,11,15000,14.816,,,290,,,,,,,,,,,wg-a,,,,AAXX 09034 07747 12765 /2908 10150 20110 30035 40091 57012 60006 85500 90300=
07747,1996-05-09 06:00:00,15,1009.5,0.4,72,10,500,7.408,,,290,13.5,17.7,,,,,,,,,wg-a,,,,AAXX 09064 07747 12500 72904 10150 20100 30039 40095 53004 60004 8383/ 90600 333 10177 20135=
07747,1996-05-09 09:00:00,19,1008.9,-0.5,56,10,40000,11.112,,,300,,,,,,,,,,,wg-a,,,,AAXX 09094 07747 12682 73006 10190 20100 30034 40089 58005 60006 82832 90900=
07747,1996-05-09 12:00:00,22,1006.8,-2,46,10,500,11.112,,,320,,,,,,,,,,,wg-a,,,,AAXX 09124 07747 12600 33206 10220 20100 30014 40068 58020 60006 82903 91200=
07747,1996-05-09 15:00:00,17,1005.9,-1,82,14,15000,22.224,,,180,,,,2,,,,,,80,wg-a,,,,AAXX 09154 07747 12665 71812 10170 20140 30004 40059 56010 60027 78086 879// 91500=
07747,1996-05-09 18:00:00,16,1005.6,-0.3,82,13,15000,18.52,,,250,15.5,22.4,,3,,,,,,80,wg-a,,,,AAXX 09184 07747 12665 72510 10160 20130 30001 40056 58003 60037 78098 85963 91800 333 10224 20155=
07747,1996-05-09 21:00:00,15,1006.4,0.7,82,12,20000,7.408,,,270,,,,,,,,,,1,wg-a,,,,AAXX 09214 07747 02670 32704 10150 20120 30008 40064 50007 61000 70198 81842 92100 333 ////=
07747,1996-05-10 00:00:00,15,1005.8,-0.6,77,11,20000,7.408,,,300,,,,,,,,,,3,wg-a,,,,AAXX 10004 07747 02770 /3004 10150 20110 30002 40058 58006 61000 70398 82570 90000 333 ////=
07747,1996-05-10 03:00:00,14,1005.3,-0.5,94,13,15000,3.704,,,140,,,,0,,,,,,21,wg-a,,,,AAXX 10034 07747 12665 71402 10140 20130 39997 40053 58005 60007 72122 8257/ 90300=
07747,1996-05-10 06:00:00,14,1005.1,-0.2,94,13,9000,3.704,,,240,13.4,16.6,,,,,6,,,3,wg-a,,,,AAXX 10064 07747 12359 82402 10140 20130 39995 40051 55002 60064 70362 8487/ 90600 333 10166 20134=
07747,1996-05-10 09:00:00,16,1005,-0,88,14,9000,7.408,,,170,,,,,,,,,,21,wg-a,,,,AAXX 10094 07747 02359 71704 10160 20140 39995 40050 54000 61000 72162 8787/ 90900 333 ////=
07747,1996-05-10 12:00:00,18,1004.2,-0.8,73,13,25000,3.704,,,160,,,,,,,,,,3,wg-a,,,,AAXX 10124 07747 02575 71602 10180 20130 39987 40042 58008 61000 70362 8688/ 91200 333 ////=
07747,1996-05-10 15:00:00,15,1004.2,-0,82,12,8000,7.408,,,120,,,,4,,,,,,80,wg-a,,,,AAXX 10154 07747 12458 71204 10150 20120 39987 40042 55000 60047 78096 878// 91500=
07747,1996-05-10 18:00:00,15,1004.9,0.6,77,11,20000,14.816,,,310,13.6,19.8,,3,,,,,,1,wg-a,,,,AAXX 10184 07747 12570 73108 10150 20110 39993 40049 52006 60037 70198 82843 91800 333 10198 20136=
07747,1996-05-10 21:00:00,14,1006.7,1.8,72,9,20000,11.112,,,310,,,,,,,,,,,wg-a,,,,AAXX 10214 07747 12770 73106 10140 20090 30011 40067 51018 60006 8157/ 92100=
07747,1996-05-11 00:00:00,14,1007,0.3,77,10,20000,7.408,,,300,,,,,,,,,,,wg-a,,,,AAXX 11004 07747 12770 73004 10140 20100 30014 40070 51003 60006 8157/ 90000=
07747,1996-05-11 03:00:00,13,1006.7,-0.3,82,10,20000,7.408,,,310,,,,,,,,,,,wg-a,,,,AAXX 11034 07747 12770 83104 10130 20100 30011 40067 56003 60006 875// 90300=
07747,1996-05-11 06:00:00,13,1007,0.3,82,10,10000,11.112,,,320,13.1,14.8,,,,,7,,,,wg-a,,,,AAXX 11064 07747 02760 73206 10130 20100 30014 40070 53003 60006 8757/ 90600 333 10148 20131 60074=
07747,1996-05-11 09:00:00,15,1007.4,0.4,72,10,10000,11.112,,,320,,,,,,,,,,,wg-a,,,,AAXX 11094 07747 12660 73206 10150 20100 30018 40074 52004 60006 875// 90900=
07747,1996-05-11 12:00:00,16,1007,-0.3,63,9,15000,14.816,,,320,,,,,,,,,,,wg-a,,,,AAXX 11124 07747 12565 73208 10160 20090 30015 40070 58003 60006 878// 91200=
07747,1996-05-11 15:00:00,15,1007,-0.1,63,8,11000,25.928,,,310,,,,,,,,,,,wg-a,,,,AAXX 11154 07747 12/61 /3114 10150 20080 30014 40070 57001 60006 91500=
07747,1996-05-11 18:00:00,12,1008.2,1.2,82,9,12000,25.928,,,310,11.9,17.2,,0,,,,,,61,wg-a,,,,AAXX 11184 07747 12562 73114 10120 20090 30026 40082 52012 60007 76162 878// 91800 333 10172 20119=
07747,1996-05-11 21:00:00,11,1010,1.7,82,8,12000,29.632,,,310,,,,2,,,,,,61,wg-a,,,,AAXX 11214 07747 12562 83116 10110 20080 30043 40100 53017 60027 76166 878// 92100=
07747,1996-05-12 00:00:00,10,1009.8,-0.2,82,7,12000,35.188,,,320,,,,2,,,,,,61,wg-a,,,,AAXX 12004 07747 02562 83219 10100 20070 30041 40098 58002 60046 76166 878// 90000 333 60027=
07747,1996-05-12 03:00:00,11,1009.6,-0.2,76,7,12000,35.188,,,310,,,,2,,,,,,21,wg-a,,,,AAXX 12034 07747 12562 83119 10110 20070 30039 40096 56002 60027 72162 878// 90300=
07747,1996-05-12 06:00:00,12,1011.9,2.3,67,6,20000,31.484,,59.264,310,10.1,12.1,,,,,6,,,21,wg-a,,,,AAXX 12064 07747 02570 73117 10120 20060 30062 40119 53023 60064 72162 878// 90600 333 10121 20101 61000 91032=
07747,1996-05-12 09:00:00,12,1012.8,0.9,62,5,35000,50.004,,72.228,320,,,,0,,,,,,,wg-a,,,,AAXX 12094 07747 12581 /3227 10120 20050 30071 40128 53009 60007 8680/ 90900 333 91039=
07747,1996-05-12 12:00:00,16,1013.8,1.1,48,5,15000,53.708,,81.488,320,,,,,,,,,,,wg-a,,,,AAXX 12124 07747 12565 43229 10160 20050 30082 40138 51011 60006 84800 91200 333 91044=
07747,1996-05-12 15:00:00,17,1013.7,-0.1,42,4,15000,53.708,,83.34,320,,,,,,,,,,,wg-a,,,,AAXX 12154 07747 12565 53229 10170 20040 30081 40137 55001 60006 83840 91500 333 91045=
07747,1996-05-12 18:00:00,15,1016.9,3.2,48,4,20000,35.188,,62.968,330,11.9,17.2,,,,,,,,,wg-a,,,,AAXX 12184 07747 32570 53319 10150 20040 30113 40169 51032 83241 91800 333 10172 20119 91034=
07747,1996-05-12 21:00:00,14,1019.7,2.7,47,3,20000,22.224,,,330,,,,,,,,,,,wg-a,,,,AAXX 12214 07747 12570 23312 10140 20030 30140 40197 51027 60006 82200 92100=
07747,1996-05-13 00:00:00,13,1019.9,0.2,51,3,25000,35.188,,,310,,,,,,,,,,,wg-a,,,,AAXX 13004 07747 12575 23119 10130 20030 30142 40199 50002 60006 82200 90000=
07747,1996-05-13 03:00:00,12,1019.4,-0.5,50,2,20000,29.632,,51.856,300,,,,,,,,,,,wg-a,,,,AAXX 13034 07747 12570 23016 10120 20020 30137 40194 56005 60006 82200 90300 333 91028=
07747,1996-05-13 06:00:00,12,1019.7,0.3,50,2,60000,42.596,,66.672,320,11.2,15.3,,,,,,,,,wg-a,,,,AAXX 13064 07747 02586 33223 10120 20020 30140 40197 51003 60006 83200 90600 333 10153 20112 60004 91036=
07747,1996-05-13 09:00:00,14,1018.9,-0.8,44,2,60000,38.892,,59.264,320,,,,,,,,,,,wg-a,,,,AAXX 13094 07747 12686 /3221 10140 20020 30132 40189 56008 60006 81100 90900 333 91032=
07747,1996-05-13 12:00:00,17,1017.6,-1.2,39,3,25000,35.188,,57.412,340,,,,,,,,,,,wg-a,,,,AAXX 13124 07747 12675 /3419 10170 20030 30120 40176 58012 60006 81140 91200 333 91031=
07747,1996-05-13 15:00:00,17,1016.6,-1,42,4,20000,31.484,,55.56,330,,,,,,,,,,,wg-a,,,,AAXX 13154 07747 12670 /3317 10170 20040 30110 40166 56010 60006 81101 91500 333 91030=
07747,1996-05-13 18:00:00,15,1017.3,0.7,48,4,15000,25.928,,,330,11.8,17.6,,,,,,,,,wg-a,,,,AAXX 13184 07747 12665 23314 10150 20040 30117 40173 52007 60006 81101 91800 333 10176 20118=
07747,1996-05-13 21:00:00,13,1018.5,1.1,54,4,20000,14.816,,,330,,,,,,,,,,,wg-a,,,,AAXX 13214 07747 12770 /3308 10130 20040 30128 40185 51011 60006 81501 92100=
07747,1996-05-14 00:00:00,12,1017.2,-1.3,62,5,20000,22.224,,,320,,,,,,,,,,,wg-a,,,,AAXX 14004 07747 12/70 03212 10120 20050 30115 40172 58013 60006 80000 90000=
07747,1996-05-14 03:00:00,11,1015.7,-1.5,62,4,10000,18.52,,,340,,,,,,,,,,,wg-a,,,,AAXX 14034 07747 12/60 /3410 10110 20040 30100 40157 56015 60006 90300=
07747,1996-05-14 06:00:00,12,1014.7,-1,58,4,20000,18.52,,,290,10.1,14.9,,,,,,,,,wg-a,,,,AAXX 14064 07747 02/70 22910 10120 20040 30090 40147 58010 60006 81041 90600 333 10149 20101 60004=
07747,1996-05-14 09:00:00,16,1013.6,-1,51,6,25000,14.816,,,280,,,,,,,,,,,wg-a,,,,AAXX 14094 07747 12/75 62808 10160 20060 30080 40136 57010 60006 81082 90900=
07747,1996-05-14 12:00:00,20,1011.8,-1.7,46,8,25000,3.704,,,10,,,,,,,,,,,wg-a,,,,AAXX 14124 07747 12675 70102 10200 20080 30063 40118 56017 60006 81182 91200=
07747,1996-05-14 15:00:00,19,1010.5,-1.3,49,8,25000,14.816,,,140,,,,,,,,,,,wg-a,,,,AAXX 14154 07747 12675 /1408 10190 20080 30050 40105 56013 60006 81182 91500=
07747,1996-05-14 18:00:00,17,1009.9,-0.6,52,7,25000,7.408,,,110,11.6,21,,,,,,,,,wg-a,,,,AAXX 14184 07747 12675 /1104 10170 20070 30044 40099 56006 60006 81102 91800 333 10210 20116=
07747,1996-05-14 21:00:00,14,1010.7,0.7,77,10,15000,11.112,,,280,,,,,,,,,,,wg-a,,,,AAXX 14214 07747 12/65 22806 10140 20100 30051 40107 51007 60006 80001 92100=
07747,1996-05-15 00:00:00,13,1010.1,-0.6,82,10,15000,3.704,,,240,,,,,,,,,,,wg-a,,,,AAXX 15004 07747 12/65 02402 10130 20100 30045 40101 58006 60006 80000 90000=
07747,1996-05-15 03:00:00,11,1009.8,-0.4,87,9,15000,11.112,,,250,,,,,,,,,,,wg-a,,,,AAXX 15034 07747 12/65 02506 10110 20090 30041 40098 58004 60006 80000 90300=
07747,1996-05-15 06:00:00,12,1010.4,0.7,88,10,20000,7.408,,,340,9.6,17.4,,,,,,,,,wg-a,,,,AAXX 15064 07747 02/70 53404 10120 20100 30048 40104 53007 60006 81041 90600 333 10174 20096 60004=
07747,1996-05-15 09:00:00,18,1010.3,0,68,12,11000,7.408,,,190,,,,,,,,,,,wg-a,,,,AAXX 15094 07747 12/61 /1904 10180 20120 30048 40103 50000 60006 90900=
07747,1996-05-15 12:00:00,20,1009.6,-0.7,60,12,15000,14.816,,,120,,,,,,,,,,,wg-a,,,,AAXX 15124 07747 12665 /1208 10200 20120 30041 40096 58007 60006 81100 91200=
07747,1996-05-15 15:00:00,20,1008.9,-0.7,64,13,15000,14.816,,,120,,,,,,,,,,,wg-a,,,,AAXX 15154 07747 12665 21208 10200 20130 30034 40089 56007 60006 82800 91500=
07747,1996-05-15 18:00:00,18,1008,-0.9,77,14,15000,11.112,,,40,11.9,20.2,,,,,,,,,wg-a,,,,AAXX 15184 07747 12765 20406 10180 20140 30025 40080 56009 60006 81531 91800 333 10202 20119=
07747,1996-05-15 21:00:00,15,1008.9,0.8,94,14,12000,3.704,,,90,,,,,,,,,,,wg-a,,,,AAXX 15214 07747 12/62 10902 10150 20140 30033 40089 53008 60006 81032 92100=
07747,1996-05-16 00:00:00,14,1009,0.1,94,13,10000,3.704,,,110,,,,,,,,,,,wg-a,,,,AAXX 16004 07747 12/60 11102 10140 20130 30034 40090 51001 60006 81032 90000=
07747,1996-05-16 03:00:00,14,1008.8,-0.2,94,13,8000,7.408,,,270,,,,,,,,,,,wg-a,,,,AAXX 16034 07747 12358 /2704 10140 20130 30032 40088 57002 60006 86600 90300=
07747,1996-05-16 06:00:00,14,1009.6,0.8,94,13,6000,11.112,,,260,12.7,18,,,,,,,,,wg-a,,,,AAXX 16064 07747 02356 72606 10140 20130 30040 40096 53008 60006 876// 90600 333 10180 20127 60004=
07747,1996-05-16 09:00:00,17,1009.4,-0.1,82,14,7000,11.112,,,70,,,,,,,,,,,wg-a,,,,AAXX 16094 07747 12257 /0706 10170 20140 30039 40094 58001 60006 85500 90900=
07747,1996-05-16 12:00:00,19,1008.6,-0.8,68,13,8000,22.224,,,50,,,,,,,,,,,wg-a,,,,AAXX 16124 07747 12458 30512 10190 20130 30031 40086 58008 60006 83100 91200=
07747,1996-05-16 15:00:00,21,1006.7,-1.8,69,15,10000,29.632,,,60,,,,,,,,,,,wg-a,,,,AAXX 16154 07747 12460 /0616 10210 20150 30013 40067 57018 60006 81100 91500=
07747,1996-05-16 18:00:00,20,1007,0.2,68,14,10000,11.112,,,40,14.4,21,,,,,,,,,wg-a,,,,AAXX 16184 07747 12460 /0406 10200 20140 30015 40070 53002 60006 81100 91800 333 10210 20144=
07747,1996-05-16 21:00:00,16,1008.9,1.9,88,14,9000,14.816,,,350,,,,,,,,,,,wg-a,,,,AAXX 16214 07747 12459 33508 10160 20140 30034 40089 53019 60006 83100 92100=
07747,1996-05-17 00:00:00,16,1010.9,1.9,88,14,8000,11.112,,,10,,,,,,,,,,,wg-a,,,,AAXX 17004 07747 12458 70106 10160 20140 30053 40109 51019 60006 876// 90000=
07747,1996-05-17 03:00:00,16,1009.8,-1.1,94,15,8000,3.704,,,360,,,,0,,,,,,,wg-a,,,,AAXX 17034 07747 12458 73602 10160 20150 30042 40098 55011 60007 877// 90300=
07747,1996-05-17 06:00:00,16,1008.8,-1,94,15,8000,7.408,,,90,15.4,20.1,,0,,,1,,,25,wg-a,,,,AAXX 17064 07747 02358 70904 10160 20150 30032 40088 56010 60014 72586 878// 90600 333 10201 20154 60007=
07747,1996-05-17 09:00:00,18,1008.3,-0.4,83,15,8000,18.52,,,40,,,,,,,,,,,wg-a,,,,AAXX 17094 07747 12358 70410 10180 20150 30028 40083 58004 60006 86201 90900=
07747,1996-05-17 12:00:00,20,1007.2,-1.1,73,15,10000,25.928,,,40,,,,,,,,,,,wg-a,,,,AAXX 17124 07747 12260 30414 10200 20150 30017 40072 58011 60006 82202 91200=
07747,1996-05-17 15:00:00,21,1005.1,-2,69,15,15000,25.928,,,40,,,,,,,,,,,wg-a,,,,AAXX 17154 07747 12565 30414 10210 20150 39997 40051 57020 60006 83200 91500=
07747,1996-05-17 18:00:00,18,1004,-1.2,83,15,10000,29.632,,,20,15.6,21.4,,,,,,,,,wg-a,,,,AAXX 17184 07747 12260 30216 10180 20150 39985 40040 56012 60006 83200 91800 333 10214 20156=
07747,1996-05-18 00:00:00,15,1005.1,0.1,94,14,8000,3.704,,,220,,,,,,,,,,,wg-a,,,,AAXX 18004 07747 12458 72202 10150 20140 39996 40051 50001 60006 876// 90000=
07747,1996-05-18 03:00:00,15,1004.1,-1,94,14,500,0,,,0,,,,1,,,,,,21,wg-a,,,,AAXX 18034 07747 12400 /0000 10150 20140 39986 40041 58010 60017 72162 85700 90300=
07747,1996-05-18 06:00:00,15,1004,-0.1,94,14,3500,7.408,,,350,13.3,17.9,,0,,,1,,,10,wg-a,,,,AAXX 18064 07747 02435 33504 10150 20140 39985 40040 56001 60014 71061 82770 90600 333 10179 20133 60007=
07747,1996-05-18 09:00:00,21,1002.2,-1.7,73,16,12000,25.928,,37.04,120,,,,,,,,,,,wg-a,,,,AAXX 18094 07747 12462 /1214 10210 20160 39968 40022 57017 60006 81280 90900 333 91020=
07747,1996-05-18 12:00:00,28,1000.6,-1.5,30,9,20000,31.484,,,200,,,,,,,,,,,wg-a,,,,AAXX 18124 07747 12570 /2017 10280 20090 39953 40006 58015 60006 81280 91200=
07747,1996-05-18 15:00:00,28,999.4,-1.2,25,6,40000,31.484,,,200,,,,,,,,,,,wg-a,,,,AAXX 18154 07747 12582 22017 10280 20060 39941 49994 56012 60006 81280 91500=
07747,1996-05-18 18:00:00,24,1000.6,1.1,36,8,40000,31.484,,,210,14.6,28.4,,,,,,,,,wg-a,,,,AAXX 18184 07747 12582 32117 10240 20080 39952 40006 53011 60006 82882 91800 333 10284 20146=
07747,1996-05-18 21:00:00,19,1005.7,5,68,13,25000,11.112,,,350,,,,,,,,,,,wg-a,,,,AAXX 18214 07747 12575 73506 10190 20130 30002 40057 51050 60006 8698/ 92100=
07747,1996-05-19 00:00:00,16,1005.7,0,82,13,25000,11.112,,,310,,,,,,,,,,,wg-a,,,,AAXX 19004 07747 12575 /3106 10160 20130 30002 40057 50000 60006 8588/ 90000=
07747,1996-05-19 03:00:00,14,1006.2,0.4,72,9,25000,18.52,,,320,,,,,,,,,,,wg-a,,,,AAXX 19034 07747 12575 73210 10140 20090 30006 40062 50004 60006 878// 90300=
07747,1996-05-19 06:00:00,13,1008.4,2.2,67,7,11000,18.52,,,330,12.6,24.3,,,,,,,,,wg-a,,,,AAXX 19064 07747 02/61 /3310 10130 20070 30028 40084 53022 61000 90600 333 10243 20126 ////=
07747,1996-05-19 09:00:00,16,1008.7,0.3,51,6,500,22.224,,,320,,,,,,,,,,,wg-a,,,,AAXX 19094 07747 12500 /3212 10160 20060 30031 40087 50003 60006 85800 90900=
07747,1996-05-19 12:00:00,17,1009.6,0.9,48,6,500,18.52,,,330,,,,,,,,,,,wg-a,,,,AAXX 19124 07747 12500 /3310 10170 20060 30040 40096 51009 60006 86800 91200=
07747,1996-05-19 15:00:00,17,1009.5,0,48,6,500,7.408,,,320,,,,,,,,,,,wg-a,,,,AAXX 19154 07747 12500 53204 10170 20060 30040 40095 50000 60006 85800 91500=
07747,1996-05-19 17:00:00,17,1009.5,-0,55,8,25000,7.408,,,190,12.8,18.8,,,,,,,,,wg-a,,,,AAXX 19174 07747 12575 61904 10170 20080 30040 40095 55000 60006 86800 91700 333 10188 20128=
07747,1996-05-19 18:00:00,17,1009.5,-0,55,8,25000,7.408,,,190,12.8,18.8,,,,,,,,,wg-a,,,,AAXX 19184 07747 12575 61904 10170 20080 30040 40095 55000 60006 86800 91800 333 10188 20128=
07747,1996-05-19 21:00:00,13,1011.6,2,77,9,25000,3.704,,,270,,,,,,,,,,,wg-a,,,,AAXX 19214 07747 12575 22702 10130 20090 30060 40116 53020 60006 82800 92100=
07747,1996-05-20 00:00:00,10,1011.8,0.1,82,7,25000,3.704,,,240,,,,,,,,,,,wg-a,,,,AAXX 20004 07747 12/75 02402 10100 20070 30061 40118 51001 60006 80000 90000=
07747,1996-05-20 03:00:00,9,1012,0.2,87,7,25000,7.408,,,270,,,,,,,,,,,wg-a,,,,AAXX 20034 07747 12575 42704 10090 20070 30063 40120 53002 60006 81102 90300=
07747,1996-05-20 06:00:00,12,1014.2,2.2,82,9,18000,3.704,,,300,8.8,17.1,,,,,,,,,wg-a,,,,AAXX 20064 07747 02568 73002 10120 20090 30085 40142 53022 60006 8355/ 90600 333 10171 20088 60004=
07747,1996-05-20 09:00:00,14,1016.7,2.6,58,6,40000,29.632,,,320,,,,,,,,,,15,wg-a,,,,AAXX 20094 07747 12582 /3216 10140 20060 30111 40167 51026 60006 71522 86800 90900=
07747,1996-05-20 12:00:00,19,1017,0.4,40,5,60000,25.928,,,340,,,,,,,,,,,wg-a,,,,AAXX 20124 07747 12586 /3414 10190 20050 30115 40170 50004 60006 81800 91200=
07747,1996-05-20 15:00:00,20,1017.6,0.6,40,6,50000,22.224,,,340,,,,,,,,,,,wg-a,,,,AAXX 20154 07747 12684 43412 10200 20060 30121 40176 53006 60006 84800 91500=
07747,1996-05-20 18:00:00,18,1019.2,1.5,45,6,500,22.224,,,330,11.6,20.8,,,,,,,,,wg-a,,,,AAXX 20184 07747 12500 /3312 10180 20060 30136 40192 53015 60006 86800 91800 333 10208 20116=
07747,1996-05-20 21:00:00,17,1021.5,2.3,52,7,18000,7.408,,,310,,,,,,,,,,,wg-a,,,,AAXX 20214 07747 12568 73104 10170 20070 30159 40215 53023 60006 878// 92100=
07747,1996-05-21 00:00:00,16,1022.2,0.7,55,7,18000,3.704,,,220,,,,,,,,,,,wg-a,,,,AAXX 21004 07747 12668 72202 10160 20070 30166 40222 51007 60006 875// 90000=
07747,1996-05-21 03:00:00,11,1022.2,-0.1,82,8,15000,11.112,,,250,,,,,,,,,,,wg-a,,,,AAXX 21034 07747 12765 /2506 10110 20080 30165 40222 56001 60006 81500 90300=
07747,1996-05-21 06:00:00,14,1023.5,1.3,67,8,50000,0,,,0,11.1,18.4,,,,,,,,,wg-a,,,,AAXX 21064 07747 02584 60000 10140 20080 30178 40235 53013 60006 84832 90600 333 10184 20111 60004=
07747,1996-05-21 09:00:00,19,1023.8,0.4,46,7,50000,14.816,,,320,,,,,,,,,,,wg-a,,,,AAXX 21094 07747 12584 /3208 10190 20070 30182 40238 50004 60006 83832 90900=
07747,1996-05-21 12:00:00,21,1023.8,0.1,43,8,500,14.816,,,350,,,,,,,,,,,wg-a,,,,AAXX 21124 07747 12500 /3508 10210 20080 30183 40238 51001 60006 85201 91200=
07747,1996-05-21 15:00:00,19,1024.6,0.7,46,7,20000,22.224,,,320,,,,,,,,,,,wg-a,,,,AAXX 21154 07747 12570 /3212 10190 20070 30190 40246 53007 60006 86800 91500=
07747,1996-05-21 18:00:00,17,1025.6,1,55,8,20000,25.928,,,320,14,21.1,,,,,,,,,wg-a,,,,AAXX 21184 07747 12570 73214 10170 20080 30200 40256 53010 60006 878// 91800 333 10211 20140=
07747,1996-05-21 21:00:00,16,1027.7,2,55,7,20000,11.112,,,300,,,,,,,,,,,wg-a,,,,AAXX 21214 07747 12570 /3006 10160 20070 30220 40277 53020 60006 86800 92100=
07747,1996-05-22 00:00:00,15,1028.3,0.6,63,8,20000,14.816,,,320,,,,,,,,,,,wg-a,,,,AAXX 22004 07747 12570 73208 10150 20080 30226 40283 52006 60006 878// 90000=
07747,1996-05-22 03:00:00,14,1027.2,-1.1,63,7,20000,11.112,,,330,,,,,,,,,,,wg-a,,,,AAXX 22034 07747 12570 43306 10140 20070 30215 40272 56011 60006 82201 90300=
07747,1996-05-22 06:00:00,13,1027.3,0.1,77,9,60000,7.408,,,200,10.8,17.4,,,,,,,,,wg-a,,,,AAXX 22064 07747 02686 32004 10130 20090 30216 40273 53001 60006 81541 90600 333 10174 20108 60004=
07747,1996-05-22 09:00:00,18,1026.7,-0.5,52,8,60000,3.704,,,320,,,,,,,,,,,wg-a,,,,AAXX 22094 07747 12586 73202 10180 20080 30211 40267 58005 60006 81101 90900=
07747,1996-05-22 12:00:00,22,1024.7,-1.9,38,7,60000,7.408,,,200,,,,,,,,,,,wg-a,,,,AAXX 22124 07747 12586 72004 10220 20070 30192 40247 58019 60006 81142 91200=
07747,1996-05-22 18:00:00,21,1023.2,-0.3,56,12,40000,3.704,,,90,13,22.9,,,,,,,,,wg-a,,,,AAXX 22184 07747 12582 70902 10210 20120 30177 40232 55003 60006 81142 91800 333 10229 20130=
07747,1996-05-22 21:00:00,16,1025,1.6,63,9,40000,11.112,,,260,,,,,,,,,,,wg-a,,,,AAXX 22214 07747 12/82 02606 10160 20090 30193 40250 53016 60006 80000 92100=
07747,1996-05-23 00:00:00,14,1024.8,-0.2,67,8,40000,7.408,,,250,,,,,,,,,,,wg-a,,,,AAXX 23004 07747 12/82 32504 10140 20080 30191 40248 58002 60006 80001 90000=
07747,1996-05-23 03:00:00,15,1024.3,-0.5,59,7,20000,11.112,,,280,,,,,,,,,,,wg-a,,,,AAXX 23034 07747 12770 42806 10150 20070 30186 40243 56005 60006 84500 90300=
07747,1996-05-23 06:00:00,18,1024.9,0.7,45,6,50000,14.816,,,310,13.1,21,,,,,,,,,wg-a,,,,AAXX 23064 07747 02784 53108 10180 20060 30193 40249 53007 60006 83541 90600 333 10210 20131 60004=
07747,1996-05-23 09:00:00,23,1024.1,-0.7,36,7,50000,7.408,,,270,,,,,,,,,,,wg-a,,,,AAXX 23094 07747 12684 32704 10230 20070 30186 40241 58007 60006 81141 90900=
07747,1996-05-23 12:00:00,25,1022.7,-1.4,36,9,50000,18.52,,,130,,,,,,,,,,,wg-a,,,,AAXX 23124 07747 12684 /1310 10250 20090 30172 40227 58014 60006 81101 91200=
07747,1996-05-23 15:00:00,25,1020.9,-1.8,36,9,40000,14.816,,,130,,,,,,,,,,,wg-a,,,,AAXX 23154 07747 12682 /1308 10250 20090 30154 40209 57018 60006 81101 91500=
07747,1996-05-23 18:00:00,25,1019.5,-1.3,44,12,500,11.112,,,110,18,26,,,,,,,,,wg-a,,,,AAXX 23184 07747 12700 /1106 10250 20120 30141 40195 56013 60006 81501 91800 333 10260 20180=
07747,1996-05-23 21:00:00,20,1019.7,0.1,60,12,25000,11.112,,,240,,,,,,,,,,,wg-a,,,,AAXX 23214 07747 12/75 02406 10200 20120 30142 40197 53001 60006 80000 92100=
07747,1996-05-24 00:00:00,17,1018.9,-0.9,72,12,25000,7.408,,,280,,,,,,,,,,,wg-a,,,,AAXX 24004 07747 12/75 02804 10170 20120 30133 40189 58009 60006 80000 90000=
07747,1996-05-24 03:00:00,16,1017.8,-1.1,72,11,25000,7.408,,,10,,,,,,,,,,,wg-a,,,,AAXX 24034 07747 12/75 00104 10160 20110 30122 40178 56011 60006 80000 90300=
07747,1996-05-24 06:00:00,17,1018.4,0.6,77,13,40000,3.704,,,180,14.2,25,,,,,,,,,wg-a,,,,AAXX 24064 07747 02/82 01802 10170 20130 30128 40184 51006 60006 80000 90600 333 10250 20142 60004=
07747,1996-05-24 09:00:00,21,1018.2,-0.1,64,14,40000,22.224,,,60,,,,,,,,,,,wg-a,,,,AAXX 24094 07747 12682 /0612 10210 20140 30127 40182 57001 60006 81100 90900=
07747,1996-05-24 12:00:00,21,1017.4,-0.8,69,15,40000,25.928,,,70,,,,,,,,,,,wg-a,,,,AAXX 24124 07747 12682 /0714 10210 20150 30119 40174 58008 60006 81180 91200=
07747,1996-05-24 15:00:00,21,1015.9,-1.5,69,15,40000,25.928,,,70,,,,,,,,,,,wg-a,,,,AAXX 24154 07747 12682 /0714 10210 20150 30104 40159 56015 60006 81280 91500=
07747,1996-05-24 18:00:00,19,1015.1,-0.8,73,14,20000,14.816,,,80,17.1,21.6,,,,,,,,,wg-a,,,,AAXX 24184 07747 12670 /0808 10190 20140 30096 40151 57008 60006 81282 91800 333 10216 20171=
07747,1996-05-24 21:00:00,17,1016.5,1.3,82,14,15000,3.704,,,210,,,,,,,,,,,wg-a,,,,AAXX 24214 07747 12665 72102 10170 20140 30109 40165 53013 60006 81282 92100=
07747,1996-05-25 00:00:00,17,1017.1,0.6,77,13,10000,14.816,,,340,,,,,,,,,,,wg-a,,,,AAXX 25004 07747 12660 33408 10170 20130 30115 40171 53006 60006 81182 90000=
07747,1996-05-25 03:00:00,17,1017,-0.1,72,12,25000,7.408,,,120,,,,,,,,,,,wg-a,,,,AAXX 25034 07747 12575 71204 10170 20120 30114 40170 58001 60006 81532 90300=
07747,1996-05-25 06:00:00,17,1017,-0,77,13,20000,3.704,,,360,15.1,18.9,,,,,,,,,wg-a,,,,AAXX 25064 07747 02670 53602 10170 20130 30114 40170 55000 60006 81532 90600 333 10189 20151 60004=
07747,1996-05-25 09:00:00,21,1016.4,-0.5,60,13,18000,3.704,,,70,,,,,,,,,,,wg-a,,,,AAXX 25094 07747 12568 /0702 10210 20130 30109 40164 58005 60006 81832 90900=
07747,1996-05-25 12:00:00,22,1016.4,0,53,12,18000,18.52,,,140,,,,,,,,,,,wg-a,,,,AAXX 25124 07747 12568 71410 10220 20120 30109 40164 50000 60006 81204 91200=
07747,1996-05-25 15:00:00,22,1016.2,-0.2,57,13,18000,11.112,,,90,,,,,,,,,,,wg-a,,,,AAXX 25154 07747 12568 70906 10220 20130 30107 40162 58002 60006 81182 91500=
07747,1996-05-25 18:00:00,22,1017,0.8,60,14,15000,7.408,,,110,16.9,23.3,,,,,,,,,wg-a,,,,AAXX 25184 07747 12565 /1104 10220 20140 30115 40170 53008 60006 82182 91800 333 10233 20169=
07747,1996-05-25 21:00:00,20,1018.3,1.3,68,14,15000,7.408,,,240,,,,,,,,,,,wg-a,,,,AAXX 25214 07747 12565 72404 10200 20140 30128 40183 53013 60006 84102 92100=
07747,1996-05-26 00:00:00,21,1018.5,0.2,56,12,15000,14.816,,,320,,,,,,,,,,,wg-a,,,,AAXX 26004 07747 12565 43208 10210 20120 30130 40185 53002 60006 84800 90000=
07747,1996-05-26 06:00:00,19,1020.1,1.5,68,13,15000,3.704,,,270,19.2,21.6,,,,,,,,,wg-a,,,,AAXX 26064 07747 02565 72702 10190 20130 30146 40201 53015 60006 83832 90600 333 10216 20192 60004=
07747,1996-05-26 09:00:00,21,1020.9,0.8,60,13,25000,38.892,,,340,,,,,,,,,,,wg-a,,,,AAXX 26094 07747 12575 53421 10210 20130 30154 40209 51008 60006 83831 90900=
07747,1996-05-26 12:00:00,23,1020.3,-0.6,53,13,25000,35.188,,,320,,,,,,,,,,,wg-a,,,,AAXX 26124 07747 12575 43219 10230 20130 30148 40203 56006 60006 83201 91200=
07747,1996-05-26 15:00:00,25,1020.1,-0.1,41,11,25000,31.484,,,330,,,,,,,,,,,wg-a,,,,AAXX 26154 07747 12575 23317 10250 20110 30147 40201 56001 60006 82201 91500=
07747,1996-05-26 18:00:00,24,1020.2,-0,41,10,25000,14.816,,,330,19.3,25.7,,,,,,,,,wg-a,,,,AAXX 26184 07747 12575 53308 10240 20100 30147 40202 55000 60006 81832 91800 333 10257 20193=
07747,1996-05-26 21:00:00,22,1021.1,0.9,53,12,18000,14.816,,,340,,,,,,,,,,,wg-a,,,,AAXX 26214 07747 12/68 33408 10220 20120 30156 40211 53009 60006 80002 92100=
07747,1996-05-27 00:00:00,20,1020.8,-0.3,60,12,18000,11.112,,,310,,,,,,,,,,,wg-a,,,,AAXX 27004 07747 12/68 13106 10200 20120 30153 40208 58003 60006 81041 90000=
07747,1996-05-27 03:00:00,19,1020.2,-0.7,56,10,16000,11.112,,,320,,,,,,,,,,,wg-a,,,,AAXX 27034 07747 12/66 43206 10190 20100 30146 40202 58007 60006 81044 90300=
07747,1996-05-27 06:00:00,20,1020,-0.1,60,12,25000,22.224,,40.744,320,18.3,24.4,,,,,,,,,wg-a,,,,AAXX 27064 07747 02575 73212 10200 20120 30145 40200 56001 60006 81144 90600 333 10244 20183 60004 91022=
07747,1996-05-27 09:00:00,22,1018.9,-1.1,50,11,500,31.484,,55.56,330,,,,,,,,,,,wg-a,,,,AAXX 27094 07747 12500 73317 10220 20110 30134 40189 58011 60006 81142 90900 333 91030=
07747,1996-05-27 12:00:00,26,1017.9,-0.9,34,9,25000,46.3,,66.672,330,,,,,,,,,,,wg-a,,,,AAXX 27124 07747 12575 73325 10260 20090 30125 40179 58009 60006 81142 91200 333 91036=
07747,1996-05-27 15:00:00,27,1016.9,-1,23,4,500,46.3,,72.228,310,,,,,,,,,,,wg-a,,,,AAXX 27154 07747 12500 33125 10270 20040 30115 40169 58010 60006 81102 91500 333 91039=
07747,1996-05-27 18:00:00,24,1018.3,1.3,25,3,500,31.484,,55.56,320,20.4,26.9,,,,,,,,,wg-a,,,,AAXX 27184 07747 12500 33217 10240 20030 30128 40183 52013 60006 81102 91800 333 10269 20204 91030=
07747,1996-05-27 21:00:00,20,1021,2.7,43,7,500,29.632,,62.968,330,,,,,,,,,,,wg-a,,,,AAXX 27214 07747 12/00 03316 10200 20070 30155 40210 53027 60006 80000 92100 333 91034=
07747,1996-05-28 00:00:00,17,1022.1,1,55,8,500,35.188,,57.412,340,,,,,,,,,,,wg-a,,,,AAXX 28004 07747 12500 23419 10170 20080 30165 40221 50010 60006 82100 90000 333 91031=
07747,1996-05-28 03:00:00,16,1022.1,0,55,7,500,38.892,,59.264,330,,,,,,,,,,,wg-a,,,,AAXX 28034 07747 12500 33321 10160 20070 30165 40221 50000 60006 83100 90300 333 91032=
07747,1996-05-28 06:00:00,17,1022,-0.1,52,7,500,31.484,,64.82,330,15.6,23.8,,,,,,,,,wg-a,,,,AAXX 28064 07747 02500 53317 10170 20070 30164 40220 55001 60006 82101 90600 333 10238 20156 60004 91035=
07747,1996-05-28 09:00:00,19,1022.3,0.3,46,7,500,31.484,,68.524,330,,,,,,,,,,,wg-a,,,,AAXX 28094 07747 12500 53317 10190 20070 30167 40223 50003 60006 82101 90900 333 91037=
07747,1996-05-28 12:00:00,21,1021.4,-0.8,43,8,500,31.484,,51.856,320,,,,,,,,,,,wg-a,,,,AAXX 28124 07747 12500 53217 10210 20080 30159 40214 58008 60006 81101 91200 333 91028=
07747,1996-05-28 15:00:00,23,1019.5,-1.9,38,8,500,38.892,,,340,,,,,,,,,,,wg-a,,,,AAXX 28154 07747 12/00 43421 10230 20080 30140 40195 58019 60006 81031 91500=
07747,1996-05-28 18:00:00,22,1018.7,-0.8,41,8,500,42.596,,,340,16.5,23.5,,,,,,,,,wg-a,,,,AAXX 28184 07747 12/00 43423 10220 20080 30132 40187 55008 60006 81041 91800 333 10235 20165=
07747,1996-05-28 21:00:00,19,1020.9,2.1,52,9,500,29.632,,,310,,,,,,,,,,,wg-a,,,,AAXX 28214 07747 12/00 13116 10190 20090 30153 40209 51021 60006 81040 92100=
07747,1996-05-29 00:00:00,18,1020.7,-0.2,52,8,500,25.928,,,330,,,,,,,,,,,wg-a,,,,AAXX 29004 07747 12/00 03314 10180 20080 30151 40207 58002 60006 80000 90000=
07747,1996-05-29 03:00:00,18,1018.1,-2.6,52,8,500,35.188,,55.56,340,,,,,,,,,,,wg-a,,,,AAXX 29034 07747 12/00 03419 10180 20080 30125 40181 58026 60006 80000 90300 333 91030=
07747,1996-05-29 06:00:00,20,1018.9,0.9,43,7,60000,25.928,,,330,17.4,21.7,,,,,,,,,wg-a,,,,AAXX 29064 07747 02/86 03314 10200 20070 30134 40189 50009 60006 80000 90600 333 10217 20174 60004=
07747,1996-05-29 09:00:00,25,1019.6,0.7,32,7,60000,11.112,,,360,,,,,,,,,,,wg-a,,,,AAXX 29094 07747 12/86 03606 10250 20070 30141 40196 50007 60006 80000 90900=
07747,1996-05-29 12:00:00,27,1019.1,-0.4,32,9,60000,22.224,,,120,,,,,,,,,,,wg-a,,,,AAXX 29124 07747 12/86 01212 10270 20090 30137 40191 58004 60006 80000 91200=
07747,1996-05-29 15:00:00,25,1018.1,-1,22,2,60000,14.816,,,140,,,,,,,,,,,wg-a,,,,AAXX 29154 07747 12/86 01408 10250 20020 30127 40181 57010 60006 80000 91500=
07747,1996-05-29 18:00:00,23,1018.1,-0.1,20,-1,50000,7.408,,,130,20,27.5,,,,,,,,,wg-a,,,,AAXX 29184 07747 12/84 01304 10230 21010 30126 40181 55001 60006 80000 91800 333 10275 20200=
07747,1996-05-29 21:00:00,19,1019.5,1.3,40,5,40000,3.704,,,350,,,,,,,,,,,wg-a,,,,AAXX 29214 07747 12/82 03502 10190 20050 30139 40195 53013 60006 80000 92100=
07747,1996-05-30 00:00:00,15,1019.9,0.4,63,8,40000,11.112,,,350,,,,,,,,,,,wg-a,,,,AAXX 30004 07747 12/82 03506 10150 20080 30143 40199 50004 60006 80000 90000=
07747,1996-05-30 03:00:00,13,1019.5,-0.5,67,7,40000,3.704,,,330,,,,,,,,,,,wg-a,,,,AAXX 30034 07747 12/82 03302 10130 20070 30138 40195 57005 60006 80000 90300=
07747,1996-05-30 06:00:00,16,1020.2,0.8,77,12,25000,7.408,,,30,11.6,23.4,,,,,,,,,wg-a,,,,AAXX 30064 07747 02675 /0304 10160 20120 30146 40202 53008 60006 81500 90600 333 10234 20116 60004=
07747,1996-05-30 09:00:00,20,1020.4,0.3,68,14,25000,18.52,,,90,,,,,,,,,,,wg-a,,,,AAXX 30094 07747 12575 /0910 10200 20140 30149 40204 51003 60006 81100 90900=
07747,1996-05-30 12:00:00,24,1019.7,-0.7,47,12,25000,22.224,,,80,,,,,,,,,,,wg-a,,,,AAXX 30124 07747 12/75 00812 10240 20120 30142 40197 58007 60006 80000 91200=
07747,1996-05-30 15:00:00,24,1018.5,-1.1,47,12,25000,25.928,,,130,,,,,,,,,,,wg-a,,,,AAXX 30154 07747 12/75 01314 10240 20120 30131 40185 56011 60006 80000 91500=
07747,1996-05-30 18:00:00,22,1018.8,0.2,53,12,25000,11.112,,,60,16.3,26.4,,,,,,,,,wg-a,,,,AAXX 30184 07747 12/75 10606 10220 20120 30133 40188 53002 60006 81031 91800 333 10264 20163=
07747,1996-05-30 21:00:00,18,1020.2,1.3,68,12,18000,14.816,,,10,,,,,,,,,,,wg-a,,,,AAXX 30214 07747 12/68 00108 10180 20120 30146 40202 52013 60006 80000 92100=
07747,1996-05-31 00:00:00,16,1020.6,0.4,72,11,15000,11.112,,,350,,,,,,,,,,,wg-a,,,,AAXX 31004 07747 12/65 03506 10160 20110 30150 40206 50004 60006 80000 90000=
07747,1996-05-31 03:00:00,15,1021,0.4,82,12,15000,11.112,,,320,,,,,,,,,,,wg-a,,,,AAXX 31034 07747 12565 /3206 10150 20120 30154 40210 53004 60006 81600 90300=
07747,1996-05-31 06:00:00,17,1022.9,1.9,77,13,15000,7.408,,,230,14.3,22.1,,,,,,,,,wg-a,,,,AAXX 31064 07747 02565 22304 10170 20130 30173 40229 51019 60006 82100 90600 333 10221 20143 60004=
07747,1996-05-31 09:00:00,22,1023,0.2,60,14,15000,11.112,,,20,,,,,,,,,,,wg-a,,,,AAXX 31094 07747 12565 /0206 10220 20140 30175 40230 50002 60006 86100 90900=
07747,1996-05-31 12:00:00,24,1021.9,-1.1,50,13,15000,14.816,,,110,,,,,,,,,,,wg-a,,,,AAXX 31124 07747 12565 21108 10240 20130 30164 40219 58011 60006 82100 91200=
07747,1996-05-31 15:00:00,24,1020.6,-1.3,44,11,15000,14.816,,,110,,,,,,,,,,,wg-a,,,,AAXX 31154 07747 12565 21108 10240 20110 30151 40206 56013 60006 82200 91500=
07747,1996-05-31 18:00:00,22,1020.1,-0.5,57,13,15000,7.408,,,140,16.7,24.1,,,,,,,,,wg-a,,,,AAXX 31184 07747 12565 41404 10220 20130 30146 40201 58005 60006 82880 91800 333 10241 20167=
07747,1996-05-31 21:00:00,21,1022.2,2.1,64,14,15000,7.408,,,320,,,,,,,,,,,wg-a,,,,AAXX 31214 07747 12565 /3204 10210 20140 30167 40222 53021 60006 81480 92100=
07747,1996-06-01 00:00:00,20,1022.1,-0.2,64,13,25000,11.112,,,330,,,,,,,,,,,wg-a,,,,AAXX 01004 07747 12/75 53306 10200 20130 30165 40221 55002 60006 85030 90000=
07747,1996-06-01 03:00:00,19,1021.1,-1,73,14,15000,7.408,,,300,,,,,,,,,,,wg-a,,,,AAXX 01034 07747 12565 /3004 10190 20140 30155 40211 58010 60006 82830 90300=
07747,1996-06-01 06:00:00,19,1021.4,0.3,73,14,20000,18.52,,,340,18.7,22.2,,,,,,,,,wg-a,,,,AAXX 01064 07747 02570 73410 10190 20140 30158 40214 50003 60006 8483/ 90600 333 10222 20187 60004=
07747,1996-06-01 09:00:00,20,1021.6,0.3,56,11,25000,38.892,,,320,,,,,,,,,,,wg-a,,,,AAXX 01094 07747 12575 63221 10200 20110 30161 40216 50003 60006 84832 90900=
07747,1996-06-01 12:00:00,22,1020.8,-0.8,53,12,500,29.632,,,310,,,,,,,,,,,wg-a,,,,AAXX 01124 07747 12500 /3116 10220 20120 30153 40208 58008 60006 82830 91200=
07747,1996-06-01 15:00:00,15,1020.9,-0,77,11,6000,35.188,,59.264,310,,,,,,,,,,60,wg-a,,,,AAXX 01154 07747 02556 83119 10150 20110 30153 40209 55000 61000 76062 889// 91500 333 //// 91032=
07747,1996-06-01 18:00:00,14,1020.2,-0.7,82,11,15000,14.816,,,330,13.4,22.5,,5,,,,,,21,wg-a,,,,AAXX 01184 07747 12465 83308 10140 20110 30146 40202 58007 60057 72162 889// 91800 333 10225 20134=
07747,1996-06-01 21:00:00,14,1020.3,0,72,9,15000,14.816,,,340,,,,,,,,,,,wg-a,,,,AAXX 01214 07747 12465 83408 10140 20090 30146 40203 50000 60006 84572 92100=
07747,1996-06-02 00:00:00,14,1019,-1.3,63,7,15000,14.816,,,320,,,,0,,,,,,2,wg-a,,,,AAXX 02004 07747 02465 83208 10140 20070 30133 40190 58013 60006 70262 8457/ 90000 333 60007=
07747,1996-06-02 03:00:00,11,1017.2,-1.8,87,9,15000,7.408,,,290,,,,3,,,,,,61,wg-a,,,,AAXX 02034 07747 12465 82904 10110 20090 30115 40172 58018 60037 76162 8457/ 90300=
07747,1996-06-02 06:00:00,12,1016.6,-0.6,88,10,15000,14.816,,,300,11.1,14.5,,1,,,9,,,60,wg-a,,,,AAXX 02064 07747 02565 83008 10120 20100 30109 40166 58006 60094 76062 8557/ 90600 333 10145 20111 60017=
07747,1996-06-02 09:00:00,14,1015.7,-0.8,82,11,14000,11.112,,,280,,,,1,,,,,,21,wg-a,,,,AAXX 02094 07747 12564 82806 10140 20110 30101 40157 58008 60017 72162 8587/ 90900=
07747,1996-06-02 12:00:00,16,1014.8,-0.9,72,11,15000,11.112,,,320,,,,,,,,,,2,wg-a,,,,AAXX 02124 07747 12565 83206 10160 20110 30092 40148 57009 60016 70262 8587/ 91200=
07747,1996-06-02 15:00:00,17,1014.1,-0.7,63,10,20000,18.52,,,320,,,,,,,,,,1,wg-a,,,,AAXX 02154 07747 02570 73210 10170 20100 30085 40141 58007 61000 70162 8587/ 91500 333 ////=
07747,1996-06-02 18:00:00,15,1014.4,0.3,67,9,20000,25.928,,,320,11.9,16.9,,,,,,,,1,wg-a,,,,AAXX 02184 07747 32570 73214 10150 20090 30088 40144 53003 70162 8287/ 91800 333 10169 20119=
07747,1996-06-02 21:00:00,14,1015.2,0.8,72,9,20000,25.928,,,320,,,,0,,,,,,60,wg-a,,,,AAXX 02214 07747 12570 73214 10140 20090 30096 40152 50008 60007 76062 8687/ 92100=
07747,1996-06-03 00:00:00,14,1015.7,0.5,67,8,500,31.484,,50.004,330,,,,,,,,,,1,wg-a,,,,AAXX 03004 07747 02500 73317 10140 20080 30101 40157 51005 60006 70162 8187/ 90000 333 61000 91027=
07747,1996-06-03 03:00:00,14,1015.3,-0.4,67,8,500,35.188,,,320,,,,,,,,,,,wg-a,,,,AAXX 03034 07747 12700 73219 10140 20080 30097 40153 58004 60006 8157/ 90300=
07747,1996-06-03 06:00:00,15,1016.7,1.4,63,8,25000,38.892,,59.264,320,13.9,15.4,,,,,2,,,,wg-a,,,,AAXX 03064 07747 12575 73221 10150 20080 30111 40167 51014 60024 8787/ 90600 333 10154 20139 91032=
07747,1996-06-03 12:00:00,20,1017.9,0.5,49,9,500,46.3,,74.08,320,,,,,,,,,,,wg-a,,,,AAXX 03124 07747 12600 53225 10200 20090 30124 40179 53005 60006 82844 91200 333 91040=
07747,1996-06-03 15:00:00,20,1017.9,0,46,8,500,46.3,,72.228,320,,,,,,,,,,,wg-a,,,,AAXX 03154 07747 12600 /3225 10200 20080 30124 40179 50000 60006 85840 91500 333 91039=
07747,1996-06-03 21:00:00,18,1020.7,1.5,56,9,25000,35.188,,62.968,320,,,,,,,,,,,wg-a,,,,AAXX 03214 07747 12675 /3219 10180 20090 30151 40207 52015 60006 85800 92100 333 91034=
07747,1996-06-04 00:00:00,18,1021.2,0.5,56,9,25000,29.632,,,310,,,,,,,,,,,wg-a,,,,AAXX 04004 07747 12675 73116 10180 20090 30156 40212 50005 60006 8484/ 90000=
07747,1996-06-04 03:00:00,18,1021.2,-0,56,9,25000,31.484,,,320,,,,,,,,,,,wg-a,,,,AAXX 04034 07747 12575 73217 10180 20090 30156 40212 55000 60006 8184/ 90300=
07747,1996-06-04 06:00:00,19,1022.1,0.9,52,9,11000,29.632,,,320,18.1,18.7,,,,,,,,,wg-a,,,,AAXX 04064 07747 02/61 /3216 10190 20090 30165 40221 53009 60006 90600 333 10187 20181 60004=
07747,1996-06-04 09:00:00,22,1022.6,0.6,46,10,11000,29.632,,,330,,,,,,,,,,,wg-a,,,,AAXX 04094 07747 12/61 /3316 10220 20100 30171 40226 50006 60006 90900=
07747,1996-06-04 12:00:00,26,1022,-0.5,37,10,11000,25.928,,,20,,,,,,,,,,,wg-a,,,,AAXX 04124 07747 12/61 /0214 10260 20100 30166 40220 58005 60006 91200=
07747,1996-06-04 15:00:00,28,1020.7,-1.2,35,11,40000,22.224,,,10,,,,,,,,,,,wg-a,,,,AAXX 04154 07747 12682 /0112 10280 20110 30154 40207 58012 60006 81200 91500=
07747,1996-06-04 18:00:00,27,1020.7,-0.1,37,11,40000,18.52,,,10,18.5,28,,,,,,,,,wg-a,,,,AAXX 04184 07747 12682 /0110 10270 20110 30153 40207 55001 60006 81800 91800 333 10280 20185=
07747,1996-06-04 21:00:00,22,1021.7,0.9,53,12,500,18.52,,,300,,,,,,,,,,,wg-a,,,,AAXX 04214 07747 12/00 13010 10220 20120 30162 40217 53009 60006 81030 92100=
07747,1996-06-05 00:00:00,19,1022.1,0.3,68,13,20000,3.704,,,290,,,,,,,,,,,wg-a,,,,AAXX 05004 07747 12/70 02902 10190 20130 30165 40221 51003 60006 80000 90000=
07747,1996-06-05 03:00:00,16,1021.7,-0.4,77,12,25000,7.408,,,290,,,,,,,,,,,wg-a,,,,AAXX 05034 07747 12/75 02904 10160 20120 30161 40217 56004 60006 80000 90300=
07747,1996-06-05 06:00:00,19,1022.2,0.5,73,14,45000,3.704,,,270,15,28,,,,,,,,,wg-a,,,,AAXX 05064 07747 02/83 02702 10190 20140 30166 40222 51005 60006 80000 90600 333 10280 20150 60004=
07747,1996-06-05 09:00:00,26,1022,-0,48,14,500,11.112,,,70,,,,,,,,,,,wg-a,,,,AAXX 05094 07747 12/00 00706 10260 20140 30166 40220 54000 60006 80000 90900=
07747,1996-06-05 12:00:00,26,1021.8,-0.2,48,14,20000,14.816,,,90,,,,,,,,,,,wg-a,,,,AAXX 05124 07747 12670 /0908 10260 20140 30164 40218 58002 60006 81100 91200=
07747,1996-06-05 15:00:00,27,1020.5,-1.3,51,16,15000,18.52,,,100,,,,,,,,,,,wg-a,,,,AAXX 05154 07747 12565 /1010 10270 20160 30151 40205 56013 60006 81100 91500=
07747,1996-06-05 18:00:00,26,1020.3,-0.2,45,13,15000,14.816,,,130,19.4,27.5,,,,,,,,,wg-a,,,,AAXX 05184 07747 12/65 01308 10260 20130 30149 40203 55002 60006 80000 91800 333 10275 20194=
07747,1996-06-05 21:00:00,21,1021.2,0.8,73,16,12000,3.704,,,340,,,,,,,,,,,wg-a,,,,AAXX 05214 07747 12/62 03402 10210 20160 30157 40212 53008 60006 80000 92100=
07747,1996-06-06 00:00:00,18,1021,-0.3,83,15,10000,3.704,,,270,,,,,,,,,,,wg-a,,,,AAXX 06004 07747 12/60 02702 10180 20150 30154 40210 58003 60006 80000 90000=
07747,1996-06-06 06:00:00,19,1021.4,0.9,88,17,7000,7.408,,,50,16.2,26.2,,,,,,,,,wg-a,,,,AAXX 06064 07747 02/57 00504 10190 20170 30159 40214 53009 60006 80000 90600 333 10262 20162 60004=
07747,1996-06-06 09:00:00,25,1021.8,0.5,54,15,12000,14.816,,,90,,,,,,,,,,,wg-a,,,,AAXX 06094 07747 12762 /0908 10250 20150 30164 40218 51005 60006 81100 90900=
07747,1996-06-06 12:00:00,27,1021.6,-0.2,45,14,12000,22.224,,,110,,,,,,,,,,,wg-a,,,,AAXX 06124 07747 12762 /1112 10270 20140 30162 40216 58002 60006 81200 91200=
07747,1996-06-06 15:00:00,27,1020.7,-0.9,48,15,12000,25.928,,,130,,,,,,,,,,,wg-a,,,,AAXX 06154 07747 12762 /1314 10270 20150 30153 40207 57009 60006 81200 91500=
07747,1996-06-06 18:00:00,25,1019.7,-1,50,14,20000,18.52,,,120,19.2,28.1,,,,,,,,,wg-a,,,,AAXX 06184 07747 12/70 01210 10250 20140 30143 40197 56010 60006 80000 91800 333 10281 20192=
07747,1996-06-06 21:00:00,20,1020.8,1,78,16,20000,7.408,,,10,,,,,,,,,,,wg-a,,,,AAXX 06214 07747 12/70 00104 10200 20160 30153 40208 53010 60006 80000 92100=
07747,1996-06-07 00:00:00,18,1020.2,-0.7,94,17,15000,11.112,,,40,,,,,,,,,,,wg-a,,,,AAXX 07004 07747 12/65 00406 10180 20170 30146 40202 58007 60006 80000 90000=
07747,1996-06-07 03:00:00,17,1019.6,-0.6,100,17,8000,7.408,,,20,,,,,,,,,,,wg-a,,,,AAXX 07034 07747 12/58 00204 10170 20170 30140 40196 56006 60006 80000 90300=
07747,1996-06-07 06:00:00,17,1020.3,0.7,94,16,3000,3.704,,,80,17.1,24.8,,,,,,,,10,wg-a,,,,AAXX 07064 07747 02430 /0802 10170 20160 30147 40203 53007 60006 71011 85600 90600 333 10248 20171 60004=
07747,1996-06-07 09:00:00,25,1019.6,-0.5,54,15,8000,14.816,,,100,,,,,,,,,,,wg-a,,,,AAXX 07094 07747 12/58 01008 10250 20150 30142 40196 58005 60006 80000 90900=
07747,1996-06-07 12:00:00,30,1018.3,-1.2,40,15,15000,29.632,,,140,,,,,,,,,,,wg-a,,,,AAXX 07124 07747 12665 /1416 10300 20150 30130 40183 57012 60006 81100 91200=
07747,1996-06-07 15:00:00,29,1017.8,-0.6,40,14,12000,31.484,,,140,,,,,,,,,,,wg-a,,,,AAXX 07154 07747 12662 /1417 10290 20140 30124 40178 57006 60006 81100 91500=
07747,1996-06-07 18:00:00,26,1017.5,-0.3,45,13,15000,25.928,,,140,17.3,29.9,,,,,,,,,wg-a,,,,AAXX 07184 07747 12665 /1414 10260 20130 30121 40175 56003 60006 81130 91800 333 10299 20173=
07747,1996-06-07 21:00:00,22,1018.4,0.8,57,13,15000,7.408,,,130,,,,,,,,,,,wg-a,,,,AAXX 07214 07747 12/65 11304 10220 20130 30129 40184 53008 60006 81030 92100=
07747,1996-06-08 00:00:00,18,1018.2,-0.2,83,15,12000,11.112,,,20,,,,,,,,,,,wg-a,,,,AAXX 08004 07747 12/62 00206 10180 20150 30127 40182 58002 60006 80000 90000=
07747,1996-06-08 03:00:00,19,1020.3,2.1,78,15,15000,14.816,,,330,,,,,,,,,,,wg-a,,,,AAXX 08034 07747 12/65 03308 10190 20150 30148 40203 53021 60006 80000 90300=
07747,1996-06-08 06:00:00,21,1021.8,1.5,64,14,15000,11.112,,,10,17.7,25.7,,,,,,,,,wg-a,,,,AAXX 08064 07747 02465 /0106 10210 20140 30163 40218 51015 60006 81130 90600 333 10257 20177 60004=
07747,1996-06-08 09:00:00,24,1021.7,-0.1,57,15,12000,7.408,,,50,,,,,,,,,,,wg-a,,,,AAXX 08094 07747 12562 30504 10240 20150 30162 40217 58001 60006 82201 90900=
07747,1996-06-08 12:00:00,25,1021.3,-0.3,57,16,10000,18.52,,,110,,,,,,,,,,,wg-a,,,,AAXX 08124 07747 12560 31110 10250 20160 30159 40213 56003 60006 83200 91200=
07747,1996-06-08 15:00:00,23,1021.2,-0.2,65,16,10000,14.816,,,100,,,,,,,,,,,wg-a,,,,AAXX 08154 07747 12560 /1008 10230 20160 30157 40212 58002 60006 86800 91500=
07747,1996-06-08 18:00:00,23,1020.4,-0.8,69,17,10000,7.408,,,70,21,25.4,,,,,,,,,wg-a,,,,AAXX 08184 07747 12560 30704 10230 20170 30149 40204 56008 60006 83800 91800 333 10254 20210=
07747,1996-06-08 21:00:00,19,1021.6,1.2,94,18,7000,7.408,,,30,,,,,,,,,,,wg-a,,,,AAXX 08214 07747 12457 50304 10190 20180 30161 40216 53012 60006 82801 92100=
07747,1996-06-09 00:00:00,18,1021.3,-0.4,94,17,9000,0,,,0,,,,,,,,,,,wg-a,,,,AAXX 09004 07747 12559 /0000 10180 20170 30157 40213 57004 60006 81100 90000=
07747,1996-06-09 03:00:00,17,1020.8,-0.5,94,16,9000,7.408,,,240,,,,,,,,,,,wg-a,,,,AAXX 09034 07747 12559 /2404 10170 20160 30152 40208 56005 60006 81100 90300=
07747,1996-06-09 06:00:00,18,1021.3,0.5,94,17,3000,3.704,,,280,16.4,23,,,,,,,,10,wg-a,,,,AAXX 09064 07747 02530 /2802 10180 20170 30157 40213 51005 60006 71011 81501 90600 333 10230 20164 60004=
07747,1996-06-09 09:00:00,24,1021.2,-0,65,17,8000,11.112,,,70,,,,,,,,,,,wg-a,,,,AAXX 09094 07747 12558 /0706 10240 20170 30157 40212 54000 60006 81101 90900=
07747,1996-06-09 12:00:00,25,1020.7,-0.4,61,17,9000,14.816,,,90,,,,,,,,,,,wg-a,,,,AAXX 09124 07747 12559 /0908 10250 20170 30153 40207 58004 60006 81202 91200=
07747,1996-06-09 15:00:00,25,1019.6,-1.1,61,17,9000,14.816,,,140,,,,,,,,,,,wg-a,,,,AAXX 09154 07747 12/59 21408 10250 20170 30142 40196 58011 60006 80002 91500=
07747,1996-06-09 18:00:00,24,1019,-0.6,61,16,10000,11.112,,,70,18.4,26.3,,,,,,,,,wg-a,,,,AAXX 09184 07747 12/60 30706 10240 20160 30136 40190 58006 60006 81082 91800 333 10263 20184=
07747,1996-06-10 00:00:00,19,1020.4,0.1,94,18,8000,3.704,,,130,,,,,,,,,,,wg-a,,,,AAXX 10004 07747 12/58 01302 10190 20180 30149 40204 51001 60006 80000 90000=
07747,1996-06-10 03:00:00,17,1020.1,-0.4,94,16,500,3.704,,,270,,,,,,,,,,,wg-a,,,,AAXX 10034 07747 12200 22702 10170 20160 30145 40201 58004 60006 82600 90300=
07747,1996-06-10 06:00:00,19,1021.2,1.2,83,16,9000,7.408,,,340,16.5,24.3,,,,,,,,,wg-a,,,,AAXX 10064 07747 02/59 03404 10190 20160 30157 40212 51012 60006 80000 90600 333 10243 20165 60004=
07747,1996-06-10 09:00:00,25,1021.5,0.4,54,15,12000,7.408,,,100,,,,,,,,,,,wg-a,,,,AAXX 10094 07747 12/62 01004 10250 20150 30161 40215 51004 60006 80000 90900=
07747,1996-06-10 12:00:00,28,1020.7,-0.8,51,17,12000,14.816,,,90,,,,,,,,,,,wg-a,,,,AAXX 10124 07747 12562 /0908 10280 20170 30153 40207 58008 60006 81903 91200=
07747,1996-06-10 15:00:00,27,1020,-0.7,54,17,12000,14.816,,,120,,,,,,,,,,,wg-a,,,,AAXX 10154 07747 12562 31208 10270 20170 30146 40200 56007 60006 82903 91500=
07747,1996-06-10 18:00:00,26,1019.7,-0.3,54,16,10000,11.112,,,70,19.2,28.4,,,,,,,,,wg-a,,,,AAXX 10184 07747 12/60 20706 10260 20160 30143 40197 55003 60006 80003 91800 333 10284 20192=
07747,1996-06-10 21:00:00,21,1021.8,2,78,17,8000,7.408,,,80,,,,,,,,,,,wg-a,,,,AAXX 10214 07747 12/58 /0804 10210 20170 30163 40218 53020 60006 80002 92100=
07747,1996-06-11 00:00:00,18,1021.8,-0.1,88,16,8000,7.408,,,250,,,,,,,,,,,wg-a,,,,AAXX 11004 07747 12/58 02504 10180 20160 30162 40218 58001 60006 80000 90000=
07747,1996-06-11 03:00:00,18,1021.8,0,88,16,7000,3.704,,,240,,,,,,,,,,,wg-a,,,,AAXX 11034 07747 12357 /2402 10180 20160 30162 40218 50000 60006 81601 90300=
07747,1996-06-11 06:00:00,21,1022.7,1,78,17,10000,3.704,,,100,16.7,25.6,,,,,,,,,wg-a,,,,AAXX 11064 07747 02/60 11002 10210 20170 30172 40227 53010 60006 80001 90600 333 10256 20167 60004=
07747,1996-06-11 09:00:00,29,1023.2,0.6,48,17,12000,7.408,,,220,,,,,,,,,,,wg-a,,,,AAXX 11094 07747 12762 /2204 10290 20170 30178 40232 50006 60006 81100 90900=
07747,1996-06-11 12:00:00,32,1022.6,-0.5,41,17,12000,11.112,,,100,,,,,,,,,,,wg-a,,,,AAXX 11124 07747 12662 /1006 10320 20170 30173 40226 58005 60006 81200 91200=
07747,1996-06-11 15:00:00,30,1022,-0.7,40,15,15000,14.816,,,140,,,,,,,,,,,wg-a,,,,AAXX 11154 07747 12665 /1408 10300 20150 30166 40220 56007 60006 82966 91500=
07747,1996-06-11 18:00:00,27,1021.9,-0.1,51,16,25000,3.704,,,60,20.8,31.7,,,,,,,,,wg-a,,,,AAXX 11184 07747 12675 70602 10270 20160 30165 40219 56001 60006 81232 91800 333 10317 20208=
07747,1996-06-11 21:00:00,24,1023,1,65,17,25000,7.408,,,280,,,,,,,,,,,wg-a,,,,AAXX 11214 07747 12/75 42804 10240 20170 30175 40230 53010 60006 81032 92100=
07747,1996-06-12 00:00:00,26,1022.6,-0.3,51,15,25000,18.52,,,300,,,,,,,,,,,wg-a,,,,AAXX 12004 07747 12/75 03010 10260 20150 30172 40226 58003 60006 80000 90000=
07747,1996-06-12 03:00:00,25,1022.5,-0.1,65,18,500,31.484,,,320,,,,,,,,,,,wg-a,,,,AAXX 12034 07747 12/00 03217 10250 20180 30171 40225 57001 60006 80000 90300=
07747,1996-06-12 06:00:00,25,1023.7,1.1,65,18,15000,31.484,,,320,22.8,27.2,,,,,,,,,wg-a,,,,AAXX 12064 07747 02665 /3217 10250 20180 30182 40237 51011 60006 81140 90600 333 10272 20228 60004=
07747,1996-06-12 09:00:00,29,1024,0.4,52,18,15000,31.484,,,320,,,,,,,,,,,wg-a,,,,AAXX 12094 07747 12665 /3217 10290 20180 30186 40240 51004 60006 81100 90900=
07747,1996-06-12 12:00:00,31,1023.4,-0.5,49,19,15000,31.484,,,330,,,,,,,,,,,wg-a,,,,AAXX 12124 07747 12665 /3317 10310 20190 30181 40234 58005 60006 81200 91200=
07747,1996-06-12 15:00:00,32,1022.1,-1.3,41,17,15000,29.632,,,330,,,,,,,,,,,wg-a,,,,AAXX 12154 07747 12665 /3316 10320 20170 30168 40221 56013 60006 81900 91500=
07747,1996-06-12 18:00:00,30,1021.4,-0.7,49,18,15000,29.632,,,320,24.8,33,,,,,,,,,wg-a,,,,AAXX 12184 07747 12665 43216 10300 20180 30161 40214 56007 60006 81283 91800 333 10330 20248=
07747,1996-06-12 21:00:00,27,1023.2,1.7,62,19,15000,31.484,,,320,,,,,,,,,,,wg-a,,,,AAXX 12214 07747 12/65 23217 10270 20190 30178 40232 53017 60006 80002 92100=
07747,1996-06-13 00:00:00,26,1023.3,0.1,61,18,15000,29.632,,,330,,,,,,,,,,,wg-a,,,,AAXX 13004 07747 12665 13316 10260 20180 30179 40233 50001 60006 81500 90000=
07747,1996-06-13 03:00:00,24,1022.6,-0.8,61,16,15000,14.816,,,300,,,,,,,,,,,wg-a,,,,AAXX 13034 07747 12665 /3008 10240 20160 30171 40226 56008 60006 81500 90300=
07747,1996-06-13 06:00:00,25,1022.2,-0.3,57,16,500,22.224,,,320,23.2,30.2,,,,,,,,,wg-a,,,,AAXX 13064 07747 02/00 13212 10250 20160 30168 40222 58003 60006 80002 90600 333 10302 20232 60004=
07747,1996-06-13 09:00:00,29,1021.4,-0.8,43,15,45000,31.484,,,320,,,,,,,,,,,wg-a,,,,AAXX 13094 07747 12/83 03217 10290 20150 30160 40214 58008 60006 80000 90900=
07747,1996-06-13 12:00:00,31,1020,-1.3,38,15,40000,38.892,,59.264,330,,,,,,,,,,,wg-a,,,,AAXX 13124 07747 12682 /3321 10310 20150 30147 40200 58013 60006 81100 91200 333 91032=
07747,1996-06-13 15:00:00,31,1018.6,-1.4,36,14,11000,42.596,,61.116,340,,,,,,,,,,,wg-a,,,,AAXX 13154 07747 12/61 /3423 10310 20140 30133 40186 56014 60006 91500 333 91033=
07747,1996-06-13 18:00:00,29,1017.9,-0.8,40,14,500,38.892,,57.412,340,25.1,32.2,,,,,,,,,wg-a,,,,AAXX 13184 07747 12700 /3421 10290 20140 30125 40179 55008 60006 81100 91800 333 10322 20251 91031=
07747,1996-06-13 21:00:00,26,1020,2.1,42,12,500,14.816,,,320,,,,,,,,,,,wg-a,,,,AAXX 13214 07747 12/00 03208 10260 20120 30146 40200 51021 60006 80000 92100=
07747,1996-06-14 00:00:00,25,1019.9,-0.1,47,13,500,14.816,,,330,,,,,,,,,,,wg-a,,,,AAXX 14004 07747 12/00 03308 10250 20130 30145 40199 58001 60006 80000 90000=
07747,1996-06-14 03:00:00,21,1019.1,-0.9,56,12,500,7.408,,,310,,,,,,,,,,,wg-a,,,,AAXX 14034 07747 12/00 03104 10210 20120 30136 40191 58009 60006 80000 90300=
07747,1996-06-14 06:00:00,24,1018.9,-0.2,47,12,40000,14.816,,,330,19,29.1,,,,,,,,,wg-a,,,,AAXX 14064 07747 02/82 03308 10240 20120 30134 40189 58002 60006 80000 90600 333 10291 20190 60004=
07747,1996-06-14 09:00:00,29,1018.5,-0.3,35,12,35000,18.52,,,350,,,,,,,,,,,wg-a,,,,AAXX 14094 07747 12681 /3510 10290 20120 30131 40185 56003 60006 81100 90900=
07747,1996-06-14 12:00:00,30,1018.6,0.2,29,10,25000,22.224,,,70,,,,,,,,,,,wg-a,,,,AAXX 14124 07747 12775 /0712 10300 20100 30133 40186 51002 60006 81100 91200=
07747,1996-06-14 15:00:00,28,1018.4,-0.3,42,14,25000,18.52,,,120,,,,,,,,,,,wg-a,,,,AAXX 14154 07747 12875 /1210 10280 20140 30130 40184 55003 60006 81100 91500=
07747,1996-06-14 18:00:00,25,1018.8,0.4,65,18,8000,14.816,,,110,24,30.8,,,,,,,,,wg-a,,,,AAXX 14184 07747 12758 /1108 10250 20180 30134 40188 53004 60006 81200 91800 333 10308 20240=
07747,1996-06-14 21:00:00,21,1020.3,1.4,88,19,6000,3.704,,,140,,,,,,,,,,,wg-a,,,,AAXX 14214 07747 12/56 01402 10210 20190 30148 40203 53014 60006 80000 92100=
07747,1996-06-15 00:00:00,20,1020.3,0,88,18,6000,3.704,,,360,,,,,,,,,,,wg-a,,,,AAXX 15004 07747 12/56 03602 10200 20180 30148 40203 50000 60006 80000 90000=
07747,1996-06-15 03:00:00,18,1019.6,-0.8,88,16,6000,0,,,0,,,,,,,,,,,wg-a,,,,AAXX 15034 07747 12456 30000 10180 20160 30140 40196 56008 60006 83600 90300=
07747,1996-06-15 06:00:00,20,1019.5,-0,88,18,7000,7.408,,,260,16.8,24.5,,,,,,,,,wg-a,,,,AAXX 15064 07747 02357 /2604 10200 20180 30140 40195 54000 60006 81600 90600 333 10245 20168 60004=
07747,1996-06-15 09:00:00,26,1019.6,0.2,48,14,12000,11.112,,,80,,,,,,,,,,,wg-a,,,,AAXX 15094 07747 12/62 00806 10260 20140 30142 40196 51002 60006 80000 90900=
07747,1996-06-15 12:00:00,27,1018.5,-1.1,48,15,15000,11.112,,,80,,,,,,,,,,,wg-a,,,,AAXX 15124 07747 12665 /0806 10270 20150 30131 40185 58011 60006 81100 91200=
07747,1996-06-15 15:00:00,26,1017.6,-0.9,58,17,12000,18.52,,,100,,,,,,,,,,,wg-a,,,,AAXX 15154 07747 12662 /1010 10260 20170 30122 40176 56009 60006 81101 91500=
07747,1996-06-15 18:00:00,25,1017.5,-0.1,65,18,10000,11.112,,,110,20,27.8,,,,,,,,,wg-a,,,,AAXX 15184 07747 12/60 11106 10250 20180 30121 40175 55001 60006 80001 91800 333 10278 20200=
07747,1996-06-15 21:00:00,22,1019.1,1.5,83,19,6000,0,,,0,,,,,,,,,,,wg-a,,,,AAXX 15214 07747 12/56 20000 10220 20190 30136 40191 53015 60006 80002 92100=
07747,1996-06-16 00:00:00,21,1018.5,-0.6,88,19,500,3.704,,,110,,,,,,,,,,,wg-a,,,,AAXX 16004 07747 12400 61102 10210 20190 30130 40185 58006 60006 86600 90000=
07747,1996-06-16 03:00:00,21,1017.7,-0.8,88,19,500,3.704,,,80,,,,,,,,,,,wg-a,,,,AAXX 16034 07747 12400 70802 10210 20190 30122 40177 56008 60006 876// 90300=
07747,1996-06-16 06:00:00,21,1017.9,0.2,88,19,4500,7.408,,,140,20.6,24.8,,,,,,,,10,wg-a,,,,AAXX 16064 07747 02345 71404 10210 20190 30124 40179 53002 60006 71022 876// 90600 333 10248 20206 60004=
07747,1996-06-16 09:00:00,25,1017.9,0.1,57,16,8000,14.816,,,120,,,,,,,,,,,wg-a,,,,AAXX 16094 07747 12458 /1208 10250 20160 30125 40179 50001 60006 81100 90900=
07747,1996-06-16 12:00:00,27,1017.5,-0.4,51,16,15000,22.224,,,100,,,,,,,,,,,wg-a,,,,AAXX 16124 07747 12565 /1012 10270 20160 30121 40175 58004 60006 81200 91200=
07747,1996-06-16 15:00:00,28,1016.2,-1.3,42,14,15000,18.52,,,90,,,,,,,,,,,wg-a,,,,AAXX 16154 07747 12565 40910 10280 20140 30108 40162 58013 60006 83903 91500=
07747,1996-06-16 18:00:00,26,1015.2,-1,48,14,25000,7.408,,,70,20.9,28,,,,,,,,,wg-a,,,,AAXX 16184 07747 12575 30704 10260 20140 30098 40152 56010 60006 82260 91800 333 10280 20209=
07747,1996-06-16 21:00:00,21,1016.1,0.8,64,14,15000,11.112,,,270,,,,,,,,,,,wg-a,,,,AAXX 16214 07747 12565 /2706 10210 20140 30106 40161 53008 60006 81101 92100=
07747,1996-06-17 00:00:00,19,1016.2,0.1,73,14,15000,7.408,,,230,,,,,,,,,,,wg-a,,,,AAXX 17004 07747 12465 32304 10190 20140 30107 40162 52001 60006 83600 90000=
07747,1996-06-17 03:00:00,18,1016.3,0,77,14,15000,0,,,0,,,,,,,,,,,wg-a,,,,AAXX 17034 07747 12465 20000 10180 20140 30107 40163 50000 60006 82600 90300=
07747,1996-06-17 06:00:00,20,1017,0.8,68,14,20000,3.704,,,290,16.6,25.6,,,,,,,,,wg-a,,,,AAXX 17064 07747 02570 /2902 10200 20140 30115 40170 53008 60006 81100 90600 333 10256 20166 60004=
07747,1996-06-17 09:00:00,25,1018.1,1.2,61,17,10000,11.112,,,100,,,,,,,,,,,wg-a,,,,AAXX 17094 07747 12460 /1006 10250 20170 30127 40181 53012 60006 81100 90900=
07747,1996-06-17 12:00:00,27,1018.2,0.1,45,14,10000,22.224,,,100,,,,,,,,,,,wg-a,,,,AAXX 17124 07747 12560 /1012 10270 20140 30128 40182 53001 60006 81200 91200=
07747,1996-06-17 15:00:00,26,1017.8,-0.4,65,19,10000,22.224,,,110,,,,,,,,,,,wg-a,,,,AAXX 17154 07747 12460 21112 10260 20190 30124 40178 57004 60006 82200 91500=
07747,1996-06-17 18:00:00,24,1017.2,-0.6,74,19,12000,14.816,,,120,20,27.5,,,,,,,,,wg-a,,,,AAXX 17184 07747 12562 31208 10240 20190 30118 40172 56006 60006 81182 91800 333 10275 20200=
07747,1996-06-17 21:00:00,21,1018.1,0.8,88,19,500,11.112,,,10,,,,,,,,,,,wg-a,,,,AAXX 17214 07747 12400 20106 10210 20190 30126 40181 53008 60006 82600 92100=
07747,1996-06-18 00:00:00,20,1017.7,-0.4,88,18,500,3.704,,,200,,,,,,,,,,,wg-a,,,,AAXX 18004 07747 12400 32002 10200 20180 30122 40177 58004 60006 83600 90000=
07747,1996-06-18 03:00:00,17,1017.1,-0.7,94,16,6000,0,,,0,,,,,,,,,,,wg-a,,,,AAXX 18034 07747 12456 30000 10170 20160 30115 40171 58007 60006 83600 90300=
07747,1996-06-18 06:00:00,20,1017,0,88,18,7000,7.408,,,360,16.7,23.6,,,,,,,,,wg-a,,,,AAXX 18064 07747 02457 /3604 10200 20180 30115 40170 50000 60006 81681 90600 333 10236 20167 60004=
07747,1996-06-18 09:00:00,25,1016.6,-0.3,65,18,8000,7.408,,,40,,,,,,,,,,,wg-a,,,,AAXX 18094 07747 12558 60404 10250 20180 30112 40166 58003 60006 84201 90900=
07747,1996-06-18 12:00:00,26,1015.9,-0.7,65,19,9000,11.112,,,100,,,,,,,,,,,wg-a,,,,AAXX 18124 07747 12559 /1006 10260 20190 30105 40159 58007 60006 82201 91200=
07747,1996-06-18 15:00:00,26,1014.5,-1.4,61,18,10000,14.816,,,70,,,,,,,,,,,wg-a,,,,AAXX 18154 07747 12560 /0708 10260 20180 30091 40145 57014 60006 83201 91500=
07747,1996-06-18 18:00:00,25,1014.2,-0.3,54,15,9000,18.52,,,270,19.7,27.3,,,,,,,,,wg-a,,,,AAXX 18184 07747 12559 82710 10250 20150 30088 40142 56003 60006 8698/ 91800 333 10273 20197=
07747,1996-06-18 21:00:00,22,1014.4,0.1,65,15,10000,7.408,,,290,,,,,,,,,,,wg-a,,,,AAXX 18214 07747 12560 32904 10220 20150 30089 40144 53001 60006 82102 92100=
07747,1996-06-19 00:00:00,22,1013.7,-0.7,69,16,10000,7.408,,,340,,,,,,,,,,,wg-a,,,,AAXX 19004 07747 12560 33404 10220 20160 30082 40137 58007 60006 81102 90000=
07747,1996-06-19 09:00:00,28,1013.5,0.4,55,18,15000,11.112,,,80,,,,,,,,,,,wg-a,,,,AAXX 19094 07747 12665 40806 10280 20180 30082 40135 51004 60006 81102 90900=
07747,1996-06-19 12:00:00,31,1012.6,-0.9,46,18,15000,14.816,,,130,,,,,,,,,,,wg-a,,,,AAXX 19124 07747 12665 41308 10310 20180 30073 40126 57009 60006 84202 91200=
07747,1996-06-19 15:00:00,31,1011.1,-1.5,38,15,15000,18.52,,,140,,,,,,,,,,,wg-a,,,,AAXX 19154 07747 12665 31410 10310 20150 30058 40111 58015 60006 82282 91500=
07747,1996-06-19 18:00:00,28,1010.4,-0.7,48,16,15000,25.928,,,210,23.7,31.9,,,,,,,,,wg-a,,,,AAXX 19184 07747 12665 /2114 10280 20160 30051 40104 55007 60006 83982 91800 333 10319 20237=
07747,1996-06-19 21:00:00,26,1011.4,0.9,54,16,10000,7.408,,,280,,,,,,,,,,,wg-a,,,,AAXX 19214 07747 12660 /2804 10260 20160 30060 40114 52009 60006 82282 92100=
07747,1996-06-20 00:00:00,26,1010.5,-0.9,51,15,15000,14.816,,,310,,,,,,,,,,,wg-a,,,,AAXX 20004 07747 12665 63108 10260 20150 30051 40105 58009 60006 81182 90000=
07747,1996-06-20 03:00:00,23,1010.5,-0,65,16,20000,18.52,,,320,,,,,,,,,,,wg-a,,,,AAXX 20034 07747 12/70 53210 10230 20160 30051 40105 55000 60006 81031 90300=
07747,1996-06-20 06:00:00,22,1010.9,0.4,65,15,9000,22.224,,,320,21.6,28.3,,,,,,,,,wg-a,,,,AAXX 20064 07747 02/59 43212 10220 20150 30055 40109 53004 60006 82031 90600 333 10283 20216 60004=
07747,1996-06-20 09:00:00,26,1010.5,-0.4,48,14,12000,18.52,,,310,,,,,,,,,,,wg-a,,,,AAXX 20094 07747 12/62 03110 10260 20140 30051 40105 58004 60006 80000 90900=
07747,1996-06-20 12:00:00,29,1009.2,-1.2,43,15,12000,11.112,,,220,,,,,,,,,,,wg-a,,,,AAXX 20124 07747 12662 72206 10290 20150 30039 40092 57012 60006 86250 91200=
07747,1996-06-20 15:00:00,26,1008.8,-0.5,58,17,8000,14.816,,,150,,,,,,,,,,,wg-a,,,,AAXX 20154 07747 12658 71508 10260 20170 30034 40088 56005 60006 83222 91500=
07747,1996-06-20 18:00:00,24,1007.6,-1.2,74,19,9000,11.112,,,220,22.1,30.2,,,,,,,,3,wg-a,,,,AAXX 20184 07747 12659 72206 10240 20190 30022 40076 56012 60006 70392 84983 91800 333 10302 20221=
07747,1996-06-20 21:00:00,24,1008.1,0.5,61,16,9000,18.52,,,310,,,,,,,,,,1,wg-a,,,,AAXX 20214 07747 12559 73110 10240 20160 30027 40081 53005 60006 70192 8698/ 92100=
07747,1996-06-21 00:00:00,22,1006.8,-1.3,73,17,9000,11.112,,,300,,,,,,,,,,1,wg-a,,,,AAXX 21004 07747 12559 /3006 10220 20170 30014 40068 56013 60006 70192 84880 90000=
07747,1996-06-21 03:00:00,19,1005,-1.9,83,16,9000,3.704,,,210,,,,,,,,,,,wg-a,,,,AAXX 21034 07747 12559 32102 10190 20160 39995 40050 56019 60006 83800 90300=
07747,1996-06-21 06:00:00,20,1004,-0.9,78,16,9000,3.704,,,220,17.7,24.6,,,,,,,,,wg-a,,,,AAXX 21064 07747 02559 72202 10200 20160 39986 40040 58009 60006 83182 90600 333 10246 20177 60004=
07747,1996-06-21 12:00:00,25,1003.6,0.6,39,10,500,42.596,,61.116,330,,,,,,,,,,,wg-a,,,,AAXX 21124 07747 12500 33323 10250 20100 39982 40036 50006 60006 83100 91200 333 91033=
07747,1996-06-21 15:00:00,20,1005.1,1.5,64,13,15000,29.632,,,320,,,,2,,,,,,29,wg-a,,,,AAXX 21154 07747 12565 73216 10200 20130 39997 40051 53015 60027 72996 879// 91500=
07747,1996-06-21 18:00:00,20,1006.9,1.7,56,11,35000,31.484,,,330,18.1,26,,,,,,,,1,wg-a,,,,AAXX 21184 07747 32581 73317 10200 20110 30014 40069 53017 70196 878// 91800 333 10260 20181=
07747,1996-06-21 21:00:00,18,1009.3,2.4,64,11,15000,25.928,,,320,,,,0,,,,,,15,wg-a,,,,AAXX 21214 07747 12565 73214 10180 20110 30038 40093 53024 60007 71586 878// 92100=
07747,1996-06-22 00:00:00,17,1009.6,0.3,59,9,15000,42.596,,,300,,,,,,,,,,13,wg-a,,,,AAXX 22004 07747 12565 83023 10170 20090 30041 40096 50003 60006 71386 879// 90000=
07747,1996-06-22 03:00:00,17,1011.1,1.5,59,9,15000,38.892,,,300,,,,,,,,,,,wg-a,,,,AAXX 22034 07747 12565 73021 10170 20090 30056 40111 50015 60006 878// 90300=
07747,1996-06-22 06:00:00,18,1013.2,2.1,59,10,20000,38.892,,64.82,320,16.8,19.8,,,,,3,,,,wg-a,,,,AAXX 22064 07747 12570 63221 10180 20100 30077 40132 53021 60034 85840 90600 333 10198 20168 91035=
07747,1996-06-22 09:00:00,21,1014.1,0.9,46,9,500,46.3,,68.524,330,,,,,,,,,,,wg-a,,,,AAXX 22094 07747 12500 33325 10210 20090 30086 40141 53009 60006 83800 90900 333 91037=
07747,1996-06-22 12:00:00,17,1017.5,3.3,63,10,500,25.928,,,300,,,,1,,,,,,25,wg-a,,,,AAXX 22124 07747 02500 63014 10170 20100 30119 40175 51033 60016 72586 86800 91200 333 60017=
07747,1996-06-22 15:00:00,20,1018.2,0.8,53,10,20000,38.892,,55.56,300,,,,,,,,,,,wg-a,,,,AAXX 22154 07747 12570 53021 10200 20100 30127 40182 51008 60006 85800 91500 333 91030=
07747,1996-06-22 18:00:00,20,1018.5,0.3,49,9,20000,29.632,,50.004,310,15.3,21.9,,,,,,,,,wg-a,,,,AAXX 22184 07747 32570 43116 10200 20090 30130 40185 51003 84800 91800 333 10219 20153 91027=
07747,1996-06-22 21:00:00,18,1020,1.4,56,9,15000,31.484,,,330,,,,,,,,,,,wg-a,,,,AAXX 22214 07747 12565 63317 10180 20090 30144 40200 53014 60006 86800 92100=
07747,1996-06-23 00:00:00,17,1020.9,0.9,59,9,15000,22.224,,,320,,,,,,,,,,,wg-a,,,,AAXX 23004 07747 12565 33212 10170 20090 30153 40209 51009 60006 83100 90000=
07747,1996-06-23 03:00:00,16,1020.3,-0.6,59,8,15000,22.224,,,310,,,,,,,,,,,wg-a,,,,AAXX 23034 07747 12565 53112 10160 20080 30147 40203 58006 60006 83102 90300=
07747,1996-06-23 06:00:00,17,1020.4,0.1,55,8,15000,29.632,,,320,16,19.9,,,,,1,,,,wg-a,,,,AAXX 23064 07747 02565 33216 10170 20080 30148 40204 53001 60006 81132 90600 333 10199 20160 60014=
07747,1996-06-23 09:00:00,20,1019.8,-0.5,37,5,20000,38.892,,,320,,,,,,,,,,,wg-a,,,,AAXX 23094 07747 12570 33221 10200 20050 30143 40198 58005 60006 81132 90900=
07747,1996-06-23 12:00:00,21,1019.8,-0,35,5,25000,29.632,,48.152,320,,,,,,,,,,,wg-a,,,,AAXX 23124 07747 12575 /3216 10210 20050 30143 40198 55000 60006 83232 91200 333 91026=
07747,1996-06-23 15:00:00,20,1019,-0.8,43,7,25000,31.484,,51.856,330,,,,,,,,,,,wg-a,,,,AAXX 23154 07747 12575 53317 10200 20070 30135 40190 55008 60006 84201 91500 333 91028=
07747,1996-06-23 18:00:00,18,1019.9,0.8,52,8,25000,25.928,,,320,16.7,22.3,,,,,,,,,wg-a,,,,AAXX 23184 07747 12575 63214 10180 20080 30143 40199 53008 60006 84201 91800 333 10223 20167=
07747,1996-06-23 21:00:00,17,1020.7,0.8,52,7,25000,31.484,,,320,,,,,,,,,,,wg-a,,,,AAXX 23214 07747 12675 43217 10170 20070 30151 40207 51008 60006 83501 92100=
07747,1996-06-24 00:00:00,15,1021.5,0.8,59,7,25000,18.52,,,340,,,,,,,,,,,wg-a,,,,AAXX 24004 07747 12/75 03410 10150 20070 30159 40215 53008 60006 80000 90000=
07747,1996-06-24 03:00:00,15,1021.8,0.2,55,6,25000,29.632,,,320,,,,,,,,,,,wg-a,,,,AAXX 24034 07747 12575 23216 10150 20060 30161 40218 53002 60006 82100 90300=
07747,1996-06-24 06:00:00,16,1022.4,0.7,51,6,40000,29.632,,,330,14.1,17.9,,,,,,,,,wg-a,,,,AAXX 24064 07747 02582 33316 10160 20060 30168 40224 52007 60006 82840 90600 333 10179 20141 60004=
07747,1996-06-24 09:00:00,19,1022.8,0.4,40,5,500,38.892,,66.672,330,,,,,,,,,,,wg-a,,,,AAXX 24094 07747 12500 33321 10190 20050 30172 40228 53004 60006 83102 90900 333 91036=
07747,1996-06-24 12:00:00,21,1021.9,-0.8,35,5,500,42.596,,,330,,,,,,,,,,,wg-a,,,,AAXX 24124 07747 12500 33323 10210 20050 30164 40219 58008 60006 83102 91200=
07747,1996-06-24 15:00:00,21,1021.2,-0.7,35,5,25000,38.892,,64.82,340,,,,,,,,,,,wg-a,,,,AAXX 24154 07747 12575 33421 10210 20050 30157 40212 55007 60006 83102 91500 333 91035=
07747,1996-06-24 18:00:00,21,1021.1,-0.1,35,5,25000,31.484,,,330,15.8,22.7,,,,,,,,,wg-a,,,,AAXX 24184 07747 12575 53317 10210 20050 30156 40211 55001 60006 83201 91800 333 10227 20158=
07747,1996-06-25 00:00:00,17,1021.8,-0.3,52,7,0,22.224,,,320,,,,,,,,,,,wg-a,,,,AAXX 25004 07747 12/// /3212 10170 20070 30162 40218 58003 60006 90000=
07747,1996-06-25 03:00:00,16,1021,-0.8,55,7,25000,42.596,,62.968,320,,,,,,,,,,,wg-a,,,,AAXX 25034 07747 12675 /3223 10160 20070 30154 40210 58008 60006 83502 90300 333 91034=
07747,1996-06-25 06:00:00,17,1020.7,-0.3,55,8,500,35.188,,,320,16.1,21.1,,,,,,,,,wg-a,,,,AAXX 25064 07747 02500 73219 10170 20080 30151 40207 58003 60006 83832 90600 333 10211 20161 60004=
07747,1996-06-25 09:00:00,19,1020.7,0,49,8,40000,29.632,,,330,,,,,,,,,,,wg-a,,,,AAXX 25094 07747 12582 23316 10190 20080 30151 40207 50000 60006 82830 90900=
07747,1996-06-25 12:00:00,22,1020.2,-0.4,41,8,40000,29.632,,50.004,330,,,,,,,,,,,wg-a,,,,AAXX 25124 07747 12782 23316 10220 20080 30147 40202 56004 60006 82201 91200 333 91027=
07747,1996-06-25 15:00:00,22,1019.7,-0.5,43,9,35000,35.188,,53.708,330,,,,,,,,,,,wg-a,,,,AAXX 25154 07747 12781 33319 10220 20090 30142 40197 58005 60006 83200 91500 333 91029=
07747,1996-06-25 18:00:00,21,1019.9,0.2,43,8,35000,31.484,,50.004,330,,22.7,,,,,,,,,wg-a,,,,AAXX 25184 07747 12681 23317 10210 20080 30144 40199 53002 60006 82800 91800 333 10227 91027=
07747,1996-06-25 21:00:00,18,1021.9,1.9,52,8,25000,22.224,,,310,,,,,,,,,,,wg-a,,,,AAXX 25214 07747 12675 23112 10180 20080 30163 40219 53019 60006 81802 92100=
07747,1996-06-26 00:00:00,17,1021.8,-0.1,55,8,25000,22.224,,,310,,,,,,,,,,,wg-a,,,,AAXX 26004 07747 12675 13112 10170 20080 30162 40218 56001 60006 81500 90000=
07747,1996-06-26 03:00:00,17,1020.6,-1.2,55,8,25000,25.928,,,320,,,,,,,,,,,wg-a,,,,AAXX 26034 07747 12575 73214 10170 20080 30150 40206 58012 60006 84830 90300=
07747,1996-06-26 06:00:00,18,1021,0.4,52,8,40000,29.632,,48.152,330,16.6,20.5,,,,,,,,,wg-a,,,,AAXX 26064 07747 02682 /3316 10180 20080 30154 40210 51004 60006 8184/ 90600 333 10205 20166 60004 91026=
07747,1996-06-26 09:00:00,20,1021.4,0.4,46,8,40000,35.188,,55.56,330,,,,,,,,,,,wg-a,,,,AAXX 26094 07747 12682 /3319 10200 20080 30158 40214 51004 60006 84200 90900 333 91030=
07747,1996-06-26 12:00:00,23,1021.1,-0.2,38,8,40000,35.188,,70.376,320,,,,,,,,,,,wg-a,,,,AAXX 26124 07747 12682 33219 10230 20080 30156 40211 58002 60006 83800 91200 333 91038=
07747,1996-06-26 15:00:00,24,1020.2,-0.9,38,9,40000,35.188,,53.708,330,,,,,,,,,,,wg-a,,,,AAXX 26154 07747 12682 23319 10240 20090 30147 40202 58009 60006 82200 91500 333 91029=
07747,1996-06-26 18:00:00,23,1020.6,0.4,44,10,25000,29.632,,,330,17.5,24.5,,,,,,,,,wg-a,,,,AAXX 26184 07747 12675 /3316 10230 20100 30151 40206 51004 60006 81104 91800 333 10245 20175=
07747,1996-06-26 21:00:00,20,1022.7,2.1,53,10,18000,18.52,,,310,,,,,,,,,,,wg-a,,,,AAXX 26214 07747 12/68 03110 10200 20100 30172 40227 53021 60006 80000 92100=
07747,1996-06-27 00:00:00,20,1023.2,0.4,60,12,15000,14.816,,,310,,,,,,,,,,,wg-a,,,,AAXX 27004 07747 12/65 13108 10200 20120 30176 40232 51004 60006 81030 90000=
07747,1996-06-27 03:00:00,19,1022.8,-0.4,64,12,15000,18.52,,,310,,,,,,,,,,,wg-a,,,,AAXX 27034 07747 12/65 03110 10190 20120 30172 40228 55004 60006 80000 90300=
07747,1996-06-27 06:00:00,20,1023.4,0.6,60,12,15000,25.928,,,330,18.4,23,,,,,,,,,wg-a,,,,AAXX 27064 07747 02/65 03314 10200 20120 30178 40234 53006 60006 80000 90600 333 10230 20184 60004=
07747,1996-06-27 09:00:00,24,1023.7,0.4,44,11,15000,22.224,,,320,,,,,,,,,,,wg-a,,,,AAXX 27094 07747 12665 /3212 10240 20110 30182 40237 50004 60006 81100 90900=
07747,1996-06-27 12:00:00,27,1022.9,-0.7,34,10,15000,22.224,,,350,,,,,,,,,,,wg-a,,,,AAXX 27124 07747 12665 23512 10270 20100 30175 40229 58007 60006 82100 91200=
07747,1996-06-27 15:00:00,29,1021.5,-1.4,27,8,20000,25.928,,,10,,,,,,,,,,,wg-a,,,,AAXX 27154 07747 12670 20114 10290 20080 30161 40215 56014 60006 81102 91500=
07747,1996-06-27 18:00:00,27,1021.5,-0,32,9,20000,18.52,,,310,19.8,29.1,,,,,,,,,wg-a,,,,AAXX 27184 07747 12670 23110 10270 20090 30161 40215 55000 60006 81102 91800 333 10291 20198=
07747,1996-06-27 21:00:00,22,1022.4,0.8,43,9,20000,14.816,,,310,,,,,,,,,,,wg-a,,,,AAXX 27214 07747 12/70 13108 10220 20090 30169 40224 53008 60006 80002 92100=
07747,1996-06-28 00:00:00,19,1022.7,0.2,60,11,20000,7.408,,,240,,,,,,,,,,,wg-a,,,,AAXX 28004 07747 12/70 02404 10190 20110 30171 40227 50002 60006 80000 90000=
07747,1996-06-28 03:00:00,16,1022.1,-0.6,72,11,20000,11.112,,,250,,,,,,,,,,,wg-a,,,,AAXX 28034 07747 12/70 02506 10160 20110 30165 40221 56006 60006 80000 90300=
07747,1996-06-28 06:00:00,19,1022.3,0.2,64,12,25000,7.408,,,260,15.3,27.4,,,,,,,,,wg-a,,,,AAXX 28064 07747 02/75 12604 10190 20120 30167 40223 51002 60006 80002 90600 333 10274 20153 60004=
07747,1996-06-28 09:00:00,26,1021.9,-0.2,39,11,25000,7.408,,,150,,,,,,,,,,,wg-a,,,,AAXX 28094 07747 12/75 01504 10260 20110 30165 40219 58002 60006 80000 90900=
07747,1996-06-28 12:00:00,27,1020.8,-1.1,37,11,25000,25.928,,,140,,,,,,,,,,,wg-a,,,,AAXX 28124 07747 12575 /1414 10270 20110 30154 40208 58011 60006 81100 91200=
07747,1996-06-28 15:00:00,27,1019.6,-1.2,42,13,15000,18.52,,,120,,,,,,,,,,,wg-a,,,,AAXX 28154 07747 12565 /1210 10270 20130 30142 40196 58012 60006 81200 91500=
07747,1996-06-28 18:00:00,26,1018.4,-1.2,45,13,15000,7.408,,,120,19.5,27.8,,,,,,,,,wg-a,,,,AAXX 28184 07747 12565 /1204 10260 20130 30130 40184 56012 60006 81200 91800 333 10278 20195=
07747,1996-06-28 21:00:00,22,1019.1,0.6,57,13,15000,11.112,,,280,,,,,,,,,,,wg-a,,,,AAXX 28214 07747 12665 /2806 10220 20130 30136 40191 53006 60006 81582 92100=
07747,1996-06-29 00:00:00,22,1018.9,-0.2,53,12,15000,3.704,,,230,,,,,,,,,,,wg-a,,,,AAXX 29004 07747 12665 /2302 10220 20120 30134 40189 55002 60006 81500 90000=
07747,1996-06-29 03:00:00,23,1018.6,-0.3,61,15,25000,22.224,,,310,,,,,,,,,,,wg-a,,,,AAXX 29034 07747 12/75 43112 10230 20150 30131 40186 58003 60006 80001 90300=
07747,1996-06-29 06:00:00,22,1019.3,0.7,53,12,11000,31.484,,,320,21.4,26.1,,,,,,,,,wg-a,,,,AAXX 29064 07747 02/61 /3217 10220 20120 30138 40193 53007 60006 90600 333 10261 20214 60004=
07747,1996-06-29 09:00:00,23,1019.9,0.6,53,13,11000,31.484,,,330,,,,,,,,,,,wg-a,,,,AAXX 29094 07747 12/61 /3317 10230 20130 30144 40199 50006 60006 90900=
07747,1996-06-29 12:00:00,25,1020,0.2,47,13,500,31.484,,,320,,,,,,,,,,,wg-a,,,,AAXX 29124 07747 12700 23217 10250 20130 30146 40200 51002 60006 81101 91200=
07747,1996-06-29 15:00:00,27,1019.3,-0.7,42,13,500,25.928,,,330,,,,,,,,,,,wg-a,,,,AAXX 29154 07747 12700 53314 10270 20130 30139 40193 56007 60006 83801 91500=
07747,1996-06-29 18:00:00,26,1018.8,-0.5,42,12,11000,31.484,,48.152,320,21.8,27.6,,,,,,,,,wg-a,,,,AAXX 29184 07747 12/61 /3217 10260 20120 30134 40188 58005 60006 91800 333 10276 20218 91026=
07747,1996-06-29 21:00:00,23,1020.5,1.6,53,13,500,14.816,,,300,,,,,,,,,,,wg-a,,,,AAXX 29214 07747 12700 23008 10230 20130 30150 40205 53016 60006 81180 92100=
07747,1996-06-30 00:00:00,21,1020.5,0,56,12,500,31.484,,,320,,,,,,,,,,,wg-a,,,,AAXX 30004 07747 12700 13217 10210 20120 30150 40205 50000 60006 81530 90000=
07747,1996-06-30 03:00:00,18,1020.6,0,64,11,11000,14.816,,,290,,,,,,,,,,,wg-a,,,,AAXX 30034 07747 12/61 /2908 10180 20110 30150 40206 50000 60006 90300=
07747,1996-06-30 06:00:00,19,1020.5,-0.1,56,10,45000,31.484,,,330,17.9,25.6,,,,,,,,,wg-a,,,,AAXX 30064 07747 02683 /3317 10190 20100 30149 40205 58001 60006 81804 90600 333 10256 20179 60004=
07747,1996-06-30 09:00:00,22,1019.7,-0.7,46,10,60000,31.484,,,320,,,,,,,,,,,wg-a,,,,AAXX 30094 07747 12686 43217 10220 20100 30142 40197 58007 60006 81802 90900=
07747,1996-06-30 12:00:00,25,1018.2,-1.4,36,9,50000,29.632,,,330,,,,,,,,,,,wg-a,,,,AAXX 30124 07747 12684 43316 10250 20090 30128 40182 58014 60006 81802 91200=
07747,1996-06-30 15:00:00,28,1016.4,-1.8,28,8,45000,22.224,,,330,,,,,,,,,,,wg-a,,,,AAXX 30154 07747 12683 23312 10280 20080 30110 40164 56018 60006 81802 91500=
07747,1996-06-30 18:00:00,26,1015.4,-1,34,9,40000,31.484,,,320,18.7,28.2,,,,,,,,,wg-a,,,,AAXX 30184 07747 12/82 13217 10260 20090 30100 40154 56010 60006 80002 91800 333 10282 20187=
07747,1996-06-30 21:00:00,23,1016.5,1,44,10,500,25.928,,,310,,,,,,,,,,,wg-a,,,,AAXX 30214 07747 12/00 23114 10230 20100 30110 40165 53010 60006 80001 92100=
07747,1996-07-01 00:00:00,21,1015.5,-1,53,11,500,29.632,,,310,,,,,,,,,,,wg-a,,,,AAXX 01004 07747 12/00 23116 10210 20110 30100 40155 58010 60006 80001 90000=
07747,1996-07-01 03:00:00,20,1014.6,-0.9,60,12,500,14.816,,,320,,,,,,,,,,,wg-a,,,,AAXX 01034 07747 12/00 23208 10200 20120 30091 40146 58009 60006 80001 90300=
07747,1996-07-01 06:00:00,20,1014.3,-0.3,60,12,35000,22.224,,,330,19,26.2,,,,,,,,,wg-a,,,,AAXX 01064 07747 02581 /3312 10200 20120 30088 40143 58003 60006 81131 90600 333 10262 20190 60004=
07747,1996-07-01 09:00:00,22,1014.2,-0.1,50,11,40000,25.928,,,330,,,,,,,,,,,wg-a,,,,AAXX 01094 07747 12582 /3314 10220 20110 30087 40142 58001 60006 81131 90900=
07747,1996-07-01 12:00:00,26,1012.9,-1.2,34,9,40000,14.816,,,360,,,,,,,,,,,wg-a,,,,AAXX 01124 07747 12682 /3608 10260 20090 30075 40129 58012 60006 81831 91200=
07747,1996-07-01 15:00:00,28,1011.9,-0.9,30,9,40000,22.224,,,340,,,,,,,,,,,wg-a,,,,AAXX 01154 07747 12682 63412 10280 20090 30066 40119 56009 60006 84831 91500=
07747,1996-07-01 18:00:00,25,1012.5,0.5,41,11,35000,22.224,,,330,19.9,28.5,,,,,,,,,wg-a,,,,AAXX 01184 07747 12681 73312 10250 20110 30071 40125 51005 60006 878// 91800 333 10285 20199=
07747,1996-07-02 00:00:00,20,1013.9,0.2,64,13,18000,18.52,,,310,,,,,,,,,,,wg-a,,,,AAXX 02004 07747 12568 83110 10200 20130 30084 40139 50002 60006 878// 90000=
07747,1996-07-02 03:00:00,19,1012.5,-1.4,64,12,16000,22.224,,,340,,,,,,,,,,,wg-a,,,,AAXX 02034 07747 12566 83412 10190 20120 30070 40125 56014 60006 878// 90300=
07747,1996-07-02 06:00:00,17,1014.3,1.7,68,11,18000,25.928,,,310,16.9,24.7,,,,,,,,3,wg-a,,,,AAXX 02064 07747 02468 83114 10170 20110 30087 40143 51017 61000 70362 8787/ 90600 333 10247 20169 6100=
07747,1996-07-02 09:00:00,18,1015.5,1.2,59,10,20000,22.224,,,340,,,,,,,,,,,wg-a,,,,AAXX 02094 07747 12470 83412 10180 20100 30099 40155 51012 60006 8787/ 90900=
07747,1996-07-02 12:00:00,17,1015.1,-0.4,68,11,20000,14.816,,,330,,,,,,,,,,60,wg-a,,,,AAXX 02124 07747 02470 83308 10170 20110 30095 40151 58004 61000 76062 8687/ 91200 333 ////=
07747,1996-07-02 15:00:00,21,1014.2,-0.8,46,9,25000,14.816,,,340,,,,,,,,,,2,wg-a,,,,AAXX 02154 07747 02575 73408 10210 20090 30087 40142 56008 61000 70262 8587/ 91500 333 ////=
07747,1996-07-02 18:00:00,21,1014,-0.2,46,9,25000,18.52,,,320,16.6,21.5,,,,,,,,1,wg-a,,,,AAXX 02184 07747 32575 73210 10210 20090 30085 40140 56002 70162 86872 91800 333 10215 20166=
07747,1996-07-02 21:00:00,19,1015,1,52,9,25000,14.816,,,290,,,,,,,,,,,wg-a,,,,AAXX 02214 07747 12575 42908 10190 20090 30095 40150 53010 60006 83872 92100=
07747,1996-07-03 00:00:00,17,1015.8,0.7,59,9,25000,3.704,,,180,,,,,,,,,,,wg-a,,,,AAXX 03004 07747 12575 21802 10170 20090 30102 40158 51007 60006 81872 90000=
07747,1996-07-03 03:00:00,16,1015,-0.8,68,10,25000,11.112,,,260,,,,,,,,,,,wg-a,,,,AAXX 03034 07747 12775 72606 10160 20100 30094 40150 56008 60006 875// 90300=
07747,1996-07-03 06:00:00,18,1015.7,0.7,59,10,500,11.112,,,260,14,21.2,,,,,,,,,wg-a,,,,AAXX 03064 07747 02500 32606 10180 20100 30101 40157 51007 60006 81881 90600 333 10212 20140 61000=
07747,1996-07-03 09:00:00,24,1015.8,0.3,44,11,500,11.112,,,190,,,,,,,,,,,wg-a,,,,AAXX 03094 07747 12500 /1906 10240 20110 30104 40158 51003 60006 81140 90900=
07747,1996-07-03 12:00:00,26,1015.1,-0.7,45,13,25000,22.224,,,120,,,,,,,,,,,wg-a,,,,AAXX 03124 07747 12575 31212 10260 20130 30097 40151 57007 60006 83100 91200=
07747,1996-07-03 15:00:00,25,1015,-0.1,57,16,20000,14.816,,,110,,,,,,,,,,,wg-a,,,,AAXX 03154 07747 12570 /1108 10250 20160 30096 40150 56001 60006 86800 91500=
07747,1996-07-03 18:00:00,26,1015,0,51,15,15000,7.408,,,280,17.9,26.7,,,,,,,,,wg-a,,,,AAXX 03184 07747 12565 72804 10260 20150 30096 40150 50000 60006 8683/ 91800 333 10267 20179=
07747,1996-07-03 21:00:00,22,1016,0.9,65,15,15000,7.408,,,250,,,,,,,,,,,wg-a,,,,AAXX 03214 07747 12565 /2504 10220 20150 30105 40160 53009 60006 86800 92100=
07747,1996-07-04 00:00:00,19,1015.9,-0.1,73,14,15000,3.704,,,290,,,,,,,,,,,wg-a,,,,AAXX 04004 07747 12565 32902 10190 20140 30104 40159 58001 60006 83800 90000=
07747,1996-07-04 03:00:00,17,1015.3,-0.7,82,14,15000,0,,,0,,,,,,,,,,,wg-a,,,,AAXX 04034 07747 12565 /0000 10170 20140 30097 40153 55007 60006 81100 90300=
07747,1996-07-04 06:00:00,20,1016.2,1,73,15,20000,3.704,,,160,16.3,25.6,,,,,,,,,wg-a,,,,AAXX 04064 07747 02/70 01602 10200 20150 30107 40162 52010 60006 80000 90600 333 10256 20163 60004=
07747,1996-07-04 09:00:00,27,1016.6,0.5,54,17,20000,7.408,,,100,,,,,,,,,,,wg-a,,,,AAXX 04094 07747 12670 /1004 10270 20170 30112 40166 51005 60006 81100 90900=
07747,1996-07-04 12:00:00,27,1016.3,-0.3,54,17,20000,18.52,,,120,,,,,,,,,,,wg-a,,,,AAXX 04124 07747 12670 41210 10270 20170 30109 40163 58003 60006 84100 91200=
07747,1996-07-04 15:00:00,24,1016.1,-0.2,69,18,10000,11.112,,,50,,,,,,,,,,,wg-a,,,,AAXX 04154 07747 12660 70506 10240 20180 30107 40161 58002 60006 878// 91500=
07747,1996-07-04 18:00:00,24,1015.6,-0.5,65,17,12000,3.704,,,340,20.1,27.4,,,,,,,,,wg-a,,,,AAXX 04184 07747 12662 73402 10240 20170 30102 40156 55005 60006 878// 91800 333 10274 20201=
07747,1996-07-04 21:00:00,23,1015.5,-0.1,83,20,12000,3.704,,,70,,,,,,,,,,,wg-a,,,,AAXX 04214 07747 12662 70702 10230 20200 30101 40155 56001 60006 878// 92100=
07747,1996-07-05 00:00:00,20,1014.4,-1.2,94,19,12000,11.112,,,50,,,,,,,,,,,wg-a,,,,AAXX 05004 07747 12462 80506 10200 20190 30089 40144 56012 60006 875// 90000=
07747,1996-07-05 03:00:00,21,1012.3,-2.1,88,19,12000,7.408,,,80,,,,,,,,,,,wg-a,,,,AAXX 05034 07747 12462 70804 10210 20190 30068 40123 58021 60006 87500 90300=
07747,1996-07-05 06:00:00,21,1010.8,-1.5,88,19,500,7.408,,,90,20.3,24.1,,,,,,,,,wg-a,,,,AAXX 05064 07747 02300 70904 10210 20190 30053 40108 56015 60006 8713/ 90600 333 10241 20203 60004=
07747,1996-07-05 09:00:00,25,1010.2,-0.5,69,19,10000,7.408,,,360,,,,,,,,,,,wg-a,,,,AAXX 05094 07747 12560 /3604 10250 20190 30048 40102 58005 60006 81132 90900=
07747,1996-07-05 12:00:00,26,1010.1,-0.1,65,19,9000,22.224,,,320,,,,,,,,,,16,wg-a,,,,AAXX 05124 07747 12559 73212 10260 20190 30047 40101 58001 60006 71622 878// 91200=
07747,1996-07-05 15:00:00,22,1011.4,1.2,65,15,8000,29.632,,,310,,,,4,,,,,,17,wg-a,,,,AAXX 05154 07747 12558 73116 10220 20150 30059 40114 52012 60047 71798 879// 91500=
07747,1996-07-05 18:00:00,23,1011.3,0,57,14,40000,22.224,,,340,20.7,27.1,,,,,,,,2,wg-a,,,,AAXX 05184 07747 32582 73412 10230 20140 30059 40113 50000 70298 86830 91800 333 10271 20207=
07747,1996-07-05 21:00:00,21,1012.5,1.1,56,12,500,7.408,,,330,,,,,,,,,,,wg-a,,,,AAXX 05214 07747 12500 /3304 10210 20120 30070 40125 53011 60006 85800 92100=
07747,1996-07-06 00:00:00,19,1012.1,-0.4,73,14,500,3.704,,,250,,,,,,,,,,,wg-a,,,,AAXX 06004 07747 12700 /2502 10190 20140 30066 40121 58004 60006 85800 90000=
07747,1996-07-06 03:00:00,20,1011.9,-0.2,60,12,500,7.408,,24.076,310,,,,,,,,,,,wg-a,,,,AAXX 06034 07747 12700 /3104 10200 20120 30064 40119 58002 60006 85500 90300 333 91013=
07747,1996-07-06 06:00:00,20,1012.2,0.3,60,12,11000,11.112,,,300,18.4,22.6,,,,,4,,,,wg-a,,,,AAXX 06064 07747 02/61 /3006 10200 20120 30067 40122 53003 60006 90600 333 10226 20184 60044=
07747,1996-07-06 09:00:00,21,1012.8,0.6,60,13,11000,25.928,,,330,,,,,,,,,,,wg-a,,,,AAXX 06094 07747 12/61 /3314 10210 20130 30073 40128 51006 60006 90900=
07747,1996-07-06 12:00:00,22,1012.2,-0.6,53,12,500,22.224,,,320,,,,,,,,,,,wg-a,,,,AAXX 06124 07747 12600 73212 10220 20120 30067 40122 57006 60006 8687/ 91200=
07747,1996-07-06 15:00:00,21,1011.9,-0.3,53,11,11000,11.112,,,320,,,,,,,,,,,wg-a,,,,AAXX 06154 07747 12/61 /3206 10210 20110 30064 40119 58003 60006 91500=
07747,1996-07-06 18:00:00,21,1011.2,-0.7,53,11,35000,18.52,,,320,18.2,22.4,,,,,,,,,wg-a,,,,AAXX 06184 07747 12581 73210 10210 20110 30057 40112 55007 60006 878// 91800 333 10224 20182=
07747,1996-07-06 21:00:00,19,1010.9,-0.3,60,11,20000,7.408,,,250,,,,,,,,,,,wg-a,,,,AAXX 06214 07747 12570 72504 10190 20110 30054 40109 57003 60006 878// 92100=
07747,1996-07-07 00:00:00,17,1008.9,-2,68,11,18000,7.408,,,270,,,,,,,,,,,wg-a,,,,AAXX 07004 07747 12568 72704 10170 20110 30034 40089 58020 60006 878// 90000=
07747,1996-07-07 03:00:00,16,1005.5,-3.4,72,11,15000,7.408,,,360,,,,,,,,,,,wg-a,,,,AAXX 07034 07747 12565 83604 10160 20110 30000 40055 56034 60006 878// 90300=
07747,1996-07-07 06:00:00,18,1002.1,-3.4,77,14,35000,7.408,,,150,15.6,20.9,,,,,,,,,wg-a,,,,AAXX 07064 07747 02581 71504 10180 20140 39966 40021 56034 60006 81842 90600 333 10209 20156 60004=
07747,1996-07-07 09:00:00,23,999.3,-2.7,61,15,500,14.816,,,190,,,,,,,,,,,wg-a,,,,AAXX 07094 07747 12500 71908 10230 20150 39939 49993 58027 60006 82882 90900=
07747,1996-07-07 12:00:00,29,996.5,-2.6,40,14,25000,29.632,,,200,,,,,,,,,,,wg-a,,,,AAXX 07124 07747 12575 42016 10290 20140 39913 49965 56026 60006 83882 91200=
07747,1996-07-07 15:00:00,19,1001.3,4.5,64,12,15000,50.004,,72.228,320,,,,1,,,,,,25,wg-a,,,,AAXX 07154 07747 12465 63227 10190 20120 39958 40013 53045 60017 72586 86900 91500 333 91039=
07747,1996-07-07 18:00:00,18,1003.1,1.8,59,10,25000,64.82,,90.748,320,17.2,31.1,,,,,,,,3,wg-a,,,,AAXX 07184 07747 32575 63235 10180 20100 39976 40031 53018 70386 86800 91800 333 10311 20172 91049=
07747,1996-07-07 21:00:00,17,1008.2,5.1,48,6,500,42.596,,75.932,310,,,,,,,,,,,wg-a,,,,AAXX 07214 07747 12500 43123 10170 20060 30027 40082 53051 60006 84800 92100 333 91041=
07747,1996-07-08 00:00:00,16,1011,2.7,55,7,500,46.3,,,310,,,,,,,,,,,wg-a,,,,AAXX 08004 07747 12500 33125 10160 20070 30054 40110 51027 60006 83800 90000=
07747,1996-07-08 03:00:00,16,1014.1,3.1,55,7,500,31.484,,51.856,310,,,,,,,,,,,wg-a,,,,AAXX 08034 07747 12500 /3117 10160 20070 30085 40141 53031 60006 86800 90300 333 91028=
07747,1996-07-08 06:00:00,16,1017.1,3,55,7,60000,31.484,,53.708,320,15.7,18.1,,,,,1,,,,wg-a,,,,AAXX 08064 07747 02686 73217 10160 20070 30115 40171 53030 60006 86882 90600 333 10181 20157 60014 91029=
07747,1996-07-08 09:00:00,19,1019,1.9,43,6,60000,42.596,,62.968,330,,,,,,,,,,,wg-a,,,,AAXX 08094 07747 12686 43323 10190 20060 30134 40190 51019 60006 84880 90900 333 91034=
07747,1996-07-08 12:00:00,21,1020.5,1.6,35,5,60000,42.596,,55.56,320,,,,,,,,,,,wg-a,,,,AAXX 08124 07747 12686 43223 10210 20050 30150 40205 51016 60006 84880 91200 333 91030=
07747,1996-07-08 15:00:00,22,1021.5,1,35,6,60000,38.892,,70.376,320,,,,,,,,,,,wg-a,,,,AAXX 08154 07747 12686 33221 10220 20060 30160 40215 52010 60006 83280 91500 333 91038=
07747,1996-07-08 18:00:00,21,1022.3,0.8,40,7,60000,31.484,,53.708,320,15.7,22.4,,,,,,,,,wg-a,,,,AAXX 08184 07747 12586 23217 10210 20070 30168 40223 53008 60006 82880 91800 333 10224 20157 91029=
07747,1996-07-08 21:00:00,19,1024.5,2.1,49,8,25000,35.188,,,310,,,,,,,,,,,wg-a,,,,AAXX 08214 07747 12775 23119 10190 20080 30189 40245 51021 60006 82500 92100=
07747,1996-07-09 00:00:00,18,1025.3,0.8,56,9,25000,31.484,,,320,,,,,,,,,,,wg-a,,,,AAXX 09004 07747 12775 23217 10180 20090 30197 40253 50008 60006 82500 90000=
07747,1996-07-09 03:00:00,17,1025.7,0.4,55,8,25000,35.188,,,310,,,,,,,,,,,wg-a,,,,AAXX 09034 07747 12775 23119 10170 20080 30201 40257 53004 60006 82500 90300=
07747,1996-07-09 06:00:00,17,1026.3,0.6,55,8,60000,35.188,,,320,16.1,21.2,,,,,,,,,wg-a,,,,AAXX 09064 07747 02586 /3219 10170 20080 30207 40263 51006 60006 81800 90600 333 10212 20161 60004=
07747,1996-07-09 09:00:00,21,1026.7,0.4,40,7,60000,35.188,,55.56,320,,,,,,,,,,,wg-a,,,,AAXX 09094 07747 12586 /3219 10210 20070 30211 40267 52004 60006 81100 90900 333 91030=
07747,1996-07-09 12:00:00,24,1026,-0.6,31,6,60000,35.188,,55.56,330,,,,,,,,,,,wg-a,,,,AAXX 09124 07747 12686 /3319 10240 20060 30205 40260 58006 60006 81800 91200 333 91030=
07747,1996-07-09 15:00:00,25,1025.4,-0.6,32,7,75000,29.632,,50.004,330,,,,,,,,,,,wg-a,,,,AAXX 09154 07747 12689 /3316 10250 20070 30199 40254 56006 60006 81801 91500 333 91027=
07747,1996-07-09 18:00:00,24,1024.8,-0.6,36,8,75000,22.224,,,340,17.2,25.5,,,,,,,,,wg-a,,,,AAXX 09184 07747 12/89 03412 10240 20080 30193 40248 56006 60006 80000 91800 333 10255 20172=
07747,1996-07-09 21:00:00,21,1026.1,1.2,43,8,40000,29.632,,,350,,,,,,,,,,,wg-a,,,,AAXX 09214 07747 12/82 03516 10210 20080 30205 40261 51012 60006 80000 92100=
07747,1996-07-10 00:00:00,18,1025.7,-0.4,56,9,500,11.112,,,300,,,,,,,,,,,wg-a,,,,AAXX 10004 07747 12/00 03006 10180 20090 30201 40257 58004 60006 80000 90000=
07747,1996-07-10 03:00:00,19,1025,-0.7,56,10,500,14.816,,,330,,,,,,,,,,,wg-a,,,,AAXX 10034 07747 12/00 03308 10190 20100 30194 40250 55007 60006 80000 90300=
07747,1996-07-10 06:00:00,19,1026.1,1.1,56,10,50000,14.816,,,330,17.6,23.9,,,,,,,,,wg-a,,,,AAXX 10064 07747 02684 23308 10190 20100 30205 40261 51011 60006 82100 90600 333 10239 20176 60004=
07747,1996-07-10 09:00:00,22,1024.4,-1.6,43,9,60000,29.632,,,320,,,,,,,,,,,wg-a,,,,AAXX 10094 07747 12686 /3216 10220 20090 30189 40244 57016 60006 81100 90900=
07747,1996-07-10 12:00:00,24,1023.6,-0.8,44,11,60000,29.632,,,320,,,,,,,,,,,wg-a,,,,AAXX 10124 07747 12686 /3216 10240 20110 30181 40236 58008 60006 81100 91200=
07747,1996-07-10 15:00:00,25,1022.1,-1.4,41,11,60000,38.892,,,340,,,,,,,,,,,wg-a,,,,AAXX 10154 07747 12786 23421 10250 20110 30167 40221 58014 60006 82100 91500=
07747,1996-07-10 18:00:00,24,1022,-0.2,41,10,60000,35.188,,,340,18.8,26.2,,,,,,,,,wg-a,,,,AAXX 10184 07747 12686 /3419 10240 20100 30165 40220 55002 60006 81800 91800 333 10262 20188=
07747,1996-07-10 21:00:00,21,1022.5,0.5,53,11,40000,31.484,,,310,,,,,,,,,,,wg-a,,,,AAXX 10214 07747 12782 /3117 10210 20110 30170 40225 53005 60006 81500 92100=
07747,1996-07-11 00:00:00,20,1022.2,-0.3,64,13,20000,29.632,,,320,,,,,,,,,,,wg-a,,,,AAXX 11004 07747 12/70 03216 10200 20130 30167 40222 56003 60006 80000 90000=
07747,1996-07-11 03:00:00,20,1021.4,-0.8,64,13,500,35.188,,,330,,,,,,,,,,,wg-a,,,,AAXX 11034 07747 12/00 03319 10200 20130 30159 40214 56008 60006 80000 90300=
07747,1996-07-11 06:00:00,20,1021.6,0.2,60,12,60000,22.224,,,320,19.4,23.5,,,,,,,,,wg-a,,,,AAXX 11064 07747 02586 /3212 10200 20120 30161 40216 51002 60006 81880 90600 333 10235 20194 60004=
07747,1996-07-11 09:00:00,23,1020.4,-1.2,47,11,60000,38.892,,57.412,320,,,,,,,,,,,wg-a,,,,AAXX 11094 07747 12686 /3221 10230 20110 30149 40204 58012 60006 81100 90900 333 91031=
07747,1996-07-11 12:00:00,26,1019.9,-0.4,39,11,60000,29.632,,51.856,340,,,,,,,,,,,wg-a,,,,AAXX 11124 07747 12686 /3416 10260 20110 30145 40199 58004 60006 81100 91200 333 91028=
07747,1996-07-11 15:00:00,27,1018.7,-1.2,34,10,60000,38.892,,,350,,,,,,,,,,,wg-a,,,,AAXX 11154 07747 12686 /3521 10270 20100 30133 40187 58012 60006 81100 91500=
07747,1996-07-11 18:00:00,26,1018.8,0.1,37,10,60000,29.632,,,330,20.4,27.7,,,,,,,,,wg-a,,,,AAXX 11184 07747 12686 /3316 10260 20100 30134 40188 53001 60006 81100 91800 333 10277 20204=
07747,1996-07-11 21:00:00,23,1020.1,1.2,47,11,60000,29.632,,,320,,,,,,,,,,,wg-a,,,,AAXX 11214 07747 12/86 03216 10230 20110 30146 40201 53012 60006 80000 92100=
07747,1996-07-12 00:00:00,22,1019.8,-0.3,50,11,25000,29.632,,,310,,,,,,,,,,,wg-a,,,,AAXX 12004 07747 12/75 03116 10220 20110 30143 40198 58003 60006 80000 90000=
07747,1996-07-12 03:00:00,21,1019.5,-0.3,53,11,25000,14.816,,,320,,,,,,,,,,,wg-a,,,,AAXX 12034 07747 12/75 03208 10210 20110 30140 40195 56003 60006 80000 90300=
07747,1996-07-12 06:00:00,22,1019.2,-0.3,57,13,60000,22.224,,,320,20.1,25.8,,,,,,,,,wg-a,,,,AAXX 12064 07747 02/86 03212 10220 20130 30137 40192 56003 60006 80000 90600 333 10258 20201 60004=
07747,1996-07-12 09:00:00,26,1019.5,0.4,45,13,40000,25.928,,,330,,,,,,,,,,,wg-a,,,,AAXX 12094 07747 12682 23314 10260 20130 30141 40195 50004 60006 82100 90900=
07747,1996-07-12 12:00:00,28,1018.4,-1.1,37,12,500,31.484,,,330,,,,,,,,,,,wg-a,,,,AAXX 12124 07747 12600 23317 10280 20120 30130 40184 58011 60006 82100 91200=
07747,1996-07-12 15:00:00,29,1017.8,-0.6,35,12,500,29.632,,,340,,,,,,,,,,,wg-a,,,,AAXX 12154 07747 12600 23416 10290 20120 30124 40178 56006 60006 82100 91500=
07747,1996-07-12 18:00:00,28,1017.7,-0.1,37,12,500,22.224,,,330,22.1,30.1,,,,,,,,,wg-a,,,,AAXX 12184 07747 12600 23312 10280 20120 30123 40177 55001 60006 81240 91800 333 10301 20221=
07747,1996-07-12 21:00:00,25,1019.6,1.9,47,13,500,14.816,,,310,,,,,,,,,,,wg-a,,,,AAXX 12214 07747 12600 /3108 10250 20130 30142 40196 53019 60006 81500 92100=
07747,1996-07-13 00:00:00,22,1020,0.3,57,13,500,11.112,,,250,,,,,,,,,,,wg-a,,,,AAXX 13004 07747 12/00 02506 10220 20130 30145 40200 53003 60006 80000 90000=
07747,1996-07-13 03:00:00,22,1019.7,-0.3,57,13,500,7.408,,29.632,300,,,,,,,,,,,wg-a,,,,AAXX 13034 07747 12/00 23004 10220 20130 30142 40197 55003 60006 80001 90300 333 91016=
07747,1996-07-13 06:00:00,23,1020.5,0.8,57,14,20000,14.816,,,260,21.2,28.4,,,,,,,,,wg-a,,,,AAXX 13064 07747 02/70 22608 10230 20140 30150 40205 53008 60006 80002 90600 333 10284 20212 60004=
07747,1996-07-13 09:00:00,27,1020.7,0.3,45,14,18000,22.224,,,350,,,,,,,,,,,wg-a,,,,AAXX 13094 07747 12668 43512 10270 20140 30153 40207 51003 60006 81280 90900=
07747,1996-07-13 12:00:00,29,1020.5,-0.2,40,14,18000,22.224,,,110,,,,,,,,,,,wg-a,,,,AAXX 13124 07747 12768 51112 10290 20140 30151 40205 58002 60006 82280 91200=
07747,1996-07-13 15:00:00,28,1020.5,0,42,14,18000,14.816,,,150,,,,,,,,,,,wg-a,,,,AAXX 13154 07747 12768 /1508 10280 20140 30151 40205 50000 60006 82283 91500=
07747,1996-07-13 18:00:00,26,1021.3,0.8,51,15,18000,11.112,,,120,22.8,29.8,,,,,,,,,wg-a,,,,AAXX 13184 07747 12668 21206 10260 20150 30159 40213 53008 60006 81302 91800 333 10298 20228=
07747,1996-07-13 21:00:00,22,1022.7,1.3,65,15,20000,3.704,,,80,,,,,,,,,,,wg-a,,,,AAXX 13214 07747 12/70 00802 10220 20150 30172 40227 53013 60006 80000 92100=
07747,1996-07-14 00:00:00,19,1023.3,0.5,78,15,15000,3.704,,,310,,,,,,,,,,,wg-a,,,,AAXX 14004 07747 12/65 03102 10190 20150 30177 40233 50005 60006 80000 90000=
07747,1996-07-14 03:00:00,17,1023.3,-0,82,14,10000,3.704,,,340,,,,,,,,,,,wg-a,,,,AAXX 14034 07747 12/60 03402 10170 20140 30177 40233 55000 60006 80000 90300=
07747,1996-07-14 06:00:00,20,1024.5,1.2,78,16,8000,7.408,,,50,17.4,25.8,,,,,,,,,wg-a,,,,AAXX 14064 07747 02/58 /0504 10200 20160 30189 40245 53012 60006 90600 333 10258 20174 60004=
07747,1996-07-14 09:00:00,27,1024.5,0.2,48,15,11000,7.408,,,60,,,,,,,,,,,wg-a,,,,AAXX 14094 07747 12/61 /0604 10270 20150 30191 40245 50002 60006 90900=
07747,1996-07-14 12:00:00,29,1024.1,-0.4,43,15,20000,14.816,,,70,,,,,,,,,,,wg-a,,,,AAXX 14124 07747 12770 30708 10290 20150 30187 40241 58004 60006 81201 91200=
07747,1996-07-14 15:00:00,29,1022.7,-1.4,43,15,500,11.112,,,90,,,,,,,,,,,wg-a,,,,AAXX 14154 07747 12700 /0906 10290 20150 30173 40227 58014 60006 81102 91500=
07747,1996-07-14 18:00:00,29,1021.8,-0.9,43,15,500,7.408,,,180,19.6,30.2,,,,,,,,,wg-a,,,,AAXX 14184 07747 12700 71804 10290 20150 30164 40218 56009 60006 81154 91800 333 10302 20196=
07747,1996-07-14 21:00:00,24,1021.7,-0.2,54,14,18000,11.112,,,260,,,,,,,,,,,wg-a,,,,AAXX 14214 07747 12/68 32606 10240 20140 30162 40217 55002 60006 82032 92100=
07747,1996-07-15 00:00:00,23,1021.7,-0,50,12,15000,3.704,,,240,,,,,,,,,,,wg-a,,,,AAXX 15004 07747 12/65 22402 10230 20120 30162 40217 54000 60006 82030 90000=
07747,1996-07-15 03:00:00,23,1020.6,-1.1,47,11,15000,7.408,,,240,,,,,,,,,,,wg-a,,,,AAXX 15034 07747 12/65 12404 10230 20110 30151 40206 56011 60006 81030 90300=
07747,1996-07-15 06:00:00,24,1021,0.4,47,12,500,7.408,,,340,21.1,28.5,,,,,,,,,wg-a,,,,AAXX 15064 07747 02700 /3404 10240 20120 30155 40210 50004 60006 81530 90600 333 10285 20211 60004=
07747,1996-07-15 09:00:00,30,1020.7,-0.1,38,14,500,7.408,,,150,,,,,,,,,,,wg-a,,,,AAXX 15094 07747 12700 21504 10300 20140 30154 40207 58001 60006 81131 90900=
07747,1996-07-15 12:00:00,32,1019.9,-0.8,36,15,500,14.816,,,120,,,,,,,,,,,wg-a,,,,AAXX 15124 07747 12700 31208 10320 20150 30146 40199 58008 60006 82341 91200=
07747,1996-07-15 15:00:00,31,1018.8,-1.1,40,16,500,18.52,,,110,,,,,,,,,,,wg-a,,,,AAXX 15154 07747 12700 31110 10310 20160 30135 40188 58011 60006 82341 91500=
07747,1996-07-15 18:00:00,31,1018,-0.8,40,16,500,11.112,,,100,23.6,31.8,,,,,,,,,wg-a,,,,AAXX 15184 07747 12700 41006 10310 20160 30127 40180 57008 60006 81982 91800 333 10318 20236=
07747,1996-07-15 21:00:00,28,1018.8,0.7,48,16,25000,11.112,,,280,,,,,,,,,,,wg-a,,,,AAXX 15214 07747 12775 /2806 10280 20160 30134 40188 51007 60006 81101 92100=
07747,1996-07-16 00:00:00,26,1019.1,0.3,58,17,25000,3.704,,,300,,,,,,,,,,,wg-a,,,,AAXX 16004 07747 12/75 33002 10260 20170 30137 40191 52003 60006 83040 90000=
07747,1996-07-16 03:00:00,22,1019.1,-0.1,78,18,25000,11.112,,,230,,,,,,,,,,,wg-a,,,,AAXX 16034 07747 12/75 22306 10220 20180 30136 40191 58001 60006 82040 90300=
07747,1996-07-16 06:00:00,23,1019.4,0.3,69,17,25000,3.704,,,250,21.4,30.9,,,,,,,,,wg-a,,,,AAXX 16064 07747 02575 22502 10230 20170 30139 40194 53003 60006 81140 90600 333 10309 20214 60004=
07747,1996-07-16 09:00:00,30,1019,-0.2,43,16,500,3.704,,,210,,,,,,,,,,,wg-a,,,,AAXX 16094 07747 12500 /2102 10300 20160 30137 40190 58002 60006 81100 90900=
07747,1996-07-16 12:00:00,32,1018,-1,38,16,500,22.224,,,140,,,,,,,,,,,wg-a,,,,AAXX 16124 07747 12500 21412 10320 20160 30127 40180 57010 60006 82200 91200=
07747,1996-07-16 15:00:00,32,1016.6,-1.4,41,17,25000,22.224,,,140,,,,,,,,,,,wg-a,,,,AAXX 16154 07747 12575 21412 10320 20170 30113 40166 58014 60006 82903 91500=
07747,1996-07-16 18:00:00,32,1015.8,-0.8,41,17,25000,11.112,,,180,22.9,32.7,,,,,,,,,wg-a,,,,AAXX 16184 07747 12675 /1806 10320 20170 30105 40158 55008 60006 81903 91800 333 10327 20229=
07747,1996-07-16 21:00:00,28,1016.6,0.7,55,18,500,7.408,,,80,,,,,,,,,,,wg-a,,,,AAXX 16214 07747 12700 30804 10280 20180 30112 40166 53007 60006 83540 92100=
07747,1996-07-17 00:00:00,24,1016.9,0.3,69,18,500,3.704,,,250,,,,,,,,,,,wg-a,,,,AAXX 17004 07747 12700 22502 10240 20180 30115 40169 51003 60006 82500 90000=
07747,1996-07-17 03:00:00,22,1017,-0,83,19,500,3.704,,,30,,,,,,,,,,,wg-a,,,,AAXX 17034 07747 12/00 00302 10220 20190 30115 40170 55000 60006 80000 90300=
07747,1996-07-17 06:00:00,24,1017.1,0.2,69,18,500,3.704,,,350,21.1,32,,,,,,,,,wg-a,,,,AAXX 17064 07747 02/00 03502 10240 20180 30117 40171 50002 60006 80000 90600 333 10320 20211 60004=
07747,1996-07-17 09:00:00,29,1016.9,-0.1,52,18,15000,7.408,,,110,,,,,,,,,,,wg-a,,,,AAXX 17094 07747 12565 /1104 10290 20180 30116 40169 57001 60006 81100 90900=
07747,1996-07-17 12:00:00,31,1016,-0.9,46,18,15000,14.816,,,100,,,,,,,,,,,wg-a,,,,AAXX 17124 07747 12565 31008 10310 20180 30107 40160 58009 60006 82903 91200=
07747,1996-07-17 15:00:00,29,1014.9,-1.1,52,18,12000,14.816,,,140,,,,,,,,,,,wg-a,,,,AAXX 17154 07747 12662 41408 10290 20180 30096 40149 57011 60006 82903 91500=
07747,1996-07-17 18:00:00,30,1013.9,-1,46,17,12000,7.408,,,130,23.8,31.1,,,,,,,,,wg-a,,,,AAXX 17184 07747 12662 /1304 10300 20170 30086 40139 56010 60006 81901 91800 333 10311 20238=
07747,1996-07-17 21:00:00,27,1014.7,0.7,58,18,12000,0,,,0,,,,,,,,,,,wg-a,,,,AAXX 17214 07747 12662 /0000 10270 20180 30093 40147 53007 60006 81900 92100=
07747,1996-07-18 00:00:00,23,1016.4,1.7,89,21,10000,11.112,,,60,,,,,,,,,,,wg-a,,,,AAXX 18004 07747 12/60 /0606 10230 20210 30110 40164 51017 60006 90000=
07747,1996-07-18 06:00:00,24,1017.5,0.8,69,18,10000,7.408,,,350,20.6,30.4,,,,,,,,,wg-a,,,,AAXX 18064 07747 02/60 03504 10240 20180 30121 40175 53008 60006 80000 90600 333 10304 20206 60004=
07747,1996-07-18 09:00:00,27,1018,0.5,48,15,18000,7.408,,,80,,,,,,,,,,,wg-a,,,,AAXX 18094 07747 12668 /0804 10270 20150 30126 40180 50005 60006 81100 90900=
07747,1996-07-18 12:00:00,30,1016.9,-1,46,17,14000,14.816,,,130,,,,,,,,,,,wg-a,,,,AAXX 18124 07747 12664 /1308 10300 20170 30116 40169 57010 60006 81200 91200=
07747,1996-07-18 15:00:00,30,1016,-0.9,43,16,14000,14.816,,,130,,,,,,,,,,,wg-a,,,,AAXX 18154 07747 12664 /1308 10300 20160 30107 40160 56009 60006 81200 91500=
07747,1996-07-18 18:00:00,29,1015.3,-0.7,48,17,15000,11.112,,,150,23.6,31.4,,,,,,,,,wg-a,,,,AAXX 18184 07747 12565 /1506 10290 20170 30100 40153 55007 60006 81903 91800 333 10314 20236=
07747,1996-07-18 21:00:00,27,1016.7,1.3,54,17,10000,7.408,,,320,,,,,,,,,,,wg-a,,,,AAXX 18214 07747 12560 33204 10270 20170 30113 40167 53013 60006 83100 92100=
07747,1996-07-19 00:00:00,28,1017.4,0.7,48,16,10000,18.52,,,320,,,,,,,,,,,wg-a,,,,AAXX 19004 07747 12/60 /3210 10280 20160 30120 40174 52007 60006 90000=
07747,1996-07-19 03:00:00,23,1018,0.5,73,18,10000,3.704,,,160,,,,,,,,,,,wg-a,,,,AAXX 19034 07747 12/60 01602 10230 20180 30125 40180 53005 60006 80000 90300=
07747,1996-07-19 06:00:00,24,1018.2,0.3,69,18,15000,11.112,,,240,20.9,28.9,,,,,,,,,wg-a,,,,AAXX 19064 07747 02/65 12406 10240 20180 30128 40182 51003 60006 80001 90600 333 10289 20209 60004=
07747,1996-07-19 09:00:00,30,1017.5,-0.6,33,12,25000,22.224,,,330,,,,,,,,,,,wg-a,,,,AAXX 19094 07747 12775 43312 10300 20120 30122 40175 58006 60006 81101 90900=
07747,1996-07-19 12:00:00,34,1016.3,-1.2,25,11,500,18.52,,40.744,350,,,,,,,,,,,wg-a,,,,AAXX 19124 07747 12700 23510 10340 20110 30110 40163 58012 60006 81101 91200 333 91022=
07747,1996-07-19 15:00:00,35,1015.9,-0.4,25,12,500,29.632,,,10,,,,,,,,,,,wg-a,,,,AAXX 19154 07747 12700 /0116 10350 20120 30106 40159 57004 60006 81101 91500=
07747,1996-07-19 18:00:00,32,1016.3,0.4,32,13,20000,29.632,,,330,23.9,34.7,,,,,,,,,wg-a,,,,AAXX 19184 07747 12770 23316 10320 20130 30110 40163 53004 60006 81933 91800 333 10347 20239=
07747,1996-07-19 21:00:00,29,1017.5,1.1,37,13,18000,22.224,,,320,,,,,,,,,,,wg-a,,,,AAXX 19214 07747 12/68 03212 10290 20130 30121 40175 51011 60006 80000 92100=
07747,1996-07-20 00:00:00,27,1017.8,0.3,39,12,18000,22.224,,,320,,,,,,,,,,,wg-a,,,,AAXX 20004 07747 12/68 03212 10270 20120 30124 40178 51003 60006 80000 90000=
07747,1996-07-20 03:00:00,25,1017.7,-0.1,54,15,18000,14.816,,,290,,,,,,,,,,,wg-a,,,,AAXX 20034 07747 12/68 02908 10250 20150 30123 40177 56001 60006 80000 90300=
07747,1996-07-20 06:00:00,25,1017.8,0.1,44,12,40000,11.112,,,310,23.7,32.3,,,,,,,,,wg-a,,,,AAXX 20064 07747 02/82 13106 10250 20120 30124 40178 53001 60006 81031 90600 333 10323 20237 60004=
07747,1996-07-20 09:00:00,29,1018,0.2,29,9,500,25.928,,,330,,,,,,,,,,,wg-a,,,,AAXX 20094 07747 12600 23314 10290 20090 30126 40180 50002 60006 81102 90900=
07747,1996-07-20 12:00:00,32,1016.9,-1,24,9,500,31.484,,,340,,,,,,,,,,,wg-a,,,,AAXX 20124 07747 12600 33417 10320 20090 30116 40169 57010 60006 81201 91200=
07747,1996-07-20 15:00:00,34,1016.4,-0.5,19,7,500,31.484,,,350,,,,,,,,,,,wg-a,,,,AAXX 20154 07747 12600 43517 10340 20070 30111 40164 58005 60006 82301 91500=
07747,1996-07-20 18:00:00,32,1016.8,0.4,24,9,500,25.928,,,340,25.2,34,,,,,,,,,wg-a,,,,AAXX 20184 07747 12600 23414 10320 20090 30115 40168 53004 60006 81201 91800 333 10340 20252=
07747,1996-07-20 21:00:00,24,1018.6,1.6,41,10,25000,11.112,,,270,,,,,,,,,,,wg-a,,,,AAXX 20214 07747 12/75 02706 10240 20100 30131 40186 51016 60006 80000 92100=
07747,1996-07-21 00:00:00,24,1019.6,1,50,13,20000,7.408,,,340,,,,,,,,,,,wg-a,,,,AAXX 21004 07747 12/70 03404 10240 20130 30141 40196 51010 60006 80000 90000=
07747,1996-07-21 03:00:00,21,1019.6,-0,53,11,25000,3.704,,,350,,,,,,,,,,,wg-a,,,,AAXX 21034 07747 12/75 03502 10210 20110 30141 40196 55000 60006 80000 90300=
07747,1996-07-21 06:00:00,21,1020.6,1,53,11,50000,7.408,,,240,17.7,31.5,,,,,,,,,wg-a,,,,AAXX 21064 07747 02/84 02404 10210 20110 30151 40206 51010 60006 80000 90600 333 10315 20177 60004=
07747,1996-07-21 09:00:00,27,1020.4,-0.1,32,9,50000,11.112,,,130,,,,,,,,,,,wg-a,,,,AAXX 21094 07747 12/84 01306 10270 20090 30150 40204 58001 60006 80000 90900=
07747,1996-07-21 12:00:00,28,1020,-0.4,30,9,50000,18.52,,,110,,,,,,,,,,,wg-a,,,,AAXX 21124 07747 12684 /1110 10280 20090 30146 40200 58004 60006 81100 91200=
07747,1996-07-21 15:00:00,28,1019.1,-0.9,32,10,50000,18.52,,,110,,,,,,,,,,,wg-a,,,,AAXX 21154 07747 12684 /1110 10280 20100 30137 40191 56009 60006 81202 91500=
07747,1996-07-21 18:00:00,26,1018.5,-0.6,45,13,40000,11.112,,,140,20.9,28.5,,,,,,,,,wg-a,,,,AAXX 21184 07747 12782 /1406 10260 20130 30131 40185 56006 60006 81440 91800 333 10285 20209=
07747,1996-07-22 00:00:00,20,1019.3,0.3,83,17,0,11.112,,,350,,,,,,,,,,,wg-a,,,,AAXX 22004 07747 12/// /3506 10200 20170 30138 40193 50003 60006 90000=
07747,1996-07-22 03:00:00,20,1018.8,-0.5,88,18,6000,3.704,,,10,,,,,,,,,,,wg-a,,,,AAXX 22034 07747 12256 20102 10200 20180 30133 40188 55005 60006 82600 90300=
07747,1996-07-22 06:00:00,19,1019,0.2,100,19,800,3.704,,,20,19.1,25.9,,,,,,,,42,wg-a,,,,AAXX 22064 07747 02208 40202 10190 20190 30135 40190 53002 60006 74241 84600 90600 333 10259 20191 60004=
07747,1996-07-22 09:00:00,26,1018.9,0,58,17,7000,18.52,,,100,,,,,,,,,,1,wg-a,,,,AAXX 22094 07747 12457 21010 10260 20170 30135 40189 50000 60006 70140 82500 90900=
07747,1996-07-22 12:00:00,27,1018.2,-0.7,66,20,8000,31.484,,,130,,,,,,,,,,2,wg-a,,,,AAXX 22124 07747 12358 21317 10270 20200 30128 40182 58007 60006 70240 82500 91200=
07747,1996-07-22 15:00:00,27,1017.2,-1,70,21,8000,31.484,,,130,,,,,,,,,,,wg-a,,,,AAXX 22154 07747 12358 /1317 10270 20210 30118 40172 58010 60006 81500 91500=
07747,1996-07-22 18:00:00,25,1016.6,-0.6,74,20,8000,14.816,,,90,19.2,27.8,,,,,,,,,wg-a,,,,AAXX 22184 07747 12458 /0908 10250 20200 30112 40166 55006 60006 81580 91800 333 10278 20192=
07747,1996-07-22 21:00:00,23,1018.2,1.5,83,20,8000,18.52,,,350,,,,,,,,,,,wg-a,,,,AAXX 22214 07747 12/58 03510 10230 20200 30127 40182 53015 60006 80000 92100=
07747,1996-07-23 00:00:00,22,1018.3,0.1,88,20,12000,7.408,,,10,,,,,,,,,,,wg-a,,,,AAXX 23004 07747 12/62 00104 10220 20200 30128 40183 51001 60006 80000 90000=
07747,1996-07-23 03:00:00,21,1017.9,-0.4,88,19,8000,7.408,,,340,,,,,,,,,,,wg-a,,,,AAXX 23034 07747 12/58 03404 10210 20190 30124 40179 58004 60006 80000 90300=
07747,1996-07-23 06:00:00,22,1018.5,0.6,83,19,500,3.704,,,320,21,25.2,,,,,,,,,wg-a,,,,AAXX 23064 07747 02400 73202 10220 20190 30130 40185 51006 60006 876// 90600 333 10252 20210 60004=
07747,1996-07-23 09:00:00,25,1018.4,0,69,19,6000,7.408,,,50,,,,,,,,,,,wg-a,,,,AAXX 23094 07747 12456 40504 10250 20190 30130 40184 50000 60006 84100 90900=
07747,1996-07-23 12:00:00,29,1016.5,-1.8,58,20,9000,22.224,,,120,,,,,,,,,,,wg-a,,,,AAXX 23124 07747 12559 /1212 10290 20200 30112 40165 58018 60006 81100 91200=
07747,1996-07-23 15:00:00,26,1016.9,0.3,74,21,8000,29.632,,,40,,,,,,,,,,,wg-a,,,,AAXX 23154 07747 12458 /0416 10260 20210 30115 40169 50003 60006 82180 91500=
07747,1996-07-23 18:00:00,23,1018.4,1.5,89,21,4500,25.928,,,30,21.7,29.7,,,,,,,,10,wg-a,,,,AAXX 23184 07747 12245 80314 10230 20210 30130 40184 53015 60006 71011 886// 91800 333 10297 20217=
07747,1996-07-23 21:00:00,23,1017.8,-0.6,89,21,6000,11.112,,,50,,,,,,,,,,,wg-a,,,,AAXX 23214 07747 12256 80506 10230 20210 30124 40178 58006 60006 886// 92100=
07747,1996-07-24 00:00:00,23,1017.9,-0,89,21,6000,14.816,,,340,,,,,,,,,,,wg-a,,,,AAXX 24004 07747 12256 83408 10230 20210 30124 40179 54000 60006 886// 90000=
07747,1996-07-24 03:00:00,22,1016.1,-1.8,94,21,6000,3.704,,,30,,,,,,,,,,,wg-a,,,,AAXX 24034 07747 12256 80302 10220 20210 30106 40161 56018 60006 886// 90300=
07747,1996-07-24 06:00:00,22,1016.5,0.4,94,21,6000,3.704,,,190,21.3,23.5,,,,,,,,,wg-a,,,,AAXX 24064 07747 02456 71902 10220 20210 30110 40165 53004 60006 85602 90600 333 10235 20213 60004=
07747,1996-07-24 09:00:00,25,1016.3,-0.1,79,21,8000,18.52,,,70,,,,,,,,,,,wg-a,,,,AAXX 24094 07747 12458 70710 10250 20210 30109 40163 58001 60006 83882 90900=
07747,1996-07-24 12:00:00,28,1015.9,-0.3,66,21,12000,14.816,,,60,,,,,,,,,,,wg-a,,,,AAXX 24124 07747 12462 /0608 10280 20210 30106 40159 58003 60006 81100 91200=
07747,1996-07-24 15:00:00,30,1014.7,-1.2,55,20,12000,14.816,,,120,,,,,,,,,,,wg-a,,,,AAXX 24154 07747 12662 /1208 10300 20200 30094 40147 56012 60006 81100 91500=
07747,1996-07-24 18:00:00,26,1015.6,0.8,74,21,7000,7.408,,,160,22.3,30.4,,0,,,,,,17,wg-a,,,,AAXX 24184 07747 12657 81604 10260 20210 30102 40156 53008 60007 71798 85983 91800 333 10304 20223=
07747,1996-07-24 21:00:00,25,1014.7,-0.9,79,21,8000,3.704,,,200,,,,,,,,,,3,wg-a,,,,AAXX 24214 07747 12658 72002 10250 20210 30093 40147 58009 60006 70392 878// 92100=
07747,1996-07-25 00:00:00,24,1016.1,1.4,78,20,9000,11.112,,,270,,,,,,,,,,2,wg-a,,,,AAXX 25004 07747 12659 72706 10240 20200 30107 40161 53014 60006 70292 878// 90000=
07747,1996-07-25 03:00:00,26,1015.4,-0.7,61,18,9000,11.112,,,340,,,,,,,,,,,wg-a,,,,AAXX 25034 07747 12559 83406 10260 20180 30100 40154 58007 60006 878// 90300=
07747,1996-07-25 06:00:00,25,1015.8,0.4,69,19,7000,3.704,,,60,23.7,27.1,,,,,,,,,wg-a,,,,AAXX 25064 07747 02757 70602 10250 20190 30104 40158 53004 60006 82582 90600 333 10271 20237 60004=
07747,1996-07-25 09:00:00,29,1017.6,1.8,52,18,8000,3.704,,,110,,,,,,,,,,,wg-a,,,,AAXX 25094 07747 12658 /1102 10290 20180 30122 40176 51018 60006 81532 90900=
07747,1996-07-25 12:00:00,29,1016.5,-1,48,17,9000,14.816,,,150,,,,,,,,,,,wg-a,,,,AAXX 25124 07747 12/59 21508 10290 20170 30112 40165 58010 60006 81032 91200=
07747,1996-07-25 15:00:00,29,1013.8,-2.7,52,18,12000,14.816,,,140,,,,,,,,,,,wg-a,,,,AAXX 25154 07747 12662 71408 10290 20180 30085 40138 56027 60006 81102 91500=
07747,1996-07-25 18:00:00,26,1012.6,-1.3,58,17,25000,7.408,,,80,24.5,32.5,,,,,,,,,wg-a,,,,AAXX 25184 07747 12775 80804 10260 20170 30072 40126 56013 60006 8157/ 91800 333 10325 20245=
07747,1996-07-25 21:00:00,25,1015.2,2.6,57,16,25000,11.112,,,360,,,,,,,,,,,wg-a,,,,AAXX 25214 07747 12775 /3606 10250 20160 30098 40152 53026 60006 81532 92100=
07747,1996-07-26 00:00:00,23,1014.6,-0.6,69,17,25000,7.408,,,240,,,,,,,,,,,wg-a,,,,AAXX 26004 07747 12/75 72404 10230 20170 30092 40146 58006 60006 8703/ 90000=
07747,1996-07-26 03:00:00,23,1013,-1.6,69,17,25000,7.408,,,140,,,,,,,,,,,wg-a,,,,AAXX 26034 07747 12/75 71404 10230 20170 30076 40130 58016 60006 8703/ 90300=
07747,1996-07-26 06:00:00,23,1014,1,69,17,25000,7.408,,,30,22.1,26.3,,,,,,,,1,wg-a,,,,AAXX 26064 07747 02675 50304 10230 20170 30086 40140 53010 60006 70192 82983 90600 333 10263 20221 60004=
07747,1996-07-26 09:00:00,28,1014.5,0.5,40,13,25000,7.408,,,130,,,,,,,,,,1,wg-a,,,,AAXX 26094 07747 12775 /1304 10280 20130 30091 40145 50005 60006 70191 81501 90900=
07747,1996-07-26 12:00:00,28,1014.3,-0.2,35,11,25000,18.52,,,100,,,,,,,,,,2,wg-a,,,,AAXX 26124 07747 12675 61010 10280 20110 30089 40143 56002 60006 70291 84202 91200=
07747,1996-07-26 15:00:00,29,1012.7,-1.5,55,19,12000,14.816,,,90,,,,,,,,,,,wg-a,,,,AAXX 26154 07747 12662 50908 10290 20190 30074 40127 56015 60006 83102 91500=
07747,1996-07-26 18:00:00,26,1012.7,-0.1,65,19,9000,14.816,,,110,22.8,29.8,,,,,,,,,wg-a,,,,AAXX 26184 07747 12/59 /1108 10260 20190 30073 40127 55001 60006 81032 91800 333 10298 20228=
07747,1996-07-26 21:00:00,24,1014.1,1.4,78,20,9000,7.408,,,350,,,,,,,,,,,wg-a,,,,AAXX 26214 07747 12/59 23504 10240 20200 30087 40141 53014 60006 81032 92100=
07747,1996-07-27 00:00:00,23,1014.1,-0,78,19,9000,14.816,,,350,,,,,,,,,,,wg-a,,,,AAXX 27004 07747 12659 33508 10230 20190 30087 40141 55000 60006 81530 90000=
07747,1996-07-27 03:00:00,24,1013.4,-0.7,65,17,9000,18.52,,,310,,,,,,,,,,,wg-a,,,,AAXX 27034 07747 12659 73110 10240 20170 30080 40134 58007 60006 8253/ 90300=
07747,1996-07-27 06:00:00,23,1013.9,0.5,69,17,12000,25.928,,,320,22.8,26.2,,,,,,,,,wg-a,,,,AAXX 27064 07747 02662 53214 10230 20170 30085 40139 53005 60006 83280 90600 333 10262 20228 60004=
07747,1996-07-27 12:00:00,30,1014.9,0.3,43,16,15000,14.816,,,360,,,,,,,,,,,wg-a,,,,AAXX 27124 07747 12665 /3608 10300 20160 30096 40149 51003 60006 85201 91200=
07747,1996-07-27 15:00:00,24,1015.1,0.1,74,19,12000,11.112,,,360,,,,2,,,,,,80,wg-a,,,,AAXX 27154 07747 12662 83606 10240 20190 30097 40151 53001 60027 78096 889// 91500=
07747,1996-07-27 18:00:00,20,1018,2.8,88,18,8000,7.408,,,180,20.2,30.2,,4,,,,,,80,wg-a,,,,AAXX 27184 07747 12658 81804 10200 20180 30125 40180 53028 60047 78096 889// 91800 333 10302 20202=
07747,1996-07-27 21:00:00,20,1017.6,-0.4,83,17,10000,22.224,,,310,,,,3,,,,,,21,wg-a,,,,AAXX 27214 07747 12660 73112 10200 20170 30121 40176 58004 60037 72196 8183/ 92100=
07747,1996-07-28 00:00:00,21,1017.2,-0.4,73,16,25000,22.224,,44.448,310,,,,0,,,,,,21,wg-a,,,,AAXX 28004 07747 02675 73112 10210 20160 30117 40172 58004 60046 72196 8153/ 90000 333 60007 91024=
07747,1996-07-28 03:00:00,21,1017.4,0.2,64,14,11000,29.632,,48.152,320,,,,,,,,,,,wg-a,,,,AAXX 28034 07747 12661 /3216 10210 20140 30119 40174 53002 60006 81530 90300 333 91026=
07747,1996-07-28 06:00:00,21,1018.2,0.8,64,14,500,29.632,,,320,19.2,21.5,,,,,10,,,,wg-a,,,,AAXX 28064 07747 12600 43216 10210 20140 30127 40182 53008 60104 81130 90600 333 10215 20192=
07747,1996-07-28 09:00:00,24,1018.4,0.3,54,14,11000,42.596,,61.116,310,,,,,,,,,,,wg-a,,,,AAXX 28094 07747 12/61 /3123 10240 20140 30130 40184 52003 60006 90900 333 91033=
07747,1996-07-28 12:00:00,28,1017.8,-0.6,45,15,500,31.484,,,330,,,,,,,,,,,wg-a,,,,AAXX 28124 07747 12600 33317 10280 20150 30124 40178 58006 60006 81130 91200=
07747,1996-07-28 15:00:00,30,1017.2,-0.5,38,14,500,25.928,,,350,,,,,,,,,,,wg-a,,,,AAXX 28154 07747 12/00 03514 10300 20140 30119 40172 56005 60006 80000 91500=
07747,1996-07-28 18:00:00,28,1016.8,-0.5,45,15,500,22.224,,,320,21.2,30,,,,,,,,,wg-a,,,,AAXX 28184 07747 12/00 03212 10280 20150 30114 40168 55005 60006 80000 91800 333 10300 20212=
07747,1996-07-28 21:00:00,23,1018.5,1.6,65,16,25000,7.408,,,240,,,,,,,,,,,wg-a,,,,AAXX 28214 07747 12/75 02404 10230 20160 30130 40185 53016 60006 80000 92100=
07747,1996-07-29 00:00:00,22,1018,-0.5,69,16,10000,14.816,,,310,,,,,,,,,,,wg-a,,,,AAXX 29004 07747 12/60 /3108 10220 20160 30125 40180 58005 60006 90000=
07747,1996-07-29 03:00:00,20,1017,-1,78,16,25000,11.112,,,220,,,,,,,,,,,wg-a,,,,AAXX 29034 07747 12/75 02206 10200 20160 30115 40170 58010 60006 80000 90300=
07747,1996-07-29 06:00:00,21,1017.2,0.2,73,16,25000,7.408,,,270,18.3,27.8,,,,,,,,,wg-a,,,,AAXX 29064 07747 02/75 02704 10210 20160 30117 40172 53002 60006 80000 90600 333 10278 20183 60004=
07747,1996-07-29 09:00:00,28,1016.9,-0.2,42,14,15000,7.408,,,150,,,,,,,,,,,wg-a,,,,AAXX 29094 07747 12665 /1504 10280 20140 30115 40169 58002 60006 81100 90900=
07747,1996-07-29 12:00:00,30,1015.7,-1.1,43,16,15000,14.816,,,140,,,,,,,,,,,wg-a,,,,AAXX 29124 07747 12665 /1408 10300 20160 30104 40157 58011 60006 81300 91200=
07747,1996-07-29 15:00:00,28,1014.4,-1.3,51,17,15000,14.816,,,130,,,,,,,,,,,wg-a,,,,AAXX 29154 07747 12665 51308 10280 20170 30091 40144 58013 60006 84903 91500=
07747,1996-07-29 18:00:00,27,1014.1,-0.4,58,18,15000,11.112,,,280,21.1,29.8,,,,,,,,,wg-a,,,,AAXX 29184 07747 12665 72806 10270 20180 30087 40141 55004 60006 8298/ 91800 333 10298 20211=
07747,1996-07-29 21:00:00,21,1017.5,3.3,83,18,15000,25.928,,,300,,,,1,,,,,,,wg-a,,,,AAXX 29214 07747 12665 73014 10210 20180 30120 40175 51033 60017 8298/ 92100=
07747,1996-07-30 00:00:00,20,1016.7,-0.8,73,15,0,11.112,,,290,,,,,,,,,,,wg-a,,,,AAXX 30004 07747 12/// /2906 10200 20150 30112 40167 58008 60016 90000=
07747,1996-07-30 03:00:00,21,1015.2,-1.5,78,17,15000,38.892,,57.412,310,,,,,,,,,,,wg-a,,,,AAXX 30034 07747 12665 33121 10210 20170 30097 40152 56015 60006 81130 90300 333 91031=
07747,1996-07-30 06:00:00,21,1017.2,2,69,15,40000,25.928,,,310,19.8,27.2,,,,,1,,,,wg-a,,,,AAXX 30064 07747 12582 43114 10210 20150 30117 40172 53020 60014 81830 90600 333 10272 20198=
07747,1996-07-30 09:00:00,24,1018.3,1.1,54,14,75000,29.632,,40.744,340,,,,,,,,,,,wg-a,,,,AAXX 30094 07747 12589 /3416 10240 20140 30128 40183 53011 60006 81800 90900 333 91022=
07747,1996-07-30 12:00:00,26,1017.5,-0.7,48,14,60000,22.224,,,330,,,,,,,,,,,wg-a,,,,AAXX 30124 07747 12686 23312 10260 20140 30121 40175 58007 60006 82800 91200=
07747,1996-07-30 15:00:00,26,1017.2,-0.3,48,14,60000,29.632,,,320,,,,,,,,,,,wg-a,,,,AAXX 30154 07747 12686 33216 10260 20140 30118 40172 56003 60006 83800 91500=
07747,1996-07-30 18:00:00,26,1017.1,-0.1,45,13,45000,25.928,,,330,21.3,27.2,,,,,,,,,wg-a,,,,AAXX 30184 07747 12683 33314 10260 20130 30117 40171 58001 60006 83800 91800 333 10272 20213=
07747,1996-07-30 21:00:00,23,1018.7,1.5,53,13,25000,18.52,,,320,,,,,,,,,,,wg-a,,,,AAXX 30214 07747 12675 /3210 10230 20130 30132 40187 51015 60006 81800 92100=
07747,1996-07-31 00:00:00,22,1018.6,-0.1,53,12,25000,18.52,,,320,,,,,,,,,,,wg-a,,,,AAXX 31004 07747 12/75 03210 10220 20120 30131 40186 58001 60006 80000 90000=
07747,1996-07-31 03:00:00,20,1017.7,-0.9,64,13,25000,11.112,,,310,,,,,,,,,,,wg-a,,,,AAXX 31034 07747 12/75 03106 10200 20130 30122 40177 56009 60006 80000 90300=
07747,1996-07-31 06:00:00,22,1018.2,0.5,57,13,60000,11.112,,,300,19.5,26.2,,,,,,,,,wg-a,,,,AAXX 31064 07747 02/86 03006 10220 20130 30127 40182 52005 60006 80000 90600 333 10262 20195 60004=
07747,1996-07-31 09:00:00,26,1017.5,-0.6,42,12,60000,25.928,,,330,,,,,,,,,,,wg-a,,,,AAXX 31094 07747 12/86 03314 10260 20120 30121 40175 58006 60006 80000 90900=
07747,1996-07-31 12:00:00,30,1016.5,-0.9,31,11,60000,7.408,,,100,,,,,,,,,,,wg-a,,,,AAXX 31124 07747 12686 /1004 10300 20110 30112 40165 56009 60006 81100 91200=
07747,1996-07-31 15:00:00,31,1015.2,-1.3,33,13,60000,14.816,,,160,,,,,,,,,,,wg-a,,,,AAXX 31154 07747 12686 /1608 10310 20130 30099 40152 56013 60006 81100 91500=
07747,1996-07-31 18:00:00,30,1014.8,-0.4,33,12,60000,11.112,,,120,21.7,32,,,,,,,,,wg-a,,,,AAXX 31184 07747 12786 /1206 10300 20120 30095 40148 56004 60006 81500 91800 333 10320 20217=
07747,1996-07-31 21:00:00,26,1016,1.1,48,14,500,7.408,,,280,,,,,,,,,,,wg-a,,,,AAXX 31214 07747 12/00 02804 10260 20140 30106 40160 51011 60006 80000 92100=
07747,1996-08-01 00:00:00,23,1015.9,-0.1,61,15,500,7.408,,,260,,,,,,,,,,,wg-a,,,,AAXX 01004 07747 12/00 02604 10230 20150 30105 40159 58001 60006 80000 90000=
07747,1996-08-01 03:00:00,21,1015.8,-0.2,73,16,500,11.112,,,230,,,,,,,,,,,wg-a,,,,AAXX 01034 07747 12/00 02306 10210 20160 30103 40158 58002 60006 80000 90300=
07747,1996-08-01 06:00:00,22,1016.7,0.9,69,16,50000,7.408,,,240,19.5,29.8,,,,,,,,,wg-a,,,,AAXX 01064 07747 02/84 12404 10220 20160 30112 40167 53009 60006 80001 90600 333 10298 20195 60004=
07747,1996-08-01 09:00:00,29,1016.6,0.1,43,15,40000,3.704,,,60,,,,,,,,,,,wg-a,,,,AAXX 01094 07747 12/82 10602 10290 20150 30113 40166 50001 60006 80001 90900=
07747,1996-08-01 12:00:00,30,1016.5,-0.1,43,16,40000,18.52,,,120,,,,,,,,,,,wg-a,,,,AAXX 01124 07747 12782 /1210 10300 20160 30112 40165 58001 60006 81100 91200=
07747,1996-08-01 15:00:00,29,1015.6,-0.9,52,18,500,22.224,,,110,,,,,,,,,,,wg-a,,,,AAXX 01154 07747 12/00 /1112 10290 20180 30103 40156 58009 60006 81030 91500=
07747,1996-08-01 18:00:00,26,1016,0.3,74,21,12000,11.112,,,60,22.4,30.2,,,,,,,,,wg-a,,,,AAXX 01184 07747 12662 /0606 10260 20210 30106 40160 53003 60006 81902 91800 333 10302 20224=
07747,1996-08-02 00:00:00,22,1018.2,0.5,94,21,11000,3.704,,,220,,,,,,,,,,,wg-a,,,,AAXX 02004 07747 12/61 /2202 10220 20210 30127 40182 50005 60006 90000=
07747,1996-08-02 03:00:00,21,1017.7,-0.5,88,19,8000,7.408,,,280,,,,,,,,,,,wg-a,,,,AAXX 02034 07747 12258 22804 10210 20190 30122 40177 56005 60006 82600 90300=
07747,1996-08-02 06:00:00,22,1018.7,1,83,19,12000,3.704,,,340,20.6,26.3,,,,,,,,,wg-a,,,,AAXX 02064 07747 02662 23402 10220 20190 30132 40187 51010 60006 81281 90600 333 10263 20206 60004=
07747,1996-08-02 09:00:00,28,1019.1,0.5,51,17,15000,3.704,,,60,,,,,,,,,,,wg-a,,,,AAXX 02094 07747 12665 20602 10280 20170 30137 40191 53005 60006 81280 90900=
07747,1996-08-02 12:00:00,27,1019.6,0.5,62,19,12000,7.408,,,150,,,,,,,,,,,wg-a,,,,AAXX 02124 07747 12662 71504 10270 20190 30142 40196 51005 60006 8387/ 91200=
07747,1996-08-02 15:00:00,25,1019.9,0.3,57,16,12000,22.224,,,310,,,,,,,,,,,wg-a,,,,AAXX 02154 07747 12662 73112 10250 20160 30145 40199 53003 60006 8437/ 91500=
07747,1996-08-02 18:00:00,23,1020.2,0.2,73,18,0,18.52,,,310,22.5,28.9,,,,,,,,,wg-a,,,,AAXX 02184 07747 32/// /3110 10230 20180 30147 40202 50002 91800 333 10289 20225=
07747,1996-08-02 21:00:00,21,1021.6,1.4,83,18,9000,11.112,,,260,,,,0,,,,,,61,wg-a,,,,AAXX 02214 07747 12759 72606 10210 20180 30161 40216 50014 60007 76198 8798/ 92100=
07747,1996-08-03 06:00:00,20,1021.6,-0.2,78,16,15000,25.928,,,310,19.4,23.4,,,,,5,,,2,wg-a,,,,AAXX 03064 07747 12465 /3114 10200 20160 30161 40216 56002 60054 70296 83570 90600 333 10234 20194=
07747,1996-08-03 09:00:00,23,1021.9,0.3,65,16,20000,14.816,,,310,,,,,,,,,,,wg-a,,,,AAXX 03094 07747 12470 63108 10230 20160 30164 40219 51003 60006 83532 90900=
07747,1996-08-03 12:00:00,27,1020.4,-1.4,45,14,25000,18.52,,38.892,320,,,,,,,,,,,wg-a,,,,AAXX 03124 07747 12575 43210 10270 20140 30150 40204 58014 60006 82832 91200 333 91021=
07747,1996-08-03 15:00:00,28,1019.3,-1.1,45,15,20000,18.52,,,320,,,,,,,,,,,wg-a,,,,AAXX 03154 07747 12570 53210 10280 20150 30139 40193 56011 60006 83832 91500=
07747,1996-08-03 18:00:00,26,1018.7,-0.6,54,16,25000,22.224,,,310,19.7,28.6,,,,,,,,,wg-a,,,,AAXX 03184 07747 12675 53112 10260 20160 30133 40187 56006 60006 83232 91800 333 10286 20197=
07747,1996-08-03 21:00:00,24,1019.6,0.8,57,15,25000,18.52,,,310,,,,,,,,,,,wg-a,,,,AAXX 03214 07747 12675 /3110 10240 20150 30141 40196 53008 60006 81530 92100=
07747,1996-08-04 00:00:00,22,1019,-0.6,65,15,25000,3.704,,,290,,,,,,,,,,,wg-a,,,,AAXX 04004 07747 12675 /2902 10220 20150 30135 40190 58006 60006 81500 90000=
07747,1996-08-04 03:00:00,19,1017.9,-1.1,83,16,25000,11.112,,,250,,,,,,,,,,,wg-a,,,,AAXX 04034 07747 12/75 02506 10190 20160 30124 40179 56011 60006 80000 90300=
07747,1996-08-04 06:00:00,19,1017.6,-0.3,83,16,25000,3.704,,,250,17.5,26.2,,,,,,,,,wg-a,,,,AAXX 04064 07747 02675 /2502 10190 20160 30121 40176 56003 60006 81531 90600 333 10262 20175 60004=
07747,1996-08-04 09:00:00,26,1016.6,-0.9,48,14,20000,11.112,,,110,,,,,,,,,,,wg-a,,,,AAXX 04094 07747 12670 /1106 10260 20140 30112 40166 58009 60006 81102 90900=
07747,1996-08-04 12:00:00,27,1015.4,-1.2,32,9,18000,22.224,,,120,,,,,,,,,,,wg-a,,,,AAXX 04124 07747 12668 31212 10270 20090 30100 40154 58012 60006 81130 91200=
07747,1996-08-04 15:00:00,27,1013.7,-1.7,42,13,20000,25.928,,,110,,,,,,,,,,,wg-a,,,,AAXX 04154 07747 12/70 11114 10270 20130 30083 40137 58017 60006 81030 91500=
07747,1996-08-04 18:00:00,24,1012.7,-1,69,18,12000,11.112,,,110,18.9,27.8,,,,,,,,,wg-a,,,,AAXX 04184 07747 12662 71106 10240 20180 30073 40127 56010 60006 82234 91800 333 10278 20189=
07747,1996-08-04 21:00:00,22,1012.3,-0.4,83,19,10000,11.112,,,340,,,,,,,,,,,wg-a,,,,AAXX 04214 07747 12660 73406 10220 20190 30069 40123 56004 60006 8423/ 92100=
07747,1996-08-05 00:00:00,23,1012.3,0,65,16,10000,22.224,,,350,,,,,,,,,,,wg-a,,,,AAXX 05004 07747 12660 73512 10230 20160 30069 40123 50000 60006 8493/ 90000=
07747,1996-08-05 03:00:00,21,1013,0.6,64,14,10000,3.704,,,30,,,,,,,,,,,wg-a,,,,AAXX 05034 07747 12660 30302 10210 20140 30075 40130 51006 60006 83500 90300=
07747,1996-08-05 06:00:00,20,1013.5,0.5,83,17,20000,3.704,,,100,18,24.4,,,,,,,,,wg-a,,,,AAXX 05064 07747 02670 51002 10200 20170 30080 40135 53005 60006 82882 90600 333 10244 20180 60004=
07747,1996-08-05 09:00:00,23,1013.5,0.1,69,17,20000,11.112,,,70,,,,,,,,,,,wg-a,,,,AAXX 05094 07747 12470 30706 10230 20170 30081 40135 52001 60006 81181 90900=
07747,1996-08-05 12:00:00,26,1012.5,-1,61,18,20000,11.112,,,110,,,,,,,,,,,wg-a,,,,AAXX 05124 07747 12570 71106 10260 20180 30071 40125 57010 60006 83182 91200=
07747,1996-08-05 15:00:00,24,1012.4,-0.1,65,17,20000,14.816,,,150,,,,,,,,,,,wg-a,,,,AAXX 05154 07747 12570 71508 10240 20170 30070 40124 56001 60006 878// 91500=
07747,1996-08-05 18:00:00,24,1012.3,-0.1,69,18,18000,7.408,,,130,19.8,26,,,,,,,,,wg-a,,,,AAXX 05184 07747 12568 71304 10240 20180 30069 40123 55001 60006 8287/ 91800 333 10260 20198=
07747,1996-08-05 21:00:00,23,1013.2,0.9,83,20,10000,7.408,,,210,,,,,,,,,,,wg-a,,,,AAXX 05214 07747 12660 72104 10230 20200 30078 40132 53009 60006 8157/ 92100=
07747,1996-08-06 00:00:00,21,1013.1,-0.2,88,19,9000,3.704,,,320,,,,,,,,,,,wg-a,,,,AAXX 06004 07747 12659 33202 10210 20190 30076 40131 58002 60006 81530 90000=
07747,1996-08-06 03:00:00,20,1012.9,-0.2,83,17,10000,3.704,,,340,,,,,,,,,,,wg-a,,,,AAXX 06034 07747 12/60 /3402 10200 20170 30074 40129 58002 60006 81030 90300=
07747,1996-08-06 06:00:00,21,1013,0.1,88,19,7000,7.408,,,50,19.2,24.2,,,,,,,,,wg-a,,,,AAXX 06064 07747 02357 70504 10210 20190 30075 40130 52001 60006 876// 90600 333 10242 20192 60004=
07747,1996-08-06 09:00:00,24,1013,0.1,78,20,9000,7.408,,,100,,,,,,,,,,,wg-a,,,,AAXX 06094 07747 12359 71004 10240 20200 30076 40130 51001 60006 85241 90900=
07747,1996-08-06 12:00:00,27,1012.4,-0.5,70,21,10000,22.224,,,110,,,,,,,,,,,wg-a,,,,AAXX 06124 07747 12460 71112 10270 20210 30071 40124 58005 60006 82141 91200=
07747,1996-08-06 15:00:00,26,1012.3,-0.2,79,22,9000,18.52,,,60,,,,,,,,,,,wg-a,,,,AAXX 06154 07747 12259 60610 10260 20220 30069 40123 56002 60006 82640 91500=
07747,1996-08-06 18:00:00,25,1013.3,1,83,22,8000,22.224,,,20,20.8,27.6,,,,,,,,,wg-a,,,,AAXX 06184 07747 12258 70212 10250 20220 30079 40133 53010 60006 876// 91800 333 10276 20208=
07747,1996-08-06 21:00:00,24,1015.5,2.2,74,19,9000,11.112,,,330,,,,,,,,,,,wg-a,,,,AAXX 06214 07747 12259 73306 10240 20190 30101 40155 51022 60006 8668/ 92100=
07747,1996-08-07 00:00:00,23,1016.2,0.7,73,18,9000,11.112,,,320,,,,,,,,,,,wg-a,,,,AAXX 07004 07747 12259 /3206 10230 20180 30108 40162 50007 60006 86600 90000=
07747,1996-08-07 03:00:00,22,1016.5,0.2,73,17,12000,7.408,,,290,,,,,,,,,,,wg-a,,,,AAXX 07034 07747 12262 82904 10220 20170 30110 40165 53002 60006 875// 90300=
07747,1996-08-07 06:00:00,23,1016.6,0.1,65,16,15000,11.112,,,320,21.3,24.6,,,,,,,,,wg-a,,,,AAXX 07064 07747 02565 83206 10230 20160 30111 40166 53001 60006 875// 90600 333 10246 20213 60004=
07747,1996-08-07 09:00:00,25,1016.8,0.3,57,16,20000,3.704,,,40,,,,,,,,,,,wg-a,,,,AAXX 07094 07747 12570 70402 10250 20160 30114 40168 53003 60006 875// 90900=
07747,1996-08-07 12:00:00,27,1016.5,-0.3,54,17,15000,3.704,,,30,,,,,,,,,,,wg-a,,,,AAXX 07124 07747 12565 80302 10270 20170 30111 40165 55003 60006 878// 91200=
07747,1996-08-07 15:00:00,22,1,,88,20,8000,3.704,,,250,,,,3,,,,,,80,wg-a,,,,AAXX 07154 07747 12358 72502 10220 20200 60037 78096 879// 91500=
07747,1996-08-07 18:00:00,21,1015.5,,94,20,9000,7.408,,,290,20.9,27.6,,2,,,,,,80,wg-a,,,,AAXX 07184 07747 12459 72904 10210 20200 30100 40155 60027 78096 879// 91800 333 10276 20209=
07747,1996-08-07 21:00:00,21,1015.2,-0.3,78,17,15000,18.52,,,290,,,,,,,,,,1,wg-a,,,,AAXX 07214 07747 02665 52910 10210 20170 30097 40152 56003 61000 70196 82540 92100 333 ////=
07747,1996-08-08 00:00:00,20,1015.8,0.6,88,18,12000,3.704,,,220,,,,,,,,,,3,wg-a,,,,AAXX 08004 07747 02562 72202 10200 20180 30103 40158 53006 61000 70396 878// 90000 333 ////=
07747,1996-08-08 03:00:00,19,1013.7,-2.1,88,17,15000,11.112,,,270,,,,2,,,,,,,wg-a,,,,AAXX 08034 07747 12565 72706 10190 20170 30082 40137 56021 60027 8587/ 90300=
07747,1996-08-08 06:00:00,20,1014.2,0.5,83,17,20000,7.408,,,300,19.1,21.7,,,,,7,,,3,wg-a,,,,AAXX 08064 07747 12570 73004 10200 20170 30087 40142 53005 60074 70386 8387/ 90600 333 10217 20191=
07747,1996-08-08 09:00:00,24,1014.5,0.4,65,17,45000,22.224,,,320,,,,,,,,,,,wg-a,,,,AAXX 08094 07747 12583 /3212 10240 20170 30091 40145 53004 60006 83841 90900=
07747,1996-08-08 12:00:00,28,1013.9,-0.5,51,17,45000,14.816,,,350,,,,,,,,,,,wg-a,,,,AAXX 08124 07747 12683 33508 10280 20170 30086 40139 58005 60006 82840 91200=
07747,1996-08-08 15:00:00,30,1013.2,-0.7,43,16,40000,18.52,,,330,,,,,,,,,,,wg-a,,,,AAXX 08154 07747 12682 23310 10300 20160 30079 40132 57007 60006 82800 91500=
07747,1996-08-08 18:00:00,29,1013.4,0.2,45,16,500,14.816,,,330,20.2,29.9,,,,,,,,,wg-a,,,,AAXX 08184 07747 12600 23308 10290 20160 30081 40134 53002 60006 82102 91800 333 10299 20202=
07747,1996-08-08 21:00:00,25,1015.1,1.6,61,17,25000,7.408,,,310,,,,,,,,,,,wg-a,,,,AAXX 08214 07747 12575 23104 10250 20170 30097 40151 53016 60006 82100 92100=
07747,1996-08-09 00:00:00,24,1015.5,0.4,65,17,25000,14.816,,,280,,,,,,,,,,,wg-a,,,,AAXX 09004 07747 12/75 02808 10240 20170 30101 40155 51004 60006 80000 90000=
07747,1996-08-09 03:00:00,21,1014.8,-0.8,73,16,25000,7.408,,,280,,,,,,,,,,,wg-a,,,,AAXX 09034 07747 12/75 02804 10210 20160 30093 40148 56008 60006 80000 90300=
07747,1996-08-09 06:00:00,21,1015.2,0.4,78,17,45000,14.816,,,240,19.5,28.7,,,,,,,,,wg-a,,,,AAXX 09064 07747 02/83 12408 10210 20170 30097 40152 53004 60006 80001 90600 333 10287 20195 60004=
07747,1996-08-09 12:00:00,29,1014.2,-0.4,45,16,60000,18.52,,,110,,,,,,,,,,,wg-a,,,,AAXX 09124 07747 12686 /1110 10290 20160 30089 40142 56004 60006 81300 91200=
07747,1996-08-09 18:00:00,25,1012.4,-0.7,79,21,18000,14.816,,,70,20.7,29.8,,,,,,,,,wg-a,,,,AAXX 09184 07747 12/68 40708 10250 20210 30070 40124 56007 60006 81084 91800 333 10298 20207=
07747,1996-08-10 00:00:00,22,1012.7,-0.4,88,20,9000,7.408,,,250,,,,,,,,,,,wg-a,,,,AAXX 10004 07747 12459 22504 10220 20200 30073 40127 57004 60006 81601 90000=
07747,1996-08-10 03:00:00,20,1011.8,-1,94,19,9000,3.704,,,260,,,,,,,,,,,wg-a,,,,AAXX 10034 07747 12459 /2602 10200 20190 30063 40118 56010 60006 81600 90300=
07747,1996-08-10 06:00:00,21,1011.4,-0.3,94,20,9000,3.704,,,300,19.5,25.1,,,,,,,,,wg-a,,,,AAXX 10064 07747 02459 /3002 10210 20200 30060 40114 55003 60006 84600 90600 333 10251 20195 60004=
07747,1996-08-10 09:00:00,26,1010.6,-0.8,74,21,9000,3.704,,,30,,,,,,,,,,,wg-a,,,,AAXX 10094 07747 12459 30302 10260 20210 30052 40106 58008 60006 83100 90900=
07747,1996-08-10 12:00:00,28,1008.7,-1.8,66,21,9000,18.52,,,70,,,,,,,,,,,wg-a,,,,AAXX 10124 07747 12559 /0710 10280 20210 30034 40087 58018 60006 81200 91200=
07747,1996-08-10 15:00:00,29,1007.5,-1.2,62,21,10000,18.52,,,90,,,,,,,,,,17,wg-a,,,,AAXX 10154 07747 12560 /0910 10290 20210 30022 40075 56012 60006 71791 83903 91500=
07747,1996-08-10 18:00:00,26,1009.4,1.9,65,19,9000,22.224,,,340,21.4,29.8,,,,,,,,17,wg-a,,,,AAXX 10184 07747 02559 73412 10260 20190 30041 40094 53019 61000 71798 86982 91800 333 10298 20214 ////=
07747,1996-08-10 21:00:00,25,1012.4,2.9,57,16,9000,18.52,,,310,,,,,,,,,,1,wg-a,,,,AAXX 10214 07747 12559 73110 10250 20160 30070 40124 51029 60006 70192 8498/ 92100=
07747,1996-08-11 00:00:00,24,1012.7,0.3,65,17,15000,18.52,,,310,,,,,,,,,,2,wg-a,,,,AAXX 11004 07747 12665 73110 10240 20170 30073 40127 53003 60006 70292 8658/ 90000=
07747,1996-08-11 03:00:00,22,1011.6,-1.1,69,16,12000,3.704,,,60,,,,,,,,,,,wg-a,,,,AAXX 11034 07747 12662 70602 10220 20160 30062 40116 58011 60006 8653/ 90300=
07747,1996-08-11 06:00:00,22,1012.4,0.7,65,15,15000,14.816,,,310,21.5,26.5,,,,,,,,,wg-a,,,,AAXX 11064 07747 02465 83108 10220 20150 30069 40124 53007 60006 8583/ 90600 333 10265 20215 61000=
07747,1996-08-11 09:00:00,23,1012.7,0.4,53,13,12000,11.112,,,320,,,,,,,,,,,wg-a,,,,AAXX 11094 07747 12462 83206 10230 20130 30073 40127 51004 60006 8583/ 90900=
07747,1996-08-11 12:00:00,24,1012.1,-0.6,54,14,15000,11.112,,,10,,,,,,,,,,,wg-a,,,,AAXX 11124 07747 12565 70106 10240 20140 30067 40121 58006 60006 8587/ 91200=
07747,1996-08-11 15:00:00,25,1011.7,-0.4,57,16,15000,14.816,,,210,,,,,,,,,,,wg-a,,,,AAXX 11154 07747 12565 72108 10250 20160 30063 40117 55004 60006 8597/ 91500=
07747,1996-08-11 18:00:00,24,1011.6,-0.1,57,15,25000,3.704,,,150,21.7,26.7,,,,,,,,,wg-a,,,,AAXX 11184 07747 12575 71502 10240 20150 30062 40116 55001 60006 8583/ 91800 333 10267 20217=
07747,1996-08-11 21:00:00,24,1012.8,1.2,54,14,25000,25.928,,,330,,,,,,,,,,,wg-a,,,,AAXX 11214 07747 12575 /3314 10240 20140 30074 40128 51012 60006 85500 92100=
07747,1996-08-12 00:00:00,22,1013.1,0.2,60,14,25000,18.52,,,310,,,,,,,,,,,wg-a,,,,AAXX 12004 07747 12575 23110 10220 20140 30076 40131 53002 60006 82500 90000=
07747,1996-08-12 03:00:00,20,1012.8,-0.3,64,13,25000,25.928,,,320,,,,,,,,,,,wg-a,,,,AAXX 12034 07747 12775 43214 10200 20130 30073 40128 56003 60006 84500 90300=
07747,1996-08-12 06:00:00,20,1013.3,0.5,68,14,500,11.112,,,290,19.2,24.6,,,,,,,,,wg-a,,,,AAXX 12064 07747 02400 72906 10200 20140 30078 40133 51005 60006 85882 90600 333 10246 20192 60004=
07747,1996-08-12 09:00:00,22,1013.8,0.5,50,11,60000,38.892,,59.264,320,,,,,,,,,,,wg-a,,,,AAXX 12094 07747 12586 73221 10220 20110 30083 40138 51005 60006 83842 90900 333 91032=
07747,1996-08-12 12:00:00,25,1013.5,-0.2,41,11,60000,31.484,,46.3,330,,,,,,,,,,,wg-a,,,,AAXX 12124 07747 12586 73317 10250 20110 30081 40135 58002 60006 85880 91200 333 91025=
07747,1996-08-12 15:00:00,25,1013.2,-0.3,44,12,60000,22.224,,,330,,,,,,,,,,,wg-a,,,,AAXX 12154 07747 12586 73312 10250 20120 30078 40132 56003 60006 878// 91500=
07747,1996-08-12 18:00:00,23,1013.8,0.6,50,12,45000,25.928,,,310,19.9,26,,,,,,,,,wg-a,,,,AAXX 12184 07747 12583 73114 10230 20120 30084 40138 53006 60006 878// 91800 333 10260 20199=
07747,1996-08-12 21:00:00,22,1016.1,2.2,57,13,25000,11.112,,,320,,,,,,,,,,,wg-a,,,,AAXX 12214 07747 12575 73206 10220 20130 30106 40161 51022 60006 878// 92100=
07747,1996-08-13 00:00:00,21,1016,-0.1,60,13,25000,14.816,,,310,,,,,,,,,,,wg-a,,,,AAXX 13004 07747 12575 73108 10210 20130 30105 40160 58001 60006 878// 90000=
07747,1996-08-13 03:00:00,20,1015.6,-0.4,64,13,25000,18.52,,,320,,,,,,,,,,,wg-a,,,,AAXX 13034 07747 12575 63210 10200 20130 30101 40156 56004 60006 86800 90300=
07747,1996-08-13 06:00:00,19,1016.2,0.6,68,13,25000,11.112,,,280,18.4,23.3,,,,,,,,,wg-a,,,,AAXX 13064 07747 02575 62806 10190 20130 30107 40162 53006 60006 84840 90600 333 10233 20184 60004=
07747,1996-08-13 09:00:00,22,1016.2,0,50,11,25000,25.928,,,310,,,,,,,,,,,wg-a,,,,AAXX 13094 07747 12675 63114 10220 20110 30107 40162 50000 60006 84840 90900=
07747,1996-08-13 12:00:00,25,1015.5,-0.6,44,12,500,18.52,,,310,,,,,,,,,,,wg-a,,,,AAXX 13124 07747 12600 53110 10250 20120 30101 40155 57006 60006 84840 91200=
07747,1996-08-13 15:00:00,26,1014.7,-0.8,37,10,500,25.928,,,350,,,,,,,,,,,wg-a,,,,AAXX 13154 07747 12600 33514 10260 20100 30093 40147 58008 60006 83840 91500=
07747,1996-08-13 18:00:00,25,1014.7,-0,39,10,500,22.224,,,350,19.1,26.8,,,,,,,,,wg-a,,,,AAXX 13184 07747 12600 33512 10250 20100 30093 40147 55000 60006 81841 91800 333 10268 20191=
07747,1996-08-13 21:00:00,22,1016.2,1.4,46,10,500,18.52,,,320,,,,,,,,,,,wg-a,,,,AAXX 13214 07747 12600 23210 10220 20100 30107 40162 51014 60006 81540 92100=
07747,1996-08-14 00:00:00,20,1016.2,0,53,10,500,11.112,,,310,,,,,,,,,,,wg-a,,,,AAXX 14004 07747 12/00 03106 10200 20100 30107 40162 50000 60006 80000 90000=
07747,1996-08-14 03:00:00,20,1015.3,-0.9,56,11,25000,22.224,,,320,,,,,,,,,,,wg-a,,,,AAXX 14034 07747 12/75 03212 10200 20110 30098 40153 58009 60006 80000 90300=
07747,1996-08-14 06:00:00,20,1015.9,0.6,56,11,500,11.112,,,300,17.8,24.9,,,,,,,,,wg-a,,,,AAXX 14064 07747 02500 73006 10200 20110 30104 40159 53006 60006 81582 90600 333 10249 20178 60004=
07747,1996-08-14 09:00:00,24,1015.1,-0.7,44,11,500,11.112,,,340,,,,,,,,,,,wg-a,,,,AAXX 14094 07747 12600 63406 10240 20110 30097 40151 58007 60006 81872 90900=
07747,1996-08-14 12:00:00,28,1014.2,-0.9,32,10,500,14.816,,,20,,,,,,,,,,,wg-a,,,,AAXX 14124 07747 12600 70208 10280 20100 30088 40142 58009 60006 8126/ 91200=
07747,1996-08-14 15:00:00,27,1013.5,-0.7,37,11,25000,14.816,,,330,,,,,,,,,,,wg-a,,,,AAXX 14154 07747 12675 73308 10270 20110 30081 40135 58007 60006 81282 91500=
07747,1996-08-14 18:00:00,25,1013.6,0.1,44,12,25000,14.816,,,270,20.5,29.2,,,,,,,,,wg-a,,,,AAXX 14184 07747 12675 72708 10250 20120 30082 40136 50001 60006 82342 91800 333 10292 20205=
07747,1996-08-14 21:00:00,24,1014.6,1,47,12,25000,14.816,,,300,,,,,,,,,,,wg-a,,,,AAXX 14214 07747 12775 73008 10240 20120 30092 40146 53010 60006 83542 92100=
07747,1996-08-15 00:00:00,22,1015.6,0.9,57,13,25000,7.408,,,60,,,,,,,,,,,wg-a,,,,AAXX 15004 07747 12775 60604 10220 20130 30101 40156 53009 60006 82541 90000=
07747,1996-08-15 03:00:00,18,1015.3,-0.3,77,14,25000,7.408,,,260,,,,,,,,,,,wg-a,,,,AAXX 15034 07747 12/75 02604 10180 20140 30098 40153 55003 60006 80000 90300=
07747,1996-08-15 06:00:00,20,1015.8,0.5,64,13,500,11.112,,,290,16.8,25.3,,,,,,,,,wg-a,,,,AAXX 15064 07747 02/00 12906 10200 20130 30103 40158 51005 60006 81041 90600 333 10253 20168 60004=
07747,1996-08-15 09:00:00,26,1016.1,0.4,48,14,500,11.112,,,100,,,,,,,,,,,wg-a,,,,AAXX 15094 07747 12600 /1006 10260 20140 30107 40161 50004 60006 81100 90900=
07747,1996-08-15 10:00:00,30,1014.6,0.3,40,15,20000,11.112,,,140,,,,,,,,,,,wg-a,,,,AAXX 15104 07747 12770 /1406 10300 20150 30092 40146 53003 60006 81100 91000=
07747,1996-08-15 12:00:00,28,1015.3,-0.8,51,17,25000,18.52,,,130,,,,,,,,,,,wg-a,,,,AAXX 15124 07747 12675 /1310 10280 20170 30099 40153 58008 60006 81100 91200=
07747,1996-08-15 15:00:00,28,1014.3,-1,45,15,20000,11.112,,,130,,,,,,,,,,,wg-a,,,,AAXX 15154 07747 12770 /1306 10280 20150 30089 40143 58010 60006 81100 91500=
07747,1996-08-15 18:00:00,26,1014.6,0.3,51,15,20000,11.112,,,140,20.4,28.8,,,,,,,,,wg-a,,,,AAXX 15184 07747 12770 /1406 10260 20150 30092 40146 53003 60006 81100 91800 333 10288 20204=
07747,1996-08-15 21:00:00,24,1016,1.4,50,13,15000,11.112,,,320,,,,,,,,,,,wg-a,,,,AAXX 15214 07747 12/65 03206 10240 20130 30106 40160 52014 60006 80000 92100=
07747,1996-08-16 00:00:00,22,1016.5,0.4,57,13,15000,14.816,,,280,,,,,,,,,,,wg-a,,,,AAXX 16004 07747 12/65 02808 10220 20130 30110 40165 50004 60006 80000 90000=
07747,1996-08-16 03:00:00,18,1016.5,-0.1,77,14,15000,11.112,,,250,,,,,,,,,,,wg-a,,,,AAXX 16034 07747 12/65 02506 10180 20140 30109 40165 58001 60006 80000 90300=
07747,1996-08-16 06:00:00,19,1017.1,0.7,73,14,15000,3.704,,,150,17.7,25.7,,,,,,,,,wg-a,,,,AAXX 16064 07747 02/65 01502 10190 20140 30116 40171 53007 60006 80000 90600 333 10257 20177 60004=
07747,1996-08-16 09:00:00,26,1017.2,0.2,48,14,15000,7.408,,,110,,,,,,,,,,,wg-a,,,,AAXX 16094 07747 12/65 01104 10260 20140 30118 40172 50002 60006 80000 90900=
07747,1996-08-16 12:00:00,28,1016.4,-0.8,42,14,10000,14.816,,,140,,,,,,,,,,,wg-a,,,,AAXX 16124 07747 12/60 01408 10280 20140 30110 40164 58008 60006 80000 91200=
07747,1996-08-16 15:00:00,29,1015.9,-0.4,40,14,10000,14.816,,,140,,,,,,,,,,,wg-a,,,,AAXX 16154 07747 12/60 01408 10290 20140 30106 40159 57004 60006 80000 91500=
07747,1996-08-16 18:00:00,27,1016.3,0.3,42,13,15000,3.704,,,170,19.2,29.4,,,,,,,,,wg-a,,,,AAXX 16184 07747 12765 /1702 10270 20130 30109 40163 53003 60006 81500 91800 333 10294 20192=
07747,1996-08-16 21:00:00,23,1017.7,1.3,57,14,15000,3.704,,,300,,,,,,,,,,,wg-a,,,,AAXX 16214 07747 12/65 03002 10230 20140 30122 40177 52013 60006 80000 92100=
07747,1996-08-17 00:00:00,21,1018,0.3,64,14,15000,11.112,,,50,,,,,,,,,,,wg-a,,,,AAXX 17004 07747 12/65 /0506 10210 20140 30125 40180 53003 60006 90000=
07747,1996-08-17 06:00:00,18,1019,0.9,83,15,18000,7.408,,,250,16.9,26.9,,,,,,,,,wg-a,,,,AAXX 17064 07747 02/68 02504 10180 20150 30134 40190 53009 60006 80000 90600 333 10269 20169 60004=
07747,1996-08-17 09:00:00,27,1019,0.2,42,13,18000,7.408,,,150,,,,,,,,,,,wg-a,,,,AAXX 17094 07747 12768 /1504 10270 20130 30136 40190 50002 60006 81100 90900=
07747,1996-08-17 12:00:00,30,1017.5,-1.4,40,15,18000,18.52,,,120,,,,,,,,,,,wg-a,,,,AAXX 17124 07747 12768 /1210 10300 20150 30122 40175 58014 60006 81200 91200=
07747,1996-08-17 15:00:00,30,1016.6,-0.9,40,15,15000,18.52,,,150,,,,,,,,,,,wg-a,,,,AAXX 17154 07747 12765 /1510 10300 20150 30113 40166 57009 60006 81200 91500=
07747,1996-08-17 18:00:00,28,1016.4,-0.3,42,14,15000,7.408,,,150,18.5,30.5,,,,,,,,,wg-a,,,,AAXX 17184 07747 12765 21504 10280 20140 30110 40164 56003 60006 81402 91800 333 10305 20185=
07747,1996-08-17 21:00:00,24,1017.2,0.8,57,15,15000,3.704,,,260,,,,,,,,,,,wg-a,,,,AAXX 17214 07747 12/65 02602 10240 20150 30118 40172 51008 60006 80000 92100=
07747,1996-08-18 00:00:00,24,1016.8,-0.4,47,12,15000,18.52,,,300,,,,,,,,,,,wg-a,,,,AAXX 18004 07747 12/65 03010 10240 20120 30114 40168 58004 60006 80000 90000=
07747,1996-08-18 03:00:00,20,1016.3,-0.6,60,12,15000,7.408,,,260,,,,,,,,,,,wg-a,,,,AAXX 18034 07747 12/65 02604 10200 20120 30108 40163 56006 60006 80000 90300=
07747,1996-08-18 06:00:00,21,1016.2,-0.1,56,12,50000,11.112,,,260,18.5,27.8,,,,,,,,,wg-a,,,,AAXX 18064 07747 02/84 02606 10210 20120 30107 40162 56001 60006 80000 90600 333 10278 20185 60004=
07747,1996-08-18 09:00:00,29,1015.7,-0.4,37,13,60000,7.408,,,240,,,,,,,,,,,wg-a,,,,AAXX 18094 07747 12/86 02404 10290 20130 30103 40157 58004 60006 80000 90900=
07747,1996-08-18 12:00:00,30,1014.4,-1.2,35,13,60000,22.224,,,130,,,,,,,,,,,wg-a,,,,AAXX 18124 07747 12786 /1312 10300 20130 30091 40144 56012 60006 81100 91200=
07747,1996-08-18 15:00:00,29,1013.7,-0.7,40,14,40000,22.224,,,140,,,,,,,,,,,wg-a,,,,AAXX 18154 07747 12782 /1412 10290 20140 30084 40137 56007 60006 81200 91500=
07747,1996-08-18 18:00:00,26,1013.1,-0.7,51,15,20000,11.112,,,130,20.7,31.3,,,,,,,,,wg-a,,,,AAXX 18184 07747 12770 /1306 10260 20150 30077 40131 58007 60006 81103 91800 333 10313 20207=
07747,1996-08-19 00:00:00,22,1013.6,-0.4,57,13,15000,11.112,,,300,,,,,,,,,,,wg-a,,,,AAXX 19004 07747 12/65 13006 10220 20130 30081 40136 58004 60006 81030 90000=
07747,1996-08-19 03:00:00,21,1013.9,0.3,83,18,6000,11.112,,,350,,,,,,,,,,,wg-a,,,,AAXX 19034 07747 12456 /3506 10210 20180 30084 40139 53003 60006 86600 90300=
07747,1996-08-19 06:00:00,22,1013.9,0.1,88,20,6000,3.704,,,360,20.9,26.3,,,,,,,,,wg-a,,,,AAXX 19064 07747 02456 73602 10220 20200 30085 40139 53001 60006 876// 90600 333 10263 20209 60004=
07747,1996-08-19 09:00:00,25,1014.5,0.6,79,21,7000,14.816,,,90,,,,,,,,,,,wg-a,,,,AAXX 19094 07747 12457 70908 10250 20210 30091 40145 53006 60006 876// 90900=
07747,1996-08-19 12:00:00,26,1014.3,-0.2,79,22,7000,22.224,,,110,,,,,,,,,,,wg-a,,,,AAXX 19124 07747 12457 81112 10260 20220 30089 40143 58002 60006 876// 91200=
07747,1996-08-19 15:00:00,25,1013.2,-1.1,83,22,7000,18.52,,,110,,,,,,,,,,,wg-a,,,,AAXX 19154 07747 12357 81110 10250 20220 30078 40132 58011 60006 876// 91500=
07747,1996-08-19 18:00:00,24,1012.5,-0.7,89,22,6000,22.224,,,120,21.9,26.9,,,,,,,,,wg-a,,,,AAXX 19184 07747 12356 /1212 10240 20220 30071 40125 57007 60006 85680 91800 333 10269 20219=
07747,1996-08-19 21:00:00,23,1013.4,0.9,94,22,6000,18.52,,,110,,,,,,,,,,,wg-a,,,,AAXX 19214 07747 12356 71110 10230 20220 30080 40134 51009 60006 876// 92100=
07747,1996-08-20 00:00:00,22,1013.7,0.3,94,21,6000,3.704,,,50,,,,,,,,,,,wg-a,,,,AAXX 20004 07747 12356 70502 10220 20210 30083 40137 51003 60006 876// 90000=
07747,1996-08-20 03:00:00,21,1012.7,-1,100,21,6000,7.408,,,320,,,,,,,,,,,wg-a,,,,AAXX 20034 07747 12356 /3204 10210 20210 30073 40127 56010 60006 85600 90300=
07747,1996-08-20 06:00:00,21,1013.3,0.5,94,20,300,7.408,,,320,19.3,24,,,,,,,,10,wg-a,,,,AAXX 20064 07747 02203 83204 10210 20200 30078 40133 53005 60006 71041 876// 90600 333 10240 20193 60004=
07747,1996-08-20 09:00:00,26,1013.5,0.3,70,20,7000,7.408,,,170,,,,,,,,,,1,wg-a,,,,AAXX 20094 07747 12457 41704 10260 20200 30081 40135 52003 60006 70141 84100 90900=
07747,1996-08-20 12:00:00,29,1011.9,-1.5,62,21,8000,18.52,,,90,,,,,,,,,,3,wg-a,,,,AAXX 20124 07747 12458 40910 10290 20210 30066 40119 58015 60006 70341 83202 91200=
07747,1996-08-20 15:00:00,29,1010.4,-1.5,58,20,8000,22.224,,,140,,,,,,,,,,,wg-a,,,,AAXX 20154 07747 12458 51412 10290 20200 30051 40104 55015 60006 83363 91500=
07747,1996-08-20 18:00:00,25,1011,0.5,74,20,12000,11.112,,,150,20.6,30.2,,,,,,,,29,wg-a,,,,AAXX 20184 07747 12462 71506 10250 20200 30056 40110 50005 60006 72991 8598/ 91800 333 10302 20206=
07747,1996-08-20 21:00:00,21,1014.7,3.6,73,16,15000,38.892,,59.264,360,,,,,,,,,,,wg-a,,,,AAXX 20214 07747 12365 73621 10210 20160 30092 40147 53036 60006 869// 92100 333 91032=
07747,1996-08-21 00:00:00,20,1014.3,-0.4,73,15,25000,3.704,,,60,,,,,,,,,,,wg-a,,,,AAXX 21004 07747 12375 70602 10200 20150 30088 40143 55004 60006 8388/ 90000=
07747,1996-08-21 03:00:00,21,1012.6,-1.7,73,16,25000,7.408,,,260,,,,,,,,,,,wg-a,,,,AAXX 21034 07747 12575 82604 10210 20160 30071 40126 56017 60006 8558/ 90300=
07747,1996-08-21 06:00:00,20,1012.3,-0.3,78,16,12000,3.704,,,60,19.8,25.4,,,,,,,,,wg-a,,,,AAXX 21064 07747 02462 70602 10200 20160 30068 40123 55003 60006 8688/ 90600 333 10254 20198 60004=
07747,1996-08-21 09:00:00,25,1012.1,-0.1,65,18,15000,3.704,,,100,,,,,,,,,,,wg-a,,,,AAXX 21094 07747 12565 71002 10250 20180 30067 40121 58001 60006 84202 90900=
07747,1996-08-21 12:00:00,26,1011.6,-0.5,61,18,12000,18.52,,,60,,,,,,,,,,,wg-a,,,,AAXX 21124 07747 12562 80610 10260 20180 30062 40116 56005 60006 82903 91200=
07747,1996-08-21 15:00:00,22,1011.9,0.3,83,19,12000,7.408,,,110,,,,4,,,,,,17,wg-a,,,,AAXX 21154 07747 12462 71104 10220 20190 30065 40119 53003 60047 71796 85983 91500=
07747,1996-08-21 18:00:00,18,1013.9,1.9,88,16,8000,14.816,,,180,17.6,26.9,,2,,,,,,17,wg-a,,,,AAXX 21184 07747 12258 81808 10180 20160 30084 40139 53019 60027 71796 879// 91800 333 10269 20176=
07747,1996-08-21 21:00:00,19,1015.1,1.2,83,16,10000,14.816,,,270,,,,0,,,,,,1,wg-a,,,,AAXX 21214 07747 12560 42708 10190 20160 30096 40151 51012 60007 70196 84800 92100=
07747,1996-08-22 00:00:00,19,1015.2,0.1,73,14,10000,11.112,,,310,,,,,,,,,,2,wg-a,,,,AAXX 22004 07747 12660 /3106 10190 20140 30097 40152 53001 60006 70296 81100 90000=
07747,1996-08-22 03:00:00,18,1015.2,-0,68,12,10000,22.224,,,330,,,,,,,,,,,wg-a,,,,AAXX 22034 07747 12660 /3312 10180 20120 30097 40152 54000 60006 81100 90300=
07747,1996-08-22 06:00:00,19,1015.2,0,68,13,75000,3.704,,,310,17.8,19.5,,,,,7,,,,wg-a,,,,AAXX 22064 07747 12589 /3102 10190 20130 30097 40152 50000 60074 81830 90600 333 10195 20178=
07747,1996-08-22 09:00:00,22,1016,0.8,53,12,75000,18.52,,38.892,330,,,,,,,,,,,wg-a,,,,AAXX 22094 07747 12589 /3310 10220 20120 30105 40160 53008 60006 81802 90900 333 91021=
07747,1996-08-22 15:00:00,27,1013.8,-1.6,37,11,50000,18.52,,,350,,,,,,,,,,,wg-a,,,,AAXX 22154 07747 12684 23510 10270 20110 30084 40138 58016 60006 82800 91500=
07747,1996-08-22 18:00:00,26,1014.1,0.3,45,13,500,14.816,,,10,18.5,27.8,,,,,,,,,wg-a,,,,AAXX 22184 07747 12600 /0108 10260 20130 30087 40141 53003 60006 81800 91800 333 10278 20185=
07747,1996-08-22 21:00:00,20,1015.5,1.3,73,15,25000,11.112,,,260,,,,,,,,,,,wg-a,,,,AAXX 22214 07747 12/75 02606 10200 20150 30100 40155 51013 60006 80000 92100=
07747,1996-08-23 00:00:00,17,1014.8,-0.8,82,14,25000,3.704,,,290,,,,,,,,,,,wg-a,,,,AAXX 23004 07747 12/75 02902 10170 20140 30092 40148 58008 60006 80000 90000=
07747,1996-08-23 03:00:00,16,1013.8,-1,88,14,25000,7.408,,,260,,,,,,,,,,,wg-a,,,,AAXX 23034 07747 12/75 02604 10160 20140 30082 40138 57010 60006 80000 90300=
07747,1996-08-23 06:00:00,16,1013.4,-0.4,88,14,10000,0,,,0,15.3,25.7,,,,,,,,,wg-a,,,,AAXX 23064 07747 02/60 /0000 10160 20140 30078 40134 55004 60006 90600 333 10257 20153 60004=
07747,1996-08-23 09:00:00,24,1013.4,0.2,57,15,50000,7.408,,,130,,,,,,,,,,,wg-a,,,,AAXX 23094 07747 12/84 11304 10240 20150 30080 40134 53002 60006 81030 90900=
07747,1996-08-23 12:00:00,28,1013.1,-0.2,55,18,50000,14.816,,,110,,,,,,,,,,,wg-a,,,,AAXX 23124 07747 12684 21108 10280 20180 30078 40131 58002 60006 82100 91200=
07747,1996-08-23 15:00:00,28,1012.4,-0.7,58,19,500,7.408,,,130,,,,,,,,,,,wg-a,,,,AAXX 23154 07747 12600 41304 10280 20190 30071 40124 57007 60006 84202 91500=
07747,1996-08-23 18:00:00,24,1013.5,1,61,16,500,25.928,,,320,16.4,28.8,,,,,,,,,wg-a,,,,AAXX 23184 07747 12500 73214 10240 20160 30081 40135 53010 60006 86830 91800 333 10288 20164=
07747,1996-08-23 21:00:00,21,1015,1.4,64,14,25000,25.928,,,320,,,,,,,,,,,wg-a,,,,AAXX 23214 07747 12575 53214 10210 20140 30095 40150 51014 60006 81850 92100=
07747,1996-08-24 00:00:00,20,1015.1,0.1,60,12,500,18.52,,,320,,,,,,,,,,,wg-a,,,,AAXX 24004 07747 12500 /3210 10200 20120 30096 40151 52001 60006 8115/ 90000=
07747,1996-08-24 03:00:00,18,1014.6,-0.5,83,15,18000,22.224,,,320,,,,1,,,,,,25,wg-a,,,,AAXX 24034 07747 12568 73212 10180 20150 30091 40146 56005 60017 72511 878// 90300=
07747,1996-08-24 06:00:00,17,1016.3,1.6,88,15,7000,7.408,,,280,16.5,23.9,,5,,,5,,,61,wg-a,,,,AAXX 24064 07747 02457 82804 10170 20150 30107 40163 52016 60054 76161 878// 90600 333 10239 20165 60057=
07747,1996-08-24 09:00:00,19,1016.5,0.3,78,15,25000,18.52,,,320,,,,3,,,,,,1,wg-a,,,,AAXX 24094 07747 12475 73210 10190 20150 30110 40165 52003 60037 70162 878// 90900=
07747,1996-08-24 12:00:00,23,1015.7,-0.8,53,13,25000,14.816,,,320,,,,,,,,,,1,wg-a,,,,AAXX 24124 07747 12475 73208 10230 20130 30102 40157 58008 60036 70162 8588/ 91200=
07747,1996-08-24 15:00:00,24,1014.8,-0.8,47,12,25000,18.52,,,320,,,,,,,,,,,wg-a,,,,AAXX 24154 07747 12575 73210 10240 20120 30094 40148 58008 60006 878// 91500=
07747,1996-08-24 18:00:00,23,1015,0.1,50,12,25000,14.816,,,330,16.5,23.7,,,,,,,,,wg-a,,,,AAXX 24184 07747 32575 73308 10230 20120 30095 40150 52001 878// 91800 333 10237 20165=
07747,1996-08-24 21:00:00,21,1016.8,1.8,56,12,25000,11.112,,,320,,,,,,,,,,,wg-a,,,,AAXX 24214 07747 12575 73206 10210 20120 30113 40168 51018 60006 878// 92100=
07747,1996-08-25 00:00:00,19,1017.2,0.4,60,11,25000,18.52,,,310,,,,,,,,,,,wg-a,,,,AAXX 25004 07747 12575 /3110 10190 20110 30117 40172 51004 60006 86800 90000=
07747,1996-08-25 03:00:00,19,1016.5,-0.7,60,11,25000,7.408,,,330,,,,,,,,,,,wg-a,,,,AAXX 25034 07747 12575 73304 10190 20110 30110 40165 56007 60006 85802 90300=
07747,1996-08-25 06:00:00,18,1017.4,0.8,64,11,60000,11.112,,,300,17,22.6,,,,,3,,,,wg-a,,,,AAXX 25064 07747 02786 43006 10180 20110 30118 40174 51008 60006 82541 90600 333 10226 20170 60034=
07747,1996-08-25 09:00:00,22,1017.6,0.3,53,12,60000,14.816,,,10,,,,,,,,,,,wg-a,,,,AAXX 25094 07747 12686 20108 10220 20120 30121 40176 51003 60006 81841 90900=
07747,1996-08-25 12:00:00,25,1016,-1.5,44,12,40000,14.816,,,30,,,,,,,,,,,wg-a,,,,AAXX 25124 07747 12782 60308 10250 20120 30106 40160 57015 60006 83241 91200=
07747,1996-08-25 15:00:00,23,1015.6,-0.5,57,14,500,7.408,,,150,,,,,,,,,,,wg-a,,,,AAXX 25154 07747 12700 71504 10230 20140 30101 40156 57005 60006 878// 91500=
07747,1996-08-25 18:00:00,22,1015.4,-0.2,65,15,25000,11.112,,,250,17.9,25.4,,,,,,,,,wg-a,,,,AAXX 25184 07747 12775 72506 10220 20150 30099 40154 58002 60006 868// 91800 333 10254 20179=
07747,1996-08-25 21:00:00,19,1015.7,0.3,73,14,25000,11.112,,,250,,,,,,,,,,,wg-a,,,,AAXX 25214 07747 12775 42506 10190 20140 30102 40157 50003 60006 83830 92100=
07747,1996-08-26 00:00:00,16,1014.9,-0.9,88,14,25000,11.112,,,250,,,,,,,,,,,wg-a,,,,AAXX 26004 07747 12775 42506 10160 20140 30093 40149 58009 60006 81802 90000=
07747,1996-08-26 03:00:00,16,1013.8,-1.1,88,14,25000,3.704,,,300,,,,,,,,,,,wg-a,,,,AAXX 26034 07747 12575 23002 10160 20140 30082 40138 56011 60006 81830 90300=
07747,1996-08-26 06:00:00,16,1013.7,-0.1,88,14,25000,7.408,,,270,15.2,21.7,,,,,,,,,wg-a,,,,AAXX 26064 07747 02575 /2704 10160 20140 30081 40137 55001 60006 81884 90600 333 10217 20152 60004=
07747,1996-08-26 09:00:00,23,1014.5,1,65,16,15000,14.816,,,50,,,,,,,,,,,wg-a,,,,AAXX 26094 07747 12565 70508 10230 20160 30091 40145 53010 60006 86182 90900=
07747,1996-08-26 12:00:00,24,1014.5,0,61,16,18000,18.52,,,80,,,,,,,,,,,wg-a,,,,AAXX 26124 07747 12568 70810 10240 20160 30091 40145 50000 60006 8317/ 91200=
07747,1996-08-26 15:00:00,24,1014.1,-0.4,57,15,18000,14.816,,,70,,,,,,,,,,,wg-a,,,,AAXX 26154 07747 12568 70708 10240 20150 30087 40141 58004 60006 83838 91500=
07747,1996-08-26 18:00:00,22,1014.8,0.6,60,14,15000,7.408,,,130,15.9,24.6,,,,,,,,,wg-a,,,,AAXX 26184 07747 12565 71304 10220 20140 30093 40148 51006 60006 85882 91800 333 10246 20159=
07747,1996-08-26 21:00:00,21,1016.1,1.3,83,18,15000,7.408,,,200,,,,,,,,,,60,wg-a,,,,AAXX 26214 07747 02665 72004 10210 20180 30106 40161 51013 61000 76062 875// 92100 333 ////=
07747,1996-08-27 00:00:00,20,1015.9,-0.2,83,17,15000,0,,,0,,,,0,,,,,,60,wg-a,,,,AAXX 27004 07747 02665 70000 10200 20170 30104 40159 56002 60006 76062 8557/ 90000 333 60007=
07747,1996-08-27 03:00:00,19,1015.1,-0.8,88,17,15000,3.704,,,280,,,,1,,,,,,,wg-a,,,,AAXX 27034 07747 12765 72802 10190 20170 30096 40151 55008 60017 8557/ 90300=
07747,1996-08-27 06:00:00,18,1014.8,-0.3,94,17,25000,0,,,0,17.4,22.3,,,,,1,,,3,wg-a,,,,AAXX 27064 07747 12475 70000 10180 20170 30093 40148 56003 60014 70362 83832 90600 333 10223 20174=
07747,1996-08-27 09:00:00,21,1016.1,1.3,78,17,20000,3.704,,,50,,,,,,,,,,,wg-a,,,,AAXX 27094 07747 12570 70502 10210 20170 30106 40161 53013 60006 878// 90900=
07747,1996-08-27 12:00:00,22,1015.6,-0.5,73,17,20000,3.704,,,70,,,,,,,,,,,wg-a,,,,AAXX 27124 07747 12570 70702 10220 20170 30101 40156 58005 60006 878// 91200=
07747,1996-08-27 15:00:00,21,1015.6,-0,88,19,3000,11.112,,,230,,,,3,,,,,,10,wg-a,,,,AAXX 27154 07747 12430 82306 10210 20190 30101 40156 55000 60037 71062 879// 91500=
07747,1996-08-27 21:00:00,18,1019.2,1.3,59,10,18000,18.52,,,320,,,,,,,,,,,wg-a,,,,AAXX 27214 07747 12568 73210 10180 20100 30136 40192 51013 60006 8483/ 92100=
07747,1996-08-28 00:00:00,19,1019.1,-0.1,56,10,25000,31.484,,48.152,330,,,,,,,,,,,wg-a,,,,AAXX 28004 07747 12575 53317 10190 20100 30135 40191 58001 60006 83850 90000 333 91026=
07747,1996-08-28 03:00:00,17,1018.5,-0.6,63,10,500,25.928,,42.596,330,,,,,,,,,,,wg-a,,,,AAXX 28034 07747 12500 43314 10170 20100 30129 40185 56006 60006 81830 90300 333 91023=
07747,1996-08-28 06:00:00,16,1019.2,0.7,63,9,50000,14.816,,,330,15.8,18.6,,,,,11,,,,wg-a,,,,AAXX 28064 07747 02484 23308 10160 20090 30136 40192 53007 60006 81840 90600 333 10186 20158 60114=
07747,1996-08-28 09:00:00,20,1018.9,-0.2,49,9,60000,31.484,,53.708,330,,,,,,,,,,,wg-a,,,,AAXX 28094 07747 12586 /3317 10200 20090 30134 40189 56002 60006 81840 90900 333 91029=
07747,1996-08-28 12:00:00,22,1018.2,-0.7,43,9,60000,29.632,,,340,,,,,,,,,,,wg-a,,,,AAXX 28124 07747 12586 /3416 10220 20090 30127 40182 58007 60006 81840 91200=
07747,1996-08-28 15:00:00,23,1017.1,-1.1,38,8,60000,35.188,,,330,,,,,,,,,,,wg-a,,,,AAXX 28154 07747 12586 23319 10230 20080 30116 40171 56011 60006 82840 91500=
07747,1996-08-28 18:00:00,22,1017.3,0.2,43,9,40000,31.484,,,330,16.4,23.8,,,,,,,,,wg-a,,,,AAXX 28184 07747 12582 /3317 10220 20090 30118 40173 53002 60006 86800 91800 333 10238 20164=
07747,1996-08-28 21:00:00,20,1019.3,2,53,10,500,18.52,,,330,,,,,,,,,,,wg-a,,,,AAXX 28214 07747 12700 73310 10200 20100 30138 40193 51020 60006 875// 92100=
07747,1996-08-29 00:00:00,19,1019.3,-0.1,56,10,500,11.112,,,330,,,,,,,,,,,wg-a,,,,AAXX 29004 07747 12700 73306 10190 20100 30137 40193 58001 60006 875// 90000=
07747,1996-08-29 03:00:00,18,1018.4,-0.9,64,11,500,11.112,,,310,,,,,,,,,,,wg-a,,,,AAXX 29034 07747 12700 /3106 10180 20110 30128 40184 58009 60006 86500 90300=
07747,1996-08-29 06:00:00,17,1018.9,0.5,72,12,500,3.704,,,230,16,21.9,,,,,,,,,wg-a,,,,AAXX 29064 07747 02600 /2302 10170 20120 30133 40189 53005 60006 85800 90600 333 10219 20160 60004=
07747,1996-08-29 09:00:00,20,1019,0.2,53,10,500,18.52,,,330,,,,,,,,,,,wg-a,,,,AAXX 29094 07747 12600 43310 10200 20100 30135 40190 53002 60006 84800 90900=
07747,1996-08-29 12:00:00,22,1017.6,-1.4,41,8,500,29.632,,,340,,,,,,,,,,,wg-a,,,,AAXX 29124 07747 12600 53416 10220 20080 30121 40176 56014 60006 85800 91200=
07747,1996-08-29 15:00:00,23,1016.7,-0.9,44,10,500,22.224,,,340,,,,,,,,,,,wg-a,,,,AAXX 29154 07747 12600 /3412 10230 20100 30112 40167 56009 60006 85800 91500=
07747,1996-08-29 18:00:00,22,1017.4,0.7,46,10,500,11.112,,,340,16.5,23.7,,,,,,,,,wg-a,,,,AAXX 29184 07747 12600 /3406 10220 20100 30119 40174 53007 60006 86800 91800 333 10237 20165=
07747,1996-08-29 21:00:00,19,1019.7,2.2,64,12,25000,14.816,,,300,,,,,,,,,,,wg-a,,,,AAXX 29214 07747 12775 53008 10190 20120 30141 40197 51022 60006 84540 92100=
07747,1996-08-30 00:00:00,18,1019.9,0.2,59,10,25000,25.928,,,310,,,,,,,,,,,wg-a,,,,AAXX 30004 07747 12775 73114 10180 20100 30143 40199 51002 60006 8454/ 90000=
07747,1996-08-30 03:00:00,17,1019.7,-0.2,68,11,25000,22.224,,,320,,,,,,,,,,,wg-a,,,,AAXX 30034 07747 12775 /3212 10170 20110 30141 40197 58002 60006 81540 90300=
07747,1996-08-30 06:00:00,18,1020.7,1,64,11,500,22.224,,,310,16.4,21.6,,,,,,,,,wg-a,,,,AAXX 30064 07747 02500 73112 10180 20110 30151 40207 53010 60006 8388/ 90600 333 10216 20164 60004=
07747,1996-08-30 09:00:00,19,1021.3,0.6,52,9,11000,22.224,,,330,,,,,,,,,,,wg-a,,,,AAXX 30094 07747 12/61 /3312 10190 20090 30157 40213 53006 60006 90900=
07747,1996-08-30 12:00:00,21,1020.5,-0.7,46,9,500,29.632,,,330,,,,,,,,,,,wg-a,,,,AAXX 30124 07747 12600 73316 10210 20090 30150 40205 57007 60006 8398/ 91200=
07747,1996-08-30 15:00:00,22,1019.9,-0.6,41,8,500,29.632,,,320,,,,,,,,,,,wg-a,,,,AAXX 30154 07747 12600 /3216 10220 20080 30144 40199 55006 60006 82982 91500=
07747,1996-08-30 18:00:00,21,1020.3,0.4,43,8,500,29.632,,,330,17.5,23.3,,,,,,,,,wg-a,,,,AAXX 30184 07747 12600 /3316 10210 20080 30148 40203 53004 60006 81802 91800 333 10233 20175=
07747,1996-08-30 21:00:00,19,1021.3,0.9,56,10,500,22.224,,,310,,,,,,,,,,,wg-a,,,,AAXX 30214 07747 12600 23112 10190 20100 30157 40213 51009 60006 82800 92100=
07747,1996-08-31 00:00:00,18,1021,-0.3,59,10,500,25.928,,,320,,,,,,,,,,,wg-a,,,,AAXX 31004 07747 12700 /3214 10180 20100 30154 40210 56003 60006 85500 90000=
07747,1996-08-31 03:00:00,18,1021.8,0.8,59,10,500,25.928,,,330,,,,,,,,,,,wg-a,,,,AAXX 31034 07747 12700 23314 10180 20100 30162 40218 51008 60006 82500 90300=
07747,1996-08-31 06:00:00,17,1022,0.2,63,10,500,29.632,,,310,16.6,20.6,,,,,,,,,wg-a,,,,AAXX 31064 07747 02500 33116 10170 20100 30164 40220 53002 60006 82801 90600 333 10206 20166 60004=
07747,1996-08-31 09:00:00,21,1022.1,0.2,46,9,40000,31.484,,59.264,320,,,,,,,,,,,wg-a,,,,AAXX 31094 07747 12582 23217 10210 20090 30166 40221 53002 60006 82100 90900 333 91032=
07747,1996-08-31 12:00:00,23,1021,-1.1,38,8,60000,35.188,,57.412,340,,,,,,,,,,,wg-a,,,,AAXX 31124 07747 12586 23419 10230 20080 30155 40210 56011 60006 82100 91200 333 91031=
07747,1996-08-31 15:00:00,24,1020,-1,36,8,500,38.892,,57.412,330,,,,,,,,,,,wg-a,,,,AAXX 31154 07747 12500 /3321 10240 20080 30145 40200 58010 60006 81100 91500 333 91031=
07747,1996-08-31 18:00:00,22,1020,-0,41,8,25000,38.892,,,330,17.2,24.5,,,,,,,,,wg-a,,,,AAXX 31184 07747 12575 /3321 10220 20080 30145 40200 54000 60006 81101 91800 333 10245 20172=
07747,1996-08-31 21:00:00,21,1022.3,2.3,43,8,25000,22.224,,,320,,,,,,,,,,,wg-a,,,,AAXX 31214 07747 12/75 13212 10210 20080 30168 40223 51023 60006 81030 92100=
07747,1996-09-01 00:00:00,19,1022.9,0.5,52,9,25000,14.816,,,320,,,,,,,,,,,wg-a,,,,AAXX 01004 07747 12/75 13208 10190 20090 30173 40229 51005 60006 81030 90000=
07747,1996-09-01 03:00:00,19,1022,-0.9,56,10,25000,18.52,,,320,,,,,,,,,,,wg-a,,,,AAXX 01034 07747 12/75 63210 10190 20100 30164 40220 56009 60006 86030 90300=
07747,1996-09-01 06:00:00,19,1022,-0,56,10,35000,22.224,,,330,17.7,22.2,,,,,,,,,wg-a,,,,AAXX 01064 07747 02581 /3312 10190 20100 30164 40220 55000 60006 81842 90600 333 10222 20177 60004=
07747,1996-09-01 09:00:00,21,1021.8,-0.1,46,9,35000,31.484,,50.004,330,,,,,,,,,,,wg-a,,,,AAXX 01094 07747 12681 53317 10210 20090 30163 40218 58001 60006 81144 90900 333 91027=
07747,1996-09-01 12:00:00,24,1020.3,-1.5,31,6,35000,31.484,,,330,,,,,,,,,,,wg-a,,,,AAXX 01124 07747 12681 /3317 10240 20060 30148 40203 56015 60006 81142 91200=
07747,1996-09-01 15:00:00,25,1018.8,-1.4,28,5,35000,38.892,,53.708,320,,,,,,,,,,,wg-a,,,,AAXX 01154 07747 12681 /3221 10250 20050 30134 40188 58014 60006 81142 91500 333 91029=
07747,1996-09-01 18:00:00,23,1019,0.1,33,6,40000,22.224,,42.596,320,18.7,25.2,,,,,,,,,wg-a,,,,AAXX 01184 07747 12682 23212 10230 20060 30135 40190 50001 60006 81242 91800 333 10252 20187 91023=
07747,1996-09-01 21:00:00,21,1019.9,0.9,40,7,25000,22.224,,,330,,,,,,,,,,,wg-a,,,,AAXX 01214 07747 12775 /3312 10210 20070 30144 40199 51009 60006 81500 92100=
07747,1996-09-02 00:00:00,18,1020.1,0.1,49,7,25000,11.112,,,330,,,,,,,,,,,wg-a,,,,AAXX 02004 07747 12/75 03306 10180 20070 30145 40201 50001 60006 80000 90000=
07747,1996-09-02 03:00:00,16,1018.4,-1.7,51,6,25000,18.52,,,320,,,,,,,,,,,wg-a,,,,AAXX 02034 07747 12/75 03210 10160 20060 30128 40184 57017 60006 80000 90300=
07747,1996-09-02 06:00:00,17,1018,-0.4,45,5,60000,25.928,,,320,15.9,22.6,,,,,,,,,wg-a,,,,AAXX 02064 07747 02/86 13214 10170 20050 30124 40180 56004 60006 81030 90600 333 10226 20159 60004=
07747,1996-09-02 09:00:00,21,1017.4,-0.5,35,5,60000,31.484,,50.004,330,,,,,,,,,,,wg-a,,,,AAXX 02094 07747 12/86 23317 10210 20050 30119 40174 58005 60006 81042 90900 333 91027=
07747,1996-09-02 10:00:00,21,1015.1,-0.2,33,4,40000,35.188,,,320,16.9,23.6,,,,,,,,,wg-a,,,,AAXX 02104 07747 12682 43219 10210 20040 30096 40151 55002 60006 82242 91000 333 10236 20169=
07747,1996-09-02 12:00:00,21,1015,-2.4,38,6,45000,38.892,,62.968,340,,,,,,,,,,,wg-a,,,,AAXX 02124 07747 12683 /3421 10210 20060 30095 40150 58024 60006 81142 91200 333 91034=
07747,1996-09-02 15:00:00,23,1015.3,0.3,31,5,500,31.484,,,320,,,,,,,,,,,wg-a,,,,AAXX 02154 07747 12500 43217 10230 20050 30098 40153 53003 60006 81132 91500=
07747,1996-09-02 18:00:00,21,1015.1,-0.2,33,4,40000,35.188,,53.708,320,16.9,23.6,,,,,,,,,wg-a,,,,AAXX 02184 07747 12682 43219 10210 20040 30096 40151 55002 60006 82242 91800 333 10236 20169 91029=
07747,1996-09-02 21:00:00,19,1016.7,1.6,43,6,20000,18.52,,,320,,,,,,,,,,,wg-a,,,,AAXX 02214 07747 12670 33210 10190 20060 30112 40167 51016 60006 83800 92100=
07747,1996-09-03 00:00:00,18,1016.1,-0.7,49,7,18000,14.816,,,330,,,,,,,,,,,wg-a,,,,AAXX 03004 07747 12768 /3308 10180 20070 30105 40161 56007 60006 86500 90000=
07747,1996-09-03 03:00:00,17,1014.9,-1.2,52,7,18000,11.112,,,320,,,,,,,,,,,wg-a,,,,AAXX 03034 07747 12768 /3206 10170 20070 30093 40149 58012 60006 81550 90300=
07747,1996-09-03 06:00:00,16,1014.7,-0.2,55,7,40000,11.112,,,340,16,20.8,,,,,,,,,wg-a,,,,AAXX 03064 07747 02682 33406 10160 20070 30091 40147 55002 60006 81830 90600 333 10208 20160 60004=
07747,1996-09-03 09:00:00,20,1014.1,-0.5,43,7,40000,22.224,,,350,,,,,,,,,,,wg-a,,,,AAXX 03094 07747 12682 33512 10200 20070 30086 40141 56005 60006 81130 90900=
07747,1996-09-03 12:00:00,22,1013.2,-0.9,38,7,500,25.928,,,10,,,,,,,,,,,wg-a,,,,AAXX 03124 07747 12600 /0114 10220 20070 30077 40132 56009 60006 85330 91200=
07747,1996-09-03 15:00:00,24,1012,-1.1,38,9,25000,22.224,,,360,,,,,,,,,,,wg-a,,,,AAXX 03154 07747 12675 73612 10240 20090 30066 40120 57011 60006 83332 91500=
07747,1996-09-03 18:00:00,19,1014.3,2.2,56,10,20000,18.52,,,50,16.1,24.3,,,,,,,,,wg-a,,,,AAXX 03184 07747 12570 70510 10190 20100 30088 40143 53022 60006 8597/ 91800 333 10243 20161=
07747,1996-09-03 21:00:00,16,1015.5,1.1,82,13,10000,3.704,,,270,,,,,,,,,,2,wg-a,,,,AAXX 03214 07747 02560 82702 10160 20130 30099 40155 51011 61000 70262 889// 92100 333 ////=
07747,1996-09-04 00:00:00,16,1014.3,-1.2,82,13,10000,7.408,,,190,,,,,,,,,,2,wg-a,,,,AAXX 04004 07747 02560 81904 10160 20130 30087 40143 57012 61000 70262 888// 90000 333 ////=
07747,1996-09-04 03:00:00,19,1013.9,-0.3,52,9,10000,14.816,,,320,,,,,,,,,,,wg-a,,,,AAXX 04034 07747 12560 83208 10190 20090 30084 40139 57003 60006 875// 90300=
07747,1996-09-04 06:00:00,15,1014,-0,77,11,40000,7.408,,,230,13.9,19,,,,,,,,,wg-a,,,,AAXX 04064 07747 02/82 12304 10150 20110 30084 40140 55000 61000 80001 90600 333 10190 20139 ////=
07747,1996-09-04 09:00:00,22,1014.5,0.6,43,9,40000,11.112,,,310,,,,,,,,,,,wg-a,,,,AAXX 04094 07747 12682 /3106 10220 20090 30090 40145 52006 60006 81101 90900=
07747,1996-09-04 12:00:00,25,1013.8,-0.6,41,11,40000,18.52,,,120,,,,,,,,,,,wg-a,,,,AAXX 04124 07747 12682 /1210 10250 20110 30084 40138 56006 60006 81100 91200=
07747,1996-09-04 15:00:00,23,1013.1,-0.7,50,12,500,22.224,,,120,,,,,,,,,,,wg-a,,,,AAXX 04154 07747 12600 /1212 10230 20120 30077 40131 58007 60006 81100 91500=
07747,1996-09-04 18:00:00,21,1013.1,-0.1,73,16,25000,7.408,,,90,14.6,25.5,,,,,,,,,wg-a,,,,AAXX 04184 07747 12675 /0904 10210 20160 30076 40131 55001 60006 81130 91800 333 10255 20146=
07747,1996-09-04 21:00:00,18,1013.7,0.6,77,14,15000,7.408,,,260,,,,,,,,,,,wg-a,,,,AAXX 04214 07747 12/65 02604 10180 20140 30082 40137 50006 60006 80000 92100=
07747,1996-09-05 00:00:00,17,1013.9,0.1,72,12,15000,3.704,,,330,,,,,,,,,,,wg-a,,,,AAXX 05004 07747 12465 /3302 10170 20120 30083 40139 52001 60006 81600 90000=
07747,1996-09-05 03:00:00,17,1013.9,-0,82,14,8000,3.704,,,50,,,,,,,,,,,wg-a,,,,AAXX 05034 07747 12258 70502 10170 20140 30083 40139 55000 60006 876// 90300=
07747,1996-09-05 06:00:00,16,1014.3,0.4,88,14,12000,7.408,,,250,15.4,21,,,,,,,,,wg-a,,,,AAXX 05064 07747 02362 72504 10160 20140 30087 40143 53004 60006 876// 90600 333 10210 20154 60004=
07747,1996-09-05 09:00:00,20,1014.3,0.1,78,16,7000,3.704,,,20,,,,,,,,,,,wg-a,,,,AAXX 05094 07747 12457 /0202 10200 20160 30088 40143 50001 60006 81630 90900=
07747,1996-09-05 12:00:00,25,1013.2,-2,54,15,12000,7.408,,,130,,,,,,,,,,,wg-a,,,,AAXX 05124 07747 12662 /1304 10250 20150 30078 40132 58020 60006 81140 91200=
07747,1996-09-05 15:00:00,26,1011.4,-1.8,54,16,12000,11.112,,,130,,,,,,,,,,,wg-a,,,,AAXX 05154 07747 12762 /1306 10260 20160 30060 40114 56018 60006 81240 91500=
07747,1996-09-05 18:00:00,27,1011.9,0.5,39,12,10000,22.224,,,320,15.9,26.8,,,,,,,,,wg-a,,,,AAXX 05184 07747 12660 33212 10270 20120 30065 40119 53005 60006 81201 91800 333 10268 20159=
07747,1996-09-05 21:00:00,24,1013.6,1.7,54,14,10000,18.52,,,320,,,,,,,,,,,wg-a,,,,AAXX 05214 07747 12/60 23210 10240 20140 30082 40136 51017 60006 80001 92100=
07747,1996-09-06 00:00:00,23,1014.3,0.6,61,15,10000,18.52,,,310,,,,,,,,,,,wg-a,,,,AAXX 06004 07747 12/60 03110 10230 20150 30088 40143 51006 60006 80000 90000=
07747,1996-09-06 03:00:00,21,1014.7,0.4,60,13,10000,18.52,,,320,,,,,,,,,,,wg-a,,,,AAXX 06034 07747 12/60 03210 10210 20130 30092 40147 53004 60006 80000 90300=
07747,1996-09-06 06:00:00,22,1015,0.3,50,11,15000,22.224,,,320,20.6,26.7,,,,,,,,,wg-a,,,,AAXX 06064 07747 02/65 13212 10220 20110 30095 40150 53003 60006 81040 90600 333 10267 20206 60004=
07747,1996-09-06 09:00:00,25,1015.2,0.3,44,12,10000,35.188,,,320,,,,,,,,,,,wg-a,,,,AAXX 06094 07747 12/60 03219 10250 20120 30098 40152 51003 60006 80000 90900=
07747,1996-09-06 12:00:00,28,1014.1,-1.1,37,12,10000,25.928,,,330,,,,,,,,,,,wg-a,,,,AAXX 06124 07747 12560 23314 10280 20120 30087 40141 58011 60006 82100 91200=
07747,1996-09-06 15:00:00,28,1012.8,-1.2,35,11,10000,31.484,,,340,,,,,,,,,,,wg-a,,,,AAXX 06154 07747 12560 /3417 10280 20110 30075 40128 56012 60006 81101 91500=
07747,1996-09-06 18:00:00,26,1013.2,0.3,42,12,10000,22.224,,,340,21.6,28.8,,,,,,,,,wg-a,,,,AAXX 06184 07747 12/60 13412 10260 20120 30078 40132 53003 60006 80001 91800 333 10288 20216=
07747,1996-09-06 21:00:00,22,1014.8,1.5,53,12,10000,14.816,,,280,,,,,,,,,,,wg-a,,,,AAXX 06214 07747 12/60 02808 10220 20120 30093 40148 51015 60006 80000 92100=
07747,1996-09-07 00:00:00,20,1015.1,0.3,60,12,12000,14.816,,,290,,,,,,,,,,,wg-a,,,,AAXX 07004 07747 12/62 02908 10200 20120 30096 40151 52003 60006 80000 90000=
07747,1996-09-07 03:00:00,19,1014.2,-0.9,56,10,12000,18.52,,,290,,,,,,,,,,,wg-a,,,,AAXX 07034 07747 12/62 02910 10190 20100 30087 40142 56009 60006 80000 90300=
07747,1996-09-07 06:00:00,19,1014.4,0.2,56,10,500,7.408,,,290,18,26.1,,,,,,,,,wg-a,,,,AAXX 07064 07747 02/00 12904 10190 20100 30089 40144 53002 60006 81030 90600 333 10261 20180 60004=
07747,1996-09-07 09:00:00,26,1014,-0.3,34,9,500,29.632,,,320,,,,,,,,,,,wg-a,,,,AAXX 07094 07747 12/00 13216 10260 20090 30086 40140 56003 60006 81030 90900=
07747,1996-09-07 12:00:00,28,1013.3,-0.7,28,8,40000,31.484,,50.004,330,,,,,,,,,,,wg-a,,,,AAXX 07124 07747 12882 /3317 10280 20080 30079 40133 56007 60006 81100 91200 333 91027=
07747,1996-09-07 15:00:00,29,1012.6,-0.6,22,5,40000,29.632,,,340,,,,,,,,,,,wg-a,,,,AAXX 07154 07747 12882 /3416 10290 20050 30073 40126 56006 60006 81100 91500=
07747,1996-09-07 18:00:00,26,1014,1.3,30,7,40000,18.52,,,360,18.9,29.5,,,,,,,,,wg-a,,,,AAXX 07184 07747 12882 /3610 10260 20070 30086 40140 53013 60006 81100 91800 333 10295 20189=
07747,1996-09-08 00:00:00,17,1016.9,0.8,55,8,500,0,,,0,,,,,,,,,,,wg-a,,,,AAXX 08004 07747 12/00 00000 10170 20080 30113 40169 53008 60006 80000 90000=
07747,1996-09-08 03:00:00,13,1015.5,-1.5,72,8,25000,7.408,,,260,,,,,,,,,,,wg-a,,,,AAXX 08034 07747 12/75 02604 10130 20080 30098 40155 58015 60006 80000 90300=
07747,1996-09-08 06:00:00,12,1015.3,-0.2,71,7,60000,0,,,0,11.7,25.6,,,,,,,,,wg-a,,,,AAXX 08064 07747 02/86 30000 10120 20070 30096 40153 55002 60006 80002 90600 333 10256 20117 60004=
07747,1996-09-08 09:00:00,21,1015.5,0.4,46,9,50000,3.704,,,160,,,,,,,,,,,wg-a,,,,AAXX 08094 07747 12684 31602 10210 20090 30100 40155 50004 60006 81102 90900=
07747,1996-09-08 12:00:00,23,1014,-1.5,31,5,50000,11.112,,,110,,,,,,,,,,,wg-a,,,,AAXX 08124 07747 12584 21106 10230 20050 30085 40140 58015 60006 81102 91200=
07747,1996-09-08 15:00:00,24,1012.2,-1.7,31,6,45000,11.112,,,110,,,,,,,,,,,wg-a,,,,AAXX 08154 07747 12583 21106 10240 20060 30068 40122 58017 60006 81102 91500=
07747,1996-09-08 18:00:00,21,1012.3,-0,35,5,25000,7.408,,,180,12.2,24.4,,,,,,,,,wg-a,,,,AAXX 08184 07747 12575 31804 10210 20050 30068 40123 55000 60006 81143 91800 333 10244 20122=
07747,1996-09-08 21:00:00,16,1013.5,1.1,55,7,25000,7.408,,,330,,,,,,,,,,,wg-a,,,,AAXX 08214 07747 12/75 23304 10160 20070 30079 40135 51011 60006 81031 92100=
07747,1996-09-09 00:00:00,12,1013.2,-0.4,67,6,25000,3.704,,,330,,,,,,,,,,,wg-a,,,,AAXX 09004 07747 12/75 13302 10120 20060 30075 40132 58004 60006 81031 90000=
07747,1996-09-09 03:00:00,11,1012.9,-0.3,71,6,10000,7.408,,,280,,,,,,,,,,,wg-a,,,,AAXX 09034 07747 12/60 /2804 10110 20060 30072 40129 56003 60006 90300=
07747,1996-09-09 06:00:00,12,1013,0.1,67,6,40000,7.408,,,270,9.6,20.4,,,,,,,,,wg-a,,,,AAXX 09064 07747 02682 32704 10120 20060 30073 40130 53001 60006 81132 90600 333 10204 20096 60004=
07747,1996-09-09 09:00:00,21,1013.2,0.4,40,7,50000,29.632,,,330,,,,,,,,,,,wg-a,,,,AAXX 09094 07747 12684 73316 10210 20070 30077 40132 52004 60006 81102 90900=
07747,1996-09-09 12:00:00,21,1013.6,0.4,40,7,60000,29.632,,,90,,,,,,,,,,,wg-a,,,,AAXX 09124 07747 12686 70916 10210 20070 30081 40136 53004 60006 81232 91200=
07747,1996-09-09 15:00:00,22,1013.5,-0.1,38,7,500,14.816,,,110,,,,,,,,,,,wg-a,,,,AAXX 09154 07747 12600 /1108 10220 20070 30080 40135 55001 60006 82902 91500=
07747,1996-09-09 18:00:00,19,1014.2,0.7,49,8,25000,3.704,,,40,11.5,23.6,,,,,,,,,wg-a,,,,AAXX 09184 07747 12675 30402 10190 20080 30087 40142 53007 60006 81232 91800 333 10236 20115=
07747,1996-09-09 21:00:00,14,1016.5,2.2,67,8,25000,3.704,,,360,,,,,,,,,,,wg-a,,,,AAXX 09214 07747 12/75 23602 10140 20080 30109 40165 51022 60006 80002 92100=
07747,1996-09-10 00:00:00,16,1016.8,0.3,48,5,25000,14.816,,,330,,,,,,,,,,,wg-a,,,,AAXX 10004 07747 12/75 03308 10160 20050 30112 40168 53003 60006 80000 90000=
07747,1996-09-10 03:00:00,15,1016.5,-0.3,51,5,25000,11.112,,,250,,,,,,,,,,,wg-a,,,,AAXX 10034 07747 12675 /2506 10150 20050 30109 40165 56003 60006 85500 90300=
07747,1996-09-10 06:00:00,14,1016.6,0.1,55,5,500,11.112,,,280,13,19.1,,,,,,,,,wg-a,,,,AAXX 10064 07747 02/00 12806 10140 20050 30110 40166 53001 60006 80001 90600 333 10191 20130 60004=
07747,1996-09-10 09:00:00,21,1017,0.5,40,7,500,7.408,,,90,,,,,,,,,,,wg-a,,,,AAXX 10094 07747 12600 20904 10210 20070 30115 40170 53005 60006 81141 90900=
07747,1996-09-10 12:00:00,23,1016.4,-0.6,36,7,500,11.112,,,100,,,,,,,,,,,wg-a,,,,AAXX 10124 07747 12600 /1006 10230 20070 30109 40164 58006 60006 81100 91200=
07747,1996-09-10 15:00:00,23,1014.9,-1.5,38,8,500,11.112,,,120,,,,,,,,,,,wg-a,,,,AAXX 10154 07747 12600 31206 10230 20080 30094 40149 58015 60006 81102 91500=
07747,1996-09-10 18:00:00,20,1014.7,-0.2,46,8,500,7.408,,,140,13.8,23.5,,,,,,,,,wg-a,,,,AAXX 10184 07747 12600 /1404 10200 20080 30092 40147 55002 60006 81132 91800 333 10235 20138=
07747,1996-09-10 21:00:00,16,1015.7,0.9,55,7,25000,7.408,,,270,,,,,,,,,,,wg-a,,,,AAXX 10214 07747 12/75 52704 10160 20070 30101 40157 51009 60006 80002 92100=
07747,1996-09-11 00:00:00,14,1015.4,-0.3,67,8,25000,3.704,,,270,,,,,,,,,,,wg-a,,,,AAXX 11004 07747 12/75 02702 10140 20080 30098 40154 57003 60006 80000 90000=
07747,1996-09-11 03:00:00,15,1015.2,-0.2,63,8,25000,7.408,,,340,,,,,,,,,,,wg-a,,,,AAXX 11034 07747 12/75 03404 10150 20080 30096 40152 58002 60006 80000 90300=
07747,1996-09-11 06:00:00,12,1014.9,-0.4,76,8,25000,3.704,,,300,10.9,20.2,,,,,,,,,wg-a,,,,AAXX 11064 07747 02475 /3002 10120 20080 30092 40149 55004 60006 81500 90600 333 10202 20109 60004=
07747,1996-09-11 09:00:00,20,1014.6,-0.1,43,7,25000,7.408,,,80,,,,,,,,,,,wg-a,,,,AAXX 11094 07747 12/75 /0804 10200 20070 30091 40146 56001 60006 81081 90900=
07747,1996-09-11 12:00:00,22,1013,-1.6,38,7,25000,7.408,,,110,,,,,,,,,,,wg-a,,,,AAXX 11124 07747 12675 71104 10220 20070 30075 40130 56016 60006 81101 91200=
07747,1996-09-11 15:00:00,22,1011.2,-1.8,35,6,25000,7.408,,,100,,,,,,,,,,,wg-a,,,,AAXX 11154 07747 12675 81004 10220 20060 30057 40112 56018 60006 81177 91500=
07747,1996-09-11 18:00:00,20,1009.9,-1.3,46,8,25000,7.408,,,270,11.8,22.9,,,,,,,,,wg-a,,,,AAXX 11184 07747 12675 72704 10200 20080 30044 40099 58013 60006 8257/ 91800 333 10229 20118=
07747,1996-09-11 21:00:00,19,1010.5,0.6,49,8,20000,11.112,,,270,,,,,,,,,,,wg-a,,,,AAXX 11214 07747 12670 72706 10190 20080 30050 40105 51006 60006 8257/ 92100=
07747,1996-09-12 00:00:00,18,1008.7,-1.8,56,9,20000,11.112,,,270,,,,,,,,,,,wg-a,,,,AAXX 12004 07747 12670 72706 10180 20090 30032 40087 57018 60006 8457/ 90000=
07747,1996-09-12 03:00:00,17,1007.4,-1.3,72,12,20000,11.112,,,10,,,,,,,,,,,wg-a,,,,AAXX 12034 07747 12670 70106 10170 20120 30019 40074 57013 60006 8357/ 90300=
07747,1996-09-12 06:00:00,18,1007,-0.4,56,9,20000,7.408,,,340,16.3,19.9,,,,,,,,,wg-a,,,,AAXX 12064 07747 02670 73404 10180 20090 30015 40070 55004 60006 8357/ 90600 333 10199 20163 60004=
07747,1996-09-12 12:00:00,22,1005,-1.7,41,8,15000,22.224,,,330,,,,,,,,,,2,wg-a,,,,AAXX 12124 07747 02665 73312 10220 20080 39996 40050 56017 61000 70262 82571 91200 333 6100=
07747,1996-09-12 15:00:00,25,1003.5,-1.5,28,5,25000,38.892,,59.264,330,,,,,,,,,,,wg-a,,,,AAXX 12154 07747 12575 43321 10250 20050 39981 40035 58015 60006 81142 91500 333 91032=
07747,1996-09-12 18:00:00,22,1005.4,1.9,38,7,500,31.484,,,320,17.9,25.2,,,,,,,,,wg-a,,,,AAXX 12184 07747 32/00 23217 10220 20070 30000 40054 53019 81042 91800 333 10252 20179=
07747,1996-09-12 21:00:00,20,1007.5,2,43,7,500,50.004,,77.784,310,,,,,,,,,,,wg-a,,,,AAXX 12214 07747 12/00 03127 10200 20070 30020 40075 51020 60006 80000 92100 333 91042=
07747,1996-09-13 00:00:00,19,1011,3.5,49,8,500,31.484,,,320,,,,,,,,,,,wg-a,,,,AAXX 13004 07747 12/00 03217 10190 20080 30055 40110 51035 60006 80000 90000=
07747,1996-09-13 03:00:00,17,1011,0,55,8,25000,18.52,,,320,,,,,,,,,,,wg-a,,,,AAXX 13034 07747 12575 /3210 10170 20080 30055 40110 50000 60006 81140 90300=
07747,1996-09-13 06:00:00,18,1011.8,0.8,45,6,500,29.632,,,320,17,21.8,,,,,,,,,wg-a,,,,AAXX 13064 07747 02600 23216 10180 20060 30063 40118 53008 60006 81141 90600 333 10218 20170 61000=
07747,1996-09-13 12:00:00,22,1012.2,-0.5,41,8,40000,31.484,,,330,,,,,,,,,,,wg-a,,,,AAXX 13124 07747 12682 33317 10220 20080 30067 40122 58005 60006 83330 91200=
07747,1996-09-13 15:00:00,23,1011.3,-0.8,38,8,60000,35.188,,57.412,340,,,,,,,,,,,wg-a,,,,AAXX 13154 07747 12686 23419 10230 20080 30059 40113 55008 60006 82140 91500 333 91031=
07747,1996-09-13 18:00:00,21,1013.5,2.1,40,7,40000,18.52,,,330,17.5,23.9,,,,,,,,,wg-a,,,,AAXX 13184 07747 12682 33310 10210 20070 30080 40135 53021 60006 82101 91800 333 10239 20175=
07747,1996-09-14 00:00:00,17,1017.7,1,42,4,10000,14.816,,,340,,,,,,,,,,,wg-a,,,,AAXX 14004 07747 12/60 /3408 10170 20040 30121 40177 51010 60006 90000=
07747,1996-09-14 03:00:00,15,1017.6,-0.1,48,4,25000,14.816,,,340,,,,,,,,,,,wg-a,,,,AAXX 14034 07747 12775 23408 10150 20040 30120 40176 57001 60006 82502 90300=
07747,1996-09-14 06:00:00,12,1018.4,0.7,54,3,45000,3.704,,,330,11.6,20.6,,,,,,,,,wg-a,,,,AAXX 14064 07747 02/83 13302 10120 20030 30127 40184 53007 60006 80001 90600 333 10206 20116 60004=
07747,1996-09-14 09:00:00,19,1018.7,0.4,32,2,50000,22.224,,,350,,,,,,,,,,,wg-a,,,,AAXX 14094 07747 12684 /3512 10190 20020 30131 40187 51004 60006 81100 90900=
07747,1996-09-14 12:00:00,22,1017.1,-1.5,29,3,45000,18.52,,,310,,,,,,,,,,,wg-a,,,,AAXX 14124 07747 12683 /3110 10220 20030 30116 40171 58015 60006 81102 91200=
07747,1996-09-14 15:00:00,24,1016,-1.1,20,0,25000,25.928,,,340,,,,,,,,,,,wg-a,,,,AAXX 14154 07747 12675 23414 10240 20000 30105 40160 56011 60006 81102 91500=
07747,1996-09-14 18:00:00,21,1016.7,0.7,26,1,40000,22.224,,,330,11.9,24.2,,,,,,,,,wg-a,,,,AAXX 14184 07747 12682 /3312 10210 20010 30112 40167 53007 60006 81101 91800 333 10242 20119=
07747,1996-09-14 21:00:00,17,1018.4,1.6,36,2,40000,14.816,,,270,,,,,,,,,,,wg-a,,,,AAXX 14214 07747 12/82 02708 10170 20020 30128 40184 51016 60006 80000 92100=
07747,1996-09-15 00:00:00,14,1019,0.5,47,3,40000,11.112,,,260,,,,,,,,,,,wg-a,,,,AAXX 15004 07747 12/82 02606 10140 20030 30133 40190 52005 60006 80000 90000=
07747,1996-09-15 03:00:00,15,1018.3,-0.6,48,4,40000,14.816,,,290,,,,,,,,,,,wg-a,,,,AAXX 15034 07747 12/82 02908 10150 20040 30127 40183 56006 60006 80000 90300=
07747,1996-09-15 06:00:00,12,1018.7,0.3,58,4,50000,7.408,,,300,11.2,20.9,,,,,,,,,wg-a,,,,AAXX 15064 07747 02684 /3004 10120 20040 30130 40187 53003 60006 81540 90600 333 10209 20112 60004=
07747,1996-09-15 09:00:00,20,1019.1,0.6,35,4,50000,7.408,,,10,,,,,,,,,,,wg-a,,,,AAXX 15094 07747 12684 /0104 10200 20040 30136 40191 53006 60006 81141 90900=
07747,1996-09-15 12:00:00,23,1018.3,-0.8,36,7,40000,14.816,,,120,,,,,,,,,,,wg-a,,,,AAXX 15124 07747 12682 /1208 10230 20070 30128 40183 56008 60006 81101 91200=
07747,1996-09-15 15:00:00,23,1017.6,-0.7,33,6,35000,14.816,,,100,,,,,,,,,,,wg-a,,,,AAXX 15154 07747 12681 /1008 10230 20060 30121 40176 56007 60006 81100 91500=
07747,1996-09-15 18:00:00,19,1018.1,0.4,46,7,50000,7.408,,,230,11.7,23.6,,,,,,,,,wg-a,,,,AAXX 15184 07747 12684 /2304 10190 20070 30125 40181 52004 60006 81100 91800 333 10236 20117=
07747,1996-09-15 21:00:00,14,1018.9,0.7,58,6,25000,11.112,,,270,,,,,,,,,,,wg-a,,,,AAXX 15214 07747 12/75 02706 10140 20060 30132 40189 51007 60006 80000 92100=
07747,1996-09-16 00:00:00,14,1018.4,-0.4,58,6,0,11.112,,,270,,,,,,,,,,,wg-a,,,,AAXX 16004 07747 12/// /2706 10140 20060 30128 40184 58004 60006 90000=
07747,1996-09-16 03:00:00,11,1017.6,-0.9,71,6,25000,3.704,,,340,,,,,,,,,,,wg-a,,,,AAXX 16034 07747 12/75 03402 10110 20060 30119 40176 57009 60006 80000 90300=
07747,1996-09-16 06:00:00,10,1017.6,-0,82,7,40000,7.408,,,270,9.6,18.7,,,,,,,,,wg-a,,,,AAXX 16064 07747 02/82 12704 10100 20070 30119 40176 55000 60006 80001 90600 333 10187 20096 60004=
07747,1996-09-16 09:00:00,20,1017.4,-0,53,10,60000,11.112,,,120,,,,,,,,,,,wg-a,,,,AAXX 16094 07747 12/86 11206 10200 20100 30119 40174 54000 60006 80001 90900=
07747,1996-09-16 12:00:00,22,1016.4,-1,50,11,60000,18.52,,,130,,,,,,,,,,,wg-a,,,,AAXX 16124 07747 12786 /1310 10220 20110 30109 40164 56010 60006 81101 91200=
07747,1996-09-16 15:00:00,21,1014.9,-1.5,60,13,20000,18.52,,,100,,,,,,,,,,,wg-a,,,,AAXX 16154 07747 12770 /1010 10210 20130 30094 40149 57015 60006 81100 91500=
07747,1996-09-16 18:00:00,18,1014.2,-0.7,77,14,20000,7.408,,,60,10.3,22,,,,,,,,,wg-a,,,,AAXX 16184 07747 12770 /0604 10180 20140 30087 40142 57007 60006 81500 91800 333 10220 20103=
07747,1996-09-16 21:00:00,18,1013.8,-0.4,83,15,15000,7.408,,,340,,,,,,,,,,,wg-a,,,,AAXX 16214 07747 12365 23404 10180 20150 30083 40138 58004 60006 82600 92100=
07747,1996-09-17 00:00:00,18,1012.5,-1.3,88,16,7000,3.704,,,10,,,,,,,,,,,wg-a,,,,AAXX 17004 07747 12457 70102 10180 20160 30070 40125 58013 60006 876// 90000=
07747,1996-09-17 03:00:00,18,1011.1,-1.4,88,16,7000,3.704,,,320,,,,,,,,,,,wg-a,,,,AAXX 17034 07747 12357 73202 10180 20160 30056 40111 58014 60006 876// 90300=
07747,1996-09-17 06:00:00,18,1009.6,-1.5,83,15,7000,3.704,,,230,17.3,18.3,,,,,,,,,wg-a,,,,AAXX 17064 07747 02357 82302 10180 20150 30041 40096 56015 60006 855// 90600 333 10183 20173 60004=
07747,1996-09-17 09:00:00,19,1009.6,0,83,16,8000,3.704,,,340,,,,,,,,,,,wg-a,,,,AAXX 17094 07747 12558 83402 10190 20160 30041 40096 50000 60006 84802 90900=
07747,1996-09-17 12:00:00,18,1009.9,,94,17,6000,3.704,,,70,,,,,,,,,,,wg-a,,,,AAXX 17124 07747 12556 80702 10180 20170 30044 40099 60026 889// 91200=
07747,1996-09-17 15:00:00,17,1009.2,,88,15,6000,7.408,,,330,,,,0,,,,,,60,wg-a,,,,AAXX 17154 07747 12556 83304 10170 20150 30037 40092 60007 76062 885// 91500=
07747,1996-09-17 18:00:00,17,1009.3,0.1,88,15,9000,14.816,,,350,16.6,19.2,,1,,,,,,60,wg-a,,,,AAXX 17184 07747 12259 83508 10170 20150 30038 40093 53001 60017 76062 875// 91800 333 10192 20166=
07747,1996-09-17 21:00:00,16,1010,0.6,88,14,15000,3.704,,,40,,,,0,,,,,,60,wg-a,,,,AAXX 17214 07747 12265 80402 10160 20140 30044 40100 51006 60007 76066 885// 92100=
07747,1996-09-18 00:00:00,16,1008.9,-1,82,13,15000,18.52,,,330,,,,0,,,,,,60,wg-a,,,,AAXX 18004 07747 02465 83310 10160 20130 30034 40089 58010 60016 76066 885// 90000 333 60007=
07747,1996-09-18 03:00:00,16,1008.1,-0.8,88,14,15000,7.408,,,350,,,,,,,,,,1,wg-a,,,,AAXX 18034 07747 02565 83504 10160 20140 30026 40081 56008 61000 70162 885// 90300 333 ////=
07747,1996-09-18 09:00:00,18,1007.3,-0.5,77,14,500,18.52,,,60,,,,,,,,,,,wg-a,,,,AAXX 18094 07747 12500 /0610 10180 20140 30018 40073 56005 60006 85800 90900=
07747,1996-09-18 12:00:00,19,1006.4,-0.9,78,15,500,14.816,,,80,,,,,,,,,,,wg-a,,,,AAXX 18124 07747 12400 /0808 10190 20150 30009 40064 58009 60006 86800 91200=
07747,1996-09-18 15:00:00,18,1004.9,-1.5,83,15,10000,14.816,,,90,,,,,,,,,,,wg-a,,,,AAXX 18154 07747 12460 70908 10180 20150 39994 40049 56015 60006 872// 91500=
07747,1996-09-18 18:00:00,18,1004.4,-0.5,88,16,4500,11.112,,,90,15.9,19.8,,0,,,,,,61,wg-a,,,,AAXX 18184 07747 12445 70906 10180 20160 39989 40044 56005 60007 76162 875// 91800 333 10198 20159=
07747,1996-09-18 21:00:00,17,1003.7,-0.7,94,16,4000,11.112,,,130,,,,,,,,,,,wg-a,,,,AAXX 18214 07747 32/40 /1306 10170 20160 39982 40037 58007 92100=
07747,1996-09-19 00:00:00,17,1001.8,-1.9,88,15,6000,7.408,,,150,,,,,,,,,,1,wg-a,,,,AAXX 19004 07747 02556 71504 10170 20150 39963 40018 58019 60026 70162 875// 90000 333 61000=
07747,1996-09-19 03:00:00,16,1000.3,-1.5,94,15,6000,3.704,,,270,,,,,,,,,,,wg-a,,,,AAXX 19034 07747 12556 82702 10160 20150 39948 40003 58015 60006 885// 90300=
07747,1996-09-19 06:00:00,15,1000.4,0.1,94,14,4500,7.408,,,220,14.6,17.6,,0,,,2,,,10,wg-a,,,,AAXX 19064 07747 02545 72204 10150 20140 39949 40004 53001 60024 71061 875// 90600 333 10176 20146 60007=
07747,1996-09-19 09:00:00,19,1000.6,0.2,73,14,9000,3.704,,,260,,,,,,,,,,,wg-a,,,,AAXX 19094 07747 12459 52602 10190 20140 39951 40006 52002 60006 83340 90900=
07747,1996-09-19 12:00:00,20,1001.2,0.7,73,15,20000,22.224,,,110,,,,,,,,,,,wg-a,,,,AAXX 19124 07747 12570 61112 10200 20150 39958 40012 51007 60006 85340 91200=
07747,1996-09-19 15:00:00,18,1003.2,1.9,88,16,10000,14.816,,,10,,,,1,,,,,,80,wg-a,,,,AAXX 19154 07747 12160 70108 10180 20160 39977 40032 53019 60017 78098 879// 91500=
07747,1996-09-19 18:00:00,17,1004.9,1.7,77,13,500,11.112,,,30,14.9,21.6,,5,,,,,,1,wg-a,,,,AAXX 19184 07747 12500 40306 10170 20130 39994 40049 51017 60057 70198 84800 91800 333 10216 20149=
07747,1996-09-19 21:00:00,17,1008.2,3.3,59,9,500,22.224,,,340,,,,,,,,,,,wg-a,,,,AAXX 19214 07747 12/00 03412 10170 20090 30027 40082 52033 60006 80000 92100=
07747,1996-09-20 00:00:00,15,1008.6,0.3,67,9,20000,7.408,,,320,,,,,,,,,,,wg-a,,,,AAXX 20004 07747 12/70 03204 10150 20090 30030 40086 53003 60006 80000 90000=
07747,1996-09-20 03:00:00,11,1007.7,-0.9,94,10,500,7.408,,,270,,,,,,,,,,,wg-a,,,,AAXX 20034 07747 12500 32704 10110 20100 30021 40077 57009 60006 83500 90300=
07747,1996-09-20 06:00:00,12,1007.4,-0.3,88,10,500,3.704,,,210,11.1,17.8,,,,,6,,,,wg-a,,,,AAXX 20064 07747 02500 72102 10120 20100 30018 40074 56003 60006 8183/ 90600 333 10178 20111 60064=
07747,1996-09-20 09:00:00,18,1006.4,-0.9,73,13,500,18.52,,,90,,,,,,,,,,,wg-a,,,,AAXX 20094 07747 12500 60910 10180 20130 30009 40064 58009 60006 81832 90900=
07747,1996-09-20 12:00:00,21,1004,-2.3,64,14,15000,22.224,,,130,,,,,,,,,,,wg-a,,,,AAXX 20124 07747 12565 71312 10210 20140 39986 40040 58023 60006 8283/ 91200=
07747,1996-09-20 15:00:00,19,1002.6,-1.5,88,17,9000,11.112,,,40,,,,0,,,,,,61,wg-a,,,,AAXX 20154 07747 12459 80406 10190 20170 39971 40026 56015 60007 76162 8487/ 91500=
07747,1996-09-20 18:00:00,16,1002.8,0.2,82,13,9000,18.52,,,10,11.8,21.2,,0,,,,,,1,wg-a,,,,AAXX 20184 07747 12359 80110 10160 20130 39973 40028 50002 60007 70162 887// 91800 333 10212 20118=
07747,1996-09-20 21:00:00,15,1004.1,1.3,82,12,9000,11.112,,,50,,,,,,,,,,,wg-a,,,,AAXX 20214 07747 12459 80506 10150 20120 39986 40041 51013 60006 887// 92100=
07747,1996-09-21 00:00:00,15,1003,-1.1,82,12,8000,3.704,,,360,,,,,,,,,,,wg-a,,,,AAXX 21004 07747 12458 83602 10150 20120 39975 40030 58011 60006 887// 90000=
07747,1996-09-21 03:00:00,14,1001.5,-1.5,94,13,7000,3.704,,,60,,,,,,,,,,,wg-a,,,,AAXX 21034 07747 12457 80602 10140 20130 39960 40015 58015 60006 887// 90300=
07747,1996-09-21 06:00:00,14,1000.8,-0.7,94,13,7000,7.408,,,360,14.2,15.9,,,,,,,,,wg-a,,,,AAXX 21064 07747 02357 83604 10140 20130 39953 40008 56007 60006 886// 90600 333 10159 20142 60004=
07747,1996-09-21 09:00:00,16,1001.1,0.3,88,14,12000,7.408,,,70,,,,,,,,,,,wg-a,,,,AAXX 21094 07747 12462 70704 10160 20140 39956 40011 52003 60006 878// 90900=
07747,1996-09-21 12:00:00,18,1001.7,0.6,73,13,11000,3.704,,,320,,,,,,,,,,,wg-a,,,,AAXX 21124 07747 12/61 /3202 10180 20130 39962 40017 53006 60006 91200=
07747,1996-09-21 15:00:00,18,1001.5,-0.2,68,12,20000,14.816,,,310,,,,,,,,,,,wg-a,,,,AAXX 21154 07747 12570 73108 10180 20120 39960 40015 56002 60006 878// 91500=
07747,1996-09-21 18:00:00,14,1003.2,1.7,88,12,9000,18.52,,,270,14.3,19.1,,2,,,,,,61,wg-a,,,,AAXX 21184 07747 12559 82710 10140 20120 39977 40032 53017 60027 76162 8487/ 91800 333 10191 20143=
07747,1996-09-21 21:00:00,15,1003.1,-0.1,72,10,15000,29.632,,,320,,,,1,,,,,,2,wg-a,,,,AAXX 21214 07747 12565 83216 10150 20100 39976 40031 55001 60017 70262 8487/ 92100=
07747,1996-09-22 00:00:00,16,1002.8,-0.3,72,11,15000,22.224,,,320,,,,,,,,,,2,wg-a,,,,AAXX 22004 07747 12565 83212 10160 20110 39973 40028 55003 60016 70262 8487/ 90000=
07747,1996-09-22 03:00:00,15,1003,0.2,77,11,10000,14.816,,,300,,,,0,,,,,,61,wg-a,,,,AAXX 22034 07747 12660 73008 10150 20110 39975 40030 51002 60007 76162 8587/ 90300=
07747,1996-09-22 06:00:00,14,1003.3,0.2,88,12,15000,14.816,,,300,13.8,15.9,,0,,,4,,,61,wg-a,,,,AAXX 22064 07747 02565 83008 10140 20120 39977 40033 53002 60044 76162 8587/ 90600 333 10159 20138 60007=
07747,1996-09-22 09:00:00,15,1004.1,0.9,82,12,15000,11.112,,,340,,,,2,,,,,,60,wg-a,,,,AAXX 22094 07747 12565 73406 10150 20120 39986 40041 51009 60027 76066 8687/ 90900=
07747,1996-09-22 12:00:00,17,1003.8,-0.3,68,11,25000,46.3,,66.672,310,,,,,,,,,,1,wg-a,,,,AAXX 22124 07747 02475 73125 10170 20110 39983 40038 58003 60026 70162 8587/ 91200 333 61000 91036=
07747,1996-09-22 15:00:00,18,1005,1.2,56,9,500,50.004,,61.116,300,,,,0,,,,,,,wg-a,,,,AAXX 22154 07747 12500 /3027 10180 20090 39995 40050 50012 60007 82241 91500 333 91033=
07747,1996-09-22 18:00:00,16,1007.8,2.7,59,8,25000,22.224,,,320,13.5,18.3,,,,,,,,,wg-a,,,,AAXX 22184 07747 32675 /3212 10160 20080 30022 40078 53027 81240 91800 333 10183 20135=
07747,1996-09-22 21:00:00,15,1009.6,1.8,59,7,20000,22.224,,,320,,,,,,,,,,,wg-a,,,,AAXX 22214 07747 12670 33212 10150 20070 30040 40096 51018 60006 83500 92100=
07747,1996-09-23 00:00:00,15,1010,0.4,63,8,11000,25.928,,,320,,,,,,,,,,,wg-a,,,,AAXX 23004 07747 12/61 /3214 10150 20080 30044 40100 51004 60006 90000=
07747,1996-09-23 03:00:00,14,1009.1,-0.9,63,7,11000,29.632,,,320,,,,,,,,,,,wg-a,,,,AAXX 23034 07747 12/61 /3216 10140 20070 30035 40091 55009 60006 90300=
07747,1996-09-23 06:00:00,14,1010.1,1,63,7,500,7.408,,,330,13.6,16.1,,,,,2,,,,wg-a,,,,AAXX 23064 07747 02600 23304 10140 20070 30045 40101 51010 60006 82500 90600 333 10161 20136 60024=
07747,1996-09-23 09:00:00,17,1010,-0,48,6,500,29.632,,53.708,320,,,,,,,,,,,wg-a,,,,AAXX 23094 07747 12600 43216 10170 20060 30045 40100 55000 60006 82102 90900 333 91029=
07747,1996-09-23 12:00:00,20,1009.1,-0.9,37,5,25000,38.892,,64.82,320,,,,,,,,,,,wg-a,,,,AAXX 23124 07747 12675 63221 10200 20050 30036 40091 58009 60006 83202 91200 333 91035=
07747,1996-09-23 15:00:00,21,1008.7,-0.4,33,4,500,31.484,,,320,,,,,,,,,,,wg-a,,,,AAXX 23154 07747 12600 53217 10210 20040 30032 40087 56004 60006 82142 91500=
07747,1996-09-23 18:00:00,18,1010.5,1.8,45,6,500,22.224,,,320,13.7,21.4,,,,,,,,,wg-a,,,,AAXX 23184 07747 12600 53212 10180 20060 30050 40105 53018 60006 81141 91800 333 10214 20137=
07747,1996-09-23 21:00:00,16,1012.2,1.6,59,8,25000,3.704,,,320,,,,,,,,,,,wg-a,,,,AAXX 23214 07747 12/75 53202 10160 20080 30066 40122 52016 60006 81041 92100=
07747,1996-09-24 00:00:00,13,1012.4,0.2,77,9,15000,3.704,,,280,,,,,,,,,,,wg-a,,,,AAXX 24004 07747 12/65 52802 10130 20090 30068 40124 51002 60006 82041 90000=
07747,1996-09-24 03:00:00,13,1011.5,-0.9,82,10,15000,0,,,0,,,,,,,,,,,wg-a,,,,AAXX 24034 07747 12665 70000 10130 20100 30059 40115 58009 60006 875// 90300=
07747,1996-09-24 06:00:00,16,1011.9,0.4,72,11,20000,7.408,,,110,12.5,18.3,,,,,,,,,wg-a,,,,AAXX 24064 07747 02570 71104 10160 20110 30063 40119 53004 60006 8384/ 90600 333 10183 20125 60004=
07747,1996-09-24 09:00:00,19,1012,0.2,52,9,500,31.484,,51.856,320,,,,,,,,,,,wg-a,,,,AAXX 24094 07747 12500 63217 10190 20090 30065 40120 53002 60006 83840 90900 333 91028=
07747,1996-09-24 12:00:00,21,1012.1,0.1,49,10,500,11.112,,,300,,,,,,,,,,,wg-a,,,,AAXX 24124 07747 12700 73006 10210 20100 30066 40121 51001 60006 83540 91200=
07747,1996-09-24 15:00:00,22,1011.3,-0.7,50,11,500,29.632,,,320,,,,,,,,,,,wg-a,,,,AAXX 24154 07747 12600 63216 10220 20110 30059 40113 58007 60006 83540 91500=
07747,1996-09-24 18:00:00,19,1012.8,1.4,60,11,500,7.408,,,240,15.5,23,,,,,,,,,wg-a,,,,AAXX 24184 07747 12600 52404 10190 20110 30073 40128 53014 60006 83541 91800 333 10230 20155=
07747,1996-09-24 21:00:00,17,1014,1.1,68,11,11000,7.408,,,300,,,,,,,,,,,wg-a,,,,AAXX 24214 07747 12/61 /3004 10170 20110 30084 40140 51011 60006 92100=
07747,1996-09-25 00:00:00,15,1013.3,-0.7,72,10,20000,3.704,,,170,,,,,,,,,,,wg-a,,,,AAXX 25004 07747 12670 71702 10150 20100 30077 40133 56007 60006 81532 90000=
07747,1996-09-25 03:00:00,16,1012.3,-1,68,10,500,11.112,,,270,,,,,,,,,,,wg-a,,,,AAXX 25034 07747 12600 72706 10160 20100 30067 40123 58010 60006 82532 90300=
07747,1996-09-25 06:00:00,16,1012.1,-0.2,72,11,500,3.704,,,270,14.8,18.6,,,,,,,,,wg-a,,,,AAXX 25064 07747 02600 72702 10160 20110 30065 40121 55002 60006 8787/ 90600 333 10186 20148 60004=
07747,1996-09-25 09:00:00,19,1013.1,1.1,56,10,35000,18.52,,,310,,,,,,,,,,,wg-a,,,,AAXX 25094 07747 12681 73110 10190 20100 30076 40131 51011 60006 84872 90900=
07747,1996-09-25 12:00:00,21,1012.1,-1,46,9,35000,31.484,,,320,,,,,,,,,,,wg-a,,,,AAXX 25124 07747 12681 43217 10210 20090 30066 40121 58010 60006 81840 91200=
07747,1996-09-25 15:00:00,22,1011,-1.1,41,8,500,25.928,,,340,,,,,,,,,,,wg-a,,,,AAXX 25154 07747 12600 73414 10220 20080 30055 40110 56011 60006 86842 91500=
07747,1996-09-25 18:00:00,19,1013.4,2.4,52,9,20000,22.224,,,350,15.4,23.4,,,,,,,,,wg-a,,,,AAXX 25184 07747 12670 73512 10190 20090 30079 40134 53024 60006 85872 91800 333 10234 20154=
07747,1996-09-25 21:00:00,15,1015.8,2.3,77,11,20000,25.928,,,310,,,,1,,,,,,21,wg-a,,,,AAXX 25214 07747 12570 63114 10150 20110 30102 40158 51023 60017 72162 84842 92100=
07747,1996-09-26 00:00:00,16,1016.9,1.1,68,10,500,22.224,,,320,,,,,,,,,,1,wg-a,,,,AAXX 26004 07747 12600 43212 10160 20100 30113 40169 53011 60016 70161 83540 90000=
07747,1996-09-26 03:00:00,16,1017.8,0.9,68,10,500,22.224,,,310,,,,,,,,,,,wg-a,,,,AAXX 26034 07747 12600 33112 10160 20100 30122 40178 51009 60006 82540 90300=
07747,1996-09-26 06:00:00,16,1019.3,1.5,68,10,50000,22.224,,,330,14.4,18.5,,,,,1,,,,wg-a,,,,AAXX 26064 07747 12684 33312 10160 20100 30137 40193 53015 60014 82540 90600 333 10185 20144=
07747,1996-09-26 09:00:00,19,1020.5,1.2,56,10,50000,25.928,,,330,,,,,,,,,,,wg-a,,,,AAXX 26094 07747 12584 /3314 10190 20100 30149 40205 53012 60006 81100 90900=
07747,1996-09-26 12:00:00,22,1019.2,-1.2,46,10,50000,22.224,,,340,,,,,,,,,,,wg-a,,,,AAXX 26124 07747 12584 /3412 10220 20100 30137 40192 57012 60006 81100 91200=
07747,1996-09-26 15:00:00,22,1018,-1.2,43,9,500,31.484,,,350,,,,,,,,,,,wg-a,,,,AAXX 26154 07747 12500 /3517 10220 20090 30125 40180 56012 60006 81800 91500=
07747,1996-09-26 18:00:00,19,1019,0.9,56,10,25000,18.52,,,340,16,23,,,,,,,,,wg-a,,,,AAXX 26184 07747 12575 /3410 10190 20100 30134 40190 53009 60006 81842 91800 333 10230 20160=
07747,1996-09-26 21:00:00,18,1020.5,1.5,59,10,20000,11.112,,,320,,,,,,,,,,,wg-a,,,,AAXX 26214 07747 12/70 53206 10180 20100 30149 40205 51015 60006 85050 92100=
07747,1996-09-27 00:00:00,15,1020.4,-0.1,77,11,20000,11.112,,,230,,,,,,,,,,,wg-a,,,,AAXX 27004 07747 12/70 62306 10150 20110 30148 40204 58001 60006 86070 90000=
07747,1996-09-27 03:00:00,16,1020.1,-0.3,77,12,20000,7.408,,,250,,,,,,,,,,,wg-a,,,,AAXX 27034 07747 12770 72504 10160 20120 30145 40201 58003 60006 8157/ 90300=
07747,1996-09-27 06:00:00,16,1020.4,0.3,77,12,40000,11.112,,,260,14.3,18.9,,,,,,,,3,wg-a,,,,AAXX 27064 07747 02582 72606 10160 20120 30148 40204 53003 61000 70362 8684/ 90600 333 10189 20143 6100=
07747,1996-09-27 09:00:00,20,1020.6,0.3,60,12,40000,11.112,,,220,,,,,,,,,,,wg-a,,,,AAXX 27094 07747 12682 /2206 10200 20120 30151 40206 51003 60006 82840 90900=
07747,1996-09-27 12:00:00,25,1019.4,-1.1,57,16,60000,25.928,,,340,,,,,,,,,,,wg-a,,,,AAXX 27124 07747 12686 /3414 10250 20160 30140 40194 56011 60006 85842 91200=
07747,1996-09-27 15:00:00,24,1019,-0.4,61,16,40000,14.816,,,160,,,,,,,,,,,wg-a,,,,AAXX 27154 07747 12682 61608 10240 20160 30136 40190 55004 60006 84842 91500=
07747,1996-09-27 18:00:00,22,1021.2,2.1,69,16,20000,29.632,,,330,16,27.1,,,,,,,,,wg-a,,,,AAXX 27184 07747 12570 73316 10220 20160 30157 40212 53021 60006 86842 91800 333 10271 20160=
07747,1996-09-27 20:00:00,22,1021.2,2.1,69,16,20000,29.632,,,330,16,27.1,,,,,,,,,wg-a,,,,AAXX 27204 07747 12570 73316 10220 20160 30157 40212 53021 60006 86842 92000 333 10271 20160=
07747,1996-09-27 21:00:00,21,1022.4,1.2,69,15,20000,31.484,,51.856,330,,,,,,,,,,,wg-a,,,,AAXX 27214 07747 12570 43317 10210 20150 30169 40224 51012 60006 84802 92100 333 91028=
07747,1996-09-28 00:00:00,19,1023.9,1.4,64,12,20000,31.484,,,340,,,,,,,,,,,wg-a,,,,AAXX 28004 07747 12570 /3417 10190 20120 30183 40239 51014 60006 86800 90000=
07747,1996-09-28 03:00:00,17,1023.7,-0.2,68,11,15000,29.632,,46.3,280,,,,,,,,,,,wg-a,,,,AAXX 28034 07747 12565 72816 10170 20110 30181 40237 56002 60006 85802 90300 333 91025=
07747,1996-09-28 06:00:00,17,1025.1,1.4,63,10,25000,18.52,,,250,16.1,22.1,,,,,,,,,wg-a,,,,AAXX 28064 07747 02575 /2510 10170 20100 30195 40251 53014 60006 83802 90600 333 10221 20161 60004=
07747,1996-09-28 12:00:00,22,1024.8,-1.2,50,11,35000,18.52,,,300,,,,,,,,,,,wg-a,,,,AAXX 28124 07747 12581 43010 10220 20110 30193 40248 58012 60006 82102 91200=
07747,1996-09-28 15:00:00,24,1023.6,-1.2,38,9,35000,14.816,,,330,,,,,,,,,,,wg-a,,,,AAXX 28154 07747 12581 33308 10240 20090 30181 40236 56012 60006 81102 91500=
07747,1996-09-28 18:00:00,21,1023.9,0.3,49,10,40000,7.408,,,290,16.7,24.3,,,,,,,,,wg-a,,,,AAXX 28184 07747 12582 32904 10210 20100 30184 40239 53003 60006 81502 91800 333 10243 20167=
07747,1996-09-28 21:00:00,16,1025.4,1.4,72,11,25000,11.112,,,270,,,,,,,,,,,wg-a,,,,AAXX 28214 07747 12/75 12706 10160 20110 30198 40254 51014 60006 80002 92100=
07747,1996-09-29 00:00:00,13,1025.2,-0.3,82,10,25000,3.704,,,200,,,,,,,,,,,wg-a,,,,AAXX 29004 07747 12/75 12002 10130 20100 30195 40252 58003 60006 80002 90000=
07747,1996-09-29 03:00:00,11,1025.1,-0.2,87,9,25000,3.704,,,350,,,,,,,,,,,wg-a,,,,AAXX 29034 07747 12/75 13502 10110 20090 30193 40251 58002 60006 80002 90300=
07747,1996-09-29 06:00:00,9,1025.9,0.8,93,8,40000,7.408,,,250,8.8,20.5,,,,,,,,,wg-a,,,,AAXX 29064 07747 02/82 32504 10090 20080 30201 40259 53008 60006 80001 90600 333 10205 20088 60004=
07747,1996-09-29 09:00:00,20,1026.6,0.9,53,10,40000,3.704,,,60,,,,,,,,,,,wg-a,,,,AAXX 29094 07747 12/82 50602 10200 20100 30210 40266 53009 60006 80001 90900=
07747,1996-09-29 12:00:00,23,1025.3,-1.2,47,11,40000,7.408,,,130,,,,,,,,,,,wg-a,,,,AAXX 29124 07747 12/82 51304 10230 20110 30198 40253 58012 60006 80001 91200=
07747,1996-09-29 15:00:00,22,1024.2,-1.1,53,12,40000,11.112,,,130,,,,,,,,,,,wg-a,,,,AAXX 29154 07747 12/82 41306 10220 20120 30187 40242 56011 60006 80001 91500=
07747,1996-09-29 18:00:00,18,1024.2,-0.1,77,14,500,3.704,,,120,9.1,23.2,,,,,,,,,wg-a,,,,AAXX 29184 07747 12/00 11202 10180 20140 30186 40242 57001 60006 80001 91800 333 10232 20091=
07747,1996-09-30 00:00:00,12,1023.3,-1,88,10,0,3.704,,,220,,,,,,,,,,,wg-a,,,,AAXX 30004 07747 12/// /2202 10120 20100 30176 40233 57010 60006 90000=
07747,1996-09-30 03:00:00,14,1022.4,-0.9,94,13,15000,3.704,,,360,,,,0,,,,,,,wg-a,,,,AAXX 30034 07747 12165 /3602 10140 20130 30167 40224 58009 60007 86600 90300=
07747,1996-09-30 06:00:00,15,1021.8,-0.5,94,14,7000,7.408,,,320,11.8,17.7,,,,,,,,,wg-a,,,,AAXX 30064 07747 12257 83204 10150 20140 30162 40218 56005 60004 886// 90600 333 10177 20118=
07747,1996-09-30 09:00:00,16,1021.4,-0.4,94,15,1200,3.704,,,360,,,,,,,,,,10,wg-a,,,,AAXX 30094 07747 02012 83602 10160 20150 30158 40214 58004 61000 71052 887// 90900 333 ////=
07747,1996-09-30 12:00:00,17,1019.1,-2.3,94,16,900,14.816,,,50,,,,0,,,,,,50,wg-a,,,,AAXX 30124 07747 02009 80508 10170 20160 30135 40191 58023 60016 75054 887// 91200 333 60007=
07747,1996-09-30 15:00:00,19,1015.3,-3.7,94,18,3000,7.408,,,40,,,,,,,,,,10,wg-a,,,,AAXX 30154 07747 02230 80404 10190 20180 30098 40153 56037 61000 71054 887// 91500 333 ////=
07747,1996-09-30 18:00:00,17,1014.2,-1.1,94,16,3000,11.112,,,260,15,19,,,,,,,,10,wg-a,,,,AAXX 30184 07747 32430 /2606 10170 20160 30087 40142 55011 71054 875// 91800 333 10190 20150=
07747,1996-09-30 21:00:00,17,1013.4,-0.9,94,16,4000,11.112,,,360,,,,,,,,,,10,wg-a,,,,AAXX 30214 07747 12440 53606 10170 20160 30078 40134 58009 60006 71011 82501 92100=
07747,1996-10-01 00:00:00,16,1010.4,-3,94,15,60000,3.704,,,310,,,,,,,,,,,wg-a,,,,AAXX 01004 07747 12/86 33102 10160 20150 30048 40104 58030 60006 80001 90000=
07747,1996-10-01 03:00:00,17,1008.2,-2.1,88,15,10000,7.408,,,240,,,,,,,,,,,wg-a,,,,AAXX 01034 07747 12/60 52404 10170 20150 30027 40082 58021 60006 80001 90300=
07747,1996-10-01 06:00:00,20,1007.3,-0.9,78,16,15000,29.632,,,190,15.8,19.6,,,,,,,,,wg-a,,,,AAXX 01064 07747 02565 31916 10200 20160 30018 40073 55009 60006 81201 90600 333 10196 20158 60004=
07747,1996-10-01 09:00:00,16,1012.1,4.7,68,10,500,25.928,,53.708,320,,,,,,,,,,,wg-a,,,,AAXX 01094 07747 12500 73214 10160 20100 30065 40121 51047 60006 878// 90900 333 91029=
07747,1996-10-01 12:00:00,16,1012.5,0.4,63,9,500,11.112,,,320,,,,1,,,,,,21,wg-a,,,,AAXX 01124 07747 02700 73206 10160 20090 30069 40125 50004 60016 72161 8357/ 91200 333 60017=
07747,1996-10-01 15:00:00,20,1012.9,0.5,46,8,500,31.484,,61.116,310,,,,,,,,,,,wg-a,,,,AAXX 01154 07747 12500 73117 10200 20080 30074 40129 53005 60006 81132 91500 333 91033=
07747,1996-10-01 18:00:00,17,1015.1,2.1,55,8,500,35.188,,,320,14.6,20.2,,,,,,,,,wg-a,,,,AAXX 01184 07747 32600 /3219 10170 20080 30095 40151 53021 81132 91800 333 10202 20146=
07747,1996-10-01 21:00:00,16,1018.4,3.3,59,8,500,22.224,,,340,,,,,,,,,,,wg-a,,,,AAXX 01214 07747 12600 33412 10160 20080 30128 40184 53033 60006 81130 92100=
07747,1996-10-02 00:00:00,15,1018.1,-0.3,55,6,500,22.224,,,330,,,,,,,,,,,wg-a,,,,AAXX 02004 07747 12600 33312 10150 20060 30125 40181 56003 60006 81130 90000=
07747,1996-10-02 03:00:00,14,1017.3,-0.8,63,7,500,14.816,,,320,,,,,,,,,,,wg-a,,,,AAXX 02034 07747 12600 33208 10140 20070 30117 40173 58008 60006 81130 90300=
07747,1996-10-02 06:00:00,15,1016.5,-0.8,55,6,60000,31.484,,,320,13.7,17.2,,,,,1,,,,wg-a,,,,AAXX 02064 07747 02686 33217 10150 20060 30109 40165 55008 60006 81132 90600 333 10172 20137 60014=
07747,1996-10-02 09:00:00,18,1016.4,-0.1,45,6,60000,22.224,,,320,,,,,,,,,,,wg-a,,,,AAXX 02094 07747 12686 33212 10180 20060 30108 40164 58001 60006 81132 90900=
07747,1996-10-02 12:00:00,18,1014.4,,52,8,60000,31.484,,,340,,,,,,,,,,,wg-a,,,,AAXX 02124 07747 12686 73417 10180 20080 30088 40144 60006 91200=
07747,1996-10-02 18:00:00,15,1017.9,2.2,67,9,20000,22.224,,,300,14.3,19.6,,,,,,,,1,wg-a,,,,AAXX 02184 07747 02670 43012 10150 20090 30123 40179 52022 61000 70186 84800 91800 333 10196 20143 ////=
07747,1996-10-02 21:00:00,16,1020.4,2.5,63,9,500,29.632,,48.152,320,,,,,,,,,,,wg-a,,,,AAXX 02214 07747 12600 /3216 10160 20090 30148 40204 51025 60006 81800 92100 333 91026=
07747,1996-10-03 00:00:00,15,1020.5,0.1,67,9,500,35.188,,,330,,,,,,,,,,,wg-a,,,,AAXX 03004 07747 12600 /3319 10150 20090 30149 40205 50001 60006 81800 90000=
07747,1996-10-03 03:00:00,15,1021.9,1.4,67,9,11000,29.632,,55.56,330,,,,,,,,,,,wg-a,,,,AAXX 03034 07747 12661 23316 10150 20090 30163 40219 53014 60006 82800 90300 333 91030=
07747,1996-10-03 06:00:00,15,1023.2,1.2,59,7,60000,35.188,,55.56,330,14.1,15.9,,,,,,,,,wg-a,,,,AAXX 03064 07747 02586 /3319 10150 20070 30175 40232 53012 60006 81800 90600 333 10159 20141 61000 91030=
07747,1996-10-03 09:00:00,17,1024.5,1.4,48,6,60000,35.188,,55.56,330,,,,,,,,,,,wg-a,,,,AAXX 03094 07747 12686 /3319 10170 20060 30189 40245 51014 60006 81840 90900 333 91030=
07747,1996-10-03 12:00:00,20,1024.3,-0.2,37,5,60000,31.484,,50.004,330,,,,,,,,,,,wg-a,,,,AAXX 03124 07747 12686 23317 10200 20050 30187 40243 58002 60006 81102 91200 333 91027=
07747,1996-10-03 15:00:00,21,1023.4,-0.9,35,5,60000,31.484,,,340,,,,,,,,,,,wg-a,,,,AAXX 03154 07747 12686 /3417 10210 20050 30178 40234 56009 60006 81102 91500=
07747,1996-10-03 18:00:00,18,1024.2,0.8,45,6,60000,22.224,,,340,14.6,21.2,,,,,,,,,wg-a,,,,AAXX 03184 07747 12/86 43412 10180 20060 30186 40242 53008 60006 80002 91800 333 10212 20146=
07747,1996-10-03 21:00:00,16,1025.1,0.9,51,6,25000,18.52,,,330,,,,,,,,,,,wg-a,,,,AAXX 03214 07747 12/75 03310 10160 20060 30195 40251 51009 60006 80000 92100=
07747,1996-10-04 00:00:00,16,1024.4,-0.7,55,7,25000,29.632,,,330,,,,,,,,,,,wg-a,,,,AAXX 04004 07747 12/75 13316 10160 20070 30188 40244 58007 60006 80002 90000=
07747,1996-10-04 03:00:00,15,1024,-0.5,55,6,25000,22.224,,,330,,,,,,,,,,,wg-a,,,,AAXX 04034 07747 12/75 13312 10150 20060 30183 40240 58005 60006 80002 90300=
07747,1996-10-04 06:00:00,14,1023,-1,63,7,50000,22.224,,,320,14,17.6,,,,,,,,,wg-a,,,,AAXX 04064 07747 02/84 53212 10140 20070 30173 40230 56010 60006 81034 90600 333 10176 20140 60004=
07747,1996-10-04 09:00:00,19,1022.8,-0.1,46,7,60000,18.52,,,320,,,,,,,,,,,wg-a,,,,AAXX 04094 07747 12/86 23210 10190 20070 30172 40228 56001 60006 81042 90900=
07747,1996-10-04 12:00:00,21,1021,-1.7,43,8,50000,18.52,,,330,,,,,,,,,,,wg-a,,,,AAXX 04124 07747 12684 /3310 10210 20080 30155 40210 58017 60006 81111 91200=
07747,1996-10-04 15:00:00,22,1018.9,-2.1,38,7,50000,22.224,,,340,,,,,,,,,,,wg-a,,,,AAXX 04154 07747 12684 /3412 10220 20070 30134 40189 56021 60006 81141 91500=
07747,1996-10-04 18:00:00,19,1018.4,-0.6,52,9,25000,18.52,,,340,14.4,22.3,,,,,,,,,wg-a,,,,AAXX 04184 07747 12675 43410 10190 20090 30128 40184 55006 60006 81541 91800 333 10223 20144=
07747,1996-10-04 21:00:00,18,1018,-0.4,52,8,25000,18.52,,,300,,,,,,,,,,,wg-a,,,,AAXX 04214 07747 12675 73010 10180 20080 30124 40180 58004 60006 82542 92100=
07747,1996-10-05 00:00:00,17,1017.2,-0.8,59,9,25000,31.484,,50.004,310,,,,,,,,,,,wg-a,,,,AAXX 05004 07747 12675 63117 10170 20090 30116 40172 58008 60006 84542 90000 333 91027=
07747,1996-10-05 03:00:00,16,1015.5,-1.7,68,10,25000,31.484,,42.596,320,,,,,,,,,,,wg-a,,,,AAXX 05034 07747 12575 33217 10160 20100 30099 40155 58017 60006 83800 90300 333 91023=
07747,1996-10-05 06:00:00,14,1016.7,1.2,58,6,500,35.188,,,340,13.7,18.7,,,,,,,,,wg-a,,,,AAXX 05064 07747 02500 33419 10140 20060 30111 40167 53012 60006 81840 90600 333 10187 20137 60004=
07747,1996-10-05 09:00:00,15,1018.1,1.4,59,7,500,22.224,,,330,,,,,,,,,,,wg-a,,,,AAXX 05094 07747 12500 /3312 10150 20070 30125 40181 51014 60006 85840 90900=
07747,1996-10-05 12:00:00,19,1016.5,-1.6,40,5,40000,29.632,,,330,,,,,,,,,,,wg-a,,,,AAXX 05124 07747 12582 53316 10190 20050 30109 40165 58016 60006 83840 91200=
07747,1996-10-05 15:00:00,17,1015.1,-1.4,45,5,40000,35.188,,,330,,,,,,,,,,,wg-a,,,,AAXX 05154 07747 12582 63319 10170 20050 30095 40151 55014 60006 82842 91500=
07747,1996-10-05 18:00:00,15,1016.3,1.2,55,6,500,22.224,,,320,13.7,19.2,,,,,,,,,wg-a,,,,AAXX 05184 07747 12500 53212 10150 20060 30107 40163 53012 60006 82832 91800 333 10192 20137=
07747,1996-10-05 21:00:00,13,1017.2,0.8,58,5,20000,25.928,,,320,,,,,,,,,,,wg-a,,,,AAXX 05214 07747 12570 43214 10130 20050 30115 40172 51008 60006 81102 92100=
07747,1996-10-06 00:00:00,13,1016.2,-1,58,5,20000,29.632,,,330,,,,,,,,,,,wg-a,,,,AAXX 06004 07747 12/70 03316 10130 20050 30105 40162 58010 60006 80000 90000=
07747,1996-10-06 03:00:00,12,1014.8,-1.4,58,4,18000,29.632,,,320,,,,,,,,,,,wg-a,,,,AAXX 06034 07747 12/68 33216 10120 20040 30091 40148 57014 60006 80004 90300=
07747,1996-10-06 06:00:00,11,1014.9,0.1,62,4,25000,35.188,,,330,11.1,14.5,,,,,,,,,wg-a,,,,AAXX 06064 07747 02575 33319 10110 20040 30092 40149 53001 60006 82102 90600 333 10145 20111 60004=
07747,1996-10-06 09:00:00,13,1015.9,1,51,3,25000,38.892,,,320,,,,,,,,,,,wg-a,,,,AAXX 06094 07747 12575 43221 10130 20030 30102 40159 50010 60006 82132 90900=
07747,1996-10-06 12:00:00,14,1015.1,-0.7,47,3,500,42.596,,,330,,,,,,,,,,,wg-a,,,,AAXX 06124 07747 12500 /3323 10140 20030 30095 40151 58007 60006 83132 91200=
07747,1996-10-06 15:00:00,13,1015.4,0.2,54,4,500,38.892,,55.56,330,,,,,,,,,,,wg-a,,,,AAXX 06154 07747 12500 83321 10130 20040 30097 40154 53002 60006 8487/ 91500 333 91030=
07747,1996-10-06 18:00:00,12,1016.6,1.2,62,5,500,31.484,,50.004,330,10.8,14.6,,,,,,,,,wg-a,,,,AAXX 06184 07747 12500 83317 10120 20050 30109 40166 53012 60006 8587/ 91800 333 10146 20108 91027=
07747,1996-10-06 21:00:00,12,1017.3,0.7,67,6,25000,29.632,,50.004,330,,,,,,,,,,,wg-a,,,,AAXX 06214 07747 12475 83316 10120 20060 30116 40173 52007 60006 8587/ 92100 333 91027=
07747,1996-10-07 00:00:00,12,1015,-2.3,62,5,25000,35.188,,,320,,,,,,,,,,,wg-a,,,,AAXX 07004 07747 12475 83219 10120 20050 30093 40150 56023 60006 8587/ 90000=
07747,1996-10-07 03:00:00,12,1012.4,-2.6,58,4,500,46.3,,75.932,320,,,,,,,,,,,wg-a,,,,AAXX 07034 07747 12500 73225 10120 20040 30067 40124 58026 60006 8387/ 90300 333 91041=
07747,1996-10-07 06:00:00,13,1012.9,0.5,54,4,25000,50.004,,85.192,330,11.3,12.7,,,,,,,,,wg-a,,,,AAXX 07064 07747 02575 83327 10130 20040 30072 40129 53005 60006 8587/ 90600 333 10127 20113 60004 91046=
07747,1996-10-07 09:00:00,14,1013,0.2,51,4,500,50.004,,79.636,320,,,,,,,,,,,wg-a,,,,AAXX 07094 07747 12500 73227 10140 20040 30074 40130 50002 60006 83832 90900 333 91043=
07747,1996-10-07 12:00:00,15,1016,3,51,5,40000,35.188,,55.56,330,,,,,,,,,,,wg-a,,,,AAXX 07124 07747 12582 73319 10150 20050 30104 40160 51030 60006 8587/ 91200 333 91030=
07747,1996-10-07 15:00:00,15,1014.1,-1.9,51,5,45000,53.708,,74.08,330,,,,,,,,,,,wg-a,,,,AAXX 07154 07747 12583 73329 10150 20050 30085 40141 55019 60006 8483/ 91500 333 91040=
07747,1996-10-07 18:00:00,15,1016.7,2.6,51,5,500,35.188,,,330,12.6,16.9,,,,,,,,,wg-a,,,,AAXX 07184 07747 12500 83319 10150 20050 30111 40167 53026 60006 888// 91800 333 10169 20126=
07747,1996-10-07 21:00:00,14,1016.8,0.1,55,5,25000,35.188,,55.56,320,,,,,,,,,,,wg-a,,,,AAXX 07214 07747 12575 83219 10140 20050 30112 40168 53001 60006 888// 92100 333 91030=
07747,1996-10-08 00:00:00,14,1016.3,-0.5,58,6,25000,38.892,,61.116,330,,,,,,,,,,,wg-a,,,,AAXX 08004 07747 12775 83321 10140 20060 30107 40163 55005 60006 885// 90000 333 91033=
07747,1996-10-08 03:00:00,14,1015.9,-0.4,58,6,25000,35.188,,,330,,,,,,,,,,,wg-a,,,,AAXX 08034 07747 12575 43319 10140 20060 30103 40159 56004 60006 84100 90300=
07747,1996-10-08 06:00:00,14,1016.5,0.6,55,5,35000,35.188,,57.412,330,13.9,14.6,,,,,,,,,wg-a,,,,AAXX 08064 07747 02681 73319 10140 20050 30109 40165 51006 60006 8314/ 90600 333 10146 20139 60004 91031=
07747,1996-10-08 09:00:00,16,1016.8,0.3,48,5,40000,46.3,,66.672,330,,,,,,,,,,,wg-a,,,,AAXX 08094 07747 12682 73325 10160 20050 30112 40168 53003 60006 81142 90900 333 91036=
07747,1996-10-08 12:00:00,17,1014.9,-1.9,42,4,45000,50.004,,81.488,330,,,,,,,,,,,wg-a,,,,AAXX 08124 07747 12683 73327 10170 20040 30093 40149 56019 60006 81142 91200 333 91044=
07747,1996-10-08 15:00:00,18,1015.4,0.5,42,5,40000,42.596,,72.228,320,,,,,,,,,,,wg-a,,,,AAXX 08154 07747 12682 73223 10180 20050 30098 40154 53005 60006 81142 91500 333 91039=
07747,1996-10-08 18:00:00,17,1017.2,1.8,45,5,25000,38.892,,61.116,330,14.2,17.9,,,,,,,,,wg-a,,,,AAXX 08184 07747 12575 83321 10170 20050 30116 40172 53018 60006 84842 91800 333 10179 20142 91033=
07747,1996-10-08 21:00:00,16,1018.7,1.5,51,6,25000,35.188,,61.116,320,,,,,,,,,,,wg-a,,,,AAXX 08214 07747 12575 43219 10160 20060 30131 40187 53015 60006 84800 92100 333 91033=
07747,1996-10-09 00:00:00,16,1018.3,-0.4,55,7,25000,35.188,,,330,,,,,,,,,,,wg-a,,,,AAXX 09004 07747 12575 23319 10160 20070 30127 40183 57004 60006 82800 90000=
07747,1996-10-09 03:00:00,15,1018.4,0.1,63,8,25000,25.928,,,330,,,,,,,,,,,wg-a,,,,AAXX 09034 07747 12575 43314 10150 20080 30128 40184 53001 60006 84100 90300=
07747,1996-10-09 06:00:00,15,1018.6,0.2,63,8,25000,29.632,,,330,15.1,16.8,,,,,,,,,wg-a,,,,AAXX 09064 07747 02675 23316 10150 20080 30130 40186 53002 60006 82130 90600 333 10168 20151 60004=
07747,1996-10-09 09:00:00,18,1019.8,1.2,49,7,25000,31.484,,44.448,330,,,,,,,,,,,wg-a,,,,AAXX 09094 07747 12675 33317 10180 20070 30142 40198 51012 60006 83200 90900 333 91024=
07747,1996-10-09 12:00:00,19,1018.8,-0.9,46,7,25000,29.632,,55.56,340,,,,,,,,,,,wg-a,,,,AAXX 09124 07747 12675 23416 10190 20070 30133 40188 58009 60006 82101 91200 333 91030=
07747,1996-10-09 15:00:00,19,1018.4,-0.5,46,7,25000,35.188,,50.004,330,,,,,,,,,,,wg-a,,,,AAXX 09154 07747 12675 43319 10190 20070 30128 40184 55005 60006 81842 91500 333 91027=
07747,1996-10-09 18:00:00,17,1019.7,1.3,48,6,25000,22.224,,,320,15.5,20,,,,,,,,,wg-a,,,,AAXX 09184 07747 12675 /3212 10170 20060 30141 40197 53013 60006 81842 91800 333 10200 20155=
07747,1996-10-09 21:00:00,16,1021.3,1.6,59,8,25000,18.52,,,330,,,,,,,,,,,wg-a,,,,AAXX 09214 07747 12675 /3310 10160 20080 30157 40213 53016 60006 81102 92100=
07747,1996-10-10 00:00:00,16,1020.6,-0.7,59,8,25000,22.224,,,330,,,,,,,,,,,wg-a,,,,AAXX 10004 07747 12675 /3312 10160 20080 30150 40206 57007 60006 81100 90000=
07747,1996-10-10 03:00:00,15,1020,-0.6,67,9,25000,14.816,,,300,,,,,,,,,,,wg-a,,,,AAXX 10034 07747 12675 /3008 10150 20090 30144 40200 58006 60006 81100 90300=
07747,1996-10-10 06:00:00,15,1020.2,0.2,63,8,40000,14.816,,,320,14.7,16.5,,,,,,,,,wg-a,,,,AAXX 10064 07747 02682 /3208 10150 20080 30146 40202 53002 60006 81101 90600 333 10165 20147 60004=
07747,1996-10-10 09:00:00,18,1020.7,0.5,52,8,50000,31.484,,,300,,,,,,,,,,,wg-a,,,,AAXX 10094 07747 12684 /3017 10180 20080 30151 40207 50005 60006 81800 90900=
07747,1996-10-10 12:00:00,21,1019.5,-1.1,40,7,50000,31.484,,50.004,320,,,,,,,,,,,wg-a,,,,AAXX 10124 07747 12684 /3217 10210 20070 30140 40195 58011 60006 81800 91200 333 91027=
07747,1996-10-10 15:00:00,21,1018.5,-1,43,8,45000,29.632,,,330,,,,,,,,,,,wg-a,,,,AAXX 10154 07747 12683 23316 10210 20080 30130 40185 56010 60006 82801 91500=
07747,1996-10-10 18:00:00,18,1019.6,1,49,7,25000,22.224,,,320,14.8,21.7,,,,,,,,,wg-a,,,,AAXX 10184 07747 12675 43212 10180 20070 30140 40196 53010 60006 81804 91800 333 10217 20148=
07747,1996-10-10 21:00:00,17,1020.9,1.3,55,8,25000,14.816,,,300,,,,,,,,,,,wg-a,,,,AAXX 10214 07747 12775 /3008 10170 20080 30153 40209 51013 60006 85530 92100=
07747,1996-10-11 00:00:00,16,1020,-0.9,59,8,25000,22.224,,,300,,,,,,,,,,,wg-a,,,,AAXX 11004 07747 12775 63012 10160 20080 30144 40200 58009 60006 8453/ 90000=
07747,1996-10-11 03:00:00,15,1019,-1,63,8,25000,22.224,,,310,,,,,,,,,,,wg-a,,,,AAXX 11034 07747 12/75 13112 10150 20080 30134 40190 56010 60006 81030 90300=
07747,1996-10-11 06:00:00,12,1019.5,0.4,71,7,60000,7.408,,,210,11.8,18,,,,,,,,,wg-a,,,,AAXX 11064 07747 02/86 12104 10120 20070 30138 40195 53004 60006 81040 90600 333 10180 20118 60004=
07747,1996-10-11 09:00:00,19,1020.4,1,49,8,60000,3.704,,,270,,,,,,,,,,,wg-a,,,,AAXX 11094 07747 12786 /2702 10190 20080 30148 40204 51010 60006 81140 90900=
07747,1996-10-11 12:00:00,20,1019.2,-1.1,46,8,25000,14.816,,,70,,,,,,,,,,,wg-a,,,,AAXX 11124 07747 12775 /0708 10200 20080 30137 40192 58011 60006 81100 91200=
07747,1996-10-11 15:00:00,19,1018.1,-1.1,52,9,20000,14.816,,,120,,,,,,,,,,,wg-a,,,,AAXX 11154 07747 12/70 01208 10190 20090 30126 40181 56011 60006 80000 91500=
07747,1996-10-11 18:00:00,15,1018.5,0.3,72,10,12000,3.704,,,110,11.8,20.4,,,,,,,,,wg-a,,,,AAXX 11184 07747 12/62 41102 10150 20100 30129 40185 53003 60006 80004 91800 333 10204 20118=
07747,1996-10-11 21:00:00,13,1018.7,0.1,82,10,9000,7.408,,,340,,,,,,,,,,,wg-a,,,,AAXX 11214 07747 12/59 /3404 10130 20100 30130 40187 51001 60006 80001 92100=
07747,1996-10-12 00:00:00,9,1018.1,-0.6,87,7,9000,3.704,,,300,,,,,,,,,,,wg-a,,,,AAXX 12004 07747 12/59 03002 10090 20070 30124 40181 58006 60006 80000 90000=
07747,1996-10-12 03:00:00,8,1017.4,-0.8,93,7,9000,7.408,,,260,,,,,,,,,,,wg-a,,,,AAXX 12034 07747 12459 /2604 10080 20070 30116 40174 58008 60006 81600 90300=
07747,1996-10-12 06:00:00,8,1017.1,-0.3,93,7,500,3.704,,,280,7.4,15,,,,,,,,,wg-a,,,,AAXX 12064 07747 02200 22802 10080 20070 30113 40171 55003 60006 82600 90600 333 10150 20074 60004=
07747,1996-10-12 09:00:00,16,1018,1.1,77,12,500,3.704,,,50,,,,,,,,,,,wg-a,,,,AAXX 12094 07747 12200 /0502 10160 20120 30124 40180 51011 60006 81600 90900=
07747,1996-10-12 12:00:00,20,1016.2,-1.7,64,13,11000,31.484,,,130,,,,,,,,,,,wg-a,,,,AAXX 12124 07747 12361 41317 10200 20130 30107 40162 58017 60006 84600 91200=
07747,1996-10-12 15:00:00,18,1014.6,-1.6,64,11,10000,31.484,,,130,,,,,,,,,,,wg-a,,,,AAXX 12154 07747 12460 31317 10180 20110 30091 40146 56016 60006 83600 91500=
07747,1996-10-12 18:00:00,16,1014.5,-0.2,82,13,8000,18.52,,,130,7.6,20.7,,,,,,,,,wg-a,,,,AAXX 12184 07747 12/58 01310 10160 20130 30089 40145 55002 60006 80000 91800 333 10207 20076=
07747,1996-10-12 21:00:00,16,1014.4,-0.1,77,12,8000,14.816,,,140,,,,,,,,,,,wg-a,,,,AAXX 12214 07747 12/58 01408 10160 20120 30088 40144 55001 60006 80000 92100=
07747,1996-10-13 00:00:00,15,1013.7,-0.7,88,13,12000,18.52,,,140,,,,,,,,,,,wg-a,,,,AAXX 13004 07747 12562 71410 10150 20130 30081 40137 58007 60006 82570 90000=
07747,1996-10-13 03:00:00,16,1012.1,-1.6,77,12,12000,18.52,,,150,,,,,,,,,,,wg-a,,,,AAXX 13034 07747 12562 /1510 10160 20120 30065 40121 58016 60006 81130 90300=
07747,1996-10-13 06:00:00,16,1011.5,-0.6,94,15,10000,22.224,,,170,14.9,16.3,,,,,,,,,wg-a,,,,AAXX 13064 07747 02260 /1712 10160 20150 30059 40115 56006 60006 83202 90600 333 10163 20149 60004=
07747,1996-10-13 09:00:00,18,1011.3,-0.1,83,15,10000,14.816,,,160,,,,,,,,,,3,wg-a,,,,AAXX 13094 07747 02260 71608 10180 20150 30058 40113 58001 61000 70386 8327/ 90900 333 ////=
07747,1996-10-13 12:00:00,17,1009.9,-1.4,88,15,9000,25.928,,,140,,,,,,,,,,3,wg-a,,,,AAXX 13124 07747 02359 71414 10170 20150 30044 40099 58014 61000 70386 8587/ 91200 333 ////=
07747,1996-10-13 15:00:00,17,1009.3,-0.6,94,16,9000,29.632,,,140,,,,1,,,,,,80,wg-a,,,,AAXX 13154 07747 12359 81416 10170 20160 30038 40093 55006 60017 78086 8687/ 91500=
07747,1996-10-13 18:00:00,17,1008.8,-0.5,94,16,8000,22.224,,,140,15.7,18.1,,0,,,,,,3,wg-a,,,,AAXX 13184 07747 12358 81412 10170 20160 30033 40088 55005 60007 70386 888// 91800 333 10181 20157=
07747,1996-10-13 21:00:00,16,1007.8,-1,94,15,500,22.224,,,150,,,,5,,,,,,61,wg-a,,,,AAXX 13214 07747 12300 81512 10160 20150 30023 40078 56010 60057 76162 888// 92100=
07747,1996-10-14 00:00:00,16,1006.8,-1,94,15,500,22.224,,,150,,,,4,,,,,,61,wg-a,,,,AAXX 14004 07747 02300 81512 10160 20150 30013 40068 55010 60106 76162 888// 90000 333 60047=
07747,1996-10-14 03:00:00,16,1005.1,-1.7,94,15,10000,18.52,,,140,,,,,,,,,,2,wg-a,,,,AAXX 14034 07747 02360 71410 10160 20150 39996 40051 57017 61000 70262 8487/ 90300 333 ////=
07747,1996-10-14 06:00:00,16,1004.8,-0.3,94,15,6000,25.928,,,130,15.8,16.6,,,,,11,,,3,wg-a,,,,AAXX 14064 07747 12256 81314 10160 20150 39993 40048 56003 60114 70362 867// 90600 333 10166 20158=
07747,1996-10-14 09:00:00,17,1005.5,0.7,94,16,4000,22.224,,,140,,,,1,,,,,,60,wg-a,,,,AAXX 14094 07747 12040 81412 10170 20160 30000 40055 50007 60017 76062 877// 90900=
07747,1996-10-14 12:00:00,17,1005,-0.5,94,16,3000,29.632,,,140,,,,2,,,,,,61,wg-a,,,,AAXX 14124 07747 02030 81416 10170 20160 39995 40050 58005 60036 76162 887// 91200 333 60027=
07747,1996-10-14 15:00:00,17,1005.6,0.6,88,15,9000,18.52,,,150,,,,14,,,,,,60,wg-a,,,,AAXX 14154 07747 12359 81510 10170 20150 30001 40056 53006 60147 76062 877// 91500=
07747,1996-10-14 18:00:00,17,1007.2,1.6,94,16,4000,11.112,,,190,15.8,17.9,,,,,,,,,wg-a,,,,AAXX 14184 07747 32/40 /1906 10170 20160 30017 40072 50016 91800 333 10179 20158=
07747,1996-10-14 21:00:00,16,1007.3,0.1,94,15,3500,3.704,,,290,,,,45,,,,,,63,wg-a,,,,AAXX 14214 07747 12235 82902 10160 20150 30018 40073 53001 60457 76366 887// 92100=
07747,1996-10-15 00:00:00,14,1007.1,-0.3,88,12,10000,22.224,,,320,,,,18,,,,,,61,wg-a,,,,AAXX 15004 07747 02460 83212 10140 20120 30015 40071 58003 60636 76166 8/87/ 90000 333 60187=
07747,1996-10-15 03:00:00,15,1005.9,-1.2,82,12,11000,29.632,,,310,,,,,,,,,,,wg-a,,,,AAXX 15034 07747 32/61 /3116 10150 20120 30003 40059 58012 90300=
07747,1996-10-15 06:00:00,15,1008.2,2.3,77,11,10000,22.224,,,310,13.6,16.6,,,,,91,,,3,wg-a,,,,AAXX 15064 07747 02560 83112 10150 20110 30026 40082 51023 60914 70386 878// 90600 333 10166 20136 61000=
07747,1996-10-15 09:00:00,16,1009.8,1.6,72,11,500,29.632,,55.56,330,,,,0,,,,,,1,wg-a,,,,AAXX 15094 07747 12500 73316 10160 20110 30042 40098 53016 60007 70162 878// 90900 333 91030=
07747,1996-10-15 12:00:00,17,1009.6,-0.1,59,9,40000,29.632,,48.152,330,,,,,,,,,,1,wg-a,,,,AAXX 15124 07747 12682 73316 10170 20090 30041 40096 58001 60006 70162 84832 91200 333 91026=
07747,1996-10-15 15:00:00,17,1009.9,0.3,59,9,40000,35.188,,55.56,320,,,,,,,,,,,wg-a,,,,AAXX 15154 07747 12682 73219 10170 20090 30044 40099 53003 60006 82872 91500 333 91030=
07747,1996-10-15 18:00:00,16,1011.5,1.5,59,8,25000,25.928,,,320,14.2,17.6,,,,,,,,,wg-a,,,,AAXX 15184 07747 32575 73214 10160 20080 30059 40115 51015 8387/ 91800 333 10176 20142=
07747,1996-10-15 21:00:00,16,1011.3,-0.2,59,8,25000,31.484,,50.004,310,,,,,,,,,,,wg-a,,,,AAXX 15214 07747 12675 43117 10160 20080 30057 40113 58002 60006 82130 92100 333 91027=
07747,1996-10-16 00:00:00,14,1011.2,-0.1,77,10,25000,35.188,,57.412,300,,,,,,,,,,,wg-a,,,,AAXX 16004 07747 12675 53019 10140 20100 30056 40112 56001 60006 83130 90000 333 91031=
07747,1996-10-16 06:00:00,13,1011.8,0,62,6,500,35.188,,57.412,320,12.8,15.8,,,,,,,,,wg-a,,,,AAXX 16064 07747 02500 23219 10130 20060 30062 40118 50000 60006 81102 90600 333 10158 20128 60004 91031=
07747,1996-10-16 09:00:00,15,1012.7,0.9,55,6,40000,42.596,,66.672,320,,,,,,,,,,,wg-a,,,,AAXX 16094 07747 12682 33223 10150 20060 30071 40127 50009 60006 83102 90900 333 91036=
07747,1996-10-16 12:00:00,17,1011.6,-1.1,45,5,40000,38.892,,59.264,330,,,,,,,,,,,wg-a,,,,AAXX 16124 07747 12682 33321 10170 20050 30060 40116 57011 60006 83202 91200 333 91032=
07747,1996-10-16 15:00:00,16,1011.6,-0,55,7,40000,22.224,,,340,,,,,,,,,,,wg-a,,,,AAXX 16154 07747 12682 43412 10160 20070 30060 40116 55000 60006 83801 91500=
07747,1996-10-16 18:00:00,15,1012.3,0.7,55,6,500,25.928,,,320,12.8,17.3,,,,,,,,,wg-a,,,,AAXX 16184 07747 12600 /3214 10150 20060 30067 40123 53007 60006 81800 91800 333 10173 20128=
07747,1996-10-16 21:00:00,14,1013,0.7,63,7,20000,31.484,,,310,,,,,,,,,,,wg-a,,,,AAXX 16214 07747 12670 23117 10140 20070 30074 40130 51007 60006 82800 92100=
07747,1996-10-17 00:00:00,13,1013.3,0.3,72,8,20000,18.52,,,310,,,,,,,,,,,wg-a,,,,AAXX 17004 07747 12670 /3110 10130 20080 30077 40133 51003 60006 81800 90000=
07747,1996-10-17 03:00:00,13,1012.7,-0.6,72,8,20000,18.52,,,310,,,,,,,,,,,wg-a,,,,AAXX 17034 07747 12670 /3110 10130 20080 30071 40127 58006 60006 81100 90300=
07747,1996-10-17 06:00:00,8,1012.4,-0.4,87,6,0,7.408,,,220,8.2,15,,,,,,,,,wg-a,,,,AAXX 17064 07747 02/// /2204 10080 20060 30067 40124 58004 60006 90600 333 10150 20082 60004=
07747,1996-10-17 12:00:00,20,1011.5,-1,43,7,0,18.52,,,320,,,,,,,,,,,wg-a,,,,AAXX 17124 07747 12/// /3210 10200 20070 30060 40115 58010 60006 91200=
07747,1996-10-17 18:00:00,16,1013,1.1,59,8,0,3.704,,,350,8.2,20.2,,,,,,,,,wg-a,,,,AAXX 17184 07747 12/// /3502 10160 20080 30074 40130 53011 60006 91800 333 10202 20082=
07747,1996-10-18 00:00:00,10,1014.2,0,87,8,0,3.704,,,200,,,,,,,,,,,wg-a,,,,AAXX 18004 07747 12/// /2002 10100 20080 30085 40142 50000 60006 90000=
07747,1996-10-18 06:00:00,7,1015.4,0.8,93,6,25000,3.704,,,270,6.4,16.2,,,,,,,,,wg-a,,,,AAXX 18064 07747 02575 /2702 10070 20060 30096 40154 51008 60006 81100 90600 333 10162 20064 60004=
07747,1996-10-18 09:00:00,14,1017,1.8,77,10,35000,0,,,0,,,,,,,,,,,wg-a,,,,AAXX 18094 07747 12581 /0000 10140 20100 30114 40170 51018 60006 85800 90900=
07747,1996-10-18 12:00:00,18,1016.8,-0.2,64,11,25000,7.408,,,30,,,,,,,,,,,wg-a,,,,AAXX 18124 07747 12575 /0304 10180 20110 30112 40168 58002 60006 85800 91200=
07747,1996-10-18 15:00:00,23,1016.4,-0.3,47,11,25000,29.632,,,340,,,,,,,,,,,wg-a,,,,AAXX 18154 07747 12575 43416 10230 20110 30109 40164 55003 60006 84800 91500=
07747,1996-10-18 18:00:00,17,1018.6,2.1,72,12,25000,7.408,,,140,6.7,23.1,,,,,,,,,wg-a,,,,AAXX 18184 07747 12575 41404 10170 20120 30130 40186 53021 60006 84800 91800 333 10231 20067=
07747,1996-10-18 21:00:00,15,1019.9,1.3,82,12,25000,11.112,,,230,,,,,,,,,,,wg-a,,,,AAXX 18214 07747 12575 32306 10150 20120 30143 40199 52013 60006 83800 92100=
07747,1996-10-19 00:00:00,15,1020.7,0.8,82,12,25000,7.408,,,290,,,,,,,,,,,wg-a,,,,AAXX 19004 07747 12575 42904 10150 20120 30151 40207 51008 60006 84800 90000=
07747,1996-10-19 03:00:00,17,1021.2,0.5,72,12,25000,3.704,,,310,,,,,,,,,,,wg-a,,,,AAXX 19034 07747 12575 43102 10170 20120 30156 40212 52005 60006 84800 90300=
07747,1996-10-19 06:00:00,17,1022.4,1.2,68,11,25000,18.52,,,350,14.5,18.1,,,,,,,,,wg-a,,,,AAXX 19064 07747 02575 63510 10170 20110 30168 40224 50012 60006 84840 90600 333 10181 20145 60004=
07747,1996-10-19 09:00:00,19,1023.9,1.5,60,11,35000,25.928,,,310,,,,,,,,,,,wg-a,,,,AAXX 19094 07747 12581 73114 10190 20110 30183 40239 51015 60006 82802 90900=
07747,1996-10-19 12:00:00,20,1024.3,0.4,53,10,500,29.632,,,330,,,,,,,,,,,wg-a,,,,AAXX 19124 07747 12600 73316 10200 20100 30187 40243 51004 60006 81142 91200=
07747,1996-10-19 15:00:00,21,1024.3,0.1,49,10,40000,29.632,,,330,,,,,,,,,,,wg-a,,,,AAXX 19154 07747 12682 23316 10210 20100 30188 40243 53001 60006 81802 91500=
07747,1996-10-19 18:00:00,19,1026,1.6,56,10,35000,18.52,,,320,16.2,21.7,,,,,,,,,wg-a,,,,AAXX 19184 07747 12681 /3210 10190 20100 30204 40260 51016 60006 81101 91800 333 10217 20162=
07747,1996-10-20 00:00:00,15,1027.7,-0.1,72,10,25000,7.408,,,40,,,,,,,,,,,wg-a,,,,AAXX 20004 07747 12/75 00404 10150 20100 30220 40277 58001 60006 80000 90000=
07747,1996-10-20 06:00:00,12,1025.7,-0.9,82,9,50000,11.112,,,270,11.9,18.9,,,,,,,,,wg-a,,,,AAXX 20064 07747 02/84 32706 10120 20090 30200 40257 58009 60006 81032 90600 333 10189 20119 60004=
07747,1996-10-20 12:00:00,24,1025.2,-0.9,34,7,60000,7.408,,,150,,,,,,,,,,,wg-a,,,,AAXX 20124 07747 12686 21504 10240 20070 30197 40252 58009 60006 81131 91200=
07747,1996-10-20 15:00:00,24,1024,-1.2,41,10,60000,11.112,,,140,,,,,,,,,,,wg-a,,,,AAXX 20154 07747 12686 /1406 10240 20100 30185 40240 56012 60006 81131 91500=
07747,1996-10-20 18:00:00,18,1024.9,0.8,59,10,40000,7.408,,,280,12.3,24.6,,,,,,,,,wg-a,,,,AAXX 20184 07747 12682 /2804 10180 20100 30193 40249 53008 60006 81132 91800 333 10246 20123=
07747,1996-10-20 21:00:00,16,1025,0.1,63,9,25000,3.704,,,220,,,,,,,,,,,wg-a,,,,AAXX 20214 07747 12/75 32202 10160 20090 30194 40250 50001 60006 82032 92100=
07747,1996-10-21 00:00:00,17,1024.6,-0.4,55,8,25000,7.408,,,210,,,,,,,,,,,wg-a,,,,AAXX 21004 07747 12/75 12104 10170 20080 30190 40246 56004 60006 81032 90000=
07747,1996-10-21 03:00:00,19,1023.4,-1.2,56,10,25000,18.52,,,300,,,,,,,,,,,wg-a,,,,AAXX 21034 07747 12/75 23010 10190 20100 30178 40234 56012 60006 81032 90300=
07747,1996-10-21 06:00:00,17,1023.9,0.5,63,10,40000,11.112,,,300,13.9,19.3,,,,,,,,,wg-a,,,,AAXX 21064 07747 02/82 13006 10170 20100 30183 40239 52005 60006 81032 90600 333 10193 20139 60004=
07747,1996-10-21 09:00:00,23,1024.1,0.3,50,12,50000,11.112,,,330,,,,,,,,,,,wg-a,,,,AAXX 21094 07747 12684 /3306 10230 20120 30186 40241 50003 60006 81132 90900=
07747,1996-10-21 12:00:00,24,1022.5,-1.6,47,12,45000,25.928,,,340,,,,,,,,,,,wg-a,,,,AAXX 21124 07747 12683 23414 10240 20120 30170 40225 57016 60006 81842 91200=
07747,1996-10-21 15:00:00,25,1021.1,-1.3,47,13,35000,18.52,,,330,,,,,,,,,,,wg-a,,,,AAXX 21154 07747 12681 /3310 10250 20130 30157 40211 56013 60006 81842 91500=
07747,1996-10-21 18:00:00,21,1022.3,1.1,60,13,500,11.112,,,310,16.8,25.3,,,,,,,,,wg-a,,,,AAXX 21184 07747 12/00 13106 10210 20130 30168 40223 53011 60006 80001 91800 333 10253 20168=
07747,1996-10-21 21:00:00,21,1022.3,0,64,14,500,25.928,,,320,,,,,,,,,,,wg-a,,,,AAXX 21214 07747 12/00 03214 10210 20140 30168 40223 50000 60006 80000 92100=
07747,1996-10-22 00:00:00,19,1021.3,-1.1,73,14,500,18.52,,,310,,,,,,,,,,,wg-a,,,,AAXX 22004 07747 12/00 03110 10190 20140 30157 40213 58011 60006 80000 90000=
07747,1996-10-22 03:00:00,18,1020.3,-1,77,14,500,11.112,,,280,,,,,,,,,,,wg-a,,,,AAXX 22034 07747 12/00 02806 10180 20140 30147 40203 58010 60006 80000 90300=
07747,1996-10-22 06:00:00,17,1019.9,-0.4,77,13,50000,14.816,,,280,17.2,21.2,,,,,,,,,wg-a,,,,AAXX 22064 07747 02/84 12808 10170 20130 30143 40199 55004 60006 80002 90600 333 10212 20172 60004=
07747,1996-10-22 09:00:00,23,1019.8,0,53,13,10000,18.52,,,350,,,,,,,,,,,wg-a,,,,AAXX 22094 07747 12/60 /3510 10230 20130 30143 40198 50000 60006 90900=
07747,1996-10-22 12:00:00,27,1018,-1.7,37,11,60000,3.704,,,350,,,,,,,,,,,wg-a,,,,AAXX 22124 07747 12/86 13502 10270 20110 30126 40180 58017 60006 80001 91200=
07747,1996-10-22 15:00:00,27,1016.9,-1.1,23,4,50000,11.112,,,150,,,,,,,,,,,wg-a,,,,AAXX 22154 07747 12/84 11506 10270 20040 30115 40169 56011 60006 80001 91500=
07747,1996-10-22 18:00:00,19,1017.6,0.6,68,13,15000,7.408,,,360,16.4,28.5,,,,,,,,,wg-a,,,,AAXX 22184 07747 12/65 13604 10190 20130 30121 40176 53006 60006 80002 91800 333 10285 20164=
07747,1996-10-22 21:00:00,16,1019,1.3,63,9,15000,7.408,,,10,,,,,,,,,,,wg-a,,,,AAXX 22214 07747 12/65 00104 10160 20090 30134 40190 51013 60006 80000 92100=
07747,1996-10-23 00:00:00,14,1019.4,0.3,82,11,15000,0,,,0,,,,,,,,,,,wg-a,,,,AAXX 23004 07747 12/65 00000 10140 20110 30137 40194 51003 60006 80000 90000=
07747,1996-10-23 03:00:00,11,1019.7,0.3,87,9,15000,11.112,,,250,,,,,,,,,,,wg-a,,,,AAXX 23034 07747 12/65 02506 10110 20090 30140 40197 52003 60006 80000 90300=
07747,1996-10-23 06:00:00,10,1020.5,0.8,87,8,25000,3.704,,,220,10.1,19.3,,,,,,,,,wg-a,,,,AAXX 23064 07747 02575 /2202 10100 20080 30148 40205 53008 60006 81801 90600 333 10193 20101 60004=
07747,1996-10-23 12:00:00,19,1020.7,-0.6,68,13,60000,11.112,,,80,,,,,,,,,,,wg-a,,,,AAXX 23124 07747 12586 20806 10190 20130 30151 40207 58006 60006 81101 91200=
07747,1996-10-23 15:00:00,18,1020.6,-0.1,73,13,10000,14.816,,,110,,,,,,,,,,,wg-a,,,,AAXX 23154 07747 12460 41108 10180 20130 30150 40206 55001 60006 83101 91500=
07747,1996-10-23 18:00:00,16,1021.8,1.2,82,13,8000,3.704,,,140,9.7,19.2,,,,,,,,,wg-a,,,,AAXX 23184 07747 12458 71402 10160 20130 30162 40218 53012 60006 875// 91800 333 10192 20097=
07747,1996-10-23 21:00:00,16,1022.6,0.8,82,13,8000,3.704,,,40,,,,,,,,,,,wg-a,,,,AAXX 23214 07747 12458 70402 10160 20130 30170 40226 53008 60006 875// 92100=
07747,1996-10-24 00:00:00,16,1023.2,0.6,82,13,9000,3.704,,,30,,,,,,,,,,,wg-a,,,,AAXX 24004 07747 12459 70302 10160 20130 30176 40232 52006 60006 875// 90000=
07747,1996-10-24 03:00:00,16,1023.3,0.1,82,13,10000,0,,,0,,,,,,,,,,,wg-a,,,,AAXX 24034 07747 12560 70000 10160 20130 30177 40233 50001 60006 875// 90300=
07747,1996-10-24 06:00:00,16,1023.2,-0.1,82,13,8000,0,,,0,15.4,16,,,,,,,,,wg-a,,,,AAXX 24064 07747 02/58 /0000 10160 20130 30176 40232 58001 60006 90600 333 10160 20154 60004=
07747,1996-10-24 09:00:00,17,1023.9,0.7,82,14,8000,7.408,,,120,,,,,,,,,,,wg-a,,,,AAXX 24094 07747 12458 81204 10170 20140 30183 40239 51007 60006 885// 90900=
07747,1996-10-24 12:00:00,17,1022.4,-1.5,72,12,15000,14.816,,,140,,,,,,,,,,,wg-a,,,,AAXX 24124 07747 12565 81408 10170 20120 30168 40224 58015 60006 885// 91200=
07747,1996-10-24 15:00:00,17,1021.3,-1.1,77,13,15000,18.52,,,120,,,,,,,,,,,wg-a,,,,AAXX 24154 07747 12465 81210 10170 20130 30157 40213 56011 60006 885// 91500=
07747,1996-10-24 18:00:00,16,1021.7,0.4,88,14,9000,7.408,,,110,15.5,17.5,,,,,,,,,wg-a,,,,AAXX 24184 07747 12559 81104 10160 20140 30161 40217 53004 60006 885// 91800 333 10175 20155=
07747,1996-10-24 21:00:00,16,1022,0.3,94,15,6000,3.704,,,350,,,,,,,,,,,wg-a,,,,AAXX 24214 07747 12456 83502 10160 20150 30164 40220 53003 60006 885// 92100=
07747,1996-10-25 00:00:00,16,1022.6,0.6,94,15,500,3.704,,,340,,,,,,,,,,,wg-a,,,,AAXX 25004 07747 12600 73402 10160 20150 30170 40226 51006 60006 875// 90000=
07747,1996-10-25 03:00:00,14,1022.9,0.2,94,13,500,3.704,,,280,,,,,,,,,,,wg-a,,,,AAXX 25034 07747 12600 72802 10140 20130 30172 40229 50002 60006 875// 90300=
07747,1996-10-25 06:00:00,14,1023.6,0.7,94,13,500,3.704,,,250,12.7,16.4,,,,,,,,,wg-a,,,,AAXX 25064 07747 02400 72502 10140 20130 30179 40236 53007 60006 875// 90600 333 10164 20127 60004=
07747,1996-10-25 09:00:00,18,1024.5,1,77,14,9000,3.704,,,350,,,,,,,,,,,wg-a,,,,AAXX 25094 07747 12459 73502 10180 20140 30189 40245 51010 60006 81802 90900=
07747,1996-10-25 12:00:00,21,1023.6,-0.8,64,14,15000,3.704,,,10,,,,,,,,,,,wg-a,,,,AAXX 25124 07747 12565 50102 10210 20140 30181 40236 58008 60006 82201 91200=
07747,1996-10-25 18:00:00,16,1024.4,0.9,94,15,6000,3.704,,,220,13.9,21.4,,,,,,,,,wg-a,,,,AAXX 25184 07747 12456 72202 10160 20150 30188 40244 53009 60006 82632 91800 333 10214 20139=
07747,1996-10-26 00:00:00,17,1025.6,-0.1,77,13,12000,11.112,,,290,,,,,,,,,,1,wg-a,,,,AAXX 26004 07747 12562 /2906 10170 20130 30200 40256 57001 60016 70161 81500 90000=
07747,1996-10-26 06:00:00,16,1026.2,0.4,82,13,25000,11.112,,,270,15,18,,,,,1,,,,wg-a,,,,AAXX 26064 07747 12775 52706 10160 20130 30206 40262 50004 60014 83532 90600 333 10180 20150=
07747,1996-10-26 12:00:00,21,1026.7,-0.9,53,11,20000,3.704,,,320,,,,,,,,,,,wg-a,,,,AAXX 26124 07747 12570 73202 10210 20110 30211 40267 58009 60006 878// 91200=
07747,1996-10-26 15:00:00,21,1025.4,-1.2,53,11,25000,7.408,,,340,,,,,,,,,,,wg-a,,,,AAXX 26154 07747 12575 73404 10210 20110 30199 40254 56012 60006 878// 91500=
07747,1996-10-26 18:00:00,17,1026.6,1.1,68,11,25000,7.408,,,320,14.8,22,,,,,,,,,wg-a,,,,AAXX 26184 07747 12575 73204 10170 20110 30210 40266 53011 60006 8484/ 91800 333 10220 20148=
07747,1996-10-26 21:00:00,17,1026.6,-0,59,9,25000,7.408,,,330,,,,,,,,,,,wg-a,,,,AAXX 26214 07747 12775 73304 10170 20090 30210 40266 54000 60006 8254/ 92100=
07747,1996-10-27 00:00:00,15,1026.2,-0.5,72,10,25000,11.112,,,280,,,,,,,,,,,wg-a,,,,AAXX 27004 07747 12675 72806 10150 20100 30205 40262 58005 60006 8554/ 90000=
07747,1996-10-27 03:00:00,13,1025.3,-0.9,88,11,25000,7.408,,,250,,,,,,,,,,,wg-a,,,,AAXX 27034 07747 12775 72504 10130 20110 30196 40253 58009 60006 82542 90300=
07747,1996-10-27 06:00:00,13,1025.4,0.1,88,11,25000,3.704,,,220,13.1,17.2,,,,,,,,,wg-a,,,,AAXX 27064 07747 02775 72202 10130 20110 30197 40254 52001 60006 8354/ 90600 333 10172 20131 60004=
07747,1996-10-27 09:00:00,16,1026.4,1,72,11,18000,7.408,,,20,,,,,,,,,,,wg-a,,,,AAXX 27094 07747 12768 70204 10160 20110 30207 40264 51010 60006 81572 90900=
07747,1996-10-27 12:00:00,18,1025.5,-0.8,68,12,18000,14.816,,,100,,,,,,,,,,,wg-a,,,,AAXX 27124 07747 12568 71008 10180 20120 30199 40255 58008 60006 878// 91200=
07747,1996-10-27 15:00:00,18,1024.5,-1,68,12,12000,11.112,,,100,,,,,,,,,,,wg-a,,,,AAXX 27154 07747 12562 71006 10180 20120 30189 40245 56010 60006 878// 91500=
07747,1996-10-27 18:00:00,16,1024.3,-0.2,88,14,9000,7.408,,,30,12.8,18.9,,,,,,,,,wg-a,,,,AAXX 27184 07747 12459 80304 10160 20140 30187 40243 56002 60006 875// 91800 333 10189 20128=
07747,1996-10-27 21:00:00,16,1023.7,-0.6,88,14,500,3.704,,,30,,,,,,,,,,,wg-a,,,,AAXX 27214 07747 12400 80302 10160 20140 30181 40237 58006 60006 885// 92100=
07747,1996-10-28 00:00:00,15,1022.7,-1,94,14,500,3.704,,,10,,,,,,,,,,,wg-a,,,,AAXX 28004 07747 12400 80102 10150 20140 30171 40227 58010 60006 885// 90000=
07747,1996-10-28 03:00:00,16,1021.5,-1.2,88,14,500,7.408,,,260,,,,,,,,,,,wg-a,,,,AAXX 28034 07747 12300 82604 10160 20140 30159 40215 58012 60006 876// 90300=
07747,1996-10-28 06:00:00,14,1021.3,-0.3,82,11,500,7.408,,,260,13.6,16.4,,,,,,,,,wg-a,,,,AAXX 28064 07747 02400 82604 10140 20110 30156 40213 58003 60006 876// 90600 333 10164 20136 60004=
07747,1996-10-28 09:00:00,17,1021.3,0.1,77,13,6000,0,,,0,,,,,,,,,,,wg-a,,,,AAXX 28094 07747 12556 20000 10170 20130 30157 40213 50001 60006 82502 90900=
07747,1996-10-28 12:00:00,20,1019.7,-1.5,68,14,6000,7.408,,,40,,,,,,,,,,,wg-a,,,,AAXX 28124 07747 12556 40404 10200 20140 30142 40197 58015 60006 83102 91200=
07747,1996-10-28 15:00:00,18,1019,-0.8,83,15,500,7.408,,,100,,,,,,,,,,,wg-a,,,,AAXX 28154 07747 12500 /1004 10180 20150 30134 40190 56008 60006 81104 91500=
07747,1996-10-28 18:00:00,15,1019.5,0.5,88,13,4000,3.704,,,170,13.7,20.2,,,,,,,,10,wg-a,,,,AAXX 28184 07747 12/40 /1702 10150 20130 30139 40195 53005 60006 71011 81032 91800 333 10202 20137=
07747,1996-10-28 21:00:00,13,1018.8,-0.8,94,12,4000,7.408,,,260,,,,,,,,,,10,wg-a,,,,AAXX 28214 07747 12/40 52604 10130 20120 30131 40188 56008 60006 71011 83032 92100=
07747,1996-10-29 00:00:00,12,1017.2,-1.6,88,10,500,11.112,,,210,,,,,,,,,,,wg-a,,,,AAXX 29004 07747 12/00 /2106 10120 20100 30115 40172 58016 60006 81034 90000=
07747,1996-10-29 06:00:00,18,1016.9,-0.5,73,13,15000,11.112,,,310,11.4,17.6,,,,,,,,,wg-a,,,,AAXX 29064 07747 02565 73106 10180 20130 30113 40169 58005 60006 81172 90600 333 10176 20114 60004=
07747,1996-10-29 09:00:00,17,1018.9,2,68,11,500,29.632,,,340,,,,,,,,,,,wg-a,,,,AAXX 29094 07747 12500 73416 10170 20110 30133 40189 51020 60006 8387/ 90900=
07747,1996-10-29 12:00:00,17,1018.6,-0.3,55,8,500,46.3,,72.228,320,,,,,,,,,,,wg-a,,,,AAXX 29124 07747 12500 73225 10170 20080 30130 40186 58003 60006 8487/ 91200 333 91039=
07747,1996-10-29 15:00:00,18,1018.7,0.1,49,7,500,38.892,,,330,,,,,,,,,,,wg-a,,,,AAXX 29154 07747 12500 /3321 10180 20070 30131 40187 53001 60006 82842 91500=
07747,1996-10-29 18:00:00,16,1021.7,3,55,7,500,35.188,,,330,16.1,18.7,,,,,,,,,wg-a,,,,AAXX 29184 07747 12500 /3319 10160 20070 30161 40217 53030 60006 81801 91800 333 10187 20161=
07747,1996-10-30 00:00:00,14,1025.4,1.5,63,7,0,25.928,,,340,,,,,,,,,,,wg-a,,,,AAXX 30004 07747 12/// /3414 10140 20070 30197 40254 52015 60006 90000=
07747,1996-10-30 03:00:00,13,1025.9,0.5,58,5,25000,22.224,,,330,,,,,,,,,,,wg-a,,,,AAXX 30034 07747 12775 33312 10130 20050 30202 40259 53005 60006 83500 90300=
07747,1996-10-30 06:00:00,12,1026.9,1,58,4,60000,35.188,,,320,11.9,16.1,,,,,,,,,wg-a,,,,AAXX 30064 07747 02686 /3219 10120 20040 30212 40269 53010 60006 81500 90600 333 10161 20119 60004=
07747,1996-10-30 09:00:00,15,1027.4,0.5,44,3,60000,31.484,,,330,,,,,,,,,,,wg-a,,,,AAXX 30094 07747 12686 /3317 10150 20030 30217 40274 50005 60006 81100 90900=
07747,1996-10-30 12:00:00,17,1025.6,-1.7,42,4,60000,38.892,,55.56,330,,,,,,,,,,,wg-a,,,,AAXX 30124 07747 12686 /3321 10170 20040 30200 40256 58017 60006 81102 91200 333 91030=
07747,1996-10-30 15:00:00,17,1025.2,-0.4,42,4,50000,35.188,,,330,,,,,,,,,,,wg-a,,,,AAXX 30154 07747 12/84 13319 10170 20040 30196 40252 56004 60006 80002 91500=
07747,1996-10-30 18:00:00,14,1026.8,1.5,55,5,40000,7.408,,,40,12,17.7,,,,,,,,,wg-a,,,,AAXX 30184 07747 12/82 10404 10140 20050 30211 40268 53015 60006 80002 91800 333 10177 20120=
07747,1996-10-30 21:00:00,13,1027.2,0.4,58,5,40000,14.816,,,310,,,,,,,,,,,wg-a,,,,AAXX 30214 07747 12/82 03108 10130 20050 30215 40272 53004 60006 80000 92100=
07747,1996-10-31 00:00:00,8,1026.6,-0.7,71,3,40000,14.816,,,280,,,,,,,,,,,wg-a,,,,AAXX 31004 07747 12/82 02808 10080 20030 30208 40266 56007 60006 80000 90000=
07747,1996-10-31 03:00:00,5,1027,0.3,81,2,40000,11.112,,,260,,,,,,,,,,,wg-a,,,,AAXX 31034 07747 12/82 02606 10050 20020 30211 40270 53003 60006 80000 90300=
07747,1996-10-31 06:00:00,3,1027.4,0.4,87,1,40000,7.408,,,270,2.9,14.3,,,,,,,,,wg-a,,,,AAXX 31064 07747 02/82 12704 10030 20010 30215 40274 51004 60006 80001 90600 333 10143 20029 60004=
07747,1996-10-31 09:00:00,12,1027.7,0.5,58,4,60000,3.704,,,30,,,,,,,,,,,wg-a,,,,AAXX 31094 07747 12/86 10302 10120 20040 30220 40277 51005 60006 80001 90900=
07747,1996-10-31 12:00:00,17,1027.4,-0.2,45,5,60000,3.704,,,80,,,,,,,,,,,wg-a,,,,AAXX 31124 07747 12/86 10802 10170 20050 30218 40274 58002 60006 80001 91200=
07747,1996-10-31 15:00:00,18,1026.1,-1.3,59,10,25000,7.408,,,120,,,,,,,,,,,wg-a,,,,AAXX 31154 07747 12/75 11204 10180 20100 30205 40261 55013 60006 80001 91500=
07747,1996-10-31 18:00:00,12,1027,0.8,82,9,15000,7.408,,,220,2.8,18.9,,,,,,,,,wg-a,,,,AAXX 31184 07747 12/65 32204 10120 20090 30213 40270 52008 60006 80001 91800 333 10189 20028=
07747,1996-10-31 21:00:00,16,1028.2,1.2,42,3,15000,7.408,,,290,,,,,,,,,,,wg-a,,,,AAXX 31214 07747 12/65 02904 10160 20030 30225 40282 53012 60006 80000 92100=
07747,1996-11-01 00:00:00,16,1028.2,0,36,1,25000,7.408,,,270,,,,,,,,,,,wg-a,,,,AAXX 01004 07747 12675 /2704 10160 20010 30225 40282 50000 60006 81100 90000=
07747,1996-11-01 03:00:00,15,1028,-0.2,51,5,25000,11.112,,,170,,,,,,,,,,,wg-a,,,,AAXX 01034 07747 12/75 11706 10150 20050 30223 40280 55002 60006 81040 90300=
07747,1996-11-01 06:00:00,16,1029.3,1.3,72,11,40000,11.112,,,320,10.8,17.1,,,,,,,,,wg-a,,,,AAXX 01064 07747 02582 43206 10160 20110 30236 40293 53013 60006 82141 90600 333 10171 20108 60004=
07747,1996-11-01 09:00:00,19,1029.9,0.7,64,12,40000,25.928,,,300,,,,,,,,,,,wg-a,,,,AAXX 01094 07747 12582 53014 10190 20120 30243 40299 51007 60006 84841 90900=
07747,1996-11-01 12:00:00,20,1028.5,-1.4,56,11,40000,46.3,,66.672,330,,,,,,,,,,,wg-a,,,,AAXX 01124 07747 12682 /3325 10200 20110 30229 40285 58014 60006 81101 91200 333 91036=
07747,1996-11-01 15:00:00,19,1028.4,-0.1,56,10,40000,35.188,,,320,,,,,,,,,,,wg-a,,,,AAXX 01154 07747 12682 73219 10190 20100 30228 40284 58001 60006 81102 91500=
07747,1996-11-01 18:00:00,17,1029.4,1,63,10,25000,25.928,,44.448,340,15.7,20,,,,,,,,,wg-a,,,,AAXX 01184 07747 12575 23414 10170 20100 30238 40294 53010 60006 81802 91800 333 10200 20157 91024=
07747,1996-11-01 21:00:00,17,1028.9,-0.5,63,10,25000,29.632,,53.708,330,,,,,,,,,,,wg-a,,,,AAXX 01214 07747 12575 /3316 10170 20100 30233 40289 58005 60006 81800 92100 333 91029=
07747,1996-11-02 00:00:00,16,1028.8,-0.2,68,10,25000,7.408,,,270,,,,,,,,,,,wg-a,,,,AAXX 02004 07747 12575 12704 10160 20100 30231 40288 56002 60006 81801 90000=
07747,1996-11-02 03:00:00,16,1027.8,-1,68,10,25000,11.112,,,280,,,,,,,,,,,wg-a,,,,AAXX 02034 07747 12/75 02806 10160 20100 30221 40278 56010 60006 80000 90300=
07747,1996-11-02 06:00:00,15,1028,0.2,72,10,25000,18.52,,,280,15.3,17.6,,,,,,,,,wg-a,,,,AAXX 02064 07747 02575 /2810 10150 20100 30223 40280 50002 60006 81101 90600 333 10176 20153 60004=
07747,1996-11-02 09:00:00,19,1028.9,1,60,11,60000,3.704,,,90,,,,,,,,,,,wg-a,,,,AAXX 02094 07747 12/86 10902 10190 20110 30233 40289 51010 60006 80001 90900=
07747,1996-11-02 12:00:00,21,1027.9,-1,53,11,60000,11.112,,,130,,,,,,,,,,,wg-a,,,,AAXX 02124 07747 12/86 11306 10210 20110 30223 40279 58010 60006 80001 91200=
07747,1996-11-02 15:00:00,20,1027.1,-0.8,60,12,60000,7.408,,,130,,,,,,,,,,,wg-a,,,,AAXX 02154 07747 12/86 01304 10200 20120 30215 40271 56008 60006 80000 91500=
07747,1996-11-02 18:00:00,14,1028,0.8,82,11,25000,7.408,,,250,13.6,21.6,,,,,,,,,wg-a,,,,AAXX 02184 07747 12/75 02504 10140 20110 30223 40280 53008 60006 80000 91800 333 10216 20136=
07747,1996-11-02 21:00:00,12,1028.3,0.3,88,10,15000,7.408,,,350,,,,,,,,,,,wg-a,,,,AAXX 02214 07747 12/65 03504 10120 20100 30226 40283 53003 60006 80000 92100=
07747,1996-11-03 00:00:00,9,1028.2,-0.2,93,8,15000,3.704,,,240,,,,,,,,,,,wg-a,,,,AAXX 03004 07747 12/65 02402 10090 20080 30224 40282 58002 60006 80000 90000=
07747,1996-11-03 03:00:00,7,1027.9,-0.3,100,7,15000,7.408,,,240,,,,,,,,,,,wg-a,,,,AAXX 03034 07747 12265 /2404 10070 20070 30221 40279 58003 60006 81600 90300=
07747,1996-11-03 06:00:00,8,1028.1,0.2,93,7,12000,0,,,0,7.3,13.6,,,,,,,,,wg-a,,,,AAXX 03064 07747 02262 /0000 10080 20070 30223 40281 53002 60006 86600 90600 333 10136 20073 60004=
07747,1996-11-03 09:00:00,14,1029,1,88,12,10000,7.408,,,240,,,,,,,,,,,wg-a,,,,AAXX 03094 07747 12460 42404 10140 20120 30233 40290 50010 60006 84601 90900=
07747,1996-11-03 12:00:00,19,1027.5,-1.4,68,13,15000,7.408,,,130,,,,,,,,,,,wg-a,,,,AAXX 03124 07747 12465 /1304 10190 20130 30219 40275 58014 60006 81101 91200=
07747,1996-11-03 15:00:00,18,1026.2,-1.3,77,14,15000,11.112,,,140,,,,,,,,,,,wg-a,,,,AAXX 03154 07747 12/65 11406 10180 20140 30206 40262 56013 60006 80001 91500=
07747,1996-11-03 18:00:00,13,1026.3,-0,94,12,8000,3.704,,,280,7.4,19.2,,,,,,,,,wg-a,,,,AAXX 03184 07747 12458 32802 10130 20120 30206 40263 55000 60006 81601 91800 333 10192 20074=
07747,1996-11-03 21:00:00,10,1025.8,-0.6,100,10,4000,7.408,,,10,,,,,,,,,,10,wg-a,,,,AAXX 03214 07747 12440 30104 10100 20100 30200 40258 58006 60006 71000 83600 92100=
07747,1996-11-04 00:00:00,13,1024.6,-1.1,100,13,3000,3.704,,,330,,,,,,,,,,10,wg-a,,,,AAXX 04004 07747 12230 83302 10130 20130 30189 40246 56011 60006 71011 886// 90000=
07747,1996-11-04 03:00:00,14,1023.3,-1.3,94,13,3000,18.52,,,30,,,,,,,,,,10,wg-a,,,,AAXX 04034 07747 12230 80310 10140 20130 30176 40233 58013 60006 71022 886// 90300=
07747,1996-11-04 06:00:00,14,1022.7,-0.6,88,12,500,7.408,,,320,9.8,13.9,,,,,,,,,wg-a,,,,AAXX 04064 07747 02300 83204 10140 20120 30170 40227 56006 60006 876// 90600 333 10139 20098 60004=
07747,1996-11-04 09:00:00,15,1022.4,-0.3,88,13,6000,3.704,,,280,,,,,,,,,,,wg-a,,,,AAXX 04094 07747 12356 82802 10150 20130 30167 40224 58003 60006 886// 90900=
07747,1996-11-04 12:00:00,16,1020.5,-1.8,88,14,7000,3.704,,,70,,,,,,,,,,,wg-a,,,,AAXX 04124 07747 12457 80702 10160 20140 30149 40205 58018 60006 886// 91200=
07747,1996-11-04 15:00:00,16,1018,-2.5,82,13,8000,11.112,,,70,,,,,,,,,,,wg-a,,,,AAXX 04154 07747 12458 70706 10160 20130 30124 40180 56025 60006 876// 91500=
07747,1996-11-04 18:00:00,16,1016.3,-1.7,88,14,6000,7.408,,,80,13.7,16.7,,,,,,,,,wg-a,,,,AAXX 04184 07747 12456 80804 10160 20140 30107 40163 58017 60006 885// 91800 333 10167 20137=
07747,1996-11-04 21:00:00,14,1014.2,-2.1,94,13,6000,11.112,,,10,,,,,,,,,,,wg-a,,,,AAXX 04214 07747 12556 70106 10140 20130 30086 40142 56021 60006 8557/ 92100=
07747,1996-11-05 00:00:00,13,1013.6,-0.6,94,12,7000,7.408,,,190,,,,,,,,,,,wg-a,,,,AAXX 05004 07747 12557 71904 10130 20120 30080 40136 56006 60006 8557/ 90000=
07747,1996-11-05 03:00:00,15,1014.3,0.7,82,12,10000,7.408,,,310,,,,,,,,,,,wg-a,,,,AAXX 05034 07747 12560 73104 10150 20120 30087 40143 53007 60006 8557/ 90300=
07747,1996-11-05 06:00:00,14,1016.9,2.6,72,9,20000,18.52,,,320,12.3,15.8,,,,,,,,21,wg-a,,,,AAXX 05064 07747 02570 73210 10140 20090 30113 40169 51026 61000 72162 8587/ 90600 333 10158 20123 6100=
07747,1996-11-05 09:00:00,15,1019.8,2.9,63,8,40000,22.224,,,330,,,,,,,,,,,wg-a,,,,AAXX 05094 07747 12682 73312 10150 20080 30142 40198 53029 60006 82170 90900=
07747,1996-11-05 12:00:00,16,1020.6,0.8,51,6,15000,25.928,,,330,,,,,,,,,,,wg-a,,,,AAXX 05124 07747 12665 53314 10160 20060 30150 40206 50008 60006 83230 91200=
07747,1996-11-05 15:00:00,17,1020.4,-0.2,48,6,40000,31.484,,51.856,330,,,,,,,,,,,wg-a,,,,AAXX 05154 07747 12682 23317 10170 20060 30148 40204 55002 60006 82800 91500 333 91028=
07747,1996-11-05 18:00:00,15,1023,2.5,55,6,35000,18.52,,,340,13.8,17.9,,,,,,,,,wg-a,,,,AAXX 05184 07747 12681 /3410 10150 20060 30173 40230 51025 60006 81100 91800 333 10179 20138=
07747,1996-11-05 21:00:00,14,1025.2,2.2,63,7,25000,14.816,,,320,,,,,,,,,,,wg-a,,,,AAXX 05214 07747 12675 23208 10140 20070 30195 40252 53022 60006 82100 92100=
07747,1996-11-06 00:00:00,14,1024.7,-0.5,63,7,25000,14.816,,,320,,,,,,,,,,,wg-a,,,,AAXX 06004 07747 12675 13208 10140 20070 30190 40247 58005 60006 81800 90000=
07747,1996-11-06 03:00:00,13,1024.3,-0.4,62,6,25000,29.632,,46.3,320,,,,,,,,,,,wg-a,,,,AAXX 06034 07747 12675 /3216 10130 20060 30186 40243 58004 60006 81100 90300 333 91025=
07747,1996-11-06 06:00:00,13,1024.5,0.2,62,6,25000,22.224,,,320,11.4,15,,,,,,,,,wg-a,,,,AAXX 06064 07747 02675 /3212 10130 20060 30188 40245 50002 60006 81100 90600 333 10150 20114 60004=
07747,1996-11-06 09:00:00,16,1026.2,1.7,51,6,60000,7.408,,,260,,,,,,,,,,,wg-a,,,,AAXX 06094 07747 12686 /2604 10160 20060 30205 40262 51017 60006 81100 90900=
07747,1996-11-06 12:00:00,19,1024.4,-1.7,43,6,60000,11.112,,,350,,,,,,,,,,,wg-a,,,,AAXX 06124 07747 12686 /3506 10190 20060 30188 40244 58017 60006 81100 91200=
07747,1996-11-06 15:00:00,20,1024.2,-0.2,37,5,40000,3.704,,,330,,,,,,,,,,,wg-a,,,,AAXX 06154 07747 12682 53302 10200 20050 30186 40242 56002 60006 81842 91500=
07747,1996-11-06 18:00:00,16,1025.1,0.9,55,7,25000,3.704,,,300,12.4,19.7,,,,,,,,,wg-a,,,,AAXX 06184 07747 12775 43002 10160 20070 30195 40251 53009 60006 81540 91800 333 10197 20124=
07747,1996-11-06 21:00:00,10,1025.8,0.5,82,7,18000,11.112,,,250,,,,,,,,,,,wg-a,,,,AAXX 06214 07747 12/68 02506 10100 20070 30200 40258 53005 60006 80000 92100=
07747,1996-11-07 00:00:00,9,1025.2,-0.6,81,6,18000,7.408,,,240,,,,,,,,,,,wg-a,,,,AAXX 07004 07747 12/68 02404 10090 20060 30194 40252 58006 60006 80000 90000=
07747,1996-11-07 03:00:00,8,1024,-1.2,87,6,20000,11.112,,,250,,,,,,,,,,,wg-a,,,,AAXX 07034 07747 12/70 02506 10080 20060 30182 40240 56012 60006 80000 90300=
07747,1996-11-07 06:00:00,7,1023.4,-0.6,87,5,40000,11.112,,,270,7,16.3,,,,,,,,,wg-a,,,,AAXX 07064 07747 02/82 12706 10070 20050 30176 40234 56006 60006 81030 90600 333 10163 20070 60004=
07747,1996-11-07 09:00:00,17,1024,0.8,52,7,60000,7.408,,,260,,,,,,,,,,,wg-a,,,,AAXX 07094 07747 12/86 12604 10170 20070 30184 40240 51008 60006 80002 90900=
07747,1996-11-07 12:00:00,21,1022.5,-1.4,46,9,60000,22.224,,38.892,330,,,,,,,,,,,wg-a,,,,AAXX 07124 07747 12786 /3312 10210 20090 30170 40225 58014 60006 81100 91200 333 91021=
07747,1996-11-07 15:00:00,22,1022,-0.5,41,8,500,25.928,,,330,,,,,,,,,,,wg-a,,,,AAXX 07154 07747 12600 /3314 10220 20080 30165 40220 56005 60006 81100 91500=
07747,1996-11-07 18:00:00,19,1023.1,1,52,9,25000,14.816,,,340,7.4,22,,,,,,,,,wg-a,,,,AAXX 07184 07747 12675 /3408 10190 20090 30175 40231 53010 60006 81100 91800 333 10220 20074=
07747,1996-11-07 21:00:00,17,1023.7,0.6,68,11,25000,38.892,,57.412,340,,,,,,,,,,,wg-a,,,,AAXX 07214 07747 12675 /3421 10170 20110 30181 40237 51006 60006 81140 92100 333 91031=
07747,1996-11-08 00:00:00,16,1026.3,2.5,68,10,25000,25.928,,,330,,,,,,,,,,,wg-a,,,,AAXX 08004 07747 12675 23314 10160 20100 30206 40263 53025 60006 82540 90000=
07747,1996-11-08 03:00:00,14,1027.2,0.9,72,9,25000,18.52,,,330,,,,,,,,,,,wg-a,,,,AAXX 08034 07747 12675 43310 10140 20090 30215 40272 50009 60006 82540 90300=
07747,1996-11-08 06:00:00,13,1028.1,0.9,77,9,500,7.408,,,320,12.5,19.5,,,,,,,,,wg-a,,,,AAXX 08064 07747 02500 43204 10130 20090 30224 40281 51009 60006 82840 90600 333 10195 20125 60004=
07747,1996-11-08 09:00:00,16,1029.6,1.5,63,9,25000,14.816,,,330,,,,,,,,,,,wg-a,,,,AAXX 08094 07747 12575 23308 10160 20090 30239 40296 52015 60006 82840 90900=
07747,1996-11-08 12:00:00,18,1028.9,-0.6,52,8,25000,14.816,,,330,,,,,,,,,,,wg-a,,,,AAXX 08124 07747 12575 33308 10180 20080 30233 40289 58006 60006 83840 91200=
07747,1996-11-08 15:00:00,16,1029,-0,59,8,25000,14.816,,,340,,,,,,,,,,,wg-a,,,,AAXX 08154 07747 12575 73408 10160 20080 30233 40290 55000 60006 878// 91500=
07747,1996-11-08 18:00:00,15,1030,1,59,7,25000,11.112,,,340,11.5,18.5,,,,,,,,,wg-a,,,,AAXX 08184 07747 12675 73406 10150 20070 30243 40300 51010 60006 875// 91800 333 10185 20115=
07747,1996-11-08 21:00:00,15,1030.9,0.9,63,8,25000,3.704,,,40,,,,,,,,,,,wg-a,,,,AAXX 08214 07747 12675 70402 10150 20080 30252 40309 53009 60006 875// 92100=
07747,1996-11-09 00:00:00,13,1030.9,0,77,9,25000,3.704,,,290,,,,,,,,,,,wg-a,,,,AAXX 09004 07747 12675 72902 10130 20090 30252 40309 50000 60006 875// 90000=
07747,1996-11-09 03:00:00,14,1030.3,-0.6,63,7,25000,11.112,,,310,,,,,,,,,,,wg-a,,,,AAXX 09034 07747 12675 73106 10140 20070 30246 40303 58006 60006 875// 90300=
07747,1996-11-09 06:00:00,12,1030.6,0.2,71,7,500,3.704,,,290,12,15.1,,,,,,,,,wg-a,,,,AAXX 09064 07747 02600 62902 10120 20070 30248 40306 53002 60006 86530 90600 333 10151 20120 60004=
07747,1996-11-09 09:00:00,14,1030.7,0.2,63,7,25000,3.704,,,270,,,,,,,,,,,wg-a,,,,AAXX 09094 07747 12775 72702 10140 20070 30250 40307 50002 60006 82532 90900=
07747,1996-11-09 12:00:00,17,1028.6,-2,48,6,20000,3.704,,,110,,,,,,,,,,,wg-a,,,,AAXX 09124 07747 12570 71102 10170 20060 30230 40286 58020 60006 82832 91200=
07747,1996-11-09 15:00:00,15,1027.7,-1,59,7,20000,11.112,,,110,,,,,,,,,,,wg-a,,,,AAXX 09154 07747 12570 71106 10150 20070 30220 40277 56010 60006 83832 91500=
07747,1996-11-09 18:00:00,12,1027,-0.7,71,7,20000,7.408,,,10,10.7,17.6,,,,,,,,,wg-a,,,,AAXX 09184 07747 12570 80104 10120 20070 30213 40270 57007 60006 8583/ 91800 333 10176 20107=
07747,1996-11-09 21:00:00,13,1025.8,-1.2,67,7,20000,7.408,,,350,,,,,,,,,,,wg-a,,,,AAXX 09214 07747 12570 83504 10130 20070 30201 40258 58012 60006 875// 92100=
07747,1996-11-10 00:00:00,13,1024.1,-1.7,77,9,20000,3.704,,,330,,,,,,,,,,,wg-a,,,,AAXX 10004 07747 12570 83302 10130 20090 30184 40241 58017 60006 875// 90000=
07747,1996-11-10 03:00:00,13,1021.5,-2.6,82,10,20000,14.816,,,30,,,,,,,,,,,wg-a,,,,AAXX 10034 07747 12570 80308 10130 20100 30158 40215 57026 60006 875// 90300=
07747,1996-11-10 06:00:00,13,1019.6,-1.9,82,10,20000,14.816,,,20,12.2,13.2,,,,,,,,,wg-a,,,,AAXX 10064 07747 02470 70208 10130 20100 30139 40196 58019 60006 875// 90600 333 10132 20122 60004=
07747,1996-11-10 09:00:00,14,1018.8,-0.8,77,10,20000,0,,,0,,,,,,,,,,,wg-a,,,,AAXX 10094 07747 12470 70000 10140 20100 30131 40188 58008 60006 875// 90900=
07747,1996-11-10 12:00:00,15,1015.2,-3.5,72,10,20000,11.112,,,40,,,,,,,,,,,wg-a,,,,AAXX 10124 07747 12470 70406 10150 20100 30096 40152 58035 60006 84502 91200=
07747,1996-11-10 15:00:00,15,1012.2,-3,72,10,15000,3.704,,,20,,,,,,,,,,,wg-a,,,,AAXX 10154 07747 12465 70202 10150 20100 30066 40122 56030 60006 82572 91500=
07747,1996-11-10 18:00:00,12,1010.3,-1.9,88,10,15000,7.408,,,290,11.6,14.7,,,,,,,,,wg-a,,,,AAXX 10184 07747 12/65 /2904 10120 20100 30047 40103 56019 60006 83071 91800 333 10147 20116=
07747,1996-11-10 21:00:00,11,1007.8,-2.6,87,9,12000,3.704,,,150,,,,,,,,,,,wg-a,,,,AAXX 10214 07747 12562 71502 10110 20090 30021 40078 58026 60006 81572 92100=
07747,1996-11-11 00:00:00,17,1004.6,-3,59,9,15000,29.632,,,170,,,,,,,,,,,wg-a,,,,AAXX 11004 07747 12565 61716 10170 20090 39991 40046 56030 60006 81572 90000=
07747,1996-11-11 06:00:00,17,997.8,-3.7,59,9,500,22.224,,,160,10.3,17.3,,,,,,,,,wg-a,,,,AAXX 11064 07747 02500 71612 10170 20090 39923 49978 56037 60006 81572 90600 333 10173 20103 60004=
07747,1996-11-11 09:00:00,19,995.5,-2.2,52,9,500,22.224,,,160,,,,,,,,,,,wg-a,,,,AAXX 11094 07747 12500 71612 10190 20090 39901 49955 56022 60006 82272 90900=
07747,1996-11-11 12:00:00,17,994.2,-1.4,72,12,20000,50.004,,85.192,210,,,,,,,,,,,wg-a,,,,AAXX 11124 07747 12570 72127 10170 20120 39887 49942 55014 60006 86842 91200 333 91046=
07747,1996-11-11 15:00:00,17,991,-3.1,72,12,12000,61.116,,81.488,190,,,,0,,,,,,3,wg-a,,,,AAXX 11154 07747 12462 71933 10170 20120 39856 49910 56031 60007 70362 84972 91500 333 91044=
07747,1996-11-11 18:00:00,16,994.5,3.4,68,10,15000,14.816,,,170,14.5,19.7,,,,,,,,3,wg-a,,,,AAXX 11184 07747 32465 71708 10160 20100 39890 49945 50034 70362 8597/ 91800 333 10197 20145=
07747,1996-11-12 00:00:00,17,992.1,-3.1,59,9,15000,46.3,,62.968,210,,,,,,,,,,,wg-a,,,,AAXX 12004 07747 12565 72125 10170 20090 39867 49921 56031 60006 8597/ 90000 333 91034=
07747,1996-11-12 03:00:00,17,992.9,0.7,59,9,15000,35.188,,61.116,210,,,,,,,,,,,wg-a,,,,AAXX 12034 07747 12765 72119 10170 20090 39874 49929 51007 60006 875// 90300 333 91033=
07747,1996-11-12 06:00:00,15,994.3,1.4,77,11,15000,42.596,,64.82,210,14.8,17.1,,,,,,,,,wg-a,,,,AAXX 12064 07747 02765 32123 10150 20110 39888 49943 53014 60006 83300 90600 333 10171 20148 60004 91035=
07747,1996-11-12 09:00:00,19,995.9,1.7,73,14,15000,31.484,,,230,,,,,,,,,,,wg-a,,,,AAXX 12094 07747 12565 /2317 10190 20140 39905 49959 53017 60006 85832 90900=
07747,1996-11-12 12:00:00,19,995.7,-0.2,78,15,10000,35.188,,,210,,,,,,,,,,,wg-a,,,,AAXX 12124 07747 12560 72119 10190 20150 39903 49957 58002 60006 8687/ 91200=
07747,1996-11-12 15:00:00,20,996.4,0.7,73,15,15000,35.188,,,190,,,,,,,,,,,wg-a,,,,AAXX 12154 07747 12465 71919 10200 20150 39910 49964 53007 60006 8587/ 91500=
07747,1996-11-12 18:00:00,15,999.4,2.9,82,12,9000,7.408,,,290,14.8,20.6,,0,,,,,,60,wg-a,,,,AAXX 12184 07747 12459 82904 10150 20120 39939 49994 51029 60007 76062 888// 91800 333 10206 20148=
07747,1996-11-12 21:00:00,13,1000.9,1.4,94,12,12000,7.408,,,270,,,,1,,,,,,60,wg-a,,,,AAXX 12214 07747 12462 82704 10130 20120 39953 40009 53014 60017 76066 888// 92100=
07747,1996-11-13 00:00:00,13,1003.1,2.2,88,11,12000,14.816,,,300,,,,2,,,,,,21,wg-a,,,,AAXX 13004 07747 02462 83008 10130 20110 39975 40031 51022 60036 72162 888// 90000 333 60027=
07747,1996-11-13 03:00:00,12,1004.7,1.6,76,8,12000,18.52,,,310,,,,,,,,,,,wg-a,,,,AAXX 13034 07747 12462 73110 10120 20080 39991 40047 51016 60006 878// 90300=
07747,1996-11-13 06:00:00,13,1006.7,2,67,7,15000,14.816,,,310,11.8,14.8,,,,,3,,,,wg-a,,,,AAXX 13064 07747 12465 73108 10130 20070 30011 40067 51020 60034 878// 90600 333 10148 20118=
07747,1996-11-13 09:00:00,14,1009,2.3,63,7,20000,11.112,,,300,,,,,,,,,,,wg-a,,,,AAXX 13094 07747 12670 73006 10140 20070 30034 40090 52023 60006 86502 90900=
07747,1996-11-13 12:00:00,16,1008.3,-0.6,55,7,25000,22.224,,,330,,,,,,,,,,,wg-a,,,,AAXX 13124 07747 12575 73312 10160 20070 30028 40083 58006 60006 86802 91200=
07747,1996-11-13 15:00:00,14,1009,0.6,63,7,20000,11.112,,,340,,,,,,,,,,60,wg-a,,,,AAXX 13154 07747 02570 83406 10140 20070 30034 40090 50006 61000 76062 878// 91500 333 ////=
07747,1996-11-13 18:00:00,14,1010.3,1.3,58,6,20000,18.52,,,310,12.3,16.5,,,,,,,,2,wg-a,,,,AAXX 13184 07747 02670 83110 10140 20060 30047 40103 53013 61000 70262 878// 91800 333 10165 20123 ////=
07747,1996-11-13 21:00:00,12,1011.9,1.5,82,9,20000,11.112,,,320,,,,1,,,,,,60,wg-a,,,,AAXX 13214 07747 12670 83206 10120 20090 30062 40119 52015 60017 76062 8/87/ 92100=
07747,1996-11-14 00:00:00,11,1012.3,0.4,87,9,10000,7.408,,,310,,,,4,,,,,,61,wg-a,,,,AAXX 14004 07747 02560 83104 10110 20090 30066 40123 50004 60056 76162 8587/ 90000 333 60047=
07747,1996-11-14 03:00:00,11,1012,-0.3,82,8,20000,22.224,,,320,,,,0,,,,,,21,wg-a,,,,AAXX 14034 07747 12570 83212 10110 20080 30063 40120 58003 60007 72162 8587/ 90300=
07747,1996-11-14 06:00:00,11,1012.6,0.6,76,7,500,14.816,,,310,10.6,13.5,,,,,5,,,1,wg-a,,,,AAXX 14064 07747 12700 53108 10110 20070 30069 40126 53006 60054 70162 81542 90600 333 10135 20106=
07747,1996-11-14 09:00:00,12,1013.6,1,71,7,40000,18.52,,,320,,,,,,,,,,,wg-a,,,,AAXX 14094 07747 12582 73210 10120 20070 30079 40136 51010 60006 8584/ 90900=
07747,1996-11-14 12:00:00,12,1013.5,-0.1,71,7,25000,18.52,,,330,,,,,,,,,,,wg-a,,,,AAXX 14124 07747 12575 73310 10120 20070 30078 40135 58001 60006 8587/ 91200=
07747,1996-11-14 15:00:00,11,1013.3,-0.2,71,6,25000,14.816,,,300,,,,,,,,,,,wg-a,,,,AAXX 14154 07747 12575 73008 10110 20060 30076 40133 58002 60006 878// 91500=
07747,1996-11-14 18:00:00,10,1014.3,1,71,5,15000,18.52,,,320,9.8,12.9,,,,,,,,,wg-a,,,,AAXX 14184 07747 12565 83210 10100 20050 30086 40143 51010 60006 878// 91800 333 10129 20098=
07747,1996-11-14 21:00:00,9,1015,0.7,71,4,20000,14.816,,,300,,,,,,,,,,,wg-a,,,,AAXX 14214 07747 12570 83008 10090 20040 30093 40150 51007 60006 878// 92100=
07747,1996-11-15 00:00:00,9,1015,-0,66,3,20000,7.408,,,300,,,,,,,,,,,wg-a,,,,AAXX 15004 07747 12570 83004 10090 20030 30093 40150 55000 60006 878// 90000=
07747,1996-11-15 03:00:00,7,1015,-0.1,76,3,20000,14.816,,,290,,,,,,,,,,,wg-a,,,,AAXX 15034 07747 12570 82908 10070 20030 30092 40150 58001 60006 878// 90300=
07747,1996-11-15 06:00:00,7,1015.1,0.1,66,1,20000,11.112,,,300,6.8,10,,,,,,,,,wg-a,,,,AAXX 15064 07747 02570 83006 10070 20010 30093 40151 53001 60006 878// 90600 333 10100 20068 60004=
07747,1996-11-15 09:00:00,7,1016.7,1.6,66,1,20000,11.112,,,300,,,,,,,,,,21,wg-a,,,,AAXX 15094 07747 02570 83006 10070 20010 30109 40167 51016 61000 72162 888// 90900 333 ////=
07747,1996-11-15 12:00:00,9,1015.9,-0.7,61,2,20000,7.408,,,280,,,,0,,,,,,3,wg-a,,,,AAXX 15124 07747 02670 72804 10090 20020 30102 40159 58007 60006 70362 8487/ 91200 333 60007=
07747,1996-11-15 15:00:00,8,1016.6,0.6,57,0,20000,7.408,,,50,,,,,,,,,,,wg-a,,,,AAXX 15154 07747 12570 80504 10080 20000 30108 40166 53006 60006 8487/ 91500=
07747,1996-11-15 18:00:00,7,1017.7,1.1,70,2,20000,11.112,,,310,6.6,9.1,,,,,,,,,wg-a,,,,AAXX 15184 07747 32670 83106 10070 20020 30119 40177 53011 878// 91800 333 10091 20066=
07747,1996-11-15 20:00:00,7,1017.7,1.1,70,2,20000,11.112,,,310,6.6,9.1,,,,,,,,,wg-a,,,,AAXX 15204 07747 32670 83106 10070 20020 30119 40177 53011 878// 92000 333 10091 20066=
07747,1996-11-15 21:00:00,7,1018.3,0.6,70,2,20000,14.816,,,300,,,,,,,,,,,wg-a,,,,AAXX 15214 07747 12570 83008 10070 20020 30125 40183 51006 60006 8687/ 92100=
07747,1996-11-16 09:00:00,8,1019.1,0.6,57,0,500,18.52,,,310,,,,,,,,,,,wg-a,,,,AAXX 16094 07747 12600 73110 10080 20000 30133 40191 50006 60006 8587/ 90900=
07747,1996-11-16 12:00:00,10,1016.7,-2.3,53,1,500,14.816,,,320,,,,,,,,,,,wg-a,,,,AAXX 16124 07747 12600 73208 10100 20010 30110 40167 58023 60006 8587/ 91200=
07747,1996-11-16 15:00:00,9,1015.7,-1,66,3,15000,18.52,,,300,,,,,,,,,,,wg-a,,,,AAXX 16154 07747 12565 83010 10090 20030 30100 40157 56010 60006 878// 91500=
07747,1996-11-16 18:00:00,7,1015,-0.8,87,5,500,29.632,,,300,6.1,10.5,,3,,,,,,61,wg-a,,,,AAXX 16184 07747 12400 83016 10070 20050 30092 40150 58008 60037 76162 888// 91800 333 10105 20061=
07747,1996-11-16 21:00:00,6,1014.8,-0.2,87,4,6000,25.928,,,310,,,,4,,,,,,61,wg-a,,,,AAXX 16214 07747 12556 83114 10060 20040 30090 40148 57002 60047 76166 888// 92100=
07747,1996-11-17 00:00:00,6,1013.4,-1.4,87,4,10000,18.52,,,320,,,,3,,,,,,60,wg-a,,,,AAXX 17004 07747 02560 83210 10060 20040 30076 40134 58014 60076 76066 888// 90000 333 60037=
07747,1996-11-17 03:00:00,6,1011.2,-2.2,81,3,10000,22.224,,,330,,,,0,,,,,,21,wg-a,,,,AAXX 17034 07747 12560 83312 10060 20030 30054 40112 58022 60007 72162 875// 90300=
07747,1996-11-17 06:00:00,7,1011,-0.2,70,2,15000,18.52,,,330,5.8,6.8,,,,,11,,,3,wg-a,,,,AAXX 17064 07747 12565 83310 10070 20020 30052 40110 55002 60114 70362 875// 90600 333 10068 20058=
07747,1996-11-17 09:00:00,6,1010.1,-0.9,81,3,25000,18.52,,,330,,,,0,,,,,,2,wg-a,,,,AAXX 17094 07747 12575 83310 10060 20030 30043 40101 58009 60007 70286 878// 90900=
07747,1996-11-17 12:00:00,7,1008.4,-1.6,81,4,15000,11.112,,,310,,,,1,,,,,,21,wg-a,,,,AAXX 17124 07747 02165 83106 10070 20040 30027 40084 58016 60016 72186 878// 91200 333 60017=
07747,1996-11-17 15:00:00,8,1006.2,-2.2,71,3,15000,22.224,,,330,,,,0,,,,,,21,wg-a,,,,AAXX 17154 07747 12165 73312 10080 20030 30005 40062 56022 60007 72162 879// 91500=
07747,1996-11-17 18:00:00,7,1005.1,-1.1,76,3,10000,35.188,,57.412,310,5.9,8,,,,,,,,3,wg-a,,,,AAXX 17184 07747 32460 73119 10070 20030 39994 40051 55011 70362 878// 91800 333 10080 20059 91031=
07747,1996-11-17 21:00:00,7,1004.8,-0.3,76,3,20000,31.484,,,320,,,,3,,,,,,1,wg-a,,,,AAXX 17214 07747 12470 73217 10070 20030 39991 40048 58003 60037 70162 878// 92100=
07747,1996-11-18 00:00:00,7,1003.1,-1.7,70,2,25000,38.892,,,310,,,,,,,,,,1,wg-a,,,,AAXX 18004 07747 12575 33121 10070 20020 39974 40031 56017 60036 70161 82830 90000=
07747,1996-11-18 03:00:00,6,1003.1,-0,81,3,20000,31.484,,,310,,,,1,,,,,,61,wg-a,,,,AAXX 18034 07747 12470 83117 10060 20030 39974 40031 55000 60017 76161 878// 90300=
07747,1996-11-18 06:00:00,9,1001.7,-1.4,76,5,25000,31.484,,59.264,310,5.9,9.4,,1,,,6,,,21,wg-a,,,,AAXX 18064 07747 02375 83117 10090 20050 39960 40017 56014 60064 72161 878// 90600 333 10094 20059 60017 91032=
07747,1996-11-18 09:00:00,8,1006.2,4.5,71,3,25000,38.892,,51.856,300,,,,,,,,,,,wg-a,,,,AAXX 18094 07747 12375 /3021 10080 20030 30005 40062 53045 60006 86870 90900 333 91028=
07747,1996-11-18 12:00:00,10,1007.1,0.9,53,1,25000,50.004,,77.784,310,,,,,,,,,,,wg-a,,,,AAXX 18124 07747 12575 53127 10100 20010 30014 40071 50009 60006 85830 91200 333 91042=
07747,1996-11-18 15:00:00,10,1009.2,2.1,43,-2,40000,38.892,,61.116,310,,,,,,,,,,,wg-a,,,,AAXX 18154 07747 12582 /3121 10100 21020 30035 40092 53021 60006 85830 91500 333 91033=
07747,1996-11-18 18:00:00,9,1010,0.8,46,-2,25000,31.484,,57.412,310,8.1,10.7,,,,,,,,,wg-a,,,,AAXX 18184 07747 12575 23117 10090 21020 30043 40100 53008 60006 82100 91800 333 10107 20081 91031=
07747,1996-11-18 21:00:00,8,1012.3,2.3,57,0,20000,25.928,,,310,,,,,,,,,,,wg-a,,,,AAXX 18214 07747 12570 /3114 10080 20000 30066 40123 51023 60006 86100 92100=
07747,1996-11-19 00:00:00,8,1013.2,0.8,57,0,20000,22.224,,,320,,,,,,,,,,,wg-a,,,,AAXX 19004 07747 12570 43212 10080 20000 30074 40132 51008 60006 84800 90000=
07747,1996-11-19 03:00:00,6,1012.8,-0.4,65,0,20000,7.408,,,310,,,,,,,,,,,wg-a,,,,AAXX 19034 07747 12570 23104 10060 20000 30070 40128 57004 60006 82800 90300=
07747,1996-11-19 06:00:00,5,1011.7,-1.1,65,-1,500,14.816,,,280,4.7,8.8,,,,,,,,,wg-a,,,,AAXX 19064 07747 02/00 12808 10050 21010 30059 40117 56011 60006 80002 90600 333 10088 20047 60004=
07747,1996-11-19 09:00:00,8,1009.7,-1.9,49,-2,60000,7.408,,,260,,,,,,,,,,,wg-a,,,,AAXX 19094 07747 12/86 52604 10080 21020 30040 40097 58019 60006 81042 90900=
07747,1996-11-19 12:00:00,11,1003.7,-5.9,50,1,60000,7.408,,,10,,,,,,,,,,,wg-a,,,,AAXX 19124 07747 12/86 60104 10110 20010 39981 40037 58059 60006 82042 91200=
07747,1996-11-19 15:00:00,12,999,-4.7,47,1,60000,7.408,,,50,,,,,,,,,,,wg-a,,,,AAXX 19154 07747 12786 /0504 10120 20010 39934 49990 58047 60006 81542 91500=
07747,1996-11-19 18:00:00,8,999.8,0.7,76,4,500,11.112,,,340,3,12.5,,,,,,,,,wg-a,,,,AAXX 19184 07747 12700 /3406 10080 20040 39941 49998 53007 60006 81142 91800 333 10125 20030=
07747,1996-11-19 21:00:00,6,1000.8,1,87,4,25000,7.408,,,270,,,,,,,,,,,wg-a,,,,AAXX 19214 07747 12775 /2704 10060 20040 39951 40008 53010 60006 86500 92100=
07747,1996-11-20 00:00:00,7,1001.3,0.5,76,3,15000,11.112,,,250,,,,,,,,,,,wg-a,,,,AAXX 20004 07747 12765 72506 10070 20030 39956 40013 50005 60006 875// 90000=
07747,1996-11-20 03:00:00,9,1000.1,-1.2,81,6,15000,14.816,,,260,,,,1,,,,,,60,wg-a,,,,AAXX 20034 07747 12565 82608 10090 20060 39944 40001 56012 60017 76062 885// 90300=
07747,1996-11-20 06:00:00,9,1001.4,1.3,76,5,15000,35.188,,,320,5.4,10,,,,,1,,,21,wg-a,,,,AAXX 20064 07747 02665 73219 10090 20050 39957 40014 53013 60014 72161 87500 90600 333 10100 20054 61000=
07747,1996-11-20 09:00:00,10,1003.3,2,62,3,20000,38.892,,,300,,,,,,,,,,,wg-a,,,,AAXX 20094 07747 12570 73021 10100 20030 39977 40033 51020 60006 84832 90900=
07747,1996-11-20 12:00:00,14,1003.4,0.1,41,1,40000,46.3,,66.672,310,,,,,,,,,,,wg-a,,,,AAXX 20124 07747 12582 /3125 10140 20010 39978 40034 51001 60006 82802 91200 333 91036=
07747,1996-11-20 15:00:00,12,1005.9,2.5,50,2,40000,46.3,,72.228,320,,,,,,,,,,,wg-a,,,,AAXX 20154 07747 12582 33225 10120 20020 30003 40059 53025 60006 83802 91500 333 91039=
07747,1996-11-20 18:00:00,7,1009.6,3.6,76,3,500,22.224,,,300,6.6,14,,0,,,,,,2,wg-a,,,,AAXX 20184 07747 12500 43012 10070 20030 30039 40096 51036 60007 70286 84800 91800 333 10140 20066=
07747,1996-11-20 21:00:00,8,1011,1.4,71,3,500,25.928,,,300,,,,,,,,,,,wg-a,,,,AAXX 20214 07747 12500 33014 10080 20030 30053 40110 53014 60006 83800 92100=
07747,1996-11-21 00:00:00,9,1011.6,0.6,66,3,500,14.816,,,300,,,,,,,,,,,wg-a,,,,AAXX 21004 07747 12500 23008 10090 20030 30059 40116 51006 60006 82800 90000=
07747,1996-11-21 03:00:00,9,1011.6,-0,61,2,3000,11.112,,,300,,,,,,,,,,,wg-a,,,,AAXX 21034 07747 12530 43006 10090 20020 30059 40116 55000 60006 82801 90300=
07747,1996-11-21 06:00:00,9,1012.8,1.2,66,3,500,22.224,,,310,7.1,9.5,,,,,,,,,wg-a,,,,AAXX 21064 07747 02500 53112 10090 20030 30071 40128 53012 60006 82801 90600 333 10095 20071 60004=
07747,1996-11-21 09:00:00,10,1014.2,1.4,66,4,500,14.816,,,340,,,,,,,,,,,wg-a,,,,AAXX 21094 07747 12500 73408 10100 20040 30085 40142 53014 60006 8284/ 90900=
07747,1996-11-21 12:00:00,11,1013.7,-0.5,66,5,500,3.704,,,90,,,,,,,,,,,wg-a,,,,AAXX 21124 07747 12500 70902 10110 20050 30080 40137 58005 60006 8387/ 91200=
07747,1996-11-21 15:00:00,10,1012.1,-1.6,82,7,500,7.408,,,140,,,,,,,,,,60,wg-a,,,,AAXX 21154 07747 02500 81404 10100 20070 30064 40121 56016 61000 76062 8687/ 91500 333 ////=
07747,1996-11-21 18:00:00,8,1009.4,-2.7,93,7,20000,11.112,,,20,7.9,10.9,,0,,,,,,1,wg-a,,,,AAXX 21184 07747 12570 70206 10080 20070 30037 40094 58027 60007 70162 8583/ 91800 333 10109 20079=
07747,1996-11-21 21:00:00,8,1005.7,-3.7,87,6,20000,11.112,,,280,,,,,,,,,,,wg-a,,,,AAXX 21214 07747 12570 52806 10080 20060 30000 40057 56037 60006 83830 92100=
07747,1996-11-22 00:00:00,6,1005.1,-0.6,87,4,20000,3.704,,,220,,,,,,,,,,,wg-a,,,,AAXX 22004 07747 12570 22202 10060 20040 39994 40051 55006 60006 81830 90000=
07747,1996-11-22 03:00:00,15,1004.7,-0.3,67,9,20000,38.892,,53.708,310,,,,,,,,,,,wg-a,,,,AAXX 22034 07747 12570 43121 10150 20090 39991 40047 58003 60006 83830 90300 333 91029=
07747,1996-11-22 06:00:00,13,1007.5,2.8,58,5,20000,57.412,,77.784,300,5.4,15.8,,,,,,,,,wg-a,,,,AAXX 22064 07747 02570 43031 10130 20050 30019 40075 53028 60006 83830 90600 333 10158 20054 60004 91042=
07747,1996-11-22 09:00:00,9,1014.5,6.9,66,3,50000,25.928,,42.596,30,,,,,,,,,,,wg-a,,,,AAXX 22094 07747 12584 60314 10090 20030 30088 40145 51069 60006 84830 90900 333 91023=
07747,1996-11-22 12:00:00,10,1013.9,-0.6,53,1,500,46.3,,,360,,,,,,,,,,,wg-a,,,,AAXX 22124 07747 12500 33625 10100 20010 30082 40139 58006 60006 82130 91200=
07747,1996-11-22 15:00:00,11,1014.6,0.7,50,1,500,11.112,,,320,,,,,,,,,,,wg-a,,,,AAXX 22154 07747 12500 23206 10110 20010 30089 40146 53007 60006 81131 91500=
07747,1996-11-22 18:00:00,8,1015,0.3,66,2,25000,11.112,,,320,6.2,13.2,,,,,,,,,wg-a,,,,AAXX 22184 07747 12575 23206 10080 20020 30092 40150 51003 60006 81130 91800 333 10132 20062=
07747,1996-11-22 21:00:00,5,1014.9,-0.1,87,3,25000,11.112,,,250,,,,,,,,,,,wg-a,,,,AAXX 22214 07747 12/75 32506 10050 20030 30091 40149 58001 60006 81031 92100=
07747,1996-11-23 00:00:00,5,1014.2,-0.7,87,3,25000,3.704,,,310,,,,,,,,,,,wg-a,,,,AAXX 23004 07747 12/75 43102 10050 20030 30084 40142 58007 60006 82032 90000=
07747,1996-11-23 03:00:00,8,1013.1,-1,81,5,20000,11.112,,,340,,,,,,,,,,,wg-a,,,,AAXX 23034 07747 12570 73406 10080 20050 30074 40131 56010 60006 875// 90300=
07747,1996-11-23 06:00:00,6,1014.6,1.4,87,4,12000,11.112,,,120,4.8,7.8,,0,,,,,,61,wg-a,,,,AAXX 23064 07747 02462 71206 10060 20040 30088 40146 51014 60004 76161 875// 90600 333 10078 20048 60007=
07747,1996-11-23 09:00:00,6,1016.7,2.1,87,4,10000,3.704,,,200,,,,0,,,,,,21,wg-a,,,,AAXX 23094 07747 12460 72002 10060 20040 30109 40167 51021 60007 72162 8653/ 90900=
07747,1996-11-23 12:00:00,12,1015.8,-0.8,71,7,25000,11.112,,,30,,,,,,,,,,1,wg-a,,,,AAXX 23124 07747 12575 20306 10120 20070 30101 40158 58008 60006 70161 81830 91200=
07747,1996-11-23 15:00:00,12,1016.9,1.1,47,1,40000,42.596,,64.82,340,,,,,,,,,,,wg-a,,,,AAXX 23154 07747 12582 23423 10120 20010 30112 40169 53011 60006 82800 91500 333 91035=
07747,1996-11-23 18:00:00,11,1020.1,3.2,62,4,20000,18.52,,,330,5,14.3,,,,,,,,,wg-a,,,,AAXX 23184 07747 32570 /3310 10110 20040 30144 40201 53032 81850 91800 333 10143 20050=
07747,1996-11-23 21:00:00,8,1023.2,3,81,5,8000,22.224,,37.04,340,,,,0,,,,,,60,wg-a,,,,AAXX 23214 07747 12458 83412 10080 20050 30174 40232 53030 60007 76062 878// 92100 333 91020=
07747,1996-11-24 00:00:00,9,1024.5,1.3,66,3,15000,7.408,,,340,,,,0,,,,,,2,wg-a,,,,AAXX 24004 07747 02465 73404 10090 20030 30187 40245 51013 60016 70262 878// 90000 333 60007=
07747,1996-11-24 03:00:00,8,1026.3,1.8,71,3,15000,11.112,,,360,,,,,,,,,,,wg-a,,,,AAXX 24034 07747 12465 73606 10080 20030 30205 40263 53018 60006 878// 90300=
07747,1996-11-24 06:00:00,6,1027.4,1,75,2,15000,18.52,,,340,6.1,11.2,,,,,1,,,,wg-a,,,,AAXX 24064 07747 12565 53410 10060 20020 30215 40274 52010 60014 85800 90600 333 10112 20061=
07747,1996-11-24 09:00:00,8,1028.6,1.3,66,2,11000,18.52,,,340,,,,,,,,,,,wg-a,,,,AAXX 24094 07747 12/61 /3410 10080 20020 30228 40286 53013 60006 90900=
07747,1996-11-24 12:00:00,12,1026.7,-1.8,44,0,40000,18.52,,,350,,,,,,,,,,,wg-a,,,,AAXX 24124 07747 12582 33510 10120 20000 30210 40267 58018 60006 82801 91200=
07747,1996-11-24 15:00:00,11,1024.9,-1.8,47,0,40000,11.112,,,40,,,,,,,,,,,wg-a,,,,AAXX 24154 07747 12782 50406 10110 20000 30192 40249 56018 60006 81501 91500=
07747,1996-11-24 18:00:00,6,1024.3,-0.8,70,1,40000,3.704,,,220,5.5,12.4,,,,,,,,,wg-a,,,,AAXX 24184 07747 12/82 72202 10060 20010 30184 40243 58008 60006 82042 91800 333 10124 20055=
07747,1996-11-24 21:00:00,5,1022.9,-1.4,75,1,20000,7.408,,,320,,,,,,,,,,,wg-a,,,,AAXX 24214 07747 12/70 73204 10050 20010 30170 40229 58014 60006 82032 92100=
07747,1996-11-25 00:00:00,4,1021.6,-1.3,87,2,20000,7.408,,,260,,,,,,,,,,,wg-a,,,,AAXX 25004 07747 12/70 72604 10040 20020 30157 40216 56013 60006 83052 90000=
07747,1996-11-25 03:00:00,4,1019.9,-1.7,87,2,20000,7.408,,,270,,,,,,,,,,,wg-a,,,,AAXX 25034 07747 12/70 82704 10040 20020 30140 40199 58017 60006 86072 90300=
07747,1996-11-25 06:00:00,4,1017.9,-1.9,93,3,20000,3.704,,,20,3.4,5.9,,,,,,,,,wg-a,,,,AAXX 25064 07747 02/70 70202 10040 20030 30121 40179 57019 60006 86072 90600 333 10059 20034 60004=
07747,1996-11-25 09:00:00,6,1017,-0.9,87,4,20000,7.408,,,340,,,,,,,,,,60,wg-a,,,,AAXX 25094 07747 02670 73404 10060 20040 30112 40170 56009 61000 76062 8557/ 90900 333 ////=
07747,1996-11-25 12:00:00,9,1013,-3.9,81,6,12000,3.704,,,230,,,,1,,,,,,21,wg-a,,,,AAXX 25124 07747 02662 82302 10090 20060 30073 40130 58039 60016 72162 8557/ 91200 333 60017=
07747,1996-11-25 15:00:00,10,1009.1,-3.9,87,8,7000,3.704,,,210,,,,0,,,,,,60,wg-a,,,,AAXX 25154 07747 12657 82102 10100 20080 30034 40091 56039 60007 76062 8557/ 91500=
07747,1996-11-25 18:00:00,10,1006.6,-2.5,,,6000,14.816,,,250,4,10.5,,2,,,,,,61,wg-a,,,,AAXX 25184 07747 12656 82508 10100 2//// 30009 40066 58025 60027 76162 8657/ 91800 333 10105 20040=
07747,1996-11-25 21:00:00,12,1006.3,-0.2,88,10,8000,11.112,,,280,,,,3,,,,,,61,wg-a,,,,AAXX 25214 07747 12458 82806 10120 20100 30007 40063 57002 60037 76166 8587/ 92100=
07747,1996-11-26 00:00:00,13,1007.1,0.8,62,6,20000,38.892,,,310,,,,1,,,,,,1,wg-a,,,,AAXX 26004 07747 02770 33121 10130 20060 30015 40071 53008 60046 70186 835/0 90000 333 60017=
07747,1996-11-26 03:00:00,10,1008.8,1.6,76,6,20000,35.188,,,310,,,,1,,,,,,60,wg-a,,,,AAXX 26034 07747 12570 73119 10100 20060 30031 40088 53016 60017 76061 87800 90300=
07747,1996-11-26 06:00:00,11,1010.2,1.4,71,6,500,29.632,,46.3,310,9.4,12.9,,0,,,7,,,2,wg-a,,,,AAXX 26064 07747 02600 33116 10110 20060 30045 40102 53014 60074 70261 83200 90600 333 10129 20094 60007 91025=
07747,1996-11-26 09:00:00,11,1012.4,2.2,82,8,15000,22.224,,,320,,,,1,,,,,,60,wg-a,,,,AAXX 26094 07747 12465 /3212 10110 20080 30067 40124 52022 60017 76061 86800 90900=
07747,1996-11-26 12:00:00,14,1010.8,-1.5,58,6,2500,53.708,,75.932,320,,,,0,,,,,,3,wg-a,,,,AAXX 26124 07747 02525 /3229 10140 20060 30052 40108 58015 60016 70361 85140 91200 333 60007 91041=
07747,1996-11-26 15:00:00,13,1011.5,0.7,62,6,40000,38.892,,64.82,330,,,,,,,,,,,wg-a,,,,AAXX 26154 07747 12582 33321 10130 20060 30059 40115 53007 60006 83140 91500 333 91035=
07747,1996-11-26 18:00:00,12,1014,2.4,62,5,20000,11.112,,,340,9.8,14.3,,,,,,,,,wg-a,,,,AAXX 26184 07747 32470 73406 10120 20050 30083 40140 53024 878// 91800 333 10143 20098=
07747,1996-11-26 21:00:00,11,1014.3,0.3,71,6,15000,11.112,,,350,,,,,,,,,,,wg-a,,,,AAXX 26214 07747 12465 83506 10110 20060 30086 40143 50003 60006 888// 92100=
07747,1996-11-27 00:00:00,10,1014.2,-0.1,82,7,15000,11.112,,,290,,,,,,,,,,,wg-a,,,,AAXX 27004 07747 12465 82906 10100 20070 30085 40142 58001 60006 88800 90000=
07747,1996-11-27 03:00:00,10,1013.1,-1.1,82,7,25000,0,,,0,,,,,,,,,,,wg-a,,,,AAXX 27034 07747 12475 80000 10100 20070 30074 40131 58011 60006 875// 90300=
07747,1996-11-27 06:00:00,10,1012.7,-0.4,82,7,25000,7.408,,,160,9.9,11.7,,,,,1,,,,wg-a,,,,AAXX 27064 07747 02475 81604 10100 20070 30070 40127 55004 60006 875// 90600 333 10117 20099 60014=
07747,1996-11-27 09:00:00,9,1012.9,0.2,93,8,3000,0,,,0,,,,1,,,,,,60,wg-a,,,,AAXX 27094 07747 12230 80000 10090 20080 30072 40129 53002 60017 76062 888// 90900=
07747,1996-11-27 12:00:00,12,1009.7,-3.1,94,11,15000,3.704,,,70,,,,,,,,,,1,wg-a,,,,AAXX 27124 07747 02265 /0702 10120 20110 30041 40097 58031 60016 70162 84530 91200 333 61000=
07747,1996-11-27 15:00:00,13,1008.6,-1.1,94,12,12000,3.704,,,320,,,,1,,,,,,61,wg-a,,,,AAXX 27154 07747 12362 83202 10130 20120 30030 40086 55011 60017 76162 875// 91500=
07747,1996-11-27 18:00:00,16,1007,-1.5,59,8,25000,50.004,,74.08,300,9.3,16.9,,0,,,,,,1,wg-a,,,,AAXX 27184 07747 12475 /3027 10160 20080 30015 40070 55015 60007 70162 84540 91800 333 10169 20093 91040=
07747,1996-11-27 21:00:00,14,1009.3,2.2,58,6,11000,35.188,,51.856,300,,,,,,,,,,,wg-a,,,,AAXX 27214 07747 12/61 /3019 10140 20060 30037 40093 51022 60006 92100 333 91028=
07747,1996-11-28 00:00:00,10,1010.3,0.9,76,6,15000,53.708,,70.376,300,,,,2,,,,,,25,wg-a,,,,AAXX 28004 07747 02565 63029 10100 20060 30046 40103 51009 60026 72586 85840 90000 333 60027 91038=
07747,1996-11-28 03:00:00,11,1006.7,-3.5,54,2,20000,57.412,,79.636,300,,,,1,,,,,,25,wg-a,,,,AAXX 28034 07747 12570 43031 10110 20020 30011 40067 58035 60017 72511 83840 90300 333 91043=
07747,1996-11-28 06:00:00,10,1008.3,1.5,62,3,25000,53.708,,79.636,310,9.2,16.2,,,,,5,,,25,wg-a,,,,AAXX 28064 07747 12575 53129 10100 20030 30026 40083 53015 60054 72586 84840 90600 333 10162 20092 91043=
07747,1996-11-28 09:00:00,7,1014.7,6.3,53,-2,25000,53.708,,81.488,330,,,,,,,,,,,wg-a,,,,AAXX 28094 07747 12675 /3329 10070 21020 30089 40147 51063 60006 85842 90900 333 91044=
07747,1996-11-28 12:00:00,9,1016.6,2,46,-2,500,35.188,,68.524,330,,,,,,,,,,,wg-a,,,,AAXX 28124 07747 12600 /3319 10090 21020 30109 40166 51020 60006 8624/ 91200 333 91037=
07747,1996-11-28 15:00:00,8,1017.8,1.1,46,-3,500,46.3,,77.784,320,,,,,,,,,,,wg-a,,,,AAXX 28154 07747 12600 /3225 10080 21030 30120 40178 50011 60006 8624/ 91500 333 91042=
07747,1996-11-28 18:00:00,7,1021.1,3.3,53,-2,500,31.484,,,330,6.4,9.8,,,,,,,,,wg-a,,,,AAXX 28184 07747 12600 /3317 10070 21020 30153 40211 51033 60006 85200 91800 333 10098 20064=
07747,1996-11-28 21:00:00,7,1022.3,1.2,53,-2,25000,35.188,,55.56,330,,,,,,,,,,,wg-a,,,,AAXX 28214 07747 12675 /3319 10070 21020 30165 40223 51012 60006 85200 92100 333 91030=
07747,1996-11-29 00:00:00,7,1022.6,0.3,53,-2,25000,31.484,,,330,,,,,,,,,,,wg-a,,,,AAXX 29004 07747 12675 /3317 10070 21020 30168 40226 50003 60006 85100 90000=
07747,1996-11-29 03:00:00,7,1022.2,-0.4,57,-1,25000,31.484,,,340,,,,,,,,,,,wg-a,,,,AAXX 29034 07747 12575 33417 10070 21010 30164 40222 58004 60006 83800 90300=
07747,1996-11-29 06:00:00,7,1021.6,-0.6,66,1,25000,22.224,,,340,5.8,7.3,,,,,,,,,wg-a,,,,AAXX 29064 07747 02575 33412 10070 20010 30158 40216 55006 60006 83800 90600 333 10073 20058 60004=
07747,1996-11-29 09:00:00,10,1022.1,0.5,50,0,60000,38.892,,64.82,330,,,,,,,,,,,wg-a,,,,AAXX 29094 07747 12586 /3321 10100 20000 30163 40221 53005 60006 81142 90900 333 91035=
07747,1996-11-29 12:00:00,13,1020.7,-1.3,44,1,60000,18.52,,,340,,,,,,,,,,,wg-a,,,,AAXX 29124 07747 12586 73410 10130 20010 30150 40207 58013 60006 81844 91200=
07747,1996-11-29 15:00:00,14,1018.7,-2,41,1,55000,38.892,,,310,,,,,,,,,,,wg-a,,,,AAXX 29154 07747 12585 73121 10140 20010 30130 40187 56020 60006 81872 91500=
07747,1996-11-29 18:00:00,14,1018.1,-0.6,51,4,500,31.484,,,310,6.8,14.1,,,,,,,,,wg-a,,,,AAXX 29184 07747 12500 73117 10140 20040 30124 40181 58006 60006 81872 91800 333 10141 20068=
07747,1996-11-29 21:00:00,14,1018.2,0.1,51,4,11000,14.816,,,300,,,,,,,,,,,wg-a,,,,AAXX 29214 07747 12/61 /3008 10140 20040 30125 40182 51001 60006 92100=
07747,1996-11-30 00:00:00,14,1015.8,-2.3,51,4,500,29.632,,,300,,,,,,,,,,,wg-a,,,,AAXX 30004 07747 12700 73016 10140 20040 30102 40158 56023 60006 8157/ 90000=
07747,1996-11-30 03:00:00,16,1012.3,-3.5,59,8,500,38.892,,64.82,310,,,,,,,,,,,wg-a,,,,AAXX 30034 07747 12600 73121 10160 20080 30067 40123 56035 60006 8357/ 90300 333 91035=
07747,1996-11-30 06:00:00,17,1009.6,-2.6,55,8,500,31.484,,53.708,300,10.6,17,,,,,,,,,wg-a,,,,AAXX 30064 07747 02600 73017 10170 20080 30041 40096 55026 60006 8283/ 90600 333 10170 20106 60004 91029=
07747,1996-11-30 09:00:00,16,1009.4,-0.3,77,12,500,35.188,,53.708,300,,,,,,,,,,,wg-a,,,,AAXX 30094 07747 12500 73019 10160 20120 30038 40094 55003 60006 85801 90900 333 91029=
07747,1996-11-30 12:00:00,16,1007.9,-1.4,77,12,500,38.892,,,310,,,,,,,,,,,wg-a,,,,AAXX 30124 07747 12500 73121 10160 20120 30024 40079 58014 60006 85801 91200=
07747,1996-11-30 15:00:00,17,1006,-1.9,68,11,500,53.708,,83.34,310,,,,0,,,,,,,wg-a,,,,AAXX 30154 07747 12500 43129 10170 20110 30005 40060 56019 60007 82841 91500 333 91045=
07747,1996-11-30 18:00:00,15,1006.8,0.7,82,12,8000,46.3,,70.376,310,14.7,17.9,,1,,,,,,60,wg-a,,,,AAXX 30184 07747 12558 63125 10150 20120 30012 40068 53007 60017 76086 85801 91800 333 10179 20147 91038=
07747,1996-11-30 21:00:00,14,1011.2,4.4,77,10,8000,42.596,,70.376,350,,,,2,,,,,,60,wg-a,,,,AAXX 30214 07747 12558 83523 10140 20100 30056 40112 51044 60027 76066 878// 92100 333 91038=
07747,1996-12-01 00:00:00,11,1014.2,2.9,66,5,12000,38.892,,59.264,360,,,,1,,,,,,1,wg-a,,,,AAXX 01004 07747 02562 73621 10110 20050 30085 40142 53029 60036 70162 85830 90000 333 60017 91032=
07747,1996-12-01 03:00:00,11,1017.6,3.4,58,3,18000,18.52,,46.3,340,,,,,,,,,,,wg-a,,,,AAXX 01034 07747 12568 /3410 10110 20030 30119 40176 53034 60006 81130 90300 333 91025=
07747,1996-12-01 06:00:00,10,1019.2,1.6,57,2,20000,31.484,,57.412,310,9.8,15.7,,,,,4,,,,wg-a,,,,AAXX 01064 07747 12670 /3117 10100 20020 30135 40192 53016 60044 81100 90600 333 10157 20098 91031=
07747,1996-12-01 09:00:00,11,1021.3,2.1,54,2,45000,35.188,,61.116,330,,,,0,,,,,,,wg-a,,,,AAXX 01094 07747 12583 43319 10110 20020 30156 40213 53021 60007 84140 90900 333 91033=
07747,1996-12-01 12:00:00,14,1018.7,-2.6,44,2,45000,53.708,,74.08,330,,,,,,,,,,,wg-a,,,,AAXX 01124 07747 12583 33329 10140 20020 30130 40187 58026 60006 82140 91200 333 91040=
07747,1996-12-01 15:00:00,14,1019.6,0.9,47,3,45000,35.188,,55.56,330,,,,,,,,,,,wg-a,,,,AAXX 01154 07747 12583 /3319 10140 20030 30139 40196 50009 60006 81140 91500 333 91030=
07747,1996-12-01 18:00:00,14,1020,0.4,55,5,25000,38.892,,61.116,330,9.9,14.5,,,,,,,,,wg-a,,,,AAXX 01184 07747 32575 33321 10140 20050 30143 40200 53004 82140 91800 333 10145 20099 91033=
07747,1996-12-01 21:00:00,15,1020.7,0.8,63,8,25000,35.188,,55.56,320,,,,,,,,,,,wg-a,,,,AAXX 01214 07747 12575 33219 10150 20080 30151 40207 51008 60006 82141 92100 333 91030=
07747,1996-12-02 00:00:00,15,1019.3,-1.4,67,9,25000,31.484,,64.82,330,,,,,,,,,,,wg-a,,,,AAXX 02004 07747 12575 43317 10150 20090 30137 40193 58014 60006 83241 90000 333 91035=
07747,1996-12-02 03:00:00,16,1019.8,0.5,63,9,25000,38.892,,,310,,,,,,,,,,,wg-a,,,,AAXX 02034 07747 12575 43121 10160 20090 30142 40198 53005 60006 83241 90300=
07747,1996-12-02 06:00:00,15,1019.8,-0,77,11,25000,31.484,,,320,13.7,16.3,,,,,,,,,wg-a,,,,AAXX 02064 07747 02675 /3217 10150 20110 30142 40198 55000 60006 81241 90600 333 10163 20137 60004=
07747,1996-12-02 09:00:00,13,1022.9,3,67,7,25000,29.632,,46.3,320,,,,,,,,,,,wg-a,,,,AAXX 02094 07747 12575 73216 10130 20070 30172 40229 53030 60006 84841 90900 333 91025=
07747,1996-12-02 12:00:00,13,1022.1,-0.8,62,6,25000,42.596,,61.116,330,,,,,,,,,,,wg-a,,,,AAXX 02124 07747 12575 43323 10130 20060 30164 40221 58008 60006 82141 91200 333 91033=
07747,1996-12-02 15:00:00,13,1021.8,-0.3,62,6,25000,31.484,,48.152,330,,,,,,,,,,,wg-a,,,,AAXX 02154 07747 12575 73317 10130 20060 30161 40218 55003 60006 81141 91500 333 91026=
07747,1996-12-02 18:00:00,12,1023,1.2,62,5,25000,29.632,,50.004,340,11.8,15.4,,,,,,,,,wg-a,,,,AAXX 02184 07747 12575 /3416 10120 20050 30173 40230 51012 60006 81141 91800 333 10154 20118 91027=
07747,1996-12-02 21:00:00,11,1023.3,0.3,62,4,25000,35.188,,,330,,,,,,,,,,,wg-a,,,,AAXX 02214 07747 12575 53319 10110 20040 30176 40233 50003 60006 8314/ 92100=
07747,1996-12-03 00:00:00,10,1023.5,0.1,66,4,25000,7.408,,,180,,,,,,,,,,,wg-a,,,,AAXX 03004 07747 12575 41804 10100 20040 30177 40235 50001 60006 8314/ 90000=
07747,1996-12-03 06:00:00,4,1021.6,-1,93,3,25000,11.112,,,260,4.3,11.9,,,,,,,,,wg-a,,,,AAXX 03064 07747 02575 32606 10040 20030 30157 40216 56010 60006 8214/ 90600 333 10119 20043 60004=
07747,1996-12-03 09:00:00,9,1020,-1.5,76,5,15000,7.408,,,250,,,,,,,,,,,wg-a,,,,AAXX 03094 07747 12/65 12504 10090 20050 30142 40200 58015 60006 80001 90900=
07747,1996-12-03 12:00:00,13,1016.4,-3.5,54,4,40000,7.408,,,100,,,,,,,,,,,wg-a,,,,AAXX 03124 07747 12/82 01004 10130 20040 30107 40164 58035 60006 80000 91200=
07747,1996-12-03 15:00:00,12,1014.1,-2.3,67,6,500,11.112,,,80,,,,,,,,,,,wg-a,,,,AAXX 03154 07747 12/00 20806 10120 20060 30084 40141 56023 60006 80001 91500=
07747,1996-12-03 18:00:00,9,1012.7,-1.4,81,6,20000,11.112,,,340,3.9,13.6,,,,,,,,,wg-a,,,,AAXX 03184 07747 12570 23406 10090 20060 30070 40127 56014 60006 81501 91800 333 10136 20039=
07747,1996-12-03 21:00:00,6,1011.7,-1.1,93,5,12000,7.408,,,270,,,,,,,,,,,wg-a,,,,AAXX 03214 07747 12462 /2704 10060 20050 30059 40117 58011 60006 83500 92100=
07747,1996-12-04 00:00:00,6,1009.8,-1.9,93,5,12000,3.704,,,260,,,,,,,,,,,wg-a,,,,AAXX 04004 07747 12462 /2602 10060 20050 30040 40098 58019 60006 86500 90000=
07747,1996-12-04 03:00:00,6,1007.9,-1.9,87,4,12000,7.408,,,320,,,,,,,,,,,wg-a,,,,AAXX 04034 07747 12462 23204 10060 20040 30021 40079 56019 60006 82500 90300=
07747,1996-12-04 06:00:00,4,1007.9,-0,93,3,10000,7.408,,,270,3.2,9.1,,,,,,,,,wg-a,,,,AAXX 04064 07747 02460 /2704 10040 20030 30021 40079 55000 60006 81530 90600 333 10091 20032 60004=
07747,1996-12-04 09:00:00,9,1008,0.2,87,7,8000,7.408,,,310,,,,0,,,,,,,wg-a,,,,AAXX 04094 07747 12558 /3104 10090 20070 30023 40080 50002 60007 81800 90900=
07747,1996-12-04 12:00:00,15,1007.8,-0.1,72,10,10000,22.224,,,170,,,,,,,,,,15,wg-a,,,,AAXX 04124 07747 12560 71712 10150 20100 30022 40078 58001 60006 71511 87802 91200=
07747,1996-12-04 15:00:00,13,1007.5,-0.3,94,12,3000,25.928,,,130,,,,2,,,,,,63,wg-a,,,,AAXX 04154 07747 12230 81314 10130 20120 30019 40075 55003 60027 76362 878// 91500=
07747,1996-12-04 18:00:00,13,1007.9,0.4,94,12,4000,22.224,,,140,3.7,15.9,,4,,,,,,63,wg-a,,,,AAXX 04184 07747 12340 81412 10130 20120 30023 40079 52004 60047 76362 878// 91800 333 10159 20037=
07747,1996-12-04 21:00:00,13,1008.4,0.5,94,12,4000,25.928,,,140,,,,4,,,,,,63,wg-a,,,,AAXX 04214 07747 12240 81414 10130 20120 30028 40084 51005 60047 76366 887// 92100=
07747,1996-12-05 00:00:00,13,1007.7,-0.7,94,12,7000,11.112,,,120,,,,1,,,,,,21,wg-a,,,,AAXX 05004 07747 02257 61206 10130 20120 30021 40077 57007 60056 72162 85540 90000 333 60017=
07747,1996-12-05 03:00:00,14,1007.2,-0.5,94,13,7000,22.224,,,140,,,,,,,,,,,wg-a,,,,AAXX 05034 07747 12257 71412 10140 20130 30016 40072 58005 60006 875// 90300=
07747,1996-12-05 06:00:00,13,1007.1,-0.1,94,12,6000,11.112,,,130,12.1,13.7,,7,,,19,,,21,wg-a,,,,AAXX 05064 07747 02456 81306 10130 20120 30015 40071 58001 60194 72162 885// 90600 333 10137 20121 60077=
07747,1996-12-05 09:00:00,13,1009,1.9,94,12,8000,7.408,,,180,,,,,,,,,,21,wg-a,,,,AAXX 05094 07747 02458 81804 10130 20120 30034 40090 53019 61000 72162 888// 90900 333 ////=
07747,1996-12-05 12:00:00,14,1008.8,-0.2,94,13,500,35.188,,,140,,,,1,,,,,,21,wg-a,,,,AAXX 05124 07747 02100 71419 10140 20130 30032 40088 58002 60016 72186 872// 91200 333 60017=
07747,1996-12-05 15:00:00,14,1008.3,-0.5,88,12,6000,35.188,,57.412,130,,,,0,,,,,,,wg-a,,,,AAXX 05154 07747 12456 71319 10140 20120 30027 40083 55005 60007 86201 91500 333 91031=
07747,1996-12-05 18:00:00,13,1009.3,1,94,12,4000,31.484,,61.116,140,12.3,14.4,,,,,,,,60,wg-a,,,,AAXX 05184 07747 02140 81417 10130 20120 30037 40093 53010 61000 76086 889// 91800 333 10144 20123 //// 91033=
07747,1996-12-05 21:00:00,13,1008.3,-1,88,11,500,38.892,,59.264,130,,,,,,,,,,2,wg-a,,,,AAXX 05214 07747 02200 81321 10130 20110 30027 40083 58010 61000 70262 876// 92100 333 //// 91032=
07747,1996-12-06 00:00:00,13,1008.4,0.1,94,12,4000,31.484,,,130,,,,4,,,,,,60,wg-a,,,,AAXX 06004 07747 02240 81317 10130 20120 30028 40084 50001 60046 76062 879// 90000 333 60047=
07747,1996-12-06 03:00:00,13,1008.3,-0.1,88,11,7000,22.224,,,130,,,,3,,,,,,2,wg-a,,,,AAXX 06034 07747 12257 71312 10130 20110 30027 40083 57001 60037 70296 875// 90300=
07747,1996-12-06 06:00:00,13,1009.1,0.8,67,7,8000,35.188,,,200,10.6,13.4,,,,,8,,,13,wg-a,,,,AAXX 06064 07747 12258 72019 10130 20070 30035 40091 50008 60084 71396 879// 90600 333 10134 20106=
07747,1996-12-06 09:00:00,14,1011.4,2.3,63,7,40000,11.112,,,90,,,,,,,,,,,wg-a,,,,AAXX 06094 07747 12682 70906 10140 20070 30058 40114 53023 60006 81842 90900=
07747,1996-12-06 12:00:00,15,1011.8,0.4,72,10,500,22.224,,,100,,,,,,,,,,,wg-a,,,,AAXX 06124 07747 12500 41012 10150 20100 30062 40118 50004 60006 81842 91200=
07747,1996-12-06 15:00:00,13,1011.9,0.1,82,10,500,22.224,,,130,,,,,,,,,,,wg-a,,,,AAXX 06154 07747 12400 71312 10130 20100 30063 40119 53001 60006 8284/ 91500=
07747,1996-12-06 18:00:00,12,1012.7,0.8,94,11,4000,18.52,,,110,11.7,15.9,,,,,,,,10,wg-a,,,,AAXX 06184 07747 12140 81110 10120 20110 30071 40127 51008 60006 71011 887// 91800 333 10159 20117=
07747,1996-12-06 21:00:00,10,1012,-0.8,100,10,1500,14.816,,,350,,,,23,,,,,,82,wg-a,,,,AAXX 06214 07747 12115 83508 10100 20100 30063 40120 58008 60237 78296 889// 92100=
07747,1996-12-07 00:00:00,10,1013.4,1.4,93,9,4000,3.704,,,50,,,,7,,,,,,21,wg-a,,,,AAXX 07004 07747 02140 80502 10100 20090 30077 40134 51014 60306 72196 889// 90000 333 60077=
07747,1996-12-07 03:00:00,11,1013.5,0.1,100,11,4000,7.408,,,20,,,,0,,,,,,60,wg-a,,,,AAXX 07034 07747 12340 80204 10110 20110 30078 40135 53001 60007 76062 889// 90300=
07747,1996-12-07 06:00:00,11,1014.5,1,94,10,4000,7.408,,,70,9.9,12.3,,1,,,31,,,80,wg-a,,,,AAXX 07064 07747 02340 80704 10110 20100 30088 40145 53010 60314 78096 889// 90600 333 10123 20099 60017=
07747,1996-12-07 09:00:00,9,1016.4,1.9,100,9,4000,11.112,,,10,,,,8,,,,,,80,wg-a,,,,AAXX 07094 07747 12340 80106 10090 20090 30107 40164 53019 60087 78099 889// 90900=
07747,1996-12-07 12:00:00,10,1016.3,-0.1,93,9,500,11.112,,,310,,,,20,,,,,,61,wg-a,,,,AAXX 07124 07747 02300 83106 10100 20090 30106 40163 58001 60276 76196 889// 91200 333 60207=
07747,1996-12-07 15:00:00,13,1016.3,0.1,94,12,500,25.928,,,110,,,,1,,,,,,60,wg-a,,,,AAXX 07154 07747 12300 81114 10130 20120 30107 40163 53001 60017 76096 889// 91500=
07747,1996-12-07 18:00:00,13,1017.9,1.5,88,11,6000,22.224,,,110,9.1,13.2,,,,,,,,2,wg-a,,,,AAXX 07184 07747 02456 81112 10130 20110 30122 40179 51015 61000 70296 889// 91800 333 10132 20091 ////=
07747,1996-12-07 21:00:00,13,1018.3,0.4,88,11,7000,18.52,,,100,,,,0,,,,,,25,wg-a,,,,AAXX 07214 07747 12357 81010 10130 20110 30126 40183 51004 60007 72562 889// 92100=
07747,1996-12-08 00:00:00,12,1017.5,-0.8,88,10,8000,22.224,,,40,,,,0,,,,,,1,wg-a,,,,AAXX 08004 07747 02458 80412 10120 20100 30118 40175 58008 60016 70186 889// 90000 333 60007=
07747,1996-12-08 03:00:00,12,1016.4,-1.1,82,9,9000,18.52,,,40,,,,,,,,,,,wg-a,,,,AAXX 08034 07747 12459 80410 10120 20090 30107 40164 56011 60006 888// 90300=
07747,1996-12-08 06:00:00,11,1016.2,-0.2,87,9,6000,18.52,,,20,10.8,13.4,,3,,,32,,,61,wg-a,,,,AAXX 08064 07747 02456 80210 10110 20090 30105 40162 55002 60324 76162 885// 90600 333 10134 20108 60037=
07747,1996-12-08 09:00:00,10,1016.4,0.2,93,9,4500,18.52,,,40,,,,15,,,,,,61,wg-a,,,,AAXX 08094 07747 12245 80410 10100 20090 30107 40164 50002 60157 76166 885// 90900=
07747,1996-12-08 12:00:00,12,1016.1,-0.3,94,11,3000,25.928,,,100,,,,11,,,,,,63,wg-a,,,,AAXX 08124 07747 02230 81014 10120 20110 30104 40161 56003 60266 76366 885// 91200 333 60117=
07747,1996-12-08 15:00:00,9,1015.7,-0.4,100,9,4000,11.112,,,290,,,,16,,,,,,63,wg-a,,,,AAXX 08154 07747 12240 82906 10090 20090 30100 40157 55004 60167 76366 885// 91500=
07747,1996-12-08 18:00:00,9,1016.7,1,100,9,9000,7.408,,,250,9.1,12.4,,4,,,,,,61,wg-a,,,,AAXX 08184 07747 12259 82504 10090 20090 30110 40167 53010 60047 76166 885// 91800 333 10124 20091=
07747,1996-12-08 21:00:00,10,1017.6,0.9,100,10,8000,18.52,,,60,,,,0,,,,,,21,wg-a,,,,AAXX 08214 07747 12458 80610 10100 20100 30119 40176 51009 60007 72162 885// 92100=
07747,1996-12-09 00:00:00,10,1016.5,-1.1,93,9,500,14.816,,,350,,,,8,,,,,,61,wg-a,,,,AAXX 09004 07747 02400 83508 10100 20090 30108 40165 58011 60086 76162 885// 90000 333 60087=
07747,1996-12-09 03:00:00,10,1015.1,-1.4,93,9,500,18.52,,,20,,,,2,,,,,,61,wg-a,,,,AAXX 09034 07747 12400 80210 10100 20090 30094 40151 57014 60027 76166 885// 90300=
07747,1996-12-09 06:00:00,10,1014.6,-0.5,93,9,500,14.816,,,30,9.2,10.4,,3,,,60,,,61,wg-a,,,,AAXX 09064 07747 02400 80308 10100 20090 30089 40146 56005 60604 76162 885// 90600 333 10104 20092 60037=
07747,1996-12-09 12:00:00,9,1013.7,-1.2,87,7,500,25.928,,,300,,,,8,,,,,,63,wg-a,,,,AAXX 09124 07747 02400 83014 10090 20070 30080 40137 58012 60136 76366 885// 91200 333 60087=
07747,1996-12-09 15:00:00,10,1013.4,-0.3,87,8,12000,14.816,,,360,,,,5,,,,,,60,wg-a,,,,AAXX 09154 07747 12462 83608 10100 20080 30077 40134 55003 60057 76066 885// 91500=
07747,1996-12-09 18:00:00,10,1013.7,0.3,87,8,500,14.816,,,320,8.3,10.4,,1,,,,,,61,wg-a,,,,AAXX 09184 07747 12400 83208 10100 20080 30080 40137 53003 60017 76162 885// 91800 333 10104 20083=
07747,1996-12-09 21:00:00,9,1013.7,0,93,8,500,11.112,,,330,,,,7,,,,,,61,wg-a,,,,AAXX 09214 07747 12400 83306 10090 20080 30080 40137 50000 60077 76166 885// 92100=
07747,1996-12-10 00:00:00,9,1012.7,-1,81,6,12000,25.928,,,310,,,,2,,,,,,61,wg-a,,,,AAXX 10004 07747 02462 83114 10090 20060 30070 40127 58010 60096 76166 885// 90000 333 60027=
07747,1996-12-10 03:00:00,9,1011.2,-1.5,81,6,15000,18.52,,,300,,,,,,,,,,1,wg-a,,,,AAXX 10034 07747 02465 83010 10090 20060 30055 40112 58015 61000 70162 885// 90300 333 ////=
07747,1996-12-10 06:00:00,9,1010.5,-0.7,87,7,15000,18.52,,,300,8.2,9.6,,1,,,29,,,2,wg-a,,,,AAXX 10064 07747 02465 83010 10090 20070 30048 40105 58007 60294 70262 885// 90600 333 10096 20082 60017=
07747,1996-12-10 09:00:00,11,1010.9,0.4,71,6,35000,22.224,,,300,,,,,,,,,,,wg-a,,,,AAXX 10094 07747 12581 73012 10110 20060 30052 40109 53004 60006 8157/ 90900=
07747,1996-12-10 12:00:00,14,1010.1,-0.7,63,7,35000,18.52,,,350,,,,,,,,,,,wg-a,,,,AAXX 10124 07747 12581 73510 10140 20070 30045 40101 58007 60006 8187/ 91200=
07747,1996-12-10 15:00:00,11,1010.5,0.3,76,7,25000,18.52,,,20,,,,,,,,,,,wg-a,,,,AAXX 10154 07747 12475 70210 10110 20070 30048 40105 53003 60006 8387/ 91500=
07747,1996-12-10 18:00:00,10,1012.3,1.8,82,7,18000,3.704,,,220,9,13.9,,,,,,,,1,wg-a,,,,AAXX 10184 07747 02568 82202 10100 20070 30066 40123 51018 61000 70162 8687/ 91800 333 10139 20090 ////=
07747,1996-12-10 21:00:00,9,1013.3,1,87,7,12000,3.704,,,20,,,,0,,,,,,60,wg-a,,,,AAXX 10214 07747 12562 80202 10090 20070 30076 40133 51010 60007 76062 888// 92100=
07747,1996-12-11 00:00:00,9,1013.5,0.2,93,8,15000,7.408,,,230,,,,,,,,,,2,wg-a,,,,AAXX 11004 07747 02565 82304 10090 20080 30078 40135 50002 60006 70262 888// 90000 333 61000=
07747,1996-12-11 03:00:00,8,1013.6,0.1,100,8,20000,3.704,,,70,,,,,,,,,,,wg-a,,,,AAXX 11034 07747 12570 80702 10080 20080 30079 40136 53001 60006 8587/ 90300=
07747,1996-12-11 06:00:00,8,1013.8,0.1,93,7,10000,3.704,,,290,7.3,9.9,,,,,,,,,wg-a,,,,AAXX 11064 07747 12460 72902 10080 20070 30080 40138 53001 60004 875// 90600 333 10099 20073=
07747,1996-12-11 09:00:00,10,1014.4,0.7,93,9,7000,0,,,0,,,,,,,,,,,wg-a,,,,AAXX 11094 07747 12257 70000 10100 20090 30087 40144 51007 60006 875// 90900=
07747,1996-12-11 12:00:00,13,1013,-1.3,77,9,12000,18.52,,,130,,,,,,,,,,,wg-a,,,,AAXX 11124 07747 12462 61310 10130 20090 30074 40130 58013 60006 83830 91200=
07747,1996-12-11 15:00:00,13,1011.9,-1.1,77,9,15000,18.52,,,140,,,,,,,,,,,wg-a,,,,AAXX 11154 07747 12465 31410 10130 20090 30063 40119 55011 60006 81802 91500=
07747,1996-12-11 18:00:00,10,1012.4,0.4,87,8,15000,11.112,,,120,7.5,14.1,,,,,,,,,wg-a,,,,AAXX 11184 07747 12465 41206 10100 20080 30067 40124 53004 60006 81802 91800 333 10141 20075=
07747,1996-12-11 21:00:00,8,1012.6,0.2,93,7,12000,3.704,,,150,,,,,,,,,,,wg-a,,,,AAXX 11214 07747 12562 /1502 10080 20070 30069 40126 50002 60006 81552 92100=
07747,1996-12-12 00:00:00,11,1011.2,-1.4,82,8,12000,22.224,,,140,,,,,,,,,,,wg-a,,,,AAXX 12004 07747 12662 21412 10110 20080 30055 40112 58014 60006 81532 90000=
07747,1996-12-12 03:00:00,12,1009.2,-1.9,82,9,12000,14.816,,,150,,,,,,,,,,,wg-a,,,,AAXX 12034 07747 12562 71508 10120 20090 30036 40092 58019 60006 8185/ 90300=
07747,1996-12-12 06:00:00,7,1009.6,0.3,93,6,8000,11.112,,,290,6.6,12.1,,,,,,,,,wg-a,,,,AAXX 12064 07747 02/58 32906 10070 20060 30039 40096 53003 60006 8303/ 90600 333 10121 20066 60004=
07747,1996-12-12 09:00:00,10,1011.1,1.5,87,8,20000,14.816,,,270,,,,,,,,,,,wg-a,,,,AAXX 12094 07747 12670 52708 10100 20080 30054 40111 53015 60006 81832 90900=
07747,1996-12-12 12:00:00,16,1010.3,-0.7,59,8,20000,7.408,,,320,,,,,,,,,,,wg-a,,,,AAXX 12124 07747 12570 /3204 10160 20080 30047 40103 58007 60006 81131 91200=
07747,1996-12-12 15:00:00,15,1010,-0.3,72,10,15000,11.112,,,70,,,,,,,,,,,wg-a,,,,AAXX 12154 07747 12565 /0706 10150 20100 30044 40100 55003 60006 81131 91500=
07747,1996-12-12 18:00:00,12,1010.3,0.3,88,10,7000,11.112,,,70,7.1,16.5,,,,,,,,,wg-a,,,,AAXX 12184 07747 12357 50706 10120 20100 30047 40103 51003 60006 85600 91800 333 10165 20071=
07747,1996-12-12 21:00:00,11,1009.4,-0.9,100,11,8000,7.408,,,90,,,,,,,,,,,wg-a,,,,AAXX 12214 07747 12258 70904 10110 20110 30038 40094 58009 60006 876// 92100=
07747,1996-12-13 00:00:00,11,1007.5,-1.9,94,10,8000,7.408,,,10,,,,,,,,,,,wg-a,,,,AAXX 13004 07747 12258 70104 10110 20100 30019 40075 58019 60006 876// 90000=
07747,1996-12-13 03:00:00,10,1005.2,-2.3,93,9,8000,0,,,0,,,,,,,,,,,wg-a,,,,AAXX 13034 07747 12258 70000 10100 20090 39996 40052 58023 60006 876// 90300=
07747,1996-12-13 06:00:00,10,1003,-2.2,93,9,10000,7.408,,,270,9.6,11.6,,,,,,,,,wg-a,,,,AAXX 13064 07747 02360 72704 10100 20090 39974 40030 56022 60006 8453/ 90600 333 10116 20096 60004=
07747,1996-12-13 09:00:00,11,1002.9,-0.1,94,10,9000,11.112,,,270,,,,,,,,,,,wg-a,,,,AAXX 13094 07747 12459 72706 10110 20100 39973 40029 55001 60006 8553/ 90900=
07747,1996-12-13 12:00:00,13,1001.1,-1.8,88,11,9000,3.704,,,250,,,,,,,,,,,wg-a,,,,AAXX 13124 07747 12459 82502 10130 20110 39955 40011 58018 60006 875// 91200=
07747,1996-12-13 15:00:00,14,1000,-1,88,12,8000,3.704,,,100,,,,,,,,,,,wg-a,,,,AAXX 13154 07747 12458 81002 10140 20120 39945 40000 56010 60006 875// 91500=
07747,1996-12-13 18:00:00,11,1000,-0.1,100,11,3000,3.704,,,190,9,14.5,,,,,,,,21,wg-a,,,,AAXX 13184 07747 02430 81902 10110 20110 39944 40000 56001 61000 72162 8557/ 91800 333 10145 20090 ////=
07747,1996-12-13 21:00:00,9,999.9,-0.1,93,8,1500,7.408,,,280,,,,,,,,,,10,wg-a,,,,AAXX 13214 07747 12215 22804 10090 20080 39943 49999 58001 60006 71011 82600 92100=
07747,1996-12-14 00:00:00,8,999,-1,93,7,200,0,,,0,,,,,,,,,,44,wg-a,,,,AAXX 14004 07747 12102 30000 10080 20070 39933 49990 58010 60006 74441 83600 90000=
07747,1996-12-14 03:00:00,8,998.3,-0.7,100,8,500,3.704,,,10,,,,,,,,,,3,wg-a,,,,AAXX 14034 07747 12300 70102 10080 20080 39926 49983 56007 60006 70341 876// 90300=
07747,1996-12-14 06:00:00,10,998.2,-0,100,10,6000,7.408,,,320,7,11.5,,,,,,,,1,wg-a,,,,AAXX 14064 07747 02456 83204 10100 20100 39926 49982 55000 60006 70141 886// 90600 333 10115 20070 61000=
07747,1996-12-14 09:00:00,11,999.7,1.5,94,10,6000,7.408,,,310,,,,,,,,,,,wg-a,,,,AAXX 14094 07747 12456 83104 10110 20100 39941 49997 53015 60006 886// 90900=
07747,1996-12-14 12:00:00,12,1000.7,1,88,10,15000,14.816,,,290,,,,,,,,,,2,wg-a,,,,AAXX 14124 07747 02465 82908 10120 20100 39951 40007 50010 61000 70286 878// 91200 333 6100=
07747,1996-12-14 15:00:00,13,1002.1,1.4,82,10,15000,22.224,,,320,,,,,,,,,,21,wg-a,,,,AAXX 14154 07747 02465 73212 10130 20100 39965 40021 53014 61000 72162 878// 91500 333 ////=
07747,1996-12-14 18:00:00,13,1004.7,2.6,77,9,10000,25.928,,,320,9.4,12.8,,,,,,,,3,wg-a,,,,AAXX 14184 07747 32460 83214 10130 20090 39991 40047 53026 70362 876// 91800 333 10128 20094=
07747,1996-12-14 21:00:00,11,1007.5,2.7,76,7,25000,38.892,,59.264,320,,,,,,,,,,,wg-a,,,,AAXX 14214 07747 12575 /3221 10110 20070 30018 40075 51027 60006 85830 92100 333 91032=
07747,1996-12-15 00:00:00,9,1009.8,2.3,76,5,25000,35.188,,,340,,,,,,,,,,,wg-a,,,,AAXX 15004 07747 12575 23419 10090 20050 30041 40098 51023 60006 82100 90000=
07747,1996-12-15 03:00:00,9,1010.7,0.9,71,4,25000,25.928,,,340,,,,,,,,,,,wg-a,,,,AAXX 15034 07747 12575 /3414 10090 20040 30050 40107 50009 60006 81100 90300=
07747,1996-12-15 06:00:00,8,1012,1.3,76,4,25000,11.112,,33.336,290,8,12.9,,,,,,,,,wg-a,,,,AAXX 15064 07747 02/75 02906 10080 20040 30063 40120 53013 60006 80000 90600 333 10129 20080 61000 91018=
07747,1996-12-15 09:00:00,9,1014.4,2.4,71,4,60000,18.52,,,310,,,,,,,,,,,wg-a,,,,AAXX 15094 07747 12586 /3110 10090 20040 30087 40144 51024 60006 81100 90900=
07747,1996-12-15 12:00:00,13,1014,-0.4,58,5,75000,3.704,,,130,,,,,,,,,,,wg-a,,,,AAXX 15124 07747 12589 /1302 10130 20050 30083 40140 58004 60006 81801 91200=
07747,1996-12-15 15:00:00,10,1013.8,-0.2,76,6,35000,11.112,,,160,,,,,,,,,,,wg-a,,,,AAXX 15154 07747 12581 31606 10100 20060 30081 40138 55002 60006 82801 91500=
07747,1996-12-15 18:00:00,9,1015,1.2,87,7,20000,7.408,,,290,7.6,13.9,,,,,,,,,wg-a,,,,AAXX 15184 07747 12470 72904 10090 20070 30093 40150 53012 60006 878// 91800 333 10139 20076=
07747,1996-12-15 21:00:00,8,1016.1,1,76,4,15000,3.704,,,60,,,,,,,,,,,wg-a,,,,AAXX 15214 07747 12465 80602 10080 20040 30103 40161 51010 60006 888// 92100=
07747,1996-12-16 00:00:00,7,1016.4,0.3,81,4,15000,3.704,,,20,,,,,,,,,,,wg-a,,,,AAXX 16004 07747 12465 80202 10070 20040 30106 40164 50003 60006 888// 90000=
07747,1996-12-16 03:00:00,7,1016.3,-0.1,81,4,15000,3.704,,,50,,,,,,,,,,,wg-a,,,,AAXX 16034 07747 12365 80502 10070 20040 30105 40163 56001 60006 885// 90300=
07747,1996-12-16 06:00:00,7,1016.4,0.1,81,4,10000,3.704,,,360,7,9.3,,,,,,,,,wg-a,,,,AAXX 16064 07747 02260 83602 10070 20040 30106 40164 53001 60006 885// 90600 333 10093 20070 60004=
07747,1996-12-16 09:00:00,8,1017.1,0.7,81,5,9000,7.408,,,320,,,,,,,,,,,wg-a,,,,AAXX 16094 07747 12459 73204 10080 20050 30113 40171 53007 60006 875// 90900=
07747,1996-12-16 12:00:00,10,1016.5,-0.5,82,7,10000,3.704,,,30,,,,,,,,,,,wg-a,,,,AAXX 16124 07747 12460 70302 10100 20070 30108 40165 58005 60006 875// 91200=
07747,1996-12-16 15:00:00,10,1015.2,-1.3,82,7,10000,11.112,,,40,,,,0,,,,,,,wg-a,,,,AAXX 16154 07747 12460 30406 10100 20070 30095 40152 56013 60007 83500 91500=
07747,1996-12-16 18:00:00,7,1016,0.7,93,6,9000,7.408,,,330,6.9,11.3,,,,,,,,,wg-a,,,,AAXX 16184 07747 32459 23304 10070 20060 30102 40160 51007 82500 91800 333 10113 20069=
07747,1996-12-16 21:00:00,5,1016.1,0.1,93,4,6000,7.408,,,270,,,,,,,,,,,wg-a,,,,AAXX 16214 07747 12456 /2704 10050 20040 30103 40161 50001 60006 81600 92100=
07747,1996-12-17 00:00:00,4,1015.8,-0.3,100,4,500,3.704,,,280,,,,,,,,,,,wg-a,,,,AAXX 17004 07747 12400 12802 10040 20040 30100 40158 58003 60006 81600 90000=
07747,1996-12-17 03:00:00,4,1015.9,0.1,100,4,4000,11.112,,,260,,,,,,,,,,10,wg-a,,,,AAXX 17034 07747 12440 /2606 10040 20040 30101 40159 53001 60006 71000 81600 90300=
07747,1996-12-17 06:00:00,3,1016.8,0.8,100,3,2500,7.408,,,280,2.7,7.4,,,,,,,,10,wg-a,,,,AAXX 17064 07747 02425 /2804 10030 20030 30109 40168 53008 60006 71000 81600 90600 333 10074 20027 60004=
07747,1996-12-17 09:00:00,6,1017.4,0.7,100,6,500,3.704,,,250,,,,,,,,,,,wg-a,,,,AAXX 17094 07747 12400 22502 10060 20060 30116 40174 53007 60006 81601 90900=
07747,1996-12-17 12:00:00,11,1016.6,-0.7,76,7,8000,3.704,,,40,,,,,,,,,,,wg-a,,,,AAXX 17124 07747 12458 70402 10110 20070 30109 40166 58007 60006 81601 91200=
07747,1996-12-17 15:00:00,10,1015.2,-1.4,76,6,12000,7.408,,,30,,,,0,,,,,,,wg-a,,,,AAXX 17154 07747 12562 70304 10100 20060 30095 40152 56014 60007 81531 91500=
07747,1996-12-17 18:00:00,7,1015.4,0.1,93,6,9000,7.408,,,270,2.3,12,,,,,,,,,wg-a,,,,AAXX 17184 07747 12459 /2704 10070 20060 30096 40154 53001 60006 81530 91800 333 10120 20023=
07747,1996-12-17 21:00:00,6,1015.4,0,93,5,6000,7.408,,,280,,,,,,,,,,,wg-a,,,,AAXX 17214 07747 12456 /2804 10060 20050 30096 40154 50000 60006 81530 92100=
07747,1996-12-18 00:00:00,5,1014,-1.4,100,5,3000,7.408,,,300,,,,,,,,,,,wg-a,,,,AAXX 18004 07747 12230 /3004 10050 20050 30082 40140 58014 60006 81600 90000=
07747,1996-12-18 03:00:00,5,1012.9,-1.1,100,5,3000,7.408,,,300,,,,0,,,,,,,wg-a,,,,AAXX 18034 07747 12230 /3004 10050 20050 30071 40129 58011 60007 81600 90300=
07747,1996-12-18 06:00:00,4,1011.2,-1.7,100,4,3000,3.704,,,270,4.2,6.8,,,,,,,,,wg-a,,,,AAXX 18064 07747 02230 72702 10040 20040 30054 40112 56017 60006 875// 90600 333 10068 20042 60004=
07747,1996-12-18 09:00:00,7,1010.4,-0.7,100,7,1500,0,,,0,,,,,,,,,,,wg-a,,,,AAXX 18094 07747 12215 40000 10070 20070 30047 40104 56007 60006 83531 90900=
07747,1996-12-18 12:00:00,11,1007.9,-2.4,87,9,7000,7.408,,,50,,,,,,,,,,,wg-a,,,,AAXX 18124 07747 12357 60504 10110 20090 30023 40079 58024 60006 84531 91200=
07747,1996-12-18 15:00:00,13,1005.6,-2.3,82,10,9000,7.408,,,80,,,,,,,,,,,wg-a,,,,AAXX 18154 07747 12459 70804 10130 20100 30000 40056 56023 60006 81532 91500=
07747,1996-12-18 18:00:00,10,1005.3,-0.4,87,8,500,3.704,,,240,4,13.2,,,,,,,,,wg-a,,,,AAXX 18184 07747 12400 72402 10100 20080 39996 40053 56004 60006 81532 91800 333 10132 20040=
07747,1996-12-18 21:00:00,14,1004.8,-0.4,82,11,10000,25.928,,,150,,,,,,,,,,,wg-a,,,,AAXX 18214 07747 12460 81514 10140 20110 39992 40048 58004 60006 83832 92100=
07747,1996-12-19 00:00:00,14,1004.2,-0.6,82,11,12000,7.408,,,170,,,,,,,,,,,wg-a,,,,AAXX 19004 07747 12462 71704 10140 20110 39986 40042 56006 60006 83142 90000=
07747,1996-12-19 03:00:00,12,1002.9,-1.3,88,10,15000,3.704,,,350,,,,,,,,,,,wg-a,,,,AAXX 19034 07747 12565 53502 10120 20100 39973 40029 58013 60006 82142 90300=
07747,1996-12-19 06:00:00,11,1001.2,-1.7,94,10,10000,3.704,,,240,9.5,14.5,,,,,,,,,wg-a,,,,AAXX 19064 07747 02460 72402 10110 20100 39956 40012 56017 60006 8314/ 90600 333 10145 20095 60004=
07747,1996-12-19 09:00:00,12,1001.1,-0.1,100,12,500,7.408,,,310,,,,,,,,,,60,wg-a,,,,AAXX 19094 07747 02100 83104 10120 20120 39955 40011 56001 61000 76062 888// 90900 333 ////=
07747,1996-12-19 12:00:00,14,999.5,-1.5,88,12,25000,3.704,,,320,,,,,,,,,,2,wg-a,,,,AAXX 19124 07747 02175 83202 10140 20120 39940 49995 58015 61000 70262 875// 91200 333 6100=
07747,1996-12-19 15:00:00,15,999.6,0.1,88,13,20000,14.816,,,340,,,,,,,,,,,wg-a,,,,AAXX 19154 07747 12470 73408 10150 20130 39941 49996 53001 60006 8683/ 91500=
07747,1996-12-19 18:00:00,14,1001.2,1.5,88,12,7000,11.112,,,130,10.8,15.2,,,,,,,,,wg-a,,,,AAXX 19184 07747 12357 81306 10140 20120 39956 40012 53015 60006 887// 91800 333 10152 20108=
07747,1996-12-19 21:00:00,13,1001.7,0.5,72,8,25000,31.484,,,320,,,,,,,,,,,wg-a,,,,AAXX 19214 07747 12475 83217 10130 20080 39961 40017 50005 60006 887// 92100=
07747,1996-12-20 00:00:00,12,1002.4,0.7,76,8,25000,7.408,,,250,,,,,,,,,,21,wg-a,,,,AAXX 20004 07747 02275 82504 10120 20080 39968 40024 51007 61000 72162 887// 90000 333 6100=
07747,1996-12-20 03:00:00,9,1002,-0.5,87,7,25000,11.112,,,230,,,,,,,,,,,wg-a,,,,AAXX 20034 07747 12575 22306 10090 20070 39963 40020 58005 60006 82530 90300=
07747,1996-12-20 06:00:00,7,1001.4,-0.6,93,6,25000,3.704,,,250,7.1,13.5,,,,,1,,,,wg-a,,,,AAXX 20064 07747 02575 32502 10070 20060 39957 40014 56006 60006 82530 90600 333 10135 20071 60014=
07747,1996-12-20 09:00:00,10,1000.8,-0.5,87,8,35000,11.112,,,10,,,,0,,,,,,,wg-a,,,,AAXX 20094 07747 12481 30106 10100 20080 39952 40008 58005 60007 81103 90900=
07747,1996-12-20 12:00:00,14,999.5,-1.3,67,8,15000,18.52,,,50,,,,,,,,,,,wg-a,,,,AAXX 20124 07747 12465 70510 10140 20080 39939 49995 58013 60006 83202 91200=
07747,1996-12-20 15:00:00,12,1000.3,0.8,88,10,12000,11.112,,,50,,,,,,,,,,,wg-a,,,,AAXX 20154 07747 12362 /0506 10120 20100 39947 40003 53008 60006 86200 91500=
07747,1996-12-20 18:00:00,10,1001.4,1.1,93,9,9000,7.408,,,290,6.2,14.2,,,,,,,,,wg-a,,,,AAXX 20184 07747 12759 /2904 10100 20090 39958 40014 52011 60006 86500 91800 333 10142 20062=
07747,1996-12-20 21:00:00,8,1001.7,0.2,93,7,4000,3.704,,,290,,,,,,,,,,10,wg-a,,,,AAXX 20214 07747 12440 72902 10080 20070 39960 40017 51002 60006 71011 877// 92100=
07747,1996-12-21 00:00:00,9,1001.3,-0.4,93,8,4000,7.408,,,350,,,,,,,,,,10,wg-a,,,,AAXX 21004 07747 12440 83504 10090 20080 39956 40013 58004 60006 71011 877// 90000=
07747,1996-12-21 03:00:00,9,1000.5,-0.7,100,9,500,3.704,,,340,,,,,,,,,,,wg-a,,,,AAXX 21034 07747 12400 83402 10090 20090 39949 40005 56007 60006 877// 90300=
07747,1996-12-21 06:00:00,9,1000,-0.6,93,8,500,11.112,,,10,6.9,9.9,,,,,,,,,wg-a,,,,AAXX 21064 07747 02200 80106 10090 20080 39943 40000 56006 60006 887// 90600 333 10099 20069 60004=
07747,1996-12-21 09:00:00,15,1000.2,0.4,77,11,20000,29.632,,48.152,160,,,,,,,,,,,wg-a,,,,AAXX 21094 07747 12570 71616 10150 20110 39947 40002 53004 60006 83842 90900 333 91026=
07747,1996-12-21 12:00:00,16,998.8,-1.4,77,12,20000,25.928,,,160,,,,,,,,,,,wg-a,,,,AAXX 21124 07747 12570 71614 10160 20120 39933 49988 56014 60006 82872 91200=
07747,1996-12-21 15:00:00,15,998.2,-0.6,82,12,500,29.632,,,150,,,,,,,,,,,wg-a,,,,AAXX 21154 07747 12500 71516 10150 20120 39927 49982 55006 60006 84842 91500=
07747,1996-12-21 18:00:00,14,1000.2,2,88,12,20000,11.112,,,120,8.4,17.8,,,,,,,,,wg-a,,,,AAXX 21184 07747 12570 /1206 10140 20120 39947 40002 53020 60006 82842 91800 333 10178 20084=
07747,1996-12-21 21:00:00,14,1001.2,1,88,12,15000,22.224,,,160,,,,,,,,,,,wg-a,,,,AAXX 21214 07747 12565 21612 10140 20120 39957 40012 50010 60006 82100 92100=
07747,1996-12-22 00:00:00,14,1001.7,0.5,82,11,15000,31.484,,,150,,,,,,,,,,,wg-a,,,,AAXX 22004 07747 12665 /1517 10140 20110 39962 40017 50005 60006 82501 90000=
07747,1996-12-22 03:00:00,14,1002.9,1.1,82,11,15000,25.928,,,150,,,,,,,,,,,wg-a,,,,AAXX 22034 07747 12665 71514 10140 20110 39973 40029 51011 60006 84502 90300=
07747,1996-12-22 06:00:00,13,1002.9,-0,88,11,15000,25.928,,,130,13,15,,,,,,,,,wg-a,,,,AAXX 22064 07747 02665 41314 10130 20110 39973 40029 55000 60006 84500 90600 333 10150 20130 60004=
07747,1996-12-22 09:00:00,14,1003.8,0.9,94,13,9000,22.224,,,130,,,,,,,,,,,wg-a,,,,AAXX 22094 07747 12259 71312 10140 20130 39982 40038 53009 60006 86632 90900=
07747,1996-12-22 12:00:00,15,1001.9,-1.8,88,13,7000,31.484,,,130,,,,,,,,,,,wg-a,,,,AAXX 22124 07747 12257 71317 10150 20130 39964 40019 58018 60006 8563/ 91200=
07747,1996-12-22 15:00:00,15,1000.8,-1.1,82,12,7000,22.224,,,140,,,,,,,,,,,wg-a,,,,AAXX 22154 07747 12457 71412 10150 20120 39953 40008 56011 60006 83641 91500=
07747,1996-12-22 18:00:00,14,1000.3,-0.5,88,12,6000,7.408,,,120,12.8,16,,,,,,,,,wg-a,,,,AAXX 22184 07747 12256 81204 10140 20120 39948 40003 57005 60006 8167/ 91800 333 10160 20128=
07747,1996-12-22 21:00:00,16,998.9,-1.4,72,11,8000,25.928,,,180,,,,,,,,,,,wg-a,,,,AAXX 22214 07747 12358 81814 10160 20110 39934 49989 57014 60006 8267/ 92100=
07747,1996-12-23 00:00:00,12,999,0,88,10,10000,11.112,,,200,,,,,,,,,,,wg-a,,,,AAXX 23004 07747 12360 42006 10120 20100 39934 49990 50000 60006 81630 90000=
07747,1996-12-23 03:00:00,9,998.7,-0.3,93,8,10000,7.408,,,320,,,,,,,,,,,wg-a,,,,AAXX 23034 07747 12/60 03204 10090 20080 39931 49987 56003 60006 80000 90300=
07747,1996-12-23 06:00:00,7,999.1,0.3,93,6,10000,11.112,,,230,6.8,15.7,,,,,,,,,wg-a,,,,AAXX 23064 07747 02/60 52306 10070 20060 39934 49991 53003 60006 82041 90600 333 10157 20068 60004=
07747,1996-12-23 09:00:00,9,999.2,0.2,93,8,10000,3.704,,,260,,,,,,,,,,,wg-a,,,,AAXX 23094 07747 12/60 /2602 10090 20080 39936 49992 51002 60006 90900=
07747,1996-12-23 12:00:00,13,998.1,-1,82,10,11000,7.408,,,360,,,,,,,,,,,wg-a,,,,AAXX 23124 07747 12/61 /3604 10130 20100 39926 49981 58010 60006 91200=
07747,1996-12-23 15:00:00,13,997.3,-0.8,88,11,9000,11.112,,,80,,,,,,,,,,,wg-a,,,,AAXX 23154 07747 12059 50806 10130 20110 39918 49973 56008 60006 81631 91500=
07747,1996-12-23 18:00:00,11,998.1,0.7,94,10,500,3.704,,,20,6.3,15,,,,,,,,47,wg-a,,,,AAXX 23184 07747 12/05 90202 10110 20100 39925 49981 52007 60006 74742 89/// 91800 333 10150 20063=
07747,1996-12-23 21:00:00,11,997.5,-0.6,94,10,200,0,,,0,,,,,,,,,,43,wg-a,,,,AAXX 23214 07747 12/02 90000 10110 20100 39919 49975 58006 60006 74344 89/// 92100=
07747,1996-12-24 00:00:00,10,996.9,-0.6,100,10,1100,3.704,,,320,,,,,,,,,,10,wg-a,,,,AAXX 24004 07747 12111 83202 10100 20100 39913 49969 58006 60006 71042 886// 90000=
07747,1996-12-24 03:00:00,9,995.9,-1,100,9,7000,3.704,,,230,,,,,,,,,,,wg-a,,,,AAXX 24034 07747 12157 82302 10090 20090 39903 49959 58010 60006 886// 90300=
07747,1996-12-24 06:00:00,10,995.8,-0.1,93,9,7000,3.704,,,280,9.3,10.7,,,,,,,,,wg-a,,,,AAXX 24064 07747 02257 82802 10100 20090 39902 49958 55001 60006 886// 90600 333 10107 20093 60004=
07747,1996-12-24 09:00:00,11,996.1,0.3,87,9,8000,3.704,,,310,,,,,,,,,,,wg-a,,,,AAXX 24094 07747 12358 83102 10110 20090 39905 49961 51003 60006 885// 90900=
07747,1996-12-24 12:00:00,13,995.2,-0.8,77,9,10000,3.704,,,190,,,,,,,,,,,wg-a,,,,AAXX 24124 07747 12460 71902 10130 20090 39897 49952 58008 60006 872// 91200=
07747,1996-12-24 15:00:00,12,994.6,-0.7,88,10,3000,11.112,,,60,,,,,,,,,,10,wg-a,,,,AAXX 24154 07747 02230 80606 10120 20100 39890 49946 56007 61000 71062 887// 91500 333 ////=
07747,1996-12-24 18:00:00,10,995.7,1.1,93,9,1500,14.816,,,300,9.9,12.8,,,,,,,,81,wg-a,,,,AAXX 24184 07747 02115 83008 10100 20090 39901 49957 53011 61000 78196 889// 91800 333 10128 20099 6007=
07747,1996-12-24 21:00:00,11,997.5,1.8,82,8,4000,29.632,,,320,,,,,,,,,,,wg-a,,,,AAXX 24214 07747 32/40 /3216 10110 20080 39919 49975 51018 92100=
07747,1996-12-25 00:00:00,11,999.6,2.1,76,7,15000,18.52,,,320,,,,0,,,,,,1,wg-a,,,,AAXX 25004 07747 02565 63210 10110 20070 39940 49996 51021 60076 70196 82830 90000 333 60007=
07747,1996-12-25 03:00:00,12,1001.7,2.1,71,7,11000,31.484,,,330,,,,,,,,,,,wg-a,,,,AAXX 25034 07747 12/61 /3317 10120 20070 39961 40017 53021 60006 90300=
07747,1996-12-25 06:00:00,11,1003.3,1.6,71,6,11000,31.484,,,320,9.7,12,,,,,14,,,,wg-a,,,,AAXX 25064 07747 02/61 /3217 10110 20060 39977 40033 53016 60006 90600 333 10120 20097 60144=
07747,1996-12-25 09:00:00,11,1005.7,2.4,66,5,20000,25.928,,42.596,330,,,,,,,,,,,wg-a,,,,AAXX 25094 07747 12570 63314 10110 20050 30001 40057 53024 60006 83842 90900 333 91023=
07747,1996-12-25 12:00:00,10,1007,1.2,71,5,20000,38.892,,,310,,,,,,,,,,,wg-a,,,,AAXX 25124 07747 12570 73121 10100 20050 30013 40070 51012 60006 83842 91200=
07747,1996-12-25 15:00:00,9,1008,1,66,3,20000,38.892,,68.524,320,,,,,,,,,,,wg-a,,,,AAXX 25154 07747 12570 73221 10090 20030 30023 40080 53010 60006 83842 91500 333 91037=
07747,1996-12-25 18:00:00,9,1010.2,2.2,57,1,20000,46.3,,75.932,310,8.7,11.7,,,,,,,,,wg-a,,,,AAXX 25184 07747 12570 73125 10090 20010 30045 40102 53022 60006 8287/ 91800 333 10117 20087 91041=
07747,1996-12-25 21:00:00,9,1011.3,1.1,53,0,20000,57.412,,85.192,320,,,,,,,,,,,wg-a,,,,AAXX 25214 07747 12670 53231 10090 20000 30056 40113 53011 60006 83540 92100 333 91046=
07747,1996-12-26 00:00:00,8,1013.1,1.8,66,2,20000,46.3,,,310,,,,,,,,,,,wg-a,,,,AAXX 26004 07747 12670 53125 10080 20020 30074 40131 51018 60006 84140 90000=
07747,1996-12-26 03:00:00,6,1015,1.8,70,1,20000,38.892,,59.264,310,,,,,,,,,,,wg-a,,,,AAXX 26034 07747 12570 33121 10060 20010 30092 40150 51018 60006 83500 90300 333 91032=
07747,1996-12-26 06:00:00,4,1016.6,1.6,70,-1,20000,57.412,,79.636,320,4.3,9.2,,,,,,,,,wg-a,,,,AAXX 26064 07747 02/70 03231 10040 21010 30108 40166 53016 60006 80000 90600 333 10092 20043 60004 91043=
07747,1996-12-26 09:00:00,5,1019.7,3.1,52,-4,50000,35.188,,59.264,320,,,,,,,,,,,wg-a,,,,AAXX 26094 07747 12584 /3219 10050 21040 30139 40197 51031 60006 81100 90900 333 91032=
07747,1996-12-26 12:00:00,7,1021.1,1.4,45,-4,45000,42.596,,,310,,,,,,,,,,,wg-a,,,,AAXX 26124 07747 12783 /3123 10070 21040 30153 40211 50014 60006 81100 91200=
07747,1996-12-26 15:00:00,7,1021.4,0.3,49,-3,40000,42.596,,68.524,340,,,,,,,,,,,wg-a,,,,AAXX 26154 07747 12782 /3423 10070 21030 30156 40214 51003 60006 81500 91500 333 91037=
07747,1996-12-26 18:00:00,4,1024.5,3,44,-7,500,42.596,,,320,3.9,7.5,,,,,,,,,wg-a,,,,AAXX 26184 07747 12/00 03223 10040 21070 30186 40245 53030 60006 80000 91800 333 10075 20039=
07747,1996-12-26 21:00:00,4,1026.2,1.7,44,-7,500,38.892,,,330,,,,,,,,,,,wg-a,,,,AAXX 26214 07747 12/00 03321 10040 21070 30203 40262 51017 60006 80000 92100=
07747,1996-12-27 00:00:00,4,1026.3,0.1,44,-7,500,22.224,,,340,,,,,,,,,,,wg-a,,,,AAXX 27004 07747 12/00 03412 10040 21070 30204 40263 50001 60006 80000 90000=
07747,1996-12-27 03:00:00,1,1027.7,1.3,59,-6,500,7.408,,,140,,,,,,,,,,,wg-a,,,,AAXX 27034 07747 12/00 01404 10010 21060 30217 40277 51013 60006 80000 90300=
07747,1996-12-27 06:00:00,-2,1027.1,-0.7,80,-5,15000,7.408,,,250,-2.3,4.5,,,,,,,,,wg-a,,,,AAXX 27064 07747 02/65 02504 11020 21050 30210 40271 57007 60006 80000 90600 333 10045 21023 60004=
07747,1996-12-27 09:00:00,0,1027.5,0.5,74,-4,10000,7.408,,,90,,,,,,,,,,,wg-a,,,,AAXX 27094 07747 12760 30904 10000 21040 30215 40275 53005 60006 81542 90900=
07747,1996-12-27 12:00:00,3,1025,-2.4,65,-3,10000,7.408,,,120,,,,,,,,,,,wg-a,,,,AAXX 27124 07747 12660 51204 10030 21030 30191 40250 58024 60006 81540 91200=
07747,1996-12-27 15:00:00,5,1023.2,-1.8,60,-2,10000,7.408,,,150,,,,,,,,,,,wg-a,,,,AAXX 27154 07747 12/60 21504 10050 21020 30173 40232 57018 60006 82040 91500=
07747,1996-12-27 18:00:00,2,1021.1,-2.1,75,-2,10000,11.112,,,340,-3.3,5.3,,,,,,,,,wg-a,,,,AAXX 27184 07747 12660 33406 10020 21020 30152 40211 56021 60006 81540 91800 333 10053 21033=
07747,1996-12-27 21:00:00,0,1019,-2.2,86,-2,12000,7.408,,,210,,,,,,,,,,,wg-a,,,,AAXX 27214 07747 12/62 72104 10000 21020 30130 40190 58022 60006 8705/ 92100=
07747,1996-12-28 00:00:00,1,1016.9,-2,86,-1,9000,7.408,,,270,,,,,,,,,,,wg-a,,,,AAXX 28004 07747 12559 72704 10010 21010 30110 40169 58020 60006 875// 90000=
07747,1996-12-28 03:00:00,1,1014.3,-2.6,86,-1,10000,0,,,0,,,,,,,,,,,wg-a,,,,AAXX 28034 07747 12560 70000 10010 21010 30084 40143 56026 60006 875// 90300=
07747,1996-12-28 06:00:00,-1,1013.1,-1.2,86,-3,9000,7.408,,,250,-1.5,1.6,,,,,,,,,wg-a,,,,AAXX 28064 07747 02559 /2504 11010 21030 30072 40131 56012 60006 8153/ 90600 333 10016 21015 60004=
07747,1996-12-28 09:00:00,2,1013,-0.1,75,-2,20000,3.704,,,190,,,,,,,,,,,wg-a,,,,AAXX 28094 07747 12/70 21902 10020 21020 30071 40130 55001 60006 81042 90900=
07747,1996-12-28 12:00:00,8,1010.3,-2.5,25,-11,20000,18.52,,,30,,,,,,,,,,,wg-a,,,,AAXX 28124 07747 12470 30310 10080 21110 30046 40103 58025 60006 81542 91200=
07747,1996-12-28 15:00:00,6,1011,0.6,36,-8,20000,22.224,,,360,,,,,,,,,,,wg-a,,,,AAXX 28154 07747 12470 33612 10060 21080 30052 40110 53006 60006 81542 91500=
07747,1996-12-28 18:00:00,3,1011.4,0.3,38,-10,20000,22.224,,,350,-2.1,8.2,,,,,,,,,wg-a,,,,AAXX 28184 07747 12470 43512 10030 21100 30055 40114 50003 60006 81542 91800 333 10082 21021=
07747,1996-12-28 21:00:00,0,1012.6,1.2,55,-8,10000,7.408,,,50,,,,,,,,,,,wg-a,,,,AAXX 28214 07747 12460 60504 10000 21080 30067 40126 51012 60006 83772 92100=
07747,1996-12-29 00:00:00,-2,1013.1,0.4,69,-7,10000,7.408,,,10,,,,,,,,,,,wg-a,,,,AAXX 29004 07747 12460 70104 11020 21070 30071 40131 50004 60006 8577/ 90000=
07747,1996-12-29 03:00:00,-1,1012.3,-0.7,80,-4,9000,0,,,0,,,,,,,,,,,wg-a,,,,AAXX 29034 07747 12459 80000 11010 21040 30064 40123 56007 60006 877// 90300=
07747,1996-12-29 06:00:00,0,1011.5,-0.8,80,-3,10000,3.704,,,80,-1.7,2.8,,,,,,,,,wg-a,,,,AAXX 29064 07747 02460 80802 10000 21030 30056 40115 56008 60006 887// 90600 333 10028 21017 60004=
07747,1996-12-29 09:00:00,1,1011.8,0.3,75,-3,9000,7.408,,,310,,,,,,,,,,,wg-a,,,,AAXX 29094 07747 12459 83104 10010 21030 30059 40118 53003 60006 885// 90900=
07747,1996-12-29 12:00:00,2,1011.3,-0.5,64,-4,9000,3.704,,,310,,,,,,,,,,,wg-a,,,,AAXX 29124 07747 12559 83102 10020 21040 30054 40113 58005 60006 885// 91200=
07747,1996-12-29 15:00:00,3,1010.6,-0.6,65,-3,10000,7.408,,,300,,,,,,,,,,,wg-a,,,,AAXX 29154 07747 12560 83004 10030 21030 30048 40106 56006 60006 875// 91500=
07747,1996-12-29 18:00:00,2,1010.3,-0.4,80,-1,9000,3.704,,,200,0,2.8,,,,,,,,,wg-a,,,,AAXX 29184 07747 12559 82002 10020 21010 30044 40103 58004 60006 885// 91800 333 10028 20000=
07747,1996-12-29 21:00:00,-1,1009.6,-0.7,86,-3,8000,3.704,,,290,,,,,,,,,,,wg-a,,,,AAXX 29214 07747 12558 22902 11010 21030 30037 40096 58007 60006 82500 92100=
07747,1996-12-30 00:00:00,-3,1008.7,-1,93,-4,10000,7.408,,,270,,,,,,,,,,,wg-a,,,,AAXX 30004 07747 12/60 42704 11030 21040 30027 40087 58010 60006 82031 90000=
07747,1996-12-30 03:00:00,-3,1007.1,-1.6,86,-5,10000,3.704,,,130,,,,,,,,,,,wg-a,,,,AAXX 30034 07747 12/60 41302 11030 21050 30011 40071 56016 60006 82031 90300=
07747,1996-12-30 06:00:00,-4,1005.4,-1.7,86,-6,10000,3.704,,,170,-4.4,2.3,,,,,,,,,wg-a,,,,AAXX 30064 07747 02560 41702 11040 21060 39994 40054 56017 60006 82531 90600 333 10023 21044 60004=
07747,1996-12-30 09:00:00,0,1005.1,-0.2,74,-4,20000,7.408,,,210,,,,,,,,,,,wg-a,,,,AAXX 30094 07747 12670 /2104 10000 21040 39992 40051 58002 60006 81132 90900=
07747,1996-12-30 12:00:00,7,1003.8,-1.1,42,-5,25000,3.704,,,170,,,,,,,,,,,wg-a,,,,AAXX 30124 07747 12675 /1702 10070 21050 39981 40038 58011 60006 81132 91200=
07747,1996-12-30 15:00:00,9,1002.6,-1.2,29,-8,25000,7.408,,,100,,,,,,,,,,,wg-a,,,,AAXX 30154 07747 12775 /1004 10090 21080 39969 40026 55012 60006 81530 91500=
07747,1996-12-30 18:00:00,4,1004.3,1.6,32,-11,20000,18.52,,,310,-4.6,10.1,,,,,,,,,wg-a,,,,AAXX 30184 07747 12770 /3110 10040 21110 39985 40043 53016 60006 81530 91800 333 10101 21046=
07747,1996-12-30 21:00:00,3,1005.3,1,48,-7,20000,18.52,,,310,,,,,,,,,,,wg-a,,,,AAXX 30214 07747 12/70 73110 10030 21070 39995 40053 51010 60006 87050 92100=
07747,1996-12-31 00:00:00,3,1005.5,0.2,52,-6,20000,14.816,,,280,,,,,,,,,,,wg-a,,,,AAXX 31004 07747 12/70 72808 10030 21060 39997 40055 52002 60006 87030 90000=
07747,1996-12-31 03:00:00,1,1005.9,0.4,69,-4,15000,0,,,0,,,,,,,,,,,wg-a,,,,AAXX 31034 07747 12665 80000 10010 21040 30001 40059 52004 60006 8257/ 90300=
07747,1996-12-31 06:00:00,0,1006.9,0.9,80,-3,12000,3.704,,,80,-0.4,3.8,,,,,,,,,wg-a,,,,AAXX 31064 07747 02662 80802 10000 21030 30010 40069 53009 60006 8557/ 90600 333 10038 21004 60004=
07747,1996-12-31 09:00:00,1,1007.5,0.6,80,-2,12000,7.408,,,20,,,,,,,,,,,wg-a,,,,AAXX 31094 07747 12462 80204 10010 21020 30016 40075 53006 60006 885// 90900=
07747,1996-12-31 12:00:00,2,1006.3,-1.1,80,-1,500,3.704,,,40,,,,,,,,,,,wg-a,,,,AAXX 31124 07747 12400 80402 10020 21010 30005 40063 58011 60006 885// 91200=
07747,1996-12-31 15:00:00,1,1005.4,-1,86,-1,1000,7.408,,,320,,,,0,,,,,,71,wg-a,,,,AAXX 31154 07747 12410 83204 10010 21010 39995 40054 55010 60007 77176 885// 91500=
07747,1996-12-31 18:00:00,0,1005.4,0,93,-1,3000,7.408,,,320,-0.5,2.2,,,,,,,,70,wg-a,,1,,AAXX 31184 07747 02430 83204 10000 21010 39995 40054 50000 61000 77076 885// 91800 333 10022 21005 4/001 6000=
07747,1996-12-31 21:00:00,1,1005.3,-0.1,86,-1,9000,7.408,,,250,,,,,,,,,,3,wg-a,,,,AAXX 31214 07747 02459 82504 10010 21010 39994 40053 55001 61000 70372 885// 92100 333 ////=
