station_id,dh_utc,temperature,pression,pression_variation_3h,humidite,point_de_rosee,visibilite,vent_moyen,vent_rafales,vent_rafales_10min,vent_direction,temperature_min,temperature_max,pluie_1h,pluie_3h,pluie_6h,pluie_12h,pluie_24h,ensoleillement,temperature_sol,temps_omm,source,radiations,neige_au_sol,nebulosite,raw_msg
07747,1997-01-01 00:00:00,0,1006.2,0.9,93,-1,7000,11.112,,,220,,,,0,,,,,,1,wg-a,,,,AAXX 01004 07747 02557 /2206 10000 21010 30003 40062 51009 60016 70172 86500 90000 333 60007=
07747,1997-01-01 03:00:00,-1,1007.9,1.7,93,-2,9000,11.112,,,260,,,,,,,,,,,wg-a,,,,AAXX 01034 07747 12559 22606 11010 21020 30020 40079 53017 60006 81540 90300=
07747,1997-01-01 06:00:00,-1,1008.3,0.4,100,-1,9000,7.408,,,340,-2,0.9,,,,,1,,,,wg-a,,,,AAXX 01064 07747 02459 73404 11010 21010 30024 40083 53004 60006 875// 90600 333 10009 21020 60014=
07747,1997-01-01 09:00:00,2,1012.1,3.8,87,0,10000,7.408,,,320,,,,3,,,,,,,wg-a,,,,AAXX 01094 07747 12260 83204 10020 20000 30062 40121 53038 60037 875// 90900=
07747,1997-01-01 12:00:00,4,1013.3,1.3,87,2,12000,3.704,,,220,,,,,,,,,,,wg-a,,,,AAXX 01124 07747 12462 82202 10040 20020 30075 40133 51013 60036 875// 91200=
07747,1997-01-01 15:00:00,6,1013.8,0.5,75,2,9000,3.704,,,140,,,,,,,,,,,wg-a,,,,AAXX 01154 07747 12559 /1402 10060 20020 30080 40138 53005 60006 86800 91500=
07747,1997-01-01 18:00:00,4,1014.7,0.9,87,2,4000,3.704,,,250,-0.5,7.1,,,,,,,,10,wg-a,,,,AAXX 01184 07747 12440 82502 10040 20020 30089 40147 51009 60006 71022 885// 91800 333 10071 21005=
07747,1997-01-01 21:00:00,3,1015.2,0.4,93,2,4000,0,,,0,,,,,,,,,,,wg-a,,,,AAXX 01214 07747 12/40 /0000 10030 20020 30093 40152 51004 60006 92100=
07747,1997-01-02 00:00:00,3,1013.8,-1.4,93,2,0,3.704,,,220,,,,,,,,,,,wg-a,,,,AAXX 02004 07747 12/// /2202 10030 20020 30079 40138 58014 60006 90000=
07747,1997-01-02 03:00:00,4,1012,-1.7,93,3,500,7.408,,,300,,,,,,,,,,,wg-a,,,,AAXX 02034 07747 12/00 /3004 10040 20030 30062 40120 58017 60006 90300=
07747,1997-01-02 06:00:00,4,1009.8,-2.2,93,3,3000,14.816,,,280,2.8,4,,,,,,,,63,wg-a,,,,AAXX 02064 07747 02430 82808 10040 20030 30040 40098 56022 61000 76362 885// 90600 333 10040 20028 6003=
07747,1997-01-02 09:00:00,4,1008,-1.8,93,3,8000,14.816,,,270,,,,2,,,,,,61,wg-a,,,,AAXX 02094 07747 12458 82708 10040 20030 30022 40080 56018 60027 76166 885// 90900=
07747,1997-01-02 12:00:00,7,1005.1,-2.8,87,5,20000,7.408,,,320,,,,3,,,,,,3,wg-a,,,,AAXX 02124 07747 02470 73204 10070 20050 39994 40051 58028 60066 70362 875// 91200 333 60037=
07747,1997-01-02 15:00:00,6,1004.8,-0.3,93,5,20000,7.408,,,340,,,,,,,,,,,wg-a,,,,AAXX 02154 07747 12570 73404 10060 20050 39991 40048 56003 60006 875// 91500=
07747,1997-01-02 18:00:00,6,1004.7,-0.1,81,3,20000,11.112,,,280,3.4,6.7,,,,,,,,,wg-a,,,,AAXX 02184 07747 12670 /2806 10060 20030 39990 40047 55001 60006 8553/ 91800 333 10067 20034=
07747,1997-01-02 21:00:00,5,1005.1,0.3,93,4,10000,3.704,,,160,,,,,,,,,,,wg-a,,,,AAXX 02214 07747 12460 81602 10050 20040 39993 40051 50003 60006 878// 92100=
07747,1997-01-03 00:00:00,5,1004.4,-0.7,87,3,9000,7.408,,,40,,,,,,,,,,,wg-a,,,,AAXX 03004 07747 12159 80404 10050 20030 39986 40044 58007 60006 887// 90000=
07747,1997-01-03 03:00:00,6,1001.8,-2.5,93,5,10000,11.112,,,50,,,,,,,,,,,wg-a,,,,AAXX 03034 07747 12260 70506 10060 20050 39961 40018 58025 60006 877// 90300=
07747,1997-01-03 06:00:00,5,999.7,-2.1,93,4,10000,3.704,,,70,4,6.2,,,,,3,,,,wg-a,,,,AAXX 03064 07747 02460 80702 10050 20040 39940 49997 57021 60006 875// 90600 333 10062 20040 60034=
07747,1997-01-03 09:00:00,10,998.3,-1.3,87,8,20000,18.52,,,140,,,,2,,,,,,,wg-a,,,,AAXX 03094 07747 12470 81410 10100 20080 39927 49983 58013 60027 8787/ 90900=
07747,1997-01-03 12:00:00,10,991.7,-6.6,93,9,8000,31.484,,50.004,140,,,,7,,,,,,29,wg-a,,,,AAXX 03124 07747 02258 81417 10100 20090 39861 49917 57066 60096 72996 8797/ 91200 333 60077 91027=
07747,1997-01-03 15:00:00,11,987,-4.6,58,3,20000,38.892,,,190,,,,0,,,,,,1,wg-a,,,,AAXX 03154 07747 12570 31921 10110 20030 39815 49870 56046 60007 70161 82802 91500=
07747,1997-01-03 18:00:00,6,993.6,6.4,75,2,20000,18.52,,,60,5,12.6,,,,,,,,3,wg-a,,,,AAXX 03184 07747 12570 /0610 10060 20020 39879 49936 51064 60006 70361 81950 91800 333 10126 20050=
07747,1997-01-03 21:00:00,4,993.9,0.3,81,1,20000,7.408,,,160,,,,,,,,,,,wg-a,,,,AAXX 03214 07747 12/70 01604 10040 20010 39882 49939 51003 60006 80000 92100=
07747,1997-01-04 00:00:00,1,993.2,-0.8,93,0,20000,3.704,,,270,,,,,,,,,,,wg-a,,,,AAXX 04004 07747 12570 62702 10010 20000 39874 49932 58008 60006 83530 90000=
07747,1997-01-04 03:00:00,3,994.2,1.1,87,1,20000,7.408,,,270,,,,,,,,,,,wg-a,,,,AAXX 04034 07747 12570 /2704 10030 20010 39885 49942 53011 60006 83530 90300=
07747,1997-01-04 06:00:00,5,996.3,2.1,81,2,15000,31.484,,48.152,320,0.5,6,,,,,8,,,,wg-a,,,,AAXX 04064 07747 02565 73217 10050 20020 39906 49963 53021 60006 8357/ 90600 333 10060 20005 60084 91026=
07747,1997-01-04 09:00:00,4,1000.2,3.8,70,-1,15000,38.892,,57.412,310,,,,,,,,,,21,wg-a,,,,AAXX 04094 07747 02465 73121 10040 21010 39944 40002 53038 61000 72162 83842 90900 333 //// 91031=
07747,1997-01-04 12:00:00,7,1000.8,0.7,61,0,20000,42.596,,68.524,310,,,,,,,,,,1,wg-a,,,,AAXX 04124 07747 02570 53123 10070 20000 39951 40008 51007 61000 70162 81841 91200 333 //// 91037=
07747,1997-01-04 15:00:00,6,1001.4,0.6,65,0,15000,53.708,,79.636,310,,,,,,,,,,,wg-a,,,,AAXX 04154 07747 12565 73129 10060 20000 39957 40014 50006 60006 8287/ 91500 333 91043=
07747,1997-01-04 18:00:00,5,1004.3,2.8,81,2,12000,50.004,,72.228,310,3.7,6.7,,,,,,,,80,wg-a,,,,AAXX 04184 07747 02562 73127 10050 20020 39985 40043 53028 61000 78086 8387/ 91800 333 10067 20037 6100 91039=
07747,1997-01-04 21:00:00,5,1008.3,4,70,0,10000,29.632,,,310,,,,,,,,,,21,wg-a,,,,AAXX 04214 07747 02560 /3116 10050 20000 30025 40083 53040 61000 72186 86800 92100 333 ////=
07747,1997-01-05 00:00:00,5,1008.9,0.6,75,1,12000,14.816,,,350,,,,,,,,,,1,wg-a,,,,AAXX 05004 07747 02562 33508 10050 20010 30031 40089 52006 61000 70186 83800 90000 333 ////=
07747,1997-01-05 03:00:00,6,1009,0.1,65,0,15000,25.928,,,330,,,,,,,,,,,wg-a,,,,AAXX 05034 07747 12565 /3314 10060 20000 30032 40090 50001 60006 81100 90300=
07747,1997-01-05 06:00:00,4,1010.1,1.1,70,-1,15000,3.704,,,310,3.8,6.5,,,,,,,,,wg-a,,,,AAXX 05064 07747 02665 /3102 10040 21010 30043 40101 51011 60006 81500 90600 333 10065 20038 61000=
07747,1997-01-05 09:00:00,4,1011.7,1.6,75,0,15000,7.408,,,210,,,,,,,,,,,wg-a,,,,AAXX 05094 07747 12665 /2104 10040 20000 30059 40117 51016 60006 83544 90900=
07747,1997-01-05 12:00:00,9,1011.2,-0.4,49,-1,15000,7.408,,,220,,,,,,,,,,,wg-a,,,,AAXX 05124 07747 12665 /2204 10090 21010 30055 40112 58004 60006 86800 91200=
07747,1997-01-05 15:00:00,10,1010.4,-0.8,50,0,15000,7.408,,,110,,,,,,,,,,,wg-a,,,,AAXX 05154 07747 12665 /1104 10100 20000 30047 40104 56008 60006 86800 91500=
07747,1997-01-05 18:00:00,7,1011,0.5,70,2,15000,3.704,,,30,1.5,10.2,,,,,,,,,wg-a,,,,AAXX 05184 07747 12665 80302 10070 20020 30052 40110 51005 60006 885// 91800 333 10102 20015=
07747,1997-01-05 21:00:00,6,1011.7,0.7,87,4,12000,3.704,,,300,,,,,,,,,,60,wg-a,,,,AAXX 05214 07747 02562 83002 10060 20040 30059 40117 51007 61000 76062 885// 92100 333 ////=
07747,1997-01-06 00:00:00,6,1011.2,-0.5,93,5,500,7.408,,,30,,,,2,,,,,,61,wg-a,,,,AAXX 06004 07747 02400 80304 10060 20050 30054 40112 58005 60026 76162 885// 90000 333 60027=
07747,1997-01-06 03:00:00,5,1010.8,-0.4,93,4,500,18.52,,,40,,,,4,,,,,,61,wg-a,,,,AAXX 06034 07747 12400 80410 10050 20040 30050 40108 56004 60047 76162 885// 90300=
07747,1997-01-06 06:00:00,4,1010.8,-0,93,3,9000,14.816,,,350,4.1,7.2,,,,,,,,21,wg-a,,,,AAXX 06064 07747 02559 83508 10040 20030 30050 40108 54000 61000 72162 885// 90600 333 10072 20041 6009=
07747,1997-01-06 09:00:00,4,1012,1.2,87,2,9000,18.52,,,320,,,,0,,,,,,20,wg-a,,,,AAXX 06094 07747 12259 83210 10040 20020 30062 40120 53012 60007 72052 887// 90900=
07747,1997-01-06 12:00:00,5,1011.2,-0.8,81,2,10000,18.52,,,310,,,,,,,,,,1,wg-a,,,,AAXX 06124 07747 12460 83110 10050 20020 30054 40112 58008 60016 70152 888// 91200=
07747,1997-01-06 15:00:00,6,1010.8,-0.4,70,1,20000,18.52,,,330,,,,,,,,,,,wg-a,,,,AAXX 06154 07747 12570 83310 10060 20010 30050 40108 55004 60006 8627/ 91500=
07747,1997-01-06 18:00:00,5,1010.1,-0.7,65,-1,10000,29.632,,,330,4,6.1,,,,,,,,,wg-a,,,,AAXX 06184 07747 12560 83316 10050 21010 30043 40101 55007 60006 888// 91800 333 10061 20040=
07747,1997-01-06 21:00:00,5,1010.9,0.8,60,-2,10000,42.596,,70.376,340,,,,,,,,,,,wg-a,,,,AAXX 06214 07747 12560 83423 10050 21020 30051 40109 53008 60006 888// 92100 333 91038=
07747,1997-01-07 00:00:00,5,1011.6,0.7,56,-3,10000,35.188,,57.412,340,,,,,,,,,,,wg-a,,,,AAXX 07004 07747 12660 /3419 10050 21030 30058 40116 50007 60006 85500 90000 333 91031=
07747,1997-01-07 03:00:00,5,1012.5,0.9,52,-4,11000,29.632,,,340,,,,,,,,,,,wg-a,,,,AAXX 07034 07747 12/61 /3416 10050 21040 30067 40125 52009 60006 90300=
07747,1997-01-07 06:00:00,5,1013.5,1,52,-4,15000,25.928,,,330,4.6,5.2,,,,,,,,,wg-a,,,,AAXX 07064 07747 02665 /3314 10050 21040 30077 40135 52010 60006 86500 90600 333 10052 20046 60004=
07747,1997-01-07 09:00:00,5,1015.4,1.9,52,-4,500,22.224,,35.188,330,,,,,,,,,,,wg-a,,,,AAXX 07094 07747 12700 /3312 10050 21040 30096 40154 53019 60006 81502 90900 333 91019=
07747,1997-01-07 12:00:00,7,1015,-0.4,45,-4,500,11.112,,,330,,,,,,,,,,,wg-a,,,,AAXX 07124 07747 12700 /3306 10070 21040 30092 40150 58004 60006 81500 91200=
07747,1997-01-07 15:00:00,9,1013.3,-1.6,43,-3,500,3.704,,,130,,,,,,,,,,,wg-a,,,,AAXX 07154 07747 12/00 21302 10090 21030 30076 40133 56016 60006 80001 91500=
07747,1997-01-07 18:00:00,4,1013.8,0.4,70,-1,25000,3.704,,,70,4,9.5,,,,,,,,,wg-a,,,,AAXX 07184 07747 12675 /0702 10040 21010 30080 40138 52004 60006 83532 91800 333 10095 20040=
07747,1997-01-07 21:00:00,3,1011.7,-2.1,87,1,15000,11.112,,,10,,,,,,,,,,,wg-a,,,,AAXX 07214 07747 12565 60106 10030 20010 30059 40117 58021 60006 84532 92100=
07747,1997-01-08 00:00:00,2,1009.3,-2.4,93,1,15000,7.408,,,270,,,,,,,,,,,wg-a,,,,AAXX 08004 07747 12565 72704 10020 20010 30035 40093 58024 60006 8457/ 90000=
07747,1997-01-08 03:00:00,2,1007.2,-2.1,87,0,15000,3.704,,,160,,,,,,,,,,,wg-a,,,,AAXX 08034 07747 12665 81602 10020 20000 30014 40072 56021 60006 875// 90300=
07747,1997-01-08 06:00:00,2,1004.3,-2.9,93,1,15000,3.704,,,320,1.1,4.4,,,,,,,,,wg-a,,,,AAXX 08064 07747 02665 83202 10020 20010 39985 40043 58029 60006 875// 90600 333 10044 20011 60004=
07747,1997-01-08 09:00:00,5,1002.7,-1.6,81,2,20000,3.704,,,230,,,,,,,,,,,wg-a,,,,AAXX 08094 07747 12670 72302 10050 20020 39969 40027 58016 60006 8257/ 90900=
07747,1997-01-08 12:00:00,8,1001.1,-1.5,71,3,20000,11.112,,,250,,,,,,,,,,,wg-a,,,,AAXX 08124 07747 12670 72506 10080 20030 39954 40011 58015 60006 8257/ 91200=
07747,1997-01-08 15:00:00,8,1000.4,-0.7,76,4,20000,7.408,,,300,,,,,,,,,,,wg-a,,,,AAXX 08154 07747 12670 73004 10080 20040 39947 40004 55007 60006 8257/ 91500=
07747,1997-01-08 17:00:00,7,1000,-0.4,81,4,11000,14.816,,,300,2.2,10.2,,,,,,,,,wg-a,,,,AAXX 08174 07747 32/61 /3008 10070 20040 39943 40000 58004 91700 333 10102 20022=
07747,1997-01-08 18:00:00,7,1000,-0.4,81,4,11000,14.816,,,300,2.2,10.2,,,,,,,,,wg-a,,,,AAXX 08184 07747 12/61 /3008 10070 20040 39943 40000 58004 60006 91800 333 10102 20022=
07747,1997-01-08 21:00:00,7,999.8,-0.2,81,4,15000,3.704,,,290,,,,1,,,,,,1,wg-a,,,,AAXX 08214 07747 12665 82902 10070 20040 39941 49998 55002 60017 70162 8257/ 92100=
07747,1997-01-09 00:00:00,6,1000.8,1,87,4,25000,7.408,,,340,,,,,,,,,,1,wg-a,,,,AAXX 09004 07747 12675 43404 10060 20040 39951 40008 53010 60016 70161 81570 90000=
07747,1997-01-09 03:00:00,2,1001.3,0.4,93,1,25000,11.112,,,220,,,,,,,,,,,wg-a,,,,AAXX 09034 07747 12675 22206 10020 20010 39955 40013 53004 60006 81570 90300=
07747,1997-01-09 06:00:00,3,1001.3,-0,93,2,25000,7.408,,,270,1.8,8.1,,,,,1,,,,wg-a,,,,AAXX 09064 07747 02675 /2704 10030 20020 39955 40013 55000 60006 82571 90600 333 10081 20018 60014=
07747,1997-01-09 09:00:00,6,1002.4,1.2,87,4,40000,7.408,,,270,,,,,,,,,,,wg-a,,,,AAXX 09094 07747 12582 72704 10060 20040 39967 40024 51012 60006 86831 90900=
07747,1997-01-09 12:00:00,9,1002.6,0.2,76,5,40000,3.704,,,340,,,,,,,,,,,wg-a,,,,AAXX 09124 07747 12582 73402 10090 20050 39969 40026 50002 60006 8285/ 91200=
07747,1997-01-09 15:00:00,10,1004,1.5,76,6,500,3.704,,,330,,,,0,,,,,,3,wg-a,,,,AAXX 09154 07747 12500 73302 10100 20060 39984 40040 53015 60007 70386 8387/ 91500=
07747,1997-01-09 18:00:00,9,1006.8,2.7,76,5,20000,18.52,,,330,2.5,10.6,,,,,,,,3,wg-a,,,,AAXX 09184 07747 12570 73310 10090 20050 30011 40068 52027 60006 70386 8587/ 91800 333 10106 20025=
07747,1997-01-09 21:00:00,11,1008.8,2,66,5,18000,25.928,,42.596,330,,,,,,,,,,,wg-a,,,,AAXX 09214 07747 12568 /3314 10110 20050 30031 40088 51020 60006 85830 92100 333 91023=
07747,1997-01-10 00:00:00,9,1009.9,1.1,76,5,18000,14.816,,,320,,,,,,,,,,,wg-a,,,,AAXX 10004 07747 12568 33208 10090 20050 30042 40099 51011 60006 83800 90000=
07747,1997-01-10 03:00:00,6,1011.4,1.4,93,5,7000,11.112,,,350,,,,2,,,,,,61,wg-a,,,,AAXX 10034 07747 12457 83506 10060 20050 30056 40114 51014 60027 76161 885// 90300=
07747,1997-01-10 06:00:00,7,1012,0.6,66,1,9000,29.632,,50.004,330,5.7,10.9,,,,,2,,,1,wg-a,,,,AAXX 10064 07747 02459 83316 10070 20010 30062 40120 51006 60006 70161 875// 90600 333 10109 20057 60024 91027=
07747,1997-01-10 09:00:00,7,1013.7,1.7,66,1,50000,38.892,,,320,,,,,,,,,,,wg-a,,,,AAXX 10094 07747 12584 33221 10070 20010 30079 40137 51017 60006 83140 90900=
07747,1997-01-10 12:00:00,8,1013.7,0.1,61,1,50000,46.3,,70.376,310,,,,,,,,,,,wg-a,,,,AAXX 10124 07747 12584 /3125 10080 20010 30080 40137 50001 60006 81100 91200 333 91038=
07747,1997-01-10 15:00:00,9,1014.9,1.2,53,0,50000,35.188,,50.004,330,,,,,,,,,,,wg-a,,,,AAXX 10154 07747 12584 /3319 10090 20000 30092 40149 53012 60006 81101 91500 333 91027=
07747,1997-01-10 18:00:00,6,1017.6,2.6,70,1,25000,25.928,,,350,6.1,9.7,,,,,,,,,wg-a,,,,AAXX 10184 07747 12575 /3514 10060 20010 30118 40176 51026 60006 81100 91800 333 10097 20061=
07747,1997-01-10 21:00:00,7,1018.2,0.6,57,-1,25000,25.928,,,330,,,,,,,,,,,wg-a,,,,AAXX 10214 07747 12/75 03314 10070 21010 30124 40182 50006 60006 80000 92100=
07747,1997-01-11 00:00:00,7,1018.5,0.3,53,-2,25000,22.224,,,290,,,,,,,,,,,wg-a,,,,AAXX 11004 07747 12/75 02912 10070 21020 30127 40185 51003 60006 80000 90000=
07747,1997-01-11 03:00:00,8,1018,-0.5,49,-2,25000,38.892,,62.968,310,,,,,,,,,,,wg-a,,,,AAXX 11034 07747 12/75 03121 10080 21020 30122 40180 58005 60006 80000 90300 333 91034=
07747,1997-01-11 06:00:00,8,1019.5,1.5,49,-2,25000,29.632,,,330,6,8.5,,,,,,,,,wg-a,,,,AAXX 11064 07747 02/75 33316 10080 21020 30137 40195 51015 60006 82041 90600 333 10085 20060 60004=
07747,1997-01-11 09:00:00,11,1020.7,1.3,35,-4,60000,38.892,,59.264,320,,,,,,,,,,,wg-a,,,,AAXX 11094 07747 12/86 13221 10110 21040 30150 40207 53013 60006 81040 90900 333 91032=
07747,1997-01-11 12:00:00,14,1020.6,-0.1,28,-4,60000,42.596,,,330,,,,,,,,,,,wg-a,,,,AAXX 11124 07747 12/86 13323 10140 21040 30149 40206 58001 60006 81040 91200=
07747,1997-01-11 15:00:00,14,1021,0.4,31,-3,60000,18.52,,,340,,,,,,,,,,,wg-a,,,,AAXX 11154 07747 12686 43410 10140 21030 30153 40210 53004 60006 81130 91500=
07747,1997-01-11 18:00:00,11,1022.2,1.2,40,-2,25000,29.632,,,310,7.7,15.2,,,,,,,,,wg-a,,,,AAXX 11184 07747 12575 33116 10110 21020 30165 40222 51012 60006 81530 91800 333 10152 20077=
07747,1997-01-11 21:00:00,11,1022.1,-0.1,35,-4,25000,35.188,,,310,,,,,,,,,,,wg-a,,,,AAXX 11214 07747 12/75 23119 10110 21040 30164 40221 55001 60006 82040 92100=
07747,1997-01-12 00:00:00,12,1022.2,0.1,35,-3,25000,35.188,,,320,,,,,,,,,,,wg-a,,,,AAXX 12004 07747 12/75 23219 10120 21030 30165 40222 51001 60006 82040 90000=
07747,1997-01-12 03:00:00,11,1022.5,0.2,35,-4,25000,25.928,,,300,,,,,,,,,,,wg-a,,,,AAXX 12034 07747 12/75 03014 10110 21040 30167 40225 50002 60006 80000 90300=
07747,1997-01-12 06:00:00,10,1022.7,0.2,34,-5,25000,22.224,,,320,10,11.7,,,,,,,,,wg-a,,,,AAXX 12064 07747 02/75 03212 10100 21050 30169 40227 53002 60006 80000 90600 333 10117 20100 60004=
07747,1997-01-12 09:00:00,12,1023.5,0.9,30,-5,60000,14.816,,,330,,,,,,,,,,,wg-a,,,,AAXX 12094 07747 12/86 13308 10120 21050 30178 40235 53009 60006 80001 90900=
07747,1997-01-12 12:00:00,17,1022.1,-1.3,25,-3,60000,11.112,,,330,,,,,,,,,,,wg-a,,,,AAXX 12124 07747 12/86 13306 10170 21030 30165 40221 58013 60006 80001 91200=
07747,1997-01-12 15:00:00,12,1022.8,0.6,50,2,60000,11.112,,,110,,,,,,,,,,,wg-a,,,,AAXX 12154 07747 12/86 11106 10120 20020 30171 40228 53006 60006 80001 91500=
07747,1997-01-12 18:00:00,8,1023.8,0.9,71,3,25000,3.704,,,340,7.5,17.1,,,,,,,,,wg-a,,,,AAXX 12184 07747 12/75 13402 10080 20030 30180 40238 51009 60006 80001 91800 333 10171 20075=
07747,1997-01-12 21:00:00,3,1024.5,0.6,87,1,10000,0,,,0,,,,,,,,,,,wg-a,,,,AAXX 12214 07747 12/60 00000 10030 20010 30186 40245 51006 60006 80000 92100=
07747,1997-01-13 00:00:00,1,1024.7,0.1,86,-1,10000,0,,,0,,,,,,,,,,,wg-a,,,,AAXX 13004 07747 12/60 00000 10010 21010 30187 40247 50001 60006 80000 90000=
07747,1997-01-13 03:00:00,0,1024.4,-0.3,93,-1,10000,3.704,,,340,,,,,,,,,,,wg-a,,,,AAXX 13034 07747 12/60 03402 10000 21010 30184 40244 58003 60006 80000 90300=
07747,1997-01-13 06:00:00,-1,1024.1,-0.3,93,-2,10000,3.704,,,280,-1.1,7.3,,,,,,,,,wg-a,,,,AAXX 13064 07747 02/60 02802 11010 21020 30181 40241 55003 60006 80000 90600 333 10073 21011 60004=
07747,1997-01-13 09:00:00,5,1024.6,0.6,93,4,8000,3.704,,,340,,,,0,,,,,,,wg-a,,,,AAXX 13094 07747 12358 63402 10050 20040 30187 40246 52006 60007 86500 90900=
07747,1997-01-13 12:00:00,9,1023.9,-0.6,81,6,10000,18.52,,,60,,,,,,,,,,,wg-a,,,,AAXX 13124 07747 12460 20610 10090 20060 30181 40239 58006 60006 82600 91200=
07747,1997-01-13 15:00:00,10,1022.5,-1.3,87,8,10000,18.52,,,50,,,,,,,,,,,wg-a,,,,AAXX 13154 07747 12460 40510 10100 20080 30168 40225 56013 60006 84100 91500=
07747,1997-01-13 18:00:00,8,1022.8,0.2,87,6,10000,3.704,,,20,-1.1,11.4,,,,,,,,,wg-a,,,,AAXX 13184 07747 12/60 00202 10080 20060 30170 40228 53002 60006 80000 91800 333 10114 21011=
07747,1997-01-13 21:00:00,4,1023.3,0.4,93,3,8000,7.408,,,290,,,,,,,,,,,wg-a,,,,AAXX 13214 07747 12/58 02904 10040 20030 30174 40233 51004 60006 80000 92100=
07747,1997-01-14 00:00:00,1,1022.5,-0.8,100,1,6000,3.704,,,330,,,,,,,,,,,wg-a,,,,AAXX 14004 07747 12456 /3302 10010 20010 30166 40225 58008 60006 81600 90000=
07747,1997-01-14 03:00:00,4,1022.1,-0.4,93,3,15000,11.112,,,340,,,,,,,,,,,wg-a,,,,AAXX 14034 07747 12/65 03406 10040 20030 30162 40221 56004 60006 80000 90300=
07747,1997-01-14 06:00:00,4,1022,-0.1,87,2,15000,11.112,,,340,0.9,7.7,,,,,,,,,wg-a,,,,AAXX 14064 07747 02/65 03406 10040 20020 30161 40220 55001 60006 80000 90600 333 10077 20009 60004=
07747,1997-01-14 09:00:00,6,1023,1.1,93,5,18000,14.816,,,10,,,,,,,,,,,wg-a,,,,AAXX 14094 07747 12468 /0108 10060 20050 30172 40230 52011 60006 81100 90900=
07747,1997-01-14 12:00:00,13,1022.3,-0.6,72,8,15000,22.224,,,90,,,,,,,,,,,wg-a,,,,AAXX 14124 07747 12565 /0912 10130 20080 30166 40223 58006 60006 81100 91200=
07747,1997-01-14 15:00:00,13,1022.1,-0.2,72,8,18000,14.816,,,90,,,,,,,,,,,wg-a,,,,AAXX 14154 07747 12568 /0908 10130 20080 30164 40221 55002 60006 81100 91500=
07747,1997-01-14 18:00:00,9,1023,0.8,87,7,12000,7.408,,,80,2.5,13.4,,,,,,,,,wg-a,,,,AAXX 14184 07747 12462 /0804 10090 20070 30172 40230 53008 60006 81100 91800 333 10134 20025=
07747,1997-01-15 00:00:00,6,1025.1,1.3,100,6,4500,3.704,,,350,,,,,,,,,,10,wg-a,,,,AAXX 15004 07747 12445 73502 10060 20060 30192 40251 51013 60006 710// 876// 90000=
07747,1997-01-15 06:00:00,7,1025,0.2,100,7,500,7.408,,,270,3.9,8.6,,,,,,,,,wg-a,,,,AAXX 15064 07747 02500 72704 10070 20070 30192 40250 53002 60006 875// 90600 333 10086 20039 60004=
07747,1997-01-15 09:00:00,8,1026.4,1.4,87,6,500,3.704,,,340,,,,,,,,,,,wg-a,,,,AAXX 15094 07747 12500 83402 10080 20060 30206 40264 51014 60006 875// 90900=
07747,1997-01-15 12:00:00,10,1025.6,-0.8,87,8,4000,14.816,,,50,,,,,,,,,,10,wg-a,,,,AAXX 15124 07747 12240 80508 10100 20080 30198 40256 58008 60006 71022 876// 91200=
07747,1997-01-15 15:00:00,11,1024.6,-0.9,82,8,9000,11.112,,,110,,,,,,,,,,,wg-a,,,,AAXX 15154 07747 12459 71106 10110 20080 30189 40246 55009 60006 878// 91500=
07747,1997-01-15 18:00:00,9,1024.7,-0,87,7,7000,3.704,,,80,7,11.5,,,,,,,,,wg-a,,,,AAXX 15184 07747 12457 60802 10090 20070 30189 40247 55000 60006 86800 91800 333 10115 20070=
07747,1997-01-15 21:00:00,6,1024.5,-0.2,93,5,10000,7.408,,,80,,,,,,,,,,,wg-a,,,,AAXX 15214 07747 12/60 00804 10060 20050 30187 40245 58002 60006 80000 92100=
07747,1997-01-16 00:00:00,9,1024.1,-0.4,87,7,10000,22.224,,,110,,,,,,,,,,,wg-a,,,,AAXX 16004 07747 12560 21112 10090 20070 30183 40241 58004 60006 82500 90000=
07747,1997-01-16 03:00:00,10,1022.7,-1.4,82,7,10000,22.224,,,140,,,,,,,,,,,wg-a,,,,AAXX 16034 07747 12560 21412 10100 20070 30169 40227 56014 60006 82500 90300=
07747,1997-01-16 06:00:00,10,1021.9,-0.7,93,9,10000,29.632,,,140,5.5,10.3,,,,,,,,,wg-a,,,,AAXX 16064 07747 02560 41416 10100 20090 30162 40219 56007 60006 84500 90600 333 10103 20055 60004=
07747,1997-01-16 09:00:00,12,1022.7,0.8,82,9,9000,22.224,,,150,,,,,,,,,,,wg-a,,,,AAXX 16094 07747 12459 21512 10120 20090 30170 40227 53008 60006 82540 90900=
07747,1997-01-16 12:00:00,14,1021.1,-1.6,72,9,15000,29.632,,,140,,,,,,,,,,,wg-a,,,,AAXX 16124 07747 12565 21416 10140 20090 30154 40211 58016 60006 82241 91200=
07747,1997-01-16 15:00:00,14,1019.1,-2,72,9,12000,29.632,,,140,,,,,,,,,,,wg-a,,,,AAXX 16154 07747 12462 21416 10140 20090 30134 40191 56020 60006 81241 91500=
07747,1997-01-16 18:00:00,11,1019.4,0.3,87,9,8000,22.224,,,130,10,15,,,,,,,,,wg-a,,,,AAXX 16184 07747 12458 21312 10110 20090 30137 40194 51003 60006 81140 91800 333 10150 20100=
07747,1997-01-16 21:00:00,11,1019.4,0,87,9,6000,22.224,,,140,,,,,,,,,,,wg-a,,,,AAXX 16214 07747 12456 31412 10110 20090 30137 40194 50000 60006 83100 92100=
07747,1997-01-17 00:00:00,11,1018.4,-1,82,8,9000,18.52,,,140,,,,,,,,,,,wg-a,,,,AAXX 17004 07747 12559 21410 10110 20080 30127 40184 58010 60006 82500 90000=
07747,1997-01-17 03:00:00,11,1017.2,-1.2,82,8,10000,22.224,,,140,,,,,,,,,,,wg-a,,,,AAXX 17034 07747 12560 31412 10110 20080 30115 40172 58012 60006 83500 90300=
07747,1997-01-17 06:00:00,12,1016,-1.2,71,7,10000,22.224,,,150,9.6,12.7,,,,,,,,,wg-a,,,,AAXX 17064 07747 02560 51512 10120 20070 30103 40160 56012 60006 84570 90600 333 10127 20096 60004=
07747,1997-01-17 09:00:00,13,1016.6,0.6,77,9,15000,25.928,,,160,,,,,,,,,,,wg-a,,,,AAXX 17094 07747 12665 /1614 10130 20090 30109 40166 52006 60006 82142 90900=
07747,1997-01-17 12:00:00,13,1016.2,-0.4,77,9,20000,22.224,,,160,,,,,,,,,,,wg-a,,,,AAXX 17124 07747 12670 71612 10130 20090 30105 40162 58004 60006 8217/ 91200=
07747,1997-01-17 15:00:00,12,1016.4,0.2,88,10,10000,11.112,,,150,,,,,,,,,,60,wg-a,,,,AAXX 17154 07747 02460 71506 10120 20100 30107 40164 53002 61000 76062 8357/ 91500 333 ////=
07747,1997-01-17 18:00:00,11,1017.9,1.5,94,10,6000,3.704,,,10,10.8,13.7,,,,,,,,60,wg-a,,,,AAXX 17184 07747 02456 70102 10110 20100 30122 40179 53015 61000 76062 8357/ 91800 333 10137 20108 6002=
07747,1997-01-17 21:00:00,10,1019.7,1.8,82,7,15000,22.224,,,320,,,,2,,,,,,60,wg-a,,,,AAXX 17214 07747 12465 83212 10100 20070 30140 40197 51018 60027 76066 875// 92100=
07747,1997-01-18 00:00:00,10,1020.2,0.4,76,6,20000,18.52,,,320,,,,1,,,,,,61,wg-a,,,,AAXX 18004 07747 02470 83210 10100 20060 30144 40202 50004 60036 76166 875// 90000 333 60017=
07747,1997-01-18 03:00:00,10,1020.2,0.1,76,6,20000,11.112,,,330,,,,1,,,,,,2,wg-a,,,,AAXX 18034 07747 12470 83306 10100 20060 30145 40202 50001 60017 70262 875// 90300=
07747,1997-01-18 06:00:00,9,1019.9,-0.4,81,6,25000,7.408,,,310,8.9,10.9,,,,,5,,,3,wg-a,,,,AAXX 18064 07747 02475 83104 10090 20060 30141 40199 55004 60006 70362 875// 90600 333 10109 20089 60054=
07747,1997-01-18 09:00:00,9,1020.9,1,87,7,20000,7.408,,,260,,,,,,,,,,,wg-a,,,,AAXX 18094 07747 12570 72604 10090 20070 30151 40209 53010 60006 8757/ 90900=
07747,1997-01-18 12:00:00,10,1018.7,-2.1,93,9,12000,7.408,,,100,,,,,,,,,,,wg-a,,,,AAXX 18124 07747 12262 71004 10100 20090 30130 40187 58021 60006 875// 91200=
07747,1997-01-18 15:00:00,11,1015.2,-3.5,87,9,12000,25.928,,,120,,,,,,,,,,,wg-a,,,,AAXX 18154 07747 12462 71214 10110 20090 30095 40152 56035 60006 85832 91500=
07747,1997-01-18 18:00:00,11,1013.8,-1.4,76,7,12000,18.52,,,150,8.2,11.3,,,,,,,,,wg-a,,,,AAXX 18184 07747 12462 71510 10110 20070 30081 40138 56014 60006 8387/ 91800 333 10113 20082=
07747,1997-01-18 21:00:00,12,1012.7,-1.1,67,6,12000,14.816,,,180,,,,,,,,,,,wg-a,,,,AAXX 18214 07747 12462 81808 10120 20060 30070 40127 58011 60006 8187/ 92100=
07747,1997-01-19 00:00:00,9,1012.3,-0.4,87,7,12000,11.112,,,280,,,,,,,,,,,wg-a,,,,AAXX 19004 07747 12662 82806 10090 20070 30066 40123 58004 60006 8157/ 90000=
07747,1997-01-19 03:00:00,8,1011.8,-0.5,87,6,12000,7.408,,,290,,,,,,,,,,,wg-a,,,,AAXX 19034 07747 12662 /2904 10080 20060 30061 40118 56005 60006 81532 90300=
07747,1997-01-19 06:00:00,7,1012,0.1,93,6,12000,3.704,,,10,7.1,12,,,,,,,,,wg-a,,,,AAXX 19064 07747 02662 80102 10070 20060 30062 40120 53001 60006 8157/ 90600 333 10120 20071 60004=
07747,1997-01-19 09:00:00,8,1012.8,0.9,93,7,15000,7.408,,,260,,,,,,,,,,,wg-a,,,,AAXX 19094 07747 12465 72604 10080 20070 30071 40128 53009 60006 82542 90900=
07747,1997-01-19 12:00:00,12,1012.3,-0.5,76,8,20000,0,,,0,,,,,,,,,,,wg-a,,,,AAXX 19124 07747 12670 70000 10120 20080 30066 40123 58005 60006 82542 91200=
07747,1997-01-19 15:00:00,11,1011.3,-1,82,8,20000,3.704,,,120,,,,,,,,,,,wg-a,,,,AAXX 19154 07747 12670 71202 10110 20080 30056 40113 57010 60006 82542 91500=
07747,1997-01-19 18:00:00,9,1011.7,0.4,87,7,15000,7.408,,,210,5.5,11.8,,,,,,,,,wg-a,,,,AAXX 19184 07747 12665 72104 10090 20070 30060 40117 51004 60006 82542 91800 333 10118 20055=
07747,1997-01-19 21:00:00,9,1012.3,0.6,93,8,6000,3.704,,,50,,,,1,,,,,,61,wg-a,,,,AAXX 19214 07747 12556 70502 10090 20080 30066 40123 50006 60017 76162 8457/ 92100=
07747,1997-01-20 00:00:00,9,1010.5,-1.8,93,8,8000,3.704,,,110,,,,1,,,,,,60,wg-a,,,,AAXX 20004 07747 02558 71102 10090 20080 30048 40105 58018 60016 76062 8457/ 90000 333 60017=
07747,1997-01-20 03:00:00,10,1008.1,-2.4,93,9,8000,14.816,,,340,,,,,,,,,,60,wg-a,,,,AAXX 20034 07747 02458 73408 10100 20090 30024 40081 56024 61000 76066 8457/ 90300 333 ////=
07747,1997-01-20 06:00:00,9,1007.4,-0.7,93,8,10000,11.112,,,340,7.9,9.8,,,,,1,,,2,wg-a,,,,AAXX 20064 07747 02460 73406 10090 20080 30017 40074 55007 60006 70262 83571 90600 333 10098 20079 60014=
07747,1997-01-20 09:00:00,10,1009.3,1.9,93,9,12000,3.704,,,310,,,,,,,,,,,wg-a,,,,AAXX 20094 07747 12262 83102 10100 20090 30036 40093 53019 60006 83772 90900=
07747,1997-01-20 12:00:00,12,1010.6,1.4,94,11,12000,3.704,,,50,,,,,,,,,,,wg-a,,,,AAXX 20124 07747 12362 80502 10120 20110 30050 40106 51014 60006 8357/ 91200=
07747,1997-01-20 15:00:00,12,1011.9,1.2,88,10,7000,7.408,,,40,,,,,,,,,,,wg-a,,,,AAXX 20154 07747 12357 80404 10120 20100 30062 40119 53012 60006 8557/ 91500=
07747,1997-01-20 18:00:00,12,1013,1.1,94,11,800,3.704,,,60,7.9,12.7,,,,,,,,46,wg-a,,,,AAXX 20184 07747 02208 80602 10120 20110 30073 40130 51011 61000 74664 887// 91800 333 10127 20079 6100=
07747,1997-01-20 21:00:00,12,1013.8,0.8,94,11,600,7.408,,,100,,,,,,,,,,45,wg-a,,,,AAXX 20214 07747 12/06 91004 10120 20110 30081 40138 53008 60006 74544 89/// 92100=
07747,1997-01-21 00:00:00,12,1014.8,1,94,11,2000,18.52,,,140,,,,,,,,,,10,wg-a,,,,AAXX 21004 07747 12220 71410 10120 20110 30091 40148 51010 60006 71042 877// 90000=
07747,1997-01-21 03:00:00,12,1015.4,0.6,94,11,3000,11.112,,,20,,,,,,,,,,10,wg-a,,,,AAXX 21034 07747 12230 80206 10120 20110 30097 40154 52006 60006 71022 877// 90300=
07747,1997-01-21 06:00:00,12,1016.1,0.7,100,12,3000,11.112,,,120,11,12.5,,,,,,,,10,wg-a,,,,AAXX 21064 07747 02230 81206 10120 20120 30104 40161 53007 60006 71022 877// 90600 333 10125 20110 61000=
07747,1997-01-21 09:00:00,13,1017.6,1.5,94,12,4000,11.112,,,130,,,,,,,,,,,wg-a,,,,AAXX 21094 07747 12/40 /1306 10130 20120 30119 40176 53015 60006 90900=
07747,1997-01-21 12:00:00,13,1017.9,0.3,94,12,6000,18.52,,,100,,,,,,,,,,,wg-a,,,,AAXX 21124 07747 12356 71010 10130 20120 30122 40179 51003 60006 877// 91200=
07747,1997-01-21 15:00:00,14,1016.9,-0.9,88,12,6000,31.484,,,130,,,,,,,,,,,wg-a,,,,AAXX 21154 07747 12356 71317 10140 20120 30113 40169 56009 60006 82502 91500=
07747,1997-01-21 18:00:00,13,1018.9,1.9,94,12,6000,29.632,,,120,12.2,14.2,,,,,,,,,wg-a,,,,AAXX 21184 07747 12356 71216 10130 20120 30132 40189 53019 60006 8557/ 91800 333 10142 20122=
07747,1997-01-21 21:00:00,13,1019.7,0.8,88,11,6000,22.224,,,120,,,,,,,,,,,wg-a,,,,AAXX 21214 07747 12356 81212 10130 20110 30140 40197 51008 60006 8457/ 92100=
07747,1997-01-22 00:00:00,13,1019.7,0,88,11,6000,31.484,,,140,,,,,,,,,,,wg-a,,,,AAXX 22004 07747 12456 81417 10130 20110 30140 40197 50000 60006 8457/ 90000=
07747,1997-01-22 03:00:00,13,1019,-0.7,94,12,6000,29.632,,,150,,,,,,,,,,,wg-a,,,,AAXX 22034 07747 12456 81516 10130 20120 30133 40190 55007 60006 8357/ 90300=
07747,1997-01-22 06:00:00,13,1019.3,0.3,88,11,6000,18.52,,,130,12.8,13.5,,,,,,,,,wg-a,,,,AAXX 22064 07747 02456 81310 10130 20110 30136 40193 53003 60006 875// 90600 333 10135 20128 60004=
07747,1997-01-22 09:00:00,14,1019.5,0.2,88,12,500,29.632,,,130,,,,,,,,,,,wg-a,,,,AAXX 22094 07747 12300 81316 10140 20120 30138 40195 51002 60006 875// 90900=
07747,1997-01-22 12:00:00,18,1019,-0.4,59,10,500,25.928,,,170,,,,,,,,,,,wg-a,,,,AAXX 22124 07747 12300 81714 10180 20100 30134 40190 58004 60006 875// 91200=
07747,1997-01-22 15:00:00,13,1020.3,1.2,94,12,500,35.188,,,120,,,,,,,,,,,wg-a,,,,AAXX 22154 07747 12300 81219 10130 20120 30146 40203 51012 60006 887// 91500=
07747,1997-01-22 18:00:00,13,1021.1,0.8,94,12,3000,38.892,,61.116,150,12.5,18.5,,,,,,,,10,wg-a,,,,AAXX 22184 07747 12130 81521 10130 20120 30154 40211 53008 60006 71022 887// 91800 333 10185 20125 91033=
07747,1997-01-22 21:00:00,12,1021.9,0.8,94,11,6000,25.928,,46.3,130,,,,,,,,,,,wg-a,,,,AAXX 22214 07747 12256 71314 10120 20110 30162 40219 50008 60006 876// 92100 333 91025=
07747,1997-01-23 00:00:00,12,1020.9,-1,94,11,8000,25.928,,,130,,,,,,,,,,,wg-a,,,,AAXX 23004 07747 12358 71314 10120 20110 30152 40209 58010 60006 8467/ 90000=
07747,1997-01-23 03:00:00,12,1021.3,0.4,94,11,8000,22.224,,,120,,,,,,,,,,,wg-a,,,,AAXX 23034 07747 12358 71212 10120 20110 30156 40213 53004 60006 8467/ 90300=
07747,1997-01-23 06:00:00,12,1021.6,0.3,94,11,6000,11.112,,,60,11.8,12.8,,,,,,,,,wg-a,,,,AAXX 23064 07747 02356 70606 10120 20110 30159 40216 53003 60006 8667/ 90600 333 10128 20118 60004=
07747,1997-01-23 09:00:00,13,1022.3,0.7,88,11,3500,11.112,,,110,,,,,,,,,,10,wg-a,,,,AAXX 23094 07747 12435 81106 10130 20110 30166 40223 51007 60006 71022 886// 90900=
07747,1997-01-23 12:00:00,13,1021.9,-0.4,94,12,6000,29.632,,,120,,,,,,,,,,21,wg-a,,,,AAXX 23124 07747 02456 81216 10130 20120 30162 40219 58004 61000 72162 885// 91200 333 6100=
07747,1997-01-23 18:00:00,13,1021.9,0.1,88,11,4500,22.224,,,110,11.9,13.6,,,,,,,,10,wg-a,,,,AAXX 23184 07747 12445 81112 10130 20110 30162 40219 51001 60006 71062 875// 91800 333 10136 20119=
07747,1997-01-23 21:00:00,13,1022.7,0.8,88,11,4000,22.224,,,120,,,,,,,,,,10,wg-a,,,,AAXX 23214 07747 12340 81212 10130 20110 30170 40227 51008 60006 71022 887// 92100=
07747,1997-01-24 00:00:00,13,1022.7,0,88,11,500,18.52,,,120,,,,,,,,,,,wg-a,,,,AAXX 24004 07747 12300 81210 10130 20110 30170 40227 50000 60006 885// 90000=
07747,1997-01-24 03:00:00,12,1022.5,-0.2,94,11,6000,14.816,,,110,,,,,,,,,,2,wg-a,,,,AAXX 24034 07747 02356 81108 10120 20110 30168 40225 55002 61000 70286 885// 90300 333 ////=
07747,1997-01-24 06:00:00,12,1022.9,0.4,94,11,500,18.52,,,110,12.4,12.9,,,,,,,,60,wg-a,,,,AAXX 24064 07747 02300 81110 10120 20110 30172 40229 53004 61000 76086 885// 90600 333 10129 20124 6100=
07747,1997-01-24 09:00:00,12,1024.2,1.3,94,11,3000,18.52,,,90,,,,5,,,,,,63,wg-a,,,,AAXX 24094 07747 12230 80910 10120 20110 30185 40242 52013 60057 76366 885// 90900=
07747,1997-01-24 12:00:00,12,1024.1,-0.1,100,12,3000,18.52,,,80,,,,15,,,,,,61,wg-a,,,,AAXX 24124 07747 02230 80810 10120 20120 30184 40241 58001 60206 76166 887// 91200 333 60157=
07747,1997-01-24 15:00:00,13,1024.1,-0,94,12,500,11.112,,,130,,,,0,,,,,,2,wg-a,,,,AAXX 24154 07747 12300 81306 10130 20120 30184 40241 55000 60007 70262 887// 91500=
07747,1997-01-24 18:00:00,13,1026.2,2.1,94,12,500,7.408,,,120,12.1,12.9,,,,,,,,2,wg-a,,,,AAXX 24184 07747 32200 81204 10130 20120 30205 40262 53021 70262 887// 91800 333 10129 20121=
07747,1997-01-25 00:00:00,12,1026.8,0.1,100,12,800,7.408,,,70,,,,,,,,,,44,wg-a,,,,AAXX 25004 07747 12208 80704 10120 20120 30211 40268 50001 60006 74464 886// 90000=
07747,1997-01-25 03:00:00,12,1026.5,-0.3,100,12,2500,7.408,,,80,,,,0,,,,,,10,wg-a,,,,AAXX 25034 07747 12125 80804 10120 20120 30208 40265 56003 60007 71064 887// 90300=
07747,1997-01-25 06:00:00,11,1026.6,-0,94,10,3000,7.408,,,60,10.9,12.7,,,,,16,,,10,wg-a,,,,AAXX 25064 07747 02330 80604 10110 20100 30208 40266 55000 60006 71064 876// 90600 333 10127 20109 60164=
07747,1997-01-25 09:00:00,11,1027.3,0.7,94,10,6000,7.408,,,40,,,,,,,,,,,wg-a,,,,AAXX 25094 07747 12356 70404 10110 20100 30215 40273 53007 60006 876// 90900=
07747,1997-01-25 12:00:00,13,1026.5,-0.7,82,10,7000,3.704,,,270,,,,,,,,,,,wg-a,,,,AAXX 25124 07747 12457 72702 10130 20100 30208 40265 58007 60006 8653/ 91200=
07747,1997-01-25 15:00:00,14,1024.9,-1.6,82,11,7000,3.704,,,130,,,,,,,,,,,wg-a,,,,AAXX 25154 07747 12457 41302 10140 20110 30192 40249 56016 60006 83831 91500=
07747,1997-01-25 18:00:00,10,1025.7,0.7,93,9,4000,0,,,0,10.3,14.3,,,,,,,,10,wg-a,,,,AAXX 25184 07747 12440 30000 10100 20090 30199 40257 53007 60006 71011 83600 91800 333 10143 20103=
07747,1997-01-25 21:00:00,8,1025.6,-0.1,100,8,4000,3.704,,,210,,,,,,,,,,10,wg-a,,,,AAXX 25214 07747 12340 /2102 10080 20080 30198 40256 58001 60006 71000 81600 92100=
07747,1997-01-26 00:00:00,8,1025.5,-0.1,93,7,7000,7.408,,,260,,,,,,,,,,,wg-a,,,,AAXX 26004 07747 12/57 22604 10080 20070 30197 40255 58001 60006 80001 90000=
07747,1997-01-26 03:00:00,7,1024.5,-1,93,6,15000,3.704,,,260,,,,,,,,,,,wg-a,,,,AAXX 26034 07747 12/65 22602 10070 20060 30187 40245 57010 60006 80001 90300=
07747,1997-01-26 06:00:00,7,1024.1,-0.4,93,6,15000,11.112,,,270,5.7,10.3,,,,,,,,,wg-a,,,,AAXX 26064 07747 02/65 42706 10070 20060 30183 40241 56004 60006 81041 90600 333 10103 20057 60004=
07747,1997-01-26 09:00:00,9,1025.3,1.2,100,9,6000,11.112,,,350,,,,,,,,,,,wg-a,,,,AAXX 26094 07747 12356 43506 10090 20090 30195 40253 51012 60006 8264/ 90900=
07747,1997-01-26 12:00:00,13,1025,-0.2,82,10,7000,3.704,,,110,,,,,,,,,,,wg-a,,,,AAXX 26124 07747 12457 /1102 10130 20100 30193 40250 58002 60006 8253/ 91200=
07747,1997-01-26 15:00:00,12,1024.4,-0.6,82,9,8000,11.112,,,110,,,,,,,,,,,wg-a,,,,AAXX 26154 07747 12458 /1106 10120 20090 30187 40244 55006 60006 81530 91500=
07747,1997-01-26 18:00:00,10,1025.1,0.6,87,8,8000,0,,,0,6.3,13.7,,,,,,,,,wg-a,,,,AAXX 26184 07747 12458 /0000 10100 20080 30193 40251 53006 60006 82531 91800 333 10137 20063=
07747,1997-01-26 21:00:00,8,1026,0.9,93,7,4000,3.704,,,290,,,,,,,,,,10,wg-a,,,,AAXX 26214 07747 12440 /2902 10080 20070 30202 40260 51009 60006 71022 84530 92100=
07747,1997-01-27 00:00:00,7,1026.2,0.2,93,6,6000,0,,,0,,,,,,,,,,,wg-a,,,,AAXX 27004 07747 12456 60000 10070 20060 30204 40262 51002 60006 82530 90000=
07747,1997-01-27 03:00:00,6,1026.7,0.4,100,6,500,0,,,0,,,,,,,,,,,wg-a,,,,AAXX 27034 07747 12400 70000 10060 20060 30208 40267 51004 60006 8353/ 90300=
07747,1997-01-27 06:00:00,9,1027.3,0.7,93,8,4000,3.704,,,340,6.4,9.9,,,,,,,,10,wg-a,,,,AAXX 27064 07747 02340 83402 10090 20080 30215 40273 52007 60006 71022 876// 90600 333 10099 20064 60004=
07747,1997-01-27 09:00:00,9,1029,1.7,93,8,4500,3.704,,,160,,,,,,,,,,10,wg-a,,,,AAXX 27094 07747 12445 81602 10090 20080 30232 40290 51017 60006 71022 876// 90900=
07747,1997-01-27 12:00:00,12,1028.8,-0.2,82,9,500,3.704,,,190,,,,,,,,,,,wg-a,,,,AAXX 27124 07747 12400 71902 10120 20090 30230 40288 58002 60006 8263/ 91200=
07747,1997-01-27 15:00:00,12,1027.8,-0.9,88,10,3500,11.112,,,120,,,,,,,,,,10,wg-a,,,,AAXX 27154 07747 12435 71206 10120 20100 30221 40278 55009 60006 71022 8267/ 91500=
07747,1997-01-27 18:00:00,11,1028.8,0.9,87,9,3000,3.704,,,240,8.5,13.1,,,,,,,,10,wg-a,,,,AAXX 27184 07747 12430 82402 10110 20090 30230 40288 53009 60006 71022 8357/ 91800 333 10131 20085=
07747,1997-01-27 21:00:00,10,1029.3,0.5,87,8,500,11.112,,,290,,,,,,,,,,,wg-a,,,,AAXX 27214 07747 12400 82906 10100 20080 30235 40293 51005 60006 8357/ 92100=
07747,1997-01-28 00:00:00,10,1029.6,0.3,76,6,9000,18.52,,,330,,,,,,,,,,,wg-a,,,,AAXX 28004 07747 12559 33310 10100 20060 30238 40296 53003 60006 8153/ 90000=
07747,1997-01-28 03:00:00,9,1028.8,-0.8,76,5,10000,25.928,,,320,,,,,,,,,,,wg-a,,,,AAXX 28034 07747 12560 33214 10090 20050 30230 40288 56008 60006 81530 90300=
07747,1997-01-28 06:00:00,7,1028.7,-0.2,76,3,15000,31.484,,,330,6.5,10.8,,,,,,,,,wg-a,,,,AAXX 28064 07747 02565 33317 10070 20030 30228 40287 58002 60006 81530 90600 333 10108 20065 60004=
07747,1997-01-28 09:00:00,7,1030.3,1.6,70,2,12000,25.928,,,340,,,,,,,,,,,wg-a,,,,AAXX 28094 07747 12562 53414 10070 20020 30244 40303 51016 60006 85800 90900=
07747,1997-01-28 12:00:00,8,1030.1,-0.1,66,2,20000,22.224,,,350,,,,,,,,,,,wg-a,,,,AAXX 28124 07747 12570 /3512 10080 20020 30243 40301 58001 60006 86800 91200=
07747,1997-01-28 15:00:00,7,1031,0.8,66,1,10000,18.52,,,10,,,,,,,,,,,wg-a,,,,AAXX 28154 07747 12560 70110 10070 20010 30251 40310 53008 60006 875// 91500=
07747,1997-01-28 18:00:00,6,1032.4,1.4,70,1,9000,7.408,,,320,6,8.1,,,,,,,,60,wg-a,,,,AAXX 28184 07747 02559 73204 10060 20010 30265 40324 53014 61000 76062 8454/ 91800 333 10081 20060 6100=
07747,1997-01-28 21:00:00,5,1033.4,1,87,3,8000,11.112,,,240,,,,0,,,,,,21,wg-a,,,,AAXX 28214 07747 12558 72406 10050 20030 30275 40334 51010 60007 72162 875// 92100=
07747,1997-01-29 00:00:00,5,1033.5,0.1,87,3,10000,3.704,,,250,,,,,,,,,,2,wg-a,,,,AAXX 29004 07747 12660 72502 10050 20030 30276 40335 53001 60006 70262 875// 90000=
07747,1997-01-29 03:00:00,5,1033.4,-0.1,87,3,10000,3.704,,,310,,,,,,,,,,,wg-a,,,,AAXX 29034 07747 12560 73102 10050 20030 30275 40334 56001 60006 875// 90300=
07747,1997-01-29 06:00:00,6,1033.2,-0.2,87,4,9000,0,,,0,4.5,6,,,,,,,,,wg-a,,,,AAXX 29064 07747 02459 70000 10060 20040 30273 40332 57002 60006 8557/ 90600 333 10060 20045 60004=
07747,1997-01-29 09:00:00,7,1033.5,0.3,93,6,8000,3.704,,,260,,,,,,,,,,,wg-a,,,,AAXX 29094 07747 12458 82602 10070 20060 30276 40335 53003 60006 885// 90900=
07747,1997-01-29 12:00:00,10,1032.6,-0.8,87,8,500,3.704,,,200,,,,0,,,,,,,wg-a,,,,AAXX 29124 07747 02400 82002 10100 20080 30268 40326 58008 60006 885// 91200 333 60007=
07747,1997-01-29 15:00:00,10,1031.6,-1,87,8,500,14.816,,,90,,,,,,,,,,,wg-a,,,,AAXX 29154 07747 12400 80908 10100 20080 30258 40316 56010 60006 885// 91500=
07747,1997-01-29 18:00:00,10,1032,0.4,87,8,4500,7.408,,,80,5.3,10.4,,,,,,,,10,wg-a,,,,AAXX 29184 07747 12545 80804 10100 20080 30262 40320 53004 60006 71022 885// 91800 333 10104 20053=
07747,1997-01-29 21:00:00,9,1032.4,0.4,93,8,4000,0,,,0,,,,,,,,,,10,wg-a,,,,AAXX 29214 07747 12440 70000 10090 20080 30266 40324 51004 60006 71022 875// 92100=
07747,1997-01-30 00:00:00,8,1032.1,-0.3,93,7,4000,7.408,,,50,,,,,,,,,,10,wg-a,,,,AAXX 30004 07747 12440 40504 10080 20070 30263 40321 56003 60006 71011 84500 90000=
07747,1997-01-30 03:00:00,8,1031.8,-0.3,93,7,4000,3.704,,,360,,,,,,,,,,10,wg-a,,,,AAXX 30034 07747 12340 23602 10080 20070 30260 40318 57003 60006 71000 82500 90300=
07747,1997-01-30 06:00:00,7,1032,0.1,100,7,2000,0,,,0,6.8,9.7,,,,,,,,10,wg-a,,,,AAXX 30064 07747 02220 70000 10070 20070 30261 40320 51001 60006 71011 875// 90600 333 10097 20068 60004=
07747,1997-01-30 09:00:00,9,1032.6,0.7,93,8,500,14.816,,,50,,,,,,,,,,,wg-a,,,,AAXX 30094 07747 12200 40508 10090 20080 30268 40326 53007 60006 82532 90900=
07747,1997-01-30 12:00:00,9,1032.3,-0.3,87,7,4500,14.816,,,40,,,,,,,,,,10,wg-a,,,,AAXX 30124 07747 12445 70408 10090 20070 30265 40323 58003 60006 71011 875// 91200=
07747,1997-01-30 15:00:00,10,1030.9,-1.4,82,7,4500,11.112,,,40,,,,,,,,,,10,wg-a,,,,AAXX 30154 07747 12345 70406 10100 20070 30251 40309 56014 60006 71022 875// 91500=
07747,1997-01-30 18:00:00,9,1030.9,-0,87,7,4500,11.112,,,30,6.7,10,,,,,,,,10,wg-a,,,,AAXX 30184 07747 12345 70306 10090 20070 30251 40309 55000 60006 71022 875// 91800 333 10100 20067=
07747,1997-01-31 00:00:00,9,1030.2,-0.4,93,8,0,3.704,,,220,,,,,,,,,,,wg-a,,,,AAXX 31004 07747 12/// /2202 10090 20080 30244 40302 57004 60006 90000=
07747,1997-01-31 03:00:00,9,1029.4,-0.8,93,8,4500,3.704,,,360,,,,,,,,,,,wg-a,,,,AAXX 31034 07747 12445 83602 10090 20080 30236 40294 58008 60006 885// 90300=
07747,1997-01-31 09:00:00,9,1029.8,0.1,87,7,4000,7.408,,,30,,,,,,,,,,10,wg-a,,,,AAXX 31094 07747 12340 70304 10090 20070 30240 40298 50001 60006 71022 875// 90900=
07747,1997-01-31 12:00:00,9,1028.9,-0.9,87,7,4000,7.408,,,70,,,,,,,,,,,wg-a,,,,AAXX 31124 07747 12/40 /0704 10090 20070 30231 40289 58009 60006 91200=
07747,1997-01-31 15:00:00,10,1027.1,-1.8,82,7,4000,7.408,,,100,,,,,,,,,,10,wg-a,,,,AAXX 31154 07747 12440 71004 10100 20070 30213 40271 56018 60006 71022 875// 91500=
07747,1997-01-31 18:00:00,7,1027.3,0.2,93,6,500,0,,,0,7.4,9.7,,,,,,,,,wg-a,,,,AAXX 31184 07747 12500 20000 10070 20060 30215 40273 53002 60006 82500 91800 333 10097 20074=
07747,1997-01-31 21:00:00,5,1027.3,-0.1,93,4,3000,7.408,,,280,,,,,,,,,,10,wg-a,,,,AAXX 31214 07747 12430 42804 10050 20040 30214 40273 58001 60006 71000 84500 92100=
07747,1997-02-01 00:00:00,4,1027.2,-0.1,93,3,3000,3.704,,,280,,,,,,,,,,10,wg-a,,,,AAXX 01004 07747 12430 32802 10040 20030 30213 40272 58001 60006 71000 82530 90000=
07747,1997-02-01 03:00:00,4,1026.6,-0.6,93,3,500,3.704,,,40,,,,,,,,,,,wg-a,,,,AAXX 01034 07747 12400 20402 10040 20030 30207 40266 58006 60006 82530 90300=
07747,1997-02-01 06:00:00,3,1026.7,0.1,93,2,500,0,,,0,2.7,7.3,,,,,,,,,wg-a,,,,AAXX 01064 07747 02400 20000 10030 20020 30208 40267 53001 60006 82530 90600 333 10073 20027 60004=
07747,1997-02-01 09:00:00,13,1026.7,0.2,77,9,8000,22.224,,,320,,,,,,,,,,,wg-a,,,,AAXX 01094 07747 12558 /3212 10130 20090 30210 40267 50002 60006 81100 90900=
07747,1997-02-01 15:00:00,15,1026,-0,67,9,20000,22.224,,,320,,,,,,,,,,,wg-a,,,,AAXX 01154 07747 12570 33212 10150 20090 30203 40260 55000 60006 82831 91500=
07747,1997-02-01 18:00:00,13,1026.6,0.6,67,7,20000,18.52,,,310,2.5,16.6,,,,,,,,,wg-a,,,,AAXX 01184 07747 12570 /3110 10130 20070 30209 40266 53006 60006 81852 91800 333 10166 20025=
07747,1997-02-01 21:00:00,11,1027.1,0.4,76,7,15000,11.112,,,280,,,,,,,,,,,wg-a,,,,AAXX 01214 07747 12565 /2806 10110 20070 30213 40271 51004 60006 81130 92100=
07747,1997-02-02 06:00:00,9,1025.3,-0.5,81,6,12000,11.112,,,270,6.9,12.8,,,,,,,,,wg-a,,,,AAXX 02064 07747 02562 72706 10090 20060 30195 40253 56005 60006 8457/ 90600 333 10128 20069 60004=
07747,1997-02-02 09:00:00,13,1026,0.8,67,7,20000,0,,,0,,,,,,,,,,,wg-a,,,,AAXX 02094 07747 12570 40000 10130 20070 30203 40260 51008 60006 82830 90900=
07747,1997-02-02 12:00:00,15,1025.4,-0.6,63,8,12000,11.112,,,170,,,,,,,,,,,wg-a,,,,AAXX 02124 07747 12562 51706 10150 20080 30197 40254 58006 60006 84830 91200=
07747,1997-02-02 15:00:00,12,1024.8,-0.6,71,7,9000,11.112,,,100,,,,,,,,,,,wg-a,,,,AAXX 02154 07747 12559 61006 10120 20070 30191 40248 55006 60006 81831 91500=
07747,1997-02-02 18:00:00,10,1025.4,0.5,87,8,7000,3.704,,,30,8.5,15.6,,,,,,,,,wg-a,,,,AAXX 02184 07747 12557 70302 10100 20080 30196 40254 53005 60006 83531 91800 333 10156 20085=
07747,1997-02-02 21:00:00,9,1026.1,0.7,93,8,8000,3.704,,,330,,,,,,,,,,,wg-a,,,,AAXX 02214 07747 12558 73302 10090 20080 30203 40261 52007 60006 875// 92100=
07747,1997-02-03 00:00:00,7,1025.8,-0.3,93,6,8000,0,,,0,,,,,,,,,,,wg-a,,,,AAXX 03004 07747 12558 50000 10070 20060 30200 40258 58003 60006 8253/ 90000=
07747,1997-02-03 06:00:00,8,1025.2,0.3,93,7,6000,3.704,,,90,6.9,9.9,,,,,,,,60,wg-a,,,,AAXX 03064 07747 02456 70902 10080 20070 30194 40252 51003 61000 76062 8557/ 90600 333 10099 20069 6000=
07747,1997-02-03 09:00:00,8,1026.4,1.2,93,7,500,3.704,,,120,,,,0,,,,,,21,wg-a,,,,AAXX 03094 07747 12300 81202 10080 20070 30206 40264 51012 60007 72162 875// 90900=
07747,1997-02-03 12:00:00,10,1026.4,0,82,7,15000,11.112,,,310,,,,0,,,,,,1,wg-a,,,,AAXX 03124 07747 02465 73106 10100 20070 30206 40264 50000 60016 70162 855// 91200 333 60007=
07747,1997-02-03 15:00:00,11,1025.9,-0.4,71,6,20000,18.52,,,10,,,,,,,,,,,wg-a,,,,AAXX 03154 07747 12570 70110 10110 20060 30202 40259 55004 60006 8584/ 91500=
07747,1997-02-03 18:00:00,10,1027.1,1.1,76,6,20000,3.704,,,70,7.8,11.7,,,,,,,,,wg-a,,,,AAXX 03184 07747 12670 70702 10100 20060 30213 40271 53011 60006 8684/ 91800 333 10117 20078=
07747,1997-02-03 21:00:00,10,1027.8,0.7,76,6,20000,11.112,,,300,,,,,,,,,,,wg-a,,,,AAXX 03214 07747 12570 /3006 10100 20060 30220 40278 51007 60006 83840 92100=
07747,1997-02-04 00:00:00,9,1028.2,0.4,71,4,25000,7.408,,,270,,,,,,,,,,,wg-a,,,,AAXX 04004 07747 12675 /2704 10090 20040 30224 40282 53004 60006 82540 90000=
07747,1997-02-04 03:00:00,9,1027.4,-0.8,71,4,25000,14.816,,,280,,,,,,,,,,,wg-a,,,,AAXX 04034 07747 12675 42808 10090 20040 30216 40274 55008 60006 81540 90300=
07747,1997-02-04 06:00:00,5,1027.8,0.3,87,3,25000,3.704,,,300,4.9,10,,,,,,,,,wg-a,,,,AAXX 04064 07747 02675 /3002 10050 20030 30219 40278 53003 60006 81500 90600 333 10100 20049 60004=
07747,1997-02-04 09:00:00,9,1028.3,0.6,71,4,20000,7.408,,,280,,,,,,,,,,,wg-a,,,,AAXX 04094 07747 12670 22804 10090 20040 30225 40283 53006 60006 81501 90900=
07747,1997-02-04 12:00:00,12,1027.5,-0.7,62,5,15000,11.112,,,110,,,,,,,,,,,wg-a,,,,AAXX 04124 07747 12665 /1106 10120 20050 30218 40275 58007 60006 81501 91200=
07747,1997-02-04 15:00:00,11,1025.8,-1.8,71,6,10000,11.112,,,130,,,,,,,,,,,wg-a,,,,AAXX 04154 07747 12560 /1306 10110 20060 30200 40258 56018 60006 81500 91500=
07747,1997-02-04 18:00:00,8,1026.7,0.9,87,6,8000,3.704,,,160,4.2,12.2,,,,,,,,,wg-a,,,,AAXX 04184 07747 12558 31602 10080 20060 30209 40267 53009 60006 83500 91800 333 10122 20042=
07747,1997-02-04 21:00:00,5,1027.2,0.4,93,4,7000,7.408,,,280,,,,,,,,,,,wg-a,,,,AAXX 04214 07747 12457 /2804 10050 20040 30213 40272 51004 60006 81500 92100=
07747,1997-02-05 00:00:00,3,1027.3,0.1,100,3,7000,7.408,,,260,,,,,,,,,,,wg-a,,,,AAXX 05004 07747 12/57 /2604 10030 20030 30214 40273 50001 60006 90000=
07747,1997-02-05 03:00:00,2,1026.8,-0.5,93,1,7000,11.112,,,250,,,,,,,,,,,wg-a,,,,AAXX 05034 07747 12/57 02506 10020 20010 30209 40268 58005 60006 80000 90300=
07747,1997-02-05 06:00:00,4,1026.7,-0.1,87,2,15000,11.112,,,260,1.9,7.7,,,,,,,,,wg-a,,,,AAXX 05064 07747 02/65 42606 10040 20020 30208 40267 55001 60006 81041 90600 333 10077 20019 60004=
07747,1997-02-05 09:00:00,7,1027.5,0.9,81,4,60000,11.112,,,240,,,,,,,,,,,wg-a,,,,AAXX 05094 07747 12786 72406 10070 20040 30217 40275 51009 60006 81532 90900=
07747,1997-02-05 12:00:00,14,1026.3,-1.1,58,6,40000,7.408,,,230,,,,,,,,,,,wg-a,,,,AAXX 05124 07747 12782 32304 10140 20060 30206 40263 58011 60006 81542 91200=
07747,1997-02-05 15:00:00,15,1025.2,-1.1,63,8,500,38.892,,,320,,,,,,,,,,,wg-a,,,,AAXX 05154 07747 12500 33221 10150 20080 30195 40252 56011 60006 82841 91500=
07747,1997-02-05 18:00:00,13,1027.1,1.9,58,5,500,3.704,,,80,3.9,16.8,,,,,,,,,wg-a,,,,AAXX 05184 07747 12600 50802 10130 20050 30214 40271 51019 60006 83542 91800 333 10168 20039=
07747,1997-02-05 21:00:00,14,1029,1.9,58,6,500,25.928,,,330,,,,,,,,,,,wg-a,,,,AAXX 05214 07747 12600 /3314 10140 20060 30233 40290 53019 60006 86500 92100=
07747,1997-02-06 00:00:00,13,1029.9,0.9,58,5,500,18.52,,,320,,,,,,,,,,,wg-a,,,,AAXX 06004 07747 12600 23210 10130 20050 30242 40299 50009 60006 82500 90000=
07747,1997-02-06 03:00:00,11,1028.8,-1.2,66,5,500,25.928,,,330,,,,,,,,,,,wg-a,,,,AAXX 06034 07747 12600 23314 10110 20050 30230 40288 58012 60006 82500 90300=
07747,1997-02-06 06:00:00,9,1030,1.2,71,4,20000,11.112,,,320,9.3,13.9,,,,,,,,,wg-a,,,,AAXX 06064 07747 02/70 03206 10090 20040 30242 40300 51012 60006 80000 90600 333 10139 20093 60004=
07747,1997-02-06 09:00:00,13,1030.2,0.2,47,2,60000,22.224,,,330,,,,,,,,,,,wg-a,,,,AAXX 06094 07747 12/86 23312 10130 20020 30244 40302 50002 60006 81041 90900=
07747,1997-02-06 12:00:00,19,1029.5,-0.5,18,-6,60000,11.112,,,10,,,,,,,,,,,wg-a,,,,AAXX 06124 07747 12/86 10106 10190 21060 30239 40295 58005 60006 81041 91200=
07747,1997-02-06 15:00:00,17,1029.7,0.1,19,-7,60000,14.816,,,120,,,,,,,,,,,wg-a,,,,AAXX 06154 07747 12/86 11208 10170 21070 30240 40297 53001 60006 81040 91500=
07747,1997-02-06 18:00:00,10,1031.3,1.5,71,5,25000,3.704,,,160,8.6,19.4,,,,,,,,,wg-a,,,,AAXX 06184 07747 12/75 01602 10100 20050 30255 40313 51015 60006 80000 91800 333 10194 20086=
07747,1997-02-06 21:00:00,5,1032.3,0.9,93,4,25000,7.408,,,280,,,,,,,,,,,wg-a,,,,AAXX 06214 07747 12/75 02804 10050 20040 30264 40323 52009 60006 80000 92100=
07747,1997-02-07 00:00:00,3,1032.4,-0,87,1,25000,0,,,0,,,,,,,,,,,wg-a,,,,AAXX 07004 07747 12/75 00000 10030 20010 30264 40324 54000 60006 80000 90000=
07747,1997-02-07 03:00:00,4,1031.5,-0.8,93,3,25000,11.112,,,350,,,,,,,,,,,wg-a,,,,AAXX 07034 07747 12/75 03506 10040 20030 30256 40315 58008 60006 80000 90300=
07747,1997-02-07 06:00:00,1,1031.8,0.2,93,0,500,7.408,,,260,0.9,9.9,,,,,,,,,wg-a,,,,AAXX 07064 07747 02/00 02604 10010 20000 30258 40318 53002 60006 80000 90600 333 10099 20009 60004=
07747,1997-02-07 09:00:00,8,1033.5,1.8,71,3,45000,3.704,,,50,,,,,,,,,,,wg-a,,,,AAXX 07094 07747 12683 /0502 10080 20030 30276 40335 51018 60006 81102 90900=
07747,1997-02-07 12:00:00,16,1033.1,-0.2,42,3,45000,25.928,,,130,,,,,,,,,,,wg-a,,,,AAXX 07124 07747 12683 /1314 10160 20030 30274 40331 58002 60006 81102 91200=
07747,1997-02-07 15:00:00,14,1032.2,-0.9,44,2,500,29.632,,,130,,,,,,,,,,,wg-a,,,,AAXX 07154 07747 12500 /1316 10140 20020 30265 40322 56009 60006 81100 91500=
07747,1997-02-07 18:00:00,10,1033.2,0.9,82,7,15000,11.112,,,30,1,15.9,,,,,,,,,wg-a,,,,AAXX 07184 07747 12565 /0306 10100 20070 30274 40332 53009 60006 81100 91800 333 10159 20010=
07747,1997-02-07 21:00:00,7,1033.8,0.5,87,5,20000,3.704,,,60,,,,,,,,,,,wg-a,,,,AAXX 07214 07747 12570 /0602 10070 20050 30279 40338 51005 60006 81100 92100=
07747,1997-02-08 00:00:00,7,1034.2,0.4,93,6,20000,11.112,,,330,,,,,,,,,,,wg-a,,,,AAXX 08004 07747 12570 /3306 10070 20060 30283 40342 52004 60006 81100 90000=
07747,1997-02-08 03:00:00,3,1033.6,-0.7,93,2,15000,7.408,,,260,,,,,,,,,,,wg-a,,,,AAXX 08034 07747 12565 /2604 10030 20020 30276 40336 56007 60006 81100 90300=
07747,1997-02-08 06:00:00,4,1034.3,0.7,93,3,8000,11.112,,,260,2.4,9.5,,,,,,,,,wg-a,,,,AAXX 08064 07747 02358 /2606 10040 20030 30283 40343 52007 60006 85600 90600 333 10095 20024 60004=
07747,1997-02-08 09:00:00,8,1034.4,0.2,93,7,6000,3.704,,,250,,,,,,,,,,,wg-a,,,,AAXX 08094 07747 12356 32502 10080 20070 30285 40344 51002 60006 83600 90900=
07747,1997-02-08 12:00:00,12,1033.5,-0.8,71,7,10000,7.408,,,90,,,,,,,,,,,wg-a,,,,AAXX 08124 07747 12460 20904 10120 20070 30277 40335 58008 60006 82100 91200=
07747,1997-02-08 15:00:00,12,1032.1,-1.4,67,6,15000,11.112,,,70,,,,,,,,,,,wg-a,,,,AAXX 08154 07747 12/65 00706 10120 20060 30263 40321 56014 60006 80000 91500=
07747,1997-02-08 18:00:00,9,1032.3,0.2,87,7,10000,3.704,,,30,3.2,12.6,,,,,,,,,wg-a,,,,AAXX 08184 07747 12/60 00302 10090 20070 30265 40323 53002 60006 80000 91800 333 10126 20032=
07747,1997-02-09 00:00:00,3,1033.1,0.1,93,2,7000,3.704,,,260,,,,,,,,,,,wg-a,,,,AAXX 09004 07747 12457 /2602 10030 20020 30271 40331 51001 60006 81600 90000=
07747,1997-02-09 03:00:00,4,1032.1,-0.9,93,3,7000,3.704,,,270,,,,,,,,,,,wg-a,,,,AAXX 09034 07747 12457 /2702 10040 20030 30262 40321 58009 60006 85600 90300=
07747,1997-02-09 06:00:00,3,1032.1,-0.1,100,3,7000,7.408,,,240,2.2,8.7,,,,,,,,,wg-a,,,,AAXX 09064 07747 02457 82404 10030 20030 30261 40321 55001 60006 876// 90600 333 10087 20022 60004=
07747,1997-02-09 09:00:00,8,1032.9,0.9,87,6,8000,3.704,,,300,,,,,,,,,,,wg-a,,,,AAXX 09094 07747 12458 83002 10080 20060 30270 40329 51009 60006 875// 90900=
07747,1997-02-09 12:00:00,12,1032.3,-0.5,71,7,9000,0,,,0,,,,,,,,,,,wg-a,,,,AAXX 09124 07747 12459 50000 10120 20070 30265 40323 58005 60006 83541 91200=
07747,1997-02-09 15:00:00,13,1030.5,-1.7,72,8,9000,11.112,,,120,,,,,,,,,,,wg-a,,,,AAXX 09154 07747 12459 51206 10130 20080 30248 40305 56017 60006 81541 91500=
07747,1997-02-09 18:00:00,8,1030.9,0.3,87,6,9000,3.704,,,220,3.3,14.1,,,,,,,,,wg-a,,,,AAXX 09184 07747 12559 /2202 10080 20060 30251 40309 53003 60006 81541 91800 333 10141 20033=
07747,1997-02-09 21:00:00,6,1031.2,0.2,100,6,6000,3.704,,,350,,,,,,,,,,,wg-a,,,,AAXX 09214 07747 12556 /3502 10060 20060 30253 40312 52002 60006 81500 92100=
07747,1997-02-10 00:00:00,3,1031.1,-0.2,93,2,500,7.408,,,270,,,,,,,,,,,wg-a,,,,AAXX 10004 07747 12/00 02704 10030 20020 30251 40311 58002 60006 80000 90000=
07747,1997-02-10 03:00:00,1,1030.4,-0.7,93,0,500,3.704,,,240,,,,,,,,,,,wg-a,,,,AAXX 10034 07747 12/00 /2402 10010 20000 30244 40304 58007 60006 90300=
07747,1997-02-10 06:00:00,1,1030.2,-0.2,93,0,10000,3.704,,,90,0.6,8.3,,,,,,,,,wg-a,,,,AAXX 10064 07747 02460 20902 10010 20000 30242 40302 56002 60006 81501 90600 333 10083 20006 60004=
07747,1997-02-10 09:00:00,6,1030.4,0.3,93,5,300,7.408,,,330,,,,,,,,,,43,wg-a,,,,AAXX 10094 07747 32/03 93304 10060 20050 30245 40304 50003 74341 89/// 90900=
07747,1997-02-10 12:00:00,9,1029.9,-0.4,93,8,500,3.704,,,310,,,,,,,,,,1,wg-a,,,,AAXX 10124 07747 12300 83102 10090 20080 30241 40299 58004 60006 70141 876// 91200=
07747,1997-02-10 15:00:00,10,1028.4,-1.5,82,7,6000,11.112,,,100,,,,,,,,,,,wg-a,,,,AAXX 10154 07747 12456 81006 10100 20070 30226 40284 56015 60006 886// 91500=
07747,1997-02-10 18:00:00,9,1028.6,0.2,87,7,500,3.704,,,230,0.6,10.5,,,,,,,,,wg-a,,,,AAXX 10184 07747 12400 82302 10090 20070 30228 40286 53002 60006 886// 91800 333 10105 20006=
07747,1997-02-10 21:00:00,8,1029.5,0.9,87,6,6000,0,,,0,,,,,,,,,,,wg-a,,,,AAXX 10214 07747 12456 80000 10080 20060 30237 40295 52009 60006 886// 92100=
07747,1997-02-11 00:00:00,6,1029.7,0.1,93,5,6000,3.704,,,20,,,,,,,,,,,wg-a,,,,AAXX 11004 07747 12556 50202 10060 20050 30238 40297 52001 60006 83540 90000=
07747,1997-02-11 03:00:00,4,1029,-0.7,100,4,6000,0,,,0,,,,,,,,,,,wg-a,,,,AAXX 11034 07747 12556 70000 10040 20040 30231 40290 58007 60006 83542 90300=
07747,1997-02-11 06:00:00,5,1029.1,0.1,93,4,6000,3.704,,,210,4.2,9.3,,,,,,,,,wg-a,,,,AAXX 11064 07747 02556 72102 10050 20040 30232 40291 53001 60006 83542 90600 333 10093 20042 60004=
07747,1997-02-11 09:00:00,10,1029.2,0.2,76,6,20000,3.704,,,180,,,,,,,,,,,wg-a,,,,AAXX 11094 07747 12770 71802 10100 20060 30234 40292 53002 60006 81542 90900=
07747,1997-02-11 12:00:00,18,1028.4,-0.6,37,3,15000,3.704,,,250,,,,,,,,,,,wg-a,,,,AAXX 11124 07747 12765 42502 10180 20030 30228 40284 58006 60006 81542 91200=
07747,1997-02-11 15:00:00,16,1027.5,-1,51,6,20000,3.704,,,140,,,,,,,,,,,wg-a,,,,AAXX 11154 07747 12670 71402 10160 20060 30218 40275 56010 60006 8584/ 91500=
07747,1997-02-11 18:00:00,14,1028.5,1,67,8,20000,7.408,,,130,4.5,18.9,,,,,,,,,wg-a,,,,AAXX 11184 07747 12670 81304 10140 20080 30228 40285 52010 60006 8557/ 91800 333 10189 20045=
07747,1997-02-11 21:00:00,15,1028.9,0.4,72,10,25000,3.704,,,280,,,,,,,,,,,wg-a,,,,AAXX 11214 07747 12575 82802 10150 20100 30232 40289 50004 60006 875// 92100=
07747,1997-02-12 00:00:00,15,1029,0.1,77,11,25000,25.928,,,330,,,,,,,,,,,wg-a,,,,AAXX 12004 07747 12575 /3314 10150 20110 30233 40290 50001 60006 86500 90000=
07747,1997-02-12 03:00:00,15,1027.6,-1.4,72,10,25000,18.52,,,320,,,,,,,,,,,wg-a,,,,AAXX 12034 07747 12575 63210 10150 20100 30219 40276 57014 60006 86530 90300=
07747,1997-02-12 06:00:00,15,1027.7,0.1,67,9,25000,7.408,,,320,13.2,15.7,,,,,,,,,wg-a,,,,AAXX 12064 07747 02575 33204 10150 20090 30220 40277 53001 60006 83530 90600 333 10157 20132 60004=
07747,1997-02-12 09:00:00,16,1027.9,0.2,68,10,500,18.52,,,330,,,,,,,,,,,wg-a,,,,AAXX 12094 07747 12500 23310 10160 20100 30222 40279 50002 60006 82800 90900=
07747,1997-02-12 12:00:00,18,1025.6,-2.2,59,10,500,11.112,,,300,,,,,,,,,,,wg-a,,,,AAXX 12124 07747 12500 33006 10180 20100 30200 40256 58022 60006 83130 91200=
07747,1997-02-12 15:00:00,17,1023.1,-2.5,59,9,25000,11.112,,,130,,,,,,,,,,,wg-a,,,,AAXX 12154 07747 12575 51306 10170 20090 30175 40231 56025 60006 83130 91500=
07747,1997-02-12 18:00:00,12,1022.2,-1,82,9,15000,7.408,,,40,12.4,19.8,,,,,,,,,wg-a,,,,AAXX 12184 07747 12665 50404 10120 20090 30165 40222 55010 60006 83532 91800 333 10198 20124=
07747,1997-02-12 21:00:00,13,1023.8,1.6,77,9,15000,11.112,,,300,,,,,,,,,,,wg-a,,,,AAXX 12214 07747 12665 73006 10130 20090 30181 40238 53016 60006 83532 92100=
07747,1997-02-13 00:00:00,13,1022.2,-1.6,77,9,20000,14.816,,,320,,,,,,,,,,,wg-a,,,,AAXX 13004 07747 12670 /3208 10130 20090 30165 40222 56016 60006 81500 90000=
07747,1997-02-13 03:00:00,14,1021.6,-0.6,63,7,25000,18.52,,,330,,,,,,,,,,,wg-a,,,,AAXX 13034 07747 12675 /3310 10140 20070 30159 40216 58006 60006 81500 90300=
07747,1997-02-13 06:00:00,13,1022.2,0.6,67,7,25000,11.112,,,300,9.5,14.9,,,,,,,,,wg-a,,,,AAXX 13064 07747 02675 23006 10130 20070 30165 40222 53006 60006 81530 90600 333 10149 20095 60004=
07747,1997-02-13 09:00:00,14,1022.9,0.7,63,7,500,18.52,,,320,,,,,,,,,,,wg-a,,,,AAXX 13094 07747 12500 73210 10140 20070 30172 40229 51007 60006 83832 90900=
07747,1997-02-13 12:00:00,18,1020.4,-2.4,39,4,500,38.892,,,310,,,,,,,,,,,wg-a,,,,AAXX 13124 07747 12500 73121 10180 20040 30148 40204 58024 60006 83132 91200=
07747,1997-02-13 18:00:00,14,1021.4,1.9,58,6,25000,35.188,,55.56,310,12.2,18.9,,,,,,,,,wg-a,,,,AAXX 13184 07747 12575 73119 10140 20060 30157 40214 53019 60006 878// 91800 333 10189 20122 91030=
07747,1997-02-13 21:00:00,11,1022.2,0.8,76,7,11000,29.632,,,350,,,,,,,,,,,wg-a,,,,AAXX 13214 07747 12/61 /3516 10110 20070 30165 40222 53008 60006 92100=
07747,1997-02-14 00:00:00,11,1020.7,-1.5,71,6,11000,14.816,,,280,,,,,,,,,,,wg-a,,,,AAXX 14004 07747 12/61 /2808 10110 20060 30150 40207 58015 60006 90000=
07747,1997-02-14 03:00:00,9,1017.4,-3.3,87,7,25000,14.816,,,210,,,,,,,,,,,wg-a,,,,AAXX 14034 07747 12775 /2108 10090 20070 30117 40174 56033 60006 86500 90300=
07747,1997-02-14 06:00:00,10,1015.9,-1.5,87,8,15000,0,,,0,8.2,14.5,,,,,,,,1,wg-a,,,,AAXX 14064 07747 02665 /0000 10100 20080 30102 40159 57015 60006 70162 86500 90600 333 10145 20082 61000=
07747,1997-02-14 09:00:00,19,1015.4,-0.3,49,8,500,29.632,,,300,,,,,,,,,,,wg-a,,,,AAXX 14094 07747 12600 53016 10190 20080 30099 40154 56003 60006 83531 90900=
07747,1997-02-14 12:00:00,21,1013.5,-1.9,43,8,40000,35.188,,,320,,,,,,,,,,,wg-a,,,,AAXX 14124 07747 12682 /3219 10210 20080 30080 40135 56019 60006 81112 91200=
07747,1997-02-14 15:00:00,19,1011.9,-1.6,49,8,40000,18.52,,,140,,,,,,,,,,,wg-a,,,,AAXX 14154 07747 12682 /1410 10190 20080 30064 40119 57016 60006 81132 91500=
07747,1997-02-14 18:00:00,15,1010.6,-1.4,63,8,40000,7.408,,,60,10.1,21.5,,,,,,,,,wg-a,,,,AAXX 14184 07747 12682 50604 10150 20080 30050 40106 56014 60006 81531 91800 333 10215 20101=
07747,1997-02-14 21:00:00,12,1009.1,-1.5,88,10,15000,11.112,,,260,,,,0,,,,,,2,wg-a,,,,AAXX 14214 07747 12565 /2606 10120 20100 30035 40091 58015 60007 70262 86800 92100=
07747,1997-02-15 00:00:00,10,1010.8,1.6,76,6,10000,35.188,,,300,,,,5,,,,,,21,wg-a,,,,AAXX 15004 07747 02560 83019 10100 20060 30051 40108 50016 60056 72162 878// 90000 333 60057=
07747,1997-02-15 03:00:00,13,1007.2,-3.5,62,6,25000,46.3,,66.672,300,,,,,,,,,,,wg-a,,,,AAXX 15034 07747 12575 /3025 10130 20060 30016 40072 56035 60006 86800 90300 333 91036=
07747,1997-02-15 06:00:00,13,1009.1,1.9,62,6,25000,46.3,,,300,9.8,15.1,,,,,5,,,,wg-a,,,,AAXX 15064 07747 02575 63025 10130 20060 30035 40091 51019 60006 86800 90600 333 10151 20098 60054=
07747,1997-02-15 09:00:00,13,1010.4,1.3,62,6,60000,64.82,,96.304,310,,,,0,,,,,,3,wg-a,,,,AAXX 15094 07747 12586 /3135 10130 20060 30048 40104 53013 60007 70362 86840 90900 333 91052=
07747,1997-02-15 12:00:00,12,1014.6,4.1,58,4,60000,72.228,,94.452,320,,,,,,,,,,3,wg-a,,,,AAXX 15124 07747 02586 33239 10120 20040 30089 40146 51041 60006 70361 83140 91200 333 61000 91051=
07747,1997-02-15 15:00:00,10,1018.6,4,57,2,15000,53.708,,92.6,330,,,,,,,,,,,wg-a,,,,AAXX 15154 07747 12565 33329 10100 20020 30129 40186 51040 60006 83840 91500 333 91050=
07747,1997-02-15 18:00:00,10,1021.1,2.5,57,2,25000,31.484,,57.412,310,9.7,13.1,,,,,,,,,wg-a,,,,AAXX 15184 07747 12575 /3117 10100 20020 30154 40211 51025 60006 81801 91800 333 10131 20097 91031=
07747,1997-02-15 21:00:00,9,1022.2,1,53,0,25000,50.004,,72.228,330,,,,,,,,,,,wg-a,,,,AAXX 15214 07747 12/75 03327 10090 20000 30164 40222 53010 60006 80000 92100 333 91039=
07747,1997-02-16 00:00:00,8,1022.6,0.4,53,-1,25000,18.52,,,330,,,,,,,,,,,wg-a,,,,AAXX 16004 07747 12/75 03310 10080 21010 30168 40226 50004 60006 80000 90000=
07747,1997-02-16 03:00:00,7,1021.5,-1.1,57,-1,20000,22.224,,42.596,360,,,,,,,,,,,wg-a,,,,AAXX 16034 07747 12/70 03612 10070 21010 30157 40215 58011 60006 80000 90300 333 91023=
07747,1997-02-16 06:00:00,6,1021.4,-0.1,56,-2,500,11.112,,,320,5.5,10.2,,,,,,,,,wg-a,,,,AAXX 16064 07747 02/00 23206 10060 21020 30156 40214 58001 60006 80001 90600 333 10102 20055 60004=
07747,1997-02-16 09:00:00,11,1021.7,0.4,35,-4,60000,7.408,,,200,,,,,,,,,,,wg-a,,,,AAXX 16094 07747 12/86 22004 10110 21040 30160 40217 53004 60006 80002 90900=
07747,1997-02-16 12:00:00,14,1020.6,-1.1,19,-9,60000,18.52,,,100,,,,,,,,,,,wg-a,,,,AAXX 16124 07747 12/86 11010 10140 21090 30149 40206 56011 60006 80002 91200=
07747,1997-02-16 15:00:00,14,1020.6,-1.1,19,-9,60000,18.52,,,100,,,,,,,,,,,wg-a,,,,AAXX 16154 07747 12/86 11010 10140 21090 30149 40206 56011 60006 80002 91500=
07747,1997-02-16 18:00:00,9,1022.8,2.1,53,0,60000,0,,,0,5.9,16.1,,,,,,,,,wg-a,,,,AAXX 16184 07747 12/86 20000 10090 20000 30170 40228 53021 60006 80002 91800 333 10161 20059=
07747,1997-02-16 21:00:00,6,1023.5,0.6,61,-1,25000,11.112,,,240,,,,,,,,,,,wg-a,,,,AAXX 16214 07747 12/75 62406 10060 21010 30176 40235 51006 60006 83032 92100=
07747,1997-02-17 00:00:00,4,1024.3,0.8,81,1,25000,7.408,,,250,,,,,,,,,,,wg-a,,,,AAXX 17004 07747 12/75 52504 10040 20010 30184 40243 51008 60006 81032 90000=
07747,1997-02-17 03:00:00,5,1024.7,0.4,70,0,25000,14.816,,,240,,,,,,,,,,,wg-a,,,,AAXX 17034 07747 12575 52408 10050 20000 30188 40247 52004 60006 83532 90300=
07747,1997-02-17 06:00:00,5,1025.7,1,81,2,25000,7.408,,,230,3.4,8.4,,,,,,,,,wg-a,,,,AAXX 17064 07747 02675 62304 10050 20020 30198 40257 53010 60006 82532 90600 333 10084 20034 60004=
07747,1997-02-17 09:00:00,13,1026.8,1.3,62,6,11000,11.112,,,310,,,,,,,,,,,wg-a,,,,AAXX 17094 07747 12/61 /3106 10130 20060 30211 40268 51013 60006 90900=
07747,1997-02-17 12:00:00,16,1025.8,-1,45,4,35000,25.928,,,330,,,,,,,,,,,wg-a,,,,AAXX 17124 07747 12581 /3314 10160 20040 30201 40258 58010 60006 81804 91200=
07747,1997-02-17 15:00:00,16,1025.2,-0.6,42,3,35000,22.224,,,350,,,,,,,,,,,wg-a,,,,AAXX 17154 07747 12581 63512 10160 20030 30195 40252 55006 60006 84304 91500=
07747,1997-02-17 18:00:00,14,1026.8,1.6,51,4,25000,11.112,,,330,4.8,16.7,,,,,,,,,wg-a,,,,AAXX 17184 07747 12575 63306 10140 20040 30211 40268 53016 60006 84832 91800 333 10167 20048=
07747,1997-02-17 21:00:00,11,1028.6,1.7,71,6,20000,14.816,,,310,,,,,,,,,,,wg-a,,,,AAXX 17214 07747 12570 73108 10110 20060 30228 40286 51017 60006 81152 92100=
07747,1997-02-18 00:00:00,11,1028.9,0.3,71,6,15000,11.112,,,270,,,,,,,,,,,wg-a,,,,AAXX 18004 07747 12565 72706 10110 20060 30231 40289 52003 60006 8113/ 90000=
07747,1997-02-18 03:00:00,8,1027.8,-1.1,81,5,18000,14.816,,,250,,,,,,,,,,,wg-a,,,,AAXX 18034 07747 12/68 72508 10080 20050 30220 40278 58011 60006 83032 90300=
07747,1997-02-18 06:00:00,9,1027.8,-0,76,5,15000,7.408,,,260,7.1,13.7,,,,,,,,,wg-a,,,,AAXX 18064 07747 02765 82604 10090 20050 30220 40278 55000 60006 8157/ 90600 333 10137 20071 60004=
07747,1997-02-18 09:00:00,12,1028.5,0.8,67,6,20000,3.704,,,200,,,,,,,,,,,wg-a,,,,AAXX 18094 07747 12770 82002 10120 20060 30228 40285 52008 60006 8257/ 90900=
07747,1997-02-18 12:00:00,17,1027.6,,42,4,60000,11.112,,,10,,,,,,,,,,,wg-a,,,,AAXX 18124 07747 12786 /0106 10170 20040 30223 40276 60006 81532 91200=
07747,1997-02-18 15:00:00,17,1027.2,-0.4,42,4,60000,29.632,,48.152,330,,,,,,,,,,,wg-a,,,,AAXX 18154 07747 12686 /3316 10170 20040 30219 40272 55004 60006 81832 91500 333 91026=
07747,1997-02-18 18:00:00,15,1028.8,1.6,55,6,25000,18.52,,,330,8.4,18.4,,,,,,,,,wg-a,,,,AAXX 18184 07747 12675 73310 10150 20060 30235 40288 51016 60006 83102 91800 333 10184 20084=
07747,1997-02-18 21:00:00,14,1031.3,2.4,51,4,25000,25.928,,,310,,,,,,,,,,,wg-a,,,,AAXX 18214 07747 12675 33114 10140 20040 30259 40313 52024 60006 81502 92100=
07747,1997-02-19 00:00:00,12,1033.4,2.1,58,4,25000,14.816,,,330,,,,,,,,,,,wg-a,,,,AAXX 19004 07747 12775 /3308 10120 20040 30280 40334 53021 60006 81500 90000=
07747,1997-02-19 06:00:00,11,1032.8,0.3,66,5,25000,25.928,,,340,11,15.8,,,,,,,,,wg-a,,,,AAXX 19064 07747 02775 /3414 10110 20050 30274 40328 50003 60006 81502 90600 333 10158 20110 60004=
07747,1997-02-19 09:00:00,13,1033,0.2,58,5,500,11.112,,,110,,,,,,,,,,,wg-a,,,,AAXX 19094 07747 12600 /1106 10130 20050 30276 40330 53002 60006 81501 90900=
07747,1997-02-19 12:00:00,15,1031.4,-1.5,55,6,500,3.704,,,170,,,,,,,,,,,wg-a,,,,AAXX 19124 07747 12600 21702 10150 20060 30261 40314 58015 60006 81501 91200=
07747,1997-02-19 15:00:00,14,1029.2,-2.2,55,5,500,11.112,,,130,,,,,,,,,,,wg-a,,,,AAXX 19154 07747 12600 41306 10140 20050 30239 40292 55022 60006 81501 91500=
07747,1997-02-19 18:00:00,10,1029.1,-0.2,76,6,500,7.408,,,210,8.8,15.5,,,,,,,,,wg-a,,,,AAXX 19184 07747 12600 /2104 10100 20060 30237 40291 57002 60006 81501 91800 333 10155 20088=
07747,1997-02-19 21:00:00,7,1029.6,0.4,93,6,15000,7.408,,,250,,,,,,,,,,,wg-a,,,,AAXX 19214 07747 12/65 52504 10070 20060 30241 40296 50004 60006 80002 92100=
07747,1997-02-20 00:00:00,7,1029.1,-0.5,87,5,10000,7.408,,,220,,,,,,,,,,,wg-a,,,,AAXX 20004 07747 12/60 /2204 10070 20050 30236 40291 57005 60006 90000=
07747,1997-02-20 03:00:00,14,1029.7,0.8,55,5,15000,25.928,,,320,,,,,,,,,,,wg-a,,,,AAXX 20034 07747 12765 /3214 10140 20050 30244 40297 50008 60006 86500 90300=
07747,1997-02-20 06:00:00,14,1030.6,0.8,58,6,20000,22.224,,,320,6.9,15.4,,,,,,,,,wg-a,,,,AAXX 20064 07747 02770 33212 10140 20060 30252 40306 53008 60006 81501 90600 333 10154 20069 60004=
07747,1997-02-20 09:00:00,16,1032.4,1.9,51,6,11000,18.52,,,320,,,,,,,,,,,wg-a,,,,AAXX 20094 07747 12/61 /3210 10160 20060 30271 40324 51019 60006 90900=
07747,1997-02-20 12:00:00,18,1030.8,-1.6,49,7,500,25.928,,,350,,,,,,,,,,,wg-a,,,,AAXX 20124 07747 12600 33514 10180 20070 30255 40308 58016 60006 82101 91200=
07747,1997-02-20 18:00:00,15,1029.1,0.7,63,8,500,11.112,,,280,13.2,19,,,,,,,,,wg-a,,,,AAXX 20184 07747 12700 /2806 10150 20080 30238 40291 53007 60006 81501 91800 333 10190 20132=
07747,1997-02-20 21:00:00,12,1029.9,0.7,71,7,500,11.112,,,280,,,,,,,,,,,wg-a,,,,AAXX 20214 07747 12/00 02806 10120 20070 30245 40299 51007 60006 80000 92100=
07747,1997-02-21 00:00:00,8,1030.1,0.1,93,7,500,11.112,,,250,,,,,,,,,,,wg-a,,,,AAXX 21004 07747 12/00 02506 10080 20070 30246 40301 51001 60006 80000 90000=
07747,1997-02-21 03:00:00,8,1030,-0.1,87,6,500,3.704,,,250,,,,,,,,,,,wg-a,,,,AAXX 21034 07747 12/00 32502 10080 20060 30245 40300 58001 60006 80001 90300=
07747,1997-02-21 06:00:00,7,1030.6,0.6,87,5,500,14.816,,,210,6.5,15.1,,,,,,,,,wg-a,,,,AAXX 21064 07747 02/00 32108 10070 20050 30251 40306 53006 60006 81041 90600 333 10151 20065 60004=
07747,1997-02-21 12:00:00,18,1031,-0.7,49,7,25000,14.816,,,350,,,,,,,,,,,wg-a,,,,AAXX 21124 07747 12675 /3508 10180 20070 30257 40310 58007 60006 81104 91200=
07747,1997-02-21 15:00:00,18,1030,-1,42,5,20000,22.224,,,310,,,,,,,,,,,wg-a,,,,AAXX 21154 07747 12770 73112 10180 20050 30247 40300 56010 60006 81502 91500=
07747,1997-02-21 18:00:00,15,1030.8,0.8,51,5,20000,14.816,,,330,5.8,18.4,,,,,,,,,wg-a,,,,AAXX 21184 07747 12770 73308 10150 20050 30255 40308 53008 60006 81502 91800 333 10184 20058=
07747,1997-02-21 21:00:00,13,1031.2,0.3,54,4,15000,7.408,,,330,,,,,,,,,,,wg-a,,,,AAXX 21214 07747 12/65 53304 10130 20040 30258 40312 52003 60006 80002 92100=
07747,1997-02-22 00:00:00,8,1031,-0.3,81,5,15000,14.816,,,250,,,,,,,,,,,wg-a,,,,AAXX 22004 07747 12/65 22508 10080 20050 30255 40310 58003 60006 80001 90000=
07747,1997-02-22 06:00:00,8,1030.2,-0.3,87,6,10000,3.704,,,230,5.8,14.7,,,,,,,,,wg-a,,,,AAXX 22064 07747 02660 72302 10080 20060 30247 40302 58003 60006 875// 90600 333 10147 20058 60004=
07747,1997-02-22 09:00:00,11,1030.6,0.5,76,7,15000,7.408,,,350,,,,,,,,,,,wg-a,,,,AAXX 22094 07747 12665 /3504 10110 20070 30252 40306 53005 60006 82531 90900=
07747,1997-02-22 12:00:00,14,1029.3,-1.2,67,8,15000,14.816,,,70,,,,,,,,,,,wg-a,,,,AAXX 22124 07747 12665 50708 10140 20080 30240 40293 58012 60006 81102 91200=
07747,1997-02-22 15:00:00,13,1027.9,-1.5,77,9,15000,14.816,,,80,,,,,,,,,,,wg-a,,,,AAXX 22154 07747 12465 /0808 10130 20090 30225 40279 56015 60006 85102 91500=
07747,1997-02-22 18:00:00,11,1027.6,-0.3,87,9,8000,3.704,,,50,7.6,14.6,,,,,,,,,wg-a,,,,AAXX 22184 07747 12458 /0502 10110 20090 30222 40276 56003 60006 82102 91800 333 10146 20076=
07747,1997-02-22 21:00:00,11,1027.1,-0.5,87,9,7000,7.408,,,340,,,,,,,,,,,wg-a,,,,AAXX 22214 07747 12457 73404 10110 20090 30217 40271 58005 60006 875// 92100=
07747,1997-02-23 00:00:00,11,1026,-1.1,94,10,8000,7.408,,,250,,,,,,,,,,,wg-a,,,,AAXX 23004 07747 12258 72504 10110 20100 30206 40260 58011 60006 875// 90000=
07747,1997-02-23 03:00:00,11,1024.5,-1.5,94,10,8000,3.704,,,20,,,,,,,,,,,wg-a,,,,AAXX 23034 07747 12458 70202 10110 20100 30191 40245 58015 60006 875// 90300=
07747,1997-02-23 06:00:00,11,1023.7,-0.8,87,9,7000,3.704,,,320,10.4,11.7,,,,,,,,,wg-a,,,,AAXX 23064 07747 02357 73202 10110 20090 30183 40237 56008 60006 875// 90600 333 10117 20104 60004=
07747,1997-02-23 09:00:00,12,1023.9,0.2,82,9,6000,3.704,,,340,,,,,,,,,,,wg-a,,,,AAXX 23094 07747 12556 /3402 10120 20090 30185 40239 53002 60006 81102 90900=
07747,1997-02-23 12:00:00,14,1021.7,-2.1,67,8,9000,3.704,,,330,,,,,,,,,,,wg-a,,,,AAXX 23124 07747 12/59 /3302 10140 20080 30164 40217 58021 60006 91200=
07747,1997-02-23 15:00:00,15,1018.8,-2.9,67,9,15000,18.52,,,120,,,,,,,,,,,wg-a,,,,AAXX 23154 07747 12665 71210 10150 20090 30135 40188 56029 60006 8657/ 91500=
07747,1997-02-23 18:00:00,14,1018.9,0.1,77,10,9000,11.112,,,130,9.9,15.2,,,,,,,,,wg-a,,,,AAXX 23184 07747 12659 71306 10140 20100 30136 40189 53001 60006 875// 91800 333 10152 20099=
07747,1997-02-23 21:00:00,13,1019.5,0.6,82,10,12000,7.408,,,290,,,,,,,,,,,wg-a,,,,AAXX 23214 07747 12462 82904 10130 20100 30142 40195 53006 60006 875// 92100=
07747,1997-02-24 00:00:00,11,1019.1,-0.5,94,10,9000,7.408,,,350,,,,,,,,,,,wg-a,,,,AAXX 24004 07747 12459 83504 10110 20100 30137 40191 56005 60006 875// 90000=
07747,1997-02-24 06:00:00,7,1017.2,-0.7,93,6,9000,3.704,,,290,7,13.4,,,,,,,,,wg-a,,,,AAXX 24064 07747 02559 72902 10070 20060 30118 40172 56007 60006 82502 90600 333 10134 20070 60004=
07747,1997-02-24 09:00:00,11,1017.7,0.6,87,9,500,7.408,,,270,,,,,,,,,,,wg-a,,,,AAXX 24094 07747 12200 72704 10110 20090 30124 40177 50006 60006 875// 90900=
07747,1997-02-24 12:00:00,13,1017.6,-0.1,82,10,8000,3.704,,,20,,,,,,,,,,,wg-a,,,,AAXX 24124 07747 12458 70202 10130 20100 30123 40176 58001 60006 85530 91200=
07747,1997-02-24 15:00:00,14,1017.1,-0.5,77,10,8000,7.408,,,80,,,,,,,,,,,wg-a,,,,AAXX 24154 07747 12558 70804 10140 20100 30118 40171 56005 60006 855// 91500=
07747,1997-02-24 18:00:00,11,1018,0.9,87,9,500,7.408,,,60,6.3,14.1,,,,,,,,,wg-a,,,,AAXX 24184 07747 12/00 00604 10110 20090 30127 40180 53009 60006 80000 91800 333 10141 20063=
07747,1997-02-25 00:00:00,8,1019.8,0.3,100,8,4000,7.408,,,240,,,,,,,,,,,wg-a,,,,AAXX 25004 07747 12/40 /2404 10080 20080 30144 40198 50003 60006 90000=
07747,1997-02-25 03:00:00,9,1019.6,-0.2,100,9,500,7.408,,,250,,,,,,,,,,,wg-a,,,,AAXX 25034 07747 12400 82504 10090 20090 30142 40196 56002 60006 885// 90300=
07747,1997-02-25 06:00:00,10,1019.9,0.3,93,9,6000,7.408,,,250,6.6,11.1,,,,,,,,,wg-a,,,,AAXX 25064 07747 02456 82504 10100 20090 30145 40199 52003 60006 885// 90600 333 10111 20066 60004=
07747,1997-02-25 09:00:00,12,1021.2,1.4,82,9,4800,3.704,,,310,,,,,,,,,,10,wg-a,,,,AAXX 25094 07747 12448 83102 10120 20090 30159 40212 52014 60006 71022 886// 90900=
07747,1997-02-25 12:00:00,13,1020.6,-0.6,82,10,500,7.408,,,130,,,,,,,,,,,wg-a,,,,AAXX 25124 07747 12400 81304 10130 20100 30153 40206 58006 60006 886// 91200=
07747,1997-02-25 15:00:00,14,1019.1,-1.5,77,10,6000,11.112,,,100,,,,,,,,,,,wg-a,,,,AAXX 25154 07747 12456 81006 10140 20100 30138 40191 58015 60006 886// 91500=
07747,1997-02-25 18:00:00,12,1019.9,0.8,88,10,3800,3.704,,,120,9.8,13.5,,,,,,,,10,wg-a,,,,AAXX 25184 07747 12438 81202 10120 20100 30146 40199 53008 60006 71022 886// 91800 333 10135 20098=
07747,1997-02-25 21:00:00,12,1021.3,1.4,88,10,4000,7.408,,,270,,,,,,,,,,10,wg-a,,,,AAXX 25214 07747 12440 72704 10120 20100 30160 40213 51014 60006 71022 875// 92100=
07747,1997-02-26 00:00:00,9,1022.1,0.7,93,8,4000,7.408,,,270,,,,,,,,,,10,wg-a,,,,AAXX 26004 07747 12/40 /2704 10090 20080 30167 40221 53007 60006 71011 80001 90000=
07747,1997-02-26 03:00:00,9,1021.5,-0.6,93,8,4000,7.408,,,270,,,,,,,,,,10,wg-a,,,,AAXX 26034 07747 12/40 /2704 10090 20080 30161 40215 58006 60006 71022 80001 90300=
07747,1997-02-26 06:00:00,12,1021.9,0.5,88,10,10000,14.816,,,280,8.1,12.2,,,,,,,,,wg-a,,,,AAXX 26064 07747 02760 52808 10120 20100 30166 40219 53005 60006 83531 90600 333 10122 20081 60004=
07747,1997-02-26 09:00:00,17,1023.9,2,68,11,15000,11.112,,,300,,,,,,,,,,,wg-a,,,,AAXX 26094 07747 12665 /3006 10170 20110 30186 40239 51020 60006 81140 90900=
07747,1997-02-26 12:00:00,20,1023.7,-0.1,46,8,25000,31.484,,53.708,330,,,,0,,,,,,,wg-a,,,,AAXX 26124 07747 02675 /3317 10200 20080 30185 40237 58001 60006 81140 91200 333 60007 91029=
07747,1997-02-26 15:00:00,18,1023,-0.7,52,8,500,61.116,,83.34,330,,,,,,,,,,,wg-a,,,,AAXX 26154 07747 12600 23333 10180 20080 30178 40230 56007 60006 81141 91500 333 91045=
07747,1997-02-26 18:00:00,16,1026,2.9,45,4,11000,57.412,,83.34,300,9.2,20.8,,,,,,,,,wg-a,,,,AAXX 26184 07747 12/61 /3031 10160 20040 30207 40260 51029 60006 91800 333 10208 20092 91045=
07747,1997-02-27 00:00:00,12,1030.6,0.6,50,2,20000,53.708,,75.932,310,,,,,,,,,,,wg-a,,,,AAXX 27004 07747 12670 33129 10120 20020 30252 40306 53006 60006 81102 90000 333 91041=
07747,1997-02-27 03:00:00,12,1032.3,1.7,58,4,25000,31.484,,53.708,340,,,,,,,,,,,wg-a,,,,AAXX 27034 07747 12675 /3417 10120 20040 30269 40323 51017 60006 85500 90300 333 91029=
07747,1997-02-27 06:00:00,11,1035.5,3.2,58,3,25000,25.928,,44.448,320,11.3,15.9,,,,,,,,,wg-a,,,,AAXX 27064 07747 02675 /3214 10110 20030 30301 40355 51032 60006 86500 90600 333 10159 20113 60004 91024=
07747,1997-02-27 09:00:00,12,1036.8,1.3,54,3,500,35.188,,,340,,,,,,,,,,,wg-a,,,,AAXX 27094 07747 12600 23419 10120 20030 30314 40368 50013 60006 82500 90900=
07747,1997-02-27 12:00:00,16,1035.7,-1.1,39,2,10000,29.632,,,10,,,,,,,,,,,wg-a,,,,AAXX 27124 07747 12/60 /0116 10160 20020 30303 40357 58011 60006 91200=
07747,1997-02-28 00:00:00,6,1034.7,-0.6,81,3,25000,3.704,,,280,,,,,,,,,,,wg-a,,,,AAXX 28004 07747 12/75 02802 10060 20030 30292 40347 58006 60006 80000 90000=
07747,1997-02-28 03:00:00,6,1033,-1.7,75,2,25000,18.52,,,270,,,,,,,,,,,wg-a,,,,AAXX 28034 07747 12/75 02710 10060 20020 30275 40330 58017 60006 80000 90300=
07747,1997-02-28 06:00:00,5,1032.7,-0.4,70,0,25000,7.408,,,240,4,12.7,,,,,,,,,wg-a,,,,AAXX 28064 07747 02/75 02404 10050 20000 30271 40327 55004 60006 80000 90600 333 10127 20040 60004=
07747,1997-02-28 09:00:00,12,1034.9,2.4,67,6,60000,7.408,,,20,,,,,,,,,,,wg-a,,,,AAXX 28094 07747 12/86 00204 10120 20060 30295 40349 51024 60006 80000 90900=
07747,1997-02-28 12:00:00,15,1033.7,-1.2,51,5,45000,18.52,,,60,,,,,,,,,,,wg-a,,,,AAXX 28124 07747 12/83 00610 10150 20050 30283 40337 58012 60006 80000 91200=
07747,1997-02-28 18:00:00,11,1033,-0,66,5,500,7.408,,,90,4.5,15.6,,,,,,,,,wg-a,,,,AAXX 28184 07747 12/00 30904 10110 20050 30276 40330 55000 60006 80002 91800 333 10156 20045=
07747,1997-02-28 21:00:00,8,1033.3,0.2,81,5,500,3.704,,,350,,,,,,,,,,,wg-a,,,,AAXX 28214 07747 12/00 43502 10080 20050 30278 40333 51002 60006 80001 92100=
07747,1997-03-01 00:00:00,4,1032.5,-0.9,93,3,500,7.408,,,250,,,,,,,,,,,wg-a,,,,AAXX 01004 07747 12/00 42504 10040 20030 30269 40325 58009 60006 80001 90000=
07747,1997-03-01 03:00:00,7,1031.2,-1.2,87,5,500,7.408,,,230,,,,,,,,,,,wg-a,,,,AAXX 01034 07747 12/00 42304 10070 20050 30257 40312 56012 60006 80001 90300=
07747,1997-03-01 06:00:00,8,1031.9,0.7,87,6,15000,7.408,,,230,4,10.9,,,,,,,,,wg-a,,,,AAXX 01064 07747 02565 72304 10080 20060 30264 40319 53007 60006 875// 90600 333 10109 20040 60004=
07747,1997-03-01 09:00:00,10,1032.3,0.5,82,7,9000,0,,,0,,,,,,,,,,,wg-a,,,,AAXX 01094 07747 12459 70000 10100 20070 30269 40323 53005 60006 875// 90900=
07747,1997-03-01 12:00:00,12,1030.9,-1.4,76,8,9000,7.408,,,70,,,,,,,,,,,wg-a,,,,AAXX 01124 07747 12559 70704 10120 20080 30255 40309 58014 60006 875// 91200=
07747,1997-03-01 15:00:00,13,1029,-1.9,72,8,11000,7.408,,,70,,,,,,,,,,,wg-a,,,,AAXX 01154 07747 12461 70704 10130 20080 30236 40290 56019 60006 82172 91500=
07747,1997-03-01 18:00:00,11,1029,-0,82,8,7000,7.408,,,110,8,13.2,,,,,,,,,wg-a,,,,AAXX 01184 07747 12457 81104 10110 20080 30236 40290 55000 60006 81172 91800 333 10132 20080=
07747,1997-03-01 21:00:00,10,1028.9,-0.1,87,8,6000,0,,,0,,,,,,,,,,,wg-a,,,,AAXX 01214 07747 12456 80000 10100 20080 30235 40289 58001 60006 8117/ 92100=
07747,1997-03-02 00:00:00,8,1028.7,-0.3,93,7,6000,3.704,,,310,,,,,,,,,,,wg-a,,,,AAXX 02004 07747 12456 73102 10080 20070 30232 40287 55003 60006 8117/ 90000=
07747,1997-03-02 03:00:00,9,1027.7,-0.9,93,8,6000,3.704,,,290,,,,,,,,,,,wg-a,,,,AAXX 02034 07747 12456 82902 10090 20080 30223 40277 57009 60006 885// 90300=
07747,1997-03-02 06:00:00,9,1028.7,1,93,8,500,7.408,,,290,7.5,10.8,,,,,,,,,wg-a,,,,AAXX 02064 07747 02400 82904 10090 20080 30233 40287 53010 60006 885// 90600 333 10108 20075 60004=
07747,1997-03-02 09:00:00,11,1030.3,1.6,87,9,8000,3.704,,,300,,,,,,,,,,,wg-a,,,,AAXX 02094 07747 12458 83002 10110 20090 30249 40303 51016 60006 885// 90900=
07747,1997-03-02 12:00:00,15,1029.9,-0.3,63,8,12000,0,,,0,,,,,,,,,,,wg-a,,,,AAXX 02124 07747 12562 20000 10150 20080 30246 40299 58003 60006 82130 91200=
07747,1997-03-02 15:00:00,17,1028.7,-1.2,63,10,12000,3.704,,,110,,,,,,,,,,,wg-a,,,,AAXX 02154 07747 12/62 01102 10170 20100 30234 40287 56012 60006 80000 91500=
07747,1997-03-02 18:00:00,12,1029.9,1.1,82,9,9000,3.704,,,140,9.4,17.1,,,,,,,,,wg-a,,,,AAXX 02184 07747 12/59 41402 10120 20090 30245 40299 53011 60006 81031 91800 333 10171 20094=
07747,1997-03-02 21:00:00,9,1031.1,1.2,93,8,500,0,,,0,,,,,,,,,,,wg-a,,,,AAXX 02214 07747 12400 40000 10090 20080 30257 40311 51012 60006 81531 92100=
07747,1997-03-03 00:00:00,8,1031.2,0,93,7,6000,0,,,0,,,,,,,,,,,wg-a,,,,AAXX 03004 07747 12456 30000 10080 20070 30257 40312 50000 60006 81532 90000=
07747,1997-03-03 03:00:00,14,1031.5,0.4,63,7,9000,3.704,,,310,,,,,,,,,,,wg-a,,,,AAXX 03034 07747 12/59 03102 10140 20070 30261 40315 51004 60006 80000 90300=
07747,1997-03-03 06:00:00,13,1032.2,0.7,72,8,10000,14.816,,,330,8.1,15.2,,,,,,,,,wg-a,,,,AAXX 03064 07747 02/60 33308 10130 20080 30268 40322 53007 60006 80002 90600 333 10152 20081 60004=
07747,1997-03-03 09:00:00,17,1033.4,1.3,59,9,10000,7.408,,,350,,,,,,,,,,,wg-a,,,,AAXX 03094 07747 12/60 43504 10170 20090 30281 40334 51013 60006 80002 90900=
07747,1997-03-03 12:00:00,23,1031.8,-1.5,44,10,10000,3.704,,,330,,,,,,,,,,,wg-a,,,,AAXX 03124 07747 12/60 43302 10230 20100 30266 40318 58015 60006 81042 91200=
07747,1997-03-03 15:00:00,22,1030.5,-1.3,50,11,10000,11.112,,,140,,,,,,,,,,,wg-a,,,,AAXX 03154 07747 12/60 41406 10220 20110 30253 40305 56013 60006 81042 91500=
07747,1997-03-03 18:00:00,17,1030.9,0.3,68,11,9000,0,,,0,13.4,23.2,,,,,,,,,wg-a,,,,AAXX 03184 07747 12/59 /0000 10170 20110 30256 40309 53003 60006 81041 91800 333 10232 20134=
07747,1997-03-03 21:00:00,12,1031.6,0.6,82,9,9000,11.112,,,240,,,,,,,,,,,wg-a,,,,AAXX 03214 07747 12/59 /2406 10120 20090 30262 40316 53006 60006 81041 92100=
07747,1997-03-04 00:00:00,11,1031,-0.6,66,5,15000,11.112,,,270,,,,,,,,,,,wg-a,,,,AAXX 04004 07747 12/65 02706 10110 20050 30256 40310 58006 60006 80000 90000=
07747,1997-03-04 03:00:00,10,1030.7,-0.3,62,3,25000,3.704,,,290,,,,,,,,,,,wg-a,,,,AAXX 04034 07747 12/75 22902 10100 20030 30253 40307 58003 60006 80001 90300=
07747,1997-03-04 06:00:00,7,1030.8,-0,76,3,25000,3.704,,,320,6.7,17.1,,,,,,,,,wg-a,,,,AAXX 04064 07747 02/75 13202 10070 20030 30253 40308 55000 60006 80001 90600 333 10171 20067 60004=
07747,1997-03-04 09:00:00,16,1031.4,0.8,48,5,45000,3.704,,,20,,,,,,,,,,,wg-a,,,,AAXX 04094 07747 12/83 00202 10160 20050 30261 40314 51008 60006 80000 90900=
07747,1997-03-04 12:00:00,20,1029.8,-1.5,49,9,20000,11.112,,,120,,,,,,,,,,,wg-a,,,,AAXX 04124 07747 12/70 01206 10200 20090 30246 40298 58015 60006 80000 91200=
07747,1997-03-04 18:00:00,14,1028.8,0.6,82,11,3000,7.408,,,110,6.7,20.4,,,,,,,,10,wg-a,,,,AAXX 04184 07747 12430 81104 10140 20110 30235 40288 53006 60006 71011 84632 91800 333 10204 20067=
07747,1997-03-04 21:00:00,11,1029.4,0.5,100,11,400,7.408,,,60,,,,,,,,,,42,wg-a,,,,AAXX 04214 07747 12204 70604 10110 20110 30240 40294 53005 60006 74242 876// 92100=
07747,1997-03-05 00:00:00,11,1029.5,0.1,94,10,700,0,,,0,,,,,,,,,,44,wg-a,,,,AAXX 05004 07747 12107 70000 10110 20100 30241 40295 50001 60006 74442 876// 90000=
07747,1997-03-05 03:00:00,10,1029.4,-0.1,100,10,700,3.704,,,120,,,,,,,,,,44,wg-a,,,,AAXX 05034 07747 12107 71202 10100 20100 30240 40294 58001 60006 74444 876// 90300=
07747,1997-03-05 06:00:00,9,1029.8,0.4,93,8,100,3.704,,,240,8.7,13.4,,,,,,,,44,wg-a,,,,AAXX 05064 07747 02101 72402 10090 20080 30244 40298 51004 60006 74444 876// 90600 333 10134 20087 60004=
07747,1997-03-05 09:00:00,14,1030,0.3,72,9,500,3.704,,,120,,,,,,,,,,1,wg-a,,,,AAXX 05094 07747 12/00 01202 10140 20090 30247 40300 53003 60006 70141 80000 90900=
07747,1997-03-05 12:00:00,18,1028.6,-1.4,64,11,6000,14.816,,,130,,,,,,,,,,3,wg-a,,,,AAXX 05124 07747 12/56 /1308 10180 20110 30233 40286 56014 60006 70341 81031 91200=
07747,1997-03-05 15:00:00,20,1027.7,-0.8,56,11,8000,3.704,,,150,,,,,,,,,,,wg-a,,,,AAXX 05154 07747 12658 /1502 10200 20110 30225 40277 56008 60006 81101 91500=
07747,1997-03-05 18:00:00,16,1028,0.2,55,7,9000,25.928,,,330,7.7,20.5,,,,,,,,,wg-a,,,,AAXX 05184 07747 12/59 /3314 10160 20070 30227 40280 53002 60006 81042 91800 333 10205 20077=
07747,1997-03-06 00:00:00,15,1028.4,-1.7,59,7,15000,29.632,,,340,,,,,,,,,,,wg-a,,,,AAXX 06004 07747 12765 /3416 10150 20070 30231 40284 57017 60006 85500 90000=
07747,1997-03-06 03:00:00,15,1027.5,-0.9,59,7,15000,22.224,,,10,,,,,,,,,,,wg-a,,,,AAXX 06034 07747 12765 40112 10150 20070 30222 40275 56009 60006 84500 90300=
07747,1997-03-06 06:00:00,15,1028.2,0.7,63,8,25000,22.224,,,320,13.4,16.7,,,,,,,,,wg-a,,,,AAXX 06064 07747 02775 83212 10150 20080 30229 40282 51007 60006 83532 90600 333 10167 20134 60004=
07747,1997-03-06 09:00:00,15,1029.3,1.1,67,9,15000,31.484,,53.708,310,,,,,,,,,,,wg-a,,,,AAXX 06094 07747 12665 73117 10150 20090 30240 40293 53011 60006 81172 90900 333 91029=
07747,1997-03-06 12:00:00,19,1027.5,-1.7,46,7,15000,25.928,,,320,,,,,,,,,,,wg-a,,,,AAXX 06124 07747 12665 43214 10190 20070 30223 40275 58017 60006 81132 91200=
07747,1997-03-06 15:00:00,20,1025.6,-1.9,40,6,20000,35.188,,,330,,,,,,,,,,,wg-a,,,,AAXX 06154 07747 12670 /3319 10200 20060 30204 40256 56019 60006 81140 91500=
07747,1997-03-06 18:00:00,17,1025.6,-0.1,48,6,15000,35.188,,,310,15,21.1,,,,,,,,,wg-a,,,,AAXX 06184 07747 12/65 13119 10170 20060 30203 40256 57001 60006 81040 91800 333 10211 20150=
07747,1997-03-07 00:00:00,14,1027.9,-0,67,8,15000,18.52,,,330,,,,,,,,,,,wg-a,,,,AAXX 07004 07747 12/65 03310 10140 20080 30226 40279 55000 60006 80000 90000=
07747,1997-03-07 06:00:00,10,1027.4,0.4,82,7,20000,7.408,,,20,9.8,17.4,,,,,,,,,wg-a,,,,AAXX 07064 07747 02570 /0204 10100 20070 30220 40274 53004 60006 81100 90600 333 10174 20098 60004=
07747,1997-03-07 09:00:00,16,1028.1,0.8,59,8,500,14.816,,,330,,,,,,,,,,,wg-a,,,,AAXX 07094 07747 12500 /3308 10160 20080 30228 40281 52008 60006 81100 90900=
07747,1997-03-07 12:00:00,17,1027.5,-0.6,48,6,500,14.816,,,110,,,,,,,,,,,wg-a,,,,AAXX 07124 07747 12500 21108 10170 20060 30222 40275 58006 60006 82100 91200=
07747,1997-03-07 15:00:00,16,1026.6,-0.9,42,3,500,14.816,,,120,,,,,,,,,,,wg-a,,,,AAXX 07154 07747 12500 /1208 10160 20030 30213 40266 56009 60006 81100 91500=
07747,1997-03-07 18:00:00,13,1027.2,0.5,54,4,20000,3.704,,,290,9.8,17.9,,,,,,,,,wg-a,,,,AAXX 07184 07747 12/70 02902 10130 20040 30218 40272 53005 60006 80000 91800 333 10179 20098=
07747,1997-03-07 21:00:00,8,1027.7,0.4,81,5,15000,7.408,,,260,,,,,,,,,,,wg-a,,,,AAXX 07214 07747 12465 /2604 10080 20050 30222 40277 51004 60006 81500 92100=
07747,1997-03-08 00:00:00,7,1028.2,0.5,81,4,25000,7.408,,,280,,,,,,,,,,,wg-a,,,,AAXX 08004 07747 12/75 02804 10070 20040 30227 40282 52005 60006 80000 90000=
07747,1997-03-08 03:00:00,6,1028.2,0,81,3,25000,3.704,,,20,,,,,,,,,,,wg-a,,,,AAXX 08034 07747 12/75 00202 10060 20030 30227 40282 50000 60006 80000 90300=
07747,1997-03-08 06:00:00,5,1029.5,1.3,87,3,25000,3.704,,,290,4.1,13.3,,,,,,,,,wg-a,,,,AAXX 08064 07747 02/75 02902 10050 20030 30240 40295 51013 60006 80000 90600 333 10133 20041 60004=
07747,1997-03-08 09:00:00,14,1030.4,1.1,63,7,45000,0,,,0,,,,,,,,,,,wg-a,,,,AAXX 08094 07747 12/83 00000 10140 20070 30251 40304 51011 60006 80000 90900=
07747,1997-03-08 12:00:00,18,1029.4,-1,45,6,20000,7.408,,,130,,,,,,,,,,,wg-a,,,,AAXX 08124 07747 12/70 01304 10180 20060 30241 40294 58010 60006 80000 91200=
07747,1997-03-08 15:00:00,18,1028.3,-1.1,49,7,20000,14.816,,,130,,,,,,,,,,,wg-a,,,,AAXX 08154 07747 12670 /1308 10180 20070 30230 40283 55011 60006 81100 91500=
07747,1997-03-08 18:00:00,13,1028.8,0.4,72,8,10000,0,,,0,4.9,19,,,,,,,,,wg-a,,,,AAXX 08184 07747 12660 /0000 10130 20080 30234 40288 53004 60006 81500 91800 333 10190 20049=
07747,1997-03-09 00:00:00,11,1029,0,62,4,20000,11.112,,,280,,,,,,,,,,,wg-a,,,,AAXX 09004 07747 12/70 02806 10110 20040 30236 40290 50000 60006 80000 90000=
07747,1997-03-09 03:00:00,9,1029.5,0.5,87,7,20000,11.112,,,10,,,,,,,,,,,wg-a,,,,AAXX 09034 07747 12/70 00106 10090 20070 30241 40295 53005 60006 80000 90300=
07747,1997-03-09 06:00:00,7,1030.8,1.2,93,6,9000,3.704,,,270,6.1,13.3,,,,,,,,,wg-a,,,,AAXX 09064 07747 02/59 02702 10070 20060 30253 40308 53012 60006 80000 90600 333 10133 20061 60004=
07747,1997-03-09 09:00:00,15,1032.1,1.5,63,8,12000,3.704,,,150,,,,,,,,,,,wg-a,,,,AAXX 09094 07747 12/62 01502 10150 20080 30268 40321 51015 60006 80000 90900=
07747,1997-03-09 12:00:00,16,1031.5,-0.6,63,9,9000,11.112,,,100,,,,,,,,,,,wg-a,,,,AAXX 09124 07747 12/59 01006 10160 20090 30262 40315 58006 60006 80000 91200=
07747,1997-03-09 15:00:00,17,1030.2,-1.3,45,5,10000,22.224,,,120,,,,,,,,,,,wg-a,,,,AAXX 09154 07747 12/60 01212 10170 20050 30249 40302 56013 60006 80000 91500=
07747,1997-03-09 18:00:00,14,1031.2,0.9,36,-1,15000,14.816,,,150,6,17.5,,,,,,,,,wg-a,,,,AAXX 09184 07747 12/65 11508 10140 21010 30258 40312 53009 60006 80001 91800 333 10175 20060=
07747,1997-03-10 00:00:00,8,1031.7,0,46,-3,15000,7.408,,,340,,,,,,,,,,,wg-a,,,,AAXX 10004 07747 12/65 03404 10080 21030 30262 40317 50000 60006 80000 90000=
07747,1997-03-10 03:00:00,3,1031.6,-0.2,87,1,15000,7.408,,,270,,,,,,,,,,,wg-a,,,,AAXX 10034 07747 12/65 02704 10030 20010 30260 40316 58002 60006 80000 90300=
07747,1997-03-10 06:00:00,3,1032.8,1.2,81,0,25000,3.704,,,260,2,13.9,,,,,,,,,wg-a,,,,AAXX 10064 07747 02/75 02602 10030 20000 30272 40328 53012 60006 80000 90600 333 10139 20020 60004=
07747,1997-03-10 09:00:00,13,1033.2,0.6,72,8,25000,7.408,,,70,,,,,,,,,,,wg-a,,,,AAXX 10094 07747 12/75 00704 10130 20080 30278 40332 52006 60006 80000 90900=
07747,1997-03-10 12:00:00,16,1031.8,-1.3,51,6,25000,14.816,,,100,,,,,,,,,,,wg-a,,,,AAXX 10124 07747 12/75 01008 10160 20060 30265 40318 58013 60006 80000 91200=
07747,1997-03-10 15:00:00,16,1030.4,-1.4,48,5,25000,14.816,,,90,,,,,,,,,,,wg-a,,,,AAXX 10154 07747 12/75 00908 10160 20050 30251 40304 56014 60006 80000 91500=
07747,1997-03-10 18:00:00,14,1030,-0.5,55,5,20000,3.704,,,130,2.4,17.1,,,,,,,,,wg-a,,,,AAXX 10184 07747 12/70 01302 10140 20050 30246 40300 55005 60006 80000 91800 333 10171 20024=
07747,1997-03-11 00:00:00,8,1028.8,-0.8,76,4,15000,7.408,,,260,,,,,,,,,,,wg-a,,,,AAXX 11004 07747 12/65 02604 10080 20040 30233 40288 58008 60006 80000 90000=
07747,1997-03-11 03:00:00,6,1027.8,-1,81,3,15000,0,,,0,,,,,,,,,,,wg-a,,,,AAXX 11034 07747 12/65 00000 10060 20030 30223 40278 57010 60006 80000 90300=
07747,1997-03-11 06:00:00,5,1028.1,0.3,81,2,50000,7.408,,,280,4.8,13.5,,,,,,,,,wg-a,,,,AAXX 11064 07747 02/84 12804 10050 20020 30226 40281 53003 60006 80002 90600 333 10135 20048 60004=
07747,1997-03-11 09:00:00,17,1028.7,0.8,39,3,500,0,,,0,,,,,,,,,,,wg-a,,,,AAXX 11094 07747 12/00 00000 10170 20030 30234 40287 51008 60006 80000 90900=
07747,1997-03-11 12:00:00,19,1028.8,-0.2,37,4,500,18.52,,,90,,,,,,,,,,,wg-a,,,,AAXX 11124 07747 12/00 00910 10190 20040 30232 40288 58002 60006 80000 91200=
07747,1997-03-11 15:00:00,18,1027.4,-1.4,49,7,500,11.112,,,90,,,,,,,,,,,wg-a,,,,AAXX 11154 07747 12/00 00906 10180 20070 30218 40274 56014 60006 80000 91500=
07747,1997-03-11 18:00:00,14,1028.2,0.7,67,8,12000,7.408,,,90,4.9,20,,,,,,,,,wg-a,,,,AAXX 11184 07747 12/62 00904 10140 20080 30225 40282 53007 60006 80000 91800 333 10200 20049=
07747,1997-03-12 00:00:00,8,1033.7,2.8,87,6,15000,3.704,,,350,,,,,,,,,,,wg-a,,,,AAXX 12004 07747 12/65 03502 10080 20060 30279 40337 51028 60006 80000 90000=
07747,1997-03-12 03:00:00,7,1034,0.2,81,4,15000,3.704,,,350,,,,,,,,,,,wg-a,,,,AAXX 12034 07747 12/65 03502 10070 20040 30281 40340 50002 60006 80000 90300=
07747,1997-03-12 06:00:00,5,1034.6,0.6,93,4,10000,7.408,,,270,4,13.6,,,,,,,,,wg-a,,,,AAXX 12064 07747 02/60 02704 10050 20040 30287 40346 53006 60006 80000 90600 333 10136 20040 60004=
07747,1997-03-12 09:00:00,14,1034.7,0.3,67,8,15000,3.704,,,30,,,,,,,,,,,wg-a,,,,AAXX 12094 07747 12/65 00302 10140 20080 30290 40347 51003 60006 80000 90900=
07747,1997-03-12 12:00:00,17,1033.5,-1.2,52,7,15000,11.112,,,120,,,,,,,,,,,wg-a,,,,AAXX 12124 07747 12/65 01206 10170 20070 30278 40335 58012 60006 80000 91200=
07747,1997-03-12 15:00:00,17,1031,-2.4,48,6,15000,11.112,,,110,,,,,,,,,,,wg-a,,,,AAXX 12154 07747 12/65 01106 10170 20060 30254 40310 56024 60006 80000 91500=
07747,1997-03-12 18:00:00,14,1030.4,-0.7,63,7,15000,3.704,,,220,4.7,17.2,,,,,,,,,wg-a,,,,AAXX 12184 07747 12/65 12202 10140 20070 30247 40304 55007 60006 80002 91800 333 10172 20047=
07747,1997-03-13 00:00:00,15,1029.8,-0.7,51,5,20000,18.52,,,300,,,,,,,,,,,wg-a,,,,AAXX 13004 07747 12/70 03010 10150 20050 30241 40298 58007 60006 80000 90000=
07747,1997-03-13 03:00:00,13,1028.2,-1.6,58,5,20000,18.52,,,300,,,,,,,,,,,wg-a,,,,AAXX 13034 07747 12/70 33010 10130 20050 30225 40282 58016 60006 80001 90300=
07747,1997-03-13 06:00:00,14,1027.6,-0.6,51,4,15000,14.816,,,240,11.1,15.7,,,,,,,,,wg-a,,,,AAXX 13064 07747 02/65 12408 10140 20040 30219 40276 56006 60006 80001 90600 333 10157 20111 60004=
07747,1997-03-13 09:00:00,20,1027.6,0.1,40,6,25000,22.224,,,340,,,,,,,,,,,wg-a,,,,AAXX 13094 07747 12/75 13412 10200 20060 30220 40276 53001 60006 80001 90900=
07747,1997-03-13 12:00:00,23,1025.6,-1.9,25,2,25000,31.484,,,320,,,,,,,,,,,wg-a,,,,AAXX 13124 07747 12/75 13217 10230 20020 30201 40256 58019 60006 80001 91200=
07747,1997-03-13 18:00:00,20,1022.9,-0.2,32,3,25000,31.484,,,320,13.3,24,,,,,,,,,wg-a,,,,AAXX 13184 07747 12/75 03217 10200 20030 30174 40229 55002 60006 80000 91800 333 10240 20133=
07747,1997-03-13 21:00:00,18,1024.3,1.3,39,4,15000,22.224,,,330,,,,,,,,,,,wg-a,,,,AAXX 13214 07747 12/65 03312 10180 20040 30187 40243 51013 60006 80000 92100=
07747,1997-03-14 00:00:00,16,1023.5,-0.8,48,5,25000,11.112,,,320,,,,,,,,,,,wg-a,,,,AAXX 14004 07747 12/75 03206 10160 20050 30179 40235 56008 60006 80000 90000=
07747,1997-03-14 06:00:00,15,1022.6,0.2,48,4,12000,42.596,,61.116,320,14.5,20.2,,,,,,,,,wg-a,,,,AAXX 14064 07747 02/62 03223 10150 20040 30170 40226 53002 60006 80000 90600 333 10202 20145 60004 91033=
07747,1997-03-14 09:00:00,15,1023.4,0.8,48,4,12000,46.3,,66.672,330,,,,,,,,,,,wg-a,,,,AAXX 14094 07747 12562 /3325 10150 20040 30178 40234 50008 60006 81100 90900 333 91036=
07747,1997-03-14 12:00:00,17,1024.2,0.8,42,4,11000,38.892,,64.82,330,,,,,,,,,,,wg-a,,,,AAXX 14124 07747 12561 /3321 10170 20040 30186 40242 53008 60006 81102 91200 333 91035=
07747,1997-03-14 15:00:00,17,1022.1,-2.1,39,3,12000,46.3,,74.08,330,,,,,,,,,,,wg-a,,,,AAXX 14154 07747 12662 /3325 10170 20030 30165 40221 56021 60006 81142 91500 333 91040=
07747,1997-03-14 18:00:00,14,1024.4,2.2,51,4,12000,25.928,,50.004,330,13.2,17.7,,,,,,,,,wg-a,,,,AAXX 14184 07747 12662 /3314 10140 20040 30187 40244 51022 60006 81140 91800 333 10177 20132 91027=
07747,1997-03-14 21:00:00,14,1024.9,0.5,55,5,15000,53.708,,77.784,330,,,,,,,,,,,wg-a,,,,AAXX 14214 07747 12665 /3329 10140 20050 30192 40249 51005 60006 81140 92100 333 91042=
07747,1997-03-15 00:00:00,13,1026.3,1.4,67,7,15000,35.188,,,320,,,,,,,,,,,wg-a,,,,AAXX 15004 07747 12565 23219 10130 20070 30206 40263 52014 60006 82140 90000=
07747,1997-03-15 03:00:00,13,1025.4,-0.9,62,6,15000,29.632,,,330,,,,,,,,,,,wg-a,,,,AAXX 15034 07747 12665 43316 10130 20060 30197 40254 56009 60006 84140 90300=
07747,1997-03-15 06:00:00,13,1025.7,0.3,62,6,500,38.892,,57.412,330,11.4,14.4,,,,,,,,,wg-a,,,,AAXX 15064 07747 02500 23321 10130 20060 30200 40257 51003 60006 82100 90600 333 10144 20114 60004 91031=
07747,1997-03-15 09:00:00,15,1026.2,0.6,55,6,60000,31.484,,59.264,330,,,,,,,,,,,wg-a,,,,AAXX 15094 07747 12586 23317 10150 20060 30206 40262 50006 60006 82140 90900 333 91032=
07747,1997-03-15 12:00:00,19,1024.3,-1.9,43,6,60000,42.596,,74.08,320,,,,,,,,,,,wg-a,,,,AAXX 15124 07747 12686 /3223 10190 20060 30187 40243 56019 60006 81100 91200 333 91040=
07747,1997-03-15 15:00:00,19,1023.5,-0.8,43,6,60000,42.596,,62.968,320,,,,,,,,,,,wg-a,,,,AAXX 15154 07747 12686 /3223 10190 20060 30179 40235 56008 60006 81140 91500 333 91034=
07747,1997-03-15 18:00:00,17,1024.3,0.8,48,6,500,35.188,,57.412,330,12.5,19.5,,,,,,,,,wg-a,,,,AAXX 15184 07747 12600 /3319 10170 20060 30187 40243 53008 60006 81141 91800 333 10195 20125 91031=
07747,1997-03-15 21:00:00,16,1025.5,1.2,55,7,25000,31.484,,,330,,,,,,,,,,,wg-a,,,,AAXX 15214 07747 12/75 13317 10160 20070 30199 40255 51012 60006 81040 92100=
07747,1997-03-16 00:00:00,15,1025.3,-0.2,59,7,20000,35.188,,,330,,,,,,,,,,,wg-a,,,,AAXX 16004 07747 12/70 03319 10150 20070 30197 40253 58002 60006 80000 90000=
07747,1997-03-16 03:00:00,15,1025.2,-0.2,59,7,20000,35.188,,,330,,,,,,,,,,,wg-a,,,,AAXX 16034 07747 12/70 03319 10150 20070 30195 40252 58002 60006 80000 90300=
07747,1997-03-16 06:00:00,14,1026,0.8,63,7,45000,31.484,,,330,13.9,16.7,,,,,,,,,wg-a,,,,AAXX 16064 07747 02683 /3317 10140 20070 30203 40260 53008 60006 81142 90600 333 10167 20139 60004=
07747,1997-03-16 12:00:00,22,1024.1,-1.7,35,6,45000,22.224,,,340,,,,,,,,,,,wg-a,,,,AAXX 16124 07747 12/83 13412 10220 20060 30186 40241 58017 60006 80001 91200=
07747,1997-03-16 18:00:00,20,1023,0.5,40,6,40000,18.52,,,340,14.3,24.1,,,,,,,,,wg-a,,,,AAXX 16184 07747 12/82 03410 10200 20060 30175 40230 52005 60006 80000 91800 333 10241 20143=
07747,1997-03-16 21:00:00,18,1024.3,1.2,45,6,25000,29.632,,,310,,,,,,,,,,,wg-a,,,,AAXX 16214 07747 12/75 03116 10180 20060 30187 40243 51012 60006 80000 92100=
07747,1997-03-17 00:00:00,17,1023.9,-0.4,48,6,25000,14.816,,,300,,,,,,,,,,,wg-a,,,,AAXX 17004 07747 12/75 03008 10170 20060 30183 40239 58004 60006 80000 90000=
07747,1997-03-17 03:00:00,16,1022.9,-1,48,5,25000,7.408,,,300,,,,,,,,,,,wg-a,,,,AAXX 17034 07747 12/75 03004 10160 20050 30173 40229 58010 60006 80000 90300=
07747,1997-03-17 06:00:00,16,1023,0.1,42,3,60000,11.112,,,320,12.9,19.7,,,,,,,,,wg-a,,,,AAXX 17064 07747 02/86 13206 10160 20030 30174 40230 53001 60006 81030 90600 333 10197 20129 60004=
07747,1997-03-17 09:00:00,23,1023.1,0.2,31,5,60000,18.52,,,330,,,,,,,,,,,wg-a,,,,AAXX 17094 07747 12/86 13310 10230 20050 30176 40231 50002 60006 81040 90900=
07747,1997-03-17 12:00:00,27,1021.6,-1.4,18,1,60000,29.632,,,340,,,,,,,,,,,wg-a,,,,AAXX 17124 07747 12/86 13416 10270 20010 30162 40216 58014 60006 80001 91200=
07747,1997-03-17 15:00:00,28,1019.6,-2,15,-1,40000,31.484,,,310,,,,,,,,,,,wg-a,,,,AAXX 17154 07747 12/82 13117 10280 21010 30142 40196 56020 60006 80002 91500=
07747,1997-03-17 18:00:00,23,1020.3,0.6,27,3,50000,22.224,,,320,15.1,28,,,,,,,,,wg-a,,,,AAXX 17184 07747 12/84 03212 10230 20030 30148 40203 53006 60006 80000 91800 333 10280 20151=
07747,1997-03-17 21:00:00,21,1020.6,0.3,30,3,40000,25.928,,,310,,,,,,,,,,,wg-a,,,,AAXX 17214 07747 12/82 03114 10210 20030 30151 40206 50003 60006 80000 92100=
07747,1997-03-18 00:00:00,21,1020.4,-0.2,35,5,40000,22.224,,,320,,,,,,,,,,,wg-a,,,,AAXX 18004 07747 12/82 03212 10210 20050 30149 40204 58002 60006 80000 90000=
07747,1997-03-18 03:00:00,19,1019.2,-1.2,40,5,40000,22.224,,,320,,,,,,,,,,,wg-a,,,,AAXX 18034 07747 12/82 03212 10190 20050 30137 40192 57012 60006 80000 90300=
07747,1997-03-18 06:00:00,18,1019.2,-0,42,5,10000,25.928,,,310,17.5,23.2,,,,,,,,,wg-a,,,,AAXX 18064 07747 02/60 /3114 10180 20050 30137 40192 55000 60006 90600 333 10232 20175 60004=
07747,1997-03-18 09:00:00,22,1019.2,-0,38,7,60000,29.632,,,320,,,,,,,,,,,wg-a,,,,AAXX 18094 07747 12/86 03216 10220 20070 30137 40192 54000 60006 80000 90900=
07747,1997-03-18 12:00:00,25,1018.2,-0.9,21,1,45000,29.632,,,340,,,,,,,,,,,wg-a,,,,AAXX 18124 07747 12/83 23416 10250 20010 30128 40182 58009 60006 80002 91200=
07747,1997-03-18 15:00:00,25,1016.4,-1.8,26,4,45000,25.928,,,340,,,,,,,,,,,wg-a,,,,AAXX 18154 07747 12783 /3414 10250 20040 30110 40164 56018 60006 81100 91500=
07747,1997-03-18 18:00:00,22,1016.2,-0.3,41,8,40000,22.224,,,340,18.3,26,,,,,,,,,wg-a,,,,AAXX 18184 07747 12782 /3412 10220 20080 30107 40162 55003 60006 81531 91800 333 10260 20183=
07747,1997-03-18 21:00:00,19,1017.4,1.2,49,8,25000,18.52,,,320,,,,,,,,,,,wg-a,,,,AAXX 18214 07747 12675 33210 10190 20080 30119 40174 51012 60006 81530 92100=
07747,1997-03-19 00:00:00,18,1016.2,-1.2,24,-3,25000,11.112,,,330,,,,,,,,,,,wg-a,,,,AAXX 19004 07747 12/75 03306 10180 21030 30107 40162 58012 60006 80000 90000=
07747,1997-03-19 03:00:00,12,1016.1,-0.2,67,6,25000,35.188,,55.56,330,,,,,,,,,,,wg-a,,,,AAXX 19034 07747 12675 /3319 10120 20060 30105 40161 58002 60006 81100 90300 333 91030=
07747,1997-03-19 06:00:00,13,1017,0.9,62,6,25000,29.632,,,320,12.2,21.8,,,,,,,,,wg-a,,,,AAXX 19064 07747 02575 /3216 10130 20060 30114 40170 51009 60006 86500 90600 333 10218 20122 60004=
07747,1997-03-19 12:00:00,15,1014.6,-1.4,51,5,40000,35.188,,57.412,340,,,,,,,,,,,wg-a,,,,AAXX 19124 07747 12682 73419 10150 20050 30090 40146 55014 60006 878// 91200 333 91031=
07747,1997-03-19 15:00:00,17,1012.8,-1.7,39,3,40000,53.708,,79.636,330,,,,,,,,,,,wg-a,,,,AAXX 19154 07747 12682 23329 10170 20030 30073 40128 56017 60006 82202 91500 333 91043=
07747,1997-03-19 18:00:00,15,1013.9,1,48,4,40000,31.484,,51.856,340,13,18.2,,,,,,,,,wg-a,,,,AAXX 19184 07747 12782 /3417 10150 20040 30083 40139 53010 60006 85242 91800 333 10182 20130 91028=
07747,1997-03-19 21:00:00,12,1017,3,62,5,25000,35.188,,53.708,360,,,,,,,,,,,wg-a,,,,AAXX 19214 07747 12575 /3619 10120 20050 30113 40170 53030 60006 86800 92100 333 91029=
07747,1997-03-20 00:00:00,12,1018.1,1.1,54,3,18000,25.928,,,330,,,,,,,,,,1,wg-a,,,,AAXX 20004 07747 02668 43314 10120 20030 30124 40181 51011 61000 70161 848/0 90000 333 6100=
07747,1997-03-20 03:00:00,10,1017.8,-0.3,62,3,20000,29.632,,,330,,,,,,,,,,,wg-a,,,,AAXX 20034 07747 12570 23316 10100 20030 30121 40178 58003 60006 82800 90300=
07747,1997-03-20 06:00:00,10,1018,0.2,57,2,45000,29.632,,,340,10,14.9,,,,,,,,,wg-a,,,,AAXX 20064 07747 02583 /3416 10100 20020 30123 40180 53002 60006 81800 90600 333 10149 20100 61000=
07747,1997-03-20 12:00:00,16,1017,-1.7,34,0,60000,29.632,,,330,,,,,,,,,,,wg-a,,,,AAXX 20124 07747 12686 /3316 10160 20000 30114 40170 58017 60006 81101 91200=
07747,1997-03-20 15:00:00,17,1015.7,-1.3,32,0,60000,29.632,,,330,,,,,,,,,,,wg-a,,,,AAXX 20154 07747 12686 /3316 10170 20000 30101 40157 56013 60006 81101 91500=
07747,1997-03-20 18:00:00,15,1016.6,0.9,33,-1,60000,18.52,,,10,10.1,17.6,,,,,,,,,wg-a,,,,AAXX 20184 07747 12686 /0110 10150 21010 30110 40166 53009 60006 81100 91800 333 10176 20101=
07747,1997-03-20 21:00:00,11,1017.9,1.2,47,0,40000,7.408,,,320,,,,,,,,,,,wg-a,,,,AAXX 20214 07747 12/82 13204 10110 20000 30122 40179 51012 60006 80001 92100=
07747,1997-03-21 00:00:00,11,1017.4,-0.5,47,0,40000,14.816,,,300,,,,,,,,,,,wg-a,,,,AAXX 21004 07747 12/82 13008 10110 20000 30117 40174 57005 60006 80001 90000=
07747,1997-03-21 03:00:00,7,1016.6,-0.9,61,0,40000,7.408,,,260,,,,,,,,,,,wg-a,,,,AAXX 21034 07747 12/82 02604 10070 20000 30108 40166 58009 60006 80000 90300=
07747,1997-03-21 06:00:00,5,1017.1,0.5,75,1,60000,7.408,,,260,4.2,14.5,,,,,,,,,wg-a,,,,AAXX 21064 07747 02/86 12604 10050 20010 30113 40171 53005 60006 80001 90600 333 10145 20042 60004=
07747,1997-03-21 09:00:00,15,1018,1.1,41,2,500,3.704,,,170,,,,,,,,,,,wg-a,,,,AAXX 21094 07747 12/00 21702 10150 20020 30124 40180 51011 60006 80001 90900=
07747,1997-03-21 12:00:00,18,1017.6,-0.4,39,4,500,18.52,,,130,,,,,,,,,,,wg-a,,,,AAXX 21124 07747 12/00 51310 10180 20040 30120 40176 57004 60006 80001 91200=
07747,1997-03-21 15:00:00,17,1017.1,-0.5,25,-3,500,14.816,,,130,,,,,,,,,,,wg-a,,,,AAXX 21154 07747 12/00 51308 10170 21030 30115 40171 56005 60006 80001 91500=
07747,1997-03-21 18:00:00,15,1017.5,0.4,29,-3,500,3.704,,,170,4.3,18.5,,,,,,,,,wg-a,,,,AAXX 21184 07747 12/00 51702 10150 21030 30119 40175 53004 60006 80001 91800 333 10185 20043=
07747,1997-03-21 21:00:00,12,1018.5,0.9,40,-1,25000,11.112,,,300,,,,,,,,,,,wg-a,,,,AAXX 21214 07747 12/75 33006 10120 21010 30128 40185 50009 60006 80001 92100=
07747,1997-03-22 00:00:00,13,1019.2,0.7,41,0,25000,7.408,,,360,,,,,,,,,,,wg-a,,,,AAXX 22004 07747 12/75 33604 10130 20000 30135 40192 52007 60006 80001 90000=
07747,1997-03-22 06:00:00,11,1018.5,0.2,47,0,25000,14.816,,,280,8,14.7,,,,,,,,,wg-a,,,,AAXX 22064 07747 02/75 22808 10110 20000 30128 40185 53002 60006 81031 90600 333 10147 20080 60004=
07747,1997-03-22 09:00:00,17,1018.9,0.5,34,1,45000,35.188,,,310,,,,,,,,,,,wg-a,,,,AAXX 22094 07747 12/83 53119 10170 20010 30133 40189 51005 60006 81031 90900=
07747,1997-03-22 12:00:00,18,1018.7,-0.2,49,7,45000,14.816,,,20,,,,,,,,,,,wg-a,,,,AAXX 22124 07747 12683 /0208 10180 20070 30131 40187 58002 60006 81132 91200=
07747,1997-03-22 15:00:00,16,1018.8,0.1,45,4,25000,11.112,,,130,,,,,,,,,,,wg-a,,,,AAXX 22154 07747 12/75 31306 10160 20040 30132 40188 53001 60006 81041 91500=
07747,1997-03-22 18:00:00,14,1019.4,0.6,47,3,40000,3.704,,,150,10.9,19.9,,,,,,,,,wg-a,,,,AAXX 22184 07747 12/82 01502 10140 20030 30138 40194 53006 60006 80000 91800 333 10199 20109=
07747,1997-03-22 21:00:00,9,1020.3,0.8,66,3,20000,11.112,,,280,,,,,,,,,,,wg-a,,,,AAXX 22214 07747 12/70 02806 10090 20030 30146 40203 51008 60006 80000 92100=
07747,1997-03-23 00:00:00,8,1020.1,-0.3,71,3,20000,3.704,,,20,,,,,,,,,,,wg-a,,,,AAXX 23004 07747 12/70 00202 10080 20030 30143 40201 57003 60006 80000 90000=
07747,1997-03-23 03:00:00,5,1019.1,-1,87,3,20000,7.408,,,260,,,,,,,,,,,wg-a,,,,AAXX 23034 07747 12/70 02604 10050 20030 30133 40191 58010 60006 80000 90300=
07747,1997-03-23 06:00:00,4,1019.9,0.7,87,2,20000,7.408,,,250,3.1,13.6,,,,,,,,,wg-a,,,,AAXX 23064 07747 02/70 12504 10040 20020 30140 40199 52007 60006 80001 90600 333 10136 20031 60004=
07747,1997-03-23 09:00:00,16,1019.6,0,42,3,500,3.704,,,170,,,,,,,,,,,wg-a,,,,AAXX 23094 07747 12/00 11702 10160 20030 30140 40196 50000 60006 80004 90900=
07747,1997-03-23 12:00:00,19,1017.1,-2.4,40,5,25000,14.816,,,140,,,,,,,,,,,wg-a,,,,AAXX 23124 07747 12/75 41408 10190 20050 30116 40171 58024 60006 80004 91200=
07747,1997-03-23 15:00:00,19,1015.1,-2,43,6,25000,11.112,,,130,,,,,,,,,,,wg-a,,,,AAXX 23154 07747 12775 71306 10190 20060 30096 40151 57020 60006 81206 91500=
07747,1997-03-23 18:00:00,17,1014.7,-0.4,52,7,20000,0,,,0,3.4,19.8,,,,,,,,,wg-a,,,,AAXX 23184 07747 12870 70000 10170 20070 30092 40147 55004 60006 81152 91800 333 10198 20034=
07747,1997-03-23 21:00:00,17,1014.8,0,39,3,18000,22.224,,,310,,,,,,,,,,,wg-a,,,,AAXX 23214 07747 12/68 63112 10170 20030 30092 40148 50000 60006 81044 92100=
07747,1997-03-24 00:00:00,17,1013.5,-1.3,36,2,20000,31.484,,,320,,,,,,,,,,,wg-a,,,,AAXX 24004 07747 12/70 53217 10170 20020 30079 40135 56013 60006 84042 90000=
07747,1997-03-24 06:00:00,13,1012.6,1.2,35,-2,40000,29.632,,48.152,330,12.3,17.2,,,,,,,,,wg-a,,,,AAXX 24064 07747 02/82 73316 10130 21020 30070 40126 53012 60006 83044 90600 333 10172 20123 60004 91026=
07747,1997-03-24 09:00:00,15,1012.6,0,39,1,500,42.596,,68.524,320,,,,,,,,,,,wg-a,,,,AAXX 24094 07747 12500 73223 10150 20010 30070 40126 50000 60006 84542 90900 333 91037=
07747,1997-03-24 12:00:00,16,1012,-0.6,51,6,60000,38.892,,61.116,310,,,,,,,,,,,wg-a,,,,AAXX 24124 07747 12586 73121 10160 20060 30064 40120 56006 60006 81142 91200 333 91033=
07747,1997-03-24 15:00:00,16,1009.8,-2.1,55,7,60000,38.892,,66.672,330,,,,,,,,,,,wg-a,,,,AAXX 24154 07747 12686 73321 10160 20070 30043 40098 56021 60006 82142 91500 333 91036=
07747,1997-03-24 18:00:00,16,1010.7,0.8,51,6,25000,31.484,,,310,12.8,17.4,,,,,,,,,wg-a,,,,AAXX 24184 07747 12675 63117 10160 20060 30051 40107 53008 60006 82142 91800 333 10174 20128=
07747,1997-03-24 21:00:00,13,1012,1.3,67,7,20000,22.224,,,320,,,,,,,,,,,wg-a,,,,AAXX 24214 07747 12570 53212 10130 20070 30064 40120 53013 60006 83140 92100=
07747,1997-03-25 00:00:00,13,1011.8,-0.2,58,5,25000,38.892,,59.264,320,,,,,,,,,,,wg-a,,,,AAXX 25004 07747 12575 73221 10130 20050 30062 40118 55002 60006 878// 90000 333 91032=
07747,1997-03-25 03:00:00,12,1012.3,0.5,58,4,25000,31.484,,,330,,,,,,,,,,,wg-a,,,,AAXX 25034 07747 12575 83317 10120 20040 30067 40123 52005 60006 878// 90300=
07747,1997-03-25 06:00:00,12,1013.8,1.4,54,3,50000,29.632,,,330,11.2,15.5,,,,,,,,1,wg-a,,,,AAXX 25064 07747 02584 53316 10120 20030 30081 40138 53014 60006 70162 83840 90600 333 10155 20112 61000=
07747,1997-03-25 09:00:00,14,1015.1,1.4,47,3,11000,38.892,,,330,,,,,,,,,,,wg-a,,,,AAXX 25094 07747 12/61 /3321 10140 20030 30095 40151 51014 60006 90900=
07747,1997-03-25 12:00:00,16,1015.6,0.5,48,5,60000,35.188,,,320,,,,,,,,,,,wg-a,,,,AAXX 25124 07747 12686 33219 10160 20050 30100 40156 51005 60006 82840 91200=
07747,1997-03-25 15:00:00,17,1014.7,-0.9,45,5,60000,42.596,,64.82,340,,,,,,,,,,,wg-a,,,,AAXX 25154 07747 12686 23423 10170 20050 30091 40147 56009 60006 81840 91500 333 91035=
07747,1997-03-25 18:00:00,15,1016.5,1.8,48,4,60000,31.484,,,330,11.5,17.1,,,,,,,,,wg-a,,,,AAXX 25184 07747 12686 23317 10150 20040 30109 40165 53018 60006 81840 91800 333 10171 20115=
07747,1997-03-25 21:00:00,14,1017.8,1.3,55,5,25000,31.484,,,330,,,,,,,,,,,wg-a,,,,AAXX 25214 07747 12675 33317 10140 20050 30122 40178 50013 60006 81840 92100=
07747,1997-03-26 00:00:00,13,1019.6,1.7,58,5,25000,25.928,,,330,,,,,,,,,,,wg-a,,,,AAXX 26004 07747 12675 /3314 10130 20050 30139 40196 52017 60006 81840 90000=
07747,1997-03-26 06:00:00,11,1021,1,66,5,25000,25.928,,,310,10.8,14.6,,,,,,,,,wg-a,,,,AAXX 26064 07747 02675 /3114 10110 20050 30153 40210 53010 60006 81500 90600 333 10146 20108 60004=
07747,1997-03-26 09:00:00,16,1022.1,1.2,42,3,25000,25.928,,,330,,,,,,,,,,,wg-a,,,,AAXX 26094 07747 12/75 03314 10160 20030 30165 40221 53012 60006 80000 90900=
07747,1997-03-26 12:00:00,19,1021,-1.1,30,1,25000,18.52,,,320,,,,,,,,,,,wg-a,,,,AAXX 26124 07747 12/75 23210 10190 20010 30154 40210 56011 60006 80001 91200=
07747,1997-03-26 18:00:00,16,1022,1.1,45,4,25000,11.112,,,360,11.1,21,,,,,,,,,wg-a,,,,AAXX 26184 07747 12/75 23606 10160 20040 30164 40220 53011 60006 80001 91800 333 10210 20111=
07747,1997-03-26 21:00:00,14,1024,1.9,47,3,25000,22.224,,,300,,,,,,,,,,,wg-a,,,,AAXX 26214 07747 12/75 33012 10140 20030 30183 40240 53019 60006 80001 92100=
07747,1997-03-27 00:00:00,13,1024.6,0.6,67,7,25000,14.816,,,270,,,,,,,,,,,wg-a,,,,AAXX 27004 07747 12/75 42708 10130 20070 30190 40246 51006 60006 80001 90000=
07747,1997-03-27 03:00:00,13,1023.8,-0.8,51,3,25000,18.52,,,300,,,,,,,,,,,wg-a,,,,AAXX 27034 07747 12/75 33010 10130 20030 30181 40238 58008 60006 80001 90300=
07747,1997-03-27 06:00:00,11,1024.5,0.7,58,3,50000,14.816,,,270,9.7,16.3,,,,,,,,,wg-a,,,,AAXX 27064 07747 02/84 32708 10110 20030 30188 40245 53007 60006 80001 90600 333 10163 20097 60004=
07747,1997-03-27 09:00:00,19,1024.6,0.2,40,5,35000,22.224,,,330,,,,,,,,,,,wg-a,,,,AAXX 27094 07747 12/81 33312 10190 20050 30190 40246 50002 60006 80001 90900=
07747,1997-03-27 12:00:00,23,1023,-1.5,31,5,35000,3.704,,,30,,,,,,,,,,,wg-a,,,,AAXX 27124 07747 12781 /0302 10230 20050 30175 40230 58015 60006 81101 91200=
07747,1997-03-27 15:00:00,25,1020.4,-2.5,26,4,35000,11.112,,,310,,,,,,,,,,,wg-a,,,,AAXX 27154 07747 12781 /3106 10250 20040 30150 40204 56025 60006 81800 91500=
07747,1997-03-27 18:00:00,20,1020.6,0.1,46,8,500,0,,,0,10.6,25.6,,,,,,,,,wg-a,,,,AAXX 27184 07747 12/00 10000 10200 20080 30151 40206 53001 60006 80001 91800 333 10256 20106=
07747,1997-03-27 21:00:00,19,1020.6,0,46,7,500,18.52,,,320,,,,,,,,,,,wg-a,,,,AAXX 27214 07747 12/00 03210 10190 20070 30151 40206 50000 60006 80000 92100=
07747,1997-03-28 00:00:00,17,1020.4,-0.3,52,7,500,11.112,,,300,,,,,,,,,,,wg-a,,,,AAXX 28004 07747 12/00 03006 10170 20070 30148 40204 58003 60006 80000 90000=
07747,1997-03-28 03:00:00,17,1019.1,-1.3,52,7,500,14.816,,,290,,,,,,,,,,,wg-a,,,,AAXX 28034 07747 12/00 02908 10170 20070 30135 40191 58013 60006 80000 90300=
07747,1997-03-28 06:00:00,17,1018.6,-0.5,55,8,500,22.224,,,260,14.5,19.8,,,,,,,,,wg-a,,,,AAXX 28064 07747 02/00 02612 10170 20080 30130 40186 56005 60006 80000 90600 333 10198 20145 60004=
07747,1997-03-28 09:00:00,21,1018,-0.5,46,9,60000,38.892,,62.968,330,,,,,,,,,,,wg-a,,,,AAXX 28094 07747 12686 /3321 10210 20090 30125 40180 58005 60006 81140 90900 333 91034=
07747,1997-03-28 12:00:00,23,1016,-1.9,41,9,60000,42.596,,64.82,330,,,,,,,,,,,wg-a,,,,AAXX 28124 07747 12686 /3323 10230 20090 30106 40160 58019 60006 81140 91200 333 91035=
07747,1997-03-28 15:00:00,21,1014.4,-1.7,49,10,60000,42.596,,70.376,320,,,,,,,,,,,wg-a,,,,AAXX 28154 07747 12686 33223 10210 20100 30089 40144 55017 60006 81141 91500 333 91038=
07747,1997-03-28 18:00:00,16,1016.8,2.3,63,9,20000,35.188,,57.412,330,15.7,23.9,,,,,,,,,wg-a,,,,AAXX 28184 07747 12670 43319 10160 20090 30112 40168 51023 60006 82842 91800 333 10239 20157 91031=
07747,1997-03-28 21:00:00,15,1018.6,1.8,59,7,18000,31.484,,59.264,320,,,,,,,,,,,wg-a,,,,AAXX 28214 07747 12668 23217 10150 20070 30130 40186 51018 60006 82140 92100 333 91032=
07747,1997-03-29 00:00:00,12,1019.9,1.2,47,1,18000,29.632,,,340,,,,,,,,,,,wg-a,,,,AAXX 29004 07747 12668 /3416 10120 20010 30142 40199 51012 60006 81140 90000=
07747,1997-03-29 03:00:00,11,1020.3,0.4,40,-2,20000,35.188,,,350,,,,,,,,,,,wg-a,,,,AAXX 29034 07747 12/70 03519 10110 21020 30146 40203 53004 60006 80000 90300=
07747,1997-03-29 06:00:00,9,1021.2,0.9,43,-3,40000,22.224,,,360,8.4,15.8,,,,,,,,,wg-a,,,,AAXX 29064 07747 02682 /3612 10090 21030 30155 40212 53009 60006 81101 90600 333 10158 20084 60004=
07747,1997-03-29 09:00:00,13,1021.3,0.1,30,-4,60000,31.484,,,340,,,,,,,,,,,wg-a,,,,AAXX 29094 07747 12/86 13417 10130 21040 30156 40213 50001 60006 81041 90900=
07747,1997-03-29 12:00:00,16,1019.6,-1.6,20,-7,60000,38.892,,59.264,340,,,,,,,,,,,wg-a,,,,AAXX 29124 07747 12/86 03421 10160 21070 30140 40196 58016 60006 80000 91200 333 91032=
07747,1997-03-29 15:00:00,17,1018.6,-1,20,-6,60000,31.484,,,340,,,,,,,,,,,wg-a,,,,AAXX 29154 07747 12686 /3417 10170 21060 30130 40186 56010 60006 81100 91500=
07747,1997-03-29 18:00:00,15,1018.4,-0.2,25,-5,45000,38.892,,59.264,340,9,17.6,,,,,,,,,wg-a,,,,AAXX 29184 07747 12683 /3421 10150 21050 30128 40184 56002 60006 81140 91800 333 10176 20090 91032=
07747,1997-03-29 21:00:00,13,1019.4,0.9,33,-3,25000,35.188,,55.56,330,,,,,,,,,,,wg-a,,,,AAXX 29214 07747 12/75 03319 10130 21030 30137 40194 51009 60006 80000 92100 333 91030=
07747,1997-03-30 00:00:00,12,1019.7,0.3,38,-2,25000,18.52,,,340,,,,,,,,,,,wg-a,,,,AAXX 30004 07747 12/75 03410 10120 21020 30140 40197 53003 60006 80000 90000=
07747,1997-03-30 03:00:00,9,1020.3,0.6,43,-3,25000,3.704,,,190,,,,,,,,,,,wg-a,,,,AAXX 30034 07747 12/75 01902 10090 21030 30146 40203 51006 60006 80000 90300=
07747,1997-03-30 06:00:00,9,1021.2,0.8,43,-3,60000,14.816,,,340,7.8,14.6,,,,,,,,,wg-a,,,,AAXX 30064 07747 02/86 03408 10090 21030 30154 40212 51008 60006 80000 90600 333 10146 20078 60004=
07747,1997-03-30 09:00:00,14,1020.7,-0.4,33,-2,60000,11.112,,,350,,,,,,,,,,,wg-a,,,,AAXX 30094 07747 12/86 03506 10140 21020 30150 40207 58004 60006 80000 90900=
07747,1997-03-30 12:00:00,18,1018.3,-2.3,24,-3,60000,29.632,,,360,,,,,,,,,,,wg-a,,,,AAXX 30124 07747 12/86 23616 10180 21030 30127 40183 58023 60006 80002 91200=
07747,1997-03-30 15:00:00,19,1016.7,-1.5,26,-1,60000,31.484,,,350,,,,,,,,,,,wg-a,,,,AAXX 30154 07747 12/86 13517 10190 21010 30112 40167 56015 60006 80001 91500=
07747,1997-03-30 18:00:00,16,1017.7,0.9,31,-1,50000,25.928,,,310,8.4,19.5,,,,,,,,,wg-a,,,,AAXX 30184 07747 12/84 03114 10160 21010 30121 40177 53009 60006 80000 91800 333 10195 20084=
07747,1997-03-30 21:00:00,14,1019.5,1.8,38,0,40000,11.112,,,90,,,,,,,,,,,wg-a,,,,AAXX 30214 07747 12/82 00906 10140 20000 30139 40195 53018 60006 80000 92100=
07747,1997-03-31 00:00:00,9,1020.2,0.6,53,0,40000,3.704,,,250,,,,,,,,,,,wg-a,,,,AAXX 31004 07747 12/82 02502 10090 20000 30145 40202 51006 60006 80000 90000=
07747,1997-03-31 06:00:00,5,1021.4,1.1,75,1,75000,3.704,,,290,3.5,16.1,,,,,,,,,wg-a,,,,AAXX 31064 07747 02/89 02902 10050 20010 30156 40214 53011 60006 80000 90600 333 10161 20035 60004=
07747,1997-03-31 09:00:00,14,1022.1,0.9,47,3,75000,7.408,,,80,,,,,,,,,,,wg-a,,,,AAXX 31094 07747 12/89 00804 10140 20030 30165 40221 51009 60006 80000 90900=
07747,1997-03-31 12:00:00,16,1021.3,-0.8,42,3,75000,14.816,,,100,,,,,,,,,,,wg-a,,,,AAXX 31124 07747 12689 /1008 10160 20030 30157 40213 58008 60006 81100 91200=
07747,1997-03-31 18:00:00,13,1021,0.3,67,7,500,11.112,,,120,4.6,16.1,,,,,,,,,wg-a,,,,AAXX 31184 07747 12/00 01206 10130 20070 30153 40210 53003 60006 80000 91800 333 10161 20046=
07747,1997-04-01 00:00:00,7,1020.8,-0.6,87,5,500,3.704,,,270,,,,,,,,,,,wg-a,,,,AAXX 01004 07747 12/00 02702 10070 20050 30150 40208 57006 60006 80000 90000=
07747,1997-04-01 03:00:00,7,1020.1,-0.7,81,4,500,3.704,,,270,,,,,,,,,,,wg-a,,,,AAXX 01034 07747 12700 /2702 10070 20040 30143 40201 56007 60006 85500 90300=
07747,1997-04-01 06:00:00,9,1020.5,0.5,81,6,500,3.704,,,80,5.2,12.6,,,,,,,,,wg-a,,,,AAXX 01064 07747 02400 70802 10090 20060 30148 40205 51005 60006 875// 90600 333 10126 20052 60004=
07747,1997-04-01 09:00:00,15,1020.5,0.1,63,8,500,3.704,,,230,,,,,,,,,,,wg-a,,,,AAXX 01094 07747 12500 72302 10150 20080 30149 40205 51001 60006 87100 90900=
07747,1997-04-01 12:00:00,18,1019,-1.5,56,9,20000,11.112,,,120,,,,,,,,,,,wg-a,,,,AAXX 01124 07747 12670 /1206 10180 20090 30134 40190 58015 60006 81100 91200=
07747,1997-04-01 15:00:00,17,1017.2,-1.8,55,8,20000,11.112,,,150,,,,,,,,,,,wg-a,,,,AAXX 01154 07747 12670 /1506 10170 20080 30116 40172 58018 60006 81100 91500=
07747,1997-04-01 18:00:00,15,1016.5,-0.7,72,10,15000,7.408,,,110,9.4,18.2,,,,,,,,,wg-a,,,,AAXX 01184 07747 12665 /1104 10150 20100 30109 40165 55007 60006 81100 91800 333 10182 20094=
07747,1997-04-01 21:00:00,12,1016.7,0.1,71,7,15000,3.704,,,230,,,,,,,,,,,wg-a,,,,AAXX 01214 07747 12/65 02302 10120 20070 30110 40167 50001 60006 80000 92100=
07747,1997-04-02 00:00:00,16,1016.2,-0.4,42,3,20000,14.816,,,310,,,,,,,,,,,wg-a,,,,AAXX 02004 07747 12/70 03108 10160 20030 30106 40162 56004 60006 80000 90000=
07747,1997-04-02 03:00:00,16,1015.2,-1,42,3,500,25.928,,,320,,,,,,,,,,,wg-a,,,,AAXX 02034 07747 12/00 03214 10160 20030 30096 40152 58010 60006 80000 90300=
07747,1997-04-02 06:00:00,15,1015.9,0.7,51,5,75000,14.816,,,340,11.5,16.7,,,,,,,,,wg-a,,,,AAXX 02064 07747 02/89 03408 10150 20050 30103 40159 53007 60006 80000 90600 333 10167 20115 60004=
07747,1997-04-02 09:00:00,20,1017.1,1.3,37,5,75000,18.52,,,350,,,,,,,,,,,wg-a,,,,AAXX 02094 07747 12689 /3510 10200 20050 30116 40171 52013 60006 81100 90900=
07747,1997-04-02 12:00:00,19,1017.2,0.1,46,7,75000,25.928,,,110,,,,,,,,,,,wg-a,,,,AAXX 02124 07747 12689 /1114 10190 20070 30117 40172 53001 60006 81100 91200=
07747,1997-04-02 18:00:00,15,1017.1,0.2,72,10,20000,7.408,,,140,14.5,21.6,,,,,,,,,wg-a,,,,AAXX 02184 07747 12670 /1404 10150 20100 30115 40171 53002 60006 81102 91800 333 10216 20145=
07747,1997-04-02 21:00:00,12,1018,0.8,76,8,12000,3.704,,,260,,,,,,,,,,,wg-a,,,,AAXX 02214 07747 12/62 02602 10120 20080 30123 40180 50008 60006 80000 92100=
07747,1997-04-03 00:00:00,10,1017.4,-0.6,82,7,2500,3.704,,,30,,,,,,,,,,10,wg-a,,,,AAXX 03004 07747 12325 /0302 10100 20070 30117 40174 58006 60006 71000 81600 90000=
07747,1997-04-03 03:00:00,7,1016.8,-0.7,93,6,10000,7.408,,,260,,,,,,,,,,1,wg-a,,,,AAXX 03034 07747 12/60 02604 10070 20060 30110 40168 57007 60006 70141 80000 90300=
07747,1997-04-03 06:00:00,11,1016.6,-0.1,71,6,3000,7.408,,,280,6.8,15.4,,,,,,,,3,wg-a,,,,AAXX 03064 07747 02630 /2804 10110 20060 30109 40166 56001 60006 70341 81501 90600 333 10154 20068 60004=
07747,1997-04-03 09:00:00,22,1016.4,0,33,5,60000,22.224,,,320,,,,,,,,,,,wg-a,,,,AAXX 03094 07747 12786 /3212 10220 20050 30109 40164 50000 60006 81505 90900=
07747,1997-04-03 12:00:00,24,1015.8,-0.5,31,6,60000,29.632,,,340,,,,,,,,,,,wg-a,,,,AAXX 03124 07747 12786 23416 10240 20060 30104 40158 58005 60006 81241 91200=
07747,1997-04-03 15:00:00,24,1014.3,-1.5,27,4,40000,35.188,,,330,,,,,,,,,,,wg-a,,,,AAXX 03154 07747 12782 /3319 10240 20040 30089 40143 56015 60006 81200 91500=
07747,1997-04-03 18:00:00,21,1015.1,0.7,30,3,40000,31.484,,,330,11,24.4,,,,,,,,,wg-a,,,,AAXX 03184 07747 12782 /3317 10210 20030 30096 40151 53007 60006 81200 91800 333 10244 20110=
07747,1997-04-04 00:00:00,18,1017.7,0.3,39,4,0,29.632,,,330,,,,,,,,,,,wg-a,,,,AAXX 04004 07747 12/// /3316 10180 20040 30121 40177 53003 60006 90000=
07747,1997-04-04 03:00:00,15,1017.6,-0.1,48,4,25000,35.188,,,310,,,,,,,,,,,wg-a,,,,AAXX 04034 07747 12/75 /3119 10150 20040 30120 40176 55001 60006 80000 90300=
07747,1997-04-04 06:00:00,14,1018.6,1,55,5,500,46.3,,,320,13.6,21.4,,,,,,,,,wg-a,,,,AAXX 04064 07747 02600 53225 10140 20050 30130 40186 53010 60006 81131 90600 333 10214 20136 60004=
07747,1997-04-04 09:00:00,14,1021,2.4,51,4,500,31.484,,48.152,330,,,,,,,,,,,wg-a,,,,AAXX 04094 07747 12600 73317 10140 20040 30154 40210 53024 60006 8483/ 90900 333 91026=
07747,1997-04-04 12:00:00,18,1018.6,-2.4,37,3,45000,57.412,,83.34,310,,,,,,,,,,,wg-a,,,,AAXX 04124 07747 12683 /3131 10180 20030 30130 40186 56024 60006 81131 91200 333 91045=
07747,1997-04-04 15:00:00,18,1017.9,-0.6,37,3,500,57.412,,79.636,330,,,,,,,,,,,wg-a,,,,AAXX 04154 07747 12600 23331 10180 20030 30124 40179 55006 60006 81102 91500 333 91043=
07747,1997-04-04 18:00:00,16,1016.9,-1.1,39,2,500,57.412,,90.748,330,13.7,19.2,,,,,,,,,wg-a,,,,AAXX 04184 07747 12600 /3331 10160 20020 30113 40169 58011 60006 81102 91800 333 10192 20137 91049=
07747,1997-04-04 21:00:00,15,1020,3,39,1,11000,44.448,,68.524,330,,,,,,,,,,,wg-a,,,,AAXX 04214 07747 12/61 83324 10150 20010 30144 40200 53030 60006 81501 92100 333 91037=
07747,1997-04-05 00:00:00,13,1021.7,1.7,38,-1,500,38.892,,55.56,340,,,,,,,,,,,wg-a,,,,AAXX 05004 07747 12700 /3421 10130 21010 30160 40217 50017 60006 81500 90000 333 91030=
07747,1997-04-05 03:00:00,12,1021.4,-0.3,38,-2,500,38.892,,59.264,330,,,,,,,,,,,wg-a,,,,AAXX 05034 07747 12/00 03321 10120 21020 30157 40214 58003 60006 80000 90300 333 91032=
07747,1997-04-05 06:00:00,11,1022.1,0.7,37,-3,40000,35.188,,57.412,330,10.7,16.4,,,,,,,,,wg-a,,,,AAXX 05064 07747 02/82 33319 10110 21030 30164 40221 50007 60006 80001 90600 333 10164 20107 60004 91031=
07747,1997-04-05 09:00:00,16,1022.6,0.6,29,-2,40000,42.596,,59.264,330,,,,,,,,,,,wg-a,,,,AAXX 05094 07747 12/82 33323 10160 21020 30170 40226 53006 60006 80001 90900 333 91032=
07747,1997-04-05 12:00:00,20,1021.2,-1.3,19,-4,40000,42.596,,,320,,,,,,,,,,,wg-a,,,,AAXX 05124 07747 12/82 33223 10200 21040 30157 40212 58013 60006 80001 91200=
07747,1997-04-05 15:00:00,21,1019.6,-1.6,17,-5,40000,35.188,,51.856,330,,,,,,,,,,,wg-a,,,,AAXX 05154 07747 12/82 43319 10210 21050 30141 40196 56016 60006 80002 91500 333 91028=
07747,1997-04-05 18:00:00,19,1019.2,-0.5,24,-2,40000,22.224,,,350,11.3,21.3,,,,,,,,,wg-a,,,,AAXX 05184 07747 12/82 63512 10190 21020 30136 40192 56005 60006 80002 91800 333 10213 20113=
07747,1997-04-06 00:00:00,15,1021,-0,36,0,25000,22.224,,,330,,,,,,,,,,,wg-a,,,,AAXX 06004 07747 12/75 43312 10150 20000 30154 40210 55000 60006 80002 90000=
07747,1997-04-06 03:00:00,15,1019.1,-1.9,36,0,25000,29.632,,,330,,,,,,,,,,,wg-a,,,,AAXX 06034 07747 12/75 43316 10150 20000 30135 40191 57019 60006 80002 90300=
07747,1997-04-06 06:00:00,14,1019.2,0.1,41,1,75000,29.632,,,310,13.9,18.6,,,,,,,,,wg-a,,,,AAXX 06064 07747 02/89 23116 10140 20010 30136 40192 53001 60006 80002 90600 333 10186 20139 60004=
07747,1997-04-06 09:00:00,20,1018.7,-0.4,26,0,75000,35.188,,,330,,,,,,,,,,,wg-a,,,,AAXX 06094 07747 12/89 13319 10200 20000 30132 40187 57004 60006 80002 90900=
07747,1997-04-06 12:00:00,24,1016.6,-2,22,1,75000,29.632,,53.708,330,,,,,,,,,,,wg-a,,,,AAXX 06124 07747 12/89 03316 10240 20010 30112 40166 58020 60006 80000 91200 333 91029=
07747,1997-04-06 15:00:00,25,1014.1,-2.5,22,2,75000,31.484,,,340,,,,,,,,,,,wg-a,,,,AAXX 06154 07747 12/89 13417 10250 20020 30087 40141 56025 60006 80002 91500=
07747,1997-04-06 18:00:00,22,1014.2,-0,35,6,50000,35.188,,,350,14.2,25.5,,,,,,,,,wg-a,,,,AAXX 06184 07747 12/84 23519 10220 20060 30087 40142 55000 60006 80002 91800 333 10255 20142=
07747,1997-04-06 21:00:00,19,1015.6,1.4,46,7,500,18.52,,,340,,,,,,,,,,,wg-a,,,,AAXX 06214 07747 12/00 23410 10190 20070 30101 40156 51014 60006 80002 92100=
07747,1997-04-07 00:00:00,16,1016.5,0.8,55,7,500,7.408,,,40,,,,,,,,,,,wg-a,,,,AAXX 07004 07747 12/00 20404 10160 20070 30109 40165 53008 60006 80002 90000=
07747,1997-04-07 03:00:00,11,1016.8,0.2,66,5,500,7.408,,,270,,,,,,,,,,,wg-a,,,,AAXX 07034 07747 12/00 22704 10110 20050 30111 40168 53002 60006 80002 90300=
07747,1997-04-07 06:00:00,9,1019.3,2.5,71,4,50000,7.408,,,250,8.2,21.5,,,,,,,,,wg-a,,,,AAXX 07064 07747 02/84 72504 10090 20040 30136 40193 53025 60006 80002 90600 333 10215 20082 60004=
07747,1997-04-07 12:00:00,18,1019.8,-0.5,49,7,25000,18.52,,,90,,,,,,,,,,,wg-a,,,,AAXX 07124 07747 12/75 70910 10180 20070 30142 40198 58005 60006 80002 91200=
07747,1997-04-07 18:00:00,15,1020.1,0.9,72,10,12000,11.112,,,100,9.1,18.4,,,,,,,,,wg-a,,,,AAXX 07184 07747 12562 71006 10150 20100 30145 40201 53009 60006 81102 91800 333 10184 20091=
07747,1997-04-07 21:00:00,12,1021.6,1.4,94,11,8000,7.408,,,100,,,,,,,,,,,wg-a,,,,AAXX 07214 07747 12458 51004 10120 20110 30159 40216 51014 60006 82602 92100=
07747,1997-04-08 00:00:00,11,1022.5,0.9,94,10,8000,7.408,,,10,,,,,,,,,,,wg-a,,,,AAXX 08004 07747 12458 /0104 10110 20100 30168 40225 51009 60006 81100 90000=
07747,1997-04-08 03:00:00,10,1022.9,0.4,100,10,200,3.704,,,360,,,,,,,,,,45,wg-a,,,,AAXX 08034 07747 12/02 93602 10100 20100 30172 40229 53004 60006 74541 89/// 90300=
07747,1997-04-08 06:00:00,10,1025.1,2.2,100,10,3000,7.408,,,30,8.8,14.6,,,,,,,,10,wg-a,,,,AAXX 08064 07747 02/30 70304 10100 20100 30194 40251 53022 60006 71041 82054 90600 333 10146 20088 60004=
07747,1997-04-08 09:00:00,15,1026.2,1.2,72,10,15000,18.52,,,130,,,,,,,,,,,wg-a,,,,AAXX 08094 07747 12465 71310 10150 20100 30206 40262 51012 60006 85132 90900=
07747,1997-04-08 12:00:00,17,1025.9,-0.3,68,11,15000,31.484,,,130,,,,,,,,,,,wg-a,,,,AAXX 08124 07747 12565 71317 10170 20110 30203 40259 58003 60006 82202 91200=
07747,1997-04-08 15:00:00,17,1025.2,-0.7,55,8,15000,31.484,,,130,,,,,,,,,,,wg-a,,,,AAXX 08154 07747 12565 71317 10170 20080 30196 40252 58007 60006 81236 91500=
07747,1997-04-08 18:00:00,14,1025.5,0.2,72,9,15000,29.632,,,140,10.2,17.7,,,,,,,,,wg-a,,,,AAXX 08184 07747 12565 71416 10140 20090 30198 40255 53002 60006 81102 91800 333 10177 20102=
07747,1997-04-08 21:00:00,13,1026.8,1.3,72,8,12000,18.52,,,140,,,,,,,,,,,wg-a,,,,AAXX 08214 07747 12562 51410 10130 20080 30211 40268 51013 60006 81102 92100=
07747,1997-04-09 00:00:00,11,1027.6,0.7,76,7,15000,11.112,,,140,,,,,,,,,,,wg-a,,,,AAXX 09004 07747 12565 21406 10110 20070 30218 40276 53007 60006 81130 90000=
07747,1997-04-09 03:00:00,8,1027.8,0.2,87,6,15000,3.704,,,250,,,,,,,,,,,wg-a,,,,AAXX 09034 07747 12565 /2502 10080 20060 30220 40278 53002 60006 81100 90300=
07747,1997-04-09 06:00:00,8,1028.9,1.1,93,7,11000,0,,,0,6.9,14.2,,,,,,,,,wg-a,,,,AAXX 09064 07747 02/61 /0000 10080 20070 30231 40289 53011 60006 90600 333 10142 20069 60004=
07747,1997-04-09 09:00:00,16,1030.1,1.3,55,7,11000,22.224,,,130,,,,,,,,,,,wg-a,,,,AAXX 09094 07747 12/61 /1312 10160 20070 30244 40301 52013 60006 90900=
07747,1997-04-09 12:00:00,16,1030.1,0,55,7,11000,25.928,,,130,,,,,,,,,,,wg-a,,,,AAXX 09124 07747 12/61 /1314 10160 20070 30244 40301 50000 60006 91200=
07747,1997-04-09 15:00:00,16,1029.4,-0.7,51,6,20000,29.632,,,110,,,,,,,,,,,wg-a,,,,AAXX 09154 07747 12570 /1116 10160 20060 30237 40294 58007 60006 81100 91500=
07747,1997-04-09 18:00:00,13,1029.8,0.4,58,5,20000,18.52,,,130,8.3,16.9,,,,,,,,,wg-a,,,,AAXX 09184 07747 12570 /1310 10130 20050 30241 40298 53004 60006 81100 91800 333 10169 20083=
07747,1997-04-09 21:00:00,10,1031.1,1.2,71,5,12000,7.408,,,20,,,,,,,,,,,wg-a,,,,AAXX 09214 07747 12/62 00204 10100 20050 30253 40311 52012 60006 80000 92100=
07747,1997-04-10 00:00:00,8,1031.2,0.1,81,5,12000,7.408,,,310,,,,,,,,,,,wg-a,,,,AAXX 10004 07747 12/62 03104 10080 20050 30254 40312 50001 60006 80000 90000=
07747,1997-04-10 03:00:00,4,1030.6,-0.7,93,3,12000,7.408,,,260,,,,,,,,,,,wg-a,,,,AAXX 10034 07747 12/62 02604 10040 20030 30247 40306 56007 60006 80000 90300=
07747,1997-04-10 06:00:00,5,1031.3,0.7,93,4,50000,11.112,,,260,3.7,13,,,,,,,,,wg-a,,,,AAXX 10064 07747 02584 /2606 10050 20040 30254 40313 53007 60006 81500 90600 333 10130 20037 60004=
07747,1997-04-10 09:00:00,14,1030.9,-0.2,63,7,45000,11.112,,,120,,,,,,,,,,,wg-a,,,,AAXX 10094 07747 12583 31206 10140 20070 30252 40309 55002 60006 83100 90900=
07747,1997-04-10 12:00:00,16,1029.2,-1.7,59,8,25000,14.816,,,110,,,,,,,,,,,wg-a,,,,AAXX 10124 07747 12575 /1108 10160 20080 30235 40292 58017 60006 81100 91200=
07747,1997-04-10 18:00:00,15,1027.4,-0.8,59,7,25000,7.408,,,70,5.4,17.2,,,,,,,,,wg-a,,,,AAXX 10184 07747 12/75 00704 10150 20070 30217 40274 56008 60006 80000 91800 333 10172 20054=
07747,1997-04-10 21:00:00,11,1028.4,0.9,76,7,20000,3.704,,,350,,,,,,,,,,,wg-a,,,,AAXX 10214 07747 12/70 03502 10110 20070 30226 40284 51009 60006 80000 92100=
07747,1997-04-11 00:00:00,8,1028.2,-0.2,87,6,0,11.112,,,260,,,,,,,,,,,wg-a,,,,AAXX 11004 07747 12/// /2606 10080 20060 30224 40282 58002 60006 90000=
07747,1997-04-11 06:00:00,7,1025.9,-0.9,87,5,50000,3.704,,,40,5.9,14.4,,,,,,,,,wg-a,,,,AAXX 11064 07747 02/84 00402 10070 20050 30201 40259 55009 60006 80000 90600 333 10144 20059 60004=
07747,1997-04-11 09:00:00,18,1024.6,-1.1,56,9,25000,7.408,,,150,,,,,,,,,,,wg-a,,,,AAXX 11094 07747 12/75 01504 10180 20090 30190 40246 58011 60006 80000 90900=
07747,1997-04-11 12:00:00,22,1021.8,-2.7,43,9,20000,11.112,,,130,,,,,,,,,,,wg-a,,,,AAXX 11124 07747 12670 /1306 10220 20090 30163 40218 58027 60006 81100 91200=
07747,1997-04-11 21:00:00,22,1017.6,0.1,29,3,500,31.484,,,310,,,,,,,,,,,wg-a,,,,AAXX 11214 07747 12/00 03117 10220 20030 30121 40176 50001 60006 80000 92100=
07747,1997-04-12 00:00:00,19,1017.5,-0.1,34,3,0,25.928,,,320,,,,,,,,,,,wg-a,,,,AAXX 12004 07747 12/// /3214 10190 20030 30120 40175 55001 60006 90000=
07747,1997-04-12 03:00:00,18,1016.7,-0.9,34,2,500,29.632,,,320,,,,,,,,,,,wg-a,,,,AAXX 12034 07747 12/00 03216 10180 20020 30111 40167 56009 60006 80000 90300=
07747,1997-04-12 06:00:00,17,1016.3,-0.4,36,2,40000,29.632,,,330,16.5,23.6,,,,,,,,,wg-a,,,,AAXX 12064 07747 12/82 53316 10170 20020 30107 40163 56004 60006 80004 90600 333 10236 20165=
07747,1997-04-12 09:00:00,19,1016.3,0.1,32,2,20000,31.484,,,340,,,,,,,,,,,wg-a,,,,AAXX 12094 07747 12/70 33417 10190 20020 30108 40163 53001 60006 81032 90900=
07747,1997-04-12 12:00:00,23,1014.4,-1.9,27,3,18000,42.596,,64.82,330,,,,,,,,,,,wg-a,,,,AAXX 12124 07747 12/68 23323 10230 20030 30089 40144 56019 60006 80002 91200 333 91035=
07747,1997-04-12 15:00:00,23,1014,-0.4,29,4,18000,38.892,,57.412,330,,,,,,,,,,,wg-a,,,,AAXX 12154 07747 12868 /3321 10230 20040 30085 40140 55004 60006 81104 91500 333 91031=
07747,1997-04-12 18:00:00,20,1015.1,1.1,35,4,20000,29.632,,,350,16.8,23.7,,,,,,,,,wg-a,,,,AAXX 12184 07747 12870 43516 10200 20040 30096 40151 53011 60006 81102 91800 333 10237 20168=
07747,1997-04-12 23:00:00,14,1018.1,0.6,36,-1,20000,3.704,,,340,,,,,,,,,,,wg-a,,,,AAXX 12234 07747 12/70 03402 10140 21010 30124 40181 53006 60006 80000 92300=
07747,1997-04-13 00:00:00,14,1018.1,0.6,36,-1,20000,3.704,,,340,,,,,,,,,,,wg-a,,,,AAXX 13004 07747 12/70 03402 10140 21010 30124 40181 53006 60006 80000 90000=
07747,1997-04-13 03:00:00,13,1017.8,-0.3,33,-3,20000,14.816,,,310,,,,,,,,,,,wg-a,,,,AAXX 13034 07747 12/70 03108 10130 21030 30121 40178 55003 60006 80000 90300=
07747,1997-04-13 06:00:00,11,1018,0.2,47,0,60000,14.816,,,280,9.3,19.7,,,,,,,,,wg-a,,,,AAXX 13064 07747 02/86 12808 10110 20000 30123 40180 53002 60006 80001 90600 333 10197 20093 60004=
07747,1997-04-13 09:00:00,17,1018.7,0.8,36,2,60000,14.816,,,140,,,,,,,,,,,wg-a,,,,AAXX 13094 07747 12/86 01408 10170 20020 30131 40187 52008 60006 80000 90900=
07747,1997-04-13 12:00:00,17,1018.4,-0.3,32,0,60000,14.816,,,130,,,,,,,,,,,wg-a,,,,AAXX 13124 07747 12686 /1308 10170 20000 30128 40184 58003 60006 81100 91200=
07747,1997-04-13 18:00:00,16,1017.7,0.2,27,-3,45000,7.408,,,140,11.5,18.7,,,,,,,,,wg-a,,,,AAXX 13184 07747 12883 /1404 10160 21030 30121 40177 53002 60006 81500 91800 333 10187 20115=
07747,1997-04-13 21:00:00,10,1019.1,1.2,50,0,20000,7.408,,,250,,,,,,,,,,,wg-a,,,,AAXX 13214 07747 12/70 02504 10100 20000 30133 40191 51012 60006 80000 92100=
07747,1997-04-14 00:00:00,9,1019,-0.1,49,-1,20000,0,,,0,,,,,,,,,,,wg-a,,,,AAXX 14004 07747 12/70 00000 10090 21010 30132 40190 56001 60006 80000 90000=
07747,1997-04-14 03:00:00,10,1019.7,0.8,71,5,20000,11.112,,,340,,,,,,,,,,,wg-a,,,,AAXX 14034 07747 12/70 13406 10100 20050 30140 40197 53008 60006 80001 90300=
07747,1997-04-14 06:00:00,7,1020.5,0.7,81,4,20000,3.704,,,260,5.4,15.5,,,,,,,,,wg-a,,,,AAXX 14064 07747 02/70 32602 10070 20040 30147 40205 53007 60006 83031 90600 333 10155 20054 60004=
07747,1997-04-14 09:00:00,16,1021.1,0.8,42,3,20000,7.408,,,80,,,,,,,,,,,wg-a,,,,AAXX 14094 07747 12570 /0804 10160 20030 30155 40211 50008 60006 81100 90900=
07747,1997-04-14 12:00:00,17,1020.1,-1,42,4,20000,14.816,,,110,,,,,,,,,,,wg-a,,,,AAXX 14124 07747 12670 /1108 10170 20040 30145 40201 58010 60006 81100 91200=
07747,1997-04-14 15:00:00,18,1019.1,-1,37,3,20000,14.816,,,100,,,,,,,,,,,wg-a,,,,AAXX 14154 07747 12670 /1008 10180 20030 30135 40191 57010 60006 81100 91500=
07747,1997-04-14 18:00:00,16,1019.1,0,48,5,20000,7.408,,,140,7.5,18.5,,,,,,,,,wg-a,,,,AAXX 14184 07747 12670 /1404 10160 20050 30135 40191 50000 60006 81100 91800 333 10185 20075=
07747,1997-04-15 00:00:00,9,1020,-0.4,71,4,15000,3.704,,,280,,,,,,,,,,,wg-a,,,,AAXX 15004 07747 12/65 02802 10090 20040 30142 40200 55004 60006 80000 90000=
07747,1997-04-15 03:00:00,8,1019.7,-0.3,71,3,15000,7.408,,,300,,,,,,,,,,,wg-a,,,,AAXX 15034 07747 12/65 03004 10080 20030 30139 40197 56003 60006 80000 90300=
07747,1997-04-15 06:00:00,7,1019.8,0.1,81,4,15000,3.704,,,280,6.4,15.5,,,,,,,,,wg-a,,,,AAXX 15064 07747 02265 /2802 10070 20040 30140 40198 53001 60006 81600 90600 333 10155 20064 60004=
07747,1997-04-15 09:00:00,20,1019.1,-0.4,37,5,15000,3.704,,,120,,,,,,,,,,,wg-a,,,,AAXX 15094 07747 12/65 01202 10200 20050 30136 40191 58004 60006 80000 90900=
07747,1997-04-15 12:00:00,22,1017,-2.1,38,7,15000,14.816,,,110,,,,,,,,,,,wg-a,,,,AAXX 15124 07747 12/65 01108 10220 20070 30115 40170 58021 60006 80000 91200=
07747,1997-04-15 15:00:00,26,1015.1,-1.8,21,2,15000,29.632,,,330,,,,,,,,,,,wg-a,,,,AAXX 15154 07747 12665 /3316 10260 20020 30097 40151 56018 60006 81100 91500=
07747,1997-04-15 18:00:00,23,1016,0.8,23,1,20000,25.928,,,350,7.2,26.3,,,,,,,,,wg-a,,,,AAXX 15184 07747 12670 /3514 10230 20010 30105 40160 53008 60006 81100 91800 333 10263 20072=
07747,1997-04-15 21:00:00,19,1017.3,1.2,28,0,20000,14.816,,,320,,,,,,,,,,,wg-a,,,,AAXX 15214 07747 12/70 03208 10190 20000 30117 40173 51012 60006 80000 92100=
07747,1997-04-16 00:00:00,17,1016.9,-0.4,34,1,20000,14.816,,,310,,,,,,,,,,,wg-a,,,,AAXX 16004 07747 12/70 03108 10170 20010 30113 40169 56004 60006 80000 90000=
07747,1997-04-16 03:00:00,14,1016.8,-0.2,44,2,20000,7.408,,,10,,,,,,,,,,,wg-a,,,,AAXX 16034 07747 12/70 00104 10140 20020 30111 40168 56002 60006 80000 90300=
07747,1997-04-16 06:00:00,11,1016.5,-0.3,62,4,45000,11.112,,,230,9.8,22.9,,,,,,,,,wg-a,,,,AAXX 16064 07747 02/83 02306 10110 20040 30108 40165 55003 60006 80000 90600 333 10229 20098 60004=
07747,1997-04-16 09:00:00,22,1015.4,-0.9,29,3,25000,22.224,,,320,,,,,,,,,,,wg-a,,,,AAXX 16094 07747 12/75 03212 10220 20030 30099 40154 58009 60006 80000 90900=
07747,1997-04-16 12:00:00,25,1013.4,-1.9,18,-1,500,18.52,,,330,,,,,,,,,,,wg-a,,,,AAXX 16124 07747 12700 /3310 10250 21010 30080 40134 58019 60006 81100 91200=
07747,1997-04-16 15:00:00,26,1011.2,-2.2,21,2,500,25.928,,,30,,,,,,,,,,,wg-a,,,,AAXX 16154 07747 12800 /0314 10260 20020 30058 40112 58022 60006 81100 91500=
07747,1997-04-16 18:00:00,21,1011,-0.3,25,0,500,7.408,,,140,11,26.4,,,,,,,,,wg-a,,,,AAXX 16184 07747 12800 /1404 10210 20000 30055 40110 56003 60006 81101 91800 333 10264 20110=
07747,1997-04-16 21:00:00,14,1012.4,1.3,38,0,25000,3.704,,,350,,,,,,,,,,,wg-a,,,,AAXX 16214 07747 12/75 03502 10140 20000 30068 40124 52013 60006 80000 92100=
07747,1997-04-17 00:00:00,13,1012.6,0.2,47,2,25000,3.704,,,100,,,,,,,,,,,wg-a,,,,AAXX 17004 07747 12/75 01002 10130 20020 30070 40126 52002 60006 80000 90000=
07747,1997-04-17 03:00:00,9,1012.7,0,53,0,25000,7.408,,,230,,,,,,,,,,,wg-a,,,,AAXX 17034 07747 12/75 02304 10090 20000 30070 40127 50000 60006 80000 90300=
07747,1997-04-17 06:00:00,11,1012.6,-0.1,40,-2,500,11.112,,,340,7.6,20.5,,,,,,,,,wg-a,,,,AAXX 17064 07747 02500 23406 10110 21020 30069 40126 58001 60006 81582 90600 333 10205 20076 60004=
07747,1997-04-17 09:00:00,14,1012.4,-0.1,55,5,20000,14.816,,,50,,,,,,,,,,,wg-a,,,,AAXX 17094 07747 12570 70508 10140 20050 30068 40124 58001 60006 878// 90900=
07747,1997-04-17 12:00:00,13,1012.9,0.5,62,6,15000,18.52,,,110,,,,,,,,,,60,wg-a,,,,AAXX 17124 07747 02565 81110 10130 20060 30073 40129 51005 61000 76061 878// 91200 333 6100=
07747,1997-04-17 15:00:00,12,1013.6,0.6,71,7,9000,25.928,,,110,,,,0,,,,,,61,wg-a,,,,AAXX 17154 07747 12559 81114 10120 20070 30079 40136 51006 60007 76166 878// 91500=
07747,1997-04-17 18:00:00,11,1015.4,1.8,62,4,10000,25.928,,,120,10.6,14.4,,,,,,,,60,wg-a,,,,AAXX 17184 07747 02560 81214 10110 20040 30097 40154 53018 61000 76066 888// 91800 333 10144 20106 6000=
07747,1997-04-17 21:00:00,12,1016.8,1.4,54,3,10000,25.928,,,130,,,,,,,,,,1,wg-a,,,,AAXX 17214 07747 02660 81314 10120 20030 30111 40168 51014 61000 70162 878// 92100 333 ////=
07747,1997-04-18 00:00:00,12,1016.9,0.1,54,3,12000,11.112,,,120,,,,,,,,,,2,wg-a,,,,AAXX 18004 07747 02662 81206 10120 20030 30112 40169 51001 61000 70262 875// 90000 333 ////=
07747,1997-04-18 03:00:00,10,1016,-0.9,62,3,8000,11.112,,,110,,,,,,,,,,,wg-a,,,,AAXX 18034 07747 12658 /1106 10100 20030 30103 40160 56009 60006 86500 90300=
07747,1997-04-18 06:00:00,10,1016.5,0.5,87,8,8000,14.816,,,80,9.9,11.9,,,,,,,,61,wg-a,,,,AAXX 18064 07747 02458 80808 10100 20080 30108 40165 53005 61000 76162 888// 90600 333 10119 20099 6001=
07747,1997-04-18 12:00:00,11,1016.7,-0.1,87,9,9000,3.704,,,190,,,,1,,,,,,1,wg-a,,,,AAXX 18124 07747 02559 81902 10110 20090 30110 40167 58001 60056 70162 888// 91200 333 60017=
07747,1997-04-18 15:00:00,13,1015,-1.7,77,9,12000,3.704,,,170,,,,,,,,,,,wg-a,,,,AAXX 18154 07747 12562 71702 10130 20090 30093 40150 56017 60006 878// 91500=
07747,1997-04-18 18:00:00,12,1014.4,-0.6,82,9,12000,3.704,,,160,9.2,12.6,,,,,,,,21,wg-a,,,,AAXX 18184 07747 02462 81602 10120 20090 30087 40144 58006 61000 72162 875// 91800 333 10126 20092 6001=
07747,1997-04-18 21:00:00,11,1014.4,-0,94,10,9000,3.704,,,180,,,,,,,,,,61,wg-a,,,,AAXX 18214 07747 02559 81802 10110 20100 30087 40144 55000 61000 76162 875// 92100 333 ////=
07747,1997-04-19 00:00:00,10,1013,-1.4,100,10,9000,3.704,,,60,,,,1,,,,,,61,wg-a,,,,AAXX 19004 07747 02559 80602 10100 20100 30073 40130 58014 60016 76162 875// 90000 333 60017=
07747,1997-04-19 03:00:00,11,1010.6,-2.4,94,10,9000,7.408,,,140,,,,1,,,,,,3,wg-a,,,,AAXX 19034 07747 12559 81404 10110 20100 30049 40106 57024 60017 70362 875// 90300=
07747,1997-04-19 06:00:00,12,1009.4,-1.1,88,10,10000,18.52,,,140,10.4,12.2,,,,,7,,,1,wg-a,,,,AAXX 19064 07747 02560 81410 10120 20100 30038 40094 55011 60006 70162 8587/ 90600 333 10122 20104 60074=
07747,1997-04-19 09:00:00,13,1009.7,0.3,94,12,6000,14.816,,,150,,,,1,,,,,,61,wg-a,,,,AAXX 19094 07747 12356 81508 10130 20120 30041 40097 53003 60017 76162 8687/ 90900=
07747,1997-04-19 12:00:00,13,1007.9,-1.8,94,12,500,29.632,,,130,,,,3,,,,,,63,wg-a,,,,AAXX 19124 07747 02200 81316 10130 20120 30023 40079 58018 60046 76362 8577/ 91200 333 60037=
07747,1997-04-19 15:00:00,14,1005.5,-2.4,94,13,7000,25.928,,,140,,,,0,,,,,,1,wg-a,,,,AAXX 19154 07747 12257 81414 10140 20130 39999 40055 58024 60007 70162 877// 91500=
07747,1997-04-19 18:00:00,14,1004.6,-0.9,94,13,8000,11.112,,,100,12.3,14.8,,,,,,,,3,wg-a,,,,AAXX 19184 07747 12258 81006 10140 20130 39990 40046 56009 60006 70362 875// 91800 333 10148 20123=
07747,1997-04-19 21:00:00,10,1006.7,2,93,9,500,29.632,,,20,,,,,,,,,,60,wg-a,,,,AAXX 19214 07747 02100 80216 10100 20090 30010 40067 53020 61000 76062 877// 92100 333 ////=
07747,1997-04-20 00:00:00,9,1007,0.3,93,8,7000,14.816,,,60,,,,0,,,,,,2,wg-a,,,,AAXX 20004 07747 02157 80608 10090 20080 30013 40070 50003 60016 70262 877// 90000 333 60007=
07747,1997-04-20 03:00:00,9,1005.8,-1.2,93,8,7000,7.408,,,50,,,,,,,,,,,wg-a,,,,AAXX 20034 07747 12157 80504 10090 20080 30001 40058 56012 60006 877// 90300=
07747,1997-04-20 06:00:00,9,1005.4,-0.4,93,8,10000,0,,,0,8.4,14.5,,,,,5,,,,wg-a,,,,AAXX 20064 07747 02260 80000 10090 20080 39997 40054 55004 60006 885// 90600 333 10145 20084 60054=
07747,1997-04-20 09:00:00,10,1005.9,0.5,93,9,6000,0,,,0,,,,3,,,,,,63,wg-a,,,,AAXX 20094 07747 12256 80000 10100 20090 30002 40059 51005 60037 76362 885// 90900=
07747,1997-04-20 12:00:00,14,1004.7,-1.1,77,10,12000,3.704,,,250,,,,1,,,,,,1,wg-a,,,,AAXX 20124 07747 02462 72502 10140 20100 39991 40047 58011 60046 70162 86872 91200 333 60017=
07747,1997-04-20 15:00:00,16,1002.8,-1.8,68,10,11000,7.408,,,200,,,,,,,,,,,wg-a,,,,AAXX 20154 07747 12/61 /2004 10160 20100 39973 40028 58018 60006 91500=
07747,1997-04-20 18:00:00,15,1002.6,-0.3,59,7,18000,11.112,,,70,9,16.4,,,,,,,,,wg-a,,,,AAXX 20184 07747 12468 70706 10150 20070 39970 40026 56003 60006 8687/ 91800 333 10164 20090=
07747,1997-04-20 21:00:00,13,1003.8,1.2,54,4,15000,7.408,,,80,,,,,,,,,,,wg-a,,,,AAXX 20214 07747 12665 70804 10130 20040 39982 40038 53012 60006 875// 92100=
07747,1997-04-21 00:00:00,10,1004,0.1,46,-1,18000,7.408,,,350,,,,,,,,,,,wg-a,,,,AAXX 21004 07747 12668 43504 10100 21010 39983 40040 51001 60006 81534 90000=
07747,1997-04-21 03:00:00,8,1002.9,-1.1,61,1,20000,18.52,,,350,,,,,,,,,,,wg-a,,,,AAXX 21034 07747 12/70 03510 10080 20010 39972 40029 56011 60006 80000 90300=
07747,1997-04-21 06:00:00,9,1002.4,-0.5,34,-6,60000,29.632,,,310,7.7,14.5,,,,,4,,,,wg-a,,,,AAXX 21064 07747 02/86 13116 10090 21060 39967 40024 55005 60006 80001 90600 333 10145 20077 60044=
07747,1997-04-21 09:00:00,13,1002.2,-0.1,21,-9,60000,31.484,,,340,,,,,,,,,,,wg-a,,,,AAXX 21094 07747 12/86 13417 10130 21090 39966 40022 55001 60006 80001 90900=
07747,1997-04-21 12:00:00,17,1000.2,-1.9,17,-8,60000,46.3,,68.524,330,,,,,,,,,,,wg-a,,,,AAXX 21124 07747 12/86 03325 10170 21080 39947 40002 58019 60006 80000 91200 333 91037=
07747,1997-04-21 15:00:00,17,1000.2,-0,20,-6,45000,38.892,,77.784,330,,,,,,,,,,,wg-a,,,,AAXX 21154 07747 12683 /3321 10170 21060 39947 40002 55000 60006 81100 91500 333 91042=
07747,1997-04-21 18:00:00,16,1001.5,1.3,21,-6,45000,31.484,,61.116,320,8.6,18.1,,,,,,,,,wg-a,,,,AAXX 21184 07747 12683 /3217 10160 21060 39960 40015 53013 60006 81100 91800 333 10181 20086 91033=
07747,1997-04-21 21:00:00,15,1003.7,2.1,23,-6,25000,42.596,,64.82,310,,,,,,,,,,,wg-a,,,,AAXX 21214 07747 12/75 03123 10150 21060 39981 40037 53021 60006 80000 92100 333 91035=
07747,1997-04-22 00:00:00,14,1004.5,0.8,28,-4,25000,35.188,,59.264,320,,,,,,,,,,,wg-a,,,,AAXX 22004 07747 12/75 03219 10140 21040 39989 40045 50008 60006 80000 90000 333 91032=
07747,1997-04-22 03:00:00,12,1004.2,-0.3,35,-3,25000,31.484,,51.856,330,,,,,,,,,,,wg-a,,,,AAXX 22034 07747 12/75 03317 10120 21030 39986 40042 55003 60006 80000 90300 333 91028=
07747,1997-04-22 06:00:00,12,1005.1,0.9,35,-3,50000,31.484,,57.412,320,10.1,16,,,,,,,,,wg-a,,,,AAXX 22064 07747 02/84 03217 10120 21030 39995 40051 51009 60006 80000 90600 333 10160 20101 60004 91031=
07747,1997-04-22 09:00:00,15,1006.4,1.3,23,-6,75000,42.596,,62.968,320,,,,,,,,,,,wg-a,,,,AAXX 22094 07747 12/89 03223 10150 21060 30008 40064 53013 60006 80000 90900 333 91034=
07747,1997-04-22 12:00:00,18,1006.3,0,18,-7,75000,46.3,,62.968,310,,,,,,,,,,,wg-a,,,,AAXX 22124 07747 12789 /3125 10180 21070 30008 40063 50000 60006 81100 91200 333 91034=
07747,1997-04-22 15:00:00,19,1006.5,0.2,19,-5,75000,42.596,,64.82,340,,,,,,,,,,,wg-a,,,,AAXX 22154 07747 12789 /3423 10190 21050 30010 40065 52002 60006 81100 91500 333 91035=
07747,1997-04-22 18:00:00,17,1008.6,2,22,-5,60000,38.892,,61.116,330,11.7,19.6,,,,,,,,,wg-a,,,,AAXX 22184 07747 12786 /3321 10170 21050 30030 40086 53020 60006 81201 91800 333 10196 20117 91033=
07747,1997-04-22 21:00:00,15,1011.7,3.1,25,-5,25000,25.928,,,310,,,,,,,,,,,wg-a,,,,AAXX 22214 07747 12/75 43114 10150 21050 30061 40117 51031 60006 81034 92100=
07747,1997-04-23 00:00:00,12,1013.4,1.6,32,-4,25000,18.52,,,320,,,,,,,,,,,wg-a,,,,AAXX 23004 07747 12/75 13210 10120 21040 30077 40134 51016 60006 81032 90000=
07747,1997-04-23 06:00:00,10,1015.3,1.5,46,-1,60000,7.408,,,290,7.5,16.8,,,,,,,,,wg-a,,,,AAXX 23064 07747 02/86 32904 10100 21010 30096 40153 53015 60006 80001 90600 333 10168 20075 60004=
07747,1997-04-23 09:00:00,15,1016.1,0.9,29,-3,60000,7.408,,,330,,,,,,,,,,,wg-a,,,,AAXX 23094 07747 12/86 53304 10150 21030 30105 40161 51009 60006 80001 90900=
07747,1997-04-23 12:00:00,20,1015.5,-0.5,21,-3,60000,11.112,,,360,,,,,,,,,,,wg-a,,,,AAXX 23124 07747 12786 23606 10200 21030 30100 40155 58005 60006 81101 91200=
07747,1997-04-23 15:00:00,17,1016.2,0.6,32,0,40000,18.52,,,140,,,,,,,,,,,wg-a,,,,AAXX 23154 07747 12782 /1410 10170 20000 30106 40162 51006 60006 81100 91500=
07747,1997-04-23 18:00:00,15,1017.6,1.4,31,-2,500,7.408,,,140,10,19.6,,,,,,,,,wg-a,,,,AAXX 23184 07747 12/00 31404 10150 21020 30120 40176 52014 60006 80001 91800 333 10196 20100=
07747,1997-04-23 21:00:00,10,1019.9,2.1,53,1,25000,7.408,,,270,,,,,,,,,,,wg-a,,,,AAXX 23214 07747 12/75 02704 10100 20010 30141 40199 51021 60006 80000 92100=
07747,1997-04-24 00:00:00,10,1020.4,0.5,53,1,25000,18.52,,,270,,,,,,,,,,,wg-a,,,,AAXX 24004 07747 12/75 02710 10100 20010 30146 40204 50005 60006 80000 90000=
07747,1997-04-24 03:00:00,8,1020.4,-0,61,1,25000,3.704,,,140,,,,,,,,,,,wg-a,,,,AAXX 24034 07747 12/75 01402 10080 20010 30146 40204 55000 60006 80000 90300=
07747,1997-04-24 06:00:00,8,1021.8,1.4,66,2,25000,7.408,,,290,5.1,14.8,,,,,,,,,wg-a,,,,AAXX 24064 07747 02/75 12904 10080 20020 30160 40218 53014 60006 80002 90600 333 10148 20051 60004=
07747,1997-04-24 12:00:00,18,1021.9,-0.7,42,5,20000,18.52,,,80,,,,,,,,,,,wg-a,,,,AAXX 24124 07747 12670 /0810 10180 20050 30163 40219 58007 60006 81100 91200=
07747,1997-04-24 18:00:00,15,1020.1,-0.7,88,13,12000,22.224,,,30,8.5,18.4,,,,,,,,,wg-a,,,,AAXX 24184 07747 12462 30312 10150 20130 30145 40201 56007 60006 83600 91800 333 10184 20085=
07747,1997-04-24 21:00:00,14,1021.8,1.6,88,12,9000,7.408,,,360,,,,,,,,,,,wg-a,,,,AAXX 24214 07747 12659 23604 10140 20120 30161 40218 51016 60006 82500 92100=
07747,1997-04-25 00:00:00,11,1021.8,-0,94,10,9000,7.408,,,250,,,,,,,,,,,wg-a,,,,AAXX 25004 07747 12659 22504 10110 20100 30161 40218 55000 60006 81530 90000=
07747,1997-04-25 03:00:00,12,1020.9,-0.9,94,11,8000,0,,,0,,,,,,,,,,,wg-a,,,,AAXX 25034 07747 12458 80000 10120 20110 30152 40209 56009 60006 885// 90300=
07747,1997-04-25 06:00:00,14,1022,1.1,82,11,7000,3.704,,,350,10.3,15.3,,,,,,,,,wg-a,,,,AAXX 25064 07747 02457 83502 10140 20110 30163 40220 53011 60006 885// 90600 333 10153 20103 60004=
07747,1997-04-25 09:00:00,16,1022.7,0.8,77,12,6000,7.408,,,80,,,,,,,,,,,wg-a,,,,AAXX 25094 07747 12456 80804 10160 20120 30171 40227 51008 60006 876// 90900=
07747,1997-04-25 12:00:00,18,1021.9,-0.8,64,11,8000,7.408,,,70,,,,,,,,,,,wg-a,,,,AAXX 25124 07747 12458 80704 10180 20110 30163 40219 58008 60006 885// 91200=
07747,1997-04-25 18:00:00,16,1020,-0.2,77,12,8000,7.408,,,70,13.5,19.5,,,,,,,,,wg-a,,,,AAXX 25184 07747 12458 70704 10160 20120 30144 40200 57002 60006 82632 91800 333 10195 20135=
07747,1997-04-25 21:00:00,14,1021.1,1,88,12,8000,3.704,,,60,,,,,,,,,,,wg-a,,,,AAXX 25214 07747 12458 70602 10140 20120 30154 40211 52010 60006 8163/ 92100=
07747,1997-04-26 00:00:00,13,1020.7,-0.4,94,12,8000,0,,,0,,,,,,,,,,,wg-a,,,,AAXX 26004 07747 12558 70000 10130 20120 30150 40207 58004 60006 8353/ 90000=
07747,1997-04-26 03:00:00,12,1019.8,-0.9,94,11,6000,7.408,,,260,,,,,,,,,,,wg-a,,,,AAXX 26034 07747 12556 72604 10120 20110 30141 40198 56009 60006 8353/ 90300=
07747,1997-04-26 06:00:00,11,1019.5,-0.3,100,11,1800,3.704,,,240,9.8,16,,,,,,,,10,wg-a,,,,AAXX 26064 07747 02418 /2402 10110 20110 30138 40195 55003 60006 71022 81531 90600 333 10160 20098 60004=
07747,1997-04-26 09:00:00,17,1019,-0.4,77,13,3000,7.408,,,120,,,,,,,,,,10,wg-a,,,,AAXX 26094 07747 12330 61204 10170 20130 30134 40190 57004 60006 71022 81531 90900=
07747,1997-04-26 12:00:00,18,1017.1,-1.9,73,13,8000,11.112,,,100,,,,,,,,,,,wg-a,,,,AAXX 26124 07747 12758 71006 10180 20130 30115 40171 58019 60006 81552 91200=
07747,1997-04-26 15:00:00,18,1014.5,-2.5,73,13,6000,7.408,,,120,,,,,,,,,,,wg-a,,,,AAXX 26154 07747 12356 71204 10180 20130 30090 40145 58025 60006 81632 91500=
07747,1997-04-26 18:00:00,17,1014.5,-0,88,15,4000,25.928,,,320,11.5,19.1,,,,,,,,10,wg-a,,,,AAXX 26184 07747 02340 83214 10170 20150 30090 40145 55000 61000 71062 8257/ 91800 333 10191 20115 6002=
07747,1997-04-26 21:00:00,18,1014.8,0.3,77,14,9000,14.816,,,310,,,,1,,,,,,2,wg-a,,,,AAXX 26214 07747 12559 83108 10180 20140 30093 40148 51003 60017 70262 8187/ 92100=
07747,1997-04-27 00:00:00,17,1014.9,-0,82,14,10000,11.112,,,300,,,,,,,,,,2,wg-a,,,,AAXX 27004 07747 12660 83006 10170 20140 30093 40149 55000 60016 70262 8157/ 90000=
07747,1997-04-27 03:00:00,14,1014.6,-0.3,72,9,10000,3.704,,,180,,,,0,,,,,,2,wg-a,,,,AAXX 27034 07747 12560 81802 10140 20090 30090 40146 58003 60007 70262 8387/ 90300=
07747,1997-04-27 06:00:00,15,1014.2,-0.4,72,10,25000,18.52,,,310,14.3,17.8,,,,,3,,,1,wg-a,,,,AAXX 27064 07747 02575 73110 10150 20100 30086 40142 55004 60006 70162 83872 90600 333 10178 20143 60034=
07747,1997-04-27 09:00:00,19,1014.7,0.6,56,10,500,35.188,,57.412,310,,,,,,,,,,,wg-a,,,,AAXX 27094 07747 12500 73119 10190 20100 30092 40147 53006 60006 84842 90900 333 91031=
07747,1997-04-27 12:00:00,21,1014.8,0.1,46,9,25000,38.892,,59.264,310,,,,,,,,,,,wg-a,,,,AAXX 27124 07747 12575 53121 10210 20090 30093 40148 50001 60006 83202 91200 333 91032=
07747,1997-04-27 18:00:00,19,1016.3,2,46,7,500,31.484,,,320,15.3,22.6,,,,,,,,,wg-a,,,,AAXX 27184 07747 12500 73217 10190 20070 30108 40163 53020 60006 83242 91800 333 10226 20153=
07747,1997-04-27 21:00:00,16,1019.7,3.3,59,8,25000,22.224,,40.744,320,,,,,,,,,,,wg-a,,,,AAXX 27214 07747 12575 73212 10160 20080 30141 40197 51033 60006 878// 92100 333 91022=
07747,1997-04-28 00:00:00,15,1020.5,0.8,72,10,11000,18.52,,,310,,,,,,,,,,,wg-a,,,,AAXX 28004 07747 12/61 /3110 10150 20100 30149 40205 51008 60006 90000=
07747,1997-04-28 06:00:00,17,1020.4,0.7,77,13,500,18.52,,,310,14.7,19.2,,,,,,,,,wg-a,,,,AAXX 28064 07747 02500 63110 10170 20130 30148 40204 53007 60006 86832 90600 333 10192 20147 60004=
07747,1997-04-28 12:00:00,21,1019.8,-0.7,60,13,11000,50.004,,68.524,320,,,,,,,,,,,wg-a,,,,AAXX 28124 07747 12/61 /3227 10210 20130 30143 40198 58007 60006 91200 333 91037=
07747,1997-04-28 15:00:00,24,1019,-0.8,50,13,40000,38.892,,66.672,330,,,,,,,,,,,wg-a,,,,AAXX 28154 07747 12682 53321 10240 20130 30135 40190 58008 60006 82231 91500 333 91036=
07747,1997-04-28 18:00:00,21,1019.6,0.6,56,12,40000,35.188,,57.412,310,17,24.6,,,,,,,,,wg-a,,,,AAXX 28184 07747 12682 73119 10210 20120 30141 40196 51006 60006 82832 91800 333 10246 20170 91031=
07747,1997-04-28 21:00:00,19,1020.4,0.7,64,12,25000,29.632,,,320,,,,,,,,,,,wg-a,,,,AAXX 28214 07747 12675 53216 10190 20120 30148 40204 53007 60006 82831 92100=
07747,1997-04-29 03:00:00,16,1018,-1.9,82,13,15000,14.816,,,310,,,,1,,,,,,1,wg-a,,,,AAXX 29034 07747 12565 73108 10160 20130 30124 40180 58019 60017 70162 8587/ 90300=
07747,1997-04-29 06:00:00,17,1016.9,-1.1,68,11,50000,31.484,,,320,15.2,21,,,,,1,,,3,wg-a,,,,AAXX 29064 07747 02584 73217 10170 20110 30113 40169 55011 60006 70362 84234 90600 333 10210 20152 60014=
07747,1997-04-29 09:00:00,18,1017.9,1,52,8,75000,50.004,,72.228,320,,,,,,,,,,,wg-a,,,,AAXX 29094 07747 12589 53227 10180 20080 30123 40179 52010 60006 83801 90900 333 91039=
07747,1997-04-29 12:00:00,19,1018.1,0.3,46,7,75000,42.596,,66.672,330,,,,,,,,,,,wg-a,,,,AAXX 29124 07747 12589 /3323 10190 20070 30126 40181 53003 60006 81101 91200 333 91036=
07747,1997-04-29 18:00:00,19,1017.4,-0.1,43,6,40000,29.632,,,340,16.5,21.7,,,,,,,,,wg-a,,,,AAXX 29184 07747 12682 33416 10190 20060 30119 40174 55001 60006 83101 91800 333 10217 20165=
07747,1997-04-29 21:00:00,18,1019.3,1.8,49,7,500,33.336,,,340,,,,,,,,,,,wg-a,,,,AAXX 29214 07747 12600 /3418 10180 20070 30139 40193 51018 60006 86500 92100=
07747,1997-04-30 00:00:00,16,1019.9,0.6,55,7,500,35.188,,57.412,330,,,,,,,,,,,wg-a,,,,AAXX 30004 07747 12600 73319 10160 20070 30143 40199 53006 60006 875// 90000 333 91031=
07747,1997-04-30 03:00:00,14,1019.3,-0.7,58,6,500,35.188,,,330,,,,,,,,,,,wg-a,,,,AAXX 30034 07747 12600 73319 10140 20060 30136 40193 57007 60006 875// 90300=
07747,1997-04-30 06:00:00,14,1020.3,1,58,6,40000,31.484,,55.56,320,13.4,19.3,,,,,,,,,wg-a,,,,AAXX 30064 07747 02582 23217 10140 20060 30146 40203 53010 60006 82800 90600 333 10193 20134 60004 91030=
07747,1997-04-30 09:00:00,17,1020.5,0.3,48,6,60000,38.892,,59.264,330,,,,,,,,,,,wg-a,,,,AAXX 30094 07747 12586 /3321 10170 20060 30149 40205 53003 60006 81800 90900 333 91032=
07747,1997-04-30 12:00:00,20,1019.3,-1.1,37,5,60000,38.892,,62.968,330,,,,,,,,,,,wg-a,,,,AAXX 30124 07747 12686 /3321 10200 20050 30138 40193 58011 60006 81100 91200 333 91034=
07747,1997-04-30 15:00:00,21,1018.9,-0.4,35,5,60000,38.892,,55.56,320,,,,,,,,,,,wg-a,,,,AAXX 30154 07747 12686 /3221 10210 20050 30134 40189 58004 60006 81100 91500 333 91030=
07747,1997-04-30 18:00:00,20,1019.2,0.3,40,6,50000,31.484,,53.708,330,13.8,21.7,,,,,,,,,wg-a,,,,AAXX 30184 07747 12684 /3317 10200 20060 30137 40192 53003 60006 81100 91800 333 10217 20138 91029=
07747,1997-04-30 21:00:00,17,1021.1,1.8,48,6,25000,14.816,,,310,,,,,,,,,,,wg-a,,,,AAXX 30214 07747 12675 /3108 10170 20060 30155 40211 51018 60006 81100 92100=
07747,1997-05-01 00:00:00,17,1021.1,0,45,5,25000,25.928,,,330,,,,,,,,,,,wg-a,,,,AAXX 01004 07747 12/75 03314 10170 20050 30155 40211 50000 60006 80000 90000=
07747,1997-05-01 03:00:00,14,1021.1,-0.1,51,4,10000,18.52,,,330,,,,,,,,,,,wg-a,,,,AAXX 01034 07747 12/60 /3310 10140 20040 30154 40211 58001 60006 90300=
07747,1997-05-01 06:00:00,14,1022.3,1.2,55,5,60000,11.112,,,260,11,19.6,,,,,,,,,wg-a,,,,AAXX 01064 07747 02/86 02606 10140 20050 30166 40223 53012 60006 80000 90600 333 10196 20110 60004=
07747,1997-05-01 12:00:00,22,1021.8,-0.4,31,4,60000,14.816,,,90,,,,,,,,,,,wg-a,,,,AAXX 01124 07747 12686 10908 10220 20040 30163 40218 57004 60006 81100 91200=
07747,1997-05-01 15:00:00,22,1020.4,-1.4,33,5,60000,11.112,,,70,,,,,,,,,,,wg-a,,,,AAXX 01154 07747 12686 /0706 10220 20050 30149 40204 58014 60006 81100 91500=
07747,1997-05-01 18:00:00,19,1020.7,0.2,49,8,60000,11.112,,,130,14.2,22.8,,,,,,,,,wg-a,,,,AAXX 01184 07747 12686 /1306 10190 20080 30151 40207 53002 60006 81100 91800 333 10228 20142=
07747,1997-05-01 21:00:00,15,1023.1,2.3,67,9,35000,7.408,,,350,,,,,,,,,,,wg-a,,,,AAXX 01214 07747 12/81 03504 10150 20090 30174 40231 53023 60006 80000 92100=
07747,1997-05-02 00:00:00,13,1024,0.9,88,11,12000,11.112,,,30,,,,,,,,,,,wg-a,,,,AAXX 02004 07747 12/62 00306 10130 20110 30183 40240 50009 60006 80000 90000=
07747,1997-05-02 03:00:00,11,1023.7,-0.3,100,11,10000,3.704,,,20,,,,,,,,,,,wg-a,,,,AAXX 02034 07747 12/60 00202 10110 20110 30180 40237 57003 60006 80000 90300=
07747,1997-05-02 06:00:00,14,1024,0.3,94,13,4500,7.408,,,50,10.8,18.6,,,,,,,,10,wg-a,,,,AAXX 02064 07747 02/45 /0504 10140 20130 30183 40240 53003 60006 71011 80000 90600 333 10186 20108 60004=
07747,1997-05-02 09:00:00,22,1023.5,-0.3,46,10,500,25.928,,,140,,,,,,,,,,,wg-a,,,,AAXX 02094 07747 12500 /1414 10220 20100 30180 40235 58003 60006 81100 90900=
07747,1997-05-02 12:00:00,24,1022.4,-1.1,44,11,500,31.484,,,130,,,,,,,,,,,wg-a,,,,AAXX 02124 07747 12/00 01317 10240 20110 30169 40224 58011 60006 80000 91200=
07747,1997-05-02 15:00:00,24,1020.8,-1.6,41,10,500,29.632,,,130,,,,,,,,,,,wg-a,,,,AAXX 02154 07747 12/00 01316 10240 20100 30153 40208 58016 60006 80000 91500=
07747,1997-05-02 18:00:00,19,1020.8,-0.1,60,11,500,11.112,,,70,13.9,24.7,,,,,,,,,wg-a,,,,AAXX 02184 07747 12/00 00706 10190 20110 30152 40208 55001 60006 80000 91800 333 10247 20139=
07747,1997-05-02 21:00:00,15,1021.7,0.9,77,11,25000,11.112,,,10,,,,,,,,,,,wg-a,,,,AAXX 02214 07747 12/75 00106 10150 20110 30161 40217 52009 60006 80000 92100=
07747,1997-05-03 00:00:00,13,1021.7,-0.1,82,10,25000,0,,,0,,,,,,,,,,,wg-a,,,,AAXX 03004 07747 12/75 00000 10130 20100 30160 40217 58001 60006 80000 90000=
07747,1997-05-03 06:00:00,13,1022.6,1.2,88,11,25000,3.704,,,270,11,19.3,,,,,,,,,wg-a,,,,AAXX 03064 07747 02775 /2702 10130 20110 30169 40226 53012 60006 81500 90600 333 10193 20110 60004=
07747,1997-05-03 09:00:00,20,1022.8,0.3,56,11,25000,7.408,,,10,,,,,,,,,,,wg-a,,,,AAXX 03094 07747 12775 /0104 10200 20110 30172 40228 51003 60006 81140 90900=
07747,1997-05-03 12:00:00,21,1021.5,-1.2,60,13,25000,18.52,,,120,,,,,,,,,,,wg-a,,,,AAXX 03124 07747 12775 31210 10210 20130 30160 40215 58012 60006 81241 91200=
07747,1997-05-03 18:00:00,20,1018.6,-1,78,16,20000,14.816,,,280,13.5,22.6,,,,,,,,60,wg-a,,,,AAXX 03184 07747 02770 72808 10200 20160 30131 40186 57010 61000 76061 8398/ 91800 333 10226 20135 6000=
07747,1997-05-03 21:00:00,19,1018,-0.6,83,16,20000,14.816,,,260,,,,1,,,,,,21,wg-a,,,,AAXX 03214 07747 12770 72608 10190 20160 30125 40180 57006 60017 72162 8257/ 92100=
07747,1997-05-04 00:00:00,16,1017.4,-0.7,94,15,20000,3.704,,,260,,,,,,,,,,2,wg-a,,,,AAXX 04004 07747 12770 72602 10160 20150 30118 40174 58007 60016 70262 8457/ 90000=
07747,1997-05-04 06:00:00,15,1015.2,-0.9,94,14,12000,7.408,,,60,14.9,19.7,,,,,1,,,,wg-a,,,,AAXX 04064 07747 02662 70604 10150 20140 30096 40152 56009 60006 83872 90600 333 10197 20149 60014=
07747,1997-05-04 09:00:00,19,1014.9,-0.2,73,14,9000,7.408,,,90,,,,,,,,,,,wg-a,,,,AAXX 04094 07747 12559 70904 10190 20140 30094 40149 58002 60006 83832 90900=
07747,1997-05-04 12:00:00,22,1013.7,-1.2,60,14,15000,11.112,,,100,,,,,,,,,,,wg-a,,,,AAXX 04124 07747 12565 71006 10220 20140 30082 40137 57012 60006 8696/ 91200=
07747,1997-05-04 15:00:00,20,1011.4,-2.3,68,14,20000,7.408,,,130,,,,0,,,,,,1,wg-a,,,,AAXX 04154 07747 12570 61304 10200 20140 30059 40114 58023 60007 70186 84960 91500=
07747,1997-05-04 18:00:00,18,1010.7,-0.7,77,14,15000,7.408,,,350,15.4,22.3,,,,,,,,25,wg-a,,,,AAXX 04184 07747 02665 73504 10180 20140 30052 40107 55007 61000 72586 84982 91800 333 10223 20154 6100=
07747,1997-05-05 00:00:00,15,1007.4,-2.2,94,14,20000,11.112,,,270,,,,,,,,,,3,wg-a,,,,AAXX 05004 07747 12670 52706 10150 20140 30018 40074 56022 60016 70361 82541 90000=
07747,1997-05-05 03:00:00,15,1004.9,-2.5,94,14,15000,7.408,,,180,,,,0,,,,,,21,wg-a,,,,AAXX 05034 07747 12765 61804 10150 20140 39993 40049 56025 60007 72122 84542 90300=
07747,1997-05-05 06:00:00,16,1007.2,2.4,88,14,4000,7.408,,,280,13.9,17.8,,,,,,,,80,wg-a,,,,AAXX 05064 07747 02440 82804 10160 20140 30017 40072 53024 61000 78096 8697/ 90600 333 10178 20139 6003=
07747,1997-05-05 09:00:00,18,1005.7,-1.5,88,16,9000,7.408,,,190,,,,2,,,,,,1,wg-a,,,,AAXX 05094 07747 12559 /1904 10180 20160 30002 40057 55015 60027 70198 86800 90900=
07747,1997-05-05 12:00:00,21,1004,-1.6,69,15,15000,18.52,,,100,,,,,,,,,,1,wg-a,,,,AAXX 05124 07747 12565 51010 10210 20150 39986 40040 58016 60026 70198 84831 91200=
07747,1997-05-05 15:00:00,21,1002.6,-1.4,56,12,25000,18.52,,,110,,,,,,,,,,,wg-a,,,,AAXX 05154 07747 12575 71110 10210 20120 39972 40026 58014 60006 87800 91500=
07747,1997-05-05 18:00:00,18,1000.8,-1.9,83,15,10000,18.52,,,70,15.3,21.5,,,,,,,,,wg-a,,,,AAXX 05184 07747 12460 70710 10180 20150 39953 40008 56019 60006 872// 91800 333 10215 20153=
07747,1997-05-05 21:00:00,16,1001.3,0.5,88,14,7000,7.408,,,70,,,,,,,,,,,wg-a,,,,AAXX 05214 07747 12457 70704 10160 20140 39958 40013 50005 60006 872// 92100=
07747,1997-05-06 00:00:00,15,998.6,-2.7,88,13,7000,11.112,,,100,,,,,,,,,,,wg-a,,,,AAXX 06004 07747 12457 71006 10150 20130 39931 49986 58027 60006 877// 90000=
07747,1997-05-06 06:00:00,13,1000.5,1.2,58,5,40000,22.224,,,330,12.2,17.6,,,,,2,,,,wg-a,,,,AAXX 06064 07747 02482 73312 10130 20050 39949 40005 53012 60006 878// 90600 333 10176 20122 60024=
07747,1997-05-06 09:00:00,18,1000.6,0.2,37,3,60000,14.816,,,320,,,,,,,,,,,wg-a,,,,AAXX 06094 07747 12686 43208 10180 20030 39951 40006 52002 60006 84800 90900=
07747,1997-05-06 12:00:00,18,1001.5,0.9,39,4,25000,18.52,,,280,,,,,,,,,,17,wg-a,,,,AAXX 06124 07747 12575 72810 10180 20040 39960 40015 53009 60006 71791 879// 91200=
07747,1997-05-06 15:00:00,18,1003.1,1.6,39,4,60000,61.116,,92.6,310,,,,0,,,,,,3,wg-a,,,,AAXX 06154 07747 12686 43133 10180 20040 39976 40031 53016 60007 70391 84982 91500 333 91050=
07747,1997-05-06 18:00:00,15,1005.2,2,44,3,11000,35.188,,55.56,310,12.7,21,,,,,,,,,wg-a,,,,AAXX 06184 07747 12/61 /3119 10150 20030 39996 40052 53020 60006 91800 333 10210 20127 91030=
07747,1997-05-06 21:00:00,12,1007.9,2.7,47,1,12000,46.3,,62.968,320,,,,,,,,,,,wg-a,,,,AAXX 06214 07747 12562 73225 10120 20010 30023 40079 51027 60006 878// 92100 333 91034=
07747,1997-05-07 00:00:00,12,1008.8,0.8,47,1,15000,22.224,,,350,,,,,,,,,,,wg-a,,,,AAXX 07004 07747 12565 73512 10120 20010 30031 40088 50008 60006 878// 90000=
07747,1997-05-07 03:00:00,10,1007.1,-1.7,57,2,12000,11.112,,,290,,,,,,,,,,,wg-a,,,,AAXX 07034 07747 12562 72906 10100 20020 30014 40071 56017 60006 878// 90300=
07747,1997-05-07 06:00:00,10,1006.1,-1,62,3,20000,3.704,,,150,9.4,14.8,,,,,,,,,wg-a,,,,AAXX 07064 07747 02570 71502 10100 20030 30004 40061 56010 60006 8787/ 90600 333 10148 20094 60004=
07747,1997-05-07 12:00:00,14,1003.1,-1.7,55,5,500,11.112,,,110,,,,,,,,,,,wg-a,,,,AAXX 07124 07747 12600 71106 10140 20050 39975 40031 58017 60006 84272 91200=
07747,1997-05-07 15:00:00,11,1002.5,-0.6,71,6,20000,22.224,,,260,,,,,,,,,,,wg-a,,,,AAXX 07154 07747 12570 72612 10110 20060 39969 40025 55006 60006 8597/ 91500=
07747,1997-05-07 18:00:00,8,1004.2,1.6,81,5,9000,14.816,,,330,7.9,14.8,,,,,,,,60,wg-a,,,,AAXX 07184 07747 02459 83308 10080 20050 39985 40042 53016 61000 76086 8697/ 91800 333 10148 20079 6002=
07747,1997-05-07 21:00:00,7,1007.1,2.9,76,3,25000,38.892,,55.56,320,,,,0,,,,,,60,wg-a,,,,AAXX 07214 07747 12475 83221 10070 20030 30014 40071 53029 60007 76062 878// 92100 333 91030=
07747,1997-05-08 00:00:00,7,1008.9,1.8,76,3,25000,31.484,,55.56,320,,,,,,,,,,2,wg-a,,,,AAXX 08004 07747 02475 83217 10070 20030 30032 40089 51018 60006 70262 8687/ 90000 333 61000 91030=
07747,1997-05-08 03:00:00,8,1010.5,1.6,57,0,25000,18.52,,,330,,,,0,,,,,,,wg-a,,,,AAXX 08034 07747 12575 /3310 10080 20000 30048 40105 53016 60007 86800 90300=
07747,1997-05-08 06:00:00,9,1011.9,1.4,57,1,60000,25.928,,,320,6,9.1,,,,,3,,,1,wg-a,,,,AAXX 08064 07747 02686 23214 10090 20010 30062 40119 53014 60006 70161 82102 90600 333 10091 20060 60034=
07747,1997-05-08 09:00:00,13,1012.7,0.8,38,-1,60000,42.596,,61.116,330,,,,,,,,,,,wg-a,,,,AAXX 08094 07747 12686 43323 10130 21010 30070 40127 51008 60006 83102 90900 333 91033=
07747,1997-05-08 12:00:00,16,1013,0.4,39,2,60000,29.632,,50.004,310,,,,,,,,,,,wg-a,,,,AAXX 08124 07747 12786 53116 10160 20020 30074 40130 51004 60006 84241 91200 333 91027=
07747,1997-05-08 15:00:00,17,1012.5,-0.5,39,3,60000,31.484,,,330,,,,,,,,,,,wg-a,,,,AAXX 08154 07747 12786 73317 10170 20030 30069 40125 56005 60006 8383/ 91500=
07747,1997-05-08 18:00:00,15,1013.2,0.7,48,4,50000,14.816,,,280,9.1,18.1,,,,,,,,,wg-a,,,,AAXX 08184 07747 12784 /2808 10150 20040 30076 40132 53007 60006 8117/ 91800 333 10181 20091=
07747,1997-05-09 00:00:00,13,1015,-0.1,58,5,40000,7.408,,,270,,,,,,,,,,,wg-a,,,,AAXX 09004 07747 12782 72704 10130 20050 30093 40150 58001 60006 8217/ 90000=
07747,1997-05-09 03:00:00,11,1013.8,-1.2,71,6,40000,14.816,,,260,,,,,,,,,,,wg-a,,,,AAXX 09034 07747 12/82 22608 10110 20060 30081 40138 58012 60006 82030 90300=
07747,1997-05-09 06:00:00,11,1014.1,0.3,71,6,50000,0,,,0,8.9,15.1,,,,,,,,,wg-a,,,,AAXX 09064 07747 02384 40000 10110 20060 30084 40141 53003 60006 81531 90600 333 10151 20089 60004=
07747,1997-05-09 09:00:00,17,1014.2,0.2,48,6,50000,3.704,,,360,,,,,,,,,,,wg-a,,,,AAXX 09094 07747 12684 /3602 10170 20060 30086 40142 51002 60006 81132 90900=
07747,1997-05-09 12:00:00,20,1014.4,0.3,43,7,500,14.816,,,110,,,,,,,,,,,wg-a,,,,AAXX 09124 07747 12500 61108 10200 20070 30089 40144 53003 60006 84963 91200=
07747,1997-05-09 18:00:00,17,1015,0.1,52,7,500,7.408,,,140,11.5,20.2,,,,,,,,1,wg-a,,,,AAXX 09184 07747 02700 71404 10170 20070 30094 40150 53001 60006 70162 875// 91800 333 10202 20115 61000=
07747,1997-05-09 21:00:00,16,1016.8,1.8,63,9,500,3.704,,,30,,,,,,,,,,,wg-a,,,,AAXX 09214 07747 12800 70302 10160 20090 30112 40168 51018 60006 875// 92100=
07747,1997-05-10 00:00:00,13,1017.2,0.3,82,10,500,7.408,,,290,,,,,,,,,,,wg-a,,,,AAXX 10004 07747 12/00 /2904 10130 20100 30115 40172 51003 60006 85030 90000=
07747,1997-05-10 03:00:00,11,1016.5,-0.7,87,9,500,3.704,,,360,,,,,,,,,,,wg-a,,,,AAXX 10034 07747 12/00 /3602 10110 20090 30108 40165 58007 60006 81040 90300=
07747,1997-05-10 06:00:00,13,1016.4,-0.1,82,10,60000,7.408,,,20,9.5,16.8,,,,,,,,,wg-a,,,,AAXX 10064 07747 02/86 30204 10130 20100 30107 40164 57001 60006 81042 90600 333 10168 20095 61000=
07747,1997-05-10 09:00:00,20,1015.6,-0.6,49,9,60000,22.224,,,120,,,,,,,,,,,wg-a,,,,AAXX 10094 07747 12786 41212 10200 20090 30101 40156 58006 60006 81142 90900=
07747,1997-05-10 12:00:00,20,1013.7,-1.9,64,13,500,31.484,,,120,,,,,,,,,,,wg-a,,,,AAXX 10124 07747 12400 /1217 10200 20130 30082 40137 58019 60006 81542 91200=
07747,1997-05-10 15:00:00,20,1012.2,-1.5,53,10,500,22.224,,,150,,,,,,,,,,,wg-a,,,,AAXX 10154 07747 12400 71512 10200 20100 30067 40122 58015 60006 81552 91500=
07747,1997-05-10 18:00:00,19,1011.8,-0.4,46,7,500,7.408,,,110,12.9,21.8,,,,,,,,,wg-a,,,,AAXX 10184 07747 12400 71104 10190 20070 30063 40118 56004 60006 8557/ 91800 333 10218 20129=
07747,1997-05-10 21:00:00,18,1013.6,1.8,39,4,500,14.816,,,160,,,,,,,,,,,wg-a,,,,AAXX 10214 07747 12700 71608 10180 20040 30081 40136 53018 60006 8257/ 92100=
07747,1997-05-11 00:00:00,16,1013.7,0,63,9,500,18.52,,,150,,,,,,,,,,,wg-a,,,,AAXX 11004 07747 12700 71510 10160 20090 30081 40137 50000 60006 8257/ 90000=
07747,1997-05-11 03:00:00,14,1013.7,-0,82,11,500,18.52,,,150,,,,,,,,,,,wg-a,,,,AAXX 11034 07747 12700 71510 10140 20110 30081 40137 55000 60006 8257/ 90300=
07747,1997-05-11 06:00:00,14,1013.8,0.1,88,12,500,22.224,,,120,13.8,18.9,,,,,,,,,wg-a,,,,AAXX 11064 07747 02400 81212 10140 20120 30082 40138 51001 60006 8593/ 90600 333 10189 20138 60004=
07747,1997-05-11 09:00:00,16,1014.6,0.8,82,13,8000,22.224,,,130,,,,,,,,,,,wg-a,,,,AAXX 11094 07747 12158 81312 10160 20130 30090 40146 51008 60006 879// 90900=
07747,1997-05-11 12:00:00,19,1014,-0.5,68,13,9000,22.224,,,120,,,,,,,,,,,wg-a,,,,AAXX 11124 07747 12459 61212 10190 20130 30085 40140 58005 60006 83832 91200=
07747,1997-05-11 15:00:00,18,1014.1,0.1,77,14,9000,22.224,,,80,,,,,,,,,,,wg-a,,,,AAXX 11154 07747 12459 /0812 10180 20140 30086 40141 53001 60006 85702 91500=
07747,1997-05-11 18:00:00,16,1015.3,1.1,88,14,4000,22.224,,,120,14.3,20.1,,,,,,,,10,wg-a,,,,AAXX 11184 07747 12240 81212 10160 20140 30097 40153 51011 60006 71022 886// 91800 333 10201 20143=
07747,1997-05-11 21:00:00,16,1017.5,2.2,88,14,6000,7.408,,,130,,,,,,,,,,,wg-a,,,,AAXX 11214 07747 12456 81304 10160 20140 30119 40175 51022 60006 885// 92100=
07747,1997-05-12 00:00:00,15,1017.9,0.4,94,14,6000,11.112,,,340,,,,,,,,,,,wg-a,,,,AAXX 12004 07747 12256 83406 10150 20140 30123 40179 51004 60006 885// 90000=
07747,1997-05-12 06:00:00,14,1020,1.1,94,13,500,3.704,,,150,13.7,16,,,,,1,,,1,wg-a,,,,AAXX 12064 07747 02500 81502 10140 20130 30144 40200 53011 60006 70162 878// 90600 333 10160 20137 60014=
07747,1997-05-12 09:00:00,18,1020.6,0.6,73,13,18000,7.408,,,60,,,,,,,,,,,wg-a,,,,AAXX 12094 07747 12468 70604 10180 20130 30150 40206 51006 60006 85832 90900=
07747,1997-05-12 12:00:00,17,1021.1,0.5,82,14,7000,18.52,,,70,,,,,,,,,,,wg-a,,,,AAXX 12124 07747 12357 80710 10170 20140 30155 40211 51005 60006 871// 91200=
07747,1997-05-12 15:00:00,16,1020.9,-0.2,88,14,8000,14.816,,,100,,,,0,,,,,,21,wg-a,,,,AAXX 12154 07747 12458 81008 10160 20140 30153 40209 58002 60007 72162 878// 91500=
07747,1997-05-12 18:00:00,15,1021.2,0.3,94,14,6000,11.112,,,90,14.4,18.3,,,,,,,,3,wg-a,,,,AAXX 12184 07747 12356 80906 10150 20140 30156 40212 53003 60006 70362 888// 91800 333 10183 20144=
07747,1997-05-12 21:00:00,15,1022.3,1.1,94,14,500,11.112,,,120,,,,1,,,,,,61,wg-a,,,,AAXX 12214 07747 12200 81206 10150 20140 30167 40223 53011 60017 76162 887// 92100=
07747,1997-05-13 00:00:00,15,1021.9,-0.4,94,14,7000,7.408,,,80,,,,0,,,,,,2,wg-a,,,,AAXX 13004 07747 02257 80804 10150 20140 30163 40219 58004 60026 70262 887// 90000 333 60007=
07747,1997-05-13 06:00:00,14,1021.5,0.4,100,14,8000,3.704,,,50,13.7,15.4,,,,,2,,,,wg-a,,,,AAXX 13064 07747 02258 70502 10140 20140 30158 40215 53004 60006 8553/ 90600 333 10154 20137 60024=
07747,1997-05-13 09:00:00,16,1021.1,-0.3,82,13,9000,11.112,,,70,,,,,,,,,,,wg-a,,,,AAXX 13094 07747 12459 70706 10160 20130 30155 40211 58003 60006 8687/ 90900=
07747,1997-05-13 12:00:00,18,1020.6,-0.5,68,12,12000,11.112,,,90,,,,,,,,,,,wg-a,,,,AAXX 13124 07747 12562 80906 10180 20120 30150 40206 58005 60006 82842 91200=
07747,1997-05-13 15:00:00,19,1019,-1.6,64,12,15000,18.52,,,90,,,,,,,,,,,wg-a,,,,AAXX 13154 07747 12565 70910 10190 20120 30134 40190 58016 60006 81142 91500=
07747,1997-05-13 18:00:00,18,1017.6,-1.4,64,11,12000,11.112,,,120,14.1,19.5,,,,,,,,,wg-a,,,,AAXX 13184 07747 12562 71206 10180 20110 30120 40176 56014 60006 81832 91800 333 10195 20141=
07747,1997-05-13 21:00:00,15,1019,1.4,82,12,10000,3.704,,,290,,,,,,,,,,,wg-a,,,,AAXX 13214 07747 12660 72902 10150 20120 30134 40190 53014 60006 81532 92100=
07747,1997-05-14 00:00:00,13,1018.9,-0.2,88,11,10000,3.704,,,160,,,,,,,,,,,wg-a,,,,AAXX 14004 07747 12/60 21602 10130 20110 30132 40189 57002 60006 80002 90000=
07747,1997-05-14 03:00:00,13,1018,-0.9,88,11,10000,7.408,,,270,,,,,,,,,,,wg-a,,,,AAXX 14034 07747 12/60 22704 10130 20110 30123 40180 58009 60006 80002 90300=
07747,1997-05-14 06:00:00,14,1018.3,0.4,88,12,15000,7.408,,,260,11.1,17.6,,,,,,,,,wg-a,,,,AAXX 14064 07747 02565 72604 10140 20120 30127 40183 53004 60006 81184 90600 333 10176 20111 60004=
07747,1997-05-14 09:00:00,21,1017.9,-0.3,53,11,500,11.112,,,20,,,,,,,,,,,wg-a,,,,AAXX 14094 07747 12500 40206 10210 20110 30124 40179 58003 60006 81182 90900=
07747,1997-05-14 12:00:00,23,1017.2,-0.7,44,10,20000,22.224,,,80,,,,,,,,,,,wg-a,,,,AAXX 14124 07747 12570 60812 10230 20100 30117 40172 57007 60006 83182 91200=
07747,1997-05-14 15:00:00,21,1016.4,-0.8,56,12,20000,14.816,,,70,,,,,,,,,,,wg-a,,,,AAXX 14154 07747 12570 /0708 10210 20120 30109 40164 58008 60006 82282 91500=
07747,1997-05-14 18:00:00,18,1016.8,0.3,77,14,25000,11.112,,,80,14.1,23.4,,,,,,,,,wg-a,,,,AAXX 14184 07747 12575 70806 10180 20140 30112 40168 53003 60006 83282 91800 333 10234 20141=
07747,1997-05-14 21:00:00,14,1017.1,0.3,88,12,15000,3.704,,,210,,,,,,,,,,,wg-a,,,,AAXX 14214 07747 12565 32102 10140 20120 30115 40171 53003 60006 81502 92100=
07747,1997-05-15 00:00:00,12,1016.5,-0.7,88,10,10000,3.704,,,310,,,,,,,,,,,wg-a,,,,AAXX 15004 07747 12/60 03102 10120 20100 30108 40165 58007 60006 80000 90000=
07747,1997-05-15 03:00:00,12,1015.5,-1,94,11,10000,3.704,,,240,,,,,,,,,,,wg-a,,,,AAXX 15034 07747 12/60 22402 10120 20110 30098 40155 56010 60006 80002 90300=
07747,1997-05-15 06:00:00,14,1015.7,0.3,88,12,20000,3.704,,,250,11.3,17.6,,,,,,,,,wg-a,,,,AAXX 15064 07747 02670 72502 10140 20120 30101 40157 53003 60006 81542 90600 333 10176 20113 60004=
07747,1997-05-15 09:00:00,20,1015,-0.6,64,13,20000,14.816,,,90,,,,,,,,,,,wg-a,,,,AAXX 15094 07747 12670 /0908 10200 20130 30095 40150 56006 60006 81542 90900=
07747,1997-05-15 12:00:00,22,1014.9,-0.1,50,11,20000,11.112,,,130,,,,,,,,,,,wg-a,,,,AAXX 15124 07747 12670 81306 10220 20110 30094 40149 58001 60006 81552 91200=
07747,1997-05-15 15:00:00,21,1013.6,-1.3,56,12,20000,11.112,,,100,,,,,,,,,,21,wg-a,,,,AAXX 15154 07747 02670 81006 10210 20120 30081 40136 57013 61000 72122 8355/ 91500 333 ////=
07747,1997-05-15 18:00:00,19,1013.3,-0.3,64,12,20000,7.408,,,70,14.1,22.5,,,,,,,,1,wg-a,,,,AAXX 15184 07747 12/70 60704 10190 20120 30078 40133 56003 60006 70162 81042 91800 333 10225 20141=
07747,1997-05-15 21:00:00,16,1014,0.6,77,12,15000,11.112,,,350,,,,,,,,,,,wg-a,,,,AAXX 15214 07747 12/65 73506 10160 20120 30084 40140 50006 60006 85032 92100=
07747,1997-05-16 00:00:00,14,1013.7,-0.3,88,12,15000,0,,,0,,,,,,,,,,,wg-a,,,,AAXX 16004 07747 12/65 60000 10140 20120 30081 40137 56003 60006 82042 90000=
07747,1997-05-16 03:00:00,14,1012.9,-0.8,88,12,15000,14.816,,,50,,,,,,,,,,,wg-a,,,,AAXX 16034 07747 12/65 60508 10140 20120 30073 40129 56008 60006 85032 90300=
07747,1997-05-16 06:00:00,16,1014,1.1,88,14,6000,11.112,,,110,13.5,18.8,,,,,,,,,wg-a,,,,AAXX 16064 07747 02456 71106 10160 20140 30084 40140 53011 60006 82632 90600 333 10188 20135 61000=
07747,1997-05-16 09:00:00,19,1014.6,0.7,83,16,6000,11.112,,,100,,,,,,,,,,,wg-a,,,,AAXX 16094 07747 12456 71006 10190 20160 30091 40146 51007 60006 871// 90900=
07747,1997-05-16 12:00:00,22,1014.1,-0.5,69,16,8000,25.928,,,130,,,,,,,,,,,wg-a,,,,AAXX 16124 07747 12458 61314 10220 20160 30086 40141 58005 60006 84132 91200=
07747,1997-05-16 18:00:00,18,1013.1,0.5,88,16,8000,14.816,,,140,15.8,22.8,,,,,,,,,wg-a,,,,AAXX 16184 07747 12358 71408 10180 20160 30076 40131 53005 60006 83242 91800 333 10228 20158=
07747,1997-05-16 21:00:00,17,1013.9,0.7,82,14,8000,3.704,,,210,,,,,,,,,,,wg-a,,,,AAXX 16214 07747 12358 52102 10170 20140 30083 40139 53007 60006 81602 92100=
07747,1997-05-17 00:00:00,15,1013.4,-0.5,94,14,8000,7.408,,,30,,,,,,,,,,,wg-a,,,,AAXX 17004 07747 12658 30304 10150 20140 30078 40134 56005 60006 81501 90000=
07747,1997-05-17 03:00:00,15,1013,-0.4,94,14,8000,11.112,,,350,,,,,,,,,,,wg-a,,,,AAXX 17034 07747 12658 73506 10150 20140 30074 40130 56004 60006 84542 90300=
07747,1997-05-17 06:00:00,16,1013.3,0.3,94,15,500,3.704,,,330,14.6,18.2,,,,,,,,,wg-a,,,,AAXX 17064 07747 02400 83302 10160 20150 30077 40133 53003 60006 888// 90600 333 10182 20146 60004=
07747,1997-05-17 09:00:00,17,1013.9,0.7,88,15,500,22.224,,,130,,,,,,,,,,60,wg-a,,,,AAXX 17094 07747 02200 81312 10170 20150 30084 40139 51007 61000 76062 8687/ 90900 333 ////=
07747,1997-05-17 12:00:00,20,1012.7,-1.2,83,17,9000,25.928,,,140,,,,,,,,,,1,wg-a,,,,AAXX 17124 07747 02559 /1414 10200 20170 30072 40127 58012 61000 70162 84872 91200 333 6100=
07747,1997-05-17 15:00:00,23,1010.8,-1.8,57,14,10000,35.188,,,160,,,,,,,,,,,wg-a,,,,AAXX 17154 07747 12560 41619 10230 20140 30054 40108 56018 60006 83230 91500=
07747,1997-05-17 18:00:00,19,1012.2,1.3,68,13,15000,11.112,,,30,16.3,24.2,,,,,,,,25,wg-a,,,,AAXX 17184 07747 02565 20306 10190 20130 30067 40122 50013 61000 72586 82330 91800 333 10242 20163 6100=
07747,1997-05-18 00:00:00,15,1015.8,0.9,77,11,12000,7.408,,,190,,,,,,,,,,,wg-a,,,,AAXX 18004 07747 12562 31904 10150 20110 30102 40158 51009 60006 82830 90000=
07747,1997-05-18 03:00:00,12,1015.7,-0.2,88,10,15000,7.408,,,250,,,,,,,,,,,wg-a,,,,AAXX 18034 07747 12/65 62504 10120 20100 30100 40157 58002 60006 85033 90300=
07747,1997-05-18 06:00:00,15,1015.6,-0,77,11,45000,3.704,,,230,11.3,18.7,,,,,,,,,wg-a,,,,AAXX 18064 07747 02783 /2302 10150 20110 30100 40156 55000 60006 81500 90600 333 10187 20113 61000=
07747,1997-05-18 09:00:00,20,1015.3,-0.2,53,10,40000,18.52,,,100,,,,,,,,,,,wg-a,,,,AAXX 18094 07747 12782 21010 10200 20100 30098 40153 58002 60006 82100 90900=
07747,1997-05-18 12:00:00,20,1014,-1.3,68,14,40000,25.928,,,100,,,,,,,,,,,wg-a,,,,AAXX 18124 07747 12682 21014 10200 20140 30085 40140 58013 60006 82100 91200=
07747,1997-05-18 18:00:00,20,1010.4,-0.8,68,14,500,22.224,,,30,14.7,22.8,,,,,,,,,wg-a,,,,AAXX 18184 07747 12500 /0312 10200 20140 30049 40104 56008 60006 81142 91800 333 10228 20147=
07747,1997-05-18 21:00:00,16,1011.3,0.8,88,14,500,3.704,,,120,,,,,,,,,,,wg-a,,,,AAXX 18214 07747 12/00 21202 10160 20140 30057 40113 51008 60006 80002 92100=
07747,1997-05-19 00:00:00,13,1011.2,-0.1,94,12,0,7.408,,,230,,,,,,,,,,,wg-a,,,,AAXX 19004 07747 12/// /2304 10130 20120 30056 40112 58001 60006 90000=
07747,1997-05-19 03:00:00,13,1010.4,-0.8,94,12,500,0,,,0,,,,,,,,,,,wg-a,,,,AAXX 19034 07747 12/00 50000 10130 20120 30048 40104 56008 60006 80002 90300=
07747,1997-05-19 06:00:00,13,1010.3,-0.1,94,12,15000,0,,,0,12.3,20.2,,,,,,,,,wg-a,,,,AAXX 19064 07747 02/65 /0000 10130 20120 30047 40103 55001 60006 85052 90600 333 10202 20123 60004=
07747,1997-05-19 12:00:00,23,1009.6,-1.1,50,12,40000,22.224,,,70,,,,,,,,,,,wg-a,,,,AAXX 19124 07747 12682 50712 10230 20120 30042 40096 58011 60006 81152 91200=
07747,1997-05-19 15:00:00,26,1007.2,-2.3,51,15,500,18.52,,,60,,,,,,,,,,,wg-a,,,,AAXX 19154 07747 12600 50610 10260 20150 30019 40072 58023 60006 81142 91500=
07747,1997-05-19 18:00:00,22,1006.9,-0.4,65,15,20000,25.928,,,40,13.2,27,,,,,,,,,wg-a,,,,AAXX 19184 07747 12470 30414 10220 20150 30015 40069 55004 60006 81142 91800 333 10270 20132=
07747,1997-05-19 21:00:00,18,1009.2,2.2,83,15,20000,7.408,,,350,,,,,,,,,,,wg-a,,,,AAXX 19214 07747 12470 43504 10180 20150 30037 40092 51022 60006 81101 92100=
07747,1997-05-20 00:00:00,17,1010.4,1.2,82,14,20000,0,,,0,,,,,,,,,,,wg-a,,,,AAXX 20004 07747 12470 70000 10170 20140 30049 40104 51012 60006 81131 90000=
07747,1997-05-20 03:00:00,15,1009.9,-0.6,94,14,20000,3.704,,,290,,,,,,,,,,,wg-a,,,,AAXX 20034 07747 12470 72902 10150 20140 30043 40099 56006 60006 81132 90300=
07747,1997-05-20 06:00:00,18,1011,1.2,83,15,15000,11.112,,,340,15.3,21.7,,,,,,,,,wg-a,,,,AAXX 20064 07747 02565 73406 10180 20150 30055 40110 52012 60006 85242 90600 333 10217 20153 60004=
07747,1997-05-20 09:00:00,21,1012,1,60,13,20000,7.408,,,40,,,,,,,,,,,wg-a,,,,AAXX 20094 07747 12570 70404 10210 20130 30065 40120 51010 60006 83802 90900=
07747,1997-05-20 12:00:00,22,1011.3,-0.6,43,9,500,14.816,,,340,,,,,,,,,,,wg-a,,,,AAXX 20124 07747 12600 73408 10220 20090 30059 40113 56006 60006 872// 91200=
07747,1997-05-20 15:00:00,20,1012.1,0.7,68,14,500,18.52,,,200,,,,,,,,,,25,wg-a,,,,AAXX 20154 07747 02600 72010 10200 20140 30066 40121 52007 61000 72586 878// 91500 333 ////=
07747,1997-05-20 18:00:00,22,1012.6,0.5,46,10,500,7.408,,,330,17.6,23.8,,,,,,,,3,wg-a,,,,AAXX 20184 07747 12500 63304 10220 20100 30071 40126 53005 60006 70386 86900 91800 333 10238 20176=
07747,1997-05-20 21:00:00,19,1014.2,1.6,60,11,20000,3.704,,,290,,,,,,,,,,,wg-a,,,,AAXX 20214 07747 12670 72902 10190 20110 30087 40142 53016 60006 83132 92100=
07747,1997-05-21 00:00:00,17,1014.4,0.1,72,12,25000,3.704,,,290,,,,,,,,,,,wg-a,,,,AAXX 21004 07747 12675 82902 10170 20120 30088 40144 50001 60006 82132 90000=
07747,1997-05-21 03:00:00,18,1014.2,-0.2,56,9,25000,14.816,,,320,,,,,,,,,,,wg-a,,,,AAXX 21034 07747 12675 73208 10180 20090 30086 40142 57002 60006 81132 90300=
07747,1997-05-21 06:00:00,17,1015,0.8,52,7,45000,11.112,,,330,16.3,22.2,,,,,,,,,wg-a,,,,AAXX 21064 07747 02683 23306 10170 20070 30094 40150 51008 60006 81132 90600 333 10222 20163 61000=
07747,1997-05-21 09:00:00,19,1015.6,0.7,49,8,45000,22.224,,,340,,,,,,,,,,,wg-a,,,,AAXX 21094 07747 12683 73412 10190 20080 30101 40156 51007 60006 86830 90900=
07747,1997-05-21 12:00:00,22,1014.8,-0.8,43,9,18000,22.224,,,350,,,,,,,,,,,wg-a,,,,AAXX 21124 07747 12668 63512 10220 20090 30093 40148 58008 60006 86800 91200=
07747,1997-05-21 15:00:00,22,1014.7,-0.1,41,8,10000,22.224,,,300,,,,,,,,,,15,wg-a,,,,AAXX 21154 07747 12660 73012 10220 20080 30092 40147 56001 60006 71522 86903 91500=
07747,1997-05-21 18:00:00,21,1015.1,0.4,46,9,20000,18.52,,,310,17,22.7,,,,,,,,,wg-a,,,,AAXX 21184 07747 12670 73110 10210 20090 30096 40151 53004 60006 87800 91800 333 10227 20170=
07747,1997-05-21 21:00:00,17,1017.3,2.1,59,9,15000,14.816,,,320,,,,,,,,,,,wg-a,,,,AAXX 21214 07747 12665 33208 10170 20090 40173 53021 60006 83828 92100=
07747,1997-05-22 00:00:00,15,1017.2,-0.1,67,9,15000,11.112,,,280,,,,,,,,,,,wg-a,,,,AAXX 22004 07747 12665 22806 10150 20090 30116 40172 58001 60006 82800 90000=
07747,1997-05-22 03:00:00,15,1016.7,-0.5,67,9,15000,3.704,,,110,,,,,,,,,,,wg-a,,,,AAXX 22034 07747 12665 /1102 10150 20090 30111 40167 55005 60006 81804 90300=
07747,1997-05-22 06:00:00,16,1017.3,0.6,63,9,500,7.408,,,330,14.6,20.5,,,,,,,,,wg-a,,,,AAXX 22064 07747 02500 /3304 10160 20090 30117 40173 53006 60006 81101 90600 333 10205 20146 60004=
07747,1997-05-22 09:00:00,19,1017,-0.2,49,8,500,22.224,,,320,,,,,,,,,,,wg-a,,,,AAXX 22094 07747 12500 43212 10190 20080 30115 40170 58002 60006 82141 90900=
07747,1997-05-22 12:00:00,22,1016.3,-0.7,41,8,25000,7.408,,,350,,,,,,,,,,,wg-a,,,,AAXX 22124 07747 12575 63504 10220 20080 30108 40163 58007 60006 84841 91200=
07747,1997-05-22 18:00:00,21,1014.4,-0.7,53,11,25000,14.816,,,230,16.5,23.6,,,,,,,,,wg-a,,,,AAXX 22184 07747 12575 72308 10210 20110 30089 40144 56007 60006 878// 91800 333 10236 20165=
07747,1997-05-22 21:00:00,16,1015.5,1,72,11,15000,7.408,,,280,,,,,,,,,,,wg-a,,,,AAXX 22214 07747 12565 72804 10160 20110 30099 40155 51010 60006 85802 92100=
07747,1997-05-23 00:00:00,14,1015.1,-0.4,77,10,15000,7.408,,,280,,,,,,,,,,,wg-a,,,,AAXX 23004 07747 12565 62804 10140 20100 30095 40151 58004 60006 84802 90000=
07747,1997-05-23 03:00:00,13,1014.2,-0.9,82,10,15000,0,,,0,,,,,,,,,,,wg-a,,,,AAXX 23034 07747 12565 30000 10130 20100 30086 40142 58009 60006 83800 90300=
07747,1997-05-23 06:00:00,16,1014.4,0.2,68,10,25000,7.408,,,10,11.2,20.6,,,,,,,,,wg-a,,,,AAXX 23064 07747 02/75 50104 10160 20100 30088 40144 53002 60006 80002 90600 333 10206 20112 60004=
07747,1997-05-23 09:00:00,20,1014.3,-0,60,12,25000,14.816,,,70,,,,,,,,,,,wg-a,,,,AAXX 23094 07747 12/75 70708 10200 20120 30088 40143 54000 60006 82032 90900=
07747,1997-05-23 12:00:00,22,1013.8,-0.5,60,14,25000,22.224,,,90,,,,,,,,,,,wg-a,,,,AAXX 23124 07747 12675 70912 10220 20140 30083 40138 57005 60006 81232 91200=
07747,1997-05-23 15:00:00,20,1013.2,-0.6,78,16,15000,18.52,,,90,,,,,,,,,,,wg-a,,,,AAXX 23154 07747 12465 70910 10200 20160 30077 40132 57006 60006 872// 91500=
07747,1997-05-23 18:00:00,18,1013.2,-0,88,16,9000,11.112,,,70,16.3,22.3,,,,,,,,,wg-a,,,,AAXX 23184 07747 12359 80706 10180 20160 30077 40132 55000 60006 886// 91800 333 10223 20163=
07747,1997-05-24 00:00:00,17,1013.6,-0.1,94,16,6000,7.408,,,30,,,,,,,,,,,wg-a,,,,AAXX 24004 07747 12256 70304 10170 20160 30080 40136 57001 60006 876// 90000=
07747,1997-05-24 03:00:00,16,1013,-0.6,94,15,9000,3.704,,,340,,,,,,,,,,,wg-a,,,,AAXX 24034 07747 12259 73402 10160 20150 30074 40130 57006 60006 8463/ 90300=
07747,1997-05-24 06:00:00,17,1014,1,88,15,9000,7.408,,,350,15.7,18.2,,,,,,,,,wg-a,,,,AAXX 24064 07747 02359 73504 10170 20150 30084 40140 53010 60006 85542 90600 333 10182 20157 60004=
07747,1997-05-24 09:00:00,22,1014.7,0.8,60,14,15000,11.112,,,40,,,,,,,,,,,wg-a,,,,AAXX 24094 07747 12365 70406 10220 20140 30092 40147 51008 60006 83542 90900=
07747,1997-05-24 12:00:00,22,1014.4,-0.3,69,16,15000,25.928,,,130,,,,,,,,,,,wg-a,,,,AAXX 24124 07747 12465 71314 10220 20160 30089 40144 58003 60006 84542 91200=
07747,1997-05-24 15:00:00,21,1014.6,0.2,69,15,20000,25.928,,,120,,,,,,,,,,,wg-a,,,,AAXX 24154 07747 12470 71214 10210 20150 30091 40146 53002 60006 84542 91500=
07747,1997-05-24 18:00:00,18,1015.6,1,83,15,20000,18.52,,,60,17.1,24.4,,,,,,,,,wg-a,,,,AAXX 24184 07747 12470 80610 10180 20150 30101 40156 53010 60006 83582 91800 333 10244 20171=
07747,1997-05-24 21:00:00,18,1017.1,1.4,88,16,10000,14.816,,,50,,,,,,,,,,,wg-a,,,,AAXX 24214 07747 12360 80508 10180 20160 30115 40171 53014 60006 886// 92100=
07747,1997-05-25 00:00:00,17,1017,-0.1,94,16,10000,7.408,,,80,,,,,,,,,,,wg-a,,,,AAXX 25004 07747 12260 80804 10170 20160 30114 40170 56001 60006 886// 90000=
07747,1997-05-25 03:00:00,17,1017,-0,94,16,7000,11.112,,,90,,,,,,,,,,,wg-a,,,,AAXX 25034 07747 12157 80906 10170 20160 30114 40170 55000 60006 886// 90300=
07747,1997-05-25 06:00:00,17,1017.7,0.7,94,16,7000,7.408,,,100,16.5,18.5,,,,,,,,,wg-a,,,,AAXX 25064 07747 02257 /1004 10170 20160 30121 40177 53007 60006 86602 90600 333 10185 20165 60004=
07747,1997-05-25 09:00:00,18,1018.4,0.7,83,15,15000,14.816,,,90,,,,,,,,,,,wg-a,,,,AAXX 25094 07747 12565 80908 10180 20150 30128 40184 51007 60006 8387/ 90900=
07747,1997-05-25 12:00:00,20,1019.2,0.9,68,14,25000,11.112,,,80,,,,,,,,,,,wg-a,,,,AAXX 25124 07747 12575 80806 10200 20140 30137 40192 53009 60006 81837 91200=
07747,1997-05-25 15:00:00,21,1018.4,-0.8,64,14,500,18.52,,,120,,,,,,,,,,,wg-a,,,,AAXX 25154 07747 12500 71210 10210 20140 30129 40184 56008 60006 81832 91500=
07747,1997-05-25 18:00:00,19,1018.4,-0,78,15,500,14.816,,,90,17.1,22.6,,,,,,,,,wg-a,,,,AAXX 25184 07747 12700 70908 10190 20150 30129 40184 55000 60006 81532 91800 333 10226 20171=
07747,1997-05-25 21:00:00,17,1019.6,1.1,82,14,20000,7.408,,,120,,,,,,,,,,,wg-a,,,,AAXX 25214 07747 12770 61204 10170 20140 30140 40196 53011 60006 84542 92100=
07747,1997-05-26 00:00:00,16,1019.4,-0.2,88,14,20000,7.408,,,350,,,,,,,,,,,wg-a,,,,AAXX 26004 07747 12770 43504 10160 20140 30138 40194 58002 60006 82542 90000=
07747,1997-05-26 06:00:00,17,1019.1,1,82,14,15000,7.408,,,10,12.8,18.8,,,,,,,,,wg-a,,,,AAXX 26064 07747 02465 /0104 10170 20140 30135 40191 53010 60006 81600 90600 333 10188 20128 60004=
07747,1997-05-26 09:00:00,23,1018.7,-0.3,53,13,12000,11.112,,,100,,,,,,,,,,,wg-a,,,,AAXX 26094 07747 12562 /1006 10230 20130 30132 40187 58003 60006 81100 90900=
07747,1997-05-26 12:00:00,24,1019.1,0.4,54,14,12000,22.224,,,100,,,,,,,,,,,wg-a,,,,AAXX 26124 07747 12762 /1012 10240 20140 30136 40191 52004 60006 81200 91200=
07747,1997-05-26 15:00:00,24,1017.6,-1.4,50,13,10000,14.816,,,130,,,,,,,,,,,wg-a,,,,AAXX 26154 07747 12/60 11308 10240 20130 30122 40176 58014 60006 81030 91500=
07747,1997-05-26 18:00:00,22,1017.1,-0.6,53,12,25000,11.112,,,80,16.7,24.9,,,,,,,,,wg-a,,,,AAXX 26184 07747 12/75 10806 10220 20120 30116 40171 55006 60006 81040 91800 333 10249 20167=
07747,1997-05-26 21:00:00,18,1017.2,0.1,88,16,25000,0,,,0,,,,,,,,,,,wg-a,,,,AAXX 26214 07747 12/75 00000 10180 20160 30117 40172 51001 60006 80000 92100=
07747,1997-05-27 00:00:00,17,1016.4,-0.9,72,12,15000,3.704,,,350,,,,,,,,,,,wg-a,,,,AAXX 27004 07747 12/65 03502 10170 20120 30108 40164 58009 60006 80000 90000=
07747,1997-05-27 06:00:00,18,1015.9,0.2,83,15,9000,11.112,,,330,15.3,22.1,,,,,,,,,wg-a,,,,AAXX 27064 07747 02259 23306 10180 20150 30104 40159 53002 60006 82600 90600 333 10221 20153 60004=
07747,1997-05-27 08:00:00,18,1015.9,0.2,83,15,9000,11.112,,,330,15.3,22.1,,,,,,,,,wg-a,,,,AAXX 27084 07747 02259 23306 10180 20150 30104 40159 53002 60006 82600 90800 333 10221 20153 60004=
07747,1997-05-27 09:00:00,23,1016.2,0.3,57,14,15000,18.52,,,70,,,,,,,,,,,wg-a,,,,AAXX 27094 07747 12/65 00710 10230 20140 30107 40162 50003 60006 80000 90900=
07747,1997-05-27 12:00:00,26,1015.3,-0.8,39,11,20000,11.112,,,80,,,,,,,,,,,wg-a,,,,AAXX 27124 07747 12/70 00806 10260 20110 30099 40153 58008 60006 80000 91200=
07747,1997-05-27 18:00:00,27,1012.7,-1.1,37,11,25000,7.408,,,120,17.9,27.5,,,,,,,,,wg-a,,,,AAXX 27184 07747 12/75 01204 10270 20110 30073 40127 56011 60006 80000 91800 333 10275 20179=
07747,1997-05-28 00:00:00,19,1013.3,0,68,13,10000,7.408,,,270,,,,,,,,,,,wg-a,,,,AAXX 28004 07747 12/60 12704 10190 20130 30078 40133 50000 60006 81030 90000=
07747,1997-05-28 03:00:00,18,1013.6,0.3,88,16,9000,7.408,,,200,,,,,,,,,,,wg-a,,,,AAXX 28034 07747 12/59 32004 10180 20160 30081 40136 50003 60006 83050 90300=
07747,1997-05-28 06:00:00,21,1013.5,-0.1,69,15,12000,3.704,,,270,17.3,26.5,,,,,,,,,wg-a,,,,AAXX 28064 07747 02/62 12702 10210 20150 30080 40135 58001 60006 81031 90600 333 10265 20173 60004=
07747,1997-05-28 09:00:00,29,1012.6,-0.7,43,15,12000,3.704,,,190,,,,,,,,,,,wg-a,,,,AAXX 28094 07747 12/62 01902 10290 20150 30073 40126 58007 60006 80000 90900=
07747,1997-05-28 12:00:00,28,1012.1,-0.5,45,15,15000,18.52,,,100,,,,,,,,,,,wg-a,,,,AAXX 28124 07747 12665 31010 10280 20150 30068 40121 56005 60006 83900 91200=
07747,1997-05-28 18:00:00,28,1011.5,-0.1,51,17,20000,3.704,,,270,21.2,30.2,,,,,,,,,wg-a,,,,AAXX 28184 07747 12670 72702 10280 20170 30062 40115 55001 60006 83303 91800 333 10302 20212=
07747,1997-05-28 21:00:00,25,1013.1,1.5,50,14,20000,11.112,,,270,,,,,,,,,,,wg-a,,,,AAXX 28214 07747 12/70 42706 10250 20140 30077 40131 53015 60006 80002 92100=
07747,1997-05-29 00:00:00,21,1016.5,3.3,60,13,500,14.816,,,100,,,,,,,,,,,wg-a,,,,AAXX 29004 07747 12700 41008 10210 20130 30110 40165 53033 60006 815/1 90000=
07747,1997-05-29 03:00:00,18,1018.1,1.5,56,9,500,3.704,,,350,,,,,,,,,,,wg-a,,,,AAXX 29034 07747 12700 43502 10180 20090 30125 40181 51015 60006 81501 90300=
07747,1997-05-29 06:00:00,19,1019.3,1.2,56,10,20000,11.112,,,10,16.7,27.7,,,,,,,,,wg-a,,,,AAXX 29064 07747 02470 40106 10190 20100 30137 40193 51012 60006 82501 90600 333 10277 20167 60004=
07747,1997-05-29 09:00:00,22,1020.5,1.3,57,13,15000,11.112,,,60,,,,,,,,,,,wg-a,,,,AAXX 29094 07747 12565 70606 10220 20130 30150 40205 51013 60006 85501 90900=
07747,1997-05-29 12:00:00,23,1021.3,0.8,61,15,15000,22.224,,,110,,,,,,,,,,,wg-a,,,,AAXX 29124 07747 12565 61112 10230 20150 30158 40213 51008 60006 84501 91200=
07747,1997-05-29 15:00:00,23,1020.5,-0.8,53,13,15000,29.632,,,120,,,,,,,,,,,wg-a,,,,AAXX 29154 07747 12665 61216 10230 20130 30150 40205 56008 60006 84241 91500=
07747,1997-05-29 18:00:00,21,1020.5,-0,40,7,15000,18.52,,,130,18.7,23.6,,,,,,,,,wg-a,,,,AAXX 29184 07747 12665 /1310 10210 20070 30150 40205 55000 60006 82241 91800 333 10236 20187=
07747,1997-05-30 00:00:00,16,1021,-0.5,68,10,20000,7.408,,,350,,,,,,,,,,,wg-a,,,,AAXX 30004 07747 12/70 03504 10160 20100 30154 40210 58005 60006 80000 90000=
07747,1997-05-30 03:00:00,15,1020.4,-0.6,77,11,15000,7.408,,,340,,,,,,,,,,,wg-a,,,,AAXX 30034 07747 12/65 03404 10150 20110 30148 40204 56006 60006 80000 90300=
07747,1997-05-30 06:00:00,17,1020.4,0,72,12,20000,3.704,,,10,12.1,20.7,,,,,,,,,wg-a,,,,AAXX 30064 07747 02470 /0102 10170 20120 30148 40204 50000 60006 82102 90600 333 10207 20121 60004=
07747,1997-05-30 09:00:00,21,1019.7,-0.6,64,14,25000,11.112,,,90,,,,,,,,,,,wg-a,,,,AAXX 30094 07747 12475 70906 10210 20140 30142 40197 58006 60006 82102 90900=
07747,1997-05-30 12:00:00,23,1017.9,-1.8,53,13,25000,14.816,,,100,,,,,,,,,,,wg-a,,,,AAXX 30124 07747 12575 71008 10230 20130 30124 40179 58018 60006 82102 91200=
07747,1997-05-30 15:00:00,23,1016.3,-1.6,50,12,25000,14.816,,,110,,,,,,,,,,,wg-a,,,,AAXX 30154 07747 12675 41108 10230 20120 30108 40163 56016 60006 81982 91500=
07747,1997-05-30 18:00:00,22,1014.6,-1.7,50,11,25000,7.408,,,70,16.8,23.7,,,,,,,,,wg-a,,,,AAXX 30184 07747 12675 40704 10220 20110 30091 40146 56017 60006 82443 91800 333 10237 20168=
07747,1997-05-30 21:00:00,19,1014.2,-0.4,60,11,25000,11.112,,,240,,,,,,,,,,,wg-a,,,,AAXX 30214 07747 12/75 32406 10190 20110 30087 40142 56004 60006 80001 92100=
07747,1997-05-31 00:00:00,16,1013.7,-0.6,72,11,25000,7.408,,,290,,,,,,,,,,,wg-a,,,,AAXX 31004 07747 12/75 32904 10160 20110 30081 40137 58006 60006 80001 90000=
07747,1997-05-31 03:00:00,15,1012.8,-0.9,82,12,20000,3.704,,,280,,,,,,,,,,,wg-a,,,,AAXX 31034 07747 12770 /2802 10150 20120 30072 40128 56009 60006 82542 90300=
07747,1997-05-31 06:00:00,18,1012.7,-0.6,83,15,18000,14.816,,,20,14.6,,,,,,,,,,wg-a,,,,AAXX 31064 07747 02568 20208 10180 20150 30066 40127 57006 60006 81132 90600 333 20146 60004=
07747,1997-05-31 09:00:00,25,1010.9,-1.1,47,13,16000,11.112,,,90,,,,,,,,,,,wg-a,,,,AAXX 31094 07747 12566 40906 10250 20130 30055 40109 58011 60006 81184 90900=
07747,1997-05-31 12:00:00,24,1010.4,-0.5,61,16,15000,29.632,,,130,,,,,,,,,,,wg-a,,,,AAXX 31124 07747 12565 81316 10240 20160 30050 40104 55005 60006 81182 91200=
07747,1997-05-31 15:00:00,21,1009.5,-0.9,83,18,12000,31.484,,,140,,,,,,,,,,,wg-a,,,,AAXX 31154 07747 12562 81417 10210 20180 30041 40095 56009 60006 8282/ 91500=
07747,1997-05-31 18:00:00,20,1009.1,-0.5,83,17,12000,18.52,,,140,18.4,26.3,,,,,,,,61,wg-a,,,,AAXX 31184 07747 02562 81410 10200 20170 30036 40091 55005 61000 76162 8487/ 91800 333 10263 20184 6100=
07747,1997-05-31 21:00:00,19,1009.2,0.1,88,17,25000,11.112,,,40,,,,,,,,,,3,wg-a,,,,AAXX 31214 07747 02575 80406 10190 20170 30037 40092 53001 61000 70386 8587/ 92100 333 ////=
07747,1997-06-01 00:00:00,18,1007.9,-1.3,94,17,25000,11.112,,,140,,,,,,,,,,3,wg-a,,,,AAXX 01004 07747 02575 71406 10180 20170 30024 40079 57013 61000 70386 84870 90000 333 ////=
07747,1997-06-01 03:00:00,17,1005.8,-2.1,94,16,8000,18.52,,,130,,,,3,,,,,,80,wg-a,,,,AAXX 01034 07747 12158 81310 10170 20160 30003 40058 58021 60037 78086 889// 90300=
07747,1997-06-01 06:00:00,16,1004.5,-1.3,94,15,12000,0,,,0,15.8,20.1,,,,,3,,,1,wg-a,,,,AAXX 01064 07747 02662 70000 10160 20150 39990 40045 55013 60006 70186 84582 90600 333 10201 20158 60034=
07747,1997-06-01 09:00:00,18,1003.8,-0.7,88,16,9000,22.224,,,120,,,,,,,,,,,wg-a,,,,AAXX 01094 07747 12359 71212 10180 20160 39983 40038 56007 60006 875// 90900=
07747,1997-06-01 12:00:00,20,1001.8,-1.9,73,15,10000,25.928,,,140,,,,0,,,,,,2,wg-a,,,,AAXX 01124 07747 02460 71414 10200 20150 39964 40018 56019 60006 70286 879// 91200 333 60007=
07747,1997-06-01 15:00:00,19,1002.3,0.4,83,16,10000,0,,,0,,,,13,,,,,,1,wg-a,,,,AAXX 01154 07747 12460 7//// 10190 20160 39968 40023 50004 60137 70198 879// 91500=
07747,1997-06-01 18:00:00,18,1003.7,1.4,88,16,15000,0,,,0,15.6,20.8,,0,,,,,,15,wg-a,,,,AAXX 01184 07747 02465 8//// 10180 20160 39982 40037 53014 60006 71598 8687/ 91800 333 10208 20156 60007=
07747,1997-06-01 21:00:00,17,1005.6,1.9,77,13,15000,0,,,0,,,,0,,,,,,1,wg-a,,,,AAXX 01214 07747 12565 7//// 10170 20130 30001 40056 53019 60007 70186 8187/ 92100=
07747,1997-06-02 00:00:00,18,1006.5,0.9,68,12,0,0,,,0,,,,,,,,,,,wg-a,,,,AAXX 02004 07747 12/// ///// 10180 20120 30010 40065 51009 60006 90000=
07747,1997-06-02 03:00:00,17,1007.2,0.7,68,11,15000,0,,,0,,,,,,,,,,,wg-a,,,,AAXX 02034 07747 12565 6//// 10170 20110 30017 40072 52007 60006 81130 90300=
07747,1997-06-02 06:00:00,17,1009.3,2.1,72,12,15000,0,,,0,16.5,18.5,,,,,13,,,,wg-a,,,,AAXX 02064 07747 02565 7//// 10170 20120 30038 40093 53021 60006 878// 90600 333 10185 20165 60134=
07747,1997-06-02 09:00:00,19,1011.1,1.8,64,12,15000,0,,,0,,,,,,,,,,,wg-a,,,,AAXX 02094 07747 12565 7//// 10190 20120 30056 40111 51018 60006 878// 90900=
07747,1997-06-02 12:00:00,20,1012.6,1.5,64,13,15000,0,,,0,,,,,,,,,,,wg-a,,,,AAXX 02124 07747 12565 7//// 10200 20130 30071 40126 51015 60006 878// 91200=
07747,1997-06-02 18:00:00,19,1013.7,0.2,73,14,20000,0,,,0,16.9,21.3,,,,,,,,,wg-a,,,,AAXX 02184 07747 12570 7//// 10190 20140 30082 40137 52002 60006 878// 91800 333 10213 20169=
07747,1997-06-02 21:00:00,18,1014.9,1.2,83,15,15000,0,,,0,,,,,,,,,,,wg-a,,,,AAXX 02214 07747 12565 7//// 10180 20150 30094 40149 53012 60006 878// 92100=
07747,1997-06-03 00:00:00,17,1014.8,-0.2,88,15,15000,0,,,0,,,,,,,,,,,wg-a,,,,AAXX 03004 07747 12565 7//// 10170 20150 30092 40148 58002 60006 878// 90000=
07747,1997-06-03 03:00:00,18,1014.3,-0.4,88,16,15000,0,,,0,,,,,,,,,,,wg-a,,,,AAXX 03034 07747 12565 70000 10180 20160 30088 40143 56004 60006 878// 90300=
07747,1997-06-03 06:00:00,18,1014.9,0.6,88,16,10000,0,,,0,16.4,18.9,,,,,,,,,wg-a,,,,AAXX 03064 07747 02560 6//// 10180 20160 30094 40149 53006 60006 86800 90600 333 10189 20164 60004=
07747,1997-06-03 09:00:00,22,1015.9,1,60,14,15000,7.408,,,10,,,,,,,,,,,wg-a,,,,AAXX 03094 07747 12465 50104 10220 20140 30104 40159 51010 60006 84830 90900=
07747,1997-06-03 12:00:00,23,1016.3,0.4,65,16,20000,14.816,,,10,,,,,,,,,,,wg-a,,,,AAXX 03124 07747 12570 /0108 10230 20160 30108 40163 50004 60006 86800 91200=
07747,1997-06-03 15:00:00,24,1015.7,-0.5,61,16,25000,0,,,0,,,,,,,,,,,wg-a,,,,AAXX 03154 07747 12575 4//// 10240 20160 30103 40157 56005 60006 83842 91500=
07747,1997-06-03 18:00:00,22,1015.2,-0.6,69,16,25000,0,,,0,17.8,24.1,,,,,,,,,wg-a,,,,AAXX 03184 07747 12575 7//// 10220 20160 30097 40152 55006 60006 85802 91800 333 10241 20178=
07747,1997-06-03 21:00:00,20,1015.8,0.6,78,16,15000,0,,,0,,,,,,,,,,,wg-a,,,,AAXX 03214 07747 12565 8//// 10200 20160 30103 40158 53006 60006 878// 92100=
07747,1997-06-04 00:00:00,17,1015.3,-0.6,94,16,15000,0,,,0,,,,,,,,,,,wg-a,,,,AAXX 04004 07747 12/65 0//// 10170 20160 30097 40153 58006 60006 80000 90000=
07747,1997-06-04 03:00:00,16,1014.1,-1.2,94,15,15000,0,,,0,,,,,,,,,,,wg-a,,,,AAXX 04034 07747 12565 1//// 10160 20150 30085 40141 56012 60006 81100 90300=
07747,1997-06-04 06:00:00,18,1014.2,0.2,88,16,9000,0,,,0,15.1,21.9,,,,,,,,,wg-a,,,,AAXX 04064 07747 02259 7//// 10180 20160 30087 40142 53002 60006 84604 90600 333 10219 20151 60004=
07747,1997-06-04 09:00:00,21,1013.1,-1.1,69,15,12000,16.668,,,130,,,,,,,,,,,wg-a,,,,AAXX 04094 07747 12462 81309 10210 20150 30076 40131 57011 60006 84677 90900=
07747,1997-06-04 12:00:00,20,1012.7,-0.4,88,18,9000,0,,,0,,,,,,,,,,21,wg-a,,,,AAXX 04124 07747 02459 8//// 10200 20180 30072 40127 58004 61000 72162 8587/ 91200 333 6100=
07747,1997-06-04 15:00:00,20,1011.9,-0.8,88,18,9000,0,,,0,,,,,,,,,,3,wg-a,,,,AAXX 04154 07747 02359 8//// 10200 20180 30064 40119 58008 61000 70362 868// 91500 333 ////=
07747,1997-06-04 18:00:00,19,1011.2,-0.7,94,18,8000,0,,,0,17.8,21.9,,,,,,,,61,wg-a,,,,AAXX 04184 07747 02258 8//// 10190 20180 30057 40112 55007 61000 76162 878// 91800 333 10219 20178 6100=
07747,1997-06-04 21:00:00,18,1010.6,-0.6,94,17,15000,0,,,0,,,,,,,,,,21,wg-a,,,,AAXX 04214 07747 02265 8//// 10180 20170 30051 40106 55006 61000 72162 878// 92100 333 ////=
07747,1997-06-05 00:00:00,18,1008.1,-2.5,100,18,500,0,,,0,,,,7,,,,,,63,wg-a,,,,AAXX 05004 07747 02200 8//// 10180 20180 30026 40081 56025 60086 76362 878// 90000 333 60077=
07747,1997-06-05 03:00:00,18,1005.6,-2.5,94,17,500,0,,,0,,,,10,,,,,,61,wg-a,,,,AAXX 05034 07747 12200 8//// 10180 20170 30001 40056 58025 60107 76166 879// 90300=
07747,1997-06-05 06:00:00,18,1003.7,-1.9,94,17,6000,0,,,0,17.2,18.8,,,,,,,,91,wg-a,,,,AAXX 05064 07747 02256 8//// 10180 20170 39982 40037 56019 61000 79196 8587/ 90600 333 10188 20172 6027=
07747,1997-06-05 09:00:00,20,1003.6,-0,78,16,15000,0,,,0,,,,,,,,,,1,wg-a,,,,AAXX 05094 07747 02465 7//// 10200 20160 39982 40036 55000 61000 70162 8687/ 90900 333 ////=
07747,1997-06-05 12:00:00,21,1004.5,0.9,73,16,18000,0,,,0,,,,,,,,,,15,wg-a,,,,AAXX 05124 07747 02568 7//// 10210 20160 39991 40045 51009 61000 71562 8587/ 91200 333 ////=
07747,1997-06-05 18:00:00,20,1005.9,1.2,78,16,20000,0,,,0,17.2,23.7,,,,,,,,,wg-a,,,,AAXX 05184 07747 12470 4//// 10200 20160 30004 40059 51012 60006 84840 91800 333 10237 20172=
07747,1997-06-06 00:00:00,17,1009.1,1.6,94,16,20000,0,,,0,,,,,,,,,,,wg-a,,,,AAXX 06004 07747 12470 7//// 10170 20160 30036 40091 51016 60006 8463/ 90000=
07747,1997-06-06 06:00:00,17,1011,1.7,94,16,15000,0,,,0,16,19.6,,,,,,,,,wg-a,,,,AAXX 06064 07747 02465 7//// 10170 20160 30055 40110 53017 60006 875// 90600 333 10196 20160 61000=
07747,1997-06-06 09:00:00,20,1013,2,78,16,15000,3.704,,,30,,,,,,,,,,,wg-a,,,,AAXX 06094 07747 12465 70302 10200 20160 30075 40130 51020 60006 875// 90900=
07747,1997-06-06 12:00:00,23,1012.8,-0.1,69,17,20000,14.816,,,90,,,,,,,,,,,wg-a,,,,AAXX 06124 07747 12570 40908 10230 20170 30074 40128 57001 60006 83201 91200=
07747,1997-06-06 15:00:00,23,1012,-0.8,73,18,15000,18.52,,,110,,,,,,,,,,,wg-a,,,,AAXX 06154 07747 12465 31110 10230 20180 30066 40120 56008 60006 83600 91500=
07747,1997-06-06 18:00:00,20,1011.7,-0.4,83,17,9000,14.816,,,80,17.1,23.8,,,,,,,,,wg-a,,,,AAXX 06184 07747 12459 60808 10200 20170 30062 40117 57004 60006 84850 91800 333 10238 20171=
07747,1997-06-07 00:00:00,19,1011.7,-0.4,94,18,500,14.816,,,20,,,,,,,,,,,wg-a,,,,AAXX 07004 07747 12200 80208 10190 20180 30062 40117 56004 60006 886// 90000=
07747,1997-06-07 03:00:00,19,1011.3,-0.4,94,18,6000,11.112,,,20,,,,,,,,,,,wg-a,,,,AAXX 07034 07747 12356 80206 10190 20180 30058 40113 58004 60006 886// 90300=
07747,1997-06-07 06:00:00,19,1011.9,0.6,94,18,500,7.408,,,40,18.7,20.1,,,,,,,,,wg-a,,,,AAXX 07064 07747 02100 80404 10190 20180 30064 40119 53006 60006 876// 90600 333 10201 20187 60004=
07747,1997-06-07 09:00:00,21,1012.3,0.4,78,17,500,7.408,,,70,,,,,,,,,,,wg-a,,,,AAXX 07094 07747 12200 80704 10210 20170 30068 40123 52004 60006 876// 90900=
07747,1997-06-07 12:00:00,22,1012.1,-0.1,78,18,6000,14.816,,,80,,,,,,,,,,,wg-a,,,,AAXX 07124 07747 12256 80808 10220 20180 30067 40121 58001 60006 876// 91200=
07747,1997-06-07 15:00:00,23,1011.8,-0.3,78,19,6000,22.224,,,80,,,,,,,,,,,wg-a,,,,AAXX 07154 07747 12256 70812 10230 20190 30064 40118 57003 60006 879// 91500=
07747,1997-06-07 18:00:00,22,1012,0.2,78,18,10000,11.112,,,60,19.4,23.6,,,,,,,,,wg-a,,,,AAXX 07184 07747 12460 50606 10220 20180 30066 40120 53002 60006 8498/ 91800 333 10236 20194=
07747,1997-06-07 21:00:00,20,1012.8,0.7,88,18,10000,3.704,,,130,,,,,,,,,,,wg-a,,,,AAXX 07214 07747 12560 71302 10200 20180 30073 40128 53007 60006 82582 92100=
07747,1997-06-08 00:00:00,19,1014.8,2,88,17,10000,11.112,,,10,,,,,,,,,,,wg-a,,,,AAXX 08004 07747 12560 50106 10190 20170 30093 40148 53020 60006 85582 90000=
07747,1997-06-08 03:00:00,18,1015.5,0.7,94,17,10000,11.112,,,270,,,,,,,,,,,wg-a,,,,AAXX 08034 07747 12560 52706 10180 20170 30100 40155 51007 60006 85582 90300=
07747,1997-06-08 06:00:00,20,1016.4,0.9,88,18,40000,7.408,,,10,17.4,21.6,,,,,,,,,wg-a,,,,AAXX 08064 07747 02/82 10104 10200 20180 30109 40164 53009 60006 80001 90600 333 10216 20174 60004=
07747,1997-06-08 12:00:00,25,1017,0.2,61,17,11000,11.112,,,110,,,,,,,,,,,wg-a,,,,AAXX 08124 07747 12/61 /1106 10250 20170 30116 40170 50002 60006 91200=
07747,1997-06-08 18:00:00,28,1017.6,0.4,51,17,25000,3.704,,,290,19.8,27.7,,,,,,,,,wg-a,,,,AAXX 08184 07747 12575 52902 10280 20170 30122 40176 53004 60006 82381 91800 333 10277 20198=
07747,1997-06-09 00:00:00,23,1019.9,0,53,13,20000,11.112,,,310,,,,,,,,,,,wg-a,,,,AAXX 09004 07747 12/70 03106 10230 20130 30144 40199 50000 60006 80000 90000=
07747,1997-06-09 03:00:00,19,1020,0.1,78,15,20000,11.112,,,260,,,,,,,,,,,wg-a,,,,AAXX 09034 07747 12/70 32606 10190 20150 30145 40200 53001 60006 80002 90300=
07747,1997-06-09 06:00:00,21,1020.9,0.9,69,15,60000,7.408,,,250,17.5,27.6,,,,,,,,,wg-a,,,,AAXX 09064 07747 02/86 52504 10210 20150 30154 40209 53009 60006 81042 90600 333 10276 20175 60004=
07747,1997-06-09 09:00:00,26,1021.5,0.7,48,14,60000,18.52,,,90,,,,,,,,,,,wg-a,,,,AAXX 09094 07747 12786 40910 10260 20140 30161 40215 51007 60006 81101 90900=
07747,1997-06-09 12:00:00,26,1020.6,-0.9,58,17,50000,14.816,,,100,,,,,,,,,,,wg-a,,,,AAXX 09124 07747 12784 /1008 10260 20170 30152 40206 57009 60006 81102 91200=
07747,1997-06-09 15:00:00,24,1020,-0.7,69,18,500,11.112,,,120,,,,,,,,,,,wg-a,,,,AAXX 09154 07747 12700 71206 10240 20180 30145 40200 56007 60006 83542 91500=
07747,1997-06-09 18:00:00,20,1019.4,-0.6,88,18,6000,14.816,,,110,20.1,26.2,,,,,,,,,wg-a,,,,AAXX 09184 07747 12356 71108 10200 20180 30139 40194 55006 60006 82232 91800 333 10262 20201=
07747,1997-06-09 21:00:00,20,1018.9,-0.5,94,19,7000,11.112,,,60,,,,,,,,,,,wg-a,,,,AAXX 09214 07747 12257 70606 10200 20190 30134 40189 55005 60006 876// 92100=
07747,1997-06-10 00:00:00,20,1018,-0.9,94,19,7000,11.112,,,90,,,,,,,,,,,wg-a,,,,AAXX 10004 07747 12257 70906 10200 20190 30125 40180 58009 60006 876// 90000=
07747,1997-06-10 06:00:00,19,1016.8,-0.2,88,17,9000,14.816,,,100,19,20.3,,,,,,,,,wg-a,,,,AAXX 10064 07747 02359 71008 10190 20170 30113 40168 58002 60006 876// 90600 333 10203 20190 60004=
07747,1997-06-10 09:00:00,21,1016.1,-0.7,83,18,15000,18.52,,,100,,,,,,,,,,,wg-a,,,,AAXX 10094 07747 12465 71010 10210 20180 30106 40161 58007 60006 871// 90900=
07747,1997-06-10 12:00:00,23,1015.3,-0.7,78,19,20000,18.52,,,80,,,,,,,,,,,wg-a,,,,AAXX 10124 07747 12470 50810 10230 20190 30099 40153 58007 60006 84130 91200=
07747,1997-06-10 18:00:00,22,1012.7,-1.2,83,19,12000,14.816,,,90,19.2,24.6,,,,,,,,,wg-a,,,,AAXX 10184 07747 12462 70908 10220 20190 30073 40127 58012 60006 86182 91800 333 10246 20192=
07747,1997-06-10 21:00:00,20,1013.2,0.4,94,19,7000,7.408,,,70,,,,,,,,,,,wg-a,,,,AAXX 10214 07747 12357 70704 10200 20190 30077 40132 53004 60006 83682 92100=
07747,1997-06-11 00:00:00,20,1011.6,-1.6,94,19,6000,7.408,,,40,,,,,,,,,,,wg-a,,,,AAXX 11004 07747 12256 80404 10200 20190 30061 40116 58016 60006 876// 90000=
07747,1997-06-11 03:00:00,20,1011.3,-0.3,94,19,500,3.704,,,80,,,,,,,,,,,wg-a,,,,AAXX 11034 07747 12200 80802 10200 20190 30058 40113 58003 60006 886// 90300=
07747,1997-06-11 06:00:00,20,1010.9,-0.4,94,19,8000,3.704,,,30,19.2,21.8,,,,,,,,,wg-a,,,,AAXX 11064 07747 02458 /0302 10200 20190 30054 40109 56004 60006 84680 90600 333 10218 20192 60004=
07747,1997-06-11 09:00:00,24,1010.8,0,74,19,11000,7.408,,,60,,,,,,,,,,,wg-a,,,,AAXX 11094 07747 12/61 /0604 10240 20190 30054 40108 50000 60006 90900=
07747,1997-06-11 12:00:00,25,1011,0.2,69,19,15000,11.112,,,90,,,,,,,,,,,wg-a,,,,AAXX 11124 07747 12565 40906 10250 20190 30056 40110 50002 60006 83201 91200=
07747,1997-06-11 18:00:00,26,1009.9,-0.1,70,20,15000,7.408,,,120,20.2,27.2,,,,,,,,,wg-a,,,,AAXX 11184 07747 12765 71204 10260 20200 30045 40099 58001 60006 83541 91800 333 10272 20202=
07747,1997-06-11 21:00:00,23,1011.2,1.3,83,20,15000,0,,,0,,,,,,,,,,,wg-a,,,,AAXX 11214 07747 12765 /0000 10230 20200 30058 40112 53013 60006 82541 92100=
07747,1997-06-12 00:00:00,21,1011.6,0.4,88,19,15000,3.704,,,300,,,,,,,,,,,wg-a,,,,AAXX 12004 07747 12/65 43002 10210 20190 30062 40116 53004 60006 82041 90000=
07747,1997-06-12 03:00:00,19,1010.8,-0.9,94,18,9000,3.704,,,260,,,,,,,,,,,wg-a,,,,AAXX 12034 07747 12459 /2602 10190 20180 30053 40108 58009 60006 81741 90300=
07747,1997-06-12 06:00:00,20,1011.6,0.8,94,19,500,3.704,,,50,18.8,25.9,,,,,,,,,wg-a,,,,AAXX 12064 07747 02200 70502 10200 20190 30061 40116 51008 60006 84642 90600 333 10259 20188 60004=
07747,1997-06-12 09:00:00,24,1011.1,-0.4,78,20,12000,11.112,,,70,,,,,,,,,,,wg-a,,,,AAXX 12094 07747 12462 /0706 10240 20200 30057 40111 58004 60006 85602 90900=
07747,1997-06-12 12:00:00,25,1010.8,-0.3,74,20,12000,11.112,,,130,,,,,,,,,,,wg-a,,,,AAXX 12124 07747 12462 71306 10250 20200 30054 40108 58003 60006 83142 91200=
07747,1997-06-12 15:00:00,25,1009.6,-1.2,65,18,12000,14.816,,,140,,,,,,,,,,,wg-a,,,,AAXX 12154 07747 12562 61408 10250 20180 30042 40096 58012 60006 82232 91500=
07747,1997-06-12 18:00:00,24,1008.6,-1,78,20,10000,7.408,,,100,20.3,26.2,,,,,,,,,wg-a,,,,AAXX 12184 07747 12/60 61004 10240 20200 30032 40086 58010 60006 82032 91800 333 10262 20203=
07747,1997-06-12 21:00:00,23,1009,0.4,83,20,10000,0,,,0,,,,,,,,,,,wg-a,,,,AAXX 12214 07747 12/60 60000 10230 20200 30036 40090 52004 60006 82032 92100=
07747,1997-06-13 00:00:00,22,1009.2,0.2,88,20,10000,7.408,,,220,,,,,,,,,,,wg-a,,,,AAXX 13004 07747 12/60 72204 10220 20200 30038 40092 53002 60006 84032 90000=
07747,1997-06-13 06:00:00,22,1008,-0.2,73,17,8000,3.704,,,250,21.2,24.2,,,,,,,,,wg-a,,,,AAXX 13064 07747 02558 72502 10220 20170 30026 40080 55002 60006 8718/ 90600 333 10242 20212 60004=
07747,1997-06-13 09:00:00,23,1007.9,-0.1,83,20,9000,11.112,,,120,,,,,,,,,,,wg-a,,,,AAXX 13094 07747 12/59 71206 10230 20200 30025 40079 58001 60006 8708/ 90900=
07747,1997-06-13 12:00:00,24,1007.7,-0.2,74,19,15000,14.816,,,90,,,,,,,,,,,wg-a,,,,AAXX 13124 07747 12565 70908 10240 20190 30023 40077 58002 60006 81172 91200=
07747,1997-06-13 15:00:00,26,1006.3,-1.3,74,21,15000,18.52,,,60,,,,,,,,,,,wg-a,,,,AAXX 13154 07747 12565 40610 10260 20210 30010 40063 56013 60006 81282 91500=
07747,1997-06-13 18:00:00,24,1007.1,0.7,74,19,12000,14.816,,,70,22.1,26.5,,,,,,,,,wg-a,,,,AAXX 13184 07747 12562 40708 10240 20190 30017 40071 53007 60006 82282 91800 333 10265 20221=
07747,1997-06-14 00:00:00,23,1009.8,0.6,69,17,10000,11.112,,,310,,,,,,,,,,,wg-a,,,,AAXX 14004 07747 12460 63106 10230 20170 30044 40098 51006 60006 83502 90000=
07747,1997-06-14 03:00:00,22,1010.5,0.7,69,16,20000,18.52,,,330,,,,,,,,,,,wg-a,,,,AAXX 14034 07747 12570 /3310 10220 20160 30051 40105 53007 60006 81502 90300=
07747,1997-06-14 06:00:00,20,1012.4,1.8,73,15,25000,14.816,,,340,20.4,23.9,,,,,,,,25,wg-a,,,,AAXX 14064 07747 02575 73408 10200 20150 30069 40124 53018 61000 72586 8584/ 90600 333 10239 20204 6100=
07747,1997-06-14 09:00:00,21,1014.4,2,69,15,25000,25.928,,,320,,,,,,,,,,,wg-a,,,,AAXX 14094 07747 12675 83214 10210 20150 30089 40144 51020 60006 8584/ 90900=
07747,1997-06-14 12:00:00,22,1015.8,1.4,60,14,25000,22.224,,,330,,,,,,,,,,,wg-a,,,,AAXX 14124 07747 12675 73312 10220 20140 30103 40158 51014 60006 8684/ 91200=
07747,1997-06-14 15:00:00,25,1015.2,-0.5,50,14,25000,22.224,,,350,,,,,,,,,,,wg-a,,,,AAXX 14154 07747 12675 63512 10250 20140 30098 40152 58005 60006 85840 91500=
07747,1997-06-14 18:00:00,24,1015.8,0.6,57,15,25000,18.52,,,340,20.4,25.6,,,,,,,,,wg-a,,,,AAXX 14184 07747 12675 73410 10240 20150 30104 40158 53006 60006 85840 91800 333 10256 20204=
07747,1997-06-14 21:00:00,22,1017.9,2,65,15,25000,14.816,,,330,,,,,,,,,,,wg-a,,,,AAXX 14214 07747 12675 73308 10220 20150 30124 40179 53020 60006 878// 92100=
07747,1997-06-15 00:00:00,21,1018.1,0.2,64,14,25000,7.408,,,300,,,,,,,,,,,wg-a,,,,AAXX 15004 07747 12675 73004 10210 20140 30126 40181 50002 60006 8653/ 90000=
07747,1997-06-15 06:00:00,20,1018,0.6,68,14,25000,3.704,,,320,17.1,23.9,,,,,,,,,wg-a,,,,AAXX 15064 07747 02775 /3202 10200 20140 30125 40180 53006 60006 81100 90600 333 10239 20171 60004=
07747,1997-06-15 09:00:00,25,1017.4,-0.5,50,14,500,3.704,,,20,,,,,,,,,,,wg-a,,,,AAXX 15094 07747 12700 30202 10250 20140 30120 40174 58005 60006 8/800 90900=
07747,1997-06-15 12:00:00,26,1016.2,-1.2,48,14,500,18.52,,,110,,,,,,,,,,,wg-a,,,,AAXX 15124 07747 12700 31110 10260 20140 30108 40162 58012 60006 81281 91200=
07747,1997-06-15 18:00:00,22,1015.2,-0.3,65,15,500,11.112,,,100,20.6,26.6,,,,,,,,,wg-a,,,,AAXX 15184 07747 12600 71006 10220 20150 30097 40152 56003 60006 81802 91800 333 10266 20206=
07747,1997-06-15 21:00:00,21,1016.2,1,73,16,25000,3.704,,,310,,,,,,,,,,,wg-a,,,,AAXX 15214 07747 12675 73102 10210 20160 30107 40162 52010 60006 82842 92100=
07747,1997-06-16 00:00:00,20,1016,-0.2,78,16,25000,3.704,,,20,,,,,,,,,,,wg-a,,,,AAXX 16004 07747 12/75 30202 10200 20160 30105 40160 56002 60006 81041 90000=
07747,1997-06-16 03:00:00,18,1014.7,-1.3,94,17,25000,3.704,,,320,,,,,,,,,,,wg-a,,,,AAXX 16034 07747 12/75 33202 10180 20170 30092 40147 57013 60006 81041 90300=
07747,1997-06-16 06:00:00,20,1015.1,0.4,78,16,500,7.408,,,210,17.3,22,,,,,,,,,wg-a,,,,AAXX 16064 07747 02700 72104 10200 20160 30096 40151 53004 60006 8183/ 90600 333 10220 20173 60004=
07747,1997-06-16 09:00:00,25,1014.7,-0.3,54,15,25000,7.408,,,80,,,,,,,,,,,wg-a,,,,AAXX 16094 07747 12575 70804 10250 20150 30093 40147 58003 60006 8313/ 90900=
07747,1997-06-16 12:00:00,28,1014.2,-0.5,42,14,25000,11.112,,,60,,,,,,,,,,,wg-a,,,,AAXX 16124 07747 12675 40606 10280 20140 30088 40142 58005 60006 83131 91200=
07747,1997-06-16 15:00:00,23,1014.3,0.1,73,18,10000,14.816,,,210,,,,,,,,,,17,wg-a,,,,AAXX 16154 07747 02560 72108 10230 20180 30089 40143 51001 61000 71798 8696/ 91500 333 ////=
07747,1997-06-16 18:00:00,22,1015.1,0.7,73,17,10000,11.112,,,280,20.2,27.7,,0,,,,,,17,wg-a,,,,AAXX 16184 07747 02560 72806 10220 20170 30096 40151 53007 60006 71798 879// 91800 333 10277 20202 60007=
07747,1997-06-17 00:00:00,20,1017,0.3,68,14,15000,14.816,,,310,,,,,,,,,,3,wg-a,,,,AAXX 17004 07747 12665 /3108 10200 20140 30115 40170 50003 60006 70391 81502 90000=
07747,1997-06-17 06:00:00,19,1017,0.4,68,13,20000,7.408,,,300,17.9,21.6,,,,,,,,,wg-a,,,,AAXX 17064 07747 02670 73004 10190 20130 30115 40170 53004 60006 82582 90600 333 10216 20179 60004=
07747,1997-06-17 09:00:00,21,1017.6,0.6,56,12,25000,18.52,,,330,,,,,,,,,,21,wg-a,,,,AAXX 17094 07747 02575 73310 10210 20120 30121 40176 51006 61000 72162 8398/ 90900 333 ////=
07747,1997-06-17 12:00:00,25,1016.9,-0.6,44,12,25000,18.52,,,340,,,,,,,,,,3,wg-a,,,,AAXX 17124 07747 02575 73410 10250 20120 30115 40169 57006 61000 70362 8388/ 91200 333 ////=
07747,1997-06-17 15:00:00,24,1016.6,-0.3,47,12,25000,22.224,,,340,,,,,,,,,,,wg-a,,,,AAXX 17154 07747 12575 73412 10240 20120 30112 40166 55003 60006 8488/ 91500=
07747,1997-06-17 18:00:00,23,1016.6,-0.1,50,12,20000,25.928,,,330,18.5,25.8,,,,,,,,,wg-a,,,,AAXX 17184 07747 12570 83314 10230 20120 30111 40166 55001 60006 8598/ 91800 333 10258 20185=
07747,1997-06-17 21:00:00,21,1017.9,1.3,53,11,20000,22.224,,,320,,,,,,,,,,,wg-a,,,,AAXX 17214 07747 12570 83212 10210 20110 30124 40179 53013 60006 879// 92100=
07747,1997-06-18 00:00:00,20,1017.9,0,56,11,20000,18.52,,,310,,,,,,,,,,,wg-a,,,,AAXX 18004 07747 12570 83110 10200 20110 30124 40179 50000 60006 879// 90000=
07747,1997-06-18 03:00:00,20,1016.9,-1,60,12,25000,22.224,,,330,,,,,,,,,,,wg-a,,,,AAXX 18034 07747 12575 73312 10200 20120 30114 40169 58010 60006 875// 90300=
07747,1997-06-18 06:00:00,20,1017.3,0.4,64,13,25000,14.816,,,330,19.4,22.5,,,,,,,,,wg-a,,,,AAXX 18064 07747 02675 73308 10200 20130 30118 40173 53004 60006 84842 90600 333 10225 20194 61000=
07747,1997-06-18 09:00:00,23,1016.9,-0.4,50,12,500,29.632,,,330,,,,,,,,,,,wg-a,,,,AAXX 18094 07747 12600 63316 10230 20120 30114 40169 57004 60006 83802 90900=
07747,1997-06-18 12:00:00,26,1016.2,-0.6,45,13,500,25.928,,,360,,,,,,,,,,,wg-a,,,,AAXX 18124 07747 12600 63614 10260 20130 30108 40162 58006 60006 83842 91200=
07747,1997-06-18 15:00:00,25,1014.7,-1.5,44,12,500,22.224,,,340,,,,,,,,,,,wg-a,,,,AAXX 18154 07747 12600 63412 10250 20120 30093 40147 58015 60006 84842 91500=
07747,1997-06-18 18:00:00,23,1012.9,-1.8,50,12,500,29.632,,,320,19.8,26.3,,,,,,,,,wg-a,,,,AAXX 18184 07747 12600 73216 10230 20120 30075 40129 58018 60006 83842 91800 333 10263 20198=
07747,1997-06-18 21:00:00,22,1013.4,0.4,53,12,25000,25.928,,,330,,,,,,,,,,,wg-a,,,,AAXX 18214 07747 12675 73314 10220 20120 30079 40134 51004 60006 83882 92100=
07747,1997-06-19 00:00:00,21,1012.1,-1.3,53,11,25000,25.928,,,330,,,,,,,,,,,wg-a,,,,AAXX 19004 07747 12675 73314 10210 20110 30066 40121 58013 60006 83882 90000=
07747,1997-06-19 03:00:00,20,1010.2,-1.9,64,13,25000,35.188,,53.708,330,,,,,,,,,,,wg-a,,,,AAXX 19034 07747 12675 73319 10200 20130 30047 40102 56019 60006 83882 90300 333 91029=
07747,1997-06-19 06:00:00,19,1011,0.8,68,13,25000,25.928,,,330,18.9,22.8,,,,,,,,,wg-a,,,,AAXX 19064 07747 02575 53314 10190 20130 30055 40110 51008 60006 81282 90600 333 10228 20189 60004=
07747,1997-06-19 12:00:00,24,1009.7,-0.9,44,11,25000,35.188,,,340,,,,,,,,,,,wg-a,,,,AAXX 19124 07747 12/75 23419 10240 20110 30043 40097 58009 60006 82201 91200=
07747,1997-06-19 15:00:00,24,1009.9,0.2,41,10,25000,31.484,,51.856,330,,,,,,,,,,,wg-a,,,,AAXX 19154 07747 12675 73317 10240 20100 30045 40099 51002 60006 85882 91500 333 91028=
07747,1997-06-19 18:00:00,22,1010.8,0.9,50,11,25000,31.484,,,320,19.4,26.2,,,,,,,,,wg-a,,,,AAXX 19184 07747 12675 73217 10220 20110 30054 40108 53009 60006 84841 91800 333 10262 20194=
07747,1997-06-19 21:00:00,21,1012.7,1.8,49,10,25000,25.928,,,330,,,,,,,,,,,wg-a,,,,AAXX 19214 07747 12675 73314 10210 20100 30072 40127 53018 60006 85801 92100=
07747,1997-06-20 00:00:00,20,1012.4,-0.3,49,9,25000,35.188,,,320,,,,,,,,,,,wg-a,,,,AAXX 20004 07747 12675 73219 10200 20090 30069 40124 58003 60006 85801 90000=
07747,1997-06-20 03:00:00,18,1012.4,-0,49,7,25000,18.52,,,330,,,,,,,,,,,wg-a,,,,AAXX 20034 07747 12675 73310 10180 20070 30069 40124 55000 60006 83801 90300=
07747,1997-06-20 06:00:00,18,1013.1,0.7,52,8,25000,22.224,,,340,17.5,22.3,,,,,,,,,wg-a,,,,AAXX 20064 07747 02575 73412 10180 20080 30076 40131 53007 60006 81852 90600 333 10223 20175 60004=
07747,1997-06-20 09:00:00,21,1013,-0.1,46,9,20000,11.112,,,350,,,,,,,,,,,wg-a,,,,AAXX 20094 07747 12670 73506 10210 20090 30075 40130 58001 60006 81132 90900=
07747,1997-06-20 12:00:00,25,1011,-1.9,44,12,20000,14.816,,,130,,,,,,,,,,,wg-a,,,,AAXX 20124 07747 12/70 51308 10250 20120 30056 40110 58019 60006 80002 91200=
07747,1997-06-20 18:00:00,23,1008.8,-1,65,16,12000,11.112,,,100,18.1,25,,,,,,,,,wg-a,,,,AAXX 20184 07747 12/62 31006 10230 20160 30034 40088 56010 60006 81041 91800 333 10250 20181=
07747,1997-06-20 21:00:00,20,1009.5,0.6,83,17,15000,3.704,,,320,,,,,,,,,,,wg-a,,,,AAXX 20214 07747 12/65 53202 10200 20170 30040 40095 53006 60006 81041 92100=
07747,1997-06-21 00:00:00,18,1008.5,-1,83,15,15000,11.112,,,280,,,,,,,,,,,wg-a,,,,AAXX 21004 07747 12/65 52806 10180 20150 30030 40085 58010 60006 81041 90000=
07747,1997-06-21 03:00:00,16,1007.1,-1.4,94,15,15000,3.704,,,320,,,,,,,,,,,wg-a,,,,AAXX 21034 07747 12/65 53202 10160 20150 30016 40071 56014 60006 81041 90300=
07747,1997-06-21 06:00:00,19,1007.6,0.5,83,16,8000,3.704,,,20,15.5,22.8,,,,,,,,,wg-a,,,,AAXX 21064 07747 02458 /0202 10190 20160 30021 40076 52005 60006 8164/ 90600 333 10228 20155 60004=
07747,1997-06-21 09:00:00,21,1006.7,-0.8,78,17,8000,3.704,,,60,,,,,,,,,,,wg-a,,,,AAXX 21094 07747 12558 70602 10210 20170 30013 40067 58008 60006 878// 90900=
07747,1997-06-21 12:00:00,25,1005.3,-1.4,65,18,10000,14.816,,,90,,,,,,,,,,,wg-a,,,,AAXX 21124 07747 12560 70908 10250 20180 39999 40053 58014 60006 872// 91200=
07747,1997-06-21 18:00:00,23,1005.1,0.6,61,15,12000,25.928,,,330,18.6,25.6,,,,,,,,,wg-a,,,,AAXX 21184 07747 12562 83314 10230 20150 39997 40051 53006 60006 8687/ 91800 333 10256 20186=
07747,1997-06-21 21:00:00,18,1007.3,2.1,68,12,18000,22.224,,,330,,,,,,,,,,,wg-a,,,,AAXX 21214 07747 12568 83312 10180 20120 30018 40073 53021 60006 878// 92100=
07747,1997-06-22 00:00:00,17,1008.3,1,68,11,15000,25.928,,,330,,,,0,,,,,,1,wg-a,,,,AAXX 22004 07747 02565 83314 10170 20110 30028 40083 51010 60006 70162 878// 90000 333 60007=
07747,1997-06-22 03:00:00,16,1008.6,0.2,72,11,15000,29.632,,,340,,,,,,,,,,,wg-a,,,,AAXX 22034 07747 12565 83416 10160 20110 30030 40086 53002 60006 8387/ 90300=
07747,1997-06-22 06:00:00,14,1010.3,1.7,88,12,8000,11.112,,,180,14.2,22.4,,,,,,,,60,wg-a,,,,AAXX 22064 07747 02458 81806 10140 20120 30047 40103 53017 61000 76062 878// 90600 333 10224 20142 6002=
07747,1997-06-22 09:00:00,15,1011.1,0.8,88,13,25000,3.704,,,230,,,,2,,,,,,2,wg-a,,,,AAXX 22094 07747 12175 72302 10150 20130 30055 40111 53008 60027 70262 8587/ 90900=
07747,1997-06-22 12:00:00,21,1010.8,-0.2,49,10,500,22.224,,,320,,,,,,,,,,1,wg-a,,,,AAXX 22124 07747 12500 /3212 10210 20100 30053 40108 58002 60026 70162 86800 91200=
07747,1997-06-22 15:00:00,20,1011.2,0.4,49,9,500,22.224,,,330,,,,,,,,,,,wg-a,,,,AAXX 22154 07747 12500 73312 10200 20090 30057 40112 53004 60006 872// 91500=
07747,1997-06-22 18:00:00,20,1012.2,1,49,9,500,22.224,,,340,14,22.6,,,,,,,,,wg-a,,,,AAXX 22184 07747 12500 73412 10200 20090 30067 40122 53010 60006 878// 91800 333 10226 20140=
07747,1997-06-22 21:00:00,19,1014.5,2.3,46,7,500,29.632,,,320,,,,,,,,,,,wg-a,,,,AAXX 22214 07747 12500 73216 10190 20070 30090 40145 52023 60006 878// 92100=
07747,1997-06-23 00:00:00,17,1015.5,0.9,48,6,500,22.224,,,320,,,,,,,,,,,wg-a,,,,AAXX 23004 07747 12700 53212 10170 20060 30099 40155 53009 60006 855/0 90000=
07747,1997-06-23 06:00:00,18,1015.3,-0.1,49,7,60000,31.484,,,330,15.3,20,,,,,2,,,,wg-a,,,,AAXX 23064 07747 02586 /3317 10180 20070 30097 40153 58001 60006 81540 90600 333 10200 20153 60024=
07747,1997-06-23 09:00:00,21,1015.9,0.7,40,7,60000,38.892,,57.412,330,,,,,,,,,,,wg-a,,,,AAXX 23094 07747 12686 /3321 10210 20070 30104 40159 51007 60006 81800 90900 333 91031=
07747,1997-06-23 12:00:00,23,1015.2,-0.7,36,7,60000,42.596,,,340,,,,,,,,,,,wg-a,,,,AAXX 23124 07747 12786 23423 10230 20070 30097 40152 58007 60006 82800 91200=
07747,1997-06-23 15:00:00,23,1015.4,0.2,41,9,60000,31.484,,,320,,,,,,,,,,,wg-a,,,,AAXX 23154 07747 12786 /3217 10230 20090 30099 40154 52002 60006 85800 91500=
07747,1997-06-23 18:00:00,22,1016.2,0.8,43,9,500,22.224,,,340,17.7,25,,,,,,,,,wg-a,,,,AAXX 23184 07747 12600 73412 10220 20090 30107 40162 53008 60006 878// 91800 333 10250 20177=
07747,1997-06-24 00:00:00,18,1018.5,0.5,56,9,25000,38.892,,,330,,,,,,,,,,,wg-a,,,,AAXX 24004 07747 12675 33321 10180 20090 30129 40185 51005 60006 83800 90000=
07747,1997-06-24 03:00:00,17,1018.4,-0.1,59,9,25000,31.484,,,320,,,,,,,,,,,wg-a,,,,AAXX 24034 07747 12675 43217 10170 20090 30128 40184 55001 60006 84800 90300=
07747,1997-06-24 06:00:00,18,1019.6,1.2,56,9,25000,22.224,,,330,16.3,21.7,,,,,,,,,wg-a,,,,AAXX 24064 07747 02675 33312 10180 20090 30140 40196 51012 60006 83800 90600 333 10217 20163 60004=
07747,1997-06-24 09:00:00,22,1018.7,-0.8,43,9,25000,25.928,,,350,,,,,,,,,,,wg-a,,,,AAXX 24094 07747 12675 33514 10220 20090 30132 40187 58008 60006 83800 90900=
07747,1997-06-24 12:00:00,23,1017.7,-1,41,9,11000,29.632,,,360,,,,,,,,,,,wg-a,,,,AAXX 24124 07747 12/61 /3616 10230 20090 30122 40177 57010 60006 91200=
07747,1997-06-24 15:00:00,25,1016.2,-1.4,34,8,500,25.928,,50.004,340,,,,,,,,,,,wg-a,,,,AAXX 24154 07747 12600 33414 10250 20080 30108 40162 56014 60006 83800 91500 333 91027=
07747,1997-06-24 18:00:00,23,1015.8,-0.5,41,9,500,29.632,,,340,17.6,25.4,,,,,,,,,wg-a,,,,AAXX 24184 07747 12600 23416 10230 20090 30103 40158 56005 60006 82840 91800 333 10254 20176=
07747,1997-06-24 21:00:00,20,1016.6,0.8,49,9,25000,14.816,,,10,,,,,,,,,,,wg-a,,,,AAXX 24214 07747 12675 /0108 10200 20090 30111 40166 53008 60006 81840 92100=
07747,1997-06-25 00:00:00,16,1016.4,-0.3,68,10,25000,7.408,,,300,,,,,,,,,,,wg-a,,,,AAXX 25004 07747 12/75 13004 10160 20100 30108 40164 58003 60006 81040 90000=
07747,1997-06-25 03:00:00,14,1015.2,-1.2,77,10,25000,11.112,,,280,,,,,,,,,,,wg-a,,,,AAXX 25034 07747 12/75 22806 10140 20100 30096 40152 58012 60006 82040 90300=
07747,1997-06-25 06:00:00,17,1014,-1.2,68,11,25000,7.408,,,240,13.4,23.1,,,,,,,,,wg-a,,,,AAXX 25064 07747 02675 32404 10170 20110 30084 40140 58012 60006 81504 90600 333 10231 20134 60004=
07747,1997-06-25 09:00:00,23,1012.8,-1,47,11,500,7.408,,,160,,,,,,,,,,,wg-a,,,,AAXX 25094 07747 12600 71604 10230 20110 30074 40128 57010 60006 81834 90900=
07747,1997-06-25 12:00:00,23,1011.3,-1.5,53,13,18000,18.52,,,140,,,,,,,,,,,wg-a,,,,AAXX 25124 07747 12668 71410 10230 20130 30059 40113 58015 60006 81842 91200=
07747,1997-06-25 15:00:00,23,1009.3,-2,65,16,12000,14.816,,,120,,,,,,,,,,,wg-a,,,,AAXX 25154 07747 12562 /1208 10230 20160 30039 40093 58020 60006 81282 91500=
07747,1997-06-25 18:00:00,23,1008.4,-0.9,73,18,9000,11.112,,,40,17.5,23.8,,,,,,,,,wg-a,,,,AAXX 25184 07747 12559 70406 10230 20180 30030 40084 56009 60006 85831 91800 333 10238 20175=
07747,1997-06-25 21:00:00,21,1008.3,-0.1,88,19,9000,7.408,,,150,,,,,,,,,,,wg-a,,,,AAXX 25214 07747 12559 81504 10210 20190 30029 40083 56001 60006 878// 92100=
07747,1997-06-26 00:00:00,21,1007.5,-0.8,56,12,10000,7.408,,,330,,,,,,,,,,,wg-a,,,,AAXX 26004 07747 12760 73304 10210 20120 30021 40075 58008 60006 875// 90000=
07747,1997-06-26 03:00:00,20,1005.7,-1.8,60,12,10000,11.112,,,300,,,,,,,,,,,wg-a,,,,AAXX 26034 07747 12760 83006 10200 20120 30003 40057 58018 60006 875// 90300=
07747,1997-06-26 06:00:00,21,1005.1,-0.6,60,13,25000,7.408,,,320,19.8,22.8,,,,,,,,,wg-a,,,,AAXX 26064 07747 02775 83204 10210 20130 39997 40051 56006 60006 875// 90600 333 10228 20198 60004=
07747,1997-06-26 12:00:00,19,1004.8,-0.4,68,13,20000,11.112,,,330,,,,,,,,,,1,wg-a,,,,AAXX 26124 07747 02570 83306 10190 20130 39993 40048 58004 61000 70162 878// 91200 333 6100=
07747,1997-06-26 15:00:00,19,1003.4,-1.4,78,15,25000,7.408,,,210,,,,,,,,,,,wg-a,,,,AAXX 26154 07747 12675 82104 10190 20150 39979 40034 58014 60006 888// 91500=
07747,1997-06-26 18:00:00,19,1002.6,-0.8,73,14,25000,11.112,,,220,18.1,20.7,,,,,,,,,wg-a,,,,AAXX 26184 07747 12675 72206 10190 20140 39971 40026 56008 60006 878// 91800 333 10207 20181=
07747,1997-06-26 21:00:00,20,1003,0.5,60,12,20000,11.112,,,320,,,,,,,,,,,wg-a,,,,AAXX 26214 07747 12670 73206 10200 20120 39976 40030 53005 60006 878// 92100=
07747,1997-06-27 00:00:00,16,1003.7,0.6,68,10,15000,18.52,,,330,,,,1,,,,,,21,wg-a,,,,AAXX 27004 07747 02565 73310 10160 20100 39982 40037 50006 60016 72162 878// 90000 333 60017=
07747,1997-06-27 03:00:00,14,1004.1,0.3,82,11,10000,11.112,,,340,,,,2,,,,,,61,wg-a,,,,AAXX 27034 07747 12560 73406 10140 20110 39985 40041 53003 60027 76162 8787/ 90300=
07747,1997-06-27 06:00:00,13,1004.8,0.7,88,11,8000,3.704,,,230,12.5,19.9,,,,,,,,21,wg-a,,,,AAXX 27064 07747 02558 82302 10130 20110 39992 40048 50007 61000 72162 878// 90600 333 10199 20125 6007=
07747,1997-06-27 12:00:00,20,1004.7,0.1,46,8,500,7.408,,,310,,,,,,,,,,,wg-a,,,,AAXX 27124 07747 12500 73104 10200 20080 39992 40047 52001 60006 878// 91200=
07747,1997-06-27 18:00:00,19,1005.5,1,49,8,500,14.816,,,320,12.6,22.3,,,,,,,,,wg-a,,,,AAXX 27184 07747 12600 43208 10190 20080 30000 40055 53010 60006 81830 91800 333 10223 20126=
07747,1997-06-28 00:00:00,14,1007.7,0.4,72,9,500,7.408,,,250,,,,,,,,,,,wg-a,,,,AAXX 28004 07747 12/00 /2504 10140 20090 30021 40077 50004 60006 81040 90000=
07747,1997-06-28 03:00:00,11,1007.2,-0.5,82,8,500,14.816,,,260,,,,,,,,,,,wg-a,,,,AAXX 28034 07747 12/00 02608 10110 20080 30016 40072 55005 60006 80000 90300=
07747,1997-06-28 06:00:00,14,1007.6,0.4,72,9,500,7.408,,,330,10.5,19.2,,,,,,,,,wg-a,,,,AAXX 28064 07747 02600 73304 10140 20090 30020 40076 53004 60006 8158/ 90600 333 10192 20105 60004=
07747,1997-06-28 12:00:00,18,1007.4,-0.1,68,12,25000,14.816,,,130,,,,,,,,,,,wg-a,,,,AAXX 28124 07747 12675 71308 10180 20120 30019 40074 58001 60006 8488/ 91200=
07747,1997-06-28 15:00:00,15,1007,-0.5,88,13,500,11.112,,,300,,,,4,,,,,,80,wg-a,,,,AAXX 28154 07747 12500 83006 10150 20130 30014 40070 58005 60047 78096 869// 91500=
07747,1997-06-28 18:00:00,13,1005.5,-1.5,94,12,4000,7.408,,,360,12.7,20.6,,,,,,,,65,wg-a,,,,AAXX 28184 07747 02240 83604 10130 20120 39999 40055 58015 61000 76596 889// 91800 333 10206 20127 6018=
07747,1997-06-28 21:00:00,13,1004.1,-1.4,94,12,7000,11.112,,,300,,,,3,,,,,,60,wg-a,,,,AAXX 28214 07747 12257 83006 10130 20120 39985 40041 56014 60037 76066 889// 92100=
07747,1997-06-29 00:00:00,13,1003.4,-0.7,94,12,7000,7.408,,,270,,,,0,,,,,,1,wg-a,,,,AAXX 29004 07747 02457 82704 10130 20120 39978 40034 56007 60036 70162 888// 90000 333 60007=
07747,1997-06-29 03:00:00,12,1002.7,-0.7,94,11,10000,7.408,,,260,,,,,,,,,,,wg-a,,,,AAXX 29034 07747 12560 72604 10120 20110 39971 40027 55007 60006 875// 90300=
07747,1997-06-29 06:00:00,15,1004,1.4,77,11,50000,3.704,,,250,11.9,14.8,,,,,25,,,,wg-a,,,,AAXX 29064 07747 02584 52502 10150 20110 39985 40040 52014 60006 85801 90600 333 10148 20119 60254=
07747,1997-06-29 09:00:00,18,1005.2,1.2,56,9,40000,14.816,,,330,,,,,,,,,,,wg-a,,,,AAXX 29094 07747 12582 23308 10180 20090 39997 40052 51012 60006 82830 90900=
07747,1997-06-29 12:00:00,20,1006.4,1.2,46,8,11000,18.52,,,310,,,,,,,,,,,wg-a,,,,AAXX 29124 07747 12/61 /3110 10200 20080 30009 40064 53012 60006 91200=
07747,1997-06-29 15:00:00,20,1007.5,1.1,46,8,500,25.928,,,310,,,,,,,,,,,wg-a,,,,AAXX 29154 07747 12500 73114 10200 20080 30020 40075 52011 60006 8583/ 91500=
07747,1997-06-29 18:00:00,18,1009.4,1.9,68,12,500,14.816,,,240,14.9,21.3,,,,,,,,,wg-a,,,,AAXX 29184 07747 12400 72408 10180 20120 30039 40094 53019 60006 878// 91800 333 10213 20149=
07747,1997-06-29 21:00:00,16,1011.5,2,68,10,25000,11.112,,,260,,,,,,,,,,,wg-a,,,,AAXX 29214 07747 12475 /2606 10160 20100 30059 40115 51020 60006 8488/ 92100=
07747,1997-06-30 00:00:00,16,1011.7,0.2,59,8,25000,18.52,,,270,,,,,,,,,,,wg-a,,,,AAXX 30004 07747 12575 62710 10160 20080 30061 40117 51002 60006 8488/ 90000=
07747,1997-06-30 03:00:00,15,1011.4,-0.3,72,10,25000,7.408,,,280,,,,,,,,,,,wg-a,,,,AAXX 30034 07747 12575 72804 10150 20100 30058 40114 55003 60006 8588/ 90300=
07747,1997-06-30 06:00:00,16,1012,0.6,72,11,25000,11.112,,,270,13.3,18.9,,,,,,,,,wg-a,,,,AAXX 30064 07747 02775 32706 10160 20110 30064 40120 53006 60006 81541 90600 333 10189 20133 60004=
07747,1997-06-30 09:00:00,20,1012.2,0.3,56,11,25000,11.112,,,130,,,,,,,,,,,wg-a,,,,AAXX 30094 07747 12675 41306 10200 20110 30067 40122 51003 60006 83202 90900=
07747,1997-06-30 12:00:00,22,1011.5,-0.6,53,12,25000,22.224,,,130,,,,,,,,,,,wg-a,,,,AAXX 30124 07747 12675 41312 10220 20120 30061 40115 57006 60006 83202 91200=
07747,1997-06-30 15:00:00,19,1012,0.4,88,17,15000,11.112,,,110,,,,2,,,,,,25,wg-a,,,,AAXX 30154 07747 12565 71106 10190 20170 30065 40120 53004 60027 72586 878// 91500=
07747,1997-06-30 18:00:00,21,1012.5,0.5,56,12,500,3.704,,,280,16.1,22.4,,,,,,,,2,wg-a,,,,AAXX 30184 07747 12600 62802 10210 20120 30070 40125 53005 60006 70286 84830 91800 333 10224 20161=
07747,1997-06-30 21:00:00,18,1014.3,1.8,77,14,500,7.408,,,330,,,,,,,,,,,wg-a,,,,AAXX 30214 07747 12600 73304 10180 20140 30088 40143 53018 60006 84830 92100=
07747,1997-07-01 00:00:00,15,1014.6,0.2,88,13,500,11.112,,,290,,,,,,,,,,,wg-a,,,,AAXX 01004 07747 12700 22906 10150 20130 30090 40146 50002 60006 81510 90000=
07747,1997-07-01 03:00:00,15,1014.4,-0.2,88,13,500,7.408,,,220,,,,,,,,,,,wg-a,,,,AAXX 01034 07747 12700 /2204 10150 20130 30088 40144 58002 60006 82530 90300=
07747,1997-07-01 06:00:00,18,1015.1,0.7,64,11,500,11.112,,,310,14.5,20.9,,,,,2,,,,wg-a,,,,AAXX 01064 07747 02500 53106 10180 20110 30095 40151 53007 60006 82804 90600 333 10209 20145 60024=
07747,1997-07-01 12:00:00,22,1014.3,-0.7,65,15,20000,25.928,,,120,,,,,,,,,,,wg-a,,,,AAXX 01124 07747 12570 71214 10220 20150 30088 40143 58007 60006 83232 91200=
07747,1997-07-01 15:00:00,22,1012.6,-1.7,65,15,15000,31.484,,,130,,,,,,,,,,,wg-a,,,,AAXX 01154 07747 12565 71317 10220 20150 30071 40126 56017 60006 83272 91500=
07747,1997-07-01 18:00:00,21,1011.4,-1.2,73,16,18000,11.112,,,110,17.5,23.1,,,,,,,,,wg-a,,,,AAXX 01184 07747 12568 71106 10210 20160 30059 40114 56012 60006 83832 91800 333 10231 20175=
07747,1997-07-01 21:00:00,22,1011.5,0.1,65,15,15000,14.816,,,180,,,,,,,,,,,wg-a,,,,AAXX 01214 07747 12565 71808 10220 20150 30060 40115 53001 60006 878// 92100=
07747,1997-07-02 00:00:00,20,1010.8,-0.7,60,12,15000,22.224,,,200,,,,,,,,,,2,wg-a,,,,AAXX 02004 07747 02765 72012 10200 20120 30053 40108 58007 61000 70262 875// 90000 333 6100=
07747,1997-07-02 03:00:00,21,1009.3,-1.5,43,8,15000,25.928,,,170,,,,,,,,,,,wg-a,,,,AAXX 02034 07747 12765 71714 10210 20080 30038 40093 56015 60006 8457/ 90300=
07747,1997-07-02 06:00:00,20,1009.4,0.1,64,13,0,29.632,,,150,19.3,21.8,,,,,,,,,wg-a,,,,AAXX 02064 07747 02/// /1516 10200 20130 30039 40094 51001 61000 90600 333 10218 20193 ////=
07747,1997-07-02 12:00:00,25,1008.1,-0.7,57,16,500,29.632,,,160,,,,,,,,,,,wg-a,,,,AAXX 02124 07747 12500 51616 10250 20160 30027 40081 58007 60006 83844 91200=
07747,1997-07-02 15:00:00,22,1010,1.9,57,13,20000,25.928,,,340,,,,,,,,,,,wg-a,,,,AAXX 02154 07747 12570 53414 10220 20130 30046 40100 53019 60006 84802 91500=
07747,1997-07-02 18:00:00,19,1012.1,2,64,12,500,25.928,,,330,19.2,26.9,,,,,,,,,wg-a,,,,AAXX 02184 07747 12500 73314 10190 20120 30066 40121 52020 60006 878// 91800 333 10269 20192=
07747,1997-07-02 21:00:00,18,1014.7,2.6,68,12,500,14.816,,,310,,,,,,,,,,13,wg-a,,,,AAXX 02214 07747 12500 73108 10180 20120 30092 40147 53026 60006 71322 879// 92100=
07747,1997-07-03 00:00:00,16,1015.7,0.9,82,13,10000,11.112,,,330,,,,1,,,,,,80,wg-a,,,,AAXX 03004 07747 02560 73306 10160 20130 30101 40157 53009 60016 78096 8598/ 90000 333 60017=
07747,1997-07-03 03:00:00,16,1015.2,-0.5,82,13,20000,11.112,,,330,,,,1,,,,,,,wg-a,,,,AAXX 03034 07747 12670 73306 10160 20130 30096 40152 55005 60017 875// 90300=
07747,1997-07-03 06:00:00,16,1016.4,1.2,77,12,40000,14.816,,,340,14.9,19.2,,,,,2,,,,wg-a,,,,AAXX 03064 07747 02582 73408 10160 20120 30108 40164 52012 60006 878// 90600 333 10192 20149 60024=
07747,1997-07-03 12:00:00,20,1017.2,0,56,11,40000,7.408,,,70,,,,,,,,,,,wg-a,,,,AAXX 03124 07747 12682 70704 10200 20110 30117 40172 50000 60006 878// 91200=
07747,1997-07-03 15:00:00,22,1016.8,-0.4,57,13,40000,7.408,,,300,,,,,,,,,,,wg-a,,,,AAXX 03154 07747 12682 73004 10220 20130 30113 40168 56004 60006 878// 91500=
07747,1997-07-03 18:00:00,21,1016.7,-0.1,56,12,40000,14.816,,,310,15.7,22.2,,,,,,,,,wg-a,,,,AAXX 03184 07747 12682 73108 10210 20120 30112 40167 55001 60006 878// 91800 333 10222 20157=
07747,1997-07-03 21:00:00,19,1018.4,1.7,60,11,500,14.816,,,310,,,,,,,,,,,wg-a,,,,AAXX 03214 07747 12600 73108 10190 20110 30129 40184 53017 60006 878// 92100=
07747,1997-07-04 00:00:00,16,1018.4,-0.1,72,11,500,7.408,,,250,,,,,,,,,,,wg-a,,,,AAXX 04004 07747 12600 62504 10160 20110 30128 40184 58001 60006 86500 90000=
07747,1997-07-04 03:00:00,17,1017.7,-0.7,68,11,0,7.408,,,260,,,,,,,,,,,wg-a,,,,AAXX 04034 07747 12/// /2604 10170 20110 30121 40177 55007 60006 90300=
07747,1997-07-04 06:00:00,15,1017.2,-0.5,94,14,12000,22.224,,,180,14.6,20.7,,,,,,,,21,wg-a,,,,AAXX 04064 07747 02262 71812 10150 20140 30116 40172 58005 61000 72196 8697/ 90600 333 10207 20146 6006=
07747,1997-07-04 09:00:00,21,1019.5,2.4,69,15,500,3.704,,,190,,,,,,,,,,,wg-a,,,,AAXX 04094 07747 12500 /1902 10210 20150 30140 40195 51024 60006 81180 90900=
07747,1997-07-04 12:00:00,24,1019.2,-0.3,54,14,40000,14.816,,,150,,,,,,,,,,,wg-a,,,,AAXX 04124 07747 12682 41508 10240 20140 30137 40192 58003 60006 83982 91200=
07747,1997-07-04 15:00:00,21,1018.9,-0.3,60,13,20000,11.112,,,170,,,,0,,,,,,21,wg-a,,,,AAXX 04154 07747 12570 71706 10210 20130 30134 40189 58003 60007 72161 839// 91500=
07747,1997-07-04 18:00:00,16,1020.7,1.7,88,14,12000,22.224,,,290,15,23.8,,,,,,,,61,wg-a,,,,AAXX 04184 07747 02662 82912 10160 20140 30151 40207 51017 61000 76161 878// 91800 333 10238 20150 6016=
07747,1997-07-04 21:00:00,16,1022.2,1.5,82,13,20000,11.112,,,300,,,,1,,,,,,1,wg-a,,,,AAXX 04214 07747 12770 /3006 10160 20130 30166 40222 53015 60017 70162 84530 92100=
07747,1997-07-05 00:00:00,17,1023.1,0.9,68,11,25000,25.928,,,300,,,,,,,,,,1,wg-a,,,,AAXX 05004 07747 12775 43014 10170 20110 30175 40231 53009 60016 70161 84500 90000=
07747,1997-07-05 06:00:00,17,1024,1.7,63,10,50000,22.224,,,320,15.6,17.6,,,,,17,,,,wg-a,,,,AAXX 05064 07747 02684 33212 10170 20100 30184 40240 51017 60006 83800 90600 333 10176 20156 60174=
07747,1997-07-05 09:00:00,20,1024.6,0.6,53,10,50000,35.188,,,320,,,,,,,,,,,wg-a,,,,AAXX 05094 07747 12684 23219 10200 20100 30190 40246 51006 60006 82100 90900=
07747,1997-07-05 12:00:00,20,1024.8,0.2,53,10,50000,42.596,,59.264,330,,,,,,,,,,,wg-a,,,,AAXX 05124 07747 12684 23323 10200 20100 30192 40248 50002 60006 82100 91200 333 91032=
07747,1997-07-05 15:00:00,22,1023.6,-1.1,46,10,50000,38.892,,68.524,320,,,,,,,,,,,wg-a,,,,AAXX 05154 07747 12684 23221 10220 20100 30181 40236 58011 60006 82100 91500 333 91037=
07747,1997-07-05 18:00:00,21,1024.7,1,49,10,50000,35.188,,53.708,320,16.7,22.7,,,,,,,,,wg-a,,,,AAXX 05184 07747 12684 23219 10210 20100 30191 40247 53010 60006 82880 91800 333 10227 20167 91029=
07747,1997-07-05 21:00:00,19,1026.9,2.2,56,10,25000,31.484,,46.3,320,,,,,,,,,,,wg-a,,,,AAXX 05214 07747 12575 /3217 10190 20100 30213 40269 51022 60006 81880 92100 333 91025=
07747,1997-07-06 00:00:00,18,1026.8,-0.1,59,10,25000,35.188,,53.708,330,,,,,,,,,,,wg-a,,,,AAXX 06004 07747 12575 /3319 10180 20100 30212 40268 58001 60006 81100 90000 333 91029=
07747,1997-07-06 03:00:00,17,1026.4,-0.4,68,11,25000,22.224,,,310,,,,,,,,,,,wg-a,,,,AAXX 06034 07747 12575 /3112 10170 20110 30208 40264 55004 60006 81100 90300=
07747,1997-07-06 06:00:00,18,1026.6,0.2,64,11,35000,31.484,,51.856,320,16.7,20.7,,,,,,,,,wg-a,,,,AAXX 06064 07747 02581 /3217 10180 20110 30210 40266 52002 60006 81100 90600 333 10207 20167 60004 91028=
07747,1997-07-06 09:00:00,21,1026.3,-0.3,49,10,25000,35.188,,,330,,,,,,,,,,,wg-a,,,,AAXX 06094 07747 12575 /3319 10210 20100 30207 40263 58003 60006 81100 90900=
07747,1997-07-06 12:00:00,24,1025.2,-1,38,9,20000,38.892,,62.968,330,,,,,,,,,,,wg-a,,,,AAXX 06124 07747 12570 /3321 10240 20090 30197 40252 56010 60006 81100 91200 333 91034=
07747,1997-07-06 18:00:00,24,1023.5,-0.3,36,8,40000,29.632,,,340,17.9,25.2,,,,,,,,,wg-a,,,,AAXX 06184 07747 12682 /3416 10240 20080 30180 40235 56003 60006 81100 91800 333 10252 20179=
07747,1997-07-06 21:00:00,21,1024.4,0.9,46,9,25000,25.928,,,320,,,,,,,,,,,wg-a,,,,AAXX 06214 07747 12/75 03214 10210 20090 30189 40244 53009 60006 80000 92100=
07747,1997-07-07 00:00:00,20,1024.4,-0.1,53,10,25000,22.224,,,320,,,,,,,,,,,wg-a,,,,AAXX 07004 07747 12/75 03212 10200 20100 30188 40244 58001 60006 80000 90000=
07747,1997-07-07 03:00:00,19,1022.8,-1.6,52,9,25000,22.224,,,330,,,,,,,,,,,wg-a,,,,AAXX 07034 07747 12/75 03312 10190 20090 30172 40228 58016 60006 80000 90300=
07747,1997-07-07 06:00:00,20,1022.3,-0.4,49,9,40000,25.928,,,330,18.5,24.1,,,,,,,,,wg-a,,,,AAXX 07064 07747 02/82 03314 10200 20090 30168 40223 58004 60006 80000 90600 333 10241 20185 60004=
07747,1997-07-07 09:00:00,25,1021,-1.3,39,10,10000,31.484,,,330,,,,,,,,,,,wg-a,,,,AAXX 07094 07747 12/60 /3317 10250 20100 30155 40210 58013 60006 90900=
07747,1997-07-07 12:00:00,26,1019.7,-1.2,37,10,40000,35.188,,,340,,,,,,,,,,,wg-a,,,,AAXX 07124 07747 12782 /3419 10260 20100 30143 40197 58012 60006 81100 91200=
07747,1997-07-07 15:00:00,28,1018.3,-1.4,35,11,40000,35.188,,,330,,,,,,,,,,,wg-a,,,,AAXX 07154 07747 12782 /3319 10280 20110 30129 40183 57014 60006 81100 91500=
07747,1997-07-07 18:00:00,27,1018.2,-0.1,39,12,40000,29.632,,,350,20.3,28.3,,,,,,,,,wg-a,,,,AAXX 07184 07747 12782 13516 10270 20120 30128 40182 55001 60006 814/0 91800 333 10283 20203=
07747,1997-07-07 21:00:00,23,1019.3,1,50,12,500,11.112,,,340,,,,,,,,,,,wg-a,,,,AAXX 07214 07747 12/00 03406 10230 20120 30138 40193 53010 60006 80000 92100=
07747,1997-07-08 00:00:00,19,1018.7,-0.6,64,12,25000,14.816,,,300,,,,,,,,,,,wg-a,,,,AAXX 08004 07747 12/75 03008 10190 20120 30132 40187 56006 60006 80000 90000=
07747,1997-07-08 06:00:00,19,1017.9,-0,68,13,500,3.704,,,260,15.3,26.6,,,,,,,,,wg-a,,,,AAXX 08064 07747 02/00 02602 10190 20130 30124 40179 55000 60006 80000 90600 333 10266 20153 60004=
07747,1997-07-08 09:00:00,25,1016.8,-1,47,13,500,3.704,,,340,,,,,,,,,,,wg-a,,,,AAXX 08094 07747 12/00 03402 10250 20130 30114 40168 58010 60006 80000 90900=
07747,1997-07-08 12:00:00,27,1015.9,-0.9,45,14,500,18.52,,,130,,,,,,,,,,,wg-a,,,,AAXX 08124 07747 12700 /1310 10270 20140 30105 40159 56009 60006 81100 91200=
07747,1997-07-08 15:00:00,27,1015.1,-0.8,39,12,500,18.52,,,120,,,,,,,,,,,wg-a,,,,AAXX 08154 07747 12700 /1210 10270 20120 30097 40151 58008 60006 81100 91500=
07747,1997-07-08 18:00:00,25,1014.4,-0.7,39,10,500,7.408,,,150,19,27.5,,,,,,,,,wg-a,,,,AAXX 08184 07747 12700 /1504 10250 20100 30090 40144 56007 60006 81200 91800 333 10275 20190=
07747,1997-07-08 21:00:00,20,1014.7,0.2,68,14,500,7.408,,,320,,,,,,,,,,,wg-a,,,,AAXX 08214 07747 12/00 13204 10200 20140 30092 40147 53002 60006 81031 92100=
07747,1997-07-09 00:00:00,18,1013.9,-0.8,73,13,500,7.408,,,270,,,,,,,,,,,wg-a,,,,AAXX 09004 07747 12/00 12704 10180 20130 30084 40139 58008 60006 81031 90000=
07747,1997-07-09 03:00:00,18,1013.1,-0.8,83,15,500,7.408,,,20,,,,,,,,,,,wg-a,,,,AAXX 09034 07747 12/00 60204 10180 20150 30076 40131 57008 60006 81031 90300=
07747,1997-07-09 06:00:00,21,1013.7,0.6,69,15,500,7.408,,,30,16.8,25.4,,,,,,,,,wg-a,,,,AAXX 09064 07747 02/00 40304 10210 20150 30082 40137 53006 60006 83082 90600 333 10254 20168 60004=
07747,1997-07-09 12:00:00,26,1013.2,-0.8,54,16,25000,14.816,,,100,,,,,,,,,,,wg-a,,,,AAXX 09124 07747 12675 61008 10260 20160 30078 40132 57008 60006 83982 91200=
07747,1997-07-09 15:00:00,23,1013.4,0.2,69,17,15000,7.408,,,300,,,,,,,,,,80,wg-a,,,,AAXX 09154 07747 02565 73004 10230 20170 30080 40134 53002 61000 78096 8498/ 91500 333 ////=
07747,1997-07-09 18:00:00,21,1013,-0.5,88,19,20000,3.704,,,300,20.7,25.9,,0,,,,,,29,wg-a,,,,AAXX 09184 07747 02670 73002 10210 20190 30075 40130 56005 60006 72996 8398/ 91800 333 10259 20207 60007=
07747,1997-07-10 00:00:00,19,1012.4,-0.3,94,18,15000,3.704,,,340,,,,0,,,,,,2,wg-a,,,,AAXX 10004 07747 02665 73402 10190 20180 30069 40124 58003 60006 70262 82982 90000 333 60007=
07747,1997-07-10 03:00:00,19,1012.1,-0.3,88,17,20000,7.408,,,340,,,,,,,,,,,wg-a,,,,AAXX 10034 07747 12670 73404 10190 20170 30066 40121 58003 60006 82882 90300=
07747,1997-07-10 06:00:00,19,1012.4,0.3,94,18,20000,0,,,0,18.3,21.3,,,,,,,,,wg-a,,,,AAXX 10064 07747 02770 70000 10190 20180 30069 40124 53003 60006 8288/ 90600 333 10213 20183 60004=
07747,1997-07-10 09:00:00,22,1013.1,0.7,73,17,500,3.704,,,50,,,,,,,,,,,wg-a,,,,AAXX 10094 07747 12600 70502 10220 20170 30076 40131 51007 60006 8388/ 90900=
07747,1997-07-10 12:00:00,24,1012.5,-0.5,69,18,500,14.816,,,140,,,,,,,,,,,wg-a,,,,AAXX 10124 07747 12600 71408 10240 20180 30071 40125 58005 60006 8388/ 91200=
07747,1997-07-10 18:00:00,20,1013.1,-0.1,88,18,12000,18.52,,,310,19.4,25,,,,,,,,3,wg-a,,,,AAXX 10184 07747 02462 83110 10200 20180 30076 40131 55001 61000 70398 869// 91800 333 10250 20194 6000=
07747,1997-07-11 00:00:00,20,1014.8,0.5,78,16,15000,14.816,,,290,,,,,,,,,,2,wg-a,,,,AAXX 11004 07747 02565 72908 10200 20160 30093 40148 51005 60016 70262 86880 90000 333 61000=
07747,1997-07-11 06:00:00,20,1015.5,1.2,73,15,25000,22.224,,,330,19.4,20.2,,,,,1,,,,wg-a,,,,AAXX 11064 07747 02575 73312 10200 20150 30100 40155 51012 60006 878// 90600 333 10202 20194 60014=
07747,1997-07-11 12:00:00,22,1016.4,-0.4,65,15,20000,29.632,,,330,,,,,,,,,,,wg-a,,,,AAXX 11124 07747 12570 63316 10220 20150 30109 40164 58004 60006 84832 91200=
07747,1997-07-11 15:00:00,26,1015.2,-1.1,48,14,20000,29.632,,,350,,,,,,,,,,,wg-a,,,,AAXX 11154 07747 12570 43516 10260 20140 30098 40152 58011 60006 82132 91500=
07747,1997-07-11 18:00:00,24,1015.8,0.6,50,13,20000,14.816,,,320,19.8,26.3,,,,,,,,,wg-a,,,,AAXX 11184 07747 12670 23208 10240 20130 30104 40158 53006 60006 81102 91800 333 10263 20198=
07747,1997-07-11 21:00:00,22,1017.3,1.4,60,14,20000,18.52,,,340,,,,,,,,,,,wg-a,,,,AAXX 11214 07747 12670 33410 10220 20140 30118 40173 53014 60006 81142 92100=
07747,1997-07-12 00:00:00,20,1017.1,-0.2,73,15,20000,14.816,,,300,,,,,,,,,,,wg-a,,,,AAXX 12004 07747 12770 23008 10200 20150 30116 40171 58002 60006 81542 90000=
07747,1997-07-12 06:00:00,20,1016.9,0.5,73,15,15000,7.408,,,210,16.7,24.5,,,,,,,,,wg-a,,,,AAXX 12064 07747 02/65 32104 10200 20150 30114 40169 50005 60006 80001 90600 333 10245 20167 60004=
07747,1997-07-12 09:00:00,26,1016.5,-0.3,51,15,20000,11.112,,,340,,,,,,,,,,,wg-a,,,,AAXX 12094 07747 12670 33406 10260 20150 30111 40165 57003 60006 81101 90900=
07747,1997-07-12 12:00:00,29,1015.5,-0.9,40,14,20000,7.408,,,260,,,,,,,,,,,wg-a,,,,AAXX 12124 07747 12770 /2604 10290 20140 30102 40155 58009 60006 81101 91200=
07747,1997-07-12 15:00:00,27,1015,-0.6,51,16,20000,18.52,,,130,,,,,,,,,,,wg-a,,,,AAXX 12154 07747 12770 41310 10270 20160 30096 40150 56006 60006 81101 91500=
07747,1997-07-12 18:00:00,26,1014.7,-0.3,58,17,15000,11.112,,,130,19.8,28.7,,,,,,,,,wg-a,,,,AAXX 12184 07747 12665 41306 10260 20170 30093 40147 55003 60006 81131 91800 333 10287 20198=
07747,1997-07-12 21:00:00,23,1015.5,0.8,73,18,10000,3.704,,,340,,,,,,,,,,,wg-a,,,,AAXX 12214 07747 12660 43402 10230 20180 30101 40155 53008 60006 81802 92100=
07747,1997-07-13 00:00:00,20,1015.3,-0.3,88,18,11000,3.704,,,250,,,,,,,,,,,wg-a,,,,AAXX 13004 07747 12/61 /2502 10200 20180 30098 40153 58003 60006 90000=
07747,1997-07-13 06:00:00,20,1016.3,1.5,94,19,4000,11.112,,,60,18.6,26.3,,,,,,,,10,wg-a,,,,AAXX 13064 07747 02240 50606 10200 20190 30108 40163 53015 60006 71011 85600 90600 333 10263 20186 60004=
07747,1997-07-13 09:00:00,23,1017.5,1.3,78,19,7000,14.816,,,80,,,,,,,,,,,wg-a,,,,AAXX 13094 07747 12557 /0808 10230 20190 30121 40175 51013 60006 81100 90900=
07747,1997-07-13 12:00:00,26,1016.8,-0.7,58,17,7000,18.52,,,100,,,,,,,,,,,wg-a,,,,AAXX 13124 07747 12557 /1010 10260 20170 30114 40168 58007 60006 81130 91200=
07747,1997-07-13 15:00:00,27,1015.7,-1.1,62,19,7000,11.112,,,90,,,,,,,,,,,wg-a,,,,AAXX 13154 07747 12357 /0906 10270 20190 30103 40157 58011 60006 81100 91500=
07747,1997-07-13 18:00:00,24,1015.6,-0.1,69,18,6000,11.112,,,100,20.1,26.9,,,,,,,,,wg-a,,,,AAXX 13184 07747 12356 21006 10240 20180 30102 40156 55001 60006 8/500 91800 333 10269 20201=
07747,1997-07-13 21:00:00,21,1017,1.3,94,20,500,0,,,0,,,,,,,,,,,wg-a,,,,AAXX 13214 07747 12300 /0000 10210 20200 30115 40170 52013 60006 81500 92100=
07747,1997-07-14 00:00:00,21,1016.7,-0.3,88,19,6000,3.704,,,30,,,,,,,,,,,wg-a,,,,AAXX 14004 07747 12356 /0302 10210 20190 30112 40167 57003 60006 81600 90000=
07747,1997-07-14 03:00:00,20,1017.9,1.2,94,19,2000,3.704,,,230,,,,,,,,,,10,wg-a,,,,AAXX 14034 07747 12120 82302 10200 20190 30124 40179 53012 60006 71011 886// 90300=
07747,1997-07-14 06:00:00,21,1018.8,0.9,94,20,4000,3.704,,,240,18.9,24.2,,,,,,,,10,wg-a,,,,AAXX 14064 07747 02240 22402 10210 20200 30133 40188 52009 60006 71041 82130 90600 333 10242 20189 60004=
07747,1997-07-14 09:00:00,28,1018.8,0.1,45,15,20000,11.112,,,350,,,,,,,,,,,wg-a,,,,AAXX 14094 07747 12570 /3506 10280 20150 30134 40188 52001 60006 81532 90900=
07747,1997-07-14 12:00:00,30,1018.6,-0.1,43,16,20000,14.816,,,120,,,,,,,,,,,wg-a,,,,AAXX 14124 07747 12670 /1208 10300 20160 30133 40186 58001 60006 81100 91200=
07747,1997-07-14 15:00:00,30,1017.8,-0.8,43,16,20000,11.112,,,110,,,,,,,,,,,wg-a,,,,AAXX 14154 07747 12670 21106 10300 20160 30125 40178 57008 60006 82982 91500=
07747,1997-07-14 18:00:00,30,1017.6,-0.2,43,16,20000,7.408,,,90,20.9,31.1,,,,,,,,,wg-a,,,,AAXX 14184 07747 12670 30904 10300 20160 30123 40176 55002 60006 81280 91800 333 10311 20209=
07747,1997-07-14 21:00:00,27,1019.9,2.2,58,18,20000,18.52,,,310,,,,,,,,,,,wg-a,,,,AAXX 14214 07747 12670 /3110 10270 20180 30145 40199 53022 60006 82280 92100=
07747,1997-07-15 00:00:00,26,1021,1.1,61,18,20000,14.816,,,320,,,,,,,,,,,wg-a,,,,AAXX 15004 07747 12/70 63208 10260 20180 30156 40210 53011 60006 86080 90000=
07747,1997-07-15 06:00:00,24,1020.5,0.6,74,19,12000,7.408,,,310,23.4,29.5,,,,,,,,,wg-a,,,,AAXX 15064 07747 02/62 73104 10240 20190 30151 40205 53006 60006 83082 90600 333 10295 20234 60004=
07747,1997-07-15 09:00:00,28,1021.2,0.7,55,18,15000,14.816,,,340,,,,,,,,,,,wg-a,,,,AAXX 15094 07747 12565 43408 10280 20180 30158 40212 51007 60006 81102 90900=
07747,1997-07-15 12:00:00,31,1019.8,-1.3,46,18,15000,25.928,,,10,,,,,,,,,,,wg-a,,,,AAXX 15124 07747 12565 /0114 10310 20180 30145 40198 56013 60006 81182 91200=
07747,1997-07-15 15:00:00,31,1018.7,-1.1,46,18,12000,18.52,,,350,,,,,,,,,,,wg-a,,,,AAXX 15154 07747 12662 73510 10310 20180 30134 40187 56011 60006 81102 91500=
07747,1997-07-15 18:00:00,30,1016.7,-2,49,18,15000,11.112,,,350,24.2,31.5,,,,,,,,,wg-a,,,,AAXX 15184 07747 12/65 /3506 10300 20180 30114 40167 56020 60006 81032 91800 333 10315 20242=
07747,1997-07-15 21:00:00,26,1017.1,0.3,61,18,15000,3.704,,,350,,,,,,,,,,,wg-a,,,,AAXX 15214 07747 12/65 /3502 10260 20180 30117 40171 53003 60006 82082 92100=
07747,1997-07-16 00:00:00,24,1017,-0.1,74,19,15000,7.408,,,160,,,,,,,,,,,wg-a,,,,AAXX 16004 07747 12/65 51604 10240 20190 30116 40170 58001 60006 81082 90000=
07747,1997-07-16 03:00:00,23,1016.3,-0.8,78,19,15000,3.704,,,10,,,,,,,,,,,wg-a,,,,AAXX 16034 07747 12565 70102 10230 20190 30108 40163 58008 60006 86182 90300=
07747,1997-07-16 06:00:00,23,1016.2,-0.1,73,18,18000,3.704,,,120,21.7,30,,,,,,,,,wg-a,,,,AAXX 16064 07747 02568 71202 10230 20180 30107 40162 56001 60006 8487/ 90600 333 10300 20217 60004=
07747,1997-07-16 12:00:00,26,1015.7,1.5,61,18,9000,14.816,,,120,,,,,,,,,,1,wg-a,,,,AAXX 16124 07747 02/59 51208 10260 20180 30103 40157 51015 61000 70161 83084 91200 333 6100=
07747,1997-07-16 15:00:00,27,1013.2,-2.5,54,17,8000,18.52,,,100,,,,,,,,,,,wg-a,,,,AAXX 16154 07747 12/58 71010 10270 20170 30078 40132 57025 60006 81034 91500=
07747,1997-07-16 18:00:00,23,1012.1,-1.1,83,20,500,11.112,,,110,22.7,27.4,,,,,,,,,wg-a,,,,AAXX 16184 07747 12400 71106 10230 20200 30067 40121 56011 60006 871// 91800 333 10274 20227=
07747,1997-07-17 00:00:00,21,1011.8,-0.6,88,19,0,7.408,,,330,,,,,,,,,,,wg-a,,,,AAXX 17004 07747 12/// /3304 10210 20190 30063 40118 58006 60006 90000=
07747,1997-07-17 03:00:00,20,1010.4,-1.4,78,16,15000,7.408,,,300,,,,,,,,,,,wg-a,,,,AAXX 17034 07747 12/65 23004 10200 20160 30049 40104 57014 60006 80001 90300=
07747,1997-07-17 06:00:00,22,1011.2,0.9,69,16,20000,14.816,,,320,19.7,23,,,,,,,,,wg-a,,,,AAXX 17064 07747 02670 73208 10220 20160 30058 40112 53009 60006 81131 90600 333 10230 20197 61000=
07747,1997-07-17 09:00:00,24,1011.4,0.2,61,16,500,25.928,,,310,,,,,,,,,,,wg-a,,,,AAXX 17094 07747 12600 53114 10240 20160 30060 40114 50002 60006 81881 90900=
07747,1997-07-17 12:00:00,26,1011.6,0.2,54,16,500,31.484,,,330,,,,,,,,,,,wg-a,,,,AAXX 17124 07747 12600 53317 10260 20160 30062 40116 51002 60006 82981 91200=
07747,1997-07-17 15:00:00,23,1012.9,1.3,65,16,500,25.928,,,320,,,,,,,,,,,wg-a,,,,AAXX 17154 07747 12600 73214 10230 20160 30075 40129 51013 60006 8598/ 91500=
07747,1997-07-17 18:00:00,23,1012.8,-0.1,65,16,25000,38.892,,61.116,320,21.6,26.6,,,,,,,,,wg-a,,,,AAXX 17184 07747 12575 53221 10230 20160 30074 40128 55001 60006 82841 91800 333 10266 20216 91033=
07747,1997-07-17 21:00:00,20,1016.3,3.4,73,15,15000,42.596,,61.116,310,,,,,,,,,,,wg-a,,,,AAXX 17214 07747 12565 73123 10200 20150 30108 40163 53034 60006 878// 92100 333 91033=
07747,1997-07-18 00:00:00,20,1016.1,-0.2,56,11,25000,46.3,,,320,,,,,,,,,,,wg-a,,,,AAXX 18004 07747 12575 /3225 10200 20110 30106 40161 55002 60006 81840 90000=
07747,1997-07-18 06:00:00,20,1016.1,-0.2,64,13,40000,38.892,,61.116,330,18.9,22.7,,,,,,,,,wg-a,,,,AAXX 18064 07747 02582 43321 10200 20130 30106 40161 55002 60006 83844 90600 333 10227 20189 60004 91033=
07747,1997-07-18 09:00:00,23,1016.6,0.5,53,13,15000,42.596,,66.672,340,,,,,,,,,,15,wg-a,,,,AAXX 18094 07747 12565 43423 10230 20130 30111 40166 53005 60006 71511 82882 90900 333 91036=
07747,1997-07-18 12:00:00,24,1015.6,-0.9,50,13,60000,46.3,,72.228,340,,,,,,,,,,,wg-a,,,,AAXX 18124 07747 12586 23425 10240 20130 30102 40156 58009 60006 81882 91200 333 91039=
07747,1997-07-18 15:00:00,26,1014.7,-0.9,42,12,11000,46.3,,57.412,350,,,,,,,,,,,wg-a,,,,AAXX 18154 07747 12/61 /3525 10260 20120 30093 40147 58009 60006 91500 333 91031=
07747,1997-07-18 18:00:00,25,1016.2,1.5,36,9,40000,38.892,,59.264,350,20.1,26.8,,,,,,,,,wg-a,,,,AAXX 18184 07747 12582 /3521 10250 20090 30108 40162 53015 60006 81100 91800 333 10268 20201 91032=
07747,1997-07-18 21:00:00,22,1018.9,2.6,50,11,40000,31.484,,53.708,330,,,,,,,,,,,wg-a,,,,AAXX 18214 07747 12/82 03317 10220 20110 30134 40189 53026 60006 80000 92100 333 91029=
07747,1997-07-19 00:00:00,20,1020.4,1.5,60,12,40000,25.928,,,340,,,,,,,,,,,wg-a,,,,AAXX 19004 07747 12782 23414 10200 20120 30149 40204 50015 60006 82500 90000=
07747,1997-07-19 03:00:00,18,1020.9,0.4,64,11,40000,18.52,,,340,,,,,,,,,,,wg-a,,,,AAXX 19034 07747 12/82 03410 10180 20110 30153 40209 53004 60006 80000 90300=
07747,1997-07-19 06:00:00,18,1022.2,1.3,56,9,40000,25.928,,,330,17.1,25.2,,,,,,,,,wg-a,,,,AAXX 19064 07747 02582 /3314 10180 20090 30166 40222 52013 60006 81100 90600 333 10252 20171 60004=
07747,1997-07-19 09:00:00,21,1022.3,0.2,49,10,40000,29.632,,,330,,,,,,,,,,,wg-a,,,,AAXX 19094 07747 12682 23316 10210 20100 30168 40223 50002 60006 81101 90900=
07747,1997-07-19 12:00:00,24,1021.2,-1.1,41,10,40000,35.188,,53.708,340,,,,,,,,,,,wg-a,,,,AAXX 19124 07747 12682 /3419 10240 20100 30157 40212 58011 60006 81140 91200 333 91029=
07747,1997-07-19 15:00:00,26,1020.2,-0.9,37,10,500,31.484,,,350,,,,,,,,,,,wg-a,,,,AAXX 19154 07747 12700 /3517 10260 20100 30148 40202 56009 60006 81140 91500=
07747,1997-07-19 18:00:00,25,1020.1,-0.2,41,11,500,35.188,,51.856,340,17.9,26.8,,,,,,,,,wg-a,,,,AAXX 19184 07747 12700 /3419 10250 20110 30146 40201 56002 60006 81100 91800 333 10268 20179 91028=
07747,1997-07-19 21:00:00,22,1021.7,1.6,50,11,500,29.632,,,330,,,,,,,,,,,wg-a,,,,AAXX 19214 07747 12600 /3316 10220 20110 30162 40217 51016 60006 81400 92100=
07747,1997-07-20 00:00:00,21,1021.3,-0.4,53,11,500,29.632,,,320,,,,,,,,,,,wg-a,,,,AAXX 20004 07747 12600 /3216 10210 20110 30158 40213 58004 60006 81400 90000=
07747,1997-07-20 03:00:00,20,1019.9,-1.4,60,12,500,25.928,,,320,,,,,,,,,,,wg-a,,,,AAXX 20034 07747 12600 13214 10200 20120 30144 40199 58014 60006 81502 90300=
07747,1997-07-20 06:00:00,21,1019.7,-0.2,56,12,60000,31.484,,,320,19.6,24.5,,,,,,,,,wg-a,,,,AAXX 20064 07747 02/86 13217 10210 20120 30142 40197 56002 60006 80002 90600 333 10245 20196 60004=
07747,1997-07-20 09:00:00,26,1019.6,0,39,11,500,31.484,,,320,,,,,,,,,,,wg-a,,,,AAXX 20094 07747 12600 33217 10260 20110 30142 40196 50000 60006 81202 90900=
07747,1997-07-20 12:00:00,28,1018.4,-1.2,28,8,25000,25.928,,,340,,,,,,,,,,,wg-a,,,,AAXX 20124 07747 12775 43414 10280 20080 30130 40184 58012 60006 81102 91200=
07747,1997-07-20 15:00:00,30,1016.8,-1.5,29,10,20000,29.632,,,10,,,,,,,,,,,wg-a,,,,AAXX 20154 07747 12670 /0116 10300 20100 30115 40168 56015 60006 81132 91500=
07747,1997-07-20 18:00:00,28,1016.4,-0.5,35,11,18000,18.52,,,340,20.8,30,,,,,,,,,wg-a,,,,AAXX 20184 07747 12668 /3410 10280 20110 30110 40164 55005 60006 81842 91800 333 10300 20208=
07747,1997-07-20 21:00:00,25,1017.3,0.9,41,11,20000,18.52,,,320,,,,,,,,,,,wg-a,,,,AAXX 20214 07747 12670 43210 10250 20110 30119 40173 51009 60006 82540 92100=
07747,1997-07-21 00:00:00,22,1017.3,-0.1,50,11,15000,11.112,,,300,,,,,,,,,,,wg-a,,,,AAXX 21004 07747 12765 53006 10220 20110 30118 40173 58001 60006 81540 90000=
07747,1997-07-21 06:00:00,21,1017,0.4,56,12,20000,7.408,,,270,17.7,27.9,,,,,,,,,wg-a,,,,AAXX 21064 07747 02/70 42704 10210 20120 30115 40170 52004 60006 80001 90600 333 10279 20177 60004=
07747,1997-07-21 09:00:00,27,1017,0.1,39,12,20000,3.704,,,110,,,,,,,,,,,wg-a,,,,AAXX 21094 07747 12/70 21102 10270 20120 30116 40170 51001 60006 80001 90900=
07747,1997-07-21 12:00:00,27,1016.1,-0.9,39,12,20000,14.816,,,140,,,,,,,,,,,wg-a,,,,AAXX 21124 07747 12770 31408 10270 20120 30107 40161 58009 60006 81141 91200=
07747,1997-07-21 15:00:00,27,1015.4,-0.7,39,12,20000,22.224,,,140,,,,,,,,,,,wg-a,,,,AAXX 21154 07747 12770 31412 10270 20120 30100 40154 56007 60006 81141 91500=
07747,1997-07-21 18:00:00,25,1014.7,-0.7,44,12,15000,7.408,,,160,20.7,27.8,,,,,,,,,wg-a,,,,AAXX 21184 07747 12765 41604 10250 20120 30093 40147 56007 60006 81581 91800 333 10278 20207=
07747,1997-07-21 21:00:00,22,1015.6,0.8,57,13,10000,11.112,,,260,,,,,,,,,,,wg-a,,,,AAXX 21214 07747 12760 /2606 10220 20130 30101 40156 53008 60006 81500 92100=
07747,1997-07-22 00:00:00,19,1015.4,-0.2,78,15,9000,3.704,,,260,,,,,,,,,,,wg-a,,,,AAXX 22004 07747 12/59 42602 10190 20150 30099 40154 58002 60006 80001 90000=
07747,1997-07-22 03:00:00,19,1015.6,0.2,83,16,9000,7.408,,,360,,,,,,,,,,,wg-a,,,,AAXX 22034 07747 12/59 /3604 10190 20160 30101 40156 50002 60006 85050 90300=
07747,1997-07-22 06:00:00,20,1015.4,-0.2,88,18,9000,14.816,,,40,18.3,24.9,,,,,,,,80,wg-a,,,,AAXX 22064 07747 02259 70408 10200 20180 30099 40154 58002 61000 78096 8398/ 90600 333 10249 20183 6100=
07747,1997-07-22 09:00:00,23,1016.1,0.7,61,15,12000,14.816,,,90,,,,,,,,,,21,wg-a,,,,AAXX 22094 07747 02462 70908 10230 20150 30106 40161 50007 61000 72196 8298/ 90900 333 ////=
07747,1997-07-22 12:00:00,26,1016.3,0.3,51,15,12000,14.816,,,140,,,,,,,,,,1,wg-a,,,,AAXX 22124 07747 02562 21408 10260 20150 30109 40163 50003 61000 70196 81982 91200 333 ////=
07747,1997-07-22 15:00:00,25,1015.6,-0.7,61,17,12000,18.52,,,110,,,,,,,,,,,wg-a,,,,AAXX 22154 07747 12662 51110 10250 20170 30102 40156 56007 60006 82282 91500=
07747,1997-07-22 18:00:00,22,1015.9,0.2,78,18,20000,11.112,,,60,19.9,26.3,,,,,,,,25,wg-a,,,,AAXX 22184 07747 02670 70606 10220 20180 30104 40159 50002 61000 72586 8498/ 91800 333 10263 20199 6001=
07747,1997-07-22 21:00:00,20,1017.2,1.3,88,18,15000,7.408,,,50,,,,,,,,,,,wg-a,,,,AAXX 22214 07747 12/65 30504 10200 20180 30117 40172 53013 60006 80002 92100=
07747,1997-07-23 00:00:00,19,1016.7,-0.5,88,17,10000,7.408,,,20,,,,,,,,,,,wg-a,,,,AAXX 23004 07747 12460 50204 10190 20170 30112 40167 58005 60006 83602 90000=
07747,1997-07-23 03:00:00,19,1016.7,-0,94,18,10000,7.408,,,340,,,,,,,,,,,wg-a,,,,AAXX 23034 07747 12460 73404 10190 20180 30112 40167 55000 60006 875// 90300=
07747,1997-07-23 06:00:00,19,1017.4,0.7,88,17,15000,7.408,,,240,17.7,21.7,,,,,1,,,,wg-a,,,,AAXX 23064 07747 02565 22404 10190 20170 30119 40174 50007 60006 82101 90600 333 10217 20177 60014=
07747,1997-07-23 09:00:00,24,1017.4,0.1,69,18,10000,7.408,,,70,,,,,,,,,,,wg-a,,,,AAXX 23094 07747 12/60 20704 10240 20180 30120 40174 53001 60006 82080 90900=
07747,1997-07-23 12:00:00,29,1016.7,-0.7,43,15,10000,14.816,,,110,,,,,,,,,,,wg-a,,,,AAXX 23124 07747 12660 21108 10290 20150 30113 40167 58007 60006 81101 91200=
07747,1997-07-23 18:00:00,27,1015.1,-0.7,37,11,15000,7.408,,,310,19,28.9,,,,,,,,,wg-a,,,,AAXX 23184 07747 12665 43104 10270 20110 30097 40151 58007 60006 81182 91800 333 10289 20190=
07747,1997-07-24 00:00:00,25,1015.6,-0,57,16,20000,3.704,,,240,,,,,,,,,,,wg-a,,,,AAXX 24004 07747 12570 72402 10250 20160 30102 40156 55000 60006 81182 90000=
07747,1997-07-24 03:00:00,25,1015,-0.6,54,15,25000,29.632,,,320,,,,,,,,,,,wg-a,,,,AAXX 24034 07747 12575 73216 10250 20150 30096 40150 55006 60006 81282 90300=
07747,1997-07-24 06:00:00,23,1015.4,0.4,69,17,25000,29.632,,,310,22,27.2,,,,,,,,,wg-a,,,,AAXX 24064 07747 02575 43116 10230 20170 30100 40154 53004 60006 83280 90600 333 10272 20220 60004=
07747,1997-07-24 09:00:00,26,1016.2,0.8,58,17,500,35.188,,,340,,,,,,,,,,,wg-a,,,,AAXX 24094 07747 12500 53419 10260 20170 30108 40162 51008 60006 81182 90900=
07747,1997-07-24 12:00:00,26,1016.5,0.3,58,17,20000,46.3,,64.82,340,,,,,,,,,,,wg-a,,,,AAXX 24124 07747 12570 53425 10260 20170 30111 40165 51003 60006 84963 91200 333 91035=
07747,1997-07-24 15:00:00,24,1016.8,0.3,61,16,15000,38.892,,61.116,320,,,,,,,,,,,wg-a,,,,AAXX 24154 07747 12565 73221 10240 20160 30114 40168 51003 60006 879// 91500 333 91033=
07747,1997-07-24 18:00:00,25,1016.9,0.1,50,14,20000,35.188,,51.856,320,23,27.4,,,,,,,,,wg-a,,,,AAXX 24184 07747 12570 43219 10250 20140 30115 40169 53001 60006 84202 91800 333 10274 20230 91028=
07747,1997-07-24 21:00:00,25,1018.7,1.8,47,13,20000,31.484,,51.856,320,,,,,,,,,,,wg-a,,,,AAXX 24214 07747 12670 /3217 10250 20130 30133 40187 52018 60006 85500 92100 333 91028=
07747,1997-07-25 00:00:00,23,1019.4,0.6,53,13,20000,18.52,,,310,,,,,,,,,,,wg-a,,,,AAXX 25004 07747 12/70 23110 10230 20130 30139 40194 51006 60006 80001 90000=
07747,1997-07-25 03:00:00,22,1018.6,-0.8,50,11,15000,29.632,,,320,,,,,,,,,,,wg-a,,,,AAXX 25034 07747 12/65 23216 10220 20110 30131 40186 57008 60006 80001 90300=
07747,1997-07-25 06:00:00,22,1019.6,1,50,11,25000,29.632,,,330,21.3,25,,,,,,,,,wg-a,,,,AAXX 25064 07747 02775 63316 10220 20110 30141 40196 53010 60006 83542 90600 333 10250 20213 60004=
07747,1997-07-25 09:00:00,24,1019.9,0.3,50,13,35000,31.484,,57.412,330,,,,,,,,,,,wg-a,,,,AAXX 25094 07747 12681 63317 10240 20130 30144 40199 53003 60006 82842 90900 333 91031=
07747,1997-07-25 12:00:00,27,1019.2,-0.6,45,14,500,38.892,,,330,,,,,,,,,,,wg-a,,,,AAXX 25124 07747 12600 63321 10270 20140 30138 40192 56006 60006 82242 91200=
07747,1997-07-25 18:00:00,26,1018.1,-0.1,51,15,40000,35.188,,,340,21.6,28.2,,,,,,,,,wg-a,,,,AAXX 25184 07747 12682 73419 10260 20150 30127 40181 55001 60006 81142 91800 333 10282 20216=
07747,1997-07-25 21:00:00,24,1019.9,1.7,57,15,25000,35.188,,,340,,,,,,,,,,,wg-a,,,,AAXX 25214 07747 12775 /3419 10240 20150 30144 40199 52017 60006 81500 92100=
07747,1997-07-26 00:00:00,22,1020.5,0.6,65,15,25000,22.224,,,330,,,,,,,,,,,wg-a,,,,AAXX 26004 07747 12775 /3312 10220 20150 30150 40205 51006 60006 81500 90000=
07747,1997-07-26 03:00:00,22,1019.4,-1.1,65,15,25000,38.892,,,330,,,,,,,,,,,wg-a,,,,AAXX 26034 07747 12675 43321 10220 20150 30139 40194 58011 60006 81102 90300=
07747,1997-07-26 06:00:00,23,1019.8,0.4,61,15,500,35.188,,,330,21.5,26.1,,,,,,,,,wg-a,,,,AAXX 26064 07747 02600 33319 10230 20150 30143 40198 53004 60006 81101 90600 333 10261 20215 60004=
07747,1997-07-26 09:00:00,26,1020,0.3,51,15,500,35.188,,57.412,330,,,,,,,,,,,wg-a,,,,AAXX 26094 07747 12600 33319 10260 20150 30146 40200 53003 60006 81101 90900 333 91031=
07747,1997-07-26 12:00:00,28,1019.1,-0.9,48,16,40000,42.596,,62.968,340,,,,,,,,,,,wg-a,,,,AAXX 26124 07747 12682 23423 10280 20160 30137 40191 58009 60006 81101 91200 333 91034=
07747,1997-07-26 18:00:00,27,1017.6,-0.3,51,16,40000,38.892,,,340,22.7,30.1,,,,,,,,,wg-a,,,,AAXX 26184 07747 12682 /3421 10270 20160 30122 40176 55003 60006 81101 91800 333 10301 20227=
07747,1997-07-26 21:00:00,25,1019.1,1.5,54,15,25000,25.928,,,330,,,,,,,,,,,wg-a,,,,AAXX 26214 07747 12/75 33314 10250 20150 30137 40191 51015 60006 80001 92100=
07747,1997-07-27 00:00:00,23,1019.7,0.5,65,16,20000,22.224,,,320,,,,,,,,,,,wg-a,,,,AAXX 27004 07747 12/70 23212 10230 20160 30142 40197 52005 60006 80001 90000=
07747,1997-07-27 03:00:00,22,1019.3,-0.4,69,16,20000,18.52,,,320,,,,,,,,,,,wg-a,,,,AAXX 27034 07747 12/70 13210 10220 20160 30138 40193 56004 60006 80001 90300=
07747,1997-07-27 06:00:00,23,1020,0.7,65,16,60000,14.816,,,320,21.7,26.8,,,,,,,,,wg-a,,,,AAXX 27064 07747 02586 73208 10230 20160 30145 40200 53007 60006 81182 90600 333 10268 20217 60004=
07747,1997-07-27 09:00:00,27,1019.9,0,48,15,60000,18.52,,,340,,,,,,,,,,,wg-a,,,,AAXX 27094 07747 12686 /3410 10270 20150 30145 40199 50000 60006 81182 90900=
07747,1997-07-27 12:00:00,30,1019,-0.8,43,16,60000,18.52,,,10,,,,,,,,,,,wg-a,,,,AAXX 27124 07747 12686 /0110 10300 20160 30137 40190 57008 60006 81182 91200=
07747,1997-07-27 15:00:00,32,1017.8,-1.2,38,16,60000,18.52,,,350,,,,,,,,,,,wg-a,,,,AAXX 27154 07747 12686 73510 10320 20160 30125 40178 57012 60006 81182 91500=
07747,1997-07-27 18:00:00,30,1017.4,-0.4,43,16,500,18.52,,,360,23,32.5,,,,,,,,,wg-a,,,,AAXX 27184 07747 12600 /3610 10300 20160 30121 40174 56004 60006 81902 91800 333 10325 20230=
07747,1997-07-28 00:00:00,25,1018.9,-0.2,57,16,500,25.928,,,340,,,,,,,,,,,wg-a,,,,AAXX 28004 07747 12/00 03414 10250 20160 30135 40189 58002 60006 80000 90000=
07747,1997-07-28 03:00:00,23,1018.9,-0.1,65,16,500,11.112,,,310,,,,,,,,,,,wg-a,,,,AAXX 28034 07747 12/00 03106 10230 20160 30134 40189 57001 60006 80000 90300=
07747,1997-07-28 06:00:00,23,1019.5,0.6,65,16,60000,7.408,,,240,21.8,30.2,,,,,,,,,wg-a,,,,AAXX 28064 07747 02/86 22404 10230 20160 30140 40195 52006 60006 80001 90600 333 10302 20218 60004=
07747,1997-07-28 09:00:00,29,1019.3,-0.1,45,16,60000,7.408,,,30,,,,,,,,,,,wg-a,,,,AAXX 28094 07747 12686 /0304 10290 20160 30139 40193 58001 60006 81101 90900=
07747,1997-07-28 12:00:00,31,1018.3,-0.9,43,17,40000,22.224,,,120,,,,,,,,,,,wg-a,,,,AAXX 28124 07747 12682 21212 10310 20170 30130 40183 58009 60006 81901 91200=
07747,1997-07-28 15:00:00,31,1017.6,-0.7,40,16,25000,18.52,,,140,,,,,,,,,,,wg-a,,,,AAXX 28154 07747 12675 71410 10310 20160 30123 40176 56007 60006 82902 91500=
07747,1997-07-28 18:00:00,28,1017.6,-0.1,45,15,25000,7.408,,,160,22.9,32.9,,,,,,,,,wg-a,,,,AAXX 28184 07747 12675 71604 10280 20150 30122 40176 56001 60006 81982 91800 333 10329 20229=
07747,1997-07-28 21:00:00,25,1018.3,0.7,61,17,25000,11.112,,,230,,,,,,,,,,,wg-a,,,,AAXX 28214 07747 12675 42306 10250 20170 30129 40183 53007 60006 81982 92100=
07747,1997-07-29 00:00:00,23,1018.9,0.5,69,17,25000,11.112,,,270,,,,,,,,,,,wg-a,,,,AAXX 29004 07747 12675 /2706 10230 20170 30134 40189 52005 60006 81982 90000=
07747,1997-07-29 03:00:00,22,1018.4,-0.5,83,19,25000,3.704,,,120,,,,,,,,,,,wg-a,,,,AAXX 29034 07747 12/75 01202 10220 20190 30129 40184 56005 60006 80000 90300=
07747,1997-07-29 06:00:00,23,1019.1,0.7,61,15,45000,11.112,,,260,20.3,28.4,,,,,,,,,wg-a,,,,AAXX 29064 07747 02/83 12606 10230 20150 30136 40191 53007 60006 81032 90600 333 10284 20203 60004=
07747,1997-07-29 09:00:00,31,1018.6,-0.3,46,18,45000,3.704,,,60,,,,,,,,,,,wg-a,,,,AAXX 29094 07747 12683 30602 10310 20180 30133 40186 58003 60006 81132 90900=
07747,1997-07-29 12:00:00,32,1017.8,-0.8,46,19,45000,18.52,,,120,,,,,,,,,,,wg-a,,,,AAXX 29124 07747 12583 41210 10320 20190 30125 40178 58008 60006 82902 91200=
07747,1997-07-29 15:00:00,26,1018.5,0.6,58,17,20000,38.892,,59.264,270,,,,,,,,,,17,wg-a,,,,AAXX 29154 07747 12570 62721 10260 20170 30131 40185 53006 60006 71791 85902 91500 333 91032=
07747,1997-07-29 18:00:00,26,1016.3,-2.2,58,17,500,22.224,,,250,22.9,32.5,,,,,,,,1,wg-a,,,,AAXX 29184 07747 12500 42512 10260 20170 30109 40163 56022 60006 70191 81532 91800 333 10325 20229=
07747,1997-07-29 21:00:00,25,1017.6,1.3,69,19,25000,11.112,,,290,,,,,,,,,,,wg-a,,,,AAXX 29214 07747 12/75 22906 10250 20190 30122 40176 53013 60006 81032 92100=
07747,1997-07-30 00:00:00,23,1018.2,0.5,73,18,25000,3.704,,,220,,,,,,,,,,,wg-a,,,,AAXX 30004 07747 12/75 02202 10230 20180 30127 40182 51005 60006 80000 90000=
07747,1997-07-30 03:00:00,23,1017.9,-0.3,69,17,25000,3.704,,,300,,,,,,,,,,,wg-a,,,,AAXX 30034 07747 12/75 23002 10230 20170 30124 40179 58003 60006 81032 90300=
07747,1997-07-30 06:00:00,26,1018.2,0.4,54,16,500,14.816,,,310,21.7,26.4,,,,,,,,,wg-a,,,,AAXX 30064 07747 02/00 63108 10260 20160 30128 40182 51004 60006 83082 90600 333 10264 20217 60004=
07747,1997-07-30 12:00:00,32,1017.6,-0.7,41,17,500,18.52,,,10,,,,,,,,,,,wg-a,,,,AAXX 30124 07747 12600 60110 10320 20170 30123 40176 58007 60006 83982 91200=
07747,1997-07-30 18:00:00,31,1016.4,-0.9,43,17,15000,14.816,,,320,25.7,33.3,,,,,,,,,wg-a,,,,AAXX 30184 07747 12665 73208 10310 20170 30111 40164 55009 60006 81982 91800 333 10333 20257=
07747,1997-07-30 21:00:00,28,1017.8,1.3,51,17,15000,14.816,,,320,,,,,,,,,,,wg-a,,,,AAXX 30214 07747 12665 73208 10280 20170 30124 40178 51013 60006 81182 92100=
07747,1997-07-31 00:00:00,26,1018.1,0.3,61,18,15000,18.52,,,330,,,,,,,,,,,wg-a,,,,AAXX 31004 07747 12/65 03310 10260 20180 30127 40181 51003 60006 80000 90000=
07747,1997-07-31 03:00:00,25,1017.9,-0.2,65,18,20000,14.816,,,310,,,,,,,,,,,wg-a,,,,AAXX 31034 07747 12/70 03108 10250 20180 30125 40179 57002 60006 80000 90300=
07747,1997-07-31 06:00:00,24,1018.2,0.3,61,16,500,25.928,,,320,23.7,30.7,,,,,,,,,wg-a,,,,AAXX 31064 07747 02600 /3214 10240 20160 30128 40182 53003 60006 81102 90600 333 10307 20237 60004=
07747,1997-07-31 09:00:00,28,1018.3,0.1,48,16,500,22.224,,,340,,,,,,,,,,,wg-a,,,,AAXX 31094 07747 12700 /3412 10280 20160 30129 40183 50001 60006 81102 90900=
07747,1997-07-31 12:00:00,31,1017.2,-1,36,14,500,29.632,,,340,,,,,,,,,,,wg-a,,,,AAXX 31124 07747 12600 23416 10310 20140 30119 40172 57010 60006 81102 91200=
07747,1997-07-31 15:00:00,31,1015.8,-1.4,36,14,500,31.484,,,350,,,,,,,,,,,wg-a,,,,AAXX 31154 07747 12700 73517 10310 20140 30105 40158 58014 60006 81102 91500=
07747,1997-07-31 18:00:00,29,1015.4,-0.4,45,16,25000,29.632,,44.448,340,24.3,32.6,,,,,,,,,wg-a,,,,AAXX 31184 07747 12775 73416 10290 20160 30101 40154 55004 60006 81132 91800 333 10326 20243 91024=
07747,1997-08-01 00:00:00,25,1016.4,-0.5,57,16,15000,14.816,,,330,,,,,,,,,,,wg-a,,,,AAXX 01004 07747 12765 /3308 10250 20160 30110 40164 58005 60006 81531 90000=
07747,1997-08-01 03:00:00,24,1015.2,-1.2,61,16,15000,29.632,,,340,,,,,,,,,,,wg-a,,,,AAXX 01034 07747 12765 73416 10240 20160 30098 40152 58012 60006 82532 90300=
07747,1997-08-01 06:00:00,23,1015.2,-0.1,57,14,500,18.52,,,320,22.7,28.9,,,,,,,,,wg-a,,,,AAXX 01064 07747 02500 73210 10230 20140 30097 40152 57001 60006 81872 90600 333 10289 20227 60004=
07747,1997-08-01 09:00:00,27,1014.9,-0.2,45,14,500,25.928,,,330,,,,,,,,,,,wg-a,,,,AAXX 01094 07747 12600 23314 10270 20140 30095 40149 58002 60006 81180 90900=
07747,1997-08-01 12:00:00,29,1013.8,-1,35,12,500,31.484,,50.004,340,,,,,,,,,,,wg-a,,,,AAXX 01124 07747 12600 /3417 10290 20120 30085 40138 57010 60006 81180 91200 333 91027=
07747,1997-08-01 18:00:00,29,1012.8,0.2,31,10,500,35.188,,,330,23,31.1,,,,,,,,,wg-a,,,,AAXX 01184 07747 12/00 23319 10290 20100 30075 40128 53002 60006 81082 91800 333 10311 20230=
07747,1997-08-01 21:00:00,26,1014.5,1.6,34,9,500,35.188,,,330,,,,,,,,,,,wg-a,,,,AAXX 01214 07747 12/00 03319 10260 20090 30091 40145 51016 60006 80000 92100=
07747,1997-08-02 00:00:00,24,1015,0.5,44,11,500,31.484,,,320,,,,,,,,,,,wg-a,,,,AAXX 02004 07747 12/00 03217 10240 20110 30096 40150 50005 60006 80000 90000=
07747,1997-08-02 06:00:00,24,1015,1.1,47,12,60000,11.112,,,330,22.7,28.7,,,,,,,,,wg-a,,,,AAXX 02064 07747 02/86 13306 10240 20120 30096 40150 53011 60006 80001 90600 333 10287 20227 60004=
07747,1997-08-02 09:00:00,30,1014.9,0,35,13,60000,11.112,,27.78,360,,,,,,,,,,,wg-a,,,,AAXX 02094 07747 12786 /3606 10300 20130 30096 40149 50000 60006 81101 90900 333 91015=
07747,1997-08-02 12:00:00,33,1013.8,-1.1,32,14,60000,18.52,,,140,,,,,,,,,,,wg-a,,,,AAXX 02124 07747 12786 /1410 10330 20140 30085 40138 58011 60006 81101 91200=
07747,1997-08-02 15:00:00,31,1013.3,-0.5,36,14,50000,18.52,,,140,,,,,,,,,,,wg-a,,,,AAXX 02154 07747 12784 /1410 10310 20140 30080 40133 58005 60006 81140 91500=
07747,1997-08-02 18:00:00,29,1013.3,-0,43,15,40000,11.112,,,120,24.3,32.9,,,,,,,,,wg-a,,,,AAXX 02184 07747 12782 /1206 10290 20150 30080 40133 55000 60006 81440 91800 333 10329 20243=
07747,1997-08-02 21:00:00,24,1014.5,1.1,65,17,25000,7.408,,,280,,,,,,,,,,,wg-a,,,,AAXX 02214 07747 12/75 12804 10240 20170 30091 40145 53011 60006 81041 92100=
07747,1997-08-03 00:00:00,23,1014.6,0.1,65,16,25000,3.704,,,120,,,,,,,,,,,wg-a,,,,AAXX 03004 07747 12/75 01202 10230 20160 30092 40146 50001 60006 80000 90000=
07747,1997-08-03 03:00:00,21,1014.6,-0.1,73,16,25000,3.704,,,230,,,,,,,,,,,wg-a,,,,AAXX 03034 07747 12/75 02302 10210 20160 30091 40146 56001 60006 80000 90300=
07747,1997-08-03 06:00:00,24,1015.5,1,65,17,50000,7.408,,,20,20.1,28.8,,,,,,,,,wg-a,,,,AAXX 03064 07747 02/84 00204 10240 20170 30101 40155 53010 60006 80000 90600 333 10288 20201 60004=
07747,1997-08-03 09:00:00,29,1015.9,0.5,48,17,50000,11.112,,,110,,,,,,,,,,,wg-a,,,,AAXX 03094 07747 12/84 01106 10290 20170 30106 40159 53005 60006 80000 90900=
07747,1997-08-03 12:00:00,30,1015.7,-0.2,40,15,45000,18.52,,,130,,,,,,,,,,,wg-a,,,,AAXX 03124 07747 12783 /1310 10300 20150 30104 40157 58002 60006 81100 91200=
07747,1997-08-03 15:00:00,30,1014.7,-1,49,18,25000,18.52,,,100,,,,,,,,,,,wg-a,,,,AAXX 03154 07747 12775 /1010 10300 20180 30094 40147 56010 60006 81200 91500=
07747,1997-08-03 18:00:00,26,1014.7,-0.1,79,22,20000,11.112,,,70,23.7,30.9,,,,,,,,,wg-a,,,,AAXX 03184 07747 12570 /0706 10260 20220 30093 40147 55001 60006 81240 91800 333 10309 20237=
07747,1997-08-03 21:00:00,23,1015,0.3,94,22,7000,7.408,,,20,,,,,,,,,,,wg-a,,,,AAXX 03214 07747 12457 20204 10230 20220 30096 40150 52003 60006 82600 92100=
07747,1997-08-04 00:00:00,23,1015,-0,89,21,6000,11.112,,,70,,,,,,,,,,,wg-a,,,,AAXX 04004 07747 12456 20706 10230 20210 30096 40150 54000 60006 82600 90000=
07747,1997-08-04 03:00:00,22,1014.7,-0.3,94,21,6000,3.704,,,330,,,,,,,,,,,wg-a,,,,AAXX 04034 07747 12456 73302 10220 20210 30093 40147 58003 60006 876// 90300=
07747,1997-08-04 06:00:00,23,1015.5,0.8,89,21,6000,11.112,,,20,21.7,25.6,,,,,,,,,wg-a,,,,AAXX 04064 07747 02456 80206 10230 20210 30101 40155 53008 60006 886// 90600 333 10256 20217 60004=
07747,1997-08-04 09:00:00,25,1016,0.5,79,21,6000,14.816,,,50,,,,,,,,,,,wg-a,,,,AAXX 04094 07747 12456 70508 10250 20210 30106 40160 53005 60006 876// 90900=
07747,1997-08-04 12:00:00,25,1016.6,0.6,83,22,7000,14.816,,,70,,,,,,,,,,3,wg-a,,,,AAXX 04124 07747 12457 80708 10250 20220 30112 40166 51006 60006 70392 886// 91200=
07747,1997-08-04 15:00:00,25,1015.9,-0.7,83,22,6000,22.224,,,60,,,,,,,,,,,wg-a,,,,AAXX 04154 07747 12456 70612 10250 20220 30105 40159 55007 60006 876// 91500=
07747,1997-08-04 18:00:00,24,1015.3,-0.6,89,22,4800,14.816,,,90,23.2,26.8,,,,,,,,10,wg-a,,,,AAXX 04184 07747 02248 80908 10240 20220 30099 40153 55006 61000 71062 886// 91800 333 10268 20232 6100=
07747,1997-08-04 21:00:00,23,1015.7,0.4,94,22,4500,7.408,,,60,,,,,,,,,,10,wg-a,,,,AAXX 04214 07747 12245 80604 10230 20220 30103 40157 53004 60006 71022 886// 92100=
07747,1997-08-05 00:00:00,23,1015.6,-0.1,94,22,3500,11.112,,,30,,,,,,,,,,10,wg-a,,,,AAXX 05004 07747 12235 80306 10230 20220 30102 40156 58001 60006 71022 886// 90000=
07747,1997-08-05 03:00:00,23,1014.8,-0.8,94,22,4000,7.408,,,20,,,,,,,,,,,wg-a,,,,AAXX 05034 07747 12/40 /0204 10230 20220 30094 40148 58008 60006 90300=
07747,1997-08-05 06:00:00,23,1015,0.2,94,22,4000,7.408,,,30,22.5,23.5,,,,,,,,10,wg-a,,,,AAXX 05064 07747 02240 80304 10230 20220 30096 40150 53002 61000 71064 887// 90600 333 10235 20225 6000=
07747,1997-08-05 09:00:00,23,1015.6,0.6,94,22,4500,7.408,,,90,,,,,,,,,,60,wg-a,,,,AAXX 05094 07747 02145 80904 10230 20220 30102 40156 53006 61000 76062 887// 90900 333 ////=
07747,1997-08-05 12:00:00,25,1014.9,-0.7,89,23,8000,18.52,,,90,,,,,,,,,,60,wg-a,,,,AAXX 05124 07747 02258 80910 10250 20230 30095 40149 56007 61000 76062 881// 91200 333 6100=
07747,1997-08-05 15:00:00,27,1013.2,-1.6,58,18,9000,18.52,,,170,,,,,,,,,,17,wg-a,,,,AAXX 05154 07747 02359 81710 10270 20180 30079 40132 56016 61000 71796 8598/ 91500 333 ////=
07747,1997-08-05 18:00:00,24,1012.9,-0.4,78,20,10000,7.408,,,40,22.7,27.4,,,,,,,,2,wg-a,,,,AAXX 05184 07747 02460 70404 10240 20200 30075 40129 55004 60006 70296 8698/ 91800 333 10274 20227 61000=
07747,1997-08-05 21:00:00,22,1014,1,78,18,7000,3.704,,,290,,,,,,,,,,60,wg-a,,,,AAXX 05214 07747 02357 82902 10220 20180 30085 40140 51010 61000 76062 889// 92100 333 ////=
07747,1997-08-06 00:00:00,20,1014.2,0.2,88,18,75000,11.112,,,240,,,,,,,,,,1,wg-a,,,,AAXX 06004 07747 02389 /2406 10200 20180 30087 40142 50002 61000 70162 86900 90000 333 6100=
07747,1997-08-06 03:00:00,19,1013.8,-0.4,94,18,8000,3.704,,,270,,,,,,,,,,,wg-a,,,,AAXX 06034 07747 12458 62702 10190 20180 30083 40138 55004 60006 86600 90300=
07747,1997-08-06 06:00:00,21,1013.3,-0.5,88,19,15000,3.704,,,270,18.8,24.4,,,,,,,,,wg-a,,,,AAXX 06064 07747 02565 /2702 10210 20190 30078 40133 57005 60006 8158/ 90600 333 10244 20188 61000=
07747,1997-08-06 09:00:00,27,1013,-0.2,54,17,20000,3.704,,,120,,,,,,,,,,,wg-a,,,,AAXX 06094 07747 12670 31202 10270 20170 30076 40130 58002 60006 82180 90900=
07747,1997-08-06 12:00:00,28,1011.9,-1,58,19,20000,18.52,,,130,,,,,,,,,,,wg-a,,,,AAXX 06124 07747 12670 41310 10280 20190 30066 40119 57010 60006 84800 91200=
07747,1997-08-06 15:00:00,22,1011.9,-0.1,78,18,15000,3.704,,,280,,,,1,,,,,,80,wg-a,,,,AAXX 06154 07747 12665 72802 10220 20180 30065 40119 57001 60017 78098 879// 91500=
07747,1997-08-06 18:00:00,22,1011.1,-0.8,88,20,15000,3.704,,,360,20.2,28.8,,0,,,,,,17,wg-a,,,,AAXX 06184 07747 02465 73602 10220 20200 30057 40111 55008 60006 71798 8396/ 91800 333 10288 20202 60007=
07747,1997-08-06 21:00:00,20,1011.7,0.5,88,18,15000,7.408,,,10,,,,3,,,,,,29,wg-a,,,,AAXX 06214 07747 12465 70104 10200 20180 30062 40117 53005 60037 72996 8396/ 92100=
07747,1997-08-07 00:00:00,20,1011.8,0.1,94,19,12000,3.704,,,20,,,,,,,,,,1,wg-a,,,,AAXX 07004 07747 12562 30202 10200 20190 30063 40118 53001 60036 70196 82231 90000=
07747,1997-08-07 06:00:00,19,1011.8,0.3,94,18,10000,3.704,,,240,18.1,22.4,,,,,4,,,1,wg-a,,,,AAXX 07064 07747 02260 22402 10190 20180 30063 40118 52003 60006 70186 82630 90600 333 10224 20181 60044=
07747,1997-08-07 09:00:00,25,1011.9,0.2,69,19,9000,11.112,,,100,,,,,,,,,,,wg-a,,,,AAXX 07094 07747 12459 41006 10250 20190 30065 40119 52002 60006 83232 90900=
07747,1997-08-07 12:00:00,29,1010.6,-1.2,58,20,15000,25.928,,,140,,,,,,,,,,,wg-a,,,,AAXX 07124 07747 12465 41414 10290 20200 30053 40106 58012 60006 81240 91200=
07747,1997-08-07 15:00:00,27,1010.7,0.1,74,22,12000,35.188,,,130,,,,,,,,,,,wg-a,,,,AAXX 07154 07747 12462 71319 10270 20220 30054 40107 53001 60006 81242 91500=
07747,1997-08-07 18:00:00,25,1011,0.2,83,22,8000,14.816,,,60,18.8,29.5,,,,,,,,,wg-a,,,,AAXX 07184 07747 12458 /0608 10250 20220 30056 40110 53002 60006 82202 91800 333 10295 20188=
07747,1997-08-07 21:00:00,23,1012.8,1.8,94,22,6000,11.112,,,30,,,,,,,,,,,wg-a,,,,AAXX 07214 07747 12256 70306 10230 20220 30074 40128 51018 60006 872// 92100=
07747,1997-08-08 00:00:00,22,1013.7,0.9,100,22,6000,7.408,,,40,,,,,,,,,,,wg-a,,,,AAXX 08004 07747 12256 20404 10220 20220 30083 40137 51009 60006 82600 90000=
07747,1997-08-08 06:00:00,22,1015.6,1.1,94,21,2000,7.408,,,110,21.9,24.7,,,,,,,,10,wg-a,,,,AAXX 08064 07747 02220 /1104 10220 20210 30102 40156 53011 60006 71011 86600 90600 333 10247 20219 60004=
07747,1997-08-08 09:00:00,26,1016.9,1.3,74,21,6000,18.52,,,120,,,,,,,,,,,wg-a,,,,AAXX 08094 07747 12456 71210 10260 20210 30115 40169 53013 60006 86201 90900=
07747,1997-08-08 12:00:00,26,1016.6,-0.3,74,21,7000,18.52,,,100,,,,,,,,,,,wg-a,,,,AAXX 08124 07747 12457 71010 10260 20210 30112 40166 56003 60006 86202 91200=
07747,1997-08-08 15:00:00,26,1015.9,-0.7,74,21,8000,11.112,,,120,,,,,,,,,,,wg-a,,,,AAXX 08154 07747 12458 /1206 10260 20210 30105 40159 55007 60006 86800 91500=
07747,1997-08-08 18:00:00,24,1015.5,-0.4,78,20,12000,3.704,,,140,22.3,26.9,,,,,,,,,wg-a,,,,AAXX 08184 07747 12562 71402 10240 20200 30101 40155 55004 60006 82502 91800 333 10269 20223=
07747,1997-08-09 00:00:00,20,1016,-0.5,100,20,10000,3.704,,,170,,,,,,,,,,,wg-a,,,,AAXX 09004 07747 12/60 01702 10200 20200 30105 40160 58005 60006 80000 90000=
07747,1997-08-09 06:00:00,20,1016.8,1,94,19,8000,0,,,0,19.1,24.2,,,,,,,,,wg-a,,,,AAXX 09064 07747 02258 /0000 10200 20190 30113 40168 51010 60006 81600 90600 333 10242 20191 60004=
07747,1997-08-09 09:00:00,28,1016.9,0.2,48,16,10000,7.408,,,130,,,,,,,,,,,wg-a,,,,AAXX 09094 07747 12/60 /1304 10280 20160 30115 40169 51002 60006 90900=
07747,1997-08-09 12:00:00,31,1015.5,-1.3,40,16,10000,11.112,,,130,,,,,,,,,,,wg-a,,,,AAXX 09124 07747 12/60 /1306 10310 20160 30102 40155 58013 60006 91200=
07747,1997-08-09 15:00:00,30,1014.7,-0.8,40,15,20000,14.816,,,120,,,,,,,,,,,wg-a,,,,AAXX 09154 07747 12/70 01208 10300 20150 30094 40147 58008 60006 80000 91500=
07747,1997-08-09 18:00:00,28,1014,-0.8,42,14,25000,7.408,,,140,20.1,31.1,,,,,,,,,wg-a,,,,AAXX 09184 07747 12/75 61404 10280 20140 30086 40140 56008 60006 80002 91800 333 10311 20201=
07747,1997-08-09 21:00:00,24,1014.6,0.6,61,16,15000,7.408,,,270,,,,,,,,,,,wg-a,,,,AAXX 09214 07747 12565 /2704 10240 20160 30092 40146 53006 60006 82502 92100=
07747,1997-08-10 00:00:00,23,1014.6,-0,73,18,20000,7.408,,,250,,,,,,,,,,,wg-a,,,,AAXX 10004 07747 12670 /2504 10230 20180 30092 40146 54000 60006 81502 90000=
07747,1997-08-10 03:00:00,22,1013.8,-0.9,78,18,10000,11.112,,,30,,,,,,,,,,,wg-a,,,,AAXX 10034 07747 12660 /0306 10220 20180 30083 40138 56009 60006 81502 90300=
07747,1997-08-10 06:00:00,22,1014.9,1.1,78,18,10000,11.112,,,350,20.8,27.9,,,,,,,,,wg-a,,,,AAXX 10064 07747 02/60 13506 10220 20180 30094 40149 51011 60006 80001 90600 333 10279 20208 60004=
07747,1997-08-10 09:00:00,28,1014.5,-0.2,62,20,12000,11.112,,,90,,,,,,,,,,,wg-a,,,,AAXX 10094 07747 12662 10906 10280 20200 30092 40145 58002 60006 81100 90900=
07747,1997-08-10 12:00:00,28,1014.1,-0.4,66,21,12000,22.224,,,100,,,,,,,,,,,wg-a,,,,AAXX 10124 07747 12662 41012 10280 20210 30088 40141 58004 60006 81181 91200=
07747,1997-08-10 15:00:00,28,1012.8,-1.3,62,20,12000,22.224,,,120,,,,,,,,,,,wg-a,,,,AAXX 10154 07747 12662 61212 10280 20200 30075 40128 58013 60006 82181 91500=
07747,1997-08-10 18:00:00,25,1012.3,-0.6,89,23,10000,18.52,,,120,21.9,29.8,,,,,,,,,wg-a,,,,AAXX 10184 07747 12360 71210 10250 20230 30069 40123 55006 60006 87500 91800 333 10298 20219=
07747,1997-08-10 21:00:00,25,1012.1,-0.2,89,23,11000,11.112,,,40,,,,,,,,,,,wg-a,,,,AAXX 10214 07747 12/61 /0406 10250 20230 30067 40121 55002 60006 92100=
07747,1997-08-11 00:00:00,24,1011.7,-0.4,89,22,6000,18.52,,,20,,,,,,,,,,,wg-a,,,,AAXX 11004 07747 12/56 /0210 10240 20220 30063 40117 58004 60016 90000=
07747,1997-08-11 03:00:00,19,1009.5,-2.3,88,17,4000,29.632,,,310,,,,,,,,,,,wg-a,,,,AAXX 11034 07747 32/40 /3116 10190 20170 30040 40095 58023 90300=
07747,1997-08-11 06:00:00,20,1011.6,2.1,88,18,20000,7.408,,,140,17.7,25.4,,,,,14,,,3,wg-a,,,,AAXX 11064 07747 02470 71404 10200 20180 30061 40116 51021 60006 70396 8797/ 90600 333 10254 20177 60144=
07747,1997-08-11 09:00:00,20,1014.5,2.9,88,18,7000,11.112,,,230,,,,3,,,,,,60,wg-a,,,,AAXX 11094 07747 12357 82306 10200 20180 30090 40145 51029 60037 76062 8/87/ 90900=
07747,1997-08-11 12:00:00,24,1015,0.6,69,18,1500,14.816,,,330,,,,,,,,,,1,wg-a,,,,AAXX 11124 07747 02515 /3308 10240 20180 30096 40150 53006 60036 70162 86800 91200 333 61000=
07747,1997-08-11 18:00:00,21,1018.6,1.5,88,19,18000,14.816,,,10,19.5,25.1,,,,,,,,25,wg-a,,,,AAXX 11184 07747 02368 70108 10210 20190 30131 40186 53015 61000 72586 8588/ 91800 333 10251 20195 6003=
07747,1997-08-11 21:00:00,21,1020.5,1.9,83,18,20000,11.112,,,300,,,,,,,,,,,wg-a,,,,AAXX 11214 07747 12670 63006 10210 20180 30150 40205 53019 60006 83842 92100=
07747,1997-08-12 00:00:00,21,1020.6,0.1,88,19,20000,7.408,,,80,,,,,,,,,,,wg-a,,,,AAXX 12004 07747 12670 60804 10210 20190 30151 40206 50001 60006 84501 90000=
07747,1997-08-12 03:00:00,20,1020.7,0.1,88,18,20000,3.704,,,220,,,,,,,,,,,wg-a,,,,AAXX 12034 07747 12/70 02202 10200 20180 30152 40207 53001 60006 80000 90300=
07747,1997-08-12 06:00:00,20,1021.3,0.6,88,18,20000,11.112,,,280,18.5,22.1,,,,,12,,,,wg-a,,,,AAXX 12064 07747 02/70 12806 10200 20180 30158 40213 53006 60006 80001 90600 333 10221 20185 60124=
07747,1997-08-12 09:00:00,27,1021.7,0.5,54,17,20000,7.408,,,10,,,,,,,,,,,wg-a,,,,AAXX 12094 07747 12770 /0104 10270 20170 30163 40217 53005 60006 81101 90900=
07747,1997-08-12 12:00:00,28,1021,-0.5,55,18,20000,11.112,,,100,,,,,,,,,,,wg-a,,0,,AAXX 12124 07747 12670 /1006 10280 20180 30159 40210 58005 60006 8/708 91200 333 4/9999=
07747,1997-08-12 15:00:00,28,1020.6,-0.6,45,15,500,18.52,,,130,,,,,,,,,,,wg-a,,,,AAXX 12154 07747 12600 /1310 10280 20150 30152 40206 57006 60006 81102 91500=
07747,1997-08-12 18:00:00,26,1020.4,-0.2,54,16,500,11.112,,,110,20.3,28.9,,,,,,,,,wg-a,,,,AAXX 12184 07747 12/00 01106 10260 20160 30150 40204 55002 60006 80000 91800 333 10289 20203=
07747,1997-08-12 21:00:00,22,1021.1,0.6,78,18,500,7.408,,,10,,,,,,,,,,,wg-a,,,,AAXX 12214 07747 12/00 00104 10220 20180 30156 40211 53006 60006 80000 92100=
07747,1997-08-13 00:00:00,20,1021.3,0.2,88,18,0,3.704,,,290,,,,,,,,,,,wg-a,,,,AAXX 13004 07747 12/// /2902 10200 20180 30158 40213 50002 60006 90000=
07747,1997-08-13 03:00:00,19,1021.2,-0.2,88,17,500,3.704,,,300,,,,,,,,,,,wg-a,,,,AAXX 13034 07747 12/00 03002 10190 20170 30156 40212 57002 60006 80000 90300=
07747,1997-08-13 06:00:00,20,1022.2,1.1,88,18,500,3.704,,,270,18.4,25.7,,,,,,,,,wg-a,,,,AAXX 13064 07747 02/00 12702 10200 20180 30167 40222 53011 60006 81040 90600 333 10257 20184 60004=
07747,1997-08-13 09:00:00,27,1022.4,0.3,62,19,500,3.704,,,110,,,,,,,,,,,wg-a,,,,AAXX 13094 07747 12700 /1102 10270 20190 30170 40224 51003 60006 81540 90900=
07747,1997-08-13 12:00:00,29,1021.5,-0.9,62,21,500,14.816,,,100,,,,,,,,,,,wg-a,,,,AAXX 13124 07747 12700 /1008 10290 20210 30161 40215 56009 60006 81100 91200=
07747,1997-08-13 18:00:00,30,1020.6,-0.3,52,19,20000,3.704,,,50,20.2,31.3,,,,,,,,,wg-a,,,,AAXX 13184 07747 12770 /0502 10300 20190 30153 40206 55003 60006 81202 91800 333 10313 20202=
07747,1997-08-13 21:00:00,27,1022,1.3,58,18,25000,11.112,,,310,,,,,,,,,,,wg-a,,,,AAXX 13214 07747 12/75 03106 10270 20180 30166 40220 53013 60006 80000 92100=
07747,1997-08-14 00:00:00,25,1021.7,-0.3,69,19,25000,11.112,,,310,,,,,,,,,,,wg-a,,,,AAXX 14004 07747 12/75 03106 10250 20190 30163 40217 57003 60006 80000 90000=
07747,1997-08-14 06:00:00,23,1021.4,0.4,69,17,10000,11.112,,,250,21.3,30.8,,,,,,,,,wg-a,,,,AAXX 14064 07747 02/60 /2506 10230 20170 30159 40214 52004 60006 90600 333 10308 20213 60004=
07747,1997-08-14 09:00:00,31,1021.1,-0.1,49,19,10000,3.704,,,360,,,,,,,,,,,wg-a,,,,AAXX 14094 07747 12/60 /3602 10310 20190 30158 40211 58001 60006 90900=
07747,1997-08-14 12:00:00,33,1020.2,-0.9,39,17,40000,14.816,,,110,,,,,,,,,,,wg-a,,,,AAXX 14124 07747 12782 /1108 10330 20170 30149 40202 58009 60006 81200 91200=
07747,1997-08-14 15:00:00,31,1019.2,-1,46,18,40000,14.816,,,140,,,,,,,,,,,wg-a,,,,AAXX 14154 07747 12782 /1408 10310 20180 30139 40192 57010 60006 81200 91500=
07747,1997-08-14 18:00:00,29,1018.6,-0.6,52,18,500,7.408,,,120,23.5,33.4,,,,,,,,,wg-a,,,,AAXX 14184 07747 12700 41204 10290 20180 30133 40186 56006 60006 81241 91800 333 10334 20235=
07747,1997-08-14 21:00:00,26,1019,0.3,70,20,500,0,,,0,,,,,,,,,,,wg-a,,,,AAXX 14214 07747 12/00 40000 10260 20200 30136 40190 53003 60006 80001 92100=
07747,1997-08-15 00:00:00,23,1018.7,-0.4,83,20,25000,3.704,,,80,,,,,,,,,,,wg-a,,,,AAXX 15004 07747 12/75 40802 10230 20200 30132 40187 58004 60006 80001 90000=
07747,1997-08-15 03:00:00,22,1018.4,-0.3,94,21,12000,7.408,,,300,,,,,,,,,,,wg-a,,,,AAXX 15034 07747 12262 43004 10220 20210 30129 40184 58003 60006 82601 90300=
07747,1997-08-15 06:00:00,22,1019.1,0.7,88,20,25000,3.704,,,230,20.5,29.4,,,,,,,,,wg-a,,,,AAXX 15064 07747 02/75 22302 10220 20200 30136 40191 53007 60006 80001 90600 333 10294 20205 60004=
07747,1997-08-15 12:00:00,31,1018.9,-0.5,59,22,15000,11.112,,,90,,,,,,,,,,,wg-a,,,,AAXX 15124 07747 12665 40906 10310 20220 30136 40189 58005 60006 81282 91200=
07747,1997-08-15 15:00:00,31,1017.5,-1.4,49,19,15000,14.816,,,160,,,,,,,,,,,wg-a,,,,AAXX 15154 07747 12665 /1608 10310 20190 30122 40175 58014 60006 83982 91500=
07747,1997-08-15 18:00:00,28,1016.6,-1,62,20,11000,3.704,,,80,22.4,31.2,,,,,,,,,wg-a,,,,AAXX 15184 07747 12/61 /0802 10280 20200 30112 40166 56010 60006 91800 333 10312 20224=
07747,1997-08-15 21:00:00,26,1018,1.4,74,21,10000,11.112,,,10,,,,,,,,,,,wg-a,,,,AAXX 15214 07747 12560 80106 10260 20210 30126 40180 51014 60006 889// 92100=
07747,1997-08-16 00:00:00,24,1016.6,-1.4,83,21,10000,7.408,,,160,,,,,,,,,,,wg-a,,,,AAXX 16004 07747 12560 61604 10240 20210 30112 40166 55014 60006 86900 90000=
07747,1997-08-16 03:00:00,24,1016.8,0.2,94,23,10000,3.704,,,310,,,,,,,,,,,wg-a,,,,AAXX 16034 07747 12560 63102 10240 20230 30114 40168 53002 60006 86800 90300=
07747,1997-08-16 06:00:00,24,1017,0.2,89,22,10000,7.408,,,270,22.8,27.6,,,,,,,,,wg-a,,,,AAXX 16064 07747 02560 /2704 10240 20220 30116 40170 53002 60006 83202 90600 333 10276 20228 60004=
07747,1997-08-16 09:00:00,29,1016.8,-0.1,58,20,12000,7.408,,,30,,,,,,,,,,,wg-a,,,,AAXX 16094 07747 12562 /0304 10290 20200 30115 40168 55001 60006 81132 90900=
07747,1997-08-16 12:00:00,28,1016.2,-0.6,70,22,10000,14.816,,,80,,,,,,,,,,,wg-a,,,,AAXX 16124 07747 12560 /0808 10280 20220 30109 40162 58006 60006 85902 91200=
07747,1997-08-16 15:00:00,20,1018.1,1.7,94,19,15000,3.704,,,320,,,,20,,,,,,17,wg-a,,,,AAXX 16154 07747 12265 83202 10200 20190 30126 40181 50017 60207 71796 8499/ 91500=
07747,1997-08-16 18:00:00,22,1016.8,-1.3,88,20,500,11.112,,,290,18.7,30.1,,,,,,,,1,wg-a,,,,AAXX 16184 07747 12600 52906 10220 20200 30113 40168 58013 60006 70196 83982 91800 333 10301 20187=
07747,1997-08-16 21:00:00,23,1017.6,0.8,78,19,500,7.408,,,240,,,,,,,,,,,wg-a,,,,AAXX 16214 07747 12600 32404 10230 20190 30121 40176 53008 60006 81182 92100=
07747,1997-08-17 00:00:00,23,1017.5,0,73,18,500,18.52,,,320,,,,,,,,,,,wg-a,,,,AAXX 17004 07747 12/00 23210 10230 20180 30121 40175 50000 60006 80002 90000=
07747,1997-08-17 03:00:00,21,1017.6,0,83,18,500,11.112,,,280,,,,,,,,,,,wg-a,,,,AAXX 17034 07747 12/00 22806 10210 20180 30121 40176 50000 60006 80002 90300=
07747,1997-08-17 06:00:00,22,1018.1,0.5,78,18,500,7.408,,,230,20.9,23.6,,,,,20,,,,wg-a,,,,AAXX 17064 07747 02/00 12304 10220 20180 30126 40181 53005 60006 80001 90600 333 10236 20209 60204=
07747,1997-08-17 09:00:00,28,1018.3,0.3,58,19,40000,14.816,,,330,,,,,,,,,,,wg-a,,,,AAXX 17094 07747 12682 23308 10280 20190 30129 40183 52003 60006 81101 90900=
07747,1997-08-17 12:00:00,30,1017.4,-0.8,46,17,500,11.112,,,40,,,,,,,,,,,wg-a,,,,AAXX 17124 07747 12700 30406 10300 20170 30121 40174 58008 60006 81131 91200=
07747,1997-08-17 15:00:00,31,1015.5,-1.9,49,19,500,11.112,,,130,,,,,,,,,,,wg-a,,,,AAXX 17154 07747 12700 41306 10310 20190 30102 40155 58019 60006 82231 91500=
07747,1997-08-17 18:00:00,27,1016.2,0.6,62,19,500,7.408,,,220,22.2,31.5,,,,,,,,,wg-a,,,,AAXX 17184 07747 12600 32204 10270 20190 30108 40162 53006 60006 82981 91800 333 10315 20222=
07747,1997-08-18 00:00:00,22,1016.7,-0.7,78,18,500,11.112,,,280,,,,,,,,,,,wg-a,,,,AAXX 18004 07747 12/00 62806 10220 20180 30112 40167 56007 60006 80002 90000=
07747,1997-08-18 03:00:00,22,1016.3,-0.4,83,19,20000,7.408,,,260,,,,,,,,,,,wg-a,,,,AAXX 18034 07747 12/70 72604 10220 20190 30108 40163 56004 60006 87010 90300=
07747,1997-08-18 06:00:00,23,1016.5,0.3,83,20,20000,3.704,,,230,21.4,27,,,,,,,,,wg-a,,,,AAXX 18064 07747 02/70 72302 10230 20200 30111 40165 53003 60006 83082 90600 333 10270 20214 60004=
07747,1997-08-18 09:00:00,29,1017.2,0.8,52,18,12000,7.408,,,220,,,,,,,,,,,wg-a,,,,AAXX 18094 07747 12662 52204 10290 20180 30119 40172 51008 60006 81232 90900=
07747,1997-08-18 12:00:00,31,1016.2,-1,43,17,12000,18.52,,,120,,,,,,,,,,,wg-a,,,,AAXX 18124 07747 12662 41210 10310 20170 30109 40162 58010 60006 82933 91200=
07747,1997-08-18 15:00:00,25,1016,-0.3,74,20,9000,7.408,,,320,,,,,,,,,,29,wg-a,,,,AAXX 18154 07747 02659 73204 10250 20200 30106 40160 58003 61000 72996 84963 91500 333 ////=
07747,1997-08-18 18:00:00,24,1015.8,-0.2,74,19,25000,14.816,,,260,22.7,30.8,,,,,,,,3,wg-a,,,,AAXX 18184 07747 12675 72608 10240 20190 30104 40158 56002 60006 70396 83962 91800 333 10308 20227=
07747,1997-08-18 21:00:00,22,1016.5,0.6,78,18,15000,7.408,,,260,,,,,,,,,,,wg-a,,,,AAXX 18214 07747 12565 72604 10220 20180 30110 40165 51006 60006 83962 92100=
07747,1997-08-19 00:00:00,23,1016.4,-0,65,16,15000,11.112,,,280,,,,,,,,,,,wg-a,,,,AAXX 19004 07747 12565 72806 10230 20160 30110 40164 54000 60006 82132 90000=
07747,1997-08-19 03:00:00,23,1015.9,-0.6,69,17,15000,11.112,,,260,,,,,,,,,,,wg-a,,,,AAXX 19034 07747 12565 /2606 10230 20170 30104 40159 58006 60006 81132 90300=
07747,1997-08-19 06:00:00,24,1015.8,-0,65,17,20000,11.112,,,270,21.9,24.9,,,,,,,,,wg-a,,,,AAXX 19064 07747 02670 62706 10240 20170 30104 40158 55000 60006 81832 90600 333 10249 20219 61000=
07747,1997-08-19 09:00:00,28,1016.3,0.5,51,17,40000,11.112,,,320,,,,,,,,,,,wg-a,,,,AAXX 19094 07747 12682 43206 10280 20170 30109 40163 51005 60006 82832 90900=
07747,1997-08-19 12:00:00,30,1015.9,-0.3,46,17,500,14.816,,,120,,,,,,,,,,,wg-a,,,,AAXX 19124 07747 12600 /1208 10300 20170 30106 40159 56003 60006 82832 91200=
07747,1997-08-19 15:00:00,30,1014.9,-1,46,17,500,14.816,,,130,,,,,,,,,,,wg-a,,,,AAXX 19154 07747 12600 /1308 10300 20170 30096 40149 58010 60006 82932 91500=
07747,1997-08-19 18:00:00,27,1014.6,-0.4,54,17,20000,7.408,,,110,23.7,30.9,,,,,,,,,wg-a,,,,AAXX 19184 07747 12670 71104 10270 20170 30092 40146 55004 60006 81932 91800 333 10309 20237=
07747,1997-08-19 21:00:00,24,1015.5,0.9,69,18,12000,11.112,,,280,,,,,,,,,,,wg-a,,,,AAXX 19214 07747 12/62 52806 10240 20180 30101 40155 51009 60006 82032 92100=
07747,1997-08-20 00:00:00,22,1015.3,-0.3,83,19,15000,7.408,,,260,,,,,,,,,,,wg-a,,,,AAXX 20004 07747 12/65 12604 10220 20190 30098 40153 56003 60006 80001 90000=
07747,1997-08-20 03:00:00,20,1015.1,-0.2,94,19,12000,7.408,,,270,,,,,,,,,,,wg-a,,,,AAXX 20034 07747 12/62 02704 10200 20190 30096 40151 57002 60006 80000 90300=
07747,1997-08-20 06:00:00,21,1016.4,1.3,83,18,15000,3.704,,,310,20.2,27.3,,,,,,,,,wg-a,,,,AAXX 20064 07747 02565 /3102 10210 20180 30109 40164 53013 60006 81100 90600 333 10273 20202 60004=
07747,1997-08-20 09:00:00,27,1017.2,0.9,70,21,15000,3.704,,,60,,,,,,,,,,,wg-a,,,,AAXX 20094 07747 12465 /0602 10270 20210 30118 40172 52009 60006 81100 90900=
07747,1997-08-20 12:00:00,29,1016.5,-0.6,62,21,15000,11.112,,,80,,,,,,,,,,,wg-a,,,,AAXX 20124 07747 12565 20806 10290 20210 30112 40165 58006 60006 82100 91200=
07747,1997-08-20 15:00:00,29,1015.6,-0.9,66,22,15000,14.816,,,110,,,,,,,,,,,wg-a,,,,AAXX 20154 07747 12665 21108 10290 20220 30103 40156 58009 60006 82900 91500=
07747,1997-08-20 18:00:00,26,1016,0.3,74,21,10000,7.408,,,120,21.3,29.5,,,,,,,,,wg-a,,,,AAXX 20184 07747 12660 /1204 10260 20210 30106 40160 53003 60006 83903 91800 333 10295 20213=
07747,1997-08-20 21:00:00,25,1016.6,0.6,83,22,9000,3.704,,,30,,,,,,,,,,,wg-a,,,,AAXX 20214 07747 12/59 /0302 10250 20220 30112 40166 51006 60006 92100=
07747,1997-08-21 00:00:00,23,1017.4,0.8,94,22,9000,0,,,0,,,,,,,,,,,wg-a,,,,AAXX 21004 07747 12659 /0000 10230 20220 30120 40174 53008 60006 81903 90000=
07747,1997-08-21 03:00:00,22,1018,0.5,94,21,8000,7.408,,,300,,,,,,,,,,,wg-a,,,,AAXX 21034 07747 12/58 33004 10220 20210 30125 40180 51005 60006 80002 90300=
07747,1997-08-21 06:00:00,22,1019.2,1.2,88,20,11000,7.408,,,250,21.5,26.1,,,,,,,,,wg-a,,,,AAXX 21064 07747 02/61 /2504 10220 20200 30137 40192 51012 60006 90600 333 10261 20215 60004=
07747,1997-08-21 07:00:00,24,1019.2,1.2,83,21,11000,7.408,,,250,21.5,26.1,,,,,,,,,wg-a,,,,AAXX 21074 07747 02/61 /2504 10240 20210 30137 40192 51012 60006 90700 333 10261 20215 60004=
07747,1997-08-21 09:00:00,25,1019.4,0.3,83,22,8000,3.704,,,40,,,,,,,,,,,wg-a,,,,AAXX 21094 07747 12458 70402 10250 20220 30140 40194 52003 60006 8388/ 90900=
07747,1997-08-21 12:00:00,27,1019.4,0,74,22,8000,7.408,,,40,,,,,,,,,,,wg-a,,,,AAXX 21124 07747 12458 80404 10270 20220 30140 40194 50000 60006 8488/ 91200=
07747,1997-08-21 18:00:00,27,1018.2,0.1,70,21,12000,7.408,,,140,21.7,28.5,,,,,,,,,wg-a,,,,AAXX 21184 07747 12562 31404 10270 20210 30128 40182 51001 60006 81282 91800 333 10285 20217=
07747,1997-08-22 00:00:00,23,1019.9,0.4,94,22,15000,7.408,,,20,,,,,,,,,,,wg-a,,,,AAXX 22004 07747 12/65 30204 10230 20220 30144 40199 51004 60006 81031 90000=
07747,1997-08-22 06:00:00,21,1020.3,0.8,94,20,10000,0,,,0,20.6,26.8,,,,,,,,,wg-a,,,,AAXX 22064 07747 02260 20000 10210 20200 30148 40203 53008 60006 81631 90600 333 10268 20206 60004=
07747,1997-08-22 09:00:00,26,1021,0.8,70,20,8000,11.112,,,80,,,,,,,,,,,wg-a,,,,AAXX 22094 07747 12258 /0806 10260 20200 30156 40210 51008 60006 81602 90900=
07747,1997-08-22 12:00:00,28,1020.2,-0.8,66,21,8000,11.112,,,110,,,,,,,,,,,wg-a,,,,AAXX 22124 07747 12458 /1106 10280 20210 30148 40202 58008 60006 82302 91200=
07747,1997-08-22 15:00:00,29,1018.9,-1.3,52,18,10000,11.112,,,120,,,,,,,,,,,wg-a,,,,AAXX 22154 07747 12560 /1206 10290 20180 30135 40189 58013 60006 82902 91500=
07747,1997-08-22 18:00:00,27,1018.5,-0.4,74,22,15000,11.112,,,130,21.1,29.1,,,,,,,,,wg-a,,,,AAXX 22184 07747 12565 31306 10270 20220 30131 40185 56004 60006 81202 91800 333 10291 20211=
07747,1997-08-22 21:00:00,24,1019.1,0.6,89,22,9000,3.704,,,170,,,,,,,,,,,wg-a,,,,AAXX 22214 07747 12/59 /1702 10240 20220 30137 40191 50006 60006 92100=
07747,1997-08-23 00:00:00,22,1018.8,-0.4,94,21,9000,7.408,,,260,,,,,,,,,,,wg-a,,,,AAXX 23004 07747 12/59 22604 10220 20210 30133 40188 58004 60006 81032 90000=
07747,1997-08-23 03:00:00,21,1018.2,-0.6,88,19,9000,3.704,,,290,,,,,,,,,,,wg-a,,,,AAXX 23034 07747 12/59 32902 10210 20190 30127 40182 58006 60006 81032 90300=
07747,1997-08-23 06:00:00,20,1018.7,0.5,94,19,9000,3.704,,,250,19.2,26.6,,,,,,,,,wg-a,,,,AAXX 23064 07747 02459 /2502 10200 20190 30132 40187 53005 60006 81630 90600 333 10266 20192 60004=
07747,1997-08-23 09:00:00,27,1019.1,0.5,70,21,9000,7.408,,,110,,,,,,,,,,,wg-a,,,,AAXX 23094 07747 12459 41104 10270 20210 30137 40191 53005 60006 8/100 90900=
07747,1997-08-23 12:00:00,28,1018.3,-0.8,66,21,11000,18.52,,,120,,,,,,,,,,,wg-a,,,,AAXX 23124 07747 12661 /1210 10280 20210 30129 40183 58008 60006 81200 91200=
07747,1997-08-23 15:00:00,29,1016.7,-1.5,55,19,14000,22.224,,,120,,,,,,,,,,,wg-a,,,,AAXX 23154 07747 12664 /1212 10290 20190 30114 40167 56015 60006 81200 91500=
07747,1997-08-23 18:00:00,27,1016,-0.8,66,20,12000,11.112,,,140,20.1,29.7,,,,,,,,,wg-a,,,,AAXX 23184 07747 12662 /1406 10270 20200 30106 40160 56008 60006 81203 91800 333 10297 20201=
07747,1997-08-23 21:00:00,24,1016.3,0.3,78,20,500,7.408,,,330,,,,,,,,,,,wg-a,,,,AAXX 23214 07747 12400 23304 10240 20200 30109 40163 50003 60006 82500 92100=
07747,1997-08-24 00:00:00,21,1016.5,0.1,88,19,9000,3.704,,,230,,,,,,,,,,,wg-a,,,,AAXX 24004 07747 12459 /2302 10210 20190 30110 40165 53001 60006 81500 90000=
07747,1997-08-24 06:00:00,19,1016.5,0.6,94,18,8000,3.704,,,290,18.3,27,,,,,,,,,wg-a,,,,AAXX 24064 07747 02258 22902 10190 20180 30110 40165 53006 60006 82600 90600 333 10270 20183 60004=
07747,1997-08-24 09:00:00,27,1016.5,0.1,58,18,10000,7.408,,,110,,,,,,,,,,,wg-a,,,,AAXX 24094 07747 12/60 01104 10270 20180 30111 40165 50001 60006 80000 90900=
07747,1997-08-24 12:00:00,30,1015.2,-1.2,55,20,10000,25.928,,,120,,,,,,,,,,,wg-a,,,,AAXX 24124 07747 12/60 01214 10300 20200 30099 40152 58012 60006 80000 91200=
07747,1997-08-24 15:00:00,28,1013.7,-1.5,62,20,12000,29.632,,,140,,,,,,,,,,,wg-a,,,,AAXX 24154 07747 12662 /1416 10280 20200 30084 40137 58015 60006 81200 91500=
07747,1997-08-24 18:00:00,27,1012.7,-1.1,58,18,12000,14.816,,,140,19.2,30.3,,,,,,,,,wg-a,,,,AAXX 24184 07747 12562 /1408 10270 20180 30073 40127 56011 60006 81200 91800 333 10303 20192=
07747,1997-08-24 21:00:00,23,1013,0.3,78,19,9000,7.408,,,20,,,,,,,,,,,wg-a,,,,AAXX 24214 07747 12/59 00204 10230 20190 30076 40130 51003 60006 80000 92100=
07747,1997-08-25 00:00:00,21,1012.6,-0.5,88,19,8000,3.704,,,20,,,,,,,,,,,wg-a,,,,AAXX 25004 07747 12/58 00202 10210 20190 30071 40126 56005 60006 80000 90000=
07747,1997-08-25 03:00:00,20,1011.1,-1.5,83,17,8000,3.704,,,100,,,,,,,,,,,wg-a,,,,AAXX 25034 07747 12/58 01002 10200 20170 30056 40111 56015 60006 80000 90300=
07747,1997-08-25 06:00:00,21,1011.2,0.1,83,18,12000,7.408,,,320,19,26.6,,,,,,,,,wg-a,,,,AAXX 25064 07747 02562 /3204 10210 20180 30057 40112 53001 60006 81834 90600 333 10266 20190 60004=
07747,1997-08-25 09:00:00,28,1011.5,0.5,58,19,15000,25.928,,,200,,,,,,,,,,,wg-a,,,,AAXX 25094 07747 12565 /2014 10280 20190 30062 40115 51005 60006 82903 90900=
07747,1997-08-25 12:00:00,28,1011,-0.5,51,17,15000,25.928,,,200,,,,,,,,,,,wg-a,,,,AAXX 25124 07747 12565 72014 10280 20170 30057 40110 55005 60006 83943 91200=
07747,1997-08-25 15:00:00,25,1010.2,-0.9,65,18,15000,18.52,,,190,,,,,,,,,,,wg-a,,,,AAXX 25154 07747 12565 /1910 10250 20180 30048 40102 58009 60006 82943 91500=
07747,1997-08-25 18:00:00,24,1010.6,0.4,74,19,15000,7.408,,,90,21.3,29.6,,,,,,,,,wg-a,,,,AAXX 25184 07747 12665 70904 10240 20190 30052 40106 53004 60006 8282/ 91800 333 10296 20213=
07747,1997-08-26 00:00:00,20,1012.6,0.2,100,20,0,11.112,,,260,,,,,,,,,,,wg-a,,,,AAXX 26004 07747 12/// /2606 10200 20200 30071 40126 50002 60026 90000=
07747,1997-08-26 03:00:00,20,1011.7,-0.9,94,19,15000,11.112,,,270,,,,1,,,,,,21,wg-a,,,,AAXX 26034 07747 12665 72706 10200 20190 30062 40117 56009 60017 72162 8587/ 90300=
07747,1997-08-26 06:00:00,20,1012.3,0.6,88,18,20000,3.704,,,80,19.5,24.4,,1,,,4,,,21,wg-a,,,,AAXX 26064 07747 02670 70802 10200 20180 30068 40123 53006 60044 72162 8487/ 90600 333 10244 20195 60017=
07747,1997-08-26 09:00:00,22,1012.7,0.5,78,18,500,3.704,,,20,,,,,,,,,,,wg-a,,,,AAXX 26094 07747 12500 /0202 10220 20180 30073 40127 51005 60006 83871 90900=
07747,1997-08-26 12:00:00,25,1012.2,-0.5,61,17,40000,11.112,,,10,,,,,,,,,,,wg-a,,,,AAXX 26124 07747 12582 50106 10250 20170 30068 40122 58005 60006 84801 91200=
07747,1997-08-26 18:00:00,24,1010.8,-0,74,19,11000,7.408,,,150,19.8,27.9,,,,,,,,,wg-a,,,,AAXX 26184 07747 12/61 /1504 10240 20190 30054 40108 55000 60006 91800 333 10279 20198=
07747,1997-08-26 21:00:00,21,1010.6,-0.2,88,19,15000,7.408,,,310,,,,,,,,,,,wg-a,,,,AAXX 26214 07747 12665 33104 10210 20190 30052 40106 58002 60006 81833 92100=
07747,1997-08-27 00:00:00,20,1009.8,-0.9,94,19,11000,11.112,,,270,,,,,,,,,,,wg-a,,,,AAXX 27004 07747 12/61 /2706 10200 20190 30043 40098 58009 60006 90000=
07747,1997-08-27 06:00:00,19,1008.3,-0.4,94,18,9000,3.704,,,230,18,24.1,,,,,,,,,wg-a,,,,AAXX 27064 07747 02359 62302 10190 20180 30028 40083 56004 60006 82632 90600 333 10241 20180 60004=
07747,1997-08-27 09:00:00,25,1008.2,-0,69,19,9000,3.704,,,30,,,,,,,,,,,wg-a,,,,AAXX 27094 07747 12559 50302 10250 20190 30028 40082 54000 60006 83132 90900=
07747,1997-08-27 12:00:00,27,1006.7,-1.4,62,19,9000,7.408,,,80,,,,,,,,,,,wg-a,,,,AAXX 27124 07747 12559 60804 10270 20190 30014 40067 58014 60006 83102 91200=
07747,1997-08-27 15:00:00,28,1004.1,-2.6,58,19,15000,18.52,,,70,,,,,,,,,,,wg-a,,,,AAXX 27154 07747 12565 40710 10280 20190 39988 40041 58026 60006 81132 91500=
07747,1997-08-27 18:00:00,27,1003.9,-0.2,74,22,20000,7.408,,,90,18.8,28.5,,,,,,,,,wg-a,,,,AAXX 27184 07747 12570 50904 10270 20220 39986 40039 55002 60006 81232 91800 333 10285 20188=
07747,1997-08-27 21:00:00,22,1006.5,2.5,69,16,20000,22.224,,,330,,,,,,,,,,,wg-a,,,,AAXX 27214 07747 12670 /3312 10220 20160 30011 40065 50025 60006 82531 92100=
07747,1997-08-28 00:00:00,21,1006.7,0.2,78,17,0,3.704,,,300,,,,,,,,,,,wg-a,,,,AAXX 28004 07747 12/// /3002 10210 20170 30013 40067 51002 60006 90000=
07747,1997-08-28 06:00:00,16,1008.3,1.7,82,13,9000,31.484,,53.708,330,16.1,26.6,,,,,,,,63,wg-a,,,,AAXX 28064 07747 02559 83317 10160 20130 30028 40083 53017 61000 76362 878// 90600 333 10266 20161 6001 91029=
07747,1997-08-28 09:00:00,18,1010.7,2.4,68,12,25000,14.816,,,340,,,,,,,,,,1,wg-a,,,,AAXX 28094 07747 02475 73408 10180 20120 30052 40107 53024 61000 70162 87870 90900 333 ////=
07747,1997-08-28 12:00:00,22,1011.6,0.9,46,10,25000,29.632,,,330,,,,,,,,,,3,wg-a,,,,AAXX 28124 07747 02575 73316 10220 20100 30061 40116 53009 61000 70362 87800 91200 333 ////=
07747,1997-08-28 15:00:00,22,1012.5,0.9,43,9,18000,22.224,,,330,,,,,,,,,,15,wg-a,,,,AAXX 28154 07747 12568 73312 10220 20090 30070 40125 53009 60006 71522 87804 91500=
07747,1997-08-28 18:00:00,20,1015.1,2.6,49,9,500,31.484,,62.968,310,16.3,23.1,,,,,,,,,wg-a,,,,AAXX 28184 07747 12500 73117 10200 20090 30096 40151 53026 60006 84832 91800 333 10231 20163 91034=
07747,1997-08-28 21:00:00,18,1018.7,3.5,49,7,25000,14.816,,,310,,,,,,,,,,,wg-a,,,,AAXX 28214 07747 12575 33108 10180 20070 30131 40187 51035 60006 83800 92100=
07747,1997-08-29 00:00:00,19,1019.7,1,46,7,25000,22.224,,,310,,,,,,,,,,,wg-a,,,,AAXX 29004 07747 12575 43112 10190 20070 30141 40197 51010 60006 84800 90000=
07747,1997-08-29 03:00:00,18,1020.2,0.5,52,8,25000,11.112,,,320,,,,,,,,,,,wg-a,,,,AAXX 29034 07747 12575 33206 10180 20080 30146 40202 53005 60006 83800 90300=
07747,1997-08-29 06:00:00,19,1021.1,0.9,49,8,50000,14.816,,,320,16.1,19.6,,,,,,,,,wg-a,,,,AAXX 29064 07747 02684 /3208 10190 20080 30155 40211 53009 60006 81101 90600 333 10196 20161 61000=
07747,1997-08-29 12:00:00,25,1020.8,-0.8,39,10,60000,22.224,,,340,,,,,,,,,,,wg-a,,,,AAXX 29124 07747 12686 /3412 10250 20100 30154 40208 58008 60006 81201 91200=
07747,1997-08-29 15:00:00,26,1020.1,-0.7,34,9,50000,14.816,,,10,,,,,,,,,,,wg-a,,,,AAXX 29154 07747 12784 30108 10260 20090 30147 40201 56007 60006 81141 91500=
07747,1997-08-29 18:00:00,23,1020.6,0.4,50,12,35000,7.408,,,190,19.2,26.6,,,,,,,,,wg-a,,,,AAXX 29184 07747 12681 71904 10230 20120 30151 40206 53004 60006 85804 91800 333 10266 20192=
07747,1997-08-30 00:00:00,18,1022.1,-0.1,77,14,18000,7.408,,,270,,,,,,,,,,,wg-a,,,,AAXX 30004 07747 12/68 02704 10180 20140 30165 40221 58001 60006 80000 90000=
07747,1997-08-30 03:00:00,15,1021.3,-0.8,88,13,18000,11.112,,,230,,,,,,,,,,,wg-a,,,,AAXX 30034 07747 12/68 02306 10150 20130 30157 40213 58008 60006 80000 90300=
07747,1997-08-30 06:00:00,16,1021.7,-0.2,82,13,35000,7.408,,,220,14.7,23.1,,,,,,,,,wg-a,,,,AAXX 30064 07747 02/81 02204 10160 20130 30155 40217 55002 60006 80000 90600 333 10231 20147 60004=
07747,1997-08-30 09:00:00,26,1020.8,-0.1,42,12,25000,3.704,,,240,,,,,,,,,,,wg-a,,,,AAXX 30094 07747 12/75 02402 10260 20120 30154 40208 55001 60006 80000 90900=
07747,1997-08-30 12:00:00,28,1019.9,-0.9,42,14,25000,14.816,,,150,,,,,,,,,,,wg-a,,,,AAXX 30124 07747 12/75 01508 10280 20140 30145 40199 58009 60006 80000 91200=
07747,1997-08-30 15:00:00,29,1018.7,-1.2,31,10,500,18.52,,,140,,,,,,,,,,,wg-a,,,,AAXX 30154 07747 12/00 01410 10290 20100 30133 40187 58012 60006 80000 91500=
07747,1997-08-30 18:00:00,26,1017.7,-1,45,13,500,7.408,,,70,16.3,29.3,,,,,,,,,wg-a,,,,AAXX 30184 07747 12/00 10704 10260 20130 30123 40177 58010 60006 80001 91800 333 10293 20163=
07747,1997-08-30 21:00:00,21,1017.8,0,60,13,500,11.112,,,270,,,,,,,,,,,wg-a,,,,AAXX 30214 07747 12/00 02706 10210 20130 30123 40178 50000 60006 80000 92100=
07747,1997-08-31 00:00:00,17,1017,-0.9,82,14,500,0,,,0,,,,,,,,,,,wg-a,,,,AAXX 31004 07747 12/00 00000 10170 20140 30114 40170 58009 60006 80000 90000=
07747,1997-08-31 06:00:00,20,1015.8,-0,88,18,10000,11.112,,,340,16.1,25.8,,,,,,,,,wg-a,,,,AAXX 31064 07747 02260 23406 10200 20180 30103 40158 55000 60006 82600 90600 333 10258 20161 60004=
07747,1997-08-31 12:00:00,27,1016.1,-0.1,62,19,15000,22.224,,,70,,,,,,,,,,,wg-a,,,,AAXX 31124 07747 12465 20712 10270 20190 30107 40161 58001 60006 82100 91200=
07747,1997-08-31 15:00:00,28,1015,-1,58,19,20000,18.52,,,90,,,,,,,,,,,wg-a,,,,AAXX 31154 07747 12570 30910 10280 20190 30097 40150 56010 60006 82202 91500=
07747,1997-08-31 18:00:00,25,1015.1,-0,65,18,20000,11.112,,,60,19.9,28.5,,,,,,,,,wg-a,,,,AAXX 31184 07747 12/70 20606 10250 20180 30097 40151 55000 60006 80001 91800 333 10285 20199=
07747,1997-08-31 21:00:00,22,1016.8,1.6,83,19,20000,11.112,,,260,,,,,,,,,,,wg-a,,,,AAXX 31214 07747 12/70 32606 10220 20190 30113 40168 51016 60006 81031 92100=
07747,1997-09-01 00:00:00,20,1017.2,0.4,94,19,20000,7.408,,,230,,,,,,,,,,,wg-a,,,,AAXX 01004 07747 12/70 32304 10200 20190 30117 40172 52004 60006 81031 90000=
07747,1997-09-01 03:00:00,20,1016.4,-0.8,94,19,20000,3.704,,,260,,,,,,,,,,,wg-a,,,,AAXX 01034 07747 12470 72602 10200 20190 30109 40164 57008 60006 875// 90300=
07747,1997-09-01 06:00:00,21,1015.6,-0.8,88,19,12000,3.704,,,60,19.8,24.9,,,,,,,,,wg-a,,,,AAXX 01064 07747 02462 70602 10210 20190 30101 40156 56008 60006 83882 90600 333 10249 20198 60004=
07747,1997-09-01 09:00:00,24,1015,-0.5,74,19,12000,7.408,,,70,,,,,,,,,,,wg-a,,,,AAXX 01094 07747 12462 70704 10240 20190 30096 40150 58005 60006 82881 90900=
07747,1997-09-01 12:00:00,27,1016.1,1.1,54,17,11000,14.816,,,160,,,,,,,,,,,wg-a,,,,AAXX 01124 07747 12/61 /1608 10270 20170 30107 40161 51011 60006 91200=
07747,1997-09-01 15:00:00,24,1014.6,-1.5,83,21,15000,18.52,,,130,,,,,,,,,,,wg-a,,,,AAXX 01154 07747 12665 71310 10240 20210 30092 40146 56015 60006 8227/ 91500=
07747,1997-09-01 18:00:00,23,1015.1,0.5,94,22,8000,11.112,,,130,21,27.8,,,,,,,,80,wg-a,,,,AAXX 01184 07747 02458 81306 10230 20220 30097 40151 50005 61000 78098 8597/ 91800 333 10278 20210 6001=
07747,1997-09-01 21:00:00,22,1015.6,0.4,94,21,8000,14.816,,,140,,,,5,,,,,,25,wg-a,,,,AAXX 01214 07747 12358 71408 10220 20210 30101 40156 51004 60057 72598 8597/ 92100=
07747,1997-09-02 00:00:00,18,1018.8,3.1,88,16,15000,7.408,,,280,,,,7,,,,,,29,wg-a,,,,AAXX 02004 07747 02465 72804 10180 20160 30132 40188 51031 60116 72998 879// 90000 333 60077=
07747,1997-09-02 03:00:00,18,1019,0.2,77,14,20000,11.112,,,300,,,,7,,,,,,,wg-a,,,,AAXX 02034 07747 12670 43006 10180 20140 30134 40190 50002 60077 84800 90300=
07747,1997-09-02 06:00:00,17,1019.5,0.5,77,13,25000,7.408,,,320,17,22.9,,,,,11,,,,wg-a,,,,AAXX 02064 07747 02475 33204 10170 20130 30139 40195 53005 60006 81832 90600 333 10229 20170 60114=
07747,1997-09-02 09:00:00,19,1019.8,0.4,68,13,25000,38.892,,,330,,,,,,,,,,,wg-a,,,,AAXX 02094 07747 12575 63321 10190 20130 30143 40198 51004 60006 83832 90900=
07747,1997-09-02 12:00:00,22,1020.2,0.4,50,11,25000,35.188,,,330,,,,,,,,,,,wg-a,,,,AAXX 02124 07747 12575 73319 10220 20110 30147 40202 51004 60056 86832 91200=
07747,1997-09-02 18:00:00,21,1019.4,-0,53,11,500,25.928,,,340,17.2,23.6,,,,,,,,,wg-a,,,,AAXX 02184 07747 12500 /3414 10210 20110 30139 40194 55000 60006 81242 91800 333 10236 20172=
07747,1997-09-02 21:00:00,19,1021.2,1.7,64,12,500,25.928,,,330,,,,,,,,,,,wg-a,,,,AAXX 02214 07747 12600 /3314 10190 20120 30156 40212 51017 60006 8154/ 92100=
07747,1997-09-03 00:00:00,18,1020.9,-0.3,68,12,0,18.52,,,10,,,,,,,,,,,wg-a,,,,AAXX 03004 07747 12/// /0110 10180 20120 30153 40209 58003 60006 90000=
07747,1997-09-03 03:00:00,18,1019.5,-1.4,64,11,500,18.52,,,320,,,,,,,,,,,wg-a,,,,AAXX 03034 07747 12600 /3210 10180 20110 30139 40195 57014 60006 8154/ 90300=
07747,1997-09-03 06:00:00,17,1019.5,-0,68,11,60000,11.112,,,230,16,21,,,,,,,,,wg-a,,,,AAXX 03064 07747 02/86 12306 10170 20110 30139 40195 55000 60006 81041 90600 333 10210 20160 60004=
07747,1997-09-03 09:00:00,24,1019.6,0.2,47,12,60000,11.112,,,350,,,,,,,,,,,wg-a,,,,AAXX 03094 07747 12/86 13506 10240 20120 30141 40196 51002 60006 81041 90900=
07747,1997-09-03 12:00:00,26,1018.4,-1.1,45,13,60000,14.816,,,100,,,,,,,,,,,wg-a,,,,AAXX 03124 07747 12786 /1008 10260 20130 30130 40184 56011 60006 81141 91200=
07747,1997-09-03 18:00:00,24,1018.2,0.3,54,14,50000,7.408,,,220,17.3,27,,,,,,,,,wg-a,,,,AAXX 03184 07747 12784 /2204 10240 20140 30127 40182 52003 60006 81800 91800 333 10270 20173=
07747,1997-09-03 21:00:00,19,1019.7,1.5,83,16,11000,3.704,,,250,,,,,,,,,,,wg-a,,,,AAXX 03214 07747 12/61 /2502 10190 20160 30142 40197 51015 60006 92100=
07747,1997-09-04 00:00:00,18,1019.4,-0.4,83,15,20000,11.112,,,230,,,,,,,,,,,wg-a,,,,AAXX 04004 07747 12/70 02306 10180 20150 30138 40194 58004 60006 80000 90000=
07747,1997-09-04 06:00:00,17,1019.8,1,88,15,60000,3.704,,,270,15.6,23.7,,,,,,,,,wg-a,,,,AAXX 04064 07747 02/86 32702 10170 20150 30142 40198 52010 60006 80001 90600 333 10237 20156 60004=
07747,1997-09-04 09:00:00,25,1020.1,0.5,54,15,60000,3.704,,,200,,,,,,,,,,,wg-a,,,,AAXX 04094 07747 12/86 32002 10250 20150 30147 40201 51005 60006 80001 90900=
07747,1997-09-04 18:00:00,25,1018.4,0.4,61,17,60000,7.408,,,120,16.6,28.2,,,,,,,,,wg-a,,,,AAXX 04184 07747 12786 31204 10250 20170 30130 40184 53004 60006 81501 91800 333 10282 20166=
07747,1997-09-04 21:00:00,20,1019.4,0.9,83,17,40000,11.112,,,240,,,,,,,,,,,wg-a,,,,AAXX 04214 07747 12/82 02406 10200 20170 30139 40194 51009 60006 80000 92100=
07747,1997-09-05 00:00:00,20,1018.7,-0.7,78,16,40000,11.112,,,260,,,,,,,,,,,wg-a,,,,AAXX 05004 07747 12/82 02606 10200 20160 30132 40187 57007 60006 80000 90000=
07747,1997-09-05 03:00:00,18,1018.2,-0.6,83,15,40000,3.704,,,320,,,,,,,,,,,wg-a,,,,AAXX 05034 07747 12/82 03202 10180 20150 30126 40182 56006 60006 80000 90300=
07747,1997-09-05 06:00:00,17,1019,0.8,88,15,60000,0,,,0,16.4,24.7,,,,,,,,,wg-a,,,,AAXX 05064 07747 02/86 10000 10170 20150 30134 40190 53008 60006 80001 90600 333 10247 20164 60004=
07747,1997-09-05 12:00:00,27,1018.7,-0.8,58,18,20000,14.816,,,110,,,,,,,,,,,wg-a,,,,AAXX 05124 07747 12370 /1108 10270 20180 30133 40187 58008 60006 81601 91200=
07747,1997-09-05 15:00:00,26,1017.5,-1.2,70,20,15000,14.816,,,80,,,,,,,,,,,wg-a,,,,AAXX 05154 07747 12765 /0808 10260 20200 30121 40175 58012 60006 81100 91500=
07747,1997-09-05 18:00:00,24,1017.7,0.2,83,21,15000,22.224,,,50,17.3,27,,,,,,,,,wg-a,,,,AAXX 05184 07747 12765 /0512 10240 20210 30123 40177 53002 60006 81300 91800 333 10270 20173=
07747,1997-09-05 21:00:00,21,1019.3,1.5,94,20,15000,7.408,,,260,,,,,,,,,,,wg-a,,,,AAXX 05214 07747 12765 /2604 10210 20200 30138 40193 51015 60006 81400 92100=
07747,1997-09-06 00:00:00,20,1019.9,0.6,100,20,11000,0,,,0,,,,,,,,,,,wg-a,,,,AAXX 06004 07747 12/61 /0000 10200 20200 30144 40199 52006 60006 90000=
07747,1997-09-06 03:00:00,18,1020.1,0.1,100,18,15000,7.408,,,230,,,,,,,,,,,wg-a,,,,AAXX 06034 07747 12365 /2304 10180 20180 30145 40201 53001 60006 81600 90300=
07747,1997-09-06 06:00:00,19,1020.8,0.7,94,18,12000,3.704,,,270,17.9,23.6,,,,,,,,,wg-a,,,,AAXX 06064 07747 02462 /2702 10190 20180 30152 40208 53007 60006 81581 90600 333 10236 20179 60004=
07747,1997-09-06 09:00:00,26,1021.2,0.6,65,19,12000,7.408,,,20,,,,,,,,,,,wg-a,,,,AAXX 06094 07747 12562 /0204 10260 20190 30158 40212 51006 60006 81181 90900=
07747,1997-09-06 12:00:00,27,1020.9,-0.3,62,19,12000,11.112,,,130,,,,,,,,,,,wg-a,,,,AAXX 06124 07747 12662 21306 10270 20190 30155 40209 58003 60006 82281 91200=
07747,1997-09-06 18:00:00,25,1020.4,0.4,69,19,12000,3.704,,,230,18.6,28.2,,,,,,,,,wg-a,,,,AAXX 06184 07747 12662 32302 10250 20190 30150 40204 51004 60006 82581 91800 333 10282 20186=
07747,1997-09-06 21:00:00,23,1021.6,1.1,73,18,10000,7.408,,,330,,,,,,,,,,,wg-a,,,,AAXX 06214 07747 12660 23304 10230 20180 30161 40216 51011 60006 82540 92100=
07747,1997-09-07 00:00:00,23,1021.6,-0,73,18,10000,7.408,,,320,,,,,,,,,,,wg-a,,,,AAXX 07004 07747 12660 /3204 10230 20180 30161 40216 54000 60006 81500 90000=
07747,1997-09-07 03:00:00,23,1021.1,-0.5,73,18,10000,11.112,,,300,,,,,,,,,,,wg-a,,,,AAXX 07034 07747 12660 53006 10230 20180 30156 40211 58005 60006 82540 90300=
07747,1997-09-07 06:00:00,23,1022.2,1.1,73,18,15000,11.112,,,310,22,25.1,,,,,,,,,wg-a,,,,AAXX 07064 07747 02865 73106 10230 20180 30167 40222 53011 60006 86530 90600 333 10251 20220 60004=
07747,1997-09-07 09:00:00,26,1023.3,1.2,61,18,15000,14.816,,,330,,,,,,,,,,,wg-a,,,,AAXX 07094 07747 12565 /3308 10260 20180 30179 40233 51012 60006 81850 90900=
07747,1997-09-07 12:00:00,28,1022.4,-0.9,48,16,12000,25.928,,,330,,,,,,,,,,,wg-a,,,,AAXX 07124 07747 12662 /3314 10280 20160 30170 40224 57009 60006 81100 91200=
07747,1997-09-07 15:00:00,29,1021.1,-1.3,45,16,12000,25.928,,,350,,,,,,,,,,,wg-a,,,,AAXX 07154 07747 12662 /3514 10290 20160 30157 40211 56013 60006 81200 91500=
07747,1997-09-07 18:00:00,27,1021.6,0.5,48,15,12000,22.224,,,340,22.9,29.9,,,,,,,,,wg-a,,,,AAXX 07184 07747 12662 23412 10270 20150 30162 40216 53005 60006 81933 91800 333 10299 20229=
07747,1997-09-07 21:00:00,24,1023,1.3,57,15,25000,22.224,,,310,,,,,,,,,,,wg-a,,,,AAXX 07214 07747 12675 /3112 10240 20150 30175 40230 51013 60006 81580 92100=
07747,1997-09-08 00:00:00,23,1022.9,-0.1,53,13,25000,11.112,,,310,,,,,,,,,,,wg-a,,,,AAXX 08004 07747 12/75 03106 10230 20130 30174 40229 56001 60006 80000 90000=
07747,1997-09-08 03:00:00,21,1022.5,-0.4,60,13,25000,7.408,,,330,,,,,,,,,,,wg-a,,,,AAXX 08034 07747 12/75 03304 10210 20130 30170 40225 56004 60006 80000 90300=
07747,1997-09-08 06:00:00,21,1023.1,0.6,60,13,500,7.408,,,270,19.2,26.5,,,,,,,,,wg-a,,,,AAXX 08064 07747 02/00 02704 10210 20130 30176 40231 53006 60006 80000 90600 333 10265 20192 60004=
07747,1997-09-08 12:00:00,28,1022.5,-0.9,40,13,500,14.816,,,330,,,,,,,,,,,wg-a,,,,AAXX 08124 07747 12600 /3308 10280 20130 30171 40225 57009 60006 81100 91200=
07747,1997-09-08 15:00:00,30,1021.1,-1.4,27,9,500,11.112,,,320,,,,,,,,,,,wg-a,,,,AAXX 08154 07747 12600 /3206 10300 20090 30157 40211 56014 60006 81100 91500=
07747,1997-09-08 18:00:00,26,1021.6,0.5,45,13,500,11.112,,,310,21.1,29.8,,,,,,,,,wg-a,,,,AAXX 08184 07747 12600 /3106 10260 20130 30162 40216 53005 60006 81830 91800 333 10298 20211=
07747,1997-09-08 21:00:00,23,1022.1,0.4,44,10,20000,14.816,,,320,,,,,,,,,,,wg-a,,,,AAXX 08214 07747 12/70 03208 10230 20100 30166 40221 50004 60006 80000 92100=
07747,1997-09-09 03:00:00,21,1021,-0.8,53,11,20000,11.112,,,260,,,,,,,,,,,wg-a,,,,AAXX 09034 07747 12/70 02606 10210 20110 30155 40210 56008 60006 80000 90300=
07747,1997-09-09 06:00:00,18,1021.1,-0,73,13,500,11.112,,,240,15.9,25.5,,,,,,,,,wg-a,,,,AAXX 09064 07747 02/00 12406 10180 20130 30155 40211 55000 60006 80001 90600 333 10255 20159 60004=
07747,1997-09-09 09:00:00,26,1020.8,-0.1,45,13,40000,18.52,,,330,,,,,,,,,,,wg-a,,,,AAXX 09094 07747 12/82 13310 10260 20130 30154 40208 57001 60006 80001 90900=
07747,1997-09-09 12:00:00,30,1019.2,-1.6,31,11,40000,11.112,,,330,,,,,,,,,,,wg-a,,,,AAXX 09124 07747 12/82 03306 10300 20110 30138 40192 58016 60006 80000 91200=
07747,1997-09-09 18:00:00,27,1017,-0.2,39,12,40000,14.816,,,310,17.9,31.2,,,,,,,,,wg-a,,,,AAXX 09184 07747 12882 /3108 10270 20120 30116 40170 55002 60006 81100 91800 333 10312 20179=
07747,1997-09-10 00:00:00,22,1017.3,-0.7,57,13,500,14.816,,,320,,,,,,,,,,,wg-a,,,,AAXX 10004 07747 12/00 03208 10220 20130 30118 40173 58007 60006 80000 90000=
07747,1997-09-10 03:00:00,21,1015.8,-1.5,60,13,500,11.112,,,300,,,,,,,,,,,wg-a,,,,AAXX 10034 07747 12/00 03006 10210 20130 30103 40158 58015 60006 80000 90300=
07747,1997-09-10 06:00:00,23,1015.3,-0.5,53,13,60000,14.816,,,320,20.3,27,,,,,,,,,wg-a,,,,AAXX 10064 07747 02586 /3208 10230 20130 30098 40153 56005 60006 81100 90600 333 10270 20203 60004=
07747,1997-09-10 09:00:00,27,1015.1,-0.1,42,13,60000,25.928,,,330,,,,,,,,,,,wg-a,,,,AAXX 10094 07747 12686 /3314 10270 20130 30097 40151 56001 60006 81100 90900=
07747,1997-09-10 12:00:00,31,1014.3,-0.7,29,11,60000,18.52,,,330,,,,,,,,,,,wg-a,,,,AAXX 10124 07747 12686 /3310 10310 20110 30090 40143 57007 60006 81100 91200=
07747,1997-09-10 18:00:00,26,1014.1,0.7,48,14,40000,7.408,,,150,22.5,32.8,,,,,,,,,wg-a,,,,AAXX 10184 07747 12/82 01504 10260 20140 30087 40141 51007 60006 80000 91800 333 10328 20225=
07747,1997-09-11 00:00:00,20,1015.9,0.3,68,14,500,3.704,,,70,,,,,,,,,,,wg-a,,,,AAXX 11004 07747 12/00 00702 10200 20140 30104 40159 52003 60006 80000 90000=
07747,1997-09-11 03:00:00,18,1016,-0,77,14,20000,0,,,0,,,,,,,,,,,wg-a,,,,AAXX 11034 07747 12/70 00000 10180 20140 30104 40160 55000 60006 80000 90300=
07747,1997-09-11 06:00:00,17,1016.3,0.3,88,15,12000,3.704,,,330,15.3,26.1,,,,,,,,,wg-a,,,,AAXX 11064 07747 02/62 03302 10170 20150 30107 40163 53003 60006 80000 90600 333 10261 20153 60004=
07747,1997-09-11 09:00:00,24,1017,0.9,61,16,15000,7.408,,,60,,,,,,,,,,,wg-a,,,,AAXX 11094 07747 12/65 00604 10240 20160 30116 40170 51009 60006 80000 90900=
07747,1997-09-11 12:00:00,25,1016,-1,65,18,12000,18.52,,,70,,,,,,,,,,,wg-a,,,,AAXX 11124 07747 12562 20710 10250 20180 30106 40160 58010 60006 82100 91200=
07747,1997-09-11 15:00:00,25,1015.1,-0.9,61,17,10000,18.52,,,110,,,,,,,,,,,wg-a,,,,AAXX 11154 07747 12460 21110 10250 20170 30097 40151 56009 60006 82100 91500=
07747,1997-09-11 18:00:00,22,1014.5,-0.6,83,19,9000,11.112,,,80,16.7,26,,,,,,,,,wg-a,,,,AAXX 11184 07747 12459 40806 10220 20190 30091 40145 56006 60006 82180 91800 333 10260 20167=
07747,1997-09-12 00:00:00,21,1014.4,-0.5,88,19,8000,7.408,,,10,,,,,,,,,,,wg-a,,,,AAXX 12004 07747 12358 /0104 10210 20190 30089 40144 58005 60006 85600 90000=
07747,1997-09-12 03:00:00,20,1013.6,-0.8,100,20,6000,7.408,,,320,,,,,,,,,,,wg-a,,,,AAXX 12034 07747 12256 /3204 10200 20200 30081 40136 58008 60006 86600 90300=
07747,1997-09-12 06:00:00,20,1013.7,0.1,100,20,300,3.704,,,270,19.2,22.1,,,,,,,,41,wg-a,,,,AAXX 12064 07747 02103 82702 10200 20200 30082 40137 53001 60006 74142 876// 90600 333 10221 20192 60004=
07747,1997-09-12 09:00:00,25,1013.5,-0.1,79,21,500,7.408,,,90,,,,,,,,,,3,wg-a,,,,AAXX 12094 07747 12400 /0904 10250 20210 30081 40135 57001 60006 70341 86600 90900=
07747,1997-09-12 12:00:00,28,1011.5,-1.9,70,22,8000,29.632,,,140,,,,,,,,,,1,wg-a,,,,AAXX 12124 07747 12558 41416 10280 20220 30062 40115 58019 60006 70141 82280 91200=
07747,1997-09-12 18:00:00,24,1010.7,0.9,89,22,500,18.52,,,30,20.2,28,,,,,,,,,wg-a,,,,AAXX 12184 07747 12400 70310 10240 20220 30053 40107 50009 60006 82282 91800 333 10280 20202=
07747,1997-09-13 00:00:00,24,1013.2,0.3,78,20,500,7.408,,,360,,,,,,,,,,,wg-a,,,,AAXX 13004 07747 12400 73604 10240 20200 30078 40132 50003 60006 876// 90000=
07747,1997-09-13 06:00:00,21,1013.1,0.5,69,15,20000,31.484,,,330,21,24.1,,,,,,,,,wg-a,,,,AAXX 13064 07747 02470 73317 10210 20150 30076 40131 53005 60006 875// 90600 333 10241 20210 60004=
07747,1997-09-13 09:00:00,22,1015.2,2.1,65,15,20000,31.484,,,320,,,,,,,,,,,wg-a,,,,AAXX 13094 07747 12570 73217 10220 20150 30097 40152 53021 60006 875// 90900=
07747,1997-09-13 12:00:00,22,1015.3,0.1,65,15,20000,35.188,,53.708,330,,,,,,,,,,,wg-a,,,,AAXX 13124 07747 12570 73319 10220 20150 30098 40153 52001 60006 878// 91200 333 91029=
07747,1997-09-13 15:00:00,20,1016.4,1.1,78,16,20000,14.816,,,350,,,,0,,,,,,61,wg-a,,,,AAXX 13154 07747 12570 73508 10200 20160 30109 40164 53011 60007 76162 878// 91500=
07747,1997-09-13 18:00:00,18,1018.8,2.3,88,16,10000,7.408,,,270,18,23.1,,,,,,,,60,wg-a,,,,AAXX 13184 07747 02260 82704 10180 20160 30132 40188 51023 61000 76062 8587/ 91800 333 10231 20180 6002=
07747,1997-09-14 00:00:00,17,1019.8,-0.5,63,10,15000,14.816,,,330,,,,,,,,,,2,wg-a,,,,AAXX 14004 07747 12565 83308 10170 20100 30142 40198 55005 60016 70262 878// 90000=
07747,1997-09-14 03:00:00,17,1019.8,0,52,7,20000,18.52,,,350,,,,,,,,,,,wg-a,,,,AAXX 14034 07747 12570 33510 10170 20070 30142 40198 50000 60006 83800 90300=
07747,1997-09-14 06:00:00,16,1020.8,1,51,6,40000,18.52,,,330,15.4,18,,,,,2,,,,wg-a,,,,AAXX 14064 07747 02582 53310 10160 20060 30152 40208 53010 60006 81832 90600 333 10180 20154 60024=
07747,1997-09-14 12:00:00,23,1020.1,-1.4,25,2,40000,22.224,,,320,,,,,,,,,,,wg-a,,,,AAXX 14124 07747 12582 23212 10230 20020 30146 40201 58014 60006 81102 91200=
07747,1997-09-14 15:00:00,24,1018.5,-1.6,24,2,40000,25.928,,,350,,,,,,,,,,,wg-a,,,,AAXX 14154 07747 12582 43514 10240 20020 30130 40185 56016 60006 81102 91500=
07747,1997-09-14 18:00:00,20,1019.4,0.9,35,4,40000,22.224,,,340,16.2,24.6,,,,,,,,,wg-a,,,,AAXX 14184 07747 12682 73412 10200 20040 30139 40194 53009 60006 81542 91800 333 10246 20162=
07747,1997-09-14 21:00:00,16,1021.2,1.7,51,6,25000,11.112,,,300,,,,,,,,,,,wg-a,,,,AAXX 14214 07747 12/75 63006 10160 20060 30156 40212 51017 60006 81042 92100=
07747,1997-09-15 00:00:00,14,1021.3,0,58,6,25000,14.816,,,260,,,,,,,,,,,wg-a,,,,AAXX 15004 07747 12/75 52608 10140 20060 30156 40213 50000 60006 81042 90000=
07747,1997-09-15 03:00:00,13,1020.6,-0.7,67,7,25000,3.704,,,250,,,,,,,,,,,wg-a,,,,AAXX 15034 07747 12475 42502 10130 20070 30149 40206 56007 60006 81502 90300=
07747,1997-09-15 06:00:00,14,1020.8,0.2,67,8,25000,7.408,,,270,12.2,20.2,,,,,,,,,wg-a,,,,AAXX 15064 07747 02/75 52704 10140 20080 30151 40208 53002 60006 83042 90600 333 10202 20122 60004=
07747,1997-09-15 09:00:00,21,1022.1,1.5,38,6,25000,3.704,,,140,,,,,,,,,,,wg-a,,,,AAXX 15094 07747 12675 /1402 10210 20060 30166 40221 51015 60006 81842 90900=
07747,1997-09-15 12:00:00,22,1021.8,-0.3,41,8,500,11.112,,,120,,,,,,,,,,,wg-a,,,,AAXX 15124 07747 12500 /1206 10220 20080 30163 40218 58003 60006 85102 91200=
07747,1997-09-15 18:00:00,20,1021.9,1,83,17,15000,7.408,,,60,13.8,23,,,,,,,,,wg-a,,,,AAXX 15184 07747 12565 20604 10200 20170 30164 40219 52010 60006 81801 91800 333 10230 20138=
07747,1997-09-15 21:00:00,19,1023,1,88,17,9000,7.408,,,290,,,,,,,,,,,wg-a,,,,AAXX 15214 07747 12459 32904 10190 20170 30174 40230 52010 60006 83200 92100=
07747,1997-09-16 00:00:00,15,1023,0,94,14,9000,7.408,,,260,,,,,,,,,,,wg-a,,,,AAXX 16004 07747 12459 /2604 10150 20140 30174 40230 50000 60006 81500 90000=
07747,1997-09-16 03:00:00,14,1022.4,-0.7,94,13,9000,7.408,,,260,,,,,,,,,,,wg-a,,,,AAXX 16034 07747 12459 /2604 10140 20130 30167 40224 58007 60006 81500 90300=
07747,1997-09-16 06:00:00,14,1023,0.6,94,13,2000,7.408,,,260,12.9,20.2,,,,,,,,40,wg-a,,,,AAXX 16064 07747 02020 42604 10140 20130 30173 40230 53006 60006 74040 84600 90600 333 10202 20129 60004=
07747,1997-09-16 09:00:00,22,1023.3,0.5,73,17,20000,7.408,,,120,,,,,,,,,,,wg-a,,,,AAXX 16094 07747 12570 21204 10220 20170 30178 40233 51005 60006 82200 90900=
07747,1997-09-16 15:00:00,24,1020.8,-1.6,54,14,20000,29.632,,,150,,,,,,,,,,,wg-a,,,,AAXX 16154 07747 12570 /1516 10240 20140 30153 40208 56016 60006 81202 91500=
07747,1997-09-16 18:00:00,21,1021,0.2,53,11,20000,14.816,,,150,13.8,25.2,,,,,,,,,wg-a,,,,AAXX 16184 07747 12/70 41508 10210 20110 30155 40210 53002 60006 80002 91800 333 10252 20138=
07747,1997-09-16 21:00:00,17,1022.6,1.5,72,12,15000,7.408,,,340,,,,,,,,,,,wg-a,,,,AAXX 16214 07747 12/65 33404 10170 20120 30170 40226 51015 60006 80002 92100=
07747,1997-09-17 00:00:00,12,1022.8,0.1,88,10,20000,3.704,,,320,,,,,,,,,,,wg-a,,,,AAXX 17004 07747 12/70 03202 10120 20100 30171 40228 53001 60006 80000 90000=
07747,1997-09-17 06:00:00,12,1023.3,0.7,94,11,18000,3.704,,,270,10.4,20.8,,,,,,,,,wg-a,,,,AAXX 17064 07747 02468 /2702 10120 20110 30176 40233 53007 60006 81102 90600 333 10208 20104 60004=
07747,1997-09-17 12:00:00,23,1023.4,-0.6,61,15,12000,14.816,,,110,,,,,,,,,,,wg-a,,,,AAXX 17124 07747 12562 /1108 10230 20150 30179 40234 58006 60006 85200 91200=
07747,1997-09-17 15:00:00,23,1022.7,-0.7,65,16,15000,18.52,,,110,,,,,,,,,,,wg-a,,,,AAXX 17154 07747 12565 31110 10230 20160 30172 40227 56007 60006 83200 91500=
07747,1997-09-17 18:00:00,21,1022.8,0.1,78,17,12000,7.408,,,120,11.6,24.3,,,,,,,,,wg-a,,,,AAXX 17184 07747 12462 /1204 10210 20170 30173 40228 53001 60006 81800 91800 333 10243 20116=
07747,1997-09-18 00:00:00,15,1023.8,0.2,94,14,20000,3.704,,,290,,,,,,,,,,,wg-a,,,,AAXX 18004 07747 12470 22902 10150 20140 30181 40238 51002 60006 81532 90000=
07747,1997-09-18 06:00:00,12,1023.7,0.5,100,12,500,3.704,,,250,11.7,20.8,,,,,,,,41,wg-a,,,,AAXX 18064 07747 02405 52502 10120 20120 30180 40237 53005 60006 74141 84602 90600 333 10208 20117 60004=
07747,1997-09-18 09:00:00,21,1024.3,0.8,78,17,500,7.408,,,80,,,,,,,,,,28,wg-a,,,,AAXX 18094 07747 12400 40804 10210 20170 30188 40243 51008 60006 72841 84100 90900=
07747,1997-09-18 12:00:00,24,1023.2,-1.1,61,16,15000,14.816,,,100,,,,,,,,,,2,wg-a,,,,AAXX 18124 07747 12565 /1008 10240 20160 30177 40232 58011 60006 70241 81100 91200=
07747,1997-09-18 15:00:00,24,1022,-1.2,57,15,20000,14.816,,,120,,,,,,,,,,,wg-a,,,,AAXX 18154 07747 12570 /1208 10240 20150 30165 40220 56012 60006 81100 91500=
07747,1997-09-18 18:00:00,21,1022.1,0.1,73,16,20000,3.704,,,130,12.2,24.9,,,,,,,,,wg-a,,,,AAXX 18184 07747 12/70 11302 10210 20160 30166 40221 53001 60006 80001 91800 333 10249 20122=
07747,1997-09-19 00:00:00,14,1022.1,-0.7,88,12,9000,11.112,,,270,,,,,,,,,,,wg-a,,,,AAXX 19004 07747 12/59 02706 10140 20120 30164 40221 58007 60006 80000 90000=
07747,1997-09-19 03:00:00,13,1021.7,-0.4,88,11,9000,7.408,,,130,,,,,,,,,,,wg-a,,,,AAXX 19034 07747 12/59 /1304 10130 20110 30160 40217 55004 60006 90300=
07747,1997-09-19 06:00:00,11,1022,0.3,87,9,20000,3.704,,,280,10.6,20.7,,,,,,,,,wg-a,,,,AAXX 19064 07747 02/70 02802 10110 20090 30163 40220 53003 60006 80000 90600 333 10207 20106 60004=
07747,1997-09-19 09:00:00,23,1022.3,0.5,41,9,20000,3.704,,,50,,,,,,,,,,,wg-a,,,,AAXX 19094 07747 12/70 00502 10230 20090 30168 40223 51005 60006 80000 90900=
07747,1997-09-19 12:00:00,27,1020.9,-1.3,34,10,40000,11.112,,,150,,,,,,,,,,,wg-a,,,,AAXX 19124 07747 12/82 01506 10270 20100 30155 40209 56013 60006 80000 91200=
07747,1997-09-19 15:00:00,26,1019.6,-1.3,37,10,40000,14.816,,,130,,,,,,,,,,,wg-a,,,,AAXX 19154 07747 12/82 01308 10260 20100 30142 40196 56013 60006 80000 91500=
07747,1997-09-19 18:00:00,22,1019.1,-0.6,50,11,25000,7.408,,,60,11.3,27.1,,,,,,,,,wg-a,,,,AAXX 19184 07747 12475 /0604 10220 20110 30136 40191 56006 60006 81500 91800 333 10271 20113=
07747,1997-09-20 00:00:00,16,1019.2,-0.4,72,11,10000,3.704,,,240,,,,,,,,,,,wg-a,,,,AAXX 20004 07747 12/60 02402 10160 20110 30136 40192 56004 60006 80000 90000=
07747,1997-09-20 06:00:00,15,1019.2,0.2,72,10,40000,14.816,,,270,12.4,21.8,,,,,,,,,wg-a,,,,AAXX 20064 07747 02/82 32708 10150 20100 30136 40192 52002 60006 80001 90600 333 10218 20124 60004=
07747,1997-09-20 09:00:00,25,1019.7,0.7,44,12,60000,11.112,,,320,,,,,,,,,,,wg-a,,,,AAXX 20094 07747 12/86 43206 10250 20120 30143 40197 51007 60006 80001 90900=
07747,1997-09-20 12:00:00,26,1019.4,-0.3,48,14,500,14.816,,,130,,,,,,,,,,,wg-a,,,,AAXX 20124 07747 12700 /1308 10260 20140 30140 40194 58003 60006 81102 91200=
07747,1997-09-20 15:00:00,26,1018.3,-1.1,51,15,20000,11.112,,,160,,,,,,,,,,,wg-a,,,,AAXX 20154 07747 12770 21606 10260 20150 30129 40183 56011 60006 81102 91500=
07747,1997-09-20 18:00:00,23,1018.9,0.5,57,14,20000,3.704,,,280,15.1,27.3,,,,,,,,,wg-a,,,,AAXX 20184 07747 12770 32802 10230 20140 30134 40189 53005 60006 81142 91800 333 10273 20151=
07747,1997-09-20 21:00:00,21,1019.8,0.9,64,14,15000,3.704,,,70,,,,,,,,,,,wg-a,,,,AAXX 20214 07747 12/65 40702 10210 20140 30143 40198 51009 60006 82042 92100=
07747,1997-09-21 00:00:00,18,1020.4,0.5,83,15,10000,7.408,,,290,,,,,,,,,,,wg-a,,,,AAXX 21004 07747 12/60 42904 10180 20150 30148 40204 51005 60006 82042 90000=
07747,1997-09-21 06:00:00,19,1020.5,0.3,83,16,6000,3.704,,,190,17.7,22.6,,,,,,,,,wg-a,,,,AAXX 21064 07747 02656 61902 10190 20160 30149 40205 53003 60006 84880 90600 333 10226 20177 60004=
07747,1997-09-21 09:00:00,24,1021,0.6,61,16,10000,7.408,,,330,,,,,,,,,,,wg-a,,,,AAXX 21094 07747 12560 33304 10240 20160 30155 40210 51006 60006 83200 90900=
07747,1997-09-21 12:00:00,25,1019.9,-1,65,18,9000,14.816,,,120,,,,,,,,,,,wg-a,,,,AAXX 21124 07747 12559 31208 10250 20180 30145 40199 58010 60006 83900 91200=
07747,1997-09-21 15:00:00,25,1019.1,-0.8,61,17,9000,11.112,,,120,,,,,,,,,,,wg-a,,,,AAXX 21154 07747 12659 61206 10250 20170 30137 40191 56008 60006 83903 91500=
07747,1997-09-21 18:00:00,22,1019.9,0.7,69,16,9000,3.704,,,150,18.8,26.3,,,,,,,,,wg-a,,,,AAXX 21184 07747 12659 /1502 10220 20160 30144 40199 53007 60006 82903 91800 333 10263 20188=
07747,1997-09-21 21:00:00,19,1020.9,0.9,83,16,8000,11.112,,,270,,,,,,,,,,,wg-a,,,,AAXX 21214 07747 12/58 /2706 10190 20160 30153 40209 52009 60006 80002 92100=
07747,1997-09-22 00:00:00,17,1020.6,-0.3,88,15,15000,11.112,,,250,,,,,,,,,,,wg-a,,,,AAXX 22004 07747 12/65 02506 10170 20150 30150 40206 58003 60006 80000 90000=
07747,1997-09-22 03:00:00,16,1020.4,-0.2,94,15,15000,11.112,,,290,,,,,,,,,,,wg-a,,,,AAXX 22034 07747 12/65 02906 10160 20150 30148 40204 55002 60006 80000 90300=
07747,1997-09-22 06:00:00,16,1020.5,0.1,88,14,9000,7.408,,,290,15,21.5,,,,,,,,,wg-a,,,,AAXX 22064 07747 02/59 42904 10160 20140 30149 40205 53001 60006 80004 90600 333 10215 20150 60004=
07747,1997-09-22 09:00:00,23,1021.1,0.7,65,16,7000,11.112,,,80,,,,,,,,,,,wg-a,,,,AAXX 22094 07747 12557 /0806 10230 20160 30156 40211 53007 60006 81102 90900=
07747,1997-09-22 12:00:00,26,1020,-1,54,16,8000,11.112,,,130,,,,,,,,,,,wg-a,,,,AAXX 22124 07747 12558 /1306 10260 20160 30146 40200 58010 60006 81201 91200=
07747,1997-09-22 15:00:00,25,1018.8,-1.2,61,17,8000,14.816,,,110,,,,,,,,,,,wg-a,,,,AAXX 22154 07747 12658 41108 10250 20170 30134 40188 57012 60006 82233 91500=
07747,1997-09-22 18:00:00,21,1019.2,0.3,78,17,8000,7.408,,,70,15.7,26.2,,,,,,,,,wg-a,,,,AAXX 22184 07747 12758 /0704 10210 20170 30137 40192 53003 60006 81500 91800 333 10262 20157=
07747,1997-09-23 00:00:00,15,1019.6,-0.4,94,14,6000,3.704,,,280,,,,,,,,,,,wg-a,,,,AAXX 23004 07747 12/56 02802 10150 20140 30140 40196 58004 60006 80000 90000=
07747,1997-09-23 03:00:00,16,1018.9,-0.7,94,15,6000,3.704,,,280,,,,,,,,,,,wg-a,,,,AAXX 23034 07747 12356 72802 10160 20150 30133 40189 57007 60006 876// 90300=
07747,1997-09-23 06:00:00,17,1019.5,0.6,88,15,4500,3.704,,,300,15.1,21.1,,,,,,,,10,wg-a,,,,AAXX 23064 07747 02245 83002 10170 20150 30139 40195 53006 60006 71011 886// 90600 333 10211 20151 60004=
07747,1997-09-23 09:00:00,22,1019.8,0.4,73,17,6000,7.408,,,130,,,,,,,,,,,wg-a,,,,AAXX 23094 07747 12256 61304 10220 20170 30143 40198 50004 60006 8468/ 90900=
07747,1997-09-23 12:00:00,24,1018.5,-1.2,65,17,9000,14.816,,,110,,,,,,,,,,,wg-a,,,,AAXX 23124 07747 12559 /1108 10240 20170 30131 40185 58012 60006 81180 91200=
07747,1997-09-23 15:00:00,24,1017.3,-1.2,69,18,12000,14.816,,,120,,,,,,,,,,,wg-a,,,,AAXX 23154 07747 12562 /1208 10240 20180 30119 40173 56012 60006 81100 91500=
07747,1997-09-23 18:00:00,21,1017.9,0.5,83,18,6000,7.408,,,60,16.8,25.1,,,,,,,,,wg-a,,,,AAXX 23184 07747 12/56 /0604 10210 20180 30124 40179 53005 60006 81030 91800 333 10251 20168=
07747,1997-09-24 00:00:00,16,1018,-0.6,94,15,6000,7.408,,,280,,,,,,,,,,,wg-a,,,,AAXX 24004 07747 12/56 02804 10160 20150 30124 40180 56006 60006 80000 90000=
07747,1997-09-24 06:00:00,18,1018.7,0.7,88,16,4000,7.408,,,270,14.7,21,,,,,,,,10,wg-a,,,,AAXX 24064 07747 02440 72704 10180 20160 30131 40187 53007 60006 71011 876// 90600 333 10210 20147 60004=
07747,1997-09-24 12:00:00,26,1018.2,-0.9,51,15,12000,14.816,,,110,,,,,,,,,,,wg-a,,,,AAXX 24124 07747 12662 /1108 10260 20150 30128 40182 58009 60006 81200 91200=
07747,1997-09-24 15:00:00,26,1016.7,-1.5,45,13,20000,11.112,,,120,,,,,,,,,,,wg-a,,,,AAXX 24154 07747 12670 /1206 10260 20130 30113 40167 57015 60006 81200 91500=
07747,1997-09-24 18:00:00,22,1017.3,0.5,60,14,15000,3.704,,,150,17.4,26.7,,,,,,,,,wg-a,,,,AAXX 24184 07747 12665 /1502 10220 20140 30118 40173 53005 60006 81100 91800 333 10267 20174=
07747,1997-09-24 21:00:00,17,1018.3,0.9,77,13,20000,11.112,,,260,,,,,,,,,,,wg-a,,,,AAXX 24214 07747 12/70 02606 10170 20130 30127 40183 51009 60006 80000 92100=
07747,1997-09-25 00:00:00,15,1018.7,0.4,82,12,15000,0,,,0,,,,,,,,,,,wg-a,,,,AAXX 25004 07747 12/65 00000 10150 20120 30131 40187 51004 60006 80000 90000=
07747,1997-09-25 03:00:00,14,1019,0.3,94,13,9000,3.704,,,310,,,,,,,,,,,wg-a,,,,AAXX 25034 07747 12259 23102 10140 20130 30134 40190 51003 60006 82600 90300=
07747,1997-09-25 06:00:00,16,1020.2,1.2,94,15,4000,0,,,0,13.1,21.7,,,,,,,,10,wg-a,,,,AAXX 25064 07747 02140 /0000 10160 20150 30146 40202 52012 60006 71011 876// 90600 333 10217 20131 60004=
07747,1997-09-25 12:00:00,26,1020.8,-0.2,58,17,8000,18.52,,,120,,,,,,,,,,,wg-a,,,,AAXX 25124 07747 12458 21210 10260 20170 30154 40208 58002 60006 82100 91200=
07747,1997-09-25 15:00:00,25,1019.9,-0.9,54,15,12000,22.224,,,130,,,,,,,,,,,wg-a,,,,AAXX 25154 07747 12562 /1312 10250 20150 30145 40199 56009 60006 81100 91500=
07747,1997-09-26 00:00:00,15,1021.3,-0.3,94,14,6000,3.704,,,280,,,,,,,,,,,wg-a,,,,AAXX 26004 07747 12/56 02802 10150 20140 30157 40213 57003 60006 80000 90000=
07747,1997-09-26 03:00:00,16,1020.9,-0.4,94,15,500,11.112,,,270,,,,,,,,,,,wg-a,,,,AAXX 26034 07747 12200 /2706 10160 20150 30153 40209 58004 60006 86600 90300=
07747,1997-09-26 06:00:00,16,1021.3,0.4,100,16,3000,3.704,,,250,13.5,20.7,,,,,,,,28,wg-a,,,,AAXX 26064 07747 02330 72502 10160 20160 30157 40213 53004 60006 72841 876// 90600 333 10207 20135 60004=
07747,1997-09-26 09:00:00,21,1021.9,0.7,78,17,6000,7.408,,,60,,,,,,,,,,,wg-a,,,,AAXX 26094 07747 12456 20604 10210 20170 30164 40219 51007 60006 82600 90900=
07747,1997-09-26 12:00:00,25,1020.2,-1.6,57,16,15000,22.224,,,120,,,,,,,,,,,wg-a,,,,AAXX 26124 07747 12565 /1212 10250 20160 30148 40202 58016 60006 81100 91200=
07747,1997-09-26 15:00:00,24,1018.7,-1.5,57,15,25000,25.928,,,120,,,,,,,,,,,wg-a,,,,AAXX 26154 07747 12/75 11214 10240 20150 30133 40187 56015 60006 80002 91500=
07747,1997-09-26 18:00:00,21,1018.4,-0.4,83,18,9000,7.408,,,100,16.2,25.2,,,,,,,,,wg-a,,,,AAXX 26184 07747 12/59 /1004 10210 20180 30129 40184 55004 60006 80002 91800 333 10252 20162=
07747,1997-09-26 21:00:00,18,1018.1,-0.4,88,16,6000,11.112,,,280,,,,,,,,,,,wg-a,,,,AAXX 26214 07747 12/56 02806 10180 20160 30125 40181 58004 60006 80000 92100=
07747,1997-09-27 00:00:00,14,1017.5,-0.6,94,13,6000,7.408,,,260,,,,,,,,,,,wg-a,,,,AAXX 27004 07747 12/56 02604 10140 20130 30119 40175 57006 60006 80000 90000=
07747,1997-09-27 03:00:00,12,1016.7,-0.9,94,11,6000,0,,,0,,,,,,,,,,,wg-a,,,,AAXX 27034 07747 12/56 00000 10120 20110 30110 40167 58009 60006 80000 90300=
07747,1997-09-27 06:00:00,12,1016.6,-0.1,94,11,7000,7.408,,,260,11.3,20.7,,,,,,,,,wg-a,,,,AAXX 27064 07747 02357 /2604 10120 20110 30109 40166 56001 60006 81601 90600 333 10207 20113 60004=
07747,1997-09-27 09:00:00,22,1016.4,0,65,15,9000,3.704,,,130,,,,,,,,,,,wg-a,,,,AAXX 27094 07747 12/59 /1302 10220 20150 30109 40164 50000 60006 81030 90900=
07747,1997-09-27 12:00:00,24,1014.7,-1.6,61,16,8000,14.816,,,120,,,,,,,,,,,wg-a,,,,AAXX 27124 07747 12/58 01208 10240 20160 30093 40147 58016 60006 80000 91200=
07747,1997-09-27 15:00:00,25,1013.4,-1.3,57,16,8000,22.224,,,130,,,,,,,,,,,wg-a,,,,AAXX 27154 07747 12558 /1312 10250 20160 30080 40134 56013 60006 81102 91500=
07747,1997-09-27 18:00:00,21,1014,0.5,78,17,12000,11.112,,,30,12,25.6,,,,,,,,,wg-a,,,,AAXX 27184 07747 12/62 10306 10210 20170 30085 40140 51005 60006 80002 91800 333 10256 20120=
07747,1997-09-27 21:00:00,18,1014,-0,88,16,10000,7.408,,,260,,,,,,,,,,,wg-a,,,,AAXX 27214 07747 12/60 02604 10180 20160 30085 40140 55000 60006 80000 92100=
07747,1997-09-28 00:00:00,15,1013.9,-0.2,94,14,10000,3.704,,,300,,,,,,,,,,,wg-a,,,,AAXX 28004 07747 12/60 03002 10150 20140 30083 40139 56002 60006 80000 90000=
07747,1997-09-28 03:00:00,14,1013.9,-0,94,13,8000,3.704,,,270,,,,,,,,,,,wg-a,,,,AAXX 28034 07747 12/58 /2702 10140 20130 30083 40139 54000 60006 90300=
07747,1997-09-28 06:00:00,15,1014.5,0.6,94,14,6000,3.704,,,220,12.8,20.6,,,,,,,,,wg-a,,,,AAXX 28064 07747 02256 /2202 10150 20140 30089 40145 53006 60006 85600 90600 333 10206 20128 60004=
07747,1997-09-28 12:00:00,25,1014.8,-0.6,57,16,9000,11.112,,,120,,,,,,,,,,,wg-a,,,,AAXX 28124 07747 12559 21206 10250 20160 30094 40148 58006 60006 81180 91200=
07747,1997-09-28 15:00:00,24,1014,-0.8,69,18,12000,14.816,,,110,,,,,,,,,,,wg-a,,,,AAXX 28154 07747 12562 21108 10240 20180 30086 40140 56008 60006 81181 91500=
07747,1997-09-28 18:00:00,21,1015,0.9,83,18,10000,11.112,,,40,15.2,24.7,,,,,,,,,wg-a,,,,AAXX 28184 07747 12/60 40406 10210 20180 30095 40150 53009 60006 81034 91800 333 10247 20152=
07747,1997-09-28 21:00:00,20,1016.1,1.1,83,17,9000,7.408,,,340,,,,,,,,,,,wg-a,,,,AAXX 28214 07747 12459 /3404 10200 20170 30106 40161 51011 60006 81600 92100=
07747,1997-09-29 00:00:00,17,1016.5,0.3,94,16,9000,3.704,,,20,,,,,,,,,,,wg-a,,,,AAXX 29004 07747 12459 30202 10170 20160 30109 40165 51003 60006 83600 90000=
07747,1997-09-29 06:00:00,19,1018.4,1.4,88,17,7000,3.704,,,250,16.8,20.4,,,,,,,,,wg-a,,,,AAXX 29064 07747 02357 82502 10190 20170 30129 40184 53014 60006 876// 90600 333 10204 20168 60004=
07747,1997-09-29 09:00:00,21,1019.9,1.5,83,18,7000,0,,,0,,,,1,,,,,,1,wg-a,,,,AAXX 29094 07747 12457 80000 10210 20180 30144 40199 51015 60017 70162 876// 90900=
07747,1997-09-29 12:00:00,25,1020.1,0.3,65,18,8000,11.112,,,140,,,,,,,,,,1,wg-a,,,,AAXX 29124 07747 12558 /1406 10250 20180 30147 40201 50003 60016 70162 86200 91200=
07747,1997-09-29 15:00:00,24,1019.2,-0.9,74,19,9000,18.52,,,90,,,,,,,,,,,wg-a,,,,AAXX 29154 07747 12459 40910 10240 20190 30138 40192 56009 60006 84800 91500=
07747,1997-09-29 18:00:00,21,1020.4,1.1,88,19,9000,7.408,,,180,18.6,26.6,,,,,,,,,wg-a,,,,AAXX 29184 07747 12459 31804 10210 20190 30149 40204 51011 60006 82180 91800 333 10266 20186=
07747,1997-09-29 21:00:00,18,1021.9,1.4,94,17,7000,3.704,,,290,,,,0,,,,,,,wg-a,,,,AAXX 29214 07747 12457 /2902 10180 20170 30163 40219 53014 60007 81100 92100=
07747,1997-09-30 00:00:00,16,1022,0.1,94,15,6000,3.704,,,280,,,,,,,,,,,wg-a,,,,AAXX 30004 07747 12456 /2802 10160 20150 30164 40220 50001 60006 81100 90000=
07747,1997-09-30 03:00:00,16,1022.4,0.4,94,15,7000,0,,,0,,,,,,,,,,,wg-a,,,,AAXX 30034 07747 12457 /0000 10160 20150 30168 40224 53004 60006 81100 90300=
07747,1997-09-30 06:00:00,17,1022.6,0.2,94,16,3000,3.704,,,360,14.4,21.2,,,,,1,,,10,wg-a,,,,AAXX 30064 07747 02130 83602 10170 20160 30170 40226 51002 60006 71011 886// 90600 333 10212 20144 60014=
07747,1997-09-30 09:00:00,21,1024,1.5,83,18,4000,7.408,,,20,,,,,,,,,,10,wg-a,,,,AAXX 30094 07747 12240 /0204 10210 20180 30185 40240 51015 60006 71041 84100 90900=
07747,1997-09-30 12:00:00,25,1022.6,-1.3,57,16,15000,7.408,,,110,,,,,,,,,,1,wg-a,,,,AAXX 30124 07747 12565 /1104 10250 20160 30172 40226 58013 60006 70141 81100 91200=
07747,1997-09-30 15:00:00,26,1021.2,-1.4,42,12,25000,14.816,,,130,,,,,,,,,,,wg-a,,,,AAXX 30154 07747 12575 21308 10260 20120 30158 40212 56014 60006 81102 91500=
07747,1997-09-30 18:00:00,22,1021.2,-0.1,69,16,500,3.704,,,160,15.6,27.4,,,,,,,,,wg-a,,,,AAXX 30184 07747 12/00 21602 10220 20160 30157 40212 55001 60006 80002 91800 333 10274 20156=
07747,1997-10-01 00:00:00,16,1020.5,-1.1,88,14,12000,11.112,,,240,,,,,,,,,,,wg-a,,,,AAXX 01004 07747 12362 22406 10160 20140 30149 40205 58011 60006 81602 90000=
07747,1997-10-01 03:00:00,14,1020,-0.6,88,12,12000,7.408,,,260,,,,,,,,,,,wg-a,,,,AAXX 01034 07747 12362 22604 10140 20120 30143 40200 57006 60006 81602 90300=
07747,1997-10-01 06:00:00,14,1019.8,-0.2,88,12,12000,11.112,,,220,13.9,21.4,,,,,,,,,wg-a,,,,AAXX 01064 07747 02/62 22206 10140 20120 30141 40198 56002 60006 80001 90600 333 10214 20139 60004=
07747,1997-10-01 12:00:00,32,1017.2,-1.9,21,7,500,18.52,,,10,,,,,,,,,,,wg-a,,,,AAXX 01124 07747 12/00 40110 10320 20070 30119 40172 58019 60006 80001 91200=
07747,1997-10-01 15:00:00,33,1015,-2.2,20,7,500,22.224,,,360,,,,,,,,,,,wg-a,,,,AAXX 01154 07747 12/00 23612 10330 20070 30097 40150 56022 60006 80001 91500=
07747,1997-10-01 18:00:00,28,1015.4,-0.3,30,9,25000,18.52,,,340,13.9,33.1,,,,,,,,,wg-a,,,,AAXX 01184 07747 12/75 23410 10280 20090 30100 40154 56003 60006 80011 91800 333 10331 20139=
07747,1997-10-02 00:00:00,23,1014.9,-1.2,44,10,25000,11.112,,,280,,,,,,,,,,,wg-a,,,,AAXX 02004 07747 12/75 02806 10230 20100 30094 40149 58012 60006 80000 90000=
07747,1997-10-02 03:00:00,23,1014.5,-0.3,41,9,25000,7.408,,,30,,,,,,,,,,,wg-a,,,,AAXX 02034 07747 12/75 00304 10230 20090 30091 40145 55003 60006 80000 90300=
07747,1997-10-02 06:00:00,24,1014.3,-0.2,38,9,50000,18.52,,,300,22.1,28.3,,,,,,,,,wg-a,,,,AAXX 02064 07747 02/84 03010 10240 20090 30089 40143 56002 60006 80000 90600 333 10283 20221 60004=
07747,1997-10-02 09:00:00,28,1014.4,0.1,32,10,40000,22.224,,,340,,,,,,,,,,,wg-a,,,,AAXX 02094 07747 12/82 03412 10280 20100 30090 40144 50001 60006 80000 90900=
07747,1997-10-02 12:00:00,31,1013.8,-0.5,21,6,35000,22.224,,,330,,,,,,,,,,,wg-a,,,,AAXX 02124 07747 12/81 03312 10310 20060 30085 40138 58005 60006 80000 91200=
07747,1997-10-02 15:00:00,31,1012.1,-1.7,15,1,500,35.188,,,330,,,,,,,,,,,wg-a,,,,AAXX 02154 07747 12/00 03319 10310 20010 30068 40121 57017 60006 80000 91500=
07747,1997-10-02 18:00:00,28,1012.7,0.5,22,4,25000,29.632,,,330,23.5,32.2,,,,,,,,,wg-a,,,,AAXX 02184 07747 12/75 13316 10280 20040 30073 40127 51005 60006 80002 91800 333 10322 20235=
07747,1997-10-02 21:00:00,24,1014.2,1.5,44,11,20000,14.816,,,280,,,,,,,,,,,wg-a,,,,AAXX 02214 07747 12/70 02808 10240 20110 30088 40142 51015 60006 80000 92100=
07747,1997-10-03 00:00:00,23,1014.3,-0,50,12,18000,14.816,,,230,,,,,,,,,,,wg-a,,,,AAXX 03004 07747 12/68 02308 10230 20120 30088 40143 55000 60006 80000 90000=
07747,1997-10-03 03:00:00,22,1014.1,-0.2,57,13,20000,7.408,,,300,,,,,,,,,,,wg-a,,,,AAXX 03034 07747 12/70 03004 10220 20130 30086 40141 58002 60006 80000 90300=
07747,1997-10-03 06:00:00,22,1013.8,-0.3,57,13,60000,25.928,,,310,20.5,28,,,,,,,,,wg-a,,,,AAXX 03064 07747 02/86 13114 10220 20130 30083 40138 58003 60006 81040 90600 333 10280 20205 60004=
07747,1997-10-03 09:00:00,27,1014.1,0.4,37,11,60000,29.632,,,330,,,,,,,,,,,wg-a,,,,AAXX 03094 07747 12/86 03316 10270 20110 30087 40141 50004 60006 80000 90900=
07747,1997-10-03 12:00:00,30,1013.4,-0.6,29,10,60000,29.632,,,340,,,,,,,,,,,wg-a,,,,AAXX 03124 07747 12/86 13416 10300 20100 30081 40134 58006 60006 81040 91200=
07747,1997-10-03 15:00:00,30,1012.9,-0.5,29,10,60000,25.928,,,330,,,,,,,,,,,wg-a,,,,AAXX 03154 07747 12/86 03314 10300 20100 30076 40129 56005 60006 80000 91500=
07747,1997-10-03 18:00:00,26,1014.2,1.2,45,13,500,22.224,,,320,21.9,31.1,,,,,,,,,wg-a,,,,AAXX 03184 07747 12/00 03212 10260 20130 30088 40142 53012 60006 80000 91800 333 10311 20219=
07747,1997-10-03 21:00:00,24,1016.1,1.9,54,14,500,18.52,,,340,,,,,,,,,,,wg-a,,,,AAXX 03214 07747 12/00 03410 10240 20140 30107 40161 53019 60006 80000 92100=
07747,1997-10-04 00:00:00,22,1016.6,0.4,57,13,500,18.52,,,320,,,,,,,,,,,wg-a,,,,AAXX 04004 07747 12/00 03210 10220 20130 30111 40166 53004 60006 80000 90000=
07747,1997-10-04 03:00:00,21,1017.3,0.7,60,13,500,3.704,,,240,,,,,,,,,,,wg-a,,,,AAXX 04034 07747 12/00 02402 10210 20130 30118 40173 51007 60006 80000 90300=
07747,1997-10-04 06:00:00,15,1018.3,0.9,88,13,500,7.408,,,260,15.2,25.9,,,,,,,,,wg-a,,,,AAXX 04064 07747 02/00 02604 10150 20130 30127 40183 52009 60006 80000 90600 333 10259 20152 60004=
07747,1997-10-04 09:00:00,24,1018.9,0.8,54,14,50000,3.704,,,160,,,,,,,,,,,wg-a,,,,AAXX 04094 07747 12/84 01602 10240 20140 30135 40189 51008 60006 80000 90900=
07747,1997-10-04 12:00:00,25,1019,0.1,47,13,50000,14.816,,,120,,,,,,,,,,,wg-a,,,,AAXX 04124 07747 12/84 01208 10250 20130 30136 40190 50001 60006 80000 91200=
07747,1997-10-04 18:00:00,20,1018.6,0.2,56,11,45000,3.704,,,220,15.3,25.8,,,,,,,,,wg-a,,,,AAXX 04184 07747 12/83 02202 10200 20110 30131 40186 53002 60006 80000 91800 333 10258 20153=
07747,1997-10-05 00:00:00,13,1018.7,-1,88,11,10000,0,,,0,,,,,,,,,,,wg-a,,,,AAXX 05004 07747 12/60 /0000 10130 20110 30130 40187 58010 60006 90000=
07747,1997-10-05 03:00:00,13,1018,-0.7,94,12,10000,7.408,,,250,,,,,,,,,,,wg-a,,,,AAXX 05034 07747 12460 /2504 10130 20120 30123 40180 58007 60006 86600 90300=
07747,1997-10-05 06:00:00,15,1017.3,-0.6,88,13,7000,3.704,,,280,11.5,19.5,,,,,,,,,wg-a,,,,AAXX 05064 07747 02357 82802 10150 20130 30117 40173 56006 60006 886// 90600 333 10195 20115 60004=
07747,1997-10-05 09:00:00,22,1017.4,0.2,69,16,9000,11.112,,,100,,,,,,,,,,,wg-a,,,,AAXX 05094 07747 12459 21006 10220 20160 30119 40174 51002 60006 82100 90900=
07747,1997-10-05 11:00:00,25,1015.5,,65,18,9000,25.928,,,140,,,,,,,,,,,wg-a,,,,AAXX 05114 07747 12459 41414 10250 20180 30101 40155 60006 8/18/ 91100=
07747,1997-10-05 12:00:00,25,1015.5,-1.8,69,19,9000,25.928,,,140,,,,,,,,,,,wg-a,,,,AAXX 05124 07747 12459 41414 10250 20190 30101 40155 58018 60006 84100 91200=
07747,1997-10-05 15:00:00,24,1013.3,-2.2,78,20,7000,35.188,,,140,,,,,,,,,,,wg-a,,,,AAXX 05154 07747 12357 71419 10240 20200 30079 40133 56022 60006 85602 91500=
07747,1997-10-05 18:00:00,22,1012.6,-0.7,78,18,500,18.52,,,150,14.4,25.6,,,,,,,,,wg-a,,,,AAXX 05184 07747 12300 51510 10220 20180 30072 40126 56007 60006 84232 91800 333 10256 20144=
07747,1997-10-05 21:00:00,19,1012.5,-0.2,83,16,6000,0,,,0,,,,,,,,,,,wg-a,,,,AAXX 05214 07747 12456 40000 10190 20160 30070 40125 58002 60006 82532 92100=
07747,1997-10-06 00:00:00,19,1011.3,-1.2,88,17,7000,7.408,,,140,,,,,,,,,,,wg-a,,,,AAXX 06004 07747 12457 31404 10190 20170 30058 40113 58012 60006 82532 90000=
07747,1997-10-06 03:00:00,22,1009.5,-1.7,78,18,7000,22.224,,,140,,,,,,,,,,,wg-a,,,,AAXX 06034 07747 12457 71412 10220 20180 30041 40095 56017 60006 8688/ 90300=
07747,1997-10-06 06:00:00,20,1009.9,0.3,88,18,8000,11.112,,,140,17.6,21.8,,,,,,,,80,wg-a,,,,AAXX 06064 07747 02458 71406 10200 20180 30044 40099 51003 61000 78096 8598/ 90600 333 10218 20176 6100=
07747,1997-10-06 09:00:00,19,1009.4,-0.5,94,18,15000,14.816,,,140,,,,1,,,,,,1,wg-a,,,,AAXX 06094 07747 12465 /1408 10190 20180 30039 40094 58005 60017 70196 83842 90900=
07747,1997-10-06 12:00:00,24,1007.8,-1.5,74,19,15000,18.52,,,100,,,,,,,,,,1,wg-a,,,,AAXX 06124 07747 12565 51010 10240 20190 30024 40078 58015 60016 70196 81142 91200=
07747,1997-10-06 18:00:00,24,1005.5,0.1,61,16,15000,14.816,,,180,18.1,28.1,,,,,,,,,wg-a,,,,AAXX 06184 07747 12565 61808 10240 20160 30001 40055 53001 60006 81142 91800 333 10281 20181=
07747,1997-10-07 00:00:00,16,1006.6,0.1,94,15,11000,11.112,,,240,,,,,,,,,,,wg-a,,,,AAXX 07004 07747 12/61 /2406 10160 20150 30011 40066 53001 60006 90000=
07747,1997-10-07 03:00:00,16,1006.5,-0.1,94,15,15000,3.704,,,330,,,,,,,,,,13,wg-a,,,,AAXX 07034 07747 12465 23302 10160 20150 30010 40065 58001 60006 71300 82900 90300=
07747,1997-10-07 06:00:00,14,1007.4,0.8,100,14,15000,3.704,,,230,13.8,24,,,,,1,,,,wg-a,,,,AAXX 07064 07747 02265 42302 10140 20140 30018 40074 53008 60006 81942 90600 333 10240 20138 60014=
07747,1997-10-07 09:00:00,23,1009.6,2.4,69,17,25000,3.704,,,170,,,,,,,,,,,wg-a,,,,AAXX 07094 07747 12/75 21702 10230 20170 30042 40096 51024 60006 80002 90900=
07747,1997-10-07 12:00:00,26,1009.8,0.2,61,18,25000,14.816,,,90,,,,,,,,,,,wg-a,,,,AAXX 07124 07747 12775 /0908 10260 20180 30044 40098 53002 60006 81102 91200=
07747,1997-10-07 15:00:00,24,1010.2,0.4,78,20,15000,18.52,,,70,,,,,,,,,,80,wg-a,,,,AAXX 07154 07747 02765 70710 10240 20200 30048 40102 53004 61000 78086 8396/ 91500 333 ////=
07747,1997-10-07 18:00:00,22,1012.1,1.9,83,19,12000,3.704,,,50,14,26.8,,0,,,,,,1,wg-a,,,,AAXX 07184 07747 02762 70502 10220 20190 30067 40121 53019 60006 70186 83882 91800 333 10268 20140 60007=
07747,1997-10-07 21:00:00,19,1013.9,1.7,94,18,12000,7.408,,,330,,,,,,,,,,,wg-a,,,,AAXX 07214 07747 12662 73304 10190 20180 30084 40139 51017 60006 82542 92100=
07747,1997-10-08 00:00:00,17,1014.5,0.6,100,17,12000,3.704,,,350,,,,,,,,,,,wg-a,,,,AAXX 08004 07747 12/62 03502 10170 20170 30090 40145 53006 60006 80000 90000=
07747,1997-10-08 03:00:00,15,1015.1,0.5,100,15,12000,3.704,,,250,,,,,,,,,,,wg-a,,,,AAXX 08034 07747 12562 /2502 10150 20150 30095 40151 53005 60006 81500 90300=
07747,1997-10-08 06:00:00,17,1015.9,0.8,94,16,9000,7.408,,,250,15.4,21.5,,,,,,,,,wg-a,,,,AAXX 08064 07747 02459 82504 10170 20160 30103 40159 52008 60006 876// 90600 333 10215 20154 60004=
07747,1997-10-08 12:00:00,24,1015.5,-0.8,78,20,10000,14.816,,,100,,,,,,,,,,,wg-a,,,,AAXX 08124 07747 12460 71008 10240 20200 30101 40155 58008 60006 871// 91200=
07747,1997-10-08 18:00:00,22,1016.3,0.9,88,20,10000,7.408,,,70,17.1,24.4,,,,,,,,,wg-a,,,,AAXX 08184 07747 12460 80704 10220 20200 30108 40163 53009 60006 885// 91800 333 10244 20171=
07747,1997-10-08 21:00:00,21,1017.2,0.9,94,20,10000,7.408,,,20,,,,,,,,,,,wg-a,,,,AAXX 08214 07747 12460 80204 10210 20200 30117 40172 51009 60006 885// 92100=
07747,1997-10-09 00:00:00,18,1017.1,-0.1,100,18,10000,0,,,0,,,,,,,,,,,wg-a,,,,AAXX 09004 07747 12260 50000 10180 20180 30116 40171 57001 60006 84602 90000=
07747,1997-10-09 03:00:00,19,1017.4,0.3,94,18,7000,7.408,,,260,,,,,,,,,,,wg-a,,,,AAXX 09034 07747 12557 /2604 10190 20180 30119 40174 50003 60006 85500 90300=
07747,1997-10-09 06:00:00,19,1018.2,0.8,94,18,9000,3.704,,,220,17.7,21.7,,,,,,,,,wg-a,,,,AAXX 09064 07747 02559 72202 10190 20180 30127 40182 53008 60006 875// 90600 333 10217 20177 60004=
07747,1997-10-09 12:00:00,27,1018.9,-1,58,18,9000,7.408,,,130,,,,,,,,,,,wg-a,,,,AAXX 09124 07747 12559 /1304 10270 20180 30135 40189 58010 60006 81101 91200=
07747,1997-10-09 15:00:00,26,1018.1,-0.8,65,19,9000,14.816,,,140,,,,,,,,,,,wg-a,,,,AAXX 09154 07747 12/59 /1408 10260 20190 30127 40181 56008 60006 80001 91500=
07747,1997-10-09 18:00:00,22,1018.8,0.6,83,19,9000,3.704,,,330,18.1,27,,,,,,,,,wg-a,,,,AAXX 09184 07747 12/59 03302 10220 20190 30133 40188 53006 60006 80000 91800 333 10270 20181=
07747,1997-10-09 21:00:00,20,1019.6,0.8,83,17,9000,7.408,,,320,,,,,,,,,,,wg-a,,,,AAXX 09214 07747 12/59 03204 10200 20170 30141 40196 51008 60006 80000 92100=
07747,1997-10-10 00:00:00,18,1019,-0.7,83,15,9000,11.112,,,270,,,,,,,,,,,wg-a,,,,AAXX 10004 07747 12/59 02706 10180 20150 30134 40190 58007 60006 80000 90000=
07747,1997-10-10 03:00:00,18,1017.6,-1.4,77,14,12000,7.408,,,300,,,,,,,,,,,wg-a,,,,AAXX 10034 07747 12/62 33004 10180 20140 30120 40176 57014 60006 80004 90300=
07747,1997-10-10 06:00:00,17,1016.7,-0.9,82,14,15000,11.112,,,250,17,22.1,,,,,,,,,wg-a,,,,AAXX 10064 07747 02/65 62506 10170 20140 30111 40167 56009 60006 81032 90600 333 10221 20170 60004=
07747,1997-10-10 09:00:00,25,1016.3,-0.2,54,15,20000,7.408,,,220,,,,,,,,,,,wg-a,,,,AAXX 10094 07747 12/70 62204 10250 20150 30109 40163 58002 60006 81032 90900=
07747,1997-10-10 12:00:00,31,1015,-1.2,29,11,500,29.632,,,350,,,,,,,,,,,wg-a,,,,AAXX 10124 07747 12/00 63516 10310 20110 30097 40150 58012 60006 84042 91200=
07747,1997-10-10 15:00:00,29,1013.7,-1.3,37,13,500,29.632,,,320,,,,,,,,,,,wg-a,,,,AAXX 10154 07747 12600 73216 10290 20130 30084 40137 56013 60006 81542 91500=
07747,1997-10-10 18:00:00,26,1014.5,0.7,51,15,25000,31.484,,,320,17.5,32,,,,,,,,,wg-a,,,,AAXX 10184 07747 12675 63217 10260 20150 30091 40145 53007 60006 82542 91800 333 10320 20175=
07747,1997-10-10 21:00:00,25,1015.1,0.6,57,16,25000,31.484,,,320,,,,,,,,,,,wg-a,,,,AAXX 10214 07747 12675 /3217 10250 20160 30097 40151 50006 60006 81540 92100=
07747,1997-10-11 00:00:00,25,1015,-0.1,61,17,25000,35.188,,,330,,,,,,,,,,,wg-a,,,,AAXX 11004 07747 12675 23319 10250 20170 30096 40150 57001 60006 82540 90000=
07747,1997-10-11 03:00:00,24,1014,-1,65,17,25000,29.632,,,330,,,,,,,,,,,wg-a,,,,AAXX 11034 07747 12575 43316 10240 20170 30086 40140 58010 60006 84800 90300=
07747,1997-10-11 06:00:00,24,1013.5,-0.5,61,16,50000,31.484,,,310,22.3,25.7,,,,,,,,,wg-a,,,,AAXX 11064 07747 02584 63117 10240 20160 30081 40135 58005 60006 84841 90600 333 10257 20223 60004=
07747,1997-10-11 09:00:00,26,1013.8,0.3,54,16,50000,31.484,,,320,,,,,,,,,,,wg-a,,,,AAXX 11094 07747 12584 63217 10260 20160 30084 40138 53003 60006 84141 90900=
07747,1997-10-11 12:00:00,27,1012.2,-1.6,51,16,50000,35.188,,,330,,,,,,,,,,,wg-a,,,,AAXX 11124 07747 12584 63319 10270 20160 30068 40122 58016 60006 83241 91200=
07747,1997-10-11 15:00:00,28,1010.7,-1.4,45,15,500,29.632,,,340,,,,,,,,,,,wg-a,,,,AAXX 11154 07747 12500 43416 10280 20150 30054 40107 56014 60006 83141 91500=
07747,1997-10-11 18:00:00,26,1010.6,-0.2,51,15,25000,7.408,,,300,23.7,28.7,,,,,,,,,wg-a,,,,AAXX 11184 07747 12575 53004 10260 20150 30052 40106 55002 60006 83140 91800 333 10287 20237=
07747,1997-10-11 21:00:00,25,1010.3,-0.3,57,16,25000,22.224,,,310,,,,,,,,,,,wg-a,,,,AAXX 11214 07747 12575 33112 10250 20160 30049 40103 57003 60006 83100 92100=
07747,1997-10-12 00:00:00,24,1009.2,-1.1,54,14,25000,46.3,,70.376,320,,,,,,,,,,,wg-a,,,,AAXX 12004 07747 12575 33225 10240 20140 30038 40092 57011 60006 83100 90000 333 91038=
07747,1997-10-12 03:00:00,22,1008.6,-0.6,57,13,25000,50.004,,74.08,320,,,,,,,,,,,wg-a,,,,AAXX 12034 07747 12675 33227 10220 20130 30032 40086 58006 60006 83100 90300 333 91040=
07747,1997-10-12 06:00:00,21,1008.8,0.1,56,12,12000,29.632,,57.412,320,21.2,25.9,,,,,,,,15,wg-a,,,,AAXX 12064 07747 02562 43216 10210 20120 30033 40088 53001 60006 71500 83802 90600 333 10259 20212 60004 91031=
07747,1997-10-12 09:00:00,21,1011.2,2.4,43,8,35000,42.596,,64.82,320,,,,,,,,,,,wg-a,,,,AAXX 12094 07747 12581 23223 10210 20080 30057 40112 50024 60006 82202 90900 333 91035=
07747,1997-10-12 12:00:00,22,1010.4,-0.8,38,7,35000,61.116,,88.896,310,,,,,,,,,,,wg-a,,,,AAXX 12124 07747 12681 23133 10220 20070 30049 40104 56008 60006 82100 91200 333 91048=
07747,1997-10-12 18:00:00,17,1013.6,2.6,59,9,25000,42.596,,72.228,310,17,23.1,,,,,,,,,wg-a,,,,AAXX 12184 07747 12575 73123 10170 20090 30080 40136 53026 60006 86842 91800 333 10231 20170 91039=
07747,1997-10-12 21:00:00,16,1015.6,2,59,8,20000,29.632,,,320,,,,,,,,,,,wg-a,,,,AAXX 12214 07747 12570 23216 10160 20080 30100 40156 53020 60006 82800 92100=
07747,1997-10-13 00:00:00,16,1016.1,0.5,55,7,18000,22.224,,44.448,330,,,,,,,,,,,wg-a,,,,AAXX 13004 07747 12568 73312 10160 20070 30105 40161 53005 60006 86802 90000 333 91024=
07747,1997-10-13 06:00:00,14,1014.9,0.4,63,7,20000,35.188,,,340,12.9,17,,,,,,,,21,wg-a,,,,AAXX 13064 07747 02570 /3419 10140 20070 30093 40149 53004 61000 72161 85801 90600 333 10170 20129 6000=
07747,1997-10-13 09:00:00,15,1016.5,1.6,51,5,20000,35.188,,55.56,340,,,,,,,,,,,wg-a,,,,AAXX 13094 07747 12470 73419 10150 20050 30109 40165 51016 60006 86801 90900 333 91030=
07747,1997-10-13 12:00:00,17,1015.6,-0.9,39,3,20000,53.708,,74.08,330,,,,,,,,,,,wg-a,,,,AAXX 13124 07747 12470 /3329 10170 20030 30100 40156 58009 60006 85801 91200 333 91040=
07747,1997-10-13 15:00:00,17,1016.2,0.6,36,2,25000,38.892,,62.968,340,,,,,,,,,,,wg-a,,,,AAXX 13154 07747 12675 53421 10170 20020 30106 40162 50006 60006 83801 91500 333 91034=
07747,1997-10-13 18:00:00,14,1018,1.8,51,4,500,31.484,,,330,13.1,17.2,,,,,,,,,wg-a,,,,AAXX 13184 07747 12600 63317 10140 20040 30124 40180 53018 60006 84841 91800 333 10172 20131=
07747,1997-10-13 21:00:00,14,1019.2,1.1,55,5,500,25.928,,48.152,330,,,,,,,,,,,wg-a,,,,AAXX 13214 07747 12600 63314 10140 20050 30135 40192 53011 60006 84841 92100 333 91026=
07747,1997-10-14 00:00:00,13,1018.2,-1,54,4,500,46.3,,68.524,330,,,,,,,,,,,wg-a,,,,AAXX 14004 07747 12600 53325 10130 20040 30125 40182 58010 60006 83541 90000 333 91037=
07747,1997-10-14 03:00:00,13,1017.1,-1.1,54,4,500,38.892,,62.968,330,,,,,,,,,,,wg-a,,,,AAXX 14034 07747 12/00 33321 10130 20040 30114 40171 56011 60006 81041 90300 333 91034=
07747,1997-10-14 06:00:00,12,1018.2,1.1,71,7,15000,22.224,,,340,11,14.3,,,,,,,,25,wg-a,,,,AAXX 14064 07747 02565 73412 10120 20070 30125 40182 51011 61000 72511 872// 90600 333 10143 20110 6001=
07747,1997-10-14 09:00:00,13,1019.8,1.6,54,4,40000,42.596,,64.82,330,,,,,,,,,,,wg-a,,,,AAXX 14094 07747 12682 /3323 10130 20040 30141 40198 53016 60006 81202 90900 333 91035=
07747,1997-10-14 12:00:00,15,1020.2,0.5,41,2,40000,53.708,,81.488,330,,,,,,,,,,,wg-a,,,,AAXX 14124 07747 12782 /3329 10150 20020 30146 40202 53005 60006 81102 91200 333 91044=
07747,1997-10-14 15:00:00,16,1020.5,0.3,39,2,50000,38.892,,62.968,340,,,,,,,,,,,wg-a,,,,AAXX 14154 07747 12784 /3421 10160 20020 30149 40205 53003 60006 81102 91500 333 91034=
07747,1997-10-14 18:00:00,13,1022.5,1.9,47,2,50000,29.632,,,340,11.5,16.7,,,,,,,,,wg-a,,,,AAXX 14184 07747 12684 /3416 10130 20020 30168 40225 53019 60006 81800 91800 333 10167 20115=
07747,1997-10-14 21:00:00,13,1023.9,1.4,47,2,50000,18.52,,,350,,,,,,,,,,,wg-a,,,,AAXX 14214 07747 12684 /3510 10130 20020 30182 40239 51014 60006 81500 92100=
07747,1997-10-15 00:00:00,12,1023.4,-0.5,54,3,40000,18.52,,,340,,,,,,,,,,,wg-a,,,,AAXX 15004 07747 12682 43410 10120 20030 30177 40234 58005 60006 81501 90000=
07747,1997-10-15 03:00:00,12,1022.1,-1.3,50,2,40000,14.816,,,340,,,,,,,,,,,wg-a,,,,AAXX 15034 07747 12682 43408 10120 20020 30164 40221 58013 60006 81501 90300=
07747,1997-10-15 06:00:00,12,1021.2,-0.9,50,2,50000,22.224,,,330,11.3,13.5,,,,,,,,,wg-a,,,,AAXX 15064 07747 02584 /3312 10120 20020 30155 40212 58009 60006 81142 90600 333 10135 20113 60004=
07747,1997-10-15 09:00:00,14,1021,-0.2,44,2,50000,18.52,,,320,,,,,,,,,,,wg-a,,,,AAXX 15094 07747 12584 73210 10140 20020 30153 40210 56002 60006 83142 90900=
07747,1997-10-15 12:00:00,16,1019.3,-1.6,39,2,50000,22.224,,,350,,,,,,,,,,,wg-a,,,,AAXX 15124 07747 12584 73512 10160 20020 30137 40193 58016 60006 85842 91200=
07747,1997-10-15 18:00:00,15,1017.4,-0.4,48,4,500,7.408,,,330,11.7,17.3,,,,,,,,,wg-a,,,,AAXX 15184 07747 12700 33304 10150 20040 30118 40174 55004 60006 83540 91800 333 10173 20117=
07747,1997-10-15 21:00:00,17,1016.8,-0.6,55,8,500,14.816,,,280,,,,,,,,,,,wg-a,,,,AAXX 15214 07747 12700 /2808 10170 20080 30112 40168 56006 60006 81540 92100=
07747,1997-10-16 00:00:00,18,1015.7,-1.1,59,10,500,11.112,,,280,,,,,,,,,,,wg-a,,,,AAXX 16004 07747 12600 /2806 10180 20100 30101 40157 56011 60006 85800 90000=
07747,1997-10-16 03:00:00,18,1015.2,-0.5,64,11,500,18.52,,,320,,,,,,,,,,,wg-a,,,,AAXX 16034 07747 12500 73210 10180 20110 30096 40152 55005 60006 878// 90300=
07747,1997-10-16 06:00:00,17,1015.6,0.4,72,12,25000,11.112,,,290,15,18.2,,,,,,,,,wg-a,,,,AAXX 16064 07747 02575 72906 10170 20120 30100 40156 53004 60006 86841 90600 333 10182 20150 60004=
07747,1997-10-16 09:00:00,20,1016.1,0.6,60,12,25000,18.52,,,330,,,,,,,,,,,wg-a,,,,AAXX 16094 07747 12575 73310 10200 20120 30106 40161 51006 60006 86841 90900=
07747,1997-10-16 12:00:00,21,1015.1,-1,53,11,25000,31.484,,55.56,340,,,,,,,,,,,wg-a,,,,AAXX 16124 07747 12575 73417 10210 20110 30096 40151 58010 60006 82142 91200 333 91030=
07747,1997-10-16 15:00:00,21,1014.7,-0.4,53,11,25000,25.928,,,360,,,,,,,,,,,wg-a,,,,AAXX 16154 07747 12575 63614 10210 20110 30092 40147 57004 60006 82142 91500=
07747,1997-10-16 18:00:00,17,1015.9,1.1,68,11,25000,11.112,,,10,16.6,21.2,,,,,,,,,wg-a,,,,AAXX 16184 07747 12675 50106 10170 20110 30103 40159 53011 60006 83540 91800 333 10212 20166=
07747,1997-10-17 00:00:00,14,1016.2,-0.6,82,11,25000,3.704,,,30,,,,,,,,,,,wg-a,,,,AAXX 17004 07747 12575 30302 10140 20110 30106 40162 57006 60006 83800 90000=
07747,1997-10-17 03:00:00,12,1015.8,-0.5,88,10,25000,7.408,,,350,,,,,,,,,,,wg-a,,,,AAXX 17034 07747 12575 73504 10120 20100 30101 40158 58005 60006 878// 90300=
07747,1997-10-17 06:00:00,15,1016,0.3,82,12,15000,7.408,,,60,11.9,17.4,,,,,,,,,wg-a,,,,AAXX 17064 07747 02465 80604 10150 20120 30104 40160 53003 60006 888// 90600 333 10174 20119 60004=
07747,1997-10-17 09:00:00,16,1017.2,1.2,82,13,12000,14.816,,,60,,,,,,,,,,,wg-a,,,,AAXX 17094 07747 12462 80608 10160 20130 30116 40172 51012 60006 888// 90900=
07747,1997-10-17 12:00:00,21,1015.8,-1.3,60,13,15000,31.484,,,150,,,,,,,,,,,wg-a,,,,AAXX 17124 07747 12565 /1517 10210 20130 30103 40158 58013 60006 86800 91200=
07747,1997-10-17 15:00:00,20,1015,-0.8,73,15,15000,31.484,,,140,,,,,,,,,,,wg-a,,,,AAXX 17154 07747 12565 41417 10200 20150 30095 40150 56008 60006 84800 91500=
07747,1997-10-17 18:00:00,19,1015.5,0.5,83,16,15000,31.484,,,140,14.4,21.5,,,,,,,,,wg-a,,,,AAXX 17184 07747 12565 41417 10190 20160 30100 40155 53005 60006 83801 91800 333 10215 20144=
07747,1997-10-18 00:00:00,19,1017.2,1.1,73,14,15000,25.928,,,150,,,,,,,,,,,wg-a,,,,AAXX 18004 07747 12565 41514 10190 20140 30117 40172 53011 60006 83801 90000=
07747,1997-10-18 03:00:00,19,1017.4,0.2,78,15,15000,25.928,,,150,,,,,,,,,,,wg-a,,,,AAXX 18034 07747 12565 41514 10190 20150 30119 40174 52002 60006 83801 90300=
07747,1997-10-18 06:00:00,19,1018.5,1.1,78,15,40000,25.928,,,140,18.4,19.7,,,,,,,,,wg-a,,,,AAXX 18064 07747 02382 31414 10190 20150 30130 40185 53011 60006 83801 90600 333 10197 20184 60004=
07747,1997-10-18 09:00:00,21,1020,1.5,73,16,40000,35.188,,50.004,140,,,,,,,,,,,wg-a,,,,AAXX 18094 07747 12382 51419 10210 20160 30145 40200 51015 60006 84802 90900 333 91027=
07747,1997-10-18 12:00:00,23,1020,0,69,17,500,31.484,,,150,,,,,,,,,,,wg-a,,,,AAXX 18124 07747 12300 51517 10230 20170 30145 40200 50000 60006 84801 91200=
07747,1997-10-18 15:00:00,21,1019.4,-0.6,78,17,500,35.188,,,140,,,,,,,,,,,wg-a,,,,AAXX 18154 07747 12500 41419 10210 20170 30139 40194 56006 60006 83801 91500=
07747,1997-10-18 18:00:00,19,1020.1,0.7,88,17,15000,22.224,,,140,18.5,23.5,,,,,,,,,wg-a,,,,AAXX 18184 07747 12565 31412 10190 20170 30146 40201 53007 60006 82801 91800 333 10235 20185=
07747,1997-10-18 21:00:00,18,1021,0.8,94,17,12000,22.224,,,150,,,,,,,,,,,wg-a,,,,AAXX 18214 07747 12462 21512 10180 20170 30154 40210 53008 60006 81801 92100=
07747,1997-10-19 00:00:00,18,1020.4,-0.6,94,17,12000,18.52,,,140,,,,,,,,,,,wg-a,,,,AAXX 19004 07747 12462 21410 10180 20170 30148 40204 58006 60006 82800 90000=
07747,1997-10-19 03:00:00,18,1019.5,-0.9,83,15,15000,18.52,,,140,,,,,,,,,,,wg-a,,,,AAXX 19034 07747 12465 /1410 10180 20150 30139 40195 57009 60006 81800 90300=
07747,1997-10-19 06:00:00,16,1018.8,-0.7,94,15,10000,3.704,,,180,16.3,18.9,,,,,,,,,wg-a,,,,AAXX 19064 07747 02460 /1802 10160 20150 30132 40188 56007 60006 81100 90600 333 10189 20163 60004=
07747,1997-10-19 09:00:00,23,1018.6,-0.1,61,15,20000,11.112,,,130,,,,,,,,,,,wg-a,,,,AAXX 19094 07747 12570 41306 10230 20150 30131 40186 58001 60006 81102 90900=
07747,1997-10-19 12:00:00,24,1016.7,-1.8,65,17,20000,22.224,,,120,,,,,,,,,,,wg-a,,,,AAXX 19124 07747 12670 /1212 10240 20170 30113 40167 58018 60006 81132 91200=
07747,1997-10-19 15:00:00,23,1015.5,-1.2,73,18,20000,22.224,,,140,,,,,,,,,,,wg-a,,,,AAXX 19154 07747 12670 /1412 10230 20180 30101 40155 57012 60006 81132 91500=
07747,1997-10-19 18:00:00,19,1014.8,-0.8,94,18,10000,14.816,,,20,15.7,24.4,,,,,,,,,wg-a,,,,AAXX 19184 07747 12660 /0208 10190 20180 30093 40148 57008 60006 81132 91800 333 10244 20157=
07747,1997-10-19 21:00:00,19,1014.8,0,94,18,12000,14.816,,,350,,,,,,,,,,,wg-a,,,,AAXX 19214 07747 12362 /3508 10190 20180 30093 40148 50000 60006 81632 92100=
07747,1997-10-20 00:00:00,17,1014.4,-0.5,94,16,12000,3.704,,,270,,,,,,,,,,,wg-a,,,,AAXX 20004 07747 12362 /2702 10170 20160 30088 40144 58005 60006 81632 90000=
07747,1997-10-20 06:00:00,17,1012.5,-0.7,94,16,500,3.704,,,240,15.7,19.1,,,,,,,,,wg-a,,,,AAXX 20064 07747 02200 82402 10170 20160 30069 40125 58007 60006 886// 90600 333 10191 20157 60004=
07747,1997-10-20 09:00:00,18,1012.4,-0,100,18,2000,14.816,,,70,,,,,,,,,,10,wg-a,,,,AAXX 20094 07747 12120 80708 10180 20180 30069 40124 54000 60006 71022 886// 90900=
07747,1997-10-20 12:00:00,19,1011.1,-1.3,88,17,4000,14.816,,,80,,,,,,,,,,10,wg-a,,,,AAXX 20124 07747 12140 80808 10190 20170 30056 40111 58013 60006 71042 887// 91200=
07747,1997-10-20 15:00:00,19,1009.2,-1.9,83,16,500,14.816,,,50,,,,,,,,,,,wg-a,,,,AAXX 20154 07747 12100 80508 10190 20160 30037 40092 56019 60006 887// 91500=
07747,1997-10-20 18:00:00,18,1009.3,0.1,94,17,6000,3.704,,,360,16.5,18.8,,,,,,,,,wg-a,,,,AAXX 20184 07747 12456 /3602 10180 20170 30038 40093 53001 60006 875// 91800 333 10188 20165=
07747,1997-10-20 21:00:00,18,1008.9,-0.4,88,16,6000,7.408,,,280,,,,,,,,,,,wg-a,,,,AAXX 20214 07747 12456 72804 10180 20160 30034 40089 55004 60006 8457/ 92100=
07747,1997-10-21 00:00:00,17,1008.2,-0.7,94,16,6000,3.704,,,270,,,,,,,,,,,wg-a,,,,AAXX 21004 07747 12456 72702 10170 20160 30027 40082 56007 60006 8457/ 90000=
07747,1997-10-21 03:00:00,17,1007.3,-0.9,94,16,6000,0,,,0,,,,,,,,,,,wg-a,,,,AAXX 21034 07747 12456 70000 10170 20160 30018 40073 56009 60006 875// 90300=
07747,1997-10-21 06:00:00,16,1007.4,0.1,94,15,9000,11.112,,,270,15.7,18.2,,,,,,,,,wg-a,,,,AAXX 21064 07747 02459 72706 10160 20150 30019 40074 53001 60006 8757/ 90600 333 10182 20157 60004=
07747,1997-10-21 09:00:00,21,1008.1,0.8,73,16,6000,0,,,0,,,,,,,,,,,wg-a,,,,AAXX 21094 07747 12456 /0000 10210 20160 30027 40081 51008 60006 83572 90900=
07747,1997-10-21 12:00:00,25,1007.5,-0.6,61,17,15000,14.816,,,90,,,,,,,,,,,wg-a,,,,AAXX 21124 07747 12565 50908 10250 20170 30021 40075 58006 60006 81172 91200=
07747,1997-10-21 15:00:00,23,1007.7,0.2,69,17,15000,11.112,,,110,,,,,,,,,,,wg-a,,,,AAXX 21154 07747 12565 71106 10230 20170 30023 40077 53002 60006 8388/ 91500=
07747,1997-10-21 18:00:00,20,1008.9,1.1,83,17,12000,3.704,,,110,16.1,24.7,,,,,,,,,wg-a,,,,AAXX 21184 07747 12762 51102 10200 20170 30034 40089 53011 60006 83582 91800 333 10247 20161=
07747,1997-10-21 21:00:00,19,1009.6,0.7,88,17,15000,3.704,,,310,,,,,,,,,,,wg-a,,,,AAXX 21214 07747 12765 63102 10190 20170 30041 40096 51007 60006 85532 92100=
07747,1997-10-22 00:00:00,20,1009.5,-0.1,73,15,15000,11.112,,,260,,,,,,,,,,,wg-a,,,,AAXX 22004 07747 12765 62606 10200 20150 30040 40095 58001 60006 85532 90000=
07747,1997-10-22 03:00:00,19,1009.7,0.2,78,15,20000,3.704,,,20,,,,,,,,,,,wg-a,,,,AAXX 22034 07747 12770 70202 10190 20150 30042 40097 53002 60006 8253/ 90300=
07747,1997-10-22 06:00:00,18,1009.6,-0.1,94,17,4000,7.408,,,360,17.3,19.9,,,,,,,,10,wg-a,,,,AAXX 22064 07747 02140 83604 10180 20170 30041 40096 58001 60006 71022 877// 90600 333 10199 20173 60004=
07747,1997-10-22 09:00:00,19,1010.6,1,88,17,2000,7.408,,,140,,,,,,,,,,10,wg-a,,,,AAXX 22094 07747 12220 71404 10190 20170 30051 40106 51010 60006 71022 877// 90900=
07747,1997-10-22 12:00:00,20,1009.6,-1,88,18,500,14.816,,,90,,,,,,,,,,,wg-a,,,,AAXX 22124 07747 12100 80908 10200 20180 30041 40096 58010 60006 887// 91200=
07747,1997-10-22 18:00:00,19,1009.5,0.2,94,18,500,7.408,,,310,17.8,20.7,,,,,,,,58,wg-a,,,,AAXX 22184 07747 02100 83104 10190 20180 30040 40095 53002 61000 75865 887// 91800 333 10207 20178 6100=
07747,1997-10-22 21:00:00,18,1009.9,0.4,94,17,6000,7.408,,,330,,,,,,,,,,1,wg-a,,,,AAXX 22214 07747 02156 83304 10180 20170 30044 40099 53004 61000 70165 887// 92100 333 ////=
07747,1997-10-23 00:00:00,18,1009.9,0,94,17,6000,3.704,,,100,,,,,,,,,,1,wg-a,,,,AAXX 23004 07747 02156 81002 10180 20170 30044 40099 50000 61000 70165 887// 90000 333 ////=
07747,1997-10-23 03:00:00,17,1009.1,-0.8,100,17,6000,7.408,,,70,,,,,,,,,,,wg-a,,,,AAXX 23034 07747 12256 80704 10170 20170 30036 40091 58008 60006 885// 90300=
07747,1997-10-23 06:00:00,18,1009.1,-0,94,17,500,3.704,,,260,17.4,18.9,,,,,,,,,wg-a,,,,AAXX 23064 07747 02400 82602 10180 20170 30036 40091 54000 60006 889// 90600 333 10189 20174 61000=
07747,1997-10-23 09:00:00,18,1009.4,0.3,94,17,4000,3.704,,,330,,,,2,,,,,,60,wg-a,,,,AAXX 23094 07747 12440 73302 10180 20170 30039 40094 51003 60027 76086 875// 90900=
07747,1997-10-23 12:00:00,18,1009.2,-0.2,94,17,2000,11.112,,,20,,,,3,,,,,,80,wg-a,,,,AAXX 23124 07747 02220 70206 10180 20170 30037 40092 57002 60056 78098 875// 91200 333 60037=
07747,1997-10-23 18:00:00,17,1009.5,-0.4,88,15,20000,22.224,,,310,15.9,18.7,,2,,,,,,2,wg-a,,,,AAXX 23184 07747 02470 63112 10170 20150 30040 40095 55004 60006 70296 83830 91800 333 10187 20159 60027=
07747,1997-10-24 00:00:00,19,1011,0.4,68,13,25000,14.816,,,330,,,,,,,,,,,wg-a,,,,AAXX 24004 07747 12575 73308 10190 20130 30055 40110 51004 60006 878// 90000=
07747,1997-10-24 03:00:00,18,1010.8,-0.2,68,12,25000,29.632,,,320,,,,,,,,,,,wg-a,,,,AAXX 24034 07747 12575 43216 10180 20120 30053 40108 58002 60006 84800 90300=
07747,1997-10-24 06:00:00,18,1011.6,0.8,68,12,35000,38.892,,61.116,330,16.9,18.7,,,,,18,,,,wg-a,,,,AAXX 24064 07747 02581 /3321 10180 20120 30061 40116 51008 60006 86800 90600 333 10187 20169 60184 91033=
07747,1997-10-24 09:00:00,19,1012.8,1.2,64,12,40000,31.484,,,330,,,,,,,,,,,wg-a,,,,AAXX 24094 07747 12582 43317 10190 20120 30073 40128 51012 60006 84840 90900=
07747,1997-10-24 12:00:00,21,1012.4,-0.4,53,11,45000,38.892,,64.82,330,,,,0,,,,,,,wg-a,,,,AAXX 24124 07747 02683 /3321 10210 20110 30069 40124 58004 60006 81800 91200 333 60007 91035=
07747,1997-10-24 15:00:00,20,1012.8,0.4,56,11,45000,42.596,,68.524,330,,,,,,,,,,,wg-a,,,,AAXX 24154 07747 12683 /3323 10200 20110 30073 40128 53004 60006 81800 91500 333 91037=
07747,1997-10-24 18:00:00,17,1015.3,2.4,68,11,40000,25.928,,,340,17.2,21.5,,,,,,,,,wg-a,,,,AAXX 24184 07747 12682 /3414 10170 20110 30097 40153 53024 60006 81400 91800 333 10215 20172=
07747,1997-10-24 21:00:00,17,1016.3,1,63,10,20000,31.484,,51.856,340,,,,,,,,,,,wg-a,,,,AAXX 24214 07747 12/70 03417 10170 20100 30107 40163 51010 60006 80000 92100 333 91028=
07747,1997-10-25 00:00:00,15,1017.1,0.8,72,10,20000,11.112,,,320,,,,,,,,,,,wg-a,,,,AAXX 25004 07747 12/70 03206 10150 20100 30115 40171 51008 60006 80000 90000=
07747,1997-10-25 06:00:00,14,1019.2,1.5,67,8,25000,7.408,,,280,13.3,17.4,,,,,,,,,wg-a,,,,AAXX 25064 07747 02/75 02804 10140 20080 30135 40192 53015 60006 80000 90600 333 10174 20133 60004=
07747,1997-10-25 09:00:00,16,1020.8,1.7,72,11,15000,11.112,,,140,,,,,,,,,,,wg-a,,,,AAXX 25094 07747 12/65 01406 10160 20110 30152 40208 51017 60006 80000 90900=
07747,1997-10-25 12:00:00,18,1021,0.2,56,9,20000,11.112,,,90,,,,,,,,,,,wg-a,,,,AAXX 25124 07747 12/70 00906 10180 20090 30154 40210 50002 60006 80000 91200=
07747,1997-10-25 15:00:00,18,1020.5,-0.5,37,3,20000,11.112,,,120,,,,,,,,,,,wg-a,,,,AAXX 25154 07747 12/70 01206 10180 20030 30149 40205 55005 60006 80000 91500=
07747,1997-10-25 18:00:00,12,1021.6,1,76,8,20000,7.408,,,260,12.2,18.5,,,,,,,,,wg-a,,,,AAXX 25184 07747 12/70 02604 10120 20080 30159 40216 53010 60006 80000 91800 333 10185 20122=
07747,1997-10-25 21:00:00,10,1022.5,0.8,87,8,15000,7.408,,,260,,,,,,,,,,,wg-a,,,,AAXX 25214 07747 12565 /2604 10100 20080 30167 40225 51008 60006 81500 92100=
07747,1997-10-26 00:00:00,11,1021.9,-0.5,87,9,12000,3.704,,,360,,,,,,,,,,,wg-a,,,,AAXX 26004 07747 12562 73602 10110 20090 30162 40219 58005 60006 875// 90000=
07747,1997-10-26 03:00:00,12,1021.2,-0.7,88,10,10000,3.704,,,250,,,,,,,,,,,wg-a,,,,AAXX 26034 07747 12560 72502 10120 20100 30155 40212 58007 60006 875// 90300=
07747,1997-10-26 06:00:00,12,1021.2,-0,82,9,15000,0,,,0,9.1,12.7,,,,,,,,,wg-a,,,,AAXX 26064 07747 02565 70000 10120 20090 30155 40212 55000 60006 875// 90600 333 10127 20091 60004=
07747,1997-10-26 12:00:00,17,1020.3,-1.3,55,8,15000,7.408,,,160,,,,,,,,,,,wg-a,,,,AAXX 26124 07747 12565 /1604 10170 20080 30147 40203 58013 60006 81101 91200=
07747,1997-10-26 15:00:00,17,1018.9,-1.4,52,7,15000,7.408,,,120,,,,,,,,,,,wg-a,,,,AAXX 26154 07747 12/65 11204 10170 20070 30133 40189 56014 60006 81030 91500=
07747,1997-10-26 18:00:00,12,1019.3,0.3,82,9,12000,7.408,,,240,11.8,17.9,,,,,,,,,wg-a,,,,AAXX 26184 07747 12/62 12404 10120 20090 30136 40193 53003 60006 81032 91800 333 10179 20118=
07747,1997-10-26 21:00:00,9,1019.4,-0,93,8,7000,3.704,,,290,,,,,,,,,,,wg-a,,,,AAXX 26214 07747 12457 /2902 10090 20080 30136 40194 54000 60006 81600 92100=
07747,1997-10-27 00:00:00,8,1018.5,-0.9,93,7,8000,3.704,,,260,,,,,,,,,,,wg-a,,,,AAXX 27004 07747 12458 /2602 10080 20070 30127 40185 57009 60006 81600 90000=
07747,1997-10-27 03:00:00,7,1017.5,-1,93,6,8000,0,,,0,,,,0,,,,,,,wg-a,,,,AAXX 27034 07747 12458 /0000 10070 20060 30117 40175 58010 60007 81600 90300=
07747,1997-10-27 06:00:00,6,1017.4,-0.1,93,5,12000,3.704,,,240,5.4,11.9,,,,,,,,,wg-a,,,,AAXX 27064 07747 02462 /2402 10060 20050 30116 40174 56001 60006 81600 90600 333 10119 20054 60004=
07747,1997-10-27 09:00:00,14,1017.3,0.1,77,10,10000,3.704,,,10,,,,,,,,,,,wg-a,,,,AAXX 27094 07747 12/60 00102 10140 20100 30117 40173 50001 60006 80000 90900=
07747,1997-10-27 12:00:00,18,1015.5,-1.7,64,11,15000,7.408,,,170,,,,,,,,,,,wg-a,,,,AAXX 27124 07747 12/65 01704 10180 20110 30100 40155 58017 60006 80000 91200=
07747,1997-10-27 18:00:00,14,1014.8,0.4,82,11,20000,3.704,,,50,5.3,18.4,,,,,,,,,wg-a,,,,AAXX 27184 07747 12/70 00502 10140 20110 30092 40148 53004 60006 80000 91800 333 10184 20053=
07747,1997-10-27 21:00:00,11,1015.6,0.7,94,10,15000,11.112,,,10,,,,,,,,,,,wg-a,,,,AAXX 27214 07747 12/65 00106 10110 20100 30099 40156 53007 60006 80000 92100=
07747,1997-10-28 00:00:00,12,1015.3,-0.3,94,11,15000,0,,,0,,,,,,,,,,,wg-a,,,,AAXX 28004 07747 12565 70000 10120 20110 30096 40153 58003 60006 875// 90000=
07747,1997-10-28 03:00:00,13,1014.9,-0.4,72,8,15000,11.112,,,70,,,,,,,,,,,wg-a,,,,AAXX 28034 07747 12665 70706 10130 20080 30092 40149 58004 60006 875// 90300=
07747,1997-10-28 06:00:00,10,1014.7,-0.2,76,6,12000,11.112,,,350,9.4,14,,,,,,,,,wg-a,,,,AAXX 28064 07747 02462 /3506 10100 20060 30090 40147 58002 60006 81500 90600 333 10140 20094 60004=
07747,1997-10-28 12:00:00,14,1014.5,-0.8,77,10,8000,11.112,,,50,,,,,,,,,,,wg-a,,,,AAXX 28124 07747 12458 80506 10140 20100 30089 40145 58008 60006 878// 91200=
07747,1997-10-28 15:00:00,12,1015.2,0.6,94,11,4000,25.928,,,40,,,,0,,,,,,61,wg-a,,,,AAXX 28154 07747 12440 80414 10120 20110 30095 40152 53006 60007 76162 888// 91500=
07747,1997-10-28 18:00:00,11,1018.9,3.7,94,10,4000,22.224,,,30,9.9,14.9,,,,,,,,61,wg-a,,,,AAXX 28184 07747 02340 80312 10110 20100 30132 40189 53037 61000 76162 887// 91800 333 10149 20099 6003=
07747,1997-10-28 21:00:00,10,1021.3,2.4,93,9,500,18.52,,,40,,,,0,,,,,,2,wg-a,,,,AAXX 28214 07747 12200 80410 10100 20090 30156 40213 53024 60007 70262 887// 92100=
07747,1997-10-29 00:00:00,9,1022.7,1.3,87,7,6000,22.224,,,20,,,,,,,,,,1,wg-a,,,,AAXX 29004 07747 12456 80212 10090 20070 30169 40227 53013 60006 70162 887// 90000=
07747,1997-10-29 03:00:00,9,1023.4,0.7,81,6,6000,14.816,,,20,,,,,,,,,,,wg-a,,,,AAXX 29034 07747 12456 80208 10090 20060 30176 40234 51007 60006 887// 90300=
07747,1997-10-29 06:00:00,9,1023.9,0.5,87,7,8000,7.408,,,20,8.8,11.3,,,,,,,,51,wg-a,,,,AAXX 29064 07747 02458 80204 10090 20070 30181 40239 51005 61000 75165 885// 90600 333 10113 20088 6004=
07747,1997-10-29 09:00:00,10,1025.6,1.7,82,7,11000,11.112,,,10,,,,,,,,,,,wg-a,,,,AAXX 29094 07747 32/61 /0106 10100 20070 30198 40256 51017 90900=
07747,1997-10-29 12:00:00,10,1025.6,0,71,5,11000,11.112,,,50,,,,,,,,,,,wg-a,,,,AAXX 29124 07747 02/61 /0506 10100 20050 30198 40256 50000 61000 91200 333 ////=
07747,1997-10-29 15:00:00,12,1024.5,-1,67,6,12000,3.704,,,50,,,,,,,,,,,wg-a,,,,AAXX 29154 07747 12562 40502 10120 20060 30188 40245 56010 60006 84800 91500=
07747,1997-10-29 18:00:00,11,1024.8,0.2,66,5,20000,14.816,,,320,8.6,12.7,,,,,,,,,wg-a,,,,AAXX 29184 07747 12/70 03208 10110 20050 30190 40248 53002 60006 80000 91800 333 10127 20086=
07747,1997-10-29 21:00:00,11,1025.3,0.5,58,3,18000,18.52,,,340,,,,,,,,,,,wg-a,,,,AAXX 29214 07747 12/68 03410 10110 20030 30195 40253 53005 60006 80000 92100=
07747,1997-10-30 00:00:00,10,1024.5,-0.8,57,2,18000,22.224,,,330,,,,,,,,,,,wg-a,,,,AAXX 30004 07747 12/68 03312 10100 20020 30187 40245 58008 60006 80000 90000=
07747,1997-10-30 03:00:00,8,1023.7,-0.8,66,2,18000,11.112,,,310,,,,,,,,,,,wg-a,,,,AAXX 30034 07747 12/68 03106 10080 20020 30179 40237 58008 60006 80000 90300=
07747,1997-10-30 06:00:00,8,1023,-0.7,66,2,25000,18.52,,,300,7.7,11.3,,,,,,,,,wg-a,,,,AAXX 30064 07747 02575 /3010 10080 20020 30172 40230 57007 60006 81830 90600 333 10113 20077 61000=
07747,1997-10-30 09:00:00,19,1023.2,0.3,32,2,11000,25.928,,,340,,,,,,,,,,,wg-a,,,,AAXX 30094 07747 12561 /3414 10190 20020 30180 40232 53003 60006 81100 90900=
07747,1997-10-30 12:00:00,14,1021.4,-1.8,41,1,25000,25.928,,,340,,,,,,,,,,,wg-a,,,,AAXX 30124 07747 12575 /3414 10140 20010 30157 40214 58018 60006 81100 91200=
07747,1997-10-30 18:00:00,12,1021.8,1.3,58,4,15000,22.224,,,340,8,15.7,,,,,,,,,wg-a,,,,AAXX 30184 07747 12/65 03412 10120 20040 30161 40218 53013 60006 80000 91800 333 10157 20080=
07747,1997-10-30 21:00:00,11,1022.9,1.1,54,2,15000,22.224,,,360,,,,,,,,,,,wg-a,,,,AAXX 30214 07747 12/65 03612 10110 20020 30172 40229 51011 60006 80000 92100=
07747,1997-10-31 00:00:00,8,1023.7,0.7,66,2,15000,3.704,,,260,,,,,,,,,,,wg-a,,,,AAXX 31004 07747 12/65 02602 10080 20020 30179 40237 51007 60006 80000 90000=
07747,1997-10-31 03:00:00,5,1023.3,-0.5,81,2,15000,3.704,,,250,,,,,,,,,,,wg-a,,,,AAXX 31034 07747 12/65 02502 10050 20020 30174 40233 58005 60006 80000 90300=
07747,1997-10-31 06:00:00,2,1023.1,-0.2,93,1,10000,7.408,,,230,2.2,12.1,,,,,,,,,wg-a,,,,AAXX 31064 07747 02/60 02304 10020 20010 30172 40231 58002 60006 80000 90600 333 10121 20022 60004=
07747,1997-10-31 12:00:00,14,1022.5,-1,44,2,20000,11.112,,,140,,,,,,,,,,,wg-a,,,,AAXX 31124 07747 12/70 31406 10140 20020 30168 40225 58010 60006 80002 91200=
07747,1997-10-31 15:00:00,14,1021.7,-0.8,51,4,500,7.408,,,120,,,,,,,,,,,wg-a,,,,AAXX 31154 07747 12/00 61204 10140 20040 30160 40217 56008 60006 80002 91500=
07747,1997-10-31 18:00:00,10,1022.4,0.6,71,5,25000,0,,,0,2.2,14.5,,,,,,,,,wg-a,,,,AAXX 31184 07747 12/75 20000 10100 20050 30166 40224 53006 60006 80002 91800 333 10145 20022=
07747,1997-10-31 21:00:00,6,1022.9,0.5,87,4,10000,7.408,,,290,,,,,,,,,,,wg-a,,,,AAXX 31214 07747 12/60 /2904 10060 20040 30171 40229 53005 60006 92100=
07747,1997-11-01 00:00:00,4,1022.4,-0.6,93,3,12000,7.408,,,280,,,,,,,,,,,wg-a,,,,AAXX 01004 07747 12/62 22804 10040 20030 30165 40224 58006 60006 80002 90000=
07747,1997-11-01 03:00:00,3,1021.6,-0.8,93,2,15000,3.704,,,250,,,,,,,,,,,wg-a,,,,AAXX 01034 07747 32/65 02502 10030 20020 30157 40216 58008 80000 90300=
07747,1997-11-01 06:00:00,4,1021.6,0,87,2,15000,11.112,,,280,2.4,9.5,,,,,,,,,wg-a,,,,AAXX 01064 07747 02/65 22806 10040 20020 30157 40216 50000 60006 81032 90600 333 10095 20024 60004=
07747,1997-11-01 09:00:00,9,1022.6,1.1,71,4,15000,0,,,0,,,,,,,,,,,wg-a,,,,AAXX 01094 07747 12/65 40000 10090 20040 30168 40226 51011 60006 81032 90900=
07747,1997-11-01 12:00:00,13,1021.3,-1.2,62,6,15000,11.112,,,60,,,,,,,,,,,wg-a,,,,AAXX 01124 07747 12565 70606 10130 20060 30156 40213 58012 60006 875// 91200=
07747,1997-11-01 15:00:00,13,1020.6,-0.7,62,6,12000,11.112,,,50,,,,,,,,,,,wg-a,,,,AAXX 01154 07747 12562 70506 10130 20060 30149 40206 56007 60006 878// 91500=
07747,1997-11-01 18:00:00,10,1020.6,-0.1,76,6,10000,3.704,,,340,3.8,12.9,,,,,,,,,wg-a,,,,AAXX 01184 07747 12560 /3402 10100 20060 30148 40206 55001 60006 86500 91800 333 10129 20038=
07747,1997-11-01 21:00:00,11,1020.2,-0.3,82,8,15000,3.704,,,280,,,,,,,,,,,wg-a,,,,AAXX 01214 07747 12565 82802 10110 20080 30145 40202 55003 60006 885// 92100=
07747,1997-11-02 00:00:00,11,1019.5,-0.7,76,7,10000,0,,,0,,,,,,,,,,,wg-a,,,,AAXX 02004 07747 12560 80000 10110 20070 30138 40195 57007 60006 885// 90000=
07747,1997-11-02 03:00:00,11,1018.3,-1.2,82,8,10000,3.704,,,300,,,,,,,,,,,wg-a,,,,AAXX 02034 07747 12560 83002 10110 20080 30126 40183 56012 60006 885// 90300=
07747,1997-11-02 06:00:00,11,1017.6,-0.7,82,8,10000,7.408,,,270,9.4,11,,,,,,,,,wg-a,,,,AAXX 02064 07747 02560 82704 10110 20080 30119 40176 58007 60006 885// 90600 333 10110 20094 60004=
07747,1997-11-02 12:00:00,14,1015.4,-2.3,72,9,9000,18.52,,,40,,,,,,,,,,,wg-a,,,,AAXX 02124 07747 12559 80410 10140 20090 30098 40154 58023 60006 878// 91200=
07747,1997-11-02 15:00:00,14,1013.4,-2,77,10,8000,7.408,,,60,,,,,,,,,,,wg-a,,,,AAXX 02154 07747 12558 80604 10140 20100 30078 40134 56020 60006 888// 91500=
07747,1997-11-02 18:00:00,13,1012.9,-0.5,88,11,4500,7.408,,,280,10.7,14.6,,,,,,,,10,wg-a,,,,AAXX 02184 07747 12445 82804 10130 20110 30073 40129 56005 60006 71022 886// 91800 333 10146 20107=
07747,1997-11-02 21:00:00,11,1012.2,-0.8,94,10,500,3.704,,,260,,,,,,,,,,,wg-a,,,,AAXX 02214 07747 12400 72602 10110 20100 30065 40122 56008 60006 84602 92100=
07747,1997-11-03 00:00:00,14,1011.3,-0.8,82,11,500,7.408,,,180,,,,,,,,,,,wg-a,,,,AAXX 03004 07747 12400 71804 10140 20110 30057 40113 58008 60006 84632 90000=
07747,1997-11-03 06:00:00,15,1010.1,-0.3,72,10,15000,14.816,,,140,,,,,,,,,,,wg-a,,,,AAXX 03064 07747 12465 51408 10150 20100 30051 40101 58003 60006 83830 90600=
07747,1997-11-03 09:00:00,17,1010.2,0.3,68,11,20000,22.224,,,170,,,,,,,,,,,wg-a,,,,AAXX 03094 07747 12570 61712 10170 20110 30047 40102 52003 60006 84831 90900=
07747,1997-11-03 12:00:00,19,1008.1,-2.1,68,13,20000,29.632,,,160,,,,,,,,,,,wg-a,,,,AAXX 03124 07747 12470 51616 10190 20130 30026 40081 58021 60006 84832 91200=
07747,1997-11-03 15:00:00,18,1006.5,-1.6,73,13,20000,31.484,,,140,,,,,,,,,,,wg-a,,,,AAXX 03154 07747 12470 /1417 10180 20130 30010 40065 56016 60006 81832 91500=
07747,1997-11-03 18:00:00,17,1006.9,0.4,82,14,15000,18.52,,,140,14.4,19.7,,,,,,,,,wg-a,,,,AAXX 03184 07747 12465 71410 10170 20140 30014 40069 53004 60006 8587/ 91800 333 10197 20144=
07747,1997-11-03 21:00:00,16,1006.1,-0.8,100,16,6000,25.928,,,140,,,,0,,,,,,60,wg-a,,,,AAXX 03214 07747 12256 81414 10160 20160 30006 40061 58008 60007 76062 8777/ 92100=
07747,1997-11-04 00:00:00,16,1005.2,-0.9,100,16,500,18.52,,,150,,,,2,,,,,,21,wg-a,,,,AAXX 04004 07747 02200 81510 10160 20160 39997 40052 58009 60026 72162 877// 90000 333 60027=
07747,1997-11-04 03:00:00,16,1004.2,-1,94,15,8000,7.408,,,190,,,,,,,,,,,wg-a,,,,AAXX 04034 07747 12358 71904 10160 20150 39987 40042 58010 60006 8432/ 90300=
07747,1997-11-04 06:00:00,15,1004.7,0.5,94,14,8000,7.408,,,260,15.1,16.9,,,,,2,,,,wg-a,,,,AAXX 04064 07747 02258 72604 10150 20140 39992 40047 53005 60006 83532 90600 333 10169 20151 60024=
07747,1997-11-04 12:00:00,21,1006.8,0.2,78,17,15000,18.52,,,110,,,,,,,,,,,wg-a,,,,AAXX 04124 07747 12465 61110 10210 20170 30014 40068 50002 60006 85232 91200=
07747,1997-11-04 18:00:00,18,1008.2,1.1,94,17,4000,18.52,,,150,14.2,21,,,,,,,,10,wg-a,,,,AAXX 04184 07747 12140 71510 10180 20170 30027 40082 53011 60006 71022 877// 91800 333 10210 20142=
07747,1997-11-04 21:00:00,17,1008.1,-0.1,94,16,8000,14.816,,,150,,,,,,,,,,,wg-a,,,,AAXX 04214 07747 12358 71508 10170 20160 30026 40081 57001 60006 8457/ 92100=
07747,1997-11-05 00:00:00,16,1007.6,-0.5,94,15,8000,7.408,,,330,,,,,,,,,,,wg-a,,,,AAXX 05004 07747 12258 73304 10160 20150 30021 40076 56005 60006 8457/ 90000=
07747,1997-11-05 03:00:00,15,1007.2,-0.5,94,14,500,3.704,,,310,,,,,,,,,,,wg-a,,,,AAXX 05034 07747 12200 73102 10150 20140 30016 40072 58005 60006 875// 90300=
07747,1997-11-05 06:00:00,14,1006.9,-0.3,94,13,12000,3.704,,,250,13.7,17.9,,,,,,,,,wg-a,,,,AAXX 05064 07747 02462 72502 10140 20130 30013 40069 56003 60006 8357/ 90600 333 10179 20137 60004=
07747,1997-11-05 09:00:00,16,1006.6,-0.2,88,14,6000,3.704,,,30,,,,0,,,,,,,wg-a,,,,AAXX 05094 07747 12456 70302 10160 20140 30011 40066 58002 60007 82522 90900=
07747,1997-11-05 12:00:00,16,1002.9,-3.7,88,14,10000,7.408,,,40,,,,,,,,,,,wg-a,,,,AAXX 05124 07747 12560 80404 10160 20140 39974 40029 58037 60006 81872 91200=
07747,1997-11-05 15:00:00,21,998.6,-4.2,43,8,25000,29.632,,,180,,,,,,,,,,,wg-a,,,,AAXX 05154 07747 12575 71816 10210 20080 39932 49986 56042 60006 81872 91500=
07747,1997-11-05 18:00:00,20,998,-0.6,56,11,20000,42.596,,68.524,210,13.5,21,,,,,,,,,wg-a,,,,AAXX 05184 07747 12570 72123 10200 20110 39926 49980 56006 60006 8187/ 91800 333 10210 20135 91037=
07747,1997-11-05 21:00:00,18,997.1,-0.9,77,14,12000,38.892,,,210,,,,,,,,,,,wg-a,,,,AAXX 05214 07747 12462 82121 10180 20140 39917 49971 58009 60006 878// 92100=
07747,1997-11-06 00:00:00,20,993.5,-3.6,73,15,15000,38.892,,,190,,,,,,,,,,,wg-a,,,,AAXX 06004 07747 12565 81921 10200 20150 39881 49935 58036 60006 848// 90000=
07747,1997-11-06 06:00:00,20,990.7,-0.4,73,15,15000,25.928,,,190,17.8,21.6,,,,,,,,,wg-a,,,,AAXX 06064 07747 02565 71914 10200 20150 39853 49907 58004 60006 83872 90600 333 10216 20178 60004=
07747,1997-11-06 12:00:00,20,986,-1.9,78,16,12000,31.484,,44.448,190,,,,,,,,,,60,wg-a,,,,AAXX 06124 07747 02462 81917 10200 20160 39807 49860 56019 61000 76062 879// 91200 333 6100 91024=
07747,1997-11-06 15:00:00,20,986.2,0.2,68,14,12000,29.632,,48.152,190,,,,,,,,,,1,wg-a,,,,AAXX 06154 07747 02562 41916 10200 20140 39809 49862 53002 61000 70161 82982 91500 333 //// 91026=
07747,1997-11-06 18:00:00,16,988.8,2.5,55,7,12000,31.484,,53.708,200,16.4,23.4,,,,,,,,3,wg-a,,,,AAXX 06184 07747 12562 62017 10160 20070 39834 49888 51025 60006 70361 83882 91800 333 10234 20164 91029=
07747,1997-11-06 21:00:00,14,994.7,5.8,67,8,9000,31.484,,,320,,,,0,,,,,,16,wg-a,,,,AAXX 06214 07747 12459 73217 10140 20080 39892 49947 51058 60007 71686 878// 92100=
07747,1997-11-07 00:00:00,13,998.6,3.8,67,7,12000,25.928,,,320,,,,1,,,,,,1,wg-a,,,,AAXX 07004 07747 02562 73214 10130 20070 39930 49986 51038 60016 70186 8387/ 90000 333 60017=
07747,1997-11-07 03:00:00,11,1000.8,2.2,76,7,18000,11.112,,,260,,,,,,,,,,,wg-a,,,,AAXX 07034 07747 12568 /2606 10110 20070 39952 40008 51022 60006 82830 90300=
07747,1997-11-07 06:00:00,11,1003,2.2,82,8,25000,14.816,,,270,10.2,16.4,,,,,1,,,,wg-a,,,,AAXX 07064 07747 02575 /2708 10110 20080 39974 40030 53022 60006 83870 90600 333 10164 20102 60014=
07747,1997-11-07 09:00:00,15,1003.2,0.3,72,10,40000,14.816,,,210,,,,,,,,,,,wg-a,,,,AAXX 07094 07747 12782 32108 10150 20100 39977 40032 50003 60006 83500 90900=
07747,1997-11-07 12:00:00,17,1001.8,-1.4,59,9,500,29.632,,,160,,,,,,,,,,,wg-a,,,,AAXX 07124 07747 12600 61616 10170 20090 39963 40018 58014 60006 8/800 91200=
07747,1997-11-07 18:00:00,13,999.5,-0.7,82,10,500,11.112,,,100,11.2,17.7,,,,,,,,,wg-a,,,,AAXX 07184 07747 12700 21006 10130 20100 39939 49995 58007 60006 81501 91800 333 10177 20112=
07747,1997-11-08 00:00:00,12,1003.1,2.5,88,10,25000,7.408,,,280,,,,,,,,,,,wg-a,,,,AAXX 08004 07747 12575 72804 10120 20100 39975 40031 53025 60006 8453/ 90000=
07747,1997-11-08 06:00:00,15,1006.6,2.3,55,6,25000,18.52,,,320,9.6,15.4,,,,,,,,,wg-a,,,,AAXX 08064 07747 02575 73210 10150 20060 30010 40066 53023 60006 8484/ 90600 333 10154 20096 60004=
07747,1997-11-08 09:00:00,17,1008.8,2.3,45,5,35000,31.484,,53.708,310,,,,,,,,,,,wg-a,,,,AAXX 08094 07747 12581 43117 10170 20050 30033 40088 51023 60006 83840 90900 333 91029=
07747,1997-11-08 12:00:00,20,1008.7,-0.1,32,3,60000,11.112,,,320,,,,,,,,,,,wg-a,,,,AAXX 08124 07747 12686 33206 10200 20030 30032 40087 58001 60006 82840 91200=
07747,1997-11-08 18:00:00,15,1006.8,-1.4,67,9,25000,11.112,,,150,14.7,20.6,,,,,,,,,wg-a,,,,AAXX 08184 07747 12675 41506 10150 20090 30012 40068 56014 60006 82130 91800 333 10206 20147=
07747,1997-11-08 21:00:00,13,1005,-1.8,77,9,20000,7.408,,,320,,,,,,,,,,,wg-a,,,,AAXX 08214 07747 12670 /3204 10130 20090 39994 40050 56018 60006 81532 92100=
07747,1997-11-09 00:00:00,11,1002.6,-2.4,87,9,20000,7.408,,,330,,,,,,,,,,,wg-a,,,,AAXX 09004 07747 12670 73304 10110 20090 39970 40026 58024 60006 82532 90000=
07747,1997-11-09 03:00:00,14,1003.7,1.1,72,9,20000,29.632,,51.856,340,,,,,,,,,,,wg-a,,,,AAXX 09034 07747 12670 53416 10140 20090 39981 40037 53011 60006 81532 90300 333 91028=
07747,1997-11-09 06:00:00,13,1006.5,2.8,72,8,500,18.52,,,310,10.6,14.8,,,,,,,,,wg-a,,,,AAXX 09064 07747 02500 /3110 10130 20080 30009 40065 53028 60006 81541 90600 333 10148 20106 60004=
07747,1997-11-09 09:00:00,15,1008.6,2.1,55,6,40000,18.52,,,330,,,,,,,,,,,wg-a,,,,AAXX 09094 07747 12582 33310 10150 20060 30030 40086 51021 60006 83800 90900=
07747,1997-11-09 12:00:00,18,1008.8,0.3,45,6,25000,14.816,,,330,,,,,,,,,,,wg-a,,,,AAXX 09124 07747 12575 /3308 10180 20060 30033 40088 50003 60006 85802 91200=
07747,1997-11-09 15:00:00,17,1008.5,-0.3,52,7,25000,18.52,,,150,,,,,,,,,,,wg-a,,,,AAXX 09154 07747 12575 41510 10170 20070 30030 40085 55003 60006 83232 91500=
07747,1997-11-09 18:00:00,13,1009.7,1.1,82,10,20000,7.408,,,40,12.8,19.5,,,,,,,,,wg-a,,,,AAXX 09184 07747 12570 30404 10130 20100 30041 40097 53011 60006 83100 91800 333 10195 20128=
07747,1997-11-09 21:00:00,10,1010.6,0.8,87,8,20000,3.704,,,310,,,,,,,,,,,wg-a,,,,AAXX 09214 07747 12670 23102 10100 20080 30049 40106 51008 60006 82400 92100=
07747,1997-11-10 00:00:00,8,1009.2,-1.4,93,7,20000,7.408,,,270,,,,,,,,,,,wg-a,,,,AAXX 10004 07747 12670 32704 10080 20070 30035 40092 58014 60006 82502 90000=
07747,1997-11-10 03:00:00,7,1008.1,-1.1,93,6,2000,3.704,,,50,,,,,,,,,,,wg-a,,,,AAXX 10034 07747 12620 20502 10070 20060 30024 40081 56011 60006 82500 90300=
07747,1997-11-10 06:00:00,8,1007.6,-0.5,93,7,20000,11.112,,,270,5.4,13.4,,,,,,,,,wg-a,,,,AAXX 10064 07747 02570 42706 10080 20070 30019 40076 58005 60006 8/800 90600 333 10134 20054 60004=
07747,1997-11-10 12:00:00,17,1006,-0.8,59,9,500,7.408,,,30,,,,,,,,,,,wg-a,,,,AAXX 10124 07747 12500 20304 10170 20090 30005 40060 58008 60006 81201 91200=
07747,1997-11-10 15:00:00,16,1006.9,0.8,51,6,500,22.224,,,330,,,,,,,,,,,wg-a,,,,AAXX 10154 07747 12500 43312 10160 20060 30013 40069 53008 60006 84900 91500=
07747,1997-11-10 18:00:00,11,1008.7,1.7,71,6,20000,3.704,,,230,7.3,19.7,,,,,,,,,wg-a,,,,AAXX 10184 07747 12670 /2302 10110 20060 30030 40087 53017 60006 81100 91800 333 10197 20073=
07747,1997-11-11 00:00:00,8,1006.9,-1.5,87,6,10000,11.112,,,330,,,,,,,,,,,wg-a,,,,AAXX 11004 07747 12560 63306 10080 20060 30012 40069 56015 60006 83570 90000=
07747,1997-11-11 03:00:00,7,1003.8,-3.1,93,6,10000,7.408,,,260,,,,0,,,,,,,wg-a,,,,AAXX 11034 07747 12560 52604 10070 20060 39981 40038 56031 60007 82530 90300=
07747,1997-11-11 06:00:00,5,1003,-0.8,93,4,25000,3.704,,,240,4.5,11.4,,,,,,,,,wg-a,,,,AAXX 11064 07747 02575 62402 10050 20040 39973 40030 55008 60006 83530 90600 333 10114 20045 60004=
07747,1997-11-11 09:00:00,11,1001.3,-1.6,82,8,40000,11.112,,,350,,,,,,,,,,,wg-a,,,,AAXX 11094 07747 12582 43506 10110 20080 39957 40013 58016 60006 8118/ 90900=
07747,1997-11-11 12:00:00,17,998.1,-3.1,52,7,25000,7.408,,,110,,,,,,,,,,,wg-a,,,,AAXX 11124 07747 12575 61104 10170 20070 39926 49981 58031 60006 82282 91200=
07747,1997-11-11 15:00:00,19,996,-2,40,5,25000,29.632,,,220,,,,,,,,,,,wg-a,,,,AAXX 11154 07747 12575 72216 10190 20050 39906 49960 55020 60006 8138/ 91500=
07747,1997-11-11 18:00:00,14,996.6,0.5,67,8,25000,7.408,,,50,4.4,20.4,,,,,,,,,wg-a,,,,AAXX 11184 07747 12575 70504 10140 20080 39911 49966 50005 60006 8338/ 91800 333 10204 20044=
07747,1997-11-11 21:00:00,11,1000,3.3,62,4,25000,29.632,,,320,,,,,,,,,,,wg-a,,,,AAXX 11214 07747 12775 /3216 10110 20040 39944 40000 51033 60006 8253/ 92100=
07747,1997-11-12 00:00:00,11,1000.6,0.6,58,3,500,3.704,,,290,,,,,,,,,,,wg-a,,,,AAXX 12004 07747 12700 62902 10110 20030 39950 40006 53006 60006 84530 90000=
07747,1997-11-12 03:00:00,7,1001.1,0.4,76,3,500,11.112,,,260,,,,,,,,,,,wg-a,,,,AAXX 12034 07747 12700 42606 10070 20030 39954 40011 53004 60006 82530 90300=
07747,1997-11-12 06:00:00,7,1002.3,1.2,76,3,500,7.408,,,260,5.8,14.2,,,,,,,,,wg-a,,,,AAXX 12064 07747 02500 /2604 10070 20030 39966 40023 53012 60006 86800 90600 333 10142 20058 60004=
07747,1997-11-12 09:00:00,12,1003.9,1.7,58,4,500,22.224,,,320,,,,,,,,,,,wg-a,,,,AAXX 12094 07747 12500 73212 10120 20040 39983 40039 51017 60006 878// 90900=
07747,1997-11-12 12:00:00,13,1004.7,0.8,54,4,500,35.188,,,320,,,,,,,,,,,wg-a,,,,AAXX 12124 07747 12500 73219 10130 20040 39991 40047 51008 60006 84841 91200=
07747,1997-11-12 15:00:00,14,1005.3,0.6,47,3,500,38.892,,,320,,,,,,,,,,,wg-a,,,,AAXX 12154 07747 12500 63221 10140 20030 39997 40053 53006 60006 83841 91500=
07747,1997-11-12 18:00:00,11,1008.7,3.3,62,4,500,18.52,,,330,7,14.3,,,,,,,,,wg-a,,,,AAXX 12184 07747 12500 53310 10110 20040 30030 40087 51033 60006 82841 91800 333 10143 20070=
07747,1997-11-13 00:00:00,11,1010.8,-0.1,58,3,500,14.816,,,340,,,,,,,,,,,wg-a,,,,AAXX 13004 07747 12500 53408 10110 20030 30051 40108 58001 60006 83841 90000=
07747,1997-11-13 03:00:00,8,1010.1,-0.7,71,3,25000,3.704,,,200,,,,,,,,,,,wg-a,,,,AAXX 13034 07747 12575 22002 10080 20030 30044 40101 56007 60006 81841 90300=
07747,1997-11-13 06:00:00,4,1009.5,-0.7,81,1,25000,11.112,,,270,3.3,11.6,,,,,,,,,wg-a,,,,AAXX 13064 07747 02575 /2706 10040 20010 30037 40095 57007 60006 81841 90600 333 10116 20033 60004=
07747,1997-11-13 09:00:00,12,1009.5,0.2,47,1,60000,3.704,,,210,,,,,,,,,,,wg-a,,,,AAXX 13094 07747 12686 22102 10120 20010 30039 40095 50002 60006 81141 90900=
07747,1997-11-13 12:00:00,15,1007.6,-1.9,44,3,60000,3.704,,,180,,,,,,,,,,,wg-a,,,,AAXX 13124 07747 12686 /1802 10150 20030 30020 40076 58019 60006 81102 91200=
07747,1997-11-13 15:00:00,14,1006.5,-1.1,55,5,50000,11.112,,,130,,,,,,,,,,,wg-a,,,,AAXX 13154 07747 12684 /1306 10140 20050 30009 40065 56011 60006 81102 91500=
07747,1997-11-13 18:00:00,11,1007.6,1,71,6,40000,11.112,,,350,3.3,15,,,,,,,,,wg-a,,,,AAXX 13184 07747 12782 /3506 10110 20060 30019 40076 53010 60006 81402 91800 333 10150 20033=
07747,1997-11-13 21:00:00,8,1008.6,1,81,5,40000,11.112,,,280,,,,,,,,,,,wg-a,,,,AAXX 13214 07747 12/82 12806 10080 20050 30029 40086 51010 60006 80001 92100=
07747,1997-11-14 00:00:00,9,1009.5,0.9,71,4,500,3.704,,,330,,,,,,,,,,,wg-a,,,,AAXX 14004 07747 12/00 43302 10090 20040 30038 40095 53009 60006 81042 90000=
07747,1997-11-14 03:00:00,10,1010.5,1,71,5,25000,14.816,,,30,,,,,,,,,,,wg-a,,,,AAXX 14034 07747 12775 60308 10100 20050 30048 40105 51010 60006 84542 90300=
07747,1997-11-14 06:00:00,10,1011.4,0.9,71,5,40000,11.112,,,40,7.1,11.1,,,,,,,,,wg-a,,,,AAXX 14064 07747 02/82 30406 10100 20050 30057 40114 53009 60006 81042 90600 333 10111 20071 60004=
07747,1997-11-14 12:00:00,17,1013.5,-0.3,48,6,500,29.632,,,340,,,,,,,,,,,wg-a,,,,AAXX 14124 07747 12500 23416 10170 20060 30079 40135 58003 60006 82142 91200=
07747,1997-11-14 15:00:00,16,1014.5,1,51,6,45000,22.224,,,10,,,,,,,,,,,wg-a,,,,AAXX 14154 07747 12583 60112 10160 20060 30089 40145 53010 60006 82142 91500=
07747,1997-11-14 18:00:00,14,1016.1,1.6,55,5,25000,25.928,,,340,9.9,17.8,,,,,,,,,wg-a,,,,AAXX 14184 07747 12575 /3414 10140 20050 30105 40161 53016 60006 81140 91800 333 10178 20099=
07747,1997-11-14 21:00:00,12,1018.3,2.1,67,6,25000,11.112,,,360,,,,,,,,,,,wg-a,,,,AAXX 14214 07747 12775 /3606 10120 20060 30126 40183 51021 60006 81540 92100=
07747,1997-11-15 00:00:00,10,1018.6,0.3,76,6,25000,7.408,,,300,,,,,,,,,,,wg-a,,,,AAXX 15004 07747 12/75 13004 10100 20060 30129 40186 50003 60006 81040 90000=
07747,1997-11-15 03:00:00,7,1019.1,0.4,93,6,25000,7.408,,,280,,,,,,,,,,,wg-a,,,,AAXX 15034 07747 12/75 02804 10070 20060 30133 40191 53004 60006 80000 90300=
07747,1997-11-15 06:00:00,6,1020.3,1.2,87,4,40000,14.816,,,240,5.3,14.2,,,,,,,,,wg-a,,,,AAXX 15064 07747 02/82 02408 10060 20040 30145 40203 51012 60006 80000 90600 333 10142 20053 60004=
07747,1997-11-15 09:00:00,13,1021.8,1.6,72,8,20000,0,,,0,,,,,,,,,,,wg-a,,,,AAXX 15094 07747 12/70 00000 10130 20080 30161 40218 51016 60006 80000 90900=
07747,1997-11-15 12:00:00,17,1019.8,-1.9,55,8,20000,7.408,,,170,,,,,,,,,,,wg-a,,,,AAXX 15124 07747 12/70 11704 10170 20080 30142 40198 58019 60006 80001 91200=
07747,1997-11-15 15:00:00,16,1019.9,0.1,63,9,20000,14.816,,,120,,,,,,,,,,,wg-a,,,,AAXX 15154 07747 12/70 41208 10160 20090 30143 40199 53001 60006 80001 91500=
07747,1997-11-15 18:00:00,12,1020.7,0.7,76,8,20000,3.704,,,340,5.6,17.7,,,,,,,,,wg-a,,,,AAXX 15184 07747 12/70 33402 10120 20080 30150 40207 53007 60006 80001 91800 333 10177 20056=
07747,1997-11-15 21:00:00,8,1020.7,-0.1,93,7,15000,3.704,,,270,,,,,,,,,,,wg-a,,,,AAXX 15214 07747 12/65 42702 10080 20070 30149 40207 58001 60006 80001 92100=
07747,1997-11-16 00:00:00,6,1020.4,-0.3,93,5,15000,7.408,,,240,,,,,,,,,,,wg-a,,,,AAXX 16004 07747 12/65 52404 10060 20050 30146 40204 56003 60006 80002 90000=
07747,1997-11-16 03:00:00,7,1019.1,-1.3,100,7,9000,3.704,,,300,,,,,,,,,,,wg-a,,,,AAXX 16034 07747 12359 83002 10070 20070 30133 40191 56013 60006 886// 90300=
07747,1997-11-16 06:00:00,10,1018.4,-0.6,93,9,6000,3.704,,,270,5.1,11.5,,,,,,,,,wg-a,,,,AAXX 16064 07747 02456 82702 10100 20090 30127 40184 58006 60006 886// 90600 333 10115 20051 60004=
07747,1997-11-16 09:00:00,12,1018.5,0.1,88,10,12000,0,,,0,,,,,,,,,,,wg-a,,,,AAXX 16094 07747 12462 80000 10120 20100 30128 40185 52001 60006 885// 90900=
07747,1997-11-16 12:00:00,16,1016.7,-1.7,68,10,12000,3.704,,,140,,,,,,,,,,,wg-a,,,,AAXX 16124 07747 12562 71402 10160 20100 30111 40167 58017 60006 81132 91200=
07747,1997-11-16 15:00:00,16,1014.9,-1.8,68,10,15000,3.704,,,150,,,,,,,,,,,wg-a,,,,AAXX 16154 07747 12/65 71502 10160 20100 30093 40149 56018 60006 81032 91500=
07747,1997-11-16 18:00:00,11,1015,-0,94,10,9000,7.408,,,240,9.8,17.4,,,,,,,,,wg-a,,,,AAXX 16184 07747 12/59 72404 10110 20100 30093 40150 55000 60006 81032 91800 333 10174 20098=
07747,1997-11-16 21:00:00,13,1015.1,0.2,67,7,20000,3.704,,,170,,,,,,,,,,,wg-a,,,,AAXX 16214 07747 12/70 51702 10130 20070 30095 40151 53002 60006 80002 92100=
07747,1997-11-17 00:00:00,17,1014.6,-0.5,48,6,20000,18.52,,,350,,,,,,,,,,,wg-a,,,,AAXX 17004 07747 12/70 53510 10170 20060 30090 40146 55005 60006 80002 90000=
07747,1997-11-17 03:00:00,16,1014.1,-0.5,51,6,20000,14.816,,,310,,,,,,,,,,,wg-a,,,,AAXX 17034 07747 12/70 53108 10160 20060 30085 40141 58005 60006 80002 90300=
07747,1997-11-17 06:00:00,13,1014.2,0.1,62,6,500,0,,,0,10.7,18.4,,,,,,,,,wg-a,,,,AAXX 17064 07747 02/00 40000 10130 20060 30086 40142 53001 60006 81042 90600 333 10184 20107 60004=
07747,1997-11-17 09:00:00,16,1016.2,2,68,10,20000,18.52,,,70,,,,,,,,,,,wg-a,,,,AAXX 17094 07747 12570 /0710 10160 20100 30106 40162 51020 60006 81832 90900=
07747,1997-11-17 12:00:00,17,1014.8,-1.4,68,11,20000,11.112,,,100,,,,,,,,,,,wg-a,,,,AAXX 17124 07747 12570 71006 10170 20110 30092 40148 58014 60006 81132 91200=
07747,1997-11-17 15:00:00,16,1013.6,-1.2,77,12,18000,7.408,,,120,,,,,,,,,,,wg-a,,,,AAXX 17154 07747 12468 71204 10160 20120 30080 40136 56012 60006 81108 91500=
07747,1997-11-17 18:00:00,14,1013.4,-0.2,88,12,6000,7.408,,,10,12.5,17.3,,,,,,,,,wg-a,,,,AAXX 17184 07747 12456 70104 10140 20120 30078 40134 55002 60006 82672 91800 333 10173 20125=
07747,1997-11-18 00:00:00,15,1011.7,-1.4,88,13,9000,18.52,,,150,,,,,,,,,,,wg-a,,,,AAXX 18004 07747 12459 81510 10150 20130 30061 40117 58014 60006 875// 90000=
07747,1997-11-18 09:00:00,16,1010.3,0,82,13,9000,22.224,,,150,,,,,,,,,,,wg-a,,,,AAXX 18094 07747 12459 71512 10160 20130 30047 40103 50000 60006 8353/ 90900=
07747,1997-11-18 12:00:00,18,1008.3,-1.9,73,13,9000,29.632,,,140,,,,,,,,,,,wg-a,,,,AAXX 18124 07747 12459 61416 10180 20130 30028 40083 58019 60006 82142 91200=
07747,1997-11-18 15:00:00,16,1007.4,-0.9,82,13,12000,14.816,,,140,,,,,,,,,,,wg-a,,,,AAXX 18154 07747 12362 71408 10160 20130 30019 40074 56009 60006 8254/ 91500=
07747,1997-11-18 18:00:00,16,1007.9,0.4,82,13,9000,11.112,,,340,14.7,18.2,,,,,,,,,wg-a,,,,AAXX 18184 07747 12559 73406 10160 20130 30023 40079 51004 60006 8454/ 91800 333 10182 20147=
07747,1997-11-19 00:00:00,11,1006.7,-1.7,100,11,11000,7.408,,,250,,,,,,,,,,,wg-a,,,,AAXX 19004 07747 12/61 /2504 10110 20110 30011 40067 58017 60006 90000=
07747,1997-11-19 06:00:00,13,1003.4,-1,94,12,6000,7.408,,,290,11.4,15.5,,,,,,,,61,wg-a,,,,AAXX 19064 07747 02256 82904 10130 20120 39978 40034 56010 61000 76162 8357/ 90600 333 10155 20114 6003=
07747,1997-11-19 09:00:00,14,1003.7,0.3,88,12,9000,7.408,,,290,,,,1,,,,,,21,wg-a,,,,AAXX 19094 07747 12359 72904 10140 20120 39981 40037 50003 60017 72162 8557/ 90900=
07747,1997-11-19 12:00:00,17,1002.6,-1,72,12,20000,7.408,,,350,,,,,,,,,,2,wg-a,,,,AAXX 19124 07747 02470 73504 10170 20120 39971 40026 58010 60016 70262 8587/ 91200 333 61000=
07747,1997-11-19 15:00:00,17,1003.3,0.7,55,8,25000,14.816,,,330,,,,,,,,,,,wg-a,,,,AAXX 19154 07747 12575 73308 10170 20080 39978 40033 53007 60006 85830 91500=
07747,1997-11-19 18:00:00,15,1005.2,1.8,67,9,25000,22.224,,,320,12.6,18.5,,,,,,,,,wg-a,,,,AAXX 19184 07747 12575 83212 10150 20090 39996 40052 53018 60006 8587/ 91800 333 10185 20126=
07747,1997-11-19 21:00:00,12,1006,0.8,76,8,25000,7.408,,,300,,,,,,,,,,,wg-a,,,,AAXX 19214 07747 12575 23004 10120 20080 30004 40060 51008 60006 81540 92100=
07747,1997-11-20 00:00:00,10,1006.2,0.1,87,8,25000,11.112,,,270,,,,,,,,,,,wg-a,,,,AAXX 20004 07747 12575 42706 10100 20080 30005 40062 53001 60006 81540 90000=
07747,1997-11-20 03:00:00,8,1005.7,-0.5,87,6,25000,11.112,,,270,,,,,,,,,,,wg-a,,,,AAXX 20034 07747 12/75 02706 10080 20060 30000 40057 58005 60006 80000 90300=
07747,1997-11-20 06:00:00,7,1004.8,-0.9,93,6,25000,3.704,,,350,5.4,15.4,,,,,1,,,,wg-a,,,,AAXX 20064 07747 02/75 03502 10070 20060 39991 40048 55009 60006 80000 90600 333 10154 20054 60014=
07747,1997-11-20 09:00:00,12,1005.6,0.9,76,8,500,3.704,,,340,,,,,,,,,,,wg-a,,,,AAXX 20094 07747 12600 /3402 10120 20080 30000 40056 53009 60006 81140 90900=
07747,1997-11-20 12:00:00,17,1006,0.5,63,10,25000,7.408,,,40,,,,,,,,,,,wg-a,,,,AAXX 20124 07747 12575 /0404 10170 20100 30005 40060 53005 60006 81242 91200=
07747,1997-11-20 15:00:00,15,1007.9,1.8,55,6,500,22.224,,,330,,,,,,,,,,,wg-a,,,,AAXX 20154 07747 12600 53312 10150 20060 30023 40079 51018 60006 84842 91500=
07747,1997-11-20 18:00:00,13,1009.1,1.2,62,6,500,22.224,,,330,6.5,17.6,,,,,,,,,wg-a,,,,AAXX 20184 07747 12600 53312 10130 20060 30035 40091 53012 60006 85800 91800 333 10176 20065=
07747,1997-11-20 21:00:00,13,1010.7,1.6,54,4,25000,11.112,,,340,,,,,,,,,,,wg-a,,,,AAXX 20214 07747 12675 53406 10130 20040 30051 40107 51016 60006 85800 92100=
07747,1997-11-21 00:00:00,10,1011.8,1,71,5,25000,11.112,,,300,,,,,,,,,,,wg-a,,,,AAXX 21004 07747 12775 23006 10100 20050 30061 40118 53010 60006 82500 90000=
07747,1997-11-21 03:00:00,8,1011.5,-0.3,81,5,25000,14.816,,,230,,,,,,,,,,,wg-a,,,,AAXX 21034 07747 12575 /2308 10080 20050 30058 40115 58003 60006 86800 90300=
07747,1997-11-21 06:00:00,10,1011.1,-0.4,76,6,20000,11.112,,,260,7.6,14,,,,,,,,,wg-a,,,,AAXX 21064 07747 02470 82606 10100 20060 30054 40111 56004 60006 875// 90600 333 10140 20076 60004=
07747,1997-11-21 09:00:00,11,1011,-0.1,71,6,15000,0,,,0,,,,,,,,,,,wg-a,,,,AAXX 21094 07747 12565 80000 10110 20060 30053 40110 58001 60006 8387/ 90900=
07747,1997-11-21 12:00:00,13,1009.9,-1,77,9,15000,11.112,,,70,,,,,,,,,,,wg-a,,,,AAXX 21124 07747 12565 80706 10130 20090 30043 40099 58010 60006 8587/ 91200=
07747,1997-11-21 15:00:00,13,1008.9,-1,82,10,15000,11.112,,,60,,,,,,,,,,,wg-a,,,,AAXX 21154 07747 12565 80606 10130 20100 30033 40089 56010 60006 8687/ 91500=
07747,1997-11-21 18:00:00,12,1009.5,0.6,82,9,15000,18.52,,,50,9.5,13.6,,,,,,,,,wg-a,,,,AAXX 21184 07747 12565 70510 10120 20090 30039 40095 53006 60006 879// 91800 333 10136 20095=
07747,1997-11-21 21:00:00,11,1010.6,1,94,10,20000,3.704,,,20,,,,1,,,,,,21,wg-a,,,,AAXX 21214 07747 12570 70202 10110 20100 30049 40106 52010 60017 72162 878// 92100=
07747,1997-11-22 00:00:00,10,1010,-0.6,93,9,20000,7.408,,,280,,,,,,,,,,2,wg-a,,,,AAXX 22004 07747 12770 72804 10100 20090 30043 40100 57006 60016 70262 875// 90000=
07747,1997-11-22 03:00:00,10,1009.6,-0.4,82,7,20000,14.816,,,340,,,,,,,,,,,wg-a,,,,AAXX 22034 07747 12770 73408 10100 20070 30039 40096 56004 60006 85502 90300=
07747,1997-11-22 06:00:00,9,1009.3,-0.3,93,8,20000,7.408,,,290,8.8,11.7,,,,,1,,,,wg-a,,,,AAXX 22064 07747 02670 /2904 10090 20080 30036 40093 58003 60006 85502 90600 333 10117 20088 60014=
07747,1997-11-22 09:00:00,13,1010.9,1.7,67,7,25000,22.224,,,330,,,,,,,,,,,wg-a,,,,AAXX 22094 07747 12575 73312 10130 20070 30053 40109 51017 60006 83832 90900=
07747,1997-11-22 12:00:00,14,1010.4,-0.5,63,7,25000,25.928,,,320,,,,,,,,,,,wg-a,,,,AAXX 22124 07747 12575 /3214 10140 20070 30048 40104 58005 60006 82832 91200=
07747,1997-11-22 15:00:00,13,1011.2,0.8,62,6,25000,35.188,,,320,,,,,,,,,,,wg-a,,,,AAXX 22154 07747 12575 73219 10130 20060 30056 40112 53008 60006 81806 91500=
07747,1997-11-22 18:00:00,12,1013.1,1.8,62,5,18000,31.484,,51.856,330,8.4,14.3,,,,,,,,,wg-a,,,,AAXX 22184 07747 12568 73317 10120 20050 30074 40131 51018 60006 84802 91800 333 10143 20084 91028=
07747,1997-11-23 00:00:00,11,1016.5,1.3,66,5,25000,25.928,,,330,,,,,,,,,,,wg-a,,,,AAXX 23004 07747 12575 73314 10110 20050 30108 40165 51013 60006 87100 90000=
07747,1997-11-23 03:00:00,11,1016,-0.5,66,5,25000,29.632,,,320,,,,,,,,,,,wg-a,,,,AAXX 23034 07747 12575 23216 10110 20050 30103 40160 56005 60006 82100 90300=
07747,1997-11-23 06:00:00,11,1017.4,1.4,62,4,25000,7.408,,,40,10.3,12,,,,,,,,,wg-a,,,,AAXX 23064 07747 02575 20404 10110 20040 30117 40174 53014 60006 82100 90600 333 10120 20103 60004=
07747,1997-11-23 12:00:00,14,1017.9,-0.4,47,3,60000,22.224,,,340,,,,,,,,,,,wg-a,,,,AAXX 23124 07747 12586 /3412 10140 20030 30123 40179 58004 60006 81102 91200=
07747,1997-11-23 15:00:00,15,1016.8,-1.1,41,2,60000,18.52,,,330,,,,,,,,,,,wg-a,,,,AAXX 23154 07747 12686 23310 10150 20020 30112 40168 56011 60006 81102 91500=
07747,1997-11-23 18:00:00,12,1017.6,0.7,54,3,25000,7.408,,,250,10.4,15.2,,,,,,,,,wg-a,,,,AAXX 23184 07747 12/75 12504 10120 20030 30119 40176 53007 60006 80001 91800 333 10152 20104=
07747,1997-11-23 21:00:00,6,1017.4,-0.3,81,3,18000,3.704,,,150,,,,,,,,,,,wg-a,,,,AAXX 23214 07747 12/68 01502 10060 20030 30116 40174 57003 60006 80000 92100=
07747,1997-11-24 00:00:00,3,1015.9,-1.6,87,1,15000,0,,,0,,,,,,,,,,,wg-a,,,,AAXX 24004 07747 12/65 10000 10030 20010 30100 40159 58016 60006 80001 90000=
07747,1997-11-24 03:00:00,3,1014.7,-1.2,87,1,18000,0,,,0,,,,,,,,,,,wg-a,,,,AAXX 24034 07747 12/68 30000 10030 20010 30088 40147 58012 60006 80001 90300=
07747,1997-11-24 06:00:00,4,1013.6,-1,87,2,8000,3.704,,,330,2.6,11.9,,,,,,,,,wg-a,,,,AAXX 24064 07747 02258 73302 10040 20020 30078 40136 56010 60006 81634 90600 333 10119 20026 60004=
07747,1997-11-24 09:00:00,9,1013.5,0,87,7,9000,3.704,,,310,,,,,,,,,,,wg-a,,,,AAXX 24094 07747 12459 83102 10090 20070 30078 40135 50000 60006 875// 90900=
07747,1997-11-24 12:00:00,12,1010.3,-3.1,88,10,9000,18.52,,,60,,,,,,,,,,,wg-a,,,,AAXX 24124 07747 12459 80610 10120 20100 30047 40103 58031 60006 8553/ 91200=
07747,1997-11-24 15:00:00,13,1008,-2.3,72,8,9000,7.408,,,100,,,,,,,,,,,wg-a,,,,AAXX 24154 07747 12459 51004 10130 20080 30024 40080 58023 60006 81132 91500=
07747,1997-11-24 18:00:00,15,1007,-1,51,5,10000,22.224,,40.744,190,3.1,15.2,,,,,,,,,wg-a,,,,AAXX 24184 07747 12560 81912 10150 20050 30014 40070 56010 60006 878// 91800 333 10152 20031 91022=
07747,1997-11-24 21:00:00,15,1006.9,-0.1,59,7,15000,22.224,,,150,,,,,,,,,,,wg-a,,,,AAXX 24214 07747 12565 71512 10150 20070 30013 40069 58001 60006 82832 92100=
07747,1997-11-25 00:00:00,14,1006.9,-0,67,8,15000,7.408,,,190,,,,,,,,,,,wg-a,,,,AAXX 25004 07747 12565 71904 10140 20080 30013 40069 55000 60006 82842 90000=
07747,1997-11-25 03:00:00,11,1005.9,-1,87,9,20000,3.704,,,330,,,,,,,,,,,wg-a,,,,AAXX 25034 07747 12570 /3302 10110 20090 30003 40059 55010 60006 81100 90300=
07747,1997-11-25 06:00:00,6,1006,-0.1,87,4,20000,7.408,,,230,5.5,15.3,,,,,,,,,wg-a,,,,AAXX 25064 07747 02570 12304 10060 20040 30002 40060 55001 60006 81100 90600 333 10153 20055 60004=
07747,1997-11-25 09:00:00,12,1006.3,0.5,76,8,40000,3.704,,,200,,,,,,,,,,,wg-a,,,,AAXX 25094 07747 12582 42002 10120 20080 30007 40063 53005 60006 81904 90900=
07747,1997-11-25 12:00:00,15,1004.3,-2,59,7,500,7.408,,,90,,,,,,,,,,,wg-a,,,,AAXX 25124 07747 12500 /0904 10150 20070 39987 40043 58020 60006 81842 91200=
07747,1997-11-25 18:00:00,14,1001.2,-0.7,51,4,25000,18.52,,,190,4.9,17.8,,,,,,,,,wg-a,,,,AAXX 25184 07747 12575 /1910 10140 20040 39956 40012 56007 60006 81842 91800 333 10178 20049=
07747,1997-11-25 21:00:00,15,1001.5,0.4,59,7,25000,31.484,,,180,,,,,,,,,,,wg-a,,,,AAXX 25214 07747 12575 71817 10150 20070 39960 40015 53004 60006 878// 92100=
07747,1997-11-26 00:00:00,15,1001.6,0.1,63,8,25000,35.188,,,180,,,,,,,,,,,wg-a,,,,AAXX 26004 07747 12575 71819 10150 20080 39961 40016 50001 60006 878// 90000=
07747,1997-11-26 03:00:00,12,1002.1,0.4,94,11,15000,7.408,,,330,,,,0,,,,,,60,wg-a,,,,AAXX 26034 07747 12565 83304 10120 20110 39965 40021 50004 60007 76062 888// 90300=
07747,1997-11-26 06:00:00,12,1002.1,-0,94,11,500,11.112,,,130,12.1,15.6,,,,,,,,80,wg-a,,,,AAXX 26064 07747 02400 81306 10120 20110 39965 40021 55000 61000 78098 889// 90600 333 10156 20121 6005=
07747,1997-11-26 09:00:00,13,1003.1,1,94,12,15000,7.408,,,360,,,,0,,,,,,2,wg-a,,,,AAXX 26094 07747 12565 83604 10130 20120 39975 40031 53010 60007 70296 8/87/ 90900=
07747,1997-11-26 12:00:00,14,1002.8,-0.3,94,13,10000,7.408,,,50,,,,1,,,,,,61,wg-a,,,,AAXX 26124 07747 02360 80504 10140 20130 39972 40028 58003 60016 76196 8/87/ 91200 333 60017=
07747,1997-11-26 15:00:00,13,1003.7,0.9,100,13,4000,7.408,,,190,,,,17,,,,,,61,wg-a,,,,AAXX 26154 07747 12140 81904 10130 20130 39981 40037 53009 60177 76166 888// 91500=
07747,1997-11-26 18:00:00,12,1005.2,1.5,94,11,4000,22.224,,,330,11.8,14.1,,,,,,,,63,wg-a,,,,AAXX 26184 07747 02240 83312 10120 20110 39996 40052 51015 61000 76366 888// 91800 333 10141 20118 6009=
07747,1997-11-26 21:00:00,12,1007.8,2.6,94,11,4000,22.224,,,340,,,,26,,,,,,63,wg-a,,,,AAXX 26214 07747 12340 83412 10120 20110 30022 40078 52026 60267 76366 887// 92100=
07747,1997-11-27 00:00:00,12,1009.2,1.4,94,11,6000,14.816,,,350,,,,12,,,,,,63,wg-a,,,,AAXX 27004 07747 02556 83508 10120 20110 30036 40092 51014 60386 76366 885// 90000 333 60127=
07747,1997-11-27 03:00:00,12,1011.1,1.9,94,11,7000,11.112,,,20,,,,14,,,,,,60,wg-a,,,,AAXX 27034 07747 12557 80206 10120 20110 30055 40111 51019 60147 76066 885// 90300=
07747,1997-11-27 06:00:00,13,1012.8,1.7,88,11,15000,11.112,,,20,11.4,12.9,,,,,,,,21,wg-a,,,,AAXX 27064 07747 02565 80206 10130 20110 30072 40128 53017 61000 72162 885// 90600 333 10129 20114 6079=
07747,1997-11-27 09:00:00,13,1015.1,2.3,94,12,12000,3.704,,,170,,,,0,,,,,,60,wg-a,,,,AAXX 27094 07747 12562 81702 10130 20120 30095 40151 51023 60007 76062 888// 90900=
07747,1997-11-27 12:00:00,15,1015.3,0.2,77,11,18000,3.704,,,80,,,,,,,,,,1,wg-a,,,,AAXX 27124 07747 02568 70802 10150 20110 30097 40153 50002 60006 70162 84830 91200 333 61000=
07747,1997-11-27 15:00:00,16,1014.8,-0.5,63,9,25000,0,,,0,,,,,,,,,,,wg-a,,,,AAXX 27154 07747 12575 70000 10160 20090 30092 40148 56005 60006 81832 91500=
07747,1997-11-27 18:00:00,14,1015.9,1.1,77,10,15000,3.704,,,10,12.5,16.5,,,,,,,,,wg-a,,,,AAXX 27184 07747 12565 70102 10140 20100 30103 40159 53011 60006 8285/ 91800 333 10165 20125=
07747,1997-11-27 21:00:00,11,1016.4,0.4,94,10,12000,7.408,,,260,,,,,,,,,,,wg-a,,,,AAXX 27214 07747 12562 72604 10110 20100 30107 40164 51004 60006 82851 92100=
07747,1997-11-28 00:00:00,9,1015,-1.4,93,8,9000,7.408,,,340,,,,0,,,,,,,wg-a,,,,AAXX 28004 07747 02259 /3404 10090 20080 30093 40150 58014 60006 81600 90000 333 60007=
07747,1997-11-28 03:00:00,10,1014.1,-0.9,87,8,9000,7.408,,,330,,,,,,,,,,,wg-a,,,,AAXX 28034 07747 12/59 03304 10100 20080 30084 40141 56009 60006 80000 90300=
07747,1997-11-28 06:00:00,6,1014.1,-0.1,100,6,8000,11.112,,,260,6,13.9,,,,,,,,,wg-a,,,,AAXX 28064 07747 02258 /2606 10060 20060 30083 40141 55001 60006 81500 90600 333 10139 20060 60004=
07747,1997-11-28 09:00:00,12,1015.1,1.1,88,10,6000,7.408,,,200,,,,0,,,,,,,wg-a,,,,AAXX 28094 07747 12256 32004 10120 20100 30094 40151 51011 60007 81182 90900=
07747,1997-11-28 12:00:00,15,1014.4,-0.6,72,10,12000,3.704,,,90,,,,,,,,,,,wg-a,,,,AAXX 28124 07747 12562 70902 10150 20100 30088 40144 58006 60006 81182 91200=
07747,1997-11-28 15:00:00,15,1014.5,0.1,77,11,12000,7.408,,,290,,,,,,,,,,,wg-a,,,,AAXX 28154 07747 12562 82904 10150 20110 30089 40145 53001 60006 8187/ 91500=
07747,1997-11-28 18:00:00,13,1016.2,1.6,94,12,10000,7.408,,,280,6.1,15,,,,,,,,61,wg-a,,,,AAXX 28184 07747 02460 82804 10130 20120 30105 40162 53016 61000 76162 8687/ 91800 333 10150 20061 6000=
07747,1997-11-28 21:00:00,13,1016.4,0.2,88,11,20000,0,,,0,,,,,,,,,,1,wg-a,,,,AAXX 28214 07747 02670 70000 10130 20110 30107 40164 51002 61000 70162 8457/ 92100 333 ////=
07747,1997-11-29 00:00:00,11,1015.6,-0.8,94,10,20000,7.408,,,260,,,,,,,,,,3,wg-a,,,,AAXX 29004 07747 02670 72604 10110 20100 30099 40156 57008 61000 70362 8154/ 90000 333 ////=
07747,1997-11-29 03:00:00,11,1015.1,-0.5,94,10,11000,11.112,,,250,,,,,,,,,,,wg-a,,,,AAXX 29034 07747 12/61 /2506 10110 20100 30094 40151 57005 60006 90300=
07747,1997-11-29 06:00:00,13,1015.1,-0,72,8,20000,14.816,,,240,9.9,13.8,,,,,1,,,,wg-a,,,,AAXX 29064 07747 02670 72408 10130 20080 30094 40151 55000 60006 8557/ 90600 333 10138 20099 60014=
07747,1997-11-29 09:00:00,13,1014.7,-0.4,77,9,25000,11.112,,,270,,,,,,,,,,,wg-a,,,,AAXX 29094 07747 12775 72706 10130 20090 30090 40147 57004 60006 875// 90900=
07747,1997-11-29 15:00:00,16,1011.3,-1.6,55,7,25000,18.52,,,330,,,,,,,,,,,wg-a,,,,AAXX 29154 07747 12575 53310 10160 20070 30057 40113 56016 60006 83841 91500=
07747,1997-11-29 18:00:00,13,1011.4,0.1,67,7,25000,11.112,,,310,12,16.7,,,,,,,,,wg-a,,,,AAXX 29184 07747 12575 73106 10130 20070 30058 40114 53001 60006 87800 91800 333 10167 20120=
07747,1997-11-29 21:00:00,11,1011.4,-0.1,76,7,25000,22.224,,,320,,,,1,,,,,,60,wg-a,,,,AAXX 29214 07747 12575 73212 10110 20070 30057 40114 55001 60017 76062 878// 92100=
07747,1997-11-30 00:00:00,11,1011.5,0.1,71,6,25000,35.188,,55.56,320,,,,,,,,,,2,wg-a,,,,AAXX 30004 07747 02575 /3219 10110 20060 30058 40115 50001 60016 70262 86800 90000 333 61000 91030=
07747,1997-11-30 03:00:00,11,1011.7,0.2,71,6,25000,35.188,,55.56,320,,,,,,,,,,,wg-a,,,,AAXX 30034 07747 12575 63219 10110 20060 30060 40117 53002 60006 86840 90300 333 91030=
07747,1997-11-30 06:00:00,11,1013.8,2.1,71,6,25000,29.632,,50.004,310,10.4,13.2,,,,,1,,,,wg-a,,,,AAXX 30064 07747 02575 /3116 10110 20060 30081 40138 53021 60006 85840 90600 333 10132 20104 60014 91027=
07747,1997-11-30 09:00:00,12,1014.6,0.8,62,5,40000,35.188,,62.968,330,,,,,,,,,,,wg-a,,,,AAXX 30094 07747 12582 43319 10120 20050 30089 40146 51008 60006 84140 90900 333 91034=
07747,1997-11-30 12:00:00,13,1014.3,-0.2,58,5,45000,25.928,,44.448,330,,,,,,,,,,,wg-a,,,,AAXX 30124 07747 12583 63314 10130 20050 30087 40143 58002 60006 86200 91200 333 91024=
07747,1997-11-30 18:00:00,12,1014.9,0.6,58,4,25000,25.928,,51.856,330,11,14.5,,,,,,,,,wg-a,,,,AAXX 30184 07747 12575 53314 10120 20040 30092 40149 51006 60006 85800 91800 333 10145 20110 91028=
07747,1997-11-30 21:00:00,13,1015.5,0.6,58,5,25000,35.188,,48.152,330,,,,,,,,,,,wg-a,,,,AAXX 30214 07747 12575 33319 10130 20050 30098 40155 52006 60006 83100 92100 333 91026=
07747,1997-12-01 00:00:00,12,1015.2,-0.3,62,5,0,35.188,,,310,,,,,,,,,,,wg-a,,,,AAXX 01004 07747 12/// /3119 10120 20050 30095 40152 58003 60006 90000=
07747,1997-12-01 06:00:00,12,1016,1,62,5,25000,25.928,,,340,11.4,12.9,,,,,,,,,wg-a,,,,AAXX 01064 07747 02675 /3414 10120 20050 30103 40160 53010 60006 86500 90600 333 10129 20114 60004=
07747,1997-12-01 09:00:00,13,1014.8,-1.2,54,4,500,57.412,,81.488,330,,,,,,,,,,,wg-a,,,,AAXX 01094 07747 12600 33331 10130 20040 30091 40148 58012 60006 83500 90900 333 91044=
07747,1997-12-01 12:00:00,14,1014.4,-0.3,55,5,500,42.596,,74.08,330,,,,,,,,,,,wg-a,,,,AAXX 01124 07747 12600 53323 10140 20050 30088 40144 58003 60006 81142 91200 333 91040=
07747,1997-12-01 15:00:00,14,1013.7,-0.7,55,5,500,25.928,,,350,,,,,,,,,,,wg-a,,,,AAXX 01154 07747 12600 63514 10140 20050 30081 40137 58007 60006 82542 91500=
07747,1997-12-01 18:00:00,12,1012.9,-0.9,71,7,500,18.52,,,20,11.8,14.7,,,,,,,,,wg-a,,,,AAXX 01184 07747 12600 70210 10120 20070 30072 40129 58009 60006 82542 91800 333 10147 20118=
07747,1997-12-01 21:00:00,10,1011.3,-1.6,87,8,15000,7.408,,,190,,,,,,,,,,1,wg-a,,,,AAXX 01214 07747 02565 71904 10100 20080 30056 40113 58016 61000 70162 878// 92100 333 ////=
07747,1997-12-02 00:00:00,9,1009.6,-1.7,87,7,20000,7.408,,,160,,,,,,,,,,3,wg-a,,,,AAXX 02004 07747 02570 /1604 10090 20070 30039 40096 56017 61000 70362 86800 90000 333 ////=
07747,1997-12-02 03:00:00,11,1007.4,-2.1,71,6,25000,11.112,,,270,,,,,,,,,,,wg-a,,,,AAXX 02034 07747 12575 /2706 10110 20060 30018 40074 58021 60006 85800 90300=
07747,1997-12-02 06:00:00,9,1004.9,-2.6,76,5,25000,14.816,,,280,8,13.9,,,,,,,,,wg-a,,,,AAXX 02064 07747 02575 32808 10090 20050 39992 40049 56026 60006 83800 90600 333 10139 20080 61000=
07747,1997-12-02 12:00:00,13,1004.3,0.4,77,9,20000,22.224,,,330,,,,1,,,,,,21,wg-a,,,,AAXX 02124 07747 02570 73312 10130 20090 39987 40043 50004 60016 72161 8783/ 91200 333 60017=
07747,1997-12-02 15:00:00,10,1005,0.7,82,7,7000,29.632,,50.004,320,,,,1,,,,,,60,wg-a,,,,AAXX 02154 07747 12557 73216 10100 20070 39994 40050 51007 60017 76062 878// 91500 333 91027=
07747,1997-12-02 18:00:00,8,1006.7,1.6,61,1,15000,46.3,,79.636,320,7,15.7,,,,,,,,21,wg-a,,,,AAXX 02184 07747 02565 33225 10080 20010 30010 40067 51016 61000 72161 83800 91800 333 10157 20070 6001 91043=
07747,1997-12-02 21:00:00,8,1009.8,3.1,53,-1,15000,42.596,,66.672,320,,,,,,,,,,,wg-a,,,,AAXX 02214 07747 12565 23223 10080 21010 30041 40098 53031 60006 82800 92100 333 91036=
07747,1997-12-03 00:00:00,6,1010.8,0.9,56,-2,15000,35.188,,57.412,330,,,,,,,,,,,wg-a,,,,AAXX 03004 07747 12665 33319 10060 21020 30050 40108 50009 60006 83500 90000 333 91031=
07747,1997-12-03 03:00:00,6,1009.2,-1.6,45,-5,18000,38.892,,62.968,330,,,,,,,,,,,wg-a,,,,AAXX 03034 07747 12668 /3321 10060 21050 30034 40092 56016 60006 81500 90300 333 91034=
07747,1997-12-03 06:00:00,8,1007.4,-1.7,57,0,18000,25.928,,42.596,340,5.4,8.9,,,,,3,,,,wg-a,,,,AAXX 03064 07747 02568 43414 10080 20000 30017 40074 55017 60006 83850 90600 333 10089 20054 60034 91023=
07747,1997-12-03 09:00:00,6,1010.7,3.2,65,0,20000,42.596,,62.968,320,,,,0,,,,,,21,wg-a,,,,AAXX 03094 07747 12470 33223 10060 20000 30049 40107 51032 60007 72161 82870 90900 333 91034=
07747,1997-12-03 12:00:00,8,1010.6,-0,53,-1,25000,42.596,,64.82,320,,,,,,,,,,1,wg-a,,,,AAXX 03124 07747 12575 23223 10080 21010 30049 40106 55000 60006 70161 82200 91200 333 91035=
07747,1997-12-03 15:00:00,8,1010.7,0.1,36,-6,60000,46.3,,64.82,320,,,,,,,,,,,wg-a,,,,AAXX 03154 07747 12586 /3225 10080 21060 30050 40107 53001 60006 81140 91500 333 91035=
07747,1997-12-03 18:00:00,7,1011.7,0.9,33,-8,60000,35.188,,55.56,320,3.4,8.9,,,,,,,,,wg-a,,,,AAXX 03184 07747 12586 /3219 10070 21080 30059 40117 53009 60006 81140 91800 333 10089 20034 91030=
07747,1997-12-04 00:00:00,5,1011.5,-1.9,48,-5,500,50.004,,66.672,320,,,,,,,,,,,wg-a,,,,AAXX 04004 07747 12/00 53227 10050 21050 30057 40115 58019 60006 82041 90000 333 91036=
07747,1997-12-04 03:00:00,5,1012.1,0.6,45,-6,500,25.928,,40.744,20,,,,,,,,,,,wg-a,,,,AAXX 04034 07747 12/00 50214 10050 21060 30063 40121 53006 60006 82041 90300 333 91022=
07747,1997-12-04 06:00:00,4,1011.5,-0.6,44,-7,11000,35.188,,,340,4.1,6.8,,,,,,,,,wg-a,,,,AAXX 04064 07747 02/61 /3419 10040 21070 30057 40115 56006 60006 90600 333 10068 20041 60004=
07747,1997-12-04 09:00:00,4,1012.9,1.4,52,-5,500,14.816,,,340,,,,,,,,,,,wg-a,,,,AAXX 04094 07747 12500 /3408 10040 21050 30071 40129 51014 60006 81102 90900=
07747,1997-12-04 12:00:00,7,1011.9,-1,31,-9,500,22.224,,,330,,,,,,,,,,,wg-a,,,,AAXX 04124 07747 12500 73312 10070 21090 30061 40119 58010 60006 81102 91200=
07747,1997-12-04 15:00:00,6,1011.6,-0.3,45,-5,500,22.224,,,340,,,,,,,,,,,wg-a,,,,AAXX 04154 07747 12500 83412 10060 21050 30058 40116 55003 60006 8357/ 91500=
07747,1997-12-04 18:00:00,5,1013.3,1.7,48,-5,25000,11.112,,,10,3.6,6.7,,,,,,,,,wg-a,,,,AAXX 04184 07747 12575 70106 10050 21050 30075 40133 53017 60006 8357/ 91800 333 10067 20036=
07747,1997-12-04 21:00:00,5,1013.2,-0.1,56,-3,25000,31.484,,,340,,,,,,,,,,,wg-a,,,,AAXX 04214 07747 12575 73417 10050 21030 30074 40132 58001 60006 8387/ 92100=
07747,1997-12-05 00:00:00,4,1014.3,1.1,65,-2,25000,25.928,,,340,,,,,,,,,,,wg-a,,,,AAXX 05004 07747 12575 73414 10040 21020 30085 40143 51011 60006 81172 90000=
07747,1997-12-05 03:00:00,5,1014.5,0.2,56,-3,25000,31.484,,51.856,330,,,,,,,,,,,wg-a,,,,AAXX 05034 07747 12575 73317 10050 21030 30087 40145 51002 60006 878// 90300 333 91028=
07747,1997-12-05 06:00:00,5,1014.6,0.1,56,-3,25000,29.632,,,330,4.1,5,,,,,,,,,wg-a,,,,AAXX 05064 07747 02575 73316 10050 21030 30088 40146 51001 60006 878// 90600 333 10050 20041 60004=
07747,1997-12-05 09:00:00,6,1016.4,1.8,52,-3,500,31.484,,,320,,,,,,,,,,,wg-a,,,,AAXX 05094 07747 12500 73217 10060 21030 30106 40164 53018 60006 875// 90900=
07747,1997-12-05 12:00:00,6,1016.9,0.5,52,-3,500,35.188,,,320,,,,,,,,,,,wg-a,,,,AAXX 05124 07747 12500 73219 10060 21030 30111 40169 50005 60006 878// 91200=
07747,1997-12-05 15:00:00,7,1016.6,-0.3,45,-4,500,42.596,,,330,,,,,,,,,,,wg-a,,,,AAXX 05154 07747 12500 23323 10070 21040 30108 40166 56003 60006 81831 91500=
07747,1997-12-05 18:00:00,5,1018,1.4,56,-3,25000,46.3,,,330,4.9,7.4,,,,,,,,,wg-a,,,,AAXX 05184 07747 12775 /3325 10050 21030 30122 40180 51014 60006 81500 91800 333 10074 20049=
07747,1997-12-05 21:00:00,5,1018.8,0.8,56,-3,25000,42.596,,66.672,320,,,,,,,,,,,wg-a,,,,AAXX 05214 07747 12/75 03223 10050 21030 30130 40188 51008 60006 80000 92100 333 91036=
07747,1997-12-06 00:00:00,5,1019.3,0.5,56,-3,0,38.892,,,340,,,,,,,,,,,wg-a,,,,AAXX 06004 07747 12/// /3421 10050 21030 30135 40193 50005 60006 90000=
07747,1997-12-06 03:00:00,4,1019.9,0.5,65,-2,25000,25.928,,38.892,330,,,,,,,,,,,wg-a,,,,AAXX 06034 07747 12/75 03314 10040 21020 30140 40199 50005 60006 80000 90300 333 91021=
07747,1997-12-06 06:00:00,5,1020,0.1,56,-3,25000,35.188,,,340,4.3,5.6,,,,,,,,,wg-a,,,,AAXX 06064 07747 02/75 03419 10050 21030 30141 40200 53001 60006 80000 90600 333 10056 20043 60004=
07747,1997-12-06 12:00:00,11,1019.3,-1.1,35,-4,25000,35.188,,,330,,,,,,,,,,,wg-a,,,,AAXX 06124 07747 12/75 03319 10110 21040 30136 40193 58011 60006 80000 91200=
07747,1997-12-06 15:00:00,12,1018.6,-0.7,32,-4,500,35.188,,57.412,320,,,,,,,,,,,wg-a,,,,AAXX 06154 07747 12/00 03219 10120 21040 30129 40186 55007 60006 80000 91500 333 91031=
07747,1997-12-06 18:00:00,9,1020.4,1.7,37,-5,25000,18.52,,,340,4.9,12.5,,,,,,,,,wg-a,,,,AAXX 06184 07747 12/75 03410 10090 21050 30146 40204 53017 60006 80000 91800 333 10125 20049=
07747,1997-12-06 21:00:00,7,1021.5,1.1,39,-6,25000,3.704,,,200,,,,,,,,,,,wg-a,,,,AAXX 06214 07747 12/75 02002 10070 21060 30157 40215 50011 60006 80000 92100=
07747,1997-12-07 00:00:00,3,1021.2,-0.4,60,-4,25000,3.704,,,250,,,,,,,,,,,wg-a,,,,AAXX 07004 07747 12/75 02502 10030 21040 30153 40212 56004 60006 80000 90000=
07747,1997-12-07 06:00:00,-1,1020.4,-0.1,80,-4,12000,0,,,0,-1.8,9.3,,,,,,,,,wg-a,,,,AAXX 07064 07747 02262 /0000 11010 21040 30144 40204 57001 60006 81600 90600 333 10093 21018 60004=
07747,1997-12-07 12:00:00,10,1019.2,-1.5,62,3,8000,7.408,,,130,,,,,,,,,,,wg-a,,,,AAXX 07124 07747 12/58 01304 10100 20030 30135 40192 58015 60006 80000 91200=
07747,1997-12-07 15:00:00,9,1017.9,-1.4,76,5,8000,7.408,,,60,,,,,,,,,,,wg-a,,,,AAXX 07154 07747 12358 /0604 10090 20050 30121 40179 56014 60006 81600 91500=
07747,1997-12-07 18:00:00,7,1018.1,0.2,81,4,500,11.112,,,350,-1.4,10.2,,,,,,,,,wg-a,,,,AAXX 07184 07747 12300 23506 10070 20040 30123 40181 53002 60006 82600 91800 333 10102 21014=
07747,1997-12-07 21:00:00,5,1017.7,-0.4,93,4,4000,7.408,,,270,,,,,,,,,,10,wg-a,,,,AAXX 07214 07747 12340 /2704 10050 20040 30119 40177 56004 60006 71011 86500 92100=
07747,1997-12-08 00:00:00,4,1016.9,-0.8,93,3,500,0,,,0,,,,,,,,,,,wg-a,,,,AAXX 08004 07747 12300 /0000 10040 20030 30111 40169 56008 60006 86500 90000=
07747,1997-12-08 03:00:00,2,1016.9,-0.1,100,2,500,0,,,0,,,,,,,,,,,wg-a,,,,AAXX 08034 07747 12300 /0000 10020 20020 30110 40169 58001 60006 86500 90300=
07747,1997-12-08 06:00:00,2,1016.3,-0.6,93,1,500,11.112,,,220,0.7,6.6,,,,,,,,,wg-a,,,,AAXX 08064 07747 02300 82206 10020 20010 30104 40163 57006 60006 8457/ 90600 333 10066 20007 60004=
07747,1997-12-08 09:00:00,4,1016.8,0.5,93,3,6000,0,,,0,,,,0,,,,,,,wg-a,,,,AAXX 08094 07747 12456 50000 10040 20030 30109 40168 53005 60007 81532 90900=
07747,1997-12-08 12:00:00,11,1015.3,-1.3,66,5,10000,3.704,,,140,,,,,,,,,,,wg-a,,,,AAXX 08124 07747 12/60 41402 10110 20050 30096 40153 58013 60006 81031 91200=
07747,1997-12-08 15:00:00,11,1013.9,-1.4,76,7,9000,7.408,,,100,,,,,,,,,,,wg-a,,,,AAXX 08154 07747 12/59 41004 10110 20070 30082 40139 56014 60006 81031 91500=
07747,1997-12-08 18:00:00,5,1014.9,0.9,93,4,7000,7.408,,,270,1.3,11.9,,,,,,,,,wg-a,,,,AAXX 08184 07747 12/57 /2704 10050 20040 30091 40149 53009 60006 82031 91800 333 10119 20013=
07747,1997-12-08 21:00:00,6,1014.3,-0.6,81,3,6000,11.112,,,270,,,,,,,,,,,wg-a,,,,AAXX 08214 07747 12/56 /2706 10060 20030 30085 40143 58006 60006 80000 92100=
07747,1997-12-09 00:00:00,10,1014.5,0.3,71,5,10000,7.408,,,300,,,,,,,,,,,wg-a,,,,AAXX 09004 07747 12/60 73004 10100 20050 30088 40145 51003 60006 8703/ 90000=
07747,1997-12-09 03:00:00,12,1015.7,1.2,71,7,12000,18.52,,,340,,,,,,,,,,,wg-a,,,,AAXX 09034 07747 12562 /3410 10120 20070 30100 40157 53012 60006 85500 90300=
07747,1997-12-09 06:00:00,12,1016.7,1,71,7,15000,22.224,,,340,3.9,12.5,,,,,,,,,wg-a,,,,AAXX 09064 07747 02565 73412 10120 20070 30110 40167 53010 60006 8687/ 90600 333 10125 20039 60004=
07747,1997-12-09 09:00:00,13,1018.8,2.1,67,7,40000,14.816,,,330,,,,,,,,,,,wg-a,,,,AAXX 09094 07747 12582 53308 10130 20070 30131 40188 53021 60006 83841 90900=
07747,1997-12-09 12:00:00,15,1018.3,-0.4,55,6,40000,22.224,,,320,,,,,,,,,,,wg-a,,,,AAXX 09124 07747 12582 43212 10150 20060 30127 40183 58004 60006 83841 91200=
07747,1997-12-09 18:00:00,10,1021,2.1,82,7,40000,11.112,,,60,10.2,16.5,,,,,,,,,wg-a,,,,AAXX 09184 07747 12682 40606 10100 20070 30153 40210 53021 60006 82541 91800 333 10165 20102=
07747,1997-12-09 21:00:00,13,1021.1,0.1,67,7,500,7.408,,,300,,,,,,,,,,,wg-a,,,,AAXX 09214 07747 12/00 43004 10130 20070 30154 40211 52001 60006 82041 92100=
07747,1997-12-10 00:00:00,7,1021.3,0.1,81,4,500,11.112,,,300,,,,,,,,,,,wg-a,,,,AAXX 10004 07747 12/00 /3006 10070 20040 30155 40213 53001 60006 82041 90000=
07747,1997-12-10 06:00:00,5,1021.1,-0,93,4,20000,14.816,,,270,3.8,12.8,,,,,,,,,wg-a,,,,AAXX 10064 07747 02/70 /2708 10050 20040 30152 40211 55000 60006 82041 90600 333 10128 20038 60004=
07747,1997-12-10 09:00:00,10,1021.4,0.4,71,5,60000,3.704,,,240,,,,,,,,,,,wg-a,,,,AAXX 10094 07747 12/86 72402 10100 20050 30156 40214 52004 60006 83042 90900=
07747,1997-12-10 12:00:00,14,1020.5,-0.8,55,5,60000,3.704,,,150,,,,,,,,,,,wg-a,,,,AAXX 10124 07747 12/86 71502 10140 20050 30148 40205 58008 60006 82048 91200=
07747,1997-12-10 18:00:00,11,1021.7,0.9,87,9,12000,7.408,,,270,5.1,14.2,,,,,,,,60,wg-a,,,,AAXX 10184 07747 02662 82704 10110 20090 30160 40217 51009 61000 76062 8557/ 91800 333 10142 20051 6100=
07747,1997-12-10 21:00:00,10,1021.9,0.2,93,9,15000,3.704,,,240,,,,,,,,,,21,wg-a,,,,AAXX 10214 07747 02565 82402 10100 20090 30162 40219 51002 61000 72162 875// 92100 333 ////=
07747,1997-12-11 00:00:00,12,1020.7,-1.2,82,9,15000,11.112,,29.632,190,,,,,,,,,,1,wg-a,,,,AAXX 11004 07747 02665 61906 10120 20090 30150 40207 58012 61000 70162 82541 90000 333 //// 91016=
07747,1997-12-11 03:00:00,11,1020.3,-0.4,87,9,20000,3.704,,,200,,,,,,,,,,,wg-a,,,,AAXX 11034 07747 12670 42002 10110 20090 30146 40203 56004 60006 82541 90300=
07747,1997-12-11 06:00:00,13,1020.2,-0.1,88,11,25000,7.408,,,120,10.1,13.2,,,,,,,,,wg-a,,,,AAXX 11064 07747 02675 41204 10130 20110 30145 40202 55001 60006 82541 90600 333 10132 20101 61000=
07747,1997-12-11 09:00:00,13,1020.6,0.4,88,11,60000,7.408,,,270,,,,,,,,,,,wg-a,,,,AAXX 11094 07747 12/86 72704 10130 20110 30149 40206 53004 60006 83047 90900=
07747,1997-12-11 12:00:00,20,1019,-1.4,53,10,60000,3.704,,,280,,,,,,,,,,,wg-a,,,,AAXX 11124 07747 12/86 32802 10200 20100 30135 40190 58014 60006 81042 91200=
07747,1997-12-11 15:00:00,19,1018,-1.1,60,11,60000,7.408,,,250,,,,,,,,,,,wg-a,,,,AAXX 11154 07747 12/86 62504 10190 20110 30124 40180 55011 60006 81042 91500=
07747,1997-12-11 18:00:00,12,1017.5,-0.6,82,9,40000,7.408,,,290,11.5,20.9,,,,,,,,,wg-a,,,,AAXX 11184 07747 12782 52904 10120 20090 30118 40175 55006 60006 81542 91800 333 10209 20115=
07747,1997-12-11 21:00:00,11,1017.1,-0.4,82,8,25000,3.704,,,270,,,,,,,,,,,wg-a,,,,AAXX 11214 07747 12775 /2702 10110 20080 30114 40171 58004 60006 81542 92100=
07747,1997-12-12 00:00:00,16,1017,-0,72,11,25000,18.52,,,320,,,,,,,,,,,wg-a,,,,AAXX 12004 07747 12575 73210 10160 20110 30114 40170 54000 60006 8383/ 90000=
07747,1997-12-12 06:00:00,14,1017.4,1,67,8,25000,38.892,,51.856,340,10.6,16.5,,,,,,,,,wg-a,,,,AAXX 12064 07747 02575 73421 10140 20080 30118 40174 53010 60006 86840 90600 333 10165 20106 60004 91028=
07747,1997-12-12 09:00:00,14,1021.1,3.6,63,7,10000,29.632,,,330,,,,,,,,,,15,wg-a,,,,AAXX 12094 07747 12560 73316 10140 20070 30154 40211 51036 60006 71522 85872 90900=
07747,1997-12-12 12:00:00,13,1021.3,0.2,67,7,25000,18.52,,,320,,,,,,,,,,21,wg-a,,,,AAXX 12124 07747 02575 73210 10130 20070 30156 40213 50002 61000 72162 85832 91200 333 6100=
07747,1997-12-12 18:00:00,11,1023.9,2.4,58,3,20000,38.892,,68.524,340,11.3,14.1,,,,,,,,1,wg-a,,,,AAXX 12184 07747 12570 73421 10110 20030 30182 40239 53024 60006 70162 81102 91800 333 10141 20113 91037=
07747,1997-12-12 21:00:00,11,1024.6,0.6,50,1,500,42.596,,68.524,320,,,,,,,,,,,wg-a,,,,AAXX 12214 07747 12/00 43223 10110 20010 30188 40246 53006 60006 81042 92100 333 91037=
07747,1997-12-13 00:00:00,10,1025.4,0.8,62,3,500,38.892,,61.116,330,,,,,,,,,,,wg-a,,,,AAXX 13004 07747 12600 /3321 10100 20030 30196 40254 51008 60006 85100 90000 333 91033=
07747,1997-12-13 06:00:00,9,1026,0.5,61,2,500,35.188,,64.82,320,9.2,11.4,,,,,,,,,wg-a,,,,AAXX 13064 07747 02600 /3219 10090 20020 30202 40260 53005 60006 81142 90600 333 10114 20092 60004 91035=
07747,1997-12-13 09:00:00,10,1027.4,1.4,53,1,45000,46.3,,66.672,330,,,,,,,,,,,wg-a,,,,AAXX 13094 07747 12683 33325 10100 20010 30216 40274 53014 60006 81142 90900 333 91036=
07747,1997-12-13 12:00:00,12,1027.4,0,47,1,45000,38.892,,53.708,320,,,,,,,,,,,wg-a,,,,AAXX 13124 07747 12683 23221 10120 20010 30216 40274 50000 60006 81140 91200 333 91029=
07747,1997-12-13 15:00:00,11,1025.8,-1.6,43,-1,45000,42.596,,,330,,,,,,,,,,,wg-a,,,,AAXX 13154 07747 12683 /3323 10110 21010 30200 40258 56016 60006 81100 91500=
07747,1997-12-14 00:00:00,8,1026.8,-0.2,53,-1,20000,22.224,,,330,,,,,,,,,,,wg-a,,,,AAXX 14004 07747 12/70 03312 10080 21010 30210 40268 58002 60006 80000 90000=
07747,1997-12-14 03:00:00,8,1025.9,-0.9,49,-2,500,25.928,,,320,,,,,,,,,,,wg-a,,,,AAXX 14034 07747 12/00 03214 10080 21020 30201 40259 58009 60006 80000 90300=
07747,1997-12-14 06:00:00,7,1025.8,-0.2,42,-5,500,14.816,,,310,5,9.6,,,,,,,,,wg-a,,,,AAXX 14064 07747 02/00 03108 10070 21050 30199 40258 55002 60006 80000 90600 333 10096 20050 60004=
07747,1997-12-14 09:00:00,9,1025.7,0,31,-7,75000,7.408,,,250,,,,,,,,,,,wg-a,,,,AAXX 14094 07747 12/89 12504 10090 21070 30199 40257 50000 60006 80001 90900=
07747,1997-12-14 12:00:00,14,1023.5,-2.1,23,-7,75000,3.704,,,110,,,,,,,,,,,wg-a,,,,AAXX 14124 07747 12/89 11102 10140 21070 30178 40235 58021 60006 81041 91200=
07747,1997-12-14 15:00:00,16,1021.6,-1.9,21,-6,75000,3.704,,,210,,,,,,,,,,,wg-a,,,,AAXX 14154 07747 12/89 12102 10160 21060 30159 40216 56019 60006 80001 91500=
07747,1997-12-14 18:00:00,10,1021.1,-0.6,40,-3,60000,11.112,,,340,3.4,15.6,,,,,,,,,wg-a,,,,AAXX 14184 07747 12/86 03406 10100 21030 30153 40211 58006 60006 80000 91800 333 10156 20034=
07747,1997-12-14 21:00:00,11,1019.8,-1.2,32,-5,25000,18.52,,,330,,,,,,,,,,,wg-a,,,,AAXX 14214 07747 12675 73310 10110 21050 30141 40198 58012 60006 81130 92100=
07747,1997-12-15 00:00:00,3,1018.2,-1.8,65,-3,25000,11.112,,,230,,,,,,,,,,,wg-a,,,,AAXX 15004 07747 12/75 42306 10030 21030 30123 40182 58018 60006 84030 90000=
07747,1997-12-15 03:00:00,6,1015.8,-2.3,49,-4,25000,3.704,,,260,,,,,,,,,,,wg-a,,,,AAXX 15034 07747 12675 72602 10060 21040 30100 40158 58023 60006 81130 90300=
07747,1997-12-15 06:00:00,5,1014.7,-1.1,65,-1,25000,3.704,,,220,2.9,10.7,,,,,,,,,wg-a,,,,AAXX 15064 07747 02675 72202 10050 21010 30089 40147 56011 60006 81132 90600 333 10107 20029 60004=
07747,1997-12-15 09:00:00,9,1014.5,-0.1,46,-2,60000,11.112,,,350,,,,,,,,,,,wg-a,,,,AAXX 15094 07747 12686 /3506 10090 21020 30088 40145 55001 60006 81140 90900=
07747,1997-12-15 12:00:00,10,1013.1,-1.4,46,-1,500,22.224,,,60,,,,,,,,,,,wg-a,,,,AAXX 15124 07747 12500 /0612 10100 21010 30074 40131 58014 60006 81140 91200=
07747,1997-12-15 15:00:00,9,1012.7,-0.4,43,-3,500,25.928,,,360,,,,,,,,,,,wg-a,,,,AAXX 15154 07747 12500 /3614 10090 21030 30070 40127 55004 60006 81240 91500=
07747,1997-12-15 18:00:00,5,1013.8,1,60,-2,25000,11.112,,,330,4.9,11.5,,,,,,,,,wg-a,,,,AAXX 15184 07747 12575 23306 10050 21020 30080 40138 51010 60006 82300 91800 333 10115 20049=
07747,1997-12-16 00:00:00,5,1012.9,-1.1,93,4,12000,14.816,,,20,,,,0,,,,,,61,wg-a,,,,AAXX 16004 07747 02462 80208 10050 20040 30071 40129 58011 60016 76161 878// 90000 333 60007=
07747,1997-12-16 03:00:00,4,1011.5,-1.4,100,4,8000,7.408,,,330,,,,3,,,,,,21,wg-a,,,,AAXX 16034 07747 12458 83304 10040 20040 30057 40115 58014 60037 72162 875// 90300=
07747,1997-12-16 06:00:00,4,1009.8,-1.7,100,4,8000,7.408,,,270,3.1,5.2,,,,,,,,21,wg-a,,,,AAXX 16064 07747 02358 82704 10040 20040 30040 40098 56017 61000 72162 8797/ 90600 333 10052 20031 6006=
07747,1997-12-16 15:00:00,9,1004.2,-3.1,93,8,6000,7.408,,,200,,,,,,,,,,16,wg-a,,,,AAXX 16154 07747 02256 82004 10090 20080 39985 40042 56031 61000 71662 8657/ 91500 333 ////=
07747,1997-12-16 18:00:00,10,1003.1,-1,93,9,3000,35.188,,70.376,140,4.4,10.4,,,,,,,,63,wg-a,,,,AAXX 16184 07747 02230 81419 10100 20090 39975 40031 55010 61000 76362 877// 91800 333 10104 20044 6013 91038=
07747,1997-12-16 21:00:00,11,1002.3,-0.8,94,10,500,46.3,,68.524,130,,,,30,,,,,,21,wg-a,,,,AAXX 16214 07747 12200 81325 10110 20100 39967 40023 56008 60307 72162 875// 92100 333 91037=
07747,1997-12-17 00:00:00,12,1001.4,-0.9,88,10,7000,25.928,,,120,,,,,,,,,,1,wg-a,,,,AAXX 17004 07747 12357 51214 10120 20100 39958 40014 58009 60306 70162 83740 90000=
07747,1997-12-17 03:00:00,12,1001,-0.4,88,10,8000,31.484,,50.004,150,,,,,,,,,,,wg-a,,,,AAXX 17034 07747 12458 51517 10120 20100 39954 40010 56004 60006 81542 90300 333 91027=
07747,1997-12-17 06:00:00,14,1001.1,0.1,82,11,9000,29.632,,48.152,160,9.9,13.8,,,,,44,,,,wg-a,,,,AAXX 17064 07747 02559 71616 10140 20110 39955 40011 53001 60006 8387/ 90600 333 10138 20099 60444 91026=
07747,1997-12-17 09:00:00,15,1003.7,2.7,77,11,9000,18.52,,,170,,,,,,,,,,,wg-a,,,,AAXX 17094 07747 12559 71710 10150 20110 39982 40037 53027 60006 8587/ 90900=
07747,1997-12-17 12:00:00,16,1002.9,-0.8,72,11,12000,25.928,,,170,,,,,,,,,,,wg-a,,,,AAXX 17124 07747 12562 71714 10160 20110 39974 40029 58008 60006 8587/ 91200=
07747,1997-12-17 18:00:00,16,1002.9,0.5,77,12,500,25.928,,,180,13.5,16.4,,,,,,,,,wg-a,,,,AAXX 17184 07747 12600 61814 10160 20120 39974 40029 53005 60006 82871 91800 333 10164 20135=
07747,1997-12-17 21:00:00,16,1003.8,0.9,77,12,15000,35.188,,53.708,170,,,,,,,,,,21,wg-a,,,,AAXX 17214 07747 02565 81719 10160 20120 39983 40038 52009 61000 72162 8587/ 92100 333 //// 91029=
07747,1997-12-18 00:00:00,16,1004.4,0.6,77,12,12000,29.632,,,160,,,,,,,,,,3,wg-a,,,,AAXX 18004 07747 02562 81616 10160 20120 39989 40044 50006 61000 70362 8787/ 90000 333 ////=
07747,1997-12-18 03:00:00,15,1003.6,-0.8,82,12,9000,42.596,,,180,,,,,,,,,,15,wg-a,,,,AAXX 18034 07747 12559 81823 10150 20120 39981 40036 55008 60006 71522 8587/ 90300=
07747,1997-12-18 06:00:00,14,1003,-0.7,88,12,9000,29.632,,46.3,160,13.9,16.3,,,,,,,,60,wg-a,,,,AAXX 18064 07747 02459 81616 10140 20120 39974 40030 55007 61000 76062 8787/ 90600 333 10163 20139 6001 91025=
07747,1997-12-18 09:00:00,14,1003.2,0.2,94,13,7000,35.188,,,130,,,,,,,,,,1,wg-a,,,,AAXX 18094 07747 02257 81319 10140 20130 39976 40032 50002 61000 70162 887// 90900 333 ////=
07747,1997-12-18 12:00:00,16,1000.2,-2.9,82,13,7000,35.188,,,170,,,,,,,,,,2,wg-a,,,,AAXX 18124 07747 02357 71719 10160 20130 39947 40002 58029 61000 70262 879// 91200 333 ////=
07747,1997-12-18 15:00:00,14,998.2,-2,94,13,9000,25.928,,,140,,,,9,,,,,,21,wg-a,,,,AAXX 18154 07747 12159 81414 10140 20130 39927 49982 58020 60097 72162 889// 91500=
07747,1997-12-18 18:00:00,14,999.3,1.1,77,10,8000,22.224,,50.004,200,13,15.8,,,,,,,,2,wg-a,,,,AAXX 18184 07747 02458 72012 10140 20100 39938 49993 53011 60006 70262 8657/ 91800 333 10158 20130 61000 91027=
07747,1997-12-18 21:00:00,11,999.8,0.4,87,9,15000,3.704,,,160,,,,,,,,,,,wg-a,,,,AAXX 18214 07747 12765 51602 10110 20090 39942 49998 50004 60006 82570 92100=
07747,1997-12-19 00:00:00,9,999.5,-0.3,93,8,15000,11.112,,,240,,,,,,,,,,,wg-a,,,,AAXX 19004 07747 12765 52406 10090 20080 39939 49995 58003 60006 82570 90000=
07747,1997-12-19 03:00:00,7,999.4,-0.2,100,7,15000,7.408,,,340,,,,0,,,,,,,wg-a,,,,AAXX 19034 07747 12765 63404 10070 20070 39937 49994 58002 60007 82572 90300=
07747,1997-12-19 06:00:00,6,999.2,-0.2,93,5,15000,3.704,,,250,5.5,13.8,,,,,9,,,,wg-a,,,,AAXX 19064 07747 02/65 /2502 10060 20050 39935 49992 55002 60006 81041 90600 333 10138 20055 60094=
07747,1997-12-19 09:00:00,7,1000,0.8,93,6,11000,11.112,,,350,,,,,,,,,,,wg-a,,,,AAXX 19094 07747 12/61 /3506 10070 20060 39943 40000 51008 60006 90900=
07747,1997-12-19 12:00:00,11,999.3,-0.6,82,8,20000,7.408,,,350,,,,,,,,,,,wg-a,,,,AAXX 19124 07747 12470 83504 10110 20080 39937 49993 58006 60006 8287/ 91200=
07747,1997-12-19 15:00:00,11,998.7,-0.6,87,9,20000,3.704,,,70,,,,,,,,,,,wg-a,,,,AAXX 19154 07747 12570 80702 10110 20090 39931 49987 55006 60006 8287/ 91500=
07747,1997-12-19 18:00:00,8,999.5,0.7,93,7,15000,0,,,0,5.4,12.2,,,,,,,,,wg-a,,,,AAXX 19184 07747 12265 70000 10080 20070 39938 49995 51007 60006 8257/ 91800 333 10122 20054=
07747,1997-12-19 21:00:00,9,999.6,0.2,87,7,10000,3.704,,,300,,,,,,,,,,,wg-a,,,,AAXX 19214 07747 12660 43002 10090 20070 39940 49996 52002 60006 81530 92100=
07747,1997-12-20 00:00:00,10,1000.6,1,76,6,10000,14.816,,,340,,,,0,,,,,,,wg-a,,,,AAXX 20004 07747 02560 23408 10100 20060 39950 40006 50010 60006 81530 90000 333 60007=
07747,1997-12-20 03:00:00,8,1002.1,1.4,81,5,15000,7.408,,,150,,,,,,,,,,,wg-a,,,,AAXX 20034 07747 12565 51504 10080 20050 39964 40021 53014 60006 83530 90300=
07747,1997-12-20 06:00:00,10,1002.8,0.8,82,7,20000,22.224,,,300,6.7,10.8,,,,,,,,,wg-a,,,,AAXX 20064 07747 02570 /3012 10100 20070 39972 40028 53008 60006 83530 90600 333 10108 20067 60004=
07747,1997-12-20 09:00:00,11,1005.3,2.5,71,6,60000,18.52,,,280,,,,,,,,,,,wg-a,,,,AAXX 20094 07747 12786 72810 10110 20060 39997 40053 52025 60006 875// 90900=
07747,1997-12-20 15:00:00,13,1006.8,0.5,58,5,500,14.816,,,340,,,,,,,,,,,wg-a,,,,AAXX 20154 07747 12500 43408 10130 20050 30012 40068 53005 60006 84802 91500=
07747,1997-12-20 18:00:00,10,1008.9,2,66,4,25000,3.704,,,280,9.6,13.6,,,,,,,,,wg-a,,,,AAXX 20184 07747 12775 22802 10100 20040 30032 40089 53020 60006 82502 91800 333 10136 20096=
07747,1997-12-20 21:00:00,9,1010.6,1.7,81,6,20000,7.408,,,220,,,,,,,,,,21,wg-a,,,,AAXX 20214 07747 02570 82204 10090 20060 30049 40106 51017 61000 72111 878// 92100 333 ////=
07747,1997-12-21 00:00:00,12,1010.4,-0.2,62,5,20000,29.632,,,320,,,,,,,,,,1,wg-a,,,,AAXX 21004 07747 02670 63216 10120 20050 30047 40104 58002 61000 70161 84540 90000 333 ////=
07747,1997-12-21 03:00:00,12,1011.6,1.2,62,5,20000,25.928,,,320,,,,,,,,,,,wg-a,,,,AAXX 21034 07747 12670 53214 10120 20050 30059 40116 51012 60006 83540 90300=
07747,1997-12-21 06:00:00,13,1011.5,-0,47,2,20000,35.188,,,320,7.6,12.8,,,,,,,,,wg-a,,,,AAXX 21064 07747 02670 53219 10130 20020 30059 40115 55000 60006 83540 90600 333 10128 20076 61000=
07747,1997-12-21 09:00:00,14,1013.4,1.9,47,3,40000,31.484,,51.856,320,,,,,,,,,,,wg-a,,,,AAXX 21094 07747 12682 33217 10140 20030 30078 40134 51019 60006 82830 90900 333 91028=
07747,1997-12-21 12:00:00,15,1013.1,-0.3,44,3,40000,35.188,,,330,,,,,,,,,,,wg-a,,,,AAXX 21124 07747 12682 53319 10150 20030 30075 40131 58003 60006 83840 91200=
07747,1997-12-21 15:00:00,15,1012.7,-0.4,48,4,40000,22.224,,,350,,,,,,,,,,,wg-a,,,,AAXX 21154 07747 12682 23512 10150 20040 30071 40127 55004 60006 81840 91500=
07747,1997-12-21 18:00:00,13,1013,0.2,54,4,11000,31.484,,,340,11.9,15.9,,,,,,,,,wg-a,,,,AAXX 21184 07747 12661 /3417 10130 20040 30073 40130 50002 60006 81841 91800 333 10159 20119=
07747,1997-12-21 21:00:00,9,1014.1,1.1,71,4,25000,7.408,,,200,,,,,,,,,,,wg-a,,,,AAXX 21214 07747 12/75 02004 10090 20040 30084 40141 51011 60006 80000 92100=
07747,1997-12-22 00:00:00,7,1014.1,-0.1,76,3,25000,7.408,,,320,,,,,,,,,,,wg-a,,,,AAXX 22004 07747 12/75 03204 10070 20030 30083 40141 57001 60006 80000 90000=
07747,1997-12-22 03:00:00,4,1013.3,-0.8,87,2,25000,0,,,0,,,,,,,,,,,wg-a,,,,AAXX 22034 07747 12/75 00000 10040 20020 30075 40133 57008 60006 80000 90300=
07747,1997-12-22 06:00:00,2,1012.5,-0.9,93,1,25000,0,,,0,2.4,12.6,,,,,,,,,wg-a,,,,AAXX 22064 07747 02/75 00000 10020 20010 30066 40125 56009 60006 80000 90600 333 10126 20024 60004=
07747,1997-12-22 09:00:00,7,1013.3,0.9,81,4,25000,3.704,,,350,,,,0,,,,,,,wg-a,,,,AAXX 22094 07747 12/75 53502 10070 20040 30075 40133 51009 60007 80001 90900=
07747,1997-12-22 12:00:00,11,1011.7,-1.5,82,8,15000,7.408,,,90,,,,,,,,,,,wg-a,,,,AAXX 22124 07747 12465 /0904 10110 20080 30060 40117 58015 60006 81201 91200=
07747,1997-12-22 15:00:00,12,1011.6,-0.1,82,9,15000,7.408,,,80,,,,,,,,,,,wg-a,,,,AAXX 22154 07747 12465 70804 10120 20090 30059 40116 55001 60006 81242 91500=
07747,1997-12-22 18:00:00,9,1012.1,0.5,93,8,20000,3.704,,,300,1.2,12.3,,,,,,,,,wg-a,,,,AAXX 22184 07747 12470 73002 10090 20080 30064 40121 53005 60006 8257/ 91800 333 10123 20012=
07747,1997-12-22 21:00:00,9,1013.9,1.8,93,8,12000,3.704,,,280,,,,,,,,,,15,wg-a,,,,AAXX 22214 07747 12462 72802 10090 20080 30082 40139 51018 60006 71522 8557/ 92100=
07747,1997-12-23 00:00:00,10,1015.2,1.3,87,8,12000,3.704,,,40,,,,,,,,,,,wg-a,,,,AAXX 23004 07747 12462 70402 10100 20080 30095 40152 51013 60006 8257/ 90000=
07747,1997-12-23 03:00:00,9,1016,0.8,93,8,10000,3.704,,,330,,,,0,,,,,,21,wg-a,,,,AAXX 23034 07747 12460 83302 10090 20080 30103 40160 52008 60007 72122 8457/ 90300=
07747,1997-12-23 06:00:00,14,1018.1,2.1,72,9,15000,31.484,,,340,7.8,13.8,,,,,,,,1,wg-a,,,,AAXX 23064 07747 02565 73417 10140 20090 30124 40181 53021 60006 70162 8753/ 90600 333 10138 20078 60004=
07747,1997-12-23 09:00:00,13,1021.4,3.3,62,6,60000,38.892,,61.116,330,,,,,,,,,,,wg-a,,,,AAXX 23094 07747 12586 /3321 10130 20060 30157 40214 53033 60006 85832 90900 333 91033=
07747,1997-12-23 12:00:00,15,1022.4,1,55,6,60000,38.892,,55.56,330,,,,,,,,,,,wg-a,,,,AAXX 23124 07747 12586 53321 10150 20060 30167 40224 50010 60006 83142 91200 333 91030=
07747,1997-12-23 15:00:00,15,1024.4,2,55,6,60000,29.632,,53.708,340,,,,,,,,,,,wg-a,,,,AAXX 23154 07747 12686 43416 10150 20060 30187 40244 53020 60006 84100 91500 333 91029=
07747,1997-12-23 18:00:00,13,1026.7,2.3,62,6,25000,11.112,,,320,12.7,15.3,,,,,,,,,wg-a,,,,AAXX 23184 07747 12675 /3206 10130 20060 30210 40267 53023 60006 81140 91800 333 10153 20127=
07747,1997-12-23 21:00:00,13,1028.3,1.6,62,6,20000,25.928,,46.3,340,,,,,,,,,,,wg-a,,,,AAXX 23214 07747 12/70 03414 10130 20060 30226 40283 53016 60006 80000 92100 333 91025=
07747,1997-12-24 00:00:00,12,1029.7,1.3,67,6,20000,11.112,,,320,,,,,,,,,,,wg-a,,,,AAXX 24004 07747 12/70 03206 10120 20060 30239 40297 51013 60006 80000 90000=
07747,1997-12-24 03:00:00,10,1029.6,-0.1,71,5,20000,14.816,,,220,,,,,,,,,,,wg-a,,,,AAXX 24034 07747 12/70 52208 10100 20050 30238 40296 55001 60006 80001 90300=
07747,1997-12-24 06:00:00,6,1029,-0.7,81,3,20000,11.112,,,250,6.1,13.5,,,,,,,,,wg-a,,,,AAXX 24064 07747 02/70 42506 10060 20030 30231 40290 58007 60006 80001 90600 333 10135 20061 60004=
07747,1997-12-24 09:00:00,12,1030.3,1.4,62,5,60000,3.704,,,260,,,,,,,,,,,wg-a,,,,AAXX 24094 07747 12/86 32602 10120 20050 30245 40303 53014 60006 80002 90900=
07747,1997-12-24 12:00:00,16,1028.6,-1.6,51,6,25000,7.408,,,110,,,,,,,,,,,wg-a,,,,AAXX 24124 07747 12/75 61104 10160 20060 30229 40286 58016 60006 81032 91200=
07747,1997-12-24 15:00:00,14,1027.3,-1.3,67,8,500,11.112,,,60,,,,1,,,,,,,wg-a,,,,AAXX 24154 07747 12500 70606 10140 20080 30216 40273 55013 60017 81132 91500=
07747,1997-12-24 18:00:00,12,1027.8,0.4,71,7,25000,11.112,,,360,5.7,16.2,,,,,,,,,wg-a,,,,AAXX 24184 07747 12575 83606 10120 20070 30220 40278 53004 60006 81132 91800 333 10162 20057=
07747,1997-12-24 21:00:00,8,1028.3,0.5,93,7,25000,7.408,,,250,,,,,,,,,,,wg-a,,,,AAXX 24214 07747 12575 72504 10080 20070 30225 40283 53005 60006 81132 92100=
07747,1997-12-25 00:00:00,8,1027.8,-0.5,93,7,25000,11.112,,,240,,,,,,,,,,,wg-a,,,,AAXX 25004 07747 12/75 /2406 10080 20070 30220 40278 58005 60006 84032 90000=
07747,1997-12-25 06:00:00,7,1025.9,-1.3,100,7,25000,3.704,,,350,5.5,11.5,,,,,,,,,wg-a,,,,AAXX 25064 07747 02375 73502 10070 20070 30201 40259 56013 60006 8163/ 90600 333 10115 20055 60004=
07747,1997-12-25 09:00:00,9,1026.4,0.5,87,7,20000,7.408,,,30,,,,,,,,,,,wg-a,,,,AAXX 25094 07747 12/70 20304 10090 20070 30206 40264 50005 60006 82032 90900=
07747,1997-12-25 12:00:00,14,1024.5,-1.8,82,11,10000,11.112,,,90,,,,,,,,,,,wg-a,,,,AAXX 25124 07747 12460 50906 10140 20110 30188 40245 58018 60006 84832 91200=
07747,1997-12-25 18:00:00,11,1022.5,-0.4,94,10,6000,7.408,,,20,6.6,14.4,,,,,,,,,wg-a,,,,AAXX 25184 07747 12356 70204 10110 20100 30168 40225 57004 60006 86632 91800 333 10144 20066=
07747,1997-12-25 21:00:00,11,1022.7,0.2,94,10,7000,7.408,,,310,,,,,,,,,,,wg-a,,,,AAXX 25214 07747 12457 83104 10110 20100 30170 40227 50002 60006 876// 92100=
07747,1997-12-26 00:00:00,10,1022,-0.7,93,9,8000,3.704,,,310,,,,,,,,,,,wg-a,,,,AAXX 26004 07747 12458 83102 10100 20090 30163 40220 58007 60006 876// 90000=
07747,1997-12-26 03:00:00,9,1020.7,-1.4,93,8,7000,7.408,,,240,,,,,,,,,,,wg-a,,,,AAXX 26034 07747 12457 72404 10090 20080 30149 40207 58014 60006 86532 90300=
07747,1997-12-26 06:00:00,12,1019.8,-0.8,71,7,12000,14.816,,,300,8.3,11.8,,,,,,,,,wg-a,,,,AAXX 26064 07747 02462 83008 10120 20070 30141 40198 56008 60006 8587/ 90600 333 10118 20083 60004=
07747,1997-12-26 09:00:00,11,1020.5,0.7,71,6,500,22.224,,,300,,,,,,,,,,,wg-a,,,,AAXX 26094 07747 12400 83012 10110 20060 30148 40205 53007 60006 8587/ 90900=
07747,1997-12-26 12:00:00,12,1019.1,-1.4,58,4,500,29.632,,50.004,320,,,,,,,,,,,wg-a,,,,AAXX 26124 07747 12500 73216 10120 20040 30134 40191 58014 60006 8487/ 91200 333 91027=
07747,1997-12-26 18:00:00,12,1017.7,0.3,54,3,40000,29.632,,51.856,320,11.3,13.2,,,,,,,,,wg-a,,,,AAXX 26184 07747 12582 23216 10120 20030 30120 40177 52003 60006 81541 91800 333 10132 20113 91028=
07747,1997-12-26 21:00:00,11,1018,0.3,58,3,25000,38.892,,61.116,310,,,,,,,,,,,wg-a,,,,AAXX 26214 07747 12575 63121 10110 20030 30123 40180 50003 60006 83802 92100 333 91033=
07747,1997-12-27 00:00:00,10,1018.3,0.3,66,4,25000,29.632,,,330,,,,,,,,,,,wg-a,,,,AAXX 27004 07747 12575 53316 10100 20040 30126 40183 50003 60006 82802 90000=
07747,1997-12-27 03:00:00,10,1016.6,-1.7,62,3,25000,22.224,,,310,,,,,,,,,,,wg-a,,,,AAXX 27034 07747 12675 43112 10100 20030 30109 40166 56017 60006 84100 90300=
07747,1997-12-27 06:00:00,11,1016.1,-0.5,54,2,25000,38.892,,,300,9.7,11.9,,,,,,,,,wg-a,,,,AAXX 27064 07747 02675 43021 10110 20020 30104 40161 55005 60006 84100 90600 333 10119 20097 60004=
07747,1997-12-27 09:00:00,10,1017.6,1.5,62,3,500,42.596,,66.672,320,,,,,,,,,,,wg-a,,,,AAXX 27094 07747 12600 53223 10100 20030 30119 40176 53015 60006 83840 90900 333 91036=
07747,1997-12-27 12:00:00,12,1016.8,-0.8,58,4,500,46.3,,70.376,320,,,,,,,,,,,wg-a,,,,AAXX 27124 07747 12600 53225 10120 20040 30111 40168 56008 60006 83841 91200 333 91038=
07747,1997-12-27 15:00:00,11,1016.2,-0.6,58,3,500,50.004,,68.524,320,,,,,,,,,,,wg-a,,,,AAXX 27154 07747 12600 33227 10110 20030 30105 40162 55006 60006 82841 91500 333 91037=
07747,1997-12-27 18:00:00,9,1019,2.7,66,3,500,35.188,,53.708,320,8.6,12.5,,,,,,,,,wg-a,,,,AAXX 27184 07747 12600 23219 10090 20030 30132 40190 51027 60006 82800 91800 333 10125 20086 91029=
07747,1997-12-27 21:00:00,10,1019.9,0.9,66,4,500,14.816,,35.188,320,,,,,,,,,,,wg-a,,,,AAXX 27214 07747 12600 /3208 10100 20040 30141 40199 51009 60006 85100 92100 333 91019=
07747,1997-12-28 00:00:00,10,1019.9,0.1,62,3,20000,18.52,,,310,,,,,,,,,,,wg-a,,,,AAXX 28004 07747 12670 /3110 10100 20030 30142 40199 53001 60006 86100 90000=
07747,1997-12-28 03:00:00,10,1019.6,-0.3,66,4,20000,18.52,,,330,,,,,,,,,,,wg-a,,,,AAXX 28034 07747 12670 /3310 10100 20040 30139 40196 58003 60006 86100 90300=
07747,1997-12-28 06:00:00,9,1019,-0.6,71,4,20000,11.112,,,330,9,10.3,,,,,,,,,wg-a,,,,AAXX 28064 07747 02670 /3306 10090 20040 30133 40190 56006 60006 85500 90600 333 10103 20090 60004=
07747,1997-12-28 09:00:00,10,1019.1,0.1,66,4,60000,22.224,,,330,,,,,,,,,,,wg-a,,,,AAXX 28094 07747 12586 73312 10100 20040 30134 40191 53001 60006 83832 90900=
07747,1997-12-28 12:00:00,12,1016.9,-2.2,62,5,60000,25.928,,,340,,,,,,,,,,,wg-a,,,,AAXX 28124 07747 12586 73414 10120 20050 30112 40169 58022 60006 81842 91200=
07747,1997-12-28 15:00:00,13,1015.4,-1.5,54,4,40000,3.704,,,20,,,,,,,,,,,wg-a,,,,AAXX 28154 07747 12582 70202 10130 20040 30097 40154 56015 60006 81842 91500=
07747,1997-12-28 18:00:00,9,1015.3,-0.1,76,5,25000,3.704,,,80,8.6,13.7,,,,,,,,,wg-a,,,,AAXX 28184 07747 12575 20802 10090 20050 30096 40153 55001 60006 81840 91800 333 10137 20086=
07747,1997-12-28 21:00:00,7,1014.8,-0.6,87,5,25000,0,,,0,,,,,,,,,,,wg-a,,,,AAXX 28214 07747 12675 70000 10070 20050 30090 40148 58006 60006 81542 92100=
07747,1997-12-29 00:00:00,6,1013.8,-1,93,5,25000,3.704,,,270,,,,,,,,,,,wg-a,,,,AAXX 29004 07747 12575 52702 10060 20050 30080 40138 58010 60006 84541 90000=
07747,1997-12-29 03:00:00,5,1012.9,-0.9,93,4,25000,0,,,0,,,,,,,,,,,wg-a,,,,AAXX 29034 07747 12575 40000 10050 20040 30071 40129 58009 60006 82541 90300=
07747,1997-12-29 06:00:00,6,1012.8,-0.1,93,5,25000,7.408,,,250,4.5,8.3,,,,,,,,,wg-a,,,,AAXX 29064 07747 02675 /2504 10060 20050 30070 40128 55001 60006 85541 90600 333 10083 20045 60004=
07747,1997-12-29 09:00:00,8,1014.3,1.5,87,6,25000,0,,,0,,,,,,,,,,,wg-a,,,,AAXX 29094 07747 12575 70000 10080 20060 30085 40143 53015 60006 875// 90900=
07747,1997-12-29 12:00:00,10,1013.1,-1.1,66,4,25000,14.816,,,100,,,,,,,,,,,wg-a,,,,AAXX 29124 07747 12575 71008 10100 20040 30074 40131 58011 60006 875// 91200=
07747,1997-12-29 15:00:00,10,1012.1,-1,76,6,25000,14.816,,,90,,,,,,,,,,,wg-a,,,,AAXX 29154 07747 12575 70908 10100 20060 30064 40121 56010 60006 875// 91500=
07747,1997-12-29 18:00:00,11,1012.1,-0,82,8,25000,7.408,,,120,6.2,10.8,,,,,,,,,wg-a,,,,AAXX 29184 07747 12575 71204 10110 20080 30064 40121 55000 60006 878// 91800 333 10108 20062=
07747,1997-12-30 00:00:00,6,1012.8,0.1,93,5,20000,11.112,,,250,,,,,,,,,,,wg-a,,,,AAXX 30004 07747 12670 22506 10060 20050 30070 40128 50001 60006 82500 90000=
07747,1997-12-30 03:00:00,4,1013.2,0.4,100,4,15000,11.112,,,270,,,,,,,,,,,wg-a,,,,AAXX 30034 07747 12765 /2706 10040 20040 30074 40132 52004 60006 81500 90300=
07747,1997-12-30 06:00:00,5,1014.3,1.1,93,4,15000,3.704,,,250,3.1,11.1,,,,,,,,,wg-a,,,,AAXX 30064 07747 02465 72502 10050 20040 30085 40143 53011 60006 875// 90600 333 10111 20031 60004=
07747,1997-12-30 09:00:00,7,1016.1,1.8,100,7,8000,0,,,0,,,,,,,,,,,wg-a,,,,AAXX 30094 07747 12458 80000 10070 20070 30103 40161 53018 60006 877// 90900=
07747,1997-12-30 12:00:00,11,1015,-1,76,7,8000,7.408,,,50,,,,,,,,,,,wg-a,,,,AAXX 30124 07747 12458 60504 10110 20070 30093 40150 58010 60006 86100 91200=
07747,1997-12-30 15:00:00,11,1014.1,-0.9,82,8,8000,11.112,,,120,,,,,,,,,,,wg-a,,,,AAXX 30154 07747 12458 81206 10110 20080 30084 40141 56009 60006 885// 91500=
07747,1997-12-30 18:00:00,10,1014,-0.1,93,9,500,7.408,,,20,4.7,11.4,,,,,,,,,wg-a,,,,AAXX 30184 07747 12300 80204 10100 20090 30083 40140 58001 60006 877// 91800 333 10114 20047=
07747,1997-12-31 00:00:00,12,1011.3,-2,76,8,12000,14.816,,,140,,,,,,,,,,3,wg-a,,,,AAXX 31004 07747 02362 71408 10120 20080 30056 40113 58020 61000 70362 875// 90000 333 6100=
07747,1997-12-31 06:00:00,6,1010.2,-0.4,93,5,25000,7.408,,,270,6.1,11.9,,,,,,,,,wg-a,,,,AAXX 31064 07747 02375 22704 10060 20050 30044 40102 55004 60006 81140 90600 333 10119 20061 61000=
07747,1997-12-31 09:00:00,9,1012,1.9,93,8,25000,7.408,,,50,,,,0,,,,,,,wg-a,,,,AAXX 31094 07747 12475 60504 10090 20080 30063 40120 53019 60007 84841 90900=
07747,1997-12-31 12:00:00,15,1012,0.1,72,10,25000,3.704,,,10,,,,,,,,,,,wg-a,,,,AAXX 31124 07747 12475 60102 10150 20100 30064 40120 50001 60006 84841 91200=
07747,1997-12-31 18:00:00,11,1013.8,1.9,87,9,8000,7.408,,,60,5.8,16,,,,,,,,63,wg-a,,,,AAXX 31184 07747 02358 80604 10110 20090 30081 40138 53019 61000 76362 885// 91800 333 10160 20058 6002=
07747,1997-12-31 21:00:00,10,1014.4,0.6,93,9,500,3.704,,,210,,,,9,,,,,,61,wg-a,,,,AAXX 31214 07747 12100 82102 10100 20090 30087 40144 53006 60097 76166 885// 92100=
