station_id,dh_utc,temperature,pression,pression_variation_3h,humidite,point_de_rosee,visibilite,vent_moyen,vent_rafales,vent_rafales_10min,vent_direction,temperature_min,temperature_max,pluie_1h,pluie_3h,pluie_6h,pluie_12h,pluie_24h,ensoleillement,temperature_sol,temps_omm,source,radiations,neige_au_sol,nebulosite,raw_msg
07280,1996-01-01 00:00:00,3,1001.4,1.1,100,3,2000,0,,,0,,,,0,,,,,,10,wg-a,,,,AAXX 01004 07280 02120 80000 10030 20030 39739 40014 51011 60026 71065 877// 90000 333 60007=
07280,1996-01-01 03:00:00,4,1002.2,0.8,93,3,1500,0,,,0,,,,0,,,,,,10,wg-a,,,,AAXX 01034 07280 12415 80000 10040 20030 39747 40022 51008 60007 71065 875// 90300=
07280,1996-01-01 06:00:00,3,1002.3,-0,100,3,1500,0,,,0,3,3.5,,0,,,4,,,10,wg-a,,,,AAXX 01064 07280 02215 80000 10030 20030 39747 40023 55000 60044 71065 886// 90600 333 10035 20030 60007=
07280,1996-01-01 09:00:00,4,1001.9,-0.3,100,4,3200,3.704,,,350,,,,,,,,,,2,wg-a,,,,AAXX 01094 07280 12232 83502 10040 20040 39744 40019 55003 60006 70242 886// 90900=
07280,1996-01-01 12:00:00,5,1000,-1.7,100,5,4700,14.816,,,20,,,,0,,,,,,2,wg-a,,,,AAXX 01124 07280 02247 80208 10050 20050 39727 40000 58017 60006 70254 886// 91200 333 60007=
07280,1996-01-01 15:00:00,6,1000.1,0.2,100,6,200,7.408,,,40,,,,,,,,,,44,wg-a,,,,AAXX 01154 07280 12102 80404 10060 20060 39729 40001 51002 60006 74442 886// 91500=
07280,1996-01-01 18:00:00,5,1000.5,0.3,100,5,300,7.408,,,30,3.3,5.9,,,,,,,,42,wg-a,,,,AAXX 01184 07280 32103 80304 10050 20050 39732 40005 53003 74242 886// 91800 333 10059 20033=
07280,1996-01-01 21:00:00,3,1001.4,0.6,100,3,300,11.112,,,40,,,,,,,,,,46,wg-a,,,,AAXX 01214 07280 12103 80406 10030 20030 39738 40014 52006 60006 74642 886// 92100=
07280,1996-01-02 00:00:00,3,1001.9,0.5,100,3,100,7.408,,,40,,,,,,,,,,44,wg-a,,,,AAXX 02004 07280 12101 80404 10030 20030 39743 40019 53005 60006 74442 886// 90000=
07280,1996-01-02 03:00:00,2,1002.3,0.4,100,2,500,7.408,,,30,,,,,,,,,,1,wg-a,,,,AAXX 02034 07280 12200 80304 10020 20020 39747 40023 53004 60006 70142 886// 90300=
07280,1996-01-02 06:00:00,2,1003,0.6,100,2,4500,11.112,,,20,2.2,5.4,,4,,,4,,,10,wg-a,,,,AAXX 02064 07280 02245 80206 10020 20020 39753 40030 53006 60044 71064 886// 90600 333 10054 20022 60047=
07280,1996-01-02 09:00:00,3,1005.3,2.4,100,3,1500,11.112,,,360,,,,2,,,,,,10,wg-a,,,,AAXX 02094 07280 12215 83606 10030 20030 39777 40053 53024 60027 71065 886// 90900=
07280,1996-01-02 12:00:00,5,1007.7,2.4,93,4,500,14.816,,,10,,,,0,,,,,,20,wg-a,,,,AAXX 02124 07280 02200 80108 10050 20040 39801 40077 51024 60026 72065 886// 91200 333 60007=
07280,1996-01-02 15:00:00,5,1011.3,3.5,93,4,2000,18.52,,,20,,,,3,,,,,,10,wg-a,,,,AAXX 02154 07280 12220 80210 10050 20040 39836 40113 53035 60037 71065 877// 91500=
07280,1996-01-02 18:00:00,5,1015,3.7,100,5,12000,14.816,,,340,2.3,5,,2,,,,,,21,wg-a,,,,AAXX 02184 07280 12362 83408 10050 20050 39873 40150 51037 60027 72165 8657/ 91800 333 10050 20023=
07280,1996-01-02 21:00:00,4,1018.2,3,93,3,12000,14.816,,,330,,,,,,,,,,,wg-a,,,,AAXX 02214 07280 12462 83308 10040 20030 39903 40182 51030 60006 875// 92100=
07280,1996-01-03 00:00:00,4,1020.2,1.9,87,2,12000,7.408,,,50,,,,,,,,,,,wg-a,,,,AAXX 03004 07280 12462 80504 10040 20020 39922 40202 53019 60006 876// 90000=
07280,1996-01-03 03:00:00,3,1021.8,1.5,93,2,6000,11.112,,,60,,,,,,,,,,,wg-a,,,,AAXX 03034 07280 12456 80606 10030 20020 39937 40218 52015 60006 886// 90300=
07280,1996-01-03 06:00:00,2,1022.3,0.4,100,2,300,7.408,,,60,2.3,4.9,,,,,7,,,44,wg-a,,,,AAXX 03064 07280 02103 80604 10020 20020 39941 40223 53004 60006 74442 886// 90600 333 10049 20023 60074=
07280,1996-01-03 09:00:00,2,1023.6,1.2,93,1,700,7.408,,,40,,,,,,,,,,50,wg-a,,,,AAXX 03094 07280 02107 80404 10020 20010 39953 40236 53012 61000 75042 886// 90900 333 ////=
07280,1996-01-03 12:00:00,2,1023.5,-0.1,93,1,3000,14.816,,,50,,,,,,,,,,10,wg-a,,,,AAXX 03124 07280 02230 80508 10020 20010 39952 40235 58001 61000 71054 886// 91200 333 6100=
07280,1996-01-03 15:00:00,1,1023.6,-0,93,0,800,11.112,,,20,,,,,,,,,,44,wg-a,,,,AAXX 03154 07280 12108 80206 10010 20000 39952 40236 55000 60006 74422 886// 91500=
07280,1996-01-03 18:00:00,1,1023.4,-0.2,100,1,700,11.112,,,360,0.3,2.3,,,,,,,,42,wg-a,,,,AAXX 03184 07280 32107 83606 10010 20010 39950 40234 55002 74242 886// 91800 333 10023 20003=
07280,1996-01-03 21:00:00,1,1024.6,1.2,100,1,500,11.112,,,10,,,,,,,,,,2,wg-a,,,,AAXX 03214 07280 12200 80106 10010 20010 39962 40246 51012 60006 70242 886// 92100=
07280,1996-01-04 00:00:00,0,1023.4,-1.3,100,0,600,7.408,,,30,,,,,,,,,,44,wg-a,,,,AAXX 04004 07280 12106 80304 10000 20000 39949 40234 56013 60006 74442 886// 90000=
07280,1996-01-04 03:00:00,1,1021.3,-1.9,93,0,7000,14.816,,,30,,,,,,,,,,1,wg-a,,,,AAXX 04034 07280 12257 80308 10010 20000 39930 40213 58019 60006 70142 886// 90300=
07280,1996-01-04 06:00:00,1,1020.4,-1,93,0,7000,11.112,,,80,0.1,1.3,,,,,,,,2,wg-a,,,,AAXX 04064 07280 02257 80806 10010 20000 39920 40204 58010 60006 70242 886// 90600 333 10013 20001 61000=
07280,1996-01-04 09:00:00,0,1019.3,-1.1,93,-1,500,0,,,0,,,,,,,,,,10,wg-a,,,,AAXX 04094 07280 12105 80000 10000 21010 39909 40193 56011 60006 71042 886// 90900=
07280,1996-01-04 12:00:00,0,1016.7,-2.5,100,0,1500,7.408,,,170,,,,,,,,,,10,wg-a,,,,AAXX 04124 07280 02115 81704 10000 20000 39884 40167 58025 61000 71054 886// 91200 333 6100=
07280,1996-01-04 15:00:00,1,1015.1,-1.4,93,0,6000,7.408,,,100,,,,,,,,,,2,wg-a,,,,AAXX 04154 07280 02256 81004 10010 20000 39870 40151 56014 61000 70252 886// 91500 333 ////=
07280,1996-01-04 18:00:00,0,1013.5,-1.8,93,-1,6000,7.408,,,20,-0.4,1.3,,,,,,,,3,wg-a,,,,AAXX 04184 07280 32256 80204 10000 21010 39852 40135 56018 70352 886// 91800 333 10013 21004=
07280,1996-01-04 21:00:00,0,1012.3,-1.1,93,-1,800,3.704,,,310,,,,,,,,,,41,wg-a,,,,AAXX 04214 07280 12108 /3102 10000 21010 39841 40123 56011 60006 74142 876// 92100=
07280,1996-01-05 00:00:00,0,1010.3,-2,93,-1,200,3.704,,,360,,,,,,,,,,44,wg-a,,,,AAXX 05004 07280 12102 83602 10000 21010 39821 40103 58020 60006 74442 886// 90000=
07280,1996-01-05 03:00:00,-1,1008.2,-2.1,100,-1,100,3.704,,,360,,,,,,,,,,45,wg-a,,,,AAXX 05034 07280 12/01 93602 11010 21010 39800 40082 58021 60006 74544 89/// 90300=
07280,1996-01-05 06:00:00,-3,1007.1,-1.2,100,-3,100,0,,,0,-2.8,-0.2,,,,,,,,48,wg-a,,,,AAXX 05064 07280 02101 50000 11030 21030 39788 40071 58012 60006 74844 82630 90600 333 11002 21028 61000=
07280,1996-01-05 09:00:00,-1,1005.7,-1.1,100,-1,500,11.112,,,10,,,,,,,,,,,wg-a,,,,AAXX 05094 07280 12/00 60106 11010 21010 39777 40057 56011 60006 81031 90900=
07280,1996-01-05 12:00:00,3,1002.9,-2.5,87,1,8000,7.408,,,20,,,,,,,,,,3,wg-a,,,,AAXX 05124 07280 12/58 70204 10030 20010 39752 40029 57025 60006 70341 81032 91200=
07280,1996-01-05 15:00:00,5,1000.8,-1.8,87,3,11000,7.408,,,360,,,,,,,,,,,wg-a,,,,AAXX 05154 07280 12/61 73604 10050 20030 39734 40008 56018 60006 82032 91500=
07280,1996-01-05 18:00:00,3,1000.7,-0.3,87,1,12000,7.408,,,340,-2.8,5.6,,,,,,,,,wg-a,,,,AAXX 05184 07280 12/62 73404 10030 20010 39731 40007 56003 60006 86062 91800 333 10056 21028=
07280,1996-01-05 21:00:00,3,1001.1,0.4,87,1,8000,3.704,,,60,,,,0,,,,,,61,wg-a,,,,AAXX 05214 07280 12558 80602 10030 20010 39735 40011 53004 60007 76162 8352/ 92100=
07280,1996-01-06 00:00:00,3,1001,-0.1,93,2,500,3.704,,,20,,,,1,,,,,,60,wg-a,,,,AAXX 06004 07280 02400 80202 10030 20020 39734 40010 58001 60016 76062 8352/ 90000 333 60017=
07280,1996-01-06 03:00:00,3,1000.7,-0.3,93,2,3000,0,,,0,,,,0,,,,,,10,wg-a,,,,AAXX 06034 07280 12430 80000 10030 20020 39731 40007 57003 60007 71062 8252/ 90300=
07280,1996-01-06 06:00:00,3,1001,0.3,93,2,1500,3.704,,,180,2.6,3.5,,,,,1,,,10,wg-a,,,,AAXX 06064 07280 12215 81802 10030 20020 39734 40010 53003 60014 71062 8367/ 90600 333 10035 20026=
07280,1996-01-06 09:00:00,3,1000.9,-0,100,3,800,0,,,0,,,,,,,,,,10,wg-a,,,,AAXX 06094 07280 12108 80000 10030 20030 39734 40009 54000 60006 71042 886// 90900=
07280,1996-01-06 12:00:00,5,999.4,-1.3,100,5,500,3.704,,,120,,,,,,,,,,42,wg-a,,,,AAXX 06124 07280 12105 81202 10050 20050 39721 49994 58013 60006 74242 886// 91200=
07280,1996-01-06 15:00:00,7,997.7,-1.5,93,6,3000,7.408,,,120,,,,,,,,,,10,wg-a,,,,AAXX 06154 07280 12230 81204 10070 20060 39706 49977 55015 60006 71042 876// 91500=
07280,1996-01-06 18:00:00,7,995.6,-2,87,5,20000,14.816,,,180,2.5,7.4,,,,,,,,1,wg-a,,,,AAXX 06184 07280 12/70 61808 10070 20050 39686 49956 56020 60006 70142 81031 91800 333 10074 20025=
07280,1996-01-06 21:00:00,9,994.4,-1,81,6,12000,35.188,,57.412,200,,,,0,,,,,,61,wg-a,,,,AAXX 06214 07280 12762 82019 10090 20060 39676 49944 56010 60007 76162 8152/ 92100 333 91031=
07280,1996-01-07 00:00:00,9,994.9,0.5,76,5,18000,35.188,,,200,,,,2,,,,,,21,wg-a,,,,AAXX 07004 07280 02568 82019 10090 20050 39681 49949 52005 60026 72162 8282/ 90000 333 60027=
07280,1996-01-07 03:00:00,8,995.8,0.8,81,5,20000,14.816,,,200,,,,0,,,,,,21,wg-a,,,,AAXX 07034 07280 12770 62008 10080 20050 39689 49958 52008 60007 72162 81532 90300=
07280,1996-01-07 06:00:00,7,997.4,1.4,87,5,25000,18.52,,,200,6,9.2,,,,,3,,,3,wg-a,,,,AAXX 07064 07280 12775 72010 10070 20050 39703 49974 51014 60034 70362 8157/ 90600 333 10092 20060=
07280,1996-01-07 09:00:00,7,1000,2.6,93,6,25000,7.408,,,150,,,,,,,,,,60,wg-a,,,,AAXX 07094 07280 02575 81504 10070 20060 39729 40000 53026 61000 76022 878// 90900 333 ////=
07280,1996-01-07 10:00:00,8,1,2.4,93,7,20000,11.112,,,200,6.8,11.1,,,,,,,,,wg-a,,,,AAXX 07104 07280 32570 /2006 10080 20070 53024 85800 91000 333 10111 20068=
07280,1996-01-07 12:00:00,9,1001.8,1.9,93,8,15000,11.112,,,200,,,,2,,,,,,21,wg-a,,,,AAXX 07124 07280 02465 82006 10090 20080 39748 40018 51019 60026 72162 8657/ 91200 333 60027=
07280,1996-01-07 15:00:00,11,1003.4,1.8,87,9,20000,11.112,,,200,,,,,,,,,,,wg-a,,,,AAXX 07154 07280 12470 62006 10110 20090 39766 40034 53018 60006 83530 91500=
07280,1996-01-07 18:00:00,8,1006.2,2.4,93,7,20000,11.112,,,200,6.8,11.1,,,,,,,,,wg-a,,,,AAXX 07184 07280 32570 /2006 10080 20070 39790 40062 53024 85800 91800 333 10111 20068=
07280,1996-01-07 21:00:00,6,1008.9,2.4,100,6,15000,7.408,,,180,,,,,,,,,,11,wg-a,,,,AAXX 07214 07280 12665 /1804 10060 20060 39814 40089 51024 60006 71111 85500 92100=
07280,1996-01-08 00:00:00,2,1011.5,2.2,100,2,200,3.704,,,130,,,,,,,,,,44,wg-a,,,,AAXX 08004 07280 12202 31302 10020 20020 39836 40115 52022 60006 74441 82630 90000=
07280,1996-01-08 03:00:00,5,1013.1,1.8,100,5,12000,11.112,,,220,,,,,,,,,,1,wg-a,,,,AAXX 08034 07280 12762 52206 10050 20050 39854 40131 51018 60006 70141 82530 90300=
07280,1996-01-08 06:00:00,3,1014.4,1,93,2,900,0,,,0,2.2,7.8,,,,,2,,,44,wg-a,,,,AAXX 08064 07280 02/09 30000 10030 20020 39864 40144 52010 60006 74441 83030 90600 333 10078 20022 60024=
07280,1996-01-08 09:00:00,3,1015.4,1,100,3,100,3.704,,,30,,,,,,,,,,44,wg-a,,,,AAXX 08094 07280 12101 /0302 10030 20030 39874 40154 53010 60006 74444 86700 90900=
07280,1996-01-08 12:00:00,5,1013.6,-1.5,100,5,200,3.704,,,10,,,,,,,,,,42,wg-a,,,,AAXX 08124 07280 12102 70102 10050 20050 39859 40136 58015 60006 74244 877// 91200=
07280,1996-01-08 15:00:00,6,1012.2,-1.3,100,6,100,7.408,,,30,,,,,,,,,,44,wg-a,,,,AAXX 08154 07280 12101 70304 10060 20060 39846 40122 58013 60006 74444 877// 91500=
07280,1996-01-08 18:00:00,2,1011.5,-1,100,2,1500,3.704,,,290,1.1,5.9,,,,,,,,28,wg-a,,,,AAXX 08184 07280 12/15 /2902 10020 20020 39836 40115 58010 60006 72842 80001 91800 333 10059 20011=
07280,1996-01-08 21:00:00,0,1010.2,-1.5,100,0,200,3.704,,,40,,,,,,,,,,44,wg-a,,,,AAXX 08214 07280 12102 70402 10000 20000 39821 40102 56015 60006 74411 85601 92100=
07280,1996-01-09 00:00:00,0,1008.4,-1.8,100,0,1000,7.408,,,120,,,,,,,,,,10,wg-a,,,,AAXX 09004 07280 12/10 71204 10000 20000 39803 40084 58018 60006 71041 82071 90000=
07280,1996-01-09 03:00:00,1,1007,-1.3,93,0,500,3.704,,,330,,,,,,,,,,12,wg-a,,,,AAXX 09034 07280 12/00 73302 10010 20000 39790 40070 56013 60006 71222 81071 90300=
07280,1996-01-09 06:00:00,1,1006.4,-0.5,100,1,15000,7.408,,,330,-0.5,2.7,,,,,,,,,wg-a,,,,AAXX 09064 07280 12/65 83304 10010 20010 39785 40064 55005 60006 8707/ 90600 333 10027 21005=
07280,1996-01-09 09:00:00,3,1007,0.7,93,2,20000,7.408,,,340,,,,,,,,,,,wg-a,,,,AAXX 09094 07280 12/70 73404 10030 20020 39792 40070 53007 60006 8707/ 90900=
07280,1996-01-09 12:00:00,11,1006.2,0.1,71,6,15000,31.484,,,190,,,,1,,,,,,61,wg-a,,,,AAXX 09124 07280 02765 81917 10110 20060 39793 40062 51001 60016 76162 8557/ 91200 333 60017=
07280,1996-01-09 15:00:00,10,1007.4,1.1,82,7,25000,18.52,,,190,,,,1,,,,,,61,wg-a,,,,AAXX 09154 07280 12775 81910 10100 20070 39804 40074 53011 60017 76166 8357/ 91500=
07280,1996-01-09 18:00:00,10,1008.9,1.4,76,6,20000,14.816,,,220,1.1,11.1,,1,,,,,,61,wg-a,,,,AAXX 09184 07280 12770 82208 10100 20060 39818 40089 53014 60017 76162 875// 91800 333 10111 20011=
07280,1996-01-09 21:00:00,9,1008.2,-0.7,81,6,15000,22.224,,,260,,,,2,,,,,,61,wg-a,,,,AAXX 09214 07280 12765 82612 10090 20060 39811 40082 58007 60027 76162 875// 92100=
07280,1996-01-10 00:00:00,6,1008.5,-0.1,87,4,15000,11.112,,,20,,,,,,,,,,2,wg-a,,,,AAXX 10004 07280 02765 80206 10060 20040 39810 40085 58001 60026 70262 875// 90000 333 61000=
07280,1996-01-10 03:00:00,6,1007.4,-1,93,5,15000,14.816,,,360,,,,,,,,,,,wg-a,,,,AAXX 10034 07280 12765 83608 10060 20050 39800 40074 58010 60006 875// 90300=
07280,1996-01-10 06:00:00,6,1007.4,-0,87,4,20000,11.112,,,330,5.4,10.9,,,,,3,,,60,wg-a,,,,AAXX 10064 07280 02770 83306 10060 20040 39800 40074 55000 60034 76062 875// 90600 333 10109 20054 61000=
07280,1996-01-10 09:00:00,7,1007.7,0.4,87,5,20000,11.112,,,30,,,,0,,,,,,1,wg-a,,,,AAXX 10094 07280 12770 70306 10070 20050 39804 40077 53004 60007 70162 8557/ 90900=
07280,1996-01-10 12:00:00,9,1006.4,-1.2,76,5,25000,14.816,,,30,,,,0,,,,,,1,wg-a,,,,AAXX 10124 07280 02775 60308 10090 20050 39792 40064 58012 60016 70162 83571 91200 333 60007=
07280,1996-01-10 15:00:00,9,1005.3,-1,81,6,25000,11.112,,,10,,,,,,,,,,,wg-a,,,,AAXX 10154 07280 12775 60106 10090 20060 39782 40053 55010 60006 81532 91500=
07280,1996-01-10 18:00:00,7,1006.8,-0,87,5,20000,14.816,,,340,6.2,9.8,,,,,,,,,wg-a,,,,AAXX 10184 07280 32/70 53408 10070 20050 39795 40068 54000 85030 91800 333 10098 20062=
07280,1996-01-10 21:00:00,6,1008.9,1.9,87,4,20000,0,,,0,,,,,,,,,,,wg-a,,,,AAXX 10214 07280 12/70 70000 10060 20040 39814 40089 53019 60006 8703/ 92100=
07280,1996-01-11 00:00:00,5,1009,-0,93,4,20000,0,,,0,,,,,,,,,,,wg-a,,,,AAXX 11004 07280 12/70 70000 10050 20040 39814 40090 55000 60006 8703/ 90000=
07280,1996-01-11 03:00:00,6,1009.6,0.7,87,4,20000,14.816,,,210,,,,,,,,,,,wg-a,,,,AAXX 11034 07280 12/70 12108 10060 20040 39821 40096 53007 60006 81030 90300=
07280,1996-01-11 06:00:00,2,1008.9,-1.1,93,1,20000,3.704,,,260,1.8,7.1,,,,,1,,,11,wg-a,,,,AAXX 11064 07280 02/70 32602 10020 20010 39810 40089 58011 60006 71100 80004 90600 333 10071 20018 60014=
07280,1996-01-11 09:00:00,3,1007.4,-1.3,100,3,15000,0,,,0,,,,,,,,,,12,wg-a,,,,AAXX 11094 07280 12565 70000 10030 20030 39797 40074 56013 60006 71241 85501 90900=
07280,1996-01-11 12:00:00,9,1004.9,-1.8,87,7,20000,14.816,,,190,,,,,,,,,,3,wg-a,,,,AAXX 11124 07280 12570 71908 10090 20070 39779 40049 58018 60006 70341 81102 91200=
07280,1996-01-11 15:00:00,12,1002.9,-1.7,76,8,500,22.224,,,190,,,,,,,,,,,wg-a,,,,AAXX 11154 07280 12500 71912 10120 20080 39762 40029 55017 60006 8387/ 91500=
07280,1996-01-11 18:00:00,11,1002.1,-0.9,82,8,500,18.52,,,180,0.9,12.1,,,,,,,,,wg-a,,,,AAXX 11184 07280 12500 81810 10110 20080 39753 40021 58009 60006 8287/ 91800 333 10121 20009=
07280,1996-01-11 21:00:00,10,1002.2,-0,82,7,500,14.816,,,190,,,,,,,,,,,wg-a,,,,AAXX 11214 07280 12/00 51908 10100 20070 39753 40022 55000 60006 85030 92100=
07280,1996-01-12 00:00:00,8,1003.9,1.5,93,7,15000,14.816,,,200,,,,3,,,,,,61,wg-a,,,,AAXX 12004 07280 02865 82008 10080 20070 39768 40039 53015 60036 76162 8802/ 90000 333 60037=
07280,1996-01-12 03:00:00,8,1003.2,-0.8,87,6,20000,7.408,,,160,,,,2,,,,,,21,wg-a,,,,AAXX 12034 07280 12870 81604 10080 20060 39760 40032 56008 60027 72162 8802/ 90300=
07280,1996-01-12 06:00:00,8,1003.3,0.1,87,6,20000,14.816,,,180,7.3,11.2,,1,,,6,,,60,wg-a,,,,AAXX 12064 07280 02870 81808 10080 20060 39761 40033 53001 60064 76062 8802/ 90600 333 10112 20073 60017=
07280,1996-01-12 09:00:00,7,1004.6,1.3,100,7,8000,7.408,,,160,,,,1,,,,,,61,wg-a,,,,AAXX 12094 07280 12258 81604 10070 20070 39774 40046 53013 60017 76162 8582/ 90900=
07280,1996-01-12 12:00:00,8,1004.9,0.3,93,7,7000,11.112,,,170,,,,11,,,,,,63,wg-a,,,,AAXX 12124 07280 02257 81706 10080 20070 39777 40049 53003 60126 76362 8172/ 91200 333 60117=
07280,1996-01-12 15:00:00,8,1006.1,1.2,100,8,6000,11.112,,,150,,,,8,,,,,,61,wg-a,,,,AAXX 12154 07280 12256 81506 10080 20080 39789 40061 53012 60087 76166 8552/ 91500=
07280,1996-01-12 18:00:00,8,1008.6,2.5,100,8,7000,11.112,,,200,7,8.1,,1,,,,,,60,wg-a,,,,AAXX 12184 07280 12257 82006 10080 20080 39814 40086 51025 60017 76062 877// 91800 333 10081 20070=
07280,1996-01-12 21:00:00,8,1011.1,2.4,100,8,10000,7.408,,,200,,,,,,,,,,3,wg-a,,,,AAXX 12214 07280 02360 82004 10080 20080 39838 40111 51024 61000 70362 875// 92100 333 ////=
07280,1996-01-13 00:00:00,6,1012.7,1.4,100,6,6000,3.704,,,120,,,,,,,,,,3,wg-a,,,,AAXX 13004 07280 02256 81202 10060 20060 39852 40127 51014 61000 70362 877// 90000 333 ////=
07280,1996-01-13 03:00:00,7,1014,1.3,93,6,8000,3.704,,,240,,,,,,,,,,,wg-a,,,,AAXX 13034 07280 12358 82402 10070 20060 39865 40140 51013 60006 877// 90300=
07280,1996-01-13 06:00:00,5,1016.3,2.1,100,5,1000,3.704,,,320,5.4,8.1,,,,,22,,,,wg-a,,,,AAXX 13064 07280 12/10 /3202 10050 20050 39886 40163 53021 60224 90600 333 10081 20054=
07280,1996-01-13 09:00:00,6,1018.4,2,93,5,100,7.408,,,140,,,,,,,,,,45,wg-a,,,,AAXX 13094 07280 02/01 91404 10060 20050 39906 40184 51020 61000 74554 89/// 90900 333 ////=
07280,1996-01-13 12:00:00,6,1018,-0.3,100,6,2000,3.704,,,190,,,,,,,,,,10,wg-a,,,,AAXX 13124 07280 02220 81902 10060 20060 39903 40180 58003 61000 71054 886// 91200 333 6100=
07280,1996-01-13 15:00:00,7,1018.1,0.2,93,6,6000,3.704,,,20,,,,,,,,,,,wg-a,,,,AAXX 13154 07280 12256 80202 10070 20060 39905 40181 53002 60006 876// 91500=
07280,1996-01-13 18:00:00,6,1019,0.8,100,6,500,3.704,,,40,5.1,6.8,,,,,,,,,wg-a,,,,AAXX 13184 07280 32200 80402 10060 20060 39913 40190 53008 886// 91800 333 10068 20051=
07280,1996-01-13 21:00:00,6,1019.5,0.5,100,6,200,3.704,,,260,,,,,,,,,,,wg-a,,,,AAXX 13214 07280 12/02 /2602 10060 20060 39918 40195 52005 60006 92100=
07280,1996-01-14 00:00:00,6,1019.9,0.3,100,6,500,3.704,,,200,,,,,,,,,,44,wg-a,,,,AAXX 14004 07280 12105 82002 10060 20060 39921 40199 51003 60006 74442 886// 90000=
07280,1996-01-14 06:00:00,6,1019.7,-0,93,5,500,0,,18.52,0,5.4,6.4,,,,,,,,44,wg-a,,,,AAXX 14064 07280 02105 80000 10060 20050 39919 40197 55000 61000 74454 886// 90600 333 10064 20054 6100 91010=
07280,1996-01-14 09:00:00,5,1020.8,1,100,5,400,7.408,,,70,,,,,,,,,,45,wg-a,,,,AAXX 14094 07280 02/04 90704 10050 20050 39929 40208 53010 61000 74554 89/// 90900 333 ////=
07280,1996-01-14 12:00:00,5,1020.6,-0.2,100,5,1000,3.704,,,70,,,,,,,,,,28,wg-a,,,,AAXX 14124 07280 02/10 90702 10050 20050 39927 40206 58002 61000 72854 89/// 91200 333 6100=
07280,1996-01-14 15:00:00,5,1020.7,0.1,100,5,900,3.704,,,80,,,,,,,,,,10,wg-a,,,,AAXX 14154 07280 12109 80802 10050 20050 39928 40207 53001 60006 71042 886// 91500=
07280,1996-01-14 18:00:00,4,1021.8,1,100,4,500,7.408,,,60,3.9,5.5,,,,,,,,45,wg-a,,,,AAXX 14184 07280 02/00 90604 10040 20040 39938 40218 53010 61000 74554 89/// 91800 333 10055 20039 ////=
07280,1996-01-14 21:00:00,3,1023.6,1.6,100,3,200,7.408,,,30,,,,,,,,,,45,wg-a,,,,AAXX 14214 07280 32/02 90304 10030 20030 39954 40236 52016 74544 89/// 92100=
07280,1996-01-15 00:00:00,4,1024.3,0.8,100,4,100,3.704,,,70,,,,,,,,,,45,wg-a,,,,AAXX 15004 07280 02/01 90702 10040 20040 39962 40243 51008 61000 74554 89/// 90000 333 ////=
07280,1996-01-15 03:00:00,2,1025.4,0.9,100,2,100,3.704,,,50,,,,,,,,,,45,wg-a,,,,AAXX 15034 07280 12/01 90502 10020 20020 39971 40254 51009 60006 74544 89/// 90300=
07280,1996-01-15 06:00:00,2,1026.2,0.8,100,2,600,11.112,,,50,2,3.9,,,,,,,,42,wg-a,,,,AAXX 15064 07280 02106 80506 10020 20020 39979 40262 53008 61000 74244 886// 90600 333 10039 20020 ////=
07280,1996-01-15 09:00:00,2,1027.6,1.3,100,2,300,7.408,,,30,,,,,,,,,,44,wg-a,,,,AAXX 15094 07280 12103 80304 10020 20020 39992 40276 51013 60006 74444 886// 90900=
07280,1996-01-15 12:00:00,3,1027.6,0.1,100,3,600,7.408,,,40,,,,,,,,,,44,wg-a,,,,AAXX 15124 07280 12106 80404 10030 20030 39993 40276 50001 60006 74444 886// 91200=
07280,1996-01-15 15:00:00,3,1027.7,0.1,100,3,500,7.408,,,40,,,,,,,,,,44,wg-a,,,,AAXX 15154 07280 12105 80404 10030 20030 39994 40277 53001 60006 74444 886// 91500=
07280,1996-01-15 18:00:00,3,1028.4,0.7,100,3,200,3.704,,,360,1.8,3.4,,,,,,,,44,wg-a,,,,AAXX 15184 07280 12102 83602 10030 20030 30001 40284 52007 60006 74444 886// 91800 333 10034 20018=
07280,1996-01-15 21:00:00,4,1029,0.7,100,4,600,11.112,,,20,,,,,,,,,,42,wg-a,,,,AAXX 15214 07280 12106 80206 10040 20040 30008 40290 51007 60006 74244 886// 92100=
07280,1996-01-16 00:00:00,3,1029.6,0.4,100,3,300,11.112,,,40,,,,,,,,,,45,wg-a,,,,AAXX 16004 07280 12/03 90406 10030 20030 30012 40296 52004 60006 74542 89/// 90000=
07280,1996-01-16 06:00:00,1,1030.8,0.1,100,1,500,11.112,,,20,0.8,3.8,,,,,,,,44,wg-a,,,,AAXX 16064 07280 12105 80206 10010 20010 30022 40308 53001 60006 74444 886// 90600 333 10038 20008=
07280,1996-01-16 09:00:00,1,1031.4,0.6,100,1,400,7.408,,,360,,,,,,,,,,45,wg-a,,,,AAXX 16094 07280 12/04 93604 10010 20010 30028 40314 51006 60006 74544 89/// 90900=
07280,1996-01-16 12:00:00,2,1030.9,-0.4,93,1,500,7.408,,,30,,,,,,,,,,44,wg-a,,,,AAXX 16124 07280 12105 80304 10020 20010 30024 40309 58004 60006 74444 886// 91200=
07280,1996-01-16 15:00:00,2,1030.4,-0.4,100,2,1500,7.408,,,70,,,,,,,,,,28,wg-a,,,,AAXX 16154 07280 12115 80704 10020 20020 30020 40304 56004 60006 72842 886// 91500=
07280,1996-01-16 18:00:00,2,1031.1,0.6,100,2,400,7.408,,,60,0.8,2.3,,,,,,,,44,wg-a,,,,AAXX 16184 07280 12104 80604 10020 20020 30026 40311 51006 60006 74444 886// 91800 333 10023 20008=
07280,1996-01-16 21:00:00,1,1031.2,0,100,1,200,7.408,,,60,,,,,,,,,,44,wg-a,,,,AAXX 16214 07280 02102 80604 10010 20010 30026 40312 50000 61000 74454 886// 92100 333 ////=
07280,1996-01-17 00:00:00,1,1030.7,-0.4,100,1,200,0,,,0,,,,,,,,,,44,wg-a,,,,AAXX 17004 07280 02102 80000 10010 20010 30022 40307 58004 61000 74454 886// 90000 333 6100=
07280,1996-01-17 03:00:00,1,1030.6,-0.2,100,1,1200,3.704,,,60,,,,,,,,,,10,wg-a,,,,AAXX 17034 07280 12112 80602 10010 20010 30020 40306 57002 60006 71054 886// 90300=
07280,1996-01-17 06:00:00,1,1030.1,-0.4,100,1,500,3.704,,,110,0.8,2.1,,,,,,,,1,wg-a,,,,AAXX 17064 07280 12200 81102 10010 20010 30016 40301 56004 60004 70154 886// 90600 333 10021 20008=
07280,1996-01-17 09:00:00,2,1030.6,0.5,100,2,4000,7.408,,,140,,,,,,,,,,10,wg-a,,,,AAXX 17094 07280 02140 81404 10020 20020 30021 40306 53005 61000 71052 886// 90900 333 ////=
07280,1996-01-17 12:00:00,2,1029.3,-1.2,100,2,2500,11.112,,,190,,,,,,,,,,10,wg-a,,,,AAXX 17124 07280 02225 81906 10020 20020 30009 40293 58012 61000 71054 886// 91200 333 6100=
07280,1996-01-17 15:00:00,2,1028.1,-1.2,100,2,3500,11.112,,,200,,,,,,,,,,,wg-a,,,,AAXX 17154 07280 12135 82006 10020 20020 39997 40281 56012 60006 886// 91500=
07280,1996-01-17 18:00:00,2,1027.8,-0.3,100,2,4500,7.408,,,120,1.2,2.4,,,,,,,,,wg-a,,,,AAXX 17184 07280 32145 81204 10020 20020 39994 40278 58003 886// 91800 333 10024 20012=
07280,1996-01-17 21:00:00,2,1027.5,-0.3,100,2,7000,7.408,,,180,,,,,,,,,,,wg-a,,,,AAXX 17214 07280 12257 81804 10020 20020 39991 40275 58003 60006 886// 92100=
07280,1996-01-18 00:00:00,2,1027.3,-0.2,93,1,6000,11.112,,,190,,,,,,,,,,,wg-a,,,,AAXX 18004 07280 12356 81906 10020 20010 39989 40273 58002 60006 886// 90000=
07280,1996-01-18 03:00:00,2,1026.6,-0.7,100,2,500,7.408,,,150,,,,,,,,,,,wg-a,,,,AAXX 18034 07280 12200 81504 10020 20020 39982 40266 56007 60006 886// 90300=
07280,1996-01-18 06:00:00,1,1025.9,-0.7,100,1,4500,7.408,,,140,1.1,2.4,,,,,,,,,wg-a,,,,AAXX 18064 07280 02245 81404 10010 20010 39975 40259 56007 60006 886// 90600 333 10024 20011 61000=
07280,1996-01-18 09:00:00,1,1026.2,0.2,100,1,2000,7.408,,,170,,,,,,,,,,10,wg-a,,,,AAXX 18094 07280 12120 81704 10010 20010 39977 40262 51002 60006 71022 886// 90900=
07280,1996-01-18 12:00:00,2,1025,-1,93,1,8000,11.112,,,180,,,,,,,,,,,wg-a,,,,AAXX 18124 07280 12358 81806 10020 20010 39967 40250 58010 60006 887// 91200=
07280,1996-01-18 15:00:00,4,1023.6,-1.2,81,1,11000,7.408,,,210,,,,,,,,,,,wg-a,,,,AAXX 18154 07280 12461 /2104 10040 20010 39955 40236 56012 60006 851// 91500=
07280,1996-01-18 18:00:00,0,1023.6,-0.4,93,-1,7000,3.704,,,110,-0.2,3.9,,,,,,,,,wg-a,,,,AAXX 18184 07280 12/57 /1102 10000 21010 39951 40236 55004 60006 80000 91800 333 10039 21002=
07280,1996-01-18 21:00:00,0,1023.5,-0.1,100,0,200,7.408,,,60,,,,,,,,,,44,wg-a,,,,AAXX 18214 07280 12102 80604 10000 20000 39950 40235 58001 60006 74441 886// 92100=
07280,1996-01-19 00:00:00,0,1022.8,-0.7,93,-1,500,3.704,,,30,,,,,,,,,,49,wg-a,,,,AAXX 19004 07280 12/00 90302 10000 21010 39943 40228 58007 60006 74941 89/// 90000=
07280,1996-01-19 03:00:00,-1,1021.9,-1,100,-1,100,0,,,0,,,,,,,,,,49,wg-a,,,,AAXX 19034 07280 12/01 90000 11010 21010 39933 40219 58010 60006 74944 89/// 90300=
07280,1996-01-19 06:00:00,-2,1020.7,-1.2,100,-2,100,3.704,,,190,-2.1,0.4,,,,,,,,44,wg-a,,,,AAXX 19064 07280 12101 81902 11020 21020 39921 40207 56012 60006 74444 886// 90600 333 10004 21021=
07280,1996-01-19 09:00:00,-3,1020.8,0,100,-3,300,3.704,,,190,,,,,,,,,,49,wg-a,,,,AAXX 19094 07280 12/03 91902 11030 21030 39921 40208 50000 60006 74944 89/// 90900=
07280,1996-01-19 12:00:00,-2,1019.3,-1.4,100,-2,200,3.704,,,60,,,,,,,,,,49,wg-a,,,,AAXX 19124 07280 12/02 90602 11020 21020 39907 40193 58014 60006 74944 89/// 91200=
07280,1996-01-19 18:00:00,-2,1016.4,-1.1,100,-2,100,3.704,,,100,-2.5,-1.6,,,,,,,,49,wg-a,,,,AAXX 19184 07280 12/01 91002 11020 21020 39879 40164 56011 60006 74944 89/// 91800 333 11016 21025=
07280,1996-01-19 21:00:00,-2,1015.8,-0.6,100,-2,100,3.704,,,90,,,,,,,,,,49,wg-a,,,,AAXX 19214 07280 12/01 90902 11020 21020 39873 40158 58006 60006 74944 89/// 92100=
07280,1996-01-20 00:00:00,-2,1014.8,-1,93,-3,400,11.112,,,60,,,,,,,,,,49,wg-a,,,,AAXX 20004 07280 12/04 90606 11020 21030 39863 40148 57010 60006 74944 89/// 90000=
07280,1996-01-20 03:00:00,-2,1013.9,-0.9,93,-3,200,7.408,,,50,,,,,,,,,,49,wg-a,,,,AAXX 20034 07280 12/02 90504 11020 21030 39854 40139 57009 60006 74944 89/// 90300=
07280,1996-01-20 06:00:00,-2,1012.9,-0.9,100,-2,100,7.408,,,100,-2.9,-1.8,,,,,,,,49,wg-a,,,,AAXX 20064 07280 12/01 91004 11020 21020 39845 40129 56009 60006 74944 89/// 90600 333 11018 21029=
07280,1996-01-20 09:00:00,-1,1013.1,0.3,100,-1,700,7.408,,,90,,,,,,,,,,48,wg-a,,,,AAXX 20094 07280 12/07 90904 11010 21010 39848 40131 53003 60006 74844 89/// 90900=
07280,1996-01-20 12:00:00,-1,1012.2,-0.8,100,-1,2000,3.704,,,120,,,,,,,,,,10,wg-a,,,,AAXX 20124 07280 12220 81202 11010 21010 39840 40122 58008 60006 71042 886// 91200=
07280,1996-01-20 15:00:00,0,1011.6,-0.6,100,0,4000,3.704,,,60,,,,,,,,,,,wg-a,,,,AAXX 20154 07280 12240 /0602 10000 20000 39834 40116 56006 60006 876// 91500=
07280,1996-01-20 18:00:00,-1,1011.7,0.1,100,-1,2500,7.408,,,340,-1.9,-0.2,,,,,,,,10,wg-a,,,,AAXX 20184 07280 12225 53404 11010 21010 39835 40117 53001 60006 71011 81631 91800 333 11002 21019=
07280,1996-01-20 21:00:00,0,1013.2,1.5,93,-1,7000,11.112,,,360,,,,,,,,,,,wg-a,,,,AAXX 20214 07280 12757 73606 10000 21010 39850 40132 53015 60006 875// 92100=
07280,1996-01-21 00:00:00,-1,1013.8,0.5,93,-2,8000,7.408,,,360,,,,,,,,,,,wg-a,,,,AAXX 21004 07280 12/58 /3604 11010 21020 39855 40138 51005 60006 81030 90000=
07280,1996-01-21 03:00:00,-1,1014.4,0.5,93,-2,10000,11.112,,,360,,,,,,,,,,,wg-a,,,,AAXX 21034 07280 12/60 03606 11010 21020 39860 40144 52005 60006 80000 90300=
07280,1996-01-21 06:00:00,-2,1014.7,0.2,93,-3,8000,11.112,,,360,-2.6,-0.2,,,,,,,,,wg-a,,,,AAXX 21064 07280 12/58 23606 11020 21030 39862 40147 52002 60006 80001 90600 333 11002 21026=
07280,1996-01-21 09:00:00,-1,1015.5,1,93,-2,500,11.112,,,360,,,,,,,,,,,wg-a,,,,AAXX 21094 07280 12/00 63606 11010 21020 39872 40155 51010 60006 82031 90900=
07280,1996-01-21 12:00:00,1,1015.2,-0.1,86,-1,500,11.112,,,360,,,,,,,,,,,wg-a,,,,AAXX 21124 07280 12/00 73606 10010 21010 39871 40152 58001 60006 8703/ 91200=
07280,1996-01-21 15:00:00,4,1014,-0.9,75,0,6000,11.112,,,30,,,,,,,,,,,wg-a,,,,AAXX 21154 07280 12/56 /0306 10040 20000 39862 40140 57009 60006 81030 91500=
07280,1996-01-21 18:00:00,1,1014.5,0.2,86,-1,500,11.112,,,10,-2.5,4,,,,,,,,,wg-a,,,,AAXX 21184 07280 12/00 00106 10010 21010 39864 40145 53002 60006 80000 91800 333 10040 21025=
07280,1996-01-21 21:00:00,0,1015,0.4,86,-2,6000,11.112,,,340,,,,,,,,,,,wg-a,,,,AAXX 21214 07280 12/56 23406 10000 21020 39868 40150 51004 60006 80001 92100=
07280,1996-01-22 00:00:00,0,1015,0.4,86,-2,6000,11.112,,,340,,,,,,,,,,,wg-a,,,,AAXX 22004 07280 12/56 23406 10000 21020 39868 40150 51004 60006 80001 90000=
07280,1996-01-22 03:00:00,-1,1015.1,0,86,-3,4500,11.112,,,350,,,,,,,,,,,wg-a,,,,AAXX 22034 07280 12/45 03506 11010 21030 39867 40151 50000 60006 80000 90300=
07280,1996-01-22 06:00:00,-1,1013.9,-1.1,86,-3,500,14.816,,,360,-1.1,1.5,,,,,,,,,wg-a,,,,AAXX 22064 07280 12/00 73608 11010 21030 39856 40139 56011 60006 80002 90600 333 10015 21011=
07280,1996-01-22 09:00:00,0,1014.2,0.4,86,-2,500,18.52,,,10,,,,,,,,,,,wg-a,,,,AAXX 22094 07280 12/00 80110 10000 21020 39860 40142 52004 60006 8703/ 90900=
07280,1996-01-22 12:00:00,1,1012.5,-1.6,80,-2,500,18.52,,,20,,,,,,,,,,,wg-a,,,,AAXX 22124 07280 12/00 80210 10010 21020 39844 40125 58016 60006 8703/ 91200=
07280,1996-01-22 15:00:00,2,1011.6,-0.8,75,-2,6000,11.112,,,10,,,,,,,,,,,wg-a,,,,AAXX 22154 07280 12756 80106 10020 21020 39836 40116 56008 60006 81572 91500=
07280,1996-01-22 18:00:00,2,1012.7,1.1,87,0,500,14.816,,,20,-0.8,2.2,,1,,,,,,61,wg-a,,,,AAXX 22184 07280 12/00 80208 10020 20000 39847 40127 53011 60017 76162 8807/ 91800 333 10022 21008=
07280,1996-01-22 21:00:00,1,1011.6,-1.2,86,-1,8000,11.112,,,20,,,,1,,,,,,61,wg-a,,,,AAXX 22214 07280 12758 80206 10010 21010 39835 40116 58012 60017 76166 8357/ 92100=
07280,1996-01-23 00:00:00,1,1011,-0.6,80,-2,8000,11.112,,,360,,,,,,,,,,2,wg-a,,,,AAXX 23004 07280 02758 83606 10010 21020 39829 40110 55006 60016 70262 8557/ 90000 333 61000=
07280,1996-01-23 03:00:00,0,1009.6,-1.4,93,-1,7000,18.52,,,20,,,,1,,,,,,21,wg-a,,,,AAXX 23034 07280 12757 80210 10000 21010 39815 40096 58014 60017 72162 8557/ 90300=
07280,1996-01-23 06:00:00,0,1007.3,-2.2,93,-1,8000,18.52,,,10,0,1.8,,,,,3,,,3,wg-a,,,,AAXX 23064 07280 12758 70110 10000 21010 39793 40073 56022 60034 70362 8357/ 90600 333 10018 20000=
07280,1996-01-23 09:00:00,1,1008.4,1.1,93,0,3000,18.52,,,360,,,,1,,,,,,10,wg-a,,,,AAXX 23094 07280 12330 83610 10010 20000 39804 40084 53011 60017 71062 8357/ 90900=
07280,1996-01-23 12:00:00,1,1006,-2.3,93,0,4000,14.816,,,20,,,,3,,,,,,10,wg-a,,,,AAXX 23124 07280 02/40 80208 10010 20000 39781 40060 58023 60046 71062 8802/ 91200 333 60037=
07280,1996-01-23 15:00:00,2,1006.1,0.2,93,1,3000,14.816,,,20,,,,1,,,,,,10,wg-a,,,,AAXX 23154 07280 12/30 80208 10020 20010 39783 40061 53002 60017 71062 8807/ 91500=
07280,1996-01-23 18:00:00,2,1006.6,0.5,93,1,4000,14.816,,,20,0.4,2.1,,1,,,,,,1,wg-a,,,,AAXX 23184 07280 12/40 /0208 10020 20010 39788 40066 52005 60017 70162 8707/ 91800 333 10021 20004=
07280,1996-01-23 21:00:00,1,1007.5,0.8,93,0,500,11.112,,,360,,,,,,,,,,,wg-a,,,,AAXX 23214 07280 12/00 73606 10010 20000 39796 40075 53008 60006 8707/ 92100=
07280,1996-01-24 00:00:00,0,1007.6,-0,93,-1,500,11.112,,,360,,,,,,,,,,,wg-a,,,,AAXX 24004 07280 12/00 73606 10000 21010 39796 40076 55000 60006 80001 90000=
07280,1996-01-24 03:00:00,1,1006.7,-0.9,86,-1,500,11.112,,,360,,,,,,,,,,,wg-a,,,,AAXX 24034 07280 12/00 73606 10010 21010 39787 40067 57009 60006 8707/ 90300=
07280,1996-01-24 06:00:00,1,1006.8,0.1,86,-1,4000,11.112,,,360,0.2,1.7,,,,,6,,,,wg-a,,,,AAXX 24064 07280 02/40 73606 10010 21010 39788 40068 53001 60006 81032 90600 333 10017 20002 60064=
07280,1996-01-24 09:00:00,1,1007.2,0.5,93,0,4500,11.112,,,360,,,,0,,,,,,10,wg-a,,,,AAXX 24094 07280 12/45 83606 10010 20000 39793 40072 51005 60007 71062 85072 90900=
07280,1996-01-24 12:00:00,3,1006.2,-0.8,87,1,500,18.52,,,10,,,,,,,,,,2,wg-a,,,,AAXX 24124 07280 12/00 80110 10030 20010 39785 40062 58008 60006 70262 85072 91200=
07280,1996-01-24 15:00:00,4,1005.6,-0.5,81,1,500,14.816,,,30,,,,,,,,,,,wg-a,,,,AAXX 24154 07280 12/00 70308 10040 20010 39780 40056 56005 60006 85032 91500=
07280,1996-01-24 18:00:00,2,1006.3,0.4,87,0,500,11.112,,,10,0.6,4.1,,,,,,,,,wg-a,,,,AAXX 24184 07280 32/00 40106 10020 20000 39784 40063 53004 82031 91800 333 10041 20006=
07280,1996-01-24 21:00:00,0,1006.2,-0.2,93,-1,500,14.816,,,360,,,,,,,,,,,wg-a,,,,AAXX 24214 07280 12/00 /3608 10000 21010 39782 40062 56002 60006 80000 92100=
07280,1996-01-25 00:00:00,0,1005.4,,93,-1,500,14.816,,,360,,,,,,,,,,,wg-a,,,,AAXX 25004 07280 32/00 03608 10000 21010 39775 40054 80000 90000=
07280,1996-01-25 03:00:00,0,1005.3,-0.2,86,-2,4000,14.816,,,10,,,,,,,,,,,wg-a,,,,AAXX 25034 07280 12440 80108 10000 21020 39773 40053 58002 60006 885// 90300=
07280,1996-01-25 06:00:00,0,1005.3,0,86,-2,4000,11.112,,,30,-0.6,1.5,,,,,,,,,wg-a,,,,AAXX 25064 07280 02440 80306 10000 21020 39773 40053 50000 60006 885// 90600 333 10015 21006 60004=
07280,1996-01-25 09:00:00,0,1005.9,0.6,93,-1,4000,14.816,,,30,,,,,,,,,,10,wg-a,,,,AAXX 25094 07280 02440 80308 10000 21010 39779 40059 53006 61000 71062 876// 90900 333 ////=
07280,1996-01-25 12:00:00,2,1005.3,-0.4,80,-1,500,14.816,,,30,,,,,,,,,,3,wg-a,,,,AAXX 25124 07280 02400 70308 10020 21010 39775 40053 58004 61000 70362 875// 91200 333 ////=
07280,1996-01-25 15:00:00,3,1005.2,-0,81,0,6000,7.408,,,40,,,,,,,,,,,wg-a,,,,AAXX 25154 07280 12456 /0404 10030 20000 39775 40052 54000 60006 83501 91500=
07280,1996-01-25 18:00:00,2,1006.3,0.9,80,-1,4500,14.816,,,30,-0.2,3.4,,,,,,,,10,wg-a,,,,AAXX 25184 07280 02445 70308 10020 21010 39784 40063 53009 61000 71011 875// 91800 333 10034 21002 ////=
07280,1996-01-25 21:00:00,0,1008,1.6,86,-2,4000,7.408,,,20,,,,,,,,,,10,wg-a,,,,AAXX 25214 07280 02/40 70204 10000 21020 39800 40080 52016 61000 71062 8707/ 92100 333 ////=
07280,1996-01-26 00:00:00,0,1007.8,-0.3,86,-2,3000,11.112,,,20,,,,1,,,,,,10,wg-a,,,,AAXX 26004 07280 02630 80206 10000 21020 39797 40078 58003 60016 71062 8357/ 90000 333 60017=
07280,1996-01-26 03:00:00,0,1007.9,0.1,93,-1,3000,7.408,,,10,,,,0,,,,,,10,wg-a,,,,AAXX 26034 07280 12530 80104 10000 21010 39798 40079 50001 60007 71066 8357/ 90300=
07280,1996-01-26 06:00:00,0,1007.9,-0,93,-1,3000,7.408,,,20,-0.3,1.5,,1,,,2,,,10,wg-a,,,,AAXX 26064 07280 02230 80204 10000 21010 39798 40079 54000 60024 71066 8577/ 90600 333 10015 21003 60017=
07280,1996-01-26 09:00:00,0,1008.9,1,93,-1,2000,0,,,0,,,,2,,,,,,10,wg-a,,,,AAXX 26094 07280 12220 80000 10000 21010 39808 40089 53010 60027 71066 877// 90900=
07280,1996-01-26 12:00:00,2,1008.9,0.2,93,1,2500,7.408,,,180,,,,0,,,,,,3,wg-a,,,,AAXX 26124 07280 02225 81804 10020 20010 39810 40089 50002 60036 70362 886// 91200 333 60007=
07280,1996-01-26 15:00:00,3,1008.6,-0.2,93,2,2000,3.704,,,200,,,,,,,,,,10,wg-a,,,,AAXX 26154 07280 02220 82002 10030 20020 39808 40086 55002 61000 71062 887// 91500 333 ////=
07280,1996-01-26 18:00:00,3,1009.8,1.2,93,2,1500,0,,,0,-0.2,2.9,,1,,,,,,10,wg-a,,,,AAXX 26184 07280 12315 80000 10030 20020 39820 40098 53012 60017 71065 877// 91800 333 10029 21002=
07280,1996-01-26 21:00:00,3,1010.7,0.8,93,2,1200,3.704,,,10,,,,0,,,,,,10,wg-a,,,,AAXX 26214 07280 12212 80102 10030 20020 39828 40107 51008 60007 71064 887// 92100=
07280,1996-01-27 00:00:00,2,1011.5,0.8,100,2,1100,3.704,,,30,,,,,,,,,,10,wg-a,,,,AAXX 27004 07280 02111 80302 10020 20020 39836 40115 51008 60006 71064 887// 90000 333 61000=
07280,1996-01-27 03:00:00,2,1011.9,0.4,100,2,400,3.704,,,360,,,,,,,,,,45,wg-a,,,,AAXX 27034 07280 12/04 93602 10020 20020 39840 40119 51004 60006 74542 89/// 90300=
07280,1996-01-27 06:00:00,2,1012.4,0.5,100,2,300,3.704,,,20,2.3,2.8,,,,,3,,,43,wg-a,,,,AAXX 27064 07280 12/03 90202 10020 20020 39845 40124 53005 60034 74342 89/// 90600 333 10028 20023=
07280,1996-01-27 09:00:00,3,1014.2,1.8,100,3,500,7.408,,,20,,,,,,,,,,44,wg-a,,,,AAXX 27094 07280 12205 80204 10030 20030 39863 40142 51018 60006 74444 887// 90900=
07280,1996-01-27 12:00:00,5,1014.6,0.5,93,4,800,3.704,,,130,,,,,,,,,,42,wg-a,,,,AAXX 27124 07280 12208 81302 10050 20040 39868 40146 50005 60006 74242 887// 91200=
07280,1996-01-27 15:00:00,6,1014.2,-0.2,93,5,3500,7.408,,,320,,,,,,,,,,10,wg-a,,,,AAXX 27154 07280 12335 /3204 10060 20050 39866 40142 55002 60006 71042 877// 91500=
07280,1996-01-27 18:00:00,4,1015.4,0.9,93,3,3000,11.112,,,360,2.4,5.9,,,,,,,,10,wg-a,,,,AAXX 27184 07280 12/30 03606 10040 20030 39875 40154 53009 60006 71041 80000 91800 333 10059 20024=
07280,1996-01-27 21:00:00,2,1016.9,1.3,93,1,6000,11.112,,,10,,,,,,,,,,,wg-a,,,,AAXX 27214 07280 12/56 00106 10020 20010 39888 40169 51013 60006 80000 92100=
07280,1996-01-28 00:00:00,0,1017,-0.1,100,0,4000,14.816,,,360,,,,,,,,,,,wg-a,,,,AAXX 28004 07280 12240 43608 10000 20000 39887 40170 58001 60006 84600 90000=
07280,1996-01-28 03:00:00,1,1017.3,0.3,93,0,4000,14.816,,,30,,,,,,,,,,,wg-a,,,,AAXX 28034 07280 12240 70308 10010 20000 39890 40173 53003 60006 876// 90300=
07280,1996-01-28 06:00:00,0,1016.7,-0.6,93,-1,7000,18.52,,,30,0.2,3.9,,,,,,,,,wg-a,,,,AAXX 28064 07280 12257 80310 10000 21010 39884 40167 56006 60006 886// 90600 333 10039 20002=
07280,1996-01-28 09:00:00,1,1016.2,-0.4,86,-1,3500,18.52,,,50,,,,,,,,,,,wg-a,,,,AAXX 28094 07280 12235 80510 10010 21010 39880 40162 57004 60006 886// 90900=
07280,1996-01-28 12:00:00,2,1014.7,-1.4,87,0,6000,25.928,,,40,,,,,,,,,,,wg-a,,,,AAXX 28124 07280 12456 80414 10020 20000 39866 40147 58014 60006 875// 91200=
07280,1996-01-28 15:00:00,3,1013.4,-1.1,81,0,6000,18.52,,,40,,,,,,,,,,,wg-a,,,,AAXX 28154 07280 12456 70410 10030 20000 39855 40134 56011 60006 8453/ 91500=
07280,1996-01-28 18:00:00,1,1013.4,-0.2,86,-1,6000,18.52,,,40,0.2,2.9,,,,,,,,,wg-a,,,,AAXX 28184 07280 12456 80410 10010 21010 39853 40134 58002 60006 8357/ 91800 333 10029 20002=
07280,1996-01-29 00:00:00,0,1013,-0.8,93,-1,3500,25.928,,,10,,,,1,,,,,,10,wg-a,,,,AAXX 29004 07280 02435 80114 10000 21010 39848 40130 58008 60016 71066 885// 90000 333 60017=
07280,1996-01-29 03:00:00,0,1013.3,0.3,93,-1,500,11.112,,,30,,,,,,,,,,21,wg-a,,,,AAXX 29034 07280 02700 80306 10000 21010 39851 40133 53003 61000 72162 875// 90300 333 ////=
07280,1996-01-29 06:00:00,0,1013.4,0.1,86,-2,6000,14.816,,,20,0,1.2,,,,,1,,,3,wg-a,,,,AAXX 29064 07280 12756 80208 10000 21020 39852 40134 51001 60014 70362 875// 90600 333 10012 20000=
07280,1996-01-29 09:00:00,1,1014.5,1.1,80,-2,3500,14.816,,,20,,,,,,,,,,,wg-a,,,,AAXX 29094 07280 12835 /0208 10010 21020 39863 40145 51011 60006 85030 90900=
07280,1996-01-29 12:00:00,3,1014.6,0.3,75,-1,6000,11.112,,,20,,,,,,,,,,,wg-a,,,,AAXX 29124 07280 12756 /0206 10030 21010 39866 40146 50003 60006 82530 91200=
07280,1996-01-29 15:00:00,5,1014.2,-0.1,70,0,7000,14.816,,,50,,,,,,,,,,,wg-a,,,,AAXX 29154 07280 12/57 40508 10050 20000 39865 40142 55001 60006 83031 91500=
07280,1996-01-29 18:00:00,1,1015.7,1.1,80,-2,500,14.816,,,20,0,5.5,,,,,,,,,wg-a,,,,AAXX 29184 07280 12/00 /0208 10010 21020 39876 40157 51011 60006 81030 91800 333 10055 20000=
07280,1996-01-29 21:00:00,0,1016.8,0.8,80,-3,6000,18.52,,,10,,,,,,,,,,,wg-a,,,,AAXX 29214 07280 12/56 00110 10000 21030 39884 40168 51008 60006 80000 92100=
07280,1996-01-30 00:00:00,-1,1017.9,1,86,-3,500,14.816,,,360,,,,,,,,,,,wg-a,,,,AAXX 30004 07280 12/00 03608 11010 21030 39894 40179 51010 60006 80000 90000=
07280,1996-01-30 03:00:00,-2,1018.2,0.2,86,-4,500,18.52,,,360,,,,,,,,,,,wg-a,,,,AAXX 30034 07280 12/00 03610 11020 21040 39896 40182 50002 60006 80000 90300=
07280,1996-01-30 06:00:00,-3,1019.1,0.8,93,-4,500,22.224,,,360,-2.9,1.4,,,,,,,,,wg-a,,,,AAXX 30064 07280 12/00 03612 11030 21040 39904 40191 53008 60006 80000 90600 333 10014 21029=
07280,1996-01-30 09:00:00,-2,1020.2,1.2,86,-4,4000,18.52,,,10,,,,,,,,,,,wg-a,,,,AAXX 30094 07280 12/40 00110 11020 21040 39916 40202 51012 60006 80000 90900=
07280,1996-01-30 12:00:00,1,1020.4,0.5,80,-2,500,14.816,,,40,,,,,,,,,,,wg-a,,,,AAXX 30124 07280 12400 70408 10010 21020 39921 40204 50005 60006 875// 91200=
07280,1996-01-30 15:00:00,2,1020,-0.3,75,-2,8000,18.52,,,40,,,,,,,,,,,wg-a,,,,AAXX 30154 07280 12558 /0410 10020 21020 39918 40200 55003 60006 81100 91500=
07280,1996-01-30 18:00:00,0,1020.8,0.5,80,-3,7000,14.816,,,40,-3.1,2.4,,,,,,,,,wg-a,,,,AAXX 30184 07280 12/57 00408 10000 21030 39923 40208 53005 60006 80000 91800 333 10024 21031=
07280,1996-01-30 21:00:00,-2,1020.8,-0.1,86,-4,7000,14.816,,,360,,,,,,,,,,,wg-a,,,,AAXX 30214 07280 12/57 03608 11020 21040 39922 40208 58001 60006 80000 92100=
07280,1996-01-31 00:00:00,-2,1020.5,-0.4,86,-4,6000,14.816,,,10,,,,,,,,,,,wg-a,,,,AAXX 31004 07280 12/56 00108 11020 21040 39918 40205 56004 60006 80000 90000=
07280,1996-01-31 03:00:00,-3,1020.6,-0,86,-5,500,14.816,,,10,,,,,,,,,,,wg-a,,,,AAXX 31034 07280 12/00 00108 11030 21050 39918 40206 55000 60006 80000 90300=
07280,1996-01-31 06:00:00,-3,1020.5,-0,86,-5,500,18.52,,,10,-4.2,-0.5,,,,,,,,,wg-a,,,,AAXX 31064 07280 12400 80110 11030 21050 39918 40205 54000 60006 885// 90600 333 11005 21042=
07280,1996-01-31 09:00:00,-2,1020.8,0.3,80,-5,6000,14.816,,,20,,,,,,,,,,,wg-a,,,,AAXX 31094 07280 12/56 00208 11020 21050 39921 40208 51003 60006 80000 90900=
07280,1996-01-31 12:00:00,1,1018.7,-1.6,64,-5,10000,18.52,,,20,,,,,,,,,,,wg-a,,,,AAXX 31124 07280 12/60 00210 10010 21050 39905 40187 58016 60006 80000 91200=
07280,1996-01-31 15:00:00,2,1018.1,-0.5,51,-7,12000,22.224,,,70,,,,,,,,,,,wg-a,,,,AAXX 31154 07280 12662 30712 10020 21070 39900 40181 55005 60006 83501 91500=
07280,1996-01-31 18:00:00,1,1018.8,0.6,69,-4,10000,11.112,,,80,-3.9,2.9,,,,,,,,,wg-a,,,,AAXX 31184 07280 12560 80806 10010 21040 39906 40188 53006 60006 885// 91800 333 10029 21039=
07280,1996-01-31 21:00:00,1,1019.9,1,69,-4,10000,3.704,,,50,,,,,,,,,,,wg-a,,,,AAXX 31214 07280 12560 80502 10010 21040 39916 40199 52010 60006 885// 92100=
07280,1996-02-01 00:00:00,0,1019.8,-0.2,69,-5,10000,7.408,,,30,,,,,,,,,,,wg-a,,,,AAXX 01004 07280 12560 80304 10000 21050 39914 40198 55002 60006 885// 90000=
07280,1996-02-01 03:00:00,0,1019.6,-0.2,74,-4,8000,7.408,,,40,,,,,,,,,,,wg-a,,,,AAXX 01034 07280 12458 80404 10000 21040 39912 40196 58002 60006 885// 90300=
07280,1996-02-01 06:00:00,-1,1020.1,0.4,80,-4,7000,7.408,,25.928,50,-0.5,1.5,,,,,,,,,wg-a,,,,AAXX 01064 07280 12557 80504 11010 21040 39916 40201 53004 60006 885// 90600 333 10015 21005 91014=
07280,1996-02-01 09:00:00,0,1020,0,74,-4,9000,11.112,,,30,,,,,,,,,,,wg-a,,,,AAXX 01094 07280 12759 /0306 10000 21040 39916 40200 50000 60006 81531 90900=
07280,1996-02-01 12:00:00,3,1019.2,-0.4,75,-1,9000,7.408,,,30,,,,,,,,,,,wg-a,,,,AAXX 01124 07280 12/59 70304 10030 21010 39912 40192 58004 60006 87030 91200=
07280,1996-02-01 15:00:00,6,1016.1,-2.8,65,0,12000,14.816,,,50,,,,,,,,,,,wg-a,,,,AAXX 01154 07280 12762 60508 10060 20000 39884 40161 58028 60006 82530 91500=
07280,1996-02-01 18:00:00,4,1016.8,0.5,87,2,11000,7.408,,,190,-1.9,5.7,,1,,,,,,61,wg-a,,,,AAXX 01184 07280 12761 81904 10040 20020 39889 40168 53005 60017 76161 8457/ 91800 333 10057 21019=
07280,1996-02-01 21:00:00,3,1016,-0.8,100,3,7000,7.408,,,10,,,,5,,,,,,60,wg-a,,,,AAXX 01214 07280 12757 80104 10030 20030 39881 40160 56008 60057 76062 8657/ 92100=
07280,1996-02-02 00:00:00,3,1014.9,-1.2,93,2,7000,7.408,,,10,,,,4,,,,,,61,wg-a,,,,AAXX 02004 07280 02757 80104 10030 20020 39869 40149 56012 60086 76162 885// 90000 333 60047=
07280,1996-02-02 03:00:00,2,1012.9,-2,93,1,8000,11.112,,,330,,,,2,,,,,,60,wg-a,,,,AAXX 02034 07280 12758 83306 10020 20010 39849 40129 57020 60027 76062 885// 90300=
07280,1996-02-02 06:00:00,2,1012.3,-0.5,93,1,6000,11.112,,,360,2,4.4,,3,,,14,,,61,wg-a,,,,AAXX 02064 07280 02756 83606 10020 20010 39844 40123 58005 60144 76162 885// 90600 333 10044 20020 60037=
07280,1996-02-02 09:00:00,2,1012.4,-0,100,2,2000,3.704,,,30,,,,5,,,,,,60,wg-a,,,,AAXX 02094 07280 12220 80302 10020 20020 39844 40124 55000 60057 76062 887// 90900=
07280,1996-02-02 12:00:00,3,1011.5,-0.7,93,2,3000,7.408,,,180,,,,1,,,,,,10,wg-a,,,,AAXX 02124 07280 02330 81804 10030 20020 39837 40115 58007 60056 71062 885// 91200 333 60017=
07280,1996-02-02 15:00:00,4,1010,-1.4,93,3,4000,7.408,,,170,,,,,,,,,,1,wg-a,,,,AAXX 02154 07280 02340 81704 10040 20030 39823 40100 56014 61000 70162 885// 91500 333 ////=
07280,1996-02-02 18:00:00,4,1010.7,0.7,93,3,500,3.704,,,210,2.1,4.4,,,,,,,,3,wg-a,,,,AAXX 02184 07280 32400 82102 10040 20030 39830 40107 53007 70362 885// 91800 333 10044 20021=
07280,1996-02-02 21:00:00,4,1011.7,0.9,93,3,3000,3.704,,,180,,,,,,,,,,10,wg-a,,,,AAXX 02214 07280 12530 81802 10040 20030 39839 40117 51009 60006 71022 875// 92100=
07280,1996-02-03 00:00:00,4,1012.6,0.9,93,3,500,14.816,,,330,,,,,,,,,,,wg-a,,,,AAXX 03004 07280 12500 83308 10040 20030 39848 40126 52009 60006 885// 90000=
07280,1996-02-03 03:00:00,3,1013,0.3,87,1,6000,11.112,,,330,,,,,,,,,,,wg-a,,,,AAXX 03034 07280 12456 73306 10030 20010 39851 40130 51003 60006 875// 90300=
07280,1996-02-03 06:00:00,3,1014.2,1.1,81,0,12000,7.408,,,360,2.5,4.1,,,,,5,,,,wg-a,,,,AAXX 03064 07280 02562 83604 10030 20000 39862 40142 52011 60006 885// 90600 333 10041 20025 60054=
07280,1996-02-03 09:00:00,3,1015.2,1,81,0,12000,11.112,,,360,,,,,,,,,,,wg-a,,,,AAXX 03094 07280 12562 83606 10030 20000 39872 40152 52010 60006 885// 90900=
07280,1996-02-03 12:00:00,3,1015.1,0,75,-1,18000,7.408,,,40,,,,,,,,,,,wg-a,,,,AAXX 03124 07280 12568 80404 10030 21010 39872 40151 50000 60006 885// 91200=
07280,1996-02-03 15:00:00,4,1014.2,-0.9,75,0,18000,7.408,,,30,,,,,,,,,,,wg-a,,,,AAXX 03154 07280 12568 80304 10040 20000 39863 40142 56009 60006 885// 91500=
07280,1996-02-03 18:00:00,3,1014.7,0.4,81,0,15000,0,,,0,2.5,3.7,,,,,,,,,wg-a,,,,AAXX 03184 07280 12565 80000 10030 20000 39867 40147 53004 60006 885// 91800 333 10037 20025=
07280,1996-02-03 21:00:00,2,1014.7,0,93,1,8000,14.816,,,20,,,,,,,,,,1,wg-a,,,,AAXX 03214 07280 02458 80208 10020 20010 39867 40147 50000 61000 70162 885// 92100 333 ////=
07280,1996-02-04 00:00:00,2,1014.9,0.2,93,1,8000,11.112,,,10,,,,,,,,,,1,wg-a,,,,AAXX 04004 07280 02458 80106 10020 20010 39869 40149 52002 61000 70162 875// 90000 333 6100=
07280,1996-02-04 03:00:00,1,1014.1,-0.9,86,-1,8000,11.112,,,20,,,,,,,,,,,wg-a,,,,AAXX 04034 07280 12558 80206 10010 21010 39860 40141 56009 60006 885// 90300=
07280,1996-02-04 06:00:00,1,1014.2,0,80,-2,8000,18.52,,,20,0.6,2.9,,,,,,,,77,wg-a,,,,AAXX 04064 07280 02258 80210 10010 21020 39860 40142 50000 61000 77772 885// 90600 333 10029 20006 6100=
07280,1996-02-04 09:00:00,-1,1015.3,1,74,-5,15000,25.928,,,20,,,,,,,,,,1,wg-a,,,,AAXX 04094 07280 02765 30214 11010 21050 39870 40153 52010 61000 70172 83500 90900 333 ////=
07280,1996-02-04 12:00:00,2,1014.9,-0.2,60,-5,18000,25.928,,,10,,,,,,,,,,1,wg-a,,,,AAXX 04124 07280 12568 /0114 10020 21050 39868 40149 58002 60006 70171 81800 91200=
07280,1996-02-04 15:00:00,0,1015.1,-0,64,-6,18000,22.224,,,30,,,,,,,,,,,wg-a,,,,AAXX 04154 07280 12568 70312 10000 21060 39868 40151 55000 60006 874// 91500=
07280,1996-02-04 18:00:00,-1,1016.2,1,69,-6,15000,25.928,,,10,-1.3,1.8,,,,,,,,20,wg-a,,,,AAXX 04184 07280 02565 80114 11010 21060 39878 40162 51010 61000 72011 888// 91800 333 10018 21013 ////=
07280,1996-02-04 21:00:00,-1,1017,0.7,69,-6,12000,18.52,,,10,,,,,,,,,,,wg-a,,,,AAXX 04214 07280 12662 80110 11010 21060 39885 40170 50007 60006 885// 92100=
07280,1996-02-05 00:00:00,-2,1016.7,-0.3,69,-7,12000,18.52,,,10,,,,,,,,,,,wg-a,,,,AAXX 05004 07280 12662 80110 11020 21070 39882 40167 58003 60006 885// 90000=
07280,1996-02-05 03:00:00,-2,1016.3,-0.4,69,-7,11000,14.816,,,360,,,,,,,,,,,wg-a,,,,AAXX 05034 07280 12661 83608 11020 21070 39878 40163 58004 60006 885// 90300=
07280,1996-02-05 06:00:00,-2,1016.1,-0.2,69,-7,12000,18.52,,,10,-2.2,-1.3,,,,,,,,,wg-a,,,,AAXX 05064 07280 02562 80110 11020 21070 39876 40161 58002 60006 885// 90600 333 11013 21022 60004=
07280,1996-02-05 09:00:00,-2,1015.9,-0.2,69,-7,12000,18.52,,,40,,,,,,,,,,,wg-a,,,,AAXX 05094 07280 12562 80410 11020 21070 39874 40159 56002 60006 8557/ 90900=
07280,1996-02-05 12:00:00,-1,1014.5,-1.2,64,-7,15000,14.816,,,10,,,,,,,,,,,wg-a,,,,AAXX 05124 07280 12565 30108 11010 21070 39862 40145 58012 60006 83500 91200=
07280,1996-02-05 15:00:00,-1,1012.3,-2.2,59,-8,15000,7.408,,,40,,,,,,,,,,,wg-a,,,,AAXX 05154 07280 12665 80404 11010 21080 39840 40123 56022 60006 875// 91500=
07280,1996-02-05 18:00:00,-2,1010.6,-1.8,63,-8,12000,7.408,,,70,-2.3,-0.5,,,,,,,,,wg-a,,,,AAXX 05184 07280 12662 20704 11020 21080 39822 40106 58018 60006 82500 91800 333 11005 21023=
07280,1996-02-05 21:00:00,-5,1007.2,-3.6,79,-8,12000,11.112,,,80,,,,,,,,,,,wg-a,,,,AAXX 05214 07280 12/62 00806 11050 21080 39786 40072 58036 60006 80000 92100=
07280,1996-02-06 00:00:00,-6,1003.1,-4.1,86,-8,10000,3.704,,,330,,,,,,,,,,,wg-a,,,,AAXX 06004 07280 12/60 03302 11060 21080 39745 40031 56041 60006 80000 90000=
07280,1996-02-06 03:00:00,-7,999.7,-3.4,93,-8,8000,3.704,,,360,,,,,,,,,,,wg-a,,,,AAXX 06034 07280 12/58 03602 11070 21080 39711 49997 56034 60006 80000 90300=
07280,1996-02-06 06:00:00,-8,996.5,-3.2,85,-10,6000,3.704,,,30,-8.3,-2.2,,,,,,,,,wg-a,,,,AAXX 06064 07280 12456 /0302 11080 21100 39679 49965 56032 60006 83501 90600 333 11022 21083=
07280,1996-02-06 09:00:00,-6,994.9,-1.3,86,-8,7000,7.408,,,30,,,,,,,,,,,wg-a,,,,AAXX 06094 07280 12757 70304 11060 21080 39666 49949 56013 60006 85572 90900=
07280,1996-02-06 12:00:00,-3,993.8,-0.7,80,-6,7000,7.408,,,30,,,,,,,,,,,wg-a,,,,AAXX 06124 07280 12457 80304 11030 21060 39659 49938 58007 60006 875// 91200=
07280,1996-02-06 15:00:00,0,994.5,0.9,80,-3,500,3.704,,,330,,,,,,,,,,71,wg-a,,,,AAXX 06154 07280 02400 83302 10000 21030 39668 49945 53009 61000 77122 885// 91500 333 ////=
07280,1996-02-06 18:00:00,-1,997.2,2.5,93,-2,2000,0,,,0,-8.3,-0.3,,,,,,,,71,wg-a,,1,,AAXX 06184 07280 02320 80000 11010 21020 39693 49972 53025 61000 77172 876// 91800 333 11003 21083 4/001 ////=
07280,1996-02-06 21:00:00,-1,999.7,2.5,93,-2,2000,0,,,0,,,,0,,,,,,10,wg-a,,,,AAXX 06214 07280 12320 80000 11010 21020 39718 49997 53025 60007 71077 886// 92100=
07280,1996-02-07 00:00:00,0,1001.7,2,86,-2,7000,18.52,,,280,,,,0,,,,,,1,wg-a,,,,AAXX 07004 07280 02457 82810 10000 21020 39738 40017 51020 60016 70172 875// 90000 333 60007=
07280,1996-02-07 03:00:00,-1,1002.4,0.6,100,-1,500,3.704,,,200,,,,,,,,,,70,wg-a,,,,AAXX 07034 07280 02300 82002 11010 21010 39744 40024 50006 61000 77072 886// 90300 333 ////=
07280,1996-02-07 06:00:00,0,1002,-0.3,93,-1,500,7.408,,,210,-1.2,0.1,,,,,1,,,70,wg-a,,2,,AAXX 07064 07280 02400 82104 10000 21010 39741 40020 58003 60014 77075 875// 90600 333 10001 21012 4/002 61000=
07280,1996-02-07 09:00:00,0,1000,-1.9,93,-1,9000,18.52,,,210,,,,,,,,,,3,wg-a,,,,AAXX 07094 07280 02659 82110 10000 21010 39722 40000 58019 61000 70372 885// 90900 333 ////=
07280,1996-02-07 12:00:00,2,996.4,-3.3,87,0,12000,18.52,,,200,,,,,,,,,,1,wg-a,,,,AAXX 07124 07280 02462 72010 10020 20000 39689 49964 58033 61000 70172 878// 91200 333 ////=
07280,1996-02-07 15:00:00,2,992,-4.3,87,0,15000,11.112,,,150,,,,,,,,,,,wg-a,,,,AAXX 07154 07280 12565 81506 10020 20000 39646 49920 56043 60006 8387/ 91500=
07280,1996-02-07 18:00:00,0,990.7,-1.5,100,0,900,14.816,,,140,-0.4,3,,0,,,,,,73,wg-a,,3,,AAXX 07184 07280 12409 81408 10000 20000 39631 49907 58015 60007 77374 886// 91800 333 10030 21004 4/003=
07280,1996-02-07 21:00:00,0,990,-0.6,100,0,2000,7.408,,,130,,,,1,,,,,,10,wg-a,,,,AAXX 07214 07280 12320 81304 10000 20000 39625 49900 56006 60017 71077 886// 92100=
07280,1996-02-08 00:00:00,0,992.4,2.3,100,0,2500,3.704,,,80,,,,1,,,,,,10,wg-a,,,,AAXX 08004 07280 02225 80802 10000 20000 39648 49924 53023 60046 71077 886// 90000 333 60017=
07280,1996-02-08 03:00:00,0,997.5,5,100,0,4000,11.112,,,360,,,,1,,,,,,10,wg-a,,,,AAXX 08034 07280 12240 83606 10000 20000 39698 49975 53050 60017 71077 886// 90300=
07280,1996-02-08 06:00:00,0,1004.1,6.4,93,-1,10000,25.928,,,320,0.1,0.9,,0,,,8,,,22,wg-a,,6,,AAXX 08064 07280 02460 83214 10000 21010 39762 40041 51064 60084 72272 875// 90600 333 10009 20001 4/006 60007=
07280,1996-02-08 09:00:00,0,1010,5.7,86,-2,4000,22.224,,,310,,,,,,,,,,10,wg-a,,,,AAXX 08094 07280 02240 83112 10000 21020 39819 40100 51057 61000 71072 875// 90900 333 ////=
07280,1996-02-08 12:00:00,1,1013.3,3.3,86,-1,2500,7.408,,,300,,,,,,,,,,10,wg-a,,,,AAXX 08124 07280 02325 83004 10010 21010 39852 40133 51033 61000 71072 875// 91200 333 6100=
07280,1996-02-08 15:00:00,1,1016.4,3,80,-2,500,18.52,,,320,,,,,,,,,,71,wg-a,,,,AAXX 08154 07280 02300 83210 10010 21020 39882 40164 53030 61000 77177 8557/ 91500 333 ////=
07280,1996-02-08 18:00:00,1,1020.1,3.6,80,-2,8000,14.816,,,320,,1.3,,,,,,,,1,wg-a,,3,,AAXX 08184 07280 02658 83208 10010 21020 39918 40201 51036 61000 70172 8457/ 91800 333 10013 4/003 ////=
07280,1996-02-08 21:00:00,0,1023,2.7,80,-3,9000,7.408,,,280,,,,,,,,,,,wg-a,,,,AAXX 08214 07280 12659 82804 10000 21030 39945 40230 51027 60006 885// 92100=
07280,1996-02-09 00:00:00,-1,1023.9,0.8,93,-2,6000,7.408,,,240,,,,,,,,,,,wg-a,,,,AAXX 09004 07280 12556 82404 11010 21020 39953 40239 51008 60006 885// 90000=
07280,1996-02-09 03:00:00,-2,1023.5,-0.5,93,-3,3000,7.408,,,150,,,,,,,,,,10,wg-a,,,,AAXX 09034 07280 12630 71504 11020 21030 39948 40235 57005 60006 71022 875// 90300=
07280,1996-02-09 06:00:00,-6,1023.5,-0.4,100,-6,300,3.704,,,280,-6,0.7,,,,,,,,48,wg-a,,3,,AAXX 09064 07280 02103 72802 11060 21060 39944 40235 55004 60006 74841 875// 90600 333 10007 21060 4/003 61000=
07280,1996-02-09 09:00:00,-4,1022.6,-0.7,93,-5,100,7.408,,,30,,,,,,,,,,49,wg-a,,,,AAXX 09094 07280 12/01 90304 11040 21050 39937 40226 58007 60006 74941 89/// 90900=
07280,1996-02-09 12:00:00,-2,1020.4,-1.9,93,-3,1800,7.408,,,40,,,,,,,,,,10,wg-a,,,,AAXX 09124 07280 12118 /0404 11020 21030 39918 40204 58019 60006 71042 82602 91200=
07280,1996-02-09 15:00:00,0,1017.6,-2.5,80,-3,8000,11.112,,,20,,,,,,,,,,,wg-a,,,,AAXX 09154 07280 12/58 80206 10000 21030 39893 40176 56025 60006 80007 91500=
07280,1996-02-09 18:00:00,-1,1016.6,-1.1,86,-3,6000,0,,,0,-5.8,0.2,,,,,,,,,wg-a,,3,,AAXX 09184 07280 12/56 70000 11010 21030 39882 40166 56011 60006 8702/ 91800 333 10002 21058 4/003=
07280,1996-02-09 21:00:00,-1,1015.2,-1.4,93,-2,6000,3.704,,,140,,,,,,,,,,,wg-a,,,,AAXX 09214 07280 12756 81402 11010 21020 39868 40152 58014 60006 8252/ 92100=
07280,1996-02-10 00:00:00,-2,1015.1,-0.1,100,-2,6000,3.704,,,180,,,,,,,,,,,wg-a,,,,AAXX 10004 07280 12756 81802 11020 21020 39867 40151 56001 60006 8557/ 90000=
07280,1996-02-10 03:00:00,-1,1015,-0,93,-2,4000,14.816,,,200,,,,1,,,,,,10,wg-a,,,,AAXX 10034 07280 12340 82008 11010 21020 39867 40150 54000 60017 71072 875// 90300=
07280,1996-02-10 06:00:00,0,1015.5,0.5,93,-1,6000,22.224,,,200,-2,0.1,,0,,,1,,,22,wg-a,,3,,AAXX 10064 07280 02556 72012 10000 21010 39872 40155 52005 60014 72272 875// 90600 333 10001 21020 4/003 60007=
07280,1996-02-10 09:00:00,1,1016.4,1,93,0,7000,25.928,,,210,,,,,,,,,,,wg-a,,,,AAXX 10094 07280 12257 72114 10010 20000 39882 40164 51010 60006 878// 90900=
07280,1996-02-10 12:00:00,7,1015.4,-0.4,76,3,15000,18.52,,,200,,,,,,,,,,,wg-a,,,,AAXX 10124 07280 12465 22010 10070 20030 39878 40154 58004 60006 82100 91200=
07280,1996-02-10 15:00:00,9,1014,-1.1,66,3,25000,25.928,,,230,,,,,,,,,,,wg-a,,,,AAXX 10154 07280 12575 42314 10090 20030 39867 40140 56011 60006 84200 91500=
07280,1996-02-10 18:00:00,6,1014.8,0.5,75,2,20000,14.816,,,200,0,8.9,,,,,,,,,wg-a,,,,AAXX 10184 07280 12670 72008 10060 20020 39872 40148 53005 60006 875// 91800 333 10089 20000=
07280,1996-02-10 21:00:00,5,1015.4,0.4,81,2,15000,14.816,,,200,,,,,,,,,,,wg-a,,,,AAXX 10214 07280 12665 72008 10050 20020 39876 40154 51004 60006 875// 92100=
07280,1996-02-11 00:00:00,3,1015.7,0.2,93,2,15000,14.816,,,200,,,,,,,,,,,wg-a,,,,AAXX 11004 07280 12665 /2008 10030 20020 39878 40157 52002 60006 85500 90000=
07280,1996-02-11 03:00:00,3,1015.4,-0.4,87,1,15000,14.816,,,210,,,,,,,,,,,wg-a,,,,AAXX 11034 07280 12565 72108 10030 20010 39874 40154 58004 60006 8257/ 90300=
07280,1996-02-11 06:00:00,3,1016,0.6,93,2,15000,14.816,,,190,2.3,6.2,,,,,,,,25,wg-a,,,,AAXX 11064 07280 02465 /1908 10030 20020 39880 40160 51006 61000 72582 83570 90600 333 10062 20023 6100=
07280,1996-02-11 09:00:00,5,1016.9,1.1,87,3,500,22.224,,,210,,,,,,,,,,,wg-a,,,,AAXX 11094 07280 12500 32112 10050 20030 39891 40169 51011 60006 83800 90900=
07280,1996-02-11 12:00:00,7,1016.4,-0.3,76,3,25000,14.816,,,260,,,,,,,,,,3,wg-a,,,,AAXX 11124 07280 02575 /2608 10070 20030 39888 40164 58003 61000 70361 86200 91200 333 6100=
07280,1996-02-11 15:00:00,5,1016.3,-0.3,87,3,12000,22.224,,,240,,,,1,,,,,,80,wg-a,,,,AAXX 11154 07280 12562 /2412 10050 20030 39885 40163 56003 60017 78086 85200 91500=
07280,1996-02-11 18:00:00,3,1017.2,0.7,93,2,25000,14.816,,,220,1.7,8.5,,,,,,,,1,wg-a,,,,AAXX 11184 07280 02775 12208 10030 20020 39892 40172 53007 61000 70181 815/0 91800 333 10085 20017 ////=
07280,1996-02-11 21:00:00,2,1018,0.7,100,2,20000,11.112,,,190,,,,,,,,,,,wg-a,,,,AAXX 11214 07280 12670 81906 10020 20020 39899 40180 51007 60006 84501 92100=
07280,1996-02-12 00:00:00,2,1017.6,-0.5,93,1,20000,7.408,,,200,,,,,,,,,,,wg-a,,,,AAXX 12004 07280 12/70 42004 10020 20010 39894 40176 58005 60006 81031 90000=
07280,1996-02-12 03:00:00,2,1016,-1.4,100,2,9000,18.52,,,210,,,,,,,,,,,wg-a,,,,AAXX 12034 07280 12459 82110 10020 20020 39880 40160 58014 60006 8553/ 90300=
07280,1996-02-12 06:00:00,3,1012.7,-3.2,93,2,8000,22.224,,,180,1.3,3.1,,,,,1,,,61,wg-a,,,,AAXX 12064 07280 02258 81812 10030 20020 39848 40127 58032 60014 76161 875// 90600 333 10031 20013 61000=
07280,1996-02-12 09:00:00,4,1008.6,-3.9,93,3,6000,31.484,,,180,,,,1,,,,,,61,wg-a,,,,AAXX 12094 07280 12356 81817 10040 20030 39809 40086 58039 60017 76162 885// 90900=
07280,1996-02-12 12:00:00,5,1001.7,-6.6,87,3,8000,42.596,,57.412,180,,,,2,,,,,,61,wg-a,,,,AAXX 12124 07280 02458 81823 10050 20030 39743 40017 58066 60046 76162 888// 91200 333 60027 91031=
07280,1996-02-12 15:00:00,1,1000.5,-1.6,93,0,3500,11.112,,,150,,,,9,,,,,,61,wg-a,,,,AAXX 12154 07280 12335 81506 10010 20000 39727 40005 56016 60097 76187 885// 91500=
07280,1996-02-12 18:00:00,2,998.5,-1.8,93,1,500,22.224,,,170,0.8,5.5,,2,,,,,,1,wg-a,,0,,AAXX 12184 07280 12400 41712 10020 20010 39709 49985 55018 60027 70187 83832 91800 333 10055 20008 4/9999=
07280,1996-02-12 21:00:00,4,995.6,-2.6,87,2,20000,35.188,,,190,,,,,,,,,,60,wg-a,,,,AAXX 12214 07280 02670 71919 10040 20020 39683 49956 58026 61000 76061 85502 92100 333 ////=
07280,1996-02-13 00:00:00,3,997.5,1.7,87,1,7000,38.892,,75.932,270,,,,2,,,,,,81,wg-a,,,,AAXX 13004 07280 02557 82721 10030 20010 39700 49975 53017 60026 78186 888// 90000 333 60027 91041=
07280,1996-02-13 03:00:00,3,1000.8,3.3,81,0,15000,18.52,,,270,,,,1,,,,,,1,wg-a,,,,AAXX 13034 07280 12565 /2710 10030 20000 39733 40008 52033 60017 70182 86800 90300=
07280,1996-02-13 06:00:00,3,1001.7,0.8,87,1,10000,14.816,,,230,1.8,5.5,,1,,,19,,,61,wg-a,,,,AAXX 13064 07280 02360 82308 10030 20010 39741 40017 53008 60194 76182 878// 90600 333 10055 20018 60017=
07280,1996-02-13 09:00:00,3,1004.1,2.3,87,1,500,18.52,,,310,,,,1,,,,,,61,wg-a,,,,AAXX 13094 07280 12300 83110 10030 20010 39764 40041 53023 60017 76166 885// 90900=
07280,1996-02-13 12:00:00,4,1005.5,1.5,81,1,500,14.816,,,260,,,,0,,,,,,80,wg-a,,,,AAXX 13124 07280 02500 82608 10040 20010 39779 40055 51015 60016 78086 882// 91200 333 60007=
07280,1996-02-13 15:00:00,3,1007,1.4,93,2,15000,14.816,,,270,,,,1,,,,,,61,wg-a,,,,AAXX 13154 07280 12465 82708 10030 20020 39793 40070 52014 60017 76166 8557/ 91500=
07280,1996-02-13 18:00:00,3,1009.2,2.1,87,1,10000,11.112,,,280,2.3,4,,0,,,,,,61,wg-a,,,,AAXX 13184 07280 12460 82806 10030 20010 39814 40092 53021 60007 76186 885// 91800 333 10040 20023=
07280,1996-02-13 21:00:00,2,1011.7,2.3,87,0,8000,22.224,,,310,,,,0,,,,,,61,wg-a,,,,AAXX 13214 07280 12458 83112 10020 20000 39837 40117 53023 60007 76166 8357/ 92100=
07280,1996-02-14 00:00:00,1,1013.8,2,93,0,7000,22.224,,,320,,,,,,,,,,51,wg-a,,,,AAXX 14004 07280 02257 83212 10010 20000 39857 40138 51020 60006 75165 877// 90000 333 61000=
07280,1996-02-14 03:00:00,1,1015.8,1.9,86,-1,8000,22.224,,,330,,,,,,,,,,1,wg-a,,,,AAXX 14034 07280 02458 83312 10010 21010 39876 40158 53019 61000 70172 877// 90300 333 ////=
07280,1996-02-14 06:00:00,1,1018.2,2.4,86,-1,8000,22.224,,,350,0.9,2.7,,,,,2,,,71,wg-a,,,,AAXX 14064 07280 02458 83512 10010 21010 39900 40182 51024 60024 77172 875// 90600 333 10027 20009 61000=
07280,1996-02-14 09:00:00,1,1021.9,3.6,86,-1,7000,18.52,,,20,,,,,,,,,,70,wg-a,,,,AAXX 14094 07280 02357 80210 10010 21010 39936 40219 51036 61000 77072 885// 90900 333 ////=
07280,1996-02-14 12:00:00,1,1021.9,3.6,86,-1,7000,18.52,,,20,,,,,,,,,,70,wg-a,,,,AAXX 14124 07280 02357 80210 10010 21010 39936 40219 51036 61000 77072 885// 91200 333 ////=
07280,1996-02-14 15:00:00,3,1025.7,1.9,70,-2,15000,29.632,,,20,,,,,,,,,,,wg-a,,,,AAXX 14154 07280 12565 80216 10030 21020 39974 40257 53019 60006 888// 91500=
07280,1996-02-14 18:00:00,2,1028.2,2.3,75,-2,12000,25.928,,,20,1.1,3.2,,,,,,,,,wg-a,,,,AAXX 14184 07280 32562 80214 10020 21020 39997 40282 53023 885// 91800 333 10032 20011=
07280,1996-02-14 21:00:00,1,1030.2,1.9,80,-2,12000,29.632,,,20,,,,,,,,,,,wg-a,,,,AAXX 14214 07280 12662 /0216 10010 21020 30016 40302 51019 60006 85500 92100=
07280,1996-02-15 00:00:00,1,1031.7,1.5,80,-2,12000,22.224,,,360,,,,,,,,,,,wg-a,,,,AAXX 15004 07280 12662 73612 10010 21020 30031 40317 51015 60006 875// 90000=
07280,1996-02-15 03:00:00,1,1032.4,0.6,80,-2,12000,22.224,,,360,,,,,,,,,,,wg-a,,,,AAXX 15034 07280 12662 73612 10010 21020 30037 40324 53006 60006 875// 90300=
07280,1996-02-15 06:00:00,1,1033.6,1.2,80,-2,12000,18.52,,,360,0.7,1.7,,,,,,,,,wg-a,,,,AAXX 15064 07280 02662 83610 10010 21020 30049 40336 53012 60006 885// 90600 333 10017 20007 61000=
07280,1996-02-15 09:00:00,1,1034.8,1.2,75,-3,12000,25.928,,,360,,,,,,,,,,,wg-a,,,,AAXX 15094 07280 12662 73614 10010 21030 30061 40348 51012 60006 875// 90900=
07280,1996-02-15 12:00:00,3,1034.2,-0.4,65,-3,15000,22.224,,,10,,,,,,,,,,,wg-a,,,,AAXX 15124 07280 12565 /0112 10030 21030 30057 40342 58004 60006 86801 91200=
07280,1996-02-15 15:00:00,3,1033.5,-0.7,60,-4,15000,22.224,,,360,,,,,,,,,,,wg-a,,,,AAXX 15154 07280 12565 /3612 10030 21040 30050 40335 58007 60006 86501 91500=
07280,1996-02-15 18:00:00,1,1034.3,0.6,69,-4,15000,14.816,,,350,0.7,3.5,,,,,,,,,wg-a,,,,AAXX 15184 07280 12665 /3508 10010 21040 30056 40343 53006 60006 83501 91800 333 10035 20007=
07280,1996-02-15 21:00:00,-1,1034.2,-0.3,86,-3,20000,11.112,,,330,,,,,,,,,,,wg-a,,,,AAXX 15214 07280 12670 /3306 11010 21030 30053 40342 56003 60006 81501 92100=
07280,1996-02-16 00:00:00,-1,1033.5,-0.7,86,-3,20000,11.112,,,300,,,,,,,,,,,wg-a,,,,AAXX 16004 07280 12870 53006 11010 21030 30046 40335 56007 60006 83031 90000=
07280,1996-02-16 03:00:00,0,1032.4,-0.9,80,-3,20000,7.408,,,300,,,,,,,,,,,wg-a,,,,AAXX 16034 07280 12770 73004 10000 21030 30037 40324 58009 60006 875// 90300=
07280,1996-02-16 06:00:00,0,1032.1,-0.4,86,-2,8000,0,,,0,-1.7,1,,,,,,,,71,wg-a,,,,AAXX 16064 07280 02458 80000 10000 21020 30033 40321 55004 61000 77122 8557/ 90600 333 10010 21017 6100=
07280,1996-02-16 09:00:00,1,1032.1,0.2,80,-2,8000,7.408,,,160,,,,,,,,,,3,wg-a,,,,AAXX 16094 07280 02558 71604 10010 21020 30035 40321 51002 61000 70372 875// 90900 333 ////=
07280,1996-02-16 12:00:00,1,1031,-1.1,93,0,4000,14.816,,,170,,,,,,,,,,51,wg-a,,,,AAXX 16124 07280 02440 81708 10010 20000 30024 40310 58011 61000 75165 885// 91200 333 6100=
07280,1996-02-16 15:00:00,2,1029.2,-1.6,93,1,500,18.52,,,180,,,,,,,,,,60,wg-a,,,,AAXX 16154 07280 02400 81810 10020 20010 30008 40292 56016 61000 76065 885// 91500 333 ////=
07280,1996-02-16 18:00:00,2,1028.9,-0.3,93,1,3000,14.816,,,180,-0.3,2.1,,0,,,,,,10,wg-a,,,,AAXX 16184 07280 12230 81808 10020 20010 30005 40289 55003 60007 71065 885// 91800 333 10021 21003=
07280,1996-02-16 21:00:00,2,1028,-0.9,100,2,7000,11.112,,,170,,,,,,,,,,3,wg-a,,,,AAXX 16214 07280 02457 81706 10020 20020 39996 40280 56009 61000 70352 886// 92100 333 ////=
07280,1996-02-17 00:00:00,4,1027.3,-0.5,87,2,10000,14.816,,,190,,,,,,,,,,2,wg-a,,,,AAXX 17004 07280 02460 81908 10040 20020 39991 40273 56005 61000 70252 886// 90000 333 ////=
07280,1996-02-17 03:00:00,3,1026.1,-1.2,93,2,12000,14.816,,,180,,,,,,,,,,,wg-a,,,,AAXX 17034 07280 12662 71808 10030 20020 39979 40261 58012 60006 875// 90300=
07280,1996-02-17 06:00:00,4,1025.2,-0.8,93,3,15000,18.52,,,200,1.9,4.1,,,,,,,,,wg-a,,,,AAXX 17064 07280 12565 72010 10040 20030 39971 40252 56008 60004 875// 90600 333 10041 20019=
07280,1996-02-17 09:00:00,5,1025.2,0.1,87,3,12000,11.112,,,230,,,,,,,,,,60,wg-a,,,,AAXX 17094 07280 02462 82306 10050 20030 39972 40252 53001 61000 76062 888// 90900 333 ////=
07280,1996-02-17 12:00:00,7,1024.6,-0.5,76,3,25000,14.816,,,260,,,,0,,,,,,1,wg-a,,,,AAXX 17124 07280 02575 72608 10070 20030 39967 40246 58005 60016 70162 878// 91200 333 60007=
07280,1996-02-17 15:00:00,7,1024.8,0.2,70,2,20000,18.52,,,290,,,,,,,,,,25,wg-a,,,,AAXX 17154 07280 02570 72910 10070 20020 39969 40248 53002 61000 72582 878// 91500 333 ////=
07280,1996-02-17 18:00:00,4,1025.7,0.7,87,2,500,7.408,,,250,4.1,7,,,,,,,,1,wg-a,,,,AAXX 17184 07280 32700 72504 10040 20020 39976 40257 51007 70182 875// 91800 333 10070 20041=
07280,1996-02-17 21:00:00,5,1025.3,-0.4,87,3,25000,11.112,,,230,,,,,,,,,,,wg-a,,,,AAXX 17214 07280 12775 82306 10050 20030 39972 40253 58004 60006 875// 92100=
07280,1996-02-18 00:00:00,5,1024.2,-1,81,2,25000,14.816,,,210,,,,,,,,,,,wg-a,,,,AAXX 18004 07280 12575 82108 10050 20020 39962 40242 56010 60006 888// 90000=
07280,1996-02-18 03:00:00,4,1020.7,-3.5,93,3,20000,18.52,,,180,,,,,,,,,,,wg-a,,,,AAXX 18034 07280 12570 81810 10040 20030 39927 40207 58035 60006 885// 90300=
07280,1996-02-18 06:00:00,5,1017.8,-2.8,87,3,15000,22.224,,,180,4,5.2,,,,,,,,,wg-a,,,,AAXX 18064 07280 02465 81812 10050 20030 39899 40178 58028 60006 878// 90600 333 10052 20040 60004=
07280,1996-02-18 09:00:00,5,1014.2,-3.4,87,3,20000,38.892,,,200,,,,,,,,,,21,wg-a,,,,AAXX 18094 07280 02470 82021 10050 20030 39865 40142 57034 61000 72162 885// 90900 333 ////=
07280,1996-02-18 12:00:00,5,1009,-5.1,87,3,15000,35.188,,,190,,,,,,,,,,21,wg-a,,,,AAXX 18124 07280 02465 81919 10050 20030 39814 40090 58051 61000 72162 888// 91200 333 6100=
07280,1996-02-18 15:00:00,5,1004,-4.8,93,4,9000,42.596,,,190,,,,1,,,,,,61,wg-a,,,,AAXX 18154 07280 12459 81923 10050 20040 39766 40040 56048 60017 76162 888// 91500=
07280,1996-02-18 18:00:00,3,1003.7,-0.5,93,2,25000,18.52,,,200,2.6,6,,4,,,,,,21,wg-a,,,,AAXX 18184 07280 12475 72010 10030 20020 39761 40037 58005 60047 72162 875// 91800 333 10060 20026=
07280,1996-02-18 21:00:00,3,1002.8,-0.9,87,1,500,18.52,,,180,,,,,,,,,,,wg-a,,,,AAXX 18214 07280 12700 21810 10030 20010 39752 40028 56009 60006 82500 92100=
07280,1996-02-19 00:00:00,3,1000.6,-2.1,93,2,25000,14.816,,,190,,,,,,,,,,,wg-a,,,,AAXX 19004 07280 12575 71908 10030 20020 39731 40006 56021 60006 875// 90000=
07280,1996-02-19 03:00:00,2,999.1,-1.6,93,1,20000,11.112,,,150,,,,1,,,,,,25,wg-a,,,,AAXX 19034 07280 12570 71506 10020 20010 39715 49991 56016 60017 72582 878// 90300=
07280,1996-02-19 06:00:00,2,997.9,-1.2,93,1,20000,14.816,,,200,1.6,3.5,,,,,6,,,2,wg-a,,,,AAXX 19064 07280 12570 72008 10020 20010 39703 49979 56012 60064 70282 878// 90600 333 10035 20016=
07280,1996-02-19 09:00:00,4,997.5,-0.2,87,2,25000,14.816,,,160,,,,,,,,,,1,wg-a,,,,AAXX 19094 07280 02475 51608 10040 20020 39701 49975 58002 61000 70186 84801 90900 333 ////=
07280,1996-02-19 12:00:00,5,996.9,-0.4,75,1,25000,25.928,,,220,,,,,,,,,,1,wg-a,,,,AAXX 19124 07280 02575 82214 10050 20010 39697 49969 58004 61000 70186 86231 91200 333 ////=
07280,1996-02-19 15:00:00,2,996.9,-0.3,80,-1,20000,18.52,,,270,,,,0,,,,,,26,wg-a,,,,AAXX 19154 07280 12470 /2710 10020 21010 39694 49969 55003 60007 72687 83871 91500=
07280,1996-02-19 18:00:00,1,999.1,1.9,75,-3,25000,31.484,,53.708,280,0.6,5.5,,,,,,,,1,wg-a,,,,AAXX 19184 07280 32475 /2817 10010 21030 39713 49991 53019 70187 84270 91800 333 10055 20006 91029=
07280,1996-02-19 21:00:00,-1,1002.7,3.4,74,-5,9000,22.224,,,300,,,,,,,,,,71,wg-a,,,,AAXX 19214 07280 02559 83012 11010 21050 39747 40027 51034 61000 77172 885// 92100 333 ////=
07280,1996-02-20 00:00:00,-1,1005.2,2.4,80,-4,8000,14.816,,,280,,,,0,,,,,,70,wg-a,,,,AAXX 20004 07280 02758 82808 11010 21040 39771 40052 51024 60006 77072 885// 90000 333 60007=
07280,1996-02-20 03:00:00,-3,1006.9,1.5,80,-6,15000,3.704,,22.224,270,,,,,,,,,,22,wg-a,,,,AAXX 20034 07280 02565 22702 11030 21060 39786 40069 51015 61000 72271 82800 90300 333 //// 91012=
07280,1996-02-20 06:00:00,-4,1008.8,1.7,86,-6,20000,11.112,,,250,-4.4,0.6,,,,,1,,,1,wg-a,,1,,AAXX 20064 07280 02570 42506 11040 21060 39803 40088 53017 60014 70187 84800 90600 333 10006 21044 4/001 61000=
07280,1996-02-20 09:00:00,-1,1009.8,1.3,69,-6,25000,14.816,,,250,,,,,,,,,,1,wg-a,,,,AAXX 20094 07280 02575 /2508 11010 21060 39816 40098 51013 61000 70171 81201 90900 333 ////=
07280,1996-02-20 12:00:00,0,1010.7,0.9,64,-6,15000,7.408,,,320,,,,,,,,,,85,wg-a,,,,AAXX 20124 07280 02565 73204 10000 21060 39825 40107 51009 61000 78571 878// 91200 333 6100=
07280,1996-02-20 15:00:00,0,1011,0.3,69,-5,15000,11.112,,,350,,,,,,,,,,85,wg-a,,,,AAXX 20154 07280 02565 83506 10000 21050 39828 40110 53003 61000 78587 888// 91500 333 ////=
07280,1996-02-20 18:00:00,-1,1012.5,1.4,80,-4,20000,14.816,,,350,-3.9,2,,,,,,,,70,wg-a,,,,AAXX 20184 07280 02570 /3508 11010 21040 39842 40125 53014 61000 77087 83800 91800 333 10020 21039 ////=
07280,1996-02-20 21:00:00,-1,1012.2,-0.3,86,-3,18000,22.224,,,340,,,,,,,,,,70,wg-a,,,,AAXX 20214 07280 02568 73412 11010 21030 39839 40122 58003 61000 77071 8117/ 92100 333 ////=
07280,1996-02-21 00:00:00,0,1011.7,-0.4,80,-3,15000,25.928,,,360,,,,,,,,,,2,wg-a,,,,AAXX 21004 07280 02465 83614 10000 21030 39835 40117 58004 61000 70271 8317/ 90000 333 6100=
07280,1996-02-21 03:00:00,1,1011.1,-0.5,80,-2,15000,31.484,,,360,,,,,,,,,,70,wg-a,,,,AAXX 21034 07280 02465 83617 10010 21020 39830 40111 58005 61000 77072 8477/ 90300 333 ////=
07280,1996-02-21 06:00:00,0,1011.6,0.4,80,-3,20000,38.892,,61.116,360,-1.4,0.9,,,,,,,,22,wg-a,,,,AAXX 21064 07280 02470 83621 10000 21030 39834 40116 53004 61000 72272 878// 90600 333 10009 21014 6100 91033=
07280,1996-02-21 09:00:00,-1,1013.3,1.6,80,-4,25000,38.892,,61.116,360,,,,,,,,,,,wg-a,,,,AAXX 21094 07280 12475 73621 11010 21040 39850 40133 52016 60006 875// 90900 333 91033=
07280,1996-02-21 12:00:00,-1,1014,0.7,74,-5,25000,38.892,,57.412,350,,,,,,,,,,,wg-a,,,,AAXX 21124 07280 12475 83521 11010 21050 39857 40140 50007 60006 875// 91200 333 91031=
07280,1996-02-21 15:00:00,-1,1015.2,1.1,69,-6,500,35.188,,,340,,,,,,,,,,,wg-a,,,,AAXX 21154 07280 12500 83419 11010 21060 39868 40152 53011 60006 875// 91500=
07280,1996-02-21 18:00:00,-3,1018,2.8,68,-8,20000,31.484,,50.004,360,,-0.4,,,,,,,,,wg-a,,1,,AAXX 21184 07280 02570 83617 11030 21080 39893 40180 53028 60006 885// 91800 333 11004 4/001 61000 91027=
07280,1996-02-21 21:00:00,-4,1019.7,1.6,68,-9,20000,29.632,,,340,,,,,,,,,,,wg-a,,,,AAXX 21214 07280 12570 83416 11040 21090 39909 40197 53016 60006 885// 92100=
07280,1996-02-22 00:00:00,-4,1020.7,0.9,68,-9,18000,18.52,,,360,,,,,,,,,,22,wg-a,,,,AAXX 22004 07280 02568 83610 11040 21090 39918 40207 52009 61000 72222 885// 90000 333 6100=
07280,1996-02-22 03:00:00,-4,1020.9,0.2,74,-8,18000,14.816,,,330,,,,,,,,,,,wg-a,,,,AAXX 22034 07280 12268 83308 11040 21080 39920 40209 51002 60006 885// 90300=
07280,1996-02-22 06:00:00,-5,1022.4,1.4,73,-9,10000,18.52,,,310,-5.1,-2.8,,,,,,,,70,wg-a,,,,AAXX 22064 07280 02260 83110 11050 21090 39934 40224 53014 61000 77022 885// 90600 333 11028 21051 6100=
07280,1996-02-22 09:00:00,-5,1023.8,1.4,73,-9,15000,14.816,,,300,,,,,,,,,,3,wg-a,,,,AAXX 22094 07280 02565 23008 11050 21090 39948 40238 51014 61000 70371 82100 90900 333 ////=
07280,1996-02-22 12:00:00,-3,1023.6,0,58,-10,20000,11.112,,,300,,,,,,,,,,1,wg-a,,,,AAXX 22124 07280 02570 33006 11030 21100 39948 40236 50000 61000 70171 83100 91200 333 ////=
07280,1996-02-22 15:00:00,-2,1023,-0.5,54,-10,25000,14.816,,,360,,,,,,,,,,,wg-a,,,,AAXX 22154 07280 12675 /3608 11020 21100 39943 40230 56005 60006 85200 91500=
07280,1996-02-22 18:00:00,-3,1023.8,0.7,63,-9,20000,7.408,,,320,-6.4,-1.2,,,,,,,,22,wg-a,,,,AAXX 22184 07280 02670 73204 11030 21090 39950 40238 51007 61000 72271 86502 91800 333 11012 21064 ////=
07280,1996-02-22 21:00:00,-4,1023.3,-0.7,80,-7,20000,7.408,,,140,,,,,,,,,,,wg-a,,,,AAXX 22214 07280 12670 71404 11040 21070 39943 40233 58007 60006 82531 92100=
07280,1996-02-23 00:00:00,-6,1021.7,-1.7,86,-8,20000,11.112,,,140,,,,,,,,,,,wg-a,,,,AAXX 23004 07280 12870 51406 11060 21080 39926 40217 58017 60006 83031 90000=
07280,1996-02-23 03:00:00,-5,1019.4,-2.1,79,-8,9000,11.112,,,140,,,,,,,,,,,wg-a,,,,AAXX 23034 07280 12559 81406 11050 21080 39905 40194 58021 60006 875// 90300=
07280,1996-02-23 06:00:00,-5,1018.8,-0.6,86,-7,7000,7.408,,,140,-6.7,-2.8,,,,,,,,71,wg-a,,1,,AAXX 23064 07280 02257 81404 11050 21070 39899 40188 56006 61000 77172 875// 90600 333 11028 21067 4/001 6100=
07280,1996-02-23 09:00:00,-4,1019,0.3,86,-6,4500,7.408,,,160,,,,,,,,,,10,wg-a,,1,,AAXX 23094 07280 02445 71604 11040 21060 39902 40190 50003 61000 71072 875// 90900 333 4/001 ////=
07280,1996-02-23 12:00:00,-3,1018.8,-0.1,93,-4,500,11.112,,,120,,,,,,,,,,71,wg-a,,,,AAXX 23124 07280 02300 81206 11030 21040 39901 40188 57001 61000 77177 885// 91200 333 6100=
07280,1996-02-23 15:00:00,-3,1018.3,-0.4,93,-4,500,7.408,,,100,,,,1,,,,,,10,wg-a,,,,AAXX 23154 07280 12205 81004 11030 21040 39897 40183 56004 60017 71072 885// 91500=
07280,1996-02-23 18:00:00,-3,1019.6,1.2,93,-4,7000,3.704,,,140,-4.9,-2.3,,1,,,,,,2,wg-a,,2,,AAXX 23184 07280 12457 81402 11030 21040 39909 40196 53012 60017 70272 885// 91800 333 11023 21049 4/002=
07280,1996-02-23 21:00:00,-3,1019.9,0.3,93,-4,8000,7.408,,,140,,,,,,,,,,,wg-a,,,,AAXX 23214 07280 12358 81404 11030 21040 39912 40199 53003 60006 885// 92100=
07280,1996-02-24 00:00:00,-3,1019.9,-0,100,-3,6000,0,,,0,,,,,,,,,,,wg-a,,,,AAXX 24004 07280 12456 80000 11030 21030 39912 40199 55000 60006 885// 90000=
07280,1996-02-24 03:00:00,-2,1018.9,-0.9,93,-3,4000,7.408,,,140,,,,,,,,,,10,wg-a,,,,AAXX 24034 07280 12240 81404 11020 21030 39903 40189 58009 60006 71022 886// 90300=
07280,1996-02-24 06:00:00,-2,1018.2,-0.6,100,-2,500,11.112,,,150,-3.2,-1.6,,,,,3,,,,wg-a,,2,,AAXX 24064 07280 02200 81506 11020 21020 39897 40182 58006 60006 876// 90600 333 11016 21032 4/002 60034=
07280,1996-02-24 09:00:00,-1,1018.1,0,93,-2,4500,18.52,,,160,,,,,,,,,,10,wg-a,,,,AAXX 24094 07280 12345 81610 11010 21020 39897 40181 50000 60006 71022 876// 90900=
07280,1996-02-24 12:00:00,1,1017.2,-0.8,86,-1,3500,18.52,,,160,,,,,,,,,,10,wg-a,,,,AAXX 24124 07280 12235 71610 10010 21010 39889 40172 58008 60006 71022 875// 91200=
07280,1996-02-24 15:00:00,4,1015.2,-1.6,70,-1,9000,18.52,,,170,,,,,,,,,,,wg-a,,,,AAXX 24154 07280 12/59 71710 10040 21010 39873 40152 57016 60006 84032 91500=
07280,1996-02-24 18:00:00,2,1015.1,-0.3,75,-2,20000,14.816,,,170,-1.7,3.9,,,,,,,,1,wg-a,,,,AAXX 24184 07280 02/70 51708 10020 21020 39870 40151 55003 61000 70162 83031 91800 333 10039 21017 ////=
07280,1996-02-24 21:00:00,0,1014.8,-0.5,80,-3,20000,7.408,,,170,,,,,,,,,,,wg-a,,,,AAXX 24214 07280 12/70 01704 10000 21030 39865 40148 55005 60006 80000 92100=
07280,1996-02-25 00:00:00,0,1014.1,-0.6,80,-3,17000,14.816,,,170,,,,,,,,,,,wg-a,,,,AAXX 25004 07280 12/67 51708 10000 21030 39859 40141 57006 60006 80001 90000=
07280,1996-02-25 03:00:00,0,1013.5,-0.6,80,-3,15000,11.112,,,150,,,,,,,,,,,wg-a,,,,AAXX 25034 07280 12/65 21506 10000 21030 39853 40135 57006 60006 80001 90300=
07280,1996-02-25 06:00:00,1,1012.9,-0.5,75,-3,15000,18.52,,,170,-0.5,1.6,,,,,,,,,wg-a,,,,AAXX 25064 07280 02/65 71710 10010 21030 39848 40129 56005 60006 81032 90600 333 10016 21005 61000=
07280,1996-02-25 09:00:00,5,1012.9,0.4,70,0,15000,22.224,,,180,,,,,,,,,,,wg-a,,,,AAXX 25094 07280 12/65 51812 10050 20000 39852 40129 51004 60006 84031 90900=
07280,1996-02-25 10:00:00,11,1011.1,,54,2,25000,38.892,,,160,,,,,,,,,,,wg-a,,,,AAXX 25104 07280 12/75 41621 10110 20020 39840 40111 60006 81031 91000=
07280,1996-02-25 12:00:00,11,1011.1,-1.2,54,2,25000,38.892,,57.412,160,,,,,,,,,,,wg-a,,,,AAXX 25124 07280 12/75 41621 10110 20020 39840 40111 58012 60006 81031 91200 333 91031=
07280,1996-02-25 14:00:00,12,1009.6,-1.3,54,3,35000,31.484,,61.116,160,,,,,,,,,,,wg-a,,,,AAXX 25144 07280 12681 41617 10120 20030 39827 40096 56013 60006 81131 91400 333 91033=
07280,1996-02-25 15:00:00,12,1009.6,-1.3,54,3,35000,31.484,,61.116,160,,,,,,,,,,,wg-a,,,,AAXX 25154 07280 12681 41617 10120 20030 39827 40096 56013 60006 81131 91500 333 91033=
07280,1996-02-25 18:00:00,9,1010.3,0.4,66,3,25000,31.484,,53.708,150,0.4,12.4,,,,,,,,,wg-a,,,,AAXX 25184 07280 12/75 21517 10090 20030 39831 40103 53004 60006 80001 91800 333 10124 20004 91029=
07280,1996-02-25 21:00:00,7,1011.4,0.9,76,3,20000,29.632,,,160,,,,,,,,,,,wg-a,,,,AAXX 25214 07280 12/70 01616 10070 20030 39840 40114 51009 60006 80000 92100=
07280,1996-02-26 00:00:00,8,1011.8,0.4,66,2,20000,42.596,,61.116,160,,,,,,,,,,,wg-a,,,,AAXX 26004 07280 12/70 01623 10080 20020 39844 40118 53004 60006 80000 90000 333 91033=
07280,1996-02-26 03:00:00,7,1012,0.2,61,0,20000,35.188,,53.708,160,,,,,,,,,,,wg-a,,,,AAXX 26034 07280 12/70 01619 10070 20000 39846 40120 50002 60006 80000 90300 333 91029=
07280,1996-02-26 06:00:00,6,1012.5,0.3,65,0,500,25.928,,,160,5.8,9.3,,,,,,,,,wg-a,,,,AAXX 26064 07280 12/00 31614 10060 20000 39849 40125 52003 60006 81034 90600 333 10093 20058=
07280,1996-02-26 09:00:00,9,1013.8,1.6,53,0,40000,25.928,,,160,,,,,,,,,,,wg-a,,,,AAXX 26094 07280 12/82 31614 10090 20000 39865 40138 51016 60006 83031 90900=
07280,1996-02-26 12:00:00,13,1013.5,0,44,1,40000,29.632,,,170,,,,,,,,,,,wg-a,,,,AAXX 26124 07280 12782 61716 10130 20010 39865 40135 50000 60006 82531 91200=
07280,1996-02-26 15:00:00,12,1012.7,,47,1,500,22.224,,,240,,,,,,,,,,,wg-a,,,,AAXX 26154 07280 32700 72412 10120 20010 39857 40127 848/6 91500=
07280,1996-02-26 18:00:00,9,1014.6,-1.5,66,3,25000,3.704,,,170,1.9,13.6,,,,,,,,,wg-a,,,,AAXX 26184 07280 12775 81702 10090 20030 39872 40146 55015 60006 8657/ 91800 333 10136 20019=
07280,1996-02-26 21:00:00,7,1015.3,0.6,81,4,20000,11.112,,,270,,,,,,,,,,21,wg-a,,,,AAXX 26214 07280 02670 82706 10070 20040 39878 40153 51006 61000 72162 875// 92100 333 ////=
07280,1996-02-27 00:00:00,6,1016.5,1,87,4,20000,3.704,,,260,,,,,,,,,,60,wg-a,,,,AAXX 27004 07280 02770 52602 10060 20040 39888 40165 51010 61000 76062 83530 90000 333 6100=
07280,1996-02-27 03:00:00,6,1016.3,-0.2,81,3,20000,11.112,,,40,,,,,,,,,,3,wg-a,,,,AAXX 27034 07280 02770 70406 10060 20030 39886 40163 58002 61000 70362 8353/ 90300 333 ////=
07280,1996-02-27 06:00:00,5,1017,0.6,87,3,20000,7.408,,,330,4.6,9.4,,,,,,,,1,wg-a,,,,AAXX 27064 07280 02770 73304 10050 20030 39892 40170 51006 61000 70162 8553/ 90600 333 10094 20046 ////=
07280,1996-02-27 09:00:00,7,1018.2,1.4,87,5,20000,11.112,,,320,,,,,,,,,,21,wg-a,,,,AAXX 27094 07280 02770 83206 10070 20050 39906 40182 51014 61000 72162 8152/ 90900 333 ////=
07280,1996-02-27 12:00:00,10,1018.5,0.5,66,4,20000,3.704,,,110,,,,,,,,,,3,wg-a,,,,AAXX 27124 07280 02570 81102 10100 20040 39911 40185 50005 61000 70362 8121/ 91200 333 ////=
07280,1996-02-27 15:00:00,9,1018.9,0.3,81,6,18000,14.816,,,180,,,,,,,,,,61,wg-a,,,,AAXX 27154 07280 02568 81808 10090 20060 39914 40189 53003 61000 76162 8382/ 91500 333 ////=
07280,1996-02-27 18:00:00,7,1020.1,1,87,5,8000,3.704,,,250,4.7,10.2,,2,,,,,,61,wg-a,,,,AAXX 27184 07280 12558 82502 10070 20050 39924 40201 53010 60027 76162 8277/ 91800 333 10102 20047=
07280,1996-02-27 21:00:00,6,1020.8,0.6,93,5,12000,3.704,,,40,,,,1,,,,,,21,wg-a,,,,AAXX 27214 07280 12562 80402 10060 20050 39930 40208 53006 60017 72162 8/57/ 92100=
07280,1996-02-28 00:00:00,5,1021,0.1,100,5,6000,0,,,0,,,,0,,,,,,21,wg-a,,,,AAXX 28004 07280 02656 80000 10050 20050 39931 40210 53001 60016 72162 885// 90000 333 60007=
07280,1996-02-28 03:00:00,5,1020.7,-0.3,100,5,7000,3.704,,,360,,,,,,,,,,,wg-a,,,,AAXX 28034 07280 12657 83602 10050 20050 39928 40207 58003 60006 885// 90300=
07280,1996-02-28 05:00:00,5,1020.7,-5.3,100,5,7000,3.704,,,360,,,,,,,,,,,wg-a,,,,AAXX 28054 07280 12657 83602 10050 20050 39928 40207 58053 60006 885// 90500=
07280,1996-02-28 06:00:00,5,1021,0.3,100,5,8000,11.112,,,320,4.8,6.4,,,,,3,,,,wg-a,,,,AAXX 28064 07280 12858 83206 10050 20050 39931 40210 53003 60034 885// 90600 333 10064 20048=
07280,1996-02-28 09:00:00,7,1021.6,0.8,93,6,8000,11.112,,,350,,,,,,,,,,,wg-a,,,,AAXX 28094 07280 12858 73506 10070 20060 39939 40216 51008 60006 8707/ 90900=
07280,1996-02-28 12:00:00,11,1021.1,-0.2,71,6,500,14.816,,,360,,,,,,,,,,,wg-a,,,,AAXX 28124 07280 12400 /3608 10110 20060 39937 40211 58002 60006 81230 91200=
07280,1996-02-28 15:00:00,12,1020.5,-0.4,62,5,500,14.816,,,10,,,,,,,,,,,wg-a,,,,AAXX 28154 07280 12500 40108 10120 20050 39933 40205 56004 60006 83230 91500=
07280,1996-02-28 18:00:00,9,1022.4,1.5,76,5,25000,22.224,,,330,5.1,12.8,,,,,,,,,wg-a,,,,AAXX 28184 07280 12675 53312 10090 20050 39948 40224 53015 60006 83430 91800 333 10128 20051=
07280,1996-02-28 21:00:00,8,1023.3,0.8,81,5,25000,18.52,,,340,,,,,,,,,,,wg-a,,,,AAXX 28214 07280 12/75 73410 10080 20050 39956 40233 51008 60006 8703/ 92100=
07280,1996-02-29 03:00:00,5,1023.4,-0.2,87,3,7000,14.816,,,340,,,,,,,,,,,wg-a,,,,AAXX 29034 07280 12/57 03408 10050 20030 39954 40234 57002 60006 80000 90300=
07280,1996-02-29 06:00:00,3,1024.6,0.9,93,2,500,14.816,,,340,2.1,8.8,,,,,,,,,wg-a,,,,AAXX 29064 07280 12/00 03408 10030 20020 39963 40246 52009 60006 80000 90600 333 10088 20021=
07280,1996-02-29 09:00:00,5,1026,1.6,75,1,4500,22.224,,,360,,,,,,,,,,10,wg-a,,,,AAXX 29094 07280 12/45 03612 10050 20010 39979 40260 52016 60006 71000 80000 90900=
07280,1996-02-29 12:00:00,9,1025.8,0.2,53,0,7000,14.816,,,10,,,,,,,,,,,wg-a,,,,AAXX 29124 07280 12/57 00108 10090 20000 39981 40258 50002 60006 80000 91200=
07280,1996-02-29 15:00:00,11,1025.3,-0.3,47,0,12000,22.224,,,10,,,,,,,,,,,wg-a,,,,AAXX 29154 07280 12/62 20112 10110 20000 39978 40253 55003 60006 80001 91500=
07280,1996-02-29 18:00:00,8,1027,1.4,57,0,10000,18.52,,,350,2.3,11.1,,,,,,,,,wg-a,,,,AAXX 29184 07280 12/60 23510 10080 20000 39992 40270 53014 60006 80001 91800 333 10111 20023=
07280,1996-02-29 21:00:00,5,1027.8,0.5,65,-1,12000,14.816,,,350,,,,,,,,,,,wg-a,,,,AAXX 29214 07280 12/62 03508 10050 21010 39997 40278 53005 60006 80000 92100=
07280,1996-03-01 00:00:00,3,1027.7,-0.3,70,-2,12000,11.112,,,320,,,,,,,,,,,wg-a,,,,AAXX 01004 07280 12/62 13206 10030 21020 39994 40277 58003 60006 81030 90000=
07280,1996-03-01 03:00:00,3,1027.4,-0.3,81,0,6000,18.52,,,330,,,,,,,,,,,wg-a,,,,AAXX 01034 07280 12/56 /3310 10030 20000 39991 40274 56003 60006 81030 90300=
07280,1996-03-01 06:00:00,4,1027.4,0.1,75,0,8000,29.632,,,340,1.9,7.8,,,,,,,,,wg-a,,,,AAXX 01064 07280 12/58 73416 10040 20000 39992 40274 52001 60006 8707/ 90600 333 10078 20019=
07280,1996-03-01 09:00:00,4,1028.3,0.9,81,1,9000,25.928,,,330,,,,,,,,,,61,wg-a,,,,AAXX 01094 07280 02559 83314 10040 20010 30001 40283 51009 61000 76122 8557/ 90900 333 ////=
07280,1996-03-01 12:00:00,5,1027.8,-0.4,60,-2,25000,25.928,,,360,,,,,,,,,,1,wg-a,,,,AAXX 01124 07280 02575 73614 10050 21020 39997 40278 58004 61000 70162 8453/ 91200 333 6100=
07280,1996-03-01 15:00:00,5,1027,-0.8,65,-1,25000,22.224,,,340,,,,,,,,,,21,wg-a,,,,AAXX 01154 07280 02575 83412 10050 21010 39989 40270 57008 61000 72122 8453/ 91500 333 ////=
07280,1996-03-01 18:00:00,4,1026.4,-0.6,75,0,20000,14.816,,,340,3.5,5.8,,,,,,,,60,wg-a,,,,AAXX 01184 07280 02570 83408 10040 20000 39983 40264 55006 61000 76062 8453/ 91800 333 10058 20035 ////=
07280,1996-03-01 19:00:00,4,1026.4,,75,0,20000,14.816,,,340,3.5,5.8,,,,,,,,60,wg-a,,,,AAXX 01194 07280 02/70 83408 10040 20000 39983 40264 61000 76062 8453/ 91900 333 10058 20035 ////=
07280,1996-03-01 21:00:00,3,1025.3,-1.3,93,2,2500,3.704,,,130,,,,,,,,,,10,wg-a,,,,AAXX 01214 07280 02225 81302 10030 20020 39970 40253 58013 61000 71065 885// 92100 333 ////=
07280,1996-03-02 00:00:00,2,1024,-1.3,100,2,2500,7.408,,,180,,,,1,,,,,,10,wg-a,,,,AAXX 02004 07280 02225 81804 10020 20020 39957 40240 58013 60016 71065 887// 90000 333 60017=
07280,1996-03-02 03:00:00,2,1023,-1,100,2,3000,7.408,,,360,,,,,,,,,,10,wg-a,,,,AAXX 02034 07280 02230 83604 10020 20020 39947 40230 58010 61000 71065 887// 90300 333 ////=
07280,1996-03-02 06:00:00,1,1023.7,0.6,86,-1,8000,14.816,,,360,0.9,4.3,,,,,1,,,1,wg-a,,,,AAXX 02064 07280 02758 73608 10010 21010 39953 40237 53006 60014 70165 875// 90600 333 10043 20009 61000=
07280,1996-03-02 09:00:00,2,1024.3,0.7,75,-2,12000,25.928,,,360,,,,,,,,,,,wg-a,,,,AAXX 02094 07280 12462 23614 10020 21020 39960 40243 51007 60006 82100 90900=
07280,1996-03-02 12:00:00,5,1023.6,-0.5,52,-4,20000,18.52,,,10,,,,,,,,,,,wg-a,,,,AAXX 02124 07280 12670 20110 10050 21040 39955 40236 58005 60006 82100 91200=
07280,1996-03-02 15:00:00,6,1022,-1.3,39,-7,500,22.224,,,20,,,,,,,,,,,wg-a,,,,AAXX 02154 07280 12700 10212 10060 21070 39942 40220 56013 60006 81100 91500=
07280,1996-03-02 18:00:00,3,1022.5,-0.1,44,-8,500,11.112,,,350,0.4,6.5,,,,,,,,,wg-a,,,,AAXX 02184 07280 12/00 13506 10030 21080 39943 40225 55001 60006 80001 91800 333 10065 20004=
07280,1996-03-02 21:00:00,1,1022.6,-0.1,64,-5,500,14.816,,,350,,,,,,,,,,,wg-a,,,,AAXX 02214 07280 12/00 23508 10010 21050 39942 40226 57001 60006 80001 92100=
07280,1996-03-03 00:00:00,-1,1021.6,-1.2,69,-6,25000,14.816,,,320,,,,,,,,,,,wg-a,,,,AAXX 03004 07280 12/75 73208 11010 21060 39930 40216 56012 60006 81032 90000=
07280,1996-03-03 03:00:00,-1,1019.9,-1.6,74,-5,25000,11.112,,,300,,,,,,,,,,,wg-a,,,,AAXX 03034 07280 12/75 83006 11010 21050 39914 40199 58016 60006 8801/ 90300=
07280,1996-03-03 06:00:00,-1,1019.6,-0.3,74,-5,20000,11.112,,,320,-1.6,2.9,,,,,,,,,wg-a,,,,AAXX 03064 07280 12/70 73206 11010 21050 39911 40196 57003 60006 8703/ 90600 333 10029 21016=
07280,1996-03-03 09:00:00,1,1020.2,0.8,69,-4,12000,18.52,,,340,,,,,,,,,,,wg-a,,,,AAXX 03094 07280 12/62 73410 10010 21040 39919 40202 53008 60006 8703/ 90900=
07280,1996-03-03 12:00:00,4,1019,-0.9,56,-4,15000,14.816,,,360,,,,,,,,,,,wg-a,,,,AAXX 03124 07280 12565 43608 10040 21040 39910 40190 58009 60006 84200 91200=
07280,1996-03-03 15:00:00,4,1018.5,-0.5,52,-5,15000,18.52,,,10,,,,,,,,,,,wg-a,,,,AAXX 03154 07280 12665 /0110 10040 21050 39905 40185 56005 60006 86800 91500=
07280,1996-03-03 18:00:00,2,1019.5,0.8,55,-6,15000,14.816,,,340,-1.3,4.4,,,,,,,,,wg-a,,,,AAXX 03184 07280 12765 63408 10020 21060 39913 40195 53008 60006 815/1 91800 333 10044 21013=
07280,1996-03-03 21:00:00,-1,1020.8,0.9,69,-6,15000,14.816,,,360,,,,,,,,,,,wg-a,,,,AAXX 03214 07280 12/65 03608 11010 21060 39922 40208 53009 60006 80000 92100=
07280,1996-03-04 00:00:00,-2,1020.9,0.1,69,-7,12000,14.816,,,360,,,,,,,,,,,wg-a,,,,AAXX 04004 07280 12/62 03608 11020 21070 39923 40209 52001 60006 80000 90000=
07280,1996-03-04 03:00:00,-2,1021,-0,69,-7,12000,11.112,,,340,,,,,,,,,,,wg-a,,,,AAXX 04034 07280 12/62 03406 11020 21070 39923 40210 54000 60006 80000 90300=
07280,1996-03-04 06:00:00,-4,1021.9,0.7,74,-8,10000,11.112,,,350,-4,1.6,,,,,,,,,wg-a,,,,AAXX 04064 07280 12/60 03506 11040 21080 39930 40219 53007 60006 80000 90600 333 10016 21040=
07280,1996-03-04 09:00:00,0,1022.4,0.9,64,-6,25000,18.52,,,360,,,,,,,,,,,wg-a,,,,AAXX 04094 07280 12/75 03610 10000 21060 39939 40224 52009 60006 80000 90900=
07280,1996-03-04 12:00:00,4,1021.3,-0.7,41,-8,500,18.52,,,20,,,,,,,,,,,wg-a,,,,AAXX 04124 07280 12700 /0210 10040 21080 39932 40213 58007 60006 81130 91200=
07280,1996-03-04 15:00:00,5,1020.3,-0.8,38,-8,500,14.816,,,20,,,,,,,,,,,wg-a,,,,AAXX 04154 07280 12/00 20208 10050 21080 39924 40203 56008 60006 81031 91500=
07280,1996-03-04 18:00:00,3,1021.5,1,52,-6,20000,14.816,,,300,-4.4,5.5,,,,,,,,,wg-a,,,,AAXX 04184 07280 12/70 33008 10030 21060 39934 40215 53010 60006 82031 91800 333 10055 21044=
07280,1996-03-04 21:00:00,1,1023,1.2,64,-5,12000,7.408,,,300,,,,,,,,,,,wg-a,,,,AAXX 04214 07280 12/62 63004 10010 21050 39946 40230 53012 60006 86050 92100=
07280,1996-03-05 00:00:00,0,1023.3,0.2,80,-3,10000,0,,,0,,,,,,,,,,,wg-a,,,,AAXX 05004 07280 12/60 80000 10000 21030 39948 40233 51002 60006 8807/ 90000=
07280,1996-03-05 03:00:00,1,1023.6,0.4,86,-1,6000,11.112,,,300,,,,,,,,,,70,wg-a,,,,AAXX 05034 07280 02756 83006 10010 21010 39952 40236 53004 61000 77072 885// 90300 333 ////=
07280,1996-03-05 06:00:00,1,1024.9,1.2,93,0,2000,3.704,,,150,0,3.2,,0,,,,,,10,wg-a,,,,AAXX 05064 07280 02720 81502 10010 20000 39964 40249 51012 60004 71075 885// 90600 333 10032 20000 60007=
07280,1996-03-05 09:00:00,3,1026.2,1.5,87,1,4000,11.112,,,160,,,,,,,,,,10,wg-a,,,,AAXX 05094 07280 02440 71606 10030 20010 39979 40262 51015 61000 71072 875// 90900 333 ////=
07280,1996-03-05 12:00:00,4,1026.7,0.7,81,1,6000,7.408,,,150,,,,,,,,,,1,wg-a,,,,AAXX 05124 07280 02456 81504 10040 20010 39986 40267 50007 61000 70172 885// 91200 333 ////=
07280,1996-03-05 15:00:00,5,1025.9,-0.7,75,1,8000,7.408,,,140,,,,,,,,,,,wg-a,,,,AAXX 05154 07280 12558 81404 10050 20010 39979 40259 57007 60006 888// 91500=
07280,1996-03-05 17:00:00,5,1026.8,0.8,75,1,7000,7.408,,,80,,5.6,,,,,,,,,wg-a,,,,AAXX 05174 07280 32757 80804 10050 20010 39987 40268 53008 885// 91700 333 10056=
07280,1996-03-05 18:00:00,4,1026.9,0.8,81,1,7000,7.408,,,80,0.6,5.6,,,,,,,,,wg-a,,,,AAXX 05184 07280 32757 80804 10040 20010 39987 40269 53008 885// 91800 333 10056 20006=
07280,1996-03-05 21:00:00,3,1027.2,0.2,81,0,7000,0,,,0,,,,,,,,,,,wg-a,,,,AAXX 05214 07280 12757 80000 10030 20000 39989 40272 51002 60006 885// 92100=
07280,1996-03-06 00:00:00,2,1026.6,-0.6,87,0,500,0,,,0,,,,,,,,,,,wg-a,,,,AAXX 06004 07280 12700 80000 10020 20000 39983 40266 58006 60006 885// 90000=
07280,1996-03-06 03:00:00,3,1026.1,-0.5,87,1,6000,3.704,,,360,,,,,,,,,,,wg-a,,,,AAXX 06034 07280 12556 83602 10030 20010 39978 40261 58005 60006 885// 90300=
07280,1996-03-06 06:00:00,3,1025.4,-0.6,87,1,7000,14.816,,,340,2.1,3.7,,,,,,,,,wg-a,,,,AAXX 06064 07280 02457 83408 10030 20010 39972 40254 58006 60006 885// 90600 333 10037 20021 61000=
07280,1996-03-06 09:00:00,4,1025.4,-0,81,1,7000,18.52,,,10,,,,,,,,,,21,wg-a,,,,AAXX 06094 07280 02457 80110 10040 20010 39972 40254 54000 61000 72162 888// 90900 333 ////=
07280,1996-03-06 12:00:00,5,1024.2,-1,70,0,10000,14.816,,,360,,,,,,,,,,3,wg-a,,,,AAXX 06124 07280 02560 83608 10050 20000 39962 40242 58010 61000 70362 888// 91200 333 ////=
07280,1996-03-06 15:00:00,5,1022.6,-1.6,65,-1,9000,22.224,,,10,,,,,,,,,,,wg-a,,,,AAXX 06154 07280 12559 /0112 10050 21010 39946 40226 56016 60006 878// 91500=
07280,1996-03-06 18:00:00,4,1022.4,-0.3,75,0,9000,22.224,,,10,3.2,5.2,,,,,,,,,wg-a,,,,AAXX 06184 07280 32559 80112 10040 20000 39943 40224 55003 888// 91800 333 10052 20032=
07280,1996-03-06 21:00:00,3,1021.6,-0.9,75,-1,9000,18.52,,,340,,,,,,,,,,,wg-a,,,,AAXX 06214 07280 12559 83410 10030 21010 39934 40216 58009 60006 885// 92100=
07280,1996-03-07 00:00:00,2,1020,-1.6,75,-2,12000,11.112,,,340,,,,,,,,,,,wg-a,,,,AAXX 07004 07280 12662 83406 10020 21020 39918 40200 58016 60006 885// 90000=
07280,1996-03-07 06:00:00,1,1015.4,-2.3,80,-2,9000,3.704,,,320,0.6,3.6,,,,,,,,,wg-a,,,,AAXX 07064 07280 02759 /3202 10010 21020 39872 40154 58023 60006 85501 90600 333 10036 20006 61000=
07280,1996-03-07 09:00:00,2,1014.3,-0.9,75,-2,9000,7.408,,,10,,,,,,,,,,70,wg-a,,,,AAXX 07094 07280 02559 70104 10020 21020 39863 40143 56009 61000 77072 878// 90900 333 ////=
07280,1996-03-07 12:00:00,4,1014,-0.2,60,-3,12000,14.816,,,90,,,,,,,,,,2,wg-a,,,,AAXX 07124 07280 02562 80908 10040 21030 39861 40140 58002 61000 70272 878// 91200 333 6100=
07280,1996-03-07 15:00:00,4,1014.2,0.2,65,-2,15000,11.112,,,130,,,,,,,,,,,wg-a,,,,AAXX 07154 07280 12565 81306 10040 21020 39863 40142 53002 60006 878// 91500=
07280,1996-03-07 18:00:00,3,1016,1.7,70,-2,12000,0,,,0,-0.4,4.4,,,,,,,,,wg-a,,,,AAXX 07184 07280 32762 70000 10030 21020 39880 40160 53017 83532 91800 333 10044 21004=
07280,1996-03-07 21:00:00,3,1017.4,1.3,75,-1,12000,11.112,,,340,,,,,,,,,,,wg-a,,,,AAXX 07214 07280 12762 73406 10030 21010 39893 40174 53013 60006 85532 92100=
07280,1996-03-08 00:00:00,2,1018.8,1.4,80,-1,12000,7.408,,,340,,,,,,,,,,,wg-a,,,,AAXX 08004 07280 12762 83404 10020 21010 39907 40188 51014 60006 875// 90000=
07280,1996-03-08 03:00:00,0,1019.7,0.6,80,-3,8000,11.112,,,340,,,,,,,,,,,wg-a,,,,AAXX 08034 07280 12758 53406 10000 21030 39913 40197 51006 60006 82502 90300=
07280,1996-03-08 06:00:00,0,1020.6,0.8,80,-3,6000,11.112,,,340,-1,3.4,,,,,,,,,wg-a,,,,AAXX 08064 07280 02756 43406 10000 21030 39921 40206 53008 60006 81532 90600 333 10034 21010 61000=
07280,1996-03-08 09:00:00,4,1020.8,0.6,70,-1,6000,11.112,,,360,,,,,,,,,,,wg-a,,,,AAXX 08094 07280 12/56 /3606 10040 21010 39927 40208 51006 60006 80002 90900=
07280,1996-03-08 12:00:00,9,1019.7,-0.5,53,0,8000,3.704,,,100,,,,,,,,,,,wg-a,,,,AAXX 08124 07280 12/58 /1002 10090 20000 39922 40197 57005 60006 80002 91200=
07280,1996-03-08 15:00:00,12,1018.3,-1,35,-3,15000,11.112,,,150,,,,,,,,,,,wg-a,,,,AAXX 08154 07280 12/65 41506 10120 21030 39912 40183 57010 60006 80002 91500=
07280,1996-03-08 18:00:00,8,1018.8,-0,42,-4,15000,3.704,,,80,-1,12.6,,,,,,,,,wg-a,,,,AAXX 08184 07280 12/65 40802 10080 21040 39912 40188 55000 60006 81032 91800 333 10126 21010=
07280,1996-03-08 21:00:00,5,1020,0.9,60,-2,18000,7.408,,,320,,,,,,,,,,,wg-a,,,,AAXX 08214 07280 12/68 23204 10050 21020 39921 40200 51009 60006 82030 92100=
07280,1996-03-09 00:00:00,1,1021.5,1.1,80,-2,10000,11.112,,,330,,,,,,,,,,,wg-a,,,,AAXX 09004 07280 12/60 03306 10010 21020 39932 40215 53011 60006 80000 90000=
07280,1996-03-09 03:00:00,0,1021.9,0.2,80,-3,12000,7.408,,,320,,,,,,,,,,,wg-a,,,,AAXX 09034 07280 12/62 13204 10000 21030 39934 40219 53002 60006 80001 90300=
07280,1996-03-09 06:00:00,-2,1022.5,0.5,93,-3,3000,7.408,,,340,-1.9,7.7,,,,,,,,10,wg-a,,,,AAXX 09064 07280 12830 /3404 11020 21030 39939 40225 53005 60006 71000 81500 90600 333 10077 21019=
07280,1996-03-09 09:00:00,4,1022.7,0.7,70,-1,500,7.408,,,30,,,,,,,,,,,wg-a,,,,AAXX 09094 07280 12/00 20304 10040 21010 39946 40227 52007 60006 82030 90900=
07280,1996-03-09 12:00:00,11,1020.5,-1.4,50,1,10000,3.704,,,80,,,,,,,,,,,wg-a,,,,AAXX 09124 07280 12/60 00802 10110 20010 39932 40205 58014 60006 80000 91200=
07280,1996-03-09 15:00:00,13,1018.6,-1.6,41,0,20000,3.704,,,60,,,,,,,,,,,wg-a,,,,AAXX 09154 07280 12/70 00602 10130 20000 39916 40186 56016 60006 80000 91500=
07280,1996-03-09 18:00:00,9,1019.4,0.3,49,-1,20000,11.112,,,20,-1.6,13.5,,,,,,,,,wg-a,,,,AAXX 09184 07280 12/70 00206 10090 21010 39919 40194 53003 60006 80000 91800 333 10135 21016=
07280,1996-03-09 21:00:00,5,1021.1,1.3,65,-1,20000,14.816,,,340,,,,,,,,,,,wg-a,,,,AAXX 09214 07280 12/70 03408 10050 21010 39932 40211 53013 60006 80000 92100=
07280,1996-03-10 00:00:00,3,1021.4,0.1,65,-3,20000,14.816,,,340,,,,,,,,,,,wg-a,,,,AAXX 10004 07280 12/70 03408 10030 21030 39933 40214 50001 60006 80000 90000=
07280,1996-03-10 03:00:00,2,1021.5,-0.1,69,-3,15000,18.52,,,340,,,,,,,,,,,wg-a,,,,AAXX 10034 07280 12/65 03410 10020 21030 39932 40215 58001 60006 80000 90300=
07280,1996-03-10 06:00:00,0,1021.8,0.2,80,-3,4000,18.52,,,340,0.3,9.1,,,,,,,,10,wg-a,,,,AAXX 10064 07280 12/40 03410 10000 21030 39934 40218 53002 60006 71000 80000 90600 333 10091 20003=
07280,1996-03-10 09:00:00,3,1021.5,0,65,-3,6000,22.224,,,360,,,,,,,,,,,wg-a,,,,AAXX 10094 07280 12/56 03612 10030 21030 39934 40215 50000 60006 80000 90900=
07280,1996-03-10 12:00:00,7,1020,-1.1,53,-2,10000,25.928,,,10,,,,,,,,,,,wg-a,,,,AAXX 10124 07280 12/60 00114 10070 21020 39923 40200 57011 60006 80000 91200=
07280,1996-03-10 15:00:00,9,1018.5,-1.3,43,-3,12000,22.224,,,20,,,,,,,,,,,wg-a,,,,AAXX 10154 07280 12/62 00212 10090 21030 39910 40185 56013 60006 80000 91500=
07280,1996-03-10 18:00:00,6,1019.6,0.8,52,-3,12000,25.928,,,350,0.1,9.3,,,,,,,,,wg-a,,,,AAXX 10184 07280 12/62 03514 10060 21030 39918 40196 53008 60006 80000 91800 333 10093 20001=
07280,1996-03-10 21:00:00,2,1020.4,0.4,60,-5,10000,18.52,,,350,,,,,,,,,,,wg-a,,,,AAXX 10214 07280 12/60 03510 10020 21050 39922 40204 50004 60006 80000 92100=
07280,1996-03-11 03:00:00,0,1018.8,-0.8,55,-8,25000,22.224,,,340,,,,,,,,,,,wg-a,,,,AAXX 11034 07280 12/75 03412 10000 21080 39904 40188 56008 60006 80000 90300=
07280,1996-03-11 06:00:00,-2,1018.8,-0.2,63,-8,25000,18.52,,,340,-1.8,6.1,,,,,,,,,wg-a,,,,AAXX 11064 07280 12/75 03410 11020 21080 39902 40188 55002 60006 80000 90600 333 10061 21018=
07280,1996-03-11 09:00:00,3,1018.8,0.5,48,-7,18000,18.52,,,20,,,,,,,,,,,wg-a,,,,AAXX 11094 07280 12/68 10210 10030 21070 39907 40188 51005 60006 80001 90900=
07280,1996-03-11 12:00:00,7,1017.1,-1.2,31,-9,20000,14.816,,,20,,,,,,,,,,,wg-a,,,,AAXX 11124 07280 12/70 10208 10070 21090 39895 40171 58012 60006 80001 91200=
07280,1996-03-11 21:00:00,1,1015.1,0,55,-7,20000,11.112,,,280,,,,,,,,,,,wg-a,,,,AAXX 11214 07280 12/70 12806 10010 21070 39870 40151 50000 60006 80001 92100=
07280,1996-03-12 00:00:00,-1,1014.3,-1,64,-7,15000,14.816,,,360,,,,,,,,,,,wg-a,,,,AAXX 12004 07280 12/65 13608 11010 21070 39860 40143 58010 60006 80001 90000=
07280,1996-03-12 03:00:00,-4,1014.1,-0.5,80,-7,10000,14.816,,,340,,,,,,,,,,,wg-a,,,,AAXX 12034 07280 12/60 13408 11040 21070 39855 40141 58005 60006 80001 90300=
07280,1996-03-12 06:00:00,-5,1013.8,-0.5,73,-9,10000,14.816,,,340,-5.3,7,,,,,,,,,wg-a,,,,AAXX 12064 07280 12/60 13408 11050 21090 39850 40138 56005 60006 80001 90600 333 10070 21053=
07280,1996-03-12 09:00:00,-2,1013.3,-0.1,59,-9,14000,22.224,,,20,,,,,,,,,,,wg-a,,,,AAXX 12094 07280 12/64 60212 11020 21090 39849 40133 55001 60006 80009 90900=
07280,1996-03-12 12:00:00,2,1011.6,-1.3,35,-12,25000,22.224,,,20,,,,,,,,,,,wg-a,,,,AAXX 12124 07280 12/75 20212 10020 21120 39836 40116 57013 60006 80001 91200=
07280,1996-03-12 15:00:00,4,1009.6,-1.8,25,-14,500,22.224,,,40,,,,,,,,,,,wg-a,,,,AAXX 12154 07280 12/00 00412 10040 21140 39818 40096 56018 60006 80000 91500=
07280,1996-03-12 18:00:00,0,1009.3,-0.6,37,-13,500,18.52,,,60,-5.3,3.7,,,,,,,,,wg-a,,,,AAXX 12184 07280 12/00 10610 10000 21130 39812 40093 56006 60006 81030 91800 333 10037 21053=
07280,1996-03-12 21:00:00,-2,1009.5,0,46,-12,25000,18.52,,,40,,,,,,,,,,,wg-a,,,,AAXX 12214 07280 12/75 00410 11020 21120 39812 40095 50000 60006 80000 92100=
07280,1996-03-13 00:00:00,-4,1009,-0.7,58,-11,20000,18.52,,,20,,,,,,,,,,,wg-a,,,,AAXX 13004 07280 12/70 10210 11040 21110 39805 40090 57007 60006 80001 90000=
07280,1996-03-13 03:00:00,-4,1008.8,-0.2,58,-11,15000,18.52,,,30,,,,,,,,,,,wg-a,,,,AAXX 13034 07280 12/65 80310 11040 21110 39803 40088 56002 60006 8707/ 90300=
07280,1996-03-13 06:00:00,-4,1008.6,-0.2,58,-11,10000,22.224,,,40,-4.1,0.3,,,,,,,,,wg-a,,,,AAXX 13064 07280 12/60 80412 11040 21110 39801 40086 55002 60006 8707/ 90600 333 10003 21041=
07280,1996-03-13 09:00:00,-1,1007.7,-0.6,50,-10,10000,22.224,,,40,,,,,,,,,,,wg-a,,,,AAXX 13094 07280 12/60 40412 11010 21100 39795 40077 57006 60006 83031 90900=
07280,1996-03-13 12:00:00,3,1006.1,-1.2,44,-8,10000,22.224,,,30,,,,,,,,,,,wg-a,,,,AAXX 13124 07280 12/60 70312 10030 21080 39783 40061 58012 60006 80001 91200=
07280,1996-03-13 15:00:00,5,1004,-1.7,38,-8,15000,18.52,,,60,,,,,,,,,,,wg-a,,,,AAXX 13154 07280 12/65 60610 10050 21080 39766 40040 56017 60006 80001 91500=
07280,1996-03-13 18:00:00,3,1004.4,0.1,41,-9,12000,18.52,,,40,-4.1,5.9,,,,,,,,,wg-a,,,,AAXX 13184 07280 12/62 30410 10030 21090 39767 40044 53001 60006 80001 91800 333 10059 21041=
07280,1996-03-13 21:00:00,-1,1005.6,0.8,50,-10,10000,14.816,,,340,,,,,,,,,,,wg-a,,,,AAXX 13214 07280 12/60 03408 11010 21100 39775 40056 51008 60006 80000 92100=
07280,1996-03-14 00:00:00,-2,1006.1,0.4,54,-10,10000,14.816,,,340,,,,,,,,,,,wg-a,,,,AAXX 14004 07280 12/60 03408 11020 21100 39779 40061 51004 60006 80000 90000=
07280,1996-03-14 03:00:00,0,1005.8,-0.1,51,-9,10000,11.112,,,360,,,,,,,,,,,wg-a,,,,AAXX 14034 07280 12760 83606 10000 21090 39778 40058 58001 60006 875// 90300=
07280,1996-03-14 06:00:00,0,1006,0.1,59,-7,10000,7.408,,,350,-2,3.1,,,,,,,,,wg-a,,,,AAXX 14064 07280 12/60 73504 10000 21070 39779 40060 53001 60006 86031 90600 333 10031 21020=
07280,1996-03-14 09:00:00,4,1005.8,0.3,56,-4,7000,7.408,,,40,,,,,,,,,,,wg-a,,,,AAXX 14094 07280 12/57 /0404 10040 21040 39782 40058 53003 60006 80001 90900=
07280,1996-03-14 12:00:00,11,1004.9,-0.2,54,2,12000,14.816,,,150,,,,,,,,,,,wg-a,,,,AAXX 14124 07280 12662 71508 10110 20020 39780 40049 58002 60006 85532 91200=
07280,1996-03-14 15:00:00,10,1005.4,0.4,71,5,10000,14.816,,,190,,,,,,,,,,21,wg-a,,,,AAXX 14154 07280 02760 81908 10100 20050 39784 40054 51004 61000 72162 81502 91500 333 ////=
07280,1996-03-14 18:00:00,7,1006.4,0.7,93,6,3000,3.704,,25.928,140,-0.4,11,,,,,,,,10,wg-a,,,,AAXX 14184 07280 02/30 81402 10070 20060 39791 40064 52007 61000 71062 8807/ 91800 333 10110 21004 //// 91014=
07280,1996-03-14 21:00:00,6,1007.1,0.6,100,6,300,3.704,,,200,,,,2,,,,,,44,wg-a,,,,AAXX 14214 07280 12203 82002 10060 20060 39797 40071 51006 60027 74466 887// 92100=
07280,1996-03-15 00:00:00,6,1007,-0.1,93,5,1500,11.112,,,90,,,,1,,,,,,10,wg-a,,,,AAXX 15004 07280 02215 80906 10060 20050 39796 40070 55001 60026 71064 887// 90000 333 60017=
07280,1996-03-15 03:00:00,5,1007,-0.2,93,4,2500,7.408,,,20,,,,,,,,,,10,wg-a,,,,AAXX 15034 07280 12225 80204 10050 20040 39794 40070 58002 60006 71022 877// 90300=
07280,1996-03-15 06:00:00,4,1007,-0.1,87,2,3000,11.112,,,10,3.7,6.9,,,,,2,,,10,wg-a,,,,AAXX 15064 07280 12730 70106 10040 20020 39793 40070 57001 60024 71022 875// 90600 333 10069 20037=
07280,1996-03-15 09:00:00,5,1007.2,0.4,75,1,4500,7.408,,,20,,,,,,,,,,10,wg-a,,,,AAXX 15094 07280 12745 70204 10050 20010 39797 40072 53004 60006 71022 875// 90900=
07280,1996-03-15 12:00:00,10,1005.7,-1.1,57,2,4500,11.112,,,10,,,,,,,,,,10,wg-a,,,,AAXX 15124 07280 12745 70106 10100 20020 39786 40057 58011 60006 71022 8453/ 91200=
07280,1996-03-15 15:00:00,11,1004.5,-1,54,2,6000,7.408,,,40,,,,,,,,,,,wg-a,,,,AAXX 15154 07280 12756 70404 10110 20020 39776 40045 56010 60006 8357/ 91500=
07280,1996-03-15 18:00:00,8,1005.1,0.3,66,2,6000,7.408,,,20,3.6,11.1,,,,,,,,,wg-a,,,,AAXX 15184 07280 12/56 70204 10080 20020 39779 40051 53003 60006 85071 91800 333 10111 20036=
07280,1996-03-15 21:00:00,5,1005.3,0.2,81,2,6000,11.112,,,330,,,,,,,,,,,wg-a,,,,AAXX 15214 07280 12/56 43306 10050 20020 39779 40053 52002 60006 80001 92100=
07280,1996-03-16 00:00:00,3,1005.6,-0,81,0,7000,11.112,,,320,,,,,,,,,,,wg-a,,,,AAXX 16004 07280 12/57 03206 10030 20000 39779 40056 54000 60006 80000 90000=
07280,1996-03-16 03:00:00,0,1005.7,-0.2,93,-1,6000,7.408,,,320,,,,,,,,,,,wg-a,,,,AAXX 16034 07280 12/56 03204 10000 21010 39777 40057 58002 60006 80000 90300=
07280,1996-03-16 06:00:00,-2,1007,1.1,93,-3,3000,0,,,0,-2,8.2,,,,,,,,10,wg-a,,,,AAXX 16064 07280 12/30 00000 11020 21030 39788 40070 52011 60006 71000 80000 90600 333 10082 21020=
07280,1996-03-16 09:00:00,5,1007.4,1.1,75,1,3500,3.704,,,210,,,,,,,,,,10,wg-a,,,,AAXX 16094 07280 12/35 02102 10050 20010 39799 40074 51011 60006 71000 80000 90900=
07280,1996-03-16 12:00:00,11,1007,0.2,58,3,500,14.816,,,130,,,,,,,,,,,wg-a,,,,AAXX 16124 07280 12/00 31308 10110 20030 39801 40070 50002 60006 80001 91200=
07280,1996-03-16 15:00:00,13,1007.1,0.2,58,5,6000,25.928,,,300,,,,,,,,,,,wg-a,,,,AAXX 16154 07280 12756 73014 10130 20050 39803 40071 53002 60006 86501 91500=
07280,1996-03-16 18:00:00,9,1010,2.5,76,5,6000,29.632,,,290,-2.3,13.6,,,,,,,,,wg-a,,,,AAXX 16184 07280 12756 82916 10090 20050 39828 40100 52025 60006 875// 91800 333 10136 21023=
07280,1996-03-16 21:00:00,7,1012.7,2.5,81,4,8000,14.816,,,300,,,,,,,,,,,wg-a,,,,AAXX 16214 07280 12758 83008 10070 20040 39853 40127 53025 60006 875// 92100=
07280,1996-03-17 00:00:00,7,1013.8,1,81,4,9000,7.408,,,280,,,,,,,,,,60,wg-a,,,,AAXX 17004 07280 02659 82804 10070 20040 39863 40138 53010 61000 76062 885// 90000 333 6100=
07280,1996-03-17 03:00:00,6,1014.6,0.7,93,5,6000,7.408,,,290,,,,1,,,,,,60,wg-a,,,,AAXX 17034 07280 12656 82904 10060 20050 39870 40146 51007 60017 76062 885// 90300=
07280,1996-03-17 06:00:00,6,1015.7,1.1,93,5,3000,3.704,,22.224,340,5.9,8.9,,1,,,2,,,10,wg-a,,,,AAXX 17064 07280 02430 83402 10060 20050 39881 40157 53011 60024 71065 886// 90600 333 10089 20059 60017 91012=
07280,1996-03-17 09:00:00,6,1016.6,0.9,93,5,1500,11.112,,,340,,,,,,,,,,10,wg-a,,,,AAXX 17094 07280 02415 83406 10060 20050 39890 40166 53009 61000 71065 885// 90900 333 ////=
07280,1996-03-17 12:00:00,7,1017.3,0.7,81,4,2000,14.816,,,10,,,,,,,,,,10,wg-a,,,,AAXX 17124 07280 02320 80108 10070 20040 39897 40173 51007 61000 71065 877// 91200 333 6100=
07280,1996-03-17 15:00:00,8,1016.8,-0.4,76,4,4500,14.816,,,320,,,,0,,,,,,10,wg-a,,,,AAXX 17154 07280 12445 83208 10080 20040 39893 40168 57004 60007 71066 875// 91500=
07280,1996-03-17 18:00:00,7,1017.5,0.6,81,4,500,7.408,,,350,5.9,8.1,,,,,,,,3,wg-a,,,,AAXX 17184 07280 02500 83504 10070 20040 39899 40175 53006 61000 70362 885// 91800 333 10081 20059 ////=
07280,1996-03-17 21:00:00,6,1018,0.4,81,3,7000,7.408,,,320,,,,,,,,,,21,wg-a,,,,AAXX 17214 07280 02557 83204 10060 20030 39903 40180 51004 61000 72162 8557/ 92100 333 ////=
07280,1996-03-18 00:00:00,5,1018.5,0.3,87,3,500,3.704,,,320,,,,,,,,,,3,wg-a,,,,AAXX 18004 07280 02400 83202 10050 20030 39906 40185 51003 61000 70362 875// 90000 333 ////=
07280,1996-03-18 03:00:00,3,1017.9,-0.7,93,2,3500,3.704,,,360,,,,,,,,,,10,wg-a,,,,AAXX 18034 07280 12535 73602 10030 20020 39899 40179 58007 60006 71022 8557/ 90300=
07280,1996-03-18 06:00:00,2,1018.6,0.6,93,1,2500,3.704,,,10,2,7.3,,,,,,,,10,wg-a,,,,AAXX 18064 07280 12725 70102 10020 20010 39905 40186 53006 60004 71022 81571 90600 333 10073 20020=
07280,1996-03-18 09:00:00,5,1018.9,0.6,81,2,3000,3.704,,,50,,,,,,,,,,10,wg-a,,,,AAXX 18094 07280 12430 70502 10050 20020 39911 40189 51006 60006 71022 8263/ 90900=
07280,1996-03-18 12:00:00,10,1017.6,-0.8,57,2,4000,11.112,,,40,,,,,,,,,,10,wg-a,,,,AAXX 18124 07280 12640 /0406 10100 20020 39903 40176 58008 60006 71022 82530 91200=
07280,1996-03-18 15:00:00,11,1016.3,-1.2,50,1,7000,7.408,,,300,,,,,,,,,,,wg-a,,,,AAXX 18154 07280 12757 /3004 10110 20010 39891 40163 56012 60006 82530 91500=
07280,1996-03-18 18:00:00,10,1017,0.6,53,1,8000,11.112,,,360,1.4,11.6,,,,,,,,,wg-a,,,,AAXX 18184 07280 12758 73606 10100 20010 39897 40170 53006 60006 8653/ 91800 333 10116 20014=
07280,1996-03-18 21:00:00,6,1018.1,0.7,65,0,10000,11.112,,,360,,,,,,,,,,,wg-a,,,,AAXX 18214 07280 12/60 53606 10060 20000 39904 40181 51007 60006 82031 92100=
07280,1996-03-19 00:00:00,6,1017.9,-0.2,70,1,8000,7.408,,,330,,,,,,,,,,,wg-a,,,,AAXX 19004 07280 12758 83304 10060 20010 39902 40179 55002 60006 8257/ 90000=
07280,1996-03-19 03:00:00,6,1017,-0.9,70,1,7000,11.112,,,360,,,,,,,,,,,wg-a,,,,AAXX 19034 07280 12757 83606 10060 20010 39893 40170 56009 60006 8357/ 90300=
07280,1996-03-19 06:00:00,5,1016.5,-0.5,81,2,3000,11.112,,,350,4.9,9.9,,,,,,,,10,wg-a,,,,AAXX 19064 07280 12730 83506 10050 20020 39888 40165 55005 60006 71022 8557/ 90600 333 10099 20049=
07280,1996-03-19 09:00:00,8,1016.3,-0,71,3,4000,14.816,,,10,,,,,,,,,,10,wg-a,,,,AAXX 19094 07280 12740 70108 10080 20030 39888 40163 55000 60006 71022 8253/ 90900=
07280,1996-03-19 12:00:00,11,1014,-1.9,58,3,4500,14.816,,,40,,,,,,,,,,10,wg-a,,,,AAXX 19124 07280 12/45 70408 10110 20030 39869 40140 58019 60006 71022 8703/ 91200=
07280,1996-03-19 15:00:00,13,1011.9,-1.9,51,3,7000,7.408,,,100,,,,,,,,,,,wg-a,,,,AAXX 19154 07280 12/57 21004 10130 20030 39850 40119 56019 60006 82030 91500=
07280,1996-03-19 18:00:00,11,1011.3,-0.8,58,3,6000,11.112,,,40,5.3,13.2,,,,,,,,,wg-a,,,,AAXX 19184 07280 12/56 40406 10110 20030 39842 40113 56008 60006 83031 91800 333 10132 20053=
07280,1996-03-19 21:00:00,8,1011.2,-0.4,66,2,6000,11.112,,,20,,,,,,,,,,,wg-a,,,,AAXX 19214 07280 12/56 /0206 10080 20020 39838 40112 58004 60006 85030 92100=
07280,1996-03-20 00:00:00,5,1011.4,-0.1,81,2,500,11.112,,,350,,,,,,,,,,,wg-a,,,,AAXX 20004 07280 12/00 /3506 10050 20020 39837 40114 58001 60006 81030 90000=
07280,1996-03-20 03:00:00,3,1010.7,-0.8,87,1,4000,7.408,,,360,,,,,,,,,,10,wg-a,,,,AAXX 20034 07280 12/40 03604 10030 20010 39829 40107 58008 60006 71000 80000 90300=
07280,1996-03-20 06:00:00,1,1010.8,-0.1,86,-1,2500,3.704,,,10,0.9,10.4,,,,,,,,10,wg-a,,,,AAXX 20064 07280 12/25 20102 10010 21010 39828 40108 58001 60006 71000 80001 90600 333 10104 20009=
07280,1996-03-20 09:00:00,8,1010.3,0.2,76,4,4000,11.112,,,190,,,,,,,,,,10,wg-a,,,,AAXX 20094 07280 12/40 51906 10080 20040 39830 40103 51002 60006 71011 85030 90900=
07280,1996-03-20 12:00:00,11,1010.3,0.3,62,4,9000,22.224,,,200,,,,,,,,,,,wg-a,,,,AAXX 20124 07280 12559 82012 10110 20040 39833 40103 52003 60006 8157/ 91200=
07280,1996-03-20 15:00:00,11,1010.2,0.1,62,4,15000,7.408,,,200,,,,,,,,,,21,wg-a,,,,AAXX 20154 07280 02565 82004 10110 20040 39832 40102 50001 61000 72162 888// 91500 333 ////=
07280,1996-03-20 18:00:00,9,1011.7,1.2,81,6,10000,11.112,,,200,0.2,11.8,,0,,,,,,60,wg-a,,,,AAXX 20184 07280 12660 82006 10090 20060 39844 40117 51012 60007 76062 8657/ 91800 333 10118 20002=
07280,1996-03-20 21:00:00,5,1012.9,0.9,93,4,12000,11.112,,,200,,,,,,,,,,1,wg-a,,,,AAXX 20214 07280 32/62 02006 10050 20040 39853 40129 51009 70161 80000 92100=
07280,1996-03-21 00:00:00,1,1013.9,0.5,100,1,400,3.704,,,180,,,,,,,,,,44,wg-a,,,,AAXX 21004 07280 02/04 01802 10010 20010 39858 40139 51005 61000 74464 80000 90000 333 ////=
07280,1996-03-21 03:00:00,4,1013.5,-0.1,100,4,200,3.704,,,270,,,,,,,,,,44,wg-a,,,,AAXX 21034 07280 12102 82702 10040 20040 39857 40135 58001 60006 74444 886// 90300=
07280,1996-03-21 06:00:00,4,1013.3,-0.2,93,3,100,3.704,,,310,1,8.8,,,,,,,,45,wg-a,,,,AAXX 21064 07280 12/01 93102 10040 20030 39855 40133 56002 60004 74544 89/// 90600 333 10088 20010=
07280,1996-03-21 09:00:00,6,1013.2,0.1,100,6,1500,7.408,,,180,,,,,,,,,,28,wg-a,,,,AAXX 21094 07280 12215 91804 10060 20060 39856 40132 52001 60006 72842 896// 90900=
07280,1996-03-21 12:00:00,11,1012.4,-0.3,82,8,7000,18.52,,,190,,,,,,,,,,21,wg-a,,,,AAXX 21124 07280 02457 71910 10110 20080 39853 40124 56003 61000 72164 82831 91200 333 6100=
07280,1996-03-21 15:00:00,10,1012.3,-0.1,87,8,8000,25.928,,,240,,,,3,,,,,,17,wg-a,,,,AAXX 21154 07280 12458 82414 10100 20080 39852 40123 55001 60037 71798 8392/ 91500=
07280,1996-03-21 18:00:00,12,1013.1,0.9,67,6,20000,11.112,,,230,3.5,12.7,,,,,,,,3,wg-a,,,,AAXX 21184 07280 32570 82306 10120 20060 39861 40131 53009 70398 8212/ 91800 333 10127 20035=
07280,1996-03-21 21:00:00,8,1014.5,1,87,6,20000,3.704,,,250,,,,,,,,,,,wg-a,,,,AAXX 21214 07280 12570 82502 10080 20060 39871 40145 53010 60006 8317/ 92100=
07280,1996-03-22 00:00:00,7,1015.9,1.2,87,5,20000,3.704,,,250,,,,,,,,,,,wg-a,,,,AAXX 22004 07280 12570 72502 10070 20050 39883 40159 53012 60006 81572 90000=
07280,1996-03-22 06:00:00,6,1017.4,0.8,100,6,20000,3.704,,,170,6.1,12.1,,,,,3,,,,wg-a,,,,AAXX 22064 07280 02570 81702 10060 20060 39897 40174 51008 60006 8117/ 90600 333 10121 20061 60034=
07280,1996-03-22 09:00:00,8,1019,1.8,93,7,15000,14.816,,,210,,,,0,,,,,,61,wg-a,,,,AAXX 22094 07280 12465 82108 10080 20070 39915 40190 52018 60007 76162 8487/ 90900=
07280,1996-03-22 12:00:00,9,1019.5,0.5,87,7,12000,7.408,,,180,,,,1,,,,,,61,wg-a,,,,AAXX 22124 07280 02462 81804 10090 20070 39920 40195 51005 60016 76162 8487/ 91200 333 60017=
07280,1996-03-22 15:00:00,9,1018.7,-0.7,100,9,12000,11.112,,,190,,,,1,,,,,,21,wg-a,,,,AAXX 22154 07280 12362 81906 10090 20090 39913 40187 58007 60017 72165 877// 91500=
07280,1996-03-22 18:00:00,10,1018.2,-0.4,93,9,10000,3.704,,,150,6.2,10.6,,,,,,,,11,wg-a,,,,AAXX 22184 07280 32/60 71502 10100 20090 39909 40182 56004 71162 83072 91800 333 10106 20062=
07280,1996-03-22 21:00:00,7,1018.6,-0,93,6,2000,7.408,,,240,,,,,,,,,,28,wg-a,,,,AAXX 22214 07280 12720 72404 10070 20060 39909 40186 55000 60006 72841 875// 92100=
07280,1996-03-23 00:00:00,7,1018.8,0.3,100,7,3000,3.704,,,90,,,,,,,,,,10,wg-a,,,,AAXX 23004 07280 12730 20902 10070 20070 39912 40188 53003 60006 71041 82500 90000=
07280,1996-03-23 03:00:00,3,1018.7,-0.5,100,3,1000,3.704,,,320,,,,,,,,,,10,wg-a,,,,AAXX 23034 07280 12/10 03202 10030 20030 39907 40187 58005 60006 71000 80000 90300=
07280,1996-03-23 06:00:00,2,1019.8,0.9,100,2,300,3.704,,,10,1.9,9.6,,,,,2,,,42,wg-a,,,,AAXX 23064 07280 02/03 60102 10020 20020 39916 40198 53009 60006 74241 81031 90600 333 10096 20019 60024=
07280,1996-03-23 09:00:00,9,1019.7,0.7,100,9,500,0,,,0,,,,,,,,,,28,wg-a,,,,AAXX 23094 07280 12200 20000 10090 20090 39923 40197 51007 60006 72841 81601 90900=
07280,1996-03-23 12:00:00,17,1017.7,-1.2,68,11,10000,7.408,,,130,,,,,,,,,,3,wg-a,,,,AAXX 23124 07280 12560 /1304 10170 20110 39911 40177 58012 60006 70341 81101 91200=
07280,1996-03-23 15:00:00,21,1015.8,-1.6,46,9,25000,11.112,,,170,,,,,,,,,,,wg-a,,,,AAXX 23154 07280 12/75 41706 10210 20090 39895 40158 56016 60006 80001 91500=
07280,1996-03-23 18:00:00,17,1015.7,-0.4,59,9,25000,3.704,,,120,2,21,,,,,,,,,wg-a,,,,AAXX 23184 07280 12/75 61202 10170 20090 39891 40157 56004 60006 80001 91800 333 10210 20020=
07280,1996-03-23 21:00:00,10,1016.8,0.4,82,7,20000,7.408,,,320,,,,,,,,,,,wg-a,,,,AAXX 23214 07280 12/70 63204 10100 20070 39895 40168 53004 60006 80002 92100=
07280,1996-03-24 00:00:00,8,1017.9,0.8,87,6,15000,0,,,0,,,,,,,,,,,wg-a,,,,AAXX 24004 07280 12/65 00000 10080 20060 39903 40179 52008 60006 80000 90000=
07280,1996-03-24 03:00:00,9,1018.1,0.4,87,7,7000,11.112,,,200,,,,,,,,,,,wg-a,,,,AAXX 24034 07280 12/57 02006 10090 20070 39907 40181 51004 60006 80000 90300=
07280,1996-03-24 06:00:00,5,1020,1.4,93,4,3500,7.408,,,150,4.6,16.6,,,,,,,,10,wg-a,,,,AAXX 24064 07280 12/35 41504 10050 20040 39921 40200 53014 60006 71000 81032 90600 333 10166 20046=
07280,1996-03-24 09:00:00,13,1019.8,0.6,77,9,8000,18.52,,,200,,,,,,,,,,,wg-a,,,,AAXX 24094 07280 12458 /2010 10130 20090 39927 40198 53006 60006 81601 90900=
07280,1996-03-24 12:00:00,18,1018.8,-0.5,52,8,15000,11.112,,,160,,,,,,,,,,,wg-a,,,,AAXX 24124 07280 12/65 11606 10180 20080 39922 40188 58005 60006 80001 91200=
07280,1996-03-24 15:00:00,20,1017.6,-1,46,8,18000,11.112,,,170,,,,,,,,,,,wg-a,,,,AAXX 24154 07280 12/68 71706 10200 20080 39912 40176 56010 60006 80001 91500=
07280,1996-03-24 21:00:00,12,1018.4,-0.2,76,8,20000,3.704,,,330,,,,,,,,,,,wg-a,,,,AAXX 24214 07280 12/70 33302 10120 20080 39912 40184 56002 60006 81031 92100=
07280,1996-03-25 00:00:00,12,1018.4,-0.2,76,8,20000,3.704,,,330,,,,,,,,,,,wg-a,,,,AAXX 25004 07280 12/70 33302 10120 20080 39912 40184 56002 60006 81031 90000=
07280,1996-03-25 03:00:00,9,1015.6,-1.8,87,7,8000,11.112,,,350,,,,,,,,,,,wg-a,,,,AAXX 25034 07280 12/58 23506 10090 20070 39882 40156 56018 60006 80001 90300=
07280,1996-03-25 06:00:00,8,1016.3,0.7,93,7,4000,3.704,,,360,7.9,16.5,,,,,,,,10,wg-a,,,,AAXX 25064 07280 12740 73602 10080 20070 39889 40163 51007 60006 71011 878// 90600 333 10165 20079=
07280,1996-03-25 09:00:00,14,1015.6,-0.2,77,10,7000,14.816,,,200,,,,0,,,,,,1,wg-a,,,,AAXX 25094 07280 12757 /2008 10140 20100 39887 40156 58002 60007 70162 83530 90900=
07280,1996-03-25 12:00:00,18,1014.5,-0.7,56,9,10000,22.224,,,200,,,,,,,,,,,wg-a,,,,AAXX 25124 07280 12760 72012 10180 20090 39880 40145 58007 60006 8658/ 91200=
07280,1996-03-25 15:00:00,19,1013.2,-1.1,56,10,20000,3.704,,,40,,,,,,,,,,,wg-a,,,,AAXX 25154 07280 12870 60402 10190 20100 39869 40132 58011 60006 85230 91500=
07280,1996-03-25 18:00:00,17,1013.3,-0.1,63,10,25000,7.408,,,260,7.9,19.8,,,,,,,,,wg-a,,,,AAXX 25184 07280 32875 62604 10170 20100 39868 40133 55001 86500 91800 333 10198 20079=
07280,1996-03-25 21:00:00,13,1013.6,-0.1,77,9,25000,0,,,0,,,,,,,,,,,wg-a,,,,AAXX 25214 07280 12775 20000 10130 20090 39867 40136 58001 60006 81501 92100=
07280,1996-03-26 00:00:00,10,1013.7,-0.2,87,8,20000,7.408,,,280,,,,,,,,,,,wg-a,,,,AAXX 26004 07280 12770 52804 10100 20080 39865 40137 58002 60006 85500 90000=
07280,1996-03-26 03:00:00,11,1012.8,-0.8,87,9,20000,3.704,,,300,,,,,,,,,,,wg-a,,,,AAXX 26034 07280 12770 33002 10110 20090 39857 40128 56008 60006 83500 90300=
07280,1996-03-26 06:00:00,7,1012.8,-0.3,100,7,12000,3.704,,,260,6.9,17.3,,,,,,,,,wg-a,,,,AAXX 26064 07280 02762 52602 10070 20070 39854 40128 56003 60006 835/1 90600 333 10173 20069 60004=
07280,1996-03-26 09:00:00,16,1011.6,-0.4,77,12,12000,0,,,0,,,,,,,,,,,wg-a,,,,AAXX 26094 07280 12562 20000 10160 20120 39850 40116 58004 60006 81101 90900=
07280,1996-03-26 12:00:00,18,1009.5,-1.9,56,9,20000,3.704,,,220,,,,,,,,,,,wg-a,,,,AAXX 26124 07280 12670 /2202 10180 20090 39831 40095 57019 60006 85200 91200=
07280,1996-03-26 15:00:00,19,1007.9,-1.7,46,7,25000,11.112,,,310,,,,,,,,,,,wg-a,,,,AAXX 26154 07280 32675 /3106 10190 20070 39814 40079 58017 85300 91500=
07280,1996-03-26 18:00:00,16,1007.4,-0.5,59,8,15000,22.224,,,330,7.3,21,,,,,,,,,wg-a,,,,AAXX 26184 07280 12765 73312 10160 20080 39809 40074 58005 60006 854/3 91800 333 10210 20073=
07280,1996-03-26 21:00:00,13,1009.6,1.9,72,8,7000,14.816,,,10,,,,,,,,,,,wg-a,,,,AAXX 26214 07280 32557 80108 10130 20080 39828 40096 52019 8583/ 92100=
07280,1996-03-27 00:00:00,11,1009.8,0.2,82,8,7000,18.52,,,340,,,,,,,,,,,wg-a,,,,AAXX 27004 07280 12657 83410 10110 20080 39828 40098 51002 60006 8553/ 90000=
07280,1996-03-27 03:00:00,7,1011.3,1,81,4,7000,31.484,,,20,,,,,,,,,,3,wg-a,,,,AAXX 27034 07280 02457 80217 10070 20040 39838 40113 53010 61000 70362 878// 90300 333 ////=
07280,1996-03-27 06:00:00,5,1013.3,1.8,81,2,9000,31.484,,,20,4.5,15.9,,,,,,,,3,wg-a,,,,AAXX 27064 07280 02459 80217 10050 20020 39856 40133 53018 61000 70362 878// 90600 333 10159 20045 ////=
07280,1996-03-27 09:00:00,4,1015.3,1.8,75,0,12000,29.632,,,20,,,,,,,,,,,wg-a,,,,AAXX 27094 07280 12462 80216 10040 20000 39874 40153 51018 60006 885// 90900=
07280,1996-03-27 12:00:00,3,1017,1.6,81,0,6000,29.632,,,20,,,,,,,,,,,wg-a,,,,AAXX 27124 07280 12456 80216 10030 20000 39890 40170 51016 60006 885// 91200=
07280,1996-03-27 15:00:00,5,1016.9,0.1,70,0,8000,25.928,,,20,,,,,,,,,,,wg-a,,,,AAXX 27154 07280 12458 80214 10050 20000 39891 40169 50001 60006 885// 91500=
07280,1996-03-27 18:00:00,5,1017.7,0.7,65,-1,7000,25.928,,,30,2.9,5.1,,,,,,,,,wg-a,,,,AAXX 27184 07280 12457 80314 10050 21010 39898 40177 53007 60006 885// 91800 333 10051 20029=
07280,1996-03-27 21:00:00,3,1018.7,0.8,65,-3,9000,18.52,,,10,,,,,,,,,,,wg-a,,,,AAXX 27214 07280 12559 70110 10030 21030 39906 40187 51008 60006 875// 92100=
07280,1996-03-28 00:00:00,-1,1018.6,-0.4,80,-4,10000,14.816,,,10,,,,,,,,,,,wg-a,,,,AAXX 28004 07280 12/60 10108 11010 21040 39902 40186 56004 60006 81030 90000=
07280,1996-03-28 03:00:00,-1,1017.5,-1.1,74,-5,10000,18.52,,,360,,,,,,,,,,,wg-a,,,,AAXX 28034 07280 12/60 03610 11010 21050 39891 40175 58011 60006 80000 90300=
07280,1996-03-28 06:00:00,-2,1017.7,-0,80,-5,15000,11.112,,,350,-2.6,4.6,,,,,,,,,wg-a,,,,AAXX 28064 07280 12/65 03506 11020 21050 39891 40177 55000 60006 80000 90600 333 10046 21026=
07280,1996-03-28 09:00:00,5,1017.5,0.5,52,-4,40000,7.408,,,80,,,,,,,,,,,wg-a,,,,AAXX 28094 07280 12582 20804 10050 21040 39896 40175 50005 60006 81101 90900=
07280,1996-03-28 12:00:00,8,1016.1,-1,39,-5,40000,7.408,,,250,,,,,,,,,,,wg-a,,,,AAXX 28124 07280 12782 52504 10080 21050 39886 40161 58010 60006 81102 91200=
07280,1996-03-28 15:00:00,10,1014.5,-1.4,32,-6,40000,11.112,,,300,,,,,,,,,,,wg-a,,,,AAXX 28154 07280 12782 53006 10100 21060 39872 40145 56014 60006 81102 91500=
07280,1996-03-28 18:00:00,7,1015.3,0.5,39,-6,35000,14.816,,,300,-2.5,10.5,,,,,,,,,wg-a,,,,AAXX 28184 07280 12881 43008 10070 21060 39877 40153 53005 60006 81031 91800 333 10105 21025=
07280,1996-03-29 03:00:00,0,1016.5,-0.6,74,-4,15000,7.408,,,310,,,,,,,,,,,wg-a,,,,AAXX 29034 07280 12765 83104 10000 21040 39882 40165 57006 60006 885// 90300=
07280,1996-03-29 06:00:00,-2,1017.4,0.6,80,-5,10000,11.112,,,290,-2.6,7,,,,,,,,,wg-a,,,,AAXX 29064 07280 12760 22906 11020 21050 39888 40174 53006 60006 82500 90600 333 10070 21026=
07280,1996-03-29 09:00:00,3,1017.7,0.9,70,-2,7000,3.704,,,80,,,,,,,,,,22,wg-a,,,,AAXX 29094 07280 02557 80802 10030 21020 39897 40177 51009 61000 72222 8557/ 90900 333 ////=
07280,1996-03-29 12:00:00,5,1017,-0.5,75,1,12000,11.112,,,200,,,,,,,,,,60,wg-a,,,,AAXX 29124 07280 02562 82006 10050 20010 39892 40170 58005 61000 76071 878// 91200 333 6100=
07280,1996-03-29 15:00:00,7,1014.9,-1.8,61,0,20000,14.816,,,170,,,,,,,,,,3,wg-a,,,,AAXX 29154 07280 02570 71708 10070 20000 39874 40149 57018 61000 70362 878// 91500 333 ////=
07280,1996-03-29 18:00:00,6,1015.1,-0,65,0,20000,7.408,,,360,-2.3,7.6,,,,,,,,61,wg-a,,,,AAXX 29184 07280 02570 83604 10060 20000 39874 40151 55000 61000 76162 888// 91800 333 10076 21023 ////=
07280,1996-03-29 21:00:00,3,1015.1,-0.2,93,2,9000,3.704,,,240,,,,1,,,,,,21,wg-a,,,,AAXX 29214 07280 12559 /2402 10030 20020 39872 40151 58002 60017 72162 85500 92100=
07280,1996-03-30 00:00:00,3,1014.4,-0.8,93,2,9000,7.408,,,330,,,,,,,,,,60,wg-a,,,,AAXX 30004 07280 02559 83304 10030 20020 39864 40144 58008 60016 76062 875// 90000 333 61000=
07280,1996-03-30 03:00:00,2,1013.7,-0.7,93,1,7000,7.408,,,360,,,,0,,,,,,3,wg-a,,,,AAXX 30034 07280 12557 83604 10020 20010 39857 40137 58007 60007 70362 875// 90300=
07280,1996-03-30 06:00:00,1,1014.3,0.4,93,0,6000,14.816,,,10,0.2,5.6,,,,,1,,,1,wg-a,,,,AAXX 30064 07280 12/56 30108 10010 20000 39861 40143 53004 60014 70161 83030 90600 333 10056 20002=
07280,1996-03-30 09:00:00,4,1014.7,0.8,70,-1,8000,14.816,,,50,,,,,,,,,,,wg-a,,,,AAXX 30094 07280 12458 30508 10040 21010 39869 40147 52008 60006 83200 90900=
07280,1996-03-30 12:00:00,6,1015.3,0.7,52,-3,15000,22.224,,,350,,,,,,,,,,,wg-a,,,,AAXX 30124 07280 12665 /3512 10060 21030 39876 40153 53007 60006 86200 91200=
07280,1996-03-30 15:00:00,6,1015.3,0,49,-4,25000,14.816,,,350,,,,,,,,,,,wg-a,,,,AAXX 30154 07280 12575 73508 10060 21040 39876 40153 50000 60006 872// 91500=
07280,1996-03-30 18:00:00,4,1017,1.4,56,-4,20000,18.52,,,340,0.4,6.7,,,,,,,,,wg-a,,,,AAXX 30184 07280 12670 /3410 10040 21040 39890 40170 53014 60006 81400 91800 333 10067 20004=
07280,1996-03-30 21:00:00,1,1018.5,1.2,75,-3,15000,7.408,,,360,,,,,,,,,,,wg-a,,,,AAXX 30214 07280 12/65 43604 10010 21030 39902 40185 51012 60006 84030 92100=
07280,1996-03-31 00:00:00,-1,1019.1,0.4,80,-4,15000,7.408,,,320,,,,,,,,,,,wg-a,,,,AAXX 31004 07280 12/65 03204 11010 21040 39906 40191 51004 60006 80000 90000=
07280,1996-03-31 03:00:00,-3,1018.6,-0.6,80,-6,12000,7.408,,,350,,,,,,,,,,,wg-a,,,,AAXX 31034 07280 12/62 03504 11030 21060 39900 40186 56006 60006 80000 90300=
07280,1996-03-31 06:00:00,-3,1018.9,0.3,86,-5,10000,7.408,,,350,-4.5,3.7,,,,,,,,,wg-a,,,,AAXX 31064 07280 12/60 03504 11030 21050 39903 40189 52003 60006 80000 90600 333 10037 21045=
07280,1996-03-31 09:00:00,4,1018.4,0.1,56,-4,15000,11.112,,,50,,,,,,,,,,,wg-a,,,,AAXX 31094 07280 12565 /0506 10040 21040 39904 40184 50001 60006 81101 90900=
07280,1996-03-31 12:00:00,6,1016.7,-1.4,36,-8,25000,14.816,,,50,,,,,,,,,,,wg-a,,,,AAXX 31124 07280 12675 80508 10060 21080 39890 40167 58014 60006 81102 91200=
07280,1996-03-31 15:00:00,8,1014.1,-2.4,36,-6,25000,3.704,,,60,,,,,,,,,,,wg-a,,,,AAXX 31154 07280 12/75 70602 10080 21060 39866 40141 57024 60006 80002 91500=
07280,1996-03-31 18:00:00,5,1013.5,-0.9,45,-6,35000,7.408,,,90,-2.8,7.7,,,,,,,,,wg-a,,,,AAXX 31184 07280 12/81 70904 10050 21060 39857 40135 56009 60006 80002 91800 333 10077 21028=
07280,1996-03-31 21:00:00,3,1012.6,-1,52,-6,20000,7.408,,,340,,,,,,,,,,,wg-a,,,,AAXX 31214 07280 12/70 73404 10030 21060 39847 40126 57010 60006 80002 92100=
07280,1996-04-01 00:00:00,1,1011.7,-1.1,59,-6,20000,14.816,,,20,,,,,,,,,,,wg-a,,,,AAXX 01004 07280 12/70 70208 10010 21060 39836 40117 56011 60006 80002 90000=
07280,1996-04-01 03:00:00,1,1009.8,-1.8,64,-5,20000,14.816,,,20,,,,,,,,,,,wg-a,,,,AAXX 01034 07280 12/70 80208 10010 21050 39818 40098 58018 60006 85031 90300=
07280,1996-04-01 06:00:00,0,1008.8,-1.1,69,-5,20000,18.52,,,10,-0.2,4.8,,,,,,,,,wg-a,,,,AAXX 01064 07280 12/70 60110 10000 21050 39807 40088 56011 60006 84031 90600 333 10048 21002=
07280,1996-04-01 09:00:00,4,1007.7,-0.6,52,-5,25000,22.224,,,50,,,,,,,,,,,wg-a,,,,AAXX 01094 07280 12/75 60512 10040 21050 39801 40077 58006 60006 84031 90900=
07280,1996-04-01 12:00:00,9,1005.1,-2.1,40,-4,20000,22.224,,,40,,,,,,,,,,,wg-a,,,,AAXX 01124 07280 12/70 70412 10090 21040 39780 40051 56021 60006 81033 91200=
07280,1996-04-01 15:00:00,10,1003.2,-1.8,34,-5,20000,22.224,,,50,,,,,,,,,,,wg-a,,,,AAXX 01154 07280 12/70 80512 10100 21050 39762 40032 56018 60006 80002 91500=
07280,1996-04-01 21:00:00,5,1006.3,1.9,52,-4,20000,22.224,,,20,,,,,,,,,,,wg-a,,,,AAXX 01214 07280 12/70 70212 10050 21040 39787 40063 51019 60006 85071 92100=
07280,1996-04-02 00:00:00,3,1007.3,0.8,56,-5,15000,22.224,,,20,,,,,,,,,,,wg-a,,,,AAXX 02004 07280 12/65 70212 10030 21050 39795 40073 53008 60006 80002 90000=
07280,1996-04-02 03:00:00,1,1008.6,1.1,55,-7,15000,25.928,,,10,,,,,,,,,,,wg-a,,,,AAXX 02034 07280 12/65 70114 10010 21070 39806 40086 53011 60006 80001 90300=
07280,1996-04-02 06:00:00,0,1010.9,2.1,59,-7,20000,22.224,,,10,-0.5,7.7,,,,,,,,,wg-a,,,,AAXX 02064 07280 12/70 30112 10000 21070 39827 40109 53021 60006 80001 90600 333 10077 21005=
07280,1996-04-02 09:00:00,5,1012.6,2.2,41,-7,20000,31.484,,,30,,,,,,,,,,,wg-a,,,,AAXX 02094 07280 12/70 20317 10050 21070 39849 40126 51022 60006 80001 90900=
07280,1996-04-02 12:00:00,8,1012.9,0.5,23,-12,20000,31.484,,,20,,,,,,,,,,,wg-a,,,,AAXX 02124 07280 12/70 10217 10080 21120 39854 40129 51005 60006 80001 91200=
07280,1996-04-02 15:00:00,9,1013.2,0.4,21,-12,25000,35.188,,,30,,,,,,,,,,,wg-a,,,,AAXX 02154 07280 12/75 00319 10090 21120 39858 40132 53004 60006 80000 91500=
07280,1996-04-02 18:00:00,6,1015.6,2.1,33,-9,20000,25.928,,,20,-0.4,9.4,,,,,,,,,wg-a,,,,AAXX 02184 07280 12/70 10214 10060 21090 39879 40156 53021 60006 80001 91800 333 10094 21004=
07280,1996-04-02 21:00:00,3,1017.8,1.8,44,-8,20000,25.928,,,350,,,,,,,,,,,wg-a,,,,AAXX 02214 07280 12/70 13514 10030 21080 39897 40178 51018 60006 81030 92100=
07280,1996-04-03 00:00:00,1,1018.2,0.2,51,-8,20000,25.928,,,10,,,,,,,,,,,wg-a,,,,AAXX 03004 07280 12/70 00114 10010 21080 39899 40182 51002 60006 80000 90000=
07280,1996-04-03 03:00:00,0,1018.1,-0.2,59,-7,20000,25.928,,,10,,,,,,,,,,,wg-a,,,,AAXX 03034 07280 12/70 00114 10000 21070 39897 40181 57002 60006 80000 90300=
07280,1996-04-03 06:00:00,-1,1019.2,1,74,-5,8000,25.928,,,10,-1,6.1,,,,,,,,,wg-a,,,,AAXX 03064 07280 12/58 30114 11010 21050 39907 40192 53010 60006 83030 90600 333 10061 21010=
07280,1996-04-03 09:00:00,4,1019.5,0.8,60,-3,9000,31.484,,,20,,,,,,,,,,,wg-a,,,,AAXX 03094 07280 12559 40217 10040 21030 39915 40195 51008 60006 82130 90900=
07280,1996-04-03 12:00:00,7,1019.3,-0.1,39,-6,12000,38.892,,61.116,30,,,,,,,,,,,wg-a,,,,AAXX 03124 07280 12662 /0321 10070 21060 39916 40193 55001 60006 84200 91200 333 91033=
07280,1996-04-03 15:00:00,8,1020,0.8,34,-7,15000,35.188,,53.708,30,,,,,,,,,,,wg-a,,,,AAXX 03154 07280 12765 70319 10080 21070 39924 40200 53008 60006 81132 91500 333 91029=
07280,1996-04-03 18:00:00,6,1021.7,1.4,36,-8,20000,29.632,,,20,-0.7,7.9,,,,,,,,,wg-a,,,,AAXX 03184 07280 12/70 40216 10060 21080 39938 40217 53014 60006 80001 91800 333 10079 21007=
07280,1996-04-03 21:00:00,3,1023.8,1.8,48,-7,20000,22.224,,,20,,,,,,,,,,,wg-a,,,,AAXX 03214 07280 12/70 40212 10030 21070 39956 40238 51018 60006 80002 92100=
07280,1996-04-04 00:00:00,1,1024.3,0.3,59,-6,20000,22.224,,,10,,,,,,,,,,,wg-a,,,,AAXX 04004 07280 12/70 00112 10010 21060 39959 40243 51003 60006 80000 90000=
07280,1996-04-04 03:00:00,0,1024.5,0.1,69,-5,20000,22.224,,,10,,,,,,,,,,,wg-a,,,,AAXX 04034 07280 12/70 00112 10000 21050 39960 40245 53001 60006 80000 90300=
07280,1996-04-04 06:00:00,1,1025,0.5,75,-3,7000,18.52,,,20,-0.5,6,,,,,,,,,wg-a,,,,AAXX 04064 07280 12/57 30210 10010 21030 39965 40250 53005 60006 81031 90600 333 10060 21005=
07280,1996-04-04 09:00:00,4,1024,-0.7,65,-2,8000,18.52,,,30,,,,,,,,,,,wg-a,,,,AAXX 04094 07280 12558 40310 10040 21020 39958 40240 56007 60006 84201 90900=
07280,1996-04-04 12:00:00,5,1023.1,-0.7,56,-3,12000,18.52,,,20,,,,,,,,,,25,wg-a,,,,AAXX 04124 07280 02662 80210 10050 21030 39951 40231 58007 61000 72586 888// 91200 333 6100=
07280,1996-04-04 15:00:00,5,1022.5,-0.5,60,-2,12000,22.224,,,30,,,,,,,,,,,wg-a,,,,AAXX 04154 07280 12662 80312 10050 21020 39946 40225 56005 60006 888// 91500=
07280,1996-04-04 18:00:00,5,1022.6,-0,60,-2,15000,18.52,,,30,0.5,5.4,,,,,,,,,wg-a,,,,AAXX 04184 07280 32565 70310 10050 21020 39946 40226 55000 872// 91800 333 10054 20005=
07280,1996-04-04 21:00:00,4,1022.5,-0.2,70,-1,10000,18.52,,,40,,,,,,,,,,,wg-a,,,,AAXX 04214 07280 12560 80410 10040 21010 39944 40225 58002 60006 875// 92100=
07280,1996-04-05 00:00:00,3,1021.3,-1.3,81,0,7000,11.112,,,30,,,,,,,,,,,wg-a,,,,AAXX 05004 07280 12657 80306 10030 20000 39931 40213 58013 60006 875// 90000=
07280,1996-04-05 03:00:00,2,1019.5,-1.8,87,0,7000,14.816,,,30,,,,,,,,,,,wg-a,,,,AAXX 05034 07280 12657 80308 10020 20000 39913 40195 56018 60006 875// 90300=
07280,1996-04-05 06:00:00,1,1018.7,-0.9,86,-1,8000,14.816,,,10,0.5,4.4,,,,,,,,,wg-a,,,,AAXX 05064 07280 02/58 /0108 10010 21010 39904 40187 56009 60006 81031 90600 333 10044 20005 61000=
07280,1996-04-05 09:00:00,6,1017.6,-0.6,61,-1,12000,22.224,,,70,,,,,,,,,,,wg-a,,,,AAXX 05094 07280 12562 /0712 10060 21010 39898 40176 56006 60006 81100 90900=
07280,1996-04-05 12:00:00,10,1015.3,-1.8,46,-1,15000,11.112,,,90,,,,,,,,,,,wg-a,,,,AAXX 05124 07280 12665 /0906 10100 21010 39880 40153 57018 60006 81100 91200=
07280,1996-04-05 15:00:00,12,1013.6,-1.4,40,-1,18000,7.408,,,80,,,,,,,,,,,wg-a,,,,AAXX 05154 07280 12/68 10804 10120 21010 39866 40136 56014 60006 80001 91500=
07280,1996-04-05 18:00:00,9,1013.9,-0,53,0,18000,14.816,,,30,0.5,12.3,,,,,,,,,wg-a,,,,AAXX 05184 07280 12/68 10308 10090 20000 39866 40139 55000 60006 81031 91800 333 10123 20005=
07280,1996-04-05 21:00:00,5,1015.3,0.9,65,-1,18000,11.112,,,350,,,,,,,,,,,wg-a,,,,AAXX 05214 07280 12/68 03506 10050 21010 39875 40153 51009 60006 80000 92100=
07280,1996-04-06 00:00:00,2,1016.3,0.7,80,-1,8000,11.112,,,350,,,,,,,,,,,wg-a,,,,AAXX 06004 07280 12/58 03506 10020 21010 39882 40163 53007 60006 80000 90000=
07280,1996-04-06 03:00:00,1,1016.8,0.3,80,-2,6000,7.408,,,330,,,,,,,,,,,wg-a,,,,AAXX 06034 07280 12/56 03304 10010 21020 39885 40168 51003 60006 80000 90300=
07280,1996-04-06 06:00:00,-1,1017.7,0.7,86,-3,8000,0,,,0,-1.5,9.2,,,,,,,,,wg-a,,,,AAXX 06064 07280 12758 10000 11010 21030 39892 40177 53007 60006 81530 90600 333 10092 21015=
07280,1996-04-06 09:00:00,8,1017.2,0.5,61,1,10000,7.408,,,170,,,,,,,,,,,wg-a,,,,AAXX 06094 07280 12860 11704 10080 20010 39897 40172 51005 60006 81031 90900=
07280,1996-04-06 12:00:00,17,1015.2,-1.1,39,3,40000,14.816,,,200,,,,,,,,,,,wg-a,,,,AAXX 06124 07280 12782 42008 10170 20030 39886 40152 57011 60006 81131 91200=
07280,1996-04-06 15:00:00,18,1014.6,-0.5,32,1,40000,22.224,,,190,,,,,,,,,,,wg-a,,,,AAXX 06154 07280 12782 41912 10180 20010 39881 40146 56005 60006 81202 91500=
07280,1996-04-06 18:00:00,14,1015.7,0.7,41,1,25000,11.112,,,190,-1.1,18.5,,,,,,,,,wg-a,,,,AAXX 06184 07280 12775 71906 10140 20010 39888 40157 53007 60006 814/2 91800 333 10185 21011=
07280,1996-04-06 21:00:00,9,1017.4,1.2,53,0,20000,7.408,,,320,,,,,,,,,,,wg-a,,,,AAXX 06214 07280 12/70 23204 10090 20000 39900 40174 51012 60006 80001 92100=
07280,1996-04-07 00:00:00,5,1018.5,0.6,70,0,20000,3.704,,,130,,,,,,,,,,,wg-a,,,,AAXX 07004 07280 12770 71302 10050 20000 39906 40185 51006 60006 855/2 90000=
07280,1996-04-07 03:00:00,6,1018.5,0.1,65,0,20000,11.112,,,330,,,,,,,,,,,wg-a,,,,AAXX 07034 07280 12770 73306 10060 20000 39907 40185 50001 60006 875// 90300=
07280,1996-04-07 06:00:00,5,1019.7,1.1,70,0,18000,7.408,,,350,2.4,14,,,,,,,,,wg-a,,,,AAXX 07064 07280 12768 63504 10050 20000 39918 40197 53011 60006 86500 90600 333 10140 20024=
07280,1996-04-07 09:00:00,13,1019.9,1,47,2,20000,0,,,0,,,,,,,,,,,wg-a,,,,AAXX 07094 07280 12670 /0000 10130 20020 39928 40199 51010 60006 81100 90900=
07280,1996-04-07 12:00:00,18,1018.9,-0.5,34,2,35000,3.704,,,170,,,,,,,,,,,wg-a,,,,AAXX 07124 07280 12781 11702 10180 20020 39923 40189 57005 60006 81800 91200=
07280,1996-04-07 15:00:00,18,1018.8,-0.2,32,1,500,3.704,,,300,,,,,,,,,,,wg-a,,,,AAXX 07154 07280 12700 53002 10180 20010 39921 40188 55002 60006 85800 91500=
07280,1996-04-07 18:00:00,14,1019.8,0.7,41,1,500,7.408,,,350,4.5,19.3,,,,,,,,,wg-a,,,,AAXX 07184 07280 12800 23504 10140 20010 39928 40198 53007 60006 82500 91800 333 10193 20045=
07280,1996-04-07 21:00:00,11,1022.1,1.9,58,3,15000,18.52,,,350,,,,,,,,,,,wg-a,,,,AAXX 07214 07280 12/65 23510 10110 20030 39947 40221 51019 60006 80001 92100=
07280,1996-04-08 00:00:00,8,1023.6,1.2,71,3,8000,11.112,,,10,,,,,,,,,,,wg-a,,,,AAXX 08004 07280 12/58 00106 10080 20030 39959 40236 51012 60006 80000 90000=
07280,1996-04-08 03:00:00,6,1024.2,0.4,81,3,500,11.112,,,10,,,,,,,,,,,wg-a,,,,AAXX 08034 07280 12/00 /0106 10060 20030 39963 40242 53004 60006 80001 90300=
07280,1996-04-08 06:00:00,5,1026.2,1.8,81,2,4500,7.408,,,10,3.8,14.3,,,,,,,,10,wg-a,,,,AAXX 08064 07280 12/45 /0104 10050 20020 39981 40262 53018 60006 71000 80001 90600 333 10143 20038=
07280,1996-04-08 09:00:00,10,1027.2,1.5,66,4,6000,18.52,,,20,,,,,,,,,,,wg-a,,,,AAXX 08094 07280 12556 /0210 10100 20040 39996 40272 51015 60006 85100 90900=
07280,1996-04-08 12:00:00,13,1026.6,-0.3,54,4,9000,14.816,,,350,,,,,,,,,,,wg-a,,,,AAXX 08124 07280 12659 23508 10130 20040 39993 40266 58003 60006 82200 91200=
07280,1996-04-08 15:00:00,12,1026.6,-0,58,4,10000,22.224,,,330,,,,,,,,,,,wg-a,,,,AAXX 08154 07280 12760 13312 10120 20040 39992 40266 54000 60006 81100 91500=
07280,1996-04-08 18:00:00,8,1028.1,1.1,71,3,6000,22.224,,,10,4.4,13.3,,,,,,,,,wg-a,,,,AAXX 08184 07280 12556 70112 10080 20030 30003 40281 53011 60006 875// 91800 333 10133 20044=
07280,1996-04-08 21:00:00,8,1028.8,0.7,71,3,7000,14.816,,,30,,,,,,,,,,,wg-a,,,,AAXX 08214 07280 12557 80308 10080 20030 30010 40288 50007 60006 875// 92100=
07280,1996-04-09 03:00:00,8,1027.4,-1,76,4,7000,11.112,,,10,,,,,,,,,,,wg-a,,,,AAXX 09034 07280 12557 70106 10080 20040 39996 40274 56010 60006 875// 90300=
07280,1996-04-09 06:00:00,7,1027.3,-0.1,81,4,500,14.816,,,10,7.1,8.4,,,,,,,,,wg-a,,,,AAXX 09064 07280 12500 70108 10070 20040 39995 40273 55001 60006 875// 90600 333 10084 20071=
07280,1996-04-09 09:00:00,10,1027.1,0,66,4,500,11.112,,,40,,,,,,,,,,,wg-a,,,,AAXX 09094 07280 12500 70406 10100 20040 39995 40271 50000 60006 875// 90900=
07280,1996-04-09 12:00:00,14,1025.1,-1.6,51,4,8000,14.816,,,30,,,,,,,,,,,wg-a,,,,AAXX 09124 07280 12658 30308 10140 20040 39979 40251 58016 60006 83100 91200=
07280,1996-04-09 15:00:00,16,1022.9,-1.9,45,4,10000,14.816,,,40,,,,,,,,,,,wg-a,,,,AAXX 09154 07280 12/60 00408 10160 20040 39960 40229 57019 60006 80000 91500=
07280,1996-04-09 18:00:00,13,1022.3,-0.8,54,4,10000,11.112,,,30,7.4,16.2,,,,,,,,,wg-a,,,,AAXX 09184 07280 12/60 50306 10130 20040 39952 40223 56008 60006 80001 91800 333 10162 20074=
07280,1996-04-09 21:00:00,9,1022.8,0,66,3,8000,11.112,,,10,,,,,,,,,,,wg-a,,,,AAXX 09214 07280 12/58 /0106 10090 20030 39952 40228 50000 60006 80002 92100=
07280,1996-04-10 00:00:00,7,1022.4,-0.5,76,3,7000,11.112,,,330,,,,,,,,,,,wg-a,,,,AAXX 10004 07280 12/57 53306 10070 20030 39947 40224 58005 60006 80002 90000=
07280,1996-04-10 03:00:00,5,1021.3,-1.3,81,2,500,11.112,,,330,,,,,,,,,,,wg-a,,,,AAXX 10034 07280 12/00 33306 10050 20020 39934 40213 56013 60006 83030 90300=
07280,1996-04-10 06:00:00,4,1020.8,-0.6,87,2,4500,7.408,,,330,3.6,13.4,,,,,,,,10,wg-a,,,,AAXX 10064 07280 12/45 13304 10040 20020 39928 40208 56006 60006 71011 80001 90600 333 10134 20036=
07280,1996-04-10 09:00:00,12,1019.5,-0.5,67,6,500,7.408,,,70,,,,,,,,,,,wg-a,,,,AAXX 10094 07280 12/00 /0704 10120 20060 39923 40195 58005 60006 80001 90900=
07280,1996-04-10 12:00:00,16,1017.6,-1.4,48,5,8000,7.408,,,190,,,,,,,,,,,wg-a,,,,AAXX 10124 07280 12/58 71904 10160 20050 39909 40176 58014 60006 80002 91200=
07280,1996-04-10 15:00:00,17,1016.1,-1.5,48,6,12000,11.112,,,180,,,,,,,,,,,wg-a,,,,AAXX 10154 07280 12/62 71806 10170 20060 39894 40161 58015 60006 80002 91500=
07280,1996-04-10 18:00:00,15,1016,-0.2,55,6,15000,7.408,,,180,4,16.9,,,,,,,,21,wg-a,,,,AAXX 10184 07280 02765 81804 10150 20060 39892 40160 56002 61000 72122 82532 91800 333 10169 20040 ////=
07280,1996-04-10 21:00:00,13,1016.5,0.3,62,6,7000,14.816,,,350,,,,,,,,,,1,wg-a,,,,AAXX 10214 07280 02657 83508 10130 20060 39895 40165 51003 61000 70162 8553/ 92100 333 ////=
07280,1996-04-11 00:00:00,11,1016.2,-0.5,71,6,7000,7.408,,,310,,,,,,,,,,1,wg-a,,,,AAXX 11004 07280 02657 83104 10110 20060 39890 40162 58005 61000 70162 8453/ 90000 333 ////=
07280,1996-04-11 03:00:00,8,1015.9,-0.5,81,5,7000,3.704,,,320,,,,,,,,,,,wg-a,,,,AAXX 11034 07280 12757 83202 10080 20050 39885 40159 56005 60006 8453/ 90300=
07280,1996-04-11 06:00:00,10,1015.7,,76,6,6000,7.408,,,340,,,,,,,,,,21,wg-a,,,,AAXX 11064 07280 32656 83404 10100 20060 39884 40157 72162 885// 90600=
07280,1996-04-11 09:00:00,13,1015.9,0.2,62,6,0,7.408,,,330,,,,,,,,,,,wg-a,,,,AAXX 11094 07280 127// 73304 10130 20060 39889 40159 53002 60006 875// 90900=
07280,1996-04-11 10:00:00,12,1013.8,-0.1,71,7,9000,11.112,,,80,9.5,15.3,,,,,,,,0,wg-a,,,,AAXX 11104 07280 32659 /0806 10120 20070 39867 40138 57001 700// 91000 333 10153 20095=
07280,1996-04-11 12:00:00,12,1014.9,-1,71,7,7000,7.408,,,40,,,,2,,,,,,80,wg-a,,,,AAXX 11124 07280 02557 70404 10120 20070 39879 40149 58010 60026 78082 878// 91200 333 60027=
07280,1996-04-11 15:00:00,14,1013.6,-1.1,63,7,8000,7.408,,,30,,,,0,,,,,,25,wg-a,,,,AAXX 11154 07280 12658 70304 10140 20070 39868 40136 56011 60007 72582 878// 91500=
07280,1996-04-11 18:00:00,12,1013.8,-0.1,71,7,9000,11.112,,,80,9.5,15.3,,,,,,,,1,wg-a,,,,AAXX 11184 07280 32659 20806 10120 20070 39867 40138 57001 70186 82200 91800 333 10153 20095=
07280,1996-04-11 21:00:00,8,1014.9,0.7,87,6,9000,3.704,,,340,,,,,,,,,,,wg-a,,,,AAXX 11214 07280 12/59 /3402 10080 20060 39874 40149 51007 60006 80000 92100=
07280,1996-04-12 00:00:00,7,1014.5,-0.4,81,4,9000,11.112,,,350,,,,,,,,,,,wg-a,,,,AAXX 12004 07280 12/59 03506 10070 20040 39870 40145 58004 60006 80000 90000=
07280,1996-04-12 03:00:00,4,1014.5,-0.3,87,2,8000,11.112,,,350,,,,,,,,,,,wg-a,,,,AAXX 12034 07280 12/58 03506 10040 20020 39867 40145 56003 60006 80000 90300=
07280,1996-04-12 06:00:00,3,1015.1,0.5,100,3,500,7.408,,,340,2.7,11.5,,,,,2,,,,wg-a,,,,AAXX 12064 07280 02/00 /3404 10030 20030 39872 40151 53005 60006 80001 90600 333 10115 20027 60024=
07280,1996-04-12 09:00:00,12,1014,-0.2,71,7,6000,11.112,,,60,,,,,,,,,,,wg-a,,,,AAXX 12094 07280 12456 20606 10120 20070 39870 40140 58002 60006 81101 90900=
07280,1996-04-12 12:00:00,15,1012.8,-0.9,51,5,12000,7.408,,,10,,,,,,,,,,,wg-a,,,,AAXX 12124 07280 12662 70104 10150 20050 39861 40128 56009 60006 878// 91200=
07280,1996-04-12 15:00:00,16,1011.7,-1,39,2,12000,3.704,,,150,,,,,,,,,,,wg-a,,,,AAXX 12154 07280 12762 51502 10160 20020 39851 40117 56010 60006 85100 91500=
07280,1996-04-12 18:00:00,14,1012.3,0.3,47,3,20000,11.112,,,40,3.5,16.6,,,,,,,,,wg-a,,,,AAXX 12184 07280 12770 50406 10140 20030 39854 40123 53003 60006 84401 91800 333 10166 20035=
07280,1996-04-12 21:00:00,9,1013.8,1.1,71,4,12000,7.408,,,20,,,,,,,,,,,wg-a,,,,AAXX 12214 07280 12762 70204 10090 20040 39865 40138 51011 60006 8353/ 92100=
07280,1996-04-13 03:00:00,8,1013.6,-0.3,81,5,8000,7.408,,,20,,,,,,,,,,,wg-a,,,,AAXX 13034 07280 12758 80204 10080 20050 39862 40136 55003 60006 8457/ 90300=
07280,1996-04-13 06:00:00,7,1015.2,1.4,93,6,3000,11.112,,,20,6.6,13.4,,1,,,1,,,10,wg-a,,,,AAXX 13064 07280 02330 80206 10070 20060 39876 40152 53014 60014 71062 888// 90600 333 10134 20066 60017=
07280,1996-04-13 07:00:00,7,1015.2,1.4,93,6,3000,11.112,,,20,6.6,13.4,,1,,,1,,,10,wg-a,,,,AAXX 13074 07280 02330 80206 10070 20060 39876 40152 53014 60014 71062 888// 90700 333 10134 20066 60017=
07280,1996-04-13 09:00:00,7,1016.7,1.5,93,6,3000,11.112,,,30,,,,0,,,,,,10,wg-a,,,,AAXX 13094 07280 12330 80306 10070 20060 39891 40167 53015 60007 71062 876// 90900=
07280,1996-04-13 12:00:00,10,1016.2,-0.2,82,7,6000,7.408,,,360,,,,,,,,,,1,wg-a,,,,AAXX 13124 07280 12456 83604 10100 20070 39889 40162 58002 60016 70162 876// 91200=
07280,1996-04-13 14:00:00,9,1016.6,0.7,76,5,15000,18.52,,,40,6.4,11.2,,,,,,,,21,wg-a,,,,AAXX 13144 07280 02565 80410 10090 20050 39892 40166 52107 61000 72162 878// 91400 333 10112 20064 ////=
07280,1996-04-13 15:00:00,11,1015.7,-0.4,76,7,8000,14.816,,,30,,,,,,,,,,,wg-a,,,,AAXX 13154 07280 12558 80308 10110 20070 39885 40157 57004 60006 8377/ 91500=
07280,1996-04-13 18:00:00,9,1016.6,0.7,76,5,15000,18.52,,,40,6.4,11.2,,,,,,,,21,wg-a,,,,AAXX 13184 07280 02565 80410 10090 20050 39892 40166 52007 61000 72162 878// 91800 333 10112 20064 ////=
07280,1996-04-13 21:00:00,7,1018.3,1.5,81,4,10000,11.112,,,10,,,,,,,,,,,wg-a,,,,AAXX 13214 07280 12660 /0106 10070 20040 39907 40183 51015 60006 86500 92100=
07280,1996-04-14 00:00:00,4,1018.9,0.2,87,2,9000,11.112,,,350,,,,,,,,,,,wg-a,,,,AAXX 14004 07280 12759 23506 10040 20020 39909 40189 52002 60006 82500 90000=
07280,1996-04-14 03:00:00,6,1018.5,-0.1,81,3,12000,14.816,,,20,,,,,,,,,,,wg-a,,,,AAXX 14034 07280 12762 70208 10060 20030 39908 40185 55001 60006 875// 90300=
07280,1996-04-14 06:00:00,6,1019.6,1,75,2,11000,11.112,,,10,3.8,9,,,,,,,,,wg-a,,,,AAXX 14064 07280 02761 60106 10060 20020 39918 40196 53010 60006 82580 90600 333 10090 20038 60004=
07280,1996-04-14 09:00:00,9,1020.5,1.2,57,1,15000,14.816,,,30,,,,,,,,,,,wg-a,,,,AAXX 14094 07280 12/65 70308 10090 20010 39930 40205 51012 60006 8703/ 90900=
07280,1996-04-14 12:00:00,13,1020.1,0,41,0,20000,22.224,,,20,,,,,,,,,,,wg-a,,,,AAXX 14124 07280 12670 /0212 10130 20000 39930 40201 50000 60006 81131 91200=
07280,1996-04-14 15:00:00,14,1019.4,-0.6,31,-3,25000,18.52,,,30,,,,,,,,,,,wg-a,,,,AAXX 14154 07280 12/75 70310 10140 21030 39924 40194 58006 60006 80002 91500=
07280,1996-04-14 18:00:00,13,1020.2,0.6,38,-1,20000,14.816,,,30,5.7,14.5,,,,,,,,,wg-a,,,,AAXX 14184 07280 12/70 70308 10130 21010 39930 40202 53006 60006 80002 91800 333 10145 20057=
07280,1996-04-14 21:00:00,8,1022.8,2.1,53,-1,15000,18.52,,,20,,,,,,,,,,,wg-a,,,,AAXX 14214 07280 12/65 20210 10080 21010 39951 40228 51021 60006 80001 92100=
07280,1996-04-15 00:00:00,5,1024,0.9,65,-1,15000,18.52,,,10,,,,,,,,,,,wg-a,,,,AAXX 15004 07280 12/65 00110 10050 21010 39960 40240 52009 60006 80000 90000=
07280,1996-04-15 03:00:00,4,1024.7,0.6,70,-1,15000,14.816,,,10,,,,,,,,,,,wg-a,,,,AAXX 15034 07280 12/65 00108 10040 21010 39966 40247 53006 60006 80000 90300=
07280,1996-04-15 06:00:00,5,1025.9,1.2,65,-1,35000,14.816,,,20,2.4,12.7,,,,,,,,,wg-a,,,,AAXX 15064 07280 12/81 00208 10050 21010 39978 40259 53012 60006 80000 90600 333 10127 20024=
07280,1996-04-15 09:00:00,11,1026.3,1,47,0,40000,22.224,,,70,,,,,,,,,,,wg-a,,,,AAXX 15094 07280 12/82 10712 10110 20000 39988 40263 51010 60006 80001 90900=
07280,1996-04-15 12:00:00,14,1025.3,-0.7,33,-2,45000,18.52,,,30,,,,,,,,,,,wg-a,,,,AAXX 15124 07280 12/83 10310 10140 21020 39981 40253 58007 60006 80001 91200=
07280,1996-04-15 15:00:00,15,1023.9,-1.2,27,-4,45000,14.816,,,10,,,,,,,,,,,wg-a,,,,AAXX 15154 07280 12/83 10108 10150 21040 39969 40239 57012 60006 80001 91500=
07280,1996-04-15 18:00:00,14,1023.5,-0.6,33,-2,40000,11.112,,,60,4.6,15.8,,,,,,,,,wg-a,,,,AAXX 15184 07280 12/82 00606 10140 21020 39963 40235 58006 60006 80000 91800 333 10158 20046=
07280,1996-04-15 21:00:00,6,1024.8,0.6,56,-2,40000,7.408,,,20,,,,,,,,,,,wg-a,,,,AAXX 15214 07280 12/82 00204 10060 21020 39969 40248 51006 60006 80000 92100=
07280,1996-04-16 00:00:00,6,1024.3,-0.5,56,-2,25000,11.112,,,10,,,,,,,,,,,wg-a,,,,AAXX 16004 07280 12/75 00106 10060 21020 39964 40243 58005 60006 80000 90000=
07280,1996-04-16 03:00:00,3,1022.6,-2,70,-2,25000,11.112,,,330,,,,,,,,,,,wg-a,,,,AAXX 16034 07280 12/75 03306 10030 21020 39944 40226 56020 60006 80000 90300=
07280,1996-04-16 06:00:00,3,1021.4,-1.1,75,-1,20000,11.112,,,350,2,13.5,,,,,,,,,wg-a,,,,AAXX 16064 07280 12/70 23506 10030 21010 39933 40214 56011 60006 80001 90600 333 10135 20020=
07280,1996-04-16 09:00:00,11,1019.2,-1.4,43,-1,500,11.112,,,50,,,,,,,,,,,wg-a,,,,AAXX 16094 07280 12/00 60506 10110 21010 39919 40192 58014 60006 80001 90900=
07280,1996-04-16 12:00:00,17,1015.8,-2.8,23,-4,40000,3.704,,,130,,,,,,,,,,,wg-a,,,,AAXX 16124 07280 12/82 71302 10170 21040 39891 40158 58028 60006 80002 91200=
07280,1996-04-16 15:00:00,19,1012.4,-3.1,18,-6,50000,3.704,,,120,,,,,,,,,,,wg-a,,,,AAXX 16154 07280 12/84 41202 10190 21060 39860 40124 58031 60006 80001 91500=
07280,1996-04-16 18:00:00,17,1010.4,-2.1,20,-6,45000,0,,,0,3.2,19.9,,,,,,,,,wg-a,,,,AAXX 16184 07280 12/83 40000 10170 21060 39839 40104 58021 60006 80002 91800 333 10199 20032=
07280,1996-04-16 21:00:00,8,1010.6,-0.6,57,0,25000,3.704,,,40,,,,,,,,,,,wg-a,,,,AAXX 16214 07280 12/75 40402 10080 20000 39833 40106 58006 60006 80001 92100=
07280,1996-04-17 00:00:00,5,1010.3,-0.6,65,-1,25000,7.408,,,320,,,,,,,,,,,wg-a,,,,AAXX 17004 07280 12/75 53204 10050 21010 39827 40103 56006 60006 80001 90000=
07280,1996-04-17 03:00:00,4,1009.2,-1.2,70,-1,25000,0,,,0,,,,,,,,,,,wg-a,,,,AAXX 17034 07280 12/75 70000 10040 21010 39815 40092 56012 60006 83032 90300=
07280,1996-04-17 06:00:00,7,1008.8,-0,87,5,20000,7.408,,,190,3.4,16.7,,,,,,,,,wg-a,,,,AAXX 17064 07280 12/70 71904 10070 20050 39815 40088 55000 60006 83071 90600 333 10167 20034=
07280,1996-04-17 09:00:00,14,1010,1.8,55,5,20000,22.224,,,270,,,,,,,,,,,wg-a,,,,AAXX 17094 07280 12/70 82712 10140 20050 39833 40100 53018 60006 84072 90900=
07280,1996-04-17 12:00:00,15,1011,1,67,9,20000,14.816,,,280,,,,,,,,,,60,wg-a,,,,AAXX 17124 07280 02570 82808 10150 20090 39843 40110 51010 61000 76062 83172 91200 333 6100=
07280,1996-04-17 15:00:00,12,1012.7,1.4,76,8,15000,22.224,,,290,,,,,,,,,,60,wg-a,,,,AAXX 17154 07280 02565 82912 10120 20080 39857 40127 53014 61000 76086 8587/ 91500 333 ////=
07280,1996-04-17 18:00:00,11,1015.5,2.6,82,8,20000,14.816,,,300,7.4,15.7,,0,,,,,,61,wg-a,,,,AAXX 17184 07280 12470 83008 10110 20080 39883 40155 52026 60007 76166 8587/ 91800 333 10157 20074=
07280,1996-04-17 21:00:00,9,1018.2,2.5,93,8,20000,3.704,,,190,,,,0,,,,,,1,wg-a,,,,AAXX 17214 07280 12670 81902 10090 20080 39908 40182 51025 60007 70162 8657/ 92100=
07280,1996-04-18 00:00:00,9,1019.4,1.1,93,8,0,7.408,,,200,,,,,,,,,,,wg-a,,,,AAXX 18004 07280 12/// /2004 10090 20080 39919 40194 51011 60006 90000=
07280,1996-04-18 03:00:00,7,1020.3,0.7,100,7,15000,0,,,0,,,,0,,,,,,3,wg-a,,,,AAXX 18034 07280 12665 80000 10070 20070 39926 40203 52007 60007 70362 875// 90300=
07280,1996-04-18 06:00:00,8,1021.3,1.1,100,8,8000,3.704,,,360,6.8,10.8,,,,,1,,,1,wg-a,,,,AAXX 18064 07280 12658 /3602 10080 20080 39937 40213 53011 60014 70162 85500 90600 333 10108 20068=
07280,1996-04-18 12:00:00,16,1020.5,-1,55,7,35000,7.408,,,90,,,,,,,,,,,wg-a,,,,AAXX 18124 07280 12681 40904 10160 20070 39937 40205 58010 60006 84400 91200=
07280,1996-04-18 15:00:00,17,1019.3,-1.1,45,5,500,7.408,,,190,,,,,,,,,,,wg-a,,,,AAXX 18154 07280 12700 51904 10170 20050 39926 40193 58011 60006 83401 91500=
07280,1996-04-18 18:00:00,14,1019.3,-0.3,58,6,500,7.408,,,110,7.8,17.7,,,,,,,,,wg-a,,,,AAXX 18184 07280 12800 71104 10140 20060 39923 40193 57003 60006 815/1 91800 333 10177 20078=
07280,1996-04-18 21:00:00,8,1020.6,0.7,76,4,25000,3.704,,,340,,,,,,,,,,,wg-a,,,,AAXX 18214 07280 12/75 03402 10080 20040 39930 40206 51007 60006 80000 92100=
07280,1996-04-19 00:00:00,6,1021.1,0.3,87,4,20000,3.704,,,320,,,,,,,,,,,wg-a,,,,AAXX 19004 07280 12/70 03202 10060 20040 39933 40211 53003 60006 80000 90000=
07280,1996-04-19 03:00:00,5,1020.6,-0.6,87,3,20000,7.408,,,10,,,,,,,,,,,wg-a,,,,AAXX 19034 07280 12/70 00104 10050 20030 39927 40206 56006 60006 80000 90300=
07280,1996-04-19 06:00:00,4,1021.5,0.8,93,3,15000,3.704,,,10,2.7,13.5,,,,,,,,,wg-a,,,,AAXX 19064 07280 12/65 30102 10040 20030 39935 40215 53008 60006 80001 90600 333 10135 20027=
07280,1996-04-19 09:00:00,14,1020.4,-0.1,63,7,20000,3.704,,,170,,,,,,,,,,,wg-a,,,,AAXX 19094 07280 12/70 31702 10140 20070 39934 40204 58001 60006 80001 90900=
07280,1996-04-19 12:00:00,20,1018.3,-1.5,43,7,25000,14.816,,,200,,,,,,,,,,,wg-a,,,,AAXX 19124 07280 12/75 72008 10200 20070 39919 40183 58015 60006 80001 91200=
07280,1996-04-19 15:00:00,22,1016.2,-1.9,33,5,25000,18.52,,,190,,,,,,,,,,,wg-a,,,,AAXX 19154 07280 12/75 71910 10220 20050 39900 40162 56019 60006 80001 91500=
07280,1996-04-19 18:00:00,19,1015.5,-0.9,40,5,25000,11.112,,,170,4.1,22.2,,,,,,,,,wg-a,,,,AAXX 19184 07280 12/75 71706 10190 20050 39891 40155 56009 60006 80001 91800 333 10222 20041=
07280,1996-04-19 21:00:00,13,1017,0.8,54,4,20000,7.408,,,200,,,,,,,,,,,wg-a,,,,AAXX 19214 07280 12/70 02004 10130 20040 39899 40170 53008 60006 80000 92100=
07280,1996-04-20 00:00:00,9,1017.8,0.4,61,2,20000,7.408,,,190,,,,,,,,,,,wg-a,,,,AAXX 20004 07280 12/70 01904 10090 20020 39903 40178 51004 60006 80000 90000=
07280,1996-04-20 03:00:00,8,1017.5,-0.3,66,2,20000,11.112,,,180,,,,,,,,,,,wg-a,,,,AAXX 20034 07280 12/70 01806 10080 20020 39900 40175 55003 60006 80000 90300=
07280,1996-04-20 06:00:00,8,1017.9,0.4,76,4,25000,7.408,,,170,4.9,19.1,,,,,,,,,wg-a,,,,AAXX 20064 07280 12/75 51704 10080 20040 39904 40179 53004 60006 80001 90600 333 10191 20049=
07280,1996-04-20 09:00:00,17,1016.4,-0.7,39,3,40000,25.928,,,190,,,,,,,,,,,wg-a,,,,AAXX 20094 07280 12/82 61914 10170 20030 39897 40164 58007 60006 80001 90900=
07280,1996-04-20 12:00:00,22,1014,-1.9,25,1,40000,31.484,,50.004,180,,,,,,,,,,,wg-a,,,,AAXX 20124 07280 12/82 61817 10220 20010 39878 40140 58019 60006 80001 91200 333 91027=
07280,1996-04-20 15:00:00,22,1012.4,-1.5,19,-3,40000,38.892,,57.412,210,,,,,,,,,,,wg-a,,,,AAXX 20154 07280 12/82 62121 10220 21030 39863 40124 56015 60006 80001 91500 333 91031=
07280,1996-04-20 18:00:00,20,1012,-0.6,23,-2,40000,18.52,,,190,7.8,23.1,,,,,,,,,wg-a,,,,AAXX 20184 07280 12/82 61910 10200 21020 39857 40120 56006 60006 80002 91800 333 10231 20078=
07280,1996-04-20 21:00:00,13,1013.6,1,47,2,500,7.408,,,190,,,,,,,,,,,wg-a,,,,AAXX 20214 07280 12/00 71904 10130 20020 39867 40136 51010 60006 80002 92100=
07280,1996-04-21 00:00:00,9,1014.2,0.1,61,2,500,7.408,,,160,,,,,,,,,,,wg-a,,,,AAXX 21004 07280 12/00 21604 10090 20020 39868 40142 50001 60006 80002 90000=
07280,1996-04-21 03:00:00,6,1013.8,-0.6,75,2,500,11.112,,,150,,,,,,,,,,,wg-a,,,,AAXX 21034 07280 12/00 51506 10060 20020 39862 40138 56006 60006 80001 90300=
07280,1996-04-21 06:00:00,8,1013.6,-0,71,3,500,3.704,,,180,5.7,19.5,,,,,,,,,wg-a,,,,AAXX 21064 07280 12/00 71802 10080 20030 39862 40136 55000 60006 81031 90600 333 10195 20057=
07280,1996-04-21 09:00:00,19,1012.1,-0.5,34,3,35000,22.224,,,190,,,,,,,,,,,wg-a,,,,AAXX 21094 07280 12/81 21912 10190 20030 39857 40121 58005 60006 80001 90900=
07280,1996-04-21 12:00:00,22,1011.1,-0.7,29,3,35000,46.3,,75.932,190,,,,,,,,,,,wg-a,,,,AAXX 21124 07280 12/81 51925 10220 20030 39850 40111 57007 60006 80001 91200 333 91041=
07280,1996-04-21 15:00:00,22,1010.2,-0.9,31,4,35000,42.596,,61.116,180,,,,,,,,,,,wg-a,,,,AAXX 21154 07280 12/81 41823 10220 20040 39841 40102 58009 60006 80001 91500 333 91033=
07280,1996-04-21 18:00:00,20,1010.1,-0.2,32,3,10000,22.224,,,180,8.3,22.3,,,,,,,,,wg-a,,,,AAXX 21184 07280 12/60 /1812 10200 20030 39839 40101 55002 60006 91800 333 10223 20083=
07280,1996-04-21 21:00:00,14,1011.9,1.2,51,4,25000,11.112,,,190,,,,,,,,,,,wg-a,,,,AAXX 21214 07280 12/75 61906 10140 20040 39851 40119 51012 60006 80001 92100=
07280,1996-04-22 03:00:00,13,1011.5,-0.9,54,4,25000,7.408,,,170,,,,,,,,,,,wg-a,,,,AAXX 22034 07280 12/75 71704 10130 20040 39847 40115 58009 60006 82031 90300=
07280,1996-04-22 06:00:00,12,1011.7,-0,58,4,35000,3.704,,,170,11,19.9,,,,,,,,,wg-a,,,,AAXX 22064 07280 12881 61702 10120 20040 39847 40117 55000 60006 85051 90600 333 10199 20110=
07280,1996-04-22 09:00:00,19,1010.5,-0.5,34,3,40000,18.52,,,170,,,,,,,,,,,wg-a,,,,AAXX 22094 07280 12/82 61710 10190 20030 39842 40105 58005 60006 81032 90900=
07280,1996-04-22 12:00:00,22,1009.2,-1,31,4,50000,22.224,,,200,,,,,,,,,,,wg-a,,,,AAXX 22124 07280 12/84 72012 10220 20040 39832 40092 56010 60006 82032 91200=
07280,1996-04-22 15:00:00,21,1008,-1.3,35,5,50000,31.484,,53.708,180,,,,,,,,,,,wg-a,,,,AAXX 22154 07280 12/84 71817 10210 20050 39819 40080 56013 60006 82032 91500 333 91029=
07280,1996-04-22 18:00:00,17,1007.5,-0.8,48,6,500,29.632,,57.412,200,12.1,22.6,,,,,,,,3,wg-a,,,,AAXX 22184 07280 02700 82016 10170 20060 39811 40075 56008 61000 70362 875// 91800 333 10226 20121 //// 91031=
07280,1996-04-22 21:00:00,15,1008.8,1.1,63,8,500,25.928,,,200,,,,,,,,,,60,wg-a,,,,AAXX 22214 07280 02700 82014 10150 20080 39822 40088 53011 61000 76062 885// 92100 333 ////=
07280,1996-04-23 00:00:00,12,1009.1,0,94,11,10000,0,,,0,,,,3,,,,,,61,wg-a,,,,AAXX 23004 07280 02760 80000 10120 20110 39822 40091 50000 60036 76162 885// 90000 333 60037=
07280,1996-04-23 03:00:00,12,1008.9,-0.2,94,11,6000,7.408,,,160,,,,5,,,,,,63,wg-a,,,,AAXX 23034 07280 12756 81604 10120 20110 39820 40089 58002 60057 76362 885// 90300=
07280,1996-04-23 06:00:00,12,1009.4,0.5,94,11,8000,7.408,,,200,11.3,17.2,,2,,,9,,,60,wg-a,,,,AAXX 23064 07280 02558 82004 10120 20110 39825 40094 53005 60094 76062 875// 90600 333 10172 20113 60027=
07280,1996-04-23 09:00:00,14,1011.4,2.2,77,10,10000,18.52,,,260,,,,,,,,,,1,wg-a,,,,AAXX 23094 07280 02460 72610 10140 20100 39847 40114 53022 61000 70162 878// 90900 333 ////=
07280,1996-04-23 12:00:00,15,1012.5,1.1,77,11,25000,22.224,,,180,,,,,,,,,,21,wg-a,,,,AAXX 23124 07280 02575 81812 10150 20110 39858 40125 53011 61000 72162 888// 91200 333 6100=
07280,1996-04-23 15:00:00,14,1013.3,0.7,82,11,25000,22.224,,,170,,,,,,,,,,21,wg-a,,,,AAXX 23154 07280 02475 71712 10140 20110 39865 40133 53007 61000 72122 878// 91500 333 ////=
07280,1996-04-23 18:00:00,12,1014.9,1.4,88,10,15000,22.224,,,200,11.7,15.8,,0,,,,,,61,wg-a,,,,AAXX 23184 07280 12465 82012 10120 20100 39879 40149 53014 60007 76162 8587/ 91800 333 10158 20117=
07280,1996-04-23 21:00:00,10,1017.7,2.5,93,9,20000,11.112,,,200,,,,1,,,,,,21,wg-a,,,,AAXX 23214 07280 12470 82006 10100 20090 39904 40177 51025 60017 72162 8687/ 92100=
07280,1996-04-24 00:00:00,9,1019.5,1.6,93,8,20000,11.112,,,200,,,,,,,,,,1,wg-a,,,,AAXX 24004 07280 12570 82006 10090 20080 39920 40195 51016 60016 70162 8357/ 90000=
07280,1996-04-24 03:00:00,8,1019.7,0.1,93,7,15000,14.816,,,200,,,,,,,,,,,wg-a,,,,AAXX 24034 07280 12565 22008 10080 20070 39921 40197 53001 60006 82500 90300=
07280,1996-04-24 06:00:00,7,1021.2,1.4,93,6,15000,3.704,,,220,6.2,11.9,,,,,1,,,,wg-a,,,,AAXX 24064 07280 12665 42202 10070 20060 39935 40212 53014 60014 82530 90600 333 10119 20062=
07280,1996-04-24 09:00:00,14,1021.2,0.7,67,8,40000,7.408,,,200,,,,,,,,,,,wg-a,,,,AAXX 24094 07280 12582 32004 10140 20080 39942 40212 51007 60006 83200 90900=
07280,1996-04-24 12:00:00,16,1021.2,0.2,48,5,45000,18.52,,,270,,,,,,,,,,,wg-a,,,,AAXX 24124 07280 12683 /2710 10160 20050 39944 40212 53002 60006 84900 91200=
07280,1996-04-24 15:00:00,17,1021,-0.2,45,5,50000,18.52,,,260,,,,,,,,,,,wg-a,,,,AAXX 24154 07280 12784 42610 10170 20050 39942 40210 58002 60006 84400 91500=
07280,1996-04-24 18:00:00,15,1021.6,0.4,48,4,500,14.816,,,290,6.6,17.1,,,,,,,,,wg-a,,,,AAXX 24184 07280 12700 22908 10150 20040 39946 40216 53004 60006 82400 91800 333 10171 20066=
07280,1996-04-24 21:00:00,7,1024.5,2.1,87,5,25000,7.408,,,320,,,,,,,,,,,wg-a,,,,AAXX 24214 07280 12/75 03204 10070 20050 39967 40245 51021 60006 80000 92100=
07280,1996-04-25 00:00:00,7,1024.7,0.2,87,5,25000,7.408,,,10,,,,,,,,,,,wg-a,,,,AAXX 25004 07280 12/75 00104 10070 20050 39969 40247 50002 60006 80000 90000=
07280,1996-04-25 03:00:00,5,1024.9,0,87,3,25000,7.408,,,350,,,,,,,,,,,wg-a,,,,AAXX 25034 07280 12775 13504 10050 20030 39969 40249 50000 60006 81500 90300=
07280,1996-04-25 06:00:00,7,1025.7,1,87,5,500,7.408,,,350,5.2,14.9,,,,,,,,,wg-a,,,,AAXX 25064 07280 12800 23504 10070 20050 39979 40257 53010 60006 81530 90600 333 10149 20052=
07280,1996-04-25 09:00:00,14,1025.1,0,55,5,500,14.816,,,20,,,,,,,,,,,wg-a,,,,AAXX 25094 07280 12600 20208 10140 20050 39979 40251 50000 60006 82200 90900=
07280,1996-04-25 12:00:00,17,1023.9,-0.9,45,5,40000,14.816,,,50,,,,,,,,,,,wg-a,,,,AAXX 25124 07280 12782 30508 10170 20050 39970 40239 57009 60006 83201 91200=
07280,1996-04-25 15:00:00,17,1022.6,-1.2,39,3,40000,22.224,,,350,,,,,,,,,,,wg-a,,,,AAXX 25154 07280 12782 23512 10170 20030 39958 40226 58012 60006 82401 91500=
07280,1996-04-25 18:00:00,16,1022.3,-0.4,42,3,35000,18.52,,,10,6.9,17.8,,,,,,,,,wg-a,,,,AAXX 25184 07280 12781 20110 10160 20030 39954 40223 56004 60006 82500 91800 333 10178 20069=
07280,1996-04-25 21:00:00,12,1023.6,0.9,58,4,20000,22.224,,,360,,,,,,,,,,,wg-a,,,,AAXX 25214 07280 12770 33612 10120 20040 39963 40236 50009 60006 83500 92100=
07280,1996-04-26 00:00:00,11,1023.3,-0.4,62,4,20000,22.224,,,10,,,,,,,,,,,wg-a,,,,AAXX 26004 07280 12770 30112 10110 20040 39959 40233 58004 60006 83500 90000=
07280,1996-04-26 03:00:00,9,1022,-1.4,61,2,20000,18.52,,,10,,,,,,,,,,,wg-a,,,,AAXX 26034 07280 12/70 00110 10090 20020 39945 40220 58014 60006 80000 90300=
07280,1996-04-26 06:00:00,9,1021.7,-0.3,66,3,20000,14.816,,,20,7.3,16,,,,,,,,,wg-a,,,,AAXX 26064 07280 12770 10208 10090 20030 39942 40217 56003 60006 81500 90600 333 10160 20073=
07280,1996-04-26 09:00:00,16,1020.1,-1,48,5,20000,22.224,,,40,,,,,,,,,,,wg-a,,,,AAXX 26094 07280 12/70 10412 10160 20050 39932 40201 57010 60006 80001 90900=
07280,1996-04-26 12:00:00,19,1018,-1.7,40,5,25000,25.928,,,40,,,,,,,,,,,wg-a,,,,AAXX 26124 07280 12775 40414 10190 20050 39915 40180 58017 60006 81101 91200=
07280,1996-04-26 15:00:00,20,1015.8,-2,35,4,500,25.928,,,30,,,,,,,,,,,wg-a,,,,AAXX 26154 07280 12700 20314 10200 20040 39895 40158 58020 60006 81101 91500=
07280,1996-04-26 18:00:00,18,1015.1,-0.9,42,5,25000,22.224,,,20,9.1,20.5,,,,,,,,,wg-a,,,,AAXX 26184 07280 12775 70212 10180 20050 39886 40151 56009 60006 814/1 91800 333 10205 20091=
07280,1996-04-26 21:00:00,14,1015.8,0.3,51,4,25000,14.816,,,10,,,,,,,,,,,wg-a,,,,AAXX 26214 07280 12/75 30108 10140 20040 39889 40158 50003 60006 80001 92100=
07280,1996-04-27 00:00:00,11,1015.3,-0.7,58,3,25000,18.52,,,10,,,,,,,,,,,wg-a,,,,AAXX 27004 07280 12/75 00110 10110 20030 39882 40153 58007 60006 80000 90000=
07280,1996-04-27 03:00:00,10,1014.1,-1.3,62,3,25000,18.52,,,10,,,,,,,,,,,wg-a,,,,AAXX 27034 07280 12/75 70110 10100 20030 39869 40141 58013 60006 80001 90300=
07280,1996-04-27 06:00:00,10,1013.6,-0.5,66,4,25000,14.816,,,20,9.2,17.9,,,,,,,,,wg-a,,,,AAXX 27064 07280 12/75 60208 10100 20040 39864 40136 55005 60006 81032 90600 333 10179 20092=
07280,1996-04-27 09:00:00,16,1012.3,-0.7,55,7,500,18.52,,,30,,,,,,,,,,,wg-a,,,,AAXX 27094 07280 12/00 70310 10160 20070 39857 40123 58007 60006 80002 90900=
07280,1996-04-27 12:00:00,20,1010.8,-1.1,46,8,500,14.816,,,90,,,,,,,,,,,wg-a,,,,AAXX 27124 07280 12700 50908 10200 20080 39846 40108 58011 60006 81132 91200=
07280,1996-04-27 15:00:00,20,1009.8,-1,53,10,500,7.408,,,130,,,,,,,,,,,wg-a,,,,AAXX 27154 07280 12700 71304 10200 20100 39836 40098 56010 60006 81172 91500=
07280,1996-04-27 18:00:00,18,1009.7,-0.2,59,10,20000,7.408,,,180,10.3,20.2,,,,,,,,,wg-a,,,,AAXX 27184 07280 12/70 81804 10180 20100 39834 40097 55002 60006 8707/ 91800 333 10202 20103=
07280,1996-04-27 21:00:00,15,1010.5,0.5,72,10,20000,7.408,,,170,,,,,,,,,,,wg-a,,,,AAXX 27214 07280 12770 71704 10150 20100 39839 40105 51005 60006 8257/ 92100=
07280,1996-04-28 00:00:00,13,1010.1,-0.6,82,10,18000,0,,,0,,,,,,,,,,,wg-a,,,,AAXX 28004 07280 12768 70000 10130 20100 39833 40101 58006 60006 8157/ 90000=
07280,1996-04-28 03:00:00,12,1009.4,-0.8,88,10,15000,3.704,,,160,,,,,,,,,,,wg-a,,,,AAXX 28034 07280 12665 81602 10120 20100 39825 40094 56008 60006 875// 90300=
07280,1996-04-28 06:00:00,12,1009,-0.4,94,11,8000,0,,,0,11.4,17.9,,,,,,,,2,wg-a,,,,AAXX 28064 07280 02/58 80000 10120 20110 39821 40090 56004 61000 70262 8707/ 90600 333 10179 20114 6100=
07280,1996-04-28 09:00:00,14,1008.5,-0.2,82,11,15000,3.704,,,170,,,,,,,,,,,wg-a,,,,AAXX 28094 07280 12/65 81702 10140 20110 39819 40085 58002 60006 8707/ 90900=
07280,1996-04-28 12:00:00,18,1007.2,-0.9,64,11,20000,3.704,,,350,,,,,,,,,,,wg-a,,,,AAXX 28124 07280 12670 83502 10180 20110 39810 40072 58009 60006 81872 91200=
07280,1996-04-28 15:00:00,20,1005.3,-1.7,49,9,20000,11.112,,,300,,,,,,,,,,,wg-a,,,,AAXX 28154 07280 12670 73006 10200 20090 39793 40053 56017 60006 8123/ 91500=
07280,1996-04-28 18:00:00,17,1005.2,-0.4,59,9,20000,7.408,,,40,11.8,20.7,,,,,,,,,wg-a,,,,AAXX 28184 07280 12770 80404 10170 20090 39789 40052 56004 60006 8457/ 91800 333 10207 20118=
07280,1996-04-28 21:00:00,16,1006.7,1.3,68,10,20000,18.52,,,20,,,,,,,,,,,wg-a,,,,AAXX 28214 07280 12770 80210 10160 20100 39802 40067 52013 60006 8257/ 92100=
07280,1996-04-29 00:00:00,12,1007,0.3,82,9,18000,7.408,,,360,,,,,,,,,,,wg-a,,,,AAXX 29004 07280 12/68 83604 10120 20090 39802 40070 52003 60006 8807/ 90000=
07280,1996-04-29 03:00:00,12,1006.3,-0.7,88,10,12000,11.112,,,10,,,,,,,,,,,wg-a,,,,AAXX 29034 07280 12/62 80106 10120 20100 39795 40063 57007 60006 8807/ 90300=
07280,1996-04-29 06:00:00,12,1006.6,0.3,88,10,500,11.112,,,30,11.2,17.1,,,,,,,,21,wg-a,,,,AAXX 29064 07280 02700 80306 10120 20100 39798 40066 53003 61000 72122 8357/ 90600 333 10171 20112 6100=
07280,1996-04-29 09:00:00,13,1006.5,0,82,10,6000,14.816,,,20,,,,,,,,,,,wg-a,,,,AAXX 29094 07280 12556 80208 10130 20100 39798 40065 50000 60006 8357/ 90900=
07280,1996-04-29 12:00:00,18,1004.6,-1.4,59,10,12000,11.112,,,20,,,,,,,,,,,wg-a,,,,AAXX 29124 07280 12562 70206 10180 20100 39784 40046 58014 60006 82232 91200=
07280,1996-04-29 15:00:00,17,1003.2,-1.5,55,8,15000,11.112,,,10,,,,,,,,,,,wg-a,,,,AAXX 29154 07280 12665 80106 10170 20080 39769 40032 56015 60006 8323/ 91500=
07280,1996-04-29 18:00:00,14,1003.4,-0,77,10,9000,18.52,,,320,11.5,18.1,,,,,,,,60,wg-a,,,,AAXX 29184 07280 02659 83210 10140 20100 39769 40034 55000 61000 76062 8557/ 91800 333 10181 20115 ////=
07280,1996-04-29 21:00:00,13,1004.8,1.2,77,9,8000,14.816,,,350,,,,,,,,,,2,wg-a,,,,AAXX 29214 07280 02658 83508 10130 20090 39781 40048 51012 61000 70262 885// 92100 333 ////=
07280,1996-04-30 00:00:00,10,1005.1,0.1,93,9,6000,11.112,,,10,,,,1,,,,,,61,wg-a,,,,AAXX 30004 07280 02756 80106 10100 20090 39782 40051 50001 60016 76162 885// 90000 333 60017=
07280,1996-04-30 03:00:00,9,1004.8,-0.5,93,8,500,3.704,,,90,,,,1,,,,,,1,wg-a,,,,AAXX 30034 07280 12700 30902 10090 20080 39777 40048 56005 60017 70161 83500 90300=
07280,1996-04-30 06:00:00,8,1005.8,0.9,87,6,10000,7.408,,,330,5.7,13.9,,,,,2,,,2,wg-a,,,,AAXX 30064 07280 12760 73304 10080 20060 39786 40058 53009 60024 70261 81531 90600 333 10139 20057=
07280,1996-04-30 09:00:00,14,1005.5,0.2,55,5,15000,3.704,,,20,,,,,,,,,,,wg-a,,,,AAXX 30094 07280 12565 70202 10140 20050 39788 40055 53002 60006 86801 90900=
07280,1996-04-30 12:00:00,15,1004.2,-1.1,51,5,20000,7.408,,,40,,,,,,,,,,,wg-a,,,,AAXX 30124 07280 12670 /0404 10150 20050 39777 40042 58011 60006 81101 91200=
07280,1996-04-30 15:00:00,17,1002.2,-1.8,48,6,18000,3.704,,,190,,,,,,,,,,,wg-a,,,,AAXX 30154 07280 12668 71902 10170 20060 39759 40022 58018 60006 84801 91500=
07280,1996-04-30 18:00:00,15,1001.7,-0.6,55,6,15000,7.408,,,30,8.1,17.4,,,,,,,,,wg-a,,,,AAXX 30184 07280 12765 70304 10150 20060 39753 40017 55006 60006 854/1 91800 333 10174 20081=
07280,1996-04-30 21:00:00,11,1002.3,0.3,82,8,12000,3.704,,,240,,,,,,,,,,2,wg-a,,,,AAXX 30214 07280 02762 62402 10110 20080 39756 40023 53003 61000 70282 844/1 92100 333 ////=
07280,1996-05-01 00:00:00,8,1002.2,-0.5,93,7,12000,7.408,,,340,,,,,,,,,,1,wg-a,,,,AAXX 01004 07280 02762 43404 10080 20070 39751 40022 56005 61000 70181 84500 90000 333 ////=
07280,1996-05-01 03:00:00,8,1001.5,-0.7,93,7,12000,3.704,,,320,,,,,,,,,,,wg-a,,,,AAXX 01034 07280 12762 43202 10080 20070 39744 40015 56007 60006 84500 90300=
07280,1996-05-01 06:00:00,9,1002,0.6,100,9,7000,3.704,,,160,7.3,15.1,,0,,,,,,3,wg-a,,,,AAXX 01064 07280 02657 81602 10090 20090 39750 40020 53006 60004 70382 8653/ 90600 333 10151 20073 60007=
07280,1996-05-01 09:00:00,12,1002.1,0.4,82,9,12000,3.704,,,50,,,,1,,,,,,21,wg-a,,,,AAXX 01094 07280 12662 70502 10120 20090 39754 40021 51004 60017 72162 8457/ 90900=
07280,1996-05-01 12:00:00,13,1001.8,-0.2,72,8,9000,3.704,,,260,,,,0,,,,,,60,wg-a,,,,AAXX 01124 07280 02559 82602 10130 20080 39752 40018 58002 60016 76062 8482/ 91200 333 60007=
07280,1996-05-01 15:00:00,13,1000.1,-1.6,72,8,20000,7.408,,,90,,,,0,,,,,,1,wg-a,,,,AAXX 01154 07280 12570 80904 10130 20080 39736 40001 58016 60007 70162 8117/ 91500=
07280,1996-05-01 18:00:00,12,1000.2,-0,88,10,15000,11.112,,,180,9,13.8,,,,,,,,21,wg-a,,,,AAXX 01184 07280 02665 81806 10120 20100 39736 40002 55000 61000 72162 8317/ 91800 333 10138 20090 ////=
07280,1996-05-01 21:00:00,10,1000.2,-0.3,93,9,10000,7.408,,,190,,,,,,,,,,1,wg-a,,,,AAXX 01214 07280 02660 81904 10100 20090 39733 40002 56003 61000 70162 8117/ 92100 333 ////=
07280,1996-05-02 00:00:00,9,999.6,-0.6,93,8,6000,7.408,,,170,,,,,,,,,,3,wg-a,,,,AAXX 02004 07280 02656 81704 10090 20080 39727 49996 58006 61000 70362 8257/ 90000 333 ////=
07280,1996-05-02 03:00:00,8,998.6,-1,100,8,500,7.408,,,190,,,,,,,,,,,wg-a,,,,AAXX 02034 07280 12600 81904 10080 20080 39717 49986 56010 60006 8153/ 90300=
07280,1996-05-02 06:00:00,10,998.5,-0,87,8,12000,18.52,,,190,8.2,11.8,,,,,1,,,,wg-a,,,,AAXX 02064 07280 12462 71910 10100 20080 39717 49985 55000 60014 8677/ 90600 333 10118 20082=
07280,1996-05-02 09:00:00,13,998.3,0.1,77,9,15000,11.112,,,180,,,,,,,,,,,wg-a,,,,AAXX 02094 07280 12/65 61806 10130 20090 39718 49983 50001 60006 86030 90900=
07280,1996-05-02 12:00:00,14,997.1,-1.1,63,7,15000,18.52,,,220,,,,,,,,,,17,wg-a,,,,AAXX 02124 07280 12565 82210 10140 20070 39707 49971 55011 60006 71792 889// 91200=
07280,1996-05-02 15:00:00,8,999.8,2.1,100,8,8000,7.408,,,190,,,,3,,,,,,80,wg-a,,,,AAXX 02154 07280 12458 81904 10080 20080 39728 49998 53021 60037 78098 888// 91500=
07280,1996-05-02 18:00:00,9,1000.1,0.4,87,7,500,18.52,,,190,8.2,16.7,,0,,,,,,1,wg-a,,,,AAXX 02184 07280 12400 /1910 10090 20070 39732 40001 52004 60007 70198 83770 91800 333 10167 20082=
07280,1996-05-02 21:00:00,6,1000.9,0.5,93,5,500,7.408,,,160,,,,,,,,,,,wg-a,,,,AAXX 02214 07280 12500 21604 10060 20050 39737 40009 50005 60006 81131 92100=
07280,1996-05-03 00:00:00,4,1001.1,0,93,3,9000,3.704,,,200,,,,,,,,,,,wg-a,,,,AAXX 03004 07280 12/59 /2002 10040 20030 39737 40011 50000 60006 80001 90000=
07280,1996-05-03 03:00:00,5,1000.7,-0.3,100,5,3000,7.408,,,150,,,,,,,,,,10,wg-a,,,,AAXX 03034 07280 12230 81504 10050 20050 39734 40007 55003 60006 71011 886// 90300=
07280,1996-05-03 06:00:00,6,1000.7,-0,100,6,500,7.408,,,200,2.8,9.1,,,,,3,,,3,wg-a,,,,AAXX 03064 07280 02400 72004 10060 20060 39734 40007 55000 60034 70362 8683/ 90600 333 10091 20028 61000=
07280,1996-05-03 09:00:00,10,1000.9,0.6,82,7,15000,18.52,,,200,,,,,,,,,,80,wg-a,,,,AAXX 03094 07280 02465 82010 10100 20070 39740 40009 53006 61000 78022 871// 90900 333 ////=
07280,1996-05-03 12:00:00,11,1001.3,0.5,76,7,15000,25.928,,,190,,,,0,,,,,,25,wg-a,,,,AAXX 03124 07280 02365 71914 10110 20070 39745 40013 50005 60006 72582 872// 91200 333 60007=
07280,1996-05-03 15:00:00,10,1002.3,0.9,87,8,8000,14.816,,,190,,,,2,,,,,,80,wg-a,,,,AAXX 03154 07280 12358 81908 10100 20080 39754 40023 51009 60027 78082 888// 91500=
07280,1996-05-03 18:00:00,10,1004.3,2,87,8,15000,11.112,,,200,5.7,11.6,,1,,,,,,15,wg-a,,,,AAXX 03184 07280 12465 52006 10100 20080 39774 40043 53020 60017 71582 85303 91800 333 10116 20057=
07280,1996-05-03 21:00:00,9,1007.7,3.2,87,7,15000,11.112,,,300,,,,,,,,,,,wg-a,,,,AAXX 03214 07280 12665 /3006 10090 20070 39806 40077 51032 60006 85400 92100=
07280,1996-05-04 00:00:00,8,1009.7,1.8,93,7,15000,0,,,0,,,,,,,,,,,wg-a,,,,AAXX 04004 07280 12665 70000 10080 20070 39824 40097 51018 60006 875// 90000=
07280,1996-05-04 03:00:00,7,1010.9,1.1,87,5,12000,7.408,,,340,,,,,,,,,,,wg-a,,,,AAXX 04034 07280 12662 83404 10070 20050 39835 40109 53011 60006 885// 90300=
07280,1996-05-04 06:00:00,7,1012.9,1.9,87,5,8000,3.704,,,30,6.8,10.4,,0,,,4,,,60,wg-a,,,,AAXX 04064 07280 02558 80302 10070 20050 39854 40129 53019 60044 76062 875// 90600 333 10104 20068 60007=
07280,1996-05-04 09:00:00,9,1014.5,1.8,76,5,10000,7.408,,,340,,,,,,,,,,3,wg-a,,,,AAXX 04094 07280 02460 83404 10090 20050 39872 40145 53018 61000 70362 888// 90900 333 ////=
07280,1996-05-04 12:00:00,10,1015.5,1.1,76,6,12000,7.408,,,120,,,,,,,,,,,wg-a,,,,AAXX 04124 07280 02462 81204 10100 20060 39883 40155 51011 61000 888// 91200 333 ////=
07280,1996-05-04 15:00:00,13,1014.8,-0.5,62,6,15000,3.704,,,80,,,,,,,,,,,wg-a,,,,AAXX 04154 07280 12565 50802 10130 20060 39878 40148 58005 60006 85800 91500=
07280,1996-05-04 18:00:00,11,1015.5,0.6,71,6,15000,3.704,,,70,7.1,13.3,,,,,,,,,wg-a,,,,AAXX 04184 07280 32665 /0702 10110 20060 39884 40155 53006 81201 91800 333 10133 20071=
07280,1996-05-04 21:00:00,8,1016.9,1,81,5,12000,11.112,,,10,,,,,,,,,,,wg-a,,,,AAXX 04214 07280 12/62 40106 10080 20050 39894 40169 53010 60006 80001 92100=
07280,1996-05-05 00:00:00,5,1017.5,0.3,93,4,10000,11.112,,,20,,,,,,,,,,,wg-a,,,,AAXX 05004 07280 12/60 20206 10050 20040 39897 40175 50003 60006 80001 90000=
07280,1996-05-05 03:00:00,5,1016.9,-0.6,87,3,10000,11.112,,,360,,,,,,,,,,,wg-a,,,,AAXX 05034 07280 12/60 63606 10050 20030 39891 40169 56006 60006 83032 90300=
07280,1996-05-05 06:00:00,6,1016.9,0.1,81,3,12000,18.52,,,10,4.5,11.3,,,,,,,,,wg-a,,,,AAXX 05064 07280 02762 70110 10060 20030 39892 40169 53001 60006 87230 90600 333 10113 20045 61000=
07280,1996-05-05 09:00:00,12,1016,-0.3,62,5,20000,14.816,,,40,,,,,,,,,,,wg-a,,,,AAXX 05094 07280 12/70 10408 10120 20050 39889 40160 58003 60006 81031 90900=
07280,1996-05-05 12:00:00,15,1014.7,-1,51,5,25000,11.112,,,30,,,,,,,,,,,wg-a,,,,AAXX 05124 07280 12675 20306 10150 20050 39879 40147 58010 60006 81101 91200=
07280,1996-05-05 15:00:00,17,1013,-1.4,48,6,25000,7.408,,,80,,,,,,,,,,,wg-a,,,,AAXX 05154 07280 12675 /0804 10170 20060 39865 40130 58014 60006 81200 91500=
07280,1996-05-05 18:00:00,16,1012.3,-0.8,55,7,25000,7.408,,,80,6,17.4,,,,,,,,,wg-a,,,,AAXX 05184 07280 12775 10804 10160 20070 39857 40123 56008 60006 81101 91800 333 10174 20060=
07280,1996-05-05 21:00:00,11,1013.1,0.3,71,6,8000,7.408,,,10,,,,,,,,,,,wg-a,,,,AAXX 05214 07280 12/58 20104 10110 20060 39860 40131 52003 60006 80001 92100=
07280,1996-05-06 00:00:00,8,1013.1,-0.3,81,5,10000,14.816,,,350,,,,,,,,,,,wg-a,,,,AAXX 06004 07280 12/60 23508 10080 20050 39857 40131 58003 60006 80002 90000=
07280,1996-05-06 03:00:00,8,1012.5,-0.6,81,5,10000,11.112,,,350,,,,,,,,,,,wg-a,,,,AAXX 06034 07280 12/60 /3506 10080 20050 39851 40125 58006 60006 90300=
07280,1996-05-06 06:00:00,9,1012.4,-0,81,6,12000,11.112,,,20,6.7,15.8,,,,,,,,,wg-a,,,,AAXX 06064 07280 12/62 10206 10090 20060 39851 40124 55000 60006 81031 90600 333 10158 20067=
07280,1996-05-06 09:00:00,15,1011.4,-0.4,63,8,15000,3.704,,,90,,,,,,,,,,,wg-a,,,,AAXX 06094 07280 12/65 30902 10150 20080 39847 40114 57004 60006 81031 90900=
07280,1996-05-06 12:00:00,21,1009.1,-1.7,49,10,25000,22.224,,,180,,,,,,,,,,,wg-a,,,,AAXX 06124 07280 12675 /1812 10210 20100 39830 40091 56017 60006 82101 91200=
07280,1996-05-06 15:00:00,22,1007,-1.9,46,10,500,22.224,,,190,,,,,,,,,,,wg-a,,,,AAXX 06154 07280 12700 51912 10220 20100 39811 40070 57019 60006 82101 91500=
07280,1996-05-06 18:00:00,20,1006.8,-0.4,53,10,500,11.112,,,170,8.7,22.7,,,,,,,,,wg-a,,,,AAXX 06184 07280 12700 71706 10200 20100 39807 40068 55004 60006 81201 91800 333 10227 20087=
07280,1996-05-06 21:00:00,14,1008.4,1,77,10,25000,3.704,,,290,,,,,,,,,,,wg-a,,,,AAXX 06214 07280 12/75 32902 10140 20100 39817 40084 53010 60006 80001 92100=
07280,1996-05-07 00:00:00,11,1009.1,0.4,82,8,25000,3.704,,,150,,,,,,,,,,,wg-a,,,,AAXX 07004 07280 12775 11502 10110 20080 39821 40091 50004 60006 81400 90000=
07280,1996-05-07 03:00:00,9,1009.3,0,93,8,20000,3.704,,,80,,,,,,,,,,,wg-a,,,,AAXX 07034 07280 12/70 20802 10090 20080 39821 40093 50000 60006 80001 90300=
07280,1996-05-07 06:00:00,10,1009.7,0.5,93,9,20000,3.704,,,340,8.1,22.7,,,,,,,,,wg-a,,,,AAXX 07064 07280 12870 43402 10100 20090 39826 40097 53005 60006 83082 90600 333 10227 20081=
07280,1996-05-07 09:00:00,15,1010.1,0.9,82,12,500,11.112,,,190,,,,0,,,,,,80,wg-a,,,,AAXX 07094 07280 12800 71906 10150 20120 39835 40101 53009 60007 78081 8708/ 90900=
07280,1996-05-07 12:00:00,18,1009.4,-0.4,64,11,500,3.704,,,230,,,,,,,,,,80,wg-a,,,,AAXX 07124 07280 02500 82302 10180 20110 39831 40094 57004 60006 78081 8128/ 91200 333 61000=
07280,1996-05-07 15:00:00,20,1008.2,-1,53,10,500,11.112,,,30,,,,,,,,,,3,wg-a,,,,AAXX 07154 07280 02600 70306 10200 20100 39821 40082 56010 61000 70382 81282 91500 333 ////=
07280,1996-05-07 18:00:00,17,1009.3,0.8,82,14,15000,7.408,,,50,9.8,20.4,,0,,,,,,17,wg-a,,,,AAXX 07184 07280 12565 80504 10170 20140 39829 40093 52008 60007 71798 8597/ 91800 333 10204 20098=
07280,1996-05-07 21:00:00,12,1011.2,1.4,94,11,500,3.704,,,110,,,,0,,,,,,1,wg-a,,,,AAXX 07214 07280 12600 71102 10120 20110 39843 40112 53014 60007 70198 8117/ 92100=
07280,1996-05-08 00:00:00,12,1011.5,0.3,94,11,20000,7.408,,,360,,,,,,,,,,3,wg-a,,,,AAXX 08004 07280 12770 63604 10120 20110 39846 40115 51003 60006 70398 86500 90000=
07280,1996-05-08 03:00:00,11,1012.1,0.5,94,10,20000,11.112,,,360,,,,,,,,,,29,wg-a,,,,AAXX 08034 07280 12670 /3606 10110 20100 39851 40121 50005 60006 72992 86900 90300=
07280,1996-05-08 06:00:00,11,1012.7,0.5,94,10,15000,7.408,,,230,10.3,17,,,,,1,,,1,wg-a,,,,AAXX 08064 07280 12765 72304 10110 20100 39856 40127 53005 60014 70192 8157/ 90600 333 10170 20103=
07280,1996-05-08 09:00:00,15,1012.8,0.5,82,12,20000,7.408,,,210,,,,,,,,,,,wg-a,,,,AAXX 08094 07280 12470 /2104 10150 20120 39861 40128 51005 60006 82572 90900=
07280,1996-05-08 12:00:00,18,1011.7,-0.8,73,13,15000,3.704,,,150,,,,0,,,,,,25,wg-a,,,,AAXX 08124 07280 02465 /1502 10180 20130 39853 40117 58008 60006 72582 84372 91200 333 60007=
07280,1996-05-08 15:00:00,18,1010.5,-1.1,56,9,12000,22.224,,,40,,,,,,,,,,,wg-a,,,,AAXX 08154 07280 12462 /0412 10180 20090 39842 40105 56011 60006 84930 91500=
07280,1996-05-08 18:00:00,16,1010.9,0.1,72,11,15000,14.816,,,340,10.9,19.9,,,,,,,,,wg-a,,,,AAXX 08184 07280 32565 83408 10160 20110 39843 40109 51001 878// 91800 333 10199 20109=
07280,1996-05-08 21:00:00,14,1011.8,0.8,88,12,15000,14.816,,,350,,,,,,,,,,,wg-a,,,,AAXX 08214 07280 12765 83508 10140 20120 39851 40118 51008 60006 8357/ 92100=
07280,1996-05-09 00:00:00,13,1011.9,0,88,11,10000,18.52,,,20,,,,,,,,,,1,wg-a,,,,AAXX 09004 07280 02560 80210 10130 20110 39851 40119 50000 61000 70162 888// 90000 333 6100=
07280,1996-05-09 03:00:00,11,1011.7,-0.4,87,9,8000,22.224,,,10,,,,,,,,,,,wg-a,,,,AAXX 09034 07280 12458 80112 10110 20090 39847 40117 57004 60006 885// 90300=
07280,1996-05-09 06:00:00,11,1011.9,0.1,82,8,8000,18.52,,,30,10.7,15.7,,,,,,,,,wg-a,,,,AAXX 09064 07280 12458 80310 10110 20080 39848 40119 53001 60004 875// 90600 333 10157 20107=
07280,1996-05-09 09:00:00,11,1012.3,0.4,76,7,7000,25.928,,,30,,,,,,,,,,,wg-a,,,,AAXX 09094 07280 12457 80314 10110 20070 39852 40123 50004 60006 885// 90900=
07280,1996-05-09 12:00:00,11,1012.1,-0.2,71,6,10000,25.928,,,20,,,,,,,,,,,wg-a,,,,AAXX 09124 07280 12560 80214 10110 20060 39850 40121 58002 60006 888// 91200=
07280,1996-05-09 15:00:00,10,1011.9,-0.2,76,6,8000,25.928,,,20,,,,,,,,,,,wg-a,,,,AAXX 09154 07280 12458 80214 10100 20060 39848 40119 58002 60006 8573/ 91500=
07280,1996-05-09 18:00:00,9,1012.3,0.2,76,5,9000,25.928,,,20,9.1,11.8,,,,,,,,,wg-a,,,,AAXX 09184 07280 12459 80214 10090 20050 39850 40123 53002 60006 8477/ 91800 333 10118 20091=
07280,1996-05-09 21:00:00,8,1012.6,0.2,81,5,8000,22.224,,,20,,,,,,,,,,1,wg-a,,,,AAXX 09214 07280 02558 70212 10080 20050 39852 40126 50002 61000 70182 878// 92100 333 ////=
07280,1996-05-10 00:00:00,7,1011.4,-1.2,81,4,8000,22.224,,,20,,,,,,,,,,,wg-a,,,,AAXX 10004 07280 02758 /0212 10070 20040 39840 40114 57012 61000 81570 90000 333 ////=
07280,1996-05-10 03:00:00,6,1010.6,-1,81,3,6000,18.52,,,20,,,,,,,,,,,wg-a,,,,AAXX 10034 07280 12756 /0210 10060 20030 39830 40106 56010 60006 81570 90300=
07280,1996-05-10 06:00:00,6,1010.3,-0.2,81,3,15000,22.224,,,20,5.2,9.1,,,,,,,,,wg-a,,,,AAXX 10064 07280 02465 80212 10060 20030 39828 40103 55002 61000 875// 90600 333 10091 20052 ////=
07280,1996-05-10 09:00:00,8,1009.8,-0.3,76,4,20000,22.224,,,30,,,,,,,,,,,wg-a,,,,AAXX 10094 07280 12470 80312 10080 20040 39825 40098 56003 60006 888// 90900=
07280,1996-05-10 12:00:00,10,1009.5,-0.1,66,4,20000,22.224,,,30,,,,,,,,,,,wg-a,,,,AAXX 10124 07280 12570 /0312 10100 20040 39824 40095 58001 60006 878// 91200=
07280,1996-05-10 15:00:00,11,1009.1,-0.3,66,5,20000,22.224,,,20,,,,,,,,,,,wg-a,,,,AAXX 10154 07280 12670 80212 10110 20050 39821 40091 57003 60006 888// 91500=
07280,1996-05-10 18:00:00,10,1009.4,0.2,66,4,20000,18.52,,,40,5.8,11.4,,,,,,,,,wg-a,,,,AAXX 10184 07280 12670 70410 10100 20040 39823 40094 53002 60006 875// 91800 333 10114 20058=
07280,1996-05-10 21:00:00,9,1010.7,1.1,71,4,20000,18.52,,,20,,,,,,,,,,,wg-a,,,,AAXX 10214 07280 12670 80210 10090 20040 39834 40107 51011 60006 885// 92100=
07280,1996-05-11 00:00:00,8,1010.6,-0.1,76,4,18000,14.816,,,360,,,,,,,,,,,wg-a,,,,AAXX 11004 07280 12568 73608 10080 20040 39833 40106 58001 60006 875// 90000=
07280,1996-05-11 03:00:00,8,1010.2,-0.4,76,4,15000,18.52,,,20,,,,,,,,,,,wg-a,,,,AAXX 11034 07280 12565 80210 10080 20040 39829 40102 56004 60006 885// 90300=
07280,1996-05-11 06:00:00,8,1010.5,0.3,81,5,11000,14.816,,,30,7.5,9.7,,,,,,,,,wg-a,,,,AAXX 11064 07280 12561 70308 10080 20050 39832 40105 53003 60006 875// 90600 333 10097 20075=
07280,1996-05-11 09:00:00,11,1010.3,0.1,71,6,12000,18.52,,,30,,,,,,,,,,,wg-a,,,,AAXX 11094 07280 12562 70310 10110 20060 39833 40103 50001 60006 878// 90900=
07280,1996-05-11 12:00:00,13,1009.8,-0.3,67,7,18000,14.816,,,350,,,,,,,,,,,wg-a,,,,AAXX 11124 07280 12568 73508 10130 20070 39830 40098 56003 60006 872// 91200=
07280,1996-05-11 15:00:00,14,1009.2,-0.5,63,7,20000,18.52,,,340,,,,,,,,,,,wg-a,,,,AAXX 11154 07280 12670 83410 10140 20070 39825 40092 57005 60006 878// 91500=
07280,1996-05-11 18:00:00,13,1010.2,0.9,67,7,20000,14.816,,,360,8.1,15.1,,,,,,,,,wg-a,,,,AAXX 11184 07280 12670 73608 10130 20070 39834 40102 52009 60006 875// 91800 333 10151 20081=
07280,1996-05-11 21:00:00,12,1011.2,0.9,71,7,15000,14.816,,,360,,,,,,,,,,,wg-a,,,,AAXX 11214 07280 32665 73608 10120 20070 39843 40112 52009 875// 92100=
07280,1996-05-12 00:00:00,11,1011.6,0.3,82,8,15000,11.112,,,10,,,,,,,,,,,wg-a,,,,AAXX 12004 07280 32665 70106 10110 20080 39846 40116 51003 875// 90000=
07280,1996-05-12 03:00:00,11,1011.5,-0.2,82,8,15000,14.816,,,10,,,,,,,,,,,wg-a,,,,AAXX 12034 07280 12665 70108 10110 20080 39844 40115 55002 60006 875// 90300=
07280,1996-05-12 06:00:00,11,1012.6,1.1,82,8,10000,14.816,,,360,,,,,,,,,,,wg-a,,,,AAXX 12064 07280 32560 83608 10110 20080 39855 40126 53011 885// 90600=
07280,1996-05-12 09:00:00,12,1013.3,0.8,76,8,12000,18.52,,,10,,,,,,,,,,,wg-a,,,,AAXX 12094 07280 12562 80110 10120 20080 39863 40133 52008 60006 885// 90900=
07280,1996-05-12 12:00:00,13,1014.2,1,72,8,12000,25.928,,,360,,,,,,,,,,,wg-a,,,,AAXX 12124 07280 12562 83614 10130 20080 39873 40142 51010 60006 885// 91200=
07280,1996-05-12 15:00:00,12,1015.7,1.4,71,7,11000,25.928,,,340,,,,,,,,,,,wg-a,,,,AAXX 12154 07280 12561 83414 10120 20070 39887 40157 51014 60006 8657/ 91500=
07280,1996-05-12 18:00:00,12,1017.2,1.4,67,6,12000,22.224,,,340,10.7,13.5,,,,,,,,,wg-a,,,,AAXX 12184 07280 12562 83412 10120 20060 39901 40172 53014 60006 885// 91800 333 10135 20107=
07280,1996-05-12 21:00:00,11,1019.2,1.8,76,7,12000,22.224,,,330,,,,,,,,,,,wg-a,,,,AAXX 12214 07280 12562 83312 10110 20070 39919 40192 51018 60006 885// 92100=
07280,1996-05-13 00:00:00,10,1019.4,0.1,82,7,12000,22.224,,,330,,,,,,,,,,,wg-a,,,,AAXX 13004 07280 12562 83312 10100 20070 39920 40194 52001 60006 885// 90000=
07280,1996-05-13 03:00:00,9,1020.2,0.7,81,6,12000,22.224,,,340,,,,,,,,,,,wg-a,,,,AAXX 13034 07280 12662 83412 10090 20060 39927 40202 53007 60006 885// 90300=
07280,1996-05-13 06:00:00,8,1021.1,0.8,87,6,9000,14.816,,,360,8,11.6,,0,,,,,,3,wg-a,,,,AAXX 13064 07280 02459 83608 10080 20060 39935 40211 53008 60004 70362 888// 90600 333 10116 20080 60007=
07280,1996-05-13 09:00:00,10,1021,0.1,82,7,12000,18.52,,,350,,,,,,,,,,3,wg-a,,,,AAXX 13094 07280 02462 83510 10100 20070 39936 40210 51001 61000 70362 875// 90900 333 ////=
07280,1996-05-13 12:00:00,10,1021,-0,82,7,6000,25.928,,,350,,,,,,,,,,60,wg-a,,,,AAXX 13124 07280 02456 83514 10100 20070 39936 40210 54000 61000 76062 885// 91200 333 6100=
07280,1996-05-13 15:00:00,10,1020.9,-0.1,82,7,500,25.928,,,350,,,,,,,,,,3,wg-a,,,,AAXX 13154 07280 02400 83514 10100 20070 39935 40209 57001 61000 70362 875// 91500 333 ////=
07280,1996-05-13 18:00:00,11,1021.1,0.2,71,6,10000,18.52,,,10,8.1,10.9,,,,,,,,3,wg-a,,,,AAXX 13184 07280 32460 80110 10110 20060 39937 40211 53002 70362 888// 91800 333 10109 20081=
07280,1996-05-13 21:00:00,9,1021,-0.2,81,6,9000,14.816,,,350,,,,,,,,,,,wg-a,,,,AAXX 13214 07280 12559 83508 10090 20060 39935 40210 58002 60006 885// 92100=
07280,1996-05-14 00:00:00,9,1019.3,-1.6,87,7,8000,14.816,,,360,,,,,,,,,,,wg-a,,,,AAXX 14004 07280 12558 83608 10090 20070 39919 40193 58016 60006 885// 90000=
07280,1996-05-14 03:00:00,9,1018.9,-0.4,87,7,7000,14.816,,,10,,,,,,,,,,,wg-a,,,,AAXX 14034 07280 12557 80108 10090 20070 39915 40189 58004 60006 885// 90300=
07280,1996-05-14 06:00:00,9,1017.9,-1,93,8,500,14.816,,,10,8.9,10.5,,,,,,,,,wg-a,,,,AAXX 14064 07280 02400 80108 10090 20080 39905 40179 57010 60006 885// 90600 333 10105 20089 61000=
07280,1996-05-14 09:00:00,11,1016.8,-0.8,87,9,9000,14.816,,,40,,,,,,,,,,,wg-a,,,,AAXX 14094 07280 12359 /0408 10110 20090 39897 40168 56008 60006 876// 90900=
07280,1996-05-14 12:00:00,14,1015,-1.5,72,9,12000,14.816,,,360,,,,,,,,,,,wg-a,,,,AAXX 14124 07280 12462 83608 10140 20090 39882 40150 58015 60006 888// 91200=
07280,1996-05-14 15:00:00,14,1014.1,-0.9,77,10,12000,22.224,,,30,,,,,,,,,,,wg-a,,,,AAXX 14154 07280 12562 80312 10140 20100 39873 40141 57009 60006 885// 91500=
07280,1996-05-14 18:00:00,13,1014,-0.2,82,10,8000,14.816,,,10,9.1,14.5,,,,,,,,,wg-a,,,,AAXX 14184 07280 12558 80108 10130 20100 39871 40140 55002 60006 885// 91800 333 10145 20091=
07280,1996-05-14 21:00:00,12,1013.9,-0.2,88,10,6000,11.112,,,10,,,,,,,,,,,wg-a,,,,AAXX 14214 07280 12556 80106 10120 20100 39869 40139 58002 60006 885// 92100=
07280,1996-05-15 00:00:00,12,1012.4,-1.5,88,10,500,14.816,,,20,,,,,,,,,,,wg-a,,,,AAXX 15004 07280 12400 80208 10120 20100 39854 40124 58015 60006 885// 90000=
07280,1996-05-15 03:00:00,12,1011.5,-0.8,94,11,4000,11.112,,,360,,,,,,,,,,10,wg-a,,,,AAXX 15034 07280 12440 83606 10120 20110 39846 40115 58008 60006 71022 885// 90300=
07280,1996-05-15 06:00:00,12,1011.4,-0.1,94,11,3500,11.112,,,20,11.6,12.6,,,,,,,,10,wg-a,,,,AAXX 15064 07280 12435 80206 10120 20110 39845 40114 55001 60006 71022 886// 90600 333 10126 20116=
07280,1996-05-15 09:00:00,14,1011.5,0.2,88,12,4000,11.112,,,50,,,,,,,,,,10,wg-a,,,,AAXX 15094 07280 12440 80506 10140 20120 39847 40115 50002 60006 71022 876// 90900=
07280,1996-05-15 12:00:00,14,1011.3,-0.1,88,12,500,7.408,,,50,,,,,,,,,,,wg-a,,,,AAXX 15124 07280 12400 80504 10140 20120 39846 40113 58001 60006 876// 91200=
07280,1996-05-15 15:00:00,15,1010.9,-0.3,82,12,10000,7.408,,,40,,,,,,,,,,,wg-a,,,,AAXX 15154 07280 12460 80404 10150 20120 39843 40109 56003 60006 888// 91500=
07280,1996-05-15 18:00:00,15,1010.5,-0,82,12,10000,11.112,,,20,12.4,15.5,,,,,,,,,wg-a,,,,AAXX 15184 07280 12560 70206 10150 20120 39839 40105 54000 60006 875// 91800 333 10155 20124=
07280,1996-05-15 21:00:00,13,1011.6,0.9,88,11,10000,11.112,,,10,,,,,,,,,,,wg-a,,,,AAXX 15214 07280 12560 70106 10130 20110 39848 40116 51009 60006 875// 92100=
07280,1996-05-16 00:00:00,13,1011.5,-0.2,88,11,8000,14.816,,,20,,,,,,,,,,,wg-a,,,,AAXX 16004 07280 12458 /0208 10130 20110 39846 40115 58002 60006 86500 90000=
07280,1996-05-16 03:00:00,12,1011.3,-0.2,94,11,8000,11.112,,,30,,,,,,,,,,,wg-a,,,,AAXX 16034 07280 12458 70306 10120 20110 39844 40113 58002 60006 875// 90300=
07280,1996-05-16 06:00:00,11,1011.2,-0.2,94,10,500,11.112,,,40,11,14.8,,,,,,,,,wg-a,,,,AAXX 16064 07280 12400 80406 10110 20100 39842 40112 57002 60006 886// 90600 333 10148 20110=
07280,1996-05-16 09:00:00,13,1010.2,-0.8,82,10,8000,7.408,,,70,,,,,,,,,,,wg-a,,,,AAXX 16094 07280 12458 70704 10130 20100 39834 40102 58008 60006 8657/ 90900=
07280,1996-05-16 12:00:00,20,1007.3,-2.2,64,13,12000,7.408,,,150,,,,,,,,,,,wg-a,,,,AAXX 16124 07280 12562 /1504 10200 20130 39812 40073 58022 60006 81100 91200=
07280,1996-05-16 15:00:00,23,1004.6,-2.3,53,13,20000,11.112,,,180,,,,,,,,,,,wg-a,,,,AAXX 16154 07280 12570 31806 10230 20130 39789 40046 58023 60006 81202 91500=
07280,1996-05-16 18:00:00,17,1005.4,0.2,77,13,20000,22.224,,,320,10.8,24,,,,,,,,25,wg-a,,,,AAXX 16184 07280 02570 73212 10170 20130 39791 40054 53002 61000 72598 8597/ 91800 333 10240 20108 ////=
07280,1996-05-16 21:00:00,15,1009.1,3.4,94,14,7000,14.816,,,200,,,,2,,,,,,80,wg-a,,,,AAXX 16214 07280 12557 82008 10150 20140 39825 40091 53034 60027 78098 882// 92100=
07280,1996-05-17 00:00:00,13,1009.3,-0.1,100,13,7000,11.112,,,190,,,,10,,,,,,80,wg-a,,,,AAXX 17004 07280 02557 81906 10130 20130 39826 40093 55001 60126 78098 888// 90000 333 60107=
07280,1996-05-17 03:00:00,12,1008.6,-0.8,94,11,9000,0,,,0,,,,,,,,,,1,wg-a,,,,AAXX 17034 07280 02559 70000 10120 20110 39818 40086 58008 61000 70182 878// 90300 333 ////=
07280,1996-05-17 06:00:00,13,1008.9,0.4,94,12,8000,14.816,,,200,10.1,16.6,,,,,12,,,3,wg-a,,,,AAXX 17064 07280 12458 42008 10130 20120 39822 40089 51004 60124 70384 82830 90600 333 10166 20101=
07280,1996-05-17 09:00:00,17,1007.5,-1.1,72,12,15000,22.224,,,190,,,,,,,,,,,wg-a,,,,AAXX 17094 07280 12465 /1912 10170 20120 39811 40075 58011 60006 81181 90900=
07280,1996-05-17 12:00:00,22,1005.2,-1.8,57,13,15000,29.632,,,190,,,,,,,,,,,wg-a,,,,AAXX 17124 07280 12565 51916 10220 20130 39793 40052 57018 60006 81182 91200=
07280,1996-05-17 15:00:00,14,1006.8,0.9,94,13,12000,11.112,,,240,,,,4,,,,,,81,wg-a,,,,AAXX 17154 07280 12462 72406 10140 20130 39802 40068 53009 60047 78198 879// 91500=
07280,1996-05-17 18:00:00,15,1007.1,0.4,,,12000,11.112,,,320,,21.5,,1,,,,,,81,wg-a,,,,AAXX 17184 07280 12462 73206 10150 2//// 39806 40071 53004 60017 78198 8697/ 91800 333 10215=
07280,1996-05-17 21:00:00,13,1007.1,-0.2,100,13,8000,11.112,,,120,,,,7,,,,,,17,wg-a,,,,AAXX 17214 07280 12558 71206 10130 20130 39804 40071 57002 60077 71798 8697/ 92100=
07280,1996-05-18 00:00:00,13,1006,-1.1,100,13,8000,3.704,,,300,,,,0,,,,,,1,wg-a,,,,AAXX 18004 07280 02558 73002 10130 20130 39793 40060 56011 60076 70198 8687/ 90000 333 60007=
07280,1996-05-18 03:00:00,12,1004.3,-1.7,100,12,500,3.704,,,200,,,,,,,,,,,wg-a,,,,AAXX 18034 07280 32/00 /2002 10120 20120 39776 40043 56017 90300=
07280,1996-05-18 06:00:00,13,1004.4,0.2,94,12,500,11.112,,,200,12,14.7,,1,,,14,,,10,wg-a,,,,AAXX 18064 07280 02400 82006 10130 20120 39778 40044 50002 60144 71086 888// 90600 333 10147 20120 60017=
07280,1996-05-18 09:00:00,13,1005,0.6,100,13,500,7.408,,,180,,,,10,,,,,,63,wg-a,,,,AAXX 18094 07280 12200 81804 10130 20130 39784 40050 52006 60107 76366 888// 90900=
07280,1996-05-18 12:00:00,13,1005.2,0.2,100,13,12000,7.408,,,160,,,,4,,,,,,80,wg-a,,,,AAXX 18124 07280 02262 81604 10130 20130 39786 40052 50002 60146 78086 879// 91200 333 60047=
07280,1996-05-18 15:00:00,14,1002.5,-2.6,94,13,12000,11.112,,,50,,,,2,,,,,,17,wg-a,,,,AAXX 18154 07280 12462 80506 10140 20130 39760 40025 56026 60027 71798 879// 91500=
07280,1996-05-18 18:00:00,12,1003.1,0.4,94,11,12000,7.408,,,30,12,14.5,,9,,,,,,29,wg-a,,,,AAXX 18184 07280 12462 70304 10120 20110 39764 40031 51004 60097 72998 85903 91800 333 10145 20120=
07280,1996-05-18 21:00:00,12,1006,2.8,94,11,8000,0,,,0,,,,4,,,,,,82,wg-a,,,,AAXX 18214 07280 12458 80000 10120 20110 39792 40060 53028 60047 78299 889// 92100=
07280,1996-05-19 00:00:00,12,1006.2,0.2,94,11,7000,7.408,,,190,,,,2,,,,,,25,wg-a,,,,AAXX 19004 07280 02357 81904 10120 20110 39794 40062 53002 60066 72598 8427/ 90000 333 60027=
07280,1996-05-19 03:00:00,11,1004.4,-1.8,100,11,8000,7.408,,,260,,,,1,,,,,,80,wg-a,,,,AAXX 19034 07280 12458 82604 10110 20110 39776 40044 56018 60017 78082 8527/ 90300=
07280,1996-05-19 06:00:00,10,1005.8,1.2,93,9,10000,22.224,,,310,10,12.3,,9,,,41,,,63,wg-a,,,,AAXX 19064 07280 02460 83112 10100 20090 39788 40058 53012 60414 76386 8572/ 90600 333 10123 20100 60097=
07280,1996-05-19 09:00:00,10,1009.2,3.4,100,10,15000,11.112,,,180,,,,4,,,,,,61,wg-a,,,,AAXX 19094 07280 12465 81806 10100 20100 39822 40092 51034 60047 76166 8687/ 90900=
07280,1996-05-19 12:00:00,12,1009.7,0.6,88,10,20000,14.816,,,190,,,,0,,,,,,60,wg-a,,,,AAXX 19124 07280 02570 71908 10120 20100 39828 40097 50006 60046 76062 878// 91200 333 60007=
07280,1996-05-19 15:00:00,12,1009.9,0.2,82,9,12000,11.112,,,280,,,,1,,,,,,80,wg-a,,,,AAXX 19154 07280 12562 72806 10120 20090 39830 40099 53002 60017 78022 8427/ 91500=
07280,1996-05-19 17:00:00,13,1010.5,0.7,72,8,50000,11.112,,,210,9.4,14.1,,1,,,,,,3,wg-a,,,,AAXX 19174 07280 12484 /2106 10130 20080 39837 40105 53007 60017 70386 82270 91700 333 10141 20094=
07280,1996-05-19 18:00:00,13,1010.5,0.7,72,8,50000,11.112,,,210,9.4,14.1,,1,,,,,,3,wg-a,,,,AAXX 19184 07280 12484 /2106 10130 20080 39837 40105 53007 60017 70386 82270 91800 333 10141 20094=
07280,1996-05-19 21:00:00,8,1012.7,1.6,93,7,10000,0,,,0,,,,,,,,,,,wg-a,,,,AAXX 19214 07280 12560 50000 10080 20070 39853 40127 53016 60006 83230 92100=
07280,1996-05-20 00:00:00,6,1013,0.2,100,6,10000,7.408,,,330,,,,,,,,,,,wg-a,,,,AAXX 20004 07280 12760 43304 10060 20060 39855 40130 53002 60006 83530 90000=
07280,1996-05-20 03:00:00,4,1014,0.7,100,4,500,3.704,,,60,,,,,,,,,,,wg-a,,,,AAXX 20034 07280 12400 50602 10040 20040 39862 40140 53007 60006 85500 90300=
07280,1996-05-20 06:00:00,7,1015.3,1.6,100,7,20000,7.408,,,340,3.7,12.9,,,,,6,,,,wg-a,,,,AAXX 20064 07280 02/70 63404 10070 20070 39878 40153 51016 60006 81032 90600 333 10129 20037 60064=
07280,1996-05-20 09:00:00,14,1016.3,1.6,67,8,40000,7.408,,,50,,,,,,,,,,,wg-a,,,,AAXX 20094 07280 12582 50504 10140 20080 39894 40163 51016 60006 83201 90900=
07280,1996-05-20 12:00:00,14,1017.2,0.9,63,7,15000,11.112,,,160,,,,,,,,,,25,wg-a,,,,AAXX 20124 07280 02565 /1606 10140 20070 39903 40172 53009 61000 72581 85960 91200 333 6100=
07280,1996-05-20 15:00:00,16,1017,-0.2,51,6,50000,7.408,,,170,,,,,,,,,,,wg-a,,,,AAXX 20154 07280 12684 51704 10160 20060 39903 40170 57002 60006 85800 91500=
07280,1996-05-20 18:00:00,14,1017.7,0.5,72,9,500,7.408,,,140,7.1,16.6,,,,,,,,,wg-a,,,,AAXX 20184 07280 32600 /1404 10140 20090 39908 40177 52005 85202 91800 333 10166 20071=
07280,1996-05-20 21:00:00,11,1019.5,1.5,87,9,10000,11.112,,,310,,,,,,,,,,,wg-a,,,,AAXX 20214 07280 12660 53106 10110 20090 39923 40195 53015 60006 84830 92100=
07280,1996-05-21 00:00:00,11,1020.2,0.6,82,8,10000,11.112,,,300,,,,,,,,,,,wg-a,,,,AAXX 21004 07280 12760 43006 10110 20080 39929 40202 51006 60006 84500 90000=
07280,1996-05-21 03:00:00,9,1021.1,0.7,93,8,8000,7.408,,,150,,,,0,,,,,,3,wg-a,,,,AAXX 21034 07280 12658 71504 10090 20080 39936 40211 51007 60007 70316 875// 90300=
07280,1996-05-21 06:00:00,10,1022.3,1.3,93,9,40000,11.112,,,170,8.7,14.4,,,,,,,,21,wg-a,,,,AAXX 21064 07280 02482 /1706 10100 20090 39949 40223 53013 60004 72161 85831 90600 333 10144 20087 61000=
07280,1996-05-21 09:00:00,15,1022.3,0.5,55,6,50000,18.52,,,260,,,,,,,,,,,wg-a,,,,AAXX 21094 07280 12684 42610 10150 20060 39954 40223 51005 60006 84100 90900=
07280,1996-05-21 12:00:00,15,1021.9,,59,7,25000,22.224,,,200,,,,,,,,,,25,wg-a,,,,AAXX 21124 07280 02575 62012 10150 20070 39950 40219 61000 72581 86900 91200 333 6100=
07280,1996-05-21 15:00:00,13,1022.5,-0.4,77,9,20000,18.52,,,240,,,,2,,,,,,25,wg-a,,,,AAXX 21154 07280 12570 72410 10130 20090 39954 40225 55004 60027 72522 85903 91500=
07280,1996-05-21 18:00:00,14,1024,1.5,67,8,500,14.816,,,300,10,16.5,,,,,,,,1,wg-a,,,,AAXX 21184 07280 32600 63008 10140 20080 39969 40240 53015 70182 86403 91800 333 10165 20100=
07280,1996-05-21 21:00:00,9,1027.2,2.7,76,5,25000,14.816,,,330,,,,,,,,,,,wg-a,,,,AAXX 21214 07280 12675 /3308 10090 20050 39996 40272 53027 60006 85800 92100=
07280,1996-05-22 00:00:00,5,1028.2,0.5,100,5,20000,3.704,,,250,,,,,,,,,,,wg-a,,,,AAXX 22004 07280 12/70 02502 10050 20050 30001 40282 53005 60006 80000 90000=
07280,1996-05-22 03:00:00,3,1027.8,-0.6,100,3,20000,3.704,,,140,,,,,,,,,,12,wg-a,,,,AAXX 22034 07280 12/70 01402 10030 20030 39995 40278 57006 60006 71200 80000 90300=
07280,1996-05-22 06:00:00,5,1028.4,0.8,100,5,500,3.704,,,120,2.2,13.4,,,,,2,,,44,wg-a,,,,AAXX 22064 07280 02305 71202 10050 20050 30003 40284 53008 60006 74441 81781 90600 333 10134 20022 60024=
07280,1996-05-22 09:00:00,13,1027.4,-0.1,82,10,15000,7.408,,,200,,,,,,,,,,3,wg-a,,,,AAXX 22094 07280 12465 72004 10130 20100 30002 40274 58001 60006 70342 83201 90900=
07280,1996-05-22 12:00:00,16,1026,-1.1,55,7,50000,14.816,,,180,,,,,,,,,,,wg-a,,,,AAXX 22124 07280 12584 71808 10160 20070 39991 40260 58011 60006 83101 91200=
07280,1996-05-22 18:00:00,16,1022.4,-1.6,55,7,50000,11.112,,,180,5.3,17.7,,,,,,,,,wg-a,,,,AAXX 22184 07280 12/84 71806 10160 20070 39955 40224 56016 60006 8703/ 91800 333 10177 20053=
07280,1996-05-22 21:00:00,13,1022.9,0.3,82,10,500,7.408,,,260,,,,,,,,,,60,wg-a,,,,AAXX 22214 07280 02600 82604 10130 20100 39958 40229 53003 61000 76062 885// 92100 333 ////=
07280,1996-05-23 00:00:00,12,1022,-1,94,11,500,0,,,0,,,,0,,,,,,2,wg-a,,,,AAXX 23004 07280 02600 80000 10120 20110 39948 40220 58010 60006 70262 885// 90000 333 60007=
07280,1996-05-23 03:00:00,12,1021.8,-0.2,88,10,500,22.224,,,240,,,,,,,,,,,wg-a,,,,AAXX 23034 07280 12600 82412 10120 20100 39946 40218 56002 60006 875// 90300=
07280,1996-05-23 06:00:00,12,1023.1,1.2,88,10,10000,14.816,,,230,11.2,15.8,,,,,,,,21,wg-a,,,,AAXX 23064 07280 02460 82308 10120 20100 39958 40231 53012 60004 72162 8352/ 90600 333 10158 20112 61000=
07280,1996-05-23 09:00:00,15,1023.3,0.5,82,12,15000,18.52,,,230,,,,,,,,,,,wg-a,,,,AAXX 23094 07280 12465 72310 10150 20120 39963 40233 51005 60006 875// 90900=
07280,1996-05-23 12:00:00,15,1023.6,0.3,88,13,20000,18.52,,,210,,,,,,,,,,60,wg-a,,,,AAXX 23124 07280 02570 82110 10150 20130 39966 40236 51003 61000 76062 878// 91200 333 6100=
07280,1996-05-23 15:00:00,18,1022.2,-1.1,73,13,25000,18.52,,,240,,,,,,,,,,,wg-a,,,,AAXX 23154 07280 02575 72410 10180 20130 39955 40222 56011 61000 878// 91500 333 ////=
07280,1996-05-23 18:00:00,18,1021.4,-0.8,73,13,500,11.112,,,240,,,,,,,,,,,wg-a,,,,AAXX 23184 07280 32500 72406 10180 20130 39947 40214 58008 8623/ 91800=
07280,1996-05-24 00:00:00,9,1020.8,-1.1,100,9,10000,3.704,,,320,,,,,,,,,,,wg-a,,,,AAXX 24004 07280 12/60 33202 10090 20090 39933 40208 58011 60006 80001 90000=
07280,1996-05-24 03:00:00,9,1019.3,-1.5,93,8,8000,7.408,,,10,,,,,,,,,,,wg-a,,,,AAXX 24034 07280 12758 50104 10090 20080 39918 40193 56015 60006 82530 90300=
07280,1996-05-24 06:00:00,11,1018.6,-0.4,100,11,2500,0,,,0,7.1,17.5,,,,,,,,10,wg-a,,,,AAXX 24064 07280 02225 /0000 10110 20110 39914 40186 58004 60006 71041 81601 90600 333 10175 20071 61000=
07280,1996-05-24 09:00:00,19,1016.9,-0.9,73,14,20000,18.52,,,170,,,,,,,,,,,wg-a,,,,AAXX 24094 07280 12/70 41710 10190 20140 39905 40169 58009 60006 81031 90900=
07280,1996-05-24 12:00:00,24,1014.6,-1.8,54,14,25000,18.52,,,170,,,,,,,,,,,wg-a,,,,AAXX 24124 07280 12675 /1710 10240 20140 39887 40146 58018 60006 81101 91200=
07280,1996-05-24 15:00:00,25,1012.1,-2.3,54,15,500,18.52,,,180,,,,,,,,,,,wg-a,,,,AAXX 24154 07280 12700 21810 10250 20150 39864 40121 58023 60006 81801 91500=
07280,1996-05-24 18:00:00,17,1012.6,-0.2,88,15,15000,14.816,,,210,11.2,25.3,,9,,,,,,17,wg-a,,,,AAXX 24184 07280 12665 /2108 10170 20150 39862 40126 55002 60097 71798 86900 91800 333 10253 20112=
07280,1996-05-24 21:00:00,16,1013.7,1,94,15,15000,14.816,,,200,,,,3,,,,,,80,wg-a,,,,AAXX 24214 07280 12665 82008 10160 20150 39872 40137 53010 60037 78086 879// 92100=
07280,1996-05-25 00:00:00,15,1013.7,-0.2,100,15,12000,18.52,,,200,,,,7,,,,,,1,wg-a,,,,AAXX 25004 07280 02/62 42010 10150 20150 39870 40137 58002 60096 70198 84030 90000 333 60077=
07280,1996-05-25 03:00:00,14,1013.7,-0,100,14,9000,11.112,,,220,,,,,,,,,,,wg-a,,,,AAXX 25034 07280 12459 42206 10140 20140 39870 40137 55000 60006 81130 90300=
07280,1996-05-25 06:00:00,13,1014.2,0.3,88,11,18000,7.408,,,240,13.3,17.4,,,,,18,,,,wg-a,,,,AAXX 25064 07280 12768 82404 10130 20110 39873 40142 51003 60184 8157/ 90600 333 10174 20133=
07280,1996-05-25 09:00:00,14,1014.3,0.2,94,13,20000,11.112,,,200,,,,0,,,,,,21,wg-a,,,,AAXX 25094 07280 12570 82006 10140 20130 39875 40143 51002 60007 72162 8687/ 90900=
07280,1996-05-25 12:00:00,15,1014.2,-0,88,13,20000,7.408,,,270,,,,,,,,,,61,wg-a,,,,AAXX 25124 07280 02570 82704 10150 20130 39875 40142 55000 60006 76162 8487/ 91200 333 61000=
07280,1996-05-25 15:00:00,14,1013.9,-0.3,94,13,15000,18.52,,,210,,,,2,,,,,,61,wg-a,,,,AAXX 25154 07280 12665 82110 10140 20130 39872 40139 56003 60027 76166 8477/ 91500=
07280,1996-05-25 18:00:00,15,1015.3,1.3,82,12,25000,14.816,,,220,13.4,16,,0,,,,,,3,wg-a,,,,AAXX 25184 07280 12575 72208 10150 20120 39885 40153 51013 60007 70362 8487/ 91800 333 10160 20134=
07280,1996-05-25 21:00:00,13,1015.9,0.5,100,13,20000,14.816,,,190,,,,,,,,,,21,wg-a,,,,AAXX 25214 07280 02370 71908 10130 20130 39890 40159 51005 61000 72122 875// 92100 333 ////=
07280,1996-05-26 00:00:00,14,1015.5,-0.4,94,13,500,18.52,,,210,,,,,,,,,,51,wg-a,,,,AAXX 26004 07280 02200 82110 10140 20130 39886 40155 57004 61000 75162 885// 90000 333 6100=
07280,1996-05-26 03:00:00,13,1015.5,-0,100,13,7000,11.112,,,190,,,,,,,,,,1,wg-a,,,,AAXX 26034 07280 02257 71906 10130 20130 39886 40155 54000 61000 70165 875// 90300 333 ////=
07280,1996-05-26 06:00:00,14,1017.7,2.2,88,12,20000,3.704,,,270,13,14.6,,1,,,3,,,1,wg-a,,,,AAXX 26064 07280 02470 52702 10140 20120 39908 40177 52022 60034 70165 85800 90600 333 10146 20130 60017=
07280,1996-05-26 09:00:00,17,1019,1.5,72,12,500,11.112,,,280,,,,,,,,,,,wg-a,,,,AAXX 26094 07280 12500 52806 10170 20120 39923 40190 50015 60006 84830 90900=
07280,1996-05-26 12:00:00,18,1019.3,0.4,68,12,40000,11.112,,,290,,,,,,,,,,,wg-a,,,,AAXX 26124 07280 12582 72906 10180 20120 39927 40193 51004 60006 8583/ 91200=
07280,1996-05-26 15:00:00,19,1018.3,-0.9,68,13,40000,14.816,,,260,,,,,,,,,,,wg-a,,,,AAXX 26154 07280 12682 82608 10190 20130 39918 40183 56009 60006 878// 91500=
07280,1996-05-26 18:00:00,17,1017.5,-0.9,77,13,50000,14.816,,,230,14.2,19.4,,,,,,,,1,wg-a,,,,AAXX 26184 07280 02584 72308 10170 20130 39909 40175 56009 61000 70186 8687/ 91800 333 10194 20142 ////=
07280,1996-05-26 21:00:00,15,1017.3,-0.3,88,13,20000,18.52,,,210,,,,,,,,,,60,wg-a,,,,AAXX 26214 07280 02570 82110 10150 20130 39906 40173 56003 61000 76062 878// 92100 333 ////=
07280,1996-05-27 00:00:00,15,1015.8,-1.6,82,12,20000,18.52,,,230,,,,0,,,,,,2,wg-a,,,,AAXX 27004 07280 02670 82310 10150 20120 39890 40158 58016 60006 70262 875// 90000 333 60007=
07280,1996-05-27 03:00:00,14,1014.5,-1.3,94,13,20000,14.816,,,200,,,,,,,,,,,wg-a,,,,AAXX 27034 07280 12570 82008 10140 20130 39877 40145 57013 60006 875// 90300=
07280,1996-05-27 06:00:00,14,1014.2,-0.3,82,11,20000,22.224,,,230,13.5,17.3,,0,,,,,,21,wg-a,,,,AAXX 27064 07280 02570 72312 10140 20110 39874 40142 55003 60004 72162 878// 90600 333 10173 20135 60007=
07280,1996-05-27 09:00:00,13,1015.4,1.1,82,10,20000,29.632,,,230,,,,0,,,,,,1,wg-a,,,,AAXX 27094 07280 12570 82316 10130 20100 39885 40154 51011 60007 70182 888// 90900=
07280,1996-05-27 12:00:00,14,1015.7,0.3,82,11,20000,14.816,,,240,,,,,,,,,,25,wg-a,,,,AAXX 27124 07280 12470 82408 10140 20110 39888 40157 51003 60006 72582 888// 91200=
07280,1996-05-27 15:00:00,16,1015.8,0.3,72,11,20000,22.224,,,290,,,,,,,,,,25,wg-a,,,,AAXX 27154 07280 02570 72912 10160 20110 39891 40158 52003 61000 72582 878// 91500 333 ////=
07280,1996-05-27 18:00:00,14,1017.5,1.5,88,12,20000,22.224,,,280,12.9,16.3,,0,,,,,,80,wg-a,,,,AAXX 27184 07280 12570 72812 10140 20120 39906 40175 53015 60007 78086 878// 91800 333 10163 20129=
07280,1996-05-27 21:00:00,13,1019.4,1.8,88,11,25000,14.816,,,300,,,,,,,,,,2,wg-a,,,,AAXX 27214 07280 02475 73008 10130 20110 39924 40194 51018 61000 70286 878// 92100 333 ////=
07280,1996-05-28 00:00:00,13,1020.6,1.1,82,10,25000,22.224,,,320,,,,,,,,,,1,wg-a,,,,AAXX 28004 07280 02775 83212 10130 20100 39935 40206 53011 61000 70186 885// 90000 333 ////=
07280,1996-05-28 03:00:00,11,1022.3,1.5,82,8,20000,29.632,,,350,,,,,,,,,,,wg-a,,,,AAXX 28034 07280 12470 83516 10110 20080 39950 40223 53015 60006 875// 90300=
07280,1996-05-28 06:00:00,11,1024.7,2.3,82,8,15000,18.52,,,340,10.3,14.1,,,,,1,,,,wg-a,,,,AAXX 28064 07280 12565 23410 10110 20080 39973 40247 53023 60014 81801 90600 333 10141 20103=
07280,1996-05-28 09:00:00,12,1026.2,1.6,67,6,20000,14.816,,,10,,,,,,,,,,,wg-a,,,,AAXX 28094 07280 12570 /0108 10120 20060 39989 40262 51016 60006 83201 90900=
07280,1996-05-28 12:00:00,15,1025.9,0,55,6,500,11.112,,,70,,,,,,,,,,,wg-a,,,,AAXX 28124 07280 12600 20706 10150 20060 39989 40259 50000 60006 82200 91200=
07280,1996-05-28 15:00:00,17,1024.8,-1,45,5,500,14.816,,,60,,,,,,,,,,,wg-a,,,,AAXX 28154 07280 12700 10608 10170 20050 39979 40248 58010 60006 81101 91500=
07280,1996-05-28 18:00:00,17,1024.4,-0.4,42,4,500,14.816,,,50,11,17.4,,,,,,,,,wg-a,,,,AAXX 28184 07280 12/00 10508 10170 20040 39975 40244 56004 60006 80001 91800 333 10174 20110=
07280,1996-05-28 21:00:00,11,1025.5,0.6,71,6,500,11.112,,,350,,,,,,,,,,,wg-a,,,,AAXX 28214 07280 12/00 13506 10110 20060 39981 40255 53006 60006 80001 92100=
07280,1996-05-29 00:00:00,8,1025.6,-0.2,87,6,25000,7.408,,,350,,,,,,,,,,,wg-a,,,,AAXX 29004 07280 12/75 03504 10080 20060 39979 40256 58002 60006 80000 90000=
07280,1996-05-29 03:00:00,6,1025.4,-0.4,93,5,25000,11.112,,,350,,,,,,,,,,,wg-a,,,,AAXX 29034 07280 12/75 03506 10060 20050 39975 40254 56004 60006 80000 90300=
07280,1996-05-29 06:00:00,10,1025.2,0.2,76,6,500,14.816,,,20,5.8,16.7,,,,,,,,,wg-a,,,,AAXX 29064 07280 12/00 10208 10100 20060 39977 40252 53002 60006 80001 90600 333 10167 20058=
07280,1996-05-29 09:00:00,16,1024.3,-0.3,63,9,500,11.112,,,40,,,,,,,,,,,wg-a,,,,AAXX 29094 07280 12/00 10406 10160 20090 39974 40243 58003 60006 80001 90900=
07280,1996-05-29 12:00:00,19,1023.1,-0.9,43,6,500,14.816,,,20,,,,,,,,,,,wg-a,,,,AAXX 29124 07280 12/00 10208 10190 20060 39965 40231 58009 60006 80001 91200=
07280,1996-05-29 15:00:00,22,1021.7,-1.2,27,2,500,14.816,,,40,,,,,,,,,,,wg-a,,,,AAXX 29154 07280 12/00 30408 10220 20020 39953 40217 56012 60006 80001 91500=
07280,1996-05-29 18:00:00,21,1020.7,-1,40,7,500,11.112,,,30,10.3,21.9,,,,,,,,,wg-a,,,,AAXX 29184 07280 12/00 20306 10210 20070 39943 40207 56010 60006 80001 91800 333 10219 20103=
07280,1996-05-29 21:00:00,15,1021.4,0.1,59,7,500,14.816,,,10,,,,,,,,,,,wg-a,,,,AAXX 29214 07280 12/00 10108 10150 20070 39944 40214 53001 60006 80001 92100=
07280,1996-05-30 00:00:00,12,1021,-0.6,71,7,25000,11.112,,,350,,,,,,,,,,,wg-a,,,,AAXX 30004 07280 12/75 03506 10120 20070 39938 40210 56006 60006 80000 90000=
07280,1996-05-30 03:00:00,10,1020.4,-0.8,76,6,20000,7.408,,,330,,,,,,,,,,,wg-a,,,,AAXX 30034 07280 12/70 13304 10100 20060 39930 40204 57008 60006 80001 90300=
07280,1996-05-30 06:00:00,13,1020.7,0.6,72,8,25000,11.112,,,30,9.7,21,,,,,,,,,wg-a,,,,AAXX 30064 07280 12/75 10306 10130 20080 39936 40207 53006 60006 80001 90600 333 10210 20097=
07280,1996-05-30 09:00:00,18,1020.4,0.2,64,11,25000,7.408,,,150,,,,,,,,,,,wg-a,,,,AAXX 30094 07280 12/75 11504 10180 20110 39938 40204 51002 60006 80001 90900=
07280,1996-05-30 12:00:00,24,1018.5,-1.3,50,13,25000,14.816,,,170,,,,,,,,,,,wg-a,,,,AAXX 30124 07280 12/75 21708 10240 20130 39925 40185 58013 60006 80001 91200=
07280,1996-05-30 15:00:00,26,1017,-1.3,48,14,25000,14.816,,,170,,,,,,,,,,,wg-a,,,,AAXX 30154 07280 12/75 21708 10260 20140 39912 40170 56013 60006 80001 91500=
07280,1996-05-30 18:00:00,24,1016.3,-0.8,54,14,25000,11.112,,,180,13.2,25.7,,,,,,,,,wg-a,,,,AAXX 30184 07280 12/75 51806 10240 20140 39904 40163 56008 60006 80001 91800 333 10257 20132=
07280,1996-05-30 21:00:00,17,1017.8,0.8,77,13,20000,0,,,0,,,,,,,,,,,wg-a,,,,AAXX 30214 07280 12/70 10000 10170 20130 39912 40178 53008 60006 80001 92100=
07280,1996-05-31 00:00:00,14,1018.7,0.5,77,10,20000,7.408,,,170,,,,,,,,,,,wg-a,,,,AAXX 31004 07280 12/70 11704 10140 20100 39917 40187 51005 60006 80001 90000=
07280,1996-05-31 03:00:00,13,1019.7,0.9,72,8,20000,11.112,,,210,,,,,,,,,,,wg-a,,,,AAXX 31034 07280 12/70 12106 10130 20080 39926 40197 53009 60006 80001 90300=
07280,1996-05-31 06:00:00,16,1021,1.6,63,9,500,11.112,,,200,12.1,24,,,,,,,,,wg-a,,,,AAXX 31064 07280 12/00 12006 10160 20090 39942 40210 52016 60006 80001 90600 333 10240 20121=
07280,1996-05-31 09:00:00,22,1021,0.5,53,12,50000,14.816,,,190,,,,,,,,,,,wg-a,,,,AAXX 31094 07280 12/84 01908 10220 20120 39947 40210 52005 60006 80000 90900=
07280,1996-05-31 12:00:00,26,1019.9,-0.7,48,14,50000,7.408,,,200,,,,,,,,,,,wg-a,,,,AAXX 31124 07280 12/84 02004 10260 20140 39940 40199 58007 60006 80000 91200=
07280,1996-05-31 15:00:00,27,1018.7,-1,48,15,50000,7.408,,,160,,,,,,,,,,,wg-a,,,,AAXX 31154 07280 12784 11604 10270 20150 39930 40187 57010 60006 81100 91500=
07280,1996-05-31 18:00:00,21,1019.6,0.3,73,16,12000,18.52,,,330,15.8,27.2,,,,,,,,,wg-a,,,,AAXX 31184 07280 12762 33310 10210 20160 39933 40196 53003 60006 81150 91800 333 10272 20158=
07280,1996-05-31 21:00:00,18,1020.8,0.9,77,14,10000,18.52,,,340,,,,,,,,,,,wg-a,,,,AAXX 31214 07280 12/60 63410 10180 20140 39942 40208 53009 60006 86050 92100=
07280,1996-06-01 00:00:00,17,1022.1,1.2,72,12,10000,14.816,,,320,,,,,,,,,,,wg-a,,,,AAXX 01004 07280 12/60 73208 10170 20120 39954 40221 53012 60006 8707/ 90000=
07280,1996-06-01 03:00:00,15,1021.9,-0.4,94,14,8000,0,,,0,,,,2,,,,,,60,wg-a,,,,AAXX 01034 07280 12658 80000 10150 20140 39950 40219 57004 60027 76062 8557/ 90300=
07280,1996-06-01 06:00:00,15,1021.4,-0.4,100,15,10000,3.704,,,240,14.8,20.4,,1,,,3,,,1,wg-a,,,,AAXX 01064 07280 02360 82402 10150 20150 39946 40214 56004 60034 70162 878// 90600 333 10204 20148 60017=
07280,1996-06-01 09:00:00,15,1022.5,0.9,88,13,6000,11.112,,,310,,,,1,,,,,,61,wg-a,,,,AAXX 01094 07280 12356 83106 10150 20130 39955 40225 53009 60017 76162 888// 90900=
07280,1996-06-01 12:00:00,16,1022.7,0.3,82,13,15000,14.816,,,270,,,,3,,,,,,60,wg-a,,,,AAXX 01124 07280 02465 82708 10160 20130 39958 40227 51003 60046 76062 8683/ 91200 333 60037=
07280,1996-06-01 15:00:00,18,1021.6,-0.8,68,12,500,7.408,,,30,,,,,,,,,,1,wg-a,,,,AAXX 01154 07280 02500 70304 10180 20120 39950 40216 58008 61000 70162 8483/ 91500 333 ////=
07280,1996-06-01 18:00:00,16,1021.2,-0.6,88,14,25000,7.408,,,120,14.1,18.4,,,,,,,,1,wg-a,,,,AAXX 01184 07280 32575 /1204 10160 20140 39944 40212 56006 70162 85830 91800 333 10184 20141=
07280,1996-06-01 21:00:00,15,1021,-0.3,88,13,20000,0,,,0,,,,,,,,,,,wg-a,,,,AAXX 01214 07280 12470 80000 10150 20130 39941 40210 56003 60006 888// 92100=
07280,1996-06-02 00:00:00,14,1019.7,-1.4,94,13,12000,7.408,,,20,,,,1,,,,,,61,wg-a,,,,AAXX 02004 07280 02762 80204 10140 20130 39927 40197 55014 60016 76162 885// 90000 333 60017=
07280,1996-06-02 03:00:00,13,1018.2,-1.5,94,12,10000,3.704,,,360,,,,3,,,,,,60,wg-a,,,,AAXX 02034 07280 12460 83602 10130 20120 39912 40182 58015 60037 76066 8257/ 90300=
07280,1996-06-02 06:00:00,13,1017.6,-0.6,94,12,15000,3.704,,,350,12.6,15.9,,,,,7,,,60,wg-a,,,,AAXX 02064 07280 02565 83502 10130 20120 39906 40176 56006 60074 76062 8587/ 90600 333 10159 20126 61000=
07280,1996-06-02 09:00:00,13,1016.8,-0.7,88,11,18000,11.112,,,30,,,,0,,,,,,21,wg-a,,,,AAXX 02094 07280 12568 80306 10130 20110 39899 40168 58007 60007 72162 8587/ 90900=
07280,1996-06-02 12:00:00,14,1015.8,-0.9,88,12,15000,14.816,,,20,,,,0,,,,,,61,wg-a,,,,AAXX 02124 07280 02565 80208 10140 20120 39890 40158 56009 60016 76162 8587/ 91200 333 60007=
07280,1996-06-02 15:00:00,14,1015.3,-0.5,88,12,12000,11.112,,,40,,,,3,,,,,,61,wg-a,,,,AAXX 02154 07280 12462 80406 10140 20120 39885 40153 58005 60037 76166 8587/ 91500=
07280,1996-06-02 18:00:00,12,1015.7,0.2,94,11,10000,18.52,,,30,12.4,14.8,,4,,,,,,60,wg-a,,,,AAXX 02184 07280 12460 80310 10120 20110 39887 40157 53002 60047 76062 888// 91800 333 10148 20124=
07280,1996-06-02 21:00:00,12,1017,1.2,94,11,8000,14.816,,,20,,,,1,,,,,,60,wg-a,,,,AAXX 02214 07280 12458 80208 10120 20110 39899 40170 51012 60017 76062 888// 92100=
07280,1996-06-03 00:00:00,12,1017.1,0.1,94,11,8000,14.816,,,10,,,,0,,,,,,21,wg-a,,,,AAXX 03004 07280 02458 80108 10120 20110 39900 40171 53001 60016 72162 888// 90000 333 60007=
07280,1996-06-03 03:00:00,12,1017.8,0.7,94,11,6000,14.816,,,360,,,,0,,,,,,60,wg-a,,,,AAXX 03034 07280 12456 83608 10120 20110 39907 40178 53007 60007 76062 888// 90300=
07280,1996-06-03 06:00:00,12,1019.5,1.7,94,11,9000,11.112,,,360,11.5,12.5,,,,,9,,,3,wg-a,,,,AAXX 03064 07280 02459 83606 10120 20110 39924 40195 53017 60094 70362 878// 90600 333 10125 20115 61000=
07280,1996-06-03 12:00:00,18,1020.6,0.4,64,11,20000,18.52,,,40,,,,,,,,,,,wg-a,,,,AAXX 03124 07280 12570 60410 10180 20110 39940 40206 52004 60006 83230 91200=
07280,1996-06-03 15:00:00,18,1021,0.4,64,11,500,11.112,,,20,,,,,,,,,,,wg-a,,,,AAXX 03154 07280 12500 70206 10180 20110 39944 40210 52004 60006 878// 91500=
07280,1996-06-03 21:00:00,15,1023.6,1.7,77,11,25000,11.112,,,320,,,,,,,,,,,wg-a,,,,AAXX 03214 07280 12775 33206 10150 20110 39966 40236 53017 60006 83500 92100=
07280,1996-06-04 00:00:00,11,1024.7,0.7,94,10,12000,7.408,,,340,,,,,,,,,,,wg-a,,,,AAXX 04004 07280 12/62 03404 10110 20100 39973 40247 51007 60006 80000 90000=
07280,1996-06-04 03:00:00,10,1025.3,0.5,93,9,10000,14.816,,,350,,,,,,,,,,,wg-a,,,,AAXX 04034 07280 12/60 03508 10100 20090 39978 40253 53005 60006 80000 90300=
07280,1996-06-04 06:00:00,13,1026.7,1.6,88,11,15000,3.704,,,350,8.7,18.1,,,,,,,,,wg-a,,,,AAXX 04064 07280 12/65 03502 10130 20110 39994 40267 51016 60006 80000 90600 333 10181 20087=
07280,1996-06-04 09:00:00,19,1026.5,0.4,64,12,18000,14.816,,,40,,,,,,,,,,,wg-a,,,,AAXX 04094 07280 12568 10408 10190 20120 39998 40265 51004 60006 81100 90900=
07280,1996-06-04 12:00:00,22,1025.4,-0.8,43,9,20000,22.224,,,30,,,,,,,,,,,wg-a,,,,AAXX 04124 07280 12670 /0312 10220 20090 39990 40254 58008 60006 81100 91200=
07280,1996-06-04 15:00:00,23,1024.7,-0.5,44,10,25000,22.224,,,40,,,,,,,,,,,wg-a,,,,AAXX 04154 07280 12775 10412 10230 20100 39985 40247 58005 60006 81101 91500=
07280,1996-06-04 18:00:00,22,1024.5,-0.3,50,11,25000,11.112,,,30,12.8,23.4,,,,,,,,,wg-a,,,,AAXX 04184 07280 12/75 10306 10220 20110 39982 40245 56003 60006 80001 91800 333 10234 20128=
07280,1996-06-04 21:00:00,16,1025.6,0.5,72,11,25000,14.816,,,10,,,,,,,,,,,wg-a,,,,AAXX 04214 07280 12/75 00108 10160 20110 39987 40256 53005 60006 80000 92100=
07280,1996-06-05 00:00:00,14,1025.7,-0.1,77,10,20000,14.816,,,10,,,,,,,,,,,wg-a,,,,AAXX 05004 07280 12/70 00108 10140 20100 39986 40257 58001 60006 80000 90000=
07280,1996-06-05 03:00:00,13,1024.5,-1.3,77,9,20000,14.816,,,20,,,,,,,,,,,wg-a,,,,AAXX 05034 07280 12/70 00208 10130 20090 39973 40245 58013 60006 80000 90300=
07280,1996-06-05 06:00:00,15,1024.3,0.1,72,10,20000,14.816,,,20,12.8,22.3,,,,,,,,,wg-a,,,,AAXX 05064 07280 12/70 00208 10150 20100 39974 40243 52001 60006 80000 90600 333 10223 20128=
07280,1996-06-05 09:00:00,21,1023.5,-0.3,60,13,20000,14.816,,,60,,,,,,,,,,,wg-a,,,,AAXX 05094 07280 12/70 00608 10210 20130 39971 40235 56003 60006 80000 90900=
07280,1996-06-05 12:00:00,24,1022.4,-0.8,57,15,20000,7.408,,,140,,,,,,,,,,,wg-a,,,,AAXX 05124 07280 12/70 01404 10240 20150 39963 40224 58008 60006 80000 91200=
07280,1996-06-05 15:00:00,26,1021.2,-1,54,16,20000,3.704,,,130,,,,,,,,,,,wg-a,,,,AAXX 05154 07280 12/70 01302 10260 20160 39953 40212 56010 60006 80000 91500=
07280,1996-06-05 18:00:00,25,1020.7,-0.5,57,16,20000,0,,,0,15.5,25.9,,,,,,,,,wg-a,,,,AAXX 05184 07280 12/70 00000 10250 20160 39948 40207 56005 60006 80000 91800 333 10259 20155=
07280,1996-06-05 21:00:00,19,1021.3,-0,83,16,20000,3.704,,,340,,,,,,,,,,,wg-a,,,,AAXX 05214 07280 12/70 03402 10190 20160 39948 40213 54000 60006 80000 92100=
07280,1996-06-06 00:00:00,17,1021.4,-0.1,88,15,15000,7.408,,,320,,,,,,,,,,,wg-a,,,,AAXX 06004 07280 12/65 03204 10170 20150 39947 40214 58001 60006 80000 90000=
07280,1996-06-06 03:00:00,14,1021.5,-0.2,94,13,10000,3.704,,,50,,,,,,,,,,11,wg-a,,,,AAXX 06034 07280 12/60 00502 10140 20130 39945 40215 57002 60006 71100 80000 90300=
07280,1996-06-06 06:00:00,17,1021.9,0.7,88,15,10000,0,,,0,12.6,25.2,,,,,,,,,wg-a,,,,AAXX 06064 07280 12/60 00000 10170 20150 39952 40219 51007 60006 80000 90600 333 10252 20126=
07280,1996-06-06 09:00:00,24,1021.4,0.2,74,19,20000,7.408,,,160,,,,,,,,,,,wg-a,,,,AAXX 06094 07280 12/70 01604 10240 20190 39954 40214 50002 60006 80000 90900=
07280,1996-06-06 12:00:00,29,1020.1,-0.9,52,18,25000,7.408,,,190,,,,,,,,,,,wg-a,,,,AAXX 06124 07280 12675 /1904 10290 20180 39945 40201 57009 60006 81200 91200=
07280,1996-06-06 15:00:00,29,1019.2,-0.8,48,17,25000,7.408,,,130,,,,,,,,,,,wg-a,,,,AAXX 06154 07280 12675 /1304 10290 20170 39937 40192 58008 60006 81200 91500=
07280,1996-06-06 18:00:00,28,1018.7,-0.6,62,20,500,3.704,,,110,16.9,29.7,,,,,,,,,wg-a,,,,AAXX 06184 07280 12/00 11102 10280 20200 39931 40187 56006 60006 80003 91800 333 10297 20169=
07280,1996-06-06 21:00:00,21,1019.9,0.5,83,18,500,3.704,,,290,,,,,,,,,,,wg-a,,,,AAXX 06214 07280 12/00 02902 10210 20180 39936 40199 53005 60006 80000 92100=
07280,1996-06-07 00:00:00,19,1020,0,83,16,20000,7.408,,,340,,,,,,,,,,,wg-a,,,,AAXX 07004 07280 12/70 03404 10190 20160 39936 40200 50000 60006 80000 90000=
07280,1996-06-07 03:00:00,17,1020.2,-0.1,94,16,10000,7.408,,,340,,,,,,,,,,,wg-a,,,,AAXX 07034 07280 12/60 03404 10170 20160 39935 40202 58001 60006 80000 90300=
07280,1996-06-07 06:00:00,19,1020.7,0.7,88,17,10000,3.704,,,40,15.8,27.8,,,,,,,,,wg-a,,,,AAXX 07064 07280 12/60 00402 10190 20170 39942 40207 51007 60006 80000 90600 333 10278 20158=
07280,1996-06-07 09:00:00,25,1020.2,0.1,69,19,12000,11.112,,,180,,,,,,,,,,,wg-a,,,,AAXX 07094 07280 12/62 01806 10250 20190 39943 40202 50001 60006 80000 90900=
07280,1996-06-07 12:00:00,29,1018.7,,55,19,12000,14.816,,,200,,,,,,,,,,,wg-a,,,,AAXX 07124 07280 12/62 02008 10290 20190 39932 40187 60006 80000 91200=
07280,1996-06-07 15:00:00,30,1017.5,-1.2,49,18,15000,14.816,,,180,,,,,,,,,,,wg-a,,,,AAXX 07154 07280 12/65 21808 10300 20180 39920 40175 56012 60006 80002 91500=
07280,1996-06-07 18:00:00,27,1016.6,-1,66,20,20000,11.112,,,180,18.7,29.8,,,,,,,,,wg-a,,,,AAXX 07184 07280 12/70 31806 10270 20200 39910 40166 56010 60006 80001 91800 333 10298 20187=
07280,1996-06-07 21:00:00,22,1017.9,0.8,83,19,20000,0,,,0,,,,,,,,,,,wg-a,,,,AAXX 07214 07280 12/70 10000 10220 20190 39918 40179 53008 60006 80001 92100=
07280,1996-06-08 00:00:00,19,1019,0.8,88,17,20000,11.112,,,180,,,,,,,,,,,wg-a,,,,AAXX 08004 07280 12/70 01806 10190 20170 39926 40190 53008 60006 80000 90000=
07280,1996-06-08 03:00:00,17,1019,-0.2,88,15,15000,7.408,,,190,,,,,,,,,,,wg-a,,,,AAXX 08034 07280 12765 31904 10170 20150 39924 40190 58002 60006 815/2 90300=
07280,1996-06-08 06:00:00,19,1020.3,1.4,83,16,18000,11.112,,,230,16.9,27.2,,,,,,,,,wg-a,,,,AAXX 08064 07280 12768 12306 10190 20160 39938 40203 53014 60006 81500 90600 333 10272 20169=
07280,1996-06-08 09:00:00,24,1020.2,0.4,57,15,20000,18.52,,,190,,,,,,,,,,,wg-a,,,,AAXX 08094 07280 12/70 11910 10240 20150 39942 40202 51004 60006 80001 90900=
07280,1996-06-08 12:00:00,27,1019.4,-0.6,54,17,20000,14.816,,,190,,,,,,,,,,,wg-a,,,,AAXX 08124 07280 12670 /1908 10270 20170 39936 40194 58006 60006 81100 91200=
07280,1996-06-08 15:00:00,26,1018.9,-0.5,54,16,20000,14.816,,,210,,,,,,,,,,,wg-a,,,,AAXX 08154 07280 12670 /2108 10260 20160 39931 40189 58005 60006 82201 91500=
07280,1996-06-08 18:00:00,25,1019.5,0.5,61,17,20000,18.52,,,300,18.8,27.4,,,,,,,,,wg-a,,,,AAXX 08184 07280 12770 63010 10250 20170 39936 40195 53005 60006 81101 91800 333 10274 20188=
07280,1996-06-08 21:00:00,21,1021.7,1.8,73,16,20000,11.112,,,330,,,,,,,,,,,wg-a,,,,AAXX 08214 07280 12/70 73306 10210 20160 39954 40217 52018 60006 83063 92100=
07280,1996-06-09 00:00:00,18,1022.3,0.3,94,17,20000,7.408,,,210,,,,,,,,,,,wg-a,,,,AAXX 09004 07280 12/70 62104 10180 20170 39957 40223 50003 60006 80002 90000=
07280,1996-06-09 03:00:00,16,1021.9,-0.6,94,15,3000,3.704,,,210,,,,,,,,,,10,wg-a,,,,AAXX 09034 07280 12/30 22102 10160 20150 39951 40219 56006 60006 71011 80001 90300=
07280,1996-06-09 06:00:00,17,1022.2,0.4,94,16,600,7.408,,,110,15.4,25,,,,,,,,44,wg-a,,,,AAXX 09064 07280 12106 51104 10170 20160 39955 40222 53004 60006 74441 82601 90600 333 10250 20154=
07280,1996-06-09 09:00:00,22,1022.2,0.5,78,18,20000,7.408,,,70,,,,,,,,,,3,wg-a,,,,AAXX 09094 07280 12570 /0704 10220 20180 39960 40222 50005 60006 70341 81200 90900=
07280,1996-06-09 12:00:00,25,1021.3,-0.7,57,16,25000,3.704,,,170,,,,,,,,,,1,wg-a,,,,AAXX 09124 07280 12675 51702 10250 20160 39953 40213 57007 60006 70141 85400 91200=
07280,1996-06-09 15:00:00,26,1019.7,-1.4,54,16,500,7.408,,,150,,,,,,,,,,,wg-a,,,,AAXX 09154 07280 12700 21504 10260 20160 39939 40197 58014 60006 82230 91500=
07280,1996-06-09 18:00:00,25,1019.6,-0.2,61,17,500,7.408,,,70,16.8,26.9,,,,,,,,,wg-a,,,,AAXX 09184 07280 12700 10704 10250 20170 39937 40196 55002 60006 81200 91800 333 10269 20168=
07280,1996-06-09 21:00:00,20,1021.2,1.1,83,17,500,3.704,,,10,,,,,,,,,,,wg-a,,,,AAXX 09214 07280 12700 10102 10200 20170 39948 40212 53011 60006 81400 92100=
07280,1996-06-10 00:00:00,18,1021.1,-0.3,88,16,15000,11.112,,,340,,,,,,,,,,,wg-a,,,,AAXX 10004 07280 12/65 03406 10180 20160 39945 40211 57003 60006 80000 90000=
07280,1996-06-10 03:00:00,16,1021.4,0.1,94,15,15000,7.408,,,350,,,,,,,,,,,wg-a,,,,AAXX 10034 07280 12/65 03504 10160 20150 39946 40214 53001 60006 80000 90300=
07280,1996-06-10 06:00:00,19,1021.8,0.7,88,17,15000,7.408,,,340,16,24.7,,,,,,,,,wg-a,,,,AAXX 10064 07280 12/65 03404 10190 20170 39953 40218 51007 60006 80000 90600 333 10247 20160=
07280,1996-06-10 09:00:00,25,1021.3,0,69,19,20000,7.408,,,60,,,,,,,,,,,wg-a,,,,AAXX 10094 07280 12570 10604 10250 20190 39953 40213 50000 60006 81100 90900=
07280,1996-06-10 12:00:00,28,1020.4,-0.6,51,17,25000,7.408,,,190,,,,,,,,,,,wg-a,,,,AAXX 10124 07280 12675 21904 10280 20170 39947 40204 58006 60006 81303 91200=
07280,1996-06-10 15:00:00,29,1019.5,-0.8,52,18,25000,7.408,,,90,,,,,,,,,,,wg-a,,,,AAXX 10154 07280 12775 40904 10290 20180 39939 40195 56008 60006 81201 91500=
07280,1996-06-10 18:00:00,28,1019.6,-0,51,17,25000,7.408,,,30,19.5,29.2,,,,,,,,,wg-a,,,,AAXX 10184 07280 12775 10304 10280 20170 39939 40196 55000 60006 81202 91800 333 10292 20195=
07280,1996-06-10 21:00:00,21,1021.3,1.1,78,17,20000,3.704,,,330,,,,,,,,,,,wg-a,,,,AAXX 10214 07280 12/70 13302 10210 20170 39950 40213 53011 60006 80001 92100=
07280,1996-06-11 00:00:00,19,1022.3,0.8,88,17,18000,7.408,,,340,,,,,,,,,,,wg-a,,,,AAXX 11004 07280 12/68 03404 10190 20170 39958 40223 51008 60006 80000 90000=
07280,1996-06-11 03:00:00,17,1022.4,-0.1,94,16,15000,7.408,,,360,,,,,,,,,,,wg-a,,,,AAXX 11034 07280 12/65 13604 10170 20160 39957 40224 55001 60006 80001 90300=
07280,1996-06-11 06:00:00,20,1023.4,1.3,88,18,18000,3.704,,,350,15.7,27.7,,,,,,,,,wg-a,,,,AAXX 11064 07280 12/68 53502 10200 20180 39970 40234 51013 60006 80001 90600 333 10277 20157=
07280,1996-06-11 09:00:00,26,1023.4,0.5,65,19,18000,3.704,,,140,,,,,,,,,,,wg-a,,,,AAXX 11094 07280 12568 /1402 10260 20190 39975 40234 51005 60006 81100 90900=
07280,1996-06-11 12:00:00,29,1022.7,-0.4,48,17,20000,3.704,,,180,,,,,,,,,,,wg-a,,,,AAXX 11124 07280 12670 31802 10290 20170 39971 40227 58004 60006 81303 91200=
07280,1996-06-11 15:00:00,29,1022.3,-0.5,48,17,20000,3.704,,,190,,,,,,,,,,17,wg-a,,,,AAXX 11154 07280 12770 61902 10290 20170 39966 40223 55005 60006 71711 83901 91500=
07280,1996-06-11 18:00:00,28,1022,-0.3,62,20,20000,3.704,,,110,20.1,30.3,,,,,,,,1,wg-a,,,,AAXX 11184 07280 12770 11102 10280 20200 39963 40220 55003 60006 70191 81201 91800 333 10303 20201=
07280,1996-06-11 21:00:00,23,1023.7,1.2,78,19,25000,3.704,,,310,,,,,,,,,,,wg-a,,,,AAXX 11214 07280 12/75 13102 10230 20190 39975 40237 53012 60006 80001 92100=
07280,1996-06-12 00:00:00,20,1024.1,0.2,88,18,20000,7.408,,,330,,,,,,,,,,,wg-a,,,,AAXX 12004 07280 12/70 03304 10200 20180 39977 40241 50002 60006 80000 90000=
07280,1996-06-12 03:00:00,18,1024.1,-0.3,83,15,18000,3.704,,,40,,,,,,,,,,11,wg-a,,,,AAXX 12034 07280 12/68 00402 10180 20150 39974 40241 56003 60006 71100 80000 90300=
07280,1996-06-12 06:00:00,22,1025,1.3,78,18,15000,3.704,,,30,16.3,28,,,,,,,,,wg-a,,,,AAXX 12064 07280 12665 30302 10220 20180 39987 40250 53013 60006 82201 90600 333 10280 20163=
07280,1996-06-12 09:00:00,27,1025.4,0.8,58,18,15000,14.816,,,330,,,,,,,,,,,wg-a,,,,AAXX 12094 07280 12/65 13308 10270 20180 39995 40254 53008 60006 81080 90900=
07280,1996-06-12 12:00:00,27,1025.6,0.2,51,16,20000,18.52,,,310,,,,,,,,,,,wg-a,,,,AAXX 12124 07280 12770 33110 10270 20160 39997 40256 51002 60006 83200 91200=
07280,1996-06-12 15:00:00,27,1025.3,0.1,51,16,25000,22.224,,,330,,,,,,,,,,,wg-a,,,,AAXX 12154 07280 12775 13312 10270 20160 39995 40253 53001 60006 81100 91500=
07280,1996-06-12 18:00:00,22,1026.7,0.8,65,15,25000,22.224,,,350,21.6,28.1,,,,,,,,,wg-a,,,,AAXX 12184 07280 12675 23512 10220 20150 30003 40267 53008 60006 82200 91800 333 10281 20216=
07280,1996-06-12 21:00:00,17,1029.4,2.2,82,14,25000,11.112,,,10,,,,,,,,,,,wg-a,,,,AAXX 12214 07280 12675 40106 10170 20140 30025 40294 53022 60006 84500 92100=
07280,1996-06-13 00:00:00,16,1029.6,0.1,77,12,25000,18.52,,,360,,,,,,,,,,,wg-a,,,,AAXX 13004 07280 12675 /3610 10160 20120 30026 40296 50001 60006 86500 90000=
07280,1996-06-13 03:00:00,14,1029.4,-0.4,82,11,20000,14.816,,,20,,,,,,,,,,,wg-a,,,,AAXX 13034 07280 12670 30208 10140 20110 30022 40294 56004 60006 83500 90300=
07280,1996-06-13 06:00:00,15,1029.8,0.4,77,11,20000,22.224,,,20,13.1,21.6,,,,,,,,,wg-a,,,,AAXX 13064 07280 12670 /0212 10150 20110 30026 40298 53004 60006 81500 90600 333 10216 20131=
07280,1996-06-13 09:00:00,19,1029.1,-0.3,56,10,20000,25.928,,,20,,,,,,,,,,,wg-a,,,,AAXX 13094 07280 12/70 10214 10190 20100 30023 40291 58003 60006 81030 90900=
07280,1996-06-13 12:00:00,22,1028.4,-0.4,43,9,25000,25.928,,,40,,,,,,,,,,,wg-a,,,,AAXX 13124 07280 12/75 00414 10220 20090 30019 40284 58004 60006 80000 91200=
07280,1996-06-13 15:00:00,23,1026.8,-1.5,31,5,500,29.632,,,30,,,,,,,,,,,wg-a,,,,AAXX 13154 07280 12/00 10316 10230 20050 30004 40268 58015 60006 80001 91500=
07280,1996-06-13 18:00:00,21,1026.6,-0.3,38,6,500,29.632,,,20,14.5,23.2,,,,,,,,,wg-a,,,,AAXX 13184 07280 12/00 10216 10210 20060 30001 40266 55003 60006 80001 91800 333 10232 20145=
07280,1996-06-13 21:00:00,15,1028.1,0.9,59,7,500,14.816,,,10,,,,,,,,,,,wg-a,,,,AAXX 13214 07280 12/00 10108 10150 20070 30010 40281 53009 60006 80001 92100=
07280,1996-06-14 00:00:00,13,1027.8,-0.5,67,7,25000,18.52,,,20,,,,,,,,,,,wg-a,,,,AAXX 14004 07280 12/75 00210 10130 20070 30005 40278 57005 60006 80000 90000=
07280,1996-06-14 03:00:00,11,1027.3,-0.6,76,7,500,18.52,,,10,,,,,,,,,,,wg-a,,,,AAXX 14034 07280 12/00 10110 10110 20070 39999 40273 58006 60006 80001 90300=
07280,1996-06-14 06:00:00,14,1027,-0.1,63,7,500,18.52,,,30,11.1,21,,,,,,,,,wg-a,,,,AAXX 14064 07280 12/00 10310 10140 20070 39998 40270 57001 60006 80001 90600 333 10210 20111=
07280,1996-06-14 09:00:00,19,1026.3,-0.2,49,8,500,25.928,,,40,,,,,,,,,,,wg-a,,,,AAXX 14094 07280 12/00 00414 10190 20080 39996 40263 58002 60006 80000 90900=
07280,1996-06-14 12:00:00,22,1025.3,-0.7,41,8,500,25.928,,,40,,,,,,,,,,,wg-a,,,,AAXX 14124 07280 12/00 00414 10220 20080 39989 40253 58007 60006 80000 91200=
07280,1996-06-14 15:00:00,24,1023.8,-1.3,34,7,10000,25.928,,,30,,,,,,,,,,,wg-a,,,,AAXX 14154 07280 12/60 /0314 10240 20070 39976 40238 56013 60006 91500=
07280,1996-06-14 18:00:00,22,1023.7,-0.3,35,6,500,22.224,,,30,14,24.1,,,,,,,,,wg-a,,,,AAXX 14184 07280 12/00 10312 10220 20060 39973 40237 55003 60006 80001 91800 333 10241 20140=
07280,1996-06-14 21:00:00,16,1025.3,1.1,63,9,25000,14.816,,,10,,,,,,,,,,,wg-a,,,,AAXX 14214 07280 12/75 10108 10160 20090 39984 40253 51011 60006 80001 92100=
07280,1996-06-15 00:00:00,13,1025.3,-0.4,72,8,25000,14.816,,,10,,,,,,,,,,,wg-a,,,,AAXX 15004 07280 12/75 00108 10130 20080 39980 40253 58004 60006 80000 90000=
07280,1996-06-15 03:00:00,11,1024.8,-0.6,76,7,20000,14.816,,,10,,,,,,,,,,,wg-a,,,,AAXX 15034 07280 12/70 10108 10110 20070 39974 40248 58006 60006 80001 90300=
07280,1996-06-15 06:00:00,14,1024.4,-0.1,67,8,35000,18.52,,,20,11,22.1,,,,,,,,,wg-a,,,,AAXX 15064 07280 12/81 10210 10140 20080 39973 40244 58001 60006 80001 90600 333 10221 20110=
07280,1996-06-15 09:00:00,20,1023.8,-0.1,49,9,50000,25.928,,,40,,,,,,,,,,,wg-a,,,,AAXX 15094 07280 12/84 10414 10200 20090 39972 40238 58001 60006 80001 90900=
07280,1996-06-15 12:00:00,23,1022.5,-0.9,38,8,50000,25.928,,,30,,,,,,,,,,,wg-a,,,,AAXX 15124 07280 12/84 00314 10230 20080 39963 40225 58009 60006 80000 91200=
07280,1996-06-15 15:00:00,25,1021,-1.3,36,9,50000,22.224,,,30,,,,,,,,,,,wg-a,,,,AAXX 15154 07280 12/84 00312 10250 20090 39950 40210 56013 60006 80000 91500=
07280,1996-06-15 18:00:00,24,1020.2,-0.9,38,9,40000,22.224,,,30,14.1,25.8,,,,,,,,,wg-a,,,,AAXX 15184 07280 12782 10312 10240 20090 39941 40202 56009 60006 81101 91800 333 10258 20141=
07280,1996-06-15 21:00:00,17,1021.9,1,55,8,10000,14.816,,,10,,,,,,,,,,,wg-a,,,,AAXX 15214 07280 12/60 20108 10170 20080 39951 40219 53010 60006 80001 92100=
07280,1996-06-16 00:00:00,15,1021.9,-0.2,63,8,10000,11.112,,,10,,,,,,,,,,,wg-a,,,,AAXX 16004 07280 12/60 00106 10150 20080 39949 40219 58002 60006 80000 90000=
07280,1996-06-16 03:00:00,13,1021.4,-0.6,72,8,15000,14.816,,,10,,,,,,,,,,,wg-a,,,,AAXX 16034 07280 12/65 20108 10130 20080 39943 40214 56006 60006 80001 90300=
07280,1996-06-16 06:00:00,15,1021.5,0.3,63,8,500,18.52,,,20,12.5,24.2,,,,,,,,,wg-a,,,,AAXX 16064 07280 12/00 20210 10150 20080 39946 40215 53003 60006 80001 90600 333 10242 20125=
07280,1996-06-16 09:00:00,21,1021,0,46,9,45000,18.52,,,40,,,,,,,,,,,wg-a,,,,AAXX 16094 07280 12/83 20410 10210 20090 39946 40210 50000 60006 80001 90900=
07280,1996-06-16 12:00:00,25,1020,-0.6,39,10,45000,14.816,,,40,,,,,,,,,,,wg-a,,,,AAXX 16124 07280 12783 10408 10250 20100 39940 40200 58006 60006 81101 91200=
07280,1996-06-16 15:00:00,25,1018.7,-1.2,32,7,50000,18.52,,,30,,,,,,,,,,,wg-a,,,,AAXX 16154 07280 12784 10310 10250 20070 39928 40187 57012 60006 81201 91500=
07280,1996-06-16 18:00:00,24,1018.1,-0.7,36,8,50000,18.52,,,20,15.4,25.8,,,,,,,,,wg-a,,,,AAXX 16184 07280 12/84 10210 10240 20080 39921 40181 56007 60006 80001 91800 333 10258 20154=
07280,1996-06-16 21:00:00,18,1019.5,0.8,52,8,500,14.816,,,10,,,,,,,,,,,wg-a,,,,AAXX 16214 07280 12/00 20108 10180 20080 39929 40195 53008 60006 80001 92100=
07280,1996-06-17 00:00:00,14,1019.6,-0.3,72,9,500,11.112,,,10,,,,,,,,,,,wg-a,,,,AAXX 17004 07280 12/00 10106 10140 20090 39926 40196 56003 60006 80001 90000=
07280,1996-06-17 03:00:00,14,1019,-0.6,72,9,20000,14.816,,,360,,,,,,,,,,,wg-a,,,,AAXX 17034 07280 12/70 03608 10140 20090 39920 40190 56006 60006 80000 90300=
07280,1996-06-17 06:00:00,17,1019.1,0.4,68,11,20000,14.816,,,10,12.6,23.8,,,,,,,,,wg-a,,,,AAXX 17064 07280 12/70 00108 10170 20110 39924 40191 53004 60006 80000 90600 333 10238 20126=
07280,1996-06-17 09:00:00,21,1018.9,0.2,53,11,25000,11.112,,,60,,,,,,,,,,,wg-a,,,,AAXX 17094 07280 12/75 10606 10210 20110 39926 40189 51002 60006 80001 90900=
07280,1996-06-17 12:00:00,25,1017.8,-0.7,47,13,500,11.112,,,100,,,,,,,,,,,wg-a,,,,AAXX 17124 07280 12800 21006 10250 20130 39919 40178 56007 60006 81101 91200=
07280,1996-06-17 15:00:00,27,1016.5,-1.2,34,10,500,7.408,,,150,,,,,,,,,,,wg-a,,,,AAXX 17154 07280 12800 31504 10270 20100 39907 40165 57012 60006 82101 91500=
07280,1996-06-17 18:00:00,25,1016,-0.6,44,12,500,7.408,,,180,16.8,26.9,,,,,,,,,wg-a,,,,AAXX 17184 07280 12700 61804 10250 20120 39901 40160 56006 60006 814/1 91800 333 10269 20168=
07280,1996-06-17 21:00:00,17,1016.8,0.1,72,12,500,3.704,,,200,,,,,,,,,,,wg-a,,,,AAXX 17214 07280 12/00 32002 10170 20120 39902 40168 50001 60006 80001 92100=
07280,1996-06-18 00:00:00,14,1017.1,0.1,88,12,25000,3.704,,,360,,,,,,,,,,,wg-a,,,,AAXX 18004 07280 12/75 03602 10140 20120 39903 40171 50001 60006 80000 90000=
07280,1996-06-18 03:00:00,12,1016.7,-0.7,88,10,20000,3.704,,,280,,,,,,,,,,,wg-a,,,,AAXX 18034 07280 12/70 12802 10120 20100 39896 40167 56007 60006 80001 90300=
07280,1996-06-18 06:00:00,16,1016.2,-0.1,82,13,15000,0,,,0,11,24.7,,,,,,,,,wg-a,,,,AAXX 18064 07280 12/65 50000 10160 20130 39895 40162 57001 60006 80001 90600 333 10247 20110=
07280,1996-06-18 09:00:00,23,1014.9,-0.6,61,15,15000,35.188,,,200,,,,,,,,,,,wg-a,,,,AAXX 18094 07280 12665 /2019 10230 20150 39889 40149 57006 60006 81101 90900=
07280,1996-06-18 12:00:00,28,1013.2,-1.2,37,12,25000,18.52,,,180,,,,,,,,,,,wg-a,,,,AAXX 18124 07280 12775 61810 10280 20120 39877 40132 57012 60006 83101 91200=
07280,1996-06-18 15:00:00,30,1012.2,-0.9,29,10,25000,18.52,,,270,,,,,,,,,,,wg-a,,,,AAXX 18154 07280 12875 42710 10300 20100 39868 40122 56009 60006 83101 91500=
07280,1996-06-18 18:00:00,28,1011.7,-0.7,30,9,25000,18.52,,,280,15.4,30.1,,,,,,,,,wg-a,,,,AAXX 18184 07280 12875 32810 10280 20090 39861 40117 56007 60006 814/1 91800 333 10301 20154=
07280,1996-06-18 21:00:00,19,1012.7,0.3,64,12,20000,3.704,,,280,,,,,,,,,,,wg-a,,,,AAXX 18214 07280 12/70 32802 10190 20120 39864 40127 53003 60006 80001 92100=
07280,1996-06-19 00:00:00,17,1013.3,0.4,68,11,20000,11.112,,,330,,,,,,,,,,,wg-a,,,,AAXX 19004 07280 12/70 03306 10170 20110 39868 40133 52004 60006 80000 90000=
07280,1996-06-19 03:00:00,15,1013.2,-0.3,77,11,20000,11.112,,,330,,,,,,,,,,,wg-a,,,,AAXX 19034 07280 12/70 13306 10150 20110 39865 40132 58003 60006 80001 90300=
07280,1996-06-19 09:00:00,21,1013.3,0.1,56,12,25000,14.816,,,70,,,,,,,,,,,wg-a,,,,AAXX 19094 07280 12/75 60708 10210 20120 39872 40133 50001 60006 80001 90900=
07280,1996-06-19 12:00:00,26,1012.5,-0.4,34,9,25000,14.816,,,320,,,,,,,,,,,wg-a,,,,AAXX 19124 07280 12775 63208 10260 20090 39868 40125 56004 60006 81102 91200=
07280,1996-06-19 15:00:00,27,1011.6,-0.8,28,7,500,14.816,,,330,,,,,,,,,,,wg-a,,,,AAXX 19154 07280 12800 33308 10270 20070 39860 40116 57008 60006 81181 91500=
07280,1996-06-19 18:00:00,24,1011,-0.8,38,9,500,11.112,,,20,16.8,27,,,,,,,,,wg-a,,,,AAXX 19184 07280 12/00 50206 10240 20090 39852 40110 56008 60006 82081 91800 333 10270 20168=
07280,1996-06-19 21:00:00,17,1012.4,0.7,63,10,25000,7.408,,,40,,,,,,,,,,,wg-a,,,,AAXX 19214 07280 12/75 60404 10170 20100 39859 40124 53007 60006 83031 92100=
07280,1996-06-20 00:00:00,14,1012.1,-0.5,72,9,25000,7.408,,,350,,,,,,,,,,,wg-a,,,,AAXX 20004 07280 12/75 33504 10140 20090 39854 40121 58005 60006 80001 90000=
07280,1996-06-20 03:00:00,14,1009.6,-2.5,77,10,20000,7.408,,,350,,,,,,,,,,,wg-a,,,,AAXX 20034 07280 12/70 63504 10140 20100 39829 40096 58025 60006 84031 90300=
07280,1996-06-20 06:00:00,15,1010.1,0.6,88,13,12000,7.408,,,190,13.5,24.2,,0,,,,,,80,wg-a,,,,AAXX 20064 07280 02562 81904 10150 20130 39835 40101 53006 60004 78011 8637/ 90600 333 10242 20135 60007=
07280,1996-06-20 09:00:00,15,1010.1,-0,94,14,500,14.816,,,170,,,,2,,,,,,3,wg-a,,,,AAXX 20094 07280 12400 81708 10150 20140 39835 40101 54000 60027 70398 878// 90900=
07280,1996-06-20 12:00:00,19,1010.6,0.9,68,13,20000,22.224,,,240,,,,,,,,,,3,wg-a,,,,AAXX 20124 07280 12570 72412 10190 20130 39844 40106 53009 60026 70398 83831 91200=
07280,1996-06-20 15:00:00,22,1009.1,-1.3,57,13,25000,11.112,,,260,,,,,,,,,,,wg-a,,,,AAXX 20154 07280 12675 52606 10220 20130 39831 40091 58013 60006 83202 91500=
07280,1996-06-20 18:00:00,22,1008.1,-1,50,11,500,22.224,,,260,14,23.2,,,,,,,,,wg-a,,,,AAXX 20184 07280 32600 52612 10220 20110 39821 40081 56010 82201 91800 333 10232 20140=
07280,1996-06-20 21:00:00,16,1009.4,0.8,72,11,20000,7.408,,,250,,,,,,,,,,,wg-a,,,,AAXX 20214 07280 12670 42504 10160 20110 39829 40094 53008 60006 82201 92100=
07280,1996-06-21 00:00:00,14,1009.1,-0.5,82,11,20000,11.112,,,30,,,,,,,,,,,wg-a,,,,AAXX 21004 07280 12670 40306 10140 20110 39824 40091 58005 60006 82101 90000=
07280,1996-06-21 03:00:00,12,1007.8,-1.4,94,11,10000,0,,,0,,,,,,,,,,,wg-a,,,,AAXX 21034 07280 12760 60000 10120 20110 39810 40078 58014 60006 82531 90300=
07280,1996-06-21 06:00:00,15,1007.3,-0.2,88,13,20000,7.408,,,20,11.9,21.6,,,,,2,,,,wg-a,,,,AAXX 21064 07280 02670 70204 10150 20130 39808 40073 58002 60006 8453/ 90600 333 10216 20119 60024=
07280,1996-06-21 12:00:00,22,1004.5,-1.8,60,14,25000,14.816,,,180,,,,,,,,,,,wg-a,,,,AAXX 21124 07280 12675 71808 10220 20140 39787 40045 58018 60006 83302 91200=
07280,1996-06-21 18:00:00,15,1005.2,1,94,14,6000,14.816,,,50,15.1,22.9,,1,,,,,,60,wg-a,,,,AAXX 21184 07280 12356 80508 10150 20140 39788 40052 50010 60017 76086 848// 91800 333 10229 20151=
07280,1996-06-21 21:00:00,12,1007.8,2.2,94,11,500,22.224,,,360,,,,11,,,,,,61,wg-a,,,,AAXX 21214 07280 12400 83612 10120 20110 39810 40078 53022 60117 76186 888// 92100=
07280,1996-06-22 00:00:00,11,1009,1.1,94,10,8000,22.224,,,350,,,,2,,,,,,21,wg-a,,,,AAXX 22004 07280 02658 83512 10110 20100 39821 40090 51011 60136 72186 8327/ 90000 333 60027=
07280,1996-06-22 03:00:00,9,1011.5,2.2,87,7,6000,18.52,,,330,,,,0,,,,,,1,wg-a,,,,AAXX 22034 07280 12656 43310 10090 20070 39843 40115 53022 60007 70161 81230 90300=
07280,1996-06-22 06:00:00,10,1013.8,2.3,82,7,12000,22.224,,,330,7.9,15.2,,,,,14,,,3,wg-a,,,,AAXX 22064 07280 12462 /3312 10100 20070 39866 40138 51023 60144 70361 81130 90600 333 10152 20079=
07280,1996-06-22 09:00:00,13,1016.1,2.5,62,6,25000,22.224,,,340,,,,,,,,,,,wg-a,,,,AAXX 22094 07280 12575 43412 10130 20060 39891 40161 51025 60006 84800 90900=
07280,1996-06-22 12:00:00,11,1017.8,1.5,87,9,15000,22.224,,,340,,,,1,,,,,,80,wg-a,,,,AAXX 22124 07280 02665 73412 10110 20090 39906 40178 51015 60016 78081 878// 91200 333 60017=
07280,1996-06-22 15:00:00,11,1018.4,0.6,87,9,10000,18.52,,46.3,360,,,,1,,,,,,80,wg-a,,,,AAXX 22154 07280 12560 73610 10110 20090 39912 40184 53006 60017 78081 878// 91500 333 91025=
07280,1996-06-22 18:00:00,14,1019.1,0.9,58,6,500,25.928,,,330,9.7,15.5,,,,,,,,3,wg-a,,,,AAXX 22184 07280 02500 /3314 10140 20060 39921 40191 53009 61000 70381 86800 91800 333 10155 20097 ////=
07280,1996-06-22 21:00:00,12,1021,1.7,71,7,25000,14.816,,,340,,,,,,,,,,,wg-a,,,,AAXX 22214 07280 12775 83408 10120 20070 39938 40210 52017 60006 885// 92100=
07280,1996-06-23 00:00:00,11,1021.3,0.2,82,8,25000,11.112,,,330,,,,,,,,,,,wg-a,,,,AAXX 23004 07280 12775 73306 10110 20080 39940 40213 50002 60006 875// 90000=
07280,1996-06-23 03:00:00,9,1021.1,-0.4,93,8,20000,7.408,,,330,,,,,,,,,,,wg-a,,,,AAXX 23034 07280 12770 73304 10090 20080 39936 40211 57004 60006 875// 90300=
07280,1996-06-23 06:00:00,11,1021.5,0.6,82,8,20000,14.816,,,350,9.2,14.3,,,,,2,,,61,wg-a,,,,AAXX 23064 07280 02470 73508 10110 20080 39942 40215 51006 60024 76162 878// 90600 333 10143 20092 61000=
07280,1996-06-23 09:00:00,13,1022.2,0.9,67,7,20000,14.816,,,40,,,,,,,,,,3,wg-a,,,,AAXX 23094 07280 02570 70408 10130 20070 39951 40222 52009 61000 70362 878// 90900 333 ////=
07280,1996-06-23 12:00:00,16,1021.9,0,48,5,25000,22.224,,,350,,,,,,,,,,3,wg-a,,,,AAXX 23124 07280 02675 63512 10160 20050 39951 40219 50000 61000 70362 86800 91200 333 ////=
07280,1996-06-23 15:00:00,16,1021.8,-0.2,48,5,500,22.224,,,10,,,,,,,,,,3,wg-a,,,,AAXX 23154 07280 02600 50112 10160 20050 39949 40218 57002 61000 70382 85800 91500 333 ////=
07280,1996-06-23 18:00:00,15,1022.1,0.3,59,7,500,18.52,,,360,10.7,17.1,,,,,,,,1,wg-a,,,,AAXX 23184 07280 32700 43610 10150 20070 39952 40221 53003 70186 815/1 91800 333 10171 20107=
07280,1996-06-23 21:00:00,13,1023.8,1.4,67,7,25000,18.52,,,350,,,,,,,,,,,wg-a,,,,AAXX 23214 07280 12775 63510 10130 20070 39966 40238 53014 60006 86500 92100=
07280,1996-06-24 00:00:00,11,1023.7,-0.2,82,8,25000,18.52,,,350,,,,,,,,,,,wg-a,,,,AAXX 24004 07280 12775 13510 10110 20080 39964 40237 57002 60006 81500 90000=
07280,1996-06-24 03:00:00,9,1023.8,-0.1,87,7,20000,14.816,,,340,,,,,,,,,,,wg-a,,,,AAXX 24034 07280 12/70 13408 10090 20070 39963 40238 58001 60006 80001 90300=
07280,1996-06-24 06:00:00,11,1024.5,0.8,82,8,15000,14.816,,,330,8.5,15.1,,,,,,,,,wg-a,,,,AAXX 24064 07280 02465 /3308 10110 20080 39971 40245 53008 60006 81131 90600 333 10151 20085 61000=
07280,1996-06-24 09:00:00,13,1024.9,0.6,72,8,20000,18.52,,,350,,,,,,,,,,,wg-a,,,,AAXX 24094 07280 12570 /3510 10130 20080 39977 40249 51006 60006 86200 90900=
07280,1996-06-24 12:00:00,16,1024,-0.6,55,7,20000,14.816,,,50,,,,,,,,,,,wg-a,,,,AAXX 24124 07280 12670 70508 10160 20070 39971 40240 58006 60006 84201 91200=
07280,1996-06-24 15:00:00,16,1023.8,-0.2,55,7,20000,25.928,,,340,,,,,,,,,,,wg-a,,,,AAXX 24154 07280 12670 73414 10160 20070 39969 40238 55002 60006 83802 91500=
07280,1996-06-24 18:00:00,13,1024.1,0.3,67,7,20000,18.52,,,350,10.8,17.2,,,,,,,,,wg-a,,,,AAXX 24184 07280 12670 73510 10130 20070 39969 40241 53003 60006 81132 91800 333 10172 20108=
07280,1996-06-24 21:00:00,11,1025.1,0.8,82,8,15000,18.52,,,350,,,,,,,,,,,wg-a,,,,AAXX 24214 07280 12/65 73510 10110 20080 39977 40251 53008 60006 85071 92100=
07280,1996-06-25 00:00:00,10,1024.8,-0.4,87,8,15000,14.816,,,360,,,,,,,,,,,wg-a,,,,AAXX 25004 07280 12/65 03608 10100 20080 39973 40248 58004 60006 80000 90000=
07280,1996-06-25 03:00:00,8,1024.6,-0.4,93,7,10000,11.112,,,350,,,,,,,,,,,wg-a,,,,AAXX 25034 07280 12/60 03506 10080 20070 39969 40246 56004 60006 80000 90300=
07280,1996-06-25 06:00:00,11,1024.5,0.2,87,9,9000,14.816,,,350,7.8,13.4,,,,,,,,,wg-a,,,,AAXX 25064 07280 12659 23508 10110 20090 39971 40245 51002 60006 82500 90600 333 10134 20078=
07280,1996-06-25 09:00:00,16,1023.7,-0.3,59,8,15000,18.52,,,40,,,,,,,,,,,wg-a,,,,AAXX 25094 07280 12565 20410 10160 20080 39968 40237 58003 60006 82200 90900=
07280,1996-06-25 12:00:00,18,1022.5,-1,49,7,20000,14.816,,,20,,,,,,,,,,,wg-a,,,,AAXX 25124 07280 12670 70208 10180 20070 39958 40225 58010 60006 878// 91200=
07280,1996-06-25 15:00:00,18,1022,-0.5,52,8,25000,25.928,,,360,,,,,,,,,,,wg-a,,,,AAXX 25154 07280 12775 83614 10180 20080 39953 40220 57005 60006 83802 91500=
07280,1996-06-25 18:00:00,16,1021.9,-0.3,59,8,25000,14.816,,,10,11.3,,,,,,,,,,wg-a,,,,AAXX 25184 07280 12775 70108 10160 20080 39950 40219 57003 60006 83532 91800 333 20113=
07280,1996-06-25 21:00:00,14,1022.6,0.5,77,10,20000,7.408,,,40,,,,,,,,,,,wg-a,,,,AAXX 25214 07280 12670 70404 10140 20100 39955 40226 53005 60006 8583/ 92100=
07280,1996-06-26 00:00:00,12,1022.3,-0.4,82,9,20000,11.112,,,350,,,,,,,,,,,wg-a,,,,AAXX 26004 07280 12770 23506 10120 20090 39951 40223 58004 60006 82500 90000=
07280,1996-06-26 06:00:00,13,1021.8,0.3,82,10,10000,7.408,,,350,,15.9,,,,,,,,,wg-a,,,,AAXX 26064 07280 12/60 13504 10130 20100 39947 40218 52003 60006 80001 90600 333 10159=
07280,1996-06-26 09:00:00,18,1021.7,0.3,56,9,15000,18.52,,,30,,,,,,,,,,,wg-a,,,,AAXX 26094 07280 12665 20310 10180 20090 39950 40217 51003 60006 81201 90900=
07280,1996-06-26 12:00:00,20,1021.2,-0.3,43,7,15000,14.816,,,360,,,,,,,,,,,wg-a,,,,AAXX 26124 07280 12665 /3608 10200 20070 39947 40212 57003 60006 86200 91200=
07280,1996-06-26 15:00:00,21,1020.8,-0.3,40,7,20000,11.112,,,20,,,,,,,,,,,wg-a,,,,AAXX 26154 07280 12770 60206 10210 20070 39944 40208 58003 60006 84201 91500=
07280,1996-06-26 18:00:00,20,1021.2,0.3,49,9,20000,11.112,,,20,13.1,21.5,,,,,,,,,wg-a,,,,AAXX 26184 07280 12770 60206 10200 20090 39947 40212 53003 60006 85801 91800 333 10215 20131=
07280,1996-06-26 21:00:00,16,1022.5,1,68,10,15000,3.704,,,350,,,,,,,,,,,wg-a,,,,AAXX 26214 07280 12765 63502 10160 20100 39957 40225 52010 60006 86500 92100=
07280,1996-06-27 00:00:00,12,1023.2,0.3,88,10,12000,7.408,,,340,,,,,,,,,,,wg-a,,,,AAXX 27004 07280 12762 63404 10120 20100 39960 40232 50003 60006 85501 90000=
07280,1996-06-27 03:00:00,10,1023.4,-0,93,9,10000,7.408,,,340,,,,,,,,,,,wg-a,,,,AAXX 27034 07280 12/60 33404 10100 20090 39960 40234 55000 60006 80001 90300=
07280,1996-06-27 06:00:00,13,1024.3,1.2,82,10,12000,3.704,,,350,9.2,19.9,,,,,,,,,wg-a,,,,AAXX 27064 07280 12/62 53502 10130 20100 39972 40243 53012 60006 80001 90600 333 10199 20092=
07280,1996-06-27 09:00:00,21,1024.2,0.5,49,10,20000,3.704,,,290,,,,,,,,,,,wg-a,,,,AAXX 27094 07280 12670 /2902 10210 20100 39977 40242 51005 60006 81101 90900=
07280,1996-06-27 12:00:00,23,1023.4,-0.5,47,11,500,3.704,,,350,,,,,,,,,,,wg-a,,,,AAXX 27124 07280 12700 63502 10230 20110 39972 40234 58005 60006 84201 91200=
07280,1996-06-27 15:00:00,24,1022.7,-0.6,44,11,500,11.112,,,190,,,,,,,,,,,wg-a,,,,AAXX 27154 07280 12700 41906 10240 20110 39966 40227 58006 60006 84400 91500=
07280,1996-06-27 18:00:00,23,1022.3,-0.5,50,12,20000,3.704,,,200,13.5,24.3,,,,,,,,,wg-a,,,,AAXX 27184 07280 12770 52002 10230 20120 39961 40223 56005 60006 814/1 91800 333 10243 20135=
07280,1996-06-27 21:00:00,18,1023.1,0.4,73,13,20000,0,,,0,,,,,,,,,,,wg-a,,,,AAXX 27214 07280 12770 60000 10180 20130 39965 40231 53004 60006 86500 92100=
07280,1996-06-28 00:00:00,16,1022.9,-0.5,77,12,18000,7.408,,,350,,,,,,,,,,,wg-a,,,,AAXX 28004 07280 12/68 03504 10160 20120 39960 40229 58005 60006 80000 90000=
07280,1996-06-28 03:00:00,12,1022.5,-0.7,94,11,7000,3.704,,,110,,,,,,,,,,11,wg-a,,,,AAXX 28034 07280 12/57 01102 10120 20110 39953 40225 57007 60006 71100 80000 90300=
07280,1996-06-28 06:00:00,14,1022.5,0.2,94,13,6000,0,,,0,11.4,22.7,,,,,,,,,wg-a,,,,AAXX 28064 07280 12/56 /0000 10140 20130 39955 40225 52002 60006 80001 90600 333 10227 20114=
07280,1996-06-28 09:00:00,22,1021.2,-0.5,60,14,10000,11.112,,,180,,,,,,,,,,,wg-a,,,,AAXX 28094 07280 12660 31806 10220 20140 39950 40212 58005 60006 82201 90900=
07280,1996-06-28 12:00:00,26,1019.3,-1.5,45,13,15000,22.224,,,200,,,,,,,,,,,wg-a,,,,AAXX 28124 07280 12765 72012 10260 20130 39935 40193 58015 60006 86201 91200=
07280,1996-06-28 15:00:00,26,1017.5,-1.8,45,13,11000,18.52,,,190,,,,,,,,,,,wg-a,,,,AAXX 28154 07280 12/61 /1910 10260 20130 39917 40175 58018 60006 91500=
07280,1996-06-28 18:00:00,25,1016.6,-1,50,14,20000,14.816,,,220,14.3,26.7,,,,,,,,,wg-a,,,,AAXX 28184 07280 12770 42208 10250 20140 39907 40166 56010 60006 81130 91800 333 10267 20143=
07280,1996-06-28 21:00:00,18,1016.9,-0.3,77,14,20000,7.408,,,220,,,,,,,,,,,wg-a,,,,AAXX 28214 07280 12/70 52204 10180 20140 39904 40169 55003 60006 83081 92100=
07280,1996-06-29 00:00:00,18,1016.6,-0.3,73,13,20000,7.408,,,210,,,,,,,,,,,wg-a,,,,AAXX 29004 07280 12770 72104 10180 20130 39901 40166 58003 60006 8158/ 90000=
07280,1996-06-29 03:00:00,15,1016.1,-0.7,82,12,20000,7.408,,,220,,,,,,,,,,,wg-a,,,,AAXX 29034 07280 12/70 32204 10150 20120 39894 40161 56007 60006 83030 90300=
07280,1996-06-29 06:00:00,17,1016.7,0.7,77,13,25000,14.816,,,200,14.8,24.5,,,,,,,,,wg-a,,,,AAXX 29064 07280 12575 42008 10170 20130 39901 40167 52007 60006 81881 90600 333 10245 20148=
07280,1996-06-29 09:00:00,19,1017.2,0.6,68,13,25000,29.632,,,260,,,,,,,,,,,wg-a,,,,AAXX 29094 07280 12575 72616 10190 20130 39907 40172 52006 60006 875// 90900=
07280,1996-06-29 12:00:00,19,1016.9,-0.2,78,15,25000,25.928,,,280,,,,1,,,,,,25,wg-a,,,,AAXX 29124 07280 02575 72814 10190 20150 39905 40169 55002 60016 72586 85801 91200 333 60017=
07280,1996-06-29 15:00:00,22,1016.2,-0.5,43,9,40000,31.484,,,250,,,,,,,,,,,wg-a,,,,AAXX 29154 07280 12782 52517 10220 20090 39900 40162 58005 60006 84201 91500=
07280,1996-06-29 18:00:00,20,1017,0.6,49,9,500,31.484,,,250,16.2,22.5,,,,,,,,,wg-a,,,,AAXX 29184 07280 32700 62517 10200 20090 39906 40170 53006 81201 91800 333 10225 20162=
07280,1996-06-29 21:00:00,16,1019.5,2.1,59,8,20000,11.112,,,270,,,,,,,,,,,wg-a,,,,AAXX 29214 07280 12770 42706 10160 20080 39927 40195 51021 60006 84800 92100=
07280,1996-06-30 00:00:00,14,1020.8,1.1,55,5,20000,18.52,,,330,,,,,,,,,,12,wg-a,,,,AAXX 30004 07280 12770 73310 10140 20050 39938 40208 52011 60006 7122/ 875// 90000=
07280,1996-06-30 03:00:00,12,1020.6,-0.4,67,6,15000,14.816,,,310,,,,,,,,,,,wg-a,,,,AAXX 30034 07280 12765 73108 10120 20060 39934 40206 56004 60006 875// 90300=
07280,1996-06-30 06:00:00,13,1021.1,0.6,72,8,500,7.408,,,270,11.4,19.6,,,,,1,,,,wg-a,,,,AAXX 30064 07280 02800 52704 10130 20080 39940 40211 52006 60006 85501 90600 333 10196 20114 60014=
07280,1996-06-30 09:00:00,17,1020.2,-0.5,52,7,500,14.816,,,240,,,,,,,,,,,wg-a,,,,AAXX 30094 07280 12600 72408 10170 20070 39935 40202 58005 60006 84232 90900=
07280,1996-06-30 12:00:00,18,1019.3,-0.8,52,8,25000,14.816,,,270,,,,,,,,,,,wg-a,,,,AAXX 30124 07280 12675 82708 10180 20080 39927 40193 58008 60006 8622/ 91200=
07280,1996-06-30 15:00:00,19,1017.2,-1.9,52,9,25000,18.52,,,230,,,,,,,,,,,wg-a,,,,AAXX 30154 07280 12775 72310 10190 20090 39908 40172 58019 60006 8117/ 91500=
07280,1996-06-30 18:00:00,18,1015.8,-1.5,59,10,500,11.112,,,190,13.2,19.7,,,,,,,,,wg-a,,,,AAXX 30184 07280 12700 71906 10180 20100 39893 40158 56015 60006 875// 91800 333 10197 20132=
07280,1996-06-30 21:00:00,16,1015.3,-0.6,77,12,20000,14.816,,,240,,,,0,,,,,,21,wg-a,,,,AAXX 30214 07280 12770 82408 10160 20120 39887 40153 56006 60007 72162 885// 92100=
07280,1996-07-01 00:00:00,14,1014.4,-1.1,94,13,20000,11.112,,,230,,,,0,,,,,,1,wg-a,,,,AAXX 01004 07280 02570 82306 10140 20130 39876 40144 57011 60016 70162 888// 90000 333 60007=
07280,1996-07-01 03:00:00,15,1012.6,-1.7,82,12,15000,14.816,,,290,,,,,,,,,,,wg-a,,,,AAXX 01034 07280 12665 82908 10150 20120 39859 40126 56017 60006 885// 90300=
07280,1996-07-01 06:00:00,15,1012.3,-0.3,82,12,20000,14.816,,,250,14.3,18.1,,,,,,,,,wg-a,,,,AAXX 01064 07280 12570 82508 10150 20120 39856 40123 57003 60004 8587/ 90600 333 10181 20143=
07280,1996-07-01 09:00:00,16,1012.1,-0.1,82,13,12000,25.928,,,200,,,,,,,,,,60,wg-a,,,,AAXX 01094 07280 02462 82014 10160 20130 39855 40121 58001 61000 76062 8627/ 90900 333 ////=
07280,1996-07-01 12:00:00,17,1011.7,-0.3,77,13,25000,18.52,,,240,,,,0,,,,,,25,wg-a,,,,AAXX 01124 07280 02575 /2410 10170 20130 39852 40117 58003 60006 72586 878// 91200 333 60007=
07280,1996-07-01 15:00:00,21,1010.3,-1,46,9,40000,25.928,,,260,,,,,,,,,,,wg-a,,,,AAXX 01154 07280 12782 /2614 10210 20090 39842 40103 56010 60006 85200 91500=
07280,1996-07-01 18:00:00,19,1010.9,0.4,52,9,500,29.632,,,260,14.9,21.6,,,,,,,,,wg-a,,,,AAXX 01184 07280 32700 62616 10190 20090 39846 40109 53004 868/0 91800 333 10216 20149=
07280,1996-07-02 00:00:00,15,1011.8,-0.4,72,10,20000,14.816,,,230,,,,,,,,,,,wg-a,,,,AAXX 02004 07280 12770 72308 10150 20100 39851 40118 58004 60006 878// 90000=
07280,1996-07-02 03:00:00,12,1012,-0,88,10,20000,0,,,0,,,,,,,,,,,wg-a,,,,AAXX 02034 07280 12770 70000 10120 20100 39851 40120 55000 60006 855/1 90300=
07280,1996-07-02 06:00:00,14,1012.7,0.8,77,10,500,7.408,,,230,11.9,18.4,,,,,,,,,wg-a,,,,AAXX 02064 07280 02500 82304 10140 20100 39859 40127 53008 60006 81132 90600 333 10184 20119 60004=
07280,1996-07-02 09:00:00,16,1013.2,0.7,63,9,500,7.408,,,360,,,,,,,,,,,wg-a,,,,AAXX 02094 07280 12600 73604 10160 20090 39866 40132 51007 60006 84802 90900=
07280,1996-07-02 12:00:00,19,1012.8,-0.2,52,9,500,14.816,,,290,,,,,,,,,,,wg-a,,,,AAXX 02124 07280 12600 /2908 10190 20090 39864 40128 56002 60006 85802 91200=
07280,1996-07-02 15:00:00,19,1012.5,-0.2,52,9,500,14.816,,,270,,,,,,,,,,,wg-a,,,,AAXX 02154 07280 12700 82708 10190 20090 39862 40125 57002 60006 82232 91500=
07280,1996-07-02 18:00:00,19,1013.1,0.5,49,8,500,7.408,,,260,13.6,19.3,,,,,,,,,wg-a,,,,AAXX 02184 07280 12600 /2604 10190 20080 39867 40131 53005 60006 85800 91800 333 10193 20136=
07280,1996-07-02 21:00:00,12,1015,1.3,82,9,500,11.112,,,260,,,,,,,,,,,wg-a,,,,AAXX 02214 07280 12700 22606 10120 20090 39880 40150 53013 60006 82501 92100=
07280,1996-07-03 00:00:00,9,1015.5,0.2,87,7,25000,0,,,0,,,,,,,,,,,wg-a,,,,AAXX 03004 07280 12/75 10000 10090 20070 39882 40155 53002 60006 80001 90000=
07280,1996-07-03 03:00:00,7,1015.2,-0.5,93,6,20000,0,,,0,,,,,,,,,,11,wg-a,,,,AAXX 03034 07280 12/70 00000 10070 20060 39877 40152 56005 60006 71100 80000 90300=
07280,1996-07-03 06:00:00,10,1015.5,0.5,93,9,6000,3.704,,,170,6.4,18.7,,,,,,,,29,wg-a,,,,AAXX 03064 07280 12256 21702 10100 20090 39882 40155 53005 60006 72940 82600 90600 333 10187 20064=
07280,1996-07-03 09:00:00,19,1014.3,-0.3,52,9,500,18.52,,,200,,,,,,,,,,,wg-a,,,,AAXX 03094 07280 12600 22010 10190 20090 39879 40143 58003 60006 82230 90900=
07280,1996-07-03 12:00:00,23,1012.9,-1,41,9,40000,29.632,,,200,,,,,,,,,,,wg-a,,,,AAXX 03124 07280 12782 32016 10230 20090 39869 40129 58010 60006 82139 91200=
07280,1996-07-03 15:00:00,24,1011.7,-1.1,41,10,40000,25.928,,,190,,,,,,,,,,,wg-a,,,,AAXX 03154 07280 12782 61914 10240 20100 39858 40117 56011 60006 86400 91500=
07280,1996-07-03 18:00:00,22,1011.3,-0.5,53,12,500,18.52,,,210,9.5,24.3,,,,,,,,,wg-a,,,,AAXX 03184 07280 12700 72110 10220 20120 39853 40113 56005 60006 8657/ 91800 333 10243 20095=
07280,1996-07-03 21:00:00,19,1012.4,0.8,78,15,15000,11.112,,,220,,,,0,,,,,,25,wg-a,,,,AAXX 03214 07280 12565 72206 10190 20150 39861 40124 51008 60007 72582 8587/ 92100=
07280,1996-07-04 00:00:00,20,1012.1,-0.2,68,14,10000,25.928,,,230,,,,,,,,,,,wg-a,,,,AAXX 04004 07280 12/60 /2314 10200 20140 39859 40121 58002 60006 90000=
07280,1996-07-04 03:00:00,19,1012.6,0.4,73,14,15000,22.224,,,200,,,,,,,,,,,wg-a,,,,AAXX 04034 07280 12765 72012 10190 20140 39863 40126 53004 60006 8653/ 90300=
07280,1996-07-04 06:00:00,19,1013.1,0.5,78,15,20000,18.52,,,200,18,22.1,,,,,,,,,wg-a,,,,AAXX 04064 07280 12670 /2010 10190 20150 39868 40131 51005 60004 86800 90600 333 10221 20180=
07280,1996-07-04 09:00:00,21,1013.2,0.3,64,14,20000,31.484,,,230,,,,,,,,,,,wg-a,,,,AAXX 04094 07280 12670 82317 10210 20140 39871 40132 52003 60006 878// 90900=
07280,1996-07-04 12:00:00,25,1013.1,0.2,54,15,25000,29.632,,,220,,,,,,,,,,,wg-a,,,,AAXX 04124 07280 12675 72216 10250 20150 39873 40131 50002 60006 86801 91200=
07280,1996-07-04 15:00:00,24,1013.4,0.2,54,14,500,25.928,,,260,,,,1,,,,,,1,wg-a,,,,AAXX 04154 07280 12600 62614 10240 20140 39875 40134 50002 60017 70186 84802 91500=
07280,1996-07-04 18:00:00,22,1013.6,0.1,60,14,500,18.52,,,250,19.3,24.7,,,,,,,,,wg-a,,,,AAXX 04184 07280 32700 62510 10220 20140 39876 40136 53001 84232 91800 333 10247 20193=
07280,1996-07-04 21:00:00,18,1014.6,0.6,77,14,20000,7.408,,,250,,,,,,,,,,,wg-a,,,,AAXX 04214 07280 12670 /2504 10180 20140 39882 40146 53006 60006 83230 92100=
07280,1996-07-05 00:00:00,16,1013.9,-0.9,88,14,11000,3.704,,,210,,,,,,,,,,,wg-a,,,,AAXX 05004 07280 12/61 /2102 10160 20140 39873 40139 58009 60006 90000=
07280,1996-07-05 03:00:00,15,1012.6,-1.3,94,14,15000,3.704,,,210,,,,,,,,,,,wg-a,,,,AAXX 05034 07280 12665 82102 10150 20140 39860 40126 56013 60006 875// 90300=
07280,1996-07-05 06:00:00,17,1010.9,-1.5,88,15,15000,11.112,,,210,15.1,22.1,,,,,1,,,,wg-a,,,,AAXX 05064 07280 02265 82106 10170 20150 39845 40109 57015 60006 82132 90600 333 10221 20151 60014=
07280,1996-07-05 09:00:00,19,1008.8,-2.4,88,17,8000,22.224,,,200,,,,0,,,,,,80,wg-a,,,,AAXX 05094 07280 12558 72012 10190 20170 39827 40088 56024 60007 78082 8427/ 90900=
07280,1996-07-05 12:00:00,16,1007.2,-1.9,94,15,18000,7.408,,,110,,,,19,,,,,,80,wg-a,,,,AAXX 05124 07280 02568 71104 10160 20150 39808 40072 58019 60206 78098 8527/ 91200 333 60197=
07280,1996-07-05 15:00:00,17,1008,0.8,94,16,9000,29.632,,,190,,,,1,,,,,,80,wg-a,,,,AAXX 05154 07280 12259 71916 10170 20160 39816 40080 50008 60017 78082 8577/ 91500=
07280,1996-07-05 18:00:00,17,1008.6,0.6,94,16,15000,18.52,,,230,14.9,20.1,,0,,,,,,25,wg-a,,,,AAXX 05184 07280 12365 72310 10170 20160 39822 40086 51006 60007 72582 85973 91800 333 10201 20149=
07280,1996-07-05 21:00:00,16,1009.5,0.8,94,15,18000,3.704,,,200,,,,0,,,,,,3,wg-a,,,,AAXX 05214 07280 12368 72002 10160 20150 39830 40095 51008 60007 70382 8487/ 92100=
07280,1996-07-06 00:00:00,14,1008.9,-0.7,100,14,15000,3.704,,,180,,,,,,,,,,60,wg-a,,,,AAXX 06004 07280 02465 81802 10140 20140 39823 40089 57007 60006 76082 888// 90000 333 61000=
07280,1996-07-06 03:00:00,14,1008.2,-0.8,94,13,6000,18.52,,,310,,,,9,,,,,,63,wg-a,,,,AAXX 06034 07280 12256 83110 10140 20130 39815 40082 55008 60097 76366 888// 90300=
07280,1996-07-06 06:00:00,13,1010.9,2.6,88,11,25000,11.112,,,280,12.2,17,,1,,,31,,,3,wg-a,,,,AAXX 06064 07280 02475 /2806 10130 20110 39841 40109 53026 60314 70362 86800 90600 333 10170 20122 60017=
07280,1996-07-06 09:00:00,15,1012.3,1.6,72,10,35000,22.224,,,280,,,,,,,,,,,wg-a,,,,AAXX 06094 07280 12581 52812 10150 20100 39857 40123 51016 60006 85801 90900=
07280,1996-07-06 12:00:00,18,1012.3,0.2,49,7,35000,18.52,,,280,,,,,,,,,,,wg-a,,,,AAXX 06124 07280 12681 /2810 10180 20070 39859 40123 50002 60006 85101 91200=
07280,1996-07-06 15:00:00,19,1011.8,-0.4,49,8,40000,14.816,,,230,,,,,,,,,,,wg-a,,,,AAXX 06154 07280 12782 52308 10190 20080 39855 40118 57004 60006 84802 91500=
07280,1996-07-06 18:00:00,18,1011.1,-0.8,52,8,35000,11.112,,,290,12.9,20.4,,,,,,,,,wg-a,,,,AAXX 06184 07280 12781 82906 10180 20080 39847 40111 56008 60006 83802 91800 333 10204 20129=
07280,1996-07-06 21:00:00,15,1011.4,0,67,9,25000,3.704,,,320,,,,,,,,,,,wg-a,,,,AAXX 06214 07280 12675 83202 10150 20090 39847 40114 50000 60006 84802 92100=
07280,1996-07-07 00:00:00,13,1010.7,-0.8,88,11,25000,0,,,0,,,,,,,,,,,wg-a,,,,AAXX 07004 07280 12775 70000 10130 20110 39839 40107 58008 60006 835/2 90000=
07280,1996-07-07 03:00:00,12,1009,-1.7,88,10,15000,7.408,,,10,,,,,,,,,,,wg-a,,,,AAXX 07034 07280 12765 70104 10120 20100 39822 40090 57017 60006 855/2 90300=
07280,1996-07-07 06:00:00,12,1007.2,-1.8,88,10,35000,11.112,,,20,11.5,17.7,,,,,,,,,wg-a,,,,AAXX 07064 07280 12881 80206 10120 20100 39804 40072 57018 60006 8653/ 90600 333 10177 20115=
07280,1996-07-07 09:00:00,14,1006.1,-0.9,82,11,15000,11.112,,,10,,,,,,,,,,61,wg-a,,,,AAXX 07094 07280 02765 80106 10140 20110 39795 40061 58009 61000 76162 8557/ 90900 333 ////=
07280,1996-07-07 12:00:00,13,1004.9,-1.2,94,12,8000,11.112,,,60,,,,4,,,,,,61,wg-a,,,,AAXX 07124 07280 02558 80606 10130 20120 39783 40049 56012 60046 76162 8482/ 91200 333 60047=
07280,1996-07-07 15:00:00,14,1004.4,-0.5,88,12,9000,11.112,,,30,,,,5,,,,,,61,wg-a,,,,AAXX 07154 07280 12459 80306 10140 20120 39778 40044 58005 60057 76166 8577/ 91500=
07280,1996-07-07 18:00:00,13,1003.3,-1.1,94,12,12000,18.52,,,20,12,14.2,,0,,,,,,3,wg-a,,,,AAXX 07184 07280 12362 80210 10130 20120 39767 40033 57011 60007 70362 8617/ 91800 333 10142 20120=
07280,1996-07-07 21:00:00,12,1005.3,1.8,94,11,10000,18.52,,,350,,,,2,,,,,,61,wg-a,,,,AAXX 07214 07280 12460 83510 10120 20110 39785 40053 53018 60027 76162 878// 92100=
07280,1996-07-08 00:00:00,12,1006.6,1.3,88,10,15000,25.928,,,340,,,,5,,,,,,61,wg-a,,,,AAXX 08004 07280 02465 83414 10120 20100 39798 40066 53013 60076 76162 888// 90000 333 60057=
07280,1996-07-08 03:00:00,11,1008.7,2,94,10,12000,22.224,,,340,,,,3,,,,,,61,wg-a,,,,AAXX 08034 07280 12462 83412 10110 20100 39818 40087 53020 60037 76166 888// 90300=
07280,1996-07-08 06:00:00,12,1012.2,3.4,94,11,500,14.816,,,340,11,13.2,,4,,,24,,,61,wg-a,,,,AAXX 08064 07280 02400 83408 10120 20110 39852 40122 53034 60244 76166 885// 90600 333 10132 20110 60047=
07280,1996-07-08 09:00:00,13,1015.3,3.2,88,11,12000,25.928,,,340,,,,1,,,,,,21,wg-a,,,,AAXX 08094 07280 12462 83414 10130 20110 39884 40153 51032 60017 72162 82872 90900=
07280,1996-07-08 12:00:00,18,1016.9,2,56,9,500,25.928,,53.708,350,,,,,,,,,,,wg-a,,,,AAXX 08124 07280 12600 /3514 10180 20090 39904 40169 51020 60016 85101 91200 333 91029=
07280,1996-07-08 15:00:00,19,1018.8,1.9,46,7,35000,25.928,,,320,,,,,,,,,,,wg-a,,,,AAXX 08154 07280 12781 63214 10190 20070 39923 40188 52019 60006 85801 91500=
07280,1996-07-08 18:00:00,18,1020.8,1.8,52,8,35000,11.112,,,340,11.5,20.1,,,,,,,,15,wg-a,,,,AAXX 08184 07280 32781 23406 10180 20080 39941 40208 53018 71511 81260 91800 333 10201 20115=
07280,1996-07-08 21:00:00,13,1023.3,2,88,11,20000,11.112,,,330,,,,2,,,,,,21,wg-a,,,,AAXX 08214 07280 12/70 73306 10130 20110 39961 40233 51020 60027 72181 87070 92100=
07280,1996-07-09 00:00:00,12,1024.7,1.3,82,9,15000,14.816,,,330,,,,,,,,,,1,wg-a,,,,AAXX 09004 07280 12/65 03308 10120 20090 39974 40247 51013 60026 70181 80000 90000=
07280,1996-07-09 03:00:00,10,1025.6,0.7,93,9,12000,14.816,,,320,,,,,,,,,,,wg-a,,,,AAXX 09034 07280 12862 23208 10100 20090 39981 40256 51007 60006 82500 90300=
07280,1996-07-09 06:00:00,10,1026.9,1.3,100,10,7000,3.704,,,130,7.9,17.9,,,,,3,,,,wg-a,,,,AAXX 09064 07280 12857 71302 10100 20100 39994 40269 53013 60034 875// 90600 333 10179 20079=
07280,1996-07-09 09:00:00,17,1026,-0.2,72,12,20000,7.408,,,180,,,,,,,,,,,wg-a,,,,AAXX 09094 07280 12570 51804 10170 20120 39992 40260 58002 60006 85800 90900=
07280,1996-07-09 12:00:00,20,1025.1,-0.7,49,9,500,14.816,,,280,,,,,,,,,,,wg-a,,,,AAXX 09124 07280 12600 62808 10200 20090 39985 40251 58007 60006 85201 91200=
07280,1996-07-09 15:00:00,20,1025.1,0.1,49,9,40000,18.52,,,310,,,,,,,,,,,wg-a,,,,AAXX 09154 07280 12782 23110 10200 20090 39986 40251 53001 60006 81231 91500=
07280,1996-07-09 18:00:00,19,1024.7,-0.5,49,8,40000,11.112,,,280,10.5,21.1,,,,,,,,,wg-a,,,,AAXX 09184 07280 12782 72806 10190 20080 39981 40247 55005 60006 8213/ 91800 333 10211 20105=
07280,1996-07-09 21:00:00,16,1025.1,0.1,77,12,25000,7.408,,,250,,,,,,,,,,,wg-a,,,,AAXX 09214 07280 12/75 72504 10160 20120 39982 40251 53001 60006 85032 92100=
07280,1996-07-10 00:00:00,16,1024.5,-0.6,68,10,25000,11.112,,,290,,,,,,,,,,,wg-a,,,,AAXX 10004 07280 12775 82906 10160 20100 39976 40245 58006 60006 8553/ 90000=
07280,1996-07-10 03:00:00,14,1024.2,-0.4,82,11,25000,7.408,,,260,,,,,,,,,,,wg-a,,,,AAXX 10034 07280 12775 72604 10140 20110 39972 40242 55004 60006 875// 90300=
07280,1996-07-10 06:00:00,15,1024,-0.2,77,11,20000,11.112,,,240,14,19.4,,,,,,,,,wg-a,,,,AAXX 10064 07280 12470 82406 10150 20110 39970 40240 55002 60006 878// 90600 333 10194 20140=
07280,1996-07-10 09:00:00,17,1023.9,0.1,82,14,20000,14.816,,,290,,,,,,,,,,,wg-a,,,,AAXX 10094 07280 12470 82908 10170 20140 39971 40239 51001 60006 875// 90900=
07280,1996-07-10 12:00:00,18,1023.6,-0.1,77,14,15000,11.112,,,280,,,,,,,,,,,wg-a,,,,AAXX 10124 07280 12465 82806 10180 20140 39970 40236 58001 60006 8653/ 91200=
07280,1996-07-10 15:00:00,20,1022.7,-0.7,68,14,20000,18.52,,,290,,,,,,,,,,,wg-a,,,,AAXX 10154 07280 12670 72910 10200 20140 39963 40227 56007 60006 85131 91500=
07280,1996-07-10 18:00:00,19,1023,-0.1,64,12,20000,18.52,,,350,14.8,21.4,,,,,,,,,wg-a,,,,AAXX 10184 07280 12570 73510 10190 20120 39964 40230 55001 60006 8683/ 91800 333 10214 20148=
07280,1996-07-10 21:00:00,16,1024.2,0.9,82,13,18000,11.112,,,330,,,,,,,,,,,wg-a,,,,AAXX 10214 07280 12668 33306 10160 20130 39973 40242 53009 60006 82501 92100=
07280,1996-07-11 00:00:00,13,1024.6,0.1,88,11,12000,11.112,,,330,,,,,,,,,,,wg-a,,,,AAXX 11004 07280 12/62 03306 10130 20110 39974 40246 50001 60006 80000 90000=
07280,1996-07-11 06:00:00,15,1024,0.2,77,11,20000,14.816,,,340,12.7,19,,,,,,,,,wg-a,,,,AAXX 11064 07280 12870 13408 10150 20110 39970 40240 53002 60006 81031 90600 333 10190 20127=
07280,1996-07-11 09:00:00,18,1023.5,-0.2,68,12,15000,14.816,,,50,,,,,,,,,,,wg-a,,,,AAXX 11094 07280 12565 30508 10180 20120 39968 40235 58002 60006 83101 90900=
07280,1996-07-11 12:00:00,20,1022.6,-0.7,53,10,20000,14.816,,,10,,,,,,,,,,,wg-a,,,,AAXX 11124 07280 12670 /0108 10200 20100 39961 40226 58007 60006 85100 91200=
07280,1996-07-11 15:00:00,22,1021.3,-1.1,50,11,20000,11.112,,29.632,40,,,,,,,,,,,wg-a,,,,AAXX 11154 07280 12670 50406 10220 20110 39950 40213 57011 60006 84101 91500 333 91016=
07280,1996-07-11 18:00:00,21,1020.9,-0.4,53,11,20000,7.408,,,10,14.5,22.3,,,,,,,,,wg-a,,,,AAXX 11184 07280 12770 40104 10210 20110 39946 40209 55004 60006 81101 91800 333 10223 20145=
07280,1996-07-11 21:00:00,16,1021.8,0.4,72,11,15000,3.704,,,360,,,,,,,,,,,wg-a,,,,AAXX 11214 07280 12/65 33602 10160 20110 39950 40218 53004 60006 80001 92100=
07280,1996-07-12 00:00:00,14,1021.5,-0.5,82,11,15000,7.408,,,340,,,,,,,,,,,wg-a,,,,AAXX 12004 07280 12/65 23404 10140 20110 39945 40215 58005 60006 80001 90000=
07280,1996-07-12 03:00:00,12,1020.6,-1,94,11,8000,7.408,,,350,,,,,,,,,,,wg-a,,,,AAXX 12034 07280 12/58 /3504 10120 20110 39935 40206 56010 60006 80001 90300=
07280,1996-07-12 06:00:00,14,1020.5,0.1,88,12,12000,3.704,,,340,11.1,21.4,,,,,,,,,wg-a,,,,AAXX 12064 07280 12/62 03402 10140 20120 39936 40205 53001 60006 80000 90600 333 10214 20111=
07280,1996-07-12 09:00:00,22,1019.7,-0.1,57,13,20000,3.704,,,220,,,,,,,,,,,wg-a,,,,AAXX 12094 07280 12670 32202 10220 20130 39935 40197 57001 60006 82230 90900=
07280,1996-07-12 12:00:00,24,1018.8,-0.7,47,12,20000,7.408,,,120,,,,,,,,,,,wg-a,,,,AAXX 12124 07280 12770 71204 10240 20120 39928 40188 56007 60006 8643/ 91200=
07280,1996-07-12 15:00:00,25,1017.6,-1.1,47,13,25000,7.408,,,140,,,,,,,,,,,wg-a,,,,AAXX 12154 07280 12775 61404 10250 20130 39917 40176 57011 60006 85202 91500=
07280,1996-07-12 18:00:00,24,1017.9,0.2,54,14,25000,14.816,,,190,14.4,26.1,,,,,,,,,wg-a,,,,AAXX 12184 07280 12775 71908 10240 20140 39919 40179 53002 60006 83132 91800 333 10261 20144=
07280,1996-07-12 21:00:00,21,1019.9,1.6,53,11,20000,18.52,,,310,,,,,,,,,,,wg-a,,,,AAXX 12214 07280 12770 73110 10210 20110 39935 40199 53016 60006 8353/ 92100=
07280,1996-07-13 00:00:00,18,1020.6,0.5,64,11,20000,7.408,,,360,,,,,,,,,,,wg-a,,,,AAXX 13004 07280 12770 43604 10180 20110 39940 40206 53005 60006 81530 90000=
07280,1996-07-13 03:00:00,15,1020.7,-0.2,82,12,20000,7.408,,,340,,,,,,,,,,,wg-a,,,,AAXX 13034 07280 12/70 13404 10150 20120 39938 40207 55002 60006 81030 90300=
07280,1996-07-13 06:00:00,16,1021.6,1,82,13,20000,7.408,,,350,12.7,24.1,,,,,,,,,wg-a,,,,AAXX 13064 07280 12/70 13504 10160 20130 39948 40216 53010 60006 80001 90600 333 10241 20127=
07280,1996-07-13 09:00:00,22,1021.8,0.7,57,13,20000,11.112,,,320,,,,,,,,,,,wg-a,,,,AAXX 13094 07280 12670 /3206 10220 20130 39955 40218 51007 60006 81101 90900=
07280,1996-07-13 12:00:00,26,1021.6,0.2,48,14,25000,7.408,,,270,,,,,,,,,,,wg-a,,,,AAXX 13124 07280 12775 22704 10260 20140 39957 40216 50002 60006 81101 91200=
07280,1996-07-13 15:00:00,27,1021.5,-0.1,37,11,500,14.816,,,300,,,,,,,,,,,wg-a,,,,AAXX 13154 07280 12700 43008 10270 20110 39956 40215 56001 60006 82101 91500=
07280,1996-07-13 18:00:00,26,1021.8,0.3,45,13,500,7.408,,,320,16.3,27,,,,,,,,,wg-a,,,,AAXX 13184 07280 12700 53204 10260 20130 39959 40218 53003 60006 81101 91800 333 10270 20163=
07280,1996-07-13 21:00:00,20,1024,1.6,68,14,20000,7.408,,,30,,,,,,,,,,,wg-a,,,,AAXX 13214 07280 12/70 50304 10200 20140 39975 40240 52016 60006 81031 92100=
07280,1996-07-14 00:00:00,17,1025,0.7,82,14,20000,7.408,,,330,,,,,,,,,,,wg-a,,,,AAXX 14004 07280 12/70 23304 10170 20140 39982 40250 51007 60006 80001 90000=
07280,1996-07-14 03:00:00,15,1025.6,0.4,88,13,15000,11.112,,,320,,,,,,,,,,,wg-a,,,,AAXX 14034 07280 12/65 13206 10150 20130 39986 40256 52004 60006 80001 90300=
07280,1996-07-14 06:00:00,17,1026.3,0.9,82,14,18000,7.408,,,350,,,,,,,,,,,wg-a,,,,AAXX 14064 07280 12/68 13504 10170 20140 39995 40263 53009 60006 80001 90600=
07280,1996-07-14 09:00:00,24,1026,0.3,57,15,20000,7.408,,,30,,,,,,,,,,,wg-a,,,,AAXX 14094 07280 12670 /0304 10240 20150 39998 40260 50003 60006 81100 90900=
07280,1996-07-14 12:00:00,27,1025.1,-0.6,45,14,500,11.112,,,90,,,,,,,,,,,wg-a,,,,AAXX 14124 07280 12700 10906 10270 20140 39992 40251 58006 60006 81100 91200=
07280,1996-07-14 15:00:00,29,1023.4,-1.5,37,13,500,11.112,,,70,,,,,,,,,,,wg-a,,,,AAXX 14154 07280 12700 10706 10290 20130 39977 40234 58015 60006 81100 91500=
07280,1996-07-14 18:00:00,27,1023.1,-0.5,51,16,500,14.816,,,90,17.3,28.7,,,,,,,,,wg-a,,,,AAXX 14184 07280 12700 20908 10270 20160 39972 40231 56005 60006 81401 91800 333 10287 20173=
07280,1996-07-14 21:00:00,21,1024.1,0.5,73,16,20000,3.704,,,20,,,,,,,,,,,wg-a,,,,AAXX 14214 07280 12/70 10202 10210 20160 39977 40241 53005 60006 80001 92100=
07280,1996-07-15 00:00:00,19,1024.5,0.2,78,15,20000,11.112,,,350,,,,,,,,,,,wg-a,,,,AAXX 15004 07280 12/70 03506 10190 20150 39979 40245 50002 60006 80000 90000=
07280,1996-07-15 03:00:00,17,1023.6,-1,88,15,20000,14.816,,,340,,,,,,,,,,,wg-a,,,,AAXX 15034 07280 12/70 03408 10170 20150 39969 40236 57010 60006 80000 90300=
07280,1996-07-15 06:00:00,20,1023.6,0.3,78,16,500,14.816,,,10,17,26.6,,,,,,,,,wg-a,,,,AAXX 15064 07280 12/00 10108 10200 20160 39972 40236 53003 60006 80001 90600 333 10266 20170=
07280,1996-07-15 09:00:00,25,1023,-0.2,57,16,40000,14.816,,,30,,,,,,,,,,,wg-a,,,,AAXX 15094 07280 12682 /0308 10250 20160 39970 40230 58002 60006 81101 90900=
07280,1996-07-15 12:00:00,28,1021.8,-1,48,16,40000,14.816,,,20,,,,,,,,,,,wg-a,,,,AAXX 15124 07280 12682 20208 10280 20160 39960 40218 57010 60006 82100 91200=
07280,1996-07-15 15:00:00,28,1021.1,-0.6,45,15,40000,18.52,,,50,,,,,,,,,,,wg-a,,,,AAXX 15154 07280 12782 20510 10280 20150 39954 40211 56006 60006 82100 91500=
07280,1996-07-15 18:00:00,27,1020.5,-0.7,51,16,40000,14.816,,,20,20.4,29,,,,,,,,,wg-a,,,,AAXX 15184 07280 12882 10208 10270 20160 39947 40205 56007 60006 81400 91800 333 10290 20204=
07280,1996-07-15 21:00:00,23,1022.4,1.5,69,17,25000,22.224,,,10,,,,,,,,,,,wg-a,,,,AAXX 15214 07280 12/75 00112 10230 20170 39962 40224 53015 60006 80000 92100=
07280,1996-07-16 00:00:00,20,1023.2,0.5,78,16,20000,22.224,,,10,,,,,,,,,,,wg-a,,,,AAXX 16004 07280 12770 40112 10200 20160 39967 40232 50005 60006 84500 90000=
07280,1996-07-16 03:00:00,18,1023,-0.4,77,14,15000,18.52,,,10,,,,,,,,,,,wg-a,,,,AAXX 16034 07280 12665 20110 10180 20140 39963 40230 57004 60006 82500 90300=
07280,1996-07-16 06:00:00,18,1023.1,0.1,68,12,18000,22.224,,,20,16.3,26.7,,,,,,,,,wg-a,,,,AAXX 16064 07280 12768 10212 10180 20120 39964 40231 53001 60006 81500 90600 333 10267 20163=
07280,1996-07-16 09:00:00,21,1023.2,0.4,69,15,20000,22.224,,,20,,,,,,,,,,,wg-a,,,,AAXX 16094 07280 12/70 /0212 10210 20150 39968 40232 50004 60006 80000 90900=
07280,1996-07-16 12:00:00,25,1022.8,-0.4,57,16,20000,25.928,,,40,,,,,,,,,,,wg-a,,,,AAXX 16124 07280 12670 30414 10250 20160 39968 40228 58004 60006 83500 91200=
07280,1996-07-16 15:00:00,25,1021.7,-1,54,15,20000,22.224,,,50,,,,,,,,,,,wg-a,,,,AAXX 16154 07280 12670 20512 10250 20150 39958 40217 56010 60006 82100 91500=
07280,1996-07-16 18:00:00,24,1021.4,-0.5,54,14,20000,25.928,,,30,17.6,25.8,,,,,,,,,wg-a,,,,AAXX 16184 07280 12770 20314 10240 20140 39953 40214 56005 60006 81401 91800 333 10258 20176=
07280,1996-07-16 21:00:00,18,1022.6,0.7,68,12,20000,14.816,,,10,,,,,,,,,,,wg-a,,,,AAXX 16214 07280 12770 10108 10180 20120 39960 40226 51007 60006 81500 92100=
07280,1996-07-17 00:00:00,15,1022.8,0.1,72,10,20000,18.52,,,20,,,,,,,,,,,wg-a,,,,AAXX 17004 07280 12/70 00210 10150 20100 39959 40228 50001 60006 80000 90000=
07280,1996-07-17 03:00:00,13,1022.3,-0.7,72,8,20000,22.224,,,10,,,,,,,,,,,wg-a,,,,AAXX 17034 07280 12/70 10112 10130 20080 39952 40223 56007 60006 81030 90300=
07280,1996-07-17 06:00:00,15,1022,-0.2,67,9,25000,22.224,,,20,12.7,23.9,,,,,,,,,wg-a,,,,AAXX 17064 07280 12/75 20212 10150 20090 39950 40220 55002 60006 80001 90600 333 10239 20127=
07280,1996-07-17 09:00:00,20,1021.4,-0,53,10,500,29.632,,,40,,,,,,,,,,,wg-a,,,,AAXX 17094 07280 12/00 30416 10200 20100 39949 40214 54000 60006 80001 90900=
07280,1996-07-17 10:00:00,24,1,-0.3,41,10,500,22.224,,,40,,,,,,,,,,,wg-a,,,,AAXX 17104 07280 12/00 00412 10240 20100 39932 58003 60006 80000 91000=
07280,1996-07-17 12:00:00,24,1020.4,-0.6,44,11,500,25.928,,,40,,,,,,,,,,,wg-a,,,,AAXX 17124 07280 12/00 20414 10240 20110 39943 40204 58006 60006 80001 91200=
07280,1996-07-17 15:00:00,26,1019.4,-0.8,32,8,500,25.928,,,30,,,,,,,,,,,wg-a,,,,AAXX 17154 07280 12700 20314 10260 20080 39935 40194 58008 60006 81101 91500=
07280,1996-07-17 18:00:00,24,1019.3,-0.3,41,10,500,22.224,,,40,14.8,25.9,,,,,,,,,wg-a,,,,AAXX 17184 07280 12/00 00412 10240 20100 39932 40193 58003 60006 80000 91800 333 10259 20148=
07280,1996-07-17 21:00:00,18,1020.9,1,52,8,25000,14.816,,,10,,,,,,,,,,,wg-a,,,,AAXX 17214 07280 12/75 00108 10180 20080 39942 40209 51010 60006 80000 92100=
07280,1996-07-18 00:00:00,15,1021.5,0.3,67,9,25000,14.816,,,20,,,,,,,,,,,wg-a,,,,AAXX 18004 07280 12/75 00208 10150 20090 39945 40215 52003 60006 80000 90000=
07280,1996-07-18 03:00:00,14,1021.5,-0.1,67,8,25000,18.52,,,10,,,,,,,,,,,wg-a,,,,AAXX 18034 07280 12/75 00110 10140 20080 39944 40215 56001 60006 80000 90300=
07280,1996-07-18 06:00:00,15,1021.6,0.3,63,8,35000,22.224,,,20,12.4,23.8,,,,,,,,,wg-a,,,,AAXX 18064 07280 12/81 10212 10150 20080 39947 40216 53003 60006 80001 90600 333 10238 20124=
07280,1996-07-18 09:00:00,21,1021.1,0.1,49,10,40000,22.224,,,50,,,,,,,,,,,wg-a,,,,AAXX 18094 07280 12/82 10512 10210 20100 39948 40211 51001 60006 81030 90900=
07280,1996-07-18 12:00:00,25,1020.6,-0.2,32,7,40000,22.224,,,60,,,,,,,,,,,wg-a,,,,AAXX 18124 07280 12/82 00612 10250 20070 39946 40206 58002 60006 80000 91200=
07280,1996-07-18 15:00:00,26,1019.8,-0.7,24,4,40000,18.52,,,60,,,,,,,,,,,wg-a,,,,AAXX 18154 07280 12/82 10610 10260 20040 39939 40198 57007 60006 80001 91500=
07280,1996-07-18 18:00:00,24,1020,-0,36,8,35000,22.224,,,40,15.2,31.3,,,,,,,,,wg-a,,,,AAXX 18184 07280 12/81 20412 10240 20080 39939 40200 55000 60006 80001 91800 333 10313 20152=
07280,1996-07-18 21:00:00,18,1021.9,1.3,45,6,25000,14.816,,,10,,,,,,,,,,,wg-a,,,,AAXX 18214 07280 12/75 10108 10180 20060 39952 40219 51013 60006 80001 92100=
07280,1996-07-19 00:00:00,16,1022.3,0.2,51,6,25000,14.816,,,10,,,,,,,,,,,wg-a,,,,AAXX 19004 07280 12/75 /0108 10160 20060 39954 40223 50002 60006 90000=
07280,1996-07-19 03:00:00,13,1022.4,-0.1,67,7,20000,14.816,,,20,,,,,,,,,,,wg-a,,,,AAXX 19034 07280 12/70 00208 10130 20070 39953 40224 55001 60006 80000 90300=
07280,1996-07-19 06:00:00,14,1023,0.7,67,8,500,18.52,,,30,12.7,23.2,,,,,,,,,wg-a,,,,AAXX 19064 07280 12/00 30310 10140 20080 39960 40230 53007 60006 80001 90600 333 10232 20127=
07280,1996-07-19 09:00:00,20,1022.3,-0.2,49,9,40000,18.52,,,40,,,,,,,,,,,wg-a,,,,AAXX 19094 07280 12/82 70410 10200 20090 39958 40223 58002 60006 80001 90900=
07280,1996-07-19 11:00:00,24,1021.2,-0.7,34,7,40000,18.52,,,60,,,,,,,,,,,wg-a,,,,AAXX 19114 07280 12/82 70610 10240 20070 39951 40212 58007 60006 80001 91100=
07280,1996-07-19 12:00:00,24,1021.2,-0.7,34,7,40000,18.52,,,60,,,,,,,,,,,wg-a,,,,AAXX 19124 07280 12/82 70610 10240 20070 39951 40212 58007 60006 80001 91200=
07280,1996-07-19 15:00:00,25,1020.7,-0.4,30,6,50000,22.224,,,20,,,,,,,,,,,wg-a,,,,AAXX 19154 07280 12/84 70212 10250 20060 39947 40207 56004 60006 80001 91500=
07280,1996-07-19 18:00:00,23,1021.1,0.2,36,7,50000,22.224,,,30,14.4,25.4,,,,,,,,,wg-a,,,,AAXX 19184 07280 12/84 50312 10230 20070 39949 40211 53002 60006 80001 91800 333 10254 20144=
07280,1996-07-19 21:00:00,17,1022.3,0.6,52,7,20000,14.816,,,20,,,,,,,,,,,wg-a,,,,AAXX 19214 07280 12/70 40208 10170 20070 39955 40223 52006 60006 80001 92100=
07280,1996-07-20 00:00:00,15,1022.2,-0.3,59,7,20000,14.816,,,10,,,,,,,,,,,wg-a,,,,AAXX 20004 07280 12/70 00108 10150 20070 39952 40222 58003 60006 80000 90000=
07280,1996-07-20 03:00:00,14,1021.8,-0.4,67,8,20000,18.52,,,10,,,,,,,,,,,wg-a,,,,AAXX 20034 07280 12/70 20110 10140 20080 39948 40218 56004 60006 80001 90300=
07280,1996-07-20 06:00:00,15,1022.1,0.4,67,9,500,18.52,,,20,13.2,22.9,,,,,,,,,wg-a,,,,AAXX 20064 07280 12/00 50210 10150 20090 39952 40221 53004 60006 80001 90600 333 10229 20132=
07280,1996-07-20 12:00:00,24,1021.7,-0.3,34,7,500,22.224,,,60,,,,,,,,,,,wg-a,,,,AAXX 20124 07280 12/00 20612 10240 20070 39955 40217 58003 60006 80001 91200=
07280,1996-07-20 15:00:00,25,1021.1,-0.5,28,5,500,22.224,,,40,,,,,,,,,,,wg-a,,,,AAXX 20154 07280 12/00 10412 10250 20050 39950 40211 57005 60006 80001 91500=
07280,1996-07-20 18:00:00,24,1021.3,0.1,27,4,500,18.52,,,40,15.3,25.3,,,,,,,,,wg-a,,,,AAXX 20184 07280 12/00 00410 10240 20040 39951 40213 53001 60006 80000 91800 333 10253 20153=
07280,1996-07-20 21:00:00,17,1022.7,0.8,45,5,500,14.816,,,10,,,,,,,,,,,wg-a,,,,AAXX 20214 07280 12/00 00108 10170 20050 39959 40227 50008 60006 80000 92100=
07280,1996-07-21 00:00:00,14,1023.5,0.5,55,5,20000,14.816,,,10,,,,,,,,,,,wg-a,,,,AAXX 21004 07280 12/70 00108 10140 20050 39964 40235 50005 60006 80000 90000=
07280,1996-07-21 03:00:00,13,1023.2,-0.4,62,6,20000,11.112,,,350,,,,,,,,,,,wg-a,,,,AAXX 21034 07280 12/70 03506 10130 20060 39960 40232 56004 60006 80000 90300=
07280,1996-07-21 06:00:00,16,1023.2,0.3,55,7,500,11.112,,,10,11.7,23.7,,,,,,,,,wg-a,,,,AAXX 21064 07280 12/00 00106 10160 20070 39963 40232 53003 60006 80000 90600 333 10237 20117=
07280,1996-07-21 09:00:00,21,1022.8,0.1,49,10,500,11.112,,,40,,,,,,,,,,,wg-a,,,,AAXX 21094 07280 12/00 00406 10210 20100 39964 40228 50001 60006 80000 90900=
07280,1996-07-21 12:00:00,24,1022.1,-0.5,29,5,500,14.816,,,60,,,,,,,,,,,wg-a,,,,AAXX 21124 07280 12/00 00608 10240 20050 39959 40221 58005 60006 80000 91200=
07280,1996-07-21 15:00:00,25,1021,-0.9,34,8,40000,14.816,,,80,,,,,,,,,,,wg-a,,,,AAXX 21154 07280 12/82 10808 10250 20080 39950 40210 56009 60006 80001 91500=
07280,1996-07-21 18:00:00,23,1020.4,-0.8,41,9,40000,14.816,,,90,15.6,25.7,,,,,,,,,wg-a,,,,AAXX 21184 07280 12/82 60908 10230 20090 39942 40204 56008 60006 80001 91800 333 10257 20156=
07280,1996-07-21 21:00:00,18,1021.5,0.6,59,10,40000,7.408,,,20,,,,,,,,,,,wg-a,,,,AAXX 21214 07280 12/82 50204 10180 20100 39948 40215 51006 60006 80001 92100=
07280,1996-07-22 00:00:00,14,1021.6,-0.2,67,8,500,14.816,,,10,,,,,,,,,,,wg-a,,,,AAXX 22004 07280 12/00 20108 10140 20080 39946 40216 58002 60006 80001 90000=
07280,1996-07-22 03:00:00,14,1021.3,-0.3,67,8,25000,11.112,,,350,,,,,,,,,,,wg-a,,,,AAXX 22034 07280 12/75 23506 10140 20080 39943 40213 55003 60006 80001 90300=
07280,1996-07-22 06:00:00,16,1021.5,0.3,63,9,25000,11.112,,,20,12.9,23.1,,,,,,,,,wg-a,,,,AAXX 22064 07280 12/75 10206 10160 20090 39946 40215 53003 60006 80001 90600 333 10231 20129=
07280,1996-07-22 09:00:00,21,1020.3,-0.6,53,11,500,7.408,,,140,,,,,,,,,,,wg-a,,,,AAXX 22094 07280 12/00 11404 10210 20110 39940 40203 58006 60006 80001 90900=
07280,1996-07-22 12:00:00,26,1018.4,-1.4,42,12,500,18.52,,,180,,,,,,,,,,,wg-a,,,,AAXX 22124 07280 12/00 01810 10260 20120 39926 40184 58014 60006 80000 91200=
07280,1996-07-22 15:00:00,29,1016.2,-2,33,11,40000,14.816,,,180,,,,,,,,,,,wg-a,,,,AAXX 22154 07280 12/82 01808 10290 20110 39906 40162 58020 60006 80000 91500=
07280,1996-07-22 18:00:00,28,1015.5,-0.7,40,13,500,11.112,,,170,15.5,28.9,,,,,,,,,wg-a,,,,AAXX 22184 07280 12/00 01706 10280 20130 39899 40155 58007 60006 80000 91800 333 10289 20155=
07280,1996-07-22 21:00:00,21,1016.9,0.7,60,13,25000,3.704,,,160,,,,,,,,,,,wg-a,,,,AAXX 22214 07280 12/75 01602 10210 20130 39906 40169 53007 60006 80000 92100=
07280,1996-07-23 00:00:00,17,1017.4,0.2,77,13,20000,7.408,,,160,,,,,,,,,,,wg-a,,,,AAXX 23004 07280 12/70 01604 10170 20130 39908 40174 53002 60006 80000 90000=
07280,1996-07-23 03:00:00,18,1017,-0.3,68,12,20000,14.816,,,190,,,,,,,,,,,wg-a,,,,AAXX 23034 07280 12/70 11908 10180 20120 39905 40170 58003 60006 80001 90300=
07280,1996-07-23 06:00:00,19,1016.7,-0.2,64,12,20000,18.52,,,190,16.2,27.5,,,,,,,,,wg-a,,,,AAXX 23064 07280 12/70 01910 10190 20120 39903 40167 58002 60006 80000 90600 333 10275 20162=
07280,1996-07-23 12:00:00,27,1013.8,-0.9,48,15,25000,22.224,,,220,,,,,,,,,,3,wg-a,,,,AAXX 23124 07280 12775 52212 10270 20150 39882 40138 58009 60006 70392 82232 91200=
07280,1996-07-23 15:00:00,28,1012.9,-0.8,48,16,20000,29.632,,,200,,,,,,,,,,,wg-a,,,,AAXX 23154 07280 12770 72016 10280 20160 39874 40129 58008 60006 81333 91500=
07280,1996-07-23 18:00:00,23,1013.4,0.1,83,20,12000,11.112,,,290,18.9,28.8,,0,,,,,,17,wg-a,,,,AAXX 23184 07280 12762 82906 10230 20200 39875 40134 50001 60007 71798 82933 91800 333 10288 20189=
07280,1996-07-23 21:00:00,20,1014.4,0.7,94,19,12000,7.408,,,160,,,,1,,,,,,1,wg-a,,,,AAXX 23214 07280 12/62 41604 10200 20190 39882 40144 53007 60017 70198 80001 92100=
07280,1996-07-24 00:00:00,18,1014.7,0.2,100,18,500,7.408,,,170,,,,,,,,,,2,wg-a,,,,AAXX 24004 07280 12/00 21704 10180 20180 39884 40147 51002 60016 70298 80001 90000=
07280,1996-07-24 03:00:00,18,1014.4,-0.4,100,18,500,11.112,,,210,,,,0,,,,,,25,wg-a,,,,AAXX 24034 07280 12/00 72106 10180 20180 39880 40144 58004 60007 72586 82071 90300=
07280,1996-07-24 06:00:00,18,1015.5,1.1,88,16,10000,7.408,,,240,16.8,23.1,,,,,2,,,,wg-a,,,,AAXX 24064 07280 12/60 12404 10180 20160 39891 40155 51011 60024 81080 90600 333 10231 20168=
07280,1996-07-24 09:00:00,22,1015.6,0.4,60,14,20000,18.52,,,270,,,,,,,,,,,wg-a,,,,AAXX 24094 07280 12670 52710 10220 20140 39895 40156 53004 60006 85280 90900=
07280,1996-07-24 12:00:00,25,1015.2,-0.2,41,11,500,25.928,,,250,,,,,,,,,,,wg-a,,,,AAXX 24124 07280 12700 32514 10250 20110 39893 40152 58002 60006 83280 91200=
07280,1996-07-24 15:00:00,25,1015.4,0.2,36,9,40000,22.224,,,280,,,,,,,,,,,wg-a,,,,AAXX 24154 07280 12782 62812 10250 20090 39895 40154 53002 60006 83201 91500=
07280,1996-07-24 18:00:00,23,1016.1,0.5,44,10,40000,18.52,,,290,18.2,25.8,,,,,,,,,wg-a,,,,AAXX 24184 07280 12782 62910 10230 20100 39900 40161 53005 60006 84101 91800 333 10258 20182=
07280,1996-07-24 21:00:00,17,1017.6,1,68,11,500,11.112,,,280,,,,,,,,,,,wg-a,,,,AAXX 24214 07280 12800 52806 10170 20110 39910 40176 51010 60006 84501 92100=
07280,1996-07-25 00:00:00,17,1019.2,1.5,63,10,10000,7.408,,,10,,,,,,,,,,,wg-a,,,,AAXX 25004 07280 12/60 /0104 10170 20100 39925 40192 51015 60006 90000=
07280,1996-07-25 03:00:00,14,1020.7,1.2,82,11,20000,0,,,0,,,,,,,,,,,wg-a,,,,AAXX 25034 07280 12770 20000 10140 20110 39937 40207 51012 60006 82501 90300=
07280,1996-07-25 06:00:00,15,1021.2,0.6,77,11,20000,11.112,,,10,12.7,23,,,,,,,,,wg-a,,,,AAXX 25064 07280 12470 /0106 10150 20110 39943 40212 51006 60006 81130 90600 333 10230 20127=
07280,1996-07-25 09:00:00,20,1021.5,0.7,53,10,20000,11.112,,,30,,,,,,,,,,,wg-a,,,,AAXX 25094 07280 12670 /0306 10200 20100 39950 40215 51007 60006 81200 90900=
07280,1996-07-25 12:00:00,23,1020.2,-0.9,44,10,25000,14.816,,,40,,,,,,,,,,,wg-a,,,,AAXX 25124 07280 12775 30408 10230 20100 39941 40202 56009 60006 81101 91200=
07280,1996-07-25 15:00:00,25,1019.5,-0.6,36,9,25000,11.112,,,40,,,,,,,,,,,wg-a,,,,AAXX 25154 07280 12775 30406 10250 20090 39935 40195 56006 60006 81101 91500=
07280,1996-07-25 18:00:00,23,1018.1,-1.5,44,10,25000,22.224,,,40,15.5,25.5,,,,,,,,,wg-a,,,,AAXX 25184 07280 12/75 60412 10230 20100 39920 40181 58015 60006 80001 91800 333 10255 20155=
07280,1996-07-25 21:00:00,19,1020.5,2,64,12,25000,11.112,,,30,,,,,,,,,,,wg-a,,,,AAXX 25214 07280 12/75 60306 10190 20120 39940 40205 53020 60006 80002 92100=
07280,1996-07-26 00:00:00,15,1021.2,0.3,82,12,20000,14.816,,,10,,,,,,,,,,,wg-a,,,,AAXX 26004 07280 12/70 00108 10150 20120 39943 40212 52003 60006 80000 90000=
07280,1996-07-26 03:00:00,14,1020.3,-1,82,11,15000,18.52,,,20,,,,,,,,,,,wg-a,,,,AAXX 26034 07280 12/65 20210 10140 20110 39933 40203 58010 60006 80001 90300=
07280,1996-07-26 06:00:00,15,1019.9,-0.3,82,12,12000,22.224,,,20,12.9,23,,,,,,,,,wg-a,,,,AAXX 26064 07280 12/62 60212 10150 20120 39930 40199 57003 60006 80001 90600 333 10230 20129=
07280,1996-07-26 09:00:00,21,1019,-0.3,60,13,15000,22.224,,,40,,,,,,,,,,,wg-a,,,,AAXX 26094 07280 12/65 70412 10210 20130 39927 40190 56003 60006 80001 90900=
07280,1996-07-26 12:00:00,25,1017.5,-1.1,44,12,20000,22.224,,,40,,,,,,,,,,,wg-a,,,,AAXX 26124 07280 12/70 60412 10250 20120 39916 40175 58011 60006 80001 91200=
07280,1996-07-26 15:00:00,27,1016.5,-0.8,39,12,25000,22.224,,,50,,,,,,,,,,,wg-a,,,,AAXX 26154 07280 12/75 70512 10270 20120 39908 40165 58008 60006 80002 91500=
07280,1996-07-26 21:00:00,20,1017.2,0.9,64,13,20000,14.816,,,10,,,,,,,,,,,wg-a,,,,AAXX 26214 07280 12770 40108 10200 20130 39909 40172 52009 60006 825/1 92100=
07280,1996-07-27 00:00:00,19,1016.9,-0.4,73,14,10000,18.52,,,10,,,,,,,,,,,wg-a,,,,AAXX 27004 07280 12/60 /0110 10190 20140 39905 40169 55004 60006 90000=
07280,1996-07-27 03:00:00,17,1016.3,-0.7,82,14,15000,14.816,,,10,,,,,,,,,,,wg-a,,,,AAXX 27034 07280 12765 40108 10170 20140 39898 40163 57007 60006 81531 90300=
07280,1996-07-27 06:00:00,19,1016.6,0.4,73,14,12000,14.816,,,20,17.1,25.4,,,,,,,,,wg-a,,,,AAXX 27064 07280 12/62 40208 10190 20140 39902 40166 51004 60006 84080 90600 333 10254 20171=
07280,1996-07-27 09:00:00,23,1016.9,0.6,57,14,15000,7.408,,,10,,,,,,,,,,,wg-a,,,,AAXX 27094 07280 12/65 20104 10230 20140 39908 40169 50006 60006 82080 90900=
07280,1996-07-27 12:00:00,28,1015.7,-0.7,42,14,20000,14.816,,,80,,,,,,,,,,,wg-a,,,,AAXX 27124 07280 12/70 30808 10280 20140 39901 40157 58007 60006 82081 91200=
07280,1996-07-27 15:00:00,30,1014.3,-1.2,33,12,25000,7.408,,,110,,,,,,,,,,,wg-a,,,,AAXX 27154 07280 12/75 51104 10300 20120 39889 40143 58012 60006 80001 91500=
07280,1996-07-27 18:00:00,25,1015.8,1.1,65,18,7000,11.112,,,170,18.4,30.1,,,,,,,,80,wg-a,,,,AAXX 27184 07280 02557 81706 10250 20180 39900 40158 53011 61000 78011 879// 91800 333 10301 20184 ////=
07280,1996-07-27 21:00:00,21,1017,0.8,83,18,15000,3.704,,,360,,,,4,,,,,,1,wg-a,,,,AAXX 27214 07280 12/65 73602 10210 20180 39908 40170 53008 60047 70198 85071 92100=
07280,1996-07-28 00:00:00,19,1016.5,-0.7,94,18,12000,7.408,,,210,,,,,,,,,,3,wg-a,,,,AAXX 28004 07280 12/62 72104 10190 20180 39901 40165 56007 60046 70398 8707/ 90000=
07280,1996-07-28 03:00:00,17,1016.2,-0.4,94,16,12000,3.704,,,190,,,,,,,,,,,wg-a,,,,AAXX 28034 07280 12/62 51902 10170 20160 39897 40162 57004 60006 83071 90300=
07280,1996-07-28 06:00:00,18,1016.9,0.8,100,18,10000,7.408,,,360,16.2,24.3,,3,,,7,,,10,wg-a,,,,AAXX 28064 07280 02560 83604 10180 20180 39905 40169 53008 60074 71082 879// 90600 333 10243 20162 60037=
07280,1996-07-28 09:00:00,23,1017.5,0.9,69,17,15000,0,,,0,,,,,,,,,,1,wg-a,,,,AAXX 28094 07280 12565 /0000 10230 20170 39914 40175 51009 60006 70192 81170 90900=
07280,1996-07-28 12:00:00,26,1016.9,-0.3,54,16,20000,7.408,,,160,,,,,,,,,,1,wg-a,,,,AAXX 28124 07280 12670 21604 10260 20160 39911 40169 58003 60006 70191 81230 91200=
07280,1996-07-28 15:00:00,27,1016.1,-0.7,45,14,20000,3.704,,,150,,,,,,,,,,,wg-a,,,,AAXX 28154 07280 12770 41502 10270 20140 39904 40161 56007 60006 84300 91500=
07280,1996-07-28 18:00:00,26,1015.9,-0.3,51,15,20000,7.408,,,180,18.1,28,,,,,,,,,wg-a,,,,AAXX 28184 07280 12770 41804 10260 20150 39901 40159 55003 60006 83830 91800 333 10280 20181=
07280,1996-07-28 21:00:00,22,1017.3,1.1,73,17,20000,7.408,,,180,,,,,,,,,,,wg-a,,,,AAXX 28214 07280 12870 41804 10220 20170 39912 40173 53011 60006 83530 92100=
07280,1996-07-29 00:00:00,19,1017.4,-0.2,78,15,0,7.408,,,310,,,,,,,,,,,wg-a,,,,AAXX 29004 07280 12/// /3104 10190 20150 39909 40174 58002 60006 90000=
07280,1996-07-29 03:00:00,15,1017.2,-0.6,94,14,10000,3.704,,,150,,,,,,,,,,,wg-a,,,,AAXX 29034 07280 12/60 /1502 10150 20140 39904 40172 58006 60006 90300=
07280,1996-07-29 06:00:00,17,1017.4,0.5,88,15,6000,3.704,,,40,14.3,25.7,,,,,,,,,wg-a,,,,AAXX 29064 07280 12/56 40402 10170 20150 39909 40174 52005 60006 80001 90600 333 10257 20143=
07280,1996-07-29 09:00:00,25,1016.7,0,50,14,20000,3.704,,,170,,,,,,,,,,,wg-a,,,,AAXX 29094 07280 12670 /1702 10250 20140 39909 40167 50000 60006 81101 90900=
07280,1996-07-29 12:00:00,28,1015.2,-1.3,40,13,500,11.112,,,310,,,,,,,,,,,wg-a,,,,AAXX 29124 07280 12700 73106 10280 20130 39896 40152 58013 60006 83201 91200=
07280,1996-07-29 15:00:00,30,1013.1,-1.9,31,11,35000,14.816,,,240,,,,,,,,,,,wg-a,,,,AAXX 29154 07280 12781 72408 10300 20110 39877 40131 57019 60006 82202 91500=
07280,1996-07-29 18:00:00,28,1012.4,-0.8,42,14,35000,18.52,,,270,17.3,29.8,,,,,,,,,wg-a,,,,AAXX 29184 07280 12781 72710 10280 20140 39869 40124 56008 60006 81202 91800 333 10298 20173=
07280,1996-07-29 21:00:00,24,1013.7,0.9,44,11,25000,18.52,,,310,,,,,,,,,,29,wg-a,,,,AAXX 29214 07280 12775 73110 10240 20110 39878 40137 51009 60006 72992 81232 92100=
07280,1996-07-30 00:00:00,21,1014.8,0.8,56,12,25000,14.816,,,340,,,,,,,,,,13,wg-a,,,,AAXX 30004 07280 12775 23408 10210 20120 39886 40148 52008 60006 71391 81280 90000=
07280,1996-07-30 03:00:00,17,1016,0.8,72,12,25000,7.408,,,320,,,,,,,,,,,wg-a,,,,AAXX 30034 07280 12/75 13204 10170 20120 39894 40160 52008 60006 81080 90300=
07280,1996-07-30 06:00:00,18,1016.8,0.9,73,13,25000,3.704,,,330,13.8,27.6,,,,,,,,,wg-a,,,,AAXX 30064 07280 12675 63302 10180 20130 39903 40168 53009 60006 85801 90600 333 10276 20138=
07280,1996-07-30 09:00:00,23,1016.8,0.4,53,13,25000,7.408,,,300,,,,,,,,,,,wg-a,,,,AAXX 30094 07280 12675 /3004 10230 20130 39907 40168 52004 60006 83830 90900=
07280,1996-07-30 12:00:00,25,1016,-0.5,44,12,25000,14.816,,,280,,,,,,,,,,,wg-a,,,,AAXX 30124 07280 12775 /2808 10250 20120 39902 40160 58005 60006 85200 91200=
07280,1996-07-30 15:00:00,25,1016.7,0.6,47,13,500,22.224,,,310,,,,,,,,,,,wg-a,,,,AAXX 30154 07280 12700 63112 10250 20130 39908 40167 53006 60006 83830 91500=
07280,1996-07-30 18:00:00,25,1017.1,0.4,47,13,25000,14.816,,,310,17.5,27.1,,,,,,,,,wg-a,,,,AAXX 30184 07280 12775 33108 10250 20130 39912 40171 53004 60006 81131 91800 333 10271 20175=
07280,1996-07-30 21:00:00,19,1018.6,0.9,68,13,25000,11.112,,,250,,,,,,,,,,,wg-a,,,,AAXX 30214 07280 12/75 22506 10190 20130 39921 40186 52009 60006 80001 92100=
07280,1996-07-31 00:00:00,18,1018.6,-0.1,73,13,25000,11.112,,,330,,,,,,,,,,,wg-a,,,,AAXX 31004 07280 12/75 03306 10180 20130 39920 40186 58001 60006 80000 90000=
07280,1996-07-31 03:00:00,14,1018.7,-0.2,88,12,25000,0,,,0,,,,,,,,,,,wg-a,,,,AAXX 31034 07280 12/75 00000 10140 20120 39918 40187 56002 60006 80000 90300=
07280,1996-07-31 06:00:00,16,1019,0.4,88,14,20000,0,,,0,12.3,24.5,,,,,,,,,wg-a,,,,AAXX 31064 07280 12770 10000 10160 20140 39922 40190 53004 60006 81500 90600 333 10245 20123=
07280,1996-07-31 09:00:00,24,1018.1,-0.1,47,12,25000,3.704,,,200,,,,,,,,,,,wg-a,,,,AAXX 31094 07280 12675 22002 10240 20120 39921 40181 58001 60006 82100 90900=
07280,1996-07-31 12:00:00,27,1016.9,-0.9,42,13,25000,7.408,,,240,,,,,,,,,,,wg-a,,,,AAXX 31124 07280 12775 42404 10270 20130 39912 40169 58009 60006 84100 91200=
07280,1996-07-31 15:00:00,29,1015.6,-1.2,35,12,25000,11.112,,29.632,250,,,,,,,,,,,wg-a,,,,AAXX 31154 07280 12775 22506 10290 20120 39900 40156 57012 60006 82100 91500 333 91016=
07280,1996-07-31 18:00:00,27,1015.4,-0.3,42,13,25000,18.52,,,190,15.6,28.9,,,,,,,,,wg-a,,,,AAXX 31184 07280 12775 11910 10270 20130 39897 40154 55003 60006 81400 91800 333 10289 20156=
07280,1996-07-31 21:00:00,21,1016.6,0.7,60,13,25000,3.704,,,330,,,,,,,,,,,wg-a,,,,AAXX 31214 07280 12/75 03302 10210 20130 39904 40166 53007 60006 80000 92100=
07280,1996-08-01 00:00:00,17,1016.9,-0.1,72,12,20000,3.704,,,80,,,,,,,,,,,wg-a,,,,AAXX 01004 07280 12/70 00802 10170 20120 39903 40169 58001 60006 80000 90000=
07280,1996-08-01 03:00:00,16,1016.9,-0.1,77,12,20000,7.408,,,310,,,,,,,,,,,wg-a,,,,AAXX 01034 07280 12/70 03104 10160 20120 39902 40169 57001 60006 80000 90300=
07280,1996-08-01 04:00:00,16,1017.5,0.6,82,13,20000,0,,,0,13.6,27,,,,,,,,,wg-a,,,,AAXX 01044 07280 12/70 00000 10160 20130 39908 40175 53006 60006 80000 90400 333 10270 20136=
07280,1996-08-01 06:00:00,16,1017.5,0.6,82,13,20000,0,,,0,13.6,27,,,,,,,,,wg-a,,,,AAXX 01064 07280 12/70 00000 10160 20130 39908 40175 53006 60006 80000 90600 333 10270 20136=
07280,1996-08-01 09:00:00,25,1016.7,0,50,14,20000,7.408,,,180,,,,,,,,,,,wg-a,,,,AAXX 01094 07280 12/70 21804 10250 20140 39908 40167 50000 60006 81031 90900=
07280,1996-08-01 12:00:00,29,1015.2,-1.1,37,13,20000,18.52,,,200,,,,,,,,,,,wg-a,,,,AAXX 01124 07280 12770 22010 10290 20130 39897 40152 58011 60006 8/100 91200=
07280,1996-08-01 15:00:00,31,1014,-1,31,12,25000,14.816,,,210,,,,,,,,,,,wg-a,,,,AAXX 01154 07280 12875 22108 10310 20120 39887 40140 57010 60006 82200 91500=
07280,1996-08-01 18:00:00,30,1014,-0.1,29,10,25000,14.816,,,260,16,31.2,,,,,,,,,wg-a,,,,AAXX 01184 07280 12775 32608 10300 20100 39886 40140 56001 60006 83800 91800 333 10312 20160=
07280,1996-08-01 21:00:00,25,1016.8,2.3,44,12,25000,18.52,,,330,,,,,,,,,,,wg-a,,,,AAXX 01214 07280 12875 43310 10250 20120 39909 40168 53023 60006 83530 92100=
07280,1996-08-02 00:00:00,20,1018.4,1.2,64,13,20000,14.816,,,350,,,,,,,,,,,wg-a,,,,AAXX 02004 07280 12870 73508 10200 20130 39921 40184 53012 60006 875// 90000=
07280,1996-08-02 03:00:00,18,1019.3,0.6,73,13,20000,14.816,,,340,,,,,,,,,,,wg-a,,,,AAXX 02034 07280 12770 63408 10180 20130 39927 40193 51006 60006 85530 90300=
07280,1996-08-02 06:00:00,19,1020.5,1.3,73,14,25000,7.408,,,330,17.4,29.6,,,,,,,,,wg-a,,,,AAXX 02064 07280 12775 53304 10190 20140 39940 40205 53013 60006 81581 90600 333 10296 20174=
07280,1996-08-02 09:00:00,25,1020.1,0.1,50,14,25000,7.408,,,50,,,,,,,,,,,wg-a,,,,AAXX 02094 07280 12675 50504 10250 20140 39941 40201 50001 60006 81181 90900=
07280,1996-08-02 12:00:00,26,1019.9,-0.1,45,13,25000,18.52,,,300,,,,,,,,,,,wg-a,,,,AAXX 02124 07280 12775 83010 10260 20130 39940 40199 57001 60006 85102 91200=
07280,1996-08-02 15:00:00,24,1020.5,0.4,47,12,25000,18.52,,,320,,,,,,,,,,,wg-a,,,,AAXX 02154 07280 12775 83210 10240 20120 39944 40205 53004 60006 8257/ 91500=
07280,1996-08-02 18:00:00,23,1021,0.4,57,14,20000,7.408,,,170,19.2,26.5,,,,,,,,,wg-a,,,,AAXX 02184 07280 12770 81704 10230 20140 39948 40210 53004 60006 878// 91800 333 10265 20192=
07280,1996-08-02 21:00:00,19,1022.4,1.1,83,16,20000,3.704,,,220,,,,,,,,,,,wg-a,,,,AAXX 02214 07280 12770 42202 10190 20160 39959 40224 51011 60006 84500 92100=
07280,1996-08-03 00:00:00,16,1023,0.3,94,15,20000,3.704,,,10,,,,,,,,,,,wg-a,,,,AAXX 03004 07280 12/70 00102 10160 20150 39962 40230 53003 60006 80000 90000=
07280,1996-08-03 03:00:00,15,1022.7,-0.4,88,13,20000,11.112,,,350,,,,,,,,,,,wg-a,,,,AAXX 03034 07280 12770 73506 10150 20130 39958 40227 57004 60006 875// 90300=
07280,1996-08-03 06:00:00,17,1023.5,0.9,68,11,20000,14.816,,,10,14.7,22.5,,,,,,,,,wg-a,,,,AAXX 03064 07280 12770 50108 10170 20110 39967 40235 53009 60006 85500 90600 333 10225 20147=
07280,1996-08-03 09:00:00,22,1023.3,0.3,50,11,20000,14.816,,,30,,,,,,,,,,,wg-a,,,,AAXX 03094 07280 12670 /0308 10220 20110 39970 40233 51003 60006 81100 90900=
07280,1996-08-03 12:00:00,25,1022.7,-0.4,32,7,25000,14.816,,,360,,,,,,,,,,,wg-a,,,,AAXX 03124 07280 12775 53608 10250 20070 39966 40227 55004 60006 85200 91200=
07280,1996-08-03 15:00:00,25,1021.7,-0.9,34,8,500,18.52,,,20,,,,,,,,,,,wg-a,,,,AAXX 03154 07280 12800 40210 10250 20080 39957 40217 56009 60006 84200 91500=
07280,1996-08-03 18:00:00,23,1022,0.1,44,10,500,22.224,,,30,16.8,26.7,,,,,,,,,wg-a,,,,AAXX 03184 07280 12800 10312 10230 20100 39958 40220 53001 60006 81200 91800 333 10267 20168=
07280,1996-08-03 21:00:00,18,1022.9,0.4,56,9,25000,14.816,,,20,,,,,,,,,,,wg-a,,,,AAXX 03214 07280 12/75 00208 10180 20090 39962 40229 51004 60006 80000 92100=
07280,1996-08-04 00:00:00,16,1022.8,-0.3,72,11,20000,18.52,,,10,,,,,,,,,,,wg-a,,,,AAXX 04004 07280 12/70 00110 10160 20110 39959 40228 58003 60006 80000 90000=
07280,1996-08-04 03:00:00,14,1021.9,-1,82,11,20000,18.52,,,10,,,,,,,,,,,wg-a,,,,AAXX 04034 07280 12/70 00110 10140 20110 39949 40219 58010 60006 80000 90300=
07280,1996-08-04 06:00:00,15,1021.8,-0,82,12,20000,18.52,,,10,13.4,23.1,,,,,,,,,wg-a,,,,AAXX 04064 07280 12/70 00110 10150 20120 39949 40218 55000 60006 80000 90600 333 10231 20134=
07280,1996-08-04 09:00:00,20,1020.1,-1.2,56,11,25000,22.224,,,50,,,,,,,,,,,wg-a,,,,AAXX 04094 07280 12/75 00512 10200 20110 39937 40201 58012 60006 80000 90900=
07280,1996-08-04 12:00:00,24,1017.9,-1.8,47,12,25000,29.632,,,60,,,,,,,,,,,wg-a,,,,AAXX 04124 07280 12675 /0616 10240 20120 39919 40179 58018 60006 81200 91200=
07280,1996-08-04 15:00:00,25,1016,-1.8,34,8,500,29.632,,,70,,,,,,,,,,,wg-a,,,,AAXX 04154 07280 12800 10716 10250 20080 39901 40160 56018 60006 81200 91500=
07280,1996-08-04 18:00:00,23,1015.3,-0.8,47,11,500,25.928,,,60,14.8,25.9,,,,,,,,,wg-a,,,,AAXX 04184 07280 12800 10614 10230 20110 39893 40153 56008 60006 81400 91800 333 10259 20148=
07280,1996-08-04 21:00:00,19,1015.5,-0.2,60,11,20000,14.816,,,20,,,,,,,,,,,wg-a,,,,AAXX 04214 07280 12/70 00208 10190 20110 39891 40155 58002 60006 80000 92100=
07280,1996-08-05 00:00:00,16,1015.1,-0.7,72,11,20000,14.816,,,20,,,,,,,,,,,wg-a,,,,AAXX 05004 07280 12/70 00208 10160 20110 39884 40151 58007 60006 80000 90000=
07280,1996-08-05 03:00:00,14,1014.5,-0.7,82,11,20000,11.112,,,360,,,,,,,,,,,wg-a,,,,AAXX 05034 07280 12/70 03606 10140 20110 39877 40145 58007 60006 80000 90300=
07280,1996-08-05 06:00:00,15,1014.3,-0.2,77,11,20000,11.112,,,10,12.8,23.1,,,,,,,,,wg-a,,,,AAXX 05064 07280 12/70 50106 10150 20110 39875 40143 58002 60006 80001 90600 333 10231 20128=
07280,1996-08-05 09:00:00,20,1012.8,-0.9,64,13,20000,3.704,,,110,,,,,,,,,,,wg-a,,,,AAXX 05094 07280 12/70 61102 10200 20130 39866 40128 58009 60006 80001 90900=
07280,1996-08-05 12:00:00,26,1010.8,-1.4,48,14,25000,14.816,,,170,,,,,,,,,,,wg-a,,,,AAXX 05124 07280 12775 31708 10260 20140 39852 40108 58014 60006 81131 91200=
07280,1996-08-05 15:00:00,27,1009.8,-0.9,45,14,25000,22.224,,,190,,,,,,,,,,,wg-a,,,,AAXX 05154 07280 12775 21912 10270 20140 39843 40098 57009 60006 81130 91500=
07280,1996-08-05 18:00:00,23,1010.5,0.3,61,15,20000,25.928,,,180,14.5,27.6,,,,,,,,,wg-a,,,,AAXX 05184 07280 12770 71814 10230 20150 39846 40105 53003 60006 868/1 91800 333 10276 20145=
07280,1996-08-05 21:00:00,19,1012.3,1.5,83,16,15000,11.112,,,230,,,,0,,,,,,1,wg-a,,,,AAXX 05214 07280 12765 72306 10190 20160 39861 40123 51015 60007 70182 81271 92100=
07280,1996-08-06 00:00:00,17,1013.3,0.8,100,17,15000,11.112,,,170,,,,0,,,,,,3,wg-a,,,,AAXX 06004 07280 02765 61706 10170 20170 39869 40133 51008 60016 70382 85531 90000 333 60007=
07280,1996-08-06 03:00:00,16,1013.4,-0.1,94,15,15000,7.408,,,190,,,,,,,,,,,wg-a,,,,AAXX 06034 07280 12765 31904 10160 20150 39868 40134 58001 60006 825/1 90300=
07280,1996-08-06 06:00:00,16,1014.1,0.7,100,16,3000,7.408,,,190,14.7,22.9,,0,,,1,,,28,wg-a,,,,AAXX 06064 07280 02130 91904 10160 20160 39875 40141 53007 60014 72842 896// 90600 333 10229 20147 60007=
07280,1996-08-06 09:00:00,20,1013.9,0.2,83,17,15000,11.112,,,180,,,,,,,,,,,wg-a,,,,AAXX 06094 07280 12465 /1806 10200 20170 39877 40139 50002 60006 85801 90900=
07280,1996-08-06 12:00:00,26,1012.8,-0.6,54,16,18000,18.52,,,180,,,,,,,,,,,wg-a,,,,AAXX 06124 07280 12668 71810 10260 20160 39871 40128 58006 60006 84201 91200=
07280,1996-08-06 15:00:00,25,1012.9,-0,54,15,18000,14.816,,,190,,,,,,,,,,,wg-a,,,,AAXX 06154 07280 12668 81908 10250 20150 39871 40129 55000 60006 82227 91500=
07280,1996-08-06 18:00:00,20,1014.6,1.3,83,17,6000,11.112,,,320,15.8,26.2,,1,,,,,,61,wg-a,,,,AAXX 06184 07280 12556 83206 10200 20170 39884 40146 50013 60017 76162 8682/ 91800 333 10262 20158=
07280,1996-08-06 21:00:00,18,1016.6,1.8,94,17,8000,3.704,,,180,,,,4,,,,,,21,wg-a,,,,AAXX 06214 07280 12658 81802 10180 20170 39902 40166 51018 60047 72162 888// 92100=
07280,1996-08-07 00:00:00,18,1016.7,0.1,94,17,8000,7.408,,,200,,,,,,,,,,1,wg-a,,,,AAXX 07004 07280 12358 82004 10180 20170 39903 40167 50001 60046 70162 885// 90000=
07280,1996-08-07 03:00:00,18,1017,0.2,88,16,12000,3.704,,,240,,,,,,,,,,,wg-a,,,,AAXX 07034 07280 12562 72402 10180 20160 39905 40170 50002 60006 878// 90300=
07280,1996-08-07 06:00:00,17,1018,1,100,17,12000,0,,,0,17,19.8,,,,,4,,,,wg-a,,,,AAXX 07064 07280 12462 70000 10170 20170 39915 40180 52010 60044 8673/ 90600 333 10198 20170=
07280,1996-08-07 09:00:00,19,1018.9,1,83,16,20000,3.704,,,350,,,,,,,,,,,wg-a,,,,AAXX 07094 07280 12470 83502 10190 20160 39925 40189 51010 60006 8583/ 90900=
07280,1996-08-07 12:00:00,21,1018.5,-0.2,73,16,20000,7.408,,,200,,,,,,,,,,,wg-a,,,,AAXX 07124 07280 12570 72004 10210 20160 39923 40185 58002 60006 8683/ 91200=
07280,1996-08-07 15:00:00,22,1017.4,,69,16,25000,7.408,,,180,,,,,,,,,,,wg-a,,,,AAXX 07154 07280 12675 71804 10220 20160 39913 40174 60006 8423/ 91500=
07280,1996-08-07 18:00:00,21,1016.8,-0.7,78,17,25000,11.112,,,170,17.4,23,,,,,,,,,wg-a,,,,AAXX 07184 07280 12675 71706 10210 20170 39906 40168 56007 60006 81231 91800 333 10230 20174=
07280,1996-08-07 21:00:00,17,1017.9,0.7,88,15,25000,3.704,,,280,,,,,,,,,,,wg-a,,,,AAXX 07214 07280 12675 /2802 10170 20150 39913 40179 53007 60006 81101 92100=
07280,1996-08-08 00:00:00,15,1018.1,0,88,13,0,7.408,,,310,,,,,,,,,,,wg-a,,,,AAXX 08004 07280 12/// /3104 10150 20130 39913 40181 50000 60006 90000=
07280,1996-08-08 03:00:00,13,1017.1,-1.2,88,11,20000,7.408,,,340,,,,,,,,,,,wg-a,,,,AAXX 08034 07280 12/70 03404 10130 20110 39901 40171 56012 60006 80000 90300=
07280,1996-08-08 06:00:00,14,1016.6,-0.4,88,12,4000,11.112,,,10,12,21.1,,,,,,,,,wg-a,,,,AAXX 08064 07280 12140 50106 10140 20120 39897 40166 55004 60006 83601 90600 333 10211 20120=
07280,1996-08-08 09:00:00,21,1015.6,-0.3,73,16,15000,11.112,,,60,,,,,,,,,,1,wg-a,,,,AAXX 08094 07280 12565 40606 10210 20160 39894 40156 58003 60006 70141 82231 90900=
07280,1996-08-08 12:00:00,25,1014.8,-0.4,47,13,25000,7.408,,,20,,,,,,,,,,,wg-a,,,,AAXX 08124 07280 12775 40204 10250 20130 39890 40148 58004 60006 82101 91200=
07280,1996-08-08 15:00:00,27,1013.3,-1.4,34,10,25000,7.408,,,70,,,,,,,,,,,wg-a,,,,AAXX 08154 07280 12775 30704 10270 20100 39876 40133 58014 60006 81101 91500=
07280,1996-08-08 18:00:00,25,1013.5,0.1,39,10,25000,11.112,,,80,13.9,27.4,,,,,,,,,wg-a,,,,AAXX 08184 07280 12/75 40806 10250 20100 39877 40135 53001 60006 80001 91800 333 10274 20139=
07280,1996-08-08 21:00:00,18,1015.3,1.1,68,12,20000,0,,,0,,,,,,,,,,,wg-a,,,,AAXX 08214 07280 12/70 30000 10180 20120 39888 40153 51011 60006 80001 92100=
07280,1996-08-09 00:00:00,16,1016.1,0.6,72,11,20000,7.408,,,360,,,,,,,,,,,wg-a,,,,AAXX 09004 07280 12/70 03604 10160 20110 39894 40161 53006 60006 80000 90000=
07280,1996-08-09 03:00:00,13,1015.9,-0.5,77,9,20000,7.408,,,30,,,,,,,,,,,wg-a,,,,AAXX 09034 07280 12/70 10304 10130 20090 39889 40159 58005 60006 80001 90300=
07280,1996-08-09 06:00:00,14,1016.3,0.6,82,11,20000,0,,,0,,24.9,,,,,,,,,wg-a,,,,AAXX 09064 07280 12/70 70000 10140 20110 39895 40163 51006 60006 81031 90600 333 10249=
07280,1996-08-09 12:00:00,28,1013.9,-1,32,10,25000,7.408,,,190,,,,,,,,,,,wg-a,,,,AAXX 09124 07280 12/75 71904 10280 20100 39883 40139 58010 60006 81082 91200=
07280,1996-08-09 18:00:00,27,1011.8,-0.7,42,13,500,11.112,,,170,14.4,29.9,,,,,,,,,wg-a,,,,AAXX 09184 07280 12700 61706 10270 20130 39862 40118 56007 60006 81102 91800 333 10299 20144=
07280,1996-08-09 21:00:00,22,1013,0.7,57,13,25000,3.704,,,200,,,,,,,,,,,wg-a,,,,AAXX 09214 07280 12/75 52002 10220 20130 39869 40130 51007 60006 80002 92100=
07280,1996-08-10 00:00:00,17,1012.8,-0.5,82,14,20000,0,,,0,,,,,,,,,,,wg-a,,,,AAXX 10004 07280 12/70 20000 10170 20140 39864 40128 56005 60006 80001 90000=
07280,1996-08-10 03:00:00,16,1012.1,-0.9,82,13,20000,3.704,,,10,,,,,,,,,,,wg-a,,,,AAXX 10034 07280 12/70 20102 10160 20130 39855 40121 56009 60006 80001 90300=
07280,1996-08-10 06:00:00,15,1012.2,0.1,88,13,25000,0,,,0,14.4,27.1,,,,,,,,,wg-a,,,,AAXX 10064 07280 12/75 50000 10150 20130 39856 40122 53001 60006 81032 90600 333 10271 20144=
07280,1996-08-10 09:00:00,22,1011.2,-0.4,73,17,15000,3.704,,,150,,,,,,,,,,,wg-a,,,,AAXX 10094 07280 12665 71502 10220 20170 39852 40112 58004 60006 8357/ 90900=
07280,1996-08-10 12:00:00,21,1010.3,-0.9,88,19,15000,7.408,,,170,,,,2,,,,,,21,wg-a,,,,AAXX 10124 07280 02665 81704 10210 20190 39843 40103 58009 60026 72162 8557/ 91200 333 60027=
07280,1996-08-10 15:00:00,23,1008.8,-1.3,73,18,12000,3.704,,,320,,,,0,,,,,,17,wg-a,,,,AAXX 10154 07280 12662 83202 10230 20180 39830 40088 58013 60007 71798 8597/ 91500=
07280,1996-08-10 18:00:00,18,1009.5,0.3,100,18,10000,3.704,,,230,15.4,23.2,,5,,,,,,29,wg-a,,,,AAXX 10184 07280 12460 82302 10180 20180 39833 40095 53003 60057 72998 888// 91800 333 10232 20154=
07280,1996-08-10 21:00:00,17,1011.3,1.6,100,17,6000,14.816,,,190,,,,,,,,,,13,wg-a,,,,AAXX 10214 07280 02256 81908 10170 20170 39849 40113 51016 61000 71382 886// 92100 333 ////=
07280,1996-08-11 00:00:00,17,1010.9,-0.4,100,17,3000,14.816,,,200,,,,,,,,,,10,wg-a,,,,AAXX 11004 07280 02130 /2008 10170 20170 39845 40109 56004 61000 71042 86600 90000 333 ////=
07280,1996-08-11 03:00:00,16,1009.7,-1.3,100,16,10000,11.112,,,190,,,,0,,,,,,21,wg-a,,,,AAXX 11034 07280 12160 71906 10160 20160 39832 40097 56013 60007 72122 875// 90300=
07280,1996-08-11 06:00:00,16,1010,0.3,88,14,15000,11.112,,,240,15.8,18.1,,,,,7,,,,wg-a,,,,AAXX 11064 07280 12465 72406 10160 20140 39835 40100 53003 60074 878// 90600 333 10181 20158=
07280,1996-08-11 09:00:00,19,1009.4,-0.3,78,15,500,14.816,,,180,,,,,,,,,,,wg-a,,,,AAXX 11094 07280 12400 61808 10190 20150 39832 40094 58003 60006 82831 90900=
07280,1996-08-11 12:00:00,23,1007.4,-1.6,53,13,25000,29.632,,,200,,,,,,,,,,,wg-a,,,,AAXX 11124 07280 12675 /2016 10230 20130 39816 40074 58016 60006 85200 91200=
07280,1996-08-11 15:00:00,23,1005.8,-1.6,61,15,25000,29.632,,,180,,,,,,,,,,25,wg-a,,,,AAXX 11154 07280 02675 41816 10230 20150 39800 40058 56016 61000 72586 82201 91500 333 ////=
07280,1996-08-11 18:00:00,20,1007.7,1.6,68,14,35000,11.112,,,250,16,23.7,,3,,,,,,1,wg-a,,,,AAXX 11184 07280 12681 42506 10200 20140 39816 40077 53016 60037 70198 83802 91800 333 10237 20160=
07280,1996-08-11 21:00:00,16,1009.4,1.3,94,15,20000,7.408,,,200,,,,,,,,,,,wg-a,,,,AAXX 11214 07280 12770 52004 10160 20150 39829 40094 53013 60006 85500 92100=
07280,1996-08-12 00:00:00,16,1009.3,-0.1,82,13,20000,14.816,,,260,,,,,,,,,,1,wg-a,,,,AAXX 12004 07280 02670 /2608 10160 20130 39828 40093 56001 61000 70181 85800 90000 333 6100=
07280,1996-08-12 03:00:00,14,1009.8,0.3,82,11,20000,11.112,,,230,,,,,,,,,,3,wg-a,,,,AAXX 12034 07280 02670 42306 10140 20110 39831 40098 51003 61000 70381 84800 90300 333 ////=
07280,1996-08-12 06:00:00,,1008.9,0.9,,13,20000,0,,,0,13.5,19.7,,,,,3,,,,wg-a,,,,AAXX 12064 07280 02/70 /0000 1//// 20130 39844 40089 52009 60006 80000 90600 333 10197 20135 60034=
07280,1996-08-12 09:00:00,17,1011.5,0.8,72,12,20000,22.224,,,240,,,,,,,,,,80,wg-a,,,,AAXX 12094 07280 02570 72412 10170 20120 39850 40115 53008 61000 78081 878// 90900 333 ////=
07280,1996-08-12 12:00:00,17,1012.1,0.6,77,13,15000,22.224,,,270,,,,1,,,,,,80,wg-a,,,,AAXX 12124 07280 02565 72712 10170 20130 39856 40121 53006 60016 78081 878// 91200 333 60017=
07280,1996-08-12 15:00:00,20,1011.5,-0.3,60,12,500,22.224,,,230,,,,,,,,,,2,wg-a,,,,AAXX 12154 07280 02500 72312 10200 20120 39853 40115 56003 61000 70282 878// 91500 333 ////=
07280,1996-08-12 18:00:00,18,1012.2,0.5,68,12,25000,18.52,,,220,13.6,20.6,,,,,,,,1,wg-a,,,,AAXX 12184 07280 32575 72210 10180 20120 39858 40122 53005 70186 878// 91800 333 10206 20136=
07280,1996-08-12 21:00:00,14,1013.7,1.2,94,13,15000,11.112,,,170,,,,2,,,,,,1,wg-a,,,,AAXX 12214 07280 12565 71706 10140 20130 39870 40137 51012 60027 70198 878// 92100=
07280,1996-08-13 00:00:00,14,1013.7,0,94,13,12000,11.112,,,230,,,,,,,,,,1,wg-a,,,,AAXX 13004 07280 12562 72306 10140 20130 39870 40137 50000 60026 70198 878// 90000=
07280,1996-08-13 03:00:00,12,1013.7,-0.3,94,11,12000,11.112,,,180,,,,,,,,,,,wg-a,,,,AAXX 13034 07280 12562 31806 10120 20110 39867 40137 58003 60006 83800 90300=
07280,1996-08-13 06:00:00,13,1014.2,0.6,94,12,11000,14.816,,,190,11.4,17.9,,,,,2,,,,wg-a,,,,AAXX 13064 07280 12461 71908 10130 20120 39873 40142 53006 60024 8583/ 90600 333 10179 20114=
07280,1996-08-13 09:00:00,17,1014.3,0.4,77,13,15000,18.52,,,220,,,,,,,,,,,wg-a,,,,AAXX 13094 07280 12465 82210 10170 20130 39877 40143 51004 60006 8627/ 90900=
07280,1996-08-13 12:00:00,17,1014.2,-0,77,13,8000,25.928,,,250,,,,,,,,,,60,wg-a,,,,AAXX 13124 07280 02558 82514 10170 20130 39877 40142 55000 61000 76062 8587/ 91200 333 6100=
07280,1996-08-13 15:00:00,17,1014.2,-0,82,14,9000,18.52,,,230,,,,0,,,,,,61,wg-a,,,,AAXX 13154 07280 12559 82310 10170 20140 39877 40142 54000 60007 76162 8687/ 91500=
07280,1996-08-13 18:00:00,16,1014.2,-0.1,88,14,9000,18.52,,,200,13.1,17.9,,1,,,,,,60,wg-a,,,,AAXX 13184 07280 12559 82010 10160 20140 39876 40142 55001 60017 76062 8687/ 91800 333 10179 20131=
07280,1996-08-13 21:00:00,16,1015.2,1,88,14,12000,7.408,,,260,,,,,,,,,,21,wg-a,,,,AAXX 13214 07280 02262 82604 10160 20140 39886 40152 51010 61000 72162 875// 92100 333 ////=
07280,1996-08-14 00:00:00,16,1015.6,0.3,88,14,10000,18.52,,,300,,,,1,,,,,,21,wg-a,,,,AAXX 14004 07280 02460 83010 10160 20140 39889 40156 51003 60016 72162 875// 90000 333 60017=
07280,1996-08-14 03:00:00,15,1015.6,-0,94,14,10000,3.704,,,230,,,,,,,,,,,wg-a,,,,AAXX 14034 07280 12460 82302 10150 20140 39889 40156 54000 60006 875// 90300=
07280,1996-08-14 06:00:00,16,1016.2,0.6,88,14,9000,3.704,,,290,15.1,16.2,,,,,2,,,,wg-a,,,,AAXX 14064 07280 12459 72902 10160 20140 39895 40162 53006 60024 878// 90600 333 10162 20151=
07280,1996-08-14 09:00:00,17,1017,1,88,15,10000,11.112,,,300,,,,,,,,,,,wg-a,,,,AAXX 14094 07280 12460 83006 10170 20150 39905 40170 51010 60006 8527/ 90900=
07280,1996-08-14 12:00:00,18,1017.3,0.3,77,14,11000,14.816,,,320,,,,,,,,,,,wg-a,,,,AAXX 14124 07280 12461 83208 10180 20140 39908 40173 53003 60006 888// 91200=
07280,1996-08-14 15:00:00,18,1017.4,-0.1,77,14,10000,7.408,,,20,,,,,,,,,,,wg-a,,,,AAXX 14154 07280 12460 80204 10180 20140 39909 40174 55001 60006 8687/ 91500=
07280,1996-08-14 18:00:00,17,1017.6,0.1,82,14,12000,11.112,,,320,15.7,18.8,,,,,,,,,wg-a,,,,AAXX 14184 07280 12462 83206 10170 20140 39910 40176 53001 60006 878// 91800 333 10188 20157=
07280,1996-08-14 21:00:00,16,1018.2,0.5,88,14,12000,7.408,,,310,,,,,,,,,,,wg-a,,,,AAXX 14214 07280 12662 /3104 10160 20140 39915 40182 52005 60006 86500 92100=
07280,1996-08-15 00:00:00,13,1018.4,-0.1,94,12,8000,3.704,,,80,,,,,,,,,,,wg-a,,,,AAXX 15004 07280 12658 20802 10130 20120 39914 40184 56001 60006 82500 90000=
07280,1996-08-15 03:00:00,12,1018.3,-0.2,100,12,300,0,,,0,,,,,,,,,,44,wg-a,,,,AAXX 15034 07280 12103 20000 10120 20120 39912 40183 57002 60006 74440 82700 90300=
07280,1996-08-15 06:00:00,14,1019,0.9,100,14,3000,7.408,,,10,11.4,17.4,,,,,,,,10,wg-a,,,,AAXX 15064 07280 12330 80104 10140 20140 39921 40190 53009 60006 71041 886// 90600 333 10174 20114=
07280,1996-08-15 09:00:00,17,1019.5,0.7,88,15,500,14.816,,,30,,,,,,,,,,,wg-a,,,,AAXX 15094 07280 12300 80308 10170 20150 39928 40195 52007 60006 886// 90900=
07280,1996-08-15 10:00:00,22,1018.4,-0.2,57,13,18000,14.816,,,360,14.1,22.9,,,,,,,,,wg-a,,,,AAXX 15104 07280 12668 /3608 10220 20130 39922 40184 55002 60006 8/100 91000 333 10229 20141=
07280,1996-08-15 12:00:00,19,1019.5,0.3,83,16,6000,14.816,,,80,,,,,,,,,,,wg-a,,,,AAXX 15124 07280 12456 70808 10190 20160 39931 40195 51003 60006 875// 91200=
07280,1996-08-15 15:00:00,22,1018.6,-0.7,65,15,12000,3.704,,,350,,,,,,,,,,,wg-a,,,,AAXX 15154 07280 12562 /3502 10220 20150 39924 40186 58007 60006 85200 91500=
07280,1996-08-15 18:00:00,22,1018.4,-0.2,57,13,18000,14.816,,,360,14.1,22.9,,,,,,,,,wg-a,,,,AAXX 15184 07280 12668 /3608 10220 20130 39922 40184 55002 60006 81100 91800 333 10229 20141=
07280,1996-08-15 21:00:00,17,1019.9,1.1,82,14,20000,11.112,,,330,,,,,,,,,,,wg-a,,,,AAXX 15214 07280 12/70 43306 10170 20140 39933 40199 51011 60006 80001 92100=
07280,1996-08-16 00:00:00,15,1020,-0.2,82,12,20000,11.112,,,340,,,,,,,,,,,wg-a,,,,AAXX 16004 07280 12/70 03406 10150 20120 39931 40200 57002 60006 80000 90000=
07280,1996-08-16 03:00:00,14,1020.1,0,82,11,20000,14.816,,,10,,,,,,,,,,,wg-a,,,,AAXX 16034 07280 12/70 00108 10140 20110 39931 40201 50000 60006 80000 90300=
07280,1996-08-16 06:00:00,14,1020.8,0.7,88,12,12000,3.704,,,360,12.7,22,,,,,,,,,wg-a,,,,AAXX 16064 07280 12/62 03602 10140 20120 39938 40208 53007 60006 80000 90600 333 10220 20127=
07280,1996-08-16 09:00:00,20,1020.5,0.3,73,15,15000,11.112,,,20,,,,,,,,,,,wg-a,,,,AAXX 16094 07280 12565 /0206 10200 20150 39941 40205 52003 60006 81100 90900=
07280,1996-08-16 12:00:00,24,1019.6,-0.5,50,13,500,18.52,,,60,,,,,,,,,,,wg-a,,,,AAXX 16124 07280 12600 20610 10240 20130 39936 40196 58005 60006 82200 91200=
07280,1996-08-16 15:00:00,26,1018.8,-0.7,42,12,500,14.816,,,70,,,,,,,,,,,wg-a,,,,AAXX 16154 07280 12700 10708 10260 20120 39929 40188 56007 60006 81200 91500=
07280,1996-08-16 18:00:00,24,1018.8,-0.1,47,12,500,14.816,,,50,13.9,25.7,,,,,,,,,wg-a,,,,AAXX 16184 07280 12/00 00508 10240 20120 39928 40188 55001 60006 80000 91800 333 10257 20139=
07280,1996-08-16 21:00:00,19,1020.6,1.3,68,13,25000,11.112,,,10,,,,,,,,,,,wg-a,,,,AAXX 16214 07280 12/75 00106 10190 20130 39941 40206 51013 60006 80000 92100=
07280,1996-08-17 00:00:00,17,1020.8,-0,77,13,20000,14.816,,,10,,,,,,,,,,,wg-a,,,,AAXX 17004 07280 12/70 00108 10170 20130 39941 40208 55000 60006 80000 90000=
07280,1996-08-17 06:00:00,17,1020.6,0.1,82,14,12000,14.816,,,10,14.6,23.9,,,,,,,,,wg-a,,,,AAXX 17064 07280 12/62 00108 10170 20140 39939 40206 53001 60006 80000 90600 333 10239 20146=
07280,1996-08-17 09:00:00,22,1020.6,0.5,65,15,15000,18.52,,,40,,,,,,,,,,,wg-a,,,,AAXX 17094 07280 12/65 00410 10220 20150 39944 40206 51005 60006 80000 90900=
07280,1996-08-17 12:00:00,26,1019.6,-0.7,48,14,20000,18.52,,,50,,,,,,,,,,,wg-a,,,,AAXX 17124 07280 12770 20510 10260 20140 39937 40196 58007 60006 82200 91200=
07280,1996-08-17 15:00:00,27,1018.3,-1.1,37,11,25000,14.816,,,60,,,,,,,,,,,wg-a,,,,AAXX 17154 07280 12775 10608 10270 20110 39926 40183 56011 60006 81100 91500=
07280,1996-08-17 18:00:00,25,1018.5,-0.1,47,13,25000,18.52,,,40,16.8,27.3,,,,,,,,,wg-a,,,,AAXX 17184 07280 12875 20410 10250 20130 39925 40185 55001 60006 81501 91800 333 10273 20168=
07280,1996-08-17 21:00:00,21,1019.4,0.6,60,13,20000,14.816,,,10,,,,,,,,,,,wg-a,,,,AAXX 17214 07280 12/70 00108 10210 20130 39931 40194 50006 60006 80000 92100=
07280,1996-08-18 00:00:00,18,1019.5,-0.2,73,13,20000,14.816,,,10,,,,,,,,,,,wg-a,,,,AAXX 18004 07280 12770 10108 10180 20130 39929 40195 58002 60006 81500 90000=
07280,1996-08-18 03:00:00,16,1018.9,-0.7,82,13,20000,11.112,,,350,,,,,,,,,,,wg-a,,,,AAXX 18034 07280 12/70 03506 10160 20130 39922 40189 58007 60006 80000 90300=
07280,1996-08-18 06:00:00,18,1018.9,0.1,77,14,15000,14.816,,,10,15.5,24.5,,,,,,,,,wg-a,,,,AAXX 18064 07280 12/65 00108 10180 20140 39923 40189 53001 60006 80000 90600 333 10245 20155=
07280,1996-08-18 09:00:00,23,1018.5,0.1,53,13,20000,25.928,,,40,,,,,,,,,,,wg-a,,,,AAXX 18094 07280 12/70 00414 10230 20130 39924 40185 50001 60006 80000 90900=
07280,1996-08-18 12:00:00,27,1016.6,-1.6,39,12,25000,29.632,,,60,,,,,,,,,,,wg-a,,,,AAXX 18124 07280 12/75 00616 10270 20120 39908 40166 58016 60006 80000 91200=
07280,1996-08-18 15:00:00,28,1015.6,-0.8,35,11,25000,25.928,,,50,,,,,,,,,,,wg-a,,,,AAXX 18154 07280 12/75 20514 10280 20110 39900 40156 58008 60006 80001 91500=
07280,1996-08-18 18:00:00,25,1015,-0.8,47,13,25000,18.52,,,70,17.8,28,,,,,,,,,wg-a,,,,AAXX 18184 07280 12/75 00710 10250 20130 39892 40150 56008 60006 80000 91800 333 10280 20178=
07280,1996-08-18 21:00:00,20,1015.6,0.1,64,13,500,11.112,,,20,,,,,,,,,,,wg-a,,,,AAXX 18214 07280 12/00 00206 10200 20130 39893 40156 50001 60006 80000 92100=
07280,1996-08-19 00:00:00,18,1015.6,-0.2,73,13,25000,14.816,,,10,,,,,,,,,,,wg-a,,,,AAXX 19004 07280 12/75 00108 10180 20130 39891 40156 58002 60006 80000 90000=
07280,1996-08-19 03:00:00,16,1015.5,-0.3,77,12,20000,11.112,,,350,,,,,,,,,,,wg-a,,,,AAXX 19034 07280 12/70 03506 10160 20120 39888 40155 56003 60006 80000 90300=
07280,1996-08-19 06:00:00,16,1015.5,0.1,82,13,20000,7.408,,,10,14.3,25.2,,,,,,,,,wg-a,,,,AAXX 19064 07280 12/70 00104 10160 20130 39889 40155 53001 60006 80000 90600 333 10252 20143=
07280,1996-08-19 09:00:00,22,1015,0,60,14,15000,3.704,,,100,,,,,,,,,,,wg-a,,,,AAXX 19094 07280 12/65 01002 10220 20140 39889 40150 50000 60006 80000 90900=
07280,1996-08-19 12:00:00,28,1013.2,-1.2,45,15,20000,14.816,,,190,,,,,,,,,,,wg-a,,,,AAXX 19124 07280 12770 11908 10280 20150 39877 40132 58012 60006 81100 91200=
07280,1996-08-19 15:00:00,30,1011.5,-1.5,38,14,500,14.816,,,160,,,,,,,,,,,wg-a,,,,AAXX 19154 07280 12800 11608 10300 20140 39862 40115 56015 60006 81100 91500=
07280,1996-08-19 18:00:00,27,1011.5,-0.2,45,14,500,11.112,,,160,16,30.1,,,,,,,,,wg-a,,,,AAXX 19184 07280 12700 11606 10270 20140 39860 40115 55002 60006 81200 91800 333 10301 20160=
07280,1996-08-19 21:00:00,22,1012.6,0.6,60,14,25000,0,,,0,,,,,,,,,,,wg-a,,,,AAXX 19214 07280 12875 10000 10220 20140 39866 40126 53006 60006 81500 92100=
07280,1996-08-20 00:00:00,17,1013.4,0.3,82,14,25000,7.408,,,150,,,,,,,,,,,wg-a,,,,AAXX 20004 07280 12/75 01504 10170 20140 39869 40134 50003 60006 80000 90000=
07280,1996-08-20 03:00:00,16,1013.4,-0.1,82,13,20000,0,,,0,,,,,,,,,,,wg-a,,,,AAXX 20034 07280 12770 10000 10160 20130 39868 40134 55001 60006 81500 90300=
07280,1996-08-20 06:00:00,16,1013.6,0.2,88,14,18000,7.408,,,170,14.8,27.4,,,,,,,,,wg-a,,,,AAXX 20064 07280 12768 11704 10160 20140 39870 40136 53002 60006 81500 90600 333 10274 20148=
07280,1996-08-20 09:00:00,22,1013.9,,65,15,25000,18.52,,,190,,,,,,,,,,,wg-a,,,,AAXX 20094 07280 12875 61910 10220 20150 39879 40139 60006 85081 90900=
07280,1996-08-20 12:00:00,26,1013,-0.5,54,16,25000,18.52,,,190,,,,,,,,,,,wg-a,,,,AAXX 20124 07280 12/75 71910 10260 20160 39874 40130 56005 60006 86071 91200=
07280,1996-08-20 15:00:00,26,1012.2,-0.9,54,16,25000,11.112,,,190,,,,,,,,,,,wg-a,,,,AAXX 20154 07280 12675 71906 10260 20160 39865 40122 58009 60006 81272 91500=
07280,1996-08-20 18:00:00,22,1012.4,-0.1,73,17,10000,14.816,,,350,16.1,27.2,,,,,,,,17,wg-a,,,,AAXX 20184 07280 12560 83508 10220 20170 39864 40124 55001 60006 71792 82972 91800 333 10272 20161=
07280,1996-08-20 21:00:00,18,1013.5,0.7,94,17,20000,7.408,,,60,,,,4,,,,,,29,wg-a,,,,AAXX 20214 07280 12570 80604 10180 20170 39871 40135 52007 60047 72998 8397/ 92100=
07280,1996-08-21 00:00:00,17,1014.5,0.9,94,16,20000,3.704,,,160,,,,,,,,,,1,wg-a,,,,AAXX 21004 07280 12770 71602 10170 20160 39880 40145 51009 60046 70198 8553/ 90000=
07280,1996-08-21 03:00:00,17,1013.9,-0.6,94,16,100,3.704,,,220,,,,,,,,,,45,wg-a,,,,AAXX 21034 07280 12/01 92202 10170 20160 39874 40139 57006 60006 74542 89/// 90300=
07280,1996-08-21 06:00:00,16,1013.7,-0.2,100,16,200,3.704,,,270,16.2,21.6,,,,,4,,,45,wg-a,,,,AAXX 21064 07280 12/02 92702 10160 20160 39872 40137 56002 60044 74542 89/// 90600 333 10216 20162=
07280,1996-08-21 09:00:00,20,1013.6,0.2,88,18,15000,3.704,,,280,,,,,,,,,,1,wg-a,,,,AAXX 21094 07280 12465 72802 10200 20180 39874 40136 51002 60006 70142 8213/ 90900=
07280,1996-08-21 12:00:00,22,1012.7,-0.7,69,16,25000,11.112,,,200,,,,,,,,,,3,wg-a,,,,AAXX 21124 07280 12575 72006 10220 20160 39867 40127 58007 60006 70342 81271 91200=
07280,1996-08-21 15:00:00,25,1010.9,-1.5,57,16,25000,18.52,,,230,,,,,,,,,,,wg-a,,,,AAXX 21154 07280 12575 72310 10250 20160 39852 40109 56015 60006 82932 91500=
07280,1996-08-21 18:00:00,19,1011.3,-0.1,88,17,10000,14.816,,,310,16.3,25.6,,1,,,,,,80,wg-a,,,,AAXX 21184 07280 12560 73108 10190 20170 39851 40113 55001 60017 78098 85903 91800 333 10256 20163=
07280,1996-08-21 21:00:00,17,1012.4,0.9,94,16,20000,7.408,,,90,,,,,,,,,,1,wg-a,,,,AAXX 21214 07280 02670 70904 10170 20160 39860 40124 50009 61000 70198 84203 92100 333 ////=
07280,1996-08-22 00:00:00,17,1013.1,0.6,94,16,20000,3.704,,,150,,,,0,,,,,,3,wg-a,,,,AAXX 22004 07280 02570 81502 10170 20160 39866 40131 50006 60006 70398 885// 90000 333 60007=
07280,1996-08-22 03:00:00,16,1012.2,-0.9,100,16,18000,7.408,,,190,,,,1,,,,,,,wg-a,,,,AAXX 22034 07280 12268 71904 10160 20160 39857 40122 56009 60017 878// 90300=
07280,1996-08-22 06:00:00,16,1013,0.8,94,15,6000,3.704,,,330,16.2,19.5,,0,,,3,,,61,wg-a,,,,AAXX 22064 07280 02456 83302 10160 20150 39865 40130 52008 60034 76162 8557/ 90600 333 10195 20162 60007=
07280,1996-08-22 09:00:00,17,1014.1,1.1,100,17,8000,7.408,,,190,,,,2,,,,,,61,wg-a,,,,AAXX 22094 07280 12258 81904 10170 20170 39876 40141 52011 60027 76166 8657/ 90900=
07280,1996-08-22 12:00:00,19,1014.2,0.3,88,17,12000,3.704,,,130,,,,22,,,,,,10,wg-a,,,,AAXX 22124 07280 02462 /1302 10190 20170 39879 40142 52003 60246 71066 8587/ 91200 333 60227=
07280,1996-08-22 15:00:00,20,1013.9,-0.2,78,16,20000,14.816,,,310,,,,14,,,,,,1,wg-a,,,,AAXX 22154 07280 12570 /3108 10200 20160 39877 40139 57002 60147 70186 86800 91500=
07280,1996-08-22 18:00:00,19,1014.4,0.4,78,15,25000,11.112,,,310,16.2,20.8,,,,,,,,1,wg-a,,,,AAXX 22184 07280 32575 /3106 10190 20150 39881 40144 53004 70186 81800 91800 333 10208 20162=
07280,1996-08-22 21:00:00,15,1016.1,1.3,94,14,15000,3.704,,,40,,,,,,,,,,,wg-a,,,,AAXX 22214 07280 12/65 00402 10150 20140 39894 40161 51013 60006 80000 92100=
07280,1996-08-23 00:00:00,14,1015.7,-0.5,100,14,12000,3.704,,,290,,,,,,,,,,,wg-a,,,,AAXX 23004 07280 12262 /2902 10140 20140 39889 40157 56005 60006 86600 90000=
07280,1996-08-23 03:00:00,15,1014.4,-1.2,100,15,500,3.704,,,120,,,,,,,,,,44,wg-a,,,,AAXX 23034 07280 12105 81202 10150 20150 39877 40144 56012 60006 74442 886// 90300=
07280,1996-08-23 06:00:00,14,1013.7,-0.8,100,14,100,3.704,,,350,13.6,19.2,,0,,,39,,,45,wg-a,,,,AAXX 23064 07280 02/01 93502 10140 20140 39869 40137 56008 60394 74554 89/// 90600 333 10192 20136 60007=
07280,1996-08-23 09:00:00,15,1013.4,-0.1,100,15,4500,11.112,,,180,,,,,,,,,,28,wg-a,,,,AAXX 23094 07280 02145 91806 10150 20150 39868 40134 55001 61000 72854 896// 90900 333 ////=
07280,1996-08-23 12:00:00,21,1012.1,-0.7,78,17,18000,11.112,,,180,,,,,,,,,,1,wg-a,,,,AAXX 23124 07280 02468 31806 10210 20170 39861 40121 57007 61000 70154 81189 91200 333 ////=
07280,1996-08-23 15:00:00,23,1011.3,-0.7,65,16,25000,11.112,,,200,,,,,,,,,,,wg-a,,,,AAXX 23154 07280 12675 72006 10230 20160 39854 40113 56007 60006 8483/ 91500=
07280,1996-08-23 18:00:00,22,1012.1,0.7,57,13,25000,14.816,,,250,14,23.6,,,,,,,,60,wg-a,,,,AAXX 23184 07280 02675 72508 10220 20130 39861 40121 53007 61000 76011 875// 91800 333 10236 20140 ////=
07280,1996-08-23 21:00:00,17,1014,1.4,77,13,25000,7.408,,,250,,,,,,,,,,3,wg-a,,,,AAXX 23214 07280 02575 /2504 10170 20130 39875 40140 51014 61000 70361 86500 92100 333 ////=
07280,1996-08-24 00:00:00,16,1014.6,0.5,94,15,20000,7.408,,,210,,,,0,,,,,,2,wg-a,,,,AAXX 24004 07280 02770 72104 10160 20150 39880 40146 52005 60006 70261 875// 90000 333 60007=
07280,1996-08-24 03:00:00,15,1014.7,-0,82,12,20000,11.112,,,210,,,,,,,,,,,wg-a,,,,AAXX 24034 07280 12770 12106 10150 20120 39880 40147 54000 60006 81500 90300=
07280,1996-08-24 06:00:00,13,1014.9,-0,94,12,20000,0,,,0,12.1,21.9,,,,,,,,,wg-a,,,,AAXX 24064 07280 12770 10000 10130 20120 39880 40149 55000 60004 81501 90600 333 10219 20121=
07280,1996-08-24 09:00:00,20,1014.3,-0,60,12,25000,18.52,,,210,,,,,,,,,,,wg-a,,,,AAXX 24094 07280 12575 42110 10200 20120 39880 40143 54000 60006 84200 90900=
07280,1996-08-24 12:00:00,23,1012.5,-1.5,44,10,500,25.928,,,220,,,,,,,,,,,wg-a,,,,AAXX 24124 07280 12700 42214 10230 20100 39865 40125 58015 60006 84200 91200=
07280,1996-08-24 15:00:00,23,1011.2,-1.2,47,11,500,25.928,,,230,,,,,,,,,,,wg-a,,,,AAXX 24154 07280 12700 52314 10230 20110 39853 40112 56012 60006 85400 91500=
07280,1996-08-24 18:00:00,20,1012.1,0.6,64,13,35000,11.112,,,250,12.8,24.1,,,,,,,,25,wg-a,,,,AAXX 24184 07280 02781 62506 10200 20130 39859 40121 53006 61000 72522 85801 91800 333 10241 20128 ////=
07280,1996-08-24 21:00:00,18,1013.3,1,73,13,35000,11.112,,,230,,,,,,,,,,,wg-a,,,,AAXX 24214 07280 12881 62306 10180 20130 39869 40133 51010 60006 86500 92100=
07280,1996-08-25 00:00:00,17,1014.3,0.9,72,12,500,18.52,,,250,,,,,,,,,,,wg-a,,,,AAXX 25004 07280 12800 22510 10170 20120 39878 40143 51009 60006 82500 90000=
07280,1996-08-25 03:00:00,15,1015.1,0.5,82,12,500,11.112,,,230,,,,,,,,,,,wg-a,,,,AAXX 25034 07280 12800 12306 10150 20120 39883 40151 53005 60006 81030 90300=
07280,1996-08-25 06:00:00,13,1016,0.8,94,12,500,11.112,,,200,10.9,19.6,,,,,,,,,wg-a,,,,AAXX 25064 07280 02400 22006 10130 20120 39891 40160 52008 60006 82800 90600 333 10196 20109 61000=
07280,1996-08-25 09:00:00,18,1016.2,0.6,64,11,500,14.816,,,260,,,,,,,,,,,wg-a,,,,AAXX 25094 07280 12500 /2608 10180 20110 39897 40162 51006 60006 86200 90900=
07280,1996-08-25 12:00:00,22,1015,-0.9,46,10,40000,14.816,,,220,,,,,,,,,,1,wg-a,,,,AAXX 25124 07280 02682 62208 10220 20100 39888 40150 58009 61000 70181 84201 91200 333 6100=
07280,1996-08-25 15:00:00,21,1014.3,-0.7,49,10,40000,14.816,,,210,,,,,,,,,,25,wg-a,,,,AAXX 25154 07280 02782 62108 10210 20100 39881 40143 58007 61000 72582 85860 91500 333 ////=
07280,1996-08-25 18:00:00,19,1014.2,-0.2,64,12,40000,3.704,,,200,13,22.7,,0,,,,,,1,wg-a,,,,AAXX 25184 07280 12782 52002 10190 20120 39879 40142 58002 60007 70181 85800 91800 333 10227 20130=
07280,1996-08-25 21:00:00,17,1015.5,1.1,72,12,500,14.816,,,310,,,,,,,,,,,wg-a,,,,AAXX 25214 07280 12700 73108 10170 20120 39890 40155 53011 60006 875// 92100=
07280,1996-08-26 00:00:00,15,1015.2,-0.5,88,13,500,7.408,,,80,,,,,,,,,,1,wg-a,,,,AAXX 26004 07280 02600 70804 10150 20130 39885 40152 58005 61000 70162 875// 90000 333 6100=
07280,1996-08-26 03:00:00,15,1014.8,-0.4,88,13,500,7.408,,,20,,,,,,,,,,,wg-a,,,,AAXX 26034 07280 12700 80204 10150 20130 39881 40148 58004 60006 875// 90300=
07280,1996-08-26 06:00:00,15,1015.3,0.5,88,13,500,3.704,,,350,14.2,19.3,,,,,,,,,wg-a,,,,AAXX 26064 07280 12700 73502 10150 20130 39886 40153 53005 60004 8457/ 90600 333 10193 20142=
07280,1996-08-26 09:00:00,19,1015.8,0.8,68,13,500,0,,,0,,,,,,,,,,,wg-a,,,,AAXX 26094 07280 12500 70000 10190 20130 39894 40158 52008 60006 8487/ 90900=
07280,1996-08-26 12:00:00,21,1015.3,-0.3,64,14,500,18.52,,,180,,,,2,,,,,,1,wg-a,,,,AAXX 26124 07280 02500 51810 10210 20140 39891 40153 58003 60026 70182 84230 91200 333 60027=
07280,1996-08-26 15:00:00,19,1014.6,-0.8,78,15,500,3.704,,,180,,,,0,,,,,,25,wg-a,,,,AAXX 26154 07280 12500 /1802 10190 20150 39883 40146 56008 60007 72582 83360 91500=
07280,1996-08-26 18:00:00,17,1015.5,0.6,88,15,20000,14.816,,,330,14.8,21.7,,0,,,,,,25,wg-a,,,,AAXX 26184 07280 12670 73308 10170 20150 39889 40155 51006 60007 72582 878// 91800 333 10217 20148=
07280,1996-08-26 21:00:00,16,1016.9,1.3,94,15,20000,3.704,,,360,,,,,,,,,,,wg-a,,,,AAXX 26214 07280 12670 /3602 10160 20150 39902 40169 51013 60006 86500 92100=
07280,1996-08-27 00:00:00,13,1017,-0.1,100,13,20000,3.704,,,310,,,,,,,,,,,wg-a,,,,AAXX 27004 07280 12/70 33102 10130 20130 39901 40170 55001 60006 80001 90000=
07280,1996-08-27 03:00:00,12,1016.7,-0.4,100,12,15000,3.704,,,90,,,,,,,,,,,wg-a,,,,AAXX 27034 07280 12765 70902 10120 20120 39897 40167 58004 60006 875// 90300=
07280,1996-08-27 06:00:00,13,1016.6,-0.1,100,13,500,7.408,,,20,12.2,16.5,,,,,2,,,10,wg-a,,,,AAXX 27064 07280 02/05 90204 10130 20130 39897 40166 57001 60024 71065 89/// 90600 333 10165 20122 61000=
07280,1996-08-27 09:00:00,14,1016.7,0.2,100,14,500,7.408,,,30,,,,,,,,,,10,wg-a,,,,AAXX 27094 07280 02200 80304 10140 20140 39899 40167 53002 61000 71042 886// 90900 333 ////=
07280,1996-08-27 12:00:00,20,1014.9,-1.2,68,14,15000,3.704,,,130,,,,,,,,,,1,wg-a,,,,AAXX 27124 07280 02565 71302 10200 20140 39887 40149 56012 61000 70164 8123/ 91200 333 6100=
07280,1996-08-27 15:00:00,18,1015,,77,14,18000,14.816,,,320,,,,2,,,,,,17,wg-a,,,,AAXX 27154 07280 12468 83208 10180 20140 39886 40150 60027 71798 878// 91500=
07280,1996-08-27 21:00:00,15,1016.9,1.2,94,14,20000,7.408,,,250,,,,,,,,,,,wg-a,,,,AAXX 27214 07280 12570 72504 10150 20140 39901 40169 51012 60006 8383/ 92100=
07280,1996-08-28 00:00:00,12,1017.2,0.1,100,12,25000,0,,,0,,,,,,,,,,,wg-a,,,,AAXX 28004 07280 12575 40000 10120 20120 39902 40172 53001 60006 81130 90000=
07280,1996-08-28 03:00:00,12,1017.2,-0.4,88,10,25000,11.112,,,330,,,,,,,,,,,wg-a,,,,AAXX 28034 07280 12575 33306 10120 20100 39901 40172 55004 60006 81130 90300=
07280,1996-08-28 06:00:00,10,1018.1,0.7,100,10,20000,3.704,,,190,9.4,16.1,,,,,4,,,,wg-a,,,,AAXX 28064 07280 02570 21902 10100 20100 39908 40181 53007 60006 81130 90600 333 10161 20094 60044=
07280,1996-08-28 09:00:00,15,1017.9,0.3,82,12,20000,7.408,,,230,,,,,,,,,,,wg-a,,,,AAXX 28094 07280 12470 72304 10150 20120 39911 40179 51003 60006 8623/ 90900=
07280,1996-08-28 12:00:00,15,1017.4,-0.5,82,12,20000,18.52,,,280,,,,4,,,,,,29,wg-a,,,,AAXX 28124 07280 02570 /2810 10150 20120 39906 40174 56005 60046 72998 86300 91200 333 60047=
07280,1996-08-28 15:00:00,17,1017,-0.2,63,10,25000,22.224,,,280,,,,,,,,,,1,wg-a,,,,AAXX 28154 07280 02675 62812 10170 20100 39904 40170 55002 61000 70186 86800 91500 333 ////=
07280,1996-08-28 18:00:00,16,1017.2,0.1,68,10,25000,14.816,,,220,10.4,18.4,,,,,,,,3,wg-a,,,,AAXX 28184 07280 32575 72208 10160 20100 39905 40172 53001 70381 874// 91800 333 10184 20104=
07280,1996-08-28 21:00:00,12,1018.1,0.5,94,11,25000,11.112,,,190,,,,,,,,,,,wg-a,,,,AAXX 28214 07280 12775 21906 10120 20110 39910 40181 51005 60006 81530 92100=
07280,1996-08-29 00:00:00,11,1017.5,-0.7,94,10,20000,14.816,,,230,,,,,,,,,,,wg-a,,,,AAXX 29004 07280 12/70 12308 10110 20100 39903 40175 56007 60006 81030 90000=
07280,1996-08-29 03:00:00,10,1016.9,-0.7,93,9,15000,7.408,,,200,,,,,,,,,,,wg-a,,,,AAXX 29034 07280 12665 72004 10100 20090 39896 40169 58007 60006 875// 90300=
07280,1996-08-29 06:00:00,11,1016.5,-0.3,94,10,8000,3.704,,,170,9.5,16.3,,,,,4,,,,wg-a,,,,AAXX 29064 07280 02258 71702 10110 20100 39893 40165 55003 60006 845// 90600 333 10163 20095 60044=
07280,1996-08-29 09:00:00,16,1016.5,0.5,72,11,15000,18.52,,,270,,,,,,,,,,,wg-a,,,,AAXX 29094 07280 12465 52710 10160 20110 39898 40165 52005 60006 83240 90900=
07280,1996-08-29 12:00:00,18,1016,-0.3,59,10,25000,25.928,,,270,,,,,,,,,,,wg-a,,,,AAXX 29124 07280 12675 32714 10180 20100 39895 40160 56003 60006 83200 91200=
07280,1996-08-29 15:00:00,20,1015.1,-0.7,43,7,20000,22.224,,,260,,,,,,,,,,,wg-a,,,,AAXX 29154 07280 12670 52612 10200 20070 39888 40151 56007 60006 83230 91500=
07280,1996-08-29 18:00:00,17,1016.4,1,55,8,20000,18.52,,,270,10.6,20.8,,,,,,,,,wg-a,,,,AAXX 29184 07280 12670 52710 10170 20080 39898 40164 53010 60006 82201 91800 333 10208 20106=
07280,1996-08-29 21:00:00,14,1018.8,2,72,9,10000,14.816,,,310,,,,,,,,,,,wg-a,,,,AAXX 29214 07280 12660 73108 10140 20090 39918 40188 51020 60006 8457/ 92100=
07280,1996-08-30 00:00:00,13,1018.9,0.1,82,10,10000,7.408,,,230,,,,,,,,,,,wg-a,,,,AAXX 30004 07280 12760 42304 10130 20100 39919 40189 53001 60006 83530 90000=
07280,1996-08-30 03:00:00,12,1018.8,-0.2,94,11,10000,11.112,,,190,,,,,,,,,,,wg-a,,,,AAXX 30034 07280 12760 61906 10120 20110 39917 40188 57002 60006 83530 90300=
07280,1996-08-30 06:00:00,12,1019.7,0.8,94,11,9000,3.704,,,160,11.4,17.2,,,,,,,,,wg-a,,,,AAXX 30064 07280 12659 71602 10120 20110 39925 40197 53008 60006 81581 90600 333 10172 20114=
07280,1996-08-30 09:00:00,16,1020.4,1.1,77,12,18000,7.408,,,230,,,,,,,,,,,wg-a,,,,AAXX 30094 07280 12468 /2304 10160 20120 39936 40204 52011 60006 82281 90900=
07280,1996-08-30 12:00:00,18,1020.3,0.1,56,9,500,14.816,,,290,,,,,,,,,,,wg-a,,,,AAXX 30124 07280 12600 /2908 10180 20090 39937 40203 50001 60006 84401 91200=
07280,1996-08-30 15:00:00,18,1020.9,0.6,64,11,20000,22.224,,,330,,,,,,,,,,,wg-a,,,,AAXX 30154 07280 12670 /3312 10180 20110 39943 40209 53006 60006 85801 91500=
07280,1996-08-30 18:00:00,16,1022.2,1,68,10,25000,14.816,,,20,11.6,19.5,,,,,,,,,wg-a,,,,AAXX 30184 07280 12575 80208 10160 20100 39953 40222 52010 60006 8587/ 91800 333 10195 20116=
07280,1996-08-30 21:00:00,15,1023.3,1,77,11,20000,7.408,,,20,,,,,,,,,,,wg-a,,,,AAXX 30214 07280 12770 80204 10150 20110 39963 40233 51010 60006 8357/ 92100=
07280,1996-08-31 00:00:00,14,1023.5,0.2,88,12,20000,3.704,,,40,,,,,,,,,,,wg-a,,,,AAXX 31004 07280 12670 80402 10140 20120 39965 40235 53002 60006 875// 90000=
07280,1996-08-31 03:00:00,14,1023.4,-0.2,88,12,20000,3.704,,,40,,,,,,,,,,,wg-a,,,,AAXX 31034 07280 12670 70402 10140 20120 39963 40234 58002 60006 875// 90300=
07280,1996-08-31 06:00:00,13,1024.2,0.7,94,12,8000,7.408,,,20,11.6,15.6,,,,,,,,11,wg-a,,,,AAXX 31064 07280 12658 40204 10130 20120 39970 40242 53007 60006 71111 84500 90600 333 10156 20116=
07280,1996-08-31 09:00:00,15,1024.9,0.9,77,11,15000,7.408,,,30,,,,,,,,,,,wg-a,,,,AAXX 31094 07280 12565 80304 10150 20110 39979 40249 51009 60006 878// 90900=
07280,1996-08-31 12:00:00,18,1024.2,-0.4,56,9,25000,14.816,,,20,,,,,,,,,,,wg-a,,,,AAXX 31124 07280 12675 /0208 10180 20090 39975 40242 58004 60006 86800 91200=
07280,1996-08-31 15:00:00,18,1023.9,-0.3,56,9,25000,22.224,,,30,,,,,,,,,,,wg-a,,,,AAXX 31154 07280 12675 80312 10180 20090 39972 40239 56003 60006 888// 91500=
07280,1996-08-31 18:00:00,16,1024.3,0.2,68,10,25000,11.112,,,40,12.9,18.8,,,,,,,,,wg-a,,,,AAXX 31184 07280 12775 70406 10160 20100 39974 40243 50002 60006 865/1 91800 333 10188 20129=
07280,1996-08-31 21:00:00,14,1025.2,0.7,72,9,25000,14.816,,,10,,,,,,,,,,,wg-a,,,,AAXX 31214 07280 12775 30108 10140 20090 39981 40252 50007 60006 83500 92100=
07280,1996-09-01 00:00:00,11,1025.7,0.2,87,9,20000,14.816,,,360,,,,,,,,,,,wg-a,,,,AAXX 01004 07280 12/70 03608 10110 20090 39983 40257 52002 60006 80000 90000=
07280,1996-09-01 03:00:00,12,1025.5,-0.1,82,9,20000,14.816,,,10,,,,,,,,,,,wg-a,,,,AAXX 01034 07280 12/70 70108 10120 20090 39982 40255 55001 60006 8707/ 90300=
07280,1996-09-01 06:00:00,11,1026,0.4,82,8,25000,14.816,,,360,10.2,16,,,,,,,,,wg-a,,,,AAXX 01064 07280 12/75 03608 10110 20080 39986 40260 53004 60006 80000 90600 333 10160 20102=
07280,1996-09-01 09:00:00,15,1026.1,0.5,67,9,25000,25.928,,,20,,,,,,,,,,,wg-a,,,,AAXX 01094 07280 12575 30214 10150 20090 39991 40261 51005 60006 83100 90900=
07280,1996-09-01 12:00:00,18,1025.1,-0.8,45,6,25000,29.632,,,20,,,,,,,,,,,wg-a,,,,AAXX 01124 07280 12675 /0216 10180 20060 39983 40251 56008 60006 85200 91200=
07280,1996-09-01 15:00:00,19,1024,-1,40,5,25000,22.224,,,30,,,,,,,,,,,wg-a,,,,AAXX 01154 07280 12775 50312 10190 20050 39973 40240 56010 60006 84101 91500=
07280,1996-09-01 18:00:00,16,1024.2,-0,51,6,25000,18.52,,,40,11,19.2,,,,,,,,,wg-a,,,,AAXX 01184 07280 12775 30410 10160 20060 39973 40242 55000 60006 81830 91800 333 10192 20110=
07280,1996-09-01 21:00:00,13,1025,0.4,62,6,20000,18.52,,,10,,,,,,,,,,,wg-a,,,,AAXX 01214 07280 12/70 10110 10130 20060 39977 40250 50004 60006 81030 92100=
07280,1996-09-02 00:00:00,10,1024.8,-0.4,76,6,20000,14.816,,,20,,,,,,,,,,,wg-a,,,,AAXX 02004 07280 12/70 00208 10100 20060 39973 40248 58004 60006 80000 90000=
07280,1996-09-02 03:00:00,9,1024.1,-0.8,81,6,20000,18.52,,,10,,,,,,,,,,,wg-a,,,,AAXX 02034 07280 12/70 00110 10090 20060 39965 40241 56008 60006 80000 90300=
07280,1996-09-02 06:00:00,10,1023.1,-0.8,82,7,500,18.52,,,20,8.7,16.4,,,,,,,,,wg-a,,,,AAXX 02064 07280 12/00 10210 10100 20070 39957 40231 56008 60006 80001 90600 333 10164 20087=
07280,1996-09-02 09:00:00,16,1022.3,-0.3,59,8,40000,31.484,,,40,,,,,,,,,,,wg-a,,,,AAXX 02094 07280 12582 /0417 10160 20080 39954 40223 58003 60006 81101 90900=
07280,1996-09-02 10:00:00,18,1019.6,-0.2,52,8,20000,22.224,,,30,10.2,19.5,,,,,,,,,wg-a,,,,AAXX 02104 07280 12770 50312 10180 20080 39929 40196 55002 60006 84501 91000 333 10195 20102=
07280,1996-09-02 12:00:00,19,1020.5,-1.4,49,8,40000,31.484,,,40,,,,,,,,,,,wg-a,,,,AAXX 02124 07280 12682 40417 10190 20080 39940 40205 56014 60006 83101 91200=
07280,1996-09-02 15:00:00,19,1019.6,-0.9,49,8,500,29.632,,,40,,,,,,,,,,,wg-a,,,,AAXX 02154 07280 12600 /0416 10190 20080 39931 40196 56009 60006 86430 91500=
07280,1996-09-02 18:00:00,18,1019.6,-0.2,52,8,20000,22.224,,,30,10.2,19.5,,,,,,,,,wg-a,,,,AAXX 02184 07280 12770 50312 10180 20080 39929 40196 55002 60006 84501 91800 333 10195 20102=
07280,1996-09-02 21:00:00,16,1019.9,0.2,59,8,15000,25.928,,,20,,,,,,,,,,,wg-a,,,,AAXX 02214 07280 12765 70214 10160 20080 39931 40199 50002 60006 87500 92100=
07280,1996-09-03 00:00:00,14,1019,-1.1,63,7,15000,18.52,,,20,,,,,,,,,,,wg-a,,,,AAXX 03004 07280 12765 30210 10140 20070 39920 40190 56011 60006 83500 90000=
07280,1996-09-03 03:00:00,14,1017.8,-1.2,63,7,15000,25.928,,,20,,,,,,,,,,,wg-a,,,,AAXX 03034 07280 12665 70214 10140 20070 39908 40178 57012 60006 87500 90300=
07280,1996-09-03 06:00:00,12,1017.6,-0.3,76,8,20000,22.224,,,20,12.3,17.6,,,,,,,,,wg-a,,,,AAXX 03064 07280 12670 /0212 10120 20080 39905 40176 58003 60006 86500 90600 333 10176 20123=
07280,1996-09-03 09:00:00,14,1017.3,-0.1,72,9,500,18.52,,,40,,,,,,,,,,,wg-a,,,,AAXX 03094 07280 12600 80410 10140 20090 39904 40173 57001 60006 885// 90900=
07280,1996-09-03 12:00:00,17,1016.4,-0.6,68,11,18000,22.224,,,70,,,,,,,,,,,wg-a,,,,AAXX 03124 07280 12568 80712 10170 20110 39898 40164 57006 60006 888// 91200=
07280,1996-09-03 15:00:00,18,1016.1,-0.2,64,11,18000,25.928,,,60,,,,,,,,,,,wg-a,,,,AAXX 03154 07280 12668 /0614 10180 20110 39896 40161 58002 60006 874// 91500=
07280,1996-09-03 18:00:00,17,1016.2,-0,72,12,20000,11.112,,,30,12.3,17.7,,,,,,,,,wg-a,,,,AAXX 03184 07280 12670 70306 10170 20120 39896 40162 54000 60006 875// 91800 333 10177 20123=
07280,1996-09-03 21:00:00,16,1015.8,-0.5,77,12,15000,11.112,,,330,,,,,,,,,,,wg-a,,,,AAXX 03214 07280 12765 73306 10160 20120 39891 40158 58005 60006 8553/ 92100=
07280,1996-09-04 00:00:00,17,1014.8,-0.8,72,12,15000,14.816,,,20,,,,,,,,,,,wg-a,,,,AAXX 04004 07280 12765 30208 10170 20120 39883 40148 58008 60006 83500 90000=
07280,1996-09-04 03:00:00,16,1014.4,-0.5,77,12,10000,22.224,,,20,,,,,,,,,,,wg-a,,,,AAXX 04034 07280 12660 70212 10160 20120 39878 40144 56005 60006 875// 90300=
07280,1996-09-04 06:00:00,15,1015.2,0.6,82,12,10000,18.52,,,30,14.5,17.4,,,,,,,,,wg-a,,,,AAXX 04064 07280 12660 70310 10150 20120 39884 40152 53006 60006 875// 90600 333 10174 20145=
07280,1996-09-04 09:00:00,18,1015.2,0.4,73,13,15000,22.224,,,40,,,,,,,,,,,wg-a,,,,AAXX 04094 07280 12665 /0412 10180 20130 39888 40152 52004 60006 86530 90900=
07280,1996-09-04 12:00:00,23,1014.7,-0.1,50,12,18000,22.224,,,40,,,,,,,,,,,wg-a,,,,AAXX 04124 07280 12668 30412 10230 20120 39887 40147 58001 60006 83100 91200=
07280,1996-09-04 15:00:00,23,1014.3,-0.4,50,12,20000,18.52,,,60,,,,,,,,,,,wg-a,,,,AAXX 04154 07280 12670 30610 10230 20120 39883 40143 58004 60006 82201 91500=
07280,1996-09-04 18:00:00,20,1014.5,-0.1,60,12,20000,11.112,,,90,14.6,23.6,,,,,,,,,wg-a,,,,AAXX 04184 07280 12670 30906 10200 20120 39882 40145 55001 60006 83200 91800 333 10236 20146=
07280,1996-09-04 21:00:00,17,1015.3,0.6,72,12,18000,11.112,,,340,,,,,,,,,,,wg-a,,,,AAXX 04214 07280 12768 13406 10170 20120 39888 40153 51006 60006 81500 92100=
07280,1996-09-05 00:00:00,17,1015.3,-0.1,77,13,18000,11.112,,,10,,,,,,,,,,,wg-a,,,,AAXX 05004 07280 12768 50106 10170 20130 39887 40153 57001 60006 85500 90000=
07280,1996-09-05 03:00:00,14,1015.4,-0.1,82,11,15000,11.112,,,350,,,,,,,,,,,wg-a,,,,AAXX 05034 07280 12/65 03506 10140 20110 39886 40154 56001 60006 80000 90300=
07280,1996-09-05 06:00:00,13,1015.8,0.3,88,11,12000,11.112,,,350,12.6,20.1,,,,,,,,,wg-a,,,,AAXX 05064 07280 12/62 03506 10130 20110 39889 40158 53003 60006 80000 90600 333 10201 20126=
07280,1996-09-05 09:00:00,18,1016,0.7,73,13,15000,11.112,,,40,,,,,,,,,,,wg-a,,,,AAXX 05094 07280 12/65 00406 10180 20130 39896 40160 53007 60006 80000 90900=
07280,1996-09-05 12:00:00,23,1014.7,-0.9,50,12,15000,18.52,,,70,,,,,,,,,,,wg-a,,,,AAXX 05124 07280 12665 30710 10230 20120 39887 40147 57009 60006 83100 91200=
07280,1996-09-05 15:00:00,24,1013.4,-1.2,47,12,20000,22.224,,,60,,,,,,,,,,,wg-a,,,,AAXX 05154 07280 12770 30612 10240 20120 39875 40134 58012 60006 83200 91500=
07280,1996-09-05 18:00:00,22,1013.8,0.2,43,9,20000,18.52,,,30,13.2,24.5,,,,,,,,,wg-a,,,,AAXX 05184 07280 12770 10310 10220 20090 39877 40138 53002 60006 81400 91800 333 10245 20132=
07280,1996-09-05 21:00:00,17,1015.7,1.4,63,10,20000,14.816,,,20,,,,,,,,,,,wg-a,,,,AAXX 05214 07280 12/70 00208 10170 20100 39891 40157 51014 60006 80000 92100=
07280,1996-09-06 00:00:00,14,1016.5,0.5,77,10,20000,14.816,,,10,,,,,,,,,,,wg-a,,,,AAXX 06004 07280 12/70 00108 10140 20100 39896 40165 51005 60006 80000 90000=
07280,1996-09-06 03:00:00,13,1016.9,0.3,72,8,20000,18.52,,,10,,,,,,,,,,,wg-a,,,,AAXX 06034 07280 12/70 00110 10130 20080 39899 40169 52003 60006 80000 90300=
07280,1996-09-06 06:00:00,12,1018.1,1,71,7,20000,14.816,,,10,11,22,,,,,,,,,wg-a,,,,AAXX 06064 07280 12/70 00108 10120 20070 39909 40181 53010 60006 80000 90600 333 10220 20110=
07280,1996-09-06 09:00:00,17,1018.3,0.8,59,9,25000,11.112,,,40,,,,,,,,,,,wg-a,,,,AAXX 06094 07280 12/75 00406 10170 20090 39917 40183 51008 60006 80000 90900=
07280,1996-09-06 12:00:00,21,1017.3,-0.7,35,5,500,18.52,,,50,,,,,,,,,,,wg-a,,,,AAXX 06124 07280 12700 10510 10210 20050 39910 40173 57007 60006 81100 91200=
07280,1996-09-06 15:00:00,22,1016.1,-1.1,25,1,40000,18.52,,,50,,,,,,,,,,,wg-a,,,,AAXX 06154 07280 12/82 00510 10220 20010 39899 40161 56011 60006 80000 91500=
07280,1996-09-06 18:00:00,20,1016.6,0.3,32,3,500,18.52,,,10,11.5,23.1,,,,,,,,,wg-a,,,,AAXX 06184 07280 12/00 00110 10200 20030 39902 40166 53003 60006 80000 91800 333 10231 20115=
07280,1996-09-07 00:00:00,12,1019.2,0.5,67,6,20000,14.816,,,20,,,,,,,,,,,wg-a,,,,AAXX 07004 07280 12/70 00208 10120 20060 39921 40192 53005 60006 80000 90000=
07280,1996-09-07 03:00:00,11,1019.3,-0.1,66,5,20000,14.816,,,30,,,,,,,,,,,wg-a,,,,AAXX 07034 07280 12/70 00308 10110 20050 39920 40193 55001 60006 80000 90300=
07280,1996-09-07 06:00:00,10,1020.8,1.4,71,5,20000,18.52,,,20,8.9,19.6,,,,,,,,,wg-a,,,,AAXX 07064 07280 12/70 00210 10100 20050 39934 40208 53014 60006 80000 90600 333 10196 20089=
07280,1996-09-07 09:00:00,15,1021.5,1.1,55,6,25000,18.52,,,30,,,,,,,,,,,wg-a,,,,AAXX 07094 07280 12675 /0310 10150 20060 39945 40215 52011 60006 81100 90900=
07280,1996-09-07 12:00:00,18,1021.2,0,34,2,40000,25.928,,,50,,,,,,,,,,,wg-a,,,,AAXX 07124 07280 12/82 00514 10180 20020 39945 40212 50000 60006 80000 91200=
07280,1996-09-07 15:00:00,19,1020.4,-0.7,28,0,50000,29.632,,,50,,,,,,,,,,,wg-a,,,,AAXX 07154 07280 12/84 00516 10190 20000 39938 40204 56007 60006 80000 91500=
07280,1996-09-07 18:00:00,16,1021.2,0.5,42,3,50000,11.112,,,50,9.6,19.5,,,,,,,,,wg-a,,,,AAXX 07184 07280 12/84 00506 10160 20030 39943 40212 53005 60006 80000 91800 333 10195 20096=
07280,1996-09-07 21:00:00,12,1022.2,0.6,50,2,500,14.816,,,10,,,,,,,,,,,wg-a,,,,AAXX 07214 07280 12/00 00108 10120 20020 39949 40222 51006 60006 80000 92100=
07280,1996-09-08 00:00:00,9,1022.1,-0.3,61,2,20000,18.52,,,10,,,,,,,,,,,wg-a,,,,AAXX 08004 07280 12/70 00110 10090 20020 39946 40221 56003 60006 80000 90000=
07280,1996-09-08 03:00:00,8,1021.5,-0.7,61,1,20000,18.52,,,20,,,,,,,,,,,wg-a,,,,AAXX 08034 07280 12/70 00210 10080 20010 39939 40215 58007 60006 80000 90300=
07280,1996-09-08 06:00:00,8,1021.4,-0.1,66,2,50000,14.816,,,20,6.5,15.9,,,,,,,,,wg-a,,,,AAXX 08064 07280 12/84 10208 10080 20020 39938 40214 58001 60006 80001 90600 333 10159 20065=
07280,1996-09-08 09:00:00,14,1020.6,-0.2,55,5,500,22.224,,,50,,,,,,,,,,,wg-a,,,,AAXX 08094 07280 12/00 10512 10140 20050 39936 40206 58002 60006 80001 90900=
07280,1996-09-08 12:00:00,18,1019,-1.3,37,3,35000,22.224,,,50,,,,,,,,,,,wg-a,,,,AAXX 08124 07280 12/81 10512 10180 20030 39923 40190 58013 60006 80001 91200=
07280,1996-09-08 15:00:00,19,1017.8,-1,37,4,40000,29.632,,,30,,,,,,,,,,,wg-a,,,,AAXX 08154 07280 12782 10316 10190 20040 39913 40178 56010 60006 81100 91500=
07280,1996-09-08 18:00:00,16,1018.3,0.2,42,3,40000,25.928,,,30,7.9,19.3,,,,,,,,,wg-a,,,,AAXX 08184 07280 12782 40314 10160 20030 39915 40183 53002 60006 815/1 91800 333 10193 20079=
07280,1996-09-08 21:00:00,12,1019.3,0.6,54,3,20000,18.52,,,20,,,,,,,,,,,wg-a,,,,AAXX 08214 07280 12770 50210 10120 20030 39921 40193 51006 60006 825/2 92100=
07280,1996-09-09 00:00:00,12,1018.7,-0.6,54,3,15000,18.52,,,30,,,,,,,,,,,wg-a,,,,AAXX 09004 07280 12765 50310 10120 20030 39915 40187 58006 60006 835/2 90000=
07280,1996-09-09 03:00:00,11,1018,-0.7,62,4,15000,22.224,,,30,,,,,,,,,,,wg-a,,,,AAXX 09034 07280 12765 70312 10110 20040 39908 40180 58007 60006 845/2 90300=
07280,1996-09-09 06:00:00,10,1019.4,1.2,76,6,20000,22.224,,,30,9.8,15.9,,,,,,,,,wg-a,,,,AAXX 09064 07280 12/70 30312 10100 20060 39920 40194 53012 60006 82031 90600 333 10159 20098=
07280,1996-09-09 09:00:00,15,1019.6,0.7,51,5,500,25.928,,,50,,,,,,,,,,,wg-a,,,,AAXX 09094 07280 12500 10514 10150 20050 39927 40196 53007 60006 81100 90900=
07280,1996-09-09 12:00:00,18,1018.8,-0.5,39,4,40000,25.928,,,50,,,,,,,,,,,wg-a,,,,AAXX 09124 07280 12782 20514 10180 20040 39922 40188 56005 60006 82200 91200=
07280,1996-09-09 15:00:00,18,1017.9,-0.8,37,3,40000,25.928,,,50,,,,,,,,,,,wg-a,,,,AAXX 09154 07280 12782 20514 10180 20030 39913 40179 58008 60006 82200 91500=
07280,1996-09-09 18:00:00,16,1018.5,0.4,42,3,500,18.52,,,40,10.1,19.2,,,,,,,,,wg-a,,,,AAXX 09184 07280 12700 10410 10160 20030 39917 40185 53004 60006 81500 91800 333 10192 20101=
07280,1996-09-09 21:00:00,12,1020.2,1.3,58,4,500,18.52,,,10,,,,,,,,,,,wg-a,,,,AAXX 09214 07280 12/00 00110 10120 20040 39930 40202 51013 60006 80000 92100=
07280,1996-09-10 00:00:00,9,1020.8,0.3,71,4,25000,14.816,,,350,,,,,,,,,,,wg-a,,,,AAXX 10004 07280 12/75 03508 10090 20040 39933 40208 51003 60006 80000 90000=
07280,1996-09-10 03:00:00,8,1020.1,-0.8,71,3,25000,14.816,,,10,,,,,,,,,,,wg-a,,,,AAXX 10034 07280 12/75 00108 10080 20030 39925 40201 58008 60006 80000 90300=
07280,1996-09-10 06:00:00,9,1020.3,0.3,71,4,25000,14.816,,,10,7.3,15.8,,,,,,,,,wg-a,,,,AAXX 10064 07280 02/75 40108 10090 20040 39928 40203 53003 60006 80001 90600 333 10158 20073 60004=
07280,1996-09-10 09:00:00,15,1020.4,0.7,51,5,25000,11.112,,,50,,,,,,,,,,,wg-a,,,,AAXX 10094 07280 12/75 40506 10150 20050 39935 40204 51007 60006 80001 90900=
07280,1996-09-10 12:00:00,19,1018.7,-1.3,37,4,500,14.816,,,60,,,,,,,,,,,wg-a,,,,AAXX 10124 07280 12700 60608 10190 20040 39922 40187 58013 60006 81101 91200=
07280,1996-09-10 15:00:00,20,1017.1,-1.5,40,6,35000,18.52,,,50,,,,,,,,,,,wg-a,,,,AAXX 10154 07280 12781 50510 10200 20060 39907 40171 56015 60006 824/1 91500=
07280,1996-09-10 18:00:00,17,1017.3,-0,48,6,500,3.704,,,80,8.6,20.3,,,,,,,,,wg-a,,,,AAXX 10184 07280 12/00 50802 10170 20060 39907 40173 55000 60006 85030 91800 333 10203 20086=
07280,1996-09-10 21:00:00,13,1018.7,1,67,7,20000,14.816,,,360,,,,,,,,,,,wg-a,,,,AAXX 10214 07280 12/70 03608 10130 20070 39917 40187 51010 60006 80000 92100=
07280,1996-09-11 00:00:00,11,1018.5,-0.5,76,7,20000,11.112,,,340,,,,,,,,,,,wg-a,,,,AAXX 11004 07280 12/70 03406 10110 20070 39912 40185 58005 60006 80000 90000=
07280,1996-09-11 03:00:00,9,1018,-0.6,87,7,20000,7.408,,,350,,,,,,,,,,,wg-a,,,,AAXX 11034 07280 12/70 03504 10090 20070 39906 40180 58006 60006 80000 90300=
07280,1996-09-11 06:00:00,9,1017.8,-0.2,87,7,12000,7.408,,,340,8.3,17.1,,,,,,,,,wg-a,,,,AAXX 11064 07280 02/62 13404 10090 20070 39904 40178 55002 60006 81030 90600 333 10171 20083 60004=
07280,1996-09-11 09:00:00,16,1016.9,-0.3,63,9,15000,11.112,,,30,,,,,,,,,,,wg-a,,,,AAXX 11094 07280 12565 20306 10160 20090 39901 40169 58003 60006 82800 90900=
07280,1996-09-11 12:00:00,19,1015,-1.5,49,8,20000,11.112,,,50,,,,,,,,,,,wg-a,,,,AAXX 11124 07280 12670 50506 10190 20080 39886 40150 56015 60006 85800 91200=
07280,1996-09-11 15:00:00,18,1013.3,-1.7,49,7,25000,7.408,,,20,,,,,,,,,,,wg-a,,,,AAXX 11154 07280 12675 70204 10180 20070 39869 40133 58017 60006 878// 91500=
07280,1996-09-11 18:00:00,16,1013,-0.5,55,7,25000,18.52,,,20,8.6,19,,,,,,,,,wg-a,,,,AAXX 11184 07280 12675 /0210 10160 20070 39864 40130 58005 60006 85800 91800 333 10190 20086=
07280,1996-09-11 21:00:00,14,1013.7,0.5,67,8,25000,11.112,,,350,,,,,,,,,,,wg-a,,,,AAXX 11214 07280 12775 63506 10140 20080 39869 40137 51005 60006 86500 92100=
07280,1996-09-12 00:00:00,11,1013.1,-0.9,82,8,20000,14.816,,,340,,,,,,,,,,,wg-a,,,,AAXX 12004 07280 12770 23408 10110 20080 39860 40131 58009 60006 82500 90000=
07280,1996-09-12 03:00:00,9,1011.6,-1.6,87,7,20000,11.112,,,330,,,,,,,,,,,wg-a,,,,AAXX 12034 07280 12/70 03306 10090 20070 39844 40116 56016 60006 80000 90300=
07280,1996-09-12 06:00:00,8,1011.5,-0.2,93,7,15000,7.408,,,330,7.8,16.2,,,,,,,,,wg-a,,,,AAXX 12064 07280 02/65 13304 10080 20070 39842 40115 55002 60006 80001 90600 333 10162 20078 60004=
07280,1996-09-12 12:00:00,18,1008,-1.8,45,6,500,7.408,,,310,,,,,,,,,,,wg-a,,,,AAXX 12124 07280 12600 /3104 10180 20060 39817 40080 58018 60006 86201 91200=
07280,1996-09-12 15:00:00,17,1007.7,,52,7,25000,22.224,,,320,,,,,,,,,,,wg-a,,,,AAXX 12154 07280 12675 /3212 10170 20070 39813 40077 60006 8587/ 91500=
07280,1996-09-12 18:00:00,15,1007.8,-0.1,67,9,12000,18.52,,,310,,17.9,,,,,,,,1,wg-a,,,,AAXX 12184 07280 32662 73110 10150 20090 39812 40078 57001 70182 8687/ 91800 333 10179=
07280,1996-09-12 21:00:00,12,1009.4,1.3,76,8,12000,14.816,,,330,,,,,,,,,,21,wg-a,,,,AAXX 12214 07280 32762 /3308 10120 20080 39825 40094 52013 72162 84500 92100=
07280,1996-09-13 00:00:00,11,1009.3,,82,8,15000,14.816,,,310,,,,,,,,,,,wg-a,,,,AAXX 13004 07280 32665 33108 10110 20080 39823 40093 83500 90000=
07280,1996-09-13 03:00:00,10,1011.5,2.1,82,7,15000,14.816,,,320,,,,,,,,,,,wg-a,,,,AAXX 13034 07280 32665 /3208 10100 20070 39844 40115 52021 86500 90300=
07280,1996-09-13 06:00:00,9,1012.5,0.8,81,6,20000,7.408,,,310,8.5,18.4,,,,,,,,,wg-a,,,,AAXX 13064 07280 32470 43104 10090 20060 39852 40125 52008 83230 90600 333 10184 20085=
07280,1996-09-13 09:00:00,11,1013.5,1.2,76,7,20000,18.52,,,320,,,,,,,,,,,wg-a,,,,AAXX 13094 07280 32570 73210 10110 20070 39864 40135 52012 8527/ 90900=
07280,1996-09-13 10:00:00,11,1016.3,2.1,76,7,20000,18.52,,,330,8.5,15.7,,,,,,,,80,wg-a,,,,AAXX 13104 07280 02670 73310 10110 20070 39864 40163 53021 61000 78086 878// 91000 333 10157 20085 ////=
07280,1996-09-13 12:00:00,14,1013.4,,51,4,500,29.632,,,320,,,,,,,,,,,wg-a,,,,AAXX 13124 07280 32600 /3216 10140 20040 39866 40134 85280 91200=
07280,1996-09-13 15:00:00,15,1013.9,0.5,55,6,500,25.928,,,310,,,,,,,,,,,wg-a,,,,AAXX 13154 07280 12500 /3114 10150 20060 39871 40139 52005 60006 83200 91500=
07280,1996-09-13 18:00:00,12,1016.3,2.1,76,8,20000,18.52,,,330,,,,,,,,,,80,wg-a,,,,AAXX 13184 07280 02670 73310 10120 20080 39892 40163 53021 61000 78086 878// 91800 333 ////=
07280,1996-09-13 21:00:00,12,1017.6,1.3,71,7,20000,18.52,,,320,,,,0,,,,,,1,wg-a,,,,AAXX 13214 07280 12770 43210 10120 20070 39905 40176 51013 60007 70186 84500 92100=
07280,1996-09-14 00:00:00,10,1018.9,1.1,82,7,20000,14.816,,,330,,,,,,,,,,1,wg-a,,,,AAXX 14004 07280 12/70 13308 10100 20070 39916 40189 52011 60006 70186 81030 90000=
07280,1996-09-14 03:00:00,9,1019.7,0.6,87,7,20000,7.408,,,340,,,,,,,,,,,wg-a,,,,AAXX 14034 07280 12470 /3404 10090 20070 39922 40197 53006 60006 81800 90300=
07280,1996-09-14 06:00:00,8,1021.3,1.5,93,7,15000,7.408,,,120,8.5,15.7,,,,,,,,,wg-a,,,,AAXX 14064 07280 12465 71204 10080 20070 39937 40213 53015 60004 878// 90600 333 10157 20085=
07280,1996-09-14 09:00:00,12,1021.9,1,82,9,20000,11.112,,,310,,,,,,,,,,,wg-a,,,,AAXX 14094 07280 12570 73106 10120 20090 39947 40219 52010 60006 878// 90900=
07280,1996-09-14 12:00:00,15,1021.8,0.2,67,9,20000,7.408,,,20,,,,,,,,,,,wg-a,,,,AAXX 14124 07280 12670 /0204 10150 20090 39949 40218 50002 60006 86200 91200=
07280,1996-09-14 15:00:00,17,1021.1,-0.6,55,8,25000,7.408,,,40,,,,,,,,,,,wg-a,,,,AAXX 14154 07280 12675 70404 10170 20080 39943 40211 57006 60006 878// 91500=
07280,1996-09-14 18:00:00,14,1021.5,0.1,58,6,25000,11.112,,,350,8,16.7,,,,,,,,,wg-a,,,,AAXX 14184 07280 12775 23506 10140 20060 39944 40215 53001 60006 82500 91800 333 10167 20080=
07280,1996-09-14 21:00:00,11,1022.5,0.7,76,7,20000,14.816,,,10,,,,,,,,,,,wg-a,,,,AAXX 14214 07280 12/70 00108 10110 20070 39951 40225 51007 60006 80000 92100=
07280,1996-09-15 00:00:00,9,1022.8,0.1,87,7,20000,11.112,,,330,,,,,,,,,,,wg-a,,,,AAXX 15004 07280 12/70 03306 10090 20070 39952 40228 52001 60006 80000 90000=
07280,1996-09-15 03:00:00,8,1022.3,-0.5,93,7,20000,11.112,,,10,,,,,,,,,,,wg-a,,,,AAXX 15034 07280 12/70 00106 10080 20070 39947 40223 57005 60006 80000 90300=
07280,1996-09-15 06:00:00,8,1022.3,-0,93,7,15000,14.816,,,340,7.7,13.6,,,,,,,,,wg-a,,,,AAXX 15064 07280 02/65 13408 10080 20070 39947 40223 55000 60006 80001 90600 333 10136 20077 60004=
07280,1996-09-15 09:00:00,14,1022.5,0.8,77,10,18000,22.224,,,30,,,,,,,,,,,wg-a,,,,AAXX 15094 07280 12568 /0312 10140 20100 39955 40225 51008 60006 81100 90900=
07280,1996-09-15 12:00:00,18,1021.7,-0.5,52,8,25000,18.52,,,360,,,,,,,,,,,wg-a,,,,AAXX 15124 07280 12675 /3610 10180 20080 39950 40217 56005 60006 85200 91200=
07280,1996-09-15 15:00:00,17,1021.7,-0.1,48,6,25000,22.224,,,30,,,,,,,,,,,wg-a,,,,AAXX 15154 07280 12775 70312 10170 20060 39949 40217 55001 60006 878// 91500=
07280,1996-09-15 18:00:00,14,1021.9,-0,58,6,25000,14.816,,,30,8.3,18.3,,,,,,,,,wg-a,,,,AAXX 15184 07280 12775 20308 10140 20060 39949 40219 55000 60006 82500 91800 333 10183 20083=
07280,1996-09-15 21:00:00,12,1022.8,0.6,67,6,25000,14.816,,,10,,,,,,,,,,,wg-a,,,,AAXX 15214 07280 12775 60108 10120 20060 39955 40228 51006 60006 86500 92100=
07280,1996-09-16 00:00:00,9,1022.8,-0.2,81,6,20000,14.816,,,10,,,,,,,,,,,wg-a,,,,AAXX 16004 07280 12/70 00108 10090 20060 39953 40228 58002 60006 80000 90000=
07280,1996-09-16 03:00:00,9,1021.9,-1,81,6,20000,14.816,,,10,,,,,,,,,,,wg-a,,,,AAXX 16034 07280 12/70 00108 10090 20060 39943 40219 56010 60006 80000 90300=
07280,1996-09-16 06:00:00,8,1021.6,-0.3,87,6,15000,22.224,,,20,7.5,14.4,,,,,,,,,wg-a,,,,AAXX 16064 07280 02/65 10212 10080 20060 39940 40216 57003 60006 80001 90600 333 10144 20075 60004=
07280,1996-09-16 09:00:00,14,1020.8,-0.2,67,8,25000,29.632,,,50,,,,,,,,,,,wg-a,,,,AAXX 16094 07280 12575 /0516 10140 20080 39938 40208 58002 60006 81101 90900=
07280,1996-09-16 12:00:00,18,1019,-1.4,42,5,500,25.928,,,60,,,,,,,,,,,wg-a,,,,AAXX 16124 07280 12600 /0614 10180 20050 39924 40190 56014 60006 81101 91200=
07280,1996-09-16 15:00:00,19,1017.4,-1.5,40,5,500,29.632,,,60,,,,,,,,,,,wg-a,,,,AAXX 16154 07280 12/00 00616 10190 20050 39909 40174 56015 60006 80000 91500=
07280,1996-09-16 18:00:00,15,1017,-0.7,55,6,500,14.816,,,70,8.1,19.5,,,,,,,,,wg-a,,,,AAXX 16184 07280 12/00 00708 10150 20060 39902 40170 56007 60006 80000 91800 333 10195 20081=
07280,1996-09-16 21:00:00,12,1016.6,-0.7,62,5,25000,14.816,,,20,,,,,,,,,,,wg-a,,,,AAXX 16214 07280 12/75 00208 10120 20050 39895 40166 58007 60006 80000 92100=
07280,1996-09-17 00:00:00,10,1016.1,-0.7,71,5,25000,18.52,,,30,,,,,,,,,,,wg-a,,,,AAXX 17004 07280 12/75 00310 10100 20050 39888 40161 58007 60006 80000 90000=
07280,1996-09-17 03:00:00,7,1015.3,-1,81,4,15000,11.112,,,360,,,,,,,,,,,wg-a,,,,AAXX 17034 07280 12/65 03606 10070 20040 39878 40153 57010 60006 80000 90300=
07280,1996-09-17 06:00:00,7,1014.6,-0.8,81,4,20000,14.816,,,360,6.3,15.4,,,,,,,,,wg-a,,,,AAXX 17064 07280 02/70 13608 10070 20040 39870 40146 56008 60006 81030 90600 333 10154 20063 60004=
07280,1996-09-17 09:00:00,13,1013.6,-0.4,62,6,20000,14.816,,,30,,,,,,,,,,,wg-a,,,,AAXX 17094 07280 12/70 00308 10130 20060 39866 40136 57004 60006 80000 90900=
07280,1996-09-17 12:00:00,19,1011.5,-1.4,52,9,25000,14.816,,,80,,,,,,,,,,,wg-a,,,,AAXX 17124 07280 12675 10808 10190 20090 39852 40115 58014 60006 81100 91200=
07280,1996-09-17 15:00:00,20,1010,-1.4,49,9,25000,14.816,,,80,,,,,,,,,,,wg-a,,,,AAXX 17154 07280 12775 /0808 10200 20090 39838 40100 56014 60006 81101 91500=
07280,1996-09-18 00:00:00,9,1011,-0.2,71,4,15000,18.52,,,350,,,,,,,,,,,wg-a,,,,AAXX 18004 07280 12/65 03510 10090 20040 39838 40110 57002 60006 80000 90000=
07280,1996-09-18 06:00:00,7,1009.7,-0.7,81,4,12000,14.816,,,10,6.3,16.2,,,,,,,,,wg-a,,,,AAXX 18064 07280 02/62 20108 10070 20040 39823 40097 56007 60006 80002 90600 333 10162 20063 60004=
07280,1996-09-18 09:00:00,12,1008.9,-0.3,67,6,12000,14.816,,,40,,,,,,,,,,,wg-a,,,,AAXX 18094 07280 12/62 20408 10120 20060 39820 40089 56003 60006 82030 90900=
07280,1996-09-18 12:00:00,17,1006.5,-1.5,55,8,15000,11.112,,,50,,,,,,,,,,,wg-a,,,,AAXX 18124 07280 12/65 30506 10170 20080 39805 40065 58015 60006 83030 91200=
07280,1996-09-18 15:00:00,18,1005,-1.7,56,9,20000,14.816,,,50,,,,,,,,,,,wg-a,,,,AAXX 18154 07280 12/70 10508 10180 20090 39788 40050 58017 60006 81030 91500=
07280,1996-09-18 18:00:00,16,1005.2,-0,68,10,12000,14.816,,,60,6.8,18.5,,,,,,,,,wg-a,,,,AAXX 18184 07280 12662 80608 10160 20100 39788 40052 55000 60006 83531 91800 333 10185 20068=
07280,1996-09-18 21:00:00,12,1005.9,0.3,88,10,12000,14.816,,,20,,,,0,,,,,,1,wg-a,,,,AAXX 18214 07280 12662 80208 10120 20100 39791 40059 51003 60007 70162 8357/ 92100=
07280,1996-09-19 00:00:00,11,1005.4,-0.6,94,10,500,11.112,,,10,,,,3,,,,,,61,wg-a,,,,AAXX 19004 07280 02500 80106 10110 20100 39785 40054 58006 60046 76162 8477/ 90000 333 60037=
07280,1996-09-19 03:00:00,11,1004.5,-0.9,94,10,4000,7.408,,,50,,,,2,,,,,,10,wg-a,,,,AAXX 19034 07280 12140 80504 10110 20100 39776 40045 57009 60027 710// 885// 90300=
07280,1996-09-19 06:00:00,11,1004.4,-0.1,94,10,3000,11.112,,,30,10.4,15.7,,1,,,7,,,10,wg-a,,,,AAXX 19064 07280 02130 /0306 10110 20100 39775 40044 55001 60074 71062 875// 90600 333 10157 20104 60017=
07280,1996-09-19 09:00:00,14,1004.3,0.2,82,11,8000,18.52,,,30,,,,,,,,,,,wg-a,,,,AAXX 19094 07280 12458 70310 10140 20110 39777 40043 50002 60006 8383/ 90900=
07280,1996-09-19 12:00:00,18,1003.2,,64,11,12000,22.224,,,60,,,,,,,,,,,wg-a,,,,AAXX 19124 07280 12762 70612 10180 20110 39770 40032 60006 83532 91200=
07280,1996-09-19 15:00:00,18,1003,-0.1,59,10,18000,7.408,,,140,,,,,,,,,,1,wg-a,,,,AAXX 19154 07280 02768 81404 10180 20100 39769 40030 55001 61000 70162 8652/ 91500 333 ////=
07280,1996-09-19 18:00:00,15,1004.2,0.9,88,13,8000,14.816,,,210,10.5,19.3,,0,,,,,,60,wg-a,,,,AAXX 19184 07280 12658 82108 10150 20130 39778 40042 53009 60007 76062 8657/ 91800 333 10193 20105=
07280,1996-09-19 21:00:00,13,1005.3,0.9,100,13,7000,7.408,,,150,,,,2,,,,,,61,wg-a,,,,AAXX 19214 07280 12657 81504 10130 20130 39787 40053 51009 60027 76166 875// 92100=
07280,1996-09-20 00:00:00,13,1005.3,-0.1,94,12,6000,11.112,,,260,,,,2,,,,,,61,wg-a,,,,AAXX 20004 07280 02256 82606 10130 20120 39786 40053 56001 60046 76166 877// 90000 333 60027=
07280,1996-09-20 03:00:00,11,1005.9,0.4,94,10,15000,7.408,,,140,,,,2,,,,,,21,wg-a,,,,AAXX 20034 07280 12265 81404 10110 20100 39790 40059 50004 60027 72162 875// 90300=
07280,1996-09-20 06:00:00,10,1006.7,0.7,93,9,9000,11.112,,,200,9.5,15.1,,0,,,7,,,3,wg-a,,,,AAXX 20064 07280 02259 42006 10100 20090 39797 40067 51007 60074 70361 83531 90600 333 10151 20095 60007=
07280,1996-09-20 09:00:00,12,1006.9,0.4,88,10,12000,11.112,,,190,,,,,,,,,,,wg-a,,,,AAXX 20094 07280 12262 /1906 10120 20100 39801 40069 51004 60006 84100 90900=
07280,1996-09-20 12:00:00,15,1005.4,-1.2,59,7,15000,11.112,,,200,,,,,,,,,,,wg-a,,,,AAXX 20124 07280 12565 42006 10150 20070 39789 40054 56012 60006 84200 91200=
07280,1996-09-20 15:00:00,15,1005.2,-0.2,55,6,15000,11.112,,,220,,,,,,,,,,,wg-a,,,,AAXX 20154 07280 12665 72206 10150 20060 39787 40052 58002 60006 878// 91500=
07280,1996-09-20 18:00:00,13,1005.2,-0.2,77,9,15000,11.112,,,40,9.4,15.9,,,,,,,,,wg-a,,,,AAXX 20184 07280 12865 30406 10130 20090 39785 40052 58002 60006 83030 91800 333 10159 20094=
07280,1996-09-20 21:00:00,10,1005.7,0.2,87,8,15000,3.704,,,320,,,,,,,,,,,wg-a,,,,AAXX 20214 07280 12865 13202 10100 20080 39787 40057 52002 60006 81030 92100=
07280,1996-09-21 00:00:00,9,1004.7,-1.1,87,7,12000,11.112,,,340,,,,,,,,,,,wg-a,,,,AAXX 21004 07280 12762 43406 10090 20070 39776 40047 56011 60006 84500 90000=
07280,1996-09-21 03:00:00,7,1003.8,-1,93,6,10000,7.408,,,340,,,,,,,,,,,wg-a,,,,AAXX 21034 07280 12/60 03404 10070 20060 39766 40038 58010 60006 80000 90300=
07280,1996-09-21 06:00:00,7,1003.6,-0.2,100,7,200,11.112,,,10,6.4,12.6,,,,,,,,43,wg-a,,,,AAXX 21064 07280 02/02 90106 10070 20070 39764 40036 55002 60006 74341 89/// 90600 333 10126 20064 60004=
07280,1996-09-21 09:00:00,8,1003.9,0.4,100,8,4000,14.816,,,10,,,,,,,,,,10,wg-a,,,,AAXX 21094 07280 12140 80108 10080 20080 39768 40039 51004 60006 71042 886// 90900=
07280,1996-09-21 12:00:00,14,1002.9,-0.4,77,10,11000,3.704,,,360,,,,,,,,,,3,wg-a,,,,AAXX 21124 07280 12461 73602 10140 20100 39764 40029 56004 60006 70342 8317/ 91200=
07280,1996-09-21 15:00:00,16,1001.9,-0.8,68,10,20000,7.408,,,40,,,,,,,,,,,wg-a,,,,AAXX 21154 07280 12570 /0404 10160 20100 39756 40019 56008 60006 85880 91500=
07280,1996-09-21 18:00:00,15,1002.4,0.4,72,10,15000,7.408,,,50,7.1,16.5,,,,,,,,,wg-a,,,,AAXX 21184 07280 12765 70504 10150 20100 39760 40024 53004 60006 875// 91800 333 10165 20071=
07280,1996-09-21 21:00:00,12,1003.7,0.9,82,9,15000,14.816,,,10,,,,,,,,,,,wg-a,,,,AAXX 21214 07280 12/65 20108 10120 20090 39769 40037 51009 60006 82030 92100=
07280,1996-09-22 00:00:00,11,1003.7,-0.1,87,9,10000,14.816,,,10,,,,,,,,,,,wg-a,,,,AAXX 22004 07280 12/60 50108 10110 20090 39768 40037 58001 60006 85030 90000=
07280,1996-09-22 03:00:00,9,1003.9,0.1,93,8,8000,11.112,,,340,,,,,,,,,,,wg-a,,,,AAXX 22034 07280 12/58 /3406 10090 20080 39769 40039 50001 60006 81030 90300=
07280,1996-09-22 06:00:00,8,1005.1,1.1,100,8,2500,18.52,,,350,8.2,15.2,,,,,,,,10,wg-a,,,,AAXX 22064 07280 02125 83510 10080 20080 39780 40051 53011 60006 71011 886// 90600 333 10152 20082 60004=
07280,1996-09-22 09:00:00,11,1005.6,0.7,87,9,7000,22.224,,,360,,,,,,,,,,,wg-a,,,,AAXX 22094 07280 12457 83612 10110 20090 39787 40056 53007 60006 886// 90900=
07280,1996-09-22 12:00:00,13,1005.9,0.5,77,9,11000,22.224,,,350,,,,,,,,,,,wg-a,,,,AAXX 22124 07280 12461 83512 10130 20090 39792 40059 51005 60006 888// 91200=
07280,1996-09-22 15:00:00,13,1006.1,0.2,72,8,11000,18.52,,,350,,,,,,,,,,,wg-a,,,,AAXX 22154 07280 12461 83510 10130 20080 39794 40061 50002 60006 888// 91500=
07280,1996-09-22 18:00:00,12,1007.9,1.6,76,8,10000,14.816,,,330,8.4,12.8,,,,,,,,,wg-a,,,,AAXX 22184 07280 12560 83308 10120 20080 39810 40079 53016 60006 888// 91800 333 10128 20084=
07280,1996-09-22 21:00:00,11,1008.7,0.7,82,8,12000,14.816,,,330,,,,,,,,,,,wg-a,,,,AAXX 22214 07280 12562 /3308 10110 20080 39817 40087 50007 60006 86800 92100=
07280,1996-09-23 00:00:00,9,1008.7,-0.1,87,7,10000,11.112,,,320,,,,,,,,,,,wg-a,,,,AAXX 23004 07280 12760 53206 10090 20070 39816 40087 57001 60006 82530 90000=
07280,1996-09-23 03:00:00,10,1008.9,0.2,82,7,10000,11.112,,,330,,,,,,,,,,,wg-a,,,,AAXX 23034 07280 12760 73306 10100 20070 39818 40089 53002 60006 875// 90300=
07280,1996-09-23 06:00:00,9,1009.5,0.6,87,7,10000,7.408,,,10,8.9,11.5,,,,,,,,,wg-a,,,,AAXX 23064 07280 02760 70104 10090 20070 39824 40095 53006 60006 8353/ 90600 333 10115 20089 60004=
07280,1996-09-23 09:00:00,12,1009.9,0.6,71,7,10000,3.704,,,220,,,,,,,,,,,wg-a,,,,AAXX 23094 07280 12560 52202 10120 20070 39830 40099 51006 60006 85800 90900=
07280,1996-09-23 12:00:00,13,1009.8,0,67,7,15000,7.408,,,330,,,,,,,,,,,wg-a,,,,AAXX 23124 07280 12665 73304 10130 20070 39830 40098 50000 60006 87800 91200=
07280,1996-09-23 15:00:00,13,1010,0.2,62,6,15000,7.408,,,310,,,,,,,,,,,wg-a,,,,AAXX 23154 07280 12665 83104 10130 20060 39832 40100 53002 60006 888// 91500=
07280,1996-09-23 18:00:00,12,1011.1,1,71,7,9000,7.408,,,260,,13.8,,,,,,,,,wg-a,,,,AAXX 23184 07280 12659 82604 10120 20070 39842 40111 53010 60006 888// 91800 333 10138=
07280,1996-09-23 21:00:00,11,1012.1,0.8,82,8,9000,7.408,,,250,,,,,,,,,,,wg-a,,,,AAXX 23214 07280 12559 82504 10110 20080 39850 40121 51008 60006 888// 92100=
07280,1996-09-24 00:00:00,11,1011.8,-0.3,82,8,6000,11.112,,,210,,,,,,,,,,,wg-a,,,,AAXX 24004 07280 12656 72106 10110 20080 39847 40118 57003 60006 878// 90000=
07280,1996-09-24 03:00:00,9,1011.6,-0.3,93,8,6000,7.408,,,200,,,,,,,,,,,wg-a,,,,AAXX 24034 07280 12856 82004 10090 20080 39844 40116 58003 60006 8557/ 90300=
07280,1996-09-24 06:00:00,9,1012.1,0.4,93,8,6000,7.408,,,180,8.7,11.9,,,,,,,,,wg-a,,,,AAXX 24064 07280 02656 71804 10090 20080 39848 40121 53004 60006 875// 90600 333 10119 20087 60004=
07280,1996-09-24 09:00:00,12,1012.4,0.6,76,8,12000,7.408,,,240,,,,0,,,,,,,wg-a,,,,AAXX 24094 07280 12462 82404 10120 20080 39854 40124 52006 60007 8687/ 90900=
07280,1996-09-24 12:00:00,15,1012,-0.1,67,9,15000,7.408,,,240,,,,,,,36,,,,wg-a,,,,AAXX 24124 07280 12565 62404 10150 20090 39853 40120 58001 64364 82230 91200=
07280,1996-09-24 15:00:00,14,1011.8,-0.2,72,9,15000,7.408,,,220,,,,,,,,,,25,wg-a,,,,AAXX 24154 07280 02565 /2204 10140 20090 39851 40118 56002 61000 72586 86800 91500 333 ////=
07280,1996-09-24 18:00:00,13,1012.8,0.8,72,8,20000,3.704,,,10,8.7,15.2,,,,,,,,1,wg-a,,,,AAXX 24184 07280 32670 30102 10130 20080 39859 40128 53008 70186 83800 91800 333 10152 20087=
07280,1996-09-24 21:00:00,9,1013.6,0.4,87,7,10000,3.704,,,240,,,,,,,,,,,wg-a,,,,AAXX 24214 07280 12760 72402 10090 20070 39863 40136 50004 60006 875// 92100=
07280,1996-09-25 00:00:00,7,1013,-0.8,93,6,4000,3.704,,,20,,,,,,,,,,10,wg-a,,,,AAXX 25004 07280 12/40 00202 10070 20060 39855 40130 56008 60006 71011 80000 90000=
07280,1996-09-25 03:00:00,5,1012,-1.1,100,5,3000,7.408,,,20,,,,,,,,,,10,wg-a,,,,AAXX 25034 07280 12230 20204 10050 20050 39844 40120 58011 60006 71000 82600 90300=
07280,1996-09-25 06:00:00,5,1011.9,-0.1,100,5,100,7.408,,,20,4.4,12.5,,,,,,,,45,wg-a,,,,AAXX 25064 07280 02/01 90204 10050 20050 39843 40119 55001 60006 74541 89/// 90600 333 10125 20044 61000=
07280,1996-09-25 09:00:00,7,1012.4,0.7,100,7,1000,3.704,,,40,,,,,,,,,,28,wg-a,,,,AAXX 25094 07280 12110 90402 10070 20070 39850 40124 53007 60006 72842 896// 90900=
07280,1996-09-25 12:00:00,13,1011.6,-0.3,77,9,9000,11.112,,,200,,,,,,,,,,1,wg-a,,,,AAXX 25124 07280 12459 72006 10130 20090 39847 40116 58003 60006 70142 82102 91200=
07280,1996-09-25 15:00:00,14,1011.5,0.1,72,9,13000,11.112,,,170,,,,,,,,,,,wg-a,,,,AAXX 25154 07280 12563 81706 10140 20090 39848 40115 53001 60006 8387/ 91500=
07280,1996-09-25 18:00:00,13,1013.1,1.5,77,9,15000,3.704,,,150,5.4,14.6,,,,,,,,,wg-a,,,,AAXX 25184 07280 12765 71502 10130 20090 39863 40131 53015 60006 875// 91800 333 10146 20054=
07280,1996-09-25 21:00:00,11,1015.7,2.2,87,9,12000,7.408,,,10,,,,,,,,,,,wg-a,,,,AAXX 25214 07280 12762 70104 10110 20090 39885 40157 52022 60006 875// 92100=
07280,1996-09-26 00:00:00,8,1017.2,1.2,93,7,7000,7.408,,,320,,,,,,,,,,,wg-a,,,,AAXX 26004 07280 12/57 /3204 10080 20070 39897 40172 51012 60006 81030 90000=
07280,1996-09-26 03:00:00,6,1018.5,1,93,5,500,3.704,,,30,,,,,,,,,,,wg-a,,,,AAXX 26034 07280 12/00 00302 10060 20050 39907 40185 53010 60006 80000 90300=
07280,1996-09-26 06:00:00,3,1020.2,1.5,100,3,3000,0,,,0,3.4,13.4,,,,,,,,10,wg-a,,,,AAXX 26064 07280 02230 20000 10030 20030 39922 40202 53015 60006 71000 81630 90600 333 10134 20034 60004=
07280,1996-09-26 09:00:00,12,1020.7,1.3,82,9,7000,3.704,,,200,,,,,,,,,,,wg-a,,,,AAXX 26094 07280 12457 /2002 10120 20090 39935 40207 51013 60006 81201 90900=
07280,1996-09-26 12:00:00,18,1019.2,-0.9,56,9,15000,11.112,,,180,,,,,,,,,,,wg-a,,,,AAXX 26124 07280 12665 21806 10180 20090 39926 40192 58009 60006 82200 91200=
07280,1996-09-26 15:00:00,19,1018,-1.1,56,10,25000,14.816,,,180,,,,,,,,,,,wg-a,,,,AAXX 26154 07280 12675 /1808 10190 20100 39915 40180 56011 60006 83801 91500=
07280,1996-09-26 18:00:00,15,1018.4,-0,67,9,20000,7.408,,,200,3.4,19.1,,,,,,,,,wg-a,,,,AAXX 26184 07280 12770 32004 10150 20090 39915 40184 55000 60006 81531 91800 333 10191 20034=
07280,1996-09-26 21:00:00,9,1019.1,0.2,93,8,15000,0,,,0,,,,,,,,,,,wg-a,,,,AAXX 26214 07280 12765 30000 10090 20080 39917 40191 50002 60006 81531 92100=
07280,1996-09-27 00:00:00,10,1018.7,-0.3,87,8,12000,0,,,0,,,,,,,,,,,wg-a,,,,AAXX 27004 07280 12762 80000 10100 20080 39914 40187 58003 60006 8453/ 90000=
07280,1996-09-27 03:00:00,11,1017.6,-1,94,10,12000,11.112,,,170,,,,,,,,,,,wg-a,,,,AAXX 27034 07280 12762 81706 10110 20100 39904 40176 56010 60006 8453/ 90300=
07280,1996-09-27 06:00:00,12,1017.2,-0.3,94,11,9000,18.52,,,200,8.9,14.3,,0,,,,,,21,wg-a,,,,AAXX 27064 07280 02559 82010 10120 20110 39901 40172 57003 60004 72162 8487/ 90600 333 10143 20089 60007=
07280,1996-09-27 09:00:00,12,1017.6,0.5,100,12,6000,18.52,,,200,,,,0,,,,,,10,wg-a,,,,AAXX 27094 07280 12256 82010 10120 20120 39906 40176 51005 60007 71052 885// 90900=
07280,1996-09-27 12:00:00,16,1017.2,-0.1,88,14,12000,25.928,,,200,,,,0,,,,,,21,wg-a,,,,AAXX 27124 07280 02362 72014 10160 20140 39905 40172 58001 60016 72165 878// 91200 333 60007=
07280,1996-09-27 15:00:00,17,1016.6,-0.5,82,14,15000,22.224,,,190,,,,1,,,,,,25,wg-a,,,,AAXX 27154 07280 12465 61912 10170 20140 39900 40166 58005 60017 72586 85230 91500=
07280,1996-09-27 18:00:00,15,1018.5,1.6,88,13,18000,14.816,,,210,11.3,17.1,,2,,,,,,2,wg-a,,,,AAXX 27184 07280 12568 22108 10150 20130 39916 40185 53016 60027 70286 82800 91800 333 10171 20113=
07280,1996-09-27 20:00:00,12,1018.5,1.6,100,12,18000,14.816,,,210,11.3,17.1,,2,,,,,,2,wg-a,,,,AAXX 27204 07280 12568 22108 10120 20120 39916 40185 53016 60027 70286 82800 92000 333 10171 20113=
07280,1996-09-27 21:00:00,12,1021.6,2.8,94,11,18000,7.408,,,210,,,,0,,,,,,3,wg-a,,,,AAXX 27214 07280 12468 /2104 10120 20110 39944 40216 51028 60007 70386 81100 92100=
07280,1996-09-28 00:00:00,11,1023.1,1.4,100,11,15000,7.408,,,260,,,,0,,,,,,25,wg-a,,,,AAXX 28004 07280 02465 42604 10110 20110 39958 40231 53014 60016 72586 84800 90000 333 60007=
07280,1996-09-28 03:00:00,12,1024.9,1.8,88,10,15000,3.704,,,240,,,,,,,,,,,wg-a,,,,AAXX 28034 07280 12565 42402 10120 20100 39976 40249 53018 60006 84500 90300=
07280,1996-09-28 06:00:00,8,1027.2,1.8,93,7,20000,7.408,,,280,7.9,14.5,,,,,4,,,,wg-a,,,,AAXX 28064 07280 12570 22804 10080 20070 39994 40272 51018 60044 81501 90600 333 10145 20079=
07280,1996-09-28 12:00:00,18,1027.1,-0.1,56,9,500,3.704,,,70,,,,,,,,,,,wg-a,,,,AAXX 28124 07280 12600 /0702 10180 20090 30003 40271 58001 60006 82201 91200=
07280,1996-09-28 15:00:00,18,1026.6,-0.5,52,8,40000,3.704,,,80,,,,,,,,,,,wg-a,,,,AAXX 28154 07280 12782 60802 10180 20080 39998 40266 56005 60006 844/2 91500=
07280,1996-09-28 18:00:00,14,1027.4,0.4,72,9,500,3.704,,,130,7.9,18.7,,,,,,,,,wg-a,,,,AAXX 28184 07280 12700 41302 10140 20090 30002 40274 50004 60006 815/1 91800 333 10187 20079=
07280,1996-09-28 21:00:00,10,1027.8,0,87,8,15000,7.408,,,330,,,,,,,,,,,wg-a,,,,AAXX 28214 07280 12/65 43304 10100 20080 30002 40278 50000 60006 80001 92100=
07280,1996-09-29 00:00:00,7,1027.4,-0.7,93,6,15000,3.704,,,20,,,,,,,,,,,wg-a,,,,AAXX 29004 07280 12/65 20202 10070 20060 39995 40274 58007 60006 80001 90000=
07280,1996-09-29 03:00:00,6,1026.8,-0.7,93,5,15000,7.408,,,340,,,,,,,,,,,wg-a,,,,AAXX 29034 07280 12/65 43404 10060 20050 39988 40268 58007 60006 80001 90300=
07280,1996-09-29 06:00:00,5,1027.7,0.8,100,5,8000,7.408,,,320,3.7,13.6,,,,,,,,,wg-a,,,,AAXX 29064 07280 02/58 /3204 10050 20050 39996 40277 51008 60006 83031 90600 333 10136 20037 60004=
07280,1996-09-29 09:00:00,12,1026.9,-0.1,82,9,9000,11.112,,,180,,,,,,,,,,,wg-a,,,,AAXX 29094 07280 12/59 /1806 10120 20090 39995 40269 56001 60006 81031 90900=
07280,1996-09-29 12:00:00,19,1024.8,-1.3,52,9,500,18.52,,,190,,,,,,,,,,,wg-a,,,,AAXX 29124 07280 12/00 21910 10190 20090 39982 40248 58013 60006 82030 91200=
07280,1996-09-29 15:00:00,22,1022.8,-1.8,46,10,500,22.224,,,200,,,,,,,,,,,wg-a,,,,AAXX 29154 07280 12/00 22012 10220 20100 39964 40228 56018 60006 82030 91500=
07280,1996-09-29 18:00:00,17,1022.8,-0.4,55,8,500,11.112,,,190,4.5,21.6,,,,,,,,,wg-a,,,,AAXX 29184 07280 12/00 01906 10170 20080 39960 40228 55004 60006 80000 91800 333 10216 20045=
07280,1996-09-29 21:00:00,12,1023.4,0.2,82,9,500,7.408,,,210,,,,,,,,,,,wg-a,,,,AAXX 29214 07280 12/00 02104 10120 20090 39962 40234 52002 60006 80000 92100=
07280,1996-09-30 00:00:00,9,1023,-0.7,93,8,20000,0,,,0,,,,,,,,,,,wg-a,,,,AAXX 30004 07280 12/70 00000 10090 20080 39955 40230 56007 60006 80000 90000=
07280,1996-09-30 03:00:00,7,1022.1,-1.1,93,6,15000,3.704,,,140,,,,,,,,,,11,wg-a,,,,AAXX 30034 07280 12/65 01402 10070 20060 39944 40221 58011 60006 71100 80000 90300=
07280,1996-09-30 06:00:00,5,1021.9,-0.4,100,5,800,0,,,0,5.4,17,,0,,,,,,41,wg-a,,,,AAXX 30064 07280 02108 /0000 10050 20050 39940 40219 56004 60004 74140 81600 90600 333 10170 20054 60007=
07280,1996-09-30 09:00:00,15,1019.6,-1.2,72,10,13000,3.704,,,170,,,,,,,,,,3,wg-a,,,,AAXX 30094 07280 12/63 11702 10150 20100 39928 40196 58012 60006 70340 81031 90900=
07280,1996-09-30 12:00:00,22,1015.4,-3.5,50,11,20000,11.112,,,180,,,,,,,,,,3,wg-a,,,,AAXX 30124 07280 12/70 31806 10220 20110 39893 40154 58035 60006 70340 82081 91200=
07280,1996-09-30 15:00:00,23,1012.1,-3.1,47,11,25000,18.52,,,200,,,,,,,,,,,wg-a,,,,AAXX 30154 07280 12/75 32010 10230 20110 39862 40121 58031 60006 81031 91500=
07280,1996-09-30 18:00:00,19,1010.6,-1.9,56,10,25000,11.112,,,170,5.3,23.4,,,,,,,,,wg-a,,,,AAXX 30184 07280 12/75 11706 10190 20100 39843 40106 56019 60006 81030 91800 333 10234 20053=
07280,1996-09-30 21:00:00,18,1009.9,-0.8,56,9,25000,25.928,,,190,,,,,,,,,,,wg-a,,,,AAXX 30214 07280 12/75 31914 10180 20090 39835 40099 58008 60006 81031 92100=
07280,1996-10-01 00:00:00,17,1008.1,-1.8,68,11,25000,22.224,,,200,,,,,,,,,,,wg-a,,,,AAXX 01004 07280 12/75 62012 10170 20110 39817 40081 58018 60006 80001 90000=
07280,1996-10-01 03:00:00,16,1006.9,-1.2,77,12,25000,22.224,,,200,,,,,,,,,,,wg-a,,,,AAXX 01034 07280 12775 62012 10160 20120 39805 40069 58012 60006 86500 90300=
07280,1996-10-01 06:00:00,17,1005.1,-1.7,68,11,20000,25.928,,,210,16.1,18.7,,,,,,,,,wg-a,,,,AAXX 01064 07280 02770 72114 10170 20110 39788 40051 56017 60006 84532 90600 333 10187 20161 60004=
07280,1996-10-01 09:00:00,17,1003.8,-1.3,72,12,15000,25.928,,,190,,,,1,,,,,,1,wg-a,,,,AAXX 01094 07280 12765 /1914 10170 20120 39775 40038 58013 60017 70162 8457/ 90900=
07280,1996-10-01 12:00:00,16,1004.3,0.5,82,13,15000,29.632,,,230,,,,0,,,,,,16,wg-a,,,,AAXX 01124 07280 02565 82316 10160 20130 39780 40043 53005 60016 71662 8687/ 91200 333 60007=
07280,1996-10-01 15:00:00,13,1007.4,2.7,94,12,15000,29.632,,,200,,,,1,,,,,,21,wg-a,,,,AAXX 01154 07280 12565 82016 10130 20120 39807 40074 51027 60017 72186 8687/ 91500=
07280,1996-10-01 18:00:00,11,1013.8,6,82,8,20000,7.408,,,290,10.6,18.6,,1,,,,,,3,wg-a,,,,AAXX 01184 07280 12470 72904 10110 20080 39867 40138 53060 60017 70386 8227/ 91800 333 10186 20106=
07280,1996-10-01 21:00:00,9,1015.9,1.9,93,8,15000,11.112,,,230,,,,,,,,,,,wg-a,,,,AAXX 01214 07280 12565 72306 10090 20080 39886 40159 51019 60006 81131 92100=
07280,1996-10-02 00:00:00,8,1016.1,0.1,93,7,10000,7.408,,,170,,,,,,,,,,,wg-a,,,,AAXX 02004 07280 12660 51704 10080 20070 39887 40161 51001 60006 83530 90000=
07280,1996-10-02 03:00:00,7,1015.9,-0.3,100,7,6000,11.112,,,190,,,,,,,,,,,wg-a,,,,AAXX 02034 07280 12256 51906 10070 20070 39884 40159 56003 60006 83130 90300=
07280,1996-10-02 06:00:00,8,1016,0.1,100,8,200,7.408,,,220,6.2,10.6,,,,,4,,,44,wg-a,,,,AAXX 02064 07280 02/02 92204 10080 20080 39885 40160 53001 60006 74442 89/// 90600 333 10106 20062 60044=
07280,1996-10-02 09:00:00,10,1016.9,1.1,100,10,500,3.704,,,360,,,,,,,,,,1,wg-a,,,,AAXX 02094 07280 12300 73602 10100 20100 39896 40169 51011 60006 70142 8577/ 90900=
07280,1996-10-02 12:00:00,14,1016.9,0.4,72,9,15000,7.408,,,30,,,,,,,,,,1,wg-a,,,,AAXX 02124 07280 12465 60304 10140 20090 39900 40169 52004 60006 70142 84271 91200=
07280,1996-10-02 18:00:00,10,1020.9,2.5,82,7,25000,11.112,,,330,7.8,14.8,,,,,,,,1,wg-a,,,,AAXX 02184 07280 32875 33306 10100 20070 39935 40209 53025 70186 82530 91800 333 10148 20078=
07280,1996-10-02 21:00:00,7,1023.3,2.1,93,6,25000,11.112,,,350,,,,,,,,,,,wg-a,,,,AAXX 02214 07280 12/75 03506 10070 20060 39956 40233 51021 60006 80000 92100=
07280,1996-10-03 00:00:00,7,1025.1,1.7,93,6,20000,11.112,,,340,,,,,,,,,,,wg-a,,,,AAXX 03004 07280 12/70 03406 10070 20060 39973 40251 51017 60006 80000 90000=
07280,1996-10-03 03:00:00,6,1026.3,1,93,5,20000,7.408,,,350,,,,,,,,,,,wg-a,,,,AAXX 03034 07280 12/70 03504 10060 20050 39983 40263 53010 60006 80000 90300=
07280,1996-10-03 06:00:00,5,1027.9,1.5,93,4,10000,11.112,,,350,4.9,9.9,,,,,2,,,11,wg-a,,,,AAXX 03064 07280 12/60 03506 10050 20040 39998 40279 52015 60024 71100 80000 90600 333 10099 20049=
07280,1996-10-03 09:00:00,11,1028.2,0.9,82,8,12000,11.112,,,20,,,,,,,,,,,wg-a,,,,AAXX 03094 07280 12/62 10206 10110 20080 30007 40282 50009 60006 80001 90900=
07280,1996-10-03 12:00:00,15,1027.3,-0.5,51,5,20000,7.408,,,30,,,,,,,,,,,wg-a,,,,AAXX 03124 07280 12570 40304 10150 20050 30002 40273 58005 60006 83201 91200=
07280,1996-10-03 15:00:00,17,1025.9,-1.2,48,6,25000,7.408,,,60,,,,,,,,,,,wg-a,,,,AAXX 03154 07280 12775 30604 10170 20060 39990 40259 58012 60006 82101 91500=
07280,1996-10-03 18:00:00,12,1026.1,-0.2,67,6,20000,7.408,,,250,4.9,17.1,,,,,,,,,wg-a,,,,AAXX 03184 07280 12/70 32504 10120 20060 39988 40261 55002 60006 80001 91800 333 10171 20049=
07280,1996-10-03 21:00:00,9,1026.6,0.1,81,6,15000,11.112,,,330,,,,,,,,,,,wg-a,,,,AAXX 03214 07280 12/65 03306 10090 20060 39989 40266 53001 60006 80000 92100=
07280,1996-10-04 00:00:00,6,1026.5,-0.4,93,5,15000,0,,,0,,,,,,,,,,,wg-a,,,,AAXX 04004 07280 12/65 10000 10060 20050 39985 40265 58004 60006 80001 90000=
07280,1996-10-04 03:00:00,4,1025.3,-1.4,93,3,15000,3.704,,,150,,,,,,,,,,,wg-a,,,,AAXX 04034 07280 12665 31502 10040 20030 39971 40253 56014 60006 83501 90300=
07280,1996-10-04 06:00:00,4,1024.6,-0.6,93,3,500,3.704,,,150,3.5,12,,,,,,,,,wg-a,,,,AAXX 04064 07280 02600 51502 10040 20030 39965 40246 58006 60006 84501 90600 333 10120 20035 60004=
07280,1996-10-04 09:00:00,11,1023.5,-0.4,87,9,12000,7.408,,,180,,,,,,,,,,,wg-a,,,,AAXX 04094 07280 12662 71804 10110 20090 39961 40235 58004 60006 86501 90900=
07280,1996-10-04 12:00:00,14,1021.3,-1.8,72,9,15000,18.52,,,210,,,,,,,,,,,wg-a,,,,AAXX 04124 07280 12465 /2110 10140 20090 39943 40213 58018 60006 878// 91200=
07280,1996-10-04 15:00:00,15,1019.3,-1.9,72,10,20000,14.816,,,230,,,,,,,,,,,wg-a,,,,AAXX 04154 07280 12570 82308 10150 20100 39924 40193 58019 60006 888// 91500=
07280,1996-10-04 18:00:00,13,1018.5,-1,88,11,12000,7.408,,,170,3.6,15.3,,0,,,,,,3,wg-a,,,,AAXX 04184 07280 12462 71704 10130 20110 39914 40185 56010 60007 70386 8583/ 91800 333 10153 20036=
07280,1996-10-04 21:00:00,12,1017.8,-0.7,82,9,15000,14.816,,,310,,,,0,,,,,,1,wg-a,,,,AAXX 04214 07280 12565 /3108 10120 20090 39907 40178 58007 60007 70162 86800 92100=
07280,1996-10-05 00:00:00,10,1017.1,-0.9,93,9,10000,3.704,,,160,,,,0,,,,,,60,wg-a,,,,AAXX 05004 07280 02760 71602 10100 20090 39898 40171 58009 60016 76062 8553/ 90000 333 60007=
07280,1996-10-05 03:00:00,9,1016.2,-1,87,7,15000,3.704,,,230,,,,0,,,,,,1,wg-a,,,,AAXX 05034 07280 12765 52302 10090 20070 39888 40162 56010 60007 70162 85500 90300=
07280,1996-10-05 06:00:00,5,1016.1,-0.5,100,5,100,11.112,,,140,4.9,12.5,,,,,1,,,44,wg-a,,,,AAXX 05064 07280 12701 21406 10050 20050 39883 40161 56005 60014 74464 82500 90600 333 10125 20049=
07280,1996-10-05 09:00:00,12,1016.3,0.9,76,8,20000,18.52,,,260,,,,,,,,,,3,wg-a,,,,AAXX 05094 07280 12470 /2610 10120 20080 39892 40163 51009 60006 70341 85801 90900=
07280,1996-10-05 12:00:00,12,1016.3,0.1,88,10,500,11.112,,,300,,,,2,,,,,,25,wg-a,,,,AAXX 05124 07280 02600 53006 10120 20100 39893 40163 50001 60026 72587 85800 91200 333 60027=
07280,1996-10-05 15:00:00,13,1015.8,-0.5,67,7,500,7.408,,,20,,,,1,,,,,,1,wg-a,,,,AAXX 05154 07280 12600 50204 10130 20070 39888 40158 56005 60017 70186 85800 91500=
07280,1996-10-05 18:00:00,9,1017.7,1.5,76,5,500,11.112,,,340,4.6,13.7,,,,,,,,1,wg-a,,,,AAXX 05184 07280 32600 23406 10090 20050 39903 40177 53015 70186 82800 91800 333 10137 20046=
07280,1996-10-05 21:00:00,7,1019.2,1.2,87,5,25000,3.704,,,350,,,,,,,,,,,wg-a,,,,AAXX 05214 07280 12/75 33502 10070 20050 39915 40192 51012 60006 83030 92100=
07280,1996-10-06 00:00:00,7,1018.7,-0.4,93,6,20000,11.112,,,10,,,,,,,,,,,wg-a,,,,AAXX 06004 07280 12/70 20106 10070 20060 39911 40187 56004 60006 82030 90000=
07280,1996-10-06 03:00:00,6,1018.5,-0.3,93,5,20000,11.112,,,10,,,,,,,,,,,wg-a,,,,AAXX 06034 07280 12/70 20106 10060 20050 39908 40185 58003 60006 82030 90300=
07280,1996-10-06 06:00:00,7,1019.2,0.8,93,6,9000,18.52,,,10,5.3,8.7,,,,,3,,,,wg-a,,,,AAXX 06064 07280 02459 /0110 10070 20060 39916 40192 52008 60006 85630 90600 333 10087 20053 60034=
07280,1996-10-06 09:00:00,9,1020.2,1.2,81,6,20000,29.632,,,20,,,,,,,,,,,wg-a,,,,AAXX 06094 07280 12570 /0216 10090 20060 39928 40202 51012 60006 86200 90900=
07280,1996-10-06 12:00:00,12,1019.6,-0.3,71,7,25000,29.632,,,40,,,,,,,,,,,wg-a,,,,AAXX 06124 07280 12575 /0416 10120 20070 39925 40196 58003 60006 86200 91200=
07280,1996-10-06 15:00:00,13,1019.2,-0.4,62,6,20000,22.224,,,40,,,,,,,,,,,wg-a,,,,AAXX 06154 07280 12670 70412 10130 20060 39921 40192 56004 60006 878// 91500=
07280,1996-10-06 18:00:00,12,1020.4,1.1,71,7,15000,22.224,,,20,7.1,13.7,,,,,,,,,wg-a,,,,AAXX 06184 07280 12665 70212 10120 20070 39932 40204 53011 60006 878// 91800 333 10137 20071=
07280,1996-10-06 21:00:00,11,1020.9,0.4,76,7,12000,18.52,,,20,,,,,,,,,,,wg-a,,,,AAXX 06214 07280 12662 80210 10110 20070 39936 40209 51004 60006 8653/ 92100=
07280,1996-10-07 00:00:00,11,1020.7,-0.2,76,7,12000,14.816,,,20,,,,,,,,,,,wg-a,,,,AAXX 07004 07280 12662 80208 10110 20070 39934 40207 56002 60006 8653/ 90000=
07280,1996-10-07 03:00:00,10,1019.7,-1,82,7,12000,14.816,,,20,,,,,,,,,,,wg-a,,,,AAXX 07034 07280 12662 80208 10100 20070 39924 40197 58010 60006 875// 90300=
07280,1996-10-07 06:00:00,10,1019.5,-0.3,82,7,12000,14.816,,,10,9.8,11.9,,,,,,,,,wg-a,,,,AAXX 07064 07280 02662 80108 10100 20070 39921 40195 58003 60006 885// 90600 333 10119 20098 60004=
07280,1996-10-07 09:00:00,11,1019.9,0.5,82,8,12000,14.816,,,20,,,,,,,,,,,wg-a,,,,AAXX 07094 07280 12662 80208 10110 20080 39926 40199 50005 60006 885// 90900=
07280,1996-10-07 12:00:00,12,1018.6,-1.1,76,8,12000,18.52,,,20,,,,,,,,,,,wg-a,,,,AAXX 07124 07280 12462 80210 10120 20080 39915 40186 58011 60006 888// 91200=
07280,1996-10-07 15:00:00,13,1018.2,-0.4,72,8,12000,18.52,,,20,,,,,,,,,,,wg-a,,,,AAXX 07154 07280 12562 80210 10130 20080 39911 40182 55004 60006 888// 91500=
07280,1996-10-07 18:00:00,12,1018.6,0.4,82,9,12000,14.816,,,10,9.9,12.9,,,,,,,,,wg-a,,,,AAXX 07184 07280 12562 80108 10120 20090 39915 40186 52004 60006 885// 91800 333 10129 20099=
07280,1996-10-07 21:00:00,12,1018.8,0.2,76,8,12000,14.816,,,350,,,,,,,,,,,wg-a,,,,AAXX 07214 07280 12562 83508 10120 20080 39917 40188 51002 60006 885// 92100=
07280,1996-10-08 00:00:00,12,1018.8,-0.1,82,9,10000,14.816,,,360,,,,,,,,,,,wg-a,,,,AAXX 08004 07280 12560 83608 10120 20090 39916 40188 55001 60006 875// 90000=
07280,1996-10-08 03:00:00,11,1018.1,-0.7,87,9,9000,11.112,,,20,,,,,,,,,,,wg-a,,,,AAXX 08034 07280 12559 80206 10110 20090 39909 40181 56007 60006 885// 90300=
07280,1996-10-08 06:00:00,11,1018.2,0.1,87,9,7000,18.52,,,350,10.7,12.1,,,,,,,,,wg-a,,,,AAXX 08064 07280 02457 83510 10110 20090 39910 40182 51001 60006 885// 90600 333 10121 20107 60004=
07280,1996-10-08 09:00:00,12,1018.9,0.8,88,10,9000,14.816,,,10,,,,,,,,,,,wg-a,,,,AAXX 08094 07280 12559 80108 10120 20100 39918 40189 53008 60006 888// 90900=
07280,1996-10-08 12:00:00,14,1018,-0.7,82,11,10000,25.928,,,360,,,,,,,,,,,wg-a,,,,AAXX 08124 07280 12560 83614 10140 20110 39911 40180 58007 60006 888// 91200=
07280,1996-10-08 15:00:00,14,1018.2,0.2,77,10,10000,18.52,,,350,,,,,,,,,,,wg-a,,,,AAXX 08154 07280 12560 83510 10140 20100 39913 40182 53002 60006 888// 91500=
07280,1996-10-08 18:00:00,13,1019.3,1,82,10,15000,18.52,,,360,10.9,14.8,,,,,,,,,wg-a,,,,AAXX 08184 07280 12565 83610 10130 20100 39923 40193 53010 60006 888// 91800 333 10148 20109=
07280,1996-10-08 21:00:00,13,1019.5,0.2,82,10,10000,14.816,,,350,,,,,,,,,,,wg-a,,,,AAXX 08214 07280 12660 83508 10130 20100 39925 40195 53002 60006 885// 92100=
07280,1996-10-09 00:00:00,13,1019.3,-0.2,82,10,10000,14.816,,,340,,,,,,,,,,,wg-a,,,,AAXX 09004 07280 12660 83408 10130 20100 39923 40193 58002 60006 885// 90000=
07280,1996-10-09 03:00:00,12,1019.2,-0.2,88,10,10000,7.408,,,330,,,,,,,,,,,wg-a,,,,AAXX 09034 07280 12760 83304 10120 20100 39921 40192 55002 60006 885// 90300=
07280,1996-10-09 06:00:00,12,1019.7,0.5,82,9,9000,7.408,,,330,12.1,13.4,,,,,,,,,wg-a,,,,AAXX 09064 07280 02659 83304 10120 20090 39926 40197 52005 60006 885// 90600 333 10134 20121 60004=
07280,1996-10-09 09:00:00,12,1021,1.2,82,9,9000,7.408,,,340,,,,,,,,,,,wg-a,,,,AAXX 09094 07280 12659 83404 10120 20090 39938 40210 51012 60006 885// 90900=
07280,1996-10-09 12:00:00,14,1020.5,-0.3,67,8,12000,7.408,,,10,,,,,,,,,,,wg-a,,,,AAXX 09124 07280 12662 80104 10140 20080 39935 40205 58003 60006 885// 91200=
07280,1996-10-09 15:00:00,15,1019.9,-0.5,63,8,12000,7.408,,,70,,,,,,,,,,,wg-a,,,,AAXX 09154 07280 12762 70704 10150 20080 39930 40199 56005 60006 855/2 91500=
07280,1996-10-09 18:00:00,13,1021.1,1,77,9,12000,3.704,,,280,12,15.4,,,,,,,,,wg-a,,,,AAXX 09184 07280 12662 82802 10130 20090 39940 40211 53010 60006 875// 91800 333 10154 20120=
07280,1996-10-09 21:00:00,13,1021.8,0.7,77,9,12000,7.408,,,340,,,,,,,,,,,wg-a,,,,AAXX 09214 07280 12762 83404 10130 20090 39947 40218 52007 60006 885// 92100=
07280,1996-10-10 00:00:00,12,1021.6,-0.3,88,10,10000,7.408,,,350,,,,,,,,,,60,wg-a,,,,AAXX 10004 07280 02660 83504 10120 20100 39944 40216 58003 61000 76062 885// 90000 333 6100=
07280,1996-10-10 03:00:00,11,1021.2,-0.5,94,10,6000,3.704,,,50,,,,5,,,,,,61,wg-a,,,,AAXX 10034 07280 12256 80502 10110 20100 39939 40212 58005 60057 76162 885// 90300=
07280,1996-10-10 06:00:00,11,1021.9,0.7,94,10,1500,3.704,,,120,10.6,13.1,,2,,,6,,,10,wg-a,,,,AAXX 10064 07280 02215 81202 10110 20100 39946 40219 53007 60064 71062 888// 90600 333 10131 20106 60027=
07280,1996-10-10 09:00:00,12,1022.9,1,94,11,500,3.704,,,40,,,,,,,,,,,wg-a,,,,AAXX 10094 07280 32/00 /0402 10120 20110 39956 40229 51010 90900=
07280,1996-10-10 12:00:00,15,1022.2,-0.4,77,11,10000,11.112,,,30,,,,,,,,,,1,wg-a,,,,AAXX 10124 07280 02460 /0306 10150 20110 39952 40222 58004 61000 70162 84230 91200 333 ////=
07280,1996-10-10 15:00:00,15,1021.6,-0.5,77,11,12000,14.816,,,20,,,,,,,,,,,wg-a,,,,AAXX 10154 07280 12462 70208 10150 20110 39947 40216 56005 60006 8583/ 91500=
07280,1996-10-10 18:00:00,12,1022.5,0.6,94,11,15000,18.52,,,350,10.6,15.5,,,,,,,,,wg-a,,,,AAXX 10184 07280 32765 13510 10120 20110 39953 40225 53006 81500 91800 333 10155 20106=
07280,1996-10-10 21:00:00,10,1023,0.3,93,9,12000,14.816,,,340,,,,,,,,,,,wg-a,,,,AAXX 10214 07280 12/62 03408 10100 20090 39956 40230 50003 60006 80000 92100=
07280,1996-10-11 00:00:00,9,1022.6,-0.6,93,8,7000,11.112,,,340,,,,,,,,,,,wg-a,,,,AAXX 11004 07280 12/57 03406 10090 20080 39950 40226 56006 60006 80000 90000=
07280,1996-10-11 03:00:00,9,1021.8,-0.7,93,8,6000,14.816,,,330,,,,,,,,,,,wg-a,,,,AAXX 11034 07280 12/56 03308 10090 20080 39943 40218 56007 60006 80000 90300=
07280,1996-10-11 06:00:00,7,1021.9,-0.1,100,7,2000,11.112,,,320,7.1,12.1,,,,,,,,10,wg-a,,,,AAXX 11064 07280 12/20 03206 10070 20070 39942 40219 57001 60004 71000 80000 90600 333 10121 20071=
07280,1996-10-11 09:00:00,10,1022.2,0.6,93,9,800,14.816,,,50,,,,0,,,,,,44,wg-a,,,,AAXX 11094 07280 12108 30508 10100 20090 39948 40222 53006 60007 74440 83600 90900=
07280,1996-10-11 12:00:00,11,1021.1,-1,94,10,2500,7.408,,,90,,,,,,,,,,10,wg-a,,,,AAXX 11124 07280 12225 70904 10110 20100 39938 40211 58010 60006 71041 876// 91200=
07280,1996-10-11 15:00:00,11,1020.4,-0.7,94,10,2500,3.704,,,140,,,,,,,,,,10,wg-a,,,,AAXX 11154 07280 12225 81402 10110 20100 39931 40204 56007 60006 71022 886// 91500=
07280,1996-10-11 18:00:00,9,1020.4,-0.1,100,9,1500,3.704,,,110,7.3,11.4,,,,,,,,10,wg-a,,,,AAXX 11184 07280 32115 81102 10090 20090 39930 40204 55001 71022 886// 91800 333 10114 20073=
07280,1996-10-11 21:00:00,9,1020.1,-0.4,100,9,600,3.704,,,180,,,,,,,,,,44,wg-a,,,,AAXX 11214 07280 12106 91802 10090 20090 39926 40201 55004 60006 74442 896// 92100=
07280,1996-10-12 00:00:00,9,1019.3,-0.8,93,8,800,7.408,,,180,,,,,,,,,,45,wg-a,,,,AAXX 12004 07280 12/08 91804 10090 20080 39918 40193 56008 60006 74542 89/// 90000=
07280,1996-10-12 03:00:00,9,1018.3,-0.9,100,9,900,11.112,,,190,,,,,,,,,,43,wg-a,,,,AAXX 12034 07280 12/09 91906 10090 20090 39909 40183 58009 60006 74342 89/// 90300=
07280,1996-10-12 06:00:00,9,1018.1,-0.2,100,9,200,7.408,,,190,8.4,9.3,,,,,,,,45,wg-a,,,,AAXX 12064 07280 02/02 91904 10090 20090 39907 40181 58002 60006 74542 89/// 90600 333 10093 20084 60004=
07280,1996-10-12 09:00:00,10,1018.4,0.4,100,10,2000,14.816,,,190,,,,,,,,,,10,wg-a,,,,AAXX 12094 07280 12120 81908 10100 20100 39911 40184 51004 60006 71042 886// 90900=
07280,1996-10-12 12:00:00,16,1015.8,-1.9,72,11,10000,18.52,,,190,,,,,,,,,,1,wg-a,,,,AAXX 12124 07280 12560 /1910 10160 20110 39892 40158 58019 60006 70142 81101 91200=
07280,1996-10-12 15:00:00,19,1013.5,-2.1,60,11,12000,14.816,,,180,,,,,,,,,,,wg-a,,,,AAXX 12154 07280 12/62 61808 10190 20110 39871 40135 56021 60006 80002 91500=
07280,1996-10-12 18:00:00,14,1014,0.1,77,10,12000,7.408,,,190,8.9,18.6,,,,,,,,,wg-a,,,,AAXX 12184 07280 12/62 61904 10140 20100 39872 40140 53001 60006 80002 91800 333 10186 20089=
07280,1996-10-12 21:00:00,11,1014.7,0.4,82,8,18000,7.408,,,190,,,,,,,,,,,wg-a,,,,AAXX 12214 07280 12/68 71904 10110 20080 39876 40147 53004 60006 80001 92100=
07280,1996-10-13 00:00:00,8,1014.7,-0.3,93,7,15000,7.408,,,140,,,,,,,,,,,wg-a,,,,AAXX 13004 07280 12/65 51404 10080 20070 39873 40147 58003 60006 80001 90000=
07280,1996-10-13 03:00:00,6,1014.2,-0.7,100,6,3000,3.704,,,100,,,,,,,,,,10,wg-a,,,,AAXX 13034 07280 12/30 31002 10060 20060 39866 40142 58007 60006 71011 80001 90300=
07280,1996-10-13 06:00:00,5,1014.2,-0.1,100,5,400,3.704,,,360,4,14.3,,,,,,,,44,wg-a,,,,AAXX 13064 07280 02104 33602 10050 20050 39865 40142 55001 60006 74441 82701 90600 333 10143 20040 60004=
07280,1996-10-13 09:00:00,12,1013.6,0.1,82,9,500,7.408,,,180,,,,,,,,,,,wg-a,,,,AAXX 13094 07280 12/00 /1804 10120 20090 39866 40136 50001 60006 90900=
07280,1996-10-13 12:00:00,18,1011,-1.9,52,8,20000,14.816,,,190,,,,,,,,,,3,wg-a,,,,AAXX 13124 07280 12/70 51908 10180 20080 39847 40110 58019 60006 70341 83032 91200=
07280,1996-10-13 15:00:00,21,1009,-1.8,40,7,25000,18.52,,,180,,,,,,,,,,,wg-a,,,,AAXX 13154 07280 12/75 41810 10210 20070 39829 40090 56018 60006 83032 91500=
07280,1996-10-13 18:00:00,15,1010,0.4,67,9,20000,18.52,,,100,4.3,21.4,,,,,,,,,wg-a,,,,AAXX 13184 07280 12/70 11010 10150 20090 39833 40100 53004 60006 81030 91800 333 10214 20043=
07280,1996-10-13 21:00:00,12,1009.8,-0.4,76,8,15000,3.704,,,30,,,,,,,,,,,wg-a,,,,AAXX 13214 07280 12/65 20302 10120 20080 39829 40098 56004 60006 82030 92100=
07280,1996-10-14 00:00:00,11,1009.7,-0.2,82,8,10000,11.112,,,340,,,,,,,,,,,wg-a,,,,AAXX 14004 07280 12/60 /3406 10110 20080 39827 40097 55002 60006 90000=
07280,1996-10-14 03:00:00,9,1009.2,-0.7,87,7,12000,7.408,,,340,,,,,,,,,,,wg-a,,,,AAXX 14034 07280 12/62 63404 10090 20070 39820 40092 58007 60006 86030 90300=
07280,1996-10-14 06:00:00,8,1009.3,-0,93,7,12000,7.408,,,310,7.1,14.5,,,,,,,,,wg-a,,,,AAXX 14064 07280 02762 63104 10080 20070 39820 40093 55000 60006 84530 90600 333 10145 20071 60004=
07280,1996-10-14 09:00:00,12,1009.1,0.3,82,9,12000,11.112,,,10,,,,,,,,,,,wg-a,,,,AAXX 14094 07280 12762 80106 10120 20090 39823 40091 50003 60006 8357/ 90900=
07280,1996-10-14 12:00:00,16,1008.3,-0.5,63,9,15000,7.408,,,340,,,,,,,,,,,wg-a,,,,AAXX 14124 07280 12765 73404 10160 20090 39818 40083 58005 60006 8357/ 91200=
07280,1996-10-14 15:00:00,17,1007.7,-0.5,59,9,20000,3.704,,,250,,,,,,,,,,1,wg-a,,,,AAXX 14154 07280 02770 72502 10170 20090 39813 40077 56005 61000 70162 82532 91500 333 ////=
07280,1996-10-14 18:00:00,14,1008.3,0.3,77,10,15000,0,,,0,7.6,17,,,,,,,,60,wg-a,,,,AAXX 14184 07280 02765 70000 10140 20100 39816 40083 53003 61000 76062 875// 91800 333 10170 20076 ////=
07280,1996-10-14 21:00:00,13,1009,0.6,82,10,12000,11.112,,,210,,,,,,,,,,60,wg-a,,,,AAXX 14214 07280 02762 72106 10130 20100 39822 40090 53006 61000 76062 875// 92100 333 ////=
07280,1996-10-15 00:00:00,12,1009,-0.1,94,11,7000,7.408,,,170,,,,2,,,,,,60,wg-a,,,,AAXX 15004 07280 02557 81704 10120 20110 39821 40090 58001 60026 76062 888// 90000 333 60027=
07280,1996-10-15 03:00:00,11,1008.5,-0.5,100,11,500,11.112,,,160,,,,0,,,,,,21,wg-a,,,,AAXX 15034 07280 12200 /1606 10110 20110 39816 40085 56005 60007 72162 84601 90300=
07280,1996-10-15 06:00:00,10,1008.5,-0.1,100,10,100,0,,,0,10.2,13.7,,,,,2,,,44,wg-a,,,,AAXX 15064 07280 12201 /0000 10100 20100 39815 40085 58001 60024 74464 81730 90600 333 10137 20102=
07280,1996-10-15 09:00:00,12,1009.6,1.3,100,12,2000,3.704,,,340,,,,,,,,,,28,wg-a,,,,AAXX 15094 07280 12120 83402 10120 20120 39828 40096 51013 60006 72842 8557/ 90900=
07280,1996-10-15 12:00:00,14,1009.5,0.1,94,13,10000,7.408,,,180,,,,0,,,,,,21,wg-a,,,,AAXX 15124 07280 02260 81804 10140 20130 39829 40095 50001 60006 72164 8587/ 91200 333 60007=
07280,1996-10-15 15:00:00,14,1009.5,0.1,94,13,10000,7.408,,,180,,,,0,,,,,,21,wg-a,,,,AAXX 15154 07280 02260 81804 10140 20130 39829 40095 50001 60006 72164 8587/ 91500 333 60007=
07280,1996-10-15 18:00:00,12,1011.1,0.8,88,10,12000,18.52,,,320,9.6,14.7,,1,,,,,,61,wg-a,,,,AAXX 15184 07280 12562 83210 10120 20100 39841 40111 51008 60017 76162 8588/ 91800 333 10147 20096=
07280,1996-10-15 21:00:00,12,1011.1,0.1,88,10,12000,14.816,,,320,,,,1,,,,,,21,wg-a,,,,AAXX 15214 07280 12662 83208 10120 20100 39842 40111 50001 60017 72162 8688/ 92100=
07280,1996-10-16 00:00:00,11,1010.9,-0.3,87,9,12000,7.408,,,310,,,,,,,,,,2,wg-a,,,,AAXX 16004 07280 12762 83104 10110 20090 39839 40109 58003 60016 70262 8558/ 90000=
07280,1996-10-16 03:00:00,11,1010.3,-0.6,87,9,12000,11.112,,,330,,,,,,,,,,,wg-a,,,,AAXX 16034 07280 12762 83306 10110 20090 39833 40103 57006 60006 8558/ 90300=
07280,1996-10-16 06:00:00,11,1010.5,0.2,87,9,10000,25.928,,,320,10.4,11.9,,,,,3,,,,wg-a,,,,AAXX 16064 07280 12460 83214 10110 20090 39835 40105 51002 60034 878// 90600 333 10119 20104=
07280,1996-10-16 09:00:00,10,1011.3,0.7,82,7,20000,22.224,,,340,,,,,,,,,,,wg-a,,,,AAXX 16094 07280 12470 83412 10100 20070 39842 40113 51007 60006 8683/ 90900=
07280,1996-10-16 12:00:00,11,1011.3,0.1,76,7,20000,18.52,,,330,,,,,,,,,,,wg-a,,,,AAXX 16124 07280 12570 83310 10110 20070 39843 40113 50001 60006 8587/ 91200=
07280,1996-10-16 15:00:00,11,1011.4,0.1,71,6,500,11.112,,,340,,,,,,,,,,,wg-a,,,,AAXX 16154 07280 12500 83406 10110 20060 39844 40114 53001 60006 8287/ 91500=
07280,1996-10-16 18:00:00,9,1012.1,0.5,87,7,25000,3.704,,,230,9.1,11.5,,,,,,,,,wg-a,,,,AAXX 16184 07280 12/75 72302 10090 20070 39849 40121 53005 60006 85031 91800 333 10115 20091=
07280,1996-10-16 21:00:00,7,1012.4,0,93,6,25000,3.704,,,240,,,,,,,,,,11,wg-a,,,,AAXX 16214 07280 12/75 /2402 10070 20060 39849 40124 50000 60006 71122 80001 92100=
07280,1996-10-17 00:00:00,6,1012.1,-0.4,93,5,20000,0,,,0,,,,,,,,,,,wg-a,,,,AAXX 17004 07280 12670 70000 10060 20050 39845 40121 58004 60006 875// 90000=
07280,1996-10-17 03:00:00,7,1011.3,-0.6,100,7,8000,3.704,,,160,,,,,,,,,,,wg-a,,,,AAXX 17034 07280 12558 81602 10070 20070 39839 40113 58006 60006 875// 90300=
07280,1996-10-17 06:00:00,6,1010.6,-0.8,100,6,4000,3.704,,,200,5.1,9.1,,,,,,,,10,wg-a,,,,AAXX 17064 07280 02140 /2002 10060 20060 39831 40106 56008 60006 71022 8553/ 90600 333 10091 20051 60004=
07280,1996-10-17 09:00:00,10,1010.2,0,87,8,12000,11.112,,,190,,,,,,,,,,,wg-a,,,,AAXX 17094 07280 12462 71906 10100 20080 39831 40102 50000 60006 8583/ 90900=
07280,1996-10-17 12:00:00,10,1010.6,0.4,87,8,10000,14.816,,,190,,,,1,,,,,,80,wg-a,,,,AAXX 17124 07280 02460 81908 10100 20080 39835 40106 51004 60016 78086 888// 91200 333 60017=
07280,1996-10-17 15:00:00,12,1010.3,-0.1,76,8,15000,7.408,,,190,,,,1,,,,,,25,wg-a,,,,AAXX 17154 07280 12465 /1904 10120 20080 39834 40103 56001 60017 72586 85830 91500=
07280,1996-10-17 18:00:00,10,1012.5,1.9,82,7,20000,3.704,,,260,6,11.8,,,,,,,,21,wg-a,,,,AAXX 17184 07280 02470 72602 10100 20070 39853 40125 53019 61000 72186 878// 91800 333 10118 20060 ////=
07280,1996-10-17 21:00:00,9,1013.9,1.3,81,6,20000,7.408,,,200,,,,,,,,,,,wg-a,,,,AAXX 17214 07280 12470 /2004 10090 20060 39866 40139 51013 60006 86800 92100=
07280,1996-10-18 00:00:00,7,1014.6,0.5,100,7,20000,3.704,,,220,,,,,,,,,,,wg-a,,,,AAXX 18004 07280 12570 72202 10070 20070 39871 40146 51005 60006 875// 90000=
07280,1996-10-18 03:00:00,7,1015.4,0.7,93,6,20000,3.704,,,170,,,,,,,,,,,wg-a,,,,AAXX 18034 07280 12670 61702 10070 20060 39878 40154 51007 60006 86500 90300=
07280,1996-10-18 06:00:00,3,1016.3,0.5,100,3,400,0,,,0,2.8,9.6,,,,,3,,,41,wg-a,,,,AAXX 18064 07280 02104 30000 10030 20030 39883 40163 53005 60006 74141 82630 90600 333 10096 20028 60034=
07280,1996-10-18 09:00:00,7,1017.1,1.2,100,7,800,3.704,,,130,,,,,,,,,,41,wg-a,,,,AAXX 18094 07280 12108 71302 10070 20070 39895 40171 51012 60006 74144 876// 90900=
07280,1996-10-18 12:00:00,14,1015.6,-0.8,55,5,25000,18.52,,,190,,,,,,,,,,1,wg-a,,,,AAXX 18124 07280 12575 /1910 10140 20050 39887 40156 58008 60006 70141 81100 91200=
07280,1996-10-18 15:00:00,14,1014.7,-0.9,51,4,50000,22.224,,,200,,,,,,,,,,,wg-a,,,,AAXX 18154 07280 12/84 32012 10140 20040 39878 40147 56009 60006 81031 91500=
07280,1996-10-18 18:00:00,11,1014.8,-0.1,76,7,500,11.112,,,190,2.2,14.3,,,,,,,,,wg-a,,,,AAXX 18184 07280 12600 71906 10110 20070 39877 40148 55001 60006 875// 91800 333 10143 20022=
07280,1996-10-18 21:00:00,11,1015.7,0.8,76,7,500,18.52,,,200,,,,,,,,,,,wg-a,,,,AAXX 18214 07280 12400 72010 10110 20070 39885 40157 51008 60006 878// 92100=
07280,1996-10-19 00:00:00,9,1017.3,1.4,93,8,25000,11.112,,,160,,,,,,,,,,,wg-a,,,,AAXX 19004 07280 12575 /1606 10090 20080 39899 40173 51014 60006 86500 90000=
07280,1996-10-19 03:00:00,11,1017,-0.1,94,10,15000,22.224,,,210,,,,0,,,,,,60,wg-a,,,,AAXX 19034 07280 12465 72112 10110 20100 39898 40170 58001 60007 76062 878// 90300=
07280,1996-10-19 06:00:00,10,1018.1,1,100,10,10000,14.816,,,220,7.9,11.4,,1,,,1,,,3,wg-a,,,,AAXX 19064 07280 02560 62208 10100 20100 39908 40181 53010 60014 70362 86800 90600 333 10114 20079 60017=
07280,1996-10-19 09:00:00,13,1021,3.1,82,10,15000,14.816,,,280,,,,,,,,,,25,wg-a,,,,AAXX 19094 07280 02565 72808 10130 20100 39939 40210 51031 61000 72586 878// 90900 333 ////=
07280,1996-10-19 12:00:00,15,1022.6,1.7,63,8,25000,22.224,,,300,,,,,,,,,,25,wg-a,,,,AAXX 19124 07280 02575 33012 10150 20080 39956 40226 51017 61000 72586 83200 91200 333 6100=
07280,1996-10-19 15:00:00,15,1024.2,1.6,59,7,25000,14.816,,,310,,,,,,,,,,,wg-a,,,,AAXX 19154 07280 12575 73108 10150 20070 39972 40242 53016 60006 85801 91500=
07280,1996-10-19 18:00:00,11,1027.3,2.6,76,7,20000,3.704,,,310,10.1,16.3,,,,,,,,,wg-a,,,,AAXX 19184 07280 32770 23102 10110 20070 39998 40273 53026 82500 91800 333 10163 20101=
07280,1996-10-19 21:00:00,7,1029.1,1.4,93,6,10000,0,,,0,,,,,,,,,,,wg-a,,,,AAXX 19214 07280 12/60 /0000 10070 20060 30012 40291 51014 60006 92100=
07280,1996-10-20 00:00:00,7,1029,-0.2,93,6,20000,3.704,,,190,,,,,,,,,,,wg-a,,,,AAXX 20004 07280 12770 71902 10070 20060 30010 40290 58002 60006 87500 90000=
07280,1996-10-20 06:00:00,7,1028.3,0.2,100,7,20000,7.408,,,200,5.8,10.9,,,,,,,,,wg-a,,,,AAXX 20064 07280 02770 82004 10070 20070 30005 40283 50002 60006 8753/ 90600 333 10109 20058 61000=
07280,1996-10-20 12:00:00,17,1026.3,-1.3,63,10,25000,18.52,,,200,,,,,,,,,,,wg-a,,,,AAXX 20124 07280 12575 72010 10170 20100 39994 40263 57013 60006 81132 91200=
07280,1996-10-20 15:00:00,16,1025.3,-1,68,10,25000,22.224,,,200,,,,,,,,,,,wg-a,,,,AAXX 20154 07280 12/75 72012 10160 20100 39984 40253 58010 60006 85072 91500=
07280,1996-10-20 18:00:00,14,1025.1,-0.4,72,9,25000,14.816,,,210,7.4,17.5,,,,,,,,,wg-a,,,,AAXX 20184 07280 12775 82108 10140 20090 39980 40251 56004 60006 82572 91800 333 10175 20074=
07280,1996-10-20 21:00:00,12,1024.5,-0.8,88,10,20000,7.408,,,150,,,,0,,,,,,61,wg-a,,,,AAXX 20214 07280 12770 81504 10120 20100 39972 40245 56008 60007 76162 885// 92100=
07280,1996-10-21 00:00:00,12,1022.8,-1.6,88,10,15000,11.112,,,170,,,,,,,,,,2,wg-a,,,,AAXX 21004 07280 02765 81706 10120 20100 39956 40228 58016 60006 70262 885// 90000 333 61000=
07280,1996-10-21 03:00:00,13,1021.6,-1.1,82,10,15000,18.52,,,190,,,,,,,,,,,wg-a,,,,AAXX 21034 07280 12465 81910 10130 20100 39945 40216 58011 60006 885// 90300=
07280,1996-10-21 06:00:00,12,1021.6,-0.1,94,11,10000,18.52,,,200,11.8,13.9,,0,,,1,,,3,wg-a,,,,AAXX 21064 07280 02360 82010 10120 20110 39944 40216 56001 60014 70362 885// 90600 333 10139 20118 60007=
07280,1996-10-21 09:00:00,13,1022,0.5,94,12,6000,18.52,,,200,,,,1,,,,,,58,wg-a,,,,AAXX 21094 07280 12256 82010 10130 20120 39949 40220 50005 60017 75865 877// 90900=
07280,1996-10-21 12:00:00,15,1021.6,-0.2,94,14,10000,11.112,,,180,,,,0,,,,,,61,wg-a,,,,AAXX 21124 07280 02260 81806 10150 20140 39947 40216 58002 60016 76165 877// 91200 333 60007=
07280,1996-10-21 15:00:00,17,1022.1,0.7,82,14,25000,14.816,,,20,,,,0,,,,,,3,wg-a,,,,AAXX 21154 07280 12575 70208 10170 20140 39954 40221 53007 60007 70365 86801 91500=
07280,1996-10-21 18:00:00,14,1024.1,1.6,88,12,25000,7.408,,,20,11.8,18.4,,,,,,,,1,wg-a,,,,AAXX 21184 07280 32575 70204 10140 20120 39970 40241 53016 70165 81131 91800 333 10184 20118=
07280,1996-10-21 21:00:00,11,1025.3,0.9,94,10,20000,7.408,,,330,,,,,,,,,,,wg-a,,,,AAXX 21214 07280 12/70 73304 10110 20100 39979 40253 51009 60006 81031 92100=
07280,1996-10-22 00:00:00,9,1025.6,-0.1,93,8,15000,11.112,,,340,,,,,,,,,,11,wg-a,,,,AAXX 22004 07280 12/65 /3406 10090 20080 39978 40256 58001 60006 71111 81030 90000=
07280,1996-10-22 03:00:00,7,1025.7,0.1,93,6,10000,3.704,,,20,,,,,,,,,,,wg-a,,,,AAXX 22034 07280 12/60 00202 10070 20060 39979 40257 53001 60006 80000 90300=
07280,1996-10-22 06:00:00,5,1026.3,0.4,100,5,3000,7.408,,,340,4.8,14,,0,,,2,,,12,wg-a,,,,AAXX 22064 07280 02230 53404 10050 20050 39983 40263 53004 60024 71211 83701 90600 333 10140 20048 60007=
07280,1996-10-22 09:00:00,8,1027.1,1,100,8,200,14.816,,,50,,,,,,,,,,45,wg-a,,,,AAXX 22094 07280 12/02 90508 10080 20080 39993 40271 51010 60006 74542 89/// 90900=
07280,1996-10-22 12:00:00,10,1025.8,-1,100,10,500,14.816,,,20,,,,,,,,,,28,wg-a,,,,AAXX 22124 07280 12100 80208 10100 20100 39983 40258 58010 60006 72842 91200=
07280,1996-10-22 15:00:00,13,1024.1,-1.3,88,11,15000,11.112,,,20,,,,,,,,,,,wg-a,,,,AAXX 22154 07280 12/65 /0206 10130 20110 39970 40241 56013 60006 80001 91500=
07280,1996-10-22 18:00:00,11,1024.5,0.1,87,9,12000,11.112,,,10,4.9,14,,,,,,,,,wg-a,,,,AAXX 22184 07280 12/62 30106 10110 20090 39971 40245 53001 60006 80001 91800 333 10140 20049=
07280,1996-10-22 21:00:00,9,1024.5,-0.2,87,7,12000,14.816,,,10,,,,,,,,,,,wg-a,,,,AAXX 22214 07280 12/62 50108 10090 20070 39969 40245 58002 60006 80001 92100=
07280,1996-10-23 00:00:00,8,1023.8,-0.8,93,7,12000,14.816,,,350,,,,,,,,,,,wg-a,,,,AAXX 23004 07280 12/62 03508 10080 20070 39961 40238 58008 60006 80000 90000=
07280,1996-10-23 03:00:00,7,1023.8,-0.1,93,6,12000,14.816,,,350,,,,,,,,,,,wg-a,,,,AAXX 23034 07280 12/62 03508 10070 20060 39960 40238 56001 60006 80000 90300=
07280,1996-10-23 06:00:00,6,1023.6,-0.2,93,5,10000,11.112,,,10,6,10.8,,,,,,,,,wg-a,,,,AAXX 23064 07280 02/60 40106 10060 20050 39958 40236 56002 60006 80001 90600 333 10108 20060 60004=
07280,1996-10-23 12:00:00,10,1023.4,,87,8,6000,11.112,,,160,,,,,,,,,,,wg-a,,,,AAXX 23124 07280 12256 41606 10100 20080 39959 40234 60006 91200=
07280,1996-10-23 15:00:00,13,1022,-1,77,9,12000,3.704,,,190,,,,,,,,,,,wg-a,,,,AAXX 23154 07280 12/62 71902 10130 20090 39949 40220 56010 60006 80001 91500=
07280,1996-10-23 18:00:00,9,1022.8,0.3,87,7,10000,3.704,,,50,6.3,12.8,,,,,,,,,wg-a,,,,AAXX 23184 07280 12/60 40502 10090 20070 39952 40228 53003 60006 80001 91800 333 10128 20063=
07280,1996-10-23 21:00:00,7,1022.8,-0.1,100,7,500,7.408,,,350,,,,,,,,,,40,wg-a,,,,AAXX 23214 07280 12/00 23504 10070 20070 39951 40228 57001 60006 74000 80001 92100=
07280,1996-10-24 00:00:00,6,1022.8,-0.1,100,6,500,11.112,,,340,,,,,,,,,,,wg-a,,,,AAXX 24004 07280 12/00 /3406 10060 20060 39950 40228 58001 60006 90000=
07280,1996-10-24 03:00:00,5,1023,-0,93,4,500,7.408,,,330,,,,,,,,,,,wg-a,,,,AAXX 24034 07280 12/00 03304 10050 20040 39950 40230 54000 60006 80000 90300=
07280,1996-10-24 06:00:00,5,1023.2,0.3,100,5,3000,3.704,,,80,2.9,8.5,,,,,,,,10,wg-a,,,,AAXX 24064 07280 12230 80802 10050 20050 39953 40232 52003 60004 71011 886// 90600 333 10085 20029=
07280,1996-10-24 09:00:00,7,1023.5,0.4,100,7,100,3.704,,,100,,,,,,,,,,45,wg-a,,,,AAXX 24094 07280 12/01 91002 10070 20070 39957 40235 50004 60006 74542 89/// 90900=
07280,1996-10-24 12:00:00,11,1021.9,-1.1,100,11,2000,14.816,,,190,,,,,,,,,,10,wg-a,,,,AAXX 24124 07280 12120 81908 10110 20110 39946 40219 58011 60006 71042 886// 91200=
07280,1996-10-24 15:00:00,16,1019.9,-1.5,77,12,8000,3.704,,,80,,,,,,,,,,,wg-a,,,,AAXX 24154 07280 12/58 50802 10160 20120 39931 40199 56015 60006 80001 91500=
07280,1996-10-24 18:00:00,11,1020.7,0.3,94,10,3500,3.704,,,20,5.2,15.9,,,,,,,,10,wg-a,,,,AAXX 24184 07280 12/35 /0202 10110 20100 39934 40207 53003 60006 71011 80001 91800 333 10159 20052=
07280,1996-10-24 21:00:00,7,1021.2,0.1,100,7,400,3.704,,,350,,,,,,,,,,41,wg-a,,,,AAXX 24214 07280 12/04 03502 10070 20070 39935 40212 53001 60006 74140 80000 92100=
07280,1996-10-25 00:00:00,7,1021.3,0.1,100,7,500,3.704,,,340,,,,,,,,,,45,wg-a,,,,AAXX 25004 07280 12/00 93402 10070 20070 39936 40213 50001 60006 74541 89/// 90000=
07280,1996-10-25 03:00:00,6,1021.5,0.1,100,6,500,3.704,,,40,,,,,,,,,,45,wg-a,,,,AAXX 25034 07280 32/00 90402 10060 20060 39937 40215 52001 74542 89/// 90300=
07280,1996-10-25 06:00:00,6,1022.2,0.7,100,6,100,0,,,0,5.4,10.9,,,,,,,,43,wg-a,,,,AAXX 25064 07280 12/01 90000 10060 20060 39944 40222 52007 60004 74342 89/// 90600 333 10109 20054=
07280,1996-10-25 09:00:00,7,1023.1,1,100,7,500,0,,,0,,,,,,,,,,45,wg-a,,,,AAXX 25094 07280 32/00 90000 10070 20070 39954 40231 51010 74544 89/// 90900=
07280,1996-10-25 12:00:00,16,1022,-0.2,77,12,8000,11.112,,,210,,,,,,,,,,1,wg-a,,,,AAXX 25124 07280 12/58 /2106 10160 20120 39952 40220 58002 60006 70142 83032 91200=
07280,1996-10-25 18:00:00,15,1023.9,1.4,82,12,10000,7.408,,,270,5.7,17.7,,,,,,,,,wg-a,,,,AAXX 25184 07280 32760 /2704 10150 20120 39969 40239 53014 84500 91800 333 10177 20057=
07280,1996-10-26 00:00:00,11,1026.5,0.5,94,10,6000,3.704,,,250,,,,,,,,,,,wg-a,,,,AAXX 26004 07280 12756 22502 10110 20100 39990 40265 53005 60006 82500 90000=
07280,1996-10-26 06:00:00,5,1028.2,0.3,100,5,700,3.704,,,330,4.2,14.6,,,,,,,,42,wg-a,,,,AAXX 26064 07280 02/07 53302 10050 20050 30001 40282 53003 60006 74241 82031 90600 333 10146 20042 60004=
07280,1996-10-26 12:00:00,16,1027,-0.8,68,10,25000,11.112,,,190,,,,,,,,,,3,wg-a,,,,AAXX 26124 07280 12575 /1906 10160 20100 30001 40270 58008 60006 70341 85201 91200=
07280,1996-10-26 15:00:00,16,1026,-1,63,9,500,14.816,,,190,,,,,,,,,,,wg-a,,,,AAXX 26154 07280 12600 71908 10160 20090 39991 40260 56010 60006 84801 91500=
07280,1996-10-26 18:00:00,12,1027.1,0.6,82,9,20000,7.408,,,170,3,17.2,,,,,,,,,wg-a,,,,AAXX 26184 07280 12770 61704 10120 20090 39997 40271 53006 60006 84531 91800 333 10172 20030=
07280,1996-10-26 21:00:00,11,1027.3,0.1,82,8,15000,7.408,,,250,,,,,,,,,,,wg-a,,,,AAXX 26214 07280 12765 62504 10110 20080 39998 40273 51001 60006 855/1 92100=
07280,1996-10-27 00:00:00,9,1027,-0.4,93,8,12000,3.704,,,200,,,,,,,,,,,wg-a,,,,AAXX 27004 07280 12762 52002 10090 20080 39994 40270 57004 60006 835/1 90000=
07280,1996-10-27 03:00:00,7,1026.5,-0.7,100,7,3500,0,,,0,,,,,,,,,,10,wg-a,,,,AAXX 27034 07280 12535 70000 10070 20070 39987 40265 58007 60006 71022 875// 90300=
07280,1996-10-27 06:00:00,6,1026.4,-0.3,100,6,300,0,,,0,5.8,11.8,,,,,,,,44,wg-a,,,,AAXX 27064 07280 02403 50000 10060 20060 39984 40264 57003 60006 74441 85500 90600 333 10118 20058 60004=
07280,1996-10-27 09:00:00,9,1026.2,0.2,100,9,4000,3.704,,,210,,,,0,,,,,,28,wg-a,,,,AAXX 27094 07280 12140 62102 10090 20090 39986 40262 50002 60007 72841 83101 90900=
07280,1996-10-27 12:00:00,16,1023.3,-2.2,72,11,20000,18.52,,,200,,,,,,,,,,1,wg-a,,,,AAXX 27124 07280 12570 72010 10160 20110 39964 40233 58022 60006 70141 81101 91200=
07280,1996-10-27 15:00:00,16,1021.5,-1.7,63,9,20000,14.816,,,190,,,,,,,,,,,wg-a,,,,AAXX 27154 07280 12/70 81908 10160 20090 39947 40215 56017 60006 8707/ 91500=
07280,1996-10-27 18:00:00,14,1021.5,-0.2,77,10,20000,7.408,,,220,4.3,16.3,,,,,,,,,wg-a,,,,AAXX 27184 07280 32/70 82204 10140 20100 39945 40215 55002 8807/ 91800 333 10163 20043=
07280,1996-10-27 21:00:00,13,1021,-0.6,77,9,15000,7.408,,,190,,,,,,,,,,,wg-a,,,,AAXX 27214 07280 12/65 71904 10130 20090 39939 40210 56006 60006 8707/ 92100=
07280,1996-10-28 00:00:00,12,1020.5,-0.5,88,10,15000,14.816,,,210,,,,,,,,,,,wg-a,,,,AAXX 28004 07280 12/65 72108 10120 20100 39934 40205 58005 60006 8707/ 90000=
07280,1996-10-28 03:00:00,11,1019.3,-1.3,94,10,10000,18.52,,,210,,,,,,,,,,,wg-a,,,,AAXX 28034 07280 12/60 62110 10110 20100 39921 40193 56013 60006 82071 90300=
07280,1996-10-28 06:00:00,9,1018.6,-0.9,93,8,2000,14.816,,,190,8.8,14.1,,,,,,,,10,wg-a,,,,AAXX 28064 07280 02120 41908 10090 20080 39912 40186 58009 60006 71011 81671 90600 333 10141 20088 60004=
07280,1996-10-28 09:00:00,11,1017.8,-0.6,94,10,4000,29.632,,,200,,,,,,,,,,10,wg-a,,,,AAXX 28094 07280 12240 72016 10110 20100 39906 40178 58006 60006 71011 82731 90900=
07280,1996-10-28 12:00:00,15,1015.8,-1.6,77,11,12000,22.224,,,220,,,,,,,,,,,wg-a,,,,AAXX 28124 07280 12762 72212 10150 20110 39890 40158 58016 60006 8253/ 91200=
07280,1996-10-28 15:00:00,16,1014.2,-1.4,63,9,15000,29.632,,,220,,,,,,,,,,61,wg-a,,,,AAXX 28154 07280 02565 82216 10160 20090 39876 40142 55014 61000 76162 8557/ 91500 333 ////=
07280,1996-10-28 18:00:00,16,1013.3,-0.9,68,10,15000,18.52,,,200,8.3,16.8,,,,,,,,21,wg-a,,,,AAXX 28184 07280 02565 72010 10160 20100 39867 40133 56009 61000 72162 8583/ 91800 333 10168 20083 ////=
07280,1996-10-28 21:00:00,15,1012.2,-1.1,82,12,12000,29.632,,,210,,,,,,,,,,,wg-a,,,,AAXX 28214 07280 12562 72116 10150 20120 39856 40122 58011 60006 878// 92100=
07280,1996-10-29 00:00:00,14,1010.9,-1.4,88,12,12000,18.52,,,210,,,,0,,,,,,3,wg-a,,,,AAXX 29004 07280 02562 /2110 10140 20120 39842 40109 58014 60016 70362 86500 90000 333 60007=
07280,1996-10-29 03:00:00,14,1010.4,-0.6,72,9,12000,29.632,,,250,,,,0,,,,,,21,wg-a,,,,AAXX 29034 07280 12562 /2516 10140 20090 39836 40104 56006 60007 72162 81530 90300=
07280,1996-10-29 06:00:00,12,1011.6,1.1,76,8,25000,29.632,,,230,11.7,16.4,,,,,1,,,3,wg-a,,,,AAXX 29064 07280 12575 72316 10120 20080 39847 40116 51011 60014 70362 878// 90600 333 10164 20117=
07280,1996-10-29 09:00:00,13,1013.3,1.7,72,8,500,29.632,,,230,,,,,,,,,,3,wg-a,,,,AAXX 29094 07280 02500 72316 10130 20080 39864 40133 53017 61000 70386 872// 90900 333 ////=
07280,1996-10-29 12:00:00,12,1014.6,1.2,76,8,18000,29.632,,,230,,,,,,,,,,60,wg-a,,,,AAXX 29124 07280 02468 82316 10120 20080 39876 40146 52012 61000 76086 888// 91200 333 6100=
07280,1996-10-29 15:00:00,11,1016,1.3,87,9,12000,22.224,,,250,,,,0,,,,,,60,wg-a,,,,AAXX 29154 07280 12562 82512 10110 20090 39889 40160 53013 60007 76066 888// 91500=
07280,1996-10-29 18:00:00,10,1019.9,3.7,87,8,15000,22.224,,,340,10.3,14.2,,,,,,,,1,wg-a,,,,AAXX 29184 07280 02565 83412 10100 20080 39926 40199 53037 61000 70162 8587/ 91800 333 10142 20103 ////=
07280,1996-10-29 21:00:00,7,1023.3,3,93,6,15000,7.408,,,310,,,,,,,,,,,wg-a,,,,AAXX 29214 07280 12765 43104 10070 20060 39956 40233 51030 60006 82530 92100=
07280,1996-10-30 00:00:00,7,1026.2,2.7,87,5,15000,3.704,,,270,,,,,,,,,,,wg-a,,,,AAXX 30004 07280 12565 72702 10070 20050 39983 40262 51027 60006 878// 90000=
07280,1996-10-30 03:00:00,4,1027.5,1,100,4,15000,3.704,,,280,,,,,,,,,,,wg-a,,,,AAXX 30034 07280 12765 72802 10040 20040 39993 40275 50010 60006 875// 90300=
07280,1996-10-30 06:00:00,5,1029.1,1.6,100,5,20000,3.704,,,60,3,10.2,,,,,,,,,wg-a,,,,AAXX 30064 07280 02670 80602 10050 20050 30009 40291 53016 60006 885// 90600 333 10102 20030 60004=
07280,1996-10-30 09:00:00,7,1030.2,1.4,93,6,9000,3.704,,,130,,,,,,,,,,,wg-a,,,,AAXX 30094 07280 12659 71302 10070 20060 30023 40302 51014 60006 875// 90900=
07280,1996-10-30 12:00:00,11,1030.6,0.7,50,1,25000,11.112,,,320,,,,,,,,,,,wg-a,,,,AAXX 30124 07280 12675 73206 10110 20010 30030 40306 51007 60006 878// 91200=
07280,1996-10-30 15:00:00,11,1030.7,0.1,50,1,25000,3.704,,,300,,,,,,,,,,,wg-a,,,,AAXX 30154 07280 12675 73002 10110 20010 30031 40307 53001 60006 875// 91500=
07280,1996-10-30 18:00:00,9,1031.4,0.5,61,2,25000,3.704,,,230,4.4,11,,,,,,,,,wg-a,,,,AAXX 30184 07280 12675 72302 10090 20020 30036 40314 53005 60006 875// 91800 333 10110 20044=
07280,1996-10-30 21:00:00,6,1031.3,-0.4,81,3,20000,7.408,,,170,,,,,,,,,,,wg-a,,,,AAXX 30214 07280 12670 21704 10060 20030 30032 40313 57004 60006 81501 92100=
07280,1996-10-31 00:00:00,2,1030.7,-1,93,1,12000,3.704,,,260,,,,,,,,,,,wg-a,,,,AAXX 31004 07280 12/62 12602 10020 20010 30022 40307 58010 60006 80001 90000=
07280,1996-10-31 03:00:00,0,1030.4,-0.5,93,-1,8000,3.704,,,10,,,,,,,,,,,wg-a,,,,AAXX 31034 07280 12/58 /0102 10000 21010 30017 40304 56005 60006 80001 90300=
07280,1996-10-31 06:00:00,-1,1029.8,-0.7,93,-2,4000,0,,,0,-1.1,9.1,,,,,,,,10,wg-a,,,,AAXX 31064 07280 02740 /0000 11010 21020 30010 40298 56007 60006 71011 81501 90600 333 10091 21011 60004=
07280,1996-10-31 09:00:00,5,1029.1,0,87,3,10000,3.704,,,140,,,,,,,,,,,wg-a,,,,AAXX 31094 07280 12/60 61402 10050 20030 30010 40291 50000 60006 81032 90900=
07280,1996-10-31 12:00:00,10,1026.4,-2.1,62,3,15000,18.52,,,200,,,,,,,,,,,wg-a,,,,AAXX 31124 07280 12/65 42010 10100 20030 39989 40264 58021 60006 82031 91200=
07280,1996-10-31 15:00:00,12,1024.2,-2,54,3,20000,18.52,,,190,,,,,,,,,,,wg-a,,,,AAXX 31154 07280 12770 /1910 10120 20030 39969 40242 56020 60006 83531 91500=
07280,1996-10-31 18:00:00,11,1024.6,0.3,62,4,20000,7.408,,,220,-1.6,12,,,,,,,,,wg-a,,,,AAXX 31184 07280 12770 72204 10110 20040 39972 40246 53003 60006 875// 91800 333 10120 21016=
07280,1996-10-31 21:00:00,10,1024.7,0,82,7,20000,18.52,,,220,,,,,,,,,,3,wg-a,,,,AAXX 31214 07280 02470 82210 10100 20070 39972 40247 50000 61000 70362 875// 92100 333 ////=
07280,1996-11-01 00:00:00,10,1024.3,-0.4,87,8,20000,25.928,,,200,,,,,,,,,,21,wg-a,,,,AAXX 01004 07280 02370 82014 10100 20080 39968 40243 56004 61000 72162 885// 90000 333 6100=
07280,1996-11-01 03:00:00,10,1024.3,-0,87,8,15000,18.52,,,200,,,,,,,,,,,wg-a,,,,AAXX 01034 07280 12365 82010 10100 20080 39968 40243 55000 60006 875// 90300=
07280,1996-11-01 06:00:00,10,1026,1.7,100,10,8000,18.52,,,210,9.2,10.7,,,,,,,,60,wg-a,,,,AAXX 01064 07280 02258 82110 10100 20100 39985 40260 53017 61000 76065 885// 90600 333 10107 20092 6100=
07280,1996-11-01 09:00:00,13,1027.9,2.2,88,11,15000,18.52,,,270,,,,,,,,,,3,wg-a,,,,AAXX 01094 07280 02365 72710 10130 20110 30007 40279 51022 61000 70365 86801 90900 333 ////=
07280,1996-11-01 12:00:00,12,1029.5,1.4,94,11,12000,14.816,,,290,,,,0,,,,,,60,wg-a,,,,AAXX 01124 07280 02362 72908 10120 20110 30021 40295 51014 60006 76065 878// 91200 333 60007=
07280,1996-11-01 15:00:00,15,1029.3,-0,67,9,500,14.816,,,310,,,,,,,,,,1,wg-a,,,,AAXX 01154 07280 02500 /3108 10150 20090 30021 40293 55000 61000 70162 86800 91500 333 ////=
07280,1996-11-01 18:00:00,12,1030.7,1.2,88,10,20000,3.704,,,250,10.4,15.1,,,,,,,,1,wg-a,,,,AAXX 01184 07280 32570 /2502 10120 20100 30033 40307 53012 70162 85800 91800 333 10151 20104=
07280,1996-11-01 21:00:00,11,1031.8,1,94,10,20000,11.112,,,290,,,,,,,,,,,wg-a,,,,AAXX 01214 07280 12670 72906 10110 20100 30043 40318 53010 60006 875// 92100=
07280,1996-11-02 00:00:00,12,1031.7,0,88,10,20000,7.408,,,260,,,,,,,,,,,wg-a,,,,AAXX 02004 07280 12670 82604 10120 20100 30043 40317 50000 60006 885// 90000=
07280,1996-11-02 03:00:00,10,1031.5,-0.5,93,9,20000,7.408,,,170,,,,,,,,,,,wg-a,,,,AAXX 02034 07280 12670 81704 10100 20090 30038 40315 58005 60006 885// 90300=
07280,1996-11-02 06:00:00,9,1031.3,-0.2,100,9,20000,3.704,,,160,9.2,12.3,,,,,,,,,wg-a,,,,AAXX 02064 07280 02570 71602 10090 20090 30036 40313 57002 60006 875// 90600 333 10123 20092 60004=
07280,1996-11-02 09:00:00,12,1031.8,0.8,88,10,8000,7.408,,,140,,,,,,,,,,,wg-a,,,,AAXX 02094 07280 12458 71404 10120 20100 30044 40318 50008 60006 878// 90900=
07280,1996-11-02 12:00:00,14,1031.3,-0.4,82,11,15000,7.408,,,180,,,,,,,,,,,wg-a,,,,AAXX 02124 07280 12465 71804 10140 20110 30040 40313 58004 60006 878// 91200=
07280,1996-11-02 15:00:00,14,1030.4,-0.9,82,11,25000,7.408,,,150,,,,,,,,,,,wg-a,,,,AAXX 02154 07280 12475 81504 10140 20110 30031 40304 57009 60006 888// 91500=
07280,1996-11-02 18:00:00,12,1030.8,0.3,88,10,20000,3.704,,,200,9.3,14,,,,,,,,,wg-a,,,,AAXX 02184 07280 12470 82002 10120 20100 30034 40308 52003 60006 888// 91800 333 10140 20093=
07280,1996-11-02 21:00:00,8,1031,-0.3,93,7,20000,0,,,0,,,,,,,,,,11,wg-a,,,,AAXX 02214 07280 12/70 00000 10080 20070 30031 40310 56003 60006 71111 80000 92100=
07280,1996-11-03 00:00:00,6,1030.3,-0.9,93,5,500,7.408,,,10,,,,,,,,,,41,wg-a,,,,AAXX 03004 07280 12/05 00104 10060 20050 30022 40303 58009 60006 74141 80000 90000=
07280,1996-11-03 03:00:00,4,1029.1,-1.3,100,4,400,3.704,,,200,,,,,,,,,,41,wg-a,,,,AAXX 03034 07280 12/04 02002 10040 20040 30009 40291 58013 60006 74140 80000 90300=
07280,1996-11-03 06:00:00,4,1028.7,-0.4,100,4,400,7.408,,,150,2.7,12.2,,,,,,,,42,wg-a,,,,AAXX 03064 07280 02104 71504 10040 20040 30005 40287 58004 60006 74241 875// 90600 333 10122 20027 60004=
07280,1996-11-03 09:00:00,5,1029,0.4,100,5,200,3.704,,,150,,,,,,,,,,43,wg-a,,,,AAXX 03094 07280 12/02 91502 10050 20050 30009 40290 51004 60006 74344 89/// 90900=
07280,1996-11-03 12:00:00,9,1027.6,-0.9,100,9,6000,11.112,,,180,,,,,,,,,,1,wg-a,,,,AAXX 03124 07280 12256 71806 10090 20090 30000 40276 58009 60006 70142 876// 91200=
07280,1996-11-03 15:00:00,14,1025.8,-1.3,72,9,15000,14.816,,,210,,,,,,,,,,,wg-a,,,,AAXX 03154 07280 12565 /2108 10140 20090 39987 40258 56013 60006 83801 91500=
07280,1996-11-03 18:00:00,8,1026.9,0.4,81,5,20000,11.112,,,200,3.6,14.5,,,,,,,,,wg-a,,,,AAXX 03184 07280 12570 32006 10080 20050 39991 40269 53004 60006 82501 91800 333 10145 20036=
07280,1996-11-03 21:00:00,9,1026.4,-0.4,87,7,20000,7.408,,,190,,,,,,,,,,,wg-a,,,,AAXX 03214 07280 12470 81904 10090 20070 39987 40264 56004 60006 885// 92100=
07280,1996-11-04 00:00:00,7,1024.9,-1.6,93,6,20000,11.112,,,180,,,,,,,,,,,wg-a,,,,AAXX 04004 07280 12470 71806 10070 20060 39971 40249 58016 60006 82501 90000=
07280,1996-11-04 03:00:00,3,1023.2,-2.1,93,2,200,3.704,,,160,,,,,,,,,,44,wg-a,,,,AAXX 04034 07280 12/02 71602 10030 20020 39950 40232 58021 60006 74442 80002 90300=
07280,1996-11-04 06:00:00,3,1021,-2.1,100,3,100,7.408,,,170,2.7,8.8,,,,,,,,44,wg-a,,,,AAXX 04064 07280 02101 71704 10030 20030 39929 40210 58021 60006 74442 86702 90600 333 10088 20027 60004=
07280,1996-11-04 09:00:00,7,1019.1,-1.4,100,7,1000,18.52,,,210,,,,,,,,,,28,wg-a,,,,AAXX 04094 07280 12110 82110 10070 20070 39915 40191 58014 60006 72842 886// 90900=
07280,1996-11-04 12:00:00,14,1015.2,-3.2,77,10,10000,25.928,,,200,,,,,,,,,,1,wg-a,,,,AAXX 04124 07280 12460 72014 10140 20100 39883 40152 58032 60006 70142 81101 91200=
07280,1996-11-04 15:00:00,17,1012.2,-2.6,63,10,15000,35.188,,,200,,,,,,,,,,,wg-a,,,,AAXX 04154 07280 12/65 72019 10170 20100 39857 40122 56026 60006 80002 91500=
07280,1996-11-04 18:00:00,14,1011.2,-1.2,77,10,15000,29.632,,,200,3.4,17.1,,,,,,,,,wg-a,,,,AAXX 04184 07280 12/65 82016 10140 20100 39845 40112 58012 60006 83072 91800 333 10171 20034=
07280,1996-11-04 21:00:00,13,1010.2,-1.1,82,10,15000,29.632,,,200,,,,,,,,,,,wg-a,,,,AAXX 04214 07280 12/65 82016 10130 20100 39834 40102 58011 60006 8707/ 92100=
07280,1996-11-05 00:00:00,13,1010.6,0.4,82,10,10000,31.484,,,230,,,,1,,,,,,61,wg-a,,,,AAXX 05004 07280 02460 82317 10130 20100 39838 40106 53004 60016 76162 8487/ 90000 333 60017=
07280,1996-11-05 03:00:00,12,1009.6,-1.1,82,9,10000,22.224,,,230,,,,4,,,,,,61,wg-a,,,,AAXX 05034 07280 12460 82312 10120 20090 39827 40096 56011 60047 76162 888// 90300=
07280,1996-11-05 06:00:00,11,1011.6,1.8,82,8,20000,14.816,,,200,10,14,,1,,,5,,,1,wg-a,,,,AAXX 05064 07280 02570 82008 10110 20080 39845 40116 51018 60054 70162 8387/ 90600 333 10140 20100 60017=
07280,1996-11-05 09:00:00,11,1016,4.3,76,7,20000,22.224,,,200,,,,,,,,,,,wg-a,,,,AAXX 05094 07280 12570 72012 10110 20070 39888 40160 51043 60006 85872 90900=
07280,1996-11-05 12:00:00,12,1017.5,1.6,71,7,20000,22.224,,,240,,,,0,,,,,,3,wg-a,,,,AAXX 05124 07280 02570 52412 10120 20070 39904 40175 51016 60016 70386 85200 91200 333 60007=
07280,1996-11-05 15:00:00,12,1019.1,1.6,71,7,25000,22.224,,,230,,,,,,,,,,1,wg-a,,,,AAXX 05154 07280 02675 22312 10120 20070 39920 40191 51016 61000 70186 82200 91500 333 ////=
07280,1996-11-05 18:00:00,7,1022.8,3.1,81,4,20000,11.112,,,270,7.3,13.4,,,,,,,,1,wg-a,,,,AAXX 05184 07280 32770 12706 10070 20040 39951 40228 53031 70186 81500 91800 333 10134 20073=
07280,1996-11-05 21:00:00,5,1024.7,1.6,93,4,20000,11.112,,,220,,,,,,,,,,,wg-a,,,,AAXX 05214 07280 12/70 02206 10050 20040 39967 40247 52016 60006 80000 92100=
07280,1996-11-06 00:00:00,2,1025.2,0.2,93,1,15000,0,,,0,,,,,,,,,,11,wg-a,,,,AAXX 06004 07280 12/65 00000 10020 20010 39969 40252 52002 60006 71100 80000 90000=
07280,1996-11-06 03:00:00,2,1024.5,-0.7,100,2,12000,11.112,,,230,,,,,,,,,,,wg-a,,,,AAXX 06034 07280 12/62 02306 10020 20020 39962 40245 57007 60006 80000 90300=
07280,1996-11-06 06:00:00,3,1024.3,-0.1,93,2,12000,11.112,,,190,1,7.5,,,,,,,,,wg-a,,,,AAXX 06064 07280 02/62 11906 10030 20020 39961 40243 55001 60006 81030 90600 333 10075 20010 60004=
07280,1996-11-06 09:00:00,6,1023.4,-0.5,87,4,20000,25.928,,,200,,,,,,,,,,,wg-a,,,,AAXX 06094 07280 12670 72014 10060 20040 39956 40234 58005 60006 875// 90900=
07280,1996-11-06 12:00:00,9,1021.8,-1.3,81,6,15000,29.632,,,200,,,,,,,,,,20,wg-a,,,,AAXX 06124 07280 02565 82016 10090 20060 39943 40218 58013 61000 72051 885// 91200 333 6100=
07280,1996-11-06 15:00:00,11,1020.5,-1.1,71,6,18000,22.224,,,190,,,,,,,,,,1,wg-a,,,,AAXX 06154 07280 02568 81912 10110 20060 39932 40205 56011 61000 70162 8657/ 91500 333 ////=
07280,1996-11-06 18:00:00,11,1020.6,0.1,76,7,15000,22.224,,,210,2.5,11,,,,,,,,0,wg-a,,,,AAXX 06184 07280 02465 82112 10110 20070 39933 40206 53001 61000 70062 878// 91800 333 10110 20025 ////=
07280,1996-11-06 21:00:00,12,1019.7,-0.8,76,8,15000,29.632,,,200,,,,,,,,,,,wg-a,,,,AAXX 06214 07280 12565 82016 10120 20080 39925 40197 56008 60006 885// 92100=
07280,1996-11-07 00:00:00,12,1018.9,-0.8,82,9,12000,22.224,,,190,,,,0,,,,,,2,wg-a,,,,AAXX 07004 07280 02462 81912 10120 20090 39917 40189 56008 60006 70262 888// 90000 333 60007=
07280,1996-11-07 03:00:00,11,1017.1,-1.7,82,8,12000,25.928,,,190,,,,,,,,,,,wg-a,,,,AAXX 07034 07280 12462 81914 10110 20080 39900 40171 58017 60006 888// 90300=
07280,1996-11-07 06:00:00,10,1015.5,-1.7,87,8,8000,31.484,,,200,10,12.3,,,,,,,,60,wg-a,,,,AAXX 07064 07280 02358 82017 10100 20080 39883 40155 56017 60004 76062 888// 90600 333 10123 20100 61000=
07280,1996-11-07 09:00:00,12,1014.5,-0.8,88,10,8000,31.484,,,200,,,,0,,,,,,21,wg-a,,,,AAXX 07094 07280 12358 72017 10120 20100 39875 40145 57008 60007 72162 878// 90900=
07280,1996-11-07 12:00:00,16,1014,-0.1,77,12,500,31.484,,,240,,,,,,,,,,60,wg-a,,,,AAXX 07124 07280 02200 82417 10160 20120 39874 40140 55001 60006 76062 888// 91200 333 61000=
07280,1996-11-07 15:00:00,13,1017,2.6,82,10,20000,18.52,,,240,,,,6,,,,,,21,wg-a,,,,AAXX 07154 07280 12370 /2410 10130 20100 39900 40170 51026 60067 72162 85870 91500=
07280,1996-11-07 18:00:00,11,1020.1,2.8,76,7,20000,14.816,,,230,9.8,15.9,,,,,,,,1,wg-a,,,,AAXX 07184 07280 32470 /2308 10110 20070 39928 40201 53028 70162 83830 91800 333 10159 20098=
07280,1996-11-07 21:00:00,8,1022.9,2.5,93,7,20000,18.52,,,210,,,,,,,,,,,wg-a,,,,AAXX 07214 07280 12670 /2110 10080 20070 39953 40229 51025 60006 81100 92100=
07280,1996-11-08 00:00:00,8,1024.5,1.5,93,7,20000,22.224,,,220,,,,,,,,,,,wg-a,,,,AAXX 08004 07280 12570 /2212 10080 20070 39968 40245 51015 60006 81100 90000=
07280,1996-11-08 03:00:00,5,1026.4,1.6,100,5,20000,7.408,,,160,,,,,,,,,,,wg-a,,,,AAXX 08034 07280 12570 21604 10050 20050 39984 40264 52016 60006 82500 90300=
07280,1996-11-08 06:00:00,4,1027.7,1.1,100,4,20000,7.408,,,200,2.7,10.6,,,,,6,,,,wg-a,,,,AAXX 08064 07280 02570 22004 10040 20040 39995 40277 53011 60006 81530 90600 333 10106 20027 60064=
07280,1996-11-08 09:00:00,9,1028.9,1.7,81,6,20000,14.816,,,200,,,,,,,,,,,wg-a,,,,AAXX 08094 07280 12470 /2008 10090 20060 30012 40289 51017 60006 81100 90900=
07280,1996-11-08 12:00:00,12,1029.2,0.5,62,5,25000,18.52,,,240,,,,,,,,,,,wg-a,,,,AAXX 08124 07280 12575 52410 10120 20050 30017 40292 50005 60006 85200 91200=
07280,1996-11-08 15:00:00,12,1029,-0.1,54,3,25000,7.408,,,240,,,,,,,,,,,wg-a,,,,AAXX 08154 07280 12675 /2404 10120 20030 30016 40290 56001 60006 81800 91500=
07280,1996-11-08 18:00:00,6,1030.3,0.7,81,3,500,7.408,,,240,3.7,13.2,,,,,,,,,wg-a,,,,AAXX 08184 07280 12700 12404 10060 20030 30023 40303 53007 60006 81500 91800 333 10132 20037=
07280,1996-11-08 21:00:00,3,1031.8,1.1,93,2,20000,0,,,0,,,,,,,,,,,wg-a,,,,AAXX 08214 07280 12/70 00000 10030 20020 30034 40318 53011 60006 80000 92100=
07280,1996-11-09 00:00:00,2,1032.4,0.4,93,1,15000,7.408,,,300,,,,,,,,,,,wg-a,,,,AAXX 09004 07280 12/65 03004 10020 20010 30038 40324 51004 60006 80000 90000=
07280,1996-11-09 03:00:00,0,1032.6,0.1,100,0,800,0,,,0,,,,,,,,,,41,wg-a,,,,AAXX 09034 07280 12308 30000 10000 20000 30039 40326 50001 60006 74140 83600 90300=
07280,1996-11-09 06:00:00,0,1032.8,0.1,93,-1,200,3.704,,,50,-1.5,6.3,,,,,,,,10,wg-a,,,,AAXX 09064 07280 02102 70502 10000 21010 30040 40328 53001 60006 71041 876// 90600 333 10063 21015 60004=
07280,1996-11-09 09:00:00,1,1032.9,0.3,100,1,200,3.704,,,100,,,,,,,,,,44,wg-a,,,,AAXX 09094 07280 12102 /1002 10010 20010 30043 40329 50003 60006 74444 85601 90900=
07280,1996-11-09 12:00:00,9,1030.1,,81,6,6000,3.704,,,170,,,,,,,,,,28,wg-a,,,,AAXX 09124 07280 32556 /1702 10090 20060 30028 40301 72841 81180 91200=
07280,1996-11-09 15:00:00,11,1029,-1.5,76,7,25000,11.112,,,180,,,,,,,,,,,wg-a,,,,AAXX 09154 07280 12575 41806 10110 20070 30015 40290 56015 60006 81131 91500=
07280,1996-11-09 18:00:00,6,1029.1,-0.5,87,4,20000,0,,,0,-0.6,11.4,,,,,,,,,wg-a,,,,AAXX 09184 07280 12770 50000 10060 20040 30010 40291 56005 60006 815/1 91800 333 10114 21006=
07280,1996-11-09 21:00:00,3,1028.1,-1.2,100,3,15000,3.704,,,10,,,,,,,,,,,wg-a,,,,AAXX 09214 07280 12/65 50102 10030 20030 39998 40281 56012 60006 80001 92100=
07280,1996-11-10 00:00:00,2,1025.9,-2.2,100,2,4000,7.408,,,340,,,,,,,,,,10,wg-a,,,,AAXX 10004 07280 12/40 73404 10020 20020 39976 40259 58022 60006 71041 81031 90000=
07280,1996-11-10 03:00:00,1,1022.7,-3.2,100,1,500,7.408,,,10,,,,,,,,,,,wg-a,,,,AAXX 10034 07280 12200 80104 10010 20010 39944 40227 56032 60006 886// 90300=
07280,1996-11-10 06:00:00,1,1020.2,-2.5,100,1,800,3.704,,,70,1.1,5.5,,,,,,,,40,wg-a,,,,AAXX 10064 07280 02108 80702 10010 20010 39919 40202 57025 60006 74042 886// 90600 333 10055 20011 60004=
07280,1996-11-10 09:00:00,3,1018.3,-1.6,100,3,400,7.408,,,200,,,,,,,,,,42,wg-a,,,,AAXX 10094 07280 12104 92004 10030 20030 39903 40183 58016 60006 74244 896// 90900=
07280,1996-11-10 12:00:00,5,1015.1,-2.9,100,5,500,0,,,0,,,,0,,,,,,1,wg-a,,,,AAXX 10124 07280 02100 80000 10050 20050 39874 40151 58029 60006 70164 875// 91200 333 60007=
07280,1996-11-10 15:00:00,7,1012.5,-2.4,93,6,500,3.704,,,190,,,,0,,,,,,61,wg-a,,,,AAXX 10154 07280 12300 81902 10070 20060 39850 40125 56024 60007 76162 8557/ 91500=
07280,1996-11-10 18:00:00,7,1010.5,-1.9,100,7,3000,3.704,,,220,1.3,7,,3,,,,,,61,wg-a,,,,AAXX 10184 07280 12430 82202 10070 20070 39831 40105 56019 60037 76162 8557/ 91800 333 10070 20013=
07280,1996-11-10 21:00:00,7,1008.9,-1.5,100,7,1500,7.408,,,300,,,,2,,,,,,10,wg-a,,,,AAXX 10214 07280 12115 83004 10070 20070 39816 40089 56015 60027 71066 876// 92100=
07280,1996-11-11 00:00:00,7,1006.4,-2.5,100,7,100,3.704,,,60,,,,,,,,,,45,wg-a,,,,AAXX 11004 07280 12/01 90602 10070 20070 39791 40064 58025 60026 74564 89/// 90000=
07280,1996-11-11 03:00:00,7,1002,-4.2,100,7,100,3.704,,,40,,,,,,,,,,45,wg-a,,,,AAXX 11034 07280 32/01 90402 10070 20070 39749 40020 58042 74542 89/// 90300=
07280,1996-11-11 06:00:00,8,998.9,-3,100,8,800,0,,,0,6.3,7.8,,1,,,12,,,41,wg-a,,,,AAXX 11064 07280 02108 70000 10080 20080 39719 49989 56030 60124 74164 8557/ 90600 333 10078 20063 60017=
07280,1996-11-11 09:00:00,9,996.7,-2,100,9,8000,3.704,,,190,,,,0,,,,,,61,wg-a,,,,AAXX 11094 07280 12458 81902 10090 20090 39699 49967 56020 60007 76164 8557/ 90900=
07280,1996-11-11 12:00:00,10,995.9,-0.7,93,9,12000,14.816,,,50,,,,2,,,,,,60,wg-a,,,,AAXX 11124 07280 02462 80508 10100 20090 39692 49959 58007 60036 76064 8557/ 91200 333 60027=
07280,1996-11-11 15:00:00,10,994.4,-1.4,100,10,500,14.816,,,90,,,,5,,,,,,63,wg-a,,,,AAXX 11154 07280 12200 80908 10100 20100 39678 49944 55014 60057 76362 8557/ 91500=
07280,1996-11-11 18:00:00,10,994.4,-0,100,10,7000,7.408,,,140,7.4,10.8,,6,,,,,,21,wg-a,,,,AAXX 11184 07280 12257 81404 10100 20100 39678 49944 55000 60067 72162 8657/ 91800 333 10108 20074=
07280,1996-11-11 21:00:00,9,996.7,2,93,8,6000,14.816,,,60,,,,8,,,,,,61,wg-a,,,,AAXX 11214 07280 12556 80608 10090 20080 39698 49967 53020 60087 76162 885// 92100=
07280,1996-11-12 00:00:00,8,997.4,0.7,100,8,6000,7.408,,,10,,,,9,,,,,,63,wg-a,,,,AAXX 12004 07280 02256 80104 10080 20080 39705 49974 51007 60176 76398 885// 90000 333 60097=
07280,1996-11-12 03:00:00,9,995.3,-2,100,9,6000,11.112,,,20,,,66,8,,,,,,,wg-a,,,,AAXX 12034 07280 12156 80206 10090 20090 39685 49953 58020 60087 875// 90300=
07280,1996-11-12 09:00:00,12,996.6,0.9,94,11,15000,3.704,,,30,,,66,1,,,,,,21,wg-a,,,,AAXX 12094 07280 12565 80302 10120 20110 39700 49966 50009 60017 72162 872// 90900=
07280,1996-11-12 12:00:00,12,995.2,-1.2,100,12,500,11.112,,,120,,,,12,,,,,,65,wg-a,,,,AAXX 12124 07280 02100 81206 10120 20120 39688 49952 58012 60136 76562 8687/ 91200 333 60127=
07280,1996-11-12 15:00:00,11,999.9,4.4,94,10,8000,3.704,,,300,,,,24,,,,,,63,wg-a,,,,AAXX 12154 07280 12158 83002 10110 20100 39732 49999 51044 60247 76366 8587/ 91500=
07280,1996-11-12 18:00:00,10,1002.4,2.3,93,9,8000,7.408,,,160,9.5,13.1,,17,,,,,,63,wg-a,,,,AAXX 12184 07280 12158 81604 10100 20090 39755 40024 53023 60177 76366 888// 91800 333 10131 20095=
07280,1996-11-12 21:00:00,9,1004,1.5,100,9,8000,11.112,,,160,,,,19,,,,,,63,wg-a,,,,AAXX 12214 07280 12258 81606 10090 20090 39770 40040 51015 60197 76366 8682/ 92100=
07280,1996-11-13 00:00:00,9,1005.5,1.4,100,9,7000,7.408,,,190,,,,9,,,,,,63,wg-a,,,,AAXX 13004 07280 02257 81904 10090 20090 39784 40055 51014 60296 76366 8652/ 90000 333 60097=
07280,1996-11-13 03:00:00,8,1005.9,0.4,100,8,8000,11.112,,,230,,,,8,,,,,,61,wg-a,,,,AAXX 13034 07280 12358 82306 10080 20080 39788 40059 53004 60087 76162 8652/ 90300=
07280,1996-11-13 06:00:00,8,1007.6,1.6,93,7,8000,14.816,,,210,8,9.5,,3,,,93,,,61,wg-a,,,,AAXX 13064 07280 02358 82108 10080 20070 39804 40076 53016 60934 76162 8652/ 90600 333 10095 20080 60037=
07280,1996-11-13 09:00:00,8,1010.4,2.7,93,7,13000,14.816,,,200,,,,0,,,,,,3,wg-a,,,,AAXX 13094 07280 12463 82008 10080 20070 39831 40104 51027 60007 70362 8482/ 90900=
07280,1996-11-13 12:00:00,10,1011.4,1.2,87,8,15000,7.408,,,240,,,,,,,,,,1,wg-a,,,,AAXX 13124 07280 12365 82404 10100 20080 39843 40114 51012 60016 70162 878// 91200=
07280,1996-11-13 15:00:00,10,1012.2,0.7,82,7,15000,11.112,,,330,,,,,,,,,,,wg-a,,,,AAXX 13154 07280 12565 73306 10100 20070 39850 40122 51007 60006 8587/ 91500=
07280,1996-11-13 18:00:00,8,1014.3,1.9,87,6,12000,22.224,,,10,7.7,10.3,,,,,,,,,wg-a,,,,AAXX 13184 07280 32462 80112 10080 20060 39869 40143 52019 888// 91800 333 10103 20077=
07280,1996-11-13 21:00:00,6,1016.1,1.6,93,5,15000,25.928,,,10,,,,,,,,,,,wg-a,,,,AAXX 13214 07280 12365 80114 10060 20050 39885 40161 51016 60006 885// 92100=
07280,1996-11-14 00:00:00,6,1016.6,0.4,87,4,15000,18.52,,,360,,,,,,,,,,,wg-a,,,,AAXX 14004 07280 12665 73610 10060 20040 39889 40166 50004 60006 875// 90000=
07280,1996-11-14 03:00:00,3,1017.3,0.4,93,2,15000,22.224,,,350,,,,,,,,,,,wg-a,,,,AAXX 14034 07280 12/65 13512 10030 20020 39893 40173 53004 60006 81030 90300=
07280,1996-11-14 06:00:00,3,1018.2,0.8,87,1,12000,18.52,,,20,2.7,7.7,,,,,55,,,,wg-a,,,,AAXX 14064 07280 02/62 10210 10030 20010 39901 40182 53008 60006 81030 90600 333 10077 20027 60004=
07280,1996-11-14 09:00:00,3,1019.4,1.3,87,1,15000,25.928,,,20,,,,,,,,,,,wg-a,,,,AAXX 14094 07280 12465 70214 10030 20010 39914 40194 51013 60006 875// 90900=
07280,1996-11-14 12:00:00,7,1018.2,-0.9,70,2,20000,31.484,,,20,,,,,,,,,,,wg-a,,,,AAXX 14124 07280 12570 20217 10070 20020 39905 40182 58009 60006 82130 91200=
07280,1996-11-14 15:00:00,6,1018.5,0.2,65,0,25000,31.484,,,20,,,,,,,,,,,wg-a,,,,AAXX 14154 07280 12575 60217 10060 20000 39907 40185 53002 60006 86800 91500=
07280,1996-11-14 18:00:00,4,1019,0.4,75,0,20000,25.928,,,10,2.2,6.7,,,,,,,,,wg-a,,,,AAXX 14184 07280 12670 /0114 10040 20000 39911 40190 50004 60006 86500 91800 333 10067 20022=
07280,1996-11-14 21:00:00,4,1018.4,-0.6,75,0,15000,22.224,,,20,,,,,,,,,,60,wg-a,,,,AAXX 14214 07280 02665 70212 10040 20000 39905 40184 55006 61000 76062 8453/ 92100 333 ////=
07280,1996-11-15 00:00:00,4,1017.8,-0.7,75,0,15000,18.52,,,20,,,,,,,,,,2,wg-a,,,,AAXX 15004 07280 02665 80210 10040 20000 39898 40178 56007 61000 70262 875// 90000 333 6100=
07280,1996-11-15 03:00:00,3,1017.2,-0.6,87,1,15000,22.224,,,30,,,,,,,,,,,wg-a,,,,AAXX 15034 07280 12565 80312 10030 20010 39892 40172 58006 60006 875// 90300=
07280,1996-11-15 06:00:00,3,1017.4,0.2,87,1,15000,18.52,,,30,3.4,4.2,,,,,,,,,wg-a,,,,AAXX 15064 07280 02665 70310 10030 20010 39894 40174 53002 61000 875// 90600 333 10042 20034 ////=
07280,1996-11-15 09:00:00,5,1018.6,1.3,81,2,15000,18.52,,,40,,,,,,,,,,,wg-a,,,,AAXX 15094 07280 12565 80410 10050 20020 39907 40186 51013 60006 888// 90900=
07280,1996-11-15 12:00:00,6,1018.7,0.3,75,2,20000,18.52,,,40,,,,,,,,,,,wg-a,,,,AAXX 15124 07280 12570 70410 10060 20020 39910 40187 51003 60006 82201 91200=
07280,1996-11-15 15:00:00,6,1019.3,0.5,75,2,20000,18.52,,,30,,,,,,,,,,,wg-a,,,,AAXX 15154 07280 12470 80310 10060 20020 39915 40193 51005 60006 888// 91500=
07280,1996-11-15 18:00:00,5,1020.8,1.4,81,2,15000,14.816,,,10,3.4,6.7,,,,,,,,,wg-a,,,,AAXX 15184 07280 12565 70108 10050 20020 39929 40208 53014 60006 875// 91800 333 10067 20034=
07280,1996-11-15 20:00:00,5,1020.8,1.4,81,2,15000,14.816,,,10,3.4,6.7,,,,,,,,,wg-a,,,,AAXX 15204 07280 12565 70108 10050 20020 39929 40208 53014 60006 875// 92000 333 10067 20034=
07280,1996-11-15 21:00:00,4,1022.1,1.2,87,2,12000,14.816,,,10,,,,,,,,,,,wg-a,,,,AAXX 15214 07280 12/62 70108 10040 20020 39941 40221 51012 60006 8703/ 92100=
07280,1996-11-16 00:00:00,3,1022.7,0.4,87,1,12000,7.408,,,360,,,,,,,,,,,wg-a,,,,AAXX 16004 07280 12/62 43604 10030 20010 39945 40227 53004 60006 8403/ 90000=
07280,1996-11-16 03:00:00,2,1022,-0.7,93,1,12000,11.112,,,10,,,,,,,,,,,wg-a,,,,AAXX 16034 07280 12/62 60106 10020 20010 39938 40220 56007 60006 86030 90300=
07280,1996-11-16 06:00:00,3,1021.9,-0.1,87,1,12000,18.52,,,10,2.2,5,,,,,,,,,wg-a,,,,AAXX 16064 07280 02/62 70110 10030 20010 39937 40219 56001 60006 8703/ 90600 333 10050 20022 60004=
07280,1996-11-16 09:00:00,4,1022.8,1,87,2,10000,11.112,,,10,,,,,,,,,,,wg-a,,,,AAXX 16094 07280 12760 70106 10040 20020 39947 40228 51010 60006 83532 90900=
07280,1996-11-16 12:00:00,5,1021.8,-0.8,87,3,12000,18.52,,,20,,,,,,,,,,,wg-a,,,,AAXX 16124 07280 12462 80210 10050 20030 39939 40218 58008 60006 875// 91200=
07280,1996-11-16 15:00:00,5,1021.4,-0.4,87,3,12000,14.816,,,10,,,,,,,,,,,wg-a,,,,AAXX 16154 07280 12462 80108 10050 20030 39935 40214 55004 60006 885// 91500=
07280,1996-11-16 18:00:00,4,1020.8,-0.7,87,2,8000,18.52,,,10,2.5,5.4,,,,,,,,,wg-a,,,,AAXX 16184 07280 12458 80110 10040 20020 39928 40208 58007 60006 86502 91800 333 10054 20025=
07280,1996-11-16 21:00:00,4,1019.8,-1,87,2,8000,18.52,,,10,,,,,,,,,,,wg-a,,,,AAXX 16214 07280 12458 80110 10040 20020 39918 40198 58010 60006 886// 92100=
07280,1996-11-17 00:00:00,4,1018.4,-1.4,87,2,8000,18.52,,,20,,,,,,,,,,,wg-a,,,,AAXX 17004 07280 12358 80210 10040 20020 39904 40184 58014 60006 886// 90000=
07280,1996-11-17 03:00:00,3,1016.8,-1.6,93,2,8000,11.112,,,30,,,,,,,,,,,wg-a,,,,AAXX 17034 07280 12258 80306 10030 20020 39888 40168 56016 60006 886// 90300=
07280,1996-11-17 06:00:00,3,1015,-1.8,93,2,8000,3.704,,,340,2.6,3.9,,,,,,,,,wg-a,,,,AAXX 17064 07280 02258 83402 10030 20020 39870 40150 56018 60006 886// 90600 333 10039 20026 60004=
07280,1996-11-17 09:00:00,3,1014.2,-0.8,93,2,4000,3.704,,,30,,,,,,,,,,10,wg-a,,,,AAXX 17094 07280 12240 80302 10030 20020 39862 40142 58008 60006 71022 886// 90900=
07280,1996-11-17 12:00:00,3,1012,-2.1,93,2,7000,3.704,,,10,,,,,,,,,,,wg-a,,,,AAXX 17124 07280 12257 80102 10030 20020 39841 40120 58021 60006 876// 91200=
07280,1996-11-17 15:00:00,3,1010.3,-1.6,93,2,7000,7.408,,,40,,,,,,,,,,,wg-a,,,,AAXX 17154 07280 12257 80404 10030 20020 39825 40103 56016 60006 886// 91500=
07280,1996-11-17 18:00:00,3,1008.9,-1.4,100,3,4000,0,,,0,2.4,3.2,,0,,,,,,51,wg-a,,,,AAXX 17184 07280 12140 80000 10030 20030 39811 40089 56014 60007 75152 886// 91800 333 10032 20024=
07280,1996-11-17 21:00:00,3,1007,-1.8,100,3,4000,11.112,,,360,,,,3,,,,,,10,wg-a,,,,AAXX 17214 07280 12140 83606 10030 20030 39793 40070 56018 60037 71052 887// 92100=
07280,1996-11-18 00:00:00,3,1005.4,-1.5,100,3,7000,7.408,,,340,,,,1,,,,,,3,wg-a,,,,AAXX 18004 07280 02257 83404 10030 20030 39778 40054 56015 60046 70352 886// 90000 333 60017=
07280,1996-11-18 03:00:00,4,1003,-2.4,93,3,8000,11.112,,,350,,,,,,,,,,,wg-a,,,,AAXX 18034 07280 12458 83506 10040 20030 39754 40030 56024 60006 886// 90300=
07280,1996-11-18 06:00:00,3,1001.7,-1.3,93,2,10000,14.816,,,350,3,3.5,,0,,,4,,,20,wg-a,,,,AAXX 18064 07280 02460 83508 10030 20020 39741 40017 56013 60044 72052 886// 90600 333 10035 20030 60007=
07280,1996-11-18 09:00:00,3,1001.3,-0.4,93,2,8000,18.52,,,310,,,,1,,,,,,61,wg-a,,,,AAXX 18094 07280 12358 83110 10030 20020 39737 40013 58004 60017 76165 8552/ 90900=
07280,1996-11-18 12:00:00,2,1001.5,0.2,93,1,7000,11.112,,,300,,,,5,,,,,,61,wg-a,,,,AAXX 18124 07280 02357 83006 10020 20010 39739 40015 50002 60066 76176 8552/ 91200 333 60057=
07280,1996-11-18 15:00:00,0,1003,1.2,100,0,4000,11.112,,,170,,,,8,,,,,,10,wg-a,,,,AAXX 18154 07280 12240 81706 10000 20000 39751 40030 52012 60087 71076 885// 91500=
07280,1996-11-18 18:00:00,1,1003.9,1,100,1,7000,11.112,,,200,0.2,3.4,,5,,,,,,61,wg-a,,,,AAXX 18184 07280 12257 82006 10010 20010 39761 40039 53010 60057 76176 8552/ 91800 333 10034 20002=
07280,1996-11-18 21:00:00,4,1004.9,1.2,87,2,12000,22.224,,,300,,,,1,,,,,,21,wg-a,,,,AAXX 18214 07280 12462 83012 10040 20020 39773 40049 51012 60017 72162 8252/ 92100=
07280,1996-11-19 00:00:00,4,1007.4,2.4,81,1,12000,22.224,,,280,,,,,,,,,,21,wg-a,,,,AAXX 19004 07280 02462 /2812 10040 20010 39797 40074 51024 60016 72162 82520 90000 333 61000=
07280,1996-11-19 03:00:00,2,1008.9,1.3,87,0,12000,11.112,,,180,,,,,,,,,,,wg-a,,,,AAXX 19034 07280 12562 /1806 10020 20000 39810 40089 51013 60006 85500 90300=
07280,1996-11-19 06:00:00,-1,1008.6,-0.5,100,-1,8000,11.112,,,180,-0.5,4.3,,,,,20,,,,wg-a,,,,AAXX 19064 07280 12458 /1806 11010 21010 39805 40086 58005 60204 81100 90600 333 10043 21005=
07280,1996-11-19 09:00:00,1,1004,-4.4,86,-1,20000,18.52,,,190,,,,,,,,,,,wg-a,,,,AAXX 19094 07280 12470 71910 10010 21010 39761 40040 58044 60006 81132 90900=
07280,1996-11-19 12:00:00,4,997.5,-6,70,-1,25000,29.632,,,180,,,,,,,,,,,wg-a,,,,AAXX 19124 07280 12775 81816 10040 21010 39701 49975 58060 60006 82572 91200=
07280,1996-11-19 15:00:00,1,993,-4.7,93,0,2000,22.224,,75.932,190,,,,2,,,,,,10,wg-a,,,,AAXX 19154 07280 12220 81912 10010 20000 39654 49930 56047 60027 71074 886// 91500 333 91041=
07280,1996-11-19 18:00:00,3,991.3,-1.4,87,1,10000,46.3,,62.968,200,-0.8,4,,4,,,,,,61,wg-a,,,,AAXX 19184 07280 12460 82025 10030 20010 39640 49913 56014 60047 76176 8383/ 91800 333 10040 21008 91034=
07280,1996-11-19 21:00:00,5,990.2,-0.9,87,3,15000,29.632,,,200,,,,2,,,,,,21,wg-a,,,,AAXX 19214 07280 12265 42016 10050 20030 39631 49902 55009 60027 72161 84500 92100=
07280,1996-11-20 00:00:00,6,988.7,-1.3,87,4,10000,29.632,,,190,,,,1,,,,,,21,wg-a,,,,AAXX 20004 07280 02460 /1916 10060 20040 39618 49887 58013 60046 72161 86800 90000 333 60017=
07280,1996-11-20 03:00:00,6,988,-0.7,87,4,8000,38.892,,,200,,,,,,,,,,60,wg-a,,,,AAXX 20034 07280 02458 /2021 10060 20040 39611 49880 56007 61000 76062 86800 90300 333 ////=
07280,1996-11-20 06:00:00,6,988,-0,87,4,10000,29.632,,,210,3.2,6.5,,0,,,10,,,60,wg-a,,,,AAXX 20064 07280 02460 /2116 10060 20040 39611 49880 55000 60104 76062 86800 90600 333 10065 20032 60007=
07280,1996-11-20 09:00:00,7,989.6,1.6,70,2,15000,38.892,,,210,,,,,,,,,,21,wg-a,,,,AAXX 20094 07280 02465 72121 10070 20020 39627 49896 51016 61000 72162 8687/ 90900 333 ////=
07280,1996-11-20 12:00:00,6,992,,81,3,15000,35.188,,53.708,230,,,,,,,,,,61,wg-a,,,,AAXX 20124 07280 32665 82319 10060 20030 39650 49920 761// 858/2 91200 333 91029=
07280,1996-11-20 15:00:00,6,994.8,2.7,81,3,12000,18.52,,,220,,,,0,,,,,,25,wg-a,,,,AAXX 20154 07280 12562 /2210 10060 20030 39677 49948 53027 60007 72586 86300 91500=
07280,1996-11-20 18:00:00,6,997.4,2.5,81,3,11000,29.632,,,220,5.3,7.5,,,,,,,,,wg-a,,,,AAXX 20184 07280 02/61 /2216 10060 20030 39702 49974 53025 61000 91800 333 10075 20053 ////=
07280,1996-11-20 21:00:00,5,1000.7,3.1,87,3,12000,22.224,,,270,,,,1,,,,,,80,wg-a,,,,AAXX 20214 07280 12562 72712 10050 20030 39733 40007 53031 60017 78086 878// 92100=
07280,1996-11-21 00:00:00,5,1004.2,3.5,81,2,15000,22.224,,,290,,,,1,,,,,,25,wg-a,,,,AAXX 21004 07280 02565 72912 10050 20020 39768 40042 51035 60026 72586 878// 90000 333 60017=
07280,1996-11-21 03:00:00,4,1006.7,2.2,87,2,15000,11.112,,,220,,,,,,,,,,,wg-a,,,,AAXX 21034 07280 12565 /2206 10040 20020 39790 40067 51022 60006 86800 90300=
07280,1996-11-21 06:00:00,3,1008.3,1.5,93,2,12000,11.112,,,260,2.7,5.5,,1,,,3,,,80,wg-a,,,,AAXX 21064 07280 02462 72606 10030 20020 39805 40083 53015 60034 78086 878// 90600 333 10055 20027 60017=
07280,1996-11-21 09:00:00,4,1010.3,2.1,81,1,20000,18.52,,,240,,,,0,,,,,,1,wg-a,,,,AAXX 21094 07280 12470 62410 10040 20010 39826 40103 53021 60007 70186 85201 90900=
07280,1996-11-21 12:00:00,5,1011.6,1.3,70,0,500,18.52,,,240,,,,,,,,,,1,wg-a,,,,AAXX 21124 07280 12500 82410 10050 20000 39839 40116 51013 60006 70186 888// 91200=
07280,1996-11-21 15:00:00,5,1011.5,-0.1,75,1,25000,18.52,,,210,,,,,,,,,,,wg-a,,,,AAXX 21154 07280 12575 82110 10050 20010 39838 40115 57001 60006 83201 91500=
07280,1996-11-21 18:00:00,2,1010.7,-1,93,1,25000,3.704,,,200,2.1,6.2,,,,,,,,,wg-a,,,,AAXX 21184 07280 32/75 82002 10020 20010 39828 40107 56010 80002 91800 333 10062 20021=
07280,1996-11-21 21:00:00,2,1009.2,-1.5,93,1,15000,11.112,,,10,,,,,,,,,,,wg-a,,,,AAXX 21214 07280 12565 80106 10020 20010 39813 40092 58015 60006 81132 92100=
07280,1996-11-22 00:00:00,2,1008,-1.2,93,1,15000,14.816,,,10,,,,,,,,,,,wg-a,,,,AAXX 22004 07280 12565 70108 10020 20010 39801 40080 57012 60006 8453/ 90000=
07280,1996-11-22 03:00:00,1,1008.5,0.5,93,0,15000,18.52,,,10,,,,,,,,,,,wg-a,,,,AAXX 22034 07280 12665 70110 10010 20000 39806 40085 53005 60006 8453/ 90300=
07280,1996-11-22 06:00:00,1,1013.2,4.5,86,-1,12000,14.816,,,10,0.8,2.1,,,,,,,,,wg-a,,,,AAXX 22064 07280 02662 30108 10010 21010 39851 40132 51045 60006 82530 90600 333 10021 20008 60004=
07280,1996-11-22 09:00:00,3,1016.6,3.5,81,0,20000,11.112,,,360,,,,,,,,,,,wg-a,,,,AAXX 22094 07280 12/70 03606 10030 20000 39886 40166 51035 60006 80000 90900=
07280,1996-11-22 12:00:00,5,1017.1,0.7,70,0,25000,11.112,,,50,,,,,,,,,,,wg-a,,,,AAXX 22124 07280 12575 /0506 10050 20000 39893 40171 50007 60006 81100 91200=
07280,1996-11-22 15:00:00,6,1016.7,-0.3,56,-2,25000,3.704,,,50,,,,,,,,,,,wg-a,,,,AAXX 22154 07280 12675 30502 10060 21020 39890 40167 58003 60006 81101 91500=
07280,1996-11-22 18:00:00,1,1017,-0.2,80,-2,25000,3.704,,,340,0,6.1,,,,,,,,,wg-a,,,,AAXX 22184 07280 12/75 43402 10010 21020 39888 40170 57002 60006 80001 91800 333 10061 20000=
07280,1996-11-22 21:00:00,-1,1016.4,-0.8,93,-2,20000,7.408,,,330,,,,,,,,,,,wg-a,,,,AAXX 22214 07280 12/70 53304 11010 21020 39880 40164 58008 60006 80001 92100=
07280,1996-11-23 00:00:00,-1,1015.3,-1.1,93,-2,20000,7.408,,,20,,,,,,,,,,,wg-a,,,,AAXX 23004 07280 12/70 70204 11010 21020 39869 40153 58011 60006 80001 90000=
07280,1996-11-23 03:00:00,-4,1014.5,-1,100,-4,12000,3.704,,,280,,,,,,,,,,,wg-a,,,,AAXX 23034 07280 12/62 32802 11040 21040 39859 40145 55010 60006 80001 90300=
07280,1996-11-23 06:00:00,-4,1014.4,-0.1,100,-4,200,3.704,,,140,-5.1,1.2,,,,,,,,49,wg-a,,,,AAXX 23064 07280 02/02 91402 11040 21040 39858 40144 55001 60006 74941 89/// 90600 333 10012 21051 60004=
07280,1996-11-23 09:00:00,-2,1014.5,0.3,100,-2,600,11.112,,,190,,,,,,,,,,49,wg-a,,,,AAXX 23094 07280 12/06 91906 11020 21020 39861 40145 53003 60006 74944 89/// 90900=
07280,1996-11-23 12:00:00,0,1014.6,0.2,93,-1,2000,7.408,,,190,,,,1,,,,,,71,wg-a,,,,AAXX 23124 07280 02120 81904 10000 21010 39863 40146 50002 60016 77174 886// 91200 333 60017=
07280,1996-11-23 15:00:00,0,1014.6,0.1,100,0,1500,18.52,,,190,,,,,,,,,,10,wg-a,,,,AAXX 23154 07280 02215 81910 10000 20000 39864 40146 53001 61000 71072 886// 91500 333 ////=
07280,1996-11-23 18:00:00,2,1017.5,3,87,0,10000,11.112,,,310,-3.7,1.9,,1,,,,,,1,wg-a,,2,,AAXX 23184 07280 12260 83106 10020 20000 39894 40175 53030 60017 70174 885// 91800 333 10019 21037 4/002=
07280,1996-11-23 21:00:00,2,1020.8,3.2,87,0,9000,18.52,,,310,,,,0,,,,,,,wg-a,,,,AAXX 23214 07280 12359 73110 10020 20000 39926 40208 51032 60007 875// 92100=
07280,1996-11-24 00:00:00,1,1023.3,2.3,86,-1,20000,14.816,,,280,,,,,,,,,,,wg-a,,,,AAXX 24004 07280 12470 /2808 10010 21010 39949 40233 53023 60006 81500 90000=
07280,1996-11-24 03:00:00,-3,1026,2.3,93,-4,20000,11.112,,,220,,,,,,,,,,,wg-a,,,,AAXX 24034 07280 12870 22206 11030 21040 39972 40260 51023 60006 82030 90300=
07280,1996-11-24 06:00:00,-1,1026.8,0.9,93,-2,20000,0,,,0,-3.3,2.3,,,,,2,,,,wg-a,,0,,AAXX 24064 07280 12670 70000 11010 21020 39981 40268 53009 60024 8553/ 90600 333 10023 21033 4/9999=
07280,1996-11-24 09:00:00,0,1028.7,2,93,-1,500,7.408,,,190,,,,,,,,,,,wg-a,,,,AAXX 24094 07280 12400 21904 10000 21010 30001 40287 51020 60006 82800 90900=
07280,1996-11-24 12:00:00,3,1027.9,-0.5,81,0,12000,14.816,,,190,,,,,,,,,,,wg-a,,,,AAXX 24124 07280 12562 /1908 10030 20000 39996 40279 58005 60006 81101 91200=
07280,1996-11-24 15:00:00,3,1025.4,-2.5,81,0,20000,14.816,,,210,,,,,,,,,,,wg-a,,,,AAXX 24154 07280 12470 72108 10030 20000 39971 40254 58025 60006 83101 91500=
07280,1996-11-24 18:00:00,0,1024.9,-0.7,93,-1,15000,7.408,,,180,-1.9,4.1,,,,,,,,,wg-a,,,,AAXX 24184 07280 12465 81804 10000 21010 39964 40249 56007 60006 81502 91800 333 10041 21019=
07280,1996-11-24 21:00:00,0,1022.3,-2.5,93,-1,12000,11.112,,,170,,,,,,,,,,,wg-a,,,,AAXX 24214 07280 12662 81706 10000 21010 39939 40223 58025 60006 82532 92100=
07280,1996-11-25 00:00:00,0,1020.4,-1.9,93,-1,8000,0,,,0,,,,,,,,,,,wg-a,,,,AAXX 25004 07280 12658 80000 10000 21010 39920 40204 58019 60006 8357/ 90000=
07280,1996-11-25 03:00:00,1,1016.1,-4.1,93,0,10000,14.816,,,200,,,,,,,,,,,wg-a,,,,AAXX 25034 07280 12660 82008 10010 20000 39879 40161 56041 60006 8253/ 90300=
07280,1996-11-25 06:00:00,0,1011.9,-4.1,100,0,2500,22.224,,,180,0,1,,2,,,2,,,10,wg-a,,2,,AAXX 25064 07280 02325 81812 10000 20000 39838 40119 58041 60024 71072 885// 90600 333 10010 20000 4/002 60027=
07280,1996-11-25 09:00:00,1,1007.9,-3.8,100,1,500,38.892,,,200,,,,4,,,,,,61,wg-a,,,,AAXX 25094 07280 12200 82021 10010 20010 39800 40079 56038 60047 76176 886// 90900=
07280,1996-11-25 12:00:00,3,1003.9,-3.7,100,3,4500,31.484,,,200,,,,0,,,,,,10,wg-a,,,,AAXX 25124 07280 02245 82017 10030 20030 39763 40039 57037 60046 71076 886// 91200 333 60007=
07280,1996-11-25 15:00:00,4,1001.6,-2.2,100,4,3000,18.52,,,240,,,,1,,,,,,10,wg-a,,,,AAXX 25154 07280 12130 82410 10040 20040 39741 40016 55022 60017 71055 886// 91500=
07280,1996-11-25 18:00:00,5,1001.6,0.1,100,5,8000,18.52,,,210,0.2,4.9,,0,,,,,,3,wg-a,,,,AAXX 25184 07280 12158 72110 10050 20050 39742 40016 53001 60007 70352 875// 91800 333 10049 20002=
07280,1996-11-25 21:00:00,6,1001,-0.5,100,6,6000,18.52,,,230,,,,1,,,,,,61,wg-a,,,,AAXX 25214 07280 12156 82310 10060 20060 39737 40010 56005 60017 76162 888// 92100=
07280,1996-11-26 00:00:00,7,1001.6,0.7,87,5,20000,14.816,,,290,,,,4,,,,,,3,wg-a,,,,AAXX 26004 07280 02570 72908 10070 20050 39744 40016 53007 60056 70362 875// 90000 333 60047=
07280,1996-11-26 03:00:00,6,1003.6,1.9,87,4,20000,11.112,,,260,,,,0,,,,,,21,wg-a,,,,AAXX 26034 07280 12470 /2606 10060 20040 39763 40036 53019 60007 72162 86500 90300=
07280,1996-11-26 06:00:00,6,1005.8,2.1,87,4,20000,14.816,,,290,4.8,6.6,,0,,,11,,,21,wg-a,,,,AAXX 26064 07280 02470 72908 10060 20040 39784 40058 52021 60114 72162 878// 90600 333 10066 20048 60007=
07280,1996-11-26 09:00:00,6,1008,2.1,87,4,12000,22.224,,,300,,,,0,,,,,,61,wg-a,,,,AAXX 26094 07280 12462 83012 10060 20040 39805 40080 53021 60007 76162 888// 90900=
07280,1996-11-26 12:00:00,7,1009.4,1.5,81,4,20000,18.52,,,300,,,,0,,,,,,1,wg-a,,,,AAXX 26124 07280 02570 73010 10070 20040 39820 40094 51015 60016 70186 878// 91200 333 60007=
07280,1996-11-26 15:00:00,6,1011.4,1.9,87,4,15000,18.52,,,300,,,,,,,,,,80,wg-a,,,,AAXX 26154 07280 02465 73010 10060 20040 39839 40114 53019 61000 78086 878// 91500 333 ////=
07280,1996-11-26 18:00:00,5,1013.1,1.5,87,3,15000,11.112,,,280,5,7.1,,,,,,,,80,wg-a,,,,AAXX 26184 07280 02565 72806 10050 20030 39854 40131 53015 61000 78086 8583/ 91800 333 10071 20050 ////=
07280,1996-11-26 21:00:00,5,1014.1,0.9,81,2,15000,14.816,,,330,,,,,,,,,,1,wg-a,,,,AAXX 26214 07280 02765 73308 10050 20020 39863 40141 53009 61000 70186 875// 92100 333 ////=
07280,1996-11-27 00:00:00,4,1014.1,-0.1,81,1,15000,14.816,,,300,,,,,,,,,,1,wg-a,,,,AAXX 27004 07280 02765 33008 10040 20010 39862 40141 58001 61000 70186 82501 90000 333 ////=
07280,1996-11-27 03:00:00,2,1014.5,0.2,87,0,15000,3.704,,,160,,,,,,,,,,,wg-a,,,,AAXX 27034 07280 12/65 61602 10020 20000 39864 40145 50002 60006 80001 90300=
07280,1996-11-27 06:00:00,-2,1014.3,-0.5,100,-2,3000,3.704,,,280,-2,5.1,,,,,1,,,10,wg-a,,,,AAXX 27064 07280 12730 52802 11020 21020 39859 40143 57005 60014 71041 81501 90600 333 10051 21020=
07280,1996-11-27 09:00:00,-1,1012.8,-1.3,100,-1,300,3.704,,,190,,,,,,,,,,44,wg-a,,,,AAXX 27094 07280 12703 71902 11010 21010 39846 40128 58013 60006 74442 8553/ 90900=
07280,1996-11-27 12:00:00,1,1008.7,-3.8,100,1,500,3.704,,,140,,,,,,,,,,43,wg-a,,,,AAXX 27124 07280 12/05 91402 10010 20010 39808 40087 58038 60006 74342 89/// 91200=
07280,1996-11-27 15:00:00,3,1003.8,-4.7,100,3,4000,11.112,,,130,,,,1,,,,,,10,wg-a,,,,AAXX 27154 07280 12240 81306 10030 20030 39761 40038 56047 60017 71076 8657/ 91500=
07280,1996-11-27 18:00:00,0,1001.1,-2.8,100,0,3500,14.816,,,70,-1.7,2.6,,6,,,,,,71,wg-a,,1,,AAXX 27184 07280 12235 80708 10000 20000 39733 40011 56028 60067 77176 886// 91800 333 10026 21017 4/001=
07280,1996-11-28 00:00:00,1,1006.1,3.5,100,1,8000,22.224,,,330,,,,1,,,,,,60,wg-a,,,,AAXX 28004 07280 02458 83312 10010 20010 39782 40061 52035 60066 76076 885// 90000 333 60017=
07280,1996-11-28 03:00:00,1,1009.6,3.4,93,0,15000,22.224,,,340,,,,0,,,,,,23,wg-a,,,,AAXX 28034 07280 12665 83412 10010 20000 39816 40096 52034 60007 72376 8252/ 90300=
07280,1996-11-28 06:00:00,1,1013.1,3.4,86,-1,12000,18.52,,,330,0.2,1.4,,,,,13,,,3,wg-a,,2,,AAXX 28064 07280 12362 83310 10010 21010 39850 40131 53034 60134 70376 885// 90600 333 10014 20002 4/002=
07280,1996-11-28 09:00:00,1,1016.3,3.1,93,0,3000,11.112,,,330,,,,,,,,,,10,wg-a,,,,AAXX 28094 07280 02430 83306 10010 20000 39881 40163 53031 61000 71072 885// 90900 333 ////=
07280,1996-11-28 12:00:00,1,1018.2,1.9,86,-1,9000,22.224,,,340,,,,,,,,,,3,wg-a,,,,AAXX 28124 07280 02459 73412 10010 21010 39900 40182 51019 61000 70372 878// 91200 333 6100=
07280,1996-11-28 15:00:00,1,1020.3,2,80,-2,9000,18.52,,,300,,,,,,,,,,,wg-a,,,,AAXX 28154 07280 12459 73010 10010 21020 39920 40203 53020 60006 8383/ 91500=
07280,1996-11-28 18:00:00,1,1022.1,1.7,80,-2,9000,18.52,,,310,0.2,1.5,,,,,,,,,wg-a,,0,,AAXX 28184 07280 32459 /3110 10010 21020 39937 40221 52017 875// 91800 333 10015 20002 4/9999=
07280,1996-11-28 21:00:00,0,1023.2,1,86,-2,12000,18.52,,,320,,,,,,,,,,,wg-a,,,,AAXX 28214 07280 12662 83210 10000 21020 39947 40232 51010 60006 885// 92100=
07280,1996-11-29 00:00:00,-1,1023.9,0.6,100,-1,8000,7.408,,,130,,,,,,,,,,,wg-a,,,,AAXX 29004 07280 12458 71304 11010 21010 39953 40239 53006 60006 875// 90000=
07280,1996-11-29 06:00:00,-1,1021.4,-1.7,93,-2,10000,11.112,,,190,-1,0.5,,,,,,,,,wg-a,,0,,AAXX 29064 07280 02460 71906 11010 21020 39929 40214 56017 60006 87502 90600 333 10005 21010 4/9999 61000=
07280,1996-11-29 09:00:00,0,1019.2,-2.1,93,-1,1800,25.928,,,200,,,,,,,,,,71,wg-a,,,,AAXX 29094 07280 02318 82014 10000 21010 39908 40192 58021 61000 77172 887// 90900 333 ////=
07280,1996-11-29 12:00:00,0,1014.4,-4.6,100,0,600,29.632,,,190,,,,1,,,,,,73,wg-a,,,,AAXX 29124 07280 02206 81916 10000 20000 39862 40144 58046 60016 77372 887// 91200 333 60017=
07280,1996-11-29 15:00:00,0,1010.1,-4.2,100,0,4500,25.928,,,200,,,,4,,,,,,10,wg-a,,,,AAXX 29154 07280 12245 82014 10000 20000 39820 40101 58042 60047 71076 887// 91500=
07280,1996-11-29 18:00:00,1,1007.1,-2.8,100,1,500,29.632,,,210,-1.1,1,,5,,,,,,51,wg-a,,3,,AAXX 29184 07280 12100 82116 10010 20010 39792 40071 56028 60057 75176 887// 91800 333 10010 21011 4/003=
07280,1996-11-29 21:00:00,3,1004.2,-2.6,100,3,4000,22.224,,,200,,,,1,,,,,,10,wg-a,,,,AAXX 29214 07280 12140 82012 10030 20030 39766 40042 58026 60017 71066 887// 92100=
07280,1996-11-30 00:00:00,6,1003.2,-0.7,93,5,500,22.224,,,20,,,,8,,,,,,65,wg-a,,,,AAXX 30004 07280 02200 80212 10060 20050 39759 40032 55007 60096 76566 8552/ 90000 333 60087=
07280,1996-11-30 03:00:00,6,1004.5,1.2,93,5,7000,14.816,,,290,,,,8,,,,,,61,wg-a,,,,AAXX 30034 07280 12257 82908 10060 20050 39771 40045 51012 60087 76166 8552/ 90300=
07280,1996-11-30 06:00:00,4,1004.7,0.1,93,3,20000,7.408,,,210,1,8.2,,,,,27,,,1,wg-a,,,,AAXX 30064 07280 02570 72104 10040 20030 39772 40047 53001 60274 70162 8383/ 90600 333 10082 20010 61000=
07280,1996-11-30 09:00:00,5,1005.1,0.4,93,4,20000,11.112,,,210,,,,0,,,,,,21,wg-a,,,,AAXX 30094 07280 12570 72106 10050 20040 39776 40051 51004 60007 72162 8617/ 90900=
07280,1996-11-30 12:00:00,8,1004.8,-0,76,4,25000,18.52,,,350,,,,,,,,,,25,wg-a,,,,AAXX 30124 07280 02575 /3510 10080 20040 39776 40048 55000 60006 72586 86200 91200 333 61000=
07280,1996-11-30 15:00:00,7,1005.9,1,81,4,12000,3.704,,,200,,,,0,,,,,,25,wg-a,,,,AAXX 30154 07280 12562 72002 10070 20040 39786 40059 53010 60007 72587 879// 91500=
07280,1996-11-30 18:00:00,5,1008.1,2,93,4,25000,7.408,,,310,3.7,8.5,,3,,,,,,25,wg-a,,,,AAXX 30184 07280 12475 /3104 10050 20040 39806 40081 53020 60037 72587 86400 91800 333 10085 20037=
07280,1996-11-30 21:00:00,6,1010.9,2.8,87,4,25000,14.816,,,330,,,,0,,,,,,3,wg-a,,,,AAXX 30214 07280 12375 /3308 10060 20040 39834 40109 53028 60007 70386 86800 92100=
07280,1996-12-01 00:00:00,6,1015,4,81,3,20000,14.816,,,320,,,,,,,,,,1,wg-a,,,,AAXX 01004 07280 12670 83208 10060 20030 39874 40150 53040 60016 70186 885// 90000=
07280,1996-12-01 03:00:00,3,1018.7,3.3,87,1,20000,18.52,,,330,,,,,,,,,,,wg-a,,,,AAXX 01034 07280 12/70 03310 10030 20010 39907 40187 51033 60006 80000 90300=
07280,1996-12-01 06:00:00,1,1022,3,93,0,20000,11.112,,,320,1.4,6.3,,,,,4,,,,wg-a,,,,AAXX 01064 07280 12770 13206 10010 20000 39937 40220 51030 60044 81500 90600 333 10063 20014=
07280,1996-12-01 09:00:00,3,1024.4,2.4,93,2,20000,0,,,0,,,,,,,,,,,wg-a,,,,AAXX 01094 07280 12570 70000 10030 20020 39961 40244 51024 60006 878// 90900=
07280,1996-12-01 12:00:00,5,1023.6,-0.5,87,3,20000,14.816,,,200,,,,,,,,,,,wg-a,,,,AAXX 01124 07280 12570 72008 10050 20030 39956 40236 58005 60006 82802 91200=
07280,1996-12-01 15:00:00,5,1023.1,-0.5,75,1,20000,18.52,,,190,,,,,,,,,,,wg-a,,,,AAXX 01154 07280 12670 71910 10050 20010 39951 40231 58005 60006 8213/ 91500=
07280,1996-12-01 18:00:00,4,1021.6,-1.5,81,1,20000,18.52,,,200,1.2,6,,,,,,,,,wg-a,,,,AAXX 01184 07280 12670 82010 10040 20010 39936 40216 58015 60006 8357/ 91800 333 10060 20012=
07280,1996-12-01 21:00:00,5,1020.3,-1.2,81,2,9000,18.52,,,190,,,,,,,,,,21,wg-a,,,,AAXX 01214 07280 02559 81910 10050 20020 39924 40203 58012 61000 72162 8657/ 92100 333 ////=
07280,1996-12-02 00:00:00,4,1018.6,-1.7,93,3,7000,18.52,,,200,,,,0,,,,,,50,wg-a,,,,AAXX 02004 07280 02257 82010 10040 20030 39907 40186 58017 60006 75065 887// 90000 333 60007=
07280,1996-12-02 03:00:00,5,1017.3,-1.2,93,4,4000,25.928,,,210,,,,,,,,,,10,wg-a,,,,AAXX 02034 07280 02140 82114 10050 20040 39895 40173 58012 61000 71055 887// 90300 333 ////=
07280,1996-12-02 06:00:00,6,1018.7,1.4,93,5,10000,11.112,,,230,3.9,5.6,,1,,,1,,,80,wg-a,,,,AAXX 02064 07280 02460 82306 10060 20050 39909 40187 53014 60014 78086 888// 90600 333 10056 20039 60017=
07280,1996-12-02 09:00:00,7,1020.5,1.9,76,3,25000,18.52,,,320,,,,0,,,,,,3,wg-a,,,,AAXX 02094 07280 12475 73210 10070 20030 39928 40205 53019 60007 70386 81131 90900=
07280,1996-12-02 12:00:00,9,1020.3,0,66,3,25000,22.224,,,300,,,,,,,,,,1,wg-a,,,,AAXX 02124 07280 12575 /3012 10090 20030 39928 40203 50000 60006 70186 83202 91200=
07280,1996-12-02 15:00:00,8,1020.2,-0.2,76,4,15000,18.52,,,290,,,,0,,,,,,16,wg-a,,,,AAXX 02154 07280 12465 72910 10080 20040 39926 40202 55002 60007 71686 84801 91500=
07280,1996-12-02 18:00:00,6,1021.8,1.4,87,4,25000,11.112,,,230,3.8,9.5,,1,,,,,,80,wg-a,,,,AAXX 02184 07280 12575 82306 10060 20040 39940 40218 51014 60017 78086 888// 91800 333 10095 20038=
07280,1996-12-02 21:00:00,5,1022.4,0.5,87,3,20000,14.816,,,240,,,,0,,,,,,1,wg-a,,,,AAXX 02214 07280 12670 72408 10050 20030 39945 40224 51005 60007 70186 83501 92100=
07280,1996-12-03 00:00:00,4,1022.2,-0.4,93,3,20000,11.112,,,200,,,,,,,,,,3,wg-a,,,,AAXX 03004 07280 12570 42006 10040 20030 39941 40222 56004 60006 70386 82501 90000=
07280,1996-12-03 03:00:00,2,1020.5,-1.8,100,2,15000,7.408,,,230,,,,,,,,,,,wg-a,,,,AAXX 03034 07280 12/65 62304 10020 20020 39923 40205 57018 60006 80001 90300=
07280,1996-12-03 06:00:00,3,1019.3,-1,100,3,15000,11.112,,,180,2,5.9,,,,,1,,,,wg-a,,,,AAXX 03064 07280 12265 /1806 10030 20030 39913 40193 56010 60014 81601 90600 333 10059 20020=
07280,1996-12-03 09:00:00,5,1017.2,-1.9,93,4,10000,11.112,,,190,,,,,,,,,,,wg-a,,,,AAXX 03094 07280 12360 81906 10050 20040 39894 40172 58019 60006 8112/ 90900=
07280,1996-12-03 12:00:00,6,1013.7,-3.3,93,5,12000,18.52,,,200,,,,,,,,,,,wg-a,,,,AAXX 03124 07280 12462 82010 10060 20050 39861 40137 58033 60006 8387/ 91200=
07280,1996-12-03 15:00:00,7,1010.6,-3,81,4,20000,18.52,,,200,,,,,,,,,,,wg-a,,,,AAXX 03154 07280 12570 72010 10070 20040 39831 40106 56030 60006 8387/ 91500=
07280,1996-12-03 18:00:00,5,1008.6,-2.1,87,3,15000,11.112,,,210,3.3,7.1,,,,,,,,,wg-a,,,,AAXX 03184 07280 12665 /2106 10050 20030 39810 40086 56021 60006 81530 91800 333 10071 20033=
07280,1996-12-03 21:00:00,3,1007.9,-0.9,93,2,20000,11.112,,,230,,,,,,,,,,,wg-a,,,,AAXX 03214 07280 12/70 02306 10030 20020 39801 40079 56009 60006 80000 92100=
07280,1996-12-04 00:00:00,3,1007.6,-0.2,87,1,20000,14.816,,,190,,,,,,,,,,,wg-a,,,,AAXX 04004 07280 12/70 11908 10030 20010 39799 40076 56002 60006 81030 90000=
07280,1996-12-04 03:00:00,4,1007.8,0.2,75,0,20000,22.224,,,200,,,,,,,,,,,wg-a,,,,AAXX 04034 07280 12/70 02012 10040 20000 39801 40078 53002 60006 80000 90300=
07280,1996-12-04 06:00:00,9,1007.8,0.4,87,7,8000,12.964,,,70,,,,,,,7,,,61,wg-a,,,,AAXX 04064 07280 12458 80707 10090 20070 39807 40078 50004 60074 76122 8572/ 90600=
07280,1996-12-04 09:00:00,6,1009.3,1.1,81,3,20000,7.408,,,180,,,,,,,,,,,wg-a,,,,AAXX 04094 07280 12770 81804 10060 20030 39818 40093 53011 60006 82572 90900=
07280,1996-12-04 12:00:00,12,1008.2,-0.5,71,7,500,22.224,,,210,,,,,,,,,,,wg-a,,,,AAXX 04124 07280 12700 62112 10120 20070 39813 40082 58005 60006 835/2 91200=
07280,1996-12-04 15:00:00,11,1008.3,-0,82,8,20000,22.224,,,190,,,,,,,,,,60,wg-a,,,,AAXX 04154 07280 02570 71912 10110 20080 39813 40083 55000 61000 76062 878// 91500 333 ////=
07280,1996-12-04 18:00:00,9,1009,0.5,87,7,9000,18.52,,,150,4.6,12.5,,1,,,,,,60,wg-a,,,,AAXX 04184 07280 12459 81510 10090 20070 39818 40090 51005 60017 76062 8582/ 91800 333 10125 20046=
07280,1996-12-04 21:00:00,8,1010.3,1.2,93,7,12000,14.816,,,140,,,,0,,,,,,21,wg-a,,,,AAXX 04214 07280 12462 81408 10080 20070 39830 40103 51012 60007 72162 878// 92100=
07280,1996-12-05 00:00:00,7,1011.3,0.9,93,6,12000,0,,,0,,,,,,,,,,1,wg-a,,,,AAXX 05004 07280 12762 80000 10070 20060 39839 40113 51009 60006 70162 875// 90000=
07280,1996-12-05 03:00:00,7,1011.5,0.2,93,6,12000,3.704,,,360,,,,0,,,,,,21,wg-a,,,,AAXX 05034 07280 12762 83602 10070 20060 39841 40115 52002 60007 72122 875// 90300=
07280,1996-12-05 06:00:00,7,1011.8,0.2,93,6,15000,3.704,,,360,6.1,9.2,,0,,,2,,,1,wg-a,,,,AAXX 05064 07280 02765 83602 10070 20060 39843 40118 53002 60024 70162 8657/ 90600 333 10092 20061 60007=
07280,1996-12-05 09:00:00,7,1012.9,1.1,87,5,20000,7.408,,,10,,,,,,,,,,,wg-a,,,,AAXX 05094 07280 12770 60104 10070 20050 39854 40129 51011 60006 81532 90900=
07280,1996-12-05 12:00:00,9,1012.6,-0.1,76,5,15000,11.112,,,350,,,,,,,,,,1,wg-a,,,,AAXX 05124 07280 02765 73506 10090 20050 39853 40126 58001 61000 70162 81572 91200 333 6100=
07280,1996-12-05 15:00:00,8,1012.7,-0,87,6,20000,14.816,,,10,,,,1,,,,,,21,wg-a,,,,AAXX 05154 07280 12770 80108 10080 20060 39853 40127 54000 60017 72162 8352/ 91500=
07280,1996-12-05 18:00:00,7,1013.6,0.8,87,5,20000,11.112,,,350,5.9,8.8,,,,,,,,1,wg-a,,,,AAXX 05184 07280 32770 83506 10070 20050 39861 40136 52008 70162 8357/ 91800 333 10088 20059=
07280,1996-12-05 21:00:00,5,1014,0.2,87,3,20000,11.112,,,330,,,,,,,,,,,wg-a,,,,AAXX 05214 07280 12/70 23306 10050 20030 39863 40140 53002 60006 82030 92100=
07280,1996-12-06 00:00:00,4,1014.4,0.2,87,2,10000,11.112,,,330,,,,,,,,,,,wg-a,,,,AAXX 06004 07280 12/60 /3306 10040 20020 39865 40144 50002 60006 90000=
07280,1996-12-06 03:00:00,4,1014.5,0.2,93,3,12000,14.816,,,330,,,,,,,,,,,wg-a,,,,AAXX 06034 07280 12/62 63308 10040 20030 39867 40145 50002 60006 86030 90300=
07280,1996-12-06 06:00:00,4,1015.4,0.9,93,3,12000,11.112,,,350,3.3,7,,,,,1,,,,wg-a,,,,AAXX 06064 07280 02762 83506 10040 20030 39876 40154 53009 60006 8253/ 90600 333 10070 20033 60014=
07280,1996-12-06 09:00:00,4,1017.1,1.6,93,3,18000,0,,,0,,,,,,,,,,,wg-a,,,,AAXX 06094 07280 12768 80000 10040 20030 39892 40171 51016 60006 8457/ 90900=
07280,1996-12-06 12:00:00,7,1016.4,-0.4,81,4,20000,11.112,,,40,,,,,,,,,,,wg-a,,,,AAXX 06124 07280 12770 70406 10070 20040 39888 40164 58004 60006 83532 91200=
07280,1996-12-06 15:00:00,7,1017.1,0.7,81,4,18000,3.704,,,10,,,,,,,,,,,wg-a,,,,AAXX 06154 07280 12768 70102 10070 20040 39895 40171 53007 60006 81572 91500=
07280,1996-12-06 18:00:00,5,1018.6,1.2,87,3,18000,7.408,,,330,3.9,7.6,,,,,,,,,wg-a,,,,AAXX 06184 07280 12/68 63304 10050 20030 39907 40186 53012 60006 81031 91800 333 10076 20039=
07280,1996-12-06 21:00:00,3,1019.6,0.9,93,2,18000,11.112,,,330,,,,,,,,,,,wg-a,,,,AAXX 06214 07280 12/68 03306 10030 20020 39916 40196 51009 60006 80000 92100=
07280,1996-12-07 00:00:00,2,1020.2,0.4,93,1,15000,11.112,,,340,,,,,,,,,,,wg-a,,,,AAXX 07004 07280 12/65 13406 10020 20010 39920 40202 50004 60006 80001 90000=
07280,1996-12-07 03:00:00,1,1020.8,0.5,93,0,15000,11.112,,,340,,,,,,,,,,,wg-a,,,,AAXX 07034 07280 12/65 13406 10010 20000 39925 40208 50005 60006 80001 90300=
07280,1996-12-07 06:00:00,1,1021.6,0.8,93,0,12000,11.112,,,20,0.2,4.9,,,,,,,,,wg-a,,,,AAXX 07064 07280 02/62 30206 10010 20000 39933 40216 53008 60006 80001 90600 333 10049 20002 60004=
07280,1996-12-07 09:00:00,1,1023.8,2.1,93,0,8000,7.408,,,30,,,,,,,,,,,wg-a,,,,AAXX 07094 07280 12458 /0304 10010 20000 39954 40238 53021 60006 81632 90900=
07280,1996-12-07 12:00:00,3,1024.1,0.5,87,1,8000,7.408,,,50,,,,,,,,,,,wg-a,,,,AAXX 07124 07280 12/58 /0504 10030 20010 39959 40241 51005 60006 81032 91200=
07280,1996-12-07 15:00:00,3,1023.9,-0.2,87,1,6000,14.816,,,40,,,,,,,,,,,wg-a,,,,AAXX 07154 07280 12/56 70408 10030 20010 39957 40239 55002 60006 84032 91500=
07280,1996-12-07 18:00:00,1,1024.9,0.8,100,1,3500,14.816,,,20,0.7,4.1,,,,,,,,10,wg-a,,,,AAXX 07184 07280 12235 70208 10010 20010 39965 40249 53008 60006 71022 83632 91800 333 10041 20007=
07280,1996-12-07 21:00:00,0,1025.6,0.6,100,0,600,14.816,,,20,,,,,,,,,,45,wg-a,,,,AAXX 07214 07280 12/06 90208 10000 20000 39971 40256 53006 60006 74542 89/// 92100=
07280,1996-12-08 00:00:00,0,1025.2,-0.5,93,-1,800,18.52,,,10,,,,,,,,,,45,wg-a,,,,AAXX 08004 07280 12/08 90110 10000 21010 39966 40252 58005 60006 74542 89/// 90000=
07280,1996-12-08 03:00:00,-1,1025.4,0.2,100,-1,800,11.112,,,40,,,,,,,,,,44,wg-a,,,,AAXX 08034 07280 12108 80406 11010 21010 39968 40254 50002 60006 74442 886// 90300=
07280,1996-12-08 06:00:00,-1,1024,-1.4,100,-1,4000,14.816,,,30,-1.2,1.1,,,,,,,,10,wg-a,,,,AAXX 08064 07280 02140 80308 11010 21010 39954 40240 55014 60006 71042 886// 90600 333 10011 21012 60004=
07280,1996-12-08 09:00:00,-1,1025.6,1.6,100,-1,4500,14.816,,,30,,,,,,,,,,10,wg-a,,,,AAXX 08094 07280 12245 80308 11010 21010 39970 40256 51016 60006 71022 886// 90900=
07280,1996-12-08 12:00:00,0,1024.5,-1,93,-1,500,14.816,,,30,,,,,,,,,,,wg-a,,,,AAXX 08124 07280 12200 80308 10000 21010 39960 40245 56010 60006 886// 91200=
07280,1996-12-08 15:00:00,0,1023.7,-0.8,93,-1,4500,11.112,,,30,,,,,,,,,,10,wg-a,,,,AAXX 08154 07280 12245 80306 10000 21010 39952 40237 56008 60006 71022 886// 91500=
07280,1996-12-08 18:00:00,0,1023.4,-0.2,93,-1,4500,14.816,,,30,-1,0.5,,,,,,,,10,wg-a,,,,AAXX 08184 07280 12245 80308 10000 21010 39950 40234 57002 60006 71022 886// 91800 333 10005 21010=
07280,1996-12-08 21:00:00,0,1023.4,-0.1,93,-1,500,14.816,,,20,,,,,,,,,,,wg-a,,,,AAXX 08214 07280 12200 80208 10000 21010 39949 40234 56001 60006 886// 92100=
07280,1996-12-09 00:00:00,0,1023.1,-0.3,93,-1,500,14.816,,,30,,,,,,,,,,,wg-a,,,,AAXX 09004 07280 12200 80308 10000 21010 39946 40231 58003 60006 886// 90000=
07280,1996-12-09 03:00:00,0,1021.9,-1.2,93,-1,500,11.112,,,30,,,,,,,,,,,wg-a,,,,AAXX 09034 07280 12200 80306 10000 21010 39934 40219 56012 60006 886// 90300=
07280,1996-12-09 06:00:00,-1,1020.6,-1.3,100,-1,6000,11.112,,,30,-0.6,0.4,,,,,,,,,wg-a,,,,AAXX 09064 07280 02256 80306 11010 21010 39921 40206 56013 60006 886// 90600 333 10004 21006 60004=
07280,1996-12-09 09:00:00,-1,1020,-0.5,100,-1,4000,14.816,,,20,,,,,,,,,,10,wg-a,,,,AAXX 09094 07280 12240 80208 11010 21010 39916 40200 58005 60006 71022 886// 90900=
07280,1996-12-09 12:00:00,1,1018.7,-1.2,86,-1,500,11.112,,,30,,,,,,,,,,,wg-a,,,,AAXX 09124 07280 12300 80306 10010 21010 39904 40187 57012 60006 886// 91200=
07280,1996-12-09 18:00:00,0,1018.3,0.1,93,-1,500,7.408,,,10,-0.7,0.6,,,,,,,,,wg-a,,,,AAXX 09184 07280 12200 80104 10000 21010 39900 40183 50001 60006 886// 91800 333 10006 21007=
07280,1996-12-09 21:00:00,0,1019,-0,93,-1,8000,0,,,0,,,,,,,,,,,wg-a,,,,AAXX 09214 07280 12258 80000 10000 21010 39907 40190 54000 60006 886// 92100=
07280,1996-12-10 00:00:00,0,1018.5,-0.6,93,-1,500,3.704,,,80,,,,,,,,,,,wg-a,,,,AAXX 10004 07280 12200 80802 10000 21010 39901 40185 58006 60006 886// 90000=
07280,1996-12-10 03:00:00,0,1017.2,-1.2,93,-1,500,7.408,,,10,,,,,,,,,,,wg-a,,,,AAXX 10034 07280 12200 80104 10000 21010 39889 40172 58012 60006 886// 90300=
07280,1996-12-10 06:00:00,-1,1016.4,-0.9,100,-1,4500,14.816,,,30,-0.8,0.6,,,,,,,,10,wg-a,,,,AAXX 10064 07280 02145 80308 11010 21010 39880 40164 55009 60006 71022 886// 90600 333 10006 21008 60004=
07280,1996-12-10 09:00:00,0,1015.4,-0.9,93,-1,3000,18.52,,,10,,,,,,,,,,10,wg-a,,,,AAXX 10094 07280 12230 80110 10000 21010 39871 40154 56009 60006 71022 886// 90900=
07280,1996-12-10 12:00:00,1,1014.4,-0.8,93,0,500,14.816,,,30,,,,,,,,,,,wg-a,,,,AAXX 10124 07280 12200 /0308 10010 20000 39863 40144 58008 60006 8563/ 91200=
07280,1996-12-10 15:00:00,1,1014,-0.4,86,-1,6000,11.112,,,50,,,,,,,,,,,wg-a,,,,AAXX 10154 07280 32356 80506 10010 21010 39859 40140 56004 886// 91500=
07280,1996-12-10 18:00:00,1,1015.5,1.4,86,-1,6000,11.112,,,70,-0.8,0.6,,0,,,,,,,wg-a,,,,AAXX 10184 07280 12356 80706 10010 21010 39873 40155 51014 60007 886// 91800 333 10006 21008=
07280,1996-12-10 21:00:00,0,1016.9,1.3,93,-1,6000,3.704,,,10,,,,,,,,,,,wg-a,,,,AAXX 10214 07280 12356 80102 10000 21010 39886 40169 53013 60006 886// 92100=
07280,1996-12-11 00:00:00,0,1016.7,-0.2,93,-1,6000,3.704,,,190,,,,,,,,,,,wg-a,,,,AAXX 11004 07280 12256 81902 10000 21010 39884 40167 58002 60006 886// 90000=
07280,1996-12-11 03:00:00,0,1016.7,-0,93,-1,6000,7.408,,,180,,,,,,,,,,,wg-a,,,,AAXX 11034 07280 12256 81804 10000 21010 39884 40167 55000 60006 886// 90300=
07280,1996-12-11 06:00:00,0,1016.4,-0.3,100,0,4500,3.704,,,180,-0.1,0.6,,,,,,,,10,wg-a,,,,AAXX 11064 07280 02145 81802 10000 20000 39881 40164 57003 60006 71022 886// 90600 333 10006 21001 60004=
07280,1996-12-11 09:00:00,0,1017.4,1,100,0,4000,7.408,,,190,,,,,,,,,,10,wg-a,,,,AAXX 11094 07280 12240 81904 10000 20000 39891 40174 51010 60006 71022 886// 90900=
07280,1996-12-11 12:00:00,1,1016.5,-0.8,93,0,4000,7.408,,,160,,,,,,,,,,10,wg-a,,,,AAXX 11124 07280 12240 81604 10010 20000 39883 40165 58008 60006 71022 886// 91200=
07280,1996-12-11 15:00:00,1,1015.8,-0.7,93,0,2000,7.408,,,170,,,,,,,,,,10,wg-a,,,,AAXX 11154 07280 12120 81704 10010 20000 39876 40158 56007 60006 71022 886// 91500=
07280,1996-12-11 18:00:00,0,1016.7,0.8,100,0,2000,7.408,,,210,-0.1,0.9,,,,,,,,10,wg-a,,,,AAXX 11184 07280 12120 82104 10000 20000 39884 40167 53008 60006 71022 886// 91800 333 10009 21001=
07280,1996-12-11 21:00:00,0,1017,0.3,100,0,200,7.408,,,150,,,,,,,,,,45,wg-a,,,,AAXX 11214 07280 12/02 91504 10000 20000 39887 40170 50003 60006 74542 89/// 92100=
07280,1996-12-12 00:00:00,1,1015.7,-1.2,100,1,100,3.704,,,160,,,,,,,,,,45,wg-a,,,,AAXX 12004 07280 12/01 91602 10010 20010 39875 40157 58012 60006 74542 89/// 90000=
07280,1996-12-12 03:00:00,1,1015.6,-0.1,100,1,300,7.408,,,180,,,,,,,,,,43,wg-a,,,,AAXX 12034 07280 12/03 91804 10010 20010 39874 40156 56001 60006 74342 89/// 90300=
07280,1996-12-12 06:00:00,1,1014.8,-0.8,100,1,100,7.408,,,190,0.2,0.9,,,,,,,,43,wg-a,,,,AAXX 12064 07280 02/01 91904 10010 20010 39866 40148 56008 60006 74342 89/// 90600 333 10009 20002 60004=
07280,1996-12-12 09:00:00,0,1014.9,0.1,100,0,100,11.112,,,130,,,,,,,,,,45,wg-a,,,,AAXX 12094 07280 12/01 91306 10000 20000 39867 40149 53001 60006 74544 89/// 90900=
07280,1996-12-12 12:00:00,2,1013.6,-1.1,100,2,1400,3.704,,,150,,,,,,,,,,10,wg-a,,,,AAXX 12124 07280 12114 81502 10020 20020 39856 40136 58011 60006 71042 886// 91200=
07280,1996-12-12 18:00:00,1,1011,-0.9,100,1,3000,0,,,0,0.2,2.8,,,,,,,,12,wg-a,,,,AAXX 12184 07280 02630 80000 10010 20010 39830 40110 58009 61000 71262 8557/ 91800 333 10028 20002 ////=
07280,1996-12-12 21:00:00,2,1010,-0.9,100,2,4000,3.704,,,90,,,,,,,,,,10,wg-a,,,,AAXX 12214 07280 02640 70902 10020 20020 39821 40100 57009 61000 71062 87500 92100 333 ////=
07280,1996-12-13 00:00:00,2,1008.4,-1.6,100,2,6000,3.704,,,90,,,,,,,,,,1,wg-a,,,,AAXX 13004 07280 02656 70902 10020 20020 39805 40084 58016 61000 70162 87500 90000 333 ////=
07280,1996-12-13 03:00:00,2,1006.8,-1.5,100,2,6000,3.704,,,140,,,,,,,,,,,wg-a,,,,AAXX 13034 07280 12356 81402 10020 20020 39790 40068 56015 60006 885// 90300=
07280,1996-12-13 06:00:00,5,1004,-2.4,100,5,3000,3.704,,,190,1.2,5.4,,1,,,1,,,10,wg-a,,,,AAXX 13064 07280 02130 81902 10050 20050 39766 40040 56024 60014 71062 886// 90600 333 10054 20012 60017=
07280,1996-12-13 09:00:00,6,1003,-0.9,100,6,200,11.112,,,190,,,,,,,,,,45,wg-a,,,,AAXX 13094 07280 32/02 91906 10060 20060 39757 40030 56009 74565 89/// 90900=
07280,1996-12-13 12:00:00,8,1000.9,-1.9,100,8,2500,11.112,,,180,,,,,,,,,,10,wg-a,,,,AAXX 13124 07280 02125 81806 10080 20080 39738 40009 58019 60016 71065 8662/ 91200 333 61000=
07280,1996-12-13 15:00:00,8,999.5,-1.3,100,8,2500,3.704,,,220,,,,1,,,,,,10,wg-a,,,,AAXX 13154 07280 12125 82202 10080 20080 39725 49995 56013 60017 71065 886// 91500=
07280,1996-12-13 18:00:00,8,999.7,0.2,100,8,300,7.408,,,10,5.4,8.4,,1,,,,,,61,wg-a,,,,AAXX 13184 07280 12403 80104 10080 20080 39727 49997 53002 60017 76165 886// 91800 333 10084 20054=
07280,1996-12-13 21:00:00,7,1000.1,0.3,100,7,10000,0,,,0,,,,0,,,,,,1,wg-a,,,,AAXX 13214 07280 12460 80000 10070 20070 39730 40001 53003 60007 70164 885// 92100=
07280,1996-12-14 00:00:00,7,1000.3,0.2,100,7,10000,11.112,,,10,,,,,,,,,,3,wg-a,,,,AAXX 14004 07280 12460 80106 10070 20070 39732 40003 53002 60006 70364 885// 90000=
07280,1996-12-14 03:00:00,6,1001.1,0.6,93,5,12000,18.52,,,340,,,,0,,,,,,61,wg-a,,,,AAXX 14034 07280 12362 83410 10060 20050 39738 40011 53006 60007 76162 888// 90300=
07280,1996-12-14 06:00:00,4,1002.9,1.6,93,3,12000,22.224,,,30,3.9,7.7,,1,,,4,,,61,wg-a,,,,AAXX 14064 07280 02462 80312 10040 20030 39754 40029 53016 60044 76162 886// 90600 333 10077 20039 60017=
07280,1996-12-14 09:00:00,3,1005.5,2.4,93,2,8000,25.928,,,20,,,,0,,,,,,3,wg-a,,,,AAXX 14094 07280 12358 80214 10030 20020 39778 40055 53024 60007 70362 887// 90900=
07280,1996-12-14 12:00:00,3,1006.9,1.4,87,1,13000,25.928,,,20,,,,,,,,,,2,wg-a,,,,AAXX 14124 07280 12463 80214 10030 20010 39792 40069 51014 60006 70262 887// 91200=
07280,1996-12-14 15:00:00,3,1009,2,87,1,13000,22.224,,,30,,,,,,,,,,,wg-a,,,,AAXX 14154 07280 12463 80312 10030 20010 39812 40090 53020 60006 887// 91500=
07280,1996-12-14 18:00:00,3,1011.5,2.4,81,0,12000,22.224,,,20,2.5,3.8,,,,,,,,,wg-a,,,,AAXX 14184 07280 32462 80212 10030 20000 39836 40115 51024 888// 91800 333 10038 20025=
07280,1996-12-14 21:00:00,2,1013,1.4,80,-1,12000,11.112,,,360,,,,,,,,,,,wg-a,,,,AAXX 14214 07280 12462 83606 10020 21010 39850 40130 51014 60006 885// 92100=
07280,1996-12-15 00:00:00,2,1014.7,1.6,80,-1,15000,14.816,,,350,,,,,,,,,,,wg-a,,,,AAXX 15004 07280 12465 83508 10020 21010 39866 40147 51016 60006 885// 90000=
07280,1996-12-15 03:00:00,0,1016.4,1.5,93,-1,15000,7.408,,,10,,,,,,,,,,,wg-a,,,,AAXX 15034 07280 12565 /0104 10000 21010 39881 40164 51015 60006 85500 90300=
07280,1996-12-15 06:00:00,-2,1017.9,1.2,93,-3,15000,7.408,,,80,-2.4,2.5,,,,,,,,,wg-a,,,,AAXX 15064 07280 02/65 00804 11020 21030 39893 40179 52012 60006 80000 90600 333 10025 21024 60004=
07280,1996-12-15 09:00:00,-1,1019.4,1.6,100,-1,18000,3.704,,,330,,,,,,,,,,,wg-a,,,,AAXX 15094 07280 12/68 23302 11010 21010 39909 40194 53016 60006 80001 90900=
07280,1996-12-15 12:00:00,4,1019,0.1,70,-1,20000,0,,,0,,,,,,,,,,,wg-a,,,,AAXX 15124 07280 12/70 20000 10040 21010 39910 40190 50001 60006 80001 91200=
07280,1996-12-15 15:00:00,4,1019,-0,56,-4,18000,7.408,,,50,,,,,,,,,,,wg-a,,,,AAXX 15154 07280 12/68 20504 10040 21040 39910 40190 55000 60006 80001 91500=
07280,1996-12-15 18:00:00,0,1020.4,1,80,-3,15000,3.704,,,330,-2.9,5.4,,,,,,,,,wg-a,,,,AAXX 15184 07280 12/65 13302 10000 21030 39920 40204 53010 60006 81030 91800 333 10054 21029=
07280,1996-12-15 21:00:00,-1,1020.7,0.2,86,-3,15000,11.112,,,350,,,,,,,,,,,wg-a,,,,AAXX 15214 07280 12565 /3506 11010 21030 39922 40207 51002 60006 81500 92100=
07280,1996-12-16 00:00:00,-2,1020.1,-0.7,86,-4,20000,11.112,,,330,,,,,,,,,,,wg-a,,,,AAXX 16004 07280 12/70 03306 11020 21040 39915 40201 58007 60006 80000 90000=
07280,1996-12-16 03:00:00,-1,1019.3,-0.7,86,-3,20000,3.704,,,10,,,,,,,,,,,wg-a,,,,AAXX 16034 07280 12/70 00102 11010 21030 39908 40193 55007 60006 80000 90300=
07280,1996-12-16 06:00:00,-2,1018.8,-0.6,93,-3,20000,11.112,,,350,-3.1,-0.1,,,,,,,,,wg-a,,,,AAXX 16064 07280 02/70 03506 11020 21030 39902 40188 56006 60006 80000 90600 333 11001 21031 60004=
07280,1996-12-16 09:00:00,-1,1018.6,-0.1,93,-2,8000,7.408,,,70,,,,,,,,,,,wg-a,,,,AAXX 16094 07280 12458 70704 11010 21020 39901 40186 57001 60006 871// 90900=
07280,1996-12-16 12:00:00,1,1017.2,-1.1,93,0,8000,3.704,,,110,,,,,,,,,,,wg-a,,,,AAXX 16124 07280 12458 71102 10010 20000 39890 40172 58011 60006 871// 91200=
07280,1996-12-16 15:00:00,2,1017,,87,0,7000,7.408,,,170,,,,,,,,,,,wg-a,,,,AAXX 16154 07280 12457 /1704 10020 20000 39885 40170 60006 84601 91500=
07280,1996-12-16 18:00:00,0,1015.9,-0.3,93,-1,300,7.408,,,190,-3.1,2,,,,,,,,10,wg-a,,,,AAXX 16184 07280 12103 71904 10000 21010 39876 40159 55003 60006 71041 876// 91800 333 10020 21031=
07280,1996-12-16 21:00:00,-3,1016.7,0.4,100,-3,200,3.704,,,20,,,,,,,,,,48,wg-a,,,,AAXX 16214 07280 12/02 00202 11030 21030 39880 40167 52004 60006 74844 80000 92100=
07280,1996-12-17 00:00:00,-3,1016.7,-0,93,-4,100,0,,,0,,,,,,,,,,48,wg-a,,,,AAXX 17004 07280 12/01 00000 11030 21040 39880 40167 54000 60006 74844 80000 90000=
07280,1996-12-17 03:00:00,-3,1016.8,0.2,100,-3,100,3.704,,,40,,,,,,,,,,48,wg-a,,,,AAXX 17034 07280 12/01 00402 11030 21030 39882 40168 50002 60006 74840 80000 90300=
07280,1996-12-17 06:00:00,-4,1016.4,-0.5,100,-4,3000,0,,,0,-3.7,-0.2,,,,,,,,10,wg-a,,,,AAXX 17064 07280 02/30 00000 11040 21040 39877 40164 57005 60006 71040 80000 90600 333 11002 21037 60004=
07280,1996-12-17 09:00:00,-2,1016.8,0.6,100,-2,4500,0,,,0,,,,,,,,,,10,wg-a,,,,AAXX 17094 07280 12845 70000 11020 21020 39883 40168 52006 60006 71011 8703/ 90900=
07280,1996-12-17 12:00:00,4,1015.2,-0.9,100,4,6000,14.816,,,190,,,,,,,,,,21,wg-a,,,,AAXX 17124 07280 02856 81908 10040 20040 39874 40152 58009 61000 72161 8807/ 91200 333 6100=
07280,1996-12-17 15:00:00,6,1014.3,-0.7,93,5,6000,11.112,,,180,,,,1,,,,,,21,wg-a,,,,AAXX 17154 07280 12656 81806 10060 20050 39867 40143 57007 60017 72162 885// 91500=
07280,1996-12-17 18:00:00,7,1014.3,0.1,93,6,8000,11.112,,,190,-3.9,7,,,,,,,,1,wg-a,,,,AAXX 17184 07280 12658 71906 10070 20060 39868 40143 51001 60006 70162 875// 91800 333 10070 21039=
07280,1996-12-17 21:00:00,8,1014.7,0.4,87,6,12000,11.112,,,190,,,,,,,,,,,wg-a,,,,AAXX 17214 07280 12662 71906 10080 20060 39872 40147 50004 60006 875// 92100=
07280,1996-12-18 00:00:00,8,1013.9,-0.7,87,6,20000,18.52,,,190,,,,,,,,,,,wg-a,,,,AAXX 18004 07280 12670 81910 10080 20060 39865 40139 58007 60006 885// 90000=
07280,1996-12-18 03:00:00,7,1013,-0.9,93,6,20000,14.816,,,190,,,,,,,,,,,wg-a,,,,AAXX 18034 07280 12670 71908 10070 20060 39856 40130 58009 60006 875// 90300=
07280,1996-12-18 06:00:00,5,1012.1,-1.2,93,4,15000,7.408,,,170,4.5,7.9,,,,,1,,,,wg-a,,,,AAXX 18064 07280 02/65 01704 10050 20040 39844 40121 58012 60006 80000 90600 333 10079 20045 60014=
07280,1996-12-18 09:00:00,5,1011.7,-0.4,100,5,12000,7.408,,,140,,,,,,,,,,12,wg-a,,,,AAXX 18094 07280 12/62 41404 10050 20050 39840 40117 58004 60006 71240 80001 90900=
07280,1996-12-18 12:00:00,10,1009.5,-1.6,76,6,20000,14.816,,,210,,,,,,,,,,1,wg-a,,,,AAXX 18124 07280 12470 42108 10100 20060 39824 40095 58016 60006 70141 81101 91200=
07280,1996-12-18 15:00:00,11,1007.4,-1.9,82,8,40000,7.408,,,220,,,,,,,,,,,wg-a,,,,AAXX 18154 07280 12/82 42204 10110 20080 39805 40074 56019 60006 81031 91500=
07280,1996-12-18 18:00:00,7,1007,-0.8,93,6,15000,11.112,,,190,2,12,,,,,,,,,wg-a,,,,AAXX 18184 07280 12/65 01906 10070 20060 39797 40070 56008 60006 80000 91800 333 10120 20020=
07280,1996-12-18 21:00:00,5,1006.7,-0.5,93,4,15000,7.408,,,160,,,,,,,,,,,wg-a,,,,AAXX 18214 07280 12/65 21604 10050 20040 39792 40067 58005 60006 81051 92100=
07280,1996-12-19 00:00:00,5,1005.9,-0.8,100,5,15000,11.112,,,180,,,,,,,,,,,wg-a,,,,AAXX 19004 07280 12/65 41806 10050 20050 39784 40059 57008 60006 82051 90000=
07280,1996-12-19 03:00:00,4,1005.1,-0.8,100,4,15000,7.408,,,160,,,,,,,,,,,wg-a,,,,AAXX 19034 07280 12/65 71604 10040 20040 39776 40051 56008 60006 84051 90300=
07280,1996-12-19 06:00:00,7,1003.9,-0.9,100,7,10000,14.816,,,190,3.6,7.6,,,,,,,,3,wg-a,,,,AAXX 19064 07280 02360 81908 10070 20070 39767 40039 56009 60006 70361 875// 90600 333 10076 20036 60004=
07280,1996-12-19 09:00:00,8,1003.9,0.1,100,8,12000,7.408,,,200,,,,,,,,,,,wg-a,,,,AAXX 19094 07280 12462 82004 10080 20080 39768 40039 53001 60006 8587/ 90900=
07280,1996-12-19 12:00:00,10,1002.6,-1.1,93,9,20000,11.112,,,200,,,,,,,,,,3,wg-a,,,,AAXX 19124 07280 02470 82006 10100 20090 39757 40026 58011 61000 70362 8487/ 91200 333 6100=
07280,1996-12-19 15:00:00,9,1001.8,-0.8,100,9,8000,11.112,,,190,,,,0,,,,,,60,wg-a,,,,AAXX 19154 07280 12258 81906 10090 20090 39749 40018 57008 60007 76062 877// 91500=
07280,1996-12-19 18:00:00,9,1001.7,-0.2,93,8,8000,7.408,,,190,7.2,9.8,,,,,,,,61,wg-a,,,,AAXX 19184 07280 02258 81904 10090 20080 39747 40017 56002 61000 76162 887// 91800 333 10098 20072 6001=
07280,1996-12-19 21:00:00,9,1001.4,-0.3,93,8,8000,14.816,,,200,,,,2,,,,,,21,wg-a,,,,AAXX 19214 07280 12258 82008 10090 20080 39744 40014 58003 60027 72162 887// 92100=
07280,1996-12-20 00:00:00,8,1001.2,-0.2,100,8,8000,11.112,,,200,,,,0,,,,,,60,wg-a,,,,AAXX 20004 07280 02158 82006 10080 20080 39742 40012 58002 60026 76062 887// 90000 333 60007=
07280,1996-12-20 03:00:00,8,1001,-0.2,100,8,500,11.112,,,190,,,,,,,,,,43,wg-a,,,,AAXX 20034 07280 32/05 91906 10080 20080 39740 40010 58002 74364 89/// 90300=
07280,1996-12-20 06:00:00,8,1000.8,-0.3,100,8,800,14.816,,,210,7.7,8.7,,,,,3,,,10,wg-a,,,,AAXX 20064 07280 02108 82108 10080 20080 39737 40008 55003 60006 71064 886// 90600 333 10087 20077 60034=
07280,1996-12-20 09:00:00,7,1002.4,1.5,100,7,100,3.704,,,210,,,,,,,,,,45,wg-a,,,,AAXX 20094 07280 12/01 92102 10070 20070 39752 40024 53015 60006 74544 89/// 90900=
07280,1996-12-20 12:00:00,9,1002.4,0.2,100,9,7000,0,,,0,,,,,,,,,,10,wg-a,,,,AAXX 20124 07280 12157 /0000 10090 20090 39754 40024 50002 60006 71041 84800 91200=
07280,1996-12-20 15:00:00,9,1002.8,0.4,93,8,10000,7.408,,,130,,,,,,,,,,,wg-a,,,,AAXX 20154 07280 12460 71304 10090 20080 39758 40028 53004 60006 878// 91500=
07280,1996-12-20 18:00:00,8,1004,1.1,100,8,6000,3.704,,,80,7,11.1,,,,,,,,,wg-a,,,,AAXX 20184 07280 12156 80802 10080 20080 39769 40040 53011 60006 886// 91800 333 10111 20070=
07280,1996-12-20 21:00:00,7,1004.6,0.5,100,7,3000,3.704,,,10,,,,,,,,,,10,wg-a,,,,AAXX 20214 07280 12330 /0102 10070 20070 39774 40046 51005 60006 71011 82600 92100=
07280,1996-12-21 00:00:00,7,1005.2,0.5,100,7,100,7.408,,,20,,,,,,,,,,45,wg-a,,,,AAXX 21004 07280 12/01 90204 10070 20070 39779 40052 51005 60006 74541 89/// 90000=
07280,1996-12-21 03:00:00,6,1006.1,0.8,100,6,400,11.112,,,60,,,,,,,,,,43,wg-a,,,,AAXX 21034 07280 12/04 90606 10060 20060 39787 40061 53008 60006 74342 89/// 90300=
07280,1996-12-21 06:00:00,5,1006.2,-0,100,5,300,14.816,,,20,4.4,8.3,,,,,,,,43,wg-a,,,,AAXX 21064 07280 02/03 90208 10050 20050 39787 40062 55000 60006 74342 89/// 90600 333 10083 20044 60004=
07280,1996-12-21 09:00:00,5,1007.6,1.4,100,5,8000,14.816,,,30,,,,,,,,,,1,wg-a,,,,AAXX 21094 07280 12258 80308 10050 20050 39801 40076 53014 60006 70142 886// 90900=
07280,1996-12-21 12:00:00,6,1007.2,-0.3,93,5,9000,18.52,,,30,,,,,,,,,,1,wg-a,,,,AAXX 21124 07280 12359 80310 10060 20050 39798 40072 58003 60006 70142 8663/ 91200=
07280,1996-12-21 15:00:00,6,1006.4,-0.8,93,5,8000,14.816,,,30,,,,0,,,,,,61,wg-a,,,,AAXX 21154 07280 12458 80308 10060 20050 39790 40064 57008 60007 76162 8557/ 91500=
07280,1996-12-21 18:00:00,5,1007.7,1.2,100,5,500,18.52,,,50,5.2,6.6,,,,,,,,61,wg-a,,,,AAXX 21184 07280 02200 80510 10050 20050 39802 40077 53012 61000 76162 885// 91800 333 10066 20052 6004=
07280,1996-12-21 21:00:00,5,1007.9,0.2,100,5,8000,11.112,,,20,,,,3,,,,,,61,wg-a,,,,AAXX 21214 07280 12258 80206 10050 20050 39804 40079 53002 60037 76166 887// 92100=
07280,1996-12-22 00:00:00,5,1008.4,0.5,100,5,7000,11.112,,,20,,,,3,,,,,,61,wg-a,,,,AAXX 22004 07280 02257 80206 10050 20050 39809 40084 50005 60066 76166 887// 90000 333 60037=
07280,1996-12-22 03:00:00,5,1008.1,-0.3,100,5,7000,14.816,,,20,,,,6,,,,,,61,wg-a,,,,AAXX 22034 07280 12157 80208 10050 20050 39806 40081 57003 60067 76162 887// 90300=
07280,1996-12-22 06:00:00,5,1008.4,0.3,100,5,8000,11.112,,,10,5.1,5.5,,,,,16,,,2,wg-a,,,,AAXX 22064 07280 02258 80106 10050 20050 39809 40084 53003 60006 70262 887// 90600 333 10055 20051 60164=
07280,1996-12-22 09:00:00,5,1008.8,0.4,100,5,10000,14.816,,,10,,,,,,,,,,,wg-a,,,,AAXX 22094 07280 12360 70108 10050 20050 39813 40088 51004 60006 81632 90900=
07280,1996-12-22 12:00:00,6,1008,-0.8,93,5,9000,14.816,,,30,,,,0,,,,,,61,wg-a,,,,AAXX 22124 07280 02459 80308 10060 20050 39805 40080 58008 60006 76162 8552/ 91200 333 60007=
07280,1996-12-22 15:00:00,6,1007.2,-0.8,93,5,10000,11.112,,,20,,,,0,,,,,,60,wg-a,,,,AAXX 22154 07280 12360 80206 10060 20050 39797 40072 56008 60007 76062 8552/ 91500=
07280,1996-12-22 18:00:00,5,1005.7,-1.4,100,5,7000,14.816,,,10,5,5.9,,,,,,,,1,wg-a,,,,AAXX 22184 07280 02257 80108 10050 20050 39783 40057 58014 60006 70162 8657/ 91800 333 10059 20050 61000=
07280,1996-12-22 21:00:00,5,1004.4,-1.3,100,5,10000,11.112,,,360,,,,,,,,,,,wg-a,,,,AAXX 22214 07280 12760 73606 10050 20050 39770 40044 58013 60006 875// 92100=
07280,1996-12-23 00:00:00,5,1003.3,-1.1,100,5,7000,11.112,,,20,,,,3,,,,,,61,wg-a,,,,AAXX 23004 07280 02457 80206 10050 20050 39759 40033 58011 60036 76162 888// 90000 333 60037=
07280,1996-12-23 03:00:00,5,1000.8,-2.5,100,5,2500,7.408,,,340,,,,9,,,,,,10,wg-a,,,,AAXX 23034 07280 12125 83404 10050 20050 39734 40008 58025 60097 71062 887// 90300=
07280,1996-12-23 06:00:00,6,998.1,-2.5,100,6,3000,7.408,,,340,4.8,5.7,,,,,,,,10,wg-a,,,,AAXX 23064 07280 02130 83404 10060 20060 39709 49981 56025 61000 71065 887// 90600 333 10057 20048 6013=
07280,1996-12-23 09:00:00,6,997,-1,100,6,3000,11.112,,,360,,,,2,,,,,,10,wg-a,,,,AAXX 23094 07280 12130 83606 10060 20060 39699 49970 56010 60027 71065 887// 90900=
07280,1996-12-23 12:00:00,7,996.4,-0.5,100,7,6000,0,,,0,,,,1,,,,,,51,wg-a,,,,AAXX 23124 07280 02156 80000 10070 20070 39694 49964 58005 60036 75165 887// 91200 333 60017=
07280,1996-12-23 15:00:00,7,996.5,0.1,100,7,4500,0,,,0,,,,1,,,,,,10,wg-a,,,,AAXX 23154 07280 12145 80000 10070 20070 39695 49965 53001 60017 71065 885// 91500=
07280,1996-12-23 18:00:00,6,998,1.3,93,5,8000,18.52,,,350,5.7,7.5,,,,,,,,60,wg-a,,,,AAXX 23184 07280 02458 83510 10060 20050 39708 49980 51013 61000 76065 888// 91800 333 10075 20057 6000=
07280,1996-12-23 21:00:00,3,999.7,1.4,100,3,8000,14.816,,,30,,,,0,,,,,,3,wg-a,,,,AAXX 23214 07280 12158 80308 10030 20030 39722 49997 53014 60007 70365 887// 92100=
07280,1996-12-24 00:00:00,1,1000.1,0.2,100,1,7000,14.816,,,50,,,,,,,,,,51,wg-a,,,,AAXX 24004 07280 02257 80508 10010 20010 39724 40001 50002 60006 75165 887// 90000 333 61000=
07280,1996-12-24 03:00:00,0,1000,-0.2,100,0,7000,18.52,,,30,,,,0,,,,,,51,wg-a,,,,AAXX 24034 07280 12257 80310 10000 20000 39722 40000 58002 60007 75165 887// 90300=
07280,1996-12-24 06:00:00,0,1000.1,0.1,100,0,7000,14.816,,,30,0,6,,,,,5,,,1,wg-a,,,,AAXX 24064 07280 02257 80308 10000 20000 39723 40001 53001 60006 70165 887// 90600 333 10060 20000 60054=
07280,1996-12-24 09:00:00,1,1001.3,1.2,93,0,7000,18.52,,,20,,,,,,,,,,,wg-a,,,,AAXX 24094 07280 12357 80210 10010 20000 39735 40013 53012 60006 887// 90900=
07280,1996-12-24 12:00:00,1,1001.3,0.1,93,0,8000,22.224,,,20,,,,,,,,,,,wg-a,,,,AAXX 24124 07280 12358 80212 10010 20000 39736 40013 51001 60006 887// 91200=
07280,1996-12-24 15:00:00,2,1001.3,-0,87,0,8000,22.224,,,30,,,,,,,,,,,wg-a,,,,AAXX 24154 07280 12458 70312 10020 20000 39736 40013 55000 60006 878// 91500=
07280,1996-12-24 18:00:00,0,1002.8,1.3,93,-1,7000,22.224,,,20,0.3,1.9,,,,,,,,,wg-a,,,,AAXX 24184 07280 12457 80212 10000 21010 39749 40028 53013 60006 887// 91800 333 10019 20003=
07280,1996-12-24 21:00:00,0,1003.6,0.7,86,-2,8000,22.224,,,10,,,,,,,,,,,wg-a,,,,AAXX 24214 07280 12458 30112 10000 21020 39756 40036 53007 60006 83700 92100=
07280,1996-12-25 00:00:00,-1,1004.6,0.9,93,-2,7000,22.224,,,10,,,,,,,,,,,wg-a,,,,AAXX 25004 07280 12457 70112 11010 21020 39765 40046 52009 60006 877// 90000=
07280,1996-12-25 03:00:00,-1,1006.1,1.5,86,-3,6000,22.224,,,20,,,,,,,,,,,wg-a,,,,AAXX 25034 07280 12456 80212 11010 21030 39780 40061 52015 60006 887// 90300=
07280,1996-12-25 06:00:00,-2,1007.4,1.2,86,-4,8000,18.52,,,20,-1.5,0.4,,,,,,,,,wg-a,,,,AAXX 25064 07280 02458 80210 11020 21040 39792 40074 53012 60006 885// 90600 333 10004 21015 60004=
07280,1996-12-25 09:00:00,-2,1010,2.4,80,-5,8000,25.928,,,10,,,,,,,,,,1,wg-a,,,,AAXX 25094 07280 02458 70114 11020 21050 39816 40100 51024 61000 70172 875// 90900 333 ////=
07280,1996-12-25 12:00:00,-3,1012.3,2.2,86,-5,9000,25.928,,,20,,,,,,,,,,3,wg-a,,,,AAXX 25124 07280 02459 80214 11030 21050 39838 40123 51022 61000 70372 887// 91200 333 ////=
07280,1996-12-25 15:00:00,-3,1014.9,2.5,80,-6,10000,22.224,,,20,,,,,,,,,,,wg-a,,,,AAXX 25154 07280 12460 70212 11030 21060 39863 40149 53025 60006 875// 91500=
07280,1996-12-25 18:00:00,-5,1018.5,3.4,79,-8,12000,25.928,,,10,-4.5,-1.5,,,,,,,,,wg-a,,,,AAXX 25184 07280 12662 40114 11050 21080 39897 40185 51034 60006 84500 91800 333 11015 21045=
07280,1996-12-25 21:00:00,-5,1021.8,3.1,79,-8,8000,25.928,,,20,,,,,,,,,,,wg-a,,,,AAXX 25214 07280 12458 30214 11050 21080 39928 40218 53031 60006 83500 92100=
07280,1996-12-26 00:00:00,-6,1024.6,2.6,73,-10,20000,29.632,,,10,,,,,,,,,,,wg-a,,,,AAXX 26004 07280 12/70 00116 11060 21100 39954 40246 53026 60006 80000 90000=
07280,1996-12-26 03:00:00,-6,1027.2,2.6,79,-9,20000,22.224,,,20,,,,,,,,,,,wg-a,,,,AAXX 26034 07280 12/70 00212 11060 21090 39980 40272 53026 60006 80000 90300=
07280,1996-12-26 06:00:00,-6,1029.9,2.6,79,-9,20000,25.928,,,10,-6.3,-4.6,,,,,,,,,wg-a,,,,AAXX 26064 07280 02/70 00114 11060 21090 30006 40299 53026 60006 80000 90600 333 11046 21063 61000=
07280,1996-12-26 09:00:00,-5,1032.6,2.7,73,-9,18000,31.484,,,20,,,,,,,,,,,wg-a,,,,AAXX 26094 07280 12468 /0217 11050 21090 30033 40326 51027 60006 81100 90900=
07280,1996-12-26 12:00:00,-3,1033.8,1.4,54,-11,25000,31.484,,,50,,,,,,,,,,,wg-a,,,,AAXX 26124 07280 12/75 00517 11030 21110 30047 40338 51014 60006 80000 91200=
07280,1996-12-26 15:00:00,-3,1035.5,1.7,58,-10,500,31.484,,,30,,,,,,,,,,,wg-a,,,,AAXX 26154 07280 12/00 00317 11030 21100 30064 40355 53017 60006 80000 91500=
07280,1996-12-26 18:00:00,-5,1037.5,1.6,68,-10,20000,25.928,,,20,-6.2,-2.1,,,,,,,,,wg-a,,,,AAXX 26184 07280 12/70 00214 11050 21100 30080 40375 53016 60006 80000 91800 333 11021 21062=
07280,1996-12-26 21:00:00,-7,1036.6,-1,73,-11,15000,22.224,,,10,,,,,,,,,,,wg-a,,,,AAXX 26214 07280 12/65 00112 11070 21110 30070 40366 58010 60006 80000 92100=
07280,1996-12-27 00:00:00,-8,1036.3,-0.4,73,-12,15000,22.224,,,20,,,,,,,,,,,wg-a,,,,AAXX 27004 07280 12/65 50212 11080 21120 30066 40363 58004 60006 80001 90000=
07280,1996-12-27 03:00:00,-8,1034.5,-1.8,73,-12,15000,18.52,,,10,,,,,,,,,,,wg-a,,,,AAXX 27034 07280 12/65 00110 11080 21120 30048 40345 56018 60006 80000 90300=
07280,1996-12-27 06:00:00,-8,1033.5,-1,67,-13,15000,18.52,,,20,-8.5,-5.3,,,,,,,,,wg-a,,,,AAXX 27064 07280 02/65 70210 11080 21130 30038 40335 56010 60006 80001 90600 333 11053 21085 60004=
07280,1996-12-27 09:00:00,-7,1031.4,-1.9,62,-13,20000,7.408,,,20,,,,,,,,,,,wg-a,,,,AAXX 27094 07280 12/70 10204 11070 21130 30019 40314 56019 60006 81030 90900=
07280,1996-12-27 12:00:00,-4,1027.7,-3.3,49,-13,20000,7.408,,,60,,,,,,,,,,,wg-a,,,,AAXX 27124 07280 12/70 10604 11040 21130 39986 40277 58033 60006 81030 91200=
07280,1996-12-27 15:00:00,-5,1024.9,-2.7,63,-11,20000,0,,,0,,,,,,,,,,,wg-a,,,,AAXX 27154 07280 12/70 70000 11050 21110 39959 40249 57027 60006 8703/ 91500=
07280,1996-12-27 18:00:00,-6,1023.9,-1.1,73,-10,15000,3.704,,,10,-8,-3.6,,,,,,,,,wg-a,,,,AAXX 27184 07280 12/65 60102 11060 21100 39948 40239 57011 60006 86030 91800 333 11036 21080=
07280,1996-12-27 21:00:00,-7,1021.3,-2.7,86,-9,18000,3.704,,,10,,,,,,,,,,,wg-a,,,,AAXX 27214 07280 12/68 60102 11070 21090 39921 40213 56027 60006 86030 92100=
07280,1996-12-28 00:00:00,-7,1019.7,-1.5,86,-9,18000,11.112,,,360,,,,,,,,,,,wg-a,,,,AAXX 28004 07280 12/68 63606 11070 21090 39906 40197 56015 60006 86030 90000=
07280,1996-12-28 03:00:00,-8,1018.9,-0.9,85,-10,12000,14.816,,,20,,,,,,,,,,,wg-a,,,,AAXX 28034 07280 12/62 80208 11080 21100 39897 40189 56009 60006 8707/ 90300=
07280,1996-12-28 06:00:00,-9,1018.1,-0.9,85,-11,18000,18.52,,,360,-9,-5.8,,,,,,,,,wg-a,,,,AAXX 28064 07280 02/68 63610 11090 21110 39888 40181 56009 60006 83031 90600 333 11058 21090 60004=
07280,1996-12-28 09:00:00,-9,1018.4,0.3,85,-11,10000,22.224,,,20,,,,,,,,,,,wg-a,,,,AAXX 28094 07280 12/60 20212 11090 21110 39891 40184 53003 60006 80001 90900=
07280,1996-12-28 12:00:00,-8,1018,-0.3,79,-11,12000,18.52,,,30,,,,,,,,,,,wg-a,,,,AAXX 28124 07280 12462 70310 11080 21110 39888 40180 58003 60006 875// 91200=
07280,1996-12-28 15:00:00,-7,1017.5,-0.4,73,-11,12000,18.52,,,30,,,,,,,,,,,wg-a,,,,AAXX 28154 07280 12462 80310 11070 21110 39884 40175 55004 60006 885// 91500=
07280,1996-12-28 18:00:00,-8,1018.3,0.7,73,-12,10000,22.224,,,30,-9.1,-6.7,,,,,,,,70,wg-a,,,,AAXX 28184 07280 02560 80312 11080 21120 39891 40183 51007 61000 77071 885// 91800 333 11067 21091 6100=
07280,1996-12-28 21:00:00,-9,1018.4,0,79,-12,10000,18.52,,,20,,,,,,,,,,70,wg-a,,,,AAXX 28214 07280 02460 80210 11090 21120 39891 40184 50000 61000 77077 885// 92100 333 ////=
07280,1996-12-29 00:00:00,-9,1019,0.6,73,-13,10000,18.52,,,30,,,,,,,,,,2,wg-a,,,,AAXX 29004 07280 02660 80310 11090 21130 39897 40190 51006 61000 70272 885// 90000 333 6100=
07280,1996-12-29 03:00:00,-9,1018.3,-0.7,73,-13,10000,14.816,,,30,,,,,,,,,,,wg-a,,,,AAXX 29034 07280 12560 80308 11090 21130 39890 40183 56007 60006 885// 90300=
07280,1996-12-29 06:00:00,-10,1018.7,0.3,79,-13,10000,18.52,,,20,-9.5,-7.8,,,,,,,,,wg-a,,,,AAXX 29064 07280 02560 80210 11100 21130 39893 40187 53003 60006 885// 90600 333 11078 21095 61000=
07280,1996-12-29 09:00:00,-10,1018.7,-0.1,72,-14,10000,18.52,,,10,,,,,,,,,,,wg-a,,,,AAXX 29094 07280 12/60 00110 11100 21140 39892 40187 57001 60006 80000 90900=
07280,1996-12-29 12:00:00,-8,1017.1,-1.2,67,-13,12000,18.52,,,20,,,,,,,,,,,wg-a,,,,AAXX 29124 07280 12/62 00210 11080 21130 39880 40171 58012 60006 80000 91200=
07280,1996-12-29 15:00:00,-6,1016.4,-0.6,58,-13,12000,18.52,,,30,,,,,,,,,,,wg-a,,,,AAXX 29154 07280 12/62 00310 11060 21130 39874 40164 58006 60006 80000 91500=
07280,1996-12-29 18:00:00,-9,1016.1,-0.6,73,-13,12000,7.408,,,10,-10.9,-5.9,,,,,,,,,wg-a,,,,AAXX 29184 07280 12/62 00104 11090 21130 39868 40161 56006 60006 80000 91800 333 11059 21109=
07280,1996-12-29 21:00:00,-11,1015.3,-0.9,85,-13,12000,7.408,,,340,,,,,,,,,,,wg-a,,,,AAXX 29214 07280 12/62 03404 11110 21130 39859 40153 56009 60006 80000 92100=
07280,1996-12-30 00:00:00,-12,1013.2,-2.2,92,-13,15000,3.704,,,230,,,,,,,,,,,wg-a,,,,AAXX 30004 07280 12/65 62302 11120 21130 39837 40132 56022 60006 84031 90000=
07280,1996-12-30 03:00:00,-9,1010.2,-2.6,85,-11,4000,14.816,,,190,,,,,,,,,,71,wg-a,,,,AAXX 30034 07280 02540 81908 11090 21110 39811 40102 58026 61000 77172 8557/ 90300 333 ////=
07280,1996-12-30 06:00:00,-8,1006.7,-3.3,85,-10,500,22.224,,,200,-12.3,-7.9,,,,,,,,71,wg-a,,1,,AAXX 30064 07280 02500 82012 11080 21100 39778 40067 56033 61000 77172 885// 90600 333 11079 21123 4/001 6100=
07280,1996-12-30 09:00:00,-7,1005.6,-0.9,93,-8,3000,14.816,,,190,,,,,,,,,,10,wg-a,,,,AAXX 30094 07280 02230 81908 11070 21080 39769 40056 56009 61000 71077 885// 90900 333 ////=
07280,1996-12-30 12:00:00,-5,1005.1,-0.3,93,-6,4000,7.408,,,190,,,,0,,,,,,10,wg-a,,,,AAXX 30124 07280 02240 81904 11050 21060 39766 40051 58003 60006 71077 885// 91200 333 60007=
07280,1996-12-30 15:00:00,-5,1005.9,0.8,86,-7,500,11.112,,,30,,,,0,,,,,,71,wg-a,,,,AAXX 30154 07280 12200 80306 11050 21070 39774 40059 53008 60007 77172 875// 91500=
07280,1996-12-30 18:00:00,-7,1007.5,1.3,93,-8,6000,3.704,,,10,-7.9,-4.1,,,,,,,,22,wg-a,,4,,AAXX 30184 07280 02556 50102 11070 21080 39787 40075 51013 61000 72272 83530 91800 333 11041 21079 4/004 6100=
07280,1996-12-30 21:00:00,-13,1008.6,0.4,85,-15,3000,3.704,,,250,,,,,,,,,,10,wg-a,,,,AAXX 30214 07280 12530 /2502 11130 21150 39791 40086 52004 60006 71011 81500 92100=
07280,1996-12-31 00:00:00,-10,1009,0.7,92,-11,4500,0,,,0,,,,,,,,,,10,wg-a,,,,AAXX 31004 07280 02445 70000 11100 21110 39798 40090 51007 61000 71071 875// 90000 333 6100=
07280,1996-12-31 03:00:00,-8,1009.3,0.5,92,-9,500,7.408,,,180,,,,,,,,,,71,wg-a,,,,AAXX 31034 07280 02400 81804 11080 21090 39803 40093 52005 61000 77172 885// 90300 333 ////=
07280,1996-12-31 06:00:00,-7,1009.9,0.7,86,-9,3000,11.112,,,200,-14.5,-7.1,,,,,,,,10,wg-a,,3,,AAXX 31064 07280 02230 82006 11070 21090 39810 40099 53007 61000 71072 885// 90600 333 11071 21145 4/003 6000=
07280,1996-12-31 09:00:00,-10,1011.9,1.7,92,-11,500,7.408,,,130,,,,,,,,,,3,wg-a,,,,AAXX 31094 07280 02500 /1304 11100 21110 39827 40119 53017 61000 70371 86500 90900 333 ////=
07280,1996-12-31 12:00:00,-6,1012.5,0.9,79,-9,500,3.704,,,10,,,,,,,,,,1,wg-a,,,,AAXX 31124 07280 02600 30102 11060 21090 39836 40125 50009 61000 70171 83500 91200 333 ////=
07280,1996-12-31 15:00:00,-6,1013,0.6,79,-9,7000,11.112,,,10,,,,,,,,,,,wg-a,,,,AAXX 31154 07280 12/57 /0106 11060 21090 39842 40130 53006 60006 80001 91500=
07280,1996-12-31 18:00:00,-8,1013.3,0,85,-10,8000,18.52,,,10,-10.3,-5.3,,,,,,,,,wg-a,,2,,AAXX 31184 07280 12/58 40110 11080 21100 39842 40133 50000 60006 81031 91800 333 11053 21103 4/002=
07280,1996-12-31 21:00:00,-10,1012.9,-0.5,92,-11,10000,22.224,,,350,,,,,,,,,,,wg-a,,,,AAXX 31214 07280 12360 33512 11100 21110 39837 40129 58005 60006 82701 92100=
