station_id,dh_utc,temperature,pression,pression_variation_3h,humidite,point_de_rosee,visibilite,vent_moyen,vent_rafales,vent_rafales_10min,vent_direction,temperature_min,temperature_max,pluie_1h,pluie_3h,pluie_6h,pluie_12h,pluie_24h,ensoleillement,temperature_sol,temps_omm,source,radiations,neige_au_sol,nebulosite,raw_msg
07280,1997-01-01 00:00:00,-9,1011.6,-1.3,85,-11,8000,22.224,,,360,,,,,,,,,,,wg-a,,,,AAXX 01004 07280 12/58 43612 11090 21110 39824 40116 56013 60006 83031 90000=
07280,1997-01-01 03:00:00,-9,1011.8,0.3,85,-11,6000,22.224,,,10,,,,,,,,,,,wg-a,,,,AAXX 01034 07280 12/56 /0112 11090 21110 39827 40118 51003 60006 86030 90300=
07280,1997-01-01 06:00:00,-9,1013.4,1.5,79,-12,6000,18.52,,,20,-9.6,-8.2,,,,,,,,,wg-a,,1,,AAXX 01064 07280 02756 /0210 11090 21120 39842 40134 51015 60006 82501 90600 333 11082 21096 4/001 61000=
07280,1997-01-01 09:00:00,-11,1015.7,2.1,92,-12,500,11.112,,,350,,,,,,,,,,,wg-a,,,,AAXX 01094 07280 12500 73506 11110 21120 39863 40157 53021 60006 8753/ 90900=
07280,1997-01-01 12:00:00,-8,1017.2,1.7,79,-11,4500,7.408,,,10,,,,,,,,,,10,wg-a,,,,AAXX 01124 07280 02445 80104 11080 21110 39880 40172 51017 61000 71072 885// 91200 333 6100=
07280,1997-01-01 15:00:00,-7,1018,1,86,-9,4500,7.408,,,360,,,,,,,,,,10,wg-a,,,,AAXX 01154 07280 02445 83604 11070 21090 39890 40180 53010 61000 71072 885// 91500 333 ////=
07280,1997-01-01 18:00:00,-6,1019.6,1.5,79,-9,7000,7.408,,,350,-10.9,-6.4,,,,,,,,1,wg-a,,2,,AAXX 01184 07280 02457 73504 11060 21090 39905 40196 53015 60006 70172 875// 91800 333 11064 21109 4/002 61000=
07280,1997-01-01 21:00:00,-7,1020.3,0.6,79,-10,6000,3.704,,,10,,,,,,,,,,,wg-a,,,,AAXX 01214 07280 12656 20102 11070 21100 39911 40203 53006 60006 82500 92100=
07280,1997-01-02 00:00:00,-10,1021.4,0.8,92,-11,6000,7.408,,,30,,,,,,,,,,,wg-a,,,,AAXX 02004 07280 12/56 00304 11100 21110 39919 40214 52008 60006 80000 90000=
07280,1997-01-02 03:00:00,-10,1020.6,-0.8,92,-11,6000,14.816,,,10,,,,,,,,,,,wg-a,,,,AAXX 02034 07280 12/56 /0108 11100 21110 39911 40206 57008 60006 8607/ 90300=
07280,1997-01-02 06:00:00,-10,1019.3,-1.2,92,-11,6000,14.816,,,20,-10.3,-6.4,,,,,,,,,wg-a,,2,,AAXX 02064 07280 02/56 00208 11100 21110 39899 40193 57012 60006 80000 90600 333 11064 21103 4/002 61000=
07280,1997-01-02 09:00:00,-7,1018.2,-0.8,79,-10,4500,18.52,,,10,,,,,,,,,,10,wg-a,,,,AAXX 02094 07280 12745 80110 11070 21100 39891 40182 57008 60006 71011 82572 90900=
07280,1997-01-02 12:00:00,-5,1014.9,-3,86,-7,4500,22.224,,,10,,,,,,,,,,10,wg-a,,,,AAXX 02124 07280 12/45 80112 11050 21070 39861 40149 58030 60006 71011 80002 91200=
07280,1997-01-02 15:00:00,-4,1012.8,-1.9,80,-7,500,22.224,,,10,,,,,,,,,,,wg-a,,,,AAXX 02154 07280 12/00 80112 11040 21070 39842 40128 56019 60006 82072 91500=
07280,1997-01-02 18:00:00,-5,1011.2,-1.7,79,-8,4000,22.224,,,10,-9.6,-4,,,,,,,,10,wg-a,,1,,AAXX 02184 07280 12740 80112 11050 21080 39825 40112 56017 60006 71022 8357/ 91800 333 11040 21096 4/001=
07280,1997-01-02 21:00:00,-7,1009.7,-1.6,93,-8,2000,25.928,,,20,,,,,,,,,,71,wg-a,,,,AAXX 02214 07280 02220 80214 11070 21080 39809 40097 56016 61000 77172 886// 92100 333 ////=
07280,1997-01-03 00:00:00,-7,1009.9,0.2,93,-8,2500,14.816,,,10,,,,1,,,,,,10,wg-a,,,,AAXX 03004 07280 02225 80108 11070 21080 39811 40099 51002 60016 71072 885// 90000 333 60017=
07280,1997-01-03 03:00:00,-6,1009.7,-0.2,93,-7,3000,14.816,,,10,,,,1,,,,,,10,wg-a,,,,AAXX 03034 07280 12230 80108 11060 21070 39809 40097 57002 60017 71072 886// 90300=
07280,1997-01-03 06:00:00,-6,1008.6,-1,93,-7,4000,11.112,,,30,-6.6,-5.3,,,,,,,,10,wg-a,,7,,AAXX 03064 07280 02240 80306 11060 21070 39799 40086 57010 61000 71072 886// 90600 333 11053 21066 4/007 6002=
07280,1997-01-03 09:00:00,-6,1007.7,-0.8,93,-7,2000,14.816,,,20,,,,,,,,,,10,wg-a,,,,AAXX 03094 07280 12420 80208 11060 21070 39791 40077 58008 60006 71022 885// 90900=
07280,1997-01-03 12:00:00,-3,1006,-1.5,80,-6,3500,14.816,,,10,,,,0,,,,,,10,wg-a,,,,AAXX 03124 07280 02535 60108 11030 21060 39776 40060 58015 60006 71022 85501 91200 333 60007=
07280,1997-01-03 15:00:00,-3,1003.7,-2.1,86,-5,3000,14.816,,,350,,,,,,,,,,10,wg-a,,,,AAXX 03154 07280 12/30 83508 11030 21050 39755 40037 58021 60006 71022 80002 91500=
07280,1997-01-03 18:00:00,-2,1000.7,-2.8,86,-4,3000,29.632,,,20,-6.3,-1.6,,,,,,,,10,wg-a,,4,,AAXX 03184 07280 12/30 80216 11020 21040 39727 40007 58028 60006 71022 8707/ 91800 333 11016 21063 4/004=
07280,1997-01-03 21:00:00,-2,1000.5,-0.2,86,-4,6000,25.928,,,10,,,,,,,,,,,wg-a,,,,AAXX 03214 07280 12/56 80114 11020 21040 39725 40005 55002 60006 8807/ 92100=
07280,1997-01-04 00:00:00,-4,1000.8,0,86,-6,500,7.408,,,20,,,,,,,,,,,wg-a,,,,AAXX 04004 07280 12/00 80204 11040 21060 39725 40008 50000 60006 8807/ 90000=
07280,1997-01-04 03:00:00,-4,999.8,-1,93,-5,500,7.408,,,30,,,,,,,,,,,wg-a,,,,AAXX 04034 07280 12/00 80304 11040 21050 39715 49998 56010 60006 8807/ 90300=
07280,1997-01-04 06:00:00,-3,1000.1,0.4,86,-5,2500,11.112,,,20,-4.8,-1.2,,,,,,,,71,wg-a,,4,,AAXX 04064 07280 02425 80206 11030 21050 39719 40001 53004 61000 77172 8657/ 90600 333 11012 21048 4/004 6000=
07280,1997-01-04 09:00:00,-3,1000.9,0.8,93,-4,2500,7.408,,,100,,,,1,,,,,,10,wg-a,,,,AAXX 04094 07280 12325 81004 11030 21040 39727 40009 51008 60017 71074 886// 90900=
07280,1997-01-04 12:00:00,-2,1000.5,-0.2,93,-3,3000,7.408,,,20,,,,0,,,,,,10,wg-a,,,,AAXX 04124 07280 02330 80204 11020 21030 39725 40005 58002 60026 71074 886// 91200 333 60007=
07280,1997-01-04 15:00:00,-1,1002.1,1.6,86,-3,2500,0,,,0,,,,,,,,,,10,wg-a,,,,AAXX 04154 07280 12425 80000 11010 21030 39741 40021 53016 60006 71022 886// 91500=
07280,1997-01-04 18:00:00,-1,1002.7,0.6,86,-3,3000,3.704,,,350,-3.6,-1,,,,,,,,10,wg-a,,5,,AAXX 04184 07280 12330 83502 11010 21030 39747 40027 53006 60006 71022 886// 91800 333 11010 21036 4/005=
07280,1997-01-04 21:00:00,-3,1005.3,2.3,93,-4,3000,11.112,,,320,,,,,,,,,,10,wg-a,,,,AAXX 04214 07280 12230 83206 11030 21040 39770 40053 52023 60006 71022 886// 92100=
07280,1997-01-05 00:00:00,-3,1007.1,1.7,80,-6,3500,7.408,,,330,,,,,,,,,,10,wg-a,,,,AAXX 05004 07280 12435 83304 11030 21060 39787 40071 53017 60006 71022 886// 90000=
07280,1997-01-05 03:00:00,-4,1008.5,1.3,93,-5,4000,3.704,,,90,,,,,,,,,,10,wg-a,,,,AAXX 05034 07280 12540 80902 11040 21050 39800 40085 52013 60006 71022 885// 90300=
07280,1997-01-05 06:00:00,-4,1009.2,0.7,93,-5,500,3.704,,,130,-4.1,-1.1,,,,,2,,,,wg-a,,4,,AAXX 05064 07280 02300 81302 11040 21050 39807 40092 53007 60006 886// 90600 333 11011 21041 4/004 60024=
07280,1997-01-05 09:00:00,-5,1011.3,2,93,-6,4500,3.704,,,200,,,,,,,,,,10,wg-a,,,,AAXX 05094 07280 12545 82002 11050 21060 39827 40113 51020 60006 71022 875// 90900=
07280,1997-01-05 12:00:00,-2,1011.9,0.8,80,-5,4500,0,,,0,,,,,,,,,,10,wg-a,,,,AAXX 05124 07280 12545 80000 11020 21050 39835 40119 51008 60006 71022 885// 91200=
07280,1997-01-05 15:00:00,-1,1012.5,0.7,80,-4,4500,0,,,0,,,,,,,,,,10,wg-a,,,,AAXX 05154 07280 12445 80000 11010 21040 39842 40125 53007 60006 71022 885// 91500=
07280,1997-01-05 18:00:00,-2,1013.9,1.2,86,-4,500,7.408,,,20,-4.8,-1.3,,,,,,,,,wg-a,,4,,AAXX 05184 07280 12400 80204 11020 21040 39854 40139 53012 60006 885// 91800 333 11013 21048 4/004=
07280,1997-01-05 21:00:00,-3,1015.1,1.1,86,-5,6000,11.112,,,10,,,,,,,,,,,wg-a,,,,AAXX 05214 07280 12456 80106 11030 21050 39865 40151 51011 60006 885// 92100=
07280,1997-01-06 00:00:00,-6,1015.7,0.3,93,-7,6000,7.408,,,350,,,,,,,,,,,wg-a,,,,AAXX 06004 07280 12556 23504 11060 21070 39868 40157 50003 60006 82500 90000=
07280,1997-01-06 03:00:00,-7,1016.1,0.2,86,-9,6000,11.112,,,350,,,,,,,,,,,wg-a,,,,AAXX 06034 07280 12/56 03506 11070 21090 39870 40161 52002 60006 80000 90300=
07280,1997-01-06 06:00:00,-5,1015.8,0,93,-6,6000,11.112,,,330,-7.7,-2,,,,,,,,,wg-a,,4,,AAXX 06064 07280 02856 73306 11050 21060 39870 40158 50000 60006 877// 90600 333 11020 21077 4/004 60004=
07280,1997-01-06 09:00:00,-2,1016.1,0.6,86,-4,4000,14.816,,,10,,,,,,,,,,10,wg-a,,,,AAXX 06094 07280 12840 /0108 11020 21040 39876 40161 51006 60006 71011 84030 90900=
07280,1997-01-06 12:00:00,0,1015.2,-0.7,80,-3,4000,11.112,,,360,,,,,,,,,,10,wg-a,,,,AAXX 06124 07280 12/40 03606 10000 21030 39869 40152 58007 60006 71011 80000 91200=
07280,1997-01-06 15:00:00,0,1015.3,0.1,74,-4,4000,11.112,,,10,,,,,,,,,,10,wg-a,,,,AAXX 06154 07280 12840 40106 10000 21040 39870 40153 53001 60006 71000 84030 91500=
07280,1997-01-06 18:00:00,-3,1016.3,0.7,86,-5,500,18.52,,,20,-5.1,0.4,,,,,,,,,wg-a,,3,,AAXX 06184 07280 12800 /0210 11030 21050 39877 40163 53007 60006 81030 91800 333 10004 21051 4/003=
07280,1997-01-06 21:00:00,-3,1017.5,1.1,86,-5,6000,18.52,,,10,,,,,,,,,,,wg-a,,,,AAXX 06214 07280 12356 80110 11030 21050 39888 40175 51011 60006 886// 92100=
07280,1997-01-07 00:00:00,-4,1017.6,0.1,93,-5,6000,18.52,,,360,,,,,,,,,,,wg-a,,,,AAXX 07004 07280 12256 83610 11040 21050 39889 40176 52001 60006 886// 90000=
07280,1997-01-07 03:00:00,-3,1017.7,0.2,93,-4,7000,11.112,,,350,,,,,,,,,,,wg-a,,,,AAXX 07034 07280 12457 83506 11030 21040 39891 40177 53002 60006 886// 90300=
07280,1997-01-07 06:00:00,-3,1018.1,0.3,93,-4,7000,7.408,,,20,-4.3,-2.6,,,,,,,,,wg-a,,3,,AAXX 07064 07280 02457 80204 11030 21040 39894 40181 53003 60006 886// 90600 333 11026 21043 4/003 60004=
07280,1997-01-07 09:00:00,-3,1018.9,0.8,86,-5,4000,11.112,,,30,,,,,,,,,,10,wg-a,,,,AAXX 07094 07280 12340 80306 11030 21050 39902 40189 53008 60006 71022 886// 90900=
07280,1997-01-07 12:00:00,-3,1018.6,-0.2,93,-4,4500,7.408,,,50,,,,,,,,,,10,wg-a,,,,AAXX 07124 07280 12445 80504 11030 21040 39900 40186 58002 60006 71022 886// 91200=
07280,1997-01-07 15:00:00,-3,1018.1,-0.5,86,-5,4500,3.704,,,50,,,,,,,,,,10,wg-a,,,,AAXX 07154 07280 12445 80502 11030 21050 39895 40181 56005 60006 71022 886// 91500=
07280,1997-01-07 18:00:00,-3,1018.1,-0.1,86,-5,6000,7.408,,,110,-3.6,-2.4,,,,,,,,,wg-a,,3,,AAXX 07184 07280 12356 81104 11030 21050 39894 40181 55001 60006 886// 91800 333 11024 21036 4/003=
07280,1997-01-07 21:00:00,-3,1017,-1,86,-5,7000,3.704,,,120,,,,,,,,,,,wg-a,,,,AAXX 07214 07280 12457 81202 11030 21050 39884 40170 58010 60006 886// 92100=
07280,1997-01-08 00:00:00,-3,1015.1,-1.9,93,-4,500,3.704,,,30,,,,,,,,,,,wg-a,,,,AAXX 08004 07280 12400 80302 11030 21040 39865 40151 56019 60006 886// 90000=
07280,1997-01-08 03:00:00,-3,1013.4,-1.6,93,-4,4500,11.112,,,80,,,,,,,,,,10,wg-a,,,,AAXX 08034 07280 12345 80806 11030 21040 39849 40134 58016 60006 71022 886// 90300=
07280,1997-01-08 06:00:00,-3,1011.5,-1.9,93,-4,4000,7.408,,,60,-3.4,-2.8,,,,,,,,10,wg-a,,3,,AAXX 08064 07280 02240 80604 11030 21040 39830 40115 56019 60006 71022 886// 90600 333 11028 21034 4/003 60004=
07280,1997-01-08 09:00:00,-3,1010.7,-0.8,86,-5,4500,7.408,,,10,,,,,,,,,,10,wg-a,,,,AAXX 08094 07280 12445 70104 11030 21050 39822 40107 55008 60006 71022 84601 90900=
07280,1997-01-08 12:00:00,-2,1009.1,-1.4,86,-4,500,14.816,,,20,,,,,,,,,,,wg-a,,,,AAXX 08124 07280 12/00 70208 11020 21040 39808 40091 58014 60006 85031 91200=
07280,1997-01-08 15:00:00,-1,1007.8,-1.2,86,-3,3000,7.408,,,10,,,,0,,,,,,66,wg-a,,,,AAXX 08154 07280 12/30 80104 11010 21030 39796 40078 56012 60007 76676 8802/ 91500=
07280,1997-01-08 17:00:00,0,1006.7,-1.3,93,-1,3000,11.112,,,350,-3.5,-0.4,,2,,,,,,10,wg-a,,4,,AAXX 08174 07280 12530 83506 10000 21010 39787 40067 58013 60027 71076 8452/ 91700 333 11004 21035 4/004=
07280,1997-01-08 18:00:00,0,1006.4,-1.3,93,-1,3000,11.112,,,350,-3.5,-0.4,,,,,,,,10,wg-a,,4,,AAXX 08184 07280 02530 83506 10000 21010 39783 40064 58013 61000 71076 8452/ 91800 333 11004 21035 4/004 6002=
07280,1997-01-08 21:00:00,0,1005.7,-0.6,86,-2,500,7.408,,,30,,,,1,,,,,,10,wg-a,,,,AAXX 08214 07280 12600 80304 10000 21020 39777 40057 58006 60017 71066 8252/ 92100=
07280,1997-01-09 00:00:00,-1,1005.1,-0.7,93,-2,500,11.112,,,30,,,,1,,,,,,66,wg-a,,,,AAXX 09004 07280 02500 80306 11010 21020 39770 40051 58007 60036 76666 8452/ 90000 333 60017=
07280,1997-01-09 03:00:00,-1,1004.5,-0.6,93,-2,500,11.112,,,20,,,,0,,,,,,66,wg-a,,,,AAXX 09034 07280 12200 80206 11010 21020 39764 40045 57006 60007 76662 875// 90300=
07280,1997-01-09 06:00:00,-1,1004.2,-0.2,93,-2,4500,11.112,,,10,-1.1,-0.1,,,,,,,,10,wg-a,,5,,AAXX 09064 07280 02245 80106 11010 21020 39762 40042 57002 61000 71062 886// 90600 333 11001 21011 4/005 6006=
07280,1997-01-09 09:00:00,-1,1004.8,0.6,100,-1,3000,7.408,,,20,,,,0,,,,,,10,wg-a,,,,AAXX 09094 07280 12230 80204 11010 21010 39768 40048 53006 60007 71065 886// 90900=
07280,1997-01-09 12:00:00,0,1005.5,0.7,93,-1,3000,7.408,,,40,,,,0,,,,,,10,wg-a,,,,AAXX 09124 07280 02230 80404 10000 21010 39775 40055 51007 60016 71065 886// 91200 333 60007=
07280,1997-01-09 15:00:00,0,1006.6,1.1,100,0,2000,3.704,,,20,,,,,,,,,,10,wg-a,,,,AAXX 09154 07280 02220 80202 10000 20000 39786 40066 53011 61000 71052 886// 91500 333 ////=
07280,1997-01-09 18:00:00,0,1007.9,1.3,100,0,1400,3.704,,,60,-0.9,0.5,,,,,,,,10,wg-a,,3,,AAXX 09184 07280 02214 80602 10000 20000 39799 40079 53013 61000 71065 876// 91800 333 10005 21009 4/003 6000=
07280,1997-01-09 21:00:00,0,1009.2,1.2,100,0,1000,0,,,0,,,,1,,,,,,10,wg-a,,,,AAXX 09214 07280 12210 80000 10000 20000 39811 40092 51012 60017 71065 886// 92100=
07280,1997-01-10 00:00:00,0,1010.2,1,100,0,800,0,,,0,,,,1,,,,,,44,wg-a,,,,AAXX 10004 07280 02308 80000 10000 20000 39821 40102 51010 60026 74465 886// 90000 333 60017=
07280,1997-01-10 03:00:00,0,1011.5,1.3,100,0,800,3.704,,,360,,,,1,,,,,,44,wg-a,,,,AAXX 10034 07280 12208 83602 10000 20000 39834 40115 53013 60017 74465 886// 90300=
07280,1997-01-10 06:00:00,0,1013.2,1.6,100,0,2500,7.408,,,30,0.1,0.5,,,,,,,,10,wg-a,,2,,AAXX 10064 07280 02225 80304 10000 20000 39850 40132 53016 61000 71076 885// 90600 333 10005 20001 4/002 6004=
07280,1997-01-10 09:00:00,1,1016,2.8,93,0,2000,7.408,,,50,,,,0,,,,,,10,wg-a,,,,AAXX 10094 07280 12420 80504 10010 20000 39878 40160 53028 60007 71076 887// 90900=
07280,1997-01-10 12:00:00,1,1017.3,1.3,100,1,4000,7.408,,,60,,,,,,,,,,10,wg-a,,,,AAXX 10124 07280 12340 80604 10010 20010 39891 40173 51013 60006 71076 886// 91200=
07280,1997-01-10 15:00:00,1,1019.5,2.1,100,1,2000,7.408,,,70,,,,,,,,,,10,wg-a,,,,AAXX 10154 07280 12220 /0704 10010 20010 39912 40195 53021 60006 71022 876// 91500=
07280,1997-01-10 18:00:00,1,1021.9,2.3,80,-2,3000,14.816,,,330,0.3,1.4,,,,,,,,10,wg-a,,2,,AAXX 10184 07280 12330 83308 10010 21020 39935 40219 51023 60006 71022 886// 91800 333 10014 20003 4/002=
07280,1997-01-10 21:00:00,0,1023.5,1.5,86,-2,8000,11.112,,,10,,,,,,,,,,,wg-a,,,,AAXX 10214 07280 12458 80106 10000 21020 39950 40235 53015 60006 886// 92100=
07280,1997-01-11 00:00:00,-1,1024.9,1.2,86,-3,8000,11.112,,,30,,,,,,,,,,,wg-a,,,,AAXX 11004 07280 12458 80306 11010 21030 39962 40249 53012 60006 886// 90000=
07280,1997-01-11 03:00:00,-2,1025.5,0.5,86,-4,6000,11.112,,,60,,,,,,,,,,,wg-a,,,,AAXX 11034 07280 12456 80606 11020 21040 39967 40255 50005 60006 886// 90300=
07280,1997-01-11 06:00:00,-2,1026.1,0.6,86,-4,8000,3.704,,,60,-2.4,0.6,,,,,,,,,wg-a,,2,,AAXX 11064 07280 02458 80602 11020 21040 39973 40261 52006 60006 886// 90600 333 10006 21024 4/002 60004=
07280,1997-01-11 09:00:00,-2,1027.8,1.7,86,-4,10000,0,,,0,,,,,,,,,,,wg-a,,,,AAXX 11094 07280 12460 80000 11020 21040 39990 40278 51017 60006 886// 90900=
07280,1997-01-11 12:00:00,-1,1028.6,0.8,80,-4,10000,3.704,,,60,,,,,,,,,,,wg-a,,,,AAXX 11124 07280 12460 80602 11010 21040 39998 40286 50008 60006 886// 91200=
07280,1997-01-11 15:00:00,-2,1028.8,0.2,86,-4,10000,7.408,,,10,,,,,,,,,,,wg-a,,,,AAXX 11154 07280 12460 70104 11020 21040 30000 40288 53002 60006 8563/ 91500=
07280,1997-01-11 18:00:00,-3,1029.8,0.8,93,-4,8000,7.408,,,40,-2.6,-0.9,,,,,,,,,wg-a,,2,,AAXX 11184 07280 12358 80404 11030 21040 30008 40298 51008 60006 886// 91800 333 11009 21026 4/002=
07280,1997-01-11 21:00:00,-3,1030.3,0.5,93,-4,6000,14.816,,,20,,,,,,,,,,,wg-a,,,,AAXX 11214 07280 12256 80208 11030 21040 30013 40303 52005 60006 886// 92100=
07280,1997-01-12 00:00:00,-4,1030.7,0.3,93,-5,6000,14.816,,,10,,,,,,,,,,,wg-a,,,,AAXX 12004 07280 12256 80108 11040 21050 30016 40307 52003 60006 886// 90000=
07280,1997-01-12 03:00:00,-5,1031,0.2,100,-5,6000,11.112,,,10,,,,,,,,,,,wg-a,,,,AAXX 12034 07280 12156 80106 11050 21050 30018 40310 53002 60006 886// 90300=
07280,1997-01-12 06:00:00,-5,1031,-0,100,-5,1500,11.112,,,50,-4.6,-2.6,,,,,,,,10,wg-a,,2,,AAXX 12064 07280 02115 80506 11050 21050 30018 40310 55000 60006 71022 886// 90600 333 11026 21046 4/002 60004=
07280,1997-01-12 09:00:00,-5,1032,0.9,100,-5,1800,11.112,,,20,,,,,,,,,,10,wg-a,,,,AAXX 12094 07280 12118 80206 11050 21050 30027 40320 51009 60006 71022 886// 90900=
07280,1997-01-12 12:00:00,-4,1030.8,-1.1,93,-5,2000,11.112,,,30,,,,,,,,,,10,wg-a,,,,AAXX 12124 07280 02120 80306 11040 21050 30016 40308 58011 61000 71072 886// 91200 333 6100=
07280,1997-01-12 15:00:00,-4,1030.3,-0.4,93,-5,4500,11.112,,,10,,,,,,,,,,10,wg-a,,,,AAXX 12154 07280 12245 80106 11040 21050 30012 40303 55004 60006 71022 886// 91500=
07280,1997-01-12 18:00:00,-6,1030.3,-0.2,100,-6,4000,3.704,,,50,-5.5,-3.8,,,,,,,,10,wg-a,,2,,AAXX 12184 07280 12240 40502 11060 21060 30010 40303 55002 60006 71011 83601 91800 333 11038 21055 4/002=
07280,1997-01-12 21:00:00,-7,1030.6,0.2,100,-7,6000,0,,,0,,,,,,,,,,11,wg-a,,,,AAXX 12214 07280 12/56 00000 11070 21070 30012 40306 51002 60006 71100 80000 92100=
07280,1997-01-13 00:00:00,-7,1030.3,-0.4,93,-8,2000,11.112,,,50,,,,,,,,,,40,wg-a,,,,AAXX 13004 07280 12320 /0506 11070 21080 30008 40303 56004 60006 74011 86600 90000=
07280,1997-01-13 03:00:00,-7,1029.5,-0.7,93,-8,1000,7.408,,,30,,,,,,,,,,40,wg-a,,,,AAXX 13034 07280 12110 80304 11070 21080 30001 40295 58007 60006 74022 886// 90300=
07280,1997-01-13 06:00:00,-7,1029.3,-0.2,93,-8,400,3.704,,,40,-7.6,-5.5,,,,,,,,49,wg-a,,2,,AAXX 13064 07280 02/04 90402 11070 21080 39999 40293 55002 60006 74942 89/// 90600 333 11055 21076 4/002 61000=
07280,1997-01-13 09:00:00,-7,1030.1,0.7,93,-8,1500,7.408,,,340,,,,,,,,,,28,wg-a,,,,AAXX 13094 07280 02115 /3404 11070 21080 30006 40301 51007 61000 72874 876// 90900 333 ////=
07280,1997-01-13 12:00:00,-7,1029.8,-0.2,100,-7,1500,3.704,,,200,,,,,,,,,,10,wg-a,,,,AAXX 13124 07280 02115 82002 11070 21070 30004 40298 58002 61000 71074 886// 91200 333 ////=
07280,1997-01-13 15:00:00,-6,1028.6,-1.1,93,-7,1200,3.704,,,50,,,,,,,,,,10,wg-a,,,,AAXX 13154 07280 02112 80502 11060 21070 39993 40286 56011 61000 71072 886// 91500 333 ////=
07280,1997-01-13 18:00:00,-6,1028.8,0.2,93,-7,900,3.704,,,10,-7.4,-5.8,,,,,,,,48,wg-a,,2,,AAXX 13184 07280 12/09 90102 11060 21070 39995 40288 53002 60006 74874 89/// 91800 333 11058 21074 4/002=
07280,1997-01-13 21:00:00,-7,1029,0.1,93,-8,400,0,,,0,,,,,,,,,,49,wg-a,,,,AAXX 13214 07280 12/04 90000 11070 21080 39996 40290 53001 60006 74944 89/// 92100=
07280,1997-01-14 00:00:00,-7,1028.6,-0.4,93,-8,100,0,,,0,,,,,,,,,,49,wg-a,,,,AAXX 14004 07280 12/01 90000 11070 21080 39992 40286 56004 60006 74944 89/// 90000=
07280,1997-01-14 03:00:00,-8,1028.5,-0.2,100,-8,100,0,,,0,,,,,,,,,,49,wg-a,,,,AAXX 14034 07280 12/01 90000 11080 21080 39990 40285 58002 60006 74942 89/// 90300=
07280,1997-01-14 06:00:00,-7,1028.1,-0.3,93,-8,100,0,,,0,-7.6,-6.5,,,,,,,,49,wg-a,,2,,AAXX 14064 07280 02/01 90000 11070 21080 39987 40281 57003 60006 74942 89/// 90600 333 11065 21076 4/002 61000=
07280,1997-01-14 09:00:00,-7,1028.5,0.4,93,-8,100,0,,,0,,,,,,,,,,49,wg-a,,,,AAXX 14094 07280 12/01 90000 11070 21080 39991 40285 53004 60006 74944 89/// 90900=
07280,1997-01-14 12:00:00,-6,1028,-0.4,93,-7,300,0,,,0,,,,,,,,,,49,wg-a,,,,AAXX 14124 07280 12/03 90000 11060 21070 39987 40280 58004 60006 74944 89/// 91200=
07280,1997-01-14 15:00:00,-6,1027.2,-0.7,100,-6,800,0,,,0,,,,,,,,,,49,wg-a,,,,AAXX 14154 07280 12/08 90000 11060 21060 39980 40272 56007 60006 74944 89/// 91500=
07280,1997-01-14 18:00:00,-7,1027.5,0.2,100,-7,100,3.704,,,30,-7.5,-5.3,,,,,,,,49,wg-a,,2,,AAXX 14184 07280 12/01 90302 11070 21070 39982 40275 53002 60006 74944 89/// 91800 333 11053 21075 4/002=
07280,1997-01-14 21:00:00,-7,1027.6,0.3,93,-8,100,0,,,0,,,,,,,,,,48,wg-a,,,,AAXX 14214 07280 12/01 00000 11070 21080 39983 40276 52003 60006 74844 80000 92100=
07280,1997-01-15 00:00:00,-9,1028.6,0.4,92,-10,100,0,,,0,,,,,,,,,,49,wg-a,,,,AAXX 15004 07280 12/01 90000 11090 21100 39989 40286 53004 60006 74944 89/// 90000=
07280,1997-01-15 06:00:00,-11,1029.2,0.2,92,-12,500,0,,,0,-11.1,-6.6,,,,,,,,2,wg-a,,2,,AAXX 15064 07280 02/00 00000 11110 21120 39994 40292 52002 60006 70241 80000 90600 333 11066 21111 4/002 60004=
07280,1997-01-15 09:00:00,-9,1029.8,0.7,92,-10,2500,0,,,0,,,,,,,,,,10,wg-a,,,,AAXX 15094 07280 12/25 00000 11090 21100 30001 40298 52007 60006 71000 80000 90900=
07280,1997-01-15 12:00:00,-4,1028.7,-0.6,93,-5,1500,3.704,,,90,,,,,,,,,,10,wg-a,,,,AAXX 15124 07280 12/15 00902 11040 21050 39996 40287 58006 60006 71000 80000 91200=
07280,1997-01-15 15:00:00,-2,1027.4,-1.1,93,-3,3500,3.704,,,50,,,,,,,,,,10,wg-a,,,,AAXX 15154 07280 12/35 00502 11020 21030 39985 40274 56011 60006 71000 80000 91500=
07280,1997-01-15 18:00:00,-4,1027.5,-0.1,93,-5,2500,7.408,,,340,-11.2,-1.3,,,,,,,,10,wg-a,,3,,AAXX 15184 07280 12/25 03404 11040 21050 39984 40275 55001 60006 71000 80000 91800 333 11013 21112 4/003=
07280,1997-01-15 21:00:00,-6,1027.6,0,100,-6,1500,3.704,,,20,,,,,,,,,,10,wg-a,,,,AAXX 15214 07280 12/15 00202 11060 21060 39984 40276 50000 60006 71000 80000 92100=
07280,1997-01-16 00:00:00,-7,1027.9,0.2,100,-7,1500,3.704,,,310,,,,,,,,,,10,wg-a,,,,AAXX 16004 07280 12/15 03102 11070 21070 39986 40279 50002 60006 71000 80000 90000=
07280,1997-01-16 03:00:00,-8,1027,-1,100,-8,2500,3.704,,,360,,,,,,,,,,10,wg-a,,,,AAXX 16034 07280 12/25 03602 11080 21080 39976 40270 58010 60006 71000 80000 90300=
07280,1997-01-16 06:00:00,-9,1026.3,-0.8,92,-10,2000,0,,,0,-8.8,-3.9,,,,,,,,10,wg-a,,3,,AAXX 16064 07280 02/20 00000 11090 21100 39968 40263 56008 60006 71000 80000 90600 333 11039 21088 4/003 60004=
07280,1997-01-16 09:00:00,-7,1026.6,0.5,93,-8,500,3.704,,,340,,,,,,,,,,49,wg-a,,,,AAXX 16094 07280 12/00 93402 11070 21080 39973 40266 51005 60006 74941 89/// 90900=
07280,1997-01-16 12:00:00,-2,1025.1,-0.9,100,-2,1500,3.704,,,80,,,,,,,,,,28,wg-a,,,,AAXX 16124 07280 12/15 00802 11020 21020 39964 40251 58009 60006 72841 80000 91200=
07280,1997-01-16 15:00:00,1,1023,-1.8,86,-1,3000,3.704,,,20,,,,,,,,,,10,wg-a,,,,AAXX 16154 07280 12/30 00202 10010 21010 39946 40230 56018 60006 71000 80000 91500=
07280,1997-01-16 18:00:00,-2,1023,-0.3,93,-3,3000,7.408,,,10,-9,0.8,,,,,,,,10,wg-a,,2,,AAXX 16184 07280 12/30 00104 11020 21030 39943 40230 57003 60006 71000 80000 91800 333 10008 21090 4/002=
07280,1997-01-16 21:00:00,-5,1023,-0.3,93,-6,2000,7.408,,,310,,,,,,,,,,10,wg-a,,,,AAXX 16214 07280 12/20 03104 11050 21060 39940 40230 58003 60006 71000 80000 92100=
07280,1997-01-17 00:00:00,-6,1022.5,-0.6,100,-6,4000,3.704,,,350,,,,,,,,,,10,wg-a,,,,AAXX 17004 07280 12/40 03502 11060 21060 39934 40225 56006 60006 71000 80000 90000=
07280,1997-01-17 03:00:00,-5,1021.3,-1.1,93,-6,500,7.408,,,340,,,,,,,,,,,wg-a,,,,AAXX 17034 07280 12/00 03404 11050 21060 39923 40213 58011 60006 80000 90300=
07280,1997-01-17 06:00:00,-6,1020.5,-0.8,100,-6,500,7.408,,,20,-6.2,-1.6,,,,,,,,,wg-a,,2,,AAXX 17064 07280 02/00 00204 11060 21060 39915 40205 56008 60006 80000 90600 333 11016 21062 4/002 60004=
07280,1997-01-17 09:00:00,-3,1020.9,0.6,93,-4,4500,7.408,,,20,,,,,,,,,,10,wg-a,,,,AAXX 17094 07280 12/45 30204 11030 21040 39921 40209 51006 60006 71000 80001 90900=
07280,1997-01-17 12:00:00,2,1019.8,-0.5,75,-2,500,3.704,,,100,,,,,,,,,,,wg-a,,,,AAXX 17124 07280 12/00 /1002 10020 21020 39916 40198 58005 60006 80001 91200=
07280,1997-01-17 15:00:00,3,1019.5,-0.1,81,0,7000,3.704,,,130,,,,,,,,,,,wg-a,,,,AAXX 17154 07280 12/57 71302 10030 20000 39915 40195 55001 60006 8703/ 91500=
07280,1997-01-17 18:00:00,2,1019.9,0.2,87,0,6000,3.704,,,130,-5.7,5.4,,,,,,,,,wg-a,,2,,AAXX 17184 07280 12/56 81302 10020 20000 39917 40199 53002 60006 8807/ 91800 333 10054 21057 4/002=
07280,1997-01-17 21:00:00,2,1020.9,0.9,87,0,500,0,,,0,,,,,,,,,,,wg-a,,,,AAXX 17214 07280 12600 80000 10020 20000 39926 40209 53009 60006 885// 92100=
07280,1997-01-18 00:00:00,1,1021.1,0.2,100,1,500,0,,,0,,,,,,,,,,2,wg-a,,,,AAXX 18004 07280 02600 80000 10010 20010 39928 40211 51002 61000 70262 885// 90000 333 6100=
07280,1997-01-18 03:00:00,3,1020.9,0,100,3,500,11.112,,,180,,,,,,,,,,,wg-a,,,,AAXX 18034 07280 12500 81806 10030 20030 39928 40209 50000 60006 885// 90300=
07280,1997-01-18 06:00:00,2,1021.3,0.3,100,2,100,0,,,0,1.3,3.4,,,,,,,,61,wg-a,,1,,AAXX 18064 07280 02101 80000 10020 20020 39931 40213 53003 61000 76164 885// 90600 333 10034 20013 4/001 6002=
07280,1997-01-18 09:00:00,2,1022,0.7,100,2,100,3.704,,,50,,,,,,,,,,45,wg-a,,,,AAXX 18094 07280 32/01 90502 10020 20020 39938 40220 53007 74566 89/// 90900=
07280,1997-01-18 12:00:00,4,1020.6,-1.2,100,4,100,3.704,,,40,,,,,,,,,,45,wg-a,,,,AAXX 18124 07280 12/01 90402 10040 20040 39926 40206 58012 60026 74566 89/// 91200=
07280,1997-01-18 15:00:00,3,1018.6,-2,100,3,100,7.408,,,10,,,,,,,,,,45,wg-a,,,,AAXX 18154 07280 32/01 90104 10030 20030 39906 40186 56020 74564 89/// 91500=
07280,1997-01-18 18:00:00,2,1017.8,-0.9,100,2,100,7.408,,,10,1.7,4,,,,,,,,45,wg-a,,0,,AAXX 18184 07280 12/01 90104 10020 20020 39897 40178 56009 60006 74564 89/// 91800 333 10040 20017 4/000=
07280,1997-01-18 21:00:00,2,1016.6,-1.2,100,2,1000,7.408,,,30,,,,,,,,,,28,wg-a,,,,AAXX 18214 07280 12210 90304 10020 20020 39885 40166 56012 60006 72842 896// 92100=
07280,1997-01-19 00:00:00,2,1015,-1.5,100,2,900,3.704,,,340,,,,1,,,,,,44,wg-a,,,,AAXX 19004 07280 02709 83402 10020 20020 39870 40150 58015 60016 74442 885// 90000 333 60017=
07280,1997-01-19 03:00:00,2,1014.2,-0.8,100,2,500,3.704,,,20,,,,,,,,,,45,wg-a,,,,AAXX 19034 07280 32/05 90202 10020 20020 39862 40142 57008 74544 89/// 90300=
07280,1997-01-19 06:00:00,2,1013.4,-0.8,100,2,400,3.704,,,330,1.4,2.4,,,,,,,,61,wg-a,,,,AAXX 19064 07280 02404 83302 10020 20020 39854 40134 56008 61000 76166 8457/ 90600 333 10024 20014 6015=
07280,1997-01-19 09:00:00,3,1013.6,0.3,100,3,300,0,,,0,,,,,,,,,,45,wg-a,,,,AAXX 19094 07280 32/03 90000 10030 20030 39857 40136 51003 74566 89/// 90900=
07280,1997-01-19 12:00:00,3,1013.5,-0.1,100,3,300,3.704,,,170,,,,,,,,,,45,wg-a,,,,AAXX 19124 07280 12/03 91702 10030 20030 39856 40135 58001 60066 74566 89/// 91200=
07280,1997-01-19 15:00:00,3,1013.4,-0.1,100,3,800,7.408,,,210,,,,1,,,,,,44,wg-a,,,,AAXX 19154 07280 12108 82104 10030 20030 39855 40134 56001 60017 74464 886// 91500=
07280,1997-01-19 18:00:00,4,1014.5,1.2,100,4,500,11.112,,,200,2.2,4.2,,,,,,,,45,wg-a,,,,AAXX 19184 07280 12/00 92006 10040 20040 39867 40145 53012 60006 74564 89/// 91800 333 10042 20022=
07280,1997-01-19 21:00:00,2,1016,1.2,100,2,100,7.408,,,260,,,,,,,,,,45,wg-a,,,,AAXX 19214 07280 12/01 92604 10020 20020 39879 40160 53012 60006 74544 89/// 92100=
07280,1997-01-20 00:00:00,0,1017.2,1,100,0,500,3.704,,,240,,,,,,,,,,45,wg-a,,,,AAXX 20004 07280 12/00 /2402 10000 20000 39889 40172 51010 60006 74544 90000=
07280,1997-01-20 03:00:00,0,1016.7,-0.5,100,0,1500,7.408,,,80,,,,,,,,,,10,wg-a,,,,AAXX 20034 07280 12115 70804 10000 20000 39884 40167 56005 60006 71022 86670 90300=
07280,1997-01-20 06:00:00,1,1016.8,0.2,100,1,1000,11.112,,,350,-0.2,4.5,,,,,7,,,28,wg-a,,,,AAXX 20064 07280 02110 93506 10010 20010 39886 40168 53002 60006 72842 896// 90600 333 10045 21002 60074=
07280,1997-01-20 09:00:00,2,1018.1,1.4,100,2,600,14.816,,,350,,,,,,,,,,45,wg-a,,,,AAXX 20094 07280 12106 93508 10020 20020 39900 40181 53014 60006 74542 896// 90900=
07280,1997-01-20 12:00:00,4,1019.4,1.4,100,4,7000,22.224,,,20,,,,,,,,,,1,wg-a,,,,AAXX 20124 07280 12257 70212 10040 20040 39914 40194 50014 60006 70142 86701 91200=
07280,1997-01-20 15:00:00,5,1020,0.7,100,5,10000,18.52,,,20,,,,,,,,,,,wg-a,,,,AAXX 20154 07280 12460 80210 10050 20050 39921 40200 51007 60006 8457/ 91500=
07280,1997-01-20 18:00:00,4,1021,0.9,93,3,12000,22.224,,,20,0.9,5,,,,,,,,,wg-a,,,,AAXX 20184 07280 12462 70212 10040 20030 39930 40210 51009 60006 8373/ 91800 333 10050 20009=
07280,1997-01-20 21:00:00,3,1021.9,0.8,93,2,10000,18.52,,,20,,,,,,,,,,,wg-a,,,,AAXX 20214 07280 12360 70210 10030 20020 39938 40219 50008 60006 8473/ 92100=
07280,1997-01-21 00:00:00,4,1022.5,0.6,93,3,10000,18.52,,,20,,,,,,,,,,,wg-a,,,,AAXX 21004 07280 12460 70210 10040 20030 39944 40225 51006 60006 8173/ 90000=
07280,1997-01-21 03:00:00,4,1022.5,-0,93,3,8000,18.52,,,20,,,,,,,,,,,wg-a,,,,AAXX 21034 07280 12458 80210 10040 20030 39944 40225 55000 60006 875// 90300=
07280,1997-01-21 06:00:00,3,1022.7,0.2,100,3,6000,14.816,,,20,3.2,4.2,,,,,,,,61,wg-a,,,,AAXX 21064 07280 02356 80208 10030 20030 39946 40227 53002 61000 76162 855// 90600 333 10042 20032 6004=
07280,1997-01-21 09:00:00,4,1023.5,0.8,93,3,6000,14.816,,,10,,,,1,,,,,,1,wg-a,,,,AAXX 21094 07280 12356 80108 10040 20030 39954 40235 50008 60017 70162 877// 90900=
07280,1997-01-21 12:00:00,6,1023.1,-0.2,87,4,9000,11.112,,,40,,,,,,,,,,1,wg-a,,,,AAXX 21124 07280 02359 70406 10060 20040 39952 40231 58002 60016 70162 8613/ 91200 333 61000=
07280,1997-01-21 15:00:00,6,1022,-1,87,4,12000,14.816,,,30,,,,,,,,,,,wg-a,,,,AAXX 21154 07280 12462 70308 10060 20040 39942 40220 56010 60006 8383/ 91500=
07280,1997-01-21 18:00:00,3,1022.8,0.4,93,2,10000,11.112,,,340,2.8,6.4,,,,,,,,,wg-a,,,,AAXX 21184 07280 12/60 33406 10030 20020 39946 40228 53004 60006 81031 91800 333 10064 20028=
07280,1997-01-21 21:00:00,2,1022.7,-0.1,93,1,8000,11.112,,,330,,,,,,,,,,,wg-a,,,,AAXX 21214 07280 12/58 /3306 10020 20010 39945 40227 55001 60006 92100=
07280,1997-01-22 00:00:00,3,1021.5,-1.1,93,2,8000,11.112,,,360,,,,,,,,,,,wg-a,,,,AAXX 22004 07280 12/58 73606 10030 20020 39934 40215 58011 60006 8703/ 90000=
07280,1997-01-22 03:00:00,3,1021.1,-0.4,93,2,8000,7.408,,,10,,,,,,,,,,,wg-a,,,,AAXX 22034 07280 12/58 70104 10030 20020 39930 40211 58004 60006 8703/ 90300=
07280,1997-01-22 06:00:00,3,1021.2,0.1,93,2,12000,3.704,,,20,2.1,3.5,,,,,1,,,,wg-a,,,,AAXX 22064 07280 02/62 70202 10030 20020 39931 40212 53001 60006 8703/ 90600 333 10035 20021 60014=
07280,1997-01-22 09:00:00,3,1022.6,1.4,93,2,8000,3.704,,,280,,,,0,,,,,,21,wg-a,,,,AAXX 22094 07280 12758 82802 10030 20020 39945 40226 51014 60007 72162 8557/ 90900=
07280,1997-01-22 12:00:00,5,1022.7,0.3,93,4,7000,7.408,,,30,,,,,,,,,,60,wg-a,,,,AAXX 22124 07280 02757 80304 10050 20040 39948 40227 50003 60006 76062 8357/ 91200 333 61000=
07280,1997-01-22 15:00:00,6,1022.5,-0.2,87,4,6000,0,,,0,,,,0,,,,,,21,wg-a,,,,AAXX 22154 07280 12756 80000 10060 20040 39946 40225 55002 60007 72162 8657/ 91500=
07280,1997-01-22 18:00:00,4,1022.4,-0.2,93,3,8000,0,,,0,2.4,5.5,,,,,,,,3,wg-a,,,,AAXX 22184 07280 12758 80000 10040 20030 39944 40224 56002 60006 70362 8257/ 91800 333 10055 20024=
07280,1997-01-22 21:00:00,4,1022.4,-0.2,93,3,8000,0,,,0,2.4,,,,,,,,,3,wg-a,,,,AAXX 22214 07280 32758 80000 10040 20030 39944 40224 56002 70362 8257/ 92100 333 20024=
07280,1997-01-23 00:00:00,3,1023.6,0.5,100,3,500,3.704,,,340,,,,,,,,,,,wg-a,,,,AAXX 23004 07280 12/00 83402 10030 20030 39955 40236 53005 60006 8807/ 90000=
07280,1997-01-23 03:00:00,4,1023.8,0.3,100,4,3000,3.704,,,150,,,,4,,,,,,10,wg-a,,,,AAXX 23034 07280 12130 81502 10040 20040 39958 40238 53003 60047 71062 887// 90300=
07280,1997-01-23 06:00:00,5,1023.9,0.1,100,5,100,7.408,,,330,2.8,4.9,,,,,5,,,45,wg-a,,,,AAXX 23064 07280 02/01 93304 10050 20050 39959 40239 53001 60006 74564 89/// 90600 333 10049 20028 60054=
07280,1997-01-23 09:00:00,5,1024,0.1,100,5,300,3.704,,,120,,,,,,,,,,42,wg-a,,,,AAXX 23094 07280 12203 81202 10050 20050 39960 40240 50001 60006 74244 8277/ 90900=
07280,1997-01-23 12:00:00,9,1023.7,0.1,100,9,4000,3.704,,,60,,,,,,,,,,10,wg-a,,,,AAXX 23124 07280 12/40 80602 10090 20090 39961 40237 50001 60006 71042 86072 91200=
07280,1997-01-23 18:00:00,7,1023.8,0.7,93,6,4500,7.408,,,340,4.6,9.9,,,,,,,,12,wg-a,,,,AAXX 23184 07280 12/45 83404 10070 20060 39960 40238 52007 60006 71222 85072 91800 333 10099 20046=
07280,1997-01-23 21:00:00,6,1025,1.1,100,6,3000,7.408,,,350,,,,,,,,,,10,wg-a,,,,AAXX 23214 07280 12/30 83504 10060 20060 39971 40250 51011 60006 71022 82072 92100=
07280,1997-01-24 00:00:00,5,1026,0.8,93,4,2000,3.704,,,360,,,,,,,,,,10,wg-a,,,,AAXX 24004 07280 12/20 83602 10050 20040 39979 40260 51008 60006 71022 8807/ 90000=
07280,1997-01-24 03:00:00,3,1026,-0.1,100,3,600,0,,,0,,,,,,,,,,44,wg-a,,,,AAXX 24034 07280 12106 80000 10030 20030 39978 40260 55001 60006 74442 886// 90300=
07280,1997-01-24 06:00:00,4,1026.6,0.6,100,4,100,7.408,,,360,3.1,7,,,,,,,,45,wg-a,,,,AAXX 24064 07280 02/01 93604 10040 20040 39984 40266 53006 60006 74542 89/// 90600 333 10070 20031 60004=
07280,1997-01-24 09:00:00,4,1027.9,1.3,100,4,1000,7.408,,,20,,,,,,,,,,28,wg-a,,,,AAXX 24094 07280 12110 70204 10040 20040 39997 40279 52013 60006 72842 8457/ 90900=
07280,1997-01-24 12:00:00,7,1028,0.4,100,7,7000,3.704,,,40,,,,,,,,,,3,wg-a,,,,AAXX 24124 07280 12/57 70402 10070 20070 30001 40280 50004 60006 70342 86072 91200=
07280,1997-01-24 15:00:00,9,1027.6,-0.1,93,8,8000,3.704,,,70,,,,,,,,,,,wg-a,,,,AAXX 24154 07280 12/58 80702 10090 20080 30000 40276 55001 60006 8707/ 91500=
07280,1997-01-24 18:00:00,7,1028.6,,93,6,4500,3.704,,,10,,9.5,,,,,,,,12,wg-a,,,,AAXX 24184 07280 12/45 80102 10070 20060 30007 40286 60006 71222 8807/ 91800 333 10095=
07280,1997-01-25 00:00:00,4,1030.4,0.6,93,3,4000,11.112,,,330,,,,,,,,,,12,wg-a,,,,AAXX 25004 07280 12/40 33306 10040 20030 30021 40304 50006 60006 71211 83070 90000=
07280,1997-01-25 03:00:00,3,1030.2,-0.2,100,3,500,7.408,,,350,,,,,,,,,,11,wg-a,,,,AAXX 25034 07280 12/00 23504 10030 20030 30019 40302 55002 60006 71100 82070 90300=
07280,1997-01-25 06:00:00,2,1030.1,-0.3,100,2,10000,11.112,,,330,2,6.8,,,,,,,,,wg-a,,,,AAXX 25064 07280 02/60 03306 10020 20020 30016 40301 55003 60006 80000 90600 333 10068 20020 60004=
07280,1997-01-25 09:00:00,5,1030.3,0.5,93,4,8000,18.52,,,10,,,,,,,,,,,wg-a,,,,AAXX 25094 07280 12/58 40110 10050 20040 30021 40303 50005 60006 80001 90900=
07280,1997-01-25 12:00:00,8,1029.6,-0.4,81,5,10000,22.224,,,40,,,,,,,,,,,wg-a,,,,AAXX 25124 07280 12/60 70412 10080 20050 30017 40296 58004 60006 80001 91200=
07280,1997-01-25 15:00:00,6,1028.4,-1.3,87,4,10000,18.52,,,50,,,,,,,,,,,wg-a,,,,AAXX 25154 07280 12/60 70510 10060 20040 30004 40284 55013 60006 80001 91500=
07280,1997-01-25 18:00:00,4,1029.7,1.1,100,4,1000,18.52,,,20,1.4,8.2,,,,,,,,10,wg-a,,,,AAXX 25184 07280 02110 80210 10040 20040 30015 40297 50011 61000 71052 886// 91800 333 10082 20014 6100=
07280,1997-01-25 21:00:00,4,1029.6,-0.1,100,4,1800,18.52,,,20,,,,,,,,,,10,wg-a,,,,AAXX 25214 07280 02118 80210 10040 20040 30014 40296 58001 61000 71054 886// 92100 333 ////=
07280,1997-01-26 00:00:00,4,1029,-0.6,100,4,3000,18.52,,,10,,,,,,,,,,10,wg-a,,,,AAXX 26004 07280 02130 80110 10040 20040 30008 40290 58006 61000 71054 886// 90000 333 ////=
07280,1997-01-26 03:00:00,4,1028.5,-0.5,100,4,2000,14.816,,,40,,,,,,,,,,10,wg-a,,,,AAXX 26034 07280 12120 80408 10040 20040 30003 40285 58005 60006 71022 886// 90300=
07280,1997-01-26 06:00:00,4,1027.7,-0.8,100,4,1200,11.112,,,40,3.8,4.4,,,,,,,,28,wg-a,,,,AAXX 26064 07280 02112 90406 10040 20040 39995 40277 57008 61000 72854 896// 90600 333 10044 20038 6000=
07280,1997-01-26 09:00:00,4,1028.2,0.5,93,3,3000,7.408,,,30,,,,,,,,,,10,wg-a,,,,AAXX 26094 07280 02230 80304 10040 20030 30000 40282 53005 61000 71052 886// 90900 333 ////=
07280,1997-01-26 12:00:00,4,1028.1,-0.1,93,3,3000,7.408,,,20,,,,,,,,,,10,wg-a,,,,AAXX 26124 07280 02130 80204 10040 20030 39999 40281 58001 61000 71052 886// 91200 333 6100=
07280,1997-01-26 15:00:00,4,1027.7,-0.4,93,3,6000,3.704,,,70,,,,,,,,,,2,wg-a,,,,AAXX 26154 07280 02256 80702 10040 20030 39995 40277 55004 61000 70252 886// 91500 333 ////=
07280,1997-01-26 18:00:00,4,1028.1,0.4,93,3,500,3.704,,,40,3.4,4.3,,,,,,,,2,wg-a,,,,AAXX 26184 07280 12200 80402 10040 20030 39999 40281 53004 60006 70252 886// 91800 333 10043 20034=
07280,1997-01-26 21:00:00,4,1028.5,0.4,93,3,500,3.704,,,100,,,,,,,,,,,wg-a,,,,AAXX 26214 07280 12200 81002 10040 20030 30003 40285 51004 60006 886// 92100=
07280,1997-01-27 00:00:00,3,1028.6,-0,93,2,7000,3.704,,,340,,,,0,,,,,,3,wg-a,,,,AAXX 27004 07280 02257 83402 10030 20020 30003 40286 54000 60006 70352 885// 90000 333 60007=
07280,1997-01-27 03:00:00,3,1029.1,0.4,93,2,6000,0,,,0,,,,,,,,,,,wg-a,,,,AAXX 27034 07280 12256 80000 10030 20020 30007 40291 50004 60006 885// 90300=
07280,1997-01-27 06:00:00,3,1029.5,0.4,93,2,8000,3.704,,,340,2.6,4,,,,,,,,,wg-a,,,,AAXX 27064 07280 02358 83402 10030 20020 30011 40295 51004 60006 886// 90600 333 10040 20026 60004=
07280,1997-01-27 09:00:00,3,1030.8,1.3,93,2,6000,0,,,0,,,,,,,,,,,wg-a,,,,AAXX 27094 07280 12456 80000 10030 20020 30024 40308 52013 60006 885// 90900=
07280,1997-01-27 12:00:00,4,1031.3,0.6,87,2,7000,7.408,,,50,,,,,,,,,,,wg-a,,,,AAXX 27124 07280 12457 80504 10040 20020 30030 40313 50006 60006 885// 91200=
07280,1997-01-27 15:00:00,4,1031.3,-0,87,2,6000,3.704,,,60,,,,,,,,,,,wg-a,,,,AAXX 27154 07280 12556 80602 10040 20020 30030 40313 55000 60006 885// 91500=
07280,1997-01-27 18:00:00,3,1032.6,1.2,87,1,500,11.112,,,350,2.7,3.9,,,,,,,,,wg-a,,,,AAXX 27184 07280 12400 83506 10030 20010 30042 40326 52012 60006 885// 91800 333 10039 20027=
07280,1997-01-27 21:00:00,1,1034.2,1.3,80,-2,8000,18.52,,,340,,,,,,,,,,,wg-a,,,,AAXX 27214 07280 12558 83410 10010 21020 30055 40342 53013 60006 885// 92100=
07280,1997-01-28 00:00:00,0,1034.6,0.2,74,-4,8000,11.112,,,360,,,,,,,,,,,wg-a,,,,AAXX 28004 07280 12558 83606 10000 21040 30057 40346 50002 60006 885// 90000=
07280,1997-01-28 03:00:00,-1,1034.2,-0.4,80,-4,8000,14.816,,,10,,,,,,,,,,,wg-a,,,,AAXX 28034 07280 12458 80108 11010 21040 30053 40342 58004 60006 885// 90300=
07280,1997-01-28 06:00:00,-1,1034.4,0.2,86,-3,6000,18.52,,,20,-1,3.2,,,,,,,,70,wg-a,,,,AAXX 28064 07280 02456 80210 11010 21030 30055 40344 52002 61000 77072 885// 90600 333 10032 21010 6100=
07280,1997-01-28 09:00:00,0,1035,0.7,86,-2,6000,18.52,,,20,,,,,,,,,,1,wg-a,,,,AAXX 28094 07280 02456 80210 10000 21020 30062 40350 52007 61000 70172 875// 90900 333 ////=
07280,1997-01-28 12:00:00,2,1034.9,0.1,87,0,7000,25.928,,,20,,,,,,,,,,3,wg-a,,,,AAXX 28124 07280 02457 80214 10020 20000 30063 40349 50001 61000 70372 885// 91200 333 ////=
07280,1997-01-28 15:00:00,4,1035.3,0.6,81,1,10000,18.52,,,40,,,,,,,,,,,wg-a,,,,AAXX 28154 07280 12460 /0410 10040 20010 30069 40353 53006 60006 82200 91500=
07280,1997-01-28 18:00:00,4,1036.4,1,81,1,8000,14.816,,,20,-0.8,3.9,,,,,,,,,wg-a,,,,AAXX 28184 07280 12658 70208 10040 20010 30079 40364 53010 60006 87500 91800 333 10039 21008=
07280,1997-01-28 21:00:00,2,1037.6,1,87,0,10000,18.52,,,10,,,,,,,,,,,wg-a,,,,AAXX 28214 07280 12560 70110 10020 20000 30089 40376 51010 60006 87500 92100=
07280,1997-01-29 00:00:00,0,1038.4,0.6,93,-1,7000,14.816,,,10,,,,,,,,,,,wg-a,,,,AAXX 29004 07280 12557 /0108 10000 21010 30095 40384 51006 60006 85500 90000=
07280,1997-01-29 03:00:00,-1,1038.7,0.2,93,-2,7000,14.816,,,20,,,,,,,,,,,wg-a,,,,AAXX 29034 07280 12457 80208 11010 21020 30097 40387 53002 60006 88500 90300=
07280,1997-01-29 06:00:00,-1,1039.1,0.4,93,-2,7000,14.816,,,30,-0.9,3.5,,,,,,,,,wg-a,,,,AAXX 29064 07280 02357 80308 11010 21020 30101 40391 51004 60006 88500 90600 333 10035 21009 61000=
07280,1997-01-29 09:00:00,0,1039.5,0.4,86,-2,8000,11.112,,,30,,,,,,,,,,,wg-a,,,,AAXX 29094 07280 12358 80306 10000 21020 30105 40395 50004 60006 886// 90900=
07280,1997-01-29 12:00:00,0,1038.4,-1,86,-2,8000,14.816,,,20,,,,,,,,,,,wg-a,,,,AAXX 29124 07280 12358 80208 10000 21020 30095 40384 58010 60006 886// 91200=
07280,1997-01-29 15:00:00,3,1036.5,-1.5,81,0,9000,7.408,,,50,,,,,,,,,,,wg-a,,,,AAXX 29154 07280 12459 20504 10030 20000 30080 40365 56015 60006 82500 91500=
07280,1997-01-29 18:00:00,0,1037.5,0.6,93,-1,10000,14.816,,,10,-0.8,3.8,,,,,,,,,wg-a,,,,AAXX 29184 07280 12/60 00108 10000 21010 30086 40375 53006 60006 80000 91800 333 10038 21008=
07280,1997-01-29 21:00:00,-1,1037.4,-0.2,93,-2,8000,14.816,,,10,,,,,,,,,,,wg-a,,,,AAXX 29214 07280 12458 40108 11010 21020 30084 40374 58002 60006 84500 92100=
07280,1997-01-30 00:00:00,-2,1036.8,-0.6,93,-3,8000,11.112,,,10,,,,,,,,,,,wg-a,,,,AAXX 30004 07280 12/58 /0106 11020 21030 30078 40368 56006 60006 90000=
07280,1997-01-30 03:00:00,-1,1036.5,-0.2,93,-2,500,7.408,,,30,,,,,,,,,,,wg-a,,,,AAXX 30034 07280 12400 80304 11010 21020 30076 40365 58002 60006 885// 90300=
07280,1997-01-30 06:00:00,-1,1036.3,-0.2,93,-2,7000,11.112,,,80,-1.7,0.3,,,,,,,,,wg-a,,,,AAXX 30064 07280 02257 80806 11010 21020 30074 40363 57002 60006 886// 90600 333 10003 21017 60004=
07280,1997-01-30 09:00:00,-1,1037.2,0.8,100,-1,1400,3.704,,,60,,,,,,,,,,10,wg-a,,,,AAXX 30094 07280 02114 80602 11010 21010 30082 40372 53008 61000 71054 886// 90900 333 ////=
07280,1997-01-30 12:00:00,-1,1036.8,-0.3,100,-1,2500,11.112,,,50,,,,,,,,,,10,wg-a,,,,AAXX 30124 07280 02225 80506 11010 21010 30079 40368 58003 61000 71054 886// 91200 333 6100=
07280,1997-01-30 15:00:00,0,1035.7,-1,86,-2,4500,3.704,,,60,,,,,,,,,,10,wg-a,,,,AAXX 30154 07280 12345 80602 10000 21020 30069 40357 56010 60006 71022 886// 91500=
07280,1997-01-30 18:00:00,0,1035.3,-0.4,93,-1,500,3.704,,,350,-1.2,0.1,,,,,,,,,wg-a,,,,AAXX 30184 07280 12400 83502 10000 21010 30065 40353 56004 60006 886// 91800 333 10001 21012=
07280,1997-01-31 00:00:00,-1,1034.9,-0.2,93,-2,500,11.112,,,20,,,,,,,,,,,wg-a,,,,AAXX 31004 07280 12300 80206 11010 21020 30059 40349 55002 60006 886// 90000=
07280,1997-01-31 03:00:00,-1,1034.3,-0.5,93,-2,500,11.112,,,60,,,,,,,,,,,wg-a,,,,AAXX 31034 07280 12200 80606 11010 21020 30054 40343 56005 60006 886// 90300=
07280,1997-01-31 12:00:00,-1,1033.5,-0.9,93,-2,4000,14.816,,,20,,,,,,,,,,10,wg-a,,,,AAXX 31124 07280 12240 80208 11010 21020 30046 40335 58009 60006 71022 886// 91200=
07280,1997-01-31 15:00:00,-1,1032.6,-0.9,86,-3,500,14.816,,,50,,,,,,,,,,,wg-a,,,,AAXX 31154 07280 12300 80508 11010 21030 30037 40326 56009 60006 886// 91500=
07280,1997-01-31 18:00:00,-1,1032.6,0,93,-2,4000,14.816,,,50,-1.3,-0.9,,,,,,,,10,wg-a,,,,AAXX 31184 07280 12340 80508 11010 21020 30037 40326 50000 60006 71022 886// 91800 333 11009 21013=
07280,1997-01-31 21:00:00,-1,1032.4,-0.2,86,-3,4000,14.816,,,40,,,,,,,,,,10,wg-a,,,,AAXX 31214 07280 12240 80408 11010 21030 30035 40324 57002 60006 71022 886// 92100=
07280,1997-02-01 00:00:00,-1,1032.6,0.2,93,-2,500,14.816,,,40,,,,,,,,,,,wg-a,,,,AAXX 01004 07280 12200 80408 11010 21020 30037 40326 50002 60006 886// 90000=
07280,1997-02-01 03:00:00,-2,1032,-0.6,93,-3,500,11.112,,,70,,,,,,,,,,,wg-a,,,,AAXX 01034 07280 12200 80706 11020 21030 30031 40320 58006 60006 886// 90300=
07280,1997-02-01 06:00:00,-2,1031.6,-0.4,93,-3,500,7.408,,,40,-1.8,-1.1,,,,,,,,,wg-a,,,,AAXX 01064 07280 02300 80404 11020 21030 30027 40316 56004 60006 886// 90600 333 11011 21018 60004=
07280,1997-02-01 09:00:00,-2,1032.2,0.6,93,-3,500,7.408,,,40,,,,,,,,,,,wg-a,,,,AAXX 01094 07280 12300 80404 11020 21030 30033 40322 51006 60006 886// 90900=
07280,1997-02-01 12:00:00,-1,1031.5,-0.6,86,-3,500,3.704,,,40,,,,,,,,,,,wg-a,,,,AAXX 01124 07280 12300 80402 11010 21030 30027 40315 57006 60006 886// 91200=
07280,1997-02-01 15:00:00,-1,1030.9,-0.6,86,-3,500,3.704,,,110,,,,,,,,,,,wg-a,,,,AAXX 01154 07280 12400 81102 11010 21030 30021 40309 56006 60006 886// 91500=
07280,1997-02-01 18:00:00,-1,1031,-0,86,-3,6000,3.704,,,250,-1.7,-0.4,,,,,,,,,wg-a,,,,AAXX 01184 07280 12456 82502 11010 21030 30021 40310 55000 60006 885// 91800 333 11004 21017=
07280,1997-02-01 21:00:00,-1,1030.7,-0.2,93,-2,6000,7.408,,,230,,,,,,,,,,,wg-a,,,,AAXX 01214 07280 12356 82304 11010 21020 30019 40307 57002 60006 886// 92100=
07280,1997-02-02 06:00:00,-3,1028.6,-0.4,100,-3,2000,7.408,,,170,-2.6,-0.9,,,,,,,,10,wg-a,,,,AAXX 02064 07280 02120 81704 11030 21030 39997 40286 56004 60006 71022 886// 90600 333 11009 21026 60004=
07280,1997-02-02 09:00:00,-3,1029.2,0.6,100,-3,300,11.112,,,210,,,,,,,,,,49,wg-a,,,,AAXX 02094 07280 12/03 92106 11030 21030 30003 40292 52006 60006 74942 89/// 90900=
07280,1997-02-02 12:00:00,-2,1029,-0.2,93,-3,1500,7.408,,,180,,,,,,,,,,10,wg-a,,,,AAXX 02124 07280 12115 81804 11020 21030 30001 40290 58002 60006 71042 886// 91200=
07280,1997-02-02 15:00:00,-1,1028.3,-0.5,93,-2,4000,3.704,,,160,,,,,,,,,,10,wg-a,,,,AAXX 02154 07280 12240 81602 11010 21020 39996 40283 56005 60006 71022 886// 91500=
07280,1997-02-02 18:00:00,-1,1028.8,0.5,93,-2,500,3.704,,,210,-2.8,-0.8,,,,,,,,,wg-a,,,,AAXX 02184 07280 12/00 /2102 11010 21020 30001 40288 51005 60006 91800 333 11008 21028=
07280,1997-02-02 21:00:00,-1,1029.5,0.6,93,-2,2000,3.704,,,340,,,,,,,,,,10,wg-a,,,,AAXX 02214 07280 12120 83402 11010 21020 30007 40295 51006 60006 71022 886// 92100=
07280,1997-02-03 00:00:00,-2,1029.7,0.1,100,-2,1000,3.704,,,50,,,,,,,,,,10,wg-a,,,,AAXX 03004 07280 12110 80502 11020 21020 30008 40297 50001 60006 71022 886// 90000=
07280,1997-02-03 03:00:00,-2,1029.1,-0.6,100,-2,1500,7.408,,,50,,,,,,,,,,10,wg-a,,,,AAXX 03034 07280 12115 80504 11020 21020 30002 40291 58006 60006 71022 886// 90300=
07280,1997-02-03 06:00:00,-2,1029.8,0.7,100,-2,1500,7.408,,,70,-2.3,-1,,,,,,,,28,wg-a,,,,AAXX 03064 07280 02115 90704 11020 21020 30009 40298 53007 60006 72842 896// 90600 333 11010 21023 60004=
07280,1997-02-03 09:00:00,-2,1030.7,0.9,100,-2,2500,3.704,,,120,,,,,,,,,,28,wg-a,,,,AAXX 03094 07280 12125 81202 11020 21020 30018 40307 50009 60006 72842 886// 90900=
07280,1997-02-03 12:00:00,1,1030.4,0,86,-1,6000,7.408,,,340,,,,,,,,,,1,wg-a,,,,AAXX 03124 07280 12356 73404 10010 21010 30018 40304 50000 60006 70142 876// 91200=
07280,1997-02-03 15:00:00,1,1030.2,-0.2,86,-1,4000,7.408,,,40,,,,,,,,,,10,wg-a,,,,AAXX 03154 07280 12240 70404 10010 21010 30016 40302 55002 60006 71022 876// 91500=
07280,1997-02-03 18:00:00,0,1030.8,0.5,93,-1,4000,3.704,,,30,-2.2,1.2,,,,,,,,10,wg-a,,,,AAXX 03184 07280 12140 80302 10000 21010 30021 40308 53005 60006 71022 886// 91800 333 10012 21022=
07280,1997-02-03 21:00:00,-1,1031.2,0.3,100,-1,3000,7.408,,,230,,,,,,,,,,10,wg-a,,,,AAXX 03214 07280 12130 82304 11010 21010 30024 40312 53003 60006 71022 886// 92100=
07280,1997-02-04 00:00:00,-1,1029.8,-0.7,100,-1,900,11.112,,,190,-1.5,-0.5,,,,,,,,45,wg-a,,,,AAXX 04004 07280 02109 91906 11010 21010 30011 40298 58007 61000 74554 896// 90000 333 11005 21015 6100=
07280,1997-02-04 03:00:00,-1,1030.6,-0.4,93,-2,900,7.408,,,270,,,,,,,,,,45,wg-a,,,,AAXX 04034 07280 12/09 92704 11010 21020 30018 40306 58004 60006 74542 89/// 90300=
07280,1997-02-04 06:00:00,0,1029.8,-0.7,93,-1,900,11.112,,,190,-1.5,-0.5,,,,,,,,50,wg-a,,,,AAXX 04064 07280 02109 81906 10000 21010 30011 40298 58007 61000 75054 88//7 90600 333 11005 21015 6100=
07280,1997-02-04 09:00:00,0,1029.6,-0.2,100,0,900,11.112,,,190,,,,,,,,,,45,wg-a,,,,AAXX 04094 07280 32/09 91906 10000 20000 30009 40296 55002 74555 89/// 90900=
07280,1997-02-04 12:00:00,1,1028.4,-1.1,100,1,3000,18.52,,,200,,,,,,,,,,10,wg-a,,,,AAXX 04124 07280 02130 82010 10010 20010 39998 40284 58011 61000 71054 886// 91200 333 6100=
07280,1997-02-04 15:00:00,1,1026.3,-2,93,0,6000,18.52,,,190,,,,,,,,,,,wg-a,,,,AAXX 04154 07280 12256 81910 10010 20000 39978 40263 56020 60006 886// 91500=
07280,1997-02-04 18:00:00,1,1025.7,-0.6,93,0,500,14.816,,,190,-0.7,1.1,,,,,,,,,wg-a,,,,AAXX 04184 07280 12200 81908 10010 20000 39972 40257 56006 60006 886// 91800 333 10011 21007=
07280,1997-02-04 21:00:00,0,1025.1,-0.6,100,0,1500,11.112,,,190,,,,,,,,,,10,wg-a,,,,AAXX 04214 07280 12115 81906 10000 20000 39966 40251 56006 60006 71022 886// 92100=
07280,1997-02-05 00:00:00,0,1023.7,-1.4,93,-1,200,11.112,,,180,,,,,,,,,,43,wg-a,,,,AAXX 05004 07280 12/02 91806 10000 21010 39952 40237 58014 60006 74342 89/// 90000=
07280,1997-02-05 03:00:00,1,1022.8,-0.8,93,0,4000,18.52,,,190,,,,,,,,,,10,wg-a,,,,AAXX 05034 07280 12440 81910 10010 20000 39944 40228 58008 60006 71042 886// 90300=
07280,1997-02-05 06:00:00,2,1021.1,-1.5,93,1,6000,25.928,,,210,-0.4,2.1,,,,,,,,21,wg-a,,,,AAXX 05064 07280 02456 82114 10020 20010 39929 40211 58015 61000 72164 885// 90600 333 10021 21004 6100=
07280,1997-02-05 09:00:00,3,1020.6,-0.4,100,3,1500,25.928,,,200,,,,1,,,,,,10,wg-a,,,,AAXX 05094 07280 12315 82014 10030 20030 39925 40206 55004 60017 71062 888// 90900=
07280,1997-02-05 12:00:00,5,1020,-0.3,100,5,3500,29.632,,,200,,,,1,,,,,,10,wg-a,,,,AAXX 05124 07280 02235 82016 10050 20050 39922 40200 58003 60026 71065 886// 91200 333 60017=
07280,1997-02-05 15:00:00,9,1021.6,1.8,76,5,15000,25.928,,,310,,,,2,,,,,,1,wg-a,,,,AAXX 05154 07280 12665 /3114 10090 20050 39940 40216 53018 60027 70165 86100 91500=
07280,1997-02-05 18:00:00,6,1026.8,4.8,81,3,12000,14.816,,,320,2.1,8.8,,,,,,,,25,wg-a,,,,AAXX 05184 07280 02562 43208 10060 20030 39988 40268 53048 61000 72586 84200 91800 333 10088 20021 6100=
07280,1997-02-05 21:00:00,5,1030.8,3.8,81,2,12000,22.224,,,350,,,,,,,,,,,wg-a,,,,AAXX 05214 07280 12562 73512 10050 20020 30026 40308 53038 60006 878// 92100=
07280,1997-02-06 00:00:00,1,1033.4,2.1,93,0,12000,7.408,,,340,,,,,,,,,,,wg-a,,,,AAXX 06004 07280 12/62 03404 10010 20000 30047 40334 51021 60006 80000 90000=
07280,1997-02-06 03:00:00,-1,1034.7,1.1,100,-1,8000,7.408,,,340,,,,,,,,,,,wg-a,,,,AAXX 06034 07280 12/58 03404 11010 21010 30058 40347 51011 60006 80000 90300=
07280,1997-02-06 06:00:00,-2,1035.3,0.5,100,-2,8000,7.408,,,10,-1.8,6,,,,,4,,,,wg-a,,,,AAXX 06064 07280 02/58 00104 11020 21020 30063 40353 53005 60006 80000 90600 333 10060 21018 60044=
07280,1997-02-06 09:00:00,0,1035.9,0.8,100,0,7000,7.408,,,360,,,,,,,,,,,wg-a,,,,AAXX 06094 07280 12/57 /3604 10000 20000 30071 40359 51008 60006 80001 90900=
07280,1997-02-06 12:00:00,5,1034.8,-0.6,81,2,15000,3.704,,,40,,,,,,,,,,,wg-a,,,,AAXX 06124 07280 12/65 00402 10050 20020 30065 40348 58006 60006 80000 91200=
07280,1997-02-06 15:00:00,8,1033.3,-1.1,53,-1,500,7.408,,,30,,,,,,,,,,,wg-a,,,,AAXX 06154 07280 12/00 10304 10080 21010 30054 40333 57011 60006 80001 91500=
07280,1997-02-06 18:00:00,3,1033.5,-0.3,81,0,20000,0,,,0,-3.1,8.3,,,,,,,,,wg-a,,,,AAXX 06184 07280 12/70 00000 10030 20000 30051 40335 56003 60006 80000 91800 333 10083 21031=
07280,1997-02-06 21:00:00,-1,1033.7,-0.3,93,-2,800,3.704,,,140,,,,,,,,,,41,wg-a,,,,AAXX 06214 07280 12/08 01402 11010 21020 30048 40337 56003 60006 74140 80000 92100=
07280,1997-02-07 00:00:00,-2,1033.7,-0.1,93,-3,500,7.408,,,130,,,,,,,,,,49,wg-a,,,,AAXX 07004 07280 12/00 91304 11020 21030 30047 40337 58001 60006 74941 89/// 90000=
07280,1997-02-07 03:00:00,-3,1033.5,-0.3,100,-3,500,3.704,,,130,,,,,,,,,,49,wg-a,,,,AAXX 07034 07280 12/00 91302 11030 21030 30044 40335 58003 60006 74942 89/// 90300=
07280,1997-02-07 06:00:00,-4,1033.7,0.1,100,-4,100,0,,,0,-4,3.4,,,,,,,,49,wg-a,,,,AAXX 07064 07280 02/01 90000 11040 21040 30045 40337 53001 60006 74942 89/// 90600 333 10034 21040 60004=
07280,1997-02-07 09:00:00,-3,1034.4,0.8,93,-4,200,0,,,0,,,,,,,,,,49,wg-a,,,,AAXX 07094 07280 12/02 90000 11030 21040 30053 40344 52008 60006 74944 89/// 90900=
07280,1997-02-07 12:00:00,1,1033.8,-0.2,100,1,800,7.408,,,160,,,,,,,,,,42,wg-a,,,,AAXX 07124 07280 12/08 /1604 10010 20010 30051 40338 58002 60006 74244 89000 91200=
07280,1997-02-07 15:00:00,9,1031.7,-1.2,61,2,15000,11.112,,,200,,,,,,,,,,2,wg-a,,,,AAXX 07154 07280 12/65 12006 10090 20020 30039 40317 56012 60006 70240 80001 91500=
07280,1997-02-07 18:00:00,3,1032.9,0.6,87,1,6000,3.704,,,360,-4.1,9.5,,,,,,,,1,wg-a,,,,AAXX 07184 07280 12/56 03602 10030 20010 30045 40329 53006 60006 70140 80000 91800 333 10095 21041=
07280,1997-02-07 21:00:00,-1,1034.4,1,93,-2,6000,3.704,,,290,,,,,,,,,,,wg-a,,,,AAXX 07214 07280 12/56 02902 11010 21020 30055 40344 51010 60006 80000 92100=
07280,1997-02-08 00:00:00,-1,1035,0.6,93,-2,6000,7.408,,,330,,,,,,,,,,,wg-a,,,,AAXX 08004 07280 12/56 03304 11010 21020 30061 40350 53006 60006 80000 90000=
07280,1997-02-08 03:00:00,-2,1035.1,0,100,-2,500,7.408,,,10,,,,,,,,,,,wg-a,,,,AAXX 08034 07280 12/00 20104 11020 21020 30061 40351 50000 60006 80001 90300=
07280,1997-02-08 06:00:00,-3,1035.7,0.4,93,-4,8000,0,,,0,-3.2,3.8,,,,,,,,,wg-a,,,,AAXX 08064 07280 02/58 20000 11030 21040 30065 40357 52004 60006 82030 90600 333 10038 21032 60004=
07280,1997-02-08 09:00:00,1,1035.6,0.4,86,-1,8000,7.408,,,30,,,,,,,,,,,wg-a,,,,AAXX 08094 07280 12/58 40304 10010 21010 30069 40356 51004 60006 84030 90900=
07280,1997-02-08 12:00:00,7,1034.2,-0.8,70,2,8000,0,,,0,,,,,,,,,,,wg-a,,,,AAXX 08124 07280 12/58 40000 10070 20020 30061 40342 58008 60006 83031 91200=
07280,1997-02-08 15:00:00,11,1032.3,-1.4,62,4,8000,3.704,,,140,,,,,,,,,,,wg-a,,,,AAXX 08154 07280 12/58 /1402 10110 20040 30047 40323 56014 60006 80001 91500=
07280,1997-02-08 18:00:00,5,1032.7,-0.3,81,2,6000,0,,,0,-3.4,11.1,,,,,,,,,wg-a,,,,AAXX 08184 07280 12/56 /0000 10050 20020 30044 40327 55003 60006 80001 91800 333 10111 21034=
07280,1997-02-08 21:00:00,1,1033.1,0.1,93,0,6000,11.112,,,350,,,,,,,,,,,wg-a,,,,AAXX 08214 07280 12/56 /3506 10010 20000 30045 40331 50001 60006 80001 92100=
07280,1997-02-09 00:00:00,-1,1033.5,0.1,93,-2,6000,3.704,,,240,,,,,,,,,,,wg-a,,,,AAXX 09004 07280 12/56 02402 11010 21020 30046 40335 50001 60006 80000 90000=
07280,1997-02-09 03:00:00,-3,1033.2,-0.4,100,-3,500,0,,,0,,,,,,,,,,,wg-a,,,,AAXX 09034 07280 12/00 00000 11030 21030 30042 40332 58004 60006 80000 90300=
07280,1997-02-09 06:00:00,-3,1032.9,-0.4,93,-4,500,0,,,0,-3.8,4.4,,,,,,,,11,wg-a,,,,AAXX 09064 07280 02/00 /0000 11030 21040 30038 40329 57004 60006 71100 80001 90600 333 10044 21038 60004=
07280,1997-02-09 09:00:00,0,1033.2,0.6,93,-1,3000,0,,,0,,,,,,,,,,10,wg-a,,,,AAXX 09094 07280 12/30 00000 10000 21010 30044 40332 51006 60006 71000 80000 90900=
07280,1997-02-09 12:00:00,7,1032.1,-0.3,76,3,500,3.704,,,190,,,,,,,,,,,wg-a,,,,AAXX 09124 07280 12/00 /1902 10070 20030 30041 40321 58003 60006 80001 91200=
07280,1997-02-09 15:00:00,10,1030.3,-1.4,66,4,6000,7.408,,,170,,,,,,,,,,,wg-a,,,,AAXX 09154 07280 12/56 01704 10100 20040 30027 40303 56014 60006 80000 91500=
07280,1997-02-09 18:00:00,5,1030.9,-0,87,3,4000,0,,,0,-3.9,10.3,,,,,,,,10,wg-a,,,,AAXX 09184 07280 12/40 /0000 10050 20030 30027 40309 55000 60006 71000 80001 91800 333 10103 21039=
07280,1997-02-09 21:00:00,0,1031.3,-0.1,100,0,500,3.704,,,310,,,,,,,,,,,wg-a,,,,AAXX 09214 07280 12/00 03102 10000 20000 30026 40313 56001 60006 80000 92100=
07280,1997-02-10 00:00:00,-2,1031.1,-0.4,100,-2,1000,3.704,,,340,,,,,,,,,,10,wg-a,,,,AAXX 10004 07280 12/10 03402 11020 21020 30022 40311 56004 60006 71000 80000 90000=
07280,1997-02-10 03:00:00,-4,1030,-1.3,100,-4,500,3.704,,,120,,,,,,,,,,48,wg-a,,,,AAXX 10034 07280 12/00 01202 11040 21040 30009 40300 58013 60006 74840 80000 90300=
07280,1997-02-10 06:00:00,-3,1028.9,-1,100,-3,1200,7.408,,,220,-4.7,4.6,,,,,,,,28,wg-a,,,,AAXX 10064 07280 02/12 22204 11030 21030 39999 40289 56010 60006 72840 80001 90600 333 10046 21047 60004=
07280,1997-02-10 09:00:00,0,1028.4,-0.1,100,0,2000,0,,,0,,,,,,,,,,10,wg-a,,,,AAXX 10094 07280 12/20 /0000 10000 20000 39998 40284 58001 60006 71011 80001 90900=
07280,1997-02-10 12:00:00,11,1025.3,-1.9,54,2,8000,18.52,,,190,,,,,,,,,,,wg-a,,,,AAXX 10124 07280 12/58 21910 10110 20020 39979 40253 58019 60006 80001 91200=
07280,1997-02-10 15:00:00,13,1022.6,-2.4,54,4,15000,22.224,,,190,,,,,,,,,,,wg-a,,,,AAXX 10154 07280 12/65 51912 10130 20040 39955 40226 56024 60006 80002 91500=
07280,1997-02-10 18:00:00,10,1022.4,-0.6,62,3,12000,22.224,,,210,-3.2,13.9,,,,,,,,,wg-a,,,,AAXX 10184 07280 12/62 82112 10100 20030 39949 40224 55006 60006 85072 91800 333 10139 21032=
07280,1997-02-10 21:00:00,9,1023.1,0.6,71,4,12000,14.816,,,180,,,,,,,,,,,wg-a,,,,AAXX 10214 07280 12762 81808 10090 20040 39955 40231 53006 60006 8/57/ 92100=
07280,1997-02-11 00:00:00,10,1024.4,1.4,71,5,12000,25.928,,,240,,,,,,,,,,1,wg-a,,,,AAXX 11004 07280 02662 82414 10100 20050 39969 40244 53014 61000 70162 86572 90000 333 6100=
07280,1997-02-11 03:00:00,8,1024.7,0.1,93,7,12000,22.224,,,220,,,,,,,,,,,wg-a,,,,AAXX 11034 07280 12462 82212 10080 20070 39970 40247 50001 60006 8/87/ 90300=
07280,1997-02-11 06:00:00,6,1026.3,1.3,93,5,10000,7.408,,,140,5.7,10.8,,,,,,,,21,wg-a,,,,AAXX 11064 07280 02460 81404 10060 20050 39983 40263 50013 61000 72162 8/82/ 90600 333 10108 20057 6001=
07280,1997-02-11 09:00:00,7,1027.2,1,93,6,12000,7.408,,,190,,,,,,,,,,,wg-a,,,,AAXX 11094 07280 12562 81904 10070 20060 39993 40272 51010 60006 81531 90900=
07280,1997-02-11 12:00:00,11,1026.1,-0.7,76,7,12000,18.52,,,190,,,,,,,,,,,wg-a,,,,AAXX 11124 07280 12462 /1910 10110 20070 39986 40261 58007 60006 84101 91200=
07280,1997-02-11 15:00:00,11,1024.5,-1.5,58,3,15000,22.224,,,230,,,,,,,,,,,wg-a,,,,AAXX 11154 07280 12665 72312 10110 20030 39971 40245 56015 60006 84531 91500=
07280,1997-02-11 18:00:00,9,1024.4,-0.3,76,5,15000,18.52,,,200,5.3,11.7,,,,,,,,60,wg-a,,,,AAXX 11184 07280 02665 82010 10090 20050 39968 40244 56003 61000 76062 885// 91800 333 10117 20053 6100=
07280,1997-02-11 21:00:00,7,1023.3,-1.2,100,7,10000,29.632,,,200,,,,0,,,,,,61,wg-a,,,,AAXX 11214 07280 12460 82016 10070 20070 39956 40233 58012 60007 76166 8277/ 92100=
07280,1997-02-12 00:00:00,8,1021.8,-1.4,100,8,6000,29.632,,,200,,,,0,,,,,,61,wg-a,,,,AAXX 12004 07280 02256 82016 10080 20080 39942 40218 56014 60016 76166 886// 90000 333 60007=
07280,1997-02-12 03:00:00,10,1021.7,0.1,87,8,12000,22.224,,,220,,,,,,,,,,21,wg-a,,,,AAXX 12034 07280 02662 82212 10100 20080 39943 40217 50001 61000 72162 885// 90300 333 ////=
07280,1997-02-12 06:00:00,10,1022.4,0.6,87,8,18000,25.928,,,220,7.2,10.7,,,,,1,,,1,wg-a,,,,AAXX 12064 07280 02668 82214 10100 20080 39949 40224 50006 60006 70162 885// 90600 333 10107 20072 60014=
07280,1997-02-12 09:00:00,10,1022.6,0.3,87,8,12000,22.224,,,200,,,,0,,,,,,20,wg-a,,,,AAXX 12094 07280 12462 82012 10100 20080 39952 40226 50003 60007 72052 885// 90900=
07280,1997-02-12 12:00:00,11,1021.3,-1.2,82,8,20000,25.928,,,210,,,,,,,,,,20,wg-a,,,,AAXX 12124 07280 02570 82114 10110 20080 39940 40213 58012 60006 72052 885// 91200 333 61000=
07280,1997-02-12 15:00:00,12,1019.3,-1.9,71,7,500,25.928,,,200,,,,,,,,,,,wg-a,,,,AAXX 12154 07280 12600 /2014 10120 20070 39921 40193 56019 60006 875// 91500=
07280,1997-02-12 18:00:00,11,1017.6,-1.7,71,6,20000,29.632,,,200,9.3,12.3,,,,,,,,,wg-a,,,,AAXX 12184 07280 12670 82016 10110 20060 39904 40176 56017 60006 885// 91800 333 10123 20093=
07280,1997-02-12 21:00:00,11,1015.7,-1.9,76,7,12000,31.484,,,210,,,,,,,,,,,wg-a,,,,AAXX 12214 07280 12662 82117 10110 20070 39885 40157 58019 60006 885// 92100=
07280,1997-02-13 00:00:00,10,1013.3,-2.4,82,7,12000,35.188,,,210,,,,0,,,,,,21,wg-a,,,,AAXX 13004 07280 02562 /2119 10100 20070 39861 40133 58024 60006 72162 86800 90000 333 60007=
07280,1997-02-13 03:00:00,10,1011.9,-1.4,82,7,12000,31.484,,,200,,,,0,,,,,,,wg-a,,,,AAXX 13034 07280 12562 72017 10100 20070 39847 40119 56014 60007 875// 90300=
07280,1997-02-13 06:00:00,9,1011.1,-0.9,81,6,12000,31.484,,,210,8.5,11.3,,,,,,,,60,wg-a,,,,AAXX 13064 07280 02562 82117 10090 20060 39838 40111 58009 61000 76062 885// 90600 333 10113 20085 6001=
07280,1997-02-13 09:00:00,8,1007.2,-3.8,87,6,10000,53.708,,70.376,220,,,,1,,,,,,61,wg-a,,,,AAXX 13094 07280 12460 82229 10080 20060 39800 40072 58038 60017 76162 877// 90900 333 91038=
07280,1997-02-13 12:00:00,8,1010,2.7,71,3,25000,42.596,,83.34,280,,,,3,,,,,,27,wg-a,,,,AAXX 13124 07280 02575 32823 10080 20030 39827 40100 51027 60046 72787 83200 91200 333 60037 91045=
07280,1997-02-13 18:00:00,6,1016.9,2.3,65,0,20000,22.224,,,250,5.1,10.3,,1,,,,,,1,wg-a,,,,AAXX 13184 07280 02570 72512 10060 20000 39891 40169 52023 60006 70187 82231 91800 333 10103 20051 60017=
07280,1997-02-13 21:00:00,4,1017.2,0.2,75,0,20000,18.52,,,180,,,,,,,,,,,wg-a,,,,AAXX 13214 07280 12670 31810 10040 20000 39893 40172 51002 60006 81501 92100=
07280,1997-02-14 00:00:00,4,1015.8,-1.3,81,1,20000,18.52,,,210,,,,,,,,,,,wg-a,,,,AAXX 14004 07280 12670 82110 10040 20010 39880 40158 58013 60006 81501 90000=
07280,1997-02-14 03:00:00,4,1012.9,-2.8,93,3,8000,29.632,,,210,,,,0,,,,,,61,wg-a,,,,AAXX 14034 07280 12458 82116 10040 20030 39852 40129 58028 60007 76162 888// 90300=
07280,1997-02-14 06:00:00,2,1010,-3.1,100,2,8000,22.224,,,190,2,5.6,,,,,,,,61,wg-a,,,,AAXX 14064 07280 02258 81912 10020 20020 39821 40100 58031 61000 76162 887// 90600 333 10056 20020 6009=
07280,1997-02-14 09:00:00,3,1007.1,-2.7,100,3,4000,25.928,,,210,,,,3,,,,,,51,wg-a,,,,AAXX 14094 07280 12240 82114 10030 20030 39794 40071 58027 60037 75166 886// 90900=
07280,1997-02-14 12:00:00,8,1005.3,-1.3,100,8,6000,22.224,,,190,,,,2,,,,,,61,wg-a,,,,AAXX 14124 07280 02156 81912 10080 20080 39781 40053 57013 60046 76165 886// 91200 333 60027=
07280,1997-02-14 15:00:00,12,1003,-1.8,76,8,10000,25.928,,,250,,,,0,,,,,,21,wg-a,,,,AAXX 14154 07280 12460 62514 10120 20080 39763 40030 56018 60007 72162 86900 91500=
07280,1997-02-14 18:00:00,11,1002.9,-0.2,82,8,15000,29.632,,,220,2,12.8,,,,,,,,3,wg-a,,,,AAXX 14184 07280 12665 82216 10110 20080 39761 40029 58002 60006 70362 885// 91800 333 10128 20020=
07280,1997-02-14 21:00:00,10,1002.7,-0.3,82,7,25000,22.224,,,210,,,,1,,,,,,1,wg-a,,,,AAXX 14214 07280 12575 42112 10100 20070 39758 40027 57003 60017 70161 84500 92100=
07280,1997-02-15 00:00:00,8,1003.1,0.2,93,7,20000,14.816,,,200,,,,,,,,,,1,wg-a,,,,AAXX 15004 07280 12570 82008 10080 20070 39760 40031 53002 60016 70161 888// 90000=
07280,1997-02-15 03:00:00,8,1003.2,0.1,100,8,12000,25.928,,,200,,,,,,,,,,,wg-a,,,,AAXX 15034 07280 12262 82014 10080 20080 39761 40032 50001 60006 871// 90300=
07280,1997-02-15 06:00:00,7,1006.2,2.8,87,5,20000,22.224,,,340,6.7,11.4,,,,,,,,61,wg-a,,,,AAXX 15064 07280 02470 83412 10070 20050 39789 40062 53028 61000 76162 888// 90600 333 10114 20067 6007=
07280,1997-02-15 09:00:00,5,1014.3,7.7,81,2,25000,25.928,,,360,,,,,,,,,,3,wg-a,,,,AAXX 15094 07280 02575 73614 10050 20020 39866 40143 53077 61000 70362 875// 90900 333 ////=
07280,1997-02-15 12:00:00,7,1019,4.7,66,1,500,25.928,,,350,,,,,,,,,,1,wg-a,,,,AAXX 15124 07280 02600 33514 10070 20010 39913 40190 51047 61000 70161 82230 91200 333 ////=
07280,1997-02-15 15:00:00,6,1022.3,3.2,56,-2,500,25.928,,,10,,,,,,,,,,,wg-a,,,,AAXX 15154 07280 12600 40114 10060 21020 39945 40223 51032 60006 84200 91500=
07280,1997-02-15 21:00:00,1,1027.6,1.7,80,-2,20000,7.408,,,350,,,,,,,,,,,wg-a,,,,AAXX 15214 07280 12770 33504 10010 21020 39991 40276 53017 60006 83500 92100=
07280,1997-02-16 00:00:00,-1,1027.7,-0.1,93,-2,15000,7.408,,,350,,,,,,,,,,,wg-a,,,,AAXX 16004 07280 12/65 03504 11010 21020 39990 40277 58001 60006 80000 90000=
07280,1997-02-16 03:00:00,-2,1026.9,-0.9,93,-3,15000,14.816,,,350,,,,,,,,,,,wg-a,,,,AAXX 16034 07280 12/65 03508 11020 21030 39981 40269 58009 60006 80000 90300=
07280,1997-02-16 06:00:00,-3,1026.4,-0.6,100,-3,15000,3.704,,,340,-2.6,,,,,,,,,,wg-a,,,,AAXX 16064 07280 02765 13402 11030 21030 39975 40264 58006 60006 81500 90600 333 10048 21026 61000=
07280,1997-02-16 09:00:00,1,1026,0.1,93,0,12000,11.112,,,10,,,,,,,,,,,wg-a,,,,AAXX 16094 07280 12/62 70106 10010 20000 39976 40260 50001 60006 80001 90900=
07280,1997-02-16 12:00:00,6,1023.8,-1.7,61,-1,20000,11.112,,,60,,,,,,,,,,,wg-a,,,,AAXX 16124 07280 12/70 40606 10060 21010 39959 40238 58017 60006 80001 91200=
07280,1997-02-16 15:00:00,9,1022.2,-1.3,53,0,500,3.704,,,20,,,,,,,,,,,wg-a,,,,AAXX 16154 07280 12/00 70202 10090 20000 39946 40222 55013 60006 82041 91500=
07280,1997-02-16 18:00:00,5,1022.1,-0.4,70,0,15000,11.112,,,170,-3.4,8.7,,,,,,,,,wg-a,,,,AAXX 16184 07280 12/65 71706 10050 20000 39942 40221 56004 60006 82032 91800 333 10087 21034=
07280,1997-02-16 21:00:00,3,1022,-0.3,81,0,12000,7.408,,,210,,,,,,,,,,,wg-a,,,,AAXX 16214 07280 12/62 72104 10030 20000 39939 40220 56003 60006 84072 92100=
07280,1997-02-17 00:00:00,1,1022.4,0.1,86,-1,8000,7.408,,,180,,,,,,,,,,,wg-a,,,,AAXX 17004 07280 12/58 41804 10010 21010 39940 40224 50001 60006 84030 90000=
07280,1997-02-17 03:00:00,3,1023.1,0.9,81,0,8000,7.408,,,200,,,,,,,,,,,wg-a,,,,AAXX 17034 07280 12658 /2004 10030 20000 39949 40231 53009 60006 8557/ 90300=
07280,1997-02-17 06:00:00,2,1024.3,1.1,93,1,12000,11.112,,,190,0.2,5.2,,,,,,,,,wg-a,,,,AAXX 17064 07280 02462 /1906 10020 20010 39960 40243 52011 60006 8553/ 90600 333 10052 20002 60004=
07280,1997-02-17 09:00:00,5,1025.4,1.4,87,3,12000,14.816,,,180,,,,,,,,,,,wg-a,,,,AAXX 17094 07280 12562 71808 10050 20030 39974 40254 51014 60006 875// 90900=
07280,1997-02-17 12:00:00,10,1024.8,-0.1,71,5,20000,22.224,,,190,,,,,,,,,,,wg-a,,,,AAXX 17124 07280 12570 71912 10100 20050 39973 40248 58001 60006 85801 91200=
07280,1997-02-17 15:00:00,9,1024,-0.8,81,6,20000,25.928,,,200,,,,,,,,,,25,wg-a,,,,AAXX 17154 07280 02570 72014 10090 20060 39965 40240 56008 61000 72586 874// 91500 333 ////=
07280,1997-02-17 18:00:00,8,1025.1,0.9,87,6,20000,11.112,,,210,2.1,11.2,,,,,,,,3,wg-a,,,,AAXX 17184 07280 12670 82106 10080 20060 39974 40251 53009 60006 70386 885// 91800 333 10112 20021=
07280,1997-02-17 21:00:00,6,1025.9,0.6,93,5,15000,14.816,,,190,,,,,,,,,,,wg-a,,,,AAXX 17214 07280 12/65 61908 10060 20050 39980 40259 53006 60006 81034 92100=
07280,1997-02-18 00:00:00,6,1024.8,-1.1,93,5,15000,14.816,,,200,,,,,,,,,,,wg-a,,,,AAXX 18004 07280 12665 /2008 10060 20050 39969 40248 58011 60006 81502 90000=
07280,1997-02-18 03:00:00,7,1023.1,-1.5,87,5,15000,25.928,,,200,,,,,,,,,,,wg-a,,,,AAXX 18034 07280 12665 82014 10070 20050 39954 40231 58015 60006 81532 90300=
07280,1997-02-18 06:00:00,7,1022.1,-1.1,87,5,12000,22.224,,,200,5.1,8,,,,,,,,61,wg-a,,,,AAXX 18064 07280 02662 82012 10070 20050 39943 40221 56011 61000 76162 8257/ 90600 333 10080 20051 6000=
07280,1997-02-18 09:00:00,8,1021.4,-0.5,81,5,10000,25.928,,,190,,,,,,,,,,60,wg-a,,,,AAXX 18094 07280 02460 81914 10080 20050 39938 40214 58005 61000 76062 888// 90900 333 ////=
07280,1997-02-18 12:00:00,8,1020.4,-1,93,7,3500,35.188,,,200,,,,0,,,,,,10,wg-a,,,,AAXX 18124 07280 02235 82019 10080 20070 39928 40204 56010 60006 71065 885// 91200 333 60007=
07280,1997-02-18 15:00:00,10,1018.2,-1.9,93,9,8000,29.632,,,210,,,,1,,,,,,61,wg-a,,,,AAXX 18154 07280 12258 82116 10100 20090 39909 40182 58019 60017 76165 882// 91500=
07280,1997-02-18 18:00:00,6,1023.3,4.6,87,4,3000,29.632,,,280,6.4,10.5,,,,,,,,80,wg-a,,,,AAXX 18184 07280 02430 82816 10060 20040 39955 40233 53046 61000 78086 889// 91800 333 10105 20064 6005=
07280,1997-02-18 21:00:00,6,1027.4,3.9,75,2,25000,22.224,,,250,,,,,,,,,,3,wg-a,,,,AAXX 18214 07280 02775 22512 10060 20020 39994 40274 51039 61000 70386 825/0 92100 333 ////=
07280,1997-02-19 00:00:00,6,1030.1,2.6,70,1,25000,25.928,,,290,,,,,,,,,,1,wg-a,,,,AAXX 19004 07280 02575 /2914 10060 20010 30020 40301 52026 61000 70186 81100 90000 333 ////=
07280,1997-02-19 03:00:00,4,1032.3,2,81,1,25000,18.52,,,300,,,,,,,,,,,wg-a,,,,AAXX 19034 07280 12575 /3010 10040 20010 30040 40323 51020 60006 81100 90300=
07280,1997-02-19 06:00:00,1,1034.8,2.1,93,0,25000,7.408,,,200,1.1,6.7,,,,,6,,,,wg-a,,,,AAXX 19064 07280 02/75 22004 10010 20000 30061 40348 51021 60006 80001 90600 333 10067 20011 60064=
07280,1997-02-19 09:00:00,4,1035.4,0.9,87,2,25000,14.816,,,190,,,,,,,,,,,wg-a,,,,AAXX 19094 07280 12575 31908 10040 20020 30070 40354 51009 60006 81501 90900=
07280,1997-02-19 12:00:00,7,1032.8,-2.2,70,2,20000,25.928,,,190,,,,,,,,,,,wg-a,,,,AAXX 19124 07280 12570 /1914 10070 20020 30048 40328 58022 60006 83234 91200=
07280,1997-02-19 18:00:00,6,1026.7,-2.9,65,0,20000,18.52,,,190,0.8,8.8,,,,,,,,,wg-a,,,,AAXX 19184 07280 12/70 51910 10060 20000 39988 40267 56029 60006 83032 91800 333 10088 20008=
07280,1997-02-19 21:00:00,6,1024.2,-2.5,56,-2,15000,18.52,,,190,,,,,,,,,,,wg-a,,,,AAXX 19214 07280 12765 81910 10060 21020 39963 40242 58025 60006 8457/ 92100=
07280,1997-02-20 00:00:00,8,1024.6,0.6,57,0,15000,22.224,,,200,,,,,,,,,,,wg-a,,,,AAXX 20004 07280 12565 82012 10080 20000 39969 40246 53006 60006 8557/ 90000=
07280,1997-02-20 03:00:00,10,1026,1.5,82,7,15000,22.224,,,210,,,,,,,,,,,wg-a,,,,AAXX 20034 07280 12465 82112 10100 20070 39984 40260 51015 60006 885// 90300=
07280,1997-02-20 06:00:00,8,1029.1,2.9,81,5,12000,7.408,,,230,5.3,9.6,,,,,1,,,1,wg-a,,,,AAXX 20064 07280 02762 52304 10080 20050 30013 40291 51029 60006 70186 85500 90600 333 10096 20053 60014=
07280,1997-02-20 12:00:00,12,1030.2,-0.5,62,5,25000,25.928,,,240,,,,,,,,,,1,wg-a,,,,AAXX 20124 07280 12575 52414 10120 20050 30028 40302 58005 60006 70161 84801 91200=
07280,1997-02-20 15:00:00,12,1029.2,-1,58,4,25000,18.52,,,250,,,,0,,,,,,,wg-a,,,,AAXX 20154 07280 12675 /2510 10120 20040 30018 40292 56010 60007 83201 91500=
07280,1997-02-20 18:00:00,7,1030,0.3,76,3,20000,11.112,,,270,6.2,13.1,,,,,,,,,wg-a,,,,AAXX 20184 07280 12670 72706 10070 20030 30021 40300 53003 60006 81101 91800 333 10131 20062=
07280,1997-02-20 21:00:00,4,1030.6,0.2,81,1,15000,11.112,,,220,,,,,,,,,,,wg-a,,,,AAXX 20214 07280 12665 32206 10040 20010 30023 40306 53002 60006 81101 92100=
07280,1997-02-21 00:00:00,4,1030.6,0.1,93,3,15000,11.112,,,210,,,,,,,,,,,wg-a,,,,AAXX 21004 07280 12665 82106 10040 20030 30024 40306 53001 60006 885// 90000=
07280,1997-02-21 03:00:00,4,1030.8,0.1,87,2,1500,14.816,,,240,,,,,,,,,,,wg-a,,,,AAXX 21034 07280 12615 /2408 10040 20020 30025 40308 53001 60006 86500 90300=
07280,1997-02-21 06:00:00,5,1030.8,0.2,87,3,12000,22.224,,,200,3.2,7.3,,,,,,,,,wg-a,,,,AAXX 21064 07280 02662 72012 10050 20030 30027 40308 50002 60006 875// 90600 333 10073 20032 60004=
07280,1997-02-21 12:00:00,11,1032.4,0.6,62,4,20000,7.408,,,300,,,,,,,,,,,wg-a,,,,AAXX 21124 07280 12570 73004 10110 20040 30048 40324 50006 60006 878// 91200=
07280,1997-02-21 15:00:00,11,1032.5,0.1,66,5,20000,11.112,,,270,,,,,,,,,,,wg-a,,,,AAXX 21154 07280 12570 72706 10110 20050 30049 40325 53001 60006 878// 91500=
07280,1997-02-21 18:00:00,9,1033.1,0.4,,,20000,3.704,,,160,4.9,12,,,,,,,,,wg-a,,,,AAXX 21184 07280 12670 71602 10090 2//// 30053 40331 53004 60006 875// 91800 333 10120 20049=
07280,1997-02-21 21:00:00,8,1033.8,0.5,81,5,20000,0,,,0,,,,,,,,,,,wg-a,,,,AAXX 21214 07280 12670 70000 10080 20050 30058 40338 51005 60006 875// 92100=
07280,1997-02-22 00:00:00,7,1033.7,-0.1,93,6,15000,3.704,,,190,,,,,,,,,,,wg-a,,,,AAXX 22004 07280 12665 71902 10070 20060 30057 40337 58001 60006 875// 90000=
07280,1997-02-22 03:00:00,8,1032.7,-0.9,87,6,15000,3.704,,,40,,,,,,,,,,,wg-a,,,,AAXX 22034 07280 12665 70402 10080 20060 30048 40327 58009 60006 875// 90300=
07280,1997-02-22 06:00:00,7,1032.6,-0.3,87,5,15000,7.408,,,330,6.5,9.2,,,,,,,,,wg-a,,,,AAXX 22064 07280 02665 73304 10070 20050 30045 40326 57003 60006 875// 90600 333 10092 20065 60004=
07280,1997-02-22 09:00:00,9,1031.5,-0.8,81,6,12000,11.112,,,20,,,,,,,,,,,wg-a,,,,AAXX 22094 07280 12/62 00206 10090 20060 30037 40315 57008 60006 80000 90900=
07280,1997-02-22 12:00:00,13,1029.2,-1.8,58,5,15000,7.408,,,40,,,,,,,,,,,wg-a,,,,AAXX 22124 07280 12/65 00404 10130 20050 30019 40292 58018 60006 80000 91200=
07280,1997-02-22 15:00:00,15,1026.7,-2.3,55,6,20000,3.704,,,240,,,,,,,,,,,wg-a,,,,AAXX 22154 07280 12/70 32402 10150 20060 39996 40267 56023 60006 80001 91500=
07280,1997-02-22 18:00:00,11,1025.9,-1.2,66,5,20000,7.408,,,180,6.1,15.7,,,,,,,,,wg-a,,,,AAXX 22184 07280 12/70 41804 10110 20050 39984 40259 56012 60006 80001 91800 333 10157 20061=
07280,1997-02-22 21:00:00,6,1025.1,-1.3,87,4,20000,7.408,,,210,,,,,,,,,,,wg-a,,,,AAXX 22214 07280 12/70 22104 10060 20040 39971 40251 58013 60006 80001 92100=
07280,1997-02-23 00:00:00,6,1024,-1,87,4,20000,18.52,,,200,,,,,,,,,,,wg-a,,,,AAXX 23004 07280 12/70 12010 10060 20040 39961 40240 56010 60006 80001 90000=
07280,1997-02-23 03:00:00,4,1023.3,-0.9,87,2,20000,7.408,,,180,,,,,,,,,,,wg-a,,,,AAXX 23034 07280 12/70 31804 10040 20020 39952 40233 58009 60006 80001 90300=
07280,1997-02-23 06:00:00,4,1022.1,-1.1,93,3,10000,11.112,,,190,3.3,10.5,,,,,,,,,wg-a,,,,AAXX 23064 07280 02/60 61906 10040 20030 39941 40221 56011 60006 80001 90600 333 10105 20033 60004=
07280,1997-02-23 09:00:00,8,1021.9,0.2,87,6,12000,22.224,,,200,,,,,,,,,,,wg-a,,,,AAXX 23094 07280 12/62 72012 10080 20060 39943 40219 50002 60006 83031 90900=
07280,1997-02-23 12:00:00,13,1019.7,-1.7,62,6,18000,29.632,,,190,,,,,,,,,,,wg-a,,,,AAXX 23124 07280 12/68 71916 10130 20060 39926 40197 58017 60006 80001 91200=
07280,1997-02-23 15:00:00,14,1017.4,-2.1,58,6,20000,22.224,,,200,,,,,,,,,,,wg-a,,,,AAXX 23154 07280 12/70 82012 10140 20060 39905 40174 56021 60006 83012 91500=
07280,1997-02-23 18:00:00,12,1016.8,-0.8,67,6,20000,18.52,,,200,4,14.4,,,,,,,,,wg-a,,,,AAXX 23184 07280 12770 82010 10120 20060 39897 40168 56008 60006 8353/ 91800 333 10144 20040=
07280,1997-02-23 21:00:00,10,1016.3,,76,6,20000,22.224,,,200,,,,,,,,,,,wg-a,,,,AAXX 23214 07280 12770 82012 10100 20060 39890 40163 60006 8657/ 92100=
07280,1997-02-24 00:00:00,8,1015.6,-0.8,93,7,12000,18.52,,,210,,,,,,,,,,,wg-a,,,,AAXX 24004 07280 12762 82110 10080 20070 39882 40156 56008 60006 885// 90000=
07280,1997-02-24 06:00:00,8,1013.4,-1.1,93,7,8000,25.928,,,200,7.9,12,,,,,2,,,2,wg-a,,,,AAXX 24064 07280 02458 82014 10080 20070 39861 40134 57011 60006 70262 886// 90600 333 10120 20079 60024=
07280,1997-02-24 09:00:00,9,1013.3,-0.1,93,8,9000,29.632,,,200,,,,,,,,,,21,wg-a,,,,AAXX 24094 07280 02459 82016 10090 20080 39860 40133 57001 61000 72162 885// 90900 333 ////=
07280,1997-02-24 12:00:00,10,1012.7,-0.5,87,8,8000,35.188,,,200,,,,0,,,,,,60,wg-a,,,,AAXX 24124 07280 02458 82019 10100 20080 39855 40127 57005 60026 76062 885// 91200 333 60007=
07280,1997-02-24 15:00:00,11,1010.8,-1.7,87,9,9000,29.632,,,200,,,,1,,,,,,21,wg-a,,,,AAXX 24154 07280 12459 /2016 10110 20090 39838 40108 56017 60017 72162 875// 91500=
07280,1997-02-24 18:00:00,12,1010.3,-0.4,76,8,10000,29.632,,,200,8.4,11.6,,,,,,,,1,wg-a,,,,AAXX 24184 07280 02660 82016 10120 20080 39834 40103 56004 60006 70162 885// 91800 333 10116 20084 61000=
07280,1997-02-25 00:00:00,10,1009.6,-0.8,93,9,10000,42.596,,,200,,,,1,,,,,,61,wg-a,,,,AAXX 25004 07280 02660 82023 10100 20090 39826 40096 56008 60016 76162 885// 90000 333 60017=
07280,1997-02-25 03:00:00,10,1009.1,-0.6,93,9,8000,42.596,,,200,,,,5,,,,,,61,wg-a,,,,AAXX 25034 07280 12358 82023 10100 20090 39820 40091 58006 60057 76162 888// 90300=
07280,1997-02-25 06:00:00,11,1009.4,0.5,94,10,8000,35.188,,53.708,210,10,11.9,,,,,,,,61,wg-a,,,,AAXX 25064 07280 02558 82119 10110 20100 39825 40094 53005 61000 76162 888// 90600 333 10119 20100 6008 91029=
07280,1997-02-25 09:00:00,13,1010.4,1.1,82,10,12000,35.188,,,200,,,,,,,,,,61,wg-a,,,,AAXX 25094 07280 02562 82019 10130 20100 39836 40104 53011 61000 76162 888// 90900 333 ////=
07280,1997-02-25 12:00:00,12,1011.5,0.9,94,11,4000,35.188,,,200,,,,2,,,,,,61,wg-a,,,,AAXX 25124 07280 02340 82019 10120 20110 39845 40115 50009 60026 76162 885// 91200 333 60027=
07280,1997-02-25 15:00:00,13,1011.2,-0.1,94,12,8000,35.188,,,200,,,,5,,,,,,10,wg-a,,,,AAXX 25154 07280 12458 82019 10130 20120 39844 40112 55001 60057 71066 885// 91500=
07280,1997-02-25 18:00:00,13,1012.2,1,82,10,20000,42.596,,,210,11,13.5,,,,,,,,1,wg-a,,,,AAXX 25184 07280 02570 82123 10130 20100 39854 40122 53010 60006 70162 888// 91800 333 10135 20110 61000=
07280,1997-02-26 00:00:00,12,1013.9,0.9,82,9,9000,38.892,,59.264,230,,,,0,,,,,,60,wg-a,,,,AAXX 26004 07280 02559 82321 10120 20090 39869 40139 51009 60006 76062 888// 90000 333 60007 91032=
07280,1997-02-26 03:00:00,11,1012.8,-1.1,87,9,8000,35.188,,,220,,,,0,,,,,,60,wg-a,,,,AAXX 26034 07280 12558 82219 10110 20090 39858 40128 58011 60007 76066 888// 90300=
07280,1997-02-26 06:00:00,12,1013.8,1,82,9,20000,35.188,,48.152,240,10.7,13.7,,,,,,,,21,wg-a,,,,AAXX 26064 07280 02470 /2419 10120 20090 39868 40138 53010 61000 72162 8583/ 90600 333 10137 20107 6008 91026=
07280,1997-02-26 09:00:00,12,1016.8,2.9,71,7,500,35.188,,,250,,,,,,,,,,3,wg-a,,,,AAXX 26094 07280 02500 22519 10120 20070 39897 40168 51029 61000 70386 82200 90900 333 ////=
07280,1997-02-26 12:00:00,13,1018.2,1.5,47,2,40000,35.188,,51.856,270,,,,,,,,,,1,wg-a,,,,AAXX 26124 07280 02682 32719 10130 20020 39912 40182 51015 61000 70186 83200 91200 333 6100 91028=
07280,1997-02-26 15:00:00,11,1018.1,-0.4,62,4,25000,25.928,,,230,,,,,,,,,,25,wg-a,,,,AAXX 26154 07280 02675 /2314 10110 20040 39908 40181 56004 61000 72586 83202 91500 333 ////=
07280,1997-02-26 18:00:00,8,1019.4,1,76,4,15000,29.632,,,270,7.1,14,,,,,,,,25,wg-a,,,,AAXX 26184 07280 02465 52716 10080 20040 39918 40194 53010 61000 72587 84802 91800 333 10140 20071 6001=
07280,1997-02-27 00:00:00,6,1028.2,3.5,81,3,25000,29.632,,50.004,300,,,,,,,,,,1,wg-a,,,,AAXX 27004 07280 12575 53016 10060 20030 30002 40282 51035 60016 70186 82501 90000 333 91027=
07280,1997-02-27 03:00:00,6,1031.8,3.5,75,2,20000,25.928,,,300,,,,,,,,,,,wg-a,,,,AAXX 27034 07280 12570 33014 10060 20020 30037 40318 52035 60006 81501 90300=
07280,1997-02-27 06:00:00,4,1034.6,2.6,87,2,20000,18.52,,,290,4.3,8,,,,,2,,,,wg-a,,,,AAXX 27064 07280 02470 /2910 10040 20020 30063 40346 51026 60006 81100 90600 333 10080 20043 60024=
07280,1997-02-27 09:00:00,7,1037.5,3,70,2,20000,14.816,,,310,,,,,,,,,,,wg-a,,,,AAXX 27094 07280 12570 /3108 10070 20020 30093 40375 51030 60006 86200 90900=
07280,1997-02-27 12:00:00,10,1037.9,0.7,50,0,40000,11.112,,,250,,,,,,,,,,,wg-a,,,,AAXX 27124 07280 12682 42506 10100 20000 30100 40379 51007 60006 84100 91200=
07280,1997-02-28 00:00:00,0,1038,-1.1,93,-1,25000,3.704,,,140,,,,,,,,,,,wg-a,,,,AAXX 28004 07280 12/75 11402 10000 21010 30091 40380 58011 60006 81030 90000=
07280,1997-02-28 03:00:00,-1,1036.8,-1.3,93,-2,25000,0,,,0,,,,,,,,,,,wg-a,,,,AAXX 28034 07280 12/75 00000 11010 21020 30078 40368 56013 60006 80000 90300=
07280,1997-02-28 06:00:00,-2,1036.6,-0.2,100,-2,20000,3.704,,,40,-1.7,7.7,,,,,,,,40,wg-a,,,,AAXX 28064 07280 02/70 20402 11020 21020 30076 40366 55002 60006 74000 80001 90600 333 10077 21017 60004=
07280,1997-02-28 09:00:00,4,1036.5,0.4,87,2,11000,7.408,,,150,,,,,,,,,,,wg-a,,,,AAXX 28094 07280 12/61 41504 10040 20020 30080 40365 50004 60006 80001 90900=
07280,1997-02-28 12:00:00,11,1034,-1.7,58,3,500,11.112,,,170,,,,,,,,,,,wg-a,,,,AAXX 28124 07280 12/00 41706 10110 20030 30063 40340 58017 60006 80001 91200=
07280,1997-02-28 15:00:00,13,1031.1,-2.6,44,1,500,14.816,,,180,,,,,,,,,,,wg-a,,,,AAXX 28154 07280 12/00 71808 10130 20010 30037 40311 56026 60006 80002 91500=
07280,1997-02-28 18:00:00,9,1030.7,-0.8,66,3,25000,11.112,,,170,-1.6,13.1,,,,,,,,,wg-a,,,,AAXX 28184 07280 12/75 61706 10090 20030 30029 40307 55008 60006 80002 91800 333 10131 21016=
07280,1997-02-28 21:00:00,6,1030.3,-0.7,75,2,25000,7.408,,,160,,,,,,,,,,,wg-a,,,,AAXX 28214 07280 12/75 71604 10060 20020 30022 40303 56007 60006 80002 92100=
07280,1997-03-01 00:00:00,7,1029.5,-0.7,70,2,20000,14.816,,,170,,,,,,,,,,,wg-a,,,,AAXX 01004 07280 12/70 41708 10070 20020 30015 40295 56007 60006 80002 90000=
07280,1997-03-01 03:00:00,7,1029.4,0,70,2,20000,11.112,,,170,,,,,,,,,,,wg-a,,,,AAXX 01034 07280 12/70 81706 10070 20020 30015 40294 50000 60006 8807/ 90300=
07280,1997-03-01 06:00:00,7,1030.4,1,70,2,20000,3.704,,,160,5.4,8.9,,,,,,,,,wg-a,,,,AAXX 01064 07280 02770 81602 10070 20020 30025 40304 51010 60006 8557/ 90600 333 10089 20054 60004=
07280,1997-03-01 09:00:00,10,1031,0.8,66,4,20000,7.408,,,190,,,,,,,,,,,wg-a,,,,AAXX 01094 07280 12570 71904 10100 20040 30033 40310 51008 60006 81102 90900=
07280,1997-03-01 12:00:00,17,1029.2,-1.1,48,6,20000,22.224,,,200,,,,,,,,,,,wg-a,,,,AAXX 01124 07280 12/70 52012 10170 20060 30022 40292 58011 60006 82081 91200=
07280,1997-03-01 15:00:00,18,1027.2,-1.9,39,4,500,18.52,,,190,,,,,,,,,,,wg-a,,,,AAXX 01154 07280 12/00 31910 10180 20040 30003 40272 57019 60006 80001 91500=
07280,1997-03-01 18:00:00,13,1027.4,-0.2,54,4,20000,11.112,,,210,6.9,18,,,,,,,,,wg-a,,,,AAXX 01184 07280 12/70 22106 10130 20040 30001 40274 55002 60006 80001 91800 333 10180 20069=
07280,1997-03-01 21:00:00,7,1027.9,-0.1,76,3,20000,3.704,,,340,,,,,,,,,,,wg-a,,,,AAXX 01214 07280 12/70 03402 10070 20030 30000 40279 58001 60006 80000 92100=
07280,1997-03-02 00:00:00,4,1027.5,-0.7,93,3,20000,3.704,,,30,,,,,,,,,,,wg-a,,,,AAXX 02004 07280 12/70 00302 10040 20030 39993 40275 57007 60006 80000 90000=
07280,1997-03-02 03:00:00,2,1026.5,-1.1,100,2,20000,0,,,0,,,,,,,,,,,wg-a,,,,AAXX 02034 07280 12/70 00000 10020 20020 39982 40265 58011 60006 80000 90300=
07280,1997-03-02 06:00:00,0,1027.4,0.6,100,0,15000,3.704,,,290,0.3,12.4,,,,,,,,11,wg-a,,,,AAXX 02064 07280 02/65 /2902 10000 20000 39988 40274 53006 60006 71100 80001 90600 333 10124 20003 60004=
07280,1997-03-02 09:00:00,8,1028,1.4,76,4,11000,7.408,,,210,,,,,,,,,,,wg-a,,,,AAXX 02094 07280 12/61 12104 10080 20040 30002 40280 51014 60006 81030 90900=
07280,1997-03-02 12:00:00,17,1026.9,-0.2,45,5,15000,22.224,,,200,,,,,,,,,,,wg-a,,,,AAXX 02124 07280 12/65 52012 10170 20050 30000 40269 56002 60006 80004 91200=
07280,1997-03-02 15:00:00,18,1026.9,0.1,45,6,20000,22.224,,,270,,,,,,,,,,,wg-a,,,,AAXX 02154 07280 12/70 62712 10180 20060 30001 40269 53001 60006 80002 91500=
07280,1997-03-02 18:00:00,14,1029.7,2.3,63,7,15000,18.52,,,280,0.3,19.8,,,,,,,,,wg-a,,,,AAXX 02184 07280 12/65 62810 10140 20070 30024 40297 53023 60006 80002 91800 333 10198 20003=
07280,1997-03-02 21:00:00,11,1031.2,1.3,76,7,15000,14.816,,,200,,,,,,,,,,,wg-a,,,,AAXX 02214 07280 12/65 42008 10110 20070 30037 40312 52013 60006 80002 92100=
07280,1997-03-03 00:00:00,8,1032.4,0.8,93,7,10000,7.408,,,240,,,,,,,,,,,wg-a,,,,AAXX 03004 07280 12/60 /2404 10080 20070 30045 40324 51008 60006 90000=
07280,1997-03-03 03:00:00,8,1032.4,0,93,7,15000,7.408,,,190,,,,,,,,,,,wg-a,,,,AAXX 03034 07280 12/65 81904 10080 20070 30045 40324 50000 60006 84034 90300=
07280,1997-03-03 06:00:00,9,1033.5,1.1,87,7,15000,11.112,,,220,6.9,13.9,,,,,,,,,wg-a,,,,AAXX 03064 07280 02565 /2206 10090 20070 30056 40335 53011 60006 81534 90600 333 10139 20069 60004=
07280,1997-03-03 09:00:00,12,1034.4,1.3,82,9,12000,11.112,,,210,,,,,,,,,,,wg-a,,,,AAXX 03094 07280 12562 /2106 10120 20090 30069 40344 52013 60006 84501 90900=
07280,1997-03-03 12:00:00,14,1034.2,0,77,10,15000,7.408,,,180,,,,,,,,,,,wg-a,,,,AAXX 03124 07280 12565 81804 10140 20100 30069 40342 50000 60006 8557/ 91200=
07280,1997-03-03 15:00:00,15,1032.6,-1.5,72,10,20000,3.704,,,50,,,,,,,,,,,wg-a,,,,AAXX 03154 07280 12570 70502 10150 20100 30054 40326 56015 60006 878// 91500=
07280,1997-03-03 18:00:00,11,1033.3,0.3,87,9,20000,7.408,,,140,8.1,15.5,,,,,,,,,wg-a,,,,AAXX 03184 07280 12670 /1404 10110 20090 30057 40333 53003 60006 81501 91800 333 10155 20081=
07280,1997-03-03 21:00:00,7,1033.6,-0.1,93,6,15000,3.704,,,310,,,,,,,,,,,wg-a,,,,AAXX 03214 07280 12/65 23102 10070 20060 30056 40336 58001 60006 80001 92100=
07280,1997-03-04 00:00:00,8,1032.7,-0.8,100,8,11000,11.112,,,180,,,,,,,,,,,wg-a,,,,AAXX 04004 07280 12/61 /1806 10080 20080 30048 40327 58008 60006 90000=
07280,1997-03-04 03:00:00,8,1032.3,-0.4,93,7,8000,3.704,,,160,,,,,,,,,,,wg-a,,,,AAXX 04034 07280 12/58 71602 10080 20070 30044 40323 56004 60006 8703/ 90300=
07280,1997-03-04 06:00:00,7,1032.3,-0.1,100,7,6000,3.704,,,30,6.5,10.9,,,,,,,,,wg-a,,,,AAXX 04064 07280 02/56 60302 10070 20070 30043 40323 58001 60006 83031 90600 333 10109 20065 60004=
07280,1997-03-04 09:00:00,10,1032.3,0.3,93,9,7000,3.704,,,130,,,,,,,,,,,wg-a,,,,AAXX 04094 07280 12/57 81302 10100 20090 30046 40323 50003 60006 81032 90900=
07280,1997-03-04 12:00:00,15,1030.2,-1.5,72,10,10000,7.408,,,180,,,,,,,,,,,wg-a,,,,AAXX 04124 07280 12/60 81804 10150 20100 30031 40302 58015 60006 80002 91200=
07280,1997-03-04 15:00:00,19,1027.8,-2,52,9,12000,7.408,,,190,,,,,,,,,,,wg-a,,,,AAXX 04154 07280 12762 81904 10190 20090 30011 40278 56020 60006 81532 91500=
07280,1997-03-04 18:00:00,15,1027.4,-0.8,77,11,12000,3.704,,,150,6.2,19.3,,,,,,,,,wg-a,,,,AAXX 04184 07280 12/62 81502 10150 20110 30003 40274 57008 60006 86032 91800 333 10193 20062=
07280,1997-03-04 21:00:00,13,1027.3,-0.2,82,10,12000,18.52,,,320,,,,,,,,,,,wg-a,,,,AAXX 04214 07280 12762 83210 10130 20100 30001 40273 55002 60006 885// 92100=
07280,1997-03-05 00:00:00,15,1027.7,0.5,63,8,12000,11.112,,,320,,,,,,,,,,,wg-a,,,,AAXX 05004 07280 12762 83206 10150 20080 30006 40277 53005 60006 885// 90000=
07280,1997-03-05 03:00:00,11,1026.5,-1.6,82,8,12000,7.408,,,250,,,,,,,,,,,wg-a,,,,AAXX 05034 07280 12762 62504 10110 20080 39990 40265 56016 60006 86500 90300=
07280,1997-03-05 06:00:00,11,1028,1.5,82,8,12000,3.704,,,190,10.5,14.9,,,,,,,,3,wg-a,,,,AAXX 05064 07280 02562 81902 10110 20080 30005 40280 53015 60006 70361 86801 90600 333 10149 20105 60004=
07280,1997-03-05 09:00:00,11,1029.9,1.8,58,3,25000,25.928,,,270,,,,,,,,,,,wg-a,,,,AAXX 05094 07280 12675 62714 10110 20030 30023 40299 51018 60006 86100 90900=
07280,1997-03-05 12:00:00,11,1030.2,0.3,62,4,500,18.52,,,270,,,,,,,,,,,wg-a,,,,AAXX 05124 07280 12600 72710 10110 20040 30026 40302 53003 60006 878// 91200=
07280,1997-03-05 15:00:00,11,1029.6,-0.6,58,3,500,14.816,,,270,,,,,,,,,,,wg-a,,,,AAXX 05154 07280 12600 72708 10110 20030 30020 40296 56006 60006 878// 91500=
07280,1997-03-05 18:00:00,8,1030.4,0.6,71,3,500,14.816,,,280,8.4,12.6,,,,,,,,,wg-a,,,,AAXX 05184 07280 12700 72808 10080 20030 30026 40304 53006 60006 875// 91800 333 10126 20084=
07280,1997-03-06 00:00:00,6,1031.6,0,93,5,15000,7.408,,,190,,,,,,,,,,,wg-a,,,,AAXX 06004 07280 12665 71904 10060 20050 30035 40316 50000 60006 875// 90000=
07280,1997-03-06 03:00:00,6,1031.2,-0.4,87,4,15000,0,,,0,,,,,,,,,,,wg-a,,,,AAXX 06034 07280 12665 80000 10060 20040 30031 40312 58004 60006 885// 90300=
07280,1997-03-06 06:00:00,6,1031.8,0.6,93,5,6000,3.704,,,140,5.8,8.3,,,,,,,,60,wg-a,,,,AAXX 06064 07280 02656 81402 10060 20050 30037 40318 53006 61000 76062 888// 90600 333 10083 20058 6001=
07280,1997-03-06 09:00:00,7,1032.9,1.2,100,7,8000,7.408,,,170,,,,1,,,,,,21,wg-a,,,,AAXX 06094 07280 12258 71704 10070 20070 30049 40329 51012 60017 72162 878// 90900=
07280,1997-03-06 12:00:00,10,1032.3,-0.3,82,7,15000,7.408,,,220,,,,,,,,,,1,wg-a,,,,AAXX 06124 07280 12465 72204 10100 20070 30046 40323 58003 60016 70162 878// 91200=
07280,1997-03-06 15:00:00,11,1031.6,-0.6,71,6,20000,11.112,,,360,,,,,,,,,,,wg-a,,,,AAXX 06154 07280 12570 /3606 10110 20060 30040 40316 56006 60006 85800 91500=
07280,1997-03-06 18:00:00,9,1032.1,0.3,81,6,20000,3.704,,,10,5.7,11.7,,,,,,,,,wg-a,,,,AAXX 06184 07280 12670 /0102 10090 20060 30043 40321 53003 60006 81500 91800 333 10117 20057=
07280,1997-03-07 00:00:00,5,1032.6,-0.7,81,2,10000,14.816,,,10,,,,,,,,,,,wg-a,,,,AAXX 07004 07280 12/60 /0108 10050 20020 30044 40326 58007 60006 90000=
07280,1997-03-07 03:00:00,3,1032,-0.8,93,2,12000,11.112,,,350,,,,,,,,,,,wg-a,,,,AAXX 07034 07280 12/62 03506 10030 20020 30036 40320 58008 60006 80000 90300=
07280,1997-03-07 06:00:00,4,1031.5,-0.4,87,2,12000,18.52,,,360,2.9,9.3,,,,,1,,,,wg-a,,,,AAXX 07064 07280 02/62 03610 10040 20020 30032 40315 56004 60006 80000 90600 333 10093 20029 60014=
07280,1997-03-07 12:00:00,13,1030.4,-0.7,54,4,20000,18.52,,,30,,,,,,,,,,,wg-a,,,,AAXX 07124 07280 12/70 10310 10130 20040 30030 40304 58007 60006 81030 91200=
07280,1997-03-07 15:00:00,15,1028.9,-1.3,44,3,25000,11.112,,,70,,,,,,,,,,,wg-a,,,,AAXX 07154 07280 12/75 10706 10150 20030 30017 40289 56013 60006 81030 91500=
07280,1997-03-07 18:00:00,11,1029.4,0.2,58,3,25000,11.112,,,20,4.1,15,,,,,,,,,wg-a,,,,AAXX 07184 07280 12/75 10206 10110 20030 30019 40294 53002 60006 81030 91800 333 10150 20041=
07280,1997-03-07 21:00:00,7,1030.3,0.5,76,3,20000,11.112,,,10,,,,,,,,,,,wg-a,,,,AAXX 07214 07280 12/70 00106 10070 20030 30024 40303 51005 60006 80000 92100=
07280,1997-03-08 00:00:00,5,1031.1,0.5,87,3,20000,14.816,,,340,,,,,,,,,,,wg-a,,,,AAXX 08004 07280 12/70 03408 10050 20030 30029 40311 53005 60006 80000 90000=
07280,1997-03-08 03:00:00,4,1031.8,0.5,87,2,20000,11.112,,,330,,,,,,,,,,,wg-a,,,,AAXX 08034 07280 12/70 03306 10040 20020 30034 40318 50005 60006 80000 90300=
07280,1997-03-08 06:00:00,2,1032.7,0.8,93,1,15000,11.112,,,330,2,11.2,,,,,,,,,wg-a,,,,AAXX 08064 07280 02/65 03306 10020 20010 30042 40327 51008 60006 80000 90600 333 10112 20020 60004=
07280,1997-03-08 09:00:00,8,1033.7,1.6,76,4,8000,11.112,,,20,,,,,,,,,,,wg-a,,,,AAXX 08094 07280 12/58 00206 10080 20040 30058 40337 51016 60006 80000 90900=
07280,1997-03-08 12:00:00,13,1032.6,-0.7,58,5,10000,11.112,,,30,,,,,,,,,,,wg-a,,,,AAXX 08124 07280 12/60 00306 10130 20050 30051 40326 56007 60006 80000 91200=
07280,1997-03-08 15:00:00,15,1031,-1.3,55,6,12000,14.816,,,50,,,,,,,,,,,wg-a,,,,AAXX 08154 07280 12/62 10508 10150 20060 30038 40310 56013 60006 80001 91500=
07280,1997-03-08 18:00:00,12,1031.9,0.5,62,5,12000,11.112,,,20,1.9,15.3,,,,,,,,,wg-a,,,,AAXX 08184 07280 12/62 10206 10120 20050 30043 40319 53005 60006 80001 91800 333 10153 20019=
07280,1997-03-08 21:00:00,9,1032.3,0.2,76,5,10000,14.816,,,10,,,,,,,,,,,wg-a,,,,AAXX 08214 07280 12/60 10108 10090 20050 30045 40323 51002 60006 80001 92100=
07280,1997-03-09 00:00:00,6,1032.6,-0,87,4,8000,11.112,,,350,,,,,,,,,,,wg-a,,,,AAXX 09004 07280 12/58 03506 10060 20040 30045 40326 55000 60006 80000 90000=
07280,1997-03-09 03:00:00,5,1032.3,-0.4,93,4,7000,11.112,,,340,,,,,,,,,,,wg-a,,,,AAXX 09034 07280 12/57 03406 10050 20040 30041 40323 58004 60006 80000 90300=
07280,1997-03-09 06:00:00,5,1032.8,0.4,93,4,3000,14.816,,,10,3.9,11.5,,,,,,,,10,wg-a,,,,AAXX 09064 07280 02/30 00108 10050 20040 30045 40328 53004 60006 71000 80000 90600 333 10115 20039 60004=
07280,1997-03-09 09:00:00,8,1033.2,0.8,81,5,500,11.112,,,60,,,,,,,,,,,wg-a,,,,AAXX 09094 07280 12/00 00606 10080 20050 30053 40332 53008 60006 80000 90900=
07280,1997-03-09 12:00:00,12,1032.3,-0.5,71,7,7000,7.408,,,120,,,,,,,,,,,wg-a,,,,AAXX 09124 07280 12/57 01204 10120 20070 30048 40323 58005 60006 80000 91200=
07280,1997-03-09 15:00:00,15,1030.5,-1.5,55,6,9000,7.408,,,100,,,,,,,,,,,wg-a,,,,AAXX 09154 07280 12/59 31004 10150 20060 30033 40305 56015 60006 83030 91500=
07280,1997-03-09 18:00:00,11,1031,0.1,71,6,9000,3.704,,,130,4.3,15.2,,,,,,,,,wg-a,,,,AAXX 09184 07280 12/59 01302 10110 20060 30034 40310 53001 60006 80000 91800 333 10152 20043=
07280,1997-03-09 21:00:00,7,1031.8,0.4,87,5,10000,11.112,,,360,,,,,,,,,,,wg-a,,,,AAXX 09214 07280 12/60 03606 10070 20050 30038 40318 51004 60006 80000 92100=
07280,1997-03-10 00:00:00,5,1032.2,0.2,87,3,8000,11.112,,,340,,,,,,,,,,,wg-a,,,,AAXX 10004 07280 12/58 03406 10050 20030 30040 40322 53002 60006 80000 90000=
07280,1997-03-10 03:00:00,2,1033.2,0.7,93,1,8000,7.408,,,350,,,,,,,,,,,wg-a,,,,AAXX 10034 07280 12/58 03504 10020 20010 30047 40332 51007 60006 80000 90300=
07280,1997-03-10 06:00:00,1,1034.4,1,93,0,500,3.704,,,20,0.9,10.9,,,,,,,,,wg-a,,,,AAXX 10064 07280 02/00 00202 10010 20000 30057 40344 53010 60006 80000 90600 333 10109 20009 60004=
07280,1997-03-10 09:00:00,8,1035,1.3,81,5,6000,3.704,,,20,,,,,,,,,,,wg-a,,,,AAXX 10094 07280 12/56 00202 10080 20050 30070 40350 52013 60006 80000 90900=
07280,1997-03-10 12:00:00,16,1033.3,-0.9,63,9,9000,3.704,,,140,,,,,,,,,,,wg-a,,,,AAXX 10124 07280 12/59 01402 10160 20090 30061 40333 57009 60006 80000 91200=
07280,1997-03-10 15:00:00,19,1031.4,-1.5,46,7,12000,3.704,,,130,,,,,,,,,,,wg-a,,,,AAXX 10154 07280 12/62 01302 10190 20070 30046 40314 56015 60006 80000 91500=
07280,1997-03-10 18:00:00,15,1031.6,-0.2,55,6,15000,0,,,0,0.5,19.4,,,,,,,,,wg-a,,,,AAXX 10184 07280 12/65 00000 10150 20060 30044 40316 55002 60006 80000 91800 333 10194 20005=
07280,1997-03-10 21:00:00,9,1032.6,0.4,81,6,12000,14.816,,,330,,,,,,,,,,,wg-a,,,,AAXX 10214 07280 12/62 03308 10090 20060 30048 40326 51004 60006 80000 92100=
07280,1997-03-11 00:00:00,7,1032.6,-0.2,81,4,12000,11.112,,,330,,,,,,,,,,,wg-a,,,,AAXX 11004 07280 12/62 03306 10070 20040 30046 40326 56002 60006 80000 90000=
07280,1997-03-11 03:00:00,5,1032.2,-0.6,87,3,12000,11.112,,,330,,,,,,,,,,,wg-a,,,,AAXX 11034 07280 12/62 03306 10050 20030 30040 40322 58006 60006 80000 90300=
07280,1997-03-11 06:00:00,5,1032.5,0.3,93,4,9000,18.52,,,340,4.6,14.6,,,,,,,,,wg-a,,,,AAXX 11064 07280 02/59 03410 10050 20040 30043 40325 53003 60006 80000 90600 333 10146 20046 60004=
07280,1997-03-11 09:00:00,12,1032.1,0.3,71,7,8000,18.52,,,20,,,,,,,,,,,wg-a,,,,AAXX 11094 07280 12/58 00210 10120 20070 30046 40321 51003 60006 80000 90900=
07280,1997-03-11 12:00:00,17,1030.4,-1.2,55,8,11000,18.52,,,20,,,,,,,,,,,wg-a,,,,AAXX 11124 07280 12/61 00210 10170 20080 30034 40304 58012 60006 80000 91200=
07280,1997-03-11 15:00:00,20,1028.3,-1.8,37,5,15000,18.52,,,40,,,,,,,,,,,wg-a,,,,AAXX 11154 07280 12/65 00410 10200 20050 30016 40283 56018 60006 80000 91500=
07280,1997-03-11 18:00:00,16,1028.8,0.1,51,6,10000,18.52,,,10,5.3,20.3,,,,,,,,,wg-a,,,,AAXX 11184 07280 12/60 00110 10160 20060 30017 40288 53001 60006 80000 91800 333 10203 20053=
07280,1997-03-12 00:00:00,9,1030.3,0.1,71,4,10000,11.112,,,350,,,,,,,,,,,wg-a,,,,AAXX 12004 07280 12/60 03506 10090 20040 30025 40303 50001 60006 80000 90000=
07280,1997-03-12 03:00:00,6,1030.8,0.2,81,3,12000,7.408,,,330,,,,,,,,,,,wg-a,,,,AAXX 12034 07280 12/62 03304 10060 20030 30027 40308 50002 60006 80000 90300=
07280,1997-03-12 06:00:00,2,1032.2,0.9,87,0,500,0,,,0,1.7,15.9,,,,,,,,,wg-a,,,,AAXX 12064 07280 02/00 00000 10020 20000 30036 40322 52009 60006 80000 90600 333 10159 20017 60004=
07280,1997-03-12 09:00:00,11,1032,0.8,66,5,9000,25.928,,,200,,,,,,,,,,,wg-a,,,,AAXX 12094 07280 12/59 02014 10110 20050 30044 40320 51008 60006 80000 90900=
07280,1997-03-12 12:00:00,17,1030.6,-0.8,52,7,11000,18.52,,,190,,,,,,,,,,,wg-a,,,,AAXX 12124 07280 12/61 21910 10170 20070 30036 40306 58008 60006 80001 91200=
07280,1997-03-12 15:00:00,19,1028.8,-1.5,46,7,15000,14.816,,,180,,,,,,,,,,,wg-a,,,,AAXX 12154 07280 12/65 31808 10190 20070 30021 40288 56015 60006 80001 91500=
07280,1997-03-12 18:00:00,15,1029.7,0.5,59,7,12000,7.408,,,220,1.7,19.4,,,,,,,,,wg-a,,,,AAXX 12184 07280 12/62 22204 10150 20070 30026 40297 53005 60006 80001 91800 333 10194 20017=
07280,1997-03-12 21:00:00,9,1031,0.6,76,5,12000,3.704,,,290,,,,,,,,,,,wg-a,,,,AAXX 12214 07280 12/62 02902 10090 20050 30032 40310 53006 60006 80000 92100=
07280,1997-03-13 00:00:00,6,1030.9,-0.4,87,4,12000,7.408,,,320,,,,,,,,,,,wg-a,,,,AAXX 13004 07280 12/62 03204 10060 20040 30028 40309 56004 60006 80000 90000=
07280,1997-03-13 03:00:00,7,1030.3,-0.4,87,5,8000,14.816,,,320,,,,,,,,,,,wg-a,,,,AAXX 13034 07280 12/58 03208 10070 20050 30024 40303 58004 60006 80000 90300=
07280,1997-03-13 06:00:00,7,1030.7,0.3,87,5,4000,7.408,,,20,5.7,15.3,,,,,,,,10,wg-a,,,,AAXX 13064 07280 02/40 20204 10070 20050 30027 40307 53003 60006 71000 80001 90600 333 10153 20057 60004=
07280,1997-03-13 09:00:00,9,1031.3,0.8,87,7,6000,14.816,,,340,,,,,,,,,,,wg-a,,,,AAXX 13094 07280 12656 /3408 10090 20070 30035 40313 51008 60006 85101 90900=
07280,1997-03-13 12:00:00,11,1030.6,-0.5,76,7,7000,14.816,,,30,,,,,,,,,,,wg-a,,,,AAXX 13124 07280 12457 50308 10110 20070 30030 40306 58005 60006 85500 91200=
07280,1997-03-13 15:00:00,14,1028.5,-1.8,63,7,6000,22.224,,40.744,40,,,,,,,,,,,wg-a,,,,AAXX 13154 07280 12556 20412 10140 20070 30012 40285 56018 60006 81101 91500 333 91022=
07280,1997-03-13 18:00:00,11,1027.9,-0.8,71,6,6000,14.816,,,350,6.3,13.7,,,,,,,,,wg-a,,,,AAXX 13184 07280 12/56 /3508 10110 20060 30004 40279 56008 60006 80001 91800 333 10137 20063=
07280,1997-03-13 21:00:00,7,1027.7,-0.5,87,5,7000,11.112,,,330,,,,,,,,,,,wg-a,,,,AAXX 13214 07280 12/57 03306 10070 20050 39999 40277 56005 60006 80000 92100=
07280,1997-03-14 00:00:00,6,1026.9,-1,87,4,500,11.112,,,330,,,,,,,,,,,wg-a,,,,AAXX 14004 07280 12/00 03306 10060 20040 39989 40269 58010 60006 80000 90000=
07280,1997-03-14 06:00:00,2,1026.1,-0.5,93,1,1300,7.408,,,340,1.9,10.7,,,,,,,,10,wg-a,,,,AAXX 14064 07280 02113 33404 10020 20010 39977 40261 56005 60006 71000 83630 90600 333 10107 20019 60004=
07280,1997-03-14 09:00:00,8,1026.1,0.6,87,6,2500,3.704,,,170,,,,,,,,,,10,wg-a,,,,AAXX 14094 07280 12125 81702 10080 20060 39983 40261 50006 60006 71041 81702 90900=
07280,1997-03-14 12:00:00,11,1025.1,-0.6,76,7,7000,11.112,,,280,,,,,,,,,,1,wg-a,,,,AAXX 14124 07280 12457 /2806 10110 20070 39977 40251 58006 60006 70141 85502 91200=
07280,1997-03-14 15:00:00,10,1024.7,-0.5,71,5,12000,25.928,,,310,,,,,,,,,,,wg-a,,,,AAXX 14154 07280 12562 83114 10100 20050 39972 40247 55005 60006 885// 91500=
07280,1997-03-14 18:00:00,8,1025.8,0.9,87,6,6000,11.112,,,280,1.1,12.3,,,,,,,,21,wg-a,,,,AAXX 14184 07280 02356 82806 10080 20060 39981 40258 51009 61000 72162 885// 91800 333 10123 20011 6100=
07280,1997-03-14 21:00:00,7,1026.7,0.8,93,6,8000,11.112,,,200,,,,,,,,,,,wg-a,,,,AAXX 14214 07280 12558 /2006 10070 20060 39989 40267 53008 60006 85500 92100=
07280,1997-03-15 00:00:00,6,1027.1,0.3,100,6,8000,3.704,,,270,,,,,,,,,,,wg-a,,,,AAXX 15004 07280 12658 72702 10060 20060 39992 40271 50003 60006 875// 90000=
07280,1997-03-15 06:00:00,4,1028.2,1,100,4,100,7.408,,,190,3.9,8.3,,,,,,,,44,wg-a,,,,AAXX 15064 07280 02501 /1904 10040 20040 30000 40282 53010 60006 74442 83530 90600 333 10083 20039 61000=
07280,1997-03-15 09:00:00,9,1028.4,0.8,87,7,6000,7.408,,,170,,,,,,,,,,1,wg-a,,,,AAXX 15094 07280 12756 /1704 10090 20070 30008 40284 51008 60006 70142 85500 90900=
07280,1997-03-15 12:00:00,13,1028,-0.1,58,5,15000,7.408,,,320,,,,,,,,,,1,wg-a,,,,AAXX 15124 07280 12565 73204 10130 20050 30007 40280 58001 60006 70142 8323/ 91200=
07280,1997-03-15 15:00:00,14,1026.6,-1.3,58,6,20000,11.112,,,300,,,,,,,,,,,wg-a,,,,AAXX 15154 07280 12670 /3006 10140 20060 39994 40266 58013 60006 82130 91500=
07280,1997-03-15 18:00:00,12,1027.6,0.8,67,6,20000,11.112,,,250,3.6,13.7,,,,,,,,,wg-a,,,,AAXX 15184 07280 12570 82506 10120 20060 30002 40276 53008 60006 8557/ 91800 333 10137 20036=
07280,1997-03-15 21:00:00,10,1028.7,0.9,93,9,15000,3.704,,,170,,,,,,,,,,3,wg-a,,,,AAXX 15214 07280 02465 81702 10100 20090 30011 40287 51009 61000 70362 885// 92100 333 ////=
07280,1997-03-16 00:00:00,9,1028.4,-0.3,100,9,12000,3.704,,,160,,,,0,,,,,,21,wg-a,,,,AAXX 16004 07280 02462 81602 10090 20090 30008 40284 58003 60006 72162 8457/ 90000 333 60007=
07280,1997-03-16 03:00:00,9,1028.6,0.1,93,8,12000,3.704,,,150,,,,,,,,,,,wg-a,,,,AAXX 16034 07280 12462 71502 10090 20080 30009 40286 50001 60006 875// 90300=
07280,1997-03-16 06:00:00,7,1029.7,0.9,100,7,8000,3.704,,,270,7.4,12.3,,,,,,,,,wg-a,,,,AAXX 16064 07280 02458 82702 10070 20070 30018 40297 53009 60006 86501 90600 333 10123 20074 60004=
07280,1997-03-16 12:00:00,14,1029.3,-0.6,67,8,15000,0,,,0,,,,,,,,,,,wg-a,,,,AAXX 16124 07280 12565 /0000 10140 20080 30021 40293 58006 60006 85200 91200=
07280,1997-03-16 18:00:00,13,1027.8,-0.4,62,6,20000,3.704,,,210,6.3,16.2,,,,,,,,,wg-a,,,,AAXX 16184 07280 12/70 52102 10130 20060 30005 40278 55004 60006 80001 91800 333 10162 20063=
07280,1997-03-16 21:00:00,7,1028.4,-0,87,5,20000,3.704,,,300,,,,,,,,,,,wg-a,,,,AAXX 16214 07280 12/70 53002 10070 20050 30005 40284 55000 60006 80001 92100=
07280,1997-03-17 00:00:00,7,1028.5,0.1,93,6,20000,7.408,,,10,,,,,,,,,,,wg-a,,,,AAXX 17004 07280 12/70 20104 10070 20060 30006 40285 53001 60006 80001 90000=
07280,1997-03-17 03:00:00,7,1028,-0.4,93,6,12000,0,,,0,,,,,,,,,,,wg-a,,,,AAXX 17034 07280 12562 80000 10070 20060 30002 40280 58004 60006 885// 90300=
07280,1997-03-17 06:00:00,8,1028.5,0.5,93,7,10000,3.704,,,330,6.5,12.8,,,,,,,,,wg-a,,,,AAXX 17064 07280 02560 83302 10080 20070 30007 40285 53005 60006 885// 90600 333 10128 20065 60004=
07280,1997-03-17 09:00:00,11,1029.3,1.1,76,7,10000,14.816,,,20,,,,,,,,,,,wg-a,,,,AAXX 17094 07280 12560 70208 10110 20070 30018 40293 51011 60006 875// 90900=
07280,1997-03-17 12:00:00,15,1027.8,-1.1,59,7,12000,7.408,,,40,,,,,,,,,,,wg-a,,,,AAXX 17124 07280 12/62 40404 10150 20070 30007 40278 58011 60006 80001 91200=
07280,1997-03-17 15:00:00,17,1025.8,-1.8,55,8,15000,11.112,,,40,,,,,,,,,,,wg-a,,,,AAXX 17154 07280 12/65 30406 10170 20080 39989 40258 56018 60006 80001 91500=
07280,1997-03-17 18:00:00,14,1025.8,-0.3,67,8,20000,7.408,,,40,8,16.7,,,,,,,,,wg-a,,,,AAXX 17184 07280 12/70 20404 10140 20080 39986 40258 56003 60006 80001 91800 333 10167 20080=
07280,1997-03-17 21:00:00,10,1026.1,-0.1,82,7,15000,11.112,,,10,,,,,,,,,,,wg-a,,,,AAXX 17214 07280 12/65 00106 10100 20070 39985 40261 58001 60006 80000 92100=
07280,1997-03-18 00:00:00,7,1025.4,-0.9,93,6,15000,7.408,,,330,,,,,,,,,,,wg-a,,,,AAXX 18004 07280 12/65 03304 10070 20060 39976 40254 58009 60006 80000 90000=
07280,1997-03-18 03:00:00,5,1023,-2.5,100,5,15000,11.112,,,320,,,,,,,,,,,wg-a,,,,AAXX 18034 07280 12/65 03206 10050 20050 39951 40230 58025 60006 80000 90300=
07280,1997-03-18 06:00:00,3,1021.4,-1.8,100,3,7000,0,,,0,3.1,13.5,,,,,,,,11,wg-a,,,,AAXX 18064 07280 02/57 /0000 10030 20030 39933 40214 56018 60006 71100 80001 90600 333 10135 20031 60004=
07280,1997-03-18 09:00:00,10,1019.2,-1.4,87,8,9000,7.408,,,170,,,,,,,,,,,wg-a,,,,AAXX 18094 07280 12/59 /1704 10100 20080 39919 40192 58014 60006 80001 90900=
07280,1997-03-18 12:00:00,18,1016,-2.4,56,9,15000,18.52,,,200,,,,,,,,,,,wg-a,,,,AAXX 18124 07280 12/65 22010 10180 20090 39895 40160 58024 60006 81031 91200=
07280,1997-03-18 15:00:00,19,1013.6,-2.3,43,6,500,25.928,,,270,,,,,,,,,,,wg-a,,,,AAXX 18154 07280 12700 72714 10190 20060 39872 40136 56023 60006 81102 91500=
07280,1997-03-18 18:00:00,13,1013.7,-0.4,67,7,20000,22.224,,,300,2.7,20.7,,,,,,,,,wg-a,,,,AAXX 18184 07280 12/70 73012 10130 20070 39868 40137 55004 60006 83031 91800 333 10207 20027=
07280,1997-03-18 21:00:00,10,1013.9,-0.1,71,5,15000,18.52,,,240,,,,,,,,,,,wg-a,,,,AAXX 18214 07280 12565 72410 10100 20050 39867 40139 58001 60006 8353/ 92100=
07280,1997-03-19 00:00:00,7,1012.9,-1.2,93,6,12000,14.816,,,230,,,,2,,,,,,21,wg-a,,,,AAXX 19004 07280 02562 72308 10070 20060 39855 40129 58012 60026 72162 8357/ 90000 333 60027=
07280,1997-03-19 06:00:00,6,1012.2,-0.3,87,4,15000,18.52,,,260,6.3,13,,,,,2,,,,wg-a,,,,AAXX 19064 07280 02565 82610 10060 20040 39847 40122 58003 60006 888// 90600 333 10130 20063 60024=
07280,1997-03-19 12:00:00,8,1010.8,-0.7,76,4,20000,22.224,,,280,,,,,,,,,,25,wg-a,,,,AAXX 19124 07280 02570 /2812 10080 20040 39835 40108 56007 60016 72586 872// 91200 333 61000=
07280,1997-03-19 15:00:00,8,1009.7,-1,87,6,10000,25.928,,,300,,,,,,,,,,25,wg-a,,,,AAXX 19154 07280 02560 73014 10080 20060 39825 40097 56010 61000 72586 878// 91500 333 ////=
07280,1997-03-19 21:00:00,7,1014.6,3,76,3,10000,18.52,,,330,,,,,,,,,,3,wg-a,,,,AAXX 19214 07280 02660 /3310 10070 20030 39871 40146 51030 61000 70386 86400 92100 333 ////=
07280,1997-03-20 00:00:00,6,1016.9,2.1,81,3,10000,7.408,,,320,,,,,,,,,,1,wg-a,,,,AAXX 20004 07280 02560 73204 10060 20030 39892 40169 53021 61000 70186 878// 90000 333 ////=
07280,1997-03-20 06:00:00,5,1019.5,1.6,81,2,11000,18.52,,,330,4.5,7.8,,,,,1,,,,wg-a,,,,AAXX 20064 07280 02561 83310 10050 20020 39916 40195 53016 60006 885// 90600 333 10078 20045 60014=
07280,1997-03-20 09:00:00,5,1021.2,1.7,75,1,15000,11.112,,,320,,,,,,,,,,21,wg-a,,,,AAXX 20094 07280 02565 83206 10050 20010 39933 40212 53017 61000 72162 888// 90900 333 ////=
07280,1997-03-20 12:00:00,6,1021.4,0.3,75,2,12000,7.408,,,60,,,,,,,,,,1,wg-a,,,,AAXX 20124 07280 02562 /0604 10060 20020 39936 40214 51003 61000 70162 86800 91200 333 ////=
07280,1997-03-20 15:00:00,9,1020.8,-0.3,53,0,11000,14.816,,,20,,,,,,,,,,,wg-a,,,,AAXX 20154 07280 12/61 /0208 10090 20000 39933 40208 55003 60006 91500=
07280,1997-03-20 18:00:00,7,1021.9,0.8,70,2,12000,7.408,,,120,4.4,9.1,,,,,,,,,wg-a,,,,AAXX 20184 07280 12662 71204 10070 20020 39941 40219 53008 60006 878// 91800 333 10091 20044=
07280,1997-03-20 21:00:00,4,1022.9,0.7,81,1,12000,3.704,,,160,,,,,,,,,,,wg-a,,,,AAXX 20214 07280 12762 61602 10040 20010 39948 40229 51007 60006 86500 92100=
07280,1997-03-21 00:00:00,2,1022.8,-0.2,93,1,10000,3.704,,,280,,,,,,,,,,,wg-a,,,,AAXX 21004 07280 12760 62802 10020 20010 39946 40228 58002 60006 86500 90000=
07280,1997-03-21 03:00:00,1,1022.1,-0.9,86,-1,10000,7.408,,,330,,,,,,,,,,,wg-a,,,,AAXX 21034 07280 12760 33304 10010 21010 39937 40221 56009 60006 83500 90300=
07280,1997-03-21 06:00:00,-1,1022.8,0.5,93,-2,6000,3.704,,,310,-1.6,6.7,,,,,,,,,wg-a,,,,AAXX 21064 07280 02756 43102 11010 21020 39942 40228 52005 60006 84500 90600 333 10067 21016 61000=
07280,1997-03-21 09:00:00,8,1022.6,0.7,71,3,8000,7.408,,,190,,,,,,,,,,,wg-a,,,,AAXX 21094 07280 12758 71904 10080 20030 39949 40226 51007 60006 875// 90900=
07280,1997-03-21 12:00:00,12,1022.1,-0.1,50,2,15000,14.816,,,330,,,,,,,,,,,wg-a,,,,AAXX 21124 07280 12665 73308 10120 20020 39948 40221 56001 60006 878// 91200=
07280,1997-03-21 15:00:00,12,1022,-0.1,54,3,18000,22.224,,,360,,,,,,,,,,,wg-a,,,,AAXX 21154 07280 12668 73612 10120 20030 39947 40220 55001 60006 878// 91500=
07280,1997-03-21 18:00:00,9,1023.1,0.8,76,5,12000,22.224,,,10,-1.1,12.6,,,,,,,,,wg-a,,,,AAXX 21184 07280 12762 30112 10090 20050 39955 40231 53008 60006 815/1 91800 333 10126 21011=
07280,1997-03-21 21:00:00,5,1024.7,1.2,81,2,8000,11.112,,,350,,,,,,,,,,,wg-a,,,,AAXX 21214 07280 12/58 03506 10050 20020 39967 40247 51012 60006 80000 92100=
07280,1997-03-22 00:00:00,3,1025.1,0.2,81,0,7000,18.52,,,10,,,,,,,,,,,wg-a,,,,AAXX 22004 07280 12/57 00110 10030 20000 39969 40251 52002 60006 80000 90000=
07280,1997-03-22 06:00:00,1,1025.9,0.9,86,-1,10000,14.816,,,10,0.9,8.5,,,,,,,,,wg-a,,,,AAXX 22064 07280 02/60 20108 10010 21010 39974 40259 52009 60006 80001 90600 333 10085 20009 60004=
07280,1997-03-22 09:00:00,7,1025.9,0.6,66,1,12000,22.224,,,50,,,,,,,,,,,wg-a,,,,AAXX 22094 07280 12/62 00512 10070 20010 39980 40259 51006 60006 80000 90900=
07280,1997-03-22 12:00:00,10,1024.7,-0.8,50,0,15000,22.224,,,30,,,,,,,,,,,wg-a,,,,AAXX 22124 07280 12665 20312 10100 20000 39972 40247 58008 60006 81101 91200=
07280,1997-03-22 15:00:00,12,1023.2,-1.3,40,-1,25000,18.52,,,50,,,,,,,,,,,wg-a,,,,AAXX 22154 07280 12/75 00510 10120 21010 39959 40232 58013 60006 80000 91500=
07280,1997-03-22 18:00:00,9,1023.2,-0.3,49,-1,25000,11.112,,,20,1,12,,,,,,,,,wg-a,,,,AAXX 22184 07280 12/75 10206 10090 21010 39956 40232 55003 60006 80001 91800 333 10120 20010=
07280,1997-03-23 00:00:00,3,1022.9,-1.1,75,-1,10000,14.816,,,350,,,,,,,,,,,wg-a,,,,AAXX 23004 07280 12/60 03508 10030 21010 39947 40229 57011 60006 80000 90000=
07280,1997-03-23 03:00:00,1,1020.7,-2.3,80,-2,7000,7.408,,,330,,,,,,,,,,,wg-a,,,,AAXX 23034 07280 12/57 23304 10010 21020 39924 40207 58023 60006 80001 90300=
07280,1997-03-23 06:00:00,-1,1019.7,-1.2,86,-3,12000,3.704,,,320,-1,9.2,,,,,,,,,wg-a,,,,AAXX 23064 07280 02/62 63202 11010 21030 39912 40197 57012 60006 82032 90600 333 10092 21010 60004=
07280,1997-03-23 09:00:00,4,1018.3,-0.9,75,0,25000,7.408,,,160,,,,,,,,,,,wg-a,,,,AAXX 23094 07280 12/75 71604 10040 20000 39903 40183 58009 60006 85032 90900=
07280,1997-03-23 12:00:00,9,1014.8,-2.8,61,2,20000,14.816,,,190,,,,,,,,,,,wg-a,,,,AAXX 23124 07280 12870 71908 10090 20020 39875 40148 56028 60006 85032 91200=
07280,1997-03-23 15:00:00,15,1010.8,-3.4,33,-1,40000,22.224,,,240,,,,,,,,,,,wg-a,,,,AAXX 23154 07280 12782 72412 10150 21010 39841 40108 56034 60006 8257/ 91500=
07280,1997-03-23 18:00:00,12,1011.6,0.5,44,0,20000,18.52,,,280,-1,14.8,,,,,,,,,wg-a,,,,AAXX 23184 07280 12670 /2810 10120 20000 39846 40116 53005 60006 86500 91800 333 10148 21010=
07280,1997-03-23 21:00:00,9,1011.7,-0.1,61,2,20000,11.112,,,220,,,,,,,,,,,wg-a,,,,AAXX 23214 07280 12770 82206 10090 20020 39845 40117 57001 60006 885// 92100=
07280,1997-03-24 00:00:00,6,1012.1,0.1,100,6,20000,7.408,,,220,,,,1,,,,,,3,wg-a,,,,AAXX 24004 07280 02670 82204 10060 20060 39846 40121 51001 60016 70362 885// 90000 333 60017=
07280,1997-03-24 03:00:00,7,1011.5,-0.6,87,5,20000,7.408,,,340,,,,,,,,,,60,wg-a,,,,AAXX 24034 07280 02670 83404 10070 20050 39840 40115 55006 61000 76062 885// 90300 333 ////=
07280,1997-03-24 06:00:00,6,1012.1,0.6,93,5,12000,11.112,,,330,5.9,11.8,,,,,,,,21,wg-a,,,,AAXX 24064 07280 02662 73306 10060 20050 39846 40121 53006 61000 72162 875// 90600 333 10118 20059 6001=
07280,1997-03-24 09:00:00,9,1012.2,0.4,76,5,12000,11.112,,,350,,,,,,,,,,,wg-a,,,,AAXX 24094 07280 12462 73506 10090 20050 39850 40122 52004 60006 872// 90900=
07280,1997-03-24 12:00:00,12,1011.7,-0.3,62,5,15000,11.112,,,330,,,,,,,,,,,wg-a,,,,AAXX 24124 07280 12565 63306 10120 20050 39847 40117 58003 60006 86800 91200=
07280,1997-03-24 15:00:00,12,1011.1,-0.6,62,5,20000,14.816,,,350,,,,,,,,,,,wg-a,,,,AAXX 24154 07280 12670 73508 10120 20050 39841 40111 56006 60006 878// 91500=
07280,1997-03-24 18:00:00,10,1011.6,0.3,76,6,20000,3.704,,,220,6.3,12.5,,,,,,,,21,wg-a,,,,AAXX 24184 07280 02770 72202 10100 20060 39844 40116 53003 61000 72186 875// 91800 333 10125 20063 6000=
07280,1997-03-24 21:00:00,8,1012.6,0.8,81,5,15000,7.408,,,350,,,,,,,,,,,wg-a,,,,AAXX 24214 07280 12765 73504 10080 20050 39852 40126 52008 60006 875// 92100=
07280,1997-03-25 00:00:00,6,1013.1,0.4,93,5,15000,3.704,,,350,,,,,,,,,,,wg-a,,,,AAXX 25004 07280 12565 83502 10060 20050 39856 40131 51004 60006 885// 90000=
07280,1997-03-25 03:00:00,7,1013.7,0.6,87,5,15000,7.408,,,330,,,,,,,,,,,wg-a,,,,AAXX 25034 07280 12565 83304 10070 20050 39862 40137 53006 60006 885// 90300=
07280,1997-03-25 06:00:00,6,1014.9,1.1,93,5,10000,3.704,,,350,5.8,9.6,,,,,,,,,wg-a,,,,AAXX 25064 07280 02660 83502 10060 20050 39873 40149 53011 60006 8453/ 90600 333 10096 20058 60004=
07280,1997-03-25 09:00:00,8,1016.1,1.4,87,6,10000,0,,,0,,,,,,,,,,60,wg-a,,,,AAXX 25094 07280 02660 80000 10080 20060 39887 40161 51014 61000 76062 8557/ 90900 333 ////=
07280,1997-03-25 12:00:00,9,1017.3,1.2,87,7,4000,3.704,,,340,,,,1,,,,,,61,wg-a,,,,AAXX 25124 07280 02540 83402 10090 20070 39899 40173 51012 60016 76186 8687/ 91200 333 60017=
07280,1997-03-25 15:00:00,10,1017.7,0.5,82,7,8000,7.408,,,330,,,,1,,,,,,21,wg-a,,,,AAXX 25154 07280 12658 83304 10100 20070 39904 40177 53005 60017 72162 8557/ 91500=
07280,1997-03-25 18:00:00,9,1019.4,1.6,87,7,7000,3.704,,,350,6.2,9.9,,,,,,,,3,wg-a,,,,AAXX 25184 07280 12557 83502 10090 20070 39920 40194 53016 60006 70362 885// 91800 333 10099 20062=
07280,1997-03-25 21:00:00,6,1021.5,1.7,93,5,8000,3.704,,,30,,,,,,,,,,,wg-a,,,,AAXX 25214 07280 12758 /0302 10060 20050 39937 40215 51017 60006 85500 92100=
07280,1997-03-26 00:00:00,5,1021.8,0.2,100,5,500,7.408,,,320,,,,,,,,,,,wg-a,,,,AAXX 26004 07280 12700 73204 10050 20050 39939 40218 50002 60006 87500 90000=
07280,1997-03-26 03:00:00,3,1022.4,0.3,93,2,3000,3.704,,,30,,,,,,,,,,12,wg-a,,,,AAXX 26034 07280 12/30 00302 10030 20020 39942 40224 50003 60006 71211 80000 90300=
07280,1997-03-26 06:00:00,2,1024.3,1.8,100,2,800,11.112,,,20,0.8,9.3,,,,,2,,,12,wg-a,,,,AAXX 26064 07280 02/08 30206 10020 20020 39960 40243 53018 60006 71241 80001 90600 333 10093 20008 60024=
07280,1997-03-26 12:00:00,12,1023,-0.4,71,7,500,11.112,,,110,,,,,,,,,,1,wg-a,,,,AAXX 26124 07280 12/00 31106 10120 20070 39958 40230 58004 60006 70141 80001 91200=
07280,1997-03-26 18:00:00,12,1022.1,-0,67,6,8000,7.408,,,180,1.1,14.1,,,,,,,,,wg-a,,,,AAXX 26184 07280 12/58 /1804 10120 20060 39949 40221 54000 60006 83031 91800 333 10141 20011=
07280,1997-03-26 21:00:00,10,1023.8,1.5,76,6,9000,7.408,,,200,,,,,,,,,,,wg-a,,,,AAXX 26214 07280 12/59 72004 10100 20060 39964 40238 51015 60006 84031 92100=
07280,1997-03-27 00:00:00,10,1023.8,-0.1,71,5,12000,14.816,,,190,,,,,,,,,,,wg-a,,,,AAXX 27004 07280 12/62 51908 10100 20050 39963 40238 56001 60006 85030 90000=
07280,1997-03-27 03:00:00,10,1023.9,0.1,76,6,12000,3.704,,,220,,,,,,,,,,,wg-a,,,,AAXX 27034 07280 12/62 72202 10100 20060 39964 40239 51001 60006 8703/ 90300=
07280,1997-03-27 06:00:00,9,1024.7,0.7,87,7,7000,3.704,,,160,8.7,12.3,,,,,,,,21,wg-a,,,,AAXX 27064 07280 02557 71602 10090 20070 39971 40247 53007 61000 72162 875// 90600 333 10123 20087 6000=
07280,1997-03-27 09:00:00,12,1025.1,0.7,76,8,12000,11.112,,,210,,,,,,,,,,,wg-a,,,,AAXX 27094 07280 12562 /2106 10120 20080 39978 40251 51007 60006 875// 90900=
07280,1997-03-27 12:00:00,15,1024,-0.8,72,10,20000,7.408,,,230,,,,,,,,,,,wg-a,,,,AAXX 27124 07280 12570 82304 10150 20100 39970 40240 58008 60006 885// 91200=
07280,1997-03-27 15:00:00,17,1022.4,-1.4,68,11,20000,11.112,,,210,,,,,,,,,,,wg-a,,,,AAXX 27154 07280 12570 72106 10170 20110 39956 40224 56014 60006 878// 91500=
07280,1997-03-27 18:00:00,15,1021.9,-0.6,77,11,500,7.408,,,310,8.6,16.5,,,,,,,,,wg-a,,,,AAXX 27184 07280 12600 /3104 10150 20110 39950 40219 56006 60006 86501 91800 333 10165 20086=
07280,1997-03-27 21:00:00,14,1022.2,0.1,77,10,500,14.816,,,260,,,,,,,,,,,wg-a,,,,AAXX 27214 07280 12500 /2608 10140 20100 39951 40222 50001 60006 875// 92100=
07280,1997-03-28 00:00:00,13,1020.7,-1.5,82,10,20000,11.112,,,230,,,,,,,,,,,wg-a,,,,AAXX 28004 07280 12570 82306 10130 20100 39936 40207 58015 60006 885// 90000=
07280,1997-03-28 03:00:00,12,1018.4,-2.4,82,9,20000,14.816,,,210,,,,,,,,,,,wg-a,,,,AAXX 28034 07280 12570 /2108 10120 20090 39912 40184 56024 60006 85500 90300=
07280,1997-03-28 06:00:00,12,1017.7,-0.6,82,9,20000,11.112,,,230,10.8,15.3,,,,,,,,60,wg-a,,,,AAXX 28064 07280 02570 82306 10120 20090 39906 40177 55006 61000 76062 885// 90600 333 10153 20108 6100=
07280,1997-03-28 09:00:00,10,1019,1.1,76,6,20000,25.928,,,330,,,,0,,,,,,25,wg-a,,,,AAXX 28094 07280 12570 83314 10100 20060 39917 40190 53011 60007 72586 871// 90900=
07280,1997-03-28 12:00:00,13,1019.6,0.8,38,-1,500,29.632,,,330,,,,,,,,,,3,wg-a,,,,AAXX 28124 07280 12600 /3316 10130 21010 39925 40196 51008 60006 70386 84200 91200=
07280,1997-03-28 15:00:00,11,1020.6,0.8,40,-2,500,31.484,,,350,,,,,,,,,,,wg-a,,,,AAXX 28154 07280 12700 33517 10110 21020 39933 40206 52008 60006 834/0 91500=
07280,1997-03-28 18:00:00,9,1022.1,1.2,46,-2,500,18.52,,,10,9,13.9,,,,,,,,,wg-a,,,,AAXX 28184 07280 12700 20110 10090 21020 39945 40221 53012 60006 825/0 91800 333 10139 20090=
07280,1997-03-28 21:00:00,6,1023.7,1.3,56,-2,20000,18.52,,,340,,,,,,,,,,,wg-a,,,,AAXX 28214 07280 12/70 03410 10060 21020 39958 40237 51013 60006 80000 92100=
07280,1997-03-29 00:00:00,3,1024.7,0.7,75,-1,12000,18.52,,,350,,,,,,,,,,,wg-a,,,,AAXX 29004 07280 12/62 03510 10030 21010 39965 40247 53007 60006 80000 90000=
07280,1997-03-29 03:00:00,2,1024.9,0.1,80,-1,12000,11.112,,,330,,,,,,,,,,,wg-a,,,,AAXX 29034 07280 12/62 23306 10020 21010 39966 40249 52001 60006 80001 90300=
07280,1997-03-29 06:00:00,1,1025.4,0.4,80,-2,20000,7.408,,,310,0.5,9,,,,,,,,,wg-a,,,,AAXX 29064 07280 02/70 33104 10010 21020 39970 40254 52004 60006 83040 90600 333 10090 20005 60004=
07280,1997-03-29 09:00:00,8,1025.3,0.6,61,1,20000,18.52,,,30,,,,,,,,,,,wg-a,,,,AAXX 29094 07280 12570 20310 10080 20010 39976 40253 51006 60006 81230 90900=
07280,1997-03-29 12:00:00,9,1024.8,-0.4,49,-1,20000,14.816,,,40,,,,,,,,,,,wg-a,,,,AAXX 29124 07280 12770 70408 10090 21010 39972 40248 57004 60006 878// 91200=
07280,1997-03-29 15:00:00,10,1023.8,-0.9,43,-2,25000,25.928,,,20,,,,,,,,,,,wg-a,,,,AAXX 29154 07280 12775 70214 10100 21020 39963 40238 58009 60006 878// 91500=
07280,1997-03-29 18:00:00,8,1024.4,0.4,53,-1,500,14.816,,,10,0.6,10.1,,,,,,,,,wg-a,,,,AAXX 29184 07280 12700 20108 10080 21010 39967 40244 53004 60006 82500 91800 333 10101 20006=
07280,1997-03-29 21:00:00,6,1025.6,0.9,65,0,25000,11.112,,,350,,,,,,,,,,,wg-a,,,,AAXX 29214 07280 12775 53506 10060 20000 39976 40256 51009 60006 85500 92100=
07280,1997-03-30 00:00:00,6,1025.9,0.3,70,1,20000,14.816,,,20,,,,,,,,,,,wg-a,,,,AAXX 30004 07280 12770 50208 10060 20010 39979 40259 53003 60006 85500 90000=
07280,1997-03-30 03:00:00,5,1025.9,-0.1,81,2,20000,11.112,,,10,,,,,,,,,,,wg-a,,,,AAXX 30034 07280 12670 70106 10050 20020 39978 40259 57001 60006 875// 90300=
07280,1997-03-30 06:00:00,3,1026.5,0.4,87,1,20000,11.112,,,20,1.8,7.8,,,,,,,,,wg-a,,,,AAXX 30064 07280 02770 60206 10030 20010 39982 40265 53004 60006 86500 90600 333 10078 20018 60004=
07280,1997-03-30 09:00:00,9,1026.4,0.5,66,3,20000,22.224,,,30,,,,,,,,,,,wg-a,,,,AAXX 30094 07280 12570 70312 10090 20030 39987 40264 51005 60006 878// 90900=
07280,1997-03-30 12:00:00,11,1025.8,-0.4,54,2,25000,25.928,,,30,,,,,,,,,,,wg-a,,,,AAXX 30124 07280 12675 30314 10110 20020 39983 40258 58004 60006 83800 91200=
07280,1997-03-30 15:00:00,12,1024.8,-0.8,50,2,25000,29.632,,,40,,,,,,,,,,,wg-a,,,,AAXX 30154 07280 12675 40416 10120 20020 39975 40248 56008 60006 84200 91500=
07280,1997-03-30 18:00:00,10,1025.8,0.7,57,2,25000,18.52,,,30,2.5,12.7,,,,,,,,,wg-a,,,,AAXX 30184 07280 12875 10310 10100 20020 39982 40258 53007 60006 81800 91800 333 10127 20025=
07280,1997-03-30 21:00:00,5,1026.4,0.2,81,2,25000,14.816,,,10,,,,,,,,,,,wg-a,,,,AAXX 30214 07280 12/75 00108 10050 20020 39984 40264 50002 60006 80000 92100=
07280,1997-03-31 00:00:00,4,1026.5,-0.1,81,1,20000,14.816,,,20,,,,,,,,,,,wg-a,,,,AAXX 31004 07280 12/70 00208 10040 20010 39983 40265 57001 60006 80000 90000=
07280,1997-03-31 06:00:00,3,1025.8,0.2,87,1,20000,14.816,,,10,2.1,9.6,,,,,,,,,wg-a,,,,AAXX 31064 07280 02/70 00108 10030 20010 39976 40258 53002 60006 80000 90600 333 10096 20021 60004=
07280,1997-03-31 09:00:00,10,1025.4,0.3,62,3,25000,22.224,,,60,,,,,,,,,,,wg-a,,,,AAXX 31094 07280 12/75 00612 10100 20030 39979 40254 51003 60006 80000 90900=
07280,1997-03-31 12:00:00,15,1024,-1,44,3,10000,18.52,,,40,,,,,,,,,,,wg-a,,,,AAXX 31124 07280 12/60 /0410 10150 20030 39969 40240 58010 60006 91200=
07280,1997-03-31 15:00:00,17,1022,-1.7,36,2,50000,25.928,,,40,,,,,,,,,,,wg-a,,,,AAXX 31154 07280 12/84 00414 10170 20020 39952 40220 56017 60006 80000 91500=
07280,1997-03-31 18:00:00,15,1021.8,-0.4,44,3,60000,14.816,,,40,3.1,17.4,,,,,,,,,wg-a,,,,AAXX 31184 07280 12/86 00408 10150 20030 39948 40218 55004 60006 80000 91800 333 10174 20031=
07280,1997-03-31 21:00:00,10,1022.7,0.4,66,4,500,18.52,,,20,,,,,,,,,,,wg-a,,,,AAXX 31214 07280 12/00 00210 10100 20040 39952 40227 50004 60006 80000 92100=
07280,1997-04-01 00:00:00,7,1022.6,-0.3,81,4,20000,14.816,,,20,,,,,,,,,,,wg-a,,,,AAXX 01004 07280 12/70 00208 10070 20040 39949 40226 58003 60006 80000 90000=
07280,1997-04-01 03:00:00,6,1022.2,-0.6,81,3,20000,11.112,,,340,,,,,,,,,,,wg-a,,,,AAXX 01034 07280 12/70 03406 10060 20030 39943 40222 58006 60006 80000 90300=
07280,1997-04-01 06:00:00,6,1022.7,0.5,81,3,50000,11.112,,,350,5.1,14.6,,,,,,,,,wg-a,,,,AAXX 01064 07280 02/84 03506 10060 20030 39948 40227 53005 60006 80000 90600 333 10146 20051 60004=
07280,1997-04-01 09:00:00,13,1021.9,-0.1,62,6,500,14.816,,,20,,,,,,,,,,,wg-a,,,,AAXX 01094 07280 12/00 00208 10130 20060 39947 40219 58001 60006 80000 90900=
07280,1997-04-01 12:00:00,17,1020.2,-1.2,45,5,50000,14.816,,,40,,,,,,,,,,,wg-a,,,,AAXX 01124 07280 12/84 00408 10170 20050 39935 40202 58012 60006 80000 91200=
07280,1997-04-01 15:00:00,20,1018.1,-1.8,30,2,50000,18.52,,,50,,,,,,,,,,,wg-a,,,,AAXX 01154 07280 12/84 00510 10200 20020 39917 40181 56018 60006 80000 91500=
07280,1997-04-01 18:00:00,17,1017.9,-0.5,39,3,40000,18.52,,,20,5.7,20.3,,,,,,,,,wg-a,,,,AAXX 01184 07280 12/82 10210 10170 20030 39912 40179 56005 60006 80001 91800 333 10203 20057=
07280,1997-04-01 21:00:00,12,1019.1,0.7,50,2,500,14.816,,,10,,,,,,,,,,,wg-a,,,,AAXX 01214 07280 12/00 00108 10120 20020 39919 40191 51007 60006 80000 92100=
07280,1997-04-02 00:00:00,10,1019.1,-0.2,66,4,500,14.816,,,20,,,,,,,,,,,wg-a,,,,AAXX 02004 07280 12/00 00208 10100 20040 39917 40191 58002 60006 80000 90000=
07280,1997-04-02 03:00:00,8,1018.3,-0.9,76,4,25000,18.52,,,10,,,,,,,,,,,wg-a,,,,AAXX 02034 07280 12/75 00110 10080 20040 39908 40183 56009 60006 80000 90300=
07280,1997-04-02 06:00:00,7,1018.8,0.4,76,3,500,14.816,,,340,7,17.3,,,,,,,,,wg-a,,,,AAXX 02064 07280 02/00 03408 10070 20030 39912 40188 53004 60006 80000 90600 333 10173 20070 60004=
07280,1997-04-02 12:00:00,19,1017.1,-1.1,40,5,500,14.816,,,30,,,,,,,,,,,wg-a,,,,AAXX 02124 07280 12/00 10308 10190 20050 39906 40171 58011 60006 81031 91200=
07280,1997-04-02 18:00:00,18,1016,0.4,39,4,500,7.408,,,20,7.3,20.7,,,,,,,,,wg-a,,,,AAXX 02184 07280 12800 20204 10180 20040 39894 40160 53004 60006 81501 91800 333 10207 20073=
07280,1997-04-02 21:00:00,13,1017.5,1,58,5,20000,11.112,,,330,,,,,,,,,,,wg-a,,,,AAXX 02214 07280 12/70 03306 10130 20050 39904 40175 51010 60006 80000 92100=
07280,1997-04-03 00:00:00,10,1017.3,-0.4,71,5,20000,11.112,,,350,,,,,,,,,,,wg-a,,,,AAXX 03004 07280 12/70 03506 10100 20050 39900 40173 57004 60006 80000 90000=
07280,1997-04-03 03:00:00,6,1017.2,-0.5,81,3,12000,3.704,,,20,,,,,,,,,,,wg-a,,,,AAXX 03034 07280 12/62 00202 10060 20030 39895 40172 56005 60006 80000 90300=
07280,1997-04-03 06:00:00,3,1017.8,0.3,100,3,4500,3.704,,,320,3.2,17.6,,,,,,,,10,wg-a,,,,AAXX 03064 07280 02/45 23202 10030 20030 39898 40178 52003 60006 71000 80001 90600 333 10176 20032 60004=
07280,1997-04-03 09:00:00,14,1016.8,0.1,67,8,500,3.704,,,160,,,,,,,,,,,wg-a,,,,AAXX 03094 07280 12/00 /1602 10140 20080 39899 40168 50001 60006 80000 90900=
07280,1997-04-03 12:00:00,19,1015.1,-1.2,43,6,15000,18.52,,,300,,,,,,,,,,,wg-a,,,,AAXX 03124 07280 12765 33010 10190 20060 39887 40151 58012 60006 83500 91200=
07280,1997-04-03 15:00:00,18,1013.9,-1.2,45,6,20000,22.224,,,290,,,,,,,,,,,wg-a,,,,AAXX 03154 07280 12770 32912 10180 20060 39875 40139 56012 60006 82101 91500=
07280,1997-04-03 18:00:00,14,1016.7,2.2,51,4,20000,22.224,,,320,3.5,19.8,,,,,,,,,wg-a,,,,AAXX 03184 07280 12770 63212 10140 20040 39897 40167 53022 60006 825/2 91800 333 10198 20035=
07280,1997-04-04 00:00:00,9,1018.9,0,76,5,12000,7.408,,,240,,,,,,,,,,,wg-a,,,,AAXX 04004 07280 12662 72404 10090 20050 39915 40189 50000 60006 875// 90000=
07280,1997-04-04 03:00:00,9,1019.8,0.8,71,4,12000,14.816,,,320,,,,,,,,,,,wg-a,,,,AAXX 04034 07280 12562 73208 10090 20040 39923 40198 53008 60006 875// 90300=
07280,1997-04-04 06:00:00,8,1022.8,2.8,66,2,15000,14.816,,,350,7.5,13.4,,,,,,,,,wg-a,,,,AAXX 04064 07280 02565 73508 10080 20020 39951 40228 53028 60006 85501 90600 333 10134 20075 60004=
07280,1997-04-04 09:00:00,9,1024.3,1.6,57,1,20000,22.224,,,20,,,,,,,,,,,wg-a,,,,AAXX 04094 07280 12670 50212 10090 20010 39967 40243 51016 60006 84201 90900=
07280,1997-04-04 12:00:00,11,1024.8,0.6,43,-1,20000,22.224,,,360,,,,,,,,,,,wg-a,,,,AAXX 04124 07280 12670 /3612 10110 21010 39973 40248 51006 60006 84201 91200=
07280,1997-04-04 18:00:00,8,1026.2,0.8,46,-3,500,25.928,,,340,7.5,11.4,,,,,,,,,wg-a,,,,AAXX 04184 07280 12700 73414 10080 21030 39985 40262 53008 60006 81101 91800 333 10114 20075=
07280,1997-04-04 21:00:00,4,1028.2,1.5,60,-3,20000,11.112,,,350,,,,,,,,,,,wg-a,,,,AAXX 04214 07280 12/70 03506 10040 21030 30000 40282 51015 60006 80000 92100=
07280,1997-04-05 00:00:00,2,1028.3,-0.1,75,-2,20000,11.112,,,340,,,,,,,,,,,wg-a,,,,AAXX 05004 07280 12/70 03406 10020 21020 39999 40283 55001 60006 80000 90000=
07280,1997-04-05 03:00:00,-2,1027.6,-1.1,93,-3,20000,3.704,,,300,,,,,,,,,,,wg-a,,,,AAXX 05034 07280 12/70 03002 11020 21030 39988 40276 56011 60006 80000 90300=
07280,1997-04-05 06:00:00,-1,1027.5,-0,86,-3,15000,7.408,,,300,-2.1,8.2,,,,,,,,,wg-a,,,,AAXX 05064 07280 02/65 33004 11010 21030 39988 40275 55000 60006 82031 90600 333 10082 21021 60004=
07280,1997-04-05 09:00:00,9,1026.1,-0.4,37,-5,20000,11.112,,,240,,,,,,,,,,,wg-a,,,,AAXX 05094 07280 12770 72406 10090 21050 39984 40261 58004 60006 8357/ 90900=
07280,1997-04-05 12:00:00,14,1022.9,-2.6,41,1,25000,22.224,,,230,,,,,,,,,,,wg-a,,,,AAXX 05124 07280 12/75 62312 10140 20010 39958 40229 58026 60006 85031 91200=
07280,1997-04-05 15:00:00,16,1019.7,-2.9,42,3,25000,18.52,,,240,,,,,,,,,,,wg-a,,,,AAXX 05154 07280 12/75 52410 10160 20030 39929 40197 58029 60006 80001 91500=
07280,1997-04-05 18:00:00,14,1019.6,-0.3,51,4,25000,18.52,,,280,-0.6,16.8,,,,,,,,,wg-a,,,,AAXX 05184 07280 12675 42810 10140 20040 39926 40196 55003 60006 83101 91800 333 10168 21006=
07280,1997-04-05 21:00:00,9,1020.6,0.5,66,3,20000,7.408,,,180,,,,,,,,,,,wg-a,,,,AAXX 05214 07280 12670 51804 10090 20030 39931 40206 50005 60006 82130 92100=
07280,1997-04-06 00:00:00,10,1021.3,0.8,71,5,15000,14.816,,,320,,,,,,,,,,,wg-a,,,,AAXX 06004 07280 12565 43208 10100 20050 39939 40213 52008 60006 84500 90000=
07280,1997-04-06 03:00:00,10,1020.4,-0.9,82,7,8000,3.704,,,280,,,,,,,,,,,wg-a,,,,AAXX 06034 07280 12558 72802 10100 20070 39930 40204 56009 60006 875// 90300=
07280,1997-04-06 06:00:00,9,1021.8,1.3,93,8,10000,7.408,,,320,8.5,14.1,,,,,,,,60,wg-a,,,,AAXX 06064 07280 02560 73204 10090 20080 39943 40218 53013 61000 76061 8487/ 90600 333 10141 20085 6001=
07280,1997-04-06 09:00:00,12,1022.2,0.7,82,9,12000,22.224,,,340,,,,0,,,,,,3,wg-a,,,,AAXX 06094 07280 12462 /3412 10120 20090 39950 40222 52007 60007 70362 86800 90900=
07280,1997-04-06 12:00:00,15,1022.6,0.6,59,7,20000,22.224,,,30,,,,,,,,,,1,wg-a,,,,AAXX 06124 07280 12670 30312 10150 20070 39956 40226 50006 60016 70161 83230 91200=
07280,1997-04-06 15:00:00,16,1021.9,-0.6,42,3,40000,25.928,,,10,,,,,,,,,,,wg-a,,,,AAXX 06154 07280 12782 20114 10160 20030 39950 40219 56006 60006 82200 91500=
07280,1997-04-06 18:00:00,12,1023.7,1.4,44,0,50000,18.52,,,30,9.1,16.5,,,,,,,,,wg-a,,,,AAXX 06184 07280 12/84 00310 10120 20000 39964 40237 53014 60006 80000 91800 333 10165 20091=
07280,1997-04-06 21:00:00,7,1026.6,2.3,53,-2,20000,22.224,,,20,,,,,,,,,,,wg-a,,,,AAXX 06214 07280 12/70 00212 10070 21020 39987 40266 51023 60006 80000 92100=
07280,1997-04-07 00:00:00,4,1027.4,0.5,65,-2,20000,22.224,,,20,,,,,,,,,,,wg-a,,,,AAXX 07004 07280 12/70 00212 10040 21020 39992 40274 51005 60006 80000 90000=
07280,1997-04-07 03:00:00,2,1027.4,-0.2,69,-3,20000,18.52,,,10,,,,,,,,,,,wg-a,,,,AAXX 07034 07280 12/70 00110 10020 21030 39990 40274 58002 60006 80000 90300=
07280,1997-04-07 06:00:00,2,1028.3,0.9,64,-4,50000,22.224,,,20,1.2,12.2,,,,,1,,,,wg-a,,,,AAXX 07064 07280 02/84 00212 10020 21040 39999 40283 53009 60006 80000 90600 333 10122 20012 60014=
07280,1997-04-07 12:00:00,13,1026.3,-0.8,33,-3,50000,35.188,,51.856,40,,,,,,,,,,,wg-a,,,,AAXX 07124 07280 12/84 20419 10130 21030 39990 40263 58008 60006 80001 91200 333 91028=
07280,1997-04-07 15:00:00,15,1024.9,-1.2,17,-10,50000,31.484,,,60,,,,,,,,,,,wg-a,,,,AAXX 07154 07280 12/84 30617 10150 21100 39978 40249 56012 60006 80001 91500=
07280,1997-04-07 18:00:00,13,1025.2,0.1,28,-5,40000,22.224,,,50,2.5,15.7,,,,,,,,,wg-a,,,,AAXX 07184 07280 12/82 20512 10130 21050 39979 40252 50001 60006 80001 91800 333 10157 20025=
07280,1997-04-07 21:00:00,6,1026.7,0.8,52,-3,500,18.52,,,10,,,,,,,,,,,wg-a,,,,AAXX 07214 07280 12/00 00110 10060 21030 39987 40267 50008 60006 80000 92100=
07280,1997-04-08 00:00:00,4,1025.9,-1,52,-5,25000,22.224,,,10,,,,,,,,,,,wg-a,,,,AAXX 08004 07280 12/75 00112 10040 21050 39977 40259 58010 60006 80000 90000=
07280,1997-04-08 03:00:00,2,1026.5,0.4,51,-7,25000,14.816,,,10,,,,,,,,,,,wg-a,,,,AAXX 08034 07280 12/75 00108 10020 21070 39981 40265 53004 60006 80000 90300=
07280,1997-04-08 06:00:00,2,1027.6,1,51,-7,40000,14.816,,,350,0.1,12.6,,,,,,,,,wg-a,,,,AAXX 08064 07280 02/82 13508 10020 21070 39991 40276 53010 60006 80001 90600 333 10126 20001 60004=
07280,1997-04-08 09:00:00,9,1027.6,0.7,43,-3,500,7.408,,,80,,,,,,,,,,,wg-a,,,,AAXX 08094 07280 12/00 10804 10090 21030 39998 40276 52007 60006 80001 90900=
07280,1997-04-08 12:00:00,15,1025.8,-1.1,39,1,25000,7.408,,,160,,,,,,,,,,,wg-a,,,,AAXX 08124 07280 12/75 11604 10150 20010 39987 40258 58011 60006 80001 91200=
07280,1997-04-08 15:00:00,18,1023.9,-1.6,37,3,20000,11.112,,,130,,,,,,,,,,,wg-a,,,,AAXX 08154 07280 12/70 11306 10180 20030 39971 40239 56016 60006 80001 91500=
07280,1997-04-08 18:00:00,15,1024.1,-0,44,3,20000,7.408,,,90,1.7,17.6,,,,,,,,,wg-a,,,,AAXX 08184 07280 12/70 20904 10150 20030 39971 40241 55000 60006 80001 91800 333 10176 20017=
07280,1997-04-08 21:00:00,10,1025.8,1.1,53,1,15000,11.112,,,350,,,,,,,,,,,wg-a,,,,AAXX 08214 07280 12/65 13506 10100 20010 39982 40258 51011 60006 80001 92100=
07280,1997-04-09 00:00:00,7,1027.1,1,61,0,12000,7.408,,,360,,,,,,,,,,,wg-a,,,,AAXX 09004 07280 12/62 03604 10070 20000 39992 40271 53010 60006 80000 90000=
07280,1997-04-09 03:00:00,3,1028.2,0.6,81,0,12000,0,,,0,,,,,,,,,,,wg-a,,,,AAXX 09034 07280 12/62 00000 10030 20000 39998 40282 53006 60006 80000 90300=
07280,1997-04-09 06:00:00,1,1029.3,0.9,86,-1,20000,3.704,,,60,0.6,15,,,,,,,,,wg-a,,,,AAXX 09064 07280 02/70 30602 10010 21010 30007 40293 53009 60006 80001 90600 333 10150 20006 60004=
07280,1997-04-09 09:00:00,12,1029.1,1,67,6,18000,18.52,,,200,,,,,,,,,,,wg-a,,,,AAXX 09094 07280 12/68 32010 10120 20060 30017 40291 51010 60006 80001 90900=
07280,1997-04-09 12:00:00,18,1028,-0.6,45,6,18000,22.224,,,200,,,,,,,,,,,wg-a,,,,AAXX 09124 07280 12/68 32012 10180 20060 30011 40280 58006 60006 80001 91200=
07280,1997-04-09 15:00:00,20,1026.9,-0.9,40,6,20000,14.816,,,200,,,,,,,,,,,wg-a,,,,AAXX 09154 07280 12770 42008 10200 20060 30002 40269 58009 60006 81101 91500=
07280,1997-04-09 18:00:00,17,1027.3,0.2,45,5,20000,11.112,,,180,0.9,20,,,,,,,,,wg-a,,,,AAXX 09184 07280 12/70 31806 10170 20050 30004 40273 53002 60006 80001 91800 333 10200 20009=
07280,1997-04-09 21:00:00,9,1029.1,1,81,6,20000,3.704,,,240,,,,,,,,,,,wg-a,,,,AAXX 09214 07280 12/70 02402 10090 20060 30014 40291 51010 60006 80000 92100=
07280,1997-04-10 00:00:00,7,1030.2,0.9,87,5,20000,0,,,0,,,,,,,,,,,wg-a,,,,AAXX 10004 07280 12/70 00000 10070 20050 30023 40302 52009 60006 80000 90000=
07280,1997-04-10 03:00:00,4,1030.3,-0.2,93,3,20000,0,,,0,,,,,,,,,,,wg-a,,,,AAXX 10034 07280 12/70 00000 10040 20030 30021 40303 58002 60006 80000 90300=
07280,1997-04-10 06:00:00,4,1031.3,0.9,100,4,6000,7.408,,,20,2.6,17,,,,,,,,11,wg-a,,,,AAXX 10064 07280 02/56 /0204 10040 20040 30030 40313 53009 60006 71100 80001 90600 333 10170 20026 60004=
07280,1997-04-10 09:00:00,14,1030.4,0.1,63,7,12000,3.704,,,120,,,,,,,,,,,wg-a,,,,AAXX 10094 07280 12/62 01202 10140 20070 30031 40304 52001 60006 80000 90900=
07280,1997-04-10 12:00:00,20,1028.7,-1.1,37,5,25000,11.112,,,50,,,,,,,,,,,wg-a,,,,AAXX 10124 07280 12/75 20506 10200 20050 30020 40287 58011 60006 80001 91200=
07280,1997-04-10 15:00:00,21,1026.7,,35,5,500,14.816,,,30,,,,,,,,,,,wg-a,,,,AAXX 10154 07280 32/00 30308 10210 20050 30002 40267 80001 91500=
07280,1997-04-10 18:00:00,18,1026.8,-0.2,39,4,500,11.112,,,40,3.9,21.4,,,,,,,,,wg-a,,,,AAXX 10184 07280 12/00 20406 10180 20040 30000 40268 56002 60006 80001 91800 333 10214 20039=
07280,1997-04-10 21:00:00,13,1028.1,0.8,51,3,20000,14.816,,,330,,,,,,,,,,,wg-a,,,,AAXX 10214 07280 12/70 23308 10130 20030 30008 40281 51008 60006 80001 92100=
07280,1997-04-11 00:00:00,9,1028,-0.5,61,2,12000,14.816,,,340,,,,,,,,,,,wg-a,,,,AAXX 11004 07280 12/62 03408 10090 20020 30003 40280 58005 60006 80000 90000=
07280,1997-04-11 03:00:00,6,1027.2,-1.1,70,1,12000,3.704,,,320,,,,,,,,,,,wg-a,,,,AAXX 11034 07280 12/62 03202 10060 20010 39992 40272 56011 60006 80000 90300=
07280,1997-04-11 06:00:00,6,1026.6,-0.6,70,1,15000,3.704,,,350,5.5,18,,,,,,,,,wg-a,,,,AAXX 11064 07280 02/65 73502 10060 20010 39986 40266 56006 60006 80001 90600 333 10180 20055 60004=
07280,1997-04-11 09:00:00,16,1025,-0.6,45,4,20000,3.704,,,120,,,,,,,,,,,wg-a,,,,AAXX 11094 07280 12/70 31202 10160 20040 39980 40250 58006 60006 80001 90900=
07280,1997-04-11 12:00:00,20,1022.1,-2.5,28,1,20000,18.52,,,300,,,,,,,,,,,wg-a,,,,AAXX 11124 07280 12/70 03010 10200 20010 39955 40221 58025 60006 80000 91200=
07280,1997-04-11 18:00:00,17,1019.9,,48,6,20000,29.632,,,360,5,20.4,,,,,,,,,wg-a,,,,AAXX 11184 07280 12/70 53616 10170 20060 39932 40199 60006 84031 91800 333 10204 20050=
07280,1997-04-11 21:00:00,10,1023.2,2.6,71,5,9000,25.928,,,10,,,,,,,,,,,wg-a,,,,AAXX 11214 07280 12759 80114 10100 20050 39958 40232 51026 60006 885// 92100=
07280,1997-04-12 00:00:00,6,1025,1.2,52,-3,15000,31.484,,,30,,,,,,,,,,,wg-a,,,,AAXX 12004 07280 12665 /0317 10060 21030 39970 40250 53012 60006 81500 90000=
07280,1997-04-12 03:00:00,2,1025.1,-0.2,64,-4,15000,22.224,,,10,,,,,,,,,,,wg-a,,,,AAXX 12034 07280 12/65 00112 10020 21040 39968 40251 58002 60006 80000 90300=
07280,1997-04-12 06:00:00,2,1025.7,0.6,69,-3,25000,25.928,,,20,1.4,16.9,,,,,,,,,wg-a,,,,AAXX 12064 07280 02/75 50214 10020 21030 39974 40257 53006 60006 80001 90600 333 10169 20014 60004=
07280,1997-04-12 09:00:00,7,1025.4,0.2,53,-2,25000,25.928,,,30,,,,,,,,,,,wg-a,,,,AAXX 12094 07280 12/75 40314 10070 21020 39976 40254 50002 60006 80002 90900=
07280,1997-04-12 12:00:00,10,1023.9,-1.2,37,-4,500,29.632,,,30,,,,,,,,,,,wg-a,,,,AAXX 12124 07280 12/00 30316 10100 21040 39964 40239 58012 60006 80001 91200=
07280,1997-04-12 15:00:00,12,1023.1,-0.6,40,-1,40000,31.484,,,40,,,,,,,,,,,wg-a,,,,AAXX 12154 07280 12782 20417 10120 21010 39958 40231 57006 60006 81101 91500=
07280,1997-04-12 18:00:00,8,1024.4,0.9,49,-2,40000,22.224,,,40,2.2,11.7,,,,,,,,,wg-a,,,,AAXX 12184 07280 12782 20412 10080 21020 39967 40244 53009 60006 815/1 91800 333 10117 20022=
07280,1997-04-12 21:00:00,5,1025.7,0.9,60,-2,20000,14.816,,,20,,,,,,,,,,,wg-a,,,,AAXX 12214 07280 12/70 00208 10050 21020 39976 40257 51009 60006 80000 92100=
07280,1997-04-13 00:00:00,3,1025.5,-0.3,70,-2,20000,14.816,,,20,,,,,,,,,,,wg-a,,,,AAXX 13004 07280 12/70 00208 10030 21020 39973 40255 58003 60006 80000 90000=
07280,1997-04-13 03:00:00,2,1024.9,-0.8,75,-2,20000,14.816,,,20,,,,,,,,,,,wg-a,,,,AAXX 13034 07280 12/70 00208 10020 21020 39965 40249 58008 60006 80000 90300=
07280,1997-04-13 06:00:00,2,1025.4,0.6,87,0,20000,18.52,,,20,1.2,8.3,,,,,,,,,wg-a,,,,AAXX 13064 07280 02/70 10210 10020 20000 39971 40254 53006 60006 80001 90600 333 10083 20012 60004=
07280,1997-04-13 09:00:00,9,1024.8,0.1,53,0,20000,22.224,,,50,,,,,,,,,,,wg-a,,,,AAXX 13094 07280 12670 /0512 10090 20000 39972 40248 50001 60006 81100 90900=
07280,1997-04-13 12:00:00,12,1023.4,-1.1,38,-2,500,25.928,,,60,,,,,,,,,,,wg-a,,,,AAXX 13124 07280 12/00 10614 10120 21020 39961 40234 58011 60006 80001 91200=
07280,1997-04-13 18:00:00,12,1021.9,-0.6,40,-1,500,18.52,,,20,2.3,13.8,,,,,,,,,wg-a,,,,AAXX 13184 07280 12/00 00210 10120 21010 39946 40219 56006 60006 80000 91800 333 10138 20023=
07280,1997-04-13 21:00:00,7,1023.1,0.7,57,-1,25000,18.52,,,10,,,,,,,,,,,wg-a,,,,AAXX 13214 07280 12/75 00110 10070 21010 39953 40231 51007 60006 80000 92100=
07280,1997-04-14 00:00:00,5,1023,-0.3,65,-1,20000,14.816,,,20,,,,,,,,,,,wg-a,,,,AAXX 14004 07280 12/70 00208 10050 21010 39950 40230 56003 60006 80000 90000=
07280,1997-04-14 03:00:00,4,1022.9,-0.2,65,-2,15000,14.816,,,10,,,,,,,,,,,wg-a,,,,AAXX 14034 07280 12/65 00108 10040 21020 39948 40229 56002 60006 80000 90300=
07280,1997-04-14 06:00:00,5,1023.4,0.6,60,-2,20000,18.52,,,20,2.2,11.6,,,,,,,,,wg-a,,,,AAXX 14064 07280 02/70 10210 10050 21020 39954 40234 53006 60006 80001 90600 333 10116 20022 60004=
07280,1997-04-14 09:00:00,11,1023.5,0.7,47,0,20000,18.52,,,40,,,,,,,,,,,wg-a,,,,AAXX 14094 07280 12/70 00410 10110 20000 39961 40235 51007 60006 80000 90900=
07280,1997-04-14 12:00:00,15,1022.3,-0.8,33,-1,25000,14.816,,,30,,,,,,,,,,,wg-a,,,,AAXX 14124 07280 12/75 00308 10150 21010 39953 40223 57008 60006 80000 91200=
07280,1997-04-14 15:00:00,17,1020.6,-1.5,34,1,500,14.816,,,360,,,,,,,,,,,wg-a,,,,AAXX 14154 07280 12/00 03608 10170 20010 39938 40206 56015 60006 80000 91500=
07280,1997-04-14 18:00:00,15,1020.7,-0.1,44,3,500,11.112,,,40,4.5,17.2,,,,,,,,,wg-a,,,,AAXX 14184 07280 12/00 00406 10150 20030 39937 40207 55001 60006 80000 91800 333 10172 20045=
07280,1997-04-14 21:00:00,10,1022.5,1.4,66,4,20000,14.816,,,10,,,,,,,,,,,wg-a,,,,AAXX 14214 07280 12/70 00108 10100 20040 39951 40225 51014 60006 80000 92100=
07280,1997-04-15 00:00:00,8,1023.1,0.4,76,4,20000,7.408,,,340,,,,,,,,,,,wg-a,,,,AAXX 15004 07280 12/70 03404 10080 20040 39955 40231 53004 60006 80000 90000=
07280,1997-04-15 03:00:00,7,1023,-0.3,81,4,9000,7.408,,,10,,,,,,,,,,,wg-a,,,,AAXX 15034 07280 12/59 00104 10070 20040 39952 40230 56003 60006 80000 90300=
07280,1997-04-15 06:00:00,7,1023.8,0.8,87,5,500,11.112,,,360,5.4,14.7,,,,,,,,,wg-a,,,,AAXX 15064 07280 02500 /3606 10070 20050 39960 40238 50008 60006 81500 90600 333 10147 20054 60004=
07280,1997-04-15 09:00:00,9,1024.5,0.9,66,3,12000,22.224,,,10,,,,,,,,,,,wg-a,,,,AAXX 15094 07280 12562 /0112 10090 20030 39969 40245 51009 60006 86500 90900=
07280,1997-04-15 12:00:00,13,1023.4,-0.7,44,1,25000,22.224,,,10,,,,,,,,,,,wg-a,,,,AAXX 15124 07280 12675 /0112 10130 20010 39962 40234 58007 60006 81100 91200=
07280,1997-04-15 15:00:00,13,1023.1,-0.3,38,-1,25000,25.928,,,40,,,,,,,,,,,wg-a,,,,AAXX 15154 07280 12/75 10414 10130 21010 39959 40231 55003 60006 80001 91500=
07280,1997-04-15 18:00:00,11,1023.9,0.6,43,-1,25000,18.52,,,40,7.2,13.8,,,,,,,,,wg-a,,,,AAXX 15184 07280 12/75 00410 10110 21010 39965 40239 53006 60006 80000 91800 333 10138 20072=
07280,1997-04-15 21:00:00,6,1025.4,1,56,-2,25000,18.52,,,20,,,,,,,,,,,wg-a,,,,AAXX 15214 07280 12/75 00210 10060 21020 39975 40254 51010 60006 80000 92100=
07280,1997-04-16 00:00:00,4,1025.4,-0.2,65,-2,20000,18.52,,,20,,,,,,,,,,,wg-a,,,,AAXX 16004 07280 12/70 00210 10040 21020 39973 40254 58002 60006 80000 90000=
07280,1997-04-16 03:00:00,3,1025.1,-0.5,70,-2,15000,14.816,,,20,,,,,,,,,,,wg-a,,,,AAXX 16034 07280 12/65 00208 10030 21020 39968 40251 56005 60006 80000 90300=
07280,1997-04-16 06:00:00,2,1025.2,0.1,75,-2,20000,14.816,,,10,1.5,11,,,,,,,,,wg-a,,,,AAXX 16064 07280 02/70 40108 10020 21020 39969 40252 53001 60006 80001 90600 333 10110 20015 60004=
07280,1997-04-16 09:00:00,8,1024.7,0.1,57,0,20000,18.52,,,30,,,,,,,,,,,wg-a,,,,AAXX 16094 07280 12670 50310 10080 20000 39970 40247 51001 60006 81101 90900=
07280,1997-04-16 12:00:00,11,1023.1,-1.3,40,-2,20000,22.224,,,10,,,,,,,,,,,wg-a,,,,AAXX 16124 07280 12770 /0112 10110 21020 39957 40231 58013 60006 81101 91200=
07280,1997-04-16 15:00:00,12,1020.9,-2,38,-2,20000,22.224,,,30,,,,,,,,,,,wg-a,,,,AAXX 16154 07280 12/70 70312 10120 21020 39937 40209 56020 60006 80001 91500=
07280,1997-04-16 18:00:00,10,1019.9,-1.2,37,-4,20000,22.224,,,20,2.3,12.6,,,,,,,,,wg-a,,,,AAXX 16184 07280 12/70 20212 10100 21040 39925 40199 56012 60006 80002 91800 333 10126 20023=
07280,1997-04-16 21:00:00,6,1020.2,-0.1,45,-5,20000,18.52,,,10,,,,,,,,,,,wg-a,,,,AAXX 16214 07280 12/70 00110 10060 21050 39924 40202 58001 60006 80000 92100=
07280,1997-04-17 00:00:00,3,1019.7,-0.8,52,-6,20000,18.52,,,20,,,,,,,,,,,wg-a,,,,AAXX 17004 07280 12/70 00210 10030 21060 39916 40197 58008 60006 80000 90000=
07280,1997-04-17 03:00:00,2,1018.4,-1.4,51,-7,20000,18.52,,,20,,,,,,,,,,,wg-a,,,,AAXX 17034 07280 12/70 30210 10020 21070 39902 40184 56014 60006 80002 90300=
07280,1997-04-17 06:00:00,3,1019.1,0.8,52,-6,20000,18.52,,,20,1,10,,,,,,,,,wg-a,,,,AAXX 17064 07280 02/70 10210 10030 21060 39910 40191 53008 60006 81030 90600 333 10100 20010 60004=
07280,1997-04-17 09:00:00,9,1018.7,0.2,34,-6,25000,31.484,,,60,,,,,,,,,,,wg-a,,,,AAXX 17094 07280 12775 30617 10090 21060 39912 40187 51002 60006 81102 90900=
07280,1997-04-17 12:00:00,12,1017.5,-0.9,26,-7,25000,31.484,,,40,,,,,,,,,,,wg-a,,,,AAXX 17124 07280 12775 20417 10120 21070 39903 40175 58009 60006 81101 91200=
07280,1997-04-17 15:00:00,13,1016.9,-0.5,24,-7,500,31.484,,,70,,,,,,,,,,,wg-a,,,,AAXX 17154 07280 12700 10717 10130 21070 39898 40169 56005 60006 81102 91500=
07280,1997-04-17 18:00:00,11,1018,0.9,30,-6,500,22.224,,,70,2.7,13.3,,,,,,,,,wg-a,,,,AAXX 17184 07280 12/00 00712 10110 21060 39907 40180 53009 60006 80000 91800 333 10133 20027=
07280,1997-04-17 21:00:00,5,1020.2,1.6,48,-5,20000,11.112,,,20,,,,,,,,,,,wg-a,,,,AAXX 17214 07280 12/70 00206 10050 21050 39923 40202 51016 60006 80000 92100=
07280,1997-04-18 00:00:00,4,1020.5,0.2,56,-4,15000,18.52,,,10,,,,,,,,,,,wg-a,,,,AAXX 18004 07280 12/65 00110 10040 21040 39925 40205 51002 60006 80000 90000=
07280,1997-04-18 03:00:00,2,1020.1,-0.6,64,-4,15000,18.52,,,10,,,,,,,,,,,wg-a,,,,AAXX 18034 07280 12/65 00110 10020 21040 39919 40201 56006 60006 80000 90300=
07280,1997-04-18 06:00:00,3,1020.4,0.4,65,-3,20000,14.816,,,20,1.5,10.8,,,,,,,,,wg-a,,,,AAXX 18064 07280 02/70 00208 10030 21030 39923 40204 53004 60006 80000 90600 333 10108 20015 60004=
07280,1997-04-18 12:00:00,13,1017.5,-1.4,38,-1,20000,11.112,,,30,,,,,,,,,,,wg-a,,,,AAXX 18124 07280 12/70 00306 10130 21010 39905 40175 58014 60006 80000 91200=
07280,1997-04-18 15:00:00,16,1014.7,-2.5,25,-4,20000,11.112,,,40,,,,,,,,,,,wg-a,,,,AAXX 18154 07280 12/70 00406 10160 21040 39880 40147 57025 60006 80000 91500=
07280,1997-04-18 18:00:00,14,1014,-0.9,36,-1,20000,7.408,,,90,3.3,16,,,,,,,,,wg-a,,,,AAXX 18184 07280 12/70 00904 10140 21010 39871 40140 56009 60006 80000 91800 333 10160 20033=
07280,1997-04-18 21:00:00,6,1014.7,0,61,-1,20000,7.408,,,330,,,,,,,,,,,wg-a,,,,AAXX 18214 07280 12/70 03304 10060 21010 39871 40147 50000 60006 80000 92100=
07280,1997-04-19 00:00:00,5,1014.1,-0.8,60,-2,20000,11.112,,,340,,,,,,,,,,,wg-a,,,,AAXX 19004 07280 12/70 03406 10050 21020 39863 40141 58008 60006 80000 90000=
07280,1997-04-19 03:00:00,2,1013,-1.3,75,-2,20000,7.408,,,340,,,,,,,,,,,wg-a,,,,AAXX 19034 07280 12/70 03404 10020 21020 39850 40130 57013 60006 80000 90300=
07280,1997-04-19 06:00:00,1,1013.3,0.1,80,-2,20000,3.704,,,190,-0.4,13.6,,,,,,,,,wg-a,,,,AAXX 19064 07280 02/70 01902 10010 21020 39851 40133 53001 60006 80000 90600 333 10136 21004 60004=
07280,1997-04-19 12:00:00,17,1008.5,-2.3,27,-2,20000,11.112,,,110,,,,,,,,,,,wg-a,,,,AAXX 19124 07280 12670 21106 10170 21020 39820 40085 58023 60006 82100 91200=
07280,1997-04-19 18:00:00,15,1006.2,-0,41,2,20000,25.928,,,20,0.7,18,,,,,,,,,wg-a,,,,AAXX 19184 07280 12770 60214 10150 20020 39796 40062 55000 60006 84130 91800 333 10180 20007=
07280,1997-04-19 21:00:00,10,1008.5,1.8,62,3,15000,22.224,,,20,,,,,,,,,,,wg-a,,,,AAXX 19214 07280 12765 30212 10100 20030 39814 40085 51018 60006 81130 92100=
07280,1997-04-20 00:00:00,8,1009.1,0.4,66,2,12000,22.224,,,10,,,,,,,,,,,wg-a,,,,AAXX 20004 07280 12/62 30112 10080 20020 39818 40091 51004 60006 83030 90000=
07280,1997-04-20 03:00:00,6,1009.1,-0.2,65,0,12000,22.224,,,10,,,,,,,,,,,wg-a,,,,AAXX 20034 07280 12762 30112 10060 20000 39816 40091 55002 60006 83500 90300=
07280,1997-04-20 06:00:00,3,1010.7,1.3,70,-2,15000,25.928,,,10,2.9,14.6,,,,,,,,,wg-a,,,,AAXX 20064 07280 02765 10114 10030 21020 39829 40107 53013 60006 81100 90600 333 10146 20029 60004=
07280,1997-04-20 09:00:00,7,1011.7,1.3,66,1,15000,29.632,,,20,,,,,,,,,,,wg-a,,,,AAXX 20094 07280 12565 /0216 10070 20010 39842 40117 53013 60006 86200 90900=
07280,1997-04-20 12:00:00,8,1011.9,0.4,71,3,15000,18.52,,,90,,,,0,,,,,,27,wg-a,,,,AAXX 20124 07280 02565 /0910 10080 20030 39846 40119 53004 60006 72787 82360 91200 333 60007=
07280,1997-04-20 15:00:00,11,1011.4,-0.3,37,-3,20000,22.224,,,50,,,,,,,,,,1,wg-a,,,,AAXX 20154 07280 02670 /0512 10110 21030 39843 40114 58003 61000 70186 85200 91500 333 ////=
07280,1997-04-20 18:00:00,9,1012.3,0.6,31,-7,500,22.224,,,30,3.1,11.2,,,,,,,,1,wg-a,,,,AAXX 20184 07280 12700 20312 10090 21070 39849 40123 51006 60006 70186 82100 91800 333 10112 20031=
07280,1997-04-20 21:00:00,4,1014.2,1.4,52,-5,20000,14.816,,,40,,,,,,,,,,,wg-a,,,,AAXX 20214 07280 12/70 00408 10040 21050 39863 40142 52014 60006 80000 92100=
07280,1997-04-21 00:00:00,1,1014.5,0.1,69,-4,20000,14.816,,,20,,,,,,,,,,,wg-a,,,,AAXX 21004 07280 12/70 00208 10010 21040 39864 40145 50001 60006 80000 90000=
07280,1997-04-21 03:00:00,1,1013.2,-1.3,75,-3,20000,18.52,,,20,,,,,,,,,,,wg-a,,,,AAXX 21034 07280 12/70 00210 10010 21030 39851 40132 56013 60006 80000 90300=
07280,1997-04-21 06:00:00,2,1012.9,-0.2,69,-3,20000,22.224,,,20,-0.1,8.5,,,,,,,,,wg-a,,,,AAXX 21064 07280 02/70 00212 10020 21030 39849 40129 55002 60006 80000 90600 333 10085 21001 60004=
07280,1997-04-21 09:00:00,8,1011.3,-1,39,-5,20000,31.484,,,50,,,,,,,,,,,wg-a,,,,AAXX 21094 07280 12/70 00517 10080 21050 39839 40113 58010 60006 80000 90900=
07280,1997-04-21 12:00:00,11,1009.5,-1.4,32,-5,20000,29.632,,50.004,30,,,,,,,,,,,wg-a,,,,AAXX 21124 07280 12/70 00316 10110 21050 39825 40095 58014 60006 80000 91200 333 91027=
07280,1997-04-21 15:00:00,13,1007.6,-1.8,24,-7,20000,29.632,,,30,,,,,,,,,,,wg-a,,,,AAXX 21154 07280 12/70 00316 10130 21070 39807 40076 56018 60006 80000 91500=
07280,1997-04-21 18:00:00,10,1008.1,0.3,37,-4,25000,29.632,,,10,1.7,12.9,,,,,,,,,wg-a,,,,AAXX 21184 07280 12/75 00116 10100 21040 39810 40081 53003 60006 80000 91800 333 10129 20017=
07280,1997-04-21 21:00:00,6,1009.7,1.1,42,-6,20000,18.52,,,10,,,,,,,,,,,wg-a,,,,AAXX 21214 07280 12/70 00110 10060 21060 39821 40097 51011 60006 80000 92100=
07280,1997-04-22 00:00:00,3,1010.1,0.2,52,-6,20000,14.816,,,20,,,,,,,,,,,wg-a,,,,AAXX 22004 07280 12/70 00208 10030 21060 39823 40101 52002 60006 80000 90000=
07280,1997-04-22 03:00:00,1,1010.8,0.5,55,-7,15000,14.816,,,10,,,,,,,,,,,wg-a,,,,AAXX 22034 07280 12/65 00108 10010 21070 39828 40108 53005 60006 80000 90300=
07280,1997-04-22 06:00:00,2,1012,1.2,60,-5,25000,11.112,,,340,0.3,10.3,,,,,,,,,wg-a,,,,AAXX 22064 07280 02/75 13406 10020 21050 39840 40120 53012 60006 80001 90600 333 10103 20003 60004=
07280,1997-04-22 09:00:00,9,1012.1,0.8,37,-5,500,22.224,,,50,,,,,,,,,,,wg-a,,,,AAXX 22094 07280 12600 10512 10090 21050 39848 40121 51008 60006 81100 90900=
07280,1997-04-22 12:00:00,12,1011.4,-0.4,26,-7,500,25.928,,,30,,,,,,,,,,,wg-a,,,,AAXX 22124 07280 12700 10314 10120 21070 39844 40114 57004 60006 81100 91200=
07280,1997-04-22 15:00:00,13,1011.4,0.1,28,-5,20000,25.928,,,40,,,,,,,,,,,wg-a,,,,AAXX 22154 07280 12870 30414 10130 21050 39845 40114 52001 60006 83400 91500=
07280,1997-04-22 18:00:00,11,1013.2,1.5,37,-3,20000,22.224,,,20,2,13.7,,,,,,,,,wg-a,,,,AAXX 22184 07280 12870 20212 10110 21030 39860 40132 53015 60006 82500 91800 333 10137 20020=
07280,1997-04-22 21:00:00,7,1015.4,1.8,49,-3,20000,14.816,,,10,,,,,,,,,,,wg-a,,,,AAXX 22214 07280 12/70 00108 10070 21030 39878 40154 51018 60006 80000 92100=
07280,1997-04-23 00:00:00,5,1016.6,1,56,-3,20000,18.52,,,360,,,,,,,,,,,wg-a,,,,AAXX 23004 07280 12/70 03610 10050 21030 39888 40166 51010 60006 80000 90000=
07280,1997-04-23 03:00:00,2,1017.4,0.5,69,-3,20000,11.112,,,10,,,,,,,,,,,wg-a,,,,AAXX 23034 07280 12/70 00106 10020 21030 39893 40174 53005 60006 80000 90300=
07280,1997-04-23 06:00:00,4,1018.6,1.3,70,-1,15000,14.816,,,350,0.9,10.5,,,,,,,,,wg-a,,,,AAXX 23064 07280 02/65 03508 10040 21010 39906 40186 53013 60006 80000 90600 333 10105 20009 60004=
07280,1997-04-23 09:00:00,9,1018.8,0.8,57,1,15000,11.112,,,30,,,,,,,,,,,wg-a,,,,AAXX 23094 07280 12/65 00306 10090 20010 39914 40188 51008 60006 80000 90900=
07280,1997-04-23 12:00:00,14,1018,-0.4,33,-2,20000,11.112,,,50,,,,,,,,,,,wg-a,,,,AAXX 23124 07280 12770 20506 10140 21020 39910 40180 58004 60006 81101 91200=
07280,1997-04-23 15:00:00,15,1017.1,-0.8,25,-5,20000,7.408,,,80,,,,,,,,,,,wg-a,,,,AAXX 23154 07280 12/70 30804 10150 21050 39902 40171 58008 60006 80001 91500=
07280,1997-04-23 18:00:00,13,1017.9,0.6,33,-3,20000,11.112,,,70,3.8,15.2,,,,,,,,,wg-a,,,,AAXX 23184 07280 12770 20706 10130 21030 39908 40179 53006 60006 81501 91800 333 10152 20038=
07280,1997-04-23 21:00:00,6,1020.3,1.7,61,-1,15000,7.408,,,350,,,,,,,,,,,wg-a,,,,AAXX 23214 07280 12/65 03504 10060 21010 39925 40203 51017 60006 80000 92100=
07280,1997-04-24 00:00:00,5,1021.1,0.7,60,-2,13000,11.112,,,350,,,,,,,,,,,wg-a,,,,AAXX 24004 07280 12/63 03506 10050 21020 39932 40211 51007 60006 80000 90000=
07280,1997-04-24 03:00:00,4,1021.5,0.2,65,-2,13000,7.408,,,350,,,,,,,,,,,wg-a,,,,AAXX 24034 07280 12/63 43504 10040 21020 39934 40215 53002 60006 80001 90300=
07280,1997-04-24 06:00:00,2,1022.7,1.1,80,-1,12000,3.704,,,10,0.9,13.1,,,,,,,,,wg-a,,,,AAXX 24064 07280 02/62 10102 10020 21010 39945 40227 53011 60006 80001 90600 333 10131 20009 60004=
07280,1997-04-24 12:00:00,17,1020.3,-1.4,32,0,15000,18.52,,,180,,,,,,,,,,,wg-a,,,,AAXX 24124 07280 12/65 61810 10170 20000 39936 40203 58014 60006 80001 91200=
07280,1997-04-24 18:00:00,17,1018,-0.9,29,-1,20000,11.112,,,180,2.2,19.3,,,,,,,,,wg-a,,,,AAXX 24184 07280 12/70 61806 10170 21010 39913 40180 56009 60006 80001 91800 333 10193 20022=
07280,1997-04-24 21:00:00,10,1019.5,0.8,50,0,20000,3.704,,,340,,,,,,,,,,,wg-a,,,,AAXX 24214 07280 12/70 23402 10100 20000 39921 40195 51008 60006 80001 92100=
07280,1997-04-25 00:00:00,5,1020.5,0.5,75,1,15000,3.704,,,300,,,,,,,,,,,wg-a,,,,AAXX 25004 07280 12/65 43002 10050 20010 39926 40205 50005 60006 80001 90000=
07280,1997-04-25 03:00:00,2,1020.5,-0.3,87,0,12000,0,,,0,,,,,,,,,,,wg-a,,,,AAXX 25034 07280 12/62 30000 10020 20000 39923 40205 56003 60006 81031 90300=
07280,1997-04-25 06:00:00,4,1021.1,0.8,87,2,10000,3.704,,,190,1.4,16.8,,,,,,,,,wg-a,,,,AAXX 25064 07280 02/60 61902 10040 20020 39931 40211 53008 60006 80001 90600 333 10168 20014 60004=
07280,1997-04-25 09:00:00,15,1020,0,48,4,12000,18.52,,,190,,,,,,,,,,,wg-a,,,,AAXX 25094 07280 12/62 61910 10150 20040 39931 40200 50000 60006 80001 90900=
07280,1997-04-25 12:00:00,20,1017.3,-2.2,35,4,15000,22.224,,,190,,,,,,,,,,,wg-a,,,,AAXX 25124 07280 12/65 61912 10200 20040 39909 40173 58022 60006 81032 91200=
07280,1997-04-25 15:00:00,21,1014.7,-2.4,33,4,20000,25.928,,,190,,,,,,,,,,,wg-a,,,,AAXX 25154 07280 12770 71914 10210 20040 39885 40147 58024 60006 81131 91500=
07280,1997-04-25 18:00:00,19,1014.4,-0.5,49,8,15000,14.816,,,240,3.8,22,,,,,,,,60,wg-a,,,,AAXX 25184 07280 02765 82408 10190 20080 39880 40144 55005 61000 76062 8657/ 91800 333 10220 20038 6100=
07280,1997-04-25 21:00:00,12,1017.7,2.6,82,9,10000,11.112,,,320,,,,0,,,,,,21,wg-a,,,,AAXX 25214 07280 12560 83206 10120 20090 39906 40177 51026 60007 72162 888// 92100=
07280,1997-04-26 00:00:00,11,1017.8,0,94,10,6000,11.112,,,170,,,,0,,,,,,21,wg-a,,,,AAXX 26004 07280 02256 81706 10110 20100 39906 40178 50000 60016 72162 888// 90000 333 60007=
07280,1997-04-26 06:00:00,11,1017.7,0.5,100,11,1500,11.112,,,190,10.3,19.1,,,,,1,,,10,wg-a,,,,AAXX 26064 07280 02215 71906 10110 20110 39905 40177 53005 60006 71062 875// 90600 333 10191 20103 60014=
07280,1997-04-26 09:00:00,13,1017.1,-0.3,94,12,6000,14.816,,,180,,,,,,,,,,,wg-a,,,,AAXX 26094 07280 12356 /1808 10130 20120 39902 40171 58003 60006 878// 90900=
07280,1997-04-26 12:00:00,15,1014.9,-2,77,11,20000,14.816,,,190,,,,,,,,,,,wg-a,,,,AAXX 26124 07280 12570 81908 10150 20110 39882 40149 58020 60006 85202 91200=
07280,1997-04-26 15:00:00,14,1012.7,-2.3,94,13,7000,11.112,,,230,,,,1,,,,,,61,wg-a,,,,AAXX 26154 07280 12457 82306 10140 20130 39859 40127 57023 60017 76186 8412/ 91500=
07280,1997-04-26 18:00:00,13,1010,-2.6,100,13,3000,7.408,,,160,11.2,15.8,,,,,,,,10,wg-a,,,,AAXX 26184 07280 02230 81604 10130 20130 39833 40100 56026 61000 71086 877// 91800 333 10158 20112 6002=
07280,1997-04-26 21:00:00,12,1009.7,-0.5,94,11,6000,22.224,,,240,,,,2,,,,,,17,wg-a,,,,AAXX 26214 07280 12256 82412 10120 20110 39828 40097 58005 60027 71798 889// 92100=
07280,1997-04-27 00:00:00,11,1010.4,0.6,87,9,12000,25.928,,,270,,,,0,,,,,,61,wg-a,,,,AAXX 27004 07280 02562 82714 10110 20090 39834 40104 53006 60036 76198 885// 90000 333 60007=
07280,1997-04-27 03:00:00,9,1009.3,-1.3,93,8,15000,7.408,,,140,,,,,,,,,,3,wg-a,,,,AAXX 27034 07280 02665 71404 10090 20080 39821 40093 56013 61000 70362 875// 90300 333 ////=
07280,1997-04-27 06:00:00,9,1009.9,0.6,93,8,500,11.112,,,200,8.7,13.3,,,,,,,,21,wg-a,,,,AAXX 27064 07280 02400 72006 10090 20080 39827 40099 53006 61000 72162 8587/ 90600 333 10133 20087 6011=
07280,1997-04-27 09:00:00,13,1010.8,1.2,77,9,500,11.112,,,270,,,,,,,,,,,wg-a,,,,AAXX 27094 07280 12400 72706 10130 20090 39839 40108 53012 60006 878// 90900=
07280,1997-04-27 12:00:00,15,1010.9,0.3,63,8,20000,22.224,,,280,,,,,,,,,,15,wg-a,,,,AAXX 27124 07280 12570 72812 10150 20080 39842 40109 51003 60006 71522 86901 91200=
07280,1997-04-27 18:00:00,13,1014.1,1.9,77,9,15000,18.52,,,340,9.1,16,,,,,,,,80,wg-a,,,,AAXX 27184 07280 02465 /3410 10130 20090 39872 40141 53019 61000 78086 86800 91800 333 10160 20091 6000=
07280,1997-04-27 21:00:00,11,1016.8,2.4,87,9,20000,3.704,,,280,,,,,,,,,,1,wg-a,,,,AAXX 27214 07280 02670 82802 10110 20090 39896 40168 51024 61000 70186 888// 92100 333 ////=
07280,1997-04-28 00:00:00,11,1017.7,0.9,94,10,20000,11.112,,,200,,,,0,,,,,,21,wg-a,,,,AAXX 28004 07280 02570 82006 10110 20100 39905 40177 51009 60006 72186 888// 90000 333 60007=
07280,1997-04-28 03:00:00,9,1018.2,0.3,100,9,2500,11.112,,,200,,,,,,,,,,10,wg-a,,,,AAXX 28034 07280 12/25 02006 10090 20090 39908 40182 53003 60006 71001 80000 90300=
07280,1997-04-28 06:00:00,9,1018.3,0.1,100,9,500,14.816,,,190,8.2,12.7,,,,,,,,10,wg-a,,,,AAXX 28064 07280 02200 71908 10090 20090 39909 40183 53001 61000 71064 875// 90600 333 10127 20082 6001=
07280,1997-04-28 12:00:00,13,1016.2,-1.7,94,12,12000,25.928,,,200,,,,0,,,,,,10,wg-a,,,,AAXX 28124 07280 02362 /2014 10130 20120 39892 40162 56017 60016 71065 878// 91200 333 60007=
07280,1997-04-28 15:00:00,15,1014.7,-1.2,88,13,15000,22.224,,,200,,,,,,,,,,,wg-a,,,,AAXX 28154 07280 12465 82012 10150 20130 39880 40147 58012 60006 82802 91500=
07280,1997-04-28 18:00:00,16,1013.2,-1.4,77,12,20000,18.52,,,220,9,15.9,,,,,,,,,wg-a,,,,AAXX 28184 07280 12670 82210 10160 20120 39866 40132 58014 60006 84502 91800 333 10159 20090=
07280,1997-04-28 21:00:00,13,1014,0.5,82,10,20000,22.224,,,240,,,,,,,,,,,wg-a,,,,AAXX 28214 07280 12670 /2412 10130 20100 39871 40140 51005 60006 81500 92100=
07280,1997-04-29 03:00:00,10,1014.4,-0,82,7,15000,18.52,,,290,,,,1,,,,,,,wg-a,,,,AAXX 29034 07280 12665 72910 10100 20070 39872 40144 55000 60017 84501 90300=
07280,1997-04-29 06:00:00,10,1015.7,1.2,87,8,12000,11.112,,,260,9.5,15.5,,,,,,,,25,wg-a,,,,AAXX 29064 07280 02462 72606 10100 20080 39884 40157 53012 61000 72586 878// 90600 333 10155 20095 6002=
07280,1997-04-29 12:00:00,14,1016.2,0.2,72,9,15000,29.632,,46.3,300,,,,,,,,,,3,wg-a,,,,AAXX 29124 07280 12565 /3016 10140 20090 39893 40162 50002 60006 70386 86200 91200 333 91025=
07280,1997-04-29 18:00:00,13,1017.3,1,72,8,20000,11.112,,,330,9.6,15.9,,,,,,,,25,wg-a,,,,AAXX 29184 07280 02570 73306 10130 20080 39903 40173 53010 61000 72586 878// 91800 333 10159 20096 6100=
07280,1997-04-29 21:00:00,11,1018.8,1.3,76,7,11000,18.52,,,300,,,,0,,,,,,0,wg-a,,,,AAXX 29214 07280 12/61 /3010 10110 20070 39916 40188 51013 60007 700// 92100=
07280,1997-04-30 00:00:00,11,1019.9,1,76,7,20000,11.112,,,320,,,,,,,,,,3,wg-a,,,,AAXX 30004 07280 12670 83206 10110 20070 39926 40199 51010 60006 70386 885// 90000=
07280,1997-04-30 03:00:00,10,1020.2,0.2,82,7,20000,11.112,,,320,,,,,,,,,,1,wg-a,,,,AAXX 30034 07280 02770 73206 10100 20070 39928 40202 53002 61000 70162 875// 90300 333 ////=
07280,1997-04-30 06:00:00,10,1022.3,2,87,8,12000,11.112,,,350,8.2,12.7,,,,,1,,,1,wg-a,,,,AAXX 30064 07280 02/62 13506 10100 20080 39948 40223 53020 60006 70161 81030 90600 333 10127 20082 60014=
07280,1997-04-30 09:00:00,13,1023.3,1.3,67,7,13000,22.224,,,30,,,,,,,,,,,wg-a,,,,AAXX 30094 07280 12563 40312 10130 20070 39961 40233 51013 60006 84200 90900=
07280,1997-04-30 12:00:00,15,1023.8,0.7,59,7,20000,22.224,,,340,,,,,,,,,,,wg-a,,,,AAXX 30124 07280 12570 73412 10150 20070 39968 40238 51007 60006 878// 91200=
07280,1997-04-30 15:00:00,16,1023.7,0,55,7,25000,18.52,,,20,,,,,,,,,,,wg-a,,,,AAXX 30154 07280 12675 50210 10160 20070 39968 40237 50000 60006 85800 91500=
07280,1997-04-30 18:00:00,14,1024.9,1,63,7,25000,22.224,,,10,9.6,16.2,,,,,,,,,wg-a,,,,AAXX 30184 07280 12675 30112 10140 20070 39978 40249 53010 60006 83800 91800 333 10162 20096=
07280,1997-04-30 21:00:00,11,1026.9,1.6,76,7,20000,14.816,,,10,,,,,,,,,,,wg-a,,,,AAXX 30214 07280 12770 10108 10110 20070 39994 40269 51016 60006 81500 92100=
07280,1997-05-01 00:00:00,8,1027.6,0.4,87,6,20000,14.816,,,20,,,,,,,,,,,wg-a,,,,AAXX 01004 07280 12/70 00208 10080 20060 39998 40276 51004 60006 80000 90000=
07280,1997-05-01 03:00:00,7,1027.7,-0,87,5,20000,14.816,,,20,,,,,,,,,,,wg-a,,,,AAXX 01034 07280 12/70 00208 10070 20050 39998 40277 55000 60006 80000 90300=
07280,1997-05-01 06:00:00,8,1028.6,1,81,5,10000,18.52,,,20,6.1,14.2,,,,,,,,,wg-a,,,,AAXX 01064 07280 02/60 00210 10080 20050 30008 40286 53010 60006 80000 90600 333 10142 20061 60004=
07280,1997-05-01 09:00:00,14,1028,0,58,6,12000,25.928,,,50,,,,,,,,,,,wg-a,,,,AAXX 01094 07280 12562 /0514 10140 20060 30008 40280 50000 60006 81100 90900=
07280,1997-05-01 12:00:00,17,1027,-0.7,45,5,15000,29.632,,,50,,,,,,,,,,,wg-a,,,,AAXX 01124 07280 12665 /0516 10170 20050 30001 40270 56007 60006 81100 91200=
07280,1997-05-01 15:00:00,19,1025.2,-1.6,43,6,20000,29.632,,,60,,,,,,,,,,,wg-a,,,,AAXX 01154 07280 12770 10616 10190 20060 39985 40252 58016 60006 81100 91500=
07280,1997-05-01 18:00:00,17,1024.9,-0.5,48,6,20000,14.816,,,60,7.9,19.3,,,,,,,,,wg-a,,,,AAXX 01184 07280 12/70 10608 10170 20060 39980 40249 55005 60006 80001 91800 333 10193 20079=
07280,1997-05-01 21:00:00,12,1026.4,1.1,67,6,20000,14.816,,,30,,,,,,,,,,,wg-a,,,,AAXX 01214 07280 12/70 00308 10120 20060 39991 40264 51011 60006 80000 92100=
07280,1997-05-02 00:00:00,9,1026.4,-0.3,81,6,15000,18.52,,,10,,,,,,,,,,,wg-a,,,,AAXX 02004 07280 12/65 00110 10090 20060 39988 40264 58003 60006 80000 90000=
07280,1997-05-02 03:00:00,6,1026.9,0.2,87,4,15000,11.112,,,360,,,,,,,,,,,wg-a,,,,AAXX 02034 07280 12/65 03606 10060 20040 39990 40269 53002 60006 80000 90300=
07280,1997-05-02 06:00:00,9,1028.1,1.4,81,6,12000,7.408,,,20,6.2,16.4,,,,,,,,,wg-a,,,,AAXX 02064 07280 02/62 10204 10090 20060 30004 40281 53014 60006 80001 90600 333 10164 20062 60004=
07280,1997-05-02 09:00:00,15,1027.5,0.1,67,9,15000,3.704,,,110,,,,,,,,,,,wg-a,,,,AAXX 02094 07280 12/65 01102 10150 20090 30005 40275 50001 60006 80000 90900=
07280,1997-05-02 12:00:00,21,1025,-2,49,10,20000,7.408,,,170,,,,,,,,,,,wg-a,,,,AAXX 02124 07280 12/70 11704 10210 20100 39985 40250 58020 60006 80001 91200=
07280,1997-05-02 15:00:00,23,1022.9,-1.9,41,9,25000,7.408,,,120,,,,,,,,,,,wg-a,,,,AAXX 02154 07280 12/75 21204 10230 20090 39966 40229 58019 60006 80001 91500=
07280,1997-05-02 18:00:00,21,1022.3,-0.7,49,10,25000,7.408,,,110,8.9,22.8,,,,,,,,,wg-a,,,,AAXX 02184 07280 12/75 11104 10210 20100 39959 40223 56007 60006 8/001 91800 333 10228 20089=
07280,1997-05-02 21:00:00,14,1023,0,67,8,20000,3.704,,,20,,,,,,,,,,,wg-a,,,,AAXX 02214 07280 12/70 00202 10140 20080 39959 40230 50000 60006 80000 92100=
07280,1997-05-03 00:00:00,10,1022.7,-0.6,82,7,12000,3.704,,,320,,,,,,,,,,,wg-a,,,,AAXX 03004 07280 12/62 03202 10100 20070 39953 40227 56006 60006 80000 90000=
07280,1997-05-03 06:00:00,9,1022.5,0.1,93,8,20000,3.704,,,150,5.2,21.1,,,,,,,,,wg-a,,,,AAXX 03064 07280 02/70 11502 10090 20080 39949 40225 53001 60006 80001 90600 333 10211 20052 60004=
07280,1997-05-03 09:00:00,18,1020.3,-1.2,52,8,25000,18.52,,,210,,,,,,,,,,,wg-a,,,,AAXX 03094 07280 12/75 12110 10180 20080 39937 40203 57012 60006 80001 90900=
07280,1997-05-03 12:00:00,23,1017.7,-2.2,33,6,500,18.52,,,190,,,,,,,,,,,wg-a,,,,AAXX 03124 07280 12/00 11910 10230 20060 39915 40177 58022 60006 80001 91200=
07280,1997-05-03 18:00:00,22,1014.7,-0.9,38,7,40000,11.112,,,180,8.6,25.1,,,,,,,,,wg-a,,,,AAXX 03184 07280 12782 71806 10220 20070 39886 40147 56009 60006 81532 91800 333 10251 20086=
07280,1997-05-03 21:00:00,17,1016,0.8,55,8,500,7.408,,,230,,,,,,,,,,,wg-a,,,,AAXX 03214 07280 12600 82304 10170 20080 39894 40160 52008 60006 8357/ 92100=
07280,1997-05-04 00:00:00,18,1015.5,-0.3,68,12,20000,7.408,,,290,,,,,,,,,,1,wg-a,,,,AAXX 04004 07280 02/70 82904 10180 20120 39891 40155 55003 61000 70162 8707/ 90000 333 6100=
07280,1997-05-04 03:00:00,15,1014.7,-1.1,77,11,20000,11.112,,,250,,,,,,,,,,,wg-a,,,,AAXX 04034 07280 12/70 12506 10150 20110 39880 40147 56011 60006 81030 90300=
07280,1997-05-04 06:00:00,15,1014.4,-0.3,88,13,15000,11.112,,,230,12.6,22,,,,,,,,,wg-a,,,,AAXX 04064 07280 02765 42306 10150 20130 39877 40144 56003 60006 82580 90600 333 10220 20126 61000=
07280,1997-05-04 09:00:00,20,1013,-0.9,68,14,20000,14.816,,,180,,,,,,,,,,,wg-a,,,,AAXX 04094 07280 12670 21808 10200 20140 39868 40130 58009 60006 81180 90900=
07280,1997-05-04 12:00:00,23,1010.3,-2.4,53,13,25000,22.224,,,220,,,,,,,,,,,wg-a,,,,AAXX 04124 07280 12675 /2212 10230 20130 39844 40103 57024 60006 85200 91200=
07280,1997-05-04 15:00:00,24,1008,-2.2,44,11,25000,25.928,,,220,,,,,,,,,,,wg-a,,,,AAXX 04154 07280 12775 32214 10240 20110 39822 40080 58022 60006 83101 91500=
07280,1997-05-04 18:00:00,22,1005.8,-2.3,53,12,20000,11.112,,,190,14.7,24.7,,,,,,,,,wg-a,,,,AAXX 04184 07280 12770 31906 10220 20120 39799 40058 56023 60006 81963 91800 333 10247 20147=
07280,1997-05-05 00:00:00,14,1003.5,-2.6,94,13,15000,7.408,,,200,,,,0,,,,,,25,wg-a,,,,AAXX 05004 07280 02765 72004 10140 20130 39770 40035 58026 60006 72598 875// 90000 333 60007=
07280,1997-05-05 03:00:00,14,999.8,-3.6,94,13,15000,11.112,,,170,,,,0,,,,,,,wg-a,,,,AAXX 05034 07280 12765 71706 10140 20130 39734 49998 56036 60007 875// 90300=
07280,1997-05-05 06:00:00,11,1001.4,1.3,94,10,500,18.52,,,240,11,22,,,,,,,,63,wg-a,,,,AAXX 05064 07280 02400 82410 10110 20100 39747 40014 53013 61000 76362 875// 90600 333 10220 20110 6005=
07280,1997-05-05 09:00:00,13,1002.1,0.8,88,11,20000,25.928,,,190,,,,3,,,,,,21,wg-a,,,,AAXX 05094 07280 12370 81914 10130 20110 39755 40021 51008 60037 72162 888// 90900=
07280,1997-05-05 12:00:00,14,1001.3,-0.6,82,11,25000,31.484,,50.004,190,,,,,,,,,,3,wg-a,,,,AAXX 05124 07280 12475 71917 10140 20110 39749 40013 58006 60036 70362 878// 91200 333 91027=
07280,1997-05-05 15:00:00,17,998.5,-2.5,72,12,25000,35.188,,,200,,,,2,,,,,,3,wg-a,,,,AAXX 05154 07280 12575 /2019 10170 20120 39724 49985 57025 60027 70386 82801 91500=
07280,1997-05-05 18:00:00,12,998.2,-0.7,94,11,12000,14.816,,,220,11.1,17.7,,2,,,,,,17,wg-a,,,,AAXX 05184 07280 02362 72208 10120 20110 39717 49982 55007 60006 71798 8396/ 91800 333 10177 20111 60027=
07280,1997-05-05 21:00:00,12,998,-0.3,94,11,20000,22.224,,,200,,,,,,,,,,60,wg-a,,,,AAXX 05214 07280 02370 42012 10120 20110 39714 49980 56003 61000 76098 84800 92100 333 ////=
07280,1997-05-06 00:00:00,11,996.4,-1.6,94,10,15000,14.816,,,190,,,,,,,,,,3,wg-a,,,,AAXX 06004 07280 02265 81908 10110 20100 39698 49964 58016 61000 70398 84801 90000 333 6100=
07280,1997-05-06 06:00:00,12,991.7,-0.9,88,10,25000,11.112,,,250,10.8,12.7,,,,,,,,21,wg-a,,,,AAXX 06064 07280 02475 82506 10120 20100 39653 49917 55009 61000 72162 878// 90600 333 10127 20108 6009=
07280,1997-05-06 09:00:00,11,994.5,2.6,76,7,25000,29.632,,,210,,,,,,,,,,25,wg-a,,,,AAXX 06094 07280 02575 82116 10110 20070 39679 49945 51026 61000 72586 872// 90900 333 ////=
07280,1997-05-06 12:00:00,11,993.5,-1,87,9,8000,31.484,,,190,,,,0,,,,,,80,wg-a,,,,AAXX 06124 07280 02458 81917 10110 20090 39669 49935 55010 60006 78086 882// 91200 333 60007=
07280,1997-05-06 15:00:00,11,993.2,-0.3,87,9,8000,22.224,,,200,,,,4,,,,,,25,wg-a,,,,AAXX 06154 07280 12358 72012 10110 20090 39666 49932 58003 60047 72586 879// 91500=
07280,1997-05-06 18:00:00,8,997.2,3.6,81,5,10000,31.484,,57.412,270,7.6,13,,,,,,,,25,wg-a,,,,AAXX 06184 07280 02560 72717 10080 20050 39702 49972 53036 61000 72586 872// 91800 333 10130 20076 6002 91031=
07280,1997-05-07 00:00:00,5,1005.4,1.8,87,3,15000,14.816,,,290,,,,0,,,,,,25,wg-a,,,,AAXX 07004 07280 02465 72908 10050 20030 39779 40054 51018 60016 72586 878// 90000 333 60007=
07280,1997-05-07 03:00:00,4,1005,-0.5,93,3,15000,3.704,,,180,,,,1,,,,,,,wg-a,,,,AAXX 07034 07280 12565 71802 10040 20030 39774 40050 58005 60017 878// 90300=
07280,1997-05-07 06:00:00,4,1004.6,-0.3,93,3,15000,11.112,,,180,3.4,7.6,,,,,7,,,3,wg-a,,,,AAXX 07064 07280 02265 71806 10040 20030 39771 40046 55003 60006 70386 878// 90600 333 10076 20034 60074=
07280,1997-05-07 09:00:00,7,1003.6,-0.7,61,0,500,11.112,,,190,,,,,,,,,,,wg-a,,,,AAXX 07094 07280 12500 71906 10070 20000 39764 40036 58007 60006 84202 90900=
07280,1997-05-07 12:00:00,10,1002.2,-1.2,57,2,500,11.112,,,140,,,,,,,,,,,wg-a,,,,AAXX 07124 07280 12600 81406 10100 20020 39752 40022 58012 60006 85872 91200=
07280,1997-05-07 15:00:00,11,1000.8,-1.2,54,2,40000,14.816,,,200,,,,,,,,,,,wg-a,,,,AAXX 07154 07280 12682 62008 10110 20020 39740 40008 58012 60006 84231 91500=
07280,1997-05-07 18:00:00,7,1001.8,0.6,87,5,12000,22.224,,,300,4,12.2,,,,,,,,80,wg-a,,,,AAXX 07184 07280 02462 83012 10070 20050 39746 40018 53006 61000 78086 878// 91800 333 10122 20040 6100=
07280,1997-05-07 21:00:00,6,1004.5,2.5,75,2,20000,18.52,,,300,,,,0,,,,,,1,wg-a,,,,AAXX 07214 07280 12470 /3010 10060 20020 39771 40045 51025 60007 70186 85800 92100=
07280,1997-05-08 00:00:00,5,1006.6,2,81,2,20000,18.52,,,310,,,,,,,,,,3,wg-a,,,,AAXX 08004 07280 12470 73110 10050 20020 39791 40066 53020 60006 70386 872// 90000=
07280,1997-05-08 03:00:00,3,1008.6,1.7,87,1,20000,11.112,,,290,,,,,,,,,,,wg-a,,,,AAXX 08034 07280 12570 32906 10030 20010 39808 40086 51017 60006 83101 90300=
07280,1997-05-08 06:00:00,5,1010,1.6,75,1,20000,11.112,,,270,1.4,7.1,,,,,,,,,wg-a,,,,AAXX 08064 07280 02570 42706 10050 20010 39824 40100 53016 60006 82201 90600 333 10071 20014 60004=
07280,1997-05-08 09:00:00,8,1010.1,0.4,66,2,25000,18.52,,,210,,,,,,,,,,,wg-a,,,,AAXX 08094 07280 12575 72110 10080 20020 39828 40101 50004 60006 86201 90900=
07280,1997-05-08 12:00:00,11,1009.3,-0.5,50,1,500,22.224,,,210,,,,,,,,,,,wg-a,,,,AAXX 08124 07280 12600 72112 10110 20010 39823 40093 58005 60006 85201 91200=
07280,1997-05-08 15:00:00,11,1008.1,-1.2,50,1,500,25.928,,,190,,,,,,,,,,,wg-a,,,,AAXX 08154 07280 12600 71914 10110 20010 39811 40081 56012 60006 874// 91500=
07280,1997-05-08 18:00:00,10,1008.1,-0.1,62,3,20000,18.52,,,180,4.9,11.7,,,,,,,,60,wg-a,,,,AAXX 08184 07280 02670 71810 10100 20030 39810 40081 55001 61000 76062 874// 91800 333 10117 20049 6100=
07280,1997-05-09 00:00:00,7,1006.9,-1.3,93,6,12000,22.224,,,190,,,,0,,,,,,61,wg-a,,,,AAXX 09004 07280 02462 81912 10070 20060 39796 40069 58013 60006 76162 885// 90000 333 60007=
07280,1997-05-09 03:00:00,8,1004.5,-2.3,87,6,15000,25.928,,,200,,,,1,,,,,,61,wg-a,,,,AAXX 09034 07280 12465 82014 10080 20060 39773 40045 58023 60017 76162 888// 90300=
07280,1997-05-09 06:00:00,8,1005.3,0.9,93,7,9000,25.928,,44.448,210,7.3,9.7,,,,,,,,61,wg-a,,,,AAXX 09064 07280 02459 82114 10080 20070 39782 40053 53009 61000 76162 888// 90600 333 10097 20073 6005 91024=
07280,1997-05-09 09:00:00,9,1006.3,1,87,7,15000,18.52,,,200,,,,1,,,,,,3,wg-a,,,,AAXX 09094 07280 12465 82010 10090 20070 39792 40063 53010 60017 70362 8587/ 90900=
07280,1997-05-09 12:00:00,12,1007,1,71,7,25000,25.928,,46.3,240,,,,0,,,,,,80,wg-a,,,,AAXX 09124 07280 02575 62414 10120 20070 39802 40070 51010 60026 78086 86200 91200 333 60007 91025=
07280,1997-05-09 15:00:00,14,1007.6,0.7,72,9,20000,31.484,,,210,,,,5,,,,,,27,wg-a,,,,AAXX 09154 07280 12570 /2117 10140 20090 39809 40076 50007 60057 72787 85900 91500=
07280,1997-05-09 18:00:00,13,1009.6,1.9,67,7,20000,18.52,,,220,7.7,14.1,,3,,,,,,1,wg-a,,,,AAXX 09184 07280 02670 32210 10130 20070 39828 40096 51019 60006 70187 83400 91800 333 10141 20077 60037=
07280,1997-05-09 21:00:00,9,1013.2,3.1,87,7,10000,14.816,,,250,,,,1,,,,,,81,wg-a,,,,AAXX 09214 07280 12560 72508 10090 20070 39859 40132 53031 60017 78186 874// 92100=
07280,1997-05-10 00:00:00,7,1014.9,1.5,93,6,20000,18.52,,,210,,,,,,,,,,1,wg-a,,,,AAXX 10004 07280 12/70 02110 10070 20060 39874 40149 53015 60016 70186 80000 90000=
07280,1997-05-10 03:00:00,8,1014.8,-0,93,7,12000,18.52,,,230,,,,0,,,,,,80,wg-a,,,,AAXX 10034 07280 12562 72310 10080 20070 39874 40148 54000 60007 78086 878// 90300=
07280,1997-05-10 06:00:00,8,1015.4,0.6,93,7,15000,11.112,,,200,6.3,12.6,,,,,11,,,1,wg-a,,,,AAXX 10064 07280 02765 32006 10080 20070 39880 40154 53006 60006 70186 83501 90600 333 10126 20063 60114=
07280,1997-05-10 09:00:00,13,1015,0.1,72,8,20000,22.224,,,200,,,,,,,,,,,wg-a,,,,AAXX 10094 07280 12570 72012 10130 20080 39881 40150 50001 60006 87802 90900=
07280,1997-05-10 12:00:00,17,1014.1,-0.6,55,8,25000,31.484,,,200,,,,,,,,,,,wg-a,,,,AAXX 10124 07280 12675 72017 10170 20080 39875 40141 58006 60006 8723/ 91200=
07280,1997-05-10 15:00:00,19,1012.6,-1.2,56,10,25000,29.632,,,200,,,,,,,,,,,wg-a,,,,AAXX 10154 07280 12675 72016 10190 20100 39863 40126 58012 60006 83232 91500=
07280,1997-05-10 18:00:00,17,1012,-0.8,63,10,9000,22.224,,,190,8.1,19.4,,,,,,,,80,wg-a,,,,AAXX 10184 07280 02659 71912 10170 20100 39855 40120 55008 61000 78098 86902 91800 333 10194 20081 6100=
07280,1997-05-10 21:00:00,13,1012.6,0.3,88,11,10000,3.704,,,300,,,,0,,,,,,0,wg-a,,,,AAXX 10214 07280 12560 73002 10130 20110 39858 40126 53003 60007 700// 875// 92100=
07280,1997-05-11 00:00:00,10,1013.7,0.7,93,9,15000,3.704,,,160,,,,,,,,,,3,wg-a,,,,AAXX 11004 07280 12765 71602 10100 20090 39865 40137 53007 60006 70398 835/1 90000=
07280,1997-05-11 03:00:00,11,1013.8,0.2,82,8,15000,11.112,,,210,,,,,,,,,,,wg-a,,,,AAXX 11034 07280 12765 72106 10110 20080 39867 40138 50002 60006 845/1 90300=
07280,1997-05-11 06:00:00,12,1013.3,-0.4,76,8,500,3.704,,,170,9.7,16.6,,,,,,,,,wg-a,,,,AAXX 11064 07280 02700 51702 10120 20080 39863 40133 56004 60006 82532 90600 333 10166 20097 60004=
07280,1997-05-11 09:00:00,17,1012.9,0.1,52,7,40000,18.52,,,200,,,,,,,,,,,wg-a,,,,AAXX 11094 07280 12/82 62010 10170 20070 39864 40129 51001 60006 83032 90900=
07280,1997-05-11 12:00:00,19,1012.7,-0.1,46,7,40000,18.52,,,210,,,,,,,,,,,wg-a,,,,AAXX 11124 07280 12782 72110 10190 20070 39863 40127 58001 60006 835/2 91200=
07280,1997-05-11 18:00:00,13,1015.4,2.2,88,11,15000,11.112,,,250,11.8,19.4,,,,,,,,60,wg-a,,,,AAXX 11184 07280 02565 82506 10130 20110 39885 40154 53022 61000 76062 888// 91800 333 10194 20118 6001=
07280,1997-05-11 21:00:00,11,1018.6,2.9,94,10,10000,14.816,,,190,,,,6,,,,,,62,wg-a,,,,AAXX 11214 07280 12260 81908 10110 20100 39914 40186 51029 60067 76266 888// 92100=
07280,1997-05-12 00:00:00,11,1020.4,1.7,94,10,10000,11.112,,,190,,,,2,,,,,,21,wg-a,,,,AAXX 12004 07280 02460 81906 10110 20100 39931 40204 53017 60096 72162 888// 90000 333 60027=
07280,1997-05-12 03:00:00,11,1020.9,0.5,94,10,10000,7.408,,,190,,,,,,,,,,,wg-a,,,,AAXX 12034 07280 12360 81904 10110 20100 39936 40209 53005 60006 888// 90300=
07280,1997-05-12 06:00:00,11,1022,1.1,94,10,8000,7.408,,,190,10.3,13.3,,,,,10,,,3,wg-a,,,,AAXX 12064 07280 02258 81904 10110 20100 39947 40220 53011 60006 70362 875// 90600 333 10133 20103 60104=
07280,1997-05-12 09:00:00,12,1023,1.1,94,11,12000,14.816,,,190,,,,,,,,,,,wg-a,,,,AAXX 12094 07280 12462 71908 10120 20110 39958 40230 51011 60006 8583/ 90900=
07280,1997-05-12 10:00:00,16,1021.6,-0.6,77,12,25000,3.704,,,120,10.6,17.4,,,,,,,,,wg-a,,,,AAXX 12104 07280 32675 71202 10160 20120 39947 40216 56006 85831 91000 333 10174 20106=
07280,1997-05-12 12:00:00,14,1023.1,0.3,82,11,20000,11.112,,,180,,,,,,,,,,25,wg-a,,,,AAXX 12124 07280 02470 71806 10140 20110 39961 40231 50003 61000 72586 878// 91200 333 6100=
07280,1997-05-12 15:00:00,17,1022,-0.8,63,10,500,11.112,,,120,,,,,,,,,,,wg-a,,,,AAXX 12154 07280 12500 61206 10170 20100 39953 40220 58008 60006 83801 91500=
07280,1997-05-12 18:00:00,16,1021.6,-0.6,77,12,25000,3.704,,,120,10.6,17.4,,,,,,,,,wg-a,,,,AAXX 12184 07280 12675 71202 10160 20120 39947 40216 56006 60006 83831 91800 333 10174 20106=
07280,1997-05-12 21:00:00,13,1022.5,0.7,88,11,25000,7.408,,,340,,,,,,,,,,,wg-a,,,,AAXX 12214 07280 12775 63404 10130 20110 39954 40225 53007 60006 84530 92100=
07280,1997-05-13 00:00:00,12,1022.5,-0.1,88,10,8000,3.704,,,20,,,,,,,,,,,wg-a,,,,AAXX 13004 07280 12658 60202 10120 20100 39953 40225 58001 60006 83531 90000=
07280,1997-05-13 03:00:00,10,1022.6,-0.1,93,9,8000,3.704,,,40,,,,,,,,,,,wg-a,,,,AAXX 13034 07280 12658 /0402 10100 20090 39952 40226 55001 60006 83530 90300=
07280,1997-05-13 06:00:00,11,1022.7,0.2,94,10,11000,7.408,,,20,9.9,15.5,,,,,,,,,wg-a,,,,AAXX 13064 07280 02761 50204 10110 20100 39954 40227 52002 60006 835/1 90600 333 10155 20099 61000=
07280,1997-05-13 09:00:00,16,1022.3,0.1,82,13,12000,3.704,,,100,,,,,,,,,,,wg-a,,,,AAXX 13094 07280 12462 /1002 10160 20130 39955 40223 50001 60006 86800 90900=
07280,1997-05-13 12:00:00,19,1021.1,-0.9,68,13,20000,11.112,,,160,,,,,,,,,,,wg-a,,,,AAXX 13124 07280 12570 /1606 10190 20130 39946 40211 58009 60006 84201 91200=
07280,1997-05-13 15:00:00,20,1019.2,-1.8,64,13,500,11.112,,,160,,,,,,,,,,,wg-a,,,,AAXX 13154 07280 12500 61606 10200 20130 39928 40192 57018 60006 84202 91500=
07280,1997-05-13 18:00:00,18,1017.6,-1.7,77,14,500,7.408,,,130,11.4,20.8,,,,,,,,,wg-a,,,,AAXX 13184 07280 12600 61304 10180 20140 39911 40176 56017 60006 81262 91800 333 10208 20114=
07280,1997-05-13 21:00:00,15,1018.2,0.3,88,13,500,0,,,0,,,,,,,,,,,wg-a,,,,AAXX 13214 07280 12/00 50000 10150 20130 39914 40182 51003 60006 82031 92100=
07280,1997-05-13 22:00:00,14,1018.9,0.8,94,13,25000,7.408,,,260,,,,,,,,,,,wg-a,,,,AAXX 13224 07280 12/75 82604 10140 20130 39920 40189 53008 60006 8707/ 92200=
07280,1997-05-14 00:00:00,14,1018.7,0.4,94,13,25000,7.408,,,320,,,,,,,,,,,wg-a,,,,AAXX 14004 07280 12/75 43204 10140 20130 39918 40187 53004 60006 82071 90000=
07280,1997-05-14 03:00:00,12,1019.2,0.2,94,11,15000,3.704,,,90,,,,,,,,,,,wg-a,,,,AAXX 14034 07280 12765 50902 10120 20110 39920 40192 53002 60006 835/1 90300=
07280,1997-05-14 06:00:00,13,1019.8,0.8,100,13,9000,3.704,,,90,11.2,18.2,,,,,,,,,wg-a,,,,AAXX 14064 07280 02/59 /0902 10130 20130 39928 40198 53008 60006 83081 90600 333 10182 20112 60004=
07280,1997-05-14 09:00:00,18,1020.2,0.9,83,15,15000,3.704,,,270,,,,,,,,,,,wg-a,,,,AAXX 14094 07280 12565 72702 10180 20150 39937 40202 51009 60006 81181 90900=
07280,1997-05-14 12:00:00,19,1020.4,0.2,68,13,500,14.816,,,350,,,,,,,,,,60,wg-a,,,,AAXX 14124 07280 02500 73508 10190 20130 39939 40204 51002 61000 76062 8222/ 91200 333 6100=
07280,1997-05-14 15:00:00,20,1019.3,-1,60,12,500,22.224,,,20,,,,,,,,,,1,wg-a,,,,AAXX 14154 07280 02600 /0212 10200 20120 39929 40193 56010 61000 70162 81180 91500 333 ////=
07280,1997-05-14 18:00:00,17,1019.2,-0.3,72,12,500,22.224,,,20,13.1,19.9,,,,,,,,3,wg-a,,,,AAXX 14184 07280 12700 60212 10170 20120 39926 40192 55003 60006 70362 81280 91800 333 10199 20131=
07280,1997-05-14 21:00:00,15,1019.6,0.1,77,11,15000,18.52,,,360,,,,,,,,,,,wg-a,,,,AAXX 14214 07280 12765 73610 10150 20110 39927 40196 50001 60006 83130 92100=
07280,1997-05-15 00:00:00,14,1021.6,1.9,88,12,500,18.52,,,150,,,,2,,,,,,80,wg-a,,,,AAXX 15004 07280 02400 81510 10140 20120 39946 40216 53019 60026 78098 889// 90000 333 60027=
07280,1997-05-15 03:00:00,13,1018,-3.6,94,12,8000,3.704,,,60,,,,9,,,,,,29,wg-a,,,,AAXX 15034 07280 12658 80602 10130 20120 39910 40180 55036 60097 72998 8657/ 90300=
07280,1997-05-15 06:00:00,14,1017.5,-0.4,94,13,15000,22.224,,,20,12.2,17.4,,,,,,,,61,wg-a,,,,AAXX 15064 07280 02765 70212 10140 20130 39906 40175 58004 61000 76198 8553/ 90600 333 10174 20122 6010=
07280,1997-05-15 09:00:00,19,1017.1,0.1,78,15,20000,14.816,,,20,,,,,,,,,,1,wg-a,,,,AAXX 15094 07280 02770 50208 10190 20150 39907 40171 50001 61000 70162 82580 90900 333 ////=
07280,1997-05-15 12:00:00,24,1015.7,-0.9,65,17,20000,7.408,,,40,,,,,,,,,,3,wg-a,,,,AAXX 15124 07280 02670 70404 10240 20170 39898 40157 58009 61000 70361 81101 91200 333 ////=
07280,1997-05-15 15:00:00,26,1013.4,-2.1,54,16,20000,11.112,,,40,,,,,,,,,,,wg-a,,,,AAXX 15154 07280 12/70 70406 10260 20160 39877 40134 56021 60006 81031 91500=
07280,1997-05-15 18:00:00,25,1013,-0.5,57,16,20000,11.112,,,30,13.6,26,,,,,,,,,wg-a,,,,AAXX 15184 07280 12770 60306 10250 20160 39872 40130 58005 60006 825/1 91800 333 10260 20136=
07280,1997-05-15 21:00:00,19,1013.9,0.4,68,13,12000,38.892,,,240,,,,,,,,,,17,wg-a,,,,AAXX 15214 07280 02562 72421 10190 20130 39876 40139 50004 61000 71798 879// 92100 333 ////=
07280,1997-05-16 00:00:00,15,1015.3,0.9,88,13,15000,7.408,,,230,,,,,,,,,,1,wg-a,,,,AAXX 16004 07280 02865 52304 10150 20130 39885 40153 53009 61000 70198 82082 90000 333 ////=
07280,1997-05-16 03:00:00,14,1014.8,-0.5,94,13,15000,7.408,,,330,,,,,,,,,,,wg-a,,,,AAXX 16034 07280 12865 53304 10140 20130 39880 40148 58005 60006 83082 90300=
07280,1997-05-16 06:00:00,16,1014.9,0.3,88,14,20000,3.704,,,80,13.8,24.8,,,,,,,,,wg-a,,,,AAXX 16064 07280 02770 50802 10160 20140 39883 40149 53003 60006 81531 90600 333 10248 20138 61000=
07280,1997-05-16 09:00:00,21,1014.8,0.3,69,15,20000,7.408,,,130,,,,,,,,,,,wg-a,,,,AAXX 16094 07280 12770 41304 10210 20150 39886 40148 52003 60006 81181 90900=
07280,1997-05-16 12:00:00,25,1013.5,-0.9,57,16,20000,14.816,,,190,,,,,,,,,,,wg-a,,,,AAXX 16124 07280 12770 41908 10250 20160 39877 40135 58009 60006 81231 91200=
07280,1997-05-16 18:00:00,24,1012.3,-0.1,50,13,25000,7.408,,,180,15.5,25.6,,,,,,,,,wg-a,,,,AAXX 16184 07280 12775 71804 10240 20130 39864 40123 55001 60006 81983 91800 333 10256 20155=
07280,1997-05-16 21:00:00,18,1014.7,1.9,77,14,20000,7.408,,,360,,,,,,,,,,,wg-a,,,,AAXX 16214 07280 12870 63604 10180 20140 39883 40147 51019 60006 82081 92100=
07280,1997-05-17 00:00:00,16,1015,0.1,88,14,20000,0,,,0,,,,,,,,,,,wg-a,,,,AAXX 17004 07280 12870 80000 10160 20140 39884 40150 50001 60006 8808/ 90000=
07280,1997-05-17 03:00:00,16,1014.3,-0.7,88,14,20000,3.704,,,270,,,,,,,,,,,wg-a,,,,AAXX 17034 07280 12870 72702 10160 20140 39877 40143 58007 60006 8707/ 90300=
07280,1997-05-17 06:00:00,16,1014.6,0.3,94,15,15000,3.704,,,130,14.5,23.9,,,,,,,,,wg-a,,,,AAXX 17064 07280 02765 71302 10160 20150 39880 40146 53003 60006 8357/ 90600 333 10239 20145 60004=
07280,1997-05-17 09:00:00,18,1014.4,0,77,14,15000,7.408,,,170,,,,,,,,,,,wg-a,,,,AAXX 17094 07280 12/65 61704 10180 20140 39880 40144 50000 60006 86030 90900=
07280,1997-05-17 12:00:00,23,1012.8,-1.1,61,15,20000,7.408,,,160,,,,,,,,,,,wg-a,,,,AAXX 17124 07280 12/70 51604 10230 20150 39869 40128 58011 60006 81031 91200=
07280,1997-05-17 15:00:00,25,1010.9,-1.7,54,15,20000,11.112,,,190,,,,,,,,,,,wg-a,,,,AAXX 17154 07280 12770 31906 10250 20150 39852 40109 56017 60006 81131 91500=
07280,1997-05-17 18:00:00,21,1011.4,0.1,64,14,20000,22.224,,,300,15.6,24.8,,,,,,,,,wg-a,,,,AAXX 17184 07280 12670 73012 10210 20140 39853 40114 53001 60006 83202 91800 333 10248 20156=
07280,1997-05-18 00:00:00,16,1014.1,-0.4,100,16,7000,3.704,,,170,,,,1,,,,,,61,wg-a,,,,AAXX 18004 07280 02557 81702 10160 20160 39876 40141 56004 60016 76198 888// 90000 333 60017=
07280,1997-05-18 03:00:00,15,1013.7,-0.6,94,14,7000,7.408,,,160,,,,3,,,,,,61,wg-a,,,,AAXX 18034 07280 12257 81604 10150 20140 39870 40137 55006 60037 76162 888// 90300=
07280,1997-05-18 06:00:00,15,1014.2,0.5,94,14,500,7.408,,,200,14.5,20.9,,,,,4,,,3,wg-a,,,,AAXX 18064 07280 02200 /2004 10150 20140 39875 40142 53005 60006 70362 86100 90600 333 10209 20145 60044=
07280,1997-05-18 09:00:00,17,1014.1,0.1,72,12,20000,11.112,,,180,,,,,,,,,,,wg-a,,,,AAXX 18094 07280 12570 71806 10170 20120 39876 40141 50001 60006 878// 90900=
07280,1997-05-18 12:00:00,18,1014,-0.1,73,13,20000,7.408,,,250,,,,,,,,,,,wg-a,,,,AAXX 18124 07280 12570 72504 10180 20130 39875 40140 57001 60006 83963 91200=
07280,1997-05-18 18:00:00,20,1011.7,-0.7,56,11,25000,3.704,,,190,14.9,21,,,,,,,,,wg-a,,,,AAXX 18184 07280 12775 11902 10200 20110 39855 40117 56007 60006 81200 91800 333 10210 20149=
07280,1997-05-18 21:00:00,14,1012.2,-0,88,12,20000,3.704,,,10,,,,,,,,,,,wg-a,,,,AAXX 18214 07280 12/70 10102 10140 20120 39855 40122 55000 60006 80001 92100=
07280,1997-05-19 00:00:00,13,1012.7,0.3,88,11,20000,7.408,,,20,,,,,,,,,,,wg-a,,,,AAXX 19004 07280 12/70 20204 10130 20110 39858 40127 50003 60006 82030 90000=
07280,1997-05-19 03:00:00,10,1012.3,-0.7,93,9,20000,7.408,,,180,,,,,,,,,,11,wg-a,,,,AAXX 19034 07280 12/70 01804 10100 20090 39851 40123 56007 60006 71100 80000 90300=
07280,1997-05-19 06:00:00,13,1011.3,-0.7,94,12,20000,7.408,,,140,8.8,19.9,,,,,,,,,wg-a,,,,AAXX 19064 07280 02/70 41404 10130 20120 39844 40113 56007 60006 80001 90600 333 10199 20088 60004=
07280,1997-05-19 09:00:00,19,1009.9,-0.7,56,10,10000,27.78,,,190,,,,,,,,,,,wg-a,,,,AAXX 19094 07280 12/60 /1915 10190 20100 39837 40099 58007 60006 90900=
07280,1997-05-19 12:00:00,21,1009.1,-0.6,53,11,500,29.632,,,200,,,,,,,,,,,wg-a,,,,AAXX 19124 07280 12600 72016 10210 20110 39831 40091 56006 60006 81102 91200=
07280,1997-05-19 15:00:00,22,1008.5,-0.5,53,12,500,22.224,,,190,,,,,,,,,,,wg-a,,,,AAXX 19154 07280 12600 71912 10220 20120 39826 40085 56005 60006 84202 91500=
07280,1997-05-19 18:00:00,17,1009.2,0.2,88,15,12000,22.224,,,290,12.6,22.6,,,,,,,,80,wg-a,,,,AAXX 19184 07280 02662 82912 10170 20150 39828 40092 53002 61000 78098 8596/ 91800 333 10226 20126 6001=
07280,1997-05-19 21:00:00,15,1010.1,0.7,94,14,10000,7.408,,,340,,,,4,,,,,,80,wg-a,,,,AAXX 19214 07280 12460 83404 10150 20140 39835 40101 53007 60047 78098 888// 92100=
07280,1997-05-20 00:00:00,14,1010.8,0.6,88,12,12000,11.112,,,220,,,,2,,,,,,61,wg-a,,,,AAXX 20004 07280 02462 82206 10140 20120 39841 40108 53006 60066 76198 888// 90000 333 60027=
07280,1997-05-20 03:00:00,13,1009.7,-1.2,94,12,8000,7.408,,,160,,,,4,,,,,,60,wg-a,,,,AAXX 20034 07280 12458 81604 10130 20120 39829 40097 58012 60047 76066 888// 90300=
07280,1997-05-20 06:00:00,14,1009.9,0.3,94,13,20000,14.816,,,220,12.9,16.7,,,,,10,,,1,wg-a,,,,AAXX 20064 07280 02370 22208 10140 20130 39832 40099 53003 60006 70161 82130 90600 333 10167 20129 60104=
07280,1997-05-20 09:00:00,16,1009.2,-0.4,88,14,500,22.224,,,200,,,,,,,,,,,wg-a,,,,AAXX 20094 07280 12400 /2012 10160 20140 39828 40092 55004 60006 82170 90900=
07280,1997-05-20 12:00:00,19,1008.2,-0.8,56,10,500,29.632,,40.744,220,,,,,,,,,,80,wg-a,,,,AAXX 20124 07280 02600 52216 10190 20100 39820 40082 58008 61000 78086 85201 91200 333 6100 91022=
07280,1997-05-20 15:00:00,20,1008,-0.2,43,7,40000,29.632,,,240,,,,,,,,,,1,wg-a,,,,AAXX 20154 07280 02682 /2416 10200 20070 39818 40080 57002 61000 70186 84201 91500 333 ////=
07280,1997-05-20 18:00:00,18,1009.1,0.9,52,8,500,22.224,,,260,13.9,20.1,,,,,,,,3,wg-a,,,,AAXX 20184 07280 12600 32612 10180 20080 39827 40091 51009 60006 70386 81901 91800 333 10201 20139=
07280,1997-05-20 21:00:00,14,1011.7,2.2,67,8,500,14.816,,,220,,,,,,,,,,,wg-a,,,,AAXX 20214 07280 12700 62208 10140 20080 39849 40117 51022 60006 86500 92100=
07280,1997-05-21 00:00:00,11,1012.1,0.1,82,8,20000,7.408,,,190,,,,,,,,,,,wg-a,,,,AAXX 21004 07280 12770 21904 10110 20080 39850 40121 50001 60006 82500 90000=
07280,1997-05-21 03:00:00,9,1011.2,-1,93,8,20000,14.816,,,200,,,,,,,,,,,wg-a,,,,AAXX 21034 07280 12/70 52008 10090 20080 39840 40112 56010 60006 85030 90300=
07280,1997-05-21 06:00:00,13,1011.2,0.4,77,9,25000,25.928,,,240,9,17.4,,,,,,,,,wg-a,,,,AAXX 21064 07280 02575 42414 10130 20090 39844 40112 52004 60006 81132 90600 333 10174 20090 61000=
07280,1997-05-21 12:00:00,15,1011.9,0.4,67,9,20000,31.484,,,230,,,,,,,,,,,wg-a,,,,AAXX 21124 07280 12670 72317 10150 20090 39853 40119 51004 60006 8523/ 91200=
07280,1997-05-21 15:00:00,18,1010.5,-1.2,56,9,500,29.632,,,250,,,,,,,,,,,wg-a,,,,AAXX 21154 07280 12600 62516 10180 20090 39841 40105 56012 60006 84231 91500=
07280,1997-05-21 18:00:00,13,1012.2,1.3,82,10,15000,14.816,,,230,12.9,18,,,,,,,,25,wg-a,,,,AAXX 21184 07280 02565 72308 10130 20100 39854 40122 53013 61000 72586 8396/ 91800 333 10180 20129 6000=
07280,1997-05-22 00:00:00,12,1014.4,0.4,88,10,20000,7.408,,,190,,,,,,,,,,3,wg-a,,,,AAXX 22004 07280 02470 71904 10120 20100 39874 40144 51004 61000 70386 8117/ 90000 333 ////=
07280,1997-05-22 03:00:00,10,1014.6,-0,93,9,20000,3.704,,,160,,,,,,,,,,,wg-a,,,,AAXX 22034 07280 12770 71602 10100 20090 39874 40146 55000 60006 875// 90300=
07280,1997-05-22 06:00:00,12,1015.8,1.3,94,11,12000,3.704,,,170,9.5,,,,,,,,,,wg-a,,,,AAXX 22064 07280 02562 41702 10120 20110 39887 40158 53013 60006 81830 90600 333 20095 60004=
07280,1997-05-22 09:00:00,15,1016.3,0.8,72,10,12000,11.112,,,320,,,,,,,,,,,wg-a,,,,AAXX 22094 07280 12462 73206 10150 20100 39895 40163 51008 60006 8583/ 90900=
07280,1997-05-22 12:00:00,14,1016.7,0.3,82,11,12000,3.704,,,60,,,,3,,,,,,10,wg-a,,,,AAXX 22124 07280 02562 70602 10140 20110 39898 40167 53003 60036 71086 8497/ 91200 333 60037=
07280,1997-05-22 18:00:00,14,1016.6,0.5,88,12,6000,7.408,,,350,11.6,17.6,,,,,,,,80,wg-a,,,,AAXX 22184 07280 02556 73504 10140 20120 39897 40166 53005 61000 78086 878// 91800 333 10176 20116 6002=
07280,1997-05-22 21:00:00,12,1017,0.2,94,11,15000,3.704,,,230,,,,5,,,,,,1,wg-a,,,,AAXX 22214 07280 12765 22302 10120 20110 39899 40170 53002 60057 70186 82500 92100=
07280,1997-05-23 00:00:00,9,1017,-0.3,100,9,2000,0,,,0,,,,0,,,,,,10,wg-a,,,,AAXX 23004 07280 02720 /0000 10090 20090 39896 40170 58003 60056 71086 81500 90000 333 60007=
07280,1997-05-23 03:00:00,9,1016.3,-0.7,100,9,4000,7.408,,,10,,,,,,,,,,10,wg-a,,,,AAXX 23034 07280 12/40 /0104 10090 20090 39889 40163 56007 60006 71000 80001 90300=
07280,1997-05-23 06:00:00,10,1016.7,0.5,100,10,2000,3.704,,,20,7.9,13.6,,,,,10,,,10,wg-a,,,,AAXX 23064 07280 02120 /0202 10100 20100 39894 40167 53005 60006 71041 81602 90600 333 10136 20079 60104=
07280,1997-05-23 09:00:00,16,1016.7,0.6,82,13,10000,11.112,,,90,,,,,,,,,,,wg-a,,,,AAXX 23094 07280 12360 /0906 10160 20130 39900 40167 51006 60006 83202 90900=
07280,1997-05-23 12:00:00,18,1015.9,-0.6,59,10,40000,7.408,,,180,,,,,,,,,,,wg-a,,,,AAXX 23124 07280 12582 41804 10180 20100 39894 40159 56006 60006 84201 91200=
07280,1997-05-23 15:00:00,20,1015.1,-0.6,49,9,50000,7.408,,,10,,,,,,,,,,,wg-a,,,,AAXX 23154 07280 12684 50104 10200 20090 39888 40151 58006 60006 82101 91500=
07280,1997-05-23 18:00:00,19,1015.4,0.2,60,11,40000,14.816,,,30,9.9,20.7,,,,,,,,,wg-a,,,,AAXX 23184 07280 12782 40308 10190 20110 39890 40154 52002 60006 81801 91800 333 10207 20099=
07280,1997-05-23 21:00:00,14,1016.6,0.8,82,11,20000,14.816,,,20,,,,,,,,,,,wg-a,,,,AAXX 23214 07280 12/70 50208 10140 20110 39898 40166 51008 60006 80002 92100=
07280,1997-05-24 00:00:00,12,1016.8,0,88,10,20000,14.816,,,20,,,,,,,,,,,wg-a,,,,AAXX 24004 07280 12/70 70208 10120 20100 39898 40168 50000 60006 81032 90000=
07280,1997-05-24 03:00:00,11,1017.1,0.1,94,10,20000,11.112,,,10,,,,,,,,,,,wg-a,,,,AAXX 24034 07280 12770 70106 10110 20100 39899 40171 51001 60006 845/2 90300=
07280,1997-05-24 06:00:00,13,1017.6,0.7,82,10,9000,14.816,,,20,10.9,18.5,,,,,,,,,wg-a,,,,AAXX 24064 07280 02759 40208 10130 20100 39906 40176 51007 60006 81580 90600 333 10185 20109 60004=
07280,1997-05-24 09:00:00,16,1018.3,1,68,10,15000,22.224,,,50,,,,,,,,,,,wg-a,,,,AAXX 24094 07280 12865 60512 10160 20100 39916 40183 51010 60006 86500 90900=
07280,1997-05-24 12:00:00,20,1017.7,-0.3,60,12,20000,25.928,,,40,,,,,,,,,,,wg-a,,,,AAXX 24124 07280 12670 /0414 10200 20120 39913 40177 58003 60006 81101 91200=
07280,1997-05-24 15:00:00,21,1018.2,0.6,56,12,20000,14.816,,,50,,,,,,,,,,,wg-a,,,,AAXX 24154 07280 12670 70508 10210 20120 39919 40182 53006 60006 82132 91500=
07280,1997-05-24 18:00:00,19,1018.9,0.5,60,11,20000,18.52,,,40,12.6,20.7,,,,,,,,,wg-a,,,,AAXX 24184 07280 12670 80410 10190 20110 39924 40189 53005 60006 8352/ 91800 333 10207 20126=
07280,1997-05-25 00:00:00,12,1021.2,0.3,71,7,20000,18.52,,,10,,,,,,,,,,,wg-a,,,,AAXX 25004 07280 12/70 30110 10120 20070 39940 40212 50003 60006 80001 90000=
07280,1997-05-25 03:00:00,10,1021.5,0.1,71,5,15000,18.52,,,10,,,,,,,,,,,wg-a,,,,AAXX 25034 07280 12665 /0110 10100 20050 39941 40215 53001 60006 81500 90300=
07280,1997-05-25 06:00:00,12,1022.1,0.7,67,6,20000,22.224,,,10,9.5,18.9,,,,,,,,,wg-a,,,,AAXX 25064 07280 02/70 10112 10120 20060 39948 40221 51007 60006 80001 90600 333 10189 20095 60004=
07280,1997-05-25 09:00:00,17,1021.4,-0.2,52,7,20000,22.224,,,50,,,,,,,,,,,wg-a,,,,AAXX 25094 07280 12/70 10512 10170 20070 39946 40214 58002 60006 80001 90900=
07280,1997-05-25 12:00:00,20,1020.6,-0.4,46,8,20000,22.224,,,40,,,,,,,,,,,wg-a,,,,AAXX 25124 07280 12/70 60412 10200 20080 39942 40206 58004 60006 80001 91200=
07280,1997-05-25 15:00:00,22,1019.7,-0.8,41,8,20000,18.52,,,30,,,,,,,,,,,wg-a,,,,AAXX 25154 07280 12/70 70310 10220 20080 39934 40197 56008 60006 80001 91500=
07280,1997-05-25 18:00:00,20,1019.8,-0,43,7,20000,18.52,,,30,11.6,21.8,,,,,,,,,wg-a,,,,AAXX 25184 07280 12/70 50310 10200 20070 39934 40198 55000 60006 80001 91800 333 10218 20116=
07280,1997-05-25 21:00:00,13,1021.9,1.4,62,6,20000,14.816,,,10,,,,,,,,,,,wg-a,,,,AAXX 25214 07280 12/70 00108 10130 20060 39948 40219 52014 60006 80000 92100=
07280,1997-05-26 00:00:00,11,1022.4,0.3,58,3,20000,14.816,,,10,,,,,,,,,,,wg-a,,,,AAXX 26004 07280 12/70 10108 10110 20030 39951 40224 51003 60006 80001 90000=
07280,1997-05-26 06:00:00,12,1022.4,0.4,58,4,20000,14.816,,,10,8.9,20,,,,,,,,,wg-a,,,,AAXX 26064 07280 02/70 10108 10120 20040 39951 40224 50004 60006 80001 90600 333 10200 20089 60004=
07280,1997-05-26 09:00:00,18,1022.5,0.7,52,8,25000,14.816,,,30,,,,,,,,,,,wg-a,,,,AAXX 26094 07280 12/75 10308 10180 20080 39958 40225 50007 60006 80001 90900=
07280,1997-05-26 12:00:00,21,1021.9,-0.4,28,2,500,14.816,,,50,,,,,,,,,,,wg-a,,,,AAXX 26124 07280 12/00 40508 10210 20020 39954 40219 58004 60006 80001 91200=
07280,1997-05-26 15:00:00,22,1020,-1.6,33,5,500,7.408,,,60,,,,,,,,,,,wg-a,,,,AAXX 26154 07280 12/00 40604 10220 20050 39938 40200 58016 60006 80001 91500=
07280,1997-05-26 18:00:00,21,1019.5,-0.6,33,4,500,11.112,,,30,11.7,22.6,,,,,,,,,wg-a,,,,AAXX 26184 07280 12/00 40306 10210 20040 39932 40195 56006 60006 80001 91800 333 10226 20117=
07280,1997-05-26 21:00:00,15,1020.8,0.7,59,7,500,14.816,,,10,,,,,,,,,,,wg-a,,,,AAXX 26214 07280 12/00 00108 10150 20070 39939 40208 51007 60006 80000 92100=
07280,1997-05-27 00:00:00,11,1021.2,0,71,6,25000,11.112,,,350,,,,,,,,,,,wg-a,,,,AAXX 27004 07280 12/75 03506 10110 20060 39939 40212 50000 60006 80000 90000=
07280,1997-05-27 03:00:00,10,1020.4,-0.9,76,6,25000,14.816,,,340,,,,,,,,,,,wg-a,,,,AAXX 27034 07280 12/75 03408 10100 20060 39930 40204 56009 60006 80000 90300=
07280,1997-05-27 06:00:00,14,1020.1,0.1,55,5,25000,18.52,,,10,9.7,21.4,,,,,,,,,wg-a,,,,AAXX 27064 07280 02/75 00110 10140 20050 39931 40201 53001 60006 80000 90600 333 10214 20097 60004=
07280,1997-05-27 08:00:00,14,1020.1,0.1,55,5,25000,18.52,,,10,9.7,21.4,,,,,,,,,wg-a,,,,AAXX 27084 07280 02/75 00110 10140 20050 39931 40201 53001 60006 80000 90800 333 10214 20097 60004=
07280,1997-05-27 09:00:00,19,1019.1,-0.5,46,7,25000,22.224,,,40,,,,,,,,,,,wg-a,,,,AAXX 27094 07280 12/75 00412 10190 20070 39926 40191 58005 60006 80000 90900=
07280,1997-05-27 12:00:00,22,1018.4,-0.4,43,9,25000,22.224,,,30,,,,,,,,,,,wg-a,,,,AAXX 27124 07280 12/75 00312 10220 20090 39922 40184 57004 60006 80000 91200=
07280,1997-05-27 18:00:00,21,1017.3,-0.1,43,8,500,18.52,,,40,14.4,22.9,,,,,,,,,wg-a,,,,AAXX 27184 07280 12/00 00410 10210 20080 39910 40173 56001 60006 80000 91800 333 10229 20144=
07280,1997-05-28 00:00:00,13,1019.6,0.6,67,7,20000,18.52,,,10,,,,,,,,,,,wg-a,,,,AAXX 28004 07280 12/70 00110 10130 20070 39925 40196 51006 60006 80000 90000=
07280,1997-05-28 03:00:00,10,1021,1.1,76,6,20000,22.224,,,10,,,,,,,,,,,wg-a,,,,AAXX 28034 07280 12/70 00112 10100 20060 39936 40210 53011 60006 80000 90300=
07280,1997-05-28 06:00:00,10,1022.1,1.1,71,5,20000,29.632,,,30,8.6,20.7,,,,,,,,,wg-a,,,,AAXX 28064 07280 02/70 10316 10100 20050 39947 40221 51011 60006 80001 90600 333 10207 20086 60004=
07280,1997-05-28 09:00:00,13,1022.4,0.6,58,5,20000,25.928,,,30,,,,,,,,,,,wg-a,,,,AAXX 28094 07280 12/70 /0314 10130 20050 39953 40224 51006 60006 80000 90900=
07280,1997-05-28 12:00:00,17,1022.1,-0,42,4,20000,25.928,,,40,,,,,,,,,,,wg-a,,,,AAXX 28124 07280 12/70 00414 10170 20040 39953 40221 55000 60006 80000 91200=
07280,1997-05-28 18:00:00,18,1021,-0.2,37,3,25000,29.632,,,30,10.3,19.3,,,,,,,,,wg-a,,,,AAXX 28184 07280 12/75 00316 10180 20030 39943 40210 55002 60006 80000 91800 333 10193 20103=
07280,1997-05-28 21:00:00,12,1023.4,1.8,58,4,25000,14.816,,,10,,,,,,,,,,,wg-a,,,,AAXX 28214 07280 12/75 00108 10120 20040 39961 40234 53018 60006 80000 92100=
07280,1997-05-29 00:00:00,10,1023.4,-0.2,62,3,20000,25.928,,,20,,,,,,,,,,,wg-a,,,,AAXX 29004 07280 12/70 10214 10100 20030 39959 40234 58002 60006 80001 90000=
07280,1997-05-29 03:00:00,8,1023.7,0.1,71,3,20000,18.52,,,10,,,,,,,,,,,wg-a,,,,AAXX 29034 07280 12/70 00110 10080 20030 39960 40237 51001 60006 80000 90300=
07280,1997-05-29 06:00:00,11,1023.7,0.3,58,3,500,25.928,,,40,7.4,17.4,,,,,,,,,wg-a,,,,AAXX 29064 07280 02/00 10414 10110 20030 39963 40237 52003 60006 80001 90600 333 10174 20074 60004=
07280,1997-05-29 09:00:00,16,1023.8,0.6,45,4,35000,18.52,,,40,,,,,,,,,,,wg-a,,,,AAXX 29094 07280 12/81 20410 10160 20040 39969 40238 52006 60006 80001 90900=
07280,1997-05-29 12:00:00,20,1023.1,-0.3,37,5,50000,18.52,,,60,,,,,,,,,,,wg-a,,,,AAXX 29124 07280 12/84 30610 10200 20050 39966 40231 58003 60006 80001 91200=
07280,1997-05-29 15:00:00,23,1021.9,-1,25,2,50000,18.52,,,60,,,,,,,,,,,wg-a,,,,AAXX 29154 07280 12/84 40610 10230 20020 39956 40219 57010 60006 80001 91500=
07280,1997-05-29 18:00:00,21,1021.8,-0.2,38,6,50000,14.816,,,40,10.7,22.8,,,,,,,,,wg-a,,,,AAXX 29184 07280 12/84 60408 10210 20060 39954 40218 56002 60006 80001 91800 333 10228 20107=
07280,1997-05-29 21:00:00,15,1023.3,0.9,59,7,500,14.816,,,10,,,,,,,,,,,wg-a,,,,AAXX 29214 07280 12/00 30108 10150 20070 39963 40233 53009 60006 80001 92100=
07280,1997-05-30 00:00:00,11,1024.3,0.6,71,6,10000,14.816,,,360,,,,,,,,,,,wg-a,,,,AAXX 30004 07280 12/60 /3608 10110 20060 39969 40243 53006 60006 90000=
07280,1997-05-30 03:00:00,11,1024.5,0.2,66,5,500,14.816,,,10,,,,,,,,,,,wg-a,,,,AAXX 30034 07280 12/00 00108 10110 20050 39971 40245 53002 60006 80000 90300=
07280,1997-05-30 06:00:00,13,1024.2,-0.1,62,6,500,22.224,,,20,10,20.8,,,,,,,,,wg-a,,,,AAXX 30064 07280 02/00 60212 10130 20060 39970 40242 58001 60006 80001 90600 333 10208 20100 60004=
07280,1997-05-30 09:00:00,19,1023.2,-0.4,46,7,500,22.224,,,40,,,,,,,,,,,wg-a,,,,AAXX 30094 07280 12/00 70412 10190 20070 39966 40232 56004 60006 80001 90900=
07280,1997-05-30 12:00:00,23,1021.7,-1.2,33,6,500,22.224,,,20,,,,,,,,,,,wg-a,,,,AAXX 30124 07280 12/00 70212 10230 20060 39954 40217 58012 60006 80001 91200=
07280,1997-05-30 15:00:00,22,1020.5,-1.2,33,5,35000,29.632,,,20,,,,,,,,,,,wg-a,,,,AAXX 30154 07280 12/81 70216 10220 20050 39942 40205 56012 60006 80002 91500=
07280,1997-05-30 18:00:00,21,1019.2,-1.4,33,4,35000,29.632,,,30,13,23.8,,,,,,,,,wg-a,,,,AAXX 30184 07280 12/81 70316 10210 20040 39928 40192 56014 60006 80001 91800 333 10238 20130=
07280,1997-05-30 21:00:00,15,1019.9,0.2,51,5,20000,18.52,,,20,,,,,,,,,,,wg-a,,,,AAXX 30214 07280 12/70 20210 10150 20050 39930 40199 51002 60006 80001 92100=
07280,1997-05-31 00:00:00,12,1019.6,-0.6,62,5,15000,18.52,,,20,,,,,,,,,,,wg-a,,,,AAXX 31004 07280 12/65 20210 10120 20050 39924 40196 58006 60006 80001 90000=
07280,1997-05-31 03:00:00,10,1019,-0.8,62,3,15000,22.224,,,20,,,,,,,,,,,wg-a,,,,AAXX 31034 07280 12/65 00212 10100 20030 39916 40190 58008 60006 80000 90300=
07280,1997-05-31 06:00:00,12,1018,-0.7,50,2,40000,29.632,,,40,10,20.7,,,,,,,,,wg-a,,,,AAXX 31064 07280 02/82 10416 10120 20020 39909 40180 57007 60006 80001 90600 333 10207 20100 60004=
07280,1997-05-31 09:00:00,17,1016.9,-0.7,32,0,50000,31.484,,,60,,,,,,,,,,,wg-a,,,,AAXX 31094 07280 12/84 10617 10170 20000 39902 40169 58007 60006 80001 90900=
07280,1997-05-31 12:00:00,21,1015.2,-1.3,26,1,50000,31.484,,,60,,,,,,,,,,,wg-a,,,,AAXX 31124 07280 12/84 10617 10210 20010 39889 40152 58013 60006 80001 91200=
07280,1997-05-31 15:00:00,22,1013.1,-1.9,27,2,50000,29.632,,,70,,,,,,,,,,,wg-a,,,,AAXX 31154 07280 12/84 20716 10220 20020 39870 40131 56019 60006 80001 91500=
07280,1997-05-31 18:00:00,20,1012.6,-0.7,35,4,40000,25.928,,,30,12.4,22.4,,,,,,,,,wg-a,,,,AAXX 31184 07280 12/82 30314 10200 20040 39863 40126 55007 60006 80001 91800 333 10224 20124=
07280,1997-06-01 00:00:00,11,1013.4,-1.1,47,0,500,22.224,,,20,,,,,,,,,,,wg-a,,,,AAXX 01004 07280 12/00 20212 10110 20000 39862 40134 58011 60006 80001 90000=
07280,1997-06-01 03:00:00,8,1011.9,-1.7,57,0,500,25.928,,,10,,,,,,,,,,,wg-a,,,,AAXX 01034 07280 12/00 30114 10080 20000 39845 40119 58017 60006 80001 90300=
07280,1997-06-01 06:00:00,10,1011.3,-0.4,53,1,40000,25.928,,,30,7.9,19.5,,,,,,,,,wg-a,,,,AAXX 01064 07280 02/82 60314 10100 20010 39841 40113 56004 60006 81032 90600 333 10195 20079 60004=
07280,1997-06-01 09:00:00,12,1010.3,-0.7,47,1,500,29.632,,,50,,,,,,,,,,,wg-a,,,,AAXX 01094 07280 12/00 60516 10120 20010 39834 40103 58007 60006 84072 90900=
07280,1997-06-01 12:00:00,13,1009.8,-0.5,47,2,20000,25.928,,,70,,,,,,,,,,,wg-a,,,,AAXX 01124 07280 12/70 80714 10130 20020 39829 40098 58005 60006 86072 91200=
07280,1997-06-01 15:00:00,13,1008.7,-1,62,6,15000,18.52,,,60,,,,,,,,,,21,wg-a,,,,AAXX 01154 07280 02565 80610 10130 20060 39819 40087 58010 61000 72162 885// 91500 333 ////=
07280,1997-06-01 18:00:00,12,1008.7,-0.1,76,8,12000,11.112,,,20,9.9,13.7,,,,,,,,60,wg-a,,,,AAXX 01184 07280 02562 80206 10120 20080 39818 40087 55001 61000 76062 8557/ 91800 333 10137 20099 6100=
07280,1997-06-01 21:00:00,11,1009.6,0.8,87,9,12000,11.112,,,10,,,,0,,,,,,1,wg-a,,,,AAXX 01214 07280 12762 80106 10110 20090 39826 40096 51008 60007 70162 8587/ 92100=
07280,1997-06-02 00:00:00,11,1009.6,0,87,9,12000,11.112,,,10,,,,0,,,,,,1,wg-a,,,,AAXX 02004 07280 02762 70106 10110 20090 39826 40096 50000 60016 70162 85830 90000 333 60007=
07280,1997-06-02 06:00:00,11,1010.6,1.1,87,9,12000,7.408,,,40,8,12,,,,,1,,,,wg-a,,,,AAXX 02064 07280 02/62 60404 10110 20090 39836 40106 53011 60006 86030 90600 333 10120 20080 60014=
07280,1997-06-02 09:00:00,14,1011.6,1.3,77,10,15000,3.704,,,220,,,,,,,,,,,wg-a,,,,AAXX 02094 07280 12665 82202 10140 20100 39849 40116 51013 60006 8452/ 90900=
07280,1997-06-02 12:00:00,18,1012,0.7,68,12,25000,7.408,,,160,,,,,,,,,,21,wg-a,,,,AAXX 02124 07280 02575 81604 10180 20120 39856 40120 51007 61000 72162 878// 91200 333 6100=
07280,1997-06-02 18:00:00,18,1012.5,0.3,68,12,20000,7.408,,,170,11.3,18.7,,,,,,,,3,wg-a,,,,AAXX 02184 07280 12570 /1704 10180 20120 39861 40125 52003 60006 70362 82831 91800 333 10187 20113=
07280,1997-06-02 21:00:00,16,1013.4,0.7,82,13,20000,3.704,,,220,,,,,,,,,,,wg-a,,,,AAXX 02214 07280 12870 72202 10160 20130 39868 40134 53007 60006 8703/ 92100=
07280,1997-06-03 00:00:00,14,1014.2,0.6,94,13,15000,3.704,,,140,,,,,,,,,,,wg-a,,,,AAXX 03004 07280 12865 61402 10140 20130 39874 40142 51006 60006 86030 90000=
07280,1997-06-03 03:00:00,13,1014.3,0,94,12,12000,7.408,,,160,,,,,,,,,,,wg-a,,,,AAXX 03034 07280 12162 71604 10130 20120 39874 40143 50000 60006 8753/ 90300=
07280,1997-06-03 06:00:00,14,1015,0.8,100,14,600,0,,,0,12.4,17.8,,,,,,,,42,wg-a,,,,AAXX 03064 07280 02106 90000 10140 20140 39882 40150 52008 60006 74242 896// 90600 333 10178 20124 60004=
07280,1997-06-03 09:00:00,18,1015.2,0.6,73,13,12000,7.408,,,180,,,,,,,,,,3,wg-a,,,,AAXX 03094 07280 12562 /1804 10180 20130 39888 40152 52006 60006 70342 83201 90900=
07280,1997-06-03 12:00:00,21,1014.7,-0.3,40,7,25000,7.408,,,250,,,,,,,,,,1,wg-a,,,,AAXX 03124 07280 12675 /2504 10210 20070 39885 40147 58003 60006 70142 83221 91200=
07280,1997-06-03 15:00:00,22,1015.1,0.4,41,8,500,14.816,,,290,,,,,,,,,,,wg-a,,,,AAXX 03154 07280 12700 /2908 10220 20080 39889 40151 51004 60006 82232 91500=
07280,1997-06-03 18:00:00,20,1015.2,-0,60,12,25000,3.704,,,210,13.8,22.8,,,,,,,,,wg-a,,,,AAXX 03184 07280 12775 72102 10200 20120 39889 40152 55000 60006 8128/ 91800 333 10228 20138=
07280,1997-06-03 21:00:00,15,1016.8,1.1,82,12,25000,3.704,,,70,,,,,,,,,,,wg-a,,,,AAXX 03214 07280 12/75 20702 10150 20120 39900 40168 53011 60006 82030 92100=
07280,1997-06-04 00:00:00,12,1017.1,0,88,10,20000,7.408,,,340,,,,,,,,,,,wg-a,,,,AAXX 04004 07280 12/70 03404 10120 20100 39900 40171 50000 60006 80000 90000=
07280,1997-06-04 03:00:00,11,1016.7,-0.5,87,9,8000,3.704,,,340,,,,,,,,,,,wg-a,,,,AAXX 04034 07280 12/58 /3402 10110 20090 39895 40167 55005 60006 80001 90300=
07280,1997-06-04 06:00:00,13,1016.5,0,88,11,10000,7.408,,,10,8.4,20.1,,,,,,,,,wg-a,,,,AAXX 04064 07280 02/60 40104 10130 20110 39895 40165 50000 60006 80001 90600 333 10201 20084 60004=
07280,1997-06-04 09:00:00,20,1015.2,-0.6,60,12,15000,7.408,,,40,,,,,,,,,,,wg-a,,,,AAXX 04094 07280 12565 /0404 10200 20120 39889 40152 58006 60006 81102 90900=
07280,1997-06-04 12:00:00,23,1013.6,-1.3,36,7,25000,7.408,,,60,,,,,,,,,,,wg-a,,,,AAXX 04124 07280 12775 60604 10230 20070 39876 40136 58013 60006 82102 91200=
07280,1997-06-04 15:00:00,25,1011.7,-1.7,34,8,25000,11.112,,,90,,,,,,,,,,,wg-a,,,,AAXX 04154 07280 12875 50906 10250 20080 39859 40117 58017 60006 81102 91500=
07280,1997-06-04 18:00:00,24,1010.3,-1.5,38,9,25000,11.112,,,80,13,25.3,,,,,,,,,wg-a,,,,AAXX 04184 07280 12/75 60806 10240 20090 39844 40103 56015 60006 81032 91800 333 10253 20130=
07280,1997-06-04 21:00:00,18,1010.3,-0.4,64,11,20000,11.112,,,10,,,,,,,,,,,wg-a,,,,AAXX 04214 07280 12/70 80106 10180 20110 39840 40103 56004 60006 80002 92100=
07280,1997-06-05 00:00:00,16,1009.4,-1.1,72,11,20000,7.408,,,350,,,,,,,,,,,wg-a,,,,AAXX 05004 07280 12/70 73504 10160 20110 39829 40094 56011 60006 83032 90000=
07280,1997-06-05 03:00:00,15,1009.1,-0.4,82,12,6000,3.704,,,140,,,,0,,,,,,61,wg-a,,,,AAXX 05034 07280 12656 81402 10150 20120 39825 40091 55004 60007 76162 8557/ 90300=
07280,1997-06-05 06:00:00,16,1008.5,-0.5,94,15,6000,0,,,0,14.6,23.6,,,,,1,,,1,wg-a,,,,AAXX 05064 07280 02756 80000 10160 20150 39820 40085 56005 60006 70162 8557/ 90600 333 10236 20146 60014=
07280,1997-06-05 12:00:00,20,1006.1,-0.4,78,16,20000,7.408,,,70,,,,,,,,,,60,wg-a,,,,AAXX 05124 07280 02570 80704 10200 20160 39801 40061 56004 60006 76062 8387/ 91200 333 61000=
07280,1997-06-05 18:00:00,23,1004.3,-0.3,57,14,20000,7.408,,,10,15.5,23.9,,,,,,,,1,wg-a,,,,AAXX 05184 07280 12670 80104 10230 20140 39786 40043 56003 60006 70162 8123/ 91800 333 10239 20155=
07280,1997-06-05 21:00:00,20,1005.7,1.1,64,13,15000,11.112,,,320,,,,,,,,,,,wg-a,,,,AAXX 05214 07280 12665 /3206 10200 20130 39797 40057 53011 60006 8223/ 92100=
07280,1997-06-06 00:00:00,18,1007.7,1.7,83,15,10000,25.928,,,200,,,,,,,,,,80,wg-a,,,,AAXX 06004 07280 02560 /2014 10180 20150 39814 40077 53017 61000 78098 85330 90000 333 6100=
07280,1997-06-06 06:00:00,16,1010.3,1.2,100,16,6000,3.704,,,170,14.8,22.7,,,,,6,,,3,wg-a,,,,AAXX 06064 07280 02156 71702 10160 20160 39838 40103 53012 60006 70398 84631 90600 333 10227 20148 60064=
07280,1997-06-06 09:00:00,20,1010.9,0.9,78,16,20000,11.112,,,200,,,,,,,,,,,wg-a,,,,AAXX 06094 07280 12570 72006 10200 20160 39847 40109 53009 60006 86201 90900=
07280,1997-06-06 12:00:00,22,1011,0.4,65,15,20000,11.112,,,170,,,,,,,,,,,wg-a,,,,AAXX 06124 07280 12570 81706 10220 20150 39851 40110 50004 60006 82107 91200=
07280,1997-06-06 15:00:00,24,1010.3,-0.6,57,15,20000,11.112,,,180,,,,,,,,,,,wg-a,,,,AAXX 06154 07280 12670 71806 10240 20150 39845 40103 58006 60006 81102 91500=
07280,1997-06-06 18:00:00,23,1010.5,0.1,69,17,20000,7.408,,,190,15.9,24.1,,,,,,,,,wg-a,,,,AAXX 06184 07280 12/70 61904 10230 20170 39846 40105 53001 60006 80002 91800 333 10241 20159=
07280,1997-06-07 00:00:00,15,1011.4,-0.4,100,15,15000,3.704,,,340,,,,,,,,,,,wg-a,,,,AAXX 07004 07280 12/65 03402 10150 20150 39848 40114 58004 60006 80000 90000=
07280,1997-06-07 03:00:00,13,1011.2,-0.4,100,13,8000,3.704,,,20,,,,0,,,,,,11,wg-a,,,,AAXX 07034 07280 12/58 /0202 10130 20130 39844 40112 58004 60007 71100 80002 90300=
07280,1997-06-07 06:00:00,16,1011.1,0.2,94,15,10000,3.704,,,70,12.7,22.7,,,,,,,,,wg-a,,,,AAXX 07064 07280 02/60 60702 10160 20150 39846 40111 53002 60006 84032 90600 333 10227 20127 60004=
07280,1997-06-07 12:00:00,26,1010.3,0.6,54,16,15000,18.52,,,200,,,,,,,,,,,wg-a,,,,AAXX 07124 07280 12665 72010 10260 20160 39847 40103 51006 60006 82232 91200=
07280,1997-06-07 15:00:00,28,1009.2,-0.9,48,16,20000,11.112,,,190,,,,,,,,,,,wg-a,,,,AAXX 07154 07280 12770 61906 10280 20160 39838 40092 56009 60006 82232 91500=
07280,1997-06-07 18:00:00,25,1009.1,-0.3,61,17,25000,3.704,,,120,15.8,27.7,,,,,,,,17,wg-a,,,,AAXX 07184 07280 12775 81202 10250 20170 39835 40091 55003 60006 71792 81983 91800 333 10277 20158=
07280,1997-06-07 21:00:00,20,1010.7,1.1,78,16,15000,11.112,,,240,,,,1,,,,,,25,wg-a,,,,AAXX 07214 07280 12665 82406 10200 20160 39846 40107 50011 60017 72598 83203 92100=
07280,1997-06-08 00:00:00,17,1012.3,1.2,94,16,20000,7.408,,,200,,,,,,,,,,3,wg-a,,,,AAXX 08004 07280 12670 /2004 10170 20160 39858 40123 50012 60016 70398 81480 90000=
07280,1997-06-08 03:00:00,15,1014,1.6,100,15,20000,3.704,,,90,,,,,,,,,,,wg-a,,,,AAXX 08034 07280 12670 /0902 10150 20150 39874 40140 51016 60006 81480 90300=
07280,1997-06-08 06:00:00,16,1016.2,2.2,100,16,15000,11.112,,,230,15.3,25,,,,,,,,25,wg-a,,,,AAXX 08064 07280 02565 /2306 10160 20160 39896 40162 51022 61000 72586 86200 90600 333 10250 20153 6005=
07280,1997-06-08 12:00:00,25,1016,-0.2,50,14,500,14.816,,,190,,,,,,,,,,,wg-a,,,,AAXX 08124 07280 12600 /1908 10250 20140 39901 40160 58002 60006 85130 91200=
07280,1997-06-08 15:00:00,23,1017.2,1,50,12,12000,22.224,,,340,,,,,,,,,,25,wg-a,,,,AAXX 08154 07280 02562 73412 10230 20120 39911 40172 53010 61000 72598 86903 91500 333 ////=
07280,1997-06-08 18:00:00,18,1019,1.3,77,14,20000,3.704,,,310,16.2,25.6,,1,,,,,,29,wg-a,,,,AAXX 08184 07280 02570 /3102 10180 20140 39924 40190 53013 60006 72998 86900 91800 333 10256 20162 60017=
07280,1997-06-09 00:00:00,13,1022.6,0.8,88,11,20000,7.408,,,330,,,,,,,,,,,wg-a,,,,AAXX 09004 07280 12770 13304 10130 20110 39955 40226 51008 60006 81500 90000=
07280,1997-06-09 03:00:00,12,1022.8,0.1,94,11,20000,3.704,,,60,,,,,,,,,,,wg-a,,,,AAXX 09034 07280 32/70 00602 10120 20110 39956 40228 53001 80000 90300=
07280,1997-06-09 06:00:00,15,1023.4,0.8,88,13,20000,3.704,,,350,10.8,17.8,,,,,1,,,,wg-a,,,,AAXX 09064 07280 02/70 33502 10150 20130 39964 40234 51008 60006 81031 90600 333 10178 20108 60014=
07280,1997-06-09 09:00:00,21,1023.3,0.5,64,14,20000,11.112,,,70,,,,,,,,,,,wg-a,,,,AAXX 09094 07280 12570 /0706 10210 20140 39969 40233 50005 60006 81101 90900=
07280,1997-06-09 12:00:00,25,1021.9,-1,41,11,50000,7.408,,,40,,,,,,,,,,,wg-a,,,,AAXX 09124 07280 12684 /0404 10250 20110 39959 40219 58010 60006 82201 91200=
07280,1997-06-09 15:00:00,25,1020.7,-1.2,36,9,50000,7.408,,,110,,,,,,,,,,,wg-a,,,,AAXX 09154 07280 12784 81104 10250 20090 39947 40207 57012 60006 82202 91500=
07280,1997-06-09 18:00:00,24,1020.3,-0.5,47,12,40000,11.112,,,40,14.7,25.6,,,,,,,,,wg-a,,,,AAXX 09184 07280 12782 80406 10240 20120 39942 40203 55005 60006 81177 91800 333 10256 20147=
07280,1997-06-09 21:00:00,19,1020.5,-0.2,68,13,20000,7.408,,,340,,,,,,,,,,,wg-a,,,,AAXX 09214 07280 12/70 43404 10190 20130 39940 40205 55002 60006 83031 92100=
07280,1997-06-10 00:00:00,16,1019.9,-0.9,82,13,20000,11.112,,,340,,,,,,,,,,,wg-a,,,,AAXX 10004 07280 12/70 33406 10160 20130 39931 40199 56009 60006 82031 90000=
07280,1997-06-10 06:00:00,17,1018.4,-0.2,77,13,20000,7.408,,,10,13.4,23.5,,,,,,,,,wg-a,,,,AAXX 10064 07280 02/70 60104 10170 20130 39918 40184 56002 60006 85081 90600 333 10235 20134 60004=
07280,1997-06-10 09:00:00,23,1016.8,-1,57,14,25000,7.408,,,110,,,,,,,,,,,wg-a,,,,AAXX 10094 07280 12/75 41104 10230 20140 39908 40168 58010 60006 81031 90900=
07280,1997-06-10 12:00:00,28,1014.2,-2.1,45,15,500,7.408,,,130,,,,,,,,,,,wg-a,,,,AAXX 10124 07280 12/00 41304 10280 20150 39887 40142 57021 60006 82081 91200=
07280,1997-06-10 15:00:00,30,1012.1,-2,35,13,500,11.112,,,160,,,,,,,,,,,wg-a,,,,AAXX 10154 07280 12/00 61606 10300 20130 39867 40121 57020 60006 83082 91500=
07280,1997-06-10 18:00:00,26,1011.1,-1.2,61,18,500,3.704,,,170,17.1,29.9,,,,,,,,,wg-a,,,,AAXX 10184 07280 12/00 71702 10260 20180 39855 40111 57012 60006 82032 91800 333 10299 20171=
07280,1997-06-11 00:00:00,20,1010.8,-0.8,83,17,15000,7.408,,,160,,,,,,,,,,,wg-a,,,,AAXX 11004 07280 12/65 61604 10200 20170 39847 40108 56008 60006 86030 90000=
07280,1997-06-11 03:00:00,20,1010.5,-0.3,83,17,10000,3.704,,,190,,,,,,,,,,,wg-a,,,,AAXX 11034 07280 12/60 /1902 10200 20170 39844 40105 55003 60006 90300=
07280,1997-06-11 06:00:00,20,1010.2,-0.3,83,17,15000,7.408,,,160,18.3,26.4,,,,,,,,,wg-a,,,,AAXX 11064 07280 02/65 71604 10200 20170 39841 40102 58003 60006 87071 90600 333 10264 20183 60004=
07280,1997-06-11 09:00:00,23,1010.7,0.7,61,15,20000,7.408,,,310,,,,,,,,,,,wg-a,,,,AAXX 11094 07280 12770 73104 10230 20150 39848 40107 51007 60006 8357/ 90900=
07280,1997-06-11 12:00:00,27,1009.2,-1.1,45,14,500,14.816,,,110,,,,,,,,,,,wg-a,,,,AAXX 11124 07280 12700 31108 10270 20140 39837 40092 58011 60006 82201 91200=
07280,1997-06-11 18:00:00,26,1006.8,-0.7,54,16,20000,11.112,,,200,19.7,29.4,,,,,,,,17,wg-a,,,,AAXX 11184 07280 12770 72006 10260 20160 39813 40068 58007 60006 71791 84903 91800 333 10294 20197=
07280,1997-06-11 21:00:00,21,1010.8,3.4,56,12,20000,22.224,,,310,,,,,,,,,,1,wg-a,,,,AAXX 11214 07280 02770 43112 10210 20120 39847 40108 51034 61000 70198 845/0 92100 333 ////=
07280,1997-06-12 00:00:00,16,1013.6,2.3,82,13,20000,7.408,,,140,,,,,,,,,,1,wg-a,,,,AAXX 12004 07280 02/70 11404 10160 20130 39870 40136 53023 61000 70198 81030 90000 333 ////=
07280,1997-06-12 03:00:00,15,1013.7,0,88,13,20000,3.704,,,310,,,,,,,,,,,wg-a,,,,AAXX 12034 07280 12870 33102 10150 20130 39870 40137 50000 60006 83031 90300=
07280,1997-06-12 06:00:00,18,1012.9,-0.5,77,14,20000,3.704,,,280,13.9,26.3,,,,,,,,,wg-a,,,,AAXX 12064 07280 02870 52802 10180 20140 39865 40129 57005 60006 81031 90600 333 10263 20139 61000=
07280,1997-06-12 09:00:00,24,1011.7,-0.7,41,10,500,7.408,,,200,,,,,,,,,,,wg-a,,,,AAXX 12094 07280 12600 32004 10240 20100 39858 40117 58007 60006 81101 90900=
07280,1997-06-12 12:00:00,26,1011.1,-0.4,34,9,50000,11.112,,,250,,,,,,,,,,,wg-a,,,,AAXX 12124 07280 12684 72506 10260 20090 39854 40111 58004 60006 81202 91200=
07280,1997-06-12 15:00:00,27,1009.6,-1.4,37,11,50000,7.408,,,290,,,,,,,,,,,wg-a,,,,AAXX 12154 07280 12784 62904 10270 20110 39840 40096 58014 60006 82202 91500=
07280,1997-06-12 18:00:00,23,1009,-0.8,57,14,50000,11.112,,,20,18,26.9,,,,,,,,,wg-a,,,,AAXX 12184 07280 12684 40206 10230 20140 39832 40090 58008 60006 83201 91800 333 10269 20180=
07280,1997-06-13 00:00:00,16,1010.5,0.3,100,16,10000,14.816,,,20,,,,6,,,,,,80,wg-a,,,,AAXX 13004 07280 02460 80208 10160 20160 39840 40105 50003 60066 78098 879// 90000 333 60067=
07280,1997-06-13 06:00:00,16,1009.5,-0.7,94,15,18000,7.408,,,330,13.4,23,,,,,6,,,1,wg-a,,,,AAXX 13064 07280 02768 43304 10160 20150 39831 40095 56007 60006 70198 82801 90600 333 10230 20134 60064=
07280,1997-06-13 09:00:00,20,1008.9,-0.3,78,16,25000,7.408,,,100,,,,,,,,,,,wg-a,,,,AAXX 13094 07280 12575 /1004 10200 20160 39828 40089 58003 60006 81832 90900=
07280,1997-06-13 12:00:00,22,1008.1,-0.6,65,15,25000,7.408,,,160,,,,,,,,,,,wg-a,,,,AAXX 13124 07280 12675 71604 10220 20150 39822 40081 58006 60006 82132 91200=
07280,1997-06-13 15:00:00,24,1006.8,-1.1,61,16,15000,18.52,,,210,,,,,,,,,,25,wg-a,,,,AAXX 13154 07280 02565 72110 10240 20160 39811 40068 56011 61000 72586 83232 91500 333 ////=
07280,1997-06-13 18:00:00,22,1006.6,-0.4,60,14,500,11.112,,,240,16.3,24.7,,,,,,,,1,wg-a,,,,AAXX 13184 07280 12700 72406 10220 20140 39807 40066 56004 60006 70186 8253/ 91800 333 10247 20163=
07280,1997-06-14 00:00:00,18,1008.2,0.6,83,15,500,18.52,,,270,,,,,,,,,,,wg-a,,,,AAXX 14004 07280 12/00 62710 10180 20150 39820 40082 51006 60006 86030 90000=
07280,1997-06-14 03:00:00,16,1009.1,0.6,88,14,20000,7.408,,,210,,,,,,,,,,,wg-a,,,,AAXX 14034 07280 12/70 32104 10160 20140 39826 40091 52006 60006 83030 90300=
07280,1997-06-14 06:00:00,16,1010.6,1.5,94,15,12000,11.112,,,210,14.2,21.6,,,,,,,,,wg-a,,,,AAXX 14064 07280 02662 72106 10160 20150 39841 40106 51015 60006 8553/ 90600 333 10216 20142 61000=
07280,1997-06-14 09:00:00,20,1011.3,1,64,13,15000,25.928,,,240,,,,,,,,,,,wg-a,,,,AAXX 14094 07280 12565 72414 10200 20130 39851 40113 52010 60006 84531 90900=
07280,1997-06-14 12:00:00,22,1011.9,0.7,50,11,20000,22.224,,,230,,,,,,,,,,,wg-a,,,,AAXX 14124 07280 12570 72312 10220 20110 39858 40119 51007 60006 878// 91200=
07280,1997-06-14 15:00:00,22,1012.6,0.8,53,12,20000,29.632,,,270,,,,1,,,,,,1,wg-a,,,,AAXX 14154 07280 12670 42716 10220 20120 39866 40126 51008 60017 70198 84200 91500=
07280,1997-06-14 18:00:00,20,1015.1,2.2,46,8,25000,22.224,,,270,16.4,23.1,,,,,,,,1,wg-a,,,,AAXX 14184 07280 12675 32712 10200 20080 39888 40151 53022 60006 70198 83400 91800 333 10231 20164=
07280,1997-06-14 21:00:00,15,1018,2.4,82,12,20000,7.408,,,240,,,,,,,,,,,wg-a,,,,AAXX 14214 07280 12770 42404 10150 20120 39912 40180 51024 60006 84500 92100=
07280,1997-06-15 00:00:00,13,1018.7,0.5,94,12,20000,0,,,0,,,,,,,,,,,wg-a,,,,AAXX 15004 07280 12770 20000 10130 20120 39917 40187 50005 60006 82500 90000=
07280,1997-06-15 06:00:00,14,1019.2,0.8,88,12,500,0,,,0,10.1,20.3,,,,,1,,,,wg-a,,,,AAXX 15064 07280 02/00 10000 10140 20120 39923 40192 53008 60006 80001 90600 333 10203 20101 60014=
07280,1997-06-15 09:00:00,20,1019,0.3,56,11,500,7.408,,,130,,,,,,,,,,,wg-a,,,,AAXX 15094 07280 12500 /1304 10200 20110 39926 40190 50003 60006 85200 90900=
07280,1997-06-15 12:00:00,22,1018.1,-0.7,46,10,500,11.112,,,50,,,,,,,,,,,wg-a,,,,AAXX 15124 07280 12600 40506 10220 20100 39919 40181 58007 60006 84400 91200=
07280,1997-06-15 18:00:00,22,1016.8,-0.3,46,10,500,7.408,,,80,14.1,23,,,,,,,,,wg-a,,,,AAXX 15184 07280 12700 10804 10220 20100 39907 40168 55003 60006 81100 91800 333 10230 20141=
07280,1997-06-15 21:00:00,16,1018.4,1,77,12,25000,11.112,,,30,,,,,,,,,,,wg-a,,,,AAXX 15214 07280 12/75 20306 10160 20120 39917 40184 53010 60006 80001 92100=
07280,1997-06-16 00:00:00,13,1018.1,-0.6,88,11,25000,11.112,,,360,,,,,,,,,,,wg-a,,,,AAXX 16004 07280 12/75 03606 10130 20110 39911 40181 58006 60006 80000 90000=
07280,1997-06-16 03:00:00,13,1017.7,-0.4,82,10,20000,7.408,,,350,,,,,,,,,,,wg-a,,,,AAXX 16034 07280 12/70 73504 10130 20100 39907 40177 58004 60006 86031 90300=
07280,1997-06-16 06:00:00,15,1017.2,-0.3,72,10,50000,14.816,,,10,12.9,22.3,,,,,,,,,wg-a,,,,AAXX 16064 07280 02784 70108 10150 20100 39904 40172 58003 60006 835/2 90600 333 10223 20129 60004=
07280,1997-06-16 09:00:00,19,1016.8,-0.1,64,12,40000,7.408,,,20,,,,,,,,,,,wg-a,,,,AAXX 16094 07280 12782 70204 10190 20120 39903 40168 56001 60006 835/2 90900=
07280,1997-06-16 12:00:00,22,1015.9,-0.5,57,13,500,3.704,,,100,,,,,,,,,,,wg-a,,,,AAXX 16124 07280 12600 71002 10220 20130 39898 40159 57005 60006 83882 91200=
07280,1997-06-16 18:00:00,19,1014.5,-1.4,83,16,20000,11.112,,,190,15.2,22.1,,,,,,,,21,wg-a,,,,AAXX 16184 07280 02570 /1906 10190 20160 39882 40145 55014 61000 72162 81270 91800 333 10221 20152 6000=
07280,1997-06-16 21:00:00,16,1016,1.2,100,16,10000,3.704,,,190,,,,,,,,,,,wg-a,,,,AAXX 16214 07280 12460 71902 10160 20160 39894 40160 51012 60006 8127/ 92100=
07280,1997-06-17 00:00:00,16,1016,-0.1,82,13,10000,11.112,,,320,,,,,,,,,,,wg-a,,,,AAXX 17004 07280 12360 73206 10160 20130 39893 40160 56001 60006 8257/ 90000=
07280,1997-06-17 03:00:00,14,1016.4,0.3,94,13,15000,3.704,,,200,,,,,,,,,,,wg-a,,,,AAXX 17034 07280 12765 62002 10140 20130 39896 40164 53003 60006 85570 90300=
07280,1997-06-17 06:00:00,16,1016.7,0.4,77,12,12000,11.112,,,290,13.3,18.5,,,,,,,,,wg-a,,,,AAXX 17064 07280 02662 72906 10160 20120 39900 40167 53004 60006 875// 90600 333 10185 20133 60004=
07280,1997-06-17 12:00:00,21,1017.3,0,49,10,500,14.816,,,270,,,,,,,,,,,wg-a,,,,AAXX 17124 07280 12600 72708 10210 20100 39910 40173 50000 60006 85801 91200=
07280,1997-06-17 15:00:00,22,1016.2,-0.9,38,7,500,14.816,,,260,,,,,,,,,,,wg-a,,,,AAXX 17154 07280 12600 62608 10220 20070 39901 40162 58009 60006 84201 91500=
07280,1997-06-17 18:00:00,20,1016.3,-0.1,53,10,500,14.816,,,290,15.9,22.8,,,,,,,,,wg-a,,,,AAXX 17184 07280 12700 62908 10200 20100 39900 40163 55001 60006 85801 91800 333 10228 20159=
07280,1997-06-17 21:00:00,15,1018.4,1.6,88,13,20000,3.704,,,250,,,,1,,,,,,80,wg-a,,,,AAXX 17214 07280 12570 72502 10150 20130 39916 40184 51016 60017 78086 8683/ 92100=
07280,1997-06-18 00:00:00,13,1019.1,0.4,88,11,20000,3.704,,,280,,,,,,,,,,1,wg-a,,,,AAXX 18004 07280 02/70 32802 10130 20110 39920 40191 51004 60016 70186 83030 90000 333 61000=
07280,1997-06-18 06:00:00,13,1019.3,0.3,94,12,15000,7.408,,,20,10.2,20.2,,,,,1,,,,wg-a,,,,AAXX 18064 07280 02365 /0204 10130 20120 39923 40193 53003 60006 86500 90600 333 10202 20102 60014=
07280,1997-06-18 09:00:00,17,1019.4,0.4,63,10,20000,11.112,,,30,,,,,,,,,,,wg-a,,,,AAXX 18094 07280 12570 50306 10170 20100 39927 40194 50004 60006 85200 90900=
07280,1997-06-18 12:00:00,20,1018.1,-1,49,9,25000,7.408,,,60,,,,,,,,,,,wg-a,,,,AAXX 18124 07280 12675 40604 10200 20090 39917 40181 58010 60006 84200 91200=
07280,1997-06-18 15:00:00,21,1017.1,-0.9,40,7,25000,11.112,,,90,,,,,,,,,,,wg-a,,,,AAXX 18154 07280 12775 /0906 10210 20070 39908 40171 58009 60006 85200 91500=
07280,1997-06-18 18:00:00,20,1015.9,-1.2,43,7,25000,14.816,,,30,13.1,21.6,,,,,,,,,wg-a,,,,AAXX 18184 07280 12775 10308 10200 20070 39896 40159 56012 60006 81100 91800 333 10216 20131=
07280,1997-06-18 21:00:00,15,1016.3,-0.1,72,10,25000,14.816,,,20,,,,,,,,,,,wg-a,,,,AAXX 18214 07280 12/75 10208 10150 20100 39895 40163 58001 60006 80001 92100=
07280,1997-06-19 00:00:00,11,1015.3,-1.3,82,8,20000,11.112,,,360,,,,,,,,,,,wg-a,,,,AAXX 19004 07280 12/70 13606 10110 20080 39882 40153 58013 60006 80001 90000=
07280,1997-06-19 03:00:00,12,1012.8,-2.4,76,8,12000,7.408,,,350,,,,,,,,,,,wg-a,,,,AAXX 19034 07280 12/62 53504 10120 20080 39858 40128 56024 60006 85070 90300=
07280,1997-06-19 06:00:00,14,1011.4,-1.1,72,9,15000,11.112,,,350,11.1,20.3,,,,,,,,,wg-a,,,,AAXX 19064 07280 02/65 53506 10140 20090 39847 40114 57011 60006 80001 90600 333 10203 20111 60004=
07280,1997-06-19 12:00:00,22,1008.2,-1.4,38,7,25000,3.704,,,210,,,,,,,,,,,wg-a,,,,AAXX 19124 07280 12775 62102 10220 20070 39822 40082 56014 60006 85201 91200=
07280,1997-06-19 15:00:00,22,1006.8,-1.4,35,6,25000,14.816,,,250,,,,,,,,,,,wg-a,,,,AAXX 19154 07280 12675 72508 10220 20060 39808 40068 55014 60006 8438/ 91500=
07280,1997-06-19 18:00:00,20,1007.3,0.4,46,8,20000,11.112,,,270,14.4,23.2,,,,,,,,1,wg-a,,,,AAXX 19184 07280 02770 62706 10200 20080 39812 40073 51004 60006 70186 82270 91800 333 10232 20144 61000=
07280,1997-06-19 21:00:00,15,1008.8,1,72,10,12000,11.112,,,220,,,,,,,,,,25,wg-a,,,,AAXX 19214 07280 02562 72206 10150 20100 39822 40088 53010 61000 72586 8347/ 92100 333 ////=
07280,1997-06-20 00:00:00,13,1010.1,1.1,82,10,12000,14.816,,,250,,,,,,,,,,60,wg-a,,,,AAXX 20004 07280 02562 82508 10130 20100 39833 40101 51011 61000 76086 8587/ 90000 333 6100=
07280,1997-06-20 03:00:00,11,1010.8,0.5,87,9,15000,7.408,,,200,,,,,,,,,,3,wg-a,,,,AAXX 20034 07280 02565 52004 10110 20090 39838 40108 53005 61000 70361 85800 90300 333 ////=
07280,1997-06-20 06:00:00,12,1011.2,0.5,88,10,20000,14.816,,,190,10.2,20.1,,,,,,,,3,wg-a,,,,AAXX 20064 07280 02370 71908 10120 20100 39843 40112 51005 60006 70361 878// 90600 333 10201 20102 61000=
07280,1997-06-20 09:00:00,14,1011.2,0.2,82,11,18000,25.928,,,200,,,,,,,,,,3,wg-a,,,,AAXX 20094 07280 02468 72014 10140 20110 39845 40112 53002 61000 70362 878// 90900 333 ////=
07280,1997-06-20 12:00:00,18,1009.6,-1.2,64,11,20000,25.928,,,190,,,,,,,,,,1,wg-a,,,,AAXX 20124 07280 02570 71914 10180 20110 39833 40096 58012 61000 70162 878// 91200 333 6100=
07280,1997-06-20 18:00:00,18,1006.8,-1,64,11,25000,14.816,,,200,11.9,19.8,,,,,,,,60,wg-a,,,,AAXX 20184 07280 02575 82008 10180 20110 39806 40068 58010 61000 76062 8583/ 91800 333 10198 20119 6100=
07280,1997-06-20 21:00:00,16,1006.3,-0.7,77,12,20000,7.408,,,190,,,,,,,,,,3,wg-a,,,,AAXX 20214 07280 02670 81904 10160 20120 39799 40063 58007 61000 70362 8457/ 92100 333 ////=
07280,1997-06-21 00:00:00,16,1005.1,-1.2,77,12,15000,7.408,,,230,,,,,,,,,,3,wg-a,,,,AAXX 21004 07280 02665 82304 10160 20120 39787 40051 58012 61000 70362 8557/ 90000 333 ////=
07280,1997-06-21 03:00:00,15,1004.1,-1,88,13,15000,22.224,,,190,,,,1,,,,,,3,wg-a,,,,AAXX 21034 07280 12565 81912 10150 20130 39777 40041 57010 60017 70362 888// 90300=
07280,1997-06-21 06:00:00,14,1004.7,0.5,100,14,10000,25.928,,,200,14.3,18.1,,,,,,,,60,wg-a,,,,AAXX 21064 07280 02460 82014 10140 20140 39782 40047 51005 61000 76062 878// 90600 333 10181 20143 6001=
07280,1997-06-21 12:00:00,15,1004.7,0,94,14,9000,25.928,,,210,,,,2,,,,,,61,wg-a,,,,AAXX 21124 07280 02459 82114 10150 20140 39783 40047 50000 60036 76162 8372/ 91200 333 60027=
07280,1997-06-21 15:00:00,14,1004.6,-0.2,100,14,12000,14.816,,,170,,,,5,,,,,,61,wg-a,,,,AAXX 21154 07280 12462 81708 10140 20140 39781 40046 56002 60057 76166 8382/ 91500=
07280,1997-06-21 18:00:00,13,1004.4,-0.3,100,13,9000,18.52,,,180,13.3,16,,,,,,,,61,wg-a,,,,AAXX 21184 07280 02359 81810 10130 20130 39778 40044 55003 61000 76166 8572/ 91800 333 10160 20133 6005=
07280,1997-06-21 21:00:00,13,1005.1,0.7,100,13,8000,18.52,,,180,,,,3,,,,,,61,wg-a,,,,AAXX 21214 07280 12258 81810 10130 20130 39785 40051 53007 60037 76166 875// 92100=
07280,1997-06-22 00:00:00,13,1006,0.8,94,12,7000,11.112,,,240,,,,6,,,,,,61,wg-a,,,,AAXX 22004 07280 02357 82406 10130 20120 39793 40060 53008 60096 76166 885// 90000 333 60067=
07280,1997-06-22 03:00:00,12,1006.1,0,94,11,20000,11.112,,,190,,,,3,,,,,,21,wg-a,,,,AAXX 22034 07280 12570 71906 10120 20110 39793 40061 50000 60037 72162 875// 90300=
07280,1997-06-22 06:00:00,12,1007,0.9,100,12,15000,18.52,,,200,11.1,13.3,,,,,27,,,3,wg-a,,,,AAXX 22064 07280 02365 /2010 10120 20120 39802 40070 51009 60006 70386 85201 90600 333 10133 20111 60274=
07280,1997-06-22 09:00:00,16,1006.7,0.1,77,12,500,25.928,,,190,,,,,,,,,,25,wg-a,,,,AAXX 22094 07280 02400 41914 10160 20120 39803 40067 50001 61000 72586 84201 90900 333 ////=
07280,1997-06-22 12:00:00,18,1005.8,-0.7,68,12,500,31.484,,,190,,,,0,,,,,,1,wg-a,,,,AAXX 22124 07280 02500 31917 10180 20120 39796 40058 58007 60016 70186 83200 91200 333 60007=
07280,1997-06-22 15:00:00,16,1006.2,0.2,72,11,500,18.52,,,200,,,,1,,,,,,25,wg-a,,,,AAXX 22154 07280 12500 /2010 10160 20110 39798 40062 53002 60017 72598 85900 91500=
07280,1997-06-22 18:00:00,15,1007.1,0.8,72,10,12000,18.52,,57.412,280,12.2,19.7,,,,,,,,25,wg-a,,,,AAXX 22184 07280 02562 62810 10150 20100 39806 40071 53008 61000 72598 85330 91800 333 10197 20122 6002 91031=
07280,1997-06-22 21:00:00,13,1009.5,2.1,77,9,20000,14.816,,,200,,,,,,,,,,,wg-a,,,,AAXX 22214 07280 12570 42008 10130 20090 39827 40095 53021 60006 84800 92100=
07280,1997-06-23 00:00:00,13,1010.4,0.9,77,9,20000,14.816,,,210,,,,,,,,,,,wg-a,,,,AAXX 23004 07280 12570 52108 10130 20090 39836 40104 51009 60006 84830 90000=
07280,1997-06-23 03:00:00,12,1010.2,-0.3,88,10,15000,14.816,,,180,,,,,,,,,,,wg-a,,,,AAXX 23034 07280 12465 71808 10120 20100 39833 40102 56003 60006 878// 90300=
07280,1997-06-23 06:00:00,12,1011.2,1,94,11,12000,18.52,,,210,11.2,15.8,,,,,,,,21,wg-a,,,,AAXX 23064 07280 02462 72110 10120 20110 39843 40112 53010 61000 72186 878// 90600 333 10158 20112 6004=
07280,1997-06-23 09:00:00,14,1012.4,1.3,82,11,20000,14.816,,,200,,,,,,,,,,25,wg-a,,,,AAXX 23094 07280 02570 /2008 10140 20110 39856 40124 51013 61000 72586 878// 90900 333 ////=
07280,1997-06-23 12:00:00,18,1012.6,0.5,52,8,20000,22.224,,,240,,,,,,,,,,1,wg-a,,,,AAXX 23124 07280 02570 72412 10180 20080 39861 40126 50005 61000 70186 878// 91200 333 ////=
07280,1997-06-23 15:00:00,18,1012.7,0.2,56,9,20000,25.928,,,260,,,,,,,,,,,wg-a,,,,AAXX 23154 07280 12670 72614 10180 20090 39863 40127 53002 60006 878// 91500=
07280,1997-06-23 18:00:00,17,1012.9,0.1,63,10,20000,18.52,,,230,12.3,19.6,,,,,,,,,wg-a,,,,AAXX 23184 07280 12670 /2310 10170 20100 39864 40129 53001 60006 85800 91800 333 10196 20123=
07280,1997-06-24 00:00:00,13,1016,0.8,88,11,20000,7.408,,,180,,,,,,,,,,,wg-a,,,,AAXX 24004 07280 12570 71804 10130 20110 39890 40160 51008 60006 8387/ 90000=
07280,1997-06-24 03:00:00,12,1016,-0,100,12,15000,7.408,,,160,,,,1,,,,,,25,wg-a,,,,AAXX 24034 07280 12465 71604 10120 20120 39890 40160 55000 60017 72586 878// 90300=
07280,1997-06-24 06:00:00,14,1016.4,0.5,94,13,15000,14.816,,,220,11.4,17.4,,,,,1,,,3,wg-a,,,,AAXX 24064 07280 02365 72208 10140 20130 39895 40164 52005 60006 70386 86501 90600 333 10174 20114 60014=
07280,1997-06-24 09:00:00,16,1017.3,1.1,68,10,20000,25.928,,,280,,,,,,,,,,,wg-a,,,,AAXX 24094 07280 12570 82814 10160 20100 39906 40173 51011 60006 888// 90900=
07280,1997-06-24 12:00:00,17,1017.5,0.3,55,8,20000,22.224,,,280,,,,,,,,,,,wg-a,,,,AAXX 24124 07280 12670 72812 10170 20080 39909 40175 53003 60006 878// 91200=
07280,1997-06-24 15:00:00,16,1017.8,0.2,55,7,20000,18.52,,,280,,,,,,,,,,,wg-a,,,,AAXX 24154 07280 12670 72810 10160 20070 39911 40178 53002 60006 878// 91500=
07280,1997-06-24 18:00:00,16,1017.4,-0.5,63,9,20000,11.112,,,270,13.7,17.7,,,,,,,,,wg-a,,,,AAXX 24184 07280 12670 72706 10160 20090 39906 40174 55005 60006 878// 91800 333 10177 20137=
07280,1997-06-24 21:00:00,14,1017.6,0.1,82,11,20000,3.704,,,240,,,,,,,,,,,wg-a,,,,AAXX 24214 07280 12670 82402 10140 20110 39907 40176 52001 60006 885// 92100=
07280,1997-06-25 00:00:00,12,1016.9,-0.8,94,11,20000,3.704,,,240,,,,,,,,,,,wg-a,,,,AAXX 25004 07280 12770 72402 10120 20110 39899 40169 56008 60006 875// 90000=
07280,1997-06-25 03:00:00,10,1015.3,-1.8,100,10,20000,3.704,,,260,,,,,,,,,,,wg-a,,,,AAXX 25034 07280 12770 72602 10100 20100 39881 40153 56018 60006 875// 90300=
07280,1997-06-25 06:00:00,12,1013.8,-1.3,94,11,10000,3.704,,,140,9.1,15.6,,,,,,,,,wg-a,,,,AAXX 25064 07280 02360 71402 10120 20110 39868 40138 58013 60006 84502 90600 333 10156 20091 60004=
07280,1997-06-25 09:00:00,17,1011.8,-1.5,63,10,20000,18.52,,,190,,,,,,,,,,,wg-a,,,,AAXX 25094 07280 12570 71910 10170 20100 39853 40118 58015 60006 85802 90900=
07280,1997-06-25 12:00:00,17,1010.4,-1.3,59,9,25000,18.52,,,200,,,,,,,,,,,wg-a,,,,AAXX 25124 07280 12675 82010 10170 20090 39840 40104 58013 60006 8587/ 91200=
07280,1997-06-25 15:00:00,18,1008.3,-2,49,7,25000,22.224,,,200,,,,,,,,,,1,wg-a,,,,AAXX 25154 07280 02675 82012 10180 20070 39820 40083 58020 61000 70162 8287/ 91500 333 ////=
07280,1997-06-25 18:00:00,16,1006,-2.4,68,10,25000,14.816,,,180,11.6,18.2,,,,,,,,3,wg-a,,,,AAXX 25184 07280 12675 81808 10160 20100 39796 40060 56024 60006 70362 8587/ 91800 333 10182 20116=
07280,1997-06-25 21:00:00,13,1005.7,-0.6,94,12,10000,14.816,,,200,,,,1,,,,,,61,wg-a,,,,AAXX 25214 07280 12560 82008 10130 20120 39790 40057 57006 60017 76162 8587/ 92100=
07280,1997-06-26 00:00:00,13,1003.6,-2,94,12,10000,18.52,,,200,,,,2,,,,,,21,wg-a,,,,AAXX 26004 07280 02460 82010 10130 20120 39770 40036 58020 60036 72162 888// 90000 333 60027=
07280,1997-06-26 03:00:00,13,1001.2,-2.4,94,12,10000,14.816,,,200,,,,1,,,,,,21,wg-a,,,,AAXX 26034 07280 12260 82008 10130 20120 39746 40012 58024 60017 72162 885// 90300=
07280,1997-06-26 06:00:00,13,1000.3,-0.8,94,12,20000,22.224,,,220,12.3,16.2,,,,,4,,,1,wg-a,,,,AAXX 26064 07280 02370 82212 10130 20120 39738 40003 56008 60006 70162 8657/ 90600 333 10162 20123 60044=
07280,1997-06-26 12:00:00,17,999,-0.9,72,12,15000,31.484,,,210,,,,0,,,,,,1,wg-a,,,,AAXX 26124 07280 02565 72117 10170 20120 39729 49990 58009 60006 70162 872// 91200 333 60007=
07280,1997-06-26 15:00:00,17,997.1,-1.9,77,13,8000,29.632,,,200,,,,,,,,,,80,wg-a,,,,AAXX 26154 07280 02458 82016 10170 20130 39710 49971 58019 61000 78086 889// 91500 333 ////=
07280,1997-06-26 18:00:00,15,997.1,-0.1,94,14,9000,14.816,,,200,12.1,19.3,,,,,,,,80,wg-a,,,,AAXX 26184 07280 02459 72008 10150 20140 39709 49971 58001 61000 78098 879// 91800 333 10193 20121 6009=
07280,1997-06-26 21:00:00,13,998.6,1.2,94,12,15000,7.408,,,190,,,,0,,,,,,2,wg-a,,,,AAXX 26214 07280 12765 71904 10130 20120 39721 49986 52012 60007 70286 875// 92100=
07280,1997-06-27 00:00:00,12,998.7,0,100,12,12000,7.408,,,190,,,,5,,,,,,1,wg-a,,,,AAXX 27004 07280 02562 /1904 10120 20120 39721 49987 50000 60056 70186 85800 90000 333 60057=
07280,1997-06-27 03:00:00,11,998.9,0.2,100,11,15000,11.112,,,190,,,,0,,,,,,,wg-a,,,,AAXX 27034 07280 12765 61906 10110 20110 39723 49989 53002 60007 86500 90300=
07280,1997-06-27 06:00:00,12,999.6,0.7,88,10,20000,18.52,,,190,10.3,15.1,,,,,14,,,3,wg-a,,,,AAXX 27064 07280 02370 31910 10120 20100 39730 49996 51007 60006 70361 81150 90600 333 10151 20103 60144=
07280,1997-06-27 09:00:00,15,999.4,0.1,63,8,25000,29.632,,,220,,,,,,,,,,,wg-a,,,,AAXX 27094 07280 12575 /2216 10150 20080 39731 49994 50001 60006 85270 90900=
07280,1997-06-27 12:00:00,15,1000.5,1,67,9,500,29.632,,,210,,,,0,,,,,,80,wg-a,,,,AAXX 27124 07280 02600 /2116 10150 20090 39741 40005 53010 60006 78086 86270 91200 333 60007=
07280,1997-06-27 18:00:00,17,1001.5,0.8,59,9,50000,18.52,,,210,12.1,19,,,,,,,,3,wg-a,,,,AAXX 27184 07280 12684 52110 10170 20090 39753 40015 53008 60006 70386 85800 91800 333 10190 20121=
07280,1997-06-28 00:00:00,12,1005.6,1.4,82,9,25000,7.408,,,190,,,,,,,,,,,wg-a,,,,AAXX 28004 07280 12575 41904 10120 20090 39788 40056 51014 60006 84800 90000=
07280,1997-06-28 06:00:00,13,1008.2,1.3,82,10,500,11.112,,,200,9.2,17.1,,,,,,,,,wg-a,,,,AAXX 28064 07280 02700 22006 10130 20100 39814 40082 52013 60006 82500 90600 333 10171 20092 60004=
07280,1997-06-28 09:00:00,17,1008.7,0.9,55,8,50000,22.224,,,200,,,,,,,,,,,wg-a,,,,AAXX 28094 07280 12684 52012 10170 20080 39823 40087 52009 60006 84201 90900=
07280,1997-06-28 12:00:00,19,1008.7,0.2,46,7,50000,11.112,,,170,,,,,,,,,,,wg-a,,,,AAXX 28124 07280 12684 71706 10190 20070 39825 40087 50002 60006 81202 91200=
07280,1997-06-28 15:00:00,21,1008.4,-0.2,35,5,50000,7.408,,,160,,,,,,,,,,,wg-a,,,,AAXX 28154 07280 12784 71604 10210 20050 39823 40084 58002 60006 81132 91500=
07280,1997-06-28 18:00:00,20,1007.4,-1,43,7,40000,14.816,,,70,12.6,21.2,,,,,,,,,wg-a,,,,AAXX 28184 07280 12/82 70708 10200 20070 39813 40074 56010 60006 85081 91800 333 10212 20126=
07280,1997-06-28 21:00:00,17,1007.7,0,72,12,20000,14.816,,,360,,,,1,,,,,,63,wg-a,,,,AAXX 28214 07280 12/70 83608 10170 20120 39813 40077 50000 60017 76362 8807/ 92100=
07280,1997-06-29 00:00:00,15,1004.7,-3.1,77,11,20000,14.816,,,10,,,,,,,,,,60,wg-a,,,,AAXX 29004 07280 02/70 80108 10150 20110 39782 40047 58031 60016 76062 8807/ 90000 333 61000=
07280,1997-06-29 03:00:00,14,1004.8,-0,88,12,15000,11.112,,,290,,,,1,,,,,,61,wg-a,,,,AAXX 29034 07280 12665 82906 10140 20120 39782 40048 55000 60017 76166 875// 90300=
07280,1997-06-29 06:00:00,14,1003.7,-1,94,13,20000,3.704,,,10,13.2,20.4,,,,,3,,,2,wg-a,,,,AAXX 29064 07280 02670 70102 10140 20130 39772 40037 55010 60006 70262 8157/ 90600 333 10204 20132 60034=
07280,1997-06-29 09:00:00,15,1003.7,0.1,94,14,20000,7.408,,,40,,,,,,,,,,1,wg-a,,,,AAXX 29094 07280 02470 70404 10150 20140 39773 40037 50001 61000 70186 8387/ 90900 333 ////=
07280,1997-06-29 12:00:00,19,1002.9,-0.5,78,15,20000,11.112,,,110,,,,,,,,,,3,wg-a,,,,AAXX 29124 07280 02470 71106 10190 20150 39768 40029 58005 61000 70386 8487/ 91200 333 ////=
07280,1997-06-29 15:00:00,19,1002,-0.8,73,14,20000,22.224,,,90,,,,,,,,,,,wg-a,,,,AAXX 29154 07280 12570 70912 10190 20140 39760 40020 58008 60006 84903 91500=
07280,1997-06-29 18:00:00,18,1001.4,-0.7,83,15,20000,7.408,,,170,13.6,20.9,,,,,,,,3,wg-a,,,,AAXX 29184 07280 02470 /1704 10180 20150 39753 40014 56007 60006 70386 82303 91800 333 10209 20136 61000=
07280,1997-06-29 21:00:00,15,1003.3,1.6,94,14,25000,11.112,,,220,,,,,,,,,,,wg-a,,,,AAXX 29214 07280 12675 /2206 10150 20140 39769 40033 51016 60006 84102 92100=
07280,1997-06-30 00:00:00,14,1004.5,1,82,11,25000,14.816,,,210,,,,,,,,,,,wg-a,,,,AAXX 30004 07280 12675 /2108 10140 20110 39779 40045 51010 60006 85502 90000=
07280,1997-06-30 06:00:00,13,1005.1,1,82,10,20000,22.224,,,190,12.5,17.8,,,,,,,,,wg-a,,,,AAXX 30064 07280 02470 81912 10130 20100 39784 40051 51010 60006 888// 90600 333 10178 20125 61000=
07280,1997-06-30 09:00:00,13,1006.5,1.4,88,11,20000,25.928,,,200,,,,,,,,,,,wg-a,,,,AAXX 30094 07280 12470 82014 10130 20110 39798 40065 51014 60006 888// 90900=
07280,1997-06-30 12:00:00,16,1006.3,0.1,77,12,20000,25.928,,,200,,,,,,,,,,25,wg-a,,,,AAXX 30124 07280 02570 /2014 10160 20120 39799 40063 50001 61000 72586 872// 91200 333 6100=
07280,1997-06-30 15:00:00,16,1006.5,0.2,77,12,20000,25.928,,,190,,,,0,,,,,,1,wg-a,,,,AAXX 30154 07280 12570 71914 10160 20120 39801 40065 53002 60007 70186 83963 91500=
07280,1997-06-30 18:00:00,15,1007.6,1,88,13,7000,14.816,,,230,12.7,17.6,,,,,,,,80,wg-a,,,,AAXX 30184 07280 02457 82308 10150 20130 39811 40076 53010 61000 78086 879// 91800 333 10176 20127 6001=
07280,1997-06-30 21:00:00,13,1009.3,1.4,94,12,20000,14.816,,,200,,,,1,,,,,,3,wg-a,,,,AAXX 30214 07280 12370 72008 10130 20120 39825 40093 53014 60017 70386 878// 92100=
07280,1997-07-01 00:00:00,12,1010,0.7,100,12,10000,14.816,,,190,,,,0,,,,,,80,wg-a,,,,AAXX 01004 07280 02360 81908 10120 20120 39832 40100 51007 60016 78086 888// 90000 333 60007=
07280,1997-07-01 03:00:00,12,1010.2,0.2,100,12,10000,14.816,,,190,,,,,,,,,,80,wg-a,,,,AAXX 01034 07280 02260 71908 10120 20120 39834 40102 51002 61000 78086 878// 90300 333 ////=
07280,1997-07-01 06:00:00,13,1011.3,1.1,94,12,10000,18.52,,,210,12.1,14.7,,,,,,,,50,wg-a,,,,AAXX 01064 07280 02360 /2110 10130 20120 39845 40113 53011 61000 75086 875// 90600 333 10147 20121 6003=
07280,1997-07-01 09:00:00,17,1012.3,1.3,63,10,15000,29.632,,,230,,,,,,,,,,1,wg-a,,,,AAXX 01094 07280 02565 /2316 10170 20100 39858 40123 51013 61000 70165 85201 90900 333 ////=
07280,1997-07-01 12:00:00,16,1012.4,0,77,12,7000,29.632,,,210,,,,0,,,,,,80,wg-a,,,,AAXX 01124 07280 02557 72116 10160 20120 39858 40124 50000 60006 78086 872// 91200 333 60007=
07280,1997-07-01 15:00:00,18,1011.5,-0.7,68,12,12000,11.112,,,230,,,,1,,,,,,80,wg-a,,,,AAXX 01154 07280 12562 72306 10180 20120 39851 40115 55007 60017 78086 878// 91500=
07280,1997-07-01 18:00:00,19,1011,-0.4,60,11,20000,7.408,,,210,12.6,19.9,,,,,,,,1,wg-a,,,,AAXX 01184 07280 02570 /2104 10190 20110 39847 40110 56004 60006 70186 83801 91800 333 10199 20126 61000=
07280,1997-07-01 21:00:00,15,1012.7,1.3,82,12,20000,7.408,,,240,,,,,,,,,,,wg-a,,,,AAXX 01214 07280 12670 /2404 10150 20120 39860 40127 51013 60006 84800 92100=
07280,1997-07-02 00:00:00,11,1013.1,0.1,100,11,20000,3.704,,,130,,,,,,,,,,,wg-a,,,,AAXX 02004 07280 12770 21302 10110 20110 39861 40131 50001 60006 82501 90000=
07280,1997-07-02 03:00:00,12,1012.3,-0.8,94,11,9000,7.408,,,350,,,,,,,,,,,wg-a,,,,AAXX 02034 07280 12759 73504 10120 20110 39853 40123 56008 60006 8557/ 90300=
07280,1997-07-02 06:00:00,13,1011.2,-0.9,94,12,12000,3.704,,,90,10.3,18.6,,,,,,,,60,wg-a,,,,AAXX 02064 07280 02762 70902 10130 20120 39844 40112 58009 61000 76061 8657/ 90600 333 10186 20103 6001=
07280,1997-07-02 09:00:00,15,1010.9,-0.1,94,14,10000,7.408,,,150,,,,1,,,,,,61,wg-a,,,,AAXX 02094 07280 12460 81504 10150 20140 39843 40109 58001 60017 76162 8587/ 90900=
07280,1997-07-02 12:00:00,17,1009.2,-1.5,82,14,20000,3.704,,,120,,,,1,,,,,,21,wg-a,,,,AAXX 02124 07280 02770 /1202 10170 20140 39828 40092 58015 60016 72162 8457/ 91200 333 60017=
07280,1997-07-02 15:00:00,20,1008.6,-0.3,56,11,15000,29.632,,,200,,,,,,,,,,,wg-a,,,,AAXX 02154 07280 12565 82016 10200 20110 39825 40086 55003 60006 888// 91500=
07280,1997-07-02 18:00:00,15,1012.3,3.1,88,13,12000,14.816,,,170,12.9,21.4,,,,,,,,61,wg-a,,,,AAXX 02184 07280 02462 81708 10150 20130 39856 40123 51031 61000 76162 888// 91800 333 10214 20129 6000=
07280,1997-07-02 21:00:00,13,1014.9,2.4,100,13,15000,14.816,,,210,,,,2,,,,,,21,wg-a,,,,AAXX 02214 07280 12265 72108 10130 20130 39880 40149 51024 60027 72162 8657/ 92100=
07280,1997-07-03 00:00:00,13,1015.1,0.2,100,13,15000,7.408,,,180,,,,0,,,,,,1,wg-a,,,,AAXX 03004 07280 02765 51804 10130 20130 39882 40151 52002 60026 70162 855/0 90000 333 60007=
07280,1997-07-03 06:00:00,13,1016,0.6,100,13,10000,3.704,,,180,12.2,14.8,,,,,4,,,,wg-a,,,,AAXX 03064 07280 02260 71802 10130 20130 39891 40160 53006 60006 8373/ 90600 333 10148 20122 60044=
07280,1997-07-03 12:00:00,16,1017.2,0.4,72,11,20000,11.112,,,180,,,,1,,,,,,80,wg-a,,,,AAXX 03124 07280 02570 71806 10160 20110 39905 40172 51004 60016 78086 8487/ 91200 333 60017=
07280,1997-07-03 15:00:00,17,1017.1,-0,72,12,20000,14.816,,,160,,,,,,,,,,1,wg-a,,,,AAXX 03154 07280 02570 /1608 10170 20120 39905 40171 55000 61000 70162 83230 91500 333 ////=
07280,1997-07-03 18:00:00,17,1017,-0.1,72,12,500,14.816,,,180,12.8,18.4,,,,,,,,1,wg-a,,,,AAXX 03184 07280 12500 /1808 10170 20120 39904 40170 55001 60006 70162 82830 91800 333 10184 20128=
07280,1997-07-03 21:00:00,14,1018.6,1.3,88,12,25000,0,,,0,,,,,,,,,,,wg-a,,,,AAXX 03214 07280 12675 /0000 10140 20120 39917 40186 53013 60006 82530 92100=
07280,1997-07-04 00:00:00,12,1019.3,0.4,94,11,20000,3.704,,,90,,,,,,,,,,,wg-a,,,,AAXX 04004 07280 12770 40902 10120 20110 39921 40193 51004 60006 84500 90000=
07280,1997-07-04 06:00:00,12,1019.4,0.5,100,12,400,0,,,0,10.3,16.6,,,,,1,,,43,wg-a,,,,AAXX 04064 07280 02/04 90000 10120 20120 39923 40194 53005 60006 74341 89/// 90600 333 10166 20103 60014=
07280,1997-07-04 09:00:00,16,1019.9,0.8,82,13,9000,3.704,,,200,,,,,,,,,,1,wg-a,,,,AAXX 04094 07280 02259 /2002 10160 20130 39931 40199 51008 61000 70165 8353/ 90900 333 ////=
07280,1997-07-04 12:00:00,20,1019,-0.5,60,12,20000,11.112,,,170,,,,,,,,,,3,wg-a,,,,AAXX 04124 07280 02670 61706 10200 20120 39926 40190 58005 61000 70365 85230 91200 333 ////=
07280,1997-07-04 15:00:00,20,1018,-0.9,53,10,20000,7.408,,,190,,,,0,,,,,,29,wg-a,,,,AAXX 04154 07280 12670 71904 10200 20100 39917 40180 58009 60007 72998 81202 91500=
07280,1997-07-04 18:00:00,19,1018.1,-0,64,12,15000,11.112,,,190,12.1,21.9,,,,,,,,3,wg-a,,,,AAXX 04184 07280 12565 71906 10190 20120 39917 40181 55000 60006 70398 83302 91800 333 10219 20121=
07280,1997-07-04 21:00:00,15,1019.8,1.2,77,11,15000,7.408,,,310,,,,,,,,,,,wg-a,,,,AAXX 04214 07280 12565 73104 10150 20110 39929 40198 52012 60006 84802 92100=
07280,1997-07-05 00:00:00,14,1020.4,0.5,88,12,15000,3.704,,,20,,,,0,,,,,,,wg-a,,,,AAXX 05004 07280 02665 70202 10140 20120 39934 40204 50005 60006 875// 90000 333 60007=
07280,1997-07-05 06:00:00,13,1020.9,1,88,11,20000,11.112,,,340,12.8,19.2,,,,,1,,,1,wg-a,,,,AAXX 05064 07280 02470 83406 10130 20110 39938 40209 53010 60006 70162 888// 90600 333 10192 20128 60014=
07280,1997-07-05 09:00:00,14,1021.8,1,88,12,25000,7.408,,,330,,,,,,,,,,60,wg-a,,,,AAXX 05094 07280 02475 83304 10140 20120 39948 40218 52010 61000 76062 888// 90900 333 ////=
07280,1997-07-05 12:00:00,16,1022.2,0.6,72,11,20000,18.52,,,340,,,,,,,,,,1,wg-a,,,,AAXX 05124 07280 02570 73410 10160 20110 39954 40222 51006 61000 70162 878// 91200 333 6100=
07280,1997-07-05 15:00:00,19,1022.3,0.3,64,12,25000,22.224,,,310,,,,,,,,,,3,wg-a,,,,AAXX 05154 07280 02675 /3112 10190 20120 39957 40223 53003 61000 70386 86800 91500 333 ////=
07280,1997-07-05 18:00:00,18,1023.2,0.9,64,11,25000,18.52,,,320,13.1,18.9,,,,,,,,1,wg-a,,,,AAXX 05184 07280 12675 43210 10180 20110 39966 40232 53009 60006 70186 84400 91800 333 10189 20131=
07280,1997-07-05 21:00:00,15,1025.7,2.1,77,11,25000,11.112,,,310,,,,,,,,,,,wg-a,,,,AAXX 05214 07280 12675 73106 10150 20110 39987 40257 53021 60006 878// 92100=
07280,1997-07-06 00:00:00,15,1026.3,0.5,82,12,25000,14.816,,,320,,,,,,,,,,,wg-a,,,,AAXX 06004 07280 12775 73208 10150 20120 39992 40263 51005 60006 875// 90000=
07280,1997-07-06 03:00:00,14,1026.8,0.5,88,12,15000,18.52,,,340,,,,,,,,,,,wg-a,,,,AAXX 06034 07280 12765 73410 10140 20120 39997 40268 53005 60006 875// 90300=
07280,1997-07-06 06:00:00,14,1027.8,0.9,82,11,12000,18.52,,,350,13.6,18.3,,,,,,,,,wg-a,,,,AAXX 06064 07280 02462 /3510 10140 20110 30006 40278 52009 60006 86500 90600 333 10183 20136 61000=
07280,1997-07-06 09:00:00,16,1028.1,0.5,63,9,15000,18.52,,,330,,,,,,,,,,,wg-a,,,,AAXX 06094 07280 12565 33310 10160 20090 30011 40281 52005 60006 83100 90900=
07280,1997-07-06 12:00:00,18,1027.7,-0.2,56,9,25000,14.816,,,340,,,,,,,,,,,wg-a,,,,AAXX 06124 07280 12675 /3408 10180 20090 30009 40277 58002 60006 85200 91200=
07280,1997-07-06 18:00:00,18,1027.4,0.5,56,9,25000,18.52,,,10,14.1,20.8,,,,,,,,,wg-a,,,,AAXX 06184 07280 12/75 80110 10180 20090 30006 40274 51005 60006 8803/ 91800 333 10208 20141=
07280,1997-07-06 21:00:00,17,1027.8,0.3,63,10,20000,18.52,,,350,,,,,,,,,,,wg-a,,,,AAXX 06214 07280 12770 73510 10170 20100 30009 40278 53003 60006 8553/ 92100=
07280,1997-07-07 00:00:00,14,1027.5,-0.5,94,13,15000,7.408,,,10,,,,1,,,,,,21,wg-a,,,,AAXX 07004 07280 02665 80104 10140 20130 30004 40275 58005 60016 72162 885// 90000 333 60017=
07280,1997-07-07 03:00:00,14,1026.8,-0.7,94,13,12000,3.704,,,350,,,,,,,,,,,wg-a,,,,AAXX 07034 07280 12262 83502 10140 20130 39997 40268 58007 60006 885// 90300=
07280,1997-07-07 06:00:00,15,1026.9,0.2,88,13,8000,11.112,,,30,13.8,18.3,,,,,1,,,,wg-a,,,,AAXX 07064 07280 02558 70306 10150 20130 39999 40269 53002 60006 875// 90600 333 10183 20138 60014=
07280,1997-07-07 09:00:00,18,1026.6,-0.1,73,13,15000,18.52,,,40,,,,,,,,,,,wg-a,,,,AAXX 07094 07280 12465 70410 10180 20130 39998 40266 57001 60006 878// 90900=
07280,1997-07-07 12:00:00,21,1025.1,-1.1,53,11,25000,18.52,,,30,,,,,,,,,,,wg-a,,,,AAXX 07124 07280 12675 60310 10210 20110 39987 40251 58011 60006 84201 91200=
07280,1997-07-07 15:00:00,22,1024,-1,50,11,25000,22.224,,,60,,,,,,,,,,,wg-a,,,,AAXX 07154 07280 12675 50612 10220 20110 39977 40240 56010 60006 85400 91500=
07280,1997-07-07 18:00:00,21,1023.4,-0.7,53,11,25000,14.816,,,30,15,22.7,,,,,,,,,wg-a,,,,AAXX 07184 07280 12675 20308 10210 20110 39970 40234 56007 60006 82800 91800 333 10227 20150=
07280,1997-07-07 21:00:00,17,1023.9,0.1,77,13,25000,11.112,,,40,,,,,,,,,,,wg-a,,,,AAXX 07214 07280 12775 20406 10170 20130 39971 40239 53001 60006 81501 92100=
07280,1997-07-08 00:00:00,14,1023.6,-0.5,88,12,20000,14.816,,,20,,,,,,,,,,,wg-a,,,,AAXX 08004 07280 12/70 00208 10140 20120 39966 40236 58005 60006 80000 90000=
07280,1997-07-08 06:00:00,16,1022.3,0.2,82,13,10000,18.52,,,20,12.9,21.5,,,,,,,,,wg-a,,,,AAXX 08064 07280 02/60 10210 10160 20130 39955 40223 53002 60006 80001 90600 333 10215 20129 60004=
07280,1997-07-08 09:00:00,21,1021.6,-0.3,56,12,12000,25.928,,,50,,,,,,,,,,,wg-a,,,,AAXX 08094 07280 12662 /0514 10210 20120 39952 40216 58003 60006 81101 90900=
07280,1997-07-08 12:00:00,24,1020.1,-1.2,50,13,20000,22.224,,,40,,,,,,,,,,,wg-a,,,,AAXX 08124 07280 12670 30412 10240 20130 39940 40201 58012 60006 83200 91200=
07280,1997-07-08 15:00:00,24,1018.8,-1.2,54,14,25000,22.224,,,50,,,,,,,,,,,wg-a,,,,AAXX 08154 07280 12775 50512 10240 20140 39928 40188 58012 60006 85800 91500=
07280,1997-07-08 18:00:00,24,1017.2,-1.6,47,12,25000,25.928,,,40,15.7,24.8,,,,,,,,,wg-a,,,,AAXX 08184 07280 12775 10414 10240 20120 39912 40172 56016 60006 81100 91800 333 10248 20157=
07280,1997-07-08 21:00:00,19,1017.9,0.2,68,13,25000,11.112,,,10,,,,,,,,,,,wg-a,,,,AAXX 08214 07280 12/75 10106 10190 20130 39914 40179 53002 60006 80001 92100=
07280,1997-07-09 00:00:00,16,1017.7,-0.4,82,13,15000,14.816,,,20,,,,,,,,,,,wg-a,,,,AAXX 09004 07280 12/65 00208 10160 20130 39910 40177 58004 60006 80000 90000=
07280,1997-07-09 03:00:00,14,1017,-0.8,88,12,15000,14.816,,,10,,,,,,,,,,,wg-a,,,,AAXX 09034 07280 12/65 00108 10140 20120 39902 40170 58008 60006 80000 90300=
07280,1997-07-09 06:00:00,16,1016.2,-0.6,77,12,15000,18.52,,,10,13.8,23.9,,,,,,,,,wg-a,,,,AAXX 09064 07280 02/65 10110 10160 20120 39896 40162 56006 60006 80001 90600 333 10239 20138 60004=
07280,1997-07-09 12:00:00,25,1014,-0.8,50,14,25000,25.928,,,80,,,,,,,,,,,wg-a,,,,AAXX 09124 07280 12675 /0814 10250 20140 39882 40140 58008 60006 81101 91200=
07280,1997-07-09 15:00:00,26,1012.5,-1.4,42,12,25000,25.928,,,50,,,,,,,,,,,wg-a,,,,AAXX 09154 07280 12775 10514 10260 20120 39868 40125 56014 60006 81201 91500=
07280,1997-07-09 18:00:00,26,1011.9,-0.6,45,13,25000,18.52,,,50,16.3,26.7,,,,,,,,,wg-a,,,,AAXX 09184 07280 12775 10510 10260 20130 39862 40119 57006 60006 81101 91800 333 10267 20163=
07280,1997-07-10 00:00:00,17,1013.2,-0.3,77,13,25000,14.816,,,10,,,,,,,,,,,wg-a,,,,AAXX 10004 07280 12/75 00108 10170 20130 39867 40132 57003 60006 80000 90000=
07280,1997-07-10 03:00:00,16,1012.6,-0.7,82,13,20000,11.112,,,10,,,,,,,,,,,wg-a,,,,AAXX 10034 07280 12770 10106 10160 20130 39860 40126 58007 60006 81500 90300=
07280,1997-07-10 06:00:00,18,1012.2,-0.2,73,13,20000,14.816,,,20,15.4,25.5,,,,,,,,,wg-a,,,,AAXX 10064 07280 02/70 10208 10180 20130 39858 40122 56002 60006 81030 90600 333 10255 20154 60004=
07280,1997-07-10 09:00:00,22,1011.7,-0.1,65,15,20000,7.408,,,60,,,,,,,,,,,wg-a,,,,AAXX 10094 07280 12670 20604 10220 20150 39857 40117 58001 60006 81180 90900=
07280,1997-07-10 12:00:00,27,1010,-1.2,45,14,25000,3.704,,,190,,,,,,,,,,,wg-a,,,,AAXX 10124 07280 12675 31902 10270 20140 39845 40100 58012 60006 83300 91200=
07280,1997-07-10 15:00:00,27,1009.6,-0.4,42,13,25000,0,,,0,,,,,,,,,,17,wg-a,,,,AAXX 10154 07280 12675 50000 10270 20130 39841 40096 57004 60006 71791 85900 91500=
07280,1997-07-10 18:00:00,21,1010.9,0.8,78,17,15000,7.408,,,130,17.8,27.8,,0,,,,,,17,wg-a,,,,AAXX 10184 07280 02665 71304 10210 20170 39849 40109 53008 60006 71798 85903 91800 333 10278 20178 60007=
07280,1997-07-11 00:00:00,17,1012.9,0.2,94,16,15000,3.704,,,360,,,,,,,,,,1,wg-a,,,,AAXX 11004 07280 12765 63602 10170 20160 39865 40129 51002 60006 70192 86101 90000=
07280,1997-07-11 03:00:00,15,1013.4,0.3,100,15,12000,3.704,,,30,,,,,,,,,,11,wg-a,,,,AAXX 11034 07280 12762 /0302 10150 20150 39868 40134 53003 60006 71122 81501 90300=
07280,1997-07-11 06:00:00,17,1014,0.7,94,16,4000,7.408,,,120,14.1,21.4,,,,,,,,10,wg-a,,,,AAXX 11064 07280 02340 21204 10170 20160 39875 40140 52007 60006 71011 82600 90600 333 10214 20141 60004=
07280,1997-07-11 12:00:00,24,1013.6,-0.2,61,16,25000,7.408,,,260,,,,,,,,,,91,wg-a,,,,AAXX 11124 07280 02675 32604 10240 20160 39877 40136 56002 61000 79198 83300 91200 333 6100=
07280,1997-07-11 15:00:00,19,1014.3,0.3,83,16,12000,11.112,,,110,,,,12,,,,,,80,wg-a,,,,AAXX 11154 07280 12562 71106 10190 20160 39880 40143 53003 60127 78098 879// 91500=
07280,1997-07-11 18:00:00,22,1014.1,0.1,73,17,20000,11.112,,,240,16.7,26.6,,,,,,,,17,wg-a,,,,AAXX 11184 07280 02570 72406 10220 20170 39881 40141 52001 60006 71798 85903 91800 333 10266 20167 61000=
07280,1997-07-11 21:00:00,21,1015.2,0.9,69,15,20000,14.816,,,320,,,,,,,,,,3,wg-a,,,,AAXX 11214 07280 12770 23208 10210 20150 39890 40152 51009 60006 70391 82200 92100=
07280,1997-07-12 00:00:00,20,1015.3,0,68,14,20000,14.816,,,320,,,,,,,,,,1,wg-a,,,,AAXX 12004 07280 12/70 03208 10200 20140 39890 40153 50000 60006 70191 80000 90000=
07280,1997-07-12 03:00:00,15,1016.6,0.8,94,14,6000,3.704,,,160,,,,,,,,,,12,wg-a,,,,AAXX 12034 07280 12756 31602 10150 20140 39898 40166 51008 60006 71200 83500 90300=
07280,1997-07-12 06:00:00,17,1016.7,0.4,94,16,500,3.704,,,360,14,22.4,,,,,12,,,10,wg-a,,,,AAXX 12064 07280 02700 23602 10170 20160 39902 40167 51004 60006 71000 82500 90600 333 10224 20140 60124=
07280,1997-07-12 09:00:00,23,1016.6,0.4,69,17,20000,7.408,,,350,,,,,,,,,,,wg-a,,,,AAXX 12094 07280 12570 33504 10230 20170 39906 40166 51004 60006 82102 90900=
07280,1997-07-12 12:00:00,26,1015.7,-0.7,48,14,500,3.704,,,40,,,,,,,,,,,wg-a,,,,AAXX 12124 07280 12700 70402 10260 20140 39899 40157 58007 60006 86202 91200=
07280,1997-07-12 15:00:00,25,1015.3,-0.5,50,14,500,18.52,,,320,,,,,,,,,,,wg-a,,,,AAXX 12154 07280 12700 53210 10250 20140 39894 40153 56005 60006 85200 91500=
07280,1997-07-12 18:00:00,26,1014.9,-0.3,45,13,500,7.408,,,60,17.4,27.6,,,,,,,,1,wg-a,,,,AAXX 12184 07280 02700 10604 10260 20130 39891 40149 57003 60006 70186 81101 91800 333 10276 20174 61000=
07280,1997-07-12 21:00:00,20,1016.5,1.1,68,14,20000,7.408,,,360,,,,,,,,,,,wg-a,,,,AAXX 12214 07280 12/70 13604 10200 20140 39902 40165 53011 60006 80001 92100=
07280,1997-07-13 00:00:00,18,1017,0.3,88,16,15000,7.408,,,340,,,,,,,,,,,wg-a,,,,AAXX 13004 07280 12/65 13404 10180 20160 39905 40170 53003 60006 80001 90000=
07280,1997-07-13 03:00:00,16,1016.7,-0.4,94,15,12000,7.408,,,330,,,,,,,,,,,wg-a,,,,AAXX 13034 07280 12/62 13304 10160 20150 39901 40167 57004 60006 80001 90300=
07280,1997-07-13 06:00:00,17,1017.4,0.7,88,15,12000,3.704,,,350,14.4,25.7,,,,,,,,,wg-a,,,,AAXX 13064 07280 02/62 23502 10170 20150 39908 40174 52007 60006 80001 90600 333 10257 20144 61000=
07280,1997-07-13 09:00:00,24,1017.4,0.7,57,15,15000,3.704,,,190,,,,,,,,,,,wg-a,,,,AAXX 13094 07280 12665 /1902 10240 20150 39915 40174 51007 60006 81102 90900=
07280,1997-07-13 12:00:00,28,1016.3,-0.8,42,14,20000,7.408,,,210,,,,,,,,,,,wg-a,,,,AAXX 13124 07280 12670 72104 10280 20140 39907 40163 58008 60006 83202 91200=
07280,1997-07-13 15:00:00,21,1017.1,0.2,78,17,12000,11.112,,,30,,,,3,,,,,,29,wg-a,,,,AAXX 13154 07280 12562 70306 10210 20170 39909 40171 53002 60037 72998 85902 91500=
07280,1997-07-13 18:00:00,25,1016.1,-0.6,54,15,20000,3.704,,,20,17,28.1,,,,,,,,1,wg-a,,,,AAXX 13184 07280 12770 70202 10250 20150 39903 40161 55006 60006 70198 81132 91800 333 10281 20170=
07280,1997-07-13 21:00:00,19,1017.9,1.2,78,15,20000,7.408,,,360,,,,,,,,,,,wg-a,,,,AAXX 13214 07280 12/70 63604 10190 20150 39915 40179 51012 60006 81031 92100=
07280,1997-07-14 00:00:00,17,1018,-0.1,88,15,15000,7.408,,,340,,,,,,,,,,,wg-a,,,,AAXX 14004 07280 12/65 73404 10170 20150 39914 40180 58001 60006 85072 90000=
07280,1997-07-14 03:00:00,17,1017.9,-0.1,88,15,15000,14.816,,,350,,,,,,,,,,17,wg-a,,,,AAXX 14034 07280 12565 73508 10170 20150 39913 40179 55001 60006 71792 84901 90300=
07280,1997-07-14 06:00:00,16,1019.2,1.2,100,16,12000,14.816,,,50,16,25.4,,,,,,,,17,wg-a,,,,AAXX 14064 07280 02462 80508 10160 20160 39925 40192 50012 61000 71798 879// 90600 333 10254 20160 6031=
07280,1997-07-14 09:00:00,20,1019.2,0.4,83,17,15000,7.408,,,210,,,,2,,,,,,1,wg-a,,,,AAXX 14094 07280 12465 72104 10200 20170 39929 40192 53004 60027 70198 81102 90900=
07280,1997-07-14 12:00:00,19,1020.8,1.4,94,18,12000,14.816,,,220,,,,1,,,,,,80,wg-a,,,,AAXX 14124 07280 02562 82208 10190 20180 39943 40208 51014 60026 78098 8497/ 91200 333 60017=
07280,1997-07-14 15:00:00,24,1019.6,-0.7,69,18,20000,7.408,,,280,,,,1,,,,,,3,wg-a,,,,AAXX 14154 07280 12670 42804 10240 20180 39936 40196 56007 60017 70386 84200 91500=
07280,1997-07-14 18:00:00,23,1019,-0.7,69,17,20000,14.816,,,180,16.4,24.3,,,,,,,,1,wg-a,,,,AAXX 14184 07280 12670 /1808 10230 20170 39929 40190 58007 60006 70186 83202 91800 333 10243 20164=
07280,1997-07-14 21:00:00,15,1022.3,2.5,100,15,8000,7.408,,,120,,,,13,,,,,,17,wg-a,,,,AAXX 14214 07280 12558 81204 10150 20150 39954 40223 50025 60137 71798 86903 92100=
07280,1997-07-15 00:00:00,14,1022.6,0.2,100,14,15000,0,,,0,,,,0,,,,,,1,wg-a,,,,AAXX 15004 07280 02665 50000 10140 20140 39956 40226 53002 60136 70198 83202 90000 333 60007=
07280,1997-07-15 06:00:00,16,1022.9,0.6,100,16,500,14.816,,,330,13,22.8,,,,,17,,,,wg-a,,,,AAXX 15064 07280 02400 43308 10160 20160 39961 40229 53006 60006 84200 90600 333 10228 20130 60174=
07280,1997-07-15 12:00:00,23,1023,-0.5,47,11,500,11.112,,,340,,,,,,,,,,,wg-a,,,,AAXX 15124 07280 12600 33406 10230 20110 39968 40230 58005 60006 83100 91200=
07280,1997-07-15 18:00:00,24,1021.1,-0.6,44,11,500,11.112,,,320,16.1,25.4,,,,,,,,,wg-a,,,,AAXX 15184 07280 12700 13206 10240 20110 39950 40211 56006 60006 81500 91800 333 10254 20161=
07280,1997-07-15 21:00:00,19,1022.2,0.6,64,12,500,7.408,,,10,,,,,,,,,,,wg-a,,,,AAXX 15214 07280 12/00 00104 10190 20120 39956 40222 51006 60006 80000 92100=
07280,1997-07-16 00:00:00,15,1021.9,-0.6,82,12,20000,3.704,,,10,,,,,,,,,,,wg-a,,,,AAXX 16004 07280 12/70 10102 10150 20120 39950 40219 58006 60006 80001 90000=
07280,1997-07-16 03:00:00,14,1020.6,-1.4,82,11,20000,7.408,,,340,,,,,,,,,,,wg-a,,,,AAXX 16034 07280 12/70 13404 10140 20110 39936 40206 56014 60006 80001 90300=
07280,1997-07-16 06:00:00,17,1020.2,-0.1,72,12,500,3.704,,,360,13.2,24.4,,,,,,,,,wg-a,,,,AAXX 16064 07280 02/00 23602 10170 20120 39935 40202 55001 60006 80001 90600 333 10244 20132 60004=
07280,1997-07-16 12:00:00,26,1016.6,-1.9,39,11,500,11.112,,,320,,,,,,,,,,,wg-a,,,,AAXX 16124 07280 12/00 33206 10260 20110 39908 40166 58019 60006 80001 91200=
07280,1997-07-16 15:00:00,28,1014.7,-1.7,35,11,500,7.408,,,70,,,,,,,,,,,wg-a,,,,AAXX 16154 07280 12/00 30704 10280 20110 39891 40147 58017 60006 80002 91500=
07280,1997-07-16 18:00:00,26,1013.8,-1,51,15,500,11.112,,,90,17.2,28.6,,,,,,,,,wg-a,,,,AAXX 16184 07280 12/00 50906 10260 20150 39881 40138 56010 60006 80001 91800 333 10286 20172=
07280,1997-07-16 21:00:00,21,1014.3,0.1,73,16,500,3.704,,,340,,,,,,,,,,,wg-a,,,,AAXX 16214 07280 12/00 33402 10210 20160 39882 40143 53001 60006 80001 92100=
07280,1997-07-17 00:00:00,19,1013.9,-0.6,78,15,25000,14.816,,,340,,,,,,,,,,,wg-a,,,,AAXX 17004 07280 12775 13408 10190 20150 39876 40139 58006 60006 81501 90000=
07280,1997-07-17 03:00:00,18,1012.5,-1.4,83,15,25000,14.816,,,10,,,,,,,,,,,wg-a,,,,AAXX 17034 07280 12775 40108 10180 20150 39862 40125 58014 60006 84500 90300=
07280,1997-07-17 06:00:00,19,1012.1,-0.4,78,15,20000,14.816,,,10,17.4,26.4,,,,,,,,,wg-a,,,,AAXX 17064 07280 02770 60108 10190 20150 39858 40121 57004 60006 86500 90600 333 10264 20174 60004=
07280,1997-07-17 09:00:00,22,1011.4,-0.4,69,16,20000,14.816,,,10,,,,,,,,,,,wg-a,,,,AAXX 17094 07280 12770 60108 10220 20160 39854 40114 58004 60006 81581 90900=
07280,1997-07-17 12:00:00,25,1010.3,-0.8,54,15,20000,3.704,,,80,,,,,,,,,,3,wg-a,,,,AAXX 17124 07280 02670 70802 10250 20150 39846 40103 58008 61000 70362 8427/ 91200 333 6100=
07280,1997-07-17 15:00:00,25,1009.8,-0.5,54,15,20000,22.224,,,340,,,,,,,,,,,wg-a,,,,AAXX 17154 07280 12770 73412 10250 20150 39841 40098 58005 60006 82272 91500=
07280,1997-07-17 18:00:00,22,1010.8,0.7,57,13,20000,22.224,,,340,18.5,25.5,,,,,,,,,wg-a,,,,AAXX 17184 07280 12770 73412 10220 20130 39848 40108 51007 60006 815/2 91800 333 10255 20185=
07280,1997-07-18 00:00:00,17,1012,-0.6,77,13,15000,11.112,,,240,,,,,,,,,,,wg-a,,,,AAXX 18004 07280 12/65 72406 10170 20130 39855 40120 58006 60006 8703/ 90000=
07280,1997-07-18 06:00:00,16,1012.8,1.1,82,13,8000,22.224,,,320,14.9,22.3,,,,,,,,80,wg-a,,,,AAXX 18064 07280 02458 73212 10160 20130 39862 40128 53011 61000 78098 873// 90600 333 10223 20149 6003=
07280,1997-07-18 09:00:00,18,1013.7,1,64,11,11000,31.484,,,330,,,,1,,,,,,,wg-a,,,,AAXX 18094 07280 12/61 /3317 10180 20110 39872 40137 51010 60017 90900=
07280,1997-07-18 12:00:00,17,1015.5,1.7,72,12,10000,29.632,,,330,,,,1,,,,,,25,wg-a,,,,AAXX 18124 07280 02560 73316 10170 20120 39889 40155 53017 60016 72586 878// 91200 333 60017=
07280,1997-07-18 15:00:00,18,1015.9,0.5,73,13,6000,31.484,,,330,,,,0,,,,,,80,wg-a,,,,AAXX 18154 07280 12556 73317 10180 20130 39894 40159 53005 60007 78086 85903 91500=
07280,1997-07-18 18:00:00,18,1016.9,1,73,13,20000,14.816,,,320,14.9,20.4,,2,,,,,,1,wg-a,,,,AAXX 18184 07280 02570 /3208 10180 20130 39904 40169 53010 60006 70186 83902 91800 333 10204 20149 60027=
07280,1997-07-18 21:00:00,16,1018.9,1.8,82,13,15000,7.408,,,310,,,,,,,,,,,wg-a,,,,AAXX 18214 07280 12765 53104 10160 20130 39922 40189 51018 60006 85500 92100=
07280,1997-07-19 00:00:00,14,1019.4,0.2,88,12,15000,7.408,,,270,,,,,,,,,,,wg-a,,,,AAXX 19004 07280 12665 /2704 10140 20120 39924 40194 50002 60006 86500 90000=
07280,1997-07-19 03:00:00,15,1019.7,0.4,82,12,15000,11.112,,,310,,,,,,,,,,,wg-a,,,,AAXX 19034 07280 12765 73106 10150 20120 39928 40197 51004 60006 875// 90300=
07280,1997-07-19 06:00:00,15,1020.2,0.5,82,12,15000,14.816,,,290,13.3,17.9,,,,,4,,,,wg-a,,,,AAXX 19064 07280 02765 62908 10150 20120 39933 40202 52005 60006 85530 90600 333 10179 20133 60044=
07280,1997-07-19 09:00:00,18,1020.3,0.4,68,12,15000,14.816,,,290,,,,,,,,,,,wg-a,,,,AAXX 19094 07280 12565 82908 10180 20120 39937 40203 51004 60006 88800 90900=
07280,1997-07-19 12:00:00,18,1021.2,0.9,83,15,8000,11.112,,,280,,,,1,,,,,,25,wg-a,,,,AAXX 19124 07280 02558 82806 10180 20150 39946 40212 50009 60016 72586 885// 91200 333 60017=
07280,1997-07-19 15:00:00,20,1020.7,-0.3,73,15,15000,14.816,,,80,,,,,,,,,,,wg-a,,,,AAXX 19154 07280 12565 50808 10200 20150 39943 40207 56003 60006 84230 91500=
07280,1997-07-19 18:00:00,19,1021.7,0.9,83,16,15000,3.704,,,320,,21.1,,4,,,,,,1,wg-a,,,,AAXX 19184 07280 02665 53202 10190 20160 39952 40217 51009 60006 70198 84130 91800 333 10211 60047=
07280,1997-07-19 21:00:00,15,1022.9,0.8,94,14,20000,0,,,0,,,,,,,,,,,wg-a,,,,AAXX 19214 07280 12770 20000 10150 20140 39960 40229 53008 60006 82100 92100=
07280,1997-07-20 00:00:00,14,1022.8,-0.3,94,13,8000,3.704,,,330,,,,,,,,,,,wg-a,,,,AAXX 20004 07280 12758 23302 10140 20130 39957 40228 58003 60006 82500 90000=
07280,1997-07-20 06:00:00,14,1022.3,0.2,100,14,4500,7.408,,,30,10.8,18.8,,,,,5,,,10,wg-a,,,,AAXX 20064 07280 02/45 10304 10140 20140 39953 40223 53002 60006 71000 81030 90600 333 10188 20108 60054=
07280,1997-07-20 09:00:00,19,1022.1,0.2,73,14,15000,14.816,,,20,,,,,,,,,,,wg-a,,,,AAXX 20094 07280 12565 50208 10190 20140 39955 40221 50002 60006 85800 90900=
07280,1997-07-20 12:00:00,21,1020.5,-1.3,56,12,500,14.816,,,30,,,,,,,,,,,wg-a,,,,AAXX 20124 07280 12600 40308 10210 20120 39942 40205 58013 60006 84200 91200=
07280,1997-07-20 15:00:00,21,1019.8,-0.7,56,12,500,18.52,,,50,,,,3,,,,,,1,wg-a,,,,AAXX 20154 07280 12600 40510 10210 20120 39935 40198 56007 60037 70186 84200 91500=
07280,1997-07-20 18:00:00,19,1020,-0,64,12,500,14.816,,,100,13.6,23,,0,,,,,,1,wg-a,,,,AAXX 20184 07280 02600 41008 10190 20120 39935 40200 55000 60006 70186 84400 91800 333 10230 20136 60007=
07280,1997-07-20 21:00:00,15,1021.2,0.8,82,12,20000,11.112,,,10,,,,,,,,,,,wg-a,,,,AAXX 20214 07280 12670 /0106 10150 20120 39943 40212 52008 60006 81500 92100=
07280,1997-07-21 00:00:00,13,1020.9,-0.5,88,11,500,11.112,,,350,,,,,,,,,,,wg-a,,,,AAXX 21004 07280 12/00 03506 10130 20110 39938 40209 56005 60006 80000 90000=
07280,1997-07-21 06:00:00,14,1020.6,0.2,82,11,500,7.408,,,340,11,18.6,,,,,3,,,,wg-a,,,,AAXX 21064 07280 02/00 13404 10140 20110 39936 40206 52002 60006 80001 90600 333 10186 20110 60034=
07280,1997-07-21 09:00:00,19,1020.1,-0,64,12,500,14.816,,,50,,,,,,,,,,,wg-a,,,,AAXX 21094 07280 12500 20508 10190 20120 39936 40201 55000 60006 82201 90900=
07280,1997-07-21 12:00:00,22,1019,-0.8,50,11,500,14.816,,,50,,,,,,,,,,,wg-a,,,,AAXX 21124 07280 12600 40508 10220 20110 39928 40190 57008 60006 83201 91200=
07280,1997-07-21 15:00:00,23,1018.1,-0.8,44,10,500,14.816,,,80,,,,,,,,,,,wg-a,,,,AAXX 21154 07280 12700 50808 10230 20100 39920 40181 58008 60006 83201 91500=
07280,1997-07-21 18:00:00,23,1017.4,-0.7,44,10,500,14.816,,,60,14.1,23.7,,,,,,,,,wg-a,,,,AAXX 21184 07280 12700 20608 10230 20100 39913 40174 56007 60006 81401 91800 333 10237 20141=
07280,1997-07-21 21:00:00,18,1018.9,1,68,12,25000,14.816,,,20,,,,,,,,,,,wg-a,,,,AAXX 21214 07280 12/75 30208 10180 20120 39923 40189 52010 60006 80001 92100=
07280,1997-07-22 00:00:00,15,1019,-0.1,82,12,25000,14.816,,,10,,,,,,,,,,,wg-a,,,,AAXX 22004 07280 12/75 20108 10150 20120 39922 40190 57001 60006 80001 90000=
07280,1997-07-22 03:00:00,14,1018.8,-0.4,88,12,25000,11.112,,,360,,,,,,,,,,,wg-a,,,,AAXX 22034 07280 12/75 03606 10140 20120 39918 40188 55004 60006 80000 90300=
07280,1997-07-22 06:00:00,17,1018.7,0.2,77,13,20000,11.112,,,10,13.4,22.5,,,,,,,,,wg-a,,,,AAXX 22064 07280 02/70 30106 10170 20130 39920 40187 51002 60006 80001 90600 333 10225 20134 60004=
07280,1997-07-22 09:00:00,22,1018.6,0.4,57,13,20000,18.52,,,50,,,,,,,,,,,wg-a,,,,AAXX 22094 07280 12/70 60510 10220 20130 39924 40186 51004 60006 80001 90900=
07280,1997-07-22 12:00:00,24,1017.6,-0.8,50,13,20000,14.816,,,60,,,,,,,,,,,wg-a,,,,AAXX 22124 07280 12770 70608 10240 20130 39916 40176 58008 60006 81201 91200=
07280,1997-07-22 15:00:00,26,1016.6,-0.8,42,12,25000,7.408,,,110,,,,,,,,,,,wg-a,,,,AAXX 22154 07280 12775 61104 10260 20120 39908 40166 58008 60006 81101 91500=
07280,1997-07-22 18:00:00,24,1016.6,-0.2,50,13,25000,11.112,,,70,16.8,26.1,,,,,,,,,wg-a,,,,AAXX 22184 07280 12/75 60706 10240 20130 39906 40166 55002 60006 81032 91800 333 10261 20168=
07280,1997-07-22 21:00:00,20,1017.8,0.8,64,13,20000,7.408,,,330,,,,,,,,,,,wg-a,,,,AAXX 22214 07280 12/70 43304 10200 20130 39914 40178 52008 60006 80002 92100=
07280,1997-07-23 00:00:00,19,1018,0.2,78,15,20000,7.408,,,330,,,,,,,,,,,wg-a,,,,AAXX 23004 07280 12/70 83304 10190 20150 39916 40180 51002 60006 8803/ 90000=
07280,1997-07-23 03:00:00,18,1018.4,0.3,94,17,20000,3.704,,,210,,,,0,,,,,,60,wg-a,,,,AAXX 23034 07280 12670 82102 10180 20170 39919 40184 53003 60007 76062 8557/ 90300=
07280,1997-07-23 06:00:00,17,1018.4,-0.1,100,17,7000,3.704,,,260,16.8,24,,,,,,,,61,wg-a,,,,AAXX 23064 07280 02757 82602 10170 20170 39918 40184 57001 61000 76162 8557/ 90600 333 10240 20168 6003=
07280,1997-07-23 09:00:00,21,1018.3,0.3,83,18,12000,0,,,0,,,,0,,,,,,1,wg-a,,,,AAXX 23094 07280 12462 70000 10210 20180 39921 40183 50003 60007 70162 8283/ 90900=
07280,1997-07-23 12:00:00,24,1018,0,65,17,12000,7.408,,,160,,,,,,,,,,3,wg-a,,,,AAXX 23124 07280 12562 71604 10240 20170 39921 40180 50000 60006 70362 8423/ 91200=
07280,1997-07-23 18:00:00,22,1016.4,-1,88,20,20000,3.704,,,30,17.2,24.5,,2,,,,,,29,wg-a,,,,AAXX 23184 07280 02670 70302 10220 20200 39904 40164 56010 60006 72998 81963 91800 333 10245 20172 60027=
07280,1997-07-24 00:00:00,19,1017,-0.5,100,19,500,3.704,,,340,,,,,,,,,,11,wg-a,,,,AAXX 24004 07280 12/00 03402 10190 20190 39907 40170 58005 60016 71186 80000 90000=
07280,1997-07-24 03:00:00,17,1016.6,-0.6,100,17,600,11.112,,,10,,,,,,,,,,41,wg-a,,,,AAXX 24034 07280 12/06 /0106 10170 20170 39901 40166 56006 60006 74140 81030 90300=
07280,1997-07-24 06:00:00,19,1016.3,-0.2,94,18,500,3.704,,,30,16.6,22.3,,,,,14,,,2,wg-a,,,,AAXX 24064 07280 02/00 /0302 10190 20180 39899 40163 55002 60006 70240 81080 90600 333 10223 20166 60144=
07280,1997-07-24 09:00:00,24,1015.9,0.1,74,19,15000,3.704,,,320,,,,,,,,,,,wg-a,,,,AAXX 24094 07280 12565 43202 10240 20190 39900 40159 50001 60006 82201 90900=
07280,1997-07-24 12:00:00,27,1014.4,-1.2,45,14,20000,3.704,,,180,,,,,,,,,,,wg-a,,,,AAXX 24124 07280 12670 71802 10270 20140 39888 40144 57012 60006 82202 91200=
07280,1997-07-24 15:00:00,28,1012.8,-1.5,51,17,20000,7.408,,,180,,,,,,,,,,,wg-a,,,,AAXX 24154 07280 12670 /1804 10280 20170 39873 40128 58015 60006 81202 91500=
07280,1997-07-24 18:00:00,26,1012.6,-0.3,51,15,25000,14.816,,,280,18.5,27.7,,,,,,,,,wg-a,,,,AAXX 24184 07280 12675 72808 10260 20150 39870 40126 55003 60006 82901 91800 333 10277 20185=
07280,1997-07-25 00:00:00,20,1014.8,0.3,73,15,20000,11.112,,,260,,,,,,,,,,,wg-a,,,,AAXX 25004 07280 12770 82606 10200 20150 39885 40148 53003 60006 8553/ 90000=
07280,1997-07-25 03:00:00,18,1015.1,0.1,73,13,12000,14.816,,,260,,,,1,,,,,,,wg-a,,,,AAXX 25034 07280 12662 82608 10180 20130 39886 40151 53001 60017 84531 90300=
07280,1997-07-25 06:00:00,17,1015.9,0.8,82,14,15000,18.52,,,200,16.6,26.3,,,,,1,,,1,wg-a,,,,AAXX 25064 07280 02465 82010 10170 20140 39894 40159 51008 60006 70162 878// 90600 333 10263 20166 60014=
07280,1997-07-25 12:00:00,20,1017.3,1.2,56,11,25000,14.816,,,280,,,,,,,,,,,wg-a,,,,AAXX 25124 07280 12675 72808 10200 20110 39910 40173 51012 60006 83272 91200=
07280,1997-07-25 15:00:00,19,1016.7,-0.7,64,12,25000,7.408,,,270,,,,0,,,,,,3,wg-a,,,,AAXX 25154 07280 12675 82704 10190 20120 39903 40167 58007 60007 70362 8327/ 91500=
07280,1997-07-25 18:00:00,17,1017.4,0.5,82,14,8000,14.816,,,240,16.5,21.5,,,,,,,,61,wg-a,,,,AAXX 25184 07280 02458 82408 10170 20140 39908 40174 53005 61000 76162 8587/ 91800 333 10215 20165 6100=
07280,1997-07-25 21:00:00,15,1017.8,0.2,100,15,500,11.112,,,180,,,,1,,,,,,51,wg-a,,,,AAXX 25214 07280 12100 81806 10150 20150 39910 40178 52002 60017 75165 887// 92100=
07280,1997-07-26 00:00:00,16,1016.6,-1,100,16,6000,14.816,,,200,,,,1,,,,,,51,wg-a,,,,AAXX 26004 07280 02156 82008 10160 20160 39900 40166 56010 60026 75165 887// 90000 333 60017=
07280,1997-07-26 03:00:00,17,1017,0.4,94,16,15000,3.704,,,200,,,,1,,,,,,3,wg-a,,,,AAXX 26034 07280 12465 72002 10170 20160 39904 40170 53004 60017 70365 875// 90300=
07280,1997-07-26 06:00:00,17,1019.4,2.3,94,16,20000,18.52,,,10,14.9,17.1,,,,,7,,,1,wg-a,,,,AAXX 26064 07280 02370 70110 10170 20160 39927 40194 53023 60006 70165 878// 90600 333 10171 20149 60074=
07280,1997-07-26 09:00:00,19,1020.8,1.6,78,15,500,7.408,,,40,,,,,,,,,,,wg-a,,,,AAXX 26094 07280 12400 /0404 10190 20150 39943 40208 51016 60006 86800 90900=
07280,1997-07-26 12:00:00,23,1020.6,0.1,53,13,40000,7.408,,,60,,,,,,,,,,,wg-a,,,,AAXX 26124 07280 12682 30604 10230 20130 39944 40206 50001 60006 83200 91200=
07280,1997-07-26 18:00:00,24,1019.3,-0.5,50,13,50000,7.408,,,280,16.5,24.8,,,,,,,,,wg-a,,,,AAXX 26184 07280 12784 12804 10240 20130 39933 40193 56005 60006 81200 91800 333 10248 20165=
07280,1997-07-26 21:00:00,20,1020.5,0.8,73,15,40000,7.408,,,240,,,,,,,,,,,wg-a,,,,AAXX 26214 07280 12682 72404 10200 20150 39941 40205 53008 60006 875// 92100=
07280,1997-07-27 00:00:00,20,1020.4,-0.1,78,16,500,7.408,,,140,,,,,,,,,,,wg-a,,,,AAXX 27004 07280 12700 81404 10200 20160 39940 40204 58001 60006 885// 90000=
07280,1997-07-27 03:00:00,18,1020.5,-0,88,16,25000,7.408,,,190,,,,,,,,,,,wg-a,,,,AAXX 27034 07280 12775 71904 10180 20160 39940 40205 55000 60006 875// 90300=
07280,1997-07-27 06:00:00,19,1020.6,0.1,88,17,500,7.408,,,180,17.7,24.2,,,,,,,,,wg-a,,,,AAXX 27064 07280 02700 61804 10190 20170 39941 40206 52001 60006 86500 90600 333 10242 20177 60004=
07280,1997-07-27 09:00:00,24,1020.2,0,61,16,500,7.408,,,360,,,,,,,,,,,wg-a,,,,AAXX 27094 07280 12500 /3604 10240 20160 39941 40202 50000 60006 83801 90900=
07280,1997-07-27 12:00:00,25,1020.2,0.1,54,15,500,14.816,,,250,,,,,,,,,,,wg-a,,,,AAXX 27124 07280 12600 72508 10250 20150 39942 40202 50001 60006 878// 91200=
07280,1997-07-27 15:00:00,26,1019.7,-0.3,51,15,50000,14.816,,,310,,,,,,,,,,,wg-a,,,,AAXX 27154 07280 12684 73108 10260 20150 39939 40197 56003 60006 83202 91500=
07280,1997-07-27 18:00:00,22,1020.6,0.5,69,16,25000,25.928,,,330,18.6,26.9,,,,,,,,25,wg-a,,,,AAXX 27184 07280 02675 73314 10220 20160 39944 40206 53005 61000 72586 86802 91800 333 10269 20186 6100=
07280,1997-07-27 21:00:00,19,1021.8,0.9,83,16,25000,7.408,,,330,,,,,,,,,,,wg-a,,,,AAXX 27214 07280 12675 /3304 10190 20160 39953 40218 53009 60006 84801 92100=
07280,1997-07-28 00:00:00,18,1022.3,0.4,88,16,20000,3.704,,,30,,,,,,,,,,,wg-a,,,,AAXX 28004 07280 12770 30302 10180 20160 39957 40223 51004 60006 83500 90000=
07280,1997-07-28 06:00:00,18,1022.6,0.4,94,17,20000,11.112,,,10,15,22,,,,,,,,,wg-a,,,,AAXX 28064 07280 02370 30106 10180 20170 39960 40226 53004 60006 81101 90600 333 10220 20150 61000=
07280,1997-07-28 09:00:00,22,1022.3,0,69,16,20000,11.112,,,50,,,,,,,,,,,wg-a,,,,AAXX 28094 07280 12570 /0506 10220 20160 39960 40223 50000 60006 81201 90900=
07280,1997-07-28 12:00:00,25,1021.1,-0.9,41,11,25000,14.816,,,30,,,,,,,,,,,wg-a,,,,AAXX 28124 07280 12775 20308 10250 20110 39951 40211 58009 60006 81201 91200=
07280,1997-07-28 15:00:00,27,1019.8,-1.1,37,11,40000,7.408,,,60,,,,,,,,,,,wg-a,,,,AAXX 28154 07280 12782 20604 10270 20110 39940 40198 58011 60006 81101 91500=
07280,1997-07-28 18:00:00,25,1019.5,-0.5,47,13,40000,11.112,,,100,17.8,26.8,,,,,,,,,wg-a,,,,AAXX 28184 07280 12782 11006 10250 20130 39935 40195 56005 60006 81401 91800 333 10268 20178=
07280,1997-07-28 21:00:00,20,1021,1,68,14,20000,3.704,,,310,,,,,,,,,,,wg-a,,,,AAXX 28214 07280 12/70 13102 10200 20140 39945 40210 53010 60006 80001 92100=
07280,1997-07-29 00:00:00,17,1021.2,-0,82,14,20000,3.704,,,340,,,,,,,,,,,wg-a,,,,AAXX 29004 07280 12/70 23402 10170 20140 39945 40212 54000 60006 80001 90000=
07280,1997-07-29 03:00:00,17,1020.4,-0.8,77,13,20000,11.112,,,330,,,,,,,,,,,wg-a,,,,AAXX 29034 07280 12/70 63306 10170 20130 39937 40204 57008 60006 80001 90300=
07280,1997-07-29 06:00:00,18,1021,0.7,77,14,20000,7.408,,,340,16.2,24.5,,,,,,,,,wg-a,,,,AAXX 29064 07280 02/70 43404 10180 20140 39944 40210 52007 60006 81031 90600 333 10245 20162 60004=
07280,1997-07-29 09:00:00,24,1020.9,0.4,50,13,20000,7.408,,,70,,,,,,,,,,,wg-a,,,,AAXX 29094 07280 12670 70704 10240 20130 39948 40209 50004 60006 81201 90900=
07280,1997-07-29 12:00:00,26,1020.2,-0.5,42,12,25000,11.112,,,30,,,,,,,,,,,wg-a,,,,AAXX 29124 07280 12775 70306 10260 20120 39943 40202 58005 60006 81201 91200=
07280,1997-07-29 15:00:00,27,1019.1,-0.9,45,14,500,11.112,,,80,,,,,,,,,,,wg-a,,,,AAXX 29154 07280 12800 70806 10270 20140 39934 40191 56009 60006 81201 91500=
07280,1997-07-29 18:00:00,25,1018.8,-0.5,47,13,500,11.112,,,90,17.7,27.9,,,,,,,,,wg-a,,,,AAXX 29184 07280 12800 50906 10250 20130 39929 40188 56005 60006 81101 91800 333 10279 20177=
07280,1997-07-29 21:00:00,19,1020.1,0.8,73,14,25000,0,,,0,,,,,,,,,,,wg-a,,,,AAXX 29214 07280 12/75 00000 10190 20140 39937 40201 51008 60006 80000 92100=
07280,1997-07-30 00:00:00,17,1020.3,-0.1,82,14,25000,7.408,,,340,,,,,,,,,,,wg-a,,,,AAXX 30004 07280 12/75 03404 10170 20140 39936 40203 58001 60006 80000 90000=
07280,1997-07-30 03:00:00,15,1019.6,-0.8,88,13,25000,7.408,,,350,,,,,,,,,,,wg-a,,,,AAXX 30034 07280 12/75 03504 10150 20130 39928 40196 57008 60006 80000 90300=
07280,1997-07-30 06:00:00,16,1019.9,0.3,82,13,20000,3.704,,,30,13.9,25.1,,,,,,,,,wg-a,,,,AAXX 30064 07280 02/70 20302 10160 20130 39931 40199 53003 60006 80001 90600 333 10251 20139 60004=
07280,1997-07-30 09:00:00,24,1019.5,0.3,54,14,25000,3.704,,,190,,,,,,,,,,,wg-a,,,,AAXX 30094 07280 12675 31902 10240 20140 39934 40195 51003 60006 81101 90900=
07280,1997-07-30 12:00:00,29,1018,-1,35,12,25000,7.408,,,150,,,,,,,,,,,wg-a,,,,AAXX 30124 07280 12875 31504 10290 20120 39924 40180 57010 60006 82101 91200=
07280,1997-07-30 15:00:00,29,1016.8,-1.1,37,13,500,11.112,,,180,,,,,,,,,,,wg-a,,,,AAXX 30154 07280 12700 31806 10290 20130 39913 40168 58011 60006 82101 91500=
07280,1997-07-30 18:00:00,26,1016.4,-0.7,51,15,25000,11.112,,,190,15.8,29.4,,,,,,,,,wg-a,,,,AAXX 30184 07280 12775 71906 10260 20150 39906 40164 56007 60006 81101 91800 333 10294 20158=
07280,1997-07-30 21:00:00,22,1017.7,1,65,15,20000,11.112,,,230,,,,,,,,,,,wg-a,,,,AAXX 30214 07280 12/70 52306 10220 20150 39916 40177 51010 60006 80001 92100=
07280,1997-07-31 00:00:00,21,1018,0.2,69,15,20000,18.52,,,340,,,,,,,,,,,wg-a,,,,AAXX 31004 07280 12/70 03410 10210 20150 39918 40180 53002 60006 80000 90000=
07280,1997-07-31 03:00:00,18,1018.7,0.4,83,15,15000,14.816,,,330,,,,,,,,,,,wg-a,,,,AAXX 31034 07280 12/65 33308 10180 20150 39922 40187 53004 60006 80001 90300=
07280,1997-07-31 06:00:00,17,1020.2,1.3,68,11,20000,7.408,,,330,17,25.9,,,,,,,,,wg-a,,,,AAXX 31064 07280 02/70 73304 10170 20110 39935 40202 53013 60006 84072 90600 333 10259 20170 60004=
07280,1997-07-31 09:00:00,21,1019.6,-0.2,53,11,25000,7.408,,,280,,,,,,,,,,,wg-a,,,,AAXX 31094 07280 12575 62804 10210 20110 39933 40196 58002 60006 81102 90900=
07280,1997-07-31 12:00:00,23,1018.6,-0.9,38,8,25000,18.52,,,300,,,,,,,,,,,wg-a,,,,AAXX 31124 07280 12775 73010 10230 20080 39924 40186 58009 60006 81132 91200=
07280,1997-07-31 15:00:00,21,1018.8,0.1,46,9,25000,18.52,,,300,,,,,,,,,,,wg-a,,,,AAXX 31154 07280 12/75 83010 10210 20090 39925 40188 53001 60006 85077 91500=
07280,1997-07-31 18:00:00,19,1018.3,-0.7,64,12,25000,7.408,,,240,17,22.9,,,,,,,,61,wg-a,,,,AAXX 31184 07280 02/75 82404 10190 20120 39918 40183 58007 61000 76162 8807/ 91800 333 10229 20170 6100=
07280,1997-07-31 21:00:00,17,1019.3,0.9,77,13,20000,7.408,,,30,,,,,,,,,,21,wg-a,,,,AAXX 31214 07280 02/70 80304 10170 20130 39927 40193 53009 61000 72162 8807/ 92100 333 ////=
07280,1997-08-01 00:00:00,16,1018.3,-1.1,88,14,20000,0,,,0,,,,0,,,,,,21,wg-a,,,,AAXX 01004 07280 02/70 80000 10160 20140 39916 40183 58011 60006 72162 8807/ 90000 333 60007=
07280,1997-08-01 03:00:00,15,1016.9,-1.4,100,15,15000,3.704,,,180,,,,0,,,,,,60,wg-a,,,,AAXX 01034 07280 12665 81802 10150 20150 39902 40169 58014 60007 76062 875// 90300=
07280,1997-08-01 06:00:00,15,1016.6,-0.3,100,15,12000,3.704,,,150,15.1,18.7,,,,,,,,3,wg-a,,,,AAXX 01064 07280 02462 81502 10150 20150 39899 40166 56003 60006 70362 8587/ 90600 333 10187 20151 60004=
07280,1997-08-01 09:00:00,17,1016.6,0.2,88,15,12000,3.704,,,170,,,,,,,,,,3,wg-a,,,,AAXX 01094 07280 02462 81702 10170 20150 39901 40166 52002 61000 70365 8687/ 90900 333 ////=
07280,1997-08-01 12:00:00,17,1016.8,0.1,82,14,10000,14.816,,,50,,,,,,,,,,60,wg-a,,,,AAXX 01124 07280 02460 80508 10170 20140 39902 40168 53001 61000 76065 8587/ 91200 333 6100=
07280,1997-08-01 15:00:00,18,1016.9,0.2,83,15,20000,7.408,,,90,,,,,,,,,,21,wg-a,,,,AAXX 01154 07280 02470 80904 10180 20150 39904 40169 52002 61000 72162 8587/ 91500 333 ////=
07280,1997-08-01 18:00:00,17,1017.4,0.4,88,15,15000,7.408,,,80,15.4,17.8,,,,,,,,3,wg-a,,,,AAXX 01184 07280 12465 80804 10170 20150 39908 40174 53004 60006 70362 8557/ 91800 333 10178 20154=
07280,1997-08-01 21:00:00,16,1018.5,1,94,15,10000,3.704,,,120,,,,,,,,,,,wg-a,,,,AAXX 01214 07280 12260 /1202 10160 20150 39918 40185 51010 60006 85500 92100=
07280,1997-08-02 00:00:00,16,1018.3,-0.2,94,15,10000,3.704,,,130,,,,,,,,,,,wg-a,,,,AAXX 02004 07280 12560 71302 10160 20150 39916 40183 55002 60006 875// 90000=
07280,1997-08-02 03:00:00,16,1017.8,-0.5,94,15,10000,3.704,,,180,,,,0,,,,,,,wg-a,,,,AAXX 02034 07280 12560 81802 10160 20150 39911 40178 56005 60007 885// 90300=
07280,1997-08-02 06:00:00,17,1017.8,0.1,88,15,10000,3.704,,,170,15.7,16.8,,,,,,,,,wg-a,,,,AAXX 02064 07280 02560 81702 10170 20150 39912 40178 50001 60006 8557/ 90600 333 10168 20157 60004=
07280,1997-08-02 09:00:00,20,1018,0.5,83,17,20000,3.704,,,320,,,,,,,,,,,wg-a,,,,AAXX 02094 07280 12570 83202 10200 20170 39917 40180 51005 60006 8587/ 90900=
07280,1997-08-02 12:00:00,22,1017.6,-0.2,78,18,500,0,,,0,,,,,,,,,,,wg-a,,,,AAXX 02124 07280 12400 80000 10220 20180 39915 40176 57002 60006 885// 91200=
07280,1997-08-02 15:00:00,23,1017.2,-0.3,73,18,25000,7.408,,,40,,,,,,,,,,,wg-a,,,,AAXX 02154 07280 12575 80404 10230 20180 39912 40172 56003 60006 885// 91500=
07280,1997-08-02 18:00:00,22,1017.1,-0.2,78,18,20000,11.112,,,60,16.6,23.1,,,,,,,,,wg-a,,,,AAXX 02184 07280 12570 70606 10220 20180 39910 40171 57002 60006 875// 91800 333 10231 20166=
07280,1997-08-02 21:00:00,20,1017.8,0.5,88,18,10000,7.408,,,50,,,,,,,,,,,wg-a,,,,AAXX 02214 07280 12560 80504 10200 20180 39915 40178 53005 60006 885// 92100=
07280,1997-08-03 00:00:00,19,1017.3,-0.5,94,18,9000,11.112,,,30,,,,,,,,,,,wg-a,,,,AAXX 03004 07280 12459 80306 10190 20180 39910 40173 58005 60006 888// 90000=
07280,1997-08-03 03:00:00,19,1016.7,-0.7,94,18,9000,7.408,,,10,,,,,,,,,,,wg-a,,,,AAXX 03034 07280 12759 80104 10190 20180 39903 40167 56007 60006 885// 90300=
07280,1997-08-03 06:00:00,19,1016.7,-0,94,18,8000,7.408,,,10,18.4,21.9,,,,,,,,,wg-a,,,,AAXX 03064 07280 02758 80104 10190 20180 39903 40167 55000 60006 885// 90600 333 10219 20184 60004=
07280,1997-08-03 09:00:00,22,1016.9,0.5,78,18,15000,11.112,,,50,,,,,,,,,,,wg-a,,,,AAXX 03094 07280 12865 60506 10220 20180 39908 40169 52005 60006 81531 90900=
07280,1997-08-03 12:00:00,26,1015.9,-0.6,61,18,20000,7.408,,,80,,,,,,,,,,,wg-a,,,,AAXX 03124 07280 12670 /0804 10260 20180 39902 40159 56006 60006 82102 91200=
07280,1997-08-03 15:00:00,28,1014.9,-0.9,55,18,20000,11.112,,,70,,,,,,,,,,,wg-a,,,,AAXX 03154 07280 12670 /0706 10280 20180 39893 40149 56009 60006 83231 91500=
07280,1997-08-03 18:00:00,26,1014.6,-0.4,61,18,25000,14.816,,,80,18.6,28.4,,,,,,,,,wg-a,,,,AAXX 03184 07280 12675 /0808 10260 20180 39889 40146 56004 60006 85830 91800 333 10284 20186=
07280,1997-08-04 00:00:00,20,1015.8,-0.1,83,17,20000,11.112,,,340,,,,,,,,,,,wg-a,,,,AAXX 04004 07280 12770 23406 10200 20170 39895 40158 58001 60006 81530 90000=
07280,1997-08-04 03:00:00,19,1016.2,0.3,88,17,15000,7.408,,,30,,,,,,,,,,,wg-a,,,,AAXX 04034 07280 12/65 20304 10190 20170 39898 40162 53003 60006 82030 90300=
07280,1997-08-04 06:00:00,20,1016.4,0.3,83,17,20000,11.112,,,10,18,25.6,,,,,,,,,wg-a,,,,AAXX 04064 07280 02670 /0106 10200 20170 39901 40164 53003 60006 82830 90600 333 10256 20180 60004=
07280,1997-08-04 12:00:00,30,1015.1,-0.6,49,18,500,11.112,,,150,,,,,,,,,,,wg-a,,,,AAXX 04124 07280 12600 31506 10300 20180 39897 40151 58006 60006 81181 91200=
07280,1997-08-04 15:00:00,32,1013.9,-1,46,19,500,7.408,,,190,,,,,,,,,,,wg-a,,,,AAXX 04154 07280 12700 41904 10320 20190 39887 40139 56010 60006 81182 91500=
07280,1997-08-04 18:00:00,28,1014,-0.1,62,20,500,11.112,,,100,19.5,31.8,,,,,,,,,wg-a,,,,AAXX 04184 07280 12700 61006 10280 20200 39886 40140 55001 60006 81102 91800 333 10318 20195=
07280,1997-08-04 21:00:00,24,1015.4,1,78,20,500,3.704,,,40,,,,,,,,,,,wg-a,,,,AAXX 04214 07280 12/00 10402 10240 20200 39896 40154 51010 60006 80001 92100=
07280,1997-08-05 00:00:00,22,1015.8,0.2,88,20,500,7.408,,,350,,,,,,,,,,,wg-a,,,,AAXX 05004 07280 12/00 13504 10220 20200 39898 40158 52002 60006 81030 90000=
07280,1997-08-05 03:00:00,21,1015.5,-0.5,83,18,20000,7.408,,,360,,,,,,,,,,,wg-a,,,,AAXX 05034 07280 12/70 73604 10210 20180 39893 40155 58005 60006 8703/ 90300=
07280,1997-08-05 06:00:00,20,1015,-0.5,88,18,20000,7.408,,,30,20.2,28.2,,,,,,,,,wg-a,,,,AAXX 05064 07280 02770 70304 10200 20180 39888 40150 56005 60006 8153/ 90600 333 10282 20202 60004=
07280,1997-08-05 09:00:00,23,1015.2,0.5,83,20,15000,3.704,,,70,,,,,,,,,,,wg-a,,,,AAXX 05094 07280 12/65 70702 10230 20200 39893 40152 50005 60006 8707/ 90900=
07280,1997-08-05 12:00:00,30,1013.8,-0.9,46,17,20000,7.408,,,180,,,,,,,,,,,wg-a,,,,AAXX 05124 07280 12670 21804 10300 20170 39884 40138 57009 60006 81201 91200=
07280,1997-08-05 15:00:00,30,1012,-1.7,43,16,20000,11.112,,,180,,,,,,,,,,,wg-a,,,,AAXX 05154 07280 12770 21806 10300 20160 39867 40120 56017 60006 81201 91500=
07280,1997-08-05 18:00:00,28,1011.5,-0.6,55,18,20000,7.408,,,160,20.3,30.7,,,,,,,,,wg-a,,,,AAXX 05184 07280 12670 /1604 10280 20180 39861 40115 55006 60006 81282 91800 333 10307 20203=
07280,1997-08-05 21:00:00,25,1013.5,1.6,57,16,15000,11.112,,,160,,,,,,,,,,29,wg-a,,,,AAXX 05214 07280 12665 /1606 10250 20160 39877 40135 52016 60006 72992 81263 92100=
07280,1997-08-06 00:00:00,20,1013.9,0,88,18,20000,3.704,,,110,,,,0,,,,,,25,wg-a,,,,AAXX 06004 07280 02/70 61102 10200 20180 39877 40139 50000 60006 72598 83063 90000 333 60007=
07280,1997-08-06 03:00:00,19,1013.6,-0.4,94,18,20000,3.704,,,160,,,,0,,,,,,1,wg-a,,,,AAXX 06034 07280 12/70 31602 10190 20180 39873 40136 58004 60007 70186 81031 90300=
07280,1997-08-06 06:00:00,19,1012.7,-0.8,94,18,20000,3.704,,,300,17.7,27.8,,,,,,,,3,wg-a,,,,AAXX 06064 07280 02/70 43002 10190 20180 39865 40127 57008 60006 70386 82031 90600 333 10278 20177 60004=
07280,1997-08-06 09:00:00,24,1012.5,0.2,69,18,20000,14.816,,,190,,,,,,,,,,,wg-a,,,,AAXX 06094 07280 12570 71908 10240 20180 39867 40125 51002 60006 8123/ 90900=
07280,1997-08-06 12:00:00,26,1012.5,0.1,61,18,25000,14.816,,,210,,,,,,,,,,,wg-a,,,,AAXX 06124 07280 12575 /2108 10260 20180 39868 40125 50001 60006 83270 91200=
07280,1997-08-06 15:00:00,26,1011.6,-0.8,58,17,25000,3.704,,,40,,,,,,,,,,,wg-a,,,,AAXX 06154 07280 12675 /0402 10260 20170 39860 40116 56008 60006 84930 91500=
07280,1997-08-06 18:00:00,23,1011.9,0.1,73,18,25000,14.816,,,50,18.9,26.7,,,,,,,,25,wg-a,,,,AAXX 06184 07280 02675 /0508 10230 20180 39861 40119 53001 61000 72586 86930 91800 333 10267 20189 6100=
07280,1997-08-06 21:00:00,21,1013.3,1.1,88,19,15000,7.408,,,10,,,,0,,,,,,1,wg-a,,,,AAXX 06214 07280 12665 60104 10210 20190 39872 40133 51011 60007 70186 86230 92100=
07280,1997-08-07 00:00:00,19,1013.4,-0.1,94,18,15000,11.112,,,10,,,,,,,,,,1,wg-a,,,,AAXX 07004 07280 12/65 10106 10190 20180 39871 40134 56001 60006 70186 81030 90000=
07280,1997-08-07 03:00:00,17,1013.2,-0.3,94,16,15000,7.408,,,20,,,,,,,,,,,wg-a,,,,AAXX 07034 07280 12/65 10204 10170 20160 39868 40132 57003 60006 81030 90300=
07280,1997-08-07 06:00:00,19,1013.3,0.2,94,18,12000,7.408,,,360,17,23.4,,,,,,,,,wg-a,,,,AAXX 07064 07280 02762 73604 10190 20180 39870 40133 51002 60006 8553/ 90600 333 10234 20170 60004=
07280,1997-08-07 09:00:00,23,1013,0.1,78,19,10000,3.704,,,80,,,,,,,,,,,wg-a,,,,AAXX 07094 07280 12460 /0802 10230 20190 39871 40130 52001 60006 84130 90900=
07280,1997-08-07 12:00:00,28,1011.9,-0.7,51,17,18000,7.408,,,170,,,,,,,,,,,wg-a,,,,AAXX 07124 07280 12668 31704 10280 20170 39864 40119 58007 60006 82202 91200=
07280,1997-08-07 15:00:00,28,1011.2,-0.6,51,17,20000,14.816,,,190,,,,,,,,,,,wg-a,,,,AAXX 07154 07280 12770 /1908 10280 20170 39858 40112 56006 60006 84903 91500=
07280,1997-08-07 18:00:00,21,1014.2,,88,19,12000,11.112,,,70,19,29.4,,27,,,,,,80,wg-a,,,,AAXX 07184 07280 02662 70706 10210 20190 39872 40142 60276 78098 84903 91800 333 10294 20190 60277=
07280,1997-08-07 21:00:00,19,1014.6,,100,19,12000,7.408,,,360,,,,,,,,,,1,wg-a,,,,AAXX 07214 07280 32/62 23604 10190 20190 39883 40146 70198 80001 92100=
07280,1997-08-08 00:00:00,18,1014.9,0.2,100,18,12000,7.408,,,30,,,,,,,,,,1,wg-a,,,,AAXX 08004 07280 02/62 10304 10180 20180 39885 40149 52002 61000 70198 80001 90000 333 ////=
07280,1997-08-08 03:00:00,17,1015.7,0.6,94,16,12000,7.408,,,340,,,,,,,,,,,wg-a,,,,AAXX 08034 07280 12/62 03404 10170 20160 39891 40157 52006 60006 80000 90300=
07280,1997-08-08 06:00:00,16,1016.9,1.2,100,16,7000,3.704,,,240,15.6,29.4,,,,,28,,,,wg-a,,,,AAXX 08064 07280 02/57 /2402 10160 20160 39903 40169 52012 60006 81030 90600 333 10294 20156 60284=
07280,1997-08-08 09:00:00,23,1017.7,1,78,19,12000,7.408,,,200,,,,,,,,,,,wg-a,,,,AAXX 08094 07280 12562 /2004 10230 20190 39913 40177 53010 60006 81100 90900=
07280,1997-08-08 12:00:00,27,1016.6,-0.3,58,18,20000,7.408,,,100,,,,,,,,,,,wg-a,,,,AAXX 08124 07280 12670 21004 10270 20180 39910 40166 58003 60006 82200 91200=
07280,1997-08-08 15:00:00,29,1015.7,-0.8,52,18,20000,11.112,,,170,,,,,,,,,,29,wg-a,,,,AAXX 08154 07280 12770 31706 10290 20180 39902 40157 56008 60006 72990 83900 91500=
07280,1997-08-08 18:00:00,26,1015.9,-0,65,19,20000,11.112,,,90,16.5,29.1,,,,,,,,3,wg-a,,,,AAXX 08184 07280 12770 10906 10260 20190 39902 40159 55000 60006 70390 81200 91800 333 10291 20165=
07280,1997-08-09 03:00:00,18,1018.8,0.2,94,17,12000,3.704,,,10,,,,,,,,,,,wg-a,,,,AAXX 09034 07280 32/62 00102 10180 20170 39922 40188 52002 80000 90300=
07280,1997-08-09 06:00:00,18,1019.5,0.7,94,17,8000,9.26,,,10,16.8,26.2,,,,,,,,,wg-a,,,,AAXX 09064 07280 12/58 /0105 10180 20170 39930 40195 52007 60006 80001 90600 333 10262 20168=
07280,1997-08-09 09:00:00,25,1019.1,-0.4,65,18,500,14.816,,,40,,,,,,,,,,,wg-a,,,,AAXX 09094 07280 12/00 10408 10250 20180 39932 40191 58004 60006 80001 90900=
07280,1997-08-09 12:00:00,28,1018.1,-1,62,20,500,14.816,,,90,,,,,,,,,,,wg-a,,,,AAXX 09124 07280 12600 /0908 10280 20200 39925 40181 57010 60006 81101 91200=
07280,1997-08-09 15:00:00,29,1016.8,-1.3,48,17,500,11.112,,,90,,,,,,,,,,,wg-a,,,,AAXX 09154 07280 12700 30906 10290 20170 39913 40168 57013 60006 81101 91500=
07280,1997-08-09 18:00:00,28,1016.5,-0.3,40,13,500,14.816,,,50,18,29.4,,,,,,,,,wg-a,,,,AAXX 09184 07280 12/00 30508 10280 20130 39908 40165 57003 60006 80001 91800 333 10294 20180=
07280,1997-08-09 21:00:00,22,1017.4,0.8,73,17,20000,11.112,,,10,,,,,,,,,,,wg-a,,,,AAXX 09214 07280 12/70 00106 10220 20170 39913 40174 52008 60006 80000 92100=
07280,1997-08-10 00:00:00,20,1017.4,0,73,15,20000,18.52,,,10,,,,,,,,,,,wg-a,,,,AAXX 10004 07280 12/70 00110 10200 20150 39911 40174 50000 60006 80000 90000=
07280,1997-08-10 03:00:00,18,1017.1,-0.3,77,14,20000,11.112,,,350,,,,,,,,,,,wg-a,,,,AAXX 10034 07280 12/70 03506 10180 20140 39906 40171 55003 60006 80000 90300=
07280,1997-08-10 06:00:00,19,1017.1,-0,78,15,25000,14.816,,,10,17.5,29.5,,,,,,,,,wg-a,,,,AAXX 10064 07280 02/75 00108 10190 20150 39907 40171 55000 60006 80000 90600 333 10295 20175 60004=
07280,1997-08-10 09:00:00,23,1016.9,-0,61,15,25000,7.408,,,70,,,,,,,,,,,wg-a,,,,AAXX 10094 07280 12/75 00704 10230 20150 39909 40169 54000 60006 80000 90900=
07280,1997-08-10 12:00:00,28,1015.1,-1.8,48,16,25000,11.112,,,70,,,,,,,,,,,wg-a,,,,AAXX 10124 07280 12/75 00706 10280 20160 39895 40151 58018 60006 80000 91200=
07280,1997-08-10 15:00:00,30,1013.2,-1.9,49,18,25000,7.408,,,130,,,,,,,,,,,wg-a,,,,AAXX 10154 07280 12/75 01304 10300 20180 39879 40132 58019 60006 80000 91500=
07280,1997-08-10 21:00:00,23,1013,0.1,69,17,25000,14.816,,,20,,,,,,,,,,,wg-a,,,,AAXX 10214 07280 12/75 30208 10230 20170 39871 40130 53001 60006 80001 92100=
07280,1997-08-11 03:00:00,20,1013.5,,73,15,20000,7.408,,,340,,,,,,,,,,,wg-a,,,,AAXX 11034 07280 32/70 03404 10200 20150 39872 40135 80000 90300=
07280,1997-08-11 06:00:00,20,1013.5,0,73,15,20000,3.704,,,340,18.6,27.8,,,,,,,,,wg-a,,,,AAXX 11064 07280 12/70 53402 10200 20150 39910 40135 50000 60006 80001 90600 333 10278 20186=
07280,1997-08-11 09:00:00,24,1013.6,0.5,61,16,500,11.112,,,60,,,,,,,,,,,wg-a,,,,AAXX 11094 07280 12/00 10606 10240 20160 39878 40136 52005 60006 80001 90900=
07280,1997-08-11 12:00:00,30,1013.1,,46,17,500,7.408,,,100,,,,,,,,,,,wg-a,,,,AAXX 11124 07280 12700 21004 10300 20170 39878 40131 60006 81131 91200=
07280,1997-08-11 15:00:00,26,1015.7,2.2,65,19,20000,18.52,,,270,,,,,,,,,,80,wg-a,,,,AAXX 11154 07280 02770 72710 10260 20190 39900 40157 53022 61000 78086 83932 91500 333 ////=
07280,1997-08-11 18:00:00,25,1016.6,0.8,69,19,25000,3.704,,,160,18.6,31.2,,,,,,,,1,wg-a,,,,AAXX 11184 07280 02775 71602 10250 20190 39908 40166 53008 60006 70186 81532 91800 333 10312 20186 61000=
07280,1997-08-11 21:00:00,22,1019,2,73,17,25000,3.704,,,160,,,,,,,,,,,wg-a,,,,AAXX 11214 07280 12/75 31602 10220 20170 39928 40190 53020 60006 81031 92100=
07280,1997-08-12 00:00:00,19,1019.6,0.3,88,17,15000,3.704,,,190,,,,,,,,,,,wg-a,,,,AAXX 12004 07280 12665 /1902 10190 20170 39931 40196 53003 60006 82530 90000=
07280,1997-08-12 03:00:00,18,1020,0.3,94,17,12000,0,,,0,,,,,,,,,,,wg-a,,,,AAXX 12034 07280 12/62 10000 10180 20170 39934 40200 50003 60006 80001 90300=
07280,1997-08-12 06:00:00,18,1021.1,1.2,100,18,15000,3.704,,,120,16.6,25,,,,,,,,,wg-a,,,,AAXX 12064 07280 02765 71202 10180 20180 39946 40211 51012 60006 815/1 90600 333 10250 20166 61000=
07280,1997-08-12 09:00:00,24,1021.3,0.7,69,18,18000,3.704,,,90,,,,,,,,,,,wg-a,,,,AAXX 12094 07280 12668 30902 10240 20180 39953 40213 51007 60006 81501 90900=
07280,1997-08-12 12:00:00,30,1020.1,-0.7,46,17,25000,3.704,,,150,,,,,,,,,,,wg-a,,,,AAXX 12124 07280 12775 71502 10300 20170 39946 40201 58007 60006 81201 91200=
07280,1997-08-12 15:00:00,31,1018.9,-1.1,46,18,25000,3.704,,,90,,,,,,,,,,,wg-a,,,,AAXX 12154 07280 12775 20902 10310 20180 39935 40189 57011 60006 82201 91500=
07280,1997-08-12 18:00:00,28,1018.8,-0.3,62,20,25000,11.112,,,110,18.1,31.5,,,,,,,,,wg-a,,,,AAXX 12184 07280 12775 31106 10280 20200 39932 40188 55003 60006 81281 91800 333 10315 20181=
07280,1997-08-12 21:00:00,24,1019.8,0.6,69,18,20000,3.704,,,310,,,,,,,,,,,wg-a,,,,AAXX 12214 07280 12670 /3102 10240 20180 39938 40198 53006 60006 81100 92100=
07280,1997-08-13 00:00:00,22,1020.3,0.3,78,18,15000,7.408,,,330,,,,,,,,,,,wg-a,,,,AAXX 13004 07280 12/65 03304 10220 20180 39941 40203 51003 60006 80000 90000=
07280,1997-08-13 03:00:00,20,1020.4,-0.1,83,17,15000,3.704,,,330,,,,,,,,,,,wg-a,,,,AAXX 13034 07280 12/65 03302 10200 20170 39940 40204 57001 60006 80000 90300=
07280,1997-08-13 06:00:00,19,1021.7,1.3,94,18,9000,3.704,,,340,17.8,28.3,,,,,,,,,wg-a,,,,AAXX 13064 07280 02/59 23402 10190 20180 39953 40217 52013 60006 81081 90600 333 10283 20178 60004=
07280,1997-08-13 09:00:00,26,1021.4,0.3,65,19,15000,3.704,,,160,,,,,,,,,,,wg-a,,,,AAXX 13094 07280 12565 /1602 10260 20190 39956 40214 51003 60006 81180 90900=
07280,1997-08-13 12:00:00,30,1020,-1.1,46,17,25000,7.408,,,70,,,,,,,,,,,wg-a,,,,AAXX 13124 07280 12675 50704 10300 20170 39945 40200 58011 60006 83983 91200=
07280,1997-08-13 18:00:00,24,1022.1,-0.4,69,18,20000,7.408,,,50,19.4,30.9,,,,,,,,1,wg-a,,,,AAXX 13184 07280 02770 70504 10240 20180 39960 40221 55004 60006 70198 81463 91800 333 10309 20194 61000=
07280,1997-08-13 21:00:00,20,1023.3,0.9,88,18,20000,7.408,,,270,,,,,,,,,,,wg-a,,,,AAXX 13214 07280 12/70 52704 10200 20180 39969 40233 53009 60006 80001 92100=
07280,1997-08-14 00:00:00,20,1023.4,0.1,88,18,20000,7.408,,,340,,,,,,,,,,,wg-a,,,,AAXX 14004 07280 12/70 03404 10200 20180 39970 40234 50001 60006 80000 90000=
07280,1997-08-14 06:00:00,19,1023.4,0.3,88,17,12000,3.704,,,350,17.2,23.9,,,,,,,,,wg-a,,,,AAXX 14064 07280 02/62 13502 10190 20170 39969 40234 52003 60006 80001 90600 333 10239 20172 61000=
07280,1997-08-14 09:00:00,25,1022.6,-0.2,69,19,12000,7.408,,,40,,,,,,,,,,,wg-a,,,,AAXX 14094 07280 12/62 30404 10250 20190 39967 40226 58002 60006 80001 90900=
07280,1997-08-14 12:00:00,28,1021.1,-1.2,58,19,15000,11.112,,,50,,,,,,,,,,,wg-a,,,,AAXX 14124 07280 12665 70506 10280 20190 39955 40211 57012 60006 83201 91200=
07280,1997-08-14 15:00:00,28,1020.1,-1.1,55,18,15000,14.816,,,60,,,,,,,,,,,wg-a,,,,AAXX 14154 07280 12665 70608 10280 20180 39944 40201 56011 60006 84201 91500=
07280,1997-08-14 18:00:00,26,1019.7,-0.5,61,18,20000,18.52,,,40,19,28.7,,,,,,,,,wg-a,,,,AAXX 14184 07280 12770 40410 10260 20180 39939 40197 55005 60006 83801 91800 333 10287 20190=
07280,1997-08-14 21:00:00,22,1020.8,0.7,69,16,20000,14.816,,,10,,,,,,,,,,,wg-a,,,,AAXX 14214 07280 12/70 20108 10220 20160 39946 40208 52007 60006 80001 92100=
07280,1997-08-15 00:00:00,20,1021.2,0.2,68,14,20000,11.112,,,350,,,,,,,,,,,wg-a,,,,AAXX 15004 07280 12/70 23506 10200 20140 39948 40212 51002 60006 80001 90000=
07280,1997-08-15 03:00:00,18,1020.8,-0.6,77,14,10000,11.112,,,350,,,,,,,,,,,wg-a,,,,AAXX 15034 07280 12/60 /3506 10180 20140 39942 40208 58006 60006 90300=
07280,1997-08-15 06:00:00,20,1020.9,0.3,73,15,20000,11.112,,,340,17.4,26.2,,,,,,,,,wg-a,,,,AAXX 15064 07280 02770 43406 10200 20150 39945 40209 53003 60006 835/1 90600 333 10262 20174 60004=
07280,1997-08-15 12:00:00,28,1019.8,-0.7,37,12,20000,14.816,,,10,,,,,,,,,,,wg-a,,,,AAXX 15124 07280 12770 50108 10280 20120 39941 40198 56007 60006 81101 91200=
07280,1997-08-15 15:00:00,27,1019.2,-0.6,45,14,25000,11.112,,,80,,,,,,,,,,,wg-a,,,,AAXX 15154 07280 12875 70806 10270 20140 39935 40192 55006 60006 81531 91500=
07280,1997-08-15 18:00:00,25,1018.5,-0.9,50,14,25000,11.112,,,40,19.5,28.8,,,,,,,,,wg-a,,,,AAXX 15184 07280 12/75 70406 10250 20140 39926 40185 57009 60006 81031 91800 333 10288 20195=
07280,1997-08-15 21:00:00,21,1020.5,1.6,64,14,20000,3.704,,,10,,,,,,,,,,,wg-a,,,,AAXX 15214 07280 12/70 30102 10210 20140 39942 40205 51016 60006 80001 92100=
07280,1997-08-16 00:00:00,19,1019.7,-1,73,14,20000,11.112,,,350,,,,,,,,,,,wg-a,,,,AAXX 16004 07280 12/70 63506 10190 20140 39932 40197 56010 60006 83031 90000=
07280,1997-08-16 03:00:00,17,1019.1,-0.8,77,13,20000,7.408,,,350,,,,,,,,,,,wg-a,,,,AAXX 16034 07280 12/70 33504 10170 20130 39924 40191 55008 60006 81031 90300=
07280,1997-08-16 06:00:00,17,1019,-0,77,13,20000,7.408,,,350,15.9,24.9,,,,,,,,,wg-a,,,,AAXX 16064 07280 02/70 33504 10170 20130 39924 40190 55000 60006 80002 90600 333 10249 20159 60004=
07280,1997-08-16 09:00:00,23,1018.5,0,61,15,20000,11.112,,,30,,,,,,,,,,,wg-a,,,,AAXX 16094 07280 12570 30306 10230 20150 39924 40185 50000 60006 81102 90900=
07280,1997-08-16 12:00:00,27,1017.3,-0.8,42,13,20000,11.112,,,60,,,,,,,,,,,wg-a,,,,AAXX 16124 07280 12770 40606 10270 20130 39916 40173 58008 60006 82101 91200=
07280,1997-08-16 15:00:00,28,1016,-1.2,37,12,20000,0,,,0,,,,,,,,,,,wg-a,,,,AAXX 16154 07280 12770 50000 10280 20120 39904 40160 58012 60006 82202 91500=
07280,1997-08-16 18:00:00,25,1016.4,0.2,54,15,20000,7.408,,,100,17.1,28.8,,,,,,,,,wg-a,,,,AAXX 16184 07280 12770 61004 10250 20150 39906 40164 53002 60006 844/2 91800 333 10288 20171=
07280,1997-08-16 21:00:00,21,1017.5,0.7,69,15,20000,3.704,,,40,,,,,,,,,,1,wg-a,,,,AAXX 16214 07280 12770 60402 10210 20150 39913 40175 51007 60006 70192 835/2 92100=
07280,1997-08-17 00:00:00,18,1018.1,0.3,77,14,20000,0,,,0,,,,,,,,,,3,wg-a,,,,AAXX 17004 07280 12/70 40000 10180 20140 39916 40181 50003 60006 70391 84030 90000=
07280,1997-08-17 03:00:00,17,1017.7,-0.5,82,14,20000,7.408,,,350,,,,,,,,,,,wg-a,,,,AAXX 17034 07280 12/70 43504 10170 20140 39911 40177 56005 60006 80001 90300=
07280,1997-08-17 06:00:00,16,1018.6,0.8,94,15,12000,0,,,0,14.8,25.1,,,,,,,,,wg-a,,,,AAXX 17064 07280 02/62 10000 10160 20150 39919 40186 53008 60006 80001 90600 333 10251 20148 60004=
07280,1997-08-17 09:00:00,23,1018.4,0.5,65,16,12000,3.704,,,130,,,,,,,,,,,wg-a,,,,AAXX 17094 07280 12662 31302 10230 20160 39924 40184 51005 60006 81180 90900=
07280,1997-08-17 12:00:00,26,1017.4,-0.8,51,15,15000,3.704,,,280,,,,,,,,,,17,wg-a,,,,AAXX 17124 07280 12665 /2802 10260 20150 39916 40174 57008 60006 71791 83280 91200=
07280,1997-08-17 15:00:00,28,1015.8,-1.4,42,14,20000,11.112,,,90,,,,,,,,,,,wg-a,,,,AAXX 17154 07280 12770 20906 10280 20140 39902 40158 57014 60006 82200 91500=
07280,1997-08-17 18:00:00,25,1016.4,0.4,57,16,25000,7.408,,,110,16.2,28.7,,,,,,,,,wg-a,,,,AAXX 17184 07280 12775 41104 10250 20160 39906 40164 53004 60006 81204 91800 333 10287 20162=
07280,1997-08-17 21:00:00,21,1017.9,1,73,16,15000,7.408,,,310,,,,,,,,,,,wg-a,,,,AAXX 17214 07280 12/65 63104 10210 20160 39916 40179 53010 60006 80002 92100=
07280,1997-08-18 00:00:00,19,1017.6,-0.4,73,14,12000,3.704,,,340,,,,,,,,,,,wg-a,,,,AAXX 18004 07280 12/62 23402 10190 20140 39912 40176 58004 60006 80001 90000=
07280,1997-08-18 03:00:00,17,1018,0.1,77,13,12000,7.408,,,20,,,,,,,,,,,wg-a,,,,AAXX 18034 07280 12/62 50204 10170 20130 39913 40180 53001 60006 80001 90300=
07280,1997-08-18 06:00:00,16,1017.9,-0.1,82,13,12000,3.704,,,350,14.7,24.9,,,,,,,,,wg-a,,,,AAXX 18064 07280 02/62 53502 10160 20130 39912 40179 56001 60006 80001 90600 333 10249 20147 60004=
07280,1997-08-18 09:00:00,24,1017.5,0.3,57,15,18000,7.408,,,50,,,,,,,,,,,wg-a,,,,AAXX 18094 07280 12568 40504 10240 20150 39915 40175 51003 60006 81131 90900=
07280,1997-08-18 12:00:00,29,1016.7,-0.4,33,11,18000,7.408,,,120,,,,,,,,,,,wg-a,,,,AAXX 18124 07280 12768 21204 10290 20110 39911 40167 58004 60006 82200 91200=
07280,1997-08-18 15:00:00,28,1015.7,-1,40,13,20000,11.112,,,50,,,,,,,,,,,wg-a,,,,AAXX 18154 07280 12770 40506 10280 20130 39901 40157 57010 60006 84900 91500=
07280,1997-08-18 18:00:00,26,1015.6,-0.2,48,14,20000,11.112,,,80,15.9,29.4,,,,,,,,,wg-a,,,,AAXX 18184 07280 12770 30806 10260 20140 39899 40156 56002 60006 81101 91800 333 10294 20159=
07280,1997-08-18 21:00:00,22,1017,1,65,15,15000,11.112,,,10,,,,,,,,,,,wg-a,,,,AAXX 18214 07280 12/65 00106 10220 20150 39909 40170 51010 60006 80000 92100=
07280,1997-08-19 00:00:00,19,1017.1,-0.2,73,14,15000,7.408,,,340,,,,,,,,,,,wg-a,,,,AAXX 19004 07280 12/65 03404 10190 20140 39907 40171 58002 60006 80000 90000=
07280,1997-08-19 06:00:00,17,1017.3,0.3,88,15,10000,3.704,,,360,15.9,26.4,,,,,,,,,wg-a,,,,AAXX 19064 07280 02/60 43602 10170 20150 39907 40173 53003 60006 80001 90600 333 10264 20159 60004=
07280,1997-08-19 09:00:00,24,1017,0.3,61,16,18000,3.704,,,20,,,,,,,,,,,wg-a,,,,AAXX 19094 07280 12/68 50202 10240 20160 39910 40170 51003 60006 80001 90900=
07280,1997-08-19 12:00:00,28,1015.8,-0.8,40,13,15000,3.704,,,150,,,,,,,,,,,wg-a,,,,AAXX 19124 07280 12765 61502 10280 20130 39902 40158 57008 60006 81202 91200=
07280,1997-08-19 15:00:00,28,1014.9,-0.8,40,13,15000,7.408,,,90,,,,,,,,,,1,wg-a,,,,AAXX 19154 07280 12765 70904 10280 20130 39894 40149 56008 60006 70192 82402 91500=
07280,1997-08-19 18:00:00,26,1014.9,-0.3,54,16,18000,7.408,,,90,17.2,29.1,,,,,,,,2,wg-a,,,,AAXX 19184 07280 12/68 70904 10260 20160 39891 40149 55003 60006 70292 80002 91800 333 10291 20172=
07280,1997-08-19 21:00:00,22,1016.3,1.1,69,16,20000,7.408,,,350,,,,,,,,,,,wg-a,,,,AAXX 19214 07280 12/70 43504 10220 20160 39902 40163 51011 60006 80002 92100=
07280,1997-08-20 00:00:00,19,1016.4,-0.1,78,15,20000,7.408,,,340,,,,,,,,,,,wg-a,,,,AAXX 20004 07280 12/70 43404 10190 20150 39901 40164 58001 60006 80002 90000=
07280,1997-08-20 03:00:00,17,1016.5,-0.1,88,15,15000,7.408,,,350,,,,,,,,,,,wg-a,,,,AAXX 20034 07280 12/65 03504 10170 20150 39900 40165 56001 60006 80000 90300=
07280,1997-08-20 06:00:00,17,1017.7,1.1,88,15,9000,7.408,,,340,15,25.5,,,,,,,,,wg-a,,,,AAXX 20064 07280 02/59 33404 10170 20150 39911 40177 53011 60006 80001 90600 333 10255 20150 60004=
07280,1997-08-20 09:00:00,25,1017.4,0.4,61,17,10000,3.704,,,100,,,,,,,,,,,wg-a,,,,AAXX 20094 07280 12/60 /1002 10250 20170 39915 40174 51004 60006 80000 90900=
07280,1997-08-20 12:00:00,29,1016.1,-0.9,40,14,18000,3.704,,,160,,,,,,,,,,,wg-a,,,,AAXX 20124 07280 12768 21602 10290 20140 39906 40161 58009 60006 82200 91200=
07280,1997-08-20 15:00:00,28,1015.9,-0.3,40,13,12000,14.816,,,120,,,,,,,,,,25,wg-a,,,,AAXX 20154 07280 02762 51208 10280 20130 39903 40159 55003 61000 72586 83980 91500 333 ////=
07280,1997-08-20 18:00:00,26,1015.9,-0.1,48,14,18000,3.704,,,160,16.8,29.5,,,,,,,,1,wg-a,,,,AAXX 20184 07280 12868 31602 10260 20140 39902 40159 58001 60006 70186 81201 91800 333 10295 20168=
07280,1997-08-20 21:00:00,22,1017.7,1.3,65,15,15000,11.112,,,340,,,,,,,,,,,wg-a,,,,AAXX 20214 07280 12/65 13406 10220 20150 39915 40177 53013 60006 80001 92100=
07280,1997-08-21 00:00:00,20,1018.3,0.4,60,12,15000,7.408,,,20,,,,,,,,,,,wg-a,,,,AAXX 21004 07280 12/65 00204 10200 20120 39919 40183 52004 60006 80000 90000=
07280,1997-08-21 03:00:00,17,1018.7,0.2,72,12,12000,3.704,,,320,,,,,,,,,,,wg-a,,,,AAXX 21034 07280 12/62 33202 10170 20120 39921 40187 51002 60006 83031 90300=
07280,1997-08-21 06:00:00,19,1019.5,0.9,68,13,15000,3.704,,,360,16.8,26.1,,,,,,,,,wg-a,,,,AAXX 21064 07280 02/65 63602 10190 20130 39930 40195 53009 60006 84031 90600 333 10261 20168 61000=
07280,1997-08-21 07:00:00,20,1019.5,0.9,64,13,15000,3.704,,,360,16.8,26.1,,,,,,,,,wg-a,,,,AAXX 21074 07280 02/65 63602 10200 20130 39930 40195 53009 60006 84031 90700 333 10261 20168 61000=
07280,1997-08-21 08:00:00,19,1019.5,0.9,68,13,15000,3.704,,,360,16.8,26.1,,,,,,,,,wg-a,,,,AAXX 21084 07280 02/65 63602 10190 20130 39930 40195 53009 60006 84031 90800 333 10261 20168 61000=
07280,1997-08-21 09:00:00,24,1019.7,0.7,54,14,18000,3.704,,,60,,,,,,,,,,,wg-a,,,,AAXX 21094 07280 12/68 70602 10240 20140 39937 40197 51007 60006 86031 90900=
07280,1997-08-21 12:00:00,28,1018.7,-0.6,40,13,18000,3.704,,,110,,,,,,,,,,,wg-a,,,,AAXX 21124 07280 12768 61102 10280 20130 39931 40187 58006 60006 81132 91200=
07280,1997-08-21 18:00:00,28,1018.2,0.1,40,13,25000,7.408,,,140,18.7,29.2,,,,,,,,,wg-a,,,,AAXX 21184 07280 12/75 31404 10280 20130 39925 40182 52001 60006 83030 91800 333 10292 20187=
07280,1997-08-22 00:00:00,19,1020.6,0.5,68,13,15000,7.408,,,340,,,,,,,,,,,wg-a,,,,AAXX 22004 07280 12/65 43404 10190 20130 39941 40206 53005 60006 80001 90000=
07280,1997-08-22 06:00:00,16,1021.7,0.9,82,13,20000,7.408,,,30,14.9,27.6,,,,,,,,,wg-a,,,,AAXX 22064 07280 02/70 40304 10160 20130 39949 40217 53009 60006 82031 90600 333 10276 20149 60004=
07280,1997-08-22 09:00:00,25,1021.3,0.4,47,13,20000,7.408,,,100,,,,,,,,,,,wg-a,,,,AAXX 22094 07280 12/70 41004 10250 20130 39953 40213 50004 60006 81031 90900=
07280,1997-08-22 12:00:00,31,1019.8,-1,29,11,20000,11.112,,,150,,,,,,,,,,,wg-a,,,,AAXX 22124 07280 12770 51506 10310 20110 39943 40198 58010 60006 81131 91200=
07280,1997-08-22 15:00:00,31,1018.7,-1.1,31,12,25000,11.112,,,70,,,,,,,,,,,wg-a,,,,AAXX 22154 07280 12875 70706 10310 20120 39932 40187 56011 60006 8153/ 91500=
07280,1997-08-22 18:00:00,28,1018.8,-0.1,42,14,20000,11.112,,,70,16.2,31.3,,,,,,,,21,wg-a,,,,AAXX 22184 07280 02770 70706 10280 20140 39931 40188 55001 61000 72162 8357/ 91800 333 10313 20162 6100=
07280,1997-08-22 21:00:00,24,1019.3,0.2,57,15,18000,7.408,,,10,,,,,,,,,,,wg-a,,,,AAXX 22214 07280 12/68 60104 10240 20150 39933 40193 50002 60006 86030 92100=
07280,1997-08-23 00:00:00,22,1019,-0.5,65,15,18000,7.408,,,330,,,,,,,,,,,wg-a,,,,AAXX 23004 07280 12/68 33304 10220 20150 39928 40190 58005 60006 83030 90000=
07280,1997-08-23 03:00:00,19,1018.7,-0.5,73,14,18000,7.408,,,350,,,,,,,,,,,wg-a,,,,AAXX 23034 07280 12/68 03504 10190 20140 39923 40187 56005 60006 80000 90300=
07280,1997-08-23 06:00:00,19,1018.9,0.1,78,15,15000,7.408,,,340,18.2,27.6,,,,,,,,,wg-a,,,,AAXX 23064 07280 02/65 43404 10190 20150 39924 40189 50001 60006 84030 90600 333 10276 20182 61000=
07280,1997-08-23 09:00:00,26,1018.2,0,54,16,18000,0,,,0,,,,,,,,,,,wg-a,,,,AAXX 23094 07280 12/68 20000 10260 20160 39924 40182 50000 60006 82030 90900=
07280,1997-08-23 12:00:00,30,1016.7,-1.1,38,14,20000,7.408,,,150,,,,,,,,,,,wg-a,,,,AAXX 23124 07280 12770 51504 10300 20140 39913 40167 58011 60006 81230 91200=
07280,1997-08-23 15:00:00,31,1015.3,-1.3,33,13,20000,11.112,,,180,,,,,,,,,,,wg-a,,,,AAXX 23154 07280 12770 31806 10310 20130 39900 40153 56013 60006 81230 91500=
07280,1997-08-23 18:00:00,29,1014.7,-0.8,43,15,25000,7.408,,,100,18.6,31.7,,,,,,,,,wg-a,,,,AAXX 23184 07280 12/75 31004 10290 20150 39892 40147 56008 60006 83030 91800 333 10317 20186=
07280,1997-08-23 21:00:00,23,1015.6,0.4,61,15,20000,0,,,0,,,,,,,,,,,wg-a,,,,AAXX 23214 07280 12/70 00000 10230 20150 39896 40156 51004 60006 80000 92100=
07280,1997-08-24 00:00:00,20,1015.8,0,73,15,20000,7.408,,,340,,,,,,,,,,,wg-a,,,,AAXX 24004 07280 12/70 03404 10200 20150 39896 40158 50000 60006 80000 90000=
07280,1997-08-24 03:00:00,17,1016.2,0.1,82,14,20000,0,,,0,,,,,,,,,,,wg-a,,,,AAXX 24034 07280 12/70 00000 10170 20140 39897 40162 51001 60006 80000 90300=
07280,1997-08-24 06:00:00,17,1016.9,0.6,88,15,15000,3.704,,,50,16.5,28.6,,,,,,,,,wg-a,,,,AAXX 24064 07280 02/65 10502 10170 20150 39903 40169 53006 60006 81030 90600 333 10286 20165 60004=
07280,1997-08-24 09:00:00,25,1015.8,-0.3,61,17,20000,11.112,,,180,,,,,,,,,,,wg-a,,,,AAXX 24094 07280 12/70 01806 10250 20170 39900 40158 58003 60006 80000 90900=
07280,1997-08-24 12:00:00,31,1014,-1.2,40,16,20000,7.408,,,150,,,,,,,,,,,wg-a,,,,AAXX 24124 07280 12770 21504 10310 20160 39888 40140 58012 60006 82800 91200=
07280,1997-08-24 15:00:00,33,1012.6,-1.3,30,13,25000,7.408,,,210,,,,,,,,,,,wg-a,,,,AAXX 24154 07280 12775 12104 10330 20130 39875 40126 56013 60006 81200 91500=
07280,1997-08-24 18:00:00,29,1011.8,-1.1,35,12,20000,7.408,,,110,17,32.9,,,,,,,,,wg-a,,,,AAXX 24184 07280 12870 11104 10290 20120 39864 40118 56011 60006 81500 91800 333 10329 20170=
07280,1997-08-24 21:00:00,24,1012.3,-0,54,14,20000,3.704,,,330,,,,,,,,,,,wg-a,,,,AAXX 24214 07280 12/70 03302 10240 20140 39864 40123 55000 60006 80000 92100=
07280,1997-08-25 00:00:00,20,1012.3,-0.3,68,14,20000,3.704,,,180,,,,,,,,,,,wg-a,,,,AAXX 25004 07280 12/70 01802 10200 20140 39861 40123 57003 60006 80000 90000=
07280,1997-08-25 03:00:00,17,1012,-0.5,82,14,20000,0,,,0,,,,,,,,,,,wg-a,,,,AAXX 25034 07280 12/70 00000 10170 20140 39856 40120 55005 60006 80000 90300=
07280,1997-08-25 06:00:00,18,1012,-0,83,15,15000,0,,,0,15.9,28.9,,,,,,,,,wg-a,,,,AAXX 25064 07280 02/65 10000 10180 20150 39856 40120 55000 60006 81030 90600 333 10289 20159 60004=
07280,1997-08-25 09:00:00,25,1011.1,-0.2,54,15,18000,18.52,,,200,,,,,,,,,,,wg-a,,,,AAXX 25094 07280 12/68 12010 10250 20150 39854 40111 57002 60006 81031 90900=
07280,1997-08-25 12:00:00,30,1009.3,-1.4,38,14,18000,25.928,,,200,,,,,,,,,,,wg-a,,,,AAXX 25124 07280 12768 22014 10300 20140 39840 40093 57014 60006 81130 91200=
07280,1997-08-25 15:00:00,31,1007.4,-1.7,27,10,25000,18.52,,,180,,,,,,,,,,,wg-a,,,,AAXX 25154 07280 12775 21810 10310 20100 39823 40074 58017 60006 81234 91500=
07280,1997-08-25 18:00:00,27,1008,0.2,37,11,25000,11.112,,,170,17.8,31.7,,,,,,,,,wg-a,,,,AAXX 25184 07280 12775 51706 10270 20110 39825 40080 53002 60006 81101 91800 333 10317 20178=
07280,1997-08-26 00:00:00,22,1010.6,0.4,69,16,20000,7.408,,,300,,,,,,,,,,,wg-a,,,,AAXX 26004 07280 12670 73004 10220 20160 39847 40106 53004 60006 82531 90000=
07280,1997-08-26 03:00:00,20,1010.6,-0.2,94,19,15000,3.704,,,100,,,,7,,,,,,25,wg-a,,,,AAXX 26034 07280 12565 81002 10200 20190 39845 40106 56002 60077 72586 8323/ 90300=
07280,1997-08-26 06:00:00,20,1011.2,0.6,94,19,2000,7.408,,,150,19.5,26.9,,,,,7,,,10,wg-a,,,,AAXX 26064 07280 02420 71504 10200 20190 39851 40112 53006 60006 71086 875// 90600 333 10269 20195 60074=
07280,1997-08-26 09:00:00,21,1011.5,0.4,88,19,12000,11.112,,,20,,,,,,,,,,,wg-a,,,,AAXX 26094 07280 12462 70206 10210 20190 39855 40115 52004 60006 8753/ 90900=
07280,1997-08-26 12:00:00,24,1010.6,-0.7,74,19,20000,14.816,,,70,,,,,,,,,,,wg-a,,,,AAXX 26124 07280 12570 70708 10240 20190 39848 40106 58007 60006 85202 91200=
07280,1997-08-26 15:00:00,22,1010.1,-0.6,83,19,15000,11.112,,,300,,,,1,,,,,,80,wg-a,,,,AAXX 26154 07280 12565 83006 10220 20190 39842 40101 55006 60017 78098 85903 91500=
07280,1997-08-26 18:00:00,22,1009.9,-0.2,83,19,20000,3.704,,,10,19.6,24.2,,0,,,,,,3,wg-a,,,,AAXX 26184 07280 02470 70102 10220 20190 39840 40099 58002 60006 70398 8283/ 91800 333 10242 20196 60007=
07280,1997-08-26 21:00:00,19,1010.4,0.2,94,18,15000,3.704,,,240,,,,0,,,,,,11,wg-a,,,,AAXX 26214 07280 12/65 /2402 10190 20180 39842 40104 50002 60007 71161 81030 92100=
07280,1997-08-27 00:00:00,17,1009.9,-0.7,100,17,2000,0,,,0,,,,,,,,,,10,wg-a,,,,AAXX 27004 07280 12220 /0000 10170 20170 39835 40099 58007 60006 71061 81600 90000=
07280,1997-08-27 06:00:00,16,1008.9,-0.5,100,16,200,3.704,,,130,14.6,21.5,,,,,1,,,44,wg-a,,,,AAXX 27064 07280 02802 71302 10160 20160 39824 40089 56005 60006 74441 875// 90600 333 10215 20146 60014=
07280,1997-08-27 09:00:00,21,1007.8,-0.6,78,17,12000,18.52,,,190,,,,,,,,,,3,wg-a,,,,AAXX 27094 07280 12462 31910 10210 20170 39818 40078 56006 60006 70341 83131 90900=
07280,1997-08-27 12:00:00,25,1006.6,-0.8,65,18,15000,25.928,,,220,,,,,,,,,,3,wg-a,,,,AAXX 27124 07280 12665 82214 10250 20180 39810 40066 55008 60006 70341 8115/ 91200=
07280,1997-08-27 15:00:00,23,1005.9,-0.8,73,18,15000,11.112,,,180,,,,,,,,,,1,wg-a,,,,AAXX 27154 07280 02665 81806 10230 20180 39802 40059 58008 61000 70162 81157 91500 333 ////=
07280,1997-08-27 18:00:00,23,1004.6,-1.3,65,16,20000,7.408,,,240,15.5,24.5,,,,,,,,3,wg-a,,,,AAXX 27184 07280 12570 72404 10230 20160 39789 40046 56013 60006 70362 8113/ 91800 333 10245 20155=
07280,1997-08-27 21:00:00,18,1005.9,0.8,94,17,15000,0,,,0,,,,7,,,,,,61,wg-a,,,,AAXX 27214 07280 12665 80000 10180 20170 39797 40059 50008 60077 76198 8352/ 92100=
07280,1997-08-28 00:00:00,16,1005.8,-0.2,100,16,8000,14.816,,,190,,,,7,,,,,,61,wg-a,,,,AAXX 28004 07280 02258 81908 10160 20160 39795 40058 58002 60136 76198 8352/ 90000 333 60077=
07280,1997-08-28 06:00:00,15,1004.1,-0.4,100,15,12000,18.52,,,190,14.9,23,,,,,,,,61,wg-a,,,,AAXX 28064 07280 02262 81910 10150 20150 39777 40041 55004 61000 76162 877// 90600 333 10230 20149 6020=
07280,1997-08-28 09:00:00,14,1007,2.7,100,14,12000,14.816,,,220,,,,8,,,,,,61,wg-a,,,,AAXX 28094 07280 12362 82208 10140 20140 39804 40070 51027 60087 76166 8387/ 90900=
07280,1997-08-28 12:00:00,15,1008.3,1.3,88,13,25000,25.928,,,190,,,,1,,,,,,1,wg-a,,,,AAXX 28124 07280 02475 71914 10150 20130 39817 40083 51013 60096 70162 8283/ 91200 333 60017=
07280,1997-08-28 18:00:00,15,1009.4,1.4,77,11,15000,29.632,,,270,14,18.1,,,,,,,,80,wg-a,,,,AAXX 28184 07280 02565 72716 10150 20110 39828 40094 52014 61000 78098 879// 91800 333 10181 20140 6000=
07280,1997-08-28 21:00:00,14,1011.8,2.3,94,13,25000,14.816,,,200,,,,0,,,,,,3,wg-a,,,,AAXX 28214 07280 12675 62008 10140 20130 39851 40118 51023 60007 70386 86530 92100=
07280,1997-08-29 00:00:00,14,1013.4,1.5,82,11,25000,18.52,,,240,,,,,,,,,,1,wg-a,,,,AAXX 29004 07280 12875 22410 10140 20110 39866 40134 53015 60006 70186 82030 90000=
07280,1997-08-29 03:00:00,13,1015.1,1.6,88,11,25000,14.816,,,200,,,,,,,,,,,wg-a,,,,AAXX 29034 07280 12575 22008 10130 20110 39882 40151 51016 60006 82530 90300=
07280,1997-08-29 06:00:00,13,1017,1.8,94,12,15000,18.52,,,220,12.2,14.7,,,,,10,,,1,wg-a,,,,AAXX 29064 07280 02565 42210 10130 20120 39900 40170 52018 60006 70186 84800 90600 333 10147 20122 60104=
07280,1997-08-29 09:00:00,16,1017.9,1.2,77,12,20000,18.52,,,200,,,,,,,,,,,wg-a,,,,AAXX 29094 07280 12570 52010 10160 20120 39912 40179 53012 60006 85800 90900=
07280,1997-08-29 12:00:00,19,1017.9,0.2,56,10,40000,18.52,,,250,,,,,,,,,,,wg-a,,,,AAXX 29124 07280 12682 42510 10190 20100 39914 40179 53002 60006 84200 91200=
07280,1997-08-29 15:00:00,20,1018.4,0.6,49,9,500,18.52,,,230,,,,,,,,,,,wg-a,,,,AAXX 29154 07280 12600 42310 10200 20090 39920 40184 52006 60006 84400 91500=
07280,1997-08-29 18:00:00,17,1019.3,0.6,77,13,500,11.112,,,190,12.9,21.4,,,,,,,,25,wg-a,,,,AAXX 29184 07280 02600 41906 10170 20130 39926 40193 51006 61000 72586 83801 91800 333 10214 20129 6100=
07280,1997-08-30 00:00:00,13,1020.4,-0.2,100,13,25000,7.408,,,170,,,,,,,,,,1,wg-a,,,,AAXX 30004 07280 02/75 21704 10130 20130 39934 40204 58002 61000 70186 82030 90000 333 ////=
07280,1997-08-30 03:00:00,13,1019.4,-1,100,13,20000,7.408,,,170,,,,,,,,,,60,wg-a,,,,AAXX 30034 07280 02570 81704 10130 20130 39924 40194 58010 61000 76061 8117/ 90300 333 ////=
07280,1997-08-30 06:00:00,14,1018.9,-0.4,100,14,10000,11.112,,,180,13,16.5,,,,,,,,61,wg-a,,,,AAXX 30064 07280 02560 81806 10140 20140 39920 40189 57004 61000 76161 8352/ 90600 333 10165 20130 6002=
07280,1997-08-30 09:00:00,14,1019.5,0.6,100,14,500,25.928,,,210,,,,5,,,,,,10,wg-a,,,,AAXX 30094 07280 12200 82114 10140 20140 39926 40195 53006 60057 71066 887// 90900=
07280,1997-08-30 12:00:00,16,1019.3,-0,94,15,12000,22.224,,,190,,,,1,,,,,,20,wg-a,,,,AAXX 30124 07280 02362 81912 10160 20150 39926 40193 55000 60066 72065 877// 91200 333 60017=
07280,1997-08-30 15:00:00,19,1019.4,0.4,88,17,20000,11.112,,,180,,,,,,,,,,,wg-a,,,,AAXX 30154 07280 12470 81806 10190 20170 39930 40194 52004 60006 888// 91500=
07280,1997-08-30 18:00:00,19,1019.6,0.1,88,17,25000,7.408,,,190,13.6,19.4,,,,,,,,,wg-a,,,,AAXX 30184 07280 12475 71904 10190 20170 39931 40196 50001 60006 878// 91800 333 10194 20136=
07280,1997-08-30 21:00:00,17,1020.1,0.4,94,16,25000,7.408,,,200,,,,,,,,,,,wg-a,,,,AAXX 30214 07280 12775 22004 10170 20160 39935 40201 50004 60006 82500 92100=
07280,1997-08-31 00:00:00,14,1020.1,-0.3,100,14,15000,3.704,,,340,,,,,,,,,,,wg-a,,,,AAXX 31004 07280 12/65 03402 10140 20140 39932 40201 58003 60006 80000 90000=
07280,1997-08-31 03:00:00,14,1019.2,-0.9,100,14,500,7.408,,,350,,,,,,,,,,44,wg-a,,,,AAXX 31034 07280 32/05 03504 10140 20140 39923 40192 58009 74440 80000 90300=
07280,1997-08-31 06:00:00,14,1018.8,-0.4,100,14,200,3.704,,,350,13.2,18.8,,,,,6,,,44,wg-a,,,,AAXX 31064 07280 02/02 23502 10140 20140 39919 40188 58004 60006 74441 80001 90600 333 10188 20132 60064=
07280,1997-08-31 12:00:00,25,1015.8,-1.2,61,17,25000,7.408,,,130,,,,0,,,,,,2,wg-a,,,,AAXX 31124 07280 02/75 11304 10250 20170 39900 40158 57012 60006 70240 80002 91200 333 60007=
07280,1997-08-31 15:00:00,28,1014.3,-1.3,51,17,500,7.408,,,170,,,,,,,,,,,wg-a,,,,AAXX 31154 07280 12/00 21704 10280 20170 39887 40143 56013 60006 80002 91500=
07280,1997-08-31 18:00:00,25,1014.3,-0.2,61,17,500,7.408,,,210,13.5,27.7,,,,,,,,,wg-a,,,,AAXX 31184 07280 12700 32104 10250 20170 39885 40143 55002 60006 815/1 91800 333 10277 20135=
07280,1997-08-31 21:00:00,20,1015.8,1.1,83,17,25000,7.408,,,330,,,,,,,,,,,wg-a,,,,AAXX 31214 07280 12/75 13304 10200 20170 39896 40158 52011 60006 81030 92100=
07280,1997-09-01 00:00:00,18,1016.8,0.8,94,17,20000,3.704,,,350,,,,,,,,,,,wg-a,,,,AAXX 01004 07280 12/70 13502 10180 20170 39904 40168 51008 60006 81030 90000=
07280,1997-09-01 03:00:00,19,1017.1,0.3,88,17,12000,11.112,,,10,,,,,,,,,,,wg-a,,,,AAXX 01034 07280 12/62 10106 10190 20170 39907 40171 53003 60006 81030 90300=
07280,1997-09-01 06:00:00,17,1018.2,0.9,94,16,25000,3.704,,,100,16.4,24.7,,,,,,,,11,wg-a,,,,AAXX 01064 07280 02575 41002 10170 20160 39916 40182 53009 60006 71111 81801 90600 333 10247 20164 60004=
07280,1997-09-01 09:00:00,22,1016.9,-0.8,73,17,500,14.816,,,40,,,,,,,,,,,wg-a,,,,AAXX 01094 07280 12800 30408 10220 20170 39908 40169 58008 60006 81031 90900=
07280,1997-09-01 12:00:00,26,1015.6,-0.9,61,18,500,11.112,,,80,,,,,,,,,,,wg-a,,,,AAXX 01124 07280 12500 /0806 10260 20180 39899 40156 58009 60006 82182 91200=
07280,1997-09-01 15:00:00,26,1014.5,-1.1,61,18,500,18.52,,,20,,,,,,,,,,,wg-a,,,,AAXX 01154 07280 12600 60210 10260 20180 39888 40145 58011 60006 82231 91500=
07280,1997-09-01 18:00:00,21,1016.2,1.2,78,17,10000,29.632,,,210,16.6,26.6,,,,,,,,29,wg-a,,,,AAXX 01184 07280 02560 72116 10210 20170 39900 40162 53012 60006 72998 8593/ 91800 333 10266 20166 61000=
07280,1997-09-01 21:00:00,17,1018.9,2.3,88,15,15000,11.112,,,330,,,,,,,,,,,wg-a,,,,AAXX 01214 07280 12565 /3306 10170 20150 39923 40189 52023 60006 84530 92100=
07280,1997-09-02 00:00:00,17,1018.7,-0.3,88,15,10000,11.112,,,10,,,,,,,,,,60,wg-a,,,,AAXX 02004 07280 02560 70106 10170 20150 39920 40187 58003 61000 76062 8553/ 90000 333 6100=
07280,1997-09-02 03:00:00,16,1018.8,0.1,94,15,15000,7.408,,,40,,,,0,,,,,,3,wg-a,,,,AAXX 02034 07280 12465 70404 10160 20150 39921 40188 52001 60007 70362 8453/ 90300=
07280,1997-09-02 06:00:00,16,1018.5,-0.3,100,16,8000,14.816,,,10,16.1,20.6,,,,,,,,61,wg-a,,,,AAXX 02064 07280 02458 80108 10160 20160 39918 40185 56003 61000 76162 888// 90600 333 10206 20161 6001=
07280,1997-09-02 09:00:00,17,1019.6,1.2,94,16,10000,14.816,,,360,,,,,,,,,,21,wg-a,,,,AAXX 02094 07280 02360 83608 10170 20160 39930 40196 51012 61000 72165 877// 90900 333 ////=
07280,1997-09-02 12:00:00,17,1020.2,0.6,94,16,15000,18.52,,,360,,,,0,,,,,,21,wg-a,,,,AAXX 02124 07280 02465 83610 10170 20160 39936 40202 53006 60006 72165 888// 91200 333 60007=
07280,1997-09-02 18:00:00,17,1020.3,0.2,88,15,20000,22.224,,,360,16.1,17.6,,,,,,,,1,wg-a,,,,AAXX 02184 07280 12470 83612 10170 20150 39936 40203 53002 60006 70152 888// 91800 333 10176 20161=
07280,1997-09-02 21:00:00,17,1021.6,1.3,82,14,15000,22.224,,,340,,,,,,,,,,,wg-a,,,,AAXX 02214 07280 12465 83412 10170 20140 39949 40216 50013 60006 888// 92100=
07280,1997-09-03 00:00:00,17,1021.4,-0.2,82,14,15000,18.52,,,340,,,,,,,,,,,wg-a,,,,AAXX 03004 07280 12465 83410 10170 20140 39947 40214 57002 60006 885// 90000=
07280,1997-09-03 03:00:00,16,1020.9,-0.5,88,14,15000,11.112,,,350,,,,,,,,,,,wg-a,,,,AAXX 03034 07280 12465 73506 10160 20140 39942 40209 58005 60006 878// 90300=
07280,1997-09-03 06:00:00,16,1021.1,0.1,88,14,18000,11.112,,,350,15.9,17,,,,,,,,,wg-a,,,,AAXX 03064 07280 02468 73506 10160 20140 39943 40211 53001 60006 875// 90600 333 10170 20159 60004=
07280,1997-09-03 09:00:00,18,1021.3,0.4,83,15,20000,11.112,,,30,,,,,,,,,,,wg-a,,,,AAXX 03094 07280 12470 /0306 10180 20150 39947 40213 50004 60006 85800 90900=
07280,1997-09-03 12:00:00,22,1020.4,-0.5,65,15,20000,7.408,,,40,,,,,,,,,,,wg-a,,,,AAXX 03124 07280 12570 /0404 10220 20150 39942 40204 58005 60006 86800 91200=
07280,1997-09-03 18:00:00,21,1020,0.2,73,16,18000,7.408,,,360,16,22.7,,,,,,,,,wg-a,,,,AAXX 03184 07280 12568 43604 10210 20160 39937 40200 53002 60006 81801 91800 333 10227 20160=
07280,1997-09-03 21:00:00,17,1021.3,0.9,88,15,18000,0,,,0,,,,,,,,,,,wg-a,,,,AAXX 03214 07280 12/68 20000 10170 20150 39946 40213 51009 60006 82030 92100=
07280,1997-09-04 00:00:00,15,1021.1,-0.4,100,15,15000,7.408,,,330,,,,,,,,,,11,wg-a,,,,AAXX 04004 07280 12/65 03304 10150 20150 39942 40211 57004 60006 71100 80000 90000=
07280,1997-09-04 03:00:00,14,1020.8,-0.4,100,14,12000,7.408,,,340,,,,,,,,,,11,wg-a,,,,AAXX 04034 07280 12/62 03404 10140 20140 39938 40208 57004 60006 71100 80000 90300=
07280,1997-09-04 06:00:00,14,1021.6,0.8,100,14,6000,3.704,,,360,13,20.7,,,,,,,,11,wg-a,,,,AAXX 04064 07280 02656 73602 10140 20140 39946 40216 53008 60006 71111 85501 90600 333 10207 20130 60004=
07280,1997-09-04 15:00:00,25,1018.7,-1.4,57,16,15000,7.408,,,140,,,,,,,,,,,wg-a,,,,AAXX 04154 07280 12565 21404 10250 20160 39928 40187 58014 60006 82230 91500=
07280,1997-09-04 18:00:00,21,1019.1,0.1,78,17,20000,7.408,,,190,13.9,24.8,,,,,,,,,wg-a,,,,AAXX 04184 07280 12570 /1904 10210 20170 39923 40191 53001 60006 81131 91800 333 10248 20139=
07280,1997-09-04 21:00:00,18,1020,0.5,88,16,15000,3.704,,,310,,,,,,,,,,,wg-a,,,,AAXX 04214 07280 12/65 53102 10180 20160 39934 40200 51005 60006 82031 92100=
07280,1997-09-05 00:00:00,16,1020.2,0.1,100,16,15000,0,,,0,,,,,,,,,,,wg-a,,,,AAXX 05004 07280 12/65 40000 10160 20160 39935 40202 52001 60006 82031 90000=
07280,1997-09-05 03:00:00,16,1020.2,-0.1,94,15,7000,3.704,,,360,,,,,,,,,,,wg-a,,,,AAXX 05034 07280 12/57 /3602 10160 20150 39934 40202 56001 60006 80001 90300=
07280,1997-09-05 06:00:00,15,1020.1,-0.1,100,15,100,3.704,,,10,14,22,,,,,,,,45,wg-a,,,,AAXX 05064 07280 02/01 90102 10150 20150 39933 40201 56001 60006 74541 89/// 90600 333 10220 20140 60004=
07280,1997-09-05 12:00:00,27,1018.3,-1,58,18,15000,3.704,,,170,,,,,,,,,,1,wg-a,,,,AAXX 05124 07280 12665 41702 10270 20180 39926 40183 58010 60006 70141 81230 91200=
07280,1997-09-05 15:00:00,27,1017,-1.3,54,17,25000,7.408,,,210,,,,,,,,,,,wg-a,,,,AAXX 05154 07280 12675 32104 10270 20170 39913 40170 56013 60006 81230 91500=
07280,1997-09-05 18:00:00,24,1017.1,-0.1,69,18,20000,7.408,,,200,15.2,27.8,,,,,,,,,wg-a,,,,AAXX 05184 07280 12670 32004 10240 20180 39912 40171 55001 60006 81301 91800 333 10278 20152=
07280,1997-09-05 21:00:00,22,1018.6,1.2,69,16,15000,14.816,,,340,,,,,,,,,,,wg-a,,,,AAXX 05214 07280 12/65 53408 10220 20160 39924 40186 50012 60006 85030 92100=
07280,1997-09-06 00:00:00,20,1019.6,0.9,83,17,15000,3.704,,,40,,,,0,,,,,,60,wg-a,,,,AAXX 06004 07280 02/65 /0402 10200 20170 39933 40196 51009 60016 76061 86020 90000 333 60007=
07280,1997-09-06 03:00:00,18,1021,1.1,83,15,12000,14.816,,,10,,,,1,,,,,,2,wg-a,,,,AAXX 06034 07280 12/62 70108 10180 20150 39944 40210 53011 60017 70262 8702/ 90300=
07280,1997-09-06 06:00:00,17,1022.5,1.4,82,14,20000,11.112,,,360,16.8,24.4,,,,,1,,,3,wg-a,,,,AAXX 06064 07280 02570 73606 10170 20140 39958 40225 53014 60006 70362 8557/ 90600 333 10244 20168 60014=
07280,1997-09-06 09:00:00,17,1023.9,1.3,72,12,15000,18.52,,,350,,,,,,,,,,,wg-a,,,,AAXX 06094 07280 12565 73510 10170 20120 39971 40239 51013 60006 8557/ 90900=
07280,1997-09-06 12:00:00,15,1024.7,0.6,94,14,6000,14.816,,,10,,,,2,,,,,,60,wg-a,,,,AAXX 06124 07280 02456 80108 10150 20140 39977 40247 53006 60026 76062 8587/ 91200 333 60027=
07280,1997-09-06 15:00:00,17,1024.6,0.1,88,15,10000,11.112,,,20,,,,1,,,,,,21,wg-a,,,,AAXX 06154 07280 12460 80206 10170 20150 39978 40246 53001 60017 72162 8557/ 91500=
07280,1997-09-06 18:00:00,16,1024.7,-0,94,15,10000,0,,,0,14.7,17.7,,,,,,,,21,wg-a,,,,AAXX 06184 07280 02460 70000 10160 20150 39978 40247 55000 61000 72162 8357/ 91800 333 10177 20147 6003=
07280,1997-09-06 21:00:00,14,1025.6,0.7,100,14,8000,7.408,,,330,,,,,,,,,,,wg-a,,,,AAXX 06214 07280 12/58 /3304 10140 20140 39985 40256 51007 60006 81030 92100=
07280,1997-09-07 00:00:00,12,1025.8,0,94,11,15000,7.408,,,330,,,,,,,,,,,wg-a,,,,AAXX 07004 07280 12/65 03304 10120 20110 39985 40258 50000 60006 80000 90000=
07280,1997-09-07 03:00:00,10,1025.9,-0.1,100,10,15000,14.816,,,350,,,,,,,,,,,wg-a,,,,AAXX 07034 07280 12/65 03508 10100 20100 39984 40259 58001 60006 80000 90300=
07280,1997-09-07 06:00:00,9,1027.2,1.2,100,9,12000,7.408,,,30,8.2,15.8,,,,,6,,,,wg-a,,,,AAXX 07064 07280 02/62 10304 10090 20090 39996 40272 53012 60006 80001 90600 333 10158 20082 60064=
07280,1997-09-07 09:00:00,16,1027.6,1,77,12,40000,7.408,,,50,,,,0,,,,,,,wg-a,,,,AAXX 07094 07280 12482 40504 10160 20120 30006 40276 53010 60007 81131 90900=
07280,1997-09-07 12:00:00,20,1026.6,-0.6,53,10,40000,11.112,,,40,,,,,,,,,,,wg-a,,,,AAXX 07124 07280 12682 40406 10200 20100 30000 40266 58006 60006 82130 91200=
07280,1997-09-07 18:00:00,19,1026.6,0.6,56,10,40000,14.816,,,10,9.3,21.4,,,,,,,,,wg-a,,,,AAXX 07184 07280 12682 /0108 10190 20100 39999 40266 53006 60006 81501 91800 333 10214 20093=
07280,1997-09-07 21:00:00,14,1027.9,0.8,77,10,25000,14.816,,,10,,,,,,,,,,,wg-a,,,,AAXX 07214 07280 12/75 00108 10140 20100 30007 40279 51008 60006 80000 92100=
07280,1997-09-08 00:00:00,13,1028,0,82,10,25000,11.112,,,10,,,,,,,,,,,wg-a,,,,AAXX 08004 07280 12/75 00106 10130 20100 30007 40280 50000 60006 80000 90000=
07280,1997-09-08 03:00:00,12,1027.5,-0.5,88,10,25000,14.816,,,20,,,,,,,,,,,wg-a,,,,AAXX 08034 07280 12/75 00208 10120 20100 30002 40275 55005 60006 80000 90300=
07280,1997-09-08 06:00:00,12,1027.8,0.2,94,11,25000,11.112,,,10,11.2,18.6,,,,,,,,,wg-a,,,,AAXX 08064 07280 02/75 00106 10120 20110 30004 40278 53002 60006 80000 90600 333 10186 20112 60004=
07280,1997-09-08 09:00:00,18,1027,-0.2,64,11,500,11.112,,,50,,,,,,,,,,,wg-a,,,,AAXX 08094 07280 12500 20506 10180 20110 30002 40270 58002 60006 81101 90900=
07280,1997-09-08 12:00:00,22,1026,-0.6,50,11,500,14.816,,,30,,,,,,,,,,,wg-a,,,,AAXX 08124 07280 12600 20308 10220 20110 39996 40260 56006 60006 82100 91200=
07280,1997-09-08 15:00:00,23,1024.6,-1.3,50,12,35000,14.816,,,40,,,,,,,,,,,wg-a,,,,AAXX 08154 07280 12681 20408 10230 20120 39983 40246 57013 60006 81101 91500=
07280,1997-09-08 18:00:00,20,1024.4,-0.4,64,13,500,11.112,,,50,12,23.1,,,,,,,,,wg-a,,,,AAXX 08184 07280 12/00 00506 10200 20130 39979 40244 56004 60006 80000 91800 333 10231 20120=
07280,1997-09-08 21:00:00,17,1024.9,0.2,77,13,25000,7.408,,,320,,,,,,,,,,,wg-a,,,,AAXX 08214 07280 12/75 03204 10170 20130 39981 40249 50002 60006 80000 92100=
07280,1997-09-09 03:00:00,13,1024.1,-0.8,88,11,25000,7.408,,,350,,,,,,,,,,,wg-a,,,,AAXX 09034 07280 12/75 03504 10130 20110 39969 40241 57008 60006 80000 90300=
07280,1997-09-09 06:00:00,12,1023.9,-0.2,100,12,15000,7.408,,,40,11.3,20.3,,,,,,,,11,wg-a,,,,AAXX 09064 07280 02/65 /0404 10120 20120 39967 40239 55002 60006 71100 80001 90600 333 10203 20113 60004=
07280,1997-09-09 09:00:00,19,1023.2,-0.1,73,14,20000,3.704,,,350,,,,,,,,,,,wg-a,,,,AAXX 09094 07280 12570 /3502 10190 20140 39966 40232 57001 60006 81101 90900=
07280,1997-09-09 12:00:00,23,1021.9,-0.9,50,12,25000,18.52,,,360,,,,,,,,,,,wg-a,,,,AAXX 09124 07280 12675 /3610 10230 20120 39957 40219 56009 60006 81100 91200=
07280,1997-09-09 18:00:00,18,1021.8,0.3,59,10,500,14.816,,,350,12,23.2,,,,,,,,,wg-a,,,,AAXX 09184 07280 12/00 13508 10180 20100 39952 40218 53003 60006 80001 91800 333 10232 20120=
07280,1997-09-09 21:00:00,14,1023.6,1.3,82,11,20000,14.816,,,350,,,,,,,,,,,wg-a,,,,AAXX 09214 07280 12/70 03508 10140 20110 39965 40236 51013 60006 80000 92100=
07280,1997-09-10 00:00:00,13,1023.2,-0.4,88,11,15000,18.52,,,10,,,,,,,,,,,wg-a,,,,AAXX 10004 07280 12/65 00110 10130 20110 39961 40232 58004 60006 80000 90000=
07280,1997-09-10 03:00:00,12,1023,-0.4,82,9,15000,22.224,,,10,,,,,,,,,,,wg-a,,,,AAXX 10034 07280 12/65 00112 10120 20090 39957 40230 58004 60006 80000 90300=
07280,1997-09-10 06:00:00,11,1023,-0.1,82,8,20000,18.52,,,20,10.4,18.4,,,,,,,,,wg-a,,,,AAXX 10064 07280 02/70 00210 10110 20080 39956 40230 55001 60006 80000 90600 333 10184 20104 60004=
07280,1997-09-10 09:00:00,15,1022.4,-0.1,63,8,20000,25.928,,,30,,,,,,,,,,,wg-a,,,,AAXX 10094 07280 12/70 00314 10150 20080 39955 40224 58001 60006 80000 90900=
07280,1997-09-10 12:00:00,19,1021.3,-0.8,46,7,20000,25.928,,,30,,,,,,,,,,,wg-a,,,,AAXX 10124 07280 12/70 00314 10190 20070 39947 40213 56008 60006 80000 91200=
07280,1997-09-10 18:00:00,17,1019.3,-0.4,55,8,25000,18.52,,,20,10.6,20,,,,,,,,,wg-a,,,,AAXX 10184 07280 12/75 30210 10170 20080 39926 40193 56004 60006 80001 91800 333 10200 20106=
07280,1997-09-10 21:00:00,13,1019.7,0,67,7,20000,18.52,,,10,,,,,,,,,,,wg-a,,,,AAXX 10214 07280 12/70 00110 10130 20070 39926 40197 50000 60006 80000 92100=
07280,1997-09-11 00:00:00,11,1019,-0.8,76,7,20000,14.816,,,350,,,,,,,,,,,wg-a,,,,AAXX 11004 07280 12/70 03508 10110 20070 39918 40190 58008 60006 80000 90000=
07280,1997-09-11 03:00:00,10,1017.3,-1.8,82,7,20000,11.112,,,20,,,,,,,,,,,wg-a,,,,AAXX 11034 07280 12/70 00206 10100 20070 39900 40173 58018 60006 80000 90300=
07280,1997-09-11 09:00:00,15,1016.6,-0.2,72,10,20000,11.112,,,180,,,,,,,,,,,wg-a,,,,AAXX 11094 07280 12/70 41806 10150 20100 39898 40166 57002 60006 80001 90900=
07280,1997-09-11 12:00:00,22,1014.1,-1.8,53,12,20000,18.52,,,190,,,,,,,,,,,wg-a,,,,AAXX 11124 07280 12/70 61910 10220 20120 39880 40141 58018 60006 80001 91200=
07280,1997-09-11 15:00:00,25,1012.2,-1.6,44,12,20000,18.52,,,190,,,,,,,,,,,wg-a,,,,AAXX 11154 07280 12/70 71910 10250 20120 39864 40122 58016 60006 80001 91500=
07280,1997-09-11 18:00:00,22,1011.8,-0.6,60,14,20000,11.112,,,210,8.7,25.4,,,,,,,,,wg-a,,,,AAXX 11184 07280 12/70 62106 10220 20140 39858 40118 56006 60006 80001 91800 333 10254 20087=
07280,1997-09-11 21:00:00,14,1013.1,0.6,88,12,20000,7.408,,,160,,,,,,,,,,,wg-a,,,,AAXX 11214 07280 12/70 01604 10140 20120 39864 40131 51006 60006 80000 92100=
07280,1997-09-12 00:00:00,12,1013.1,-0.2,94,11,20000,3.704,,,180,,,,,,,,,,,wg-a,,,,AAXX 12004 07280 12/70 01802 10120 20110 39862 40131 58002 60006 80000 90000=
07280,1997-09-12 03:00:00,13,1013.1,-0,94,12,15000,7.408,,,170,,,,,,,,,,,wg-a,,,,AAXX 12034 07280 12/65 01704 10130 20120 39862 40131 54000 60006 80000 90300=
07280,1997-09-12 06:00:00,14,1012.8,-0.1,100,14,10000,11.112,,,160,11.7,21.5,,,,,,,,,wg-a,,,,AAXX 12064 07280 02/60 31606 10140 20140 39861 40128 57001 60006 81031 90600 333 10215 20117 60004=
07280,1997-09-12 09:00:00,21,1012.2,0,73,16,12000,25.928,,,180,,,,,,,,,,,wg-a,,,,AAXX 12094 07280 12/62 41814 10210 20160 39861 40122 50000 60006 84080 90900=
07280,1997-09-12 12:00:00,24,1010.8,-1.1,57,15,20000,14.816,,,190,,,,,,,,,,21,wg-a,,,,AAXX 12124 07280 02670 71908 10240 20150 39850 40108 58011 61000 72161 8118/ 91200 333 6100=
07280,1997-09-12 15:00:00,22,1009.4,-1.5,65,15,20000,14.816,,,320,,,,,,,,,,21,wg-a,,,,AAXX 12154 07280 02670 83208 10220 20150 39835 40094 56015 61000 72162 8157/ 91500 333 ////=
07280,1997-09-12 21:00:00,15,1013.6,2.7,88,13,12000,3.704,,,240,,,,2,,,,,,3,wg-a,,,,AAXX 12214 07280 12562 82402 10150 20130 39869 40136 51027 60027 70386 8487/ 92100=
07280,1997-09-13 00:00:00,15,1013.7,0.1,94,14,15000,7.408,,,170,,,,,,,,,,3,wg-a,,,,AAXX 13004 07280 12665 71704 10150 20140 39870 40137 50001 60026 70386 8357/ 90000=
07280,1997-09-13 03:00:00,14,1013.6,-0.1,100,14,15000,14.816,,,200,,,,,,,,,,,wg-a,,,,AAXX 13034 07280 12565 /2008 10140 20140 39869 40136 55001 60006 85870 90300=
07280,1997-09-13 06:00:00,15,1013.6,-0,88,13,7000,11.112,,,240,14,17.1,,,,,12,,,,wg-a,,,,AAXX 13064 07280 02257 72406 10150 20130 39869 40136 55000 60006 85802 90600 333 10171 20140 60124=
07280,1997-09-13 09:00:00,14,1016.7,2.9,77,10,25000,25.928,,,310,,,,1,,,,,,25,wg-a,,,,AAXX 13094 07280 12475 73114 10140 20100 39898 40167 53029 60017 72586 878// 90900=
07280,1997-09-13 12:00:00,16,1018.5,2,48,5,40000,25.928,,,300,,,,,,,,,,1,wg-a,,,,AAXX 13124 07280 12682 /3014 10160 20050 39918 40185 53020 60016 70186 84801 91200=
07280,1997-09-13 15:00:00,17,1019.2,0.7,45,5,40000,14.816,,,330,,,,,,,,,,,wg-a,,,,AAXX 13154 07280 12782 43308 10170 20050 39925 40192 51007 60006 82101 91500=
07280,1997-09-13 18:00:00,15,1020.8,1.4,51,5,500,11.112,,,330,13.2,18.3,,,,,,,,,wg-a,,,,AAXX 13184 07280 12700 33306 10150 20050 39939 40208 53014 60006 81201 91800 333 10183 20132=
07280,1997-09-14 00:00:00,9,1024.1,0.5,87,7,25000,7.408,,,340,,,,,,,,,,,wg-a,,,,AAXX 14004 07280 12/75 03404 10090 20070 39965 40241 51005 60006 80000 90000=
07280,1997-09-14 03:00:00,7,1024.3,0.1,93,6,25000,14.816,,,340,,,,,,,,,,,wg-a,,,,AAXX 14034 07280 12/75 03408 10070 20060 39966 40243 51001 60006 80000 90300=
07280,1997-09-14 06:00:00,7,1025.4,1,93,6,25000,11.112,,,360,6.4,15,,,,,1,,,,wg-a,,,,AAXX 14064 07280 02/75 33606 10070 20060 39976 40254 53010 60006 80001 90600 333 10150 20064 60014=
07280,1997-09-14 12:00:00,16,1025.8,0.1,45,4,500,22.224,,,30,,,,,,,,,,,wg-a,,,,AAXX 14124 07280 12600 70312 10160 20040 39988 40258 50001 60006 82102 91200=
07280,1997-09-14 15:00:00,16,1024.9,-0.8,45,4,40000,25.928,,,30,,,,,,,,,,,wg-a,,,,AAXX 14154 07280 12782 70314 10160 20040 39980 40249 56008 60006 81102 91500=
07280,1997-09-14 18:00:00,14,1025.9,0.7,58,6,40000,14.816,,,30,7,16.7,,,,,,,,,wg-a,,,,AAXX 14184 07280 12/82 60308 10140 20060 39987 40259 53007 60006 80002 91800 333 10167 20070=
07280,1997-09-14 21:00:00,10,1026.8,0.5,76,6,25000,14.816,,,10,,,,,,,,,,,wg-a,,,,AAXX 14214 07280 12/75 20108 10100 20060 39992 40268 51005 60006 80001 92100=
07280,1997-09-15 00:00:00,8,1026.9,0,81,5,25000,14.816,,,20,,,,,,,,,,,wg-a,,,,AAXX 15004 07280 12/75 00208 10080 20050 39992 40269 50000 60006 80000 90000=
07280,1997-09-15 03:00:00,8,1026.1,-0.9,81,5,20000,18.52,,,20,,,,,,,,,,,wg-a,,,,AAXX 15034 07280 12/70 00210 10080 20050 39983 40261 56009 60006 80000 90300=
07280,1997-09-15 06:00:00,7,1025.7,-0.4,81,4,500,18.52,,,20,6.7,13.7,,,,,,,,,wg-a,,,,AAXX 15064 07280 02/00 00210 10070 20040 39979 40257 56004 60006 80000 90600 333 10137 20067 60004=
07280,1997-09-15 09:00:00,14,1025.8,0.7,58,6,35000,22.224,,,50,,,,,,,,,,,wg-a,,,,AAXX 15094 07280 12/81 10512 10140 20060 39986 40258 53007 60006 80001 90900=
07280,1997-09-15 12:00:00,18,1024.6,-0.8,52,8,40000,7.408,,,360,,,,,,,,,,,wg-a,,,,AAXX 15124 07280 12/82 13604 10180 20080 39978 40246 58008 60006 80001 91200=
07280,1997-09-15 18:00:00,17,1023.2,-0.3,59,9,500,3.704,,,60,7.3,20.4,,,,,,,,,wg-a,,,,AAXX 15184 07280 12/00 40602 10170 20090 39964 40232 56003 60006 80002 91800 333 10204 20073=
07280,1997-09-15 21:00:00,13,1024.2,0.6,82,10,25000,11.112,,,330,,,,,,,,,,,wg-a,,,,AAXX 15214 07280 12/75 33306 10130 20100 39970 40242 52006 60006 80002 92100=
07280,1997-09-16 00:00:00,11,1024.5,0.1,87,9,25000,7.408,,,340,,,,,,,,,,,wg-a,,,,AAXX 16004 07280 12/75 53404 10110 20090 39971 40245 50001 60006 80002 90000=
07280,1997-09-16 03:00:00,9,1024.5,-0.2,93,8,25000,7.408,,,330,,,,,,,,,,,wg-a,,,,AAXX 16034 07280 12/75 23304 10090 20080 39969 40245 58002 60006 80002 90300=
07280,1997-09-16 06:00:00,8,1025.1,0.5,93,7,25000,3.704,,,50,7.4,17,,,,,,,,11,wg-a,,,,AAXX 16064 07280 02/75 /0502 10080 20070 39974 40251 53005 60006 71111 80002 90600 333 10170 20074 60004=
07280,1997-09-16 09:00:00,15,1024.4,-0,77,11,20000,3.704,,,100,,,,,,,,,,,wg-a,,,,AAXX 16094 07280 12/70 71002 10150 20110 39974 40244 54000 60006 80001 90900=
07280,1997-09-16 15:00:00,22,1020.6,-1.4,57,13,25000,3.704,,,160,,,,,,,,,,,wg-a,,,,AAXX 16154 07280 12/75 61602 10220 20130 39944 40206 56014 60006 80002 91500=
07280,1997-09-16 18:00:00,19,1020.9,-0,78,15,25000,3.704,,,70,7.5,23.3,,,,,,,,,wg-a,,,,AAXX 16184 07280 12/75 50702 10190 20150 39944 40209 55000 60006 81032 91800 333 10233 20075=
07280,1997-09-16 21:00:00,15,1022.2,0.9,88,13,20000,7.408,,,300,,,,,,,,,,,wg-a,,,,AAXX 16214 07280 12/70 33004 10150 20130 39953 40222 51009 60006 81032 92100=
07280,1997-09-17 00:00:00,13,1022.5,0.1,94,12,500,3.704,,,30,,,,0,,,,,,,wg-a,,,,AAXX 17004 07280 02/00 20302 10130 20120 39954 40225 50001 60006 80002 90000 333 60007=
07280,1997-09-17 06:00:00,12,1024.1,1.1,100,12,100,3.704,,,20,10.8,18.6,,,,,,,,45,wg-a,,,,AAXX 17064 07280 02/01 90202 10120 20120 39968 40241 53011 60006 74541 89/// 90600 333 10186 20108 60004=
07280,1997-09-17 12:00:00,24,1023.1,-0.5,57,15,20000,3.704,,,150,,,,0,,,,,,1,wg-a,,,,AAXX 17124 07280 02670 /1502 10240 20150 39970 40231 58005 60006 70141 81201 91200 333 60007=
07280,1997-09-17 15:00:00,25,1022.3,-0.7,54,15,20000,7.408,,,90,,,,,,,,,,,wg-a,,,,AAXX 17154 07280 12770 70904 10250 20150 39963 40223 56007 60006 81201 91500=
07280,1997-09-17 18:00:00,21,1023,0.3,69,15,20000,3.704,,,90,11.8,25.3,,,,,,,,,wg-a,,,,AAXX 17184 07280 12/70 40902 10210 20150 39966 40230 53003 60006 80001 91800 333 10253 20118=
07280,1997-09-18 00:00:00,14,1024.3,-0.1,94,13,12000,11.112,,,350,,,,,,,,,,,wg-a,,,,AAXX 18004 07280 12/62 13506 10140 20130 39972 40243 57001 60006 80001 90000=
07280,1997-09-18 03:00:00,12,1024.3,-0.1,100,12,10000,7.408,,,340,,,,,,,,,,11,wg-a,,,,AAXX 18034 07280 12/60 03404 10120 20120 39971 40243 57001 60006 71100 80000 90300=
07280,1997-09-18 06:00:00,11,1025.2,0.7,100,11,500,3.704,,,350,10.8,20.5,,,,,1,,,11,wg-a,,,,AAXX 18064 07280 02/00 03502 10110 20110 39978 40252 53007 60006 71100 80000 90600 333 10205 20108 60014=
07280,1997-09-18 09:00:00,18,1025,0.5,77,14,7000,7.408,,,50,,,,,,,,,,,wg-a,,,,AAXX 18094 07280 12/57 /0504 10180 20140 39983 40250 51005 60006 80001 90900=
07280,1997-09-18 12:00:00,24,1023.4,-1,50,13,20000,7.408,,,80,,,,,,,,,,,wg-a,,,,AAXX 18124 07280 12670 /0804 10240 20130 39973 40234 58010 60006 81200 91200=
07280,1997-09-18 15:00:00,25,1021.9,-1.4,47,13,20000,7.408,,,70,,,,,,,,,,,wg-a,,,,AAXX 18154 07280 12770 10704 10250 20130 39959 40219 56014 60006 81100 91500=
07280,1997-09-18 18:00:00,20,1022.4,0.1,64,13,20000,7.408,,,130,10.9,25.6,,,,,,,,,wg-a,,,,AAXX 18184 07280 12/70 01304 10200 20130 39960 40224 53001 60006 80000 91800 333 10256 20109=
07280,1997-09-19 00:00:00,14,1023.6,-0.2,88,12,12000,7.408,,,360,,,,,,,,,,,wg-a,,,,AAXX 19004 07280 12/62 03604 10140 20120 39966 40236 58002 60006 80000 90000=
07280,1997-09-19 03:00:00,12,1023.7,-0.1,100,12,10000,7.408,,,10,,,,,,,,,,,wg-a,,,,AAXX 19034 07280 12/60 00104 10120 20120 39965 40237 55001 60006 80000 90300=
07280,1997-09-19 06:00:00,12,1024.1,0.3,94,11,10000,7.408,,,340,11.4,20.2,,,,,,,,,wg-a,,,,AAXX 19064 07280 02/60 03404 10120 20110 39968 40241 53003 60006 80000 90600 333 10202 20114 60004=
07280,1997-09-19 09:00:00,19,1023.9,0.5,73,14,15000,7.408,,,20,,,,,,,,,,,wg-a,,,,AAXX 19094 07280 12/65 00204 10190 20140 39973 40239 53005 60006 80000 90900=
07280,1997-09-19 12:00:00,25,1022.2,-1.1,44,12,25000,7.408,,,80,,,,,,,,,,,wg-a,,,,AAXX 19124 07280 12775 10804 10250 20120 39962 40222 57011 60006 81100 91200=
07280,1997-09-19 15:00:00,26,1021,-1.1,45,13,10000,14.816,,,60,,,,,,,,,,,wg-a,,,,AAXX 19154 07280 12/60 /0608 10260 20130 39951 40210 56011 60006 91500=
07280,1997-09-20 00:00:00,17,1022.2,-0.2,88,15,15000,22.224,,,20,,,,,,,,,,,wg-a,,,,AAXX 20004 07280 12/65 00212 10170 20150 39955 40222 56002 60006 80000 90000=
07280,1997-09-20 03:00:00,15,1022.3,-0.1,88,13,500,14.816,,,360,,,,,,,,,,,wg-a,,,,AAXX 20034 07280 12/00 03608 10150 20130 39954 40223 58001 60006 80000 90300=
07280,1997-09-20 06:00:00,13,1022.5,-0,94,12,4500,14.816,,,350,13.3,22,,,,,,,,10,wg-a,,,,AAXX 20064 07280 02445 33508 10130 20120 39954 40225 55000 60006 71000 83600 90600 333 10220 20133 60004=
07280,1997-09-20 09:00:00,17,1022.6,0.5,77,13,7000,22.224,,,30,,,,,,,,,,,wg-a,,,,AAXX 20094 07280 12457 40312 10170 20130 39959 40226 53005 60006 84100 90900=
07280,1997-09-20 12:00:00,21,1021.7,-0.5,64,14,15000,22.224,,,30,,,,,,,,,,,wg-a,,,,AAXX 20124 07280 12565 /0312 10210 20140 39954 40217 56005 60006 81100 91200=
07280,1997-09-20 18:00:00,19,1021.4,0.4,68,13,15000,14.816,,,30,13.4,22.2,,,,,,,,,wg-a,,,,AAXX 20184 07280 12665 30308 10190 20130 39949 40214 53004 60006 81501 91800 333 10222 20134=
07280,1997-09-20 21:00:00,15,1022.5,0.7,77,11,15000,14.816,,,10,,,,,,,,,,,wg-a,,,,AAXX 20214 07280 12565 30108 10150 20110 39956 40225 51007 60006 83500 92100=
07280,1997-09-21 00:00:00,13,1022.4,-0.3,82,10,15000,11.112,,,10,,,,,,,,,,,wg-a,,,,AAXX 21004 07280 12/65 00106 10130 20100 39953 40224 56003 60006 80000 90000=
07280,1997-09-21 03:00:00,12,1022.5,-0.1,82,9,15000,14.816,,,10,,,,,,,,,,,wg-a,,,,AAXX 21034 07280 12665 /0108 10120 20090 39952 40225 58001 60006 81501 90300=
07280,1997-09-21 06:00:00,11,1022.6,-0,87,9,12000,14.816,,,350,10.3,19.1,,,,,,,,,wg-a,,,,AAXX 21064 07280 02662 33508 10110 20090 39952 40226 55000 60006 83500 90600 333 10191 20103 60004=
07280,1997-09-21 09:00:00,15,1022.6,0.4,72,10,12000,7.408,,,40,,,,,,,,,,,wg-a,,,,AAXX 21094 07280 12462 40404 10150 20100 39956 40226 53004 60006 81801 90900=
07280,1997-09-21 12:00:00,20,1021.2,-0.8,64,13,12000,3.704,,,30,,,,,,,,,,,wg-a,,,,AAXX 21124 07280 12562 /0302 10200 20130 39948 40212 58008 60006 81101 91200=
07280,1997-09-21 15:00:00,22,1020.1,-0.9,60,14,15000,7.408,,,100,,,,,,,,,,,wg-a,,,,AAXX 21154 07280 12665 /1004 10220 20140 39939 40201 56009 60006 81101 91500=
07280,1997-09-21 18:00:00,19,1020.6,0.2,73,14,15000,7.408,,,70,10.6,22.3,,,,,,,,,wg-a,,,,AAXX 21184 07280 12/65 30704 10190 20140 39941 40206 53002 60006 80001 91800 333 10223 20106=
07280,1997-09-21 21:00:00,15,1021.8,0.8,88,13,15000,7.408,,,10,,,,,,,,,,,wg-a,,,,AAXX 21214 07280 12665 40104 10150 20130 39949 40218 51008 60006 84500 92100=
07280,1997-09-22 00:00:00,14,1022,0.1,82,11,12000,7.408,,,360,,,,,,,,,,,wg-a,,,,AAXX 22004 07280 12/62 13604 10140 20110 39950 40220 50001 60006 81030 90000=
07280,1997-09-22 03:00:00,12,1022.4,0.2,94,11,12000,7.408,,,340,,,,,,,,,,,wg-a,,,,AAXX 22034 07280 12/62 23404 10120 20110 39952 40224 51002 60006 82030 90300=
07280,1997-09-22 09:00:00,16,1022.6,0.5,72,11,12000,7.408,,,50,,,,,,,,,,,wg-a,,,,AAXX 22094 07280 12562 30504 10160 20110 39957 40226 50005 60006 81801 90900=
07280,1997-09-22 12:00:00,21,1021.5,-0.5,64,14,15000,3.704,,,110,,,,,,,,,,,wg-a,,,,AAXX 22124 07280 12565 /1102 10210 20140 39952 40215 57005 60006 81201 91200=
07280,1997-09-22 15:00:00,23,1020,-1.3,57,14,15000,3.704,,,110,,,,,,,,,,,wg-a,,,,AAXX 22154 07280 12665 /1102 10230 20140 39939 40200 57013 60006 81201 91500=
07280,1997-09-22 18:00:00,20,1020.4,0.1,68,14,18000,7.408,,,60,10.4,23.5,,,,,,,,,wg-a,,,,AAXX 22184 07280 12668 30604 10200 20140 39940 40204 53001 60006 82101 91800 333 10235 20104=
07280,1997-09-22 21:00:00,17,1021.9,1.2,82,14,20000,7.408,,,340,,,,,,,,,,,wg-a,,,,AAXX 22214 07280 12670 /3404 10170 20140 39952 40219 51012 60006 85500 92100=
07280,1997-09-23 00:00:00,14,1021.9,-0.3,88,12,18000,11.112,,,350,,,,,,,,,,,wg-a,,,,AAXX 23004 07280 12/68 03506 10140 20120 39949 40219 56003 60006 80000 90000=
07280,1997-09-23 03:00:00,12,1021.7,-0.4,94,11,12000,7.408,,,330,,,,,,,,,,,wg-a,,,,AAXX 23034 07280 12/62 03304 10120 20110 39945 40217 58004 60006 80000 90300=
07280,1997-09-23 06:00:00,11,1022.1,0.3,94,10,10000,7.408,,,340,11.2,19.4,,,,,,,,,wg-a,,,,AAXX 23064 07280 02/60 13404 10110 20100 39948 40221 53003 60006 81031 90600 333 10194 20112 60004=
07280,1997-09-23 09:00:00,17,1022,0.4,68,11,12000,11.112,,,40,,,,,,,,,,,wg-a,,,,AAXX 23094 07280 12/62 00406 10170 20110 39952 40220 50004 60006 80000 90900=
07280,1997-09-23 12:00:00,22,1020.6,-0.9,53,12,25000,14.816,,,40,,,,,,,,,,,wg-a,,,,AAXX 23124 07280 12675 /0408 10220 20120 39943 40206 58009 60006 81100 91200=
07280,1997-09-23 15:00:00,23,1019.5,-1,44,10,25000,14.816,,,40,,,,,,,,,,,wg-a,,,,AAXX 23154 07280 12775 30408 10230 20100 39933 40195 57010 60006 81101 91500=
07280,1997-09-23 18:00:00,19,1020.2,0.4,60,11,20000,14.816,,,30,11.4,23.2,,,,,,,,,wg-a,,,,AAXX 23184 07280 12/70 10308 10190 20110 39937 40202 53004 60006 80001 91800 333 10232 20114=
07280,1997-09-23 21:00:00,16,1021.6,1,72,11,20000,11.112,,,20,,,,,,,,,,,wg-a,,,,AAXX 23214 07280 12/70 00206 10160 20110 39947 40216 52010 60006 80000 92100=
07280,1997-09-24 00:00:00,13,1021.6,-0.2,77,9,15000,14.816,,,10,,,,,,,,,,,wg-a,,,,AAXX 24004 07280 12/65 00108 10130 20090 39945 40216 58002 60006 80000 90000=
07280,1997-09-24 03:00:00,12,1021.3,-0.4,82,9,15000,11.112,,,340,,,,,,,,,,,wg-a,,,,AAXX 24034 07280 12/65 03406 10120 20090 39941 40213 56004 60006 80000 90300=
07280,1997-09-24 06:00:00,12,1022.2,0.8,76,8,15000,14.816,,,10,11.1,19,,,,,,,,,wg-a,,,,AAXX 24064 07280 02/65 20108 10120 20080 39949 40222 53008 60006 80001 90600 333 10190 20111 60004=
07280,1997-09-24 09:00:00,17,1022.1,0.4,59,9,20000,22.224,,,20,,,,,,,,,,,wg-a,,,,AAXX 24094 07280 12/70 40212 10170 20090 39953 40221 51004 60006 80001 90900=
07280,1997-09-24 12:00:00,22,1020.9,-0.7,38,7,20000,25.928,,,50,,,,,,,,,,,wg-a,,,,AAXX 24124 07280 12/70 70514 10220 20070 39946 40209 56007 60006 80001 91200=
07280,1997-09-24 15:00:00,23,1019.7,-1.1,38,8,20000,25.928,,,60,,,,,,,,,,,wg-a,,,,AAXX 24154 07280 12/70 60614 10230 20080 39935 40197 56011 60006 80001 91500=
07280,1997-09-24 18:00:00,19,1020.3,0.3,56,10,20000,14.816,,,20,11.7,23.1,,,,,,,,,wg-a,,,,AAXX 24184 07280 12/70 40208 10190 20100 39938 40203 53003 60006 80001 91800 333 10231 20117=
07280,1997-09-24 21:00:00,15,1021.5,0.8,67,9,15000,18.52,,,10,,,,,,,,,,,wg-a,,,,AAXX 24214 07280 12/65 30110 10150 20090 39946 40215 51008 60006 80001 92100=
07280,1997-09-25 00:00:00,13,1021.8,0.1,77,9,15000,18.52,,,10,,,,,,,,,,,wg-a,,,,AAXX 25004 07280 12/65 00110 10130 20090 39947 40218 53001 60006 80000 90000=
07280,1997-09-25 03:00:00,11,1022.1,0.1,87,9,15000,11.112,,,360,,,,,,,,,,,wg-a,,,,AAXX 25034 07280 12/65 03606 10110 20090 39948 40221 50001 60006 80000 90300=
07280,1997-09-25 06:00:00,10,1023.2,1,87,8,15000,11.112,,,10,10.1,19.1,,,,,,,,,wg-a,,,,AAXX 25064 07280 02/65 10106 10100 20080 39958 40232 53010 60006 80001 90600 333 10191 20101 60004=
07280,1997-09-25 09:00:00,15,1023.8,1,72,10,15000,7.408,,,50,,,,,,,,,,,wg-a,,,,AAXX 25094 07280 12/65 00504 10150 20100 39968 40238 50010 60006 80000 90900=
07280,1997-09-25 12:00:00,21,1022.8,-0.4,56,12,15000,7.408,,,50,,,,,,,,,,,wg-a,,,,AAXX 25124 07280 12/65 00504 10210 20120 39964 40228 58004 60006 80000 91200=
07280,1997-09-25 15:00:00,23,1021.8,-0.8,47,11,15000,7.408,,,90,,,,,,,,,,,wg-a,,,,AAXX 25154 07280 12/65 00904 10230 20110 39956 40218 56008 60006 80000 91500=
07280,1997-09-26 00:00:00,13,1023.6,-0.4,82,10,12000,14.816,,,340,,,,,,,,,,,wg-a,,,,AAXX 26004 07280 12/62 03408 10130 20100 39964 40236 56004 60006 80000 90000=
07280,1997-09-26 03:00:00,11,1023.4,-0.3,87,9,12000,14.816,,,350,,,,,,,,,,,wg-a,,,,AAXX 26034 07280 12/62 03508 10110 20090 39961 40234 58003 60006 80000 90300=
07280,1997-09-26 06:00:00,10,1023.4,-0.1,93,9,7000,11.112,,,340,9.9,18.5,,,,,,,,,wg-a,,,,AAXX 26064 07280 02/57 03406 10100 20090 39960 40234 56001 60006 80000 90600 333 10185 20099 60004=
07280,1997-09-26 09:00:00,16,1023.3,0.4,68,10,12000,7.408,,,10,,,,,,,,,,,wg-a,,,,AAXX 26094 07280 12/62 00104 10160 20100 39964 40233 50004 60006 80000 90900=
07280,1997-09-26 12:00:00,22,1021.3,-1.4,46,10,500,7.408,,,70,,,,,,,,,,,wg-a,,,,AAXX 26124 07280 12/00 10704 10220 20100 39950 40213 58014 60006 80001 91200=
07280,1997-09-26 15:00:00,23,1019.7,-1.5,47,11,500,11.112,,,60,,,,,,,,,,,wg-a,,,,AAXX 26154 07280 12/00 20606 10230 20110 39935 40197 56015 60006 80001 91500=
07280,1997-09-26 18:00:00,19,1019.5,-0.5,68,13,20000,0,,,0,10.2,22.9,,,,,,,,,wg-a,,,,AAXX 26184 07280 12/70 10000 10190 20130 39930 40195 56005 60006 80001 91800 333 10229 20102=
07280,1997-09-26 21:00:00,15,1019.6,-0.3,72,10,20000,7.408,,,340,,,,,,,,,,,wg-a,,,,AAXX 26214 07280 12/70 03404 10150 20100 39927 40196 58003 60006 80000 92100=
07280,1997-09-27 00:00:00,12,1019.1,-0.7,88,10,15000,7.408,,,340,,,,,,,,,,,wg-a,,,,AAXX 27004 07280 12/65 03404 10120 20100 39920 40191 58007 60006 80000 90000=
07280,1997-09-27 03:00:00,10,1018.7,-0.6,93,9,15000,11.112,,,330,,,,,,,,,,,wg-a,,,,AAXX 27034 07280 12/65 03306 10100 20090 39914 40187 58006 60006 80000 90300=
07280,1997-09-27 06:00:00,8,1018.8,-0.1,100,8,6000,3.704,,,340,8.2,18.7,,,,,,,,11,wg-a,,,,AAXX 27064 07280 02/56 /3402 10080 20080 39913 40188 55001 60006 71100 80001 90600 333 10187 20082 60004=
07280,1997-09-27 09:00:00,16,1017.8,-0.3,72,11,11000,7.408,,,360,,,,,,,,,,,wg-a,,,,AAXX 27094 07280 12/61 13604 10160 20110 39910 40178 57003 60006 80001 90900=
07280,1997-09-27 12:00:00,23,1015.1,-1.9,50,12,20000,3.704,,,120,,,,,,,,,,,wg-a,,,,AAXX 27124 07280 12/70 21202 10230 20120 39891 40151 58019 60006 80001 91200=
07280,1997-09-27 15:00:00,24,1013.8,-1.2,41,10,500,3.704,,,80,,,,,,,,,,,wg-a,,,,AAXX 27154 07280 12/00 30802 10240 20100 39879 40138 57012 60006 80001 91500=
07280,1997-09-27 18:00:00,19,1014.6,0.3,73,14,20000,3.704,,,140,8.3,24.1,,,,,,,,,wg-a,,,,AAXX 27184 07280 12/70 11402 10190 20140 39882 40146 53003 60006 80001 91800 333 10241 20083=
07280,1997-09-27 21:00:00,14,1015.4,0.4,82,11,20000,7.408,,,360,,,,,,,,,,,wg-a,,,,AAXX 27214 07280 12/70 03604 10140 20110 39886 40154 53004 60006 80000 92100=
07280,1997-09-28 00:00:00,12,1015.2,-0.4,94,11,15000,7.408,,,350,,,,,,,,,,,wg-a,,,,AAXX 28004 07280 12/65 03504 10120 20110 39882 40152 56004 60006 80000 90000=
07280,1997-09-28 03:00:00,10,1015.5,-0,93,9,12000,3.704,,,330,,,,,,,,,,,wg-a,,,,AAXX 28034 07280 12/62 03302 10100 20090 39882 40155 55000 60006 80000 90300=
07280,1997-09-28 06:00:00,8,1016.2,0.5,100,8,8000,0,,,0,7.6,18.5,,,,,,,,11,wg-a,,,,AAXX 28064 07280 02/58 /0000 10080 20080 39887 40162 53005 60006 71111 80002 90600 333 10185 20076 60004=
07280,1997-09-28 12:00:00,23,1015.1,-1,50,12,20000,7.408,,,180,,,,,,,,,,,wg-a,,,,AAXX 28124 07280 12670 31804 10230 20120 39890 40151 56010 60006 81201 91200=
07280,1997-09-28 15:00:00,24,1014.1,-0.8,41,10,25000,3.704,,,120,,,,,,,,,,,wg-a,,,,AAXX 28154 07280 12775 21202 10240 20100 39882 40141 56008 60006 81201 91500=
07280,1997-09-28 18:00:00,19,1015.8,1.2,60,11,20000,3.704,,,130,7.6,24.1,,,,,,,,,wg-a,,,,AAXX 28184 07280 12/70 11302 10190 20110 39894 40158 53012 60006 81030 91800 333 10241 20076=
07280,1997-09-28 21:00:00,14,1017.2,0.9,82,11,20000,3.704,,,330,,,,,,,,,,,wg-a,,,,AAXX 28214 07280 12/70 03302 10140 20110 39903 40172 51009 60006 80000 92100=
07280,1997-09-29 00:00:00,12,1018.2,0.8,88,10,15000,3.704,,,70,,,,,,,,,,,wg-a,,,,AAXX 29004 07280 12/65 00702 10120 20100 39911 40182 53008 60006 80000 90000=
07280,1997-09-29 03:00:00,11,1019.2,0.8,94,10,15000,3.704,,,360,,,,,,,,,,,wg-a,,,,AAXX 29034 07280 32/65 03602 10110 20100 39919 40192 53008 80000 90300=
07280,1997-09-29 06:00:00,9,1020.6,1.3,100,9,11000,3.704,,,10,8.4,18.5,,,,,,,,11,wg-a,,,,AAXX 29064 07280 02/61 /0102 10090 20090 39932 40206 51013 60006 71111 80001 90600 333 10185 20084 60004=
07280,1997-09-29 09:00:00,16,1021.7,1.7,77,12,12000,3.704,,,90,,,,,,,,,,,wg-a,,,,AAXX 29094 07280 12/62 60902 10160 20120 39949 40217 52017 60006 80001 90900=
07280,1997-09-29 12:00:00,24,1020.6,-0.4,47,12,20000,7.408,,,110,,,,,,,,,,,wg-a,,,,AAXX 29124 07280 12670 /1104 10240 20120 39945 40206 58004 60006 81101 91200=
07280,1997-09-29 15:00:00,25,1020.2,-0.3,41,11,25000,7.408,,,130,,,,,,,,,,,wg-a,,,,AAXX 29154 07280 12/75 61304 10250 20110 39942 40202 58003 60006 80002 91500=
07280,1997-09-29 18:00:00,20,1021.9,1.2,60,12,25000,3.704,,,150,9.2,25.4,,,,,,,,,wg-a,,,,AAXX 29184 07280 12/75 41502 10200 20120 39954 40219 53012 60006 80002 91800 333 10254 20092=
07280,1997-09-29 21:00:00,16,1023.1,0.8,82,13,20000,7.408,,,330,,,,,,,,,,,wg-a,,,,AAXX 29214 07280 12/70 43304 10160 20130 39962 40231 53008 60006 80002 92100=
07280,1997-09-30 00:00:00,14,1023.9,0.7,88,12,20000,11.112,,,330,,,,,,,,,,,wg-a,,,,AAXX 30004 07280 12/70 03306 10140 20120 39969 40239 51007 60006 80000 90000=
07280,1997-09-30 03:00:00,12,1024.5,0.3,94,11,20000,11.112,,,350,,,,,,,,,,,wg-a,,,,AAXX 30034 07280 12/70 03506 10120 20110 39972 40245 53003 60006 80000 90300=
07280,1997-09-30 06:00:00,11,1025.1,0.5,94,10,12000,7.408,,,340,10.6,19.5,,,,,,,,11,wg-a,,,,AAXX 30064 07280 02/62 /3404 10110 20100 39977 40251 53005 60006 71111 80001 90600 333 10195 20106 60004=
07280,1997-09-30 09:00:00,18,1025.4,1,64,11,15000,7.408,,,60,,,,,,,,,,,wg-a,,,,AAXX 30094 07280 12/65 30604 10180 20110 39987 40254 51010 60006 80001 90900=
07280,1997-09-30 12:00:00,23,1023.8,-1.1,47,11,20000,7.408,,,70,,,,,,,,,,,wg-a,,,,AAXX 30124 07280 12/70 30704 10230 20110 39976 40238 58011 60006 80001 91200=
07280,1997-09-30 15:00:00,25,1022.4,-1.2,39,10,25000,3.704,,,160,,,,,,,,,,,wg-a,,,,AAXX 30154 07280 12/75 11602 10250 20100 39964 40224 57012 60006 80001 91500=
07280,1997-09-30 18:00:00,20,1023.4,0.5,56,11,20000,7.408,,,30,10.8,25.8,,,,,,,,,wg-a,,,,AAXX 30184 07280 12/70 10304 10200 20110 39969 40234 53005 60006 80001 91800 333 10258 20108=
07280,1997-10-01 00:00:00,13,1023.2,-1,77,9,20000,11.112,,,340,,,,,,,,,,,wg-a,,,,AAXX 01004 07280 12/70 03406 10130 20090 39961 40232 56010 60006 80000 90000=
07280,1997-10-01 03:00:00,12,1022.8,-0.6,76,8,20000,3.704,,,10,,,,,,,,,,,wg-a,,,,AAXX 01034 07280 12/70 00102 10120 20080 39955 40228 56006 60006 80000 90300=
07280,1997-10-01 06:00:00,10,1022.6,-0.3,93,9,12000,3.704,,,30,9.8,20.1,,,,,,,,,wg-a,,,,AAXX 01064 07280 02/62 50302 10100 20090 39952 40226 56003 60006 80001 90600 333 10201 20098 60004=
07280,1997-10-01 12:00:00,24,1020.4,-1,44,11,18000,11.112,,,40,,,,,,,,,,,wg-a,,,,AAXX 01124 07280 12/68 30406 10240 20110 39944 40204 58010 60006 80001 91200=
07280,1997-10-01 15:00:00,26,1018.5,-1.8,39,11,20000,7.408,,,150,,,,,,,,,,,wg-a,,,,AAXX 01154 07280 12/70 41504 10260 20110 39926 40185 56018 60006 80001 91500=
07280,1997-10-01 18:00:00,21,1018.4,-0.5,60,13,20000,3.704,,,60,10.1,26.4,,,,,,,,,wg-a,,,,AAXX 01184 07280 12/70 10602 10210 20130 39921 40184 55005 60006 80001 91800 333 10264 20101=
07280,1997-10-01 21:00:00,18,1018.7,0,73,13,15000,14.816,,,330,,,,,,,,,,,wg-a,,,,AAXX 01214 07280 12/65 23308 10180 20130 39921 40187 50000 60006 80001 92100=
07280,1997-10-02 00:00:00,15,1018.2,-0.7,88,13,15000,7.408,,,340,,,,,,,,,,,wg-a,,,,AAXX 02004 07280 12/65 13404 10150 20130 39914 40182 58007 60006 80001 90000=
07280,1997-10-02 03:00:00,14,1017.4,-0.9,94,13,15000,7.408,,,330,,,,,,,,,,,wg-a,,,,AAXX 02034 07280 12565 53304 10140 20130 39905 40174 58009 60006 82501 90300=
07280,1997-10-02 06:00:00,11,1017.8,0.1,94,10,7000,7.408,,,200,10.7,20.7,,,,,,,,,wg-a,,,,AAXX 02064 07280 02857 22004 10110 20100 39906 40178 53001 60006 82080 90600 333 10207 20107 60004=
07280,1997-10-02 12:00:00,19,1018,0.3,68,13,20000,11.112,,,350,,,,,,,,,,,wg-a,,,,AAXX 02124 07280 12570 /3506 10190 20130 39916 40180 50003 60006 86200 91200=
07280,1997-10-02 15:00:00,20,1012.3,0.9,60,12,15000,18.52,,,250,,,,,,,,,,,wg-a,,,,AAXX 02154 07280 32665 62510 10200 20120 39904 40123 53009 84430 91500=
07280,1997-10-02 18:00:00,18,1017.7,0.7,68,12,25000,11.112,,,340,10.8,21.5,,,,,,,,,wg-a,,,,AAXX 02184 07280 12675 /3406 10180 20120 39912 40177 53007 60006 81400 91800 333 10215 20108=
07280,1997-10-02 21:00:00,14,1019.1,1,82,11,20000,7.408,,,350,,,,,,,,,,,wg-a,,,,AAXX 02214 07280 12/70 03504 10140 20110 39922 40191 53010 60006 80000 92100=
07280,1997-10-03 00:00:00,11,1019.7,0.3,94,10,15000,11.112,,,350,,,,,,,,,,,wg-a,,,,AAXX 03004 07280 12/65 03506 10110 20100 39925 40197 51003 60006 80000 90000=
07280,1997-10-03 03:00:00,11,1019.8,0,87,9,15000,14.816,,,10,,,,,,,,,,,wg-a,,,,AAXX 03034 07280 12/65 00108 10110 20090 39925 40198 50000 60006 80000 90300=
07280,1997-10-03 06:00:00,9,1020.1,0.1,87,7,12000,14.816,,,10,8.7,17.8,,,,,,,,,wg-a,,,,AAXX 03064 07280 02/62 20108 10090 20070 39926 40201 53001 60006 80001 90600 333 10178 20087 60004=
07280,1997-10-03 09:00:00,14,1020.3,0.7,67,8,20000,18.52,,,30,,,,,,,,,,,wg-a,,,,AAXX 03094 07280 12/70 10310 10140 20080 39933 40203 53007 60006 80001 90900=
07280,1997-10-03 12:00:00,19,1019.3,-0.5,46,7,500,14.816,,,30,,,,,,,,,,,wg-a,,,,AAXX 03124 07280 12/00 10308 10190 20070 39928 40193 58005 60006 80001 91200=
07280,1997-10-03 15:00:00,20,1018.9,-0.4,40,6,35000,18.52,,,50,,,,,,,,,,,wg-a,,,,AAXX 03154 07280 12/81 10510 10200 20060 39924 40189 56004 60006 80001 91500=
07280,1997-10-03 18:00:00,15,1020.1,0.8,59,7,500,11.112,,,20,8.7,19.9,,,,,,,,,wg-a,,,,AAXX 03184 07280 12/00 10206 10150 20070 39932 40201 53008 60006 80001 91800 333 10199 20087=
07280,1997-10-03 21:00:00,10,1021.8,1.2,82,7,25000,11.112,,,340,,,,,,,,,,,wg-a,,,,AAXX 03214 07280 12/75 03406 10100 20070 39944 40218 51012 60006 80000 92100=
07280,1997-10-04 00:00:00,10,1022.1,0.2,71,5,25000,14.816,,,350,,,,,,,,,,,wg-a,,,,AAXX 04004 07280 12/75 03508 10100 20050 39946 40221 52002 60006 80000 90000=
07280,1997-10-04 03:00:00,8,1022.2,-0.1,81,5,20000,7.408,,,340,,,,,,,,,,,wg-a,,,,AAXX 04034 07280 12/70 03404 10080 20050 39945 40222 58001 60006 80000 90300=
07280,1997-10-04 06:00:00,6,1023,0.7,87,4,20000,11.112,,,340,6.4,14.8,,,,,,,,,wg-a,,,,AAXX 04064 07280 02/70 03406 10060 20040 39952 40230 53007 60006 80000 90600 333 10148 20064 60004=
07280,1997-10-04 09:00:00,13,1023.1,0.8,58,5,20000,7.408,,,40,,,,,,,,,,,wg-a,,,,AAXX 04094 07280 12/70 00404 10130 20050 39960 40231 51008 60006 80000 90900=
07280,1997-10-04 12:00:00,18,1022.4,-0.3,42,5,25000,11.112,,,20,,,,,,,,,,,wg-a,,,,AAXX 04124 07280 12/75 10206 10180 20050 39957 40224 58003 60006 80001 91200=
07280,1997-10-04 18:00:00,15,1021.3,0.1,55,6,25000,3.704,,,90,6.5,20.5,,,,,,,,,wg-a,,,,AAXX 04184 07280 12/75 00902 10150 20060 39944 40213 53001 60006 80000 91800 333 10205 20065=
07280,1997-10-04 21:00:00,11,1021.7,0,82,8,25000,7.408,,,330,,,,,,,,,,,wg-a,,,,AAXX 04214 07280 12/75 03304 10110 20080 39944 40217 50000 60006 80000 92100=
07280,1997-10-05 00:00:00,8,1021.2,-0.8,87,6,25000,7.408,,,350,,,,,,,,,,,wg-a,,,,AAXX 05004 07280 12/75 03504 10080 20060 39936 40212 58008 60006 80000 90000=
07280,1997-10-05 03:00:00,6,1020.5,-0.9,93,5,10000,3.704,,,360,,,,,,,,,,,wg-a,,,,AAXX 05034 07280 12/60 /3602 10060 20050 39927 40205 58009 60006 90300=
07280,1997-10-05 06:00:00,5,1019.9,-0.6,100,5,15000,3.704,,,10,5.1,14.8,,,,,,,,,wg-a,,,,AAXX 05064 07280 02/65 00102 10050 20050 39921 40199 57006 60006 80000 90600 333 10148 20051 60004=
07280,1997-10-05 09:00:00,12,1019,-0.2,76,8,15000,7.408,,,60,,,,,,,,,,,wg-a,,,,AAXX 05094 07280 12/65 00604 10120 20080 39919 40190 58002 60006 80000 90900=
07280,1997-10-05 12:00:00,20,1016.7,-1.6,53,10,20000,11.112,,,180,,,,,,,,,,,wg-a,,,,AAXX 05124 07280 12/70 01806 10200 20100 39903 40167 58016 60006 80000 91200=
07280,1997-10-05 15:00:00,22,1014,-2.4,46,10,20000,11.112,,,190,,,,,,,,,,,wg-a,,,,AAXX 05154 07280 12/70 01906 10220 20100 39879 40140 56024 60006 80000 91500=
07280,1997-10-05 18:00:00,17,1013.4,-1.1,59,9,20000,3.704,,,20,5.1,22.3,,,,,,,,,wg-a,,,,AAXX 05184 07280 12/70 00202 10170 20090 39868 40134 56011 60006 80000 91800 333 10223 20051=
07280,1997-10-05 21:00:00,13,1013.4,-0.3,82,10,20000,7.408,,,320,,,,,,,,,,,wg-a,,,,AAXX 05214 07280 12/70 03204 10130 20100 39865 40134 58003 60006 80000 92100=
07280,1997-10-06 00:00:00,10,1013.4,-0.3,87,8,12000,0,,,0,,,,,,,,,,,wg-a,,,,AAXX 06004 07280 12/62 00000 10100 20080 39862 40134 57003 60006 80000 90000=
07280,1997-10-06 03:00:00,8,1012.7,-0.9,100,8,10000,3.704,,,70,,,,,,,,,,11,wg-a,,,,AAXX 06034 07280 12/60 00702 10080 20080 39853 40127 58009 60006 71100 80000 90300=
07280,1997-10-06 06:00:00,8,1011.9,-0.8,93,7,500,0,,,0,7.2,16.4,,,,,,,,11,wg-a,,,,AAXX 06064 07280 02200 /0000 10080 20070 39845 40119 57008 60006 71111 81601 90600 333 10164 20072 60004=
07280,1997-10-06 09:00:00,16,1010.8,-0.2,88,14,500,7.408,,,170,,,,,,,,,,,wg-a,,,,AAXX 06094 07280 12/00 /1704 10160 20140 39843 40108 56002 60006 80001 90900=
07280,1997-10-06 12:00:00,22,1008.7,-1.5,60,14,15000,22.224,,,190,,,,,,,,,,,wg-a,,,,AAXX 06124 07280 12/65 71912 10220 20140 39828 40087 57015 60006 81032 91200=
07280,1997-10-06 15:00:00,23,1007.2,-1.4,57,14,15000,14.816,,,190,,,,,,,,,,,wg-a,,,,AAXX 06154 07280 12665 71908 10230 20140 39814 40072 56014 60006 83832 91500=
07280,1997-10-06 18:00:00,17,1007.4,-0.3,88,15,12000,7.408,,,150,7.5,24.4,,,,,,,,21,wg-a,,,,AAXX 06184 07280 02662 81504 10170 20150 39811 40074 58003 61000 72198 8253/ 91800 333 10244 20075 6000=
07280,1997-10-06 21:00:00,16,1006.8,-0.7,94,15,8000,7.408,,,170,,,,0,,,,,,3,wg-a,,,,AAXX 06214 07280 12758 81704 10160 20150 39804 40068 58007 60007 70362 8453/ 92100=
07280,1997-10-07 00:00:00,17,1006.2,-0.5,94,16,8000,14.816,,,200,,,,1,,,,,,3,wg-a,,,,AAXX 07004 07280 02658 82008 10170 20160 39799 40062 56005 60016 70362 8657/ 90000 333 60017=
07280,1997-10-07 06:00:00,16,1006.2,0.6,94,15,12000,18.52,,,190,15.5,17.1,,,,,2,,,1,wg-a,,,,AAXX 07064 07280 02762 61910 10160 20150 39798 40062 52006 60006 70161 84571 90600 333 10171 20155 60024=
07280,1997-10-07 12:00:00,21,1007.4,0.1,78,17,20000,22.224,,,200,,,,0,,,,,,21,wg-a,,,,AAXX 07124 07280 02470 /2012 10210 20170 39815 40074 53001 60006 72161 81870 91200 333 60007=
07280,1997-10-07 15:00:00,22,1007.3,-0.1,60,14,20000,29.632,,,240,,,,,,,,,,,wg-a,,,,AAXX 07154 07280 12570 72416 10220 20140 39814 40073 55001 60006 82832 91500=
07280,1997-10-07 18:00:00,19,1010.9,3.2,68,13,20000,18.52,,,250,15.3,22.4,,,,,,,,,wg-a,,,,AAXX 07184 07280 12670 72510 10190 20130 39846 40109 53032 60006 8387/ 91800 333 10224 20153=
07280,1997-10-07 21:00:00,16,1013.1,1.9,82,13,20000,18.52,,,220,,,,,,,,,,,wg-a,,,,AAXX 07214 07280 12/70 /2210 10160 20130 39865 40131 51019 60006 80000 92100=
07280,1997-10-08 00:00:00,13,1014.5,1.1,100,13,18000,14.816,,,180,,,,,,,,,,,wg-a,,,,AAXX 08004 07280 12668 /1808 10130 20130 39876 40145 51011 60006 81530 90000=
07280,1997-10-08 03:00:00,14,1014.7,0.3,94,13,20000,14.816,,,220,,,,,,,,,,,wg-a,,,,AAXX 08034 07280 12/70 72208 10140 20130 39879 40147 50003 60006 85031 90300=
07280,1997-10-08 06:00:00,14,1015.3,0.5,94,13,10000,7.408,,,160,12.8,18.8,,,,,,,,,wg-a,,,,AAXX 08064 07280 02/60 81604 10140 20130 39884 40153 52005 60006 85032 90600 333 10188 20128 60004=
07280,1997-10-08 12:00:00,23,1013.7,-0.9,53,13,18000,25.928,,,200,,,,,,,,,,,wg-a,,,,AAXX 08124 07280 12668 72014 10230 20130 39877 40137 58009 60006 81132 91200=
07280,1997-10-08 18:00:00,21,1012.7,0.2,69,15,18000,18.52,,,210,13.2,23.4,,,,,,,,,wg-a,,,,AAXX 08184 07280 12768 82110 10210 20150 39866 40127 53002 60006 8157/ 91800 333 10234 20132=
07280,1997-10-08 21:00:00,21,1013.7,0.9,60,13,18000,14.816,,,210,,,,,,,,,,,wg-a,,,,AAXX 08214 07280 12768 82108 10210 20130 39875 40137 52009 60006 8357/ 92100=
07280,1997-10-09 00:00:00,19,1014.3,0.5,73,14,15000,14.816,,,200,,,,,,,,,,,wg-a,,,,AAXX 09004 07280 12/65 72008 10190 20140 39880 40143 53005 60006 86031 90000=
07280,1997-10-09 03:00:00,18,1014.5,0.1,73,13,15000,22.224,,,220,,,,,,,,,,,wg-a,,,,AAXX 09034 07280 12/65 72212 10180 20130 39881 40145 51001 60006 8703/ 90300=
07280,1997-10-09 06:00:00,17,1014.9,0.2,82,14,10000,22.224,,,210,16.5,21.6,,,,,,,,1,wg-a,,,,AAXX 09064 07280 02760 72112 10170 20140 39883 40149 51002 60006 70162 8557/ 90600 333 10216 20165 61000=
07280,1997-10-09 12:00:00,22,1015.6,0.5,65,15,20000,31.484,,,240,,,,,,,,,,,wg-a,,,,AAXX 09124 07280 12570 72417 10220 20150 39895 40156 51005 60006 872// 91200=
07280,1997-10-09 15:00:00,21,1016.2,0.6,73,16,500,25.928,,,230,,,,,,,,,,,wg-a,,,,AAXX 09154 07280 12500 /2314 10210 20160 39901 40162 53006 60006 85502 91500=
07280,1997-10-09 18:00:00,20,1016.9,0.5,73,15,25000,22.224,,,210,16.3,23.1,,,,,,,,,wg-a,,,,AAXX 09184 07280 12675 32112 10200 20150 39906 40169 53005 60006 82530 91800 333 10231 20163=
07280,1997-10-09 21:00:00,19,1017.2,0.2,78,15,25000,22.224,,,210,,,,,,,,,,,wg-a,,,,AAXX 09214 07280 12775 42112 10190 20150 39908 40172 53002 60006 81531 92100=
07280,1997-10-10 00:00:00,19,1015.9,-1.3,78,15,25000,22.224,,,210,,,,,,,,,,,wg-a,,,,AAXX 10004 07280 12775 72112 10190 20150 39895 40159 56013 60006 81534 90000=
07280,1997-10-10 03:00:00,18,1013.9,-2,83,15,25000,22.224,,,210,,,,,,,,,,,wg-a,,,,AAXX 10034 07280 12775 72112 10180 20150 39875 40139 58020 60006 815/7 90300=
07280,1997-10-10 06:00:00,18,1012.4,-1.5,83,15,15000,14.816,,,190,17.3,19.6,,,,,,,,60,wg-a,,,,AAXX 10064 07280 02465 81908 10180 20150 39860 40124 58015 61000 76062 8387/ 90600 333 10196 20173 6100=
07280,1997-10-10 09:00:00,17,1010.5,-1.9,94,16,7000,25.928,,,200,,,,5,,,,,,61,wg-a,,,,AAXX 10094 07280 12457 82014 10170 20160 39841 40105 58019 60057 76162 8487/ 90900=
07280,1997-10-10 12:00:00,17,1008.6,-1.8,100,17,3500,31.484,,,200,,,,3,,,,,,10,wg-a,,,,AAXX 10124 07280 02235 82017 10170 20170 39823 40086 56018 60086 71065 878// 91200 333 60037=
07280,1997-10-10 15:00:00,18,1008.1,-0.4,100,18,12000,22.224,,,200,,,,0,,,,,,21,wg-a,,,,AAXX 10154 07280 12462 72012 10180 20180 39819 40081 56004 60007 72165 878// 91500=
07280,1997-10-10 18:00:00,17,1010.3,2,88,15,20000,7.408,,,210,16.6,19,,0,,,,,,3,wg-a,,,,AAXX 10184 07280 02470 52104 10170 20150 39839 40103 53020 60006 70365 85800 91800 333 10190 20166 60007=
07280,1997-10-10 21:00:00,14,1013.6,2.9,82,11,20000,11.112,,,310,,,,,,,,,,,wg-a,,,,AAXX 10214 07280 12570 /3106 10140 20110 39868 40136 51029 60006 81100 92100=
07280,1997-10-11 00:00:00,11,1015.7,1.7,87,9,25000,0,,,0,,,,,,,,,,,wg-a,,,,AAXX 11004 07280 12675 40000 10110 20090 39885 40157 51017 60006 84500 90000=
07280,1997-10-11 03:00:00,9,1015.4,-0.4,93,8,25000,7.408,,,270,,,,,,,,,,,wg-a,,,,AAXX 11034 07280 12675 32704 10090 20080 39881 40154 58004 60006 83500 90300=
07280,1997-10-11 06:00:00,8,1015.2,-0.3,93,7,25000,7.408,,,250,7.7,17.7,,,,,9,,,,wg-a,,,,AAXX 11064 07280 02675 22504 10080 20070 39878 40152 56003 60006 81531 90600 333 10177 20077 60094=
07280,1997-10-11 12:00:00,14,1012.4,-2.2,72,9,25000,18.52,,,230,,,,,,,,,,,wg-a,,,,AAXX 11124 07280 12575 72310 10140 20090 39856 40124 58022 60006 8417/ 91200=
07280,1997-10-11 15:00:00,13,1008.9,-3.4,88,11,12000,22.224,,,210,,,,0,,,,,,61,wg-a,,,,AAXX 11154 07280 12562 82112 10130 20110 39822 40089 56034 60007 76162 8587/ 91500=
07280,1997-10-11 18:00:00,14,1004.7,-4.1,88,12,12000,31.484,,,210,7.5,14.6,,,,,,,,21,wg-a,,,,AAXX 11184 07280 02562 82117 10140 20120 39781 40047 56041 61000 72162 888// 91800 333 10146 20075 6000=
07280,1997-10-11 21:00:00,13,1002.2,-2.4,100,13,8000,22.224,,,200,,,,1,,,,,,21,wg-a,,,,AAXX 11214 07280 12258 82012 10130 20130 39757 40022 58024 60017 72162 886// 92100=
07280,1997-10-12 00:00:00,17,1000.7,-1.2,82,14,8000,25.928,,42.596,250,,,,0,,,,,,21,wg-a,,,,AAXX 12004 07280 02258 82514 10170 20140 39745 40007 56012 60016 72162 888// 90000 333 60007 91023=
07280,1997-10-12 03:00:00,14,999.9,-1,82,11,8000,29.632,,,260,,,,1,,,,,,21,wg-a,,,,AAXX 12034 07280 12458 62616 10140 20110 39735 49999 56010 60017 72162 86800 90300=
07280,1997-10-12 06:00:00,13,1001.4,1.3,77,9,12000,18.52,,,170,11.8,16.5,,,,,,,,21,wg-a,,,,AAXX 12064 07280 02462 71710 10130 20090 39748 40014 51013 61000 72161 878// 90600 333 10165 20118 6002=
07280,1997-10-12 09:00:00,13,1002.8,1.4,88,11,10000,18.52,,,250,,,,1,,,,,,61,wg-a,,,,AAXX 12094 07280 12460 72510 10130 20110 39762 40028 52014 60017 76162 878// 90900=
07280,1997-10-12 12:00:00,14,1004.9,2.2,77,10,20000,29.632,,,350,,,,,,,,,,3,wg-a,,,,AAXX 12124 07280 02570 /3516 10140 20100 39784 40049 53022 60016 70362 86800 91200 333 61000=
07280,1997-10-12 18:00:00,11,1013.6,3.9,71,6,25000,11.112,,,300,11,15,,,,,,,,,wg-a,,,,AAXX 12184 07280 12775 43006 10110 20060 39865 40136 53039 60006 845/0 91800 333 10150 20110=
07280,1997-10-12 21:00:00,10,1015.5,1.7,82,7,18000,14.816,,,330,,,,,,,,,,60,wg-a,,,,AAXX 12214 07280 02668 83308 10100 20070 39882 40155 51017 61000 76061 885// 92100 333 ////=
07280,1997-10-13 00:00:00,9,1016.3,0.7,87,7,20000,11.112,,,340,,,,0,,,,,,3,wg-a,,,,AAXX 13004 07280 02570 /3406 10090 20070 39889 40163 53007 60006 70361 86500 90000 333 60007=
07280,1997-10-13 03:00:00,6,1017,0.4,93,5,20000,0,,,0,,,,,,,,,,,wg-a,,,,AAXX 13034 07280 12670 20000 10060 20050 39893 40170 51004 60006 82500 90300=
07280,1997-10-13 06:00:00,6,1017.1,0.1,93,5,12000,7.408,,,300,5,11.3,,,,,1,,,,wg-a,,,,AAXX 13064 07280 02662 43004 10060 20050 39894 40171 51001 60006 84500 90600 333 10113 20050 60014=
07280,1997-10-13 09:00:00,9,1017.7,0.9,76,5,12000,14.816,,,320,,,,,,,,,,,wg-a,,,,AAXX 13094 07280 12462 73208 10090 20050 39903 40177 51009 60006 878// 90900=
07280,1997-10-13 12:00:00,10,1016.9,-0.7,62,3,25000,22.224,,,280,,,,,,,,,,,wg-a,,,,AAXX 13124 07280 12575 82812 10100 20030 39896 40169 57007 60006 878// 91200=
07280,1997-10-13 15:00:00,10,1016.7,-0.2,62,3,25000,14.816,,,290,,,,,,,,,,,wg-a,,,,AAXX 13154 07280 12475 82908 10100 20030 39894 40167 56002 60006 86802 91500=
07280,1997-10-13 18:00:00,8,1017.8,0.9,81,5,20000,7.408,,,210,5.5,11.8,,,,,,,,,wg-a,,,,AAXX 13184 07280 12570 /2104 10080 20050 39903 40178 53009 60006 85802 91800 333 10118 20055=
07280,1997-10-13 21:00:00,7,1018.4,0.5,100,7,12000,7.408,,,270,,,,1,,,,,,61,wg-a,,,,AAXX 13214 07280 12262 82704 10070 20070 39908 40184 53005 60017 76162 888// 92100=
07280,1997-10-14 00:00:00,6,1019.5,1,93,5,20000,14.816,,,350,,,,1,,,,,,3,wg-a,,,,AAXX 14004 07280 02570 /3508 10060 20050 39918 40195 53010 60026 70361 85500 90000 333 60017=
07280,1997-10-14 03:00:00,4,1020.8,1,93,3,20000,11.112,,,340,,,,,,,,,,,wg-a,,,,AAXX 14034 07280 12570 23406 10040 20030 39928 40208 51010 60006 82500 90300=
07280,1997-10-14 06:00:00,6,1021.9,1.3,93,5,12000,14.816,,,330,4.3,8.1,,,,,2,,,,wg-a,,,,AAXX 14064 07280 02462 73308 10060 20050 39941 40219 51013 60006 878// 90600 333 10081 20043 60024=
07280,1997-10-14 09:00:00,8,1023.3,1.6,87,6,20000,14.816,,,340,,,,,,,,,,,wg-a,,,,AAXX 14094 07280 12470 73408 10080 20060 39957 40233 53016 60006 878// 90900=
07280,1997-10-14 12:00:00,11,1023.3,0.2,62,4,500,22.224,,,350,,,,,,,,,,,wg-a,,,,AAXX 14124 07280 12500 /3512 10110 20040 39959 40233 50002 60006 84201 91200=
07280,1997-10-14 15:00:00,10,1022.7,-0.6,71,5,500,14.816,,,320,,,,,,,,,,,wg-a,,,,AAXX 14154 07280 12600 73208 10100 20050 39953 40227 56006 60006 86802 91500=
07280,1997-10-14 18:00:00,9,1023.5,0.6,76,5,25000,7.408,,,300,6.3,11.5,,,,,,,,,wg-a,,,,AAXX 14184 07280 12575 73004 10090 20050 39959 40235 53006 60006 85802 91800 333 10115 20063=
07280,1997-10-14 21:00:00,7,1023.9,0.2,93,6,25000,3.704,,,270,,,,,,,,,,,wg-a,,,,AAXX 14214 07280 12675 82702 10070 20060 39961 40239 50002 60006 81571 92100=
07280,1997-10-15 00:00:00,7,1022.9,-1,100,7,20000,7.408,,,170,,,,,,,,,,21,wg-a,,,,AAXX 15004 07280 02670 81704 10070 20070 39951 40229 58010 61000 72162 8552/ 90000 333 6100=
07280,1997-10-15 03:00:00,7,1021.3,-1.5,93,6,15000,14.816,,,260,,,,1,,,,,,61,wg-a,,,,AAXX 15034 07280 12565 82608 10070 20060 39936 40213 56015 60017 76162 8652/ 90300=
07280,1997-10-15 06:00:00,6,1019.6,-1.7,93,5,20000,11.112,,,200,6.2,8.7,,,,,,,,60,wg-a,,,,AAXX 15064 07280 02470 82006 10060 20050 39919 40196 57017 61000 76062 888// 90600 333 10087 20062 6001=
07280,1997-10-15 09:00:00,7,1018.7,-0.8,100,7,500,18.52,,,200,,,,0,,,,,,51,wg-a,,,,AAXX 15094 07280 12200 82010 10070 20070 39911 40187 58008 60007 75166 885// 90900=
07280,1997-10-15 12:00:00,7,1016.5,-2.1,100,7,3000,22.224,,,190,,,,1,,,,,,10,wg-a,,,,AAXX 15124 07280 02230 81912 10070 20070 39890 40165 58021 60016 71066 887// 91200 333 60017=
07280,1997-10-15 18:00:00,7,1013.8,-0.4,100,7,3000,25.928,,,190,6.2,7.5,,,,,,,,10,wg-a,,,,AAXX 15184 07280 02230 81914 10070 20070 39863 40138 55004 61000 71065 887// 91800 333 10075 20062 6000=
07280,1997-10-15 21:00:00,8,1013.4,-0.3,100,8,3500,14.816,,,190,,,,1,,,,,,10,wg-a,,,,AAXX 15214 07280 12135 81908 10080 20080 39860 40134 56003 60017 71065 887// 92100=
07280,1997-10-16 00:00:00,8,1013,-0.3,100,8,2000,14.816,,,200,,,,1,,,,,,10,wg-a,,,,AAXX 16004 07280 02120 82008 10080 20080 39857 40130 58003 60026 71065 887// 90000 333 60017=
07280,1997-10-16 03:00:00,9,1013,-0,100,9,900,7.408,,,200,,,,,,,,,,10,wg-a,,,,AAXX 16034 07280 32/09 92004 10090 20090 39857 40130 54000 71054 89/// 90300=
07280,1997-10-16 06:00:00,9,1014.2,1.2,100,9,700,7.408,,,210,7.3,9.1,,,,,7,,,45,wg-a,,,,AAXX 16064 07280 02/07 92104 10090 20090 39869 40142 53012 60006 74554 89/// 90600 333 10091 20073 60074=
07280,1997-10-16 09:00:00,12,1015.8,1.8,88,10,12000,3.704,,,270,,,,,,,,,,1,wg-a,,,,AAXX 16094 07280 02462 72702 10120 20100 39887 40158 51018 61000 70154 878// 90900 333 ////=
07280,1997-10-16 12:00:00,14,1015.9,0.3,72,9,25000,3.704,,,310,,,,,,,,,,1,wg-a,,,,AAXX 16124 07280 02575 73102 10140 20090 39890 40159 50003 61000 70154 878// 91200 333 ////=
07280,1997-10-16 15:00:00,14,1015.9,-0,72,9,25000,3.704,,,50,,,,,,,,,,,wg-a,,,,AAXX 16154 07280 12575 70502 10140 20090 39890 40159 54000 60006 878// 91500=
07280,1997-10-16 18:00:00,12,1017.5,1.4,88,10,20000,3.704,,,240,9.1,14.5,,,,,,,,,wg-a,,,,AAXX 16184 07280 12670 /2402 10120 20100 39904 40175 53014 60006 85501 91800 333 10145 20091=
07280,1997-10-17 00:00:00,7,1018.4,-0.4,100,7,500,7.408,,,350,,,,,,,,,,28,wg-a,,,,AAXX 17004 07280 12200 /3504 10070 20070 39908 40184 57004 60006 72811 85600 90000=
07280,1997-10-17 03:00:00,6,1018.2,-0.3,100,6,6000,7.408,,,10,,,,0,,,,,,,wg-a,,,,AAXX 17034 07280 12156 /0104 10060 20060 39905 40182 57003 60007 84601 90300=
07280,1997-10-17 06:00:00,7,1018.8,0.7,100,7,200,3.704,,,360,6.1,11.6,,,,,,,,45,wg-a,,,,AAXX 17064 07280 02/02 93602 10070 20070 39912 40188 53007 60006 74541 89/// 90600 333 10116 20061 60004=
07280,1997-10-17 09:00:00,8,1019.9,1.2,100,8,1100,0,,,0,,,,,,,,,,28,wg-a,,,,AAXX 17094 07280 12111 90000 10080 20080 39924 40199 51012 60006 72842 896// 90900=
07280,1997-10-17 12:00:00,9,1019.6,-0.2,100,9,4500,3.704,,,160,,,,,,,,,,10,wg-a,,,,AAXX 17124 07280 12145 81602 10090 20090 39922 40196 58002 60006 71042 886// 91200=
07280,1997-10-17 15:00:00,12,1018.1,-1.2,88,10,11000,3.704,,,60,,,,,,,,,,,wg-a,,,,AAXX 17154 07280 12361 /0602 10120 20100 39910 40181 56012 60006 82101 91500=
07280,1997-10-17 18:00:00,10,1018.6,0.3,93,9,8000,7.408,,,320,7.3,12.3,,,,,,,,,wg-a,,,,AAXX 17184 07280 12/58 43204 10100 20090 39913 40186 53003 60006 80001 91800 333 10123 20073=
07280,1997-10-17 21:00:00,9,1019.6,0.9,93,8,7000,11.112,,,330,,,,,,,,,,,wg-a,,,,AAXX 17214 07280 12/57 /3306 10090 20080 39922 40196 53009 60006 80001 92100=
07280,1997-10-18 00:00:00,8,1020.7,1,100,8,3000,7.408,,,350,,,,0,,,,,,10,wg-a,,,,AAXX 18004 07280 02/30 /3504 10080 20080 39932 40207 51010 60006 71011 80001 90000 333 60007=
07280,1997-10-18 03:00:00,7,1021.9,1,100,7,2000,7.408,,,350,,,,,,,,,,11,wg-a,,,,AAXX 18034 07280 12/20 /3504 10070 20070 39942 40219 53010 60006 71122 80001 90300=
07280,1997-10-18 06:00:00,6,1022.7,0.7,100,6,300,7.408,,,350,5.4,9.8,,,,,,,,44,wg-a,,,,AAXX 18064 07280 02103 /3504 10060 20060 39949 40227 52007 60006 74441 81601 90600 333 10098 20054 60004=
07280,1997-10-18 09:00:00,13,1023.3,1.3,88,11,6000,3.704,,,150,,,,,,,,,,1,wg-a,,,,AAXX 18094 07280 12/56 /1502 10130 20110 39962 40233 51013 60006 70141 80001 90900=
07280,1997-10-18 12:00:00,19,1021.9,-0.9,64,12,20000,7.408,,,180,,,,,,,,,,3,wg-a,,,,AAXX 18124 07280 12570 /1804 10190 20120 39953 40219 58009 60006 70341 81101 91200=
07280,1997-10-18 15:00:00,21,1020.6,-1.1,56,12,25000,18.52,,,180,,,,,,,,,,,wg-a,,,,AAXX 18154 07280 12675 /1810 10210 20120 39942 40206 56011 60006 81100 91500=
07280,1997-10-18 18:00:00,15,1021.4,0.3,82,12,25000,3.704,,,300,6.2,21.2,,,,,,,,,wg-a,,,,AAXX 18184 07280 12/75 03002 10150 20120 39945 40214 53003 60006 80000 91800 333 10212 20062=
07280,1997-10-18 21:00:00,11,1022.4,0.5,94,10,15000,3.704,,,330,,,,,,,,,,11,wg-a,,,,AAXX 18214 07280 12/65 03302 10110 20100 39950 40224 51005 60006 71100 80000 92100=
07280,1997-10-19 00:00:00,9,1021.9,-0.6,100,9,3000,3.704,,,30,,,,,,,,,,10,wg-a,,,,AAXX 19004 07280 12/30 00302 10090 20090 39944 40219 58006 60006 71000 80000 90000=
07280,1997-10-19 03:00:00,7,1021.5,-0.6,100,7,600,0,,,0,,,,,,,,,,42,wg-a,,,,AAXX 19034 07280 12/06 00000 10070 20070 39938 40215 58006 60006 74240 80000 90300=
07280,1997-10-19 06:00:00,7,1021,-0.5,100,7,1200,3.704,,,340,5.8,14.6,,,,,,,,10,wg-a,,,,AAXX 19064 07280 02/12 13402 10070 20070 39933 40210 58005 60006 71040 80001 90600 333 10146 20058 60004=
07280,1997-10-19 09:00:00,14,1020,-0.2,82,11,8000,7.408,,,180,,,,0,,,,,,,wg-a,,,,AAXX 19094 07280 12458 21804 10140 20110 39931 40200 58002 60007 82100 90900=
07280,1997-10-19 12:00:00,19,1017.9,-1.7,64,12,20000,22.224,,,180,,,,,,,,,,,wg-a,,,,AAXX 19124 07280 12670 31812 10190 20120 39914 40179 58017 60006 83100 91200=
07280,1997-10-19 15:00:00,21,1016,-1.6,56,12,25000,18.52,,,200,,,,,,,,,,,wg-a,,,,AAXX 19154 07280 12675 22010 10210 20120 39898 40160 56016 60006 82100 91500=
07280,1997-10-19 18:00:00,14,1016.9,0.2,82,11,25000,3.704,,,230,6.3,20.9,,,,,,,,,wg-a,,,,AAXX 19184 07280 12/75 12302 10140 20110 39900 40169 53002 60006 80001 91800 333 10209 20063=
07280,1997-10-20 00:00:00,7,1016.3,-0.7,100,7,200,3.704,,,360,,,,,,,,,,44,wg-a,,,,AAXX 20004 07280 12/02 03602 10070 20070 39888 40163 58007 60006 74441 80000 90000=
07280,1997-10-20 03:00:00,7,1016.1,-0.3,100,7,200,3.704,,,350,,,,,,,,,,44,wg-a,,,,AAXX 20034 07280 12/02 /3502 10070 20070 39885 40161 58003 60006 74444 80001 90300=
07280,1997-10-20 06:00:00,8,1014.8,-1.1,100,8,100,7.408,,,10,6.7,14,,,,,,,,44,wg-a,,,,AAXX 20064 07280 02/01 /0104 10080 20080 39874 40148 58011 60006 74444 82031 90600 333 10140 20067 60004=
07280,1997-10-20 09:00:00,10,1014.3,-0.3,100,10,100,3.704,,,110,,,,,,,,,,45,wg-a,,,,AAXX 20094 07280 12/01 91102 10100 20100 39871 40143 58003 60006 74544 89/// 90900=
07280,1997-10-20 12:00:00,15,1012.1,-1.6,88,13,7000,11.112,,,200,,,,,,,,,,1,wg-a,,,,AAXX 20124 07280 12257 72006 10150 20130 39855 40121 58016 60006 70142 82631 91200=
07280,1997-10-20 15:00:00,17,1010.8,-1.2,77,13,12000,7.408,,,40,,,,,,,,,,,wg-a,,,,AAXX 20154 07280 12/62 80404 10170 20130 39843 40108 56012 60006 84032 91500=
07280,1997-10-20 18:00:00,13,1011.5,0.4,100,13,7000,11.112,,,10,7.9,16.6,,,,,,,,,wg-a,,,,AAXX 20184 07280 12/57 /0106 10130 20130 39847 40115 53004 60006 84032 91800 333 10166 20079=
07280,1997-10-20 21:00:00,13,1011,-0.5,94,12,7000,14.816,,,350,,,,,,,,,,,wg-a,,,,AAXX 20214 07280 12/57 83508 10130 20120 39842 40110 58005 60006 81032 92100=
07280,1997-10-21 00:00:00,13,1010.2,-0.8,94,12,7000,18.52,,,20,,,,,,,,,,,wg-a,,,,AAXX 21004 07280 12/57 80210 10130 20120 39834 40102 56008 60006 8807/ 90000=
07280,1997-10-21 03:00:00,12,1009.8,-0.4,100,12,7000,18.52,,,30,,,,,,,,,,,wg-a,,,,AAXX 21034 07280 12357 80310 10120 20120 39830 40098 58004 60006 876// 90300=
07280,1997-10-21 06:00:00,11,1010.6,0.6,94,10,8000,22.224,,,30,11,13.4,,,,,,,,,wg-a,,,,AAXX 21064 07280 02358 80312 10110 20100 39836 40106 51006 60006 886// 90600 333 10134 20110 60004=
07280,1997-10-21 09:00:00,12,1011.5,0.9,88,10,10000,22.224,,,30,,,,,,,,,,,wg-a,,,,AAXX 21094 07280 12460 80312 10120 20100 39845 40115 51009 60006 886// 90900=
07280,1997-10-21 12:00:00,14,1011.2,-0.1,77,10,15000,22.224,,,30,,,,,,,,,,,wg-a,,,,AAXX 21124 07280 12465 /0312 10140 20100 39844 40112 58001 60006 875// 91200=
07280,1997-10-21 15:00:00,14,1011.7,0.6,72,9,15000,22.224,,,50,,,,,,,,,,,wg-a,,,,AAXX 21154 07280 12565 70512 10140 20090 39850 40117 53006 60006 81531 91500=
07280,1997-10-21 18:00:00,10,1013.3,1.1,82,7,15000,14.816,,,50,10.3,15.7,,,,,,,,,wg-a,,,,AAXX 21184 07280 12/65 30508 10100 20070 39861 40133 53011 60006 81031 91800 333 10157 20103=
07280,1997-10-21 21:00:00,9,1013.7,0.3,87,7,8000,14.816,,,10,,,,,,,,,,,wg-a,,,,AAXX 21214 07280 12/58 20108 10090 20070 39864 40137 53003 60006 80001 92100=
07280,1997-10-22 00:00:00,7,1013.6,-0.3,93,6,500,14.816,,,10,,,,,,,,,,,wg-a,,,,AAXX 22004 07280 12/00 00108 10070 20060 39861 40136 58003 60006 80000 90000=
07280,1997-10-22 03:00:00,6,1013.4,-0.3,93,5,500,11.112,,,350,,,,,,,,,,,wg-a,,,,AAXX 22034 07280 12300 83506 10060 20050 39858 40134 56003 60006 88500 90300=
07280,1997-10-22 06:00:00,7,1012.9,-0.4,93,6,3500,11.112,,,20,5.5,10.3,,,,,,,,50,wg-a,,,,AAXX 22064 07280 02235 80206 10070 20060 39854 40129 58004 61000 75051 886// 90600 333 10103 20055 6100=
07280,1997-10-22 09:00:00,7,1013.5,0.7,100,7,1200,7.408,,,20,,,,,,,,,,10,wg-a,,,,AAXX 22094 07280 02112 80204 10070 20070 39861 40135 51007 61000 71054 886// 90900 333 ////=
07280,1997-10-22 12:00:00,10,1012.4,-0.9,93,9,8000,3.704,,,40,,,,,,,,,,1,wg-a,,,,AAXX 22124 07280 02258 80402 10100 20090 39852 40124 58009 61000 70154 886// 91200 333 ////=
07280,1997-10-22 15:00:00,12,1011.4,-0.7,88,10,9000,7.408,,,50,,,,,,,,,,,wg-a,,,,AAXX 22154 07280 12459 80504 10120 20100 39845 40114 56007 60006 885// 91500=
07280,1997-10-22 18:00:00,12,1011.6,0.2,94,11,7000,11.112,,,10,6.4,12.3,,,,,,,,,wg-a,,,,AAXX 22184 07280 12357 80106 10120 20110 39847 40116 52002 60006 885// 91800 333 10123 20064=
07280,1997-10-22 21:00:00,12,1011.9,0.2,94,11,6000,11.112,,,10,,,,,,,,,,,wg-a,,,,AAXX 22214 07280 12356 80106 10120 20110 39849 40119 53002 60006 885// 92100=
07280,1997-10-23 00:00:00,11,1011.9,-0.1,87,9,6000,14.816,,,10,,,,,,,,,,,wg-a,,,,AAXX 23004 07280 12356 80108 10110 20090 39848 40119 57001 60006 885// 90000=
07280,1997-10-23 03:00:00,10,1011.7,-0.2,87,8,6000,14.816,,,360,,,,,,,,,,,wg-a,,,,AAXX 23034 07280 12356 83608 10100 20080 39846 40117 58002 60006 885// 90300=
07280,1997-10-23 06:00:00,9,1011.6,-0.2,93,8,7000,11.112,,,10,9.4,11.9,,,,,,,,20,wg-a,,,,AAXX 23064 07280 02557 80106 10090 20080 39844 40116 57002 61000 72052 885// 90600 333 10119 20094 6000=
07280,1997-10-23 09:00:00,10,1012.5,0.9,87,8,6000,14.816,,,30,,,,,,,,,,3,wg-a,,,,AAXX 23094 07280 02356 70308 10100 20080 39853 40125 51009 61000 70362 876// 90900 333 ////=
07280,1997-10-23 12:00:00,11,1011.9,-0.4,82,8,8000,14.816,,,20,,,,,,,,,,21,wg-a,,,,AAXX 23124 07280 02458 80208 10110 20080 39849 40119 58004 61000 72162 8552/ 91200 333 6100=
07280,1997-10-23 18:00:00,10,1013.3,1.3,87,8,10000,7.408,,,10,9.2,12.4,,,,,,,,,wg-a,,,,AAXX 23184 07280 12460 /0104 10100 20080 39861 40133 53013 60006 83501 91800 333 10124 20092=
07280,1997-10-24 00:00:00,3,1016.9,1.2,93,2,8000,18.52,,,10,,,,,,,,,,,wg-a,,,,AAXX 24004 07280 12/58 00110 10030 20020 39889 40169 53012 60006 80000 90000=
07280,1997-10-24 03:00:00,1,1018.4,1.2,93,0,8000,14.816,,,20,,,,,,,,,,,wg-a,,,,AAXX 24034 07280 12258 80208 10010 20000 39901 40184 51012 60006 88600 90300=
07280,1997-10-24 06:00:00,0,1020.2,1.7,93,-1,2500,11.112,,,30,-0.3,9.9,,,,,,,,10,wg-a,,,,AAXX 24064 07280 02225 20306 10000 21010 39918 40202 51017 60006 71011 82600 90600 333 10099 21003 61000=
07280,1997-10-24 09:00:00,4,1021.6,1.8,87,2,6000,22.224,,,20,,,,,,,,,,,wg-a,,,,AAXX 24094 07280 12/56 00212 10040 20020 39936 40216 51018 60006 80000 90900=
07280,1997-10-24 12:00:00,10,1021,0,57,2,20000,31.484,,,40,,,,,,,,,,,wg-a,,,,AAXX 24124 07280 12670 /0417 10100 20020 39936 40210 50000 60006 81200 91200=
07280,1997-10-24 15:00:00,11,1022,1,50,1,25000,31.484,,,40,,,,,,,,,,,wg-a,,,,AAXX 24154 07280 12675 /0417 10110 20010 39946 40220 53010 60006 81500 91500=
07280,1997-10-24 18:00:00,7,1024.2,1.8,70,2,20000,18.52,,,10,-0.6,11.2,,,,,,,,,wg-a,,,,AAXX 24184 07280 12/70 00110 10070 20020 39964 40242 53018 60006 80000 91800 333 10112 21006=
07280,1997-10-24 21:00:00,5,1025.3,0.9,75,1,20000,18.52,,,20,,,,,,,,,,,wg-a,,,,AAXX 24214 07280 12/70 00210 10050 20010 39973 40253 53009 60006 80000 92100=
07280,1997-10-25 00:00:00,3,1025.7,0.1,81,0,15000,14.816,,,10,,,,,,,,,,,wg-a,,,,AAXX 25004 07280 12/65 00108 10030 20000 39974 40257 53001 60006 80000 90000=
07280,1997-10-25 03:00:00,2,1026.3,0.5,80,-1,15000,14.816,,,10,,,,,,,,,,,wg-a,,,,AAXX 25034 07280 12/65 00108 10020 21010 39979 40263 51005 60006 80000 90300=
07280,1997-10-25 06:00:00,1,1027.5,1.1,86,-1,20000,14.816,,,20,1.2,6.7,,,,,,,,,wg-a,,,,AAXX 25064 07280 02/70 00208 10010 21010 39990 40275 52011 60006 80000 90600 333 10067 20012 60004=
07280,1997-10-25 09:00:00,6,1028.4,1.3,65,0,500,18.52,,,30,,,,,,,,,,,wg-a,,,,AAXX 25094 07280 12/00 00310 10060 20000 30003 40284 51013 60006 80000 90900=
07280,1997-10-25 12:00:00,10,1027.1,-0.8,43,-2,500,22.224,,,40,,,,,,,,,,,wg-a,,,,AAXX 25124 07280 12/00 10412 10100 21020 39995 40271 58008 60006 80001 91200=
07280,1997-10-25 15:00:00,11,1026.1,-0.9,43,-1,500,18.52,,,30,,,,,,,,,,,wg-a,,,,AAXX 25154 07280 12/00 20310 10110 21010 39986 40261 56009 60006 80001 91500=
07280,1997-10-25 18:00:00,6,1027.3,0.7,70,1,500,11.112,,,10,1.2,11.1,,,,,,,,,wg-a,,,,AAXX 25184 07280 12/00 00106 10060 20010 39993 40273 53007 60006 80000 91800 333 10111 20012=
07280,1997-10-25 21:00:00,4,1027.4,-0.1,81,1,25000,11.112,,,10,,,,,,,,,,,wg-a,,,,AAXX 25214 07280 12/75 00106 10040 20010 39992 40274 58001 60006 80000 92100=
07280,1997-10-26 00:00:00,3,1027,-0.5,87,1,20000,14.816,,,10,,,,,,,,,,,wg-a,,,,AAXX 26004 07280 12/70 00108 10030 20010 39987 40270 58005 60006 80000 90000=
07280,1997-10-26 03:00:00,3,1026.2,-0.8,81,0,15000,14.816,,,10,,,,,,,,,,,wg-a,,,,AAXX 26034 07280 12/65 00108 10030 20000 39979 40262 58008 60006 80000 90300=
07280,1997-10-26 06:00:00,3,1025.7,-0.5,81,0,15000,11.112,,,10,2.4,5.5,,,,,,,,,wg-a,,,,AAXX 26064 07280 02/65 30106 10030 20000 39974 40257 57005 60006 80001 90600 333 10055 20024 60004=
07280,1997-10-26 09:00:00,7,1026,0.7,70,2,500,14.816,,,30,,,,,,,,,,,wg-a,,,,AAXX 26094 07280 12/00 30308 10070 20020 39981 40260 52007 60006 80001 90900=
07280,1997-10-26 12:00:00,11,1024.1,-1.4,58,3,500,14.816,,,40,,,,,,,,,,,wg-a,,,,AAXX 26124 07280 12/00 10408 10110 20030 39967 40241 58014 60006 80001 91200=
07280,1997-10-26 15:00:00,13,1022.6,-1.3,47,2,500,18.52,,,40,,,,,,,,,,,wg-a,,,,AAXX 26154 07280 12/00 30410 10130 20020 39954 40226 56013 60006 80001 91500=
07280,1997-10-26 18:00:00,7,1023.2,0.1,76,3,20000,11.112,,,10,2.2,13.1,,,,,,,,,wg-a,,,,AAXX 26184 07280 12/70 00106 10070 20030 39955 40232 53001 60006 80000 91800 333 10131 20022=
07280,1997-10-26 21:00:00,6,1023.4,0,87,4,20000,14.816,,,10,,,,,,,,,,,wg-a,,,,AAXX 26214 07280 12/70 00108 10060 20040 39955 40234 50000 60006 80000 92100=
07280,1997-10-27 00:00:00,5,1022.7,-0.7,87,3,15000,14.816,,,10,,,,,,,,,,,wg-a,,,,AAXX 27004 07280 12/65 00108 10050 20030 39948 40227 56007 60006 80000 90000=
07280,1997-10-27 03:00:00,5,1021.8,-1,87,3,15000,14.816,,,10,,,,,,,,,,,wg-a,,,,AAXX 27034 07280 12/65 00108 10050 20030 39938 40218 56010 60006 80000 90300=
07280,1997-10-27 06:00:00,5,1021.8,-0,87,3,15000,22.224,,,20,4.2,7.4,,,,,,,,,wg-a,,,,AAXX 27064 07280 02/65 20212 10050 20030 39938 40218 55000 60006 82030 90600 333 10074 20042 60004=
07280,1997-10-27 09:00:00,8,1022.4,1,76,4,18000,25.928,,,40,,,,,,,,,,,wg-a,,,,AAXX 27094 07280 12/68 00414 10080 20040 39948 40224 51010 60006 80000 90900=
07280,1997-10-27 12:00:00,12,1021.1,-0.9,54,3,500,29.632,,,40,,,,,,,,,,,wg-a,,,,AAXX 27124 07280 12/00 00416 10120 20030 39939 40211 58009 60006 80000 91200=
07280,1997-10-27 18:00:00,8,1021.9,1.1,71,3,20000,25.928,,,30,4.4,13,,,,,,,,,wg-a,,,,AAXX 27184 07280 12/70 00314 10080 20030 39942 40219 53011 60006 80000 91800 333 10130 20044=
07280,1997-10-27 21:00:00,4,1022.8,0.5,81,1,20000,22.224,,,10,,,,,,,,,,,wg-a,,,,AAXX 27214 07280 12/70 00112 10040 20010 39947 40228 51005 60006 80000 92100=
07280,1997-10-28 00:00:00,2,1022.7,-0.3,75,-2,20000,22.224,,,20,,,,,,,,,,,wg-a,,,,AAXX 28004 07280 12/70 00212 10020 21020 39944 40227 58003 60006 80000 90000=
07280,1997-10-28 03:00:00,0,1022.7,-0.2,74,-4,20000,25.928,,,20,,,,,,,,,,,wg-a,,,,AAXX 28034 07280 12/70 00214 10000 21040 39942 40227 57002 60006 80000 90300=
07280,1997-10-28 06:00:00,-1,1023.7,0.9,69,-6,20000,29.632,,,20,-0.7,7.5,,,,,,,,,wg-a,,,,AAXX 28064 07280 02/70 10216 11010 21060 39951 40237 53009 60006 80001 90600 333 10075 21007 60004=
07280,1997-10-28 12:00:00,6,1024.8,0.3,36,-8,25000,35.188,,,60,,,,,,,,,,,wg-a,,,,AAXX 28124 07280 12/75 00619 10060 21080 39969 40248 50003 60006 80000 91200=
07280,1997-10-28 15:00:00,7,1025.4,0.7,29,-10,25000,25.928,,,70,,,,,,,,,,,wg-a,,,,AAXX 28154 07280 12/75 00714 10070 21100 39976 40254 53007 60006 80000 91500=
07280,1997-10-28 18:00:00,4,1027.9,2,38,-9,25000,22.224,,,30,-0.9,7.6,,,,,,,,,wg-a,,,,AAXX 28184 07280 12/75 00312 10040 21090 39996 40279 53020 60006 80000 91800 333 10076 21009=
07280,1997-10-28 21:00:00,1,1029.8,1.6,51,-8,15000,18.52,,,350,,,,,,,,,,,wg-a,,,,AAXX 28214 07280 12/65 03510 10010 21080 30012 40298 53016 60006 80000 92100=
07280,1997-10-29 00:00:00,0,1030.2,0.3,55,-8,15000,29.632,,,20,,,,,,,,,,,wg-a,,,,AAXX 29004 07280 12/65 00216 10000 21080 30015 40302 50003 60006 80000 90000=
07280,1997-10-29 03:00:00,-2,1031,0.6,63,-8,12000,22.224,,,10,,,,,,,,,,,wg-a,,,,AAXX 29034 07280 12/62 00112 11020 21080 30021 40310 51006 60006 80000 90300=
07280,1997-10-29 06:00:00,-2,1031.4,0.4,63,-8,10000,25.928,,,20,-1.8,3.8,,,,,,,,,wg-a,,,,AAXX 29064 07280 02/60 00214 11020 21080 30025 40314 50004 60006 80000 90600 333 10038 21018 60004=
07280,1997-10-29 09:00:00,2,1032.1,1,47,-8,20000,18.52,,,20,,,,,,,,,,,wg-a,,,,AAXX 29094 07280 12/70 10210 10020 21080 30035 40321 51010 60006 80001 90900=
07280,1997-10-29 12:00:00,6,1030.5,-1.1,31,-10,25000,29.632,,,30,,,,,,,,,,,wg-a,,,,AAXX 29124 07280 12/75 00316 10060 21100 30024 40305 56011 60006 80000 91200=
07280,1997-10-29 15:00:00,9,1029.3,-0.9,29,-8,25000,22.224,,,30,,,,,,,,,,,wg-a,,,,AAXX 29154 07280 12/75 10312 10090 21080 30015 40293 56009 60006 80001 91500=
07280,1997-10-29 18:00:00,4,1030.4,0.6,41,-8,25000,18.52,,,20,-1.8,9,,,,,,,,,wg-a,,,,AAXX 29184 07280 12/75 10210 10040 21080 30021 40304 53006 60006 80001 91800 333 10090 21018=
07280,1997-10-29 21:00:00,1,1030.8,0.1,55,-7,20000,18.52,,,10,,,,,,,,,,,wg-a,,,,AAXX 29214 07280 12/70 00110 10010 21070 30022 40308 52001 60006 80000 92100=
07280,1997-10-30 00:00:00,0,1030.3,-0.6,59,-7,20000,14.816,,,10,,,,,,,,,,,wg-a,,,,AAXX 30004 07280 12/70 00108 10000 21070 30016 40303 56006 60006 80000 90000=
07280,1997-10-30 03:00:00,-1,1029.1,-1.2,59,-8,20000,22.224,,,360,,,,,,,,,,,wg-a,,,,AAXX 30034 07280 12/70 03612 11010 21080 30004 40291 58012 60006 80000 90300=
07280,1997-10-30 06:00:00,-1,1028.7,-0.5,59,-8,20000,18.52,,,10,-1.3,4.4,,,,,,,,,wg-a,,,,AAXX 30064 07280 02/70 00110 11010 21080 39999 40287 57005 60006 80000 90600 333 10044 21013 60004=
07280,1997-10-30 12:00:00,6,1026.6,-1.2,36,-8,35000,18.52,,,30,,,,,,,,,,,wg-a,,,,AAXX 30124 07280 12/81 00310 10060 21080 39986 40266 58012 60006 80000 91200=
07280,1997-10-30 18:00:00,1,1027.1,0.6,64,-5,25000,0,,,0,-1.7,7.3,,,,,,,,,wg-a,,,,AAXX 30184 07280 12/75 10000 10010 21050 39986 40271 53006 60006 80001 91800 333 10073 21017=
07280,1997-10-30 21:00:00,0,1027.1,-0.1,69,-5,20000,11.112,,,330,,,,,,,,,,,wg-a,,,,AAXX 30214 07280 12/70 03306 10000 21050 39985 40271 58001 60006 80000 92100=
07280,1997-10-31 00:00:00,-1,1027,-0.2,80,-4,20000,11.112,,,340,,,,,,,,,,,wg-a,,,,AAXX 31004 07280 12/70 03406 11010 21040 39983 40270 56002 60006 80000 90000=
07280,1997-10-31 03:00:00,-2,1026.7,-0.4,86,-4,15000,7.408,,,320,,,,,,,,,,,wg-a,,,,AAXX 31034 07280 12/65 03204 11020 21040 39979 40267 55004 60006 80000 90300=
07280,1997-10-31 06:00:00,-4,1027.3,0.4,86,-6,12000,7.408,,,330,-3.9,1.7,,,,,,,,,wg-a,,,,AAXX 31064 07280 02/62 03304 11040 21060 39983 40273 51004 60006 80000 90600 333 10017 21039 60004=
07280,1997-10-31 09:00:00,2,1027.5,0.8,80,-1,8000,11.112,,,30,,,,,,,,,,,wg-a,,,,AAXX 31094 07280 12558 20306 10020 21010 39991 40275 52008 60006 82100 90900=
07280,1997-10-31 12:00:00,5,1025.9,-1.2,70,0,12000,11.112,,,30,,,,,,,,,,,wg-a,,,,AAXX 31124 07280 12562 /0306 10050 20000 39979 40259 58012 60006 81100 91200=
07280,1997-10-31 15:00:00,6,1025.7,-0.1,61,-1,15000,11.112,,,50,,,,,,,,,,,wg-a,,,,AAXX 31154 07280 12/65 00506 10060 21010 39978 40257 55001 60006 80000 91500=
07280,1997-10-31 18:00:00,2,1026.7,0.5,80,-1,8000,11.112,,,350,-3.9,6.6,,,,,,,,,wg-a,,,,AAXX 31184 07280 12/58 03506 10020 21010 39983 40267 51005 60006 80000 91800 333 10066 21039=
07280,1997-10-31 21:00:00,-1,1026.8,-0.2,93,-2,8000,7.408,,,330,,,,,,,,,,,wg-a,,,,AAXX 31214 07280 12/58 03304 11010 21020 39981 40268 55002 60006 80000 92100=
07280,1997-11-01 00:00:00,-2,1026.3,-0.6,93,-3,8000,11.112,,,330,,,,,,,,,,,wg-a,,,,AAXX 01004 07280 12/58 03306 11020 21030 39975 40263 56006 60006 80000 90000=
07280,1997-11-01 03:00:00,-3,1025.6,-0.8,93,-4,7000,7.408,,,330,,,,,,,,,,,wg-a,,,,AAXX 01034 07280 12/57 03304 11030 21040 39967 40256 58008 60006 80000 90300=
07280,1997-11-01 06:00:00,-5,1025.5,-0.2,93,-6,4000,7.408,,,10,-4.5,2,,,,,,,,10,wg-a,,,,AAXX 01064 07280 02/40 00104 11050 21060 39965 40255 55002 60006 71000 80000 90600 333 10020 21045 60004=
07280,1997-11-01 09:00:00,1,1025.5,0.5,75,-3,8000,11.112,,,30,,,,,,,,,,,wg-a,,,,AAXX 01094 07280 12/58 30306 10010 21030 39970 40255 50005 60006 80001 90900=
07280,1997-11-01 12:00:00,6,1023.8,-1.1,56,-2,9000,7.408,,,40,,,,,,,,,,,wg-a,,,,AAXX 01124 07280 12/59 30404 10060 21020 39959 40238 58011 60006 80001 91200=
07280,1997-11-01 15:00:00,9,1022.2,-1.2,46,-2,9000,0,,,0,,,,,,,,,,,wg-a,,,,AAXX 01154 07280 12/59 30000 10090 21020 39947 40222 58012 60006 80001 91500=
07280,1997-11-01 18:00:00,3,1023,0.1,70,-2,8000,3.704,,,290,-5.1,9.6,,,,,,,,,wg-a,,,,AAXX 01184 07280 12/58 02902 10030 21020 39948 40230 53001 60006 80000 91800 333 10096 21051=
07280,1997-11-01 21:00:00,1,1022.7,-0.5,80,-2,7000,11.112,,,340,,,,,,,,,,,wg-a,,,,AAXX 01214 07280 12/57 03406 10010 21020 39943 40227 57005 60006 80000 92100=
07280,1997-11-02 00:00:00,0,1022.7,0,86,-2,7000,7.408,,,330,,,,,,,,,,,wg-a,,,,AAXX 02004 07280 12/57 03304 10000 21020 39943 40227 50000 60006 80000 90000=
07280,1997-11-02 03:00:00,-1,1021.9,-0.9,93,-2,7000,7.408,,,330,,,,,,,,,,,wg-a,,,,AAXX 02034 07280 12/57 33304 11010 21020 39934 40219 56009 60006 80001 90300=
07280,1997-11-02 06:00:00,-2,1021.9,-0.2,93,-3,3500,7.408,,,330,-2.7,3,,,,,,,,10,wg-a,,,,AAXX 02064 07280 02/35 /3304 11020 21030 39932 40219 57002 60006 71000 80001 90600 333 10030 21027 60004=
07280,1997-11-02 12:00:00,8,1019.4,-1.5,61,1,8000,7.408,,,30,,,,,,,,,,,wg-a,,,,AAXX 02124 07280 12/58 00304 10080 20010 39919 40194 58015 60006 80000 91200=
07280,1997-11-02 15:00:00,12,1017.1,-1.9,47,1,10000,7.408,,,30,,,,,,,,,,,wg-a,,,,AAXX 02154 07280 12/60 00304 10120 20010 39900 40171 56019 60006 80000 91500=
07280,1997-11-02 18:00:00,6,1017.8,0.1,70,1,10000,11.112,,,330,-2.4,11.9,,,,,,,,,wg-a,,,,AAXX 02184 07280 12/60 03306 10060 20010 39901 40178 53001 60006 80000 91800 333 10119 21024=
07280,1997-11-02 21:00:00,4,1017.5,-0.5,81,1,8000,11.112,,,340,,,,,,,,,,,wg-a,,,,AAXX 02214 07280 12/58 03406 10040 20010 39896 40175 56005 60006 80000 92100=
07280,1997-11-03 00:00:00,2,1018,0.3,80,-1,8000,7.408,,,350,,,,,,,,,,,wg-a,,,,AAXX 03004 07280 12/58 03504 10020 21010 39899 40180 52003 60006 80000 90000=
07280,1997-11-03 06:00:00,-1,1016.9,-0.6,93,-2,3000,7.408,,,330,-1.1,6.3,,,,,,,,10,wg-a,,,,AAXX 03064 07280 02/30 03304 11010 21020 39885 40169 56006 60006 71000 80000 90600 333 10063 21011 60004=
07280,1997-11-03 09:00:00,4,1016.3,-0.1,81,1,3000,11.112,,,20,,,,,,,,,,10,wg-a,,,,AAXX 03094 07280 12/30 00206 10040 20010 39884 40163 58001 60006 71000 80000 90900=
07280,1997-11-03 12:00:00,10,1014.2,-1.4,57,2,8000,7.408,,,50,,,,,,,,,,,wg-a,,,,AAXX 03124 07280 12/58 00504 10100 20020 39870 40142 58014 60006 80000 91200=
07280,1997-11-03 15:00:00,13,1012.2,-1.7,54,4,10000,7.408,,,50,,,,,,,,,,,wg-a,,,,AAXX 03154 07280 12/60 00504 10130 20040 39853 40122 56017 60006 80000 91500=
07280,1997-11-03 18:00:00,9,1012.1,-0.5,71,4,9000,11.112,,,350,-0.8,13.3,,,,,,,,,wg-a,,,,AAXX 03184 07280 12/59 03506 10090 20040 39848 40121 55005 60006 80000 91800 333 10133 21008=
07280,1997-11-03 21:00:00,5,1012.4,-0.1,81,2,8000,14.816,,,350,,,,,,,,,,,wg-a,,,,AAXX 03214 07280 12/58 03508 10050 20020 39847 40124 55001 60006 80000 92100=
07280,1997-11-04 00:00:00,5,1011.7,-0.7,81,2,8000,11.112,,,350,,,,,,,,,,,wg-a,,,,AAXX 04004 07280 12/58 /3506 10050 20020 39840 40117 58007 60006 82030 90000=
07280,1997-11-04 03:00:00,5,1011,-0.6,81,2,7000,11.112,,,10,,,,,,,,,,,wg-a,,,,AAXX 04034 07280 12/57 70106 10050 20020 39834 40110 57006 60006 8703/ 90300=
07280,1997-11-04 06:00:00,6,1010.5,-0.5,75,2,8000,11.112,,,360,4.8,8.5,,,,,,,,60,wg-a,,,,AAXX 04064 07280 02658 73606 10060 20020 39829 40105 56005 61000 76062 8157/ 90600 333 10085 20048 6100=
07280,1997-11-04 12:00:00,7,1010.9,-0.3,87,5,3000,0,,,0,,,,2,,,,,,10,wg-a,,,,AAXX 04124 07280 02230 80000 10070 20050 39835 40109 58003 60026 71062 8257/ 91200 333 60027=
07280,1997-11-04 18:00:00,8,1010.5,-0,93,7,1200,7.408,,,160,5.4,7.5,,0,,,,,,28,wg-a,,,,AAXX 04184 07280 02212 81604 10080 20070 39832 40105 55000 60006 72864 8257/ 91800 333 10075 20054 60007=
07280,1997-11-04 21:00:00,8,1010.9,0.4,100,8,1000,7.408,,,160,,,,,,,,,,10,wg-a,,,,AAXX 04214 07280 02610 81604 10080 20080 39836 40109 53004 61000 71062 8257/ 92100 333 ////=
07280,1997-11-05 00:00:00,9,1010.5,-0.3,100,9,900,3.704,,,150,,,,1,,,,,,61,wg-a,,,,AAXX 05004 07280 02609 81502 10090 20090 39833 40105 56003 60016 76164 885// 90000 333 60017=
07280,1997-11-05 03:00:00,9,1009.7,-0.8,100,9,600,7.408,,,180,,,,3,,,,,,61,wg-a,,,,AAXX 05034 07280 12106 81804 10090 20090 39825 40097 58008 60037 76166 886// 90300=
07280,1997-11-05 06:00:00,10,1008.5,-1.1,100,10,2500,7.408,,,170,7.5,9.6,,,,,,,,10,wg-a,,,,AAXX 05064 07280 02225 81704 10100 20100 39814 40085 57011 61000 71064 886// 90600 333 10096 20075 6010=
07280,1997-11-05 12:00:00,11,1005.3,-2.7,100,11,7000,11.112,,,170,,,,0,,,,,,60,wg-a,,,,AAXX 05124 07280 02257 81706 10110 20110 39785 40053 58027 60016 76062 875// 91200 333 60007=
07280,1997-11-05 15:00:00,11,1002.6,-2.7,100,11,2000,14.816,,,140,,,,1,,,,,,63,wg-a,,,,AAXX 05154 07280 12220 81408 10110 20110 39758 40026 56027 60017 76362 887// 91500=
07280,1997-11-05 18:00:00,11,1000.3,-2.2,100,11,6000,14.816,,,120,,11.6,,,,,,,,10,wg-a,,,,AAXX 05184 07280 02156 81208 10110 20110 39736 40003 56022 61000 7106/ 885// 91800 333 10116 6088=
07280,1997-11-05 21:00:00,10,997.9,-2.4,100,10,8000,7.408,,,170,,,,1,,,,,,1,wg-a,,,,AAXX 05214 07280 12458 81704 10100 20100 39712 49979 56024 60017 70162 885// 92100=
07280,1997-11-06 00:00:00,11,995.4,-2.4,100,11,7000,7.408,,,180,,,,0,,,,,,60,wg-a,,,,AAXX 06004 07280 02457 81804 10110 20110 39688 49954 56024 60016 76062 885// 90000 333 60007=
07280,1997-11-06 03:00:00,11,993.3,-2,100,11,8000,3.704,,,320,,,,1,,,,,,63,wg-a,,,,AAXX 06034 07280 12558 83202 10110 20110 39668 49933 58020 60017 76362 8557/ 90300=
07280,1997-11-06 06:00:00,12,990.1,-3,100,12,4000,7.408,,,60,10.1,12.3,,,,,,,,63,wg-a,,,,AAXX 06064 07280 02140 80604 10120 20120 39638 49901 56030 61000 76362 885// 90600 333 10123 20101 6030=
07280,1997-11-06 12:00:00,13,989.5,-1.6,100,13,15000,11.112,,,10,,,,3,,,,,,60,wg-a,,,,AAXX 06124 07280 02365 80106 10130 20130 39633 49895 58016 60056 76066 8457/ 91200 333 60037=
07280,1997-11-06 15:00:00,14,987.9,-1.5,100,14,7000,7.408,,,50,,,,0,,,,,,60,wg-a,,,,AAXX 06154 07280 12157 80504 10140 20140 39618 49879 56015 60007 76066 8557/ 91500=
07280,1997-11-06 18:00:00,14,987.7,-0.2,100,14,10000,3.704,,,160,12.2,13.8,,,,,,,,60,wg-a,,,,AAXX 06184 07280 02160 81602 10140 20140 39616 49877 55002 61000 76066 875// 91800 333 10138 20122 6001=
07280,1997-11-06 21:00:00,15,988.6,1,88,13,15000,29.632,,,190,,,,3,,,,,,60,wg-a,,,,AAXX 06214 07280 12265 81916 10150 20130 39626 49886 53010 60037 76066 885// 92100=
07280,1997-11-07 00:00:00,13,990.6,1.7,82,10,25000,29.632,,,210,,,,1,,,,,,1,wg-a,,,,AAXX 07004 07280 02575 22116 10130 20100 39643 49906 53017 60036 70161 82500 90000 333 60017=
07280,1997-11-07 03:00:00,11,993.6,2.7,87,9,20000,22.224,,,250,,,,1,,,,,,60,wg-a,,,,AAXX 07034 07280 12270 82512 10110 20090 39670 49936 51027 60017 76061 885// 90300=
07280,1997-11-07 06:00:00,9,999.1,5.2,93,8,25000,22.224,,,190,8.6,16.1,,,,,,,,61,wg-a,,,,AAXX 07064 07280 02275 81912 10090 20080 39722 49991 51052 61000 76161 875// 90600 333 10161 20086 6012=
07280,1997-11-07 09:00:00,9,1000.8,1.7,93,8,500,18.52,,,210,,,,,,,,,,1,wg-a,,,,AAXX 07094 07280 02300 /2110 10090 20080 39739 40008 51017 61000 70161 84800 90900 333 ////=
07280,1997-11-07 12:00:00,15,1000,-0.3,67,9,75000,25.928,,,200,,,,,,,,,,3,wg-a,,,,AAXX 07124 07280 02589 62014 10150 20090 39736 40000 58003 61000 70361 83201 91200 333 ////=
07280,1997-11-07 18:00:00,8,1000.1,0.2,87,6,40000,0,,,0,7.8,14.7,,,,,,,,,wg-a,,,,AAXX 07184 07280 12/82 10000 10080 20060 39731 40001 53002 60006 80001 91800 333 10147 20078=
07280,1997-11-08 00:00:00,3,999.9,-0.5,100,3,20000,0,,,0,,,,,,,,,,,wg-a,,,,AAXX 08004 07280 12/70 30000 10030 20030 39724 49999 57005 60006 80001 90000=
07280,1997-11-08 06:00:00,9,1000.8,1.8,93,8,20000,22.224,,,200,2.7,8.9,,,,,,,,1,wg-a,,,,AAXX 08064 07280 02670 72012 10090 20080 39738 40008 53018 60006 70161 81531 90600 333 10089 20027 60004=
07280,1997-11-08 09:00:00,11,1003.2,2.5,87,9,500,25.928,,,210,,,,,,,,,,,wg-a,,,,AAXX 08094 07280 12500 /2114 10110 20090 39763 40032 51025 60006 82231 90900=
07280,1997-11-08 12:00:00,10,1004.3,1.1,87,8,15000,25.928,,,240,,,,1,,,,,,80,wg-a,,,,AAXX 08124 07280 02565 /2414 10100 20080 39774 40043 51011 60016 78086 86200 91200 333 60017=
07280,1997-11-08 15:00:00,13,1003.8,-0.3,67,7,25000,18.52,,,210,,,,,,,,,,1,wg-a,,,,AAXX 08154 07280 02575 22110 10130 20070 39771 40038 57003 61000 70186 82800 91500 333 ////=
07280,1997-11-08 18:00:00,8,1003.4,-0.8,81,5,20000,7.408,,,190,8.2,13.4,,,,,,,,3,wg-a,,,,AAXX 08184 07280 12/70 31904 10080 20050 39763 40034 58008 60006 70386 80004 91800 333 10134 20082=
07280,1997-11-08 21:00:00,9,1002.4,-0.9,81,6,15000,18.52,,,190,,,,,,,,,,,wg-a,,,,AAXX 08214 07280 12/65 81910 10090 20060 39754 40024 58009 60006 85057 92100=
07280,1997-11-09 00:00:00,10,1001,-1.3,76,6,15000,18.52,,,210,,,,,,,,,,,wg-a,,,,AAXX 09004 07280 12665 82110 10100 20060 39741 40010 56013 60006 8255/ 90000=
07280,1997-11-09 03:00:00,8,1001.5,0.4,100,8,12000,14.816,,,210,,,,4,,,,,,61,wg-a,,,,AAXX 09034 07280 12662 82108 10080 20080 39745 40015 53004 60047 76162 8757/ 90300=
07280,1997-11-09 06:00:00,9,1000.5,-1,93,8,15000,18.52,,,210,7.7,9.7,,,,,,,,60,wg-a,,,,AAXX 09064 07280 02665 82110 10090 20080 39735 40005 56010 61000 76062 8357/ 90600 333 10097 20077 6007=
07280,1997-11-09 09:00:00,10,1002.1,1.7,93,9,20000,22.224,,,200,,,,0,,,,,,3,wg-a,,,,AAXX 09094 07280 12470 /2012 10100 20090 39752 40021 53017 60007 70362 86870 90900=
07280,1997-11-09 12:00:00,11,1002.9,0.9,76,7,50000,25.928,,,190,,,,,,,,,,1,wg-a,,,,AAXX 09124 07280 02484 /1914 10110 20070 39761 40029 50009 60006 70186 86200 91200 333 61000=
07280,1997-11-09 15:00:00,12,1002.3,-0.5,62,5,50000,25.928,,48.152,210,,,,1,,,,,,1,wg-a,,,,AAXX 09154 07280 12584 /2114 10120 20050 39756 40023 58005 60017 70186 85201 91500 333 91026=
07280,1997-11-09 18:00:00,12,1002.4,-0,58,4,40000,35.188,,,200,8.2,12.1,,,,,,,,1,wg-a,,,,AAXX 09184 07280 02782 42019 10120 20040 39756 40024 55000 60006 70186 845/0 91800 333 10121 20082 61000=
07280,1997-11-09 21:00:00,10,1004.3,1.7,71,5,25000,31.484,,,200,,,,,,,,,,,wg-a,,,,AAXX 09214 07280 12675 /2017 10100 20050 39773 40043 51017 60006 84501 92100=
07280,1997-11-10 00:00:00,9,1005.1,0.7,76,5,25000,25.928,,,200,,,,,,,,,,,wg-a,,,,AAXX 10004 07280 12675 42014 10090 20050 39780 40051 50007 60006 84500 90000=
07280,1997-11-10 03:00:00,9,1005,-0.1,71,4,11000,22.224,,,200,,,,,,,,,,,wg-a,,,,AAXX 10034 07280 12/61 /2012 10090 20040 39779 40050 58001 60006 90300=
07280,1997-11-10 06:00:00,7,1005.1,-0,81,4,25000,11.112,,,200,6.9,10.8,,,,,1,,,,wg-a,,,,AAXX 10064 07280 02675 /2006 10070 20040 39779 40051 54000 60006 86500 90600 333 10108 20069 60014=
07280,1997-11-10 09:00:00,9,1004.6,-0.4,76,5,40000,14.816,,,200,,,,,,,,,,25,wg-a,,,,AAXX 10094 07280 02582 /2008 10090 20050 39775 40046 57004 61000 72586 86830 90900 333 ////=
07280,1997-11-10 12:00:00,13,1002.5,-1.7,62,6,500,35.188,,,200,,,,,,,,,,3,wg-a,,,,AAXX 10124 07280 02500 72019 10130 20060 39758 40025 58017 61000 70386 85802 91200 333 ////=
07280,1997-11-10 15:00:00,11,1002.3,-0.3,82,8,25000,25.928,,,190,,,,0,,,,,,21,wg-a,,,,AAXX 10154 07280 12575 /1914 10110 20080 39755 40023 56003 60007 72162 83801 91500=
07280,1997-11-10 18:00:00,9,1003.7,1.2,81,6,500,22.224,,,200,7.4,13.2,,,,,,,,1,wg-a,,,,AAXX 10184 07280 12500 /2012 10090 20060 39767 40037 51012 60006 70162 83801 91800 333 10132 20074=
07280,1997-11-11 00:00:00,5,1004.9,-0.7,100,5,20000,18.52,,,200,,,,,,,,,,,wg-a,,,,AAXX 11004 07280 12770 32010 10050 20050 39775 40049 58007 60006 83500 90000=
07280,1997-11-11 03:00:00,4,1003.1,-1.9,93,3,20000,14.816,,,180,,,,,,,,,,,wg-a,,,,AAXX 11034 07280 12/70 41808 10040 20030 39756 40031 58019 60006 81031 90300=
07280,1997-11-11 06:00:00,5,1002,-1,93,4,20000,11.112,,,180,3.3,8.9,,,,,,,,61,wg-a,,,,AAXX 11064 07280 02570 71806 10050 20040 39746 40020 58010 61000 76161 875// 90600 333 10089 20033 6001=
07280,1997-11-11 12:00:00,9,1001.3,-0.7,81,6,25000,3.704,,,200,,,,0,,,,,,21,wg-a,,,,AAXX 11124 07280 02575 72002 10090 20060 39743 40013 58007 60016 72162 8382/ 91200 333 60007=
07280,1997-11-11 15:00:00,9,999.4,-1.8,93,8,15000,3.704,,,80,,,,0,,,,,,61,wg-a,,,,AAXX 11154 07280 12565 80802 10090 20080 39725 49994 56018 60007 76162 8482/ 91500=
07280,1997-11-11 18:00:00,8,999,-0.5,100,8,11000,7.408,,,120,4.6,9.9,,,,,,,,61,wg-a,,,,AAXX 11184 07280 02361 81204 10080 20080 39720 49990 56005 61000 76162 878// 91800 333 10099 20046 6003=
07280,1997-11-11 21:00:00,8,998.8,-0.2,93,7,8000,0,,,0,,,,0,,,,,,1,wg-a,,,,AAXX 11214 07280 12558 80000 10080 20070 39718 49988 58002 60007 70162 875// 92100=
07280,1997-11-12 00:00:00,7,998.2,-0.7,100,7,8000,7.408,,,30,,,,1,,,,,,1,wg-a,,,,AAXX 12004 07280 02458 80304 10070 20070 39711 49982 58007 60026 70162 875// 90000 333 60017=
07280,1997-11-12 03:00:00,7,998.7,0.5,100,7,7000,3.704,,,120,,,,1,,,,,,60,wg-a,,,,AAXX 12034 07280 12357 81202 10070 20070 39716 49987 51005 60017 76062 877// 90300=
07280,1997-11-12 06:00:00,7,999.1,0.4,100,7,3000,3.704,,,120,6.7,8.2,,,,,,,,61,wg-a,,,,AAXX 12064 07280 02230 81202 10070 20070 39720 49991 53004 61000 76162 877// 90600 333 10082 20067 6008=
07280,1997-11-12 09:00:00,7,1000.6,1.5,100,7,6000,11.112,,,210,,,,2,,,,,,61,wg-a,,,,AAXX 12094 07280 12156 82106 10070 20070 39735 40006 51015 60027 76166 885// 90900=
07280,1997-11-12 12:00:00,9,1001.6,1.1,87,7,20000,11.112,,,230,,,,,,,,,,61,wg-a,,,,AAXX 12124 07280 02370 82306 10090 20070 39746 40016 51011 60026 76166 888// 91200 333 61000=
07280,1997-11-12 18:00:00,7,1005.7,2.4,93,6,20000,7.408,,,240,7,9.5,,0,,,,,,1,wg-a,,,,AAXX 12184 07280 02670 72404 10070 20060 39784 40057 51024 60006 70186 875// 91800 333 10095 20070 60007=
07280,1997-11-12 21:00:00,6,1007.6,1.8,93,5,15000,11.112,,,210,,,,,,,,,,,wg-a,,,,AAXX 12214 07280 12765 72106 10060 20050 39802 40076 51018 60006 875// 92100=
07280,1997-11-13 00:00:00,6,1008.4,0.7,100,6,15000,7.408,,,190,,,,,,,,,,,wg-a,,,,AAXX 13004 07280 12665 71904 10060 20060 39809 40084 51007 60006 875// 90000=
07280,1997-11-13 03:00:00,5,1008.5,0.1,100,5,8000,3.704,,,150,,,,,,,,,,,wg-a,,,,AAXX 13034 07280 12558 71502 10050 20050 39810 40085 50001 60006 875// 90300=
07280,1997-11-13 06:00:00,5,1008.7,0.1,100,5,6000,3.704,,,220,4.7,7.2,,,,,3,,,,wg-a,,,,AAXX 13064 07280 02156 72202 10050 20050 39811 40087 50001 60006 875// 90600 333 10072 20047 60034=
07280,1997-11-13 09:00:00,7,1009.2,0.7,100,7,4000,3.704,,,190,,,,,,,,,,10,wg-a,,,,AAXX 13094 07280 12140 71902 10070 20070 39818 40092 51007 60006 71022 875// 90900=
07280,1997-11-13 12:00:00,9,1008.5,-0.5,81,6,20000,7.408,,,170,,,,,,,,,,,wg-a,,,,AAXX 13124 07280 12470 71704 10090 20060 39813 40085 58005 60006 878// 91200=
07280,1997-11-13 15:00:00,10,1008,-0.4,71,5,500,7.408,,,200,,,,,,,,,,,wg-a,,,,AAXX 13154 07280 12500 /2004 10100 20050 39809 40080 56004 60006 84800 91500=
07280,1997-11-13 18:00:00,4,1009.4,0.9,100,4,20000,3.704,,,270,4.4,10.3,,,,,,,,11,wg-a,,,,AAXX 13184 07280 12770 /2702 10040 20040 39818 40094 53009 60006 71111 81500 91800 333 10103 20044=
07280,1997-11-13 21:00:00,2,1010.9,1.2,100,2,4500,7.408,,,320,,,,,,,,,,11,wg-a,,,,AAXX 13214 07280 12745 /3204 10020 20020 39830 40109 53012 60006 71100 81500 92100=
07280,1997-11-14 00:00:00,1,1012,0.9,100,1,7000,3.704,,,290,,,,,,,,,,11,wg-a,,,,AAXX 14004 07280 12757 /2902 10010 20010 39839 40120 53009 60006 71111 86500 90000=
07280,1997-11-14 03:00:00,2,1012.3,0.5,100,2,7000,0,,,0,,,,,,,,,,,wg-a,,,,AAXX 14034 07280 12757 /0000 10020 20020 39844 40123 51005 60006 85500 90300=
07280,1997-11-14 06:00:00,3,1013.8,1.5,100,3,10000,0,,,0,0.5,4.3,,,,,,,,,wg-a,,,,AAXX 14064 07280 02560 70000 10030 20030 39859 40138 51015 60006 87500 90600 333 10043 20005 60004=
07280,1997-11-14 09:00:00,4,1015.9,2.2,100,4,500,0,,,0,,,,,,,,,,10,wg-a,,,,AAXX 14094 07280 02100 70000 10040 20040 39881 40159 51022 61000 71062 875// 90900 333 ////=
07280,1997-11-14 12:00:00,10,1015.8,0.4,76,6,8000,3.704,,,220,,,,,,,,,,1,wg-a,,,,AAXX 14124 07280 02458 /2202 10100 20060 39885 40158 50004 61000 70162 86800 91200 333 ////=
07280,1997-11-14 15:00:00,10,1016.4,0.6,76,6,15000,7.408,,,160,,,,,,,,,,,wg-a,,,,AAXX 14154 07280 12465 41604 10100 20060 39891 40164 53006 60006 84400 91500=
07280,1997-11-14 18:00:00,6,1018.8,1.9,93,5,20000,3.704,,,140,2.8,10.4,,,,,,,,,wg-a,,,,AAXX 14184 07280 12770 21402 10060 20050 39910 40188 53019 60006 82500 91800 333 10104 20028=
07280,1997-11-14 21:00:00,2,1020.5,1.3,100,2,200,0,,,0,,,,,,,,,,44,wg-a,,,,AAXX 14214 07280 12/02 00000 10020 20020 39923 40205 53013 60006 74440 80000 92100=
07280,1997-11-15 00:00:00,0,1021.8,1.1,100,0,2500,0,,,0,,,,,,,,,,10,wg-a,,,,AAXX 15004 07280 12/25 00000 10000 20000 39934 40218 51011 60006 71040 80000 90000=
07280,1997-11-15 03:00:00,-1,1022.6,0.6,100,-1,2000,3.704,,,10,,,,,,,,,,12,wg-a,,,,AAXX 15034 07280 12/20 00102 11010 21010 39940 40226 53006 60006 71240 80000 90300=
07280,1997-11-15 06:00:00,1,1022.7,0.3,100,1,100,3.704,,,340,-1.2,5.6,,,,,,,,45,wg-a,,,,AAXX 15064 07280 02/01 93402 10010 20010 39943 40227 51003 60006 74541 89/// 90600 333 10056 21012 61000=
07280,1997-11-15 09:00:00,2,1024,1.4,100,2,100,3.704,,,140,,,,,,,,,,45,wg-a,,,,AAXX 15094 07280 12/01 91402 10020 20020 39957 40240 51014 60006 74544 89/// 90900=
07280,1997-11-15 12:00:00,4,1023.3,-0.5,100,4,1200,11.112,,,190,,,,,,,,,,28,wg-a,,,,AAXX 15124 07280 12112 91906 10040 20040 39952 40233 58005 60006 72842 896// 91200=
07280,1997-11-15 15:00:00,5,1022.2,-0.9,100,5,6000,3.704,,,180,,,,,,,,,,,wg-a,,,,AAXX 15154 07280 12756 81802 10050 20050 39943 40222 56009 60006 86502 91500=
07280,1997-11-15 18:00:00,4,1022.2,-0.1,100,4,500,7.408,,,170,0.8,5.5,,,,,,,,,wg-a,,,,AAXX 15184 07280 12700 71704 10040 20040 39942 40222 57001 60006 8253/ 91800 333 10055 20008=
07280,1997-11-15 21:00:00,5,1021.5,-0.7,100,5,500,3.704,,,140,,,,,,,,,,,wg-a,,,,AAXX 15214 07280 12600 81402 10050 20050 39935 40215 58007 60006 875// 92100=
07280,1997-11-16 00:00:00,5,1020.3,-1,100,5,500,3.704,,,190,,,,0,,,,,,60,wg-a,,,,AAXX 16004 07280 02400 81902 10050 20050 39925 40203 57010 60006 76062 8652/ 90000 333 60007=
07280,1997-11-16 03:00:00,5,1019.7,-0.6,100,5,1500,11.112,,,170,,,,8,,,,,,10,wg-a,,,,AAXX 16034 07280 12115 81706 10050 20050 39919 40197 58006 60087 71062 885// 90300=
07280,1997-11-16 06:00:00,5,1019.3,-0.4,100,5,2000,7.408,,,170,4.1,5.7,,,,,,,,10,wg-a,,,,AAXX 16064 07280 02120 81704 10050 20050 39915 40193 56004 61000 71065 887// 90600 333 10057 20041 6015=
07280,1997-11-16 09:00:00,6,1019.6,0.3,100,6,1100,3.704,,,180,,,,0,,,,,,10,wg-a,,,,AAXX 16094 07280 12111 81802 10060 20060 39918 40196 51003 60007 71065 887// 90900=
07280,1997-11-16 12:00:00,7,1018.7,-0.7,100,7,4000,7.408,,,100,,,,2,,,,,,10,wg-a,,,,AAXX 16124 07280 02140 81004 10070 20070 39911 40187 58007 60026 71065 887// 91200 333 60027=
07280,1997-11-16 15:00:00,7,1018.2,-0.5,100,7,1500,0,,,0,,,,,,,,,,10,wg-a,,,,AAXX 16154 07280 02115 80000 10070 20070 39906 40182 56005 61000 71052 887// 91500 333 ////=
07280,1997-11-16 18:00:00,7,1019.1,0.9,100,7,900,7.408,,,10,5.4,7.4,,,,,,,,45,wg-a,,,,AAXX 16184 07280 02/09 90104 10070 20070 39915 40191 52009 61000 74554 89/// 91800 333 10074 20054 ////=
07280,1997-11-16 21:00:00,7,1018.9,-0.2,100,7,3500,7.408,,,340,,,,,,,,,,10,wg-a,,,,AAXX 16214 07280 02135 83404 10070 20070 39913 40189 57002 61000 71054 886// 92100 333 ////=
07280,1997-11-17 00:00:00,8,1018.5,-0.3,100,8,6000,11.112,,,340,,,,,,,,,,1,wg-a,,,,AAXX 17004 07280 02356 83406 10080 20080 39910 40185 56003 61000 70154 885// 90000 333 ////=
07280,1997-11-17 03:00:00,8,1018.2,-0.3,100,8,4000,7.408,,,350,,,,,,,,,,10,wg-a,,,,AAXX 17034 07280 12240 83504 10080 20080 39907 40182 57003 60006 71022 886// 90300=
07280,1997-11-17 06:00:00,7,1018.8,0.5,100,7,4500,14.816,,,30,7,8.2,,,,,2,,,10,wg-a,,,,AAXX 17064 07280 02145 80308 10070 20070 39912 40188 52005 60006 71022 886// 90600 333 10082 20070 60024=
07280,1997-11-17 09:00:00,8,1019,0.2,93,7,6000,14.816,,,40,,,,,,,,,,,wg-a,,,,AAXX 17094 07280 12256 80408 10080 20070 39914 40190 50002 60006 886// 90900=
07280,1997-11-17 12:00:00,7,1017.5,-1.4,100,7,7000,7.408,,,60,,,,,,,,,,,wg-a,,,,AAXX 17124 07280 12257 /0604 10070 20070 39900 40175 58014 60006 876// 91200=
07280,1997-11-17 15:00:00,9,1016,-1.4,87,7,10000,7.408,,,250,,,,,,,,,,,wg-a,,,,AAXX 17154 07280 12/60 62504 10090 20070 39886 40160 56014 60006 80001 91500=
07280,1997-11-17 18:00:00,5,1016.3,-0.1,100,5,200,3.704,,,180,4.3,9.1,,,,,,,,10,wg-a,,,,AAXX 17184 07280 12/02 91802 10050 20050 39885 40163 55001 60006 71041 89/// 91800 333 10091 20043=
07280,1997-11-17 21:00:00,4,1015.7,-0.6,100,4,100,0,,,0,,,,,,,,,,45,wg-a,,,,AAXX 17214 07280 12/01 90000 10040 20040 39879 40157 58006 60006 74544 89/// 92100=
07280,1997-11-18 00:00:00,4,1014.6,-1.1,100,4,3000,7.408,,,100,,,,,,,,,,10,wg-a,,,,AAXX 18004 07280 12230 81004 10040 20040 39868 40146 56011 60006 71042 886// 90000=
07280,1997-11-18 06:00:00,5,1012.7,-0.4,100,5,10000,3.704,,,30,4.1,5.6,,,,,,,,,wg-a,,,,AAXX 18064 07280 02460 80302 10050 20050 39850 40127 58004 60006 885// 90600 333 10056 20041 60004=
07280,1997-11-18 09:00:00,6,1012.7,0.1,87,4,8000,3.704,,,20,,,,,,,,,,,wg-a,,,,AAXX 18094 07280 12558 /0202 10060 20040 39851 40127 50001 60006 81501 90900=
07280,1997-11-18 12:00:00,11,1010.5,-1.6,76,7,10000,7.408,,,210,,,,,,,,,,,wg-a,,,,AAXX 18124 07280 12560 /2104 10110 20070 39835 40105 58016 60006 81100 91200=
07280,1997-11-18 15:00:00,13,1009.5,-0.8,67,7,12000,11.112,,,210,,,,,,,,,,,wg-a,,,,AAXX 18154 07280 12562 /2106 10130 20070 39827 40095 56008 60006 81100 91500=
07280,1997-11-18 18:00:00,6,1009.6,-0.6,93,5,9000,3.704,,,340,4.6,13.3,,,,,,,,,wg-a,,,,AAXX 18184 07280 12/59 23402 10060 20050 39821 40096 56006 60006 82030 91800 333 10133 20046=
07280,1997-11-19 00:00:00,4,1008.1,-1.5,93,3,3500,7.408,,,30,,,,,,,,,,10,wg-a,,,,AAXX 19004 07280 12/35 70304 10040 20030 39804 40081 58015 60006 71011 85038 90000=
07280,1997-11-19 06:00:00,4,1005.1,-1.1,100,4,4000,11.112,,,20,3.3,5.9,,,,,,,,10,wg-a,,,,AAXX 19064 07280 02540 80206 10040 20040 39776 40051 56011 61000 71062 885// 90600 333 10059 20033 ////=
07280,1997-11-19 09:00:00,4,1004.8,-0.3,100,4,2000,11.112,,,10,,,,,,,,,,10,wg-a,,,,AAXX 19094 07280 02220 80106 10040 20040 39773 40048 58003 61000 710// 887// 90900 333 ////=
07280,1997-11-19 12:00:00,5,1004,-0.7,93,4,3000,3.704,,,60,,,,1,,,,,,10,wg-a,,,,AAXX 19124 07280 02230 80602 10050 20040 39766 40040 58007 60016 71065 887// 91200 333 60017=
07280,1997-11-19 15:00:00,5,1003.7,-0.3,100,5,1400,0,,,0,,,,4,,,,,,10,wg-a,,,,AAXX 19154 07280 12114 80000 10050 20050 39763 40037 56003 60047 71065 887// 91500=
07280,1997-11-19 18:00:00,5,1004.2,0.5,100,5,4000,3.704,,,160,4.1,5.3,,,,,,,,10,wg-a,,,,AAXX 19184 07280 02140 81602 10050 20050 39768 40042 53005 61000 71065 887// 91800 333 10053 20041 6000=
07280,1997-11-19 21:00:00,5,1004.2,0,100,5,300,7.408,,,180,,,,,,,,,,45,wg-a,,,,AAXX 19214 07280 32/03 91804 10050 20050 39768 40042 50000 74565 89/// 92100=
07280,1997-11-20 03:00:00,7,1003.1,-0.5,100,7,300,11.112,,,190,,,,,,,,,,45,wg-a,,,,AAXX 20034 07280 12/03 91906 10070 20070 39759 40031 56005 60006 74542 89/// 90300=
07280,1997-11-20 06:00:00,7,1002.1,-0.9,100,7,700,18.52,,,200,5.2,7.2,,,,,7,,,43,wg-a,,,,AAXX 20064 07280 02/07 92010 10070 20070 39750 40021 58009 60006 74342 89/// 90600 333 10072 20052 60074=
07280,1997-11-20 09:00:00,8,1002.5,0.4,100,8,1800,18.52,,,190,,,,,,,,,,10,wg-a,,,,AAXX 20094 07280 02118 81910 10080 20080 39754 40025 50004 61000 71064 886// 90900 333 ////=
07280,1997-11-20 12:00:00,9,1002.8,0.4,100,9,6000,22.224,,,200,,,,1,,,,,,61,wg-a,,,,AAXX 20124 07280 02356 82012 10090 20090 39758 40028 51004 60016 76164 888// 91200 333 60017=
07280,1997-11-20 15:00:00,9,1003.2,0.4,100,9,10000,22.224,,,200,,,,1,,,,,,3,wg-a,,,,AAXX 20154 07280 12360 /2012 10090 20090 39762 40032 53004 60017 70362 8583/ 91500=
07280,1997-11-20 18:00:00,8,1004.8,1.5,100,8,8000,11.112,,,200,7.2,9.5,,,,,,,,25,wg-a,,,,AAXX 20184 07280 02258 72006 10080 20080 39777 40048 53015 61000 72586 8583/ 91800 333 10095 20072 6000=
07280,1997-11-20 21:00:00,8,1006.7,1.8,93,7,20000,18.52,,,210,,,,0,,,,,,25,wg-a,,,,AAXX 20214 07280 12470 /2110 10080 20070 39795 40067 51018 60007 72586 84800 92100=
07280,1997-11-21 00:00:00,7,1008.3,1.5,100,7,20000,11.112,,,190,,,,,,,,,,1,wg-a,,,,AAXX 21004 07280 12670 41906 10070 20070 39810 40083 53015 60016 70186 84500 90000=
07280,1997-11-21 03:00:00,7,1009.4,1,100,7,20000,11.112,,,200,,,,,,,,,,,wg-a,,,,AAXX 21034 07280 12670 /2006 10070 20070 39820 40094 52010 60006 86500 90300=
07280,1997-11-21 06:00:00,6,1010.4,0.9,100,6,20000,3.704,,,150,6,8.5,,,,,3,,,,wg-a,,,,AAXX 21064 07280 02470 /1502 10060 20060 39829 40104 51009 60006 86500 90600 333 10085 20060 60034=
07280,1997-11-21 09:00:00,8,1011.2,1,87,6,10000,3.704,,,190,,,,,,,,,,,wg-a,,,,AAXX 21094 07280 12760 41902 10080 20060 39839 40112 53010 60006 815/1 90900=
07280,1997-11-21 12:00:00,12,1010.6,-0.2,67,6,500,14.816,,,200,,,,,,,,,,,wg-a,,,,AAXX 21124 07280 12500 32008 10120 20060 39837 40106 58002 60006 83801 91200=
07280,1997-11-21 15:00:00,11,1010.9,0.2,76,7,40000,7.408,,,170,,,,,,,,,,,wg-a,,,,AAXX 21154 07280 12582 /1704 10110 20070 39839 40109 53002 60006 86801 91500=
07280,1997-11-21 18:00:00,7,1011.4,-0,93,6,500,3.704,,,30,5.6,12.6,,,,,,,,,wg-a,,,,AAXX 21184 07280 12/00 50302 10070 20060 39839 40114 55000 60006 80001 91800 333 10126 20056=
07280,1997-11-21 21:00:00,5,1012.2,0.6,93,4,20000,7.408,,,330,,,,,,,,,,,wg-a,,,,AAXX 21214 07280 12770 63304 10050 20040 39845 40122 50006 60006 825/1 92100=
07280,1997-11-22 00:00:00,4,1012.5,0.2,100,4,15000,7.408,,,350,,,,,,,,,,,wg-a,,,,AAXX 22004 07280 12765 63504 10040 20040 39847 40125 53002 60006 835/1 90000=
07280,1997-11-22 03:00:00,4,1012.4,-0.1,100,4,15000,7.408,,,350,,,,,,,,,,,wg-a,,,,AAXX 22034 07280 12765 63504 10040 20040 39846 40124 58001 60006 81570 90300=
07280,1997-11-22 06:00:00,3,1012.9,0.4,100,3,15000,11.112,,,340,2.4,6.6,,,,,,,,,wg-a,,,,AAXX 22064 07280 02765 23406 10030 20030 39850 40129 53004 60006 82500 90600 333 10066 20024 60004=
07280,1997-11-22 09:00:00,6,1013.6,1.1,93,5,12000,11.112,,,10,,,,,,,,,,,wg-a,,,,AAXX 22094 07280 12/62 20106 10060 20050 39861 40136 51011 60006 82030 90900=
07280,1997-11-22 12:00:00,10,1012.9,-0.4,76,6,25000,11.112,,,10,,,,,,,,,,,wg-a,,,,AAXX 22124 07280 12475 20106 10100 20060 39857 40129 58004 60006 81101 91200=
07280,1997-11-22 15:00:00,11,1013.1,0.3,66,5,25000,7.408,,,30,,,,,,,,,,,wg-a,,,,AAXX 22154 07280 12575 70304 10110 20050 39860 40131 53003 60006 81104 91500=
07280,1997-11-22 18:00:00,7,1014.7,1.2,87,5,20000,3.704,,,350,1.8,11.3,,,,,,,,,wg-a,,,,AAXX 22184 07280 12/70 63502 10070 20050 39872 40147 53012 60006 80001 91800 333 10113 20018=
07280,1997-11-22 21:00:00,5,1016.1,1.1,93,4,20000,11.112,,,360,,,,,,,,,,,wg-a,,,,AAXX 22214 07280 12/70 63606 10050 20040 39883 40161 51011 60006 81031 92100=
07280,1997-11-23 00:00:00,3,1018,1.7,100,3,400,14.816,,,20,,,,,,,,,,43,wg-a,,,,AAXX 23004 07280 12/04 90208 10030 20030 39900 40180 53017 60006 74342 89/// 90000=
07280,1997-11-23 03:00:00,3,1018.7,0.7,100,3,1000,14.816,,,50,,,,,,,,,,10,wg-a,,,,AAXX 23034 07280 12110 80508 10030 20030 39907 40187 53007 60006 71042 886// 90300=
07280,1997-11-23 06:00:00,3,1019.7,0.9,100,3,500,11.112,,,20,2.8,6.9,,,,,,,,1,wg-a,,,,AAXX 23064 07280 02200 80206 10030 20030 39916 40197 53009 60006 70142 886// 90600 333 10069 20028 60004=
07280,1997-11-23 12:00:00,4,1021.2,0.1,93,3,9000,11.112,,,40,,,,,,,,,,1,wg-a,,,,AAXX 23124 07280 02359 80406 10040 20030 39932 40212 51001 61000 70152 886// 91200 333 ////=
07280,1997-11-23 15:00:00,5,1021.3,0.2,87,3,10000,7.408,,,50,,,,,,,,,,,wg-a,,,,AAXX 23154 07280 12460 80504 10050 20030 39934 40213 53002 60006 886// 91500=
07280,1997-11-23 18:00:00,4,1021.6,0.2,87,2,7000,11.112,,,80,2.8,5.1,,,,,,,,,wg-a,,,,AAXX 23184 07280 12457 80806 10040 20020 39936 40216 50002 60006 886// 91800 333 10051 20028=
07280,1997-11-23 21:00:00,4,1021.4,-0.2,81,1,7000,7.408,,,70,,,,,,,,,,,wg-a,,,,AAXX 23214 07280 12457 80704 10040 20010 39934 40214 55002 60006 885// 92100=
07280,1997-11-24 00:00:00,2,1020,-1.5,93,1,6000,11.112,,,350,,,,,,,,,,,wg-a,,,,AAXX 24004 07280 12456 /3506 10020 20010 39919 40200 58015 60006 85600 90000=
07280,1997-11-24 03:00:00,1,1019.1,-1.1,93,0,6000,11.112,,,20,,,,,,,,,,,wg-a,,,,AAXX 24034 07280 12/56 00206 10010 20000 39908 40191 58011 60006 80000 90300=
07280,1997-11-24 06:00:00,0,1017.9,-1.3,93,-1,6000,11.112,,,20,-0.3,4.3,,,,,,,,,wg-a,,,,AAXX 24064 07280 02/56 30206 10000 21010 39895 40179 56013 60006 81031 90600 333 10043 21003 61000=
07280,1997-11-24 12:00:00,2,1014.7,-2.1,93,1,4500,3.704,,,130,,,,,,,,,,10,wg-a,,,,AAXX 24124 07280 12245 81302 10020 20010 39867 40147 58021 60006 71011 886// 91200=
07280,1997-11-24 15:00:00,3,1011.9,-2.7,87,1,9000,0,,,0,,,,,,,,,,,wg-a,,,,AAXX 24154 07280 12359 70000 10030 20010 39840 40119 56027 60006 81132 91500=
07280,1997-11-24 18:00:00,1,1010.3,-1.7,100,1,8000,7.408,,,330,-0.7,2.8,,,,,,,,,wg-a,,,,AAXX 24184 07280 12/58 73304 10010 20010 39823 40103 56017 60006 82032 91800 333 10028 21007=
07280,1997-11-24 21:00:00,2,1009.6,-0.6,100,2,8000,3.704,,,340,,,,,,,,,,,wg-a,,,,AAXX 24214 07280 12/58 83402 10020 20020 39817 40096 56006 60006 8807/ 92100=
07280,1997-11-25 00:00:00,1,1010.1,0.4,100,1,10000,3.704,,,340,,,,,,,,,,,wg-a,,,,AAXX 25004 07280 12/60 53402 10010 20010 39821 40101 51004 60006 85030 90000=
07280,1997-11-25 03:00:00,1,1010.2,0.1,100,1,9000,7.408,,,330,,,,,,,,,,,wg-a,,,,AAXX 25034 07280 12759 /3304 10010 20010 39822 40102 50001 60006 86500 90300=
07280,1997-11-25 06:00:00,1,1009.7,-0.5,93,0,8000,7.408,,,20,0.1,2,,,,,,,,,wg-a,,,,AAXX 25064 07280 02/58 /0204 10010 20000 39817 40097 56005 60006 85070 90600 333 10020 20001 60004=
07280,1997-11-25 09:00:00,4,1009.9,0.5,93,3,7000,3.704,,,90,,,,,,,,,,,wg-a,,,,AAXX 25094 07280 12/57 70902 10040 20030 39822 40099 51005 60006 82072 90900=
07280,1997-11-25 12:00:00,7,1008.7,-0.9,87,5,8000,3.704,,,120,,,,,,,,,,2,wg-a,,,,AAXX 25124 07280 02758 71202 10070 20050 39813 40087 58009 61000 70262 85570 91200 333 6100=
07280,1997-11-25 18:00:00,7,1007.3,-0,93,6,8000,3.704,,,290,0.7,9.5,,,,,,,,3,wg-a,,,,AAXX 25184 07280 02758 72902 10070 20060 39800 40073 55000 60006 70362 83570 91800 333 10095 20007 61000=
07280,1997-11-25 21:00:00,6,1007.2,-0.2,93,5,10000,7.408,,,10,,,,,,,,,,,wg-a,,,,AAXX 25214 07280 12/60 60104 10060 20050 39798 40072 55002 60006 86070 92100=
07280,1997-11-26 00:00:00,5,1007.4,-0,87,3,10000,7.408,,,360,,,,,,,,,,,wg-a,,,,AAXX 26004 07280 12/60 43604 10050 20030 39798 40074 55000 60006 83074 90000=
07280,1997-11-26 03:00:00,3,1007.5,-0.1,87,1,12000,11.112,,,340,,,,,,,,,,,wg-a,,,,AAXX 26034 07280 12/62 23406 10030 20010 39797 40075 58001 60006 80001 90300=
07280,1997-11-26 06:00:00,2,1007.6,0.1,87,0,12000,11.112,,,340,1.8,7.5,,,,,,,,,wg-a,,,,AAXX 26064 07280 02/62 43406 10020 20000 39798 40076 52001 60006 82034 90600 333 10075 20018 61000=
07280,1997-11-26 09:00:00,6,1008.9,1.6,75,2,15000,7.408,,,340,,,,,,,,,,60,wg-a,,,,AAXX 26094 07280 02765 83404 10060 20020 39814 40089 53016 61000 76061 8557/ 90900 333 ////=
07280,1997-11-26 12:00:00,8,1008.9,0.2,71,3,15000,11.112,,,360,,,,,,,,,,21,wg-a,,,,AAXX 26124 07280 02765 83606 10080 20030 39816 40089 50002 61000 72161 8357/ 91200 333 6100=
07280,1997-11-26 15:00:00,8,1008,0.8,81,5,15000,7.408,,,350,,,,,,,,,,,wg-a,,,,AAXX 26154 07280 12765 83504 10080 20050 39824 40080 51008 60006 8557/ 91500=
07280,1997-11-26 18:00:00,7,1010.7,0.8,81,4,15000,11.112,,,10,1.9,8.7,,,,,,,,,wg-a,,,,AAXX 26184 07280 12765 70106 10070 20040 39833 40107 51008 60006 8257/ 91800 333 10087 20019=
07280,1997-11-26 21:00:00,6,1011.8,1,81,3,15000,11.112,,,350,,,,,,,,,,,wg-a,,,,AAXX 26214 07280 12765 73506 10060 20030 39843 40118 52010 60006 8253/ 92100=
07280,1997-11-27 00:00:00,5,1012.7,0.7,81,2,12000,11.112,,,330,,,,,,,,,,,wg-a,,,,AAXX 27004 07280 12/62 03306 10050 20020 39850 40127 52007 60006 80000 90000=
07280,1997-11-27 03:00:00,4,1013.5,0.7,87,2,12000,7.408,,,10,,,,,,,,,,,wg-a,,,,AAXX 27034 07280 12/62 70104 10040 20020 39857 40135 51007 60006 8703/ 90300=
07280,1997-11-27 06:00:00,3,1014.6,1,93,2,12000,3.704,,,340,3.1,7.2,,,,,,,,,wg-a,,,,AAXX 27064 07280 02/62 43402 10030 20020 39867 40146 53010 60006 84030 90600 333 10072 20031 61000=
07280,1997-11-27 09:00:00,5,1016,1.5,87,3,8000,7.408,,,100,,,,,,,,,,,wg-a,,,,AAXX 27094 07280 12/58 /1004 10050 20030 39882 40160 53015 60006 86030 90900=
07280,1997-11-27 12:00:00,5,1015.6,-0.4,87,3,6000,3.704,,,130,,,,,,,,,,,wg-a,,,,AAXX 27124 07280 12/56 81302 10050 20030 39878 40156 58004 60006 8807/ 91200=
07280,1997-11-27 15:00:00,6,1015.8,0.3,87,4,4500,3.704,,,130,,,,0,,,,,,10,wg-a,,,,AAXX 27154 07280 12545 81302 10060 20040 39881 40158 53003 60007 71062 8657/ 91500=
07280,1997-11-27 18:00:00,6,1016.3,0.5,93,5,500,0,,,0,2.1,5.8,,,,,,,,21,wg-a,,,,AAXX 27184 07280 02500 /0000 10060 20050 39886 40163 51005 61000 72162 8353/ 91800 333 10058 20021 6100=
07280,1997-11-27 21:00:00,3,1017.1,0.5,100,3,500,7.408,,,140,,,,,,,,,,11,wg-a,,,,AAXX 27214 07280 12500 71404 10030 20030 39891 40171 50005 60006 71122 8153/ 92100=
07280,1997-11-28 00:00:00,3,1016.3,-0.8,100,3,2000,0,,,0,,,,,,,,,,10,wg-a,,,,AAXX 28004 07280 12/20 /0000 10030 20030 39883 40163 58008 60006 71022 86030 90000=
07280,1997-11-28 03:00:00,2,1015.5,-0.8,100,2,3000,0,,,0,,,,,,,,,,10,wg-a,,,,AAXX 28034 07280 12230 70000 10020 20020 39875 40155 56008 60006 71011 876// 90300=
07280,1997-11-28 06:00:00,4,1014.7,-0.6,100,4,100,3.704,,,300,2.1,5.6,,,,,,,,45,wg-a,,,,AAXX 28064 07280 02/01 93002 10040 20040 39869 40147 58006 60006 74541 89/// 90600 333 10056 20021 60004=
07280,1997-11-28 09:00:00,4,1014,-0.7,100,4,100,0,,,0,,,,,,,,,,43,wg-a,,,,AAXX 28094 07280 12/01 90000 10040 20040 39862 40140 56007 60006 74344 89/// 90900=
07280,1997-11-28 12:00:00,7,1012.6,-1.1,100,7,2500,7.408,,,190,,,,,,,,,,10,wg-a,,,,AAXX 28124 07280 02125 81904 10070 20070 39851 40126 58011 61000 71064 8377/ 91200 333 6100=
07280,1997-11-28 15:00:00,8,1012.2,-0.2,100,8,2500,18.52,,,200,,,,4,,,,,,10,wg-a,,,,AAXX 28154 07280 12425 82010 10080 20080 39849 40122 56002 60047 71062 8687/ 91500=
07280,1997-11-28 18:00:00,9,1012.4,0.2,100,9,6000,14.816,,,210,3.9,8.6,,,,,,,,58,wg-a,,,,AAXX 28184 07280 02256 82108 10090 20090 39851 40124 53002 61000 75865 886// 91800 333 10086 20039 6001=
07280,1997-11-28 21:00:00,9,1012.4,0,100,9,6000,18.52,,,200,,,,,,,,,,1,wg-a,,,,AAXX 28214 07280 02256 /2010 10090 20090 39851 40124 50000 61000 70165 84500 92100 333 ////=
07280,1997-11-29 00:00:00,9,1011.6,-0.7,100,9,500,25.928,,,200,,,,0,,,,,,21,wg-a,,,,AAXX 29004 07280 02200 /2014 10090 20090 39844 40116 57007 60006 72165 81100 90000 333 60007=
07280,1997-11-29 03:00:00,9,1011.1,-0.6,93,8,500,22.224,,,200,,,,,,,,,,,wg-a,,,,AAXX 29034 07280 12200 72012 10090 20080 39838 40111 58006 60006 875// 90300=
07280,1997-11-29 06:00:00,9,1010.8,-0.3,87,7,12000,25.928,,,210,8.2,9.6,,,,,5,,,,wg-a,,,,AAXX 29064 07280 02562 /2114 10090 20070 39835 40108 56003 60006 86500 90600 333 10096 20082 60054=
07280,1997-11-29 09:00:00,9,1011.2,0.5,93,8,15000,14.816,,,210,,,,,,,,,,80,wg-a,,,,AAXX 29094 07280 02565 82108 10090 20080 39840 40112 53005 61000 78086 878// 90900 333 ////=
07280,1997-11-29 15:00:00,11,1008.4,-1.2,76,7,25000,11.112,,,220,,,,,,,,,,,wg-a,,,,AAXX 29154 07280 12575 72206 10110 20070 39815 40084 56012 60006 878// 91500=
07280,1997-11-29 18:00:00,7,1008.9,0.1,93,6,25000,3.704,,,50,7.3,12.9,,1,,,,,,1,wg-a,,,,AAXX 29184 07280 02675 40502 10070 20060 39816 40089 53001 60006 70186 84500 91800 333 10129 20073 60017=
07280,1997-11-29 21:00:00,6,1009.4,0.3,93,5,25000,11.112,,,200,,,,,,,,,,,wg-a,,,,AAXX 29214 07280 12775 22006 10060 20050 39819 40094 51003 60006 82500 92100=
07280,1997-11-30 00:00:00,5,1010.3,0.8,100,5,25000,11.112,,,240,,,,,,,,,,,wg-a,,,,AAXX 30004 07280 12675 32406 10050 20050 39827 40103 51008 60006 83500 90000=
07280,1997-11-30 03:00:00,6,1010.4,0.2,100,6,20000,18.52,,,200,,,,,,,,,,,wg-a,,,,AAXX 30034 07280 12570 72010 10060 20060 39829 40104 53002 60006 875// 90300=
07280,1997-11-30 06:00:00,6,1010.6,0.2,100,6,20000,14.816,,,210,4.7,7.3,,,,,1,,,,wg-a,,,,AAXX 30064 07280 02570 82108 10060 20060 39831 40106 52002 60006 885// 90600 333 10073 20047 60014=
07280,1997-11-30 09:00:00,7,1011.2,0.7,100,7,15000,14.816,,,200,,,,,,,,,,3,wg-a,,,,AAXX 30094 07280 02465 82008 10070 20070 39838 40112 52007 61000 70362 885// 90900 333 ////=
07280,1997-11-30 12:00:00,9,1011,-0.1,87,7,12000,14.816,,,250,,,,,,,,,,61,wg-a,,,,AAXX 30124 07280 02462 82508 10090 20070 39837 40110 58001 61000 76162 885// 91200 333 6100=
07280,1997-11-30 15:00:00,8,1011.2,0.2,93,7,20000,11.112,,,220,,,,,,,,,,1,wg-a,,,,AAXX 30154 07280 02470 72206 10080 20070 39839 40112 53002 61000 70162 875// 91500 333 ////=
07280,1997-11-30 18:00:00,8,1011.9,0.7,93,7,20000,3.704,,,330,6.2,9.1,,,,,,,,61,wg-a,,,,AAXX 30184 07280 02470 73302 10080 20070 39846 40119 52007 61000 76162 875// 91800 333 10091 20062 6000=
07280,1997-11-30 21:00:00,7,1012.9,0.8,93,6,20000,7.408,,,330,,,,0,,,,,,1,wg-a,,,,AAXX 30214 07280 12370 33304 10070 20060 39854 40129 53008 60007 70186 83200 92100=
07280,1997-12-01 00:00:00,8,1013.7,0.9,87,6,20000,7.408,,,310,,,,,,,,,,3,wg-a,,,,AAXX 01004 07280 12470 83104 10080 20060 39863 40137 53009 60016 70386 888// 90000=
07280,1997-12-01 03:00:00,7,1014.8,1,87,5,15000,14.816,,,340,,,,,,,,,,,wg-a,,,,AAXX 01034 07280 12465 83408 10070 20050 39873 40148 51010 60006 884// 90300=
07280,1997-12-01 06:00:00,6,1015.9,1,93,5,12000,7.408,,,310,6.2,8,,,,,,,,61,wg-a,,,,AAXX 01064 07280 02362 83104 10060 20050 39883 40159 53010 61000 76165 885// 90600 333 10080 20062 6001=
07280,1997-12-01 09:00:00,7,1017.6,1.6,81,4,15000,22.224,,,350,,,,0,,,,,,3,wg-a,,,,AAXX 01094 07280 12465 43512 10070 20040 39899 40176 53016 60007 70361 83830 90900=
07280,1997-12-01 12:00:00,8,1016.4,-1,71,3,500,14.816,,,20,,,,,,,,,,3,wg-a,,,,AAXX 01124 07280 12500 50208 10080 20030 39889 40164 58010 60006 70361 85800 91200=
07280,1997-12-01 15:00:00,6,1015.7,-0.9,70,1,500,0,,,0,,,,,,,,,,,wg-a,,,,AAXX 01154 07280 12600 20000 10060 20010 39880 40157 56009 60006 82400 91500=
07280,1997-12-01 18:00:00,2,1014.6,-1.4,93,1,500,3.704,,,20,2.3,7.9,,,,,,,,,wg-a,,,,AAXX 01184 07280 12600 30202 10020 20010 39866 40146 58014 60006 81501 91800 333 10079 20023=
07280,1997-12-01 21:00:00,1,1012.4,-2.3,86,-1,20000,7.408,,,350,,,,,,,,,,,wg-a,,,,AAXX 01214 07280 12/70 53504 10010 21010 39843 40124 58023 60006 81034 92100=
07280,1997-12-02 00:00:00,0,1008.3,-4,93,-1,15000,3.704,,,20,,,,,,,,,,,wg-a,,,,AAXX 02004 07280 12/65 80202 10000 21010 39803 40083 56040 60006 84034 90000=
07280,1997-12-02 03:00:00,0,1003.7,-4.5,100,0,15000,11.112,,,70,,,,,,,,,,,wg-a,,,,AAXX 02034 07280 12465 80706 10000 20000 39758 40037 58045 60006 8453/ 90300=
07280,1997-12-02 06:00:00,1,997.6,-5.9,100,1,4500,7.408,,,130,-0.1,2.2,,,,,,,,10,wg-a,,1,,AAXX 02064 07280 02245 81304 10010 20010 39699 49976 57059 61000 71076 875// 90600 333 10022 21001 4/001 6004=
07280,1997-12-02 09:00:00,4,995,-2.2,100,4,500,22.224,,,200,,,,3,,,,,,58,wg-a,,,,AAXX 02094 07280 12200 82012 10040 20040 39677 49950 56022 60037 75876 886// 90900=
07280,1997-12-02 12:00:00,4,996.4,1.3,81,1,12000,25.928,,,260,,,,0,,,,,,25,wg-a,,,,AAXX 02124 07280 02462 72614 10040 20010 39690 49964 53013 60046 72587 872// 91200 333 60007=
07280,1997-12-02 15:00:00,1,998.8,2.1,93,0,500,29.632,,,240,,,,,,,,,,71,wg-a,,,,AAXX 02154 07280 02500 82416 10010 20000 39711 49988 51021 61000 77176 885// 91500 333 ////=
07280,1997-12-02 18:00:00,1,1001.4,2.5,86,-1,6000,22.224,,61.116,290,0.2,6.8,,,,,,,,71,wg-a,,1,,AAXX 02184 07280 02456 82912 10010 21010 39736 40014 51025 61000 77176 885// 91800 333 10068 20002 4/001 6000 91033=
07280,1997-12-02 21:00:00,0,1003.7,2.2,93,-1,500,7.408,,,300,,,,,,,,,,71,wg-a,,,,AAXX 02214 07280 02400 83004 10000 21010 39758 40037 51022 61000 77177 885// 92100 333 ////=
07280,1997-12-03 00:00:00,1,1004.4,0.7,80,-2,10000,14.816,,,300,,,,,,,,,,70,wg-a,,,,AAXX 03004 07280 02460 83008 10010 21020 39765 40044 50007 61000 77077 885// 90000 333 6100=
07280,1997-12-03 03:00:00,0,1005.6,1.1,86,-2,10000,11.112,,,310,,,,,,,,,,71,wg-a,,,,AAXX 03034 07280 02460 83106 10000 21020 39776 40056 51011 61000 77177 885// 90300 333 ////=
07280,1997-12-03 06:00:00,0,1006.4,0.8,93,-1,8000,11.112,,,320,-0.2,0.6,,,,,,,,71,wg-a,,4,,AAXX 03064 07280 02358 83206 10000 21010 39784 40064 53008 61000 77177 885// 90600 333 10006 21002 4/004 6004=
07280,1997-12-03 12:00:00,1,1010.2,1.6,93,0,4000,22.224,,,350,,,,,,,,,,10,wg-a,,,,AAXX 03124 07280 02440 83512 10010 20000 39822 40102 51016 60006 71077 8557/ 91200 333 61000=
07280,1997-12-03 15:00:00,0,1012.1,1.8,93,-1,3500,25.928,,,340,,,,,,,,,,10,wg-a,,,,AAXX 03154 07280 02435 83414 10000 21010 39840 40121 51018 61000 71077 8557/ 91500 333 ////=
07280,1997-12-03 18:00:00,0,1014.1,1.9,93,-1,500,18.52,,,340,0,1,,,,,,,,71,wg-a,,0,,AAXX 03184 07280 02500 83410 10000 21010 39859 40141 51019 61000 77172 8157/ 91800 333 10010 20000 4/9999 6100=
07280,1997-12-03 21:00:00,0,1015.1,0.9,86,-2,500,18.52,,,10,,,,,,,,,,70,wg-a,,,,AAXX 03214 07280 02/00 80110 10000 21020 39868 40151 51009 61000 77072 8807/ 92100 333 ////=
07280,1997-12-04 00:00:00,0,1015.4,0.3,86,-2,500,18.52,,,360,,,,,,,,,,3,wg-a,,,,AAXX 04004 07280 02500 83610 10000 21020 39871 40154 50003 61000 70372 885// 90000 333 6100=
07280,1997-12-04 03:00:00,0,1015.2,-0.1,93,-1,500,11.112,,,10,,,,,,,,,,,wg-a,,,,AAXX 04034 07280 12500 80106 10000 21010 39870 40152 58001 60006 885// 90300=
07280,1997-12-04 06:00:00,0,1015.2,-0,93,-1,7000,14.816,,,360,-0.3,0.4,,,,,,,,,wg-a,,1,,AAXX 04064 07280 02557 83608 10000 21010 39870 40152 55000 60006 8257/ 90600 333 10004 21003 4/001 60004=
07280,1997-12-04 09:00:00,0,1015.6,0.3,93,-1,8000,18.52,,,20,,,,,,,,,,3,wg-a,,,,AAXX 04094 07280 02458 80210 10000 21010 39873 40156 52003 61000 70372 877// 90900 333 ////=
07280,1997-12-04 12:00:00,1,1015.9,0.4,86,-1,8000,14.816,,,40,,,,,,,,,,2,wg-a,,,,AAXX 04124 07280 02458 80408 10010 21010 39877 40159 50004 61000 70272 877// 91200 333 ////=
07280,1997-12-04 15:00:00,1,1016.3,0.4,86,-1,10000,22.224,,,30,,,,,,,,,,,wg-a,,,,AAXX 04154 07280 12460 80312 10010 21010 39881 40163 53004 60006 888// 91500=
07280,1997-12-04 18:00:00,1,1017.4,1.1,86,-1,9000,14.816,,,30,-0.1,1.6,,,,,,,,,wg-a,,,,AAXX 04184 07280 12659 80308 10010 21010 39892 40174 51011 60006 885// 91800 333 10016 21001=
07280,1997-12-04 21:00:00,1,1019,1.5,86,-1,8000,14.816,,,20,,,,,,,,,,,wg-a,,,,AAXX 04214 07280 12558 80208 10010 21010 39907 40190 51015 60006 885// 92100=
07280,1997-12-05 00:00:00,0,1020.1,1,93,-1,9000,25.928,,,20,,,,,,,,,,,wg-a,,,,AAXX 05004 07280 12459 80214 10000 21010 39917 40201 51010 60006 885// 90000=
07280,1997-12-05 03:00:00,-1,1021,0.8,93,-2,8000,18.52,,,10,,,,,,,,,,,wg-a,,,,AAXX 05034 07280 12658 40110 11010 21020 39925 40210 51008 60006 84500 90300=
07280,1997-12-05 06:00:00,-1,1022.1,1,93,-2,10000,18.52,,,10,-1,0.9,,,,,,,,,wg-a,,,,AAXX 05064 07280 02460 /0110 11010 21020 39935 40221 53010 60006 81600 90600 333 10009 21010 61000=
07280,1997-12-05 09:00:00,0,1023.7,1.7,93,-1,6000,22.224,,,10,,,,,,,,,,,wg-a,,,,AAXX 05094 07280 12256 20112 10000 21010 39952 40237 53017 60006 82500 90900=
07280,1997-12-05 12:00:00,2,1023.5,0.1,80,-1,12000,18.52,,,20,,,,,,,,,,,wg-a,,,,AAXX 05124 07280 12462 50210 10020 21010 39953 40235 50001 60006 85800 91200=
07280,1997-12-05 15:00:00,2,1024.1,0.5,87,0,15000,11.112,,,40,,,,,,,,,,,wg-a,,,,AAXX 05154 07280 12465 70406 10020 20000 39958 40241 53005 60006 878// 91500=
07280,1997-12-05 18:00:00,2,1025.3,1.1,87,0,15000,11.112,,,20,-1.3,2.6,,,,,,,,,wg-a,,,,AAXX 05184 07280 12465 70206 10020 20000 39969 40253 51011 60006 875// 91800 333 10026 21013=
07280,1997-12-05 21:00:00,1,1026.5,1.1,86,-1,15000,14.816,,,10,,,,,,,,,,,wg-a,,,,AAXX 05214 07280 12465 80108 10010 21010 39980 40265 51011 60006 885// 92100=
07280,1997-12-06 00:00:00,-1,1026.8,0.1,93,-2,7000,11.112,,,350,,,,,,,,,,,wg-a,,,,AAXX 06004 07280 12557 23506 11010 21020 39981 40268 50001 60006 82500 90000=
07280,1997-12-06 03:00:00,-2,1026.9,-0,86,-4,7000,7.408,,,350,,,,,,,,,,,wg-a,,,,AAXX 06034 07280 12/57 03504 11020 21040 39981 40269 55000 60006 80000 90300=
07280,1997-12-06 06:00:00,-3,1026.9,-0.1,93,-4,7000,11.112,,,340,-3.1,1.7,,,,,,,,,wg-a,,,,AAXX 06064 07280 02/57 03406 11030 21040 39980 40269 56001 60006 80000 90600 333 10017 21031 60004=
07280,1997-12-06 12:00:00,2,1026.3,-0.9,75,-2,15000,7.408,,,40,,,,,,,,,,,wg-a,,,,AAXX 06124 07280 12465 /0404 10020 21020 39979 40263 58009 60006 81101 91200=
07280,1997-12-06 15:00:00,2,1025.8,-0.5,64,-4,25000,7.408,,,60,,,,,,,,,,,wg-a,,,,AAXX 06154 07280 12/75 10604 10020 21040 39974 40258 56005 60006 80001 91500=
07280,1997-12-06 18:00:00,-2,1026.8,0.6,86,-4,20000,0,,,0,-3.3,2.5,,,,,,,,,wg-a,,,,AAXX 06184 07280 12/70 00000 11020 21040 39980 40268 51006 60006 80000 91800 333 10025 21033=
07280,1997-12-06 21:00:00,-3,1026.9,0,93,-4,20000,3.704,,,40,,,,,,,,,,,wg-a,,,,AAXX 06214 07280 12/70 00402 11030 21040 39980 40269 50000 60006 80000 92100=
07280,1997-12-07 00:00:00,-4,1026.5,-0.6,93,-5,20000,3.704,,,30,,,,,,,,,,,wg-a,,,,AAXX 07004 07280 12/70 00302 11040 21050 39974 40265 58006 60006 80000 90000=
07280,1997-12-07 06:00:00,-6,1024.3,-1,93,-7,100,0,,,0,-6.6,-1.8,,,,,,,,48,wg-a,,,,AAXX 07064 07280 02101 50000 11060 21070 39951 40243 58010 60006 74841 85600 90600 333 11018 21066 60004=
07280,1997-12-07 09:00:00,-4,1023.5,-0.5,100,-4,500,3.704,,,130,,,,,,,,,,1,wg-a,,,,AAXX 07094 07280 12100 31302 11040 21040 39946 40235 58005 60006 70141 81701 90900=
07280,1997-12-07 12:00:00,-3,1021.4,-2,100,-3,1000,3.704,,,100,,,,,,,,,,10,wg-a,,,,AAXX 07124 07280 12110 /1002 11030 21030 39926 40214 58020 60006 71041 85601 91200=
07280,1997-12-07 15:00:00,-3,1020.2,-1.1,100,-3,2500,3.704,,,200,,,,,,,,,,10,wg-a,,,,AAXX 07154 07280 12125 72002 11030 21030 39915 40202 56011 60006 71022 87600 91500=
07280,1997-12-07 18:00:00,-3,1019.1,-1.1,100,-3,1200,7.408,,,180,-6.7,-2.7,,,,,,,,10,wg-a,,,,AAXX 07184 07280 12112 81804 11030 21030 39904 40191 58011 60006 71022 886// 91800 333 11027 21067=
07280,1997-12-07 21:00:00,-3,1018.1,-0.9,100,-3,600,7.408,,,200,,,,,,,,,,49,wg-a,,,,AAXX 07214 07280 12/06 92004 11030 21030 39895 40181 57009 60006 74942 89/// 92100=
07280,1997-12-08 00:00:00,-3,1017.4,-0.7,100,-3,600,7.408,,,200,,,,,,,,,,49,wg-a,,,,AAXX 08004 07280 12/06 92004 11030 21030 39888 40174 56007 60006 74942 89/// 90000=
07280,1997-12-08 03:00:00,-3,1016.7,-0.7,100,-3,600,7.408,,,200,,,,,,,,,,49,wg-a,,,,AAXX 08034 07280 12/06 92004 11030 21030 39881 40167 55007 60006 74944 89/// 90300=
07280,1997-12-08 06:00:00,-2,1016.1,-0.5,100,-2,3000,3.704,,,200,-3,-1.7,,,,,,,,10,wg-a,,,,AAXX 08064 07280 02130 82002 11020 21020 39876 40161 57005 61000 71074 885// 90600 333 11017 21030 6100=
07280,1997-12-08 09:00:00,-1,1016.5,0.5,100,-1,2500,3.704,,,170,,,,0,,,,,,10,wg-a,,,,AAXX 08094 07280 12225 71702 11010 21010 39881 40165 53005 60007 71062 81732 90900=
07280,1997-12-08 12:00:00,4,1014.2,-1.7,87,2,4500,11.112,,,180,,,,,,,,,,10,wg-a,,,,AAXX 08124 07280 12645 21806 10040 20020 39864 40142 58017 60006 71061 81531 91200=
07280,1997-12-08 15:00:00,6,1012.8,-1.2,75,2,7000,7.408,,,230,,,,,,,,,,,wg-a,,,,AAXX 08154 07280 12/57 22304 10060 20020 39852 40128 56012 60006 8203/ 91500=
07280,1997-12-08 17:00:00,0,1013.5,0.1,100,0,500,3.704,,,250,-1.7,6.5,,,,,,,,,wg-a,,,,AAXX 08174 07280 32600 52502 10000 20000 39854 40135 53001 81531 91700 333 10065 21017=
07280,1997-12-08 18:00:00,0,1013.5,0.1,100,0,500,3.704,,,250,-1.7,6.5,,,,,,,,,wg-a,,,,AAXX 08184 07280 12600 52502 10000 20000 39853 40135 53001 60006 81531 91800 333 10065 21017=
07280,1997-12-08 21:00:00,-1,1013.4,-0.2,100,-1,500,0,,,0,,,,,,,,,,11,wg-a,,,,AAXX 08214 07280 12600 70000 11010 21010 39851 40134 58002 60006 71122 81531 92100=
07280,1997-12-09 00:00:00,0,1013.5,0.2,100,0,4500,3.704,,,10,,,,,,,,,,10,wg-a,,,,AAXX 09004 07280 12645 80102 10000 20000 39853 40135 53002 60006 71022 8453/ 90000=
07280,1997-12-09 03:00:00,3,1013.5,0.3,100,3,4000,11.112,,,190,,,,0,,,,,,10,wg-a,,,,AAXX 09034 07280 12640 81906 10030 20030 39856 40135 50003 60007 71062 8557/ 90300=
07280,1997-12-09 06:00:00,3,1014.7,1.2,100,3,4000,14.816,,,200,-2,3.5,,,,,,,,10,wg-a,,,,AAXX 09064 07280 02540 82008 10030 20030 39868 40147 53012 61000 71062 875// 90600 333 10035 21020 6001=
07280,1997-12-09 09:00:00,5,1016.9,2.3,100,5,900,11.112,,,200,,,,,,,,,,42,wg-a,,,,AAXX 09094 07280 12109 /2006 10050 20050 39891 40169 52023 60006 74241 86500 90900=
07280,1997-12-09 12:00:00,10,1016.6,0.2,82,7,15000,14.816,,,190,,,,,,,,,,3,wg-a,,,,AAXX 09124 07280 12465 51908 10100 20070 39893 40166 51002 60006 70341 84801 91200=
07280,1997-12-09 18:00:00,7,1019.2,1.5,93,6,20000,14.816,,,200,2.8,11.1,,,,,,,,,wg-a,,,,AAXX 09184 07280 12670 72008 10070 20060 39916 40192 51015 60006 875// 91800 333 10111 20028=
07280,1997-12-09 21:00:00,7,1019.9,0.6,100,7,15000,14.816,,,200,,,,,,,,,,,wg-a,,,,AAXX 09214 07280 12665 82008 10070 20070 39922 40199 53006 60006 885// 92100=
07280,1997-12-10 00:00:00,7,1019.4,-0.5,93,6,12000,18.52,,,190,,,,,,,,,,,wg-a,,,,AAXX 10004 07280 12762 81910 10070 20060 39917 40194 58005 60006 885// 90000=
07280,1997-12-10 03:00:00,6,1018.9,-0.6,93,5,12000,18.52,,,190,,,,,,,,,,,wg-a,,,,AAXX 10034 07280 12662 71910 10060 20050 39911 40189 58006 60006 8553/ 90300=
07280,1997-12-10 06:00:00,6,1017.9,-0.9,93,5,15000,11.112,,,190,4.8,7.4,,,,,,,,,wg-a,,,,AAXX 10064 07280 02665 21906 10060 20050 39902 40179 58009 60006 82500 90600 333 10074 20048 60004=
07280,1997-12-10 09:00:00,6,1017.3,-0.6,93,5,7000,18.52,,,200,,,,,,,,,,,wg-a,,,,AAXX 10094 07280 12557 82010 10060 20050 39896 40173 58006 60006 875// 90900=
07280,1997-12-10 12:00:00,6,1015.9,-1.3,100,6,7000,22.224,,,200,,,,1,,,,,,61,wg-a,,,,AAXX 10124 07280 02657 82012 10060 20060 39883 40159 58013 60016 76161 8257/ 91200 333 60017=
07280,1997-12-10 18:00:00,7,1016.4,1.2,100,7,6000,31.484,,,200,5.3,6.6,,,,,,,,51,wg-a,,,,AAXX 10184 07280 02256 82017 10070 20070 39888 40164 51012 61000 75165 887// 91800 333 10066 20053 6001=
07280,1997-12-10 21:00:00,7,1017.3,0.9,100,7,6000,29.632,,,190,,,,,,,,,,2,wg-a,,,,AAXX 10214 07280 02256 81916 10070 20070 39897 40173 51009 61000 70252 887// 92100 333 ////=
07280,1997-12-11 00:00:00,8,1017.1,-0.1,93,7,500,25.928,,,200,,,,,,,,,,1,wg-a,,,,AAXX 11004 07280 02200 82014 10080 20070 39896 40171 58001 61000 70152 887// 90000 333 6100=
07280,1997-12-11 03:00:00,8,1015.6,-1.5,93,7,500,22.224,,,200,,,,0,,,,,,,wg-a,,,,AAXX 11034 07280 12200 82012 10080 20070 39881 40156 58015 60007 885// 90300=
07280,1997-12-11 06:00:00,8,1014.1,-1.4,100,8,6000,29.632,,,200,6.6,7.7,,,,,,,,61,wg-a,,,,AAXX 11064 07280 02256 82016 10080 20080 39867 40141 58014 61000 76162 886// 90600 333 10077 20066 6007=
07280,1997-12-11 09:00:00,9,1014,-0,100,9,3000,25.928,,,200,,,,1,,,,,,10,wg-a,,,,AAXX 11094 07280 12130 82014 10090 20090 39867 40140 55000 60017 71065 886// 90900=
07280,1997-12-11 12:00:00,11,1012.2,-1.6,94,10,500,22.224,,,200,,,,1,,,,,,51,wg-a,,,,AAXX 11124 07280 02400 82012 10110 20100 39851 40122 58016 60016 75165 888// 91200 333 60017=
07280,1997-12-11 15:00:00,13,1010.8,-1.1,94,12,9000,25.928,,,200,,,,1,,,,,,61,wg-a,,,,AAXX 11154 07280 12459 82014 10130 20120 39840 40108 56011 60017 76166 885// 91500=
07280,1997-12-11 18:00:00,12,1010.3,-0.6,100,12,8000,22.224,,,200,7.7,13,,,,,,,,61,wg-a,,,,AAXX 11184 07280 02258 82012 10120 20120 39834 40103 58006 61000 76166 877// 91800 333 10130 20077 6001=
07280,1997-12-11 21:00:00,12,1009.9,-0.4,94,11,15000,11.112,,,240,,,,1,,,,,,1,wg-a,,,,AAXX 11214 07280 12465 82406 10120 20110 39830 40099 55004 60017 70162 875// 92100=
07280,1997-12-12 00:00:00,11,1011.3,1.2,71,6,15000,18.52,,,250,,,,,,,,,,1,wg-a,,,,AAXX 12004 07280 12565 /2510 10110 20060 39842 40113 53012 60016 70186 83507 90000=
07280,1997-12-12 03:00:00,9,1013.1,1.6,81,6,15000,11.112,,,210,,,,,,,,,,,wg-a,,,,AAXX 12034 07280 12665 42106 10090 20060 39858 40131 53016 60006 84500 90300=
07280,1997-12-12 06:00:00,8,1014.9,1.7,81,5,15000,11.112,,,240,7.7,12.5,,,,,4,,,,wg-a,,,,AAXX 12064 07280 02565 /2406 10080 20050 39875 40149 53017 60006 85500 90600 333 10125 20077 60044=
07280,1997-12-12 12:00:00,8,1017.9,1.2,81,5,15000,22.224,,,280,,,,,,,,,,60,wg-a,,,,AAXX 12124 07280 02565 82812 10080 20050 39904 40179 51012 60006 76086 8687/ 91200 333 61000=
07280,1997-12-12 18:00:00,7,1023,2.9,87,5,15000,18.52,,,320,7.2,8.9,,,,,,,,3,wg-a,,,,AAXX 12184 07280 02465 83210 10070 20050 39953 40230 52029 60006 70362 888// 91800 333 10089 20072 61000=
07280,1997-12-12 21:00:00,6,1025.3,2.1,81,3,20000,14.816,,,320,,,,,,,,,,,wg-a,,,,AAXX 12214 07280 12470 33208 10060 20030 39974 40253 51021 60006 83500 92100=
07280,1997-12-13 00:00:00,6,1026.7,1.3,81,3,20000,7.408,,,290,,,,,,,,,,,wg-a,,,,AAXX 13004 07280 12470 82904 10060 20030 39987 40267 51013 60006 888// 90000=
07280,1997-12-13 06:00:00,5,1029.6,1.6,93,4,15000,7.408,,,330,5.1,7.4,,,,,,,,61,wg-a,,,,AAXX 13064 07280 02465 83304 10050 20040 30015 40296 53016 61000 76186 888// 90600 333 10074 20051 6000=
07280,1997-12-13 09:00:00,5,1031,1.3,93,4,25000,7.408,,,10,,,,1,,,,,,3,wg-a,,,,AAXX 13094 07280 12475 /0104 10050 20040 30028 40310 53013 60017 70361 86800 90900=
07280,1997-12-13 12:00:00,8,1030.9,0.2,71,3,40000,22.224,,,10,,,,,,,,,,3,wg-a,,,,AAXX 13124 07280 12582 /0112 10080 20030 30030 40309 50002 60016 70361 85800 91200=
07280,1997-12-13 15:00:00,7,1032.1,1,70,2,500,18.52,,,350,,,,,,,,,,,wg-a,,,,AAXX 13154 07280 12500 73510 10070 20020 30040 40321 53010 60006 87800 91500=
07280,1997-12-13 18:00:00,4,1033.5,1.1,87,2,20000,14.816,,,350,3.6,7.5,,,,,,,,,wg-a,,,,AAXX 13184 07280 12670 73508 10040 20020 30051 40335 51011 60006 875// 91800 333 10075 20036=
07280,1997-12-14 00:00:00,1,1033.7,-0.3,100,1,15000,11.112,,,350,,,,,,,,,,,wg-a,,,,AAXX 14004 07280 12/65 03506 10010 20010 30050 40337 58003 60006 80000 90000=
07280,1997-12-14 03:00:00,-1,1033.7,-0.2,100,-1,4000,3.704,,,360,,,,,,,,,,10,wg-a,,,,AAXX 14034 07280 12640 /3602 11010 21010 30048 40337 58002 60006 71000 81500 90300=
07280,1997-12-14 06:00:00,0,1032.6,-0.9,100,0,300,11.112,,,20,-1.4,3.7,,,,,1,,,43,wg-a,,,,AAXX 14064 07280 02/03 90206 10000 20000 30039 40326 58009 60006 74341 89/// 90600 333 10037 21014 60014=
07280,1997-12-14 09:00:00,0,1032.5,-0.2,100,0,200,7.408,,,20,,,,,,,,,,45,wg-a,,,,AAXX 14094 07280 12/02 90204 10000 20000 30037 40325 58002 60006 74544 89/// 90900=
07280,1997-12-14 12:00:00,1,1030.1,-2.2,100,1,200,3.704,,,150,,,,,,,,,,43,wg-a,,,,AAXX 14124 07280 12/02 91502 10010 20010 30015 40301 58022 60006 74344 89/// 91200=
07280,1997-12-14 15:00:00,2,1027.5,-2.4,100,2,700,7.408,,,200,,,,,,,,,,43,wg-a,,,,AAXX 14154 07280 12/07 92004 10020 20020 39991 40275 56024 60006 74344 89/// 91500=
07280,1997-12-14 18:00:00,1,1025.9,-1.6,100,1,3000,0,,,0,-0.5,1.6,,,,,,,,10,wg-a,,,,AAXX 14184 07280 02130 80000 10010 20010 39975 40259 56016 61000 71064 885// 91800 333 10016 21005 6000=
07280,1997-12-14 21:00:00,3,1024.1,-1.6,100,3,10000,14.816,,,350,,,,,,,,,,1,wg-a,,,,AAXX 14214 07280 02460 43508 10030 20030 39959 40241 58016 61000 70161 84500 92100 333 ////=
07280,1997-12-15 00:00:00,2,1022.6,-1.5,93,1,15000,22.224,,,360,,,,,,,,,,3,wg-a,,,,AAXX 15004 07280 02665 /3612 10020 20010 39944 40226 58015 61000 70361 86500 90000 333 ////=
07280,1997-12-15 03:00:00,3,1021.3,-1.2,93,2,12000,18.52,,,20,,,,,,,,,,60,wg-a,,,,AAXX 15034 07280 02562 70210 10030 20020 39932 40213 56012 61000 76062 875// 90300 333 ////=
07280,1997-12-15 06:00:00,1,1021.2,-0.3,86,-1,15000,18.52,,,20,0.9,3.3,,,,,1,,,3,wg-a,,,,AAXX 15064 07280 02465 /0210 10010 21010 39929 40212 57003 60006 70361 85500 90600 333 10033 20009 60014=
07280,1997-12-15 09:00:00,1,1021.2,-0,86,-1,500,25.928,,,30,,,,,,,,,,,wg-a,,,,AAXX 15094 07280 12500 70314 10010 21010 39929 40212 55000 60006 878// 90900=
07280,1997-12-15 12:00:00,3,1020.3,-0.7,75,-1,40000,29.632,,,30,,,,,,,,,,,wg-a,,,,AAXX 15124 07280 12582 70316 10030 21010 39922 40203 58007 60006 875// 91200=
07280,1997-12-15 15:00:00,3,1020.3,-0,75,-1,40000,25.928,,,40,,,,,,,,,,,wg-a,,,,AAXX 15154 07280 12582 70414 10030 21010 39922 40203 55000 60006 875// 91500=
07280,1997-12-15 18:00:00,2,1020.8,0.4,75,-2,20000,18.52,,,40,0.6,3.2,,,,,,,,,wg-a,,,,AAXX 15184 07280 12570 70410 10020 21020 39926 40208 53004 60006 875// 91800 333 10032 20006=
07280,1997-12-16 00:00:00,1,1020,-0.8,80,-2,20000,22.224,,,40,,,,,,,,,,,wg-a,,,,AAXX 16004 07280 12570 70412 10010 21020 39917 40200 56008 60006 875// 90000=
07280,1997-12-16 03:00:00,0,1018.9,-1.2,74,-4,20000,29.632,,,50,,,,,,,,,,,wg-a,,,,AAXX 16034 07280 12670 20516 10000 21040 39905 40189 58012 60006 82500 90300=
07280,1997-12-16 06:00:00,-1,1017.3,-1.6,74,-5,20000,25.928,,,50,-0.7,2.3,,,,,,,,,wg-a,,,,AAXX 16064 07280 02670 70514 11010 21050 39889 40173 57016 60006 875// 90600 333 10023 21007 60004=
07280,1997-12-16 15:00:00,1,1014,-1.2,69,-4,20000,18.52,,,40,,,,,,,,,,,wg-a,,,,AAXX 16154 07280 12/70 50410 10010 21040 39859 40140 58012 60006 83052 91500=
07280,1997-12-16 18:00:00,-1,1012.9,-1.3,74,-5,15000,18.52,,,30,-1.5,2.2,,,,,,,,,wg-a,,,,AAXX 16184 07280 12/65 30310 11010 21050 39846 40129 57013 60006 80001 91800 333 10022 21015=
07280,1997-12-16 21:00:00,-1,1011.4,-1.5,74,-5,12000,18.52,,,20,,,,,,,,,,,wg-a,,,,AAXX 16214 07280 12/62 80210 11010 21050 39831 40114 56015 60006 83034 92100=
07280,1997-12-17 00:00:00,-1,1010.8,-0.6,74,-5,8000,3.704,,,360,,,,,,,,,,70,wg-a,,,,AAXX 17004 07280 02658 83602 11010 21050 39825 40108 56006 61000 77071 8757/ 90000 333 6100=
07280,1997-12-17 03:00:00,-1,1008.2,-2.5,86,-3,8000,14.816,,,20,,,,1,,,,,,24,wg-a,,,,AAXX 17034 07280 12558 80208 11010 21030 39800 40082 56025 60017 72476 875// 90300=
07280,1997-12-17 06:00:00,-1,1007.1,-1,93,-2,8000,7.408,,,20,-1.6,-0.7,,,,,2,,,1,wg-a,,1,,AAXX 17064 07280 02758 80204 11010 21020 39790 40071 55010 60006 70176 875// 90600 333 11007 21016 4/001 60024=
07280,1997-12-17 09:00:00,0,1007.2,0.1,86,-2,8000,11.112,,,20,,,,0,,,,,,79,wg-a,,,,AAXX 17094 07280 12/58 80206 10000 21020 39791 40072 52001 60007 77972 8802/ 90900=
07280,1997-12-17 12:00:00,0,1006.6,-0.5,100,0,500,11.112,,,20,,,,2,,,,,,61,wg-a,,,,AAXX 17124 07280 02/00 80206 10000 20000 39786 40066 58005 60026 76176 8802/ 91200 333 60027=
07280,1997-12-17 15:00:00,1,1006.8,0.2,93,0,500,11.112,,,350,,,,3,,,,,,10,wg-a,,,,AAXX 17154 07280 12700 83506 10010 20000 39788 40068 53002 60037 71066 8652/ 91500=
07280,1997-12-17 18:00:00,1,1007,0.3,100,1,6000,11.112,,,360,-0.7,0.9,,,,,,,,10,wg-a,,,,AAXX 17184 07280 02756 83606 10010 20010 39791 40070 50003 61000 71066 8552/ 91800 333 10009 21007 6001=
07280,1997-12-17 21:00:00,1,1007.2,0.2,100,1,10000,11.112,,,350,,,,,,,,,,3,wg-a,,,,AAXX 17214 07280 02660 73506 10010 20010 39793 40072 50002 61000 70361 875// 92100 333 ////=
07280,1997-12-18 00:00:00,2,1007,-0.1,93,1,9000,7.408,,,350,,,,,,,,,,3,wg-a,,,,AAXX 18004 07280 02659 /3504 10020 20010 39792 40070 58001 61000 70361 86530 90000 333 ////=
07280,1997-12-18 03:00:00,2,1006.4,-0.6,93,1,9000,7.408,,,340,,,,,,,,,,,wg-a,,,,AAXX 18034 07280 12659 /3404 10020 20010 39786 40064 58006 60006 85530 90300=
07280,1997-12-18 06:00:00,3,1006.2,-0.1,93,2,10000,7.408,,,70,0.4,2.7,,,,,,,,61,wg-a,,,,AAXX 18064 07280 02760 80704 10030 20020 39785 40062 55001 61000 76162 8452/ 90600 333 10027 20004 6006=
07280,1997-12-18 09:00:00,3,1006.6,0.4,100,3,2500,7.408,,,320,,,,8,,,,,,10,wg-a,,,,AAXX 18094 07280 12525 83204 10030 20030 39789 40066 53004 60087 71066 8252/ 90900=
07280,1997-12-18 12:00:00,5,1004.8,-1.5,100,5,2500,3.704,,,40,,,,5,,,,,,10,wg-a,,,,AAXX 18124 07280 02725 80402 10050 20050 39774 40048 58015 60136 71066 8552/ 91200 333 60057=
07280,1997-12-18 15:00:00,6,1004.3,-0.4,100,6,1800,7.408,,,350,,,,3,,,,,,10,wg-a,,,,AAXX 18154 07280 12718 83504 10060 20060 39770 40043 56004 60037 71066 8552/ 91500=
07280,1997-12-18 18:00:00,6,1004.2,-0.2,100,6,3000,0,,,0,2.4,6.2,,,,,,,,10,wg-a,,,,AAXX 18184 07280 02130 80000 10060 20060 39768 40042 57002 61000 71066 8652/ 91800 333 10062 20024 6002=
07280,1997-12-18 21:00:00,5,1002.2,-1.9,100,5,1500,3.704,,,290,,,,5,,,,,,10,wg-a,,,,AAXX 18214 07280 12115 82902 10050 20050 39749 40022 56019 60057 71066 875// 92100=
07280,1997-12-19 00:00:00,6,1001.2,-1,100,6,4000,3.704,,,310,,,,4,,,,,,10,wg-a,,,,AAXX 19004 07280 02240 83102 10060 20060 39739 40012 56010 60086 71066 875// 90000 333 60047=
07280,1997-12-19 03:00:00,8,1001.8,0.8,93,7,12000,14.816,,,210,,,,2,,,,,,1,wg-a,,,,AAXX 19034 07280 12462 42108 10080 20070 39747 40018 53008 60027 70161 84500 90300=
07280,1997-12-19 06:00:00,6,1001.9,-0.1,100,6,12000,11.112,,,160,5.2,8.6,,,,,29,,,3,wg-a,,,,AAXX 19064 07280 02462 /1606 10060 20060 39746 40019 57001 60006 70361 83510 90600 333 10086 20052 60294=
07280,1997-12-19 09:00:00,8,1002.8,1.1,100,8,9000,11.112,,,200,,,,2,,,,,,61,wg-a,,,,AAXX 19094 07280 12259 82006 10080 20080 39757 40028 53011 60027 76186 8587/ 90900=
07280,1997-12-19 12:00:00,9,1002.3,-0.4,100,9,8000,18.52,,,160,,,,6,,,,,,61,wg-a,,,,AAXX 19124 07280 02358 /1610 10090 20090 39753 40023 58004 60086 76186 8557/ 91200 333 60067=
07280,1997-12-19 15:00:00,9,1002,-0.3,93,8,15000,7.408,,,170,,,,0,,,,,,21,wg-a,,,,AAXX 19154 07280 12365 /1704 10090 20080 39750 40020 57003 60007 72162 84802 91500=
07280,1997-12-19 18:00:00,7,1002.4,0.2,100,7,10000,3.704,,,310,5.8,9.2,,,,,,,,11,wg-a,,,,AAXX 19184 07280 02760 73102 10070 20070 39752 40024 53002 60006 71162 83502 91800 333 10092 20058 61000=
07280,1997-12-19 21:00:00,5,1002.9,0.3,100,5,2000,3.704,,,50,,,,,,,,,,28,wg-a,,,,AAXX 19214 07280 12120 90502 10050 20050 39755 40029 50003 60006 72842 895// 92100=
07280,1997-12-20 00:00:00,5,1001.7,-1.1,100,5,1000,7.408,,,20,,,,,,,,,,10,wg-a,,,,AAXX 20004 07280 12710 80204 10050 20050 39744 40017 58011 60006 71042 82502 90000=
07280,1997-12-20 03:00:00,5,1001.4,-0.3,100,5,1500,7.408,,,350,,,,,,,,,,10,wg-a,,,,AAXX 20034 07280 12415 83504 10050 20050 39741 40014 56003 60006 71042 886// 90300=
07280,1997-12-20 06:00:00,6,1001.3,-0,100,6,4000,0,,,0,4.1,7,,,,,,,,10,wg-a,,,,AAXX 20064 07280 02440 80000 10060 20060 39741 40013 55000 61000 71064 886// 90600 333 10070 20041 6008=
07280,1997-12-20 09:00:00,6,1002.6,1.2,100,6,1200,3.704,,,260,,,,0,,,,,,10,wg-a,,,,AAXX 20094 07280 12212 82602 10060 20060 39753 40026 53012 60007 71064 8552/ 90900=
07280,1997-12-20 15:00:00,8,1003.9,1,100,8,500,3.704,,,220,,,,1,,,,,,10,wg-a,,,,AAXX 20154 07280 12400 82202 10080 20080 39768 40039 53010 60017 71066 8652/ 91500=
07280,1997-12-20 18:00:00,7,1005.7,1.6,100,7,7000,7.408,,,220,5.8,8,,1,,,,,,1,wg-a,,,,AAXX 20184 07280 02657 82204 10070 20070 39784 40057 52016 60006 70162 81502 91800 333 10080 20058 60017=
07280,1997-12-20 21:00:00,5,1006.7,0.8,100,5,7000,3.704,,,200,,,,,,,,,,,wg-a,,,,AAXX 20214 07280 12757 82002 10050 20050 39792 40067 51008 60006 8157/ 92100=
07280,1997-12-21 00:00:00,5,1007.5,0.8,100,5,200,3.704,,,210,,,,,,,,,,45,wg-a,,,,AAXX 21004 07280 12/02 92102 10050 20050 39800 40075 52008 60006 74542 89/// 90000=
07280,1997-12-21 03:00:00,5,1008,0.4,100,5,200,11.112,,,220,,,,,,,,,,45,wg-a,,,,AAXX 21034 07280 12/02 92206 10050 20050 39804 40080 50004 60006 74544 89/// 90300=
07280,1997-12-21 06:00:00,3,1008.8,0.6,100,3,800,0,,,0,2.9,6.8,,,,,3,,,42,wg-a,,,,AAXX 21064 07280 02108 70000 10030 20030 39810 40088 53006 60006 74244 875// 90600 333 10068 20029 60034=
07280,1997-12-21 09:00:00,4,1009.9,1.2,100,4,4500,3.704,,,220,,,,,,,,,,10,wg-a,,,,AAXX 21094 07280 12645 82202 10040 20040 39822 40099 53012 60006 71042 83501 90900=
07280,1997-12-21 12:00:00,8,1009.8,0.4,87,6,15000,11.112,,,290,,,,,,,,,,3,wg-a,,,,AAXX 21124 07280 12465 72906 10080 20060 39826 40098 51004 60006 70342 878// 91200=
07280,1997-12-21 15:00:00,6,1010.8,0.7,93,5,12000,18.52,,,290,,,,,,,,,,,wg-a,,,,AAXX 21154 07280 12462 72910 10060 20050 39833 40108 53007 60006 876// 91500=
07280,1997-12-21 18:00:00,6,1012.1,1.2,87,4,10000,18.52,,,290,2.9,8.4,,,,,,,,,wg-a,,,,AAXX 21184 07280 12460 82910 10060 20040 39845 40121 51012 60006 886// 91800 333 10084 20029=
07280,1997-12-21 21:00:00,5,1013,0.9,93,4,8000,18.52,,,290,,,,,,,,,,,wg-a,,,,AAXX 21214 07280 12358 82910 10050 20040 39854 40130 53009 60006 886// 92100=
07280,1997-12-22 00:00:00,5,1013.8,0.7,93,4,8000,14.816,,,280,,,,,,,,,,,wg-a,,,,AAXX 22004 07280 12458 82808 10050 20040 39861 40138 51007 60006 886// 90000=
07280,1997-12-22 03:00:00,6,1014.5,0.7,87,4,8000,11.112,,,290,,,,,,,,,,,wg-a,,,,AAXX 22034 07280 12458 82906 10060 20040 39868 40145 52007 60006 885// 90300=
07280,1997-12-22 06:00:00,5,1014.6,0.1,93,4,8000,3.704,,,250,5.1,5.7,,,,,,,,,wg-a,,,,AAXX 22064 07280 02458 82502 10050 20040 39869 40146 53001 60006 885// 90600 333 10057 20051 60004=
07280,1997-12-22 09:00:00,5,1015.5,0.8,93,4,10000,7.408,,,260,,,,,,,,,,,wg-a,,,,AAXX 22094 07280 12360 82604 10050 20040 39877 40155 53008 60006 888// 90900=
07280,1997-12-22 12:00:00,6,1014.5,-0.8,87,4,12000,7.408,,,110,,,,,,,,,,,wg-a,,,,AAXX 22124 07280 12262 81104 10060 20040 39869 40145 57008 60006 888// 91200=
07280,1997-12-22 15:00:00,6,1014.9,0.4,81,3,12000,3.704,,,260,,,,,,,,,,,wg-a,,,,AAXX 22154 07280 12462 82602 10060 20030 39873 40149 53004 60006 888// 91500=
07280,1997-12-22 18:00:00,5,1015.1,-0,93,4,12000,3.704,,,180,4.4,6,,,,,,,,,wg-a,,,,AAXX 22184 07280 12562 81802 10050 20040 39873 40151 55000 60006 885// 91800 333 10060 20044=
07280,1997-12-22 21:00:00,4,1015.4,0.2,93,3,12000,0,,,0,,,,,,,,,,,wg-a,,,,AAXX 22214 07280 12562 /0000 10040 20030 39875 40154 53002 60006 86500 92100=
07280,1997-12-23 00:00:00,0,1016.2,0.4,100,0,200,3.704,,,110,,,,,,,,,,44,wg-a,,,,AAXX 23004 07280 12/02 01102 10000 20000 39879 40162 50004 60006 74441 80000 90000=
07280,1997-12-23 03:00:00,2,1017.3,1.3,100,2,2500,3.704,,,30,,,,,,,,,,10,wg-a,,,,AAXX 23034 07280 12425 80302 10020 20020 39892 40173 51013 60006 71041 886// 90300=
07280,1997-12-23 06:00:00,3,1018.7,1.4,100,3,500,3.704,,,120,-0.8,4.6,,,,,,,,3,wg-a,,,,AAXX 23064 07280 02400 81202 10030 20030 39906 40187 53014 60006 70341 886// 90600 333 10046 21008 60004=
07280,1997-12-23 12:00:00,6,1022.6,1.4,93,5,8000,14.816,,,200,,,,,,,,,,,wg-a,,,,AAXX 23124 07280 12458 /2008 10060 20050 39948 40226 51014 60006 86800 91200=
07280,1997-12-23 15:00:00,6,1024.8,2.1,93,5,6000,11.112,,,180,,,,,,,,,,,wg-a,,,,AAXX 23154 07280 12456 81806 10060 20050 39969 40248 53021 60006 885// 91500=
07280,1997-12-23 18:00:00,6,1026.8,2,100,6,8000,11.112,,,180,2.6,6.4,,,,,,,,,wg-a,,,,AAXX 23184 07280 12458 71806 10060 20060 39989 40268 51020 60006 875// 91800 333 10064 20026=
07280,1997-12-23 21:00:00,6,1028.2,1.3,100,6,8000,11.112,,,180,,,,,,,,,,,wg-a,,,,AAXX 23214 07280 12458 71806 10060 20060 30002 40282 51013 60006 875// 92100=
07280,1997-12-24 00:00:00,7,1028.4,0.3,93,6,500,18.52,,,200,,,,,,,,,,,wg-a,,,,AAXX 24004 07280 12200 82010 10070 20060 30005 40284 53003 60006 885// 90000=
07280,1997-12-24 03:00:00,7,1028.9,0.5,93,6,500,18.52,,,200,,,,,,,,,,,wg-a,,,,AAXX 24034 07280 12500 82010 10070 20060 30010 40289 51005 60006 885// 90300=
07280,1997-12-24 06:00:00,7,1028.8,-0.1,100,7,500,22.224,,,210,5.6,7,,,,,,,,,wg-a,,,,AAXX 24064 07280 02200 82112 10070 20070 30009 40288 55001 60006 886// 90600 333 10070 20056 60004=
07280,1997-12-24 09:00:00,7,1029.4,0.6,100,7,7000,11.112,,,190,,,,,,,,,,,wg-a,,,,AAXX 24094 07280 12257 81906 10070 20070 30015 40294 53006 60006 876// 90900=
07280,1997-12-24 12:00:00,8,1027.7,-1.5,100,8,6000,14.816,,,190,,,,0,,,,,,20,wg-a,,,,AAXX 24124 07280 02256 81908 10080 20080 30000 40277 58015 60006 72052 875// 91200 333 60007=
07280,1997-12-24 15:00:00,9,1025.5,-2.1,93,8,12000,11.112,,,190,,,,,,,,,,,wg-a,,,,AAXX 24154 07280 12562 /1906 10090 20080 39979 40255 56021 60006 83531 91500=
07280,1997-12-24 18:00:00,8,1024.6,-1,93,7,10000,14.816,,,200,6.8,9.9,,,,,,,,,wg-a,,,,AAXX 24184 07280 12560 82008 10080 20070 39969 40246 58010 60006 82534 91800 333 10099 20068=
07280,1997-12-24 21:00:00,8,1024.7,0.1,93,7,8000,18.52,,,200,,,,1,,,,,,60,wg-a,,,,AAXX 24214 07280 12658 82010 10080 20070 39970 40247 51001 60017 76062 875// 92100=
07280,1997-12-25 00:00:00,8,1024.8,0.2,100,8,8000,22.224,,,200,,,,,,,,,,3,wg-a,,,,AAXX 25004 07280 12558 82012 10080 20080 39972 40248 53002 60016 70362 875// 90000=
07280,1997-12-25 06:00:00,8,1023.7,-0.9,100,8,8000,18.52,,,180,7.3,8.7,,,,,1,,,,wg-a,,,,AAXX 25064 07280 02658 /1810 10080 20080 39961 40237 56009 60006 86500 90600 333 10087 20073 60014=
07280,1997-12-25 09:00:00,9,1023.3,-0.4,93,8,15000,14.816,,,210,,,,,,,,,,,wg-a,,,,AAXX 25094 07280 12565 82108 10090 20080 39957 40233 58004 60006 885// 90900=
07280,1997-12-25 12:00:00,12,1019.9,-3,82,9,15000,22.224,,,210,,,,,,,,,,,wg-a,,,,AAXX 25124 07280 12665 72112 10120 20090 39927 40199 58030 60006 83532 91200=
07280,1997-12-25 15:00:00,12,1017,-2.8,82,9,20000,29.632,,,200,,,,,,,,,,,wg-a,,,,AAXX 25154 07280 12770 72016 10120 20090 39899 40170 56028 60006 82532 91500=
07280,1997-12-25 18:00:00,10,1015.6,-1.5,87,8,15000,29.632,,,200,7.9,12.4,,,,,,,,,wg-a,,,,AAXX 25184 07280 12765 82016 10100 20080 39884 40156 58015 60006 8457/ 91800 333 10124 20079=
07280,1997-12-25 21:00:00,11,1015.3,-0.2,94,10,10000,25.928,,,210,,,,0,,,,,,3,wg-a,,,,AAXX 25214 07280 12660 82114 10110 20100 39882 40153 58002 60007 70362 875// 92100=
07280,1997-12-26 00:00:00,11,1015.3,0,66,5,10000,25.928,,,220,,,,0,,,,,,2,wg-a,,,,AAXX 26004 07280 02660 72214 10110 20050 39882 40153 50000 60016 70262 8553/ 90000 333 60007=
07280,1997-12-26 03:00:00,10,1015.6,0.1,76,6,10000,18.52,,,210,,,,,,,,,,,wg-a,,,,AAXX 26034 07280 12760 72110 10100 20060 39883 40156 53001 60006 8253/ 90300=
07280,1997-12-26 06:00:00,9,1014.5,-1.1,81,6,10000,29.632,,,210,8.9,12.4,,,,,,,,,wg-a,,,,AAXX 26064 07280 02560 72116 10090 20060 39872 40145 56011 60006 8483/ 90600 333 10124 20089 60004=
07280,1997-12-26 09:00:00,9,1014.6,-0,76,5,500,18.52,,,200,,,,,,,,,,1,wg-a,,,,AAXX 26094 07280 02500 /2010 10090 20050 39872 40146 55000 61000 70186 81232 90900 333 ////=
07280,1997-12-26 12:00:00,10,1012.8,-1.6,76,6,40000,22.224,,,220,,,,0,,,,,,1,wg-a,,,,AAXX 26124 07280 02582 /2212 10100 20060 39856 40128 58016 60006 70186 83202 91200 333 60007=
07280,1997-12-26 18:00:00,7,1011,-0.5,87,5,20000,22.224,,,200,6.8,11.1,,,,,,,,25,wg-a,,,,AAXX 26184 07280 02470 42012 10070 20050 39836 40110 56005 61000 72586 84200 91800 333 10111 20068 6003=
07280,1997-12-26 21:00:00,6,1012.4,1.2,87,4,25000,14.816,,,230,,,,1,,,,,,25,wg-a,,,,AAXX 26214 07280 12575 22308 10060 20040 39848 40124 53012 60017 72586 82200 92100=
07280,1997-12-27 00:00:00,3,1013.2,0.6,100,3,25000,3.704,,,200,,,,,,,,,,2,wg-a,,,,AAXX 27004 07280 12675 /2002 10030 20030 39854 40132 51006 60016 70286 81500 90000=
07280,1997-12-27 03:00:00,2,1013.3,-0.1,100,2,20000,7.408,,,170,,,,,,,,,,,wg-a,,,,AAXX 27034 07280 12570 /1704 10020 20020 39853 40133 58001 60006 81200 90300=
07280,1997-12-27 06:00:00,2,1013.2,-0.1,93,1,15000,7.408,,,230,1.4,7.4,,,,,6,,,,wg-a,,,,AAXX 27064 07280 02765 52304 10020 20010 39852 40132 55001 60006 85500 90600 333 10074 20014 60064=
07280,1997-12-27 09:00:00,4,1014.1,1.1,100,4,10000,7.408,,,180,,,,,,,,,,,wg-a,,,,AAXX 27094 07280 12560 71804 10040 20040 39863 40141 53011 60006 875// 90900=
07280,1997-12-27 12:00:00,7,1013.3,-0.5,93,6,9000,11.112,,,210,,,,,,,,,,80,wg-a,,,,AAXX 27124 07280 02459 82106 10070 20060 39858 40133 58005 61000 78086 888// 91200 333 6100=
07280,1997-12-27 15:00:00,7,1013.5,0.2,81,4,12000,7.408,,,290,,,,0,,,,,,1,wg-a,,,,AAXX 27154 07280 12562 /2904 10070 20040 39860 40135 53002 60007 70186 83202 91500=
07280,1997-12-27 18:00:00,6,1014.5,0.9,93,5,12000,11.112,,,220,1.3,7.7,,,,,,,,3,wg-a,,,,AAXX 27184 07280 12562 72206 10060 20050 39869 40145 53009 60006 70386 83802 91800 333 10077 20013=
07280,1997-12-27 21:00:00,5,1015.1,0.5,93,4,11000,7.408,,,240,,,,,,,,,,,wg-a,,,,AAXX 27214 07280 32/61 /2404 10050 20040 39874 40151 50005 92100=
07280,1997-12-28 00:00:00,5,1015.8,0.6,93,4,12000,3.704,,,230,,,,0,,,,,,2,wg-a,,,,AAXX 28004 07280 02462 72302 10050 20040 39880 40158 53006 60016 70286 878// 90000 333 60007=
07280,1997-12-28 03:00:00,5,1016.2,0.4,87,3,12000,14.816,,,270,,,,,,,,,,,wg-a,,,,AAXX 28034 07280 12462 72708 10050 20030 39884 40162 50004 60006 878// 90300=
07280,1997-12-28 06:00:00,5,1016.5,0.3,87,3,15000,11.112,,,260,4.4,6.1,,,,,1,,,,wg-a,,,,AAXX 28064 07280 02465 82606 10050 20030 39887 40165 53003 60006 872// 90600 333 10061 20044 60014=
07280,1997-12-28 09:00:00,4,1017.8,1.2,93,3,20000,11.112,,,220,,,,,,,,,,,wg-a,,,,AAXX 28094 07280 12570 72206 10040 20030 39899 40178 53012 60006 878// 90900=
07280,1997-12-28 12:00:00,7,1016.2,-1.3,70,2,25000,14.816,,,270,,,,,,,,,,,wg-a,,,,AAXX 28124 07280 12575 42708 10070 20020 39886 40162 58013 60006 83231 91200=
07280,1997-12-28 15:00:00,6,1015.8,-0.5,75,2,25000,0,,,0,,,,,,,,,,,wg-a,,,,AAXX 28154 07280 12575 60000 10060 20020 39881 40158 56005 60006 84801 91500=
07280,1997-12-28 18:00:00,2,1016.3,0.2,100,2,25000,3.704,,,190,2.4,8,,,,,,,,,wg-a,,,,AAXX 28184 07280 12575 21902 10020 20020 39883 40163 51002 60006 82800 91800 333 10080 20024=
07280,1997-12-28 21:00:00,-1,1016.2,-0.5,100,-1,20000,3.704,,,350,,,,,,,,,,11,wg-a,,,,AAXX 28214 07280 12/70 03502 11010 21010 39878 40162 58005 60006 71100 80000 92100=
07280,1997-12-29 00:00:00,-2,1015.7,-0.6,100,-2,1500,0,,,0,,,,,,,,,,12,wg-a,,,,AAXX 29004 07280 12615 30000 11020 21020 39872 40157 56006 60006 71200 83500 90000=
07280,1997-12-29 03:00:00,-4,1015.5,-0.4,100,-4,600,0,,,0,,,,,,,,,,48,wg-a,,,,AAXX 29034 07280 12506 20000 11040 21040 39868 40155 58004 60006 74840 82500 90300=
07280,1997-12-29 06:00:00,-3,1015.4,0.1,100,-3,500,0,,,0,-4.2,2.4,,,,,,,,49,wg-a,,,,AAXX 29064 07280 02/00 90000 11030 21030 39869 40154 53001 60006 74941 89/// 90600 333 10024 21042 60004=
07280,1997-12-29 09:00:00,-2,1016.1,0.7,100,-2,100,0,,,0,,,,,,,,,,49,wg-a,,,,AAXX 29094 07280 12/01 90000 11020 21020 39876 40161 51007 60006 74944 89/// 90900=
07280,1997-12-29 12:00:00,-1,1015.7,-0.3,100,-1,100,0,,,0,,,,,,,,,,45,wg-a,,,,AAXX 29124 07280 12/01 90000 11010 21010 39873 40157 58003 60006 74544 89/// 91200=
07280,1997-12-29 15:00:00,0,1015,-0.6,100,0,100,0,,,0,,,,,,,,,,45,wg-a,,,,AAXX 29154 07280 12/01 90000 10000 20000 39867 40150 56006 60006 74544 89/// 91500=
07280,1997-12-29 18:00:00,-1,1015.3,0.3,100,-1,100,0,,,0,-3,-0.2,,,,,,,,45,wg-a,,,,AAXX 29184 07280 12/01 90000 11010 21010 39870 40153 53003 60006 74544 89/// 91800 333 11002 21030=
07280,1997-12-30 00:00:00,-1,1014.6,-0.4,100,-1,100,0,,,0,,,,,,,,,,45,wg-a,,,,AAXX 30004 07280 12/01 90000 11010 21010 39862 40146 58004 60006 74544 89/// 90000=
07280,1997-12-30 03:00:00,-2,1015.3,0.7,100,-2,100,0,,,0,,,,,,,,,,49,wg-a,,,,AAXX 30034 07280 12/01 90000 11020 21020 39869 40153 51007 60006 74944 89/// 90300=
07280,1997-12-30 06:00:00,-1,1015,-0.3,100,-1,1000,0,,,0,-1.7,-0.4,,,,,,,,10,wg-a,,,,AAXX 30064 07280 02110 80000 11010 21010 39866 40150 55003 60006 71042 886// 90600 333 11004 21017 60004=
07280,1997-12-30 09:00:00,-1,1015.9,1,100,-1,300,0,,,0,,,,,,,,,,49,wg-a,,,,AAXX 30094 07280 12/03 90000 11010 21010 39876 40159 53010 60006 74942 89/// 90900=
07280,1997-12-30 12:00:00,2,1014.8,-0.8,100,2,6000,7.408,,,190,,,,,,,,,,1,wg-a,,,,AAXX 30124 07280 12256 71904 10020 20020 39868 40148 58008 60006 70142 8257/ 91200=
07280,1997-12-30 15:00:00,6,1013.5,-0.9,87,4,12000,11.112,,,190,,,,,,,,,,,wg-a,,,,AAXX 30154 07280 12762 71906 10060 20040 39859 40135 57009 60006 81571 91500=
07280,1997-12-30 18:00:00,3,1013.7,-0.1,100,3,6000,0,,,0,-1,6.3,,,,,,,,,wg-a,,,,AAXX 30184 07280 12/56 70000 10030 20030 39858 40137 55001 60006 8705/ 91800 333 10063 21010=
07280,1997-12-30 21:00:00,7,1012.9,-0.4,87,5,10000,14.816,,,190,,,,,,,,,,,wg-a,,,,AAXX 30214 07280 12660 81908 10070 20050 39854 40129 58004 60006 875// 92100=
07280,1997-12-31 00:00:00,7,1011.9,-1,87,5,10000,11.112,,,190,,,,,,,,,,,wg-a,,,,AAXX 31004 07280 12460 81906 10070 20050 39844 40119 58010 60006 875// 90000=
07280,1997-12-31 06:00:00,6,1010.7,-0.7,93,5,10000,11.112,,,200,3.4,6.9,,,,,,,,,wg-a,,,,AAXX 31064 07280 02460 /2006 10060 20050 39832 40107 55007 60006 86500 90600 333 10069 20034 60004=
07280,1997-12-31 09:00:00,6,1011.7,1,93,5,18000,11.112,,,200,,,,,,,,,,,wg-a,,,,AAXX 31094 07280 12768 52006 10060 20050 39842 40117 53010 60006 855/0 90900=
07280,1997-12-31 12:00:00,10,1011,-0.3,82,7,18000,18.52,,,210,,,,,,,,,,,wg-a,,,,AAXX 31124 07280 12768 72110 10100 20070 39839 40110 58003 60006 8553/ 91200=
07280,1997-12-31 15:00:00,11,1010.9,-0.1,82,8,25000,14.816,,,200,,,,,,,,,,3,wg-a,,,,AAXX 31154 07280 02575 82008 10110 20080 39838 40109 55001 61000 70362 888// 91500 333 ////=
07280,1997-12-31 18:00:00,10,1012.5,1.5,87,8,8000,7.408,,,210,5.8,10.7,,,,,,,,61,wg-a,,,,AAXX 31184 07280 02558 82104 10100 20080 39853 40125 53015 61000 76162 885// 91800 333 10107 20058 6100=
07280,1997-12-31 21:00:00,8,1014,1.4,100,8,20000,3.704,,,210,,,,1,,,,,,61,wg-a,,,,AAXX 31214 07280 12270 82102 10080 20080 39867 40140 53014 60017 76166 885// 92100=
