station_id,dh_utc,temperature,pression,pression_variation_3h,humidite,point_de_rosee,visibilite,vent_moyen,vent_rafales,vent_rafales_10min,vent_direction,temperature_min,temperature_max,pluie_1h,pluie_3h,pluie_6h,pluie_12h,pluie_24h,ensoleillement,temperature_sol,temps_omm,source,radiations,neige_au_sol,nebulosite,raw_msg
07280,1998-01-01 00:00:00,7,1015.5,1.3,93,6,20000,3.704,,,340,,,,0,,,,,,21,wg-a,,,,AAXX 01004 07280 02570 83402 10070 20060 39880 40155 51013 60026 72162 8553/ 90000 333 60007=
07280,1998-01-01 03:00:00,6,1016.3,0.6,100,6,20000,3.704,,,320,,,,,,,,,,,wg-a,,,,AAXX 01034 07280 12670 83202 10060 20060 39886 40163 53006 60006 8557/ 90300=
07280,1998-01-01 06:00:00,6,1016.4,0.2,100,6,20000,3.704,,,30,5.4,9.5,,,,,2,,,,wg-a,,,,AAXX 01064 07280 02570 80302 10060 20060 39888 40164 53002 60006 885// 90600 333 10095 20054 60024=
07280,1998-01-01 09:00:00,7,1017.6,1.2,93,6,20000,7.408,,,320,,,,0,,,,,,60,wg-a,,,,AAXX 01094 07280 12470 83204 10070 20060 39900 40176 53012 60007 76062 885// 90900=
07280,1998-01-01 12:00:00,8,1017.5,0,93,7,12000,3.704,,,210,,,,1,,,,,,61,wg-a,,,,AAXX 01124 07280 02462 82102 10080 20070 39900 40175 50000 60016 76162 885// 91200 333 60017=
07280,1998-01-01 18:00:00,6,1015.5,-1.3,100,6,9000,14.816,,,200,6.1,7.5,,,,,,,,60,wg-a,,,,AAXX 01184 07280 02259 82008 10060 20060 39879 40155 58013 61000 76066 877// 91800 333 10075 20061 6001=
07280,1998-01-01 21:00:00,6,1013.5,-2,93,5,8000,18.52,,,210,,,,,,,,,,1,wg-a,,,,AAXX 01214 07280 02258 82110 10060 20050 39859 40135 58020 61000 70162 875// 92100 333 ////=
07280,1998-01-02 00:00:00,5,1009.7,-3.7,100,5,10000,18.52,,,190,,,,,,,,,,2,wg-a,,,,AAXX 02004 07280 02260 81910 10050 20050 39822 40097 58037 61000 70262 875// 90000 333 ////=
07280,1998-01-02 06:00:00,8,1005.7,-1.9,81,5,12000,22.224,,,200,4.9,8.1,,,,,,,,60,wg-a,,,,AAXX 02064 07280 02662 82012 10080 20050 39785 40057 58019 61000 76062 875// 90600 333 10081 20049 6007=
07280,1998-01-02 09:00:00,9,1003.5,-2,81,6,500,35.188,,,200,,,,0,,,,,,1,wg-a,,,,AAXX 02094 07280 12600 82019 10090 20060 39765 40035 57020 60007 70162 8557/ 90900=
07280,1998-01-02 12:00:00,8,998.4,-5,93,7,9000,42.596,,,200,,,,4,,,,,,61,wg-a,,,,AAXX 02124 07280 02559 82023 10080 20070 39715 49984 56050 60046 76186 8522/ 91200 333 60047=
07280,1998-01-02 15:00:00,9,1001,2.5,76,5,500,31.484,,,240,,,,7,,,,,,3,wg-a,,,,AAXX 02154 07280 12500 /2417 10090 20050 39740 40010 53025 60077 70362 82830 91500=
07280,1998-01-02 18:00:00,7,1005.4,4.1,81,4,500,25.928,,,210,6.7,9.8,,,,,,,,1,wg-a,,,,AAXX 02184 07280 12400 32114 10070 20040 39781 40054 52041 60006 70161 83800 91800 333 10098 20067=
07280,1998-01-02 21:00:00,6,1009.5,4,87,4,25000,25.928,,,210,,,,,,,,,,,wg-a,,,,AAXX 02214 07280 12475 42114 10060 20040 39821 40095 51040 60006 84800 92100=
07280,1998-01-03 00:00:00,6,1012.1,2.5,93,5,25000,22.224,,,210,,,,,,,,,,,wg-a,,,,AAXX 03004 07280 12575 42112 10060 20050 39846 40121 51025 60006 84800 90000=
07280,1998-01-03 03:00:00,6,1012.9,0.7,93,5,20000,18.52,,,200,,,,,,,,,,,wg-a,,,,AAXX 03034 07280 12570 72010 10060 20050 39853 40129 50007 60006 875// 90300=
07280,1998-01-03 06:00:00,6,1012.3,-0.6,87,4,20000,22.224,,,190,5.4,7.3,,,,,10,,,,wg-a,,,,AAXX 03064 07280 02670 81912 10060 20040 39847 40123 56006 60006 8157/ 90600 333 10073 20054 60104=
07280,1998-01-03 09:00:00,7,1011.1,-1.1,81,4,15000,31.484,,,200,,,,1,,,,,,61,wg-a,,,,AAXX 03094 07280 12565 82017 10070 20040 39836 40111 58011 60017 76162 8257/ 90900=
07280,1998-01-03 12:00:00,7,1008.7,-2.2,87,5,12000,25.928,,,200,,,,0,,,,,,61,wg-a,,,,AAXX 03124 07280 02362 82014 10070 20050 39814 40087 58022 60016 76162 885// 91200 333 60007=
07280,1998-01-03 15:00:00,9,1006.2,-2.3,87,7,8000,35.188,,,200,,,,,,,,,,60,wg-a,,,,AAXX 03154 07280 02458 82019 10090 20070 39791 40062 56023 61000 76062 875// 91500 333 ////=
07280,1998-01-03 21:00:00,9,1013.3,5.1,66,3,15000,31.484,,,270,,,,0,,,,,,1,wg-a,,,,AAXX 03214 07280 12665 32717 10090 20030 39860 40133 53051 60007 70161 83500 92100=
07280,1998-01-04 00:00:00,7,1017.5,3.9,76,3,15000,25.928,,,240,,,,,,,,,,2,wg-a,,,,AAXX 04004 07280 12665 /2414 10070 20030 39899 40175 51039 60006 70261 81500 90000=
07280,1998-01-04 09:00:00,6,1015.9,-1.2,81,3,20000,14.816,,,190,,,,,,,,,,,wg-a,,,,AAXX 04094 07280 12670 71908 10060 20030 39882 40159 58012 60006 85501 90900=
07280,1998-01-04 12:00:00,9,1010.3,-5.2,66,3,20000,25.928,,,190,,,,,,,,,,,wg-a,,,,AAXX 04124 07280 12/70 51914 10090 20030 39830 40103 58052 60006 80001 91200=
07280,1998-01-04 15:00:00,8,1006,-4.2,66,2,500,38.892,,55.56,200,,,,,,,,,,,wg-a,,,,AAXX 04154 07280 12500 52021 10080 20020 39788 40060 58042 60006 85900 91500 333 91030=
07280,1998-01-05 00:00:00,5,1014.4,1.5,87,3,8000,35.188,,53.708,230,,,,3,,,,,,80,wg-a,,,,AAXX 05004 07280 02558 82319 10050 20030 39866 40144 53015 60036 78086 888// 90000 333 60037 91029=
07280,1998-01-05 03:00:00,6,1015.9,1.6,75,2,20000,29.632,,,230,,,,,,,,,,1,wg-a,,,,AAXX 05034 07280 02370 32316 10060 20020 39882 40159 53016 61000 70186 83800 90300 333 ////=
07280,1998-01-05 06:00:00,5,1016.5,0.5,75,1,20000,22.224,,,170,4,9,,,,,5,,,1,wg-a,,,,AAXX 05064 07280 02/70 01712 10050 20010 39887 40165 52005 60006 70186 80000 90600 333 10090 20040 60054=
07280,1998-01-05 09:00:00,5,1017.2,0.7,81,2,20000,11.112,,,220,,,,,,,,,,,wg-a,,,,AAXX 05094 07280 12570 72206 10050 20020 39894 40172 52007 60006 878// 90900=
07280,1998-01-05 12:00:00,10,1014,-2.7,57,2,500,31.484,,,200,,,,,,,,,,,wg-a,,,,AAXX 05124 07280 12700 72017 10100 20020 39867 40140 58027 60006 81501 91200=
07280,1998-01-05 15:00:00,9,1010.5,-3.4,61,2,20000,35.188,,,190,,,,,,,,,,21,wg-a,,,,AAXX 05154 07280 02670 71919 10090 20020 39833 40105 56034 61000 72162 875// 91500 333 ////=
07280,1998-01-05 21:00:00,8,1008.7,0.4,93,7,8000,31.484,,,240,,,,8,,,,,,61,wg-a,,,,AAXX 05214 07280 12558 82417 10080 20070 39815 40087 53004 60087 76166 875// 92100=
07280,1998-01-06 00:00:00,8,1012,3.2,76,4,500,29.632,,,260,,,,1,,,,,,3,wg-a,,,,AAXX 06004 07280 02500 32616 10080 20040 39847 40120 53032 60096 70361 83500 90000 333 60017=
07280,1998-01-06 06:00:00,7,1018.4,2.3,70,2,500,14.816,,,210,6.6,8.9,,,,,10,,,,wg-a,,,,AAXX 06064 07280 02600 72108 10070 20020 39907 40184 53023 60006 875// 90600 333 10089 20066 60104=
07280,1998-01-06 09:00:00,6,1020.1,1.6,93,5,15000,18.52,,,210,,,,,,,,,,61,wg-a,,,,AAXX 06094 07280 02565 82110 10060 20050 39923 40201 53016 61000 76162 8257/ 90900 333 ////=
07280,1998-01-06 12:00:00,6,1019.5,-0.5,100,6,8000,22.224,,,190,,,,1,,,,,,61,wg-a,,,,AAXX 06124 07280 02258 81912 10060 20060 39918 40195 58005 60016 76162 887// 91200 333 60017=
07280,1998-01-06 21:00:00,9,1020.3,0.7,93,8,8000,22.224,,,200,,,,1,,,,,,20,wg-a,,,,AAXX 06214 07280 12258 82012 10090 20080 39928 40203 53007 60017 72065 885// 92100=
07280,1998-01-07 00:00:00,9,1020.1,-0.2,93,8,8000,18.52,,,190,,,,,,,,,,1,wg-a,,,,AAXX 07004 07280 12558 81910 10090 20080 39926 40201 58002 60016 70165 875// 90000=
07280,1998-01-07 03:00:00,8,1020.2,0,93,7,8000,14.816,,,170,,,,,,,,,,,wg-a,,,,AAXX 07034 07280 12258 81708 10080 20070 39926 40202 50000 60006 885// 90300=
07280,1998-01-07 06:00:00,7,1020.1,-0.2,100,7,12000,14.816,,,180,6.5,9.1,,,,,2,,,,wg-a,,,,AAXX 07064 07280 02262 71808 10070 20070 39924 40201 56002 60006 875// 90600 333 10091 20065 60024=
07280,1998-01-07 09:00:00,7,1020.5,0.4,100,7,18000,22.224,,,210,,,,,,,,,,,wg-a,,,,AAXX 07094 07280 12768 /2112 10070 20070 39928 40205 53004 60006 83530 90900=
07280,1998-01-07 12:00:00,10,1020.8,0.6,82,7,500,18.52,,,190,,,,,,,,,,,wg-a,,,,AAXX 07124 07280 12600 71910 10100 20070 39934 40208 50006 60006 8383/ 91200=
07280,1998-01-07 15:00:00,12,1021,0.4,71,7,500,22.224,,,210,,,,,,,,,,,wg-a,,,,AAXX 07154 07280 12600 62112 10120 20070 39938 40210 53004 60006 82402 91500=
07280,1998-01-07 18:00:00,10,1023.4,2.1,76,6,20000,18.52,,,180,5.9,12.3,,,,,,,,,wg-a,,,,AAXX 07184 07280 12770 51810 10100 20060 39959 40234 53021 60006 835/1 91800 333 10123 20059=
07280,1998-01-07 21:00:00,8,1025,1.4,87,6,20000,22.224,,,220,,,,,,,,,,,wg-a,,,,AAXX 07214 07280 12/70 72212 10080 20060 39973 40250 51014 60006 80001 92100=
07280,1998-01-08 00:00:00,6,1026.7,1.5,93,5,20000,14.816,,,210,,,,,,,,,,,wg-a,,,,AAXX 08004 07280 12570 42108 10060 20050 39988 40267 51015 60006 81502 90000=
07280,1998-01-08 03:00:00,6,1028.1,1.3,87,4,20000,14.816,,,200,,,,,,,,,,,wg-a,,,,AAXX 08034 07280 12770 12008 10060 20040 30001 40281 51013 60006 81500 90300=
07280,1998-01-08 06:00:00,4,1029.1,0.7,93,3,20000,14.816,,,140,3.3,9.5,,,,,,,,,wg-a,,,,AAXX 08064 07280 02/70 01408 10040 20030 30008 40291 53007 60006 80000 90600 333 10095 20033 60004=
07280,1998-01-08 09:00:00,6,1030.4,1.5,87,4,10000,7.408,,,200,,,,,,,,,,,wg-a,,,,AAXX 08094 07280 12/60 32004 10060 20040 30023 40304 52015 60006 81031 90900=
07280,1998-01-08 15:00:00,12,1028.9,-0.4,67,6,25000,14.816,,,190,,,,,,,,,,,wg-a,,,,AAXX 08154 07280 12575 /1908 10120 20060 30015 40289 56004 60006 81131 91500=
07280,1998-01-08 18:00:00,6,1030.4,0.9,93,5,25000,7.408,,,210,3.1,13,,,,,,,,,wg-a,,,,AAXX 08184 07280 12/75 22104 10060 20050 30024 40304 53009 60006 81031 91800 333 10130 20031=
07280,1998-01-09 00:00:00,1,1033.1,0.8,100,1,20000,3.704,,,310,,,,,,,,,,11,wg-a,,,,AAXX 09004 07280 12870 43102 10010 20010 30044 40331 52008 60006 71100 84030 90000=
07280,1998-01-09 03:00:00,0,1033.3,0.2,100,0,20000,0,,,0,,,,,,,,,,,wg-a,,,,AAXX 09034 07280 12/70 10000 10000 20000 30046 40333 52002 60006 81030 90300=
07280,1998-01-09 06:00:00,0,1033.4,-0,100,0,6000,3.704,,,120,-0.3,6.4,,,,,,,,11,wg-a,,,,AAXX 09064 07280 02/56 01202 10000 20000 30046 40334 55000 60006 71111 80000 90600 333 10064 21003 60004=
07280,1998-01-09 09:00:00,2,1034.1,0.9,100,2,800,7.408,,,20,,,,,,,,,,41,wg-a,,,,AAXX 09094 07280 12108 /0204 10020 20020 30055 40341 51009 60006 74140 81600 90900=
07280,1998-01-09 12:00:00,8,1032.9,-0.6,87,6,8000,0,,,0,,,,,,,,,,3,wg-a,,,,AAXX 09124 07280 12/58 10000 10080 20060 30049 40329 58006 60006 70340 80001 91200=
07280,1998-01-09 18:00:00,3,1031.9,-0.6,100,3,12000,7.408,,,300,-1.1,12.1,,,,,,,,,wg-a,,,,AAXX 09184 07280 12/62 03004 10030 20030 30035 40319 56006 60006 80000 91800 333 10121 21011=
07280,1998-01-10 00:00:00,1,1031.8,-0,100,1,1000,3.704,,,360,,,,,,,,,,10,wg-a,,,,AAXX 10004 07280 12/10 03602 10010 20010 30031 40318 54000 60006 71000 80000 90000=
07280,1998-01-10 03:00:00,-2,1031.2,-0.8,100,-2,500,0,,,0,,,,,,,,,,41,wg-a,,,,AAXX 10034 07280 12/05 00000 11020 21020 30023 40312 56008 60006 74140 80000 90300=
07280,1998-01-10 06:00:00,-2,1030.9,-0.3,100,-2,300,3.704,,,340,-2.4,4.5,,,,,,,,44,wg-a,,,,AAXX 10064 07280 02/03 03402 11020 21020 30020 40309 55003 60006 74440 80000 90600 333 10045 21024 60004=
07280,1998-01-10 09:00:00,0,1030.9,0.2,100,0,900,3.704,,,30,,,,,,,,,,41,wg-a,,,,AAXX 10094 07280 12/09 /0302 10000 20000 30022 40309 52002 60006 74144 80001 90900=
07280,1998-01-10 12:00:00,8,1029.2,-0.9,76,4,6000,7.408,,,150,,,,,,,,,,2,wg-a,,,,AAXX 10124 07280 12/56 /1504 10080 20040 30013 40292 58009 60006 70240 80001 91200=
07280,1998-01-10 15:00:00,8,1027.4,-1.7,81,5,12000,7.408,,,140,,,,,,,,,,,wg-a,,,,AAXX 10154 07280 12/62 41404 10080 20050 39996 40274 56017 60006 80004 91500=
07280,1998-01-10 18:00:00,3,1027,-0.9,93,2,8000,3.704,,,300,-3.2,9.9,,,,,,,,,wg-a,,,,AAXX 10184 07280 12/58 /3002 10030 20020 39987 40270 56009 60006 80001 91800 333 10099 21032=
07280,1998-01-10 21:00:00,1,1026.8,-0.4,100,1,3000,0,,,0,,,,,,,,,,10,wg-a,,,,AAXX 10214 07280 12/30 10000 10010 20010 39983 40268 56004 60006 71000 80001 92100=
07280,1998-01-11 00:00:00,0,1026,-0.8,100,0,1000,0,,,0,,,,,,,,,,10,wg-a,,,,AAXX 11004 07280 12/10 /0000 10000 20000 39975 40260 58008 60006 71011 80001 90000=
07280,1998-01-11 06:00:00,-1,1024.7,-0.6,100,-1,6000,0,,,0,-1.4,3.2,,,,,,,,10,wg-a,,,,AAXX 11064 07280 02/56 /0000 11010 21010 39960 40247 55006 60006 71041 80000 90600 333 10032 21014 60004=
07280,1998-01-11 09:00:00,2,1025,0.7,100,2,15000,3.704,,,150,,,,,,,,,,11,wg-a,,,,AAXX 11094 07280 12/65 21502 10020 20020 39967 40250 53007 60006 71100 81031 90900=
07280,1998-01-11 12:00:00,11,1023.6,-0.5,71,6,500,14.816,,,200,,,,,,,,,,,wg-a,,,,AAXX 11124 07280 12/00 32008 10110 20060 39962 40236 58005 60006 80001 91200=
07280,1998-01-11 15:00:00,12,1022.6,-0.9,67,6,40000,11.112,,,210,,,,,,,,,,,wg-a,,,,AAXX 11154 07280 12/82 42106 10120 20060 39953 40226 56009 60006 80001 91500=
07280,1998-01-11 18:00:00,5,1023.2,-0,87,3,20000,0,,,0,-1.6,12.3,,,,,,,,,wg-a,,,,AAXX 11184 07280 12/70 50000 10050 20030 39953 40232 55000 60006 80001 91800 333 10123 21016=
07280,1998-01-12 00:00:00,2,1024,0,100,2,8000,3.704,,,150,,,,,,,,,,11,wg-a,,,,AAXX 12004 07280 12/58 31502 10020 20020 39957 40240 50000 60006 71111 80001 90000=
07280,1998-01-12 03:00:00,0,1024.1,-0.1,100,0,800,0,,,0,,,,,,,,,,41,wg-a,,,,AAXX 12034 07280 12/08 70000 10000 20000 39956 40241 58001 60006 74141 80002 90300=
07280,1998-01-12 06:00:00,1,1023.2,-0.8,100,1,2000,0,,,0,-0.1,5.2,,,,,,,,10,wg-a,,,,AAXX 12064 07280 02/20 70000 10010 20010 39948 40232 57008 60006 71041 84032 90600 333 10052 21001 60004=
07280,1998-01-12 09:00:00,2,1022.7,-0.3,100,2,4000,7.408,,,20,,,,,,,,,,11,wg-a,,,,AAXX 12094 07280 12/40 70204 10020 20020 39945 40227 57003 60006 71142 86032 90900=
07280,1998-01-12 12:00:00,8,1021.2,-0.9,87,6,9000,3.704,,,120,,,,,,,,,,2,wg-a,,,,AAXX 12124 07280 12/59 71202 10080 20060 39936 40212 58009 60006 70242 85032 91200=
07280,1998-01-12 15:00:00,10,1019.3,-1.6,76,6,15000,14.816,,,170,,,,,,,,,,,wg-a,,,,AAXX 12154 07280 12/65 71708 10100 20060 39920 40193 56016 60006 85032 91500=
07280,1998-01-12 18:00:00,7,1019.2,-0.5,87,5,20000,3.704,,,190,0.2,11.5,,,,,,,,,wg-a,,,,AAXX 12184 07280 12/70 71902 10070 20050 39915 40192 56005 60006 85032 91800 333 10115 20002=
07280,1998-01-12 21:00:00,3,1018.3,-1.2,100,3,15000,0,,,0,,,,,,,,,,11,wg-a,,,,AAXX 12214 07280 12/65 /0000 10030 20030 39903 40183 58012 60006 71111 81030 92100=
07280,1998-01-13 00:00:00,1,1016.7,-1.8,100,1,600,0,,,0,,,,,,,,,,41,wg-a,,,,AAXX 13004 07280 12/06 30000 10010 20010 39885 40167 58018 60006 74141 80001 90000=
07280,1998-01-13 12:00:00,9,1011.8,-0.2,93,8,11000,29.632,,,200,,,,0,,,,,,61,wg-a,,,,AAXX 13124 07280 02661 82016 10090 20080 39846 40118 58002 60016 76162 8457/ 91200 333 60007=
07280,1998-01-13 15:00:00,10,1010.3,-1.5,82,7,20000,7.408,,,190,,,,0,,,,,,61,wg-a,,,,AAXX 13154 07280 12770 71904 10100 20070 39831 40103 56015 60007 76162 8557/ 91500=
07280,1998-01-13 21:00:00,8,1011.4,1.7,93,7,20000,14.816,,,180,,,,0,,,,,,21,wg-a,,,,AAXX 13214 07280 12670 81808 10080 20070 39841 40114 53017 60007 72162 885// 92100=
07280,1998-01-14 00:00:00,8,1011.5,-0,87,6,20000,14.816,,,170,,,,,,,,,,1,wg-a,,,,AAXX 14004 07280 12770 81708 10080 20060 39841 40115 55000 60006 70162 875// 90000=
07280,1998-01-14 06:00:00,7,1012.7,0.9,93,6,15000,18.52,,,200,5.7,11.8,,,,,1,,,,wg-a,,,,AAXX 14064 07280 02265 82010 10070 20060 39852 40127 53009 60006 885// 90600 333 10118 20057 60014=
07280,1998-01-14 09:00:00,7,1014.6,1.9,87,5,20000,18.52,,,190,,,,,,,,,,,wg-a,,,,AAXX 14094 07280 12670 81910 10070 20050 39871 40146 51019 60006 885// 90900=
07280,1998-01-14 12:00:00,9,1016.2,1.7,71,4,25000,22.224,,,230,,,,,,,,,,60,wg-a,,,,AAXX 14124 07280 02475 72312 10090 20040 39888 40162 51017 61000 76062 878// 91200 333 6100=
07280,1998-01-14 15:00:00,8,1019.2,2.8,81,5,15000,11.112,,,270,,,,0,,,,,,25,wg-a,,,,AAXX 14154 07280 12465 /2706 10080 20050 39916 40192 53028 60007 72586 878// 91500=
07280,1998-01-14 18:00:00,3,1022.1,2.4,100,3,25000,7.408,,,240,3,9.3,,,,,,,,2,wg-a,,,,AAXX 14184 07280 12575 32404 10030 20030 39940 40221 53024 60006 70286 81101 91800 333 10093 20030=
07280,1998-01-14 21:00:00,2,1024.3,2,100,2,20000,14.816,,,210,,,,,,,,,,,wg-a,,,,AAXX 14214 07280 12770 12108 10020 20020 39960 40243 51020 60006 81500 92100=
07280,1998-01-15 00:00:00,-1,1025.8,1.2,100,-1,400,0,,,0,,,,,,,,,,41,wg-a,,,,AAXX 15004 07280 12/04 /0000 11010 21010 39972 40258 51012 60006 74140 80001 90000=
07280,1998-01-15 06:00:00,-4,1026.4,-0.6,100,-4,300,7.408,,,140,-4,3.1,,,,,,,,48,wg-a,,,,AAXX 15064 07280 02/03 /1404 11040 21040 39974 40264 55006 60006 74844 80001 90600 333 10031 21040 60004=
07280,1998-01-15 09:00:00,-1,1026.2,0.1,93,-2,1200,0,,,0,,,,,,,,,,28,wg-a,,,,AAXX 15094 07280 12/12 70000 11010 21020 39975 40262 53001 60006 72842 83031 90900=
07280,1998-01-15 12:00:00,3,1024.9,-0.8,100,3,12000,14.816,,,190,,,,,,,,,,3,wg-a,,,,AAXX 15124 07280 12762 81908 10030 20030 39967 40249 58008 60006 70342 8452/ 91200=
07280,1998-01-15 15:00:00,5,1023.8,-0.9,100,5,6000,18.52,,,200,,,,1,,,,,,61,wg-a,,,,AAXX 15154 07280 12456 82010 10050 20050 39958 40238 55009 60017 76162 8452/ 91500=
07280,1998-01-15 18:00:00,5,1022.6,-1.2,93,4,8000,25.928,,,190,-4.1,5.1,,,,,,,,60,wg-a,,,,AAXX 15184 07280 02358 81914 10050 20040 39946 40226 58012 61000 76062 887// 91800 333 10051 21041 6001=
07280,1998-01-16 00:00:00,5,1018.9,-2.1,100,5,6000,22.224,,,190,,,,3,,,,,,61,wg-a,,,,AAXX 16004 07280 02356 81912 10050 20050 39911 40189 57021 60046 76162 885// 90000 333 60037=
07280,1998-01-16 03:00:00,5,1017.2,-1.7,100,5,4000,25.928,,,200,,,,1,,,,,,10,wg-a,,,,AAXX 16034 07280 12240 82014 10050 20050 39894 40172 56017 60017 71065 886// 90300=
07280,1998-01-16 06:00:00,6,1015.2,-1.9,93,5,500,29.632,,,200,4.6,5.5,,,,,,,,51,wg-a,,,,AAXX 16064 07280 02200 82016 10060 20050 39875 40152 58019 61000 75165 886// 90600 333 10055 20046 6006=
07280,1998-01-16 09:00:00,6,1013.5,-1.6,100,6,7000,31.484,,,200,,,,2,,,,,,,wg-a,,,,AAXX 16094 07280 12557 82017 10060 20060 39854 40135 56016 60027 877// 90900=
07280,1998-01-16 12:00:00,7,1012.7,-0.6,100,7,9000,25.928,,,200,,,,2,,,,,,21,wg-a,,,,AAXX 16124 07280 02259 82014 10070 20070 39853 40127 58006 60046 72165 887// 91200 333 60027=
07280,1998-01-16 15:00:00,7,1012.4,-0.3,93,6,12000,25.928,,,240,,,,1,,,,,,61,wg-a,,,,AAXX 16154 07280 12362 82414 10070 20060 39850 40124 55003 60017 76162 877// 91500=
07280,1998-01-16 21:00:00,7,1019.7,3.9,87,5,12000,18.52,,,320,,,,3,,,,,,80,wg-a,,,,AAXX 16214 07280 12462 83210 10070 20050 39920 40197 51039 60037 78086 888// 92100=
07280,1998-01-17 00:00:00,6,1023.5,3.6,81,3,25000,11.112,,,320,,,,0,,,,,,1,wg-a,,,,AAXX 17004 07280 02575 33206 10060 20030 39956 40235 51036 60036 70186 83800 90000 333 60007=
07280,1998-01-17 03:00:00,4,1026.4,2.7,93,3,20000,3.704,,,300,,,,0,,,,,,80,wg-a,,,,AAXX 17034 07280 12470 73002 10040 20030 39983 40264 51027 60007 78086 878// 90300=
07280,1998-01-17 06:00:00,2,1028.8,2.1,100,2,15000,3.704,,,330,2.2,7.6,,,,,10,,,1,wg-a,,,,AAXX 17064 07280 02465 /3302 10020 20020 30004 40288 53021 60006 70186 81800 90600 333 10076 20022 60104=
07280,1998-01-17 09:00:00,3,1030.7,1.9,100,3,20000,7.408,,,330,,,,,,,,,,,wg-a,,,,AAXX 17094 07280 12570 /3304 10030 20030 30023 40307 51019 60006 81500 90900=
07280,1998-01-17 12:00:00,9,1030.6,0.5,57,1,20000,3.704,,,150,,,,,,,,,,,wg-a,,,,AAXX 17124 07280 12570 31502 10090 20010 30028 40306 50005 60006 83200 91200=
07280,1998-01-17 21:00:00,-1,1026.8,-1.8,93,-2,6000,0,,,0,,,,,,,,,,,wg-a,,,,AAXX 17214 07280 12/56 20000 11010 21020 39981 40268 56018 60006 80001 92100=
07280,1998-01-18 00:00:00,-3,1025.2,-1.7,100,-3,3000,0,,,0,,,,,,,,,,,wg-a,,,,AAXX 18004 07280 12/30 /0000 11030 21030 39964 40252 57017 60006 90000=
07280,1998-01-18 03:00:00,-2,1022.9,-2.2,100,-2,400,3.704,,,130,,,,,,,,,,48,wg-a,,,,AAXX 18034 07280 12104 81302 11020 21020 39942 40229 56022 60006 74841 88600 90300=
07280,1998-01-18 06:00:00,-1,1019.3,-3.4,100,-1,100,7.408,,,200,-4.1,,,,,,,,,49,wg-a,,,,AAXX 18064 07280 02/01 92004 11010 21010 39908 40193 57034 60006 74941 89/// 90600 333 10016 21041 60004=
07280,1998-01-18 09:00:00,0,1015,-4,100,0,9000,14.816,,,200,,,,,,,,,,1,wg-a,,,,AAXX 18094 07280 12759 82008 10000 20000 39868 40150 56040 60006 70142 8557/ 90900=
07280,1998-01-18 12:00:00,4,1011.4,-3.1,81,1,20000,25.928,,,200,,,,,,,,,,3,wg-a,,,,AAXX 18124 07280 12770 82014 10040 20010 39837 40114 58031 60006 70342 8357/ 91200=
07280,1998-01-18 15:00:00,6,1009.4,-1.8,93,5,12000,35.188,,,200,,,,3,,,,,,61,wg-a,,,,AAXX 18154 07280 12462 82019 10060 20050 39819 40094 56018 60037 76162 8682/ 91500=
07280,1998-01-18 18:00:00,7,1009.7,0.4,87,5,15000,29.632,,,200,-1,6.5,,2,,,,,,1,wg-a,,,,AAXX 18184 07280 02565 72016 10070 20050 39823 40097 52004 60006 70162 8157/ 91800 333 10065 21010 60027=
07280,1998-01-18 21:00:00,6,1007.3,-2.4,87,4,20000,29.632,,,200,,,,,,,,,,,wg-a,,,,AAXX 18214 07280 12870 52016 10060 20040 39799 40073 58024 60006 85030 92100=
07280,1998-01-19 00:00:00,6,999.4,-7.7,100,6,6000,42.596,,61.116,190,,,,3,,,,,,61,wg-a,,,,AAXX 19004 07280 02356 81923 10060 20060 39722 49994 58077 60036 76161 8672/ 90000 333 60037 91033=
07280,1998-01-19 03:00:00,8,998.1,-1.1,76,4,20000,38.892,,61.116,280,,,,10,,,,,,21,wg-a,,,,AAXX 19034 07280 12570 /2821 10080 20040 39711 49981 55011 60107 72162 86200 90300 333 91033=
07280,1998-01-19 06:00:00,6,1002.6,4.2,81,3,20000,22.224,,,190,5.5,7.8,,,,,19,,,3,wg-a,,,,AAXX 19064 07280 02570 /1912 10060 20030 39753 40026 51042 60006 70361 86500 90600 333 10078 20055 60194=
07280,1998-01-19 09:00:00,6,1004,1.4,87,4,25000,25.928,,,210,,,,,,,,,,60,wg-a,,,,AAXX 19094 07280 02575 82114 10060 20040 39767 40040 53014 61000 76062 878// 90900 333 ////=
07280,1998-01-19 15:00:00,6,1006.3,1.4,100,6,8000,11.112,,,240,,,,2,,,,,,61,wg-a,,,,AAXX 19154 07280 12458 82406 10060 20060 39789 40063 53014 60027 76186 877// 91500=
07280,1998-01-19 18:00:00,6,1009.7,3.3,93,5,8000,14.816,,,330,5.4,7,,,,,,,,80,wg-a,,,,AAXX 19184 07280 02458 83308 10060 20050 39822 40097 53033 61000 78086 877// 91800 333 10070 20054 6002=
07280,1998-01-20 00:00:00,4,1010.6,0.3,100,4,8000,7.408,,,360,,,,3,,,,,,61,wg-a,,,,AAXX 20004 07280 02458 83604 10040 20040 39829 40106 53003 60036 76186 885// 90000 333 60037=
07280,1998-01-20 03:00:00,1,1014,3,86,-1,12000,25.928,,,340,,,,1,,,,,,1,wg-a,,,,AAXX 20034 07280 12562 43414 10010 21010 39859 40140 51030 60017 70161 84500 90300=
07280,1998-01-20 06:00:00,1,1017.6,3.4,75,-3,15000,22.224,,,310,0.5,5.6,,,,,9,,,1,wg-a,,,,AAXX 20064 07280 02565 /3112 10010 21030 39893 40176 53034 60006 70161 83500 90600 333 10056 20005 60094=
07280,1998-01-20 09:00:00,2,1020.6,3,80,-1,15000,25.928,,48.152,320,,,,,,,,,,,wg-a,,,,AAXX 20094 07280 12465 73214 10020 21010 39923 40206 51030 60006 85201 90900 333 91026=
07280,1998-01-20 12:00:00,3,1022,1.5,75,-1,15000,29.632,,,310,,,,,,,,,,,wg-a,,,,AAXX 20124 07280 12565 73116 10030 21010 39938 40220 51015 60006 8787/ 91200=
07280,1998-01-20 21:00:00,4,1027.2,1.8,81,1,15000,25.928,,,340,,,,,,,,,,,wg-a,,,,AAXX 20214 07280 12465 83414 10040 20010 39990 40272 53018 60006 877// 92100=
07280,1998-01-21 00:00:00,4,1028.9,1.6,87,2,15000,29.632,,,350,,,,,,,,,,1,wg-a,,,,AAXX 21004 07280 02465 73516 10040 20020 30006 40289 51016 61000 70186 878// 90000 333 6100=
07280,1998-01-21 03:00:00,3,1029.9,1,87,1,15000,22.224,,,350,,,,,,,,,,,wg-a,,,,AAXX 21034 07280 12665 83512 10030 20010 30016 40299 51010 60006 885// 90300=
07280,1998-01-21 06:00:00,3,1031.2,1.2,81,0,15000,22.224,,,10,,3.7,,,,,,,,,wg-a,,,,AAXX 21064 07280 02765 70112 10030 20000 30028 40312 53012 60006 875// 90600 333 10037 20029 61000=
07280,1998-01-21 09:00:00,3,1032.6,1.4,81,0,12000,18.52,,,20,,,,,,,,,,,wg-a,,,,AAXX 21094 07280 12562 20210 10030 20000 30042 40326 51014 60006 81201 90900=
07280,1998-01-21 12:00:00,5,1032.3,-0.1,65,-1,20000,25.928,,,40,,,,,,,,,,,wg-a,,,,AAXX 21124 07280 12570 60414 10050 21010 30041 40323 57001 60006 86100 91200=
07280,1998-01-21 15:00:00,4,1032.2,-0.2,65,-2,20000,25.928,,,30,,,,,,,,,,,wg-a,,,,AAXX 21154 07280 12570 /0314 10040 21020 30039 40322 56002 60006 85200 91500=
07280,1998-01-21 21:00:00,0,1032.6,-0.6,86,-2,15000,14.816,,,10,,,,,,,,,,,wg-a,,,,AAXX 21214 07280 12665 /0108 10000 21020 30038 40326 57006 60006 81500 92100=
07280,1998-01-22 00:00:00,-1,1031.7,-0.9,93,-2,12000,14.816,,,10,,,,,,,,,,,wg-a,,,,AAXX 22004 07280 12662 20108 11010 21020 30029 40317 58009 60006 82500 90000=
07280,1998-01-22 03:00:00,-2,1031.1,-0.7,93,-3,12000,18.52,,,10,,,,,,,,,,,wg-a,,,,AAXX 22034 07280 12662 20110 11020 21030 30022 40311 58007 60006 82500 90300=
07280,1998-01-22 06:00:00,-2,1030.1,-1,86,-4,15000,18.52,,,10,-2,1.1,,,,,,,,,wg-a,,,,AAXX 22064 07280 02665 /0110 11020 21040 30012 40301 57010 60006 81500 90600 333 10011 21020 60004=
07280,1998-01-22 09:00:00,0,1029.6,-0.3,80,-3,20000,18.52,,,30,,,,,,,,,,,wg-a,,,,AAXX 22094 07280 12670 50310 10000 21030 30009 40296 58003 60006 85500 90900=
07280,1998-01-22 12:00:00,1,1027.9,-1.5,69,-4,20000,22.224,,,30,,,,,,,,,,,wg-a,,,,AAXX 22124 07280 12570 80312 10010 21040 39994 40279 58015 60006 888// 91200=
07280,1998-01-22 15:00:00,1,1026.8,-1.1,64,-5,20000,22.224,,,40,,,,,,,,,,,wg-a,,,,AAXX 22154 07280 12570 80412 10010 21050 39983 40268 56011 60006 888// 91500=
07280,1998-01-22 18:00:00,0,1026,-0.8,74,-4,20000,22.224,,,20,-2.3,1,,,,,,,,,wg-a,,,,AAXX 22184 07280 12670 80212 10000 21040 39975 40260 58008 60006 885// 91800 333 10010 21023=
07280,1998-01-22 21:00:00,0,1025.6,,80,-3,12000,22.224,,,20,,,,,,,,,,,wg-a,,,,AAXX 22214 07280 12462 80212 10000 21030 39973 40256 60006 885// 92100=
07280,1998-01-23 03:00:00,0,1024.3,-0.2,80,-3,12000,22.224,,,20,,,,,,,,,,,wg-a,,,,AAXX 23034 07280 12562 80212 10000 21030 39958 40243 58002 60006 885// 90300=
07280,1998-01-23 06:00:00,1,1024.2,-0.1,80,-2,12000,18.52,,,40,-0.2,0.6,,,,,,,,,wg-a,,,,AAXX 23064 07280 02562 80410 10010 21020 39957 40242 55001 60006 885// 90600 333 10006 21002 60004=
07280,1998-01-23 09:00:00,1,1024.5,0.4,75,-3,15000,18.52,,,30,,,,,,,,,,,wg-a,,,,AAXX 23094 07280 12/65 00310 10010 21030 39961 40245 51004 60006 80000 90900=
07280,1998-01-23 12:00:00,3,1024.3,0,65,-3,20000,18.52,,,40,,,,,,,,,,,wg-a,,,,AAXX 23124 07280 12570 20410 10030 21030 39961 40243 50000 60006 82200 91200=
07280,1998-01-23 15:00:00,3,1023.9,-0.4,65,-3,20000,22.224,,,40,,,,,,,,,,,wg-a,,,,AAXX 23154 07280 12570 /0412 10030 21030 39957 40239 55004 60006 86500 91500=
07280,1998-01-23 18:00:00,2,1024.4,0.4,75,-2,25000,18.52,,,30,-0.2,4.6,,,,,,,,,wg-a,,,,AAXX 23184 07280 12575 80310 10020 21020 39961 40244 50004 60006 885// 91800 333 10046 21002=
07280,1998-01-23 21:00:00,2,1024.6,0.1,75,-2,20000,14.816,,,40,,,,,,,,,,,wg-a,,,,AAXX 23214 07280 12570 /0408 10020 21020 39962 40246 50001 60006 85500 92100=
07280,1998-01-24 00:00:00,2,1024.4,-0.2,80,-1,20000,18.52,,,20,,,,,,,,,,,wg-a,,,,AAXX 24004 07280 12570 80210 10020 21010 39960 40244 56002 60006 885// 90000=
07280,1998-01-24 03:00:00,2,1023.6,-0.7,80,-1,20000,14.816,,,10,,,,,,,,,,,wg-a,,,,AAXX 24034 07280 12570 80108 10020 21010 39953 40236 58007 60006 885// 90300=
07280,1998-01-24 06:00:00,2,1023.6,-0,80,-1,12000,18.52,,,20,0.8,1.9,,,,,,,,,wg-a,,,,AAXX 24064 07280 02462 80210 10020 21010 39953 40236 54000 60006 885// 90600 333 10019 20008 60004=
07280,1998-01-24 09:00:00,1,1023.9,0.2,86,-1,10000,18.52,,,20,,,,,,,,,,,wg-a,,,,AAXX 24094 07280 12460 80210 10010 21010 39955 40239 50002 60006 885// 90900=
07280,1998-01-24 12:00:00,1,1023.1,-0.8,86,-1,9000,22.224,,,20,,,,,,,,,,20,wg-a,,,,AAXX 24124 07280 02359 80212 10010 21010 39947 40231 58008 61000 72052 885// 91200 333 6100=
07280,1998-01-24 15:00:00,1,1022,-1,75,-3,10000,25.928,,,30,,,,,,,,,,,wg-a,,,,AAXX 24154 07280 12560 80314 10010 21030 39937 40220 56010 60006 885// 91500=
07280,1998-01-24 18:00:00,1,1022,0,80,-2,10000,25.928,,,20,0.6,1.6,,,,,,,,,wg-a,,,,AAXX 24184 07280 12560 80214 10010 21020 39937 40220 50000 60006 885// 91800 333 10016 20006=
07280,1998-01-24 21:00:00,1,1021.4,-0.7,80,-2,10000,18.52,,,10,,,,,,,,,,,wg-a,,,,AAXX 24214 07280 12560 80110 10010 21020 39930 40214 58007 60006 875// 92100=
07280,1998-01-25 00:00:00,0,1020.2,-1.2,93,-1,8000,14.816,,,10,,,,,,,,,,70,wg-a,,,,AAXX 25004 07280 02258 80108 10000 21010 39918 40202 58012 61000 77072 875// 90000 333 6100=
07280,1998-01-25 03:00:00,0,1019.1,-1,93,-1,8000,18.52,,,20,,,,,,,,,,70,wg-a,,,,AAXX 25034 07280 02558 80210 10000 21010 39908 40191 56010 61000 77072 875// 90300 333 ////=
07280,1998-01-25 06:00:00,0,1019.3,0.1,93,-1,8000,14.816,,,20,0,1.1,,,,,,,,70,wg-a,,2,,AAXX 25064 07280 02458 80208 10000 21010 39909 40193 53001 61000 77072 875// 90600 333 10011 20000 4/002 6100=
07280,1998-01-25 09:00:00,0,1020.3,1,86,-2,20000,22.224,,,30,,,,,,,,,,3,wg-a,,,,AAXX 25094 07280 02570 80312 10000 21020 39919 40203 51010 61000 70372 885// 90900 333 ////=
07280,1998-01-25 12:00:00,2,1021.6,1.4,69,-3,500,29.632,,,60,,,,,,,,,,1,wg-a,,,,AAXX 25124 07280 02500 70616 10020 21030 39933 40216 51014 61000 70172 875// 91200 333 ////=
07280,1998-01-25 15:00:00,1,1022.5,0.9,69,-4,500,25.928,,,60,,,,,,,,,,,wg-a,,,,AAXX 25154 07280 12500 70614 10010 21040 39942 40225 52009 60006 81532 91500=
07280,1998-01-25 18:00:00,-1,1024.6,1.8,80,-4,20000,18.52,,,40,-0.5,1.8,,,,,,,,,wg-a,,,,AAXX 25184 07280 12/70 30410 11010 21040 39960 40246 53018 60006 83030 91800 333 10018 21005=
07280,1998-01-25 21:00:00,1,1025.5,1.1,69,-4,15000,25.928,,,50,,,,,,,,,,,wg-a,,,,AAXX 25214 07280 12565 80514 10010 21040 39971 40255 51011 60006 885// 92100=
07280,1998-01-26 00:00:00,-1,1026.2,0.5,80,-4,12000,14.816,,,30,,,,,,,,,,,wg-a,,,,AAXX 26004 07280 12562 /0308 11010 21040 39976 40262 52005 60006 81500 90000=
07280,1998-01-26 03:00:00,-1,1026.5,0.2,80,-4,12000,14.816,,,20,,,,,,,,,,,wg-a,,,,AAXX 26034 07280 12562 20208 11010 21040 39978 40265 50002 60006 82500 90300=
07280,1998-01-26 06:00:00,-2,1026.9,0.3,80,-5,12000,14.816,,,10,-2.4,1.1,,,,,,,,,wg-a,,,,AAXX 26064 07280 02562 /0108 11020 21050 39981 40269 53003 60006 81500 90600 333 10011 21024 61000=
07280,1998-01-26 09:00:00,-1,1027.5,0.7,80,-4,10000,14.816,,,30,,,,,,,,,,,wg-a,,,,AAXX 26094 07280 12560 30308 11010 21040 39988 40275 51007 60006 81501 90900=
07280,1998-01-26 12:00:00,1,1026.9,-0.4,69,-4,12000,22.224,,,30,,,,,,,,,,,wg-a,,,,AAXX 26124 07280 12562 70312 10010 21040 39984 40269 58004 60006 875// 91200=
07280,1998-01-26 15:00:00,1,1025.8,-1.1,64,-5,15000,18.52,,,60,,,,,,,,,,,wg-a,,,,AAXX 26154 07280 12565 /0610 10010 21050 39973 40258 56011 60006 85500 91500=
07280,1998-01-26 18:00:00,-2,1026.2,0.1,74,-6,12000,14.816,,,30,-2.8,1.9,,,,,,,,,wg-a,,,,AAXX 26184 07280 12/62 00308 11020 21060 39974 40262 52001 60006 80000 91800 333 10019 21028=
07280,1998-01-26 21:00:00,-3,1025.9,-0.4,80,-6,12000,14.816,,,20,,,,,,,,,,,wg-a,,,,AAXX 26214 07280 12/62 00208 11030 21060 39970 40259 58004 60006 80000 92100=
07280,1998-01-27 00:00:00,-2,1025.3,-0.5,74,-6,12000,11.112,,,20,,,,,,,,,,,wg-a,,,,AAXX 27004 07280 12562 80206 11020 21060 39965 40253 58005 60006 885// 90000=
07280,1998-01-27 03:00:00,-3,1024.1,-1.2,80,-6,12000,14.816,,,30,,,,,,,,,,,wg-a,,,,AAXX 27034 07280 12562 80308 11030 21060 39953 40241 58012 60006 885// 90300=
07280,1998-01-27 06:00:00,-3,1023,-1.1,80,-6,8000,14.816,,,20,-3.2,-1.8,,,,,,,,,wg-a,,,,AAXX 27064 07280 02558 80208 11030 21060 39942 40230 57011 60006 885// 90600 333 11018 21032 60004=
07280,1998-01-27 09:00:00,-3,1023,0,80,-6,7000,14.816,,,20,,,,,,,,,,,wg-a,,,,AAXX 27094 07280 12557 80208 11030 21060 39942 40230 50000 60006 885// 90900=
07280,1998-01-27 12:00:00,-2,1022.1,-0.7,80,-5,8000,11.112,,,50,,,,,,,,,,,wg-a,,,,AAXX 27124 07280 12558 80506 11020 21050 39935 40221 58007 60006 885// 91200=
07280,1998-01-27 18:00:00,-2,1020.3,-0.3,86,-4,10000,7.408,,,20,-3.2,-0.5,,,,,,,,,wg-a,,,,AAXX 27184 07280 12560 20204 11020 21040 39917 40203 56003 60006 82500 91800 333 11005 21032=
07280,1998-01-27 21:00:00,-2,1020.5,0.2,86,-4,8000,7.408,,,10,,,,,,,,,,,wg-a,,,,AAXX 27214 07280 12558 40104 11020 21040 39919 40205 51002 60006 84500 92100=
07280,1998-01-28 00:00:00,-4,1020.6,-0.1,93,-5,8000,7.408,,,20,,,,,,,,,,,wg-a,,,,AAXX 28004 07280 12558 20204 11040 21050 39918 40206 58001 60006 82500 90000=
07280,1998-01-28 03:00:00,-5,1020.3,-0.5,93,-6,8000,7.408,,,10,,,,,,,,,,,wg-a,,,,AAXX 28034 07280 12/58 00104 11050 21060 39913 40203 57005 60006 80000 90300=
07280,1998-01-28 06:00:00,-6,1020.3,-0,93,-7,6000,3.704,,,340,-6.1,-1.5,,,,,,,,,wg-a,,,,AAXX 28064 07280 02556 23402 11060 21070 39913 40203 55000 60006 82500 90600 333 11015 21061 60004=
07280,1998-01-28 09:00:00,-5,1021.5,,100,-5,3000,3.704,,,40,,,,,,,,,,10,wg-a,,,,AAXX 28094 07280 12430 /0402 11050 21050 39924 40215 60006 710// 81700 90900=
07280,1998-01-28 12:00:00,-2,1020.4,-0.6,93,-3,2500,3.704,,,80,,,,,,,,,,10,wg-a,,,,AAXX 28124 07280 12225 /0802 11020 21030 39918 40204 58006 60006 71011 85600 91200=
07280,1998-01-28 15:00:00,-1,1019.7,-0.6,86,-3,2000,3.704,,,90,,,,,,,,,,10,wg-a,,,,AAXX 28154 07280 12220 70902 11010 21030 39912 40197 56006 60006 71022 87600 91500=
07280,1998-01-28 18:00:00,-3,1020.3,0.3,93,-4,100,3.704,,,200,-6.8,-0.8,,,,,,,,49,wg-a,,,,AAXX 28184 07280 12/01 92002 11030 21040 39915 40203 53003 60006 74942 89/// 91800 333 11008 21068=
07280,1998-01-28 21:00:00,-5,1020.8,0.4,100,-5,500,0,,,0,,,,,,,,,,49,wg-a,,,,AAXX 28214 07280 12/00 90000 11050 21050 39919 40208 51004 60006 74944 89/// 92100=
07280,1998-01-29 00:00:00,-2,1020.5,-0.1,93,-3,100,11.112,,,10,,,,,,,,,,49,wg-a,,,,AAXX 29004 07280 12/01 90106 11020 21030 39918 40205 58001 60006 74944 89/// 90000=
07280,1998-01-29 06:00:00,-3,1021.3,0.6,100,-3,300,11.112,,,60,-5.5,-1.8,,,,,,,,49,wg-a,,,,AAXX 29064 07280 02/03 90606 11030 21030 39926 40213 53006 60006 74944 89/// 90600 333 11018 21055 60004=
07280,1998-01-29 12:00:00,-1,1021.9,-0.8,93,-2,8000,18.52,,,360,,,,,,,,,,2,wg-a,,,,AAXX 29124 07280 02358 73610 11010 21020 39933 40219 58008 61000 70254 876// 91200 333 ////=
07280,1998-01-29 15:00:00,2,1020.6,-0.9,80,-1,10000,18.52,,,20,,,,,,,,,,,wg-a,,,,AAXX 29154 07280 12/60 00210 10020 21010 39924 40206 56009 60006 80000 91500=
07280,1998-01-29 18:00:00,-1,1021.3,0.4,100,-1,8000,18.52,,,20,-3,1.8,,,,,,,,,wg-a,,,,AAXX 29184 07280 12/58 00210 11010 21010 39928 40213 53004 60006 80000 91800 333 10018 21030=
07280,1998-01-29 21:00:00,-1,1021.4,-0,93,-2,8000,14.816,,,10,,,,,,,,,,,wg-a,,,,AAXX 29214 07280 12/58 00108 11010 21020 39928 40214 55000 60006 80000 92100=
07280,1998-01-30 00:00:00,-4,1021.9,0.2,93,-5,500,7.408,,,140,,,,,,,,,,,wg-a,,,,AAXX 30004 07280 12/00 01404 11040 21050 39930 40219 52002 60006 80000 90000=
07280,1998-01-30 03:00:00,-2,1021.6,-0.1,100,-2,3000,0,,,0,,,,,,,,,,3,wg-a,,,,AAXX 30034 07280 12230 80000 11020 21020 39929 40216 58001 60006 70341 887// 90300=
07280,1998-01-30 06:00:00,-2,1021.5,-0,100,-2,4500,3.704,,,170,-4.7,-0.5,,,,,,,,10,wg-a,,,,AAXX 30064 07280 02145 81702 11020 21020 39929 40215 54000 60006 71041 887// 90600 333 11005 21047 61000=
07280,1998-01-30 09:00:00,-2,1022,0.4,93,-3,4500,7.408,,,160,,,,,,,,,,10,wg-a,,,,AAXX 30094 07280 02245 81604 11020 21030 39933 40220 51004 61000 71052 886// 90900 333 ////=
07280,1998-01-30 21:00:00,-5,1018.1,-0.5,100,-5,6000,0,,,0,,,,,,,,,,,wg-a,,,,AAXX 30214 07280 12/56 00000 11050 21050 39893 40181 58005 60006 80000 92100=
07280,1998-01-31 03:00:00,-4,1016.8,-0.8,100,-4,6000,11.112,,,20,,,,,,,,,,,wg-a,,,,AAXX 31034 07280 12356 80206 11040 21040 39881 40168 57008 60006 886// 90300=
07280,1998-01-31 06:00:00,-3,1016.5,-0.2,93,-4,500,14.816,,,20,-5.4,-2,,,,,,,,,wg-a,,,,AAXX 31064 07280 02200 80208 11030 21040 39879 40165 55002 60006 886// 90600 333 11020 21054 61000=
07280,1998-01-31 12:00:00,2,1015.3,-1.2,75,-2,8000,22.224,,,30,,,,,,,,,,,wg-a,,,,AAXX 31124 07280 12/58 00312 10020 21020 39873 40153 58012 60006 80000 91200=
07280,1998-01-31 15:00:00,4,1014,-1.1,60,-3,10000,25.928,,,40,,,,,,,,,,,wg-a,,,,AAXX 31154 07280 12/60 00414 10040 21030 39862 40140 56011 60006 80000 91500=
07280,1998-01-31 18:00:00,2,1014.6,0.3,64,-4,10000,25.928,,,40,-2.9,4.5,,,,,,,,,wg-a,,,,AAXX 31184 07280 12/60 00414 10020 21040 39865 40146 52003 60006 80000 91800 333 10045 21029=
07280,1998-02-01 00:00:00,-1,1015.6,-0.3,86,-3,10000,22.224,,,30,,,,,,,,,,,wg-a,,,,AAXX 01004 07280 12/60 00312 11010 21030 39872 40156 56003 60006 80000 90000=
07280,1998-02-01 03:00:00,-3,1014.7,-1,93,-4,8000,18.52,,,10,,,,,,,,,,,wg-a,,,,AAXX 01034 07280 12/58 00110 11030 21040 39862 40147 56010 60006 80000 90300=
07280,1998-02-01 06:00:00,-4,1014.5,-0.4,86,-6,7000,14.816,,,10,-4.1,1.8,,,,,,,,,wg-a,,,,AAXX 01064 07280 02/57 00108 11040 21060 39858 40145 56004 60006 80000 90600 333 10018 21041 60004=
07280,1998-02-01 09:00:00,-3,1015.9,1.5,86,-5,7000,14.816,,,20,,,,,,,,,,,wg-a,,,,AAXX 01094 07280 12457 80208 11030 21050 39873 40159 51015 60006 885// 90900=
07280,1998-02-01 12:00:00,-2,1015.6,-0.2,80,-5,8000,3.704,,,340,,,,,,,,,,,wg-a,,,,AAXX 01124 07280 12458 83402 11020 21050 39871 40156 58002 60006 885// 91200=
07280,1998-02-01 15:00:00,-2,1014.9,-0.6,86,-4,500,0,,,0,,,,,,,,,,,wg-a,,,,AAXX 01154 07280 12300 80000 11020 21040 39865 40149 56006 60006 885// 91500=
07280,1998-02-01 18:00:00,-2,1015.6,0.6,86,-4,500,0,,,0,-4.5,-1.5,,,,,,,,,wg-a,,,,AAXX 01184 07280 12300 80000 11020 21040 39871 40156 53006 60006 885// 91800 333 11015 21045=
07280,1998-02-01 21:00:00,-2,1015.4,-0.2,86,-4,500,3.704,,,280,,,,,,,,,,,wg-a,,,,AAXX 01214 07280 12200 82802 11020 21040 39869 40154 56002 60006 886// 92100=
07280,1998-02-02 00:00:00,-3,1015.2,-0.3,93,-4,500,3.704,,,340,,,,,,,,,,,wg-a,,,,AAXX 02004 07280 12200 83402 11030 21040 39866 40152 58003 60006 886// 90000=
07280,1998-02-02 03:00:00,-3,1014.3,-0.9,100,-3,500,3.704,,,250,,,,,,,,,,,wg-a,,,,AAXX 02034 07280 12200 82502 11030 21030 39857 40143 58009 60006 886// 90300=
07280,1998-02-02 06:00:00,-3,1013.5,-0.7,100,-3,2000,3.704,,,340,-3.1,-2.1,,,,,,,,10,wg-a,,,,AAXX 02064 07280 02120 83402 11030 21030 39850 40135 57007 60006 71022 886// 90600 333 11021 21031 60004=
07280,1998-02-02 09:00:00,-3,1013.2,-0.3,100,-3,1200,3.704,,,110,,,,,,,,,,10,wg-a,,,,AAXX 02094 07280 12112 81102 11030 21030 39847 40132 58003 60006 71022 886// 90900=
07280,1998-02-02 12:00:00,-2,1012.8,-0.3,100,-2,2500,0,,,0,,,,,,,,,,10,wg-a,,,,AAXX 02124 07280 02125 80000 11020 21020 39844 40128 58003 61000 71072 886// 91200 333 6100=
07280,1998-02-02 15:00:00,-2,1012.1,-0.7,100,-2,3000,7.408,,,360,,,,,,,,,,10,wg-a,,,,AAXX 02154 07280 02230 83604 11020 21020 39837 40121 56007 61000 71072 886// 91500 333 ////=
07280,1998-02-02 18:00:00,-2,1012.8,0.7,93,-3,3500,7.408,,,10,-3,-1.6,,,,,,,,10,wg-a,,,,AAXX 02184 07280 12235 80104 11020 21030 39844 40128 53007 60006 71072 886// 91800 333 11016 21030=
07280,1998-02-02 21:00:00,-3,1013.1,0.2,93,-4,7000,11.112,,,350,,,,,,,,,,,wg-a,,,,AAXX 02214 07280 12357 83506 11030 21040 39846 40131 50002 60006 886// 92100=
07280,1998-02-03 00:00:00,-4,1013.5,0.3,86,-6,8000,7.408,,,60,,,,,,,,,,,wg-a,,,,AAXX 03004 07280 12458 80604 11040 21060 39849 40135 50003 60006 886// 90000=
07280,1998-02-03 03:00:00,-6,1014,0.3,93,-7,8000,14.816,,,30,,,,,,,,,,,wg-a,,,,AAXX 03034 07280 12358 80308 11060 21070 39852 40140 50003 60006 886// 90300=
07280,1998-02-03 06:00:00,-6,1014.1,-0,93,-7,6000,11.112,,,30,-6.4,-2,,,,,,,,,wg-a,,,,AAXX 03064 07280 02356 80306 11060 21070 39852 40141 55000 60006 886// 90600 333 11020 21064 61000=
07280,1998-02-03 09:00:00,-6,1015,0.9,86,-8,4000,14.816,,,10,,,,,,,,,,10,wg-a,,,,AAXX 03094 07280 12240 70108 11060 21080 39861 40150 51009 60006 71022 876// 90900=
07280,1998-02-03 12:00:00,0,1012.9,-1.4,69,-5,8000,22.224,,,10,,,,,,,,,,,wg-a,,,,AAXX 03124 07280 12/58 00112 10000 21050 39847 40129 58014 60006 80000 91200=
07280,1998-02-03 15:00:00,4,1011.5,-1,56,-4,15000,25.928,,,40,,,,,,,,,,,wg-a,,,,AAXX 03154 07280 12/65 10414 10040 21040 39837 40115 56010 60006 80001 91500=
07280,1998-02-03 18:00:00,1,1012.2,0.4,69,-4,12000,18.52,,,20,-6.7,3.6,,,,,,,,,wg-a,,,,AAXX 03184 07280 12/62 10210 10010 21040 39841 40122 53004 60006 80001 91800 333 10036 21067=
07280,1998-02-03 21:00:00,-2,1012.6,0.1,86,-4,7000,18.52,,,10,,,,,,,,,,,wg-a,,,,AAXX 03214 07280 12/57 00110 11020 21040 39842 40126 50001 60006 80000 92100=
07280,1998-02-04 00:00:00,-2,1011.8,-0.8,80,-5,12000,22.224,,,10,,,,,,,,,,,wg-a,,,,AAXX 04004 07280 12/62 00112 11020 21050 39834 40118 56008 60006 80000 90000=
07280,1998-02-04 03:00:00,-3,1011.4,-0.5,80,-6,12000,18.52,,,10,,,,,,,,,,,wg-a,,,,AAXX 04034 07280 12/62 00110 11030 21060 39829 40114 56005 60006 80000 90300=
07280,1998-02-04 06:00:00,-4,1012,0.5,74,-8,15000,11.112,,,10,-4,0.5,,,,,,,,,wg-a,,,,AAXX 04064 07280 02/65 00106 11040 21080 39834 40120 53005 60006 80000 90600 333 10005 21040 60004=
07280,1998-02-04 09:00:00,-1,1013,1.2,64,-7,18000,14.816,,,20,,,,,,,,,,,wg-a,,,,AAXX 04094 07280 12/68 00208 11010 21070 39846 40130 51012 60006 80000 90900=
07280,1998-02-04 12:00:00,2,1012.7,0.1,51,-7,18000,11.112,,,60,,,,,,,,,,,wg-a,,,,AAXX 04124 07280 12/68 00606 10020 21070 39847 40127 51001 60006 80000 91200=
07280,1998-02-04 15:00:00,5,1012.8,0.4,41,-7,18000,3.704,,,30,,,,,,,,,,,wg-a,,,,AAXX 04154 07280 12/68 00302 10050 21070 39851 40128 53004 60006 80000 91500=
07280,1998-02-04 18:00:00,-2,1016.2,2.6,80,-5,8000,0,,,0,-4.7,4.8,,,,,,,,,wg-a,,,,AAXX 04184 07280 12/58 00000 11020 21050 39877 40162 53026 60006 80000 91800 333 10048 21047=
07280,1998-02-05 00:00:00,-6,1019.4,0.8,93,-7,6000,7.408,,,350,,,,,,,,,,11,wg-a,,,,AAXX 05004 07280 12/56 03504 11060 21070 39903 40194 52008 60006 71100 80000 90000=
07280,1998-02-05 03:00:00,-8,1020.4,0.8,92,-9,6000,7.408,,,50,,,,,,,,,,11,wg-a,,,,AAXX 05034 07280 12/56 00504 11080 21090 39911 40204 52008 60006 71100 80000 90300=
07280,1998-02-05 06:00:00,-10,1021.6,1,92,-11,3000,0,,,0,-9.8,-1.9,,,,,,,,10,wg-a,,,,AAXX 05064 07280 02130 /0000 11100 21110 39921 40216 53010 60006 71040 81600 90600 333 11019 21098 60004=
07280,1998-02-05 09:00:00,-4,1022.5,1.5,100,-4,4000,3.704,,,20,,,,,,,,,,11,wg-a,,,,AAXX 05094 07280 12/40 /0202 11040 21040 39936 40225 51015 60006 71100 80000 90900=
07280,1998-02-05 12:00:00,4,1021.4,-0.3,52,-5,9000,18.52,,,20,,,,,,,,,,,wg-a,,,,AAXX 05124 07280 12/59 00210 10040 21050 39933 40214 58003 60006 80000 91200=
07280,1998-02-05 15:00:00,6,1020.7,-0.4,39,-7,12000,14.816,,,30,,,,,,,,,,,wg-a,,,,AAXX 05154 07280 12/62 00308 10060 21070 39929 40207 56004 60006 80000 91500=
07280,1998-02-05 18:00:00,1,1022.3,1.1,51,-8,12000,11.112,,,10,-10.8,6.2,,,,,,,,,wg-a,,,,AAXX 05184 07280 12/62 00106 10010 21080 39940 40223 53011 60006 80000 91800 333 10062 21108=
07280,1998-02-06 00:00:00,-1,1024.4,0.9,80,-4,10000,11.112,,,10,,,,,,,,,,,wg-a,,,,AAXX 06004 07280 12/60 00106 11010 21040 39957 40244 51009 60006 80000 90000=
07280,1998-02-06 03:00:00,-3,1024.7,0.2,93,-4,10000,7.408,,,340,,,,,,,,,,,wg-a,,,,AAXX 06034 07280 12/60 03404 11030 21040 39959 40247 51002 60006 80000 90300=
07280,1998-02-06 06:00:00,-8,1025.8,0.4,92,-9,100,7.408,,,130,-8.3,1.4,,,,,,,,44,wg-a,,,,AAXX 06064 07280 02/01 01304 11080 21090 39963 40258 53004 60006 74440 80000 90600 333 10014 21083 60004=
07280,1998-02-06 12:00:00,-2,1026.1,-0.4,100,-2,1100,7.408,,,150,,,,,,,,,,28,wg-a,,,,AAXX 06124 07280 12/11 01504 11020 21020 39973 40261 58004 60006 72840 80000 91200=
07280,1998-02-06 15:00:00,1,1024.9,-0.8,80,-2,4000,11.112,,,150,,,,,,,,,,10,wg-a,,,,AAXX 06154 07280 12/40 01506 10010 21020 39965 40249 56008 60006 71000 80000 91500=
07280,1998-02-06 18:00:00,-4,1026.1,0.6,93,-5,900,11.112,,,170,-9.8,1.4,,,,,,,,10,wg-a,,,,AAXX 06184 07280 12109 31706 11040 21050 39971 40261 53006 60006 71040 83600 91800 333 10014 21098=
07280,1998-02-06 21:00:00,-4,1026.2,0.1,100,-4,100,11.112,,,190,,,,,,,,,,49,wg-a,,,,AAXX 06214 07280 12/01 91906 11040 21040 39972 40262 53001 60006 74944 89/// 92100=
07280,1998-02-07 00:00:00,-4,1026.6,0.4,100,-4,100,11.112,,,180,,,,,,,,,,49,wg-a,,,,AAXX 07004 07280 12/01 91806 11040 21040 39976 40266 53004 60006 74944 89/// 90000=
07280,1998-02-07 03:00:00,-4,1026.4,-0.2,100,-4,100,14.816,,,190,,,,,,,,,,49,wg-a,,,,AAXX 07034 07280 12/01 91908 11040 21040 39974 40264 56002 60006 74944 89/// 90300=
07280,1998-02-07 06:00:00,-4,1025.8,-0.6,100,-4,200,14.816,,,200,-4.4,-3.5,,,,,,,,49,wg-a,,,,AAXX 07064 07280 02/02 92008 11040 21040 39968 40258 57006 60006 74944 89/// 90600 333 11035 21044 60004=
07280,1998-02-07 09:00:00,-3,1026.4,0.7,100,-3,700,11.112,,,200,,,,,,,,,,48,wg-a,,,,AAXX 07094 07280 12107 72006 11030 21030 39975 40264 50007 60006 74844 876// 90900=
07280,1998-02-07 12:00:00,-2,1026.6,0.4,100,-2,2500,11.112,,,190,,,,,,,,,,10,wg-a,,,,AAXX 07124 07280 12225 81906 11020 21020 39979 40266 50004 60006 71042 8365/ 91200=
07280,1998-02-07 15:00:00,1,1026.6,0.2,93,0,2800,14.816,,,210,,,,,,,,,,10,wg-a,,,,AAXX 07154 07280 02528 82108 10010 20000 39981 40266 53002 61000 71062 8352/ 91500 333 ////=
07280,1998-02-07 18:00:00,1,1028.6,1.9,100,1,1500,0,,,0,-3.8,1.1,,,,,,,,10,wg-a,,,,AAXX 07184 07280 02415 70000 10010 20010 30000 40286 51019 61000 71062 876// 91800 333 10011 21038 6001=
07280,1998-02-07 21:00:00,0,1030.4,1.7,100,0,1500,3.704,,,130,,,,,,,,,,10,wg-a,,,,AAXX 07214 07280 12415 /1302 10000 20000 30017 40304 51017 60006 71022 85500 92100=
07280,1998-02-08 00:00:00,-2,1032.5,1.8,93,-3,200,7.408,,,340,,,,,,,,,,49,wg-a,,,,AAXX 08004 07280 12/02 93404 11020 21030 30035 40325 51018 60006 74941 89/// 90000=
07280,1998-02-08 03:00:00,-3,1033.1,0.5,100,-3,800,7.408,,,20,,,,,,,,,,48,wg-a,,,,AAXX 08034 07280 12108 80204 11030 21030 30040 40331 53005 60006 74844 886// 90300=
07280,1998-02-08 06:00:00,-3,1033.1,-0,100,-3,2500,0,,,0,-3.8,0.7,,,,,1,,,10,wg-a,,,,AAXX 08064 07280 02/25 /0000 11030 21030 30040 40331 55000 60006 71041 80001 90600 333 10007 21038 60014=
07280,1998-02-08 12:00:00,1,1033,-0.3,100,1,200,11.112,,,30,,,,,,,,,,44,wg-a,,,,AAXX 08124 07280 12102 70306 10010 20010 30044 40330 58003 60006 74441 876// 91200=
07280,1998-02-08 15:00:00,4,1031.5,-1.2,87,2,4000,7.408,,,40,,,,,,,,,,10,wg-a,,,,AAXX 08154 07280 12140 20404 10040 20020 30032 40315 58012 60006 71041 81601 91500=
07280,1998-02-08 18:00:00,0,1031.9,-0.1,93,-1,600,3.704,,,10,-4.1,3.6,,,,,,,,48,wg-a,,,,AAXX 08184 07280 12/06 /0102 10000 21010 30031 40319 55001 60006 74841 80001 91800 333 10036 21041=
07280,1998-02-08 21:00:00,-1,1031.8,-0.1,100,-1,6000,11.112,,,330,,,,,,,,,,1,wg-a,,,,AAXX 08214 07280 12/56 03306 11010 21010 30030 40318 58001 60006 70140 80000 92100=
07280,1998-02-09 00:00:00,-2,1032,-0,93,-3,10000,3.704,,,310,,,,,,,,,,2,wg-a,,,,AAXX 09004 07280 12/60 03102 11020 21030 30030 40320 55000 60006 70240 80000 90000=
07280,1998-02-09 03:00:00,-4,1032.2,-0,93,-5,200,7.408,,,170,,,,,,,,,,49,wg-a,,,,AAXX 09034 07280 12/02 91704 11040 21050 30030 40322 54000 60006 74941 89/// 90300=
07280,1998-02-09 06:00:00,-4,1031.9,-0.2,100,-4,200,3.704,,,250,-6.7,-0.2,,,,,,,,49,wg-a,,,,AAXX 09064 07280 02/02 92502 11040 21040 30028 40319 55002 60006 74941 89/// 90600 333 11002 21067 60004=
07280,1998-02-09 09:00:00,-3,1032.6,0.7,93,-4,100,3.704,,,210,,,,,,,,,,49,wg-a,,,,AAXX 09094 07280 12/01 92102 11030 21040 30035 40326 51007 60006 74944 89/// 90900=
07280,1998-02-09 12:00:00,-1,1032,-0.3,100,-1,1800,7.408,,,190,,,,,,,,,,28,wg-a,,,,AAXX 09124 07280 12118 91904 11010 21010 30032 40320 58003 60006 72842 896// 91200=
07280,1998-02-09 15:00:00,4,1030.3,-1.1,81,1,8000,11.112,,,170,,,,,,,,,,,wg-a,,,,AAXX 09154 07280 12/58 /1706 10040 20010 30021 40303 56011 60006 80001 91500=
07280,1998-02-09 17:00:00,1,1031.2,0.5,100,1,4000,3.704,,,10,-3.7,4.6,,,,,,,,10,wg-a,,,,AAXX 09174 07280 12/40 /0102 10010 20010 30026 40312 53005 60006 71011 8000/ 91700 333 10046 21037=
07280,1998-02-09 18:00:00,1,1031.2,0.5,100,1,4500,3.704,,,10,-3.7,4.6,,,,,,,,10,wg-a,,,,AAXX 09184 07280 12/45 /0102 10010 20010 30026 40312 53005 60006 71011 80001 91800 333 10046 21037=
07280,1998-02-09 21:00:00,-1,1031.7,0.3,100,-1,3000,3.704,,,320,,,,,,,,,,10,wg-a,,,,AAXX 09214 07280 12/30 /3202 11010 21010 30029 40317 53003 60006 71011 80001 92100=
07280,1998-02-10 00:00:00,-3,1032.5,0.5,100,-3,1500,0,,,0,,,,,,,,,,10,wg-a,,,,AAXX 10004 07280 12/15 00000 11030 21030 30034 40325 53005 60006 71011 80000 90000=
07280,1998-02-10 03:00:00,-4,1032.9,0.3,100,-4,200,0,,,0,,,,,,,,,,48,wg-a,,,,AAXX 10034 07280 12/02 00000 11040 21040 30037 40329 51003 60006 74840 80000 90300=
07280,1998-02-10 06:00:00,-5,1033.5,0.5,100,-5,2000,0,,,0,-4.9,1,,,,,,,,10,wg-a,,,,AAXX 10064 07280 02/20 00000 11050 21050 30042 40335 52005 60006 71040 80000 90600 333 10010 21049 60004=
07280,1998-02-10 12:00:00,8,1032.8,-0.7,71,3,8000,7.408,,,190,,,,,,,,,,3,wg-a,,,,AAXX 10124 07280 12/58 31904 10080 20030 30049 40328 58007 60006 70340 80001 91200=
07280,1998-02-10 15:00:00,11,1031.3,-1.2,58,3,15000,11.112,,,210,,,,,,,,,,,wg-a,,,,AAXX 10154 07280 12/65 22106 10110 20030 30037 40313 56012 60006 80001 91500=
07280,1998-02-10 18:00:00,5,1031.9,-0,81,2,15000,7.408,,,320,-5.3,11.7,,,,,,,,,wg-a,,,,AAXX 10184 07280 12/65 33204 10050 20020 30037 40319 55000 60006 80001 91800 333 10117 21053=
07280,1998-02-10 21:00:00,2,1033.8,1.5,93,1,8000,7.408,,,340,,,,,,,,,,,wg-a,,,,AAXX 10214 07280 12/58 03404 10020 20010 30052 40338 53015 60006 80000 92100=
07280,1998-02-11 00:00:00,-1,1034.4,0.3,93,-2,8000,3.704,,,300,,,,,,,,,,,wg-a,,,,AAXX 11004 07280 12/58 03002 11010 21020 30055 40344 53003 60006 80000 90000=
07280,1998-02-11 03:00:00,-2,1034.3,-0.2,100,-2,7000,3.704,,,360,,,,,,,,,,12,wg-a,,,,AAXX 11034 07280 12/57 03602 11020 21020 30053 40343 57002 60006 71200 80000 90300=
07280,1998-02-11 06:00:00,-3,1034.7,0.3,100,-3,4000,3.704,,,360,-3.3,5.1,,,,,,,,11,wg-a,,,,AAXX 11064 07280 02/40 03602 11030 21030 30056 40347 53003 60006 71100 80000 90600 333 10051 21033 60004=
07280,1998-02-11 09:00:00,1,1035.2,0.8,93,0,2500,7.408,,,70,,,,,,,,,,10,wg-a,,,,AAXX 11094 07280 12/25 /0704 10010 20000 30064 40352 52008 60006 71040 80001 90900=
07280,1998-02-11 12:00:00,9,1033.6,-0.6,61,2,7000,11.112,,,210,,,,,,,,,,3,wg-a,,,,AAXX 11124 07280 12/57 22106 10090 20020 30058 40336 58006 60006 70340 80001 91200=
07280,1998-02-11 15:00:00,13,1031.6,-1.6,38,-1,12000,11.112,,,200,,,,,,,,,,,wg-a,,,,AAXX 11154 07280 12/62 42006 10130 21010 30042 40316 56016 60006 80001 91500=
07280,1998-02-11 18:00:00,6,1032.9,0.6,65,0,12000,3.704,,,330,-4.3,13.1,,,,,,,,,wg-a,,,,AAXX 11184 07280 12/62 23302 10060 20000 30048 40329 53006 60006 80001 91800 333 10131 21043=
07280,1998-02-11 21:00:00,1,1034,0.5,86,-1,12000,0,,,0,,,,,,,,,,,wg-a,,,,AAXX 11214 07280 12/62 00000 10010 21010 30053 40340 53005 60006 80000 92100=
07280,1998-02-12 00:00:00,-1,1034.4,0.2,93,-2,10000,0,,,0,,,,,,,,,,,wg-a,,,,AAXX 12004 07280 12/60 00000 11010 21020 30055 40344 53002 60006 80000 90000=
07280,1998-02-12 03:00:00,-2,1034.9,0.3,93,-3,12000,0,,,0,,,,,,,,,,,wg-a,,,,AAXX 12034 07280 12/62 00000 11020 21030 30058 40349 52003 60006 80000 90300=
07280,1998-02-12 06:00:00,-3,1035.8,0.9,100,-3,12000,3.704,,,10,-2.9,6.1,,,,,,,,,wg-a,,,,AAXX 12064 07280 02/62 10102 11030 21030 30067 40358 52009 60006 80001 90600 333 10061 21029 60004=
07280,1998-02-12 09:00:00,2,1036.3,0.9,93,1,6000,3.704,,,30,,,,,,,,,,,wg-a,,,,AAXX 12094 07280 12/56 20302 10020 20010 30076 40363 51009 60006 80001 90900=
07280,1998-02-12 12:00:00,11,1034.9,-0.4,50,1,9000,3.704,,,170,,,,,,,,,,,wg-a,,,,AAXX 12124 07280 12/59 21702 10110 20010 30072 40349 58004 60006 80001 91200=
07280,1998-02-12 15:00:00,14,1033.6,-1,44,2,11000,3.704,,,70,,,,,,,,,,,wg-a,,,,AAXX 12154 07280 12/61 10702 10140 20020 30062 40336 56010 60006 80001 91500=
07280,1998-02-12 18:00:00,7,1034.7,0.4,76,3,10000,3.704,,,300,-3.3,14.5,,,,,,,,,wg-a,,,,AAXX 12184 07280 12/60 13002 10070 20030 30066 40347 53004 60006 80001 91800 333 10145 21033=
07280,1998-02-12 21:00:00,3,1035.3,0.2,87,1,10000,3.704,,,350,,,,,,,,,,,wg-a,,,,AAXX 12214 07280 12/60 13502 10030 20010 30068 40353 52002 60006 80001 92100=
07280,1998-02-13 00:00:00,2,1035.8,0.4,93,1,10000,7.408,,,340,,,,,,,,,,,wg-a,,,,AAXX 13004 07280 12/60 13404 10020 20010 30072 40358 53004 60006 80001 90000=
07280,1998-02-13 03:00:00,0,1036.1,0.1,93,-1,10000,7.408,,,340,,,,,,,,,,,wg-a,,,,AAXX 13034 07280 12/60 13404 10000 21010 30073 40361 51001 60006 80001 90300=
07280,1998-02-13 09:00:00,4,1036.8,1.2,87,2,8000,0,,,0,,,,,,,,,,,wg-a,,,,AAXX 13094 07280 12/58 /0000 10040 20020 30083 40368 51012 60006 80001 90900=
07280,1998-02-13 12:00:00,12,1035.6,-0.4,50,2,11000,7.408,,,20,,,,,,,,,,,wg-a,,,,AAXX 13124 07280 12/61 20204 10120 20020 30079 40356 58004 60006 80001 91200=
07280,1998-02-13 15:00:00,16,1033.7,-1.4,39,2,15000,7.408,,,20,,,,,,,,,,,wg-a,,,,AAXX 13154 07280 12/65 30204 10160 20020 30065 40337 56014 60006 80001 91500=
07280,1998-02-13 18:00:00,10,1033.7,-0.5,62,3,15000,7.408,,,320,-1.8,15.6,,,,,,,,,wg-a,,,,AAXX 13184 07280 12/65 13204 10100 20030 30060 40337 56005 60006 80001 91800 333 10156 21018=
07280,1998-02-13 21:00:00,6,1034.8,0.7,81,3,15000,14.816,,,340,,,,,,,,,,,wg-a,,,,AAXX 13214 07280 12/65 23408 10060 20030 30067 40348 53007 60006 80001 92100=
07280,1998-02-14 00:00:00,5,1035,0.1,93,4,15000,14.816,,,330,,,,,,,,,,,wg-a,,,,AAXX 14004 07280 12/65 23308 10050 20040 30068 40350 50001 60006 80001 90000=
07280,1998-02-14 03:00:00,4,1034.7,-0.5,93,3,15000,11.112,,,320,,,,,,,,,,,wg-a,,,,AAXX 14034 07280 12/65 23206 10040 20030 30063 40347 57005 60006 80001 90300=
07280,1998-02-14 06:00:00,3,1034.9,0.1,93,2,12000,14.816,,,340,3.3,10.3,,,,,,,,,wg-a,,,,AAXX 14064 07280 02/62 23408 10030 20020 30064 40349 50001 60006 80001 90600 333 10103 20033 60004=
07280,1998-02-14 09:00:00,8,1035.3,0.9,87,6,6000,3.704,,,30,,,,,,,,,,,wg-a,,,,AAXX 14094 07280 12/56 /0302 10080 20060 30073 40353 51009 60006 80001 90900=
07280,1998-02-14 12:00:00,13,1034.1,-0.7,62,6,10000,11.112,,,60,,,,,,,,,,,wg-a,,,,AAXX 14124 07280 12/60 00606 10130 20060 30066 40341 58007 60006 80000 91200=
07280,1998-02-14 15:00:00,15,1032.7,-1.1,59,7,10000,11.112,,,50,,,,,,,,,,,wg-a,,,,AAXX 14154 07280 12/60 00506 10150 20070 30055 40327 58011 60006 80000 91500=
07280,1998-02-14 18:00:00,9,1034.2,0.8,81,6,10000,3.704,,,250,2.9,15,,,,,,,,,wg-a,,,,AAXX 14184 07280 12/60 12502 10090 20060 30063 40342 53008 60006 80001 91800 333 10150 20029=
07280,1998-02-14 21:00:00,6,1035,0.6,100,6,10000,7.408,,,10,,,,,,,,,,,wg-a,,,,AAXX 14214 07280 12/60 00104 10060 20060 30069 40350 51006 60006 80000 92100=
07280,1998-02-15 00:00:00,4,1035,-0.3,100,4,500,7.408,,,340,,,,,,,,,,11,wg-a,,,,AAXX 15004 07280 12/00 03404 10040 20040 30066 40350 58003 60006 71100 80000 90000=
07280,1998-02-15 03:00:00,2,1035.1,-0.1,93,1,500,7.408,,,330,,,,,,,,,,,wg-a,,,,AAXX 15034 07280 12/00 03304 10020 20010 30065 40351 55001 60006 80000 90300=
07280,1998-02-15 06:00:00,1,1035.5,0.3,100,1,3000,7.408,,,330,-0.4,9.2,,,,,,,,10,wg-a,,,,AAXX 15064 07280 02/30 03304 10010 20010 30068 40355 53003 60006 71000 80000 90600 333 10092 21004 60004=
07280,1998-02-15 09:00:00,6,1035.4,0.4,100,6,4500,3.704,,,20,,,,,,,,,,10,wg-a,,,,AAXX 15094 07280 12/45 10202 10060 20060 30072 40354 50004 60006 71000 80001 90900=
07280,1998-02-15 12:00:00,14,1033.5,-1.1,67,8,10000,7.408,,,10,,,,,,,,,,,wg-a,,,,AAXX 15124 07280 12/60 40104 10140 20080 30061 40335 58011 60006 80001 91200=
07280,1998-02-15 15:00:00,16,1031.4,-1.8,59,8,15000,11.112,,,30,,,,,,,,,,,wg-a,,,,AAXX 15154 07280 12/65 60306 10160 20080 30043 40314 56018 60006 80001 91500=
07280,1998-02-15 18:00:00,11,1031.1,-0.7,76,7,15000,11.112,,,350,-0.5,16.4,,,,,,,,,wg-a,,,,AAXX 15184 07280 12/65 53506 10110 20070 30036 40311 56007 60006 80001 91800 333 10164 21005=
07280,1998-02-15 21:00:00,6,1030.7,-1,87,4,12000,11.112,,,320,,,,,,,,,,,wg-a,,,,AAXX 15214 07280 12/62 03206 10060 20040 30026 40307 56010 60006 80000 92100=
07280,1998-02-16 00:00:00,2,1030.7,-0.3,100,2,20000,7.408,,,310,,,,,,,,,,,wg-a,,,,AAXX 16004 07280 12/70 03104 10020 20020 30023 40307 55003 60006 80000 90000=
07280,1998-02-16 03:00:00,-1,1029.9,-1.2,100,-1,300,3.704,,,100,,,,,,,,,,41,wg-a,,,,AAXX 16034 07280 12/03 41002 11010 21010 30011 40299 56012 60006 74141 80001 90300=
07280,1998-02-16 06:00:00,0,1028.9,-0.8,100,0,500,0,,,0,-1.4,11.3,,,,,,,,43,wg-a,,,,AAXX 16064 07280 02/00 90000 10000 20000 30003 40289 58008 60006 74341 89/// 90600 333 10113 21014 60004=
07280,1998-02-16 09:00:00,5,1028.4,0,100,5,1500,14.816,,,200,,,,,,,,,,28,wg-a,,,,AAXX 16094 07280 12/15 72008 10050 20050 30003 40284 50000 60006 72842 85031 90900=
07280,1998-02-16 12:00:00,11,1026.8,-0.9,71,6,12000,11.112,,,160,,,,,,,,,,3,wg-a,,,,AAXX 16124 07280 12662 81606 10110 20060 39994 40268 58009 60006 70342 81532 91200=
07280,1998-02-16 15:00:00,13,1026,-0.6,77,9,20000,18.52,,,310,,,,,,,,,,,wg-a,,,,AAXX 16154 07280 12570 /3110 10130 20090 39988 40260 56006 60006 83532 91500=
07280,1998-02-16 18:00:00,12,1027.7,1.5,71,7,15000,18.52,,,290,0.2,15.1,,,,,,,,,wg-a,,,,AAXX 16184 07280 12565 72910 10120 20070 30003 40277 53015 60006 82112 91800 333 10151 20002=
07280,1998-02-16 21:00:00,9,1030,2,76,5,15000,11.112,,,320,,,,,,,,,,,wg-a,,,,AAXX 16214 07280 12665 /3206 10090 20050 30023 40300 53020 60006 86500 92100=
07280,1998-02-17 00:00:00,9,1031.2,1.1,71,4,15000,11.112,,,310,,,,,,,,,,,wg-a,,,,AAXX 17004 07280 12665 73106 10090 20040 30034 40312 53011 60006 875// 90000=
07280,1998-02-17 03:00:00,8,1031.5,0.2,76,4,15000,11.112,,,320,,,,,,,,,,,wg-a,,,,AAXX 17034 07280 12665 /3206 10080 20040 30036 40315 51002 60006 86500 90300=
07280,1998-02-17 06:00:00,7,1032.7,1.1,87,5,12000,14.816,,,330,6.8,11.6,,,,,,,,20,wg-a,,,,AAXX 17064 07280 02462 73308 10070 20050 30047 40327 53011 61000 72052 875// 90600 333 10116 20068 6100=
07280,1998-02-17 09:00:00,8,1034.3,1.6,81,5,12000,18.52,,,350,,,,,,,,,,3,wg-a,,,,AAXX 17094 07280 02462 83510 10080 20050 30063 40343 53016 61000 70362 885// 90900 333 ////=
07280,1998-02-17 12:00:00,9,1035.4,1.2,66,3,500,14.816,,,360,,,,,,,,,,1,wg-a,,,,AAXX 17124 07280 02500 /3608 10090 20030 30075 40354 51012 61000 70161 84200 91200 333 ////=
07280,1998-02-17 15:00:00,10,1035.5,0.2,53,1,40000,14.816,,,20,,,,,,,,,,,wg-a,,,,AAXX 17154 07280 12682 30208 10100 20010 30077 40355 53002 60006 83400 91500=
07280,1998-02-17 18:00:00,6,1036.5,0.6,70,1,500,7.408,,,30,6.2,10.9,,,,,,,,,wg-a,,,,AAXX 17184 07280 12600 /0304 10060 20010 30083 40365 53006 60006 81500 91800 333 10109 20062=
07280,1998-02-17 21:00:00,3,1037.7,0.8,87,1,15000,14.816,,,10,,,,,,,,,,,wg-a,,,,AAXX 17214 07280 12565 20108 10030 20010 30091 40377 53008 60006 82500 92100=
07280,1998-02-18 00:00:00,2,1037.4,-0.3,93,1,15000,14.816,,,10,,,,,,,,,,,wg-a,,,,AAXX 18004 07280 12565 /0108 10020 20010 30088 40374 55003 60006 81500 90000=
07280,1998-02-18 03:00:00,2,1036.6,-0.8,93,1,15000,18.52,,,10,,,,,,,,,,,wg-a,,,,AAXX 18034 07280 12565 /0110 10020 20010 30080 40366 58008 60006 81500 90300=
07280,1998-02-18 06:00:00,3,1036.5,-0.1,93,2,10000,11.112,,,10,1.3,6.2,,,,,,,,,wg-a,,,,AAXX 18064 07280 02260 80106 10030 20020 30079 40365 55001 60006 886// 90600 333 10062 20013 61000=
07280,1998-02-18 09:00:00,3,1036.5,0.1,93,2,500,7.408,,,60,,,,,,,,,,,wg-a,,,,AAXX 18094 07280 12200 80604 10030 20020 30080 40365 52001 60006 886// 90900=
07280,1998-02-18 12:00:00,2,1036,-0.6,100,2,700,3.704,,,90,,,,,,,,,,45,wg-a,,,,AAXX 18124 07280 12/07 90902 10020 20020 30074 40360 58006 60006 74541 89/// 91200=
07280,1998-02-18 15:00:00,3,1033.9,-1.9,100,3,2500,3.704,,,120,,,,,,,,,,10,wg-a,,,,AAXX 18154 07280 12125 81202 10030 20030 30055 40339 56019 60006 71042 886// 91500=
07280,1998-02-18 18:00:00,1,1033.1,-1,100,1,100,7.408,,,150,1.3,3.5,,,,,,,,45,wg-a,,,,AAXX 18184 07280 12/01 91504 10010 20010 30045 40331 56010 60006 74541 89/// 91800 333 10035 20013=
07280,1998-02-18 21:00:00,1,1032.8,-0.3,100,1,100,7.408,,,190,,,,,,,,,,45,wg-a,,,,AAXX 18214 07280 12/01 91904 10010 20010 30042 40328 55003 60006 74544 89/// 92100=
07280,1998-02-19 00:00:00,1,1033.2,0.4,100,1,100,7.408,,,210,,,,,,,,,,45,wg-a,,,,AAXX 19004 07280 12/01 92104 10010 20010 30046 40332 53004 60006 74544 89/// 90000=
07280,1998-02-19 03:00:00,1,1033.1,-0.2,100,1,100,3.704,,,280,,,,,,,,,,45,wg-a,,,,AAXX 19034 07280 12/01 92802 10010 20010 30044 40331 58002 60006 74544 89/// 90300=
07280,1998-02-19 06:00:00,-1,1033.8,0.5,100,-1,200,0,,,0,-1,1.5,,,,,,,,44,wg-a,,,,AAXX 19064 07280 02/02 00000 11010 21010 30049 40338 53005 60006 74444 80000 90600 333 10015 21010 60004=
07280,1998-02-19 09:00:00,0,1034.8,1.1,100,0,300,0,,,0,,,,,,,,,,44,wg-a,,,,AAXX 19094 07280 12/03 00000 10000 20000 30060 40348 51011 60006 74444 80000 90900=
07280,1998-02-19 12:00:00,11,1033.1,-0.5,76,7,8000,7.408,,,140,,,,,,,,,,2,wg-a,,,,AAXX 19124 07280 12/58 01404 10110 20070 30055 40331 58005 60006 70240 80000 91200=
07280,1998-02-19 15:00:00,15,1031.1,-1.6,55,6,15000,3.704,,,10,,,,,,,,,,,wg-a,,,,AAXX 19154 07280 12/65 00102 10150 20060 30039 40311 56016 60006 80000 91500=
07280,1998-02-19 18:00:00,9,1031.1,-0.6,81,6,12000,7.408,,,60,,,,,,,,,,,wg-a,,,,AAXX 19184 07280 12/62 00604 10090 20060 30033 40311 56006 60006 80000 91800=
07280,1998-02-19 21:00:00,5,1031.1,-0.4,93,4,12000,7.408,,,350,,,,,,,,,,,wg-a,,,,AAXX 19214 07280 12/62 03504 10050 20040 30029 40311 57004 60006 80000 92100=
07280,1998-02-20 00:00:00,3,1029.9,-1.3,100,3,10000,11.112,,,330,,,,,,,,,,,wg-a,,,,AAXX 20004 07280 12/60 03306 10030 20030 30016 40299 57013 60006 80000 90000=
07280,1998-02-20 03:00:00,2,1028.2,-1.8,100,2,6000,7.408,,,320,,,,,,,,,,,wg-a,,,,AAXX 20034 07280 12/56 03204 10020 20020 39998 40282 56018 60006 80000 90300=
07280,1998-02-20 06:00:00,0,1027.2,-1.2,100,0,3000,7.408,,,330,0.3,8.7,,,,,,,,10,wg-a,,,,AAXX 20064 07280 02/30 /3304 10000 20000 39986 40272 56012 60006 71000 80001 90600 333 10087 20003 60004=
07280,1998-02-20 09:00:00,5,1026.4,-0.3,93,4,4000,3.704,,,60,,,,,,,,,,10,wg-a,,,,AAXX 20094 07280 12/40 30602 10050 20040 39983 40264 58003 60006 71000 80001 90900=
07280,1998-02-20 12:00:00,11,1023.8,-1.9,71,6,7000,7.408,,,160,,,,,,,,,,,wg-a,,,,AAXX 20124 07280 12/57 71604 10110 20060 39964 40238 58019 60006 80001 91200=
07280,1998-02-20 15:00:00,15,1021.2,-2.2,51,5,11000,3.704,,,140,,,,,,,,,,,wg-a,,,,AAXX 20154 07280 12/61 61402 10150 20050 39942 40212 56022 60006 80002 91500=
07280,1998-02-20 18:00:00,9,1021,-0.7,71,4,10000,3.704,,,180,-0.7,14.7,,,,,,,,,wg-a,,,,AAXX 20184 07280 12/60 61802 10090 20040 39935 40210 55007 60006 80002 91800 333 10147 21007=
07280,1998-02-20 21:00:00,4,1021.5,-0,93,3,10000,0,,,0,,,,,,,,,,,wg-a,,,,AAXX 20214 07280 12/60 00000 10040 20030 39935 40215 55000 60006 80000 92100=
07280,1998-02-21 00:00:00,9,1021.5,0.5,81,6,12000,14.816,,,200,,,,,,,,,,,wg-a,,,,AAXX 21004 07280 12/62 32008 10090 20060 39940 40215 51005 60006 80001 90000=
07280,1998-02-21 03:00:00,7,1021.6,-0.1,87,5,12000,14.816,,,210,,,,,,,,,,,wg-a,,,,AAXX 21034 07280 12/62 22108 10070 20050 39939 40216 58001 60006 80001 90300=
07280,1998-02-21 06:00:00,3,1021.6,-0.4,100,3,8000,0,,,0,3.1,9.4,,,,,,,,11,wg-a,,,,AAXX 21064 07280 02/58 /0000 10030 20030 39935 40216 58004 60006 71100 81030 90600 333 10094 20031 60004=
07280,1998-02-21 09:00:00,10,1020.7,-0.2,71,5,10000,14.816,,,200,,,,,,,,,,,wg-a,,,,AAXX 21094 07280 12/60 62008 10100 20050 39933 40207 58002 60006 80001 90900=
07280,1998-02-21 12:00:00,16,1018.4,-1.7,45,4,20000,31.484,,,200,,,,,,,,,,,wg-a,,,,AAXX 21124 07280 12/70 82017 10160 20040 39916 40184 58017 60006 80002 91200=
07280,1998-02-21 15:00:00,16,1017.6,-0.7,45,4,500,29.632,,,200,,,,,,,,,,,wg-a,,,,AAXX 21154 07280 12/00 82016 10160 20040 39909 40176 56007 60006 85032 91500=
07280,1998-02-21 18:00:00,12,1019.3,1.2,62,5,20000,14.816,,,210,1.7,17,,,,,,,,,wg-a,,,,AAXX 21184 07280 12770 82108 10120 20050 39921 40193 53012 60006 8452/ 91800 333 10170 20017=
07280,1998-02-21 21:00:00,9,1021.4,1.8,93,8,8000,14.816,,,290,,,,2,,,,,,63,wg-a,,,,AAXX 21214 07280 12558 82908 10090 20080 39939 40214 53018 60027 76362 8552/ 92100=
07280,1998-02-22 00:00:00,8,1021.3,-0.2,100,8,8000,11.112,,,140,,,,5,,,,,,61,wg-a,,,,AAXX 22004 07280 02358 81406 10080 20080 39937 40213 58002 60076 76162 8652/ 90000 333 60057=
07280,1998-02-22 03:00:00,8,1019.8,-1.4,100,8,800,3.704,,,260,,,,0,,,,,,61,wg-a,,,,AAXX 22034 07280 12108 82602 10080 20080 39923 40198 58014 60007 76165 887// 90300=
07280,1998-02-22 06:00:00,8,1019.5,-0.3,100,8,6000,7.408,,,210,7.9,12.6,,,,,,,,61,wg-a,,,,AAXX 22064 07280 02156 82104 10080 20080 39920 40195 58003 61000 76165 885// 90600 333 10126 20079 6011=
07280,1998-02-22 09:00:00,8,1021.2,1.6,100,8,12000,11.112,,,220,,,,2,,,,,,61,wg-a,,,,AAXX 22094 07280 12562 82206 10080 20080 39936 40212 51016 60027 76166 885// 90900=
07280,1998-02-22 12:00:00,8,1022.6,1.4,87,6,15000,18.52,,,280,,,,1,,,,,,60,wg-a,,,,AAXX 22124 07280 02565 82810 10080 20060 39950 40226 51014 60036 76066 885// 91200 333 60017=
07280,1998-02-22 15:00:00,7,1023.7,0.9,87,5,12000,11.112,,,240,,,,1,,,,,,80,wg-a,,,,AAXX 22154 07280 12362 72406 10070 20050 39959 40237 53009 60017 78086 872// 91500=
07280,1998-02-22 18:00:00,6,1025.8,2,81,3,500,11.112,,,320,5.8,8.6,,,,,,,,25,wg-a,,,,AAXX 22184 07280 02500 73206 10060 20030 39979 40258 53020 61000 72586 872// 91800 333 10086 20058 6000=
07280,1998-02-22 21:00:00,5,1028.3,2.3,87,3,20000,11.112,,,340,,,,,,,,,,,wg-a,,,,AAXX 22214 07280 12670 73406 10050 20030 30002 40283 51023 60006 875// 92100=
07280,1998-02-23 00:00:00,4,1029.8,1.3,87,2,20000,14.816,,,330,,,,,,,,,,,wg-a,,,,AAXX 23004 07280 12670 33308 10040 20020 30015 40298 52013 60006 83500 90000=
07280,1998-02-23 03:00:00,4,1030,0.3,87,2,20000,18.52,,,340,,,,,,,,,,,wg-a,,,,AAXX 23034 07280 12670 /3410 10040 20020 30018 40300 51003 60006 83502 90300=
07280,1998-02-23 06:00:00,3,1031.2,1,87,1,10000,22.224,,,350,2.8,6,,,,,4,,,,wg-a,,,,AAXX 23064 07280 02460 /3512 10030 20010 30028 40312 51010 60006 86500 90600 333 10060 20028 60044=
07280,1998-02-23 09:00:00,4,1033,1.8,87,2,6000,29.632,,,10,,,,,,,,,,,wg-a,,,,AAXX 23094 07280 12456 50116 10040 20020 30046 40330 51018 60006 85100 90900=
07280,1998-02-23 12:00:00,6,1033.8,1,75,2,10000,29.632,,,20,,,,,,,,,,,wg-a,,,,AAXX 23124 07280 12460 /0216 10060 20020 30056 40338 51010 60006 85800 91200=
07280,1998-02-23 15:00:00,8,1033.2,-0.4,66,2,10000,25.928,,,20,,,,,,,,,,,wg-a,,,,AAXX 23154 07280 12/60 /0214 10080 20020 30052 40332 55004 60006 91500=
07280,1998-02-23 18:00:00,5,1035.1,1.6,81,2,12000,22.224,,,10,2.7,7.9,,,,,,,,,wg-a,,,,AAXX 23184 07280 12/62 10112 10050 20020 30068 40351 51016 60006 81030 91800 333 10079 20027=
07280,1998-02-23 21:00:00,5,1035.6,0.5,75,1,12000,25.928,,,350,,,,,,,,,,,wg-a,,,,AAXX 23214 07280 12/62 03514 10050 20010 30073 40356 51005 60006 80000 92100=
07280,1998-02-24 00:00:00,4,1036,0.3,75,0,12000,18.52,,,360,,,,,,,,,,,wg-a,,,,AAXX 24004 07280 12/62 03610 10040 20000 30076 40360 53003 60006 80000 90000=
07280,1998-02-24 03:00:00,3,1035.4,-0.7,81,0,12000,14.816,,,10,,,,,,,,,,,wg-a,,,,AAXX 24034 07280 12/62 00108 10030 20000 30069 40354 58007 60006 80000 90300=
07280,1998-02-24 06:00:00,2,1036,0.4,87,0,12000,18.52,,,340,0.9,5.2,,,,,,,,,wg-a,,,,AAXX 24064 07280 02/62 03410 10020 20000 30073 40360 52004 60006 80000 90600 333 10052 20009 60004=
07280,1998-02-24 09:00:00,7,1036.7,1.3,76,3,12000,22.224,,,10,,,,,,,,,,,wg-a,,,,AAXX 24094 07280 12/62 10112 10070 20030 30086 40367 51013 60006 81050 90900=
07280,1998-02-24 12:00:00,11,1035.9,-0.4,54,2,25000,22.224,,,20,,,,,,,,,,,wg-a,,,,AAXX 24124 07280 12575 /0212 10110 20020 30082 40359 58004 60006 81230 91200=
07280,1998-02-24 15:00:00,12,1034.6,-1.2,62,5,20000,22.224,,,20,,,,,,,,,,,wg-a,,,,AAXX 24154 07280 12570 60212 10120 20050 30070 40346 56012 60006 84501 91500=
07280,1998-02-24 18:00:00,9,1035.8,0.9,81,6,15000,25.928,,,360,1.3,11.9,,,,,,,,,wg-a,,,,AAXX 24184 07280 12565 /3614 10090 20060 30079 40358 53009 60006 86500 91800 333 10119 20013=
07280,1998-02-24 21:00:00,8,1036.6,0.6,81,5,12000,14.816,,,10,,,,,,,,,,,wg-a,,,,AAXX 24214 07280 12562 /0108 10080 20050 30085 40366 51006 60006 85500 92100=
07280,1998-02-25 00:00:00,6,1036.4,-0.3,87,4,10000,11.112,,,10,,,,,,,,,,,wg-a,,,,AAXX 25004 07280 12560 20106 10060 20040 30082 40364 58003 60006 82500 90000=
07280,1998-02-25 03:00:00,6,1035.7,-0.7,93,5,8000,14.816,,,360,,,,,,,,,,,wg-a,,,,AAXX 25034 07280 12558 /3608 10060 20050 30075 40357 58007 60006 81500 90300=
07280,1998-02-25 06:00:00,5,1036.2,0.4,93,4,500,14.816,,,10,5.2,8.8,,,,,,,,,wg-a,,,,AAXX 25064 07280 02500 /0108 10050 20040 30079 40362 53004 60006 81502 90600 333 10088 20052 60004=
07280,1998-02-25 09:00:00,9,1036.1,0.3,87,7,4000,22.224,,,20,,,,,,,,,,10,wg-a,,,,AAXX 25094 07280 12240 70212 10090 20070 30082 40361 52003 60006 71011 81130 90900=
07280,1998-02-25 12:00:00,12,1034.8,-1,76,8,9000,25.928,,,20,,,,,,,,,,,wg-a,,,,AAXX 25124 07280 12459 70214 10120 20080 30072 40348 57010 60006 872// 91200=
07280,1998-02-25 18:00:00,11,1033.5,0.2,76,7,15000,22.224,,,10,5.3,12.9,,,,,,,,,wg-a,,,,AAXX 25184 07280 12565 /0112 10110 20070 30058 40335 53002 60006 86500 91800 333 10129 20053=
07280,1998-02-25 21:00:00,8,1034.3,0.5,87,6,12000,14.816,,,10,,,,,,,,,,,wg-a,,,,AAXX 25214 07280 12/62 00108 10080 20060 30063 40343 53005 60006 80000 92100=
07280,1998-02-26 00:00:00,6,1034.2,-0.2,93,5,10000,18.52,,,10,,,,,,,,,,,wg-a,,,,AAXX 26004 07280 12/60 00110 10060 20050 30061 40342 57002 60006 80000 90000=
07280,1998-02-26 03:00:00,6,1033.6,-0.6,93,5,10000,11.112,,,10,,,,,,,,,,,wg-a,,,,AAXX 26034 07280 12/60 00106 10060 20050 30055 40336 57006 60006 80000 90300=
07280,1998-02-26 06:00:00,4,1034,0.2,93,3,500,11.112,,,10,3.9,10.5,,,,,,,,,wg-a,,,,AAXX 26064 07280 02/00 00106 10040 20030 30057 40340 53002 60006 80000 90600 333 10105 20039 60004=
07280,1998-02-26 09:00:00,8,1034.1,0.4,87,6,8000,11.112,,,40,,,,,,,,,,,wg-a,,,,AAXX 26094 07280 12/58 00406 10080 20060 30061 40341 50004 60006 80000 90900=
07280,1998-02-26 12:00:00,11,1033.2,-0.5,82,8,8000,7.408,,,150,,,,,,,,,,,wg-a,,,,AAXX 26124 07280 12458 /1504 10110 20080 30056 40332 58005 60006 81100 91200=
07280,1998-02-26 15:00:00,14,1031.3,-1.6,58,6,13000,3.704,,,200,,,,,,,,,,,wg-a,,,,AAXX 26154 07280 12663 /2002 10140 20060 30040 40313 56016 60006 81100 91500=
07280,1998-02-27 00:00:00,3,1031.7,-0.9,93,2,9000,0,,,0,,,,,,,,,,,wg-a,,,,AAXX 27004 07280 12559 50000 10030 20020 30033 40317 58009 60006 85500 90000=
07280,1998-02-27 03:00:00,5,1030.7,-0.7,93,4,8000,0,,,0,,,,,,,,,,,wg-a,,,,AAXX 27034 07280 12558 70000 10050 20040 30026 40307 56007 60006 875// 90300=
07280,1998-02-27 06:00:00,6,1029.6,-1,93,5,6000,3.704,,,210,2.3,8.5,,,,,,,,,wg-a,,,,AAXX 27064 07280 02556 82102 10060 20050 30016 40296 56010 60006 885// 90600 333 10085 20023 60004=
07280,1998-02-27 09:00:00,8,1029.4,0,87,6,500,3.704,,,210,,,,,,,,,,,wg-a,,,,AAXX 27094 07280 12500 82102 10080 20060 30016 40294 50000 60006 885// 90900=
07280,1998-02-27 12:00:00,11,1028.2,-0.9,71,6,10000,14.816,,,240,,,,,,,,,,,wg-a,,,,AAXX 27124 07280 12560 82408 10110 20060 30007 40282 58009 60006 885// 91200=
07280,1998-02-27 15:00:00,11,1025.8,-2.3,71,6,11000,11.112,,,210,,,,,,,,,,,wg-a,,,,AAXX 27154 07280 12561 82106 10110 20060 39984 40258 56023 60006 885// 91500=
07280,1998-02-27 18:00:00,10,1025.1,-0.8,71,5,11000,11.112,,,200,5.9,11,,,,,,,,,wg-a,,,,AAXX 27184 07280 12561 82006 10100 20050 39976 40251 56008 60006 885// 91800 333 10110 20059=
07280,1998-02-27 21:00:00,10,1024.4,-0.7,71,5,12000,11.112,,,230,,,,,,,,,,,wg-a,,,,AAXX 27214 07280 12562 82306 10100 20050 39969 40244 57007 60006 885// 92100=
07280,1998-02-28 00:00:00,9,1023.2,-1.3,71,4,12000,22.224,,,240,,,,,,,,,,,wg-a,,,,AAXX 28004 07280 12562 82412 10090 20040 39956 40232 57013 60006 885// 90000=
07280,1998-02-28 03:00:00,8,1021.1,-2.1,76,4,12000,14.816,,,210,,,,,,,,,,,wg-a,,,,AAXX 28034 07280 12562 82108 10080 20040 39935 40211 58021 60006 885// 90300=
07280,1998-02-28 06:00:00,7,1020,-1.2,87,5,20000,29.632,,,210,6.8,9.8,,,,,,,,21,wg-a,,,,AAXX 28064 07280 02570 82116 10070 20050 39923 40200 56012 61000 72162 885// 90600 333 10098 20068 6100=
07280,1998-02-28 09:00:00,8,1019.5,-0.4,81,5,15000,25.928,,,210,,,,,,,,,,21,wg-a,,,,AAXX 28094 07280 02465 82114 10080 20050 39919 40195 58004 61000 72162 885// 90900 333 ////=
07280,1998-02-28 12:00:00,9,1018.8,-0.5,81,6,500,25.928,,,230,,,,1,,,,,,25,wg-a,,,,AAXX 28124 07280 02400 72314 10090 20060 39914 40188 58005 60016 72586 85802 91200 333 60017=
07280,1998-02-28 15:00:00,10,1017.5,-1.2,66,4,25000,25.928,,,250,,,,,,,,,,,wg-a,,,,AAXX 28154 07280 12575 /2514 10100 20040 39902 40175 56012 60006 86801 91500=
07280,1998-02-28 18:00:00,6,1018.7,0.8,93,5,10000,14.816,,,280,6.4,10,,,,,,,,25,wg-a,,,,AAXX 28184 07280 02460 72808 10060 20050 39910 40187 53008 61000 72586 878// 91800 333 10100 20064 6001=
07280,1998-02-28 21:00:00,6,1018.6,-0.1,87,4,15000,3.704,,,170,,,,0,,,,,,3,wg-a,,,,AAXX 28214 07280 12465 71702 10060 20040 39909 40186 56001 60007 70386 875// 92100=
07280,1998-03-01 00:00:00,5,1018.6,-0.1,87,3,20000,7.408,,,250,,,,0,,,,,,3,wg-a,,,,AAXX 01004 07280 02570 82504 10050 20030 39908 40186 55001 60016 70386 82501 90000 333 60007=
07280,1998-03-01 03:00:00,6,1018.7,0.1,81,3,15000,11.112,,,260,,,,,,,,,,,wg-a,,,,AAXX 01034 07280 12765 72606 10060 20030 39909 40187 53001 60006 855/1 90300=
07280,1998-03-01 06:00:00,4,1020.4,1.5,81,1,15000,7.408,,,310,3.7,6.7,,,,,3,,,,wg-a,,,,AAXX 01064 07280 02665 43104 10040 20010 39924 40204 53015 60006 83501 90600 333 10067 20037 60034=
07280,1998-03-01 09:00:00,6,1022.1,1.9,65,0,20000,14.816,,,270,,,,,,,,,,,wg-a,,,,AAXX 01094 07280 12570 /2708 10060 20000 39943 40221 52019 60006 81201 90900=
07280,1998-03-01 12:00:00,9,1022.2,0.3,43,-3,40000,18.52,,,260,,,,,,,,,,,wg-a,,,,AAXX 01124 07280 12782 42610 10090 21030 39946 40222 50003 60006 83101 91200=
07280,1998-03-01 15:00:00,9,1021.3,-0.8,46,-2,40000,22.224,,,260,,,,,,,,,,,wg-a,,,,AAXX 01154 07280 12782 42612 10090 21020 39938 40213 56008 60006 83101 91500=
07280,1998-03-01 18:00:00,6,1022.8,1.1,56,-2,20000,7.408,,,220,2.1,10.1,,,,,,,,,wg-a,,,,AAXX 01184 07280 12770 32204 10060 21020 39949 40228 52011 60006 83400 91800 333 10101 20021=
07280,1998-03-01 21:00:00,3,1024,0.9,81,0,20000,11.112,,,210,,,,,,,,,,,wg-a,,,,AAXX 01214 07280 12770 52106 10030 20000 39958 40240 53009 60006 85500 92100=
07280,1998-03-02 00:00:00,4,1024.3,0.4,81,1,20000,7.408,,,230,,,,,,,,,,,wg-a,,,,AAXX 02004 07280 12770 62304 10040 20010 39962 40243 53004 60006 86500 90000=
07280,1998-03-02 03:00:00,5,1023.8,-0.4,75,1,20000,7.408,,,200,,,,,,,,,,,wg-a,,,,AAXX 02034 07280 12670 72004 10050 20010 39958 40238 58004 60006 878// 90300=
07280,1998-03-02 06:00:00,5,1023.9,0.1,87,3,12000,14.816,,,180,2.4,5.6,,,,,,,,,wg-a,,,,AAXX 02064 07280 02762 71808 10050 20030 39959 40239 53001 60006 875// 90600 333 10056 20024 60004=
07280,1998-03-02 09:00:00,9,1024.7,1.2,71,4,500,18.52,,,260,,,,,,,,,,,wg-a,,,,AAXX 02094 07280 12600 72610 10090 20040 39971 40247 51012 60006 878// 90900=
07280,1998-03-02 15:00:00,11,1023.8,-0.9,54,2,40000,22.224,,,210,,,,,,,,,,,wg-a,,,,AAXX 02154 07280 12682 72112 10110 20020 39964 40238 56009 60006 878// 91500=
07280,1998-03-02 18:00:00,7,1024.5,0.3,76,3,500,11.112,,,220,5.1,11,,,,,,,,,wg-a,,,,AAXX 02184 07280 12700 42206 10070 20030 39967 40245 53003 60006 84500 91800 333 10110 20051=
07280,1998-03-02 21:00:00,4,1025.2,0.4,87,2,20000,3.704,,,190,,,,,,,,,,,wg-a,,,,AAXX 02214 07280 12/70 41902 10040 20020 39971 40252 51004 60006 80001 92100=
07280,1998-03-03 00:00:00,2,1024.5,-0.9,93,1,20000,7.408,,,180,,,,,,,,,,,wg-a,,,,AAXX 03004 07280 12770 51804 10020 20010 39962 40245 56009 60006 815/1 90000=
07280,1998-03-03 03:00:00,0,1022.8,-1.9,93,-1,20000,3.704,,,170,,,,,,,,,,,wg-a,,,,AAXX 03034 07280 12/70 51702 10000 21010 39943 40228 58019 60006 84051 90300=
07280,1998-03-03 06:00:00,3,1021.5,-0.9,87,1,20000,11.112,,,180,-0.1,7.3,,,,,,,,,wg-a,,,,AAXX 03064 07280 02/70 81806 10030 20010 39934 40215 56009 60006 8807/ 90600 333 10073 21001 60004=
07280,1998-03-03 09:00:00,7,1021.5,0.3,70,2,500,22.224,,,210,,,,,,,,,,,wg-a,,,,AAXX 03094 07280 12/00 72112 10070 20020 39937 40215 53003 60006 8707/ 90900=
07280,1998-03-03 12:00:00,10,1020.3,-0.8,62,3,40000,25.928,,,190,,,,,,,,,,,wg-a,,,,AAXX 03124 07280 12/82 81914 10100 20030 39929 40203 58008 60006 8707/ 91200=
07280,1998-03-03 15:00:00,13,1018.6,-1.3,54,4,500,22.224,,,200,,,,,,,,,,,wg-a,,,,AAXX 03154 07280 12/00 72012 10130 20040 39916 40186 57013 60006 83032 91500=
07280,1998-03-03 18:00:00,13,1018.9,0.2,54,4,20000,29.632,,,190,3.4,14,,,,,,,,,wg-a,,,,AAXX 03184 07280 12/70 71916 10130 20040 39918 40189 53002 60006 86072 91800 333 10140 20034=
07280,1998-03-03 21:00:00,12,1019.7,0.7,54,3,15000,22.224,,,210,,,,,,,,,,,wg-a,,,,AAXX 03214 07280 12/65 82112 10120 20030 39925 40197 53007 60006 85072 92100=
07280,1998-03-04 00:00:00,11,1019.3,-0.4,66,5,15000,31.484,,,200,,,,,,,,,,,wg-a,,,,AAXX 04004 07280 12/65 72017 10110 20050 39921 40193 58004 60006 84072 90000=
07280,1998-03-04 03:00:00,11,1016.5,-2.8,71,6,15000,29.632,,,200,,,,,,,,,,,wg-a,,,,AAXX 04034 07280 12/65 82016 10110 20060 39893 40165 58028 60006 85072 90300=
07280,1998-03-04 06:00:00,10,1014.4,-2.1,71,5,10000,35.188,,,200,9.6,13.1,,,,,,,,,wg-a,,,,AAXX 04064 07280 02/60 82019 10100 20050 39872 40144 56021 60006 83072 90600 333 10131 20096 60004=
07280,1998-03-04 09:00:00,12,1014.1,-0.1,67,6,15000,35.188,,,200,,,,,,,,,,,wg-a,,,,AAXX 04094 07280 12/65 72019 10120 20060 39871 40141 56001 60006 86072 90900=
07280,1998-03-04 12:00:00,15,1012.5,-1.3,59,7,15000,38.892,,59.264,200,,,,,,,,,,,wg-a,,,,AAXX 04124 07280 12/65 82021 10150 20070 39858 40125 58013 60006 85032 91200 333 91032=
07280,1998-03-04 15:00:00,15,1010.8,-1.6,59,7,15000,46.3,,62.968,200,,,,,,,,,,,wg-a,,,,AAXX 04154 07280 12/65 72025 10150 20070 39842 40108 58016 60006 83032 91500 333 91034=
07280,1998-03-04 18:00:00,13,1011.5,0.5,67,7,12000,38.892,,61.116,200,9.8,15.7,,,,,,,,60,wg-a,,,,AAXX 04184 07280 02/62 82021 10130 20070 39847 40115 53005 61000 76062 8807/ 91800 333 10157 20098 6100 91033=
07280,1998-03-04 21:00:00,12,1012.3,0.7,76,8,15000,29.632,,,200,,,,0,,,,,,60,wg-a,,,,AAXX 04214 07280 12765 82016 10120 20080 39854 40123 53007 60007 76066 8452/ 92100=
07280,1998-03-05 00:00:00,13,1011.7,-0.5,77,9,12000,35.188,,53.708,240,,,,1,,,,,,63,wg-a,,,,AAXX 05004 07280 02562 82419 10130 20090 39849 40117 55005 60016 76362 888// 90000 333 60017 91029=
07280,1998-03-05 03:00:00,9,1016.1,3.8,71,4,20000,22.224,,,250,,,,3,,,,,,1,wg-a,,,,AAXX 05034 07280 12670 /2512 10090 20040 39887 40161 51038 60037 70162 85500 90300=
07280,1998-03-05 06:00:00,7,1020.6,4.2,66,1,25000,18.52,,,250,6.4,13.6,,,,,4,,,1,wg-a,,,,AAXX 05064 07280 02575 /2510 10070 20010 39929 40206 53042 60006 70161 81130 90600 333 10136 20064 60044=
07280,1998-03-05 09:00:00,8,1024.2,3.6,61,1,25000,35.188,,50.004,290,,,,,,,,,,,wg-a,,,,AAXX 05094 07280 12675 22919 10080 20010 39965 40242 52036 60006 82100 90900 333 91027=
07280,1998-03-05 12:00:00,11,1025.7,1.8,47,0,40000,22.224,,,270,,,,,,,,,,,wg-a,,,,AAXX 05124 07280 12682 22712 10110 20000 39983 40257 51018 60006 82200 91200=
07280,1998-03-05 15:00:00,12,1026,0.3,32,-4,50000,25.928,,,270,,,,,,,,,,,wg-a,,,,AAXX 05154 07280 12784 12714 10120 21040 39986 40260 52003 60006 81200 91500=
07280,1998-03-05 18:00:00,7,1028,1.5,49,-3,50000,11.112,,,280,6.5,12.3,,,,,,,,,wg-a,,,,AAXX 05184 07280 12/84 22806 10070 21030 30001 40280 53015 60006 80004 91800 333 10123 20065=
07280,1998-03-05 21:00:00,3,1029.3,0.8,70,-2,20000,7.408,,,200,,,,,,,,,,,wg-a,,,,AAXX 05214 07280 12/70 82004 10030 21020 30009 40293 51008 60006 80001 92100=
07280,1998-03-06 00:00:00,4,1029.1,-0.1,70,-1,20000,7.408,,,200,,,,,,,,,,,wg-a,,,,AAXX 06004 07280 12/70 82004 10040 21010 30008 40291 58001 60006 80007 90000=
07280,1998-03-06 03:00:00,3,1027.9,-1.2,81,0,20000,3.704,,,270,,,,,,,,,,,wg-a,,,,AAXX 06034 07280 12/70 72702 10030 20000 39996 40279 58012 60006 82038 90300=
07280,1998-03-06 06:00:00,5,1027.4,-0.3,70,0,20000,22.224,,,200,1.6,7.2,,,,,,,,,wg-a,,,,AAXX 06064 07280 02/70 72012 10050 20000 39993 40274 55003 60006 8703/ 90600 333 10072 20016 60004=
07280,1998-03-06 09:00:00,8,1027,-0.1,57,0,500,22.224,,,200,,,,,,,,,,,wg-a,,,,AAXX 06094 07280 12/00 72012 10080 20000 39992 40270 56001 60006 83031 90900=
07280,1998-03-06 12:00:00,13,1024.5,-2,47,2,60000,29.632,,,220,,,,,,,,,,,wg-a,,,,AAXX 06124 07280 12/86 82216 10130 20020 39972 40245 56020 60006 8807/ 91200=
07280,1998-03-06 15:00:00,13,1022.7,-1.7,47,2,50000,29.632,,,220,,,,,,,,,,,wg-a,,,,AAXX 06154 07280 12684 82216 10130 20020 39955 40227 57017 60006 8553/ 91500=
07280,1998-03-06 18:00:00,13,1022.2,-0.4,51,3,40000,18.52,,,210,4.4,14,,,,,,,,,wg-a,,,,AAXX 06184 07280 12782 72110 10130 20030 39951 40222 55004 60006 865/1 91800 333 10140 20044=
07280,1998-03-06 21:00:00,13,1021.9,-0.4,51,3,500,25.928,,,210,,,,,,,,,,,wg-a,,,,AAXX 06214 07280 12700 72114 10130 20030 39947 40219 57004 60006 85530 92100=
07280,1998-03-07 00:00:00,11,1020.8,-1.2,58,3,25000,22.224,,,220,,,,,,,,,,,wg-a,,,,AAXX 07004 07280 12775 72212 10110 20030 39935 40208 58012 60006 83530 90000=
07280,1998-03-07 03:00:00,10,1018.9,-2,57,2,25000,31.484,,,200,,,,,,,,,,,wg-a,,,,AAXX 07034 07280 12775 32017 10100 20020 39915 40189 58020 60006 81530 90300=
07280,1998-03-07 06:00:00,9,1019.9,0.9,71,4,20000,29.632,,,210,7,13.5,,,,,,,,,wg-a,,,,AAXX 07064 07280 02670 62116 10090 20040 39924 40199 53009 60006 84501 90600 333 10135 20070 60004=
07280,1998-03-07 12:00:00,12,1018.3,-1.6,76,8,20000,31.484,,,210,,,,,,,,,,21,wg-a,,,,AAXX 07124 07280 02570 82117 10120 20080 39911 40183 58016 61000 72162 885// 91200 333 6100=
07280,1998-03-07 15:00:00,12,1015.5,-2.7,82,9,10000,31.484,,,200,,,,0,,,,,,60,wg-a,,,,AAXX 07154 07280 12460 72017 10120 20090 39884 40155 58027 60007 76062 878// 91500=
07280,1998-03-07 18:00:00,11,1014.8,-0.7,76,7,25000,25.928,,,230,8.7,12.4,,3,,,,,,1,wg-a,,,,AAXX 07184 07280 02475 42314 10110 20070 39877 40148 55007 60006 70161 84800 91800 333 10124 20087 60037=
07280,1998-03-07 21:00:00,11,1015.6,0.7,66,5,25000,35.188,,55.56,250,,,,,,,,,,25,wg-a,,,,AAXX 07214 07280 02475 /2519 10110 20050 39884 40156 53007 61000 72586 86800 92100 333 //// 91030=
07280,1998-03-08 00:00:00,10,1015.4,-0.2,71,5,25000,22.224,,,230,,,,,,,,,,1,wg-a,,,,AAXX 08004 07280 02675 82312 10100 20050 39882 40154 58002 61000 70186 885// 90000 333 ////=
07280,1998-03-08 03:00:00,7,1014.4,-1.3,87,5,15000,11.112,,,190,,,,1,,,,,,80,wg-a,,,,AAXX 08034 07280 12565 71906 10070 20050 39869 40144 58013 60017 78086 878// 90300=
07280,1998-03-08 06:00:00,7,1013.6,-0.8,81,4,25000,18.52,,,280,7,11.4,,,,,,,,25,wg-a,,,,AAXX 08064 07280 02575 32810 10070 20040 39861 40136 56008 61000 72586 83800 90600 333 10114 20070 6005=
07280,1998-03-08 09:00:00,9,1012.9,-0.5,76,5,25000,11.112,,,250,,,,,,,,,,1,wg-a,,,,AAXX 08094 07280 02575 82506 10090 20050 39856 40129 58005 61000 70186 875// 90900 333 ////=
07280,1998-03-08 12:00:00,9,1010.8,-2,87,7,20000,18.52,,,200,,,,,,,,,,60,wg-a,,,,AAXX 08124 07280 02570 82010 10090 20070 39836 40108 58020 61000 76086 878// 91200 333 6100=
07280,1998-03-08 15:00:00,7,1009.1,-1.9,87,5,10000,7.408,,,230,,,,3,,,,,,61,wg-a,,,,AAXX 08154 07280 12560 82304 10070 20050 39817 40091 56019 60037 76166 8357/ 91500=
07280,1998-03-08 18:00:00,6,1009.4,0.3,93,5,15000,7.408,,,250,6.4,9.9,,2,,,,,,3,wg-a,,,,AAXX 08184 07280 02465 72504 10060 20050 39820 40094 53003 60006 70362 8687/ 91800 333 10099 20064 60027=
07280,1998-03-08 21:00:00,6,1011.4,1.9,87,4,20000,7.408,,,190,,,,,,,,,,,wg-a,,,,AAXX 08214 07280 12470 71904 10060 20040 39839 40114 53019 60006 878// 92100=
07280,1998-03-09 00:00:00,7,1012.8,1.4,87,5,20000,11.112,,,320,,,,0,,,,,,25,wg-a,,,,AAXX 09004 07280 02570 83206 10070 20050 39853 40128 52014 60006 72511 888// 90000 333 60007=
07280,1998-03-09 03:00:00,6,1014.6,1.7,87,4,20000,11.112,,,350,,,,,,,,,,,wg-a,,,,AAXX 09034 07280 12470 83506 10060 20040 39870 40146 53017 60006 888// 90300=
07280,1998-03-09 06:00:00,3,1017.7,2.7,87,1,12000,29.632,,,20,3.4,7,,,,,,,,60,wg-a,,,,AAXX 09064 07280 02462 80216 10030 20010 39897 40177 53027 61000 76062 885// 90600 333 10070 20034 6004=
07280,1998-03-09 09:00:00,3,1021.7,3.8,75,-1,20000,29.632,,,20,,,,,,,,,,1,wg-a,,,,AAXX 09094 07280 02570 80216 10030 21010 39935 40217 51038 61000 70162 888// 90900 333 ////=
07280,1998-03-09 12:00:00,5,1024.1,2.6,52,-4,35000,29.632,,,40,,,,,,,,,,1,wg-a,,,,AAXX 09124 07280 02681 30416 10050 21040 39961 40241 51026 61000 70161 83100 91200 333 ////=
07280,1998-03-09 18:00:00,4,1028.7,3,44,-7,50000,25.928,,,10,2.7,7.1,,,,,,,,,wg-a,,,,AAXX 09184 07280 12/84 00114 10040 21070 30004 40287 53030 60006 80000 91800 333 10071 20027=
07280,1998-03-09 21:00:00,1,1030.8,1.8,59,-6,25000,18.52,,,10,,,,,,,,,,,wg-a,,,,AAXX 09214 07280 12/75 00110 10010 21060 30022 40308 52018 60006 80000 92100=
07280,1998-03-10 00:00:00,-1,1032.7,1.7,69,-6,20000,11.112,,,30,,,,,,,,,,,wg-a,,,,AAXX 10004 07280 12/70 00306 11010 21060 30039 40327 51017 60006 80000 90000=
07280,1998-03-10 03:00:00,-3,1033.3,0.3,86,-5,20000,7.408,,,360,,,,,,,,,,,wg-a,,,,AAXX 10034 07280 12/70 03604 11030 21050 30042 40333 51003 60006 80000 90300=
07280,1998-03-10 06:00:00,-2,1034.1,0.9,80,-5,75000,7.408,,,10,-3.2,3.5,,,,,,,,,wg-a,,,,AAXX 10064 07280 02/89 00104 11020 21050 30051 40341 51009 60006 80000 90600 333 10035 21032 61000=
07280,1998-03-10 09:00:00,2,1034.5,0.8,64,-4,500,7.408,,,20,,,,,,,,,,,wg-a,,,,AAXX 10094 07280 12/00 20204 10020 21040 30059 40345 51008 60006 80001 90900=
07280,1998-03-10 12:00:00,7,1032.2,-1.8,39,-6,60000,11.112,,,90,,,,,,,,,,,wg-a,,,,AAXX 10124 07280 12/86 40906 10070 21060 30041 40322 58018 60006 80004 91200=
07280,1998-03-10 15:00:00,9,1029.4,-2.5,25,-10,75000,3.704,,,110,,,,,,,,,,,wg-a,,,,AAXX 10154 07280 12/89 61102 10090 21100 30016 40294 56025 60006 80002 91500=
07280,1998-03-10 18:00:00,6,1027.7,-2,42,-6,60000,3.704,,,30,-3,8.8,,,,,,,,,wg-a,,,,AAXX 10184 07280 12/86 80302 10060 21060 39996 40277 58020 60006 80007 91800 333 10088 21030=
07280,1998-03-10 21:00:00,2,1024.9,-3.1,64,-4,20000,3.704,,,330,,,,,,,,,,,wg-a,,,,AAXX 10214 07280 12/70 83302 10020 21040 39965 40249 58031 60006 80007 92100=
07280,1998-03-11 00:00:00,1,1021.3,-3.5,69,-4,20000,0,,,0,,,,,,,,,,,wg-a,,,,AAXX 11004 07280 12/70 80000 10010 21040 39930 40213 58035 60006 83077 90000=
07280,1998-03-11 03:00:00,0,1017.4,-3.9,86,-2,12000,7.408,,,160,,,,,,,,,,,wg-a,,,,AAXX 11034 07280 12/62 81604 10000 21020 39891 40174 57039 60006 8707/ 90300=
07280,1998-03-11 06:00:00,2,1014.5,-2.7,87,0,12000,18.52,,,220,0.1,5.5,,,,,,,,61,wg-a,,,,AAXX 11064 07280 02762 82210 10020 20000 39864 40145 56027 61000 76162 8157/ 90600 333 10055 20001 6000=
07280,1998-03-11 09:00:00,0,1013.2,-1.4,100,0,1000,11.112,,,180,,,,3,,,,,,71,wg-a,,,,AAXX 11094 07280 12110 81806 10000 20000 39850 40132 57014 60037 77176 885// 90900=
07280,1998-03-11 12:00:00,1,1012.4,-0.7,93,0,3500,11.112,,,190,,,,3,,,,,,71,wg-a,,,,AAXX 11124 07280 02135 81906 10010 20000 39843 40124 56007 60066 77176 885// 91200 333 60037=
07280,1998-03-11 15:00:00,3,1011.7,-0.4,93,2,8000,7.408,,,190,,,,0,,,,,,50,wg-a,,,,AAXX 11154 07280 12258 81904 10030 20020 39839 40117 56004 60007 75076 887// 91500=
07280,1998-03-11 18:00:00,4,1013,1.3,93,3,6000,3.704,,,230,0.2,3.6,,,,,,,,20,wg-a,,,,AAXX 11184 07280 02256 82302 10040 20030 39852 40130 53013 61000 72076 885// 91800 333 10036 20002 6000=
07280,1998-03-11 21:00:00,4,1014.1,1.1,93,3,500,0,,,0,,,,,,,,,,20,wg-a,,,,AAXX 11214 07280 02200 80000 10040 20030 39863 40141 51011 61000 72052 887// 92100 333 ////=
07280,1998-03-12 00:00:00,5,1015.2,1.1,87,3,10000,18.52,,,320,,,,,,,,,,1,wg-a,,,,AAXX 12004 07280 02460 83210 10050 20030 39874 40152 53011 61000 70152 875// 90000 333 ////=
07280,1998-03-12 03:00:00,4,1015.6,0.3,81,1,12000,18.52,,,320,,,,,,,,,,,wg-a,,,,AAXX 12034 07280 12462 83210 10040 20010 39877 40156 50003 60006 875// 90300=
07280,1998-03-12 06:00:00,2,1017.3,1.5,93,1,500,29.632,,,330,2.3,5.3,,,,,,,,61,wg-a,,,,AAXX 12064 07280 02200 83316 10020 20010 39892 40173 53015 61000 76162 877// 90600 333 10053 20023 6009=
07280,1998-03-12 09:00:00,4,1020,2.8,87,2,12000,29.632,,,350,,,,2,,,,,,61,wg-a,,,,AAXX 12094 07280 12462 83516 10040 20020 39920 40200 51028 60027 76176 887// 90900=
07280,1998-03-12 12:00:00,4,1022.1,2.1,87,2,15000,25.928,,,340,,,,0,,,,,,60,wg-a,,,,AAXX 12124 07280 02465 83414 10040 20020 39941 40221 52021 60026 76076 888// 91200 333 60007=
07280,1998-03-12 15:00:00,4,1022.9,1.5,81,1,20000,18.52,,,10,,,,,,,,,,60,wg-a,,,,AAXX 12154 07280 02470 80110 10040 20010 39949 40229 51015 61000 76066 888// 91500 333 ////=
07280,1998-03-12 18:00:00,4,1024.6,1.4,75,0,20000,7.408,,,360,1.9,5,,,,,,,,1,wg-a,,,,AAXX 12184 07280 12770 73604 10040 20000 39965 40246 53014 60006 70162 875// 91800 333 10050 20019=
07280,1998-03-12 21:00:00,3,1026.7,1.9,81,0,15000,14.816,,,330,,,,,,,,,,,wg-a,,,,AAXX 12214 07280 12765 /3308 10030 20000 39984 40267 51019 60006 85500 92100=
07280,1998-03-13 00:00:00,2,1027.7,0.9,80,-1,15000,14.816,,,330,,,,,,,,,,,wg-a,,,,AAXX 13004 07280 12765 23308 10020 21010 39993 40277 53009 60006 82500 90000=
07280,1998-03-13 03:00:00,0,1027.7,-0.2,86,-2,15000,11.112,,,350,,,,,,,,,,,wg-a,,,,AAXX 13034 07280 12765 13506 10000 21020 39991 40277 55002 60006 81500 90300=
07280,1998-03-13 06:00:00,0,1028.4,0.6,86,-2,11000,14.816,,,330,-0.6,4.4,,,,,2,,,,wg-a,,,,AAXX 13064 07280 02761 13308 10000 21020 39997 40284 53006 60006 81500 90600 333 10044 21006 60024=
07280,1998-03-13 09:00:00,4,1029.4,1.4,75,0,8000,14.816,,,10,,,,,,,,,,,wg-a,,,,AAXX 13094 07280 12458 /0108 10040 20000 30011 40294 51014 60006 81100 90900=
07280,1998-03-13 12:00:00,7,1028.9,-0.2,66,1,15000,11.112,,,30,,,,,,,,,,,wg-a,,,,AAXX 13124 07280 12565 30306 10070 20010 30009 40289 58002 60006 83200 91200=
07280,1998-03-13 15:00:00,8,1027.3,-1.4,49,-2,25000,3.704,,,40,,,,,,,,,,,wg-a,,,,AAXX 13154 07280 12675 20402 10080 21020 39995 40273 58014 60006 82401 91500=
07280,1998-03-13 18:00:00,5,1028.2,0.6,65,-1,25000,3.704,,,190,-0.2,8.5,,,,,,,,,wg-a,,,,AAXX 13184 07280 12775 71902 10050 21010 30001 40282 53006 60006 815/1 91800 333 10085 21002=
07280,1998-03-13 21:00:00,5,1029.4,1.1,65,-1,20000,7.408,,,360,,,,,,,,,,,wg-a,,,,AAXX 13214 07280 12770 73604 10050 21010 30012 40294 51011 60006 875// 92100=
07280,1998-03-14 00:00:00,5,1029.4,0,70,0,20000,3.704,,,340,,,,,,,,,,,wg-a,,,,AAXX 14004 07280 12670 83402 10050 20000 30012 40294 50000 60006 885// 90000=
07280,1998-03-14 03:00:00,4,1029.1,-0.3,81,1,20000,3.704,,,60,,,,,,,,,,,wg-a,,,,AAXX 14034 07280 12670 80602 10040 20010 30009 40291 58003 60006 885// 90300=
07280,1998-03-14 06:00:00,4,1029.7,0.6,87,2,12000,0,,,0,3.8,5.2,,,,,,,,,wg-a,,,,AAXX 14064 07280 02562 80000 10040 20020 30015 40297 53006 60006 885// 90600 333 10052 20038 60004=
07280,1998-03-14 09:00:00,6,1030.8,1.2,81,3,8000,7.408,,,20,,,,,,,,,,,wg-a,,,,AAXX 14094 07280 12458 80204 10060 20030 30027 40308 51012 60006 885// 90900=
07280,1998-03-14 12:00:00,8,1030.8,0.2,76,4,8000,7.408,,,30,,,,,,,,,,,wg-a,,,,AAXX 14124 07280 12458 80304 10080 20040 30029 40308 50002 60006 885// 91200=
07280,1998-03-14 15:00:00,9,1029.9,-0.7,66,3,10000,14.816,,,10,,,,,,,,,,,wg-a,,,,AAXX 14154 07280 12460 80108 10090 20030 30022 40299 56007 60006 888// 91500=
07280,1998-03-14 18:00:00,8,1030.8,0.7,76,4,12000,11.112,,,10,4,9.3,,,,,,,,,wg-a,,,,AAXX 14184 07280 12462 80106 10080 20040 30029 40308 53007 60006 888// 91800 333 10093 20040=
07280,1998-03-14 21:00:00,7,1031.4,0.6,81,4,12000,14.816,,,10,,,,,,,,,,,wg-a,,,,AAXX 14214 07280 12562 80108 10070 20040 30035 40314 53006 60006 888// 92100=
07280,1998-03-15 00:00:00,7,1031.2,-0.3,87,5,12000,14.816,,,360,,,,,,,,,,,wg-a,,,,AAXX 15004 07280 12562 83608 10070 20050 30032 40312 58003 60006 888// 90000=
07280,1998-03-15 03:00:00,7,1030.9,-0.3,87,5,10000,18.52,,,350,,,,,,,,,,,wg-a,,,,AAXX 15034 07280 12660 83510 10070 20050 30029 40309 58003 60006 885// 90300=
07280,1998-03-15 06:00:00,7,1031.2,0.3,76,3,15000,22.224,,,10,7,7.7,,,,,,,,,wg-a,,,,AAXX 15064 07280 02665 80112 10070 20030 30032 40312 53003 60006 885// 90600 333 10077 20070 60004=
07280,1998-03-15 09:00:00,8,1032.4,1.3,76,4,25000,18.52,,,10,,,,,,,,,,,wg-a,,,,AAXX 15094 07280 12575 80110 10080 20040 30045 40324 51013 60006 885// 90900=
07280,1998-03-15 12:00:00,9,1031.9,-0.4,71,4,25000,14.816,,,10,,,,,,,,,,,wg-a,,,,AAXX 15124 07280 12575 80108 10090 20040 30041 40319 58004 60006 888// 91200=
07280,1998-03-15 15:00:00,10,1030.8,-0.9,66,4,20000,18.52,,,340,,,,,,,,,,,wg-a,,,,AAXX 15154 07280 12670 83410 10100 20040 30032 40308 56009 60006 888// 91500=
07280,1998-03-15 18:00:00,9,1030.9,-0.1,66,3,8000,14.816,,,350,6.8,10.5,,,,,,,,,wg-a,,,,AAXX 15184 07280 12658 83508 10090 20030 30031 40309 55001 60006 885// 91800 333 10105 20068=
07280,1998-03-15 21:00:00,8,1031.2,0.2,76,4,8000,22.224,,,350,,,,,,,,,,,wg-a,,,,AAXX 15214 07280 12658 /3512 10080 20040 30033 40312 51002 60006 86500 92100=
07280,1998-03-16 00:00:00,6,1030.8,-0.5,87,4,8000,14.816,,,10,,,,,,,,,,,wg-a,,,,AAXX 16004 07280 12458 40108 10060 20040 30028 40308 58005 60006 84500 90000=
07280,1998-03-16 06:00:00,7,1030.5,0.8,87,5,4000,18.52,,,350,5.9,8.8,,,,,,,,10,wg-a,,,,AAXX 16064 07280 02440 83510 10070 20050 30026 40305 53008 60006 71011 885// 90600 333 10088 20059 60004=
07280,1998-03-16 09:00:00,9,1031.1,0.7,81,6,6000,18.52,,,350,,,,,,,,,,,wg-a,,,,AAXX 16094 07280 12556 83510 10090 20060 30033 40311 51007 60006 885// 90900=
07280,1998-03-16 12:00:00,11,1030.9,-0,71,6,8000,18.52,,,360,,,,,,,,,,,wg-a,,,,AAXX 16124 07280 12458 73610 10110 20060 30033 40309 55000 60006 878// 91200=
07280,1998-03-16 15:00:00,11,1030,-0.9,76,7,8000,18.52,,,10,,,,,,,,,,,wg-a,,,,AAXX 16154 07280 12458 80110 10110 20070 30024 40300 55009 60006 888// 91500=
07280,1998-03-16 18:00:00,10,1030.5,0.4,76,6,8000,18.52,,,350,7.4,11.2,,,,,,,,,wg-a,,,,AAXX 16184 07280 12558 83510 10100 20060 30028 40305 53004 60006 885// 91800 333 10112 20074=
07280,1998-03-17 00:00:00,7,1030.6,-0.4,93,6,10000,7.408,,,20,,,,,,,,,,,wg-a,,,,AAXX 17004 07280 12660 70204 10070 20060 30027 40306 58004 60006 875// 90000=
07280,1998-03-17 03:00:00,7,1030.1,-0.5,87,5,8000,11.112,,,340,,,,,,,,,,,wg-a,,,,AAXX 17034 07280 12658 73406 10070 20050 30022 40301 57005 60006 875// 90300=
07280,1998-03-17 06:00:00,7,1030.5,0.3,87,5,6000,7.408,,,20,6.1,9.7,,,,,,,,,wg-a,,,,AAXX 17064 07280 02556 70204 10070 20050 30025 40305 53003 60006 875// 90600 333 10097 20061 60004=
07280,1998-03-17 09:00:00,9,1031.6,1.3,66,3,10000,18.52,,,10,,,,,,,,,,,wg-a,,,,AAXX 17094 07280 12460 70110 10090 20030 30038 40316 53013 60006 878// 90900=
07280,1998-03-17 12:00:00,10,1031.5,0,62,3,10000,18.52,,,20,,,,,,,,,,,wg-a,,,,AAXX 17124 07280 12560 70210 10100 20030 30038 40315 50000 60006 875// 91200=
07280,1998-03-17 15:00:00,10,1031.4,-0.1,62,3,10000,22.224,,,20,,,,,,,,,,,wg-a,,,,AAXX 17154 07280 12560 80212 10100 20030 30037 40314 55001 60006 885// 91500=
07280,1998-03-17 18:00:00,8,1032.4,0.8,71,3,9000,14.816,,,40,7,10.7,,,,,,,,,wg-a,,,,AAXX 17184 07280 12559 80408 10080 20030 30045 40324 52008 60006 885// 91800 333 10107 20070=
07280,1998-03-17 21:00:00,7,1032.7,0.2,76,3,9000,14.816,,,360,,,,,,,,,,,wg-a,,,,AAXX 17214 07280 12559 83608 10070 20030 30047 40327 50002 60006 885// 92100=
07280,1998-03-18 00:00:00,7,1033,0.3,76,3,8000,14.816,,,10,,,,,,,,,,,wg-a,,,,AAXX 18004 07280 12658 80108 10070 20030 30050 40330 51003 60006 885// 90000=
07280,1998-03-18 03:00:00,7,1032.9,-0.1,76,3,8000,14.816,,,20,,,,,,,,,,,wg-a,,,,AAXX 18034 07280 12558 80208 10070 20030 30049 40329 58001 60006 885// 90300=
07280,1998-03-18 06:00:00,7,1033.7,0.7,81,4,500,14.816,,,20,6.5,7.7,,,,,,,,,wg-a,,,,AAXX 18064 07280 02500 70208 10070 20040 30056 40337 51007 60006 875// 90600 333 10077 20065 60004=
07280,1998-03-18 09:00:00,10,1034.3,0.9,62,3,10000,22.224,,,30,,,,,,,,,,,wg-a,,,,AAXX 18094 07280 12/60 20312 10100 20030 30065 40343 51009 60006 80001 90900=
07280,1998-03-18 12:00:00,13,1034.1,0.1,54,4,12000,25.928,,,40,,,,,,,,,,,wg-a,,,,AAXX 18124 07280 12662 70414 10130 20040 30066 40341 50001 60006 81101 91200=
07280,1998-03-18 15:00:00,14,1033.6,-0.4,51,4,15000,22.224,,,20,,,,,,,,,,,wg-a,,,,AAXX 18154 07280 12665 20212 10140 20040 30062 40336 56004 60006 82500 91500=
07280,1998-03-18 18:00:00,10,1035.1,1.1,66,4,12000,18.52,,,10,6.4,14.1,,,,,,,,,wg-a,,,,AAXX 18184 07280 12/62 10110 10100 20040 30073 40351 53011 60006 80001 91800 333 10141 20064=
07280,1998-03-18 21:00:00,7,1036.2,0.8,76,3,12000,14.816,,,10,,,,,,,,,,,wg-a,,,,AAXX 18214 07280 12/62 00108 10070 20030 30081 40362 51008 60006 80000 92100=
07280,1998-03-19 00:00:00,7,1036.9,0.6,76,3,12000,18.52,,,10,,,,,,,,,,,wg-a,,,,AAXX 19004 07280 12/62 00110 10070 20030 30087 40369 51006 60006 80000 90000=
07280,1998-03-19 03:00:00,6,1036.6,-0.3,81,3,12000,14.816,,,360,,,,,,,,,,,wg-a,,,,AAXX 19034 07280 12662 23608 10060 20030 30084 40366 56003 60006 82500 90300=
07280,1998-03-19 06:00:00,6,1037.4,0.8,87,4,8000,11.112,,,20,5,10.3,,,,,,,,,wg-a,,,,AAXX 19064 07280 02658 80206 10060 20040 30092 40374 52008 60006 875// 90600 333 10103 20050 60004=
07280,1998-03-19 09:00:00,9,1038.8,1.6,57,1,15000,25.928,,,50,,,,,,,,,,,wg-a,,,,AAXX 19094 07280 12565 20514 10090 20010 30108 40388 51016 60006 81101 90900=
07280,1998-03-19 12:00:00,11,1038.6,-0.1,37,-3,500,25.928,,,40,,,,,,,,,,,wg-a,,,,AAXX 19124 07280 12600 10414 10110 21030 30107 40386 55001 60006 81101 91200=
07280,1998-03-19 15:00:00,12,1037.2,-1.2,38,-2,35000,22.224,,,30,,,,,,,,,,,wg-a,,,,AAXX 19154 07280 12781 10312 10120 21020 30095 40372 56012 60006 81100 91500=
07280,1998-03-19 18:00:00,9,1037.6,0.1,43,-3,500,22.224,,,30,6.1,11.8,,,,,,,,,wg-a,,,,AAXX 19184 07280 12/00 10312 10090 21030 30096 40376 53001 60006 80001 91800 333 10118 20061=
07280,1998-03-19 21:00:00,5,1038,0,60,-2,25000,18.52,,,20,,,,,,,,,,,wg-a,,,,AAXX 19214 07280 12/75 00210 10050 21020 30096 40380 50000 60006 80000 92100=
07280,1998-03-20 00:00:00,3,1038.2,0,65,-3,25000,18.52,,,10,,,,,,,,,,,wg-a,,,,AAXX 20004 07280 12/75 00110 10030 21030 30096 40382 50000 60006 80000 90000=
07280,1998-03-20 03:00:00,2,1037.7,-0.6,64,-4,20000,18.52,,,10,,,,,,,,,,,wg-a,,,,AAXX 20034 07280 12/70 00110 10020 21040 30090 40377 56006 60006 80000 90300=
07280,1998-03-20 06:00:00,1,1037.4,-0.4,75,-3,20000,11.112,,,360,1.3,8.6,,,,,,,,,wg-a,,,,AAXX 20064 07280 02/70 03606 10010 21030 30086 40374 57004 60006 80000 90600 333 10086 20013 60004=
07280,1998-03-20 09:00:00,7,1037.3,0.5,57,-1,15000,22.224,,,30,,,,,,,,,,,wg-a,,,,AAXX 20094 07280 12/65 60312 10070 21010 30091 40373 51005 60006 80002 90900=
07280,1998-03-20 12:00:00,9,1035.9,-1.1,43,-3,500,29.632,,,30,,,,,,,,,,,wg-a,,,,AAXX 20124 07280 12700 10316 10090 21030 30080 40359 56011 60006 81101 91200=
07280,1998-03-20 15:00:00,11,1033.5,-2.2,40,-2,35000,31.484,,,20,,,,,,,,,,,wg-a,,,,AAXX 20154 07280 12781 10217 10110 21020 30058 40335 57022 60006 81401 91500=
07280,1998-03-20 18:00:00,8,1033.7,-0,53,-1,500,14.816,,,30,1.2,10.9,,,,,,,,,wg-a,,,,AAXX 20184 07280 12800 70308 10080 21010 30058 40337 55000 60006 81032 91800 333 10109 20012=
07280,1998-03-20 21:00:00,7,1033.9,0,66,1,25000,14.816,,,10,,,,,,,,,,,wg-a,,,,AAXX 20214 07280 12/75 80108 10070 20010 30058 40339 50000 60006 8807/ 92100=
07280,1998-03-21 00:00:00,8,1032.4,-1.3,71,3,20000,18.52,,,350,,,,,,,,,,,wg-a,,,,AAXX 21004 07280 12570 73510 10080 20030 30045 40324 58013 60006 875// 90000=
07280,1998-03-21 03:00:00,8,1031,-1.4,76,4,8000,11.112,,,10,,,,,,,,,,,wg-a,,,,AAXX 21034 07280 12558 80106 10080 20040 30031 40310 58014 60006 885// 90300=
07280,1998-03-21 06:00:00,7,1030.4,-0.6,87,5,9000,14.816,,,10,6.9,8.5,,,,,,,,,wg-a,,,,AAXX 21064 07280 02359 80108 10070 20050 30025 40304 56006 60006 885// 90600 333 10085 20069 60004=
07280,1998-03-21 09:00:00,8,1030.3,-0.1,81,5,12000,22.224,,,10,,,,,,,,,,1,wg-a,,,,AAXX 21094 07280 02462 80112 10080 20050 30024 40303 58001 61000 70165 888// 90900 333 ////=
07280,1998-03-21 12:00:00,11,1029,-0.9,54,2,20000,25.928,,,20,,,,,,,,,,25,wg-a,,,,AAXX 21124 07280 02670 30214 10110 20020 30015 40290 58009 61000 72586 83200 91200 333 6100=
07280,1998-03-21 15:00:00,12,1027.8,-1.1,35,-3,500,29.632,,,30,,,,,,,,,,,wg-a,,,,AAXX 21154 07280 12700 10316 10120 21030 30004 40278 56011 60006 81100 91500=
07280,1998-03-21 18:00:00,8,1029.2,0.9,46,-3,25000,22.224,,,40,6.9,12.6,,,,,,,,,wg-a,,,,AAXX 21184 07280 12/75 00412 10080 21030 30013 40292 53009 60006 80000 91800 333 10126 20069=
07280,1998-03-21 21:00:00,4,1030.6,1,60,-3,20000,18.52,,,10,,,,,,,,,,,wg-a,,,,AAXX 21214 07280 12/70 00110 10040 21030 30023 40306 51010 60006 80000 92100=
07280,1998-03-22 00:00:00,2,1031.1,0.2,64,-4,20000,18.52,,,10,,,,,,,,,,,wg-a,,,,AAXX 22004 07280 12/70 00110 10020 21040 30025 40311 50002 60006 80000 90000=
07280,1998-03-22 03:00:00,0,1030.8,-0.4,69,-5,20000,18.52,,,10,,,,,,,,,,,wg-a,,,,AAXX 22034 07280 12/70 00110 10000 21050 30021 40308 58004 60006 80000 90300=
07280,1998-03-22 06:00:00,0,1031.3,0.5,64,-6,25000,22.224,,,10,-0.3,7.6,,,,,,,,,wg-a,,,,AAXX 22064 07280 02/75 00112 10000 21060 30026 40313 53005 60006 80000 90600 333 10076 21003 61000=
07280,1998-03-22 12:00:00,10,1030.4,-0.6,29,-7,50000,31.484,,51.856,40,,,,,,,,,,,wg-a,,,,AAXX 22124 07280 12/84 20417 10100 21070 30027 40304 58006 60006 80001 91200 333 91028=
07280,1998-03-22 15:00:00,11,1028.9,-1.4,30,-6,50000,25.928,,,40,,,,,,,,,,,wg-a,,,,AAXX 22154 07280 12/84 00414 10110 21060 30013 40289 56014 60006 80000 91500=
07280,1998-03-22 18:00:00,8,1029.2,0.1,36,-6,500,14.816,,,30,-0.1,10.9,,,,,,,,,wg-a,,,,AAXX 22184 07280 12/00 00308 10080 21060 30014 40292 53001 60006 80000 91800 333 10109 21001=
07280,1998-03-22 21:00:00,4,1029.9,0.2,52,-5,25000,18.52,,,10,,,,,,,,,,,wg-a,,,,AAXX 22214 07280 12/75 00110 10040 21050 30016 40299 52002 60006 80000 92100=
07280,1998-03-23 00:00:00,2,1029.5,-0.6,60,-5,20000,7.408,,,330,,,,,,,,,,,wg-a,,,,AAXX 23004 07280 12/70 03304 10020 21050 30010 40295 57006 60006 80000 90000=
07280,1998-03-23 03:00:00,0,1028.5,-1.1,86,-2,15000,11.112,,,330,,,,,,,,,,,wg-a,,,,AAXX 23034 07280 12765 13306 10000 21020 39999 40285 57011 60006 81500 90300=
07280,1998-03-23 06:00:00,3,1027.9,-0.3,87,1,12000,7.408,,,340,0,8.3,,,,,,,,,wg-a,,,,AAXX 23064 07280 02562 73404 10030 20010 39996 40279 56003 60006 875// 90600 333 10083 20000 60004=
07280,1998-03-23 09:00:00,6,1027.5,-0.1,75,2,9000,11.112,,,340,,,,,,,,,,,wg-a,,,,AAXX 23094 07280 12459 83406 10060 20020 39995 40275 55001 60006 888// 90900=
07280,1998-03-23 12:00:00,8,1025.9,-1.4,61,1,12000,7.408,,,280,,,,,,,,,,,wg-a,,,,AAXX 23124 07280 12562 82804 10080 20010 39981 40259 57014 60006 888// 91200=
07280,1998-03-23 15:00:00,7,1024.3,-1.6,66,1,15000,14.816,,,310,,,,,,,,,,,wg-a,,,,AAXX 23154 07280 12565 83108 10070 20010 39965 40243 56016 60006 888// 91500=
07280,1998-03-23 18:00:00,7,1023.5,-0.8,70,2,15000,18.52,,,290,3.4,8.5,,,,,,,,21,wg-a,,,,AAXX 23184 07280 02565 72910 10070 20020 39957 40235 56008 61000 72162 87800 91800 333 10085 20034 6100=
07280,1998-03-23 21:00:00,2,1025.2,1.2,93,1,8000,22.224,,,20,,,,0,,,,,,61,wg-a,,,,AAXX 23214 07280 12258 80212 10020 20010 39969 40252 52012 60007 76162 887// 92100=
07280,1998-03-24 00:00:00,0,1025.7,0.2,80,-3,15000,18.52,,,360,,,,,,,,,,1,wg-a,,,,AAXX 24004 07280 02765 23610 10000 21030 39971 40257 51002 60016 70161 82500 90000 333 61000=
07280,1998-03-24 03:00:00,-1,1025.9,0.1,80,-4,15000,22.224,,,10,,,,,,,,,,,wg-a,,,,AAXX 24034 07280 12/65 00112 11010 21040 39972 40259 52001 60006 80000 90300=
07280,1998-03-24 06:00:00,-2,1027.2,1.2,80,-5,12000,25.928,,,10,-1.6,6.6,,,,,,,,,wg-a,,,,AAXX 24064 07280 02/62 10114 11020 21050 39984 40272 53012 60006 81031 90600 333 10066 21016 60004=
07280,1998-03-24 09:00:00,2,1029.1,2.2,69,-3,12000,25.928,,,30,,,,,,,,,,,wg-a,,,,AAXX 24094 07280 12562 /0314 10020 21030 30006 40291 51022 60006 81100 90900=
07280,1998-03-24 12:00:00,5,1029.5,0.8,56,-3,18000,22.224,,,30,,,,,,,,,,,wg-a,,,,AAXX 24124 07280 12568 /0312 10050 21030 30014 40295 51008 60006 84200 91200=
07280,1998-03-24 15:00:00,7,1030,0.6,53,-2,20000,22.224,,,30,,,,,,,,,,,wg-a,,,,AAXX 24154 07280 12670 30312 10070 21020 30020 40300 53006 60006 83501 91500=
07280,1998-03-24 18:00:00,4,1031.4,1.1,65,-2,20000,3.704,,,60,-1.5,7.2,,,,,,,,,wg-a,,,,AAXX 24184 07280 12670 /0602 10040 21020 30031 40314 53011 60006 81501 91800 333 10072 21015=
07280,1998-03-24 21:00:00,1,1032.6,0.9,80,-2,15000,7.408,,,320,,,,,,,,,,,wg-a,,,,AAXX 24214 07280 12/65 13204 10010 21020 30040 40326 51009 60006 80001 92100=
07280,1998-03-25 00:00:00,0,1032.7,-0.1,74,-4,20000,18.52,,,10,,,,,,,,,,,wg-a,,,,AAXX 25004 07280 12/70 00110 10000 21040 30039 40327 55001 60006 80000 90000=
07280,1998-03-25 03:00:00,-2,1032.1,-0.7,80,-5,20000,14.816,,,350,,,,,,,,,,,wg-a,,,,AAXX 25034 07280 12/70 03508 11020 21050 30032 40321 58007 60006 80000 90300=
07280,1998-03-25 06:00:00,-2,1031.9,-0.3,74,-6,15000,14.816,,,20,-2.3,4.3,,,,,,,,,wg-a,,,,AAXX 25064 07280 02/65 40208 11020 21060 30029 40319 57003 60006 80001 90600 333 10043 21023 60004=
07280,1998-03-25 09:00:00,4,1031,-0.2,52,-5,15000,22.224,,,40,,,,,,,,,,,wg-a,,,,AAXX 25094 07280 12/65 20412 10040 21050 30027 40310 58002 60006 80001 90900=
07280,1998-03-25 12:00:00,9,1029.5,-1,31,-7,25000,25.928,,,50,,,,,,,,,,,wg-a,,,,AAXX 25124 07280 12/75 60514 10090 21070 30017 40295 58010 60006 80002 91200=
07280,1998-03-25 15:00:00,10,1027.2,-2.1,27,-8,500,25.928,,,40,,,,,,,,,,,wg-a,,,,AAXX 25154 07280 12/00 70414 10100 21080 39996 40272 57021 60006 80002 91500=
07280,1998-03-25 18:00:00,7,1026.5,-1,39,-6,20000,7.408,,,30,-2,10.7,,,,,,,,,wg-a,,,,AAXX 25184 07280 12/70 70304 10070 21060 39986 40265 55010 60006 80005 91800 333 10107 21020=
07280,1998-03-25 21:00:00,3,1026.4,-0.4,52,-6,20000,11.112,,,350,,,,,,,,,,,wg-a,,,,AAXX 25214 07280 12/70 53506 10030 21060 39982 40264 58004 60006 80001 92100=
07280,1998-03-26 00:00:00,0,1025.9,-0.9,64,-6,15000,14.816,,,340,,,,,,,,,,,wg-a,,,,AAXX 26004 07280 12/65 03408 10000 21060 39973 40259 58009 60006 80000 90000=
07280,1998-03-26 03:00:00,-2,1025.6,-0.5,69,-7,15000,7.408,,,350,,,,,,,,,,,wg-a,,,,AAXX 26034 07280 12/65 03504 11020 21070 39968 40256 58005 60006 80000 90300=
07280,1998-03-26 06:00:00,-3,1025.9,0.2,74,-7,20000,7.408,,,320,-4.2,7.3,,,,,,,,,wg-a,,,,AAXX 26064 07280 02/70 13204 11030 21070 39970 40259 53002 60006 80001 90600 333 10073 21042 60004=
07280,1998-03-26 09:00:00,5,1025.3,0.2,48,-5,15000,3.704,,,360,,,,,,,,,,,wg-a,,,,AAXX 26094 07280 12/65 23602 10050 21050 39972 40253 53002 60006 80001 90900=
07280,1998-03-26 12:00:00,11,1022.7,-1.9,28,-7,20000,11.112,,,150,,,,,,,,,,,wg-a,,,,AAXX 26124 07280 12/70 21506 10110 21070 39953 40227 58019 60006 81031 91200=
07280,1998-03-26 15:00:00,13,1020.4,-2.1,30,-4,500,11.112,,,130,,,,,,,,,,,wg-a,,,,AAXX 26154 07280 12/00 71306 10130 21040 39932 40204 58021 60006 81032 91500=
07280,1998-03-26 18:00:00,10,1020.7,0.1,34,-5,20000,7.408,,,160,-3.1,13,,,,,,,,,wg-a,,,,AAXX 26184 07280 12/70 81604 10100 21050 39933 40207 53001 60006 85077 91800 333 10130 21031=
07280,1998-03-26 21:00:00,8,1021.2,0.3,46,-3,15000,0,,,0,,,,,,,,,,,wg-a,,,,AAXX 26214 07280 12765 80000 10080 21030 39936 40212 51003 60006 8157/ 92100=
07280,1998-03-27 00:00:00,8,1021.4,0.2,57,0,15000,7.408,,,350,,,,,,,,,,21,wg-a,,,,AAXX 27004 07280 02665 83504 10080 20000 39938 40214 52002 61000 72162 8357/ 90000 333 6100=
07280,1998-03-27 03:00:00,7,1021,-0.5,76,3,15000,3.704,,,140,,,,,,,,,,,wg-a,,,,AAXX 27034 07280 12665 81402 10070 20030 39933 40210 56005 60006 875// 90300=
07280,1998-03-27 06:00:00,7,1021.6,0.5,76,3,15000,7.408,,,280,6.5,10.1,,,,,,,,,wg-a,,,,AAXX 27064 07280 02665 82804 10070 20030 39938 40216 51005 60006 8357/ 90600 333 10101 20065 61000=
07280,1998-03-27 09:00:00,9,1022.5,1.1,57,1,15000,3.704,,,190,,,,,,,,,,,wg-a,,,,AAXX 27094 07280 12565 81902 10090 20010 39949 40225 53011 60006 885// 90900=
07280,1998-03-27 12:00:00,13,1021.7,-0.3,54,4,15000,7.408,,,190,,,,,,,,,,,wg-a,,,,AAXX 27124 07280 12/65 81904 10130 20040 39946 40217 58003 60006 8807/ 91200=
07280,1998-03-27 15:00:00,16,1020,-1.4,48,5,20000,3.704,,,150,,,,,,,,,,,wg-a,,,,AAXX 27154 07280 12/70 51502 10160 20050 39932 40200 56014 60006 81031 91500=
07280,1998-03-27 18:00:00,12,1019.9,-0.4,62,5,18000,7.408,,,100,6.6,15.9,,,,,,,,,wg-a,,,,AAXX 27184 07280 12/68 61004 10120 20050 39928 40199 55004 60006 80001 91800 333 10159 20066=
07280,1998-03-27 21:00:00,7,1021,0.5,81,4,15000,3.704,,,310,,,,,,,,,,,wg-a,,,,AAXX 27214 07280 12/65 23102 10070 20040 39933 40210 51005 60006 80001 92100=
07280,1998-03-28 00:00:00,6,1019.9,-1.2,81,3,15000,11.112,,,10,,,,,,,,,,,wg-a,,,,AAXX 28004 07280 12/65 20106 10060 20030 39921 40199 58012 60006 80001 90000=
07280,1998-03-28 03:00:00,5,1019.4,-0.6,87,3,15000,7.408,,,350,,,,,,,,,,,wg-a,,,,AAXX 28034 07280 12/65 03504 10050 20030 39915 40194 56006 60006 80000 90300=
07280,1998-03-28 06:00:00,2,1020.2,0.5,87,0,12000,0,,,0,2,12.4,,,,,,,,,wg-a,,,,AAXX 28064 07280 02/62 50000 10020 20000 39920 40202 52005 60006 80001 90600 333 10124 20020 60004=
07280,1998-03-28 09:00:00,11,1019.3,0,71,6,10000,22.224,,,200,,,,,,,,,,,wg-a,,,,AAXX 28094 07280 12/60 62012 10110 20060 39920 40193 50000 60006 80001 90900=
07280,1998-03-28 12:00:00,16,1017.3,-1.5,51,6,12000,11.112,,,200,,,,,,,,,,,wg-a,,,,AAXX 28124 07280 12/62 72006 10160 20060 39905 40173 58015 60006 81032 91200=
07280,1998-03-28 15:00:00,18,1014.8,-2.2,45,6,15000,18.52,,,190,,,,,,,,,,,wg-a,,,,AAXX 28154 07280 12/65 81910 10180 20060 39883 40148 56022 60006 80006 91500=
07280,1998-03-28 18:00:00,14,1014.7,-0.4,58,6,15000,11.112,,,150,2,17.8,,,,,,,,,wg-a,,,,AAXX 28184 07280 12/65 71506 10140 20060 39879 40147 56004 60006 80008 91800 333 10178 20020=
07280,1998-03-28 21:00:00,11,1014.9,-0.2,62,4,15000,11.112,,,140,,,,,,,,,,,wg-a,,,,AAXX 28214 07280 12/65 41406 10110 20040 39877 40149 58002 60006 80001 92100=
07280,1998-03-29 00:00:00,8,1015,-0.1,71,3,10000,11.112,,,180,,,,,,,,,,,wg-a,,,,AAXX 29004 07280 12/60 /1806 10080 20030 39874 40150 58001 60006 90000=
07280,1998-03-29 03:00:00,7,1013.9,-1.3,76,3,10000,7.408,,,180,,,,,,,,,,,wg-a,,,,AAXX 29034 07280 12/60 71804 10070 20030 39863 40139 56013 60006 80002 90300=
07280,1998-03-29 06:00:00,5,1013.8,-0.2,87,3,12000,7.408,,,170,5.1,14.4,,,,,,,,,wg-a,,,,AAXX 29064 07280 02/62 41704 10050 20030 39861 40138 56002 60006 82031 90600 333 10144 20051 60004=
07280,1998-03-29 09:00:00,14,1012.7,-0.3,55,5,15000,18.52,,,180,,,,,,,,,,,wg-a,,,,AAXX 29094 07280 12/65 41810 10140 20050 39858 40127 58003 60006 80001 90900=
07280,1998-03-29 12:00:00,20,1009.9,-2.1,37,5,25000,31.484,,,180,,,,,,,,,,,wg-a,,,,AAXX 29124 07280 12/75 41817 10200 20050 39837 40099 58021 60006 81031 91200=
07280,1998-03-29 18:00:00,17,1008.6,-0,45,5,500,11.112,,,180,5.2,21.1,,,,,,,,,wg-a,,,,AAXX 29184 07280 12/00 51806 10170 20050 39822 40086 55000 60006 81031 91800 333 10211 20052=
07280,1998-03-29 21:00:00,12,1010.9,1.7,62,5,25000,0,,,0,,,,,,,,,,,wg-a,,,,AAXX 29214 07280 12/75 40000 10120 20050 39839 40109 52017 60006 81031 92100=
07280,1998-03-30 00:00:00,12,1012.6,1.7,62,5,20000,18.52,,,190,,,,,,,,,,,wg-a,,,,AAXX 30004 07280 12/70 51910 10120 20050 39856 40126 53017 60006 80001 90000=
07280,1998-03-30 12:00:00,19,1016,-0.2,40,5,20000,11.112,,,180,,,,,,,,,,,wg-a,,,,AAXX 30124 07280 12/70 61806 10190 20050 39895 40160 58002 60006 81032 91200=
07280,1998-03-30 15:00:00,20,1015,-0.8,37,5,500,7.408,,,190,,,,,,,,,,,wg-a,,,,AAXX 30154 07280 12/00 71904 10200 20050 39887 40150 56008 60006 80002 91500=
07280,1998-03-30 18:00:00,15,1016.5,1,48,4,25000,7.408,,,140,5.3,20.2,,,,,,,,,wg-a,,,,AAXX 30184 07280 12/75 71404 10150 20040 39897 40165 53010 60006 80002 91800 333 10202 20053=
07280,1998-03-30 21:00:00,12,1018,1.1,50,2,15000,14.816,,,330,,,,,,,,,,,wg-a,,,,AAXX 30214 07280 12/65 33308 10120 20020 39908 40180 51011 60006 80002 92100=
07280,1998-03-31 00:00:00,10,1019.1,0.9,62,3,14000,7.408,,,350,,,,,,,,,,,wg-a,,,,AAXX 31004 07280 12/64 53504 10100 20030 39917 40191 51009 60006 80002 90000=
07280,1998-03-31 03:00:00,8,1018.6,-0.6,76,4,15000,11.112,,,340,,,,,,,,,,,wg-a,,,,AAXX 31034 07280 12/65 23406 10080 20040 39911 40186 58006 60006 80002 90300=
07280,1998-03-31 06:00:00,4,1019.1,-0,87,2,12000,0,,,0,3.8,15.2,,,,,,,,,wg-a,,,,AAXX 31064 07280 02/62 10000 10040 20020 39911 40191 55000 60006 81031 90600 333 10152 20038 60004=
07280,1998-03-31 09:00:00,14,1018.1,0,67,8,9000,3.704,,,50,,,,,,,,,,,wg-a,,,,AAXX 31094 07280 12/59 50502 10140 20080 39911 40181 50000 60006 84052 90900=
07280,1998-03-31 12:00:00,19,1016,-1.5,52,9,20000,7.408,,,160,,,,,,,,,,,wg-a,,,,AAXX 31124 07280 12/70 21604 10190 20090 39896 40160 58015 60006 80009 91200=
07280,1998-03-31 15:00:00,21,1014,-1.8,35,5,25000,11.112,,,200,,,,,,,,,,,wg-a,,,,AAXX 31154 07280 12/75 12006 10210 20050 39878 40140 56018 60006 80001 91500=
07280,1998-03-31 18:00:00,17,1013.9,-0.5,45,5,20000,11.112,,,160,4,21.3,,,,,,,,,wg-a,,,,AAXX 31184 07280 12/70 11606 10170 20050 39873 40139 55005 60006 81031 91800 333 10213 20040=
07280,1998-03-31 21:00:00,12,1015.6,1.2,58,4,20000,7.408,,,210,,,,,,,,,,,wg-a,,,,AAXX 31214 07280 12/70 32104 10120 20040 39885 40156 51012 60006 82031 92100=
07280,1998-04-01 00:00:00,11,1016.1,0.4,66,5,15000,7.408,,,210,,,,,,,,,,,wg-a,,,,AAXX 01004 07280 12/65 82104 10110 20050 39889 40161 51004 60006 8707/ 90000=
07280,1998-04-01 03:00:00,10,1015.3,-0.8,76,6,15000,11.112,,,180,,,,,,,,,,60,wg-a,,,,AAXX 01034 07280 02665 81806 10100 20060 39881 40153 58008 61000 76062 8257/ 90300 333 ////=
07280,1998-04-01 06:00:00,11,1015.6,0.3,82,8,15000,7.408,,,190,9.2,16.8,,,,,,,,21,wg-a,,,,AAXX 01064 07280 02665 81904 10110 20080 39884 40156 53003 61000 72162 8157/ 90600 333 10168 20092 6100=
07280,1998-04-01 09:00:00,13,1015.6,0.2,72,8,15000,14.816,,,200,,,,,,,,,,,wg-a,,,,AAXX 01094 07280 12865 82008 10130 20080 39886 40156 51002 60006 8557/ 90900=
07280,1998-04-01 12:00:00,15,1014.7,-0.6,67,9,18000,25.928,,,200,,,,,,,,,,,wg-a,,,,AAXX 01124 07280 12668 82014 10150 20090 39880 40147 58006 60006 8452/ 91200=
07280,1998-04-01 15:00:00,14,1014,-0.8,72,9,20000,14.816,,,260,,,,,,,,,,,wg-a,,,,AAXX 01154 07280 12570 72608 10140 20090 39872 40140 56008 60006 878// 91500=
07280,1998-04-01 18:00:00,12,1014.5,0.3,82,9,25000,11.112,,,200,10.5,16,,,,,,,,,wg-a,,,,AAXX 01184 07280 12575 72006 10120 20090 39875 40145 53003 60006 878// 91800 333 10160 20105=
07280,1998-04-01 21:00:00,11,1015,0.4,87,9,12000,14.816,,,200,,,,,,,,,,,wg-a,,,,AAXX 01214 07280 12562 /2008 10110 20090 39879 40150 51004 60006 81130 92100=
07280,1998-04-02 00:00:00,9,1014.4,-0.8,93,8,12000,11.112,,,190,,,,,,,,,,21,wg-a,,,,AAXX 02004 07280 02/62 61906 10090 20080 39871 40144 58008 61000 72161 86030 90000 333 6100=
07280,1998-04-02 03:00:00,9,1012.7,-1.6,93,8,60000,14.816,,,190,,,,,,,,,,,wg-a,,,,AAXX 02034 07280 12186 71908 10090 20080 39855 40127 58016 60006 8523/ 90300=
07280,1998-04-02 06:00:00,9,1011.7,-1,93,8,2000,11.112,,,200,9,12.4,,,,,,,,10,wg-a,,,,AAXX 02064 07280 02220 82006 10090 20080 39845 40117 56010 60006 71022 886// 90600 333 10124 20090 61000=
07280,1998-04-02 09:00:00,11,1010,-1.5,82,8,500,22.224,,,200,,,,,,,,,,,wg-a,,,,AAXX 02094 07280 12300 72012 10110 20080 39830 40100 58015 60006 86101 90900=
07280,1998-04-02 12:00:00,11,1009,-1,87,9,500,22.224,,,190,,,,2,,,,,,61,wg-a,,,,AAXX 02124 07280 02400 81912 10110 20090 39820 40090 57010 60026 76162 8682/ 91200 333 60027=
07280,1998-04-02 15:00:00,12,1006.7,-2.1,88,10,15000,31.484,,,200,,,,1,,,,,,1,wg-a,,,,AAXX 02154 07280 12465 62017 10120 20100 39799 40067 58021 60017 70162 86800 91500=
07280,1998-04-02 18:00:00,10,1006.3,-0.6,87,8,15000,25.928,,,200,9,13.2,,,,,,,,25,wg-a,,,,AAXX 02184 07280 02565 82014 10100 20080 39793 40063 56006 61000 72586 878// 91800 333 10132 20090 6005=
07280,1998-04-02 21:00:00,10,1005.8,-0.4,93,9,9000,11.112,,,210,,,,,,,,,,,wg-a,,,,AAXX 02214 07280 12759 82106 10100 20090 39789 40058 58004 60006 885// 92100=
07280,1998-04-03 00:00:00,11,1005.2,-0.5,87,9,12000,14.816,,,190,,,,0,,,,,,61,wg-a,,,,AAXX 03004 07280 02662 81908 10110 20090 39784 40052 56005 60006 76162 885// 90000 333 60007=
07280,1998-04-03 03:00:00,11,1003.5,-1.7,94,10,8000,22.224,,,200,,,,2,,,,,,61,wg-a,,,,AAXX 03034 07280 12458 82012 10110 20100 39767 40035 56017 60027 76166 887// 90300=
07280,1998-04-03 06:00:00,12,1002.5,-0.9,94,11,7000,25.928,,,200,9,12.1,,,,,,,,10,wg-a,,,,AAXX 03064 07280 02457 82014 10120 20110 39758 40025 56009 61000 71062 885// 90600 333 10121 20090 6011=
07280,1998-04-03 09:00:00,15,1002.1,-0.1,77,11,12000,35.188,,,210,,,,,,,,,,,wg-a,,,,AAXX 03094 07280 12762 /2119 10150 20110 39757 40021 58001 60006 83531 90900=
07280,1998-04-03 12:00:00,20,999.3,-2.3,60,12,25000,35.188,,,190,,,,,,,,,,,wg-a,,,,AAXX 03124 07280 12675 /1919 10200 20120 39734 49993 58023 60006 84201 91200=
07280,1998-04-03 15:00:00,17,997.5,-2,77,13,12000,18.52,,,260,,,,1,,,,,,80,wg-a,,,,AAXX 03154 07280 12662 72610 10170 20130 39714 49975 56020 60017 78086 86202 91500=
07280,1998-04-03 18:00:00,17,995.5,-1.9,72,12,20000,7.408,,,280,12,20.4,,,,,,,,25,wg-a,,,,AAXX 03184 07280 02470 82804 10170 20120 39695 49955 56019 61000 72586 873// 91800 333 10204 20120 6100=
07280,1998-04-03 21:00:00,12,999.1,3,82,9,20000,11.112,,,330,,,,,,,,,,3,wg-a,,,,AAXX 03214 07280 02470 83306 10120 20090 39725 49991 53030 61000 70398 8582/ 92100 333 ////=
07280,1998-04-04 00:00:00,8,1002.4,2.8,76,4,20000,22.224,,,250,,,,,,,,,,60,wg-a,,,,AAXX 04004 07280 02470 82512 10080 20040 39753 40024 53028 61000 76098 888// 90000 333 6100=
07280,1998-04-04 03:00:00,6,1004.2,1.6,93,5,15000,14.816,,,180,,,,4,,,,,,61,wg-a,,,,AAXX 04034 07280 12265 81808 10060 20050 39769 40042 51016 60047 76166 888// 90300=
07280,1998-04-04 06:00:00,5,1004.8,0.5,93,4,20000,22.224,,,170,5.4,17.5,,,,,9,,,3,wg-a,,,,AAXX 04064 07280 02370 81712 10050 20040 39774 40048 53005 60006 70362 888// 90600 333 10175 20054 60094=
07280,1998-04-04 09:00:00,8,1005.6,1,81,5,500,29.632,,,200,,,,,,,,,,,wg-a,,,,AAXX 04094 07280 12400 /2016 10080 20050 39784 40056 51010 60006 875// 90900=
07280,1998-04-04 12:00:00,12,1005.1,-0.1,67,6,50000,29.632,,,190,,,,,,,,,,,wg-a,,,,AAXX 04124 07280 12584 71916 10120 20060 39783 40051 58001 60006 878// 91200=
07280,1998-04-04 15:00:00,13,1005,-0,72,8,50000,31.484,,,200,,,,,,,,,,1,wg-a,,,,AAXX 04154 07280 02684 /2017 10130 20080 39783 40050 55000 61000 70186 86800 91500 333 ////=
07280,1998-04-04 18:00:00,9,1006.1,0.7,81,6,3000,22.224,,,220,5.4,13.2,,,,,,,,80,wg-a,,,,AAXX 04184 07280 02530 /2212 10090 20060 39790 40061 53007 61000 78086 86900 91800 333 10132 20054 6001=
07280,1998-04-04 21:00:00,7,1007.9,1.6,93,6,20000,11.112,,,210,,,,0,,,,,,3,wg-a,,,,AAXX 04214 07280 12/70 72106 10070 20060 39806 40079 51016 60007 70386 8703/ 92100=
07280,1998-04-05 00:00:00,5,1007.4,-0.7,93,4,20000,11.112,,,200,,,,,,,,,,2,wg-a,,,,AAXX 05004 07280 12/70 12006 10050 20040 39799 40074 58007 60006 70286 81030 90000=
07280,1998-04-05 03:00:00,4,1006.4,-1.1,100,4,15000,11.112,,,190,,,,,,,,,,,wg-a,,,,AAXX 05034 07280 12/65 01906 10040 20040 39788 40064 56011 60006 80000 90300=
07280,1998-04-05 06:00:00,4,1005.5,-0.9,93,3,2500,3.704,,,230,3.3,8.9,,,,,1,,,10,wg-a,,,,AAXX 05064 07280 02225 72302 10040 20030 39779 40055 55009 60006 71041 83506 90600 333 10089 20033 60014=
07280,1998-04-05 09:00:00,8,1007.1,2,93,7,10000,22.224,,,220,,,,1,,,,,,80,wg-a,,,,AAXX 05094 07280 12560 82212 10080 20070 39799 40071 53020 60017 78086 888// 90900=
07280,1998-04-05 12:00:00,12,1007.3,0.6,62,5,40000,31.484,,,220,,,,1,,,,,,3,wg-a,,,,AAXX 05124 07280 02582 82217 10120 20050 39805 40073 53006 60026 70386 84207 91200 333 60017=
07280,1998-04-05 15:00:00,13,1007.5,0.2,54,4,50000,22.224,,,250,,,,,,,,,,,wg-a,,,,AAXX 05154 07280 12684 72512 10130 20040 39807 40075 53002 60006 85208 91500=
07280,1998-04-05 18:00:00,11,1008.9,1.2,62,4,75000,14.816,,,220,3.7,13.6,,,,,,,,,wg-a,,,,AAXX 05184 07280 12689 /2208 10110 20040 39819 40089 51012 60006 85402 91800 333 10136 20037=
07280,1998-04-05 21:00:00,7,1010.8,1.5,81,4,50000,11.112,,,180,,,,,,,,,,,wg-a,,,,AAXX 05214 07280 12/84 31806 10070 20040 39834 40108 51015 60006 80001 92100=
07280,1998-04-06 00:00:00,6,1011.7,0.7,81,3,40000,14.816,,,190,,,,,,,,,,,wg-a,,,,AAXX 06004 07280 12/82 01908 10060 20030 39841 40117 51007 60006 80000 90000=
07280,1998-04-06 03:00:00,5,1011.9,0.2,87,3,25000,14.816,,,190,,,,,,,,,,,wg-a,,,,AAXX 06034 07280 12675 71908 10050 20030 39843 40119 52002 60006 874// 90300=
07280,1998-04-06 06:00:00,7,1012.3,0.5,87,5,25000,14.816,,,210,4,11,,,,,,,,80,wg-a,,,,AAXX 06064 07280 02475 72108 10070 20050 39848 40123 53005 61000 78086 878// 90600 333 10110 20040 6002=
07280,1998-04-06 09:00:00,11,1011.8,0,66,5,500,29.632,,,220,,,,,,,,,,3,wg-a,,,,AAXX 06094 07280 02500 /2216 10110 20050 39848 40118 50000 61000 70386 86800 90900 333 ////=
07280,1998-04-06 12:00:00,13,1010.1,-1.5,62,6,50000,35.188,,,210,,,,,,,,,,25,wg-a,,,,AAXX 06124 07280 02684 72119 10130 20060 39833 40101 58015 61000 72586 84206 91200 333 6100=
07280,1998-04-06 15:00:00,11,1008.7,-1.6,71,6,500,29.632,,,220,,,,,,,,,,61,wg-a,,,,AAXX 06154 07280 02600 82216 10110 20060 39817 40087 56016 61000 76186 8522/ 91500 333 ////=
07280,1998-04-06 18:00:00,9,1007.9,-0.9,93,8,15000,7.408,,,160,6.9,14,,,,,,,,61,wg-a,,,,AAXX 06184 07280 02765 81604 10090 20080 39808 40079 58009 61000 76186 8352/ 91800 333 10140 20069 6001=
07280,1998-04-06 21:00:00,9,1007.5,-0.4,87,7,20000,7.408,,,250,,,,0,,,,,,1,wg-a,,,,AAXX 06214 07280 12470 82504 10090 20070 39804 40075 58004 60007 70162 86821 92100=
07280,1998-04-07 00:00:00,8,1005.5,-2.1,93,7,20000,7.408,,,100,,,,0,,,,,,60,wg-a,,,,AAXX 07004 07280 02470 81004 10080 20070 39783 40055 58021 60016 76062 8382/ 90000 333 60007=
07280,1998-04-07 03:00:00,8,1002.7,-2.7,93,7,10000,14.816,,,190,,,,1,,,,,,60,wg-a,,,,AAXX 07034 07280 12460 81908 10080 20070 39756 40027 57027 60017 76066 8482/ 90300=
07280,1998-04-07 06:00:00,8,1000.1,-2.6,93,7,8000,11.112,,,190,7.5,9.5,,,,,,,,61,wg-a,,,,AAXX 07064 07280 02458 81906 10080 20070 39730 40001 56026 61000 76166 8572/ 90600 333 10095 20075 6007=
07280,1998-04-07 12:00:00,11,1002,3.4,71,6,12000,38.892,,,240,,,,0,,,,,,16,wg-a,,,,AAXX 07124 07280 02562 72421 10110 20060 39752 40020 53034 60066 71662 85202 91200 333 60007=
07280,1998-04-07 15:00:00,12,1003.4,1.5,54,3,40000,38.892,,,250,,,,,,,,,,1,wg-a,,,,AAXX 07154 07280 02582 /2521 10120 20030 39767 40034 51015 61000 70186 84900 91500 333 ////=
07280,1998-04-07 18:00:00,9,1005.7,1.9,71,4,500,14.816,,,260,7.6,12.5,,1,,,,,,1,wg-a,,,,AAXX 07184 07280 02500 32608 10090 20040 39786 40057 51019 60006 70186 82903 91800 333 10125 20076 60017=
07280,1998-04-07 21:00:00,8,1007.4,1.6,76,4,500,18.52,,,240,,,,,,,,,,,wg-a,,,,AAXX 07214 07280 12700 52410 10080 20040 39802 40074 51016 60006 85500 92100=
07280,1998-04-08 00:00:00,6,1008.6,1,93,5,20000,18.52,,,210,,,,,,,,,,21,wg-a,,,,AAXX 08004 07280 02770 62110 10060 20050 39812 40086 51010 61000 72161 86500 90000 333 6100=
07280,1998-04-08 03:00:00,6,1008.2,-0.4,93,5,12000,18.52,,,210,,,,1,,,,,,61,wg-a,,,,AAXX 08034 07280 12562 82110 10060 20050 39808 40082 58004 60017 76162 885// 90300=
07280,1998-04-08 06:00:00,6,1008.2,-0,93,5,20000,18.52,,,210,5.8,8.7,,,,,,,,21,wg-a,,,,AAXX 08064 07280 02470 52110 10060 20050 39808 40082 55000 61000 72162 85800 90600 333 10087 20058 6007=
07280,1998-04-08 09:00:00,9,1008.5,0.5,76,5,25000,22.224,,,220,,,,,,,,,,,wg-a,,,,AAXX 08094 07280 12575 32212 10090 20050 39813 40085 53005 60006 83800 90900=
07280,1998-04-08 12:00:00,13,1006.7,-1.4,58,5,500,29.632,,,210,,,,,,,,,,,wg-a,,,,AAXX 08124 07280 12400 42116 10130 20050 39799 40067 58014 60006 84200 91200=
07280,1998-04-08 15:00:00,14,1004.1,-2.4,47,3,50000,25.928,,,200,,,,,,,,,,,wg-a,,,,AAXX 08154 07280 12684 42014 10140 20030 39775 40041 56024 60006 84400 91500=
07280,1998-04-08 18:00:00,11,1003.1,-1.3,62,4,50000,11.112,,,240,6,14.1,,,,,,,,,wg-a,,,,AAXX 08184 07280 12584 72406 10110 20040 39762 40031 56013 60006 86903 91800 333 10141 20060=
07280,1998-04-08 21:00:00,7,1003.7,0.3,93,6,20000,11.112,,,170,,,,,,,,,,1,wg-a,,,,AAXX 08214 07280 02570 71706 10070 20060 39765 40037 50003 61000 70186 8697/ 92100 333 ////=
07280,1998-04-09 00:00:00,6,1003,-0.8,87,4,20000,14.816,,,200,,,,,,,,,,1,wg-a,,,,AAXX 09004 07280 02570 62008 10060 20040 39757 40030 58008 61000 70186 85830 90000 333 ////=
07280,1998-04-09 03:00:00,5,1001.7,-1.4,87,3,20000,18.52,,,200,,,,,,,,,,,wg-a,,,,AAXX 09034 07280 12670 32010 10050 20030 39743 40017 56014 60006 83500 90300=
07280,1998-04-09 06:00:00,2,1001.1,-0.8,93,1,20000,3.704,,,150,1.7,10.6,,,,,,,,,wg-a,,,,AAXX 09064 07280 02670 /1502 10020 20010 39735 40011 56008 60006 81530 90600 333 10106 20017 60004=
07280,1998-04-09 09:00:00,10,999.1,-1.2,71,5,50000,18.52,,,200,,,,,,,,,,,wg-a,,,,AAXX 09094 07280 12484 72010 10100 20050 39723 49991 56012 60006 878// 90900=
07280,1998-04-09 12:00:00,11,997.4,-1.6,66,5,20000,25.928,,,220,,,,,,,,,,80,wg-a,,,,AAXX 09124 07280 02670 72214 10110 20050 39707 49974 58016 61000 78086 878// 91200 333 6100=
07280,1998-04-09 15:00:00,10,997.2,-0.3,66,4,15000,14.816,,,280,,,,2,,,,,,29,wg-a,,,,AAXX 09154 07280 12465 52808 10100 20040 39704 49972 55003 60027 72998 83903 91500=
07280,1998-04-09 18:00:00,7,997.2,-0.2,87,5,15000,11.112,,,160,2.2,13.4,,,,,,,,25,wg-a,,,,AAXX 09184 07280 02465 /1606 10070 20050 39702 49972 58002 61000 72598 879// 91800 333 10134 20022 6000=
07280,1998-04-09 21:00:00,6,998.6,1.2,93,5,15000,14.816,,,190,,,,0,,,,,,1,wg-a,,,,AAXX 09214 07280 12565 81908 10060 20050 39714 49986 53012 60007 70186 884// 92100=
07280,1998-04-10 00:00:00,6,997.5,-1.1,93,5,12000,14.816,,,200,,,,1,,,,,,80,wg-a,,,,AAXX 10004 07280 02462 82008 10060 20050 39703 49975 57011 60016 78086 877// 90000 333 60017=
07280,1998-04-10 03:00:00,5,996.7,-0.8,93,4,8000,11.112,,,200,,,,1,,,,,,80,wg-a,,,,AAXX 10034 07280 12358 82006 10050 20040 39695 49967 56008 60017 78086 887// 90300=
07280,1998-04-10 06:00:00,5,995.3,-1.4,93,4,6000,3.704,,,160,4.4,7.2,,,,,,,,60,wg-a,,,,AAXX 10064 07280 02356 81602 10050 20040 39681 49953 56014 61000 76086 8652/ 90600 333 10072 20044 6005=
07280,1998-04-10 09:00:00,6,995.9,0.6,93,5,8000,11.112,,,180,,,,1,,,,,,60,wg-a,,,,AAXX 10094 07280 12258 81806 10060 20050 39687 49959 52006 60017 76062 885// 90900=
07280,1998-04-10 12:00:00,7,995.4,-0.3,81,4,20000,14.816,,,170,,,,,,,,,,1,wg-a,,,,AAXX 10124 07280 02470 81708 10070 20040 39684 49954 58003 60016 70162 882// 91200 333 61000=
07280,1998-04-10 15:00:00,7,994.8,-0.5,87,5,12000,14.816,,,110,,,,,,,,,,80,wg-a,,,,AAXX 10154 07280 02462 81108 10070 20050 39679 49948 58005 61000 78086 878// 91500 333 ////=
07280,1998-04-10 18:00:00,8,995.2,0.4,81,5,8000,14.816,,,170,4.6,8.1,,,,,,,,80,wg-a,,,,AAXX 10184 07280 02558 71708 10080 20050 39683 49952 53004 61000 78086 86903 91800 333 10081 20046 6100=
07280,1998-04-10 21:00:00,4,997.6,2,93,3,20000,7.408,,,240,,,,0,,,,,,1,wg-a,,,,AAXX 10214 07280 12670 /2404 10040 20030 39703 49976 53020 60007 70186 83530 92100=
07280,1998-04-11 00:00:00,6,998.7,1.2,87,4,20000,18.52,,,220,,,,,,,,,,3,wg-a,,,,AAXX 11004 07280 12570 72210 10060 20040 39715 49987 53012 60006 70386 878// 90000=
07280,1998-04-11 06:00:00,2,1000.7,0.9,93,1,25000,11.112,,,160,0.6,7.7,,,,,1,,,,wg-a,,,,AAXX 11064 07280 02675 /1606 10020 20010 39730 40007 53009 60006 83501 90600 333 10077 20006 60014=
07280,1998-04-11 09:00:00,8,1000.7,0.6,66,2,500,14.816,,,250,,,,,,,,,,,wg-a,,,,AAXX 11094 07280 12500 72508 10080 20020 39736 40007 53006 60006 85202 90900=
07280,1998-04-11 12:00:00,9,1000.5,-0,57,1,500,14.816,,,190,,,,,,,,,,,wg-a,,,,AAXX 11124 07280 12600 71908 10090 20010 39736 40005 54000 60006 85202 91200=
07280,1998-04-11 18:00:00,8,999.9,0.2,61,1,25000,11.112,,,230,1.6,10.8,,,,,,,,,wg-a,,,,AAXX 11184 07280 12675 /2306 10080 20010 39728 49999 52002 60006 81432 91800 333 10108 20016=
07280,1998-04-12 00:00:00,4,1002.4,0.5,87,2,20000,7.408,,,190,,,,,,,,,,,wg-a,,,,AAXX 12004 07280 12670 81904 10040 20020 39749 40024 51005 60006 8451/ 90000=
07280,1998-04-12 06:00:00,4,1003.3,0.6,93,3,20000,14.816,,,210,3.4,7.6,,,,,,,,,wg-a,,,,AAXX 12064 07280 02570 82108 10040 20030 39758 40033 53006 60006 86501 90600 333 10076 20034 60004=
07280,1998-04-12 09:00:00,7,1004.3,1.2,76,3,500,14.816,,,190,,,,,,,,,,,wg-a,,,,AAXX 12094 07280 12500 81908 10070 20030 39770 40043 52012 60006 888// 90900=
07280,1998-04-12 12:00:00,7,1004.7,0.5,81,4,25000,14.816,,,160,,,,0,,,,,,1,wg-a,,,,AAXX 12124 07280 02575 /1608 10070 20040 39775 40047 50005 60006 70186 86800 91200 333 60007=
07280,1998-04-12 15:00:00,6,1005.4,0.5,81,3,20000,0,,,0,,,,1,,,,,,25,wg-a,,,,AAXX 12154 07280 12570 70000 10060 20030 39780 40054 53005 60017 72586 878// 91500=
07280,1998-04-12 21:00:00,3,1008.2,1.6,93,2,10000,18.52,,,310,,,,1,,,,,,61,wg-a,,,,AAXX 12214 07280 12460 83110 10030 20020 39805 40082 51016 60017 76166 8557/ 92100=
07280,1998-04-13 00:00:00,3,1008.8,0.5,87,1,10000,14.816,,,280,,,,,,,,,,3,wg-a,,,,AAXX 13004 07280 02460 82808 10030 20010 39810 40088 53005 60016 70362 8657/ 90000 333 61000=
07280,1998-04-13 03:00:00,3,1008.7,-0.1,87,1,10000,11.112,,,300,,,,1,,,,,,21,wg-a,,,,AAXX 13034 07280 12360 83006 10030 20010 39809 40087 57001 60017 72162 8357/ 90300=
07280,1998-04-13 06:00:00,3,1009,0.3,87,1,15000,11.112,,,300,2.3,5,,,,,6,,,1,wg-a,,,,AAXX 13064 07280 02665 /3006 10030 20010 39812 40090 53003 60006 70162 82580 90600 333 10050 20023 60064=
07280,1998-04-13 09:00:00,5,1009.7,0.9,70,0,25000,11.112,,,10,,,,,,,,,,,wg-a,,,,AAXX 13094 07280 12575 /0106 10050 20000 39821 40097 51009 60006 85202 90900=
07280,1998-04-13 12:00:00,6,1009.6,-0,61,-1,20000,11.112,,,330,,,,,,,,,,80,wg-a,,,,AAXX 13124 07280 02470 73306 10060 21010 39821 40096 54000 61000 78086 86202 91200 333 6100=
07280,1998-04-13 15:00:00,5,1009,-0.7,75,1,15000,22.224,,,230,,,,,,,,,,25,wg-a,,,,AAXX 13154 07280 02465 72312 10050 20010 39814 40090 58007 61000 72587 85202 91500 333 ////=
07280,1998-04-13 18:00:00,4,1009.1,0,81,1,25000,11.112,,,220,2.8,6.9,,0,,,,,,3,wg-a,,,,AAXX 13184 07280 02475 52206 10040 20010 39814 40091 50000 60006 70387 83201 91800 333 10069 20028 60007=
07280,1998-04-13 21:00:00,2,1010.4,1.1,87,0,500,11.112,,,240,,,,,,,,,,,wg-a,,,,AAXX 13214 07280 12500 32406 10020 20000 39825 40104 52011 60006 81201 92100=
07280,1998-04-14 00:00:00,-1,1011,0.3,93,-2,500,7.408,,,130,,,,,,,,,,,wg-a,,,,AAXX 14004 07280 12700 31304 11010 21020 39828 40110 51003 60006 815/1 90000=
07280,1998-04-14 03:00:00,-2,1010.5,-0.7,93,-3,20000,7.408,,,160,,,,,,,,,,,wg-a,,,,AAXX 14034 07280 12670 31604 11020 21030 39821 40105 58007 60006 82501 90300=
07280,1998-04-14 06:00:00,-1,1011.2,0.9,100,-1,300,7.408,,,210,-2.2,3.6,,,,,,,,49,wg-a,,,,AAXX 14064 07280 02/03 92104 11010 21010 39830 40112 53009 60006 74941 89/// 90600 333 10036 21022 60004=
07280,1998-04-14 09:00:00,5,1010.6,0,75,1,15000,18.52,,,190,,,,,,,,,,1,wg-a,,,,AAXX 14094 07280 12465 /1910 10050 20010 39830 40106 50000 60006 70141 81201 90900=
07280,1998-04-14 12:00:00,8,1008.6,-1.7,49,-2,50000,18.52,,,190,,,,,,,,,,1,wg-a,,,,AAXX 14124 07280 12684 /1910 10080 21020 39813 40086 58017 60006 70141 83201 91200=
07280,1998-04-14 15:00:00,8,1007.1,-1.4,46,-3,50000,22.224,,,180,,,,,,,,,,,wg-a,,,,AAXX 14154 07280 12684 /1812 10080 21030 39799 40071 58014 60006 83401 91500=
07280,1998-04-14 18:00:00,7,1005.4,-1.8,53,-2,40000,11.112,,,170,-0.8,9.8,,,,,,,,,wg-a,,,,AAXX 14184 07280 12/82 61706 10070 21020 39781 40054 58018 60006 80004 91800 333 10098 21008=
07280,1998-04-14 21:00:00,2,1004.9,-0.9,75,-2,20000,0,,,0,,,,,,,,,,,wg-a,,,,AAXX 14214 07280 12/70 30000 10020 21020 39772 40049 58009 60006 80004 92100=
07280,1998-04-15 00:00:00,4,1003.8,-1,75,0,20000,11.112,,,180,,,,,,,,,,,wg-a,,,,AAXX 15004 07280 12/70 81806 10040 20000 39762 40038 58010 60006 85054 90000=
07280,1998-04-15 03:00:00,5,1002.3,-1.3,87,3,8000,11.112,,,180,,,,1,,,,,,61,wg-a,,,,AAXX 15034 07280 12458 81806 10050 20030 39749 40023 58013 60017 76162 885// 90300=
07280,1998-04-15 06:00:00,6,1000.4,-1.8,93,5,7000,18.52,,,180,1.6,7.2,,,,,,,,61,wg-a,,,,AAXX 15064 07280 02457 81810 10060 20050 39731 40004 56018 61000 76162 887// 90600 333 10072 20016 6005=
07280,1998-04-15 09:00:00,8,998.9,-1.2,93,7,500,25.928,,,190,,,,5,,,,,,61,wg-a,,,,AAXX 15094 07280 12400 81914 10080 20070 39719 49989 56012 60057 76166 888// 90900=
07280,1998-04-15 12:00:00,10,996.6,-2,71,5,15000,53.708,,79.636,200,,,,1,,,,,,60,wg-a,,,,AAXX 15124 07280 02565 82029 10100 20050 39699 49966 56020 60066 76062 8582/ 91200 333 60017 91043=
07280,1998-04-15 15:00:00,8,996.5,-0.3,93,7,9000,31.484,,,220,,,,2,,,,,,60,wg-a,,,,AAXX 15154 07280 12559 82217 10080 20070 39696 49965 58003 60027 76066 8382/ 91500=
07280,1998-04-15 18:00:00,8,996.6,-0,87,6,12000,18.52,,,210,5.7,11.7,,,,,,,,60,wg-a,,,,AAXX 15184 07280 02462 82110 10080 20060 39696 49966 55000 61000 76062 8582/ 91800 333 10117 20057 6001=
07280,1998-04-15 21:00:00,5,1001.4,4.4,81,2,20000,14.816,,,230,,,,0,,,,,,1,wg-a,,,,AAXX 15214 07280 12570 /2308 10050 20020 39740 40014 51044 60007 70162 82570 92100=
07280,1998-04-16 00:00:00,4,1003.1,1.6,81,1,20000,22.224,,,210,,,,,,,,,,1,wg-a,,,,AAXX 16004 07280 12570 /2112 10040 20010 39756 40031 52016 60006 70161 81500 90000=
07280,1998-04-16 06:00:00,2,1004.4,0.3,93,1,20000,11.112,,,170,-0.6,7.7,,,,,9,,,,wg-a,,,,AAXX 16064 07280 02570 71706 10020 20010 39766 40044 53003 60006 85501 90600 333 10077 21006 60094=
07280,1998-04-16 09:00:00,7,1002.7,-1.2,70,2,500,22.224,,,200,,,,,,,,,,,wg-a,,,,AAXX 16094 07280 12500 72012 10070 20020 39754 40027 58012 60006 83201 90900=
07280,1998-04-16 12:00:00,9,999.5,-2.9,49,-1,40000,22.224,,,190,,,,,,,,,,,wg-a,,,,AAXX 16124 07280 12682 71912 10090 21010 39725 49995 58029 60006 84201 91200=
07280,1998-04-16 15:00:00,9,995.7,-3.6,53,0,50000,25.928,,,180,,,,,,,,,,,wg-a,,,,AAXX 16154 07280 12684 71814 10090 20000 39689 49957 56036 60006 85402 91500=
07280,1998-04-16 18:00:00,9,993.2,-2.4,53,0,50000,22.224,,,170,2.1,10.6,,,,,,,,,wg-a,,,,AAXX 16184 07280 12784 81712 10090 20000 39665 49932 56024 60006 81546 91800 333 10106 20021=
07280,1998-04-16 21:00:00,8,992.3,-1.1,76,4,20000,18.52,,,180,,,,,,,,,,21,wg-a,,,,AAXX 16214 07280 02470 81810 10080 20040 39654 49923 58011 61000 72162 875// 92100 333 ////=
07280,1998-04-17 00:00:00,7,989.6,-2.6,76,3,20000,22.224,,,190,,,,,,,,,,1,wg-a,,,,AAXX 17004 07280 02570 81912 10070 20030 39628 49896 56026 61000 70162 875// 90000 333 6100=
07280,1998-04-17 03:00:00,7,986.4,-3.2,81,4,15000,22.224,,,190,,,,1,,,,,,21,wg-a,,,,AAXX 17034 07280 12565 81912 10070 20040 39596 49864 56032 60017 72162 8657/ 90300=
07280,1998-04-17 06:00:00,7,987,0.6,87,5,8000,25.928,,,190,6,9.4,,,,,,,,61,wg-a,,,,AAXX 17064 07280 02358 81914 10070 20050 39602 49870 53006 61000 76162 888// 90600 333 10094 20060 6002=
07280,1998-04-17 09:00:00,8,990.2,3.3,76,4,20000,35.188,,,230,,,,1,,,,,,1,wg-a,,,,AAXX 17094 07280 12570 /2319 10080 20040 39635 49902 53033 60017 70162 85231 90900=
07280,1998-04-17 12:00:00,7,992.8,2.4,93,6,15000,35.188,,,220,,,,0,,,,,,80,wg-a,,,,AAXX 17124 07280 02565 /2219 10070 20060 39659 49928 51024 60016 78086 85300 91200 333 60007=
07280,1998-04-17 15:00:00,9,993.3,0.6,61,2,20000,42.596,,,250,,,,0,,,,,,25,wg-a,,,,AAXX 17154 07280 12570 42523 10090 20020 39665 49933 53006 60007 72586 84900 91500=
07280,1998-04-17 18:00:00,6,994.2,0.6,81,3,25000,29.632,,,220,5.6,9.9,,,,,,,,60,wg-a,,,,AAXX 17184 07280 02575 82216 10060 20030 39671 49942 50006 61000 76086 8227/ 91800 333 10099 20056 6100=
07280,1998-04-18 00:00:00,4,996.9,1.2,93,3,12000,11.112,,,210,,,,2,,,,,,61,wg-a,,,,AAXX 18004 07280 02462 82106 10040 20030 39695 49969 53012 60026 76166 875// 90000 333 60027=
07280,1998-04-18 03:00:00,5,998.1,1.3,87,3,12000,18.52,,,270,,,,1,,,,,,61,wg-a,,,,AAXX 18034 07280 12462 82710 10050 20030 39708 49981 51013 60017 76166 885// 90300=
07280,1998-04-18 09:00:00,6,1003.2,3.2,81,3,15000,18.52,,,290,,,,,,,,,,3,wg-a,,,,AAXX 18094 07280 02565 82910 10060 20030 39759 40032 53032 61000 70362 872// 90900 333 ////=
07280,1998-04-18 12:00:00,7,1005,1.8,76,3,20000,18.52,,,300,,,,,,,,,,25,wg-a,,,,AAXX 18124 07280 02570 83010 10070 20030 39777 40050 51018 61000 72586 888// 91200 333 6100=
07280,1998-04-18 15:00:00,7,1006.5,1.5,81,4,20000,18.52,,,320,,,,0,,,,,,25,wg-a,,,,AAXX 18154 07280 12570 73210 10070 20040 39792 40065 53015 60007 72586 8687/ 91500=
07280,1998-04-18 18:00:00,6,1008.5,1.8,87,4,15000,11.112,,,240,5.4,7.9,,,,,,,,80,wg-a,,,,AAXX 18184 07280 02565 72406 10060 20040 39810 40085 53018 61000 78086 878// 91800 333 10079 20054 6000=
07280,1998-04-18 21:00:00,4,1010,1.3,87,2,20000,11.112,,,220,,,,,,,,,,1,wg-a,,,,AAXX 18214 07280 02770 42206 10040 20020 39823 40100 51013 61000 70186 84500 92100 333 ////=
07280,1998-04-19 00:00:00,4,1010.7,0.6,87,2,15000,11.112,,,200,,,,,,,,,,3,wg-a,,,,AAXX 19004 07280 02565 82006 10040 20020 39829 40107 51006 61000 70386 888// 90000 333 ////=
07280,1998-04-19 03:00:00,3,1010.7,-0,93,2,12000,7.408,,,180,,,,,,,,,,,wg-a,,,,AAXX 19034 07280 12562 81804 10030 20020 39829 40107 55000 60006 888// 90300=
07280,1998-04-19 06:00:00,4,1011.9,1.2,93,3,12000,0,,,0,2.8,5.8,,,,,,,,25,wg-a,,,,AAXX 19064 07280 02462 70000 10040 20030 39841 40119 53012 61000 72586 878// 90600 333 10058 20028 6000=
07280,1998-04-19 09:00:00,8,1012.7,1.3,76,4,20000,11.112,,,210,,,,,,,,,,,wg-a,,,,AAXX 19094 07280 12570 42106 10080 20040 39854 40127 52013 60006 84200 90900=
07280,1998-04-19 12:00:00,10,1012.9,0.3,62,3,500,11.112,,,170,,,,,,,,,,,wg-a,,,,AAXX 19124 07280 12600 /1706 10100 20030 39857 40129 51003 60006 86800 91200=
07280,1998-04-19 15:00:00,11,1012.8,-0,62,4,50000,14.816,,,200,,,,,,,,,,,wg-a,,,,AAXX 19154 07280 12684 /2008 10110 20040 39857 40128 55000 60006 85800 91500=
07280,1998-04-19 18:00:00,9,1013.5,0.5,71,4,50000,11.112,,,170,3.5,12.1,,,,,,,,,wg-a,,,,AAXX 19184 07280 12684 41706 10090 20040 39862 40135 53005 60006 83801 91800 333 10121 20035=
07280,1998-04-19 21:00:00,4,1015.1,1.1,87,2,40000,3.704,,,220,,,,,,,,,,,wg-a,,,,AAXX 19214 07280 12/82 02202 10040 20020 39873 40151 51011 60006 80000 92100=
07280,1998-04-20 00:00:00,3,1015.5,0.3,93,2,25000,0,,,0,,,,,,,,,,,wg-a,,,,AAXX 20004 07280 12775 80000 10030 20020 39876 40155 50003 60006 8257/ 90000=
07280,1998-04-20 03:00:00,4,1015.3,-0.2,93,3,15000,3.704,,,180,,,,,,,,,,,wg-a,,,,AAXX 20034 07280 12665 71802 10040 20030 39874 40153 56002 60006 8557/ 90300=
07280,1998-04-20 06:00:00,4,1015.6,0.4,93,3,25000,3.704,,,180,2.5,9.2,,,,,,,,,wg-a,,,,AAXX 20064 07280 02475 /1802 10040 20030 39878 40156 53004 60006 85801 90600 333 10092 20025 60004=
07280,1998-04-20 09:00:00,12,1015.2,0.3,58,4,25000,25.928,,,210,,,,,,,,,,,wg-a,,,,AAXX 20094 07280 12/75 62114 10120 20040 39881 40152 51003 60006 81031 90900=
07280,1998-04-20 12:00:00,15,1014.7,-0.2,51,5,500,22.224,,,200,,,,,,,,,,,wg-a,,,,AAXX 20124 07280 12700 72012 10150 20050 39879 40147 55002 60006 81538 91200=
07280,1998-04-20 15:00:00,12,1016,1,82,9,12000,22.224,,,230,,,,0,,,,,,61,wg-a,,,,AAXX 20154 07280 12562 82312 10120 20090 39889 40160 52010 60007 76162 8387/ 91500=
07280,1998-04-20 18:00:00,11,1016.5,0.4,94,10,12000,18.52,,,190,4.4,15.4,,,,,,,,21,wg-a,,,,AAXX 20184 07280 02462 81910 10110 20100 39893 40165 53004 61000 72162 878// 91800 333 10154 20044 6000=
07280,1998-04-20 21:00:00,10,1018.3,1.7,93,9,7000,3.704,,,280,,,,2,,,,,,61,wg-a,,,,AAXX 20214 07280 12457 82802 10100 20090 39910 40183 53017 60027 76162 885// 92100=
07280,1998-04-21 00:00:00,10,1018.5,0.2,93,9,8000,11.112,,,180,,,,0,,,,,,3,wg-a,,,,AAXX 21004 07280 02258 71806 10100 20090 39912 40185 50002 60026 70362 875// 90000 333 60007=
07280,1998-04-21 03:00:00,9,1018.5,-0.1,100,9,12000,3.704,,,180,,,,0,,,,,,1,wg-a,,,,AAXX 21034 07280 12662 71802 10090 20090 39911 40185 56001 60007 70162 875// 90300=
07280,1998-04-21 06:00:00,9,1019.4,0.9,100,9,2500,3.704,,,190,8.6,11,,,,,3,,,10,wg-a,,,,AAXX 21064 07280 02625 81902 10090 20090 39920 40194 52009 60006 71062 84577 90600 333 10110 20086 60034=
07280,1998-04-21 09:00:00,13,1019.3,0.3,82,10,12000,11.112,,,180,,,,,,,,,,,wg-a,,,,AAXX 21094 07280 12462 81806 10130 20100 39923 40193 50003 60006 83201 90900=
07280,1998-04-21 12:00:00,16,1017.8,-1.2,59,8,500,18.52,,,220,,,,,,,,,,,wg-a,,,,AAXX 21124 07280 12600 62210 10160 20080 39911 40178 57012 60006 86200 91200=
07280,1998-04-21 15:00:00,18,1016.4,-1.2,52,8,500,14.816,,,190,,,,,,,,,,1,wg-a,,,,AAXX 21154 07280 02600 21908 10180 20080 39899 40164 58012 61000 70186 82200 91500 333 ////=
07280,1998-04-21 18:00:00,16,1016.1,-0.5,63,9,500,7.408,,,130,9.1,18.7,,,,,,,,1,wg-a,,,,AAXX 21184 07280 12600 31304 10160 20090 39894 40161 56005 60006 70186 81201 91800 333 10187 20091=
07280,1998-04-21 21:00:00,10,1017,0.4,87,8,25000,3.704,,,320,,,,,,,,,,,wg-a,,,,AAXX 21214 07280 12/75 03202 10100 20080 39898 40170 50004 60006 80000 92100=
07280,1998-04-22 00:00:00,9,1016.7,-0.5,87,7,20000,7.408,,,340,,,,,,,,,,,wg-a,,,,AAXX 22004 07280 12/70 03404 10090 20070 39893 40167 56005 60006 80000 90000=
07280,1998-04-22 03:00:00,6,1016.3,-0.7,93,5,20000,7.408,,,10,,,,,,,,,,,wg-a,,,,AAXX 22034 07280 12/70 10104 10060 20050 39886 40163 56007 60006 80001 90300=
07280,1998-04-22 06:00:00,7,1016.3,0.2,93,6,10000,7.408,,,20,6,15.7,,,,,,,,,wg-a,,,,AAXX 22064 07280 02/60 10204 10070 20060 39888 40163 53002 60006 81080 90600 333 10157 20060 61000=
07280,1998-04-22 09:00:00,15,1015,-0.5,67,9,20000,7.408,,,140,,,,,,,,,,,wg-a,,,,AAXX 22094 07280 12/70 01404 10150 20090 39883 40150 58005 60006 80000 90900=
07280,1998-04-22 12:00:00,20,1012.9,-1.7,53,10,25000,7.408,,,130,,,,,,,,,,,wg-a,,,,AAXX 22124 07280 12675 /1304 10200 20100 39866 40129 58017 60006 81100 91200=
07280,1998-04-22 15:00:00,22,1010.5,-2.1,41,8,500,11.112,,,90,,,,,,,,,,,wg-a,,,,AAXX 22154 07280 12800 10906 10220 20080 39845 40105 58021 60006 81200 91500=
07280,1998-04-22 18:00:00,21,1010.4,-0.2,43,8,500,0,,,0,7.5,22,,,,,,,,,wg-a,,,,AAXX 22184 07280 12800 30000 10210 20080 39843 40104 56002 60006 814/1 91800 333 10220 20075=
07280,1998-04-22 21:00:00,13,1011.9,0.7,77,9,20000,7.408,,,320,,,,,,,,,,,wg-a,,,,AAXX 22214 07280 12/70 23204 10130 20090 39850 40119 51007 60006 80001 92100=
07280,1998-04-23 00:00:00,11,1012.6,0.5,76,7,20000,3.704,,,350,,,,,,,,,,,wg-a,,,,AAXX 23004 07280 12/70 13502 10110 20070 39855 40126 52005 60006 81030 90000=
07280,1998-04-23 03:00:00,7,1013.2,0.2,87,5,20000,0,,,0,,,,,,,,,,,wg-a,,,,AAXX 23034 07280 12/70 40000 10070 20050 39857 40132 53002 60006 80001 90300=
07280,1998-04-23 06:00:00,7,1014.8,1.6,100,7,15000,0,,,0,5.5,21.2,,,,,,,,11,wg-a,,,,AAXX 23064 07280 02765 50000 10070 20070 39873 40148 53016 60006 71111 81231 90600 333 10212 20055 60004=
07280,1998-04-23 09:00:00,17,1014.8,1,72,12,20000,7.408,,,190,,,,,,,,,,,wg-a,,,,AAXX 23094 07280 12570 21904 10170 20120 39883 40148 51010 60006 81201 90900=
07280,1998-04-23 12:00:00,20,1014.8,0.2,53,10,40000,18.52,,,310,,,,,,,,,,,wg-a,,,,AAXX 23124 07280 12682 53110 10200 20100 39885 40148 51002 60006 83201 91200=
07280,1998-04-23 15:00:00,20,1014.1,-0.6,53,10,40000,14.816,,,250,,,,,,,,,,,wg-a,,,,AAXX 23154 07280 12782 42508 10200 20100 39879 40141 58006 60006 83201 91500=
07280,1998-04-23 18:00:00,18,1015,0.6,52,8,40000,14.816,,,260,7.3,21.1,,,,,,,,,wg-a,,,,AAXX 23184 07280 12782 22608 10180 20080 39885 40150 53006 60006 81101 91800 333 10211 20073=
07280,1998-04-23 21:00:00,13,1017.1,1.6,67,7,500,7.408,,,280,,,,,,,,,,,wg-a,,,,AAXX 23214 07280 12800 22804 10130 20070 39901 40171 51016 60006 82050 92100=
07280,1998-04-24 00:00:00,13,1018.7,1.5,72,8,20000,22.224,,,280,,,,,,,,,,,wg-a,,,,AAXX 24004 07280 12870 42812 10130 20080 39916 40187 51015 60006 84030 90000=
07280,1998-04-24 03:00:00,11,1020.2,1.3,76,7,20000,11.112,,,230,,,,,,,,,,,wg-a,,,,AAXX 24034 07280 12870 52306 10110 20070 39929 40202 51013 60006 85030 90300=
07280,1998-04-24 06:00:00,11,1021.6,1.3,82,8,500,7.408,,,190,10,17.8,,,,,,,,,wg-a,,,,AAXX 24064 07280 02500 71904 10110 20080 39942 40216 53013 60006 85802 90600 333 10178 20100 60004=
07280,1998-04-24 09:00:00,14,1022.3,1.1,58,6,11000,18.52,,,240,,,,,,,,,,,wg-a,,,,AAXX 24094 07280 12/61 /2410 10140 20060 39953 40223 52011 60006 90900=
07280,1998-04-24 12:00:00,16,1022.2,0,55,7,500,18.52,,,270,,,,,,,,,,,wg-a,,,,AAXX 24124 07280 12600 72710 10160 20070 39953 40222 50000 60006 8323/ 91200=
07280,1998-04-24 18:00:00,15,1022.3,0.2,63,8,500,14.816,,,270,10.5,16.8,,,,,,,,,wg-a,,,,AAXX 24184 07280 12600 82708 10150 20080 39953 40223 53002 60006 8457/ 91800 333 10168 20105=
07280,1998-04-25 00:00:00,9,1022.9,-0.4,87,7,25000,7.408,,,180,,,,,,,,,,,wg-a,,,,AAXX 25004 07280 12675 71804 10090 20070 39954 40229 58004 60006 81501 90000=
07280,1998-04-25 06:00:00,10,1021.6,-0.3,93,9,20000,0,,,0,6.5,14.8,,,,,,,,,wg-a,,,,AAXX 25064 07280 02570 80000 10100 20090 39942 40216 55003 60006 885// 90600 333 10148 20065 60004=
07280,1998-04-25 12:00:00,17,1018.6,-1.4,72,12,500,14.816,,,200,,,,,,,,,,,wg-a,,,,AAXX 25124 07280 12500 82008 10170 20120 39920 40186 58014 60006 8423/ 91200=
07280,1998-04-25 18:00:00,15,1017.3,0.2,88,13,20000,11.112,,,350,9.9,18.6,,,,,,,,21,wg-a,,,,AAXX 25184 07280 02570 83506 10150 20130 39905 40173 53002 61000 72162 8277/ 91800 333 10186 20099 6001=
07280,1998-04-26 00:00:00,12,1011.6,-4.8,94,11,15000,7.408,,,350,,,,,,,,,,0,wg-a,,,,AAXX 26004 07280 12765 73504 10120 20110 39847 40116 56048 60006 700// 84530 90000=
07280,1998-04-26 06:00:00,12,1010.6,-1.1,94,11,3000,3.704,,,210,11.5,14.7,,,,,,,,61,wg-a,,,,AAXX 26064 07280 02130 82102 10120 20110 39837 40106 57011 61000 76162 875// 90600 333 10147 20115 6013=
07280,1998-04-26 12:00:00,13,1007.8,-0.5,94,12,7000,7.408,,,170,,,,4,,,,,,60,wg-a,,,,AAXX 26124 07280 02257 81704 10130 20120 39811 40078 58005 60106 76066 8652/ 91200 333 60047=
07280,1998-04-26 18:00:00,13,1005.1,-0.8,88,11,8000,11.112,,,40,11.8,13.8,,,,,,,,61,wg-a,,,,AAXX 26184 07280 02458 80406 10130 20110 39784 40051 57008 61000 76162 888// 91800 333 10138 20118 6001=
07280,1998-04-27 00:00:00,9,1004.5,-1.5,93,8,12000,14.816,,,330,,,,0,,,,,,1,wg-a,,,,AAXX 27004 07280 02662 83308 10090 20080 39775 40045 58015 60116 70162 885// 90000 333 60007=
07280,1998-04-27 06:00:00,8,1002,-0.8,87,6,12000,18.52,,,320,7.6,12.6,,,,,,,,61,wg-a,,,,AAXX 27064 07280 02462 83210 10080 20060 39749 40020 55008 61000 76162 885// 90600 333 10126 20076 6027=
07280,1998-04-27 09:00:00,7,1003.3,1.2,93,6,12000,18.52,,,300,,,,6,,,,,,61,wg-a,,,,AAXX 27094 07280 12462 83010 10070 20060 39761 40033 53012 60067 76166 8652/ 90900=
07280,1998-04-27 12:00:00,8,1005.6,2.3,87,6,25000,7.408,,,200,,,,5,,,,,,61,wg-a,,,,AAXX 27124 07280 02475 82004 10080 20060 39784 40056 50023 60116 76166 8582/ 91200 333 60057=
07280,1998-04-27 15:00:00,8,1006.1,0.5,93,7,12000,18.52,,,190,,,,0,,,,,,51,wg-a,,,,AAXX 27154 07280 12262 81910 10080 20070 39789 40061 51005 60007 75166 887// 91500=
07280,1998-04-27 18:00:00,8,1006.4,0.3,93,7,8000,14.816,,,170,7.1,8.3,,,,,,,,51,wg-a,,,,AAXX 27184 07280 02258 71708 10080 20070 39792 40064 50003 61000 75165 8452/ 91800 333 10083 20071 6001=
07280,1998-04-27 21:00:00,8,1008.2,1.7,93,7,10000,7.408,,,200,,,,1,,,,,,21,wg-a,,,,AAXX 27214 07280 12260 82004 10080 20070 39809 40082 51017 60017 72162 885// 92100=
07280,1998-04-28 00:00:00,7,1008,-0.2,100,7,500,7.408,,,200,,,,,,,,,,1,wg-a,,,,AAXX 28004 07280 12100 82004 10070 20070 39807 40080 58002 60016 70162 885// 90000=
07280,1998-04-28 03:00:00,6,1008.1,-0,100,6,7000,3.704,,,170,,,,,,,,,,,wg-a,,,,AAXX 28034 07280 12157 71702 10060 20060 39807 40081 55000 60006 875// 90300=
07280,1998-04-28 06:00:00,6,1008.9,0.8,100,6,10000,7.408,,,190,5.8,8,,,,,13,,,,wg-a,,,,AAXX 28064 07280 02760 71904 10060 20060 39815 40089 53008 60006 875// 90600 333 10080 20058 60134=
07280,1998-04-28 09:00:00,10,1009.1,0.6,82,7,20000,3.704,,,180,,,,,,,,,,,wg-a,,,,AAXX 28094 07280 12470 /1802 10100 20070 39821 40091 51006 60006 86800 90900=
07280,1998-04-28 15:00:00,13,1007.9,-0.5,54,4,50000,7.408,,,180,,,,8,,,,,,3,wg-a,,,,AAXX 28154 07280 12684 41804 10130 20040 39811 40079 58005 60087 70387 84401 91500=
07280,1998-04-28 18:00:00,12,1007.7,-0.3,62,5,40000,3.704,,,70,6.4,13.5,,,,,,,,1,wg-a,,,,AAXX 28184 07280 12682 20702 10120 20050 39808 40077 58003 60006 70187 82900 91800 333 10135 20064=
07280,1998-04-28 21:00:00,6,1008.6,0.3,87,4,25000,0,,,0,,,,,,,,,,,wg-a,,,,AAXX 28214 07280 12/75 00000 10060 20040 39811 40086 51003 60006 80000 92100=
07280,1998-04-29 00:00:00,4,1008,-0.7,100,4,20000,7.408,,,340,,,,,,,,,,,wg-a,,,,AAXX 29004 07280 12/70 03404 10040 20040 39804 40080 57007 60006 80000 90000=
07280,1998-04-29 03:00:00,3,1006.6,-1.5,93,2,20000,3.704,,,350,,,,,,,,,,,wg-a,,,,AAXX 29034 07280 12/70 03502 10030 20020 39789 40066 57015 60006 80000 90300=
07280,1998-04-29 06:00:00,4,1005.6,-0.8,100,4,7000,7.408,,,20,2.1,12,,,,,8,,,11,wg-a,,,,AAXX 29064 07280 02157 20204 10040 20040 39781 40056 56008 60006 71100 81601 90600 333 10120 20021 60084=
07280,1998-04-29 09:00:00,11,1004.2,-0.7,76,7,20000,3.704,,,200,,,,,,,,,,,wg-a,,,,AAXX 29094 07280 12/70 72002 10110 20070 39774 40042 56007 60006 80002 90900=
07280,1998-04-29 12:00:00,15,1002.9,-0.9,55,6,50000,11.112,,,150,,,,,,,,,,,wg-a,,,,AAXX 29124 07280 12584 71506 10150 20060 39765 40029 58009 60006 81132 91200=
07280,1998-04-29 18:00:00,14,1002.5,-0.1,58,6,50000,11.112,,,180,4.5,16,,,,,,,,,wg-a,,,,AAXX 29184 07280 12/84 51806 10140 20060 39760 40025 58001 60006 84031 91800 333 10160 20045=
07280,1998-04-29 21:00:00,10,1002.6,-0.3,76,6,500,11.112,,,10,,,,,,,,,,,wg-a,,,,AAXX 29214 07280 12/00 40106 10100 20060 39757 40026 58003 60006 83031 92100=
07280,1998-04-30 00:00:00,10,1002.7,0.1,82,7,20000,11.112,,,350,,,,,,,,,,,wg-a,,,,AAXX 30004 07280 12/70 83506 10100 20070 39758 40027 50001 60006 8707/ 90000=
07280,1998-04-30 03:00:00,10,1002.7,-0,82,7,20000,11.112,,,10,,,,,,,,,,,wg-a,,,,AAXX 30034 07280 12770 80106 10100 20070 39758 40027 55000 60006 8157/ 90300=
07280,1998-04-30 06:00:00,10,1003.3,0.6,82,7,20000,7.408,,,10,9.3,13.7,,,,,,,,,wg-a,,,,AAXX 30064 07280 02/70 70104 10100 20070 39764 40033 53006 60006 82072 90600 333 10137 20093 60004=
07280,1998-04-30 09:00:00,15,1003.2,0.4,67,9,15000,11.112,,,50,,,,,,,,,,,wg-a,,,,AAXX 30094 07280 12/65 50506 10150 20090 39768 40032 51004 60006 82072 90900=
07280,1998-04-30 12:00:00,19,1002.7,-0.2,46,7,500,14.816,,,60,,,,,,,,,,,wg-a,,,,AAXX 30124 07280 12600 /0608 10190 20070 39766 40027 58002 60006 81272 91200=
07280,1998-04-30 15:00:00,20,1002.3,-0.3,43,7,35000,18.52,,,50,,,,,,,,,,,wg-a,,,,AAXX 30154 07280 12781 60510 10200 20070 39763 40023 58003 60006 82272 91500=
07280,1998-04-30 18:00:00,18,1004,1.5,56,9,500,14.816,,,30,9.8,20.7,,,,,,,,,wg-a,,,,AAXX 30184 07280 12600 70308 10180 20090 39778 40040 53015 60006 82962 91800 333 10207 20098=
07280,1998-04-30 21:00:00,13,1007,2.5,88,11,20000,14.816,,,260,,,,0,,,,,,80,wg-a,,,,AAXX 30214 07280 12670 /2608 10130 20110 39803 40070 53025 60007 78098 86800 92100=
07280,1998-05-01 00:00:00,12,1008.3,1.2,88,10,15000,14.816,,,250,,,,,,,,,,17,wg-a,,,,AAXX 01004 07280 02665 82508 10120 20100 39815 40083 53012 60006 71798 8597/ 90000 333 61000=
07280,1998-05-01 03:00:00,11,1009.7,1.3,94,10,20000,7.408,,,260,,,,4,,,,,,25,wg-a,,,,AAXX 01034 07280 12470 82604 10110 20100 39828 40097 51013 60047 72598 888// 90300=
07280,1998-05-01 06:00:00,11,1010.7,0.9,94,10,9000,3.704,,,220,10.4,18.3,,,,,,,,21,wg-a,,,,AAXX 01064 07280 02259 82202 10110 20100 39837 40107 53009 61000 72198 882// 90600 333 10183 20104 6004=
07280,1998-05-01 09:00:00,12,1011.2,0.5,88,10,8000,0,,,0,,,,2,,,,,,61,wg-a,,,,AAXX 01094 07280 12258 80000 10120 20100 39842 40112 50005 60027 76165 8552/ 90900=
07280,1998-05-01 12:00:00,14,1010.4,-0.5,77,10,15000,3.704,,,330,,,,0,,,,,,80,wg-a,,,,AAXX 01124 07280 02465 83302 10140 20100 39837 40104 56005 60026 78086 888// 91200 333 60007=
07280,1998-05-01 15:00:00,13,1010.4,-0.1,88,11,10000,7.408,,,330,,,,14,,,,,,21,wg-a,,,,AAXX 01154 07280 12460 83304 10130 20110 39836 40104 58001 60147 72186 8487/ 91500=
07280,1998-05-01 18:00:00,12,1010,-0.4,94,11,10000,7.408,,,340,10.7,13.9,,0,,,,,,1,wg-a,,,,AAXX 01184 07280 02460 73404 10120 20110 39832 40100 56004 60006 70186 8587/ 91800 333 10139 20107 60007=
07280,1998-05-01 21:00:00,11,1010.8,0.6,94,10,10000,3.704,,,280,,,,1,,,,,,60,wg-a,,,,AAXX 01214 07280 12660 82802 10110 20100 39838 40108 51006 60017 76062 8557/ 92100=
07280,1998-05-02 00:00:00,11,1010.7,-0.1,94,10,8000,0,,,0,,,,1,,,,,,61,wg-a,,,,AAXX 02004 07280 02458 80000 10110 20100 39837 40107 58001 60026 76162 888// 90000 333 60017=
07280,1998-05-02 03:00:00,10,1010.6,-0.2,100,10,8000,3.704,,,330,,,,2,,,,,,60,wg-a,,,,AAXX 02034 07280 12458 83302 10100 20100 39835 40106 57002 60027 76066 888// 90300=
07280,1998-05-02 06:00:00,10,1011.6,1,93,9,9000,14.816,,,330,10.3,12.4,,,,,21,,,1,wg-a,,,,AAXX 02064 07280 02359 83308 10100 20090 39845 40116 53010 60006 70162 875// 90600 333 10124 20103 60214=
07280,1998-05-02 09:00:00,12,1012.7,1.2,82,9,15000,3.704,,,260,,,,,,,,,,,wg-a,,,,AAXX 02094 07280 12465 82602 10120 20090 39857 40127 51012 60006 875// 90900=
07280,1998-05-02 12:00:00,12,1013.1,0.4,82,9,20000,11.112,,,300,,,,,,,,,,,wg-a,,,,AAXX 02124 07280 12570 83006 10120 20090 39861 40131 51004 60006 888// 91200=
07280,1998-05-02 15:00:00,13,1012.4,-0.6,77,9,20000,14.816,,,330,,,,,,,,,,,wg-a,,,,AAXX 02154 07280 12570 83308 10130 20090 39855 40124 58006 60006 888// 91500=
07280,1998-05-02 18:00:00,12,1012.3,-0.2,82,9,20000,11.112,,,20,10.3,13.3,,,,,,,,,wg-a,,,,AAXX 02184 07280 12570 70206 10120 20090 39853 40123 55002 60006 878// 91800 333 10133 20103=
07280,1998-05-02 21:00:00,11,1013,0.6,87,9,15000,7.408,,,40,,,,,,,,,,60,wg-a,,,,AAXX 02214 07280 02465 80404 10110 20090 39859 40130 51006 61000 76062 885// 92100 333 ////=
07280,1998-05-03 03:00:00,10,1010.9,-1.3,93,9,8000,7.408,,,350,,,,1,,,,,,21,wg-a,,,,AAXX 03034 07280 12558 83504 10100 20090 39838 40109 57013 60017 72162 885// 90300=
07280,1998-05-03 06:00:00,10,1010.4,-0.5,93,9,8000,7.408,,,50,9.5,11.9,,,,,,,,60,wg-a,,,,AAXX 03064 07280 02258 80504 10100 20090 39833 40104 55005 61000 76062 885// 90600 333 10119 20095 6001=
07280,1998-05-03 09:00:00,11,1010.6,0.3,94,10,10000,7.408,,,50,,,,,,,,,,20,wg-a,,,,AAXX 03094 07280 02260 80504 10110 20100 39836 40106 51003 61000 72065 888// 90900 333 ////=
07280,1998-05-03 12:00:00,14,1009.3,-1,82,11,20000,14.816,,,30,,,,0,,,,,,1,wg-a,,,,AAXX 03124 07280 02470 /0308 10140 20110 39826 40093 58010 60006 70165 85800 91200 333 60007=
07280,1998-05-03 15:00:00,16,1007.9,-1.2,68,10,15000,31.484,,,30,,,,,,,,,,,wg-a,,,,AAXX 03154 07280 12565 50317 10160 20100 39814 40079 58012 60006 85400 91500=
07280,1998-05-03 18:00:00,13,1008.6,0.4,77,9,12000,31.484,,,350,9.8,16.5,,,,,,,,,wg-a,,,,AAXX 03184 07280 12562 /3517 10130 20090 39818 40086 53004 60006 85200 91800 333 10165 20098=
07280,1998-05-03 21:00:00,10,1010.1,1.2,87,8,12000,25.928,,,10,,,,,,,,,,,wg-a,,,,AAXX 03214 07280 12/62 00114 10100 20080 39830 40101 53012 60006 80000 92100=
07280,1998-05-04 00:00:00,10,1009.6,-0.5,82,7,12000,25.928,,,10,,,,,,,,,,,wg-a,,,,AAXX 04004 07280 12/62 00114 10100 20070 39825 40096 58005 60006 80000 90000=
07280,1998-05-04 03:00:00,9,1008.9,-0.8,87,7,12000,25.928,,,10,,,,,,,,,,,wg-a,,,,AAXX 04034 07280 12662 40114 10090 20070 39817 40089 56008 60006 84500 90300=
07280,1998-05-04 06:00:00,10,1009.1,0.3,82,7,6000,31.484,,,360,8.9,12.9,,,,,,,,,wg-a,,,,AAXX 04064 07280 02456 /3617 10100 20070 39820 40091 53003 60006 86500 90600 333 10129 20089 60004=
07280,1998-05-04 09:00:00,12,1010,1.1,71,7,12000,31.484,,,20,,,,,,,,,,,wg-a,,,,AAXX 04094 07280 12462 70217 10120 20070 39831 40100 51011 60006 875// 90900=
07280,1998-05-04 12:00:00,10,1011.1,0.9,76,6,20000,31.484,,,10,,,,,,,,,,,wg-a,,,,AAXX 04124 07280 12470 80117 10100 20060 39840 40111 51009 60006 885// 91200=
07280,1998-05-04 15:00:00,13,1010.3,-0.5,54,4,500,29.632,,,10,,,,,,,,,,,wg-a,,,,AAXX 04154 07280 12600 40116 10130 20040 39835 40103 55005 60006 84400 91500=
07280,1998-05-04 18:00:00,13,1011.2,0.8,51,3,25000,22.224,,,30,9.8,14.1,,,,,,,,,wg-a,,,,AAXX 04184 07280 12775 20312 10130 20030 39843 40112 52008 60006 82500 91800 333 10141 20098=
07280,1998-05-04 21:00:00,9,1013,1.4,71,4,20000,18.52,,,340,,,,,,,,,,,wg-a,,,,AAXX 04214 07280 12770 13410 10090 20040 39857 40130 51014 60006 81501 92100=
07280,1998-05-05 00:00:00,7,1013.8,0.6,81,4,20000,11.112,,,340,,,,,,,,,,,wg-a,,,,AAXX 05004 07280 12770 33406 10070 20040 39863 40138 52006 60006 83500 90000=
07280,1998-05-05 03:00:00,5,1013.7,-0.3,87,3,15000,11.112,,,350,,,,,,,,,,,wg-a,,,,AAXX 05034 07280 12765 23506 10050 20030 39860 40137 56003 60006 82500 90300=
07280,1998-05-05 06:00:00,6,1014,0.4,87,4,10000,14.816,,,330,4.3,12.6,,,,,,,,,wg-a,,,,AAXX 05064 07280 02/60 13308 10060 20040 39864 40140 53004 60006 80001 90600 333 10126 20043 60004=
07280,1998-05-05 09:00:00,12,1013.8,0.4,62,5,20000,11.112,,,350,,,,,,,,,,,wg-a,,,,AAXX 05094 07280 12570 33506 10120 20050 39868 40138 52004 60006 82101 90900=
07280,1998-05-05 12:00:00,15,1013,-0.5,51,5,25000,14.816,,,360,,,,,,,,,,,wg-a,,,,AAXX 05124 07280 12675 53608 10150 20050 39863 40130 57005 60006 85401 91200=
07280,1998-05-05 15:00:00,16,1012.4,-0.5,45,4,500,14.816,,,320,,,,,,,,,,,wg-a,,,,AAXX 05154 07280 12700 63208 10160 20040 39858 40124 58005 60006 86800 91500=
07280,1998-05-05 18:00:00,14,1013.3,0.6,58,6,25000,11.112,,,310,6.4,16.7,,,,,,,,,wg-a,,,,AAXX 05184 07280 12775 83106 10140 20060 39864 40133 53006 60006 885// 91800 333 10167 20064=
07280,1998-05-05 21:00:00,13,1013.9,0.5,62,6,25000,7.408,,,280,,,,,,,,,,,wg-a,,,,AAXX 05214 07280 12775 82804 10130 20060 39869 40139 52005 60006 885// 92100=
07280,1998-05-06 00:00:00,11,1013.9,-0.1,76,7,20000,11.112,,,240,,,,,,,,,,,wg-a,,,,AAXX 06004 07280 12770 82406 10110 20070 39868 40139 57001 60006 885// 90000=
07280,1998-05-06 03:00:00,10,1013.4,-0.6,82,7,20000,14.816,,,200,,,,,,,,,,,wg-a,,,,AAXX 06034 07280 12770 82008 10100 20070 39862 40134 56006 60006 885// 90300=
07280,1998-05-06 06:00:00,9,1014.4,0.9,93,8,10000,11.112,,,190,9.3,13.6,,,,,,,,60,wg-a,,,,AAXX 06064 07280 02660 81906 10090 20080 39871 40144 53009 61000 76062 8257/ 90600 333 10136 20093 6000=
07280,1998-05-06 09:00:00,13,1015,0.9,72,8,20000,22.224,,,260,,,,,,,,,,3,wg-a,,,,AAXX 06094 07280 02470 82612 10130 20080 39880 40150 51009 61000 70362 8587/ 90900 333 ////=
07280,1998-05-06 12:00:00,14,1015.8,0.9,67,8,25000,22.224,,,260,,,,,,,,,,3,wg-a,,,,AAXX 06124 07280 02575 72612 10140 20080 39889 40158 51009 61000 70362 8627/ 91200 333 ////=
07280,1998-05-06 15:00:00,13,1016.4,0.5,62,6,500,18.52,,,250,,,,,,,,,,,wg-a,,,,AAXX 06154 07280 12600 72510 10130 20060 39894 40164 51005 60006 878// 91500=
07280,1998-05-06 18:00:00,12,1017.3,0.8,71,7,25000,11.112,,,260,9.4,14.4,,,,,,,,,wg-a,,,,AAXX 06184 07280 12675 /2606 10120 20070 39902 40173 53008 60006 878// 91800 333 10144 20094=
07280,1998-05-07 00:00:00,10,1019.2,0.2,82,7,20000,11.112,,,190,,,,,,,,,,,wg-a,,,,AAXX 07004 07280 12770 71906 10100 20070 39918 40192 51002 60006 875// 90000=
07280,1998-05-07 03:00:00,9,1019.2,0,93,8,20000,7.408,,,150,,,,,,,,,,,wg-a,,,,AAXX 07034 07280 12670 71504 10090 20080 39918 40192 50000 60006 875// 90300=
07280,1998-05-07 06:00:00,9,1020.6,1.3,87,7,15000,3.704,,,180,8,12.4,,,,,,,,,wg-a,,,,AAXX 07064 07280 02765 51802 10090 20070 39931 40206 53013 60006 83501 90600 333 10124 20080 61000=
07280,1998-05-07 09:00:00,15,1020.6,0.6,67,9,20000,7.408,,,150,,,,,,,,,,,wg-a,,,,AAXX 07094 07280 12570 31504 10150 20090 39937 40206 51006 60006 83800 90900=
07280,1998-05-07 12:00:00,18,1019.9,-0.4,56,9,500,14.816,,,200,,,,,,,,,,,wg-a,,,,AAXX 07124 07280 12600 22008 10180 20090 39933 40199 58004 60006 82201 91200=
07280,1998-05-07 15:00:00,19,1019.2,-0.6,52,9,35000,14.816,,,180,,,,,,,,,,,wg-a,,,,AAXX 07154 07280 12781 11808 10190 20090 39927 40192 58006 60006 81100 91500=
07280,1998-05-07 18:00:00,18,1019.3,-0,56,9,40000,11.112,,,170,8.8,19.3,,,,,,,,,wg-a,,,,AAXX 07184 07280 12/82 01706 10180 20090 39927 40193 55000 60006 80000 91800 333 10193 20088=
07280,1998-05-07 21:00:00,11,1021.7,1.7,82,8,500,0,,,0,,,,,,,,,,,wg-a,,,,AAXX 07214 07280 12/00 00000 10110 20080 39944 40217 51017 60006 80000 92100=
07280,1998-05-08 00:00:00,9,1023.1,1.1,87,7,500,7.408,,,320,,,,,,,,,,,wg-a,,,,AAXX 08004 07280 12/00 03204 10090 20070 39955 40231 51011 60006 80000 90000=
07280,1998-05-08 03:00:00,6,1023.6,0.3,93,5,20000,3.704,,,310,,,,,,,,,,,wg-a,,,,AAXX 08034 07280 12/70 03102 10060 20050 39958 40236 52003 60006 80000 90300=
07280,1998-05-08 06:00:00,9,1024.2,0.8,87,7,15000,3.704,,,20,5.2,17.5,,,,,,,,,wg-a,,,,AAXX 08064 07280 02/65 10202 10090 20070 39966 40242 53008 60006 80001 90600 333 10175 20052 60004=
07280,1998-05-08 09:00:00,18,1023.7,0.4,64,11,15000,18.52,,,200,,,,,,,,,,,wg-a,,,,AAXX 08094 07280 12/65 52010 10180 20110 39970 40237 51004 60006 80001 90900=
07280,1998-05-08 12:00:00,22,1022.2,-1.1,50,11,25000,25.928,,,200,,,,,,,,,,,wg-a,,,,AAXX 08124 07280 12/75 62014 10220 20110 39959 40222 58011 60006 80001 91200=
07280,1998-05-08 15:00:00,24,1020.9,-1.1,34,7,500,31.484,,,200,,,,,,,,,,,wg-a,,,,AAXX 08154 07280 12/00 62017 10240 20070 39948 40209 57011 60006 80001 91500=
07280,1998-05-08 18:00:00,21,1021.2,-0,43,8,500,14.816,,,190,8.5,24.1,,,,,,,,,wg-a,,,,AAXX 08184 07280 12/00 71908 10210 20080 39948 40212 55000 60006 80002 91800 333 10241 20085=
07280,1998-05-08 21:00:00,14,1023.8,2,67,8,500,11.112,,,190,,,,,,,,,,,wg-a,,,,AAXX 08214 07280 12/00 71906 10140 20080 39968 40238 51020 60006 80001 92100=
07280,1998-05-09 00:00:00,12,1024.2,0.1,76,8,25000,11.112,,,180,,,,,,,,,,,wg-a,,,,AAXX 09004 07280 12/75 71806 10120 20080 39969 40242 50001 60006 80001 90000=
07280,1998-05-09 03:00:00,10,1024.2,-0.2,82,7,20000,7.408,,,140,,,,,,,,,,,wg-a,,,,AAXX 09034 07280 12/70 71404 10100 20070 39967 40242 56002 60006 80002 90300=
07280,1998-05-09 06:00:00,10,1024.8,0.6,87,8,500,3.704,,,100,8.3,20.9,,,,,,,,,wg-a,,,,AAXX 09064 07280 02/00 71002 10100 20080 39973 40248 53006 60006 82032 90600 333 10209 20083 60004=
07280,1998-05-09 09:00:00,18,1024,-0,59,10,500,18.52,,,190,,,,,,,,,,,wg-a,,,,AAXX 09094 07280 12/00 51910 10180 20100 39973 40240 54000 60006 80001 90900=
07280,1998-05-09 12:00:00,22,1023,-0.6,53,12,40000,14.816,,,190,,,,,,,,,,,wg-a,,,,AAXX 09124 07280 12/82 11908 10220 20120 39967 40230 58006 60006 80001 91200=
07280,1998-05-09 15:00:00,25,1021.5,-1.3,39,10,40000,7.408,,,210,,,,,,,,,,,wg-a,,,,AAXX 09154 07280 12/82 02104 10250 20100 39954 40215 57013 60006 80000 91500=
07280,1998-05-09 18:00:00,22,1020.7,-0.9,53,12,40000,7.408,,,110,10.2,24.7,,,,,,,,,wg-a,,,,AAXX 09184 07280 12/82 01104 10220 20120 39945 40207 56009 60006 80000 91800 333 10247 20102=
07280,1998-05-10 00:00:00,11,1022.1,-0.3,87,9,25000,3.704,,,330,,,,,,,,,,,wg-a,,,,AAXX 10004 07280 12/75 03302 10110 20090 39948 40221 55003 60006 80000 90000=
07280,1998-05-10 03:00:00,9,1021.9,-0.4,93,8,25000,3.704,,,10,,,,,,,,,,,wg-a,,,,AAXX 10034 07280 12/75 00102 10090 20080 39944 40219 55004 60006 80000 90300=
07280,1998-05-10 06:00:00,12,1021.6,-0,88,10,25000,3.704,,,30,8.3,22.4,,,,,,,,,wg-a,,,,AAXX 10064 07280 02/75 10302 10120 20100 39944 40216 55000 60006 81030 90600 333 10224 20083 60004=
07280,1998-05-10 09:00:00,19,1020.1,-0.8,64,12,25000,7.408,,,160,,,,,,,,,,,wg-a,,,,AAXX 10094 07280 12/75 01604 10190 20120 39936 40201 58008 60006 80000 90900=
07280,1998-05-10 12:00:00,24,1017.8,-1.8,44,11,500,11.112,,,110,,,,,,,,,,,wg-a,,,,AAXX 10124 07280 12/00 01106 10240 20110 39918 40178 58018 60006 80000 91200=
07280,1998-05-10 15:00:00,26,1015.5,-2.1,45,13,35000,11.112,,,150,,,,,,,,,,,wg-a,,,,AAXX 10154 07280 12/81 01506 10260 20130 39897 40155 58021 60006 80000 91500=
07280,1998-05-10 18:00:00,24,1014.6,-1,54,14,35000,3.704,,,90,11.9,26.3,,,,,,,,,wg-a,,,,AAXX 10184 07280 12/81 10902 10240 20140 39887 40146 56010 60006 80001 91800 333 10263 20119=
07280,1998-05-10 21:00:00,,1015.2,-0.1,,,25000,3.704,,,310,,,,,,,,,,,wg-a,,,,AAXX 10214 07280 12/75 03102 1//// 2//// 39886 40152 56001 60006 80000 92100=
07280,1998-05-11 00:00:00,13,1015.9,0.3,88,11,25000,3.704,,,350,,,,,,,,,,,wg-a,,,,AAXX 11004 07280 12/75 03502 10130 20110 39889 40159 52003 60006 80000 90000=
07280,1998-05-11 03:00:00,10,1016,-0.1,93,9,20000,0,,,0,,,,,,,,,,,wg-a,,,,AAXX 11034 07280 12/70 00000 10100 20090 39888 40160 55001 60006 80000 90300=
07280,1998-05-11 06:00:00,13,1016.2,0.4,88,11,12000,0,,,0,9.5,24.6,,,,,,,,,wg-a,,,,AAXX 11064 07280 02/62 00000 10130 20110 39892 40162 53004 60006 80000 90600 333 10246 20095 60004=
07280,1998-05-11 09:00:00,21,1015.8,0.4,53,11,20000,18.52,,,200,,,,,,,,,,,wg-a,,,,AAXX 11094 07280 12/70 02010 10210 20110 39896 40158 51004 60006 80000 90900=
07280,1998-05-11 12:00:00,25,1014.7,-0.7,50,14,20000,11.112,,,210,,,,,,,,,,,wg-a,,,,AAXX 11124 07280 12/70 02106 10250 20140 39889 40147 58007 60006 80000 91200=
07280,1998-05-11 15:00:00,27,1013.5,-1,45,14,25000,7.408,,,160,,,,,,,,,,,wg-a,,,,AAXX 11154 07280 12/75 01604 10270 20140 39879 40135 57010 60006 80000 91500=
07280,1998-05-11 18:00:00,25,1013.3,-0.4,54,15,25000,7.408,,,170,12.9,27.4,,,,,,,,,wg-a,,,,AAXX 11184 07280 12/75 11704 10250 20150 39875 40133 55004 60006 80001 91800 333 10274 20129=
07280,1998-05-12 00:00:00,14,1016.3,0.6,88,12,20000,3.704,,,100,,,,,,,,,,,wg-a,,,,AAXX 12004 07280 12/70 31002 10140 20120 39894 40163 51006 60006 80001 90000=
07280,1998-05-12 06:00:00,14,1018,0.9,88,12,8000,3.704,,,10,11.1,24.8,,,,,,,,,wg-a,,,,AAXX 12064 07280 02/58 20102 10140 20120 39911 40180 53009 60006 80001 90600 333 10248 20111 60004=
07280,1998-05-12 09:00:00,22,1017.9,0.6,60,14,15000,11.112,,,170,,,,,,,,,,,wg-a,,,,AAXX 12094 07280 12/65 41706 10220 20140 39917 40179 51006 60006 80001 90900=
07280,1998-05-12 12:00:00,26,1017,-0.5,51,15,25000,7.408,,,180,,,,,,,,,,,wg-a,,,,AAXX 12124 07280 12/75 41804 10260 20150 39912 40170 57005 60006 80001 91200=
07280,1998-05-12 15:00:00,27,1016,-0.9,37,11,35000,3.704,,,140,,,,,,,,,,,wg-a,,,,AAXX 12154 07280 12/81 31402 10270 20110 39903 40160 56009 60006 80001 91500=
07280,1998-05-12 18:00:00,27,1016,-0,37,11,35000,0,,,0,13.7,27.8,,,,,,,,,wg-a,,,,AAXX 12184 07280 12/81 20000 10270 20110 39903 40160 55000 60006 80001 91800 333 10278 20137=
07280,1998-05-12 21:00:00,18,1017.8,1,73,13,20000,3.704,,,320,,,,,,,,,,,wg-a,,,,AAXX 12214 07280 12/70 43202 10180 20130 39913 40178 52010 60006 80001 92100=
07280,1998-05-13 00:00:00,16,1018.6,0.6,82,13,20000,0,,,0,,,,,,,,,,,wg-a,,,,AAXX 13004 07280 12/70 00000 10160 20130 39919 40186 53006 60006 80000 90000=
07280,1998-05-13 03:00:00,13,1019,0.1,88,11,15000,3.704,,,20,,,,,,,,,,11,wg-a,,,,AAXX 13034 07280 12/65 30202 10130 20110 39920 40190 53001 60006 71100 80001 90300=
07280,1998-05-13 06:00:00,15,1019.5,0.6,88,13,8000,0,,,0,12.5,26.4,,,,,,,,,wg-a,,,,AAXX 13064 07280 02/58 20000 10150 20130 39926 40195 53006 60006 80001 90600 333 10264 20125 60004=
07280,1998-05-13 09:00:00,22,1018.9,0.2,65,15,11000,3.704,,,50,,,,,,,,,,,wg-a,,,,AAXX 13094 07280 12/61 40502 10220 20150 39928 40189 51002 60006 80001 90900=
07280,1998-05-13 12:00:00,27,1017.7,-0.9,48,15,25000,3.704,,,120,,,,,,,,,,,wg-a,,,,AAXX 13124 07280 12675 21202 10270 20150 39919 40177 56009 60006 81101 91200=
07280,1998-05-13 15:00:00,28,1016.1,-1.4,40,13,25000,7.408,,,100,,,,,,,,,,,wg-a,,,,AAXX 13154 07280 12775 31004 10280 20130 39905 40161 58014 60006 81302 91500=
07280,1998-05-13 18:00:00,27,1016,-0.2,45,14,25000,0,,,0,14.9,28.4,,,,,,,,,wg-a,,,,AAXX 13184 07280 12/75 50000 10270 20140 39903 40160 56002 60006 80009 91800 333 10284 20149=
07280,1998-05-13 21:00:00,21,1017.1,0.6,73,16,20000,11.112,,,330,,,,,,,,,,,wg-a,,,,AAXX 13214 07280 12/70 63306 10210 20160 39909 40171 51006 60006 83032 92100=
07280,1998-05-14 00:00:00,19,1016.8,-0.5,83,16,15000,7.408,,,310,,,,1,,,,,,1,wg-a,,,,AAXX 14004 07280 02/65 53104 10190 20160 39904 40168 58005 60016 70198 81093 90000 333 60017=
07280,1998-05-14 03:00:00,15,1017.1,-0.1,94,14,15000,0,,,0,,,,,,,,,,,wg-a,,,,AAXX 14034 07280 12/65 30000 10150 20140 39903 40171 55001 60006 81032 90300=
07280,1998-05-14 06:00:00,15,1017.3,0.3,100,15,10000,11.112,,,40,14.4,27.2,,,,,1,,,,wg-a,,,,AAXX 14064 07280 02/60 20406 10150 20150 39906 40173 50003 60006 81031 90600 333 10272 20144 60014=
07280,1998-05-14 09:00:00,21,1016.7,0,83,18,12000,7.408,,,40,,,,,,,,,,,wg-a,,,,AAXX 14094 07280 12/62 30404 10210 20180 39906 40167 50000 60006 80002 90900=
07280,1998-05-14 12:00:00,26,1015.3,-1,58,17,12000,11.112,,,50,,,,,,,,,,,wg-a,,,,AAXX 14124 07280 12662 50506 10260 20170 39896 40153 58010 60006 81302 91200=
07280,1998-05-14 15:00:00,27,1014.1,-1.1,48,15,15000,7.408,,,50,,,,,,,,,,,wg-a,,,,AAXX 14154 07280 12665 70504 10270 20150 39885 40141 56011 60006 83903 91500=
07280,1998-05-14 18:00:00,23,1014.2,-0.2,65,16,12000,7.408,,,10,15.4,28,,,,,,,,17,wg-a,,,,AAXX 14184 07280 12562 80104 10230 20160 39883 40142 55002 60006 71792 83903 91800 333 10280 20154=
07280,1998-05-14 21:00:00,20,1015.4,0.9,64,13,15000,14.816,,,330,,,,,,,,,,1,wg-a,,,,AAXX 14214 07280 12/65 83308 10200 20130 39892 40154 50009 60006 70192 82032 92100=
07280,1998-05-15 00:00:00,18,1015.7,-0,77,14,15000,14.816,,,360,,,,,,,,,,1,wg-a,,,,AAXX 15004 07280 12/65 43608 10180 20140 39892 40157 55000 60006 70191 80001 90000=
07280,1998-05-15 03:00:00,16,1015.2,-0.7,77,12,15000,18.52,,,20,,,,,,,,,,,wg-a,,,,AAXX 15034 07280 12/65 00210 10160 20120 39885 40152 56007 60006 80000 90300=
07280,1998-05-15 06:00:00,16,1016,0.8,72,11,20000,18.52,,,20,14.1,23,,,,,,,,,wg-a,,,,AAXX 15064 07280 02/70 20210 10160 20110 39893 40160 52008 60006 80001 90600 333 10230 20141 60004=
07280,1998-05-15 09:00:00,20,1015.5,-0.1,43,7,10000,22.224,,,30,,,,,,,,,,,wg-a,,,,AAXX 15094 07280 12/60 /0312 10200 20070 39892 40155 58001 60006 90900=
07280,1998-05-15 12:00:00,23,1014.3,-0.9,33,6,35000,22.224,,,50,,,,,,,,,,,wg-a,,,,AAXX 15124 07280 12/81 10512 10230 20060 39883 40143 56009 60006 80001 91200=
07280,1998-05-15 15:00:00,25,1012.5,-1.6,32,7,35000,22.224,,,50,,,,,,,,,,,wg-a,,,,AAXX 15154 07280 12/81 10512 10250 20070 39867 40125 58016 60006 80001 91500=
07280,1998-05-15 18:00:00,23,1012.5,-0.2,33,6,35000,22.224,,,20,16,25.2,,,,,,,,,wg-a,,,,AAXX 15184 07280 12/81 00212 10230 20060 39865 40125 55002 60006 80000 91800 333 10252 20160=
07280,1998-05-15 21:00:00,16,1014.3,1.1,48,5,25000,14.816,,,10,,,,,,,,,,,wg-a,,,,AAXX 15214 07280 12/75 00108 10160 20050 39876 40143 52011 60006 80000 92100=
07280,1998-05-16 03:00:00,12,1015.1,0.3,67,6,25000,18.52,,,10,,,,,,,,,,,wg-a,,,,AAXX 16034 07280 12/75 00110 10120 20060 39881 40151 51003 60006 80000 90300=
07280,1998-05-16 06:00:00,14,1015.9,0.9,63,7,40000,18.52,,,20,11.5,22.5,,,,,,,,,wg-a,,,,AAXX 16064 07280 02/82 00210 10140 20070 39890 40159 53009 60006 80000 90600 333 10225 20115 60004=
07280,1998-05-16 09:00:00,19,1015.8,0.3,43,6,40000,22.224,,,50,,,,,,,,,,,wg-a,,,,AAXX 16094 07280 12/82 00512 10190 20060 39893 40158 51003 60006 80000 90900=
07280,1998-05-16 12:00:00,20,1015.5,-0.1,35,4,40000,25.928,,,50,,,,,,,,,,,wg-a,,,,AAXX 16124 07280 12/82 00514 10200 20040 39892 40155 58001 60006 80000 91200=
07280,1998-05-16 15:00:00,21,1015.1,-0.4,33,4,40000,25.928,,,20,,,,,,,,,,,wg-a,,,,AAXX 16154 07280 12/82 00214 10210 20040 39888 40151 56004 60006 80000 91500=
07280,1998-05-16 18:00:00,19,1015.3,0.1,40,5,40000,22.224,,,10,13.7,21.2,,,,,,,,,wg-a,,,,AAXX 16184 07280 12/82 00112 10190 20050 39889 40153 53001 60006 80000 91800 333 10212 20137=
07280,1998-05-16 21:00:00,14,1016.8,1,55,5,25000,18.52,,,10,,,,,,,,,,,wg-a,,,,AAXX 16214 07280 12/75 00110 10140 20050 39899 40168 51010 60006 80000 92100=
07280,1998-05-17 00:00:00,11,1017.2,0.1,66,5,25000,18.52,,,10,,,,,,,,,,,wg-a,,,,AAXX 17004 07280 12/75 00110 10110 20050 39900 40172 53001 60006 80000 90000=
07280,1998-05-17 03:00:00,10,1017.5,0.2,71,5,25000,18.52,,,20,,,,,,,,,,,wg-a,,,,AAXX 17034 07280 12/75 00210 10100 20050 39902 40175 53002 60006 80000 90300=
07280,1998-05-17 06:00:00,13,1018.6,1.3,62,6,40000,14.816,,,30,9.6,19.2,,,,,,,,,wg-a,,,,AAXX 17064 07280 02/82 00308 10130 20060 39915 40186 53013 60006 80000 90600 333 10192 20096 60004=
07280,1998-05-17 09:00:00,18,1018.8,0.7,49,7,40000,22.224,,,30,,,,,,,,,,,wg-a,,,,AAXX 17094 07280 12/82 10312 10180 20070 39922 40188 50007 60006 80001 90900=
07280,1998-05-17 12:00:00,21,1018.5,0,38,6,40000,22.224,,,40,,,,,,,,,,,wg-a,,,,AAXX 17124 07280 12782 10412 10210 20060 39922 40185 50000 60006 81100 91200=
07280,1998-05-17 15:00:00,22,1018.4,-0.1,33,5,40000,25.928,,,40,,,,,,,,,,,wg-a,,,,AAXX 17154 07280 12882 30414 10220 20050 39921 40184 56001 60006 83100 91500=
07280,1998-05-17 18:00:00,20,1019.2,0.6,35,4,40000,22.224,,,50,12.5,22.5,,,,,,,,,wg-a,,,,AAXX 17184 07280 12782 10512 10200 20040 39927 40192 53006 60006 81400 91800 333 10225 20125=
07280,1998-05-17 21:00:00,14,1021.4,1.7,58,6,25000,14.816,,,30,,,,,,,,,,,wg-a,,,,AAXX 17214 07280 12/75 00308 10140 20060 39944 40214 53017 60006 80000 92100=
07280,1998-05-18 00:00:00,11,1022.3,0.5,76,7,25000,18.52,,,10,,,,,,,,,,,wg-a,,,,AAXX 18004 07280 12/75 00110 10110 20070 39949 40223 51005 60006 80000 90000=
07280,1998-05-18 03:00:00,9,1022.7,0.3,87,7,25000,18.52,,,20,,,,,,,,,,,wg-a,,,,AAXX 18034 07280 12/75 00210 10090 20070 39952 40227 52003 60006 80000 90300=
07280,1998-05-18 06:00:00,12,1023.7,1.2,71,7,500,14.816,,,30,8.9,19.8,,,,,,,,,wg-a,,,,AAXX 18064 07280 02/00 00308 10120 20070 39964 40237 51012 60006 80000 90600 333 10198 20089 60004=
07280,1998-05-18 09:00:00,18,1023.5,0.4,42,5,500,25.928,,,60,,,,,,,,,,,wg-a,,,,AAXX 18094 07280 12/00 00614 10180 20050 39968 40235 50004 60006 80000 90900=
07280,1998-05-18 12:00:00,21,1022.6,-0.6,35,5,500,29.632,,,60,,,,,,,,,,,wg-a,,,,AAXX 18124 07280 12700 10616 10210 20050 39962 40226 58006 60006 81100 91200=
07280,1998-05-18 15:00:00,22,1021.9,-0.6,33,5,500,18.52,,,50,,,,,,,,,,,wg-a,,,,AAXX 18154 07280 12800 20510 10220 20050 39956 40219 58006 60006 82400 91500=
07280,1998-05-18 18:00:00,20,1021.9,-0.2,37,5,500,14.816,,,40,11.9,22.5,,,,,,,,,wg-a,,,,AAXX 18184 07280 12800 10408 10200 20050 39954 40219 55002 60006 81500 91800 333 10225 20119=
07280,1998-05-18 21:00:00,14,1023.6,1.1,58,6,25000,14.816,,,20,,,,,,,,,,,wg-a,,,,AAXX 18214 07280 12/75 00208 10140 20060 39965 40236 51011 60006 80000 92100=
07280,1998-05-19 00:00:00,11,1024.2,0.3,71,6,20000,14.816,,,20,,,,,,,,,,,wg-a,,,,AAXX 19004 07280 12/70 00208 10110 20060 39968 40242 51003 60006 80000 90000=
07280,1998-05-19 03:00:00,11,1023.8,-0.4,71,6,20000,18.52,,,20,,,,,,,,,,,wg-a,,,,AAXX 19034 07280 12/70 00210 10110 20060 39964 40238 56004 60006 80000 90300=
07280,1998-05-19 06:00:00,13,1024.5,0.9,67,7,25000,14.816,,,30,10.2,20.4,,,,,,,,,wg-a,,,,AAXX 19064 07280 02/75 00308 10130 20070 39973 40245 53009 60006 80000 90600 333 10204 20102 60004=
07280,1998-05-19 09:00:00,20,1023.5,-0.4,40,6,500,25.928,,,60,,,,,,,,,,,wg-a,,,,AAXX 19094 07280 12/00 10614 10200 20060 39969 40235 58004 60006 80001 90900=
07280,1998-05-19 12:00:00,23,1021.8,-1.4,33,6,35000,22.224,,,70,,,,,,,,,,,wg-a,,,,AAXX 19124 07280 12881 20712 10230 20060 39955 40218 58014 60006 81102 91200=
07280,1998-05-19 15:00:00,24,1020.2,-1.4,29,5,35000,25.928,,,60,,,,,,,,,,,wg-a,,,,AAXX 19154 07280 12881 10614 10240 20050 39941 40202 56014 60006 81102 91500=
07280,1998-05-19 18:00:00,22,1019.7,-0.7,35,6,500,14.816,,,30,13.3,23.8,,,,,,,,,wg-a,,,,AAXX 19184 07280 12/00 10308 10220 20060 39934 40197 58007 60006 81400 91800 333 10238 20133=
07280,1998-05-19 21:00:00,16,1020.4,0.1,55,7,500,18.52,,,20,,,,,,,,,,,wg-a,,,,AAXX 19214 07280 12/00 10210 10160 20070 39935 40204 53001 60006 80001 92100=
07280,1998-05-20 00:00:00,14,1020.5,-0.1,63,7,20000,14.816,,,20,,,,,,,,,,,wg-a,,,,AAXX 20004 07280 12/70 00208 10140 20070 39934 40205 58001 60006 80000 90000=
07280,1998-05-20 03:00:00,11,1020.2,-0.5,71,6,20000,14.816,,,10,,,,,,,,,,,wg-a,,,,AAXX 20034 07280 12/70 00108 10110 20060 39929 40202 57005 60006 80000 90300=
07280,1998-05-20 06:00:00,14,1020,0.1,63,7,25000,14.816,,,20,10.9,21.9,,,,,,,,,wg-a,,,,AAXX 20064 07280 02/75 10208 10140 20070 39930 40200 53001 60006 80001 90600 333 10219 20109 60004=
07280,1998-05-20 09:00:00,20,1019.2,-0.2,46,8,25000,14.816,,,40,,,,,,,,,,,wg-a,,,,AAXX 20094 07280 12775 10408 10200 20080 39928 40192 58002 60006 81101 90900=
07280,1998-05-20 12:00:00,24,1018,-0.9,31,6,500,14.816,,,60,,,,,,,,,,,wg-a,,,,AAXX 20124 07280 12800 10608 10240 20060 39919 40180 58009 60006 81201 91200=
07280,1998-05-20 15:00:00,25,1016.9,-1,28,5,500,18.52,,,40,,,,,,,,,,,wg-a,,,,AAXX 20154 07280 12800 20410 10250 20050 39909 40169 58010 60006 82401 91500=
07280,1998-05-20 18:00:00,23,1016.3,-0.7,36,7,500,11.112,,,50,14,25,,,,,,,,,wg-a,,,,AAXX 20184 07280 12700 10506 10230 20070 39902 40163 56007 60006 81100 91800 333 10250 20140=
07280,1998-05-20 21:00:00,18,1017.4,0.7,49,7,25000,22.224,,,360,,,,,,,,,,,wg-a,,,,AAXX 20214 07280 12/75 13612 10180 20070 39909 40174 53007 60006 80001 92100=
07280,1998-05-21 00:00:00,14,1017.7,-0.1,63,7,25000,11.112,,,340,,,,,,,,,,,wg-a,,,,AAXX 21004 07280 12/75 03406 10140 20070 39908 40177 57001 60006 80000 90000=
07280,1998-05-21 03:00:00,12,1017.5,-0.4,71,7,20000,11.112,,,350,,,,,,,,,,,wg-a,,,,AAXX 21034 07280 12/70 13506 10120 20070 39904 40175 56004 60006 80001 90300=
07280,1998-05-21 06:00:00,15,1018,0.7,67,9,20000,7.408,,,340,11.4,22.8,,,,,,,,,wg-a,,,,AAXX 21064 07280 02/70 03404 10150 20090 39911 40180 52007 60006 80000 90600 333 10228 20114 60004=
07280,1998-05-21 09:00:00,20,1017.7,0.2,56,11,20000,14.816,,,20,,,,,,,,,,,wg-a,,,,AAXX 21094 07280 12470 /0208 10200 20110 39913 40177 53002 60006 81100 90900=
07280,1998-05-21 12:00:00,23,1016.8,-0.6,38,8,20000,14.816,,,40,,,,,,,,,,,wg-a,,,,AAXX 21124 07280 12670 30408 10230 20080 39907 40168 58006 60006 83200 91200=
07280,1998-05-21 15:00:00,23,1016.1,-0.7,38,8,20000,18.52,,,360,,,,,,,,,,,wg-a,,,,AAXX 21154 07280 12770 53610 10230 20080 39900 40161 56007 60006 82206 91500=
07280,1998-05-21 18:00:00,21,1016.5,0.2,43,8,20000,18.52,,,350,14.5,24.2,,,,,,,,,wg-a,,,,AAXX 21184 07280 12/70 73510 10210 20080 39902 40165 53002 60006 81031 91800 333 10242 20145=
07280,1998-05-21 21:00:00,17,1018.4,1.5,63,10,20000,18.52,,,360,,,,,,,,,,,wg-a,,,,AAXX 21214 07280 12/70 63610 10170 20100 39917 40184 53015 60006 81031 92100=
07280,1998-05-22 00:00:00,14,1019.4,0.8,82,11,15000,18.52,,,360,,,,,,,,,,,wg-a,,,,AAXX 22004 07280 12/65 73610 10140 20110 39925 40194 50008 60006 8707/ 90000=
07280,1998-05-22 03:00:00,11,1020.3,0.5,82,8,10000,22.224,,,360,,,,,,,,,,,wg-a,,,,AAXX 22034 07280 12560 23612 10110 20080 39930 40203 52005 60006 82500 90300=
07280,1998-05-22 06:00:00,10,1021.2,0.8,82,7,15000,18.52,,,10,9.8,20.8,,,,,,,,,wg-a,,,,AAXX 22064 07280 02665 70110 10100 20070 39938 40212 53008 60006 81501 90600 333 10208 20098 60004=
07280,1998-05-22 09:00:00,15,1021.1,0.3,55,6,20000,22.224,,,30,,,,,,,,,,,wg-a,,,,AAXX 22094 07280 12570 /0312 10150 20060 39941 40211 51003 60006 82101 90900=
07280,1998-05-22 12:00:00,17,1020.9,-0,42,4,500,22.224,,,40,,,,,,,,,,,wg-a,,,,AAXX 22124 07280 12700 /0412 10170 20040 39941 40209 55000 60006 82101 91200=
07280,1998-05-22 15:00:00,17,1020.5,-0.4,39,3,35000,22.224,,,40,,,,,,,,,,,wg-a,,,,AAXX 22154 07280 12781 20412 10170 20030 39937 40205 56004 60006 82100 91500=
07280,1998-05-22 18:00:00,15,1020.7,-0,44,3,40000,22.224,,,30,10.3,17.1,,,,,,,,,wg-a,,,,AAXX 22184 07280 12782 10312 10150 20030 39937 40207 55000 60006 81400 91800 333 10171 20103=
07280,1998-05-22 21:00:00,9,1022.5,1.3,71,4,500,14.816,,,10,,,,,,,,,,,wg-a,,,,AAXX 22214 07280 12/00 00108 10090 20040 39950 40225 52013 60006 80000 92100=
07280,1998-05-23 00:00:00,8,1022.2,-0.5,71,3,500,18.52,,,10,,,,,,,,,,,wg-a,,,,AAXX 23004 07280 12/00 00110 10080 20030 39945 40222 58005 60006 80000 90000=
07280,1998-05-23 06:00:00,8,1021,-0.1,76,4,15000,18.52,,,20,6.1,14.7,,,,,,,,,wg-a,,,,AAXX 23064 07280 02/65 00210 10080 20040 39934 40210 56001 60006 80000 90600 333 10147 20061 60004=
07280,1998-05-23 09:00:00,13,1020,-0.5,51,3,20000,22.224,,,30,,,,,,,,,,,wg-a,,,,AAXX 23094 07280 12670 /0312 10130 20030 39929 40200 58005 60006 81100 90900=
07280,1998-05-23 12:00:00,16,1018.9,-0.8,42,3,25000,25.928,,,30,,,,,,,,,,,wg-a,,,,AAXX 23124 07280 12775 10314 10160 20030 39921 40189 58008 60006 81100 91200=
07280,1998-05-23 15:00:00,17,1017.4,-1.4,39,3,25000,18.52,,,40,,,,,,,,,,,wg-a,,,,AAXX 23154 07280 12775 10410 10170 20030 39907 40174 56014 60006 81100 91500=
07280,1998-05-23 18:00:00,16,1016.5,-0.9,42,3,25000,18.52,,,40,8.5,17.6,,,,,,,,,wg-a,,,,AAXX 23184 07280 12775 10410 10160 20030 39898 40165 56009 60006 81400 91800 333 10176 20085=
07280,1998-05-23 21:00:00,11,1017.8,0.7,62,4,25000,14.816,,,10,,,,,,,,,,,wg-a,,,,AAXX 23214 07280 12/75 00108 10110 20040 39905 40178 52007 60006 80000 92100=
07280,1998-05-24 00:00:00,8,1017.1,-0.9,76,4,20000,11.112,,,340,,,,,,,,,,,wg-a,,,,AAXX 24004 07280 12/70 03406 10080 20040 39896 40171 58009 60006 80000 90000=
07280,1998-05-24 03:00:00,7,1015.9,-1.3,76,3,15000,11.112,,,340,,,,,,,,,,,wg-a,,,,AAXX 24034 07280 12/65 13406 10070 20030 39883 40159 56013 60006 80002 90300=
07280,1998-05-24 06:00:00,11,1015,-0.4,71,6,20000,11.112,,,360,6.6,16.2,,,,,,,,,wg-a,,,,AAXX 24064 07280 02/70 23606 10110 20060 39879 40150 56004 60006 82030 90600 333 10162 20066 60004=
07280,1998-05-24 09:00:00,16,1014.5,-0.1,48,5,500,18.52,,,20,,,,,,,,,,,wg-a,,,,AAXX 24094 07280 12600 40210 10160 20050 39878 40145 58001 60006 81830 90900=
07280,1998-05-24 12:00:00,19,1013.4,-0.8,40,5,500,14.816,,,10,,,,,,,,,,,wg-a,,,,AAXX 24124 07280 12700 20108 10190 20050 39870 40134 56008 60006 82230 91200=
07280,1998-05-24 15:00:00,18,1012.4,-1,49,7,40000,22.224,,,30,,,,,,,,,,,wg-a,,,,AAXX 24154 07280 12682 30312 10180 20070 39860 40124 56010 60006 83230 91500=
07280,1998-05-24 18:00:00,17,1012,-0.5,52,7,500,18.52,,,10,11.1,19.1,,,,,,,,,wg-a,,,,AAXX 24184 07280 12700 10110 10170 20070 39855 40120 56005 60006 81430 91800 333 10191 20111=
07280,1998-05-24 21:00:00,12,1013.5,1,76,8,20000,7.408,,,360,,,,,,,,,,,wg-a,,,,AAXX 24214 07280 12/70 13604 10120 20080 39865 40135 52010 60006 81030 92100=
07280,1998-05-25 00:00:00,10,1013.1,-0.5,93,9,15000,7.408,,,330,,,,,,,,,,,wg-a,,,,AAXX 25004 07280 12/65 13304 10100 20090 39860 40131 58005 60006 81030 90000=
07280,1998-05-25 03:00:00,9,1012.8,-0.4,100,9,8000,11.112,,,330,,,,,,,,,,,wg-a,,,,AAXX 25034 07280 12/58 23306 10090 20090 39856 40128 56004 60006 82030 90300=
07280,1998-05-25 06:00:00,12,1012.7,0.1,88,10,10000,3.704,,,10,8.8,16.7,,,,,,,,,wg-a,,,,AAXX 25064 07280 02660 /0102 10120 20100 39857 40127 51001 60006 81530 90600 333 10167 20088 60004=
07280,1998-05-25 09:00:00,16,1012.5,0.2,68,10,12000,14.816,,,30,,,,,,,,,,,wg-a,,,,AAXX 25094 07280 12562 70308 10160 20100 39859 40125 50002 60006 87800 90900=
07280,1998-05-25 12:00:00,18,1011.5,-0.8,56,9,25000,7.408,,,300,,,,,,,,,,,wg-a,,,,AAXX 25124 07280 12675 73004 10180 20090 39851 40115 58008 60006 87800 91200=
07280,1998-05-25 15:00:00,20,1009.7,,49,9,500,3.704,,,110,,,,,,,,,,,wg-a,,,,AAXX 25154 07280 12600 71102 10200 20090 39835 40097 60006 84802 91500=
07280,1998-05-25 18:00:00,19,1008.8,-0.9,56,10,500,11.112,,,190,11.8,19.7,,,,,,,,,wg-a,,,,AAXX 25184 07280 12600 /1906 10190 20100 39826 40088 56009 60006 82202 91800 333 10197 20118=
07280,1998-05-25 21:00:00,13,1010,0.6,82,10,500,3.704,,,220,,,,,,,,,,,wg-a,,,,AAXX 25214 07280 12700 32202 10130 20100 39832 40100 53006 60006 83500 92100=
07280,1998-05-26 00:00:00,12,1009.6,-0.5,88,10,20000,3.704,,,10,,,,,,,,,,,wg-a,,,,AAXX 26004 07280 12770 70102 10120 20100 39827 40096 58005 60006 875// 90000=
07280,1998-05-26 01:00:00,13,1009.3,0.1,94,12,10000,14.816,,,270,11,18.7,,1,,,1,,,3,wg-a,,,,AAXX 26014 07280 02460 52708 10130 20120 39826 40093 53001 60014 70398 84880 90100 333 10187 20110 60017=
07280,1998-05-26 03:00:00,12,1009.4,-0.2,88,10,12000,7.408,,,320,,,,,,,,,,17,wg-a,,,,AAXX 26034 07280 12662 83204 10120 20100 39825 40094 55002 60006 71792 889// 90300=
07280,1998-05-26 06:00:00,13,1009.3,0.1,94,12,10000,14.816,,,270,11,18.7,,,,,1,,,3,wg-a,,,,AAXX 26064 07280 02460 /2708 10130 20120 39826 40093 53001 60006 70398 84880 90600 333 10187 20110 60014=
07280,1998-05-26 09:00:00,17,1009.2,0.2,63,10,20000,11.112,,,250,,,,,,,,,,,wg-a,,,,AAXX 26094 07280 12570 62506 10170 20100 39828 40092 50002 60006 86800 90900=
07280,1998-05-26 12:00:00,17,1008.9,-0.3,63,10,25000,14.816,,,200,,,,,,,,,,,wg-a,,,,AAXX 26124 07280 12575 82008 10170 20100 39825 40089 58003 60006 884// 91200=
07280,1998-05-26 15:00:00,20,1007.5,-1.1,53,10,25000,18.52,,,230,,,,,,,,,,,wg-a,,,,AAXX 26154 07280 12675 /2310 10200 20100 39814 40075 56011 60006 86800 91500=
07280,1998-05-26 18:00:00,15,1008,0.1,82,12,20000,11.112,,,210,13.2,20.1,,2,,,,,,1,wg-a,,,,AAXX 26184 07280 02570 72106 10150 20120 39815 40080 50001 60006 70186 82993 91800 333 10201 20132 60027=
07280,1998-05-26 21:00:00,13,1009.4,1.1,88,11,20000,3.704,,,190,,,,,,,,,,,wg-a,,,,AAXX 26214 07280 12570 71902 10130 20110 39826 40094 51011 60006 8589/ 92100=
07280,1998-05-27 00:00:00,12,1009.6,0.1,94,11,20000,7.408,,,220,,,,,,,,,,2,wg-a,,,,AAXX 27004 07280 02570 72204 10120 20110 39827 40096 51001 61000 70286 878// 90000 333 6100=
07280,1998-05-27 03:00:00,11,1009.3,-0.3,94,10,20000,7.408,,,190,,,,,,,,,,1,wg-a,,,,AAXX 27034 07280 02570 71904 10110 20100 39824 40093 57003 61000 70186 878// 90300 333 ////=
07280,1998-05-27 06:00:00,12,1009.7,0.4,94,11,20000,7.408,,,190,10.8,15.3,,,,,,,,21,wg-a,,,,AAXX 27064 07280 02670 71904 10120 20110 39828 40097 53004 61000 72186 8683/ 90600 333 10153 20108 6002=
07280,1998-05-27 09:00:00,17,1008.9,-0.3,68,11,500,18.52,,,190,,,,,,,,,,,wg-a,,,,AAXX 27094 07280 12500 71910 10170 20110 39825 40089 58003 60006 83231 90900=
07280,1998-05-27 12:00:00,20,1007.6,-1,49,9,500,22.224,,,210,,,,,,,,,,,wg-a,,,,AAXX 27124 07280 12600 72112 10200 20090 39815 40076 58010 60006 83802 91200=
07280,1998-05-27 15:00:00,19,1007.1,-0.6,56,10,20000,18.52,,,180,,,,,,,,,,80,wg-a,,,,AAXX 27154 07280 02670 81810 10190 20100 39809 40071 55006 61000 78086 8482/ 91500 333 ////=
07280,1998-05-27 18:00:00,13,1008.2,0.6,100,13,8000,11.112,,,170,12.1,20,,,,,,,,61,wg-a,,,,AAXX 27184 07280 02458 81706 10130 20130 39815 40082 53006 61000 76186 8322/ 91800 333 10200 20121 6003=
07280,1998-05-27 21:00:00,13,1008.7,0.4,94,12,7000,7.408,,,160,,,,0,,,,,,1,wg-a,,,,AAXX 27214 07280 12257 81604 10130 20120 39819 40087 53004 60007 70162 8372/ 92100=
07280,1998-05-28 00:00:00,13,1008.5,-0.2,94,12,7000,7.408,,,130,,,,,,,,,,1,wg-a,,,,AAXX 28004 07280 12457 81304 10130 20120 39817 40085 58002 60006 70162 877// 90000=
07280,1998-05-28 03:00:00,12,1007.2,-1.3,100,12,7000,7.408,,,130,,,,,,,,,,,wg-a,,,,AAXX 28034 07280 12357 81304 10120 20120 39804 40072 57013 60006 882// 90300=
07280,1998-05-28 06:00:00,13,1007.5,0.4,100,13,8000,11.112,,,170,11.9,13.4,,,,,,,,61,wg-a,,,,AAXX 28064 07280 02258 81706 10130 20130 39808 40075 53004 61000 76162 877// 90600 333 10134 20119 6004=
07280,1998-05-28 09:00:00,14,1007.5,0.1,94,13,8000,11.112,,,150,,,,2,,,,,,61,wg-a,,,,AAXX 28094 07280 12258 81506 10140 20130 39809 40075 51001 60027 76166 8622/ 90900=
07280,1998-05-28 12:00:00,17,1006.7,-0.5,77,13,500,7.408,,,130,,,,,,,,,,3,wg-a,,,,AAXX 28124 07280 02500 81304 10170 20130 39804 40067 58005 60026 70362 8487/ 91200 333 61000=
07280,1998-05-28 15:00:00,14,1007.4,0.4,94,13,10000,18.52,,,210,,,,1,,,,,,61,wg-a,,,,AAXX 28154 07280 12560 82110 10140 20130 39808 40074 53004 60017 76162 8582/ 91500=
07280,1998-05-28 18:00:00,13,1008.3,0.8,100,13,7000,11.112,,,210,13,17.4,,,,,,,,61,wg-a,,,,AAXX 28184 07280 02357 82106 10130 20130 39816 40083 52008 61000 76162 8472/ 91800 333 10174 20130 6005=
07280,1998-05-28 21:00:00,12,1009.4,1,100,12,7000,7.408,,,180,,,,1,,,,,,21,wg-a,,,,AAXX 28214 07280 12157 81804 10120 20120 39826 40094 53010 60017 72162 8552/ 92100=
07280,1998-05-29 00:00:00,12,1010.3,0.8,100,12,10000,3.704,,,190,,,,,,,,,,1,wg-a,,,,AAXX 29004 07280 12160 81902 10120 20120 39834 40103 51008 60016 70162 8352/ 90000=
07280,1998-05-29 03:00:00,11,1011.4,1,100,11,7000,3.704,,,200,,,,,,,,,,28,wg-a,,,,AAXX 29034 07280 12657 72002 10110 20110 39844 40114 51010 60006 72842 8352/ 90300=
07280,1998-05-29 06:00:00,12,1012.8,1.4,100,12,10000,3.704,,,80,10.6,13.1,,,,,9,,,1,wg-a,,,,AAXX 29064 07280 02760 70802 10120 20120 39858 40128 53014 60006 70142 8157/ 90600 333 10131 20106 60094=
07280,1998-05-29 09:00:00,15,1014,1.5,72,10,25000,11.112,,,280,,,,,,,,,,,wg-a,,,,AAXX 29094 07280 12575 82806 10150 20100 39873 40140 51015 60006 8683/ 90900=
07280,1998-05-29 12:00:00,18,1013.5,-0.2,59,10,500,7.408,,,120,,,,,,,,,,,wg-a,,,,AAXX 29124 07280 12500 71204 10180 20100 39871 40135 56002 60006 878// 91200=
07280,1998-05-29 15:00:00,19,1012.9,-0.5,52,9,35000,3.704,,,120,,,,,,,,,,,wg-a,,,,AAXX 29154 07280 12581 71202 10190 20090 39866 40129 58005 60006 874// 91500=
07280,1998-05-29 18:00:00,18,1012.8,-0.2,64,11,35000,11.112,,,60,11.6,19.6,,,,,,,,,wg-a,,,,AAXX 29184 07280 12681 /0606 10180 20110 39864 40128 55002 60006 81800 91800 333 10196 20116=
07280,1998-05-29 21:00:00,13,1013.9,0.6,88,11,500,11.112,,,360,,,,,,,,,,,wg-a,,,,AAXX 29214 07280 12800 13606 10130 20110 39870 40139 53006 60006 81501 92100=
07280,1998-05-30 00:00:00,11,1013.9,-0.2,94,10,20000,11.112,,,360,,,,,,,,,,,wg-a,,,,AAXX 30004 07280 12/70 03606 10110 20100 39868 40139 58002 60006 80000 90000=
07280,1998-05-30 03:00:00,10,1013,-0.9,100,10,12000,11.112,,,350,,,,,,,,,,,wg-a,,,,AAXX 30034 07280 12/62 03506 10100 20100 39859 40130 57009 60006 80000 90300=
07280,1998-05-30 06:00:00,12,1013.2,0.4,94,11,7000,7.408,,,60,9.8,17.7,,,,,,,,,wg-a,,,,AAXX 30064 07280 02/57 00604 10120 20110 39863 40132 53004 60006 80000 90600 333 10177 20098 60004=
07280,1998-05-30 09:00:00,18,1012.1,-0.6,73,13,12000,11.112,,,190,,,,,,,,,,,wg-a,,,,AAXX 30094 07280 12562 /1906 10180 20130 39857 40121 58006 60006 81200 90900=
07280,1998-05-30 12:00:00,22,1010.8,-0.9,53,12,25000,18.52,,,170,,,,,,,,,,,wg-a,,,,AAXX 30124 07280 12675 31710 10220 20120 39848 40108 58009 60006 83200 91200=
07280,1998-05-30 15:00:00,21,1009.4,-1.4,56,12,500,18.52,,,200,,,,,,,,,,,wg-a,,,,AAXX 30154 07280 12600 72010 10210 20120 39834 40094 56014 60006 81232 91500=
07280,1998-05-30 18:00:00,20,1009.4,-0.1,56,11,25000,14.816,,,170,12.4,23.4,,,,,,,,,wg-a,,,,AAXX 30184 07280 12775 71708 10200 20110 39833 40094 55001 60006 875// 91800 333 10234 20124=
07280,1998-05-30 21:00:00,17,1011.1,1.4,77,13,25000,7.408,,,220,,,,,,,,,,,wg-a,,,,AAXX 30214 07280 12775 82204 10170 20130 39847 40111 53014 60006 885// 92100=
07280,1998-05-31 00:00:00,16,1012.4,1.1,82,13,20000,7.408,,,250,,,,,,,,,,,wg-a,,,,AAXX 31004 07280 12770 72504 10160 20130 39858 40124 53011 60006 875// 90000=
07280,1998-05-31 03:00:00,13,1012.8,0.2,94,12,15000,7.408,,,260,,,,,,,,,,21,wg-a,,,,AAXX 31034 07280 02765 42604 10130 20120 39860 40128 50002 61000 72161 82530 90300 333 ////=
07280,1998-05-31 06:00:00,15,1012.6,0,88,13,20000,14.816,,,350,12.3,20.3,,,,,,,,1,wg-a,,,,AAXX 31064 07280 02570 73508 10150 20130 39860 40126 50000 60006 70161 8187/ 90600 333 10203 20123 61000=
07280,1998-05-31 09:00:00,15,1012.1,-0.5,88,13,20000,14.816,,,10,,,,1,,,,,,60,wg-a,,,,AAXX 31094 07280 12470 80108 10150 20130 39855 40121 58005 60017 76062 878// 90900=
07280,1998-05-31 12:00:00,14,1012.2,0,94,13,7000,14.816,,,300,,,,4,,,,,,61,wg-a,,,,AAXX 31124 07280 02457 83008 10140 20130 39855 40122 50000 60056 76162 888// 91200 333 60047=
07280,1998-05-31 15:00:00,15,1013.7,1.5,88,13,25000,11.112,,,210,,,,2,,,,,,3,wg-a,,,,AAXX 31154 07280 12475 82106 10150 20130 39870 40137 52015 60027 70362 8682/ 91500=
07280,1998-05-31 18:00:00,14,1014.5,0.7,94,13,6000,11.112,,,230,13.4,15.7,,,,,,,,80,wg-a,,,,AAXX 31184 07280 02456 72306 10140 20130 39877 40145 53007 61000 78086 878// 91800 333 10157 20134 6002=
07280,1998-05-31 21:00:00,10,1016.1,1.2,100,10,25000,3.704,,,220,,,,10,,,,,,1,wg-a,,,,AAXX 31214 07280 12775 32202 10100 20100 39889 40161 52012 60107 70186 815/1 92100=
07280,1998-06-01 00:00:00,7,1016.9,0.5,100,7,500,3.704,,,140,,,,,,,,,,12,wg-a,,,,AAXX 01004 07280 12/00 01402 10070 20070 39894 40169 51005 60106 71286 80000 90000=
07280,1998-06-01 03:00:00,8,1016.6,-0.2,100,8,100,7.408,,,230,,,,,,,,,,45,wg-a,,,,AAXX 01034 07280 32/01 92304 10080 20080 39892 40166 58002 74541 89/// 90300=
07280,1998-06-01 06:00:00,9,1016.8,0.2,100,9,200,0,,,0,6.9,14.1,,,,,19,,,43,wg-a,,,,AAXX 01064 07280 02/02 90000 10090 20090 39894 40168 53002 60006 74341 89/// 90600 333 10141 20069 60194=
07280,1998-06-01 09:00:00,12,1016.1,-0.3,94,11,9000,3.704,,,160,,,,,,,,,,1,wg-a,,,,AAXX 01094 07280 12359 /1602 10120 20110 39891 40161 58003 60006 70142 876// 90900=
07280,1998-06-01 12:00:00,19,1014,-1.5,64,12,500,7.408,,,80,,,,,,,,,,1,wg-a,,,,AAXX 01124 07280 12500 70804 10190 20120 39876 40140 58015 60006 70142 81231 91200=
07280,1998-06-01 15:00:00,22,1011.9,-1.8,53,12,40000,14.816,,,180,,,,,,,,,,,wg-a,,,,AAXX 01154 07280 12682 71808 10220 20120 39858 40119 56018 60006 81281 91500=
07280,1998-06-01 18:00:00,20,1010.9,-1.1,68,14,500,7.408,,,170,8.6,21.9,,,,,,,,,wg-a,,,,AAXX 01184 07280 12/00 81704 10200 20140 39847 40109 56011 60006 85032 91800 333 10219 20086=
07280,1998-06-01 21:00:00,18,1011.5,0.4,73,13,20000,11.112,,,200,,,,,,,,,,,wg-a,,,,AAXX 01214 07280 12/70 82006 10180 20130 39851 40115 53004 60006 8703/ 92100=
07280,1998-06-02 00:00:00,17,1011,-0.6,68,11,15000,11.112,,,180,,,,,,,,,,,wg-a,,,,AAXX 02004 07280 12665 81806 10170 20110 39845 40110 56006 60006 8353/ 90000=
07280,1998-06-02 03:00:00,15,1011.1,-0.1,72,10,15000,11.112,,,190,,,,,,,,,,,wg-a,,,,AAXX 02034 07280 12665 71906 10150 20100 39844 40111 57001 60006 8253/ 90300=
07280,1998-06-02 06:00:00,16,1011.8,0.8,77,12,25000,14.816,,,200,13.8,19.8,,,,,,,,,wg-a,,,,AAXX 02064 07280 02/75 62008 10160 20120 39852 40118 51008 60006 81081 90600 333 10198 20138 60004=
07280,1998-06-02 09:00:00,21,1012.1,0.8,60,13,500,25.928,,,210,,,,,,,,,,,wg-a,,,,AAXX 02094 07280 12500 /2114 10210 20130 39860 40121 51008 60006 81180 90900=
07280,1998-06-02 12:00:00,22,1012.2,0.2,60,14,500,22.224,,,200,,,,,,,,,,,wg-a,,,,AAXX 02124 07280 12600 72012 10220 20140 39862 40122 50002 60006 8128/ 91200=
07280,1998-06-02 15:00:00,19,1012.2,-0.2,73,14,500,14.816,,,290,,,,,,,,,,,wg-a,,,,AAXX 02154 07280 12600 /2908 10190 20140 39860 40122 58002 60006 86800 91500=
07280,1998-06-02 18:00:00,17,1011.9,-0.5,88,15,15000,3.704,,,150,15.9,23.4,,,,,,,,25,wg-a,,,,AAXX 02184 07280 02465 /1502 10170 20150 39855 40119 58005 61000 72586 879// 91800 333 10234 20159 6001=
07280,1998-06-02 21:00:00,14,1015.9,3.6,94,13,12000,11.112,,,140,,,,6,,,,,,80,wg-a,,,,AAXX 02214 07280 12462 81406 10140 20130 39891 40159 53036 60067 78086 888// 92100=
07280,1998-06-03 00:00:00,14,1017.6,1.6,94,13,12000,11.112,,,200,,,,0,,,,,,1,wg-a,,,,AAXX 03004 07280 02262 /2006 10140 20130 39907 40176 53016 60066 70186 86600 90000 333 60007=
07280,1998-06-03 03:00:00,13,1017.4,-0.3,100,13,6000,3.704,,,220,,,,0,,,,,,1,wg-a,,,,AAXX 03034 07280 12156 82202 10130 20130 39904 40174 58003 60007 70152 875// 90300=
07280,1998-06-03 06:00:00,13,1018.3,1,100,13,4500,0,,,0,11.6,17.1,,,,,7,,,10,wg-a,,,,AAXX 03064 07280 02145 /0000 10130 20130 39914 40183 53010 60006 71054 86500 90600 333 10171 20116 60074=
07280,1998-06-03 09:00:00,18,1018.1,0.2,77,14,500,7.408,,,190,,,,,,,,,,,wg-a,,,,AAXX 03094 07280 12500 41904 10180 20140 39916 40181 50002 60006 83201 90900=
07280,1998-06-03 12:00:00,22,1017,-0.8,57,13,50000,7.408,,,240,,,,,,,,,,,wg-a,,,,AAXX 03124 07280 12684 62404 10220 20130 39908 40170 58008 60006 84201 91200=
07280,1998-06-03 15:00:00,23,1016.1,-0.7,57,14,50000,11.112,,,160,,,,,,,,,,,wg-a,,,,AAXX 03154 07280 12684 /1606 10230 20140 39901 40161 58007 60006 82201 91500=
07280,1998-06-03 18:00:00,22,1016.3,-0,57,13,45000,7.408,,,200,13.4,23,,,,,,,,,wg-a,,,,AAXX 03184 07280 12783 72004 10220 20130 39901 40163 55000 60006 81102 91800 333 10230 20134=
07280,1998-06-03 21:00:00,17,1017.5,0.8,72,12,40000,11.112,,,330,,,,,,,,,,,wg-a,,,,AAXX 03214 07280 12/82 83306 10170 20120 39909 40175 51008 60006 84031 92100=
07280,1998-06-04 00:00:00,15,1018.5,0.7,82,12,500,11.112,,,330,,,,,,,,,,,wg-a,,,,AAXX 04004 07280 12/00 33306 10150 20120 39916 40185 51007 60006 80001 90000=
07280,1998-06-04 03:00:00,14,1019.1,0.5,88,12,15000,3.704,,,40,,,,,,,,,,,wg-a,,,,AAXX 04034 07280 12765 60402 10140 20120 39921 40191 51005 60006 86500 90300=
07280,1998-06-04 06:00:00,16,1019.5,0.6,82,13,20000,7.408,,,350,12.8,21.5,,,,,,,,,wg-a,,,,AAXX 04064 07280 02870 63504 10160 20130 39927 40195 51006 60006 855/1 90600 333 10215 20128 60004=
07280,1998-06-04 09:00:00,21,1018.8,-0.1,64,14,500,11.112,,,60,,,,,,,,,,,wg-a,,,,AAXX 04094 07280 12/00 60606 10210 20140 39926 40188 58001 60006 81081 90900=
07280,1998-06-04 12:00:00,25,1017,-1.5,47,13,40000,11.112,,,40,,,,,,,,,,,wg-a,,,,AAXX 04124 07280 12682 /0406 10250 20130 39911 40170 58015 60006 81101 91200=
07280,1998-06-04 15:00:00,26,1016,-0.9,51,15,40000,11.112,,,20,,,,,,,,,,,wg-a,,,,AAXX 04154 07280 12782 60206 10260 20150 39902 40160 56009 60006 81181 91500=
07280,1998-06-04 18:00:00,25,1015.3,-0.8,57,16,35000,14.816,,,30,15.6,26.1,,,,,,,,,wg-a,,,,AAXX 04184 07280 12781 70308 10250 20160 39894 40153 56008 60006 825/1 91800 333 10261 20156=
07280,1998-06-04 21:00:00,19,1015.8,0.1,78,15,500,11.112,,,20,,,,,,,,,,,wg-a,,,,AAXX 04214 07280 12/00 60206 10190 20150 39895 40158 53001 60006 83031 92100=
07280,1998-06-05 00:00:00,17,1014.3,-1.7,82,14,500,14.816,,,10,,,,,,,,,,,wg-a,,,,AAXX 05004 07280 12700 10108 10170 20140 39878 40143 58017 60006 81500 90000=
07280,1998-06-05 03:00:00,16,1014,-0.4,82,13,25000,7.408,,,350,,,,,,,,,,,wg-a,,,,AAXX 05034 07280 12/75 53504 10160 20130 39874 40140 56004 60006 81031 90300=
07280,1998-06-05 06:00:00,18,1014,0.2,83,15,25000,3.704,,,40,15.5,24.5,,,,,,,,,wg-a,,,,AAXX 05064 07280 02/75 70402 10180 20150 39876 40140 53002 60006 81082 90600 333 10245 20155 60004=
07280,1998-06-05 09:00:00,23,1013.6,0.1,73,18,20000,3.704,,,220,,,,,,,,,,,wg-a,,,,AAXX 05094 07280 12/70 72202 10230 20180 39877 40136 50001 60006 80002 90900=
07280,1998-06-05 12:00:00,27,1012.3,-0.9,62,19,25000,14.816,,,210,,,,,,,,,,,wg-a,,,,AAXX 05124 07280 12/75 72108 10270 20190 39868 40123 56009 60006 81082 91200=
07280,1998-06-05 15:00:00,29,1011.4,-0.7,52,18,25000,3.704,,,160,,,,,,,,,,,wg-a,,,,AAXX 05154 07280 12/75 71602 10290 20180 39861 40114 58007 60006 81082 91500=
07280,1998-06-05 18:00:00,27,1011.1,-0.5,66,20,20000,0,,,0,18,29.4,,,,,,,,,wg-a,,,,AAXX 05184 07280 12/70 80000 10270 20200 39856 40111 55005 60006 84077 91800 333 10294 20180=
07280,1998-06-05 21:00:00,22,1012,0.4,88,20,15000,0,,,0,,,,,,,,,,,wg-a,,,,AAXX 05214 07280 12/65 80000 10220 20200 39860 40120 53004 60006 82037 92100=
07280,1998-06-06 00:00:00,20,1011.8,-0.3,88,18,12000,3.704,,,10,,,,,,,,,,,wg-a,,,,AAXX 06004 07280 12/62 80102 10200 20180 39857 40118 57003 60006 84037 90000=
07280,1998-06-06 03:00:00,18,1011.8,-0.2,94,17,6000,0,,,0,,,,,,,,,,,wg-a,,,,AAXX 06034 07280 12/56 80000 10180 20170 39855 40118 56002 60006 82037 90300=
07280,1998-06-06 06:00:00,20,1012,0.4,94,19,10000,0,,,0,17.2,27,,,,,,,,,wg-a,,,,AAXX 06064 07280 02/60 70000 10200 20190 39859 40120 50004 60006 80002 90600 333 10270 20172 60004=
07280,1998-06-06 09:00:00,25,1012.2,0.6,61,17,25000,14.816,,,190,,,,,,,,,,,wg-a,,,,AAXX 06094 07280 12/75 71908 10250 20170 39865 40122 51006 60006 81031 90900=
07280,1998-06-06 12:00:00,23,1012.7,0.3,73,18,15000,22.224,,46.3,210,,,,,,,,,,80,wg-a,,,,AAXX 06124 07280 02665 82112 10230 20180 39868 40127 53003 61000 78086 8598/ 91200 333 6100 91025=
07280,1998-06-06 15:00:00,24,1011.8,-0.8,69,18,20000,14.816,,,180,,,,,,,,,,25,wg-a,,,,AAXX 06154 07280 02770 71808 10240 20180 39860 40118 56008 61000 72586 8458/ 91500 333 ////=
07280,1998-06-06 18:00:00,22,1012.1,0.1,73,17,20000,14.816,,,200,19.7,27.4,,,,,,,,3,wg-a,,,,AAXX 06184 07280 12870 82008 10220 20170 39861 40121 51001 60006 70386 845/7 91800 333 10274 20197=
07280,1998-06-06 21:00:00,19,1013,0.7,94,18,11000,3.704,,,190,,,,0,,,,,,25,wg-a,,,,AAXX 06214 07280 12861 71902 10190 20180 39868 40130 51007 60007 72586 875// 92100=
07280,1998-06-07 00:00:00,18,1012.3,-0.8,100,18,0,7.408,,,170,,,,,,,,,,,wg-a,,,,AAXX 07004 07280 12/// /1704 10180 20180 39860 40123 58008 60016 90000=
07280,1998-06-07 03:00:00,16,1011.6,-0.9,100,16,6000,7.408,,,190,,,,,,,,,,,wg-a,,,,AAXX 07034 07280 12856 71904 10160 20160 39851 40116 56009 60006 84502 90300=
07280,1998-06-07 06:00:00,17,1012,0.5,100,17,4000,18.52,,,200,16.4,21.8,,,,,,,,60,wg-a,,,,AAXX 07064 07280 02240 82010 10170 20170 39856 40120 51005 61000 76062 885// 90600 333 10218 20164 6001=
07280,1998-06-07 09:00:00,16,1013.7,1.6,94,15,12000,14.816,,,240,,,,5,,,,,,60,wg-a,,,,AAXX 07094 07280 12462 82408 10160 20150 39872 40137 53016 60057 76086 8687/ 90900=
07280,1998-06-07 12:00:00,18,1014.9,1.2,83,15,25000,11.112,,,210,,,,0,,,,,,1,wg-a,,,,AAXX 07124 07280 02475 82106 10180 20150 39884 40149 51012 60056 70186 8327/ 91200 333 60007=
07280,1998-06-07 15:00:00,18,1015.6,0.8,68,12,25000,29.632,,,260,,,,2,,,,,,3,wg-a,,,,AAXX 07154 07280 12575 72616 10180 20120 39892 40156 53008 60027 70386 85802 91500=
07280,1998-06-07 18:00:00,19,1016.9,1.2,52,9,500,11.112,,,280,15.4,19.5,,,,,,,,1,wg-a,,,,AAXX 07184 07280 12600 42806 10190 20090 39904 40169 53012 60006 70186 82202 91800 333 10195 20154=
07280,1998-06-07 21:00:00,13,1019.7,2.2,82,10,20000,11.112,,,270,,,,,,,,,,,wg-a,,,,AAXX 07214 07280 12770 42706 10130 20100 39926 40197 51022 60006 84500 92100=
07280,1998-06-08 00:00:00,12,1020.2,0.4,88,10,20000,7.408,,,260,,,,,,,,,,,wg-a,,,,AAXX 08004 07280 12770 52604 10120 20100 39930 40202 51004 60006 85500 90000=
07280,1998-06-08 03:00:00,15,1020.4,0.5,72,10,20000,7.408,,,280,,,,,,,,,,,wg-a,,,,AAXX 08034 07280 12570 /2804 10150 20100 39935 40204 53005 60006 86800 90300=
07280,1998-06-08 06:00:00,14,1021.6,1.1,82,11,500,11.112,,,210,11.4,18.8,,,,,7,,,,wg-a,,,,AAXX 08064 07280 02500 22106 10140 20110 39946 40216 51011 60006 82800 90600 333 10188 20114 60074=
07280,1998-06-08 09:00:00,17,1021.6,0.3,68,11,50000,7.408,,,210,,,,,,,,,,,wg-a,,,,AAXX 08094 07280 12584 42104 10170 20110 39949 40216 52003 60006 83201 90900=
07280,1998-06-08 12:00:00,19,1021.6,0.1,49,8,60000,11.112,,,190,,,,,,,,,,,wg-a,,,,AAXX 08124 07280 12686 61906 10190 20080 39950 40216 50001 60006 83401 91200=
07280,1998-06-08 15:00:00,21,1020,-1.4,43,8,60000,11.112,,,210,,,,,,,,,,,wg-a,,,,AAXX 08154 07280 12786 42106 10210 20080 39936 40200 58014 60006 83402 91500=
07280,1998-06-08 18:00:00,19,1019.6,-0.5,56,10,50000,11.112,,,220,13.5,21.2,,,,,,,,,wg-a,,,,AAXX 08184 07280 12784 72206 10190 20100 39931 40196 56005 60006 815/2 91800 333 10212 20135=
07280,1998-06-08 21:00:00,14,1021.2,1.1,82,11,40000,7.408,,,230,,,,,,,,,,,wg-a,,,,AAXX 08214 07280 12782 82304 10140 20110 39942 40212 51011 60006 815/7 92100=
07280,1998-06-09 03:00:00,11,1020,-1,94,10,25000,3.704,,,180,,,,,,,,,,,wg-a,,,,AAXX 09034 07280 12/75 71802 10110 20100 39928 40200 56010 60006 82031 90300=
07280,1998-06-09 06:00:00,13,1019.7,-0.2,88,11,75000,3.704,,,190,10.7,19.2,,,,,,,,,wg-a,,,,AAXX 09064 07280 02789 81902 10130 20110 39926 40197 57002 60006 8357/ 90600 333 10192 20107 60004=
07280,1998-06-09 09:00:00,18,1018.6,-0.6,68,12,40000,14.816,,,190,,,,,,,,,,,wg-a,,,,AAXX 09094 07280 12782 81908 10180 20120 39920 40186 57006 60006 8457/ 90900=
07280,1998-06-09 12:00:00,21,1016.5,-1.7,64,14,500,18.52,,,200,,,,,,,,,,,wg-a,,,,AAXX 09124 07280 12700 72010 10210 20140 39903 40165 58017 60006 81532 91200=
07280,1998-06-09 15:00:00,23,1013.5,-2.8,57,14,500,18.52,,,200,,,,,,,,,,,wg-a,,,,AAXX 09154 07280 12/00 62010 10230 20140 39875 40135 56028 60006 82032 91500=
07280,1998-06-09 18:00:00,23,1011.9,-1.5,65,16,500,11.112,,,180,12.7,23.8,,,,,,,,,wg-a,,,,AAXX 09184 07280 12/00 21806 10230 20160 39860 40119 57015 60006 81042 91800 333 10238 20127=
07280,1998-06-09 21:00:00,18,1011.5,-0.8,88,16,500,7.408,,,210,,,,,,,,,,,wg-a,,,,AAXX 09214 07280 12700 72104 10180 20160 39852 40115 56008 60006 86540 92100=
07280,1998-06-10 00:00:00,17,1009.8,-1.8,88,15,20000,3.704,,,220,,,,,,,,,,,wg-a,,,,AAXX 10004 07280 12770 72202 10170 20150 39834 40098 58018 60006 875// 90000=
07280,1998-06-10 03:00:00,17,1008,-1.7,94,16,20000,11.112,,,300,,,,,,,,,,,wg-a,,,,AAXX 10034 07280 12770 73006 10170 20160 39817 40080 55017 60006 875// 90300=
07280,1998-06-10 06:00:00,17,1008.9,0.8,94,16,10000,11.112,,,190,16.4,22.5,,,,,,,,61,wg-a,,,,AAXX 10064 07280 02460 81906 10170 20160 39825 40089 53008 61000 76198 8582/ 90600 333 10225 20164 6013=
07280,1998-06-10 09:00:00,17,1010,1.1,94,16,20000,14.816,,,190,,,,4,,,,,,60,wg-a,,,,AAXX 10094 07280 12270 81908 10170 20160 39836 40100 51011 60047 76062 872// 90900=
07280,1998-06-10 12:00:00,20,1010,0.2,60,12,500,22.224,,,270,,,,,,,,,,3,wg-a,,,,AAXX 10124 07280 02500 /2712 10200 20120 39838 40100 50002 60046 70362 83230 91200 333 61000=
07280,1998-06-10 15:00:00,21,1008.9,-1,53,11,500,22.224,,,260,,,,,,,,,,,wg-a,,,,AAXX 10154 07280 12700 42612 10210 20110 39828 40089 56010 60006 84200 91500=
07280,1998-06-10 18:00:00,19,1008.3,-0.7,60,11,40000,14.816,,35.188,250,16.2,21.7,,,,,,,,,wg-a,,,,AAXX 10184 07280 12682 /2508 10190 20110 39821 40083 55007 60006 85800 91800 333 10217 20162 91019=
07280,1998-06-10 21:00:00,14,1009.2,0.4,82,11,20000,18.52,,,200,,,,0,,,,,,61,wg-a,,,,AAXX 10214 07280 12570 72010 10140 20110 39825 40092 53004 60007 76186 878// 92100=
07280,1998-06-11 00:00:00,14,1008.3,-0.9,82,11,20000,14.816,,,260,,,,,,,,,,2,wg-a,,,,AAXX 11004 07280 02770 72608 10140 20110 39816 40083 56009 60016 70286 875// 90000 333 61000=
07280,1998-06-11 03:00:00,11,1007.8,-0.7,94,10,20000,14.816,,,210,,,,,,,,,,,wg-a,,,,AAXX 11034 07280 12770 62108 10110 20100 39809 40078 58007 60006 86500 90300=
07280,1998-06-11 06:00:00,13,1007.7,0.1,88,11,25000,14.816,,,200,10.4,18.9,,,,,5,,,,wg-a,,,,AAXX 11064 07280 02575 /2008 10130 20110 39810 40077 53001 60006 86800 90600 333 10189 20104 60054=
07280,1998-06-11 09:00:00,16,1007.5,0,55,7,50000,29.632,,,250,,,,,,,,,,,wg-a,,,,AAXX 11094 07280 12684 42516 10160 20070 39810 40075 50000 60006 84200 90900=
07280,1998-06-11 12:00:00,15,1008.5,0.9,67,9,40000,18.52,,50.004,260,,,,0,,,,,,25,wg-a,,,,AAXX 11124 07280 02682 /2610 10150 20090 39819 40085 51009 60006 72586 86802 91200 333 60007 91027=
07280,1998-06-11 15:00:00,15,1008.7,0.2,67,9,40000,31.484,,,310,,,,,,,,,,1,wg-a,,,,AAXX 11154 07280 02682 /3117 10150 20090 39821 40087 53002 61000 70186 85800 91500 333 ////=
07280,1998-06-11 18:00:00,15,1010.1,1.3,59,7,500,14.816,,,320,12.8,17.6,,,,,,,,3,wg-a,,,,AAXX 11184 07280 12600 /3208 10150 20070 39834 40101 53013 60006 70386 86800 91800 333 10176 20128=
07280,1998-06-11 21:00:00,10,1011.7,1.1,82,7,500,7.408,,,240,,,,,,,,,,,wg-a,,,,AAXX 11214 07280 12700 12404 10100 20070 39845 40117 51011 60006 81401 92100=
07280,1998-06-12 00:00:00,10,1012.9,1.3,82,7,20000,18.52,,,300,,,,,,,,,,,wg-a,,,,AAXX 12004 07280 12770 53010 10100 20070 39858 40129 51013 60006 85500 90000=
07280,1998-06-12 03:00:00,9,1013.4,0.3,81,6,20000,11.112,,,290,,,,,,,,,,,wg-a,,,,AAXX 12034 07280 12770 52906 10090 20060 39861 40134 51003 60006 81530 90300=
07280,1998-06-12 06:00:00,11,1014.9,1.6,87,9,10000,14.816,,,310,7.8,14.6,,,,,,,,60,wg-a,,,,AAXX 12064 07280 02460 /3108 10110 20090 39877 40149 53016 61000 76065 875// 90600 333 10146 20078 6001=
07280,1998-06-12 09:00:00,11,1018.2,3.2,82,8,15000,25.928,,,330,,,,,,,,,,21,wg-a,,,,AAXX 12094 07280 02465 83314 10110 20080 39909 40182 53032 61000 72162 885// 90900 333 ////=
07280,1998-06-12 12:00:00,13,1020,2,58,5,25000,25.928,,,340,,,,,,,,,,1,wg-a,,,,AAXX 12124 07280 02575 43414 10130 20050 39929 40200 51020 61000 70161 84800 91200 333 ////=
07280,1998-06-12 15:00:00,17,1020.2,0.5,39,3,35000,22.224,,,340,,,,,,,,,,,wg-a,,,,AAXX 12154 07280 12781 23412 10170 20030 39934 40202 50005 60006 82200 91500=
07280,1998-06-12 18:00:00,13,1021.5,1,58,5,25000,14.816,,,310,10,16.8,,,,,,,,2,wg-a,,,,AAXX 12184 07280 02675 /3108 10130 20050 39944 40215 51010 60006 70286 86400 91800 333 10168 20100 61000=
07280,1998-06-12 21:00:00,8,1023.1,1.1,87,6,25000,7.408,,,270,,,,,,,,,,,wg-a,,,,AAXX 12214 07280 12775 52704 10080 20060 39955 40231 53011 60006 85500 92100=
07280,1998-06-13 00:00:00,9,1022.6,-0.4,87,7,25000,7.408,,,350,,,,,,,,,,1,wg-a,,,,AAXX 13004 07280 02775 53504 10090 20070 39951 40226 57004 61000 70161 85500 90000 333 6100=
07280,1998-06-13 03:00:00,7,1021.7,-1.1,93,6,25000,3.704,,,260,,,,,,,,,,,wg-a,,,,AAXX 13034 07280 12775 22602 10070 20060 39940 40217 58011 60006 82500 90300=
07280,1998-06-13 06:00:00,10,1020.9,-0.5,87,8,20000,3.704,,,50,5.6,13.6,,,,,,,,,wg-a,,,,AAXX 13064 07280 02/70 10502 10100 20080 39935 40209 56005 60006 81030 90600 333 10136 20056 61000=
07280,1998-06-13 12:00:00,17,1018.2,-1.2,55,8,500,11.112,,,140,,,,,,,,,,,wg-a,,,,AAXX 13124 07280 12600 /1406 10170 20080 39915 40182 58012 60006 86800 91200=
07280,1998-06-13 15:00:00,17,1016,-2.1,52,7,500,11.112,,,190,,,,,,,,,,,wg-a,,,,AAXX 13154 07280 12600 71906 10170 20070 39894 40160 56021 60006 878// 91500=
07280,1998-06-13 18:00:00,16,1014.6,-1.5,68,10,40000,3.704,,,140,9.8,18.2,,,,,,,,,wg-a,,,,AAXX 13184 07280 12782 71402 10160 20100 39879 40146 56015 60006 8357/ 91800 333 10182 20098=
07280,1998-06-13 21:00:00,13,1014.5,-0.3,82,10,25000,7.408,,,210,,,,,,,,,,60,wg-a,,,,AAXX 13214 07280 02775 82104 10130 20100 39876 40145 57003 61000 76062 885// 92100 333 ////=
07280,1998-06-14 00:00:00,12,1013.8,-0.8,94,11,20000,14.816,,,190,,,,1,,,,,,21,wg-a,,,,AAXX 14004 07280 02370 71908 10120 20110 39868 40138 57008 60016 72162 875// 90000 333 60017=
07280,1998-06-14 03:00:00,12,1013.5,-0.3,94,11,15000,11.112,,,210,,,,,,,,,,,wg-a,,,,AAXX 14034 07280 12765 72106 10120 20110 39865 40135 55003 60006 875// 90300=
07280,1998-06-14 06:00:00,13,1013.9,0.5,88,11,12000,18.52,,,220,11,15.8,,,,,2,,,1,wg-a,,,,AAXX 14064 07280 02462 /2210 10130 20110 39870 40139 52005 60006 70162 86800 90600 333 10158 20110 60024=
07280,1998-06-14 09:00:00,15,1014,0.3,82,12,40000,22.224,,,210,,,,,,,,,,,wg-a,,,,AAXX 14094 07280 12482 /2112 10150 20120 39873 40140 51003 60006 84230 90900=
07280,1998-06-14 12:00:00,18,1012.9,-0.8,64,11,40000,29.632,,,210,,,,,,,,,,1,wg-a,,,,AAXX 14124 07280 02682 /2116 10180 20110 39865 40129 56008 61000 70186 85230 91200 333 6100=
07280,1998-06-14 15:00:00,18,1012.6,-0.3,64,11,40000,29.632,,,210,,,,,,,,,,,wg-a,,,,AAXX 14154 07280 12682 /2116 10180 20110 39862 40126 56003 60006 86800 91500=
07280,1998-06-14 18:00:00,16,1012.9,0.1,77,12,40000,18.52,,,210,12.7,19.3,,,,,,,,80,wg-a,,,,AAXX 14184 07280 02682 72110 10160 20120 39863 40129 53001 61000 78086 879// 91800 333 10193 20127 6000=
07280,1998-06-15 00:00:00,12,1014.9,0.5,94,11,20000,18.52,,,220,,,,,,,,,,3,wg-a,,,,AAXX 15004 07280 12570 72210 10120 20110 39879 40149 51005 60016 70386 878// 90000=
07280,1998-06-15 03:00:00,11,1014.8,-0.2,94,10,20000,3.704,,,180,,,,,,,,,,,wg-a,,,,AAXX 15034 07280 12770 71802 10110 20100 39877 40148 57002 60006 875// 90300=
07280,1998-06-15 06:00:00,12,1015.2,0.5,94,11,500,11.112,,,210,10.2,16,,,,,1,,,,wg-a,,,,AAXX 15064 07280 02400 42106 10120 20110 39882 40152 51005 60006 84800 90600 333 10160 20102 60014=
07280,1998-06-15 09:00:00,15,1014.6,-0.3,77,11,25000,25.928,,,230,,,,,,,,,,16,wg-a,,,,AAXX 15094 07280 02575 /2314 10150 20110 39879 40146 56003 61000 71686 86800 90900 333 ////=
07280,1998-06-15 12:00:00,18,1013.9,-0.4,64,11,40000,29.632,,,210,,,,,,,,,,1,wg-a,,,,AAXX 15124 07280 02582 /2116 10180 20110 39875 40139 56004 61000 70186 86900 91200 333 6100=
07280,1998-06-15 15:00:00,15,1014.8,0.5,77,11,20000,22.224,,,290,,,,2,,,,,,80,wg-a,,,,AAXX 15154 07280 12670 62912 10150 20110 39880 40148 51005 60027 78086 86900 91500=
07280,1998-06-15 18:00:00,17,1015.5,0.9,59,9,500,18.52,,,260,12.2,18.9,,,,,,,,3,wg-a,,,,AAXX 15184 07280 02600 52610 10170 20090 39889 40155 53009 60006 70386 85400 91800 333 10189 20122 61000=
07280,1998-06-15 21:00:00,13,1017.6,1.7,82,10,25000,11.112,,,250,,,,,,,,,,,wg-a,,,,AAXX 15214 07280 12775 62506 10130 20100 39906 40176 51017 60006 86400 92100=
07280,1998-06-16 00:00:00,11,1018.5,0.7,87,9,20000,3.704,,,210,,,,,,,,,,,wg-a,,,,AAXX 16004 07280 12770 72102 10110 20090 39913 40185 51007 60006 875// 90000=
07280,1998-06-16 03:00:00,10,1019,0.4,93,9,20000,3.704,,,160,,,,,,,,,,,wg-a,,,,AAXX 16034 07280 12770 61602 10100 20090 39917 40190 53004 60006 86500 90300=
07280,1998-06-16 06:00:00,13,1020.2,1.4,77,9,500,18.52,,,260,9.9,17.4,,,,,2,,,,wg-a,,,,AAXX 16064 07280 02500 52610 10130 20090 39931 40202 51014 60006 85800 90600 333 10174 20099 60024=
07280,1998-06-16 09:00:00,16,1021.4,1.4,59,8,500,29.632,,,300,,,,,,,,,,,wg-a,,,,AAXX 16094 07280 12500 /3016 10160 20080 39945 40214 51014 60006 86800 90900=
07280,1998-06-16 12:00:00,17,1022.2,0.9,52,7,40000,22.224,,,290,,,,,,,,,,,wg-a,,,,AAXX 16124 07280 12682 72912 10170 20070 39954 40222 52009 60006 878// 91200=
07280,1998-06-16 15:00:00,18,1022.5,0.4,45,6,40000,22.224,,,270,,,,,,,,,,,wg-a,,,,AAXX 16154 07280 12782 52712 10180 20060 39958 40225 53004 60006 85800 91500=
07280,1998-06-16 18:00:00,18,1023.7,1.1,42,5,500,14.816,,,280,12.4,18.9,,,,,,,,,wg-a,,,,AAXX 16184 07280 12700 52808 10180 20050 39969 40237 53011 60006 85802 91800 333 10189 20124=
07280,1998-06-16 21:00:00,11,1025.8,1.4,76,7,25000,3.704,,,270,,,,,,,,,,,wg-a,,,,AAXX 16214 07280 12775 32702 10110 20070 39983 40258 52014 60006 83500 92100=
07280,1998-06-17 00:00:00,10,1026.3,0.5,82,7,20000,3.704,,,300,,,,,,,,,,,wg-a,,,,AAXX 17004 07280 12770 73002 10100 20070 39988 40263 50005 60006 875// 90000=
07280,1998-06-17 03:00:00,10,1027,0.6,87,8,20000,0,,,0,,,,,,,,,,,wg-a,,,,AAXX 17034 07280 12770 30000 10100 20080 39994 40270 53006 60006 83500 90300=
07280,1998-06-17 06:00:00,11,1027.5,0.7,87,9,500,0,,,0,7.7,17.7,,,,,,,,,wg-a,,,,AAXX 17064 07280 02/00 50000 10110 20090 30001 40275 53007 60006 80001 90600 333 10177 20077 60004=
07280,1998-06-17 09:00:00,18,1027.1,0.2,56,9,500,7.408,,,220,,,,,,,,,,,wg-a,,,,AAXX 17094 07280 12600 /2204 10180 20090 30003 40271 50002 60006 83201 90900=
07280,1998-06-17 12:00:00,19,1026.9,-0.1,46,7,500,7.408,,,100,,,,,,,,,,,wg-a,,,,AAXX 17124 07280 12600 /1004 10190 20070 30002 40269 57001 60006 84201 91200=
07280,1998-06-17 15:00:00,21,1026.1,-0.6,30,3,500,7.408,,,320,,,,,,,,,,,wg-a,,,,AAXX 17154 07280 12700 73204 10210 20030 39996 40261 56006 60006 82101 91500=
07280,1998-06-17 18:00:00,20,1025.8,-0.4,40,6,500,14.816,,,340,11.6,21.1,,,,,,,,,wg-a,,,,AAXX 17184 07280 12700 73408 10200 20060 39992 40258 56004 60006 814/1 91800 333 10211 20116=
07280,1998-06-17 21:00:00,13,1027.2,0.7,77,9,500,3.704,,,230,,,,,,,,,,,wg-a,,,,AAXX 17214 07280 12700 52302 10130 20090 39999 40272 53007 60006 815/1 92100=
07280,1998-06-18 00:00:00,11,1027.5,0.1,82,8,20000,11.112,,,330,,,,,,,,,,,wg-a,,,,AAXX 18004 07280 12/70 03306 10110 20080 30000 40275 51001 60006 80000 90000=
07280,1998-06-18 03:00:00,7,1027.7,-0.2,87,5,20000,0,,,0,,,,,,,,,,,wg-a,,,,AAXX 18034 07280 12/70 00000 10070 20050 39998 40277 55002 60006 80000 90300=
07280,1998-06-18 06:00:00,11,1027.6,0.3,82,8,500,7.408,,,340,6.5,19.5,,,,,,,,,wg-a,,,,AAXX 18064 07280 02/00 63404 10110 20080 30001 40276 53003 60006 82032 90600 333 10195 20065 60004=
07280,1998-06-18 09:00:00,18,1027,0.1,56,9,500,7.408,,,180,,,,,,,,,,,wg-a,,,,AAXX 18094 07280 12600 71804 10180 20090 30002 40270 50001 60006 81132 90900=
07280,1998-06-18 12:00:00,21,1026.4,-0.3,49,10,35000,3.704,,,140,,,,,,,,,,,wg-a,,,,AAXX 18124 07280 12781 71402 10210 20100 39999 40264 56003 60006 81132 91200=
07280,1998-06-18 15:00:00,22,1025.1,-1.2,53,12,40000,7.408,,,150,,,,,,,,,,,wg-a,,,,AAXX 18154 07280 12782 41504 10220 20120 39987 40251 56012 60006 81132 91500=
07280,1998-06-18 18:00:00,21,1024.7,-0.4,53,11,40000,7.408,,,140,10.8,23,,,,,,,,,wg-a,,,,AAXX 18184 07280 12782 11404 10210 20110 39983 40247 55004 60006 81102 91800 333 10230 20108=
07280,1998-06-18 21:00:00,15,1025.8,0.5,82,12,500,0,,,0,,,,,,,,,,,wg-a,,,,AAXX 18214 07280 12700 20000 10150 20120 39988 40258 53005 60006 81531 92100=
07280,1998-06-19 00:00:00,14,1025.5,-0.4,82,11,20000,7.408,,,340,,,,,,,,,,,wg-a,,,,AAXX 19004 07280 12/70 03404 10140 20110 39984 40255 58004 60006 80000 90000=
07280,1998-06-19 03:00:00,11,1025.3,-0.5,94,10,15000,7.408,,,10,,,,,,,,,,,wg-a,,,,AAXX 19034 07280 12/65 00104 10110 20100 39979 40253 56005 60006 80000 90300=
07280,1998-06-19 06:00:00,15,1025.1,0.2,77,11,500,11.112,,,20,10.3,21.4,,,,,,,,,wg-a,,,,AAXX 19064 07280 02/00 60206 10150 20110 39981 40251 52002 60006 80001 90600 333 10214 20103 60004=
07280,1998-06-19 09:00:00,22,1024.2,-0.2,53,12,500,7.408,,,50,,,,,,,,,,,wg-a,,,,AAXX 19094 07280 12/00 60504 10220 20120 39979 40242 58002 60006 80001 90900=
07280,1998-06-19 12:00:00,25,1023.6,-0.4,41,11,500,7.408,,,60,,,,,,,,,,,wg-a,,,,AAXX 19124 07280 12/00 60604 10250 20110 39975 40236 58004 60006 80001 91200=
07280,1998-06-19 15:00:00,27,1022.4,-1,39,12,35000,11.112,,,60,,,,,,,,,,,wg-a,,,,AAXX 19154 07280 12/81 50606 10270 20120 39965 40224 56010 60006 80001 91500=
07280,1998-06-19 18:00:00,25,1022.1,-0.4,50,14,35000,11.112,,,80,14.6,26.5,,,,,,,,,wg-a,,,,AAXX 19184 07280 12/81 50806 10250 20140 39961 40221 57004 60006 80001 91800 333 10265 20146=
07280,1998-06-19 21:00:00,20,1022.7,0.1,73,15,500,7.408,,,10,,,,,,,,,,,wg-a,,,,AAXX 19214 07280 12/00 40104 10200 20150 39962 40227 53001 60006 80001 92100=
07280,1998-06-20 00:00:00,17,1022.5,-0.5,77,13,500,11.112,,,340,,,,,,,,,,,wg-a,,,,AAXX 20004 07280 12/00 53406 10170 20130 39957 40225 58005 60006 80001 90000=
07280,1998-06-20 03:00:00,15,1022.5,-0.1,82,12,500,11.112,,,330,,,,,,,,,,,wg-a,,,,AAXX 20034 07280 12/00 33306 10150 20120 39956 40225 55001 60006 80001 90300=
07280,1998-06-20 06:00:00,19,1022.9,0.7,73,14,20000,11.112,,,20,14.4,25.2,,,,,,,,,wg-a,,,,AAXX 20064 07280 02/70 40206 10190 20140 39963 40229 52007 60006 80001 90600 333 10252 20144 60004=
07280,1998-06-20 09:00:00,23,1022.4,0,65,16,25000,3.704,,,110,,,,,,,,,,,wg-a,,,,AAXX 20094 07280 12/75 21102 10230 20160 39963 40224 50000 60006 80001 90900=
07280,1998-06-20 12:00:00,29,1020.9,-1,43,15,500,11.112,,,200,,,,,,,,,,,wg-a,,,,AAXX 20124 07280 12/00 52006 10290 20150 39953 40209 58010 60006 80001 91200=
07280,1998-06-20 15:00:00,30,1020,-0.8,43,16,500,14.816,,,180,,,,,,,,,,,wg-a,,,,AAXX 20154 07280 12/00 71808 10300 20160 39945 40200 56008 60006 80001 91500=
07280,1998-06-20 18:00:00,29,1019.7,-0.4,45,16,500,7.408,,,170,18.7,30.2,,,,,,,,,wg-a,,,,AAXX 20184 07280 12/00 71704 10290 20160 39941 40197 55004 60006 80001 91800 333 10302 20187=
07280,1998-06-20 21:00:00,19,1021,0.5,83,16,500,11.112,,,160,,,,,,,,,,,wg-a,,,,AAXX 20214 07280 12/00 51606 10190 20160 39946 40210 53005 60006 80001 92100=
07280,1998-06-21 00:00:00,17,1021.4,0.1,72,12,25000,7.408,,,180,,,,,,,,,,,wg-a,,,,AAXX 21004 07280 12/75 41804 10170 20120 39947 40214 51001 60006 80001 90000=
07280,1998-06-21 03:00:00,16,1021.5,-0,77,12,25000,11.112,,,190,,,,,,,,,,,wg-a,,,,AAXX 21034 07280 12/75 11906 10160 20120 39947 40215 54000 60006 80001 90300=
07280,1998-06-21 06:00:00,19,1021.9,0.6,68,13,500,11.112,,,190,15,28.5,,,,,,,,,wg-a,,,,AAXX 21064 07280 02/00 11906 10190 20130 39953 40219 51006 60006 80001 90600 333 10285 20150 60004=
07280,1998-06-21 09:00:00,24,1021.6,0.2,50,13,35000,14.816,,,190,,,,,,,,,,,wg-a,,,,AAXX 21094 07280 12/81 21908 10240 20130 39955 40216 51002 60006 80001 90900=
07280,1998-06-21 12:00:00,29,1020,-1.2,37,13,40000,14.816,,,170,,,,,,,,,,,wg-a,,,,AAXX 21124 07280 12/82 21708 10290 20130 39943 40200 58012 60006 80001 91200=
07280,1998-06-21 15:00:00,30,1018.9,-0.9,35,13,40000,18.52,,,200,,,,,,,,,,,wg-a,,,,AAXX 21154 07280 12/82 12010 10300 20130 39934 40189 56009 60006 80001 91500=
07280,1998-06-21 18:00:00,26,1018.3,-0.8,61,18,500,7.408,,,160,18.6,30.8,,,,,,,,,wg-a,,,,AAXX 21184 07280 12/00 71604 10260 20180 39926 40183 56008 60006 85031 91800 333 10308 20186=
07280,1998-06-21 21:00:00,23,1020.3,1.6,69,17,25000,3.704,,,310,,,,,,,,,,,wg-a,,,,AAXX 21214 07280 12/75 83102 10230 20170 39942 40203 52016 60006 84037 92100=
07280,1998-06-22 00:00:00,24,1021.7,1.4,61,16,15000,25.928,,,290,,,,0,,,,,,1,wg-a,,,,AAXX 22004 07280 02/65 42914 10240 20160 39956 40217 51014 60006 70161 84030 90000 333 60007=
07280,1998-06-22 03:00:00,19,1023.6,1.4,83,16,20000,3.704,,,220,,,,,,,,,,,wg-a,,,,AAXX 22034 07280 12670 52202 10190 20160 39970 40236 51014 60006 83530 90300=
07280,1998-06-22 06:00:00,19,1024.6,1,73,14,15000,22.224,,,310,17.8,26.3,,,,,,,,,wg-a,,,,AAXX 22064 07280 02665 23112 10190 20140 39980 40246 51010 60006 82501 90600 333 10263 20178 60004=
07280,1998-06-22 09:00:00,22,1025,0.6,50,11,500,14.816,,,10,,,,,,,,,,,wg-a,,,,AAXX 22094 07280 12600 30108 10220 20110 39986 40250 50006 60006 81130 90900=
07280,1998-06-22 12:00:00,24,1023.9,-0.9,47,12,25000,18.52,,,330,,,,,,,,,,,wg-a,,,,AAXX 22124 07280 12675 43310 10240 20120 39977 40239 57009 60006 84200 91200=
07280,1998-06-22 15:00:00,25,1022.8,-1,44,12,25000,18.52,,,340,,,,,,,,,,,wg-a,,,,AAXX 22154 07280 12775 53410 10250 20120 39967 40228 58010 60006 85400 91500=
07280,1998-06-22 18:00:00,25,1021.9,-0.9,41,11,500,11.112,,,320,19.1,25.4,,,,,,,,,wg-a,,,,AAXX 22184 07280 12700 33206 10250 20110 39958 40219 56009 60006 83500 91800 333 10254 20191=
07280,1998-06-22 21:00:00,19,1023.5,1.1,60,11,20000,11.112,,,40,,,,,,,,,,,wg-a,,,,AAXX 22214 07280 12770 50406 10190 20110 39969 40235 51011 60006 85500 92100=
07280,1998-06-23 00:00:00,16,1024,0.2,72,11,20000,11.112,,,360,,,,,,,,,,,wg-a,,,,AAXX 23004 07280 12770 23606 10160 20110 39971 40240 50002 60006 82500 90000=
07280,1998-06-23 03:00:00,13,1023.4,-0.8,82,10,20000,7.408,,,350,,,,,,,,,,,wg-a,,,,AAXX 23034 07280 12770 23504 10130 20100 39963 40234 56008 60006 82500 90300=
07280,1998-06-23 06:00:00,16,1023.2,0.1,72,11,25000,7.408,,,350,13.3,24.5,,,,,,,,,wg-a,,,,AAXX 23064 07280 02775 33504 10160 20110 39964 40232 52001 60006 83500 90600 333 10245 20133 60004=
07280,1998-06-23 09:00:00,22,1022.2,-0.5,46,10,25000,18.52,,,340,,,,,,,,,,,wg-a,,,,AAXX 23094 07280 12675 43410 10220 20100 39959 40222 58005 60006 84200 90900=
07280,1998-06-23 12:00:00,24,1020.9,-1.1,36,8,500,18.52,,,310,,,,,,,,,,,wg-a,,,,AAXX 23124 07280 12700 53110 10240 20080 39948 40209 56011 60006 83201 91200=
07280,1998-06-23 15:00:00,25,1019.5,-1.3,34,8,35000,14.816,,,300,,,,,,,,,,,wg-a,,,,AAXX 23154 07280 12781 53008 10250 20080 39935 40195 56013 60006 815/1 91500=
07280,1998-06-23 18:00:00,24,1018.7,-0.8,38,9,35000,14.816,,,340,16.4,25.2,,,,,,,,,wg-a,,,,AAXX 23184 07280 12781 53408 10240 20090 39927 40187 56008 60006 815/1 91800 333 10252 20164=
07280,1998-06-23 21:00:00,18,1019.5,0.2,59,10,500,11.112,,,350,,,,,,,,,,,wg-a,,,,AAXX 23214 07280 12/00 53506 10180 20100 39929 40195 53002 60006 80001 92100=
07280,1998-06-24 00:00:00,16,1019.1,-0.6,68,10,25000,7.408,,,20,,,,,,,,,,,wg-a,,,,AAXX 24004 07280 12/75 40204 10160 20100 39923 40191 58006 60006 80001 90000=
07280,1998-06-24 03:00:00,13,1018.2,-1.1,82,10,25000,7.408,,,350,,,,,,,,,,,wg-a,,,,AAXX 24034 07280 12/75 23504 10130 20100 39912 40182 58011 60006 80001 90300=
07280,1998-06-24 06:00:00,17,1017.5,-0.3,72,12,25000,7.408,,,20,13,23.9,,,,,,,,,wg-a,,,,AAXX 24064 07280 02/75 60204 10170 20120 39909 40175 56003 60006 80001 90600 333 10239 20130 60004=
07280,1998-06-24 09:00:00,23,1016,-1,53,13,25000,11.112,,,60,,,,,,,,,,,wg-a,,,,AAXX 24094 07280 12/75 70606 10230 20130 39899 40160 58010 60006 80001 90900=
07280,1998-06-24 12:00:00,25,1014.6,-1.1,47,13,35000,11.112,,,70,,,,,,,,,,,wg-a,,,,AAXX 24124 07280 12781 70706 10250 20130 39888 40146 58011 60006 81101 91200=
07280,1998-06-24 15:00:00,26,1012.9,-1.6,45,13,35000,14.816,,,60,,,,,,,,,,,wg-a,,,,AAXX 24154 07280 12781 70608 10260 20130 39872 40129 56016 60006 81102 91500=
07280,1998-06-24 18:00:00,26,1011.9,-1,48,14,500,11.112,,,70,17.2,26.9,,,,,,,,,wg-a,,,,AAXX 24184 07280 12/00 20706 10260 20140 39862 40119 56010 60006 80002 91800 333 10269 20172=
07280,1998-06-24 21:00:00,20,1012.6,0.2,73,15,500,0,,,0,,,,,,,,,,,wg-a,,,,AAXX 24214 07280 12/00 00000 10200 20150 39864 40126 52002 60006 80000 92100=
07280,1998-06-25 00:00:00,18,1012.2,-0.6,77,14,25000,11.112,,,330,,,,,,,,,,,wg-a,,,,AAXX 25004 07280 12/75 03306 10180 20140 39858 40122 57006 60006 80000 90000=
07280,1998-06-25 03:00:00,16,1012,-0.4,82,13,20000,7.408,,,360,,,,,,,,,,,wg-a,,,,AAXX 25034 07280 12/70 13604 10160 20130 39854 40120 55004 60006 80001 90300=
07280,1998-06-25 06:00:00,17,1013,1.2,88,15,25000,7.408,,,160,14.3,26,,,,,,,,,wg-a,,,,AAXX 25064 07280 02/75 51604 10170 20150 39866 40130 53012 60006 80001 90600 333 10260 20143 60004=
07280,1998-06-25 09:00:00,24,1012.9,0.5,57,15,25000,11.112,,,200,,,,,,,,,,,wg-a,,,,AAXX 25094 07280 12675 62006 10240 20150 39871 40129 52005 60006 81181 90900=
07280,1998-06-25 12:00:00,22,1014.4,1.2,60,14,25000,14.816,,,300,,,,,,,,,,25,wg-a,,,,AAXX 25124 07280 02675 83008 10220 20140 39883 40144 51012 61000 72586 888// 91200 333 6100=
07280,1998-06-25 15:00:00,21,1015.1,0.6,64,14,25000,7.408,,,320,,,,,,,,,,21,wg-a,,,,AAXX 25154 07280 02575 73204 10210 20140 39889 40151 52006 61000 72162 878// 91500 333 ////=
07280,1998-06-25 18:00:00,20,1015.2,0,68,14,500,7.408,,,300,17.4,25.6,,,,,,,,1,wg-a,,,,AAXX 25184 07280 12600 83004 10200 20140 39889 40152 50000 60006 70162 888// 91800 333 10256 20174=
07280,1998-06-25 21:00:00,18,1016.4,1,83,15,25000,3.704,,,190,,,,,,,,,,,wg-a,,,,AAXX 25214 07280 12775 81902 10180 20150 39899 40164 53010 60006 875// 92100=
07280,1998-06-26 00:00:00,17,1016.6,0.1,88,15,25000,3.704,,,190,,,,,,,,,,,wg-a,,,,AAXX 26004 07280 12575 81902 10170 20150 39900 40166 53001 60006 885// 90000=
07280,1998-06-26 03:00:00,16,1015.7,-0.9,94,15,20000,3.704,,,270,,,,,,,,,,,wg-a,,,,AAXX 26034 07280 12570 82702 10160 20150 39891 40157 57009 60006 885// 90300=
07280,1998-06-26 06:00:00,17,1016.2,0.6,88,15,15000,3.704,,,130,15.9,19.8,,,,,,,,,wg-a,,,,AAXX 26064 07280 02665 71302 10170 20150 39897 40162 53006 60006 8653/ 90600 333 10198 20159 61000=
07280,1998-06-26 09:00:00,20,1015.9,-0.1,73,15,25000,11.112,,,140,,,,,,,,,,,wg-a,,,,AAXX 26094 07280 12475 81406 10200 20150 39896 40159 58001 60006 868// 90900=
07280,1998-06-26 12:00:00,20,1015.9,0,73,15,25000,11.112,,,190,,,,,,,,,,,wg-a,,,,AAXX 26124 07280 12575 81906 10200 20150 39896 40159 50000 60006 888// 91200=
07280,1998-06-26 15:00:00,23,1015,-0.6,57,14,25000,14.816,,,200,,,,,,,,,,,wg-a,,,,AAXX 26154 07280 12675 72008 10230 20140 39890 40150 56006 60006 8483/ 91500=
07280,1998-06-26 18:00:00,20,1015.3,-0,78,16,25000,11.112,,,180,17.1,22.8,,,,,,,,25,wg-a,,,,AAXX 26184 07280 02675 71806 10200 20160 39890 40153 55000 61000 72586 8128/ 91800 333 10228 20171 6100=
07280,1998-06-26 21:00:00,18,1015.8,0.3,88,16,20000,11.112,,,190,,,,,,,,,,,wg-a,,,,AAXX 26214 07280 12870 71906 10180 20160 39893 40158 53003 60006 8707/ 92100=
07280,1998-06-27 00:00:00,16,1015.7,-0.3,88,14,20000,0,,,0,,,,,,,,,,,wg-a,,,,AAXX 27004 07280 12770 10000 10160 20140 39890 40157 58003 60006 81500 90000=
07280,1998-06-27 03:00:00,15,1015.3,-0.4,88,13,15000,7.408,,,350,,,,,,,,,,,wg-a,,,,AAXX 27034 07280 12665 83504 10150 20130 39886 40153 57004 60006 885// 90300=
07280,1998-06-27 06:00:00,17,1014.9,-0.2,88,15,15000,7.408,,,130,14.8,19.7,,,,,,,,,wg-a,,,,AAXX 27064 07280 02765 71304 10170 20150 39884 40149 57002 60006 875// 90600 333 10197 20148 61000=
07280,1998-06-27 09:00:00,23,1014.2,-0.2,61,15,25000,18.52,,,190,,,,,,,,,,,wg-a,,,,AAXX 27094 07280 12575 71910 10230 20150 39882 40142 58002 60006 81801 90900=
07280,1998-06-27 12:00:00,26,1012.7,-1.1,51,15,25000,22.224,,,220,,,,,,,,,,,wg-a,,,,AAXX 27124 07280 12675 /2212 10260 20150 39871 40127 57011 60006 84202 91200=
07280,1998-06-27 15:00:00,26,1011.5,-1.2,48,14,25000,11.112,,,270,,,,,,,,,,,wg-a,,,,AAXX 27154 07280 12775 72706 10260 20140 39859 40115 58012 60006 84202 91500=
07280,1998-06-27 18:00:00,23,1011.9,0.1,61,15,500,22.224,,,290,16.7,27.3,,,,,,,,,wg-a,,,,AAXX 27184 07280 12600 62912 10230 20150 39860 40119 52001 60006 83830 91800 333 10273 20167=
07280,1998-06-27 21:00:00,20,1014.3,2.1,68,14,20000,11.112,,,220,,,,,,,,,,,wg-a,,,,AAXX 27214 07280 12/70 42206 10200 20140 39881 40143 53021 60006 83031 92100=
07280,1998-06-28 00:00:00,19,1015.6,1.2,64,12,20000,18.52,,,240,,,,,,,,,,,wg-a,,,,AAXX 28004 07280 12770 52410 10190 20120 39893 40156 53012 60006 82530 90000=
07280,1998-06-28 03:00:00,16,1018.1,2,72,11,20000,14.816,,,320,,,,,,,,,,,wg-a,,,,AAXX 28034 07280 12670 73208 10160 20110 39913 40181 53020 60006 8553/ 90300=
07280,1998-06-28 06:00:00,16,1019.6,1.5,77,12,25000,7.408,,,220,15.4,22.8,,,,,,,,,wg-a,,,,AAXX 28064 07280 02575 72204 10160 20120 39928 40196 52015 60006 878// 90600 333 10228 20154 60004=
07280,1998-06-28 09:00:00,18,1020,0.6,68,12,500,14.816,,,200,,,,,,,,,,,wg-a,,,,AAXX 28094 07280 12500 72008 10180 20120 39934 40200 51006 60006 872// 90900=
07280,1998-06-28 12:00:00,22,1019.4,-0.2,43,9,40000,14.816,,,260,,,,,,,,,,,wg-a,,,,AAXX 28124 07280 12682 32608 10220 20090 39932 40194 58002 60006 83200 91200=
07280,1998-06-28 18:00:00,22,1019.6,0.7,41,8,40000,18.52,,,280,15.8,24.9,,,,,,,,,wg-a,,,,AAXX 28184 07280 12882 22810 10220 20080 39933 40196 52007 60006 82200 91800 333 10249 20158=
07280,1998-06-28 21:00:00,15,1021.4,1.1,67,9,40000,0,,,0,,,,,,,,,,,wg-a,,,,AAXX 28214 07280 12782 20000 10150 20090 39944 40214 51011 60006 81101 92100=
07280,1998-06-29 00:00:00,14,1021.7,0.2,72,9,25000,7.408,,,20,,,,,,,,,,,wg-a,,,,AAXX 29004 07280 12775 10204 10140 20090 39946 40217 53002 60006 81100 90000=
07280,1998-06-29 06:00:00,16,1021.6,0.1,68,10,500,7.408,,,350,10,21.9,,,,,,,,,wg-a,,,,AAXX 29064 07280 02/00 13504 10160 20100 39947 40216 51001 60006 80001 90600 333 10219 20100 60004=
07280,1998-06-29 09:00:00,21,1020.9,-0.2,46,9,40000,7.408,,,100,,,,,,,,,,,wg-a,,,,AAXX 29094 07280 12782 31004 10210 20090 39945 40209 58002 60006 83401 90900=
07280,1998-06-29 12:00:00,25,1019.2,-1.3,36,9,40000,7.408,,,180,,,,,,,,,,,wg-a,,,,AAXX 29124 07280 12782 21804 10250 20090 39932 40192 58013 60006 82400 91200=
07280,1998-06-29 15:00:00,26,1017.3,-1.7,37,10,40000,7.408,,,130,,,,,,,,,,,wg-a,,,,AAXX 29154 07280 12782 61304 10260 20100 39915 40173 57017 60006 825/1 91500=
07280,1998-06-29 18:00:00,26,1016.8,-0.6,37,10,40000,7.408,,,280,15.6,26.8,,,,,,,,,wg-a,,,,AAXX 29184 07280 12782 42804 10260 20100 39909 40168 55006 60006 815/1 91800 333 10268 20156=
07280,1998-06-29 21:00:00,18,1017.6,0.2,68,12,500,0,,,0,,,,,,,,,,,wg-a,,,,AAXX 29214 07280 12/00 30000 10180 20120 39911 40176 53002 60006 83030 92100=
07280,1998-06-30 00:00:00,15,1017.4,-0.5,77,11,20000,7.408,,,320,,,,,,,,,,,wg-a,,,,AAXX 30004 07280 12/70 03204 10150 20110 39906 40174 58005 60006 80000 90000=
07280,1998-06-30 03:00:00,12,1017.5,-0.2,88,10,20000,3.704,,,260,,,,,,,,,,,wg-a,,,,AAXX 30034 07280 12/70 32602 10120 20100 39904 40175 55002 60006 81032 90300=
07280,1998-06-30 06:00:00,15,1016.2,-1,82,12,20000,3.704,,,180,11.2,25.4,,,,,,,,,wg-a,,,,AAXX 30064 07280 02770 61802 10150 20120 39894 40162 56010 60006 81532 90600 333 10254 20112 60004=
07280,1998-06-30 09:00:00,24,1014.1,-1.2,47,12,500,3.704,,,290,,,,,,,,,,,wg-a,,,,AAXX 30094 07280 12700 72902 10240 20120 39882 40141 58012 60006 81132 90900=
07280,1998-06-30 12:00:00,25,1013.9,-0.1,47,13,500,18.52,,,300,,,,,,,,,,,wg-a,,,,AAXX 30124 07280 12700 73010 10250 20130 39881 40139 58001 60006 85202 91200=
07280,1998-06-30 15:00:00,24,1014.3,0.3,47,12,500,25.928,,,280,,,,,,,,,,,wg-a,,,,AAXX 30154 07280 12700 72814 10240 20120 39884 40143 51003 60006 82438 91500=
07280,1998-06-30 18:00:00,22,1014.3,-0.2,50,11,500,14.816,,,260,14.5,26.3,,,,,,,,,wg-a,,,,AAXX 30184 07280 12700 52608 10220 20110 39882 40143 55002 60006 81538 91800 333 10263 20145=
07280,1998-06-30 21:00:00,17,1014.9,0.2,72,12,25000,7.408,,,300,,,,,,,,,,,wg-a,,,,AAXX 30214 07280 12/75 23004 10170 20120 39884 40149 53002 60006 81031 92100=
07280,1998-07-01 00:00:00,14,1014.5,-0.7,88,12,20000,7.408,,,320,,,,,,,,,,,wg-a,,,,AAXX 01004 07280 12/70 53204 10140 20120 39877 40145 58007 60006 81031 90000=
07280,1998-07-01 03:00:00,13,1014.3,-0.3,88,11,20000,0,,,0,,,,,,,,,,,wg-a,,,,AAXX 01034 07280 12/70 70000 10130 20110 39874 40143 58003 60006 83031 90300=
07280,1998-07-01 06:00:00,15,1014,-0.1,88,13,20000,7.408,,,200,12.1,22.7,,,,,,,,,wg-a,,,,AAXX 01064 07280 02/70 82004 10150 20130 39873 40140 55001 60006 84032 90600 333 10227 20121 60004=
07280,1998-07-01 09:00:00,21,1011.5,-1.9,60,13,500,3.704,,,70,,,,,,,,,,,wg-a,,,,AAXX 01094 07280 12500 /0702 10210 20130 39854 40115 56019 60006 82832 90900=
07280,1998-07-01 12:00:00,22,1010.2,-1.1,60,14,40000,14.816,,,50,,,,,,,,,,,wg-a,,,,AAXX 01124 07280 12782 80508 10220 20140 39843 40102 58011 60006 84502 91200=
07280,1998-07-01 15:00:00,24,1007.9,-2.2,57,15,40000,25.928,,,40,,,,,,,,,,,wg-a,,,,AAXX 01154 07280 12682 /0414 10240 20150 39821 40079 56022 60006 83132 91500=
07280,1998-07-01 18:00:00,21,1005.9,-2.1,64,14,500,25.928,,,30,14.9,24.2,,,,,,,,80,wg-a,,,,AAXX 01184 07280 02500 80314 10210 20140 39800 40059 58021 61000 78086 82982 91800 333 10242 20149 6100=
07280,1998-07-01 21:00:00,17,1008.9,2.6,88,15,12000,22.224,,,360,,,,1,,,,,,80,wg-a,,,,AAXX 01214 07280 12662 83612 10170 20150 39826 40089 52026 60017 78098 8592/ 92100=
07280,1998-07-02 00:00:00,15,1008.4,-0.7,94,14,12000,14.816,,,20,,,,2,,,,,,21,wg-a,,,,AAXX 02004 07280 02762 50208 10150 20140 39819 40084 58007 60036 72198 81510 90000 333 60027=
07280,1998-07-02 03:00:00,15,1009.3,0.8,88,13,12000,18.52,,,360,,,,,,,,,,,wg-a,,,,AAXX 02034 07280 12762 73610 10150 20130 39827 40093 53008 60006 8453/ 90300=
07280,1998-07-02 06:00:00,15,1010.9,1.6,88,13,18000,14.816,,,30,14.7,21.1,,,,,3,,,,wg-a,,,,AAXX 02064 07280 02568 80308 10150 20130 39843 40109 51016 60006 8457/ 90600 333 10211 20147 60034=
07280,1998-07-02 09:00:00,17,1011.6,0.8,82,14,11000,7.408,,,30,,,,,,,,,,,wg-a,,,,AAXX 02094 07280 12461 80304 10170 20140 39851 40116 52008 60006 887// 90900=
07280,1998-07-02 12:00:00,19,1012,0.6,78,15,12000,7.408,,,60,,,,,,,,,,,wg-a,,,,AAXX 02124 07280 12462 80604 10190 20150 39857 40120 52006 60006 887// 91200=
07280,1998-07-02 15:00:00,20,1012,0.1,73,15,12000,11.112,,,20,,,,,,,,,,,wg-a,,,,AAXX 02154 07280 12462 70206 10200 20150 39858 40120 53001 60006 8523/ 91500=
07280,1998-07-02 18:00:00,19,1011.7,-0.3,78,15,12000,14.816,,,30,15.4,21.1,,,,,,,,,wg-a,,,,AAXX 02184 07280 12562 40308 10190 20150 39855 40117 57003 60006 81131 91800 333 10211 20154=
07280,1998-07-03 00:00:00,15,1013.9,1.2,94,14,12000,11.112,,,360,,,,,,,,,,,wg-a,,,,AAXX 03004 07280 12662 /3606 10150 20140 39872 40139 52012 60006 85500 90000=
07280,1998-07-03 03:00:00,16,1013.4,-0.4,88,14,10000,7.408,,,10,,,,,,,,,,,wg-a,,,,AAXX 03034 07280 12460 80104 10160 20140 39868 40134 58004 60006 885// 90300=
07280,1998-07-03 06:00:00,17,1014.2,0.9,88,15,8000,3.704,,,30,14.8,19.4,,,,,,,,,wg-a,,,,AAXX 03064 07280 02558 80302 10170 20150 39877 40142 53009 60006 8357/ 90600 333 10194 20148 60004=
07280,1998-07-03 09:00:00,21,1014.3,0.4,69,15,15000,3.704,,,240,,,,,,,,,,,wg-a,,,,AAXX 03094 07280 12465 72402 10210 20150 39881 40143 53004 60006 8223/ 90900=
07280,1998-07-03 12:00:00,14,1017,2.1,94,13,6000,22.224,,,330,,,,4,,,,,,80,wg-a,,,,AAXX 03124 07280 02556 83312 10140 20130 39902 40170 53021 60046 78098 889// 91200 333 60047=
07280,1998-07-03 15:00:00,18,1017.2,0.5,73,13,25000,14.816,,,330,,,,2,,,,,,1,wg-a,,,,AAXX 03154 07280 12575 83308 10180 20130 39907 40172 51005 60027 70198 81102 91500=
07280,1998-07-03 18:00:00,18,1018.4,1.2,83,15,9000,11.112,,,210,14.3,22.2,,,,,,,,80,wg-a,,,,AAXX 03184 07280 02559 72106 10180 20150 39919 40184 53012 61000 78098 879// 91800 333 10222 20143 6100=
07280,1998-07-03 21:00:00,16,1020.9,2.2,88,14,20000,3.704,,,220,,,,,,,,,,1,wg-a,,,,AAXX 03214 07280 32/70 02202 10160 20140 39941 40209 53022 70198 80000 92100=
07280,1998-07-04 00:00:00,13,1022.8,1.6,88,11,20000,7.408,,,20,,,,,,,,,,3,wg-a,,,,AAXX 04004 07280 02/70 10204 10130 20110 39957 40228 51016 61000 70398 81030 90000 333 ////=
07280,1998-07-04 03:00:00,11,1023.4,0.3,94,10,20000,11.112,,,340,,,,,,,,,,11,wg-a,,,,AAXX 04034 07280 32/70 03406 10110 20100 39960 40234 51003 71100 80000 90300=
07280,1998-07-04 06:00:00,13,1024.1,0.9,88,11,12000,11.112,,,340,10.5,17.8,,,,,6,,,,wg-a,,,,AAXX 04064 07280 02/62 13406 10130 20110 39969 40241 51009 60006 80001 90600 333 10178 20105 60064=
07280,1998-07-04 09:00:00,17,1024.8,1,59,9,20000,14.816,,,350,,,,,,,,,,,wg-a,,,,AAXX 04094 07280 12670 33508 10170 20090 39979 40248 51010 60006 83100 90900=
07280,1998-07-04 12:00:00,20,1024,-0.4,46,8,25000,11.112,,,360,,,,,,,,,,,wg-a,,,,AAXX 04124 07280 12775 13606 10200 20080 39975 40240 58004 60006 81100 91200=
07280,1998-07-04 15:00:00,23,1022.5,-1.3,41,9,500,7.408,,,220,,,,,,,,,,,wg-a,,,,AAXX 04154 07280 12700 32204 10230 20090 39962 40225 58013 60006 83200 91500=
07280,1998-07-04 18:00:00,22,1021.7,-0.8,50,11,500,7.408,,,110,13.2,23.6,,,,,,,,,wg-a,,,,AAXX 04184 07280 12700 61104 10220 20110 39954 40217 56008 60006 86400 91800 333 10236 20132=
07280,1998-07-04 21:00:00,17,1022.6,0.5,72,12,25000,11.112,,,360,,,,,,,,,,,wg-a,,,,AAXX 04214 07280 12/75 03606 10170 20120 39959 40226 53005 60006 80000 92100=
07280,1998-07-05 00:00:00,13,1022.6,-0.4,82,10,20000,0,,,0,,,,,,,,,,,wg-a,,,,AAXX 05004 07280 12/70 00000 10130 20100 39955 40226 58004 60006 80000 90000=
07280,1998-07-05 03:00:00,11,1022.1,-0.7,94,10,20000,7.408,,,330,,,,,,,,,,,wg-a,,,,AAXX 05034 07280 12/70 03304 10110 20100 39948 40221 57007 60006 80000 90300=
07280,1998-07-05 06:00:00,15,1021.9,0.2,82,12,20000,11.112,,,10,10.7,21.5,,,,,,,,,wg-a,,,,AAXX 05064 07280 02/70 00106 10150 20120 39950 40219 53002 60006 80000 90600 333 10215 20107 60004=
07280,1998-07-05 09:00:00,21,1021,-0.3,56,12,500,3.704,,,360,,,,,,,,,,,wg-a,,,,AAXX 05094 07280 12600 43602 10210 20120 39947 40210 58003 60006 84100 90900=
07280,1998-07-05 12:00:00,24,1019.7,-1.1,44,11,500,14.816,,,250,,,,,,,,,,,wg-a,,,,AAXX 05124 07280 12700 12508 10240 20110 39936 40197 57011 60006 81400 91200=
07280,1998-07-05 15:00:00,26,1018.4,-1.1,37,10,500,11.112,,,290,,,,,,,,,,,wg-a,,,,AAXX 05154 07280 12700 12906 10260 20100 39925 40184 56011 60006 81400 91500=
07280,1998-07-05 18:00:00,24,1017.6,-0.9,44,11,500,14.816,,,320,15.2,26.3,,,,,,,,,wg-a,,,,AAXX 05184 07280 12800 13208 10240 20110 39916 40176 56009 60006 81500 91800 333 10263 20152=
07280,1998-07-05 21:00:00,17,1018.3,0.1,72,12,25000,11.112,,,330,,,,,,,,,,,wg-a,,,,AAXX 05214 07280 12/75 03306 10170 20120 39917 40183 53001 60006 80000 92100=
07280,1998-07-06 00:00:00,16,1018.3,-0.2,77,12,25000,11.112,,,40,,,,,,,,,,,wg-a,,,,AAXX 06004 07280 12/75 00406 10160 20120 39915 40183 56002 60006 80000 90000=
07280,1998-07-06 03:00:00,12,1017.6,-1,94,11,15000,7.408,,,10,,,,,,,,,,,wg-a,,,,AAXX 06034 07280 12/65 00104 10120 20110 39905 40176 58010 60006 80000 90300=
07280,1998-07-06 06:00:00,15,1016.6,-0.7,82,12,10000,3.704,,,350,10.7,24.4,,,,,,,,,wg-a,,,,AAXX 06064 07280 02/60 23502 10150 20120 39898 40166 58007 60006 80009 90600 333 10244 20107 60004=
07280,1998-07-06 09:00:00,19,1015.4,-0.8,68,13,20000,3.704,,,30,,,,,,,,,,,wg-a,,,,AAXX 06094 07280 12570 /0302 10190 20130 39890 40154 58008 60006 85500 90900=
07280,1998-07-06 12:00:00,25,1012.8,-2,50,14,500,11.112,,,170,,,,,,,,,,,wg-a,,,,AAXX 06124 07280 12600 /1706 10250 20140 39870 40128 58020 60006 81100 91200=
07280,1998-07-06 15:00:00,28,1010.5,-2,40,13,500,14.816,,,240,,,,,,,,,,,wg-a,,,,AAXX 06154 07280 12700 22408 10280 20130 39850 40105 56020 60006 82100 91500=
07280,1998-07-06 18:00:00,27,1009.1,-1.4,42,13,40000,7.408,,,350,14.7,28.2,,,,,,,,,wg-a,,,,AAXX 06184 07280 12782 23504 10270 20130 39836 40091 56014 60006 82100 91800 333 10282 20147=
07280,1998-07-06 21:00:00,20,1009.9,0.1,60,12,500,7.408,,,340,,,,,,,,,,,wg-a,,,,AAXX 06214 07280 12700 13404 10200 20120 39837 40099 52001 60006 81101 92100=
07280,1998-07-07 00:00:00,17,1009.9,-0.3,72,12,500,11.112,,,350,,,,,,,,,,,wg-a,,,,AAXX 07004 07280 12/00 13506 10170 20120 39834 40099 58003 60006 80001 90000=
07280,1998-07-07 03:00:00,15,1009.3,-0.7,82,12,20000,14.816,,,360,,,,,,,,,,,wg-a,,,,AAXX 07034 07280 12770 23608 10150 20120 39827 40093 56007 60006 82500 90300=
07280,1998-07-07 06:00:00,16,1008.5,-0.6,82,13,15000,7.408,,,10,14.8,26.9,,,,,,,,,wg-a,,,,AAXX 07064 07280 02765 70104 10160 20130 39821 40085 55006 60006 835/2 90600 333 10269 20148 60004=
07280,1998-07-07 09:00:00,21,1008.2,0.1,60,13,20000,11.112,,,70,,,,,,,,,,,wg-a,,,,AAXX 07094 07280 12570 /0706 10210 20130 39822 40082 50001 60006 83202 90900=
07280,1998-07-07 12:00:00,22,1008.1,0,46,10,20000,22.224,,,320,,,,,,,,,,,wg-a,,,,AAXX 07124 07280 12670 /3212 10220 20100 39822 40081 50000 60006 85501 91200=
07280,1998-07-07 15:00:00,21,1009.1,0.9,56,12,25000,31.484,,,340,,,,,,,,,,,wg-a,,,,AAXX 07154 07280 12675 /3417 10210 20120 39831 40091 53009 60006 86800 91500=
07280,1998-07-07 18:00:00,16,1012.3,2.6,59,8,25000,25.928,,,350,16,24.6,,,,,,,,,wg-a,,,,AAXX 07184 07280 12575 73514 10160 20080 39857 40123 53026 60006 878// 91800 333 10246 20160=
07280,1998-07-07 21:00:00,13,1014.9,2.3,77,9,20000,0,,,0,,,,,,,,,,,wg-a,,,,AAXX 07214 07280 12770 70000 10130 20090 39880 40149 53023 60006 875// 92100=
07280,1998-07-08 00:00:00,15,1015.3,0.5,67,9,20000,11.112,,,330,,,,,,,,,,,wg-a,,,,AAXX 08004 07280 12670 73306 10150 20090 39885 40153 51005 60006 875// 90000=
07280,1998-07-08 03:00:00,12,1015.8,0.2,82,9,15000,11.112,,,320,,,,,,,,,,,wg-a,,,,AAXX 08034 07280 12/65 03206 10120 20090 39887 40158 53002 60006 80000 90300=
07280,1998-07-08 06:00:00,14,1016.4,0.8,72,9,15000,7.408,,,310,10.9,16,,,,,,,,,wg-a,,,,AAXX 08064 07280 02865 43104 10140 20090 39895 40164 51008 60006 83031 90600 333 10160 20109 60004=
07280,1998-07-08 09:00:00,17,1016.5,0.4,52,7,500,7.408,,,350,,,,,,,,,,,wg-a,,,,AAXX 08094 07280 12500 73504 10170 20070 39899 40165 50004 60006 81131 90900=
07280,1998-07-08 12:00:00,19,1016.3,0,46,7,500,11.112,,,170,,,,,,,,,,,wg-a,,,,AAXX 08124 07280 12600 /1706 10190 20070 39899 40163 50000 60006 86200 91200=
07280,1998-07-08 15:00:00,20,1016,-0.2,46,8,500,7.408,,,200,,,,,,,,,,,wg-a,,,,AAXX 08154 07280 12600 72004 10200 20080 39897 40160 56002 60006 878// 91500=
07280,1998-07-08 18:00:00,20,1015.9,-0.1,49,9,20000,11.112,,,330,13.8,20.9,,,,,,,,,wg-a,,,,AAXX 08184 07280 12670 73306 10200 20090 39896 40159 55001 60006 878// 91800 333 10209 20138=
07280,1998-07-08 21:00:00,17,1017.1,0.9,63,10,20000,3.704,,,330,,,,,,,,,,,wg-a,,,,AAXX 08214 07280 12770 73302 10170 20100 39905 40171 51009 60006 875// 92100=
07280,1998-07-09 00:00:00,14,1017.3,-0.1,82,11,15000,0,,,0,,,,,,,,,,,wg-a,,,,AAXX 09004 07280 12765 50000 10140 20110 39904 40173 58001 60006 835/1 90000=
07280,1998-07-09 03:00:00,12,1016.8,-0.7,88,10,10000,3.704,,,310,,,,,,,,,,,wg-a,,,,AAXX 09034 07280 12760 63102 10120 20100 39897 40168 56007 60006 86501 90300=
07280,1998-07-09 06:00:00,13,1017.4,0.7,88,11,10000,0,,,0,10.9,19.9,,,,,,,,,wg-a,,,,AAXX 09064 07280 02860 70000 10130 20110 39904 40174 53007 60006 8353/ 90600 333 10199 20109 60004=
07280,1998-07-09 09:00:00,19,1017.4,0.6,60,11,25000,14.816,,,280,,,,,,,,,,,wg-a,,,,AAXX 09094 07280 12675 82808 10190 20110 39910 40174 53006 60006 878// 90900=
07280,1998-07-09 12:00:00,21,1016.6,-0.6,53,11,25000,14.816,,,210,,,,,,,,,,1,wg-a,,,,AAXX 09124 07280 02675 72108 10210 20110 39904 40166 58006 61000 70162 8182/ 91200 333 6100=
07280,1998-07-09 15:00:00,24,1015.5,-0.9,44,11,25000,25.928,,,270,,,,,,,,,,,wg-a,,,,AAXX 09154 07280 12775 72714 10240 20110 39895 40155 56009 60006 8123/ 91500=
07280,1998-07-09 18:00:00,20,1016.5,0.7,56,11,25000,18.52,,,300,12.7,24.9,,,,,,,,,wg-a,,,,AAXX 09184 07280 12775 73010 10200 20110 39902 40165 51007 60006 8117/ 91800 333 10249 20127=
07280,1998-07-09 21:00:00,17,1017.8,1,72,12,20000,11.112,,,40,,,,,,,,,,1,wg-a,,,,AAXX 09214 07280 02670 80406 10170 20120 39912 40178 53010 61000 70162 8257/ 92100 333 ////=
07280,1998-07-10 00:00:00,15,1018.4,0.4,88,13,20000,7.408,,,210,,,,,,,,,,3,wg-a,,,,AAXX 10004 07280 02670 82104 10150 20130 39916 40184 51004 61000 70362 885// 90000 333 6100=
07280,1998-07-10 03:00:00,14,1018.1,-0.4,94,13,8000,3.704,,,150,,,,0,,,,,,21,wg-a,,,,AAXX 10034 07280 12558 81502 10140 20130 39912 40181 57004 60007 72162 885// 90300=
07280,1998-07-10 06:00:00,14,1017.8,-0.2,100,14,6000,14.816,,,210,14.2,19.8,,,,,,,,61,wg-a,,,,AAXX 10064 07280 02456 82108 10140 20140 39910 40178 56002 61000 76162 888// 90600 333 10198 20142 6001=
07280,1998-07-10 09:00:00,17,1017.6,0,88,15,15000,18.52,,,200,,,,,,,,,,3,wg-a,,,,AAXX 10094 07280 02365 82010 10170 20150 39910 40176 50000 61000 70362 888// 90900 333 ////=
07280,1998-07-10 12:00:00,21,1016.7,-0.5,64,14,500,18.52,,,220,,,,,,,,,,1,wg-a,,,,AAXX 10124 07280 02500 72210 10210 20140 39905 40167 58005 61000 70162 872// 91200 333 ////=
07280,1998-07-10 15:00:00,23,1015.9,-0.6,57,14,35000,14.816,,,240,,,,,,,,,,,wg-a,,,,AAXX 10154 07280 12581 72408 10230 20140 39899 40159 58006 60006 878// 91500=
07280,1998-07-10 18:00:00,21,1015.7,-0.4,64,14,35000,22.224,,,250,14.4,23,,,,,,,,,wg-a,,,,AAXX 10184 07280 12581 32512 10210 20140 39895 40157 55004 60006 83400 91800 333 10230 20144=
07280,1998-07-10 21:00:00,17,1016.7,0.7,82,14,500,14.816,,,240,,,,,,,,,,,wg-a,,,,AAXX 10214 07280 12500 /2408 10170 20140 39902 40167 53007 60006 85830 92100=
07280,1998-07-11 00:00:00,17,1016.6,-0.2,82,14,25000,11.112,,,210,,,,,,,,,,,wg-a,,,,AAXX 11004 07280 12675 72106 10170 20140 39900 40166 58002 60006 86530 90000=
07280,1998-07-11 03:00:00,16,1016.8,0.1,88,14,20000,11.112,,,220,,,,,,,,,,,wg-a,,,,AAXX 11034 07280 12270 82206 10160 20140 39901 40168 51001 60006 885// 90300=
07280,1998-07-11 06:00:00,17,1016.9,0.2,82,14,25000,14.816,,,210,15.5,21.5,,,,,,,,,wg-a,,,,AAXX 11064 07280 02275 82108 10170 20140 39903 40169 53002 60006 875// 90600 333 10215 20155 60004=
07280,1998-07-11 09:00:00,19,1017.3,0.6,73,14,25000,18.52,,,250,,,,,,,,,,1,wg-a,,,,AAXX 11094 07280 02475 72510 10190 20140 39909 40173 50006 61000 70165 878// 90900 333 ////=
07280,1998-07-11 12:00:00,23,1016.5,-0.5,44,10,50000,18.52,,,280,,,,,,,,,,1,wg-a,,,,AAXX 11124 07280 02684 /2810 10230 20100 39904 40165 58005 61000 70165 84201 91200 333 ////=
07280,1998-07-11 15:00:00,25,1015.9,-0.4,39,10,50000,22.224,,,280,,,,,,,,,,,wg-a,,,,AAXX 11154 07280 12784 62812 10250 20100 39900 40159 58004 60006 83230 91500=
07280,1998-07-11 18:00:00,23,1015.8,-0.2,44,10,50000,22.224,,,250,16.6,25.1,,,,,,,,,wg-a,,,,AAXX 11184 07280 12784 72512 10230 20100 39898 40158 55002 60006 81101 91800 333 10251 20166=
07280,1998-07-11 21:00:00,19,1016.9,0.7,60,11,500,11.112,,,240,,,,,,,,,,,wg-a,,,,AAXX 11214 07280 12/00 72406 10190 20110 39905 40169 53007 60006 85071 92100=
07280,1998-07-12 00:00:00,19,1016.2,-0.7,60,11,500,7.408,,,210,,,,,,,,,,,wg-a,,,,AAXX 12004 07280 12/00 82104 10190 20110 39898 40162 56007 60006 8807/ 90000=
07280,1998-07-12 03:00:00,17,1015.7,-0.7,68,11,500,18.52,,,210,,,,,,,,,,,wg-a,,,,AAXX 12034 07280 12/00 72110 10170 20110 39891 40157 56007 60006 84031 90300=
07280,1998-07-12 06:00:00,17,1016,0.3,72,12,500,11.112,,,190,14.9,23.5,,,,,,,,,wg-a,,,,AAXX 12064 07280 02/00 31906 10170 20120 39894 40160 50003 60006 82031 90600 333 10235 20149 61000=
07280,1998-07-12 09:00:00,22,1015.6,0.1,53,12,40000,11.112,,,230,,,,,,,,,,,wg-a,,,,AAXX 12094 07280 12682 32306 10220 20120 39895 40156 52001 60006 83500 90900=
07280,1998-07-12 12:00:00,24,1014.8,-0.6,54,14,50000,22.224,,,230,,,,,,,,,,,wg-a,,,,AAXX 12124 07280 12684 32312 10240 20140 39889 40148 56006 60006 82530 91200=
07280,1998-07-12 15:00:00,28,1013,-1.4,40,13,50000,22.224,,,230,,,,,,,,,,,wg-a,,,,AAXX 12154 07280 12784 12312 10280 20130 39875 40130 56014 60006 81100 91500=
07280,1998-07-12 18:00:00,27,1011.7,-1.4,39,12,50000,18.52,,,240,17,28.5,,,,,,,,,wg-a,,,,AAXX 12184 07280 12/84 02410 10270 20120 39861 40117 56014 60006 80000 91800 333 10285 20170=
07280,1998-07-12 21:00:00,21,1012.3,0.1,60,13,50000,7.408,,,240,,,,,,,,,,,wg-a,,,,AAXX 12214 07280 12/84 12404 10210 20130 39862 40123 53001 60006 81030 92100=
07280,1998-07-13 00:00:00,18,1012.5,-0.1,73,13,500,11.112,,,250,,,,,,,,,,,wg-a,,,,AAXX 13004 07280 12/00 12506 10180 20130 39861 40125 58001 60006 81030 90000=
07280,1998-07-13 06:00:00,17,1011.1,-0,88,15,500,7.408,,,170,13.5,27,,,,,,,,,wg-a,,,,AAXX 13064 07280 02/00 61704 10170 20150 39847 40111 55000 60006 82031 90600 333 10270 20135 60004=
07280,1998-07-13 09:00:00,23,1010.1,-0.5,61,15,40000,18.52,,,230,,,,,,,,,,,wg-a,,,,AAXX 13094 07280 12682 72310 10230 20150 39842 40101 58005 60006 8117/ 90900=
07280,1998-07-13 12:00:00,20,1010.2,-0.1,73,15,500,14.816,,,210,,,,0,,,,,,21,wg-a,,,,AAXX 13124 07280 02500 82108 10200 20150 39841 40102 55001 60006 72162 8117/ 91200 333 60007=
07280,1998-07-13 15:00:00,21,1010.6,0.4,60,13,500,25.928,,,240,,,,,,,,,,,wg-a,,,,AAXX 13154 07280 12500 82414 10210 20130 39845 40106 52004 60006 8387/ 91500=
07280,1998-07-13 18:00:00,16,1013,1.9,88,14,20000,22.224,,,310,15.9,24.1,,,,,,,,60,wg-a,,,,AAXX 13184 07280 02470 73112 10160 20140 39864 40130 53019 61000 76062 8583/ 91800 333 10241 20159 6004=
07280,1998-07-13 21:00:00,13,1015.6,2.2,88,11,20000,7.408,,,270,,,,,,,,,,1,wg-a,,,,AAXX 13214 07280 02870 12704 10130 20110 39886 40156 53022 61000 70161 81030 92100 333 ////=
07280,1998-07-14 00:00:00,9,1016.4,0.5,100,9,20000,3.704,,,180,,,,,,,,,,11,wg-a,,,,AAXX 14004 07280 02870 /1802 10090 20090 39891 40164 50005 61000 71161 81030 90000 333 ////=
07280,1998-07-14 03:00:00,8,1016.3,-0.3,100,8,2000,3.704,,,120,,,,,,,,,,12,wg-a,,,,AAXX 14034 07280 32/20 01202 10080 20080 39888 40163 55003 71200 80000 90300=
07280,1998-07-14 06:00:00,11,1017,1,100,11,9000,3.704,,,130,7.8,16.6,,,,,4,,,28,wg-a,,,,AAXX 14064 07280 02/59 /1302 10110 20110 39898 40170 53010 60006 72840 81030 90600 333 10166 20078 60044=
07280,1998-07-14 09:00:00,17,1016.9,0.5,63,10,500,3.704,,,330,,,,,,,,,,,wg-a,,,,AAXX 14094 07280 12500 33302 10170 20100 39903 40169 51005 60006 83200 90900=
07280,1998-07-14 12:00:00,21,1016,-0.6,38,6,40000,11.112,,,330,,,,,,,,,,,wg-a,,,,AAXX 14124 07280 12782 23306 10210 20060 39897 40160 58006 60006 82200 91200=
07280,1998-07-14 15:00:00,22,1015.3,-0.5,35,6,50000,14.816,,,320,,,,,,,,,,,wg-a,,,,AAXX 14154 07280 12784 23208 10220 20060 39892 40153 56005 60006 82200 91500=
07280,1998-07-14 18:00:00,20,1015.6,0.1,40,6,50000,14.816,,,300,10.9,22.5,,,,,,,,,wg-a,,,,AAXX 14184 07280 12784 23008 10200 20060 39893 40156 53001 60006 82200 91800 333 10225 20109=
07280,1998-07-14 21:00:00,14,1017.2,1,63,7,500,7.408,,,310,,,,,,,,,,,wg-a,,,,AAXX 14214 07280 12700 13104 10140 20070 39903 40172 53010 60006 81500 92100=
07280,1998-07-15 00:00:00,10,1017.7,0.1,82,7,25000,3.704,,,330,,,,,,,,,,,wg-a,,,,AAXX 15004 07280 12775 13302 10100 20070 39904 40177 50001 60006 81500 90000=
07280,1998-07-15 03:00:00,9,1017.6,-0.2,87,7,25000,3.704,,,140,,,,,,,,,,,wg-a,,,,AAXX 15034 07280 12775 41402 10090 20070 39902 40176 56002 60006 81530 90300=
07280,1998-07-15 06:00:00,14,1018,0.9,72,9,40000,11.112,,,310,8.4,20.4,,,,,,,,,wg-a,,,,AAXX 15064 07280 02582 33106 10140 20090 39911 40180 51009 60006 83800 90600 333 10204 20084 60004=
07280,1998-07-15 09:00:00,19,1018,0.4,49,8,40000,7.408,,,270,,,,,,,,,,,wg-a,,,,AAXX 15094 07280 12682 62704 10190 20080 39915 40180 51004 60006 84801 90900=
07280,1998-07-15 12:00:00,21,1017.6,-0.2,46,9,40000,25.928,,,320,,,,,,,,,,,wg-a,,,,AAXX 15124 07280 12782 63214 10210 20090 39913 40176 58002 60006 85201 91200=
07280,1998-07-15 15:00:00,22,1017.5,-0,38,7,40000,22.224,,,300,,,,,,,,,,,wg-a,,,,AAXX 15154 07280 12782 73012 10220 20070 39913 40175 55000 60006 82432 91500=
07280,1998-07-15 18:00:00,21,1017.8,0.2,40,7,40000,18.52,,,280,14.5,22.9,,,,,,,,,wg-a,,,,AAXX 15184 07280 12782 62810 10210 20070 39915 40178 51002 60006 81432 91800 333 10229 20145=
07280,1998-07-15 21:00:00,15,1018.9,0.5,67,9,500,7.408,,,260,,,,,,,,,,,wg-a,,,,AAXX 15214 07280 12700 32604 10150 20090 39920 40189 53005 60006 81530 92100=
07280,1998-07-16 00:00:00,12,1018.4,-0.8,82,9,500,3.704,,,100,,,,,,,,,,,wg-a,,,,AAXX 16004 07280 12/00 51002 10120 20090 39912 40184 58008 60006 85050 90000=
07280,1998-07-16 03:00:00,12,1017,-1.3,88,10,20000,0,,,0,,,,,,,,,,,wg-a,,,,AAXX 16034 07280 12/70 80000 10120 20100 39899 40170 56013 60006 88070 90300=
07280,1998-07-16 06:00:00,13,1016.1,-0.8,82,10,500,3.704,,,170,10.5,20.8,,,,,,,,,wg-a,,,,AAXX 16064 07280 02700 81702 10130 20100 39891 40161 55008 60006 8357/ 90600 333 10208 20105 60004=
07280,1998-07-16 09:00:00,18,1015.3,-0.3,59,10,500,25.928,,,240,,,,,,,,,,21,wg-a,,,,AAXX 16094 07280 02600 82414 10180 20100 39888 40153 56003 61000 72162 8387/ 90900 333 ////=
07280,1998-07-16 12:00:00,20,1015.3,0.2,43,7,500,25.928,,,230,,,,,,,,,,3,wg-a,,,,AAXX 16124 07280 02500 /2314 10200 20070 39890 40153 50002 61000 70362 8583/ 91200 333 ////=
07280,1998-07-16 15:00:00,21,1015.2,-0,56,12,500,25.928,,,270,,,,,,,,,,,wg-a,,,,AAXX 16154 07280 12600 72714 10210 20120 39890 40152 55000 60006 878// 91500=
07280,1998-07-16 18:00:00,21,1015.2,0,64,14,40000,18.52,,,240,12.7,22,,,,,,,,,wg-a,,,,AAXX 16184 07280 12682 72410 10210 20140 39890 40152 50000 60006 85501 91800 333 10220 20127=
07280,1998-07-16 21:00:00,18,1016.2,0.8,77,14,500,11.112,,,200,,,,,,,,,,,wg-a,,,,AAXX 16214 07280 12600 72006 10180 20140 39898 40162 53008 60006 83502 92100=
07280,1998-07-17 00:00:00,18,1016.5,0.2,83,15,25000,18.52,,,210,,,,,,,,,,,wg-a,,,,AAXX 17004 07280 12675 72110 10180 20150 39900 40165 51002 60006 82502 90000=
07280,1998-07-17 03:00:00,14,1016.3,-0.6,88,12,25000,7.408,,,200,,,,,,,,,,,wg-a,,,,AAXX 17034 07280 12675 52004 10140 20120 39894 40163 58006 60006 82502 90300=
07280,1998-07-17 06:00:00,17,1016.9,0.9,82,14,500,18.52,,,210,13.5,21.3,,,,,,,,,wg-a,,,,AAXX 17064 07280 02500 /2110 10170 20140 39903 40169 53009 60006 85800 90600 333 10213 20135 61000=
07280,1998-07-17 09:00:00,21,1017.1,0.6,53,11,500,18.52,,,230,,,,,,,,,,,wg-a,,,,AAXX 17094 07280 12600 /2310 10210 20110 39909 40171 50006 60006 86800 90900=
07280,1998-07-17 12:00:00,23,1016.5,-0.4,47,11,500,18.52,,,230,,,,,,,,,,,wg-a,,,,AAXX 17124 07280 12700 52310 10230 20110 39905 40165 58004 60006 84202 91200=
07280,1998-07-17 15:00:00,25,1015.8,-0.6,47,13,60000,22.224,,,260,,,,,,,,,,,wg-a,,,,AAXX 17154 07280 12686 72612 10250 20130 39899 40158 58006 60006 878// 91500=
07280,1998-07-17 18:00:00,24,1015.9,-0,54,14,60000,18.52,,,280,16.9,25.8,,,,,,,,,wg-a,,,,AAXX 17184 07280 12686 42810 10240 20140 39899 40159 55000 60006 8/800 91800 333 10258 20169=
07280,1998-07-17 21:00:00,20,1017.1,0.9,68,14,50000,14.816,,,240,,,,,,,,,,,wg-a,,,,AAXX 17214 07280 12684 32408 10200 20140 39908 40171 53009 60006 83801 92100=
07280,1998-07-18 00:00:00,18,1017.3,0,83,15,500,0,,,0,,,,,,,,,,,wg-a,,,,AAXX 18004 07280 12600 20000 10180 20150 39908 40173 50000 60006 82500 90000=
07280,1998-07-18 03:00:00,15,1016.8,-0.8,88,13,500,7.408,,,150,,,,,,,,,,,wg-a,,,,AAXX 18034 07280 12600 41504 10150 20130 39900 40168 58008 60006 84500 90300=
07280,1998-07-18 06:00:00,17,1016.5,0,88,15,500,7.408,,,200,14.3,23.6,,,,,,,,,wg-a,,,,AAXX 18064 07280 02600 72004 10170 20150 39900 40165 50000 60006 84831 90600 333 10236 20143 60004=
07280,1998-07-18 09:00:00,23,1016,-0,65,16,500,22.224,,,200,,,,,,,,,,,wg-a,,,,AAXX 18094 07280 12500 72012 10230 20160 39900 40160 54000 60006 878// 90900=
07280,1998-07-18 12:00:00,26,1015,-0.8,45,13,40000,25.928,,,250,,,,,,,,,,,wg-a,,,,AAXX 18124 07280 12682 /2514 10260 20130 39892 40150 58008 60006 83201 91200=
07280,1998-07-18 15:00:00,28,1013.8,-1,37,12,50000,22.224,,,230,,,,,,,,,,,wg-a,,,,AAXX 18154 07280 12784 72312 10280 20120 39882 40138 58010 60006 82202 91500=
07280,1998-07-18 18:00:00,26,1014,0.1,48,14,50000,18.52,,,300,17.2,28.3,,,,,,,,,wg-a,,,,AAXX 18184 07280 12/84 63010 10260 20140 39883 40140 53001 60006 81032 91800 333 10283 20172=
07280,1998-07-18 21:00:00,21,1015.9,1.4,56,12,500,14.816,,,20,,,,,,,,,,,wg-a,,,,AAXX 18214 07280 12700 70208 10210 20120 39897 40159 53014 60006 815/2 92100=
07280,1998-07-19 00:00:00,16,1016.8,0.4,82,13,500,7.408,,,340,,,,,,,,,,,wg-a,,,,AAXX 19004 07280 12/00 03404 10160 20130 39901 40168 50004 60006 80000 90000=
07280,1998-07-19 03:00:00,15,1016.4,-0.5,82,12,500,7.408,,,330,,,,,,,,,,,wg-a,,,,AAXX 19034 07280 12/00 03304 10150 20120 39896 40164 56005 60006 80000 90300=
07280,1998-07-19 06:00:00,17,1016.5,0.3,77,13,40000,7.408,,,350,13.8,25.7,,,,,,,,,wg-a,,,,AAXX 19064 07280 02/82 63504 10170 20130 39899 40165 53003 60006 80001 90600 333 10257 20138 60004=
07280,1998-07-19 09:00:00,24,1015.4,-0.4,50,13,50000,3.704,,,70,,,,,,,,,,,wg-a,,,,AAXX 19094 07280 12/84 30702 10240 20130 39895 40154 58004 60006 81081 90900=
07280,1998-07-19 12:00:00,30,1013.6,-1.3,40,15,50000,14.816,,,190,,,,,,,,,,,wg-a,,,,AAXX 19124 07280 12/84 21908 10300 20150 39882 40136 58013 60006 81081 91200=
07280,1998-07-19 15:00:00,32,1011.8,-1.5,38,16,40000,14.816,,,200,,,,,,,,,,,wg-a,,,,AAXX 19154 07280 12782 32008 10320 20160 39867 40118 56015 60006 81101 91500=
07280,1998-07-19 18:00:00,31,1011.3,-0.6,40,16,500,7.408,,,170,16.9,32.6,,,,,,,,,wg-a,,,,AAXX 19184 07280 12700 /1704 10310 20160 39861 40113 56006 60006 81381 91800 333 10326 20169=
07280,1998-07-19 21:00:00,22,1013.4,1.3,83,19,15000,11.112,,,110,,,,0,,,,,,17,wg-a,,,,AAXX 19214 07280 12765 /1106 10220 20190 39874 40134 53013 60007 71798 86980 92100=
07280,1998-07-20 00:00:00,24,1014,0.7,54,14,20000,22.224,,44.448,220,,,,0,,,,,,80,wg-a,,,,AAXX 20004 07280 02770 82212 10240 20140 39881 40140 53007 60016 78098 84280 90000 333 60007 91024=
07280,1998-07-20 03:00:00,19,1013.5,-0.9,64,12,20000,11.112,,,170,,,,,,,,,,3,wg-a,,,,AAXX 20034 07280 02670 /1706 10190 20120 39872 40135 56009 61000 70386 81500 90300 333 ////=
07280,1998-07-20 06:00:00,21,1013.8,0.4,60,13,75000,7.408,,,210,18.5,31.3,,,,,1,,,2,wg-a,,,,AAXX 20064 07280 02/89 12104 10210 20130 39876 40138 52004 60006 70286 81030 90600 333 10313 20185 60014=
07280,1998-07-20 09:00:00,27,1013.8,0.5,42,13,75000,18.52,,,190,,,,,,,,,,,wg-a,,,,AAXX 20094 07280 12789 31910 10270 20130 39881 40138 50005 60006 82230 90900=
07280,1998-07-20 12:00:00,32,1011.4,-1.9,29,12,50000,25.928,,,200,,,,,,,,,,,wg-a,,,,AAXX 20124 07280 12/84 02014 10320 20120 39862 40114 58019 60006 80000 91200=
07280,1998-07-20 15:00:00,34,1008.8,-2.4,22,9,50000,38.892,,,190,,,,,,,,,,,wg-a,,,,AAXX 20154 07280 12/84 01921 10340 20090 39838 40088 56024 60006 80000 91500=
07280,1998-07-20 18:00:00,32,1007.6,-1.3,26,10,500,25.928,,,190,20.8,34.6,,,,,,,,,wg-a,,,,AAXX 20184 07280 12/00 01914 10320 20100 39825 40076 56013 60006 80000 91800 333 10346 20208=
07280,1998-07-20 21:00:00,25,1008.8,0.6,39,10,500,14.816,,,170,,,,,,,,,,,wg-a,,,,AAXX 20214 07280 12/00 01708 10250 20100 39831 40088 53006 60006 80000 92100=
07280,1998-07-21 00:00:00,20,1009.6,0.3,60,12,25000,11.112,,,150,,,,,,,,,,,wg-a,,,,AAXX 21004 07280 12/75 01506 10200 20120 39834 40096 53003 60006 80000 90000=
07280,1998-07-21 03:00:00,19,1011.8,2.1,52,9,25000,7.408,,,300,,,,,,,,,,,wg-a,,,,AAXX 21034 07280 12/75 03004 10190 20090 39855 40118 51021 60006 80000 90300=
07280,1998-07-21 06:00:00,19,1012.9,1.1,64,12,25000,0,,,0,16,32.2,,,,,,,,,wg-a,,,,AAXX 21064 07280 02775 20000 10190 20120 39866 40129 52011 60006 81580 90600 333 10322 20160 60004=
07280,1998-07-21 09:00:00,26,1012.8,0.5,48,14,500,7.408,,,180,,,,,,,,,,,wg-a,,,,AAXX 21094 07280 12600 51804 10260 20140 39871 40128 53005 60006 82880 90900=
07280,1998-07-21 12:00:00,24,1014.9,1.9,54,14,40000,22.224,,,300,,,,,,,,,,21,wg-a,,,,AAXX 21124 07280 02682 73012 10240 20140 39890 40149 53019 61000 72161 8188/ 91200 333 6100=
07280,1998-07-21 15:00:00,22,1015.8,0.7,60,14,50000,18.52,,,310,,,,,,,,,,1,wg-a,,,,AAXX 21154 07280 02884 73110 10220 20140 39897 40158 52007 61000 70162 8707/ 91500 333 ////=
07280,1998-07-21 18:00:00,22,1016.3,0.5,57,13,50000,11.112,,,240,19.1,26.6,,,,,,,,1,wg-a,,,,AAXX 21184 07280 12884 72406 10220 20130 39902 40163 53005 60006 70162 8707/ 91800 333 10266 20191=
07280,1998-07-21 21:00:00,20,1018.3,1.7,73,15,500,7.408,,,230,,,,,,,,,,,wg-a,,,,AAXX 21214 07280 12800 62304 10200 20150 39919 40183 52017 60006 86080 92100=
07280,1998-07-22 00:00:00,18,1018.9,0.5,83,15,500,0,,,0,,,,,,,,,,,wg-a,,,,AAXX 22004 07280 12800 60000 10180 20150 39924 40189 53005 60006 86030 90000=
07280,1998-07-22 03:00:00,17,1019,0,77,13,500,14.816,,,350,,,,,,,,,,,wg-a,,,,AAXX 22034 07280 12800 33508 10170 20130 39924 40190 50000 60006 83030 90300=
07280,1998-07-22 06:00:00,17,1019.7,0.7,72,12,500,11.112,,,360,15.1,22.2,,,,,,,,,wg-a,,,,AAXX 22064 07280 02/00 33606 10170 20120 39931 40197 52007 60006 81031 90600 333 10222 20151 61000=
07280,1998-07-22 09:00:00,23,1018.8,-0.4,50,12,500,11.112,,,50,,,,,,,,,,,wg-a,,,,AAXX 22094 07280 12600 40506 10230 20120 39927 40188 58004 60006 81101 90900=
07280,1998-07-22 12:00:00,27,1017.5,-0.9,37,11,50000,3.704,,,40,,,,,,,,,,,wg-a,,,,AAXX 22124 07280 12784 10402 10270 20110 39918 40175 58009 60006 81200 91200=
07280,1998-07-22 15:00:00,29,1015.9,-1.4,35,12,500,11.112,,,220,,,,,,,,,,,wg-a,,,,AAXX 22154 07280 12800 52206 10290 20120 39904 40159 56014 60006 81101 91500=
07280,1998-07-22 18:00:00,27,1015.9,-0.2,39,12,500,11.112,,,180,17.3,29.2,,,,,,,,,wg-a,,,,AAXX 22184 07280 12800 71806 10270 20120 39902 40159 55002 60006 81102 91800 333 10292 20173=
07280,1998-07-22 21:00:00,21,1017.1,0.7,56,12,25000,7.408,,,330,,,,,,,,,,,wg-a,,,,AAXX 22214 07280 12/75 73304 10210 20120 39909 40171 53007 60006 80001 92100=
07280,1998-07-23 00:00:00,18,1017.1,-0.3,68,12,25000,3.704,,,320,,,,,,,,,,,wg-a,,,,AAXX 23004 07280 12/75 03202 10180 20120 39906 40171 56003 60006 80000 90000=
07280,1998-07-23 03:00:00,16,1016.9,-0.4,77,12,25000,7.408,,,320,,,,,,,,,,,wg-a,,,,AAXX 23034 07280 12/75 33204 10160 20120 39902 40169 58004 60006 81031 90300=
07280,1998-07-23 06:00:00,17,1017.1,0.3,77,13,25000,0,,,0,14.7,27.1,,,,,,,,,wg-a,,,,AAXX 23064 07280 02775 70000 10170 20130 39905 40171 53003 60006 82531 90600 333 10271 20147 60004=
07280,1998-07-23 09:00:00,26,1015.9,-0.3,48,14,25000,11.112,,,210,,,,,,,,,,,wg-a,,,,AAXX 23094 07280 12775 72106 10260 20140 39902 40159 58003 60006 81582 90900=
07280,1998-07-23 12:00:00,28,1015.7,-0.1,40,13,500,14.816,,,270,,,,,,,,,,,wg-a,,,,AAXX 23124 07280 12700 72708 10280 20130 39901 40157 55001 60006 8388/ 91200=
07280,1998-07-23 15:00:00,29,1015.5,-0.1,37,13,40000,14.816,,,250,,,,,,,,,,1,wg-a,,,,AAXX 23154 07280 02782 42508 10290 20130 39900 40155 58001 61000 70161 81280 91500 333 ////=
07280,1998-07-23 18:00:00,27,1016.3,0.6,45,14,40000,18.52,,,310,17.4,29.9,,,,,,,,2,wg-a,,,,AAXX 23184 07280 12882 43110 10270 20140 39906 40163 53006 60006 70261 84200 91800 333 10299 20174=
07280,1998-07-23 21:00:00,24,1018.2,1.5,44,11,500,7.408,,,330,,,,,,,,,,,wg-a,,,,AAXX 23214 07280 12800 43304 10240 20110 39921 40182 52015 60006 84400 92100=
07280,1998-07-24 00:00:00,18,1019.8,1.1,73,13,500,14.816,,,350,,,,,,,,,,,wg-a,,,,AAXX 24004 07280 12800 13508 10180 20130 39932 40198 51011 60006 81501 90000=
07280,1998-07-24 03:00:00,16,1020,-0,82,13,500,3.704,,,60,,,,,,,,,,,wg-a,,,,AAXX 24034 07280 12700 20602 10160 20130 39932 40200 55000 60006 82500 90300=
07280,1998-07-24 06:00:00,18,1019.9,0.2,77,14,20000,7.408,,,340,14.7,26.9,,,,,,,,,wg-a,,,,AAXX 24064 07280 02770 13404 10180 20140 39934 40199 53002 60006 81530 90600 333 10269 20147 61000=
07280,1998-07-24 09:00:00,24,1019.3,-0.2,50,13,25000,11.112,,,20,,,,,,,,,,,wg-a,,,,AAXX 24094 07280 12675 /0206 10240 20130 39932 40193 58002 60006 81201 90900=
07280,1998-07-24 12:00:00,27,1017.9,-1,45,14,25000,11.112,,,80,,,,,,,,,,,wg-a,,,,AAXX 24124 07280 12775 50806 10270 20140 39922 40179 58010 60006 84201 91200=
07280,1998-07-24 15:00:00,27,1017.3,-0.7,42,13,20000,7.408,,,30,,,,,,,,,,,wg-a,,,,AAXX 24154 07280 12770 70304 10270 20130 39915 40173 57007 60006 874// 91500=
07280,1998-07-24 18:00:00,25,1017.3,-0.1,47,13,20000,22.224,,,10,18.3,27.7,,,,,,,,,wg-a,,,,AAXX 24184 07280 12770 40112 10250 20130 39914 40173 55001 60006 84800 91800 333 10277 20183=
07280,1998-07-24 21:00:00,22,1018.9,1.3,57,13,20000,18.52,,,350,,,,,,,,,,,wg-a,,,,AAXX 24214 07280 12870 63510 10220 20130 39927 40189 52013 60006 86500 92100=
07280,1998-07-25 00:00:00,20,1019.2,0.1,68,14,20000,18.52,,,360,,,,,,,,,,,wg-a,,,,AAXX 25004 07280 12770 73610 10200 20140 39928 40192 52001 60006 875// 90000=
07280,1998-07-25 03:00:00,19,1019.3,0,64,12,15000,18.52,,,360,,,,,,,,,,21,wg-a,,,,AAXX 25034 07280 02465 83610 10190 20120 39928 40193 50000 61000 72162 888// 90300 333 ////=
07280,1998-07-25 06:00:00,18,1020.2,0.8,64,11,20000,14.816,,,10,17,24.9,,,,,,,,1,wg-a,,,,AAXX 25064 07280 02/70 20108 10180 20110 39936 40202 52008 60006 70161 81031 90600 333 10249 20170 61000=
07280,1998-07-25 09:00:00,23,1019.8,0.1,44,10,25000,22.224,,,40,,,,,,,,,,,wg-a,,,,AAXX 25094 07280 12/75 10412 10230 20100 39937 40198 50001 60006 80001 90900=
07280,1998-07-25 12:00:00,26,1018.8,-0.8,34,9,25000,14.816,,,50,,,,,,,,,,,wg-a,,,,AAXX 25124 07280 12875 10508 10260 20090 39929 40188 58008 60006 81101 91200=
07280,1998-07-25 15:00:00,28,1017.6,-1,28,8,500,18.52,,,80,,,,,,,,,,,wg-a,,,,AAXX 25154 07280 12800 10810 10280 20080 39919 40176 56010 60006 81101 91500=
07280,1998-07-25 18:00:00,26,1016.6,-1.1,32,8,25000,14.816,,,60,18.3,27.8,,,,,,,,,wg-a,,,,AAXX 25184 07280 12/75 50608 10260 20080 39908 40166 56011 60006 81041 91800 333 10278 20183=
07280,1998-07-25 21:00:00,21,1017.9,0.8,43,8,25000,22.224,,,10,,,,,,,,,,,wg-a,,,,AAXX 25214 07280 12/75 40112 10210 20080 39916 40179 53008 60006 80001 92100=
07280,1998-07-26 00:00:00,18,1017.4,-0.8,52,8,20000,14.816,,,10,,,,,,,,,,,wg-a,,,,AAXX 26004 07280 12/70 40108 10180 20080 39908 40174 57008 60006 80001 90000=
07280,1998-07-26 03:00:00,16,1016.7,-0.8,59,8,20000,14.816,,,360,,,,,,,,,,,wg-a,,,,AAXX 26034 07280 12/70 43608 10160 20080 39900 40167 56008 60006 80001 90300=
07280,1998-07-26 06:00:00,18,1016.6,0,59,10,25000,7.408,,,360,14.7,26.1,,,,,,,,,wg-a,,,,AAXX 26064 07280 02/75 53604 10180 20100 39900 40166 50000 60006 80001 90600 333 10261 20147 60004=
07280,1998-07-26 09:00:00,23,1015.3,-0.7,50,12,25000,3.704,,,20,,,,,,,,,,,wg-a,,,,AAXX 26094 07280 12/75 60202 10230 20120 39893 40153 58007 60006 80001 90900=
07280,1998-07-26 12:00:00,28,1013.2,-1.6,32,10,25000,11.112,,,160,,,,,,,,,,,wg-a,,,,AAXX 26124 07280 12875 71606 10280 20100 39877 40132 56016 60006 81131 91200=
07280,1998-07-26 15:00:00,29,1011.7,-1.4,33,11,25000,14.816,,,200,,,,,,,,,,,wg-a,,,,AAXX 26154 07280 12875 72008 10290 20110 39863 40117 56014 60006 81102 91500=
07280,1998-07-26 18:00:00,28,1010.7,-1.1,35,11,25000,3.704,,,140,17.5,29.6,,,,,,,,,wg-a,,,,AAXX 26184 07280 12/75 71402 10280 20110 39852 40107 56011 60006 83072 91800 333 10296 20175=
07280,1998-07-26 21:00:00,24,1011.8,0.7,38,9,20000,22.224,,,350,,,,,,,,,,13,wg-a,,,,AAXX 26214 07280 12770 73512 10240 20090 39859 40118 53007 60006 71322 8198/ 92100=
07280,1998-07-27 00:00:00,17,1012.6,0.3,82,14,20000,11.112,,,350,,,,1,,,,,,13,wg-a,,,,AAXX 27004 07280 02770 73506 10170 20140 39862 40126 50003 60016 71398 8198/ 90000 333 60017=
07280,1998-07-27 03:00:00,17,1012.2,-0.5,82,14,15000,7.408,,,10,,,,0,,,,,,1,wg-a,,,,AAXX 27034 07280 12/65 70104 10170 20140 39857 40122 58005 60007 70186 82032 90300=
07280,1998-07-27 06:00:00,17,1012.6,0.4,82,14,15000,3.704,,,190,16.2,28.2,,,,,,,,60,wg-a,,,,AAXX 27064 07280 02765 81902 10170 20140 39861 40126 53004 61000 76086 8652/ 90600 333 10282 20162 6001=
07280,1998-07-27 09:00:00,18,1012.5,0.1,83,15,12000,3.704,,,150,,,,0,,,,,,60,wg-a,,,,AAXX 27094 07280 12462 81502 10180 20150 39862 40125 50001 60007 76062 8452/ 90900=
07280,1998-07-27 12:00:00,19,1012.8,0.4,88,17,10000,11.112,,,180,,,,0,,,,,,21,wg-a,,,,AAXX 27124 07280 02460 81806 10190 20170 39866 40128 51004 60016 72162 8482/ 91200 333 60007=
07280,1998-07-27 15:00:00,22,1012.2,-0.4,78,18,12000,22.224,,,200,,,,,,,,,,,wg-a,,,,AAXX 27154 07280 12462 72012 10220 20180 39862 40122 58004 60006 8687/ 91500=
07280,1998-07-27 18:00:00,17,1014,1.3,88,15,12000,3.704,,,60,16.6,22.7,,1,,,,,,17,wg-a,,,,AAXX 27184 07280 02462 80602 10170 20150 39875 40140 53013 60006 71798 889// 91800 333 10227 20166 60017=
07280,1998-07-27 21:00:00,15,1015.2,1,100,15,15000,3.704,,,160,,,,,,,,,,1,wg-a,,,,AAXX 27214 07280 12765 71602 10150 20150 39885 40152 53010 60006 70191 875// 92100=
07280,1998-07-28 00:00:00,14,1016.1,0.8,100,14,12000,7.408,,,260,,,,,,,,,,1,wg-a,,,,AAXX 28004 07280 12/62 02604 10140 20140 39893 40161 51008 60006 70191 80000 90000=
07280,1998-07-28 03:00:00,13,1016.1,-0.1,100,13,12000,3.704,,,230,,,,,,,,,,,wg-a,,,,AAXX 28034 07280 12762 52302 10130 20130 39892 40161 58001 60006 85500 90300=
07280,1998-07-28 06:00:00,15,1016,0.1,94,14,500,7.408,,,200,12.5,17.3,,,,,2,,,,wg-a,,,,AAXX 28064 07280 02400 72004 10150 20140 39893 40160 50001 60006 86801 90600 333 10173 20125 60024=
07280,1998-07-28 09:00:00,19,1015.5,-0.1,73,14,25000,14.816,,,190,,,,,,,,,,,wg-a,,,,AAXX 28094 07280 12575 51908 10190 20140 39892 40155 58001 60006 84401 90900=
07280,1998-07-28 12:00:00,21,1015.2,-0.2,49,10,40000,11.112,,,290,,,,,,,,,,,wg-a,,,,AAXX 28124 07280 12682 82906 10210 20100 39890 40152 58002 60006 884// 91200=
07280,1998-07-28 15:00:00,21,1014.7,-0.5,53,11,40000,14.816,,,260,,,,,,,,,,60,wg-a,,,,AAXX 28154 07280 02682 /2608 10210 20110 39885 40147 58005 61000 76062 8582/ 91500 333 ////=
07280,1998-07-28 18:00:00,18,1014.9,-0,68,12,10000,25.928,,,240,15.1,22.5,,,,,,,,60,wg-a,,,,AAXX 28184 07280 02560 82414 10180 20120 39885 40149 55000 61000 76062 8682/ 91800 333 10225 20151 6000=
07280,1998-07-28 21:00:00,16,1015.2,0,88,14,20000,7.408,,,90,,,,0,,,,,,60,wg-a,,,,AAXX 28214 07280 12470 80904 10160 20140 39885 40152 50000 60007 76062 885// 92100=
07280,1998-07-29 00:00:00,16,1014.4,-0.7,94,15,15000,3.704,,,160,,,,,,,,,,21,wg-a,,,,AAXX 29004 07280 02465 81602 10160 20150 39878 40144 58007 60006 72162 875// 90000 333 61000=
07280,1998-07-29 03:00:00,16,1013.5,-0.9,94,15,12000,7.408,,,190,,,,,,,,,,51,wg-a,,,,AAXX 29034 07280 02262 81904 10160 20150 39869 40135 56009 61000 75165 885// 90300 333 ////=
07280,1998-07-29 06:00:00,17,1013.8,0.4,94,16,11000,11.112,,,190,15.3,18,,,,,1,,,,wg-a,,,,AAXX 29064 07280 02/61 /1906 10170 20160 39873 40138 52004 60006 90600 333 10180 20153 60014=
07280,1998-07-29 09:00:00,21,1013.8,0.4,73,16,15000,25.928,,,230,,,,,,,,,,,wg-a,,,,AAXX 29094 07280 12565 /2314 10210 20160 39877 40138 51004 60006 86500 90900=
07280,1998-07-29 12:00:00,23,1013.6,-0.1,57,14,50000,22.224,,,250,,,,,,,,,,,wg-a,,,,AAXX 29124 07280 12684 62512 10230 20140 39876 40136 58001 60006 86400 91200=
07280,1998-07-29 15:00:00,26,1011.9,-1.4,42,12,50000,22.224,,,240,,,,,,,,,,,wg-a,,,,AAXX 29154 07280 12784 22412 10260 20120 39862 40119 58014 60006 82400 91500=
07280,1998-07-29 18:00:00,25,1010.9,-1,44,12,75000,25.928,,,250,17.1,26.3,,,,,,,,,wg-a,,,,AAXX 29184 07280 12/89 42514 10250 20120 39852 40109 56010 60006 84040 91800 333 10263 20171=
07280,1998-07-29 21:00:00,22,1012.5,1.2,50,11,40000,11.112,,,220,,,,,,,,,,,wg-a,,,,AAXX 29214 07280 12682 /2206 10220 20110 39864 40125 51012 60006 86500 92100=
07280,1998-07-30 00:00:00,20,1012.6,0,64,13,500,14.816,,,220,,,,,,,,,,,wg-a,,,,AAXX 30004 07280 12600 42208 10200 20130 39864 40126 50000 60006 84500 90000=
07280,1998-07-30 03:00:00,19,1012.1,-0.6,73,14,20000,25.928,,,250,,,,,,,,,,,wg-a,,,,AAXX 30034 07280 12670 72514 10190 20140 39858 40121 58006 60006 875// 90300=
07280,1998-07-30 06:00:00,19,1012.3,0.2,78,15,25000,22.224,,,220,18.6,25.2,,,,,,,,,wg-a,,,,AAXX 30064 07280 02575 72212 10190 20150 39860 40123 51002 60006 8683/ 90600 333 10252 20186 60004=
07280,1998-07-30 09:00:00,20,1012.2,0.1,78,16,9000,29.632,,,250,,,,,,,,,,21,wg-a,,,,AAXX 30094 07280 02459 82516 10200 20160 39861 40122 50001 61000 72162 8682/ 90900 333 ////=
07280,1998-07-30 12:00:00,21,1012.2,0,73,16,15000,22.224,,,260,,,,,,,,,,61,wg-a,,,,AAXX 30124 07280 02465 82612 10210 20160 39861 40122 50000 61000 76162 878// 91200 333 6100=
07280,1998-07-30 15:00:00,19,1013,0.6,83,16,10000,14.816,,,310,,,,1,,,,,,60,wg-a,,,,AAXX 30154 07280 12460 83108 10190 20160 39867 40130 51006 60017 76062 888// 91500=
07280,1998-07-30 18:00:00,19,1012.9,-0,78,15,15000,14.816,,,260,18.1,21.3,,,,,,,,21,wg-a,,,,AAXX 30184 07280 02565 /2608 10190 20150 39867 40129 54000 61000 72162 85800 91800 333 10213 20181 6000=
07280,1998-07-30 21:00:00,17,1015,1.8,82,14,20000,11.112,,,220,,,,,,,,,,1,wg-a,,,,AAXX 30214 07280 02770 32206 10170 20140 39885 40150 53018 61000 70161 83500 92100 333 ////=
07280,1998-07-31 00:00:00,15,1015.6,0.4,88,13,20000,18.52,,,280,,,,,,,,,,1,wg-a,,,,AAXX 31004 07280 02/70 02810 10150 20130 39889 40156 52004 61000 70161 80000 90000 333 ////=
07280,1998-07-31 03:00:00,11,1016.3,0.3,94,10,20000,3.704,,,320,,,,,,,,,,,wg-a,,,,AAXX 31034 07280 12770 33202 10110 20100 39892 40163 52003 60006 83500 90300=
07280,1998-07-31 06:00:00,12,1016.8,0.6,100,12,12000,0,,,0,8.6,19.7,,,,,1,,,10,wg-a,,,,AAXX 31064 07280 02762 /0000 10120 20120 39898 40168 53006 60006 71041 81500 90600 333 10197 20086 60014=
07280,1998-07-31 09:00:00,20,1016.5,0.4,64,13,25000,7.408,,,90,,,,0,,,,,,,wg-a,,,,AAXX 31094 07280 12575 70904 10200 20130 39902 40165 51004 60007 81201 90900=
07280,1998-07-31 12:00:00,23,1016,-0.2,47,11,500,11.112,,,130,,,,,,,,,,,wg-a,,,,AAXX 31124 07280 12700 71306 10230 20110 39900 40160 58002 60006 83201 91200=
07280,1998-07-31 15:00:00,24,1015.6,-0.3,41,10,40000,7.408,,,90,,,,,,,,,,,wg-a,,,,AAXX 31154 07280 12782 70904 10240 20100 39897 40156 56003 60006 83201 91500=
07280,1998-07-31 18:00:00,23,1015.9,0.1,41,9,500,18.52,,,20,12.4,24.8,,,,,,,,,wg-a,,,,AAXX 31184 07280 12700 70210 10230 20090 39898 40159 53001 60006 834/1 91800 333 10248 20124=
07280,1998-07-31 21:00:00,18,1017.4,1.1,56,9,25000,11.112,,,350,,,,,,,,,,,wg-a,,,,AAXX 31214 07280 12775 63506 10180 20090 39909 40174 53011 60006 825/1 92100=
07280,1998-08-01 00:00:00,16,1017.2,-0.4,63,9,25000,11.112,,,340,,,,,,,,,,,wg-a,,,,AAXX 01004 07280 12/75 53406 10160 20090 39905 40172 58004 60006 80001 90000=
07280,1998-08-01 03:00:00,14,1015.9,-1.5,72,9,20000,11.112,,,360,,,,,,,,,,,wg-a,,,,AAXX 01034 07280 12/70 73606 10140 20090 39890 40159 56015 60006 80001 90300=
07280,1998-08-01 06:00:00,16,1015.1,-0.6,63,9,50000,14.816,,,10,13.1,22.5,,,,,,,,,wg-a,,,,AAXX 01064 07280 02/84 80108 10160 20090 39884 40151 56006 60006 8807/ 90600 333 10225 20131 60004=
07280,1998-08-01 09:00:00,15,1016.2,1,88,13,7000,3.704,,,270,,,,4,,,,,,63,wg-a,,,,AAXX 01094 07280 12657 82702 10150 20130 39894 40162 53010 60047 76362 8252/ 90900=
07280,1998-08-01 12:00:00,15,1015.8,-0.3,94,14,12000,11.112,,,340,,,,5,,,,,,61,wg-a,,,,AAXX 01124 07280 02262 83406 10150 20140 39891 40158 58003 60096 76162 8352/ 91200 333 60057=
07280,1998-08-01 15:00:00,16,1017.2,1.4,77,12,15000,3.704,,,110,,,,1,,,,,,21,wg-a,,,,AAXX 01154 07280 12465 81102 10160 20120 39905 40172 51014 60017 72162 8387/ 91500=
07280,1998-08-01 18:00:00,17,1016.9,-0.2,72,12,25000,3.704,,,90,14.5,17.5,,0,,,,,,1,wg-a,,,,AAXX 01184 07280 02575 /0902 10170 20120 39903 40169 55002 60006 70161 82271 91800 333 10175 20145 60007=
07280,1998-08-01 21:00:00,13,1018.4,1.1,94,12,15000,3.704,,,220,,,,,,,,,,,wg-a,,,,AAXX 01214 07280 12765 22202 10130 20120 39914 40184 53011 60006 82500 92100=
07280,1998-08-02 00:00:00,12,1018.4,-0.1,94,11,12000,7.408,,,330,,,,,,,,,,,wg-a,,,,AAXX 02004 07280 12562 23304 10120 20110 39913 40184 58001 60006 82800 90000=
07280,1998-08-02 03:00:00,10,1018.3,-0.3,100,10,10000,7.408,,,360,,,,0,,,,,,,wg-a,,,,AAXX 02034 07280 12760 13604 10100 20100 39910 40183 58003 60007 81500 90300=
07280,1998-08-02 06:00:00,12,1018.5,0.4,100,12,7000,7.408,,,30,9.4,17,,,,,11,,,1,wg-a,,,,AAXX 02064 07280 02257 /0304 10120 20120 39914 40185 50004 60006 70141 81530 90600 333 10170 20094 60114=
07280,1998-08-02 09:00:00,15,1019.2,1,88,13,15000,11.112,,,20,,,,,,,,,,,wg-a,,,,AAXX 02094 07280 12465 80206 10150 20130 39924 40192 53010 60006 8582/ 90900=
07280,1998-08-02 12:00:00,16,1019.8,0.6,88,14,6000,7.408,,,20,,,,3,,,,,,61,wg-a,,,,AAXX 02124 07280 02356 80204 10160 20140 39930 40198 51006 60036 76162 8372/ 91200 333 60037=
07280,1998-08-02 15:00:00,18,1019.8,0.2,83,15,15000,7.408,,,70,,,,1,,,,,,21,wg-a,,,,AAXX 02154 07280 12465 60704 10180 20150 39932 40198 51002 60017 72162 8542/ 91500=
07280,1998-08-02 18:00:00,17,1020.5,0.6,88,15,20000,3.704,,,120,12.3,18.3,,,,,,,,60,wg-a,,,,AAXX 02184 07280 02470 81202 10170 20150 39938 40205 53006 61000 76062 8647/ 91800 333 10183 20123 6100=
07280,1998-08-02 21:00:00,15,1021.9,1.2,94,14,20000,0,,,0,,,,,,,,,,1,wg-a,,,,AAXX 02214 07280 02470 80000 10150 20140 39950 40219 50012 61000 70162 874// 92100 333 ////=
07280,1998-08-03 00:00:00,13,1022.1,-0,100,13,200,7.408,,,280,,,,,,,,,,44,wg-a,,,,AAXX 03004 07280 02/02 02804 10130 20130 39950 40221 55000 61000 74464 80000 90000 333 ////=
07280,1998-08-03 03:00:00,10,1023.5,1.1,100,10,400,3.704,,,340,,,,0,,,,,,44,wg-a,,,,AAXX 03034 07280 12104 43402 10100 20100 39961 40235 53011 60007 74441 84600 90300=
07280,1998-08-03 06:00:00,11,1024.2,0.7,100,11,200,11.112,,,30,10.1,16.9,,,,,4,,,44,wg-a,,,,AAXX 03064 07280 02/02 /0306 10110 20110 39968 40242 53007 60006 74441 80000 90600 333 10169 20101 60044=
07280,1998-08-03 09:00:00,17,1024.1,0.5,82,14,9000,7.408,,,70,,,,,,,,,,1,wg-a,,,,AAXX 03094 07280 12359 30704 10170 20140 39973 40241 50005 60006 70141 83201 90900=
07280,1998-08-03 12:00:00,22,1023,-0.6,65,15,20000,7.408,,,110,,,,,,,,,,1,wg-a,,,,AAXX 03124 07280 12570 31104 10220 20150 39967 40230 58006 60006 70141 83230 91200=
07280,1998-08-03 15:00:00,23,1022,-0.9,47,11,500,18.52,,,20,,,,,,,,,,,wg-a,,,,AAXX 03154 07280 12700 /0210 10230 20110 39958 40220 56009 60006 84400 91500=
07280,1998-08-03 18:00:00,23,1022,0,47,11,40000,18.52,,,20,10.8,24.7,,,,,,,,,wg-a,,,,AAXX 03184 07280 12782 30210 10230 20110 39958 40220 50000 60006 815/1 91800 333 10247 20108=
07280,1998-08-03 21:00:00,18,1024,1.5,68,12,35000,7.408,,,10,,,,,,,,,,,wg-a,,,,AAXX 03214 07280 12781 40104 10180 20120 39973 40240 53015 60006 815/2 92100=
07280,1998-08-04 00:00:00,14,1023.8,-0.5,82,11,25000,3.704,,,130,,,,,,,,,,,wg-a,,,,AAXX 04004 07280 12/75 21302 10140 20110 39968 40238 55005 60006 80001 90000=
07280,1998-08-04 03:00:00,13,1024.1,0.1,88,11,25000,11.112,,,340,,,,,,,,,,,wg-a,,,,AAXX 04034 07280 12/75 23406 10130 20110 39969 40241 50001 60006 80001 90300=
07280,1998-08-04 06:00:00,14,1024.2,0.2,88,12,15000,3.704,,,350,12,23,,,,,,,,,wg-a,,,,AAXX 04064 07280 02/65 23502 10140 20120 39971 40242 52002 60006 80001 90600 333 10230 20120 60004=
07280,1998-08-04 09:00:00,22,1025,1.5,53,12,20000,3.704,,,80,,,,,,,,,,,wg-a,,,,AAXX 04094 07280 12/70 60802 10220 20120 39986 40250 51015 60006 85051 90900=
07280,1998-08-04 12:00:00,27,1023.1,-1.4,39,12,25000,18.52,,,310,,,,,,,,,,,wg-a,,,,AAXX 04124 07280 12675 33110 10270 20120 39972 40231 56014 60006 82171 91200=
07280,1998-08-04 15:00:00,25,1023.4,0.2,54,15,500,22.224,,,310,,,,,,,,,,,wg-a,,,,AAXX 04154 07280 12600 /3112 10250 20150 39974 40234 53002 60006 84870 91500=
07280,1998-08-04 18:00:00,21,1025.2,1.4,73,16,15000,25.928,,,350,13.8,27.1,,,,,,,,,wg-a,,,,AAXX 04184 07280 12565 43514 10210 20160 39988 40252 52014 60006 84800 91800 333 10271 20138=
07280,1998-08-04 21:00:00,19,1027,1.6,83,16,15000,11.112,,,360,,,,,,,,,,,wg-a,,,,AAXX 04214 07280 12765 73606 10190 20160 30004 40270 53016 60006 875// 92100=
07280,1998-08-05 00:00:00,16,1027.4,0.1,88,14,15000,11.112,,,360,,,,,,,,,,,wg-a,,,,AAXX 05004 07280 12/65 03606 10160 20140 30005 40274 51001 60006 80000 90000=
07280,1998-08-05 03:00:00,15,1027.6,0.1,88,13,15000,22.224,,,360,,,,,,,,,,,wg-a,,,,AAXX 05034 07280 12/65 03612 10150 20130 30006 40276 53001 60006 80000 90300=
07280,1998-08-05 06:00:00,16,1028.3,0.7,77,12,15000,22.224,,,10,14.1,21.4,,,,,,,,,wg-a,,,,AAXX 05064 07280 02/65 00112 10160 20120 30013 40283 53007 60006 80000 90600 333 10214 20141 60004=
07280,1998-08-05 09:00:00,20,1028.7,0.7,53,10,20000,29.632,,,40,,,,,,,,,,,wg-a,,,,AAXX 05094 07280 12/70 10416 10200 20100 30020 40287 52007 60006 80002 90900=
07280,1998-08-05 12:00:00,24,1027.7,-0.6,36,8,25000,25.928,,,40,,,,,,,,,,,wg-a,,,,AAXX 05124 07280 12/75 10414 10240 20080 30014 40277 58006 60006 80002 91200=
07280,1998-08-05 15:00:00,25,1026.5,-1,34,8,500,25.928,,,40,,,,,,,,,,,wg-a,,,,AAXX 05154 07280 12/00 10414 10250 20080 30004 40265 58010 60006 80002 91500=
07280,1998-08-05 18:00:00,24,1026.3,-0.3,38,9,500,25.928,,,50,15.6,25.7,,,,,,,,,wg-a,,,,AAXX 05184 07280 12/00 20514 10240 20090 30001 40263 57003 60006 80001 91800 333 10257 20156=
07280,1998-08-05 21:00:00,18,1027.5,0.6,64,11,25000,14.816,,,20,,,,,,,,,,,wg-a,,,,AAXX 05214 07280 12/75 30208 10180 20110 30007 40275 51006 60006 80001 92100=
07280,1998-08-06 00:00:00,16,1027,-0.6,72,11,25000,18.52,,,10,,,,,,,,,,,wg-a,,,,AAXX 06004 07280 12/75 00110 10160 20110 30001 40270 58006 60006 80000 90000=
07280,1998-08-06 03:00:00,15,1026.7,-0.5,77,11,20000,14.816,,,10,,,,,,,,,,,wg-a,,,,AAXX 06034 07280 12/70 00108 10150 20110 39996 40267 56005 60006 80000 90300=
07280,1998-08-06 06:00:00,17,1026.2,-0.2,68,11,20000,18.52,,,20,13.6,23.9,,,,,,,,,wg-a,,,,AAXX 06064 07280 02/70 00210 10170 20110 39994 40262 57002 60006 80000 90600 333 10239 20136 60004=
07280,1998-08-06 09:00:00,23,1025.6,-0.1,47,11,25000,22.224,,,50,,,,,,,,,,,wg-a,,,,AAXX 06094 07280 12/75 00512 10230 20110 39993 40256 58001 60006 80000 90900=
07280,1998-08-06 12:00:00,26,1024.2,-1.1,37,10,25000,18.52,,,50,,,,,,,,,,,wg-a,,,,AAXX 06124 07280 12/75 00510 10260 20100 39982 40242 56011 60006 80000 91200=
07280,1998-08-06 15:00:00,28,1022.5,-1.5,30,9,500,14.816,,,80,,,,,,,,,,,wg-a,,,,AAXX 06154 07280 12/00 00808 10280 20090 39967 40225 56015 60006 80000 91500=
07280,1998-08-06 18:00:00,27,1022,-0.6,32,9,500,18.52,,,80,17.2,28.7,,,,,,,,,wg-a,,,,AAXX 06184 07280 12/00 00810 10270 20090 39961 40220 56006 60006 80000 91800 333 10287 20172=
07280,1998-08-06 21:00:00,20,1023.3,0.7,53,10,500,11.112,,,340,,,,,,,,,,,wg-a,,,,AAXX 06214 07280 12/00 13406 10200 20100 39968 40233 51007 60006 80001 92100=
07280,1998-08-07 00:00:00,18,1022.7,-0.8,59,10,25000,11.112,,,10,,,,,,,,,,,wg-a,,,,AAXX 07004 07280 12/75 00106 10180 20100 39960 40227 58008 60006 80000 90000=
07280,1998-08-07 03:00:00,16,1022.6,-0.2,68,10,25000,11.112,,,360,,,,,,,,,,,wg-a,,,,AAXX 07034 07280 12/75 03606 10160 20100 39958 40226 56002 60006 80000 90300=
07280,1998-08-07 06:00:00,18,1022.7,0.3,64,11,25000,14.816,,,20,15.6,26.8,,,,,,,,,wg-a,,,,AAXX 07064 07280 02/75 00208 10180 20110 39961 40227 53003 60006 80000 90600 333 10268 20156 60004=
07280,1998-08-07 09:00:00,25,1022.1,-0.1,44,12,10000,22.224,,,30,,,,,,,,,,,wg-a,,,,AAXX 07094 07280 12/60 /0312 10250 20120 39960 40221 58001 60006 90900=
07280,1998-08-07 12:00:00,29,1020.7,-1,31,10,35000,22.224,,,50,,,,,,,,,,,wg-a,,,,AAXX 07124 07280 12/81 10512 10290 20100 39950 40207 58010 60006 80001 91200=
07280,1998-08-07 15:00:00,31,1019.2,-1.3,29,11,40000,18.52,,,60,,,,,,,,,,,wg-a,,,,AAXX 07154 07280 12/82 10610 10310 20110 39937 40192 56013 60006 80001 91500=
07280,1998-08-07 18:00:00,29,1018.9,-0.4,40,14,40000,11.112,,,90,18.3,31.1,,,,,,,,,wg-a,,,,AAXX 07184 07280 12/82 10906 10290 20140 39933 40189 55004 60006 80001 91800 333 10311 20183=
07280,1998-08-07 21:00:00,23,1019.9,0.5,50,12,500,11.112,,,10,,,,,,,,,,,wg-a,,,,AAXX 07214 07280 12/00 20106 10230 20120 39938 40199 53005 60006 80001 92100=
07280,1998-08-08 00:00:00,20,1019.9,-0.3,60,12,500,11.112,,,360,,,,,,,,,,,wg-a,,,,AAXX 08004 07280 12/00 23606 10200 20120 39935 40199 58003 60006 80001 90000=
07280,1998-08-08 03:00:00,18,1019.1,-0.9,73,13,25000,11.112,,,10,,,,,,,,,,,wg-a,,,,AAXX 08034 07280 12/75 20106 10180 20130 39926 40191 56009 60006 80001 90300=
07280,1998-08-08 09:00:00,25,1018.2,-0.4,54,15,500,3.704,,,120,,,,,,,,,,,wg-a,,,,AAXX 08094 07280 12/00 11202 10250 20150 39923 40182 57004 60006 80001 90900=
07280,1998-08-08 12:00:00,31,1016.7,-1,31,12,500,14.816,,,200,,,,,,,,,,,wg-a,,,,AAXX 08124 07280 12/00 02008 10310 20120 39913 40167 58010 60006 80000 91200=
07280,1998-08-08 15:00:00,33,1015,-1.5,28,12,500,11.112,,,210,,,,,,,,,,,wg-a,,,,AAXX 08154 07280 12/00 02106 10330 20120 39898 40150 58015 60006 80000 91500=
07280,1998-08-08 18:00:00,31,1014.5,-0.6,38,15,500,11.112,,,190,18.4,33.2,,,,,,,,,wg-a,,,,AAXX 08184 07280 12/00 01906 10310 20150 39892 40145 55006 60006 80000 91800 333 10332 20184=
07280,1998-08-08 21:00:00,23,1015.9,0.6,61,15,500,0,,,0,,,,,,,,,,,wg-a,,,,AAXX 08214 07280 12/00 00000 10230 20150 39898 40159 53006 60006 80000 92100=
07280,1998-08-09 00:00:00,19,1016.1,0,78,15,25000,3.704,,,360,,,,,,,,,,,wg-a,,,,AAXX 09004 07280 12/75 03602 10190 20150 39898 40161 50000 60006 80000 90000=
07280,1998-08-09 03:00:00,18,1016.3,-0,77,14,25000,7.408,,,360,,,,,,,,,,,wg-a,,,,AAXX 09034 07280 12/75 03604 10180 20140 39898 40163 54000 60006 80000 90300=
07280,1998-08-09 06:00:00,18,1016.6,0.4,83,15,25000,7.408,,,10,16.4,30.8,,,,,,,,,wg-a,,,,AAXX 09064 07280 02/75 00104 10180 20150 39902 40166 53004 60006 80000 90600 333 10308 20164 60004=
07280,1998-08-09 09:00:00,27,1016,0.1,54,17,25000,3.704,,,160,,,,,,,,,,,wg-a,,,,AAXX 09094 07280 12/75 11602 10270 20170 39903 40160 51001 60006 80001 90900=
07280,1998-08-09 12:00:00,33,1014.8,-0.6,36,16,500,11.112,,,170,,,,,,,,,,,wg-a,,,,AAXX 09124 07280 12700 11706 10330 20160 39897 40148 58006 60006 81101 91200=
07280,1998-08-09 15:00:00,36,1013.2,-1.4,25,13,500,7.408,,,170,,,,,,,,,,,wg-a,,,,AAXX 09154 07280 12700 11704 10360 20130 39883 40132 57014 60006 81100 91500=
07280,1998-08-09 18:00:00,33,1012.6,-0.8,28,12,500,7.408,,,160,18.3,35.9,,,,,,,,,wg-a,,,,AAXX 09184 07280 12/00 11604 10330 20120 39875 40126 56008 60006 80001 91800 333 10359 20183=
07280,1998-08-09 21:00:00,24,1014.5,1.1,57,15,25000,0,,,0,,,,,,,,,,,wg-a,,,,AAXX 09214 07280 12/75 20000 10240 20150 39886 40145 51011 60006 80001 92100=
07280,1998-08-10 00:00:00,22,1015.3,0.6,60,14,25000,11.112,,,30,,,,,,,,,,,wg-a,,,,AAXX 10004 07280 12/75 20306 10220 20140 39892 40153 53006 60006 80001 90000=
07280,1998-08-10 03:00:00,20,1015.6,0.2,73,15,25000,7.408,,,340,,,,,,,,,,,wg-a,,,,AAXX 10034 07280 12/75 03404 10200 20150 39894 40156 52002 60006 80000 90300=
07280,1998-08-10 06:00:00,21,1016.3,0.7,73,16,20000,7.408,,,340,19,33.4,,,,,,,,,wg-a,,,,AAXX 10064 07280 02/70 23404 10210 20160 39901 40163 51007 60006 80001 90600 333 10334 20190 60004=
07280,1998-08-10 09:00:00,28,1016.5,0.8,55,18,25000,3.704,,,150,,,,,,,,,,,wg-a,,,,AAXX 10094 07280 12/75 11502 10280 20180 39909 40165 51008 60006 80001 90900=
07280,1998-08-10 12:00:00,35,1015.3,-0.6,32,16,500,18.52,,,200,,,,,,,,,,,wg-a,,,,AAXX 10124 07280 12800 22010 10350 20160 39903 40153 58006 60006 81101 91200=
07280,1998-08-10 15:00:00,36,1014.4,-0.8,24,12,500,14.816,,,180,,,,,,,,,,,wg-a,,,,AAXX 10154 07280 12800 21808 10360 20120 39895 40144 57008 60006 81101 91500=
07280,1998-08-10 18:00:00,33,1014.7,0.1,34,15,500,14.816,,,180,20.5,36.6,,,,,,,,,wg-a,,,,AAXX 10184 07280 12800 11808 10330 20150 39896 40147 53001 60006 81101 91800 333 10366 20205=
07280,1998-08-10 21:00:00,25,1016.4,1,57,16,500,7.408,,,260,,,,,,,,,,,wg-a,,,,AAXX 10214 07280 12/00 12604 10250 20160 39906 40164 51010 60006 80001 92100=
07280,1998-08-11 00:00:00,22,1017.4,0.6,65,15,25000,0,,,0,,,,,,,,,,,wg-a,,,,AAXX 11004 07280 12/75 00000 10220 20150 39912 40174 51006 60006 80000 90000=
07280,1998-08-11 03:00:00,18,1017.8,0.1,77,14,25000,0,,,0,,,,,,,,,,,wg-a,,,,AAXX 11034 07280 12/75 00000 10180 20140 39913 40178 51001 60006 80000 90300=
07280,1998-08-11 06:00:00,19,1018.4,0.7,78,15,15000,3.704,,,350,17.1,33,,,,,,,,,wg-a,,,,AAXX 11064 07280 02/65 03502 10190 20150 39920 40184 52007 60006 80000 90600 333 10330 20171 60004=
07280,1998-08-11 09:00:00,28,1018.1,0.5,51,17,20000,7.408,,,150,,,,,,,,,,,wg-a,,,,AAXX 11094 07280 12/70 01504 10280 20170 39925 40181 51005 60006 80000 90900=
07280,1998-08-11 12:00:00,36,1016.4,-1.1,31,16,25000,14.816,,,210,,,,,,,,,,,wg-a,,,,AAXX 11124 07280 12875 12108 10360 20160 39914 40164 57011 60006 81100 91200=
07280,1998-08-11 15:00:00,37,1014.9,-1.3,22,12,25000,14.816,,,170,,,,,,,,,,,wg-a,,,,AAXX 11154 07280 12/75 11708 10370 20120 39901 40149 57013 60006 81100 91500=
07280,1998-08-11 18:00:00,34,1014.9,-0.2,34,16,25000,11.112,,,190,19.3,37.4,,,,,,,,,wg-a,,,,AAXX 11184 07280 12/75 01906 10340 20160 39899 40149 55002 60006 80000 91800 333 10374 20193=
07280,1998-08-11 21:00:00,26,1016.2,0.5,54,16,25000,0,,,0,,,,,,,,,,,wg-a,,,,AAXX 11214 07280 12/75 00000 10260 20160 39904 40162 52005 60006 80000 92100=
07280,1998-08-12 06:00:00,20,1016.1,0.1,83,17,20000,3.704,,,10,19.1,34.2,,,,,,,,,wg-a,,,,AAXX 12064 07280 02/70 20102 10200 20170 39899 40161 52001 60006 81081 90600 333 10342 20191 60004=
07280,1998-08-12 09:00:00,30,1015.4,0.1,46,17,500,7.408,,,160,,,,,,,,,,,wg-a,,,,AAXX 12094 07280 12/00 31604 10300 20170 39900 40154 52001 60006 80001 90900=
07280,1998-08-12 12:00:00,35,1013.5,-1.4,34,17,40000,7.408,,,190,,,,,,,,,,,wg-a,,,,AAXX 12124 07280 12/82 41904 10350 20170 39886 40135 58014 60006 83081 91200=
07280,1998-08-12 18:00:00,31,1012.8,0.4,40,16,20000,22.224,,,340,20.4,36.6,,,,,,,,,wg-a,,,,AAXX 12184 07280 12770 83412 10310 20160 39875 40128 53004 60006 83202 91800 333 10366 20204=
07280,1998-08-12 21:00:00,27,1015.5,2.3,45,14,20000,11.112,,,350,,,,,,,,,,17,wg-a,,,,AAXX 12214 07280 12770 83506 10270 20140 39898 40155 53023 60006 71792 82982 92100=
07280,1998-08-13 00:00:00,22,1017.6,1.7,69,16,20000,7.408,,,210,,,,,,,,,,17,wg-a,,,,AAXX 13004 07280 12670 82104 10220 20160 39915 40176 50017 60006 71792 82972 90000=
07280,1998-08-13 03:00:00,20,1015.5,-2.3,88,18,12000,11.112,,,360,,,,2,,,,,,61,wg-a,,,,AAXX 13034 07280 12/62 83606 10200 20180 39892 40155 56023 60027 76198 8807/ 90300=
07280,1998-08-13 06:00:00,17,1017.3,1.5,77,13,20000,18.52,,,350,17.1,30.7,,,,,3,,,3,wg-a,,,,AAXX 13064 07280 02470 73510 10170 20130 39907 40173 52015 60006 70398 83281 90600 333 10307 20171 60034=
07280,1998-08-13 09:00:00,21,1017.2,0.3,64,14,40000,11.112,,,10,,,,,,,,,,,wg-a,,,,AAXX 13094 07280 12/82 20106 10210 20140 39910 40172 51003 60006 81081 90900=
07280,1998-08-13 12:00:00,25,1016.5,-0.4,44,12,40000,11.112,,,360,,,,,,,,,,,wg-a,,,,AAXX 13124 07280 12782 23606 10250 20120 39906 40165 58004 60006 82101 91200=
07280,1998-08-13 15:00:00,27,1015.5,-0.8,26,6,40000,14.816,,,270,,,,,,,,,,,wg-a,,,,AAXX 13154 07280 12882 32708 10270 20060 39898 40155 57008 60006 81101 91500=
07280,1998-08-13 18:00:00,24,1015.2,-0.5,34,7,40000,18.52,,,360,17.1,27.6,,,,,,,,,wg-a,,,,AAXX 13184 07280 12/82 63610 10240 20070 39893 40152 56005 60006 814/2 91800 333 10276 20171=
07280,1998-08-13 21:00:00,19,1017.3,1.5,49,8,500,11.112,,,30,,,,,,,,,,,wg-a,,,,AAXX 13214 07280 12/00 70306 10190 20080 39908 40173 53015 60006 80002 92100=
07280,1998-08-14 00:00:00,15,1017.9,0.3,63,8,25000,7.408,,,10,,,,,,,,,,,wg-a,,,,AAXX 14004 07280 12/75 70104 10150 20080 39911 40179 50003 60006 81032 90000=
07280,1998-08-14 03:00:00,13,1017.5,-0.6,77,9,25000,7.408,,,350,,,,,,,,,,,wg-a,,,,AAXX 14034 07280 12/75 73504 10130 20090 39905 40175 56006 60006 81032 90300=
07280,1998-08-14 06:00:00,15,1016.9,-0.4,67,9,40000,11.112,,,340,12.1,24.4,,,,,,,,,wg-a,,,,AAXX 14064 07280 02/82 33406 10150 20090 39901 40169 55004 60006 81081 90600 333 10244 20121 60004=
07280,1998-08-14 09:00:00,21,1016,-0.3,46,9,40000,7.408,,,70,,,,,,,,,,,wg-a,,,,AAXX 14094 07280 12/82 30704 10210 20090 39898 40160 58003 60006 80002 90900=
07280,1998-08-14 12:00:00,25,1014.8,-0.9,32,7,40000,14.816,,,30,,,,,,,,,,,wg-a,,,,AAXX 14124 07280 12/82 30308 10250 20070 39889 40148 58009 60006 80002 91200=
07280,1998-08-14 15:00:00,27,1013,-1.6,28,7,40000,11.112,,,80,,,,,,,,,,,wg-a,,,,AAXX 14154 07280 12/82 40806 10270 20070 39873 40130 58016 60006 80002 91500=
07280,1998-08-15 03:00:00,15,1014.4,0.1,67,9,500,11.112,,,340,,,,,,,,,,,wg-a,,,,AAXX 15034 07280 12/00 13406 10150 20090 39877 40144 53001 60006 80001 90300=
07280,1998-08-15 06:00:00,15,1015.3,0.8,72,10,500,0,,,0,12,25,,,,,,,,,wg-a,,,,AAXX 15064 07280 02/00 40000 10150 20100 39885 40153 53008 60006 80001 90600 333 10250 20120 60004=
07280,1998-08-15 09:00:00,23,1015.6,1,44,10,40000,7.408,,,160,,,,,,,,,,,wg-a,,,,AAXX 15094 07280 12/82 51604 10230 20100 39895 40156 51010 60006 80001 90900=
07280,1998-08-15 12:00:00,29,1014.6,-0.4,33,11,40000,7.408,,,170,,,,,,,,,,,wg-a,,,,AAXX 15124 07280 12/82 21704 10290 20110 39891 40146 58004 60006 80001 91200=
07280,1998-08-15 15:00:00,31,1014.2,-0.3,27,10,40000,11.112,,,170,,,,,,,,,,,wg-a,,,,AAXX 15154 07280 12/82 31706 10310 20100 39888 40142 57003 60006 80001 91500=
07280,1998-08-15 18:00:00,28,1014.5,0.1,35,11,40000,7.408,,,170,14.6,31.1,,,,,,,,,wg-a,,,,AAXX 15184 07280 12/82 41704 10280 20110 39889 40145 53001 60006 80002 91800 333 10311 20146=
07280,1998-08-16 15:00:00,32,1016.9,-1.6,26,10,50000,14.816,,,180,,,,,,,,,,,wg-a,,,,AAXX 16154 07280 12884 41808 10320 20100 39916 40169 56016 60006 81102 91500=
07280,1998-08-16 21:00:00,23,1018.5,1.1,53,13,500,3.704,,,220,,,,,,,,,,,wg-a,,,,AAXX 16214 07280 12/00 12202 10230 20130 39924 40185 51011 60006 80002 92100=
07280,1998-08-17 00:00:00,21,1018.3,-0.4,56,12,25000,7.408,,,360,,,,,,,,,,,wg-a,,,,AAXX 17004 07280 12/75 13604 10210 20120 39920 40183 57004 60006 80001 90000=
07280,1998-08-17 03:00:00,20,1017.9,-0.5,60,12,25000,11.112,,,330,,,,,,,,,,,wg-a,,,,AAXX 17034 07280 12/75 13306 10200 20120 39915 40179 56005 60006 80001 90300=
07280,1998-08-17 06:00:00,19,1018.3,0.4,68,13,500,7.408,,,340,18,29.5,,,,,,,,,wg-a,,,,AAXX 17064 07280 02/00 03404 10190 20130 39919 40183 53004 60006 80000 90600 333 10295 20180 60004=
07280,1998-08-17 09:00:00,26,1018.1,0.3,48,14,500,7.408,,,100,,,,,,,,,,,wg-a,,,,AAXX 17094 07280 12/00 01004 10260 20140 39922 40181 50003 60006 80000 90900=
07280,1998-08-17 12:00:00,32,1016.1,-1.4,34,14,500,11.112,,,140,,,,,,,,,,,wg-a,,,,AAXX 17124 07280 12800 11406 10320 20140 39908 40161 58014 60006 81200 91200=
07280,1998-08-17 15:00:00,26,1014.9,-1.6,54,16,500,14.816,,,190,,,,2,,,,,,17,wg-a,,,,AAXX 17154 07280 12800 51908 10260 20160 39892 40149 56016 60027 71798 85900 91500=
07280,1998-08-17 18:00:00,23,1014.9,-0.3,69,17,500,14.816,,,280,19,32.7,,,,,,,,80,wg-a,,,,AAXX 17184 07280 02700 72808 10230 20170 39889 40149 58003 61000 78098 85902 91800 333 10327 20190 6000=
07280,1998-08-17 21:00:00,23,1016.5,1.6,65,16,25000,18.52,,,280,,,,,,,,,,17,wg-a,,,,AAXX 17214 07280 02775 82810 10230 20160 39905 40165 53016 61000 71798 8397/ 92100 333 ////=
07280,1998-08-18 00:00:00,21,1016.3,-0.4,78,17,20000,14.816,,,10,,,,2,,,,,,17,wg-a,,,,AAXX 18004 07280 02770 80108 10210 20170 39901 40163 58004 60026 71798 8397/ 90000 333 60027=
07280,1998-08-18 03:00:00,18,1016.4,-0.1,94,17,15000,11.112,,,180,,,,1,,,,,,1,wg-a,,,,AAXX 18034 07280 12/65 71806 10180 20170 39900 40164 58001 60017 70196 8707/ 90300=
07280,1998-08-18 06:00:00,18,1016.6,0.2,100,18,500,0,,,0,17.5,23.3,,,,,5,,,2,wg-a,,,,AAXX 18064 07280 02/00 70000 10180 20180 39902 40166 50002 60006 70296 8703/ 90600 333 10233 20175 60054=
07280,1998-08-18 09:00:00,21,1017.5,1.1,78,17,12000,3.704,,,230,,,,,,,,,,,wg-a,,,,AAXX 18094 07280 12462 /2302 10210 20170 39913 40175 51011 60006 81130 90900=
07280,1998-08-18 12:00:00,25,1016.3,-0.8,57,16,25000,11.112,,,130,,,,,,,,,,,wg-a,,,,AAXX 18124 07280 12675 31306 10250 20160 39905 40163 56008 60006 81231 91200=
07280,1998-08-18 15:00:00,27,1015.2,-1,48,15,35000,7.408,,,120,,,,,,,,,,,wg-a,,,,AAXX 18154 07280 12781 31204 10270 20150 39895 40152 56010 60006 81902 91500=
07280,1998-08-18 18:00:00,25,1015.7,0.4,54,15,25000,11.112,,,60,18.1,27,,,,,,,,,wg-a,,,,AAXX 18184 07280 12775 50606 10250 20150 39899 40157 53004 60006 83202 91800 333 10270 20181=
07280,1998-08-18 21:00:00,21,1017.1,1,83,18,20000,7.408,,,10,,,,0,,,,,,2,wg-a,,,,AAXX 18214 07280 12770 30104 10210 20180 39909 40171 53010 60007 70286 81201 92100=
07280,1998-08-19 00:00:00,18,1018.1,0.7,77,14,20000,11.112,,,340,,,,,,,,,,2,wg-a,,,,AAXX 19004 07280 12770 33406 10180 20140 39916 40181 51007 60016 70286 81501 90000=
07280,1998-08-19 03:00:00,17,1018.2,-0,82,14,20000,11.112,,,350,,,,,,,,,,,wg-a,,,,AAXX 19034 07280 12770 23506 10170 20140 39916 40182 55000 60006 81501 90300=
07280,1998-08-19 06:00:00,17,1018.9,0.7,88,15,25000,11.112,,,340,15.9,25.1,,,,,,,,,wg-a,,,,AAXX 19064 07280 02/75 13406 10170 20150 39923 40189 53007 60006 80002 90600 333 10251 20159 60004=
07280,1998-08-19 09:00:00,22,1018.8,0.4,65,15,500,11.112,,,40,,,,,,,,,,,wg-a,,,,AAXX 19094 07280 12500 /0406 10220 20150 39927 40188 51004 60006 81200 90900=
07280,1998-08-19 12:00:00,27,1017.9,-0.6,42,13,500,7.408,,,20,,,,,,,,,,,wg-a,,,,AAXX 19124 07280 12700 20204 10270 20130 39921 40179 58006 60006 82200 91200=
07280,1998-08-19 15:00:00,27,1016.7,-1.1,39,12,40000,14.816,,,20,,,,,,,,,,,wg-a,,,,AAXX 19154 07280 12882 30208 10270 20120 39910 40167 56011 60006 83400 91500=
07280,1998-08-19 18:00:00,26,1016.4,-0.4,42,12,500,7.408,,,20,17,28.3,,,,,,,,,wg-a,,,,AAXX 19184 07280 12800 30204 10260 20120 39906 40164 56004 60006 814/1 91800 333 10283 20170=
07280,1998-08-19 21:00:00,22,1018,1.2,50,11,500,11.112,,,10,,,,,,,,,,,wg-a,,,,AAXX 19214 07280 12/00 10106 10220 20110 39918 40180 51012 60006 80001 92100=
07280,1998-08-20 00:00:00,18,1018.3,0,64,11,25000,11.112,,,340,,,,,,,,,,,wg-a,,,,AAXX 20004 07280 12/75 33406 10180 20110 39918 40183 50000 60006 83030 90000=
07280,1998-08-20 03:00:00,17,1017.7,-0.7,68,11,25000,7.408,,,330,,,,,,,,,,,wg-a,,,,AAXX 20034 07280 12/75 03304 10170 20110 39911 40177 56007 60006 80000 90300=
07280,1998-08-20 06:00:00,17,1018.3,0.5,77,13,25000,7.408,,,320,15.5,25.5,,,,,,,,,wg-a,,,,AAXX 20064 07280 02575 /3204 10170 20130 39916 40183 53005 60006 81201 90600 333 10255 20155 60004=
07280,1998-08-20 09:00:00,24,1017.9,0.3,50,13,500,7.408,,,160,,,,,,,,,,,wg-a,,,,AAXX 20094 07280 12600 21604 10240 20130 39919 40179 51003 60006 81201 90900=
07280,1998-08-20 12:00:00,29,1016.3,-1.2,29,9,40000,18.52,,,240,,,,,,,,,,,wg-a,,,,AAXX 20124 07280 12/82 22410 10290 20090 39907 40163 58012 60006 82201 91200=
07280,1998-08-20 15:00:00,29,1015.5,-0.8,29,9,40000,25.928,,,280,,,,,,,,,,,wg-a,,,,AAXX 20154 07280 12/82 22814 10290 20090 39899 40155 56008 60006 82400 91500=
07280,1998-08-20 18:00:00,26,1015.1,-0.6,34,9,40000,18.52,,,270,16.7,29.6,,,,,,,,,wg-a,,,,AAXX 20184 07280 12/82 22710 10260 20090 39893 40151 56006 60006 81101 91800 333 10296 20167=
07280,1998-08-20 21:00:00,19,1016.4,0.7,52,9,25000,11.112,,,270,,,,,,,,,,,wg-a,,,,AAXX 20214 07280 12775 32706 10190 20090 39900 40164 50007 60006 81102 92100=
07280,1998-08-21 00:00:00,17,1016.5,-0.1,59,9,25000,3.704,,,230,,,,,,,,,,,wg-a,,,,AAXX 21004 07280 12/75 32302 10170 20090 39899 40165 58001 60006 81032 90000=
07280,1998-08-21 03:00:00,16,1015.7,-0.9,68,10,20000,7.408,,,200,,,,,,,,,,,wg-a,,,,AAXX 21034 07280 12/70 32004 10160 20100 39890 40157 58009 60006 80002 90300=
07280,1998-08-21 06:00:00,16,1015.4,-0.2,77,12,25000,14.816,,,180,15.3,26,,,,,,,,60,wg-a,,,,AAXX 21064 07280 02675 81808 10160 20120 39888 40154 55002 61000 76061 8157/ 90600 333 10260 20153 6100=
07280,1998-08-21 09:00:00,16,1015.7,0.3,88,14,20000,29.632,,,230,,,,1,,,,,,60,wg-a,,,,AAXX 21094 07280 12570 82316 10160 20140 39891 40157 51003 60017 76062 8117/ 90900=
07280,1998-08-21 12:00:00,17,1015.1,-0.6,77,13,25000,18.52,,,200,,,,,,,,,,21,wg-a,,,,AAXX 21124 07280 02575 82010 10170 20130 39885 40151 57006 60016 72162 888// 91200 333 61000=
07280,1998-08-21 15:00:00,18,1014.1,-0.8,77,14,10000,22.224,,,220,,,,,,,,,,51,wg-a,,,,AAXX 21154 07280 02460 82212 10180 20140 39877 40141 58008 61000 75165 8557/ 91500 333 ////=
07280,1998-08-21 18:00:00,19,1013,-1,78,15,8000,29.632,,,230,15.4,18.8,,,,,,,,3,wg-a,,,,AAXX 21184 07280 02458 72316 10190 20150 39867 40130 55010 60006 70365 878// 91800 333 10188 20154 61000=
07280,1998-08-21 21:00:00,18,1013.6,0.5,88,16,20000,25.928,,,210,,,,,,,,,,1,wg-a,,,,AAXX 21214 07280 02470 72114 10180 20160 39872 40136 53005 61000 70165 875// 92100 333 ////=
07280,1998-08-22 00:00:00,17,1014.6,0.9,100,17,10000,18.52,,,250,,,,2,,,,,,61,wg-a,,,,AAXX 22004 07280 02260 82510 10170 20170 39881 40146 53009 60026 76165 885// 90000 333 60027=
07280,1998-08-22 03:00:00,17,1014.9,0.2,77,13,20000,22.224,,,300,,,,,,,,,,1,wg-a,,,,AAXX 22034 07280 02570 73012 10170 20130 39883 40149 53002 61000 70162 8253/ 90300 333 ////=
07280,1998-08-22 06:00:00,15,1015.9,0.9,88,13,40000,3.704,,,160,15,18.6,,,,,3,,,1,wg-a,,,,AAXX 22064 07280 02582 71602 10150 20130 39892 40159 53009 60006 70162 8173/ 90600 333 10186 20150 60034=
07280,1998-08-22 09:00:00,18,1015.8,0.2,68,12,40000,11.112,,,190,,,,,,,,,,,wg-a,,,,AAXX 22094 07280 12582 81906 10180 20120 39894 40158 50002 60006 85202 90900=
07280,1998-08-22 12:00:00,18,1015,-0.8,77,14,40000,18.52,,,210,,,,,,,,,,,wg-a,,,,AAXX 22124 07280 12582 82110 10180 20140 39886 40150 56008 60006 875// 91200=
07280,1998-08-22 15:00:00,18,1013,-2,88,16,8000,22.224,,,200,,,,0,,,,,,20,wg-a,,,,AAXX 22154 07280 12458 82012 10180 20160 39866 40130 58020 60007 72065 877// 91500=
07280,1998-08-22 18:00:00,18,1012.2,-0.7,94,17,4000,11.112,,,190,15.1,19,,,,,,,,51,wg-a,,,,AAXX 22184 07280 02440 81906 10180 20170 39859 40122 56007 61000 75165 887// 91800 333 10190 20151 6001=
07280,1998-08-22 21:00:00,18,1013,0.8,100,18,12000,18.52,,,220,,,,3,,,,,,21,wg-a,,,,AAXX 22214 07280 12362 82210 10180 20180 39867 40130 53008 60037 72165 885// 92100=
07280,1998-08-23 00:00:00,15,1016.7,3.2,82,12,20000,22.224,,,340,,,,3,,,,,,1,wg-a,,,,AAXX 23004 07280 02770 43412 10150 20120 39899 40167 51032 60066 70165 84500 90000 333 60037=
07280,1998-08-23 03:00:00,11,1018.2,1.1,100,11,15000,7.408,,,360,,,,,,,,,,,wg-a,,,,AAXX 23034 07280 12/65 03604 10110 20110 39910 40182 51011 60006 80000 90300=
07280,1998-08-23 06:00:00,11,1019.2,1,100,11,15000,3.704,,,40,10.1,18.2,,,,,7,,,11,wg-a,,,,AAXX 23064 07280 02/65 40402 10110 20110 39920 40192 53010 60006 71100 80001 90600 333 10182 20101 60074=
07280,1998-08-23 09:00:00,17,1019.5,0.8,72,12,500,7.408,,,40,,,,,,,,,,,wg-a,,,,AAXX 23094 07280 12500 30404 10170 20120 39928 40195 52008 60006 83200 90900=
07280,1998-08-23 12:00:00,20,1018.6,-0.5,56,11,40000,11.112,,,160,,,,,,,,,,,wg-a,,,,AAXX 23124 07280 12682 31606 10200 20110 39923 40186 58005 60006 83200 91200=
07280,1998-08-23 15:00:00,24,1016.6,-1.7,41,10,40000,14.816,,,220,,,,,,,,,,,wg-a,,,,AAXX 23154 07280 12682 22208 10240 20100 39906 40166 58017 60006 81402 91500=
07280,1998-08-23 18:00:00,22,1015.6,-1.1,50,11,75000,14.816,,,230,11.2,24.2,,,,,,,,,wg-a,,,,AAXX 23184 07280 12/89 52308 10220 20110 39895 40156 56011 60006 82034 91800 333 10242 20112=
07280,1998-08-23 21:00:00,18,1016.2,0.2,68,12,40000,11.112,,,190,,,,,,,,,,,wg-a,,,,AAXX 23214 07280 12/82 01906 10180 20120 39897 40162 50002 60006 80000 92100=
07280,1998-08-24 00:00:00,16,1014.9,-1.5,77,12,500,11.112,,,170,,,,,,,,,,,wg-a,,,,AAXX 24004 07280 12/00 51706 10160 20120 39882 40149 58015 60006 80002 90000=
07280,1998-08-24 03:00:00,17,1013.2,-1.5,77,13,500,18.52,,,210,,,,,,,,,,,wg-a,,,,AAXX 24034 07280 12700 82110 10170 20130 39867 40132 57015 60006 885// 90300=
07280,1998-08-24 06:00:00,16,1013.4,0.1,88,14,6000,25.928,,,200,15.1,21.8,,,,,,,,61,wg-a,,,,AAXX 24064 07280 02456 82014 10160 20140 39868 40134 53001 61000 76162 888// 90600 333 10218 20151 6000=
07280,1998-08-24 09:00:00,15,1015.1,1.6,94,14,500,14.816,,,320,,,,2,,,,,,10,wg-a,,,,AAXX 24094 07280 12200 83208 10150 20140 39884 40151 53016 60027 71065 885// 90900=
07280,1998-08-24 12:00:00,16,1016.2,1.2,88,14,500,14.816,,,290,,,,0,,,,,,21,wg-a,,,,AAXX 24124 07280 02400 /2908 10160 20140 39896 40162 53012 60026 72165 878// 91200 333 60007=
07280,1998-08-24 15:00:00,21,1016.5,0.6,53,11,40000,18.52,,,270,,,,,,,,,,,wg-a,,,,AAXX 24154 07280 12682 32710 10210 20110 39902 40165 51006 60006 83800 91500=
07280,1998-08-24 18:00:00,19,1017.7,1.1,64,12,500,14.816,,,320,14.3,20.8,,,,,,,,,wg-a,,,,AAXX 24184 07280 12600 /3208 10190 20120 39913 40177 53011 60006 86800 91800 333 10208 20143=
07280,1998-08-24 21:00:00,16,1020,2,88,14,25000,3.704,,,250,,,,0,,,,,,,wg-a,,,,AAXX 24214 07280 12675 82502 10160 20140 39933 40200 51020 60007 888// 92100=
07280,1998-08-25 00:00:00,14,1020.6,0.4,94,13,20000,11.112,,,320,,,,,,,,,,1,wg-a,,,,AAXX 25004 07280 12770 33206 10140 20130 39937 40206 52004 60006 70187 83500 90000=
07280,1998-08-25 03:00:00,13,1021,0.2,94,12,20000,3.704,,,310,,,,,,,,,,,wg-a,,,,AAXX 25034 07280 12770 53102 10130 20120 39939 40210 53002 60006 85500 90300=
07280,1998-08-25 06:00:00,12,1021.7,0.6,94,11,15000,7.408,,,350,11.7,19,,,,,3,,,,wg-a,,,,AAXX 25064 07280 02765 13504 10120 20110 39945 40217 53006 60006 81500 90600 333 10190 20117 60034=
07280,1998-08-25 09:00:00,18,1021.6,0.5,68,12,20000,7.408,,,10,,,,,,,,,,,wg-a,,,,AAXX 25094 07280 12570 /0104 10180 20120 39950 40216 51005 60006 81800 90900=
07280,1998-08-25 12:00:00,21,1021,-0.4,46,9,25000,7.408,,,110,,,,,,,,,,,wg-a,,,,AAXX 25124 07280 12675 41104 10210 20090 39946 40210 58004 60006 84800 91200=
07280,1998-08-25 15:00:00,22,1019.7,-1.1,43,9,35000,3.704,,,280,,,,,,,,,,,wg-a,,,,AAXX 25154 07280 12781 32802 10220 20090 39935 40197 58011 60006 83800 91500=
07280,1998-08-25 18:00:00,21,1019.1,-0.7,49,10,40000,3.704,,,80,12.3,22.8,,,,,,,,,wg-a,,,,AAXX 25184 07280 12782 10802 10210 20100 39928 40191 56007 60006 81100 91800 333 10228 20123=
07280,1998-08-25 21:00:00,15,1020.2,0.5,77,11,25000,3.704,,,340,,,,,,,,,,,wg-a,,,,AAXX 25214 07280 12775 23402 10150 20110 39933 40202 52005 60006 81101 92100=
07280,1998-08-26 00:00:00,13,1019.8,-0.6,82,10,25000,7.408,,,340,,,,,,,,,,,wg-a,,,,AAXX 26004 07280 12/75 13404 10130 20100 39927 40198 58006 60006 80001 90000=
07280,1998-08-26 03:00:00,10,1019.2,-0.8,100,10,20000,3.704,,,350,,,,,,,,,,,wg-a,,,,AAXX 26034 07280 12/70 23502 10100 20100 39919 40192 56008 60006 80001 90300=
07280,1998-08-26 06:00:00,10,1019,-0.3,93,9,10000,0,,,0,8.8,20.9,,,,,,,,,wg-a,,,,AAXX 26064 07280 02/60 00000 10100 20090 39916 40190 56003 60006 80000 90600 333 10209 20088 60004=
07280,1998-08-26 09:00:00,19,1017.6,-0.5,68,13,25000,7.408,,,170,,,,,,,,,,,wg-a,,,,AAXX 26094 07280 12575 /1704 10190 20130 39911 40176 58005 60006 81100 90900=
07280,1998-08-26 12:00:00,25,1015.4,-1.6,39,10,40000,14.816,,,210,,,,,,,,,,,wg-a,,,,AAXX 26124 07280 12782 12108 10250 20100 39895 40154 58016 60006 81100 91200=
07280,1998-08-26 15:00:00,26,1013.7,-1.5,34,9,40000,18.52,,,290,,,,,,,,,,,wg-a,,,,AAXX 26154 07280 12782 12910 10260 20090 39880 40137 56015 60006 81100 91500=
07280,1998-08-26 18:00:00,23,1013.9,-0.1,44,10,500,11.112,,,320,9.7,26.7,,,,,,,,,wg-a,,,,AAXX 26184 07280 12700 13206 10230 20100 39879 40139 57001 60006 81401 91800 333 10267 20097=
07280,1998-08-26 21:00:00,19,1015.4,1.1,60,11,500,18.52,,,340,,,,,,,,,,,wg-a,,,,AAXX 26214 07280 12/00 03410 10190 20110 39890 40154 51011 60006 80000 92100=
07280,1998-08-27 00:00:00,16,1016.3,0.6,72,11,500,14.816,,,360,,,,,,,,,,,wg-a,,,,AAXX 27004 07280 12/00 03608 10160 20110 39896 40163 51006 60006 80000 90000=
07280,1998-08-27 03:00:00,13,1016.5,-0.1,88,11,500,7.408,,,40,,,,,,,,,,,wg-a,,,,AAXX 27034 07280 12700 30404 10130 20110 39895 40165 58001 60006 83500 90300=
07280,1998-08-27 06:00:00,14,1017.2,0.8,88,12,9000,25.928,,,20,12.4,23.3,,,,,,,,50,wg-a,,,,AAXX 27064 07280 02459 80214 10140 20120 39903 40172 53008 61000 75051 887// 90600 333 10233 20124 6100=
07280,1998-08-27 09:00:00,16,1018.2,1.2,55,7,500,29.632,,,30,,,,,,,,,,1,wg-a,,,,AAXX 27094 07280 02600 20316 10160 20070 39915 40182 51012 61000 70151 82800 90900 333 ////=
07280,1998-08-27 12:00:00,19,1017.9,-0.1,40,5,40000,25.928,,,30,,,,,,,,,,1,wg-a,,,,AAXX 27124 07280 02782 40314 10190 20050 39914 40179 58001 61000 70151 84400 91200 333 ////=
07280,1998-08-27 15:00:00,18,1018.5,0.5,42,5,40000,25.928,,,20,,,,,,,,,,,wg-a,,,,AAXX 27154 07280 12782 70214 10180 20050 39919 40185 52005 60006 875// 91500=
07280,1998-08-27 18:00:00,16,1018.9,0.2,48,5,40000,25.928,,,10,13.8,18.8,,,,,,,,,wg-a,,,,AAXX 27184 07280 12782 30114 10160 20050 39921 40189 51002 60006 83500 91800 333 10188 20138=
07280,1998-08-27 21:00:00,12,1020.5,1.2,71,7,500,14.816,,,10,,,,,,,,,,,wg-a,,,,AAXX 27214 07280 12700 20108 10120 20070 39933 40205 51012 60006 82500 92100=
07280,1998-08-28 00:00:00,11,1020.8,0.2,76,7,500,22.224,,,360,,,,,,,,,,,wg-a,,,,AAXX 28004 07280 12700 53612 10110 20070 39935 40208 50002 60006 85500 90000=
07280,1998-08-28 03:00:00,9,1020.8,-0.2,81,6,500,18.52,,,10,,,,,,,,,,,wg-a,,,,AAXX 28034 07280 12/00 00110 10090 20060 39933 40208 56002 60006 80000 90300=
07280,1998-08-28 06:00:00,9,1021.5,0.7,81,6,25000,14.816,,,20,8.2,15.5,,,,,,,,,wg-a,,,,AAXX 28064 07280 02/75 00208 10090 20060 39940 40215 53007 60006 80000 90600 333 10155 20082 61000=
07280,1998-08-28 09:00:00,15,1021.1,0.2,59,7,40000,29.632,,,360,,,,,,,,,,,wg-a,,,,AAXX 28094 07280 12582 33616 10150 20070 39942 40211 51002 60006 83200 90900=
07280,1998-08-28 12:00:00,18,1020.2,-0.7,39,4,75000,25.928,,,20,,,,,,,,,,,wg-a,,,,AAXX 28124 07280 12689 30214 10180 20040 39935 40202 58007 60006 83200 91200=
07280,1998-08-28 15:00:00,18,1019.7,-0.4,37,3,75000,25.928,,,30,,,,,,,,,,,wg-a,,,,AAXX 28154 07280 12889 20314 10180 20030 39931 40197 56004 60006 82400 91500=
07280,1998-08-28 18:00:00,17,1020.1,0.2,42,4,35000,25.928,,,30,9.1,19.4,,,,,,,,,wg-a,,,,AAXX 28184 07280 12881 70314 10170 20040 39933 40201 53002 60006 875// 91800 333 10194 20091=
07280,1998-08-28 21:00:00,13,1021.5,1.1,58,5,500,11.112,,,20,,,,,,,,,,,wg-a,,,,AAXX 28214 07280 12700 50206 10130 20050 39944 40215 51011 60006 85500 92100=
07280,1998-08-29 00:00:00,12,1021.2,-0.4,62,5,25000,14.816,,,10,,,,,,,,,,,wg-a,,,,AAXX 29004 07280 12775 30108 10120 20050 39940 40212 58004 60006 83500 90000=
07280,1998-08-29 03:00:00,10,1020.9,-0.5,71,5,25000,14.816,,,10,,,,,,,,,,,wg-a,,,,AAXX 29034 07280 12/75 00108 10100 20050 39935 40209 56005 60006 80000 90300=
07280,1998-08-29 06:00:00,10,1021.3,0.4,76,6,20000,11.112,,,20,8.8,16.6,,,,,,,,,wg-a,,,,AAXX 29064 07280 02770 70206 10100 20060 39939 40213 53004 60006 875// 90600 333 10166 20088 60004=
07280,1998-08-29 09:00:00,15,1021.6,0.7,44,3,25000,29.632,,,30,,,,,,,,,,,wg-a,,,,AAXX 29094 07280 12675 20316 10150 20030 39946 40216 51007 60006 82800 90900=
07280,1998-08-29 12:00:00,17,1020.7,-0.6,39,3,25000,22.224,,,50,,,,,,,,,,,wg-a,,,,AAXX 29124 07280 12775 40512 10170 20030 39940 40207 58006 60006 84400 91200=
07280,1998-08-29 15:00:00,18,1019.6,-1,39,4,500,14.816,,,50,,,,,,,,,,,wg-a,,,,AAXX 29154 07280 12800 20508 10180 20040 39930 40196 58010 60006 81501 91500=
07280,1998-08-29 18:00:00,16,1020,0.2,48,5,500,18.52,,,60,9.7,18.4,,,,,,,,,wg-a,,,,AAXX 29184 07280 12/00 20610 10160 20050 39932 40200 53002 60006 80001 91800 333 10184 20097=
07280,1998-08-29 21:00:00,11,1021.2,0.7,66,5,25000,14.816,,,20,,,,,,,,,,,wg-a,,,,AAXX 29214 07280 12/75 00208 10110 20050 39939 40212 50007 60006 80000 92100=
07280,1998-08-30 00:00:00,9,1020.8,-0.6,71,4,20000,14.816,,,10,,,,,,,,,,,wg-a,,,,AAXX 30004 07280 12/70 00108 10090 20040 39933 40208 58006 60006 80000 90000=
07280,1998-08-30 03:00:00,8,1020.4,-0.5,76,4,20000,11.112,,,360,,,,,,,,,,,wg-a,,,,AAXX 30034 07280 12/70 03606 10080 20040 39928 40204 56005 60006 80000 90300=
07280,1998-08-30 06:00:00,8,1020.8,0.4,76,4,20000,11.112,,,10,7.4,16.1,,,,,,,,,wg-a,,,,AAXX 30064 07280 02/70 50106 10080 20040 39932 40208 53004 60006 81031 90600 333 10161 20074 60004=
07280,1998-08-30 09:00:00,14,1021.1,0.8,58,6,25000,11.112,,,50,,,,,,,,,,,wg-a,,,,AAXX 30094 07280 12/75 50506 10140 20060 39940 40211 51008 60006 81082 90900=
07280,1998-08-30 12:00:00,20,1019.4,-1.1,40,6,25000,14.816,,31.484,70,,,,,,,,,,,wg-a,,,,AAXX 30124 07280 12/75 10708 10200 20060 39929 40194 58011 60006 80001 91200 333 91017=
07280,1998-08-30 15:00:00,21,1018,-1.2,40,7,25000,14.816,,,70,,,,,,,,,,,wg-a,,,,AAXX 30154 07280 12/75 00708 10210 20070 39917 40180 56012 60006 80000 91500=
07280,1998-08-30 18:00:00,19,1017.7,-0.5,46,7,25000,11.112,,,100,8,21.5,,,,,,,,,wg-a,,,,AAXX 30184 07280 12/75 01006 10190 20070 39912 40177 57005 60006 80000 91800 333 10215 20080=
07280,1998-08-30 21:00:00,13,1018.4,0.2,67,7,20000,3.704,,,360,,,,,,,,,,,wg-a,,,,AAXX 30214 07280 12/70 03602 10130 20070 39914 40184 50002 60006 80000 92100=
07280,1998-08-31 00:00:00,12,1018.2,-0.4,71,7,20000,3.704,,,290,,,,,,,,,,,wg-a,,,,AAXX 31004 07280 12/70 02902 10120 20070 39910 40182 58004 60006 80000 90000=
07280,1998-08-31 03:00:00,10,1017.6,-0.7,82,7,15000,7.408,,,330,,,,,,,,,,,wg-a,,,,AAXX 31034 07280 12/65 03304 10100 20070 39903 40176 56007 60006 80000 90300=
07280,1998-08-31 06:00:00,10,1017.2,-0.4,82,7,20000,7.408,,,360,8.5,18.9,,,,,,,,,wg-a,,,,AAXX 31064 07280 02/70 13604 10100 20070 39899 40172 56004 60006 80001 90600 333 10189 20085 60004=
07280,1998-08-31 09:00:00,17,1016.7,0.2,59,9,20000,7.408,,,50,,,,,,,,,,,wg-a,,,,AAXX 31094 07280 12/70 10504 10170 20090 39901 40167 52002 60006 80001 90900=
07280,1998-08-31 12:00:00,24,1014.6,-1.5,38,9,25000,7.408,,,110,,,,,,,,,,,wg-a,,,,AAXX 31124 07280 12/75 41104 10240 20090 39886 40146 58015 60006 80001 91200=
07280,1998-08-31 15:00:00,26,1012.9,-1.4,32,8,25000,3.704,,,160,,,,,,,,,,,wg-a,,,,AAXX 31154 07280 12/75 21602 10260 20080 39872 40129 56014 60006 80001 91500=
07280,1998-08-31 18:00:00,22,1012.7,-0.5,46,10,500,11.112,,,80,10.1,26.3,,,,,,,,,wg-a,,,,AAXX 31184 07280 12/00 50806 10220 20100 39867 40127 56005 60006 80001 91800 333 10263 20101=
07280,1998-08-31 21:00:00,17,1013.9,0.6,59,9,20000,7.408,,,360,,,,,,,,,,,wg-a,,,,AAXX 31214 07280 12/70 43604 10170 20090 39873 40139 51006 60006 80001 92100=
07280,1998-09-01 00:00:00,16,1014.6,0.6,68,10,20000,11.112,,,350,,,,,,,,,,,wg-a,,,,AAXX 01004 07280 12/70 53506 10160 20100 39879 40146 51006 60006 82031 90000=
07280,1998-09-01 03:00:00,16,1013.7,-0.8,68,10,9000,3.704,,,350,,,,,,,,,,,wg-a,,,,AAXX 01034 07280 12/59 /3502 10160 20100 39871 40137 56008 60006 83031 90300=
07280,1998-09-01 06:00:00,14,1014.1,0.2,82,11,20000,3.704,,,360,13.8,22.3,,,,,,,,,wg-a,,,,AAXX 01064 07280 02470 73602 10140 20110 39873 40141 52002 60006 81131 90600 333 10223 20138 60004=
07280,1998-09-01 09:00:00,21,1013.8,0.4,73,16,15000,11.112,,,200,,,,,,,,,,,wg-a,,,,AAXX 01094 07280 12/65 72006 10210 20160 39877 40138 50004 60006 80001 90900=
07280,1998-09-01 12:00:00,25,1014.1,0.6,61,17,15000,11.112,,,190,,,,,,,,,,60,wg-a,,,,AAXX 01124 07280 02/65 81906 10250 20170 39883 40141 51006 61000 76062 8807/ 91200 333 6100=
07280,1998-09-01 15:00:00,23,1015.1,0.8,73,18,12000,7.408,,,240,,,,,,,,,,61,wg-a,,,,AAXX 01154 07280 02/62 82404 10230 20180 39891 40151 50008 61000 76162 8807/ 91500 333 ////=
07280,1998-09-01 18:00:00,22,1014.4,-0.7,73,17,12000,3.704,,,270,14.5,25.1,,0,,,,,,3,wg-a,,,,AAXX 01184 07280 02/62 72702 10220 20170 39884 40144 55007 60006 70362 8707/ 91800 333 10251 20145 60007=
07280,1998-09-01 21:00:00,18,1015.1,0.3,94,17,12000,3.704,,,360,,,,,,,,,,,wg-a,,,,AAXX 01214 07280 12/62 63602 10180 20170 39887 40151 50003 60006 80001 92100=
07280,1998-09-02 00:00:00,17,1015.5,0.2,88,15,10000,3.704,,,40,,,,,,,,,,,wg-a,,,,AAXX 02004 07280 12/60 60402 10170 20150 39889 40155 51002 60006 80001 90000=
07280,1998-09-02 03:00:00,17,1014.4,-1,94,16,6000,3.704,,,110,,,,,,,,,,,wg-a,,,,AAXX 02034 07280 12256 81102 10170 20160 39879 40144 58010 60006 8467/ 90300=
07280,1998-09-02 06:00:00,17,1014.6,0.2,100,17,4500,3.704,,,280,16.1,22.3,,,,,,,,10,wg-a,,,,AAXX 02064 07280 02245 82802 10170 20170 39881 40146 52002 60006 71062 8557/ 90600 333 10223 20161 60004=
07280,1998-09-02 09:00:00,22,1013.8,-0.4,60,14,15000,14.816,,,170,,,,,,,,,,3,wg-a,,,,AAXX 02094 07280 02/65 81708 10220 20140 39877 40138 58004 61000 70362 85081 90900 333 ////=
07280,1998-09-02 12:00:00,23,1013.5,-0.2,65,16,15000,11.112,,,150,,,,0,,,,,,60,wg-a,,,,AAXX 02124 07280 02865 81506 10230 20160 39875 40135 58002 60006 76062 8708/ 91200 333 60007=
07280,1998-09-02 15:00:00,25,1012.5,-0.7,57,16,20000,7.408,,,160,,,,,,,,,,1,wg-a,,,,AAXX 02154 07280 02/70 81604 10250 20160 39868 40125 58007 61000 70162 8703/ 91500 333 ////=
07280,1998-09-02 18:00:00,24,1012.2,-0.5,61,16,20000,3.704,,,120,17.2,25.4,,,,,,,,3,wg-a,,,,AAXX 02184 07280 12/70 81202 10240 20160 39863 40122 55005 60006 70362 83072 91800 333 10254 20172=
07280,1998-09-02 21:00:00,20,1012.3,-0.1,83,17,8000,11.112,,,250,,,,5,,,,,,81,wg-a,,,,AAXX 02214 07280 12658 82506 10200 20170 39862 40123 56001 60057 78198 84382 92100=
07280,1998-09-03 00:00:00,19,1012.1,-0.4,94,18,10000,3.704,,,10,,,,4,,,,,,17,wg-a,,,,AAXX 03004 07280 02760 70102 10190 20180 39858 40121 56004 60096 71798 82382 90000 333 60047=
07280,1998-09-03 03:00:00,18,1013.6,1.5,100,18,8000,11.112,,,210,,,,3,,,,,,21,wg-a,,,,AAXX 03034 07280 12558 82106 10180 20180 39873 40136 50015 60037 72198 81172 90300=
07280,1998-09-03 06:00:00,18,1013.8,0.1,94,17,8000,14.816,,,200,17.7,23.5,,,,,,,,21,wg-a,,,,AAXX 03064 07280 02258 72008 10180 20170 39874 40138 53001 61000 72198 8552/ 90600 333 10235 20177 6014=
07280,1998-09-03 09:00:00,20,1014.7,1.1,73,15,25000,29.632,,,250,,,,,,,,,,3,wg-a,,,,AAXX 03094 07280 02575 /2516 10200 20150 39885 40147 53011 61000 70365 81202 90900 333 ////=
07280,1998-09-03 12:00:00,19,1016,1.1,73,14,500,25.928,,,250,,,,,,,,,,3,wg-a,,,,AAXX 03124 07280 02500 82514 10190 20140 39896 40160 53011 61000 70365 885// 91200 333 ////=
07280,1998-09-03 15:00:00,22,1015.8,0.1,57,13,45000,22.224,,,260,,,,,,,,,,,wg-a,,,,AAXX 03154 07280 12583 /2612 10220 20130 39897 40158 53001 60006 85200 91500=
07280,1998-09-03 18:00:00,19,1016.1,-0,68,13,40000,7.408,,,270,17.8,22.1,,,,,,,,,wg-a,,,,AAXX 03184 07280 12682 22704 10190 20130 39897 40161 55000 60006 8/800 91800 333 10221 20178=
07280,1998-09-04 00:00:00,13,1016.3,-1.1,94,12,20000,7.408,,,30,,,,,,,,,,,wg-a,,,,AAXX 04004 07280 12770 30304 10130 20120 39893 40163 58011 60006 815/1 90000=
07280,1998-09-04 03:00:00,10,1015.6,-0.9,93,9,3000,7.408,,,330,,,,,,,,,,10,wg-a,,,,AAXX 04034 07280 12/30 23304 10100 20090 39884 40156 57009 60006 71000 80001 90300=
07280,1998-09-04 06:00:00,11,1014.5,-1,94,10,4000,7.408,,,350,9.5,18.8,,,,,,,,10,wg-a,,,,AAXX 04064 07280 02140 53504 10110 20100 39874 40145 56010 60006 71011 82604 90600 333 10188 20095 60004=
07280,1998-09-04 09:00:00,16,1013.3,-0.7,88,14,10000,7.408,,,50,,,,,,,,,,,wg-a,,,,AAXX 04094 07280 12/60 70504 10160 20140 39867 40133 58007 60006 82032 90900=
07280,1998-09-04 12:00:00,20,1011,-1.9,68,14,20000,3.704,,,120,,,,,,,,,,60,wg-a,,,,AAXX 04124 07280 02670 81202 10200 20140 39848 40110 56019 61000 76062 81577 91200 333 6100=
07280,1998-09-04 15:00:00,20,1008.4,-2.5,64,13,20000,14.816,,,170,,,,,,,,,,2,wg-a,,,,AAXX 04154 07280 02670 81708 10200 20130 39823 40084 58025 61000 70262 8157/ 91500 333 ////=
07280,1998-09-04 18:00:00,16,1007.8,-1,94,15,9000,7.408,,,180,10.6,20.6,,,,,,,,61,wg-a,,,,AAXX 04184 07280 02659 81804 10160 20150 39813 40078 58010 61000 76162 8257/ 91800 333 10206 20106 6004=
07280,1998-09-04 21:00:00,16,1007,-0.7,100,16,6000,14.816,,,200,,,,1,,,,,,58,wg-a,,,,AAXX 04214 07280 12156 82008 10160 20160 39806 40070 58007 60017 75865 887// 92100=
07280,1998-09-05 00:00:00,16,1007.8,0.8,94,15,8000,14.816,,,230,,,,2,,,,,,61,wg-a,,,,AAXX 05004 07280 02758 82308 10160 20150 39814 40078 50008 60036 76165 8352/ 90000 333 60027=
07280,1998-09-05 03:00:00,16,1008.2,0.3,88,14,20000,3.704,,,260,,,,1,,,,,,1,wg-a,,,,AAXX 05034 07280 12470 42602 10160 20140 39817 40082 53003 60017 70161 82530 90300=
07280,1998-09-05 06:00:00,14,1010.1,1.8,94,13,500,11.112,,,180,14.1,16.3,,,,,8,,,3,wg-a,,,,AAXX 05064 07280 02400 41806 10140 20130 39835 40101 53018 60006 70361 84200 90600 333 10163 20141 60084=
07280,1998-09-05 09:00:00,17,1011.8,1.8,82,14,10000,22.224,,,200,,,,,,,,,,15,wg-a,,,,AAXX 05094 07280 12560 72012 10170 20140 39853 40118 51018 60006 71511 872// 90900=
07280,1998-09-05 12:00:00,18,1010.8,-0.8,83,15,20000,25.928,,,230,,,,1,,,,,,25,wg-a,,,,AAXX 05124 07280 02570 62314 10180 20150 39845 40108 56008 60016 72586 86200 91200 333 60017=
07280,1998-09-05 15:00:00,20,1010.5,-0.2,73,15,25000,29.632,,,210,,,,0,,,,,,1,wg-a,,,,AAXX 05154 07280 12575 42116 10200 20150 39843 40105 55002 60007 70186 84800 91500=
07280,1998-09-05 18:00:00,18,1011.6,0.9,83,15,40000,11.112,,,200,14.3,21.3,,,,,,,,3,wg-a,,,,AAXX 05184 07280 12582 52006 10180 20150 39852 40116 52009 60006 70386 84801 91800 333 10213 20143=
07280,1998-09-05 21:00:00,15,1013.7,1.9,94,14,500,11.112,,,230,,,,1,,,,,,,wg-a,,,,AAXX 05214 07280 12600 52306 10150 20140 39871 40137 51019 60017 83501 92100=
07280,1998-09-06 00:00:00,15,1014.2,0.4,94,14,15000,11.112,,,200,,,,1,,,,,,2,wg-a,,,,AAXX 06004 07280 02565 72006 10150 20140 39875 40142 50004 60026 70286 878// 90000 333 60017=
07280,1998-09-06 03:00:00,14,1014.4,0.1,88,12,15000,11.112,,,220,,,,,,,,,,,wg-a,,,,AAXX 06034 07280 12565 32206 10140 20120 39876 40144 53001 60006 83800 90300=
07280,1998-09-06 06:00:00,12,1014.5,-0.1,94,11,20000,7.408,,,240,11.6,17.6,,,,,3,,,,wg-a,,,,AAXX 06064 07280 02670 /2404 10120 20110 39875 40145 58001 60006 85501 90600 333 10176 20116 60034=
07280,1998-09-06 09:00:00,18,1014.3,0.4,77,14,20000,7.408,,,160,,,,,,,,,,,wg-a,,,,AAXX 06094 07280 12470 51604 10180 20140 39879 40143 51004 60006 85800 90900=
07280,1998-09-06 12:00:00,20,1012.9,-1.2,56,11,40000,14.816,,,190,,,,,,,,,,,wg-a,,,,AAXX 06124 07280 12682 41908 10200 20110 39867 40129 57012 60006 84200 91200=
07280,1998-09-06 15:00:00,22,1011,-1.7,46,10,40000,14.816,,,170,,,,,,,,,,,wg-a,,,,AAXX 06154 07280 12682 /1708 10220 20100 39850 40110 56017 60006 81404 91500=
07280,1998-09-06 18:00:00,19,1010,-1.2,64,12,40000,7.408,,,160,12.2,22,,,,,,,,,wg-a,,,,AAXX 06184 07280 12/82 71604 10190 20120 39838 40100 56012 60006 80002 91800 333 10220 20122=
07280,1998-09-06 21:00:00,15,1010.2,-0.2,88,13,25000,3.704,,,60,,,,,,,,,,,wg-a,,,,AAXX 06214 07280 12775 60602 10150 20130 39836 40102 58002 60006 81532 92100=
07280,1998-09-07 00:00:00,15,1009,-1.1,88,13,15000,3.704,,,40,,,,,,,,,,,wg-a,,,,AAXX 07004 07280 12765 70402 10150 20130 39825 40090 56011 60006 81532 90000=
07280,1998-09-07 03:00:00,13,1008.2,-1,94,12,15000,3.704,,,360,,,,,,,,,,,wg-a,,,,AAXX 07034 07280 12765 73602 10130 20120 39815 40082 56010 60006 8353/ 90300=
07280,1998-09-07 06:00:00,14,1007.7,-0.4,94,13,25000,3.704,,,140,13.4,19.4,,,,,,,,21,wg-a,,,,AAXX 07064 07280 02675 81402 10140 20130 39811 40077 55004 61000 72162 8387/ 90600 333 10194 20134 6000=
07280,1998-09-07 09:00:00,14,1008.7,1,100,14,8000,11.112,,,170,,,,0,,,,,,61,wg-a,,,,AAXX 07094 07280 12258 81706 10140 20140 39821 40087 52010 60007 76162 8457/ 90900=
07280,1998-09-07 12:00:00,17,1008.2,-0.3,88,15,12000,7.408,,,70,,,,1,,,,,,60,wg-a,,,,AAXX 07124 07280 02262 70704 10170 20150 39818 40082 58003 60026 76062 8357/ 91200 333 60017=
07280,1998-09-07 15:00:00,18,1007.7,-0.3,83,15,25000,11.112,,,80,,,,,,,,,,1,wg-a,,,,AAXX 07154 07280 02475 /0806 10180 20150 39815 40077 58003 61000 70162 84801 91500 333 ////=
07280,1998-09-07 18:00:00,17,1008.2,0.4,88,15,25000,7.408,,,120,13.7,19.1,,,,,,,,1,wg-a,,,,AAXX 07184 07280 12475 41204 10170 20150 39819 40082 53004 60006 70161 83802 91800 333 10191 20137=
07280,1998-09-07 21:00:00,15,1009.7,1.3,100,15,20000,3.704,,,310,,,,,,,,,,,wg-a,,,,AAXX 07214 07280 12670 43102 10150 20150 39832 40097 51013 60006 84500 92100=
07280,1998-09-08 00:00:00,14,1010.6,0.7,94,13,15000,3.704,,,160,,,,,,,,,,,wg-a,,,,AAXX 08004 07280 12665 31602 10140 20130 39839 40106 51007 60006 83500 90000=
07280,1998-09-08 03:00:00,13,1011.3,0.6,94,12,15000,7.408,,,190,,,,0,,,,,,,wg-a,,,,AAXX 08034 07280 12665 51904 10130 20120 39845 40113 53006 60007 82502 90300=
07280,1998-09-08 06:00:00,13,1012.9,1.5,94,12,20000,7.408,,,140,11.5,17,,,,,2,,,,wg-a,,,,AAXX 08064 07280 02470 /1404 10130 20120 39860 40129 53015 60006 81180 90600 333 10170 20115 60024=
07280,1998-09-08 09:00:00,17,1013.6,1.1,82,14,500,18.52,,,200,,,,,,,,,,,wg-a,,,,AAXX 08094 07280 12500 72010 10170 20140 39871 40136 53011 60006 8527/ 90900=
07280,1998-09-08 12:00:00,21,1012.9,-0.3,56,12,40000,18.52,,,260,,,,,,,,,,,wg-a,,,,AAXX 08124 07280 12582 72610 10210 20120 39868 40129 56003 60006 878// 91200=
07280,1998-09-08 15:00:00,21,1013,0,60,13,40000,22.224,,,210,,,,,,,,,,,wg-a,,,,AAXX 08154 07280 12682 72112 10210 20130 39868 40130 50000 60006 8583/ 91500=
07280,1998-09-08 18:00:00,19,1013.4,0.3,64,12,25000,14.816,,,220,12.7,21.2,,,,,,,,,wg-a,,,,AAXX 08184 07280 12675 72208 10190 20120 39871 40134 53003 60006 8657/ 91800 333 10212 20127=
07280,1998-09-08 21:00:00,17,1014.5,0.9,82,14,20000,11.112,,,200,,,,,,,,,,1,wg-a,,,,AAXX 08214 07280 02670 82006 10170 20140 39880 40145 51009 61000 70162 8657/ 92100 333 ////=
07280,1998-09-09 00:00:00,17,1013.9,-0.6,82,14,20000,14.816,,,190,,,,,,,,,,3,wg-a,,,,AAXX 09004 07280 02670 81908 10170 20140 39874 40139 58006 61000 70362 885// 90000 333 ////=
07280,1998-09-09 03:00:00,17,1012.9,-1,82,14,20000,14.816,,,220,,,,,,,,,,,wg-a,,,,AAXX 09034 07280 12670 /2208 10170 20140 39864 40129 56010 60006 86500 90300=
07280,1998-09-09 06:00:00,16,1012.2,-0.7,88,14,75000,11.112,,,170,15.3,19.3,,,,,,,,,wg-a,,,,AAXX 09064 07280 02689 41706 10160 20140 39857 40122 56007 60006 83530 90600 333 10193 20153 61000=
07280,1998-09-09 09:00:00,21,1011.2,-0.6,69,15,50000,22.224,,,190,,,,,,,,,,,wg-a,,,,AAXX 09094 07280 12784 61912 10210 20150 39851 40112 56006 60006 82582 90900=
07280,1998-09-09 12:00:00,24,1009.9,-1,61,16,60000,22.224,,,200,,,,,,,,,,,wg-a,,,,AAXX 09124 07280 12786 72012 10240 20160 39841 40099 58010 60006 83582 91200=
07280,1998-09-09 15:00:00,26,1008,-1.6,54,16,60000,22.224,,,190,,,,,,,,,,,wg-a,,,,AAXX 09154 07280 12786 51912 10260 20160 39825 40080 56016 60006 82582 91500=
07280,1998-09-09 18:00:00,24,1007.6,-0.6,65,17,40000,11.112,,,190,16,26.9,,,,,,,,,wg-a,,,,AAXX 09184 07280 12/82 21906 10240 20170 39819 40076 56006 60006 82030 91800 333 10269 20160=
07280,1998-09-09 21:00:00,21,1009.6,1.7,73,16,500,11.112,,,180,,,,,,,,,,,wg-a,,,,AAXX 09214 07280 12/00 21806 10210 20160 39836 40096 51017 60006 82030 92100=
07280,1998-09-10 00:00:00,18,1010.2,0.3,88,16,500,11.112,,,210,,,,,,,,,,,wg-a,,,,AAXX 10004 07280 12/00 12106 10180 20160 39839 40102 51003 60006 81031 90000=
07280,1998-09-10 03:00:00,17,1009.6,-0.6,88,15,500,11.112,,,210,,,,,,,,,,,wg-a,,,,AAXX 10034 07280 12700 62106 10170 20150 39833 40096 56006 60006 81531 90300=
07280,1998-09-10 06:00:00,17,1010.6,0.9,88,15,25000,3.704,,,40,16.1,24.2,,,,,,,,60,wg-a,,,,AAXX 10064 07280 02775 70402 10170 20150 39842 40106 53009 61000 76061 8357/ 90600 333 10242 20161 6100=
07280,1998-09-10 09:00:00,18,1011.8,1.2,88,16,12000,11.112,,,210,,,,1,,,,,,60,wg-a,,,,AAXX 10094 07280 12562 82106 10180 20160 39854 40118 53012 60017 76098 888// 90900=
07280,1998-09-10 12:00:00,17,1011.8,0,94,16,10000,7.408,,,200,,,,0,,,,,,61,wg-a,,,,AAXX 10124 07280 02460 82004 10170 20160 39854 40118 50000 60016 76198 888// 91200 333 60007=
07280,1998-09-10 15:00:00,15,1012,0,100,15,3000,7.408,,,190,,,,14,,,,,,10,wg-a,,,,AAXX 10154 07280 12230 81904 10150 20150 39854 40120 50000 60147 71066 885// 91500=
07280,1998-09-10 18:00:00,15,1011.6,-0.4,94,14,12000,14.816,,,180,14.6,17.7,,6,,,,,,1,wg-a,,,,AAXX 10184 07280 02362 81808 10150 20140 39850 40116 56004 60006 70162 877// 91800 333 10177 20146 60067=
07280,1998-09-10 21:00:00,15,1012.6,1,100,15,12000,14.816,,,190,,,,,,,,,,,wg-a,,,,AAXX 10214 07280 12262 81908 10150 20150 39860 40126 50010 60006 885// 92100=
07280,1998-09-11 00:00:00,15,1012.8,0.2,94,14,12000,14.816,,,210,,,,,,,,,,,wg-a,,,,AAXX 11004 07280 12262 82108 10150 20140 39862 40128 50002 60006 885// 90000=
07280,1998-09-11 03:00:00,14,1010.8,-2.1,100,14,12000,22.224,,,200,,,,,,,,,,,wg-a,,,,AAXX 11034 07280 12262 62012 10140 20140 39841 40108 58021 60006 86500 90300=
07280,1998-09-11 06:00:00,14,1010,-0.8,94,13,4500,14.816,,,210,13.7,15.4,,,,,21,,,10,wg-a,,,,AAXX 11064 07280 02245 72108 10140 20130 39833 40100 58008 60006 71011 83571 90600 333 10154 20137 60214=
07280,1998-09-11 09:00:00,18,1008.1,-1.5,83,15,500,18.52,,,200,,,,,,,,,,,wg-a,,,,AAXX 11094 07280 12400 62010 10180 20150 39818 40081 58015 60006 84201 90900=
07280,1998-09-11 12:00:00,19,1005.7,-2.3,64,12,20000,25.928,,,270,,,,,,,,,,15,wg-a,,,,AAXX 11124 07280 12670 82714 10190 20120 39795 40057 56023 60006 71511 888// 91200=
07280,1998-09-11 15:00:00,15,1004.8,-1.1,88,13,25000,14.816,,,170,,,,0,,,,,,60,wg-a,,,,AAXX 11154 07280 12675 81708 10150 20130 39784 40048 56011 60007 76062 8582/ 91500=
07280,1998-09-11 18:00:00,13,1003.2,-1.8,100,13,12000,14.816,,,160,13.1,19.9,,,,,,,,61,wg-a,,,,AAXX 11184 07280 02262 81608 10130 20130 39766 40032 56018 61000 76162 8672/ 91800 333 10199 20131 6002=
07280,1998-09-11 21:00:00,13,1001.7,-1.5,94,12,12000,11.112,,,210,,,,0,,,,,,51,wg-a,,,,AAXX 11214 07280 12262 82106 10130 20120 39751 40017 56015 60007 75165 885// 92100=
07280,1998-09-12 00:00:00,12,999.7,-2,88,10,8000,22.224,,,250,,,,4,,,,,,61,wg-a,,,,AAXX 12004 07280 02358 82512 10120 20100 39731 49997 56020 60046 76165 885// 90000 333 60047=
07280,1998-09-12 03:00:00,11,1000.1,0.3,94,10,15000,22.224,,,220,,,,,,,,,,1,wg-a,,,,AAXX 12034 07280 02565 82212 10110 20100 39734 40001 53003 61000 70162 8/520 90300 333 ////=
07280,1998-09-12 06:00:00,11,1001.2,1.1,94,10,7000,14.816,,,240,10.9,13.1,,,,,,,,60,wg-a,,,,AAXX 12064 07280 02357 82408 10110 20100 39745 40012 53011 61000 76062 885// 90600 333 10131 20109 6007=
07280,1998-09-12 09:00:00,12,1002.9,1.7,82,9,25000,18.52,,,280,,,,,,,,,,3,wg-a,,,,AAXX 12094 07280 02475 72810 10120 20090 39762 40029 53017 61000 70362 8682/ 90900 333 ////=
07280,1998-09-12 12:00:00,15,1002.8,0.2,67,9,25000,22.224,,,290,,,,,,,,,,21,wg-a,,,,AAXX 12124 07280 02575 /2912 10150 20090 39764 40028 50002 61000 72162 86800 91200 333 6100=
07280,1998-09-12 15:00:00,15,1001.6,-1.2,63,8,25000,25.928,,,270,,,,2,,,,,,3,wg-a,,,,AAXX 12154 07280 12675 52714 10150 20080 39752 40016 58012 60027 70386 85800 91500=
07280,1998-09-12 18:00:00,13,1000.5,-1.2,72,8,15000,18.52,,,210,11,16,,0,,,,,,3,wg-a,,,,AAXX 12184 07280 02565 72110 10130 20080 39740 40005 58012 60006 70386 878// 91800 333 10160 20110 60007=
07280,1998-09-12 21:00:00,11,999.6,-1.1,87,9,20000,18.52,,,220,,,,,,,,,,3,wg-a,,,,AAXX 12214 07280 02570 72210 10110 20090 39729 49996 58011 61000 70386 878// 92100 333 ////=
07280,1998-09-13 00:00:00,10,999.3,-0.4,82,7,20000,14.816,,,320,,,,0,,,,,,1,wg-a,,,,AAXX 13004 07280 02570 /3208 10100 20070 39725 49993 55004 60006 70186 85500 90000 333 60007=
07280,1998-09-13 03:00:00,7,1000.6,0.9,87,5,25000,11.112,,,230,,,,,,,,,,,wg-a,,,,AAXX 13034 07280 12/75 02306 10070 20050 39734 40006 53009 60006 80000 90300=
07280,1998-09-13 06:00:00,7,1000.8,0.3,93,6,25000,14.816,,,210,5.4,13.1,,,,,3,,,,wg-a,,,,AAXX 13064 07280 02475 /2108 10070 20060 39737 40008 51003 60006 82850 90600 333 10131 20054 60034=
07280,1998-09-13 09:00:00,9,1000.6,0,87,7,20000,29.632,,,220,,,,,,,,,,60,wg-a,,,,AAXX 13094 07280 02570 72216 10090 20070 39737 40006 50000 61000 76062 8457/ 90900 333 ////=
07280,1998-09-13 12:00:00,9,999,-1.6,93,8,8000,29.632,,,210,,,,2,,,,,,80,wg-a,,,,AAXX 13124 07280 02458 82116 10090 20080 39721 49990 56016 60026 78086 8587/ 91200 333 60027=
07280,1998-09-13 15:00:00,9,998.9,-0.1,81,6,12000,3.704,,,230,,,,5,,,,,,25,wg-a,,,,AAXX 13154 07280 12562 72302 10090 20060 39720 49989 55001 60057 72586 8587/ 91500=
07280,1998-09-13 18:00:00,10,1002.3,3.4,82,7,20000,7.408,,,260,7.1,10.9,,,,,,,,3,wg-a,,,,AAXX 13184 07280 12470 /2604 10100 20070 39754 40023 53034 60006 70386 86800 91800 333 10109 20071=
07280,1998-09-13 21:00:00,10,1004,1.6,87,8,12000,11.112,,,230,,,,1,,,,,,21,wg-a,,,,AAXX 13214 07280 12462 /2306 10100 20080 39770 40040 51016 60017 72162 86800 92100=
07280,1998-09-14 00:00:00,9,1004.5,0.4,87,7,12000,11.112,,,220,,,,2,,,,,,1,wg-a,,,,AAXX 14004 07280 02462 72206 10090 20070 39774 40045 50004 60046 70162 878// 90000 333 60027=
07280,1998-09-14 03:00:00,9,1004.4,-0,93,8,15000,18.52,,,250,,,,,,,,,,,wg-a,,,,AAXX 14034 07280 12565 72510 10090 20080 39774 40044 54000 60006 878// 90300=
07280,1998-09-14 06:00:00,9,1005.3,0.9,93,8,20000,14.816,,,250,7.3,10,,,,,,,,21,wg-a,,,,AAXX 14064 07280 02570 72508 10090 20080 39783 40053 53009 61000 72161 878// 90600 333 10100 20073 6012=
07280,1998-09-14 09:00:00,12,1006.6,1.4,76,8,500,25.928,,,230,,,,,,,,,,,wg-a,,,,AAXX 14094 07280 12400 72314 10120 20080 39797 40066 51014 60006 84231 90900=
07280,1998-09-14 12:00:00,14,1007.1,0.7,67,8,25000,18.52,,,230,,,,1,,,,,,25,wg-a,,,,AAXX 14124 07280 02575 52310 10140 20080 39804 40071 51007 60016 72586 84830 91200 333 60017=
07280,1998-09-14 15:00:00,15,1007.2,0.2,59,7,25000,25.928,,,250,,,,,,,,,,25,wg-a,,,,AAXX 14154 07280 02675 52514 10150 20070 39806 40072 53002 61000 72586 85800 91500 333 ////=
07280,1998-09-14 18:00:00,12,1008.8,1.3,88,10,10000,7.408,,,290,9.2,15.3,,,,,,,,80,wg-a,,,,AAXX 14184 07280 02660 72904 10120 20100 39819 40088 52013 61000 78086 874// 91800 333 10153 20092 6001=
07280,1998-09-14 21:00:00,11,1010.4,1.5,87,9,20000,18.52,,,210,,,,,,,,,,3,wg-a,,,,AAXX 14214 07280 02670 42110 10110 20090 39834 40104 52015 61000 70386 84500 92100 333 ////=
07280,1998-09-15 00:00:00,11,1011.5,1,87,9,20000,14.816,,,220,,,,0,,,,,,25,wg-a,,,,AAXX 15004 07280 02570 72208 10110 20090 39844 40115 51010 60016 72586 875// 90000 333 60007=
07280,1998-09-15 03:00:00,11,1012.1,0.7,87,9,15000,14.816,,,250,,,,,,,,,,,wg-a,,,,AAXX 15034 07280 12565 72508 10110 20090 39851 40121 53007 60006 875// 90300=
07280,1998-09-15 06:00:00,11,1014,1.8,87,9,15000,18.52,,,220,10.2,11.9,,,,,2,,,,wg-a,,,,AAXX 15064 07280 02465 72210 10110 20090 39869 40140 53018 60006 878// 90600 333 10119 20102 60024=
07280,1998-09-15 09:00:00,14,1015.7,1.9,67,8,500,25.928,,,240,,,,,,,,,,,wg-a,,,,AAXX 15094 07280 12500 62414 10140 20080 39888 40157 53019 60006 85801 90900=
07280,1998-09-15 12:00:00,16,1015.5,0,55,7,40000,25.928,,,250,,,,,,,,,,,wg-a,,,,AAXX 15124 07280 12682 52514 10160 20070 39888 40155 50000 60006 83231 91200=
07280,1998-09-15 18:00:00,11,1014.7,-0.6,94,10,6000,18.52,,,190,10.6,16.8,,1,,,,,,61,wg-a,,,,AAXX 15184 07280 12356 81910 10110 20100 39876 40147 56006 60017 76165 885// 91800 333 10168 20106=
07280,1998-09-16 00:00:00,11,1013.6,-0.4,100,11,6000,25.928,,,200,,,,1,,,,,,58,wg-a,,,,AAXX 16004 07280 02256 82014 10110 20110 39866 40136 56004 60026 75865 886// 90000 333 60017=
07280,1998-09-16 06:00:00,12,1013.5,0.6,100,12,700,7.408,,,140,11,12.5,,,,,4,,,44,wg-a,,,,AAXX 16064 07280 02107 81404 10120 20120 39866 40135 53006 60006 74465 885// 90600 333 10125 20110 60044=
07280,1998-09-16 18:00:00,15,1013.2,0.6,77,11,500,11.112,,,270,12.4,19.1,,,,,,,,,wg-a,,,,AAXX 16184 07280 12500 72706 10150 20110 39865 40132 52006 60006 85801 91800 333 10191 20124=
07280,1998-09-17 00:00:00,12,1015,0.1,76,8,20000,14.816,,,270,,,,,,,,,,2,wg-a,,,,AAXX 17004 07280 02570 32708 10120 20080 39879 40150 51001 61000 70261 81501 90000 333 ////=
07280,1998-09-17 03:00:00,12,1014.8,-0.2,82,9,15000,14.816,,,260,,,,,,,,,,,wg-a,,,,AAXX 17034 07280 12565 /2608 10120 20090 39877 40148 55002 60006 86800 90300=
07280,1998-09-17 06:00:00,12,1015.7,0.9,82,9,15000,14.816,,,230,10.8,15.4,,,,,,,,21,wg-a,,,,AAXX 17064 07280 02565 72308 10120 20090 39886 40157 53009 61000 72161 8653/ 90600 333 10154 20108 6100=
07280,1998-09-17 09:00:00,14,1016.9,1.4,77,10,20000,7.408,,,280,,,,,,,,,,1,wg-a,,,,AAXX 17094 07280 02470 62804 10140 20100 39900 40169 51014 61000 70186 84830 90900 333 ////=
07280,1998-09-17 12:00:00,17,1016.9,0.2,55,8,35000,18.52,,,300,,,,0,,,,,,25,wg-a,,,,AAXX 17124 07280 02681 53010 10170 20080 39902 40169 51002 60006 72586 85800 91200 333 60007=
07280,1998-09-17 18:00:00,15,1019,1.5,63,8,500,7.408,,,360,11.6,18.2,,,,,,,,,wg-a,,,,AAXX 17184 07280 12700 73604 10150 20080 39921 40190 53015 60006 875// 91800 333 10182 20116=
07280,1998-09-17 21:00:00,12,1020.8,1.5,82,9,500,7.408,,,310,,,,,,,,,,,wg-a,,,,AAXX 17214 07280 12700 43104 10120 20090 39936 40208 51015 60006 84500 92100=
07280,1998-09-18 00:00:00,12,1021.4,0.6,82,9,25000,7.408,,,50,,,,,,,,,,,wg-a,,,,AAXX 18004 07280 12775 50504 10120 20090 39942 40214 52006 60006 85500 90000=
07280,1998-09-18 03:00:00,11,1021.7,0.2,87,9,20000,7.408,,,320,,,,,,,,,,,wg-a,,,,AAXX 18034 07280 12770 73204 10110 20090 39944 40217 53002 60006 878// 90300=
07280,1998-09-18 06:00:00,9,1023.3,1.4,87,7,20000,11.112,,,330,8.5,15.1,,,,,,,,,wg-a,,,,AAXX 18064 07280 02670 /3306 10090 20070 39958 40233 53014 60006 81501 90600 333 10151 20085 60004=
07280,1998-09-18 12:00:00,18,1024.3,0.3,52,8,500,14.816,,,60,,,,,,,,,,,wg-a,,,,AAXX 18124 07280 12600 /0608 10180 20080 39976 40243 52003 60006 83201 91200=
07280,1998-09-18 15:00:00,19,1024.3,-0,49,8,40000,18.52,,,50,,,,,,,,,,,wg-a,,,,AAXX 18154 07280 12682 20510 10190 20080 39976 40243 55000 60006 82101 91500=
07280,1998-09-18 18:00:00,15,1025.6,0.9,59,7,40000,14.816,,,50,9.1,18.9,,,,,,,,,wg-a,,,,AAXX 18184 07280 12/82 10508 10150 20070 39985 40256 53009 60006 80001 91800 333 10189 20091=
07280,1998-09-18 21:00:00,11,1027.5,1.5,76,7,35000,14.816,,,10,,,,,,,,,,,wg-a,,,,AAXX 18214 07280 12/81 00108 10110 20070 30000 40275 51015 60006 80000 92100=
07280,1998-09-19 00:00:00,10,1027.7,0.1,76,6,25000,14.816,,,20,,,,,,,,,,,wg-a,,,,AAXX 19004 07280 12/75 00208 10100 20060 30001 40277 51001 60006 80000 90000=
07280,1998-09-19 03:00:00,9,1028.2,0.4,81,6,25000,14.816,,,10,,,,,,,,,,,wg-a,,,,AAXX 19034 07280 12/75 00108 10090 20060 30005 40282 51004 60006 80000 90300=
07280,1998-09-19 06:00:00,9,1028.9,0.7,81,6,20000,18.52,,,10,8,14.6,,,,,,,,,wg-a,,,,AAXX 19064 07280 02/70 00110 10090 20060 30012 40289 53007 60006 80000 90600 333 10146 20080 60004=
07280,1998-09-19 09:00:00,15,1029.2,0.8,59,7,25000,25.928,,,50,,,,,,,,,,,wg-a,,,,AAXX 19094 07280 12/75 10514 10150 20070 30020 40292 51008 60006 80001 90900=
07280,1998-09-19 12:00:00,18,1028.6,-0.2,52,8,500,25.928,,,30,,,,,,,,,,,wg-a,,,,AAXX 19124 07280 12/00 20314 10180 20080 30018 40286 58002 60006 80001 91200=
07280,1998-09-19 15:00:00,20,1027.8,-0.7,46,8,40000,18.52,,,60,,,,,,,,,,,wg-a,,,,AAXX 19154 07280 12/82 20610 10200 20080 30011 40278 58007 60006 80001 91500=
07280,1998-09-19 18:00:00,17,1028.3,0.3,55,8,40000,18.52,,,20,8.7,19.8,,,,,,,,,wg-a,,,,AAXX 19184 07280 12/82 20210 10170 20080 30014 40283 53003 60006 80001 91800 333 10198 20087=
07280,1998-09-19 21:00:00,13,1029.4,0.7,77,9,500,18.52,,,30,,,,,,,,,,,wg-a,,,,AAXX 19214 07280 12/00 10310 10130 20090 30021 40294 51007 60006 80001 92100=
07280,1998-09-20 00:00:00,11,1029.6,0,82,8,25000,14.816,,,10,,,,,,,,,,,wg-a,,,,AAXX 20004 07280 12/75 00108 10110 20080 30021 40296 50000 60006 80000 90000=
07280,1998-09-20 06:00:00,9,1029.8,0.2,87,7,20000,14.816,,,10,8.3,16.9,,,,,,,,,wg-a,,,,AAXX 20064 07280 02/70 00108 10090 20070 30021 40298 53002 60006 80000 90600 333 10169 20083 60004=
07280,1998-09-20 09:00:00,15,1029.3,0.1,67,9,20000,22.224,,,40,,,,,,,,,,,wg-a,,,,AAXX 20094 07280 12/70 00412 10150 20090 30022 40293 50001 60006 80000 90900=
07280,1998-09-20 12:00:00,18,1028.5,-0.6,52,8,25000,31.484,,,60,,,,,,,,,,,wg-a,,,,AAXX 20124 07280 12/75 00617 10180 20080 30016 40285 58006 60006 80000 91200=
07280,1998-09-20 15:00:00,20,1026.9,-1.3,46,8,500,25.928,,,60,,,,,,,,,,,wg-a,,,,AAXX 20154 07280 12/00 00614 10200 20080 30003 40269 56013 60006 80000 91500=
07280,1998-09-20 18:00:00,17,1027.4,0.2,68,11,500,7.408,,,40,9.2,20.4,,,,,,,,,wg-a,,,,AAXX 20184 07280 12/00 20404 10170 20110 30005 40274 53002 60006 80001 91800 333 10204 20092=
07280,1998-09-20 21:00:00,14,1028.3,0.6,72,9,20000,14.816,,,30,,,,,,,,,,,wg-a,,,,AAXX 20214 07280 12/70 10308 10140 20090 30011 40283 51006 60006 80001 92100=
07280,1998-09-21 00:00:00,12,1028,-0.5,82,9,20000,18.52,,,20,,,,,,,,,,,wg-a,,,,AAXX 21004 07280 12/70 10210 10120 20090 30006 40280 56005 60006 80001 90000=
07280,1998-09-21 03:00:00,10,1027.4,-0.7,87,8,20000,14.816,,,20,,,,,,,,,,,wg-a,,,,AAXX 21034 07280 12/70 00208 10100 20080 39999 40274 58007 60006 80000 90300=
07280,1998-09-21 06:00:00,10,1027.7,0.2,87,8,20000,18.52,,,40,9.3,17.1,,,,,,,,,wg-a,,,,AAXX 21064 07280 02/70 00410 10100 20080 30001 40277 53002 60006 80000 90600 333 10171 20093 60004=
07280,1998-09-21 09:00:00,15,1027.4,0.2,67,9,20000,22.224,,,60,,,,,,,,,,,wg-a,,,,AAXX 21094 07280 12/70 00612 10150 20090 30003 40274 51002 60006 80000 90900=
07280,1998-09-21 12:00:00,19,1025.5,-1.4,52,9,25000,22.224,,,60,,,,,,,,,,,wg-a,,,,AAXX 21124 07280 12675 /0612 10190 20090 39989 40255 56014 60006 81100 91200=
07280,1998-09-21 15:00:00,19,1023.9,-1.6,56,10,25000,22.224,,,80,,,,,,,,,,,wg-a,,,,AAXX 21154 07280 12/75 10812 10190 20100 39973 40239 56016 60006 80001 91500=
07280,1998-09-21 18:00:00,17,1023.8,-0.3,59,9,25000,18.52,,,60,9.7,19.8,,,,,,,,,wg-a,,,,AAXX 21184 07280 12/75 10610 10170 20090 39970 40238 56003 60006 80001 91800 333 10198 20097=
07280,1998-09-21 21:00:00,14,1023.4,-0.7,72,9,20000,18.52,,,30,,,,,,,,,,,wg-a,,,,AAXX 21214 07280 12/70 00310 10140 20090 39963 40234 58007 60006 80000 92100=
07280,1998-09-22 00:00:00,12,1023,-0.6,76,8,20000,18.52,,,20,,,,,,,,,,,wg-a,,,,AAXX 22004 07280 12/70 00210 10120 20080 39957 40230 57006 60006 80000 90000=
07280,1998-09-22 03:00:00,9,1022.8,-0.4,87,7,20000,14.816,,,360,,,,,,,,,,,wg-a,,,,AAXX 22034 07280 12/70 03608 10090 20070 39953 40228 56004 60006 80000 90300=
07280,1998-09-22 06:00:00,8,1022.5,-0.4,93,7,15000,11.112,,,350,8,16.9,,,,,,,,,wg-a,,,,AAXX 22064 07280 02/65 13506 10080 20070 39949 40225 55004 60006 80001 90600 333 10169 20080 60004=
07280,1998-09-22 09:00:00,14,1021.6,-0.3,72,9,20000,11.112,,,40,,,,,,,,,,,wg-a,,,,AAXX 22094 07280 12/70 00406 10140 20090 39946 40216 57003 60006 80000 90900=
07280,1998-09-22 12:00:00,18,1019.7,-1.5,59,10,500,7.408,,,130,,,,,,,,,,,wg-a,,,,AAXX 22124 07280 12500 /1304 10180 20100 39931 40197 58015 60006 81101 91200=
07280,1998-09-22 15:00:00,19,1018.7,-0.9,64,12,500,11.112,,,60,,,,,,,,,,,wg-a,,,,AAXX 22154 07280 12600 20606 10190 20120 39922 40187 56009 60006 8118/ 91500=
07280,1998-09-22 18:00:00,16,1019,-0,77,12,20000,11.112,,,60,8.3,19.3,,,,,,,,,wg-a,,,,AAXX 22184 07280 12/70 20606 10160 20120 39922 40190 55000 60006 81081 91800 333 10193 20083=
07280,1998-09-22 21:00:00,12,1020.3,1,88,10,10000,11.112,,,360,,,,,,,,,,,wg-a,,,,AAXX 22214 07280 12/60 23606 10120 20100 39932 40203 51010 60006 81031 92100=
07280,1998-09-23 00:00:00,11,1020.6,0.1,87,9,8000,11.112,,,350,,,,,,,,,,,wg-a,,,,AAXX 23004 07280 12/58 03506 10110 20090 39933 40206 50001 60006 80000 90000=
07280,1998-09-23 03:00:00,9,1020.8,0.1,93,8,7000,7.408,,,350,,,,,,,,,,,wg-a,,,,AAXX 23034 07280 12/57 03504 10090 20080 39934 40208 50001 60006 80000 90300=
07280,1998-09-23 06:00:00,8,1021.6,0.6,93,7,7000,7.408,,,340,7.8,15.6,,,,,,,,,wg-a,,,,AAXX 23064 07280 02/57 03404 10080 20070 39940 40216 53006 60006 80000 90600 333 10156 20078 60004=
07280,1998-09-23 09:00:00,14,1021.4,0.4,77,10,9000,7.408,,,70,,,,,,,,,,,wg-a,,,,AAXX 23094 07280 12/59 00704 10140 20100 39944 40214 51004 60006 80000 90900=
07280,1998-09-23 12:00:00,21,1019.3,-1.4,56,12,15000,3.704,,,180,,,,,,,,,,,wg-a,,,,AAXX 23124 07280 12/65 01802 10210 20120 39930 40193 58014 60006 80000 91200=
07280,1998-09-23 15:00:00,23,1017.7,-1.4,47,11,20000,11.112,,,110,,,,,,,,,,,wg-a,,,,AAXX 23154 07280 12/70 11106 10230 20110 39916 40177 56014 60006 81030 91500=
07280,1998-09-23 18:00:00,18,1017.9,-0.2,68,12,20000,3.704,,,130,8.1,22.6,,,,,,,,,wg-a,,,,AAXX 23184 07280 12/70 01302 10180 20120 39914 40179 55002 60006 80000 91800 333 10226 20081=
07280,1998-09-23 21:00:00,14,1018.7,0.4,82,11,20000,3.704,,,10,,,,,,,,,,,wg-a,,,,AAXX 23214 07280 12/70 00102 10140 20110 39918 40187 51004 60006 80000 92100=
07280,1998-09-24 00:00:00,12,1018.7,-0.2,88,10,15000,11.112,,,350,,,,,,,,,,,wg-a,,,,AAXX 24004 07280 12/65 03506 10120 20100 39916 40187 58002 60006 80000 90000=
07280,1998-09-24 03:00:00,11,1019.1,0.2,94,10,10000,7.408,,,350,,,,,,,,,,,wg-a,,,,AAXX 24034 07280 12/60 43504 10110 20100 39918 40191 51002 60006 84050 90300=
07280,1998-09-24 06:00:00,10,1019,-0.1,100,10,4000,7.408,,,360,10,18.2,,,,,,,,10,wg-a,,,,AAXX 24064 07280 02/40 63604 10100 20100 39917 40190 55001 60006 71011 85031 90600 333 10182 20100 60004=
07280,1998-09-24 09:00:00,13,1019.2,0.5,88,11,8000,7.408,,,40,,,,,,,,,,,wg-a,,,,AAXX 24094 07280 12858 80404 10130 20110 39922 40192 51005 60006 85032 90900=
07280,1998-09-24 12:00:00,19,1018.1,-0.6,64,12,11000,11.112,,,220,,,,,,,,,,,wg-a,,,,AAXX 24124 07280 12/61 72206 10190 20120 39916 40181 56006 60006 84032 91200=
07280,1998-09-24 15:00:00,20,1016.8,-1.1,64,13,13000,7.408,,,230,,,,,,,,,,,wg-a,,,,AAXX 24154 07280 12/63 72304 10200 20130 39905 40168 56011 60006 84032 91500=
07280,1998-09-24 18:00:00,17,1015.9,-1.1,72,12,10000,3.704,,,170,10.2,20.1,,,,,,,,21,wg-a,,,,AAXX 24184 07280 02760 71702 10170 20120 39894 40159 57011 61000 72162 8257/ 91800 333 10201 20102 6100=
07280,1998-09-24 21:00:00,14,1016.5,0.3,88,12,12000,0,,,0,,,,,,,,,,,wg-a,,,,AAXX 24214 07280 12/62 60000 10140 20120 39897 40165 50003 60006 86030 92100=
07280,1998-09-25 00:00:00,14,1016.5,-0.1,88,12,12000,0,,,0,,,,,,,,,,,wg-a,,,,AAXX 25004 07280 12/62 70000 10140 20120 39896 40165 58001 60006 8703/ 90000=
07280,1998-09-25 03:00:00,12,1015.2,-1.5,94,11,12000,7.408,,,30,,,,,,,,,,,wg-a,,,,AAXX 25034 07280 12/62 40304 10120 20110 39881 40152 56015 60006 84030 90300=
07280,1998-09-25 06:00:00,11,1015,-0.2,94,10,2500,3.704,,,350,10.4,17.3,,,,,,,,10,wg-a,,,,AAXX 25064 07280 02/25 /3502 10110 20100 39879 40150 55002 60006 71011 80001 90600 333 10173 20104 61000=
07280,1998-09-25 09:00:00,17,1013.9,-0.5,77,13,500,3.704,,,160,,,,,,,,,,,wg-a,,,,AAXX 25094 07280 12/00 21602 10170 20130 39874 40139 58005 60006 80001 90900=
07280,1998-09-25 12:00:00,22,1011.7,-1.8,53,12,15000,11.112,,,170,,,,,,,,,,,wg-a,,,,AAXX 25124 07280 12665 /1706 10220 20120 39856 40117 58018 60006 81131 91200=
07280,1998-09-25 15:00:00,22,1010.1,-1.5,53,12,20000,25.928,,,190,,,,,,,,,,,wg-a,,,,AAXX 25154 07280 12770 71914 10220 20120 39841 40101 56015 60006 84501 91500=
07280,1998-09-25 18:00:00,18,1009.9,-0.5,73,13,18000,11.112,,,160,10.6,23.2,,,,,,,,1,wg-a,,,,AAXX 25184 07280 02768 71606 10180 20130 39836 40099 58005 60006 70161 8557/ 91800 333 10232 20106 61000=
07280,1998-09-25 21:00:00,17,1010.1,0.1,82,14,13000,7.408,,,180,,,,,,,,,,,wg-a,,,,AAXX 25214 07280 12763 71804 10170 20140 39837 40101 52001 60006 8557/ 92100=
07280,1998-09-26 00:00:00,15,1009.3,-1,88,13,8000,3.704,,,170,,,,,,,,,,,wg-a,,,,AAXX 26004 07280 12758 /1702 10150 20130 39827 40093 56010 60006 85500 90000=
07280,1998-09-26 03:00:00,14,1007.5,-1.8,94,13,6000,11.112,,,140,,,,,,,,,,,wg-a,,,,AAXX 26034 07280 12756 /1406 10140 20130 39809 40075 58018 60006 85500 90300=
07280,1998-09-26 06:00:00,16,1006,-1.3,88,14,9000,14.816,,,170,12.6,18.4,,,,,,,,,wg-a,,,,AAXX 26064 07280 02759 71708 10160 20140 39796 40060 56013 60006 875// 90600 333 10184 20126 61000=
07280,1998-09-26 09:00:00,16,1005.3,-0.7,94,15,500,7.408,,,80,,,,2,,,,,,61,wg-a,,,,AAXX 26094 07280 12500 80804 10160 20150 39789 40053 58007 60027 76162 8682/ 90900=
07280,1998-09-26 12:00:00,16,1004.7,-0.5,88,14,6000,14.816,,,160,,,,3,,,,,,61,wg-a,,,,AAXX 26124 07280 02256 81608 10160 20140 39784 40047 58005 60056 76162 878// 91200 333 60037=
07280,1998-09-26 15:00:00,16,1003.1,-1.6,94,15,10000,7.408,,,180,,,,1,,,,,,21,wg-a,,,,AAXX 26154 07280 12360 /1804 10160 20150 39768 40031 57016 60017 72162 86800 91500=
07280,1998-09-26 21:00:00,14,1004.8,2.6,94,13,8000,7.408,,,180,,,,6,,,,,,21,wg-a,,,,AAXX 26214 07280 12458 71804 10140 20130 39782 40048 51026 60067 72198 878// 92100=
07280,1998-09-27 00:00:00,12,1004.6,-0.4,94,11,12000,11.112,,,190,,,,0,,,,,,1,wg-a,,,,AAXX 27004 07280 02462 /1906 10120 20110 39778 40046 56004 60076 70198 81500 90000 333 60007=
07280,1998-09-27 03:00:00,11,1004,-0.6,100,11,8000,11.112,,,220,,,,,,,,,,,wg-a,,,,AAXX 27034 07280 12458 32206 10110 20110 39772 40040 58006 60006 81630 90300=
07280,1998-09-27 06:00:00,11,1003.7,,100,11,8000,7.408,,,160,9.9,15.2,,,,,20,,,,wg-a,,,,AAXX 27064 07280 02458 71604 10110 20110 39768 40037 60006 8163/ 90600 333 10152 20099 60204=
07280,1998-09-27 09:00:00,16,1003.1,-0.3,82,13,25000,18.52,,,200,,,,,,,,,,,wg-a,,,,AAXX 27094 07280 12475 72010 10160 20130 39768 40031 58003 60006 878// 90900=
07280,1998-09-27 12:00:00,20,1003,0.2,56,11,35000,35.188,,,220,,,,,,,,,,,wg-a,,,,AAXX 27124 07280 12681 52219 10200 20110 39770 40030 51002 60006 83801 91200=
07280,1998-09-27 15:00:00,19,1002.3,-0.7,56,10,500,35.188,,,210,,,,,,,,,,,wg-a,,,,AAXX 27154 07280 12600 72119 10190 20100 39763 40023 58007 60006 83802 91500=
07280,1998-09-27 18:00:00,14,1004.1,1.2,88,12,20000,22.224,,,210,11.3,20.7,,1,,,,,,1,wg-a,,,,AAXX 27184 07280 02570 62112 10140 20120 39778 40041 51012 60006 70186 84801 91800 333 10207 20113 60017=
07280,1998-09-27 21:00:00,13,1006.7,2.5,94,12,15000,14.816,,,180,,,,,,,,,,,wg-a,,,,AAXX 27214 07280 12565 81808 10130 20120 39800 40067 53025 60006 878// 92100=
07280,1998-09-28 00:00:00,13,1007.6,0.8,94,12,15000,18.52,,,200,,,,0,,,,,,80,wg-a,,,,AAXX 28004 07280 02565 82010 10130 20120 39808 40076 51008 60016 78086 8583/ 90000 333 60007=
07280,1998-09-28 03:00:00,11,1007,-0.7,100,11,12000,7.408,,,160,,,,2,,,,,,1,wg-a,,,,AAXX 28034 07280 12462 /1604 10110 20110 39801 40070 58007 60027 70186 85800 90300=
07280,1998-09-28 06:00:00,12,1007.2,0.3,94,11,500,11.112,,,190,11,14.1,,,,,3,,,3,wg-a,,,,AAXX 28064 07280 02400 61906 10120 20110 39804 40072 52003 60006 70386 83830 90600 333 10141 20110 60034=
07280,1998-09-28 09:00:00,15,1007.3,0.4,88,13,500,14.816,,,200,,,,,,,,,,21,wg-a,,,,AAXX 28094 07280 02400 72008 10150 20130 39808 40073 53004 61000 72162 84830 90900 333 ////=
07280,1998-09-28 12:00:00,15,1007.1,-0.2,94,14,8000,18.52,,,190,,,,1,,,,,,61,wg-a,,,,AAXX 28124 07280 02358 81910 10150 20140 39806 40071 58002 60016 76162 885// 91200 333 60017=
07280,1998-09-28 15:00:00,15,1007,-0.1,94,14,12000,14.816,,,220,,,,0,,,,,,61,wg-a,,,,AAXX 28154 07280 12362 82208 10150 20140 39805 40070 56001 60007 76162 888// 91500=
07280,1998-09-28 18:00:00,15,1008.4,1.3,88,13,15000,11.112,,,200,11.6,16.1,,0,,,,,,1,wg-a,,,,AAXX 28184 07280 02565 72006 10150 20130 39818 40084 53013 60006 70162 8487/ 91800 333 10161 20116 60007=
07280,1998-09-28 21:00:00,14,1009.7,1.3,94,13,15000,7.408,,,220,,,,,,,,,,,wg-a,,,,AAXX 28214 07280 12465 72204 10140 20130 39831 40097 51013 60006 878// 92100=
07280,1998-09-29 00:00:00,14,1010.4,0.6,94,13,12000,11.112,,,200,,,,,,,,,,,wg-a,,,,AAXX 29004 07280 12462 82006 10140 20130 39837 40104 52006 60006 885// 90000=
07280,1998-09-29 03:00:00,13,1010.1,-0.3,100,13,8000,7.408,,,210,,,,,,,,,,,wg-a,,,,AAXX 29034 07280 12558 72104 10130 20130 39834 40101 58003 60006 875// 90300=
07280,1998-09-29 06:00:00,13,1010.3,0.1,100,13,2200,7.408,,,180,13.1,14.8,,,,,2,,,10,wg-a,,,,AAXX 29064 07280 02422 81804 10130 20130 39835 40103 52001 60006 71022 885// 90600 333 10148 20131 60024=
07280,1998-09-29 09:00:00,16,1009.8,-0.2,88,14,6000,7.408,,,170,,,,,,,,,,,wg-a,,,,AAXX 29094 07280 12256 /1704 10160 20140 39833 40098 58002 60006 86800 90900=
07280,1998-09-29 12:00:00,19,1008.1,-1.4,73,14,15000,11.112,,,130,,,,,,,,,,,wg-a,,,,AAXX 29124 07280 12465 71306 10190 20140 39819 40081 58014 60006 85806 91200=
07280,1998-09-29 15:00:00,18,1006.7,-1.4,77,14,20000,11.112,,,180,,,,,,,,,,,wg-a,,,,AAXX 29154 07280 12570 81806 10180 20140 39805 40067 56014 60006 83237 91500=
07280,1998-09-29 18:00:00,16,1006,-0.9,88,14,15000,7.408,,,120,13.1,18.8,,,,,,,,,wg-a,,,,AAXX 29184 07280 12/65 71204 10160 20140 39796 40060 56009 60006 85038 91800 333 10188 20131=
07280,1998-09-29 21:00:00,14,1005.6,-0.5,94,13,12000,0,,,0,,,,,,,,,,,wg-a,,,,AAXX 29214 07280 12/62 80000 10140 20130 39791 40056 58005 60006 86038 92100=
07280,1998-09-30 00:00:00,14,1003.9,-1.7,100,14,10000,3.704,,,160,,,,,,,,,,,wg-a,,,,AAXX 30004 07280 12/60 81602 10140 20140 39774 40039 58017 60006 8807/ 90000=
07280,1998-09-30 03:00:00,14,1003.7,-0.2,94,13,8000,14.816,,,200,,,,2,,,,,,61,wg-a,,,,AAXX 30034 07280 12358 82008 10140 20130 39772 40037 58002 60027 76162 8687/ 90300=
07280,1998-09-30 06:00:00,14,1004.6,0.9,100,14,500,14.816,,,200,13.9,15.5,,,,,2,,,3,wg-a,,,,AAXX 30064 07280 02200 82008 10140 20140 39781 40046 51009 60006 70365 887// 90600 333 10155 20139 60024=
07280,1998-09-30 09:00:00,14,1005.5,0.9,100,14,15000,14.816,,,200,,,,3,,,,,,51,wg-a,,,,AAXX 30094 07280 12265 82008 10140 20140 39790 40055 53009 60037 75165 8587/ 90900=
07280,1998-09-30 12:00:00,15,1006,0.6,94,14,15000,11.112,,,170,,,,,,,,,,3,wg-a,,,,AAXX 30124 07280 02365 71706 10150 20140 39796 40060 51006 60036 70365 878// 91200 333 61000=
07280,1998-09-30 15:00:00,18,1005,-0.8,77,14,25000,14.816,,,180,,,,,,,,,,,wg-a,,,,AAXX 30154 07280 12475 41808 10180 20140 39788 40050 56008 60006 84200 91500=
07280,1998-09-30 18:00:00,14,1006.1,0.7,88,12,500,11.112,,,190,13.9,17.7,,,,,,,,,wg-a,,,,AAXX 30184 07280 12400 /1906 10140 20120 39795 40061 53007 60006 81800 91800 333 10177 20139=
07280,1998-09-30 21:00:00,12,1006.7,0.4,94,11,500,11.112,,,200,,,,,,,,,,,wg-a,,,,AAXX 30214 07280 12400 /2006 10120 20110 39799 40067 51004 60006 85800 92100=
07280,1998-10-01 00:00:00,11,1007,0.2,94,10,25000,7.408,,,210,,,,,,,,,,2,wg-a,,,,AAXX 01004 07280 12/75 02104 10110 20100 39801 40070 50002 60006 70261 80000 90000=
07280,1998-10-01 03:00:00,8,1007.3,0,100,8,1000,3.704,,,150,,,,,,,,,,10,wg-a,,,,AAXX 01034 07280 12/10 41502 10080 20080 39801 40073 50000 60006 71011 83031 90300=
07280,1998-10-01 06:00:00,10,1007.2,0.1,100,10,6000,3.704,,,50,7.7,13.8,,,,,3,,,1,wg-a,,,,AAXX 01064 07280 02756 /0502 10100 20100 39802 40072 53001 60006 70141 8353/ 90600 333 10138 20077 60034=
07280,1998-10-01 09:00:00,14,1007.2,0.3,88,12,10000,7.408,,,200,,,,,,,,,,,wg-a,,,,AAXX 01094 07280 12260 /2004 10140 20120 39805 40072 50003 60006 83131 90900=
07280,1998-10-01 12:00:00,18,1005.8,-1,64,11,25000,14.816,,,200,,,,,,,,,,,wg-a,,,,AAXX 01124 07280 12575 52008 10180 20110 39795 40058 58010 60006 83201 91200=
07280,1998-10-01 18:00:00,14,1005.4,-0,77,10,25000,7.408,,,170,8.8,18.6,,,,,,,,,wg-a,,,,AAXX 01184 07280 12675 41704 10140 20100 39788 40054 55000 60006 81231 91800 333 10186 20088=
07280,1998-10-01 21:00:00,12,1005.9,0.3,88,10,25000,3.704,,,190,,,,,,,,,,,wg-a,,,,AAXX 01214 07280 12775 71902 10120 20100 39791 40059 51003 60006 8453/ 92100=
07280,1998-10-02 00:00:00,12,1005.6,-0.3,88,10,25000,0,,,0,,,,0,,,,,,21,wg-a,,,,AAXX 02004 07280 02675 80000 10120 20100 39788 40056 57003 60016 72111 8357/ 90000 333 60007=
07280,1998-10-02 03:00:00,12,1005.2,-0.4,94,11,25000,7.408,,,150,,,,,,,,,,,wg-a,,,,AAXX 02034 07280 12675 81504 10120 20110 39784 40052 58004 60006 8757/ 90300=
07280,1998-10-02 06:00:00,12,1005.5,0.3,88,10,20000,11.112,,,100,10.7,13.6,,,,,1,,,3,wg-a,,,,AAXX 02064 07280 02270 81006 10120 20100 39787 40055 53003 60006 70362 885// 90600 333 10136 20107 60014=
07280,1998-10-02 09:00:00,12,1006.2,0.7,94,11,15000,14.816,,,100,,,,,,,,,,21,wg-a,,,,AAXX 02094 07280 02265 81008 10120 20110 39794 40062 51007 61000 72162 885// 90900 333 ////=
07280,1998-10-02 12:00:00,14,1005.9,-0.1,82,11,25000,11.112,,,100,,,,,,,,,,3,wg-a,,,,AAXX 02124 07280 02475 81006 10140 20110 39793 40059 58001 61000 70362 888// 91200 333 ////=
07280,1998-10-02 15:00:00,15,1005.5,-0.3,77,11,25000,14.816,,,50,,,,,,,,,,,wg-a,,,,AAXX 02154 07280 12475 80508 10150 20110 39790 40055 55003 60006 8683/ 91500=
07280,1998-10-02 18:00:00,14,1007.1,1.4,82,11,20000,0,,,0,11.4,15,,,,,,,,,wg-a,,,,AAXX 02184 07280 12470 80000 10140 20110 39804 40071 53014 60006 8683/ 91800 333 10150 20114=
07280,1998-10-02 21:00:00,13,1008.2,1,82,10,20000,11.112,,,30,,,,,,,,,,,wg-a,,,,AAXX 02214 07280 12670 /0306 10130 20100 39814 40082 51010 60006 84530 92100=
07280,1998-10-03 00:00:00,12,1008.9,0.7,88,10,15000,11.112,,,20,,,,,,,,,,,wg-a,,,,AAXX 03004 07280 12665 80206 10120 20100 39821 40089 51007 60006 8653/ 90000=
07280,1998-10-03 03:00:00,12,1009.8,0.8,88,10,15000,7.408,,,10,,,,,,,,,,,wg-a,,,,AAXX 03034 07280 12465 80104 10120 20100 39829 40098 51008 60006 878// 90300=
07280,1998-10-03 06:00:00,11,1010.9,1,87,9,12000,7.408,,,320,11.1,13.5,,,,,,,,,wg-a,,,,AAXX 03064 07280 02462 83204 10110 20090 39839 40109 53010 60006 888// 90600 333 10135 20111 61000=
07280,1998-10-03 09:00:00,11,1011.9,1,82,8,25000,11.112,,,280,,,,,,,,,,,wg-a,,,,AAXX 03094 07280 12475 82806 10110 20080 39849 40119 51010 60006 8687/ 90900=
07280,1998-10-03 12:00:00,11,1012.3,0.3,76,7,20000,14.816,,,300,,,,,,,,,,,wg-a,,,,AAXX 03124 07280 12570 83008 10110 20070 39852 40123 52003 60006 888// 91200=
07280,1998-10-03 15:00:00,12,1011.7,-0.5,76,8,12000,11.112,,,220,,,,,,,,,,,wg-a,,,,AAXX 03154 07280 12562 82206 10120 20080 39847 40117 56005 60006 888// 91500=
07280,1998-10-03 18:00:00,10,1011.7,-0.1,82,7,10000,7.408,,,240,10.1,12.1,,,,,,,,1,wg-a,,,,AAXX 03184 07280 02560 82404 10100 20070 39846 40117 56001 60006 70162 885// 91800 333 10121 20101 61000=
07280,1998-10-03 21:00:00,8,1012.1,0.1,93,7,7000,11.112,,,10,,,,1,,,,,,61,wg-a,,,,AAXX 03214 07280 12357 80106 10080 20070 39847 40121 51001 60017 76162 885// 92100=
07280,1998-10-04 00:00:00,6,1010.9,-1.3,93,5,7000,3.704,,,40,,,,2,,,,,,60,wg-a,,,,AAXX 04004 07280 02557 80402 10060 20050 39834 40109 56013 60036 76062 885// 90000 333 60027=
07280,1998-10-04 03:00:00,6,1009.1,-1.8,93,5,500,0,,,0,,,,,,,,,,3,wg-a,,,,AAXX 04034 07280 02500 80000 10060 20050 39816 40091 58018 61000 70362 885// 90300 333 ////=
07280,1998-10-04 06:00:00,7,1007.7,-1.3,87,5,3500,7.408,,,30,6.1,10.1,,,,,3,,,10,wg-a,,,,AAXX 04064 07280 02535 80304 10070 20050 39803 40077 56013 60006 71062 885// 90600 333 10101 20061 60034=
07280,1998-10-04 09:00:00,7,1007.1,-0.5,93,6,3000,3.704,,,30,,,,1,,,,,,10,wg-a,,,,AAXX 04094 07280 12230 80302 10070 20060 39798 40071 57005 60017 71065 886// 90900=
07280,1998-10-04 12:00:00,9,1005.8,-1.1,87,7,6000,3.704,,,80,,,,1,,,,,,60,wg-a,,,,AAXX 04124 07280 02256 80802 10090 20070 39787 40058 57011 60026 76065 886// 91200 333 60017=
07280,1998-10-04 15:00:00,9,1004.6,-1.1,93,8,8000,0,,,0,,,,1,,,,,,60,wg-a,,,,AAXX 04154 07280 12258 80000 10090 20080 39776 40046 56011 60017 76066 886// 91500=
07280,1998-10-04 18:00:00,9,1004.5,-0.1,100,9,4000,7.408,,,20,6.3,9.4,,,,,,,,10,wg-a,,,,AAXX 04184 07280 02240 80204 10090 20090 39775 40045 55001 61000 71066 887// 91800 333 10094 20063 6004=
07280,1998-10-04 21:00:00,9,1005.5,0.9,93,8,10000,3.704,,,60,,,,1,,,,,,1,wg-a,,,,AAXX 04214 07280 12260 40602 10090 20080 39784 40055 52009 60017 70161 84500 92100=
07280,1998-10-05 00:00:00,8,1005.9,0.4,100,8,3000,7.408,,,360,,,,,,,,,,10,wg-a,,,,AAXX 05004 07280 12230 83604 10080 20080 39788 40059 51004 60016 71061 885// 90000=
07280,1998-10-05 03:00:00,7,1006.3,0.2,100,7,4500,7.408,,,360,,,,,,,,,,10,wg-a,,,,AAXX 05034 07280 12545 33604 10070 20070 39790 40063 52002 60006 71011 83500 90300=
07280,1998-10-05 06:00:00,5,1007.1,0.5,93,4,3500,7.408,,,350,4.6,9.4,,,,,8,,,12,wg-a,,,,AAXX 05064 07280 02535 /3504 10050 20040 39795 40071 53005 60006 71211 81500 90600 333 10094 20046 60084=
07280,1998-10-05 09:00:00,9,1008,1.3,87,7,8000,7.408,,,60,,,,,,,,,,,wg-a,,,,AAXX 05094 07280 12258 30604 10090 20070 39808 40080 53013 60006 82130 90900=
07280,1998-10-05 12:00:00,11,1007.9,0.2,82,8,10000,11.112,,,50,,,,,,,,,,,wg-a,,,,AAXX 05124 07280 12360 20506 10110 20080 39810 40079 50002 60006 81230 91200=
07280,1998-10-05 15:00:00,13,1007.3,-0.4,72,8,20000,11.112,,,60,,,,,,,,,,,wg-a,,,,AAXX 05154 07280 12570 20606 10130 20080 39806 40073 56004 60006 81102 91500=
07280,1998-10-05 18:00:00,10,1008.1,0.5,87,8,20000,11.112,,,10,4.2,13.4,,,,,,,,,wg-a,,,,AAXX 05184 07280 12/70 30106 10100 20080 39811 40081 53005 60006 81036 91800 333 10134 20042=
07280,1998-10-05 21:00:00,9,1008.7,0.5,87,7,15000,18.52,,,10,,,,,,,,,,,wg-a,,,,AAXX 05214 07280 12/65 60110 10090 20070 39816 40087 52005 60006 84036 92100=
07280,1998-10-06 00:00:00,10,1008.2,-0.5,87,8,15000,14.816,,,10,,,,,,,,,,,wg-a,,,,AAXX 06004 07280 12665 70108 10100 20080 39811 40082 57005 60006 82535 90000=
07280,1998-10-06 03:00:00,10,1007,-1.1,87,8,12000,14.816,,,20,,,,,,,,,,,wg-a,,,,AAXX 06034 07280 12/62 80208 10100 20080 39800 40070 58011 60006 86038 90300=
07280,1998-10-06 06:00:00,10,1006.7,-0.3,87,8,6000,22.224,,,20,9.1,10.4,,,,,,,,60,wg-a,,,,AAXX 06064 07280 02756 80212 10100 20080 39797 40067 55003 61000 76062 8357/ 90600 333 10104 20091 6100=
07280,1998-10-06 09:00:00,11,1007,0.4,94,10,6000,22.224,,,20,,,,1,,,,,,60,wg-a,,,,AAXX 06094 07280 12356 80212 10110 20100 39801 40070 53004 60017 76066 8557/ 90900=
07280,1998-10-06 12:00:00,11,1007.6,0.6,94,10,6000,18.52,,,20,,,,1,,,,,,58,wg-a,,,,AAXX 06124 07280 02356 80210 10110 20100 39807 40076 53006 60026 75866 885// 91200 333 60017=
07280,1998-10-06 15:00:00,10,1009.2,1.5,93,9,9000,11.112,,,10,,,,3,,,,,,60,wg-a,,,,AAXX 06154 07280 12259 80106 10100 20090 39822 40092 53015 60037 76066 885// 91500=
07280,1998-10-06 18:00:00,10,1011.3,2,93,9,6000,3.704,,,350,9.7,11.2,,,,,,,,61,wg-a,,,,AAXX 06184 07280 02256 83502 10100 20090 39842 40113 53020 61000 76166 875// 91800 333 10112 20097 6001=
07280,1998-10-06 21:00:00,10,1012.7,1.3,93,9,500,3.704,,,180,,,,1,,,,,,21,wg-a,,,,AAXX 06214 07280 12200 81802 10100 20090 39855 40127 53013 60017 72162 875// 92100=
07280,1998-10-07 00:00:00,10,1013.5,0.8,93,9,500,3.704,,,230,,,,,,,,,,1,wg-a,,,,AAXX 07004 07280 12100 82302 10100 20090 39863 40135 53008 60016 70162 885// 90000=
07280,1998-10-07 03:00:00,9,1013.8,0.3,93,8,500,7.408,,,320,,,,,,,,,,,wg-a,,,,AAXX 07034 07280 12500 83204 10090 20080 39866 40138 53003 60006 885// 90300=
07280,1998-10-07 06:00:00,9,1014.6,0.7,93,8,7000,7.408,,,320,9.1,9.8,,,,,6,,,,wg-a,,,,AAXX 07064 07280 02457 83204 10090 20080 39873 40146 53007 60006 885// 90600 333 10098 20091 60064=
07280,1998-10-07 09:00:00,11,1015.4,1,82,8,10000,7.408,,,320,,,,,,,,,,,wg-a,,,,AAXX 07094 07280 12460 73204 10110 20080 39883 40154 50010 60006 875// 90900=
07280,1998-10-07 12:00:00,11,1015.6,0.2,82,8,20000,11.112,,,360,,,,,,,,,,,wg-a,,,,AAXX 07124 07280 12570 83606 10110 20080 39885 40156 53002 60006 885// 91200=
07280,1998-10-07 15:00:00,10,1015.7,0,87,8,15000,18.52,,,320,,,,0,,,,,,3,wg-a,,,,AAXX 07154 07280 12465 83210 10100 20080 39885 40157 50000 60007 70362 888// 91500=
07280,1998-10-07 18:00:00,9,1017.9,2,81,6,15000,14.816,,,330,9,12,,,,,,,,1,wg-a,,,,AAXX 07184 07280 12465 73308 10090 20060 39905 40179 51020 60006 70162 878// 91800 333 10120 20090=
07280,1998-10-07 21:00:00,8,1018.1,0.1,87,6,12000,14.816,,,310,,,,,,,,,,,wg-a,,,,AAXX 07214 07280 12462 73108 10080 20060 39906 40181 52001 60006 875// 92100=
07280,1998-10-08 00:00:00,8,1018.2,0.1,81,5,9000,0,,,0,,,,,,,,,,,wg-a,,,,AAXX 08004 07280 12459 70000 10080 20050 39907 40182 50001 60006 875// 90000=
07280,1998-10-08 03:00:00,8,1017.2,-1,87,6,6000,7.408,,,190,,,,,,,,,,,wg-a,,,,AAXX 08034 07280 12456 81904 10080 20060 39897 40172 58010 60006 886// 90300=
07280,1998-10-08 06:00:00,8,1017.5,0.3,93,7,3000,11.112,,,210,7.4,9,,,,,,,,10,wg-a,,,,AAXX 08064 07280 02330 82106 10080 20070 39900 40175 51003 61000 71052 886// 90600 333 10090 20074 6000=
07280,1998-10-08 09:00:00,9,1018.2,0.8,93,8,500,11.112,,,200,,,,0,,,,,,1,wg-a,,,,AAXX 08094 07280 12200 82006 10090 20080 39908 40182 51008 60007 70165 886// 90900=
07280,1998-10-08 12:00:00,11,1017.9,-0.1,87,9,12000,11.112,,,160,,,,,,,,,,1,wg-a,,,,AAXX 08124 07280 12462 81606 10110 20090 39907 40179 58001 60006 70165 875// 91200=
07280,1998-10-08 15:00:00,11,1017.6,-0.3,87,9,12000,7.408,,,150,,,,0,,,,,,21,wg-a,,,,AAXX 08154 07280 12462 81504 10110 20090 39904 40176 56003 60007 72162 885// 91500=
07280,1998-10-08 18:00:00,10,1018.4,0.7,93,9,8000,3.704,,,340,7.9,11.9,,,,,,,,21,wg-a,,,,AAXX 08184 07280 02458 83402 10100 20090 39911 40184 53007 61000 72162 885// 91800 333 10119 20079 6000=
07280,1998-10-08 21:00:00,9,1019.6,1.1,93,8,8000,7.408,,,60,,,,,,,,,,,wg-a,,,,AAXX 08214 07280 12458 /0604 10090 20080 39922 40196 52011 60006 875// 92100=
07280,1998-10-09 00:00:00,9,1020.5,0.8,100,9,300,3.704,,,110,,,,,,,,,,41,wg-a,,,,AAXX 09004 07280 12/03 91102 10090 20090 39930 40205 53008 60006 74142 89/// 90000=
07280,1998-10-09 03:00:00,9,1021.5,1,93,8,900,7.408,,,30,,,,,,,,,,45,wg-a,,,,AAXX 09034 07280 12/09 90304 10090 20080 39940 40215 52010 60006 74542 89/// 90300=
07280,1998-10-09 06:00:00,8,1022.1,0.5,100,8,400,3.704,,,50,8,9.7,,,,,1,,,43,wg-a,,,,AAXX 09064 07280 02/04 90502 10080 20080 39945 40221 51005 60006 74342 89/// 90600 333 10097 20080 60014=
07280,1998-10-09 09:00:00,9,1022.8,0.8,93,8,4000,11.112,,,20,,,,,,,,,,10,wg-a,,,,AAXX 09094 07280 12140 80206 10090 20080 39953 40228 51008 60006 71042 886// 90900=
07280,1998-10-09 12:00:00,13,1021.5,-0.9,88,11,7000,11.112,,,170,,,,,,,,,,1,wg-a,,,,AAXX 09124 07280 12257 41706 10130 20110 39944 40215 58009 60006 70141 84200 91200=
07280,1998-10-09 15:00:00,15,1019.9,-1.4,72,10,25000,11.112,,,190,,,,,,,,,,,wg-a,,,,AAXX 09154 07280 12475 21906 10150 20100 39930 40199 56014 60006 82201 91500=
07280,1998-10-09 18:00:00,11,1019.7,-0.5,87,9,9000,11.112,,,200,8,15.1,,,,,,,,,wg-a,,,,AAXX 09184 07280 12/59 22006 10110 20090 39925 40197 55005 60006 80004 91800 333 10151 20080=
07280,1998-10-09 21:00:00,8,1020.8,0.7,93,7,12000,7.408,,,230,,,,,,,,,,,wg-a,,,,AAXX 09214 07280 12/62 22304 10080 20070 39932 40208 51007 60006 80001 92100=
07280,1998-10-10 00:00:00,7,1019.5,-1.3,100,7,8000,7.408,,,190,,,,,,,,,,,wg-a,,,,AAXX 10004 07280 12658 /1904 10070 20070 39919 40195 58013 60006 81501 90000=
07280,1998-10-10 03:00:00,7,1018.7,-0.8,100,7,7000,11.112,,,210,,,,,,,,,,,wg-a,,,,AAXX 10034 07280 12657 82106 10070 20070 39911 40187 56008 60006 86502 90300=
07280,1998-10-10 06:00:00,7,1018.2,-0.5,100,7,500,14.816,,,200,5.9,11,,,,,,,,,wg-a,,,,AAXX 10064 07280 02600 /2008 10070 20070 39906 40182 56005 60006 81531 90600 333 10110 20059 60004=
07280,1998-10-10 09:00:00,12,1017.8,0.1,82,9,18000,25.928,,,210,,,,,,,,,,,wg-a,,,,AAXX 10094 07280 12468 /2114 10120 20090 39907 40178 51001 60006 81170 90900=
07280,1998-10-10 12:00:00,13,1016.9,-0.8,77,9,20000,29.632,,,220,,,,0,,,,,,60,wg-a,,,,AAXX 10124 07280 02470 82216 10130 20090 39899 40169 58008 60006 76062 8482/ 91200 333 60007=
07280,1998-10-10 15:00:00,13,1015.6,-1.2,77,9,25000,22.224,,,210,,,,,,,,,,21,wg-a,,,,AAXX 10154 07280 02575 82112 10130 20090 39887 40156 56012 61000 72162 888// 91500 333 ////=
07280,1998-10-10 18:00:00,11,1016.6,0.8,94,10,20000,25.928,,,220,7.2,13.3,,,,,,,,21,wg-a,,,,AAXX 10184 07280 02470 82214 10110 20100 39895 40166 51008 61000 72162 878// 91800 333 10133 20072 6001=
07280,1998-10-10 21:00:00,12,1017.8,1.2,88,10,8000,22.224,,,200,,,,,,,,,,60,wg-a,,,,AAXX 10214 07280 02358 82012 10120 20100 39907 40178 51012 61000 76062 888// 92100 333 ////=
07280,1998-10-11 00:00:00,12,1018.1,0.3,94,11,10000,18.52,,,200,,,,,,,,,,2,wg-a,,,,AAXX 11004 07280 02260 82010 10120 20110 39910 40181 51003 61000 70262 886// 90000 333 6100=
07280,1998-10-11 03:00:00,10,1018.7,0.4,100,10,8000,11.112,,,210,,,,,,,,,,,wg-a,,,,AAXX 11034 07280 12258 32106 10100 20100 39914 40187 53004 60006 83500 90300=
07280,1998-10-11 06:00:00,10,1019.2,0.5,93,9,20000,11.112,,,210,9.9,11.7,,,,,1,,,,wg-a,,,,AAXX 11064 07280 02770 72106 10100 20090 39919 40192 53005 60006 875// 90600 333 10117 20099 60014=
07280,1998-10-11 09:00:00,13,1019.6,0.7,88,11,20000,22.224,,,210,,,,,,,,,,,wg-a,,,,AAXX 11094 07280 12470 72112 10130 20110 39926 40196 50007 60006 8485/ 90900=
07280,1998-10-11 12:00:00,14,1018,-1.6,67,8,25000,25.928,,,230,,,,,,,,,,,wg-a,,,,AAXX 11124 07280 12575 82314 10140 20080 39910 40180 58016 60006 878// 91200=
07280,1998-10-11 15:00:00,12,1017,-1.1,88,10,8000,18.52,,,210,,,,2,,,,,,61,wg-a,,,,AAXX 11154 07280 12458 82110 10120 20100 39899 40170 57011 60027 76162 888// 91500=
07280,1998-10-11 18:00:00,11,1016.4,-0.6,94,10,6000,22.224,,,200,10.4,14,,,,,,,,51,wg-a,,,,AAXX 11184 07280 02256 82012 10110 20100 39893 40164 55006 61000 75165 887// 91800 333 10140 20104 6002=
07280,1998-10-11 21:00:00,11,1015.6,-0.8,100,11,7000,22.224,,,210,,,,,,,,,,50,wg-a,,,,AAXX 11214 07280 02257 82112 10110 20110 39885 40156 56008 61000 75055 887// 92100 333 ////=
07280,1998-10-12 00:00:00,11,1014.5,-1.1,100,11,500,18.52,,,210,,,,0,,,,,,50,wg-a,,,,AAXX 12004 07280 02100 82110 10110 20110 39874 40145 58011 60006 75052 887// 90000 333 60007=
07280,1998-10-12 03:00:00,11,1014.1,-0.4,100,11,3000,14.816,,,220,,,,,,,,,,10,wg-a,,,,AAXX 12034 07280 02130 82208 10110 20110 39870 40141 58004 61000 71052 886// 90300 333 ////=
07280,1998-10-12 06:00:00,11,1015.3,1.1,87,9,15000,11.112,,,270,10,11.3,,,,,4,,,3,wg-a,,,,AAXX 12064 07280 02565 72706 10110 20090 39881 40153 51011 60006 70365 878// 90600 333 10113 20100 60044=
07280,1998-10-12 09:00:00,12,1016.9,1.7,76,8,25000,14.816,,,240,,,,,,,,,,,wg-a,,,,AAXX 12094 07280 12475 82408 10120 20080 39898 40169 51017 60006 888// 90900=
07280,1998-10-12 12:00:00,13,1017.8,1,82,10,25000,22.224,,,290,,,,0,,,,,,25,wg-a,,,,AAXX 12124 07280 02575 /2912 10130 20100 39908 40178 51010 60016 72586 86800 91200 333 60007=
07280,1998-10-12 15:00:00,14,1018.4,0.7,67,8,25000,22.224,,,290,,,,,,,,,,1,wg-a,,,,AAXX 12154 07280 02675 /2912 10140 20080 39915 40184 53007 61000 70186 85800 91500 333 ////=
07280,1998-10-12 18:00:00,10,1020.7,1.8,87,8,25000,7.408,,,280,9.7,14.7,,,,,,,,1,wg-a,,,,AAXX 12184 07280 12675 32804 10100 20080 39933 40207 52018 60006 70186 83800 91800 333 10147 20097=
07280,1998-10-12 21:00:00,7,1023.1,2,93,6,20000,7.408,,,280,,,,,,,,,,,wg-a,,,,AAXX 12214 07280 12770 32804 10070 20060 39953 40231 51020 60006 83500 92100=
07280,1998-10-13 00:00:00,5,1024,0.7,100,5,15000,3.704,,,330,,,,,,,,,,11,wg-a,,,,AAXX 13004 07280 12765 /3302 10050 20050 39960 40240 51007 60006 71100 81500 90000=
07280,1998-10-13 03:00:00,4,1024.4,0.3,100,4,8000,0,,,0,,,,,,,,,,,wg-a,,,,AAXX 13034 07280 12658 /0000 10040 20040 39963 40244 51003 60006 86500 90300=
07280,1998-10-13 06:00:00,4,1025.2,0.8,100,4,3000,7.408,,,320,2.9,9.7,,,,,,,,28,wg-a,,,,AAXX 13064 07280 02630 53204 10040 20040 39971 40252 51008 60006 72841 85501 90600 333 10097 20029 60004=
07280,1998-10-13 09:00:00,10,1025.9,1.2,87,8,25000,3.704,,,190,,,,,,,,,,,wg-a,,,,AAXX 13094 07280 12675 71902 10100 20080 39983 40259 51012 60006 875// 90900=
07280,1998-10-13 12:00:00,13,1025.2,-0.3,72,8,25000,7.408,,,150,,,,,,,,,,,wg-a,,,,AAXX 13124 07280 12475 71504 10130 20080 39980 40252 56003 60006 878// 91200=
07280,1998-10-13 15:00:00,14,1024.4,-0.7,63,7,25000,11.112,,,200,,,,,,,,,,,wg-a,,,,AAXX 13154 07280 12675 72006 10140 20070 39973 40244 56007 60006 85531 91500=
07280,1998-10-13 18:00:00,11,1024.9,0.2,82,8,25000,7.408,,,220,3.7,14.3,,,,,,,,,wg-a,,,,AAXX 13184 07280 12675 72204 10110 20080 39975 40249 53002 60006 8453/ 91800 333 10143 20037=
07280,1998-10-13 21:00:00,10,1025.4,0.4,87,8,20000,11.112,,,210,,,,,,,,,,,wg-a,,,,AAXX 13214 07280 12670 82106 10100 20080 39979 40254 52004 60006 875// 92100=
07280,1998-10-14 00:00:00,10,1025.1,-0.3,87,8,15000,11.112,,,180,,,,0,,,,,,3,wg-a,,,,AAXX 14004 07280 02565 81806 10100 20080 39976 40251 57003 60006 70362 885// 90000 333 60007=
07280,1998-10-14 03:00:00,10,1024.1,-1,87,8,15000,22.224,,,200,,,,,,,,,,,wg-a,,,,AAXX 14034 07280 12465 82012 10100 20080 39966 40241 57010 60006 885// 90300=
07280,1998-10-14 06:00:00,10,1024.5,0.4,93,9,6000,18.52,,,200,9.4,10.9,,,,,,,,61,wg-a,,,,AAXX 14064 07280 02256 82010 10100 20090 39970 40245 52004 61000 76162 886// 90600 333 10109 20094 6001=
07280,1998-10-14 09:00:00,11,1025.4,1,100,11,3500,22.224,,,200,,,,0,,,,,,50,wg-a,,,,AAXX 14094 07280 12135 82012 10110 20110 39980 40254 51010 60007 75065 886// 90900=
07280,1998-10-14 12:00:00,13,1024.9,-0.2,94,12,10000,18.52,,,180,,,,,,,,,,1,wg-a,,,,AAXX 14124 07280 02260 71810 10130 20120 39978 40249 58002 60006 70165 875// 91200 333 61000=
07280,1998-10-14 15:00:00,15,1024.6,-0.2,88,13,15000,22.224,,,190,,,,,,,,,,50,wg-a,,,,AAXX 14154 07280 02365 81912 10150 20130 39976 40246 56002 61000 75052 885// 91500 333 ////=
07280,1998-10-14 18:00:00,13,1025.8,1,100,13,9000,18.52,,,190,9.9,14.8,,,,,,,,20,wg-a,,,,AAXX 14184 07280 02259 81910 10130 20130 39986 40258 53010 61000 72052 885// 91800 333 10148 20099 6000=
07280,1998-10-14 21:00:00,13,1026.1,0.3,94,12,12000,14.816,,,210,,,,,,,,,,,wg-a,,,,AAXX 14214 07280 12262 72108 10130 20120 39989 40261 52003 60006 875// 92100=
07280,1998-10-15 00:00:00,13,1025.9,-0.2,94,12,12000,11.112,,,190,,,,,,,,,,,wg-a,,,,AAXX 15004 07280 12662 81906 10130 20120 39987 40259 58002 60006 885// 90000=
07280,1998-10-15 03:00:00,13,1025,-0.9,94,12,12000,7.408,,,200,,,,,,,,,,,wg-a,,,,AAXX 15034 07280 12262 82004 10130 20120 39978 40250 58009 60006 885// 90300=
07280,1998-10-15 06:00:00,13,1024.6,-0.4,100,13,9000,11.112,,,190,12.6,13.4,,,,,,,,21,wg-a,,,,AAXX 15064 07280 02459 71906 10130 20130 39974 40246 58004 61000 72162 875// 90600 333 10134 20126 6001=
07280,1998-10-15 09:00:00,15,1025.1,0.7,94,14,12000,11.112,,,230,,,,,,,,,,60,wg-a,,,,AAXX 15094 07280 02462 82306 10150 20140 39981 40251 51007 61000 76062 888// 90900 333 ////=
07280,1998-10-15 12:00:00,17,1024.3,-0.6,82,14,500,11.112,,,260,,,,,,,,,,60,wg-a,,,,AAXX 15124 07280 02500 82606 10170 20140 39975 40243 58006 61000 76062 885// 91200 333 6100=
07280,1998-10-15 15:00:00,17,1022.9,-1.3,77,13,500,11.112,,,210,,,,,,,,,,3,wg-a,,,,AAXX 15154 07280 02500 82106 10170 20130 39962 40229 56013 61000 70362 888// 91500 333 ////=
07280,1998-10-15 18:00:00,15,1023.4,0.3,94,14,25000,3.704,,,150,12.9,17.3,,,,,,,,21,wg-a,,,,AAXX 15184 07280 02575 71502 10150 20140 39965 40234 53003 61000 72162 8557/ 91800 333 10173 20129 6100=
07280,1998-10-15 21:00:00,14,1023.6,0.1,94,13,15000,3.704,,,230,,,,,,,,,,3,wg-a,,,,AAXX 15214 07280 02565 82302 10140 20130 39966 40236 52001 61000 70362 885// 92100 333 ////=
07280,1998-10-16 00:00:00,14,1023,-0.6,94,13,15000,7.408,,,170,,,,,,,,,,2,wg-a,,,,AAXX 16004 07280 02565 81704 10140 20130 39960 40230 58006 61000 70262 885// 90000 333 ////=
07280,1998-10-16 03:00:00,13,1022.2,-0.9,100,13,15000,0,,,0,,,,,,,,,,,wg-a,,,,AAXX 16034 07280 12265 80000 10130 20130 39951 40222 58009 60006 885// 90300=
07280,1998-10-16 06:00:00,13,1021.4,-0.8,100,13,12000,3.704,,,190,13.1,15.1,,,,,,,,,wg-a,,,,AAXX 16064 07280 02262 81902 10130 20130 39943 40214 58008 60006 885// 90600 333 10151 20131 61000=
07280,1998-10-16 09:00:00,14,1021.4,0.1,94,13,12000,3.704,,,160,,,,,,,,,,,wg-a,,,,AAXX 16094 07280 12462 81602 10140 20130 39944 40214 50001 60006 885// 90900=
07280,1998-10-16 12:00:00,16,1019.6,-1.6,82,13,25000,14.816,,,180,,,,,,,,,,,wg-a,,,,AAXX 16124 07280 12475 /1808 10160 20130 39928 40196 58016 60006 875// 91200=
07280,1998-10-16 15:00:00,17,1016.9,-2.5,82,14,25000,14.816,,,190,,,,,,,,,,,wg-a,,,,AAXX 16154 07280 12575 71908 10170 20140 39903 40169 56025 60006 82101 91500=
07280,1998-10-16 18:00:00,13,1016,-1.2,94,12,20000,0,,,0,13.1,17.2,,,,,,,,11,wg-a,,,,AAXX 16184 07280 12/70 70000 10130 20120 39891 40160 56012 60006 71122 80001 91800 333 10172 20131=
07280,1998-10-16 21:00:00,12,1015.6,-0.5,100,12,10000,11.112,,,200,,,,,,,,,,,wg-a,,,,AAXX 16214 07280 12/60 32006 10120 20120 39886 40156 56005 60006 80001 92100=
07280,1998-10-17 00:00:00,12,1015,-0.6,88,10,12000,18.52,,,200,,,,,,,,,,,wg-a,,,,AAXX 17004 07280 12/62 22010 10120 20100 39880 40150 56006 60006 80001 90000=
07280,1998-10-17 03:00:00,11,1013.8,-1.2,94,10,12000,22.224,,,210,,,,,,,,,,,wg-a,,,,AAXX 17034 07280 12/62 32112 10110 20100 39868 40138 58012 60006 80001 90300=
07280,1998-10-17 06:00:00,12,1013.2,-0.6,88,10,12000,18.52,,,210,10.7,13.4,,,,,,,,,wg-a,,,,AAXX 17064 07280 02/62 32110 10120 20100 39862 40132 58006 60006 80002 90600 333 10134 20107 60004=
07280,1998-10-17 09:00:00,17,1012.5,-0.2,82,14,15000,25.928,,,210,,,,,,,,,,,wg-a,,,,AAXX 17094 07280 12465 /2114 10170 20140 39860 40125 58002 60006 81132 90900=
07280,1998-10-17 12:00:00,19,1010.7,-1.5,73,14,25000,35.188,,,200,,,,,,,,,,,wg-a,,,,AAXX 17124 07280 12575 72019 10190 20140 39845 40107 57015 60006 81132 91200=
07280,1998-10-17 15:00:00,18,1009.8,-1,77,14,15000,29.632,,,210,,,,,,,,,,,wg-a,,,,AAXX 17154 07280 12565 72116 10180 20140 39835 40098 56010 60006 8687/ 91500=
07280,1998-10-17 18:00:00,15,1012.1,2,88,13,12000,18.52,,,210,11.6,20.7,,,,,,,,61,wg-a,,,,AAXX 17184 07280 02662 82110 10150 20130 39855 40121 53020 61000 76162 878// 91800 333 10207 20116 6002=
07280,1998-10-17 21:00:00,13,1015.5,3.1,82,10,12000,14.816,,,270,,,,1,,,,,,1,wg-a,,,,AAXX 17214 07280 12662 52708 10130 20100 39886 40155 53031 60017 70162 83530 92100=
07280,1998-10-18 00:00:00,9,1018.6,2.6,87,7,15000,3.704,,,180,,,,,,,,,,1,wg-a,,,,AAXX 18004 07280 12/65 01802 10090 20070 39912 40186 51026 60016 70161 80000 90000=
07280,1998-10-18 03:00:00,7,1019.8,1,93,6,15000,7.408,,,260,,,,,,,,,,,wg-a,,,,AAXX 18034 07280 12/65 02604 10070 20060 39922 40198 51010 60006 80000 90300=
07280,1998-10-18 06:00:00,5,1021,0.9,100,5,15000,0,,,0,4.9,15.1,,,,,3,,,,wg-a,,,,AAXX 18064 07280 02/65 50000 10050 20050 39931 40210 51009 60006 80001 90600 333 10151 20049 60034=
07280,1998-10-18 09:00:00,12,1021.4,1,71,7,20000,3.704,,,210,,,,,,,,,,,wg-a,,,,AAXX 18094 07280 12470 /2102 10120 20070 39941 40214 50010 60006 81102 90900=
07280,1998-10-18 12:00:00,15,1020.1,-0.9,51,5,500,3.704,,,320,,,,,,,,,,,wg-a,,,,AAXX 18124 07280 12600 73202 10150 20050 39932 40201 58009 60006 83202 91200=
07280,1998-10-18 15:00:00,13,1019,-1.2,58,5,500,7.408,,,340,,,,,,,,,,,wg-a,,,,AAXX 18154 07280 12600 73404 10130 20050 39920 40190 56012 60006 85402 91500=
07280,1998-10-18 18:00:00,11,1019.3,-0,82,8,20000,11.112,,,350,4.8,15.1,,,,,,,,,wg-a,,,,AAXX 18184 07280 12670 73506 10110 20080 39920 40193 55000 60006 84402 91800 333 10151 20048=
07280,1998-10-18 21:00:00,9,1019.6,0.1,81,6,15000,7.408,,,20,,,,,,,,,,,wg-a,,,,AAXX 18214 07280 12665 50204 10090 20060 39921 40196 52001 60006 84501 92100=
07280,1998-10-19 00:00:00,6,1018.8,-1,93,5,15000,7.408,,,350,,,,,,,,,,,wg-a,,,,AAXX 19004 07280 12665 33504 10060 20050 39911 40188 58010 60006 83501 90000=
07280,1998-10-19 03:00:00,4,1017.8,-1.2,93,3,15000,11.112,,,340,,,,,,,,,,,wg-a,,,,AAXX 19034 07280 12665 23406 10040 20030 39899 40178 58012 60006 81501 90300=
07280,1998-10-19 06:00:00,4,1018.4,0.5,93,3,15000,11.112,,,330,3.2,10.6,,,,,,,,,wg-a,,,,AAXX 19064 07280 02/65 23306 10040 20030 39904 40184 51005 60006 80002 90600 333 10106 20032 60004=
07280,1998-10-19 09:00:00,10,1019.1,1.4,76,6,25000,14.816,,,20,,,,,,,,,,,wg-a,,,,AAXX 19094 07280 12475 /0208 10100 20060 39918 40191 51014 60006 81102 90900=
07280,1998-10-19 12:00:00,13,1018.9,0,54,4,25000,18.52,,,360,,,,,,,,,,,wg-a,,,,AAXX 19124 07280 12675 43610 10130 20040 39918 40189 50000 60006 84200 91200=
07280,1998-10-19 15:00:00,13,1018.9,-0,51,3,500,14.816,,,350,,,,,,,,,,,wg-a,,,,AAXX 19154 07280 12600 43508 10130 20030 39918 40189 55000 60006 84400 91500=
07280,1998-10-19 18:00:00,9,1020.8,1.5,71,4,500,7.408,,,330,3.3,13.9,,,,,,,,,wg-a,,,,AAXX 19184 07280 12/00 03304 10090 20040 39933 40208 53015 60006 80000 91800 333 10139 20033=
07280,1998-10-19 21:00:00,8,1022.3,1.4,81,5,25000,7.408,,,350,,,,,,,,,,,wg-a,,,,AAXX 19214 07280 12675 23504 10080 20050 39947 40223 51014 60006 82500 92100=
07280,1998-10-20 00:00:00,4,1023.3,0.6,93,3,25000,3.704,,,310,,,,,,,,,,,wg-a,,,,AAXX 20004 07280 12/75 03102 10040 20030 39953 40233 52006 60006 80000 90000=
07280,1998-10-20 03:00:00,4,1023.4,0,93,3,20000,3.704,,,350,,,,,,,,,,11,wg-a,,,,AAXX 20034 07280 12670 73502 10040 20030 39953 40234 50000 60006 71111 875// 90300=
07280,1998-10-20 06:00:00,4,1024.8,1.4,93,3,15000,3.704,,,350,2.6,8.9,,,,,,,,,wg-a,,,,AAXX 20064 07280 02765 43502 10040 20030 39967 40248 52014 60006 83530 90600 333 10089 20026 60004=
07280,1998-10-20 09:00:00,10,1025.7,1.4,76,6,10000,3.704,,,120,,,,,,,,,,,wg-a,,,,AAXX 20094 07280 12460 /1202 10100 20060 39981 40257 52014 60006 81101 90900=
07280,1998-10-20 12:00:00,13,1025.4,0,62,6,500,3.704,,,350,,,,,,,,,,,wg-a,,,,AAXX 20124 07280 12600 33502 10130 20060 39981 40254 50000 60006 83200 91200=
07280,1998-10-20 15:00:00,15,1025,-0.2,41,2,40000,0,,,0,,,,,,,,,,,wg-a,,,,AAXX 20154 07280 12682 40000 10150 20020 39979 40250 55002 60006 83201 91500=
07280,1998-10-20 18:00:00,8,1026.4,0.7,76,4,25000,3.704,,,280,3.4,14.8,,,,,,,,,wg-a,,,,AAXX 20184 07280 12775 22802 10080 20040 39986 40264 53007 60006 81501 91800 333 10148 20034=
07280,1998-10-20 21:00:00,6,1026.8,0.2,87,4,15000,7.408,,,350,,,,,,,,,,,wg-a,,,,AAXX 20214 07280 12/65 43504 10060 20040 39988 40268 50002 60006 80001 92100=
07280,1998-10-21 00:00:00,4,1026.1,-0.9,93,3,15000,3.704,,,10,,,,,,,,,,,wg-a,,,,AAXX 21004 07280 12/65 40102 10040 20030 39979 40261 58009 60006 80002 90000=
07280,1998-10-21 03:00:00,2,1025.4,-0.8,93,1,10000,3.704,,,160,,,,,,,,,,,wg-a,,,,AAXX 21034 07280 12/60 51602 10020 20010 39971 40254 56008 60006 80002 90300=
07280,1998-10-21 06:00:00,2,1025,-0.4,93,1,700,0,,,0,1.6,7.9,,,,,,,,41,wg-a,,,,AAXX 21064 07280 02/07 70000 10020 20010 39967 40250 58004 60006 74141 81032 90600 333 10079 20016 60004=
07280,1998-10-21 09:00:00,6,1025.4,0.8,87,4,9000,11.112,,,170,,,,,,,,,,2,wg-a,,,,AAXX 21094 07280 12/59 71706 10060 20040 39975 40254 53008 60006 70242 80002 90900=
07280,1998-10-21 12:00:00,13,1023.6,-1.1,62,6,20000,25.928,,,190,,,,,,,,,,3,wg-a,,,,AAXX 21124 07280 12/70 71914 10130 20060 39964 40236 58011 60006 70342 81039 91200=
07280,1998-10-21 15:00:00,14,1022.9,-0.5,58,6,25000,22.224,,,180,,,,,,,,,,,wg-a,,,,AAXX 21154 07280 12/75 41812 10140 20060 39959 40229 58005 60006 82031 91500=
07280,1998-10-21 18:00:00,9,1025,1.5,81,6,20000,11.112,,,230,1.8,14.8,,,,,,,,,wg-a,,,,AAXX 21184 07280 12/70 52306 10090 20060 39974 40250 53015 60006 81031 91800 333 10148 20018=
07280,1998-10-21 21:00:00,6,1026.4,1,87,4,20000,3.704,,,340,,,,,,,,,,,wg-a,,,,AAXX 21214 07280 12/70 73402 10060 20040 39984 40264 51010 60006 80001 92100=
07280,1998-10-22 00:00:00,7,1026.8,0.6,93,6,15000,7.408,,,210,,,,,,,,,,,wg-a,,,,AAXX 22004 07280 12/65 42104 10070 20060 39990 40268 51006 60006 81031 90000=
07280,1998-10-22 03:00:00,7,1027.2,0.3,87,5,12000,3.704,,,180,,,,,,,,,,,wg-a,,,,AAXX 22034 07280 12/62 41802 10070 20050 39993 40272 50003 60006 82031 90300=
07280,1998-10-22 06:00:00,7,1027.4,0.2,93,6,12000,11.112,,,170,5,9.3,,,,,,,,,wg-a,,,,AAXX 22064 07280 02/62 61706 10070 20060 39995 40274 52002 60006 83031 90600 333 10093 20050 60004=
07280,1998-10-22 09:00:00,11,1027.8,0.8,82,8,12000,14.816,,,180,,,,,,,,,,,wg-a,,,,AAXX 22094 07280 12762 71808 10110 20080 30003 40278 50008 60006 81531 90900=
07280,1998-10-22 12:00:00,15,1027.3,-0.1,72,10,20000,14.816,,,210,,,,,,,,,,,wg-a,,,,AAXX 22124 07280 12/70 72108 10150 20100 30002 40273 58001 60006 82032 91200=
07280,1998-10-22 15:00:00,17,1026.2,-0.9,55,8,25000,14.816,,,210,,,,,,,,,,,wg-a,,,,AAXX 22154 07280 12/75 12108 10170 20080 39993 40262 56009 60006 81031 91500=
07280,1998-10-22 18:00:00,11,1027.1,0.4,76,7,25000,3.704,,,240,6.2,16.7,,,,,,,,,wg-a,,,,AAXX 22184 07280 12/75 22402 10110 20070 39997 40271 53004 60006 80001 91800 333 10167 20062=
07280,1998-10-22 21:00:00,8,1027.5,-0,93,7,15000,3.704,,,150,,,,,,,,,,11,wg-a,,,,AAXX 22214 07280 12/65 01502 10080 20070 39997 40275 55000 60006 71100 80000 92100=
07280,1998-10-23 00:00:00,9,1026.9,-0.5,93,8,10000,7.408,,,210,,,,,,,,,,,wg-a,,,,AAXX 23004 07280 12/60 02104 10090 20080 39992 40269 58005 60006 80000 90000=
07280,1998-10-23 03:00:00,9,1025.8,-1.1,93,8,7000,7.408,,,180,,,,,,,,,,,wg-a,,,,AAXX 23034 07280 12/57 01804 10090 20080 39981 40258 55011 60006 80000 90300=
07280,1998-10-23 06:00:00,9,1025,-0.7,100,9,2500,11.112,,,210,7,11,,,,,,,,10,wg-a,,,,AAXX 23064 07280 02225 62106 10090 20090 39974 40250 56007 60006 71011 81631 90600 333 10110 20070 60004=
07280,1998-10-23 09:00:00,11,1024.3,-0.4,94,10,500,25.928,,,200,,,,,,,,,,,wg-a,,,,AAXX 23094 07280 12200 82014 10110 20100 39970 40243 58004 60006 876// 90900=
07280,1998-10-23 12:00:00,16,1021.8,-2,72,11,15000,25.928,,,200,,,,,,,,,,,wg-a,,,,AAXX 23124 07280 12/65 72014 10160 20110 39950 40218 58020 60006 81032 91200=
07280,1998-10-23 15:00:00,16,1020.5,-1.3,72,11,15000,18.52,,,200,,,,0,,,,,,21,wg-a,,,,AAXX 23154 07280 12665 82010 10160 20110 39937 40205 56013 60007 72162 875// 91500=
07280,1998-10-23 18:00:00,15,1019.1,-1.5,77,11,20000,14.816,,,200,9.2,16.3,,,,,,,,3,wg-a,,,,AAXX 23184 07280 12670 82008 10150 20110 39922 40191 56015 60006 70362 8153/ 91800 333 10163 20092=
07280,1998-10-23 21:00:00,14,1018.6,-0.5,88,12,8000,25.928,,,210,,,,2,,,,,,21,wg-a,,,,AAXX 23214 07280 12258 72114 10140 20120 39917 40186 58005 60027 72162 8353/ 92100=
07280,1998-10-24 00:00:00,12,1020.4,1.6,88,10,20000,14.816,,,240,,,,5,,,,,,13,wg-a,,,,AAXX 24004 07280 02470 42408 10120 20100 39933 40204 53016 60076 71361 84900 90000 333 60057=
07280,1998-10-24 03:00:00,11,1021.8,1.2,94,10,20000,11.112,,,230,,,,,,,,,,,wg-a,,,,AAXX 24034 07280 12570 /2306 10110 20100 39945 40218 53012 60006 86800 90300=
07280,1998-10-24 06:00:00,8,1022.2,0.1,87,6,25000,11.112,,,260,8.1,15,,,,,7,,,,wg-a,,,,AAXX 24064 07280 02575 /2606 10080 20060 39946 40222 53001 60006 81534 90600 333 10150 20081 60074=
07280,1998-10-24 09:00:00,11,1021.2,-0.7,82,8,25000,11.112,,,200,,,,,,,,,,,wg-a,,,,AAXX 24094 07280 12675 82006 10110 20080 39939 40212 58007 60006 81557 90900=
07280,1998-10-24 12:00:00,14,1016.9,-3.9,82,11,25000,25.928,,,190,,,,,,,,,,,wg-a,,,,AAXX 24124 07280 12475 71914 10140 20110 39900 40169 58039 60006 82238 91200=
07280,1998-10-24 15:00:00,13,1012.8,-4.1,88,11,10000,18.52,,,200,,,,1,,,,,,61,wg-a,,,,AAXX 24154 07280 12560 82010 10130 20110 39859 40128 56041 60017 76162 8352/ 91500=
07280,1998-10-24 18:00:00,13,1007.4,-5.2,82,10,12000,25.928,,42.596,190,7.4,14.7,,,,,,,,21,wg-a,,,,AAXX 24184 07280 02662 81914 10130 20100 39807 40074 58052 61000 72162 885// 91800 333 10147 20074 6001 91023=
07280,1998-10-24 21:00:00,14,1002.4,-4.8,77,10,9000,46.3,,,200,,,,,,,,,,61,wg-a,,,,AAXX 24214 07280 02459 82025 10140 20100 39759 40024 57048 61000 76162 888// 92100 333 ////=
07280,1998-10-25 00:00:00,13,999.3,-3.1,94,12,3500,42.596,,,210,,,,6,,,,,,10,wg-a,,,,AAXX 25004 07280 02435 82123 10130 20120 39728 49993 56031 60066 71062 888// 90000 333 60067=
07280,1998-10-25 03:00:00,14,1001.2,1.9,77,10,15000,22.224,,,240,,,,3,,,,,,1,wg-a,,,,AAXX 25034 07280 12465 82412 10140 20100 39747 40012 53019 60037 70186 888// 90300=
07280,1998-10-25 06:00:00,13,1003.2,1.8,72,8,20000,25.928,,,240,12.5,15.8,,,,,11,,,1,wg-a,,,,AAXX 25064 07280 02570 72414 10130 20080 39765 40032 51018 60006 70186 83838 90600 333 10158 20125 60114=
07280,1998-10-25 09:00:00,14,1006.7,3.5,58,6,20000,22.224,,,280,,,,,,,,,,1,wg-a,,,,AAXX 25094 07280 02570 32812 10140 20060 39800 40067 51035 61000 70186 81201 90900 333 ////=
07280,1998-10-25 12:00:00,15,1007.1,0.5,55,6,25000,25.928,,,270,,,,,,,,,,1,wg-a,,,,AAXX 25124 07280 02675 32714 10150 20060 39805 40071 50005 61000 70186 83200 91200 333 ////=
07280,1998-10-25 15:00:00,15,1006.4,-0.6,48,4,500,29.632,,,250,,,,,,,,,,,wg-a,,,,AAXX 25154 07280 12600 /2516 10150 20040 39799 40064 56006 60006 81200 91500=
07280,1998-10-25 18:00:00,10,1009.8,2.8,71,5,500,3.704,,,10,9.6,16.6,,,,,,,,29,wg-a,,,,AAXX 25184 07280 02600 /0102 10100 20050 39827 40098 53028 60006 72998 81400 91800 333 10166 20096 61000=
07280,1998-10-25 21:00:00,9,1012.2,2.2,71,4,25000,11.112,,,240,,,,,,,,,,,wg-a,,,,AAXX 25214 07280 12/75 02406 10090 20040 39849 40122 53022 60006 80000 92100=
07280,1998-10-26 00:00:00,7,1013.4,1,87,5,25000,11.112,,,220,,,,,,,,,,,wg-a,,,,AAXX 26004 07280 12675 32206 10070 20050 39859 40134 51010 60006 83500 90000=
07280,1998-10-26 03:00:00,7,1013.8,0.4,93,6,20000,11.112,,,210,,,,0,,,,,,,wg-a,,,,AAXX 26034 07280 12570 32106 10070 20060 39863 40138 50004 60007 83800 90300=
07280,1998-10-26 06:00:00,7,1015.4,1.6,93,6,15000,11.112,,,200,6.1,10.3,,,,,,,,3,wg-a,,,,AAXX 26064 07280 02465 72006 10070 20060 39879 40154 51016 60006 70386 878// 90600 333 10103 20061 60004=
07280,1998-10-26 09:00:00,11,1016.2,1.1,76,7,20000,14.816,,,210,,,,,,,,,,,wg-a,,,,AAXX 26094 07280 12470 /2108 10110 20070 39890 40162 51011 60006 84201 90900=
07280,1998-10-26 12:00:00,12,1015.3,-0.8,67,6,25000,29.632,,,220,,,,,,,,,,,wg-a,,,,AAXX 26124 07280 12575 72216 10120 20060 39882 40153 58008 60006 83271 91200=
07280,1998-10-26 15:00:00,10,1014.6,-0.8,87,8,12000,18.52,,,220,,,,2,,,,,,60,wg-a,,,,AAXX 26154 07280 12462 /2210 10100 20080 39874 40146 55008 60027 76062 878// 91500=
07280,1998-10-26 18:00:00,9,1017.7,2.8,81,6,500,7.408,,,220,7.2,12.3,,,,,,,,13,wg-a,,,,AAXX 26184 07280 02500 /2204 10090 20060 39902 40177 53028 60006 71361 81100 91800 333 10123 20072 61000=
07280,1998-10-27 00:00:00,8,1022.6,2.3,87,6,25000,11.112,,,230,,,,,,,,,,,wg-a,,,,AAXX 27004 07280 12575 /2306 10080 20060 39950 40226 53023 60006 86500 90000=
07280,1998-10-27 03:00:00,7,1024.2,1.5,93,6,15000,14.816,,,210,,,,,,,,,,,wg-a,,,,AAXX 27034 07280 12565 /2108 10070 20060 39965 40242 51015 60006 86500 90300=
07280,1998-10-27 06:00:00,7,1025.4,1.1,87,5,25000,14.816,,,200,6.5,10.1,,,,,2,,,,wg-a,,,,AAXX 27064 07280 02575 82008 10070 20050 39976 40254 53011 60006 8157/ 90600 333 10101 20065 60024=
07280,1998-10-27 09:00:00,9,1025.8,0.6,87,7,15000,29.632,,,200,,,,,,,,,,,wg-a,,,,AAXX 27094 07280 12465 72016 10090 20070 39982 40258 50006 60006 878// 90900=
07280,1998-10-27 12:00:00,12,1024.5,-1,76,8,20000,29.632,,,210,,,,,,,,,,21,wg-a,,,,AAXX 27124 07280 02570 72116 10120 20080 39972 40245 58010 61000 72161 878// 91200 333 6100=
07280,1998-10-27 15:00:00,13,1023.4,-1,67,7,40000,29.632,,,210,,,,,,,,,,,wg-a,,,,AAXX 27154 07280 12682 /2116 10130 20070 39962 40234 56010 60006 84202 91500=
07280,1998-10-27 18:00:00,11,1022,-1.5,76,7,20000,31.484,,,210,6.8,13.4,,,,,,,,,wg-a,,,,AAXX 27184 07280 12670 82117 10110 20070 39947 40220 56015 60006 82532 91800 333 10134 20068=
07280,1998-10-27 21:00:00,11,1022.2,0.2,76,7,20000,25.928,,,200,,,,,,,,,,,wg-a,,,,AAXX 27214 07280 12670 82014 10110 20070 39949 40222 51002 60006 8457/ 92100=
07280,1998-10-28 00:00:00,12,1020.1,-2,67,6,20000,29.632,,,220,,,,,,,,,,,wg-a,,,,AAXX 28004 07280 12670 82216 10120 20060 39929 40201 56020 60006 8657/ 90000=
07280,1998-10-28 03:00:00,11,1017.7,-2.4,71,6,20000,31.484,,,190,,,,,,,,,,,wg-a,,,,AAXX 28034 07280 12670 81917 10110 20060 39905 40177 58024 60006 8357/ 90300=
07280,1998-10-28 06:00:00,11,1017.5,-0.2,87,9,8000,38.892,,,210,10.2,12,,,,,,,,,wg-a,,,,AAXX 28064 07280 02458 82121 10110 20090 39903 40175 56002 60006 885// 90600 333 10120 20102 61000=
07280,1998-10-28 09:00:00,11,1018.5,1,87,9,7000,31.484,,,190,,,,,,,,,,50,wg-a,,,,AAXX 28094 07280 02257 81917 10110 20090 39913 40185 52010 61000 75065 885// 90900 333 ////=
07280,1998-10-28 12:00:00,14,1016.9,-1.3,77,10,15000,29.632,,,190,,,,,,,,,,1,wg-a,,,,AAXX 28124 07280 02465 /1916 10140 20100 39900 40169 58013 61000 70165 875// 91200 333 6100=
07280,1998-10-28 16:00:00,17,1017.5,,77,13,8000,38.892,,51.856,210,,,,,,,,,,,wg-a,,,,AAXX 28164 07280 12458 82121 10170 20130 39903 40175 60006 885// 91600 333 91028=
07280,1998-10-28 18:00:00,16,1016.2,0.9,82,13,11000,35.188,,55.56,220,10.7,17.2,,,,,,,,50,wg-a,,,,AAXX 28184 07280 02461 82219 10160 20130 39896 40162 52009 61000 75065 885// 91800 333 10172 20107 6100 91030=
07280,1998-10-28 21:00:00,16,1015.5,-0.8,77,12,10000,42.596,,61.116,210,,,,,,,,,,1,wg-a,,,,AAXX 28214 07280 02560 82123 10160 20120 39888 40155 58008 61000 70165 885// 92100 333 //// 91033=
07280,1998-10-29 00:00:00,16,1014.1,-1.3,77,12,12000,38.892,,,210,,,,,,,,,,3,wg-a,,,,AAXX 29004 07280 02562 82121 10160 20120 39875 40141 56013 61000 70365 885// 90000 333 ////=
07280,1998-10-29 06:00:00,16,1009.5,-2.2,77,12,15000,38.892,,,210,15.7,16.5,,,,,,,,60,wg-a,,,,AAXX 29064 07280 02465 82121 10160 20120 39830 40095 58022 61000 76062 885// 90600 333 10165 20157 6100=
07280,1998-10-29 09:00:00,9,1015.8,5.5,87,7,4500,25.928,,,350,,,,6,,,,,,10,wg-a,,,,AAXX 29094 07280 12445 83514 10090 20070 39885 40158 51055 60067 71065 885// 90900=
07280,1998-10-29 12:00:00,10,1020.2,4.3,82,7,15000,22.224,,,240,,,,3,,,,,,60,wg-a,,,,AAXX 29124 07280 02465 /2412 10100 20070 39928 40202 53043 60096 76065 86800 91200 333 60037=
07280,1998-10-29 18:00:00,8,1025.5,2.7,81,5,20000,11.112,,,200,7.3,16.3,,,,,,,,1,wg-a,,,,AAXX 29184 07280 12570 /2006 10080 20050 39977 40255 51027 60006 70186 81400 91800 333 10163 20073=
07280,1998-10-29 21:00:00,7,1026.5,1,81,4,15000,3.704,,,230,,,,,,,,,,,wg-a,,,,AAXX 29214 07280 12/65 02302 10070 20040 39987 40265 51010 60006 80000 92100=
07280,1998-10-30 00:00:00,6,1026.5,-0.1,81,3,15000,14.816,,,210,,,,,,,,,,,wg-a,,,,AAXX 30004 07280 12665 /2108 10060 20030 39986 40265 58001 60006 81500 90000=
07280,1998-10-30 03:00:00,6,1025.4,-1.1,87,4,12000,18.52,,,200,,,,,,,,,,,wg-a,,,,AAXX 30034 07280 12/62 02010 10060 20040 39975 40254 58011 60006 80000 90300=
07280,1998-10-30 06:00:00,6,1024.3,-1.1,87,4,12000,29.632,,,210,4.3,9,,,,,10,,,,wg-a,,,,AAXX 30064 07280 02762 72116 10060 20040 39964 40243 58011 60006 8357/ 90600 333 10090 20043 60104=
07280,1998-10-30 12:00:00,10,1021,-1.9,82,7,12000,29.632,,,240,,,,0,,,,,,61,wg-a,,,,AAXX 30124 07280 02562 /2416 10100 20070 39936 40210 58019 60006 76162 878// 91200 333 60007=
07280,1998-10-30 15:00:00,10,1020,-1,87,8,20000,22.224,,,210,,,,2,,,,,,21,wg-a,,,,AAXX 30154 07280 12470 72112 10100 20080 39926 40200 58010 60027 72162 872// 91500=
07280,1998-10-30 18:00:00,8,1021.5,1.3,81,5,12000,11.112,,,300,5.6,10.2,,,,,,,,25,wg-a,,,,AAXX 30184 07280 02562 /3006 10080 20050 39939 40215 51013 61000 72587 878// 91800 333 10102 20056 6005=
07280,1998-10-30 21:00:00,7,1022.9,1.2,87,5,12000,11.112,,,230,,,,0,,,,,,3,wg-a,,,,AAXX 30214 07280 12462 42306 10070 20050 39951 40229 51012 60007 70386 84800 92100=
07280,1998-10-31 00:00:00,7,1022.6,-0.2,93,6,15000,11.112,,,220,,,,,,,,,,1,wg-a,,,,AAXX 31004 07280 12565 72206 10070 20060 39949 40226 58002 60006 70186 878// 90000=
07280,1998-10-31 03:00:00,7,1021.1,-1.5,93,6,15000,11.112,,,220,,,,,,,,,,,wg-a,,,,AAXX 31034 07280 12565 72206 10070 20060 39934 40211 58015 60006 878// 90300=
07280,1998-10-31 06:00:00,7,1020.5,-0.6,93,6,10000,14.816,,,190,6.4,7.9,,,,,7,,,,wg-a,,,,AAXX 31064 07280 02760 81908 10070 20060 39928 40205 58006 60006 885// 90600 333 10079 20064 60074=
07280,1998-10-31 09:00:00,8,1019.8,-0.5,93,7,4500,18.52,,,190,,,,,,,,,,10,wg-a,,,,AAXX 31094 07280 02245 81910 10080 20070 39923 40198 58005 61000 71052 887// 90900 333 ////=
07280,1998-10-31 12:00:00,11,1016.8,-2.7,87,9,15000,25.928,,,200,,,,,,,,,,1,wg-a,,,,AAXX 31124 07280 02365 82014 10110 20090 39896 40168 58027 61000 70152 8472/ 91200 333 6100=
07280,1998-10-31 15:00:00,11,1014.1,-2.6,82,8,8000,25.928,,,210,,,,,,,,,,,wg-a,,,,AAXX 31154 07280 12458 82114 10110 20080 39870 40141 56026 60006 8582/ 91500=
07280,1998-10-31 18:00:00,10,1012.3,-1.9,87,8,500,14.816,,,210,6.5,11.5,,,,,,,,50,wg-a,,,,AAXX 31184 07280 02400 82108 10100 20080 39851 40123 56019 61000 75052 8557/ 91800 333 10115 20065 6001=
07280,1998-10-31 21:00:00,10,1008.8,-3.4,87,8,8000,35.188,,,210,,,,2,,,,,,60,wg-a,,,,AAXX 31214 07280 12458 82119 10100 20080 39817 40088 56034 60027 76065 875// 92100=
07280,1998-11-01 00:00:00,9,1005.3,-3.5,93,8,10000,31.484,,,200,,,,4,,,,,,61,wg-a,,,,AAXX 01004 07280 02460 82017 10090 20080 39782 40053 58035 60066 76165 885// 90000 333 60047=
07280,1998-11-01 03:00:00,10,1001.9,-3.2,82,7,12000,35.188,,,210,,,,,,,,,,2,wg-a,,,,AAXX 01034 07280 02462 82119 10100 20070 39750 40019 56032 61000 70262 885// 90300 333 ////=
07280,1998-11-01 06:00:00,11,1001,-0.8,87,9,10000,31.484,,,200,8.9,10.7,,,,,7,,,3,wg-a,,,,AAXX 01064 07280 02360 82017 10110 20090 39742 40010 55008 60006 70362 885// 90600 333 10107 20089 60074=
07280,1998-11-01 09:00:00,13,1005,4.1,82,10,15000,7.408,,,270,,,,1,,,,,,3,wg-a,,,,AAXX 01094 07280 12465 72704 10130 20100 39783 40050 53041 60017 70365 878// 90900=
07280,1998-11-01 12:00:00,13,1007.7,2.6,62,6,500,11.112,,,320,,,,,,,,,,1,wg-a,,,,AAXX 01124 07280 12400 73206 10130 20060 39809 40077 51026 60016 70165 878// 91200=
07280,1998-11-01 15:00:00,11,1009.9,2,76,7,500,11.112,,,10,,,,,,,,,,,wg-a,,,,AAXX 01154 07280 12500 70106 10110 20070 39829 40099 53020 60006 878// 91500=
07280,1998-11-02 00:00:00,5,1014.6,0.3,93,4,15000,7.408,,,210,,,,,,,,,,1,wg-a,,,,AAXX 02004 07280 12765 52104 10050 20040 39869 40146 50003 60006 70161 85500 90000=
07280,1998-11-02 03:00:00,4,1013.8,-1,93,3,15000,3.704,,,210,,,,,,,,,,,wg-a,,,,AAXX 02034 07280 12665 32102 10040 20030 39859 40138 58010 60006 83800 90300=
07280,1998-11-02 06:00:00,5,1013,-0.6,100,5,200,3.704,,,250,3,9.3,,,,,1,,,44,wg-a,,,,AAXX 02064 07280 02/02 92502 10050 20050 39853 40130 58006 60006 74441 89/// 90600 333 10093 20030 60014=
07280,1998-11-02 09:00:00,8,1012.1,-0.6,93,7,3000,7.408,,,120,,,,,,,,,,10,wg-a,,,,AAXX 02094 07280 12230 71204 10080 20070 39847 40121 58006 60006 71042 83701 90900=
07280,1998-11-02 12:00:00,11,1008.8,-2.9,82,8,12000,11.112,,,140,,,,,,,,,,1,wg-a,,,,AAXX 02124 07280 12362 61406 10110 20080 39818 40088 58029 60006 70142 84201 91200=
07280,1998-11-02 15:00:00,12,1005.3,-3.3,67,6,25000,18.52,,,190,,,,,,,,,,,wg-a,,,,AAXX 02154 07280 12675 71910 10120 20060 39785 40053 56033 60006 86501 91500=
07280,1998-11-02 18:00:00,10,1003.8,-1.6,76,6,25000,18.52,,,200,5.1,12.4,,,,,,,,,wg-a,,,,AAXX 02184 07280 12475 82010 10100 20060 39769 40038 56016 60006 885// 91800 333 10124 20051=
07280,1998-11-02 21:00:00,9,1002.9,-1,93,8,7000,22.224,,,200,,,,1,,,,,,60,wg-a,,,,AAXX 02214 07280 12257 82012 10090 20080 39759 40029 56010 60017 76062 887// 92100=
07280,1998-11-03 00:00:00,10,1001.3,-1.4,93,9,7000,31.484,,,200,,,,1,,,,,,10,wg-a,,,,AAXX 03004 07280 02357 /2017 10100 20090 39745 40013 56014 60026 71065 86500 90000 333 60017=
07280,1998-11-03 03:00:00,11,1001.4,0.1,94,10,8000,25.928,,,230,,,,1,,,,,,60,wg-a,,,,AAXX 03034 07280 12258 82314 10110 20100 39746 40014 53001 60017 76062 88500 90300=
07280,1998-11-03 06:00:00,10,1002.2,0.7,82,7,12000,25.928,,,230,9.2,11,,,,,3,,,1,wg-a,,,,AAXX 03064 07280 02362 82314 10100 20070 39753 40022 50007 60006 70162 8117/ 90600 333 10110 20092 60034=
07280,1998-11-03 09:00:00,10,1003.8,1.6,87,8,15000,22.224,,,210,,,,,,,,,,,wg-a,,,,AAXX 03094 07280 12565 82112 10100 20080 39769 40038 51016 60006 8417/ 90900=
07280,1998-11-03 12:00:00,12,1002.7,-0.9,71,7,20000,22.224,,,220,,,,,,,,,,21,wg-a,,,,AAXX 03124 07280 02570 82212 10120 20070 39760 40027 58009 61000 72162 8317/ 91200 333 6100=
07280,1998-11-03 15:00:00,10,1002.4,-0.5,82,7,20000,14.816,,,230,,,,0,,,,,,21,wg-a,,,,AAXX 03154 07280 12570 82308 10100 20070 39755 40024 55005 60007 72162 8587/ 91500=
07280,1998-11-03 18:00:00,10,1002.6,0.2,82,7,20000,25.928,,,200,9.2,12.3,,,,,,,,21,wg-a,,,,AAXX 03184 07280 02570 82014 10100 20070 39757 40026 53002 61000 72162 8177/ 91800 333 10123 20092 6100=
07280,1998-11-03 21:00:00,9,1003.3,0.6,87,7,20000,22.224,,,220,,,,,,,,,,,wg-a,,,,AAXX 03214 07280 12570 82212 10090 20070 39763 40033 51006 60006 8387/ 92100=
07280,1998-11-04 00:00:00,9,1002.8,-0.5,81,6,20000,18.52,,,210,,,,,,,,,,,wg-a,,,,AAXX 04004 07280 12570 82110 10090 20060 39758 40028 58005 60006 8387/ 90000=
07280,1998-11-04 03:00:00,9,1002.2,-0.6,76,5,15000,14.816,,,230,,,,,,,,,,1,wg-a,,,,AAXX 04034 07280 02765 82308 10090 20050 39752 40022 55006 61000 70162 8157/ 90300 333 ////=
07280,1998-11-04 06:00:00,8,1003.1,0.8,81,5,20000,11.112,,,190,8.1,9.7,,,,,,,,3,wg-a,,,,AAXX 04064 07280 02570 71906 10080 20050 39760 40031 53008 60006 70362 8577/ 90600 333 10097 20081 60004=
07280,1998-11-04 12:00:00,10,1005.9,0.6,71,5,500,22.224,,,210,,,,0,,,,,,1,wg-a,,,,AAXX 04124 07280 02500 /2112 10100 20050 39789 40059 51006 60006 70186 83230 91200 333 60007=
07280,1998-11-04 15:00:00,10,1006.5,0.6,71,5,12000,14.816,,,250,,,,,,,,,,25,wg-a,,,,AAXX 04154 07280 02562 62508 10100 20050 39795 40065 53006 61000 72586 86200 91500 333 ////=
07280,1998-11-04 18:00:00,7,1009.7,2.8,87,5,20000,7.408,,,300,6.8,11.9,,,,,,,,25,wg-a,,,,AAXX 04184 07280 02670 43004 10070 20050 39823 40097 51028 61000 72586 84500 91800 333 10119 20068 6001=
07280,1998-11-04 21:00:00,4,1012.5,2.4,87,2,20000,3.704,,,230,,,,,,,,,,,wg-a,,,,AAXX 04214 07280 12770 12302 10040 20020 39847 40125 53024 60006 81500 92100=
07280,1998-11-05 00:00:00,4,1014.4,1.9,93,3,15000,0,,,0,,,,,,,,,,,wg-a,,,,AAXX 05004 07280 12665 70000 10040 20030 39866 40144 53019 60006 83570 90000=
07280,1998-11-05 03:00:00,4,1016.5,2,93,3,15000,11.112,,,200,,,,,,,,,,,wg-a,,,,AAXX 05034 07280 12765 32006 10040 20030 39886 40165 53020 60006 83300 90300=
07280,1998-11-05 06:00:00,2,1019.1,2.3,87,0,12000,3.704,,,170,1.6,6.8,,,,,1,,,,wg-a,,,,AAXX 05064 07280 02762 11702 10020 20000 39909 40191 53023 60006 81500 90600 333 10068 20016 60014=
07280,1998-11-05 09:00:00,6,1021.8,3.1,81,3,15000,18.52,,,290,,,,,,,,,,,wg-a,,,,AAXX 05094 07280 12465 /2910 10060 20030 39940 40218 51031 60006 81800 90900=
07280,1998-11-05 12:00:00,8,1023.2,1.5,61,1,40000,11.112,,,320,,,,,,,,,,,wg-a,,,,AAXX 05124 07280 12582 33206 10080 20010 39955 40232 51015 60006 83200 91200=
07280,1998-11-05 15:00:00,9,1023.4,0.3,57,1,40000,7.408,,,280,,,,,,,,,,,wg-a,,,,AAXX 05154 07280 12682 /2804 10090 20010 39958 40234 51003 60006 81400 91500=
07280,1998-11-05 18:00:00,4,1025.3,1.3,75,0,500,3.704,,,280,0.8,9.3,,,,,,,,,wg-a,,,,AAXX 05184 07280 12/00 02802 10040 20000 39971 40253 53013 60006 80000 91800 333 10093 20008=
07280,1998-11-05 21:00:00,1,1026.8,1.2,86,-1,25000,3.704,,,70,,,,,,,,,,,wg-a,,,,AAXX 05214 07280 12/75 00702 10010 21010 39983 40268 51012 60006 80000 92100=
07280,1998-11-06 00:00:00,-2,1027.9,0.8,93,-3,8000,0,,,0,,,,,,,,,,,wg-a,,,,AAXX 06004 07280 12/58 00000 11020 21030 39991 40279 52008 60006 80000 90000=
07280,1998-11-06 03:00:00,-2,1028.4,0.5,93,-3,500,3.704,,,190,,,,,,,,,,11,wg-a,,,,AAXX 06034 07280 12/00 01902 11020 21030 39996 40284 51005 60006 71100 80000 90300=
07280,1998-11-06 06:00:00,-3,1029.1,0.6,100,-3,6000,3.704,,,170,-2.7,3.4,,,,,,,,11,wg-a,,,,AAXX 06064 07280 02756 31702 11030 21030 30002 40291 53006 60006 71100 83500 90600 333 10034 21027 60004=
07280,1998-11-06 09:00:00,2,1030,1.3,93,1,6000,7.408,,,210,,,,,,,,,,1,wg-a,,,,AAXX 06094 07280 02156 72104 10020 20010 30015 40300 51013 61000 70161 875// 90900 333 ////=
07280,1998-11-06 12:00:00,9,1028.9,-0.4,76,5,8000,11.112,,,180,,,,,,,,,,1,wg-a,,,,AAXX 06124 07280 02458 /1806 10090 20050 30011 40289 58004 61000 70186 86800 91200 333 6100=
07280,1998-11-06 15:00:00,10,1028.5,-0.2,76,6,20000,11.112,,,180,,,,,,,,,,3,wg-a,,,,AAXX 06154 07280 02570 71806 10100 20060 30009 40285 55002 61000 70362 875// 91500 333 ////=
07280,1998-11-06 18:00:00,8,1030.1,1.3,81,5,15000,0,,,0,-2.6,10.3,,,,,,,,1,wg-a,,,,AAXX 06184 07280 12565 80000 10080 20050 30022 40301 53013 60006 70162 885// 91800 333 10103 21026=
07280,1998-11-06 21:00:00,5,1031,0.7,93,4,15000,7.408,,,80,,,,,,,,,,,wg-a,,,,AAXX 06214 07280 12565 70804 10050 20040 30029 40310 52007 60006 875// 92100=
07280,1998-11-07 00:00:00,5,1031,0,93,4,4000,3.704,,,10,,,,,,,,,,10,wg-a,,,,AAXX 07004 07280 12540 70102 10050 20040 30029 40310 50000 60006 71022 875// 90000=
07280,1998-11-07 03:00:00,4,1030.5,-0.7,93,3,2000,3.704,,,320,,,,,,,,,,40,wg-a,,,,AAXX 07034 07280 12720 73202 10040 20030 30022 40305 58007 60006 74022 875// 90300=
07280,1998-11-07 06:00:00,1,1031.2,0.4,93,0,400,3.704,,,90,1.2,7.6,,,,,,,,40,wg-a,,,,AAXX 07064 07280 02/04 00902 10010 20000 30026 40312 52004 60006 74041 80000 90600 333 10076 20012 61000=
07280,1998-11-07 09:00:00,5,1031.3,0.6,100,5,600,11.112,,,10,,,,,,,,,,43,wg-a,,,,AAXX 07094 07280 12/06 90106 10050 20050 30032 40313 50006 60006 74344 89/// 90900=
07280,1998-11-07 12:00:00,6,1030.1,-1.1,93,5,4500,11.112,,,60,,,,,,,,,,10,wg-a,,,,AAXX 07124 07280 12145 80606 10060 20050 30021 40301 58011 60006 71041 886// 91200=
07280,1998-11-07 15:00:00,8,1028.1,-1.8,87,6,13000,14.816,,,350,,,,,,,,,,,wg-a,,,,AAXX 07154 07280 12363 /3508 10080 20060 30003 40281 56018 60006 81601 91500=
07280,1998-11-07 18:00:00,4,1028.4,-0.1,93,3,11000,3.704,,,330,0.9,7.8,,,,,,,,,wg-a,,,,AAXX 07184 07280 12/61 03302 10040 20030 30002 40284 55001 60006 80000 91800 333 10078 20009=
07280,1998-11-07 21:00:00,1,1029,0.3,100,1,2000,0,,,0,,,,,,,,,,40,wg-a,,,,AAXX 07214 07280 12320 70000 10010 20010 30005 40290 51003 60006 74011 876// 92100=
07280,1998-11-08 00:00:00,5,1027.8,-0.8,100,5,3000,11.112,,,200,,,,,,,,,,10,wg-a,,,,AAXX 08004 07280 12230 82006 10050 20050 39997 40278 58008 60006 71011 886// 90000=
07280,1998-11-08 03:00:00,4,1027.8,-0.1,93,3,400,11.112,,,180,,,,,,,,,,45,wg-a,,,,AAXX 08034 07280 12/04 91806 10040 20030 39996 40278 58001 60006 74542 89/// 90300=
07280,1998-11-08 06:00:00,1,1028.6,0.5,100,1,100,3.704,,,190,0.9,5.2,,,,,,,,45,wg-a,,,,AAXX 08064 07280 02/01 91902 10010 20010 30001 40286 53005 60006 74542 89/// 90600 333 10052 20009 60004=
07280,1998-11-08 09:00:00,4,1028.8,0.4,93,3,2500,11.112,,,190,,,,,,,,,,28,wg-a,,,,AAXX 08094 07280 12/25 /1906 10040 20030 30005 40288 50004 60006 72841 85031 90900=
07280,1998-11-08 12:00:00,9,1027.6,-0.6,76,5,15000,18.52,,,190,,,,,,,,,,1,wg-a,,,,AAXX 08124 07280 12/65 51910 10090 20050 39999 40276 58006 60006 70141 82031 91200=
07280,1998-11-08 15:00:00,12,1026.1,-1.1,62,5,25000,22.224,,,200,,,,,,,,,,,wg-a,,,,AAXX 08154 07280 12/75 52012 10120 20050 39988 40261 56011 60006 81032 91500=
07280,1998-11-08 18:00:00,10,1026.8,0.4,66,4,20000,7.408,,,180,0.2,12.4,,,,,,,,,wg-a,,,,AAXX 08184 07280 12/70 71804 10100 20040 39992 40268 53004 60006 85072 91800 333 10124 20002=
07280,1998-11-08 21:00:00,9,1026.5,-0.4,76,5,15000,18.52,,,190,,,,,,,,,,,wg-a,,,,AAXX 08214 07280 12665 71910 10090 20050 39988 40265 55004 60006 82532 92100=
07280,1998-11-09 00:00:00,9,1026,-0.5,76,5,15000,18.52,,,190,,,,,,,,,,,wg-a,,,,AAXX 09004 07280 12665 81910 10090 20050 39983 40260 58005 60006 885// 90000=
07280,1998-11-09 03:00:00,8,1025.6,-0.4,81,5,15000,14.816,,,210,,,,,,,,,,,wg-a,,,,AAXX 09034 07280 12665 72108 10080 20050 39979 40256 58004 60006 875// 90300=
07280,1998-11-09 06:00:00,8,1025.2,-0.4,87,6,9000,11.112,,,200,7.8,9.5,,,,,,,,,wg-a,,,,AAXX 09064 07280 02659 72006 10080 20060 39975 40252 57004 60006 875// 90600 333 10095 20078 60004=
07280,1998-11-09 09:00:00,9,1025.9,0.8,81,6,15000,14.816,,,200,,,,,,,,,,,wg-a,,,,AAXX 09094 07280 12665 72008 10090 20060 39983 40259 51008 60006 83532 90900=
07280,1998-11-09 11:00:00,12,1022.3,-0.2,76,8,12000,18.52,,,200,7.9,13.9,,,,,,,,,wg-a,,,,AAXX 09114 07280 12562 72010 10120 20080 39950 40223 55002 60006 83538 91100 333 10139 20079=
07280,1998-11-09 12:00:00,13,1024.1,-1.4,67,7,15000,11.112,,,200,,,,,,,,,,,wg-a,,,,AAXX 09124 07280 12765 62006 10130 20070 39969 40241 56014 60006 82532 91200=
07280,1998-11-09 15:00:00,13,1022.7,-1.3,67,7,15000,11.112,,,200,,,,,,,,,,,wg-a,,,,AAXX 09154 07280 12765 72006 10130 20070 39956 40227 56013 60006 83572 91500=
07280,1998-11-09 18:00:00,12,1022.7,-0.2,76,8,12000,18.52,,,200,7.9,13.9,,,,,,,,,wg-a,,,,AAXX 09184 07280 12562 72010 10120 20080 39954 40227 55002 60006 83538 91800 333 10139 20079=
07280,1998-11-09 21:00:00,11,1022,-0.7,87,9,6000,14.816,,,220,,,,0,,,,,,60,wg-a,,,,AAXX 09214 07280 12556 72208 10110 20090 39947 40220 55007 60007 76062 8557/ 92100=
07280,1998-11-10 00:00:00,12,1020.5,-1.3,94,11,500,14.816,,,200,,,,0,,,,,,3,wg-a,,,,AAXX 10004 07280 02200 82008 10120 20110 39934 40205 57013 60016 70362 885// 90000 333 60007=
07280,1998-11-10 03:00:00,12,1018.3,-2.2,94,11,3000,14.816,,,190,,,,,,,,,,10,wg-a,,,,AAXX 10034 07280 12230 81908 10120 20110 39912 40183 56022 60006 71022 885// 90300=
07280,1998-11-10 06:00:00,11,1016.9,-1.5,94,10,3000,7.408,,,50,10.5,12.4,,,,,,,,10,wg-a,,,,AAXX 10064 07280 02230 80504 10110 20100 39897 40169 58015 61000 71062 885// 90600 333 10124 20105 6004=
07280,1998-11-10 09:00:00,11,1017.9,1,94,10,12000,3.704,,,230,,,,5,,,,,,61,wg-a,,,,AAXX 10094 07280 12262 82302 10110 20100 39907 40179 50010 60057 76166 8552/ 90900=
07280,1998-11-10 12:00:00,14,1018.6,0.9,72,9,20000,14.816,,,290,,,,,,,,,,3,wg-a,,,,AAXX 10124 07280 02470 72908 10140 20090 39916 40186 50009 60056 70362 8587/ 91200 333 61000=
07280,1998-11-10 15:00:00,12,1018.5,-0.2,88,10,8000,11.112,,,230,,,,,,,,,,61,wg-a,,,,AAXX 10154 07280 02458 82306 10120 20100 39914 40185 56002 61000 76162 888// 91500 333 ////=
07280,1998-11-10 18:00:00,10,1020.8,2,82,7,15000,11.112,,,350,8.8,13.6,,3,,,,,,1,wg-a,,,,AAXX 10184 07280 02565 /3506 10100 20070 39934 40208 53020 60006 70162 86800 91800 333 10136 20088 60037=
07280,1998-11-10 21:00:00,7,1023.7,2.6,87,5,15000,14.816,,,330,,,,,,,,,,,wg-a,,,,AAXX 10214 07280 12765 23308 10070 20050 39960 40237 52026 60006 82500 92100=
07280,1998-11-11 00:00:00,5,1026.1,2.1,87,3,12000,11.112,,,330,,,,,,,,,,,wg-a,,,,AAXX 11004 07280 12662 33306 10050 20030 39981 40261 51021 60006 83500 90000=
07280,1998-11-11 03:00:00,4,1027.3,1,87,2,10000,14.816,,,330,,,,,,,,,,,wg-a,,,,AAXX 11034 07280 12660 /3308 10040 20020 39991 40273 50010 60006 81500 90300=
07280,1998-11-11 06:00:00,4,1027.8,0.5,87,2,15000,18.52,,,330,3.2,9.8,,,,,8,,,,wg-a,,,,AAXX 11064 07280 02665 /3310 10040 20020 39996 40278 53005 60006 81500 90600 333 10098 20032 60084=
07280,1998-11-11 09:00:00,6,1028.7,1.1,81,3,25000,3.704,,,50,,,,,,,,,,,wg-a,,,,AAXX 11094 07280 12775 20502 10060 20030 30007 40287 53011 60006 81501 90900=
07280,1998-11-11 12:00:00,10,1026.8,-1.5,71,5,25000,7.408,,,120,,,,,,,,,,,wg-a,,,,AAXX 11124 07280 12475 31204 10100 20050 39992 40268 58015 60006 83200 91200=
07280,1998-11-11 15:00:00,8,1025,-1.9,66,2,35000,7.408,,,40,,,,,,,,,,,wg-a,,,,AAXX 11154 07280 12681 30404 10080 20020 39973 40250 58019 60006 82801 91500=
07280,1998-11-11 18:00:00,4,1024,-1.4,81,1,20000,7.408,,,20,3.1,9.9,,,,,,,,,wg-a,,,,AAXX 11184 07280 12/70 00204 10040 20010 39959 40240 58014 60006 80000 91800 333 10099 20031=
07280,1998-11-11 21:00:00,2,1021.3,-2.8,87,0,15000,7.408,,,20,,,,,,,,,,,wg-a,,,,AAXX 11214 07280 12/65 70204 10020 20000 39931 40213 58028 60006 80004 92100=
07280,1998-11-12 00:00:00,2,1018.3,-2.9,93,1,15000,7.408,,,10,,,,,,,,,,,wg-a,,,,AAXX 12004 07280 12/65 80104 10020 20010 39902 40183 58029 60006 85034 90000=
07280,1998-11-12 03:00:00,2,1015.7,-2.6,93,1,12000,11.112,,,30,,,,,,,,,,,wg-a,,,,AAXX 12034 07280 12662 80306 10020 20010 39876 40157 57026 60006 8153/ 90300=
07280,1998-11-12 12:00:00,4,1013.9,0,87,2,8000,18.52,,,190,,,,,,,,,,,wg-a,,,,AAXX 12124 07280 12358 81910 10040 20020 39861 40139 50000 60006 84627 91200=
07280,1998-11-12 15:00:00,5,1014.3,0.4,87,3,8000,14.816,,,220,,,,1,,,,,,61,wg-a,,,,AAXX 12154 07280 12458 82208 10050 20030 39865 40143 53004 60017 76162 888// 91500=
07280,1998-11-12 18:00:00,4,1015.7,1.3,87,2,10000,22.224,,,210,-0.3,5.4,,,,,,,,21,wg-a,,,,AAXX 12184 07280 02260 82112 10040 20020 39878 40157 53013 61000 72162 885// 91800 333 10054 21003 6001=
07280,1998-11-12 21:00:00,4,1016.7,1,93,3,7000,18.52,,,200,,,,,,,,,,,wg-a,,,,AAXX 12214 07280 12157 /2010 10040 20030 39888 40167 52010 60006 84500 92100=
07280,1998-11-13 00:00:00,4,1016.3,-0.3,100,4,3000,18.52,,,210,,,,,,,,,,10,wg-a,,,,AAXX 13004 07280 12130 82110 10040 20040 39885 40163 58003 60006 71011 887// 90000=
07280,1998-11-13 03:00:00,5,1015.8,-0.5,93,4,6000,14.816,,,180,,,,,,,,,,,wg-a,,,,AAXX 13034 07280 12156 81808 10050 20040 39880 40158 58005 60006 885// 90300=
07280,1998-11-13 06:00:00,4,1014.8,-1,100,4,7000,7.408,,,180,3.5,4.9,,,,,2,,,,wg-a,,,,AAXX 13064 07280 02257 /1804 10040 20040 39870 40148 56010 60006 86500 90600 333 10049 20035 60024=
07280,1998-11-13 09:00:00,5,1013.8,-0.9,93,4,7000,11.112,,,200,,,,,,,,,,,wg-a,,,,AAXX 13094 07280 12257 82006 10050 20040 39861 40138 58009 60006 82627 90900=
07280,1998-11-13 12:00:00,6,1011.4,-2.2,87,4,10000,11.112,,,190,,,,,,,,,,,wg-a,,,,AAXX 13124 07280 12460 81906 10060 20040 39839 40114 58022 60006 888// 91200=
07280,1998-11-13 15:00:00,4,1014.8,-1,100,4,7000,7.408,,,180,3.5,4.9,,,,,2,,,,wg-a,,,,AAXX 13154 07280 02257 /1804 10040 20040 39870 40148 56010 60006 86500 91500 333 10049 20035 60024=
07280,1998-11-13 18:00:00,5,1009,-1.1,93,4,12000,3.704,,,180,3.9,7.3,,,,,,,,,wg-a,,,,AAXX 13184 07280 12862 71802 10050 20040 39814 40090 56011 60006 8703/ 91800 333 10073 20039=
07280,1998-11-13 21:00:00,4,1007.7,-1.4,93,3,10000,7.408,,,150,,,,,,,,,,,wg-a,,,,AAXX 13214 07280 12760 61504 10040 20030 39800 40077 58014 60006 85520 92100=
07280,1998-11-14 00:00:00,3,1005.3,-2.4,93,2,800,3.704,,,110,,,,,,,,,,44,wg-a,,,,AAXX 14004 07280 12108 51102 10030 20020 39776 40053 58024 60006 74442 85500 90000=
07280,1998-11-14 03:00:00,5,1002.2,-2.8,87,3,8000,18.52,,,190,,,,,,,,,,3,wg-a,,,,AAXX 14034 07280 12458 /1910 10050 20030 39748 40022 58028 60006 70342 86500 90300=
07280,1998-11-14 06:00:00,6,1000.4,-1.7,93,5,7000,29.632,,,210,2.1,5.7,,,,,,,,61,wg-a,,,,AAXX 14064 07280 02257 82116 10060 20050 39731 40004 56017 61000 76164 885// 90600 333 10057 20021 6001=
07280,1998-11-14 09:00:00,8,1003.9,3.6,87,6,10000,14.816,,,240,,,,0,,,,,,80,wg-a,,,,AAXX 14094 07280 12360 82408 10080 20060 39767 40039 53036 60007 78086 887// 90900=
07280,1998-11-14 12:00:00,9,1006.3,2.4,61,2,50000,18.52,,,250,,,,,,,,,,3,wg-a,,,,AAXX 14124 07280 02584 /2510 10090 20020 39791 40063 51024 60006 70386 86200 91200 333 61000=
07280,1998-11-14 15:00:00,9,1006,-0.2,57,1,25000,25.928,,48.152,240,,,,,,,,,,15,wg-a,,,,AAXX 14154 07280 12575 /2414 10090 20010 39789 40060 56002 60006 71511 86200 91500 333 91026=
07280,1998-11-14 18:00:00,6,1006.9,0.6,87,4,15000,25.928,,,220,5.4,10.1,,,,,,,,80,wg-a,,,,AAXX 14184 07280 02565 72214 10060 20040 39795 40069 53006 61000 78086 8642/ 91800 333 10101 20054 6001=
07280,1998-11-14 21:00:00,6,1010.1,3.1,81,3,25000,11.112,,,280,,,,1,,,,,,21,wg-a,,,,AAXX 14214 07280 12575 82806 10060 20030 39826 40101 51031 60017 72186 885// 92100=
07280,1998-11-15 00:00:00,5,1012.4,2.1,81,2,25000,11.112,,,280,,,,,,,,,,1,wg-a,,,,AAXX 15004 07280 12675 32806 10050 20020 39847 40124 52021 60016 70186 83500 90000=
07280,1998-11-15 01:00:00,4,1013.7,0.1,93,3,20000,22.224,,,210,,6.4,,,,,,,,60,wg-a,,,,AAXX 15014 07280 32570 82112 10040 20030 39859 40137 51001 76061 885// 90100 333 10064=
07280,1998-11-15 03:00:00,5,1013.5,1.1,87,3,25000,18.52,,,210,,,,,,,,,,,wg-a,,,,AAXX 15034 07280 12575 82110 10050 20030 39858 40135 51011 60006 885// 90300=
07280,1998-11-15 06:00:00,4,1013.7,0.1,93,3,20000,22.224,,,210,3.8,6.4,,,,,,,,60,wg-a,,,,AAXX 15064 07280 02570 82112 10040 20030 39859 40137 51001 61000 76061 885// 90600 333 10064 20038 6003=
07280,1998-11-15 09:00:00,6,1014.7,1.2,87,4,20000,18.52,,,260,,,,1,,,,,,21,wg-a,,,,AAXX 15094 07280 12470 /2610 10060 20040 39871 40147 53012 60017 72162 86200 90900=
07280,1998-11-15 12:00:00,7,1015.9,1.2,81,4,20000,18.52,,,240,,,,0,,,,,,25,wg-a,,,,AAXX 15124 07280 02570 72410 10070 20040 39883 40159 51012 60016 72586 878// 91200 333 60007=
07280,1998-11-15 15:00:00,7,1017.6,1.7,81,4,15000,11.112,,,280,,,,0,,,,,,25,wg-a,,,,AAXX 15154 07280 12565 72806 10070 20040 39900 40176 53017 60007 72586 878// 91500=
07280,1998-11-15 21:00:00,6,1021.5,1.2,81,3,20000,14.816,,,260,,,,,,,,,,,wg-a,,,,AAXX 15214 07280 12770 82608 10060 20030 39936 40215 51012 60006 885// 92100=
07280,1998-11-16 00:00:00,6,1021.6,0.1,81,3,20000,11.112,,,290,,,,,,,,,,,wg-a,,,,AAXX 16004 07280 12770 82906 10060 20030 39937 40216 52001 60006 885// 90000=
07280,1998-11-16 03:00:00,5,1021.1,-0.5,87,3,15000,14.816,,,280,,,,,,,,,,,wg-a,,,,AAXX 16034 07280 12265 72808 10050 20030 39932 40211 56005 60006 878// 90300=
07280,1998-11-16 06:00:00,4,1021.7,0.5,87,2,20000,14.816,,,270,3.1,5.8,,,,,2,,,1,wg-a,,,,AAXX 16064 07280 02470 /2708 10040 20020 39937 40217 51005 60006 70161 81200 90600 333 10058 20031 60024=
07280,1998-11-16 09:00:00,5,1023.1,1.4,81,2,15000,11.112,,,290,,,,0,,,,,,15,wg-a,,,,AAXX 16094 07280 12465 62906 10050 20020 39951 40231 51014 60007 71586 84830 90900=
07280,1998-11-16 12:00:00,6,1023.9,0.9,75,2,25000,25.928,,,310,,,,1,,,,,,1,wg-a,,,,AAXX 16124 07280 02575 /3114 10060 20020 39960 40239 50009 60016 70186 84800 91200 333 60017=
07280,1998-11-16 15:00:00,4,1025.5,1.4,87,2,11000,22.224,,,320,,,,1,,,,,,25,wg-a,,,,AAXX 16154 07280 12461 73212 10040 20020 39974 40255 53014 60017 72586 878// 91500=
07280,1998-11-16 18:00:00,4,1027,1.5,87,2,15000,11.112,,,310,3.4,6.9,,,,,,,,1,wg-a,,,,AAXX 16184 07280 12565 73106 10040 20020 39989 40270 52015 60006 70186 878// 91800 333 10069 20034=
07280,1998-11-17 00:00:00,1,1029.7,1,86,-1,15000,0,,,0,,,,,,,,,,,wg-a,,,,AAXX 17004 07280 12565 20000 10010 21010 30011 40297 52010 60006 82500 90000=
07280,1998-11-17 03:00:00,1,1030,0.3,86,-1,12000,14.816,,,10,,,,,,,,,,,wg-a,,,,AAXX 17034 07280 12562 30108 10010 21010 30014 40300 50003 60006 83500 90300=
07280,1998-11-17 06:00:00,-1,1030.4,0.2,86,-3,12000,7.408,,,30,-1.3,4.4,,,,,2,,,,wg-a,,,,AAXX 17064 07280 02/62 00304 11010 21030 30016 40304 51002 60006 80000 90600 333 10044 21013 60024=
07280,1998-11-17 09:00:00,1,1030.8,0.6,86,-1,7000,14.816,,,20,,,,,,,,,,,wg-a,,,,AAXX 17094 07280 12/57 /0208 10010 21010 30022 40308 51006 60006 81030 90900=
07280,1998-11-17 12:00:00,4,1029.6,-0.9,60,-3,15000,22.224,,,30,,,,,,,,,,,wg-a,,,,AAXX 17124 07280 12565 /0312 10040 21030 30013 40296 58009 60006 81201 91200=
07280,1998-11-17 15:00:00,3,1028.8,-0.8,60,-4,25000,22.224,,,50,,,,,,,,,,,wg-a,,,,AAXX 17154 07280 12675 60512 10030 21040 30005 40288 56008 60006 86500 91500=
07280,1998-11-17 18:00:00,1,1028.9,-0.2,69,-4,25000,18.52,,,20,-2.3,4.4,,,,,,,,,wg-a,,,,AAXX 17184 07280 12/75 00210 10010 21040 30003 40289 58002 60006 80000 91800 333 10044 21023=
07280,1998-11-17 21:00:00,-1,1028.5,-0.5,80,-4,20000,14.816,,,10,,,,,,,,,,,wg-a,,,,AAXX 17214 07280 12/70 00108 11010 21040 39998 40285 56005 60006 80000 92100=
07280,1998-11-18 00:00:00,-2,1027.9,-0.7,86,-4,15000,14.816,,,10,,,,,,,,,,,wg-a,,,,AAXX 18004 07280 12/65 00108 11020 21040 39991 40279 57007 60006 80000 90000=
07280,1998-11-18 03:00:00,-3,1027,-1,86,-5,15000,18.52,,,10,,,,,,,,,,,wg-a,,,,AAXX 18034 07280 12/65 00110 11030 21050 39981 40270 57010 60006 80000 90300=
07280,1998-11-18 06:00:00,-3,1026.6,-0.4,80,-6,10000,22.224,,,10,-2.8,0.6,,,,,,,,,wg-a,,,,AAXX 18064 07280 02/60 10112 11030 21060 39977 40266 56004 60006 80001 90600 333 10006 21028 60004=
07280,1998-11-18 09:00:00,-1,1027,0.6,74,-5,20000,18.52,,,30,,,,,,,,,,,wg-a,,,,AAXX 18094 07280 12/70 70310 11010 21050 39983 40270 52006 60006 80001 90900=
07280,1998-11-18 12:00:00,2,1025.9,-0.8,55,-6,35000,25.928,,,50,,,,,,,,,,,wg-a,,,,AAXX 18124 07280 12/81 60514 10020 21060 39975 40259 58008 60006 80001 91200=
07280,1998-11-18 15:00:00,2,1025.7,-0.2,55,-6,500,18.52,,,30,,,,,,,,,,,wg-a,,,,AAXX 18154 07280 12/00 50310 10020 21060 39973 40257 56002 60006 80001 91500=
07280,1998-11-18 18:00:00,-1,1026.2,0.3,74,-5,25000,14.816,,,10,-2.9,2.5,,,,,,,,,wg-a,,,,AAXX 18184 07280 12/75 00108 11010 21050 39976 40262 53003 60006 80000 91800 333 10025 21029=
07280,1998-11-18 21:00:00,-1,1027.2,0.8,80,-4,15000,18.52,,,10,,,,,,,,,,,wg-a,,,,AAXX 18214 07280 12/65 00110 11010 21040 39984 40272 52008 60006 80000 92100=
07280,1998-11-19 00:00:00,-3,1027.2,-0.1,86,-5,15000,14.816,,,10,,,,,,,,,,,wg-a,,,,AAXX 19004 07280 12/65 00108 11030 21050 39983 40272 58001 60006 80000 90000=
07280,1998-11-19 03:00:00,-3,1026.7,-0.6,86,-5,15000,11.112,,,330,,,,,,,,,,,wg-a,,,,AAXX 19034 07280 12/65 03306 11030 21050 39977 40267 58006 60006 80000 90300=
07280,1998-11-19 06:00:00,-5,1027.3,0.5,93,-6,15000,11.112,,,340,-4.6,-0.5,,,,,,,,,wg-a,,,,AAXX 19064 07280 02/65 03406 11050 21060 39982 40273 51005 60006 80000 90600 333 11005 21046 60004=
07280,1998-11-19 09:00:00,-1,1027.5,0.6,80,-4,10000,11.112,,,350,,,,,,,,,,,wg-a,,,,AAXX 19094 07280 12760 33506 11010 21040 39988 40275 52006 60006 82530 90900=
07280,1998-11-19 12:00:00,1,1027.2,-0.1,75,-3,12000,7.408,,,100,,,,,,,,,,70,wg-a,,,,AAXX 19124 07280 02662 81004 10010 21030 39987 40272 58001 61000 77071 885// 91200 333 6100=
07280,1998-11-19 15:00:00,1,1027,-0.2,80,-2,12000,3.704,,,120,,,,,,,,,,70,wg-a,,,,AAXX 19154 07280 02562 71202 10010 21020 39985 40270 55002 61000 77072 875// 91500 333 ////=
07280,1998-11-19 18:00:00,0,1027.6,0.5,93,-1,8000,3.704,,,50,-4.6,1.6,,,,,,,,3,wg-a,,,,AAXX 19184 07280 02458 80502 10000 21010 39990 40276 53005 60006 70372 885// 91800 333 10016 21046 61000=
07280,1998-11-19 21:00:00,1,1028.7,1.1,86,-1,7000,14.816,,,20,,,,,,,,,,,wg-a,,,,AAXX 19214 07280 12457 80208 10010 21010 30001 40287 52011 60006 885// 92100=
07280,1998-11-20 00:00:00,1,1028.9,0.2,80,-2,10000,14.816,,,360,,,,,,,,,,,wg-a,,,,AAXX 20004 07280 12660 23608 10010 21020 30003 40289 50002 60006 82500 90000=
07280,1998-11-20 03:00:00,-1,1030,0.9,86,-3,7000,25.928,,,30,,,,,,,,,,,wg-a,,,,AAXX 20034 07280 12357 70314 11010 21030 30012 40300 53009 60006 877// 90300=
07280,1998-11-20 06:00:00,-1,1031.2,1.1,86,-3,7000,18.52,,,20,-1.7,0.9,,,,,,,,,wg-a,,,,AAXX 20064 07280 02457 80210 11010 21030 30023 40312 53011 60006 887// 90600 333 10009 21017 61000=
07280,1998-11-20 09:00:00,-1,1033,1.8,86,-3,10000,18.52,,,20,,,,,,,,,,,wg-a,,,,AAXX 20094 07280 12460 80210 11010 21030 30041 40330 51018 60006 885// 90900=
07280,1998-11-20 12:00:00,1,1032.4,-0.3,75,-3,12000,22.224,,,30,,,,,,,,,,,wg-a,,,,AAXX 20124 07280 12562 30312 10010 21030 30038 40324 58003 60006 83500 91200=
07280,1998-11-20 15:00:00,0,1033.3,0.7,64,-6,15000,22.224,,,50,,,,,,,,,,,wg-a,,,,AAXX 20154 07280 12565 20512 10000 21060 30045 40333 53007 60006 82500 91500=
07280,1998-11-20 18:00:00,-1,1034.5,1.1,74,-5,15000,22.224,,,20,-1.5,1.8,,,,,,,,,wg-a,,,,AAXX 20184 07280 12565 /0212 11010 21050 30056 40345 53011 60006 86500 91800 333 10018 21015=
07280,1998-11-20 21:00:00,-3,1035.9,1.1,74,-7,12000,18.52,,,10,,,,,,,,,,,wg-a,,,,AAXX 20214 07280 12/62 00110 11030 21070 30067 40359 53011 60006 80000 92100=
07280,1998-11-21 00:00:00,-4,1035.8,-0.1,80,-7,10000,22.224,,,10,,,,,,,,,,,wg-a,,,,AAXX 21004 07280 12/60 00112 11040 21070 30066 40358 58001 60006 80000 90000=
07280,1998-11-21 06:00:00,-5,1036.2,0.1,79,-8,15000,22.224,,,10,-5,-1.1,,,,,,,,,wg-a,,,,AAXX 21064 07280 02/65 00112 11050 21080 30068 40362 53001 60006 80000 90600 333 11011 21050 60004=
07280,1998-11-21 09:00:00,-2,1036.2,0.3,69,-7,20000,22.224,,,30,,,,,,,,,,,wg-a,,,,AAXX 21094 07280 12/70 00312 11020 21070 30071 40362 52003 60006 80000 90900=
07280,1998-11-21 12:00:00,1,1034.2,-1.6,51,-8,25000,31.484,,,60,,,,,,,,,,,wg-a,,,,AAXX 21124 07280 12/75 00617 10010 21080 30055 40342 58016 60006 80000 91200=
07280,1998-11-21 15:00:00,1,1032.6,-1.6,55,-7,25000,29.632,,,30,,,,,,,,,,,wg-a,,,,AAXX 21154 07280 12675 /0316 10010 21070 30039 40326 56016 60006 81100 91500=
07280,1998-11-21 18:00:00,-2,1032.7,-0.2,69,-7,20000,22.224,,,30,-4.9,1.2,,,,,,,,,wg-a,,,,AAXX 21184 07280 12570 /0312 11020 21070 30037 40327 58002 60006 81500 91800 333 10012 21049=
07280,1998-11-21 21:00:00,-4,1031.7,-1.2,74,-8,15000,22.224,,,20,,,,,,,,,,,wg-a,,,,AAXX 21214 07280 12/65 00212 11040 21080 30025 40317 57012 60006 80000 92100=
07280,1998-11-22 00:00:00,-5,1031,-0.8,73,-9,12000,14.816,,,20,,,,,,,,,,,wg-a,,,,AAXX 22004 07280 12/62 00208 11050 21090 30017 40310 58008 60006 80000 90000=
07280,1998-11-22 03:00:00,-2,1032.7,-0.2,69,-7,20000,22.224,,,30,-4.9,1.2,,,,,,,,,wg-a,,,,AAXX 22034 07280 12570 10312 11020 21070 30037 40327 58002 60006 81500 90300 333 10012 21049=
07280,1998-11-22 06:00:00,-7,1028,-1,79,-10,8000,18.52,,,40,-6.6,-1.8,,,,,,,,,wg-a,,,,AAXX 22064 07280 02/58 00410 11070 21100 39987 40280 56010 60006 80000 90600 333 11018 21066 60004=
07280,1998-11-22 09:00:00,-5,1028.1,0.3,68,-10,12000,18.52,,,60,,,,,,,,,,,wg-a,,,,AAXX 22094 07280 12/62 00610 11050 21100 39990 40281 51003 60006 80000 90900=
07280,1998-11-22 12:00:00,-2,1026.7,-1.1,59,-9,13000,11.112,,,40,,,,,,,,,,,wg-a,,,,AAXX 22124 07280 12/63 00406 11020 21090 39979 40267 58011 60006 80000 91200=
07280,1998-11-22 15:00:00,-1,1025.5,-1.1,59,-8,15000,11.112,,,20,,,,,,,,,,,wg-a,,,,AAXX 22154 07280 12/65 00206 11010 21080 39968 40255 56011 60006 80000 91500=
07280,1998-11-22 18:00:00,-4,1025.6,-0.2,74,-8,15000,11.112,,,10,-6.9,-0.8,,,,,,,,,wg-a,,,,AAXX 22184 07280 12/65 00106 11040 21080 39966 40256 56002 60006 80000 91800 333 11008 21069=
07280,1998-11-23 00:00:00,-7,1025.3,-0.3,79,-10,8000,11.112,,,350,,,,,,,,,,,wg-a,,,,AAXX 23004 07280 12/58 03506 11070 21100 39960 40253 55003 60006 80000 90000=
07280,1998-11-23 03:00:00,-8,1024,-1.4,79,-11,8000,7.408,,,350,,,,,,,,,,,wg-a,,,,AAXX 23034 07280 12/58 03504 11080 21110 39946 40240 58014 60006 80000 90300=
07280,1998-11-23 06:00:00,-8,1023.2,-0.8,79,-11,7000,11.112,,,350,-8.9,-4.3,,,,,,,,,wg-a,,,,AAXX 23064 07280 02/57 03506 11080 21110 39938 40232 58008 60006 80000 90600 333 11043 21089 60004=
07280,1998-11-23 09:00:00,-5,1024.4,1.5,73,-9,6000,18.52,,,10,,,,,,,,,,,wg-a,,,,AAXX 23094 07280 12/56 00110 11050 21090 39953 40244 53015 60006 80000 90900=
07280,1998-11-23 12:00:00,0,1022.9,-0.9,64,-6,10000,14.816,,,30,,,,,,,,,,,wg-a,,,,AAXX 23124 07280 12/60 00308 10000 21060 39944 40229 58009 60006 80000 91200=
07280,1998-11-23 15:00:00,2,1022.4,-0.3,60,-5,12000,11.112,,,90,,,,,,,,,,,wg-a,,,,AAXX 23154 07280 12/62 00906 10020 21050 39941 40224 55003 60006 80000 91500=
07280,1998-11-23 18:00:00,-4,1023.3,0.3,86,-6,12000,7.408,,,320,-8.9,2.3,,,,,,,,,wg-a,,,,AAXX 23184 07280 12/62 03204 11040 21060 39944 40233 51003 60006 80000 91800 333 10023 21089=
07280,1998-11-23 21:00:00,-4,1024.3,0.9,80,-7,8000,7.408,,,30,,,,,,,,,,,wg-a,,,,AAXX 23214 07280 12/58 00304 11040 21070 39953 40243 52009 60006 80000 92100=
07280,1998-11-24 00:00:00,-6,1024.3,-0.1,86,-8,8000,7.408,,,330,,,,,,,,,,,wg-a,,,,AAXX 24004 07280 12/58 03304 11060 21080 39952 40243 55001 60006 80000 90000=
07280,1998-11-24 03:00:00,-7,1024.7,0.2,86,-9,8000,7.408,,,350,,,,,,,,,,,wg-a,,,,AAXX 24034 07280 12/58 03504 11070 21090 39954 40247 53002 60006 80000 90300=
07280,1998-11-24 06:00:00,-8,1025.3,0.5,85,-10,7000,7.408,,,310,-9,-3.4,,,,,,,,,wg-a,,,,AAXX 24064 07280 02/57 13104 11080 21100 39959 40253 53005 60006 81030 90600 333 11034 21090 60004=
07280,1998-11-24 09:00:00,-5,1025.3,0.3,86,-7,4500,0,,,0,,,,,,,,,,10,wg-a,,,,AAXX 24094 07280 12/45 /0000 11050 21070 39962 40253 50003 60006 71000 80001 90900=
07280,1998-11-24 12:00:00,-1,1024.1,-0.7,69,-6,6000,3.704,,,140,,,,,,,,,,,wg-a,,,,AAXX 24124 07280 12/56 21402 11010 21060 39955 40241 58007 60006 80001 91200=
07280,1998-11-24 15:00:00,-1,1024.3,0.2,74,-5,6000,7.408,,,150,,,,,,,,,,,wg-a,,,,AAXX 24154 07280 12/56 81504 11010 21050 39957 40243 53002 60006 80007 91500=
07280,1998-11-24 18:00:00,-3,1025.3,0.7,80,-6,500,3.704,,,190,-8.4,0.9,,,,,,,,,wg-a,,,,AAXX 24184 07280 12/00 81902 11030 21060 39964 40253 51007 60006 85057 91800 333 10009 21084=
07280,1998-11-24 21:00:00,-4,1024.7,-0.7,86,-6,500,0,,,0,,,,,,,,,,,wg-a,,,,AAXX 24214 07280 12/00 80000 11040 21060 39957 40247 57007 60006 86077 92100=
07280,1998-11-25 00:00:00,-6,1023.9,-1,86,-8,3000,3.704,,,130,,,,,,,,,,10,wg-a,,,,AAXX 25004 07280 12/30 /1302 11060 21080 39947 40239 58010 60006 71011 81030 90000=
07280,1998-11-25 03:00:00,-6,1022.5,-1.3,93,-7,2500,3.704,,,90,,,,,,,,,,10,wg-a,,,,AAXX 25034 07280 12/25 20902 11060 21070 39934 40225 58013 60006 71011 82030 90300=
07280,1998-11-25 06:00:00,-6,1021,-1.5,93,-7,2000,3.704,,,360,-7,-2.9,,,,,,,,10,wg-a,,,,AAXX 25064 07280 02/20 63602 11060 21070 39919 40210 58015 60006 71011 82036 90600 333 11029 21070 60004=
07280,1998-11-25 09:00:00,-5,1019.3,-1.5,93,-6,2500,3.704,,,40,,,,,,,,,,10,wg-a,,,,AAXX 25094 07280 12/25 70402 11050 21060 39904 40193 57015 60006 71022 81032 90900=
07280,1998-11-25 12:00:00,-2,1017.3,-1.7,80,-5,3000,0,,,0,,,,,,,,,,10,wg-a,,,,AAXX 25124 07280 12/30 80000 11020 21050 39887 40173 56017 60006 71022 8807/ 91200=
07280,1998-11-25 15:00:00,-2,1017.3,0.1,93,-3,800,3.704,,,200,,,,0,,,,,,10,wg-a,,,,AAXX 25154 07280 12508 82002 11020 21030 39888 40173 53001 60007 71074 8657/ 91500=
07280,1998-11-25 18:00:00,-2,1018.2,0.9,93,-3,700,0,,,0,-6.2,-1.5,,,,,,,,71,wg-a,,3,,AAXX 25184 07280 02407 80000 11020 21030 39897 40182 51009 61000 77174 8557/ 91800 333 11015 21062 4/003 6002=
07280,1998-11-25 21:00:00,-2,1019.4,1.2,100,-2,1700,7.408,,,340,,,,1,,,,,,10,wg-a,,,,AAXX 25214 07280 12317 83404 11020 21020 39909 40194 53012 60017 71077 8667/ 92100=
07280,1998-11-26 00:00:00,-1,1020.2,0.8,93,-2,2000,3.704,,,50,,,,,,,,,,10,wg-a,,,,AAXX 26004 07280 02420 80502 11010 21020 39917 40202 53008 60016 71074 886// 90000 333 61000=
07280,1998-11-26 03:00:00,-1,1021.1,0.9,93,-2,1500,0,,,0,,,,0,,,,,,10,wg-a,,,,AAXX 26034 07280 12215 80000 11010 21020 39926 40211 51009 60007 71072 886// 90300=
07280,1998-11-26 06:00:00,-1,1022.5,1.4,100,-1,1100,0,,,0,-1.8,-0.7,,,,,,,,10,wg-a,,3,,AAXX 26064 07280 02211 80000 11010 21010 39940 40225 53014 61000 71072 886// 90600 333 11007 21018 4/003 6004=
07280,1998-11-26 09:00:00,0,1024.4,1.9,93,-1,1400,0,,,0,,,,,,,,,,10,wg-a,,,,AAXX 26094 07280 02414 80000 10000 21010 39959 40244 53019 61000 71074 885// 90900 333 ////=
07280,1998-11-26 12:00:00,1,1025,0.7,93,0,1600,3.704,,,190,,,,,,,,,,10,wg-a,,,,AAXX 26124 07280 02416 81902 10010 20000 39966 40250 51007 61000 71074 885// 91200 333 ////=
07280,1998-11-26 15:00:00,2,1025.1,0.1,87,0,2000,3.704,,,200,,,,,,,,,,10,wg-a,,,,AAXX 26154 07280 12220 82002 10020 20000 39967 40251 53001 60006 71022 885// 91500=
07280,1998-11-26 18:00:00,1,1026,0.8,93,0,2200,3.704,,,180,-0.8,1.6,,,,,,,,10,wg-a,,1,,AAXX 26184 07280 12422 81802 10010 20000 39975 40260 51008 60006 71022 885// 91800 333 10016 21008 4/001=
07280,1998-11-26 21:00:00,1,1024.7,-1.2,93,0,2000,14.816,,,190,,,,,,,,,,10,wg-a,,,,AAXX 26214 07280 02220 81908 10010 20000 39963 40247 57012 61000 71062 885// 92100 333 ////=
07280,1998-11-27 00:00:00,2,1022.7,-1.9,93,1,2000,22.224,,,200,,,,0,,,,,,10,wg-a,,,,AAXX 27004 07280 02120 82012 10020 20010 39944 40227 58019 60016 71062 887// 90000 333 60007=
07280,1998-11-27 03:00:00,1,1020.9,-1.8,100,1,1500,22.224,,,200,,,,1,,,,,,10,wg-a,,,,AAXX 27034 07280 12115 82012 10010 20010 39926 40209 56018 60017 71066 887// 90300=
07280,1998-11-27 06:00:00,2,1020.6,-0.2,93,1,900,3.704,,,220,0.7,1.8,,,,,,,,45,wg-a,,1,,AAXX 27064 07280 02109 92202 10020 20010 39924 40206 55002 61000 74565 895// 90600 333 10018 20007 4/001 6002=
07280,1998-11-27 09:00:00,2,1021.2,0.6,93,1,100,7.408,,,120,,,,,,,,,,45,wg-a,,,,AAXX 27094 07280 12/01 91204 10020 20010 39930 40212 53006 60006 74544 89/// 90900=
07280,1998-11-27 12:00:00,4,1021,0,100,4,200,3.704,,,210,,,,,,,,,,45,wg-a,,,,AAXX 27124 07280 12/02 92102 10040 20040 39930 40210 50000 60006 74544 89/// 91200=
07280,1998-11-27 15:00:00,4,1020.9,-0.1,100,4,100,3.704,,,120,,,,,,,,,,45,wg-a,,,,AAXX 27154 07280 32/01 91202 10040 20040 39929 40209 55001 74586 89/// 91500=
07280,1998-11-27 18:00:00,2,1022.2,1.1,100,2,100,3.704,,,260,1.5,4.3,,,,,,,,45,wg-a,,,,AAXX 27184 07280 12/01 92602 10020 20020 39940 40222 53011 60006 74586 89/// 91800 333 10043 20015=
07280,1998-11-27 21:00:00,0,1023.2,0.7,100,0,100,3.704,,,30,,,,,,,,,,43,wg-a,,,,AAXX 27214 07280 12/01 90302 10000 20000 39947 40232 52007 60006 74344 89/// 92100=
07280,1998-11-28 00:00:00,-2,1023.2,-0.2,93,-3,1100,0,,,0,,,,,,,,,,10,wg-a,,,,AAXX 28004 07280 12/11 00000 11020 21030 39945 40232 55002 60006 71041 80000 90000=
07280,1998-11-28 03:00:00,-1,1023.1,0,100,-1,100,0,,,0,,,,,,,,,,49,wg-a,,,,AAXX 28034 07280 12/01 90000 11010 21010 39945 40231 50000 60006 74941 89/// 90300=
07280,1998-11-28 06:00:00,-1,1023.3,0.2,100,-1,100,0,,,0,-2.7,2.1,,,,,1,,,49,wg-a,,,,AAXX 28064 07280 02/01 90000 11010 21010 39947 40233 53002 60006 74941 89/// 90600 333 10021 21027 60014=
07280,1998-11-28 12:00:00,-1,1022.4,-1.4,100,-1,300,0,,,0,,,,,,,,,,49,wg-a,,,,AAXX 28124 07280 12/03 90000 11010 21010 39938 40224 58014 60006 74944 89/// 91200=
07280,1998-11-28 15:00:00,-1,1021.3,-1.1,100,-1,200,11.112,,,180,,,,,,,,,,48,wg-a,,,,AAXX 28154 07280 12102 81806 11010 21010 39927 40213 58011 60006 74844 886// 91500=
07280,1998-11-28 18:00:00,-1,1020.2,-1,100,-1,500,3.704,,,200,-1.5,-0.8,,,,,,,,10,wg-a,,,,AAXX 28184 07280 12/05 92002 11010 21010 39917 40202 58010 60006 71042 89/// 91800 333 11008 21015=
07280,1998-11-28 21:00:00,-1,1017.9,-2.2,100,-1,100,7.408,,,20,,,,,,,,,,49,wg-a,,,,AAXX 28214 07280 12/01 90204 11010 21010 39895 40179 57022 60006 74944 89/// 92100=
07280,1998-11-29 00:00:00,0,1015.7,-2.1,100,0,500,11.112,,,170,,,,0,,,,,,48,wg-a,,,,AAXX 29004 07280 02105 81706 10000 20000 39874 40157 57021 60016 74864 886// 90000 333 60007=
07280,1998-11-29 03:00:00,0,1013.4,-2.2,93,-1,2600,7.408,,,170,,,,3,,,,,,10,wg-a,,,,AAXX 29034 07280 12126 81704 10000 21010 39852 40134 56022 60037 71064 886// 90300=
07280,1998-11-29 06:00:00,0,1012.9,-0.5,100,0,1200,3.704,,,190,-1.3,0,,,,,5,,,28,wg-a,,,,AAXX 29064 07280 02112 81902 10000 20000 39847 40129 56005 60006 72864 886// 90600 333 10000 21013 60054=
07280,1998-11-29 09:00:00,1,1013.4,0.5,93,0,1300,3.704,,,140,,,,1,,,,,,10,wg-a,,,,AAXX 29094 07280 12113 81402 10010 20000 39852 40134 53005 60017 71064 885// 90900=
07280,1998-11-29 12:00:00,2,1013.5,0.3,93,1,1400,3.704,,,70,,,,1,,,,,,10,wg-a,,,,AAXX 29124 07280 02414 80702 10020 20010 39855 40135 51003 60026 71064 885// 91200 333 60017=
07280,1998-11-29 15:00:00,3,1014.4,0.9,93,2,1100,7.408,,,200,,,,2,,,,,,10,wg-a,,,,AAXX 29154 07280 12411 82004 10030 20020 39864 40144 53009 60027 71066 885// 91500=
07280,1998-11-29 18:00:00,3,1015.7,1.3,93,2,500,3.704,,,110,0,2.8,,,,,,,,44,wg-a,,,,AAXX 29184 07280 02205 81102 10030 20020 39877 40157 52013 61000 74466 885// 91800 333 10028 20000 6002=
07280,1998-11-29 21:00:00,3,1016.4,0.7,93,2,4000,0,,,0,,,,0,,,,,,10,wg-a,,,,AAXX 29214 07280 12240 80000 10030 20020 39884 40164 51007 60007 71065 885// 92100=
07280,1998-11-30 00:00:00,4,1016.8,0.5,93,3,500,14.816,,,40,,,,0,,,,,,3,wg-a,,,,AAXX 30004 07280 02400 80408 10040 20030 39889 40168 53005 60016 70365 885// 90000 333 60007=
07280,1998-11-30 03:00:00,2,1018.5,1.4,93,1,500,14.816,,,10,,,,,,,,,,,wg-a,,,,AAXX 30034 07280 12200 80108 10020 20010 39903 40185 51014 60006 886// 90300=
07280,1998-11-30 06:00:00,1,1019.3,0.8,93,0,8000,22.224,,,20,1.2,4.7,,,,,5,,,,wg-a,,,,AAXX 30064 07280 02458 80212 10010 20000 39911 40193 53008 60006 885// 90600 333 10047 20012 60054=
07280,1998-11-30 09:00:00,1,1021.4,2,86,-1,6000,22.224,,,20,,,,,,,,,,,wg-a,,,,AAXX 30094 07280 12556 70212 10010 21010 39931 40214 52020 60006 875// 90900=
07280,1998-11-30 12:00:00,2,1021.7,0.3,75,-2,10000,22.224,,,20,,,,,,,,,,,wg-a,,,,AAXX 30124 07280 12460 80212 10020 21020 39934 40217 50003 60006 885// 91200=
07280,1998-11-30 15:00:00,1,1021.8,0.1,75,-3,12000,25.928,,,20,,,,,,,,,,,wg-a,,,,AAXX 30154 07280 12562 80214 10010 21030 39935 40218 52001 60006 885// 91500=
07280,1998-11-30 18:00:00,1,1023.6,1.7,75,-3,11000,22.224,,,20,0.8,2,,,,,,,,,wg-a,,,,AAXX 30184 07280 12561 80212 10010 21030 39952 40236 51017 60006 885// 91800 333 10020 20008=
07280,1998-11-30 21:00:00,1,1024.5,0.8,80,-2,11000,25.928,,,20,,,,,,,,,,,wg-a,,,,AAXX 30214 07280 12561 80214 10010 21020 39960 40245 51008 60006 885// 92100=
07280,1998-12-01 00:00:00,1,1025.6,1.1,80,-2,10000,22.224,,,40,,,,,,,,,,,wg-a,,,,AAXX 01004 07280 12560 80412 10010 21020 39971 40256 52011 60006 885// 90000=
07280,1998-12-01 03:00:00,1,1025.9,0.4,80,-2,10000,18.52,,,20,,,,,,,,,,,wg-a,,,,AAXX 01034 07280 12560 80210 10010 21020 39975 40259 53004 60006 885// 90300=
07280,1998-12-01 06:00:00,1,1026.2,0.3,86,-1,12000,18.52,,,30,0.6,1.5,,,,,,,,,wg-a,,,,AAXX 01064 07280 02562 80310 10010 21010 39978 40262 53003 60006 885// 90600 333 10015 20006 60004=
07280,1998-12-01 12:00:00,3,1026.9,-0.4,75,-1,10000,22.224,,,20,,,,,,,,,,,wg-a,,,,AAXX 01124 07280 12560 80212 10030 21010 39986 40269 58004 60006 885// 91200=
07280,1998-12-01 15:00:00,2,1026.5,-0.4,87,0,8000,22.224,,,20,,,,,,,,,,,wg-a,,,,AAXX 01154 07280 12558 80212 10020 20000 39982 40265 57004 60006 885// 91500=
07280,1998-12-01 18:00:00,2,1026.3,-0.3,80,-1,8000,22.224,,,20,1.4,2.9,,,,,,,,,wg-a,,,,AAXX 01184 07280 12558 80212 10020 21010 39979 40263 58003 60006 885// 91800 333 10029 20014=
07280,1998-12-01 21:00:00,1,1026.8,0.4,80,-2,8000,18.52,,,30,,,,,,,,,,,wg-a,,,,AAXX 01214 07280 12558 80310 10010 21020 39983 40268 51004 60006 885// 92100=
07280,1998-12-02 00:00:00,0,1026.3,-0.5,86,-2,8000,22.224,,,40,,,,,,,,,,,wg-a,,,,AAXX 02004 07280 12558 80412 10000 21020 39978 40263 58005 60006 885// 90000=
07280,1998-12-02 03:00:00,0,1025.2,-1.2,80,-3,8000,22.224,,,30,,,,,,,,,,,wg-a,,,,AAXX 02034 07280 12558 80312 10000 21030 39966 40252 58012 60006 885// 90300=
07280,1998-12-02 06:00:00,0,1024.9,-0.3,80,-3,8000,25.928,,,40,-0.3,1.6,,,,,,,,,wg-a,,,,AAXX 02064 07280 02558 80414 10000 21030 39963 40249 56003 60006 885// 90600 333 10016 21003 60004=
07280,1998-12-02 09:00:00,0,1025.2,0.3,80,-3,8000,18.52,,,40,,,,,,,,,,,wg-a,,,,AAXX 02094 07280 12558 80410 10000 21030 39966 40252 53003 60006 885// 90900=
07280,1998-12-02 12:00:00,0,1024.6,-0.5,80,-3,9000,14.816,,,30,,,,,,,,,,,wg-a,,,,AAXX 02124 07280 12459 80308 10000 21030 39961 40246 58005 60006 885// 91200=
07280,1998-12-02 15:00:00,1,1023.7,-0.8,80,-2,9000,11.112,,,20,,,,,,,,,,,wg-a,,,,AAXX 02154 07280 12659 /0206 10010 21020 39953 40237 56008 60006 875// 91500=
07280,1998-12-02 18:00:00,0,1023.9,0.1,86,-2,8000,11.112,,,360,-0.4,0.6,,,,,,,,,wg-a,,,,AAXX 02184 07280 12658 83606 10000 21020 39954 40239 50001 60006 885// 91800 333 10006 21004=
07280,1998-12-02 21:00:00,-1,1024.2,0.2,86,-3,8000,7.408,,,340,,,,,,,,,,,wg-a,,,,AAXX 02214 07280 12558 /3404 11010 21030 39956 40242 53002 60006 875// 92100=
07280,1998-12-03 00:00:00,-3,1024.3,-0.2,86,-5,500,7.408,,,340,,,,,,,,,,,wg-a,,,,AAXX 03004 07280 12600 /3404 11030 21050 39954 40243 58002 60006 81500 90000=
07280,1998-12-03 03:00:00,-3,1023.3,-0.9,86,-5,500,7.408,,,350,,,,,,,,,,,wg-a,,,,AAXX 03034 07280 12/00 03504 11030 21050 39945 40233 58009 60006 80000 90300=
07280,1998-12-03 06:00:00,-4,1022.5,-0.9,86,-6,500,7.408,,,360,-4.1,0.2,,,,,,,,,wg-a,,,,AAXX 03064 07280 02/00 03604 11040 21060 39936 40225 56009 60006 80000 90600 333 10002 21041 60004=
07280,1998-12-03 09:00:00,-2,1021.7,-0.5,93,-3,500,14.816,,,360,,,,,,,,,,,wg-a,,,,AAXX 03094 07280 12/00 /3608 11020 21030 39931 40217 58005 60006 81030 90900=
07280,1998-12-03 12:00:00,2,1019.4,-1.9,80,-1,9000,14.816,,,20,,,,,,,,,,,wg-a,,,,AAXX 03124 07280 12/59 20208 10020 21010 39912 40194 58019 60006 80001 91200=
07280,1998-12-03 15:00:00,3,1016.9,-2.3,81,0,12000,11.112,,,10,,,,,,,,,,,wg-a,,,,AAXX 03154 07280 12/62 40106 10030 20000 39889 40169 56023 60006 80001 91500=
07280,1998-12-03 21:00:00,-1,1015.7,-0.9,86,-3,10000,14.816,,,360,,,,,,,,,,,wg-a,,,,AAXX 03214 07280 12/60 13608 11010 21030 39873 40157 58009 60006 80001 92100=
07280,1998-12-04 00:00:00,-2,1014,-1.7,93,-3,10000,11.112,,,20,,,,,,,,,,,wg-a,,,,AAXX 04004 07280 12/60 10206 11020 21030 39856 40140 58017 60006 80001 90000=
07280,1998-12-04 03:00:00,-2,1012.7,-1.3,93,-3,500,14.816,,,30,,,,,,,,,,,wg-a,,,,AAXX 04034 07280 12200 80308 11020 21030 39843 40127 58013 60006 886// 90300=
07280,1998-12-04 06:00:00,-2,1011.4,-1.2,93,-3,6000,7.408,,,40,-2.2,0.1,,,,,,,,,wg-a,,,,AAXX 04064 07280 02156 80404 11020 21030 39831 40114 56012 60006 886// 90600 333 10001 21022 60004=
07280,1998-12-04 12:00:00,0,1011.4,-0.4,93,-1,3500,3.704,,,190,,,,,,,,,,10,wg-a,,,,AAXX 04124 07280 02135 81902 10000 21010 39832 40114 58004 61000 71072 885// 91200 333 6100=
07280,1998-12-04 15:00:00,0,1011.7,0.4,86,-2,4000,11.112,,,310,,,,,,,,,,10,wg-a,,,,AAXX 04154 07280 02440 83106 10000 21020 39836 40117 53004 61000 71072 885// 91500 333 ////=
07280,1998-12-04 18:00:00,0,1012.9,1.1,86,-2,8000,11.112,,,260,-1.5,0.3,,,,,,,,71,wg-a,,1,,AAXX 04184 07280 02358 82606 10000 21020 39847 40129 52011 61000 77172 885// 91800 333 10003 21015 4/001 6100=
07280,1998-12-04 21:00:00,1,1014.3,1.4,86,-1,8000,11.112,,,310,,,,,,,,,,1,wg-a,,,,AAXX 04214 07280 02458 83106 10010 21010 39861 40143 51014 61000 70172 886// 92100 333 ////=
07280,1998-12-05 00:00:00,1,1014.9,0.6,80,-2,8000,3.704,,,210,,,,,,,,,,1,wg-a,,,,AAXX 05004 07280 02458 82102 10010 21020 39867 40149 50006 61000 70172 886// 90000 333 ////=
07280,1998-12-05 03:00:00,1,1014.8,-0.1,86,-1,8000,7.408,,,250,,,,,,,,,,70,wg-a,,,,AAXX 05034 07280 02458 82504 10010 21010 39866 40148 56001 61000 77072 886// 90300 333 ////=
07280,1998-12-05 06:00:00,1,1015,0.2,86,-1,8000,7.408,,,210,0.2,1.2,,,,,,,,70,wg-a,,1,,AAXX 05064 07280 02358 82104 10010 21010 39868 40150 53002 61000 77072 886// 90600 333 10012 20002 4/001 6000=
07280,1998-12-05 09:00:00,2,1016.5,1.6,80,-1,500,3.704,,,260,,,,,,,,,,70,wg-a,,,,AAXX 05094 07280 02500 72602 10020 21010 39884 40165 53016 61000 77071 875// 90900 333 ////=
07280,1998-12-05 12:00:00,3,1017.2,0.8,70,-2,20000,18.52,,,290,,,,0,,,,,,1,wg-a,,,,AAXX 05124 07280 02570 22910 10030 21020 39892 40172 51008 60006 70187 82200 91200 333 60007=
07280,1998-12-05 15:00:00,2,1017.8,0.5,69,-3,20000,11.112,,,250,,,,,,,,,,,wg-a,,,,AAXX 05154 07280 12570 72506 10020 21030 39897 40178 53005 60006 82432 91500=
07280,1998-12-05 18:00:00,1,1018.9,0.9,69,-4,12000,14.816,,,230,0.2,3,,,,,,,,,wg-a,,,,AAXX 05184 07280 12762 72308 10010 21040 39906 40189 53009 60006 8553/ 91800 333 10030 20002=
07280,1998-12-05 21:00:00,1,1018.5,-0.3,75,-3,12000,18.52,,,210,,,,,,,,,,,wg-a,,,,AAXX 05214 07280 12562 82110 10010 21030 39903 40185 58003 60006 8583/ 92100=
07280,1998-12-06 00:00:00,2,1017.7,-0.8,87,0,7000,18.52,,,230,,,,,,,,,,70,wg-a,,,,AAXX 06004 07280 02457 82310 10020 20000 39895 40177 56008 61000 77072 885// 90000 333 6100=
07280,1998-12-06 03:00:00,1,1018.6,0.8,93,0,10000,7.408,,,290,,,,1,,,,,,60,wg-a,,,,AAXX 06034 07280 12560 82904 10010 20000 39903 40186 53008 60017 76076 885// 90300=
07280,1998-12-06 06:00:00,-1,1020.8,2,86,-3,15000,11.112,,,330,-0.7,2,,,,,1,,,1,wg-a,,,,AAXX 06064 07280 02465 /3306 11010 21030 39923 40208 53020 60006 70176 81500 90600 333 10020 21007 60014=
07280,1998-12-06 09:00:00,1,1023.3,2.6,80,-2,20000,11.112,,,340,,,,,,,,,,,wg-a,,,,AAXX 06094 07280 12570 43406 10010 21020 39949 40233 51026 60006 84500 90900=
07280,1998-12-06 12:00:00,2,1024.7,1.5,69,-3,500,7.408,,,310,,,,,,,,,,,wg-a,,,,AAXX 06124 07280 12500 /3104 10020 21030 39964 40247 51015 60006 86200 91200=
07280,1998-12-06 15:00:00,1,1026.2,1.4,69,-4,25000,18.52,,,310,,,,,,,,,,,wg-a,,,,AAXX 06154 07280 12575 73110 10010 21040 39978 40262 53014 60006 872// 91500=
07280,1998-12-06 18:00:00,0,1027.8,1.4,80,-3,25000,3.704,,,310,-0.8,2.4,,,,,,,,,wg-a,,,,AAXX 06184 07280 12575 73102 10000 21030 39992 40278 53014 60006 875// 91800 333 10024 21008=
07280,1998-12-06 21:00:00,-1,1029.3,1.4,93,-2,20000,7.408,,,230,,,,,,,,,,,wg-a,,,,AAXX 06214 07280 12570 82304 11010 21020 30006 40293 53014 60006 885// 92100=
07280,1998-12-07 00:00:00,0,1029.8,0.5,86,-2,20000,7.408,,,210,,,,,,,,,,,wg-a,,,,AAXX 07004 07280 12670 82104 10000 21020 30011 40298 51005 60006 885// 90000=
07280,1998-12-07 03:00:00,-3,1030,-0.1,93,-4,15000,0,,,0,,,,,,,,,,,wg-a,,,,AAXX 07034 07280 12565 /0000 11030 21040 30010 40300 56001 60006 81500 90300=
07280,1998-12-07 06:00:00,-2,1030.8,0.8,86,-4,15000,0,,,0,-4.2,0.4,,,,,,,,,wg-a,,,,AAXX 07064 07280 02565 70000 11020 21040 30018 40308 53008 60006 875// 90600 333 10004 21042 60004=
07280,1998-12-07 09:00:00,0,1031.6,1.1,86,-2,15000,14.816,,,200,,,,,,,,,,,wg-a,,,,AAXX 07094 07280 12465 72008 10000 21020 30029 40316 51011 60006 875// 90900=
07280,1998-12-07 12:00:00,1,1031.5,0,80,-2,25000,14.816,,,200,,,,,,,,,,,wg-a,,,,AAXX 07124 07280 12475 72008 10010 21020 30029 40315 50000 60006 87200 91200=
07280,1998-12-07 15:00:00,2,1031.5,0.1,75,-2,500,7.408,,,310,,,,,,,,,,,wg-a,,,,AAXX 07154 07280 12500 23104 10020 21020 30030 40315 53001 60006 82800 91500=
07280,1998-12-07 18:00:00,-1,1033.3,1.5,93,-2,20000,7.408,,,180,-2.5,2.5,,,,,,,,,wg-a,,,,AAXX 07184 07280 12670 41804 11010 21020 30045 40333 51015 60006 84500 91800 333 10025 21025=
07280,1998-12-07 21:00:00,-3,1034.1,0.5,93,-4,15000,3.704,,,20,,,,,,,,,,,wg-a,,,,AAXX 07214 07280 12665 /0202 11030 21040 30050 40341 51005 60006 81500 92100=
07280,1998-12-08 00:00:00,-4,1034.3,0.1,93,-5,6000,3.704,,,50,,,,,,,,,,,wg-a,,,,AAXX 08004 07280 12556 /0502 11040 21050 30051 40343 52001 60006 81500 90000=
07280,1998-12-08 03:00:00,-6,1034.6,0.1,93,-7,4000,7.408,,,310,,,,,,,,,,10,wg-a,,,,AAXX 08034 07280 12/40 03104 11060 21070 30052 40346 50001 60006 71000 80000 90300=
07280,1998-12-08 06:00:00,-7,1034.9,0.1,86,-9,500,0,,,0,-7.3,-0.6,,,,,,,,,wg-a,,,,AAXX 08064 07280 02/00 /0000 11070 21090 30053 40349 53001 60006 81030 90600 333 11006 21073 60004=
07280,1998-12-08 09:00:00,-4,1034.8,0.2,93,-5,3000,0,,,0,,,,,,,,,,10,wg-a,,,,AAXX 08094 07280 12130 30000 11040 21050 30055 40348 50002 60006 71011 82701 90900=
07280,1998-12-08 12:00:00,-3,1033.8,-0.8,100,-3,100,3.704,,,360,,,,,,,,,,49,wg-a,,,,AAXX 08124 07280 12/01 93602 11030 21030 30047 40338 58008 60006 74941 89/// 91200=
07280,1998-12-08 18:00:00,-2,1033.4,0.4,93,-3,400,7.408,,,110,-7.8,-2.1,,,,,,,,49,wg-a,,,,AAXX 08184 07280 12/04 91104 11020 21030 30044 40334 50004 60006 74944 89/// 91800 333 11021 21078=
07280,1998-12-08 21:00:00,-2,1032.9,-0.5,93,-3,800,3.704,,,170,,,,,,,,,,48,wg-a,,,,AAXX 08214 07280 12/08 91702 11020 21030 30039 40329 58005 60006 74842 89/// 92100=
07280,1998-12-09 00:00:00,-2,1031.1,-1.7,93,-3,800,3.704,,,130,,,,,,,,,,48,wg-a,,,,AAXX 09004 07280 12108 81302 11020 21030 30022 40311 57017 60006 74842 886// 90000=
07280,1998-12-09 03:00:00,-2,1030.4,-0.7,100,-2,600,3.704,,,140,,,,,,,,,,49,wg-a,,,,AAXX 09034 07280 12/06 91402 11020 21020 30015 40304 57007 60006 74944 89/// 90300=
07280,1998-12-09 06:00:00,-2,1029.4,-1,93,-3,800,3.704,,,160,-2.2,-1.8,,,,,,,,49,wg-a,,,,AAXX 09064 07280 02/08 91602 11020 21030 30005 40294 56010 61000 74964 89/// 90600 333 11018 21022 6100=
07280,1998-12-09 09:00:00,-1,1029.6,0.3,93,-2,3000,7.408,,,170,,,,1,,,,,,10,wg-a,,,,AAXX 09094 07280 12230 81704 11010 21020 30008 40296 51003 60017 71064 885// 90900=
07280,1998-12-09 12:00:00,-1,1028.7,-0.8,100,-1,2000,7.408,,,150,,,,1,,,,,,10,wg-a,,,,AAXX 09124 07280 02220 81504 11010 21010 30000 40287 58008 60026 71076 885// 91200 333 60017=
07280,1998-12-09 15:00:00,0,1028.1,-0.6,86,-2,4500,7.408,,,160,,,,0,,,,,,10,wg-a,,,,AAXX 09154 07280 12245 81604 10000 21020 39994 40281 56006 60007 71076 8652/ 91500=
07280,1998-12-09 18:00:00,0,1028.2,0.1,93,-1,4500,0,,,0,-1.9,-0.2,,,,,,,,10,wg-a,,,,AAXX 09184 07280 02645 80000 10000 21010 39995 40282 50001 60006 71076 8652/ 91800 333 11002 21019 61000=
07280,1998-12-09 21:00:00,0,1027.7,-0.4,93,-1,500,7.408,,,190,,,,0,,,,,,60,wg-a,,,,AAXX 09214 07280 12500 81904 10000 21010 39991 40277 56004 60007 76076 885// 92100=
07280,1998-12-10 00:00:00,0,1026.8,-0.9,93,-1,500,11.112,,,200,,,,,,,,,,3,wg-a,,,,AAXX 10004 07280 02400 82006 10000 21010 39982 40268 58009 60016 70376 885// 90000 333 61000=
07280,1998-12-10 03:00:00,0,1025.9,-0.8,93,-1,500,7.408,,,200,,,,,,,,,,,wg-a,,,,AAXX 10034 07280 12400 82004 10000 21010 39974 40259 58008 60006 885// 90300=
07280,1998-12-10 06:00:00,1,1025.3,-0.6,93,0,500,7.408,,,180,-0.4,0.8,,,,,,,,21,wg-a,,,,AAXX 10064 07280 02400 81804 10010 20000 39968 40253 56006 61000 72162 885// 90600 333 10008 21004 6004=
07280,1998-12-10 09:00:00,1,1025.5,0.3,93,0,4500,3.704,,,170,,,,0,,,,,,10,wg-a,,,,AAXX 10094 07280 12445 81702 10010 20000 39971 40255 51003 60007 71062 885// 90900=
07280,1998-12-10 12:00:00,3,1023.6,-1.6,93,2,4000,11.112,,,190,,,,,,,,,,10,wg-a,,,,AAXX 10124 07280 02440 81906 10030 20020 39955 40236 58016 60006 71062 885// 91200 333 61000=
07280,1998-12-10 15:00:00,5,1022.3,-1.2,87,3,500,7.408,,,220,,,,,,,,,,,wg-a,,,,AAXX 10154 07280 12400 82204 10050 20030 39943 40223 55012 60006 885// 91500=
07280,1998-12-10 18:00:00,3,1021.2,-1.2,93,2,4000,3.704,,,170,0.7,4.7,,,,,,,,10,wg-a,,,,AAXX 10184 07280 12540 /1702 10030 20020 39931 40212 56012 60006 71022 875// 91800 333 10047 20007=
07280,1998-12-10 21:00:00,3,1019.6,-1.5,100,3,500,3.704,,,150,,,,,,,,,,10,wg-a,,,,AAXX 10214 07280 02500 81502 10030 20030 39916 40196 56015 61000 71062 885// 92100 333 ////=
07280,1998-12-11 00:00:00,4,1016.9,-2.6,93,3,4000,11.112,,,190,,,,4,,,,,,61,wg-a,,,,AAXX 11004 07280 02240 81906 10040 20030 39890 40169 56026 60046 76162 886// 90000 333 60047=
07280,1998-12-11 03:00:00,5,1015.6,-1.2,93,4,3000,18.52,,,200,,,,3,,,,,,21,wg-a,,,,AAXX 11034 07280 12130 82010 10050 20040 39878 40156 56012 60037 72162 886// 90300=
07280,1998-12-11 06:00:00,8,1017.3,2,87,6,8000,22.224,,,280,3.1,8.3,,,,,,,,21,wg-a,,,,AAXX 11064 07280 02458 /2812 10080 20060 39898 40173 53020 61000 72164 85500 90600 333 10083 20031 6007=
07280,1998-12-11 09:00:00,8,1020.2,2.8,81,5,10000,22.224,,,300,,,,0,,,,,,1,wg-a,,,,AAXX 11094 07280 12460 /3012 10080 20050 39926 40202 51028 60007 70161 82800 90900=
07280,1998-12-11 12:00:00,9,1021.6,1.5,76,5,15000,14.816,,,280,,,,,,,,,,1,wg-a,,,,AAXX 11124 07280 12465 72808 10090 20050 39941 40216 51015 60006 70161 878// 91200=
07280,1998-12-11 15:00:00,9,1022.7,1,81,6,15000,7.408,,,280,,,,0,,,,,,1,wg-a,,,,AAXX 11154 07280 12465 /2804 10090 20060 39951 40227 53010 60007 70186 86200 91500=
07280,1998-12-11 18:00:00,7,1024.6,1.7,87,5,15000,7.408,,,230,7,9.3,,,,,,,,1,wg-a,,,,AAXX 11184 07280 12665 72304 10070 20050 39968 40246 53017 60006 70186 875// 91800 333 10093 20070=
07280,1998-12-11 21:00:00,3,1025.7,0.7,93,2,15000,11.112,,,210,,,,,,,,,,,wg-a,,,,AAXX 11214 07280 12665 /2106 10030 20020 39975 40257 51007 60006 86500 92100=
07280,1998-12-12 00:00:00,2,1026.5,0.6,93,1,4000,7.408,,,160,,,,,,,,,,10,wg-a,,,,AAXX 12004 07280 12640 /1604 10020 20010 39981 40265 51006 60006 71011 86500 90000=
07280,1998-12-12 03:00:00,2,1026.8,0.4,100,2,300,0,,,0,,,,,,,,,,46,wg-a,,,,AAXX 12034 07280 12103 80000 10020 20020 39985 40268 52004 60006 74642 885// 90300=
07280,1998-12-12 06:00:00,4,1026.4,-0.2,100,4,1500,11.112,,,180,1.4,7,,,,,1,,,28,wg-a,,,,AAXX 12064 07280 02115 81806 10040 20040 39983 40264 58002 60006 72842 885// 90600 333 10070 20014 60014=
07280,1998-12-12 09:00:00,5,1026.5,0.2,100,5,3000,14.816,,,190,,,,2,,,,,,10,wg-a,,,,AAXX 12094 07280 12130 81908 10050 20050 39985 40265 53002 60027 71062 885// 90900=
07280,1998-12-12 12:00:00,6,1025.4,-1,100,6,3500,25.928,,,190,,,,4,,,,,,10,wg-a,,,,AAXX 12124 07280 02235 81914 10060 20060 39975 40254 58010 60066 71062 886// 91200 333 60047=
07280,1998-12-12 15:00:00,7,1025.6,0.3,93,6,2500,22.224,,,200,,,,1,,,,,,10,wg-a,,,,AAXX 12154 07280 12225 82012 10070 20060 39978 40256 53003 60017 71066 886// 91500=
07280,1998-12-12 18:00:00,7,1026.6,1,93,6,1500,18.52,,,190,4.5,7.1,,0,,,,,,10,wg-a,,,,AAXX 12184 07280 02115 81910 10070 20060 39988 40266 51010 60006 71065 886// 91800 333 10071 20045 60007=
07280,1998-12-12 21:00:00,8,1027.2,0.6,93,7,1500,25.928,,,200,,,,,,,,,,10,wg-a,,,,AAXX 12214 07280 12115 82014 10080 20070 39994 40272 52006 60006 71042 886// 92100=
07280,1998-12-13 00:00:00,8,1027.2,0.1,100,8,4000,18.52,,,200,,,,,,,,,,10,wg-a,,,,AAXX 13004 07280 12140 82010 10080 20080 39995 40272 50001 60006 71042 885// 90000=
07280,1998-12-13 03:00:00,9,1028.5,1.4,100,9,6000,22.224,,,210,,,,,,,,,,,wg-a,,,,AAXX 13034 07280 12356 82112 10090 20090 30009 40285 53014 60006 885// 90300=
07280,1998-12-13 06:00:00,8,1030.7,2,100,8,1000,11.112,,,230,6.9,9.5,,,,,7,,,10,wg-a,,,,AAXX 13064 07280 02110 42306 10080 20080 30029 40307 53020 60006 71061 84500 90600 333 10095 20069 60074=
07280,1998-12-13 09:00:00,12,1033.9,3.4,82,9,15000,18.52,,,270,,,,,,,,,,,wg-a,,,,AAXX 13094 07280 12565 42710 10120 20090 30063 40339 51034 60006 82101 90900=
07280,1998-12-13 12:00:00,13,1035,1.2,67,7,500,14.816,,,270,,,,,,,,,,,wg-a,,,,AAXX 13124 07280 12500 62708 10130 20070 30075 40350 51012 60006 82102 91200=
07280,1998-12-13 15:00:00,11,1035.9,0.6,66,5,35000,7.408,,,310,,,,,,,,,,,wg-a,,,,AAXX 13154 07280 12581 73104 10110 20050 30081 40359 53006 60006 81102 91500=
07280,1998-12-13 18:00:00,5,1037.1,0.6,87,3,25000,0,,,0,4.6,13.3,,,,,,,,,wg-a,,,,AAXX 13184 07280 12/75 60000 10050 20030 30087 40371 53006 60006 81031 91800 333 10133 20046=
07280,1998-12-13 21:00:00,3,1036.9,-0.3,93,2,20000,3.704,,,310,,,,,,,,,,,wg-a,,,,AAXX 13214 07280 12/70 33102 10030 20020 30084 40369 58003 60006 80001 92100=
07280,1998-12-14 00:00:00,1,1036.4,-0.8,93,0,6000,7.408,,,70,,,,,,,,,,11,wg-a,,,,AAXX 14004 07280 12/56 30704 10010 20000 30076 40364 57008 60006 71111 80001 90000=
07280,1998-12-14 06:00:00,1,1036.2,-0.2,100,1,100,3.704,,,220,-0.5,5,,,,,,,,45,wg-a,,,,AAXX 14064 07280 02/01 92202 10010 20010 30074 40362 55002 60006 74541 89/// 90600 333 10050 21005 60004=
07280,1998-12-14 09:00:00,1,1037.3,1.1,100,1,200,3.704,,,30,,,,,,,,,,42,wg-a,,,,AAXX 14094 07280 12/02 70302 10010 20010 30085 40373 51011 60006 74244 80001 90900=
07280,1998-12-14 12:00:00,2,1035.8,-1.3,100,2,100,0,,,0,,,,,,,,,,45,wg-a,,,,AAXX 14124 07280 12/01 90000 10020 20020 30072 40358 58013 60006 74544 89/// 91200=
07280,1998-12-14 15:00:00,3,1034.9,-0.8,100,3,200,3.704,,,180,,,,,,,,,,42,wg-a,,,,AAXX 14154 07280 12102 91802 10030 20030 30064 40349 56008 60006 74244 896// 91500=
07280,1998-12-14 18:00:00,3,1035,0.1,100,3,100,0,,,0,0.3,3.3,,,,,,,,45,wg-a,,,,AAXX 14184 07280 12/01 90000 10030 20030 30065 40350 52001 60006 74544 89/// 91800 333 10033 20003=
07280,1998-12-15 00:00:00,0,1034.9,-0.6,100,0,100,0,,,0,,,,,,,,,,45,wg-a,,,,AAXX 15004 07280 12/01 90000 10000 20000 30061 40349 58006 60006 74544 89/// 90000=
07280,1998-12-15 06:00:00,-1,1033.6,-0.3,100,-1,100,0,,,0,-0.8,2.6,,,,,,,,49,wg-a,,,,AAXX 15064 07280 02/01 90000 11010 21010 30048 40336 55003 60006 74944 89/// 90600 333 10026 21008 60004=
07280,1998-12-15 09:00:00,-1,1034,0.3,100,-1,200,0,,,0,,,,,,,,,,49,wg-a,,,,AAXX 15094 07280 12/02 90000 11010 21010 30051 40340 52003 60006 74944 89/// 90900=
07280,1998-12-15 12:00:00,0,1032.8,-1,100,0,200,3.704,,,210,,,,,,,,,,43,wg-a,,,,AAXX 15124 07280 12/02 92102 10000 20000 30041 40328 58010 60006 74344 89/// 91200=
07280,1998-12-15 15:00:00,1,1031.3,-1.4,100,1,100,3.704,,,230,,,,,,,,,,45,wg-a,,,,AAXX 15154 07280 12/01 92302 10010 20010 30027 40313 56014 60006 74544 89/// 91500=
07280,1998-12-15 18:00:00,0,1031.8,0.4,100,0,100,3.704,,,230,-1.4,1.2,,,,,,,,45,wg-a,,,,AAXX 15184 07280 12/01 92302 10000 20000 30031 40318 53004 60006 74544 89/// 91800 333 10012 21014=
07280,1998-12-15 21:00:00,0,1032.8,0.9,100,0,100,7.408,,,190,,,,,,,,,,45,wg-a,,,,AAXX 15214 07280 12/01 91904 10000 20000 30040 40328 53009 60006 74544 89/// 92100=
07280,1998-12-16 00:00:00,-1,1034.2,1.4,100,-1,100,7.408,,,210,,,,,,,,,,45,wg-a,,,,AAXX 16004 07280 12/01 92104 11010 21010 30054 40342 51014 60006 74544 89/// 90000=
07280,1998-12-16 03:00:00,0,1034.9,0.7,100,0,2500,0,,,0,,,,,,,,,,10,wg-a,,,,AAXX 16034 07280 02125 80000 10000 20000 30061 40349 53007 61000 71054 886// 90300 333 ////=
07280,1998-12-16 06:00:00,2,1036.6,1.8,93,1,2500,7.408,,,50,-0.8,1.6,,,,,,,,10,wg-a,,,,AAXX 16064 07280 02225 80504 10020 20010 30079 40366 53018 61000 71054 886// 90600 333 10016 21008 6100=
07280,1998-12-16 09:00:00,2,1037.1,0.6,100,2,1500,11.112,,,360,,,,,,,,,,10,wg-a,,,,AAXX 16094 07280 02115 /3606 10020 20020 30085 40371 53006 61000 71052 876// 90900 333 ////=
07280,1998-12-16 12:00:00,5,1034.1,-2.6,100,5,200,14.816,,,40,,,,,,,,,,45,wg-a,,,,AAXX 16124 07280 02/02 90408 10050 20050 30059 40341 58026 61000 74554 89/// 91200 333 ////=
07280,1998-12-16 15:00:00,8,1032.9,-1,93,7,8000,22.224,,,30,,,,,,,,,,1,wg-a,,,,AAXX 16154 07280 12/58 70312 10080 20070 30049 40329 55010 60006 70142 80001 91500=
07280,1998-12-16 18:00:00,4,1033.9,0.7,100,4,6000,18.52,,,40,1.5,7.5,,,,,,,,3,wg-a,,,,AAXX 16184 07280 12156 70410 10040 20040 30056 40339 53007 60006 70342 83701 91800 333 10075 20015=
07280,1998-12-16 21:00:00,4,1033.5,-0.5,93,3,1000,18.52,,,10,,,,,,,,,,10,wg-a,,,,AAXX 16214 07280 12110 80110 10040 20030 30051 40335 58005 60006 71011 886// 92100=
07280,1998-12-17 00:00:00,2,1032.6,-1,100,2,6000,14.816,,,350,,,,,,,,,,,wg-a,,,,AAXX 17004 07280 12/56 03508 10020 20020 30041 40326 58010 60006 80000 90000=
07280,1998-12-17 03:00:00,2,1031.6,-1,93,1,8000,11.112,,,350,,,,,,,,,,,wg-a,,,,AAXX 17034 07280 12/58 03506 10020 20010 30031 40316 56010 60006 80000 90300=
07280,1998-12-17 06:00:00,-1,1031.4,-0.5,100,-1,100,3.704,,,110,-0.9,4.5,,,,,,,,44,wg-a,,,,AAXX 17064 07280 02/01 91102 11010 21010 30026 40314 56005 60006 74441 89/// 90600 333 10045 21009 61000=
07280,1998-12-17 12:00:00,2,1029,-1.9,100,2,600,7.408,,,210,,,,,,,,,,43,wg-a,,,,AAXX 17124 07280 12/06 92104 10020 20020 30006 40290 58019 60006 74344 89/// 91200=
07280,1998-12-17 18:00:00,2,1028,-0.5,100,2,200,7.408,,,210,-0.8,2.6,,,,,,,,45,wg-a,,,,AAXX 17184 07280 12/02 92104 10020 20020 39996 40280 56005 60006 74542 89/// 91800 333 10026 21008=
07280,1998-12-17 21:00:00,3,1028.1,0.2,100,3,200,14.816,,,210,,,,,,,,,,45,wg-a,,,,AAXX 17214 07280 12/02 92108 10030 20030 39998 40281 53002 60006 74544 89/// 92100=
07280,1998-12-18 00:00:00,2,1028.1,-0.1,100,2,600,11.112,,,200,,,,,,,,,,42,wg-a,,,,AAXX 18004 07280 12106 82006 10020 20020 39997 40281 58001 60006 74244 886// 90000=
07280,1998-12-18 03:00:00,2,1027.8,-0.3,100,2,200,7.408,,,190,,,,,,,,,,45,wg-a,,,,AAXX 18034 07280 12/02 91904 10020 20020 39994 40278 58003 60006 74544 89/// 90300=
07280,1998-12-18 06:00:00,1,1028,-0,100,1,100,3.704,,,330,0.5,2.8,,,,,,,,45,wg-a,,,,AAXX 18064 07280 02/01 93302 10010 20010 39994 40280 55000 60006 74544 89/// 90600 333 10028 20005 60004=
07280,1998-12-18 09:00:00,0,1028.8,0.8,100,0,100,0,,,0,,,,,,,,,,45,wg-a,,,,AAXX 18094 07280 12/01 90000 10000 20000 30002 40288 51008 60006 74544 89/// 90900=
07280,1998-12-18 12:00:00,1,1027.2,-1.5,100,1,100,3.704,,,90,,,,,,,,,,45,wg-a,,,,AAXX 18124 07280 12/01 90902 10010 20010 39987 40272 58015 60006 74544 89/// 91200=
07280,1998-12-18 15:00:00,2,1025.3,-1.8,100,2,200,3.704,,,180,,,,,,,,,,43,wg-a,,,,AAXX 18154 07280 12/02 91802 10020 20020 39969 40253 58018 60006 74344 89/// 91500=
07280,1998-12-18 18:00:00,1,1024.1,-1.2,100,1,100,11.112,,,170,-0.4,1.7,,,,,,,,45,wg-a,,,,AAXX 18184 07280 12/01 91706 10010 20010 39957 40241 58012 60006 74544 89/// 91800 333 10017 21004=
07280,1998-12-18 21:00:00,2,1022.3,-1.7,93,1,8000,7.408,,,190,,,,,,,,,,2,wg-a,,,,AAXX 18214 07280 12658 81904 10020 20010 39940 40223 58017 60006 70242 885// 92100=
07280,1998-12-19 00:00:00,4,1020.8,-1.2,93,3,12000,14.816,,,180,,,,0,,,,,,3,wg-a,,,,AAXX 19004 07280 02662 81808 10040 20030 39928 40208 58012 60006 70364 885// 90000 333 60007=
07280,1998-12-19 03:00:00,7,1019.2,-1.2,93,6,12000,22.224,,,190,,,,,,,,,,,wg-a,,,,AAXX 19034 07280 12462 31912 10070 20060 39916 40192 56012 60006 83500 90300=
07280,1998-12-19 06:00:00,6,1019.5,0.2,93,5,15000,14.816,,,170,0.7,7,,,,,,,,,wg-a,,,,AAXX 19064 07280 02565 71708 10060 20050 39918 40195 53002 60006 875// 90600 333 10070 20007 60004=
07280,1998-12-19 09:00:00,7,1021.3,1.8,81,4,12000,18.52,,,250,,,,1,,,,,,25,wg-a,,,,AAXX 19094 07280 12462 72510 10070 20040 39936 40213 53018 60017 72586 878// 90900=
07280,1998-12-19 12:00:00,9,1021,-0.1,66,3,20000,22.224,,,280,,,,,,,,,,3,wg-a,,,,AAXX 19124 07280 02570 32812 10090 20030 39935 40210 58001 60016 70386 83200 91200 333 61000=
07280,1998-12-19 15:00:00,8,1021,-0.1,57,0,500,11.112,,,270,,,,,,,,,,,wg-a,,,,AAXX 19154 07280 12600 52706 10080 20000 39934 40210 55001 60006 83201 91500=
07280,1998-12-19 18:00:00,4,1021.1,-0.4,75,0,500,7.408,,,190,3.5,10.1,,,,,,,,,wg-a,,,,AAXX 19184 07280 12600 41904 10040 20000 39930 40211 58004 60006 81101 91800 333 10101 20035=
07280,1998-12-19 21:00:00,3,1019.3,-1.7,87,1,25000,14.816,,,200,,,,,,,,,,,wg-a,,,,AAXX 19214 07280 12775 52008 10030 20010 39913 40193 58017 60006 815/1 92100=
07280,1998-12-20 00:00:00,3,1016.4,-2.9,87,1,25000,11.112,,,180,,,,,,,,,,,wg-a,,,,AAXX 20004 07280 12775 71806 10030 20010 39884 40164 58029 60006 815/1 90000=
07280,1998-12-20 03:00:00,2,1012.6,-3.7,93,1,25000,18.52,,,210,,,,,,,,,,,wg-a,,,,AAXX 20034 07280 12775 72110 10020 20010 39847 40126 58037 60006 845/1 90300=
07280,1998-12-20 06:00:00,2,1008.2,-4.3,93,1,12000,7.408,,,110,2.1,4.1,,,,,1,,,,wg-a,,,,AAXX 20064 07280 02562 81104 10020 20010 39804 40082 56043 60006 885// 90600 333 10041 20021 60014=
07280,1998-12-20 09:00:00,3,1005.9,-2.2,93,2,8000,14.816,,,100,,,,,,,,,,60,wg-a,,,,AAXX 20094 07280 02658 81008 10030 20020 39782 40059 56022 61000 76062 885// 90900 333 ////=
07280,1998-12-20 12:00:00,4,1004.7,-1.1,93,3,9000,14.816,,,60,,,,0,,,,,,61,wg-a,,,,AAXX 20124 07280 02359 80608 10040 20030 39771 40047 56011 60016 76162 888// 91200 333 60007=
07280,1998-12-20 15:00:00,4,1005.4,0.7,87,2,9000,22.224,,,60,,,,2,,,,,,61,wg-a,,,,AAXX 20154 07280 12359 80612 10040 20020 39778 40054 53007 60027 76166 877// 91500=
07280,1998-12-20 18:00:00,4,1007.5,2,87,2,12000,29.632,,,30,1.8,4.1,,,,,,,,21,wg-a,,,,AAXX 20184 07280 02462 70316 10040 20020 39798 40075 51020 61000 72162 83701 91800 333 10041 20018 6001=
07280,1998-12-20 21:00:00,4,1010.6,3.1,81,1,12000,35.188,,,10,,,,,,,,,,,wg-a,,,,AAXX 20214 07280 12462 /0119 10040 20010 39829 40106 51031 60006 82701 92100=
07280,1998-12-21 00:00:00,2,1014.3,3.3,75,-2,12000,29.632,,,360,,,,,,,,,,,wg-a,,,,AAXX 21004 07280 12462 83616 10020 21020 39860 40143 51033 60006 8/500 90000=
07280,1998-12-21 06:00:00,-1,1019.4,2.5,86,-3,15000,18.52,,,350,-0.5,3.9,,,,,4,,,,wg-a,,,,AAXX 21064 07280 02/65 03510 11010 21030 39910 40194 53025 60006 80000 90600 333 10039 21005 60044=
07280,1998-12-21 09:00:00,0,1022.3,2.9,86,-2,15000,14.816,,,10,,,,,,,,,,,wg-a,,,,AAXX 21094 07280 12465 20108 10000 21020 39939 40223 52029 60006 82800 90900=
07280,1998-12-21 12:00:00,2,1023.4,1.2,75,-2,25000,22.224,,,20,,,,,,,,,,,wg-a,,,,AAXX 21124 07280 12475 70212 10020 21020 39951 40234 51012 60006 872// 91200=
07280,1998-12-21 15:00:00,2,1025.4,1.9,75,-2,500,11.112,,,20,,,,,,,,,,,wg-a,,,,AAXX 21154 07280 12500 /0206 10020 21020 39970 40254 53019 60006 85200 91500=
07280,1998-12-21 18:00:00,1,1027.4,1.9,86,-1,20000,7.408,,,20,-0.7,2.1,,,,,,,,,wg-a,,,,AAXX 21184 07280 12570 80204 10010 21010 39989 40274 51019 60006 884// 91800 333 10021 21007=
07280,1998-12-21 21:00:00,1,1028.2,0.8,86,-1,15000,3.704,,,10,,,,,,,,,,,wg-a,,,,AAXX 21214 07280 12665 80102 10010 21010 39997 40282 52008 60006 885// 92100=
07280,1998-12-22 00:00:00,0,1028.6,0.3,93,-1,12000,3.704,,,220,,,,,,,,,,,wg-a,,,,AAXX 22004 07280 12562 /2202 10000 21010 30000 40286 50003 60006 86500 90000=
07280,1998-12-22 03:00:00,-1,1029.3,0.5,86,-3,12000,11.112,,,340,,,,,,,,,,,wg-a,,,,AAXX 22034 07280 12562 /3406 11010 21030 30005 40293 53005 60006 85500 90300=
07280,1998-12-22 06:00:00,-2,1029.5,0.1,86,-4,20000,3.704,,,360,-2.3,1.1,,,,,,,,,wg-a,,,,AAXX 22064 07280 02/70 03602 11020 21040 30006 40295 53001 60006 80000 90600 333 10011 21023 60004=
07280,1998-12-22 09:00:00,-1,1030.7,1.3,86,-3,12000,7.408,,,360,,,,,,,,,,,wg-a,,,,AAXX 22094 07280 12762 /3604 11010 21030 30019 40307 53013 60006 81500 90900=
07280,1998-12-22 12:00:00,3,1029.7,-0.6,70,-2,20000,7.408,,,80,,,,,,,,,,,wg-a,,,,AAXX 22124 07280 12570 /0804 10030 21020 30013 40297 58006 60006 81100 91200=
07280,1998-12-22 15:00:00,4,1029.1,-0.5,65,-2,25000,3.704,,,120,,,,,,,,,,,wg-a,,,,AAXX 22154 07280 12/75 01202 10040 21020 30008 40291 55005 60006 80000 91500=
07280,1998-12-22 18:00:00,-1,1030,0.4,86,-3,15000,7.408,,,30,-3.7,4,,,,,,,,,wg-a,,,,AAXX 22184 07280 12/65 00304 11010 21030 30012 40300 51004 60006 80000 91800 333 10040 21037=
07280,1998-12-22 21:00:00,-3,1029.8,-0.4,93,-4,200,11.112,,,20,,,,,,,,,,48,wg-a,,,,AAXX 22214 07280 12/02 90206 11030 21040 30008 40298 56004 60006 74841 89/// 92100=
07280,1998-12-23 00:00:00,-5,1028.4,-1.5,100,-5,1200,14.816,,,20,,,,,,,,,,10,wg-a,,,,AAXX 23004 07280 12112 /0208 11050 21050 39993 40284 58015 60006 71041 86600 90000=
07280,1998-12-23 03:00:00,-4,1027.7,-0.7,93,-5,500,14.816,,,360,,,,,,,,,,,wg-a,,,,AAXX 23034 07280 12100 /3608 11040 21050 39986 40277 57007 60006 81600 90300=
07280,1998-12-23 06:00:00,-6,1027.2,-0.6,86,-8,6000,3.704,,,150,-5.6,-0.9,,,,,,,,,wg-a,,,,AAXX 23064 07280 02/56 01502 11060 21080 39980 40272 55006 60006 80000 90600 333 11009 21056 60004=
07280,1998-12-23 09:00:00,-4,1027.7,0.6,93,-5,200,7.408,,,200,,,,,,,,,,49,wg-a,,,,AAXX 23094 07280 12/02 92004 11040 21050 39986 40277 51006 60006 74941 89/// 90900=
07280,1998-12-23 12:00:00,-3,1025.5,-2,93,-4,2500,3.704,,,190,,,,,,,,,,10,wg-a,,,,AAXX 23124 07280 12125 81902 11030 21040 39966 40255 58020 60006 71041 886// 91200=
07280,1998-12-23 15:00:00,-2,1023.7,-1.7,93,-3,4000,0,,,0,,,,,,,,,,10,wg-a,,,,AAXX 23154 07280 12240 80000 11020 21030 39949 40237 56017 60006 71022 876// 91500=
07280,1998-12-23 18:00:00,-3,1023.8,0.1,93,-4,3000,7.408,,,180,-7.6,-2.2,,,,,,,,10,wg-a,,,,AAXX 23184 07280 12130 71804 11030 21040 39950 40238 53001 60006 71022 876// 91800 333 11022 21076=
07280,1998-12-23 21:00:00,-5,1023.8,-0.3,93,-6,300,0,,,0,,,,,,,,,,10,wg-a,,,,AAXX 23214 07280 32/03 00000 11050 21060 39947 40238 56003 71041 80000 92100=
07280,1998-12-24 00:00:00,-5,1023.7,-0.1,93,-6,100,0,,,0,,,,,,,,,,48,wg-a,,,,AAXX 24004 07280 32/01 80000 11050 21060 39946 40237 58001 74841 80002 90000=
07280,1998-12-24 03:00:00,-3,1022.6,-0.8,93,-4,3000,0,,,0,,,,,,,,,,10,wg-a,,,,AAXX 24034 07280 32630 70000 11030 21040 39938 40226 56008 71042 85502 90300=
07280,1998-12-24 06:00:00,0,1022.7,0.4,93,-1,4000,0,,,0,-5.7,-0.1,,0,,,,,,24,wg-a,,,,AAXX 24064 07280 02340 70000 10000 21010 39942 40227 53004 60004 72464 875// 90600 333 11001 21057 60007=
07280,1998-12-24 12:00:00,2,1024.6,0.7,100,2,4500,3.704,,,320,,,,0,,,,,,21,wg-a,,,,AAXX 24124 07280 12445 83202 10020 20020 39963 40246 51007 60007 72162 8687/ 91200=
07280,1998-12-24 15:00:00,3,1026.8,2.2,87,1,12000,11.112,,,300,,,,,,,,,,0,wg-a,,,,AAXX 24154 07280 32462 83006 10030 20010 39985 40268 53022 700// 875// 91500=
07280,1998-12-24 18:00:00,1,1029.4,2.4,93,0,8000,0,,,0,-0.4,3.5,,,,,,,,0,wg-a,,,,AAXX 24184 07280 32458 /0000 10010 20000 30009 40294 51024 700// 86500 91800 333 10035 21004=
07280,1998-12-24 21:00:00,-2,1031.2,1.4,93,-3,8000,7.408,,,300,,,,,,,,,,0,wg-a,,,,AAXX 24214 07280 32458 /3004 11020 21030 30023 40312 51014 700// 81500 92100=
07280,1998-12-25 00:00:00,-4,1032,0.5,93,-5,3500,0,,,0,,,,,,,,,,10,wg-a,,,,AAXX 25004 07280 32/35 00000 11040 21050 30028 40320 50005 71011 80000 90000=
07280,1998-12-25 03:00:00,-4,1032.4,0.5,100,-4,3500,3.704,,,240,,,,,,,,,,10,wg-a,,,,AAXX 25034 07280 32735 22402 11040 21040 30033 40324 53005 71040 82500 90300=
07280,1998-12-25 06:00:00,-1,1032,-0.2,93,-2,4000,3.704,,,180,-5.3,1.2,,,,,1,,,10,wg-a,,,,AAXX 25064 07280 12240 81802 11010 21020 30031 40320 55002 60014 71041 88500 90600 333 10012 21053=
07280,1998-12-25 09:00:00,0,1032.6,0.8,93,-1,1300,11.112,,,190,,,,,,,,,,10,wg-a,,,,AAXX 25094 07280 32113 81906 10000 21010 30039 40326 53008 71022 886// 90900=
07280,1998-12-25 12:00:00,1,1031.6,-1,93,0,3000,18.52,,,190,,,,,,,,,,50,wg-a,,,,AAXX 25124 07280 02230 81910 10010 20000 30029 40316 58010 61000 75052 885// 91200 333 ////=
07280,1998-12-25 15:00:00,1,1030.4,-1.1,100,1,1500,14.816,,,190,,,,0,,,,,,50,wg-a,,,,AAXX 25154 07280 12115 81908 10010 20010 30018 40304 56011 60007 75055 886// 91500=
07280,1998-12-25 18:00:00,1,1030.5,0.1,93,0,2000,14.816,,,200,-1.4,1.3,,,,,,,,50,wg-a,,,,AAXX 25184 07280 02120 82008 10010 20000 30019 40305 53001 61000 75055 886// 91800 333 10013 21014 ////=
07280,1998-12-25 21:00:00,2,1029.2,-1.2,93,1,700,14.816,,,200,,,,,,,,,,42,wg-a,,,,AAXX 25214 07280 02107 92008 10020 20010 30007 40292 56012 61000 74254 896// 92100 333 ////=
07280,1998-12-26 00:00:00,2,1029.1,-0,93,1,3500,14.816,,,200,,,,,,,,,,10,wg-a,,,,AAXX 26004 07280 02235 82008 10020 20010 30007 40291 55000 61000 71054 886// 90000 333 ////=
07280,1998-12-26 03:00:00,2,1028.5,-0.6,93,1,500,14.816,,,200,,,,,,,,,,60,wg-a,,,,AAXX 26034 07280 02200 82008 10020 20010 30001 40285 56006 61000 76061 885// 90300 333 ////=
07280,1998-12-26 06:00:00,2,1028.5,0,93,1,6000,14.816,,,210,1,2.1,,,,,,,,60,wg-a,,,,AAXX 26064 07280 02256 82108 10020 20010 30001 40285 50000 61000 76061 885// 90600 333 10021 20010 6001=
07280,1998-12-26 09:00:00,2,1028,-0.5,93,1,8000,11.112,,,180,,,,,,,,,,1,wg-a,,,,AAXX 26094 07280 02458 81806 10020 20010 39996 40280 56005 61000 70162 875// 90900 333 ////=
07280,1998-12-26 12:00:00,4,1025.5,-2.2,87,2,10000,18.52,,,190,,,,,,,,,,1,wg-a,,,,AAXX 26124 07280 02560 81910 10040 20020 39974 40255 58022 61000 70162 8457/ 91200 333 ////=
07280,1998-12-26 15:00:00,5,1023.1,-2.2,81,2,12000,14.816,,,190,,,,,,,,,,,wg-a,,,,AAXX 26154 07280 12762 61908 10050 20020 39952 40231 56022 60006 8357/ 91500=
07280,1998-12-26 18:00:00,4,1022,-1.3,81,1,12000,14.816,,,190,1.7,5.4,,,,,,,,,wg-a,,,,AAXX 26184 07280 12762 71908 10040 20010 39939 40220 58013 60006 82578 91800 333 10054 20017=
07280,1998-12-26 21:00:00,5,1020.4,-1.4,81,2,12000,29.632,,,190,,,,,,,,,,61,wg-a,,,,AAXX 26214 07280 02662 81916 10050 20020 39925 40204 56014 61000 76162 885// 92100 333 ////=
07280,1998-12-27 00:00:00,5,1019.5,-0.9,81,2,12000,25.928,,,220,,,,0,,,,,,60,wg-a,,,,AAXX 27004 07280 02762 82214 10050 20020 39916 40195 58009 60006 76062 885// 90000 333 60007=
07280,1998-12-27 03:00:00,6,1018.3,-1.1,70,1,15000,31.484,,,210,,,,0,,,,,,60,wg-a,,,,AAXX 27034 07280 12765 82117 10060 20010 39905 40183 56011 60007 76066 885// 90300=
07280,1998-12-27 06:00:00,6,1017.3,-0.9,61,-1,11000,29.632,,,210,3.5,5.9,,,,,1,,,,wg-a,,,,AAXX 27064 07280 02/61 /2116 10060 21010 39896 40173 56009 60006 90600 333 10059 20035 60014=
07280,1998-12-27 09:00:00,6,1016.5,-0.8,65,0,50000,25.928,,,200,,,,,,,,,,2,wg-a,,,,AAXX 27094 07280 02/84 82014 10060 20000 39888 40165 56008 61000 70262 8807/ 90900 333 ////=
07280,1998-12-27 12:00:00,9,1015.6,-0.6,53,0,50000,25.928,,,200,,,,,,,,,,2,wg-a,,,,AAXX 27124 07280 02/84 82014 10090 20000 39882 40156 57006 61000 70262 8707/ 91200 333 ////=
07280,1998-12-27 15:00:00,10,1014.1,-1.4,66,4,50000,22.224,,,200,,,,,,,,,,,wg-a,,,,AAXX 27154 07280 12/84 72012 10100 20040 39868 40141 56014 60006 86072 91500=
07280,1998-12-27 18:00:00,9,1013.8,-0.4,76,5,50000,18.52,,,210,5.9,9.9,,,,,,,,,wg-a,,,,AAXX 27184 07280 12/84 62110 10090 20050 39864 40138 56004 60006 80001 91800 333 10099 20059=
07280,1998-12-27 21:00:00,8,1013.9,0.1,81,5,500,25.928,,,200,,,,,,,,,,,wg-a,,,,AAXX 27214 07280 12/00 02014 10080 20050 39865 40139 53001 60006 80000 92100=
07280,1998-12-28 00:00:00,7,1014.5,0.5,87,5,500,22.224,,,210,,,,,,,,,,,wg-a,,,,AAXX 28004 07280 12/00 02112 10070 20050 39870 40145 51005 60006 80000 90000=
07280,1998-12-28 03:00:00,7,1014.8,0.3,81,4,20000,22.224,,,210,,,,,,,,,,,wg-a,,,,AAXX 28034 07280 12/70 02112 10070 20040 39873 40148 53003 60006 80000 90300=
07280,1998-12-28 06:00:00,6,1014.5,-0.4,87,4,25000,22.224,,,200,5.5,8.5,,,,,,,,,wg-a,,,,AAXX 28064 07280 02/75 02012 10060 20040 39869 40145 57004 60006 80000 90600 333 10085 20055 61000=
07280,1998-12-28 09:00:00,8,1014.9,0.5,81,5,25000,22.224,,,200,,,,,,,,,,,wg-a,,,,AAXX 28094 07280 12/75 32012 10080 20050 39874 40149 53005 60006 81051 90900=
07280,1998-12-28 12:00:00,12,1014.6,0.2,71,7,25000,18.52,,,220,,,,,,,,,,,wg-a,,,,AAXX 28124 07280 12/75 62210 10120 20070 39876 40146 50002 60006 81072 91200=
07280,1998-12-28 18:00:00,10,1016.4,1.8,71,5,25000,18.52,,,230,5.3,12.9,,,,,,,,,wg-a,,,,AAXX 28184 07280 12675 72310 10100 20050 39891 40164 53018 60006 874// 91800 333 10129 20053=
07280,1998-12-28 21:00:00,7,1019.3,2.6,81,4,25000,7.408,,,20,,,,,,,,,,,wg-a,,,,AAXX 28214 07280 12575 80204 10070 20040 39917 40193 51026 60006 885// 92100=
07280,1998-12-29 00:00:00,5,1019.6,0,87,3,20000,7.408,,,360,,,,,,,,,,,wg-a,,,,AAXX 29004 07280 12670 73604 10050 20030 39917 40196 50000 60006 82508 90000=
07280,1998-12-29 03:00:00,4,1018.5,-1.1,93,3,20000,11.112,,,10,,,,,,,,,,,wg-a,,,,AAXX 29034 07280 12570 80106 10040 20030 39906 40185 58011 60006 8157/ 90300=
07280,1998-12-29 06:00:00,3,1017.6,-1,93,2,15000,7.408,,,10,2.8,9.9,,,,,,,,,wg-a,,,,AAXX 29064 07280 02865 10104 10030 20020 39896 40176 56010 60006 81030 90600 333 10099 20028 60004=
07280,1998-12-29 09:00:00,4,1017.2,-0.3,93,3,8000,3.704,,,350,,,,,,,,,,,wg-a,,,,AAXX 29094 07280 12458 /3502 10040 20030 39893 40172 56003 60006 81101 90900=
07280,1998-12-29 12:00:00,11,1014.6,-1.9,66,5,20000,18.52,,,170,,,,,,,,,,,wg-a,,,,AAXX 29124 07280 12570 41710 10110 20050 39874 40146 58019 60006 81101 91200=
07280,1998-12-29 15:00:00,11,1012.7,-1.8,58,3,50000,25.928,,,170,,,,,,,,,,,wg-a,,,,AAXX 29154 07280 12684 21714 10110 20030 39856 40127 56018 60006 81101 91500=
07280,1998-12-29 18:00:00,7,1013.3,0.2,76,3,500,14.816,,,150,1.7,12,,,,,,,,,wg-a,,,,AAXX 29184 07280 12/00 01508 10070 20030 39858 40133 52002 60006 80000 91800 333 10120 20017=
07280,1998-12-29 21:00:00,3,1013.9,0.2,87,1,20000,14.816,,,150,,,,,,,,,,0,wg-a,,,,AAXX 29214 07280 32/70 01508 10030 20010 39860 40139 51002 700// 80000 92100=
07280,1998-12-30 00:00:00,3,1014.4,0.5,93,2,20000,3.704,,,200,,,,,,,,,,0,wg-a,,,,AAXX 30004 07280 32/70 02002 10030 20020 39865 40144 51005 700// 80000 90000=
07280,1998-12-30 03:00:00,2,1014.2,-0.3,93,1,20000,3.704,,,210,,,,,,,,,,0,wg-a,,,,AAXX 30034 07280 32/70 02102 10020 20010 39862 40142 58003 700// 80000 90300=
07280,1998-12-30 06:00:00,0,1014.9,0.4,93,-1,20000,7.408,,,310,-0.6,7,,,,,,,,0,wg-a,,,,AAXX 30064 07280 32/70 03104 10000 21010 39866 40149 53004 700// 80000 90600 333 10070 21006=
07280,1998-12-30 09:00:00,2,1015.9,1.2,93,1,500,3.704,,,350,,,,,,,,,,0,wg-a,,,,AAXX 30094 07280 32/00 03502 10020 20010 39878 40159 51012 700// 80000 90900=
07280,1998-12-30 12:00:00,10,1014.6,-0.4,62,3,500,3.704,,,220,,,,,,,,,,0,wg-a,,,,AAXX 30124 07280 32/00 12202 10100 20030 39874 40146 58004 700// 81030 91200=
07280,1998-12-30 15:00:00,11,1013.7,-0.8,58,3,500,14.816,,,180,,,,,,,,,,0,wg-a,,,,AAXX 30154 07280 32/00 11808 10110 20030 39866 40137 55008 700// 80001 91500=
07280,1998-12-30 18:00:00,6,1014.2,0,81,3,500,11.112,,,150,-1.4,12.7,,,,,,,,0,wg-a,,,,AAXX 30184 07280 32700 71506 10060 20030 39866 40142 50000 700// 875// 91800 333 10127 21014=
07280,1998-12-30 21:00:00,5,1014.5,0.2,81,2,25000,11.112,,,150,,,,,,,,,,0,wg-a,,,,AAXX 30214 07280 32775 71506 10050 20020 39868 40145 51002 700// 875// 92100=
07280,1998-12-31 00:00:00,7,1013.9,-0.4,70,2,25000,11.112,,,170,,,,,,,,,,0,wg-a,,,,AAXX 31004 07280 32775 81706 10070 20020 39864 40139 57004 700// 885// 90000=
07280,1998-12-31 03:00:00,5,1013,-1.1,75,1,25000,0,,,0,,,,,,,,,,0,wg-a,,,,AAXX 31034 07280 32775 80000 10050 20010 39853 40130 58011 700// 885// 90300=
07280,1998-12-31 06:00:00,4,1012.2,-0.9,75,0,25000,11.112,,,10,3.7,7.2,,,,,,,,0,wg-a,,,,AAXX 31064 07280 12575 80106 10040 20000 39844 40122 56009 60004 700// 885// 90600 333 10072 20037=
07280,1998-12-31 12:00:00,6,1010.3,-1.8,70,1,20000,7.408,,,20,,,,,,,,,,0,wg-a,,,,AAXX 31124 07280 32770 80204 10060 20010 39827 40103 57018 700// 8352/ 91200=
07280,1998-12-31 18:00:00,5,1008.8,-0,75,1,15000,11.112,,,360,3.6,6.4,,,,,,,,0,wg-a,,,,AAXX 31184 07280 32765 83606 10050 20010 39813 40088 55000 700// 8357/ 91800 333 10064 20036=
07280,1998-12-31 21:00:00,5,1008.8,-0.1,75,1,20000,7.408,,,20,,,,,,,,,,0,wg-a,,,,AAXX 31214 07280 32/70 80204 10050 20010 39812 40088 58001 700// 8807/ 92100=
