station_id,dh_utc,temperature,pression,pression_variation_3h,humidite,point_de_rosee,visibilite,vent_moyen,vent_rafales,vent_rafales_10min,vent_direction,temperature_min,temperature_max,pluie_1h,pluie_3h,pluie_6h,pluie_12h,pluie_24h,ensoleillement,temperature_sol,temps_omm,source,radiations,neige_au_sol,nebulosite,raw_msg
07130,1996-01-01 00:00:00,8,999,-0.1,100,8,800,3.704,,,110,,,,,,,,,,46,wg-a,,,,AAXX 01004 07130 02108 81102 10080 20080 39938 49990 58001 61000 74686 886// 90000 333 ////=
07130,1996-01-01 03:00:00,9,998.2,-0.8,100,9,500,11.112,,,140,,,,,,,,,,47,wg-a,,,,AAXX 01034 07130 12/05 91406 10090 20090 39930 49982 55008 60006 74742 89/// 90300=
07130,1996-01-01 06:00:00,9,996.4,-1.8,93,8,1200,11.112,,,140,8,9,,,,,5,,,28,wg-a,,,,AAXX 01064 07130 12112 81406 10090 20080 39912 49964 56018 60054 72842 886// 90600 333 10090 20080=
07130,1996-01-01 09:00:00,8,995.9,-0.5,100,8,2500,11.112,,,130,,,,,,,,,,10,wg-a,,,,AAXX 01094 07130 12125 81306 10080 20080 39907 49959 58005 60006 71022 886// 90900=
07130,1996-01-01 12:00:00,9,994.9,-0.9,93,8,3000,14.816,,,110,,,,,,,,,,60,wg-a,,,,AAXX 01124 07130 02130 81108 10090 20080 39898 49949 58009 61000 76062 886// 91200 333 6100=
07130,1996-01-01 15:00:00,10,993.9,-1,87,8,9000,18.52,,,90,,,,0,,,,,,1,wg-a,,,,AAXX 01154 07130 12359 70910 10100 20080 39888 49939 56010 60007 70162 8667/ 91500=
07130,1996-01-01 18:00:00,9,994.2,0.3,93,8,7000,22.224,,,90,7.8,9.8,,,,,,,,61,wg-a,,,,AAXX 01184 07130 02457 80912 10090 20080 39891 49942 53003 61000 76162 875// 91800 333 10098 20078 ////=
07130,1996-01-01 21:00:00,9,995.4,1.2,87,7,10000,22.224,,,60,,,,1,,,,,,61,wg-a,,,,AAXX 01214 07130 12460 80612 10090 20070 39903 49954 53012 60017 76166 875// 92100=
07130,1996-01-02 00:00:00,8,998.4,2.9,93,7,6000,18.52,,,10,,,,4,,,,,,61,wg-a,,,,AAXX 02004 07130 02356 80110 10080 20070 39932 49984 53029 60056 76166 8477/ 90000 333 60047=
07130,1996-01-02 03:00:00,8,1002.7,4.3,93,7,9000,14.816,,,350,,,,5,,,,,,61,wg-a,,,,AAXX 02034 07130 12359 83508 10080 20070 39975 40027 53043 60057 76166 8657/ 90300=
07130,1996-01-02 06:00:00,8,1006.6,3.9,87,6,10000,11.112,,,330,7.5,9.4,,,,,10,,,1,wg-a,,,,AAXX 02064 07130 02460 83306 10080 20060 30014 40066 53039 60104 70162 886// 90600 333 10094 20075 61000=
07130,1996-01-02 09:00:00,8,1011.4,4.8,93,7,3000,7.408,,,320,,,,,,,,,,10,wg-a,,,,AAXX 02094 07130 12330 /3204 10080 20070 30062 40114 51048 60006 71022 875// 90900=
07130,1996-01-02 12:00:00,10,1014.2,2.8,87,8,10000,14.816,,,290,,,,,,,,,,,wg-a,,,,AAXX 02124 07130 12460 52908 10100 20080 30090 40142 51028 60006 83141 91200=
07130,1996-01-02 15:00:00,10,1016.1,1.9,93,9,9000,7.408,,,290,,,,,,,,,,,wg-a,,,,AAXX 02154 07130 12459 72904 10100 20090 30109 40161 51019 60006 875// 91500=
07130,1996-01-02 18:00:00,9,1017.8,1.6,93,8,7000,3.704,,,230,7.7,10.8,,,,,,,,,wg-a,,,,AAXX 02184 07130 12657 32302 10090 20080 30125 40178 51016 60006 83500 91800 333 10108 20077=
07130,1996-01-02 21:00:00,5,1019.3,1.5,93,4,300,0,,,0,,,,,,,,,,4,wg-a,,,,AAXX 02214 07130 12103 70000 10050 20040 30140 40193 51015 60006 70441 875// 92100=
07130,1996-01-03 00:00:00,5,1019.8,0.5,100,5,900,11.112,,,90,,,,,,,,,,42,wg-a,,,,AAXX 03004 07130 12/09 00906 10050 20050 30145 40198 50005 60006 74241 80000 90000=
07130,1996-01-03 03:00:00,5,1019.4,-0.4,93,4,300,11.112,,,130,,,,,,,,,,45,wg-a,,,,AAXX 03034 07130 12/03 91306 10050 20040 30141 40194 55004 60006 74541 89/// 90300=
07130,1996-01-03 06:00:00,6,1019.5,0.1,93,5,800,14.816,,,140,4.7,8.7,,,,,,,,43,wg-a,,,,AAXX 03064 07130 02/08 91408 10060 20050 30142 40195 52001 60006 74341 89/// 90600 333 10087 20047 60004=
07130,1996-01-03 09:00:00,5,1020.4,0.8,93,4,800,14.816,,,140,,,,,,,,,,42,wg-a,,,,AAXX 03094 07130 12108 91408 10050 20040 30150 40204 51008 60006 74244 896// 90900=
07130,1996-01-03 12:00:00,5,1019.9,-0.4,100,5,2200,14.816,,,150,,,,,,,,,,10,wg-a,,,,AAXX 03124 07130 12122 81508 10050 20050 30146 40199 58004 60006 71042 886// 91200=
07130,1996-01-03 15:00:00,5,1018.6,-1.3,100,5,900,14.816,,,130,,,,,,,,,,10,wg-a,,,,AAXX 03154 07130 12109 81308 10050 20050 30133 40186 56013 60006 71042 886// 91500=
07130,1996-01-03 18:00:00,6,1018.1,-0.5,93,5,3500,18.52,,,140,4.5,5.8,,,,,,,,10,wg-a,,,,AAXX 03184 07130 12235 81410 10060 20050 30128 40181 55005 60006 71042 886// 91800 333 10058 20045=
07130,1996-01-03 21:00:00,5,1017.1,-1,93,4,8000,22.224,,,130,,,,,,,,,,,wg-a,,,,AAXX 03214 07130 12258 81312 10050 20040 30118 40171 58010 60006 886// 92100=
07130,1996-01-04 00:00:00,5,1015.8,-1.3,93,4,12000,22.224,,,140,,,,,,,,,,,wg-a,,,,AAXX 04004 07130 12262 81412 10050 20040 30105 40158 56013 60006 886// 90000=
07130,1996-01-04 03:00:00,5,1012.9,-2.9,87,3,15000,14.816,,,120,,,,,,,,,,,wg-a,,,,AAXX 04034 07130 12265 81208 10050 20030 30076 40129 58029 60006 876// 90300=
07130,1996-01-04 06:00:00,4,1009.7,-3.2,87,2,8000,18.52,,,130,4,5.7,,,,,,,,,wg-a,,,,AAXX 04064 07130 02/58 81310 10040 20020 30044 40097 56032 60006 8707/ 90600 333 10057 20040 60004=
07130,1996-01-04 09:00:00,5,1007.6,-2.1,81,2,12000,18.52,,,150,,,,,,,,,,,wg-a,,,,AAXX 04094 07130 12/62 71510 10050 20020 30023 40076 56021 60006 82034 90900=
07130,1996-01-04 12:00:00,7,1005,-2.5,70,2,20000,18.52,,,160,,,,,,,,,,,wg-a,,,,AAXX 04124 07130 12670 81610 10070 20020 39998 40050 57025 60006 85572 91200=
07130,1996-01-04 15:00:00,9,1003.2,-1.8,71,4,20000,18.52,,,150,,,,,,,,,,,wg-a,,,,AAXX 04154 07130 12770 71510 10090 20040 39980 40032 56018 60006 82572 91500=
07130,1996-01-04 18:00:00,9,1003.7,0.5,81,6,15000,14.816,,,160,4,9.5,,,,,,,,,wg-a,,,,AAXX 04184 07130 12465 81608 10090 20060 39985 40037 51005 60006 875// 91800 333 10095 20040=
07130,1996-01-04 21:00:00,10,1003.4,-0.3,87,8,15000,14.816,,,170,,,,,,,,,,,wg-a,,,,AAXX 04214 07130 12265 71708 10100 20080 39982 40034 58003 60006 876// 92100=
07130,1996-01-05 00:00:00,8,1002.2,-1.2,100,8,8000,11.112,,,160,,,,,,,,,,,wg-a,,,,AAXX 05004 07130 12258 71606 10080 20080 39970 40022 56012 60006 875// 90000=
07130,1996-01-05 03:00:00,7,999.9,-2.3,93,6,200,11.112,,,140,,,,,,,,,,45,wg-a,,,,AAXX 05034 07130 12/02 91406 10070 20060 39947 49999 56023 60006 74542 89/// 90300=
07130,1996-01-05 06:00:00,6,997.3,-2.6,93,5,4000,11.112,,,130,5.9,9.7,,,,,,,,10,wg-a,,,,AAXX 05064 07130 02240 /1306 10060 20050 39921 49973 56026 60006 71042 86600 90600 333 10097 20059 60004=
07130,1996-01-05 09:00:00,6,996.3,-1,93,5,10000,7.408,,,140,,,,,,,,,,,wg-a,,,,AAXX 05094 07130 12460 81404 10060 20050 39911 49963 56010 60006 885// 90900=
07130,1996-01-05 12:00:00,8,996.8,0.5,93,7,10000,3.704,,,220,,,,,,,,,,,wg-a,,,,AAXX 05124 07130 32660 82202 10080 20070 39916 49968 50005 8657/ 91200=
07130,1996-01-05 15:00:00,9,997.1,0.4,87,7,10000,7.408,,,180,,,,,,,,,,,wg-a,,,,AAXX 05154 07130 12660 81804 10090 20070 39920 49971 51004 60006 8157/ 91500=
07130,1996-01-05 18:00:00,8,998.4,1.2,87,6,15000,7.408,,,210,5.5,9.5,,,,,,,,,wg-a,,,,AAXX 05184 07130 12/65 22104 10080 20060 39932 49984 53012 60006 80002 91800 333 10095 20055=
07130,1996-01-05 21:00:00,6,999,0.6,93,5,12000,11.112,,,210,,,,,,,,,,,wg-a,,,,AAXX 05214 07130 12/62 02106 10060 20050 39938 49990 51006 60006 80000 92100=
07130,1996-01-06 00:00:00,5,998.1,-0.9,93,4,8000,11.112,,,140,,,,,,,,,,,wg-a,,,,AAXX 06004 07130 12/58 21406 10050 20040 39929 49981 58009 60006 80001 90000=
07130,1996-01-06 03:00:00,5,996.3,-1.8,93,4,6000,7.408,,,150,,,,,,,,,,,wg-a,,,,AAXX 06034 07130 12/56 /1504 10050 20040 39911 49963 56018 60006 80002 90300=
07130,1996-01-06 06:00:00,6,993.3,-3,93,5,15000,14.816,,,140,4,7.8,,,,,,,,,wg-a,,,,AAXX 06064 07130 02/65 81408 10060 20050 39881 49933 58030 60006 8807/ 90600 333 10078 20040 60004=
07130,1996-01-06 09:00:00,7,990.5,-2.8,87,5,15000,25.928,,,140,,,,,,,,,,,wg-a,,,,AAXX 06094 07130 12/65 81414 10070 20050 39853 49905 58028 60006 86072 90900=
07130,1996-01-06 12:00:00,7,988.5,-1.9,87,5,10000,18.52,,,150,,,,,,,,,,60,wg-a,,,,AAXX 06124 07130 02460 81510 10070 20050 39834 49885 58019 61000 76062 8682/ 91200 333 6100=
07130,1996-01-06 15:00:00,8,983.4,-5.1,87,6,10000,38.892,,,160,,,,1,,,,,,3,wg-a,,,,AAXX 06154 07130 12360 81621 10080 20060 39783 49834 56051 60017 70362 875// 91500=
07130,1996-01-06 18:00:00,8,983.9,0.5,87,6,15000,18.52,,,160,6.3,8.4,,,,,,,,2,wg-a,,,,AAXX 06184 07130 32465 81610 10080 20060 39788 49839 51005 70262 875// 91800 333 10084 20063=
07130,1996-01-06 21:00:00,8,983,-0.9,93,7,2000,14.816,,,160,,,,,,,,,,,wg-a,,,,AAXX 06214 07130 12620 /1608 10080 20070 39779 49830 58009 60006 86500 92100=
07130,1996-01-07 00:00:00,12,984.1,1.2,82,9,15000,25.928,,,210,,,,,,,,,,,wg-a,,,,AAXX 07004 07130 12465 82114 10120 20090 39791 49841 53012 60006 8/500 90000=
07130,1996-01-07 03:00:00,10,986.6,2.4,87,8,15000,22.224,,,190,,,,,,,,,,,wg-a,,,,AAXX 07034 07130 12/65 61912 10100 20080 39815 49866 53024 60006 80001 90300=
07130,1996-01-07 06:00:00,9,989.5,2.9,87,7,15000,18.52,,,210,7.9,11.8,,,,,1,,,,wg-a,,,,AAXX 07064 07130 02/65 62110 10090 20070 39844 49895 53029 60006 80002 90600 333 10118 20079 60014=
07130,1996-01-07 09:00:00,9,993.1,3.6,81,6,11000,14.816,,,210,,,,,,,,,,,wg-a,,,,AAXX 07094 07130 12/61 /2108 10090 20060 39880 49931 53036 60006 90900=
07130,1996-01-07 12:00:00,13,995.9,2.8,72,8,20000,25.928,,,220,,,,,,,,,,,wg-a,,,,AAXX 07124 07130 12570 32214 10130 20080 39908 49959 51028 60006 81101 91200=
07130,1996-01-07 15:00:00,13,997.6,1.7,72,8,25000,18.52,,,220,,,,,,,,,,,wg-a,,,,AAXX 07154 07130 12575 /2210 10130 20080 39925 49976 53017 60006 83202 91500=
07130,1996-01-07 18:00:00,10,1000.1,2.4,82,7,11000,14.816,,,180,8.4,14.4,,,,,,,,,wg-a,,,,AAXX 07184 07130 32/61 /1808 10100 20070 39949 40001 51024 91800 333 10144 20084=
07130,1996-01-07 21:00:00,8,1002.9,2.8,93,7,15000,18.52,,,200,,,,,,,,,,2,wg-a,,,,AAXX 07214 07130 32/65 02010 10080 20070 39977 40029 52028 70286 80000 92100=
07130,1996-01-08 00:00:00,8,1004.6,1.7,87,6,15000,18.52,,,180,,,,,,,,,,2,wg-a,,,,AAXX 08004 07130 12/65 01810 10080 20060 39994 40046 50017 60006 70286 80000 90000=
07130,1996-01-08 03:00:00,10,1004.8,0.2,87,8,15000,22.224,,,180,,,,,,,,,,,wg-a,,,,AAXX 08034 07130 12665 81812 10100 20080 39996 40048 53002 60006 83520 90300=
07130,1996-01-08 06:00:00,10,1004.1,-0.7,87,8,12000,22.224,,,180,7.2,10.2,,,,,1,,,,wg-a,,,,AAXX 08064 07130 12/62 61812 10100 20080 39989 40041 55007 60014 84032 90600 333 10102 20072=
07130,1996-01-08 09:00:00,10,1003.2,-0.9,82,7,15000,31.484,,,170,,,,,,,,,,,wg-a,,,,AAXX 08094 07130 12/65 71717 10100 20070 39980 40032 56009 60006 83032 90900=
07130,1996-01-08 12:00:00,11,1001.6,-1.5,71,6,25000,31.484,,,170,,,,,,,,,,,wg-a,,,,AAXX 08124 07130 12/75 71717 10110 20060 39965 40016 56015 60006 8707/ 91200=
07130,1996-01-08 15:00:00,13,999,-2.6,58,5,500,29.632,,,170,,,,,,,,,,,wg-a,,,,AAXX 08154 07130 12700 71716 10130 20050 39939 49990 55026 60006 8557/ 91500=
07130,1996-01-08 18:00:00,10,998.4,-0.6,82,7,20000,14.816,,,150,9.5,12.6,,1,,,,,,61,wg-a,,,,AAXX 08184 07130 12770 81508 10100 20070 39933 49984 58006 60017 76162 8657/ 91800 333 10126 20095=
07130,1996-01-08 21:00:00,9,997.5,-1,87,7,20000,14.816,,,150,,,,5,,,,,,21,wg-a,,,,AAXX 08214 07130 12570 81508 10090 20070 39923 49975 58010 60057 72162 8552/ 92100=
07130,1996-01-09 00:00:00,10,995.9,-1.5,93,9,15000,29.632,,,180,,,,3,,,,,,61,wg-a,,,,AAXX 09004 07130 02465 81816 10100 20090 39908 49959 56015 60086 76162 8682/ 90000 333 60037=
07130,1996-01-09 03:00:00,9,995.3,-0.6,100,9,15000,18.52,,,190,,,,5,,,,,,61,wg-a,,,,AAXX 09034 07130 12365 81910 10090 20090 39902 49953 55006 60057 76166 8682/ 90300=
07130,1996-01-09 06:00:00,10,995.4,0.1,93,9,15000,14.816,,,170,8.9,10.1,,1,,,15,,,3,wg-a,,,,AAXX 09064 07130 02365 81708 10100 20090 39903 49954 53001 60154 70362 8582/ 90600 333 10101 20089 60017=
07130,1996-01-09 09:00:00,10,997.6,2.2,93,9,14000,22.224,,,170,,,,,,,,,,,wg-a,,,,AAXX 09094 07130 12464 71712 10100 20090 39925 49976 53022 60006 878// 90900=
07130,1996-01-09 12:00:00,12,998.9,1.3,82,9,500,22.224,,,190,,,,,,,,,,,wg-a,,,,AAXX 09124 07130 12400 /1912 10120 20090 39938 49989 50013 60006 86500 91200=
07130,1996-01-09 15:00:00,13,999.4,0.5,77,9,25000,22.224,,,180,,,,,,,,,,,wg-a,,,,AAXX 09154 07130 12575 51812 10130 20090 39943 49994 53005 60006 83802 91500=
07130,1996-01-09 18:00:00,11,1001.6,2.2,82,8,35000,14.816,,,200,9.7,13.3,,,,,,,,,wg-a,,,,AAXX 09184 07130 12681 52008 10110 20080 39965 40016 51022 60006 84502 91800 333 10133 20097=
07130,1996-01-09 21:00:00,9,1002.9,1.2,87,7,20000,11.112,,,190,,,,,,,,,,,wg-a,,,,AAXX 09214 07130 12570 /1906 10090 20070 39977 40029 51012 60006 81500 92100=
07130,1996-01-10 00:00:00,8,1003.4,0.5,100,8,10000,11.112,,,170,,,,,,,,,,,wg-a,,,,AAXX 10004 07130 12260 61706 10080 20080 39982 40034 51005 60006 81602 90000=
07130,1996-01-10 03:00:00,6,1003.9,0.5,93,5,800,3.704,,,130,,,,,,,,,,41,wg-a,,,,AAXX 10034 07130 12208 71302 10060 20050 39987 40039 53005 60006 74142 81602 90300=
07130,1996-01-10 06:00:00,6,1004.2,0.3,100,6,500,3.704,,,60,5.5,10.5,,,,,,,,41,wg-a,,,,AAXX 10064 07130 02/05 90602 10060 20060 39990 40042 52003 60006 74142 89/// 90600 333 10105 20055 60004=
07130,1996-01-10 09:00:00,7,1005.9,1.7,93,6,200,3.704,,,80,,,,,,,,,,45,wg-a,,,,AAXX 10094 07130 12/02 90802 10070 20060 30007 40059 53017 60006 74544 89/// 90900=
07130,1996-01-10 12:00:00,7,1005.9,0,100,7,200,3.704,,,70,,,,,,,,,,44,wg-a,,,,AAXX 10124 07130 12102 80702 10070 20070 30007 40059 50000 60006 74444 886// 91200=
07130,1996-01-10 15:00:00,7,1006.2,0.3,100,7,600,3.704,,,240,,,,,,,,,,42,wg-a,,,,AAXX 10154 07130 12106 82402 10070 20070 30010 40062 53003 60006 74244 886// 91500=
07130,1996-01-10 18:00:00,7,1006.4,0.2,100,7,2000,3.704,,,180,6.2,7.6,,,,,,,,10,wg-a,,,,AAXX 10184 07130 12120 81802 10070 20070 30012 40064 50002 60006 71042 886// 91800 333 10076 20062=
07130,1996-01-10 21:00:00,6,1006.2,-0.2,100,6,600,11.112,,,170,,,,,,,,,,45,wg-a,,,,AAXX 10214 07130 12/06 91706 10060 20060 30010 40062 58002 60006 74542 89/// 92100=
07130,1996-01-11 00:00:00,6,1004,-2.2,100,6,700,14.816,,,170,,,,,,,,,,43,wg-a,,,,AAXX 11004 07130 12/07 91708 10060 20060 39988 40040 58022 60006 74342 89/// 90000=
07130,1996-01-11 03:00:00,7,1000.2,-3.8,93,6,8000,18.52,,,170,,,,,,,,,,28,wg-a,,,,AAXX 11034 07130 12258 71710 10070 20060 39950 40002 56038 60006 72842 876// 90300=
07130,1996-01-11 06:00:00,8,996.5,-3.7,93,7,10000,29.632,,,180,6.1,8.3,,0,,,,,,61,wg-a,,,,AAXX 11064 07130 02460 81816 10080 20070 39913 49965 56037 60004 76164 8672/ 90600 333 10083 20061 60007=
07130,1996-01-11 09:00:00,8,993.4,-3.1,87,6,6000,35.188,,50.004,170,,,,1,,,,,,60,wg-a,,,,AAXX 11094 07130 12456 81719 10080 20060 39882 49934 58031 60017 76066 878// 90900 333 91027=
07130,1996-01-11 12:00:00,9,990.9,-2.4,93,8,8000,38.892,,59.264,180,,,,2,,,,,,60,wg-a,,,,AAXX 11124 07130 02358 81821 10090 20080 39858 49909 57024 60036 76066 877// 91200 333 60027 91032=
07130,1996-01-11 15:00:00,11,990.7,-0.2,87,9,20000,31.484,,,200,,,,1,,,,,,3,wg-a,,,,AAXX 11154 07130 12470 72017 10110 20090 39856 49907 55002 60017 70362 8787/ 91500=
07130,1996-01-11 18:00:00,10,991,0.3,87,8,500,18.52,,,190,7.7,11.4,,,,,,,,1,wg-a,,,,AAXX 11184 07130 32400 31910 10100 20080 39859 49910 53003 70161 82230 91800 333 10114 20077=
07130,1996-01-11 21:00:00,9,991.9,0.9,87,7,500,22.224,,,170,,,,,,,,,,,wg-a,,,,AAXX 11214 07130 12600 21712 10090 20070 39868 49919 51009 60006 82500 92100=
07130,1996-01-12 00:00:00,9,992,0.1,81,6,35000,22.224,,,180,,,,,,,,,,,wg-a,,,,AAXX 12004 07130 12/81 01812 10090 20060 39869 49920 50001 60006 80000 90000=
07130,1996-01-12 03:00:00,9,993,1,87,7,15000,25.928,,,170,,,,,,,,,,,wg-a,,,,AAXX 12034 07130 12565 /1714 10090 20070 39879 49930 53010 60006 86500 90300=
07130,1996-01-12 06:00:00,9,993.4,0.4,87,7,25000,25.928,,,180,8.7,10.2,,,,,4,,,,wg-a,,,,AAXX 12064 07130 02475 41814 10090 20070 39883 49934 52004 60006 84300 90600 333 10102 20087 60044=
07130,1996-01-12 09:00:00,9,995.4,2,87,7,20000,25.928,,,180,,,,,,,,,,,wg-a,,,,AAXX 12094 07130 12470 21814 10090 20070 39903 49954 51020 60006 82201 90900=
07130,1996-01-12 12:00:00,11,996.4,1,82,8,20000,25.928,,,190,,,,,,,,,,80,wg-a,,,,AAXX 12124 07130 02470 61914 10110 20080 39913 49964 50010 61000 78086 86302 91200 333 6100=
07130,1996-01-12 15:00:00,12,998.3,1.9,76,8,500,25.928,,,200,,,,1,,,,,,25,wg-a,,,,AAXX 12154 07130 12500 /2014 10120 20080 39932 49983 53019 60017 72586 85200 91500=
07130,1996-01-12 18:00:00,11,1000.7,2.4,82,8,20000,25.928,,,190,8.8,12.6,,,,,,,,3,wg-a,,,,AAXX 12184 07130 32570 61914 10110 20080 39956 40007 53024 70386 86200 91800 333 10126 20088=
07130,1996-01-12 21:00:00,10,1003.1,2.3,87,8,15000,18.52,,,190,,,,,,,,,,,wg-a,,,,AAXX 12214 07130 12465 41910 10100 20080 39979 40031 53023 60006 84500 92100=
07130,1996-01-13 00:00:00,10,1006,2.9,87,8,11000,22.224,,,190,,,,,,,,,,,wg-a,,,,AAXX 13004 07130 12/61 /1912 10100 20080 30008 40060 52029 60006 90000=
07130,1996-01-13 06:00:00,9,1009.2,1.9,93,8,18000,14.816,,,200,9.4,11,,,,,1,,,,wg-a,,,,AAXX 13064 07130 12368 72008 10090 20080 30040 40092 53019 60014 875// 90600 333 10110 20094=
07130,1996-01-13 09:00:00,9,1011,1.8,93,8,20000,14.816,,,180,,,,0,,,,,,1,wg-a,,,,AAXX 13094 07130 12370 71808 10090 20080 30058 40110 52018 60007 70186 83802 90900=
07130,1996-01-13 12:00:00,12,1011.3,0.3,76,8,11000,22.224,,,190,,,,,,,,,,,wg-a,,,,AAXX 13124 07130 12/61 /1912 10120 20080 30061 40113 50003 60016 91200=
07130,1996-01-13 15:00:00,12,1010.9,-0.4,71,7,25000,25.928,,,190,,,,,,,,,,,wg-a,,,,AAXX 13154 07130 12575 71914 10120 20070 30057 40109 56004 60006 81232 91500=
07130,1996-01-13 18:00:00,10,1011.8,0.9,82,7,20000,22.224,,,170,9,12.8,,,,,,,,,wg-a,,,,AAXX 13184 07130 32570 61712 10100 20070 30066 40118 51009 81532 91800 333 10128 20090=
07130,1996-01-13 21:00:00,9,1011.5,-0.3,87,7,25000,22.224,,42.596,160,,,,,,,,,,,wg-a,,,,AAXX 13214 07130 12375 51612 10090 20070 30063 40115 58003 60006 82530 92100 333 91023=
07130,1996-01-14 00:00:00,8,1010.9,-0.7,87,6,25000,14.816,,,150,,,,,,,,,,,wg-a,,,,AAXX 14004 07130 12/75 01508 10080 20060 30056 40109 58007 60006 80000 90000=
07130,1996-01-14 03:00:00,7,1009.7,-1.2,87,5,25000,18.52,,,140,,,,,,,,,,,wg-a,,,,AAXX 14034 07130 12/75 31410 10070 20050 30044 40097 58012 60006 80002 90300=
07130,1996-01-14 06:00:00,6,1009.3,-0.4,93,5,25000,14.816,,,130,6.2,10.5,,,,,,,,,wg-a,,,,AAXX 14064 07130 02/75 71308 10060 20050 30040 40093 58004 60006 83032 90600 333 10105 20062 60004=
07130,1996-01-14 09:00:00,7,1009.8,0.6,93,6,12000,18.52,,,140,,,,,,,,,,,wg-a,,,,AAXX 14094 07130 12/62 71410 10070 20060 30046 40098 51006 60006 84072 90900=
07130,1996-01-14 12:00:00,10,1009.9,0.1,87,8,15000,14.816,,,140,,,,,,,,,,,wg-a,,,,AAXX 14124 07130 12/65 71408 10100 20080 30047 40099 50001 60006 86072 91200=
07130,1996-01-14 15:00:00,12,1010.4,0.5,82,9,15000,18.52,,,130,,,,0,,,,,,1,wg-a,,,,AAXX 14154 07130 12765 71310 10120 20090 30052 40104 53005 60007 70162 86522 91500=
07130,1996-01-14 18:00:00,11,1012.3,1.9,82,8,12000,14.816,,,140,6.3,11.7,,,,,,,,1,wg-a,,,,AAXX 14184 07130 32762 71408 10110 20080 30071 40123 53019 70162 82572 91800 333 10117 20063=
07130,1996-01-14 21:00:00,11,1013.9,1.6,87,9,15000,18.52,,,110,,,,,,,,,,,wg-a,,,,AAXX 14214 07130 12765 81110 10110 20090 30087 40139 50016 60006 875// 92100=
07130,1996-01-15 00:00:00,11,1015.6,1.7,82,8,15000,11.112,,,140,,,,,,,,,,,wg-a,,,,AAXX 15004 07130 12765 81406 10110 20080 30104 40156 51017 60006 875// 90000=
07130,1996-01-15 03:00:00,11,1017,1.4,82,8,15000,11.112,,,130,,,,,,,,,,,wg-a,,,,AAXX 15034 07130 12765 81306 10110 20080 30118 40170 51014 60006 875// 90300=
07130,1996-01-15 06:00:00,10,1018.7,1.7,87,8,15000,11.112,,,110,10.1,11.1,,,,,,,,,wg-a,,,,AAXX 15064 07130 02765 81106 10100 20080 30135 40187 53017 60006 8557/ 90600 333 10111 20101 60004=
07130,1996-01-15 09:00:00,9,1020.5,1.7,87,7,10000,7.408,,,110,,,,,,,,,,,wg-a,,,,AAXX 15094 07130 12760 71104 10090 20070 30152 40205 51017 60006 84532 90900=
07130,1996-01-15 12:00:00,12,1022.1,1.7,82,9,15000,7.408,,,130,,,,,,,,,,,wg-a,,,,AAXX 15124 07130 12765 71304 10120 20090 30169 40221 51017 60006 82532 91200=
07130,1996-01-15 15:00:00,12,1022,-0.1,82,9,12000,3.704,,,130,,,,,,,,,,,wg-a,,,,AAXX 15154 07130 12762 61302 10120 20090 30168 40220 55001 60006 83532 91500=
07130,1996-01-15 18:00:00,10,1023.5,1.4,87,8,15000,3.704,,,130,8.9,12.1,,,,,,,,,wg-a,,,,AAXX 15184 07130 12765 51302 10100 20080 30182 40235 53014 60006 81532 91800 333 10121 20089=
07130,1996-01-15 21:00:00,9,1024.9,1.4,93,8,12000,7.408,,,130,,,,,,,,,,,wg-a,,,,AAXX 15214 07130 12/62 71304 10090 20080 30196 40249 53014 60006 82032 92100=
07130,1996-01-16 00:00:00,8,1025.7,0.8,87,6,500,3.704,,,120,,,,,,,,,,,wg-a,,,,AAXX 16004 07130 12/00 31202 10080 20060 30204 40257 52008 60006 80002 90000=
07130,1996-01-16 03:00:00,6,1025.9,0.1,93,5,3000,0,,,0,,,,,,,,,,10,wg-a,,,,AAXX 16034 07130 12/30 00000 10060 20050 30205 40259 50001 60006 71000 80000 90300=
07130,1996-01-16 06:00:00,2,1026.3,0.4,93,1,200,0,,,0,2.1,10.2,,,,,,,,43,wg-a,,,,AAXX 16064 07130 02/02 90000 10020 20010 30209 40263 53004 60006 74341 89/// 90600 333 10102 20021 60004=
07130,1996-01-16 09:00:00,3,1027.5,1.2,93,2,100,0,,,0,,,,,,,,,,44,wg-a,,,,AAXX 16094 07130 12001 /0000 10030 20020 30221 40275 53012 60006 74444 82602 90900=
07130,1996-01-16 12:00:00,5,1026.8,-0.7,100,5,1200,0,,,0,,,,,,,,,,10,wg-a,,,,AAXX 16124 07130 12/12 30000 10050 20050 30214 40268 58007 60006 71041 80002 91200=
07130,1996-01-16 15:00:00,10,1025.8,-0.9,93,9,3000,0,,,0,,,,,,,,,,10,wg-a,,,,AAXX 16154 07130 12/30 20000 10100 20090 30205 40258 57009 60006 71000 80001 91500=
07130,1996-01-16 18:00:00,8,1026.4,0.6,93,7,2000,3.704,,,110,1.9,10.2,,,,,,,,11,wg-a,,,,AAXX 16184 07130 12/20 /1102 10080 20070 30211 40264 53006 60006 71100 80000 91800 333 10102 20019=
07130,1996-01-16 21:00:00,7,1026.7,0.3,93,6,1500,3.704,,,120,,,,,,,,,,10,wg-a,,,,AAXX 16214 07130 12/15 01202 10070 20060 30214 40267 51003 60006 71000 80000 92100=
07130,1996-01-17 00:00:00,6,1026,-0.8,93,5,200,7.408,,,120,,,,,,,,,,45,wg-a,,,,AAXX 17004 07130 12/02 91204 10060 20050 30206 40260 58008 60006 74541 89/// 90000=
07130,1996-01-17 03:00:00,5,1025.4,-0.6,100,5,200,11.112,,,110,,,,,,,,,,45,wg-a,,,,AAXX 17034 07130 12/02 91106 10050 20050 30200 40254 57006 60006 74544 89/// 90300=
07130,1996-01-17 06:00:00,5,1024.9,-0.5,93,4,300,7.408,,,120,4.6,8.1,,,,,,,,45,wg-a,,,,AAXX 17064 07130 02/03 91204 10050 20040 30195 40249 56005 60006 74544 89/// 90600 333 10081 20046 60004=
07130,1996-01-17 09:00:00,5,1025.2,0.3,93,4,100,7.408,,,100,,,,,,,,,,45,wg-a,,,,AAXX 17094 07130 12/01 91004 10050 20040 30198 40252 53003 60006 74544 89/// 90900=
07130,1996-01-17 12:00:00,5,1024.4,-0.8,93,4,500,14.816,,,110,,,,,,,,,,42,wg-a,,,,AAXX 17124 07130 12105 81108 10050 20040 30190 40244 58008 60006 74244 886// 91200=
07130,1996-01-17 15:00:00,6,1022.8,-1.6,93,5,1300,11.112,,,110,,,,,,,,,,10,wg-a,,,,AAXX 17154 07130 12113 81106 10060 20050 30174 40228 56016 60006 71042 886// 91500=
07130,1996-01-17 18:00:00,4,1022.6,-0.2,100,4,300,14.816,,,110,3.9,5.6,,,,,,,,43,wg-a,,,,AAXX 17184 07130 12/03 91108 10040 20040 30172 40226 55002 60006 74342 89/// 91800 333 10056 20039=
07130,1996-01-17 21:00:00,4,1022.5,-0.1,93,3,500,14.816,,,100,,,,,,,,,,45,wg-a,,,,AAXX 17214 07130 12/05 91008 10040 20030 30171 40225 58001 60006 74544 89/// 92100=
07130,1996-01-18 00:00:00,3,1021.6,-0.9,100,3,800,11.112,,,110,,,,,,,,,,47,wg-a,,,,AAXX 18004 07130 12/08 91106 10030 20030 30162 40216 58009 60006 74744 89/// 90000=
07130,1996-01-18 03:00:00,3,1020.8,-0.8,100,3,500,14.816,,,130,,,,,,,,,,45,wg-a,,,,AAXX 18034 07130 12/05 91308 10030 20030 30154 40208 56008 60006 74544 89/// 90300=
07130,1996-01-18 06:00:00,3,1019.8,-1,100,3,1000,14.816,,,110,2.9,4.4,,,,,,,,10,wg-a,,,,AAXX 18064 07130 02110 81108 10030 20030 30144 40198 58010 60006 71042 886// 90600 333 10044 20029 60004=
07130,1996-01-18 09:00:00,4,1019.4,-0.4,100,4,4000,14.816,,,120,,,,,,,,,,10,wg-a,,,,AAXX 18094 07130 12240 81208 10040 20040 30140 40194 56004 60006 71022 886// 90900=
07130,1996-01-18 12:00:00,7,1018.3,-1,81,4,500,14.816,,,130,,,,,,,,,,,wg-a,,,,AAXX 18124 07130 12200 71308 10070 20040 30130 40183 58010 60006 87500 91200=
07130,1996-01-18 15:00:00,8,1017.2,-1.1,81,5,7000,11.112,,,120,,,,,,,,,,,wg-a,,,,AAXX 18154 07130 12457 81206 10080 20050 30119 40172 55011 60006 885// 91500=
07130,1996-01-18 18:00:00,8,1017.5,0.3,87,6,6000,11.112,,,110,3.3,8.3,,,,,,,,,wg-a,,,,AAXX 18184 07130 12456 81106 10080 20060 30122 40175 52003 60006 885// 91800 333 10083 20033=
07130,1996-01-18 21:00:00,9,1017.4,-0.1,87,7,8000,11.112,,,140,,,,,,,,,,,wg-a,,,,AAXX 18214 07130 12458 71406 10090 20070 30121 40174 56001 60006 875// 92100=
07130,1996-01-19 00:00:00,9,1017,-0.4,87,7,8000,7.408,,,140,,,,,,,,,,,wg-a,,,,AAXX 19004 07130 12458 71404 10090 20070 30117 40170 58004 60006 875// 90000=
07130,1996-01-19 03:00:00,8,1016.1,-0.9,87,6,8000,7.408,,,150,,,,,,,,,,,wg-a,,,,AAXX 19034 07130 12658 71504 10080 20060 30108 40161 56009 60006 875// 90300=
07130,1996-01-19 06:00:00,6,1015.2,-0.9,93,5,0,7.408,,,130,6.1,9,,,,,,,,,wg-a,,,,AAXX 19064 07130 02/// /1304 10060 20050 30099 40152 57009 60006 90600 333 10090 20061 60004=
07130,1996-01-19 09:00:00,5,1014.7,-0.5,93,4,6000,7.408,,,120,,,,,,,,,,,wg-a,,,,AAXX 19094 07130 12/56 21204 10050 20040 30094 40147 58005 60006 81031 90900=
07130,1996-01-19 12:00:00,11,1012.9,-1.7,62,4,15000,18.52,,,180,,,,,,,,,,,wg-a,,,,AAXX 19124 07130 12/65 11810 10110 20040 30077 40129 58017 60006 80001 91200=
07130,1996-01-19 18:00:00,7,1009.6,-1.1,87,5,1200,14.816,,,120,5,11.9,,,,,,,,,wg-a,,,,AAXX 19184 07130 12712 71208 10070 20050 30044 40096 56011 60006 875// 91800 333 10119 20050=
07130,1996-01-19 21:00:00,7,1008.2,-1.5,81,4,10000,14.816,,,120,,,,,,,,,,,wg-a,,,,AAXX 19214 07130 12760 61208 10070 20040 30029 40082 58015 60006 86500 92100=
07130,1996-01-20 00:00:00,5,1006.5,-1.7,87,3,9000,11.112,,,120,,,,,,,,,,,wg-a,,,,AAXX 20004 07130 12/59 01206 10050 20030 30012 40065 58017 60006 80000 90000=
07130,1996-01-20 03:00:00,3,1004.7,-1.8,93,2,9000,11.112,,,120,,,,,,,,,,,wg-a,,,,AAXX 20034 07130 12/59 01206 10030 20020 39994 40047 56018 60006 80000 90300=
07130,1996-01-20 06:00:00,2,1003.5,-1.2,93,1,8000,14.816,,,120,2.4,7.5,,,,,,,,,wg-a,,,,AAXX 20064 07130 02/58 31208 10020 20010 39982 40035 56012 60006 83030 90600 333 10075 20024 60004=
07130,1996-01-20 09:00:00,4,1003.6,0.1,87,2,8000,14.816,,,120,,,,,,,,,,,wg-a,,,,AAXX 20094 07130 12758 81208 10040 20020 39983 40036 53001 60006 875// 90900=
07130,1996-01-20 12:00:00,8,1002.7,-0.8,81,5,9000,14.816,,,140,,,,,,,,,,1,wg-a,,,,AAXX 20124 07130 02559 /1408 10080 20050 39975 40027 58008 61000 70161 81571 91200 333 6100=
07130,1996-01-20 15:00:00,9,1002.4,-0.3,87,7,10000,11.112,,,130,,,,0,,,,,,25,wg-a,,,,AAXX 20154 07130 12560 71306 10090 20070 39972 40024 55003 60007 72522 86830 91500=
07130,1996-01-20 18:00:00,7,1003.5,1.1,81,4,9000,18.52,,,120,2.2,10.2,,,,,,,,,wg-a,,,,AAXX 20184 07130 32659 21210 10070 20040 39983 40035 53011 81530 91800 333 10102 20022=
07130,1996-01-20 21:00:00,5,1005.5,1.9,87,3,10000,18.52,,,110,,,,,,,,,,,wg-a,,,,AAXX 20214 07130 12/60 01110 10050 20030 30002 40055 53019 60006 80000 92100=
07130,1996-01-21 00:00:00,3,1006.3,0.8,87,1,10000,18.52,,,110,,,,,,,,,,,wg-a,,,,AAXX 21004 07130 12/60 01110 10030 20010 30010 40063 51008 60006 80000 90000=
07130,1996-01-21 03:00:00,3,1006.3,-0,87,1,10000,22.224,,,110,,,,,,,,,,,wg-a,,,,AAXX 21034 07130 12/60 01112 10030 20010 30010 40063 55000 60006 80000 90300=
07130,1996-01-21 06:00:00,2,1006.9,0.6,93,1,8000,14.816,,,110,2.4,6.8,,,,,,,,,wg-a,,,,AAXX 21064 07130 02/58 31108 10020 20010 30016 40069 53006 60006 80002 90600 333 10068 20024 60004=
07130,1996-01-21 09:00:00,2,1007.4,0.5,93,1,500,11.112,,,100,,,,,,,,,,,wg-a,,,,AAXX 21094 07130 12/00 41006 10020 20010 30021 40074 51005 60006 80002 90900=
07130,1996-01-21 12:00:00,6,1007.1,-0.3,81,3,8000,18.52,,,110,,,,,,,,,,,wg-a,,,,AAXX 21124 07130 12/58 /1110 10060 20030 30018 40071 58003 60006 80001 91200=
07130,1996-01-21 15:00:00,9,1005.4,-1.6,71,4,9000,18.52,,,90,,,,,,,,,,,wg-a,,,,AAXX 21154 07130 12/59 70910 10090 20040 30002 40054 56016 60006 84022 91500=
07130,1996-01-21 18:00:00,7,1005.7,0.3,81,4,9000,18.52,,,90,1.3,9,,,,,,,,,wg-a,,,,AAXX 21184 07130 12/59 70910 10070 20040 30005 40057 51003 60006 85022 91800 333 10090 20013=
07130,1996-01-21 21:00:00,6,1005.5,-0.3,81,3,8000,22.224,,,90,,,,,,,,,,,wg-a,,,,AAXX 21214 07130 12/58 70912 10060 20030 30002 40055 58003 60006 85032 92100=
07130,1996-01-22 00:00:00,5,1004.3,-1.2,87,3,10000,18.52,,,90,,,,,,,,,,,wg-a,,,,AAXX 22004 07130 12/60 80910 10050 20030 39990 40043 58012 60006 8703/ 90000=
07130,1996-01-22 03:00:00,6,1002.7,-1.5,81,3,10000,22.224,,,90,,,,,,,,,,,wg-a,,,,AAXX 22034 07130 12/60 80912 10060 20030 39975 40027 57015 60006 8703/ 90300=
07130,1996-01-22 06:00:00,7,1001.5,-1.2,76,3,15000,18.52,,,100,5.2,7.1,,,,,,,,,wg-a,,,,AAXX 22064 07130 02/65 71010 10070 20030 39963 40015 58012 60006 85072 90600 333 10071 20052 60004=
07130,1996-01-22 09:00:00,8,1000.7,-0.8,76,4,10000,22.224,,,110,,,,,,,,,,,wg-a,,,,AAXX 22094 07130 12/60 /1112 10080 20040 39955 40007 56008 60006 90900=
07130,1996-01-22 12:00:00,9,999.1,-1.6,76,5,25000,25.928,,,110,,,,,,,,,,,wg-a,,,,AAXX 22124 07130 12675 81114 10090 20050 39939 49991 58016 60006 8657/ 91200=
07130,1996-01-22 15:00:00,8,999.7,0.6,93,7,500,18.52,,,150,,,,2,,,,,,61,wg-a,,,,AAXX 22154 07130 12400 81510 10080 20070 39945 49997 53006 60027 76162 888// 91500=
07130,1996-01-22 18:00:00,8,1000.7,1,87,6,8000,11.112,,,130,6.8,9.5,,1,,,,,,1,wg-a,,,,AAXX 22184 07130 12758 21306 10080 20060 39955 40007 53010 60017 70161 82500 91800 333 10095 20068=
07130,1996-01-22 21:00:00,7,1001.6,0.9,93,6,1000,7.408,,,110,,,,,,,,,,10,wg-a,,,,AAXX 22214 07130 12110 71104 10070 20060 39964 40016 50009 60006 71011 87600 92100=
07130,1996-01-23 00:00:00,7,1001,-0.6,93,6,7000,11.112,,,80,,,,,,,,,,,wg-a,,,,AAXX 23004 07130 12757 70806 10070 20060 39958 40010 58006 60006 875// 90000=
07130,1996-01-23 03:00:00,7,999.9,-1.1,93,6,9000,11.112,,,90,,,,,,,,,,,wg-a,,,,AAXX 23034 07130 12459 80906 10070 20060 39947 49999 56011 60006 885// 90300=
07130,1996-01-23 06:00:00,7,997.1,-2.8,93,6,8000,11.112,,,50,5.9,7.5,,1,,,4,,,21,wg-a,,,,AAXX 23064 07130 02358 80506 10070 20060 39919 49971 56028 60044 72162 887// 90600 333 10075 20059 60017=
07130,1996-01-23 09:00:00,8,996.5,-0.6,93,7,7000,18.52,,,60,,,,,,,,,,,wg-a,,,,AAXX 23094 07130 12357 80610 10080 20070 39913 49965 58006 60006 887// 90900=
07130,1996-01-23 12:00:00,8,994.1,-2.3,93,7,7000,18.52,,,70,,,,0,,,,,,61,wg-a,,,,AAXX 23124 07130 02357 80710 10080 20070 39890 49941 58023 60016 76162 875// 91200 333 60007=
07130,1996-01-23 15:00:00,9,993.1,-1,93,8,11000,14.816,,,110,,,,4,,,,,,21,wg-a,,,,AAXX 23154 07130 12361 /1108 10090 20080 39880 49931 56010 60047 72162 8387/ 91500=
07130,1996-01-23 18:00:00,8,994,0.9,93,7,15000,14.816,,,100,7.1,9.5,,,,,,,,1,wg-a,,,,AAXX 23184 07130 32565 31008 10080 20070 39889 49940 52009 70161 82802 91800 333 10095 20071=
07130,1996-01-23 21:00:00,8,994.4,0.3,87,6,15000,11.112,,,90,,,,,,,,,,,wg-a,,,,AAXX 23214 07130 12565 80906 10080 20060 39892 49944 50003 60006 875// 92100=
07130,1996-01-24 00:00:00,7,994.8,0.4,93,6,12000,0,,,0,,,,,,,,,,,wg-a,,,,AAXX 24004 07130 12362 80000 10070 20060 39896 49948 53004 60006 886// 90000=
07130,1996-01-24 03:00:00,7,995.8,1,93,6,12000,3.704,,,150,,,,,,,,,,,wg-a,,,,AAXX 24034 07130 12562 81502 10070 20060 39906 49958 53010 60006 878// 90300=
07130,1996-01-24 06:00:00,7,996.9,1.1,100,7,4500,11.112,,,170,6.6,8.5,,1,,,5,,,21,wg-a,,,,AAXX 24064 07130 02245 81706 10070 20070 39917 49969 53011 60054 72162 875// 90600 333 10085 20066 60017=
07130,1996-01-24 09:00:00,9,998.9,2,93,8,7000,14.816,,,160,,,,,,,,,,,wg-a,,,,AAXX 24094 07130 12357 81608 10090 20080 39937 49989 51020 60006 887// 90900=
07130,1996-01-24 12:00:00,11,1000.4,1.6,82,8,10000,18.52,,,170,,,,,,,,,,,wg-a,,,,AAXX 24124 07130 12460 /1710 10110 20080 39953 40004 51016 60006 86800 91200=
07130,1996-01-24 15:00:00,13,1000.8,0.4,67,7,20000,14.816,,,160,,,,,,,,,,,wg-a,,,,AAXX 24154 07130 12570 51608 10130 20070 39957 40008 53004 60006 82201 91500=
07130,1996-01-24 18:00:00,10,1002.2,1.3,82,7,9000,7.408,,,110,7.4,12.8,,,,,,,,,wg-a,,,,AAXX 24184 07130 12/59 71104 10100 20070 39970 40022 53013 60006 85051 91800 333 10128 20074=
07130,1996-01-24 21:00:00,8,1002.7,0.5,87,6,9000,11.112,,,100,,,,,,,,,,,wg-a,,,,AAXX 24214 07130 12/59 /1006 10080 20060 39975 40027 51005 60006 81030 92100=
07130,1996-01-25 00:00:00,6,1002.7,0,93,5,8000,3.704,,,70,,,,,,,,,,,wg-a,,,,AAXX 25004 07130 12/58 40702 10060 20050 39975 40027 50000 60006 80001 90000=
07130,1996-01-25 03:00:00,6,1002,-0.7,93,5,4000,7.408,,,50,,,,,,,,,,10,wg-a,,,,AAXX 25034 07130 12/40 /0504 10060 20050 39968 40020 58007 60006 71011 80001 90300=
07130,1996-01-25 06:00:00,6,1001.7,-0.3,87,4,3000,7.408,,,30,4.6,9.6,,,,,,,,10,wg-a,,,,AAXX 25064 07130 02730 80304 10060 20040 39965 40017 55003 61000 71061 8357/ 90600 333 10096 20046 6100=
07130,1996-01-25 09:00:00,4,1003.3,1.5,87,2,2500,18.52,,,90,,,,,,,,,,10,wg-a,,,,AAXX 25094 07130 02225 80910 10040 20020 39980 40033 53015 61000 71062 887// 90900 333 ////=
07130,1996-01-25 12:00:00,4,1003.8,0.5,87,2,3000,14.816,,,90,,,,,,,,,,10,wg-a,,,,AAXX 25124 07130 02330 80908 10040 20020 39985 40038 51005 61000 71062 887// 91200 333 ////=
07130,1996-01-25 15:00:00,4,1003.9,0.1,81,1,3000,18.52,,,60,,,,,,,,,,10,wg-a,,,,AAXX 25154 07130 12330 80610 10040 20010 39986 40039 53001 60006 71022 887// 91500=
07130,1996-01-25 18:00:00,3,1005.1,1.2,87,1,3000,18.52,,,70,2.5,5.7,,0,,,,,,10,wg-a,,,,AAXX 25184 07130 12330 80710 10030 20010 39998 40051 53012 60007 71062 887// 91800 333 10057 20025=
07130,1996-01-25 21:00:00,2,1006.8,1.7,87,0,2500,14.816,,,50,,,,,,,,,,10,wg-a,,,,AAXX 25214 07130 12325 80508 10020 20000 30015 40068 51017 60006 71022 887// 92100=
07130,1996-01-26 00:00:00,2,1007.8,0.9,80,-1,4000,14.816,,,70,,,,,,,,,,10,wg-a,,,,AAXX 26004 07130 12440 80708 10020 21010 30024 40078 51009 60006 71022 887// 90000=
07130,1996-01-26 03:00:00,1,1008.2,0.4,80,-2,4000,18.52,,,50,,,,,,,,,,10,wg-a,,,,AAXX 26034 07130 12440 80510 10010 21020 30028 40082 51004 60006 71022 887// 90300=
07130,1996-01-26 06:00:00,0,1008.9,0.7,86,-2,3000,14.816,,,30,0,2.7,,,,,,,,10,wg-a,,,,AAXX 26064 07130 02430 80308 10000 21020 30035 40089 53007 60006 71022 886// 90600 333 10027 20000 60004=
07130,1996-01-26 09:00:00,-1,1010.3,1.4,86,-3,2500,18.52,,,40,,,,,,,,,,10,wg-a,,,,AAXX 26094 07130 02425 80410 11010 21030 30049 40103 51014 61000 71072 875// 90900 333 ////=
07130,1996-01-26 12:00:00,-1,1010.8,0.5,80,-4,4000,18.52,,,50,,,,,,,,,,10,wg-a,,,,AAXX 26124 07130 02440 80510 11010 21040 30054 40108 50005 61000 71076 875// 91200 333 6100=
07130,1996-01-26 15:00:00,0,1010.3,-0.5,69,-5,500,18.52,,,40,,,,,,,,,,70,wg-a,,,,AAXX 26154 07130 02500 80410 10000 21050 30049 40103 55005 61000 77076 875// 91500 333 ////=
07130,1996-01-26 18:00:00,-1,1011.5,1.2,74,-5,500,22.224,,,60,-0.8,0.1,,,,,,,,70,wg-a,,,,AAXX 26184 07130 02400 80612 11010 21050 30061 40115 51012 61000 77076 875// 91800 333 10001 21008 ////=
07130,1996-01-26 21:00:00,-1,1012.4,0.9,69,-6,7000,18.52,,,50,,,,,,,,,,70,wg-a,,,,AAXX 26214 07130 02657 80510 11010 21060 30070 40124 51009 61000 77072 875// 92100 333 ////=
07130,1996-01-27 00:00:00,-1,1012.6,0.2,69,-6,7000,14.816,,,30,,,,,,,,,,22,wg-a,,,,AAXX 27004 07130 02557 80308 11010 21060 30072 40126 50002 61000 72272 875// 90000 333 6100=
07130,1996-01-27 03:00:00,-2,1012.2,-0.4,74,-6,8000,14.816,,,50,,,,,,,,,,,wg-a,,,,AAXX 27034 07130 12558 80508 11020 21060 30068 40122 58004 60006 875// 90300=
07130,1996-01-27 06:00:00,-2,1011.7,-0.5,69,-7,8000,14.816,,,70,-1.9,-0.4,,,,,,,,,wg-a,,,,AAXX 27064 07130 02558 80708 11020 21070 30063 40117 58005 61000 875// 90600 333 11004 21019 ////=
07130,1996-01-27 09:00:00,-2,1012.9,1.2,69,-7,8000,14.816,,,60,,,,,,,,,,,wg-a,,,,AAXX 27094 07130 12658 70608 11020 21070 30075 40129 51012 60006 8353/ 90900=
07130,1996-01-27 12:00:00,1,1012.2,-0.7,59,-6,9000,18.52,,,90,,,,,,,,,,,wg-a,,,,AAXX 27124 07130 12559 60910 10010 21060 30068 40122 58007 60006 84531 91200=
07130,1996-01-27 15:00:00,0,1011.4,-0.8,80,-3,4000,14.816,,,90,,,,,,,,,,10,wg-a,,,,AAXX 27154 07130 12440 80908 10000 21030 30060 40114 55008 60006 71022 886// 91500=
07130,1996-01-27 18:00:00,1,1011.9,0.5,86,-1,4000,14.816,,,90,-1.8,1.1,,,,,,,,10,wg-a,,,,AAXX 27184 07130 12240 80908 10010 21010 30065 40119 53005 60006 71022 886// 91800 333 10011 21018=
07130,1996-01-27 21:00:00,1,1011.9,0,93,0,3000,14.816,,,90,,,,,,,,,,10,wg-a,,,,AAXX 27214 07130 12230 /0908 10010 20000 30065 40119 50000 60006 71022 85600 92100=
07130,1996-01-28 00:00:00,2,1011.7,-0.2,93,1,2500,18.52,,,100,,,,,,,,,,10,wg-a,,,,AAXX 28004 07130 12225 81010 10020 20010 30063 40117 55002 60006 71022 886// 90000=
07130,1996-01-28 06:00:00,3,1009.5,-1.2,87,1,500,22.224,,,90,0.3,2.6,,,,,,,,,wg-a,,,,AAXX 28064 07130 02200 80912 10030 20010 30042 40095 56012 60006 886// 90600 333 10026 20003 60004=
07130,1996-01-28 09:00:00,4,1009.7,0.2,87,2,4500,22.224,,,90,,,,,,,,,,10,wg-a,,,,AAXX 28094 07130 12345 80912 10040 20020 30044 40097 53002 60006 71022 886// 90900=
07130,1996-01-28 12:00:00,7,1008.5,-1.2,76,3,8000,22.224,,,90,,,,,,,,,,,wg-a,,,,AAXX 28124 07130 12/58 /0912 10070 20030 30032 40085 58012 60006 80002 91200=
07130,1996-01-28 15:00:00,8,1007.3,-1.1,66,2,8000,22.224,,,80,,,,,,,,,,,wg-a,,,,AAXX 28154 07130 12/58 70812 10080 20020 30021 40073 56011 60006 84032 91500=
07130,1996-01-28 18:00:00,5,1007.6,0.2,75,1,8000,18.52,,,90,2.5,8,,,,,,,,,wg-a,,,,AAXX 28184 07130 12/58 30910 10050 20010 30023 40076 53002 60006 80002 91800 333 10080 20025=
07130,1996-01-29 00:00:00,3,1009,0.4,81,0,500,18.52,,,80,,,,,,,,,,,wg-a,,,,AAXX 29004 07130 12400 80810 10030 20000 30037 40090 53004 60006 875// 90000=
07130,1996-01-29 03:00:00,3,1008.9,-0.1,81,0,500,18.52,,,80,,,,,,,,,,,wg-a,,,,AAXX 29034 07130 12400 80810 10030 20000 30036 40089 55001 60006 875// 90300=
07130,1996-01-29 06:00:00,3,1009.5,0.6,81,0,7000,14.816,,,80,2.5,5.3,,,,,,,,,wg-a,,,,AAXX 29064 07130 02457 80808 10030 20000 30042 40095 53006 60006 875// 90600 333 10053 20025 60004=
07130,1996-01-29 09:00:00,3,1011,1.5,81,0,500,18.52,,,80,,,,,,,,,,,wg-a,,,,AAXX 29094 07130 12400 80810 10030 20000 30057 40110 53015 60006 875// 90900=
07130,1996-01-29 12:00:00,4,1011.6,0.6,75,0,6000,14.816,,,80,,,,,,,,,,,wg-a,,,,AAXX 29124 07130 12456 70808 10040 20000 30063 40116 51006 60006 855// 91200=
07130,1996-01-29 15:00:00,5,1012,0.4,75,1,500,11.112,,,80,,,,,,,,,,,wg-a,,,,AAXX 29154 07130 12400 80806 10050 20010 30067 40120 53004 60006 885// 91500=
07130,1996-01-29 18:00:00,4,1013.1,1.1,81,1,4500,14.816,,,80,2.9,5.3,,,,,,,,10,wg-a,,,,AAXX 29184 07130 12445 80808 10040 20010 30078 40131 53011 60006 71022 885// 91800 333 10053 20029=
07130,1996-01-29 21:00:00,3,1014.3,1.1,87,1,4000,11.112,,,40,,,,,,,,,,10,wg-a,,,,AAXX 29214 07130 12640 70406 10030 20010 30089 40143 51011 60006 71022 8353/ 92100=
07130,1996-01-30 00:00:00,1,1015.4,1.1,93,0,4000,11.112,,,20,,,,,,,,,,10,wg-a,,,,AAXX 30004 07130 12640 30206 10010 20000 30100 40154 51011 60006 71011 81530 90000=
07130,1996-01-30 03:00:00,1,1015.9,0.5,86,-1,4000,14.816,,,30,,,,,,,,,,10,wg-a,,,,AAXX 30034 07130 12640 40308 10010 21010 30105 40159 51005 60006 71000 84500 90300=
07130,1996-01-30 06:00:00,2,1016.7,0.8,87,0,3500,7.408,,,350,0.3,3.9,,,,,,,,10,wg-a,,,,AAXX 30064 07130 02635 73504 10020 20000 30113 40167 53008 60006 71011 875// 90600 333 10039 20003 60004=
07130,1996-01-30 09:00:00,4,1018.4,1.7,87,2,4000,7.408,,,80,,,,,,,,,,10,wg-a,,,,AAXX 30094 07130 12740 70804 10040 20020 30130 40184 52017 60006 71022 875// 90900=
07130,1996-01-30 12:00:00,9,1018.6,0.3,66,3,6000,14.816,,,100,,,,,,,,,,,wg-a,,,,AAXX 30124 07130 12756 /1008 10090 20030 30133 40186 50003 60006 81532 91200=
07130,1996-01-30 15:00:00,11,1018.5,-0,62,4,9000,7.408,,,110,,,,,,,,,,,wg-a,,,,AAXX 30154 07130 12759 /1104 10110 20040 30133 40185 55000 60006 81532 91500=
07130,1996-01-30 18:00:00,7,1019.2,0.6,76,3,500,3.704,,,70,1.6,10.6,,,,,,,,,wg-a,,,,AAXX 30184 07130 12/00 /0702 10070 20030 30139 40192 53006 60006 81032 91800 333 10106 20016=
07130,1996-01-30 21:00:00,5,1020,0.8,75,1,6000,14.816,,,80,,,,,,,,,,,wg-a,,,,AAXX 30214 07130 12/56 00808 10050 20010 30147 40200 52008 60006 80000 92100=
07130,1996-01-31 00:00:00,2,1020.7,0.6,80,-1,4000,14.816,,,80,,,,,,,,,,10,wg-a,,,,AAXX 31004 07130 12/40 00808 10020 21010 30153 40207 51006 60006 71011 80000 90000=
07130,1996-01-31 03:00:00,1,1020.2,-0.5,80,-2,500,11.112,,,50,,,,,,,,,,,wg-a,,,,AAXX 31034 07130 12/00 00506 10010 21020 30148 40202 55005 60006 80000 90300=
07130,1996-01-31 06:00:00,-1,1019.9,-0.4,86,-3,500,14.816,,,40,-0.7,6.6,,,,,,,,,wg-a,,,,AAXX 31064 07130 02/00 00408 11010 21030 30144 40199 56004 60006 80000 90600 333 10066 21007 60004=
07130,1996-01-31 09:00:00,-1,1020,0.1,86,-3,1500,18.52,,,70,,,,,,,,,,10,wg-a,,,,AAXX 31094 07130 12315 /0710 11010 21030 30145 40200 50001 60006 71011 86600 90900=
07130,1996-01-31 12:00:00,2,1018.5,-1.4,75,-2,500,18.52,,,60,,,,,,,,,,,wg-a,,,,AAXX 31124 07130 12400 /0610 10020 21020 30131 40185 58014 60006 85500 91200=
07130,1996-01-31 15:00:00,4,1015.8,-2.7,65,-2,7000,14.816,,,60,,,,,,,,,,,wg-a,,,,AAXX 31154 07130 12/57 00608 10040 21020 30104 40158 56027 60006 80000 91500=
07130,1996-01-31 18:00:00,2,1015.9,0.1,69,-3,7000,11.112,,,70,-1.3,3.9,,,,,,,,,wg-a,,,,AAXX 31184 07130 12/57 00706 10020 21030 30105 40159 53001 60006 80000 91800 333 10039 21013=
07130,1996-01-31 21:00:00,0,1015.2,-0.7,74,-4,7000,11.112,,,60,,,,,,,,,,,wg-a,,,,AAXX 31214 07130 12/57 00606 10000 21040 30098 40152 58007 60006 80000 92100=
07130,1996-02-01 00:00:00,-1,1013.7,-1.5,74,-5,10000,11.112,,,70,,,,,,,,,,,wg-a,,,,AAXX 01004 07130 12/60 00706 11010 21050 30083 40137 56015 60006 80000 90000=
07130,1996-02-01 03:00:00,0,1012.6,-1.1,86,-2,8000,14.816,,,100,,,,,,,,,,,wg-a,,,,AAXX 01034 07130 12358 81008 10000 21020 30072 40126 58011 60006 886// 90300=
07130,1996-02-01 06:00:00,1,1012,-0.6,86,-1,500,11.112,,,130,-1.4,1.8,,,,,,,,,wg-a,,,,AAXX 01064 07130 02300 81306 10010 21010 30066 40120 55006 60006 875// 90600 333 10018 21014 60004=
07130,1996-02-01 09:00:00,2,1012.7,0.7,87,0,500,11.112,,,120,,,,,,,,,,,wg-a,,,,AAXX 01094 07130 12600 /1206 10020 20000 30073 40127 51007 60006 85100 90900=
07130,1996-02-01 12:00:00,7,1012.4,-0.2,66,1,9000,14.816,,,130,,,,,,,,,,,wg-a,,,,AAXX 01124 07130 12/59 01308 10070 20010 30071 40124 58002 60006 80000 91200=
07130,1996-02-01 15:00:00,9,1010.9,-1.4,57,1,10000,11.112,,,110,,,,,,,,,,,wg-a,,,,AAXX 01154 07130 12/60 01106 10090 20010 30057 40109 56014 60006 80000 91500=
07130,1996-02-01 18:00:00,5,1011.4,0.4,75,1,10000,11.112,,,100,0.4,9.2,,,,,,,,,wg-a,,,,AAXX 01184 07130 12/60 01006 10050 20010 30061 40114 53004 60006 80000 91800 333 10092 20004=
07130,1996-02-01 21:00:00,3,1011.6,0.1,75,-1,10000,3.704,,,120,,,,,,,,,,,wg-a,,,,AAXX 01214 07130 12/60 01202 10030 21010 30062 40116 51001 60006 80000 92100=
07130,1996-02-02 00:00:00,0,1011.4,-0.2,86,-2,10000,7.408,,,20,,,,,,,,,,,wg-a,,,,AAXX 02004 07130 12/60 00204 10000 21020 30060 40114 56002 60006 80000 90000=
07130,1996-02-02 03:00:00,-2,1010.9,-0.5,93,-3,10000,3.704,,,290,,,,,,,,,,,wg-a,,,,AAXX 02034 07130 12/60 02902 11020 21030 30055 40109 56005 60006 80000 90300=
07130,1996-02-02 06:00:00,-3,1010.8,-0.2,93,-4,7000,3.704,,,320,-2.9,5.4,,,,,,,,,wg-a,,,,AAXX 02064 07130 02/57 03202 11030 21040 30053 40108 57002 60006 80000 90600 333 10054 21029 60004=
07130,1996-02-02 09:00:00,-1,1011.9,1.2,93,-2,500,0,,,0,,,,,,,,,,,wg-a,,,,AAXX 02094 07130 12/00 00000 11010 21020 30065 40119 51012 60006 80000 90900=
07130,1996-02-02 12:00:00,6,1011.8,0,65,0,9000,7.408,,,50,,,,,,,,,,,wg-a,,,,AAXX 02124 07130 12/59 00504 10060 20000 30065 40118 50000 60006 80000 91200=
07130,1996-02-02 15:00:00,9,1011.3,-0.4,53,0,15000,11.112,,,20,,,,,,,,,,,wg-a,,,,AAXX 02154 07130 12/65 00206 10090 20000 30061 40113 56004 60006 80000 91500=
07130,1996-02-02 18:00:00,5,1012.7,1.3,75,1,8000,7.408,,,10,-3,8.9,,,,,,,,,wg-a,,,,AAXX 02184 07130 12/58 00104 10050 20010 30074 40127 53013 60006 80000 91800 333 10089 21030=
07130,1996-02-02 21:00:00,3,1014.3,1.5,81,0,9000,11.112,,,30,,,,,,,,,,,wg-a,,,,AAXX 02214 07130 12/59 00306 10030 20000 30089 40143 52015 60006 80000 92100=
07130,1996-02-03 00:00:00,-1,1015.3,1,93,-2,4000,3.704,,,290,,,,,,,,,,10,wg-a,,,,AAXX 03004 07130 12/40 02902 11010 21020 30099 40153 52010 60006 71000 80000 90000=
07130,1996-02-03 03:00:00,1,1015.4,0.1,93,0,4000,7.408,,,20,,,,,,,,,,10,wg-a,,,,AAXX 03034 07130 12540 /0204 10010 20000 30100 40154 52001 60006 71011 85500 90300=
07130,1996-02-03 06:00:00,-1,1015.9,0.5,93,-2,3000,3.704,,,340,-0.9,4.8,,,,,,,,10,wg-a,,,,AAXX 03064 07130 02730 /3402 11010 21020 30105 40159 53005 60006 71011 86500 90600 333 10048 21009 60004=
07130,1996-02-03 09:00:00,-1,1017.2,1.2,93,-2,900,3.704,,,310,,,,,,,,,,44,wg-a,,,,AAXX 03094 07130 12709 73102 11010 21020 30117 40172 53012 60006 74441 875// 90900=
07130,1996-02-03 12:00:00,3,1017.1,0,81,0,3000,11.112,,,40,,,,,,,,,,10,wg-a,,,,AAXX 03124 07130 12730 80406 10030 20000 30117 40171 50000 60006 71041 885// 91200=
07130,1996-02-03 15:00:00,4,1016.3,-0.8,65,-2,6000,14.816,,,30,,,,,,,,,,,wg-a,,,,AAXX 03154 07130 12556 70308 10040 21020 30109 40163 56008 60006 875// 91500=
07130,1996-02-03 18:00:00,3,1017.3,1,81,0,6000,11.112,,,30,-1.6,4,,,,,,,,,wg-a,,,,AAXX 03184 07130 12556 70306 10030 20000 30119 40173 53010 60006 875// 91800 333 10040 21016=
07130,1996-02-03 21:00:00,3,1017.7,0.4,81,0,6000,14.816,,,30,,,,,,,,,,,wg-a,,,,AAXX 03214 07130 12556 80308 10030 20000 30123 40177 51004 60006 885// 92100=
07130,1996-02-04 00:00:00,2,1018.4,0.7,80,-1,9000,11.112,,,30,,,,,,,,,,,wg-a,,,,AAXX 04004 07130 12759 70306 10020 21010 30130 40184 51007 60006 875// 90000=
07130,1996-02-04 03:00:00,2,1017.9,-0.5,80,-1,10000,14.816,,,30,,,,,,,,,,,wg-a,,,,AAXX 04034 07130 12760 70308 10020 21010 30125 40179 56005 60006 875// 90300=
07130,1996-02-04 06:00:00,2,1018.4,0.5,80,-1,12000,11.112,,,30,1.8,3.1,,,,,,,,,wg-a,,,,AAXX 04064 07130 02662 70306 10020 21010 30130 40184 53005 60006 875// 90600 333 10031 20018 60004=
07130,1996-02-04 09:00:00,2,1019.3,0.9,80,-1,15000,11.112,,,350,,,,,,,,,,,wg-a,,,,AAXX 04094 07130 12565 73506 10020 21010 30139 40193 51009 60006 875// 90900=
07130,1996-02-04 12:00:00,3,1019.7,0.4,65,-3,11000,18.52,,,30,,,,,,,,,,,wg-a,,,,AAXX 04124 07130 12/61 /0310 10030 21030 30143 40197 50004 60006 91200=
07130,1996-02-04 15:00:00,4,1018.7,-1,52,-5,25000,14.816,,,30,,,,,,,,,,,wg-a,,,,AAXX 04154 07130 12575 /0308 10040 21050 30133 40187 56010 60006 86800 91500=
07130,1996-02-04 18:00:00,3,1019.5,0.8,60,-4,25000,14.816,,,40,1,4.1,,,,,,,,,wg-a,,,,AAXX 04184 07130 12675 70408 10030 21040 30141 40195 51008 60006 875// 91800 333 10041 20010=
07130,1996-02-04 21:00:00,1,1019.5,0,59,-6,25000,11.112,,,70,,,,,,,,,,,wg-a,,,,AAXX 04214 07130 12675 /0706 10010 21060 30141 40195 50000 60006 81500 92100=
07130,1996-02-05 00:00:00,-3,1019.2,-0.4,80,-6,20000,7.408,,,290,,,,,,,,,,,wg-a,,,,AAXX 05004 07130 12/70 02904 11030 21060 30137 40192 57004 60006 80000 90000=
07130,1996-02-05 03:00:00,-5,1017.4,-1.8,93,-6,20000,0,,,0,,,,,,,,,,,wg-a,,,,AAXX 05034 07130 12/70 00000 11050 21060 30119 40174 58018 60006 80000 90300=
07130,1996-02-05 06:00:00,-4,1015.8,-1.6,86,-6,10000,7.408,,,130,-5.1,3,,,,,,,,,wg-a,,,,AAXX 05064 07130 02/60 11304 11040 21060 30103 40158 57016 60006 80001 90600 333 10030 21051 60004=
07130,1996-02-05 09:00:00,-1,1014.2,-1.6,80,-4,500,7.408,,,150,,,,,,,,,,,wg-a,,,,AAXX 05094 07130 12/00 /1504 11010 21040 30087 40142 56016 60006 80001 90900=
07130,1996-02-05 12:00:00,2,1010.5,-3.6,64,-4,8000,29.632,,,160,,,,,,,,,,,wg-a,,,,AAXX 05124 07130 12/58 /1616 10020 21040 30051 40105 58036 60006 80006 91200=
07130,1996-02-05 15:00:00,2,1005.5,-4.9,64,-4,7000,25.928,,44.448,160,,,,,,,,,,,wg-a,,,,AAXX 05154 07130 12657 81614 10020 21040 30002 40055 58049 60006 8152/ 91500 333 91024=
07130,1996-02-05 18:00:00,0,1000.9,-4.7,93,-1,1000,22.224,,,140,-4.3,2.5,,1,,,,,,10,wg-a,,3,,AAXX 05184 07130 12510 81412 10000 21010 39955 40009 56047 60017 71072 8552/ 91800 333 10025 21043 4/003=
07130,1996-02-05 21:00:00,-1,996.5,-4.3,93,-2,600,25.928,,,140,,,,3,,,,,,72,wg-a,,,,AAXX 05214 07130 12106 81414 11010 21020 39912 49965 58043 60037 77277 8672/ 92100=
07130,1996-02-06 00:00:00,-1,991.2,-5.3,100,-1,4000,22.224,,,150,,,,4,,,,,,10,wg-a,,,,AAXX 06004 07130 02340 81512 11010 21010 39859 49912 56053 60076 71077 877// 90000 333 60047=
07130,1996-02-06 03:00:00,-1,988.2,-3,100,-1,500,11.112,,,120,,,,1,,,,,,22,wg-a,,,,AAXX 06034 07130 12200 81206 11010 21010 39829 49882 56030 60017 72272 887// 90300=
07130,1996-02-06 06:00:00,0,988.5,0.3,93,-1,3500,7.408,,,100,-1.2,-0.2,,0,,,9,,,10,wg-a,,11,,AAXX 06064 07130 02235 81004 10000 21010 39832 49885 53003 60094 71076 887// 90600 333 11002 21012 4/011 60007=
07130,1996-02-06 09:00:00,0,990.5,2,93,-1,2000,3.704,,,200,,,,,,,,,,10,wg-a,,,,AAXX 06094 07130 32/20 /2002 10000 21010 39852 49905 52020 710// 90900=
07130,1996-02-06 11:00:00,4,991.5,4.2,75,0,15000,25.928,,,300,-0.5,,,,,,,,,1,wg-a,,,,AAXX 06114 07130 02465 /3014 10040 20000 39863 49915 53042 61000 70186 86800 91100 333 21005 ////=
07130,1996-02-06 12:00:00,3,992.2,1.8,93,2,2500,0,,,0,,,,0,,,,,,10,wg-a,,,,AAXX 06124 07130 02325 80000 10030 20020 39870 49922 51018 60016 71076 876// 91200 333 60007=
07130,1996-02-06 15:00:00,4,997.2,5,93,3,8000,29.632,,55.56,310,,,,1,,,,,,16,wg-a,,,,AAXX 06154 07130 12458 73116 10040 20030 39920 49972 53050 60017 71662 8557/ 91500 333 91030=
07130,1996-02-06 18:00:00,4,1001.5,4.2,75,0,15000,25.928,,,300,-0.5,5,,,,,,,,1,wg-a,,,,AAXX 06184 07130 02465 /3014 10040 20000 39962 40015 53042 61000 70186 86800 91800 333 10050 21005 ////=
07130,1996-02-06 21:00:00,2,1003.6,2.1,87,0,15000,14.816,,,280,,,,,,,,,,,wg-a,,,,AAXX 06214 07130 12665 /2808 10020 20000 39983 40036 51021 60006 81500 92100=
07130,1996-02-07 00:00:00,2,1004.1,0.5,80,-1,15000,14.816,,,270,,,,,,,,,,,wg-a,,,,AAXX 07004 07130 12665 /2708 10020 21010 39988 40041 53005 60006 81500 90000=
07130,1996-02-07 06:00:00,2,995.9,-6,80,-1,12000,14.816,,,160,0.6,4.7,,,,,1,,,60,wg-a,,,,AAXX 07064 07130 02662 81608 10020 21010 39906 49959 57060 60014 76061 8157/ 90600 333 10047 20006 61000=
07130,1996-02-07 09:00:00,1,989.1,-6.8,93,0,500,29.632,,,150,,,,4,,,,,,61,wg-a,,,,AAXX 07094 07130 12200 81516 10010 20000 39838 49891 58068 60047 76176 887// 90900=
07130,1996-02-07 12:00:00,3,983.6,-5.4,93,2,12000,14.816,,,170,,,,3,,,,,,21,wg-a,,,,AAXX 07124 07130 02362 71708 10030 20020 39784 49836 56054 60066 72176 8427/ 91200 333 60037=
07130,1996-02-07 15:00:00,6,977.6,-5.9,93,5,8000,25.928,,,240,,,,0,,,,,,61,wg-a,,,,AAXX 07154 07130 12458 82414 10060 20050 39725 49776 56059 60007 76162 8582/ 91500=
07130,1996-02-07 18:00:00,3,985.2,7.5,93,2,9000,42.596,,61.116,350,0.7,7.4,,0,,,,,,60,wg-a,,,,AAXX 07184 07130 12259 83523 10030 20020 39800 49852 53075 60007 76062 872// 91800 333 10074 20007 91033=
07130,1996-02-07 21:00:00,3,999.4,0.9,87,1,12000,31.484,,59.264,350,,,,1,,,,,,61,wg-a,,,,AAXX 07214 07130 12462 83517 10030 20010 39941 49994 51119 60017 76162 878// 92100 333 91032=
07130,1996-02-08 00:00:00,3,1006,6.6,87,1,15000,18.52,,,320,,,,,,,,,,21,wg-a,,,,AAXX 08004 07130 02565 73210 10030 20010 30007 40060 51066 60016 72162 878// 90000 333 61000=
07130,1996-02-08 03:00:00,3,1009.4,3.4,87,1,15000,11.112,,,280,,,,,,,,,,,wg-a,,,,AAXX 08034 07130 12565 72806 10030 20010 30041 40094 51034 60006 878// 90300=
07130,1996-02-08 06:00:00,3,1013.6,4.1,93,2,15000,18.52,,,290,2.5,3.7,,1,,,9,,,,wg-a,,,,AAXX 08064 07130 02565 42910 10030 20020 30082 40136 51041 60094 82230 90600 333 10037 20025 60017=
07130,1996-02-08 09:00:00,4,1017.3,3.7,87,2,10000,22.224,,,310,,,,1,,,,,,16,wg-a,,,,AAXX 08094 07130 12360 43112 10040 20020 30119 40173 53037 60017 71681 84900 90900=
07130,1996-02-08 12:00:00,8,1018.6,1.4,66,2,25000,22.224,,,320,,,,0,,,,,,1,wg-a,,,,AAXX 08124 07130 02575 33212 10080 20020 30133 40186 51014 60026 70187 83200 91200 333 60007=
07130,1996-02-08 15:00:00,9,1019.4,0.8,53,0,40000,14.816,,,330,,,,,,,,,,,wg-a,,,,AAXX 08154 07130 12682 /3308 10090 20000 30141 40194 51008 60006 84850 91500=
07130,1996-02-08 18:00:00,7,1020.4,1,70,2,25000,3.704,,,230,2.3,9.1,,,,,,,,,wg-a,,,,AAXX 08184 07130 32575 72302 10070 20020 30151 40204 53010 8487/ 91800 333 10091 20023=
07130,1996-02-08 21:00:00,6,1019.9,-0.5,81,3,25000,7.408,,,180,,,,,,,,,,25,wg-a,,,,AAXX 08214 07130 02675 71804 10060 20030 30146 40199 58005 61000 72586 878// 92100 333 ////=
07130,1996-02-09 00:00:00,5,1018.8,-1.1,81,2,25000,14.816,,,190,,,,,,,,,,1,wg-a,,,,AAXX 09004 07130 02/75 01908 10050 20020 30135 40188 56011 61000 70186 80000 90000 333 ////=
07130,1996-02-09 03:00:00,4,1016.4,-2.4,87,2,25000,18.52,,,170,,,,,,,,,,,wg-a,,,,AAXX 09034 07130 12/75 51710 10040 20020 30111 40164 58024 60006 81032 90300=
07130,1996-02-09 06:00:00,6,1013.5,-2.9,81,3,25000,22.224,,,180,4.2,7.4,,,,,2,,,,wg-a,,,,AAXX 09064 07130 12575 81812 10060 20030 30082 40135 57029 60024 8387/ 90600 333 10074 20042=
07130,1996-02-09 09:00:00,6,1011.6,-1.9,81,3,18000,31.484,,,170,,,,,,,,,,21,wg-a,,,,AAXX 09094 07130 02668 81717 10060 20030 30063 40116 58019 61000 72122 8357/ 90900 333 ////=
07130,1996-02-09 12:00:00,7,1009.6,-2,61,0,25000,31.484,,,180,,,,0,,,,,,,wg-a,,,,AAXX 09124 07130 02675 81817 10070 20000 30043 40096 58020 60006 8357/ 91200 333 60007=
07130,1996-02-09 15:00:00,7,1006.1,-3.4,66,1,1000,31.484,,,170,,,,,,,,,,60,wg-a,,,,AAXX 09154 07130 02510 81717 10070 20010 30009 40061 56034 61000 76062 8557/ 91500 333 ////=
07130,1996-02-09 18:00:00,6,1006.7,0.5,93,5,25000,18.52,,,180,5.7,7.7,,0,,,,,,1,wg-a,,,,AAXX 09184 07130 12575 51810 10060 20050 30014 40067 51005 60007 70162 85900 91800 333 10077 20057=
07130,1996-02-09 21:00:00,6,1007.4,0.7,93,5,15000,11.112,,,220,,,,,,,,,,,wg-a,,,,AAXX 09214 07130 12565 42206 10060 20050 30021 40074 52007 60006 82830 92100=
07130,1996-02-10 00:00:00,4,1008.5,1.1,93,3,15000,14.816,,,220,,,,,,,,,,,wg-a,,,,AAXX 10004 07130 12665 /2208 10040 20030 30032 40085 51011 60006 81500 90000=
07130,1996-02-10 03:00:00,4,1009,0.5,87,2,15000,7.408,,,210,,,,,,,,,,,wg-a,,,,AAXX 10034 07130 12/65 02104 10040 20020 30037 40090 51005 60006 80000 90300=
07130,1996-02-10 06:00:00,3,1009,-0,93,2,40000,11.112,,,210,3,6.5,,,,,,,,,wg-a,,,,AAXX 10064 07130 02/82 12106 10030 20020 30037 40090 54000 60006 81040 90600 333 10065 20030 60004=
07130,1996-02-10 09:00:00,5,1010,1,81,2,25000,14.816,,,210,,,,,,,,,,,wg-a,,,,AAXX 10094 07130 12/75 12108 10050 20020 30047 40100 51010 60006 81030 90900=
07130,1996-02-10 12:00:00,10,1009.9,0,66,4,35000,22.224,,,260,,,,,,,,,,,wg-a,,,,AAXX 10124 07130 12581 42612 10100 20040 30047 40099 50000 60006 83102 91200=
07130,1996-02-10 15:00:00,10,1010,0.1,66,4,11000,18.52,,,250,,,,,,,,,,,wg-a,,,,AAXX 10154 07130 12/61 /2510 10100 20040 30048 40100 53001 60006 91500=
07130,1996-02-10 18:00:00,6,1011.6,1.5,87,4,25000,18.52,,,290,2.6,10.7,,0,,,,,,,wg-a,,,,AAXX 10184 07130 12675 72910 10060 20040 30063 40116 53015 60007 875// 91800 333 10107 20026=
07130,1996-02-10 21:00:00,4,1012.3,0.7,93,3,20000,11.112,,,250,,,,,,,,,,,wg-a,,,,AAXX 10214 07130 12670 32506 10040 20030 30070 40123 52007 60006 83500 92100=
07130,1996-02-11 00:00:00,3,1012.8,0.4,93,2,20000,11.112,,,240,,,,,,,,,,,wg-a,,,,AAXX 11004 07130 12/70 02406 10030 20020 30074 40128 53004 60006 80000 90000=
07130,1996-02-11 03:00:00,2,1013,0.2,93,1,20000,7.408,,,210,,,,,,,,,,,wg-a,,,,AAXX 11034 07130 12670 /2104 10020 20010 30076 40130 52002 60006 81500 90300=
07130,1996-02-11 06:00:00,1,1013.5,0.5,93,0,20000,11.112,,,260,0.7,6.1,,,,,,,,,wg-a,,,,AAXX 11064 07130 02670 /2606 10010 20000 30081 40135 53005 60006 81500 90600 333 10061 20007 60004=
07130,1996-02-11 09:00:00,4,1014.7,1.3,93,3,25000,3.704,,,270,,,,,,,,,,,wg-a,,,,AAXX 11094 07130 12575 52702 10040 20030 30094 40147 53013 60006 83831 90900=
07130,1996-02-11 12:00:00,9,1015.4,0.8,71,4,500,22.224,,,290,,,,,,,,,,,wg-a,,,,AAXX 11124 07130 12500 52912 10090 20040 30102 40154 53008 60006 84801 91200=
07130,1996-02-11 15:00:00,10,1015,-0.4,71,5,35000,11.112,,,260,,,,1,,,,,,3,wg-a,,,,AAXX 11154 07130 12681 72606 10100 20050 30098 40150 56004 60017 70386 84802 91500=
07130,1996-02-11 18:00:00,8,1015.2,0.1,81,5,35000,11.112,,,230,1.3,10.4,,,,,,,,1,wg-a,,,,AAXX 11184 07130 32681 72306 10080 20050 30099 40152 53001 70186 82102 91800 333 10104 20013=
07130,1996-02-11 21:00:00,7,1014.2,-1,87,5,35000,11.112,,,220,,,,,,,,,,,wg-a,,,,AAXX 11214 07130 12681 /2206 10070 20050 30089 40142 58010 60006 86500 92100=
07130,1996-02-12 00:00:00,8,1011.1,-3,87,6,20000,22.224,,,220,,,,,,,,,,60,wg-a,,,,AAXX 12004 07130 02470 82212 10080 20060 30059 40111 58030 61000 76061 885// 90000 333 6100=
07130,1996-02-12 03:00:00,9,1005.6,-5.5,93,8,20000,29.632,,,220,,,,0,,,,,,21,wg-a,,,,AAXX 12034 07130 12370 82216 10090 20080 30004 40056 57055 60007 72162 885// 90300=
07130,1996-02-12 06:00:00,10,999.8,-5.7,93,9,500,31.484,,,230,6.9,10.4,,0,,,1,,,61,wg-a,,,,AAXX 12064 07130 02300 82317 10100 20090 39947 49998 56057 60014 76165 885// 90600 333 10104 20069 60007=
07130,1996-02-12 09:00:00,8,999.5,-0.4,81,5,20000,31.484,,,300,,,,2,,,,,,21,wg-a,,,,AAXX 12094 07130 12470 83017 10080 20050 39943 49995 55004 60027 72162 885// 90900=
07130,1996-02-12 12:00:00,10,999,-0.4,62,3,500,35.188,,57.412,280,,,,,,,,,,1,wg-a,,,,AAXX 12124 07130 12600 42819 10100 20030 39939 49990 58004 60026 70161 84100 91200 333 91031=
07130,1996-02-12 15:00:00,11,996.2,-2.8,62,4,25000,50.004,,81.488,270,,,,,,,,,,25,wg-a,,,,AAXX 12154 07130 02675 /2727 10110 20040 39911 49962 56028 61000 72511 85200 91500 333 //// 91044=
07130,1996-02-12 18:00:00,8,999,2.7,81,5,6000,50.004,,68.524,300,7,11.6,,3,,,,,,80,wg-a,,,,AAXX 12184 07130 12556 73027 10080 20050 39938 49990 53027 60037 78086 878// 91800 333 10116 20070 91037=
07130,1996-02-12 21:00:00,9,1003.2,4.2,71,4,11000,35.188,,53.708,310,,,,0,,,,,,,wg-a,,,,AAXX 12214 07130 12/61 /3119 10090 20040 39980 40032 51042 60007 92100 333 91029=
07130,1996-02-13 00:00:00,8,1006.1,2.9,76,4,11000,31.484,,51.856,320,,,,,,,,,,,wg-a,,,,AAXX 13004 07130 12/61 /3217 10080 20040 30009 40061 51029 60016 90000 333 91028=
07130,1996-02-13 03:00:00,6,1007.4,1.2,75,2,20000,14.816,,,290,,,,,,,,,,,wg-a,,,,AAXX 13034 07130 12570 72908 10060 20020 30021 40074 51012 60006 878// 90300=
07130,1996-02-13 06:00:00,6,1009.3,1.9,75,2,20000,14.816,,,340,4.4,9.2,,,,,5,,,,wg-a,,,,AAXX 13064 07130 12670 /3408 10060 20020 30040 40093 53019 60054 85500 90600 333 10092 20044=
07130,1996-02-13 09:00:00,7,1011.4,2.1,76,3,20000,25.928,,,340,,,,,,,,,,,wg-a,,,,AAXX 13094 07130 12670 /3414 10070 20030 30061 40114 52021 60006 81800 90900=
07130,1996-02-13 12:00:00,8,1013.1,1.7,61,1,500,29.632,,,20,,,,,,,,,,,wg-a,,,,AAXX 13124 07130 12500 70216 10080 20010 30078 40131 51017 60006 878// 91200=
07130,1996-02-13 15:00:00,6,1014.8,1.7,81,3,20000,22.224,,,20,,,,0,,,,,,25,wg-a,,,,AAXX 13154 07130 12570 70212 10060 20030 30095 40148 53017 60007 72586 878// 91500=
07130,1996-02-13 18:00:00,5,1017.6,2.8,81,2,20000,18.52,,,20,4,8.8,,0,,,,,,3,wg-a,,,,AAXX 13184 07130 12570 /0210 10050 20020 30123 40176 53028 60007 70386 86800 91800 333 10088 20040=
07130,1996-02-13 21:00:00,5,1020.8,3.1,75,1,12000,18.52,,,20,,,,,,,,,,,wg-a,,,,AAXX 13214 07130 12562 /0210 10050 20010 30154 40208 51031 60006 86800 92100=
07130,1996-02-14 00:00:00,5,1023.4,2.6,75,1,11000,22.224,,,20,,,,,,,,,,,wg-a,,,,AAXX 14004 07130 12461 70212 10050 20010 30180 40234 52026 60006 878// 90000=
07130,1996-02-14 03:00:00,4,1025.2,1.8,75,0,11000,22.224,,,20,,,,,,,,,,,wg-a,,,,AAXX 14034 07130 12561 70212 10040 20000 30198 40252 53018 60006 878// 90300=
07130,1996-02-14 06:00:00,4,1027,1.8,70,-1,12000,18.52,,,10,3.2,5.6,,,,,1,,,,wg-a,,,,AAXX 14064 07130 02662 /0110 10040 21010 30216 40270 53018 60006 86500 90600 333 10056 20032 60014=
07130,1996-02-14 09:00:00,5,1029.6,2.6,65,-1,15000,22.224,,,10,,,,,,,,,,,wg-a,,,,AAXX 14094 07130 12665 /0112 10050 21010 30242 40296 53026 60006 85500 90900=
07130,1996-02-14 12:00:00,6,1030.7,1.1,56,-2,25000,29.632,,,30,,,,,,,,,,,wg-a,,,,AAXX 14124 07130 12675 70316 10060 21020 30253 40307 51011 60006 875// 91200=
07130,1996-02-14 15:00:00,6,1031.7,1,61,-1,20000,29.632,,,30,,,,,,,,,,,wg-a,,,,AAXX 14154 07130 12670 70316 10060 21010 30263 40317 51010 60006 875// 91500=
07130,1996-02-14 18:00:00,5,1033.9,2.2,70,0,20000,25.928,,,30,3.7,6.3,,,,,,,,,wg-a,,,,AAXX 14184 07130 12670 /0314 10050 20000 30285 40339 53022 60006 86500 91800 333 10063 20037=
07130,1996-02-14 21:00:00,4,1035.3,1.3,65,-2,20000,14.816,,,40,,,,,,,,,,,wg-a,,,,AAXX 14214 07130 12670 /0408 10040 21020 30298 40353 53013 60006 85500 92100=
07130,1996-02-15 00:00:00,1,1036.9,1.6,80,-2,20000,11.112,,,10,,,,,,,,,,,wg-a,,,,AAXX 15004 07130 12670 /0106 10010 21020 30314 40369 53016 60006 85500 90000=
07130,1996-02-15 03:00:00,3,1036.8,-0.1,70,-2,20000,11.112,,,50,,,,,,,,,,,wg-a,,,,AAXX 15034 07130 12670 70506 10030 21020 30313 40368 58001 60006 875// 90300=
07130,1996-02-15 06:00:00,3,1037.4,0.6,65,-3,20000,7.408,,,40,0.8,4.8,,,,,,,,,wg-a,,,,AAXX 15064 07130 02570 70404 10030 21030 30319 40374 51006 60006 875// 90600 333 10048 20008 60004=
07130,1996-02-15 09:00:00,4,1038.7,1.3,65,-2,15000,11.112,,,40,,,,,,,,,,,wg-a,,,,AAXX 15094 07130 12665 70406 10040 21020 30332 40387 53013 60006 875// 90900=
07130,1996-02-15 12:00:00,5,1038.2,-0.5,60,-2,25000,14.816,,,40,,,,,,,,,,,wg-a,,,,AAXX 15124 07130 12575 70408 10050 21020 30327 40382 58005 60006 86401 91200=
07130,1996-02-15 15:00:00,6,1037,-1.1,61,-1,20000,18.52,,,10,,,,,,,,,,,wg-a,,,,AAXX 15154 07130 12570 70110 10060 21010 30316 40370 56011 60006 86532 91500=
07130,1996-02-15 18:00:00,5,1036.5,-0.5,65,-1,17000,11.112,,,350,2.3,6.1,,,,,,,,,wg-a,,,,AAXX 15184 07130 12/67 63506 10050 21010 30311 40365 57005 60006 84032 91800 333 10061 20023=
07130,1996-02-15 21:00:00,3,1036.3,-0.3,81,0,20000,7.408,,,310,,,,,,,,,,,wg-a,,,,AAXX 15214 07130 12770 73104 10030 20000 30308 40363 58003 60006 875// 92100=
07130,1996-02-16 00:00:00,3,1035.8,-0.5,87,1,15000,7.408,,,260,,,,,,,,,,,wg-a,,,,AAXX 16004 07130 12765 72604 10030 20010 30303 40358 57005 60006 875// 90000=
07130,1996-02-16 03:00:00,3,1033.9,-1.9,87,1,15000,7.408,,,270,,,,,,,,,,,wg-a,,,,AAXX 16034 07130 12/65 02704 10030 20010 30284 40339 58019 60006 80000 90300=
07130,1996-02-16 06:00:00,5,1032.8,-1,87,3,15000,11.112,,,280,2,4.6,,,,,,,,,wg-a,,,,AAXX 16064 07130 02565 72806 10050 20030 30274 40328 58010 60006 875// 90600 333 10046 20020 60004=
07130,1996-02-16 09:00:00,6,1033.2,0.4,87,4,14000,14.816,,,280,,,,,,,,,,,wg-a,,,,AAXX 16094 07130 12564 82808 10060 20040 30278 40332 51004 60006 885// 90900=
07130,1996-02-16 12:00:00,9,1032.3,-0.8,76,5,15000,14.816,,,290,,,,,,,,,,,wg-a,,,,AAXX 16124 07130 12565 82908 10090 20050 30270 40323 57008 60006 885// 91200=
07130,1996-02-16 18:00:00,9,1030.5,-0.2,93,8,10000,22.224,,,310,4.5,10.5,,,,,,,,,wg-a,,,,AAXX 16184 07130 12360 83112 10090 20080 30252 40305 55002 60006 885// 91800 333 10105 20045=
07130,1996-02-16 21:00:00,9,1030.5,-0,81,6,25000,14.816,,,310,,,,,,,,,,1,wg-a,,,,AAXX 16214 07130 02575 /3108 10090 20060 30252 40305 55000 61000 70152 86500 92100 333 ////=
07130,1996-02-17 00:00:00,6,1030.4,-0.2,93,5,20000,14.816,,,300,,,,,,,,,,1,wg-a,,,,AAXX 17004 07130 02570 /3008 10060 20050 30250 40304 55002 61000 70151 81500 90000 333 ////=
07130,1996-02-17 03:00:00,7,1029.4,-1,87,5,20000,14.816,,,290,,,,,,,,,,,wg-a,,,,AAXX 17034 07130 12570 72908 10070 20050 30240 40294 56010 60006 875// 90300=
07130,1996-02-17 06:00:00,8,1029.2,-0.1,81,5,15000,18.52,,,310,6,9.3,,,,,,,,,wg-a,,,,AAXX 17064 07130 02665 73110 10080 20050 30239 40292 55001 61000 875// 90600 333 10093 20060 ////=
07130,1996-02-17 09:00:00,8,1029.8,0.6,81,5,12000,18.52,,,300,,,,,,,,,,,wg-a,,,,AAXX 17094 07130 12662 83010 10080 20050 30245 40298 53006 60006 885// 90900=
07130,1996-02-17 12:00:00,10,1029.3,-0.5,71,5,15000,25.928,,,310,,,,,,,,,,,wg-a,,,,AAXX 17124 07130 12565 73114 10100 20050 30240 40293 58005 60006 878// 91200=
07130,1996-02-17 15:00:00,10,1028.4,-0.9,66,4,18000,25.928,,,320,,,,,,,,,,,wg-a,,,,AAXX 17154 07130 12568 73214 10100 20040 30231 40284 58009 60006 878// 91500=
07130,1996-02-17 18:00:00,8,1027.8,-0.6,81,5,20000,7.408,,,300,7.2,10.6,,,,,,,,,wg-a,,,,AAXX 17184 07130 12570 73004 10080 20050 30225 40278 58006 60006 878// 91800 333 10106 20072=
07130,1996-02-17 21:00:00,8,1026.1,-1.7,71,3,20000,11.112,,,240,,,,,,,,,,,wg-a,,,,AAXX 17214 07130 12670 72406 10080 20030 30208 40261 58017 60006 875// 92100=
07130,1996-02-18 00:00:00,7,1022.8,-3.3,76,3,20000,18.52,,,230,,,,,,,,,,,wg-a,,,,AAXX 18004 07130 12/70 52310 10070 20030 30175 40228 58033 60006 84032 90000=
07130,1996-02-18 03:00:00,8,1018.4,-4.4,81,5,20000,25.928,,,250,,,,,,,,,,,wg-a,,,,AAXX 18034 07130 12470 72514 10080 20050 30131 40184 58044 60006 875// 90300=
07130,1996-02-18 06:00:00,8,1013.8,-4.6,93,7,15000,29.632,,,240,6.8,8.4,,,,,,,,,wg-a,,,,AAXX 18064 07130 02365 82416 10080 20070 30085 40138 58046 60006 875// 90600 333 10084 20068 60004=
07130,1996-02-18 09:00:00,10,1009.3,-4.4,87,8,8000,31.484,,,260,,,,0,,,,,,61,wg-a,,,,AAXX 18094 07130 12358 82617 10100 20080 30041 40093 56044 60007 76162 875// 90900=
07130,1996-02-18 12:00:00,9,1007.7,-1.6,76,5,20000,25.928,,,300,,,,1,,,,,,1,wg-a,,,,AAXX 18124 07130 02570 73014 10090 20050 30025 40077 58016 60016 70162 8687/ 91200 333 60017=
07130,1996-02-18 15:00:00,10,1004.9,-2.8,62,3,20000,29.632,,,280,,,,,,,,,,80,wg-a,,,,AAXX 18154 07130 02670 72816 10100 20030 39997 40049 56028 61000 78087 86302 91500 333 ////=
07130,1996-02-18 18:00:00,5,1003.2,-1.8,87,3,25000,18.52,,,270,4.2,10.1,,1,,,,,,3,wg-a,,,,AAXX 18184 07130 12675 72710 10050 20030 39979 40032 58018 60017 70387 8687/ 91800 333 10101 20042=
07130,1996-02-18 21:00:00,4,1001.8,-1.4,93,3,15000,18.52,,,280,,,,2,,,,,,80,wg-a,,,,AAXX 18214 07130 12465 72810 10040 20030 39965 40018 58014 60027 78086 8237/ 92100=
07130,1996-02-19 00:00:00,4,999.6,-2.2,87,2,15000,18.52,,,260,,,,2,,,,,,16,wg-a,,,,AAXX 19004 07130 02465 62610 10040 20020 39943 49996 56022 60056 71686 82932 90000 333 60027=
07130,1996-02-19 03:00:00,4,997.8,-1.8,93,3,15000,7.408,,,250,,,,1,,,,,,60,wg-a,,,,AAXX 19034 07130 12465 62504 10040 20030 39925 49978 56018 60017 76062 83832 90300=
07130,1996-02-19 06:00:00,4,999,1.2,93,3,18000,11.112,,35.188,320,2.2,5.5,,0,,,8,,,25,wg-a,,,,AAXX 19064 07130 02568 73206 10040 20030 39937 49990 53012 60084 72586 878// 90600 333 10055 20022 60007 91019=
07130,1996-02-19 09:00:00,3,1004,5,70,-2,11000,31.484,,48.152,20,,,,,,,,,,,wg-a,,,,AAXX 19094 07130 02/61 /0217 10030 21020 39987 40040 51050 61000 90900 333 //// 91026=
07130,1996-02-19 12:00:00,3,1007.7,3.7,60,-4,20000,31.484,,55.56,10,,,,,,,,,,1,wg-a,,,,AAXX 19124 07130 02670 80117 10030 21040 30024 40077 51037 61000 70162 885// 91200 333 //// 91030=
07130,1996-02-19 15:00:00,3,1009.5,1.8,52,-6,25000,38.892,,,20,,,,,,,,,,15,wg-a,,,,AAXX 19154 07130 12675 70221 10030 21060 30042 40095 53018 60006 71522 875// 91500=
07130,1996-02-19 18:00:00,2,1011.3,1.7,64,-4,25000,18.52,,46.3,10,2,4.3,,,,,,,,,wg-a,,,,AAXX 19184 07130 32675 /0110 10020 21040 30059 40113 52017 83800 91800 333 10043 20020 91025=
07130,1996-02-19 21:00:00,0,1012.5,1.2,93,-1,20000,7.408,,,50,,,,0,,,,,,85,wg-a,,,,AAXX 19214 07130 12470 70504 10000 21010 30071 40125 51012 60007 78587 878// 92100=
07130,1996-02-20 00:00:00,-1,1013.2,0.7,93,-2,15000,18.52,,,320,,,,,,,,,,26,wg-a,,,,AAXX 20004 07130 02565 /3210 11010 21020 30078 40132 52007 60006 72687 86800 90000 333 61000=
07130,1996-02-20 03:00:00,-1,1012.8,-0.4,86,-3,2000,11.112,,,340,,,,0,,,,,,22,wg-a,,,,AAXX 20034 07130 12520 /3406 11010 21030 30074 40128 56004 60007 72222 85500 90300=
07130,1996-02-20 06:00:00,0,1012.5,-0.3,86,-2,3000,31.484,,,360,-1.4,2.2,,0,,,1,,,85,wg-a,,1,,AAXX 20064 07130 02430 73617 10000 21020 30071 40125 56003 60014 78587 875// 90600 333 10022 21014 4/001 60007=
07130,1996-02-20 09:00:00,0,1015.4,2.9,93,-1,8000,31.484,,44.448,20,,,,1,,,,,,10,wg-a,,,,AAXX 20094 07130 12458 80217 10000 21010 30100 40154 53029 60017 71087 885// 90900 333 91024=
07130,1996-02-20 12:00:00,1,1018.2,2.8,80,-2,15000,38.892,,72.228,20,,,,,,,,,,22,wg-a,,,,AAXX 20124 07130 02565 70221 10010 21020 30128 40182 51028 60016 72287 878// 91200 333 61000 91039=
07130,1996-02-20 15:00:00,1,1018.8,0.6,75,-3,7000,38.892,,62.968,20,,,,,,,,,,85,wg-a,,,,AAXX 20154 07130 02557 80221 10010 21030 30134 40188 53006 61000 78587 888// 91500 333 //// 91034=
07130,1996-02-20 18:00:00,1,1020.3,1.5,75,-3,10000,31.484,,53.708,20,0,1.9,,,,,,,,22,wg-a,,1,,AAXX 20184 07130 02560 80217 10010 21030 30149 40203 51015 61000 72287 888// 91800 333 10019 20000 4/001 //// 91029=
07130,1996-02-20 21:00:00,1,1021.3,1,75,-3,10000,31.484,,53.708,20,,,,,,,,,,70,wg-a,,,,AAXX 20214 07130 02560 80217 10010 21030 30159 40213 50010 61000 77072 885// 92100 333 //// 91029=
07130,1996-02-21 00:00:00,1,1022.1,0.8,86,-1,10000,29.632,,50.004,20,,,,,,,,,,71,wg-a,,,,AAXX 21004 07130 02460 80216 10010 21010 30167 40221 53008 61000 77172 885// 90000 333 6100 91027=
07130,1996-02-21 03:00:00,0,1022.6,0.4,69,-5,15000,25.928,,,30,,,,,,,,,,1,wg-a,,,,AAXX 21034 07130 02565 /0314 10000 21050 30171 40226 53004 61000 70171 81500 90300 333 ////=
07130,1996-02-21 06:00:00,-2,1023.2,0.6,69,-7,40000,29.632,,50.004,30,-1.8,1.4,,,,,1,,,1,wg-a,,0,,AAXX 21064 07130 12/82 00316 11020 21070 30177 40232 53006 60014 70171 80000 90600 333 10014 21018 4/000 91027=
07130,1996-02-21 12:00:00,1,1024.7,0.3,55,-7,500,29.632,,,30,,,,,,,,,,,wg-a,,,,AAXX 21124 07130 12500 40316 10010 21070 30192 40247 50003 60006 84800 91200=
07130,1996-02-21 15:00:00,1,1024.1,-0.5,80,-2,10000,25.928,,,10,,,,,,,,,,26,wg-a,,,,AAXX 21154 07130 02460 /0114 10010 21020 30187 40241 55005 61000 72687 86800 91500 333 ////=
07130,1996-02-21 18:00:00,1,1025.4,1.2,75,-3,15000,14.816,,,20,-2.4,1.8,,,,,,,,1,wg-a,,,,AAXX 21184 07130 02565 30208 10010 21030 30199 40254 52012 61000 70187 83800 91800 333 10018 21024 ////=
07130,1996-02-21 21:00:00,-1,1026.8,1.4,80,-4,15000,11.112,,,350,,,,,,,,,,,wg-a,,,,AAXX 21214 07130 12/65 03506 11010 21040 30213 40268 53014 60006 80000 92100=
07130,1996-02-22 00:00:00,-2,1026.6,-0.2,86,-4,15000,7.408,,,290,,,,,,,,,,,wg-a,,,,AAXX 22004 07130 12665 /2904 11020 21040 30211 40266 57002 60006 81500 90000=
07130,1996-02-22 06:00:00,-2,1025.7,-0.5,86,-4,15000,3.704,,,250,-4.2,0.5,,,,,,,,,wg-a,,,,AAXX 22064 07130 02665 82502 11020 21040 30202 40257 56005 60006 8652/ 90600 333 10005 21042 61000=
07130,1996-02-22 09:00:00,0,1025.2,-0.5,93,-1,2500,11.112,,,240,,,,,,,,,,71,wg-a,,,,AAXX 22094 07130 02825 82406 10000 21010 30197 40252 58005 61000 77172 8802/ 90900 333 ////=
07130,1996-02-22 12:00:00,2,1023.1,-2,93,1,3000,11.112,,,220,,,,1,,,,,,61,wg-a,,,,AAXX 22124 07130 02230 82206 10020 20010 30177 40231 58020 60016 76176 8572/ 91200 333 60017=
07130,1996-02-22 15:00:00,5,1019.8,-3.3,93,4,4000,11.112,,,230,,,,1,,,,,,10,wg-a,,,,AAXX 22154 07130 12240 82306 10050 20040 30144 40198 56033 60017 71062 877// 91500=
07130,1996-02-22 18:00:00,6,1018.6,,93,5,10000,11.112,,,280,-1.9,6.2,,0,,,,,,0,wg-a,,,,AAXX 22184 07130 12460 72806 10060 20050 30133 40186 60007 700// 878// 91800 333 10062 21019=
07130,1996-02-22 21:00:00,4,1018.5,-0.2,93,3,20000,11.112,,,300,,,,,,,,,,,wg-a,,,,AAXX 22214 07130 12570 83006 10040 20030 30131 40185 56002 60006 888// 92100=
07130,1996-02-23 00:00:00,3,1018.4,-0.1,100,3,25000,7.408,,,290,,,,1,,,,,,25,wg-a,,,,AAXX 23004 07130 02575 82904 10030 20030 30130 40184 58001 60016 72582 878// 90000 333 60017=
07130,1996-02-23 03:00:00,3,1017.7,-0.7,93,2,25000,11.112,,,270,,,,,,,,,,,wg-a,,,,AAXX 23034 07130 12775 82706 10030 20020 30123 40177 58007 60006 875// 90300=
07130,1996-02-23 06:00:00,3,1017.5,-0.2,93,2,40000,11.112,,,280,2.6,5.9,,,,,3,,,,wg-a,,,,AAXX 23064 07130 12682 82806 10030 20020 30121 40175 56002 60034 875// 90600 333 10059 20026=
07130,1996-02-23 07:00:00,3,1017.5,-0.2,93,2,40000,11.112,,,280,2.6,,,,,,3,,,0,wg-a,,,,AAXX 23074 07130 12682 82806 10030 20020 30121 40175 56002 60034 700// 875// 90700 333 20026=
07130,1996-02-23 12:00:00,8,1017.3,-0.5,61,1,20000,11.112,,,250,,,,,,,,,,,wg-a,,,,AAXX 23124 07130 12670 72506 10080 20010 30120 40173 58005 60006 875// 91200=
07130,1996-02-23 15:00:00,8,1015.7,-1.6,81,5,10000,14.816,,,210,,,,,,,,,,50,wg-a,,,,AAXX 23154 07130 02460 82108 10080 20050 30104 40157 57016 61000 75052 8452/ 91500 333 ////=
07130,1996-02-23 18:00:00,7,1014.8,-0.9,93,6,10000,14.816,,,200,3.1,8.1,,,,,,,,3,wg-a,,,,AAXX 23184 07130 02460 82008 10070 20060 30095 40148 56009 61000 70352 875// 91800 333 10081 20031 ////=
07130,1996-02-23 21:00:00,7,1014,-0.8,100,7,6000,14.816,,,200,,,,,,,,,,51,wg-a,,,,AAXX 23214 07130 02256 82008 10070 20070 30087 40140 58008 61000 75165 857// 92100 333 ////=
07130,1996-02-24 00:00:00,8,1012.5,-1.5,93,7,12000,14.816,,,200,,,,,,,,,,1,wg-a,,,,AAXX 24004 07130 02262 72008 10080 20070 30072 40125 58015 61000 70165 875// 90000 333 6100=
07130,1996-02-24 03:00:00,8,1010,-2.4,93,7,25000,18.52,,,200,,,,0,,,,,,,wg-a,,,,AAXX 24034 07130 12275 82010 10080 20070 30048 40100 58024 60007 877// 90300=
07130,1996-02-24 06:00:00,8,1007.9,-2.1,93,7,15000,22.224,,,200,6.9,8.3,,,,,,,,60,wg-a,,,,AAXX 24064 07130 02465 82012 10080 20070 30027 40079 56021 60004 76065 875// 90600 333 10083 20069 61000=
07130,1996-02-24 09:00:00,9,1006.2,-1.7,93,8,8000,29.632,,,200,,,,1,,,,,,58,wg-a,,,,AAXX 24094 07130 12458 82016 10090 20080 30010 40062 58017 60017 75865 875// 90900=
07130,1996-02-24 12:00:00,10,1004.7,-1.5,87,8,11000,29.632,,57.412,220,,,,1,,,,,,61,wg-a,,,,AAXX 24124 07130 02461 82216 10100 20080 39995 40047 58015 60016 76165 8677/ 91200 333 60017 91031=
07130,1996-02-24 15:00:00,10,1002.9,-1.8,87,8,8000,29.632,,,220,,,,2,,,,,,61,wg-a,,,,AAXX 24154 07130 12458 82216 10100 20080 39977 40029 56018 60027 76162 8657/ 91500=
07130,1996-02-24 18:00:00,8,1002.4,-0.5,93,7,13000,25.928,,,230,8.1,10.5,,6,,,,,,61,wg-a,,,,AAXX 24184 07130 12463 82314 10080 20070 39972 40024 55005 60067 76162 8357/ 91800 333 10105 20081=
07130,1996-02-24 21:00:00,9,1001.8,-0.6,93,8,9000,25.928,,44.448,230,,,,1,,,,,,61,wg-a,,,,AAXX 24214 07130 12459 82314 10090 20080 39966 40018 56006 60017 76166 8657/ 92100 333 91024=
07130,1996-02-25 00:00:00,8,1001.6,-0.2,93,7,9000,22.224,,,210,,,,0,,,,,,21,wg-a,,,,AAXX 25004 07130 02559 82112 10080 20070 39964 40016 58002 60016 72162 8357/ 90000 333 60007=
07130,1996-02-25 03:00:00,8,1000.7,-0.9,93,7,12000,22.224,,,200,,,,,,,,,,,wg-a,,,,AAXX 25034 07130 12462 82012 10080 20070 39955 40007 58009 60006 8357/ 90300=
07130,1996-02-25 06:00:00,9,998.9,-1.8,87,7,1500,31.484,,,200,7.7,9.2,,0,,,11,,,60,wg-a,,,,AAXX 25064 07130 02415 82017 10090 20070 39937 49989 56018 60114 76062 8557/ 90600 333 10092 20077 60007=
07130,1996-02-25 09:00:00,10,998.7,-0.1,87,8,20000,31.484,,,210,,,,1,,,,,,21,wg-a,,,,AAXX 25094 07130 12470 82117 10100 20080 39936 49987 55001 60017 72162 8587/ 90900=
07130,1996-02-25 12:00:00,8,999.8,1,93,7,20000,22.224,,,230,,,,4,,,,,,61,wg-a,,,,AAXX 25124 07130 02470 82312 10080 20070 39946 49998 53010 60056 76162 8457/ 91200 333 60047=
07130,1996-02-25 15:00:00,8,1000.1,0.3,87,6,8000,25.928,,,260,,,,3,,,,,,61,wg-a,,,,AAXX 25154 07130 12358 82614 10080 20060 39949 40001 53003 60037 76166 877// 91500=
07130,1996-02-25 18:00:00,7,1001,0.9,93,6,15000,14.816,,,190,6.7,10.1,,2,,,,,,61,wg-a,,,,AAXX 25184 07130 12565 71908 10070 20060 39958 40010 53009 60027 76166 8287/ 91800 333 10101 20067=
07130,1996-02-25 21:00:00,6,1003.3,2.3,93,5,15000,11.112,,,220,,,,0,,,,,,0,wg-a,,,,AAXX 25214 07130 12765 72206 10060 20050 39981 40033 51023 60007 7//76 875// 92100=
07130,1996-02-26 00:00:00,6,1004.5,1.1,93,5,0,7.408,,,180,,,,,,,,,,,wg-a,,,,AAXX 26004 07130 12/// /1804 10060 20050 39992 40045 53011 60016 90000=
07130,1996-02-26 06:00:00,4,1007.5,1.9,93,3,15000,7.408,,,190,4,6.8,,,,,11,,,,wg-a,,,,AAXX 26064 07130 12/65 51904 10040 20030 30022 40075 53019 60114 85030 90600 333 10068 20040=
07130,1996-02-26 09:00:00,5,1010.2,2.7,93,4,6000,14.816,,,200,,,,,,,,,,,wg-a,,,,AAXX 26094 07130 12256 /2008 10050 20040 30049 40102 52027 60006 82132 90900=
07130,1996-02-26 12:00:00,10,1011.4,1.3,62,3,50000,14.816,,,230,,,,,,,,,,,wg-a,,,,AAXX 26124 07130 12584 42308 10100 20030 30062 40114 51013 60006 82202 91200=
07130,1996-02-26 15:00:00,9,1011.6,0.2,61,2,500,11.112,,,190,,,,,,,,,,16,wg-a,,,,AAXX 26154 07130 12600 /1906 10090 20020 30064 40116 53002 60006 71611 85202 91500=
07130,1996-02-26 18:00:00,6,1013.6,1.9,81,3,25000,11.112,,,310,3.6,10.5,,3,,,,,,0,wg-a,,,,AAXX 26184 07130 12575 33106 10060 20030 30083 40136 53019 60037 700// 83963 91800 333 10105 20036=
07130,1996-02-26 21:00:00,3,1015.3,1.6,93,2,40000,3.704,,,200,,,,,,,,,,,wg-a,,,,AAXX 26214 07130 12/82 02002 10030 20020 30099 40153 51016 60006 80000 92100=
07130,1996-02-27 00:00:00,1,1016.3,1,100,1,500,0,,,0,,,,,,,,,,11,wg-a,,,,AAXX 27004 07130 12/00 00000 10010 20010 30109 40163 53010 60006 71100 80000 90000=
07130,1996-02-27 03:00:00,-1,1016.9,0.6,100,-1,4000,0,,,0,,,,,,,,,,40,wg-a,,,,AAXX 27034 07130 12/40 00000 11010 21010 30115 40169 51006 60006 74000 80000 90300=
07130,1996-02-27 06:00:00,-2,1017.7,0.7,100,-2,4000,0,,,0,-1.6,6,,,,,3,,,40,wg-a,,,,AAXX 27064 07130 02/40 /0000 11020 21020 30122 40177 53007 60006 74040 80001 90600 333 10060 21016 60034=
07130,1996-02-27 09:00:00,0,1019.1,1.4,93,-1,800,0,,,0,,,,,,,,,,42,wg-a,,,,AAXX 27094 07130 12/08 /0000 10000 21010 30136 40191 51014 60006 74240 80001 90900=
07130,1996-02-27 12:00:00,10,1019.1,0.2,62,3,25000,7.408,,,150,,,,,,,,,,3,wg-a,,,,AAXX 27124 07130 12575 31504 10100 20030 30138 40191 50002 60006 70340 83101 91200=
07130,1996-02-27 15:00:00,11,1018.5,-0.5,54,2,35000,11.112,,,150,,,,,,,,,,,wg-a,,,,AAXX 27154 07130 12581 41506 10110 20020 30133 40185 56005 60006 84200 91500=
07130,1996-02-27 18:00:00,8,1019.4,0.8,66,2,500,11.112,,,120,-2.7,11.3,,,,,,,,,wg-a,,,,AAXX 27184 07130 12/00 11206 10080 20020 30141 40194 53008 60006 81031 91800 333 10113 21027=
07130,1996-02-27 21:00:00,5,1020.6,1.1,75,1,25000,3.704,,,110,,,,,,,,,,,wg-a,,,,AAXX 27214 07130 12/75 01102 10050 20010 30152 40206 51011 60006 80000 92100=
07130,1996-02-28 00:00:00,2,1021.2,0.6,87,0,20000,0,,,0,,,,,,,,,,,wg-a,,,,AAXX 28004 07130 12/70 10000 10020 20000 30158 40212 52006 60006 80001 90000=
07130,1996-02-28 03:00:00,0,1021.6,0.3,93,-1,6000,3.704,,,30,,,,,,,,,,11,wg-a,,,,AAXX 28034 07130 12/56 00302 10000 21010 30161 40216 51003 60006 71100 80000 90300=
07130,1996-02-28 06:00:00,-1,1022.5,0.9,100,-1,6000,0,,,0,-1.1,7.8,,,,,,,,,wg-a,,,,AAXX 28064 07130 02856 40000 11010 21010 30170 40225 53009 60006 82032 90600 333 10078 21011 60004=
07130,1996-02-28 09:00:00,3,1024.2,1.8,93,2,7000,3.704,,,280,,,,,,,,,,,wg-a,,,,AAXX 28094 07130 12/57 22802 10030 20020 30188 40242 51018 60006 80002 90900=
07130,1996-02-28 12:00:00,9,1024.4,0.3,61,2,10000,25.928,,,50,,,,,,,,,,,wg-a,,,,AAXX 28124 07130 12/60 00514 10090 20020 30191 40244 50003 60006 80000 91200=
07130,1996-02-28 15:00:00,11,1024.3,-0.1,50,1,15000,18.52,,,80,,,,,,,,,,,wg-a,,,,AAXX 28154 07130 12665 /0810 10110 20010 30190 40243 56001 60006 81100 91500=
07130,1996-02-28 18:00:00,8,1025.9,1.6,53,-1,9000,14.816,,,40,-1.2,11.1,,,,,,,,,wg-a,,,,AAXX 28184 07130 12/59 00408 10080 21010 30206 40259 53016 60006 80000 91800 333 10111 21012=
07130,1996-02-28 21:00:00,5,1028,2,81,2,6000,14.816,,,30,,,,,,,,,,,wg-a,,,,AAXX 28214 07130 12556 /0308 10050 20020 30226 40280 51020 60006 86500 92100=
07130,1996-02-29 03:00:00,5,1027.6,-0.3,87,3,6000,18.52,,,30,,,,,,,,,,,wg-a,,,,AAXX 29034 07130 12456 80310 10050 20030 30222 40276 58003 60006 885// 90300=
07130,1996-02-29 06:00:00,4,1028.2,0.6,87,2,500,14.816,,,40,3.9,7.7,,,,,,,,,wg-a,,,,AAXX 29064 07130 02/00 /0408 10040 20020 30228 40282 53006 60006 90600 333 10077 20039 60004=
07130,1996-02-29 09:00:00,4,1029.6,1.4,87,2,3500,18.52,,,40,,,,,,,,,,60,wg-a,,,,AAXX 29094 07130 02335 80410 10040 20020 30242 40296 53014 61000 76022 885// 90900 333 ////=
07130,1996-02-29 12:00:00,6,1030.6,1,81,3,4500,22.224,,,40,,,,,,,,,,10,wg-a,,,,AAXX 29124 07130 02445 80412 10060 20030 30252 40306 51010 61000 71062 888// 91200 333 6100=
07130,1996-02-29 15:00:00,10,1029.7,-0.8,62,3,6000,18.52,,,40,,,,,,,,,,,wg-a,,,,AAXX 29154 07130 12/56 00410 10100 20030 30244 40297 56008 60006 80000 91500=
07130,1996-02-29 18:00:00,8,1031,1.2,76,4,4000,14.816,,,20,4.2,10.5,,,,,,,,10,wg-a,,,,AAXX 29184 07130 32/40 20208 10080 20040 30256 40310 53012 71011 80001 91800 333 10105 20042=
07130,1996-02-29 21:00:00,4,1032.5,1.5,87,2,500,11.112,,,10,,,,,,,,,,,wg-a,,,,AAXX 29214 07130 12/00 00106 10040 20020 30271 40325 51015 60006 80000 92100=
07130,1996-03-01 00:00:00,2,1033.4,0.8,87,0,7000,11.112,,,330,,,,,,,,,,,wg-a,,,,AAXX 01004 07130 12/57 03306 10020 20000 30279 40334 52008 60006 80000 90000=
07130,1996-03-01 03:00:00,2,1033.4,-0,75,-2,8000,7.408,,,320,,,,,,,,,,,wg-a,,,,AAXX 01034 07130 12658 33204 10020 21020 30279 40334 54000 60006 81530 90300=
07130,1996-03-01 06:00:00,1,1033.8,0.4,86,-1,15000,14.816,,,360,0.4,7.8,,,,,,,,,wg-a,,,,AAXX 01064 07130 02/65 13608 10010 21010 30283 40338 52004 60006 81040 90600 333 10078 20004 61000=
07130,1996-03-01 09:00:00,6,1034.7,1,81,3,12000,11.112,,,20,,,,,,,,,,,wg-a,,,,AAXX 01094 07130 12/62 10206 10060 20030 30293 40347 51010 60006 81040 90900=
07130,1996-03-01 12:00:00,10,1033.5,-1.1,66,4,25000,25.928,,,40,,,,,,,,,,,wg-a,,,,AAXX 01124 07130 12575 20414 10100 20040 30282 40335 58011 60006 82100 91200=
07130,1996-03-01 15:00:00,10,1032.2,-1.3,62,3,25000,22.224,,,350,,,,,,,,,,,wg-a,,,,AAXX 01154 07130 12575 43512 10100 20030 30269 40322 58013 60006 84500 91500=
07130,1996-03-01 18:00:00,8,1031,-1.3,71,3,12000,14.816,,,340,1.1,11.1,,,,,,,,,wg-a,,,,AAXX 01184 07130 12562 /3408 10080 20030 30256 40310 56013 60006 81101 91800 333 10111 20011=
07130,1996-03-01 21:00:00,7,1030.8,-0.2,81,4,12000,11.112,,,360,,,,,,,,,,,wg-a,,,,AAXX 01214 07130 12462 83606 10070 20040 30254 40308 58002 60006 875// 92100=
07130,1996-03-02 00:00:00,6,1030.1,-0.7,81,3,10000,11.112,,,360,,,,,,,,,,,wg-a,,,,AAXX 02004 07130 12560 83606 10060 20030 30247 40301 58007 60006 885// 90000=
07130,1996-03-02 03:00:00,6,1028.7,-1.4,87,4,10000,11.112,,,10,,,,,,,,,,,wg-a,,,,AAXX 02034 07130 12460 80106 10060 20040 30233 40287 58014 60006 885// 90300=
07130,1996-03-02 06:00:00,6,1028,-0.7,87,4,9000,11.112,,,10,5.3,7.6,,,,,,,,,wg-a,,,,AAXX 02064 07130 02459 80106 10060 20040 30226 40280 55007 60006 885// 90600 333 10076 20053 60004=
07130,1996-03-02 09:00:00,6,1028.5,0.5,87,4,500,18.52,,,30,,,,,,,,,,20,wg-a,,,,AAXX 02094 07130 02300 80310 10060 20040 30231 40285 53005 61000 72022 885// 90900 333 ////=
07130,1996-03-02 12:00:00,7,1027.8,-0.7,70,2,25000,25.928,,,30,,,,,,,,,,1,wg-a,,,,AAXX 02124 07130 02575 70314 10070 20020 30224 40278 58007 61000 70165 871// 91200 333 6100=
07130,1996-03-02 15:00:00,7,1026.6,-1.1,57,-1,20000,25.928,,,30,,,,,,,,,,,wg-a,,,,AAXX 02154 07130 12670 40314 10070 21010 30213 40266 56011 60006 84400 91500=
07130,1996-03-02 18:00:00,5,1026.5,-0.2,65,-1,20000,18.52,,,30,5.3,7.7,,,,,,,,,wg-a,,,,AAXX 02184 07130 32670 40310 10050 21010 30211 40265 55002 83501 91800 333 10077 20053=
07130,1996-03-02 21:00:00,3,1026.2,-0.3,75,-1,35000,11.112,,,10,,,,,,,,,,,wg-a,,,,AAXX 02214 07130 12/81 00106 10030 21010 30208 40262 58003 60006 80000 92100=
07130,1996-03-03 00:00:00,3,1025,-1.2,81,0,35000,7.408,,,350,,,,,,,,,,,wg-a,,,,AAXX 03004 07130 12581 73504 10030 20000 30196 40250 58012 60006 875// 90000=
07130,1996-03-03 03:00:00,3,1022.8,-2.2,87,1,20000,0,,,0,,,,,,,,,,60,wg-a,,,,AAXX 03034 07130 02470 80000 10030 20010 30174 40228 58022 61000 76066 885// 90300 333 ////=
07130,1996-03-03 06:00:00,3,1021.4,-1.4,100,3,8000,7.408,,,240,2,5.3,,1,,,1,,,60,wg-a,,,,AAXX 03064 07130 02258 82404 10030 20030 30160 40214 56014 60014 76062 885// 90600 333 10053 20020 60017=
07130,1996-03-03 09:00:00,5,1022,0.6,100,5,2500,3.704,,,300,,,,,,,,,,10,wg-a,,,,AAXX 03094 07130 02225 83002 10050 20050 30166 40220 53006 61000 71062 876// 90900 333 ////=
07130,1996-03-03 12:00:00,7,1021.7,-0.2,87,5,8000,11.112,,,20,,,,,,,,,,3,wg-a,,,,AAXX 03124 07130 02458 80206 10070 20050 30164 40217 58002 61000 70362 878// 91200 333 ////=
07130,1996-03-03 15:00:00,7,1021.2,-0.5,87,5,9000,11.112,,,350,,,,,,,,,,,wg-a,,,,AAXX 03154 07130 12459 83506 10070 20050 30159 40212 55005 60006 878// 91500=
07130,1996-03-03 18:00:00,7,1021.7,0.5,87,5,9000,14.816,,,10,3.2,7.8,,,,,,,,21,wg-a,,,,AAXX 03184 07130 02459 80108 10070 20050 30164 40217 53005 61000 72162 885// 91800 333 10078 20032 ////=
07130,1996-03-03 21:00:00,7,1022.1,0.4,87,5,12000,18.52,,,20,,,,,,,,,,61,wg-a,,,,AAXX 03214 07130 02462 80210 10070 20050 30168 40221 52004 61000 76122 885// 92100 333 ////=
07130,1996-03-04 00:00:00,6,1022.6,0.4,87,4,15000,11.112,,,10,,,,,,,,,,1,wg-a,,,,AAXX 04004 07130 02665 70106 10060 20040 30172 40226 53004 61000 70162 875// 90000 333 6100=
07130,1996-03-04 03:00:00,5,1022.5,-0.1,87,3,20000,14.816,,,20,,,,,,,,,,,wg-a,,,,AAXX 04034 07130 12570 70208 10050 20030 30171 40225 58001 60006 875// 90300=
07130,1996-03-04 06:00:00,5,1023.2,0.7,81,2,10000,14.816,,,20,3.9,7.1,,,,,,,,,wg-a,,,,AAXX 04064 07130 02460 70208 10050 20020 30178 40232 53007 61000 878// 90600 333 10071 20039 ////=
07130,1996-03-04 09:00:00,5,1024.5,1.3,81,2,6000,14.816,,,30,,,,,,,,,,,wg-a,,,,AAXX 04094 07130 12656 80308 10050 20020 30191 40245 51013 60006 885// 90900=
07130,1996-03-04 12:00:00,8,1024.1,-0.3,61,1,10000,18.52,,,40,,,,,,,,,,,wg-a,,,,AAXX 04124 07130 12660 /0410 10080 20010 30188 40241 58003 60006 85501 91200=
07130,1996-03-04 15:00:00,8,1023.7,-0.4,71,3,12000,18.52,,,10,,,,,,,,,,,wg-a,,,,AAXX 04154 07130 12562 /0110 10080 20030 30184 40237 55004 60006 85800 91500=
07130,1996-03-04 18:00:00,7,1024.6,0.9,81,4,8000,14.816,,,10,4.5,9.1,,,,,,,,58,wg-a,,,,AAXX 04184 07130 02458 80108 10070 20040 30193 40246 52009 61000 75865 878// 91800 333 10091 20045 ////=
07130,1996-03-04 21:00:00,6,1025.8,1.1,87,4,8000,11.112,,,10,,,,0,,,,,,21,wg-a,,,,AAXX 04214 07130 12458 80106 10060 20040 30204 40258 51011 60007 72165 875// 92100=
07130,1996-03-05 00:00:00,5,1026.2,0.4,93,4,7000,11.112,,,350,,,,,,,,,,1,wg-a,,,,AAXX 05004 07130 12657 83506 10050 20040 30208 40262 51004 60006 70165 875// 90000=
07130,1996-03-05 03:00:00,5,1026.2,0,93,4,8000,7.408,,,330,,,,,,,,,,,wg-a,,,,AAXX 05034 07130 12658 83304 10050 20040 30208 40262 50000 60006 885// 90300=
07130,1996-03-05 06:00:00,5,1027.1,0.9,87,3,9000,3.704,,,350,5.1,6.7,,,,,,,,,wg-a,,,,AAXX 05064 07130 12659 83502 10050 20030 30217 40271 53009 60004 885// 90600 333 10067 20051=
07130,1996-03-05 09:00:00,6,1028.3,1.2,81,3,6000,11.112,,,360,,,,,,,,,,,wg-a,,,,AAXX 05094 07130 12656 83606 10060 20030 30229 40283 51012 60006 8357/ 90900=
07130,1996-03-05 12:00:00,9,1027.9,-0.3,57,1,15000,18.52,,,30,,,,,,,,,,,wg-a,,,,AAXX 05124 07130 12565 30310 10090 20010 30226 40279 58003 60006 81130 91200=
07130,1996-03-05 15:00:00,9,1027.5,-0.4,57,1,15000,18.52,,,10,,,,,,,,,,,wg-a,,,,AAXX 05154 07130 12665 80110 10090 20010 30222 40275 58004 60006 888// 91500=
07130,1996-03-05 18:00:00,7,1028.1,0.5,76,3,6000,11.112,,,20,4.8,10.1,,,,,,,,,wg-a,,,,AAXX 05184 07130 12656 80206 10070 20030 30227 40281 53005 60006 885// 91800 333 10101 20048=
07130,1996-03-05 21:00:00,7,1028.8,0.7,76,3,8000,14.816,,,30,,,,,,,,,,,wg-a,,,,AAXX 05214 07130 12658 80308 10070 20030 30234 40288 52007 60006 875// 92100=
07130,1996-03-06 00:00:00,6,1028.5,-0.3,81,3,10000,11.112,,,20,,,,,,,,,,,wg-a,,,,AAXX 06004 07130 12660 80206 10060 20030 30231 40285 58003 60006 875// 90000=
07130,1996-03-06 03:00:00,6,1028,-0.5,81,3,6000,11.112,,,50,,,,,,,,,,,wg-a,,,,AAXX 06034 07130 12556 80506 10060 20030 30226 40280 58005 60006 875// 90300=
07130,1996-03-06 06:00:00,6,1027.9,-0.1,70,1,9000,14.816,,,60,5.5,7.2,,,,,,,,,wg-a,,,,AAXX 06064 07130 02559 80608 10060 20010 30225 40279 57001 60006 875// 90600 333 10072 20055 60004=
07130,1996-03-06 09:00:00,6,1027.7,-0.2,65,0,12000,14.816,,,70,,,,,,,,,,,wg-a,,,,AAXX 06094 07130 12662 80708 10060 20000 30223 40277 58002 60006 875// 90900=
07130,1996-03-06 10:00:00,6,1024.4,-0.6,65,0,12000,7.408,,,80,5.3,6.4,,,,,,,,,wg-a,,,,AAXX 06104 07130 32262 80804 10060 20000 30190 40244 56006 875// 91000 333 10064 20053=
07130,1996-03-06 12:00:00,6,1026.6,-1.1,61,-1,25000,18.52,,,90,,,,,,,,,,,wg-a,,,,AAXX 06124 07130 12575 80910 10060 21010 30212 40266 58011 60006 875// 91200=
07130,1996-03-06 15:00:00,6,1025,-1.6,61,-1,25000,18.52,,,80,,,,,,,,,,,wg-a,,,,AAXX 06154 07130 12575 80810 10060 21010 30196 40250 58016 60006 875// 91500=
07130,1996-03-06 18:00:00,6,1024.4,-0.6,61,-1,15000,7.408,,,80,5.3,6.4,,,,,,,,,wg-a,,,,AAXX 06184 07130 12565 80804 10060 21010 30190 40244 56006 60006 875// 91800 333 10064 20053=
07130,1996-03-06 21:00:00,6,1024.2,-0.2,61,-1,12000,14.816,,,70,,,,,,,,,,,wg-a,,,,AAXX 06214 07130 12662 80708 10060 21010 30188 40242 58002 60006 885// 92100=
07130,1996-03-07 00:00:00,4,1023,-1.2,75,0,12000,11.112,,,40,,,,,,,,,,,wg-a,,,,AAXX 07004 07130 12/62 00406 10040 20000 30176 40230 58012 60006 80000 90000=
07130,1996-03-07 03:00:00,4,1020.6,-2.4,87,2,9000,11.112,,,20,,,,,,,,,,,wg-a,,,,AAXX 07034 07130 12759 80206 10040 20020 30152 40206 58024 60006 885// 90300=
07130,1996-03-07 06:00:00,4,1018.6,-2,87,2,9000,14.816,,,30,3,5.8,,,,,,,,,wg-a,,,,AAXX 07064 07130 02659 80308 10040 20020 30132 40186 57020 60006 885// 90600 333 10058 20030 60004=
07130,1996-03-07 09:00:00,5,1017.4,-1.1,81,2,12000,22.224,,,20,,,,,,,,,,,wg-a,,,,AAXX 07094 07130 12462 70212 10050 20020 30121 40174 58011 60006 878// 90900=
07130,1996-03-07 12:00:00,6,1015.5,-1.9,65,0,20000,22.224,,,30,,,,,,,,,,25,wg-a,,,,AAXX 07124 07130 02570 80312 10060 20000 30102 40155 58019 61000 72522 888// 91200 333 ////=
07130,1996-03-07 15:00:00,5,1013.4,-2.1,81,2,12000,18.52,,,20,,,,,,,,,,25,wg-a,,,,AAXX 07154 07130 02562 80210 10050 20020 30081 40134 57021 61000 72586 888// 91500 333 ////=
07130,1996-03-07 18:00:00,2,1013.7,0.2,93,1,6000,14.816,,,20,2.1,6.5,,,,,,,,61,wg-a,,,,AAXX 07184 07130 02456 80208 10020 20010 30083 40137 53002 61000 76187 888// 91800 333 10065 20021 ////=
07130,1996-03-07 21:00:00,1,1013.4,-0.3,100,1,4000,11.112,,,80,,,,2,,,,,,10,wg-a,,,,AAXX 07214 07130 12240 80806 10010 20010 30080 40134 57003 60027 71076 885// 92100=
07130,1996-03-08 00:00:00,2,1013.1,-0.3,93,1,7000,14.816,,,100,,,,0,,,,,,1,wg-a,,,,AAXX 08004 07130 02757 81008 10020 20010 30077 40131 58003 60026 70176 885// 90000 333 60007=
07130,1996-03-08 03:00:00,1,1012.8,-0.3,93,0,7000,11.112,,,90,,,,,,,,,,,wg-a,,,,AAXX 08034 07130 12/57 70906 10010 20000 30074 40128 58003 60006 8703/ 90300=
07130,1996-03-08 06:00:00,0,1013,0.2,93,-1,500,11.112,,,120,0.2,2.3,,,,,2,,,,wg-a,,,,AAXX 08064 07130 12/00 01206 10000 21010 30076 40130 53002 60024 80000 90600 333 10023 20002=
07130,1996-03-08 09:00:00,2,1013.7,0.7,93,1,4500,7.408,,,150,,,,,,,,,,10,wg-a,,,,AAXX 08094 07130 12/45 /1504 10020 20010 30083 40137 52007 60006 71000 80001 90900=
07130,1996-03-08 12:00:00,8,1013.6,0,57,0,9000,22.224,,,170,,,,,,,,,,,wg-a,,,,AAXX 08124 07130 12559 51712 10080 20000 30083 40136 50000 60006 82130 91200=
07130,1996-03-08 15:00:00,8,1013.3,-0.3,57,0,15000,22.224,,,200,,,,,,,,,,,wg-a,,,,AAXX 08154 07130 12665 72012 10080 20000 30080 40133 55003 60006 8583/ 91500=
07130,1996-03-08 18:00:00,6,1014.3,1,70,1,14000,3.704,,,210,-0.3,8.7,,,,,,,,,wg-a,,,,AAXX 08184 07130 12664 42102 10060 20010 30090 40143 53010 60006 83802 91800 333 10087 21003=
07130,1996-03-08 21:00:00,4,1015.5,1.2,81,1,14000,11.112,,,100,,,,,,,,,,,wg-a,,,,AAXX 08214 07130 12664 41006 10040 20010 30102 40155 51012 60006 84502 92100=
07130,1996-03-09 00:00:00,4,1015.8,0.2,93,3,8000,7.408,,,120,,,,,,,,,,,wg-a,,,,AAXX 09004 07130 12758 71204 10040 20030 30104 40158 53002 60006 875// 90000=
07130,1996-03-09 03:00:00,4,1015.6,-0.2,93,3,7000,7.408,,,80,,,,,,,,,,,wg-a,,,,AAXX 09034 07130 12757 80804 10040 20030 30102 40156 58002 60006 875// 90300=
07130,1996-03-09 06:00:00,4,1015,-0.5,93,3,7000,7.408,,,80,3.3,6.4,,,,,,,,,wg-a,,,,AAXX 09064 07130 02457 80804 10040 20030 30097 40150 56005 60006 875// 90600 333 10064 20033 60004=
07130,1996-03-09 15:00:00,14,1014.7,-0.4,63,7,10000,11.112,,,110,,,,,,,,,,,wg-a,,,,AAXX 09154 07130 12460 31106 10140 20070 30096 40147 57004 60006 83800 91500=
07130,1996-03-09 18:00:00,12,1016.1,1.3,76,8,10000,11.112,,,110,4.2,15.1,,,,,,,,,wg-a,,,,AAXX 09184 07130 12660 21106 10120 20080 30109 40161 53013 60006 81501 91800 333 10151 20042=
07130,1996-03-09 21:00:00,9,1018,1.8,81,6,10000,11.112,,,100,,,,,,,,,,,wg-a,,,,AAXX 09214 07130 12/60 01006 10090 20060 30127 40180 53018 60006 80000 92100=
07130,1996-03-10 00:00:00,8,1019.3,1.3,76,4,10000,11.112,,,110,,,,,,,,,,,wg-a,,,,AAXX 10004 07130 12/60 01106 10080 20040 30140 40193 52013 60006 80000 90000=
07130,1996-03-10 03:00:00,4,1020.7,1.3,87,2,10000,0,,,0,,,,,,,,,,,wg-a,,,,AAXX 10034 07130 12/60 00000 10040 20020 30153 40207 51013 60006 80000 90300=
07130,1996-03-10 06:00:00,2,1021.9,1.2,93,1,9000,0,,,0,1.6,12.1,,,,,,,,,wg-a,,,,AAXX 10064 07130 02/59 /0000 10020 20010 30165 40219 53012 60006 80001 90600 333 10121 20016 60004=
07130,1996-03-10 09:00:00,6,1023.2,1.4,81,3,8000,7.408,,,350,,,,,,,,,,,wg-a,,,,AAXX 10094 07130 12/58 /3504 10060 20030 30179 40232 51014 60006 80002 90900=
07130,1996-03-10 12:00:00,15,1023.5,0.4,48,4,10000,11.112,,,80,,,,,,,,,,,wg-a,,,,AAXX 10124 07130 12/60 /0806 10150 20040 30183 40235 51004 60006 80000 91200=
07130,1996-03-10 15:00:00,16,1022.3,-1.2,34,0,14000,22.224,,,20,,,,,,,,,,,wg-a,,,,AAXX 10154 07130 12/64 00212 10160 20000 30171 40223 56012 60006 80000 91500=
07130,1996-03-10 18:00:00,12,1022.4,0.1,47,1,8000,14.816,,,20,1.2,16.6,,,,,,,,,wg-a,,,,AAXX 10184 07130 12/58 /0208 10120 20010 30172 40224 53001 60006 80001 91800 333 10166 20012=
07130,1996-03-10 21:00:00,6,1023.7,1.1,65,0,8000,14.816,,,20,,,,,,,,,,,wg-a,,,,AAXX 10214 07130 12/58 00208 10060 20000 30183 40237 53011 60006 80000 92100=
07130,1996-03-11 03:00:00,1,1023.1,-0.8,93,0,1500,11.112,,,20,,,,,,,,,,10,wg-a,,,,AAXX 11034 07130 12/15 00206 10010 20000 30176 40231 58008 60006 71000 80000 90300=
07130,1996-03-11 06:00:00,0,1022.3,-0.8,100,0,300,7.408,,,10,-0.5,11.8,,,,,,,,43,wg-a,,,,AAXX 11064 07130 02/03 90104 10000 20000 30168 40223 56008 60006 74341 89/// 90600 333 10118 21005 60004=
07130,1996-03-11 09:00:00,0,1022.3,-0,93,-1,500,11.112,,,350,,,,,,,,,,42,wg-a,,,,AAXX 11094 07130 12105 93506 10000 21010 30168 40223 55000 60006 74244 89600 90900=
07130,1996-03-11 12:00:00,7,1020.9,-1.2,61,0,6000,3.704,,,50,,,,,,,,,,2,wg-a,,,,AAXX 11124 07130 12/56 /0502 10070 20000 30156 40209 58012 60006 70241 80001 91200=
07130,1996-03-11 21:00:00,4,1016,-1.2,75,0,8000,3.704,,,170,,,,,,,,,,,wg-a,,,,AAXX 11214 07130 12/58 01702 10040 20000 30106 40160 58012 60006 80000 92100=
07130,1996-03-12 00:00:00,2,1014.6,-1.4,87,0,8000,0,,,0,,,,,,,,,,,wg-a,,,,AAXX 12004 07130 12/58 /0000 10020 20000 30092 40146 58014 60006 80002 90000=
07130,1996-03-12 03:00:00,1,1012,-2.6,93,0,3000,0,,,0,,,,,,,,,,10,wg-a,,,,AAXX 12034 07130 12/30 /0000 10010 20000 30066 40120 58026 60006 71011 80002 90300=
07130,1996-03-12 06:00:00,1,1010.6,-1.4,86,-1,2500,3.704,,,140,0.4,8,,,,,,,,10,wg-a,,,,AAXX 12064 07130 02/25 41402 10010 21010 30052 40106 58014 60006 71011 81032 90600 333 10080 20004 60004=
07130,1996-03-12 09:00:00,3,1010,-0.5,75,-1,3000,18.52,,,110,,,,,,,,,,10,wg-a,,,,AAXX 12094 07130 12/30 71110 10030 21010 30047 40100 56005 60006 71011 8707/ 90900=
07130,1996-03-12 12:00:00,7,1008.4,-1.6,61,0,4000,18.52,,,120,,,,,,,,,,10,wg-a,,,,AAXX 12124 07130 12/40 71210 10070 20000 30031 40084 58016 60006 71011 84072 91200=
07130,1996-03-12 15:00:00,7,1005.9,-2.4,57,-1,500,18.52,,,110,,,,,,,,,,,wg-a,,,,AAXX 12154 07130 12/00 71110 10070 21010 30007 40059 56024 60006 87072 91500=
07130,1996-03-12 18:00:00,5,1004.9,-1.1,56,-3,9000,18.52,,,100,1,7.4,,,,,,,,,wg-a,,,,AAXX 12184 07130 12/59 /1010 10050 21030 39996 40049 56011 60006 86072 91800 333 10074 20010=
07130,1996-03-12 21:00:00,3,1004.8,-0.1,56,-5,15000,14.816,,,100,,,,,,,,,,,wg-a,,,,AAXX 12214 07130 12/65 51008 10030 21050 39995 40048 58001 60006 80001 92100=
07130,1996-03-13 00:00:00,2,1003.7,-1.1,51,-7,15000,18.52,,,110,,,,,,,,,,,wg-a,,,,AAXX 13004 07130 12/65 81110 10020 21070 39984 40037 57011 60006 8707/ 90000=
07130,1996-03-13 03:00:00,2,1002.5,-1.2,47,-8,20000,22.224,,,100,,,,,,,,,,,wg-a,,,,AAXX 13034 07130 12/70 81012 10020 21080 39972 40025 58012 60006 8707/ 90300=
07130,1996-03-13 06:00:00,1,1002.3,-0.2,47,-9,9000,22.224,,,110,1.1,4.6,,,,,,,,,wg-a,,,,AAXX 13064 07130 02/59 71112 10010 21090 39970 40023 56002 60006 87072 90600 333 10046 20011 60004=
07130,1996-03-13 09:00:00,2,1001.8,-0.5,44,-9,12000,25.928,,42.596,110,,,,,,,,,,,wg-a,,,,AAXX 13094 07130 12/62 51114 10020 21090 39965 40018 58005 60006 84032 90900 333 91023=
07130,1996-03-13 15:00:00,7,999.2,-1.5,42,-5,15000,25.928,,,110,,,,,,,,,,,wg-a,,,,AAXX 13154 07130 12/65 61114 10070 21050 39940 49992 56015 60006 80002 91500=
07130,1996-03-13 18:00:00,5,999.6,0.4,45,-6,10000,18.52,,,100,0.9,7.5,,,,,,,,,wg-a,,,,AAXX 13184 07130 12/60 61010 10050 21060 39944 49996 53004 60006 82032 91800 333 10075 20009=
07130,1996-03-13 21:00:00,4,1000.2,0.5,44,-7,10000,22.224,,,110,,,,,,,,,,,wg-a,,,,AAXX 13214 07130 12/60 61112 10040 21070 39949 40002 52005 60006 80002 92100=
07130,1996-03-14 00:00:00,3,999.7,-0.5,48,-7,12000,18.52,,,110,,,,,,,,,,,wg-a,,,,AAXX 14004 07130 12762 71110 10030 21070 39944 49997 57005 60006 8653/ 90000=
07130,1996-03-14 03:00:00,2,999.4,-0.3,55,-6,12000,18.52,,,120,,,,,,,,,,,wg-a,,,,AAXX 14034 07130 12/62 71210 10020 21060 39941 49994 56003 60006 8703/ 90300=
07130,1996-03-14 06:00:00,1,999.5,0.1,64,-5,10000,14.816,,,120,0.8,5.3,,,,,,,,,wg-a,,,,AAXX 14064 07130 02460 71208 10010 21050 39942 49995 50001 60006 85502 90600 333 10053 20008 60004=
07130,1996-03-14 09:00:00,3,1000.5,1,70,-2,6000,14.816,,,120,,,,,,,,,,,wg-a,,,,AAXX 14094 07130 12456 81208 10030 21020 39952 40005 53010 60006 887// 90900=
07130,1996-03-14 12:00:00,6,1001.2,0.8,70,1,4000,7.408,,,110,,,,,,,,,,10,wg-a,,,,AAXX 14124 07130 12340 81104 10060 20010 39960 40012 52008 60006 71022 875// 91200=
07130,1996-03-14 15:00:00,8,1001.3,0.1,87,6,3500,11.112,,,140,,,,,,,,,,10,wg-a,,,,AAXX 14154 07130 02435 81406 10080 20060 39961 40013 53001 61000 71062 8453/ 91500 333 ////=
07130,1996-03-14 18:00:00,8,1001.9,0.6,93,7,2000,7.408,,,110,0.7,8.8,,1,,,,,,10,wg-a,,,,AAXX 14184 07130 12520 81104 10080 20070 39967 40019 53006 60017 71062 8257/ 91800 333 10088 20007=
07130,1996-03-14 21:00:00,7,1003.3,1.4,93,6,1500,3.704,,,340,,,,0,,,,,,10,wg-a,,,,AAXX 14214 07130 12/15 /3402 10070 20060 39981 40033 51014 60007 71062 86070 92100=
07130,1996-03-15 00:00:00,7,1003.6,0.3,93,6,2000,0,,,0,,,,,,,,,,10,wg-a,,,,AAXX 15004 07130 12220 80000 10070 20060 39984 40036 51003 60006 71062 886// 90000=
07130,1996-03-15 03:00:00,6,1004.1,0.4,93,5,2000,7.408,,,310,,,,,,,,,,10,wg-a,,,,AAXX 15034 07130 12720 73104 10060 20050 39988 40041 50004 60006 71022 875// 90300=
07130,1996-03-15 06:00:00,4,1004.8,0.7,93,3,1500,3.704,,,280,3.9,7.8,,,,,1,,,10,wg-a,,,,AAXX 15064 07130 12515 72802 10040 20030 39995 40048 52007 60014 71022 875// 90600 333 10078 20039=
07130,1996-03-15 09:00:00,5,1005.8,1,93,4,2000,7.408,,,300,,,,,,,,,,10,wg-a,,,,AAXX 15094 07130 12720 73004 10050 20040 30005 40058 53010 60006 71022 875// 90900=
07130,1996-03-15 12:00:00,10,1005.7,0,71,5,500,7.408,,,300,,,,,,,,,,,wg-a,,,,AAXX 15124 07130 12500 /3004 10100 20050 30005 40057 50000 60006 81101 91200=
07130,1996-03-15 15:00:00,13,1005,-0.6,51,3,12000,7.408,,,230,,,,,,,,,,,wg-a,,,,AAXX 15154 07130 12662 42304 10130 20030 39999 40050 55006 60006 81131 91500=
07130,1996-03-15 18:00:00,12,1005.9,0.8,47,1,25000,7.408,,,230,3.6,13.7,,,,,,,,,wg-a,,,,AAXX 15184 07130 12675 /2304 10120 20010 30007 40059 53008 60006 81132 91800 333 10137 20036=
07130,1996-03-15 21:00:00,7,1006.6,0.7,76,3,40000,0,,,0,,,,,,,,,,,wg-a,,,,AAXX 15214 07130 12/82 30000 10070 20030 30014 40066 51007 60006 81032 92100=
07130,1996-03-16 00:00:00,5,1007.2,0.5,87,3,40000,0,,,0,,,,,,,,,,,wg-a,,,,AAXX 16004 07130 12/82 80000 10050 20030 30019 40072 51005 60006 85072 90000=
07130,1996-03-16 03:00:00,3,1007.5,0.3,93,2,20000,3.704,,,180,,,,,,,,,,,wg-a,,,,AAXX 16034 07130 12/70 11802 10030 20020 30022 40075 53003 60006 81040 90300=
07130,1996-03-16 06:00:00,2,1008.6,1.1,100,2,6000,3.704,,,240,1.9,11.6,,,,,,,,,wg-a,,,,AAXX 16064 07130 02/56 /2402 10020 20020 30033 40086 51011 60006 86030 90600 333 10116 20019 60004=
07130,1996-03-16 09:00:00,8,1010,1.5,81,5,15000,11.112,,,270,,,,,,,,,,,wg-a,,,,AAXX 16094 07130 12465 62706 10080 20050 30048 40100 51015 60006 81142 90900=
07130,1996-03-16 12:00:00,10,1011.2,1.2,66,4,500,25.928,,,310,,,,,,,,,,,wg-a,,,,AAXX 16124 07130 12500 73114 10100 20040 30060 40112 51012 60006 85202 91200=
07130,1996-03-16 15:00:00,10,1011.8,0.6,62,3,40000,18.52,,,320,,,,,,,,,,,wg-a,,,,AAXX 16154 07130 12682 73210 10100 20030 30066 40118 52006 60006 878// 91500=
07130,1996-03-16 18:00:00,9,1014,2.2,66,3,50000,11.112,,,10,2.2,12.1,,,,,,,,,wg-a,,,,AAXX 16184 07130 12684 30106 10090 20030 30088 40140 53022 60006 83800 91800 333 10121 20022=
07130,1996-03-16 21:00:00,4,1015.6,1.5,87,2,500,3.704,,,250,,,,,,,,,,,wg-a,,,,AAXX 16214 07130 12/00 02502 10040 20020 30103 40156 51015 60006 80000 92100=
07130,1996-03-17 00:00:00,3,1016.7,1,93,2,25000,3.704,,,180,,,,,,,,,,,wg-a,,,,AAXX 17004 07130 12/75 01802 10030 20020 30113 40167 51010 60006 80000 90000=
07130,1996-03-17 03:00:00,1,1016.6,-0.1,86,-1,20000,3.704,,,150,,,,,,,,,,,wg-a,,,,AAXX 17034 07130 12/70 01502 10010 21010 30112 40166 58001 60006 80000 90300=
07130,1996-03-17 06:00:00,0,1016.8,0.2,93,-1,15000,3.704,,,150,-0.5,8.8,,,,,,,,,wg-a,,,,AAXX 17064 07130 02/65 01502 10000 21010 30114 40168 53002 60006 80000 90600 333 10088 21005 60004=
07130,1996-03-17 09:00:00,7,1017.2,0.5,70,2,20000,18.52,,,170,,,,,,,,,,,wg-a,,,,AAXX 17094 07130 12570 /1710 10070 20020 30119 40172 52005 60006 86230 90900=
07130,1996-03-17 12:00:00,12,1016.5,-0.6,58,4,40000,22.224,,,180,,,,,,,,,,,wg-a,,,,AAXX 17124 07130 12582 41812 10120 20040 30113 40165 58006 60006 84800 91200=
07130,1996-03-17 15:00:00,13,1015.2,-1.3,51,3,50000,25.928,,,200,,,,,,,,,,,wg-a,,,,AAXX 17154 07130 12584 62014 10130 20030 30100 40152 56013 60006 86800 91500=
07130,1996-03-17 18:00:00,11,1015.5,0.3,66,5,500,18.52,,,200,-0.5,13.9,,,,,,,,,wg-a,,,,AAXX 17184 07130 12600 72010 10110 20050 30103 40155 53003 60006 878// 91800 333 10139 21005=
07130,1996-03-17 21:00:00,8,1016.2,0.6,87,6,15000,11.112,,,210,,,,,,,,,,61,wg-a,,,,AAXX 17214 07130 02565 82106 10080 20060 30109 40162 51006 61000 76162 878// 92100 333 ////=
07130,1996-03-18 00:00:00,7,1016,-0.2,93,6,15000,7.408,,,140,,,,1,,,,,,21,wg-a,,,,AAXX 18004 07130 02565 81404 10070 20060 30107 40160 56002 60016 72162 8587/ 90000 333 60017=
07130,1996-03-18 03:00:00,6,1015.3,-0.7,93,5,12000,11.112,,,170,,,,,,,,,,21,wg-a,,,,AAXX 18034 07130 02562 81706 10060 20050 30100 40153 58007 61000 72122 8587/ 90300 333 ////=
07130,1996-03-18 06:00:00,5,1015.9,0.6,93,4,15000,3.704,,,120,5,10.8,,,,,1,,,,wg-a,,,,AAXX 18064 07130 12665 21202 10050 20040 30106 40159 53006 60014 82533 90600 333 10108 20050=
07130,1996-03-18 09:00:00,10,1016.6,0.8,76,6,25000,14.816,,,190,,,,,,,,,,,wg-a,,,,AAXX 18094 07130 12575 /1908 10100 20060 30114 40166 53008 60006 81130 90900=
07130,1996-03-18 12:00:00,13,1016.4,-0.2,58,5,35000,11.112,,,220,,,,,,,,,,,wg-a,,,,AAXX 18124 07130 12581 /2206 10130 20050 30112 40164 58002 60006 86200 91200=
07130,1996-03-18 15:00:00,14,1015.6,-0.8,55,5,40000,11.112,,,260,,,,,,,,,,,wg-a,,,,AAXX 18154 07130 12682 /2606 10140 20050 30104 40156 56008 60006 86900 91500=
07130,1996-03-18 18:00:00,13,1015.7,0.1,58,5,40000,11.112,,,190,4.5,14.9,,,,,,,,,wg-a,,,,AAXX 18184 07130 12682 /1906 10130 20050 30105 40157 53001 60006 85300 91800 333 10149 20045=
07130,1996-03-18 21:00:00,8,1016.6,0.8,76,4,40000,0,,,0,,,,,,,,,,,wg-a,,,,AAXX 18214 07130 12782 10000 10080 20040 30113 40166 51008 60006 81500 92100=
07130,1996-03-19 00:00:00,5,1016.5,-0.1,87,3,40000,0,,,0,,,,,,,,,,,wg-a,,,,AAXX 19004 07130 12/82 00000 10050 20030 30112 40165 58001 60006 80000 90000=
07130,1996-03-19 03:00:00,4,1015.6,-1,93,3,12000,0,,,0,,,,,,,,,,,wg-a,,,,AAXX 19034 07130 12/62 20000 10040 20030 30102 40156 58010 60006 80002 90300=
07130,1996-03-19 06:00:00,3,1015.4,-0.2,93,2,7000,7.408,,,90,2.5,12.5,,,,,,,,,wg-a,,,,AAXX 19064 07130 02/57 30904 10030 20020 30100 40154 56002 60006 82032 90600 333 10125 20025 60004=
07130,1996-03-19 09:00:00,9,1014.8,-0.5,71,4,10000,11.112,,,110,,,,,,,,,,,wg-a,,,,AAXX 19094 07130 12/60 31106 10090 20040 30095 40148 58005 60006 80001 90900=
07130,1996-03-19 12:00:00,14,1012.8,-1.9,47,3,20000,18.52,,,110,,,,,,,,,,,wg-a,,,,AAXX 19124 07130 12570 31110 10140 20030 30076 40128 58019 60006 81101 91200=
07130,1996-03-19 15:00:00,15,1010.4,-2.3,41,2,20000,22.224,,,120,,,,,,,,,,,wg-a,,,,AAXX 19154 07130 12670 21212 10150 20020 30053 40104 56023 60006 82101 91500=
07130,1996-03-19 18:00:00,12,1009.4,-1.1,50,2,12000,14.816,,,90,2.8,15.3,,,,,,,,,wg-a,,,,AAXX 19184 07130 12/62 60908 10120 20020 30042 40094 55011 60006 80002 91800 333 10153 20028=
07130,1996-03-19 21:00:00,9,1007.9,-1.5,61,2,15000,14.816,,,90,,,,,,,,,,,wg-a,,,,AAXX 19214 07130 12/65 50908 10090 20020 30027 40079 58015 60006 80002 92100=
07130,1996-03-20 00:00:00,9,1006.5,-1.4,57,1,15000,18.52,,,110,,,,,,,,,,,wg-a,,,,AAXX 20004 07130 12/65 71110 10090 20010 30013 40065 57014 60006 8703/ 90000=
07130,1996-03-20 03:00:00,8,1004.9,-1.6,76,4,8000,14.816,,,120,,,,0,,,,,,61,wg-a,,,,AAXX 20034 07130 12758 81208 10080 20040 39997 40049 58016 60007 76162 8257/ 90300=
07130,1996-03-20 06:00:00,6,1004,-0.9,100,6,2000,18.52,,,140,6.2,12.3,,3,,,4,,,10,wg-a,,,,AAXX 20064 07130 02420 81410 10060 20060 39988 40040 55009 60044 71062 875// 90600 333 10123 20062 60037=
07130,1996-03-20 09:00:00,10,1004.9,0.9,93,9,4000,18.52,,,180,,,,0,,,,,,10,wg-a,,,,AAXX 20094 07130 12740 71810 10100 20090 39997 40049 51009 60007 71022 875// 90900=
07130,1996-03-20 12:00:00,14,1004.8,0,63,7,20000,18.52,,38.892,220,,,,1,,,,,,25,wg-a,,,,AAXX 20124 07130 02670 42210 10140 20070 39997 40048 50000 60016 72581 83802 91200 333 60017 91021=
07130,1996-03-20 15:00:00,14,1004.6,-0.2,58,6,25000,31.484,,,220,,,,,,,,,,,wg-a,,,,AAXX 20154 07130 12675 /2217 10140 20060 39995 40046 55002 60006 85202 91500=
07130,1996-03-20 18:00:00,12,1005.5,0.9,67,6,500,25.928,,,210,6.4,14.4,,0,,,,,,,wg-a,,,,AAXX 20184 07130 12500 72114 10120 20060 30004 40055 51009 60007 86841 91800 333 10144 20064=
07130,1996-03-20 21:00:00,9,1005.9,0.3,93,8,15000,22.224,,,180,,,,2,,,,,,61,wg-a,,,,AAXX 20214 07130 12465 81812 10090 20080 30007 40059 51003 60027 76162 878// 92100=
07130,1996-03-21 00:00:00,9,1005.2,-0.7,93,8,10000,11.112,,,190,,,,3,,,,,,61,wg-a,,,,AAXX 21004 07130 02560 81906 10090 20080 30000 40052 57007 60056 76162 878// 90000 333 60037=
07130,1996-03-21 03:00:00,9,1004,-1.2,87,7,10000,14.816,,,210,,,,10,,,,,,61,wg-a,,,,AAXX 21034 07130 12460 82108 10090 20070 39988 40040 58012 60107 76162 875// 90300=
07130,1996-03-21 06:00:00,8,1004.5,0.5,93,7,20000,18.52,,,200,7.8,11.6,,0,,,17,,,3,wg-a,,,,AAXX 21064 07130 02670 22010 10080 20070 39993 40045 53005 60174 70361 81501 90600 333 10116 20078 60007=
07130,1996-03-21 12:00:00,12,1008.6,2,71,7,15000,18.52,,,250,,,,,,,,,,,wg-a,,,,AAXX 21124 07130 12565 72510 10120 20070 30034 40086 51020 60006 8687/ 91200=
07130,1996-03-21 15:00:00,13,1009.5,1,67,7,18000,25.928,,,240,,,,,,,,,,,wg-a,,,,AAXX 21154 07130 12668 72414 10130 20070 30044 40095 53010 60006 83202 91500=
07130,1996-03-21 18:00:00,11,1011.1,1.5,82,8,20000,22.224,,,230,7.8,13.1,,,,,,,,,wg-a,,,,AAXX 21184 07130 12570 72312 10110 20080 30059 40111 53015 60006 81102 91800 333 10131 20078=
07130,1996-03-21 21:00:00,9,1012.7,1.6,87,7,10000,11.112,,,220,,,,,,,,,,,wg-a,,,,AAXX 21214 07130 12/60 /2206 10090 20070 30075 40127 51016 60006 92100=
07130,1996-03-22 00:00:00,9,1013.2,0.5,93,8,0,11.112,,,220,,,,,,,,,,,wg-a,,,,AAXX 22004 07130 12/// /2206 10090 20080 30080 40132 50005 60006 90000=
07130,1996-03-22 06:00:00,9,1013,-0.2,93,8,3000,7.408,,,130,8.6,11.4,,0,,,1,,,51,wg-a,,,,AAXX 22064 07130 02230 81304 10090 20080 30078 40130 58002 60014 75165 877// 90600 333 10114 20086 60007=
07130,1996-03-22 09:00:00,11,1013.6,0.6,100,11,3500,18.52,,,210,,,,0,,,,,,50,wg-a,,,,AAXX 22094 07130 12235 72110 10110 20110 30084 40136 53006 60007 75052 877// 90900=
07130,1996-03-22 12:00:00,14,1014,0.5,88,12,12000,22.224,,,230,,,,,,,,,,1,wg-a,,,,AAXX 22124 07130 02462 72312 10140 20120 30089 40140 51005 60006 70152 878// 91200 333 61000=
07130,1996-03-22 15:00:00,15,1014.4,0.4,82,12,25000,14.816,,,250,,,,,,,,,,,wg-a,,,,AAXX 22154 07130 12575 72508 10150 20120 30093 40144 52004 60006 86201 91500=
07130,1996-03-22 18:00:00,14,1015.4,0.9,88,12,12000,14.816,,,220,8.6,15.6,,,,,,,,,wg-a,,,,AAXX 22184 07130 32462 72208 10140 20120 30102 40154 53009 878// 91800 333 10156 20086=
07130,1996-03-22 21:00:00,13,1015.9,0.5,88,11,15000,7.408,,,190,,,,,,,,,,,wg-a,,,,AAXX 22214 07130 12465 81904 10130 20110 30107 40159 51005 60006 885// 92100=
07130,1996-03-23 00:00:00,12,1016.3,0.4,88,10,20000,3.704,,,230,,,,,,,,,,,wg-a,,,,AAXX 23004 07130 12470 82302 10120 20100 30111 40163 51004 60006 885// 90000=
07130,1996-03-23 03:00:00,11,1015.7,-0.6,94,10,20000,3.704,,,170,,,,,,,,,,,wg-a,,,,AAXX 23034 07130 12370 81702 10110 20100 30105 40157 58006 60006 885// 90300=
07130,1996-03-23 06:00:00,11,1015.7,-0,94,10,1000,7.408,,,120,10.5,13.6,,,,,,,,10,wg-a,,,,AAXX 23064 07130 02110 81204 10110 20100 30105 40157 55000 60006 71022 886// 90600 333 10136 20105 60004=
07130,1996-03-23 09:00:00,11,1016.2,0.5,94,10,4500,14.816,,,110,,,,,,,,,,10,wg-a,,,,AAXX 23094 07130 12145 81108 10110 20100 30110 40162 50005 60006 71042 886// 90900=
07130,1996-03-23 12:00:00,18,1014.3,-1.8,73,13,18000,14.816,,,110,,,,,,,,,,1,wg-a,,,,AAXX 23124 07130 12/68 61108 10180 20130 30092 40143 58018 60006 70142 80002 91200=
07130,1996-03-23 15:00:00,21,1013.2,-1,60,13,20000,18.52,,,110,,,,,,,,,,,wg-a,,,,AAXX 23154 07130 12/70 61110 10210 20130 30082 40132 58010 60006 80002 91500=
07130,1996-03-23 18:00:00,19,1013,-0.2,68,13,15000,11.112,,,90,10,21.3,,,,,,,,,wg-a,,,,AAXX 23184 07130 12/65 60906 10190 20130 30080 40130 56002 60006 80002 91800 333 10213 20100=
07130,1996-03-24 00:00:00,13,1014.1,0.4,88,11,20000,7.408,,,110,,,,,,,,,,,wg-a,,,,AAXX 24004 07130 12/70 11104 10130 20110 30089 40141 53004 60006 81030 90000=
07130,1996-03-24 03:00:00,13,1013.7,-0.4,88,11,20000,14.816,,,120,,,,,,,,,,,wg-a,,,,AAXX 24034 07130 12/70 21208 10130 20110 30085 40137 56004 60006 81032 90300=
07130,1996-03-24 06:00:00,12,1014.1,0.4,88,10,7000,11.112,,,100,11.6,18.7,,,,,,,,,wg-a,,,,AAXX 24064 07130 02/57 31006 10120 20100 30089 40141 53004 60006 83042 90600 333 10187 20116 60004=
07130,1996-03-24 09:00:00,15,1014.3,0.3,77,11,8000,14.816,,,120,,,,,,,,,,,wg-a,,,,AAXX 24094 07130 12/58 /1208 10150 20110 30092 40143 50003 60006 81032 90900=
07130,1996-03-24 12:00:00,20,1013.9,-0.3,56,11,20000,22.224,,,120,,,,,,,,,,,wg-a,,,,AAXX 24124 07130 12/70 41212 10200 20110 30089 40139 55003 60006 81032 91200=
07130,1996-03-24 15:00:00,22,1013,-0.9,46,10,20000,18.52,,,150,,,,,,,,,,,wg-a,,,,AAXX 24154 07130 12/70 71510 10220 20100 30080 40130 58009 60006 8708/ 91500=
07130,1996-03-24 21:00:00,18,1013.2,0.4,68,12,20000,14.816,,,160,,,,,,,,,,25,wg-a,,,,AAXX 24214 07130 02770 71608 10180 20120 30081 40132 50004 61000 72522 82572 92100 333 ////=
07130,1996-03-25 00:00:00,15,1012.7,-0.5,82,12,12000,11.112,,,120,,,,0,,,,,,61,wg-a,,,,AAXX 25004 07130 02662 71206 10150 20120 30076 40127 56005 60016 76162 8458/ 90000 333 60007=
07130,1996-03-25 06:00:00,13,1012,-0.3,94,12,6000,11.112,,,120,13,20.4,,2,,,3,,,61,wg-a,,,,AAXX 25064 07130 02556 81206 10130 20120 30069 40120 55003 60034 76166 8587/ 90600 333 10204 20130 60027=
07130,1996-03-25 09:00:00,14,1012.7,0.7,94,13,7000,11.112,,,170,,,,1,,,,,,1,wg-a,,,,AAXX 25094 07130 12457 71706 10140 20130 30076 40127 51007 60017 70162 878// 90900=
07130,1996-03-25 12:00:00,17,1013.3,0.6,77,13,15000,18.52,,,260,,,,,,,,,,3,wg-a,,,,AAXX 25124 07130 12565 /2610 10170 20130 30082 40133 51006 60016 70361 86200 91200=
07130,1996-03-25 15:00:00,19,1013.5,0.2,60,11,500,22.224,,,250,,,,,,,,,,,wg-a,,,,AAXX 25154 07130 12600 /2512 10190 20110 30084 40135 50002 60006 85200 91500=
07130,1996-03-25 18:00:00,16,1014,0.5,72,11,500,7.408,,,240,12.8,18.7,,,,,,,,,wg-a,,,,AAXX 25184 07130 32600 72404 10160 20110 30089 40140 53005 875// 91800 333 10187 20128=
07130,1996-03-25 21:00:00,13,1014.5,0.4,88,11,500,7.408,,,230,,,,,,,,,,,wg-a,,,,AAXX 25214 07130 12/00 62304 10130 20110 30093 40145 50004 60006 84042 92100=
07130,1996-03-26 00:00:00,11,1013.9,-0.6,94,10,500,0,,,0,,,,,,,,,,,wg-a,,,,AAXX 26004 07130 12/00 60000 10110 20100 30087 40139 58006 60006 82042 90000=
07130,1996-03-26 03:00:00,10,1012.9,-1,93,9,15000,0,,,0,,,,,,,,,,11,wg-a,,,,AAXX 26034 07130 12/65 70000 10100 20090 30077 40129 57010 60006 71122 8703/ 90300=
07130,1996-03-26 06:00:00,10,1012.2,-0.7,93,9,6000,0,,,0,9.4,16.1,,,,,1,,,11,wg-a,,,,AAXX 26064 07130 02756 70000 10100 20090 30070 40122 58007 60006 71122 83532 90600 333 10161 20094 60014=
07130,1996-03-26 09:00:00,12,1013.3,1.1,88,10,9000,0,,,0,,,,,,,,,,,wg-a,,,,AAXX 26094 07130 12659 70000 10120 20100 30081 40133 51011 60006 83572 90900=
07130,1996-03-26 12:00:00,14,1012.7,-0.5,82,11,9000,7.408,,,330,,,,,,,,,,,wg-a,,,,AAXX 26124 07130 12559 73304 10140 20110 30076 40127 58005 60006 81872 91200=
07130,1996-03-26 15:00:00,13,1012.2,-0.5,94,12,3500,18.52,,,10,,,,0,,,,,,10,wg-a,,,,AAXX 26154 07130 12435 70110 10130 20120 30071 40122 55005 60007 71062 878// 91500=
07130,1996-03-26 18:00:00,11,1013.1,0.8,87,9,2000,18.52,,,30,9.7,14.6,,1,,,,,,10,wg-a,,,,AAXX 26184 07130 12420 70310 10110 20090 30079 40131 53008 60017 71062 8687/ 91800 333 10146 20097=
07130,1996-03-26 21:00:00,8,1014.9,1.7,87,6,1500,18.52,,,50,,,,0,,,,,,10,wg-a,,,,AAXX 26214 07130 12415 80510 10080 20060 30096 40149 51017 60007 71062 8652/ 92100=
07130,1996-03-27 00:00:00,7,1016.1,1.2,87,5,1200,22.224,,,50,,,,0,,,,,,60,wg-a,,,,AAXX 27004 07130 02412 80512 10070 20050 30108 40161 51012 60016 76062 8452/ 90000 333 60007=
07130,1996-03-27 03:00:00,5,1016.6,0.5,81,2,500,25.928,,,70,,,,0,,,,,,60,wg-a,,,,AAXX 27034 07130 12400 80714 10050 20020 30113 40166 53005 60007 76066 8352/ 90300=
07130,1996-03-27 06:00:00,4,1018.1,1.4,81,1,500,22.224,,,70,3.9,10.8,,0,,,3,,,21,wg-a,,,,AAXX 27064 07130 02400 80712 10040 20010 30127 40181 53014 60034 72162 82532 90600 333 10108 20039 60007=
07130,1996-03-27 09:00:00,5,1019.3,1.3,75,1,6000,25.928,,,90,,,,,,,,,,,wg-a,,,,AAXX 27094 07130 12556 70914 10050 20010 30140 40193 51013 60006 875// 90900=
07130,1996-03-27 12:00:00,7,1020.2,0.9,61,0,12000,22.224,,,70,,,,,,,,,,,wg-a,,,,AAXX 27124 07130 12562 /0712 10070 20000 30149 40202 51009 60006 81130 91200=
07130,1996-03-27 15:00:00,10,1019.7,-0.5,43,-2,20000,22.224,,,60,,,,,,,,,,,wg-a,,,,AAXX 27154 07130 12/70 10612 10100 21020 30144 40197 56005 60006 80001 91500=
07130,1996-03-27 18:00:00,8,1020.5,0.8,46,-3,40000,14.816,,,70,3.6,10.1,,,,,,,,,wg-a,,,,AAXX 27184 07130 12/82 00708 10080 21030 30152 40205 53008 60006 80000 91800 333 10101 20036=
07130,1996-03-27 21:00:00,5,1021.5,0.9,52,-4,500,11.112,,,50,,,,,,,,,,,wg-a,,,,AAXX 27214 07130 12/00 00506 10050 21040 30161 40215 53009 60006 80000 92100=
07130,1996-03-28 00:00:00,1,1021.4,-0.1,80,-2,25000,11.112,,,20,,,,,,,,,,,wg-a,,,,AAXX 28004 07130 12/75 00206 10010 21020 30160 40214 56001 60006 80000 90000=
07130,1996-03-28 03:00:00,-1,1020.9,-0.6,93,-2,25000,7.408,,,320,,,,,,,,,,,wg-a,,,,AAXX 28034 07130 12/75 03204 11010 21020 30154 40209 58006 60006 80000 90300=
07130,1996-03-28 06:00:00,-2,1020.9,-0,93,-3,9000,3.704,,,280,-2.7,8.3,,,,,,,,,wg-a,,,,AAXX 28064 07130 02/59 32802 11020 21030 30154 40209 55000 60006 80001 90600 333 10083 21027 60004=
07130,1996-03-28 09:00:00,4,1020.3,-0.5,70,-1,9000,3.704,,,280,,,,,,,,,,,wg-a,,,,AAXX 28094 07130 12/59 /2802 10040 21010 30149 40203 58005 60006 80002 90900=
07130,1996-03-28 12:00:00,8,1019.8,-0.4,49,-2,15000,7.408,,,280,,,,,,,,,,,wg-a,,,,AAXX 28124 07130 12/65 22804 10080 21020 30145 40198 58004 60006 80002 91200=
07130,1996-03-28 15:00:00,10,1018.4,-1.4,53,1,13000,18.52,,,350,,,,,,,,,,,wg-a,,,,AAXX 28154 07130 12663 33510 10100 20010 30131 40184 56014 60006 83100 91500=
07130,1996-03-28 18:00:00,7,1018.8,0.4,66,1,15000,18.52,,,340,-2.4,10.2,,,,,,,,,wg-a,,,,AAXX 28184 07130 12765 13410 10070 20010 30135 40188 53004 60006 81500 91800 333 10102 21024=
07130,1996-03-29 03:00:00,1,1019.1,-0.8,86,-1,15000,3.704,,,280,,,,,,,,,,,wg-a,,,,AAXX 29034 07130 12/65 22802 10010 21010 30137 40191 58008 60006 80001 90300=
07130,1996-03-29 06:00:00,1,1018.9,-0.2,93,0,500,3.704,,,260,0.2,6.6,,,,,,,,,wg-a,,,,AAXX 29064 07130 02500 22602 10010 20000 30135 40189 56002 60006 82501 90600 333 10066 20002 60004=
07130,1996-03-29 09:00:00,6,1019,0.2,87,4,7000,11.112,,,290,,,,,,,,,,,wg-a,,,,AAXX 29094 07130 12657 /2906 10060 20040 30137 40190 52002 60006 86500 90900=
07130,1996-03-29 12:00:00,9,1018.3,-0.7,76,5,10000,14.816,,,310,,,,,,,,,,,wg-a,,,,AAXX 29124 07130 12560 83108 10090 20050 30130 40183 58007 60006 888// 91200=
07130,1996-03-29 15:00:00,9,1016.9,-1.4,71,4,10000,11.112,,,330,,,,0,,,,,,,wg-a,,,,AAXX 29154 07130 12560 83306 10090 20040 30116 40169 57014 60007 888// 91500=
07130,1996-03-29 18:00:00,8,1016.2,-0.7,66,2,15000,14.816,,,350,0.4,9.6,,,,,,,,,wg-a,,,,AAXX 29184 07130 32765 73508 10080 20020 30109 40162 56007 875// 91800 333 10096 20004=
07130,1996-03-29 21:00:00,5,1016.7,0.5,75,1,500,7.408,,,340,,,,,,,,,,,wg-a,,,,AAXX 29214 07130 12/00 03404 10050 20010 30114 40167 51005 60006 80000 92100=
07130,1996-03-30 00:00:00,2,1016.4,-0.4,93,1,25000,3.704,,,260,,,,,,,,,,,wg-a,,,,AAXX 30004 07130 12/75 02602 10020 20010 30110 40164 56004 60006 80000 90000=
07130,1996-03-30 03:00:00,1,1015.9,-0.5,86,-1,25000,3.704,,,230,,,,,,,,,,,wg-a,,,,AAXX 30034 07130 12/75 02302 10010 21010 30105 40159 58005 60006 80000 90300=
07130,1996-03-30 06:00:00,1,1016.5,0.6,93,0,9000,0,,,0,-0.4,8.4,,,,,,,,,wg-a,,,,AAXX 30064 07130 02/59 00000 10010 20000 30111 40165 53006 60006 80000 90600 333 10084 21004 60004=
07130,1996-03-30 09:00:00,4,1017.9,1.4,81,1,7000,11.112,,,70,,,,,,,,,,,wg-a,,,,AAXX 30094 07130 12257 20706 10040 20010 30125 40179 51014 60006 82100 90900=
07130,1996-03-30 12:00:00,8,1018.3,0.5,61,1,10000,18.52,,,30,,,,,,,,,,,wg-a,,,,AAXX 30124 07130 12660 70310 10080 20010 30130 40183 51005 60006 872// 91200=
07130,1996-03-30 15:00:00,9,1018.2,-0.1,49,-1,20000,14.816,,,30,,,,,,,,,,,wg-a,,,,AAXX 30154 07130 12670 70308 10090 21010 30129 40182 58001 60006 878// 91500=
07130,1996-03-30 18:00:00,9,1018.7,0.5,46,-2,20000,11.112,,,30,0.4,9.6,,,,,,,,,wg-a,,,,AAXX 30184 07130 12770 70306 10090 21020 30134 40187 53005 60006 875// 91800 333 10096 20004=
07130,1996-03-30 21:00:00,6,1019.5,0.8,61,-1,40000,22.224,,,70,,,,,,,,,,,wg-a,,,,AAXX 30214 07130 12782 30712 10060 21010 30142 40195 51008 60006 83500 92100=
07130,1996-03-31 00:00:00,3,1020.1,0.5,70,-2,40000,11.112,,,100,,,,,,,,,,,wg-a,,,,AAXX 31004 07130 12/82 01006 10030 21020 30147 40201 52005 60006 80000 90000=
07130,1996-03-31 03:00:00,0,1018.9,-1.2,86,-2,40000,0,,,0,,,,,,,,,,,wg-a,,,,AAXX 31034 07130 12/82 00000 10000 21020 30135 40189 56012 60006 80000 90300=
07130,1996-03-31 06:00:00,0,1018.2,-0.7,80,-3,500,3.704,,,160,-0.4,8.6,,,,,,,,,wg-a,,,,AAXX 31064 07130 02/00 21602 10000 21030 30128 40182 56007 60006 80001 90600 333 10086 21004 60004=
07130,1996-03-31 09:00:00,5,1018,-0.1,56,-3,500,18.52,,,120,,,,,,,,,,,wg-a,,,,AAXX 31094 07130 12/00 31210 10050 21030 30127 40180 58001 60006 80001 90900=
07130,1996-03-31 12:00:00,9,1016.4,-1.6,46,-2,500,18.52,,,160,,,,,,,,,,,wg-a,,,,AAXX 31124 07130 12600 /1610 10090 21020 30111 40164 58016 60006 83101 91200=
07130,1996-03-31 15:00:00,9,1014.1,-2.3,43,-3,25000,11.112,,,150,,,,,,,,,,,wg-a,,,,AAXX 31154 07130 12775 71506 10090 21030 30088 40141 58023 60006 83472 91500=
07130,1996-03-31 18:00:00,8,1012.5,-1.6,46,-3,20000,14.816,,,170,-0.1,9.5,,,,,,,,,wg-a,,,,AAXX 31184 07130 12/70 81708 10080 21030 30072 40125 56016 60006 84072 91800 333 10095 21001=
07130,1996-03-31 21:00:00,8,1011.1,-1.4,46,-3,20000,11.112,,,80,,,,,,,,,,,wg-a,,,,AAXX 31214 07130 12/70 80806 10080 21030 30058 40111 56014 60006 8707/ 92100=
07130,1996-04-01 00:00:00,6,1010,-1.1,56,-2,20000,18.52,,,100,,,,,,,,,,,wg-a,,,,AAXX 01004 07130 12770 71010 10060 21020 30047 40100 58011 60006 875// 90000=
07130,1996-04-01 03:00:00,4,1008.1,-1.9,70,-1,12000,22.224,,,90,,,,,,,,,,,wg-a,,,,AAXX 01034 07130 12762 70912 10040 21010 30028 40081 56019 60006 875// 90300=
07130,1996-04-01 06:00:00,4,1007.6,-0.5,65,-2,9000,22.224,,,80,3.7,7.8,,,,,,,,,wg-a,,,,AAXX 01064 07130 02759 70812 10040 21020 30023 40076 56005 60006 87542 90600 333 10078 20037 60004=
07130,1996-04-01 09:00:00,5,1008.3,0.7,60,-2,8000,25.928,,,80,,,,,,,,,,,wg-a,,,,AAXX 01094 07130 12/58 70814 10050 21020 30030 40083 51007 60006 83048 90900=
07130,1996-04-01 12:00:00,9,1007.7,-0.5,43,-3,15000,25.928,,,70,,,,,,,,,,,wg-a,,,,AAXX 01124 07130 12665 /0714 10090 21030 30025 40077 58005 60006 83102 91200=
07130,1996-04-01 18:00:00,7,1009.4,1.8,57,-1,500,25.928,,,30,3.6,10.3,,,,,,,,,wg-a,,,,AAXX 01184 07130 12600 /0314 10070 21010 30042 40094 53018 60006 83430 91800 333 10103 20036=
07130,1996-04-01 21:00:00,4,1013.3,3.8,70,-1,20000,25.928,,,30,,,,,,,,,,,wg-a,,,,AAXX 01214 07130 12/70 00314 10040 21010 30080 40133 51038 60006 80000 92100=
07130,1996-04-02 00:00:00,2,1015.5,2.1,75,-2,20000,22.224,,,40,,,,,,,,,,,wg-a,,,,AAXX 02004 07130 12/70 00412 10020 21020 30101 40155 51021 60006 80000 90000=
07130,1996-04-02 03:00:00,1,1017,1.5,75,-3,20000,14.816,,,20,,,,,,,,,,,wg-a,,,,AAXX 02034 07130 12/70 00208 10010 21030 30116 40170 53015 60006 80000 90300=
07130,1996-04-02 06:00:00,0,1019,2,80,-3,12000,14.816,,,30,0.2,7.9,,,,,,,,,wg-a,,,,AAXX 02064 07130 02/62 00308 10000 21030 30136 40190 53020 60006 80000 90600 333 10079 20002 60004=
07130,1996-04-02 09:00:00,5,1021.3,2.3,56,-3,14000,18.52,,,30,,,,,,,,,,,wg-a,,,,AAXX 02094 07130 12564 /0310 10050 21030 30159 40213 51023 60006 81100 90900=
07130,1996-04-02 12:00:00,6,1022.1,0.9,56,-2,20000,25.928,,,30,,,,,,,,,,,wg-a,,,,AAXX 02124 07130 12670 /0314 10060 21020 30168 40221 51009 60006 85100 91200=
07130,1996-04-02 15:00:00,8,1022.1,0,42,-4,25000,18.52,,,20,,,,,,,,,,,wg-a,,,,AAXX 02154 07130 12675 30210 10080 21040 30168 40221 50000 60006 83400 91500=
07130,1996-04-02 18:00:00,6,1023.6,1.4,49,-4,25000,25.928,,,360,0.1,8,,,,,,,,,wg-a,,,,AAXX 02184 07130 12675 /3614 10060 21040 30182 40236 53014 60006 81400 91800 333 10080 20001=
07130,1996-04-02 21:00:00,3,1025.6,2,60,-4,20000,14.816,,,30,,,,,,,,,,,wg-a,,,,AAXX 02214 07130 12/70 00308 10030 21040 30202 40256 51020 60006 80000 92100=
07130,1996-04-03 00:00:00,1,1026.1,0.4,75,-3,15000,11.112,,,20,,,,,,,,,,,wg-a,,,,AAXX 03004 07130 12/65 00206 10010 21030 30206 40261 51004 60006 80000 90000=
07130,1996-04-03 03:00:00,-3,1026.1,0,86,-5,15000,11.112,,,290,,,,,,,,,,,wg-a,,,,AAXX 03034 07130 12/65 02906 11030 21050 30206 40261 50000 60006 80000 90300=
07130,1996-04-03 06:00:00,0,1026.7,0.6,86,-2,10000,0,,,0,-2.8,6.1,,,,,,,,,wg-a,,,,AAXX 03064 07130 02560 /0000 10000 21020 30212 40267 53006 60006 85500 90600 333 10061 21028 60004=
07130,1996-04-03 09:00:00,6,1028,1.4,65,0,10000,18.52,,,40,,,,,,,,,,,wg-a,,,,AAXX 03094 07130 12560 20410 10060 20000 30226 40280 53014 60006 82100 90900=
07130,1996-04-03 12:00:00,7,1027.8,-0.2,49,-3,15000,18.52,,,40,,,,,,,,,,,wg-a,,,,AAXX 03124 07130 12665 /0410 10070 21030 30224 40278 58002 60006 85200 91200=
07130,1996-04-03 15:00:00,9,1027.1,-0.6,40,-4,12000,18.52,,,20,,,,,,,,,,,wg-a,,,,AAXX 03154 07130 12662 30210 10090 21040 30218 40271 57006 60006 83200 91500=
07130,1996-04-03 18:00:00,8,1027.5,0.4,39,-5,18000,11.112,,,40,-0.2,9.2,,,,,,,,,wg-a,,,,AAXX 03184 07130 12768 30406 10080 21050 30222 40275 53004 60006 83400 91800 333 10092 21002=
07130,1996-04-03 21:00:00,5,1029.4,1.8,56,-3,12000,18.52,,,60,,,,,,,,,,,wg-a,,,,AAXX 03214 07130 12/62 00610 10050 21030 30240 40294 51018 60006 80000 92100=
07130,1996-04-04 00:00:00,3,1029.9,0.5,70,-2,12000,18.52,,,70,,,,,,,,,,,wg-a,,,,AAXX 04004 07130 12/62 00710 10030 21020 30245 40299 51005 60006 80000 90000=
07130,1996-04-04 03:00:00,1,1029.4,-0.6,80,-2,12000,11.112,,,60,,,,,,,,,,,wg-a,,,,AAXX 04034 07130 12/62 00606 10010 21020 30239 40294 58006 60006 80000 90300=
07130,1996-04-04 06:00:00,-2,1028.9,-0.5,93,-3,2500,0,,,0,-2,8,,,,,,,,10,wg-a,,,,AAXX 04064 07130 02/25 00000 11020 21030 30234 40289 56005 60006 71000 80000 90600 333 10080 21020 60004=
07130,1996-04-04 09:00:00,7,1028.3,-0.5,49,-3,8000,14.816,,,90,,,,,,,,,,,wg-a,,,,AAXX 04094 07130 12/58 00908 10070 21030 30229 40283 58005 60006 80000 90900=
07130,1996-04-04 12:00:00,11,1026.2,-2,35,-4,12000,18.52,,,100,,,,,,,,,,,wg-a,,,,AAXX 04124 07130 12/62 01010 10110 21040 30209 40262 58020 60006 80000 91200=
07130,1996-04-04 15:00:00,12,1023.8,-2.3,40,-1,11000,11.112,,,90,,,,,,,,,,,wg-a,,,,AAXX 04154 07130 12/61 00906 10120 21010 30186 40238 58023 60006 80000 91500=
07130,1996-04-04 18:00:00,11,1023,-0.9,43,-1,12000,14.816,,,60,-2.4,12.6,,,,,,,,,wg-a,,,,AAXX 04184 07130 12/62 00608 10110 21010 30177 40230 56009 60006 80000 91800 333 10126 21024=
07130,1996-04-04 21:00:00,7,1022.6,-0.4,61,0,8000,14.816,,,50,,,,,,,,,,,wg-a,,,,AAXX 04214 07130 12/58 00508 10070 20000 30173 40226 57004 60006 80000 92100=
07130,1996-04-05 00:00:00,5,1021.8,-0.9,75,1,7000,7.408,,,70,,,,,,,,,,,wg-a,,,,AAXX 05004 07130 12/57 00704 10050 20010 30164 40218 56009 60006 80000 90000=
07130,1996-04-05 03:00:00,2,1020.4,-1.4,87,0,500,0,,,0,,,,,,,,,,,wg-a,,,,AAXX 05034 07130 12/00 00000 10020 20000 30150 40204 56014 60006 80000 90300=
07130,1996-04-05 06:00:00,0,1019.9,-0.5,100,0,800,3.704,,,350,0.3,10.7,,,,,,,,10,wg-a,,,,AAXX 05064 07130 02608 /3502 10000 20000 30145 40199 56005 60006 71041 86502 90600 333 10107 20003 60004=
07130,1996-04-05 09:00:00,8,1018.6,-1.2,57,0,7000,18.52,,,80,,,,,,,,,,3,wg-a,,,,AAXX 05094 07130 12657 /0810 10080 20000 30133 40186 56012 60006 70341 81101 90900=
07130,1996-04-05 12:00:00,9,1017,-1.6,57,1,7000,18.52,,,90,,,,,,,,,,2,wg-a,,,,AAXX 05124 07130 12657 70910 10090 20010 30117 40170 56016 60006 70241 878// 91200=
07130,1996-04-05 15:00:00,8,1016.2,-0.8,61,1,6000,11.112,,,110,,,,,,,,,,,wg-a,,,,AAXX 05154 07130 12556 71106 10080 20010 30109 40162 57008 60006 878// 91500=
07130,1996-04-05 18:00:00,7,1016.4,0.2,66,1,0,7.408,,,60,0.3,9.5,,,,,,,,,wg-a,,,,AAXX 05184 07130 125// 80604 10070 20010 30111 40164 53002 60006 885// 91800 333 10095 20003=
07130,1996-04-05 21:00:00,7,1016.6,0.2,66,1,500,11.112,,,60,,,,,,,,,,,wg-a,,,,AAXX 05214 07130 12600 80606 10070 20010 30113 40166 52002 60006 885// 92100=
07130,1996-04-06 00:00:00,5,1016.2,-0.4,75,1,0,7.408,,,60,,,,,,,,,,,wg-a,,,,AAXX 06004 07130 12/// /0604 10050 20010 30109 40162 57004 60006 90000=
07130,1996-04-06 03:00:00,4,1015.8,-0.4,87,2,500,7.408,,,40,,,,,,,,,,,wg-a,,,,AAXX 06034 07130 12700 80404 10040 20020 30105 40158 57004 60006 885// 90300=
07130,1996-04-06 06:00:00,4,1015.9,0.1,93,3,3500,0,,,0,3.8,7.1,,,,,,,,11,wg-a,,,,AAXX 06064 07130 02535 80000 10040 20030 30106 40159 53001 60006 71122 885// 90600 333 10071 20038 60004=
07130,1996-04-06 09:00:00,7,1017,1.1,76,3,3500,0,,,0,,,,,,,,,,10,wg-a,,,,AAXX 06094 07130 12735 80000 10070 20030 30117 40170 51011 60006 71022 885// 90900=
07130,1996-04-06 12:00:00,9,1017.2,0.2,66,3,4500,7.408,,,310,,,,,,,,,,10,wg-a,,,,AAXX 06124 07130 12745 83104 10090 20030 30119 40172 53002 60006 71022 875// 91200=
07130,1996-04-06 15:00:00,10,1017.4,0.2,62,3,500,7.408,,,350,,,,,,,,,,,wg-a,,,,AAXX 06154 07130 12700 73504 10100 20030 30121 40174 52002 60006 875// 91500=
07130,1996-04-06 18:00:00,10,1018.2,0.8,66,4,0,3.704,,,360,4.2,9.9,,,,,,,,,wg-a,,,,AAXX 06184 07130 127// 83602 10100 20040 30129 40182 53008 60006 885// 91800 333 10099 20042=
07130,1996-04-06 21:00:00,8,1019.4,1.2,81,5,4000,7.408,,,10,,,,,,,,,,10,wg-a,,,,AAXX 06214 07130 12640 80104 10080 20050 30141 40194 53012 60006 71022 885// 92100=
07130,1996-04-07 00:00:00,7,1019.7,0.3,93,6,1500,7.408,,,320,,,,,,,,,,10,wg-a,,,,AAXX 07004 07130 12715 83204 10070 20060 30144 40197 51003 60006 71022 885// 90000=
07130,1996-04-07 03:00:00,7,1020.1,0.4,93,6,1500,7.408,,,320,,,,,,,,,,10,wg-a,,,,AAXX 07034 07130 12715 83204 10070 20060 30148 40201 52004 60006 71022 885// 90300=
07130,1996-04-07 06:00:00,7,1021.1,1,93,6,1200,3.704,,,340,6.8,9.6,,,,,,,,10,wg-a,,,,AAXX 07064 07130 02212 83402 10070 20060 30158 40211 53010 60006 71022 886// 90600 333 10096 20068 60004=
07130,1996-04-07 09:00:00,8,1022.8,1.7,93,7,2000,3.704,,,40,,,,,,,,,,10,wg-a,,,,AAXX 07094 07130 12320 80402 10080 20070 30175 40228 52017 60006 71022 885// 90900=
07130,1996-04-07 12:00:00,10,1023.6,0.8,82,7,2500,7.408,,,330,,,,,,,,,,10,wg-a,,,,AAXX 07124 07130 12725 83304 10100 20070 30183 40236 51008 60006 71022 885// 91200=
07130,1996-04-07 15:00:00,12,1023.5,-0,62,5,4500,7.408,,,320,,,,,,,,,,10,wg-a,,,,AAXX 07154 07130 12645 83204 10120 20050 30183 40235 54000 60006 71022 885// 91500=
07130,1996-04-07 18:00:00,12,1024.5,1,67,6,500,7.408,,,340,7,11.9,,,,,,,,,wg-a,,,,AAXX 07184 07130 12700 83404 10120 20060 30193 40245 53010 60006 885// 91800 333 10119 20070=
07130,1996-04-07 21:00:00,10,1025.9,1.3,76,6,500,7.408,,,40,,,,,,,,,,,wg-a,,,,AAXX 07214 07130 12700 80404 10100 20060 30206 40259 53013 60006 885// 92100=
07130,1996-04-08 00:00:00,9,1026.9,1,81,6,500,11.112,,,320,,,,,,,,,,,wg-a,,,,AAXX 08004 07130 12700 83206 10090 20060 30216 40269 51010 60006 885// 90000=
07130,1996-04-08 03:00:00,8,1027,0.1,87,6,3000,3.704,,,330,,,,,,,,,,10,wg-a,,,,AAXX 08034 07130 12730 83302 10080 20060 30217 40270 50001 60006 71022 885// 90300=
07130,1996-04-08 06:00:00,7,1028.2,1.2,93,6,1800,3.704,,,280,6.8,11.7,,,,,,,,10,wg-a,,,,AAXX 08064 07130 02718 82802 10070 20060 30229 40282 53012 60006 71022 875// 90600 333 10117 20068 60004=
07130,1996-04-08 09:00:00,9,1029.7,1.5,87,7,1800,3.704,,,210,,,,,,,,,,10,wg-a,,,,AAXX 08094 07130 12718 82102 10090 20070 30244 40297 52015 60006 71022 875// 90900=
07130,1996-04-08 12:00:00,12,1029.4,-0.3,71,7,3500,7.408,,,240,,,,,,,,,,10,wg-a,,,,AAXX 08124 07130 12735 82404 10120 20070 30241 40294 58003 60006 71022 875// 91200=
07130,1996-04-08 15:00:00,13,1029,-0.3,62,6,6000,7.408,,,320,,,,,,,,,,,wg-a,,,,AAXX 08154 07130 12756 83204 10130 20060 30238 40290 57003 60006 875// 91500=
07130,1996-04-08 21:00:00,10,1029.3,0.2,76,6,7000,3.704,,,160,,,,,,,,,,,wg-a,,,,AAXX 08214 07130 12757 31602 10100 20060 30240 40293 53002 60006 83500 92100=
07130,1996-04-09 03:00:00,5,1028.2,-1,93,4,3500,3.704,,,130,,,,,,,,,,10,wg-a,,,,AAXX 09034 07130 12/35 01302 10050 20040 30228 40282 58010 60006 71000 80000 90300=
07130,1996-04-09 06:00:00,5,1027.6,-0.6,93,4,1500,7.408,,,90,3.8,12.5,,,,,,,,28,wg-a,,,,AAXX 09064 07130 02715 70904 10050 20040 30222 40276 55006 60006 72841 875// 90600 333 10125 20038 60004=
07130,1996-04-09 09:00:00,10,1027.6,0.1,76,6,2500,7.408,,,140,,,,,,,,,,10,wg-a,,,,AAXX 09094 07130 12725 71404 10100 20060 30223 40276 51001 60006 71022 875// 90900=
07130,1996-04-09 12:00:00,15,1026.2,-1.3,51,5,9000,11.112,,,170,,,,,,,,,,,wg-a,,,,AAXX 09124 07130 12659 /1706 10150 20050 30210 40262 58013 60006 86800 91200=
07130,1996-04-09 15:00:00,17,1024.2,-2,48,6,10000,11.112,,,160,,,,,,,,,,,wg-a,,,,AAXX 09154 07130 12760 31606 10170 20060 30190 40242 58020 60006 83100 91500=
07130,1996-04-09 18:00:00,15,1022.7,-1.5,55,6,8000,11.112,,,160,4.9,17,,,,,,,,,wg-a,,,,AAXX 09184 07130 12/58 31606 10150 20060 30175 40227 56015 60006 80001 91800 333 10170 20049=
07130,1996-04-09 21:00:00,11,1022.6,-0.1,76,7,8000,3.704,,,160,,,,,,,,,,,wg-a,,,,AAXX 09214 07130 12/58 21602 10110 20070 30174 40226 58001 60006 80001 92100=
07130,1996-04-10 00:00:00,9,1021.7,-1,81,6,8000,0,,,0,,,,,,,,,,,wg-a,,,,AAXX 10004 07130 12/58 /0000 10090 20060 30164 40217 58010 60006 80002 90000=
07130,1996-04-10 03:00:00,8,1019.6,-2.1,87,6,7000,3.704,,,180,,,,,,,,,,,wg-a,,,,AAXX 10034 07130 12/57 81802 10080 20060 30143 40196 56021 60006 84022 90300=
07130,1996-04-10 06:00:00,9,1018.8,-0.8,81,6,4000,7.408,,,150,8,15.3,,,,,,,,10,wg-a,,,,AAXX 10064 07130 02740 81504 10090 20060 30135 40188 56008 60006 71022 8352/ 90600 333 10153 20080 60004=
07130,1996-04-10 09:00:00,10,1018.8,0.1,93,9,2500,11.112,,,190,,,,1,,,,,,10,wg-a,,,,AAXX 10094 07130 12225 81906 10100 20090 30136 40188 50001 60017 71062 877// 90900=
07130,1996-04-10 12:00:00,14,1017.9,-0.9,82,11,10000,11.112,,,210,,,,,,,,,,3,wg-a,,,,AAXX 10124 07130 12460 72106 10140 20110 30127 40179 56009 60016 70361 872// 91200=
07130,1996-04-10 15:00:00,16,1017,-0.8,72,11,1200,11.112,,,290,,,,,,,,,,,wg-a,,,,AAXX 10154 07130 12512 /2906 10160 20110 30119 40170 58008 60006 85202 91500=
07130,1996-04-10 18:00:00,14,1017.7,0.6,77,10,15000,14.816,,,10,8.6,17.2,,,,,,,,,wg-a,,,,AAXX 10184 07130 32665 70108 10140 20100 30125 40177 53006 85202 91800 333 10172 20086=
07130,1996-04-10 21:00:00,10,1019,1.3,87,8,15000,14.816,,,10,,,,,,,,,,,wg-a,,,,AAXX 10214 07130 12665 /0108 10100 20080 30138 40190 51013 60006 85500 92100=
07130,1996-04-11 00:00:00,9,1018.9,-0.2,87,7,15000,11.112,,,320,,,,,,,,,,,wg-a,,,,AAXX 11004 07130 12565 43206 10090 20070 30136 40189 58002 60006 84500 90000=
07130,1996-04-11 03:00:00,7,1018.3,-0.6,100,7,10000,3.704,,,290,,,,,,,,,,,wg-a,,,,AAXX 11034 07130 12360 82902 10070 20070 30130 40183 56006 60006 876// 90300=
07130,1996-04-11 06:00:00,8,1018.2,-0.1,100,8,500,0,,,0,7.4,13.5,,,,,1,,,,wg-a,,,,AAXX 11064 07130 02200 70000 10080 20080 30129 40182 56001 60006 876// 90600 333 10135 20074 60014=
07130,1996-04-11 09:00:00,11,1018.6,0.5,82,8,9000,7.408,,,310,,,,,,,,,,,wg-a,,,,AAXX 11094 07130 12459 73104 10110 20080 30134 40186 50005 60006 875// 90900=
07130,1996-04-11 10:00:00,14,1015.6,-0.4,67,8,15000,7.408,,,20,8.2,16.6,,,,,,,,,wg-a,,,,AAXX 11104 07130 12/65 70204 10140 20080 30105 40156 56004 60006 81036 91000 333 10166 20082=
07130,1996-04-11 12:00:00,14,1017.4,-1.2,58,6,17000,3.704,,,300,,,,,,,,,,,wg-a,,,,AAXX 11124 07130 12567 73002 10140 20060 30122 40174 58012 60006 83201 91200=
07130,1996-04-11 18:00:00,15,1015.6,-0.4,55,6,15000,7.408,,,20,8.2,16.6,,,,,,,,,wg-a,,,,AAXX 11184 07130 12/65 70204 10150 20060 30105 40156 56004 60006 81036 91800 333 10166 20082=
07130,1996-04-11 21:00:00,12,1015.9,0.2,71,7,11000,11.112,,,50,,,,,,,,,,,wg-a,,,,AAXX 11214 07130 12/61 80506 10120 20070 30107 40159 52002 60006 80007 92100=
07130,1996-04-12 00:00:00,9,1015.9,0,87,7,11000,7.408,,,320,,,,,,,,,,,wg-a,,,,AAXX 12004 07130 12/61 83204 10090 20070 30107 40159 50000 60006 80007 90000=
07130,1996-04-12 03:00:00,9,1015,-0.9,87,7,8000,0,,,0,,,,,,,,,,,wg-a,,,,AAXX 12034 07130 12/58 /0000 10090 20070 30098 40150 56009 60006 90300=
07130,1996-04-12 06:00:00,9,1014.6,-0.4,87,7,7000,3.704,,,110,8.7,15,,,,,,,,,wg-a,,,,AAXX 12064 07130 02/57 71102 10090 20070 30094 40146 56004 60006 8707/ 90600 333 10150 20087 60004=
07130,1996-04-12 09:00:00,12,1015.1,0.5,76,8,6000,3.704,,,150,,,,,,,,,,,wg-a,,,,AAXX 12094 07130 12856 71502 10120 20080 30099 40151 50005 60006 8157/ 90900=
07130,1996-04-12 12:00:00,18,1013.7,-1.3,49,7,15000,7.408,,,190,,,,,,,,,,,wg-a,,,,AAXX 12124 07130 12665 51904 10180 20070 30086 40137 56013 60006 81132 91200=
07130,1996-04-12 15:00:00,19,1012.5,-1.2,49,8,18000,11.112,,,210,,,,,,,,,,,wg-a,,,,AAXX 12154 07130 12668 72106 10190 20080 30074 40125 56012 60006 81172 91500=
07130,1996-04-12 18:00:00,16,1012.5,-0,68,10,10000,14.816,,,280,9.1,19.1,,,,,,,,,wg-a,,,,AAXX 12184 07130 12660 82808 10160 20100 30074 40125 55000 60006 8257/ 91800 333 10191 20091=
07130,1996-04-12 21:00:00,14,1013.3,0.8,77,10,15000,7.408,,,220,,,,,,,,,,21,wg-a,,,,AAXX 12214 07130 02765 82204 10140 20100 30082 40133 51008 61000 72162 8457/ 92100 333 ////=
07130,1996-04-13 03:00:00,10,1013.5,-0.4,93,9,10000,3.704,,,290,,,,0,,,,,,60,wg-a,,,,AAXX 13034 07130 12460 82902 10100 20090 30083 40135 55004 60007 76066 8552/ 90300=
07130,1996-04-13 06:00:00,10,1014,0.5,100,10,2000,3.704,,,260,10.2,16.1,,3,,,4,,,10,wg-a,,,,AAXX 13064 07130 02320 82602 10100 20100 30088 40140 53005 60044 71066 8772/ 90600 333 10161 20102 60037=
07130,1996-04-13 09:00:00,11,1015.4,1.4,100,11,2500,7.408,,,290,,,,5,,,,,,61,wg-a,,,,AAXX 13094 07130 12225 82904 10110 20110 30102 40154 53014 60057 76166 877// 90900=
07130,1996-04-13 12:00:00,13,1016.1,0.7,82,10,25000,7.408,,,290,,,,0,,,,,,1,wg-a,,,,AAXX 13124 07130 02475 72904 10130 20100 30109 40161 50007 60056 70162 871// 91200 333 60007=
07130,1996-04-13 15:00:00,13,1016.3,0.2,88,11,25000,14.816,,,340,,,,,,,,,,,wg-a,,,,AAXX 13154 07130 12575 73408 10130 20110 30111 40163 53002 60006 875// 91500=
07130,1996-04-13 18:00:00,12,1017.2,0.9,82,9,10000,14.816,,,10,10.3,14,,,,,,,,,wg-a,,,,AAXX 13184 07130 32560 /0108 10120 20090 30120 40172 51009 81101 91800 333 10140 20103=
07130,1996-04-13 21:00:00,9,1019.1,1.8,93,8,500,7.408,,,340,,,,,,,,,,,wg-a,,,,AAXX 13214 07130 12/00 33404 10090 20080 30138 40191 53018 60006 80001 92100=
07130,1996-04-14 00:00:00,7,1019.8,0.7,100,7,500,3.704,,,290,,,,,,,,,,,wg-a,,,,AAXX 14004 07130 12400 72902 10070 20070 30145 40198 51007 60006 875// 90000=
07130,1996-04-14 03:00:00,5,1019.6,-0.2,100,5,800,11.112,,,310,,,,,,,,,,44,wg-a,,,,AAXX 14034 07130 12308 83106 10050 20050 30143 40196 56002 60006 74442 885// 90300=
07130,1996-04-14 06:00:00,6,1020.5,0.9,100,6,1500,7.408,,,300,5.2,12,,,,,5,,,10,wg-a,,,,AAXX 14064 07130 02115 83004 10060 20060 30152 40205 53009 60006 71042 886// 90600 333 10120 20052 60054=
07130,1996-04-14 09:00:00,8,1022.1,1.6,93,7,2400,7.408,,,330,,,,,,,,,,10,wg-a,,,,AAXX 14094 07130 12224 83304 10080 20070 30168 40221 51016 60006 71022 886// 90900=
07130,1996-04-14 12:00:00,12,1022.4,0.4,71,7,7000,3.704,,,280,,,,,,,,,,,wg-a,,,,AAXX 14124 07130 12457 82802 10120 20070 30172 40224 53004 60006 8452/ 91200=
07130,1996-04-14 15:00:00,14,1022,-0.4,63,7,9000,7.408,,,290,,,,,,,,,,,wg-a,,,,AAXX 14154 07130 12559 82904 10140 20070 30168 40220 58004 60006 8357/ 91500=
07130,1996-04-14 18:00:00,13,1022.7,0.7,77,9,8000,7.408,,,310,6.1,14.2,,,,,,,,60,wg-a,,,,AAXX 14184 07130 02658 83104 10130 20090 30175 40227 53007 61000 76062 8557/ 91800 333 10142 20061 ////=
07130,1996-04-14 21:00:00,11,1024.3,1.6,87,9,6000,3.704,,,290,,,,,,,,,,3,wg-a,,,,AAXX 14214 07130 02556 82902 10110 20090 30191 40243 51016 61000 70362 885// 92100 333 ////=
07130,1996-04-15 00:00:00,11,1024.6,0.2,94,10,6000,3.704,,,260,,,,,,,,,,3,wg-a,,,,AAXX 15004 07130 02556 82602 10110 20100 30193 40246 53002 61000 70362 885// 90000 333 ////=
07130,1996-04-15 03:00:00,11,1024.5,-0.1,94,10,500,0,,,0,,,,,,,,,,,wg-a,,,,AAXX 15034 07130 12500 80000 10110 20100 30192 40245 55001 60006 885// 90300=
07130,1996-04-15 06:00:00,11,1024.6,0.2,87,9,4000,7.408,,,160,10.6,12.8,,,,,,,,10,wg-a,,,,AAXX 15064 07130 02440 71604 10110 20090 30194 40246 53002 61000 71022 875// 90600 333 10128 20106 ////=
07130,1996-04-15 09:00:00,15,1025.6,1,67,9,6000,11.112,,,170,,,,,,,,,,,wg-a,,,,AAXX 15094 07130 12456 /1706 10150 20090 30204 40256 52010 60006 86800 90900=
07130,1996-04-15 12:00:00,17,1025.4,-0.2,63,10,8000,14.816,,,170,,,,,,,,,,,wg-a,,,,AAXX 15124 07130 12558 71708 10170 20100 30202 40254 58002 60006 878// 91200=
07130,1996-04-15 15:00:00,17,1024.1,-1.2,63,10,10000,14.816,,,170,,,,,,,,,,,wg-a,,,,AAXX 15154 07130 12560 71708 10170 20100 30190 40241 58012 60006 85572 91500=
07130,1996-04-15 21:00:00,14,1022.9,-0.2,88,12,10000,7.408,,,180,,,,,,,,,,,wg-a,,,,AAXX 15214 07130 12/60 31804 10140 20120 30177 40229 58002 60006 83040 92100=
07130,1996-04-16 00:00:00,11,1021.4,-1.5,94,10,7000,3.704,,,140,,,,,,,,,,,wg-a,,,,AAXX 16004 07130 12/57 21402 10110 20100 30162 40214 58015 60006 82040 90000=
07130,1996-04-16 03:00:00,9,1018.9,-2.6,93,8,100,7.408,,,110,,,,,,,,,,45,wg-a,,,,AAXX 16034 07130 12/01 91104 10090 20080 30136 40189 56026 60006 74541 89/// 90300=
07130,1996-04-16 06:00:00,7,1016.9,-2,93,6,7000,7.408,,,120,7.1,16.3,,,,,,,,3,wg-a,,,,AAXX 16064 07130 02/57 71204 10070 20060 30116 40169 56020 60006 70341 81032 90600 333 10163 20071 60004=
07130,1996-04-16 09:00:00,13,1015.1,-1.7,62,6,10000,14.816,,,140,,,,,,,,,,,wg-a,,,,AAXX 16094 07130 12/60 /1408 10130 20060 30099 40151 57017 60006 90900=
07130,1996-04-16 12:00:00,19,1012,-3,34,3,17000,18.52,,,150,,,,,,,,,,,wg-a,,,,AAXX 16124 07130 12/67 61510 10190 20030 30069 40120 58030 60006 82042 91200=
07130,1996-04-16 15:00:00,17,1009.5,-2.5,48,6,12000,18.52,,,170,,,,,,,,,,,wg-a,,,,AAXX 16154 07130 12/62 81710 10170 20060 30044 40095 56025 60006 8802/ 91500=
07130,1996-04-16 18:00:00,15,1008.2,-1.3,63,8,12000,11.112,,,200,7.5,19.3,,0,,,,,,21,wg-a,,,,AAXX 16184 07130 12762 82006 10150 20080 30031 40082 58013 60007 72162 8552/ 91800 333 10193 20075=
07130,1996-04-17 03:00:00,8,1009.8,1.3,93,7,40000,11.112,,,270,,,,,,,,,,,wg-a,,,,AAXX 17034 07130 12582 /2706 10080 20070 30046 40098 53013 60006 81100 90300=
07130,1996-04-17 06:00:00,8,1011.3,1.5,93,7,20000,7.408,,,240,7,15.3,,,,,1,,,,wg-a,,,,AAXX 17064 07130 12570 42404 10080 20070 30061 40113 52015 60014 82802 90600 333 10153 20070=
07130,1996-04-17 09:00:00,12,1013.5,2.2,76,8,20000,22.224,,,300,,,,,,,,,,15,wg-a,,,,AAXX 17094 07130 12470 63012 10120 20080 30083 40135 52022 60006 71511 85830 90900=
07130,1996-04-17 12:00:00,15,1014.3,0.9,55,6,35000,22.224,,,280,,,,,,,,,,,wg-a,,,,AAXX 17124 07130 12681 /2812 10150 20060 30092 40143 51009 60006 86800 91200=
07130,1996-04-17 15:00:00,16,1014.7,0.4,48,5,11000,18.52,,,290,,,,,,,,,,,wg-a,,,,AAXX 17154 07130 12/61 /2910 10160 20050 30096 40147 53004 60006 91500=
07130,1996-04-17 18:00:00,12,1017.1,2.3,88,10,20000,11.112,,,240,7.9,17.2,,1,,,,,,25,wg-a,,,,AAXX 17184 07130 12570 62406 10120 20100 30119 40171 51023 60017 72586 86300 91800 333 10172 20079=
07130,1996-04-17 21:00:00,11,1018.7,1.6,87,9,20000,7.408,,,30,,,,,,,,,,,wg-a,,,,AAXX 17214 07130 12470 30304 10110 20090 30135 40187 53016 60006 83800 92100=
07130,1996-04-18 03:00:00,7,1019.2,-0.2,100,7,15000,11.112,,,200,,,,,,,,,,,wg-a,,,,AAXX 18034 07130 12/65 02006 10070 20070 30139 40192 57002 60006 80000 90300=
07130,1996-04-18 06:00:00,8,1019,-0.2,100,8,700,14.816,,,200,7,12.2,,,,,1,,,43,wg-a,,,,AAXX 18064 07130 02/07 92008 10080 20080 30137 40190 55002 60006 74341 89/// 90600 333 10122 20070 60014=
07130,1996-04-18 12:00:00,15,1018,-1.1,63,8,25000,25.928,,,210,,,,,,,,,,1,wg-a,,,,AAXX 18124 07130 12675 /2114 10150 20080 30129 40180 58011 60006 70142 84202 91200=
07130,1996-04-18 15:00:00,14,1017.9,-0.2,67,8,500,25.928,,,230,,,,,,,,,,,wg-a,,,,AAXX 18154 07130 12600 72314 10140 20080 30127 40179 57002 60006 878// 91500=
07130,1996-04-18 18:00:00,14,1017.5,-0.4,67,8,500,14.816,,,220,8.1,15.9,,,,,,,,,wg-a,,,,AAXX 18184 07130 12500 72208 10140 20080 30123 40175 56004 60006 87802 91800 333 10159 20081=
07130,1996-04-18 21:00:00,12,1018.1,0.6,82,9,35000,14.816,,,200,,,,,,,,,,,wg-a,,,,AAXX 18214 07130 12481 /2008 10120 20090 30129 40181 51006 60006 85502 92100=
07130,1996-04-19 00:00:00,10,1017.9,-0.2,93,9,500,11.112,,,190,,,,,,,,,,,wg-a,,,,AAXX 19004 07130 12/00 41906 10100 20090 30127 40179 58002 60006 80002 90000=
07130,1996-04-19 03:00:00,9,1017.4,-0.6,93,8,25000,7.408,,,180,,,,,,,,,,,wg-a,,,,AAXX 19034 07130 12275 /1804 10090 20080 30121 40174 56006 60006 84602 90300=
07130,1996-04-19 06:00:00,9,1017.2,-0.2,100,9,2500,11.112,,,190,8.8,13.6,,,,,,,,10,wg-a,,,,AAXX 19064 07130 02125 81906 10090 20090 30119 40172 55002 60006 71011 886// 90600 333 10136 20088 60004=
07130,1996-04-19 09:00:00,13,1016.9,-0.2,82,10,10000,7.408,,,210,,,,,,,,,,,wg-a,,,,AAXX 19094 07130 12460 52104 10130 20100 30117 40169 58002 60006 82101 90900=
07130,1996-04-19 12:00:00,18,1015.5,-1.3,49,7,25000,11.112,,,190,,,,,,,,,,,wg-a,,,,AAXX 19124 07130 12575 71906 10180 20070 30104 40155 58013 60006 81132 91200=
07130,1996-04-19 15:00:00,19,1013.6,-1.9,49,8,500,18.52,,,170,,,,,,,,,,,wg-a,,,,AAXX 19154 07130 12600 71710 10190 20080 30085 40136 58019 60006 81108 91500=
07130,1996-04-19 18:00:00,19,1012.4,-1.2,52,9,500,7.408,,,170,9.1,19.6,,,,,,,,,wg-a,,,,AAXX 19184 07130 12/00 71704 10190 20090 30073 40124 56012 60006 83032 91800 333 10196 20091=
07130,1996-04-19 21:00:00,15,1011.7,-0.7,77,11,20000,3.704,,,220,,,,,,,,,,,wg-a,,,,AAXX 19214 07130 12/70 72202 10150 20110 30066 40117 56007 60006 84032 92100=
07130,1996-04-20 00:00:00,14,1010.7,-1,72,9,20000,11.112,,,130,,,,,,,,,,,wg-a,,,,AAXX 20004 07130 12/70 71306 10140 20090 30056 40107 57010 60006 84032 90000=
07130,1996-04-20 03:00:00,13,1009.2,-1.5,72,8,15000,11.112,,,140,,,,,,,,,,,wg-a,,,,AAXX 20034 07130 12/65 71406 10130 20080 30041 40092 56015 60006 82032 90300=
07130,1996-04-20 06:00:00,14,1009.3,0.1,58,6,15000,3.704,,,120,12.6,18.5,,,,,,,,,wg-a,,,,AAXX 20064 07130 02/65 71202 10140 20060 30042 40093 52001 60006 84042 90600 333 10185 20126 60004=
07130,1996-04-20 09:00:00,15,1008.9,-0.4,55,6,25000,14.816,,,160,,,,,,,,,,,wg-a,,,,AAXX 20094 07130 12/75 71608 10150 20060 30038 40089 56004 60006 84082 90900=
07130,1996-04-20 12:00:00,18,1008.8,0,56,9,25000,22.224,,,200,,,,,,,,,,,wg-a,,,,AAXX 20124 07130 12/75 72012 10180 20090 30038 40088 50000 60006 84082 91200=
07130,1996-04-20 15:00:00,20,1007.5,-1.3,56,11,20000,22.224,,,180,,,,,,,,,,,wg-a,,,,AAXX 20154 07130 12/70 61812 10200 20110 30025 40075 58013 60006 82082 91500=
07130,1996-04-20 18:00:00,17,1007.4,-0.2,63,10,25000,11.112,,,200,13.5,20,,,,,,,,,wg-a,,,,AAXX 20184 07130 12/75 62006 10170 20100 30023 40074 56002 60006 85042 91800 333 10200 20135=
07130,1996-04-20 21:00:00,14,1007.1,-0.3,77,10,25000,3.704,,,70,,,,,,,,,,,wg-a,,,,AAXX 20214 07130 12/75 50702 10140 20100 30020 40071 58003 60006 82042 92100=
07130,1996-04-21 00:00:00,13,1006,-1.1,67,7,25000,7.408,,,120,,,,,,,,,,,wg-a,,,,AAXX 21004 07130 12/75 21204 10130 20070 30009 40060 56011 60006 82040 90000=
07130,1996-04-21 03:00:00,12,1004.2,-1.8,67,6,25000,14.816,,,140,,,,,,,,,,,wg-a,,,,AAXX 21034 07130 12/75 41408 10120 20060 39991 40042 56018 60006 84040 90300=
07130,1996-04-21 06:00:00,12,1003.1,-1.1,62,5,25000,18.52,,,140,11.1,17.3,,,,,,,,,wg-a,,,,AAXX 21064 07130 02/75 71410 10120 20050 39980 40031 56011 60006 8704/ 90600 333 10173 20111 60004=
07130,1996-04-21 09:00:00,18,1002.8,-0.2,49,7,25000,29.632,,,180,,,,,,,,,,,wg-a,,,,AAXX 21094 07130 12/75 11816 10180 20070 39978 40028 55002 60006 81030 90900=
07130,1996-04-21 12:00:00,21,1002.7,-0.1,49,10,25000,35.188,,,200,,,,,,,,,,,wg-a,,,,AAXX 21124 07130 12775 72019 10210 20100 39977 40027 57001 60006 8758/ 91200=
07130,1996-04-21 15:00:00,20,1004,1.3,46,8,25000,29.632,,,230,,,,,,,,,,,wg-a,,,,AAXX 21154 07130 12575 42316 10200 20080 39990 40040 53013 60006 8328/ 91500=
07130,1996-04-21 18:00:00,14,1006.7,2.6,72,9,25000,25.928,,,230,11.9,21.7,,,,,,,,,wg-a,,,,AAXX 21184 07130 12675 82314 10140 20090 30016 40067 51026 60006 8717/ 91800 333 10217 20119=
07130,1996-04-21 21:00:00,13,1008.2,1.5,77,9,25000,11.112,,,220,,,,,,,,,,,wg-a,,,,AAXX 21214 07130 12675 /2206 10130 20090 30031 40082 52015 60006 81170 92100=
07130,1996-04-22 03:00:00,11,1008,-0.2,94,10,15000,7.408,,,250,,,,1,,,,,,21,wg-a,,,,AAXX 22034 07130 12665 82504 10110 20100 30028 40080 57002 60017 72122 878// 90300=
07130,1996-04-22 06:00:00,11,1006.9,-1.1,94,10,3000,11.112,,,90,10.4,14.4,,6,,,7,,,63,wg-a,,,,AAXX 22064 07130 02730 80906 10110 20100 30017 40069 56011 60074 76362 8652/ 90600 333 10144 20104 60067=
07130,1996-04-22 09:00:00,11,1006.1,-0.8,87,9,25000,18.52,,,80,,,,2,,,,,,3,wg-a,,,,AAXX 22094 07130 12675 70810 10110 20090 30009 40061 56008 60027 70362 875// 90900=
07130,1996-04-22 12:00:00,13,1003.3,-2.7,88,11,10000,11.112,,,60,,,,0,,,,,,1,wg-a,,,,AAXX 22124 07130 02560 70606 10130 20110 39982 40033 58027 60026 70162 875// 91200 333 60007=
07130,1996-04-22 15:00:00,15,1001.6,-1.7,94,14,4000,0,,,0,,,,4,,,,,,10,wg-a,,,,AAXX 22154 07130 12340 70000 10150 20140 39965 40016 56017 60047 71062 878// 91500=
07130,1996-04-22 18:00:00,14,999.7,-1.9,94,13,4000,7.408,,,130,10.5,15.7,,1,,,,,,10,wg-a,,,,AAXX 22184 07130 12740 81304 10140 20130 39946 49997 58019 60017 71062 8557/ 91800 333 10157 20105=
07130,1996-04-22 21:00:00,14,1000.4,0.7,94,13,2500,7.408,,,150,,,,,,,,,,10,wg-a,,,,AAXX 22214 07130 32/25 /1504 10140 20130 39953 40004 51007 710// 92100=
07130,1996-04-23 00:00:00,13,1001.1,0.7,94,12,8000,18.52,,,200,,,,2,,,,,,1,wg-a,,,,AAXX 23004 07130 02358 82010 10130 20120 39960 40011 53007 60066 70162 878// 90000 333 60027=
07130,1996-04-23 03:00:00,11,1002.4,1.3,94,10,20000,18.52,,,200,,,,,,,,,,,wg-a,,,,AAXX 23034 07130 12470 72010 10110 20100 39973 40024 53013 60006 878// 90300=
07130,1996-04-23 06:00:00,10,1005,2.5,93,9,12000,22.224,,,300,9.6,14.1,,,,,13,,,,wg-a,,,,AAXX 23064 07130 12362 83012 10100 20090 39998 40050 53025 60134 878// 90600 333 10141 20096=
07130,1996-04-23 09:00:00,12,1008.6,3.6,82,9,15000,18.52,,,240,,,,,,,,,,15,wg-a,,,,AAXX 23094 07130 12465 72410 10120 20090 30034 40086 51036 60006 71522 8687/ 90900=
07130,1996-04-23 12:00:00,13,1010.5,1.9,67,7,50000,22.224,,,260,,,,0,,,,,,,wg-a,,,,AAXX 23124 07130 02584 72612 10130 20070 30053 40105 51019 60006 878// 91200 333 60007=
07130,1996-04-23 15:00:00,12,1011.8,1.3,82,9,12000,14.816,,,260,,,,1,,,,,,25,wg-a,,,,AAXX 23154 07130 12562 72608 10120 20090 30066 40118 51013 60017 72522 878// 91500=
07130,1996-04-23 18:00:00,13,1012.8,1,67,7,40000,14.816,,,230,9.4,14.2,,1,,,,,,15,wg-a,,,,AAXX 23184 07130 12582 32308 10130 20070 30076 40128 51010 60017 71511 83903 91800 333 10142 20094=
07130,1996-04-23 21:00:00,9,1015.2,2.4,87,7,500,11.112,,,210,,,,,,,,,,,wg-a,,,,AAXX 23214 07130 12500 /2106 10090 20070 30100 40152 53024 60006 81200 92100=
07130,1996-04-24 00:00:00,8,1016.4,1.1,87,6,20000,11.112,,,190,,,,,,,,,,,wg-a,,,,AAXX 24004 07130 12/70 31906 10080 20060 30111 40164 52011 60006 80003 90000=
07130,1996-04-24 03:00:00,8,1016.8,0.4,93,7,15000,7.408,,,190,,,,1,,,,,,25,wg-a,,,,AAXX 24034 07130 12565 61904 10080 20070 30115 40168 52004 60017 72511 83230 90300=
07130,1996-04-24 06:00:00,7,1018.1,1.3,93,6,500,11.112,,,220,6.4,12.6,,,,,3,,,,wg-a,,,,AAXX 24064 07130 12500 22206 10070 20060 30128 40181 53013 60034 81802 90600 333 10126 20064=
07130,1996-04-24 09:00:00,13,1019.9,1.9,72,8,40000,14.816,,,280,,,,,,,,,,,wg-a,,,,AAXX 24094 07130 12582 /2808 10130 20080 30147 40199 51019 60006 86201 90900=
07130,1996-04-24 12:00:00,14,1020.9,1,58,6,40000,14.816,,,310,,,,,,,,,,,wg-a,,,,AAXX 24124 07130 12682 /3108 10140 20060 30157 40209 51010 60006 86200 91200=
07130,1996-04-24 15:00:00,13,1021.9,1,62,6,40000,22.224,,,250,,,,0,,,,,,25,wg-a,,,,AAXX 24154 07130 12682 72512 10130 20060 30167 40219 53010 60007 72586 878// 91500=
07130,1996-04-24 18:00:00,11,1023.1,1.2,82,8,500,11.112,,,20,6.7,16.1,,0,,,,,,1,wg-a,,,,AAXX 24184 07130 12600 30206 10110 20080 30179 40231 52012 60007 70186 83800 91800 333 10161 20067=
07130,1996-04-24 21:00:00,10,1025.9,2.7,82,7,500,3.704,,,40,,,,0,,,,,,25,wg-a,,,,AAXX 24214 07130 12600 /0402 10100 20070 30206 40259 51027 60007 72586 86500 92100=
07130,1996-04-25 00:00:00,7,1026.8,0.9,93,6,800,3.704,,,270,,,,,,,,,,41,wg-a,,,,AAXX 25004 07130 12/08 02702 10070 20060 30215 40268 51009 60006 74186 80000 90000=
07130,1996-04-25 03:00:00,5,1026.7,-0.2,100,5,12000,3.704,,,240,,,,,,,,,,12,wg-a,,,,AAXX 25034 07130 12/62 02402 10050 20050 30213 40267 57002 60006 71240 80000 90300=
07130,1996-04-25 06:00:00,5,1027.7,1,93,4,15000,3.704,,,320,4,11.5,,,,,1,,,11,wg-a,,,,AAXX 25064 07130 12565 33202 10050 20040 30223 40277 53010 60014 71140 81542 90600 333 10115 20040=
07130,1996-04-25 09:00:00,11,1028.5,0.9,82,8,25000,7.408,,,310,,,,,,,,,,,wg-a,,,,AAXX 25094 07130 12575 33104 10110 20080 30232 40285 51009 60006 83800 90900=
07130,1996-04-25 12:00:00,13,1028.2,-0.2,67,7,35000,11.112,,,340,,,,,,,,,,,wg-a,,,,AAXX 25124 07130 12681 73406 10130 20070 30230 40282 58002 60006 878// 91200=
07130,1996-04-25 15:00:00,15,1027.4,-0.8,51,5,35000,18.52,,,340,,,,,,,,,,,wg-a,,,,AAXX 25154 07130 12681 23410 10150 20050 30222 40274 57008 60006 82100 91500=
07130,1996-04-25 18:00:00,14,1027.2,-0.2,51,4,40000,14.816,,,10,4.5,14.9,,,,,,,,,wg-a,,,,AAXX 25184 07130 12682 /0108 10140 20040 30220 40272 56002 60006 81100 91800 333 10149 20045=
07130,1996-04-25 21:00:00,9,1027.6,0.3,76,5,40000,11.112,,,40,,,,,,,,,,,wg-a,,,,AAXX 25214 07130 12/82 00406 10090 20050 30223 40276 52003 60006 80000 92100=
07130,1996-04-26 00:00:00,5,1027.3,-0.4,93,4,40000,3.704,,,300,,,,,,,,,,,wg-a,,,,AAXX 26004 07130 12/82 03002 10050 20040 30219 40273 57004 60006 80000 90000=
07130,1996-04-26 03:00:00,4,1026,-1.3,93,3,300,7.408,,,310,,,,,,,,,,44,wg-a,,,,AAXX 26034 07130 12/03 03104 10040 20030 30206 40260 56013 60006 74440 80000 90300=
07130,1996-04-26 06:00:00,4,1025.6,-0.4,100,4,100,3.704,,,310,3,13.5,,,,,,,,45,wg-a,,,,AAXX 26064 07130 02/01 93102 10040 20040 30202 40256 55004 60006 74541 89/// 90600 333 10135 20030 60004=
07130,1996-04-26 09:00:00,9,1025.1,-0.4,87,7,11000,3.704,,,310,,,,,,,,,,,wg-a,,,,AAXX 26094 07130 12/61 /3102 10090 20070 30198 40251 58004 60006 90900=
07130,1996-04-26 12:00:00,16,1023.2,-1.8,51,6,25000,14.816,,,40,,,,,,,,,,3,wg-a,,,,AAXX 26124 07130 12675 30408 10160 20060 30180 40232 58018 60006 70341 83201 91200=
07130,1996-04-26 15:00:00,17,1020.7,-2.4,59,9,20000,14.816,,,30,,,,,,,,,,,wg-a,,,,AAXX 26154 07130 12670 30308 10170 20090 30156 40207 58024 60006 83101 91500=
07130,1996-04-26 18:00:00,15,1019.7,-1.1,67,9,25000,22.224,,,10,3.7,17.3,,,,,,,,,wg-a,,,,AAXX 26184 07130 12/75 00112 10150 20090 30145 40197 56011 60006 80000 91800 333 10173 20037=
07130,1996-04-26 21:00:00,10,1020.2,0.5,87,8,20000,11.112,,,350,,,,,,,,,,,wg-a,,,,AAXX 26214 07130 12/70 03506 10100 20080 30150 40202 53005 60006 80000 92100=
07130,1996-04-27 00:00:00,8,1019.6,-0.7,87,6,15000,7.408,,,320,,,,,,,,,,,wg-a,,,,AAXX 27004 07130 12/65 03204 10080 20060 30143 40196 58007 60006 80000 90000=
07130,1996-04-27 03:00:00,6,1018.4,-1.2,93,5,12000,11.112,,,320,,,,,,,,,,,wg-a,,,,AAXX 27034 07130 12/62 03206 10060 20050 30131 40184 56012 60006 80000 90300=
07130,1996-04-27 06:00:00,7,1017.8,-0.6,100,7,1500,11.112,,,330,4.5,15.2,,,,,,,,10,wg-a,,,,AAXX 27064 07130 02215 23306 10070 20070 30125 40178 56006 60006 71040 81601 90600 333 10152 20045 60004=
07130,1996-04-27 09:00:00,12,1016.9,-0.8,82,9,9000,11.112,,,20,,,,,,,,,,,wg-a,,,,AAXX 27094 07130 12/59 /0206 10120 20090 30117 40169 58008 60006 80002 90900=
07130,1996-04-27 12:00:00,20,1015,-1.7,46,8,9000,18.52,,44.448,70,,,,,,,,,,,wg-a,,,,AAXX 27124 07130 12659 /0710 10200 20080 30100 40150 58017 60006 81102 91200 333 91024=
07130,1996-04-27 15:00:00,21,1013.3,-1.7,38,6,12000,14.816,,,70,,,,,,,,,,,wg-a,,,,AAXX 27154 07130 12762 40708 10210 20060 30083 40133 58017 60006 82102 91500=
07130,1996-04-27 18:00:00,17,1013.2,-0.2,68,11,9000,18.52,,,10,6.8,21.4,,,,,,,,,wg-a,,,,AAXX 27184 07130 12/59 70110 10170 20110 30081 40132 56002 60006 80002 91800 333 10214 20068=
07130,1996-04-27 21:00:00,14,1014.3,1.1,72,9,10000,14.816,,,20,,,,,,,,,,,wg-a,,,,AAXX 27214 07130 12/60 60208 10140 20090 30092 40143 51011 60006 80002 92100=
07130,1996-04-28 00:00:00,11,1013.9,-0.5,82,8,10000,11.112,,,320,,,,,,,,,,,wg-a,,,,AAXX 28004 07130 12/60 53206 10110 20080 30087 40139 58005 60006 80002 90000=
07130,1996-04-28 03:00:00,9,1013.3,-0.6,87,7,10000,7.408,,,330,,,,,,,,,,,wg-a,,,,AAXX 28034 07130 12/60 53304 10090 20070 30081 40133 56006 60006 80002 90300=
07130,1996-04-28 06:00:00,9,1013.1,-0.2,93,8,12000,11.112,,,360,9,17.2,,,,,,,,,wg-a,,,,AAXX 28064 07130 02562 73606 10090 20080 30079 40131 55002 60006 81102 90600 333 10172 20090 60004=
07130,1996-04-28 09:00:00,15,1012.7,-0.3,72,10,12000,11.112,,,360,,,,,,,,,,,wg-a,,,,AAXX 28094 07130 12/62 53606 10150 20100 30076 40127 57003 60006 80002 90900=
07130,1996-04-28 12:00:00,19,1011.6,-1,56,10,13000,25.928,,,350,,,,,,,,,,,wg-a,,,,AAXX 28124 07130 12663 /3514 10190 20100 30066 40116 58010 60006 81101 91200=
07130,1996-04-28 15:00:00,18,1011,-0.7,56,9,12000,25.928,,,350,,,,,,,,,,,wg-a,,,,AAXX 28154 07130 12662 /3514 10180 20090 30059 40110 58007 60006 81102 91500=
07130,1996-04-28 18:00:00,15,1010.8,-0.2,72,10,12000,25.928,,,360,9.2,18.8,,,,,,,,,wg-a,,,,AAXX 28184 07130 12/62 23614 10150 20100 30057 40108 56002 60006 80002 91800 333 10188 20092=
07130,1996-04-28 21:00:00,11,1012.6,1.7,76,7,12000,14.816,,,20,,,,,,,,,,,wg-a,,,,AAXX 28214 07130 12/62 30208 10110 20070 30074 40126 51017 60006 80002 92100=
07130,1996-04-29 00:00:00,9,1012.2,-0.4,76,5,12000,14.816,,,10,,,,,,,,,,,wg-a,,,,AAXX 29004 07130 12/62 00108 10090 20050 30070 40122 58004 60006 80000 90000=
07130,1996-04-29 03:00:00,7,1011.4,-0.9,87,5,12000,7.408,,,360,,,,,,,,,,,wg-a,,,,AAXX 29034 07130 12/62 03604 10070 20050 30061 40114 58009 60006 80000 90300=
07130,1996-04-29 06:00:00,7,1011.8,0.4,81,4,12000,7.408,,,10,6.3,14.6,,,,,,,,,wg-a,,,,AAXX 29064 07130 02/62 10104 10070 20040 30065 40118 53004 60006 80001 90600 333 10146 20063 60004=
07130,1996-04-29 09:00:00,12,1011.6,-0.1,50,2,35000,14.816,,,50,,,,,,,,,,,wg-a,,,,AAXX 29094 07130 12/81 10508 10120 20020 30064 40116 58001 60006 80002 90900=
07130,1996-04-29 12:00:00,15,1010.3,-1.2,39,1,10000,11.112,,,30,,,,,,,,,,,wg-a,,,,AAXX 29124 07130 12/60 /0306 10150 20010 30052 40103 58012 60006 91200=
07130,1996-04-29 15:00:00,16,1008.4,-1.9,39,2,25000,18.52,,,340,,,,,,,,,,,wg-a,,,,AAXX 29154 07130 12775 53410 10160 20020 30033 40084 56019 60006 82102 91500=
07130,1996-04-29 18:00:00,13,1007.9,-0.5,54,4,15000,22.224,,,20,6.9,16,,,,,,,,,wg-a,,,,AAXX 29184 07130 12765 50212 10130 20040 30028 40079 56005 60006 81102 91800 333 10160 20069=
07130,1996-04-29 21:00:00,10,1008.9,0.9,76,6,15000,11.112,,,350,,,,,,,,,,,wg-a,,,,AAXX 29214 07130 12765 73506 10100 20060 30037 40089 51009 60006 875// 92100=
07130,1996-04-30 00:00:00,8,1008.5,-0.4,87,6,12000,7.408,,,340,,,,,,,,,,,wg-a,,,,AAXX 30004 07130 12762 53404 10080 20060 30033 40085 58004 60006 85500 90000=
07130,1996-04-30 03:00:00,7,1007,-1.5,93,6,10000,7.408,,,310,,,,,,,,,,,wg-a,,,,AAXX 30034 07130 12760 73104 10070 20060 30018 40070 57015 60006 875// 90300=
07130,1996-04-30 06:00:00,6,1007,-0.1,93,5,11000,3.704,,,280,4.9,12.8,,,,,,,,,wg-a,,,,AAXX 30064 07130 02/61 /2802 10060 20050 30017 40070 55001 60006 90600 333 10128 20049 60004=
07130,1996-04-30 09:00:00,11,1006.3,-0.6,62,4,25000,7.408,,,300,,,,,,,,,,,wg-a,,,,AAXX 30094 07130 12575 33004 10110 20040 30011 40063 58006 60006 82101 90900=
07130,1996-04-30 12:00:00,15,1004.4,-1.8,44,3,11000,11.112,,,250,,,,,,,,,,,wg-a,,,,AAXX 30124 07130 12/61 /2506 10150 20030 39993 40044 58018 60006 91200=
07130,1996-04-30 15:00:00,15,1002.4,-2,39,1,10000,7.408,,,270,,,,,,,,,,,wg-a,,,,AAXX 30154 07130 12/60 /2704 10150 20010 39973 40024 58020 60006 91500=
07130,1996-04-30 18:00:00,13,1001.6,-0.8,58,5,25000,18.52,,,230,5.7,15.7,,,,,,,,,wg-a,,,,AAXX 30184 07130 12675 /2310 10130 20050 39965 40016 56008 60006 85830 91800 333 10157 20057=
07130,1996-04-30 21:00:00,10,1001.5,-0.2,76,6,35000,11.112,,,250,,,,,,,,,,,wg-a,,,,AAXX 30214 07130 12581 /2506 10100 20060 39963 40015 58002 60006 83832 92100=
07130,1996-05-01 00:00:00,8,1000.5,-1,87,6,40000,11.112,,,170,,,,,,,,,,,wg-a,,,,AAXX 01004 07130 12582 /1706 10080 20060 39953 40005 58010 60006 81102 90000=
07130,1996-05-01 03:00:00,8,998.5,-2,87,6,40000,14.816,,,180,,,,,,,,,,,wg-a,,,,AAXX 01034 07130 12582 61808 10080 20060 39933 49985 58020 60006 83832 90300=
07130,1996-05-01 06:00:00,8,997.6,-0.9,93,7,2000,22.224,,,170,7.4,13.4,,,,,,,,25,wg-a,,,,AAXX 01064 07130 02420 71712 10080 20070 39924 49976 56009 61000 72586 83842 90600 333 10134 20074 6100=
07130,1996-05-01 09:00:00,11,996.8,-0.7,76,7,6000,22.224,,,180,,,,,,,,,,16,wg-a,,,,AAXX 01094 07130 02456 71812 10110 20070 39917 49968 56007 61000 71682 878// 90900 333 ////=
07130,1996-05-01 12:00:00,10,996.2,-0.6,93,9,12000,22.224,,,170,,,,3,,,,,,25,wg-a,,,,AAXX 01124 07130 02462 71712 10100 20090 39911 49962 56006 60036 72586 85302 91200 333 60037=
07130,1996-05-01 15:00:00,13,994.7,-1.5,77,9,15000,29.632,,,180,,,,1,,,,,,25,wg-a,,,,AAXX 01154 07130 12465 71816 10130 20090 39896 49947 57015 60017 72586 82802 91500=
07130,1996-05-01 18:00:00,9,994.2,-0.5,93,8,12000,14.816,,,190,8.3,13.4,,1,,,,,,80,wg-a,,,,AAXX 01184 07130 12562 71908 10090 20080 39891 49942 55005 60017 78086 86302 91800 333 10134 20083=
07130,1996-05-01 21:00:00,9,994,-0.2,93,8,8000,18.52,,,150,,,,5,,,,,,61,wg-a,,,,AAXX 01214 07130 12458 81510 10090 20080 39889 49940 58002 60057 76196 8637/ 92100=
07130,1996-05-02 00:00:00,9,992.6,-1.4,87,7,12000,18.52,,,140,,,,2,,,,,,21,wg-a,,,,AAXX 02004 07130 02462 81410 10090 20070 39875 49926 58014 60076 72198 8637/ 90000 333 60027=
07130,1996-05-02 03:00:00,9,992.1,-0.5,87,7,9000,14.816,,,140,,,,,,,,,,,wg-a,,,,AAXX 02034 07130 12/59 /1408 10090 20070 39870 49921 55005 60006 90300=
07130,1996-05-02 06:00:00,8,992.5,0.4,93,7,15000,11.112,,,140,7.7,9.8,,2,,,14,,,15,wg-a,,,,AAXX 02064 07130 02365 71406 10080 20070 39874 49925 53004 60144 71586 873// 90600 333 10098 20077 60027=
07130,1996-05-02 09:00:00,12,993.2,0.7,71,7,500,18.52,,,150,,,,,,,,,,,wg-a,,,,AAXX 02094 07130 12500 71510 10120 20070 39881 49932 51007 60006 86802 90900=
07130,1996-05-02 12:00:00,13,993.3,0.1,62,6,20000,25.928,,,170,,,,,,,,,,15,wg-a,,,,AAXX 02124 07130 12570 /1714 10130 20060 39882 49933 51001 60006 71522 86300 91200=
07130,1996-05-02 15:00:00,13,993.1,-0.2,72,8,20000,14.816,,,90,,,,3,,,,,,15,wg-a,,,,AAXX 02154 07130 12570 70908 10130 20080 39880 49931 58002 60037 71598 87943 91500=
07130,1996-05-02 18:00:00,11,994.2,1.1,76,7,11000,22.224,,,90,7.9,15.1,,,,,,,,,wg-a,,,,AAXX 02184 07130 32/61 /0912 10110 20070 39891 49942 52011 91800 333 10151 20079=
07130,1996-05-02 21:00:00,10,996.2,2,82,7,20000,11.112,,,30,,,,,,,,,,61,wg-a,,,,AAXX 02214 07130 02670 70306 10100 20070 39911 49962 53020 61000 76162 8557/ 92100 333 ////=
07130,1996-05-03 00:00:00,9,997.6,1.3,87,7,11000,11.112,,,350,,,,,,,,,,,wg-a,,,,AAXX 03004 07130 02/61 /3506 10090 20070 39924 49976 53013 61000 90000 333 ////=
07130,1996-05-03 03:00:00,9,998.8,1.2,93,8,4000,14.816,,,350,,,,,,,,,,,wg-a,,,,AAXX 03034 07130 12/40 /3508 10090 20080 39936 49988 51012 60006 90300=
07130,1996-05-03 06:00:00,8,1001.2,2.4,93,7,12000,18.52,,,10,7.9,11.5,,2,,,5,,,21,wg-a,,,,AAXX 03064 07130 02362 80110 10080 20070 39960 40012 53024 60054 72165 877// 90600 333 10115 20079 60027=
07130,1996-05-03 09:00:00,9,1003.5,2.3,87,7,15000,18.52,,,10,,,,,,,,,,,wg-a,,,,AAXX 03094 07130 12465 80110 10090 20070 39983 40035 51023 60006 8682/ 90900=
07130,1996-05-03 12:00:00,9,1005.8,2.3,81,6,25000,22.224,,,10,,,,,,,,,,,wg-a,,,,AAXX 03124 07130 12475 70112 10090 20060 30006 40058 51023 60006 878// 91200=
07130,1996-05-03 15:00:00,10,1007.2,1.4,76,6,25000,18.52,,,350,,,,,,,,,,,wg-a,,,,AAXX 03154 07130 12575 83510 10100 20060 30020 40072 53014 60006 878// 91500=
07130,1996-05-03 18:00:00,9,1009,1.8,81,6,10000,14.816,,,10,8,11.1,,,,,,,,50,wg-a,,,,AAXX 03184 07130 02460 80108 10090 20060 30038 40090 51018 61000 75052 888// 91800 333 10111 20080 ////=
07130,1996-05-03 21:00:00,8,1011.1,2.1,87,6,12000,11.112,,,40,,,,,,,,,,1,wg-a,,,,AAXX 03214 07130 02462 80406 10080 20060 30059 40111 51021 61000 70152 875// 92100 333 ////=
07130,1996-05-04 00:00:00,7,1012.1,0.9,87,5,10000,7.408,,,60,,,,,,,,,,1,wg-a,,,,AAXX 04004 07130 02760 70604 10070 20050 30068 40121 51009 61000 70152 875// 90000 333 ////=
07130,1996-05-04 03:00:00,7,1013.3,1.2,87,5,10000,7.408,,,30,,,,,,,,,,,wg-a,,,,AAXX 04034 07130 12460 70304 10070 20050 30080 40133 53012 60006 875// 90300=
07130,1996-05-04 06:00:00,7,1014.5,1.2,87,5,6000,11.112,,,80,6.8,9,,,,,,,,,wg-a,,,,AAXX 04064 07130 02756 80806 10070 20050 30092 40145 53012 61000 877// 90600 333 10090 20068 ////=
07130,1996-05-04 09:00:00,11,1015.8,1.4,47,0,500,14.816,,,100,,,,,,,,,,,wg-a,,,,AAXX 04094 07130 12/00 31008 10110 20000 30106 40158 52014 60006 80001 90900=
07130,1996-05-04 12:00:00,12,1016.3,0.5,54,3,500,14.816,,,80,,,,,,,,,,,wg-a,,,,AAXX 04124 07130 12600 50808 10120 20030 30111 40163 51005 60006 84801 91200=
07130,1996-05-04 15:00:00,13,1016.5,0.2,54,4,500,18.52,,,60,,,,,,,,,,,wg-a,,,,AAXX 04154 07130 12700 70610 10130 20040 30113 40165 53002 60006 878// 91500=
07130,1996-05-04 18:00:00,13,1016.9,0.4,51,3,25000,11.112,,,60,7.2,14.1,,,,,,,,,wg-a,,,,AAXX 04184 07130 12775 50606 10130 20030 30117 40169 53004 60006 82830 91800 333 10141 20072=
07130,1996-05-04 21:00:00,9,1017.8,0.8,66,3,20000,14.816,,,40,,,,,,,,,,,wg-a,,,,AAXX 04214 07130 12/70 20408 10090 20030 30125 40178 53008 60006 80002 92100=
07130,1996-05-05 00:00:00,6,1018.2,0.4,61,-1,25000,11.112,,,60,,,,,,,,,,,wg-a,,,,AAXX 05004 07130 12/75 20606 10060 21010 30129 40182 51004 60006 80002 90000=
07130,1996-05-05 03:00:00,5,1017.7,-0.6,70,0,25000,3.704,,,60,,,,,,,,,,,wg-a,,,,AAXX 05034 07130 12/75 30602 10050 20000 30123 40177 58006 60006 81042 90300=
07130,1996-05-05 06:00:00,4,1017.6,-0.1,81,1,500,7.408,,,20,3.2,12.6,,,,,,,,,wg-a,,,,AAXX 05064 07130 02/00 50204 10040 20010 30122 40176 55001 60006 85040 90600 333 10126 20032 60004=
07130,1996-05-05 09:00:00,11,1017.1,-0.3,58,3,20000,11.112,,,80,,,,,,,,,,,wg-a,,,,AAXX 05094 07130 12/70 10806 10110 20030 30119 40171 58003 60006 80001 90900=
07130,1996-05-05 12:00:00,15,1015.7,-1.4,44,3,20000,18.52,,,80,,,,,,,,,,,wg-a,,,,AAXX 05124 07130 12670 30810 10150 20030 30105 40157 58014 60006 83100 91200=
07130,1996-05-05 15:00:00,16,1014,-1.6,42,3,500,18.52,,,90,,,,,,,,,,,wg-a,,,,AAXX 05154 07130 12700 30910 10160 20030 30089 40140 57016 60006 81130 91500=
07130,1996-05-05 18:00:00,15,1013,-1,44,3,500,18.52,,,80,4.3,16.5,,,,,,,,,wg-a,,,,AAXX 05184 07130 12700 10810 10150 20030 30079 40130 56010 60006 81101 91800 333 10165 20043=
07130,1996-05-05 21:00:00,11,1013.5,0.4,58,3,25000,22.224,,,60,,,,,,,,,,,wg-a,,,,AAXX 05214 07130 12/75 20612 10110 20030 30083 40135 53004 60006 82030 92100=
07130,1996-05-06 00:00:00,9,1013.1,-0.4,66,3,20000,11.112,,,30,,,,,,,,,,,wg-a,,,,AAXX 06004 07130 12/70 70306 10090 20030 30079 40131 55004 60006 8703/ 90000=
07130,1996-05-06 03:00:00,9,1011.8,-1.3,57,1,15000,22.224,,,50,,,,,,,,,,,wg-a,,,,AAXX 06034 07130 12865 80512 10090 20010 30066 40118 56013 60006 875// 90300=
07130,1996-05-06 06:00:00,9,1012.2,0.4,61,2,15000,22.224,,,60,8.7,15.1,,,,,,,,61,wg-a,,,,AAXX 06064 07130 02865 80612 10090 20020 30070 40122 52004 61000 76162 8653/ 90600 333 10151 20087 6100=
07130,1996-05-06 09:00:00,8,1012.3,0,81,5,8000,25.928,,,50,,,,3,,,,,,61,wg-a,,,,AAXX 06094 07130 12558 80514 10080 20050 30070 40123 50000 60037 76166 8557/ 90900=
07130,1996-05-06 12:00:00,8,1011.5,-0.7,87,6,7000,25.928,,,50,,,,3,,,,,,60,wg-a,,,,AAXX 06124 07130 02457 80514 10080 20060 30063 40115 58007 60066 76066 8567/ 91200 333 60037=
07130,1996-05-06 15:00:00,10,1010.9,-0.6,82,7,12000,18.52,,,60,,,,,,,,,,1,wg-a,,,,AAXX 06154 07130 02662 80610 10100 20070 30057 40109 55006 61000 70162 8457/ 91500 333 ////=
07130,1996-05-06 18:00:00,10,1010.4,-0.5,82,7,12000,22.224,,,60,7.2,10.8,,,,,,,,1,wg-a,,,,AAXX 06184 07130 32762 70612 10100 20070 30052 40104 55005 70162 8252/ 91800 333 10108 20072=
07130,1996-05-06 21:00:00,9,1010.5,0.1,93,8,6000,14.816,,,50,,,,1,,,,,,61,wg-a,,,,AAXX 06214 07130 12756 80508 10090 20080 30053 40105 53001 60017 76162 8652/ 92100=
07130,1996-05-07 00:00:00,9,1010.4,-0.1,87,7,6000,14.816,,,50,,,,1,,,,,,61,wg-a,,,,AAXX 07004 07130 02756 80508 10090 20070 30052 40104 56001 60036 76162 8652/ 90000 333 60017=
07130,1996-05-07 03:00:00,8,1009.2,-1.2,93,7,500,11.112,,,50,,,,1,,,,,,61,wg-a,,,,AAXX 07034 07130 12700 80506 10080 20070 30040 40092 56012 60017 76166 8652/ 90300=
07130,1996-05-07 06:00:00,8,1008.9,-0.3,93,7,3000,14.816,,,40,7.8,10.3,,3,,,13,,,10,wg-a,,,,AAXX 07064 07130 02730 80408 10080 20070 30037 40089 55003 60134 71066 8452/ 90600 333 10103 20078 60037=
07130,1996-05-07 09:00:00,10,1008.7,-0.2,87,8,3000,22.224,,,40,,,,1,,,,,,10,wg-a,,,,AAXX 07094 07130 12430 70412 10100 20080 30035 40087 58002 60017 71062 8353/ 90900=
07130,1996-05-07 12:00:00,14,1008.4,-0.2,72,9,500,22.224,,,40,,,,,,,,,,1,wg-a,,,,AAXX 07124 07130 12500 70412 10140 20090 30033 40084 58002 60016 70162 875// 91200=
07130,1996-05-07 15:00:00,15,1008.4,0,72,10,7000,18.52,,,30,,,,,,,,,,,wg-a,,,,AAXX 07154 07130 12557 70310 10150 20100 30033 40084 50000 60006 875// 91500=
07130,1996-05-07 18:00:00,15,1009.1,0.7,67,9,8000,22.224,,,40,7.9,15.5,,,,,,,,,wg-a,,,,AAXX 07184 07130 32758 70412 10150 20090 30040 40091 53007 81102 91800 333 10155 20079=
07130,1996-05-07 21:00:00,12,1011,1.8,76,8,500,22.224,,,30,,,,,,,,,,,wg-a,,,,AAXX 07214 07130 12700 70312 10120 20080 30058 40110 52018 60006 86572 92100=
07130,1996-05-08 00:00:00,11,1012.1,1.1,82,8,500,18.52,,,20,,,,,,,,,,,wg-a,,,,AAXX 08004 07130 12700 70210 10110 20080 30069 40121 51011 60006 86572 90000=
07130,1996-05-08 03:00:00,10,1012.7,0.6,87,8,8000,18.52,,,30,,,,,,,,,,,wg-a,,,,AAXX 08034 07130 32/58 /0310 10100 20080 30075 40127 53006 90300=
07130,1996-05-08 06:00:00,10,1014.1,1.4,87,8,6000,22.224,,,20,9.6,14.6,,,,,1,,,,wg-a,,,,AAXX 08064 07130 12456 80212 10100 20080 30089 40141 53014 60014 875// 90600 333 10146 20096=
07130,1996-05-08 09:00:00,9,1015.7,1.6,93,8,4000,18.52,,,20,,,,0,,,,,,10,wg-a,,,,AAXX 08094 07130 12440 80210 10090 20080 30105 40157 51016 60007 71062 875// 90900=
07130,1996-05-08 12:00:00,10,1016.8,1.1,87,8,9000,29.632,,,40,,,,0,,,,,,1,wg-a,,,,AAXX 08124 07130 02459 80416 10100 20080 30116 40168 51011 60016 70162 885// 91200 333 60007=
07130,1996-05-08 15:00:00,10,1017.5,0.7,82,7,9000,29.632,,,30,,,,,,,,,,,wg-a,,,,AAXX 08154 07130 12459 80316 10100 20070 30123 40175 51007 60006 885// 91500=
07130,1996-05-08 18:00:00,10,1018.1,0.6,82,7,9000,25.928,,42.596,30,9,10.7,,,,,,,,,wg-a,,,,AAXX 08184 07130 32459 80314 10100 20070 30129 40181 53006 885// 91800 333 10107 20090 91023=
07130,1996-05-08 21:00:00,8,1020.2,2,81,5,10000,25.928,,,30,,,,,,,,,,,wg-a,,,,AAXX 08214 07130 12660 70314 10080 20050 30149 40202 51020 60006 875// 92100=
07130,1996-05-09 00:00:00,6,1020.7,0.5,87,4,15000,22.224,,,20,,,,,,,,,,,wg-a,,,,AAXX 09004 07130 12/65 00212 10060 20040 30154 40207 50005 60006 80000 90000=
07130,1996-05-09 03:00:00,6,1020.1,-0.6,87,4,15000,22.224,,,30,,,,,,,,,,,wg-a,,,,AAXX 09034 07130 12/65 10312 10060 20040 30148 40201 55006 60006 80001 90300=
07130,1996-05-09 06:00:00,6,1020.5,0.4,81,3,12000,18.52,,,40,5.7,10.4,,,,,1,,,,wg-a,,,,AAXX 09064 07130 02/62 20410 10060 20030 30152 40205 51004 60006 80001 90600 333 10104 20057 60014=
07130,1996-05-09 09:00:00,10,1020.1,-0.4,53,1,20000,29.632,,,40,,,,,,,,,,,wg-a,,,,AAXX 09094 07130 12570 20416 10100 20010 30148 40201 58004 60006 81101 90900=
07130,1996-05-09 12:00:00,13,1018.7,-1.3,47,2,500,31.484,,,30,,,,,,,,,,,wg-a,,,,AAXX 09124 07130 12600 20317 10130 20020 30135 40187 56013 60006 82101 91200=
07130,1996-05-09 15:00:00,13,1017.7,-1,51,3,500,31.484,,,40,,,,,,,,,,,wg-a,,,,AAXX 09154 07130 12600 30417 10130 20030 30125 40177 56010 60006 83101 91500=
07130,1996-05-09 18:00:00,11,1017.5,-0.2,54,2,25000,29.632,,,40,6.3,13.5,,,,,,,,,wg-a,,,,AAXX 09184 07130 12675 30416 10110 20020 30123 40175 55002 60006 83101 91800 333 10135 20063=
07130,1996-05-09 21:00:00,8,1018,0.4,66,2,20000,22.224,,,30,,,,,,,,,,,wg-a,,,,AAXX 09214 07130 12/70 20312 10080 20020 30127 40180 53004 60006 80001 92100=
07130,1996-05-10 00:00:00,6,1017.3,-0.7,81,3,20000,22.224,,,30,,,,,,,,,,,wg-a,,,,AAXX 10004 07130 12/70 30312 10060 20030 30120 40173 58007 60006 80001 90000=
07130,1996-05-10 03:00:00,5,1016.5,-0.8,81,2,20000,3.704,,,350,,,,,,,,,,,wg-a,,,,AAXX 10034 07130 12/70 03502 10050 20020 30112 40165 56008 60006 80000 90300=
07130,1996-05-10 06:00:00,5,1015.6,-0.9,87,3,20000,11.112,,,20,3.6,10.9,,,,,,,,,wg-a,,,,AAXX 10064 07130 02/70 10206 10050 20030 30103 40156 56009 60006 81031 90600 333 10109 20036 60004=
07130,1996-05-10 09:00:00,10,1014.6,-0.9,62,3,25000,25.928,,,40,,,,,,,,,,,wg-a,,,,AAXX 10094 07130 12575 40414 10100 20030 30094 40146 58009 60006 82101 90900=
07130,1996-05-10 12:00:00,12,1013.9,-0.7,50,2,15000,18.52,,,30,,,,,,,,,,25,wg-a,,,,AAXX 10124 07130 02665 /0310 10120 20020 30087 40139 57007 61000 72511 83231 91200 333 ////=
07130,1996-05-10 15:00:00,11,1012.9,-1,58,3,20000,22.224,,,70,,,,,,,,,,25,wg-a,,,,AAXX 10154 07130 02570 70712 10110 20030 30077 40129 58010 61000 72522 84272 91500 333 ////=
07130,1996-05-10 18:00:00,11,1012.4,-0.5,66,5,25000,25.928,,,30,4.8,12.9,,,,,,,,,wg-a,,,,AAXX 10184 07130 12575 30314 10110 20050 30072 40124 55005 60006 82231 91800 333 10129 20048=
07130,1996-05-10 21:00:00,8,1014.1,1.6,76,4,40000,14.816,,,20,,,,,,,,,,,wg-a,,,,AAXX 10214 07130 12682 30208 10080 20040 30088 40141 52016 60006 81501 92100=
07130,1996-05-11 00:00:00,6,1014,-0.1,87,4,40000,14.816,,,20,,,,,,,,,,,wg-a,,,,AAXX 11004 07130 12782 20208 10060 20040 30087 40140 58001 60006 81501 90000=
07130,1996-05-11 03:00:00,6,1013.5,-0.5,87,4,40000,11.112,,,30,,,,,,,,,,,wg-a,,,,AAXX 11034 07130 12782 60306 10060 20040 30082 40135 55005 60006 86500 90300=
07130,1996-05-11 06:00:00,6,1014.5,1,87,4,0,11.112,,,20,5.4,10.9,,,,,,,,,wg-a,,,,AAXX 11064 07130 02/// /0206 10060 20040 30092 40145 53010 60006 90600 333 10109 20054 61000=
07130,1996-05-11 09:00:00,10,1014.6,0.2,66,4,9000,14.816,,,60,,,,,,,,,,,wg-a,,,,AAXX 11094 07130 12759 50608 10100 20040 30094 40146 50002 60006 85800 90900=
07130,1996-05-11 12:00:00,11,1014.4,-0.2,58,3,9000,18.52,,,30,,,,,,,,,,,wg-a,,,,AAXX 11124 07130 12/59 /0310 10110 20030 30092 40144 56002 60006 91200=
07130,1996-05-11 15:00:00,11,1014.6,0.2,62,4,20000,22.224,,,20,,,,,,,,,,,wg-a,,,,AAXX 11154 07130 12670 70212 10110 20040 30094 40146 53002 60006 86802 91500=
07130,1996-05-11 18:00:00,11,1015.5,0.9,62,4,9000,18.52,,,30,6,12.1,,,,,,,,,wg-a,,,,AAXX 11184 07130 12659 /0310 10110 20040 30103 40155 53009 60006 85802 91800 333 10121 20060=
07130,1996-05-11 21:00:00,9,1017.6,2,71,4,8000,11.112,,,20,,,,,,,,,,,wg-a,,,,AAXX 11214 07130 12758 /0206 10090 20040 30123 40176 53020 60006 83530 92100=
07130,1996-05-12 00:00:00,7,1018.1,0.5,87,5,8000,11.112,,,10,,,,,,,,,,,wg-a,,,,AAXX 12004 07130 12758 /0106 10070 20050 30128 40181 51005 60006 83530 90000=
07130,1996-05-12 03:00:00,7,1018.6,0.5,81,4,9000,11.112,,,350,,,,,,,,,,,wg-a,,,,AAXX 12034 07130 12659 73506 10070 20040 30133 40186 53005 60006 8557/ 90300=
07130,1996-05-12 06:00:00,7,1020.2,1.6,87,5,9000,11.112,,,340,6,11,,,,,,,,,wg-a,,,,AAXX 12064 07130 02759 73406 10070 20050 30149 40202 53016 60006 875// 90600 333 10110 20060 60004=
07130,1996-05-12 09:00:00,11,1021.8,1.6,66,5,10000,14.816,,,10,,,,,,,,,,,wg-a,,,,AAXX 12094 07130 12460 70108 10110 20050 30165 40218 51016 60006 878// 90900=
07130,1996-05-12 12:00:00,13,1022.2,0.5,51,3,14000,18.52,,,20,,,,,,,,,,,wg-a,,,,AAXX 12124 07130 12664 70210 10130 20030 30170 40222 53005 60006 878// 91200=
07130,1996-05-12 15:00:00,13,1023.3,1.1,54,4,20000,22.224,,,20,,,,,,,,,,,wg-a,,,,AAXX 12154 07130 12670 70212 10130 20040 30181 40233 53011 60006 878// 91500=
07130,1996-05-12 18:00:00,12,1024.4,1.1,58,4,25000,14.816,,,20,7.3,13.9,,,,,,,,,wg-a,,,,AAXX 12184 07130 12675 20208 10120 20040 30192 40244 53011 60006 82800 91800 333 10139 20073=
07130,1996-05-12 21:00:00,9,1026.2,1.7,76,5,15000,7.408,,,330,,,,,,,,,,,wg-a,,,,AAXX 12214 07130 12/65 03304 10090 20050 30209 40262 53017 60006 80000 92100=
07130,1996-05-13 00:00:00,5,1026.9,0.6,93,4,9000,3.704,,,320,,,,,,,,,,,wg-a,,,,AAXX 13004 07130 12/59 03202 10050 20040 30215 40269 52006 60006 80000 90000=
07130,1996-05-13 03:00:00,3,1026.8,-0.1,93,2,3000,7.408,,,310,,,,,,,,,,10,wg-a,,,,AAXX 13034 07130 12/30 03104 10030 20020 30214 40268 58001 60006 71000 80000 90300=
07130,1996-05-13 06:00:00,3,1026.9,0.1,100,3,700,0,,,0,2.2,12,,,,,,,,41,wg-a,,,,AAXX 13064 07130 02/07 00000 10030 20030 30215 40269 53001 60006 74140 80000 90600 333 10120 20022 60004=
07130,1996-05-13 09:00:00,12,1026.8,0,62,5,9000,11.112,,,10,,,,,,,,,,2,wg-a,,,,AAXX 13094 07130 12459 20106 10120 20050 30215 40268 50000 60006 70240 81101 90900=
07130,1996-05-13 12:00:00,14,1025.6,-1.1,47,3,11000,3.704,,,40,,,,,,,,,,,wg-a,,,,AAXX 13124 07130 12/61 /0402 10140 20030 30204 40256 58011 60006 91200=
07130,1996-05-13 15:00:00,15,1024.4,-1.2,48,4,10000,14.816,,,20,,,,,,,,,,,wg-a,,,,AAXX 13154 07130 12660 70208 10150 20040 30192 40244 57012 60006 878// 91500=
07130,1996-05-13 18:00:00,13,1024.2,-0.2,62,6,9000,14.816,,,30,3.2,15.9,,,,,,,,,wg-a,,,,AAXX 13184 07130 12759 80308 10130 20060 30190 40242 57002 60006 885// 91800 333 10159 20032=
07130,1996-05-13 21:00:00,11,1024.2,0,71,6,10000,11.112,,,20,,,,,,,,,,,wg-a,,,,AAXX 13214 07130 12/60 /0206 10110 20060 30190 40242 50000 60006 92100=
07130,1996-05-14 00:00:00,8,1023.6,-0.7,81,5,10000,7.408,,,20,,,,,,,,,,,wg-a,,,,AAXX 14004 07130 12/60 00204 10080 20050 30183 40236 56007 60006 80000 90000=
07130,1996-05-14 03:00:00,7,1022.6,-1,76,3,9000,3.704,,,20,,,,,,,,,,,wg-a,,,,AAXX 14034 07130 12/59 00202 10070 20030 30173 40226 58010 60006 80000 90300=
07130,1996-05-14 06:00:00,5,1021.6,-1,100,5,6000,0,,,0,4.1,13.5,,,,,,,,,wg-a,,,,AAXX 14064 07130 02/56 30000 10050 20050 30163 40216 57010 60006 80002 90600 333 10135 20041 60004=
07130,1996-05-14 12:00:00,13,1019.1,-1.1,58,5,11000,25.928,,,30,,,,,,,,,,,wg-a,,,,AAXX 14124 07130 12/61 /0314 10130 20050 30139 40191 58011 60006 91200=
07130,1996-05-14 15:00:00,12,1017.8,-1.3,67,6,10000,25.928,,,40,,,,,,,,,,,wg-a,,,,AAXX 14154 07130 12560 80414 10120 20060 30126 40178 58013 60006 885// 91500=
07130,1996-05-14 18:00:00,12,1017.1,-0.7,71,7,9000,22.224,,,40,5.5,15.1,,,,,,,,,wg-a,,,,AAXX 14184 07130 12559 70412 10120 20070 30119 40171 57007 60006 875// 91800 333 10151 20055=
07130,1996-05-14 21:00:00,11,1017.2,0.1,82,8,9000,18.52,,,50,,,,,,,,,,,wg-a,,,,AAXX 14214 07130 12559 80510 10110 20080 30120 40172 53001 60006 885// 92100=
07130,1996-05-15 00:00:00,10,1016.5,-0.7,87,8,8000,18.52,,,30,,,,,,,,,,,wg-a,,,,AAXX 15004 07130 12458 80310 10100 20080 30113 40165 58007 60006 885// 90000=
07130,1996-05-15 03:00:00,10,1015.4,-1.1,87,8,7000,14.816,,,30,,,,,,,,,,,wg-a,,,,AAXX 15034 07130 12457 80308 10100 20080 30102 40154 58011 60006 885// 90300=
07130,1996-05-15 06:00:00,10,1015.2,-0.2,87,8,500,22.224,,,40,10,11.7,,,,,,,,,wg-a,,,,AAXX 15064 07130 02400 80412 10100 20080 30100 40152 55002 60006 885// 90600 333 10117 20100 60004=
07130,1996-05-15 09:00:00,11,1015.1,-0.1,82,8,8000,14.816,,,50,,,,,,,,,,,wg-a,,,,AAXX 15094 07130 12458 80508 10110 20080 30099 40151 58001 60006 885// 90900=
07130,1996-05-15 12:00:00,13,1014.7,-0.4,77,9,8000,18.52,,,30,,,,,,,,,,,wg-a,,,,AAXX 15124 07130 12458 80310 10130 20090 30095 40147 58004 60006 885// 91200=
07130,1996-05-15 15:00:00,14,1013.9,-0.8,67,8,9000,22.224,,,80,,,,,,,,,,,wg-a,,,,AAXX 15154 07130 12559 80812 10140 20080 30087 40139 57008 60006 885// 91500=
07130,1996-05-15 18:00:00,12,1013.8,-0.1,62,5,10000,18.52,,,70,10.3,14,,,,,,,,,wg-a,,,,AAXX 15184 07130 12560 80710 10120 20050 30086 40138 55001 60006 885// 91800 333 10140 20103=
07130,1996-05-15 21:00:00,12,1014.4,0.6,58,4,10000,14.816,,,80,,,,,,,,,,,wg-a,,,,AAXX 15214 07130 12660 80808 10120 20040 30092 40144 53006 60006 885// 92100=
07130,1996-05-16 00:00:00,11,1013.3,-1.1,66,5,10000,22.224,,,70,,,,,,,,,,,wg-a,,,,AAXX 16004 07130 12660 80712 10110 20050 30081 40133 58011 60006 885// 90000=
07130,1996-05-16 03:00:00,10,1011.7,-1.6,76,6,10000,25.928,,,60,,,,,,,,,,,wg-a,,,,AAXX 16034 07130 12560 80614 10100 20060 30065 40117 56016 60006 885// 90300=
07130,1996-05-16 06:00:00,9,1011.3,-0.4,81,6,7000,14.816,,,60,9.2,12.5,,,,,,,,,wg-a,,,,AAXX 16064 07130 02457 80608 10090 20060 30061 40113 55004 60006 885// 90600 333 10125 20092 60004=
07130,1996-05-16 09:00:00,9,1009,-2.3,81,6,500,25.928,,,80,,,,,,,,,,,wg-a,,,,AAXX 16094 07130 12400 80814 10090 20060 30038 40090 55023 60006 885// 90900=
07130,1996-05-16 12:00:00,8,1006.2,-2.8,93,7,500,18.52,,,60,,,,4,,,,,,17,wg-a,,,,AAXX 16124 07130 02200 80610 10080 20070 30010 40062 56028 60046 71796 883// 91200 333 60047=
07130,1996-05-16 15:00:00,8,1006,-0.2,100,8,3000,11.112,,,50,,,,2,,,,,,10,wg-a,,,,AAXX 16154 07130 12130 80506 10080 20080 30008 40060 58002 60027 71096 888// 91500=
07130,1996-05-16 18:00:00,8,1005.2,-0.8,100,8,3000,7.408,,,10,7.8,9.3,,0,,,,,,10,wg-a,,,,AAXX 16184 07130 12230 80104 10080 20080 30000 40052 57008 60007 71096 886// 91800 333 10093 20078=
07130,1996-05-16 21:00:00,8,1006.1,0.9,93,7,3000,3.704,,,350,,,,,,,,,,10,wg-a,,,,AAXX 16214 07130 12130 83502 10080 20070 30009 40061 52009 60006 71022 886// 92100=
07130,1996-05-17 00:00:00,8,1005.6,-0.5,100,8,2000,3.704,,,320,,,,,,,,,,10,wg-a,,,,AAXX 17004 07130 02220 83202 10080 20080 30004 40056 58005 61000 71052 886// 90000 333 6100=
07130,1996-05-17 03:00:00,8,1005.1,-0.5,93,7,3000,3.704,,,300,,,,0,,,,,,10,wg-a,,,,AAXX 17034 07130 12230 83002 10080 20070 39999 40051 57005 60007 71055 886// 90300=
07130,1996-05-17 06:00:00,8,1004.9,-0.2,93,7,4500,7.408,,,360,7.5,8.2,,,,,7,,,10,wg-a,,,,AAXX 17064 07130 12245 83604 10080 20070 39997 40049 56002 60074 71052 885// 90600 333 10082 20075=
07130,1996-05-17 09:00:00,9,1004.7,-0.2,87,7,6000,7.408,,,40,,,,,,,,,,60,wg-a,,,,AAXX 17094 07130 02356 80404 10090 20070 39995 40047 58002 61000 76062 885// 90900 333 ////=
07130,1996-05-17 12:00:00,10,1004.8,0.1,93,9,6000,7.408,,,360,,,,1,,,,,,61,wg-a,,,,AAXX 17124 07130 02456 83604 10100 20090 39996 40048 50001 60016 76162 885// 91200 333 60017=
07130,1996-05-17 15:00:00,12,1004,-0.7,88,10,12000,3.704,,,310,,,,0,,,,,,1,wg-a,,,,AAXX 17154 07130 12462 73102 10120 20100 39989 40040 57007 60007 70162 875// 91500=
07130,1996-05-17 18:00:00,11,1003.4,-0.6,94,10,3000,7.408,,,20,7.7,12.7,,0,,,,,,10,wg-a,,,,AAXX 17184 07130 12230 80204 10110 20100 39983 40034 56006 60007 71062 885// 91800 333 10127 20077=
07130,1996-05-17 21:00:00,10,1003.3,-0.2,93,9,500,7.408,,,10,,,,0,,,,,,21,wg-a,,,,AAXX 17214 07130 12300 80104 10100 20090 39981 40033 55002 60007 72162 885// 92100=
07130,1996-05-18 00:00:00,10,1001.5,-1.8,100,10,2500,11.112,,,330,,,,1,,,,,,10,wg-a,,,,AAXX 18004 07130 02225 83306 10100 20100 39963 40015 56018 60016 71062 887// 90000 333 60017=
07130,1996-05-18 03:00:00,10,999.2,-2.2,100,10,3500,3.704,,,10,,,,0,,,,,,10,wg-a,,,,AAXX 18034 07130 12235 80102 10100 20100 39941 49992 57022 60007 71062 887// 90300=
07130,1996-05-18 06:00:00,10,999,-0.2,100,10,500,7.408,,,340,9.8,10.8,,,,,3,,,45,wg-a,,,,AAXX 18064 07130 02/05 93404 10100 20100 39939 49990 56002 60034 74564 89/// 90600 333 10108 20098 61000=
07130,1996-05-18 09:00:00,12,999,0,94,11,2000,0,,,0,,,,,,,,,,,wg-a,,,,AAXX 18094 07130 32/20 /0000 10120 20110 39939 49990 50000 90900=
07130,1996-05-18 12:00:00,17,997.4,-1.5,77,13,14000,3.704,,,120,,,,,,,,,,25,wg-a,,,,AAXX 18124 07130 02464 71202 10170 20130 39924 49974 58015 61000 72586 8584/ 91200 333 6100=
07130,1996-05-18 15:00:00,16,994.4,-3,88,14,12000,7.408,,,80,,,,4,,,,,,25,wg-a,,,,AAXX 18154 07130 12562 60804 10160 20140 39894 49944 58030 60047 72586 84872 91500=
07130,1996-05-18 18:00:00,16,991.8,-2.6,77,12,20000,31.484,,,180,10,17.5,,0,,,,,,1,wg-a,,,,AAXX 18184 07130 12470 31817 10160 20120 39868 49918 57026 60007 70186 83800 91800 333 10175 20100=
07130,1996-05-18 21:00:00,10,995.9,4,87,8,20000,25.928,,57.412,220,,,,,,,,,,,wg-a,,,,AAXX 18214 07130 12470 /2214 10100 20080 39908 49959 53040 60006 85800 92100 333 91031=
07130,1996-05-19 00:00:00,7,1000.9,4.9,81,4,20000,29.632,,,230,,,,,,,,,,,wg-a,,,,AAXX 19004 07130 12470 62316 10070 20040 39957 40009 51049 60006 86800 90000=
07130,1996-05-19 03:00:00,6,1002,1.1,81,3,20000,14.816,,,240,,,,,,,,,,,wg-a,,,,AAXX 19034 07130 12470 32408 10060 20030 39968 40020 51011 60006 83800 90300=
07130,1996-05-19 06:00:00,7,1003.2,1.2,81,4,25000,18.52,,,190,5.2,16.4,,,,,4,,,,wg-a,,,,AAXX 19064 07130 02575 31910 10070 20040 39980 40032 52012 60006 82802 90600 333 10164 20052 60044=
07130,1996-05-19 09:00:00,8,1004.8,1.6,87,6,9000,14.816,,,200,,,,0,,,,,,1,wg-a,,,,AAXX 19094 07130 12559 72008 10080 20060 39996 40048 51016 60007 70187 85903 90900=
07130,1996-05-19 12:00:00,13,1005.5,0.8,58,5,20000,25.928,,,230,,,,0,,,,,,1,wg-a,,,,AAXX 19124 07130 02570 62314 10130 20050 30004 40055 51008 60016 70187 84903 91200 333 60007=
07130,1996-05-19 15:00:00,14,1006.1,0.6,51,4,11000,29.632,,,230,,,,,,,,,,,wg-a,,,,AAXX 19154 07130 12/61 /2316 10140 20040 30010 40061 51006 60006 91500=
07130,1996-05-19 17:00:00,13,1008,1.9,54,4,35000,22.224,,,230,,14.6,,,,,,,,,wg-a,,,,AAXX 19174 07130 32681 42312 10130 20040 30029 40080 52019 82231 91700 333 10146=
07130,1996-05-19 18:00:00,13,1008,1.9,54,4,35000,22.224,,,230,6.5,14.6,,,,,,,,,wg-a,,,,AAXX 19184 07130 32681 42312 10130 20040 30029 40080 52019 82231 91800 333 10146 20065=
07130,1996-05-19 21:00:00,9,1010.3,2.2,76,5,50000,7.408,,,220,,,,,,,,,,,wg-a,,,,AAXX 19214 07130 12684 32204 10090 20050 30051 40103 53022 60006 83800 92100=
07130,1996-05-20 00:00:00,8,1010.8,0.5,87,6,50000,7.408,,,160,,,,,,,,,,,wg-a,,,,AAXX 20004 07130 12784 31604 10080 20060 30056 40108 51005 60006 83500 90000=
07130,1996-05-20 03:00:00,8,1012.6,1.7,87,6,50000,3.704,,,170,,,,,,,,,,,wg-a,,,,AAXX 20034 07130 12684 71702 10080 20060 30073 40126 51017 60006 875// 90300=
07130,1996-05-20 06:00:00,9,1014.3,1.8,93,8,20000,3.704,,,220,7.6,12.8,,,,,,,,1,wg-a,,,,AAXX 20064 07130 02570 72202 10090 20080 30091 40143 53018 60004 70186 8584/ 90600 333 10128 20076 61000=
07130,1996-05-20 09:00:00,13,1015.6,1.3,72,8,11000,3.704,,,230,,,,,,,,,,,wg-a,,,,AAXX 20094 07130 12/61 /2302 10130 20080 30104 40156 51013 60006 90900=
07130,1996-05-20 12:00:00,14,1015.7,0.1,72,9,500,3.704,,,320,,,,0,,,,,,25,wg-a,,,,AAXX 20124 07130 02500 63202 10140 20090 30105 40157 50001 60006 72522 84902 91200 333 60007=
07130,1996-05-20 15:00:00,16,1015.6,-0,45,4,500,22.224,,,260,,,,,,,,,,,wg-a,,,,AAXX 20154 07130 12600 32612 10160 20040 30105 40156 55000 60006 83201 91500=
07130,1996-05-20 18:00:00,15,1016.7,1,44,3,500,22.224,,,240,8.6,16.7,,,,,,,,,wg-a,,,,AAXX 20184 07130 32600 /2412 10150 20030 30115 40167 52010 81200 91800 333 10167 20086=
07130,1996-05-20 21:00:00,10,1018.3,1.6,71,5,500,11.112,,,220,,,,,,,,,,,wg-a,,,,AAXX 20214 07130 12600 /2206 10100 20050 30131 40183 52016 60006 81500 92100=
07130,1996-05-21 00:00:00,8,1018.6,0.2,87,6,20000,11.112,,,180,,,,,,,,,,,wg-a,,,,AAXX 21004 07130 12670 21806 10080 20060 30133 40186 51002 60006 81530 90000=
07130,1996-05-21 03:00:00,9,1018.6,-0,93,8,10000,11.112,,,210,,,,2,,,,,,81,wg-a,,,,AAXX 21034 07130 12460 82106 10090 20080 30133 40186 55000 60027 78186 878// 90300=
07130,1996-05-21 06:00:00,9,1019.9,1.3,93,8,25000,7.408,,,240,8.2,14.6,,0,,,2,,,1,wg-a,,,,AAXX 21064 07130 02575 42404 10090 20080 30146 40199 53013 60024 70186 82870 90600 333 10146 20082 60007=
07130,1996-05-21 09:00:00,13,1021.6,1.8,67,7,500,14.816,,,280,,,,,,,,,,,wg-a,,,,AAXX 21094 07130 12500 /2808 10130 20070 30164 40216 51018 60006 85200 90900=
07130,1996-05-21 12:00:00,14,1022.8,1.2,55,5,40000,22.224,,,290,,,,,,,,,,,wg-a,,,,AAXX 21124 07130 12682 62912 10140 20050 30176 40228 51012 60006 86800 91200=
07130,1996-05-21 15:00:00,16,1023.3,0.5,55,7,25000,14.816,,,280,,,,,,,,,,15,wg-a,,,,AAXX 21154 07130 12675 62808 10160 20070 30181 40233 53005 60006 71511 85901 91500=
07130,1996-05-21 18:00:00,15,1024.2,0.9,59,7,40000,3.704,,,20,8.6,16.8,,,,,,,,,wg-a,,,,AAXX 21184 07130 12682 50202 10150 20070 30190 40242 53009 60006 83241 91800 333 10168 20086=
07130,1996-05-21 21:00:00,11,1026.4,2.1,76,7,500,11.112,,,240,,,,,,,,,,,wg-a,,,,AAXX 21214 07130 12700 52406 10110 20070 30211 40264 53021 60006 815/1 92100=
07130,1996-05-22 00:00:00,9,1025.7,-0.7,87,7,500,7.408,,,210,,,,,,,,,,,wg-a,,,,AAXX 22004 07130 12/00 32104 10090 20070 30204 40257 58007 60006 80001 90000=
07130,1996-05-22 03:00:00,8,1024.6,-1.1,93,7,500,11.112,,,180,,,,,,,,,,,wg-a,,,,AAXX 22034 07130 12/00 71806 10080 20070 30193 40246 56011 60006 82042 90300=
07130,1996-05-22 06:00:00,10,1023.8,-0.8,87,8,11000,11.112,,,160,8.3,15.5,,,,,,,,,wg-a,,,,AAXX 22064 07130 02/61 /1606 10100 20080 30185 40238 56008 60006 90600 333 10155 20083 60004=
07130,1996-05-22 12:00:00,13,1021.2,-1.2,82,10,14000,22.224,,,210,,,,0,,,,,,61,wg-a,,,,AAXX 22124 07130 02564 82112 10130 20100 30160 40212 58012 60006 76162 8582/ 91200 333 60007=
07130,1996-05-22 18:00:00,13,1018.1,-1.4,94,12,500,25.928,,,210,9.9,15.1,,0,,,,,,51,wg-a,,,,AAXX 22184 07130 12200 82114 10130 20120 30129 40181 56014 60007 75165 887// 91800 333 10151 20099=
07130,1996-05-22 21:00:00,14,1018.5,0.4,94,13,15000,18.52,,,250,,,,,,,,,,20,wg-a,,,,AAXX 22214 07130 02365 72510 10140 20130 30133 40185 53004 61000 72052 875// 92100 333 ////=
07130,1996-05-23 00:00:00,13,1019.1,0.6,94,12,17000,11.112,,,240,,,,,,,,,,3,wg-a,,,,AAXX 23004 07130 02367 82406 10130 20120 30139 40191 51006 61000 70352 885// 90000 333 ////=
07130,1996-05-23 03:00:00,13,1019.3,0.2,88,11,25000,11.112,,,270,,,,,,,,,,,wg-a,,,,AAXX 23034 07130 12475 82706 10130 20110 30141 40193 53002 60006 888// 90300=
07130,1996-05-23 06:00:00,13,1020.4,1.1,100,13,7000,11.112,,,210,12.5,13.8,,,,,1,,,50,wg-a,,,,AAXX 23064 07130 02257 82106 10130 20130 30152 40204 52011 60014 75052 885// 90600 333 10138 20125 61000=
07130,1996-05-23 09:00:00,15,1020.9,0.5,88,13,50000,18.52,,,230,,,,,,,,,,1,wg-a,,,,AAXX 23094 07130 02484 82310 10150 20130 30157 40209 51005 61000 70152 875// 90900 333 ////=
07130,1996-05-23 12:00:00,17,1020.7,-0.1,77,13,25000,22.224,,,230,,,,,,,,,,20,wg-a,,,,AAXX 23124 07130 02475 72312 10170 20130 30156 40207 58001 61000 72052 878// 91200 333 6100=
07130,1996-05-23 15:00:00,17,1019.9,-0.8,77,13,25000,25.928,,,220,,,,,,,,,,,wg-a,,,,AAXX 23154 07130 12475 72214 10170 20130 30148 40199 58008 60006 878// 91500=
07130,1996-05-23 18:00:00,16,1019.5,-0.4,77,12,500,22.224,,,230,13.1,18.1,,,,,,,,,wg-a,,,,AAXX 23184 07130 32400 72312 10160 20120 30144 40195 56004 875// 91800 333 10181 20131=
07130,1996-05-23 21:00:00,13,1019.1,-0.5,88,11,15000,14.816,,,220,,,,,,,,,,,wg-a,,,,AAXX 23214 07130 12465 82208 10130 20110 30139 40191 55005 60006 875// 92100=
07130,1996-05-24 00:00:00,13,1017.6,-1.5,82,10,15000,22.224,,,220,,,,,,,,,,,wg-a,,,,AAXX 24004 07130 12465 82212 10130 20100 30124 40176 56015 60006 886// 90000=
07130,1996-05-24 03:00:00,12,1015.6,-2,88,10,15000,18.52,,,220,,,,,,,,,,,wg-a,,,,AAXX 24034 07130 12465 72210 10120 20100 30104 40156 58020 60006 876// 90300=
07130,1996-05-24 06:00:00,13,1015,-0.6,82,10,15000,18.52,,,230,12,15.7,,,,,,,,,wg-a,,,,AAXX 24064 07130 02465 82310 10130 20100 30098 40150 57006 60006 885// 90600 333 10157 20120 61000=
07130,1996-05-24 09:00:00,14,1014.3,-0.6,77,10,15000,18.52,,,230,,,,,,,,,,,wg-a,,,,AAXX 24094 07130 12465 72310 10140 20100 30092 40143 56006 60006 8657/ 90900=
07130,1996-05-24 12:00:00,16,1013.5,-0.8,72,11,20000,29.632,,,210,,,,,,,,,,,wg-a,,,,AAXX 24124 07130 12570 72116 10160 20110 30084 40135 56008 60006 8257/ 91200=
07130,1996-05-24 15:00:00,18,1012.1,-1.4,64,11,20000,31.484,,,220,,,,,,,,,,,wg-a,,,,AAXX 24154 07130 12670 /2217 10180 20110 30070 40121 56014 60006 83102 91500=
07130,1996-05-24 18:00:00,14,1011.6,-0.5,94,13,500,22.224,,,210,12.6,18.7,,,,,,,,,wg-a,,,,AAXX 24184 07130 02/00 /2112 10140 20130 30065 40116 58005 61000 91800 333 10187 20126 ////=
07130,1996-05-24 21:00:00,14,1011.3,-0.3,94,13,20000,22.224,,,220,,,,,,,,,,1,wg-a,,,,AAXX 24214 07130 02470 82212 10140 20130 30062 40113 55003 61000 70152 875// 92100 333 ////=
07130,1996-05-25 00:00:00,13,1011.4,0.1,94,12,25000,14.816,,,230,,,,,,,,,,3,wg-a,,,,AAXX 25004 07130 02375 82308 10130 20120 30063 40114 50001 61000 70352 875// 90000 333 ////=
07130,1996-05-25 03:00:00,13,1010.9,-0.5,94,12,11000,14.816,,,240,,,,,,,,,,,wg-a,,,,AAXX 25034 07130 32/61 /2408 10130 20120 30058 40109 55005 90300=
07130,1996-05-25 06:00:00,12,1011,-0,100,12,8000,11.112,,,260,12.3,14,,4,,,4,,,63,wg-a,,,,AAXX 25064 07130 02358 82606 10120 20120 30058 40110 55000 60044 76362 875// 90600 333 10140 20123 60047=
07130,1996-05-25 09:00:00,12,1011.8,0.8,94,11,10000,3.704,,,280,,,,5,,,,,,61,wg-a,,,,AAXX 25094 07130 12260 82802 10120 20110 30066 40118 50008 60057 76166 878// 90900=
07130,1996-05-25 12:00:00,14,1012,0.3,88,12,500,0,,,0,,,,0,,,,,,1,wg-a,,,,AAXX 25124 07130 02400 80000 10140 20120 30069 40120 51003 60056 70162 878// 91200 333 60007=
07130,1996-05-25 15:00:00,14,1012.1,0.1,94,13,15000,3.704,,,310,,,,1,,,,,,21,wg-a,,,,AAXX 25154 07130 12465 83102 10140 20130 30070 40121 50001 60017 72165 878// 91500=
07130,1996-05-25 18:00:00,14,1013.6,1.5,94,13,12000,3.704,,,50,11.2,14.5,,0,,,,,,20,wg-a,,,,AAXX 25184 07130 12262 80502 10140 20130 30085 40136 53015 60007 72065 885// 91800 333 10145 20112=
07130,1996-05-25 21:00:00,14,1015.8,2.1,94,13,12000,3.704,,,320,,,,,,,,,,,wg-a,,,,AAXX 25214 07130 12662 73202 10140 20130 30106 40158 53021 60006 875// 92100=
07130,1996-05-26 00:00:00,12,1016.9,1.1,94,11,500,3.704,,,270,,,,,,,,,,,wg-a,,,,AAXX 26004 07130 12400 72702 10120 20110 30117 40169 51011 60006 875// 90000=
07130,1996-05-26 03:00:00,12,1017.3,0.4,94,11,500,0,,,0,,,,,,,,,,,wg-a,,,,AAXX 26034 07130 12400 /0000 10120 20110 30121 40173 53004 60006 84501 90300=
07130,1996-05-26 06:00:00,12,1017.8,0.5,94,11,11000,11.112,,,210,11.1,14,,,,,6,,,,wg-a,,,,AAXX 26064 07130 02461 82106 10120 20110 30126 40178 52005 60006 8557/ 90600 333 10140 20111 60064=
07130,1996-05-26 09:00:00,13,1018.1,0.3,94,12,20000,14.816,,,240,,,,,,,,,,20,wg-a,,,,AAXX 26094 07130 02370 82408 10130 20120 30129 40181 51003 61000 72052 875// 90900 333 ////=
07130,1996-05-26 12:00:00,14,1017.9,-0.2,88,12,15000,22.224,,,220,,,,,,,,,,60,wg-a,,,,AAXX 26124 07130 02465 82212 10140 20120 30127 40179 58002 61000 76065 875// 91200 333 6100=
07130,1996-05-26 15:00:00,15,1016.6,-1.2,88,13,12000,22.224,,,220,,,,0,,,,,,21,wg-a,,,,AAXX 26154 07130 12362 82212 10150 20130 30115 40166 56012 60007 72162 875// 91500=
07130,1996-05-26 18:00:00,15,1015.8,-0.8,94,14,9000,18.52,,,240,12.3,15.1,,,,,,,,3,wg-a,,,,AAXX 26184 07130 02259 82410 10150 20140 30107 40158 56008 61000 70362 885// 91800 333 10151 20123 ////=
07130,1996-05-26 21:00:00,14,1015.5,-0.4,88,12,10000,14.816,,,240,,,,,,,,,,,wg-a,,,,AAXX 26214 07130 12460 72408 10140 20120 30103 40155 56004 60006 875// 92100=
07130,1996-05-27 00:00:00,13,1015.5,-0,82,10,15000,18.52,,,270,,,,,,,,,,,wg-a,,,,AAXX 27004 07130 12565 72710 10130 20100 30103 40155 55000 60006 875// 90000=
07130,1996-05-27 03:00:00,12,1014.9,-0.6,88,10,15000,22.224,,,250,,,,,,,,,,,wg-a,,,,AAXX 27034 07130 12565 72512 10120 20100 30097 40149 58006 60006 875// 90300=
07130,1996-05-27 06:00:00,12,1015.7,0.8,94,11,12000,18.52,,,270,11.4,14.6,,,,,,,,21,wg-a,,,,AAXX 27064 07130 02362 72710 10120 20110 30105 40157 53008 60004 72165 875// 90600 333 10146 20114 61000=
07130,1996-05-27 09:00:00,14,1017.1,1.4,82,11,11000,25.928,,,280,,,,,,,,,,,wg-a,,,,AAXX 27094 07130 32/61 /2814 10140 20110 30119 40171 53014 90900=
07130,1996-05-27 12:00:00,16,1018.7,1.7,72,11,500,29.632,,,310,,,,,,,,,,3,wg-a,,,,AAXX 27124 07130 02500 73116 10160 20110 30136 40187 52017 60006 70352 878// 91200 333 61000=
07130,1996-05-27 15:00:00,16,1020.1,1.4,72,11,40000,25.928,,,310,,,,,,,,,,,wg-a,,,,AAXX 27154 07130 12582 73114 10160 20110 30150 40201 53014 60006 878// 91500=
07130,1996-05-27 18:00:00,15,1022,1.8,72,10,40000,18.52,,,320,12.1,16.3,,,,,,,,,wg-a,,,,AAXX 27184 07130 32582 73210 10150 20100 30168 40220 53018 878// 91800 333 10163 20121=
07130,1996-05-27 21:00:00,13,1024,2,82,10,35000,7.408,,,330,,,,,,,,,,,wg-a,,,,AAXX 27214 07130 12581 /3304 10130 20100 30188 40240 53020 60006 86500 92100=
07130,1996-05-28 00:00:00,11,1025.7,1.6,94,10,500,3.704,,,310,,,,,,,,,,,wg-a,,,,AAXX 28004 07130 12500 23102 10110 20100 30204 40257 51016 60006 82500 90000=
07130,1996-05-28 03:00:00,9,1025.9,0.2,100,9,10000,3.704,,,230,,,,,,,,,,,wg-a,,,,AAXX 28034 07130 12360 82302 10090 20090 30206 40259 51002 60006 886// 90300=
07130,1996-05-28 06:00:00,11,1026.6,0.7,94,10,3500,3.704,,,170,8.6,14.9,,,,,,,,10,wg-a,,,,AAXX 28064 07130 02235 /1702 10110 20100 30213 40266 52007 60006 71011 876// 90600 333 10149 20086 60004=
07130,1996-05-28 09:00:00,14,1027.3,0.8,82,11,6000,7.408,,,150,,,,,,,,,,,wg-a,,,,AAXX 28094 07130 12456 81504 10140 20110 30221 40273 50008 60006 885// 90900=
07130,1996-05-28 12:00:00,17,1026.9,-0.4,68,11,20000,11.112,,,200,,,,,,,,,,,wg-a,,,,AAXX 28124 07130 12570 72006 10170 20110 30217 40269 56004 60006 878// 91200=
07130,1996-05-28 15:00:00,18,1025.7,-1.1,64,11,25000,14.816,,,220,,,,,,,,,,,wg-a,,,,AAXX 28154 07130 12675 /2208 10180 20110 30206 40257 56011 60006 85100 91500=
07130,1996-05-28 18:00:00,18,1024.3,-1.4,64,11,25000,11.112,,,240,10.6,18.9,,,,,,,,,wg-a,,,,AAXX 28184 07130 12675 /2406 10180 20110 30192 40243 56014 60006 81400 91800 333 10189 20106=
07130,1996-05-28 21:00:00,15,1025,0.6,72,10,10000,11.112,,,240,,,,,,,,,,,wg-a,,,,AAXX 28214 07130 12/60 /2406 10150 20100 30198 40250 53006 60006 92100=
07130,1996-05-29 00:00:00,12,1024.5,-0.5,88,10,25000,3.704,,,190,,,,,,,,,,,wg-a,,,,AAXX 29004 07130 12/75 51902 10120 20100 30193 40245 58005 60006 85030 90000=
07130,1996-05-29 03:00:00,10,1023.6,-1,93,9,20000,3.704,,,210,,,,,,,,,,,wg-a,,,,AAXX 29034 07130 12/70 22102 10100 20090 30183 40236 56010 60006 82040 90300=
07130,1996-05-29 06:00:00,11,1023.7,0.2,100,11,800,3.704,,,210,9.8,18.2,,,,,,,,10,wg-a,,,,AAXX 29064 07130 02108 82102 10110 20110 30185 40237 53002 60006 71041 886// 90600 333 10182 20098 60004=
07130,1996-05-29 09:00:00,15,1023.7,0,88,13,11000,11.112,,,240,,,,,,,,,,,wg-a,,,,AAXX 29094 07130 12/61 /2406 10150 20130 30185 40237 50000 60006 90900=
07130,1996-05-29 12:00:00,21,1023,-0.6,56,12,20000,7.408,,,210,,,,,,,,,,1,wg-a,,,,AAXX 29124 07130 12570 22104 10210 20120 30179 40230 57006 60006 70141 82100 91200=
07130,1996-05-29 15:00:00,23,1021.2,-1.7,53,13,20000,11.112,,,170,,,,,,,,,,,wg-a,,,,AAXX 29154 07130 12670 21706 10230 20130 30162 40212 58017 60006 82100 91500=
07130,1996-05-29 18:00:00,23,1020.3,-0.9,53,13,500,3.704,,,270,11.4,23.2,,,,,,,,,wg-a,,,,AAXX 29184 07130 12600 /2702 10230 20130 30153 40203 56009 60006 8110/ 91800 333 10232 20114=
07130,1996-05-29 21:00:00,19,1020.1,-0.3,68,13,25000,0,,,0,,,,,,,,,,,wg-a,,,,AAXX 29214 07130 12/75 20000 10190 20130 30150 40201 58003 60006 80002 92100=
07130,1996-05-30 00:00:00,15,1018.8,-1.3,88,13,10000,3.704,,,160,,,,,,,,,,,wg-a,,,,AAXX 30004 07130 12/60 21602 10150 20130 30137 40188 58013 60006 80002 90000=
07130,1996-05-30 03:00:00,13,1017.1,-1.8,94,12,500,3.704,,,360,,,,,,,,,,,wg-a,,,,AAXX 30034 07130 12/00 43602 10130 20120 30119 40171 56018 60006 80002 90300=
07130,1996-05-30 06:00:00,15,1016.2,-0.8,88,13,9000,11.112,,,110,12.8,23.2,,,,,,,,28,wg-a,,,,AAXX 30064 07130 02/59 /1106 10150 20130 30111 40162 58008 60006 72841 80002 90600 333 10232 20128 60004=
07130,1996-05-30 09:00:00,23,1015.1,-1,53,13,20000,18.52,,,160,,,,,,,,,,,wg-a,,,,AAXX 30094 07130 12/70 61610 10230 20130 30101 40151 58010 60006 80002 90900=
07130,1996-05-30 12:00:00,26,1013.5,-1.5,48,14,25000,25.928,,,170,,,,,,,,,,,wg-a,,,,AAXX 30124 07130 12/75 51714 10260 20140 30086 40135 57015 60006 80002 91200=
07130,1996-05-30 15:00:00,28,1011.9,-1.6,42,14,10000,25.928,,,180,,,,,,,,,,,wg-a,,,,AAXX 30154 07130 12/60 /1814 10280 20140 30070 40119 56016 60006 91500=
07130,1996-05-30 18:00:00,25,1011.5,-0.4,47,13,40000,22.224,,,220,14.9,29,,,,,,,,,wg-a,,,,AAXX 30184 07130 12/82 72212 10250 20130 30066 40115 55004 60006 83032 91800 333 10290 20149=
07130,1996-05-30 21:00:00,18,1014.2,2.5,83,15,500,22.224,,,240,,,,,,,,,,,wg-a,,,,AAXX 30214 07130 12/00 62412 10180 20150 30091 40142 53025 60006 83032 92100=
07130,1996-05-31 00:00:00,15,1017,2.8,82,12,500,14.816,,,260,,,,,,,,,,,wg-a,,,,AAXX 31004 07130 12500 82608 10150 20120 30119 40170 51028 60006 875// 90000=
07130,1996-05-31 03:00:00,14,1018.6,1.5,88,12,15000,7.408,,,240,,,,,,,,,,,wg-a,,,,AAXX 31034 07130 12565 72404 10140 20120 30134 40186 53015 60006 875// 90300=
07130,1996-05-31 06:00:00,14,1021,2.4,82,11,18000,11.112,,,250,13.1,25.1,,,,,,,,,wg-a,,,,AAXX 31064 07130 02568 72506 10140 20110 30158 40210 51024 60006 86802 90600 333 10251 20131 60004=
07130,1996-05-31 09:00:00,16,1022.9,1.9,68,10,25000,11.112,,,270,,,,,,,,,,,wg-a,,,,AAXX 31094 07130 12575 72706 10160 20100 30177 40229 52019 60006 8583/ 90900=
07130,1996-05-31 12:00:00,18,1023.3,0.5,59,10,35000,7.408,,,240,,,,,,,,,,,wg-a,,,,AAXX 31124 07130 12581 82404 10180 20100 30182 40233 51005 60006 85107 91200=
07130,1996-05-31 15:00:00,19,1022.8,-0.5,52,9,11000,11.112,,,240,,,,,,,,,,,wg-a,,,,AAXX 31154 07130 12/61 /2406 10190 20090 30177 40228 56005 60006 91500=
07130,1996-05-31 18:00:00,17,1022.2,-0.6,63,10,25000,18.52,,,230,13.8,18.8,,,,,,,,,wg-a,,,,AAXX 31184 07130 12675 72310 10170 20100 30171 40222 56006 60006 82102 91800 333 10188 20138=
07130,1996-05-31 21:00:00,14,1023.7,1.4,77,10,25000,11.112,,,260,,,,,,,,,,,wg-a,,,,AAXX 31214 07130 12675 42606 10140 20100 30185 40237 53014 60006 84500 92100=
07130,1996-06-01 00:00:00,10,1024.2,0.4,87,8,20000,11.112,,,280,,,,,,,,,,,wg-a,,,,AAXX 01004 07130 12/70 02806 10100 20080 30189 40242 51004 60006 80000 90000=
07130,1996-06-01 03:00:00,9,1023.5,-0.7,93,8,20000,7.408,,,200,,,,,,,,,,,wg-a,,,,AAXX 01034 07130 12/70 02004 10090 20080 30182 40235 56007 60006 80000 90300=
07130,1996-06-01 06:00:00,11,1024.3,0.8,87,9,15000,7.408,,,210,8.8,17,,,,,,,,,wg-a,,,,AAXX 01064 07130 02665 32104 10110 20090 30190 40243 53008 60006 81542 90600 333 10170 20088 60004=
07130,1996-06-01 09:00:00,13,1024.2,-0,82,10,15000,14.816,,,260,,,,0,,,,,,80,wg-a,,,,AAXX 01094 07130 12565 72608 10130 20100 30190 40242 55000 60007 78086 86202 90900=
07130,1996-06-01 12:00:00,17,1023.2,-0.9,48,6,500,14.816,,,250,,,,,,,,,,1,wg-a,,,,AAXX 01124 07130 02500 52508 10170 20060 30181 40232 57009 60006 70186 85800 91200 333 61000=
07130,1996-06-01 15:00:00,18,1022.6,-0.6,52,8,35000,18.52,,,230,,,,,,,,,,,wg-a,,,,AAXX 01154 07130 12681 62310 10180 20080 30175 40226 56006 60006 86800 91500=
07130,1996-06-01 18:00:00,16,1021.9,-0.8,59,8,500,11.112,,,260,10.6,18.6,,,,,,,,15,wg-a,,,,AAXX 01184 07130 32600 /2606 10160 20080 30167 40219 56008 71522 86801 91800 333 10186 20106=
07130,1996-06-01 21:00:00,12,1022,0.1,76,8,500,3.704,,,240,,,,,,,,,,,wg-a,,,,AAXX 01214 07130 12600 32402 10120 20080 30168 40220 53001 60006 82501 92100=
07130,1996-06-02 00:00:00,10,1020.6,-1.5,82,7,500,0,,,0,,,,,,,,,,,wg-a,,,,AAXX 02004 07130 12700 30000 10100 20070 30153 40206 56015 60006 83501 90000=
07130,1996-06-02 03:00:00,9,1019.1,-1.5,93,8,500,3.704,,,310,,,,,,,,,,,wg-a,,,,AAXX 02034 07130 12600 73102 10090 20080 30138 40191 56015 60006 878// 90300=
07130,1996-06-02 06:00:00,11,1018.7,-0.3,94,10,15000,11.112,,,360,9,15.6,,,,,,,,,wg-a,,,,AAXX 02064 07130 02365 73606 10110 20100 30135 40187 58003 60006 878// 90600 333 10156 20090 60004=
07130,1996-06-02 09:00:00,14,1018.6,-0.1,67,8,20000,14.816,,,360,,,,,,,,,,25,wg-a,,,,AAXX 02094 07130 02570 73608 10140 20080 30134 40186 58001 61000 72522 84202 90900 333 ////=
07130,1996-06-02 12:00:00,16,1018.3,-0.2,59,8,25000,18.52,,,360,,,,,,,,,,,wg-a,,,,AAXX 02124 07130 12675 73610 10160 20080 30132 40183 57002 60006 84242 91200=
07130,1996-06-02 15:00:00,16,1018.1,-0.2,59,8,500,25.928,,,10,,,,,,,,,,,wg-a,,,,AAXX 02154 07130 12600 70114 10160 20080 30130 40181 55002 60006 8624/ 91500=
07130,1996-06-02 18:00:00,15,1019,0.9,63,8,11000,18.52,,,20,10.9,17.3,,,,,,,,,wg-a,,,,AAXX 02184 07130 12/61 /0210 10150 20080 30139 40190 53009 60006 91800 333 10173 20109=
07130,1996-06-02 21:00:00,12,1021.3,2.2,82,9,40000,14.816,,,350,,,,,,,,,,,wg-a,,,,AAXX 02214 07130 12782 33508 10120 20090 30161 40213 53022 60006 83500 92100=
07130,1996-06-03 00:00:00,10,1021.8,0.4,87,8,500,7.408,,,310,,,,,,,,,,,wg-a,,,,AAXX 03004 07130 12500 /3104 10100 20080 30165 40218 50004 60006 86500 90000=
07130,1996-06-03 03:00:00,7,1022,0.2,93,6,3000,3.704,,,310,,,,,,,,,,,wg-a,,,,AAXX 03034 07130 12/30 /3102 10070 20060 30167 40220 53002 60006 90300=
07130,1996-06-03 06:00:00,8,1023.4,1.4,93,7,4000,3.704,,,260,5.6,15.4,,,,,,,,10,wg-a,,,,AAXX 03064 07130 02/40 /2602 10080 20070 30181 40234 53014 60006 71041 80000 90600 333 10154 20056 60004=
07130,1996-06-03 12:00:00,19,1023.4,-0.4,43,6,40000,7.408,,,270,,,,,,,,,,,wg-a,,,,AAXX 03124 07130 12682 22704 10190 20060 30183 40234 58004 60006 81151 91200=
07130,1996-06-03 15:00:00,21,1022.7,-0.7,35,5,40000,11.112,,,250,,,,,,,,,,,wg-a,,,,AAXX 03154 07130 12682 /2506 10210 20050 30176 40227 56007 60006 81100 91500=
07130,1996-06-03 21:00:00,16,1025.1,1.6,63,9,40000,11.112,,,230,,,,,,,,,,,wg-a,,,,AAXX 03214 07130 12882 72306 10160 20090 30199 40251 53016 60006 8455/ 92100=
07130,1996-06-04 00:00:00,14,1025.6,0.5,77,10,40000,7.408,,,240,,,,,,,,,,,wg-a,,,,AAXX 04004 07130 12882 72404 10140 20100 30204 40256 51005 60006 8253/ 90000=
07130,1996-06-04 03:00:00,13,1026,0.4,88,11,25000,3.704,,,240,,,,,,,,,,,wg-a,,,,AAXX 04034 07130 12775 72402 10130 20110 30208 40260 53004 60006 8553/ 90300=
07130,1996-06-04 06:00:00,14,1027.2,1.2,88,12,20000,3.704,,,180,13,19.5,,,,,,,,,wg-a,,,,AAXX 04064 07130 02770 71802 10140 20120 30220 40272 53012 60006 875// 90600 333 10195 20130 60004=
07130,1996-06-04 09:00:00,18,1027.7,0.6,64,11,15000,3.704,,,10,,,,,,,,,,,wg-a,,,,AAXX 04094 07130 12565 20102 10180 20110 30226 40277 51006 60006 82800 90900=
07130,1996-06-04 12:00:00,22,1027.1,-0.6,46,10,20000,7.408,,,150,,,,,,,,,,,wg-a,,,,AAXX 04124 07130 12670 /1504 10220 20100 30220 40271 58006 60006 81100 91200=
07130,1996-06-04 15:00:00,24,1025.9,-1.1,47,12,25000,3.704,,,170,,,,,,,,,,,wg-a,,,,AAXX 04154 07130 12675 /1702 10240 20120 30209 40259 57011 60006 81100 91500=
07130,1996-06-04 18:00:00,24,1025.6,-0.3,36,8,35000,3.704,,,200,13.7,24.1,,,,,,,,,wg-a,,,,AAXX 04184 07130 12881 12002 10240 20080 30206 40256 56003 60006 81500 91800 333 10241 20137=
07130,1996-06-04 21:00:00,20,1025.7,-0,49,9,40000,7.408,,,90,,,,,,,,,,,wg-a,,,,AAXX 04214 07130 12/82 00904 10200 20090 30206 40257 55000 60006 80000 92100=
07130,1996-06-05 00:00:00,15,1025.1,-0.7,77,11,40000,0,,,0,,,,,,,,,,,wg-a,,,,AAXX 05004 07130 12/82 00000 10150 20110 30199 40251 58007 60006 80000 90000=
07130,1996-06-05 03:00:00,13,1024.2,-0.9,88,11,40000,0,,,0,,,,,,,,,,,wg-a,,,,AAXX 05034 07130 12/82 00000 10130 20110 30190 40242 56009 60006 80000 90300=
07130,1996-06-05 06:00:00,16,1024.3,0.1,72,11,20000,7.408,,,100,12.8,23.9,,,,,,,,,wg-a,,,,AAXX 05064 07130 02/70 11004 10160 20110 30191 40243 53001 60006 81030 90600 333 10239 20128 60004=
07130,1996-06-05 09:00:00,23,1023.5,-0.6,53,13,15000,11.112,,,160,,,,,,,,,,,wg-a,,,,AAXX 05094 07130 12/65 11606 10230 20130 30185 40235 58006 60006 80002 90900=
07130,1996-06-05 12:00:00,27,1022.1,-1.4,42,13,15000,11.112,,,130,,,,,,,,,,,wg-a,,,,AAXX 05124 07130 12/65 11306 10270 20130 30171 40221 58014 60006 80002 91200=
07130,1996-06-05 15:00:00,28,1020.5,-1.5,42,14,20000,11.112,,,120,,,,,,,,,,,wg-a,,,,AAXX 05154 07130 12/70 11206 10280 20140 30156 40205 57015 60006 80001 91500=
07130,1996-06-05 18:00:00,28,1019.6,-0.9,40,13,20000,11.112,,,120,15.6,28.6,,,,,,,,,wg-a,,,,AAXX 05184 07130 12/70 21206 10280 20130 30147 40196 56009 60006 80001 91800 333 10286 20156=
07130,1996-06-05 21:00:00,24,1019.5,-0.2,54,14,20000,11.112,,,90,,,,,,,,,,,wg-a,,,,AAXX 05214 07130 12/70 20906 10240 20140 30145 40195 55002 60006 80001 92100=
07130,1996-06-06 00:00:00,19,1018.8,-0.8,73,14,20000,0,,,0,,,,,,,,,,,wg-a,,,,AAXX 06004 07130 12/70 00000 10190 20140 30137 40188 58008 60006 80000 90000=
07130,1996-06-06 03:00:00,17,1018,-0.8,82,14,15000,3.704,,,110,,,,,,,,,,,wg-a,,,,AAXX 06034 07130 12/65 51102 10170 20140 30129 40180 57008 60006 80002 90300=
07130,1996-06-06 06:00:00,19,1017.9,-0.1,73,14,12000,11.112,,,110,16.4,27.7,,,,,,,,,wg-a,,,,AAXX 06064 07130 02/62 31106 10190 20140 30128 40179 56001 60006 80002 90600 333 10277 20164 60004=
07130,1996-06-06 09:00:00,26,1017.5,-0.2,61,18,17000,7.408,,,160,,,,,,,,,,,wg-a,,,,AAXX 06094 07130 12/67 41604 10260 20180 30126 40175 57002 60006 80002 90900=
07130,1996-06-06 12:00:00,31,1016.6,-0.9,43,17,20000,7.408,,,160,,,,,,,,,,,wg-a,,,,AAXX 06124 07130 12/70 41604 10310 20170 30117 40166 58009 60006 80002 91200=
07130,1996-06-06 15:00:00,32,1015.8,-0.7,36,15,500,7.408,,,160,,,,,,,,,,,wg-a,,,,AAXX 06154 07130 12700 11604 10320 20150 30110 40158 57007 60006 81101 91500=
07130,1996-06-06 18:00:00,30,1015.4,-0.5,40,15,10000,7.408,,,160,18.5,32.2,,,,,,,,,wg-a,,,,AAXX 06184 07130 12/60 /1604 10300 20150 30105 40154 55005 60006 91800 333 10322 20185=
07130,1996-06-06 21:00:00,24,1016.2,0.7,61,16,20000,7.408,,,160,,,,,,,,,,,wg-a,,,,AAXX 06214 07130 12/70 01604 10240 20160 30112 40162 53007 60006 80000 92100=
07130,1996-06-07 00:00:00,20,1016.1,-0.1,73,15,20000,7.408,,,160,,,,,,,,,,,wg-a,,,,AAXX 07004 07130 12/70 01604 10200 20150 30111 40161 58001 60006 80000 90000=
07130,1996-06-07 03:00:00,17,1015.6,-0.6,88,15,10000,7.408,,,160,,,,,,,,,,,wg-a,,,,AAXX 07034 07130 12/60 /1604 10170 20150 30105 40156 56006 60006 90300=
07130,1996-06-07 06:00:00,19,1015.1,-0.4,83,16,8000,7.408,,,160,16.4,30,,,,,,,,,wg-a,,,,AAXX 07064 07130 02/58 01604 10190 20160 30101 40151 56004 60006 80000 90600 333 10300 20164 60004=
07130,1996-06-07 09:00:00,27,1014.9,-0.1,54,17,0,0,,,0,,,,,,,,,,,wg-a,,,,AAXX 07094 07130 12/// ///// 10270 20170 30100 40149 58001 60006 90900=
07130,1996-06-07 12:00:00,31,1013.9,-0.9,46,18,10000,18.52,,,190,,,,,,,,,,,wg-a,,,,AAXX 07124 07130 12/60 /1910 10310 20180 30091 40139 58009 60006 91200=
07130,1996-06-07 15:00:00,32,1012.4,-1.5,38,16,10000,29.632,,,190,,,,,,,,,,,wg-a,,,,AAXX 07154 07130 12/60 /1916 10320 20160 30076 40124 56015 60006 91500=
07130,1996-06-07 18:00:00,26,1012.4,-0.1,58,17,20000,14.816,,,230,19.4,32,,,,,,,,,wg-a,,,,AAXX 07184 07130 12/70 12308 10260 20170 30075 40124 55001 60006 80002 91800 333 10320 20194=
07130,1996-06-07 21:00:00,18,1014.4,1.8,88,16,6000,14.816,,,240,,,,,,,,,,,wg-a,,,,AAXX 07214 07130 12456 72408 10180 20160 30093 40144 53018 60006 85582 92100=
07130,1996-06-08 00:00:00,17,1016.4,2,94,16,6000,18.52,,,250,,,,,,,,,,2,wg-a,,,,AAXX 08004 07130 12456 72510 10170 20160 30113 40164 53020 60006 70291 879// 90000=
07130,1996-06-08 03:00:00,17,1016.8,0.4,88,15,6000,7.408,,,340,,,,,,,,,,,wg-a,,,,AAXX 08034 07130 12356 83404 10170 20150 30117 40168 53004 60006 886// 90300=
07130,1996-06-08 06:00:00,13,1018.9,2,88,11,10000,14.816,,,330,13.3,26.1,,1,,,1,,,61,wg-a,,,,AAXX 08064 07130 02360 73308 10130 20110 30137 40189 51020 60014 76162 875// 90600 333 10261 20133 60017=
07130,1996-06-08 09:00:00,13,1021.5,2.6,94,12,9000,14.816,,,330,,,,2,,,,,,61,wg-a,,,,AAXX 08094 07130 12459 83308 10130 20120 30163 40215 51026 60027 76162 8687/ 90900=
07130,1996-06-08 12:00:00,13,1022.4,0.9,88,11,9000,14.816,,,360,,,,,,,,,,,wg-a,,,,AAXX 08124 07130 12/59 /3608 10130 20110 30172 40224 51009 60046 91200=
07130,1996-06-08 15:00:00,13,1023.7,1.3,77,9,35000,14.816,,,350,,,,,,,,,,60,wg-a,,,,AAXX 08154 07130 02481 83508 10130 20090 30185 40237 51013 61000 76062 84842 91500 333 ////=
07130,1996-06-08 18:00:00,14,1023.5,-0.2,82,11,35000,3.704,,,350,12.1,14.2,,,,,,,,1,wg-a,,,,AAXX 08184 07130 02581 /3502 10140 20110 30183 40235 57002 61000 70162 81130 91800 333 10142 20121 ////=
07130,1996-06-08 21:00:00,13,1023.9,0.4,88,11,500,3.704,,,140,,,,,,,,,,,wg-a,,,,AAXX 08214 07130 12/00 11402 10130 20110 30187 40239 53004 60006 81030 92100=
07130,1996-06-09 00:00:00,11,1024.2,0.2,94,10,20000,0,,,0,,,,,,,,,,,wg-a,,,,AAXX 09004 07130 12/70 00000 10110 20100 30189 40242 53002 60006 80000 90000=
07130,1996-06-09 03:00:00,9,1023.1,-1.1,100,9,1500,0,,,0,,,,,,,,,,10,wg-a,,,,AAXX 09034 07130 32/15 00000 10090 20090 30178 40231 56011 71000 80000 90300=
07130,1996-06-09 06:00:00,10,1023,-0.1,100,10,200,3.704,,,80,8.4,14.9,,,,,4,,,41,wg-a,,,,AAXX 09064 07130 12002 20802 10100 20100 30177 40230 57001 60044 74140 82600 90600 333 10149 20084=
07130,1996-06-09 09:00:00,17,1022.8,0,63,10,500,7.408,,,200,,,,,,,,,,1,wg-a,,,,AAXX 09094 07130 12/00 42004 10170 20100 30177 40228 50000 60006 70140 80002 90900=
07130,1996-06-09 12:00:00,21,1022,-0.8,56,12,35000,11.112,,,210,,,,,,,,,,2,wg-a,,,,AAXX 09124 07130 12/81 32106 10210 20120 30169 40220 57008 60006 70240 81042 91200=
07130,1996-06-09 15:00:00,23,1020.6,-1.3,53,13,40000,11.112,,,240,,,,,,,,,,,wg-a,,,,AAXX 09154 07130 12682 22406 10230 20130 30156 40206 57013 60006 82100 91500=
07130,1996-06-09 18:00:00,23,1019.9,-0.7,53,13,40000,11.112,,,230,10,24.2,,,,,,,,,wg-a,,,,AAXX 09184 07130 12682 /2306 10230 20130 30149 40199 56007 60006 81100 91800 333 10242 20100=
07130,1996-06-09 21:00:00,20,1020.5,0.5,68,14,500,3.704,,,260,,,,,,,,,,,wg-a,,,,AAXX 09214 07130 12/00 02602 10200 20140 30154 40205 53005 60006 80000 92100=
07130,1996-06-10 00:00:00,18,1020.3,-0.2,77,14,2000,3.704,,,280,,,,,,,,,,,wg-a,,,,AAXX 10004 07130 12620 72802 10180 20140 30152 40203 58002 60006 875// 90000=
07130,1996-06-10 03:00:00,16,1020.3,-0,72,11,20000,3.704,,,290,,,,,,,,,,,wg-a,,,,AAXX 10034 07130 12670 72902 10160 20110 30152 40203 54000 60006 875// 90300=
07130,1996-06-10 06:00:00,16,1021.1,0.8,68,10,500,3.704,,,310,15.3,23.3,,,,,,,,,wg-a,,,,AAXX 10064 07130 02600 63102 10160 20100 30160 40211 52008 60006 84801 90600 333 10233 20153 60004=
07130,1996-06-10 09:00:00,19,1021.6,0.5,64,12,35000,7.408,,,320,,,,,,,,,,,wg-a,,,,AAXX 10094 07130 12581 /3204 10190 20120 30165 40216 51005 60006 82502 90900=
07130,1996-06-10 12:00:00,22,1021.4,-0.1,57,13,35000,7.408,,,360,,,,,,,,,,,wg-a,,,,AAXX 10124 07130 12681 53604 10220 20130 30164 40214 58001 60006 82102 91200=
07130,1996-06-10 15:00:00,24,1021.2,-0.2,57,15,11000,11.112,,,290,,,,,,,,,,,wg-a,,,,AAXX 10154 07130 12/61 /2906 10240 20150 30162 40212 56002 60006 91500=
07130,1996-06-10 18:00:00,22,1021.3,0.1,65,15,40000,11.112,,,310,16,24.5,,,,,,,,,wg-a,,,,AAXX 10184 07130 12682 73106 10220 20150 30163 40213 53001 60006 81102 91800 333 10245 20160=
07130,1996-06-10 21:00:00,18,1023.2,1.8,83,15,40000,7.408,,,290,,,,,,,,,,,wg-a,,,,AAXX 10214 07130 12/82 02904 10180 20150 30181 40232 53018 60006 80000 92100=
07130,1996-06-11 00:00:00,15,1023.4,0.1,94,14,500,3.704,,,290,,,,,,,,,,,wg-a,,,,AAXX 11004 07130 12/00 02902 10150 20140 30182 40234 50001 60006 80000 90000=
07130,1996-06-11 03:00:00,13,1023.8,0.4,100,13,10000,3.704,,,280,,,,,,,,,,,wg-a,,,,AAXX 11034 07130 12/60 /2802 10130 20130 30186 40238 53004 60006 90300=
07130,1996-06-11 06:00:00,14,1024.2,0.4,94,13,7000,3.704,,,290,12.9,22.2,,,,,,,,,wg-a,,,,AAXX 11064 07130 02/57 02902 10140 20130 30190 40242 53004 60006 80000 90600 333 10222 20129 60004=
07130,1996-06-11 09:00:00,20,1024.5,0.4,78,16,15000,11.112,,,210,,,,,,,,,,,wg-a,,,,AAXX 11094 07130 12565 /2106 10200 20160 30194 40245 51004 60006 81100 90900=
07130,1996-06-11 12:00:00,24,1024.3,-0.1,57,15,25000,18.52,,,220,,,,,,,,,,,wg-a,,,,AAXX 11124 07130 12675 22210 10240 20150 30193 40243 58001 60006 82100 91200=
07130,1996-06-11 15:00:00,25,1023.8,-0.5,54,15,500,18.52,,,240,,,,,,,,,,,wg-a,,,,AAXX 11154 07130 12700 12410 10250 20150 30188 40238 56005 60006 81100 91500=
07130,1996-06-11 18:00:00,23,1024.2,0.4,57,14,500,14.816,,,250,14.3,25.2,,,,,,,,,wg-a,,,,AAXX 11184 07130 12/00 02508 10230 20140 30192 40242 53004 60006 80000 91800 333 10252 20143=
07130,1996-06-11 21:00:00,18,1026,1.7,77,14,500,14.816,,,280,,,,,,,,,,,wg-a,,,,AAXX 11214 07130 12500 22808 10180 20140 30209 40260 53017 60006 82500 92100=
07130,1996-06-12 00:00:00,18,1026.9,0.9,83,15,500,11.112,,,250,,,,,,,,,,,wg-a,,,,AAXX 12004 07130 12500 72506 10180 20150 30218 40269 51009 60006 875// 90000=
07130,1996-06-12 03:00:00,17,1027.2,0.3,88,15,15000,7.408,,,260,,,,,,,,,,50,wg-a,,,,AAXX 12034 07130 02465 82604 10170 20150 30221 40272 53003 61000 75052 875// 90300 333 ////=
07130,1996-06-12 06:00:00,16,1029.2,1.9,82,13,17000,11.112,,,360,15.4,22.8,,,,,,,,1,wg-a,,,,AAXX 12064 07130 02567 /3606 10160 20130 30240 40292 53019 61000 70152 86800 90600 333 10228 20154 6100=
07130,1996-06-12 09:00:00,18,1030.4,1.3,68,12,25000,18.52,,,350,,,,,,,,,,,wg-a,,,,AAXX 12094 07130 12575 53510 10180 20120 30253 40304 51013 60006 85800 90900=
07130,1996-06-12 12:00:00,18,1031.7,1.2,68,12,500,14.816,,,20,,,,,,,,,,,wg-a,,,,AAXX 12124 07130 12500 70208 10180 20120 30265 40317 51012 60006 878// 91200=
07130,1996-06-12 15:00:00,21,1031.2,-0.4,53,11,35000,14.816,,,360,,,,,,,,,,,wg-a,,,,AAXX 12154 07130 12681 23608 10210 20110 30261 40312 58004 60006 82100 91500=
07130,1996-06-12 18:00:00,19,1031.4,0.2,56,10,45000,18.52,,,360,15.9,21.1,,,,,,,,,wg-a,,,,AAXX 12184 07130 12/83 03610 10190 20100 30263 40314 53002 60006 80000 91800 333 10211 20159=
07130,1996-06-12 21:00:00,15,1032.8,1.3,63,8,45000,14.816,,,10,,,,,,,,,,,wg-a,,,,AAXX 12214 07130 12/83 10108 10150 20080 30276 40328 53013 60006 80001 92100=
07130,1996-06-13 00:00:00,13,1033.8,0.9,82,10,500,14.816,,,40,,,,,,,,,,,wg-a,,,,AAXX 13004 07130 12/00 00408 10130 20100 30285 40338 51009 60006 80000 90000=
07130,1996-06-13 03:00:00,11,1033.2,-0.6,82,8,45000,11.112,,,20,,,,,,,,,,,wg-a,,,,AAXX 13034 07130 12/83 00206 10110 20080 30279 40332 58006 60006 80000 90300=
07130,1996-06-13 06:00:00,13,1033.5,0.3,77,9,45000,7.408,,,40,9.8,19,,,,,,,,,wg-a,,,,AAXX 13064 07130 02/83 00404 10130 20090 30282 40335 53003 60006 80000 90600 333 10190 20098 60004=
07130,1996-06-13 09:00:00,20,1033.3,0,53,10,20000,14.816,,,90,,,,,,,,,,,wg-a,,,,AAXX 13094 07130 12670 /0908 10200 20100 30282 40333 50000 60006 81100 90900=
07130,1996-06-13 12:00:00,23,1032.6,-0.7,41,9,10000,18.52,,,60,,,,,,,,,,,wg-a,,,,AAXX 13124 07130 12/60 /0610 10230 20090 30275 40326 58007 60006 91200=
07130,1996-06-13 15:00:00,24,1030.5,-2,38,9,25000,22.224,,,60,,,,,,,,,,,wg-a,,,,AAXX 13154 07130 12/75 00612 10240 20090 30255 40305 57020 60006 80000 91500=
07130,1996-06-13 18:00:00,24,1029.7,-0.9,38,9,25000,22.224,,,60,12.6,24.9,,,,,,,,,wg-a,,,,AAXX 13184 07130 12/75 00612 10240 20090 30246 40297 56009 60006 80000 91800 333 10249 20126=
07130,1996-06-13 21:00:00,19,1030.9,1.2,56,10,15000,22.224,,,60,,,,,,,,,,,wg-a,,,,AAXX 13214 07130 12/65 00612 10190 20100 30258 40309 53012 60006 80000 92100=
07130,1996-06-14 00:00:00,15,1030.8,-0.2,67,9,15000,14.816,,,70,,,,,,,,,,,wg-a,,,,AAXX 14004 07130 12/65 00708 10150 20090 30256 40308 58002 60006 80000 90000=
07130,1996-06-14 03:00:00,13,1030.4,-0.4,72,8,15000,11.112,,,50,,,,,,,,,,,wg-a,,,,AAXX 14034 07130 12/65 00506 10130 20080 30252 40304 58004 60006 80000 90300=
07130,1996-06-14 06:00:00,14,1030.3,-0.1,63,7,18000,14.816,,,80,12.4,23.5,,,,,,,,,wg-a,,,,AAXX 14064 07130 02/68 10808 10140 20070 30251 40303 57001 60006 80001 90600 333 10235 20124 60004=
07130,1996-06-14 09:00:00,19,1029.8,-0.4,49,8,500,18.52,,,70,,,,,,,,,,,wg-a,,,,AAXX 14094 07130 12/00 30710 10190 20080 30247 40298 58004 60006 80001 90900=
07130,1996-06-14 12:00:00,23,1028.4,-1.4,38,8,35000,22.224,,,60,,,,,,,,,,,wg-a,,,,AAXX 14124 07130 12/81 20612 10230 20080 30233 40284 58014 60006 80001 91200=
07130,1996-06-14 15:00:00,25,1026.8,-1.5,36,9,40000,22.224,,,70,,,,,,,,,,,wg-a,,,,AAXX 14154 07130 12/82 10712 10250 20090 30218 40268 58015 60006 80001 91500=
07130,1996-06-14 18:00:00,24,1025.8,-1,38,9,40000,22.224,,,80,14.2,25.8,,,,,,,,,wg-a,,,,AAXX 14184 07130 12/82 10812 10240 20090 30208 40258 56010 60006 80001 91800 333 10258 20142=
07130,1996-06-14 21:00:00,19,1026.7,0.8,64,12,10000,22.224,,,50,,,,,,,,,,,wg-a,,,,AAXX 14214 07130 12/60 /0512 10190 20120 30216 40267 53008 60006 92100=
07130,1996-06-15 00:00:00,16,1027,0.2,72,11,500,14.816,,,70,,,,,,,,,,,wg-a,,,,AAXX 15004 07130 12/00 00708 10160 20110 30218 40270 50002 60006 80000 90000=
07130,1996-06-15 03:00:00,14,1026,-1,77,10,500,11.112,,,60,,,,,,,,,,,wg-a,,,,AAXX 15034 07130 12/00 00606 10140 20100 30208 40260 58010 60006 80000 90300=
07130,1996-06-15 06:00:00,15,1025.8,-0.2,67,9,15000,11.112,,,70,12.8,24.5,,,,,,,,,wg-a,,,,AAXX 15064 07130 02/65 30706 10150 20090 30206 40258 55002 60006 80001 90600 333 10245 20128 60004=
07130,1996-06-15 09:00:00,21,1025.4,-0.3,49,10,18000,14.816,,,100,,,,,,,,,,,wg-a,,,,AAXX 15094 07130 12/68 51008 10210 20100 30203 40254 58003 60006 80001 90900=
07130,1996-06-15 12:00:00,25,1024,-1.3,39,10,25000,25.928,,,80,,,,,,,,,,,wg-a,,,,AAXX 15124 07130 12/75 50814 10250 20100 30190 40240 58013 60006 80001 91200=
07130,1996-06-15 15:00:00,27,1022.9,-1.1,30,8,35000,22.224,,,100,,,,,,,,,,,wg-a,,,,AAXX 15154 07130 12/81 41012 10270 20080 30179 40229 58011 60006 80001 91500=
07130,1996-06-15 18:00:00,27,1022.1,-0.8,32,9,40000,18.52,,,100,15,27.9,,,,,,,,,wg-a,,,,AAXX 15184 07130 12/82 31010 10270 20090 30171 40221 56008 60006 80001 91800 333 10279 20150=
07130,1996-06-15 21:00:00,22,1022.9,0.7,46,10,35000,18.52,,,60,,,,,,,,,,,wg-a,,,,AAXX 15214 07130 12/81 30610 10220 20100 30178 40229 53007 60006 80001 92100=
07130,1996-06-16 00:00:00,18,1023.3,0.4,64,11,500,14.816,,,70,,,,,,,,,,,wg-a,,,,AAXX 16004 07130 12/00 10708 10180 20110 30182 40233 50004 60006 80001 90000=
07130,1996-06-16 03:00:00,15,1022.7,-0.7,72,10,25000,7.408,,,70,,,,,,,,,,,wg-a,,,,AAXX 16034 07130 12/75 10704 10150 20100 30175 40227 58007 60006 80001 90300=
07130,1996-06-16 06:00:00,17,1022.6,-0,55,8,25000,3.704,,,60,14.2,26.6,,,,,,,,,wg-a,,,,AAXX 16064 07130 02/75 10602 10170 20080 30175 40226 55000 60006 80001 90600 333 10266 20142 60004=
07130,1996-06-16 09:00:00,23,1022.5,0,41,9,25000,14.816,,,90,,,,,,,,,,,wg-a,,,,AAXX 16094 07130 12/75 10908 10230 20090 30175 40225 50000 60006 80001 90900=
07130,1996-06-16 12:00:00,28,1021.9,-0.6,28,8,25000,22.224,,,90,,,,,,,,,,,wg-a,,,,AAXX 16124 07130 12/75 10912 10280 20080 30169 40219 58006 60006 80001 91200=
07130,1996-06-16 15:00:00,29,1020.5,-1.3,22,5,500,18.52,,,100,,,,,,,,,,,wg-a,,,,AAXX 16154 07130 12/00 11010 10290 20050 30156 40205 58013 60006 80001 91500=
07130,1996-06-16 18:00:00,28,1019.6,-0.9,27,7,50000,14.816,,,100,16.5,29.5,,,,,,,,,wg-a,,,,AAXX 16184 07130 12/84 11008 10280 20070 30147 40196 56009 60006 80001 91800 333 10295 20165=
07130,1996-06-16 21:00:00,23,1020.3,0.6,44,10,50000,14.816,,,70,,,,,,,,,,,wg-a,,,,AAXX 16214 07130 12/84 10708 10230 20100 30153 40203 53006 60006 80001 92100=
07130,1996-06-17 00:00:00,19,1020.5,0.1,56,10,50000,7.408,,,80,,,,,,,,,,,wg-a,,,,AAXX 17004 07130 12/84 00804 10190 20100 30154 40205 53001 60006 80000 90000=
07130,1996-06-17 03:00:00,16,1020,-0.5,68,10,50000,3.704,,,80,,,,,,,,,,,wg-a,,,,AAXX 17034 07130 12/84 10802 10160 20100 30149 40200 58005 60006 80001 90300=
07130,1996-06-17 06:00:00,17,1020,-0,63,10,25000,3.704,,,80,14.1,28,,,,,,,,,wg-a,,,,AAXX 17064 07130 02/75 10802 10170 20100 30149 40200 55000 60006 80001 90600 333 10280 20141 60004=
07130,1996-06-17 09:00:00,23,1019.9,-0,50,12,500,3.704,,,150,,,,,,,,,,,wg-a,,,,AAXX 17094 07130 12/00 21502 10230 20120 30149 40199 54000 60006 80001 90900=
07130,1996-06-17 12:00:00,28,1018.7,-1.1,32,10,35000,3.704,,,50,,,,,,,,,,,wg-a,,,,AAXX 17124 07130 12/81 70502 10280 20100 30138 40187 56011 60006 80001 91200=
07130,1996-06-17 15:00:00,29,1017.6,-1.1,29,9,40000,7.408,,,10,,,,,,,,,,,wg-a,,,,AAXX 17154 07130 12/82 30104 10290 20090 30127 40176 56011 60006 80001 91500=
07130,1996-06-17 18:00:00,27,1017,-0.6,42,13,40000,14.816,,,20,17,29.5,,,,,,,,,wg-a,,,,AAXX 17184 07130 12/82 30208 10270 20130 30121 40170 56006 60006 80001 91800 333 10295 20170=
07130,1996-06-17 21:00:00,22,1017.5,0.4,57,13,40000,3.704,,,30,,,,,,,,,,,wg-a,,,,AAXX 17214 07130 12/82 20302 10220 20130 30125 40175 53004 60006 80001 92100=
07130,1996-06-18 00:00:00,17,1017.4,-0.2,77,13,500,7.408,,,330,,,,,,,,,,,wg-a,,,,AAXX 18004 07130 12/00 03304 10170 20130 30123 40174 58002 60006 80000 90000=
07130,1996-06-18 03:00:00,14,1017.1,-0.4,88,12,15000,7.408,,,340,,,,,,,,,,,wg-a,,,,AAXX 18034 07130 12/65 13404 10140 20120 30119 40171 56004 60006 80001 90300=
07130,1996-06-18 06:00:00,15,1016.9,-0.1,82,12,12000,3.704,,,300,12.9,27.4,,,,,,,,,wg-a,,,,AAXX 18064 07130 02/62 13002 10150 20120 30118 40169 56001 60006 80001 90600 333 10274 20129 60004=
07130,1996-06-18 09:00:00,23,1016.7,-0.1,47,11,20000,11.112,,,350,,,,,,,,,,,wg-a,,,,AAXX 18094 07130 12/70 13506 10230 20110 30117 40167 58001 60006 80001 90900=
07130,1996-06-18 12:00:00,27,1016.1,-0.5,24,5,40000,11.112,,,310,,,,,,,,,,,wg-a,,,,AAXX 18124 07130 12/82 03106 10270 20050 30112 40161 56005 60006 80000 91200=
07130,1996-06-18 15:00:00,28,1015.5,-0.6,37,12,10000,14.816,,,30,,,,,,,,,,,wg-a,,,,AAXX 18154 07130 12/60 /0308 10280 20120 30106 40155 58006 60006 91500=
07130,1996-06-18 18:00:00,26,1014.7,-0.8,37,10,10000,18.52,,,10,14.9,28.4,,,,,,,,,wg-a,,,,AAXX 18184 07130 12/60 /0110 10260 20100 30098 40147 56008 60006 91800 333 10284 20149=
07130,1996-06-18 21:00:00,21,1015.1,0.3,49,10,10000,7.408,,,30,,,,,,,,,,,wg-a,,,,AAXX 18214 07130 12/60 /0304 10210 20100 30101 40151 53003 60006 92100=
07130,1996-06-19 00:00:00,17,1015.3,0.1,77,13,0,7.408,,,20,,,,,,,,,,,wg-a,,,,AAXX 19004 07130 12/// /0204 10170 20130 30102 40153 50001 60006 90000=
07130,1996-06-19 03:00:00,16,1014.5,-0.8,77,12,20000,3.704,,,100,,,,,,,,,,,wg-a,,,,AAXX 19034 07130 12/70 31002 10160 20120 30094 40145 58008 60006 80001 90300=
07130,1996-06-19 09:00:00,22,1013.8,-0.4,57,13,10000,11.112,,,160,,,,,,,,,,,wg-a,,,,AAXX 19094 07130 12/60 /1606 10220 20130 30088 40138 58004 60006 90900=
07130,1996-06-19 12:00:00,27,1012.5,-1.2,37,11,20000,14.816,,,200,,,,,,,,,,,wg-a,,,,AAXX 19124 07130 12/70 62008 10270 20110 30076 40125 56012 60006 80002 91200=
07130,1996-06-19 15:00:00,28,1011.5,-1,30,9,500,22.224,,,230,,,,,,,,,,,wg-a,,,,AAXX 19154 07130 12600 72312 10280 20090 30066 40115 56010 60006 81182 91500=
07130,1996-06-19 18:00:00,22,1010.7,-0.9,65,15,9000,18.52,,,240,16.5,28.6,,,,,,,,,wg-a,,,,AAXX 19184 07130 12859 82410 10220 20150 30057 40107 56009 60006 85082 91800 333 10286 20165=
07130,1996-06-19 21:00:00,18,1011.9,1.1,77,14,8000,14.816,,,340,,,,,,,,,,,wg-a,,,,AAXX 19214 07130 12558 83408 10180 20140 30068 40119 53011 60006 875// 92100=
07130,1996-06-20 00:00:00,16,1011.6,-0.3,94,15,8000,3.704,,,330,,,,,,,,,,,wg-a,,,,AAXX 20004 07130 12558 83302 10160 20150 30065 40116 55003 60006 875// 90000=
07130,1996-06-20 03:00:00,16,1010.4,-1.2,88,14,10000,7.408,,,240,,,,,,,,,,,wg-a,,,,AAXX 20034 07130 12460 82404 10160 20140 30053 40104 57012 60006 875// 90300=
07130,1996-06-20 06:00:00,16,1010.6,0.2,82,13,500,11.112,,,270,14.8,22.3,,,,,,,,,wg-a,,,,AAXX 20064 07130 02600 /2706 10160 20130 30055 40106 53002 60006 81102 90600 333 10223 20148 60004=
07130,1996-06-20 09:00:00,19,1010.5,0,64,12,40000,14.816,,,280,,,,,,,,,,,wg-a,,,,AAXX 20094 07130 12582 /2808 10190 20120 30055 40105 50000 60006 85200 90900=
07130,1996-06-20 12:00:00,21,1010.3,-0.2,53,11,40000,18.52,,,250,,,,,,,,,,,wg-a,,,,AAXX 20124 07130 12682 62510 10210 20110 30053 40103 58002 60006 86800 91200=
07130,1996-06-20 15:00:00,22,1009.6,-0.7,53,12,40000,14.816,,,280,,,,,,,,,,,wg-a,,,,AAXX 20154 07130 12682 /2808 10220 20120 30046 40096 58007 60006 86800 91500=
07130,1996-06-20 18:00:00,20,1009.1,-0.5,64,13,40000,18.52,,,20,15.8,22.7,,,,,,,,,wg-a,,,,AAXX 20184 07130 12682 /0210 10200 20130 30041 40091 56005 60006 86300 91800 333 10227 20158=
07130,1996-06-20 21:00:00,17,1010.2,1,72,12,500,11.112,,,10,,,,,,,,,,,wg-a,,,,AAXX 20214 07130 12700 50106 10170 20120 30051 40102 53010 60006 835/2 92100=
07130,1996-06-21 00:00:00,15,1009.7,-0.5,82,12,25000,7.408,,,330,,,,,,,,,,,wg-a,,,,AAXX 21004 07130 12575 73304 10150 20120 30046 40097 58005 60006 878// 90000=
07130,1996-06-21 03:00:00,14,1008.5,-1.2,94,13,15000,7.408,,,20,,,,,,,,,,,wg-a,,,,AAXX 21034 07130 12665 70204 10140 20130 30034 40085 56012 60006 878// 90300=
07130,1996-06-21 06:00:00,15,1008.9,0.4,88,13,9000,7.408,,,10,13.7,19.6,,,,,,,,,wg-a,,,,AAXX 21064 07130 02459 /0104 10150 20130 30038 40089 53004 60006 86800 90600 333 10196 20137 60004=
07130,1996-06-21 12:00:00,17,1009.4,0.4,72,12,20000,25.928,,,20,,,,,,,,,,25,wg-a,,,,AAXX 21124 07130 02570 70214 10170 20120 30043 40094 51004 61000 72522 878// 91200 333 ////=
07130,1996-06-21 18:00:00,19,1011,1.5,49,8,14000,25.928,,,360,,20.2,,,,,,,,,wg-a,,,,AAXX 21184 07130 32664 13614 10190 20080 30059 40110 53015 81100 91800 333 10202=
07130,1996-06-21 21:00:00,14,1013.8,2.8,67,8,12000,11.112,,,10,,,,,,,,,,,wg-a,,,,AAXX 21214 07130 12662 /0106 10140 20080 30087 40138 53028 60006 81500 92100=
07130,1996-06-22 00:00:00,12,1015.7,1.8,82,9,15000,7.408,,,350,,,,,,,,,,,wg-a,,,,AAXX 22004 07130 12/65 03504 10120 20090 30105 40157 51018 60006 80000 90000=
07130,1996-06-22 03:00:00,10,1017.2,1.5,93,9,900,7.408,,,330,,,,,,,,,,,wg-a,,,,AAXX 22034 07130 12/09 /3304 10100 20090 30120 40172 51015 60006 90300=
07130,1996-06-22 06:00:00,11,1018.7,1.5,94,10,1200,11.112,,,310,8.9,18.5,,,,,,,,28,wg-a,,,,AAXX 22064 07130 02/12 03106 10110 20100 30135 40187 53015 60006 72841 80000 90600 333 10185 20089 61000=
07130,1996-06-22 09:00:00,16,1020,1.4,68,10,15000,11.112,,,330,,,,,,,,,,,wg-a,,,,AAXX 22094 07130 12565 33306 10160 20100 30149 40200 51014 60006 83200 90900=
07130,1996-06-22 12:00:00,19,1020.7,0.7,43,6,25000,18.52,,,320,,,,,,,,,,,wg-a,,,,AAXX 22124 07130 12775 33210 10190 20060 30156 40207 53007 60006 83101 91200=
07130,1996-06-22 15:00:00,19,1020.9,0.2,43,6,25000,18.52,,,340,,,,,,,,,,,wg-a,,,,AAXX 22154 07130 12775 53410 10190 20060 30158 40209 52002 60006 81101 91500=
07130,1996-06-22 18:00:00,17,1021.7,0.8,52,7,25000,22.224,,,350,10.5,19.6,,,,,,,,,wg-a,,,,AAXX 22184 07130 12675 53512 10170 20070 30166 40217 52008 60006 82101 91800 333 10196 20105=
07130,1996-06-22 21:00:00,13,1023.9,2.1,67,7,20000,14.816,,,340,,,,,,,,,,,wg-a,,,,AAXX 22214 07130 12670 43408 10130 20070 30187 40239 53021 60006 82101 92100=
07130,1996-06-23 00:00:00,11,1024.1,0.1,82,8,20000,11.112,,,320,,,,,,,,,,,wg-a,,,,AAXX 23004 07130 12/70 33206 10110 20080 30188 40241 50001 60006 80001 90000=
07130,1996-06-23 03:00:00,10,1023.9,-0.2,87,8,15000,3.704,,,280,,,,,,,,,,,wg-a,,,,AAXX 23034 07130 12/65 32802 10100 20080 30186 40239 58002 60006 80001 90300=
07130,1996-06-23 06:00:00,11,1025,1.1,87,9,15000,3.704,,,360,7.8,17.4,,,,,,,,,wg-a,,,,AAXX 23064 07130 02/65 03602 10110 20090 30197 40250 52011 60006 80000 90600 333 10174 20078 60004=
07130,1996-06-23 09:00:00,17,1026.3,1.4,48,6,25000,14.816,,,10,,,,,,,,,,,wg-a,,,,AAXX 23094 07130 12675 20108 10170 20060 30211 40263 53014 60006 81101 90900=
07130,1996-06-23 12:00:00,19,1025.9,-0.3,43,6,35000,18.52,,35.188,30,,,,,,,,,,,wg-a,,,,AAXX 23124 07130 12781 40310 10190 20060 30208 40259 58003 60006 84101 91200 333 91019=
07130,1996-06-23 15:00:00,21,1025.7,-0.2,43,8,35000,18.52,,,30,,,,,,,,,,,wg-a,,,,AAXX 23154 07130 12681 40310 10210 20080 30206 40257 55002 60006 84200 91500=
07130,1996-06-23 18:00:00,19,1026.5,0.5,56,10,500,25.928,,,20,10.6,21,,,,,,,,,wg-a,,,,AAXX 23184 07130 12/00 10214 10190 20100 30214 40265 51005 60006 80001 91800 333 10210 20106=
07130,1996-06-23 21:00:00,14,1028.1,1.8,77,10,15000,11.112,,,330,,,,,,,,,,,wg-a,,,,AAXX 23214 07130 12/65 13306 10140 20100 30229 40281 53018 60006 80001 92100=
07130,1996-06-24 00:00:00,11,1028.7,0.5,87,9,15000,11.112,,,320,,,,,,,,,,,wg-a,,,,AAXX 24004 07130 12/65 13206 10110 20090 30234 40287 51005 60006 80001 90000=
07130,1996-06-24 03:00:00,9,1028.6,-0.1,93,8,3000,7.408,,,290,,,,,,,,,,10,wg-a,,,,AAXX 24034 07130 12/30 /2904 10090 20080 30233 40286 58001 60006 71011 80001 90300=
07130,1996-06-24 06:00:00,11,1028.9,0.3,94,10,1800,7.408,,,300,8.3,18.5,,,,,,,,10,wg-a,,,,AAXX 24064 07130 02/18 /3004 10110 20100 30236 40289 51003 60006 71011 80001 90600 333 10185 20083 60004=
07130,1996-06-24 09:00:00,18,1028.4,-0.3,59,10,10000,18.52,,,350,,,,,,,,,,,wg-a,,,,AAXX 24094 07130 12460 33510 10180 20100 30233 40284 58003 60006 81101 90900=
07130,1996-06-24 12:00:00,20,1028.2,-0.2,53,10,15000,22.224,,,360,,,,,,,,,,,wg-a,,,,AAXX 24124 07130 12665 /3612 10200 20100 30231 40282 58002 60006 84102 91200=
07130,1996-06-24 15:00:00,21,1027.5,-0.7,49,10,15000,22.224,,,360,,,,,,,,,,,wg-a,,,,AAXX 24154 07130 12765 53612 10210 20100 30224 40275 58007 60006 82102 91500=
07130,1996-06-24 18:00:00,19,1027.4,-0.1,60,11,20000,22.224,,,360,10.6,21.4,,,,,,,,,wg-a,,,,AAXX 24184 07130 12770 43612 10190 20110 30223 40274 55001 60006 81101 91800 333 10214 20106=
07130,1996-06-24 21:00:00,15,1028.6,1.1,82,12,20000,14.816,,,10,,,,,,,,,,,wg-a,,,,AAXX 24214 07130 12870 60108 10150 20120 30234 40286 53011 60006 815/1 92100=
07130,1996-06-25 00:00:00,12,1028.9,0.2,94,11,20000,3.704,,,300,,,,,,,,,,,wg-a,,,,AAXX 25004 07130 12/70 03002 10120 20110 30236 40289 51002 60006 80000 90000=
07130,1996-06-25 03:00:00,10,1028.3,-0.6,93,9,500,3.704,,,290,,,,,,,,,,,wg-a,,,,AAXX 25034 07130 12/00 02902 10100 20090 30230 40283 58006 60006 80000 90300=
07130,1996-06-25 06:00:00,11,1028.6,0.3,100,11,700,7.408,,,320,9,19.2,,,,,,,,44,wg-a,,,,AAXX 25064 07130 02007 93204 10110 20110 30233 40286 53003 60006 74441 896// 90600 333 10192 20090 60004=
07130,1996-06-25 09:00:00,18,1027.6,-0.8,59,10,15000,11.112,,,340,,,,,,,,,,3,wg-a,,,,AAXX 25094 07130 12565 /3406 10180 20100 30225 40276 58008 60006 70341 81101 90900=
07130,1996-06-25 12:00:00,22,1026.5,-1.1,50,11,16000,11.112,,,10,,,,,,,,,,3,wg-a,,,,AAXX 25124 07130 12666 50106 10220 20110 30214 40265 58011 60006 70341 84201 91200=
07130,1996-06-25 15:00:00,23,1025.6,-0.9,44,10,20000,18.52,,,360,,,,,,,,,,,wg-a,,,,AAXX 25154 07130 12770 53610 10230 20100 30205 40256 56009 60006 81101 91500=
07130,1996-06-25 18:00:00,21,1024.9,-0.7,49,10,20000,18.52,,,350,11.4,22.9,,,,,,,,,wg-a,,,,AAXX 25184 07130 12/70 53510 10210 20100 30198 40249 56007 60006 80002 91800 333 10229 20114=
07130,1996-06-25 21:00:00,15,1025.7,0.7,77,11,12000,22.224,,,10,,,,,,,,,,,wg-a,,,,AAXX 25214 07130 12762 50112 10150 20110 30205 40257 53007 60006 815/1 92100=
07130,1996-06-26 00:00:00,14,1025.6,-0.1,82,11,10000,7.408,,,10,,,,,,,,,,,wg-a,,,,AAXX 26004 07130 12460 /0104 10140 20110 30204 40256 58001 60006 86502 90000=
07130,1996-06-26 03:00:00,12,1024.4,-1.2,88,10,10000,3.704,,,280,,,,,,,,,,,wg-a,,,,AAXX 26034 07130 12560 /2802 10120 20100 30192 40244 57012 60006 83502 90300=
07130,1996-06-26 06:00:00,13,1024.4,-0,88,11,12000,3.704,,,310,10.6,21,,,,,,,,,wg-a,,,,AAXX 26064 07130 02562 83102 10130 20110 30192 40244 55000 60006 885// 90600 333 10210 20106 60004=
07130,1996-06-26 09:00:00,15,1024.6,0.2,77,11,16000,7.408,,,320,,,,,,,,,,,wg-a,,,,AAXX 26094 07130 12566 83204 10150 20110 30194 40246 53002 60006 885// 90900=
07130,1996-06-26 12:00:00,17,1024.5,0,68,11,11000,11.112,,,300,,,,,,,,,,,wg-a,,,,AAXX 26124 07130 12/61 /3006 10170 20110 30194 40245 50000 60006 91200=
07130,1996-06-26 15:00:00,20,1024.4,-0.1,56,11,35000,18.52,,,10,,,,,,,,,,,wg-a,,,,AAXX 26154 07130 12581 70110 10200 20110 30193 40244 57001 60006 878// 91500=
07130,1996-06-26 18:00:00,19,1024.1,-0.3,68,13,500,7.408,,,360,12.5,20.2,,,,,,,,,wg-a,,,,AAXX 26184 07130 12500 83604 10190 20130 30190 40241 56003 60006 885// 91800 333 10202 20125=
07130,1996-06-26 21:00:00,18,1024.8,0.7,77,14,25000,7.408,,,10,,,,,,,,,,,wg-a,,,,AAXX 26214 07130 12575 80104 10180 20140 30197 40248 53007 60006 885// 92100=
07130,1996-06-27 00:00:00,16,1025.1,0.3,94,15,25000,3.704,,,10,,,,,,,,,,,wg-a,,,,AAXX 27004 07130 12475 80102 10160 20150 30200 40251 52003 60006 885// 90000=
07130,1996-06-27 03:00:00,16,1024.6,-0.6,100,16,15000,3.704,,,240,,,,0,,,,,,,wg-a,,,,AAXX 27034 07130 12365 82402 10160 20160 30194 40246 56006 60007 886// 90300=
07130,1996-06-27 06:00:00,16,1025.1,0.5,100,16,3500,0,,,0,15.9,18.8,,0,,,1,,,10,wg-a,,,,AAXX 27064 07130 02/35 /0000 10160 20160 30199 40251 53005 60014 710// 90600 333 10188 20159 60007=
07130,1996-06-27 09:00:00,18,1025.7,0.7,83,15,8000,3.704,,,340,,,,,,,,,,1,wg-a,,,,AAXX 27094 07130 02358 83402 10180 20150 30206 40257 51007 61000 70152 888// 90900 333 ////=
07130,1996-06-27 12:00:00,21,1025.6,-0.1,69,15,35000,3.704,,,290,,,,,,,,,,1,wg-a,,,,AAXX 27124 07130 02581 82902 10210 20150 30205 40256 58001 61000 70152 888// 91200 333 ////=
07130,1996-06-27 15:00:00,20,1024.9,-0.7,78,16,15000,0,,,0,,,,0,,,,,,25,wg-a,,,,AAXX 27154 07130 12565 80000 10200 20160 30198 40249 58007 60007 72522 888// 91500=
07130,1996-06-27 18:00:00,20,1024.3,-0.6,78,16,15000,3.704,,,150,16,20.8,,,,,,,,,wg-a,,,,AAXX 27184 07130 32565 71502 10200 20160 30192 40243 58006 8113/ 91800 333 10208 20160=
07130,1996-06-27 21:00:00,19,1024.3,-0,83,16,20000,3.704,,,40,,,,,,,,,,,wg-a,,,,AAXX 27214 07130 12570 80402 10190 20160 30192 40243 55000 60006 875// 92100=
07130,1996-06-28 00:00:00,17,1023.4,-0.9,88,15,15000,7.408,,,280,,,,,,,,,,,wg-a,,,,AAXX 28004 07130 12665 72804 10170 20150 30183 40234 58009 60006 875// 90000=
07130,1996-06-28 03:00:00,14,1022.5,-1,94,13,15000,3.704,,,270,,,,,,,,,,,wg-a,,,,AAXX 28034 07130 12665 72702 10140 20130 30173 40225 58010 60006 86502 90300=
07130,1996-06-28 06:00:00,15,1022.5,-0,88,13,15000,7.408,,,300,13.8,20.1,,,,,,,,,wg-a,,,,AAXX 28064 07130 02665 73004 10150 20130 30173 40225 55000 60006 875// 90600 333 10201 20138 60004=
07130,1996-06-28 09:00:00,20,1021.9,-0.5,60,12,11000,14.816,,,270,,,,,,,,,,,wg-a,,,,AAXX 28094 07130 12/61 /2708 10200 20120 30168 40219 58005 60006 90900=
07130,1996-06-28 12:00:00,22,1020.6,-1.2,50,11,500,18.52,,,250,,,,,,,,,,,wg-a,,,,AAXX 28124 07130 12600 72510 10220 20110 30156 40206 58012 60006 84202 91200=
07130,1996-06-28 15:00:00,22,1019.3,-1.3,57,13,500,18.52,,,250,,,,,,,,,,,wg-a,,,,AAXX 28154 07130 12600 72510 10220 20130 30143 40193 58013 60006 84142 91500=
07130,1996-06-28 18:00:00,21,1018.1,-1.2,60,13,25000,22.224,,,250,14.7,22.9,,,,,,,,,wg-a,,,,AAXX 28184 07130 12675 72512 10210 20130 30131 40181 56012 60006 8384/ 91800 333 10229 20147=
07130,1996-06-28 21:00:00,17,1018.4,0.2,88,15,25000,14.816,,,240,,,,,,,,,,,wg-a,,,,AAXX 28214 07130 12475 82408 10170 20150 30133 40184 53002 60006 875// 92100=
07130,1996-06-29 00:00:00,15,1018.6,0.2,94,14,20000,14.816,,,310,,,,0,,,,,,21,wg-a,,,,AAXX 29004 07130 02470 /3108 10150 20140 30135 40186 53002 60016 72165 86800 90000 333 60007=
07130,1996-06-29 03:00:00,14,1018.5,-0.2,94,13,15000,14.816,,,280,,,,,,,,,,,wg-a,,,,AAXX 29034 07130 12665 72808 10140 20130 30133 40185 58002 60006 875// 90300=
07130,1996-06-29 06:00:00,15,1020.1,1.6,88,13,15000,14.816,,,300,13.7,21,,,,,,,,,wg-a,,,,AAXX 29064 07130 12465 73008 10150 20130 30149 40201 51016 60004 878// 90600 333 10210 20137=
07130,1996-06-29 09:00:00,16,1021.1,1.1,68,10,20000,25.928,,,300,,,,,,,,,,1,wg-a,,,,AAXX 29094 07130 02570 73014 10160 20100 30160 40211 51011 61000 70162 878// 90900 333 ////=
07130,1996-06-29 12:00:00,18,1021.7,0.6,52,8,25000,31.484,,,320,,,,,,,,,,3,wg-a,,,,AAXX 29124 07130 02675 73217 10180 20080 30166 40217 53006 61000 70362 878// 91200 333 ////=
07130,1996-06-29 15:00:00,19,1021.6,-0.1,49,8,25000,29.632,,,330,,,,,,,,,,,wg-a,,,,AAXX 29154 07130 12675 /3316 10190 20080 30165 40216 58001 60006 85800 91500=
07130,1996-06-29 18:00:00,17,1022.5,0.9,59,9,11000,25.928,,,340,14.7,19.4,,,,,,,,,wg-a,,,,AAXX 29184 07130 32/61 /3414 10170 20090 30174 40225 53009 91800 333 10194 20147=
07130,1996-06-29 21:00:00,14,1023.7,1.1,72,9,25000,11.112,,,320,,,,,,,,,,,wg-a,,,,AAXX 29214 07130 12675 /3206 10140 20090 30185 40237 53011 60006 81500 92100=
07130,1996-06-30 00:00:00,11,1023.1,-0.6,87,9,20000,7.408,,,240,,,,,,,,,,,wg-a,,,,AAXX 30004 07130 12670 /2404 10110 20090 30179 40231 58006 60006 81500 90000=
07130,1996-06-30 03:00:00,12,1022.1,-1,88,10,11000,7.408,,,280,,,,,,,,,,,wg-a,,,,AAXX 30034 07130 12/61 /2804 10120 20100 30169 40221 58010 60006 90300=
07130,1996-06-30 06:00:00,13,1021.7,-0.4,82,10,20000,11.112,,,230,10.6,17.4,,,,,,,,,wg-a,,,,AAXX 30064 07130 02570 72306 10130 20100 30165 40217 58004 60006 875// 90600 333 10174 20106 61000=
07130,1996-06-30 09:00:00,16,1021.1,-0.5,72,11,20000,14.816,,,250,,,,,,,,,,21,wg-a,,,,AAXX 30094 07130 02570 72508 10160 20110 30160 40211 55005 61000 72122 875// 90900 333 ////=
07130,1996-06-30 12:00:00,18,1019,-2.1,59,10,25000,22.224,,,260,,,,,,,,,,3,wg-a,,,,AAXX 30124 07130 02675 82612 10180 20100 30139 40190 56021 61000 70362 8117/ 91200 333 ////=
07130,1996-06-30 15:00:00,17,1017.8,-1.2,82,14,20000,14.816,,,250,,,,1,,,,,,21,wg-a,,,,AAXX 30154 07130 12470 82508 10170 20140 30127 40178 58012 60017 72162 875// 91500=
07130,1996-06-30 18:00:00,19,1015.8,-2,78,15,25000,18.52,,,260,13.1,19.3,,,,,,,,3,wg-a,,,,AAXX 30184 07130 32575 72610 10190 20150 30107 40158 56020 70362 878// 91800 333 10193 20131=
07130,1996-06-30 21:00:00,16,1015.6,-0.2,72,11,40000,11.112,,,330,,,,,,,,,,,wg-a,,,,AAXX 30214 07130 12582 73306 10160 20110 30105 40156 58002 60006 875// 92100=
07130,1996-07-01 00:00:00,14,1015,-0.6,82,11,500,7.408,,,290,,,,,,,,,,,wg-a,,,,AAXX 01004 07130 12600 72904 10140 20110 30099 40150 58006 60006 875// 90000=
07130,1996-07-01 03:00:00,13,1013.8,-1.3,82,10,25000,11.112,,,270,,,,,,,,,,,wg-a,,,,AAXX 01034 07130 12575 72706 10130 20100 30086 40138 57013 60006 878// 90300=
07130,1996-07-01 06:00:00,14,1013.2,-0.5,82,11,25000,11.112,,,270,12.3,18.7,,,,,1,,,,wg-a,,,,AAXX 01064 07130 02675 /2706 10140 20110 30081 40132 58005 60006 82501 90600 333 10187 20123 60014=
07130,1996-07-01 09:00:00,17,1012.9,-0.3,63,10,500,18.52,,,280,,,,,,,,,,,wg-a,,,,AAXX 01094 07130 12500 72810 10170 20100 30078 40129 58003 60006 878// 90900=
07130,1996-07-01 12:00:00,18,1012.3,-0.6,56,9,35000,18.52,,,290,,,,,,,,,,3,wg-a,,,,AAXX 01124 07130 02681 72910 10180 20090 30072 40123 58006 61000 70386 878// 91200 333 6100=
07130,1996-07-01 15:00:00,19,1012,-0.2,49,8,40000,25.928,,,280,,,,,,,,,,,wg-a,,,,AAXX 01154 07130 12682 /2814 10190 20080 30070 40120 57002 60006 86800 91500=
07130,1996-07-01 18:00:00,18,1011.7,-0.4,52,8,40000,22.224,,,290,13.7,20.1,,,,,,,,,wg-a,,,,AAXX 01184 07130 32682 /2912 10180 20080 30066 40117 57004 86800 91800 333 10201 20137=
07130,1996-07-02 00:00:00,13,1013,0,82,10,3000,11.112,,,280,,,,,,,,,,,wg-a,,,,AAXX 02004 07130 12730 82806 10130 20100 30078 40130 50000 60006 875// 90000=
07130,1996-07-02 03:00:00,13,1012.5,-0.5,82,10,3000,11.112,,,260,,,,,,,,,,,wg-a,,,,AAXX 02034 07130 12730 82606 10130 20100 30073 40125 56005 60006 875// 90300=
07130,1996-07-02 06:00:00,14,1012.9,0.5,82,11,500,11.112,,,260,12.1,18.6,,,,,,,,,wg-a,,,,AAXX 02064 07130 02700 72606 10140 20110 30078 40129 53005 60006 865/1 90600 333 10186 20121 61000=
07130,1996-07-02 09:00:00,17,1013.3,0.4,63,10,500,14.816,,,280,,,,,,,,,,,wg-a,,,,AAXX 02094 07130 12500 62808 10170 20100 30082 40133 50004 60006 86800 90900=
07130,1996-07-02 12:00:00,18,1013.4,0.1,56,9,35000,18.52,,,280,,,,,,,,,,,wg-a,,,,AAXX 02124 07130 12681 72810 10180 20090 30083 40134 51001 60006 878// 91200=
07130,1996-07-02 15:00:00,20,1013.1,-0.2,49,9,11000,11.112,,,270,,,,,,,,,,,wg-a,,,,AAXX 02154 07130 12/61 /2706 10200 20090 30081 40131 57002 60006 91500=
07130,1996-07-02 18:00:00,19,1012.3,-0.9,52,9,50000,14.816,,,250,13.4,19.6,,,,,,,,,wg-a,,,,AAXX 02184 07130 12684 72508 10190 20090 30072 40123 58009 60006 878// 91800 333 10196 20134=
07130,1996-07-02 21:00:00,15,1012.7,0.4,72,10,50000,11.112,,,220,,,,,,,,,,,wg-a,,,,AAXX 02214 07130 12684 /2206 10150 20100 30076 40127 53004 60006 81501 92100=
07130,1996-07-03 00:00:00,13,1012.2,-0.6,88,11,500,11.112,,,190,,,,,,,,,,,wg-a,,,,AAXX 03004 07130 12/00 21906 10130 20110 30070 40122 58006 60006 82030 90000=
07130,1996-07-03 03:00:00,13,1009.8,-2.3,88,11,500,14.816,,,180,,,,,,,,,,,wg-a,,,,AAXX 03034 07130 12/00 41808 10130 20110 30047 40098 56023 60006 83031 90300=
07130,1996-07-03 06:00:00,14,1007.9,-1.9,94,13,8000,22.224,,,180,12.4,19,,,,,,,,51,wg-a,,,,AAXX 03064 07130 02358 81812 10140 20130 30028 40079 56019 61000 75151 887// 90600 333 10190 20124 6100=
07130,1996-07-03 12:00:00,19,1007.2,-0.1,88,17,15000,22.224,,,220,,,,0,,,,,,21,wg-a,,,,AAXX 03124 07130 02465 82212 10190 20170 30022 40072 58001 60016 72165 878// 91200 333 60007=
07130,1996-07-03 15:00:00,18,1007.8,0.6,88,16,20000,22.224,,,230,,,,1,,,,,,61,wg-a,,,,AAXX 03154 07130 12470 82312 10180 20160 30028 40078 51006 60017 76186 8487/ 91500=
07130,1996-07-03 18:00:00,17,1007.9,-0,88,15,25000,22.224,,,250,13.9,20.5,,,,,,,,21,wg-a,,,,AAXX 03184 07130 02475 72512 10170 20150 30028 40079 55000 61000 72186 8317/ 91800 333 10205 20139 ////=
07130,1996-07-03 21:00:00,16,1007.5,-0.4,94,15,20000,18.52,,,210,,,,1,,,,,,3,wg-a,,,,AAXX 03214 07130 12270 72110 10160 20150 30024 40075 58004 60017 70365 876// 92100=
07130,1996-07-04 00:00:00,17,1007.4,-0,94,16,15000,18.52,,,250,,,,,,,,,,1,wg-a,,,,AAXX 04004 07130 02465 82510 10170 20160 30024 40074 55000 60016 70165 875// 90000 333 61000=
07130,1996-07-04 03:00:00,16,1009.1,1.6,88,14,500,18.52,,,270,,,,,,,,,,,wg-a,,,,AAXX 04034 07130 12400 72710 10160 20140 30040 40091 51016 60006 878// 90300=
07130,1996-07-04 06:00:00,14,1010.7,1.6,82,11,20000,18.52,,,260,13.3,17.4,,,,,2,,,3,wg-a,,,,AAXX 04064 07130 02770 52610 10140 20110 30056 40107 51016 60024 70381 84531 90600 333 10174 20133 61000=
07130,1996-07-04 09:00:00,17,1011.9,1.2,63,10,11000,22.224,,,270,,,,,,,,,,,wg-a,,,,AAXX 04094 07130 12/61 /2712 10170 20100 30068 40119 51012 60006 90900=
07130,1996-07-04 12:00:00,21,1011.8,0,43,8,35000,25.928,,,250,,,,,,,,,,,wg-a,,,,AAXX 04124 07130 12681 /2514 10210 20080 30068 40118 50000 60006 86132 91200=
07130,1996-07-04 15:00:00,21,1011.9,0.1,49,10,10000,22.224,,,250,,,,,,,,,,,wg-a,,,,AAXX 04154 07130 12/60 /2512 10210 20100 30069 40119 53001 60006 91500=
07130,1996-07-04 18:00:00,19,1012.1,0.1,64,12,500,18.52,,,240,14,22.7,,,,,,,,,wg-a,,,,AAXX 04184 07130 12500 72410 10190 20120 30070 40121 53001 60006 878// 91800 333 10227 20140=
07130,1996-07-04 21:00:00,15,1012.5,0.4,88,13,20000,3.704,,,250,,,,1,,,,,,21,wg-a,,,,AAXX 04214 07130 12470 72502 10150 20130 30074 40125 53004 60017 72162 878// 92100=
07130,1996-07-05 00:00:00,14,1011.4,-1.1,94,13,20000,3.704,,,250,,,,,,,,,,3,wg-a,,,,AAXX 05004 07130 12670 72502 10140 20130 30063 40114 58011 60016 70362 875// 90000=
07130,1996-07-05 03:00:00,14,1009.7,-1.7,88,12,20000,7.408,,,20,,,,,,,,,,,wg-a,,,,AAXX 05034 07130 12670 70204 10140 20120 30046 40097 56017 60006 875// 90300=
07130,1996-07-05 06:00:00,13,1009.6,-0.1,94,12,9000,14.816,,,340,12.8,18.5,,0,,,1,,,60,wg-a,,,,AAXX 05064 07130 02259 83408 10130 20120 30045 40096 55001 60014 76062 885// 90600 333 10185 20128 60007=
07130,1996-07-05 09:00:00,14,1009.9,0.3,94,13,10000,11.112,,,310,,,,1,,,,,,21,wg-a,,,,AAXX 05094 07130 12360 73106 10140 20130 30048 40099 51003 60017 72165 8522/ 90900=
07130,1996-07-05 12:00:00,18,1009.9,-0,59,10,25000,11.112,,,300,,,,,,,,,,3,wg-a,,,,AAXX 05124 07130 12575 73006 10180 20100 30048 40099 55000 60016 70365 85272 91200=
07130,1996-07-05 15:00:00,15,1010.6,0.7,72,10,20000,3.704,,,320,,,,1,,,,,,21,wg-a,,,,AAXX 05154 07130 12570 73202 10150 20100 30055 40106 50007 60017 72186 8487/ 91500=
07130,1996-07-05 18:00:00,14,1010.6,-0,88,12,15000,3.704,,,350,12.5,18.4,,0,,,,,,25,wg-a,,,,AAXX 05184 07130 12465 73502 10140 20120 30055 40106 55000 60007 72586 83842 91800 333 10184 20125=
07130,1996-07-05 21:00:00,14,1011.7,1.1,88,12,500,7.408,,,310,,,,,,,,,,,wg-a,,,,AAXX 05214 07130 12500 73104 10140 20120 30066 40117 53011 60006 86802 92100=
07130,1996-07-06 00:00:00,10,1012,0.2,87,8,500,7.408,,,280,,,,,,,,,,,wg-a,,,,AAXX 06004 07130 12/00 02804 10100 20080 30068 40120 52002 60006 80000 90000=
07130,1996-07-06 03:00:00,8,1012.1,0.1,93,7,500,11.112,,,280,,,,,,,,,,,wg-a,,,,AAXX 06034 07130 12700 32806 10080 20070 30069 40121 53001 60006 81541 90300=
07130,1996-07-06 06:00:00,10,1012.8,0.7,93,9,35000,7.408,,,250,7.7,14.6,,,,,3,,,,wg-a,,,,AAXX 06064 07130 02/81 22504 10100 20090 30076 40128 52007 60006 82031 90600 333 10146 20077 60034=
07130,1996-07-06 07:00:00,10,1,0.7,93,9,35000,7.408,,,250,7.7,14.6,,,,,,,,,wg-a,,,,AAXX 06074 07130 12/81 22504 10100 20090 30070 52007 60006 82031 90700 333 10146 20077=
07130,1996-07-06 09:00:00,15,1012.9,0.2,63,8,35000,18.52,,,300,,,,,,,,,,,wg-a,,,,AAXX 06094 07130 12581 /3010 10150 20080 30078 40129 53002 60006 84202 90900=
07130,1996-07-06 12:00:00,19,1011.8,-1.1,46,7,35000,18.52,,,250,,,,,,,,,,,wg-a,,,,AAXX 06124 07130 12681 72510 10190 20070 30067 40118 58011 60006 85282 91200=
07130,1996-07-06 15:00:00,13,1012.6,0.8,88,11,12000,22.224,,,300,,,,0,,,,,,81,wg-a,,,,AAXX 06154 07130 12562 83012 10130 20110 30075 40126 53008 60007 78186 872// 91500=
07130,1996-07-06 18:00:00,16,1010.6,-2,72,11,11000,7.408,,,170,10.1,19.7,,,,,,,,,wg-a,,,,AAXX 06184 07130 32/61 /1704 10160 20110 30055 40106 56020 91800 333 10197 20101=
07130,1996-07-06 21:00:00,13,1010.6,-0,82,10,25000,11.112,,,20,,,,,,,,,,,wg-a,,,,AAXX 06214 07130 12575 70206 10130 20100 30055 40106 55000 60006 85802 92100=
07130,1996-07-07 00:00:00,11,1009.5,-1.2,94,10,25000,0,,,0,,,,,,,,,,,wg-a,,,,AAXX 07004 07130 12/75 00000 10110 20100 30043 40095 58012 60006 80000 90000=
07130,1996-07-07 03:00:00,10,1008.2,-1.3,100,10,11000,0,,,0,,,,,,,,,,,wg-a,,,,AAXX 07034 07130 12/61 /0000 10100 20100 30030 40082 57013 60006 90300=
07130,1996-07-07 06:00:00,11,1007.9,-0.3,94,10,12000,7.408,,,360,9.3,16.3,,,,,1,,,,wg-a,,,,AAXX 07064 07130 02662 73604 10110 20100 30027 40079 58003 60006 86802 90600 333 10163 20093 60014=
07130,1996-07-07 09:00:00,15,1008,0.2,77,11,25000,18.52,,,20,,,,,,,,,,,wg-a,,,,AAXX 07094 07130 12575 70210 10150 20110 30029 40080 53002 60006 84102 90900=
07130,1996-07-07 12:00:00,18,1008.4,0.4,56,9,500,29.632,,,360,,,,,,,,,,,wg-a,,,,AAXX 07124 07130 12600 63616 10180 20090 30033 40084 53004 60006 85802 91200=
07130,1996-07-07 15:00:00,17,1010.1,1.7,59,9,500,25.928,,,20,,,,,,,,,,1,wg-a,,,,AAXX 07154 07130 02600 50214 10170 20090 30050 40101 51017 61000 70186 85800 91500 333 ////=
07130,1996-07-07 18:00:00,17,1012.3,2.2,52,7,500,25.928,,,350,10.6,18.6,,,,,,,,2,wg-a,,,,AAXX 07184 07130 32600 33514 10170 20070 30072 40123 53022 70286 83100 91800 333 10186 20106=
07130,1996-07-07 21:00:00,12,1015.4,3,71,7,25000,11.112,,,320,,,,,,,,,,,wg-a,,,,AAXX 07214 07130 12/75 03206 10120 20070 30102 40154 52030 60006 80000 92100=
07130,1996-07-08 00:00:00,10,1017,1.6,93,9,20000,11.112,,,310,,,,,,,,,,,wg-a,,,,AAXX 08004 07130 12/70 03106 10100 20090 30118 40170 51016 60006 80000 90000=
07130,1996-07-08 03:00:00,11,1018.1,1.1,94,10,20000,14.816,,,310,,,,,,,,,,,wg-a,,,,AAXX 08034 07130 12/70 03108 10110 20100 30129 40181 53011 60006 80000 90300=
07130,1996-07-08 06:00:00,12,1020.5,2.4,94,11,11000,14.816,,,320,9.7,16.8,,,,,,,,,wg-a,,,,AAXX 08064 07130 02/61 /3208 10120 20110 30153 40205 51024 60006 90600 333 10168 20097 61000=
07130,1996-07-08 09:00:00,17,1022.3,1.9,63,10,15000,18.52,,,340,,,,,,,,,,,wg-a,,,,AAXX 08094 07130 12565 73410 10170 20100 30172 40223 51019 60006 8683/ 90900=
07130,1996-07-08 12:00:00,20,1023.6,1.3,53,10,40000,22.224,,,340,,,,,,,,,,,wg-a,,,,AAXX 08124 07130 12682 /3412 10200 20100 30185 40236 51013 60006 86800 91200=
07130,1996-07-08 15:00:00,21,1024.3,0.7,49,10,40000,22.224,,,350,,,,,,,,,,,wg-a,,,,AAXX 08154 07130 12682 43512 10210 20100 30192 40243 51007 60006 84201 91500=
07130,1996-07-08 18:00:00,19,1025.1,0.8,60,11,40000,22.224,,,360,12.1,21,,,,,,,,,wg-a,,,,AAXX 08184 07130 12682 /3612 10190 20110 30200 40251 53008 60006 83201 91800 333 10210 20121=
07130,1996-07-08 21:00:00,14,1027.1,1.9,72,9,500,7.408,,,350,,,,,,,,,,,wg-a,,,,AAXX 08214 07130 12600 33504 10140 20090 30219 40271 52019 60006 81501 92100=
07130,1996-07-09 00:00:00,11,1027.7,0.5,87,9,500,7.408,,,290,,,,,,,,,,,wg-a,,,,AAXX 09004 07130 12/00 12904 10110 20090 30224 40277 51005 60006 80001 90000=
07130,1996-07-09 03:00:00,9,1027.9,0.2,93,8,500,3.704,,,290,,,,,,,,,,,wg-a,,,,AAXX 09034 07130 12/00 12902 10090 20080 30226 40279 51002 60006 81041 90300=
07130,1996-07-09 06:00:00,11,1028.2,0.3,94,10,15000,11.112,,,280,8.3,18.7,,,,,,,,,wg-a,,,,AAXX 09064 07130 02765 12806 10110 20100 30229 40282 53003 60006 81501 90600 333 10187 20083 60004=
07130,1996-07-09 09:00:00,18,1028.2,0.1,56,9,40000,11.112,,,280,,,,,,,,,,,wg-a,,,,AAXX 09094 07130 12582 52806 10180 20090 30230 40282 50001 60006 85831 90900=
07130,1996-07-09 12:00:00,19,1027.9,-0.2,64,12,25000,18.52,,,260,,,,,,,,,,,wg-a,,,,AAXX 09124 07130 12575 72610 10190 20120 30228 40279 58002 60006 875// 91200=
07130,1996-07-09 15:00:00,19,1027.3,-0.6,73,14,40000,18.52,,,260,,,,,,,,,,,wg-a,,,,AAXX 09154 07130 12482 82610 10190 20140 30222 40273 57006 60006 885// 91500=
07130,1996-07-09 18:00:00,18,1026.5,-0.8,88,16,3000,14.816,,,260,11.1,19.4,,,,,,,,10,wg-a,,,,AAXX 09184 07130 02330 82608 10180 20160 30214 40265 56008 61000 71052 887// 91800 333 10194 20111 ////=
07130,1996-07-09 21:00:00,17,1026.9,0.3,94,16,8000,11.112,,,340,,,,1,,,,,,20,wg-a,,,,AAXX 09214 07130 12458 73406 10170 20160 30217 40269 53003 60017 72052 875// 92100=
07130,1996-07-10 00:00:00,15,1027.3,0.4,94,14,9000,7.408,,,300,,,,,,,,,,1,wg-a,,,,AAXX 10004 07130 12359 83004 10150 20140 30221 40273 51004 60016 70152 885// 90000=
07130,1996-07-10 03:00:00,15,1026.7,-0.6,94,14,8000,11.112,,,310,,,,,,,,,,,wg-a,,,,AAXX 10034 07130 12458 83106 10150 20140 30215 40267 56006 60006 885// 90300=
07130,1996-07-10 06:00:00,16,1027.1,0.4,88,14,7000,11.112,,,330,14.8,17.6,,,,,1,,,,wg-a,,,,AAXX 10064 07130 12/57 /3306 10160 20140 30219 40271 53004 60014 90600 333 10176 20148=
07130,1996-07-10 09:00:00,18,1027.3,0.3,77,14,11000,18.52,,,340,,,,,,,,,,,wg-a,,,,AAXX 10094 07130 12/61 /3410 10180 20140 30222 40273 50003 60006 90900=
07130,1996-07-10 12:00:00,21,1027.3,-0,60,13,500,22.224,,,340,,,,,,,,,,,wg-a,,,,AAXX 10124 07130 12600 /3412 10210 20130 30222 40273 55000 60006 85100 91200=
07130,1996-07-10 15:00:00,22,1027,-0.3,57,13,500,22.224,,,360,,,,,,,,,,,wg-a,,,,AAXX 10154 07130 12600 23612 10220 20130 30219 40270 56003 60006 82400 91500=
07130,1996-07-10 18:00:00,21,1026.6,-0.4,60,13,35000,22.224,,,10,15.5,22.4,,,,,,,,,wg-a,,,,AAXX 10184 07130 12681 /0112 10210 20130 30215 40266 55004 60006 81400 91800 333 10224 20155=
07130,1996-07-10 21:00:00,17,1027,0.4,82,14,35000,11.112,,,350,,,,,,,,,,,wg-a,,,,AAXX 10214 07130 12/81 03506 10170 20140 30219 40270 53004 60006 80000 92100=
07130,1996-07-11 00:00:00,14,1026.9,-0.2,94,13,2500,11.112,,,350,,,,,,,,,,10,wg-a,,,,AAXX 11004 07130 12125 /3506 10140 20130 30217 40269 58002 60006 71011 85600 90000=
07130,1996-07-11 03:00:00,15,1026,-0.9,94,14,4000,11.112,,,10,,,,,,,,,,10,wg-a,,,,AAXX 11034 07130 12240 80106 10150 20140 30208 40260 58009 60006 71022 886// 90300=
07130,1996-07-11 06:00:00,14,1026.3,0.3,94,13,4500,11.112,,,10,14,20.9,,,,,,,,10,wg-a,,,,AAXX 11064 07130 02245 80106 10140 20130 30211 40263 53003 61000 71052 886// 90600 333 10209 20140 6100=
07130,1996-07-11 09:00:00,15,1026.3,0,88,13,8000,7.408,,,340,,,,,,,,,,,wg-a,,,,AAXX 11094 07130 12358 83404 10150 20130 30211 40263 50000 60006 886// 90900=
07130,1996-07-11 12:00:00,17,1025.5,-0.7,82,14,15000,7.408,,,300,,,,,,,,,,,wg-a,,,,AAXX 11124 07130 12465 83004 10170 20140 30204 40255 58007 60006 875// 91200=
07130,1996-07-11 15:00:00,23,1023.3,-2.1,53,13,35000,7.408,,,290,,,,,,,,,,,wg-a,,,,AAXX 11154 07130 12581 /2904 10230 20130 30183 40233 56021 60006 81101 91500=
07130,1996-07-11 18:00:00,21,1023,-0.4,64,14,40000,22.224,,,20,14.2,23.7,,,,,,,,,wg-a,,,,AAXX 11184 07130 12/82 10212 10210 20140 30179 40230 55004 60006 81040 91800 333 10237 20142=
07130,1996-07-11 21:00:00,15,1024.2,1.1,88,13,40000,11.112,,,10,,,,,,,,,,,wg-a,,,,AAXX 11214 07130 12/82 10106 10150 20130 30190 40242 51011 60006 81040 92100=
07130,1996-07-12 00:00:00,13,1023.4,-0.8,88,11,40000,3.704,,,270,,,,,,,,,,,wg-a,,,,AAXX 12004 07130 12/82 /2702 10130 20110 30182 40234 58008 60006 8///0 90000=
07130,1996-07-12 03:00:00,11,1022.2,-1.2,94,10,15000,3.704,,,250,,,,,,,,,,,wg-a,,,,AAXX 12034 07130 12565 52502 10110 20100 30170 40222 58012 60006 82502 90300=
07130,1996-07-12 06:00:00,13,1022.5,0.3,100,13,6000,7.408,,,300,10.1,21.3,,,,,,,,,wg-a,,,,AAXX 12064 07130 02/56 /3004 10130 20130 30173 40225 52003 61000 90600 333 10213 20101 6100=
07130,1996-07-12 09:00:00,15,1023.1,0.6,88,13,12000,18.52,,,320,,,,,,,,,,1,wg-a,,,,AAXX 12094 07130 02462 73210 10150 20130 30179 40231 53006 61000 70152 875// 90900 333 ////=
07130,1996-07-12 12:00:00,19,1022.3,-0.7,68,13,20000,11.112,,,20,,,,,,,,,,1,wg-a,,,,AAXX 12124 07130 02570 70206 10190 20130 30172 40223 56007 61000 70152 878// 91200 333 ////=
07130,1996-07-12 15:00:00,22,1021.2,-1,53,12,25000,7.408,,,330,,,,,,,,,,,wg-a,,,,AAXX 12154 07130 12675 73304 10220 20120 30162 40212 58010 60006 81108 91500=
07130,1996-07-12 18:00:00,21,1021.3,-0,64,14,15000,14.816,,,40,13.1,22.6,,,,,,,,,wg-a,,,,AAXX 12184 07130 32765 60408 10210 20140 30162 40213 55000 855/2 91800 333 10226 20131=
07130,1996-07-12 21:00:00,18,1022.4,1.1,83,15,11000,11.112,,,30,,,,,,,,,,,wg-a,,,,AAXX 12214 07130 12/61 /0306 10180 20150 30173 40224 53011 60006 92100=
07130,1996-07-13 00:00:00,17,1022.3,-0.1,82,14,0,3.704,,,100,,,,,,,,,,,wg-a,,,,AAXX 13004 07130 12/// /1002 10170 20140 30172 40223 58001 60006 90000=
07130,1996-07-13 03:00:00,17,1021.9,-0.4,82,14,20000,3.704,,,260,,,,,,,,,,,wg-a,,,,AAXX 13034 07130 12570 82602 10170 20140 30168 40219 56004 60006 875// 90300=
07130,1996-07-13 06:00:00,17,1022.6,0.7,88,15,15000,7.408,,,290,16.7,21,,,,,,,,,wg-a,,,,AAXX 13064 07130 02565 72904 10170 20150 30175 40226 53007 60006 875// 90600 333 10210 20167 61000=
07130,1996-07-13 09:00:00,19,1023.2,0.6,83,16,20000,3.704,,,300,,,,,,,,,,20,wg-a,,,,AAXX 13094 07130 02470 73002 10190 20160 30181 40232 51006 61000 72052 875// 90900 333 ////=
07130,1996-07-13 12:00:00,21,1023.8,0.6,73,16,20000,7.408,,,310,,,,,,,,,,1,wg-a,,,,AAXX 13124 07130 02570 73104 10210 20160 30187 40238 51006 61000 70152 875// 91200 333 ////=
07130,1996-07-13 15:00:00,22,1024.2,0.5,73,17,11000,7.408,,,310,,,,,,,,,,,wg-a,,,,AAXX 13154 07130 12/61 /3104 10220 20170 30192 40242 52005 60006 91500=
07130,1996-07-13 18:00:00,23,1023.7,-0.5,69,17,500,0,,,0,17,23.1,,,,,,,,,wg-a,,,,AAXX 13184 07130 32500 /0000 10230 20170 30187 40237 56005 86800 91800 333 10231 20170=
07130,1996-07-13 21:00:00,18,1025,1.2,88,16,20000,14.816,,,40,,,,,,,,,,,wg-a,,,,AAXX 13214 07130 12670 /0408 10180 20160 30199 40250 53012 60006 81500 92100=
07130,1996-07-14 00:00:00,17,1026,0.9,88,15,15000,3.704,,,30,,,,,,,,,,,wg-a,,,,AAXX 14004 07130 12465 70302 10170 20150 30208 40260 51009 60006 875// 90000=
07130,1996-07-14 03:00:00,17,1026.2,0.3,88,15,12000,7.408,,,40,,,,,,,,,,,wg-a,,,,AAXX 14034 07130 12462 80404 10170 20150 30211 40262 51003 60006 885// 90300=
07130,1996-07-14 06:00:00,17,1027.1,0.9,88,15,12000,11.112,,,40,16.3,22.9,,,,,,,,,wg-a,,,,AAXX 14064 07130 02362 80406 10170 20150 30220 40271 52009 60006 885// 90600 333 10229 20163 61000=
07130,1996-07-14 09:00:00,19,1028,0.9,83,16,15000,7.408,,,30,,,,,,,,,,,wg-a,,,,AAXX 14094 07130 12465 70304 10190 20160 30229 40280 51009 60006 875// 90900=
07130,1996-07-14 12:00:00,23,1027.2,-0.7,61,15,500,7.408,,,350,,,,,,,,,,,wg-a,,,,AAXX 14124 07130 12500 33504 10230 20150 30222 40272 58007 60006 83101 91200=
07130,1996-07-14 15:00:00,26,1026.5,-0.7,51,15,35000,11.112,,,350,,,,,,,,,,,wg-a,,,,AAXX 14154 07130 12681 /3506 10260 20150 30215 40265 56007 60006 81101 91500=
07130,1996-07-14 18:00:00,24,1026.5,-0,65,17,40000,22.224,,,20,17,26.5,,,,,,,,,wg-a,,,,AAXX 14184 07130 12682 20212 10240 20170 30215 40265 55000 60006 81101 91800 333 10265 20170=
07130,1996-07-14 21:00:00,19,1027.1,0.5,83,16,40000,14.816,,,20,,,,,,,,,,,wg-a,,,,AAXX 14214 07130 12/82 10208 10190 20160 30220 40271 52005 60006 80001 92100=
07130,1996-07-15 00:00:00,16,1027.3,0.1,94,15,8000,11.112,,,350,,,,,,,,,,,wg-a,,,,AAXX 15004 07130 12258 23506 10160 20150 30221 40273 50001 60006 82600 90000=
07130,1996-07-15 03:00:00,17,1026.7,-0.5,94,16,6000,7.408,,,10,,,,,,,,,,,wg-a,,,,AAXX 15034 07130 12256 40104 10170 20160 30216 40267 57005 60006 84500 90300=
07130,1996-07-15 06:00:00,18,1027.1,0.4,88,16,6000,11.112,,,20,15.8,24,,,,,,,,,wg-a,,,,AAXX 15064 07130 02356 80206 10180 20160 30220 40271 53004 60006 885// 90600 333 10240 20158 60004=
07130,1996-07-15 09:00:00,20,1027.3,0.2,83,17,10000,11.112,,,30,,,,,,,,,,,wg-a,,,,AAXX 15094 07130 12460 70306 10200 20170 30222 40273 50002 60006 87700 90900=
07130,1996-07-15 12:00:00,24,1026.3,-0.9,69,18,11000,14.816,,,60,,,,,,,,,,,wg-a,,,,AAXX 15124 07130 12/61 /0608 10240 20180 30213 40263 58009 60006 91200=
07130,1996-07-15 15:00:00,27,1024.9,-1.4,54,17,500,14.816,,,30,,,,,,,,,,,wg-a,,,,AAXX 15154 07130 12600 /0308 10270 20170 30199 40249 58014 60006 86800 91500=
07130,1996-07-15 18:00:00,27,1024.2,-0.7,48,15,500,18.52,,,70,17.7,28.8,,,,,,,,,wg-a,,,,AAXX 15184 07130 12600 40710 10270 20150 30192 40242 56007 60006 84800 91800 333 10288 20177=
07130,1996-07-15 21:00:00,22,1025.4,1.2,69,16,9000,22.224,,,50,,,,,,,,,,,wg-a,,,,AAXX 15214 07130 12/59 00512 10220 20160 30204 40254 53012 60006 80000 92100=
07130,1996-07-16 00:00:00,19,1026.6,1.1,78,15,10000,14.816,,,70,,,,,,,,,,,wg-a,,,,AAXX 16004 07130 12/60 00708 10190 20150 30215 40266 53011 60006 80000 90000=
07130,1996-07-16 03:00:00,17,1026.5,-0.2,77,13,12000,11.112,,,70,,,,,,,,,,,wg-a,,,,AAXX 16034 07130 12/62 00706 10170 20130 30213 40265 57002 60006 80000 90300=
07130,1996-07-16 06:00:00,15,1026.9,0.4,77,11,15000,18.52,,,70,15,27.5,,,,,,,,,wg-a,,,,AAXX 16064 07130 02/65 00710 10150 20110 30217 40269 53004 60006 80000 90600 333 10275 20150 60004=
07130,1996-07-16 09:00:00,21,1026.7,-0.1,53,11,15000,22.224,,,70,,,,,,,,,,,wg-a,,,,AAXX 16094 07130 12/65 00712 10210 20110 30216 40267 58001 60006 80000 90900=
07130,1996-07-16 12:00:00,25,1025.6,-1,39,10,500,25.928,,,70,,,,,,,,,,,wg-a,,,,AAXX 16124 07130 12/00 00714 10250 20100 30206 40256 58010 60006 80000 91200=
07130,1996-07-16 15:00:00,27,1024.2,-1.4,34,10,500,25.928,,,60,,,,,,,,,,,wg-a,,,,AAXX 16154 07130 12/00 00614 10270 20100 30192 40242 58014 60006 80000 91500=
07130,1996-07-16 18:00:00,26,1023.3,-0.9,34,9,40000,22.224,,,70,15.4,27.5,,,,,,,,,wg-a,,,,AAXX 16184 07130 12/82 10712 10260 20090 30183 40233 56009 60006 80001 91800 333 10275 20154=
07130,1996-07-16 21:00:00,20,1024.3,0.9,60,12,20000,18.52,,,40,,,,,,,,,,,wg-a,,,,AAXX 16214 07130 12/70 20410 10200 20120 30192 40243 53009 60006 80001 92100=
07130,1996-07-17 00:00:00,17,1024.7,0.4,68,11,20000,14.816,,,50,,,,,,,,,,,wg-a,,,,AAXX 17004 07130 12/70 10508 10170 20110 30196 40247 51004 60006 80001 90000=
07130,1996-07-17 03:00:00,14,1024.5,-0.3,77,10,500,11.112,,,40,,,,,,,,,,,wg-a,,,,AAXX 17034 07130 12/00 10406 10140 20100 30193 40245 56003 60006 80001 90300=
07130,1996-07-17 06:00:00,15,1024.6,0.1,67,9,12000,14.816,,,80,12.9,26.3,,,,,,,,,wg-a,,,,AAXX 17064 07130 02/62 10808 10150 20090 30194 40246 53001 60006 80001 90600 333 10263 20129 60004=
07130,1996-07-17 09:00:00,22,1024.3,-0.2,46,10,20000,18.52,,,80,,,,,,,,,,,wg-a,,,,AAXX 17094 07130 12/70 00810 10220 20100 30192 40243 58002 60006 80000 90900=
07130,1996-07-17 12:00:00,26,1023.1,-1.1,34,9,10000,18.52,,,80,,,,,,,,,,,wg-a,,,,AAXX 17124 07130 12/60 /0810 10260 20090 30181 40231 58011 60006 91200=
07130,1996-07-17 15:00:00,29,1021.5,-1.5,29,9,35000,18.52,,,70,,,,,,,,,,,wg-a,,,,AAXX 17154 07130 32/81 00710 10290 20090 30166 40215 58015 80000 91500=
07130,1996-07-17 18:00:00,28,1020.7,-0.8,30,9,40000,22.224,,,60,15.3,29.2,,,,,,,,,wg-a,,,,AAXX 17184 07130 32/82 00612 10280 20090 30158 40207 56008 80000 91800 333 10292 20153=
07130,1996-07-17 21:00:00,22,1022.1,1.3,57,13,500,18.52,,,50,,,,,,,,,,,wg-a,,,,AAXX 17214 07130 12/00 00510 10220 20130 30171 40221 53013 60006 80000 92100=
07130,1996-07-18 00:00:00,19,1023.4,1.2,56,10,500,18.52,,,70,,,,,,,,,,,wg-a,,,,AAXX 18004 07130 12/00 00710 10190 20100 30183 40234 51012 60006 80000 90000=
07130,1996-07-18 03:00:00,16,1023.2,-0.3,63,9,500,7.408,,,80,,,,,,,,,,,wg-a,,,,AAXX 18034 07130 12/00 00804 10160 20090 30180 40232 58003 60006 80000 90300=
07130,1996-07-18 06:00:00,15,1023.6,0.4,72,10,500,7.408,,,40,13.8,28.2,,,,,,,,,wg-a,,,,AAXX 18064 07130 02/00 10404 10150 20100 30184 40236 53004 60006 80001 90600 333 10282 20138 60004=
07130,1996-07-18 09:00:00,23,1023.7,0.3,44,10,500,7.408,,,70,,,,,,,,,,,wg-a,,,,AAXX 18094 07130 12/00 20704 10230 20100 30187 40237 52003 60006 80001 90900=
07130,1996-07-18 12:00:00,27,1023.2,-0.5,32,9,500,18.52,,,70,,,,,,,,,,,wg-a,,,,AAXX 18124 07130 12/00 20710 10270 20090 30182 40232 56005 60006 80001 91200=
07130,1996-07-18 15:00:00,29,1022.2,-0.9,27,8,500,14.816,,,70,,,,,,,,,,,wg-a,,,,AAXX 18154 07130 12/00 00708 10290 20080 30173 40222 58009 60006 80000 91500=
07130,1996-07-18 18:00:00,28,1021.7,-0.5,25,6,500,14.816,,,80,15.2,29.6,,,,,,,,,wg-a,,,,AAXX 18184 07130 12/00 10808 10280 20060 30168 40217 56005 60006 80001 91800 333 10296 20152=
07130,1996-07-18 21:00:00,24,1022.9,1.1,38,9,500,14.816,,,50,,,,,,,,,,,wg-a,,,,AAXX 18214 07130 12/00 20508 10240 20090 30179 40229 53011 60006 80001 92100=
07130,1996-07-19 00:00:00,19,1023.9,0.9,52,9,20000,11.112,,,80,,,,,,,,,,,wg-a,,,,AAXX 19004 07130 12/70 20806 10190 20090 30188 40239 51009 60006 80001 90000=
07130,1996-07-19 03:00:00,16,1023.9,-0.1,63,9,20000,7.408,,,90,,,,,,,,,,,wg-a,,,,AAXX 19034 07130 12/70 20904 10160 20090 30187 40239 58001 60006 80001 90300=
07130,1996-07-19 06:00:00,15,1024.4,0.5,67,9,20000,3.704,,,90,14.8,28.5,,,,,,,,,wg-a,,,,AAXX 19064 07130 02/70 30902 10150 20090 30192 40244 52005 60006 80001 90600 333 10285 20148 60004=
07130,1996-07-19 09:00:00,23,1024,-0.2,44,10,20000,11.112,,,100,,,,,,,,,,,wg-a,,,,AAXX 19094 07130 12/70 31006 10230 20100 30190 40240 58002 60006 80002 90900=
07130,1996-07-19 12:00:00,27,1023.2,-0.8,24,5,20000,14.816,,,100,,,,,,,,,,,wg-a,,,,AAXX 19124 07130 12/70 21008 10270 20050 30182 40232 58008 60006 80002 91200=
07130,1996-07-19 15:00:00,30,1022,-1.1,22,6,25000,7.408,,,80,,,,,,,,,,,wg-a,,,,AAXX 19154 07130 12/75 10804 10300 20060 30171 40220 58011 60006 80002 91500=
07130,1996-07-19 18:00:00,29,1021.6,-0.4,23,6,35000,11.112,,,110,15.2,29.7,,,,,,,,,wg-a,,,,AAXX 19184 07130 12/81 11106 10290 20060 30167 40216 56004 60006 80002 91800 333 10297 20152=
07130,1996-07-19 21:00:00,23,1022.3,0.6,53,13,500,11.112,,,40,,,,,,,,,,,wg-a,,,,AAXX 19214 07130 12/00 30406 10230 20130 30173 40223 53006 60006 80001 92100=
07130,1996-07-20 00:00:00,19,1022.5,0.1,68,13,20000,0,,,0,,,,,,,,,,,wg-a,,,,AAXX 20004 07130 12/70 40000 10190 20130 30174 40225 51001 60006 80001 90000=
07130,1996-07-20 03:00:00,15,1022.3,-0.3,88,13,15000,0,,,0,,,,,,,,,,,wg-a,,,,AAXX 20034 07130 12/65 10000 10150 20130 30171 40223 57003 60006 80001 90300=
07130,1996-07-20 06:00:00,14,1023,0.7,94,13,12000,0,,,0,13.5,29.1,,,,,,,,,wg-a,,,,AAXX 20064 07130 02/62 10000 10140 20130 30178 40230 53007 60006 80001 90600 333 10291 20135 60004=
07130,1996-07-20 12:00:00,29,1022.2,-0.6,27,8,25000,7.408,,,40,,,,,,,,,,,wg-a,,,,AAXX 20124 07130 12/75 10404 10290 20080 30173 40222 58006 60006 80001 91200=
07130,1996-07-20 15:00:00,31,1021.7,-0.5,22,7,500,7.408,,,180,,,,,,,,,,,wg-a,,,,AAXX 20154 07130 12/00 11804 10310 20070 30168 40217 58005 60006 80001 91500=
07130,1996-07-20 18:00:00,30,1021,-0.7,24,7,35000,3.704,,,340,14.2,31.1,,,,,,,,,wg-a,,,,AAXX 20184 07130 12781 13402 10300 20070 30161 40210 56007 60006 81100 91800 333 10311 20142=
07130,1996-07-20 21:00:00,23,1022.2,1.1,50,12,500,14.816,,,10,,,,,,,,,,,wg-a,,,,AAXX 20214 07130 12/00 10108 10230 20120 30172 40222 53011 60006 80001 92100=
07130,1996-07-21 00:00:00,17,1022.6,0.3,77,13,10000,7.408,,,300,,,,,,,,,,,wg-a,,,,AAXX 21004 07130 12/60 /3004 10170 20130 30175 40226 50003 60006 90000=
07130,1996-07-21 03:00:00,15,1021.7,-1,88,13,15000,3.704,,,280,,,,,,,,,,,wg-a,,,,AAXX 21034 07130 12/65 02802 10150 20130 30165 40217 56010 60006 80000 90300=
07130,1996-07-21 06:00:00,15,1022,0.3,94,14,500,0,,,0,13.8,30.3,,,,,,,,,wg-a,,,,AAXX 21064 07130 02/00 20000 10150 20140 30168 40220 52003 60006 80001 90600 333 10303 20138 60004=
07130,1996-07-21 09:00:00,25,1021.8,0,44,12,15000,3.704,,,160,,,,,,,,,,,wg-a,,,,AAXX 21094 07130 12/65 21602 10250 20120 30168 40218 50000 60006 80001 90900=
07130,1996-07-21 12:00:00,31,1020.5,-1.2,24,8,25000,7.408,,,100,,,,,,,,,,,wg-a,,,,AAXX 21124 07130 12/75 11004 10310 20080 30156 40205 57012 60006 80001 91200=
07130,1996-07-21 15:00:00,32,1019.2,-1.3,21,7,500,14.816,,,120,,,,,,,,,,,wg-a,,,,AAXX 21154 07130 12800 11208 10320 20070 30143 40192 56013 60006 81100 91500=
07130,1996-07-21 18:00:00,31,1018,-1.2,22,7,500,11.112,,,130,14.8,32.4,,,,,,,,,wg-a,,,,AAXX 21184 07130 12/00 01306 10310 20070 30131 40180 56012 60006 80000 91800 333 10324 20148=
07130,1996-07-21 21:00:00,26,1018,-0.1,34,9,500,11.112,,,120,,,,,,,,,,,wg-a,,,,AAXX 21214 07130 12/00 01206 10260 20090 30130 40180 58001 60006 80000 92100=
07130,1996-07-22 00:00:00,21,1023.4,0.1,46,9,25000,3.704,,,130,,,,,,,,,,,wg-a,,,,AAXX 22004 07130 12/75 01302 10210 20090 40234 50001 60006 80000 90000=
07130,1996-07-22 03:00:00,18,1017.4,-0.3,56,9,25000,3.704,,,100,,,,,,,,,,,wg-a,,,,AAXX 22034 07130 12/75 01002 10180 20090 30123 40174 55003 60006 80000 90300=
07130,1996-07-22 06:00:00,18,1017,-0.4,56,9,20000,11.112,,,120,17.2,31,,,,,,,,,wg-a,,,,AAXX 22064 07130 02/70 01206 10180 20090 30119 40170 58004 60006 80000 90600 333 10310 20172 60004=
07130,1996-07-22 09:00:00,27,1015.4,-1.4,32,9,25000,18.52,,,130,,,,,,,,,,,wg-a,,,,AAXX 22094 07130 12/75 01310 10270 20090 30105 40154 58014 60006 80000 90900=
07130,1996-07-22 12:00:00,32,1013.5,-1.8,20,6,500,14.816,,,130,,,,,,,,,,,wg-a,,,,AAXX 22124 07130 12/00 11308 10320 20060 30087 40135 58018 60006 80001 91200=
07130,1996-07-22 15:00:00,34,1011.6,-1.9,19,7,35000,18.52,,,200,,,,,,,,,,,wg-a,,,,AAXX 22154 07130 12/81 12010 10340 20070 30068 40116 58019 60006 81030 91500=
07130,1996-07-22 18:00:00,34,1010.2,-1.4,22,9,35000,11.112,,,180,18.1,34.3,,,,,,,,,wg-a,,,,AAXX 22184 07130 12/81 11806 10340 20090 30054 40102 56014 60006 81040 91800 333 10343 20181=
07130,1996-07-22 21:00:00,26,1010.8,0.5,51,15,500,14.816,,,220,,,,,,,,,,,wg-a,,,,AAXX 22214 07130 12/00 12208 10260 20150 30059 40108 53005 60006 81040 92100=
07130,1996-07-23 00:00:00,21,1011.3,0.4,78,17,20000,14.816,,,240,,,,,,,,,,,wg-a,,,,AAXX 23004 07130 12/70 02408 10210 20170 30063 40113 53004 60006 80000 90000=
07130,1996-07-23 03:00:00,18,1012.3,0.9,94,17,9000,11.112,,,230,,,,,,,,,,,wg-a,,,,AAXX 23034 07130 12/59 02306 10180 20170 30072 40123 53009 60006 80000 90300=
07130,1996-07-23 06:00:00,17,1013.6,1.3,82,14,7000,7.408,,,230,16.4,33.7,,,,,,,,,wg-a,,,,AAXX 23064 07130 02/57 /2304 10170 20140 30085 40136 53013 60006 80001 90600 333 10337 20164 60004=
07130,1996-07-23 09:00:00,21,1014.4,0.9,53,11,20000,11.112,,,280,,,,,,,,,,,wg-a,,,,AAXX 23094 07130 12/70 42806 10210 20110 30094 40144 51009 60006 80002 90900=
07130,1996-07-23 12:00:00,26,1013.9,-0.4,39,11,11000,18.52,,,280,,,,,,,,,,,wg-a,,,,AAXX 23124 07130 12/61 /2810 10260 20110 30090 40139 58004 60006 91200=
07130,1996-07-23 15:00:00,26,1013.4,-0.5,45,13,500,18.52,,,300,,,,,,,,,,,wg-a,,,,AAXX 23154 07130 12700 53010 10260 20130 30085 40134 55005 60006 85200 91500=
07130,1996-07-23 18:00:00,23,1014.6,1.1,57,14,500,18.52,,,20,16.6,28.2,,,,,,,,,wg-a,,,,AAXX 23184 07130 12600 60210 10230 20140 30096 40146 53011 60006 85801 91800 333 10282 20166=
07130,1996-07-23 21:00:00,19,1016.8,2.1,73,14,25000,11.112,,,10,,,,,,,,,,,wg-a,,,,AAXX 23214 07130 12675 /0106 10190 20140 30117 40168 53021 60006 85502 92100=
07130,1996-07-24 00:00:00,15,1017.2,0.4,82,12,25000,7.408,,,280,,,,,,,,,,,wg-a,,,,AAXX 24004 07130 12675 22804 10150 20120 30121 40172 51004 60006 82500 90000=
07130,1996-07-24 03:00:00,15,1017.5,0.3,88,13,20000,7.408,,,280,,,,,,,,,,,wg-a,,,,AAXX 24034 07130 12470 32804 10150 20130 30124 40175 50003 60006 83500 90300=
07130,1996-07-24 06:00:00,16,1018,0.5,88,14,15000,11.112,,,290,14.2,22.7,,,,,,,,,wg-a,,,,AAXX 24064 07130 02465 72906 10160 20140 30129 40180 53005 60006 87500 90600 333 10227 20142 60004=
07130,1996-07-24 09:00:00,20,1019.3,1.3,68,14,20000,18.52,,,320,,,,,,,,,,,wg-a,,,,AAXX 24094 07130 12570 /3210 10200 20140 30142 40193 51013 60006 86200 90900=
07130,1996-07-24 12:00:00,22,1019.1,-0.1,53,12,25000,18.52,,,340,,,,,,,,,,,wg-a,,,,AAXX 24124 07130 12675 53410 10220 20120 30141 40191 58001 60006 85800 91200=
07130,1996-07-24 15:00:00,23,1019.4,0.3,53,13,25000,22.224,,,350,,,,,,,,,,,wg-a,,,,AAXX 24154 07130 12675 33512 10230 20130 30144 40194 53003 60006 83100 91500=
07130,1996-07-24 18:00:00,20,1020.3,0.8,56,11,35000,22.224,,,10,16,23.2,,,,,,,,,wg-a,,,,AAXX 24184 07130 12681 20112 10200 20110 30152 40203 51008 60006 82100 91800 333 10232 20160=
07130,1996-07-24 21:00:00,16,1021.7,1.4,72,11,25000,7.408,,,350,,,,,,,,,,,wg-a,,,,AAXX 24214 07130 12/75 13504 10160 20110 30166 40217 52014 60006 80001 92100=
07130,1996-07-25 00:00:00,13,1022.4,0.6,88,11,25000,7.408,,,270,,,,,,,,,,,wg-a,,,,AAXX 25004 07130 12/75 02704 10130 20110 30172 40224 51006 60006 80000 90000=
07130,1996-07-25 03:00:00,12,1022.5,0.1,94,11,15000,11.112,,,330,,,,,,,,,,,wg-a,,,,AAXX 25034 07130 12/65 03306 10120 20110 30173 40225 53001 60006 80000 90300=
07130,1996-07-25 06:00:00,13,1022.8,0.3,94,12,10000,3.704,,,340,11.1,20,,,,,,,,,wg-a,,,,AAXX 25064 07130 02/60 13402 10130 20120 30176 40228 53003 60006 80002 90600 333 10200 20111 60004=
07130,1996-07-25 09:00:00,21,1022.7,0,53,11,11000,11.112,,,70,,,,,,,,,,,wg-a,,,,AAXX 25094 07130 12/61 /0706 10210 20110 30176 40227 50000 60006 90900=
07130,1996-07-25 12:00:00,25,1022.4,-0.2,36,9,500,11.112,,,110,,,,,,,,,,,wg-a,,,,AAXX 25124 07130 12700 51106 10250 20090 30174 40224 57002 60006 83102 91200=
07130,1996-07-25 15:00:00,26,1020.9,-1.5,34,9,500,14.816,,,60,,,,,,,,,,,wg-a,,,,AAXX 25154 07130 12700 30608 10260 20090 30159 40209 56015 60006 81102 91500=
07130,1996-07-25 18:00:00,24,1019.8,-1.1,47,12,500,25.928,,,20,12.6,26.8,,,,,,,,,wg-a,,,,AAXX 25184 07130 12/00 10214 10240 20120 30148 40198 55011 60006 80002 91800 333 10268 20126=
07130,1996-07-25 21:00:00,20,1021.9,2,56,11,500,18.52,,,40,,,,,,,,,,,wg-a,,,,AAXX 25214 07130 12/00 10410 10200 20110 30168 40219 53020 60006 80002 92100=
07130,1996-07-26 00:00:00,17,1021.7,-0.2,68,11,20000,11.112,,,30,,,,,,,,,,,wg-a,,,,AAXX 26004 07130 12/70 00306 10170 20110 30166 40217 58002 60006 80000 90000=
07130,1996-07-26 03:00:00,14,1021.4,-0.4,82,11,20000,11.112,,,10,,,,,,,,,,,wg-a,,,,AAXX 26034 07130 12/70 00106 10140 20110 30162 40214 55004 60006 80000 90300=
07130,1996-07-26 06:00:00,14,1022,0.6,82,11,10000,7.408,,,350,12.4,23.8,,,,,,,,,wg-a,,,,AAXX 26064 07130 02/60 33504 10140 20110 30168 40220 53006 60006 80002 90600 333 10238 20124 60004=
07130,1996-07-26 09:00:00,20,1022.1,0.2,64,13,12000,14.816,,,40,,,,,,,,,,,wg-a,,,,AAXX 26094 07130 12/62 20408 10200 20130 30170 40221 50002 60006 80001 90900=
07130,1996-07-26 12:00:00,26,1020.8,-1.2,42,12,25000,18.52,,,50,,,,,,,,,,,wg-a,,,,AAXX 26124 07130 12/75 30510 10260 20120 30158 40208 57012 60006 80002 91200=
07130,1996-07-26 15:00:00,28,1019.5,-1.2,35,11,500,18.52,,,30,,,,,,,,,,,wg-a,,,,AAXX 26154 07130 12700 30310 10280 20110 30146 40195 57012 60006 81102 91500=
07130,1996-07-26 18:00:00,24,1019.7,0.1,47,12,0,29.632,,,10,13.6,28.1,,,,,,,,,wg-a,,,,AAXX 26184 07130 12/// /0116 10240 20120 30147 40197 51001 60006 91800 333 10281 20136=
07130,1996-07-27 00:00:00,17,1021.4,-0,77,13,20000,7.408,,,20,,,,,,,,,,,wg-a,,,,AAXX 27004 07130 12/70 00204 10170 20130 30163 40214 55000 60006 80000 90000=
07130,1996-07-27 03:00:00,15,1020.6,-0.9,88,13,15000,11.112,,,350,,,,,,,,,,,wg-a,,,,AAXX 27034 07130 12/65 03506 10150 20130 30154 40206 57009 60006 80000 90300=
07130,1996-07-27 06:00:00,16,1020.8,0.3,100,16,500,7.408,,,10,14.2,24.3,,,,,,,,,wg-a,,,,AAXX 27064 07130 02200 70104 10160 20160 30157 40208 50003 60006 875// 90600 333 10243 20142 60004=
07130,1996-07-27 09:00:00,19,1021.4,0.6,83,16,13000,18.52,,,360,,,,,,,,,,,wg-a,,,,AAXX 27094 07130 12363 73610 10190 20160 30163 40214 53006 60006 875// 90900=
07130,1996-07-27 12:00:00,22,1020.8,-0.5,69,16,500,18.52,,,10,,,,,,,,,,,wg-a,,,,AAXX 27124 07130 12500 60110 10220 20160 30158 40208 58005 60006 83101 91200=
07130,1996-07-27 15:00:00,24,1019.8,-1,61,16,40000,22.224,,,340,,,,,,,,,,,wg-a,,,,AAXX 27154 07130 12682 73412 10240 20160 30148 40198 56010 60006 878// 91500=
07130,1996-07-27 18:00:00,22,1019.9,0.1,69,16,40000,22.224,,,10,16.4,24.7,,,,,,,,,wg-a,,,,AAXX 27184 07130 12582 50112 10220 20160 30149 40199 53001 60006 84801 91800 333 10247 20164=
07130,1996-07-27 21:00:00,18,1021.7,1.7,83,15,35000,11.112,,,20,,,,,,,,,,,wg-a,,,,AAXX 27214 07130 12/81 10206 10180 20150 30166 40217 53017 60006 81030 92100=
07130,1996-07-28 00:00:00,15,1021.4,-0.4,88,13,500,7.408,,,320,,,,,,,,,,,wg-a,,,,AAXX 28004 07130 12/00 03204 10150 20130 30162 40214 58004 60006 80000 90000=
07130,1996-07-28 03:00:00,13,1020.6,-0.8,94,12,12000,11.112,,,310,,,,,,,,,,,wg-a,,,,AAXX 28034 07130 12/62 03106 10130 20120 30154 40206 56008 60006 80000 90300=
07130,1996-07-28 06:00:00,14,1021,0.4,94,13,10000,7.408,,,340,13,22.2,,,,,,,,,wg-a,,,,AAXX 28064 07130 02260 /3404 10140 20130 30158 40210 53004 60006 86601 90600 333 10222 20130 60004=
07130,1996-07-28 09:00:00,19,1020.8,-0.1,73,14,15000,7.408,,,350,,,,,,,,,,,wg-a,,,,AAXX 28094 07130 12565 43504 10190 20140 30157 40208 58001 60006 83201 90900=
07130,1996-07-28 12:00:00,23,1020,-0.7,57,14,20000,11.112,,,300,,,,,,,,,,,wg-a,,,,AAXX 28124 07130 12670 73006 10230 20140 30150 40200 58007 60006 87200 91200=
07130,1996-07-28 15:00:00,23,1019.2,-0.8,53,13,20000,14.816,,,280,,,,,,,,,,,wg-a,,,,AAXX 28154 07130 12570 72808 10230 20130 30142 40192 58008 60006 87800 91500=
07130,1996-07-28 18:00:00,23,1018,-1.2,53,13,500,14.816,,,250,14.4,24.6,,,,,,,,,wg-a,,,,AAXX 28184 07130 12600 /2508 10230 20130 30130 40180 56012 60006 83802 91800 333 10246 20144=
07130,1996-07-28 21:00:00,19,1018.9,0.8,78,15,500,7.408,,,330,,,,,,,,,,,wg-a,,,,AAXX 28214 07130 12700 43304 10190 20150 30138 40189 51008 60006 835/2 92100=
07130,1996-07-29 00:00:00,17,1018,-0.9,88,15,500,3.704,,,220,,,,,,,,,,,wg-a,,,,AAXX 29004 07130 12700 72202 10170 20150 30129 40180 58009 60006 85552 90000=
07130,1996-07-29 03:00:00,18,1016.7,-1.3,88,16,25000,11.112,,,200,,,,,,,,,,,wg-a,,,,AAXX 29034 07130 12775 72006 10180 20160 30116 40167 58013 60006 8551/ 90300=
07130,1996-07-29 06:00:00,18,1016.6,-0.1,88,16,15000,14.816,,,210,17,23.3,,,,,,,,,wg-a,,,,AAXX 29064 07130 02365 82108 10180 20160 30115 40166 57001 60006 875// 90600 333 10233 20170 60004=
07130,1996-07-29 09:00:00,19,1016.5,0,88,17,25000,11.112,,,250,,,,0,,,,,,21,wg-a,,,,AAXX 29094 07130 12475 72506 10190 20170 30115 40165 50000 60007 72165 878// 90900=
07130,1996-07-29 12:00:00,24,1015.6,-0.9,50,13,35000,14.816,,,260,,,,,,,,,,1,wg-a,,,,AAXX 29124 07130 12681 /2608 10240 20130 30106 40156 58009 60016 70165 86200 91200=
07130,1996-07-29 15:00:00,26,1015,-0.5,45,13,35000,18.52,,,270,,,,,,,,,,15,wg-a,,,,AAXX 29154 07130 12681 /2710 10260 20130 30101 40150 58005 60006 71522 86200 91500=
07130,1996-07-29 18:00:00,22,1015.5,0.4,73,17,500,11.112,,,20,17.5,26.2,,,,,,,,15,wg-a,,,,AAXX 29184 07130 32500 70206 10220 20170 30105 40155 52004 71522 878// 91800 333 10262 20175=
07130,1996-07-29 21:00:00,19,1017.2,1.6,83,16,25000,11.112,,,20,,,,0,,,,,,3,wg-a,,,,AAXX 29214 07130 12575 70206 10190 20160 30121 40172 52016 60007 70386 875// 92100=
07130,1996-07-30 00:00:00,18,1017.7,0.5,83,15,500,3.704,,,350,,,,,,,,,,1,wg-a,,,,AAXX 30004 07130 12500 /3502 10180 20150 30126 40177 50005 60006 70186 86500 90000=
07130,1996-07-30 03:00:00,17,1018.3,0.6,88,15,15000,11.112,,,310,,,,,,,,,,,wg-a,,,,AAXX 30034 07130 12465 73106 10170 20150 30132 40183 51006 60006 878// 90300=
07130,1996-07-30 06:00:00,17,1018.8,0.5,88,15,10000,11.112,,,310,16.9,21.9,,,,,1,,,,wg-a,,,,AAXX 30064 07130 12660 83106 10170 20150 30137 40188 53005 60014 885// 90600 333 10219 20169=
07130,1996-07-30 09:00:00,19,1019.9,1.1,73,14,12000,14.816,,,320,,,,,,,,,,,wg-a,,,,AAXX 30094 07130 12462 73208 10190 20140 30148 40199 51011 60006 878// 90900=
07130,1996-07-30 12:00:00,21,1020.2,0.4,56,12,15000,7.408,,,280,,,,,,,,,,,wg-a,,,,AAXX 30124 07130 12565 72804 10210 20120 30152 40202 53004 60006 878// 91200=
07130,1996-07-30 18:00:00,24,1019.1,-0.4,50,13,15000,14.816,,,280,17.1,24.8,,,,,,,,,wg-a,,,,AAXX 30184 07130 12665 42808 10240 20130 30141 40191 57004 60006 84500 91800 333 10248 20171=
07130,1996-07-30 21:00:00,17,1020.6,1.4,77,13,15000,11.112,,,40,,,,,,,,,,,wg-a,,,,AAXX 30214 07130 12/65 00406 10170 20130 30155 40206 51014 60006 80000 92100=
07130,1996-07-31 00:00:00,14,1020.4,-0.3,88,12,0,3.704,,,230,,,,,,,,,,,wg-a,,,,AAXX 31004 07130 12/// /2302 10140 20120 30152 40204 58003 60006 90000=
07130,1996-07-31 03:00:00,12,1019.6,-0.8,94,11,15000,3.704,,,200,,,,,,,,,,,wg-a,,,,AAXX 31034 07130 12/65 02002 10120 20110 30144 40196 56008 60006 80000 90300=
07130,1996-07-31 06:00:00,13,1019.4,-0.2,88,11,20000,7.408,,,200,11.9,23.8,,,,,,,,,wg-a,,,,AAXX 31064 07130 02/70 12004 10130 20110 30142 40194 55002 60006 81030 90600 333 10238 20119 60004=
07130,1996-07-31 09:00:00,20,1019.3,0,73,15,25000,14.816,,,280,,,,,,,,,,,wg-a,,,,AAXX 31094 07130 12575 72808 10200 20150 30142 40193 50000 60006 878// 90900=
07130,1996-07-31 12:00:00,21,1019.1,-0.1,73,16,15000,18.52,,,300,,,,,,,,,,20,wg-a,,,,AAXX 31124 07130 02565 83010 10210 20160 30141 40191 58001 61000 72051 875// 91200 333 6100=
07130,1996-07-31 15:00:00,24,1018,-1.1,61,16,500,22.224,,,220,,,,,,,,,,,wg-a,,,,AAXX 31154 07130 12500 42212 10240 20160 30130 40180 58011 60006 84802 91500=
07130,1996-07-31 18:00:00,22,1017.7,-0.3,69,16,35000,14.816,,,260,12.6,23.9,,,,,,,,,wg-a,,,,AAXX 31184 07130 32581 72608 10220 20160 30127 40177 58003 878// 91800 333 10239 20126=
07130,1996-07-31 21:00:00,19,1018.5,0.7,88,17,25000,11.112,,,290,,,,,,,,,,25,wg-a,,,,AAXX 31214 07130 02475 82906 10190 20170 30134 40185 53007 61000 72522 875// 92100 333 ////=
07130,1996-08-01 00:00:00,17,1018.4,-0.1,88,15,20000,3.704,,,40,,,,,,,,,,,wg-a,,,,AAXX 01004 07130 12470 80402 10170 20150 30133 40184 58001 60006 875// 90000=
07130,1996-08-01 03:00:00,17,1017.8,-0.6,82,14,20000,3.704,,,30,,,,,,,,,,,wg-a,,,,AAXX 01034 07130 12470 70302 10170 20140 30127 40178 58006 60006 875// 90300=
07130,1996-08-01 06:00:00,17,1018.4,0.6,88,15,25000,7.408,,,330,16.5,22.4,,,,,,,,,wg-a,,,,AAXX 01064 07130 02475 73304 10170 20150 30133 40184 53006 61000 875// 90600 333 10224 20165 ////=
07130,1996-08-01 09:00:00,20,1019,0.6,56,11,500,14.816,,,320,,,,,,,,,,,wg-a,,,,AAXX 01094 07130 12500 73208 10200 20110 30139 40190 51006 60006 878// 90900=
07130,1996-08-01 12:00:00,22,1019,0.1,46,10,40000,22.224,,,310,,,,,,,,,,,wg-a,,,,AAXX 01124 07130 12682 53112 10220 20100 30140 40190 53001 60006 84802 91200=
07130,1996-08-01 15:00:00,22,1019.1,0.1,46,10,35000,18.52,,,310,,,,,,,,,,,wg-a,,,,AAXX 01154 07130 12781 73110 10220 20100 30141 40191 51001 60006 82532 91500=
07130,1996-08-01 18:00:00,21,1019.5,0.4,53,11,11000,14.816,,,20,16.8,22.8,,,,,,,,,wg-a,,,,AAXX 01184 07130 12/61 /0208 10210 20110 30145 40195 52004 60006 91800 333 10228 20168=
07130,1996-08-01 21:00:00,17,1021.5,1.9,72,12,40000,11.112,,,10,,,,,,,,,,,wg-a,,,,AAXX 01214 07130 12/82 40106 10170 20120 30164 40215 53019 60006 83032 92100=
07130,1996-08-02 00:00:00,14,1022.4,0.8,94,13,500,3.704,,,340,,,,,,,,,,,wg-a,,,,AAXX 02004 07130 12/00 43402 10140 20130 30172 40224 51008 60006 84030 90000=
07130,1996-08-02 03:00:00,14,1022.7,0.3,94,13,10000,3.704,,,310,,,,,,,,,,,wg-a,,,,AAXX 02034 07130 12/60 /3102 10140 20130 30175 40227 51003 60006 90300=
07130,1996-08-02 06:00:00,13,1023.9,1.2,100,13,12000,7.408,,,310,12.8,21.4,,,,,,,,,wg-a,,,,AAXX 02064 07130 02562 43104 10130 20130 30187 40239 52012 60006 81532 90600 333 10214 20128 60004=
07130,1996-08-02 09:00:00,18,1024.5,0.7,73,13,500,11.112,,,330,,,,,,,,,,,wg-a,,,,AAXX 02094 07130 12500 /3306 10180 20130 30194 40245 51007 60006 86100 90900=
07130,1996-08-02 12:00:00,19,1024.9,0.4,64,12,500,22.224,,,340,,,,,,,,,,,wg-a,,,,AAXX 02124 07130 12600 73412 10190 20120 30198 40249 51004 60006 878// 91200=
07130,1996-08-02 15:00:00,22,1024.7,-0.2,46,10,500,18.52,,,340,,,,,,,,,,,wg-a,,,,AAXX 02154 07130 12600 73410 10220 20100 30196 40247 55002 60006 878// 91500=
07130,1996-08-02 18:00:00,20,1025.3,0.6,49,9,40000,25.928,,,360,13.4,22.3,,,,,,,,,wg-a,,,,AAXX 02184 07130 12782 13614 10200 20090 30202 40253 53006 60006 81100 91800 333 10223 20134=
07130,1996-08-02 21:00:00,15,1026.7,1.3,77,11,35000,14.816,,,350,,,,,,,,,,,wg-a,,,,AAXX 02214 07130 12/81 03508 10150 20110 30215 40267 53013 60006 80000 92100=
07130,1996-08-03 00:00:00,11,1027.5,0.7,94,10,35000,7.408,,,300,,,,,,,,,,,wg-a,,,,AAXX 03004 07130 12781 13004 10110 20100 30222 40275 52007 60006 81500 90000=
07130,1996-08-03 03:00:00,10,1027.1,-0.4,100,10,500,3.704,,,300,,,,,,,,,,,wg-a,,,,AAXX 03034 07130 12/00 03002 10100 20100 30218 40271 55004 60006 80000 90300=
07130,1996-08-03 06:00:00,10,1027.7,0.6,100,10,12000,3.704,,,270,9.2,19.9,,,,,,,,,wg-a,,,,AAXX 03064 07130 02662 /2702 10100 20100 30224 40277 53006 60006 81500 90600 333 10199 20092 60004=
07130,1996-08-03 09:00:00,19,1027.5,-0,52,9,500,11.112,,,40,,,,,,,,,,,wg-a,,,,AAXX 03094 07130 12500 /0406 10190 20090 30224 40275 55000 60006 81100 90900=
07130,1996-08-03 12:00:00,23,1026.4,-1.1,44,10,500,14.816,,,40,,,,,,,,,,,wg-a,,,,AAXX 03124 07130 12600 /0408 10230 20100 30213 40264 58011 60006 85100 91200=
07130,1996-08-03 15:00:00,24,1025.2,-1.1,41,10,500,14.816,,,40,,,,,,,,,,,wg-a,,,,AAXX 03154 07130 12700 30408 10240 20100 30202 40252 57011 60006 83200 91500=
07130,1996-08-03 18:00:00,23,1024.4,-0.8,47,11,500,22.224,,,10,10.3,25.1,,,,,,,,,wg-a,,,,AAXX 03184 07130 12/00 00112 10230 20110 30194 40244 57008 60006 80000 91800 333 10251 20103=
07130,1996-08-03 21:00:00,19,1024.7,0.2,60,11,25000,14.816,,,40,,,,,,,,,,,wg-a,,,,AAXX 03214 07130 12/75 00408 10190 20110 30196 40247 52002 60006 80000 92100=
07130,1996-08-04 00:00:00,16,1024.2,-0.6,68,10,25000,7.408,,,30,,,,,,,,,,,wg-a,,,,AAXX 04004 07130 12/75 00304 10160 20100 30190 40242 58006 60006 80000 90000=
07130,1996-08-04 03:00:00,12,1022.7,-1.5,88,10,25000,3.704,,,30,,,,,,,,,,,wg-a,,,,AAXX 04034 07130 12/75 00302 10120 20100 30175 40227 56015 60006 80000 90300=
07130,1996-08-04 06:00:00,15,1021.9,-0.8,67,9,15000,7.408,,,100,11.9,22.9,,,,,,,,,wg-a,,,,AAXX 04064 07130 02/65 01004 10150 20090 30167 40219 56008 60006 80000 90600 333 10229 20119 60004=
07130,1996-08-04 09:00:00,23,1020.8,-0.9,41,9,20000,18.52,,,120,,,,,,,,,,,wg-a,,,,AAXX 04094 07130 12/70 01210 10230 20090 30158 40208 58009 60006 80000 90900=
07130,1996-08-04 12:00:00,26,1018.5,-2.3,30,7,20000,18.52,,,110,,,,,,,,,,,wg-a,,,,AAXX 04124 07130 12/70 01110 10260 20070 30135 40185 57023 60006 80000 91200=
07130,1996-08-04 18:00:00,27,1014.3,-1.6,28,7,25000,14.816,,,130,14.6,28.5,,,,,,,,,wg-a,,,,AAXX 04184 07130 12/75 51308 10270 20070 30094 40143 57016 60006 80001 91800 333 10285 20146=
07130,1996-08-04 21:00:00,23,1014.2,-0.2,41,9,25000,11.112,,,100,,,,,,,,,,,wg-a,,,,AAXX 04214 07130 12/75 51006 10230 20090 30092 40142 56002 60006 81031 92100=
07130,1996-08-05 00:00:00,19,1013.7,-0.6,52,9,25000,3.704,,,120,,,,,,,,,,,wg-a,,,,AAXX 05004 07130 12/75 11202 10190 20090 30086 40137 56006 60006 80001 90000=
07130,1996-08-05 03:00:00,17,1011.8,-1.9,59,9,25000,7.408,,,100,,,,,,,,,,,wg-a,,,,AAXX 05034 07130 12/75 01004 10170 20090 30067 40118 58019 60006 80000 90300=
07130,1996-08-05 06:00:00,14,1011.2,-0.6,82,11,12000,0,,,0,13.5,26.8,,,,,,,,,wg-a,,,,AAXX 05064 07130 02/62 30000 10140 20110 30061 40112 56006 60006 83031 90600 333 10268 20135 60004=
07130,1996-08-05 09:00:00,23,1010.6,-0.5,47,11,15000,7.408,,,130,,,,,,,,,,,wg-a,,,,AAXX 05094 07130 12/65 71304 10230 20110 30056 40106 58005 60006 86031 90900=
07130,1996-08-05 12:00:00,27,1009.3,-1.2,37,11,17000,22.224,,,200,,,,,,,,,,,wg-a,,,,AAXX 05124 07130 12767 72012 10270 20110 30044 40093 56012 60006 8217/ 91200=
07130,1996-08-05 15:00:00,24,1009.8,0.5,44,11,20000,14.816,,,190,,,,,,,,,,1,wg-a,,,,AAXX 05154 07130 02770 71908 10240 20110 30049 40098 50005 61000 70162 8257/ 91500 333 ////=
07130,1996-08-05 18:00:00,24,1009.2,-0.6,50,13,18000,18.52,,,250,14.3,28,,,,,,,,1,wg-a,,,,AAXX 05184 07130 32768 72510 10240 20130 30043 40092 55006 70162 8253/ 91800 333 10280 20143=
07130,1996-08-05 21:00:00,19,1010.7,1.4,83,16,10000,14.816,,,240,,,,,,,,,,,wg-a,,,,AAXX 05214 07130 12660 32408 10190 20160 30057 40107 52014 60006 8153/ 92100=
07130,1996-08-06 00:00:00,17,1011,0.2,88,15,10000,11.112,,,220,,,,,,,,,,,wg-a,,,,AAXX 06004 07130 12/60 /2206 10170 20150 30059 40110 53002 60006 90000=
07130,1996-08-06 03:00:00,17,1010.3,-0.7,94,16,10000,3.704,,,220,,,,,,,,,,,wg-a,,,,AAXX 06034 07130 12/60 32202 10170 20160 30052 40103 56007 60006 8303/ 90300=
07130,1996-08-06 06:00:00,17,1010.5,0.2,100,17,3000,11.112,,,240,15.7,24.1,,2,,,2,,,61,wg-a,,,,AAXX 06064 07130 02230 82406 10170 20170 30054 40105 53002 60024 76161 877// 90600 333 10241 20157 60027=
07130,1996-08-06 09:00:00,17,1012.5,2,77,13,40000,14.816,,,280,,,,1,,,,,,1,wg-a,,,,AAXX 06094 07130 12582 42808 10170 20130 30074 40125 51020 60017 70161 81142 90900=
07130,1996-08-06 12:00:00,22,1013.3,0.9,43,9,40000,18.52,,,300,,,,,,,,,,2,wg-a,,,,AAXX 06124 07130 12682 23010 10220 20090 30083 40133 51009 60016 70261 82102 91200=
07130,1996-08-06 15:00:00,23,1013.9,0.6,38,8,40000,22.224,,40.744,320,,,,,,,,,,,wg-a,,,,AAXX 06154 07130 12782 23212 10230 20080 30089 40139 53006 60006 82102 91500 333 91022=
07130,1996-08-06 18:00:00,20,1015.9,2,46,8,40000,22.224,,,340,16.1,23.6,,,,,,,,,wg-a,,,,AAXX 06184 07130 32/82 13412 10200 20080 30109 40159 53020 80001 91800 333 10236 20161=
07130,1996-08-06 21:00:00,15,1018.7,2.6,63,8,40000,11.112,,,340,,,,,,,,,,,wg-a,,,,AAXX 06214 07130 12/82 03406 10150 20080 30135 40187 53026 60006 80000 92100=
07130,1996-08-07 00:00:00,11,1019.3,0.6,76,7,25000,7.408,,,280,,,,,,,,,,,wg-a,,,,AAXX 07004 07130 12/75 02804 10110 20070 30141 40193 53006 60006 80000 90000=
07130,1996-08-07 03:00:00,10,1019.6,0.2,82,7,25000,3.704,,,300,,,,,,,,,,,wg-a,,,,AAXX 07034 07130 12/75 03002 10100 20070 30143 40196 50002 60006 80000 90300=
07130,1996-08-07 06:00:00,9,1020.5,0.9,93,8,500,0,,,0,8.4,20,,,,,1,,,,wg-a,,,,AAXX 07064 07130 02/00 00000 10090 20080 30152 40205 53009 60006 80000 90600 333 10200 20084 60014=
07130,1996-08-07 09:00:00,17,1020.7,0.4,59,9,40000,11.112,,,340,,,,,,,,,,,wg-a,,,,AAXX 07094 07130 12582 33406 10170 20090 30156 40207 51004 60006 83200 90900=
07130,1996-08-07 12:00:00,20,1020.3,-0.4,43,7,40000,11.112,,,350,,,,,,,,,,,wg-a,,,,AAXX 07124 07130 12682 33506 10200 20070 30152 40203 58004 60006 83101 91200=
07130,1996-08-07 15:00:00,23,1018.9,-1.3,38,8,40000,11.112,,,330,,,,,,,,,,,wg-a,,,,AAXX 07154 07130 12782 23306 10230 20080 30139 40189 57013 60006 82101 91500=
07130,1996-08-07 18:00:00,20,1018.4,-0.6,53,10,40000,22.224,,,50,8.9,23.7,,,,,,,,,wg-a,,,,AAXX 07184 07130 12/82 10512 10200 20100 30133 40184 56006 60006 80001 91800 333 10237 20089=
07130,1996-08-07 21:00:00,16,1019.1,0.7,68,10,500,11.112,,,40,,,,,,,,,,,wg-a,,,,AAXX 07214 07130 12/00 10406 10160 20100 30140 40191 51007 60006 80001 92100=
07130,1996-08-08 00:00:00,13,1018.7,-0.5,82,10,10000,7.408,,,10,,,,,,,,,,,wg-a,,,,AAXX 08004 07130 12/60 /0104 10130 20100 30135 40187 58005 60006 90000=
07130,1996-08-08 03:00:00,11,1017.5,-1.2,94,10,20000,0,,,0,,,,,,,,,,,wg-a,,,,AAXX 08034 07130 12/70 00000 10110 20100 30123 40175 56012 60006 80000 90300=
07130,1996-08-08 06:00:00,10,1016.9,-0.6,93,9,15000,0,,,0,9.2,20.4,,,,,,,,3,wg-a,,,,AAXX 08064 07130 02/65 30000 10100 20090 30117 40169 57006 60006 70340 81031 90600 333 10204 20092 60004=
07130,1996-08-08 09:00:00,19,1016.2,-0.6,56,10,20000,11.112,,,180,,,,,,,,,,,wg-a,,,,AAXX 08094 07130 12/70 61806 10190 20100 30111 40162 56006 60006 81031 90900=
07130,1996-08-08 12:00:00,25,1015.2,-0.9,32,7,40000,18.52,,,210,,,,,,,,,,,wg-a,,,,AAXX 08124 07130 12/82 22110 10250 20070 30102 40152 57009 60006 80001 91200=
07130,1996-08-08 15:00:00,27,1013.6,-1.5,32,9,40000,14.816,,,240,,,,,,,,,,,wg-a,,,,AAXX 08154 07130 12/82 62408 10270 20090 30087 40136 58015 60006 82031 91500=
07130,1996-08-08 18:00:00,24,1014.1,0.4,38,9,40000,14.816,,,240,9.8,27,,,,,,,,,wg-a,,,,AAXX 08184 07130 12/82 72408 10240 20090 30091 40141 51004 60006 83042 91800 333 10270 20098=
07130,1996-08-08 21:00:00,19,1015.3,1.1,68,13,500,14.816,,,240,,,,,,,,,,,wg-a,,,,AAXX 08214 07130 12/00 72408 10190 20130 30102 40153 53011 60006 83032 92100=
07130,1996-08-09 00:00:00,16,1014.9,-0.4,82,13,500,7.408,,,210,,,,,,,,,,,wg-a,,,,AAXX 09004 07130 12/00 22104 10160 20130 30098 40149 58004 60006 80002 90000=
07130,1996-08-09 03:00:00,16,1014,-0.9,88,14,500,14.816,,,190,,,,,,,,,,,wg-a,,,,AAXX 09034 07130 12/00 01908 10160 20140 30089 40140 57009 60006 80000 90300=
07130,1996-08-09 06:00:00,17,1013.1,-0.9,88,15,18000,14.816,,,180,15.8,23.7,,,,,,,,60,wg-a,,,,AAXX 09064 07130 02368 81808 10170 20150 30080 40131 56009 61000 76061 83572 90600 333 10237 20158 6100=
07130,1996-08-09 12:00:00,19,1012.5,-0.6,94,18,4000,18.52,,,190,,,,10,,,,,,10,wg-a,,,,AAXX 09124 07130 02340 81910 10190 20180 30075 40125 57006 60136 71065 8652/ 91200 333 60107=
07130,1996-08-09 18:00:00,21,1010.8,-0.7,78,17,12000,22.224,,,210,16.8,21.9,,,,,,,,1,wg-a,,,,AAXX 09184 07130 32562 72112 10210 20170 30058 40108 56007 70162 86802 91800 333 10219 20168=
07130,1996-08-09 21:00:00,20,1010.7,-0.1,78,16,9000,22.224,,,240,,,,,,,,,,,wg-a,,,,AAXX 09214 07130 12459 82412 10200 20160 30057 40107 57001 60006 878// 92100=
07130,1996-08-10 00:00:00,18,1009.8,-0.9,88,16,9000,18.52,,,220,,,,0,,,,,,,wg-a,,,,AAXX 10004 07130 02459 82210 10180 20160 30048 40098 58009 60006 878// 90000 333 60007=
07130,1996-08-10 03:00:00,18,1008.2,-1.6,88,16,15000,18.52,,,200,,,,,,,,,,,wg-a,,,,AAXX 10034 07130 12465 32010 10180 20160 30032 40082 56016 60006 83100 90300=
07130,1996-08-10 06:00:00,17,1007.7,-0.6,94,16,8000,22.224,,,210,16.7,20.8,,0,,,16,,,51,wg-a,,,,AAXX 10064 07130 02258 82112 10170 20160 30026 40077 55006 60164 75151 875// 90600 333 10208 20167 60007=
07130,1996-08-10 09:00:00,19,1008.2,0.6,88,17,40000,11.112,,,220,,,,0,,,,,,1,wg-a,,,,AAXX 10094 07130 12482 72206 10190 20170 30032 40082 51006 60007 70165 878// 90900=
07130,1996-08-10 12:00:00,21,1008.1,-0.1,60,13,40000,18.52,,,230,,,,,,,,,,1,wg-a,,,,AAXX 10124 07130 12682 72310 10210 20130 30031 40081 58001 60006 70165 878// 91200=
07130,1996-08-10 15:00:00,21,1007.5,-0.6,56,12,40000,18.52,,,240,,,,,,,,,,,wg-a,,,,AAXX 10154 07130 12682 /2410 10210 20120 30025 40075 58006 60006 86800 91500=
07130,1996-08-10 18:00:00,20,1007.3,-0.2,60,12,35000,18.52,,,240,16.7,22.7,,,,,,,,,wg-a,,,,AAXX 10184 07130 32681 72410 10200 20120 30023 40073 55002 8684/ 91800 333 10227 20167=
07130,1996-08-10 21:00:00,17,1006.8,-0.6,88,15,8000,11.112,,,210,,,,3,,,,,,63,wg-a,,,,AAXX 10214 07130 12558 82106 10170 20150 30017 40068 56006 60037 76362 878// 92100=
07130,1996-08-11 00:00:00,16,1006.2,-0.6,94,15,10000,11.112,,,240,,,,4,,,,,,21,wg-a,,,,AAXX 11004 07130 02460 82406 10160 20150 30011 40062 56006 60066 72162 878// 90000 333 60047=
07130,1996-08-11 03:00:00,15,1005.4,-0.8,94,14,10000,7.408,,,250,,,,,,,,,,,wg-a,,,,AAXX 11034 07130 12/60 02504 10150 20140 30003 40054 58008 60006 80000 90300=
07130,1996-08-11 06:00:00,15,1005.4,-0,94,14,15000,11.112,,,220,13.6,19.5,,,,,7,,,,wg-a,,,,AAXX 11064 07130 12465 /2206 10150 20140 30003 40054 55000 60074 86800 90600 333 10195 20136=
07130,1996-08-11 09:00:00,18,1005,-0.3,77,14,14000,25.928,,,260,,,,,,,,,,,wg-a,,,,AAXX 11094 07130 12564 72614 10180 20140 30000 40050 56003 60006 878// 90900=
07130,1996-08-11 12:00:00,20,1006,1,56,11,40000,22.224,,,310,,,,,,,,,,,wg-a,,,,AAXX 11124 07130 12682 /3112 10200 20110 30010 40060 51010 60006 86800 91200=
07130,1996-08-11 15:00:00,21,1006.4,0.4,56,12,40000,29.632,,,310,,,,,,,,,,,wg-a,,,,AAXX 11154 07130 12682 /3116 10210 20120 30014 40064 50004 60006 86800 91500=
07130,1996-08-11 18:00:00,19,1007.9,1.5,60,11,40000,31.484,,,320,14.6,21.7,,,,,,,,,wg-a,,,,AAXX 11184 07130 12682 33217 10190 20110 30029 40079 53015 60006 83800 91800 333 10217 20146=
07130,1996-08-11 21:00:00,15,1010.3,2.3,82,12,40000,14.816,,,300,,,,,,,,,,,wg-a,,,,AAXX 11214 07130 12/82 03008 10150 20120 30052 40103 51023 60006 80000 92100=
07130,1996-08-12 00:00:00,14,1011,0.7,88,12,500,18.52,,,290,,,,,,,,,,,wg-a,,,,AAXX 12004 07130 12/00 02910 10140 20120 30059 40110 51007 60006 80000 90000=
07130,1996-08-12 03:00:00,12,1011.1,-0,100,12,10000,7.408,,,270,,,,,,,,,,,wg-a,,,,AAXX 12034 07130 12/60 02704 10120 20120 30059 40111 54000 60006 80000 90300=
07130,1996-08-12 06:00:00,13,1012.2,1.2,94,12,10000,11.112,,,280,12,18.7,,,,,,,,,wg-a,,,,AAXX 12064 07130 02460 /2806 10130 20120 30071 40122 52012 60006 81500 90600 333 10187 20120 60004=
07130,1996-08-12 09:00:00,18,1013.2,1,73,13,15000,22.224,,,330,,,,,,,,,,,wg-a,,,,AAXX 12094 07130 12565 /3312 10180 20130 30081 40132 51010 60006 85200 90900=
07130,1996-08-12 12:00:00,20,1013.8,0.7,64,13,15000,18.52,,,350,,,,,,,,,,,wg-a,,,,AAXX 12124 07130 12565 /3510 10200 20130 30088 40138 51007 60006 86800 91200=
07130,1996-08-12 15:00:00,23,1013.7,-0.1,53,13,35000,22.224,,,340,,,,,,,,,,,wg-a,,,,AAXX 12154 07130 12681 43412 10230 20130 30087 40137 58001 60006 84200 91500=
07130,1996-08-12 18:00:00,21,1014.5,0.8,56,12,500,22.224,,,10,13.1,23,,,,,,,,1,wg-a,,,,AAXX 12184 07130 32600 /0112 10210 20120 30095 40145 53008 70181 81100 91800 333 10230 20131=
07130,1996-08-12 21:00:00,16,1016.4,1.8,88,14,20000,7.408,,,350,,,,,,,,,,,wg-a,,,,AAXX 12214 07130 12/70 03504 10160 20140 30113 40164 51018 60006 80000 92100=
07130,1996-08-13 00:00:00,14,1016.5,0,94,13,3000,3.704,,,230,,,,,,,,,,10,wg-a,,,,AAXX 13004 07130 12/30 02302 10140 20130 30113 40165 50000 60006 71000 80000 90000=
07130,1996-08-13 03:00:00,15,1016,-0.4,94,14,2500,11.112,,,320,,,,,,,,,,10,wg-a,,,,AAXX 13034 07130 12225 83206 10150 20140 30109 40160 56004 60006 71011 886// 90300=
07130,1996-08-13 06:00:00,15,1016.5,0.5,94,14,3000,7.408,,,310,13.2,20.7,,,,,,,,10,wg-a,,,,AAXX 13064 07130 02230 83104 10150 20140 30114 40165 53005 60006 71011 876// 90600 333 10207 20132 61000=
07130,1996-08-13 09:00:00,17,1017.4,0.9,82,14,500,11.112,,,330,,,,,,,,,,,wg-a,,,,AAXX 13094 07130 12400 73306 10170 20140 30123 40174 53009 60006 875// 90900=
07130,1996-08-13 12:00:00,22,1017.1,-0.2,60,14,9000,11.112,,,340,,,,,,,,,,,wg-a,,,,AAXX 13124 07130 12559 43406 10220 20140 30121 40171 58002 60006 84200 91200=
07130,1996-08-13 15:00:00,24,1016.9,-0.2,50,13,11000,22.224,,,20,,,,,,,,,,,wg-a,,,,AAXX 13154 07130 32/61 /0212 10240 20130 30119 40169 58002 91500=
07130,1996-08-13 18:00:00,22,1017.2,0.3,53,12,20000,18.52,,,10,14.6,24.7,,,,,,,,,wg-a,,,,AAXX 13184 07130 32/70 10110 10220 20120 30122 40172 53003 80001 91800 333 10247 20146=
07130,1996-08-13 21:00:00,17,1019,1.7,82,14,12000,7.408,,,10,,,,,,,,,,,wg-a,,,,AAXX 13214 07130 12/62 00104 10170 20140 30139 40190 52017 60006 80000 92100=
07130,1996-08-14 00:00:00,15,1019.4,0.3,88,13,500,7.408,,,320,,,,,,,,,,,wg-a,,,,AAXX 14004 07130 12/00 03204 10150 20130 30142 40194 52003 60006 80000 90000=
07130,1996-08-14 03:00:00,13,1019,-0.4,94,12,1500,3.704,,,290,,,,,,,,,,10,wg-a,,,,AAXX 14034 07130 12/15 02902 10130 20120 30138 40190 57004 60006 71000 80000 90300=
07130,1996-08-14 06:00:00,12,1018.9,-0.1,100,12,1000,3.704,,,300,11.8,22.4,,,,,,,,10,wg-a,,,,AAXX 14064 07130 02/10 03002 10120 20120 30137 40189 55001 60006 71000 80000 90600 333 10224 20118 60004=
07130,1996-08-14 09:00:00,19,1019.7,0.9,83,16,10000,11.112,,,340,,,,,,,,,,,wg-a,,,,AAXX 14094 07130 12/60 03406 10190 20160 30146 40197 51009 60006 80000 90900=
07130,1996-08-14 12:00:00,24,1019,-0.6,54,14,15000,14.816,,,20,,,,,,,,,,,wg-a,,,,AAXX 14124 07130 12665 40208 10240 20140 30140 40190 58006 60006 84200 91200=
07130,1996-08-14 15:00:00,25,1018.3,-0.7,47,13,15000,14.816,,,10,,,,,,,,,,,wg-a,,,,AAXX 14154 07130 12665 /0108 10250 20130 30133 40183 58007 60006 81100 91500=
07130,1996-08-14 18:00:00,23,1018.3,-0,53,13,20000,18.52,,,30,12.3,25.5,,,,,,,,,wg-a,,,,AAXX 14184 07130 12/70 00310 10230 20130 30133 40183 54000 60006 80000 91800 333 10255 20123=
07130,1996-08-14 21:00:00,18,1019.9,1.5,83,15,7000,11.112,,,350,,,,,,,,,,,wg-a,,,,AAXX 14214 07130 12/57 03506 10180 20150 30148 40199 52015 60006 80000 92100=
07130,1996-08-15 00:00:00,14,1020.8,0.8,94,13,1800,7.408,,,310,,,,,,,,,,10,wg-a,,,,AAXX 15004 07130 12/18 03104 10140 20130 30156 40208 51008 60006 71000 80000 90000=
07130,1996-08-15 03:00:00,14,1020.2,-0.6,94,13,200,7.408,,,10,,,,,,,,,,45,wg-a,,,,AAXX 15034 07130 12/02 90104 10140 20130 30150 40202 56006 60006 74541 89/// 90300=
07130,1996-08-15 06:00:00,14,1020.9,0.7,94,13,100,3.704,,,40,13.2,23,,,,,,,,43,wg-a,,,,AAXX 15064 07130 02/01 90402 10140 20130 30157 40209 53007 60006 74341 89/// 90600 333 10230 20132 60004=
07130,1996-08-15 09:00:00,15,1022,1.1,94,14,1500,3.704,,,40,,,,,,,,,,10,wg-a,,,,AAXX 15094 07130 12115 80402 10150 20140 30168 40220 52011 60006 71042 886// 90900=
07130,1996-08-15 10:00:00,25,1019.5,-0.7,47,13,27000,3.704,,,0,12.7,26.2,,,,,,,,,wg-a,,,,AAXX 15104 07130 12/77 ///02 10250 20130 30145 40195 56007 60006 91000 333 10262 20127=
07130,1996-08-15 12:00:00,21,1021.6,-0.3,73,16,500,7.408,,,60,,,,,,,,,,1,wg-a,,,,AAXX 15124 07130 12400 /0604 10210 20160 30165 40216 58003 60006 70141 84100 91200=
07130,1996-08-15 15:00:00,25,1020.2,-1.3,44,12,15000,7.408,,,90,,,,,,,,,,,wg-a,,,,AAXX 15154 07130 12665 /0904 10250 20120 30152 40202 56013 60006 81100 91500=
07130,1996-08-15 18:00:00,25,1019.5,-0.7,47,13,20000,11.112,,,350,12.7,26.5,,,,,,,,,wg-a,,,,AAXX 15184 07130 12770 13506 10250 20130 30145 40195 56007 60006 81100 91800 333 10265 20127=
07130,1996-08-15 21:00:00,20,1020.9,1.3,78,16,7000,11.112,,,40,,,,,,,,,,,wg-a,,,,AAXX 15214 07130 12/57 00406 10200 20160 30158 40209 53013 60006 80000 92100=
07130,1996-08-16 00:00:00,17,1020.9,0,88,15,500,0,,,0,,,,,,,,,,,wg-a,,,,AAXX 16004 07130 12/00 00000 10170 20150 30158 40209 50000 60006 80000 90000=
07130,1996-08-16 03:00:00,15,1020.6,-0.4,94,14,400,0,,,0,,,,,,,,,,41,wg-a,,,,AAXX 16034 07130 12/04 00000 10150 20140 30154 40206 58004 60006 74140 80000 90300=
07130,1996-08-16 06:00:00,13,1021.3,0.7,100,13,300,3.704,,,170,13.1,25.2,,0,,,,,,42,wg-a,,,,AAXX 16064 07130 02/03 01702 10130 20130 30161 40213 53007 60004 74240 80000 90600 333 10252 20131 60007=
07130,1996-08-16 09:00:00,22,1021.6,0.5,65,15,10000,3.704,,,140,,,,,,,,,,1,wg-a,,,,AAXX 16094 07130 12/60 01402 10220 20150 30166 40216 51005 60006 70140 80000 90900=
07130,1996-08-16 12:00:00,27,1020.7,-0.8,39,12,15000,3.704,,,120,,,,,,,,,,2,wg-a,,,,AAXX 16124 07130 12765 21202 10270 20120 30158 40207 58008 60006 70240 82100 91200=
07130,1996-08-16 15:00:00,29,1019.5,-1.2,33,11,20000,7.408,,,90,,,,,,,,,,,wg-a,,,,AAXX 16154 07130 12770 30904 10290 20110 30146 40195 56012 60006 83100 91500=
07130,1996-08-16 21:00:00,22,1020.6,1.2,60,14,20000,7.408,,,10,,,,,,,,,,,wg-a,,,,AAXX 16214 07130 12770 10104 10220 20140 30156 40206 53012 60006 81500 92100=
07130,1996-08-17 00:00:00,17,1021.2,0.5,88,15,10000,7.408,,,330,,,,,,,,,,,wg-a,,,,AAXX 17004 07130 12/60 03304 10170 20150 30161 40212 52005 60006 80000 90000=
07130,1996-08-17 06:00:00,14,1021.5,0.3,94,13,100,0,,,0,13.5,28.5,,,,,,,,41,wg-a,,,,AAXX 17064 07130 02/01 00000 10140 20130 30163 40215 53003 60006 74140 80000 90600 333 10285 20135 60004=
07130,1996-08-17 09:00:00,22,1021.7,0.4,65,15,12000,3.704,,,160,,,,,,,,,,2,wg-a,,,,AAXX 17094 07130 12/62 11602 10220 20150 30167 40217 50004 60006 70240 80001 90900=
07130,1996-08-17 12:00:00,30,1020.7,-0.9,29,10,20000,11.112,,,170,,,,,,,,,,1,wg-a,,,,AAXX 17124 07130 12770 21706 10300 20100 30158 40207 58009 60006 70140 81101 91200=
07130,1996-08-17 15:00:00,31,1019.6,-1.1,26,9,25000,11.112,,,140,,,,,,,,,,,wg-a,,,,AAXX 17154 07130 12875 11406 10310 20090 30147 40196 56011 60006 81101 91500=
07130,1996-08-17 18:00:00,29,1019,-0.6,29,9,25000,11.112,,,140,13.5,30.9,,,,,,,,,wg-a,,,,AAXX 17184 07130 12/75 01406 10290 20090 30141 40190 56006 60006 80000 91800 333 10309 20135=
07130,1996-08-17 21:00:00,25,1019.7,0.6,41,11,25000,7.408,,,130,,,,,,,,,,,wg-a,,,,AAXX 17214 07130 12/75 01304 10250 20110 30147 40197 53006 60006 80000 92100=
07130,1996-08-18 00:00:00,21,1019.3,-0.4,53,11,25000,3.704,,,130,,,,,,,,,,,wg-a,,,,AAXX 18004 07130 12/75 01302 10210 20110 30143 40193 58004 60006 80000 90000=
07130,1996-08-18 03:00:00,18,1019.2,-0.2,64,11,20000,3.704,,,120,,,,,,,,,,,wg-a,,,,AAXX 18034 07130 12/70 01202 10180 20110 30141 40192 58002 60006 80000 90300=
07130,1996-08-18 06:00:00,17,1019.1,-0.1,68,11,12000,7.408,,,120,16.6,29.2,,,,,,,,,wg-a,,,,AAXX 18064 07130 02/62 01204 10170 20110 30140 40191 57001 60006 80000 90600 333 10292 20166 60004=
07130,1996-08-18 09:00:00,25,1019,0,44,12,500,11.112,,,150,,,,,,,,,,,wg-a,,,,AAXX 18094 07130 12/00 01506 10250 20120 30140 40190 50000 60006 80000 90900=
07130,1996-08-18 12:00:00,30,1017.7,-1.2,31,11,40000,14.816,,,150,,,,,,,,,,,wg-a,,,,AAXX 18124 07130 12/82 01508 10300 20110 30128 40177 58012 60006 80000 91200=
07130,1996-08-18 15:00:00,31,1016.1,-1.6,26,9,40000,11.112,,,120,,,,,,,,,,,wg-a,,,,AAXX 18154 07130 12/82 01206 10310 20090 30112 40161 58016 60006 80000 91500=
07130,1996-08-18 18:00:00,30,1014.8,-1.3,25,8,35000,7.408,,,110,17,31.3,,,,,,,,,wg-a,,,,AAXX 18184 07130 12/81 01104 10300 20080 30099 40148 56013 60006 80000 91800 333 10313 20170=
07130,1996-08-18 21:00:00,24,1014.8,-0.1,36,8,25000,11.112,,,100,,,,,,,,,,,wg-a,,,,AAXX 18214 07130 12/75 01006 10240 20080 30098 40148 58001 60006 80000 92100=
07130,1996-08-19 00:00:00,19,1014.6,-0.3,60,11,20000,3.704,,,320,,,,,,,,,,,wg-a,,,,AAXX 19004 07130 12/70 03202 10190 20110 30095 40146 58003 60006 80000 90000=
07130,1996-08-19 03:00:00,18,1013.6,-1,59,10,20000,0,,,0,,,,,,,,,,,wg-a,,,,AAXX 19034 07130 12/70 00000 10180 20100 30085 40136 57010 60006 80000 90300=
07130,1996-08-19 06:00:00,16,1013.6,0,77,12,15000,0,,,0,15.7,29.6,,,,,,,,,wg-a,,,,AAXX 19064 07130 02765 10000 10160 20120 30085 40136 50000 60006 81501 90600 333 10296 20157 60004=
07130,1996-08-19 09:00:00,25,1013,-0.4,47,13,15000,7.408,,,140,,,,,,,,,,,wg-a,,,,AAXX 19094 07130 12/65 01404 10250 20130 30081 40130 58004 60006 80000 90900=
07130,1996-08-19 12:00:00,32,1011.8,-1.1,28,11,20000,11.112,,,120,,,,,,,,,,,wg-a,,,,AAXX 19124 07130 12/70 21206 10320 20110 30070 40118 57011 60006 82084 91200=
07130,1996-08-19 15:00:00,31,1010.7,-1.1,33,13,20000,11.112,,27.78,250,,,,,,,,,,,wg-a,,,,AAXX 19154 07130 12/70 62506 10310 20130 30059 40107 56011 60006 86090 91500 333 91015=
07130,1996-08-19 18:00:00,24,1011.3,0.5,54,14,15000,14.816,,,20,16,32.2,,,,,,,,21,wg-a,,,,AAXX 19184 07130 02/65 70208 10240 20140 30064 40113 50005 61000 72111 8708/ 91800 333 10322 20160 ////=
07130,1996-08-19 21:00:00,21,1011.6,0.2,64,14,18000,7.408,,,20,,,,,,,,,,21,wg-a,,,,AAXX 19214 07130 02/68 40204 10210 20140 30066 40116 50002 61000 72161 84080 92100 333 ////=
07130,1996-08-20 00:00:00,18,1012.6,0.9,88,16,8000,14.816,,,340,,,,1,,,,,,61,wg-a,,,,AAXX 20004 07130 02258 83408 10180 20160 30075 40126 50009 60016 7616/ 888// 90000 333 60017=
07130,1996-08-20 03:00:00,17,1011.7,-0.9,94,16,2500,7.408,,,340,,,,1,,,,,,10,wg-a,,,,AAXX 20034 07130 12225 83404 10170 20160 30066 40117 56009 60017 71062 887// 90300=
07130,1996-08-20 06:00:00,18,1012.4,0.7,94,17,4000,7.408,,,300,17.1,24.2,,,,,2,,,10,wg-a,,,,AAXX 20064 07130 12240 73004 10180 20170 30073 40124 53007 60024 71062 875// 90600 333 10242 20171=
07130,1996-08-20 09:00:00,19,1012.9,0.6,88,17,8000,7.408,,,330,,,,,,,,,,,wg-a,,,,AAXX 20094 07130 12458 73304 10190 20170 30079 40129 53006 60006 871// 90900=
07130,1996-08-20 12:00:00,22,1012.9,0,69,16,18000,3.704,,,360,,,,,,,,,,,wg-a,,,,AAXX 20124 07130 12568 73602 10220 20160 30079 40129 50000 60006 85802 91200=
07130,1996-08-20 15:00:00,25,1012.1,-0.7,54,15,25000,7.408,,,230,,,,,,,,,,,wg-a,,,,AAXX 20154 07130 12675 72304 10250 20150 30072 40121 58007 60006 8428/ 91500=
07130,1996-08-20 18:00:00,21,1012.6,0.4,78,17,4000,11.112,,,30,17.4,25,,,,,,,,10,wg-a,,,,AAXX 20184 07130 12640 40306 10210 20170 30076 40126 53004 60006 71011 83302 91800 333 10250 20174=
07130,1996-08-20 21:00:00,18,1013.9,1.2,83,15,15000,11.112,,,350,,,,,,,,,,,wg-a,,,,AAXX 20214 07130 12565 23506 10180 20150 30088 40139 53012 60006 82300 92100=
07130,1996-08-21 00:00:00,16,1014.2,0.3,88,14,10000,11.112,,,10,,,,,,,,,,,wg-a,,,,AAXX 21004 07130 12660 30106 10160 20140 30091 40142 50003 60006 83500 90000=
07130,1996-08-21 03:00:00,14,1013.8,-0.4,100,14,8000,7.408,,,290,,,,,,,,,,,wg-a,,,,AAXX 21034 07130 12658 /2904 10140 20140 30087 40138 56004 60006 81200 90300=
07130,1996-08-21 06:00:00,14,1013.5,-0.3,94,13,4000,7.408,,,310,13.8,20.6,,,,,,,,10,wg-a,,,,AAXX 21064 07130 02540 73104 10140 20130 30084 40135 56003 60006 71011 82702 90600 333 10206 20138 60004=
07130,1996-08-21 09:00:00,16,1014.6,1.1,94,15,12000,3.704,,,330,,,,,,,,,,,wg-a,,,,AAXX 21094 07130 12662 /3302 10160 20150 30095 40146 53011 60006 81202 90900=
07130,1996-08-21 12:00:00,22,1013.8,-0.7,50,11,35000,14.816,,,330,,,,,,,,,,,wg-a,,,,AAXX 21124 07130 12681 63308 10220 20110 30088 40138 56007 60006 85802 91200=
07130,1996-08-21 15:00:00,24,1012.9,-0.9,41,10,40000,11.112,,,320,,,,,,,,,,,wg-a,,,,AAXX 21154 07130 12682 53206 10240 20100 30079 40129 56009 60006 84101 91500=
07130,1996-08-21 18:00:00,21,1013.3,0.4,60,13,40000,18.52,,,20,13.9,24.6,,,,,,,,,wg-a,,,,AAXX 21184 07130 12682 40210 10210 20130 30083 40133 53004 60006 82802 91800 333 10246 20139=
07130,1996-08-21 21:00:00,17,1015.5,2.1,68,11,500,7.408,,,350,,,,,,,,,,,wg-a,,,,AAXX 21214 07130 12700 23504 10170 20110 30104 40155 52021 60006 82500 92100=
07130,1996-08-22 00:00:00,13,1015.9,0.3,88,11,500,0,,,0,,,,,,,,,,,wg-a,,,,AAXX 22004 07130 12/00 00000 10130 20110 30107 40159 52003 60006 80000 90000=
07130,1996-08-22 03:00:00,12,1015.7,-0.2,94,11,20000,3.704,,,320,,,,,,,,,,,wg-a,,,,AAXX 22034 07130 12/70 03202 10120 20110 30105 40157 58002 60006 80000 90300=
07130,1996-08-22 06:00:00,12,1015.2,-0.5,94,11,500,3.704,,,180,10.9,20.9,,,,,,,,11,wg-a,,,,AAXX 22064 07130 02700 /1802 10120 20110 30100 40152 56005 60006 71100 81501 90600 333 10209 20109 60004=
07130,1996-08-22 09:00:00,19,1015.1,0,64,12,25000,22.224,,,200,,,,,,,,,,,wg-a,,,,AAXX 22094 07130 12575 /2012 10190 20120 30100 40151 50000 60006 81101 90900=
07130,1996-08-22 12:00:00,23,1013.5,-1.5,47,11,25000,25.928,,,210,,,,,,,,,,,wg-a,,,,AAXX 22124 07130 12675 /2114 10230 20110 30085 40135 56015 60006 86801 91200=
07130,1996-08-22 15:00:00,23,1011.6,-1.9,53,13,20000,31.484,,55.56,220,,,,,,,,,,,wg-a,,,,AAXX 22154 07130 12670 62217 10230 20130 30066 40116 58019 60006 84831 91500 333 91030=
07130,1996-08-22 18:00:00,20,1011.5,-0.1,68,14,10000,25.928,,,210,11.7,24.3,,,,,,,,,wg-a,,,,AAXX 22184 07130 12560 72114 10200 20140 30065 40115 57001 60006 875// 91800 333 10243 20117=
07130,1996-08-22 21:00:00,18,1010.8,-0.8,94,17,10000,18.52,,,190,,,,1,,,,,,61,wg-a,,,,AAXX 22214 07130 12360 81910 10180 20170 30057 40108 57008 60017 76165 885// 92100=
07130,1996-08-23 00:00:00,18,1008.6,-2.1,94,17,11000,22.224,,,190,,,,1,,,,,,21,wg-a,,,,AAXX 23004 07130 02461 81912 10180 20170 30036 40086 56021 60026 72165 8557/ 90000 333 60017=
07130,1996-08-23 03:00:00,17,1006.4,-2.2,94,16,11000,31.484,,,190,,,,1,,,,,,60,wg-a,,,,AAXX 23034 07130 12461 81917 10170 20160 30014 40064 56022 60017 76062 8657/ 90300=
07130,1996-08-23 06:00:00,18,1005.2,-1.2,94,17,8000,18.52,,,240,17.2,20.5,,3,,,6,,,21,wg-a,,,,AAXX 23064 07130 02458 72410 10180 20170 30002 40052 55012 60064 72162 875// 90600 333 10205 20172 60037=
07130,1996-08-23 09:00:00,18,1008.8,3.6,73,13,50000,25.928,,,280,,,,,,,,,,1,wg-a,,,,AAXX 23094 07130 02584 32814 10180 20130 30038 40088 51036 61000 70186 83200 90900 333 ////=
07130,1996-08-23 12:00:00,21,1009.2,0.4,60,13,11000,25.928,,,240,,,,,,,,,,,wg-a,,,,AAXX 23124 07130 02/61 /2414 10210 20130 30042 40092 50004 61000 91200 333 ////=
07130,1996-08-23 15:00:00,22,1009.3,0.1,53,12,40000,29.632,,51.856,230,,,,,,,,,,,wg-a,,,,AAXX 23154 07130 12682 42316 10220 20120 30043 40093 50001 60006 84200 91500 333 91028=
07130,1996-08-23 18:00:00,20,1009.6,0.3,64,13,12000,22.224,,44.448,240,16.3,22.6,,,,,,,,15,wg-a,,,,AAXX 23184 07130 32662 62412 10200 20130 30046 40096 53003 71511 85840 91800 333 10226 20163 91024=
07130,1996-08-23 21:00:00,16,1010.6,0.9,88,14,25000,18.52,,,220,,,,,,,,,,,wg-a,,,,AAXX 23214 07130 12675 32210 10160 20140 30055 40106 51009 60006 83800 92100=
07130,1996-08-24 00:00:00,16,1010.3,-0.3,88,14,25000,18.52,,,220,,,,,,,,,,,wg-a,,,,AAXX 24004 07130 12675 /2210 10160 20140 30052 40103 58003 60006 81500 90000=
07130,1996-08-24 03:00:00,15,1009.3,-1,94,14,25000,18.52,,,200,,,,1,,,,,,25,wg-a,,,,AAXX 24034 07130 12575 52010 10150 20140 30042 40093 57010 60017 72511 85800 90300=
07130,1996-08-24 06:00:00,14,1009.1,-0.2,94,13,500,14.816,,,230,13.9,19.4,,5,,,5,,,21,wg-a,,,,AAXX 24064 07130 02500 72308 10140 20130 30040 40091 55002 60054 72186 87842 90600 333 10194 20139 60057=
07130,1996-08-24 09:00:00,18,1010.2,1.1,77,14,500,18.52,,,260,,,,,,,,,,,wg-a,,,,AAXX 24094 07130 12400 72610 10180 20140 30051 40102 51011 60006 872// 90900=
07130,1996-08-24 12:00:00,22,1009.7,-0.4,53,12,20000,25.928,,,260,,,,,,,,,,15,wg-a,,,,AAXX 24124 07130 12670 72614 10220 20120 30047 40097 58004 60006 71522 85802 91200=
07130,1996-08-24 15:00:00,20,1010.2,0.5,73,15,12000,22.224,,,270,,,,0,,,,,,25,wg-a,,,,AAXX 24154 07130 12662 62712 10200 20150 30052 40102 53005 60007 72522 85302 91500=
07130,1996-08-24 18:00:00,17,1011.2,0.9,82,14,8000,11.112,,,310,13.9,22.7,,,,,,,,15,wg-a,,,,AAXX 24184 07130 32558 63106 10170 20140 30061 40112 53009 71586 86302 91800 333 10227 20139=
07130,1996-08-24 21:00:00,16,1012.8,1.6,82,13,15000,18.52,,,250,,,,,,,,,,,wg-a,,,,AAXX 24214 07130 12665 32510 10160 20130 30077 40128 53016 60006 82802 92100=
07130,1996-08-25 03:00:00,14,1013,-0.2,94,13,15000,11.112,,,240,,,,,,,,,,,wg-a,,,,AAXX 25034 07130 12765 22406 10140 20130 30079 40130 55002 60006 81502 90300=
07130,1996-08-25 06:00:00,13,1013.5,0.5,100,13,12000,11.112,,,230,13.2,18.6,,,,,,,,,wg-a,,,,AAXX 25064 07130 02562 22306 10130 20130 30084 40135 53005 60006 82800 90600 333 10186 20132 60004=
07130,1996-08-25 09:00:00,18,1014.2,0.7,68,12,25000,14.816,,,260,,,,,,,,,,,wg-a,,,,AAXX 25094 07130 12575 42608 10180 20120 30091 40142 51007 60006 84200 90900=
07130,1996-08-25 12:00:00,20,1013.4,-0.7,53,10,35000,14.816,,,280,,,,,,,,,,,wg-a,,,,AAXX 25124 07130 12681 42808 10200 20100 30084 40134 58007 60006 84200 91200=
07130,1996-08-25 15:00:00,22,1012.9,-0.5,46,10,20000,14.816,,,270,,,,,,,,,,15,wg-a,,,,AAXX 25154 07130 12670 52708 10220 20100 30079 40129 58005 60006 71511 85800 91500=
07130,1996-08-25 18:00:00,20,1013.1,0.2,56,11,20000,22.224,,,260,13.5,22.2,,,,,,,,15,wg-a,,,,AAXX 25184 07130 12670 52612 10200 20110 30081 40131 51002 60006 71511 85300 91800 333 10222 20135=
07130,1996-08-25 21:00:00,15,1014.9,1.7,88,13,20000,3.704,,,250,,,,,,,,,,,wg-a,,,,AAXX 25214 07130 12570 52502 10150 20130 30098 40149 51017 60006 85800 92100=
07130,1996-08-26 00:00:00,13,1015,0,94,12,500,3.704,,,230,,,,,,,,,,,wg-a,,,,AAXX 26004 07130 12/00 02302 10130 20120 30098 40150 50000 60006 80000 90000=
07130,1996-08-26 03:00:00,11,1015.1,0.1,100,11,20000,3.704,,,260,,,,,,,,,,,wg-a,,,,AAXX 26034 07130 12570 /2602 10110 20110 30099 40151 53001 60006 81500 90300=
07130,1996-08-26 06:00:00,10,1015.8,0.7,100,10,12000,3.704,,,280,10.1,19.9,,,,,,,,11,wg-a,,,,AAXX 26064 07130 02562 /2802 10100 20100 30106 40158 53007 60006 71100 81200 90600 333 10199 20101 60004=
07130,1996-08-26 09:00:00,17,1016.6,0.9,72,12,35000,7.408,,,280,,,,,,,,,,,wg-a,,,,AAXX 26094 07130 12581 22804 10170 20120 30115 40166 51009 60006 82200 90900=
07130,1996-08-26 12:00:00,20,1015.9,-0.6,53,10,45000,11.112,,,300,,,,,,,,,,,wg-a,,,,AAXX 26124 07130 12683 43006 10200 20100 30109 40159 58006 60006 84200 91200=
07130,1996-08-26 15:00:00,21,1015.2,-0.7,46,9,20000,7.408,,,310,,,,,,,,,,15,wg-a,,,,AAXX 26154 07130 12770 63104 10210 20090 30102 40152 56007 60006 71511 86800 91500=
07130,1996-08-26 18:00:00,17,1016.3,1,72,12,25000,11.112,,,330,10.1,22.2,,0,,,,,,16,wg-a,,,,AAXX 26184 07130 12575 73306 10170 20120 30112 40163 51010 60007 71611 86802 91800 333 10222 20101=
07130,1996-08-26 21:00:00,16,1017.4,1.1,82,13,500,3.704,,,10,,,,,,,,,,25,wg-a,,,,AAXX 26214 07130 02600 70102 10160 20130 30123 40174 52011 61000 72522 878// 92100 333 ////=
07130,1996-08-27 00:00:00,14,1017.5,-0,94,13,20000,7.408,,,300,,,,,,,,,,3,wg-a,,,,AAXX 27004 07130 02570 73004 10140 20130 30123 40175 54000 61000 70382 878// 90000 333 ////=
07130,1996-08-27 03:00:00,13,1017.1,-0.4,94,12,500,3.704,,,290,,,,,,,,,,,wg-a,,,,AAXX 27034 07130 12700 52902 10130 20120 30119 40171 58004 60006 85500 90300=
07130,1996-08-27 06:00:00,11,1017.4,0.3,94,10,12000,3.704,,,280,11.1,17.5,,,,,,,,,wg-a,,,,AAXX 27064 07130 12562 32802 10110 20100 30122 40174 53003 60004 83301 90600 333 10175 20111=
07130,1996-08-27 09:00:00,16,1017.8,0.5,77,12,25000,11.112,,,330,,,,,,,,,,,wg-a,,,,AAXX 27094 07130 12475 53306 10160 20120 30127 40178 52005 60006 84301 90900=
07130,1996-08-27 15:00:00,19,1018,0.5,52,9,20000,18.52,,,330,,,,0,,,,,,15,wg-a,,,,AAXX 27154 07130 12570 /3310 10190 20090 30129 40180 51005 60007 71598 85301 91500=
07130,1996-08-27 21:00:00,14,1019.9,1.6,88,12,40000,3.704,,,260,,,,,,,,,,,wg-a,,,,AAXX 27214 07130 12582 22602 10140 20120 30147 40199 52016 60006 82900 92100=
07130,1996-08-28 00:00:00,12,1019.9,0,94,11,20000,7.408,,,250,,,,,,,,,,,wg-a,,,,AAXX 28004 07130 12470 /2504 10120 20110 30147 40199 50000 60006 81130 90000=
07130,1996-08-28 03:00:00,12,1019.2,-0.7,94,11,25000,7.408,,,270,,,,,,,,,,,wg-a,,,,AAXX 28034 07130 12675 32704 10120 20110 30140 40192 57007 60006 83500 90300=
07130,1996-08-28 06:00:00,12,1019.1,-0.1,94,11,7000,7.408,,,270,11,16.7,,,,,,,,,wg-a,,,,AAXX 28064 07130 02557 /2704 10120 20110 30139 40191 56001 60006 85800 90600 333 10167 20110 60004=
07130,1996-08-28 09:00:00,15,1019.6,0.6,94,14,7000,14.816,,,290,,,,0,,,,,,21,wg-a,,,,AAXX 28094 07130 12257 72908 10150 20140 30145 40196 51006 60007 72162 8684/ 90900=
07130,1996-08-28 12:00:00,18,1019.2,-0.4,68,12,12000,14.816,,,330,,,,0,,,,,,25,wg-a,,,,AAXX 28124 07130 02562 73308 10180 20120 30141 40192 55004 60016 72586 8636/ 91200 333 60007=
07130,1996-08-28 15:00:00,20,1018.5,-0.7,53,10,18000,25.928,,,340,,,,,,,,,,,wg-a,,,,AAXX 28154 07130 12668 33414 10200 20100 30134 40185 56007 60006 82240 91500=
07130,1996-08-28 18:00:00,18,1019.1,0.6,64,11,20000,22.224,,,340,11.6,20.5,,,,,,,,,wg-a,,,,AAXX 28184 07130 32670 /3412 10180 20110 30140 40191 50006 81100 91800 333 10205 20116=
07130,1996-08-28 21:00:00,13,1019.9,0.7,88,11,10000,11.112,,,300,,,,,,,,,,,wg-a,,,,AAXX 28214 07130 12/60 03006 10130 20110 30147 40199 51007 60006 80000 92100=
07130,1996-08-29 00:00:00,12,1019.3,-0.6,94,11,8000,11.112,,,290,,,,,,,,,,,wg-a,,,,AAXX 29004 07130 12/58 02906 10120 20110 30141 40193 56006 60006 80000 90000=
07130,1996-08-29 03:00:00,12,1018.5,-0.8,94,11,6000,11.112,,,280,,,,0,,,,,,,wg-a,,,,AAXX 29034 07130 12756 32806 10120 20110 30133 40185 58008 60007 83500 90300=
07130,1996-08-29 06:00:00,13,1017.9,-0.6,94,12,500,11.112,,,290,11.3,17.8,,,,,1,,,,wg-a,,,,AAXX 29064 07130 12/00 /2906 10130 20120 30127 40179 57006 60014 90600 333 10178 20113=
07130,1996-08-29 09:00:00,16,1018.6,0.8,82,13,9000,22.224,,,340,,,,,,,,,,,wg-a,,,,AAXX 29094 07130 12459 73412 10160 20130 30135 40186 51008 60006 87802 90900=
07130,1996-08-29 12:00:00,19,1018.5,-0.1,60,11,18000,22.224,,,340,,,,,,,,,,,wg-a,,,,AAXX 29124 07130 12568 73412 10190 20110 30134 40185 57001 60006 8323/ 91200=
07130,1996-08-29 15:00:00,19,1018.4,,56,10,25000,29.632,,,340,,,,,,,,,,,wg-a,,,,AAXX 29154 07130 32675 63416 10190 20100 30133 40184 83232 91500=
07130,1996-08-29 18:00:00,17,1019,0.6,63,10,35000,22.224,,,340,12.6,19.6,,,,,,,,,wg-a,,,,AAXX 29184 07130 32681 /3412 10170 20100 30139 40190 53006 81102 91800 333 10196 20126=
07130,1996-08-29 21:00:00,13,1020.3,1.2,82,10,25000,3.704,,,290,,,,,,,,,,,wg-a,,,,AAXX 29214 07130 12775 52902 10130 20100 30151 40203 52012 60006 815/2 92100=
07130,1996-08-30 00:00:00,11,1020.6,0.3,94,10,20000,7.408,,,280,,,,,,,,,,,wg-a,,,,AAXX 30004 07130 12570 /2804 10110 20100 30154 40206 52003 60006 83501 90000=
07130,1996-08-30 03:00:00,10,1020.5,-0.2,93,9,20000,3.704,,,260,,,,,,,,,,,wg-a,,,,AAXX 30034 07130 12670 /2602 10100 20090 30152 40205 58002 60006 83501 90300=
07130,1996-08-30 06:00:00,12,1021.9,1.7,94,11,15000,11.112,,,320,,15.1,,,,,4,,,,wg-a,,,,AAXX 30064 07130 02665 53206 10120 20110 30163 40219 53017 60006 8117/ 90600 333 10151 60044=
07130,1996-08-30 09:00:00,16,1022.9,1.4,68,10,15000,11.112,,,340,,,,,,,,,,,wg-a,,,,AAXX 30094 07130 12665 73406 10160 20100 30177 40229 51014 60006 878// 90900=
07130,1996-08-30 12:00:00,18,1023.2,0.4,52,8,20000,14.816,,,360,,,,,,,,,,,wg-a,,,,AAXX 30124 07130 12670 /3608 10180 20080 30181 40232 50004 60006 86500 91200=
07130,1996-08-30 18:00:00,18,1024.5,0.6,59,10,500,11.112,,,10,11.8,19.2,,,,,,,,,wg-a,,,,AAXX 30184 07130 12500 70106 10180 20100 30194 40245 53006 60006 878// 91800 333 10192 20118=
07130,1996-08-30 21:00:00,17,1025.8,1.2,77,13,25000,7.408,,,360,,,,,,,,,,,wg-a,,,,AAXX 30214 07130 12675 73604 10170 20130 30206 40258 52012 60006 878// 92100=
07130,1996-08-31 00:00:00,14,1026.2,0.4,94,13,20000,7.408,,,280,,,,,,,,,,,wg-a,,,,AAXX 31004 07130 12670 72804 10140 20130 30210 40262 51004 60006 875// 90000=
07130,1996-08-31 03:00:00,13,1026,-0.2,94,12,20000,7.408,,,300,,,,,,,,,,,wg-a,,,,AAXX 31034 07130 12670 73004 10130 20120 30208 40260 56002 60006 875// 90300=
07130,1996-08-31 06:00:00,11,1026.8,0.7,100,11,9000,3.704,,,280,10.7,17.8,,,,,,,,,wg-a,,,,AAXX 31064 07130 02759 32802 10110 20110 30215 40268 53007 60006 81501 90600 333 10178 20107 60004=
07130,1996-08-31 09:00:00,17,1027.7,1,77,13,12000,14.816,,,340,,,,,,,,,,,wg-a,,,,AAXX 31094 07130 12562 43408 10170 20130 30225 40277 51010 60006 83101 90900=
07130,1996-08-31 12:00:00,21,1026.8,-0.8,53,11,20000,18.52,,,360,,,,,,,,,,,wg-a,,,,AAXX 31124 07130 12670 53610 10210 20110 30217 40268 57008 60006 84201 91200=
07130,1996-08-31 15:00:00,19,1027,0.2,56,10,11000,22.224,,,10,,,,,,,,,,,wg-a,,,,AAXX 31154 07130 12/61 /0112 10190 20100 30219 40270 50002 60006 91500=
07130,1996-08-31 18:00:00,16,1027.6,0.5,59,8,40000,22.224,,,360,11,20.7,,,,,,,,,wg-a,,,,AAXX 31184 07130 12/82 73612 10160 20080 30224 40276 53005 60006 80002 91800 333 10207 20110=
07130,1996-08-31 21:00:00,13,1028.7,1.1,82,10,500,7.408,,,20,,,,,,,,,,,wg-a,,,,AAXX 31214 07130 12/00 50204 10130 20100 30235 40287 51011 60006 80002 92100=
07130,1996-09-01 00:00:00,12,1028.6,-0.2,82,9,25000,7.408,,,350,,,,,,,,,,,wg-a,,,,AAXX 01004 07130 12/75 53504 10120 20090 30233 40286 58002 60006 80002 90000=
07130,1996-09-01 03:00:00,9,1028.2,-0.4,93,8,20000,3.704,,,260,,,,,,,,,,,wg-a,,,,AAXX 01034 07130 12/70 32602 10090 20080 30229 40282 58004 60006 80001 90300=
07130,1996-09-01 06:00:00,8,1028.4,0.2,100,8,8000,7.408,,,290,8.1,16.3,,,,,,,,,wg-a,,,,AAXX 01064 07130 02/58 72904 10080 20080 30231 40284 53002 60006 82042 90600 333 10163 20081 60004=
07130,1996-09-01 09:00:00,16,1028.9,0.6,72,11,16000,7.408,,,50,,,,,,,,,,,wg-a,,,,AAXX 01094 07130 12666 /0504 10160 20110 30237 40289 51006 60006 81102 90900=
07130,1996-09-01 12:00:00,20,1028,-0.8,53,10,500,11.112,,,60,,,,,,,,,,,wg-a,,,,AAXX 01124 07130 12600 50606 10200 20100 30229 40280 58008 60006 84202 91200=
07130,1996-09-01 15:00:00,22,1026.6,-1.4,43,9,35000,18.52,,,70,,,,,,,,,,,wg-a,,,,AAXX 01154 07130 12681 50710 10220 20090 30215 40266 56014 60006 82101 91500=
07130,1996-09-01 18:00:00,19,1026.6,-0,60,11,35000,18.52,,,20,8.3,22.1,,,,,,,,,wg-a,,,,AAXX 01184 07130 12781 10210 10190 20110 30215 40266 55000 60006 81100 91800 333 10221 20083=
07130,1996-09-01 21:00:00,16,1027.5,0.8,72,11,10000,14.816,,,30,,,,,,,,,,,wg-a,,,,AAXX 01214 07130 12/60 00308 10160 20110 30223 40275 51008 60006 80000 92100=
07130,1996-09-02 00:00:00,12,1027.6,0.1,82,9,10000,3.704,,,350,,,,,,,,,,,wg-a,,,,AAXX 02004 07130 12/60 03502 10120 20090 30224 40276 52001 60006 80000 90000=
07130,1996-09-02 03:00:00,11,1027.4,-0.3,82,8,10000,3.704,,,30,,,,,,,,,,,wg-a,,,,AAXX 02034 07130 12/60 00302 10110 20080 30221 40274 58003 60006 80000 90300=
07130,1996-09-02 06:00:00,9,1027.3,-0.1,93,8,10000,3.704,,,270,8.3,19.4,,,,,,,,,wg-a,,,,AAXX 02064 07130 02860 52702 10090 20080 30220 40273 55001 60006 8503/ 90600 333 10194 20083 60004=
07130,1996-09-02 09:00:00,16,1027.4,0.2,68,10,15000,7.408,,,50,,,,,,,,,,,wg-a,,,,AAXX 02094 07130 12865 10504 10160 20100 30222 40274 52002 60006 8150/ 90900=
07130,1996-09-02 10:00:00,19,1024,,60,11,25000,22.224,,,100,,22.8,,,,,,,,,wg-a,,,,AAXX 02104 07130 12/75 /1012 10190 20110 30189 40240 60006 91000 333 10228=
07130,1996-09-02 12:00:00,21,1025.8,-1.5,43,8,25000,14.816,,,40,,,,,,,,,,,wg-a,,,,AAXX 02124 07130 12675 20408 10210 20080 30207 40258 58015 60006 8210/ 91200=
07130,1996-09-02 15:00:00,23,1024.7,-1.1,36,7,25000,22.224,,,70,,,,,,,,,,,wg-a,,,,AAXX 02154 07130 12775 30712 10230 20070 30196 40247 58011 60006 8310/ 91500=
07130,1996-09-02 18:00:00,19,1024,-0.7,60,11,25000,22.224,,,20,8.5,22.8,,,,,,,,,wg-a,,,,AAXX 02184 07130 12/75 10212 10190 20110 30189 40240 56007 60006 80001 91800 333 10228 20085=
07130,1996-09-02 21:00:00,16,1024.8,0.7,82,13,15000,14.816,,,20,,,,,,,,,,,wg-a,,,,AAXX 02214 07130 12/65 00208 10160 20130 30196 40248 53007 60006 80000 92100=
07130,1996-09-03 00:00:00,13,1024.8,-0,88,11,15000,7.408,,,340,,,,,,,,,,,wg-a,,,,AAXX 03004 07130 12/65 03404 10130 20110 30196 40248 54000 60006 80000 90000=
07130,1996-09-03 03:00:00,9,1023.7,-1.2,100,9,15000,7.408,,,330,,,,,,,,,,,wg-a,,,,AAXX 03034 07130 12/65 33304 10090 20090 30184 40237 57012 60006 80002 90300=
07130,1996-09-03 06:00:00,9,1022.9,-0.8,93,8,900,7.408,,,330,8.4,19.1,,,,,,,,41,wg-a,,,,AAXX 03064 07130 02709 33304 10090 20080 30176 40229 56008 60006 74140 82502 90600 333 10191 20084 60004=
07130,1996-09-03 09:00:00,17,1022.2,-0.5,68,11,10000,14.816,,,50,,,,,,,,,,1,wg-a,,,,AAXX 03094 07130 12760 20508 10170 20110 30171 40222 58005 60006 70141 82500 90900=
07130,1996-09-03 12:00:00,21,1020.7,-1.5,46,9,12000,18.52,,,50,,,,,,,,,,3,wg-a,,,,AAXX 03124 07130 12762 40510 10210 20090 30156 40207 57015 60006 70341 84100 91200=
07130,1996-09-03 15:00:00,22,1018.9,-1.7,41,8,15000,25.928,,,50,,,,,,,,,,,wg-a,,,,AAXX 03154 07130 12765 10514 10220 20080 30139 40189 56017 60006 81100 91500=
07130,1996-09-03 18:00:00,20,1014.6,0.2,53,10,25000,18.52,,,320,14.1,22.1,,,,,,,,,wg-a,,,,AAXX 03184 07130 12775 43210 10200 20100 40146 53002 60006 82242 91800 333 10221 20141=
07130,1996-09-03 21:00:00,17,1020,1.1,68,11,12000,22.224,,,40,,,,,,,,,,,wg-a,,,,AAXX 03214 07130 12/62 00412 10170 20110 30149 40200 53011 60006 80000 92100=
07130,1996-09-04 00:00:00,14,1020.1,0,82,11,12000,11.112,,,40,,,,,,,,,,,wg-a,,,,AAXX 04004 07130 12/62 00406 10140 20110 30149 40201 50000 60006 80000 90000=
07130,1996-09-04 03:00:00,14,1019.3,-0.8,77,10,12000,3.704,,,30,,,,,,,,,,,wg-a,,,,AAXX 04034 07130 12/62 00302 10140 20100 30141 40193 56008 60006 80000 90300=
07130,1996-09-04 06:00:00,12,1019.3,-0,88,10,6000,7.408,,,10,12.2,21.5,,,,,,,,,wg-a,,,,AAXX 04064 07130 02/56 00104 10120 20100 30141 40193 55000 60006 80000 90600 333 10215 20122 60004=
07130,1996-09-04 09:00:00,19,1019,-0.2,64,12,8000,11.112,,,50,,,,,,,,,,,wg-a,,,,AAXX 04094 07130 12/58 00506 10190 20120 30139 40190 58002 60006 80000 90900=
07130,1996-09-04 12:00:00,25,1017.9,-1,44,12,17000,22.224,,,70,,,,,,,,,,,wg-a,,,,AAXX 04124 07130 12/67 00712 10250 20120 30129 40179 57010 60006 80000 91200=
07130,1996-09-04 15:00:00,27,1016.4,-1.4,39,12,17000,18.52,,,80,,,,,,,,,,,wg-a,,,,AAXX 04154 07130 12767 10810 10270 20120 30115 40164 58014 60006 81100 91500=
07130,1996-09-04 18:00:00,24,1015.6,-0.9,50,13,20000,22.224,,,30,12.2,27.2,,,,,,,,,wg-a,,,,AAXX 04184 07130 12/70 00312 10240 20130 30106 40156 56009 60006 80000 91800 333 10272 20122=
07130,1996-09-04 21:00:00,20,1017.6,1.9,68,14,15000,18.52,,,60,,,,,,,,,,,wg-a,,,,AAXX 04214 07130 12/65 00610 10200 20140 30125 40176 51019 60006 80000 92100=
07130,1996-09-05 00:00:00,16,1017.9,0.3,88,14,12000,14.816,,,40,,,,,,,,,,,wg-a,,,,AAXX 05004 07130 12/62 00408 10160 20140 30128 40179 51003 60006 80000 90000=
07130,1996-09-05 03:00:00,14,1017.9,-0.1,94,13,8000,7.408,,,30,,,,,,,,,,,wg-a,,,,AAXX 05034 07130 12/58 00304 10140 20130 30127 40179 58001 60006 80000 90300=
07130,1996-09-05 06:00:00,13,1018.6,0.7,94,12,1500,11.112,,,10,12.6,24.1,,,,,,,,10,wg-a,,,,AAXX 05064 07130 02215 40106 10130 20120 30134 40186 53007 60006 71000 84600 90600 333 10241 20126 60004=
07130,1996-09-05 09:00:00,17,1019,0.5,72,12,7000,7.408,,,80,,,,,,,,,,,wg-a,,,,AAXX 05094 07130 12/57 00804 10170 20120 30139 40190 53005 60006 80000 90900=
07130,1996-09-05 12:00:00,22,1017.8,-1.1,53,12,12000,11.112,,,10,,,,,,,,,,,wg-a,,,,AAXX 05124 07130 12/62 00106 10220 20120 30128 40178 58011 60006 80000 91200=
07130,1996-09-05 15:00:00,25,1016.6,-1.2,41,11,500,14.816,,,50,,,,,,,,,,,wg-a,,,,AAXX 05154 07130 12/00 00508 10250 20110 30116 40166 58012 60006 80000 91500=
07130,1996-09-05 18:00:00,22,1016.7,0.1,53,12,25000,18.52,,,350,12.7,24.9,,,,,,,,,wg-a,,,,AAXX 05184 07130 12/75 03510 10220 20120 30117 40167 53001 60006 80000 91800 333 10249 20127=
07130,1996-09-05 21:00:00,17,1018.2,1.4,72,12,20000,7.408,,,30,,,,,,,,,,,wg-a,,,,AAXX 05214 07130 12/70 00304 10170 20120 30131 40182 51014 60006 80000 92100=
07130,1996-09-06 00:00:00,14,1018.9,0.6,82,11,20000,0,,,0,,,,,,,,,,,wg-a,,,,AAXX 06004 07130 12/70 00000 10140 20110 30137 40189 51006 60006 80000 90000=
07130,1996-09-06 03:00:00,11,1019.1,0.2,94,10,15000,3.704,,,350,,,,,,,,,,,wg-a,,,,AAXX 06034 07130 12/65 03502 10110 20100 30139 40191 52002 60006 80000 90300=
07130,1996-09-06 06:00:00,10,1019.7,0.5,93,9,8000,3.704,,,290,9.5,21.8,,,,,,,,11,wg-a,,,,AAXX 06064 07130 02/58 02902 10100 20090 30144 40197 53005 60006 71100 80000 90600 333 10218 20095 60004=
07130,1996-09-06 09:00:00,18,1020.2,0.7,64,11,9000,3.704,,,90,,,,,,,,,,,wg-a,,,,AAXX 06094 07130 12/59 00902 10180 20110 30151 40202 51007 60006 80000 90900=
07130,1996-09-06 12:00:00,24,1019.3,-0.8,41,10,12000,7.408,,,60,,,,,,,,,,,wg-a,,,,AAXX 06124 07130 12/62 00604 10240 20100 30143 40193 57008 60006 80000 91200=
07130,1996-09-06 15:00:00,25,1018.3,-1,36,9,20000,11.112,,,60,,,,,,,,,,,wg-a,,,,AAXX 06154 07130 12/70 00606 10250 20090 30133 40183 58010 60006 80000 91500=
07130,1996-09-06 18:00:00,23,1018.5,0.2,47,11,20000,14.816,,,10,9.5,25.5,,,,,,,,,wg-a,,,,AAXX 06184 07130 12/70 00108 10230 20110 30135 40185 53002 60006 80000 91800 333 10255 20095=
07130,1996-09-07 00:00:00,13,1020.8,0.7,88,11,15000,7.408,,,350,,,,,,,,,,,wg-a,,,,AAXX 07004 07130 12/65 03504 10130 20110 30156 40208 51007 60006 80000 90000=
07130,1996-09-07 03:00:00,10,1020.9,0.1,87,8,15000,0,,,0,,,,,,,,,,,wg-a,,,,AAXX 07034 07130 12/65 00000 10100 20080 30157 40209 53001 60006 80000 90300=
07130,1996-09-07 06:00:00,9,1021.9,0.9,93,8,9000,3.704,,,20,8.9,22.4,,,,,,,,11,wg-a,,,,AAXX 07064 07130 02/59 00202 10090 20080 30166 40219 53009 60006 71100 80000 90600 333 10224 20089 60004=
07130,1996-09-07 09:00:00,18,1023,1.3,52,8,10000,11.112,,,100,,,,,,,,,,,wg-a,,,,AAXX 07094 07130 12/60 01006 10180 20080 30179 40230 51013 60006 80000 90900=
07130,1996-09-07 12:00:00,22,1022.4,-0.6,41,8,12000,18.52,,,70,,,,,,,,,,,wg-a,,,,AAXX 07124 07130 12/62 00710 10220 20080 30173 40224 58006 60006 80000 91200=
07130,1996-09-07 15:00:00,23,1021.6,-0.7,41,9,20000,11.112,,,40,,,,,,,,,,,wg-a,,,,AAXX 07154 07130 12/70 00406 10230 20090 30166 40216 56007 60006 80000 91500=
07130,1996-09-07 18:00:00,22,1021.5,-0.2,43,9,20000,14.816,,,50,9.2,23.6,,,,,,,,,wg-a,,,,AAXX 07184 07130 12/70 00508 10220 20090 30164 40215 56002 60006 80000 91800 333 10236 20092=
07130,1996-09-07 21:00:00,17,1022.6,1.1,63,10,20000,18.52,,,50,,,,,,,,,,,wg-a,,,,AAXX 07214 07130 12/70 00510 10170 20100 30175 40226 51011 60006 80000 92100=
07130,1996-09-08 00:00:00,14,1023.4,0.7,77,10,500,11.112,,,80,,,,,,,,,,,wg-a,,,,AAXX 08004 07130 12/00 00806 10140 20100 30182 40234 52007 60006 80000 90000=
07130,1996-09-08 03:00:00,12,1023.3,-0.1,71,7,500,7.408,,,90,,,,,,,,,,,wg-a,,,,AAXX 08034 07130 12/00 00904 10120 20070 30181 40233 58001 60006 80000 90300=
07130,1996-09-08 06:00:00,9,1023.4,-0,87,7,500,0,,,0,8.5,21.4,,,,,,,,,wg-a,,,,AAXX 08064 07130 02/00 10000 10090 20070 30181 40234 55000 60006 80001 90600 333 10214 20085 60004=
07130,1996-09-08 09:00:00,17,1023.6,0.4,48,6,15000,25.928,,,80,,,,,,,,,,,wg-a,,,,AAXX 08094 07130 12/65 30814 10170 20060 30185 40236 51004 60006 80001 90900=
07130,1996-09-08 12:00:00,19,1023.2,-0.4,37,4,20000,29.632,,,80,,,,,,,,,,,wg-a,,,,AAXX 08124 07130 12/70 60816 10190 20040 30181 40232 58004 60006 80002 91200=
07130,1996-09-08 15:00:00,21,1021.8,-1.4,30,3,25000,25.928,,,60,,,,,,,,,,,wg-a,,,,AAXX 08154 07130 12/75 20614 10210 20030 30167 40218 58014 60006 80002 91500=
07130,1996-09-08 18:00:00,19,1021.8,-0,43,6,500,29.632,,,50,8.6,21.1,,,,,,,,,wg-a,,,,AAXX 08184 07130 12/00 00516 10190 20060 30167 40218 55000 60006 80000 91800 333 10211 20086=
07130,1996-09-08 21:00:00,14,1023.2,1.3,67,8,25000,18.52,,,40,,,,,,,,,,,wg-a,,,,AAXX 08214 07130 12/75 10410 10140 20080 30180 40232 51013 60006 80001 92100=
07130,1996-09-09 00:00:00,13,1023.8,0.6,77,9,20000,14.816,,,30,,,,,,,,,,,wg-a,,,,AAXX 09004 07130 12/70 00308 10130 20090 30186 40238 51006 60006 80000 90000=
07130,1996-09-09 03:00:00,12,1023.2,-0.6,82,9,20000,14.816,,,20,,,,,,,,,,,wg-a,,,,AAXX 09034 07130 12770 70208 10120 20090 30180 40232 58006 60006 875// 90300=
07130,1996-09-09 06:00:00,13,1023.5,0.3,88,11,15000,11.112,,,40,11.1,18.5,,,,,,,,,wg-a,,,,AAXX 09064 07130 02765 60406 10130 20110 30183 40235 53003 60006 86500 90600 333 10185 20111 60004=
07130,1996-09-09 09:00:00,16,1023.9,0.4,72,11,15000,18.52,,,40,,,,,,,,,,,wg-a,,,,AAXX 09094 07130 12565 40410 10160 20110 30187 40239 51004 60006 84800 90900=
07130,1996-09-09 12:00:00,19,1022.8,-1,56,10,20000,22.224,,,30,,,,,,,,,,,wg-a,,,,AAXX 09124 07130 12670 20312 10190 20100 30177 40228 58010 60006 82200 91200=
07130,1996-09-09 15:00:00,21,1021.5,-1.3,46,9,500,25.928,,,30,,,,,,,,,,,wg-a,,,,AAXX 09154 07130 12600 30314 10210 20090 30164 40215 56013 60006 83200 91500=
07130,1996-09-09 18:00:00,19,1021.4,-0.1,56,10,500,25.928,,,40,12.9,21.5,,,,,,,,,wg-a,,,,AAXX 09184 07130 12600 /0414 10190 20100 30163 40214 55001 60006 81140 91800 333 10215 20129=
07130,1996-09-09 21:00:00,15,1023.6,2.1,82,12,25000,18.52,,,40,,,,,,,,,,,wg-a,,,,AAXX 09214 07130 12/75 00410 10150 20120 30184 40236 51021 60006 80000 92100=
07130,1996-09-10 00:00:00,13,1023.8,0.2,88,11,25000,7.408,,,20,,,,,,,,,,,wg-a,,,,AAXX 10004 07130 12/75 00204 10130 20110 30186 40238 52002 60006 80000 90000=
07130,1996-09-10 03:00:00,11,1023,-0.9,94,10,20000,7.408,,,20,,,,,,,,,,,wg-a,,,,AAXX 10034 07130 12670 /0204 10110 20100 30177 40230 58009 60006 85500 90300=
07130,1996-09-10 06:00:00,13,1022.8,-0.1,88,11,15000,7.408,,,360,9.8,18.6,,,,,,,,,wg-a,,,,AAXX 10064 07130 02665 73604 10130 20110 30176 40228 55001 60006 875// 90600 333 10186 20098 60004=
07130,1996-09-10 09:00:00,15,1023.3,0.5,82,12,15000,14.816,,,30,,,,,,,,,,,wg-a,,,,AAXX 10094 07130 12465 80308 10150 20120 30181 40233 53005 60006 878// 90900=
07130,1996-09-10 12:00:00,17,1021.9,-1.3,72,12,20000,18.52,,,30,,,,,,,,,,1,wg-a,,,,AAXX 10124 07130 02570 80310 10170 20120 30168 40219 58013 61000 70165 878// 91200 333 6100=
07130,1996-09-10 15:00:00,19,1020.4,-1.5,60,11,500,22.224,,,20,,,,,,,,,,,wg-a,,,,AAXX 10154 07130 12600 60212 10190 20110 30153 40204 56015 60006 85802 91500=
07130,1996-09-10 18:00:00,16,1020.7,0.3,72,11,25000,22.224,,,30,13.1,19.7,,,,,,,,,wg-a,,,,AAXX 10184 07130 32675 70312 10160 20110 30156 40207 53003 8583/ 91800 333 10197 20131=
07130,1996-09-10 21:00:00,14,1021.4,0.6,77,10,15000,11.112,,,30,,,,,,,,,,,wg-a,,,,AAXX 10214 07130 12665 /0306 10140 20100 30162 40214 51006 60006 81500 92100=
07130,1996-09-11 00:00:00,11,1021.2,-0.2,87,9,15000,7.408,,,10,,,,,,,,,,,wg-a,,,,AAXX 11004 07130 12/65 30104 10110 20090 30160 40212 58002 60006 83030 90000=
07130,1996-09-11 03:00:00,13,1020.1,-1.1,82,10,15000,11.112,,,40,,,,,,,,,,,wg-a,,,,AAXX 11034 07130 12865 50406 10130 20100 30149 40201 57011 60006 85030 90300=
07130,1996-09-11 06:00:00,12,1019.5,-0.6,88,10,7000,11.112,,,40,11.3,16.3,,,,,,,,,wg-a,,,,AAXX 11064 07130 02757 40406 10120 20100 30143 40195 55006 60006 83501 90600 333 10163 20113 61000=
07130,1996-09-11 09:00:00,16,1019.1,-0.3,72,11,12000,11.112,,,70,,,,,,,,,,,wg-a,,,,AAXX 11094 07130 12562 70706 10160 20110 30140 40191 58003 60006 878// 90900=
07130,1996-09-11 12:00:00,19,1018,-1.1,52,9,18000,18.52,,,70,,,,,,,,,,,wg-a,,,,AAXX 11124 07130 12668 70710 10190 20090 30129 40180 58011 60006 86801 91200=
07130,1996-09-11 15:00:00,17,1016.8,-1.2,59,9,15000,18.52,,,50,,,,,,,,,,,wg-a,,,,AAXX 11154 07130 12665 80510 10170 20090 30117 40168 56012 60006 888// 91500=
07130,1996-09-11 18:00:00,17,1016.2,-0.6,59,9,25000,14.816,,,20,11.6,19.7,,,,,,,,,wg-a,,,,AAXX 11184 07130 12775 60208 10170 20090 30111 40162 56006 60006 855/2 91800 333 10197 20116=
07130,1996-09-11 21:00:00,13,1016.5,0.2,77,9,500,11.112,,,10,,,,,,,,,,,wg-a,,,,AAXX 11214 07130 12/00 00106 10130 20090 30113 40165 53002 60006 80000 92100=
07130,1996-09-12 00:00:00,10,1015.6,-0.9,87,8,500,7.408,,,10,,,,,,,,,,,wg-a,,,,AAXX 12004 07130 12/00 00104 10100 20080 30104 40156 58009 60006 80000 90000=
07130,1996-09-12 03:00:00,7,1015.3,-0.4,100,7,12000,7.408,,,310,,,,,,,,,,,wg-a,,,,AAXX 12034 07130 12/62 03104 10070 20070 30100 40153 57004 60006 80000 90300=
07130,1996-09-12 06:00:00,7,1014.4,-0.9,100,7,500,7.408,,,290,6.7,16.7,,,,,,,,11,wg-a,,,,AAXX 12064 07130 02700 /2904 10070 20070 30091 40144 56009 60006 71111 81502 90600 333 10167 20067 60004=
07130,1996-09-12 12:00:00,18,1012.9,-0.8,64,11,12000,25.928,,,10,,,,,,,,,,,wg-a,,,,AAXX 12124 07130 12562 70114 10180 20110 30078 40129 58008 60006 878// 91200=
07130,1996-09-12 15:00:00,17,1012.9,-0,68,11,20000,22.224,,,340,,,,,,,,,,,wg-a,,,,AAXX 12154 07130 12570 73412 10170 20110 30078 40129 55000 60006 878// 91500=
07130,1996-09-12 18:00:00,17,1013.2,0.3,63,10,500,22.224,,,350,7,18.2,,,,,,,,,wg-a,,,,AAXX 12184 07130 12500 /3512 10170 20100 30081 40132 53003 60006 86800 91800 333 10182 20070=
07130,1996-09-12 21:00:00,11,1014.8,1.5,94,10,500,11.112,,,310,,,,,,,,,,,wg-a,,,,AAXX 12214 07130 12/00 03106 10110 20100 30096 40148 51015 60006 80000 92100=
07130,1996-09-13 00:00:00,11,1015.5,0.7,94,10,500,7.408,,,290,,,,,,,,,,,wg-a,,,,AAXX 13004 07130 12600 32904 10110 20100 30103 40155 51007 60006 83500 90000=
07130,1996-09-13 03:00:00,8,1016.2,0.6,100,8,4000,3.704,,,280,,,,,,,,,,10,wg-a,,,,AAXX 13034 07130 12640 /2802 10080 20080 30109 40162 51006 60006 71000 81500 90300=
07130,1996-09-13 06:00:00,7,1017.4,1.2,100,7,10000,3.704,,,310,7.3,16.9,,,,,,,,11,wg-a,,,,AAXX 13064 07130 02/60 23102 10070 20070 30121 40174 52012 60006 71140 81032 90600 333 10169 20073 60004=
07130,1996-09-13 09:00:00,15,1018.6,1.3,59,7,35000,18.52,,,30,,,,,,,,,,,wg-a,,,,AAXX 13094 07130 12581 20310 10150 20070 30134 40186 51013 60006 82800 90900=
07130,1996-09-13 12:00:00,17,1018.9,0.4,42,4,35000,22.224,,,10,,,,,,,,,,,wg-a,,,,AAXX 13124 07130 12681 /0112 10170 20040 30138 40189 52004 60006 81100 91200=
07130,1996-09-13 15:00:00,18,1018.6,-0.3,42,5,500,22.224,,,360,,,,,,,,,,,wg-a,,,,AAXX 13154 07130 12700 13612 10180 20050 30135 40186 56003 60006 81100 91500=
07130,1996-09-13 18:00:00,15,1020.3,1.6,55,6,35000,22.224,,,20,7.3,18.1,,,,,,,,,wg-a,,,,AAXX 13184 07130 12781 10212 10150 20060 30151 40203 53016 60006 81100 91800 333 10181 20073=
07130,1996-09-13 21:00:00,10,1022,1.6,82,7,500,3.704,,,320,,,,,,,,,,,wg-a,,,,AAXX 13214 07130 12/00 03202 10100 20070 30167 40220 51016 60006 80000 92100=
07130,1996-09-14 00:00:00,8,1022.5,0.5,87,6,25000,3.704,,,310,,,,,,,,,,,wg-a,,,,AAXX 14004 07130 12/75 03102 10080 20060 30172 40225 51005 60006 80000 90000=
07130,1996-09-14 03:00:00,6,1023,0.5,93,5,15000,3.704,,,290,,,,,,,,,,,wg-a,,,,AAXX 14034 07130 12/65 02902 10060 20050 30177 40230 53005 60006 80000 90300=
07130,1996-09-14 06:00:00,5,1023.8,0.7,100,5,12000,7.408,,,310,5,15.1,,,,,,,,,wg-a,,,,AAXX 14064 07130 02/62 13104 10050 20050 30184 40238 53007 60006 81041 90600 333 10151 20050 60004=
07130,1996-09-14 09:00:00,14,1024.7,1.1,67,8,14000,3.704,,,140,,,,,,,,,,,wg-a,,,,AAXX 14094 07130 12/64 11402 10140 20080 30195 40247 53011 60006 80001 90900=
07130,1996-09-14 12:00:00,18,1024.2,-0.4,45,6,25000,18.52,,,40,,,,,,,,,,,wg-a,,,,AAXX 14124 07130 12675 /0410 10180 20060 30191 40242 58004 60006 85101 91200=
07130,1996-09-14 15:00:00,19,1023,-1.2,43,6,500,18.52,,,50,,,,,,,,,,,wg-a,,,,AAXX 14154 07130 12600 /0510 10190 20060 30179 40230 57012 60006 81101 91500=
07130,1996-09-14 18:00:00,17,1022.9,-0.1,55,8,35000,22.224,,,20,5.2,20.2,,,,,,,,,wg-a,,,,AAXX 14184 07130 12/81 10212 10170 20080 30178 40229 55001 60006 80001 91800 333 10202 20052=
07130,1996-09-14 21:00:00,13,1023.9,0.9,72,8,10000,14.816,,,30,,,,,,,,,,,wg-a,,,,AAXX 14214 07130 12/60 /0308 10130 20080 30187 40239 51009 60006 92100=
07130,1996-09-15 00:00:00,10,1024.6,0.6,82,7,0,3.704,,,10,,,,,,,,,,,wg-a,,,,AAXX 15004 07130 12/// /0102 10100 20070 30193 40246 51006 60006 90000=
07130,1996-09-15 03:00:00,8,1024.2,-0.4,87,6,20000,3.704,,,360,,,,,,,,,,,wg-a,,,,AAXX 15034 07130 12/70 03602 10080 20060 30189 40242 58004 60006 80000 90300=
07130,1996-09-15 06:00:00,6,1024.4,0.1,93,5,10000,3.704,,,300,5.8,16.6,,,,,,,,11,wg-a,,,,AAXX 15064 07130 02/60 /3002 10060 20050 30190 40244 53001 60006 71100 80001 90600 333 10166 20058 60004=
07130,1996-09-15 09:00:00,15,1024.7,0.5,67,9,15000,7.408,,,170,,,,,,,,,,,wg-a,,,,AAXX 15094 07130 12/65 01704 10150 20090 30195 40247 51005 60006 80000 90900=
07130,1996-09-15 12:00:00,21,1023.5,-1.1,43,8,500,14.816,,,120,,,,,,,,,,,wg-a,,,,AAXX 15124 07130 12600 /1208 10210 20080 30184 40235 58011 60006 81100 91200=
07130,1996-09-15 15:00:00,23,1022.1,-1.3,36,7,500,18.52,,,110,,,,,,,,,,,wg-a,,,,AAXX 15154 07130 12/00 01110 10230 20070 30171 40221 56013 60006 80000 91500=
07130,1996-09-15 18:00:00,21,1021.8,-0.4,40,7,40000,11.112,,,110,5.7,23.2,,,,,,,,,wg-a,,,,AAXX 15184 07130 12/82 01106 10210 20070 30167 40218 55004 60006 80000 91800 333 10232 20057=
07130,1996-09-15 21:00:00,16,1022.3,0.4,55,7,40000,11.112,,,100,,,,,,,,,,,wg-a,,,,AAXX 15214 07130 12/82 01006 10160 20070 30171 40223 51004 60006 80000 92100=
07130,1996-09-16 00:00:00,13,1022.6,0.3,67,7,40000,3.704,,,130,,,,,,,,,,,wg-a,,,,AAXX 16004 07130 12/82 01302 10130 20070 30174 40226 50003 60006 80000 90000=
07130,1996-09-16 03:00:00,11,1021.7,-0.9,76,7,20000,7.408,,,100,,,,,,,,,,,wg-a,,,,AAXX 16034 07130 12/70 01004 10110 20070 30165 40217 58009 60006 80000 90300=
07130,1996-09-16 06:00:00,10,1021.1,-0.7,82,7,9000,7.408,,,110,9.7,20.7,,,,,,,,,wg-a,,,,AAXX 16064 07130 02/59 /1104 10100 20070 30158 40211 58007 60006 80001 90600 333 10207 20097 60004=
07130,1996-09-16 09:00:00,17,1019.9,-1,52,7,15000,22.224,,,110,,,,,,,,,,,wg-a,,,,AAXX 16094 07130 12/65 11112 10170 20070 30148 40199 58010 60006 80001 90900=
07130,1996-09-16 12:00:00,21,1018.5,-1.4,38,6,500,22.224,,,120,,,,,,,,,,,wg-a,,,,AAXX 16124 07130 12/00 01212 10210 20060 30134 40185 58014 60006 80000 91200=
07130,1996-09-16 15:00:00,23,1015.5,-2.9,29,4,500,22.224,,,130,,,,,,,,,,,wg-a,,,,AAXX 16154 07130 12/00 01312 10230 20040 30105 40155 58029 60006 80000 91500=
07130,1996-09-16 18:00:00,21,1014.2,-1.3,33,4,500,14.816,,,100,9.7,23.3,,,,,,,,,wg-a,,,,AAXX 16184 07130 12/00 01008 10210 20040 30092 40142 56013 60006 80000 91800 333 10233 20097=
07130,1996-09-16 21:00:00,15,1014.2,-0.1,48,4,25000,11.112,,,90,,,,,,,,,,,wg-a,,,,AAXX 16214 07130 12/75 10906 10150 20040 30091 40142 58001 60006 80001 92100=
07130,1996-09-17 00:00:00,13,1013.2,-1.1,58,5,25000,14.816,,,90,,,,,,,,,,,wg-a,,,,AAXX 17004 07130 12/75 00908 10130 20050 30080 40132 58011 60006 80000 90000=
07130,1996-09-17 03:00:00,11,1012.1,-1.1,66,5,25000,11.112,,,80,,,,,,,,,,,wg-a,,,,AAXX 17034 07130 12/75 10806 10110 20050 30069 40121 56011 60006 80001 90300=
07130,1996-09-17 06:00:00,10,1011.7,-0.4,71,5,20000,11.112,,,100,9.8,20.5,,,,,,,,,wg-a,,,,AAXX 17064 07130 02770 21006 10100 20050 30065 40117 55004 60006 815/1 90600 333 10205 20098 60004=
07130,1996-09-17 09:00:00,16,1011.5,-0.1,51,6,25000,14.816,,,100,,,,,,,,,,,wg-a,,,,AAXX 17094 07130 12/75 11008 10160 20060 30064 40115 58001 60006 81031 90900=
07130,1996-09-17 12:00:00,22,1010.1,-1.3,33,5,500,22.224,,,90,,,,,,,,,,,wg-a,,,,AAXX 17124 07130 12/00 20912 10220 20050 30051 40101 56013 60006 80001 91200=
07130,1996-09-17 15:00:00,24,1008.9,-1.2,29,5,35000,18.52,,,100,,,,,,,,,,,wg-a,,,,AAXX 17154 07130 12/81 21010 10240 20050 30039 40089 56012 60006 80002 91500=
07130,1996-09-17 18:00:00,21,1009.6,0.7,38,6,25000,11.112,,,100,9.7,23.9,,,,,,,,,wg-a,,,,AAXX 17184 07130 12/75 01006 10210 20060 30046 40096 53007 60006 80000 91800 333 10239 20097=
07130,1996-09-17 21:00:00,17,1009.7,0,42,4,20000,18.52,,,90,,,,,,,,,,,wg-a,,,,AAXX 17214 07130 12/70 00910 10170 20040 30046 40097 50000 60006 80000 92100=
07130,1996-09-18 00:00:00,14,1009,-0.7,51,4,20000,14.816,,,100,,,,,,,,,,,wg-a,,,,AAXX 18004 07130 12/70 01008 10140 20040 30039 40090 58007 60006 80000 90000=
07130,1996-09-18 03:00:00,12,1008.2,-0.9,58,4,25000,11.112,,,90,,,,,,,,,,,wg-a,,,,AAXX 18034 07130 12/75 00906 10120 20040 30030 40082 58009 60006 80000 90300=
07130,1996-09-18 06:00:00,10,1007.4,-0.8,66,4,15000,14.816,,,100,10.3,20.9,,,,,,,,,wg-a,,,,AAXX 18064 07130 02/65 41008 10100 20040 30022 40074 58008 60006 80001 90600 333 10209 20103 60004=
07130,1996-09-18 09:00:00,15,1006.7,-0.6,51,5,20000,18.52,,,110,,,,,,,,,,,wg-a,,,,AAXX 18094 07130 12/70 11110 10150 20050 30016 40067 57006 60006 80001 90900=
07130,1996-09-18 12:00:00,18,1006,-0.6,45,6,20000,18.52,,,90,,,,,,,,,,,wg-a,,,,AAXX 18124 07130 12670 /0910 10180 20060 30010 40060 58006 60006 86530 91200=
07130,1996-09-18 15:00:00,20,1003.9,-2.1,46,8,12000,18.52,,,110,,,,,,,,,,,wg-a,,,,AAXX 18154 07130 12662 71110 10200 20080 39989 40039 56021 60006 8357/ 91500=
07130,1996-09-18 18:00:00,19,1003.8,-0.1,46,7,20000,22.224,,,90,10.3,21.1,,,,,,,,,wg-a,,,,AAXX 18184 07130 12670 80912 10190 20070 39988 40038 55001 60006 8357/ 91800 333 10211 20103=
07130,1996-09-18 20:00:00,19,1003.8,-0.1,46,7,20000,22.224,,,90,10.3,21.1,,,,,,,,,wg-a,,,,AAXX 18204 07130 12670 80912 10190 20070 39988 40038 55001 60006 8357/ 92000 333 10211 20103=
07130,1996-09-18 21:00:00,17,1005.1,1.2,42,4,20000,18.52,,,70,,,,,,,,,,,wg-a,,,,AAXX 18214 07130 12/70 80710 10170 20040 30000 40051 51012 60006 8807/ 92100=
07130,1996-09-19 00:00:00,12,1005.4,0.3,62,5,20000,25.928,,,60,,,,,,,,,,,wg-a,,,,AAXX 19004 07130 12/70 00614 10120 20050 30003 40054 50003 60006 80000 90000=
07130,1996-09-19 03:00:00,11,1004.8,-0.7,71,6,20000,18.52,,,40,,,,,,,,,,,wg-a,,,,AAXX 19034 07130 12770 30410 10110 20060 39996 40048 56007 60006 83500 90300=
07130,1996-09-19 06:00:00,10,1004.4,-0.4,76,6,12000,22.224,,,40,10.2,18.9,,,,,,,,,wg-a,,,,AAXX 19064 07130 02762 20412 10100 20060 39992 40044 58004 60006 81530 90600 333 10189 20102 60004=
07130,1996-09-19 09:00:00,12,1004.3,0,67,6,14000,22.224,,,50,,,,,,,,,,,wg-a,,,,AAXX 19094 07130 12664 /0512 10120 20060 39992 40043 50000 60006 81531 90900=
07130,1996-09-19 12:00:00,14,1004.2,-0.1,58,6,15000,22.224,,,40,,,,,,,,,,,wg-a,,,,AAXX 19124 07130 12565 80412 10140 20060 39991 40042 58001 60006 875// 91200=
07130,1996-09-19 15:00:00,14,1003.3,-0.9,67,8,9000,22.224,,,30,,,,,,,,,,1,wg-a,,,,AAXX 19154 07130 02459 70312 10140 20080 39982 40033 58009 61000 70165 8487/ 91500 333 ////=
07130,1996-09-19 18:00:00,12,1003.6,0.3,88,10,2500,14.816,,,300,9.9,,,,,,,,,51,wg-a,,,,AAXX 19184 07130 02425 83008 10120 20100 39985 40036 53003 61000 75165 877// 91800 333 20099 ////=
07130,1996-09-19 21:00:00,12,1003.2,-0.4,94,11,4000,11.112,,,300,,,,1,,,,,,3,wg-a,,,,AAXX 19214 07130 12240 83006 10120 20110 39981 40032 55004 60017 70365 8662/ 92100=
07130,1996-09-20 00:00:00,12,1002.8,-0.4,100,12,2500,3.704,,,360,,,,1,,,,,,61,wg-a,,,,AAXX 20004 07130 02425 83602 10120 20120 39977 40028 56004 60016 76165 877// 90000 333 60017=
07130,1996-09-20 03:00:00,12,1002.3,-0.5,100,12,2000,7.408,,,290,,,,2,,,,,,61,wg-a,,,,AAXX 20034 07130 12120 82904 10120 20120 39972 40023 58005 60027 76166 887// 90300=
07130,1996-09-20 06:00:00,11,1002.1,-0.2,100,11,2500,11.112,,,270,11,12.3,,1,,,4,,,10,wg-a,,,,AAXX 20064 07130 02325 82706 10110 20110 39970 40021 55002 60044 71065 887// 90600 333 10123 20110 60017=
07130,1996-09-20 09:00:00,11,1003.1,1,94,10,2500,7.408,,,250,,,,,,,,,,10,wg-a,,,,AAXX 20094 07130 02225 82504 10110 20100 39980 40031 53010 61000 71052 887// 90900 333 ////=
07130,1996-09-20 12:00:00,12,1003.2,0.1,94,11,2500,3.704,,,150,,,,0,,,,,,10,wg-a,,,,AAXX 20124 07130 02225 81502 10120 20110 39981 40032 52001 60006 71052 886// 91200 333 60007=
07130,1996-09-20 15:00:00,15,1002.8,-0.4,82,12,8000,11.112,,,80,,,,,,,,,,,wg-a,,,,AAXX 20154 07130 12358 /0806 10150 20120 39977 40028 58004 60006 86800 91500=
07130,1996-09-20 18:00:00,15,1002.8,-0,77,11,8000,7.408,,,110,10.9,16.3,,,,,,,,,wg-a,,,,AAXX 20184 07130 32858 41104 10150 20110 39977 40028 55000 84500 91800 333 10163 20109=
07130,1996-09-20 21:00:00,13,1003.3,0.5,88,11,8000,11.112,,,90,,,,,,,,,,,wg-a,,,,AAXX 20214 07130 12758 80906 10130 20110 39982 40033 50005 60006 885// 92100=
07130,1996-09-21 00:00:00,11,1002.9,-0.4,94,10,8000,7.408,,,90,,,,,,,,,,,wg-a,,,,AAXX 21004 07130 12658 20904 10110 20100 39978 40029 56004 60006 82500 90000=
07130,1996-09-21 03:00:00,10,1002.4,-0.6,93,9,8000,7.408,,,60,,,,,,,,,,,wg-a,,,,AAXX 21034 07130 12658 /0604 10100 20090 39972 40024 58006 60006 85500 90300=
07130,1996-09-21 06:00:00,9,1002.8,0.4,93,8,3000,7.408,,,40,8.1,14.9,,,,,,,,10,wg-a,,,,AAXX 21064 07130 02630 /0404 10090 20080 39976 40028 53004 60006 71011 85500 90600 333 10149 20081 60004=
07130,1996-09-21 09:00:00,11,1004.1,1.4,94,10,4000,14.816,,,50,,,,,,,,,,10,wg-a,,,,AAXX 21094 07130 12340 /0508 10110 20100 39990 40041 53014 60006 71022 86600 90900=
07130,1996-09-21 12:00:00,18,1004.1,0.1,59,10,12000,18.52,,,70,,,,,,,,,,,wg-a,,,,AAXX 21124 07130 12562 40710 10180 20100 39991 40041 50001 60006 84200 91200=
07130,1996-09-21 15:00:00,18,1004.3,0.2,52,8,15000,22.224,,,60,,,,,,,,,,,wg-a,,,,AAXX 21154 07130 12765 50612 10180 20080 39993 40043 53002 60006 85500 91500=
07130,1996-09-21 18:00:00,16,1006,1.6,63,9,15000,11.112,,,40,8.7,18.9,,,,,,,,,wg-a,,,,AAXX 21184 07130 12765 20406 10160 20090 30009 40060 53016 60006 81501 91800 333 10189 20087=
07130,1996-09-21 21:00:00,13,1008.1,2.1,82,10,9000,14.816,,,30,,,,,,,,,,,wg-a,,,,AAXX 21214 07130 12659 20308 10130 20100 30030 40081 51021 60006 82500 92100=
07130,1996-09-22 00:00:00,12,1008.9,0.7,88,10,0,11.112,,,360,,,,,,,,,,,wg-a,,,,AAXX 22004 07130 12/// /3606 10120 20100 30037 40089 53007 60006 90000=
07130,1996-09-22 06:00:00,12,1010.1,0.5,88,10,6000,11.112,,,340,11.6,15.8,,,,,,,,,wg-a,,,,AAXX 22064 07130 02656 83406 10120 20100 30049 40101 53005 60006 875// 90600 333 10158 20116 60004=
07130,1996-09-22 09:00:00,14,1011.1,1.1,72,9,8000,14.816,,,40,,,,,,,,,,,wg-a,,,,AAXX 22094 07130 12658 70408 10140 20090 30060 40111 53011 60006 875// 90900=
07130,1996-09-22 12:00:00,14,1011.6,0.5,63,7,10000,11.112,,,360,,,,,,,,,,,wg-a,,,,AAXX 22124 07130 12560 73606 10140 20070 30065 40116 50005 60006 878// 91200=
07130,1996-09-22 15:00:00,15,1011.4,-0.2,63,8,12000,22.224,,,20,,,,,,,,,,,wg-a,,,,AAXX 22154 07130 12662 70212 10150 20080 30063 40114 55002 60006 878// 91500=
07130,1996-09-22 18:00:00,14,1011.7,0.3,72,9,10000,11.112,,,10,11.9,17.2,,,,,,,,,wg-a,,,,AAXX 22184 07130 12660 80106 10140 20090 30066 40117 53003 60006 875// 91800 333 10172 20119=
07130,1996-09-22 21:00:00,12,1012.5,0.7,88,10,10000,7.408,,,360,,,,,,,,,,,wg-a,,,,AAXX 22214 07130 12760 83604 10120 20100 30073 40125 51007 60006 875// 92100=
07130,1996-09-23 00:00:00,11,1012,-0.5,87,9,10000,3.704,,,310,,,,,,,,,,,wg-a,,,,AAXX 23004 07130 12760 73102 10110 20090 30068 40120 58005 60006 875// 90000=
07130,1996-09-23 03:00:00,10,1011.4,-0.6,93,9,10000,3.704,,,290,,,,,,,,,,,wg-a,,,,AAXX 23034 07130 12760 72902 10100 20090 30062 40114 58006 60006 875// 90300=
07130,1996-09-23 06:00:00,9,1011.5,0.1,93,8,4000,3.704,,,310,8.9,13.7,,,,,,,,10,wg-a,,,,AAXX 23064 07130 02740 73102 10090 20080 30063 40115 53001 60006 71022 875// 90600 333 10137 20089 60004=
07130,1996-09-23 09:00:00,12,1011.8,0.3,88,10,500,0,,,0,,,,,,,,,,,wg-a,,,,AAXX 23094 07130 12700 70000 10120 20100 30066 40118 51003 60006 81531 90900=
07130,1996-09-23 12:00:00,18,1011,-0.7,49,7,15000,7.408,,,230,,,,,,,,,,,wg-a,,,,AAXX 23124 07130 12665 72304 10180 20070 30059 40110 58007 60006 85802 91200=
07130,1996-09-23 15:00:00,19,1010.3,-0.7,46,7,15000,11.112,,,270,,,,,,,,,,,wg-a,,,,AAXX 23154 07130 12665 72706 10190 20070 30052 40103 56007 60006 84832 91500=
07130,1996-09-23 18:00:00,16,1011.1,0.8,59,8,15000,7.408,,,250,9,19.1,,,,,,,,,wg-a,,,,AAXX 23184 07130 12665 72504 10160 20080 30060 40111 53008 60006 875// 91800 333 10191 20090=
07130,1996-09-23 21:00:00,13,1012.4,1.2,67,7,15000,3.704,,,110,,,,,,,,,,,wg-a,,,,AAXX 23214 07130 12665 21102 10130 20070 30072 40124 51012 60006 82500 92100=
07130,1996-09-24 00:00:00,9,1012.4,-0,87,7,8000,3.704,,,10,,,,,,,,,,,wg-a,,,,AAXX 24004 07130 12/58 00102 10090 20070 30072 40124 55000 60006 80000 90000=
07130,1996-09-24 03:00:00,7,1012.2,-0.3,93,6,7000,0,,,0,,,,,,,,,,,wg-a,,,,AAXX 24034 07130 12/57 00000 10070 20060 30069 40122 58003 60006 80000 90300=
07130,1996-09-24 06:00:00,5,1012.9,0.7,100,5,2000,0,,,0,5.3,16.3,,,,,,,,12,wg-a,,,,AAXX 24064 07130 02/20 60000 10050 20050 30076 40129 51007 60006 71241 81041 90600 333 10163 20053 60004=
07130,1996-09-24 09:00:00,12,1013.5,0.7,76,8,8000,3.704,,,200,,,,,,,,,,,wg-a,,,,AAXX 24094 07130 12/58 /2002 10120 20080 30083 40135 53007 60006 80001 90900=
07130,1996-09-24 12:00:00,19,1012.1,-1.2,46,7,15000,7.408,,,200,,,,,,,,,,,wg-a,,,,AAXX 24124 07130 12/65 52004 10190 20070 30071 40121 58012 60006 80001 91200=
07130,1996-09-24 15:00:00,19,1010.9,-1.2,49,8,12000,3.704,,,260,,,,,,,,,,,wg-a,,,,AAXX 24154 07130 12662 82602 10190 20080 30059 40109 56012 60006 8157/ 91500=
07130,1996-09-24 18:00:00,18,1010.5,-0.5,64,11,11000,11.112,,,250,5.3,20.8,,,,,,,,,wg-a,,,,AAXX 24184 07130 12/61 /2506 10180 20110 30054 40105 56005 60006 91800 333 10208 20053=
07130,1996-09-24 21:00:00,15,1009.9,-0.6,88,13,12000,11.112,,,220,,,,,,,,,,,wg-a,,,,AAXX 24214 07130 12762 82206 10150 20130 30048 40099 58006 60006 885// 92100=
07130,1996-09-25 00:00:00,14,1008.6,-1.3,88,12,15000,7.408,,,210,,,,,,,,,,,wg-a,,,,AAXX 25004 07130 12765 82104 10140 20120 30035 40086 58013 60006 885// 90000=
07130,1996-09-25 03:00:00,13,1007.5,-1.1,100,13,15000,7.408,,,190,,,,7,,,,,,21,wg-a,,,,AAXX 25034 07130 12765 81904 10130 20130 30024 40075 58011 60077 72122 885// 90300=
07130,1996-09-25 06:00:00,12,1007.1,-0.4,100,12,8000,11.112,,,220,12.1,17.5,,,,,7,,,,wg-a,,,,AAXX 25064 07130 12258 /2206 10120 20120 30020 40071 56004 60074 81801 90600 333 10175 20121=
07130,1996-09-25 09:00:00,14,1008.8,1.7,94,13,12000,7.408,,,240,,,,0,,,,,,,wg-a,,,,AAXX 25094 07130 12262 /2404 10140 20130 30037 40088 51017 60007 86230 90900=
07130,1996-09-25 12:00:00,18,1010.2,1.4,64,11,35000,11.112,,,350,,,,,,,,,,,wg-a,,,,AAXX 25124 07130 12581 73506 10180 20110 30051 40102 51014 60006 878// 91200=
07130,1996-09-25 15:00:00,19,1010.9,0.8,56,10,35000,25.928,,,350,,,,,,,,,,,wg-a,,,,AAXX 25154 07130 12681 53514 10190 20100 30059 40109 53008 60006 85800 91500=
07130,1996-09-25 18:00:00,17,1013.8,2.8,68,11,25000,11.112,,,20,11.9,20.2,,,,,,,,,wg-a,,,,AAXX 25184 07130 32675 /0206 10170 20110 30087 40138 53028 81201 91800 333 10202 20119=
07130,1996-09-25 21:00:00,13,1016.3,2.4,88,11,25000,3.704,,,330,,,,,,,,,,,wg-a,,,,AAXX 25214 07130 12/75 53302 10130 20110 30111 40163 51024 60006 80001 92100=
07130,1996-09-26 00:00:00,11,1017.3,1,94,10,20000,3.704,,,260,,,,,,,,,,,wg-a,,,,AAXX 26004 07130 12/70 62602 10110 20100 30121 40173 53010 60006 86031 90000=
07130,1996-09-26 03:00:00,11,1017.8,0.5,94,10,20000,0,,,0,,,,,,,,,,,wg-a,,,,AAXX 26034 07130 12/70 20000 10110 20100 30126 40178 53005 60006 80001 90300=
07130,1996-09-26 06:00:00,11,1017.7,-0.1,94,10,300,7.408,,,240,9.9,16.5,,,,,,,,44,wg-a,,,,AAXX 26064 07130 02103 82404 10110 20100 30125 40177 55001 60006 74441 886// 90600 333 10165 20099 60004=
07130,1996-09-26 09:00:00,14,1017.8,0.1,100,14,9000,14.816,,,210,,,,,,,,,,1,wg-a,,,,AAXX 26094 07130 12259 /2108 10140 20140 30126 40178 51001 60006 70142 83230 90900=
07130,1996-09-26 12:00:00,17,1016.4,-1.3,82,14,12000,18.52,,,220,,,,0,,,,,,60,wg-a,,,,AAXX 26124 07130 02562 82210 10170 20140 30113 40164 58013 60006 76064 8322/ 91200 333 60007=
07130,1996-09-26 15:00:00,15,1015.3,-1.1,94,14,6000,18.52,,,200,,,,2,,,,,,61,wg-a,,,,AAXX 26154 07130 12456 82010 10150 20140 30102 40153 56011 60027 76166 8577/ 91500=
07130,1996-09-26 18:00:00,14,1012.1,,94,13,11000,25.928,,,200,,,,,,,,,,,wg-a,,,,AAXX 26184 07130 32/61 /2014 10140 20130 30070 40121 91800=
07130,1996-09-26 21:00:00,16,1012.3,-1.7,94,15,20000,22.224,,,210,,,,3,,,,,,3,wg-a,,,,AAXX 26214 07130 12270 82112 10160 20150 30072 40123 56017 60037 70362 885// 92100=
07130,1996-09-27 00:00:00,16,1012.8,0.5,94,15,11000,22.224,,,260,,,,,,,,,,,wg-a,,,,AAXX 27004 07130 12/61 /2612 10160 20150 30077 40128 53005 60036 90000=
07130,1996-09-27 03:00:00,14,1013.6,0.8,94,13,20000,11.112,,,240,,,,,,,,,,,wg-a,,,,AAXX 27034 07130 12570 /2406 10140 20130 30085 40136 51008 60006 85500 90300=
07130,1996-09-27 06:00:00,13,1014.5,0.8,94,12,6000,11.112,,,230,12.8,16.4,,0,,,10,,,,wg-a,,,,AAXX 27064 07130 02/56 /2306 10130 20120 30093 40145 53008 60104 80001 90600 333 10164 20128 60007=
07130,1996-09-27 09:00:00,17,1015.4,1,88,15,9000,18.52,,,260,,,,,,,,,,,wg-a,,,,AAXX 27094 07130 12459 72610 10170 20150 30103 40154 53010 60006 878// 90900=
07130,1996-09-27 12:00:00,20,1016.3,0.9,64,13,15000,22.224,,,290,,,,,,,,,,,wg-a,,,,AAXX 27124 07130 12565 /2912 10200 20130 30112 40163 51009 60006 85200 91200=
07130,1996-09-27 15:00:00,19,1018.5,2.2,52,9,20000,25.928,,,330,,,,1,,,,,,,wg-a,,,,AAXX 27154 07130 12570 33314 10190 20090 30134 40185 53022 60017 83200 91500=
07130,1996-09-27 18:00:00,16,1020.9,2.4,63,9,20000,14.816,,,330,12.8,20.7,,,,,,,,,wg-a,,,,AAXX 27184 07130 32570 /3308 10160 20090 30158 40209 53024 81500 91800 333 10207 20128=
07130,1996-09-27 20:00:00,13,1020.9,2.4,72,8,20000,14.816,,,330,12.8,20.7,,,,,,,,,wg-a,,,,AAXX 27204 07130 32570 /3308 10130 20080 30158 40209 53024 81500 92000 333 10207 20128=
07130,1996-09-27 21:00:00,12,1023.4,2.4,82,9,20000,7.408,,,260,,,,,,,,,,,wg-a,,,,AAXX 27214 07130 12/70 02604 10120 20090 30182 40234 51024 60006 80000 92100=
07130,1996-09-28 00:00:00,11,1024.6,1.1,94,10,20000,7.408,,,240,,,,,,,,,,,wg-a,,,,AAXX 28004 07130 12/70 02404 10110 20100 30193 40246 51011 60006 80000 90000=
07130,1996-09-28 03:00:00,11,1025.5,0.9,94,10,12000,7.408,,,260,,,,,,,,,,,wg-a,,,,AAXX 28034 07130 12162 82604 10110 20100 30202 40255 52009 60006 876// 90300=
07130,1996-09-28 06:00:00,11,1025,-0.4,100,11,400,11.112,,,240,10.2,16.3,,,,,1,,,45,wg-a,,,,AAXX 28064 07130 02/04 92406 10110 20110 30198 40250 58004 60006 74541 89/// 90600 333 10163 20102 60014=
07130,1996-09-28 12:00:00,19,1026.4,-0.5,60,11,20000,11.112,,,240,,,,,,,,,,3,wg-a,,,,AAXX 28124 07130 12570 62406 10190 20110 30213 40264 58005 60006 70342 84202 91200=
07130,1996-09-28 15:00:00,19,1025.1,-1.3,52,9,11000,14.816,,,240,,,,,,,,,,,wg-a,,,,AAXX 28154 07130 12/61 /2408 10190 20090 30200 40251 58013 60006 91500=
07130,1996-09-28 18:00:00,16,1025.2,-0,72,11,25000,14.816,,,230,11,19.9,,,,,,,,,wg-a,,,,AAXX 28184 07130 12675 42308 10160 20110 30200 40252 55000 60006 81532 91800 333 10199 20110=
07130,1996-09-28 21:00:00,13,1025.4,0.2,88,11,15000,11.112,,,200,,,,,,,,,,,wg-a,,,,AAXX 28214 07130 12/65 52006 10130 20110 30202 40254 50002 60006 84032 92100=
07130,1996-09-29 00:00:00,13,1024.4,-1,94,12,12000,11.112,,,200,,,,,,,,,,,wg-a,,,,AAXX 29004 07130 12462 72006 10130 20120 30192 40244 56010 60006 83572 90000=
07130,1996-09-29 03:00:00,14,1022.8,-1.6,94,13,12000,14.816,,,220,,,,,,,,,,,wg-a,,,,AAXX 29034 07130 12362 72208 10140 20130 30176 40228 58016 60006 878// 90300=
07130,1996-09-29 06:00:00,14,1022.7,-0.1,94,13,12000,11.112,,,230,12.7,16.4,,,,,,,,,wg-a,,,,AAXX 29064 07130 02262 32306 10140 20130 30175 40227 55001 60006 82641 90600 333 10164 20127 60004=
07130,1996-09-29 09:00:00,17,1023.2,0.6,82,14,15000,18.52,,,240,,,,,,,,,,,wg-a,,,,AAXX 29094 07130 12465 72410 10170 20140 30181 40232 53006 60006 871// 90900=
07130,1996-09-29 12:00:00,20,1022.8,-0.4,68,14,35000,22.224,,,230,,,,,,,,,,,wg-a,,,,AAXX 29124 07130 12581 82312 10200 20140 30177 40228 58004 60006 885// 91200=
07130,1996-09-29 15:00:00,18,1021.7,-1.1,83,15,12000,22.224,,,230,,,,,,,,,,,wg-a,,,,AAXX 29154 07130 12462 82312 10180 20150 30166 40217 56011 60006 885// 91500=
07130,1996-09-29 18:00:00,17,1021.1,-0.6,94,16,6000,22.224,,,230,13.7,20.7,,,,,,,,20,wg-a,,,,AAXX 29184 07130 02256 82312 10170 20160 30160 40211 56006 61000 72052 887// 91800 333 10207 20137 ////=
07130,1996-09-29 21:00:00,17,1020.4,-0.7,94,16,10000,18.52,,,240,,,,,,,,,,,wg-a,,,,AAXX 29214 07130 12360 82410 10170 20160 30153 40204 56007 60006 887// 92100=
07130,1996-09-30 00:00:00,17,1019,-1.4,94,16,15000,18.52,,,230,,,,,,,,,,,wg-a,,,,AAXX 30004 07130 12365 82310 10170 20160 30139 40190 56014 60006 887// 90000=
07130,1996-09-30 03:00:00,17,1017.3,-1.7,94,16,10000,11.112,,,220,,,,,,,,,,,wg-a,,,,AAXX 30034 07130 12260 82206 10170 20160 30122 40173 58017 60006 887// 90300=
07130,1996-09-30 06:00:00,16,1015.7,-1.6,100,16,3000,14.816,,,210,16.2,17.1,,,,,,,,51,wg-a,,,,AAXX 30064 07130 02230 82108 10160 20160 30106 40157 56016 61000 75152 887// 90600 333 10171 20162 6100=
07130,1996-09-30 09:00:00,17,1014.3,-1.4,94,16,4000,18.52,,,210,,,,0,,,,,,50,wg-a,,,,AAXX 30094 07130 12240 82110 10170 20160 30092 40143 58014 60007 75052 887// 90900=
07130,1996-09-30 12:00:00,17,1011.6,-2.7,94,16,11000,22.224,,,210,,,,,,,,,,21,wg-a,,,,AAXX 30124 07130 02361 82112 10170 20160 30065 40116 56027 60006 72165 885// 91200 333 61000=
07130,1996-09-30 15:00:00,16,1008.7,-2.9,100,16,3000,22.224,,,210,,,,0,,,,,,61,wg-a,,,,AAXX 30154 07130 12230 82112 10160 20160 30036 40087 56029 60007 76162 877// 91500=
07130,1996-09-30 18:00:00,14,1007.4,-1.3,94,13,1500,22.224,,,350,14.3,18.1,,2,,,,,,63,wg-a,,,,AAXX 30184 07130 12215 83512 10140 20130 30023 40074 55013 60027 76365 877// 91800 333 10181 20143=
07130,1996-09-30 21:00:00,13,1007.2,-0.2,94,12,500,11.112,,,30,,,,2,,,,,,61,wg-a,,,,AAXX 30214 07130 12200 80306 10130 20120 30021 40072 58002 60027 76162 887// 92100=
07130,1996-10-01 00:00:00,12,1007.2,-0,100,12,500,18.52,,,20,,,,,,,,,,,wg-a,,,,AAXX 01004 07130 12/00 /0210 10120 20120 30021 40072 55000 60076 90000=
07130,1996-10-01 03:00:00,11,1006.8,-0.5,94,10,500,14.816,,,10,,,,,,,,,,61,wg-a,,,,AAXX 01034 07130 02400 80108 10110 20100 30016 40068 55005 61000 76166 8652/ 90300 333 ////=
07130,1996-10-01 06:00:00,11,1008.7,1.9,94,10,13000,7.408,,,350,10.6,14.2,,0,,,9,,,1,wg-a,,,,AAXX 01064 07130 02563 73504 10110 20100 30035 40087 51019 60094 70162 84872 90600 333 10142 20106 60007=
07130,1996-10-01 09:00:00,13,1010.3,1.7,94,12,12000,14.816,,,300,,,,0,,,,,,80,wg-a,,,,AAXX 01094 07130 12362 63008 10130 20120 30052 40103 53017 60007 78086 85870 90900=
07130,1996-10-01 12:00:00,16,1012.1,1.8,59,8,15000,25.928,,,340,,,,1,,,,,,1,wg-a,,,,AAXX 01124 07130 02565 53414 10160 20080 30070 40121 51018 60016 70186 85800 91200 333 60017=
07130,1996-10-01 15:00:00,16,1013,0.9,63,9,35000,18.52,,,310,,,,1,,,,,,,wg-a,,,,AAXX 01154 07130 12681 43110 10160 20090 30079 40130 51009 60017 84800 91500=
07130,1996-10-01 18:00:00,13,1014.3,1.2,72,8,35000,7.408,,,300,10.5,17,,,,,,,,,wg-a,,,,AAXX 01184 07130 32681 /3004 10130 20080 30091 40143 51012 81800 91800 333 10170 20105=
07130,1996-10-01 21:00:00,10,1015,0.7,87,8,35000,7.408,,,250,,,,,,,,,,,wg-a,,,,AAXX 01214 07130 12/81 02504 10100 20080 30098 40150 51007 60006 80000 92100=
07130,1996-10-02 00:00:00,12,1012.7,-2.3,82,9,20000,14.816,,,200,,,,,,,,,,61,wg-a,,,,AAXX 02004 07130 02670 82008 10120 20090 30075 40127 58023 61000 76161 875// 90000 333 6100=
07130,1996-10-02 06:00:00,11,1012,1.3,100,11,15000,7.408,,,10,10,12.5,,1,,,8,,,25,wg-a,,,,AAXX 02064 07130 02465 70104 10110 20110 30068 40120 53013 60084 72586 878// 90600 333 10125 20100 60017=
07130,1996-10-02 09:00:00,13,1015.8,3.8,88,11,15000,11.112,,,30,,,,,,,,,,,wg-a,,,,AAXX 02094 07130 12365 /0306 10130 20110 30106 40158 53038 60006 85200 90900=
07130,1996-10-02 12:00:00,16,1019,,68,10,15000,14.816,,,40,,,,,,,,,,,wg-a,,,,AAXX 02124 07130 12565 20408 10160 20100 30139 40190 60006 82100 91200=
07130,1996-10-02 18:00:00,15,1023.7,2.1,77,11,20000,14.816,,,350,11.4,18.1,,,,,,,,,wg-a,,,,AAXX 02184 07130 12670 /3508 10150 20110 30185 40237 53021 60006 81501 91800 333 10181 20114=
07130,1996-10-02 21:00:00,11,1026.4,2.6,87,9,20000,7.408,,,290,,,,,,,,,,,wg-a,,,,AAXX 02214 07130 12/70 02904 10110 20090 30211 40264 51026 60006 80000 92100=
07130,1996-10-03 00:00:00,9,1027.3,0.9,100,9,10000,3.704,,,290,,,,,,,,,,11,wg-a,,,,AAXX 03004 07130 12/60 22902 10090 20090 30220 40273 51009 60006 71100 82030 90000=
07130,1996-10-03 03:00:00,8,1026.8,-0.5,100,8,10000,0,,,0,,,,,,,,,,11,wg-a,,,,AAXX 03034 07130 12/60 00000 10080 20080 30215 40268 58005 60006 71100 80000 90300=
07130,1996-10-03 06:00:00,7,1027.3,0.5,100,7,600,0,,,0,7,14.8,,,,,,,,42,wg-a,,,,AAXX 03064 07130 02706 /0000 10070 20070 30220 40273 52005 60006 74241 85530 90600 333 10148 20070 60004=
07130,1996-10-03 09:00:00,12,1027.9,0.7,94,11,6000,7.408,,,220,,,,,,,,,,2,wg-a,,,,AAXX 03094 07130 12/56 /2204 10120 20110 30227 40279 51007 60006 70242 80002 90900=
07130,1996-10-03 12:00:00,18,1026.5,-1.3,73,13,15000,14.816,,,240,,,,,,,,,,1,wg-a,,,,AAXX 03124 07130 12565 42408 10180 20130 30214 40265 58013 60006 70141 84200 91200=
07130,1996-10-03 15:00:00,19,1024.7,-1.8,56,10,500,25.928,,,230,,,,,,,,,,,wg-a,,,,AAXX 03154 07130 12600 /2314 10190 20100 30196 40247 56018 60006 81100 91500=
07130,1996-10-03 18:00:00,16,1025.2,0.4,68,10,15000,14.816,,,250,7.2,19.5,,,,,,,,,wg-a,,,,AAXX 03184 07130 12665 72508 10160 20100 30200 40252 53004 60006 875// 91800 333 10195 20072=
07130,1996-10-03 21:00:00,15,1024.2,-1,77,11,11000,18.52,,,220,,,,,,,,,,,wg-a,,,,AAXX 03214 07130 12/61 /2210 10150 20110 30190 40242 58010 60006 92100=
07130,1996-10-04 00:00:00,15,1023.1,-1.1,82,12,15000,14.816,,,220,,,,,,,,,,,wg-a,,,,AAXX 04004 07130 12465 82208 10150 20120 30179 40231 58011 60006 885// 90000=
07130,1996-10-04 03:00:00,14,1021.3,-1.8,100,14,7000,14.816,,,230,,,,0,,,,,,50,wg-a,,,,AAXX 04034 07130 12257 82308 10140 20140 30161 40213 58018 60007 75052 887// 90300=
07130,1996-10-04 06:00:00,11,1022.6,1.3,100,11,25000,3.704,,,280,11.1,15.8,,2,,,3,,,1,wg-a,,,,AAXX 04064 07130 02675 /2802 10110 20110 30174 40226 51013 60034 70165 86500 90600 333 10158 20111 60027=
07130,1996-10-04 09:00:00,14,1023.2,0.6,77,10,500,22.224,,,310,,,,,,,,,,,wg-a,,,,AAXX 04094 07130 12500 /3112 10140 20100 30180 40232 53006 60006 81102 90900=
07130,1996-10-04 12:00:00,17,1022.2,-0.9,48,6,40000,25.928,,,300,,,,,,,,,,,wg-a,,,,AAXX 04124 07130 12682 /3014 10170 20060 30171 40222 56009 60006 81100 91200=
07130,1996-10-04 15:00:00,17,1020.2,-2,52,7,50000,22.224,,,290,,,,,,,,,,,wg-a,,,,AAXX 04154 07130 12684 42912 10170 20070 30151 40202 56020 60006 84800 91500=
07130,1996-10-04 17:00:00,14,1,,67,8,500,11.112,,,270,10.1,17.6,,,,,,,,,wg-a,,,,AAXX 04174 07130 12600 /2706 10140 20080 60006 91700 333 10176 20101=
07130,1996-10-04 18:00:00,14,1019.4,-0.9,67,8,500,11.112,,,270,10.1,17.6,,,,,,,,,wg-a,,,,AAXX 04184 07130 12600 52706 10140 20080 30142 40194 56009 60006 84201 91800 333 10176 20101=
07130,1996-10-04 21:00:00,11,1018.9,-0.5,87,9,20000,14.816,,,270,,,,0,,,,,,25,wg-a,,,,AAXX 04214 07130 12670 /2708 10110 20090 30137 40189 58005 60007 72586 86800 92100=
07130,1996-10-05 00:00:00,10,1017.5,-1.4,87,8,11000,18.52,,,280,,,,,,,,,,,wg-a,,,,AAXX 05004 07130 12/61 /2810 10100 20080 30123 40175 58014 60006 90000=
07130,1996-10-05 03:00:00,9,1017.4,-0.2,,,20000,14.816,,,280,,,,0,,,,,,,wg-a,,,,AAXX 05034 07130 12670 22808 10090 2//// 30121 40174 58002 60007 82200 90300=
07130,1996-10-05 06:00:00,8,1018.2,0.8,100,8,15000,11.112,,,280,7.9,14,,2,,,2,,,25,wg-a,,,,AAXX 05064 07130 02565 32806 10080 20080 30129 40182 52008 60024 72586 83200 90600 333 10140 20079 60027=
07130,1996-10-05 09:00:00,12,1019.9,1.8,88,10,20000,18.52,,,300,,,,1,,,,,,25,wg-a,,,,AAXX 05094 07130 12570 23010 10120 20100 30147 40199 51018 60017 72586 82900 90900=
07130,1996-10-05 12:00:00,15,1020.2,0.3,67,9,500,25.928,,,330,,,,,,,,,,1,wg-a,,,,AAXX 05124 07130 12500 /3314 10150 20090 30150 40202 53003 60016 70186 86900 91200=
07130,1996-10-05 15:00:00,13,1020.6,0.4,77,9,25000,14.816,,,330,,,,1,,,,,,25,wg-a,,,,AAXX 05154 07130 12575 23308 10130 20090 30154 40206 53004 60017 72587 82301 91500=
07130,1996-10-05 18:00:00,12,1022.3,1.7,76,8,500,11.112,,,10,8.1,15.7,,,,,,,,1,wg-a,,,,AAXX 05184 07130 32500 /0106 10120 20080 30171 40223 53017 70187 81300 91800 333 10157 20081=
07130,1996-10-05 21:00:00,9,1023.9,1.5,87,7,15000,3.704,,,10,,,,,,,,,,,wg-a,,,,AAXX 05214 07130 12/65 00102 10090 20070 30186 40239 51015 60006 80000 92100=
07130,1996-10-06 00:00:00,7,1024.5,0.6,93,6,15000,3.704,,,300,,,,,,,,,,,wg-a,,,,AAXX 06004 07130 12/65 53002 10070 20060 30192 40245 51006 60006 85030 90000=
07130,1996-10-06 03:00:00,6,1024.4,-0.2,100,6,10000,3.704,,,320,,,,,,,,,,,wg-a,,,,AAXX 06034 07130 12/60 53202 10060 20060 30190 40244 56002 60006 85030 90300=
07130,1996-10-06 06:00:00,7,1025,0.7,100,7,15000,3.704,,,220,5.4,11.9,,,,,2,,,,wg-a,,,,AAXX 06064 07130 02565 82202 10070 20070 30197 40250 52007 60006 8157/ 90600 333 10119 20054 60024=
07130,1996-10-06 09:00:00,10,1025.9,0.9,93,9,18000,7.408,,,320,,,,,,,,,,,wg-a,,,,AAXX 06094 07130 12568 83204 10100 20090 30206 40259 53009 60006 8257/ 90900=
07130,1996-10-06 12:00:00,12,1026.2,0.4,82,9,20000,14.816,,,20,,,,,,,,,,,wg-a,,,,AAXX 06124 07130 12670 80208 10120 20090 30210 40262 53004 60006 8252/ 91200=
07130,1996-10-06 15:00:00,12,1025,-1.2,88,10,11000,18.52,,,360,,,,,,,,,,,wg-a,,,,AAXX 06154 07130 32/61 /3610 10120 20100 30198 40250 56012 91500=
07130,1996-10-06 18:00:00,11,1025.2,0.1,94,10,7000,3.704,,,120,7.2,12.5,,1,,,,,,61,wg-a,,,,AAXX 06184 07130 12457 81202 10110 20100 30199 40252 53001 60017 76162 8352/ 91800 333 10125 20072=
07130,1996-10-06 21:00:00,10,1025.7,0.5,100,10,8000,3.704,,,300,,,,1,,,,,,61,wg-a,,,,AAXX 06214 07130 12458 83002 10100 20100 30204 40257 51005 60017 76166 8552/ 92100=
07130,1996-10-07 00:00:00,10,1024.9,-0.8,100,10,6000,3.704,,,290,,,,0,,,,,,60,wg-a,,,,AAXX 07004 07130 02456 82902 10100 20100 30196 40249 57008 60026 76066 8552/ 90000 333 60007=
07130,1996-10-07 03:00:00,11,1023.6,-1.3,94,10,500,3.704,,,170,,,,,,,,,,21,wg-a,,,,AAXX 07034 07130 02400 81702 10110 20100 30183 40236 56013 61000 72162 877// 90300 333 ////=
07130,1996-10-07 06:00:00,11,1023.2,-0.4,94,10,4000,7.408,,,200,9.9,11,,,,,3,,,10,wg-a,,,,AAXX 07064 07130 02/40 /2004 10110 20100 30179 40232 56004 60034 710// 90600 333 10110 20099 61000=
07130,1996-10-07 09:00:00,11,1023.7,0.6,100,11,3000,7.408,,,210,,,,,,,,,,10,wg-a,,,,AAXX 07094 07130 12130 82104 10110 20110 30185 40237 53006 60006 71022 887// 90900=
07130,1996-10-07 12:00:00,13,1022.9,-0.8,94,12,4000,7.408,,,210,,,,,,,,,,10,wg-a,,,,AAXX 07124 07130 12240 82104 10130 20120 30177 40229 58008 60006 71022 886// 91200=
07130,1996-10-07 15:00:00,15,1021.8,-1.1,88,13,9000,3.704,,,320,,,,0,,,,,,,wg-a,,,,AAXX 07154 07130 12459 83202 10150 20130 30166 40218 56011 60007 888// 91500=
07130,1996-10-07 18:00:00,14,1022.4,0.6,94,13,7000,0,,,0,10.5,15.6,,,,,,,,20,wg-a,,,,AAXX 07184 07130 32457 80000 10140 20130 30172 40224 53006 72022 8587/ 91800 333 10156 20105=
07130,1996-10-07 21:00:00,13,1022.8,0.4,100,13,8000,3.704,,,290,,,,0,,,,,,1,wg-a,,,,AAXX 07214 07130 12458 82902 10130 20130 30176 40228 50004 60007 70162 875// 92100=
07130,1996-10-08 00:00:00,13,1022.5,-0.3,94,12,10000,7.408,,,310,,,,,,,,,,1,wg-a,,,,AAXX 08004 07130 12460 83104 10130 20120 30173 40225 58003 60016 70162 878// 90000=
07130,1996-10-08 03:00:00,13,1022,-0.5,94,12,6000,3.704,,,310,,,,1,,,,,,21,wg-a,,,,AAXX 08034 07130 12356 83102 10130 20120 30168 40220 58005 60017 72122 878// 90300=
07130,1996-10-08 06:00:00,12,1022.1,0.1,100,12,2500,7.408,,,290,12.4,14.1,,0,,,1,,,20,wg-a,,,,AAXX 08064 07130 02125 82904 10120 20120 30169 40221 53001 60014 72065 885// 90600 333 10141 20124 60007=
07130,1996-10-08 09:00:00,13,1023.3,1.2,100,13,7000,7.408,,,300,,,,,,,,,,21,wg-a,,,,AAXX 08094 07130 02257 83004 10130 20130 30181 40233 51012 61000 72165 885// 90900 333 ////=
07130,1996-10-08 12:00:00,15,1022.8,-0.5,82,12,12000,3.704,,,10,,,,,,,,,,1,wg-a,,,,AAXX 08124 07130 02462 70102 10150 20120 30176 40228 58005 61000 70165 878// 91200 333 ////=
07130,1996-10-08 15:00:00,15,1022.4,-0.4,82,12,20000,7.408,,,320,,,,,,,,,,,wg-a,,,,AAXX 08154 07130 12470 83204 10150 20120 30172 40224 56004 60006 888// 91500=
07130,1996-10-08 18:00:00,15,1022.5,0.1,82,12,12000,3.704,,,350,12.4,16.3,,,,,,,,,wg-a,,,,AAXX 08184 07130 32662 83502 10150 20120 30173 40225 53001 885// 91800 333 10163 20124=
07130,1996-10-08 21:00:00,13,1022.9,0.4,94,12,12000,3.704,,,290,,,,,,,,,,,wg-a,,,,AAXX 08214 07130 12662 82902 10130 20120 30177 40229 53004 60006 885// 92100=
07130,1996-10-09 00:00:00,13,1022.3,-0.6,94,12,12000,3.704,,,220,,,,,,,,,,,wg-a,,,,AAXX 09004 07130 12662 82202 10130 20120 30171 40223 58006 60006 885// 90000=
07130,1996-10-09 03:00:00,12,1021.6,-0.7,100,12,10000,3.704,,,260,,,,,,,,,,,wg-a,,,,AAXX 09034 07130 12460 82602 10120 20120 30164 40216 57007 60006 885// 90300=
07130,1996-10-09 06:00:00,13,1021.5,-0.1,94,12,7000,3.704,,,260,12.4,14.7,,,,,,,,20,wg-a,,,,AAXX 09064 07130 02357 82602 10130 20120 30163 40215 56001 61000 72052 885// 90600 333 10147 20124 6100=
07130,1996-10-09 09:00:00,13,1022.5,1,100,13,2500,14.816,,,310,,,,0,,,,,,51,wg-a,,,,AAXX 09094 07130 12125 83108 10130 20130 30173 40225 51010 60007 75152 887// 90900=
07130,1996-10-09 12:00:00,15,1022.6,0.1,82,12,12000,18.52,,,340,,,,,,,,,,2,wg-a,,,,AAXX 09124 07130 02562 73410 10150 20120 30174 40226 50001 60016 70252 875// 91200 333 61000=
07130,1996-10-09 15:00:00,15,1022.5,-0.1,72,10,15000,22.224,,,10,,,,,,,,,,,wg-a,,,,AAXX 09154 07130 12565 30112 10150 20100 30173 40225 58001 60006 83830 91500=
07130,1996-10-09 18:00:00,12,1023.8,1.3,71,7,20000,22.224,,,10,11.7,15.4,,,,,,,,,wg-a,,,,AAXX 09184 07130 32670 /0112 10120 20070 30186 40238 53013 81501 91800 333 10154 20117=
07130,1996-10-09 21:00:00,10,1025.2,1.3,87,8,20000,22.224,,,10,,,,,,,,,,,wg-a,,,,AAXX 09214 07130 12570 70112 10100 20080 30199 40252 52013 60006 875// 92100=
07130,1996-10-10 00:00:00,10,1024.9,-0.3,87,8,20000,22.224,,,10,,,,,,,,,,,wg-a,,,,AAXX 10004 07130 12670 70112 10100 20080 30196 40249 56003 60006 875// 90000=
07130,1996-10-10 03:00:00,9,1024.4,-0.5,100,9,20000,22.224,,,10,,,,,,,,,,,wg-a,,,,AAXX 10034 07130 12570 /0112 10090 20090 30191 40244 58005 60006 86500 90300=
07130,1996-10-10 06:00:00,11,1024.7,0.3,94,10,500,22.224,,,10,8.6,11.7,,,,,,,,,wg-a,,,,AAXX 10064 07130 02700 70112 10110 20100 30194 40247 51003 60006 875// 90600 333 10117 20086 60004=
07130,1996-10-10 09:00:00,14,1025.8,1.2,82,11,10000,7.408,,,320,,,,,,,,,,,wg-a,,,,AAXX 10094 07130 12460 /3204 10140 20110 30206 40258 52012 60006 86800 90900=
07130,1996-10-10 12:00:00,17,1025.2,-0.6,68,11,20000,14.816,,,360,,,,,,,,,,,wg-a,,,,AAXX 10124 07130 12670 63608 10170 20110 30200 40252 58006 60006 86830 91200=
07130,1996-10-10 15:00:00,16,1024.2,-1,72,11,12000,14.816,,,10,,,,,,,,,,,wg-a,,,,AAXX 10154 07130 12662 40108 10160 20110 30190 40242 56010 60006 84800 91500=
07130,1996-10-10 18:00:00,15,1024.4,0.2,82,12,12000,11.112,,,40,10.4,17.4,,,,,,,,,wg-a,,,,AAXX 10184 07130 12662 70406 10150 20120 30192 40244 53002 60006 875// 91800 333 10174 20104=
07130,1996-10-10 21:00:00,13,1024.7,0.3,88,11,12000,3.704,,,290,,,,,,,,,,,wg-a,,,,AAXX 10214 07130 12762 72902 10130 20110 30195 40247 51003 60006 875// 92100=
07130,1996-10-11 00:00:00,11,1023.5,-1.2,94,10,8000,3.704,,,100,,,,,,,,,,,wg-a,,,,AAXX 11004 07130 12758 81002 10110 20100 30183 40235 58012 60006 885// 90000=
07130,1996-10-11 03:00:00,10,1022.2,-1.4,93,9,3000,3.704,,,150,,,,,,,,,,10,wg-a,,,,AAXX 11034 07130 12730 /1502 10100 20090 30169 40222 58014 60006 71022 86500 90300=
07130,1996-10-11 06:00:00,7,1022.1,-0.1,100,7,300,0,,,0,7,14.7,,,,,,,,41,wg-a,,,,AAXX 11064 07130 02/03 00000 10070 20070 30168 40221 56001 60006 74141 80000 90600 333 10147 20070 60004=
07130,1996-10-11 09:00:00,9,1021.7,-0.4,100,9,800,7.408,,,140,,,,,,,,,,42,wg-a,,,,AAXX 11094 07130 12108 /1404 10090 20090 30164 40217 58004 60006 74244 84600 90900=
07130,1996-10-11 12:00:00,17,1020,-1.5,63,10,8000,11.112,,,140,,,,,,,,,,3,wg-a,,,,AAXX 11124 07130 12558 31406 10170 20100 30149 40200 58015 60006 70341 83200 91200=
07130,1996-10-11 15:00:00,17,1018,-2,63,10,9000,11.112,,,170,,,,,,,,,,,wg-a,,,,AAXX 11154 07130 12559 31706 10170 20100 30129 40180 57020 60006 81201 91500=
07130,1996-10-11 18:00:00,14,1016.9,-1.2,77,10,7000,7.408,,,130,6.8,17.8,,,,,,,,,wg-a,,,,AAXX 11184 07130 12/57 21304 10140 20100 30117 40169 56012 60006 80001 91800 333 10178 20068=
07130,1996-10-11 21:00:00,12,1016.3,-0.6,88,10,6000,7.408,,,140,,,,,,,,,,,wg-a,,,,AAXX 11214 07130 12556 /1404 10120 20100 30111 40163 57006 60006 85500 92100=
07130,1996-10-12 00:00:00,11,1014.8,-1.5,87,9,6000,3.704,,,140,,,,,,,,,,,wg-a,,,,AAXX 12004 07130 12556 /1402 10110 20090 30096 40148 58015 60006 85500 90000=
07130,1996-10-12 03:00:00,10,1013.1,-1.7,100,10,1500,11.112,,,170,,,,,,,,,,28,wg-a,,,,AAXX 12034 07130 12015 /1706 10100 20100 30079 40131 58017 60006 72842 83600 90300=
07130,1996-10-12 06:00:00,9,1012.2,-0.9,100,9,1500,7.408,,,170,9,13.4,,,,,,,,10,wg-a,,,,AAXX 12064 07130 02515 41704 10090 20090 30070 40122 57009 60006 71041 82501 90600 333 10134 20090 60004=
07130,1996-10-12 09:00:00,11,1012,-0.2,94,10,3000,11.112,,,190,,,,,,,,,,,wg-a,,,,AAXX 12094 07130 12/30 /1906 10110 20100 30068 40120 58002 60006 90900=
07130,1996-10-12 12:00:00,16,1010.4,-1.5,77,12,12000,11.112,,,180,,,,,,,,,,3,wg-a,,,,AAXX 12124 07130 12462 71806 10160 20120 30053 40104 58015 60006 70341 878// 91200=
07130,1996-10-12 15:00:00,19,1008.1,-2.2,68,13,15000,14.816,,,180,,,,,,,,,,,wg-a,,,,AAXX 12154 07130 12665 /1808 10190 20130 30031 40081 56022 60006 81100 91500=
07130,1996-10-12 18:00:00,16,1007.3,-0.9,77,12,7000,11.112,,,160,8.8,18.9,,,,,,,,,wg-a,,,,AAXX 12184 07130 12/57 01606 10160 20120 30022 40073 56009 60006 80000 91800 333 10189 20088=
07130,1996-10-12 21:00:00,14,1006.2,-1.1,82,11,9000,11.112,,,130,,,,,,,,,,,wg-a,,,,AAXX 12214 07130 12/59 01306 10140 20110 30011 40062 58011 60006 80000 92100=
07130,1996-10-13 00:00:00,14,1004.9,-1.3,88,12,9000,18.52,,,180,,,,,,,,,,,wg-a,,,,AAXX 13004 07130 12/59 01810 10140 20120 39998 40049 57013 60006 80000 90000=
07130,1996-10-13 03:00:00,13,1002.8,-2.1,88,11,10000,18.52,,,140,,,,,,,,,,,wg-a,,,,AAXX 13034 07130 12/60 01410 10130 20110 39977 40028 58021 60006 80000 90300=
07130,1996-10-13 06:00:00,12,1001.6,-1.2,88,10,6000,14.816,,,140,12,16,,,,,,,,,wg-a,,,,AAXX 13064 07130 02/56 /1408 10120 20100 39965 40016 56012 60006 90600 333 10160 20120 60004=
07130,1996-10-13 09:00:00,17,1001.3,-0.2,68,11,12000,29.632,,,170,,,,,,,,,,,wg-a,,,,AAXX 13094 07130 12/62 11716 10170 20110 39963 40013 58002 60006 80002 90900=
07130,1996-10-13 12:00:00,21,1000.1,-1.1,53,11,15000,38.892,,,190,,,,,,,,,,,wg-a,,,,AAXX 13124 07130 12/65 /1921 10210 20110 39952 40001 58011 60006 80002 91200=
07130,1996-10-13 15:00:00,22,999.4,-0.7,43,9,20000,35.188,,55.56,200,,,,,,,,,,,wg-a,,,,AAXX 13154 07130 12670 42019 10220 20090 39945 49994 56007 60006 84802 91500 333 91030=
07130,1996-10-13 18:00:00,19,1000,0.5,56,10,20000,14.816,,,180,12.1,22.4,,,,,,,,,wg-a,,,,AAXX 13184 07130 12770 61808 10190 20100 39950 40000 51005 60006 835/2 91800 333 10224 20121=
07130,1996-10-13 21:00:00,16,1000,-0,77,12,20000,11.112,,,130,,,,,,,,,,,wg-a,,,,AAXX 13214 07130 12770 31306 10160 20120 39950 40000 55000 60006 81230 92100=
07130,1996-10-14 00:00:00,16,1000.3,0.3,72,11,20000,11.112,,,160,,,,,,,,,,,wg-a,,,,AAXX 14004 07130 12/70 21606 10160 20110 39953 40003 53003 60006 80001 90000=
07130,1996-10-14 03:00:00,14,1000.2,-0.2,82,11,20000,11.112,,,130,,,,,,,,,,,wg-a,,,,AAXX 14034 07130 12770 71306 10140 20110 39951 40002 58002 60006 855/2 90300=
07130,1996-10-14 06:00:00,14,1000.6,0.4,82,11,15000,14.816,,,130,13.7,18.7,,,,,,,,,wg-a,,,,AAXX 14064 07130 02765 71308 10140 20110 39955 40006 53004 60006 875// 90600 333 10187 20137 60004=
07130,1996-10-14 09:00:00,15,1001.5,0.9,82,12,18000,14.816,,,150,,,,,,,,,,,wg-a,,,,AAXX 14094 07130 12768 71508 10150 20120 39964 40015 51009 60006 8657/ 90900=
07130,1996-10-14 12:00:00,17,1001,-0.4,82,14,10000,25.928,,,180,,,,,,,,,,61,wg-a,,,,AAXX 14124 07130 02560 81814 10170 20140 39960 40010 58004 61000 76162 8782/ 91200 333 6100=
07130,1996-10-14 15:00:00,17,1001.7,0.7,77,13,25000,18.52,,,220,,,,0,,,,,,1,wg-a,,,,AAXX 14154 07130 12475 /2210 10170 20130 39967 40017 51007 60007 70162 85272 91500=
07130,1996-10-14 18:00:00,15,1002.9,1.1,94,14,25000,11.112,,,200,13.8,17.3,,0,,,,,,1,wg-a,,,,AAXX 14184 07130 12475 62006 10150 20140 39978 40029 53011 60007 70186 85302 91800 333 10173 20138=
07130,1996-10-14 21:00:00,14,1004.1,1.2,94,13,500,7.408,,,230,,,,,,,,,,,wg-a,,,,AAXX 14214 07130 12300 32304 10140 20130 39990 40041 53012 60006 83500 92100=
07130,1996-10-15 00:00:00,12,1006,1.9,94,11,500,11.112,,,260,,,,,,,,,,,wg-a,,,,AAXX 15004 07130 12/00 02606 10120 20110 30009 40060 52019 60006 80000 90000=
07130,1996-10-15 03:00:00,9,1007.3,1.2,100,9,12000,7.408,,,240,,,,,,,,,,,wg-a,,,,AAXX 15034 07130 12262 32404 10090 20090 30021 40073 51012 60006 83600 90300=
07130,1996-10-15 06:00:00,9,1008.9,1.6,100,9,500,7.408,,,200,8.7,14.9,,0,,,1,,,11,wg-a,,,,AAXX 15064 07130 02200 /2004 10090 20090 30037 40089 51016 60014 71100 81500 90600 333 10149 20087 60007=
07130,1996-10-15 09:00:00,13,1009.6,0.8,88,11,25000,14.816,,,220,,,,,,,,,,,wg-a,,,,AAXX 15094 07130 12575 /2208 10130 20110 30045 40096 53008 60006 81550 90900=
07130,1996-10-15 12:00:00,14,1010.6,1,77,10,25000,18.52,,,330,,,,1,,,,,,21,wg-a,,,,AAXX 15124 07130 02475 /3310 10140 20100 30055 40106 53010 60016 72161 86830 91200 333 60017=
07130,1996-10-15 15:00:00,14,1010.6,1,77,10,25000,18.52,,,330,,,,1,,,,,,21,wg-a,,,,AAXX 15154 07130 02475 63310 10140 20100 30055 40106 53010 60016 72161 86830 91500 333 60017=
07130,1996-10-15 18:00:00,11,1012.8,1,66,5,40000,11.112,,,290,8.7,15.8,,,,,,,,,wg-a,,,,AAXX 15184 07130 32682 /2906 10110 20050 30076 40128 53010 81500 91800 333 10158 20087=
07130,1996-10-15 21:00:00,9,1013.6,0.8,81,6,500,11.112,,,230,,,,,,,,,,,wg-a,,,,AAXX 15214 07130 12/00 02306 10090 20060 30084 40136 51008 60006 80000 92100=
07130,1996-10-16 00:00:00,8,1013.1,-0.6,87,6,500,11.112,,,210,,,,,,,,,,,wg-a,,,,AAXX 16004 07130 12/00 02106 10080 20060 30078 40131 58006 60006 80000 90000=
07130,1996-10-16 03:00:00,7,1011.8,-1.3,93,6,500,11.112,,,200,,,,,,,,,,,wg-a,,,,AAXX 16034 07130 12/00 02006 10070 20060 30065 40118 58013 60006 80000 90300=
07130,1996-10-16 06:00:00,8,1011.3,-0.4,93,7,20000,14.816,,,190,7,10.4,,,,,1,,,,wg-a,,,,AAXX 16064 07130 02770 51908 10080 20070 30061 40113 58004 60006 85500 90600 333 10104 20070 60014=
07130,1996-10-16 09:00:00,12,1011.3,-0,82,9,25000,11.112,,,220,,,,,,,,,,,wg-a,,,,AAXX 16094 07130 12475 /2206 10120 20090 30061 40113 55000 60006 85800 90900=
07130,1996-10-16 12:00:00,14,1010.3,-0.9,67,8,25000,18.52,,,250,,,,,,,,,,,wg-a,,,,AAXX 16124 07130 12575 62510 10140 20080 30052 40103 56009 60006 86800 91200=
07130,1996-10-16 15:00:00,15,1008.9,-1.4,63,8,25000,25.928,,,230,,,,,,,,,,,wg-a,,,,AAXX 16154 07130 12575 42314 10150 20080 30038 40089 56014 60006 84900 91500=
07130,1996-10-16 18:00:00,11,1009,-0,82,8,20000,3.704,,,300,8.1,15.9,,0,,,,,,25,wg-a,,,,AAXX 16184 07130 12570 23002 10110 20080 30038 40090 55000 60007 72586 82300 91800 333 10159 20081=
07130,1996-10-16 21:00:00,10,1008.3,-0.7,87,8,11000,3.704,,,210,,,,,,,,,,,wg-a,,,,AAXX 16214 07130 12/61 /2102 10100 20080 30031 40083 58007 60006 92100=
07130,1996-10-17 00:00:00,9,1008.2,-0.1,93,8,15000,11.112,,,320,,,,5,,,,,,21,wg-a,,,,AAXX 17004 07130 02665 83206 10090 20080 30030 40082 58001 60056 72161 8/800 90000 333 60057=
07130,1996-10-17 03:00:00,6,1008.6,0.3,100,6,25000,11.112,,,270,,,,,,,,,,,wg-a,,,,AAXX 17034 07130 12/75 02706 10060 20060 30033 40086 51003 60006 80000 90300=
07130,1996-10-17 06:00:00,5,1009.1,0.5,100,5,0,7.408,,,240,5,11,,,,,5,,,,wg-a,,,,AAXX 17064 07130 12/// /2404 10050 20050 30038 40091 53005 60054 90600 333 10110 20050=
07130,1996-10-17 12:00:00,13,1010.6,0.3,67,7,0,11.112,,,330,,,,,,,,,,,wg-a,,,,AAXX 17124 07130 12/// /3306 10130 20070 30055 40106 50003 60006 91200=
07130,1996-10-17 18:00:00,12,1011.2,0.7,67,6,35000,7.408,,,210,4.9,16.4,,,,,,,,,wg-a,,,,AAXX 17184 07130 12681 /2104 10120 20060 30060 40112 53007 60006 81500 91800 333 10164 20049=
07130,1996-10-17 21:00:00,9,1011.5,0.3,87,7,35000,7.408,,,200,,,,,,,,,,,wg-a,,,,AAXX 17214 07130 12/81 02004 10090 20070 30063 40115 51003 60006 80000 92100=
07130,1996-10-18 00:00:00,7,1011.4,-0.2,93,6,35000,11.112,,,170,,,,,,,,,,,wg-a,,,,AAXX 18004 07130 12/81 01706 10070 20060 30061 40114 58002 60006 80000 90000=
07130,1996-10-18 03:00:00,9,1010,-1.3,81,6,35000,18.52,,,180,,,,,,,,,,,wg-a,,,,AAXX 18034 07130 12581 /1810 10090 20060 30048 40100 58013 60006 81500 90300=
07130,1996-10-18 06:00:00,10,1008.7,-1.3,82,7,15000,25.928,,,180,7.3,12.1,,,,,,,,60,wg-a,,,,AAXX 18064 07130 02665 71814 10100 20070 30035 40087 58013 61000 76061 8657/ 90600 333 10121 20073 6100=
07130,1996-10-18 09:00:00,12,1009.2,0.5,88,10,7000,18.52,,,190,,,,0,,,,,,21,wg-a,,,,AAXX 18094 07130 12357 81910 10120 20100 30040 40092 53005 60007 72165 8557/ 90900=
07130,1996-10-18 12:00:00,17,1010.3,1.2,63,10,15000,22.224,,,280,,,,,,,,,,1,wg-a,,,,AAXX 18124 07130 12665 32812 10170 20100 30052 40103 52012 60006 70165 83801 91200=
07130,1996-10-18 15:00:00,18,1010.5,0.2,59,10,20000,29.632,,,250,,,,,,,,,,,wg-a,,,,AAXX 18154 07130 12670 /2516 10180 20100 30054 40105 53002 60006 81501 91500=
07130,1996-10-18 18:00:00,14,1011.5,1,94,13,12000,18.52,,,230,9.4,18.7,,2,,,,,,1,wg-a,,,,AAXX 18184 07130 12562 22310 10140 20130 30064 40115 51010 60027 70186 82500 91800 333 10187 20094=
07130,1996-10-18 21:00:00,14,1013.4,1.9,94,13,15000,14.816,,,260,,,,2,,,,,,1,wg-a,,,,AAXX 18214 07130 12565 /2608 10140 20130 30083 40134 53019 60027 70186 86800 92100=
07130,1996-10-19 00:00:00,12,1015.7,2.2,88,10,15000,11.112,,,260,,,,,,,,,,1,wg-a,,,,AAXX 19004 07130 12765 52606 10120 20100 30105 40157 51022 60026 70186 85500 90000=
07130,1996-10-19 03:00:00,12,1017.7,2,88,10,15000,18.52,,,270,,,,,,,,,,,wg-a,,,,AAXX 19034 07130 12/65 02710 10120 20100 30125 40177 52020 60006 80000 90300=
07130,1996-10-19 06:00:00,11,1020.4,2.7,94,10,15000,7.408,,,230,10.8,14.6,,,,,4,,,,wg-a,,,,AAXX 19064 07130 12565 72304 10110 20100 30152 40204 53027 60044 878// 90600 333 10146 20108=
07130,1996-10-19 09:00:00,14,1023.2,2.8,88,12,20000,18.52,,,270,,,,,,,,,,,wg-a,,,,AAXX 19094 07130 12570 /2710 10140 20120 30180 40232 52028 60006 81130 90900=
07130,1996-10-19 12:00:00,17,1024.9,1.8,68,11,500,18.52,,,290,,,,,,,,,,,wg-a,,,,AAXX 19124 07130 12600 /2910 10170 20110 30198 40249 51018 60006 85201 91200=
07130,1996-10-19 15:00:00,18,1025.1,0.2,68,12,25000,11.112,,,260,,,,,,,,,,,wg-a,,,,AAXX 19154 07130 12675 72606 10180 20120 30200 40251 51002 60006 8413/ 91500=
07130,1996-10-19 18:00:00,16,1026,0.8,72,11,11000,14.816,,,240,10.9,18.2,,,,,,,,,wg-a,,,,AAXX 19184 07130 12/61 /2408 10160 20110 30208 40260 53008 60006 91800 333 10182 20109=
07130,1996-10-19 21:00:00,12,1027.1,1.1,94,11,10000,7.408,,,240,,,,,,,,,,,wg-a,,,,AAXX 19214 07130 12/60 22404 10120 20110 30219 40271 51011 60006 80001 92100=
07130,1996-10-20 00:00:00,13,1026.5,-0.6,94,12,8000,11.112,,,240,,,,,,,,,,,wg-a,,,,AAXX 20004 07130 12258 72406 10130 20120 30213 40265 58006 60006 876// 90000=
07130,1996-10-20 06:00:00,13,1024.8,-0.6,94,12,9000,11.112,,,180,12,15.6,,,,,,,,,wg-a,,,,AAXX 20064 07130 02459 71806 10130 20120 30196 40248 57006 60006 875// 90600 333 10156 20120 60004=
07130,1996-10-20 12:00:00,16,1023.5,-1.2,88,14,12000,18.52,,,210,,,,,,,,,,,wg-a,,,,AAXX 20124 07130 12462 72110 10160 20140 30184 40235 56012 60006 875// 91200=
07130,1996-10-20 15:00:00,17,1021.5,-2,88,15,15000,22.224,,,210,,,,,,,,,,,wg-a,,,,AAXX 20154 07130 12465 72112 10170 20150 30164 40215 57020 60006 8557/ 91500=
07130,1996-10-20 18:00:00,16,1021.4,-0.1,100,16,7000,14.816,,,210,12.4,17.8,,,,,,,,20,wg-a,,,,AAXX 20184 07130 02357 72108 10160 20160 30163 40214 55001 61000 72052 877// 91800 333 10178 20124 ////=
07130,1996-10-20 21:00:00,17,1021.1,-0.3,94,16,7000,14.816,,,230,,,,,,,,,,,wg-a,,,,AAXX 20214 07130 12357 72308 10170 20160 30160 40211 56003 60006 876// 92100=
07130,1996-10-21 00:00:00,17,1020.8,-0.3,94,16,8000,11.112,,,240,,,,,,,,,,,wg-a,,,,AAXX 21004 07130 12258 72406 10170 20160 30157 40208 58003 60006 876// 90000=
07130,1996-10-21 03:00:00,17,1020.9,0.1,94,16,8000,11.112,,,270,,,,,,,,,,,wg-a,,,,AAXX 21034 07130 12358 72706 10170 20160 30158 40209 53001 60006 876// 90300=
07130,1996-10-21 06:00:00,16,1021.9,1,100,16,25000,7.408,,,270,16.1,16.9,,,,,,,,,wg-a,,,,AAXX 21064 07130 02575 /2704 10160 20160 30168 40219 53010 60006 86500 90600 333 10169 20161 61000=
07130,1996-10-21 12:00:00,18,1024.4,0.3,73,13,11000,7.408,,,10,,,,,,,,,,,wg-a,,,,AAXX 21124 07130 12/61 /0104 10180 20130 30193 40244 50003 60006 91200=
07130,1996-10-21 15:00:00,18,1023.8,-0.6,64,11,500,3.704,,,360,,,,,,,,,,,wg-a,,,,AAXX 21154 07130 12500 43602 10180 20110 30187 40238 56006 60006 81101 91500=
07130,1996-10-21 18:00:00,15,1024.5,0.6,77,11,500,3.704,,,70,15.4,19,,,,,,,,,wg-a,,,,AAXX 21184 07130 12/00 40702 10150 20110 30193 40245 53006 60006 81031 91800 333 10190 20154=
07130,1996-10-22 00:00:00,11,1024.2,-0.7,94,10,10000,3.704,,,140,,,,,,,,,,,wg-a,,,,AAXX 22004 07130 12/60 01402 10110 20100 30190 40242 58007 60006 80000 90000=
07130,1996-10-22 03:00:00,10,1024,-0.3,93,9,10000,3.704,,,100,,,,,,,,,,,wg-a,,,,AAXX 22034 07130 12/60 41002 10100 20090 30187 40240 57003 60006 80002 90300=
07130,1996-10-22 06:00:00,10,1024.3,0.3,93,9,7000,7.408,,,120,9.6,15.3,,,,,,,,,wg-a,,,,AAXX 22064 07130 02457 /1204 10100 20090 30190 40243 53003 60006 85502 90600 333 10153 20096 60004=
07130,1996-10-22 09:00:00,13,1024.5,0.3,82,10,12000,7.408,,,150,,,,,,,,,,,wg-a,,,,AAXX 22094 07130 12462 21504 10130 20100 30193 40245 51003 60006 81502 90900=
07130,1996-10-22 12:00:00,20,1022.8,-1.6,68,14,20000,14.816,,,170,,,,,,,,,,,wg-a,,,,AAXX 22124 07130 12570 /1708 10200 20140 30177 40228 57016 60006 81102 91200=
07130,1996-10-22 15:00:00,21,1021.1,-1.6,53,11,25000,14.816,,,130,,,,,,,,,,,wg-a,,,,AAXX 22154 07130 12/75 31308 10210 20110 30161 40211 56016 60006 80002 91500=
07130,1996-10-22 18:00:00,17,1021.3,0.1,63,10,25000,7.408,,,110,9.7,21.5,,,,,,,,,wg-a,,,,AAXX 22184 07130 12/75 /1104 10170 20100 30162 40213 53001 60006 80001 91800 333 10215 20097=
07130,1996-10-22 21:00:00,14,1020.8,-0.6,77,10,25000,11.112,,,120,,,,,,,,,,,wg-a,,,,AAXX 22214 07130 12/75 01206 10140 20100 30156 40208 58006 60006 80000 92100=
07130,1996-10-23 00:00:00,12,1019.8,-1,82,9,25000,7.408,,,130,,,,,,,,,,,wg-a,,,,AAXX 23004 07130 12/75 01304 10120 20090 30146 40198 58010 60006 80000 90000=
07130,1996-10-23 03:00:00,10,1018.8,-1,87,8,25000,7.408,,,120,,,,,,,,,,,wg-a,,,,AAXX 23034 07130 12/75 01204 10100 20080 30136 40188 58010 60006 80000 90300=
07130,1996-10-23 06:00:00,10,1018.4,-0.4,87,8,15000,11.112,,,140,9.2,16.7,,,,,,,,,wg-a,,,,AAXX 23064 07130 02/65 11406 10100 20080 30132 40184 55004 60006 80001 90600 333 10167 20092 60004=
07130,1996-10-23 12:00:00,20,1017.5,-1.3,46,8,10000,14.816,,,130,,,,,,,,,,,wg-a,,,,AAXX 23124 07130 12/60 /1308 10200 20080 30124 40175 58013 60006 91200=
07130,1996-10-23 15:00:00,22,1016.3,-1.1,38,7,20000,11.112,,,170,,,,,,,,,,,wg-a,,,,AAXX 23154 07130 12/70 11706 10220 20070 30113 40163 55011 60006 81030 91500=
07130,1996-10-23 18:00:00,17,1017.2,0.8,59,9,20000,7.408,,,160,9.6,23.4,,,,,,,,,wg-a,,,,AAXX 23184 07130 12/70 11604 10170 20090 30121 40172 53008 60006 81031 91800 333 10234 20096=
07130,1996-10-23 21:00:00,13,1017.6,0.3,77,9,15000,3.704,,,140,,,,,,,,,,,wg-a,,,,AAXX 23214 07130 12/65 31402 10130 20090 30124 40176 50003 60006 80001 92100=
07130,1996-10-24 00:00:00,12,1017.5,-0.1,82,9,15000,3.704,,,120,,,,,,,,,,,wg-a,,,,AAXX 24004 07130 12/65 51202 10120 20090 30123 40175 58001 60006 80002 90000=
07130,1996-10-24 03:00:00,11,1018,0.5,82,8,15000,3.704,,,130,,,,,,,,,,,wg-a,,,,AAXX 24034 07130 12/65 61302 10110 20080 30128 40180 50005 60006 82032 90300=
07130,1996-10-24 06:00:00,10,1018.1,0.1,87,8,15000,0,,,0,9.6,17.3,,,,,,,,,wg-a,,,,AAXX 24064 07130 02/65 70000 10100 20080 30129 40181 53001 60006 80002 90600 333 10173 20096 60004=
07130,1996-10-24 09:00:00,13,1017.9,-0.2,82,10,12000,11.112,,,120,,,,,,,,,,,wg-a,,,,AAXX 24094 07130 12/62 71206 10130 20100 30127 40179 58002 60006 81032 90900=
07130,1996-10-24 12:00:00,19,1016.4,-1.4,73,14,9000,11.112,,,140,,,,,,,,,,,wg-a,,,,AAXX 24124 07130 12759 /1406 10190 20140 30113 40164 58014 60006 81132 91200=
07130,1996-10-24 15:00:00,20,1016,-0.3,73,15,8000,14.816,,,200,,,,,,,,,,,wg-a,,,,AAXX 24154 07130 12/58 82008 10200 20150 30110 40160 55003 60006 8807/ 91500=
07130,1996-10-24 18:00:00,17,1015,-1.1,88,15,7000,7.408,,,130,9.7,21.9,,,,,,,,1,wg-a,,,,AAXX 24184 07130 02857 /1304 10170 20150 30099 40150 58011 61000 70162 8607/ 91800 333 10219 20097 ////=
07130,1996-10-24 21:00:00,15,1016.3,1.3,94,14,6000,3.704,,,230,,,,,,,,,,,wg-a,,,,AAXX 24214 07130 12/56 /2302 10150 20140 30112 40163 53013 60006 8104/ 92100=
07130,1996-10-25 00:00:00,15,1013,-0.3,94,14,6000,11.112,,,200,,,,,,,,,,,wg-a,,,,AAXX 25004 07130 12756 /2006 10150 20140 30109 40130 55003 60006 85900 90000=
07130,1996-10-25 03:00:00,15,1016.2,0.2,94,14,6000,11.112,,,210,,,,1,,,,,,61,wg-a,,,,AAXX 25034 07130 12756 82106 10150 20140 30111 40162 53002 60017 76162 885// 90300=
07130,1996-10-25 06:00:00,14,1017.8,1.5,100,14,9000,11.112,,,220,14.1,17.8,,,,,1,,,1,wg-a,,,,AAXX 25064 07130 02259 72206 10140 20140 30126 40178 52015 60014 70162 86732 90600 333 10178 20141 61000=
07130,1996-10-25 09:00:00,15,1019.3,1.6,88,13,20000,14.816,,,230,,,,4,,,,,,21,wg-a,,,,AAXX 25094 07130 12570 /2308 10150 20130 30142 40193 51016 60047 72161 81230 90900=
07130,1996-10-25 12:00:00,18,1019.9,0.6,64,11,500,25.928,,,240,,,,,,,,,,1,wg-a,,,,AAXX 25124 07130 12600 32414 10180 20110 30148 40199 51006 60046 70161 83200 91200=
07130,1996-10-25 18:00:00,14,1021.6,1.1,77,10,500,18.52,,,210,13,18.4,,,,,,,,,wg-a,,,,AAXX 25184 07130 32500 /2110 10140 20100 30164 40216 53011 83801 91800 333 10184 20130=
07130,1996-10-26 00:00:00,13,1022.3,0.4,94,12,7000,22.224,,,250,,,,0,,,,,,61,wg-a,,,,AAXX 26004 07130 02457 82512 10130 20120 30171 40223 53004 60016 76161 8657/ 90000 333 60007=
07130,1996-10-26 06:00:00,12,1023.9,1.1,88,10,15000,7.408,,,210,11.6,14.2,,,,,5,,,1,wg-a,,,,AAXX 26064 07130 12665 62104 10120 20100 30187 40239 51011 60054 70162 8357/ 90600 333 10142 20116=
07130,1996-10-26 12:00:00,15,1025.4,-0.1,59,7,15000,14.816,,,240,,,,,,,,,,,wg-a,,,,AAXX 26124 07130 12565 /2408 10150 20070 30202 40254 58001 60006 82131 91200=
07130,1996-10-26 15:00:00,16,1025,-0.4,63,9,15000,14.816,,,230,,,,,,,,,,,wg-a,,,,AAXX 26154 07130 12565 72308 10160 20090 30198 40250 57004 60006 878// 91500=
07130,1996-10-26 18:00:00,14,1024.8,-0.2,82,11,20000,11.112,,,210,10.5,16.2,,,,,,,,,wg-a,,,,AAXX 26184 07130 12670 52106 10140 20110 30196 40248 57002 60006 83570 91800 333 10162 20105=
07130,1996-10-26 21:00:00,13,1023.9,-0.9,94,12,20000,18.52,,,190,,,,,,,,,,,wg-a,,,,AAXX 26214 07130 12570 71910 10130 20120 30187 40239 58009 60006 8552/ 92100=
07130,1996-10-27 00:00:00,14,1022.8,-1.1,94,13,15000,14.816,,,200,,,,,,,,,,,wg-a,,,,AAXX 27004 07130 12465 72008 10140 20130 30176 40228 58011 60006 8552/ 90000=
07130,1996-10-27 03:00:00,13,1021.2,-1.6,100,13,15000,11.112,,,200,,,,0,,,,,,,wg-a,,,,AAXX 27034 07130 12465 72006 10130 20130 30160 40212 58016 60007 8252/ 90300=
07130,1996-10-27 06:00:00,14,1020.7,-0.5,94,13,20000,22.224,,,220,13.1,14.6,,,,,,,,,wg-a,,,,AAXX 27064 07130 12470 82212 10140 20130 30155 40207 55005 60004 8452/ 90600 333 10146 20131=
07130,1996-10-27 09:00:00,15,1020.2,-0.4,88,13,15000,18.52,,,210,,,,,,,,,,,wg-a,,,,AAXX 27094 07130 12465 82110 10150 20130 30151 40202 57004 60006 848// 90900=
07130,1996-10-27 12:00:00,17,1019.3,-0.9,77,13,15000,22.224,,,230,,,,,,,,,,,wg-a,,,,AAXX 27124 07130 12565 72312 10170 20130 30142 40193 58009 60006 868// 91200=
07130,1996-10-27 15:00:00,17,1018.3,-1,77,13,20000,22.224,,,230,,,,,,,,,,,wg-a,,,,AAXX 27154 07130 12470 72312 10170 20130 30132 40183 56010 60006 838// 91500=
07130,1996-10-27 18:00:00,15,1017.7,-0.6,82,12,20000,14.816,,,220,14.5,17.4,,,,,,,,,wg-a,,,,AAXX 27184 07130 12570 42208 10150 20120 30126 40177 56006 60006 82801 91800 333 10174 20145=
07130,1996-10-27 21:00:00,15,1016.8,-0.9,88,13,10000,22.224,,,200,,,,,,,,,,,wg-a,,,,AAXX 27214 07130 12460 72012 10150 20130 30117 40168 58009 60006 878// 92100=
07130,1996-10-28 00:00:00,14,1014.9,-1.9,88,12,11000,14.816,,,200,,,,,,,,,,,wg-a,,,,AAXX 28004 07130 12/61 /2008 10140 20120 30098 40149 58019 60006 90000=
07130,1996-10-28 03:00:00,15,1012.3,-2.6,82,12,11000,25.928,,,220,,,,,,,,,,,wg-a,,,,AAXX 28034 07130 12/61 /2214 10150 20120 30072 40123 57026 60006 90300=
07130,1996-10-28 06:00:00,14,1010,-2.3,94,13,9000,29.632,,,220,13.6,15,,,,,,,,50,wg-a,,,,AAXX 28064 07130 02259 82216 10140 20130 30049 40100 56023 61000 75052 877// 90600 333 10150 20136 6100=
07130,1996-10-28 09:00:00,16,1010,-0,77,12,12000,25.928,,,240,,,,0,,,,,,1,wg-a,,,,AAXX 28094 07130 12562 72414 10160 20120 30049 40100 54000 60007 70152 878// 90900=
07130,1996-10-28 12:00:00,17,1009.3,-0.7,68,11,15000,31.484,,55.56,260,,,,,,,,,,1,wg-a,,,,AAXX 28124 07130 12565 52617 10170 20110 30042 40093 58007 60006 70152 85800 91200 333 91030=
07130,1996-10-28 15:00:00,16,1008.3,-1,59,8,20000,38.892,,57.412,250,,,,,,,,,,,wg-a,,,,AAXX 28154 07130 12670 /2521 10160 20080 30032 40083 57010 60006 85200 91500 333 91031=
07130,1996-10-28 18:00:00,14,1007.5,-0.8,77,10,20000,25.928,,48.152,250,13.7,17.5,,,,,,,,25,wg-a,,,,AAXX 28184 07130 32570 72514 10140 20100 30024 40075 56008 72522 878// 91800 333 10175 20137 91026=
07130,1996-10-28 21:00:00,14,1007.2,-0.3,72,9,20000,31.484,,57.412,250,,,,,,,,,,,wg-a,,,,AAXX 28214 07130 12570 52517 10140 20090 30021 40072 58003 60006 85800 92100 333 91031=
07130,1996-10-29 00:00:00,12,1008.3,1.1,88,10,15000,29.632,,57.412,280,,,,,,,,,,80,wg-a,,,,AAXX 29004 07130 02465 /2816 10120 20100 30032 40083 53011 61000 78086 85800 90000 333 6100 91031=
07130,1996-10-29 03:00:00,13,1008.8,0.5,77,9,15000,31.484,,51.856,270,,,,,,,,,,25,wg-a,,,,AAXX 29034 07130 02565 /2717 10130 20090 30037 40088 53005 61000 72586 85800 90300 333 //// 91028=
07130,1996-10-29 06:00:00,12,1011.8,2.9,76,8,15000,29.632,,,290,11.7,14.5,,,,,,,,3,wg-a,,,,AAXX 29064 07130 12565 72916 10120 20080 30066 40118 53029 60004 70386 87800 90600 333 10145 20117=
07130,1996-10-29 09:00:00,12,1015.9,4.1,82,9,15000,29.632,,,300,,,,,,,,,,2,wg-a,,,,AAXX 29094 07130 02565 83016 10120 20090 30107 40159 51041 61000 70286 878// 90900 333 ////=
07130,1996-10-29 12:00:00,13,1019.2,3.3,82,10,15000,29.632,,,320,,,,0,,,,,,1,wg-a,,,,AAXX 29124 07130 02465 73216 10130 20100 30140 40192 51033 60016 70186 878// 91200 333 60007=
07130,1996-10-29 15:00:00,12,1021.5,2.3,76,8,25000,22.224,,,330,,,,1,,,,,,1,wg-a,,,,AAXX 29154 07130 12575 43312 10120 20080 30163 40215 51023 60017 70186 84800 91500=
07130,1996-10-29 18:00:00,8,1024.4,2.8,81,5,500,11.112,,,300,8.2,12.7,,,,,,,,2,wg-a,,,,AAXX 29184 07130 32700 13006 10080 20050 30191 40244 53028 70281 81500 91800 333 10127 20082=
07130,1996-10-29 21:00:00,9,1027,2.6,81,6,25000,11.112,,,290,,,,,,,,,,,wg-a,,,,AAXX 29214 07130 12675 72906 10090 20060 30217 40270 52026 60006 875// 92100=
07130,1996-10-30 00:00:00,9,1027.9,0.9,81,6,15000,3.704,,,290,,,,,,,,,,,wg-a,,,,AAXX 30004 07130 12665 72902 10090 20060 30226 40279 53009 60006 875// 90000=
07130,1996-10-30 03:00:00,8,1028.6,0.7,87,6,20000,11.112,,,290,,,,,,,,,,,wg-a,,,,AAXX 30034 07130 12670 72906 10080 20060 30233 40286 51007 60006 875// 90300=
07130,1996-10-30 06:00:00,9,1029.5,0.9,81,6,15000,7.408,,,290,6.8,9.4,,,,,1,,,,wg-a,,,,AAXX 30064 07130 02665 82904 10090 20060 30242 40295 52009 60006 885// 90600 333 10094 20068 60014=
07130,1996-10-30 09:00:00,10,1030.7,1.2,76,6,20000,3.704,,,260,,,,,,,,,,,wg-a,,,,AAXX 30094 07130 12670 82602 10100 20060 30254 40307 51012 60006 885// 90900=
07130,1996-10-30 12:00:00,13,1031.2,0.5,62,6,25000,7.408,,,280,,,,,,,,,,,wg-a,,,,AAXX 30124 07130 12575 72804 10130 20060 30259 40312 51005 60006 878// 91200=
07130,1996-10-30 15:00:00,12,1030.2,-1,58,4,25000,7.408,,,210,,,,,,,,,,,wg-a,,,,AAXX 30154 07130 12675 72104 10120 20040 30249 40302 56010 60006 875// 91500=
07130,1996-10-30 18:00:00,10,1029.8,-0.4,66,4,15000,7.408,,,160,8.7,12.7,,,,,,,,,wg-a,,,,AAXX 30184 07130 12665 /1604 10100 20040 30245 40298 58004 60006 82501 91800 333 10127 20087=
07130,1996-10-30 21:00:00,8,1029.3,-0.5,76,4,15000,7.408,,,200,,,,,,,,,,,wg-a,,,,AAXX 30214 07130 12/65 52004 10080 20040 30240 40293 57005 60006 80001 92100=
07130,1996-10-31 00:00:00,6,1027.8,-1.6,87,4,15000,7.408,,,170,,,,,,,,,,,wg-a,,,,AAXX 31004 07130 12/65 41704 10060 20040 30224 40278 58016 60006 80001 90000=
07130,1996-10-31 03:00:00,8,1026.4,-1.3,81,5,10000,11.112,,,180,,,,,,,,,,,wg-a,,,,AAXX 31034 07130 12560 81806 10080 20050 30211 40264 58013 60006 885// 90300=
07130,1996-10-31 06:00:00,9,1024.5,-1.9,81,6,12000,14.816,,,200,5.4,10,,,,,,,,,wg-a,,,,AAXX 31064 07130 02662 72008 10090 20060 30192 40245 56019 60006 875// 90600 333 10100 20054 60004=
07130,1996-10-31 09:00:00,11,1023.7,-0.8,82,8,7000,18.52,,,220,,,,0,,,,,,61,wg-a,,,,AAXX 31094 07130 12557 82210 10110 20080 30184 40237 55008 60007 76162 8657/ 90900=
07130,1996-10-31 12:00:00,13,1021.8,-1.8,94,12,10000,22.224,,,220,,,,,,,,,,20,wg-a,,,,AAXX 31124 07130 02360 82212 10130 20120 30166 40218 57018 60006 72062 886// 91200 333 61000=
07130,1996-10-31 15:00:00,16,1020.2,-1.5,82,13,12000,18.52,,,250,,,,,,,,,,,wg-a,,,,AAXX 31154 07130 12462 72510 10160 20130 30151 40202 56015 60006 875// 91500=
07130,1996-10-31 18:00:00,15,1021.1,0.8,82,12,12000,22.224,,38.892,260,9.2,16.2,,,,,,,,,wg-a,,,,AAXX 31184 07130 32462 72612 10150 20120 30159 40211 53008 875// 91800 333 10162 20092 91021=
07130,1996-10-31 21:00:00,14,1022.6,1.5,88,12,20000,14.816,,,260,,,,,,,,,,,wg-a,,,,AAXX 31214 07130 12670 /2608 10140 20120 30174 40226 51015 60006 85500 92100=
07130,1996-11-01 00:00:00,14,1023.9,1.3,82,11,20000,11.112,,,260,,,,,,,,,,,wg-a,,,,AAXX 01004 07130 12470 72606 10140 20110 30187 40239 53013 60006 875// 90000=
07130,1996-11-01 03:00:00,14,1025.3,1.4,82,11,20000,7.408,,,290,,,,,,,,,,,wg-a,,,,AAXX 01034 07130 12570 82904 10140 20110 30201 40253 52014 60006 885// 90300=
07130,1996-11-01 06:00:00,14,1027.3,2,88,12,12000,11.112,,,280,13.1,14.9,,,,,,,,,wg-a,,,,AAXX 01064 07130 02362 82806 10140 20120 30221 40273 53020 60006 885// 90600 333 10149 20131 60004=
07130,1996-11-01 09:00:00,15,1029.4,2.1,88,13,25000,14.816,,,290,,,,,,,,,,,wg-a,,,,AAXX 01094 07130 12475 72908 10150 20130 30242 40294 53021 60006 875// 90900=
07130,1996-11-01 12:00:00,16,1030.1,0.7,82,13,35000,18.52,,,290,,,,,,,,,,,wg-a,,,,AAXX 01124 07130 12481 82910 10160 20130 30249 40301 50007 60006 885// 91200=
07130,1996-11-01 15:00:00,15,1029.7,-0.4,82,12,40000,11.112,,,290,,,,,,,,,,,wg-a,,,,AAXX 01154 07130 12482 82906 10150 20120 30245 40297 56004 60006 885// 91500=
07130,1996-11-01 18:00:00,14,1030.6,0.9,88,12,25000,7.408,,,230,13.2,15.7,,,,,,,,,wg-a,,,,AAXX 01184 07130 12475 82304 10140 20120 30254 40306 53009 60006 885// 91800 333 10157 20132=
07130,1996-11-01 21:00:00,14,1030.8,0.2,88,12,25000,11.112,,,240,,,,,,,,,,,wg-a,,,,AAXX 01214 07130 12575 72406 10140 20120 30256 40308 53002 60006 875// 92100=
07130,1996-11-02 00:00:00,13,1030.3,-0.5,88,11,25000,11.112,,,210,,,,,,,,,,,wg-a,,,,AAXX 02004 07130 12575 72106 10130 20110 30251 40303 58005 60006 875// 90000=
07130,1996-11-02 03:00:00,13,1030,-0.3,88,11,35000,7.408,,,220,,,,,,,,,,,wg-a,,,,AAXX 02034 07130 12581 82204 10130 20110 30248 40300 58003 60006 885// 90300=
07130,1996-11-02 06:00:00,13,1029.7,-0.3,88,11,500,7.408,,,230,12.6,14.3,,,,,,,,,wg-a,,,,AAXX 02064 07130 02500 82304 10130 20110 30245 40297 55003 60006 885// 90600 333 10143 20126 60004=
07130,1996-11-02 09:00:00,14,1029.9,0.2,82,11,20000,11.112,,,210,,,,,,,,,,,wg-a,,,,AAXX 02094 07130 12570 82106 10140 20110 30247 40299 52002 60006 885// 90900=
07130,1996-11-02 12:00:00,16,1029.6,-0.3,77,12,25000,18.52,,,240,,,,,,,,,,,wg-a,,,,AAXX 02124 07130 12575 82410 10160 20120 30244 40296 58003 60006 885// 91200=
07130,1996-11-02 15:00:00,15,1028.6,-1,82,12,25000,14.816,,,220,,,,,,,,,,,wg-a,,,,AAXX 02154 07130 12475 82208 10150 20120 30234 40286 55010 60006 885// 91500=
07130,1996-11-02 18:00:00,15,1028.5,-0.1,82,12,20000,14.816,,,210,13.1,15.8,,,,,,,,,wg-a,,,,AAXX 02184 07130 12470 82108 10150 20120 30233 40285 56001 60006 885// 91800 333 10158 20131=
07130,1996-11-02 21:00:00,14,1028.3,-0.2,88,12,12000,14.816,,,220,,,,,,,,,,,wg-a,,,,AAXX 02214 07130 12462 82208 10140 20120 30231 40283 58002 60006 885// 92100=
07130,1996-11-03 00:00:00,14,1027.6,-0.7,82,11,12000,14.816,,,230,,,,,,,,,,,wg-a,,,,AAXX 03004 07130 12462 82308 10140 20110 30224 40276 57007 60006 885// 90000=
07130,1996-11-03 03:00:00,13,1026.6,-1,94,12,12000,11.112,,,230,,,,,,,,,,,wg-a,,,,AAXX 03034 07130 12462 82306 10130 20120 30214 40266 57010 60006 885// 90300=
07130,1996-11-03 06:00:00,13,1024.8,-1.8,94,12,12000,14.816,,,210,12.6,14.6,,,,,,,,,wg-a,,,,AAXX 03064 07130 02362 82108 10130 20120 30196 40248 56018 60006 885// 90600 333 10146 20126 60004=
07130,1996-11-03 09:00:00,14,1025.5,0.7,88,12,15000,22.224,,,240,,,,,,,,,,,wg-a,,,,AAXX 03094 07130 12465 72412 10140 20120 30203 40255 53007 60006 8657/ 90900=
07130,1996-11-03 12:00:00,16,1024.5,-1,82,13,9000,29.632,,,230,,,,,,,,,,,wg-a,,,,AAXX 03124 07130 12459 82316 10160 20130 30193 40245 58010 60006 875// 91200=
07130,1996-11-03 15:00:00,15,1022.9,-1.6,88,13,7000,22.224,,,220,,,,,,,,,,,wg-a,,,,AAXX 03154 07130 12457 82212 10150 20130 30177 40229 56016 60006 875// 91500=
07130,1996-11-03 18:00:00,14,1021.5,-1.4,100,14,4000,18.52,,,210,12.5,15.7,,0,,,,,,10,wg-a,,,,AAXX 03184 07130 12240 82110 10140 20140 30163 40215 56014 60007 71052 887// 91800 333 10157 20125=
07130,1996-11-03 21:00:00,15,1019.8,-1.7,94,14,4000,18.52,,,210,,,,0,,,,,,10,wg-a,,,,AAXX 03214 07130 12240 82110 10150 20140 30146 40198 58017 60007 71055 887// 92100=
07130,1996-11-04 00:00:00,15,1016.8,-2.9,94,14,12000,29.632,,,210,,,,,,,,,,1,wg-a,,,,AAXX 04004 07130 02462 82116 10150 20140 30117 40168 58029 60006 70152 886// 90000 333 61000=
07130,1996-11-04 03:00:00,14,1013.7,-3.1,94,13,500,31.484,,,210,,,,0,,,,,,58,wg-a,,,,AAXX 04034 07130 12300 82117 10140 20130 30086 40137 56031 60007 75865 887// 90300=
07130,1996-11-04 06:00:00,15,1010.4,-3.3,94,14,3500,31.484,,48.152,210,14,15.3,,3,,,4,,,10,wg-a,,,,AAXX 04064 07130 02235 82117 10150 20140 30053 40104 58033 60044 71065 887// 90600 333 10153 20140 60037 91026=
07130,1996-11-04 09:00:00,15,1008.4,-2,94,14,9000,31.484,,,210,,,,2,,,,,,60,wg-a,,,,AAXX 04094 07130 12359 82117 10150 20140 30033 40084 58020 60027 76065 877// 90900=
07130,1996-11-04 12:00:00,15,1005.6,-2.8,94,14,12000,29.632,,,220,,,,30,,,,,,61,wg-a,,,,AAXX 04124 07130 02462 82216 10150 20140 30005 40056 58028 60326 76165 8277/ 91200 333 60307=
07130,1996-11-04 15:00:00,14,1004.1,-1.5,88,12,12000,18.52,,,230,,,,1,,,,,,21,wg-a,,,,AAXX 04154 07130 12462 /2310 10140 20120 39990 40041 58015 60017 72162 82870 91500=
07130,1996-11-04 18:00:00,13,1004.5,0.4,82,10,15000,18.52,,,240,12.5,15.4,,,,,,,,1,wg-a,,,,AAXX 04184 07130 32665 /2410 10130 20100 39994 40045 53004 70161 81500 91800 333 10154 20125=
07130,1996-11-04 21:00:00,12,1006,1.5,82,9,20000,18.52,,,260,,,,,,,,,,,wg-a,,,,AAXX 04214 07130 12770 42610 10120 20090 30009 40060 53015 60006 84500 92100=
07130,1996-11-05 00:00:00,10,1008,1.9,82,7,20000,14.816,,,240,,,,,,,,,,,wg-a,,,,AAXX 05004 07130 12770 22408 10100 20070 30028 40080 51019 60006 82500 90000=
07130,1996-11-05 03:00:00,10,1009.8,1.8,87,8,20000,14.816,,,260,,,,,,,,,,,wg-a,,,,AAXX 05034 07130 12570 32608 10100 20080 30046 40098 53018 60006 83800 90300=
07130,1996-11-05 06:00:00,9,1013.1,3.3,87,7,20000,22.224,,,290,9,12.5,,,,,34,,,,wg-a,,,,AAXX 05064 07130 02/70 02912 10090 20070 30079 40131 51033 60006 80000 90600 333 10125 20090 60344=
07130,1996-11-05 09:00:00,11,1017.3,4.2,76,7,25000,18.52,,,280,,,,,,,,,,,wg-a,,,,AAXX 05094 07130 12675 /2810 10110 20070 30121 40173 51042 60006 81200 90900=
07130,1996-11-05 12:00:00,14,1019.6,2.3,63,7,500,25.928,,,300,,,,,,,,,,,wg-a,,,,AAXX 05124 07130 12500 63014 10140 20070 30144 40196 51023 60006 86800 91200=
07130,1996-11-05 15:00:00,14,1020.6,1,55,5,35000,11.112,,,280,,,,,,,,,,,wg-a,,,,AAXX 05154 07130 12681 32806 10140 20050 30154 40206 53010 60006 82101 91500=
07130,1996-11-05 18:00:00,10,1021.3,0.6,76,6,15000,11.112,,,210,8.9,14,,,,,,,,,wg-a,,,,AAXX 05184 07130 12/65 52106 10100 20060 30160 40213 53006 60006 83031 91800 333 10140 20089=
07130,1996-11-05 21:00:00,10,1020.9,-0.4,82,7,15000,18.52,,,210,,,,,,,,,,,wg-a,,,,AAXX 05214 07130 12/65 02110 10100 20070 30156 40209 58004 60006 80000 92100=
07130,1996-11-06 00:00:00,11,1018.8,-2,87,9,20000,22.224,,,210,,,,,,,,,,,wg-a,,,,AAXX 06004 07130 12570 82112 10110 20090 30136 40188 58020 60006 885// 90000=
07130,1996-11-06 03:00:00,14,1016.2,-2.5,88,12,20000,29.632,,,230,,,,,,,,,,,wg-a,,,,AAXX 06034 07130 12470 82316 10140 20120 30111 40162 56025 60006 877// 90300=
07130,1996-11-06 06:00:00,15,1014.5,-1.7,88,13,20000,25.928,,,230,9.2,15.2,,,,,,,,,wg-a,,,,AAXX 06064 07130 02570 82314 10150 20130 30094 40145 58017 60006 878// 90600 333 10152 20092 60004=
07130,1996-11-06 09:00:00,15,1014.6,0.1,94,14,2500,25.928,,48.152,240,,,,0,,,,,,51,wg-a,,,,AAXX 06094 07130 12325 82414 10150 20140 30095 40146 53001 60007 75165 887// 90900 333 91026=
07130,1996-11-06 12:00:00,16,1014.2,-0.4,94,15,7000,22.224,,,250,,,,1,,,,,,61,wg-a,,,,AAXX 06124 07130 02357 82512 10160 20150 30091 40142 58004 60016 76165 887// 91200 333 60017=
07130,1996-11-06 15:00:00,14,1014.7,0.5,88,12,20000,18.52,,,250,,,,0,,,,,,21,wg-a,,,,AAXX 06154 07130 12470 72510 10140 20120 30096 40147 53005 60007 72162 878// 91500=
07130,1996-11-06 18:00:00,12,1016,1.2,94,11,15000,18.52,,,230,12.1,17.3,,,,,,,,1,wg-a,,,,AAXX 06184 07130 32465 42310 10120 20110 30108 40160 53012 70161 84800 91800 333 10173 20121=
07130,1996-11-06 21:00:00,12,1015.6,-0.4,94,11,20000,18.52,,,220,,,,,,,,,,,wg-a,,,,AAXX 06214 07130 12770 72210 10120 20110 30104 40156 58004 60006 875// 92100=
07130,1996-11-07 00:00:00,12,1014.3,-1.3,100,12,20000,18.52,,,270,,,,1,,,,,,,wg-a,,,,AAXX 07004 07130 02770 72710 10120 20120 30091 40143 56013 60016 875// 90000 333 60017=
07130,1996-11-07 03:00:00,12,1012.8,-1.5,94,11,6000,11.112,,,260,,,,2,,,,,,60,wg-a,,,,AAXX 07034 07130 12456 72606 10120 20110 30076 40128 56015 60027 76066 875// 90300=
07130,1996-11-07 06:00:00,11,1012.1,-0.7,94,10,10000,11.112,,,250,10.9,12.5,,2,,,6,,,21,wg-a,,,,AAXX 07064 07130 02360 72506 10110 20100 30069 40121 55007 60064 72162 8657/ 90600 333 10125 20109 60027=
07130,1996-11-07 09:00:00,13,1014,1.9,82,10,25000,22.224,,,270,,,,,,,,,,3,wg-a,,,,AAXX 07094 07130 02475 /2712 10130 20100 30088 40140 53019 61000 70386 83870 90900 333 ////=
07130,1996-11-07 12:00:00,15,1016.1,2.2,59,7,20000,29.632,,,280,,,,,,,,,,3,wg-a,,,,AAXX 07124 07130 02670 32816 10150 20070 30110 40161 51022 61000 70386 83800 91200 333 ////=
07130,1996-11-07 15:00:00,14,1018.1,1.9,67,8,35000,18.52,,,290,,,,,,,,,,,wg-a,,,,AAXX 07154 07130 12681 /2910 10140 20080 30129 40181 53019 60006 81802 91500=
07130,1996-11-07 18:00:00,11,1020.8,2.7,76,7,500,18.52,,,280,10.4,15.2,,0,,,,,,,wg-a,,,,AAXX 07184 07130 12500 /2810 10110 20070 30156 40208 52027 60007 81800 91800 333 10152 20104=
07130,1996-11-07 21:00:00,9,1022.9,2,81,6,20000,11.112,,,250,,,,,,,,,,,wg-a,,,,AAXX 07214 07130 12/70 02506 10090 20060 30176 40229 51020 60006 80000 92100=
07130,1996-11-08 00:00:00,8,1024.7,1.8,87,6,20000,11.112,,,270,,,,,,,,,,,wg-a,,,,AAXX 08004 07130 12/70 02706 10080 20060 30194 40247 52018 60006 80000 90000=
07130,1996-11-08 03:00:00,6,1025.4,0.6,93,5,20000,7.408,,,270,,,,,,,,,,,wg-a,,,,AAXX 08034 07130 12/70 02704 10060 20050 30200 40254 53006 60006 80000 90300=
07130,1996-11-08 06:00:00,5,1025.9,0.5,100,5,25000,3.704,,,190,5.2,10.5,,,,,1,,,,wg-a,,,,AAXX 08064 07130 02/75 01902 10050 20050 30205 40259 51005 60006 80000 90600 333 10105 20052 60014=
07130,1996-11-08 09:00:00,8,1027.7,1.9,93,7,20000,7.408,,,240,,,,,,,,,,,wg-a,,,,AAXX 08094 07130 12570 42404 10080 20070 30224 40277 53019 60006 81831 90900=
07130,1996-11-08 12:00:00,14,1027.8,0.2,67,8,500,14.816,,,260,,,,,,,,,,,wg-a,,,,AAXX 08124 07130 12600 32608 10140 20080 30226 40278 50002 60006 83800 91200=
07130,1996-11-08 15:00:00,13,1027.5,-0.3,62,6,35000,14.816,,,290,,,,,,,,,,,wg-a,,,,AAXX 08154 07130 12681 32908 10130 20060 30223 40275 56003 60006 82801 91500=
07130,1996-11-08 18:00:00,10,1028.4,0.8,82,7,500,7.408,,,240,5.2,14.5,,,,,,,,,wg-a,,,,AAXX 08184 07130 12700 22404 10100 20070 30231 40284 53008 60006 82500 91800 333 10145 20052=
07130,1996-11-08 21:00:00,8,1029.5,1.1,87,6,15000,3.704,,,240,,,,,,,,,,,wg-a,,,,AAXX 08214 07130 12/65 02402 10080 20060 30242 40295 53011 60006 80000 92100=
07130,1996-11-09 00:00:00,8,1029.9,0.4,93,7,15000,11.112,,,230,,,,,,,,,,,wg-a,,,,AAXX 09004 07130 12/65 02306 10080 20070 30246 40299 51004 60006 80000 90000=
07130,1996-11-09 06:00:00,5,1029.5,0.1,100,5,15000,0,,,0,5.3,9.8,,,,,,,,11,wg-a,,,,AAXX 09064 07130 02/65 00000 10050 20050 30241 40295 52001 60006 71100 80000 90600 333 10098 20053 60004=
07130,1996-11-09 09:00:00,7,1030.2,0.7,93,6,10000,3.704,,,210,,,,,,,,,,,wg-a,,,,AAXX 09094 07130 12560 42102 10070 20060 30248 40302 50007 60006 84230 90900=
07130,1996-11-09 12:00:00,13,1028.7,-1.3,77,9,25000,11.112,,,280,,,,,,,,,,,wg-a,,,,AAXX 09124 07130 12575 32806 10130 20090 30235 40287 58013 60006 83200 91200=
07130,1996-11-09 15:00:00,13,1026.5,-2.2,72,8,25000,3.704,,,300,,,,,,,,,,,wg-a,,,,AAXX 09154 07130 12575 33002 10130 20080 30213 40265 56022 60006 83800 91500=
07130,1996-11-09 18:00:00,11,1025.4,-1.2,76,7,15000,7.408,,,180,5.1,15,,,,,,,,,wg-a,,,,AAXX 09184 07130 12/65 41804 10110 20070 30201 40254 58012 60006 84030 91800 333 10150 20051=
07130,1996-11-09 21:00:00,10,1023.4,-2,87,8,20000,14.816,,,200,,,,,,,,,,,wg-a,,,,AAXX 09214 07130 12670 32008 10100 20080 30181 40234 58020 60006 83500 92100=
07130,1996-11-10 00:00:00,9,1020.4,-3,93,8,20000,11.112,,,180,,,,,,,,,,,wg-a,,,,AAXX 10004 07130 12/70 61806 10090 20080 30151 40204 58030 60006 83032 90000=
07130,1996-11-10 03:00:00,10,1016.2,-4.1,93,9,20000,18.52,,,200,,,,,,,,,,,wg-a,,,,AAXX 10034 07130 12670 82010 10100 20090 30110 40162 58041 60006 8357/ 90300=
07130,1996-11-10 06:00:00,9,1013,-3.2,93,8,15000,7.408,,,210,8.6,10.5,,2,,,2,,,60,wg-a,,,,AAXX 10064 07130 02465 72104 10090 20080 30078 40130 56032 60024 76062 8757/ 90600 333 10105 20086 60027=
07130,1996-11-10 09:00:00,9,1011.6,-1.4,93,8,12000,11.112,,,220,,,,1,,,,,,20,wg-a,,,,AAXX 10094 07130 12462 82206 10090 20080 30064 40116 56014 60017 72062 825// 90900=
07130,1996-11-10 12:00:00,10,1009.7,-1.9,87,8,500,14.816,,,330,,,,,,,,,,3,wg-a,,,,AAXX 10124 07130 12400 73308 10100 20080 30045 40097 58019 60016 70362 858// 91200=
07130,1996-11-10 15:00:00,10,1008.4,-1.3,76,6,25000,11.112,,,10,,,,,,,,,,,wg-a,,,,AAXX 10154 07130 12575 /0106 10100 20060 30032 40084 56013 60006 81802 91500=
07130,1996-11-10 18:00:00,7,1007.4,-1,87,5,20000,3.704,,,50,7.3,11,,,,,,,,,wg-a,,,,AAXX 10184 07130 32/70 70502 10070 20050 30022 40074 56010 80002 91800 333 10110 20073=
07130,1996-11-10 21:00:00,6,1005.3,-2.2,93,5,20000,7.408,,,100,,,,,,,,,,,wg-a,,,,AAXX 10214 07130 12/70 61004 10060 20050 30000 40053 58022 60006 80002 92100=
07130,1996-11-11 00:00:00,6,1002.2,-3,87,4,20000,11.112,,,100,,,,,,,,,,,wg-a,,,,AAXX 11004 07130 12/70 71006 10060 20040 39970 40022 58030 60006 84032 90000=
07130,1996-11-11 03:00:00,5,997.8,-4.4,93,4,20000,11.112,,,80,,,,,,,,,,,wg-a,,,,AAXX 11034 07130 12/70 70806 10050 20040 39926 49978 58044 60006 85032 90300=
07130,1996-11-11 06:00:00,6,994.3,-3.5,93,5,20000,11.112,,,90,5.2,7.4,,,,,1,,,,wg-a,,,,AAXX 11064 07130 02370 70906 10060 20050 39891 49943 56035 60006 855// 90600 333 10074 20052 60014=
07130,1996-11-11 09:00:00,7,993.3,-1,93,6,12000,14.816,,,80,,,,1,,,,,,21,wg-a,,,,AAXX 11094 07130 12462 80808 10070 20060 39881 49933 58010 60017 72162 8487/ 90900=
07130,1996-11-11 12:00:00,9,991.5,-1.7,81,6,11000,18.52,,,60,,,,,,,,,,,wg-a,,,,AAXX 11124 07130 12/61 /0610 10090 20060 39864 49915 58017 60016 91200=
07130,1996-11-11 15:00:00,8,990.6,-0.9,81,5,20000,18.52,,,70,,,,,,,,,,,wg-a,,,,AAXX 11154 07130 12470 80710 10080 20050 39855 49906 56009 60006 875// 91500=
07130,1996-11-11 18:00:00,6,991.1,0.4,100,6,9000,14.816,,,40,5.8,9.1,,1,,,,,,61,wg-a,,,,AAXX 11184 07130 12259 80408 10060 20060 39859 49911 53004 60017 76162 885// 91800 333 10091 20058=
07130,1996-11-11 21:00:00,6,991.8,0.7,100,6,8000,14.816,,,30,,,,1,,,,,,51,wg-a,,,,AAXX 11214 07130 12258 80308 10060 20060 39866 49918 53007 60017 75165 885// 92100=
07130,1996-11-12 00:00:00,6,992.5,0.7,100,6,6000,11.112,,,20,,,,2,,,,,,60,wg-a,,,,AAXX 12004 07130 02256 80206 10060 20060 39873 49925 52007 60036 76065 885// 90000 333 60027=
07130,1996-11-12 03:00:00,7,992.8,0.3,93,6,6000,7.408,,,30,,,,,,,,,,60,wg-a,,,,AAXX 12034 07130 02256 80304 10070 20060 39876 49928 53003 61000 76066 887// 90300 333 ////=
07130,1996-11-12 06:00:00,7,993.9,1.1,100,7,500,7.408,,,30,6.2,7.3,,1,,,5,,,2,wg-a,,,,AAXX 12064 07130 02100 80304 10070 20070 39887 49939 53011 60054 70262 887// 90600 333 10073 20062 60017=
07130,1996-11-12 09:00:00,8,996.6,2.7,100,8,2500,7.408,,,60,,,,1,,,,,,10,wg-a,,,,AAXX 12094 07130 12125 80604 10080 20080 39914 49966 53027 60017 71065 887// 90900=
07130,1996-11-12 12:00:00,10,998.3,1.8,93,9,4000,7.408,,,30,,,,1,,,,,,61,wg-a,,,,AAXX 12124 07130 02240 80304 10100 20090 39932 49983 51018 60026 76165 887// 91200 333 60017=
07130,1996-11-12 15:00:00,10,1000.3,2,93,9,7000,11.112,,,40,,,,0,,,,,,2,wg-a,,,,AAXX 12154 07130 12357 80406 10100 20090 39952 40003 53020 60007 70262 888// 91500=
07130,1996-11-12 18:00:00,10,1003.2,2.8,87,8,7000,18.52,,,20,7.1,10.2,,,,,,,,2,wg-a,,,,AAXX 12184 07130 32357 70210 10100 20080 39980 40032 53028 70262 878// 91800 333 10102 20071=
07130,1996-11-12 21:00:00,9,1005.5,2.3,93,8,25000,18.52,,,20,,,,,,,,,,,wg-a,,,,AAXX 12214 07130 12575 30210 10090 20080 30003 40055 53023 60006 83500 92100=
07130,1996-11-13 00:00:00,9,1008.2,2.7,87,7,20000,25.928,,,30,,,,0,,,,,,,wg-a,,,,AAXX 13004 07130 02470 70314 10090 20070 30030 40082 53027 60006 875// 90000 333 60007=
07130,1996-11-13 03:00:00,8,1010.1,1.9,93,7,20000,22.224,,,20,,,,,,,,,,,wg-a,,,,AAXX 13034 07130 12470 80212 10080 20070 30049 40101 51019 60006 885// 90300=
07130,1996-11-13 06:00:00,8,1012.7,2.5,87,6,15000,18.52,,,20,7.8,9.7,,,,,3,,,,wg-a,,,,AAXX 13064 07130 12465 80210 10080 20060 30074 40127 51025 60034 875// 90600 333 10097 20078=
07130,1996-11-13 09:00:00,8,1015.7,3,81,5,12000,22.224,,,20,,,,,,,,,,,wg-a,,,,AAXX 13094 07130 12562 70212 10080 20050 30104 40157 52030 60006 875// 90900=
07130,1996-11-13 12:00:00,9,1017.4,1.7,71,4,25000,22.224,,,40,,,,,,,,,,,wg-a,,,,AAXX 13124 07130 12575 /0412 10090 20040 30121 40174 51017 60006 85200 91200=
07130,1996-11-13 15:00:00,10,1017.6,0.3,66,4,25000,22.224,,,20,,,,,,,,,,,wg-a,,,,AAXX 13154 07130 12675 30212 10100 20040 30124 40176 53003 60006 82801 91500=
07130,1996-11-13 18:00:00,6,1019.6,1.9,87,4,20000,11.112,,,30,6.3,10.4,,,,,,,,,wg-a,,,,AAXX 13184 07130 12/70 00306 10060 20040 30143 40196 53019 60006 80000 91800 333 10104 20063=
07130,1996-11-13 21:00:00,5,1021,1.3,87,3,20000,14.816,,,20,,,,,,,,,,,wg-a,,,,AAXX 13214 07130 12/70 00208 10050 20030 30156 40210 51013 60006 80000 92100=
07130,1996-11-14 00:00:00,2,1021.6,0.6,93,1,20000,3.704,,,290,,,,,,,,,,,wg-a,,,,AAXX 14004 07130 12/70 02902 10020 20010 30162 40216 51006 60006 80000 90000=
07130,1996-11-14 03:00:00,0,1021.8,0.1,100,0,10000,11.112,,,320,,,,,,,,,,,wg-a,,,,AAXX 14034 07130 12/60 03206 10000 20000 30163 40218 53001 60006 80000 90300=
07130,1996-11-14 06:00:00,0,1022.5,0.7,93,-1,3500,7.408,,,310,-0.2,6.5,,,,,,,,10,wg-a,,,,AAXX 14064 07130 02635 43104 10000 21010 30170 40225 53007 60006 71000 84500 90600 333 10065 21002 60004=
07130,1996-11-14 09:00:00,2,1023.5,1.1,100,2,6000,3.704,,,270,,,,,,,,,,,wg-a,,,,AAXX 14094 07130 12/56 /2702 10020 20020 30181 40235 51011 60006 80000 90900=
07130,1996-11-14 12:00:00,9,1023.2,-0.2,66,3,10000,11.112,,,50,,,,,,,,,,,wg-a,,,,AAXX 14124 07130 12560 /0506 10090 20030 30179 40232 58002 60006 81100 91200=
07130,1996-11-14 15:00:00,10,1022.8,-0.4,57,2,500,11.112,,,40,,,,,,,,,,,wg-a,,,,AAXX 14154 07130 12600 50406 10100 20020 30175 40228 56004 60006 84230 91500=
07130,1996-11-14 18:00:00,7,1023.4,0.6,70,2,15000,7.408,,,60,-0.2,10.4,,,,,,,,,wg-a,,,,AAXX 14184 07130 12/65 00604 10070 20020 30181 40234 53006 60006 80000 91800 333 10104 21002=
07130,1996-11-14 21:00:00,3,1023.5,0,87,1,15000,3.704,,,20,,,,,,,,,,,wg-a,,,,AAXX 14214 07130 12/65 00202 10030 20010 30181 40235 50000 60006 80000 92100=
07130,1996-11-15 00:00:00,1,1023.4,-0.2,93,0,10000,0,,,0,,,,,,,,,,,wg-a,,,,AAXX 15004 07130 12/60 00000 10010 20000 30179 40234 55002 60006 80000 90000=
07130,1996-11-15 03:00:00,1,1021.9,-1.4,100,1,8000,3.704,,,330,,,,,,,,,,,wg-a,,,,AAXX 15034 07130 12/58 /3302 10010 20010 30165 40219 57014 60006 80001 90300=
07130,1996-11-15 06:00:00,2,1021.3,-0.6,93,1,8000,0,,,0,0,6.7,,,,,,,,,wg-a,,,,AAXX 15064 07130 02/58 00000 10020 20010 30159 40213 56006 60006 80000 90600 333 10067 20000 60004=
07130,1996-11-15 09:00:00,4,1022,0.7,87,2,12000,14.816,,,40,,,,,,,,,,,wg-a,,,,AAXX 15094 07130 12762 10408 10040 20020 30166 40220 51007 60006 81500 90900=
07130,1996-11-15 12:00:00,6,1021.2,-0.7,61,-1,20000,18.52,,,50,,,,,,,,,,,wg-a,,,,AAXX 15124 07130 12/70 30510 10060 21010 30159 40212 58007 60006 83030 91200=
07130,1996-11-15 15:00:00,7,1020.2,-1,57,-1,12000,22.224,,,40,,,,,,,,,,,wg-a,,,,AAXX 15154 07130 12/62 10412 10070 21010 30149 40202 56010 60006 81030 91500=
07130,1996-11-15 18:00:00,6,1021.7,1.5,65,0,12000,14.816,,,50,1.5,6.9,,,,,,,,,wg-a,,,,AAXX 15184 07130 12662 70508 10060 20000 30164 40217 51015 60006 875// 91800 333 10069 20015=
07130,1996-11-15 20:00:00,4,1021.7,1.5,75,0,12000,14.816,,,50,1.5,6.9,,,,,,,,,wg-a,,,,AAXX 15204 07130 12662 70508 10040 20000 30164 40217 51015 60006 875// 92000 333 10069 20015=
07130,1996-11-15 21:00:00,4,1023.2,1.4,81,1,15000,11.112,,,80,,,,,,,,,,,wg-a,,,,AAXX 15214 07130 12/65 00806 10040 20010 30178 40232 53014 60006 80000 92100=
07130,1996-11-16 00:00:00,2,1023.5,0.3,87,0,9000,7.408,,,70,,,,,,,,,,,wg-a,,,,AAXX 16004 07130 12/59 00704 10020 20000 30181 40235 53003 60006 80000 90000=
07130,1996-11-16 03:00:00,0,1023.2,-0.4,93,-1,9000,11.112,,,10,,,,,,,,,,,wg-a,,,,AAXX 16034 07130 12/59 00106 10000 21010 30177 40232 56004 60006 80000 90300=
07130,1996-11-16 06:00:00,-1,1023.8,0.6,93,-2,6000,3.704,,,350,-1.1,5.7,,,,,,,,,wg-a,,,,AAXX 16064 07130 02/56 03502 11010 21020 30183 40238 50006 60006 80000 90600 333 10057 21011 60004=
07130,1996-11-16 09:00:00,2,1024.5,0.8,93,1,6000,7.408,,,40,,,,,,,,,,,wg-a,,,,AAXX 16094 07130 12/56 00404 10020 20010 30191 40245 52008 60006 80000 90900=
07130,1996-11-16 12:00:00,6,1023.8,-0.7,75,2,9000,11.112,,,100,,,,,,,,,,,wg-a,,,,AAXX 16124 07130 12459 71006 10060 20020 30184 40238 58007 60006 85532 91200=
07130,1996-11-16 15:00:00,7,1022.4,-1.3,76,3,10000,7.408,,,120,,,,,,,,,,,wg-a,,,,AAXX 16154 07130 12560 21204 10070 20030 30171 40224 56013 60006 81130 91500=
07130,1996-11-16 18:00:00,4,1022.2,-0.3,87,2,7000,0,,,0,-1.1,7.5,,,,,,,,,wg-a,,,,AAXX 16184 07130 12/57 00000 10040 20020 30168 40222 58003 60006 80000 91800 333 10075 21011=
07130,1996-11-16 21:00:00,1,1022,-0.2,100,1,4000,0,,,0,,,,,,,,,,10,wg-a,,,,AAXX 16214 07130 12/40 00000 10010 20010 30166 40220 58002 60006 71000 80000 92100=
07130,1996-11-17 00:00:00,-2,1020.7,-1.4,100,-2,300,3.704,,,300,,,,,,,,,,45,wg-a,,,,AAXX 17004 07130 12/03 93002 11020 21020 30152 40207 56014 60006 74541 89/// 90000=
07130,1996-11-17 03:00:00,-2,1018.8,-1.9,100,-2,200,0,,,0,,,,,,,,,,45,wg-a,,,,AAXX 17034 07130 12/02 90000 11020 21020 30133 40188 58019 60006 74544 89/// 90300=
07130,1996-11-17 06:00:00,-1,1015.2,-3.5,100,-1,500,3.704,,,70,-1.9,3.9,,,,,,,,10,wg-a,,,,AAXX 17064 07130 02405 50702 11010 21010 30098 40152 58035 60006 71041 85500 90600 333 10039 21019 60004=
07130,1996-11-17 09:00:00,1,1015.2,0,100,1,1000,7.408,,,170,,,,,,,,,,28,wg-a,,,,AAXX 17094 07130 12110 81704 10010 20010 30098 40152 50000 60006 72842 876// 90900=
07130,1996-11-17 12:00:00,4,1011.9,-3.2,100,4,1500,11.112,,,190,,,,,,,,,,,wg-a,,,,AAXX 17124 07130 12/15 /1906 10040 20040 30066 40119 58032 60006 91200=
07130,1996-11-17 15:00:00,6,1009.9,-2,93,5,1000,7.408,,,230,,,,0,,,,,,10,wg-a,,,,AAXX 17154 07130 12410 82304 10060 20050 30046 40099 58020 60007 71062 875// 91500=
07130,1996-11-17 18:00:00,6,1008.9,-1,100,6,1500,3.704,,,280,-1.1,6.4,,1,,,,,,10,wg-a,,,,AAXX 17184 07130 12315 82802 10060 20060 30036 40089 56010 60017 71062 865// 91800 333 10064 21011=
07130,1996-11-17 21:00:00,7,1009.3,0.4,93,6,15000,11.112,,,20,,,,1,,,,,,21,wg-a,,,,AAXX 17214 07130 12465 60206 10070 20060 30040 40093 53004 60017 72162 8453/ 92100=
07130,1996-11-18 00:00:00,4,1010,0.7,93,3,25000,7.408,,,300,,,,,,,,,,1,wg-a,,,,AAXX 18004 07130 12575 33004 10040 20030 30047 40100 53007 60016 70161 83200 90000=
07130,1996-11-18 03:00:00,4,1009.8,-0.2,81,1,25000,7.408,,,350,,,,,,,,,,,wg-a,,,,AAXX 18034 07130 12/75 03504 10040 20010 30045 40098 58002 60006 80000 90300=
07130,1996-11-18 06:00:00,3,1010.2,0.4,87,1,25000,14.816,,,310,1.6,7.4,,,,,2,,,,wg-a,,,,AAXX 18064 07130 12/75 03108 10030 20010 30049 40102 53004 60024 80000 90600 333 10074 20016=
07130,1996-11-18 09:00:00,5,1011.4,1.2,87,3,500,14.816,,,320,,,,,,,,,,,wg-a,,,,AAXX 18094 07130 12600 23208 10050 20030 30061 40114 51012 60006 82302 90900=
07130,1996-11-18 12:00:00,9,1011.5,0.2,57,1,35000,22.224,,,340,,,,,,,,,,,wg-a,,,,AAXX 18124 07130 12681 53412 10090 20010 30063 40115 50002 60006 85800 91200=
07130,1996-11-18 15:00:00,7,1011.5,-0.1,70,2,35000,11.112,,,320,,,,,,,,,,25,wg-a,,,,AAXX 18154 07130 02681 53206 10070 20020 30062 40115 56001 61000 72586 85900 91500 333 ////=
07130,1996-11-18 18:00:00,3,1011.4,-0.2,81,0,500,7.408,,,300,1.1,9.4,,,,,,,,2,wg-a,,,,AAXX 18184 07130 32600 /3004 10030 20000 30060 40114 55002 70286 81501 91800 333 10094 20011=
07130,1996-11-18 21:00:00,2,1010.1,-1.3,93,1,25000,7.408,,,210,,,,,,,,,,,wg-a,,,,AAXX 18214 07130 12/75 02104 10020 20010 30047 40101 58013 60006 80000 92100=
07130,1996-11-19 00:00:00,2,1006.7,-3.3,93,1,25000,7.408,,,170,,,,,,,,,,,wg-a,,,,AAXX 19004 07130 12/75 51704 10020 20010 30014 40067 58033 60006 80002 90000=
07130,1996-11-19 03:00:00,5,999,-7.6,81,2,20000,25.928,,,180,,,,,,,,,,,wg-a,,,,AAXX 19034 07130 12670 81814 10050 20020 39938 49990 58076 60006 83572 90300=
07130,1996-11-19 06:00:00,7,986.7,-12.2,93,6,12000,50.004,,62.968,170,1.5,7,,3,,,3,,,61,wg-a,,,,AAXX 19064 07130 02362 81727 10070 20060 39816 49867 58122 60034 76162 865// 90600 333 10070 20015 60037 91034=
07130,1996-11-19 09:00:00,7,981.6,-5.1,93,6,12000,50.004,,,170,1.5,7,,3,,,3,,,61,wg-a,,,,AAXX 19094 07130 02362 81727 10070 20060 39765 49816 58051 60034 76162 865// 90900 333 10070 20015 60037=
07130,1996-11-19 12:00:00,7,980.3,-1.3,87,5,3000,29.632,,,240,,,,0,,,,,,61,wg-a,,,,AAXX 19124 07130 02330 /2416 10070 20050 39752 49803 57013 60176 76161 86300 91200 333 60007=
07130,1996-11-19 15:00:00,9,977.2,-3,81,6,2000,31.484,,,230,,,,0,,,,,,10,wg-a,,,,AAXX 19154 07130 12420 72317 10090 20060 39722 49772 56030 60007 71061 879// 91500=
07130,1996-11-19 18:00:00,8,975.8,-1.5,87,6,10000,29.632,,,250,6.4,10.9,,2,,,,,,3,wg-a,,,,AAXX 19184 07130 12360 72516 10080 20060 39707 49758 55015 60027 70361 875// 91800 333 10109 20064=
07130,1996-11-19 21:00:00,8,977.6,1.8,76,4,20000,31.484,,53.708,270,,,,,,,,,,,wg-a,,,,AAXX 19214 07130 12570 72717 10080 20040 39725 49776 53018 60006 875// 92100 333 91029=
07130,1996-11-20 00:00:00,7,979.2,1.6,76,3,20000,31.484,,,270,,,,,,,,,,,wg-a,,,,AAXX 20004 07130 12570 72717 10070 20030 39741 49792 52016 60006 875// 90000=
07130,1996-11-20 03:00:00,6,982.7,3.5,87,4,20000,31.484,,57.412,270,,,,0,,,,,,25,wg-a,,,,AAXX 20034 07130 12570 /2717 10060 20040 39776 49827 53035 60007 72522 85300 90300 333 91031=
07130,1996-11-20 06:00:00,6,986.6,3.8,87,4,12000,31.484,,,290,5.5,8.6,,1,,,20,,,80,wg-a,,,,AAXX 20064 07130 02562 62917 10060 20040 39814 49866 52038 60204 78086 86300 90600 333 10086 20055 60017=
07130,1996-11-20 09:00:00,6,991.1,4.5,87,4,25000,31.484,,,280,,,,2,,,,,,1,wg-a,,,,AAXX 20094 07130 12575 52817 10060 20040 39859 49911 51045 60027 70186 85900 90900=
07130,1996-11-20 12:00:00,7,995.2,4.1,87,5,10000,38.892,,,280,,,,0,,,,,,80,wg-a,,,,AAXX 20124 07130 02460 62821 10070 20050 39900 49952 51041 60026 78086 86900 91200 333 60007=
07130,1996-11-20 15:00:00,7,999.3,4.1,81,4,8000,35.188,,,300,,,,2,,,,,,25,wg-a,,,,AAXX 20154 07130 12458 73019 10070 20040 39941 49993 51041 60027 72586 879// 91500=
07130,1996-11-20 18:00:00,5,1003.6,4.2,81,2,20000,25.928,,,320,4.6,8,,0,,,,,,1,wg-a,,,,AAXX 20184 07130 12570 53214 10050 20020 39983 40036 51042 60007 70186 84940 91800 333 10080 20046=
07130,1996-11-20 21:00:00,3,1005.8,2.2,87,1,20000,11.112,,,280,,,,,,,,,,,wg-a,,,,AAXX 20214 07130 12570 /2806 10030 20010 30005 40058 51022 60006 81200 92100=
07130,1996-11-21 00:00:00,4,1007.5,1.7,87,2,20000,18.52,,,290,,,,,,,,,,,wg-a,,,,AAXX 21004 07130 12570 72910 10040 20020 30022 40075 53017 60006 86840 90000=
07130,1996-11-21 03:00:00,2,1008.7,1.1,87,0,20000,11.112,,,280,,,,,,,,,,,wg-a,,,,AAXX 21034 07130 12/70 02806 10020 20000 30033 40087 51011 60006 80000 90300=
07130,1996-11-21 06:00:00,1,1009.9,1.2,93,0,20000,0,,,0,0.9,4.8,,,,,4,,,,wg-a,,,,AAXX 21064 07130 02770 30000 10010 20000 30045 40099 51012 60006 82502 90600 333 10048 20009 60044=
07130,1996-11-21 09:00:00,2,1010.9,1,93,1,15000,3.704,,,200,,,,,,,,,,,wg-a,,,,AAXX 21094 07130 12565 72002 10020 20010 30055 40109 53010 60006 81802 90900=
07130,1996-11-21 12:00:00,5,1009.9,-0.9,81,2,10000,3.704,,,180,,,,,,,,,,,wg-a,,,,AAXX 21124 07130 12560 81802 10050 20020 30046 40099 58009 60006 8181/ 91200=
07130,1996-11-21 15:00:00,6,1007.4,-2.5,81,3,12000,7.408,,,150,,,,,,,,,,,wg-a,,,,AAXX 21154 07130 12662 81504 10060 20030 30021 40074 56025 60006 8353/ 91500=
07130,1996-11-21 18:00:00,4,1006.7,-0.7,93,3,10000,11.112,,,100,1.1,6,,,,,,,,,wg-a,,,,AAXX 21184 07130 12660 81006 10040 20030 30014 40067 56007 60006 8157/ 91800 333 10060 20011=
07130,1996-11-21 21:00:00,3,1009,2.3,93,2,12000,7.408,,,40,,,,,,,,,,,wg-a,,,,AAXX 21214 07130 12462 30404 10030 20020 30037 40090 53023 60006 8153/ 92100=
07130,1996-11-22 00:00:00,0,1011.9,2.8,93,-1,900,11.112,,,320,,,,,,,,,,41,wg-a,,,,AAXX 22004 07130 12/09 03206 10000 21010 30065 40119 53028 60006 74141 80000 90000=
07130,1996-11-22 03:00:00,-2,1013.8,1.8,100,-2,200,0,,,0,,,,,,,,,,44,wg-a,,,,AAXX 22034 07130 12/02 00000 11020 21020 30083 40138 51018 60006 74444 80000 90300=
07130,1996-11-22 06:00:00,-2,1016,2.2,93,-3,500,0,,,0,-2.3,4.3,,,,,,,,40,wg-a,,,,AAXX 22064 07130 02/05 00000 11020 21030 30105 40160 51022 60006 74040 80000 90600 333 10043 21023 60004=
07130,1996-11-22 09:00:00,0,1016.9,1,100,0,2000,3.704,,,170,,,,,,,,,,10,wg-a,,,,AAXX 22094 07130 12/20 31702 10000 20000 30115 40169 51010 60006 71041 80001 90900=
07130,1996-11-22 12:00:00,1,1016.9,0,93,0,1800,14.816,,,210,,,,,,,,,,10,wg-a,,,,AAXX 22124 07130 12218 82108 10010 20000 30115 40169 50000 60006 71041 886// 91200=
07130,1996-11-22 15:00:00,3,1015.2,-1.7,93,2,6000,11.112,,,180,,,,,,,,,,,wg-a,,,,AAXX 22154 07130 12356 81806 10030 20020 30098 40152 56017 60006 85601 91500=
07130,1996-11-22 18:00:00,2,1013.7,-1.5,100,2,4500,7.408,,,150,-2.9,3.4,,,,,,,,10,wg-a,,,,AAXX 22184 07130 12245 71504 10020 20020 30083 40137 56015 60006 71022 85502 91800 333 10034 21029=
07130,1996-11-22 21:00:00,3,1013.1,-0.6,93,2,7000,11.112,,,170,,,,,,,,,,61,wg-a,,,,AAXX 22214 07130 02657 81706 10030 20020 30077 40131 57006 61000 76162 8557/ 92100 333 ////=
07130,1996-11-23 00:00:00,2,1012.9,-0.2,100,2,500,3.704,,,300,,,,1,,,,,,61,wg-a,,,,AAXX 23004 07130 02300 83002 10020 20020 30072 40129 55002 60016 76162 885// 90000 333 60017=
07130,1996-11-23 03:00:00,2,1012.2,-0.7,93,1,3000,7.408,,,150,,,,1,,,,,,10,wg-a,,,,AAXX 23034 07130 12330 81504 10020 20010 30068 40122 55007 60017 71062 885// 90300=
07130,1996-11-23 06:00:00,2,1012.4,0.2,100,2,300,7.408,,,240,1.4,3,,,,,2,,,45,wg-a,,,,AAXX 23064 07130 12/03 92404 10020 20020 30070 40124 53002 60024 74564 89/// 90600 333 10030 20014=
07130,1996-11-23 09:00:00,4,1014.5,2.2,93,3,10000,11.112,,,320,,,,0,,,,,,25,wg-a,,,,AAXX 23094 07130 12460 63206 10040 20030 30092 40145 53022 60007 72586 86340 90900=
07130,1996-11-23 12:00:00,8,1017,2.5,81,5,11000,14.816,,,340,,,,,,,,,,,wg-a,,,,AAXX 23124 07130 12/61 /3408 10080 20050 30117 40170 51025 60016 91200=
07130,1996-11-23 15:00:00,8,1019,2,61,1,500,7.408,,,10,,,,,,,,,,15,wg-a,,,,AAXX 23154 07130 02500 50104 10080 20010 30137 40190 51020 61000 71586 85800 91500 333 ////=
07130,1996-11-23 18:00:00,4,1022,2.9,93,3,20000,7.408,,,310,1.6,8.8,,0,,,,,,25,wg-a,,,,AAXX 23184 07130 12370 63104 10040 20030 30166 40220 51029 60007 72586 86800 91800 333 10088 20016=
07130,1996-11-23 21:00:00,3,1023.8,1.8,93,2,500,3.704,,,140,,,,0,,,,,,1,wg-a,,,,AAXX 23214 07130 12500 21402 10030 20020 30184 40238 53018 60007 70186 81231 92100=
07130,1996-11-24 00:00:00,2,1025.4,1.6,93,1,25000,3.704,,,230,,,,,,,,,,1,wg-a,,,,AAXX 24004 07130 12/75 12302 10020 20010 30200 40254 53016 60006 70186 80001 90000=
07130,1996-11-24 03:00:00,0,1025.7,0.2,100,0,500,7.408,,,230,,,,,,,,,,,wg-a,,,,AAXX 24034 07130 12/00 12304 10000 20000 30202 40257 50002 60006 80001 90300=
07130,1996-11-24 06:00:00,-1,1026,0.3,100,-1,20000,3.704,,,210,-0.9,4.4,,,,,1,,,,wg-a,,,,AAXX 24064 07130 12870 32102 11010 21010 30205 40260 53003 60014 81041 90600 333 10044 21009=
07130,1996-11-24 09:00:00,1,1026,-0,93,0,15000,7.408,,,170,,,,,,,,,,,wg-a,,,,AAXX 24094 07130 12865 81704 10010 20000 30205 40260 54000 60006 81047 90900=
07130,1996-11-24 12:00:00,6,1022.4,-3.4,81,3,10000,18.52,,,200,,,,,,,,,,,wg-a,,,,AAXX 24124 07130 12/60 /2010 10060 20030 30171 40224 58034 60006 91200=
07130,1996-11-24 15:00:00,7,1018.3,-4.1,81,4,15000,29.632,,,190,,,,,,,,,,,wg-a,,,,AAXX 24154 07130 12665 71916 10070 20040 30130 40183 57041 60006 875// 91500=
07130,1996-11-24 18:00:00,8,1014.9,-3.4,87,6,10000,18.52,,,190,-0.9,7.7,,,,,,,,60,wg-a,,,,AAXX 24184 07130 02460 71910 10080 20060 30096 40149 58034 61000 76065 875// 91800 333 10077 21009 ////=
07130,1996-11-24 21:00:00,9,1011.2,-3.6,93,8,8000,25.928,,,220,,,,3,,,,,,61,wg-a,,,,AAXX 24214 07130 12358 82214 10090 20080 30060 40112 57036 60037 76162 885// 92100=
07130,1996-11-25 00:00:00,10,1006.8,-4.4,100,10,8000,25.928,,,210,,,,,,,,,,61,wg-a,,,,AAXX 25004 07130 12258 82114 10100 20100 30016 40068 58044 60056 76162 887// 90000=
07130,1996-11-25 03:00:00,12,1003.9,-2.8,100,12,15000,18.52,,,260,,,,1,,,,,,21,wg-a,,,,AAXX 25034 07130 12465 82610 10120 20120 39988 40039 56028 60017 72162 887// 90300=
07130,1996-11-25 06:00:00,11,1004,0.1,87,9,20000,18.52,,,300,7.5,12.5,,,,,7,,,1,wg-a,,,,AAXX 25064 07130 12470 /3010 10110 20090 39989 40040 53001 60074 70162 86500 90600 333 10125 20075=
07130,1996-11-25 09:00:00,9,1004.7,0.6,93,8,15000,14.816,,,260,,,,,,,,,,,wg-a,,,,AAXX 25094 07130 12765 72608 10090 20080 39995 40047 50006 60006 8657/ 90900=
07130,1996-11-25 12:00:00,12,1003,-1.6,76,8,25000,22.224,,,270,,,,,,,,,,,wg-a,,,,AAXX 25124 07130 12675 42712 10120 20080 39979 40030 58016 60006 83830 91200=
07130,1996-11-25 15:00:00,11,1001.5,-1.5,82,8,25000,22.224,,,280,,,,,,,,,,16,wg-a,,,,AAXX 25154 07130 02575 72812 10110 20080 39964 40015 56015 61000 71661 878// 91500 333 ////=
07130,1996-11-25 18:00:00,10,1003.3,1.7,82,7,20000,22.224,,,320,8.1,12.9,,1,,,,,,25,wg-a,,,,AAXX 25184 07130 12470 53212 10100 20070 39981 40033 53017 60017 72586 85900 91800 333 10129 20081=
07130,1996-11-25 21:00:00,7,1006.1,2.8,93,6,25000,11.112,,,290,,,,1,,,,,,1,wg-a,,,,AAXX 25214 07130 12575 /2906 10070 20060 30009 40061 53028 60017 70186 81200 92100=
07130,1996-11-26 00:00:00,6,1008.4,2.2,93,5,40000,14.816,,,290,,,,,,,,,,1,wg-a,,,,AAXX 26004 07130 12582 12908 10060 20050 30031 40084 51022 60016 70186 81800 90000=
07130,1996-11-26 03:00:00,7,1011.1,2.7,93,6,40000,11.112,,,340,,,,,,,,,,,wg-a,,,,AAXX 26034 07130 12682 /3406 10070 20060 30058 40111 53027 60006 85500 90300=
07130,1996-11-26 06:00:00,6,1013,1.9,93,5,40000,7.408,,,310,5.3,9.6,,,,,2,,,,wg-a,,,,AAXX 26064 07130 12682 73104 10060 20050 30077 40130 53019 60024 87500 90600 333 10096 20053=
07130,1996-11-26 09:00:00,7,1014.9,1.9,87,5,20000,11.112,,,300,,,,,,,,,,,wg-a,,,,AAXX 26094 07130 12570 /3006 10070 20050 30096 40149 52019 60006 85800 90900=
07130,1996-11-26 12:00:00,9,1015.9,1,71,4,500,11.112,,,360,,,,,,,,,,,wg-a,,,,AAXX 26124 07130 12500 /3606 10090 20040 30106 40159 50010 60006 82804 91200=
07130,1996-11-26 15:00:00,9,1015.7,-0.2,71,4,500,3.704,,,20,,,,,,,,,,,wg-a,,,,AAXX 26154 07130 12500 70202 10090 20040 30104 40157 55002 60006 8227/ 91500=
07130,1996-11-26 18:00:00,7,1015.3,-0.4,81,4,15000,3.704,,,120,4.2,9.2,,,,,,,,,wg-a,,,,AAXX 26184 07130 12565 71202 10070 20040 30100 40153 55004 60006 8153/ 91800 333 10092 20042=
07130,1996-11-26 21:00:00,6,1015.8,0.5,87,4,15000,0,,,0,,,,,,,,,,,wg-a,,,,AAXX 26214 07130 12565 80000 10060 20040 30105 40158 53005 60006 8357/ 92100=
07130,1996-11-27 00:00:00,6,1014,-1.8,87,4,15000,11.112,,,120,,,,,,,,,,60,wg-a,,,,AAXX 27004 07130 02565 81206 10060 20040 30087 40140 56018 61000 76062 8257/ 90000 333 6100=
07130,1996-11-27 03:00:00,6,1011,-3,81,3,12000,14.816,,,150,,,,,,,,,,21,wg-a,,,,AAXX 27034 07130 02562 81508 10060 20030 30057 40110 56030 61000 72162 885// 90300 333 ////=
07130,1996-11-27 06:00:00,5,1007.6,-3.4,100,5,500,14.816,,,130,5.2,6.7,,2,,,2,,,61,wg-a,,,,AAXX 27064 07130 02200 81308 10050 20050 30023 40076 57034 60024 76162 887// 90600 333 10067 20052 60027=
07130,1996-11-27 09:00:00,5,1003.9,-3.7,100,5,2000,18.52,,,130,,,,5,,,,,,61,wg-a,,,,AAXX 27094 07130 12220 81310 10050 20050 39986 40039 56037 60057 76166 887// 90900=
07130,1996-11-27 12:00:00,5,1002.5,-1.3,100,5,2500,0,,,0,,,,4,,,,,,53,wg-a,,,,AAXX 27124 07130 02225 80000 10050 20050 39973 40025 56013 60096 75365 887// 91200 333 60047=
07130,1996-11-27 15:00:00,6,1001.4,-1.1,100,6,3000,7.408,,,120,,,,4,,,,,,51,wg-a,,,,AAXX 27154 07130 12230 81204 10060 20060 39962 40014 56011 60047 75165 877// 91500=
07130,1996-11-27 18:00:00,3,1006.2,4.7,93,2,10000,22.224,,,70,2.8,6.1,,3,,,,,,61,wg-a,,,,AAXX 27184 07130 12360 80712 10030 20020 30009 40062 53047 60037 76165 877// 91800 333 10061 20028=
07130,1996-11-28 00:00:00,1,1015.6,3.5,100,1,10000,3.704,,,310,,,,,,,,,,2,wg-a,,,,AAXX 28004 07130 02/60 33102 10010 20010 30102 40156 51035 61000 70261 83030 90000 333 ////=
07130,1996-11-28 03:00:00,4,1017.7,2.1,93,3,10000,7.408,,,290,,,,1,,,,,,21,wg-a,,,,AAXX 28034 07130 12660 82904 10040 20030 30123 40177 52021 60017 72111 8757/ 90300=
07130,1996-11-28 06:00:00,2,1019.9,2.2,100,2,8000,3.704,,,290,0.4,3.8,,,,,17,,,11,wg-a,,,,AAXX 28064 07130 12758 32902 10020 20020 30145 40199 52022 60174 71111 83500 90600 333 10038 20004=
07130,1996-11-28 09:00:00,2,1022.2,2.3,100,2,1100,3.704,,,340,,,,,,,,,,10,wg-a,,,,AAXX 28094 07130 12511 /3402 10020 20020 30168 40222 53023 60006 71011 86800 90900=
07130,1996-11-28 12:00:00,8,1022.9,0.8,76,4,15000,7.408,,,270,,,,,,,,,,,wg-a,,,,AAXX 28124 07130 12565 /2704 10080 20040 30176 40229 51008 60006 86800 91200=
07130,1996-11-28 15:00:00,8,1022.7,-0.2,71,3,20000,11.112,,,300,,,,,,,,,,,wg-a,,,,AAXX 28154 07130 12570 /3006 10080 20030 30174 40227 57002 60006 81800 91500=
07130,1996-11-28 18:00:00,4,1023.3,0.5,87,2,15000,7.408,,,270,1.8,9,,,,,,,,,wg-a,,,,AAXX 28184 07130 12665 32704 10040 20020 30179 40233 51005 60006 83500 91800 333 10090 20018=
07130,1996-11-28 21:00:00,4,1022.8,-0.5,93,3,10000,3.704,,,200,,,,,,,,,,,wg-a,,,,AAXX 28214 07130 12660 /2002 10040 20030 30174 40228 58005 60006 81500 92100=
07130,1996-11-29 00:00:00,5,1021.3,-1.4,93,4,10000,11.112,,,220,,,,,,,,,,,wg-a,,,,AAXX 29004 07130 12660 72206 10050 20040 30160 40213 58014 60006 82510 90000=
07130,1996-11-29 03:00:00,7,1017.2,-4.1,100,7,8000,18.52,,,220,,,,1,,,,,,61,wg-a,,,,AAXX 29034 07130 12358 82210 10070 20070 30119 40172 58041 60017 76162 875// 90300=
07130,1996-11-29 06:00:00,10,1013.7,-3.4,100,10,8000,14.816,,,260,3.1,10.1,,2,,,3,,,61,wg-a,,,,AAXX 29064 07130 02258 82608 10100 20100 30085 40137 56034 60034 76162 885// 90600 333 10101 20031 60027=
07130,1996-11-29 09:00:00,12,1012.8,-0.9,88,10,10000,29.632,,,280,,,,1,,,,,,21,wg-a,,,,AAXX 29094 07130 12460 82816 10120 20100 30076 40128 56009 60017 72165 885// 90900=
07130,1996-11-29 12:00:00,13,1011.7,-1.1,82,10,12000,31.484,,,280,,,,,,,,,,3,wg-a,,,,AAXX 29124 07130 12462 72817 10130 20100 30065 40117 56011 60016 70365 875// 91200=
07130,1996-11-29 15:00:00,12,1009.6,-2.1,94,11,10000,29.632,,,260,,,,,,,,,,,wg-a,,,,AAXX 29154 07130 12460 82616 10120 20110 30044 40096 56021 60006 885// 91500=
07130,1996-11-29 18:00:00,13,1008.7,-0.8,88,11,15000,25.928,,42.596,280,10.1,13.2,,,,,,,,,wg-a,,,,AAXX 29184 07130 32465 82814 10130 20110 30036 40087 56008 885// 91800 333 10132 20101 91023=
07130,1996-11-29 21:00:00,12,1008.4,-0.3,88,10,10000,25.928,,,290,,,,,,,,,,51,wg-a,,,,AAXX 29214 07130 02260 82914 10120 20100 30033 40084 58003 61000 75165 875// 92100 333 ////=
07130,1996-11-30 00:00:00,11,1008.8,0.3,94,10,10000,11.112,,,270,,,,1,,,,,,21,wg-a,,,,AAXX 30004 07130 02260 82706 10110 20100 30036 40088 53003 60016 72165 877// 90000 333 60017=
07130,1996-11-30 03:00:00,12,1008.7,-0.1,88,10,10000,22.224,,,320,,,,0,,,,,,,wg-a,,,,AAXX 30034 07130 12360 83212 10120 20100 30035 40087 55001 60007 875// 90300=
07130,1996-11-30 06:00:00,11,1009,0.3,87,9,13000,22.224,,,320,10.6,13.1,,0,,,2,,,3,wg-a,,,,AAXX 30064 07130 02463 83212 10110 20090 30038 40090 53003 60024 70365 885// 90600 333 10131 20106 60007=
07130,1996-11-30 09:00:00,11,1010.1,1.1,94,10,6000,22.224,,,310,,,,,,,,,,,wg-a,,,,AAXX 30094 07130 12456 83112 10110 20100 30049 40101 51011 60006 878// 90900=
07130,1996-11-30 12:00:00,12,1011.1,1,88,10,25000,29.632,,,320,,,,1,,,,,,1,wg-a,,,,AAXX 30124 07130 02575 /3216 10120 20100 30059 40111 50010 60016 70165 82230 91200 333 60017=
07130,1996-11-30 15:00:00,12,1012.5,1.4,76,8,18000,31.484,,,330,,,,,,,,,,,wg-a,,,,AAXX 30154 07130 12568 63317 10120 20080 30073 40125 53014 60006 84230 91500=
07130,1996-11-30 18:00:00,9,1015.7,3.2,87,7,20000,11.112,,,330,9.2,12.7,,,,,,,,,wg-a,,,,AAXX 30184 07130 32470 23306 10090 20070 30105 40157 52032 82800 91800 333 10127 20092=
07130,1996-11-30 21:00:00,5,1018.8,3,93,4,20000,7.408,,,290,,,,,,,,,,,wg-a,,,,AAXX 30214 07130 12/70 02904 10050 20040 30135 40188 53030 60006 80000 92100=
07130,1996-12-01 00:00:00,4,1021.2,2.3,100,4,20000,7.408,,,280,,,,,,,,,,,wg-a,,,,AAXX 01004 07130 12/70 02804 10040 20040 30158 40212 51023 60006 80000 90000=
07130,1996-12-01 03:00:00,4,1022,0.8,100,4,20000,3.704,,,270,,,,,,,,,,,wg-a,,,,AAXX 01034 07130 12/70 02702 10040 20040 30166 40220 51008 60006 80000 90300=
07130,1996-12-01 06:00:00,6,1022.2,0.3,100,6,20000,7.408,,,200,4,9.2,,,,,1,,,,wg-a,,,,AAXX 01064 07130 02670 72004 10060 20060 30169 40222 51003 60006 875// 90600 333 10092 20040 60014=
07130,1996-12-01 09:00:00,9,1021.5,-0.7,93,8,1500,11.112,,,220,,,,1,,,,,,51,wg-a,,,,AAXX 01094 07130 12215 82206 10090 20080 30162 40215 58007 60017 75165 887// 90900=
07130,1996-12-01 12:00:00,12,1020.1,-1.3,100,12,7000,14.816,,,260,,,,1,,,,,,1,wg-a,,,,AAXX 01124 07130 02257 82608 10120 20120 30149 40201 58013 60026 70165 875// 91200 333 60017=
07130,1996-12-01 15:00:00,14,1018.7,-1.4,94,13,25000,14.816,,,270,,,,,,,,,,,wg-a,,,,AAXX 01154 07130 12475 72708 10140 20130 30135 40187 56014 60006 85831 91500=
07130,1996-12-01 18:00:00,12,1019.7,1,82,9,25000,25.928,,,310,5.5,14.6,,,,,,,,,wg-a,,,,AAXX 01184 07130 32575 43114 10120 20090 30145 40197 53010 84530 91800 333 10146 20055=
07130,1996-12-01 21:00:00,11,1020.5,0.8,82,8,12000,18.52,,,300,,,,,,,,,,,wg-a,,,,AAXX 01214 07130 12562 83010 10110 20080 30153 40205 51008 60006 875// 92100=
07130,1996-12-02 00:00:00,8,1021.3,0.7,93,7,11000,14.816,,,300,,,,,,,,,,,wg-a,,,,AAXX 02004 07130 12/61 /3008 10080 20070 30160 40213 53007 60006 90000=
07130,1996-12-02 03:00:00,7,1022.1,0.8,87,5,12000,14.816,,,290,,,,,,,,,,,wg-a,,,,AAXX 02034 07130 12762 52908 10070 20050 30168 40221 53008 60006 85500 90300=
07130,1996-12-02 06:00:00,6,1023.2,1.1,87,4,15000,14.816,,,290,6.3,12,,,,,2,,,,wg-a,,,,AAXX 02064 07130 02765 32908 10060 20040 30179 40232 53011 60006 82502 90600 333 10120 20063 60024=
07130,1996-12-02 09:00:00,8,1024,0.8,81,5,15000,18.52,,,280,,,,,,,,,,,wg-a,,,,AAXX 02094 07130 12765 72810 10080 20050 30187 40240 52008 60006 8353/ 90900=
07130,1996-12-02 12:00:00,11,1024.3,0.3,71,6,0,22.224,,,280,,,,,,,,,,,wg-a,,,,AAXX 02124 07130 12/// /2812 10110 20060 30190 40243 50003 60006 91200=
07130,1996-12-02 15:00:00,11,1023.2,-1.1,76,7,500,18.52,,,280,,,,,,,,,,,wg-a,,,,AAXX 02154 07130 12600 52810 10110 20070 30179 40232 56011 60006 84830 91500=
07130,1996-12-02 18:00:00,9,1023.1,-0.1,81,6,20000,11.112,,,270,6.4,11.4,,,,,,,,,wg-a,,,,AAXX 02184 07130 12770 72706 10090 20060 30178 40231 58001 60006 8353/ 91800 333 10114 20064=
07130,1996-12-02 21:00:00,8,1021.5,-1.6,87,6,20000,14.816,,,240,,,,,,,,,,,wg-a,,,,AAXX 02214 07130 12670 82408 10080 20060 30162 40215 58016 60006 8557/ 92100=
07130,1996-12-03 00:00:00,9,1018.7,-2.8,87,7,20000,14.816,,,210,,,,,,,,,,,wg-a,,,,AAXX 03004 07130 12670 82108 10090 20070 30134 40187 58028 60006 8257/ 90000=
07130,1996-12-03 03:00:00,10,1014.3,-4.3,82,7,20000,22.224,,,200,,,,,,,,,,,wg-a,,,,AAXX 03034 07130 12470 82012 10100 20070 30091 40143 56043 60006 875// 90300=
07130,1996-12-03 06:00:00,11,1009.7,-4.6,94,10,7000,25.928,,,220,8.3,10.6,,0,,,,,,50,wg-a,,,,AAXX 03064 07130 02357 82214 10110 20100 30045 40097 56046 60004 75052 875// 90600 333 10106 20083 60007=
07130,1996-12-03 09:00:00,11,1006.1,-3.6,94,10,10000,35.188,,57.412,220,,,,0,,,,,,51,wg-a,,,,AAXX 03094 07130 12460 82219 10110 20100 30009 40061 56036 60007 75165 885// 90900 333 91031=
07130,1996-12-03 12:00:00,12,1001.9,-4.1,94,11,2500,31.484,,,220,,,,2,,,,,,61,wg-a,,,,AAXX 03124 07130 02325 82217 10120 20110 39968 40019 57041 60026 76165 877// 91200 333 60027=
07130,1996-12-03 15:00:00,12,998.3,-3.6,100,12,2500,29.632,,48.152,230,,,,3,,,,,,61,wg-a,,,,AAXX 03154 07130 12325 82316 10120 20120 39932 49983 56036 60037 76166 877// 91500 333 91026=
07130,1996-12-03 18:00:00,9,999.5,1.1,93,8,10000,11.112,,,270,8.6,12.3,,4,,,,,,60,wg-a,,,,AAXX 03184 07130 12760 82706 10090 20080 39943 49995 50011 60047 76066 885// 91800 333 10123 20086=
07130,1996-12-03 21:00:00,8,1000.7,1.2,100,8,13000,14.816,,,240,,,,0,,,,,,21,wg-a,,,,AAXX 03214 07130 12663 82408 10080 20080 39955 40007 52012 60007 72162 875// 92100=
07130,1996-12-04 00:00:00,7,1002.4,1.7,93,6,15000,11.112,,,250,,,,,,,,,,1,wg-a,,,,AAXX 04004 07130 12665 72506 10070 20060 39972 40024 51017 60016 70162 875// 90000=
07130,1996-12-04 03:00:00,5,1003.5,1,93,4,15000,3.704,,,230,,,,,,,,,,,wg-a,,,,AAXX 04034 07130 12765 52302 10050 20040 39982 40035 53010 60006 85500 90300=
07130,1996-12-04 06:00:00,4,1004.4,0.9,100,4,15000,3.704,,,150,4.3,8.6,,,,,9,,,,wg-a,,,,AAXX 04064 07130 12/65 61502 10040 20040 39991 40044 53009 60094 80002 90600 333 10086 20043=
07130,1996-12-04 09:00:00,4,1006.1,1.7,100,4,13000,3.704,,,170,,,,,,,,,,,wg-a,,,,AAXX 04094 07130 12/63 71702 10040 20040 30008 40061 53017 60006 81032 90900=
07130,1996-12-04 12:00:00,8,1006.9,0.9,87,6,17000,7.408,,,220,,,,,,,,,,,wg-a,,,,AAXX 04124 07130 12567 62204 10080 20060 30017 40069 51009 60006 81242 91200=
07130,1996-12-04 15:00:00,8,1007.3,0.4,81,5,25000,3.704,,,230,,,,,,,,,,,wg-a,,,,AAXX 04154 07130 12575 72302 10080 20050 30021 40073 53004 60006 81242 91500=
07130,1996-12-04 18:00:00,6,1008.2,0.8,87,4,500,0,,,0,4.1,8.9,,,,,,,,,wg-a,,,,AAXX 04184 07130 12/00 70000 10060 20040 30029 40082 53008 60006 81042 91800 333 10089 20041=
07130,1996-12-04 21:00:00,3,1010,1.8,100,3,6000,0,,,0,,,,,,,,,,,wg-a,,,,AAXX 04214 07130 12/56 /0000 10030 20030 30047 40100 51018 60006 80002 92100=
07130,1996-12-05 00:00:00,2,1011.1,1,93,1,600,0,,,0,,,,,,,,,,41,wg-a,,,,AAXX 05004 07130 12/06 /0000 10020 20010 30057 40111 53010 60006 74141 80002 90000=
07130,1996-12-05 03:00:00,1,1012,0.9,93,0,100,0,,,0,,,,,,,,,,45,wg-a,,,,AAXX 05034 07130 12/01 90000 10010 20000 30066 40120 53009 60006 74544 89/// 90300=
07130,1996-12-05 06:00:00,2,1012.4,0.4,100,2,200,3.704,,,350,0,5.5,,,,,,,,45,wg-a,,,,AAXX 05064 07130 02/02 93502 10020 20020 30070 40124 53004 60006 74544 89/// 90600 333 10055 20000 60004=
07130,1996-12-05 09:00:00,3,1013.9,1.5,100,3,100,0,,,0,,,,,,,,,,45,wg-a,,,,AAXX 05094 07130 12/01 90000 10030 20030 30085 40139 52015 60006 74544 89/// 90900=
07130,1996-12-05 12:00:00,4,1014.3,0.5,100,4,200,3.704,,,100,,,,,,,,,,43,wg-a,,,,AAXX 05124 07130 12/02 91002 10040 20040 30090 40143 50005 60006 74344 89/// 91200=
07130,1996-12-05 15:00:00,5,1013.7,-0.6,93,4,1200,3.704,,,40,,,,,,,,,,28,wg-a,,,,AAXX 05154 07130 12112 90402 10050 20040 30084 40137 56006 60006 72842 89700 91500=
07130,1996-12-05 18:00:00,3,1015,1.2,100,3,200,3.704,,,360,1.8,4.6,,,,,,,,45,wg-a,,,,AAXX 05184 07130 12/02 93602 10030 20030 30096 40150 51012 60006 74542 89/// 91800 333 10046 20018=
07130,1996-12-05 21:00:00,1,1015.7,0.7,100,1,200,0,,,0,,,,,,,,,,45,wg-a,,,,AAXX 05214 07130 12/02 90000 10010 20010 30103 40157 53007 60006 74544 89/// 92100=
07130,1996-12-06 00:00:00,0,1015.2,-0.5,100,0,3000,0,,,0,,,,,,,,,,28,wg-a,,,,AAXX 06004 07130 12/30 /0000 10000 20000 30098 40152 56005 60006 72841 80002 90000=
07130,1996-12-06 03:00:00,3,1015,-0.2,93,2,20000,14.816,,,30,,,,,,,,,,,wg-a,,,,AAXX 06034 07130 12/70 70308 10030 20020 30096 40150 56002 60006 8707/ 90300=
07130,1996-12-06 06:00:00,5,1014.5,-0.4,87,3,15000,22.224,,,50,-0.3,5,,,,,,,,,wg-a,,,,AAXX 06064 07130 02/65 70512 10050 20030 30092 40145 57004 60006 8707/ 90600 333 10050 21003 60004=
07130,1996-12-06 09:00:00,6,1015.1,0.6,87,4,15000,18.52,,,50,,,,,,,,,,,wg-a,,,,AAXX 06094 07130 12665 80510 10060 20040 30098 40151 51006 60006 8352/ 90900=
07130,1996-12-06 12:00:00,7,1014.9,,87,5,18000,22.224,,,30,,,,,,,,,,21,wg-a,,,,AAXX 06124 07130 02568 80312 10070 20050 30096 40149 61000 72162 875// 91200 333 6100=
07130,1996-12-06 15:00:00,7,1014.8,-0.1,93,6,8000,14.816,,,30,,,,1,,,,,,61,wg-a,,,,AAXX 06154 07130 12358 80308 10070 20060 30095 40148 55001 60017 76162 885// 91500=
07130,1996-12-06 18:00:00,6,1016.4,1.6,100,6,4000,14.816,,,30,,,,1,,,,,,10,wg-a,,,,AAXX 06184 07130 12240 80308 10060 20060 30111 40164 51016 60017 71062 885// 91800=
07130,1996-12-06 21:00:00,6,1017.6,1.2,100,6,500,11.112,,,40,,,,0,,,,,,50,wg-a,,,,AAXX 06214 07130 12200 80406 10060 20060 30123 40176 51012 60007 75065 885// 92100=
07130,1996-12-07 00:00:00,7,1018.6,1,93,6,6000,7.408,,,50,,,,,,,,,,2,wg-a,,,,AAXX 07004 07130 02256 80504 10070 20060 30133 40186 51010 60006 70265 885// 90000 333 61000=
07130,1996-12-07 03:00:00,7,1019,0.4,93,6,6000,7.408,,,40,,,,,,,,,,,wg-a,,,,AAXX 07034 07130 12256 80404 10070 20060 30137 40190 53004 60006 885// 90300=
07130,1996-12-07 06:00:00,7,1019.8,0.8,93,6,2000,7.408,,,40,6.3,7,,,,,3,,,10,wg-a,,,,AAXX 07064 07130 12120 80404 10070 20060 30145 40198 53008 60034 71022 886// 90600 333 10070 20063=
07130,1996-12-07 09:00:00,6,1021.9,2.1,93,5,300,11.112,,,20,,,,,,,,,,45,wg-a,,,,AAXX 07094 07130 12/03 90206 10060 20050 30166 40219 52021 60006 74542 89/// 90900=
07130,1996-12-07 12:00:00,6,1022.7,0.7,100,6,2000,11.112,,,30,,,,,,,,,,28,wg-a,,,,AAXX 07124 07130 12120 80306 10060 20060 30173 40227 51007 60006 72842 886// 91200=
07130,1996-12-07 15:00:00,7,1022.4,-0.2,100,7,500,11.112,,,40,,,,,,,,,,,wg-a,,,,AAXX 07154 07130 12200 70406 10070 20070 30171 40224 55002 60006 876// 91500=
07130,1996-12-07 18:00:00,7,1023.2,0.8,93,6,500,11.112,,,20,5.3,6.9,,,,,,,,45,wg-a,,,,AAXX 07184 07130 12/05 90206 10070 20060 30179 40232 53008 60006 74542 89/// 91800 333 10069 20053=
07130,1996-12-07 21:00:00,6,1024.6,1.4,100,6,300,7.408,,,350,,,,,,,,,,45,wg-a,,,,AAXX 07214 07130 12/03 93504 10060 20060 30193 40246 52014 60006 74544 89/// 92100=
07130,1996-12-08 00:00:00,4,1024.9,0.2,100,4,200,3.704,,,350,,,,,,,,,,45,wg-a,,,,AAXX 08004 07130 12/02 93502 10040 20040 30195 40249 50002 60006 74544 89/// 90000=
07130,1996-12-08 03:00:00,3,1024.9,-0,93,2,200,3.704,,,20,,,,,,,,,,45,wg-a,,,,AAXX 08034 07130 12/02 90202 10030 20020 30195 40249 55000 60006 74544 89/// 90300=
07130,1996-12-08 06:00:00,3,1024.5,-0.4,100,3,300,7.408,,,20,2.4,6.8,,,,,,,,45,wg-a,,,,AAXX 08064 07130 02/03 90204 10030 20030 30191 40245 56004 60006 74544 89/// 90600 333 10068 20024 60004=
07130,1996-12-08 09:00:00,3,1025.2,0.7,100,3,100,3.704,,,350,,,,,,,,,,45,wg-a,,,,AAXX 08094 07130 12/01 93502 10030 20030 30198 40252 53007 60006 74544 89/// 90900=
07130,1996-12-08 12:00:00,5,1024.4,-0.8,100,5,6000,3.704,,,330,,,,,,,,,,28,wg-a,,,,AAXX 08124 07130 12256 23302 10050 20050 30190 40244 58008 60006 72841 81602 91200=
07130,1996-12-08 15:00:00,9,1022.8,-1.5,87,7,12000,11.112,,,340,,,,,,,,,,,wg-a,,,,AAXX 08154 07130 12/62 03406 10090 20070 30175 40228 56015 60006 80000 91500=
07130,1996-12-08 18:00:00,5,1023.3,0.4,100,5,4500,7.408,,,10,3.1,9.5,,,,,,,,10,wg-a,,,,AAXX 08184 07130 12/45 00104 10050 20050 30179 40233 53004 60006 71011 80000 91800 333 10095 20031=
07130,1996-12-08 21:00:00,3,1023.1,-0.2,100,3,500,7.408,,,30,,,,,,,,,,,wg-a,,,,AAXX 08214 07130 12/00 00304 10030 20030 30177 40231 55002 60006 80000 92100=
07130,1996-12-09 00:00:00,3,1023.3,0.2,93,2,500,11.112,,,90,,,,,,,,,,43,wg-a,,,,AAXX 09004 07130 12/05 90906 10030 20020 30179 40233 51002 60006 74341 89/// 90000=
07130,1996-12-09 03:00:00,2,1022.2,-1.1,100,2,10000,7.408,,,70,,,,,,,,,,28,wg-a,,,,AAXX 09034 07130 12260 80704 10020 20020 30168 40222 56011 60006 72842 887// 90300=
07130,1996-12-09 06:00:00,2,1021,-1.2,93,1,8000,7.408,,,30,1.6,5.1,,,,,,,,2,wg-a,,,,AAXX 09064 07130 02258 80304 10020 20010 30156 40210 56012 60006 70242 886// 90600 333 10051 20016 60004=
07130,1996-12-09 09:00:00,2,1021,-0,93,1,2500,11.112,,,70,,,,,,,,,,10,wg-a,,,,AAXX 09094 07130 12225 80706 10020 20010 30156 40210 55000 60006 71022 886// 90900=
07130,1996-12-09 12:00:00,3,1020.2,-0.8,93,2,2500,11.112,,,60,,,,,,,,,,10,wg-a,,,,AAXX 09124 07130 12225 80606 10030 20020 30148 40202 58008 60006 71022 886// 91200=
07130,1996-12-09 15:00:00,2,1018.8,-1.4,93,1,3000,7.408,,,60,,,,,,,,,,10,wg-a,,,,AAXX 09154 07130 12230 80604 10020 20010 30134 40188 56014 60006 71022 886// 91500=
07130,1996-12-09 18:00:00,1,1018.5,-0.3,93,0,4000,11.112,,,70,1.3,2.9,,,,,,,,10,wg-a,,,,AAXX 09184 07130 12240 80706 10010 20000 30131 40185 56003 60006 71022 886// 91800 333 10029 20013=
07130,1996-12-09 21:00:00,2,1018.4,-0.1,93,1,4500,11.112,,,90,,,,,,,,,,10,wg-a,,,,AAXX 09214 07130 12245 80906 10020 20010 30130 40184 58001 60006 71022 886// 92100=
07130,1996-12-10 00:00:00,1,1017.5,-0.9,93,0,500,7.408,,,110,,,,,,,,,,,wg-a,,,,AAXX 10004 07130 12200 81104 10010 20000 30121 40175 56009 60006 886// 90000=
07130,1996-12-10 03:00:00,1,1015.7,-1.8,93,0,4000,11.112,,,60,,,,,,,,,,10,wg-a,,,,AAXX 10034 07130 12240 80606 10010 20000 30103 40157 58018 60006 71022 886// 90300=
07130,1996-12-10 06:00:00,1,1015.6,-0.1,86,-1,4000,11.112,,,100,0.3,1.8,,,,,,,,10,wg-a,,,,AAXX 10064 07130 02240 81006 10010 21010 30102 40156 58001 60006 71022 886// 90600 333 10018 20003 60004=
07130,1996-12-10 09:00:00,0,1015.6,-0,93,-1,500,7.408,,,100,,,,,,,,,,,wg-a,,,,AAXX 10094 07130 12200 81004 10000 21010 30102 40156 55000 60006 886// 90900=
07130,1996-12-10 12:00:00,1,1015.8,0.2,86,-1,3500,7.408,,,130,,,,,,,,,,10,wg-a,,,,AAXX 10124 07130 12235 81304 10010 21010 30104 40158 50002 60006 71022 886// 91200=
07130,1996-12-10 15:00:00,2,1015,-0.8,87,0,3000,11.112,,,50,,,,,,,,,,10,wg-a,,,,AAXX 10154 07130 12330 80506 10020 20000 30096 40150 55008 60006 71022 886// 91500=
07130,1996-12-10 18:00:00,2,1015.2,0.2,100,2,1500,11.112,,,70,0.2,2.3,,,,,,,,10,wg-a,,,,AAXX 10184 07130 02115 80706 10020 20020 30098 40152 51002 61000 71052 886// 91800 333 10023 20002 ////=
07130,1996-12-10 21:00:00,3,1015.4,0.2,100,3,2500,11.112,,,100,,,,,,,,,,10,wg-a,,,,AAXX 10214 07130 02125 81006 10030 20030 30100 40154 50002 61000 71055 886// 92100 333 ////=
07130,1996-12-11 00:00:00,4,1015.7,0.3,93,3,7000,14.816,,,110,,,,,,,,,,20,wg-a,,,,AAXX 11004 07130 02257 81108 10040 20030 30103 40157 50003 61000 72052 886// 90000 333 6100=
07130,1996-12-11 03:00:00,2,1015.6,-0.1,100,2,700,11.112,,,110,,,,,,,,,,45,wg-a,,,,AAXX 11034 07130 12/07 91106 10020 20020 30102 40156 56001 60006 74542 89/// 90300=
07130,1996-12-11 06:00:00,1,1014.9,-0.7,100,1,900,14.816,,,80,1.2,3.6,,,,,,,,43,wg-a,,,,AAXX 11064 07130 02/09 90808 10010 20010 30095 40149 56007 61000 74342 89/// 90600 333 10036 20012 ////=
07130,1996-12-11 09:00:00,1,1015.5,0.6,100,1,800,14.816,,,100,,,,,,,,,,42,wg-a,,,,AAXX 11094 07130 12108 91008 10010 20010 30101 40155 53006 60006 74244 896// 90900=
07130,1996-12-11 12:00:00,1,1014.7,-0.8,100,1,700,11.112,,,90,,,,,,,,,,44,wg-a,,,,AAXX 11124 07130 12107 80906 10010 20010 30093 40147 58008 60006 74444 886// 91200=
07130,1996-12-11 15:00:00,1,1013,-1.7,93,0,1200,18.52,,,100,,,,,,,,,,10,wg-a,,,,AAXX 11154 07130 12112 81010 10010 20000 30076 40130 56017 60006 71042 886// 91500=
07130,1996-12-11 18:00:00,0,1012.4,-0.6,100,0,1500,14.816,,,120,0.3,1.3,,,,,,,,10,wg-a,,,,AAXX 11184 07130 12115 81208 10000 20000 30070 40124 56006 60006 71042 886// 91800 333 10013 20003=
07130,1996-12-11 21:00:00,0,1011.7,-0.7,93,-1,4000,14.816,,,100,,,,,,,,,,10,wg-a,,,,AAXX 11214 07130 12240 81008 10000 21010 30063 40117 58007 60006 71022 886// 92100=
07130,1996-12-12 00:00:00,0,1010.8,-0.9,100,0,1500,14.816,,,110,,,,,,,,,,10,wg-a,,,,AAXX 12004 07130 12115 81108 10000 20000 30054 40108 58009 60006 71022 886// 90000=
07130,1996-12-12 03:00:00,0,1009.7,-1.1,100,0,600,11.112,,,110,,,,,,,,,,45,wg-a,,,,AAXX 12034 07130 12/06 91106 10000 20000 30043 40097 56011 60006 74542 89/// 90300=
07130,1996-12-12 06:00:00,1,1009.1,-0.6,100,1,700,11.112,,,120,-0.2,0.7,,,,,,,,10,wg-a,,,,AAXX 12064 07130 02/07 91206 10010 20010 30037 40091 55006 60006 71042 89/// 90600 333 10007 21002 60004=
07130,1996-12-12 09:00:00,1,1009.2,0.1,100,1,2500,11.112,,,100,,,,,,,,,,28,wg-a,,,,AAXX 12094 07130 12225 81006 10010 20010 30038 40092 53001 60006 72842 886// 90900=
07130,1996-12-12 12:00:00,3,1007.9,-1.2,93,2,4000,11.112,,,110,,,,,,,,,,10,wg-a,,,,AAXX 12124 07130 12240 81106 10030 20020 30026 40079 58012 60006 71042 886// 91200=
07130,1996-12-12 15:00:00,4,1006.2,-1.7,100,4,2500,7.408,,,110,,,,,,,,,,10,wg-a,,,,AAXX 12154 07130 02125 81104 10040 20040 30009 40062 56017 61000 71062 886// 91500 333 ////=
07130,1996-12-12 18:00:00,4,1005.6,-0.6,100,4,500,3.704,,,120,0.5,4.5,,,,,,,,44,wg-a,,,,AAXX 12184 07130 02105 81202 10040 20040 30003 40056 58006 61000 74464 886// 91800 333 10045 20005 ////=
07130,1996-12-12 21:00:00,5,1005.6,-0,100,5,2500,3.704,,,140,,,,,,,,,,10,wg-a,,,,AAXX 12214 07130 12125 81402 10050 20050 30003 40056 55000 60006 71042 846// 92100=
07130,1996-12-13 00:00:00,5,1004.3,-1.3,100,5,300,3.704,,,360,,,,,,,,,,44,wg-a,,,,AAXX 13004 07130 12103 83602 10050 20050 39990 40043 56013 60006 74442 886// 90000=
07130,1996-12-13 03:00:00,5,1003.3,-1,100,5,200,0,,,0,,,,,,,,,,44,wg-a,,,,AAXX 13034 07130 12102 80000 10050 20050 39980 40033 55010 60006 74444 886// 90300=
07130,1996-12-13 06:00:00,5,1002.3,-1,100,5,1200,3.704,,,30,4.5,5.2,,,,,,,,10,wg-a,,,,AAXX 13064 07130 02212 80302 10050 20050 39970 40023 56010 61000 71054 877// 90600 333 10052 20045 6100=
07130,1996-12-13 09:00:00,5,1002.1,-0.1,100,5,2200,7.408,,,30,,,,0,,,,,,10,wg-a,,,,AAXX 13094 07130 12222 80304 10050 20050 39969 40021 57001 60007 71054 886// 90900=
07130,1996-12-13 12:00:00,6,1002.2,0.1,100,6,2000,11.112,,,30,,,,,,,,,,10,wg-a,,,,AAXX 13124 07130 02220 80306 10060 20060 39970 40022 50001 60006 71054 887// 91200 333 61000=
07130,1996-12-13 15:00:00,6,1001.9,-0.3,93,5,9000,11.112,,,20,,,,,,,,,,,wg-a,,,,AAXX 13154 07130 12459 80206 10060 20050 39967 40019 56003 60006 885// 91500=
07130,1996-12-13 18:00:00,6,1002,0.1,93,5,9000,14.816,,,40,5,6.5,,,,,,,,,wg-a,,,,AAXX 13184 07130 32459 80408 10060 20050 39968 40020 53001 885// 91800 333 10065 20050=
07130,1996-12-13 21:00:00,6,1003.6,1.5,87,4,13000,18.52,,,50,,,,,,,,,,,wg-a,,,,AAXX 13214 07130 12463 80510 10060 20040 39983 40036 53015 60006 885// 92100=
07130,1996-12-14 00:00:00,5,1005.2,1.6,87,3,15000,18.52,,,60,,,,,,,,,,,wg-a,,,,AAXX 14004 07130 12465 70610 10050 20030 39999 40052 52016 60006 875// 90000=
07130,1996-12-14 03:00:00,3,1006.3,1.1,87,1,15000,18.52,,,50,,,,,,,,,,,wg-a,,,,AAXX 14034 07130 12/65 00510 10030 20010 30010 40063 53011 60006 80000 90300=
07130,1996-12-14 06:00:00,1,1009.2,2.8,93,0,10000,11.112,,,30,1,6.1,,,,,,,,,wg-a,,,,AAXX 14064 07130 02/60 00306 10010 20000 30038 40092 53028 60006 80000 90600 333 10061 20010 60004=
07130,1996-12-14 09:00:00,1,1011.5,2.3,86,-1,15000,11.112,,,30,,,,,,,,,,,wg-a,,,,AAXX 14094 07130 12/65 10306 10010 21010 30061 40115 53023 60006 80001 90900=
07130,1996-12-14 12:00:00,5,1012.9,1.5,52,-4,500,14.816,,,60,,,,,,,,,,,wg-a,,,,AAXX 14124 07130 12600 30608 10050 21040 30076 40129 51015 60006 81502 91200=
07130,1996-12-14 15:00:00,6,1013.8,0.9,49,-4,35000,14.816,,,40,,,,,,,,,,,wg-a,,,,AAXX 14154 07130 12/81 20408 10060 21040 30085 40138 53009 60006 80002 91500=
07130,1996-12-14 18:00:00,2,1015.4,1.5,80,-1,20000,3.704,,,350,-0.5,6.7,,,,,,,,,wg-a,,,,AAXX 14184 07130 12/70 13502 10020 21010 30100 40154 51015 60006 80002 91800 333 10067 21005=
07130,1996-12-14 21:00:00,-1,1016.8,1.3,86,-3,12000,3.704,,,300,,,,,,,,,,,wg-a,,,,AAXX 14214 07130 12/62 03002 11010 21030 30113 40168 51013 60006 80000 92100=
07130,1996-12-15 00:00:00,-2,1017.6,0.8,93,-3,10000,0,,,0,,,,,,,,,,,wg-a,,,,AAXX 15004 07130 12/60 /0000 11020 21030 30121 40176 51008 60006 90000=
07130,1996-12-15 03:00:00,-2,1017.4,-0.2,93,-3,8000,7.408,,,190,,,,,,,,,,,wg-a,,,,AAXX 15034 07130 12/58 01904 11020 21030 30119 40174 58002 60006 80000 90300=
07130,1996-12-15 06:00:00,-3,1018,0.6,93,-4,8000,0,,,0,-3.3,1.6,,,,,,,,,wg-a,,,,AAXX 15064 07130 02658 30000 11030 21040 30125 40180 53006 60006 83500 90600 333 10016 21033 60004=
07130,1996-12-15 09:00:00,-2,1019,1,100,-2,7000,0,,,0,,,,,,,,,,,wg-a,,,,AAXX 15094 07130 12657 /0000 11020 21020 30135 40190 53010 60006 86500 90900=
07130,1996-12-15 12:00:00,3,1018.9,0,75,-1,7000,0,,,0,,,,,,,,,,,wg-a,,,,AAXX 15124 07130 12657 70000 10030 21010 30135 40189 50000 60006 875// 91200=
07130,1996-12-15 18:00:00,4,1018.9,0.6,81,1,8000,3.704,,,130,-3.3,4.5,,,,,,,,,wg-a,,,,AAXX 15184 07130 12658 71302 10040 20010 30135 40189 51006 60006 875// 91800 333 10045 21033=
07130,1996-12-15 21:00:00,2,1018.5,-0.4,87,0,10000,0,,,0,,,,,,,,,,,wg-a,,,,AAXX 15214 07130 12660 40000 10020 20000 30131 40185 58004 60006 84500 92100=
07130,1996-12-16 00:00:00,0,1017.7,-0.8,86,-2,10000,3.704,,,50,,,,,,,,,,,wg-a,,,,AAXX 16004 07130 12/60 00502 10000 21020 30123 40177 57008 60006 80000 90000=
07130,1996-12-16 03:00:00,-2,1016.4,-1.4,93,-3,500,7.408,,,80,,,,,,,,,,,wg-a,,,,AAXX 16034 07130 12/00 00804 11020 21030 30109 40164 56014 60006 80000 90300=
07130,1996-12-16 06:00:00,-2,1015.3,-1.1,93,-3,9000,3.704,,,330,-2.3,3.5,,,,,,,,,wg-a,,,,AAXX 16064 07130 02/59 /3302 11020 21030 30098 40153 55011 60006 80002 90600 333 10035 21023 60004=
07130,1996-12-16 09:00:00,0,1014.4,-0.8,86,-2,9000,7.408,,,160,,,,,,,,,,,wg-a,,,,AAXX 16094 07130 12/59 /1604 10000 21020 30090 40144 55008 60006 80002 90900=
07130,1996-12-16 12:00:00,1,1013.1,-1.3,93,0,7000,14.816,,,140,,,,,,,,,,,wg-a,,,,AAXX 16124 07130 12257 81408 10010 20000 30077 40131 58013 60006 875// 91200=
07130,1996-12-16 15:00:00,2,1011.5,-1.6,93,1,2500,14.816,,,150,,,,,,,,,,10,wg-a,,,,AAXX 16154 07130 12125 81508 10020 20010 30061 40115 56016 60006 71022 886// 91500=
07130,1996-12-16 18:00:00,2,1011.6,0.1,93,1,3000,11.112,,,140,-2.4,1.9,,,,,,,,10,wg-a,,,,AAXX 16184 07130 12130 81406 10020 20010 30062 40116 50001 60006 71022 886// 91800 333 10019 21024=
07130,1996-12-16 21:00:00,3,1011.3,-0.3,93,2,500,11.112,,,150,,,,,,,,,,50,wg-a,,,,AAXX 16214 07130 02200 81506 10030 20020 30059 40113 56003 61000 75052 886// 92100 333 ////=
07130,1996-12-17 00:00:00,4,1009.8,-1.4,93,3,500,14.816,,,150,,,,1,,,,,,61,wg-a,,,,AAXX 17004 07130 02400 81508 10040 20030 30045 40098 58014 60016 76165 875// 90000 333 60017=
07130,1996-12-17 03:00:00,5,1008.6,-1.2,100,5,7000,14.816,,,170,,,,1,,,,,,61,wg-a,,,,AAXX 17034 07130 12357 81708 10050 20050 30033 40086 57012 60017 76166 875// 90300=
07130,1996-12-17 06:00:00,7,1008,-0.5,100,7,4000,14.816,,,190,1.7,7.3,,1,,,4,,,51,wg-a,,,,AAXX 17064 07130 02240 81908 10070 20070 30028 40080 56005 60044 75165 887// 90600 333 10073 20017 60017=
07130,1996-12-17 09:00:00,10,1008.8,0.8,100,10,1000,14.816,,,200,,,,,,,,,,,wg-a,,,,AAXX 17094 07130 32/10 /2008 10100 20100 30036 40088 53008 90900=
07130,1996-12-17 12:00:00,12,1009.4,0.6,100,12,1800,18.52,,,200,,,,,,,,,,10,wg-a,,,,AAXX 17124 07130 02118 82010 10120 20120 30042 40094 50006 61000 71054 887// 91200 333 6100=
07130,1996-12-17 15:00:00,12,1009.1,-0.3,94,11,6000,14.816,,,200,,,,,,,,,,1,wg-a,,,,AAXX 17154 07130 02256 72008 10120 20110 30039 40091 55003 61000 70152 875// 91500 333 ////=
07130,1996-12-17 18:00:00,11,1009.2,0.1,94,10,6000,7.408,,,150,7.3,12,,,,,,,,1,wg-a,,,,AAXX 17184 07130 12556 71504 10110 20100 30040 40092 53001 60006 70152 875// 91800 333 10120 20073=
07130,1996-12-17 21:00:00,8,1009,-0.2,93,7,9000,11.112,,,120,,,,,,,,,,,wg-a,,,,AAXX 17214 07130 12/59 01206 10080 20070 30038 40090 58002 60006 80000 92100=
07130,1996-12-18 00:00:00,7,1007.8,-1.2,93,6,10000,7.408,,,120,,,,,,,,,,,wg-a,,,,AAXX 18004 07130 12/60 61204 10070 20060 30026 40078 58012 60006 80002 90000=
07130,1996-12-18 03:00:00,7,1006.1,-1.7,93,6,10000,7.408,,,160,,,,,,,,,,,wg-a,,,,AAXX 18034 07130 12/60 61604 10070 20060 30009 40061 56017 60006 85072 90300=
07130,1996-12-18 06:00:00,6,1004.7,-1.4,93,5,10000,7.408,,,120,6,10.6,,,,,,,,,wg-a,,,,AAXX 18064 07130 02/60 41204 10060 20050 39995 40047 56014 60006 84070 90600 333 10106 20060 61000=
07130,1996-12-18 09:00:00,6,1004,-0.7,93,5,12000,7.408,,,130,,,,,,,,,,,wg-a,,,,AAXX 18094 07130 12862 71304 10060 20050 39988 40040 56007 60006 8707/ 90900=
07130,1996-12-18 12:00:00,9,1002.9,-1.1,93,8,9000,7.408,,,150,,,,0,,,,,,60,wg-a,,,,AAXX 18124 07130 02459 81504 10090 20080 39977 40029 58011 60006 76061 875// 91200 333 60007=
07130,1996-12-18 15:00:00,9,1001.4,-1.5,93,8,1800,3.704,,,130,,,,2,,,,,,10,wg-a,,,,AAXX 18154 07130 12218 81302 10090 20080 39962 40014 56015 60027 71065 8672/ 91500=
07130,1996-12-18 18:00:00,8,1001.9,0.5,100,8,500,3.704,,,310,5.6,8.8,,3,,,,,,10,wg-a,,,,AAXX 18184 07130 02205 83102 10080 20080 39967 40019 53005 60006 71065 8567/ 91800 333 10088 20056 60037=
07130,1996-12-18 21:00:00,8,1001.9,-0,100,8,300,3.704,,,230,,,,,,,,,,44,wg-a,,,,AAXX 18214 07130 12103 82302 10080 20080 39967 40019 55000 60006 74444 876// 92100=
07130,1996-12-19 00:00:00,8,1001.7,-0.2,100,8,800,3.704,,,160,,,,,,,,,,42,wg-a,,,,AAXX 19004 07130 12508 81602 10080 20080 39965 40017 56002 60006 74244 885// 90000=
07130,1996-12-19 03:00:00,8,1001.5,-0.2,93,7,1200,3.704,,,200,,,,,,,,,,10,wg-a,,,,AAXX 19034 07130 12212 82002 10080 20070 39963 40015 55002 60006 71042 886// 90300=
07130,1996-12-19 06:00:00,8,1000.3,-1.2,100,8,600,3.704,,,70,7.2,8.5,,,,,5,,,44,wg-a,,,,AAXX 19064 07130 02006 80702 10080 20080 39951 40003 56012 60006 74442 876// 90600 333 10085 20072 60054=
07130,1996-12-19 09:00:00,8,1000.5,0.2,100,8,100,3.704,,,90,,,,,,,,,,45,wg-a,,,,AAXX 19094 07130 12/01 90902 10080 20080 39953 40005 53002 60006 74542 89/// 90900=
07130,1996-12-19 12:00:00,9,999.7,-0.8,100,9,1000,7.408,,,90,,,,,,,,,,,wg-a,,,,AAXX 19124 07130 12/10 /0904 10090 20090 39945 49997 58008 60016 91200=
07130,1996-12-19 15:00:00,10,998,-1.6,100,10,2500,11.112,,,120,,,,,,,,,,10,wg-a,,,,AAXX 19154 07130 32/25 /1206 10100 20100 39929 49980 56016 710// 91500=
07130,1996-12-19 18:00:00,10,997.6,-0.4,100,10,4000,11.112,,,110,7.7,10,,,,,,,,10,wg-a,,,,AAXX 19184 07130 02240 81106 10100 20100 39925 49976 57004 61000 71065 876// 91800 333 10100 20077 6004=
07130,1996-12-19 21:00:00,10,997.4,-0.2,100,10,4500,3.704,,,230,,,,1,,,,,,10,wg-a,,,,AAXX 19214 07130 12245 82302 10100 20100 39923 49974 57002 60017 71062 886// 92100=
07130,1996-12-20 00:00:00,10,997.5,0.1,100,10,6000,7.408,,,220,,,,,,,,,,2,wg-a,,,,AAXX 20004 07130 12156 82204 10100 20100 39924 49975 53001 60016 70262 886// 90000=
07130,1996-12-20 03:00:00,9,997.6,0,100,9,7000,3.704,,,160,,,,,,,,,,,wg-a,,,,AAXX 20034 07130 12257 71602 10090 20090 39924 49976 50000 60006 876// 90300=
07130,1996-12-20 06:00:00,9,997.8,0.2,93,8,500,0,,,0,8.4,10.2,,,,,,,,10,wg-a,,,,AAXX 20064 07130 02100 80000 10090 20080 39926 49978 53002 61000 71054 876// 90600 333 10102 20084 6007=
07130,1996-12-20 09:00:00,8,1000,2.2,100,8,300,3.704,,,150,,,,,,,,,,44,wg-a,,,,AAXX 20094 07130 32/03 91502 10080 20080 39948 40000 53022 74454 89/// 90900=
07130,1996-12-20 12:00:00,8,1000.4,0.4,100,8,6000,11.112,,,150,,,,,,,,,,1,wg-a,,,,AAXX 20124 07130 02256 81506 10080 20080 39952 40004 50004 61000 70154 886// 91200 333 ////=
07130,1996-12-20 15:00:00,9,1000.4,-0,93,8,11000,14.816,,,110,,,,,,,,,,,wg-a,,,,AAXX 20154 07130 12/61 /1108 10090 20080 39952 40004 55000 60006 91500=
07130,1996-12-20 18:00:00,8,1001,0.6,93,7,12000,14.816,,,110,7.9,9.4,,,,,,,,,wg-a,,,,AAXX 20184 07130 12262 71108 10080 20070 39958 40010 51006 60006 875// 91800 333 10094 20079=
07130,1996-12-20 21:00:00,7,1001.9,0.9,93,6,12000,11.112,,,90,,,,,,,,,,,wg-a,,,,AAXX 20214 07130 12662 /0906 10070 20060 39967 40019 51009 60006 82502 92100=
07130,1996-12-21 00:00:00,7,1002.2,0.3,93,6,10000,11.112,,,90,,,,,,,,,,,wg-a,,,,AAXX 21004 07130 12/60 50906 10070 20060 39970 40022 53003 60006 84032 90000=
07130,1996-12-21 03:00:00,6,1002.1,-0.1,100,6,10000,18.52,,,90,,,,,,,,,,,wg-a,,,,AAXX 21034 07130 12/60 70910 10060 20060 39969 40021 55001 60006 85032 90300=
07130,1996-12-21 06:00:00,5,1002,-0.1,100,5,10000,11.112,,,90,5.4,8.2,,,,,,,,,wg-a,,,,AAXX 21064 07130 02260 20906 10050 20050 39968 40020 55001 60006 81602 90600 333 10082 20054 61000=
07130,1996-12-21 09:00:00,7,1002.6,0.6,93,6,500,22.224,,,90,,,,,,,,,,,wg-a,,,,AAXX 21094 07130 12/00 /0912 10070 20060 39974 40026 52006 60006 90900=
07130,1996-12-21 12:00:00,9,1002.1,-0.5,87,7,7000,18.52,,,80,,,,,,,,,,,wg-a,,,,AAXX 21124 07130 12457 80810 10090 20070 39969 40021 58005 60006 885// 91200=
07130,1996-12-21 15:00:00,9,1002.2,0.1,87,7,8000,18.52,,,100,,,,,,,,,,,wg-a,,,,AAXX 21154 07130 12458 81010 10090 20070 39970 40022 53001 60006 885// 91500=
07130,1996-12-21 18:00:00,8,1002.4,0.2,93,7,7000,18.52,,,90,5.3,9.2,,,,,,,,61,wg-a,,,,AAXX 21184 07130 02457 80910 10080 20070 39972 40024 53002 61000 76162 8557/ 91800 333 10092 20053 6001=
07130,1996-12-21 21:00:00,7,1003.6,1.2,93,6,10000,14.816,,,80,,,,3,,,,,,61,wg-a,,,,AAXX 21214 07130 12460 80808 10070 20060 39984 40036 52012 60037 76166 8557/ 92100=
07130,1996-12-22 00:00:00,6,1004,0.4,93,5,10000,18.52,,,90,,,,0,,,,,,3,wg-a,,,,AAXX 22004 07130 02360 80910 10060 20050 39988 40040 50004 60036 70362 876// 90000 333 60007=
07130,1996-12-22 03:00:00,6,1004.7,0.7,100,6,10000,11.112,,,110,,,,,,,,,,,wg-a,,,,AAXX 22034 07130 12260 81106 10060 20060 39995 40047 53007 60006 876// 90300=
07130,1996-12-22 06:00:00,6,1004,-0.7,93,5,10000,14.816,,,100,6.1,7.7,,,,,4,,,,wg-a,,,,AAXX 22064 07130 02260 81008 10060 20050 39988 40040 55007 60006 876// 90600 333 10077 20061 60044=
07130,1996-12-22 09:00:00,6,1004.8,0.8,93,5,2500,14.816,,,90,,,,,,,,,,10,wg-a,,,,AAXX 22094 07130 12225 80908 10060 20050 39996 40048 52008 60006 71022 876// 90900=
07130,1996-12-22 12:00:00,6,1003.7,-1.1,93,5,500,14.816,,,80,,,,,,,,,,,wg-a,,,,AAXX 22124 07130 12200 80808 10060 20050 39985 40037 58011 60006 876// 91200=
07130,1996-12-22 15:00:00,8,1002.2,-1.5,93,7,500,14.816,,,90,,,,,,,,,,20,wg-a,,,,AAXX 22154 07130 02300 80908 10080 20070 39970 40022 56015 61000 72052 877// 91500 333 ////=
07130,1996-12-22 18:00:00,7,1001.4,-0.8,100,7,6000,18.52,,,90,5.8,7.7,,,,,,,,60,wg-a,,,,AAXX 22184 07130 02256 80910 10070 20070 39962 40014 58008 61000 76065 8673/ 91800 333 10077 20058 6004=
07130,1996-12-22 21:00:00,7,1001,-0.4,93,6,7000,14.816,,,90,,,,0,,,,,,20,wg-a,,,,AAXX 22214 07130 12357 80908 10070 20060 39958 40010 58004 60007 72065 887// 92100=
07130,1996-12-23 00:00:00,6,1000.1,-0.9,100,6,7000,11.112,,,60,,,,0,,,,,,20,wg-a,,,,AAXX 23004 07130 02257 80606 10060 20060 39949 40001 58009 60016 72065 886// 90000 333 60007=
07130,1996-12-23 03:00:00,6,999.5,-0.6,100,6,2500,11.112,,,70,,,,,,,,,,10,wg-a,,,,AAXX 23034 07130 12125 80706 10060 20060 39943 49995 55006 60006 71022 886// 90300=
07130,1996-12-23 06:00:00,6,998.8,-0.7,93,5,1500,11.112,,,60,5.7,7.1,,,,,,,,50,wg-a,,,,AAXX 23064 07130 02115 80606 10060 20050 39936 49988 56007 61000 75054 887// 90600 333 10071 20057 6005=
07130,1996-12-23 09:00:00,6,999.3,0.5,100,6,1800,14.816,,,70,,,,,,,,,,10,wg-a,,,,AAXX 23094 07130 02118 80708 10060 20060 39941 49993 53005 61000 71054 886// 90900 333 ////=
07130,1996-12-23 12:00:00,5,999.2,-0.1,100,5,2800,14.816,,,70,,,,,,,,,,10,wg-a,,,,AAXX 23124 07130 02228 80708 10050 20050 39940 49992 58001 61000 71054 886// 91200 333 ////=
07130,1996-12-23 15:00:00,6,999.3,0.1,87,4,8000,18.52,,,60,,,,,,,,,,,wg-a,,,,AAXX 23154 07130 12358 80610 10060 20040 39941 49993 53001 60006 886// 91500=
07130,1996-12-23 18:00:00,4,1000.1,0.7,93,3,6000,18.52,,,70,4.2,5.8,,,,,,,,,wg-a,,,,AAXX 23184 07130 12356 80710 10040 20030 39948 40001 53007 60006 886// 91800 333 10058 20042=
07130,1996-12-23 21:00:00,2,1000.8,0.7,87,0,10000,22.224,,,70,,,,,,,,,,,wg-a,,,,AAXX 23214 07130 12460 80712 10020 20000 39955 40008 51007 60006 886// 92100=
07130,1996-12-24 00:00:00,1,1001.1,0.3,80,-2,9000,29.632,,,50,,,,,,,,,,60,wg-a,,,,AAXX 24004 07130 02459 80516 10010 21020 39958 40011 53003 61000 76062 885// 90000 333 6100=
07130,1996-12-24 06:00:00,-1,1000.1,-0.6,80,-4,700,18.52,,,60,-0.5,4.3,,,,,,,,1,wg-a,,,,AAXX 24064 07130 02407 80610 11010 21040 39947 40001 56006 60006 70162 885// 90600 333 10043 21005 61000=
07130,1996-12-24 09:00:00,-1,1001,0.9,86,-3,7000,22.224,,,60,,,,,,,,,,70,wg-a,,,,AAXX 24094 07130 02457 80612 11010 21030 39956 40010 51009 61000 77072 8/52/ 90900 333 ////=
07130,1996-12-24 12:00:00,-1,1001.1,0.1,93,-2,2000,14.816,,,40,,,,,,,,,,10,wg-a,,,,AAXX 24124 07130 02320 80408 11010 21020 39957 40011 50001 61000 71072 8652/ 91200 333 6100=
07130,1996-12-24 15:00:00,-1,1001.6,0.5,93,-2,4000,14.816,,,60,,,,,,,,,,10,wg-a,,,,AAXX 24154 07130 02340 80608 11010 21020 39962 40016 53005 61000 71072 877// 91500 333 ////=
07130,1996-12-24 18:00:00,-1,1003.3,1.7,100,-1,3000,11.112,,,50,-1.1,-0.3,,,,,,,,10,wg-a,,,,AAXX 24184 07130 12/30 /0506 11010 21010 39979 40033 51017 60006 710// 91800 333 11003 21011=
07130,1996-12-24 21:00:00,0,1005.1,1.8,93,-1,4000,11.112,,,40,,,,,,,,,,10,wg-a,,,,AAXX 24214 07130 02340 80406 10000 21010 39997 40051 53018 61000 71055 885// 92100 333 ////=
07130,1996-12-25 00:00:00,0,1007.3,2.2,93,-1,500,11.112,,,30,,,,,,,,,,20,wg-a,,,,AAXX 25004 07130 02400 80306 10000 21010 30019 40073 51022 61000 72052 885// 90000 333 6100=
07130,1996-12-25 03:00:00,0,1009.2,1.9,86,-2,3000,14.816,,,50,,,,,,,,,,,wg-a,,,,AAXX 25034 07130 32/30 /0508 10000 21020 30038 40092 53019 90300=
07130,1996-12-25 06:00:00,0,1011.2,2,93,-1,4000,14.816,,,40,-0.5,0.1,,,,,,,,10,wg-a,,,,AAXX 25064 07130 02340 80408 10000 21010 30058 40112 53020 61000 71075 885// 90600 333 10001 21005 6001=
07130,1996-12-25 09:00:00,0,1014.7,3.5,74,-4,9000,18.52,,,50,,,,,,,,,,,wg-a,,,,AAXX 25094 07130 12659 /0510 10000 21040 30093 40147 53035 60006 85500 90900=
07130,1996-12-25 12:00:00,1,1017.3,2.6,69,-4,10000,18.52,,,30,,,,,,,,,,,wg-a,,,,AAXX 25124 07130 12/60 00310 10010 21040 30119 40173 51026 60006 80000 91200=
07130,1996-12-25 15:00:00,3,1020.1,2.8,41,-9,15000,18.52,,,30,,,,,,,,,,,wg-a,,,,AAXX 25154 07130 12/65 00310 10030 21090 30147 40201 53028 60006 80000 91500=
07130,1996-12-25 18:00:00,1,1023.9,3.7,59,-6,20000,11.112,,,360,-0.4,2.6,,,,,,,,,wg-a,,,,AAXX 25184 07130 12/70 03606 10010 21060 30184 40239 51037 60006 80000 91800 333 10026 21004=
07130,1996-12-25 21:00:00,0,1027,3.1,74,-4,25000,11.112,,,20,,,,,,,,,,,wg-a,,,,AAXX 25214 07130 12/75 00206 10000 21040 30215 40270 51031 60006 80000 92100=
07130,1996-12-26 00:00:00,1,1028.8,1.8,69,-4,25000,14.816,,,50,,,,,,,,,,,wg-a,,,,AAXX 26004 07130 12775 10508 10010 21040 30233 40288 53018 60006 81500 90000=
07130,1996-12-26 03:00:00,-2,1031.5,2.7,80,-5,25000,11.112,,,40,,,,,,,,,,,wg-a,,,,AAXX 26034 07130 12/75 00406 11020 21050 30260 40315 53027 60006 80000 90300=
07130,1996-12-26 06:00:00,-2,1033.1,1.5,69,-7,10000,7.408,,,40,-2.4,0.9,,,,,,,,,wg-a,,,,AAXX 26064 07130 02/60 /0404 11020 21070 30275 40331 53015 60006 90600 333 10009 21024 60004=
07130,1996-12-26 09:00:00,-3,1036.5,3.4,80,-6,20000,7.408,,,20,,,,,,,,,,,wg-a,,,,AAXX 26094 07130 12/70 10204 11030 21060 30309 40365 53034 60006 80002 90900=
07130,1996-12-26 12:00:00,1,1037.1,0.7,59,-6,14000,11.112,,,80,,,,,,,,,,,wg-a,,,,AAXX 26124 07130 12/64 30806 10010 21060 30316 40371 50007 60006 80002 91200=
07130,1996-12-26 15:00:00,1,1037.1,-0,59,-6,15000,14.816,,,90,,,,,,,,,,,wg-a,,,,AAXX 26154 07130 12/65 40908 10010 21060 30316 40371 55000 60006 80002 91500=
07130,1996-12-26 18:00:00,-2,1037.5,0.3,63,-8,15000,11.112,,,90,-3.9,1.8,,,,,,,,,wg-a,,,,AAXX 26184 07130 12/65 30906 11020 21080 30319 40375 53003 60006 80001 91800 333 10018 21039=
07130,1996-12-26 21:00:00,-3,1037.5,0,68,-8,15000,7.408,,,90,,,,,,,,,,,wg-a,,,,AAXX 26214 07130 12/65 30904 11030 21080 30319 40375 50000 60006 80001 92100=
07130,1996-12-27 00:00:00,-4,1035.8,-1.7,74,-8,15000,7.408,,,120,,,,,,,,,,,wg-a,,,,AAXX 27004 07130 12/65 61204 11040 21080 30302 40358 58017 60006 80002 90000=
07130,1996-12-27 03:00:00,-4,1034.6,-1.2,74,-8,15000,11.112,,,120,,,,,,,,,,,wg-a,,,,AAXX 27034 07130 12/65 71206 11040 21080 30290 40346 58012 60006 8703/ 90300=
07130,1996-12-27 06:00:00,-4,1032,-2.6,74,-8,15000,7.408,,,90,-4.2,-1.5,,,,,,,,,wg-a,,,,AAXX 27064 07130 02/65 50904 11040 21080 30264 40320 56026 60006 82032 90600 333 11015 21042 60004=
07130,1996-12-27 09:00:00,-3,1030.2,-1.8,68,-8,15000,7.408,,,110,,,,,,,,,,,wg-a,,,,AAXX 27094 07130 12/65 51104 11030 21080 30246 40302 58018 60006 85030 90900=
07130,1996-12-27 12:00:00,0,1028.3,-1.8,51,-9,500,7.408,,,90,,,,,,,,,,,wg-a,,,,AAXX 27124 07130 12/00 20904 10000 21090 30228 40283 58018 60006 82030 91200=
07130,1996-12-27 15:00:00,1,1025.7,-2.6,47,-9,25000,7.408,,,20,,,,,,,,,,,wg-a,,,,AAXX 27154 07130 12/75 10204 10010 21090 30202 40257 56026 60006 81030 91500=
07130,1996-12-27 18:00:00,-1,1024.2,-1.5,69,-6,9000,0,,,0,-4.7,1.6,,,,,,,,,wg-a,,,,AAXX 27184 07130 12659 /0000 11010 21060 30187 40242 57015 60006 86500 91800 333 10016 21047=
07130,1996-12-27 21:00:00,-1,1023,-1.2,80,-4,10000,3.704,,,280,,,,,,,,,,,wg-a,,,,AAXX 27214 07130 12460 72802 11010 21040 30175 40230 58012 60006 875// 92100=
07130,1996-12-28 00:00:00,0,1021.5,-1.5,93,-1,10000,7.408,,,320,,,,,,,,,,,wg-a,,,,AAXX 28004 07130 12660 73204 10000 21010 30160 40215 58015 60006 875// 90000=
07130,1996-12-28 03:00:00,3,1019.6,-1.8,87,1,10000,14.816,,,10,,,,,,,,,,,wg-a,,,,AAXX 28034 07130 12660 70108 10030 20010 30142 40196 56018 60006 875// 90300=
07130,1996-12-28 06:00:00,3,1019.1,-0.5,87,1,9000,14.816,,,30,-1.2,3.3,,,,,,,,,wg-a,,,,AAXX 28064 07130 02659 70308 10030 20010 30137 40191 56005 60006 875// 90600 333 10033 21012 60004=
07130,1996-12-28 09:00:00,1,1020.9,1.8,75,-3,20000,22.224,,,40,,,,,,,,,,,wg-a,,,,AAXX 28094 07130 12470 70412 10010 21030 30155 40209 53018 60006 878// 90900=
07130,1996-12-28 12:00:00,1,1020.7,-0.2,51,-8,25000,22.224,,,60,,,,,,,,,,,wg-a,,,,AAXX 28124 07130 12575 /0612 10010 21080 30153 40207 58002 60006 81100 91200=
07130,1996-12-28 15:00:00,1,1019.3,-1.4,37,-12,25000,18.52,,,40,,,,,,,,,,,wg-a,,,,AAXX 28154 07130 12/75 10410 10010 21120 30139 40193 56014 60006 80001 91500=
07130,1996-12-28 18:00:00,-1,1019.8,0.4,40,-13,25000,22.224,,,60,-1.4,3.2,,,,,,,,,wg-a,,,,AAXX 28184 07130 12/75 10612 11010 21130 30143 40198 53004 60006 80001 91800 333 10032 21014=
07130,1996-12-28 21:00:00,-5,1021,1.1,53,-13,20000,18.52,,,90,,,,,,,,,,,wg-a,,,,AAXX 28214 07130 12/70 00910 11050 21130 30154 40210 51011 60006 80000 92100=
07130,1996-12-29 00:00:00,-7,1020.8,-0.2,62,-13,20000,14.816,,,50,,,,,,,,,,,wg-a,,,,AAXX 29004 07130 12/70 00508 11070 21130 30152 40208 58002 60006 80000 90000=
07130,1996-12-29 03:00:00,-7,1020.3,-0.5,62,-13,20000,22.224,,,50,,,,,,,,,,,wg-a,,,,AAXX 29034 07130 12/70 00512 11070 21130 30147 40203 56005 60006 80000 90300=
07130,1996-12-29 06:00:00,-8,1019.4,-0.9,67,-13,25000,18.52,,,40,-8.2,-1.4,,,,,,,,,wg-a,,,,AAXX 29064 07130 02/75 00410 11080 21130 30138 40194 56009 60006 80000 90600 333 11014 21082 60004=
07130,1996-12-29 09:00:00,-7,1020.1,0.7,57,-14,12000,22.224,,,80,,,,,,,,,,,wg-a,,,,AAXX 29094 07130 12/62 00812 11070 21140 30145 40201 53007 60006 80000 90900=
07130,1996-12-29 12:00:00,-3,1019.2,-0.8,46,-13,13000,18.52,,,70,,,,,,,,,,,wg-a,,,,AAXX 29124 07130 12/63 00710 11030 21130 30137 40192 58008 60006 80000 91200=
07130,1996-12-29 15:00:00,-1,1018.1,-1.1,40,-13,17000,22.224,,,70,,,,,,,,,,,wg-a,,,,AAXX 29154 07130 12/67 10712 11010 21130 30126 40181 56011 60006 81030 91500=
07130,1996-12-29 18:00:00,-3,1017.9,-0.2,46,-13,25000,14.816,,,50,-7.9,-0.4,,,,,,,,,wg-a,,,,AAXX 29184 07130 12/75 10508 11030 21130 30124 40179 57002 60006 81030 91800 333 11004 21079=
07130,1996-12-29 21:00:00,-5,1016.8,-1.1,58,-12,25000,11.112,,,20,,,,,,,,,,,wg-a,,,,AAXX 29214 07130 12/75 00206 11050 21120 30113 40168 58011 60006 80000 92100=
07130,1996-12-30 00:00:00,-6,1015.8,-1.1,68,-11,25000,3.704,,,260,,,,,,,,,,,wg-a,,,,AAXX 30004 07130 12/75 22602 11060 21110 30102 40158 58011 60006 82030 90000=
07130,1996-12-30 03:00:00,-3,1012.9,-2.8,74,-7,25000,3.704,,,280,,,,,,,,,,,wg-a,,,,AAXX 30034 07130 12/75 22802 11030 21070 30074 40129 58028 60006 82030 90300=
07130,1996-12-30 06:00:00,-2,1010.6,-2.2,86,-4,20000,3.704,,,280,-6.4,-1.6,,,,,,,,,wg-a,,,,AAXX 30064 07130 02470 72802 11020 21040 30052 40106 56022 60006 875// 90600 333 11016 21064 60004=
07130,1996-12-30 09:00:00,0,1009.9,-0.7,93,-1,8000,7.408,,,300,,,,,,,,,,,wg-a,,,,AAXX 30094 07130 12658 73004 10000 21010 30045 40099 55007 60006 875// 90900=
07130,1996-12-30 12:00:00,3,1009.8,-0,70,-2,20000,22.224,,,60,,,,,,,,,,,wg-a,,,,AAXX 30124 07130 12770 70612 10030 21020 30045 40098 54000 60006 875// 91200=
07130,1996-12-30 15:00:00,3,1009.1,-0.7,56,-5,10000,14.816,,,50,,,,,,,,,,,wg-a,,,,AAXX 30154 07130 12560 40508 10030 21050 30038 40091 56007 60006 84800 91500=
07130,1996-12-30 18:00:00,0,1009.6,0.4,80,-3,500,7.408,,,30,-1.6,4.1,,,,,,,,,wg-a,,,,AAXX 30184 07130 12700 40304 10000 21030 30042 40096 52004 60006 84500 91800 333 10041 21016=
07130,1996-12-30 21:00:00,-1,1010.1,0.5,86,-3,20000,11.112,,,40,,,,,,,,,,,wg-a,,,,AAXX 30214 07130 12/70 00406 11010 21030 30047 40101 53005 60006 80000 92100=
07130,1996-12-31 00:00:00,-4,1010.4,0.2,93,-5,20000,0,,,0,,,,,,,,,,,wg-a,,,,AAXX 31004 07130 12/70 00000 11040 21050 30049 40104 51002 60006 80000 90000=
07130,1996-12-31 03:00:00,-6,1010.4,-0,100,-6,12000,3.704,,,330,,,,,,,,,,,wg-a,,,,AAXX 31034 07130 12/62 03302 11060 21060 30049 40104 55000 60006 80000 90300=
07130,1996-12-31 06:00:00,-6,1010.5,0.1,93,-7,10000,0,,,0,-6.3,-0.3,,,,,,,,,wg-a,,,,AAXX 31064 07130 02/60 00000 11060 21070 30050 40105 53001 60006 80000 90600 333 11003 21063 60004=
07130,1996-12-31 09:00:00,-6,1011.7,1.2,93,-7,10000,3.704,,,280,,,,,,,,,,,wg-a,,,,AAXX 31094 07130 12/60 02802 11060 21070 30062 40117 53012 60006 80000 90900=
07130,1996-12-31 12:00:00,0,1012,0.4,74,-4,10000,11.112,,,70,,,,,,,,,,,wg-a,,,,AAXX 31124 07130 12560 /0706 10000 21040 30066 40120 50004 60006 81500 91200=
07130,1996-12-31 15:00:00,-1,1012.5,0.5,69,-6,10000,22.224,,,70,,,,,,,,,,,wg-a,,,,AAXX 31154 07130 12460 70712 11010 21060 30071 40125 53005 60006 878// 91500=
07130,1996-12-31 18:00:00,-3,1014,1.4,68,-8,10000,18.52,,,80,-7,1,,,,,,,,,wg-a,,,,AAXX 31184 07130 12/60 30810 11030 21080 30085 40140 53014 60006 83030 91800 333 10010 21070=
07130,1996-12-31 21:00:00,-6,1015.1,1.1,73,-10,10000,14.816,,,60,,,,,,,,,,,wg-a,,,,AAXX 31214 07130 12/60 00608 11060 21100 30096 40151 51011 60006 80000 92100=
