station_id,dh_utc,temperature,pression,pression_variation_3h,humidite,point_de_rosee,visibilite,vent_moyen,vent_rafales,vent_rafales_10min,vent_direction,temperature_min,temperature_max,pluie_1h,pluie_3h,pluie_6h,pluie_12h,pluie_24h,ensoleillement,temperature_sol,temps_omm,source,radiations,neige_au_sol,nebulosite,raw_msg
07130,1997-01-01 00:00:00,-6,1015.2,0,73,-10,10000,14.816,,,40,,,,,,,,,,,wg-a,,,,AAXX 01004 07130 12460 70408 11060 21100 30096 40152 50000 60006 875// 90000=
07130,1997-01-01 03:00:00,-6,1015.2,0.1,68,-11,10000,18.52,,,70,,,,,,,,,,70,wg-a,,,,AAXX 01034 07130 02560 80710 11060 21110 30097 40152 53001 61000 77072 885// 90300 333 ////=
07130,1997-01-01 06:00:00,-6,1015.4,0.1,79,-9,10000,14.816,,,40,-6.6,-2.7,,,,,,,,70,wg-a,,,,AAXX 01064 07130 02660 70408 11060 21090 30098 40154 53001 61000 77072 875// 90600 333 11027 21066 6100=
07130,1997-01-01 09:00:00,-6,1016.3,0.9,79,-9,500,14.816,,,70,,,,,,,,,,10,wg-a,,,,AAXX 01094 07130 02600 70708 11060 21090 30107 40163 53009 61000 71072 875// 90900 333 ////=
07130,1997-01-01 12:00:00,-6,1017.1,0.8,73,-10,6000,11.112,,,90,,,,,,,,,,1,wg-a,,,,AAXX 01124 07130 02456 40906 11060 21100 30115 40171 51008 61000 70171 84800 91200 333 ////=
07130,1997-01-01 15:00:00,-4,1017.4,0.4,63,-10,7000,11.112,,,80,,,,,,,,,,,wg-a,,,,AAXX 01154 07130 12/57 00806 11040 21100 30119 40174 53004 60006 80000 91500=
07130,1997-01-01 18:00:00,-7,1019.3,1.8,73,-11,6000,11.112,,,90,-6.8,-4.1,,,,,,,,,wg-a,,,,AAXX 01184 07130 12/56 00906 11070 21110 30137 40193 53018 60006 80000 91800 333 11041 21068=
07130,1997-01-01 21:00:00,-8,1019.9,0.6,79,-11,6000,11.112,,,90,,,,,,,,,,,wg-a,,,,AAXX 01214 07130 12/56 00906 11080 21110 30143 40199 53006 60006 80000 92100=
07130,1997-01-02 00:00:00,-10,1020.8,0.8,85,-12,4000,7.408,,,80,,,,,,,,,,10,wg-a,,,,AAXX 02004 07130 12/40 00804 11100 21120 30151 40208 50008 60006 71000 80000 90000=
07130,1997-01-02 03:00:00,-10,1020.4,-0.4,79,-13,4000,11.112,,,60,,,,,,,,,,10,wg-a,,,,AAXX 02034 07130 12/40 00606 11100 21130 30147 40204 58004 60006 71000 80000 90300=
07130,1997-01-02 06:00:00,-10,1019.1,-1.3,79,-13,4000,11.112,,,70,-11.1,-6.8,,,,,,,,10,wg-a,,,,AAXX 02064 07130 02/40 00706 11100 21130 30134 40191 56013 60006 71000 80000 90600 333 11068 21111 61000=
07130,1997-01-02 09:00:00,-11,1019.4,0.3,85,-13,2500,7.408,,,40,,,,,,,,,,10,wg-a,,,,AAXX 02094 07130 12/25 30404 11110 21130 30137 40194 53003 60006 71000 81032 90900=
07130,1997-01-02 12:00:00,-7,1017,-2.3,79,-10,4500,14.816,,,60,,,,,,,,,,10,wg-a,,,,AAXX 02124 07130 12/45 /0608 11070 21100 30114 40170 58023 60006 71000 81032 91200=
07130,1997-01-02 15:00:00,-3,1014.7,-2.2,68,-8,7000,11.112,,,70,,,,,,,,,,,wg-a,,,,AAXX 02154 07130 12/57 00706 11030 21080 30092 40147 56022 60006 80000 91500=
07130,1997-01-02 18:00:00,-5,1013.6,-1.1,79,-8,4500,11.112,,,40,-11.3,-2.4,,,,,,,,10,wg-a,,,,AAXX 02184 07130 12/45 00406 11050 21080 30081 40136 58011 60006 71000 80000 91800 333 11024 21113=
07130,1997-01-02 21:00:00,-7,1013.4,-0.3,86,-9,7000,11.112,,,80,,,,,,,,,,,wg-a,,,,AAXX 02214 07130 12/57 00806 11070 21090 30078 40134 55003 60006 80000 92100=
07130,1997-01-03 00:00:00,-7,1012.3,-1,93,-8,8000,14.816,,,50,,,,,,,,,,,wg-a,,,,AAXX 03004 07130 12358 80508 11070 21080 30068 40123 56010 60006 8/67/ 90000=
07130,1997-01-03 03:00:00,-7,1010.6,-1.8,86,-9,8000,14.816,,,50,,,,,,,,,,,wg-a,,,,AAXX 03034 07130 12358 80508 11070 21090 30050 40106 58018 60006 8/67/ 90300=
07130,1997-01-03 06:00:00,-6,1009.3,-1.2,93,-7,8000,25.928,,,60,-7.6,-4.7,,,,,,,,,wg-a,,,,AAXX 03064 07130 02258 80614 11060 21070 30038 40093 57012 60006 886// 90600 333 11047 21076 60004=
07130,1997-01-03 12:00:00,-2,1006.6,-2,80,-5,10000,22.224,,,40,,,,,,,,,,,wg-a,,,,AAXX 03124 07130 12460 80412 11020 21050 30012 40066 58020 60006 86502 91200=
07130,1997-01-03 15:00:00,-1,1005.2,-1.4,80,-4,500,25.928,,,30,,,,,,,,,,,wg-a,,,,AAXX 03154 07130 12400 70314 11010 21040 39998 40052 56014 60006 83532 91500=
07130,1997-01-03 18:00:00,-1,1003.9,-1.3,86,-3,8000,25.928,,,30,-5.8,-0.3,,,,,,,,,wg-a,,,,AAXX 03184 07130 12458 80314 11010 21030 39985 40039 57013 60006 875// 91800 333 11003 21058=
07130,1997-01-03 21:00:00,-1,1004.4,0.5,86,-3,8000,29.632,,,40,,,,,,,,,,,wg-a,,,,AAXX 03214 07130 12458 80416 11010 21030 39990 40044 50005 60006 875// 92100=
07130,1997-01-04 00:00:00,-1,1004.6,0.2,93,-2,2000,25.928,,,30,,,,,,,,,,70,wg-a,,,,AAXX 04004 07130 02320 80314 11010 21020 39992 40046 53002 61000 77072 887// 90000 333 6100=
07130,1997-01-04 03:00:00,-1,1004.2,-0.4,93,-2,2000,25.928,,,30,,,,,,,,,,71,wg-a,,,,AAXX 04034 07130 02720 80314 11010 21020 39988 40042 55004 61000 77172 885// 90300 333 ////=
07130,1997-01-04 06:00:00,-1,1005.1,0.9,100,-1,1500,14.816,,,20,-1.3,-0.4,,,,,,,,71,wg-a,,3,,AAXX 04064 07130 02315 80208 11010 21010 39997 40051 53009 61000 77172 885// 90600 333 11004 21013 4/003 6000=
07130,1997-01-04 09:00:00,0,1006.4,1.3,93,-1,3000,14.816,,,30,,,,,,,,,,10,wg-a,,,,AAXX 04094 07130 02330 80308 10000 21010 30010 40064 53013 61000 71072 887// 90900 333 ////=
07130,1997-01-04 12:00:00,1,1006.7,0.3,93,0,700,7.408,,,330,,,,,,,,,,51,wg-a,,,,AAXX 04124 07130 02107 83304 10010 20000 30013 40067 50003 61000 75175 8/72/ 91200 333 6100=
07130,1997-01-04 15:00:00,1,1006.9,0.2,100,1,2500,11.112,,,350,,,,,,,,,,10,wg-a,,,,AAXX 04154 07130 02325 83506 10010 20010 30015 40069 53002 61000 71055 887// 91500 333 ////=
07130,1997-01-04 18:00:00,1,1007.8,0.9,93,0,1500,3.704,,,320,-0.8,1.1,,,,,,,,10,wg-a,,0,,AAXX 04184 07130 02315 83202 10010 20000 30024 40078 53009 61000 71054 8672/ 91800 333 10011 21008 4/9999 6100=
07130,1997-01-04 21:00:00,1,1008.6,0.8,93,0,2000,7.408,,,320,,,,,,,,,,10,wg-a,,,,AAXX 04214 07130 02220 83204 10010 20000 30032 40086 51008 61000 71052 875// 92100 333 ////=
07130,1997-01-05 00:00:00,1,1008.4,-0.2,93,0,3000,7.408,,,320,,,,,,,,,,10,wg-a,,,,AAXX 05004 07130 02230 83204 10010 20000 30030 40084 56002 61000 71052 875// 90000 333 ////=
07130,1997-01-05 03:00:00,1,1008.5,0.1,100,1,3000,7.408,,,350,,,,,,,,,,10,wg-a,,,,AAXX 05034 07130 12230 83504 10010 20010 30031 40085 53001 60006 71022 876// 90300=
07130,1997-01-05 06:00:00,0,1008.8,0.3,93,-1,4000,11.112,,,60,0,1.1,,,,,,,,10,wg-a,,0,,AAXX 05064 07130 02340 80606 10000 21010 30034 40088 51003 60006 71022 887// 90600 333 10011 20000 4/9999 61000=
07130,1997-01-05 09:00:00,-2,1010.8,2,93,-3,3000,14.816,,,70,,,,,,,,,,10,wg-a,,,,AAXX 05094 07130 12230 80708 11020 21030 30054 40108 53020 60006 71022 886// 90900=
07130,1997-01-05 12:00:00,-2,1011.3,0.5,86,-4,4500,7.408,,,100,,,,,,,,,,10,wg-a,,,,AAXX 05124 07130 12445 81004 11020 21040 30059 40113 50005 60006 71022 875// 91200=
07130,1997-01-05 15:00:00,-1,1010.9,-0.4,74,-5,500,7.408,,,60,,,,,,,,,,,wg-a,,,,AAXX 05154 07130 12400 70604 11010 21050 30055 40109 56004 60006 8513/ 91500=
07130,1997-01-05 18:00:00,-2,1012,1.1,86,-4,500,11.112,,,100,-2.3,0.1,,,,,,,,70,wg-a,,0,,AAXX 05184 07130 02400 81006 11020 21040 30066 40120 52011 61000 77072 875// 91800 333 10001 21023 4/9999 6100=
07130,1997-01-05 21:00:00,-2,1013.4,1.3,86,-4,7000,11.112,,,90,,,,,,,,,,22,wg-a,,,,AAXX 05214 07130 02457 80906 11020 21040 30079 40134 51013 61000 72272 875// 92100 333 ////=
07130,1997-01-06 00:00:00,-2,1014.2,0.8,93,-3,500,11.112,,,90,,,,,,,,,,3,wg-a,,,,AAXX 06004 07130 02300 80906 11020 21030 30087 40142 51008 61000 70372 875// 90000 333 ////=
07130,1997-01-06 03:00:00,-2,1014.6,0.4,93,-3,500,11.112,,,90,,,,,,,,,,,wg-a,,,,AAXX 06034 07130 12300 80906 11020 21030 30091 40146 53004 60006 875// 90300=
07130,1997-01-06 06:00:00,-2,1015.1,0.5,93,-3,4000,11.112,,,80,-1.8,-1.4,,,,,,,,10,wg-a,,0,,AAXX 06064 07130 02440 80806 11020 21030 30096 40151 53005 61000 71072 875// 90600 333 11014 21018 4/9999 6100=
07130,1997-01-06 09:00:00,-1,1016.4,1.3,80,-4,500,18.52,,,90,,,,,,,,,,,wg-a,,,,AAXX 06094 07130 12400 80910 11010 21040 30109 40164 51013 60006 875// 90900=
07130,1997-01-06 12:00:00,0,1017.1,0.8,80,-3,4000,11.112,,,100,,,,,,,,,,10,wg-a,,,,AAXX 06124 07130 12740 81006 10000 21030 30117 40171 51008 60006 71022 8357/ 91200=
07130,1997-01-06 15:00:00,0,1017.2,0.1,86,-2,500,11.112,,,90,,,,,,,,,,,wg-a,,,,AAXX 06154 07130 12700 80906 10000 21020 30118 40172 53001 60006 875// 91500=
07130,1997-01-06 18:00:00,0,1018.1,0.9,86,-2,4000,11.112,,,80,-1.6,0.5,,,,,,,,10,wg-a,,0,,AAXX 06184 07130 12440 80806 10000 21020 30127 40181 51009 60006 71022 875// 91800 333 10005 21016 4/9999=
07130,1997-01-06 21:00:00,0,1019.3,1.2,86,-2,4000,3.704,,,80,,,,,,,,,,10,wg-a,,,,AAXX 06214 07130 12640 80802 10000 21020 30139 40193 51012 60006 71022 885// 92100=
07130,1997-01-07 00:00:00,-1,1019.6,0.2,86,-3,4500,3.704,,,100,,,,,,,,,,10,wg-a,,,,AAXX 07004 07130 12645 71002 11010 21030 30141 40196 52002 60006 71022 875// 90000=
07130,1997-01-07 03:00:00,-4,1019.9,0.3,93,-5,3000,0,,,0,,,,,,,,,,10,wg-a,,,,AAXX 07034 07130 12/30 00000 11040 21050 30144 40199 53003 60006 71011 80000 90300=
07130,1997-01-07 06:00:00,-6,1019.5,-0.5,100,-6,300,11.112,,,120,-5.8,0.3,,,,,,,,10,wg-a,,0,,AAXX 07064 07130 02/03 91206 11060 21060 30139 40195 56005 60006 71041 89/// 90600 333 10003 21058 4/9999 60004=
07130,1997-01-07 09:00:00,-5,1019.6,0.2,100,-5,1200,7.408,,,90,,,,,,,,,,10,wg-a,,,,AAXX 07094 07130 12112 80904 11050 21050 30141 40196 53002 60006 71042 886// 90900=
07130,1997-01-07 12:00:00,-3,1018.3,-1.3,93,-4,1800,11.112,,,110,,,,,,,,,,10,wg-a,,,,AAXX 07124 07130 12218 81106 11030 21040 30128 40183 58013 60006 71042 886// 91200=
07130,1997-01-07 15:00:00,-3,1016.7,-1.6,86,-5,2200,14.816,,,120,,,,,,,,,,10,wg-a,,,,AAXX 07154 07130 12222 81208 11030 21050 30112 40167 56016 60006 71022 886// 91500=
07130,1997-01-07 18:00:00,-3,1015.3,-1.4,93,-4,2800,14.816,,,110,-5.5,-2.7,,,,,,,,10,wg-a,,,,AAXX 07184 07130 02228 81108 11030 21040 30098 40153 58014 61000 71072 886// 91800 333 11027 21055 6100=
07130,1997-01-07 21:00:00,-4,1014.1,-1.2,86,-6,3000,18.52,,,110,,,,,,,,,,10,wg-a,,,,AAXX 07214 07130 02230 81110 11040 21060 30086 40141 56012 61000 71072 886// 92100 333 ////=
07130,1997-01-08 00:00:00,-5,1011.9,-2.2,86,-7,500,18.52,,,100,,,,,,,,,,2,wg-a,,,,AAXX 08004 07130 02300 81010 11050 21070 30064 40119 58022 61000 70272 886// 90000 333 6100=
07130,1997-01-08 03:00:00,-5,1010.2,-1.7,86,-7,500,18.52,,,110,,,,,,,,,,,wg-a,,,,AAXX 08034 07130 12300 81110 11050 21070 30047 40102 56017 60006 886// 90300=
07130,1997-01-08 06:00:00,-5,1008.1,-2.1,86,-7,500,18.52,,,100,-5.5,-3.3,,,,,,,,,wg-a,,0,,AAXX 08064 07130 02300 81010 11050 21070 30026 40081 58021 60006 886// 90600 333 11033 21055 4/9999 61000=
07130,1997-01-08 09:00:00,-5,1007.1,-1,93,-6,500,18.52,,,110,,,,,,,,,,,wg-a,,,,AAXX 08094 07130 12200 81110 11050 21060 30016 40071 55010 60006 886// 90900=
07130,1997-01-08 12:00:00,-3,1005,-2,93,-4,4000,18.52,,,90,,,,,,,,,,10,wg-a,,,,AAXX 08124 07130 12240 80910 11030 21040 39996 40050 58020 60006 71022 886// 91200=
07130,1997-01-08 15:00:00,-2,1003.2,-1.8,86,-4,2500,11.112,,,80,,,,0,,,,,,10,wg-a,,,,AAXX 08154 07130 12325 80806 11020 21040 39978 40032 56018 60007 71072 8662/ 91500=
07130,1997-01-08 17:00:00,-2,1002.8,-0.4,93,-3,4000,11.112,,,50,-5.2,-2,,,,,,,,10,wg-a,,0,,AAXX 08174 07130 02440 80506 11020 21030 39974 40028 58004 61000 71072 8652/ 91700 333 11020 21052 4/9999 ////=
07130,1997-01-08 18:00:00,-2,1002.8,-0.4,93,-3,4000,11.112,,,50,-5.2,-2,,,,,,,,10,wg-a,,0,,AAXX 08184 07130 02440 80506 11020 21030 39974 40028 58004 61000 71072 8652/ 91800 333 11020 21052 4/9999 6100=
07130,1997-01-08 21:00:00,-2,1002.2,-0.6,93,-3,3000,7.408,,,40,,,,,,,,,,10,wg-a,,,,AAXX 08214 07130 02230 80404 11020 21030 39968 40022 58006 61000 71075 8652/ 92100 333 ////=
07130,1997-01-09 00:00:00,-2,1001.7,-0.5,100,-2,6000,7.408,,,70,,,,1,,,,,,71,wg-a,,,,AAXX 09004 07130 02256 80704 11020 21020 39963 40017 58005 60016 77175 8652/ 90000 333 60017=
07130,1997-01-09 03:00:00,-1,1001.7,-0,93,-2,2000,11.112,,,30,,,,,,,,,,10,wg-a,,,,AAXX 09034 07130 02120 80306 11010 21020 39963 40017 55000 61000 71072 876// 90300 333 ////=
07130,1997-01-09 06:00:00,-1,1002.3,0.6,100,-1,1200,3.704,,,10,-2,-1,,,,,,,,10,wg-a,,2,,AAXX 09064 07130 02212 80102 11010 21010 39969 40023 53006 61000 71076 8662/ 90600 333 11010 21020 4/002 6001=
07130,1997-01-09 09:00:00,0,1004.1,1.8,93,-1,2000,7.408,,,360,,,,0,,,,,,10,wg-a,,,,AAXX 09094 07130 12220 83604 10000 21010 39987 40041 53018 60007 71072 887// 90900=
07130,1997-01-09 12:00:00,0,1005.3,1.2,93,-1,3000,11.112,,,340,,,,,,,,,,10,wg-a,,,,AAXX 09124 07130 12230 83406 10000 21010 39999 40053 51012 60006 71072 886// 91200=
07130,1997-01-09 15:00:00,1,1007.2,1.9,93,0,4000,11.112,,,10,,,,,,,,,,10,wg-a,,,,AAXX 09154 07130 12340 80106 10010 20000 30018 40072 53019 60006 71022 886// 91500=
07130,1997-01-09 18:00:00,2,1009.6,2.4,93,1,3000,11.112,,,350,-1,1.9,,,,,,,,10,wg-a,,0,,AAXX 09184 07130 12230 83506 10020 20010 30042 40096 51024 60006 71022 886// 91800 333 10019 21010 4/9999=
07130,1997-01-09 21:00:00,2,1011.7,2.1,100,2,3500,11.112,,,340,,,,,,,,,,10,wg-a,,,,AAXX 09214 07130 12235 83406 10020 20020 30063 40117 51021 60006 71022 886// 92100=
07130,1997-01-10 00:00:00,3,1013.9,2.2,87,1,500,7.408,,,320,,,,,,,,,,,wg-a,,,,AAXX 10004 07130 12300 83204 10030 20010 30085 40139 51022 60006 886// 90000=
07130,1997-01-10 03:00:00,2,1015.7,1.8,93,1,2500,3.704,,,310,,,,,,,,,,10,wg-a,,,,AAXX 10034 07130 12325 83102 10020 20010 30103 40157 53018 60006 71022 886// 90300=
07130,1997-01-10 06:00:00,2,1016.9,1.2,100,2,500,3.704,,,320,1.6,2.8,,,,,,,,45,wg-a,,,,AAXX 10064 07130 02/05 93202 10020 20020 30115 40169 53012 60006 74542 89/// 90600 333 10028 20016 60004=
07130,1997-01-10 09:00:00,2,1018.6,1.7,93,1,200,3.704,,,280,,,,,,,,,,,wg-a,,,,AAXX 10094 07130 12/02 /2802 10020 20010 30132 40186 52017 60006 90900=
07130,1997-01-10 12:00:00,3,1020.6,2,100,3,2000,3.704,,,190,,,,,,,,,,10,wg-a,,,,AAXX 10124 07130 12220 71902 10030 20030 30152 40206 53020 60006 71042 875// 91200=
07130,1997-01-10 15:00:00,3,1019.9,-0.7,93,2,3000,11.112,,,170,,,,,,,,,,10,wg-a,,,,AAXX 10154 07130 12230 71706 10030 20020 30145 40199 56007 60006 71022 875// 91500=
07130,1997-01-10 18:00:00,2,1021.4,1.5,93,1,2000,7.408,,,160,1.5,3.7,,,,,,,,10,wg-a,,,,AAXX 10184 07130 12120 81604 10020 20010 30160 40214 51015 60006 71022 886// 91800 333 10037 20015=
07130,1997-01-10 21:00:00,1,1022.2,0.8,100,1,1200,11.112,,,180,,,,,,,,,,10,wg-a,,,,AAXX 10214 07130 12112 81806 10010 20010 30168 40222 51008 60006 71022 885// 92100=
07130,1997-01-11 00:00:00,1,1022.7,0.5,100,1,1200,7.408,,,170,,,,,,,,,,10,wg-a,,,,AAXX 11004 07130 12112 81704 10010 20010 30173 40227 53005 60006 71022 886// 90000=
07130,1997-01-11 03:00:00,2,1022.3,-0.4,93,1,1500,11.112,,,150,,,,,,,,,,10,wg-a,,,,AAXX 11034 07130 12215 81506 10020 20010 30169 40223 55004 60006 71022 885// 90300=
07130,1997-01-11 06:00:00,2,1022.8,0.5,93,1,3000,14.816,,,170,0.8,2.2,,,,,,,,10,wg-a,,,,AAXX 11064 07130 02430 81708 10020 20010 30174 40228 51005 60006 71022 885// 90600 333 10022 20008 60004=
07130,1997-01-11 09:00:00,2,1023.8,1,100,2,800,11.112,,,160,,,,1,,,,,,61,wg-a,,,,AAXX 11094 07130 12208 81606 10020 20020 30184 40238 51010 60017 76164 8/72/ 90900=
07130,1997-01-11 12:00:00,3,1024.6,0.8,100,3,800,11.112,,,170,,,,,,,,,,51,wg-a,,,,AAXX 11124 07130 02108 81706 10030 20030 30192 40246 50008 60016 75165 8/72/ 91200 333 61000=
07130,1997-01-11 15:00:00,4,1024.8,0.2,93,3,3000,7.408,,,150,,,,,,,,,,10,wg-a,,,,AAXX 11154 07130 02230 81504 10040 20030 30194 40248 53002 61000 71054 8/52/ 91500 333 ////=
07130,1997-01-11 18:00:00,3,1025.8,1,100,3,1500,7.408,,,150,2,4,,,,,,,,10,wg-a,,,,AAXX 11184 07130 02215 81504 10030 20030 30204 40258 51010 61000 71054 877// 91800 333 10040 20020 6100=
07130,1997-01-11 21:00:00,3,1026.4,0.6,93,2,1500,11.112,,,140,,,,,,,,,,10,wg-a,,,,AAXX 11214 07130 02215 81406 10030 20020 30210 40264 53006 61000 71052 877// 92100 333 ////=
07130,1997-01-12 00:00:00,3,1027,0.6,100,3,800,3.704,,,140,,,,0,,,,,,50,wg-a,,,,AAXX 12004 07130 02108 81402 10030 20030 30216 40270 52006 60006 75054 887// 90000 333 60007=
07130,1997-01-12 03:00:00,3,1026.9,-0.1,100,3,700,7.408,,,120,,,,,,,,,,45,wg-a,,,,AAXX 12034 07130 32/07 91204 10030 20030 30215 40269 56001 74555 89/// 90300=
07130,1997-01-12 06:00:00,3,1026.7,-0.2,93,2,800,7.408,,,120,2.4,3.4,,,,,,,,45,wg-a,,,,AAXX 12064 07130 02/08 91204 10030 20020 30213 40267 58002 61000 74554 89/// 90600 333 10034 20024 6002=
07130,1997-01-12 09:00:00,3,1027.8,1.1,100,3,2500,7.408,,,120,,,,,,,,,,10,wg-a,,,,AAXX 12094 07130 02225 81204 10030 20030 30224 40278 53011 61000 71054 886// 90900 333 ////=
07130,1997-01-12 12:00:00,4,1027.4,-0.4,93,3,4500,7.408,,,140,,,,,,,,,,10,wg-a,,,,AAXX 12124 07130 02245 81404 10040 20030 30220 40274 58004 61000 71054 885// 91200 333 ////=
07130,1997-01-12 15:00:00,7,1026.2,-1.2,87,5,8000,7.408,,,120,,,,,,,,,,,wg-a,,,,AAXX 12154 07130 12458 /1204 10070 20050 30208 40262 56012 60006 81501 91500=
07130,1997-01-12 18:00:00,3,1026.2,0,93,2,9000,3.704,,,80,2.3,6.8,,,,,,,,,wg-a,,,,AAXX 12184 07130 12/59 /0802 10030 20020 30208 40262 50000 60006 80001 91800 333 10068 20023=
07130,1997-01-12 21:00:00,2,1026.6,0.4,93,1,10000,3.704,,,120,,,,,,,,,,,wg-a,,,,AAXX 12214 07130 12/60 01202 10020 20010 30212 40266 51004 60006 80000 92100=
07130,1997-01-13 00:00:00,2,1026,-0.7,80,-1,8000,3.704,,,140,,,,,,,,,,,wg-a,,,,AAXX 13004 07130 12/58 01402 10020 21010 30205 40260 58007 60006 80000 90000=
07130,1997-01-13 03:00:00,1,1025.3,-0.7,86,-1,8000,3.704,,,80,,,,,,,,,,,wg-a,,,,AAXX 13034 07130 12/58 /0802 10010 21010 30198 40253 56007 60006 80001 90300=
07130,1997-01-13 06:00:00,0,1024.5,-0.8,93,-1,7000,3.704,,,120,-1.3,3.4,,,,,,,,,wg-a,,,,AAXX 13064 07130 02/57 01202 10000 21010 30190 40245 56008 60006 80000 90600 333 10034 21013 61000=
07130,1997-01-13 09:00:00,1,1024.6,0.2,86,-1,10000,7.408,,,120,,,,,,,,,,,wg-a,,,,AAXX 13094 07130 12/60 11204 10010 21010 30192 40246 53002 60006 80001 90900=
07130,1997-01-13 12:00:00,7,1024.1,-0.4,57,-1,12000,14.816,,,130,,,,,,,,,,,wg-a,,,,AAXX 13124 07130 12/62 11308 10070 21010 30188 40241 58004 60006 80001 91200=
07130,1997-01-13 15:00:00,8,1022.6,-1.5,53,-1,12000,7.408,,,120,,,,,,,,,,,wg-a,,,,AAXX 13154 07130 12/62 11204 10080 21010 30173 40226 56015 60006 80001 91500=
07130,1997-01-13 18:00:00,4,1022.5,-0.2,65,-2,10000,7.408,,,110,-0.4,8.6,,,,,,,,,wg-a,,,,AAXX 13184 07130 12/60 01104 10040 21020 30171 40225 57002 60006 80000 91800 333 10086 21004=
07130,1997-01-13 21:00:00,1,1022.9,0.4,80,-2,10000,7.408,,,110,,,,,,,,,,,wg-a,,,,AAXX 13214 07130 12/60 01104 10010 21020 30175 40229 53004 60006 80000 92100=
07130,1997-01-14 00:00:00,1,1022.1,-0.9,80,-2,10000,7.408,,,120,,,,,,,,,,,wg-a,,,,AAXX 14004 07130 12/60 01204 10010 21020 30166 40221 58009 60006 80000 90000=
07130,1997-01-14 03:00:00,0,1021,-1.1,86,-2,20000,7.408,,,140,,,,,,,,,,,wg-a,,,,AAXX 14034 07130 12/70 01404 10000 21020 30155 40210 56011 60006 80000 90300=
07130,1997-01-14 06:00:00,-1,1020.8,,86,-3,8000,7.408,,,100,,,,,,,,,,,wg-a,,,,AAXX 14064 07130 12/58 01004 11010 21030 30153 40208 60006 80000 90600=
07130,1997-01-14 09:00:00,-1,1021.3,0.4,93,-2,4000,7.408,,,110,,,,,,,,,,10,wg-a,,,,AAXX 14094 07130 12/40 01104 11010 21020 30158 40213 53004 60006 71000 80000 90900=
07130,1997-01-14 12:00:00,4,1020.9,-0.3,75,0,9000,11.112,,,120,,,,,,,,,,,wg-a,,,,AAXX 14124 07130 12/59 01206 10040 20000 30155 40209 58003 60006 80000 91200=
07130,1997-01-14 15:00:00,7,1019.9,-0.9,66,1,12000,14.816,,,120,,,,,,,,,,,wg-a,,,,AAXX 14154 07130 12/62 01208 10070 20010 30146 40199 55009 60006 80000 91500=
07130,1997-01-14 18:00:00,4,1020.2,0.2,81,1,9000,7.408,,,130,-2.1,7.3,,,,,,,,,wg-a,,,,AAXX 14184 07130 12/59 01304 10040 20010 30148 40202 50002 60006 80000 91800 333 10073 21021=
07130,1997-01-14 21:00:00,0,1021.4,1.1,93,-1,500,0,,,0,,,,,,,,,,,wg-a,,,,AAXX 14214 07130 12/00 00000 10000 21010 30159 40214 53011 60006 80000 92100=
07130,1997-01-15 00:00:00,1,1021.6,0.3,86,-1,7000,3.704,,,120,,,,,,,,,,,wg-a,,,,AAXX 15004 07130 12/57 01202 10010 21010 30162 40216 51003 60006 80000 90000=
07130,1997-01-15 06:00:00,0,1021.5,-0.2,86,-2,3000,11.112,,,120,-0.4,4,,,,,,,,10,wg-a,,,,AAXX 15064 07130 02/30 01206 10000 21020 30160 40215 55002 60006 71000 80000 90600 333 10040 21004 60004=
07130,1997-01-15 09:00:00,1,1022.4,0.9,86,-1,500,7.408,,,110,,,,,,,,,,,wg-a,,,,AAXX 15094 07130 12/00 01104 10010 21010 30169 40224 51009 60006 80000 90900=
07130,1997-01-15 12:00:00,8,1021.4,-0.8,71,3,9000,14.816,,,140,,,,,,,,,,,wg-a,,,,AAXX 15124 07130 12/59 01408 10080 20030 30161 40214 58008 60006 80000 91200=
07130,1997-01-15 15:00:00,10,1020.5,-0.9,66,4,15000,14.816,,,100,,,,,,,,,,,wg-a,,,,AAXX 15154 07130 12/65 01008 10100 20040 30152 40205 56009 60006 80000 91500=
07130,1997-01-15 18:00:00,5,1020.7,0.1,81,2,9000,7.408,,,140,-0.7,11.6,,,,,,,,,wg-a,,,,AAXX 15184 07130 12/59 01404 10050 20020 30153 40207 53001 60006 80000 91800 333 10116 21007=
07130,1997-01-15 21:00:00,3,1020.6,-0.1,87,1,9000,3.704,,,120,,,,,,,,,,,wg-a,,,,AAXX 15214 07130 12/59 01202 10030 20010 30152 40206 58001 60006 80000 92100=
07130,1997-01-16 00:00:00,3,1019.9,-0.7,87,1,8000,11.112,,,120,,,,,,,,,,,wg-a,,,,AAXX 16004 07130 12/58 01206 10030 20010 30145 40199 58007 60006 80000 90000=
07130,1997-01-16 03:00:00,2,1019,-0.9,87,0,8000,7.408,,,110,,,,,,,,,,,wg-a,,,,AAXX 16034 07130 12/58 01104 10020 20000 30136 40190 58009 60006 80000 90300=
07130,1997-01-16 06:00:00,1,1017.6,-1.4,86,-1,8000,11.112,,,120,1,5,,,,,,,,,wg-a,,,,AAXX 16064 07130 02/58 01206 10010 21010 30122 40176 56014 60006 80000 90600 333 10050 20010 60004=
07130,1997-01-16 09:00:00,1,1017.6,-0,93,0,6000,14.816,,,120,,,,,,,,,,,wg-a,,,,AAXX 16094 07130 12/56 01208 10010 20000 30122 40176 55000 60006 80000 90900=
07130,1997-01-16 12:00:00,9,1016.3,-1.2,76,5,11000,14.816,,,150,,,,,,,,,,,wg-a,,,,AAXX 16124 07130 12/61 11508 10090 20050 30110 40163 58012 60006 81030 91200=
07130,1997-01-16 15:00:00,11,1013.9,-2.3,66,5,15000,14.816,,,140,,,,,,,,,,,wg-a,,,,AAXX 16154 07130 12/65 21408 10110 20050 30087 40139 56023 60006 82030 91500=
07130,1997-01-16 18:00:00,6,1013.4,-0.6,87,4,8000,14.816,,,140,0.4,11.5,,,,,,,,,wg-a,,,,AAXX 16184 07130 12/58 /1408 10060 20040 30081 40134 57006 60006 81030 91800 333 10115 20004=
07130,1997-01-16 21:00:00,7,1012.3,-1.1,87,5,15000,14.816,,,150,,,,,,,,,,,wg-a,,,,AAXX 16214 07130 12/65 11508 10070 20050 30070 40123 58011 60006 80002 92100=
07130,1997-01-17 00:00:00,7,1010.8,-1.5,87,5,15000,14.816,,,140,,,,,,,,,,,wg-a,,,,AAXX 17004 07130 12/65 11408 10070 20050 30055 40108 57015 60006 80002 90000=
07130,1997-01-17 03:00:00,7,1009.9,-0.9,87,5,20000,18.52,,,150,,,,,,,,,,,wg-a,,,,AAXX 17034 07130 12770 81510 10070 20050 30046 40099 56009 60006 875// 90300=
07130,1997-01-17 06:00:00,8,1009.2,-0.6,87,6,10000,14.816,,,160,5.5,7.8,,,,,,,,,wg-a,,,,AAXX 17064 07130 02560 81608 10080 20060 30040 40092 55006 60006 885// 90600 333 10078 20055 60004=
07130,1997-01-17 09:00:00,8,1010.3,1.1,93,7,500,18.52,,,180,,,,1,,,,,,61,wg-a,,,,AAXX 17094 07130 12300 81810 10080 20070 30051 40103 53011 60017 76162 885// 90900=
07130,1997-01-17 12:00:00,10,1012.6,2.3,93,9,500,11.112,,,280,,,,1,,,,,,1,wg-a,,,,AAXX 17124 07130 02200 72806 10100 20090 30074 40126 52023 60026 70162 8357/ 91200 333 60017=
07130,1997-01-17 15:00:00,11,1014.2,1.6,82,8,25000,11.112,,,260,,,,,,,,,,,wg-a,,,,AAXX 17154 07130 12475 32606 10110 20080 30090 40142 53016 60006 81132 91500=
07130,1997-01-17 18:00:00,9,1016,1.7,87,7,18000,11.112,,,180,7.8,12,,,,,,,,,wg-a,,,,AAXX 17184 07130 12568 21806 10090 20070 30107 40160 53017 60006 81102 91800 333 10120 20078=
07130,1997-01-17 21:00:00,8,1017.8,1.8,93,7,600,7.408,,,220,,,,,,,,,,45,wg-a,,,,AAXX 17214 07130 12/06 92204 10080 20070 30125 40178 51018 60006 74541 89/// 92100=
07130,1997-01-18 00:00:00,7,1018.2,0.4,100,7,600,7.408,,,230,,,,,,,,,,45,wg-a,,,,AAXX 18004 07130 12/06 92304 10070 20070 30129 40182 52004 60006 74541 89/// 90000=
07130,1997-01-18 03:00:00,7,1017.8,-0.4,100,7,600,11.112,,,190,,,,,,,,,,45,wg-a,,,,AAXX 18034 07130 12/06 91906 10070 20070 30125 40178 58004 60006 74544 89/// 90300=
07130,1997-01-18 06:00:00,7,1017.2,-0.6,100,7,500,14.816,,,170,6.6,8.7,,,,,2,,,45,wg-a,,,,AAXX 18064 07130 02/05 91708 10070 20070 30119 40172 58006 60006 74544 89/// 90600 333 10087 20066 60024=
07130,1997-01-18 09:00:00,7,1016.6,-0.6,93,6,400,14.816,,,150,,,,,,,,,,43,wg-a,,,,AAXX 18094 07130 12/04 91508 10070 20060 30113 40166 58006 60006 74344 89/// 90900=
07130,1997-01-18 12:00:00,7,1014.2,-2.4,100,7,1800,11.112,,,140,,,,,,,,,,10,wg-a,,,,AAXX 18124 07130 12218 81406 10070 20070 30089 40142 58024 60006 71042 886// 91200=
07130,1997-01-18 15:00:00,6,1010.2,-4,100,6,6000,22.224,,,130,,,,,,,,,,,wg-a,,,,AAXX 18154 07130 12256 81312 10060 20060 30049 40102 58040 60006 886// 91500=
07130,1997-01-18 18:00:00,7,1008.5,-1.7,93,6,10000,22.224,,,150,6,7.2,,,,,,,,,wg-a,,,,AAXX 18184 07130 12360 81512 10070 20060 30032 40085 56017 60006 886// 91800 333 10072 20060=
07130,1997-01-19 00:00:00,8,1004.5,-0,93,7,25000,18.52,,,200,,,,0,,,,,,1,wg-a,,,,AAXX 19004 07130 02475 /2010 10080 20070 39993 40045 55000 60016 70162 86800 90000 333 60007=
07130,1997-01-19 03:00:00,8,1005.4,0.9,93,7,25000,14.816,,,180,,,,,,,,,,,wg-a,,,,AAXX 19034 07130 12/75 21808 10080 20070 30002 40054 53009 60006 80001 90300=
07130,1997-01-19 06:00:00,7,1005.2,-0.2,93,6,20000,18.52,,,190,6.2,8.4,,,,,1,,,1,wg-a,,,,AAXX 19064 07130 02570 /1910 10070 20060 30000 40052 55002 60006 70186 81100 90600 333 10084 20062 60014=
07130,1997-01-19 09:00:00,7,1006.8,1.6,100,7,12000,22.224,,,180,,,,,,,,,,,wg-a,,,,AAXX 19094 07130 12362 31812 10070 20070 30016 40068 53016 60006 81202 90900=
07130,1997-01-19 12:00:00,11,1007.6,0.8,87,9,11000,18.52,,,180,,,,,,,,,,,wg-a,,,,AAXX 19124 07130 12/61 /1810 10110 20090 30024 40076 50008 60006 91200=
07130,1997-01-19 15:00:00,13,1007.7,0.2,72,8,15000,14.816,,,180,,,,,,,,,,,wg-a,,,,AAXX 19154 07130 12565 61808 10130 20080 30026 40077 53002 60006 84902 91500=
07130,1997-01-19 18:00:00,9,1009.9,2.1,87,7,15000,11.112,,,150,6.5,13,,,,,,,,,wg-a,,,,AAXX 19184 07130 12565 41506 10090 20070 30047 40099 53021 60006 82202 91800 333 10130 20065=
07130,1997-01-19 21:00:00,7,1011.9,1.9,93,6,10000,7.408,,,140,,,,,,,,,,,wg-a,,,,AAXX 19214 07130 12460 31404 10070 20060 30066 40119 51019 60006 81102 92100=
07130,1997-01-20 00:00:00,5,1013.9,2,100,5,6000,7.408,,,110,,,,,,,,,,,wg-a,,,,AAXX 20004 07130 12/56 01104 10050 20050 30086 40139 53020 60006 80000 90000=
07130,1997-01-20 03:00:00,5,1015.1,1.2,93,4,4000,3.704,,,80,,,,,,,,,,10,wg-a,,,,AAXX 20034 07130 12/40 00802 10050 20040 30098 40151 51012 60006 71000 80000 90300=
07130,1997-01-20 06:00:00,4,1016,0.8,93,3,15000,3.704,,,40,3.1,8.5,,,,,,,,11,wg-a,,,,AAXX 20064 07130 02/65 10402 10040 20030 30106 40160 51008 60006 71111 80002 90600 333 10085 20031 60004=
07130,1997-01-20 09:00:00,5,1018.8,2.9,100,5,12000,14.816,,,40,,,,,,,,,,,wg-a,,,,AAXX 20094 07130 12462 20408 10050 20050 30135 40188 52029 60006 81502 90900=
07130,1997-01-20 12:00:00,8,1020.9,2.1,87,6,9000,18.52,,,40,,,,,,,,,,,wg-a,,,,AAXX 20124 07130 12459 30410 10080 20060 30156 40209 51021 60006 81531 91200=
07130,1997-01-20 15:00:00,7,1021.5,0.6,87,5,8000,29.632,,,60,,,,,,,,,,,wg-a,,,,AAXX 20154 07130 12458 80616 10070 20050 30162 40215 53006 60006 885// 91500=
07130,1997-01-20 18:00:00,6,1023.2,1.6,81,3,12000,25.928,,,60,3,9.1,,,,,,,,,wg-a,,,,AAXX 20184 07130 12462 80614 10060 20030 30178 40232 51016 60006 885// 91800 333 10091 20030=
07130,1997-01-20 21:00:00,5,1024.4,1.2,81,2,12000,22.224,,,70,,,,,,,,,,,wg-a,,,,AAXX 20214 07130 12462 80712 10050 20020 30190 40244 50012 60006 885// 92100=
07130,1997-01-21 00:00:00,4,1024.1,-0.3,81,1,20000,22.224,,,60,,,,,,,,,,,wg-a,,,,AAXX 21004 07130 12/70 00612 10040 20010 30187 40241 58003 60006 80000 90000=
07130,1997-01-21 03:00:00,4,1023.5,-0.6,81,1,20000,25.928,,,70,,,,,,,,,,,wg-a,,,,AAXX 21034 07130 12470 80714 10040 20010 30181 40235 58006 60006 885// 90300=
07130,1997-01-21 06:00:00,4,1022,-1.5,87,2,16000,18.52,,,70,3.1,5.5,,,,,,,,,wg-a,,,,AAXX 21064 07130 02466 80710 10040 20020 30166 40220 56015 60006 885// 90600 333 10055 20031 60004=
07130,1997-01-21 09:00:00,4,1021.7,-0.3,87,2,10000,18.52,,,80,,,,,,,,,,,wg-a,,,,AAXX 21094 07130 12460 80810 10040 20020 30163 40217 55003 60006 885// 90900=
07130,1997-01-21 12:00:00,5,1019.1,-2.6,81,2,9000,29.632,,,80,,,,,,,,,,,wg-a,,,,AAXX 21124 07130 12459 80816 10050 20020 30137 40191 57026 60006 885// 91200=
07130,1997-01-21 15:00:00,5,1016,-3,87,3,6000,22.224,,,90,,,,,,,,,,,wg-a,,,,AAXX 21154 07130 12356 80912 10050 20030 30107 40160 56030 60006 885// 91500=
07130,1997-01-21 18:00:00,5,1015,-1,93,4,4000,11.112,,,90,3.7,5.1,,,,,,,,10,wg-a,,,,AAXX 21184 07130 02440 80906 10050 20040 30097 40150 56010 61000 71062 8652/ 91800 333 10051 20037 6001=
07130,1997-01-21 21:00:00,6,1013,-2,93,5,6000,14.816,,,110,,,,1,,,,,,21,wg-a,,,,AAXX 21214 07130 12256 81108 10060 20050 30077 40130 58020 60017 72162 88800 92100=
07130,1997-01-22 00:00:00,6,1012.8,-0.2,100,6,3500,7.408,,,150,,,,,,,,,,10,wg-a,,,,AAXX 22004 07130 12235 81504 10060 20060 30075 40128 58002 60016 71062 886// 90000=
07130,1997-01-22 03:00:00,6,1012.9,0.1,100,6,2000,7.408,,,150,,,,,,,,,,10,wg-a,,,,AAXX 22034 07130 12220 81504 10060 20060 30076 40129 53001 60006 71022 886// 90300=
07130,1997-01-22 06:00:00,8,1013.1,0.3,100,8,2500,14.816,,,200,4.9,8.3,,,,,2,,,10,wg-a,,,,AAXX 22064 07130 02225 82008 10080 20080 30079 40131 53003 60006 71022 886// 90600 333 10083 20049 60024=
07130,1997-01-22 09:00:00,9,1014.3,1.2,100,9,2500,18.52,,,180,,,,,,,,,,10,wg-a,,,,AAXX 22094 07130 12225 81810 10090 20090 30091 40143 51012 60006 71022 886// 90900=
07130,1997-01-22 12:00:00,11,1014.7,0.4,87,9,10000,22.224,,,190,,,,,,,,,,,wg-a,,,,AAXX 22124 07130 12460 71912 10110 20090 30095 40147 50004 60006 878// 91200=
07130,1997-01-22 15:00:00,12,1014.3,-0.4,76,8,17000,29.632,,,210,,,,,,,,,,,wg-a,,,,AAXX 22154 07130 12567 72116 10120 20080 30091 40143 55004 60006 878// 91500=
07130,1997-01-22 18:00:00,11,1015.1,0.8,76,7,15000,22.224,,,200,8.2,12.3,,,,,,,,1,wg-a,,,,AAXX 22184 07130 12565 72012 10110 20070 30099 40151 53008 60006 70186 878// 91800 333 10123 20082=
07130,1997-01-22 21:00:00,9,1017,1.9,93,8,15000,11.112,,,210,,,,0,,,,,,60,wg-a,,,,AAXX 22214 07130 12365 82106 10090 20080 30118 40170 51019 60007 76062 875// 92100=
07130,1997-01-23 00:00:00,8,1018.3,1.2,93,7,15000,3.704,,,220,,,,0,,,,,,21,wg-a,,,,AAXX 23004 07130 02265 /2202 10080 20070 30130 40183 51012 60016 72162 85630 90000 333 60007=
07130,1997-01-23 06:00:00,7,1019.6,0.2,100,7,200,7.408,,,100,6.8,10.9,,,,,1,,,45,wg-a,,,,AAXX 23064 07130 02/02 91004 10070 20070 30143 40196 50002 60006 74542 89/// 90600 333 10109 20068 60014=
07130,1997-01-23 09:00:00,5,1021.6,1.9,100,5,200,7.408,,,100,,,,,,,,,,45,wg-a,,,,AAXX 23094 07130 12/02 91004 10050 20050 30162 40216 52019 60006 74544 89/// 90900=
07130,1997-01-23 12:00:00,6,1021.6,0.1,100,6,600,11.112,,,120,,,,,,,,,,43,wg-a,,,,AAXX 23124 07130 12/06 91206 10060 20060 30163 40216 50001 60006 74344 89/// 91200=
07130,1997-01-23 18:00:00,7,1021.5,0.6,100,7,6000,7.408,,,50,5.1,7.5,,,,,,,,21,wg-a,,,,AAXX 23184 07130 02256 80504 10070 20070 30162 40215 53006 61000 72165 8752/ 91800 333 10075 20051 6000=
07130,1997-01-23 21:00:00,7,1022.4,0.9,100,7,4000,7.408,,,70,,,,1,,,,,,10,wg-a,,,,AAXX 23214 07130 12440 80704 10070 20070 30171 40224 51009 60017 71062 8652/ 92100=
07130,1997-01-24 00:00:00,5,1022.7,0.2,100,5,500,7.408,,,320,,,,0,,,,,,46,wg-a,,,,AAXX 24004 07130 02205 73204 10050 20050 30173 40227 50002 60016 74664 875// 90000 333 60007=
07130,1997-01-24 03:00:00,5,1023.1,0.4,100,5,3000,7.408,,,30,,,,,,,,,,10,wg-a,,,,AAXX 24034 07130 12130 80304 10050 20050 30177 40231 53004 60006 71042 887// 90300=
07130,1997-01-24 06:00:00,6,1023.7,0.7,100,6,400,7.408,,,20,4.9,7.8,,,,,2,,,10,wg-a,,,,AAXX 24064 07130 02/04 90204 10060 20060 30184 40237 53007 60006 71042 89/// 90600 333 10078 20049 60024=
07130,1997-01-24 09:00:00,6,1024.9,1.2,100,6,800,3.704,,,350,,,,,,,,,,44,wg-a,,,,AAXX 24094 07130 12108 83502 10060 20060 30196 40249 51012 60006 74444 886// 90900=
07130,1997-01-24 12:00:00,8,1025.5,0.6,100,8,1500,7.408,,,40,,,,,,,,,,10,wg-a,,,,AAXX 24124 07130 12115 80404 10080 20080 30202 40255 50006 60006 71042 876// 91200=
07130,1997-01-24 15:00:00,9,1025.6,0.1,100,9,2500,7.408,,,340,,,,,,,,,,10,wg-a,,,,AAXX 24154 07130 12225 83404 10090 20090 30203 40256 53001 60006 71022 876// 91500=
07130,1997-01-24 18:00:00,9,1027,1.4,93,8,1500,7.408,,,30,6.1,9.3,,,,,,,,10,wg-a,,,,AAXX 24184 07130 12115 80304 10090 20080 30217 40270 51014 60006 71022 886// 91800 333 10093 20061=
07130,1997-01-25 00:00:00,9,1028.6,0.3,100,9,1500,7.408,,,110,,,,,,,,,,10,wg-a,,,,AAXX 25004 07130 12215 81104 10090 20090 30233 40286 50003 60006 71022 886// 90000=
07130,1997-01-25 03:00:00,9,1028.2,-0.4,100,9,500,7.408,,,80,,,,,,,,,,,wg-a,,,,AAXX 25034 07130 12500 80804 10090 20090 30229 40282 57004 60006 885// 90300=
07130,1997-01-25 06:00:00,9,1028.4,0.2,93,8,500,11.112,,,70,7.9,9.4,,,,,,,,,wg-a,,,,AAXX 25064 07130 02500 70706 10090 20080 30231 40284 53002 60006 875// 90600 333 10094 20079 60004=
07130,1997-01-25 09:00:00,9,1029.2,0.8,93,8,500,7.408,,,40,,,,,,,,,,,wg-a,,,,AAXX 25094 07130 12700 80404 10090 20080 30239 40292 53008 60006 885// 90900=
07130,1997-01-25 12:00:00,13,1028.1,-1,82,10,9000,11.112,,,110,,,,,,,,,,,wg-a,,,,AAXX 25124 07130 12/59 /1106 10130 20100 30229 40281 58010 60006 91200=
07130,1997-01-25 15:00:00,13,1027.6,-0.5,82,10,7000,11.112,,,90,,,,,,,,,,,wg-a,,,,AAXX 25154 07130 12557 /0906 10130 20100 30224 40276 56005 60006 82530 91500=
07130,1997-01-25 18:00:00,11,1027.9,0.2,87,9,6000,7.408,,,90,8.6,13.8,,,,,,,,,wg-a,,,,AAXX 25184 07130 12756 70904 10110 20090 30226 40279 50002 60006 8653/ 91800 333 10138 20086=
07130,1997-01-25 21:00:00,9,1028.2,0.3,93,8,8000,7.408,,,120,,,,,,,,,,,wg-a,,,,AAXX 25214 07130 12758 71204 10090 20080 30229 40282 50003 60006 8653/ 92100=
07130,1997-01-26 00:00:00,6,1028.6,0.3,100,6,500,11.112,,,110,,,,,,,,,,45,wg-a,,,,AAXX 26004 07130 12/05 91106 10060 20060 30232 40286 53003 60006 74541 89/// 90000=
07130,1997-01-26 03:00:00,5,1028.5,-0.1,100,5,1500,14.816,,,100,,,,,,,,,,10,wg-a,,,,AAXX 26034 07130 12115 81008 10050 20050 30231 40285 58001 60006 71042 886// 90300=
07130,1997-01-26 06:00:00,5,1027.8,-0.7,100,5,1500,11.112,,,100,5.1,11.1,,,,,,,,10,wg-a,,,,AAXX 26064 07130 02115 81006 10050 20050 30224 40278 58007 60006 71042 886// 90600 333 10111 20051 60004=
07130,1997-01-26 09:00:00,6,1028.5,0.7,100,6,1300,7.408,,,110,,,,,,,,,,10,wg-a,,,,AAXX 26094 07130 12113 81104 10060 20060 30231 40285 53007 60006 71042 886// 90900=
07130,1997-01-26 12:00:00,9,1028.4,0,81,6,9000,7.408,,,90,,,,,,,,,,1,wg-a,,,,AAXX 26124 07130 12259 /0904 10090 20060 30231 40284 50000 60006 70141 81600 91200=
07130,1997-01-26 15:00:00,11,1027.6,-0.8,62,4,10000,11.112,,,100,,,,,,,,,,,wg-a,,,,AAXX 26154 07130 12/60 11006 10110 20040 30223 40276 56008 60006 80001 91500=
07130,1997-01-26 18:00:00,7,1028.3,0.6,81,4,9000,3.704,,,90,5.4,11.2,,,,,,,,,wg-a,,,,AAXX 26184 07130 12/59 00902 10070 20040 30229 40283 52006 60006 80000 91800 333 10112 20054=
07130,1997-01-27 00:00:00,2,1030.7,1.1,93,1,800,7.408,,,120,,,,,,,,,,41,wg-a,,,,AAXX 27004 07130 12108 71204 10020 20010 30252 40307 53011 60006 74141 87600 90000=
07130,1997-01-27 03:00:00,2,1031,0.3,100,2,1000,7.408,,,20,,,,,,,,,,10,wg-a,,,,AAXX 27034 07130 12210 80204 10020 20020 30255 40310 52003 60006 71042 8/600 90300=
07130,1997-01-27 06:00:00,1,1032.2,1.2,93,0,6000,18.52,,,40,1.1,7,,,,,,,,2,wg-a,,,,AAXX 27064 07130 02256 80410 10010 20000 30267 40322 53012 60006 70242 88600 90600 333 10070 20011 60004=
07130,1997-01-27 09:00:00,2,1033.7,1.5,93,1,6000,7.408,,,70,,,,,,,,,,,wg-a,,,,AAXX 27094 07130 12356 80704 10020 20010 30282 40337 51015 60006 88600 90900=
07130,1997-01-27 12:00:00,4,1034.4,0.7,87,2,6000,11.112,,,30,,,,,,,,,,,wg-a,,,,AAXX 27124 07130 12456 80306 10040 20020 30289 40344 50007 60006 886// 91200=
07130,1997-01-27 15:00:00,5,1034.8,0.5,87,3,7000,14.816,,,40,,,,,,,,,,,wg-a,,,,AAXX 27154 07130 12/57 /0408 10050 20030 30294 40348 53005 60006 91500=
07130,1997-01-27 18:00:00,5,1036,1.2,81,2,7000,11.112,,,40,0.7,5.3,,,,,,,,,wg-a,,,,AAXX 27184 07130 12457 /0406 10050 20020 30306 40360 53012 60006 86500 91800 333 10053 20007=
07130,1997-01-27 21:00:00,2,1037.3,1.2,93,1,4000,7.408,,,20,,,,,,,,,,10,wg-a,,,,AAXX 27214 07130 12/40 00204 10020 20010 30318 40373 51012 60006 71011 80000 92100=
07130,1997-01-28 00:00:00,2,1037.4,0.1,100,2,2000,3.704,,,310,,,,,,,,,,10,wg-a,,,,AAXX 28004 07130 12420 83102 10020 20020 30319 40374 50001 60006 71011 886// 90000=
07130,1997-01-28 03:00:00,3,1037.4,0,100,3,1500,0,,,0,,,,,,,,,,10,wg-a,,,,AAXX 28034 07130 12415 80000 10030 20030 30319 40374 50000 60006 71022 886// 90300=
07130,1997-01-28 06:00:00,3,1037.1,-0.3,100,3,1800,3.704,,,340,0.9,4.4,,,,,,,,10,wg-a,,,,AAXX 28064 07130 02418 83402 10030 20030 30316 40371 58003 60006 71022 886// 90600 333 10044 20009 60004=
07130,1997-01-28 09:00:00,6,1037.4,0.4,100,6,3000,11.112,,,20,,,,,,,,,,10,wg-a,,,,AAXX 28094 07130 12230 80206 10060 20060 30320 40374 53004 60006 71022 876// 90900=
07130,1997-01-28 12:00:00,7,1037.3,-0.1,87,5,15000,18.52,,,40,,,,,,,,,,,wg-a,,,,AAXX 28124 07130 12465 70410 10070 20050 30319 40373 58001 60006 875// 91200=
07130,1997-01-28 15:00:00,7,1036.3,-1,81,4,11000,18.52,,,50,,,,,,,,,,,wg-a,,,,AAXX 28154 07130 12/61 /0510 10070 20040 30309 40363 57010 60006 91500=
07130,1997-01-28 18:00:00,5,1037.2,0.9,81,2,10000,7.408,,,80,3.5,7.3,,,,,,,,,wg-a,,,,AAXX 28184 07130 12560 /0804 10050 20020 30318 40372 52009 60006 86800 91800 333 10073 20035=
07130,1997-01-28 21:00:00,3,1037.9,0.6,87,1,10000,14.816,,,70,,,,,,,,,,,wg-a,,,,AAXX 28214 07130 12760 30708 10030 20010 30324 40379 52006 60006 83500 92100=
07130,1997-01-29 00:00:00,2,1038.1,0.2,87,0,10000,14.816,,,70,,,,,,,,,,,wg-a,,,,AAXX 29004 07130 12/60 00708 10020 20000 30326 40381 51002 60006 80000 90000=
07130,1997-01-29 03:00:00,1,1037.6,-0.5,86,-1,9000,14.816,,,80,,,,,,,,,,,wg-a,,,,AAXX 29034 07130 12/59 00808 10010 21010 30321 40376 58005 60006 80000 90300=
07130,1997-01-29 06:00:00,1,1036.6,-1,86,-1,6000,14.816,,,80,0.3,5,,,,,,,,,wg-a,,,,AAXX 29064 07130 02/56 00808 10010 21010 30311 40366 58010 60006 80000 90600 333 10050 20003 60004=
07130,1997-01-29 09:00:00,1,1037.2,0.6,86,-1,7000,14.816,,,90,,,,,,,,,,,wg-a,,,,AAXX 29094 07130 12/57 00908 10010 21010 30317 40372 51006 60006 80000 90900=
07130,1997-01-29 12:00:00,4,1036.1,,75,0,8000,0,,,0,,,,,,,,,,,wg-a,,,,AAXX 29124 07130 12458 1//// 10040 20000 30306 40361 60006 81100 91200=
07130,1997-01-29 15:00:00,5,1034.6,-1.4,75,1,10000,22.224,,,90,,,,,,,,,,,wg-a,,,,AAXX 29154 07130 12560 /0912 10050 20010 30292 40346 58014 60006 81100 91500=
07130,1997-01-29 18:00:00,2,1035.5,0.8,87,0,4000,22.224,,,100,0.3,6.1,,,,,,,,10,wg-a,,,,AAXX 29184 07130 12440 71012 10020 20000 30300 40355 53008 60006 71011 875// 91800 333 10061 20003=
07130,1997-01-29 21:00:00,1,1035.5,0,86,-1,7000,22.224,,,100,,,,,,,,,,,wg-a,,,,AAXX 29214 07130 12357 81012 10010 21010 30300 40355 50000 60006 886// 92100=
07130,1997-01-30 00:00:00,0,1034.9,-0.6,93,-1,500,14.816,,,120,,,,,,,,,,,wg-a,,,,AAXX 30004 07130 12300 81208 10000 21010 30294 40349 58006 60006 886// 90000=
07130,1997-01-30 03:00:00,0,1034.6,-0.3,93,-1,4000,14.816,,,100,,,,,,,,,,10,wg-a,,,,AAXX 30034 07130 12240 81008 10000 21010 30291 40346 58003 60006 71022 886// 90300=
07130,1997-01-30 06:00:00,-1,1034,-0.6,93,-2,4000,3.704,,,80,-0.8,1.9,,,,,,,,10,wg-a,,,,AAXX 30064 07130 02/40 00802 11010 21020 30285 40340 57006 60006 71011 80000 90600 333 10019 21008 60004=
07130,1997-01-30 09:00:00,1,1034.9,0.9,86,-1,500,7.408,,,110,,,,,,,,,,,wg-a,,,,AAXX 30094 07130 12/00 01104 10010 21010 30294 40349 53009 60006 80000 90900=
07130,1997-01-30 12:00:00,6,1034.5,-0.3,70,1,9000,18.52,,,120,,,,,,,,,,,wg-a,,,,AAXX 30124 07130 12/59 01210 10060 20010 30291 40345 58003 60006 80000 91200=
07130,1997-01-30 15:00:00,8,1032.8,-1.7,66,2,10000,11.112,,,120,,,,,,,,,,,wg-a,,,,AAXX 30154 07130 12/60 01206 10080 20020 30274 40328 56017 60006 80000 91500=
07130,1997-01-30 18:00:00,4,1032.9,0.1,81,1,8000,7.408,,,120,-1.1,8.2,,,,,,,,,wg-a,,,,AAXX 30184 07130 12/58 /1204 10040 20010 30275 40329 53001 60006 80001 91800 333 10082 21011=
07130,1997-01-31 00:00:00,0,1033.2,-0.5,93,-1,3500,11.112,,,110,,,,,,,,,,10,wg-a,,,,AAXX 31004 07130 12235 81106 10000 21010 30277 40332 56005 60006 71011 886// 90000=
07130,1997-01-31 03:00:00,-1,1032.1,-1.1,93,-2,3500,14.816,,,110,,,,,,,,,,10,wg-a,,,,AAXX 31034 07130 12235 81108 11010 21020 30266 40321 56011 60006 71022 886// 90300=
07130,1997-01-31 12:00:00,2,1031.4,-0.2,80,-1,3000,18.52,,,130,,,,,,,,,,10,wg-a,,,,AAXX 31124 07130 12330 71310 10020 21010 30259 40314 58002 60006 71022 876// 91200=
07130,1997-01-31 15:00:00,2,1030.2,-1.2,87,0,500,18.52,,,100,,,,,,,,,,,wg-a,,,,AAXX 31154 07130 12400 41010 10020 20000 30247 40302 56012 60006 84100 91500=
07130,1997-01-31 18:00:00,1,1030.3,0.1,86,-1,2500,18.52,,,120,-0.6,2.9,,,,,,,,10,wg-a,,,,AAXX 31184 07130 12225 71210 10010 21010 30248 40303 53001 60006 71011 876// 91800 333 10029 21006=
07130,1997-01-31 21:00:00,0,1030.4,0.1,93,-1,2500,14.816,,,130,,,,,,,,,,10,wg-a,,,,AAXX 31214 07130 12225 71308 10000 21010 30249 40304 50001 60006 71022 876// 92100=
07130,1997-02-01 00:00:00,-1,1030.2,-0.2,93,-2,2500,18.52,,,120,,,,,,,,,,10,wg-a,,,,AAXX 01004 07130 12225 71210 11010 21020 30247 40302 56002 60006 71022 876// 90000=
07130,1997-02-01 03:00:00,-1,1029.8,-0.4,93,-2,2000,11.112,,,150,,,,,,,,,,10,wg-a,,,,AAXX 01034 07130 12220 71506 11010 21020 30243 40298 58004 60006 71022 876// 90300=
07130,1997-02-01 06:00:00,-1,1029.4,-0.4,93,-2,2000,11.112,,,130,-1,0.5,,,,,,,,10,wg-a,,,,AAXX 01064 07130 02220 81306 11010 21020 30239 40294 58004 60006 71022 886// 90600 333 10005 21010 60004=
07130,1997-02-01 09:00:00,0,1030,0.6,86,-2,2400,11.112,,,150,,,,,,,,,,10,wg-a,,,,AAXX 01094 07130 12224 81506 10000 21020 30245 40300 53006 60006 71022 886// 90900=
07130,1997-02-01 12:00:00,1,1029.8,-0.2,86,-1,3000,7.408,,,160,,,,,,,,,,10,wg-a,,,,AAXX 01124 07130 12330 81604 10010 21010 30243 40298 58002 60006 71022 886// 91200=
07130,1997-02-01 15:00:00,2,1029.2,-0.6,93,1,1400,7.408,,,190,,,,0,,,,,,10,wg-a,,,,AAXX 01154 07130 12314 81904 10020 20010 30237 40292 56006 60007 71065 885// 91500=
07130,1997-02-01 18:00:00,2,1029.1,-0.1,100,2,1400,3.704,,,170,-1,2.1,,,,,,,,10,wg-a,,,,AAXX 01184 07130 02214 81702 10020 20020 30236 40291 56001 60006 71065 887// 91800 333 10021 21010 61000=
07130,1997-02-01 21:00:00,2,1029.3,0.2,100,2,700,3.704,,,230,,,,,,,,,,10,wg-a,,,,AAXX 01214 07130 12/07 92302 10020 20020 30238 40293 52002 60006 71042 89/// 92100=
07130,1997-02-02 06:00:00,3,1026.9,-0.5,93,2,200,0,,,0,2.1,2.7,,,,,,,,45,wg-a,,,,AAXX 02064 07130 02/02 90000 10030 20020 30215 40269 58005 60006 74544 89/// 90600 333 10027 20021 60004=
07130,1997-02-02 09:00:00,3,1027.4,0.5,100,3,200,3.704,,,180,,,,,,,,,,45,wg-a,,,,AAXX 02094 07130 12/02 91802 10030 20030 30220 40274 53005 60006 74544 89/// 90900=
07130,1997-02-02 12:00:00,4,1027.9,0.5,100,4,1800,3.704,,,140,,,,,,,,,,10,wg-a,,,,AAXX 02124 07130 12118 81402 10040 20040 30225 40279 50005 60006 71042 885// 91200=
07130,1997-02-02 15:00:00,6,1027.4,-0.5,100,6,3500,0,,,0,,,,,,,,,,10,wg-a,,,,AAXX 02154 07130 02235 70000 10060 20060 30220 40274 56005 61000 71062 845// 91500 333 ////=
07130,1997-02-02 18:00:00,5,1028.6,1.2,100,5,4500,3.704,,,240,2.4,6.3,,,,,,,,10,wg-a,,,,AAXX 02184 07130 12445 82402 10050 20050 30232 40286 53012 60006 71062 8657/ 91800 333 10063 20024=
07130,1997-02-02 21:00:00,5,1029.4,0.8,93,4,3000,3.704,,,190,,,,,,,,,,10,wg-a,,,,AAXX 02214 07130 12430 /1902 10050 20040 30240 40294 50008 60006 71022 86530 92100=
07130,1997-02-03 00:00:00,5,1029.6,0.2,93,4,1200,3.704,,,270,,,,,,,,,,10,wg-a,,,,AAXX 03004 07130 12112 82702 10050 20040 30242 40296 52002 60006 71042 876// 90000=
07130,1997-02-03 03:00:00,5,1029.4,-0.2,100,5,1500,3.704,,,330,,,,,,,,,,10,wg-a,,,,AAXX 03034 07130 02115 83302 10050 20050 30240 40294 58002 61000 71062 877// 90300 333 ////=
07130,1997-02-03 06:00:00,5,1029.8,0.4,100,5,2000,11.112,,,10,4.1,5.7,,,,,,,,10,wg-a,,,,AAXX 03064 07130 02120 80106 10050 20050 30244 40298 53004 60006 71062 886// 90600 333 10057 20041 60004=
07130,1997-02-03 09:00:00,5,1030.6,0.8,100,5,1500,7.408,,,320,,,,,,,,,,10,wg-a,,,,AAXX 03094 07130 12215 83204 10050 20050 30252 40306 53008 60006 71042 885// 90900=
07130,1997-02-03 12:00:00,6,1030.5,-0.1,93,5,4000,3.704,,,290,,,,,,,,,,10,wg-a,,,,AAXX 03124 07130 12240 /2902 10060 20050 30251 40305 58001 60006 71042 875// 91200=
07130,1997-02-03 15:00:00,8,1029,-1.4,76,4,10000,7.408,,,250,,,,,,,,,,,wg-a,,,,AAXX 03154 07130 12560 72504 10080 20040 30237 40290 56014 60006 875// 91500=
07130,1997-02-03 18:00:00,5,1028.9,-0.2,81,2,10000,11.112,,,230,4.3,7.8,,,,,,,,,wg-a,,,,AAXX 03184 07130 12560 52306 10050 20020 30235 40289 55002 60006 82502 91800 333 10078 20043=
07130,1997-02-04 00:00:00,6,1024.3,-1.6,100,6,2500,22.224,,,200,2.5,5.8,,,,,,,,10,wg-a,,,,AAXX 04004 07130 02125 82012 10060 20060 30189 40243 56016 60006 71042 886// 90000 333 10058 20025 60004=
07130,1997-02-04 03:00:00,5,1025.9,-1.7,100,5,600,18.52,,,200,,,,,,,,,,44,wg-a,,,,AAXX 04034 07130 12106 82010 10050 20050 30205 40259 58017 60006 74442 886// 90300=
07130,1997-02-04 06:00:00,6,1024.3,-1.6,100,6,2500,22.224,,,200,2.5,5.8,,,,,,,,10,wg-a,,,,AAXX 04064 07130 02125 82012 10060 20060 30189 40243 56016 60006 71042 886// 90600 333 10058 20025 60004=
07130,1997-02-04 09:00:00,7,1023.5,-0.7,93,6,8000,25.928,,,200,,,,,,,,,,,wg-a,,,,AAXX 04094 07130 12258 72014 10070 20060 30182 40235 56007 60006 875// 90900=
07130,1997-02-04 12:00:00,9,1022,-1.5,87,7,14000,29.632,,,210,,,,,,,,,,,wg-a,,,,AAXX 04124 07130 12464 82116 10090 20070 30167 40220 58015 60006 878// 91200=
07130,1997-02-04 15:00:00,10,1019.5,-2.4,87,8,25000,29.632,,,230,,,,,,,,,,,wg-a,,,,AAXX 04154 07130 12475 82316 10100 20080 30143 40195 56024 60006 875// 91500=
07130,1997-02-04 18:00:00,9,1018.6,-1,93,8,15000,25.928,,,230,5.8,10.6,,,,,,,,60,wg-a,,,,AAXX 04184 07130 02465 82314 10090 20080 30133 40186 57010 61000 76062 8652/ 91800 333 10106 20058 6100=
07130,1997-02-04 21:00:00,9,1017.5,-1.1,93,8,12000,25.928,,,220,,,,0,,,,,,60,wg-a,,,,AAXX 04214 07130 12362 82214 10090 20080 30122 40175 58011 60007 76066 887// 92100=
07130,1997-02-05 00:00:00,10,1015.7,-1.7,100,10,6000,25.928,,,230,,,,1,,,,,,61,wg-a,,,,AAXX 05004 07130 02256 82314 10100 20100 30105 40157 56017 60016 76166 887// 90000 333 60017=
07130,1997-02-05 03:00:00,11,1014.6,-1.1,100,11,15000,22.224,,,250,,,,0,,,,,,21,wg-a,,,,AAXX 05034 07130 12365 82512 10110 20110 30094 40146 56011 60007 72162 885// 90300=
07130,1997-02-05 06:00:00,10,1017.7,3.1,87,8,20000,25.928,,,330,8.8,11.4,,,,,1,,,3,wg-a,,,,AAXX 05064 07130 02570 /3314 10100 20080 30125 40177 53031 60006 70362 86500 90600 333 10114 20088 60014=
07130,1997-02-05 09:00:00,9,1022,4.2,87,7,20000,18.52,,,310,,,,,,,,,,,wg-a,,,,AAXX 05094 07130 12570 /3110 10090 20070 30167 40220 53042 60006 86500 90900=
07130,1997-02-05 12:00:00,10,1025.3,3.3,66,4,20000,22.224,,,340,,,,,,,,,,,wg-a,,,,AAXX 05124 07130 12570 43412 10100 20040 30200 40253 51033 60006 84200 91200=
07130,1997-02-05 15:00:00,11,1026.8,1.5,62,4,20000,18.52,,,340,,,,,,,,,,,wg-a,,,,AAXX 05154 07130 12670 /3410 10110 20040 30215 40268 51015 60006 81200 91500=
07130,1997-02-05 18:00:00,8,1029.1,2.3,76,4,20000,3.704,,,130,7.7,11.4,,,,,,,,,wg-a,,,,AAXX 05184 07130 12/70 21302 10080 20040 30238 40291 51023 60006 80001 91800 333 10114 20077=
07130,1997-02-05 21:00:00,4,1030.8,1.6,93,3,25000,7.408,,,160,,,,,,,,,,,wg-a,,,,AAXX 05214 07130 12/75 01604 10040 20030 30254 40308 51016 60006 80000 92100=
07130,1997-02-06 00:00:00,5,1030.8,0,93,4,25000,7.408,,,140,,,,,,,,,,,wg-a,,,,AAXX 06004 07130 12/75 41404 10050 20040 30254 40308 50000 60006 80004 90000=
07130,1997-02-06 06:00:00,4,1030.4,-0.5,100,4,3000,11.112,,,200,3.6,7.7,,,,,,,,10,wg-a,,,,AAXX 06064 07130 02430 72006 10040 20040 30250 40304 55005 60006 71011 875// 90600 333 10077 20036 60004=
07130,1997-02-06 09:00:00,6,1030.7,0.3,93,5,7000,18.52,,,180,,,,,,,,,,,wg-a,,,,AAXX 06094 07130 12557 31810 10060 20050 30253 40307 50003 60006 82532 90900=
07130,1997-02-06 12:00:00,11,1029.8,-0.8,76,7,18000,22.224,,,190,,,,,,,,,,,wg-a,,,,AAXX 06124 07130 12568 21912 10110 20070 30245 40298 58008 60006 82801 91200=
07130,1997-02-06 15:00:00,10,1028.8,-1,87,8,8000,22.224,,,190,,,,,,,,,,20,wg-a,,,,AAXX 06154 07130 02358 81912 10100 20080 30235 40288 56010 61000 72051 878// 91500 333 ////=
07130,1997-02-06 18:00:00,10,1028.4,-0.4,87,8,9000,11.112,,,200,4.3,11.9,,,,,,,,1,wg-a,,,,AAXX 06184 07130 12659 82006 10100 20080 30231 40284 56004 60006 70151 875// 91800 333 10119 20043=
07130,1997-02-06 21:00:00,9,1027.9,-0.5,87,7,12000,18.52,,,170,,,,,,,,,,,wg-a,,,,AAXX 06214 07130 12662 81710 10090 20070 30226 40279 58005 60006 885// 92100=
07130,1997-02-07 00:00:00,9,1028.1,0.2,87,7,9000,7.408,,,170,,,,,,,,,,,wg-a,,,,AAXX 07004 07130 12459 81704 10090 20070 30228 40281 51002 60006 886// 90000=
07130,1997-02-07 03:00:00,7,1027.8,-0.3,87,5,9000,3.704,,,160,,,,,,,,,,,wg-a,,,,AAXX 07034 07130 12359 81602 10070 20050 30225 40278 58003 60006 885// 90300=
07130,1997-02-07 06:00:00,7,1027.7,-0.1,93,6,12000,7.408,,,180,7.2,9.9,,,,,,,,,wg-a,,,,AAXX 07064 07130 02662 81804 10070 20060 30224 40277 56001 60006 875// 90600 333 10099 20072 61000=
07130,1997-02-07 09:00:00,8,1029.2,1.5,87,6,9000,7.408,,,200,,,,,,,,,,,wg-a,,,,AAXX 07094 07130 12359 72004 10080 20060 30239 40292 51015 60006 877// 90900=
07130,1997-02-07 12:00:00,11,1029.9,0.7,82,8,9000,11.112,,,240,,,,,,,,,,,wg-a,,,,AAXX 07124 07130 12759 72406 10110 20080 30246 40299 51007 60006 875// 91200=
07130,1997-02-07 15:00:00,13,1029.2,-0.6,77,9,10000,14.816,,,230,,,,,,,,,,,wg-a,,,,AAXX 07154 07130 12760 62308 10130 20090 30240 40292 57006 60006 86500 91500=
07130,1997-02-07 18:00:00,11,1030.8,1.5,82,8,10000,7.408,,,200,7.1,13.2,,,,,,,,,wg-a,,,,AAXX 07184 07130 12760 52004 10110 20080 30255 40308 53015 60006 835/1 91800 333 10132 20071=
07130,1997-02-07 21:00:00,10,1032.2,1.4,93,9,8000,7.408,,,180,,,,,,,,,,,wg-a,,,,AAXX 07214 07130 12/58 /1804 10100 20090 30269 40322 51014 60006 85030 92100=
07130,1997-02-08 00:00:00,8,1032.7,0.4,93,7,4000,7.408,,,190,,,,,,,,,,10,wg-a,,,,AAXX 08004 07130 12440 /1904 10080 20070 30273 40327 52004 60006 71011 83630 90000=
07130,1997-02-08 03:00:00,7,1032.6,-0.1,100,7,300,3.704,,,180,,,,,,,,,,45,wg-a,,,,AAXX 08034 07130 12/03 91802 10070 20070 30272 40326 58001 60006 74542 89/// 90300=
07130,1997-02-08 06:00:00,6,1032.7,0.1,100,6,500,7.408,,,170,6.2,10.8,,,,,,,,43,wg-a,,,,AAXX 08064 07130 02/05 91704 10060 20060 30273 40327 52001 60006 74342 89/// 90600 333 10108 20062 60004=
07130,1997-02-08 09:00:00,5,1033.5,0.8,100,5,100,0,,,0,,,,,,,,,,45,wg-a,,,,AAXX 08094 07130 12/01 90000 10050 20050 30281 40335 53008 60006 74544 89/// 90900=
07130,1997-02-08 12:00:00,7,1033.1,-0.4,100,7,500,3.704,,,160,,,,,,,,,,42,wg-a,,,,AAXX 08124 07130 12105 91602 10070 20070 30277 40331 58004 60006 74244 89600 91200=
07130,1997-02-08 15:00:00,13,1031.4,-1.6,67,7,10000,3.704,,,180,,,,,,,,,,3,wg-a,,,,AAXX 08154 07130 12760 41802 10130 20070 30261 40314 56016 60006 70341 81542 91500=
07130,1997-02-08 18:00:00,10,1030.9,-0.5,82,7,9000,3.704,,,190,5.1,13.1,,,,,,,,2,wg-a,,,,AAXX 08184 07130 12/59 31902 10100 20070 30256 40309 56005 60006 70241 81041 91800 333 10131 20051=
07130,1997-02-08 21:00:00,7,1031.3,0.3,93,6,8000,7.408,,,160,,,,,,,,,,,wg-a,,,,AAXX 08214 07130 12/58 21604 10070 20060 30259 40313 51003 60006 82040 92100=
07130,1997-02-09 00:00:00,4,1031.1,-0.2,100,4,1200,3.704,,,80,,,,,,,,,,10,wg-a,,,,AAXX 09004 07130 12/12 00802 10040 20040 30257 40311 55002 60006 71000 80000 90000=
07130,1997-02-09 03:00:00,2,1030,-1.2,100,2,1500,0,,,0,,,,,,,,,,10,wg-a,,,,AAXX 09034 07130 12/15 00000 10020 20020 30245 40300 56012 60006 71000 80000 90300=
07130,1997-02-09 06:00:00,0,1029.2,-0.8,100,0,800,3.704,,,200,0.4,9.9,,,,,,,,41,wg-a,,,,AAXX 09064 07130 02/08 02002 10000 20000 30237 40292 56008 60006 74140 80000 90600 333 10099 20004 60004=
07130,1997-02-09 09:00:00,1,1030,0.8,100,1,200,3.704,,,270,,,,,,,,,,44,wg-a,,,,AAXX 09094 07130 12/02 02702 10010 20010 30245 40300 53008 60006 74444 80000 90900=
07130,1997-02-09 12:00:00,5,1029.3,-0.6,100,5,600,11.112,,,190,,,,,,,,,,42,wg-a,,,,AAXX 09124 07130 12706 81906 10050 20050 30239 40293 58006 60006 74244 875// 91200=
07130,1997-02-09 15:00:00,9,1027.9,-1.3,87,7,500,14.816,,,220,,,,,,,,,,3,wg-a,,,,AAXX 09154 07130 12300 72208 10090 20070 30226 40279 57013 60006 70342 87500 91500=
07130,1997-02-09 18:00:00,9,1028,0.1,87,7,3500,11.112,,,190,0.4,9,,,,,,,,10,wg-a,,,,AAXX 09184 07130 12535 71906 10090 20070 30227 40280 52001 60006 71042 87500 91800 333 10090 20004=
07130,1997-02-09 21:00:00,9,1027.2,-0.8,87,7,7000,11.112,,,190,,,,,,,,,,,wg-a,,,,AAXX 09214 07130 12557 71906 10090 20070 30219 40272 58008 60006 87500 92100=
07130,1997-02-10 00:00:00,9,1026.1,-1.1,93,8,6000,14.816,,,230,,,,,,,,,,,wg-a,,,,AAXX 10004 07130 12356 82308 10090 20080 30208 40261 56011 60006 88600 90000=
07130,1997-02-10 03:00:00,10,1023.3,-2.8,87,8,10000,29.632,,,220,,,,,,,,,,,wg-a,,,,AAXX 10034 07130 12460 82216 10100 20080 30180 40233 58028 60006 88600 90300=
07130,1997-02-10 06:00:00,10,1021,-2.3,87,8,10000,25.928,,,210,8,9.9,,,,,,,,,wg-a,,,,AAXX 10064 07130 02460 72114 10100 20080 30157 40210 58023 60006 87500 90600 333 10099 20080 60004=
07130,1997-02-10 09:00:00,11,1018.9,-2,87,9,8000,29.632,,,220,,,,,,,,,,,wg-a,,,,AAXX 10094 07130 12458 82216 10110 20090 30137 40189 56020 60006 875// 90900=
07130,1997-02-10 12:00:00,11,1017.7,-1.2,94,10,4500,35.188,,,230,,,,2,,,,,,61,wg-a,,,,AAXX 10124 07130 02345 82319 10110 20100 30125 40177 56012 60026 76162 885// 91200 333 60027=
07130,1997-02-10 15:00:00,12,1016.8,-0.9,94,11,15000,25.928,,,250,,,,2,,,,,,21,wg-a,,,,AAXX 10154 07130 12365 72514 10120 20110 30116 40168 55009 60027 72162 875// 91500=
07130,1997-02-10 18:00:00,10,1020.9,4,76,6,20000,14.816,,,330,9.5,12.7,,,,,,,,1,wg-a,,,,AAXX 10184 07130 02570 63308 10100 20060 30156 40209 53040 60006 70162 84501 91800 333 10127 20095 61000=
07130,1997-02-10 21:00:00,5,1023.6,2.6,87,3,15000,11.112,,,290,,,,,,,,,,,wg-a,,,,AAXX 10214 07130 12665 /2906 10050 20030 30182 40236 51026 60006 82531 92100=
07130,1997-02-11 00:00:00,6,1025.2,1.6,87,4,15000,7.408,,,220,,,,,,,,,,,wg-a,,,,AAXX 11004 07130 12/65 72204 10060 20040 30198 40252 51016 60006 82031 90000=
07130,1997-02-11 03:00:00,6,1025.3,0.1,87,4,15000,7.408,,,200,,,,,,,,,,,wg-a,,,,AAXX 11034 07130 12/65 72004 10060 20040 30199 40253 50001 60006 82031 90300=
07130,1997-02-11 06:00:00,6,1024.6,-0.7,87,4,20000,11.112,,,210,4.7,9.6,,,,,4,,,,wg-a,,,,AAXX 11064 07130 02/70 42106 10060 20040 30192 40246 56007 60006 82031 90600 333 10096 20047 60044=
07130,1997-02-11 09:00:00,7,1024.5,0,87,5,10000,18.52,,,200,,,,,,,,,,,wg-a,,,,AAXX 11094 07130 12560 82010 10070 20050 30192 40245 50000 60006 81572 90900=
07130,1997-02-11 12:00:00,9,1022.9,-1.6,93,8,9000,22.224,,,210,,,,0,,,,,,61,wg-a,,,,AAXX 11124 07130 02759 82112 10090 20080 30176 40229 58016 60006 76161 8252/ 91200 333 60007=
07130,1997-02-11 15:00:00,9,1019.2,-3.7,93,8,4000,29.632,,,210,,,,0,,,,,,60,wg-a,,,,AAXX 11154 07130 12240 82116 10090 20080 30139 40192 56037 60007 76062 877// 91500=
07130,1997-02-11 18:00:00,12,1018,-1.1,94,11,12000,25.928,,,260,5.2,12.1,,,,,,,,1,wg-a,,,,AAXX 11184 07130 02462 82614 10120 20110 30128 40180 55011 60006 70162 876// 91800 333 10121 20052 61000=
07130,1997-02-11 21:00:00,12,1018.5,0.5,88,10,12000,25.928,,,250,,,,,,,,,,,wg-a,,,,AAXX 11214 07130 12462 82514 10120 20100 30133 40185 53005 60006 887// 92100=
07130,1997-02-12 00:00:00,12,1018.9,0.4,88,10,15000,22.224,,,250,,,,,,,,,,,wg-a,,,,AAXX 12004 07130 12465 82512 10120 20100 30137 40189 51004 60006 875// 90000=
07130,1997-02-12 03:00:00,12,1018.7,-0.2,88,10,15000,25.928,,,250,,,,,,,,,,,wg-a,,,,AAXX 12034 07130 12465 82514 10120 20100 30135 40187 58002 60006 875// 90300=
07130,1997-02-12 06:00:00,12,1018.3,-0.4,88,10,12000,25.928,,,240,11.5,12.3,,,,,1,,,,wg-a,,,,AAXX 12064 07130 02462 82414 10120 20100 30131 40183 56004 60006 8657/ 90600 333 10123 20115 60014=
07130,1997-02-12 09:00:00,12,1017.3,-1,82,9,20000,25.928,,,230,,,,,,,,,,,wg-a,,,,AAXX 12094 07130 12470 72314 10120 20090 30121 40173 58010 60006 878// 90900=
07130,1997-02-12 12:00:00,13,1015.5,-1.8,77,9,25000,31.484,,,240,,,,,,,,,,,wg-a,,,,AAXX 12124 07130 12575 82417 10130 20090 30103 40155 56018 60006 888// 91200=
07130,1997-02-12 15:00:00,11,1012.3,-3.2,94,10,2500,31.484,,,230,,,,,,,,,,61,wg-a,,,,AAXX 12154 07130 02425 82317 10110 20100 30071 40123 56032 61000 76162 888// 91500 333 ////=
07130,1997-02-12 18:00:00,11,1009.1,-3.2,94,10,8000,29.632,,,240,10.8,13.1,,,,,,,,60,wg-a,,,,AAXX 12184 07130 02358 82416 10110 20100 30039 40091 56032 61000 76062 888// 91800 333 10131 20108 6003=
07130,1997-02-12 21:00:00,11,1009.1,-0,87,9,15000,29.632,,,260,,,,1,,,,,,25,wg-a,,,,AAXX 12214 07130 12465 /2616 10110 20090 30039 40091 55000 60017 72586 86800 92100=
07130,1997-02-13 00:00:00,10,1010.5,1.4,82,7,20000,25.928,,,260,,,,,,,,,,1,wg-a,,,,AAXX 13004 07130 12570 72614 10100 20070 30053 40105 51014 60016 70186 87800 90000=
07130,1997-02-13 03:00:00,10,1006.3,-4.2,87,8,10000,38.892,,66.672,250,,,,0,,,,,,61,wg-a,,,,AAXX 13034 07130 12260 72521 10100 20080 30011 40063 58042 60007 76162 878// 90300 333 91036=
07130,1997-02-13 06:00:00,7,1009.3,2.9,81,4,25000,38.892,,,290,6.9,11.4,,,,,,,,25,wg-a,,,,AAXX 13064 07130 02475 /2921 10070 20040 30040 40093 53029 61000 72561 86800 90600 333 10114 20069 6004=
07130,1997-02-13 09:00:00,7,1012.7,3.4,70,2,500,35.188,,,280,,,,,,,,,,,wg-a,,,,AAXX 13094 07130 12/00 22819 10070 20020 30074 40127 53034 60006 80002 90900=
07130,1997-02-13 18:00:00,8,1016.2,-0.4,76,4,500,14.816,,,240,5.5,9.9,,,,,,,,,wg-a,,,,AAXX 13184 07130 12500 72408 10080 20040 30109 40162 58004 60006 85502 91800 333 10099 20055=
07130,1997-02-13 21:00:00,7,1012.7,-3.5,87,5,10000,14.816,,,200,,,,,,,,,,60,wg-a,,,,AAXX 13214 07130 02660 82008 10070 20050 30074 40127 58035 61000 76062 8352/ 92100 333 ////=
07130,1997-02-14 00:00:00,6,1008.1,-4.6,93,5,9000,14.816,,,150,,,,4,,,,,,61,wg-a,,,,AAXX 14004 07130 02259 81508 10060 20050 30028 40081 58046 60046 76162 8352/ 90000 333 60047=
07130,1997-02-14 03:00:00,7,1003.5,-4.5,93,6,3500,11.112,,,160,,,,2,,,,,,21,wg-a,,,,AAXX 14034 07130 12335 81606 10070 20060 39983 40035 56045 60027 72162 846// 90300=
07130,1997-02-14 06:00:00,12,1002.3,-1.1,88,10,20000,18.52,,,260,5.9,11.7,,,,,6,,,1,wg-a,,,,AAXX 14064 07130 02570 /2610 10120 20100 39972 40023 55011 60006 70162 86500 90600 333 10117 20059 60064=
07130,1997-02-14 09:00:00,12,1002.9,0.6,88,10,15000,22.224,,,250,,,,,,,,,,1,wg-a,,,,AAXX 14094 07130 02565 72512 10120 20100 39978 40029 53006 61000 70186 878// 90900 333 ////=
07130,1997-02-14 12:00:00,13,1002.1,-0.8,88,11,13000,22.224,,,240,,,,,,,,,,3,wg-a,,,,AAXX 14124 07130 02563 72412 10130 20110 39970 40021 58008 61000 70386 878// 91200 333 ////=
07130,1997-02-14 15:00:00,12,999.8,-2.3,88,10,15000,22.224,,,260,,,,6,,,,,,25,wg-a,,,,AAXX 14154 07130 12565 72612 10120 20100 39947 49998 56023 60067 72586 86802 91500=
07130,1997-02-14 18:00:00,11,998.8,-1,94,10,6000,22.224,,,250,10.3,14.2,,,,,,,,80,wg-a,,,,AAXX 14184 07130 02456 82512 10110 20100 39937 49988 56010 61000 78086 878// 91800 333 10142 20103 6001=
07130,1997-02-14 21:00:00,10,1000,1.2,93,9,15000,11.112,,,260,,,,4,,,,,,1,wg-a,,,,AAXX 14214 07130 12465 82606 10100 20090 39949 40000 53012 60047 70186 8587/ 92100=
07130,1997-02-15 00:00:00,7,1006.6,6.5,87,5,15000,38.892,,,20,,,,1,,,,,,25,wg-a,,,,AAXX 15004 07130 02465 80221 10070 20050 30014 40066 53065 60056 72586 878// 90000 333 60017=
07130,1997-02-15 03:00:00,6,1014,7.3,81,3,15000,29.632,,,10,,,,,,,,,,,wg-a,,,,AAXX 15034 07130 12/65 00116 10060 20030 30087 40140 51073 60006 80000 90300=
07130,1997-02-15 06:00:00,5,1019.3,5.2,87,3,12000,18.52,,,350,4.7,10.9,,,,,11,,,,wg-a,,,,AAXX 15064 07130 02/62 03510 10050 20030 30139 40193 51052 60006 80000 90600 333 10109 20047 60114=
07130,1997-02-15 09:00:00,5,1023.9,4.6,87,3,20000,11.112,,,300,,,,,,,,,,,wg-a,,,,AAXX 15094 07130 12570 /3006 10050 20030 30185 40239 51046 60006 81200 90900=
07130,1997-02-15 12:00:00,9,1025.4,1.6,66,3,35000,11.112,,,340,,,,,,,,,,,wg-a,,,,AAXX 15124 07130 12581 43406 10090 20030 30201 40254 51016 60006 84200 91200=
07130,1997-02-15 15:00:00,10,1025.2,-0.2,57,2,40000,0,,,0,,,,,,,,,,,wg-a,,,,AAXX 15154 07130 12682 30000 10100 20020 30199 40252 58002 60006 83201 91500=
07130,1997-02-15 21:00:00,5,1025.1,-0.4,81,2,40000,7.408,,,180,,,,,,,,,,,wg-a,,,,AAXX 15214 07130 12/82 01804 10050 20020 30197 40251 57004 60006 80000 92100=
07130,1997-02-16 00:00:00,3,1024.3,-0.8,93,2,500,7.408,,,160,,,,,,,,,,,wg-a,,,,AAXX 16004 07130 12/00 01604 10030 20020 30189 40243 57008 60006 80000 90000=
07130,1997-02-16 03:00:00,3,1022.7,-1.6,87,1,35000,11.112,,,180,,,,,,,,,,,wg-a,,,,AAXX 16034 07130 12/81 01806 10030 20010 30173 40227 58016 60006 80000 90300=
07130,1997-02-16 06:00:00,3,1020.7,-2,87,1,20000,18.52,,,180,2.8,8.3,,,,,,,,,wg-a,,,,AAXX 16064 07130 02/70 41810 10030 20010 30153 40207 56020 60006 80002 90600 333 10083 20028 60004=
07130,1997-02-16 09:00:00,5,1019.6,-1,75,1,12000,22.224,,,170,,,,,,,,,,,wg-a,,,,AAXX 16094 07130 12662 71712 10050 20010 30143 40196 56010 60006 8457/ 90900=
07130,1997-02-16 12:00:00,6,1018.6,-1,87,4,8000,25.928,,,190,,,,,,,,,,,wg-a,,,,AAXX 16124 07130 12458 81914 10060 20040 30133 40186 56010 60006 885// 91200=
07130,1997-02-16 15:00:00,7,1017.2,-1.4,100,7,9000,22.224,,,190,,,,1,,,,,,21,wg-a,,,,AAXX 16154 07130 12359 81912 10070 20070 30119 40172 57014 60017 72162 876// 91500=
07130,1997-02-16 18:00:00,8,1017,-0.2,100,8,8000,14.816,,,200,3.1,9,,0,,,,,,1,wg-a,,,,AAXX 16184 07130 12458 22008 10080 20080 30117 40170 56002 60007 70186 82200 91800 333 10090 20031=
07130,1997-02-16 21:00:00,8,1017.6,0.6,100,8,10000,18.52,,,220,,,,,,,,,,,wg-a,,,,AAXX 16214 07130 12/60 02210 10080 20080 30123 40176 53006 60006 80000 92100=
07130,1997-02-17 00:00:00,7,1018.3,0.7,93,6,10000,11.112,,,210,,,,,,,,,,,wg-a,,,,AAXX 17004 07130 12/60 02106 10070 20060 30130 40183 50007 60006 80000 90000=
07130,1997-02-17 03:00:00,7,1018.7,0.4,93,6,10000,14.816,,,210,,,,,,,,,,,wg-a,,,,AAXX 17034 07130 12/60 52108 10070 20060 30134 40187 52004 60006 80001 90300=
07130,1997-02-17 06:00:00,6,1019.2,0.5,93,5,10000,11.112,,,200,6.1,8.4,,,,,1,,,,wg-a,,,,AAXX 17064 07130 02/60 62006 10060 20050 30139 40192 52005 60006 80001 90600 333 10084 20061 60014=
07130,1997-02-17 09:00:00,8,1020.4,1.2,93,7,10000,18.52,,,210,,,,,,,,,,,wg-a,,,,AAXX 17094 07130 12560 82110 10080 20070 30151 40204 53012 60006 8255/ 90900=
07130,1997-02-17 12:00:00,11,1019.9,-0.4,82,8,15000,25.928,,,230,,,,,,,,,,1,wg-a,,,,AAXX 17124 07130 02565 82314 10110 20080 30147 40199 56004 61000 70162 8317/ 91200 333 6100=
07130,1997-02-17 15:00:00,12,1018.4,-1.5,82,9,12000,29.632,,,230,,,,,,,,,,,wg-a,,,,AAXX 17154 07130 12562 82316 10120 20090 30132 40184 56015 60006 878// 91500=
07130,1997-02-17 18:00:00,10,1018.3,-0.1,93,9,6000,25.928,,,240,6.1,12.4,,,,,,,,61,wg-a,,,,AAXX 17184 07130 02456 82414 10100 20090 30131 40183 55001 61000 76162 877// 91800 333 10124 20061 6000=
07130,1997-02-17 21:00:00,11,1017.5,-0.8,87,9,10000,29.632,,,230,,,,0,,,,,,61,wg-a,,,,AAXX 17214 07130 12460 82316 10110 20090 30123 40175 57008 60007 76162 875// 92100=
07130,1997-02-18 00:00:00,11,1015.8,-1.7,94,10,6000,31.484,,,230,,,,0,,,,,,61,wg-a,,,,AAXX 18004 07130 02356 82317 10110 20100 30106 40158 58017 60016 76162 877// 90000 333 60007=
07130,1997-02-18 03:00:00,11,1014.1,-1.7,94,10,500,25.928,,,230,,,,1,,,,,,61,wg-a,,,,AAXX 18034 07130 12200 82314 10110 20100 30089 40141 57017 60017 76166 877// 90300=
07130,1997-02-18 06:00:00,12,1014.6,0.5,82,9,25000,31.484,,,270,10.1,11.9,,,,,,,,21,wg-a,,,,AAXX 18064 07130 02475 /2717 10120 20090 30094 40146 53005 61000 72162 86800 90600 333 10119 20101 6003=
07130,1997-02-18 09:00:00,10,1016.1,1.5,82,7,8000,35.188,,62.968,290,,,,1,,,,,,80,wg-a,,,,AAXX 18094 07130 12358 62919 10100 20070 30109 40161 53015 60017 78086 86800 90900 333 91034=
07130,1997-02-18 12:00:00,12,1018.5,2.4,54,3,500,46.3,,70.376,280,,,,0,,,,,,3,wg-a,,,,AAXX 18124 07130 02500 52825 10120 20030 30133 40185 53024 60016 70386 84840 91200 333 60007 91038=
07130,1997-02-18 15:00:00,10,1021.1,2.5,66,4,500,35.188,,,300,,,,1,,,,,,1,wg-a,,,,AAXX 18154 07130 12600 33019 10100 20040 30158 40211 51025 60017 70186 83201 91500=
07130,1997-02-18 18:00:00,7,1025.3,4.2,76,3,25000,25.928,,,290,6.8,12.7,,0,,,,,,3,wg-a,,,,AAXX 18184 07130 02575 /2914 10070 20030 30200 40253 53042 60006 70386 81901 91800 333 10127 20068 60007=
07130,1997-02-18 21:00:00,5,1029.6,4.2,87,3,10000,14.816,,,270,,,,,,,,,,,wg-a,,,,AAXX 18214 07130 32/60 /2708 10050 20030 30242 40296 51042 92100=
07130,1997-02-19 00:00:00,5,1031.5,1.9,87,3,25000,11.112,,,240,,,,,,,,,,2,wg-a,,,,AAXX 19004 07130 02/75 32406 10050 20030 30261 40315 53019 61000 70286 80001 90000 333 ////=
07130,1997-02-19 03:00:00,5,1030.9,-0.6,87,3,25000,11.112,,,220,,,,,,,,,,,wg-a,,,,AAXX 19034 07130 12/75 52206 10050 20030 30255 40309 58006 60006 81042 90300=
07130,1997-02-19 06:00:00,6,1029.2,-1.7,93,5,20000,14.816,,,190,3.9,7.6,,,,,2,,,,wg-a,,,,AAXX 19064 07130 02/70 81908 10060 20050 30238 40292 58017 60006 85072 90600 333 10076 20039 60024=
07130,1997-02-19 12:00:00,12,1024.7,-2.3,71,7,12000,35.188,,,220,,,,,,,,,,,wg-a,,,,AAXX 19124 07130 12562 82219 10120 20070 30195 40247 58023 60006 8572/ 91200=
07130,1997-02-19 18:00:00,11,1018.1,-3.1,94,10,6000,35.188,,55.56,240,5.9,12.6,,,,,,,,51,wg-a,,,,AAXX 19184 07130 02456 82419 10110 20100 30129 40181 56031 61000 75165 877// 91800 333 10126 20059 6000 91030=
07130,1997-02-19 21:00:00,12,1020,1.9,88,10,15000,25.928,,,260,,,,0,,,,,,25,wg-a,,,,AAXX 19214 07130 12565 /2614 10120 20100 30148 40200 53019 60007 72565 86500 92100=
07130,1997-02-20 00:00:00,10,1024.7,4.6,82,7,20000,14.816,,,260,,,,,,,,,,1,wg-a,,,,AAXX 20004 07130 12670 /2608 10100 20070 30194 40247 51046 60016 70186 85500 90000=
07130,1997-02-20 03:00:00,7,1026.9,2.2,87,5,20000,11.112,,,250,,,,,,,,,,,wg-a,,,,AAXX 20034 07130 12/70 02506 10070 20050 30216 40269 51022 60006 80000 90300=
07130,1997-02-20 06:00:00,6,1028.5,1.5,87,4,20000,11.112,,,230,5.4,12.1,,,,,1,,,,wg-a,,,,AAXX 20064 07130 02/70 02306 10060 20040 30231 40285 52015 60006 80000 90600 333 10121 20054 60014=
07130,1997-02-20 12:00:00,13,1029.1,-0.3,62,6,25000,22.224,,,240,,,,,,,,,,,wg-a,,,,AAXX 20124 07130 12575 42412 10130 20060 30238 40291 58003 60006 82131 91200=
07130,1997-02-20 15:00:00,13,1027.4,-1.6,54,4,25000,25.928,,,250,,,,,,,,,,,wg-a,,,,AAXX 20154 07130 12675 /2514 10130 20040 30222 40274 56016 60006 85100 91500=
07130,1997-02-20 18:00:00,11,1027.2,-0.3,76,7,25000,18.52,,,230,5.1,13.5,,,,,,,,,wg-a,,,,AAXX 20184 07130 12675 42310 10110 20070 30219 40272 55003 60006 84101 91800 333 10135 20051=
07130,1997-02-20 21:00:00,8,1027.5,0.3,93,7,20000,11.112,,,220,,,,,,,,,,,wg-a,,,,AAXX 20214 07130 12670 22206 10080 20070 30222 40275 51003 60006 82500 92100=
07130,1997-02-21 00:00:00,8,1027.5,0,93,7,20000,14.816,,,220,,,,,,,,,,,wg-a,,,,AAXX 21004 07130 12670 /2208 10080 20070 30222 40275 50000 60006 86500 90000=
07130,1997-02-21 03:00:00,8,1027.3,-0.2,93,7,20000,14.816,,,230,,,,,,,,,,,wg-a,,,,AAXX 21034 07130 12670 /2308 10080 20070 30220 40273 58002 60006 86500 90300=
07130,1997-02-21 06:00:00,8,1027.9,0.6,93,7,20000,11.112,,,220,7.3,10.6,,,,,,,,,wg-a,,,,AAXX 21064 07130 02670 32206 10080 20070 30226 40279 53006 60006 83500 90600 333 10106 20073 60004=
07130,1997-02-21 12:00:00,12,1030.7,1,82,9,25000,18.52,,,240,,,,,,,,,,,wg-a,,,,AAXX 21124 07130 12575 82410 10120 20090 30254 40307 51010 60006 875// 91200=
07130,1997-02-21 15:00:00,13,1030.6,-0.1,72,8,20000,14.816,,,240,,,,,,,,,,,wg-a,,,,AAXX 21154 07130 12670 82408 10130 20080 30253 40306 58001 60006 875// 91500=
07130,1997-02-21 18:00:00,11,1031.7,0.8,,,15000,11.112,,,230,8.2,12.8,,,,,,,,,wg-a,,,,AAXX 21184 07130 12565 82306 10110 2//// 30264 40317 53008 60006 875// 91800 333 10128 20082=
07130,1997-02-21 21:00:00,11,1031.8,0.4,87,9,10000,7.408,,,220,,,,,,,,,,,wg-a,,,,AAXX 21214 07130 12560 82204 10110 20090 30265 40318 50004 60006 885// 92100=
07130,1997-02-22 00:00:00,10,1031.7,-0.1,93,9,10000,11.112,,,220,,,,,,,,,,,wg-a,,,,AAXX 22004 07130 12560 82206 10100 20090 30264 40317 58001 60006 885// 90000=
07130,1997-02-22 03:00:00,10,1030.6,-1.1,93,9,10000,7.408,,,210,,,,,,,,,,,wg-a,,,,AAXX 22034 07130 12560 82104 10100 20090 30253 40306 57011 60006 885// 90300=
07130,1997-02-22 06:00:00,8,1029.5,-1.1,93,7,11000,3.704,,,210,8,11.5,,,,,,,,,wg-a,,,,AAXX 22064 07130 02561 82102 10080 20070 30242 40295 58011 60006 875// 90600 333 10115 20080 60004=
07130,1997-02-22 09:00:00,9,1029,-0.5,87,7,12000,3.704,,,170,,,,,,,,,,,wg-a,,,,AAXX 22094 07130 12562 71702 10090 20070 30237 40290 56005 60006 875// 90900=
07130,1997-02-22 12:00:00,12,1027.2,-1.7,67,6,18000,11.112,,,190,,,,,,,,,,,wg-a,,,,AAXX 22124 07130 12568 71906 10120 20060 30220 40272 58017 60006 85802 91200=
07130,1997-02-22 15:00:00,13,1024.4,-2.8,67,7,25000,7.408,,,260,,,,,,,,,,,wg-a,,,,AAXX 22154 07130 12575 72604 10130 20070 30192 40244 56028 60006 83102 91500=
07130,1997-02-22 18:00:00,11,1023,-1.4,71,6,20000,0,,,0,8.1,14.5,,,,,,,,,wg-a,,,,AAXX 22184 07130 12/70 70000 10110 20060 30178 40230 56014 60006 80002 91800 333 10145 20081=
07130,1997-02-22 21:00:00,9,1021.7,-1.4,81,6,15000,7.408,,,180,,,,,,,,,,,wg-a,,,,AAXX 22214 07130 12/65 21804 10090 20060 30164 40217 58014 60006 80002 92100=
07130,1997-02-23 00:00:00,7,1019.4,-2.3,93,6,15000,3.704,,,170,,,,,,,,,,,wg-a,,,,AAXX 23004 07130 12/65 51702 10070 20060 30141 40194 56023 60006 85030 90000=
07130,1997-02-23 03:00:00,7,1017.2,-2.2,93,6,12000,7.408,,,190,,,,,,,,,,,wg-a,,,,AAXX 23034 07130 12/62 61904 10070 20060 30119 40172 56022 60006 80002 90300=
07130,1997-02-23 06:00:00,8,1016.5,-0.7,100,8,6000,11.112,,,220,7.1,11.3,,,,,,,,,wg-a,,,,AAXX 23064 07130 02356 82206 10080 20080 30112 40165 56007 60006 885// 90600 333 10113 20071 60004=
07130,1997-02-23 09:00:00,11,1015.9,-0.5,87,9,9000,22.224,,,210,,,,,,,,,,,wg-a,,,,AAXX 23094 07130 12459 72112 10110 20090 30107 40159 56005 60006 83542 90900=
07130,1997-02-23 12:00:00,14,1014.1,-1.7,72,9,20000,35.188,,,220,,,,,,,,,,,wg-a,,,,AAXX 23124 07130 12570 /2219 10140 20090 30090 40141 58017 60006 85272 91200=
07130,1997-02-23 15:00:00,14,1011.7,-2.4,77,10,25000,29.632,,,220,,,,,,,,,,,wg-a,,,,AAXX 23154 07130 12575 72216 10140 20100 30066 40117 58024 60006 8527/ 91500=
07130,1997-02-23 18:00:00,12,1009.5,-2.3,88,10,8000,31.484,,,210,8.4,14.2,,,,,,,,21,wg-a,,,,AAXX 23184 07130 02458 82117 10120 20100 30043 40095 58023 61000 72162 8652/ 91800 333 10142 20084 6100=
07130,1997-02-24 00:00:00,12,1005.1,-2.8,88,10,9000,31.484,,,230,,,,0,,,,,,61,wg-a,,,,AAXX 24004 07130 02559 82317 10120 20100 30000 40051 57028 60016 76162 8657/ 90000 333 60007=
07130,1997-02-24 03:00:00,12,1003.3,-1.8,94,11,9000,35.188,,,230,,,,1,,,,,,61,wg-a,,,,AAXX 24034 07130 12459 82319 10120 20110 39982 40033 56018 60017 76166 887// 90300=
07130,1997-02-24 06:00:00,10,1003.4,-0,93,9,9000,18.52,,,240,9.6,12.3,,,,,,,,60,wg-a,,,,AAXX 24064 07130 02459 82410 10100 20090 39982 40034 55000 61000 76062 8657/ 90600 333 10123 20096 6004=
07130,1997-02-24 09:00:00,10,1003.6,0.2,93,9,10000,22.224,,,240,,,,0,,,,,,1,wg-a,,,,AAXX 24094 07130 12460 82412 10100 20090 39984 40036 53002 60007 70162 8787/ 90900=
07130,1997-02-24 12:00:00,11,1003,-0.5,87,9,7000,22.224,,,230,,,,0,,,,,,80,wg-a,,,,AAXX 24124 07130 02457 82312 10110 20090 39979 40030 58005 60016 78086 872// 91200 333 60007=
07130,1997-02-24 15:00:00,12,1000.3,-2.7,82,9,12000,38.892,,57.412,230,,,,0,,,,,,3,wg-a,,,,AAXX 24154 07130 12562 72321 10120 20090 39952 40003 58027 60007 70386 85172 91500 333 91031=
07130,1997-02-24 18:00:00,11,998.4,-1.9,94,10,7000,35.188,,57.412,220,9.2,12.4,,,,,,,,61,wg-a,,,,AAXX 24184 07130 02457 82219 10110 20100 39933 49984 58019 61000 76186 875// 91800 333 10124 20092 6001 91031=
07130,1997-02-24 21:00:00,13,997.6,-0.8,94,12,8000,38.892,,62.968,250,,,,2,,,,,,61,wg-a,,,,AAXX 24214 07130 12458 82521 10130 20120 39925 49976 55008 60027 76166 875// 92100 333 91034=
07130,1997-02-25 00:00:00,13,999.7,2.1,94,12,6000,38.892,,59.264,240,,,,0,,,,,,61,wg-a,,,,AAXX 25004 07130 02456 82421 10130 20120 39946 49997 51021 60026 76166 875// 90000 333 60007 91032=
07130,1997-02-25 03:00:00,12,1001,1.3,94,11,6000,29.632,,,250,,,,2,,,,,,61,wg-a,,,,AAXX 25034 07130 12256 82516 10120 20110 39959 40010 53013 60027 76166 875// 90300=
07130,1997-02-25 06:00:00,13,1001,-0,94,12,8000,35.188,,59.264,250,11.3,13.8,,,,,,,,61,wg-a,,,,AAXX 25064 07130 02458 82519 10130 20120 39959 40010 55000 61000 76166 875// 90600 333 10138 20113 6008 91032=
07130,1997-02-25 09:00:00,12,1003.3,2.3,100,12,7000,22.224,,,250,,,,6,,,,,,61,wg-a,,,,AAXX 25094 07130 12257 82512 10120 20120 39982 40033 52023 60067 76166 8352/ 90900=
07130,1997-02-25 12:00:00,11,1005.5,2.1,94,10,6000,11.112,,,270,,,,3,,,,,,61,wg-a,,,,AAXX 25124 07130 02356 82706 10110 20100 30003 40055 51021 60096 76166 855// 91200 333 60037=
07130,1997-02-25 15:00:00,11,1005.3,-0.1,100,11,10000,18.52,,,240,,,,4,,,,,,61,wg-a,,,,AAXX 25154 07130 12360 82410 10110 20110 30002 40053 55001 60047 76166 8352/ 91500=
07130,1997-02-25 18:00:00,10,1006.1,0.7,93,9,25000,18.52,,,230,10.1,13,,,,,,,,21,wg-a,,,,AAXX 25184 07130 02275 72310 10100 20090 30009 40061 53007 61000 72162 8457/ 91800 333 10130 20101 6001=
07130,1997-02-26 00:00:00,11,1009.3,1.8,82,8,8000,25.928,,48.152,250,,,,1,,,,,,25,wg-a,,,,AAXX 26004 07130 02558 72514 10110 20080 30041 40093 51018 60016 72586 878// 90000 333 60017 91026=
07130,1997-02-26 03:00:00,10,1010.9,1.6,76,6,8000,25.928,,,250,,,,,,,,,,,wg-a,,,,AAXX 26034 07130 12558 /2514 10100 20060 30057 40109 51016 60006 85800 90300=
07130,1997-02-26 06:00:00,9,1013.6,2.7,81,6,10000,22.224,,,270,8.7,12.1,,,,,15,,,,wg-a,,,,AAXX 26064 07130 02560 /2712 10090 20060 30084 40136 53027 60006 85200 90600 333 10121 20087 60154=
07130,1997-02-26 09:00:00,11,1016.1,2.5,76,7,15000,22.224,,,260,,,,,,,,,,,wg-a,,,,AAXX 26094 07130 12465 22612 10110 20070 30109 40161 53025 60006 82100 90900=
07130,1997-02-26 12:00:00,8,1018.1,1.9,93,7,6000,35.188,,83.34,290,,,,1,,,,,,27,wg-a,,,,AAXX 26124 07130 02556 62919 10080 20070 30128 40181 53019 60016 72787 85930 91200 333 60017 91045=
07130,1997-02-26 15:00:00,8,1020.6,2.5,87,6,20000,29.632,,,330,,,,1,,,,,,25,wg-a,,,,AAXX 26154 07130 12570 63316 10080 20060 30153 40206 53025 60017 72586 84902 91500=
07130,1997-02-26 18:00:00,9,1024.5,3.9,71,4,500,29.632,,,290,7.3,12.1,,,,,,,,1,wg-a,,,,AAXX 26184 07130 32600 32916 10090 20040 30192 40245 53039 70186 83200 91800 333 10121 20073=
07130,1997-02-27 00:00:00,6,1032.5,3.3,87,4,500,14.816,,,270,,,,,,,,,,,wg-a,,,,AAXX 27004 07130 12/00 02708 10060 20040 30271 40325 51033 60006 80000 90000=
07130,1997-02-27 03:00:00,4,1034.3,1.8,93,3,25000,7.408,,,230,,,,,,,,,,,wg-a,,,,AAXX 27034 07130 12/75 02304 10040 20030 30289 40343 51018 60006 80000 90300=
07130,1997-02-27 06:00:00,3,1035.3,0.9,93,2,20000,3.704,,,250,2.5,9.1,,,,,2,,,,wg-a,,,,AAXX 27064 07130 02/70 12502 10030 20020 30298 40353 51009 60006 80002 90600 333 10091 20025 60024=
07130,1997-02-27 09:00:00,7,1036.4,1.2,87,5,10000,11.112,,,210,,,,,,,,,,,wg-a,,,,AAXX 27094 07130 12760 72106 10070 20050 30310 40364 53012 60006 875// 90900=
07130,1997-02-27 12:00:00,13,1035.5,-0.8,62,6,25000,25.928,,,220,,,,,,,,,,,wg-a,,,,AAXX 27124 07130 12575 42214 10130 20060 30302 40355 58008 60006 81132 91200=
07130,1997-02-27 18:00:00,11,1032.7,-1.3,71,6,20000,18.52,,,200,2.4,13.8,,,,,,,,,wg-a,,,,AAXX 27184 07130 12/70 32010 10110 20060 30274 40327 58013 60006 80002 91800 333 10138 20024=
07130,1997-02-27 21:00:00,9,1031.6,-1.1,76,5,20000,22.224,,,170,,,,,,,,,,,wg-a,,,,AAXX 27214 07130 12/70 01712 10090 20050 30263 40316 58011 60006 80000 92100=
07130,1997-02-28 00:00:00,8,1030.5,-1.2,81,5,15000,14.816,,,180,,,,,,,,,,,wg-a,,,,AAXX 28004 07130 12/65 01808 10080 20050 30251 40305 56012 60006 80000 90000=
07130,1997-02-28 03:00:00,7,1028.8,-1.7,81,4,15000,7.408,,,180,,,,,,,,,,,wg-a,,,,AAXX 28034 07130 12/65 31804 10070 20040 30234 40288 56017 60006 83070 90300=
07130,1997-02-28 06:00:00,5,1028,-0.8,87,3,25000,7.408,,,190,5,10.6,,,,,,,,,wg-a,,,,AAXX 28064 07130 02/75 31904 10050 20030 30226 40280 56008 60006 82032 90600 333 10106 20050 60004=
07130,1997-02-28 09:00:00,8,1027.8,-0.1,76,4,500,18.52,,,170,,,,,,,,,,,wg-a,,,,AAXX 28094 07130 12/00 61710 10080 20040 30225 40278 58001 60006 80002 90900=
07130,1997-02-28 12:00:00,13,1026.8,-0.9,72,8,20000,14.816,,,220,,,,,,,,,,,wg-a,,,,AAXX 28124 07130 12/70 62208 10130 20080 30216 40268 56009 60006 80002 91200=
07130,1997-02-28 18:00:00,13,1025.9,0.7,82,10,16000,14.816,,,220,3.6,15.9,,,,,,,,,wg-a,,,,AAXX 28184 07130 12/66 72208 10130 20100 30207 40259 51007 60006 81042 91800 333 10159 20036=
07130,1997-02-28 21:00:00,11,1027.4,1.4,94,10,12000,14.816,,,230,,,,,,,,,,,wg-a,,,,AAXX 28214 07130 12662 72308 10110 20100 30221 40274 52014 60006 875// 92100=
07130,1997-03-01 00:00:00,11,1028,0.6,94,10,9000,11.112,,,350,,,,,,,,,,,wg-a,,,,AAXX 01004 07130 12259 83506 10110 20100 30227 40280 51006 60006 887// 90000=
07130,1997-03-01 06:00:00,11,1026.7,-0.6,94,10,25000,14.816,,,220,10,13.2,,,,,,,,,wg-a,,,,AAXX 01064 07130 02275 82208 10110 20100 30214 40267 58006 60006 887// 90600 333 10132 20100 60004=
07130,1997-03-01 09:00:00,11,1028,1.3,94,10,9000,11.112,,,240,,,,,,,,,,50,wg-a,,,,AAXX 01094 07130 02359 82406 10110 20100 30227 40280 51013 61000 75052 877// 90900 333 ////=
07130,1997-03-01 12:00:00,12,1026.9,-1,94,11,18000,22.224,,,220,,,,,,,,,,3,wg-a,,,,AAXX 01124 07130 02368 82212 10120 20110 30217 40269 56010 61000 70352 878// 91200 333 6100=
07130,1997-03-01 15:00:00,13,1025.6,-1.3,82,10,25000,22.224,,,230,,,,,,,,,,,wg-a,,,,AAXX 01154 07130 12475 72312 10130 20100 30204 40256 57013 60006 878// 91500=
07130,1997-03-01 18:00:00,12,1025.1,-0.5,88,10,20000,14.816,,,240,10.8,13.5,,,,,,,,,wg-a,,,,AAXX 01184 07130 12470 82408 10120 20100 30199 40251 56005 60006 885// 91800 333 10135 20108=
07130,1997-03-01 21:00:00,11,1024.7,-0.5,94,10,15000,14.816,,,230,,,,,,,,,,,wg-a,,,,AAXX 01214 07130 12365 82308 10110 20100 30194 40247 56005 60006 886// 92100=
07130,1997-03-02 00:00:00,10,1023.9,-0.8,93,9,10000,18.52,,,230,,,,,,,,,,,wg-a,,,,AAXX 02004 07130 12260 82310 10100 20090 30186 40239 56008 60006 886// 90000=
07130,1997-03-02 03:00:00,10,1022.8,-1.1,93,9,10000,18.52,,,220,,,,,,,,,,,wg-a,,,,AAXX 02034 07130 12260 82210 10100 20090 30175 40228 55011 60006 886// 90300=
07130,1997-03-02 06:00:00,11,1022.3,-0.4,94,10,12000,22.224,,,210,9.7,12.4,,,,,,,,1,wg-a,,,,AAXX 02064 07130 02562 82112 10110 20100 30171 40223 58004 60006 70152 875// 90600 333 10124 20097 61000=
07130,1997-03-02 09:00:00,13,1023.4,1.1,82,10,11000,29.632,,,230,,,,,,,,,,,wg-a,,,,AAXX 02094 07130 12/61 /2316 10130 20100 30182 40234 53011 60006 90900=
07130,1997-03-02 12:00:00,13,1024.9,1.5,94,12,500,22.224,,,240,,,,,,,,,,,wg-a,,,,AAXX 02124 07130 12400 82412 10130 20120 30197 40249 51015 60006 885// 91200=
07130,1997-03-02 15:00:00,14,1025.4,0.5,88,12,25000,14.816,,,250,,,,,,,,,,1,wg-a,,,,AAXX 02154 07130 02475 82508 10140 20120 30202 40254 53005 61000 70152 885// 91500 333 ////=
07130,1997-03-02 18:00:00,12,1027.5,2,88,10,1500,14.816,,,350,10.9,13.9,,,,,,,,58,wg-a,,,,AAXX 02184 07130 02315 83508 10120 20100 30222 40275 53020 61000 75865 887// 91800 333 10139 20109 6100=
07130,1997-03-02 21:00:00,9,1029.9,2.4,93,8,15000,7.408,,,100,,,,2,,,,,,20,wg-a,,,,AAXX 02214 07130 12465 81004 10090 20080 30246 40299 51024 60027 72065 887// 92100=
07130,1997-03-03 00:00:00,8,1030.7,0.8,100,8,11000,7.408,,,150,,,,,,,,,,,wg-a,,,,AAXX 03004 07130 12/61 /1504 10080 20080 30254 40307 50008 60026 90000=
07130,1997-03-03 03:00:00,8,1031,0.3,100,8,1500,7.408,,,70,,,,,,,,,,10,wg-a,,,,AAXX 03034 07130 02215 80704 10080 20080 30257 40310 52003 61000 71052 887// 90300 333 ////=
07130,1997-03-03 06:00:00,8,1031.3,0.3,100,8,800,11.112,,,100,8.3,11.4,,,,,,,,10,wg-a,,,,AAXX 03064 07130 02108 81006 10080 20080 30260 40313 51003 61000 71054 887// 90600 333 10114 20083 6002=
07130,1997-03-03 09:00:00,11,1031.8,0.5,100,11,4500,11.112,,,180,,,,,,,,,,10,wg-a,,,,AAXX 03094 07130 02445 71806 10110 20110 30265 40318 53005 61000 71054 875// 90900 333 ////=
07130,1997-03-03 12:00:00,14,1031.6,-0.1,82,11,15000,22.224,,,220,,,,,,,,,,2,wg-a,,,,AAXX 03124 07130 02465 72212 10140 20110 30264 40316 58001 61000 70254 878// 91200 333 ////=
07130,1997-03-03 15:00:00,15,1029.6,-2,77,11,20000,14.816,,,200,,,,,,,,,,,wg-a,,,,AAXX 03154 07130 12570 82008 10150 20110 30244 40296 58020 60006 8451/ 91500=
07130,1997-03-03 18:00:00,14,1029,-0.6,82,11,10000,11.112,,,200,8.4,15.4,,,,,,,,1,wg-a,,,,AAXX 03184 07130 02760 82006 10140 20110 30238 40290 55006 60006 70162 8257/ 91800 333 10154 20084 61000=
07130,1997-03-03 21:00:00,12,1028.3,-0.7,88,10,12000,14.816,,,220,,,,,,,,,,,wg-a,,,,AAXX 03214 07130 12762 72208 10120 20100 30231 40283 56007 60006 8153/ 92100=
07130,1997-03-04 00:00:00,11,1026.8,-1.6,94,10,12000,22.224,,,220,,,,,,,,,,,wg-a,,,,AAXX 04004 07130 12362 82212 10110 20100 30215 40268 57016 60006 8553/ 90000=
07130,1997-03-04 03:00:00,11,1026.9,0.1,87,9,10000,11.112,,,260,,,,,,,,,,,wg-a,,,,AAXX 04034 07130 12460 82606 10110 20090 30216 40269 50001 60006 875// 90300=
07130,1997-03-04 06:00:00,11,1026.1,-0.8,87,9,8000,7.408,,,170,10.5,14.1,,,,,,,,,wg-a,,,,AAXX 04064 07130 02358 81704 10110 20090 30208 40261 58008 60006 885// 90600 333 10141 20105 61000=
07130,1997-03-04 09:00:00,11,1027,0.9,94,10,500,14.816,,,210,,,,,,,,,,,wg-a,,,,AAXX 04094 07130 12300 82108 10110 20100 30217 40270 53009 60006 886// 90900=
07130,1997-03-04 12:00:00,12,1026,-0.9,94,11,7000,22.224,,,210,,,,0,,,,,,21,wg-a,,,,AAXX 04124 07130 02257 82112 10120 20110 30208 40260 56009 60016 72165 887// 91200 333 60007=
07130,1997-03-04 15:00:00,14,1024.5,-1.5,77,10,500,22.224,,,230,,,,,,,,,,,wg-a,,,,AAXX 04154 07130 12500 62312 10140 20100 30193 40245 56015 60006 86800 91500=
07130,1997-03-04 18:00:00,11,1026.4,1.8,82,8,500,18.52,,,280,10.5,14.6,,,,,,,,,wg-a,,,,AAXX 04184 07130 12500 82810 10110 20080 30211 40264 53018 60006 888// 91800 333 10146 20105=
07130,1997-03-04 21:00:00,10,1028.1,1.7,82,7,20000,11.112,,,300,,,,,,,,,,,wg-a,,,,AAXX 04214 07130 12570 83006 10100 20070 30228 40281 51017 60006 878// 92100=
07130,1997-03-05 00:00:00,9,1028.4,0.3,81,6,15000,11.112,,,270,,,,,,,,,,,wg-a,,,,AAXX 05004 07130 12565 82706 10090 20060 30231 40284 51003 60006 875// 90000=
07130,1997-03-05 03:00:00,9,1028.7,0.3,81,6,10000,11.112,,,260,,,,,,,,,,,wg-a,,,,AAXX 05034 07130 12560 82606 10090 20060 30234 40287 51003 60006 875// 90300=
07130,1997-03-05 06:00:00,8,1029.4,0.7,81,5,12000,7.408,,,260,8.1,10.7,,,,,,,,,wg-a,,,,AAXX 05064 07130 02662 82604 10080 20050 30241 40294 52007 60006 875// 90600 333 10107 20081 60004=
07130,1997-03-05 09:00:00,9,1030.5,1.1,76,5,20000,11.112,,,240,,,,,,,,,,,wg-a,,,,AAXX 05094 07130 12670 82406 10090 20050 30252 40305 53011 60006 885// 90900=
07130,1997-03-05 12:00:00,11,1030,-0.5,76,7,35000,14.816,,,250,,,,,,,,,,,wg-a,,,,AAXX 05124 07130 12581 82508 10110 20070 30247 40300 55005 60006 885// 91200=
07130,1997-03-05 15:00:00,12,1029.1,-0.9,82,9,40000,14.816,,,210,,,,,,,,,,,wg-a,,,,AAXX 05154 07130 12482 82108 10120 20090 30238 40291 56009 60006 885// 91500=
07130,1997-03-05 18:00:00,11,1029.1,-0,94,10,500,14.816,,,220,8.1,12,,,,,,,,,wg-a,,,,AAXX 05184 07130 12/00 /2208 10110 20100 30238 40291 55000 60006 91800 333 10120 20081=
07130,1997-03-06 00:00:00,11,1029.5,0.4,100,11,0,7.408,,,240,,,,,,,,,,,wg-a,,,,AAXX 06004 07130 12/// /2404 10110 20110 30242 40295 52004 60016 90000=
07130,1997-03-06 06:00:00,10,1030,0.3,100,10,9000,3.704,,,220,10,11.1,,,,,1,,,1,wg-a,,,,AAXX 06064 07130 02559 /2202 10100 20100 30247 40300 53003 60006 70122 86500 90600 333 10111 20100 60014=
07130,1997-03-06 09:00:00,11,1031.8,1.8,87,9,11000,11.112,,,350,,,,,,,,,,1,wg-a,,,,AAXX 06094 07130 02361 73506 10110 20090 30265 40318 51018 61000 70152 878// 90900 333 ////=
07130,1997-03-06 12:00:00,13,1031.9,0.1,82,10,17000,3.704,,,290,,,,,,,,,,1,wg-a,,,,AAXX 06124 07130 02467 72902 10130 20100 30266 40319 51001 61000 70152 878// 91200 333 ////=
07130,1997-03-06 15:00:00,16,1030.6,-1.2,68,10,25000,3.704,,,80,,,,,,,,,,,wg-a,,,,AAXX 06154 07130 12575 60802 10160 20100 30254 40306 56012 60006 86800 91500=
07130,1997-03-06 18:00:00,14,1030.4,-0.2,77,10,25000,3.704,,,120,9.8,15.7,,,,,,,,,wg-a,,,,AAXX 06184 07130 12575 41202 10140 20100 30252 40304 55002 60006 83801 91800 333 10157 20098=
07130,1997-03-07 00:00:00,8,1031.2,-0.2,100,8,0,7.408,,,220,,,,,,,,,,,wg-a,,,,AAXX 07004 07130 12/// /2204 10080 20080 30259 40312 58002 60006 90000=
07130,1997-03-07 06:00:00,6,1030.6,-0.3,100,6,200,3.704,,,170,5.9,13.9,,,,,,,,45,wg-a,,,,AAXX 07064 07130 02/02 91702 10060 20060 30252 40306 56003 60006 74544 89/// 90600 333 10139 20059 60004=
07130,1997-03-07 09:00:00,6,1030.8,0.2,100,6,200,3.704,,,170,,,,,,,,,,45,wg-a,,,,AAXX 07094 07130 12/02 91702 10060 20060 30254 40308 52002 60006 74544 89/// 90900=
07130,1997-03-07 12:00:00,13,1030.2,-0.4,88,11,7000,11.112,,,200,,,,,,,,,,1,wg-a,,,,AAXX 07124 07130 12457 /2006 10130 20110 30250 40302 58004 60006 70141 83101 91200=
07130,1997-03-07 15:00:00,17,1028.8,-1.4,59,9,15000,11.112,,,210,,,,,,,,,,,wg-a,,,,AAXX 07154 07130 12565 22106 10170 20090 30236 40288 56014 60006 81102 91500=
07130,1997-03-07 18:00:00,14,1028.7,-0.1,72,9,10000,3.704,,,180,5.2,16.6,,,,,,,,,wg-a,,,,AAXX 07184 07130 12/60 31802 10140 20090 30235 40287 55001 60006 80001 91800 333 10166 20052=
07130,1997-03-07 21:00:00,10,1030.2,1.4,87,8,10000,3.704,,,130,,,,,,,,,,,wg-a,,,,AAXX 07214 07130 12/60 01302 10100 20080 30249 40302 51014 60006 80000 92100=
07130,1997-03-08 00:00:00,7,1030.8,0.5,100,7,8000,0,,,0,,,,,,,,,,,wg-a,,,,AAXX 08004 07130 12/58 00000 10070 20070 30254 40308 51005 60006 80000 90000=
07130,1997-03-08 03:00:00,5,1031.7,0.9,100,5,100,3.704,,,320,,,,,,,,,,44,wg-a,,,,AAXX 08034 07130 12/01 03202 10050 20050 30263 40317 53009 60006 74440 80000 90300=
07130,1997-03-08 06:00:00,5,1033.1,1.4,100,5,100,3.704,,,320,4.3,14.1,,,,,,,,45,wg-a,,,,AAXX 08064 07130 02/01 93202 10050 20050 30277 40331 53014 60006 74541 89/// 90600 333 10141 20043 60004=
07130,1997-03-08 09:00:00,8,1034,0.9,100,8,100,3.704,,,130,,,,,,,,,,45,wg-a,,,,AAXX 08094 07130 12/01 91302 10080 20080 30286 40340 53009 60006 74544 89/// 90900=
07130,1997-03-08 12:00:00,12,1033.9,0,88,10,500,3.704,,,330,,,,,,,,,,1,wg-a,,,,AAXX 08124 07130 12/00 33302 10120 20100 30286 40339 50000 60006 70141 80001 91200=
07130,1997-03-08 15:00:00,16,1032.6,-1.2,63,9,10000,3.704,,,120,,,,,,,,,,,wg-a,,,,AAXX 08154 07130 12560 /1202 10160 20090 30274 40326 56012 60006 81102 91500=
07130,1997-03-08 18:00:00,15,1032.6,-0,72,10,6000,3.704,,,360,5.4,16.7,,,,,,,,,wg-a,,,,AAXX 08184 07130 12/56 23602 10150 20100 30274 40326 55000 60006 81032 91800 333 10167 20054=
07130,1997-03-08 21:00:00,9,1032.9,0.2,93,8,6000,3.704,,,270,,,,,,,,,,,wg-a,,,,AAXX 08214 07130 12/56 02702 10090 20080 30276 40329 51002 60006 80000 92100=
07130,1997-03-09 00:00:00,7,1032.6,-0.4,100,7,3000,3.704,,,20,,,,,,,,,,10,wg-a,,,,AAXX 09004 07130 12/30 00202 10070 20070 30272 40326 58004 60006 71000 80000 90000=
07130,1997-03-09 03:00:00,5,1032,-0.6,100,5,1200,3.704,,,20,,,,,,,,,,10,wg-a,,,,AAXX 09034 07130 12/12 00202 10050 20050 30266 40320 58006 60006 71000 80000 90300=
07130,1997-03-09 06:00:00,3,1031.8,-0.2,100,3,100,0,,,0,3.2,14.7,,,,,,,,45,wg-a,,,,AAXX 09064 07130 02/01 90000 10030 20030 30264 40318 55002 60006 74541 89/// 90600 333 10147 20032 60004=
07130,1997-03-09 09:00:00,5,1032.3,0.5,100,5,200,3.704,,,290,,,,,,,,,,42,wg-a,,,,AAXX 09094 07130 12/02 02902 10050 20050 30269 40323 51005 60006 74244 80000 90900=
07130,1997-03-09 12:00:00,15,1031.3,-0.8,63,8,500,11.112,,,140,,,,,,,,,,2,wg-a,,,,AAXX 09124 07130 12/00 01406 10150 20080 30261 40313 58008 60006 70241 80000 91200=
07130,1997-03-09 15:00:00,17,1029.6,-1.7,52,7,10000,7.408,,,110,,,,,,,,,,,wg-a,,,,AAXX 09154 07130 12/60 01104 10170 20070 30244 40296 56017 60006 80000 91500=
07130,1997-03-09 18:00:00,15,1029.9,0.3,63,8,8000,3.704,,,130,2.5,17.4,,,,,,,,,wg-a,,,,AAXX 09184 07130 12/58 01302 10150 20080 30247 40299 53003 60006 80000 91800 333 10174 20025=
07130,1997-03-09 21:00:00,11,1030.2,0.2,82,8,8000,3.704,,,130,,,,,,,,,,,wg-a,,,,AAXX 09214 07130 12/58 01302 10110 20080 30249 40302 51002 60006 80000 92100=
07130,1997-03-10 00:00:00,7,1030.3,0,93,6,6000,0,,,0,,,,,,,,,,,wg-a,,,,AAXX 10004 07130 12/56 00000 10070 20060 30249 40303 50000 60006 80000 90000=
07130,1997-03-10 03:00:00,5,1030.2,-0.1,93,4,4000,0,,,0,,,,,,,,,,10,wg-a,,,,AAXX 10034 07130 12/40 00000 10050 20040 30248 40302 58001 60006 71000 80000 90300=
07130,1997-03-10 06:00:00,2,1031.5,1.2,93,1,300,0,,,0,1.6,14.6,,,,,,,,41,wg-a,,,,AAXX 10064 07130 02/03 00000 10020 20010 30260 40315 53012 60006 74140 80000 90600 333 10146 20016 60004=
07130,1997-03-10 09:00:00,9,1032.4,1.1,93,8,3500,7.408,,,120,,,,,,,,,,10,wg-a,,,,AAXX 10094 07130 12/35 01204 10090 20080 30271 40324 51011 60006 71040 80000 90900=
07130,1997-03-10 12:00:00,18,1031.8,-0.5,56,9,9000,7.408,,,120,,,,,,,,,,2,wg-a,,,,AAXX 10124 07130 12/59 01204 10180 20090 30266 40318 58005 60006 70240 80000 91200=
07130,1997-03-10 15:00:00,21,1030.5,-1.2,49,10,15000,11.112,,,140,,,,,,,,,,,wg-a,,,,AAXX 10154 07130 12/65 01406 10210 20100 30254 40305 56012 60006 80000 91500=
07130,1997-03-10 18:00:00,17,1030.7,0.1,63,10,10000,7.408,,,100,1.1,20.8,,,,,,,,,wg-a,,,,AAXX 10184 07130 12/60 01004 10170 20100 30255 40307 53001 60006 80000 91800 333 10208 20011=
07130,1997-03-10 21:00:00,13,1031.7,0.9,72,8,10000,3.704,,,110,,,,,,,,,,,wg-a,,,,AAXX 10214 07130 12/60 01102 10130 20080 30264 40317 51009 60006 80000 92100=
07130,1997-03-11 00:00:00,8,1031.8,0.1,87,6,10000,3.704,,,90,,,,,,,,,,,wg-a,,,,AAXX 11004 07130 12/60 00902 10080 20060 30265 40318 50001 60006 80000 90000=
07130,1997-03-11 03:00:00,6,1031.3,-0.6,93,5,8000,3.704,,,310,,,,,,,,,,11,wg-a,,,,AAXX 11034 07130 12/58 03102 10060 20050 30259 40313 58006 60006 71100 80000 90300=
07130,1997-03-11 06:00:00,4,1031.6,0.3,93,3,1100,0,,,0,3.4,17.2,,,,,,,,40,wg-a,,,,AAXX 11064 07130 02/11 00000 10040 20030 30262 40316 51003 60006 74000 80000 90600 333 10172 20034 60004=
07130,1997-03-11 09:00:00,11,1032,0.5,76,7,8000,11.112,,,130,,,,,,,,,,,wg-a,,,,AAXX 11094 07130 12/58 /1306 10110 20070 30267 40320 51005 60006 90900=
07130,1997-03-11 12:00:00,17,1031.6,-0.3,52,7,12000,14.816,,,140,,,,,,,,,,2,wg-a,,,,AAXX 11124 07130 12/62 01408 10170 20070 30264 40316 58003 60006 70240 80000 91200=
07130,1997-03-11 15:00:00,20,1029.9,-1.6,43,7,15000,14.816,,,120,,,,,,,,,,,wg-a,,,,AAXX 11154 07130 12/65 11208 10200 20070 30248 40299 56016 60006 80001 91500=
07130,1997-03-11 18:00:00,17,1029.9,-0.1,55,8,8000,3.704,,,110,2.7,19.8,,,,,,,,,wg-a,,,,AAXX 11184 07130 12/58 21102 10170 20080 30247 40299 55001 60006 80001 91800 333 10198 20027=
07130,1997-03-11 21:00:00,10,1030.5,0.5,82,7,15000,3.704,,,280,,,,,,,,,,,wg-a,,,,AAXX 11214 07130 12/65 22802 10100 20070 30252 40305 52005 60006 80001 92100=
07130,1997-03-12 00:00:00,7,1030.4,-0.2,93,6,6000,0,,,0,,,,,,,,,,,wg-a,,,,AAXX 12004 07130 12/56 00000 10070 20060 30250 40304 58002 60006 80000 90000=
07130,1997-03-12 03:00:00,5,1029.9,-0.5,93,4,500,0,,,0,,,,,,,,,,11,wg-a,,,,AAXX 12034 07130 12/00 00000 10050 20040 30245 40299 58005 60006 71100 80000 90300=
07130,1997-03-12 06:00:00,3,1030.1,0.2,100,3,300,0,,,0,3,16.6,,,,,,,,41,wg-a,,,,AAXX 12064 07130 02/03 00000 10030 20030 30247 40301 53002 60006 74140 80000 90600 333 10166 20030 60004=
07130,1997-03-12 09:00:00,7,1031.3,1.2,100,7,1500,0,,,0,,,,,,,,,,10,wg-a,,,,AAXX 12094 07130 12/15 00000 10070 20070 30259 40313 53012 60006 71040 80000 90900=
07130,1997-03-12 12:00:00,14,1032.3,1.2,82,11,10000,14.816,,,360,,,,,,,,,,3,wg-a,,,,AAXX 12124 07130 12460 /3608 10140 20110 30271 40323 53012 60006 70341 85100 91200=
07130,1997-03-12 15:00:00,11,1032.6,0.2,87,9,12000,14.816,,,10,,,,,,,,,,,wg-a,,,,AAXX 12154 07130 12362 80108 10110 20090 30273 40326 53002 60006 886// 91500=
07130,1997-03-12 18:00:00,11,1032.6,-0,87,9,12000,11.112,,,350,2.4,14.6,,,,,,,,,wg-a,,,,AAXX 12184 07130 12462 63506 10110 20090 30273 40326 55000 60006 83502 91800 333 10146 20024=
07130,1997-03-12 21:00:00,8,1033.4,0.7,87,6,10000,3.704,,,10,,,,,,,,,,,wg-a,,,,AAXX 12214 07130 12/60 20102 10080 20060 30280 40334 51007 60006 80002 92100=
07130,1997-03-13 00:00:00,5,1033.5,0.1,93,4,300,0,,,0,,,,,,,,,,44,wg-a,,,,AAXX 13004 07130 12/03 00000 10050 20040 30281 40335 52001 60006 74441 80000 90000=
07130,1997-03-13 03:00:00,5,1033,-0.5,100,5,200,3.704,,,300,,,,,,,,,,45,wg-a,,,,AAXX 13034 07130 12/02 93002 10050 20050 30276 40330 56005 60006 74544 89/// 90300=
07130,1997-03-13 06:00:00,4,1032.9,-0.1,100,4,200,3.704,,,200,3.2,11.3,,,,,,,,45,wg-a,,,,AAXX 13064 07130 02/02 92002 10040 20040 30275 40329 55001 60006 74544 89/// 90600 333 10113 20032 60004=
07130,1997-03-13 09:00:00,5,1033.5,0.6,100,5,200,3.704,,,270,,,,,,,,,,43,wg-a,,,,AAXX 13094 07130 12/02 92702 10050 20050 30281 40335 53006 60006 74344 89/// 90900=
07130,1997-03-13 12:00:00,9,1032.4,-1,,,6000,3.704,,,310,,,,,,,,,,1,wg-a,,,,AAXX 13124 07130 12256 33102 10090 2//// 30271 40324 58010 60006 70141 83100 91200=
07130,1997-03-13 15:00:00,14,1030.1,-2.2,67,8,20000,3.704,,,330,,,,,,,,,,,wg-a,,,,AAXX 13154 07130 12570 23302 10140 20080 30249 40301 57022 60006 81101 91500=
07130,1997-03-13 18:00:00,12,1029.5,-0.7,76,8,12000,7.408,,,170,4.4,15,,,,,,,,,wg-a,,,,AAXX 13184 07130 12562 /1704 10120 20080 30242 40295 56007 60006 85502 91800 333 10150 20044=
07130,1997-03-13 21:00:00,8,1029.5,0,87,6,8000,11.112,,,30,,,,,,,,,,,wg-a,,,,AAXX 13214 07130 12558 /0306 10080 20060 30242 40295 50000 60006 81502 92100=
07130,1997-03-14 00:00:00,7,1028.7,-0.9,93,6,8000,3.704,,,190,,,,,,,,,,,wg-a,,,,AAXX 14004 07130 12458 81902 10070 20060 30233 40287 58009 60006 879// 90000=
07130,1997-03-14 06:00:00,7,1027.4,-0.5,93,6,7000,7.408,,,220,6.1,12.2,,,,,,,,,wg-a,,,,AAXX 14064 07130 02557 72204 10070 20060 30221 40274 56005 60006 875// 90600 333 10122 20061 60004=
07130,1997-03-14 09:00:00,10,1027.7,0.3,93,9,500,11.112,,,240,,,,,,,,,,20,wg-a,,,,AAXX 14094 07130 02300 72406 10100 20090 30224 40277 51003 61000 72022 8553/ 90900 333 ////=
07130,1997-03-14 12:00:00,13,1027.2,-0.4,82,10,17000,18.52,,,290,,,,,,,,,,1,wg-a,,,,AAXX 14124 07130 02567 72910 10130 20100 30220 40272 58004 61000 70152 878// 91200 333 ////=
07130,1997-03-14 15:00:00,15,1026.3,-0.9,72,10,20000,22.224,,,320,,,,,,,,,,,wg-a,,,,AAXX 14154 07130 12570 /3212 10150 20100 30211 40263 56009 60006 85230 91500=
07130,1997-03-14 18:00:00,13,1026.8,0.5,72,8,20000,11.112,,,350,7.2,16.2,,,,,,,,,wg-a,,,,AAXX 14184 07130 12670 53506 10130 20080 30216 40268 53005 60006 83531 91800 333 10162 20072=
07130,1997-03-14 21:00:00,12,1028.2,1.3,82,9,20000,3.704,,,300,,,,,,,,,,,wg-a,,,,AAXX 14214 07130 12470 73002 10120 20090 30229 40282 51013 60006 875// 92100=
07130,1997-03-15 00:00:00,12,1028.3,0.1,94,11,10000,3.704,,,260,,,,,,,,,,,wg-a,,,,AAXX 15004 07130 12260 82602 10120 20110 30230 40283 50001 60006 886// 90000=
07130,1997-03-15 06:00:00,11,1028.8,0.8,100,11,500,11.112,,,320,11.2,13.3,,,,,,,,50,wg-a,,,,AAXX 15064 07130 02200 83206 10110 20110 30235 40288 53008 61000 75052 887// 90600 333 10133 20112 6100=
07130,1997-03-15 09:00:00,12,1029.8,1,88,10,20000,11.112,,,300,,,,0,,,,,,1,wg-a,,,,AAXX 15094 07130 12470 83006 10120 20100 30245 40298 51010 60007 70152 888// 90900=
07130,1997-03-15 12:00:00,13,1030,0.2,72,8,40000,22.224,,,320,,,,,,,,,,1,wg-a,,,,AAXX 15124 07130 12582 83212 10130 20080 30247 40300 50002 60006 70152 888// 91200=
07130,1997-03-15 15:00:00,14,1029.5,-0.4,63,7,40000,14.816,,,340,,,,,,,,,,,wg-a,,,,AAXX 15154 07130 12682 73408 10140 20070 30243 40295 56004 60006 875// 91500=
07130,1997-03-15 18:00:00,12,1030,0.4,82,9,40000,11.112,,,10,10.8,13.8,,,,,,,,,wg-a,,,,AAXX 15184 07130 12682 70106 10120 20090 30247 40300 53004 60006 84501 91800 333 10138 20108=
07130,1997-03-15 21:00:00,8,1030.9,0.9,93,7,35000,0,,,0,,,,,,,,,,,wg-a,,,,AAXX 15214 07130 12/81 30000 10080 20070 30256 40309 51009 60006 80001 92100=
07130,1997-03-16 00:00:00,8,1031.3,0.4,93,7,12000,3.704,,,310,,,,,,,,,,,wg-a,,,,AAXX 16004 07130 12562 73102 10080 20070 30260 40313 51004 60006 85502 90000=
07130,1997-03-16 03:00:00,9,1030.7,-0.6,93,8,10000,3.704,,,280,,,,,,,,,,,wg-a,,,,AAXX 16034 07130 12360 82802 10090 20080 30254 40307 58006 60006 875// 90300=
07130,1997-03-16 06:00:00,9,1031.1,0.4,93,8,4000,7.408,,,290,7.6,12.1,,,,,,,,50,wg-a,,,,AAXX 16064 07130 02340 82904 10090 20080 30258 40311 53004 61000 75052 876// 90600 333 10121 20076 6000=
07130,1997-03-16 12:00:00,12,1031.4,-0.3,88,10,15000,7.408,,,20,,,,,,,,,,1,wg-a,,,,AAXX 16124 07130 12465 70204 10120 20100 30261 40314 58003 60006 70152 878// 91200=
07130,1997-03-16 18:00:00,12,1030.2,-0.2,88,10,12000,14.816,,,40,8.7,13.5,,,,,,,,,wg-a,,,,AAXX 16184 07130 12462 80408 10120 20100 30249 40302 57002 60006 886// 91800 333 10135 20087=
07130,1997-03-16 21:00:00,9,1030.5,0.3,100,9,8000,7.408,,,30,,,,,,,,,,,wg-a,,,,AAXX 16214 07130 12258 80304 10090 20090 30252 40305 53003 60006 886// 92100=
07130,1997-03-17 00:00:00,8,1030.3,-0.2,100,8,1200,11.112,,,40,,,,,,,,,,10,wg-a,,,,AAXX 17004 07130 12112 80406 10080 20080 30250 40303 58002 60006 71022 886// 90000=
07130,1997-03-17 03:00:00,8,1029.4,-0.9,93,7,12000,11.112,,,40,,,,,,,,,,,wg-a,,,,AAXX 17034 07130 12262 80406 10080 20070 30241 40294 58009 60006 886// 90300=
07130,1997-03-17 06:00:00,8,1029.5,0.1,93,7,7000,7.408,,,80,7.6,11.7,,,,,,,,20,wg-a,,,,AAXX 17064 07130 02257 80804 10080 20070 30242 40295 53001 61000 72052 887// 90600 333 10117 20076 6000=
07130,1997-03-17 09:00:00,8,1029.7,0.2,93,7,500,7.408,,,120,,,,,,,,,,,wg-a,,,,AAXX 17094 07130 12/00 /1204 10080 20070 30244 40297 52002 60006 90900=
07130,1997-03-17 12:00:00,10,1028.9,-0.8,87,8,8000,7.408,,,150,,,,,,,,,,,wg-a,,,,AAXX 17124 07130 12358 81504 10100 20080 30236 40289 56008 60006 886// 91200=
07130,1997-03-17 15:00:00,11,1026.9,-2,87,9,9000,7.408,,,180,,,,,,,,,,,wg-a,,,,AAXX 17154 07130 12459 81804 10110 20090 30216 40269 58020 60006 886// 91500=
07130,1997-03-17 18:00:00,10,1025.9,-1,87,8,6000,7.408,,,200,7.9,11.2,,,,,,,,,wg-a,,,,AAXX 17184 07130 12456 82004 10100 20080 30206 40259 56010 60006 886// 91800 333 10112 20079=
07130,1997-03-17 21:00:00,10,1025.8,-0.1,87,8,9000,3.704,,,240,,,,,,,,,,,wg-a,,,,AAXX 17214 07130 12459 82402 10100 20080 30205 40258 58001 60006 886// 92100=
07130,1997-03-18 00:00:00,9,1024.3,-1.5,93,8,12000,7.408,,,250,,,,,,,,,,,wg-a,,,,AAXX 18004 07130 12462 82504 10090 20080 30190 40243 56015 60006 885// 90000=
07130,1997-03-18 03:00:00,9,1022.3,-2,93,8,8000,7.408,,,290,,,,,,,,,,,wg-a,,,,AAXX 18034 07130 12458 82904 10090 20080 30170 40223 56020 60006 885// 90300=
07130,1997-03-18 06:00:00,8,1021.7,-0.6,93,7,6000,14.816,,,290,7.6,10.4,,,,,,,,,wg-a,,,,AAXX 18064 07130 02256 82908 10080 20070 30164 40217 55006 60006 885// 90600 333 10104 20076 60004=
07130,1997-03-18 09:00:00,10,1020.4,-1.3,87,8,7000,11.112,,,210,,,,,,,,,,,wg-a,,,,AAXX 18094 07130 12457 82106 10100 20080 30151 40204 58013 60006 875// 90900=
07130,1997-03-18 12:00:00,14,1019.2,-1.1,67,8,15000,25.928,,,290,,,,,,,,,,,wg-a,,,,AAXX 18124 07130 12565 42914 10140 20080 30140 40192 58011 60006 84100 91200=
07130,1997-03-18 15:00:00,13,1017.5,-1.7,82,10,8000,31.484,,51.856,310,,,,,,,,,,61,wg-a,,,,AAXX 18154 07130 02458 83117 10130 20100 30123 40175 56017 61000 76161 878// 91500 333 //// 91028=
07130,1997-03-18 18:00:00,11,1017.4,-0.1,76,7,500,18.52,,,330,7.8,16.4,,2,,,,,,1,wg-a,,,,AAXX 18184 07130 02500 /3310 10110 20070 30122 40174 55001 60006 70161 86800 91800 333 10164 20078 60027=
07130,1997-03-18 21:00:00,8,1018,0.5,87,6,35000,18.52,,,310,,,,,,,,,,,wg-a,,,,AAXX 18214 07130 12581 /3110 10080 20060 30127 40180 53005 60006 81800 92100=
07130,1997-03-19 00:00:00,7,1017.6,-0.4,87,5,35000,11.112,,,270,,,,,,,,,,,wg-a,,,,AAXX 19004 07130 12681 /2706 10070 20050 30123 40176 58004 60006 81500 90000=
07130,1997-03-19 06:00:00,8,1016,-0,81,5,500,18.52,,,290,6.3,11.4,,,,,2,,,,wg-a,,,,AAXX 19064 07130 02600 82910 10080 20050 30107 40160 55000 60006 885// 90600 333 10114 20063 60024=
07130,1997-03-19 09:00:00,10,1016.6,0.7,82,7,25000,22.224,,,300,,,,,,,,,,25,wg-a,,,,AAXX 19094 07130 02475 73012 10100 20070 30114 40166 53007 61000 72582 878// 90900 333 ////=
07130,1997-03-19 12:00:00,10,1017.9,1.3,57,2,35000,38.892,,,340,,,,,,,,,,1,wg-a,,,,AAXX 19124 07130 02581 83421 10100 20020 30127 40179 53013 61000 70182 878// 91200 333 ////=
07130,1997-03-19 15:00:00,10,1018.2,0.3,66,4,35000,25.928,,,340,,,,,,,,,,,wg-a,,,,AAXX 19154 07130 12581 73414 10100 20040 30130 40182 51003 60006 878// 91500=
07130,1997-03-19 18:00:00,10,1019.6,1.3,71,5,35000,22.224,,,340,7.8,11.1,,,,,,,,,wg-a,,,,AAXX 19184 07130 12581 53412 10100 20050 30143 40196 53013 60006 85800 91800 333 10111 20078=
07130,1997-03-19 21:00:00,5,1021.6,1.9,87,3,500,7.408,,,290,,,,,,,,,,,wg-a,,,,AAXX 19214 07130 12/00 02904 10050 20030 30162 40216 51019 60006 80000 92100=
07130,1997-03-20 00:00:00,4,1021.9,0.3,93,3,15000,11.112,,,320,,,,,,,,,,,wg-a,,,,AAXX 20004 07130 12/65 03206 10040 20030 30165 40219 50003 60006 80000 90000=
07130,1997-03-20 03:00:00,3,1022,0.1,93,2,20000,7.408,,,290,,,,,,,,,,,wg-a,,,,AAXX 20034 07130 12/70 02904 10030 20020 30166 40220 50001 60006 80000 90300=
07130,1997-03-20 06:00:00,2,1022.2,0.2,100,2,7000,3.704,,,280,1.6,9.6,,,,,,,,11,wg-a,,,,AAXX 20064 07130 02/57 /2802 10020 20020 30168 40222 53002 60006 71100 80001 90600 333 10096 20016 61000=
07130,1997-03-20 09:00:00,7,1023.3,1.2,100,7,12000,3.704,,,340,,,,,,,,,,1,wg-a,,,,AAXX 20094 07130 12/62 13402 10070 20070 30180 40233 53012 60006 70140 80001 90900=
07130,1997-03-20 12:00:00,12,1022.8,-0.4,54,3,25000,7.408,,,330,,,,,,,,,,3,wg-a,,,,AAXX 20124 07130 12675 33304 10120 20030 30176 40228 58004 60006 70340 83100 91200=
07130,1997-03-20 15:00:00,13,1021.7,-1.1,54,4,25000,7.408,,,300,,,,,,,,,,,wg-a,,,,AAXX 20154 07130 12675 /3004 10130 20040 30165 40217 56011 60006 81100 91500=
07130,1997-03-20 18:00:00,11,1021.9,0.1,58,3,500,14.816,,,30,1.4,13,,,,,,,,,wg-a,,,,AAXX 20184 07130 12/00 20308 10110 20030 30166 40219 53001 60006 80002 91800 333 10130 20014=
07130,1997-03-20 21:00:00,7,1022.9,1,76,3,20000,7.408,,,20,,,,,,,,,,,wg-a,,,,AAXX 20214 07130 12/70 00204 10070 20030 30176 40229 51010 60006 80000 92100=
07130,1997-03-21 00:00:00,3,1022.9,-0.1,93,2,15000,3.704,,,280,,,,,,,,,,,wg-a,,,,AAXX 21004 07130 12/65 22802 10030 20020 30175 40229 57001 60006 80002 90000=
07130,1997-03-21 03:00:00,2,1022.7,-0.2,93,1,800,3.704,,,280,,,,,,,,,,41,wg-a,,,,AAXX 21034 07130 12/08 42802 10020 20010 30173 40227 57002 60006 74140 80002 90300=
07130,1997-03-21 06:00:00,3,1023.2,0.5,100,3,100,0,,,0,1.3,10.6,,,,,,,,45,wg-a,,,,AAXX 21064 07130 02/01 90000 10030 20030 30178 40232 51005 60006 74541 89/// 90600 333 10106 20013 60004=
07130,1997-03-21 09:00:00,5,1024.4,1.2,100,5,300,0,,,0,,,,,,,,,,42,wg-a,,,,AAXX 21094 07130 12103 70000 10050 20050 30190 40244 52012 60006 74244 87600 90900=
07130,1997-03-21 12:00:00,13,1024.2,0,62,6,15000,7.408,,,60,,,,,,,,,,3,wg-a,,,,AAXX 21124 07130 12565 40604 10130 20060 30190 40242 50000 60006 70341 82101 91200=
07130,1997-03-21 15:00:00,14,1023.7,-0.5,58,6,20000,14.816,,,30,,,,,,,,,,,wg-a,,,,AAXX 21154 07130 12670 70308 10140 20060 30185 40237 58005 60006 84502 91500=
07130,1997-03-21 18:00:00,12,1024.2,0.5,67,6,20000,11.112,,,40,2.7,14.2,,,,,,,,,wg-a,,,,AAXX 21184 07130 12770 60406 10120 20060 30190 40242 53005 60006 815/1 91800 333 10142 20027=
07130,1997-03-21 21:00:00,9,1025.6,1.3,81,6,8000,14.816,,,40,,,,,,,,,,,wg-a,,,,AAXX 21214 07130 12/58 /0408 10090 20060 30203 40256 51013 60006 80001 92100=
07130,1997-03-22 00:00:00,7,1026,0.4,87,5,9000,7.408,,,70,,,,,,,,,,,wg-a,,,,AAXX 22004 07130 12/59 30704 10070 20050 30207 40260 51004 60006 80001 90000=
07130,1997-03-22 06:00:00,4,1026.7,0.4,87,2,7000,3.704,,,90,3.5,12.1,,,,,,,,,wg-a,,,,AAXX 22064 07130 02/57 /0902 10040 20020 30213 40267 52004 60006 80001 90600 333 10121 20035 60004=
07130,1997-03-22 09:00:00,7,1027.4,0.8,70,2,12000,11.112,,,120,,,,,,,,,,,wg-a,,,,AAXX 22094 07130 12/62 31206 10070 20020 30221 40274 51008 60006 80001 90900=
07130,1997-03-22 12:00:00,12,1026.3,-1,50,2,15000,11.112,,,130,,,,,,,,,,,wg-a,,,,AAXX 22124 07130 12/65 21306 10120 20020 30211 40263 58010 60006 80002 91200=
07130,1997-03-22 15:00:00,14,1024.5,-1.8,44,2,25000,7.408,,,140,,,,,,,,,,,wg-a,,,,AAXX 22154 07130 12/75 11404 10140 20020 30193 40245 58018 60006 80001 91500=
07130,1997-03-22 18:00:00,12,1023.4,-1.1,50,2,20000,7.408,,,140,3.5,14.5,,,,,,,,,wg-a,,,,AAXX 22184 07130 12/70 11404 10120 20020 30182 40234 56011 60006 80001 91800 333 10145 20035=
07130,1997-03-22 21:00:00,8,1023.3,-0.2,66,2,20000,3.704,,,150,,,,,,,,,,,wg-a,,,,AAXX 22214 07130 12/70 11502 10080 20020 30180 40233 58002 60006 80001 92100=
07130,1997-03-23 00:00:00,4,1021.6,-1.8,87,2,12000,3.704,,,290,,,,,,,,,,,wg-a,,,,AAXX 23004 07130 12/62 52902 10040 20020 30162 40216 57018 60006 80002 90000=
07130,1997-03-23 03:00:00,4,1020.2,-1.4,87,2,4000,3.704,,,300,,,,,,,,,,10,wg-a,,,,AAXX 23034 07130 12840 73002 10040 20020 30148 40202 57014 60006 71022 8707/ 90300=
07130,1997-03-23 06:00:00,5,1017.7,-2.4,81,2,8000,11.112,,,200,3.6,12.3,,,,,,,,,wg-a,,,,AAXX 23064 07130 02/58 72006 10050 20020 30124 40177 58024 60006 85032 90600 333 10123 20036 60004=
07130,1997-03-23 09:00:00,9,1017.1,-0.6,87,7,9000,22.224,,,290,,,,,,,,,,,wg-a,,,,AAXX 23094 07130 12459 72912 10090 20070 30118 40171 58006 60006 8717/ 90900=
07130,1997-03-23 12:00:00,13,1016.1,-0.9,77,9,9000,14.816,,,300,,,,,,,,,,,wg-a,,,,AAXX 23124 07130 12559 73008 10130 20090 30109 40161 58009 60006 875// 91200=
07130,1997-03-23 15:00:00,15,1014,-2,59,7,35000,22.224,,,310,,,,,,,,,,,wg-a,,,,AAXX 23154 07130 12581 /3112 10150 20070 30089 40140 58020 60006 81102 91500=
07130,1997-03-23 18:00:00,11,1015,0.9,76,7,500,22.224,,,350,4.4,15.8,,,,,,,,,wg-a,,,,AAXX 23184 07130 12500 73512 10110 20070 30098 40150 53009 60006 81142 91800 333 10158 20044=
07130,1997-03-23 21:00:00,8,1015.7,0.6,87,6,15000,7.408,,,300,,,,,,,,,,,wg-a,,,,AAXX 23214 07130 12565 73004 10080 20060 30104 40157 51006 60006 875// 92100=
07130,1997-03-24 00:00:00,8,1015.2,-0.5,87,6,15000,7.408,,,290,,,,,,,,,,,wg-a,,,,AAXX 24004 07130 12565 72904 10080 20060 30099 40152 58005 60006 875// 90000=
07130,1997-03-24 03:00:00,7,1014.4,-0.8,93,6,15000,7.408,,,280,,,,,,,,,,,wg-a,,,,AAXX 24034 07130 12565 /2804 10070 20060 30091 40144 58008 60006 85500 90300=
07130,1997-03-24 06:00:00,8,1013.6,-0.8,87,6,6000,3.704,,,250,5.8,10.7,,,,,,,,61,wg-a,,,,AAXX 24064 07130 02456 72502 10080 20060 30083 40136 56008 61000 76162 875// 90600 333 10107 20058 6100=
07130,1997-03-24 09:00:00,9,1013.2,-0.3,93,8,8000,11.112,,,180,,,,,,,,,,21,wg-a,,,,AAXX 24094 07130 02258 81806 10090 20080 30080 40132 58003 61000 72162 877// 90900 333 ////=
07130,1997-03-24 12:00:00,11,1011.8,-1.4,94,10,500,11.112,,,280,,,,1,,,,,,51,wg-a,,,,AAXX 24124 07130 02200 82806 10110 20100 30066 40118 58014 60016 75165 8777/ 91200 333 60017=
07130,1997-03-24 15:00:00,13,1012,0.2,67,7,500,31.484,,,330,,,,1,,,,,,1,wg-a,,,,AAXX 24154 07130 12500 53317 10130 20070 30068 40120 53002 60017 70165 83230 91500=
07130,1997-03-24 18:00:00,10,1013,1,87,8,20000,25.928,,,330,7.5,13.4,,,,,,,,25,wg-a,,,,AAXX 24184 07130 02470 73314 10100 20080 30078 40130 53010 61000 72565 878// 91800 333 10134 20075 ////=
07130,1997-03-24 21:00:00,10,1014.8,1.8,87,8,10000,22.224,,,350,,,,0,,,,,,21,wg-a,,,,AAXX 24214 07130 12460 83512 10100 20080 30096 40148 53018 60007 72186 875// 92100=
07130,1997-03-25 00:00:00,10,1016.2,1.4,87,8,15000,14.816,,,350,,,,,,,,,,1,wg-a,,,,AAXX 25004 07130 12565 73508 10100 20080 30110 40162 51014 60006 70186 875// 90000=
07130,1997-03-25 03:00:00,9,1017.2,0.9,93,8,20000,11.112,,,340,,,,,,,,,,,wg-a,,,,AAXX 25034 07130 12670 /3406 10090 20080 30119 40172 51009 60006 86500 90300=
07130,1997-03-25 06:00:00,6,1019,1.8,100,6,12000,11.112,,,320,6.1,10.1,,,,,1,,,11,wg-a,,,,AAXX 25064 07130 02/62 /3206 10060 20060 30137 40190 53018 60006 71111 81030 90600 333 10101 20061 60014=
07130,1997-03-25 09:00:00,11,1020.2,1.3,82,8,15000,11.112,,,10,,,,,,,,,,,wg-a,,,,AAXX 25094 07130 12665 40106 10110 20080 30150 40202 51013 60006 81130 90900=
07130,1997-03-25 12:00:00,13,1020.8,0.6,72,8,11000,11.112,,,310,,,,,,,,,,,wg-a,,,,AAXX 25124 07130 12/61 /3106 10130 20080 30156 40208 51006 60006 91200=
07130,1997-03-25 15:00:00,14,1020.6,-0.2,55,5,25000,14.816,,,340,,,,,,,,,,,wg-a,,,,AAXX 25154 07130 12675 73408 10140 20050 30154 40206 55002 60006 8313/ 91500=
07130,1997-03-25 18:00:00,12,1021.2,0.6,71,7,18000,11.112,,,20,6.2,13.9,,,,,,,,,wg-a,,,,AAXX 25184 07130 12/68 70206 10120 20070 30160 40212 53006 60006 8707/ 91800 333 10139 20062=
07130,1997-03-25 21:00:00,10,1022.4,1.1,71,5,20000,3.704,,,90,,,,,,,,,,,wg-a,,,,AAXX 25214 07130 12/70 50902 10100 20050 30171 40224 51011 60006 85070 92100=
07130,1997-03-26 00:00:00,9,1022.3,-0.1,81,6,25000,3.704,,,170,,,,,,,,,,,wg-a,,,,AAXX 26004 07130 12/75 61702 10090 20060 30170 40223 58001 60006 86030 90000=
07130,1997-03-26 03:00:00,8,1021.5,-0.8,87,6,25000,7.408,,,200,,,,,,,,,,,wg-a,,,,AAXX 26034 07130 12/75 72004 10080 20060 30162 40215 55008 60006 8703/ 90300=
07130,1997-03-26 06:00:00,8,1021.5,0,93,7,7000,11.112,,,210,7.8,12.4,,,,,,,,0,wg-a,,,,AAXX 26064 07130 02/57 72106 10080 20070 30162 40215 50000 60006 700// 86072 90600 333 10124 20078 60004=
07130,1997-03-26 12:00:00,14,1021.5,-0.4,72,9,11000,22.224,,,240,,,,,,,,,,,wg-a,,,,AAXX 26124 07130 12/61 /2412 10140 20090 30163 40215 58004 60006 91200=
07130,1997-03-26 18:00:00,11,1022.3,0.8,100,11,9000,18.52,,,240,8.3,14.7,,,,,,,,21,wg-a,,,,AAXX 26184 07130 02459 82410 10110 20110 30171 40223 53008 61000 72162 888// 91800 333 10147 20083 6000=
07130,1997-03-26 21:00:00,11,1023.1,0.8,100,11,9000,14.816,,,250,,,,,,,,,,,wg-a,,,,AAXX 26214 07130 12359 82508 10110 20110 30179 40231 53008 60006 887// 92100=
07130,1997-03-27 00:00:00,12,1023.7,0.6,94,11,8000,11.112,,,250,,,,,,,,,,,wg-a,,,,AAXX 27004 07130 12358 82506 10120 20110 30185 40237 53006 60006 887// 90000=
07130,1997-03-27 03:00:00,12,1023.5,-0.2,94,11,9000,7.408,,,240,,,,0,,,,,,,wg-a,,,,AAXX 27034 07130 12259 82404 10120 20110 30183 40235 58002 60007 887// 90300=
07130,1997-03-27 06:00:00,12,1024.4,0.9,94,11,7000,0,,,0,11.2,11.7,,,,,1,,,1,wg-a,,,,AAXX 27064 07130 02257 80000 10120 20110 30192 40244 53009 60006 70152 887// 90600 333 10117 20112 60014=
07130,1997-03-27 09:00:00,13,1024.9,0.5,100,13,9000,11.112,,,240,,,,,,,,,,,wg-a,,,,AAXX 27094 07130 12359 82406 10130 20130 30197 40249 51005 60006 875// 90900=
07130,1997-03-27 12:00:00,15,1024.2,-0.7,82,12,500,14.816,,,260,,,,,,,,,,,wg-a,,,,AAXX 27124 07130 12400 82608 10150 20120 30190 40242 58007 60006 875// 91200=
07130,1997-03-27 15:00:00,15,1023.3,-0.9,82,12,11000,18.52,,,260,,,,,,,,,,,wg-a,,,,AAXX 27154 07130 12/61 /2610 10150 20120 30181 40233 56009 60006 91500=
07130,1997-03-27 18:00:00,14,1022.7,-0.6,88,12,35000,18.52,,,260,11.6,15.5,,,,,,,,,wg-a,,,,AAXX 27184 07130 12481 72610 10140 20120 30175 40227 56006 60006 875// 91800 333 10155 20116=
07130,1997-03-27 21:00:00,13,1022.9,0.2,88,11,15000,11.112,,,270,,,,,,,,,,,wg-a,,,,AAXX 27214 07130 12365 82706 10130 20110 30177 40229 51002 60006 886// 92100=
07130,1997-03-28 00:00:00,12,1022.2,-0.7,94,11,15000,11.112,,,310,,,,,,,,,,,wg-a,,,,AAXX 28004 07130 12465 83106 10120 20110 30170 40222 58007 60006 886// 90000=
07130,1997-03-28 03:00:00,10,1022.8,0.5,87,8,20000,18.52,,,340,,,,,,,,,,,wg-a,,,,AAXX 28034 07130 12470 /3410 10100 20080 30175 40228 52005 60006 86800 90300=
07130,1997-03-28 06:00:00,8,1024.7,1.9,81,5,15000,18.52,,,350,7.9,14.1,,,,,,,,1,wg-a,,,,AAXX 28064 07130 02565 23510 10080 20050 30194 40247 53019 60006 70161 82101 90600 333 10141 20079 61000=
07130,1997-03-28 09:00:00,10,1026.7,2,62,3,500,29.632,,,20,,,,,,,,,,,wg-a,,,,AAXX 28094 07130 12500 30216 10100 20030 30214 40267 52020 60006 83200 90900=
07130,1997-03-28 12:00:00,12,1027.3,0.6,54,3,35000,25.928,,,10,,,,,,,,,,,wg-a,,,,AAXX 28124 07130 12681 40114 10120 20030 30220 40273 51006 60006 84200 91200=
07130,1997-03-28 15:00:00,12,1027.5,0.2,47,1,35000,29.632,,,360,,,,,,,,,,,wg-a,,,,AAXX 28154 07130 12681 23616 10120 20010 30222 40275 51002 60006 82100 91500=
07130,1997-03-28 18:00:00,9,1027.8,0.3,57,1,35000,25.928,,,20,7.4,12,,,,,,,,,wg-a,,,,AAXX 28184 07130 12681 /0214 10090 20010 30225 40278 53003 60006 81500 91800 333 10120 20074=
07130,1997-03-28 21:00:00,6,1029.1,1.2,81,3,40000,11.112,,,350,,,,,,,,,,,wg-a,,,,AAXX 28214 07130 12/82 03506 10060 20030 30237 40291 51012 60006 80000 92100=
07130,1997-03-29 00:00:00,3,1029.4,0.3,93,2,40000,7.408,,,290,,,,,,,,,,,wg-a,,,,AAXX 29004 07130 12/82 02904 10030 20020 30240 40294 52003 60006 80000 90000=
07130,1997-03-29 06:00:00,1,1029.5,0.5,93,0,500,7.408,,,300,0.6,9,,,,,,,,,wg-a,,,,AAXX 29064 07130 02/00 03004 10010 20000 30240 40295 53005 60006 80000 90600 333 10090 20006 60004=
07130,1997-03-29 09:00:00,9,1029.2,-0.1,71,4,500,14.816,,,20,,,,,,,,,,,wg-a,,,,AAXX 29094 07130 12500 /0208 10090 20040 30239 40292 58001 60006 81100 90900=
07130,1997-03-29 12:00:00,12,1028.8,-0.4,50,2,35000,14.816,,,20,,,,,,,,,,,wg-a,,,,AAXX 29124 07130 12681 20208 10120 20020 30235 40288 58004 60006 82100 91200=
07130,1997-03-29 15:00:00,13,1027.2,-1.5,47,2,35000,18.52,,,350,,,,,,,,,,,wg-a,,,,AAXX 29154 07130 12781 13510 10130 20020 30220 40272 57015 60006 81100 91500=
07130,1997-03-29 18:00:00,11,1027,-0.3,62,4,40000,22.224,,,20,0.7,13.3,,,,,,,,,wg-a,,,,AAXX 29184 07130 12682 /0212 10110 20040 30217 40270 55003 60006 81100 91800 333 10133 20007=
07130,1997-03-29 21:00:00,7,1028.3,1.2,81,4,500,11.112,,,20,,,,,,,,,,,wg-a,,,,AAXX 29214 07130 12/00 00206 10070 20040 30229 40283 51012 60006 80000 92100=
07130,1997-03-30 00:00:00,5,1028.1,-0.2,93,4,500,11.112,,,40,,,,,,,,,,,wg-a,,,,AAXX 30004 07130 12/00 00406 10050 20040 30227 40281 57002 60006 80000 90000=
07130,1997-03-30 03:00:00,2,1028,-0.1,100,2,500,3.704,,,290,,,,,,,,,,,wg-a,,,,AAXX 30034 07130 12/00 02902 10020 20020 30226 40280 58001 60006 80000 90300=
07130,1997-03-30 06:00:00,1,1028.5,0.4,100,1,300,0,,,0,1,10.8,,,,,,,,41,wg-a,,,,AAXX 30064 07130 02/03 00000 10010 20010 30230 40285 53004 60006 74140 80000 90600 333 10108 20010 60004=
07130,1997-03-30 09:00:00,9,1029,0.7,71,4,20000,3.704,,,110,,,,,,,,,,2,wg-a,,,,AAXX 30094 07130 12/70 11102 10090 20040 30237 40290 51007 60006 70240 80001 90900=
07130,1997-03-30 12:00:00,14,1027.9,-1,47,3,25000,7.408,,,110,,,,,,,,,,3,wg-a,,,,AAXX 30124 07130 12675 /1104 10140 20030 30227 40279 58010 60006 70340 81100 91200=
07130,1997-03-30 15:00:00,16,1026.5,-1.4,39,2,35000,14.816,,,130,,,,,,,,,,,wg-a,,,,AAXX 30154 07130 12681 31308 10160 20020 30213 40265 56014 60006 83100 91500=
07130,1997-03-30 18:00:00,14,1026.3,-0.2,47,3,40000,11.112,,,90,0.7,16.4,,,,,,,,,wg-a,,,,AAXX 30184 07130 12782 10906 10140 20030 30211 40263 57002 60006 81500 91800 333 10164 20007=
07130,1997-03-30 21:00:00,10,1026.6,0.2,71,5,35000,14.816,,,50,,,,,,,,,,,wg-a,,,,AAXX 30214 07130 12/81 00508 10100 20050 30213 40266 52002 60006 80000 92100=
07130,1997-03-31 00:00:00,7,1026.6,0,76,3,25000,7.408,,,100,,,,,,,,,,,wg-a,,,,AAXX 31004 07130 12/75 01004 10070 20030 30213 40266 50000 60006 80000 90000=
07130,1997-03-31 06:00:00,2,1026.1,0.3,100,2,12000,0,,,0,2.4,13.9,,,,,,,,11,wg-a,,,,AAXX 31064 07130 02/62 00000 10020 20020 30207 40261 53003 60006 71100 80000 90600 333 10139 20024 60004=
07130,1997-03-31 09:00:00,11,1026.6,0.6,66,5,12000,7.408,,,90,,,,,,,,,,,wg-a,,,,AAXX 31094 07130 12/62 00904 10110 20050 30213 40266 51006 60006 80000 90900=
07130,1997-03-31 12:00:00,16,1025,-1.5,45,4,25000,14.816,,,100,,,,,,,,,,,wg-a,,,,AAXX 31124 07130 12775 11008 10160 20040 30198 40250 58015 60006 81100 91200=
07130,1997-03-31 15:00:00,18,1023.4,-1.5,42,5,500,11.112,,,70,,,,,,,,,,,wg-a,,,,AAXX 31154 07130 12/00 00706 10180 20050 30183 40234 58015 60006 80000 91500=
07130,1997-03-31 18:00:00,16,1022.7,-0.8,48,5,500,11.112,,,80,2.2,17.7,,,,,,,,,wg-a,,,,AAXX 31184 07130 12/00 00806 10160 20050 30175 40227 56008 60006 80000 91800 333 10177 20022=
07130,1997-03-31 21:00:00,9,1023.5,0.7,71,4,25000,3.704,,,330,,,,,,,,,,,wg-a,,,,AAXX 31214 07130 12/75 03302 10090 20040 30182 40235 53007 60006 80000 92100=
07130,1997-04-01 00:00:00,5,1023.3,-0.3,87,3,20000,11.112,,,310,,,,,,,,,,,wg-a,,,,AAXX 01004 07130 12/70 03106 10050 20030 30179 40233 58003 60006 80000 90000=
07130,1997-04-01 03:00:00,3,1022.7,-0.6,100,3,15000,7.408,,,310,,,,,,,,,,,wg-a,,,,AAXX 01034 07130 12/65 03104 10030 20030 30173 40227 56006 60006 80000 90300=
07130,1997-04-01 06:00:00,2,1023.1,0.4,100,2,2000,7.408,,,310,2.4,16.1,,,,,,,,10,wg-a,,,,AAXX 01064 07130 02/20 13104 10020 20020 30177 40231 53004 60006 71000 80001 90600 333 10161 20024 60004=
07130,1997-04-01 09:00:00,10,1023.4,0.4,82,7,8000,7.408,,,360,,,,,,,,,,,wg-a,,,,AAXX 01094 07130 12/58 03604 10100 20070 30181 40234 51004 60006 80000 90900=
07130,1997-04-01 12:00:00,18,1022.5,-0.7,45,6,25000,11.112,,,360,,,,,,,,,,,wg-a,,,,AAXX 01124 07130 12/75 03606 10180 20060 30174 40225 57007 60006 80000 91200=
07130,1997-04-01 15:00:00,19,1020.9,-1.6,49,8,500,14.816,,,30,,,,,,,,,,,wg-a,,,,AAXX 01154 07130 12/00 00308 10190 20080 30158 40209 56016 60006 80000 91500=
07130,1997-04-01 18:00:00,15,1021.1,0.1,63,8,13000,22.224,,,10,2.4,19.4,,,,,,,,,wg-a,,,,AAXX 01184 07130 12/63 00112 10150 20080 30159 40211 53001 60006 80000 91800 333 10194 20024=
07130,1997-04-01 21:00:00,10,1022.5,1.3,76,6,13000,11.112,,,350,,,,,,,,,,,wg-a,,,,AAXX 01214 07130 12/63 03506 10100 20060 30172 40225 51013 60006 80000 92100=
07130,1997-04-02 00:00:00,6,1022.3,-0.2,93,5,13000,7.408,,,320,,,,,,,,,,,wg-a,,,,AAXX 02004 07130 12/63 03204 10060 20050 30170 40223 58002 60006 80000 90000=
07130,1997-04-02 03:00:00,4,1021.7,-0.7,100,4,8000,3.704,,,290,,,,,,,,,,,wg-a,,,,AAXX 02034 07130 12/58 02902 10040 20040 30163 40217 56007 60006 80000 90300=
07130,1997-04-02 06:00:00,3,1021.6,-0.1,93,2,900,7.408,,,300,2.5,15.3,,,,,,,,41,wg-a,,,,AAXX 02064 07130 02/09 03004 10030 20020 30163 40216 55001 60006 74140 80000 90600 333 10153 20025 60004=
07130,1997-04-02 12:00:00,18,1020.3,-1,49,7,12000,7.408,,,320,,,,,,,,,,2,wg-a,,,,AAXX 02124 07130 12/62 03204 10180 20070 30152 40203 58010 60006 70240 80000 91200=
07130,1997-04-02 18:00:00,16,1018.9,0.1,51,6,500,14.816,,,20,2.4,19.5,,,,,,,,,wg-a,,,,AAXX 02184 07130 12/00 00208 10160 20060 30138 40189 53001 60006 80000 91800 333 10195 20024=
07130,1997-04-02 21:00:00,10,1020.7,1.6,62,3,20000,11.112,,,350,,,,,,,,,,,wg-a,,,,AAXX 02214 07130 12/70 03506 10100 20030 30154 40207 52016 60006 80000 92100=
07130,1997-04-03 00:00:00,6,1020.3,-0.4,81,3,15000,7.408,,,330,,,,,,,,,,,wg-a,,,,AAXX 03004 07130 12/65 03304 10060 20030 30150 40203 56004 60006 80000 90000=
07130,1997-04-03 03:00:00,4,1020,-0.4,87,2,9000,11.112,,,310,,,,,,,,,,,wg-a,,,,AAXX 03034 07130 12/59 03106 10040 20020 30146 40200 56004 60006 80000 90300=
07130,1997-04-03 06:00:00,5,1020.2,0.3,100,5,2500,3.704,,,290,3.6,16,,,,,,,,10,wg-a,,,,AAXX 03064 07130 02225 /2902 10050 20050 30149 40202 52003 60006 71011 84640 90600 333 10160 20036 60004=
07130,1997-04-03 09:00:00,11,1021.2,1.1,82,8,11000,18.52,,,340,,,,,,,,,,,wg-a,,,,AAXX 03094 07130 12561 73410 10110 20080 30160 40212 51011 60006 875// 90900=
07130,1997-04-03 12:00:00,13,1021.5,0.3,72,8,22000,18.52,,,330,,,,,,,,,,,wg-a,,,,AAXX 03124 07130 12572 73310 10130 20080 30163 40215 51003 60006 878// 91200=
07130,1997-04-03 15:00:00,15,1021.4,-0.1,55,6,25000,25.928,,,340,,,,,,,,,,,wg-a,,,,AAXX 03154 07130 12275 73414 10150 20060 30162 40214 58001 60006 878// 91500=
07130,1997-04-03 18:00:00,11,1022.3,0.9,66,5,500,22.224,,,340,5.3,14.9,,,,,,,,,wg-a,,,,AAXX 03184 07130 12500 /3412 10110 20050 30171 40223 52009 60006 81502 91800 333 10149 20053=
07130,1997-04-03 21:00:00,8,1024.1,1.7,87,6,25000,11.112,,,320,,,,,,,,,,,wg-a,,,,AAXX 03214 07130 12/75 23206 10080 20060 30188 40241 51017 60006 80002 92100=
07130,1997-04-04 00:00:00,7,1025.1,1,93,6,25000,11.112,,,300,,,,,,,,,,,wg-a,,,,AAXX 04004 07130 12/75 53006 10070 20060 30198 40251 53010 60006 80002 90000=
07130,1997-04-04 03:00:00,7,1026,0.9,93,6,25000,11.112,,,330,,,,,,,,,,,wg-a,,,,AAXX 04034 07130 12/75 23306 10070 20060 30207 40260 51009 60006 80002 90300=
07130,1997-04-04 06:00:00,5,1028.3,2.2,93,4,25000,11.112,,,350,4.8,11.2,,,,,,,,,wg-a,,,,AAXX 04064 07130 02575 23506 10050 20040 30229 40283 53022 60006 82500 90600 333 10112 20048 60004=
07130,1997-04-04 09:00:00,9,1030.2,2,71,4,500,11.112,,,20,,,,,,,,,,,wg-a,,,,AAXX 04094 07130 12500 40206 10090 20040 30249 40302 51020 60006 84100 90900=
07130,1997-04-04 12:00:00,12,1030.3,0.1,44,0,500,18.52,,,20,,,,,,,,,,,wg-a,,,,AAXX 04124 07130 12600 /0210 10120 20000 30250 40303 50001 60006 81100 91200=
07130,1997-04-04 18:00:00,11,1029.7,0.2,50,1,35000,18.52,,,350,5.4,13.6,,,,,,,,,wg-a,,,,AAXX 04184 07130 12/81 13510 10110 20010 30244 40297 50002 60006 81051 91800 333 10136 20054=
07130,1997-04-04 21:00:00,7,1031,1.2,76,3,4000,7.408,,,350,,,,,,,,,,,wg-a,,,,AAXX 04214 07130 12/40 03504 10070 20030 30256 40310 51012 60006 80000 92100=
07130,1997-04-05 00:00:00,4,1030.1,-0.9,93,3,40000,3.704,,,290,,,,,,,,,,,wg-a,,,,AAXX 05004 07130 12/82 02902 10040 20030 30247 40301 56009 60006 80000 90000=
07130,1997-04-05 03:00:00,4,1028.6,-1.5,93,3,40000,3.704,,,170,,,,,,,,,,,wg-a,,,,AAXX 05034 07130 12/82 01702 10040 20030 30232 40286 58015 60006 80000 90300=
07130,1997-04-05 06:00:00,3,1028.2,-0.4,100,3,35000,3.704,,,210,3.1,11.1,,,,,,,,11,wg-a,,,,AAXX 05064 07130 02681 42102 10030 20030 30228 40282 56004 60006 71100 81501 90600 333 10111 20031 60004=
07130,1997-04-05 09:00:00,11,1027.9,-0.2,76,7,20000,22.224,,,300,,,,,,,,,,,wg-a,,,,AAXX 05094 07130 12570 73012 10110 20070 30226 40279 58002 60006 875// 90900=
07130,1997-04-05 12:00:00,13,1026.7,-1.1,77,9,25000,18.52,,,300,,,,,,,,,,,wg-a,,,,AAXX 05124 07130 12575 73010 10130 20090 30215 40267 58011 60006 875// 91200=
07130,1997-04-05 15:00:00,16,1024.5,-2.2,63,9,500,7.408,,,290,,,,,,,,,,,wg-a,,,,AAXX 05154 07130 12500 22904 10160 20090 30193 40245 58022 60006 82201 91500=
07130,1997-04-05 18:00:00,12,1025,0.5,76,8,500,25.928,,,350,3.4,16.9,,,,,,,,,wg-a,,,,AAXX 05184 07130 12500 /3514 10120 20080 30198 40250 53005 60006 81400 91800 333 10169 20034=
07130,1997-04-05 21:00:00,10,1025.2,0.1,82,7,20000,14.816,,,350,,,,,,,,,,,wg-a,,,,AAXX 05214 07130 12470 73508 10100 20070 30199 40252 53001 60006 875// 92100=
07130,1997-04-06 00:00:00,7,1025.4,0.2,93,6,20000,7.408,,,250,,,,,,,,,,,wg-a,,,,AAXX 06004 07130 12/70 02504 10070 20060 30201 40254 50002 60006 80000 90000=
07130,1997-04-06 03:00:00,6,1024.8,-0.7,93,5,20000,7.408,,,290,,,,,,,,,,,wg-a,,,,AAXX 06034 07130 12470 82904 10060 20050 30194 40248 56007 60006 886// 90300=
07130,1997-04-06 06:00:00,8,1025.3,0.6,100,8,8000,7.408,,,10,5.2,11.9,,,,,,,,,wg-a,,,,AAXX 06064 07130 02258 80104 10080 20080 30200 40253 53006 60006 886// 90600 333 10119 20052 60004=
07130,1997-04-06 09:00:00,11,1025.8,0.5,87,9,11000,7.408,,,30,,,,,,,,,,,wg-a,,,,AAXX 06094 07130 12561 80304 10110 20090 30205 40258 51005 60006 885// 90900=
07130,1997-04-06 12:00:00,16,1025.4,-0.3,68,10,500,14.816,,,100,,,,,,,,,,,wg-a,,,,AAXX 06124 07130 12500 71008 10160 20100 30202 40254 58003 60006 875// 91200=
07130,1997-04-06 15:00:00,18,1024.2,-1.1,56,9,40000,14.816,,,60,,,,,,,,,,,wg-a,,,,AAXX 06154 07130 12682 40608 10180 20090 30191 40242 58011 60006 84200 91500=
07130,1997-04-06 18:00:00,17,1024.3,0.1,59,9,40000,18.52,,,80,8.4,19.2,,,,,,,,,wg-a,,,,AAXX 06184 07130 12682 20810 10170 20090 30192 40243 53001 60006 82500 91800 333 10192 20084=
07130,1997-04-06 21:00:00,13,1025.4,1,72,8,40000,22.224,,,70,,,,,,,,,,,wg-a,,,,AAXX 06214 07130 12/82 00712 10130 20080 30202 40254 53010 60006 80000 92100=
07130,1997-04-07 00:00:00,10,1026.4,0.9,62,3,500,18.52,,,100,,,,,,,,,,,wg-a,,,,AAXX 07004 07130 12/00 01010 10100 20030 30211 40264 51009 60006 80000 90000=
07130,1997-04-07 03:00:00,7,1026.9,0.4,61,0,500,14.816,,,100,,,,,,,,,,,wg-a,,,,AAXX 07034 07130 12/00 01008 10070 20000 30215 40269 51004 60006 80000 90300=
07130,1997-04-07 06:00:00,5,1027.8,0.9,65,-1,25000,14.816,,,70,5.2,17,,,,,,,,,wg-a,,,,AAXX 07064 07130 02/75 10708 10050 21010 30224 40278 53009 60006 80001 90600 333 10170 20052 60004=
07130,1997-04-07 12:00:00,15,1026.1,-1.3,33,-1,35000,29.632,,,80,,,,,,,,,,,wg-a,,,,AAXX 07124 07130 12/81 60816 10150 21010 30209 40261 58013 60006 80004 91200=
07130,1997-04-07 15:00:00,17,1024.6,-1.5,27,-2,35000,29.632,,48.152,100,,,,,,,,,,,wg-a,,,,AAXX 07154 07130 12/81 31016 10170 21020 30194 40246 56015 60006 80001 91500 333 91026=
07130,1997-04-07 18:00:00,15,1023.7,-0.9,31,-2,40000,25.928,,,100,5.3,17.6,,,,,,,,,wg-a,,,,AAXX 07184 07130 12/82 31014 10150 21020 30185 40237 55009 60006 80001 91800 333 10176 20053=
07130,1997-04-07 21:00:00,11,1024.3,0.5,47,0,20000,18.52,,,90,,,,,,,,,,,wg-a,,,,AAXX 07214 07130 12/70 00910 10110 20000 30190 40243 51005 60006 80000 92100=
07130,1997-04-08 00:00:00,8,1024.3,0,46,-3,20000,7.408,,,90,,,,,,,,,,,wg-a,,,,AAXX 08004 07130 12/70 00904 10080 21030 30190 40243 50000 60006 80000 90000=
07130,1997-04-08 03:00:00,6,1023.6,-0.8,52,-3,25000,7.408,,,80,,,,,,,,,,,wg-a,,,,AAXX 08034 07130 12/75 00804 10060 21030 30182 40236 58008 60006 80000 90300=
07130,1997-04-08 06:00:00,4,1024.1,0.5,65,-2,500,11.112,,,90,4.1,15.4,,,,,,,,,wg-a,,,,AAXX 08064 07130 02/00 10906 10040 21020 30187 40241 53005 60006 80001 90600 333 10154 20041 60004=
07130,1997-04-08 09:00:00,11,1023.9,-0.1,43,-1,500,18.52,,,100,,,,,,,,,,,wg-a,,,,AAXX 08094 07130 12/00 21010 10110 21010 30186 40239 58001 60006 80001 90900=
07130,1997-04-08 12:00:00,17,1023,-0.7,36,2,35000,14.816,,,120,,,,,,,,,,,wg-a,,,,AAXX 08124 07130 12/81 31208 10170 20020 30179 40230 58007 60006 80001 91200=
07130,1997-04-08 15:00:00,20,1022.1,-0.9,37,5,35000,11.112,,,120,,,,,,,,,,,wg-a,,,,AAXX 08154 07130 12/81 11206 10200 20050 30170 40221 58009 60006 80001 91500=
07130,1997-04-08 18:00:00,19,1022.5,0.4,40,5,500,11.112,,,110,4.2,20.3,,,,,,,,,wg-a,,,,AAXX 08184 07130 12/00 11106 10190 20050 30174 40225 53004 60006 80001 91800 333 10203 20042=
07130,1997-04-08 21:00:00,14,1023.8,1.2,47,3,15000,7.408,,,100,,,,,,,,,,,wg-a,,,,AAXX 08214 07130 12/65 01004 10140 20030 30186 40238 53012 60006 80000 92100=
07130,1997-04-09 00:00:00,10,1024.7,0.8,57,2,15000,3.704,,,90,,,,,,,,,,,wg-a,,,,AAXX 09004 07130 12/65 00902 10100 20020 30194 40247 53008 60006 80000 90000=
07130,1997-04-09 03:00:00,7,1024.9,0.2,76,3,15000,0,,,0,,,,,,,,,,,wg-a,,,,AAXX 09034 07130 12/65 00000 10070 20030 30196 40249 52002 60006 80000 90300=
07130,1997-04-09 06:00:00,5,1025.7,0.7,87,3,15000,0,,,0,4.9,18.5,,,,,,,,11,wg-a,,,,AAXX 09064 07130 02/65 /0000 10050 20030 30203 40257 53007 60006 71111 80001 90600 333 10185 20049 60004=
07130,1997-04-09 09:00:00,14,1027.3,1.8,58,6,12000,3.704,,,180,,,,,,,,,,,wg-a,,,,AAXX 09094 07130 12/62 51802 10140 20060 30221 40273 52018 60006 80002 90900=
07130,1997-04-09 12:00:00,21,1027.3,0.1,46,9,14000,7.408,,,190,,,,,,,,,,,wg-a,,,,AAXX 09124 07130 12/64 51904 10210 20090 30222 40273 51001 60006 80002 91200=
07130,1997-04-09 15:00:00,23,1026.6,-0.7,41,9,14000,3.704,,,230,,,,,,,,,,,wg-a,,,,AAXX 09154 07130 12/64 52302 10230 20090 30215 40266 57007 60006 80002 91500=
07130,1997-04-09 18:00:00,21,1027.3,0.7,40,7,20000,3.704,,,140,5.1,23.2,,,,,,,,,wg-a,,,,AAXX 09184 07130 12/70 41402 10210 20070 30222 40273 53007 60006 80001 91800 333 10232 20051=
07130,1997-04-09 21:00:00,16,1029.2,1.8,51,6,20000,7.408,,,30,,,,,,,,,,,wg-a,,,,AAXX 09214 07130 12/70 20304 10160 20060 30240 40292 51018 60006 80001 92100=
07130,1997-04-10 00:00:00,10,1030.3,1,82,7,20000,0,,,0,,,,,,,,,,,wg-a,,,,AAXX 10004 07130 12/70 00000 10100 20070 30250 40303 53010 60006 80000 90000=
07130,1997-04-10 03:00:00,7,1030.3,-0.1,93,6,20000,3.704,,,320,,,,,,,,,,,wg-a,,,,AAXX 10034 07130 12/70 03202 10070 20060 30249 40303 58001 60006 80000 90300=
07130,1997-04-10 06:00:00,5,1030.7,0.4,93,4,8000,3.704,,,280,5.1,21.1,,,,,,,,,wg-a,,,,AAXX 10064 07130 02/58 /2802 10050 20040 30253 40307 53004 60006 80001 90600 333 10211 20051 60004=
07130,1997-04-10 09:00:00,14,1031.3,0.8,58,6,10000,3.704,,,360,,,,,,,,,,,wg-a,,,,AAXX 10094 07130 12/60 03602 10140 20060 30261 40313 51008 60006 80000 90900=
07130,1997-04-10 12:00:00,22,1030.7,-0.5,33,5,12000,11.112,,,60,,,,,,,,,,,wg-a,,,,AAXX 10124 07130 12/62 00606 10220 20050 30256 40307 58005 60006 80000 91200=
07130,1997-04-10 15:00:00,24,1029.2,-1.5,24,2,20000,11.112,,,110,,,,,,,,,,,wg-a,,,,AAXX 10154 07130 12/70 01106 10240 20020 30241 40292 56015 60006 80000 91500=
07130,1997-04-10 18:00:00,20,1029.5,0.3,43,7,20000,18.52,,,20,5.2,24.4,,,,,,,,,wg-a,,,,AAXX 10184 07130 12/70 00210 10200 20070 30244 40295 53003 60006 80000 91800 333 10244 20052=
07130,1997-04-10 21:00:00,13,1030.6,1,67,7,12000,7.408,,,320,,,,,,,,,,,wg-a,,,,AAXX 10214 07130 12/62 03204 10130 20070 30254 40306 53010 60006 80000 92100=
07130,1997-04-11 00:00:00,9,1030.5,-0.2,87,7,10000,7.408,,,320,,,,,,,,,,,wg-a,,,,AAXX 11004 07130 12/60 03204 10090 20070 30252 40305 58002 60006 80000 90000=
07130,1997-04-11 03:00:00,7,1029.4,-1.2,87,5,10000,3.704,,,310,,,,,,,,,,,wg-a,,,,AAXX 11034 07130 12/60 03102 10070 20050 30240 40294 56012 60006 80000 90300=
07130,1997-04-11 06:00:00,4,1029.3,-0.1,93,3,3000,7.408,,,300,4.2,20.3,,,,,,,,10,wg-a,,,,AAXX 11064 07130 02/30 /3004 10040 20030 30239 40293 55001 60006 71000 80001 90600 333 10203 20042 60004=
07130,1997-04-11 09:00:00,14,1028.7,-0.4,55,5,9000,7.408,,,350,,,,,,,,,,,wg-a,,,,AAXX 11094 07130 12/59 03504 10140 20050 30235 40287 58004 60006 80000 90900=
07130,1997-04-11 12:00:00,20,1027.1,-1.5,35,4,9000,18.52,,,20,,,,,,,,,,,wg-a,,,,AAXX 11124 07130 12/59 00210 10200 20040 30220 40271 58015 60006 80000 91200=
07130,1997-04-11 15:00:00,20,1025.7,-1.4,23,-2,25000,29.632,,,340,,,,,,,,,,,wg-a,,,,AAXX 11154 07130 12/75 03416 10200 21020 30206 40257 56014 60006 80000 91500=
07130,1997-04-11 18:00:00,15,1026,0.2,67,9,20000,22.224,,,10,4.3,21,,,,,,,,,wg-a,,,,AAXX 11184 07130 12/70 00112 10150 20090 30208 40260 53002 60006 80000 91800 333 10210 20043=
07130,1997-04-11 21:00:00,12,1027.9,1.8,71,7,12000,25.928,,,60,,,,,,,,,,,wg-a,,,,AAXX 11214 07130 12/62 20614 10120 20070 30226 40279 53018 60006 80001 92100=
07130,1997-04-12 00:00:00,10,1028.8,0.9,71,5,20000,14.816,,,60,,,,,,,,,,,wg-a,,,,AAXX 12004 07130 12/70 00608 10100 20050 30235 40288 51009 60006 80000 90000=
07130,1997-04-12 03:00:00,6,1029.1,0.2,75,2,15000,18.52,,,70,,,,,,,,,,,wg-a,,,,AAXX 12034 07130 12/65 00710 10060 20020 30237 40291 53002 60006 80000 90300=
07130,1997-04-12 06:00:00,4,1029.8,0.7,70,-1,15000,22.224,,,60,4.1,15.3,,,,,,,,,wg-a,,,,AAXX 12064 07130 02/65 30612 10040 21010 30244 40298 53007 60006 80001 90600 333 10153 20041 60004=
07130,1997-04-12 09:00:00,9,1030.2,0.5,49,-1,20000,22.224,,,80,,,,,,,,,,,wg-a,,,,AAXX 12094 07130 12/70 50812 10090 21010 30249 40302 51005 60006 80004 90900=
07130,1997-04-12 12:00:00,12,1028.9,-1.3,44,0,20000,18.52,,,70,,,,,,,,,,,wg-a,,,,AAXX 12124 07130 12/70 20710 10120 20000 30236 40289 58013 60006 80001 91200=
07130,1997-04-12 15:00:00,14,1027.2,-1.6,41,1,20000,22.224,,,40,,,,,,,,,,,wg-a,,,,AAXX 12154 07130 12670 /0412 10140 20010 30220 40272 57016 60006 81101 91500=
07130,1997-04-12 18:00:00,12,1027.3,-0,44,0,40000,22.224,,,40,4.1,13.7,,,,,,,,,wg-a,,,,AAXX 12184 07130 12/82 00412 10120 20000 30220 40273 54000 60006 80000 91800 333 10137 20041=
07130,1997-04-12 21:00:00,7,1028.5,1.1,66,1,500,18.52,,,40,,,,,,,,,,,wg-a,,,,AAXX 12214 07130 12/00 00410 10070 20010 30231 40285 51011 60006 80000 92100=
07130,1997-04-13 00:00:00,6,1028.5,0,70,1,500,14.816,,,70,,,,,,,,,,,wg-a,,,,AAXX 13004 07130 12/00 00708 10060 20010 30231 40285 50000 60006 80000 90000=
07130,1997-04-13 03:00:00,4,1028.4,-0.1,75,0,500,11.112,,,30,,,,,,,,,,,wg-a,,,,AAXX 13034 07130 12/00 00306 10040 20000 30230 40284 58001 60006 80000 90300=
07130,1997-04-13 06:00:00,3,1028.6,0.2,87,1,20000,11.112,,,30,2.8,11.9,,,,,,,,,wg-a,,,,AAXX 13064 07130 02/70 00306 10030 20010 30232 40286 53002 60006 80000 90600 333 10119 20028 60004=
07130,1997-04-13 09:00:00,9,1028.7,0.2,61,2,25000,18.52,,,90,,,,,,,,,,,wg-a,,,,AAXX 13094 07130 12575 /0910 10090 20020 30234 40287 50002 60006 81100 90900=
07130,1997-04-13 12:00:00,13,1026.7,-1.9,51,3,25000,22.224,,,60,,,,,,,,,,,wg-a,,,,AAXX 13124 07130 12675 30612 10130 20030 30215 40267 58019 60006 83100 91200=
07130,1997-04-13 18:00:00,13,1024.4,-0.6,62,6,25000,22.224,,,20,3.1,15.7,,,,,,,,,wg-a,,,,AAXX 13184 07130 12/75 00212 10130 20060 30192 40244 55006 60006 80000 91800 333 10157 20031=
07130,1997-04-13 21:00:00,9,1024.9,0.4,81,6,12000,11.112,,,30,,,,,,,,,,,wg-a,,,,AAXX 13214 07130 12/62 00306 10090 20060 30196 40249 51004 60006 80000 92100=
07130,1997-04-14 00:00:00,7,1024.9,0,81,4,12000,7.408,,,80,,,,,,,,,,,wg-a,,,,AAXX 14004 07130 12/62 00804 10070 20040 30196 40249 50000 60006 80000 90000=
07130,1997-04-14 03:00:00,5,1024.8,-0.2,87,3,15000,11.112,,,30,,,,,,,,,,,wg-a,,,,AAXX 14034 07130 12/65 00306 10050 20030 30194 40248 56002 60006 80000 90300=
07130,1997-04-14 06:00:00,4,1025.2,0.4,87,2,12000,3.704,,,320,3.5,12.7,,,,,,,,,wg-a,,,,AAXX 14064 07130 02/62 03202 10040 20020 30198 40252 53004 60006 80000 90600 333 10127 20035 60004=
07130,1997-04-14 09:00:00,12,1025.5,0.5,54,3,13000,14.816,,,110,,,,,,,,,,,wg-a,,,,AAXX 14094 07130 12/63 01108 10120 20030 30203 40255 51005 60006 80000 90900=
07130,1997-04-14 12:00:00,16,1024.8,-0.7,42,3,13000,18.52,,,90,,,,,,,,,,,wg-a,,,,AAXX 14124 07130 12/63 00910 10160 20030 30196 40248 58007 60006 80000 91200=
07130,1997-04-14 15:00:00,18,1023.3,-1.4,39,4,13000,18.52,,,60,,,,,,,,,,,wg-a,,,,AAXX 14154 07130 12/63 00610 10180 20040 30182 40233 56014 60006 80000 91500=
07130,1997-04-14 18:00:00,15,1023.5,0.1,55,6,15000,22.224,,,20,3.4,18.3,,,,,,,,,wg-a,,,,AAXX 14184 07130 12/65 00212 10150 20060 30183 40235 53001 60006 80000 91800 333 10183 20034=
07130,1997-04-14 21:00:00,12,1025.1,1.5,62,5,12000,18.52,,,40,,,,,,,,,,,wg-a,,,,AAXX 14214 07130 12/62 00410 10120 20050 30198 40251 52015 60006 80000 92100=
07130,1997-04-15 00:00:00,10,1025.7,0.6,66,4,20000,11.112,,,70,,,,,,,,,,,wg-a,,,,AAXX 15004 07130 12/70 00706 10100 20040 30204 40257 53006 60006 80000 90000=
07130,1997-04-15 03:00:00,9,1026,0.3,81,6,8000,14.816,,,70,,,,,,,,,,,wg-a,,,,AAXX 15034 07130 12/58 00708 10090 20060 30207 40260 53003 60006 80000 90300=
07130,1997-04-15 06:00:00,8,1027.1,1.1,87,6,7000,7.408,,,70,7.6,14.4,,,,,,,,,wg-a,,,,AAXX 15064 07130 02/57 00704 10080 20060 30218 40271 53011 60006 80000 90600 333 10144 20076 60004=
07130,1997-04-15 09:00:00,11,1028.3,1.2,66,5,12000,18.52,,,60,,,,,,,,,,,wg-a,,,,AAXX 15094 07130 12/62 00610 10110 20050 30230 40283 53012 60006 80000 90900=
07130,1997-04-15 12:00:00,17,1027.2,-1,36,2,10000,22.224,,57.412,60,,,,,,,,,,,wg-a,,,,AAXX 15124 07130 12/60 /0612 10170 20020 30220 40272 58010 60006 91200 333 91031=
07130,1997-04-15 15:00:00,17,1025.8,-1.4,36,2,40000,25.928,,,40,,,,,,,,,,,wg-a,,,,AAXX 15154 07130 12/82 00414 10170 20020 30206 40258 56014 60006 80000 91500=
07130,1997-04-15 18:00:00,14,1026.2,0.4,47,3,40000,29.632,,,40,7.8,17.6,,,,,,,,,wg-a,,,,AAXX 15184 07130 12/82 00416 10140 20030 30210 40262 53004 60006 80000 91800 333 10176 20078=
07130,1997-04-15 21:00:00,9,1027.9,1.6,66,3,20000,18.52,,,50,,,,,,,,,,,wg-a,,,,AAXX 15214 07130 12/70 00510 10090 20030 30226 40279 52016 60006 80000 92100=
07130,1997-04-16 00:00:00,7,1028,-0,70,2,20000,14.816,,,70,,,,,,,,,,,wg-a,,,,AAXX 16004 07130 12/70 00708 10070 20020 30226 40280 55000 60006 80000 90000=
07130,1997-04-16 03:00:00,5,1027.3,-0.7,75,1,15000,14.816,,,80,,,,,,,,,,,wg-a,,,,AAXX 16034 07130 12/65 00808 10050 20010 30219 40273 58007 60006 80000 90300=
07130,1997-04-16 06:00:00,4,1027.4,0.1,75,0,20000,14.816,,,60,4,14,,,,,,,,,wg-a,,,,AAXX 16064 07130 02/70 00608 10040 20000 30220 40274 53001 60006 80000 90600 333 10140 20040 60004=
07130,1997-04-16 09:00:00,10,1027.1,-0.2,53,1,25000,18.52,,,90,,,,,,,,,,,wg-a,,,,AAXX 16094 07130 12/75 00910 10100 20010 30218 40271 58002 60006 80000 90900=
07130,1997-04-16 12:00:00,13,1025.4,-1.6,38,-1,40000,22.224,,,60,,,,,,,,,,,wg-a,,,,AAXX 16124 07130 12/82 00612 10130 21010 30202 40254 58016 60006 80000 91200=
07130,1997-04-16 15:00:00,16,1023,-2.4,36,1,40000,25.928,,,70,,,,,,,,,,,wg-a,,,,AAXX 16154 07130 12/82 00714 10160 20010 30178 40230 58024 60006 80000 91500=
07130,1997-04-16 18:00:00,15,1021.6,-1.4,44,3,40000,18.52,,,90,4,16.8,,,,,,,,,wg-a,,,,AAXX 16184 07130 12/82 00910 10150 20030 30164 40216 57014 60006 80000 91800 333 10168 20040=
07130,1997-04-16 21:00:00,11,1022,0.4,62,4,25000,18.52,,,60,,,,,,,,,,,wg-a,,,,AAXX 16214 07130 12/75 00610 10110 20040 30168 40220 53004 60006 80000 92100=
07130,1997-04-17 00:00:00,10,1019.5,-0.6,66,4,10000,35.188,,53.708,90,,,,,,,,,,0,wg-a,,,,AAXX 17004 07130 12/60 00919 10100 20040 30143 40195 58006 60006 700// 80000 90000 333 91029=
07130,1997-04-17 03:00:00,6,1021.1,-1.1,81,3,20000,18.52,,,70,,,,,,,,,,,wg-a,,,,AAXX 17034 07130 12/70 00710 10060 20030 30158 40211 56011 60006 80000 90300=
07130,1997-04-17 06:00:00,6,1021.4,0.3,75,2,15000,18.52,,,60,6,15,,,,,,,,,wg-a,,,,AAXX 17064 07130 02/65 00610 10060 20020 30161 40214 53003 60006 80000 90600 333 10150 20060 60004=
07130,1997-04-17 09:00:00,11,1021,-0.3,58,3,11000,25.928,,,60,,,,,,,,,,,wg-a,,,,AAXX 17094 07130 12/61 /0614 10110 20030 30158 40210 58003 60006 90900=
07130,1997-04-17 12:00:00,14,1020.1,-0.9,41,1,20000,25.928,,,70,,,,,,,,,,,wg-a,,,,AAXX 17124 07130 12570 20714 10140 20010 30149 40201 58009 60006 82100 91200=
07130,1997-04-17 15:00:00,16,1018.5,-1.5,31,-1,20000,25.928,,,80,,,,,,,,,,,wg-a,,,,AAXX 17154 07130 12670 20814 10160 21010 30134 40185 56015 60006 82100 91500=
07130,1997-04-17 18:00:00,13,1018.9,0.3,33,-3,16000,22.224,,,100,6.2,15.7,,,,,,,,,wg-a,,,,AAXX 17184 07130 12/66 01012 10130 21030 30137 40189 53003 60006 80000 91800 333 10157 20062=
07130,1997-04-17 21:00:00,10,1021,2,40,-3,15000,14.816,,,50,,,,,,,,,,,wg-a,,,,AAXX 17214 07130 12/65 00508 10100 21030 30157 40210 53020 60006 80000 92100=
07130,1997-04-18 00:00:00,7,1021.6,0.6,70,2,20000,18.52,,,40,,,,,,,,,,,wg-a,,,,AAXX 18004 07130 12/70 00410 10070 20020 30163 40216 51006 60006 80000 90000=
07130,1997-04-18 06:00:00,5,1021,0.2,65,-1,12000,11.112,,,30,4.2,12.9,,,,,,,,,wg-a,,,,AAXX 18064 07130 02/62 00306 10050 21010 30156 40210 53002 60006 80000 90600 333 10129 20042 60004=
07130,1997-04-18 12:00:00,16,1018.8,-1.2,29,-2,35000,25.928,,,100,,,,,,,,,,,wg-a,,,,AAXX 18124 07130 12/81 01014 10160 21020 30137 40188 57012 60006 80000 91200=
07130,1997-04-18 15:00:00,18,1016.4,-2.4,28,-1,500,18.52,,,70,,,,,,,,,,,wg-a,,,,AAXX 18154 07130 12/00 00710 10180 21010 30113 40164 56024 60006 80000 91500=
07130,1997-04-18 18:00:00,17,1014.9,-1.5,29,-1,500,18.52,,,70,4.6,17.9,,,,,,,,,wg-a,,,,AAXX 18184 07130 12/00 00710 10170 21010 30098 40149 56015 60006 80000 91800 333 10179 20046=
07130,1997-04-18 21:00:00,11,1016.4,1.4,58,3,12000,22.224,,,50,,,,,,,,,,,wg-a,,,,AAXX 18214 07130 12/62 00512 10110 20030 30112 40164 51014 60006 80000 92100=
07130,1997-04-19 00:00:00,8,1015.7,-0.8,71,3,15000,14.816,,,70,,,,,,,,,,,wg-a,,,,AAXX 19004 07130 12/65 00708 10080 20030 30104 40157 58008 60006 80000 90000=
07130,1997-04-19 03:00:00,6,1014.9,-0.8,81,3,15000,11.112,,,60,,,,,,,,,,,wg-a,,,,AAXX 19034 07130 12/65 00606 10060 20030 30096 40149 58008 60006 80000 90300=
07130,1997-04-19 06:00:00,5,1014.7,-0.2,87,3,12000,7.408,,,70,5.2,16.6,,,,,,,,,wg-a,,,,AAXX 19064 07130 02/62 00704 10050 20030 30094 40147 55002 60006 80000 90600 333 10166 20052 60004=
07130,1997-04-19 12:00:00,12,1013,-1.3,50,2,25000,18.52,,,70,,,,,,,,,,,wg-a,,,,AAXX 19124 07130 12675 70710 10120 20020 30078 40130 56013 60006 875// 91200=
07130,1997-04-19 18:00:00,11,1012.4,0.8,58,3,25000,25.928,,,50,5.3,13.4,,,,,,,,,wg-a,,,,AAXX 19184 07130 12675 80514 10110 20030 30072 40124 51008 60006 885// 91800 333 10134 20053=
07130,1997-04-19 21:00:00,7,1014.6,2.1,61,0,20000,25.928,,,50,,,,,,,,,,,wg-a,,,,AAXX 19214 07130 12/70 00514 10070 20000 30093 40146 53021 60006 80000 92100=
07130,1997-04-20 00:00:00,5,1015.8,1.2,60,-2,20000,25.928,,,60,,,,,,,,,,,wg-a,,,,AAXX 20004 07130 12/70 00614 10050 21020 30105 40158 53012 60006 80000 90000=
07130,1997-04-20 06:00:00,3,1017,1.1,65,-3,25000,14.816,,,40,2.3,10.6,,,,,,,,,wg-a,,,,AAXX 20064 07130 02/75 00408 10030 21030 30116 40170 53011 60006 80000 90600 333 10106 20023 60004=
07130,1997-04-20 12:00:00,11,1016.1,-0.9,35,-4,40000,31.484,,,70,,,,,,,,,,,wg-a,,,,AAXX 20124 07130 12/82 00717 10110 21040 30109 40161 58009 60006 80000 91200=
07130,1997-04-20 15:00:00,13,1015,-1.1,30,-4,10000,29.632,,,60,,,,,,,,,,,wg-a,,,,AAXX 20154 07130 12/60 /0616 10130 21040 30098 40150 58011 60006 91500=
07130,1997-04-20 18:00:00,12,1014.8,-0.2,30,-5,40000,25.928,,,60,2.7,13.2,,,,,,,,,wg-a,,,,AAXX 20184 07130 12/82 00614 10120 21050 30096 40148 56002 60006 80000 91800 333 10132 20027=
07130,1997-04-20 21:00:00,7,1016.4,1.5,57,-1,40000,25.928,,,50,,,,,,,,,,,wg-a,,,,AAXX 20214 07130 12/82 00514 10070 21010 30111 40164 51015 60006 80000 92100=
07130,1997-04-21 00:00:00,5,1017,0.6,60,-2,10000,14.816,,,50,,,,,,,,,,,wg-a,,,,AAXX 21004 07130 12/60 /0508 10050 21020 30117 40170 50006 60006 90000=
07130,1997-04-21 03:00:00,2,1016.5,-0.6,69,-3,15000,14.816,,,40,,,,,,,,,,,wg-a,,,,AAXX 21034 07130 12/65 00408 10020 21030 30111 40165 58006 60006 80000 90300=
07130,1997-04-21 06:00:00,2,1016.7,0.2,64,-4,17000,11.112,,,40,0.9,11.9,,,,,,,,,wg-a,,,,AAXX 21064 07130 02/67 00406 10020 21040 30113 40167 53002 60006 80000 90600 333 10119 20009 60004=
07130,1997-04-21 09:00:00,9,1016.6,0,43,-3,25000,11.112,,,60,,,,,,,,,,,wg-a,,,,AAXX 21094 07130 12/75 00606 10090 21030 30113 40166 50000 60006 80000 90900=
07130,1997-04-21 12:00:00,12,1015,-1.5,32,-4,25000,18.52,,,20,,,,,,,,,,,wg-a,,,,AAXX 21124 07130 12/75 00210 10120 21040 30098 40150 58015 60006 80000 91200=
07130,1997-04-21 15:00:00,13,1013.8,-1.2,35,-2,25000,22.224,,,10,,,,,,,,,,,wg-a,,,,AAXX 21154 07130 12/75 00112 10130 21020 30086 40138 56012 60006 80000 91500=
07130,1997-04-21 18:00:00,10,1013.7,-0.1,50,0,15000,25.928,,,10,1.7,13.4,,,,,,,,,wg-a,,,,AAXX 21184 07130 12/65 00114 10100 20000 30085 40137 56001 60006 80000 91800 333 10134 20017=
07130,1997-04-21 21:00:00,6,1015.3,1.5,65,0,15000,18.52,,,20,,,,,,,,,,,wg-a,,,,AAXX 21214 07130 12/65 00210 10060 20000 30100 40153 53015 60006 80000 92100=
07130,1997-04-22 00:00:00,4,1015.9,0.5,75,0,15000,11.112,,,20,,,,,,,,,,,wg-a,,,,AAXX 22004 07130 12/65 00206 10040 20000 30105 40159 52005 60006 80000 90000=
07130,1997-04-22 03:00:00,2,1015.5,-0.4,80,-1,15000,7.408,,,10,,,,,,,,,,,wg-a,,,,AAXX 22034 07130 12/65 00104 10020 21010 30101 40155 56004 60006 80000 90300=
07130,1997-04-22 06:00:00,0,1016.3,0.8,93,-1,12000,3.704,,,310,-0.1,10.2,,,,,,,,,wg-a,,,,AAXX 22064 07130 02/62 03102 10000 21010 30109 40163 53008 60006 80000 90600 333 10102 21001 60004=
07130,1997-04-22 09:00:00,10,1017.1,1,50,0,15000,11.112,,,60,,,,,,,,,,,wg-a,,,,AAXX 22094 07130 12/65 10606 10100 20000 30119 40171 51010 60006 81040 90900=
07130,1997-04-22 12:00:00,14,1016.7,-0.4,38,0,20000,3.704,,,80,,,,,,,,,,,wg-a,,,,AAXX 22124 07130 12570 /0802 10140 20000 30115 40167 58004 60006 81100 91200=
07130,1997-04-22 15:00:00,14,1015.9,-0.8,36,-1,25000,11.112,,,30,,,,,,,,,,,wg-a,,,,AAXX 22154 07130 12675 50306 10140 21010 30107 40159 56008 60006 85800 91500=
07130,1997-04-22 18:00:00,13,1016.6,0.7,51,3,18000,14.816,,,30,-0.1,14.8,,,,,,,,,wg-a,,,,AAXX 22184 07130 12868 60308 10130 20030 30114 40166 53007 60006 86500 91800 333 10148 21001=
07130,1997-04-22 21:00:00,9,1018,1.3,81,6,10000,7.408,,,30,,,,,,,,,,,wg-a,,,,AAXX 22214 07130 12860 60304 10090 20060 30127 40180 51013 60006 86500 92100=
07130,1997-04-23 00:00:00,7,1019,1,66,1,12000,7.408,,,100,,,,,,,,,,,wg-a,,,,AAXX 23004 07130 12862 61004 10070 20010 30137 40190 53010 60006 865/0 90000=
07130,1997-04-23 03:00:00,4,1019,-0.1,70,-1,12000,3.704,,,50,,,,,,,,,,,wg-a,,,,AAXX 23034 07130 12/62 00502 10040 21010 30136 40190 55001 60006 80000 90300=
07130,1997-04-23 06:00:00,2,1019.8,0.8,93,1,20000,3.704,,,300,1.6,12.6,,,,,,,,,wg-a,,,,AAXX 23064 07130 02/70 13002 10020 20010 30144 40198 53008 60006 81040 90600 333 10126 20016 60004=
07130,1997-04-23 09:00:00,11,1020.3,0.7,47,0,25000,7.408,,,160,,,,,,,,,,,wg-a,,,,AAXX 23094 07130 12/75 21604 10110 20000 30151 40203 50007 60006 82031 90900=
07130,1997-04-23 15:00:00,16,1019,-0.7,31,-1,500,7.408,,,350,,,,,,,,,,,wg-a,,,,AAXX 23154 07130 12600 43504 10160 21010 30139 40190 58007 60006 83102 91500=
07130,1997-04-23 18:00:00,15,1019.4,0.3,33,-1,500,3.704,,,10,1.7,16.9,,,,,,,,,wg-a,,,,AAXX 23184 07130 12600 60102 10150 21010 30142 40194 50003 60006 82432 91800 333 10169 20017=
07130,1997-04-23 21:00:00,11,1020.6,1.2,50,1,500,3.704,,,200,,,,,,,,,,,wg-a,,,,AAXX 23214 07130 12700 22002 10110 20010 30154 40206 52012 60006 81502 92100=
07130,1997-04-24 00:00:00,8,1020.9,0.2,71,3,500,3.704,,,200,,,,,,,,,,,wg-a,,,,AAXX 24004 07130 12/00 02002 10080 20030 30156 40209 51002 60006 80000 90000=
07130,1997-04-24 03:00:00,5,1020.7,-0.3,81,2,20000,0,,,0,,,,,,,,,,,wg-a,,,,AAXX 24034 07130 12/70 00000 10050 20020 30153 40207 55003 60006 80000 90300=
07130,1997-04-24 06:00:00,4,1020.7,-0,87,2,9000,0,,,0,3.2,15.2,,,,,,,,,wg-a,,,,AAXX 24064 07130 02/59 00000 10040 20020 30153 40207 55000 60006 80000 90600 333 10152 20032 60004=
07130,1997-04-24 12:00:00,18,1019.4,-1.3,28,-1,25000,18.52,,,200,,,,,,,,,,,wg-a,,,,AAXX 24124 07130 12/75 62010 10180 21010 30143 40194 58013 60006 80002 91200=
07130,1997-04-24 18:00:00,17,1017.7,-0.5,34,1,35000,14.816,,,250,3.9,19.5,,,,,,,,,wg-a,,,,AAXX 24184 07130 12/81 52508 10170 20010 30126 40177 57005 60006 80002 91800 333 10195 20039=
07130,1997-04-24 21:00:00,11,1018.7,0.9,54,2,500,7.408,,,240,,,,,,,,,,,wg-a,,,,AAXX 24214 07130 12/00 62404 10110 20020 30135 40187 52009 60006 80002 92100=
07130,1997-04-25 00:00:00,8,1018.4,-0.4,87,6,20000,3.704,,,230,,,,,,,,,,,wg-a,,,,AAXX 25004 07130 12/70 72302 10080 20060 30131 40184 56004 60006 80002 90000=
07130,1997-04-25 03:00:00,9,1017.4,-1,93,8,15000,7.408,,,200,,,,,,,,,,,wg-a,,,,AAXX 25034 07130 12665 72004 10090 20080 30121 40174 58010 60006 85542 90300=
07130,1997-04-25 06:00:00,9,1017.5,0.1,93,8,500,3.704,,,200,8,16.4,,,,,,,,61,wg-a,,,,AAXX 25064 07130 02600 82002 10090 20080 30122 40175 53001 61000 76162 8152/ 90600 333 10164 20080 6100=
07130,1997-04-25 09:00:00,12,1017.5,0.1,82,9,8000,18.52,,,220,,,,0,,,,,,60,wg-a,,,,AAXX 25094 07130 12658 72210 10120 20090 30123 40175 51001 60007 76062 8157/ 90900=
07130,1997-04-25 12:00:00,13,1017,-0.5,88,11,9000,14.816,,,220,,,,0,,,,,,3,wg-a,,,,AAXX 25124 07130 02459 82208 10130 20110 30118 40170 56005 60016 70362 8657/ 91200 333 60007=
07130,1997-04-25 15:00:00,14,1016.3,-0.7,88,12,10000,18.52,,,240,,,,,,,,,,,wg-a,,,,AAXX 25154 07130 12360 82410 10140 20120 30111 40163 56007 60006 875// 91500=
07130,1997-04-25 18:00:00,15,1015.8,-0.4,82,12,20000,14.816,,,220,8.9,15.6,,,,,,,,,wg-a,,,,AAXX 25184 07130 12570 /2208 10150 20120 30107 40158 55004 60006 83572 91800 333 10156 20089=
07130,1997-04-25 21:00:00,13,1016.8,0.9,88,11,20000,11.112,,,240,,,,,,,,,,,wg-a,,,,AAXX 25214 07130 12570 /2406 10130 20110 30116 40168 53009 60006 81572 92100=
07130,1997-04-26 00:00:00,9,1016.8,-0.1,100,9,10000,7.408,,,240,,,,,,,,,,,wg-a,,,,AAXX 26004 07130 12560 32404 10090 20090 30115 40168 58001 60006 81501 90000=
07130,1997-04-26 06:00:00,11,1014.1,-1.4,94,10,12000,11.112,,,190,9,14.9,,,,,,,,,wg-a,,,,AAXX 26064 07130 02462 71906 10110 20100 30089 40141 56014 60006 875// 90600 333 10149 20090 60004=
07130,1997-04-26 09:00:00,12,1011.4,-2.7,94,11,4000,25.928,,,190,,,,2,,,,,,61,wg-a,,,,AAXX 26094 07130 12340 81914 10120 20110 30062 40114 56027 60027 76162 8572/ 90900=
07130,1997-04-26 12:00:00,16,1008.8,-2.5,88,14,500,25.928,,,240,,,,3,,,,,,1,wg-a,,,,AAXX 26124 07130 02400 62414 10160 20140 30037 40088 56025 60056 70162 85840 91200 333 60037=
07130,1997-04-26 15:00:00,17,1007.4,-1.4,63,10,500,25.928,,44.448,250,,,,,,,,,,1,wg-a,,,,AAXX 26154 07130 02500 72514 10170 20100 30023 40074 56014 61000 70186 83802 91500 333 //// 91024=
07130,1997-04-26 18:00:00,15,1007,-0.4,72,10,25000,22.224,,,250,10.7,17.2,,,,,,,,3,wg-a,,,,AAXX 26184 07130 12575 72512 10150 20100 30019 40070 57004 60006 70386 878// 91800 333 10172 20107=
07130,1997-04-26 21:00:00,11,1008.2,1.1,94,10,15000,11.112,,,260,,,,3,,,,,,2,wg-a,,,,AAXX 26214 07130 12565 72606 10110 20100 30030 40082 51011 60037 70286 878// 92100=
07130,1997-04-27 00:00:00,10,1008.6,0.4,93,9,20000,11.112,,,270,,,,0,,,,,,1,wg-a,,,,AAXX 27004 07130 02670 /2706 10100 20090 30034 40086 53004 60036 70186 81500 90000 333 60007=
07130,1997-04-27 03:00:00,10,1009.2,0.6,100,10,20000,7.408,,,260,,,,0,,,,,,,wg-a,,,,AAXX 27034 07130 12570 82604 10100 20100 30040 40092 53006 60007 8257/ 90300=
07130,1997-04-27 06:00:00,10,1011.1,1.9,100,10,10000,7.408,,,270,9.1,14.6,,,,,,,,25,wg-a,,,,AAXX 27064 07130 02360 72704 10100 20100 30059 40111 53019 61000 72586 878// 90600 333 10146 20091 6008=
07130,1997-04-27 09:00:00,12,1013.2,2.1,94,11,15000,11.112,,,330,,,,0,,,,,,25,wg-a,,,,AAXX 27094 07130 12465 73306 10120 20110 30080 40132 51021 60007 72586 87800 90900=
07130,1997-04-27 12:00:00,15,1014.2,1.1,72,10,500,22.224,,,320,,,,,,,,,,1,wg-a,,,,AAXX 27124 07130 12500 73212 10150 20100 30091 40142 51011 60006 70186 878// 91200=
07130,1997-04-27 18:00:00,16,1015.3,1.1,77,12,20000,22.224,,,260,10,18,,,,,,,,,wg-a,,,,AAXX 27184 07130 12570 72612 10160 20120 30102 40153 53011 60006 878// 91800 333 10180 20100=
07130,1997-04-27 21:00:00,13,1016.1,0.7,94,12,12000,18.52,,,230,,,,,,,,,,,wg-a,,,,AAXX 27214 07130 12462 82310 10130 20120 30109 40161 51007 60006 875// 92100=
07130,1997-04-28 00:00:00,14,1015.5,-0.6,94,13,12000,14.816,,,240,,,,,,,,,,,wg-a,,,,AAXX 28004 07130 12262 82408 10140 20130 30103 40155 55006 60006 886// 90000=
07130,1997-04-28 03:00:00,14,1015.9,0.4,88,12,25000,14.816,,,270,,,,,,,,,,,wg-a,,,,AAXX 28034 07130 12475 /2708 10140 20120 30107 40159 53004 60006 86800 90300=
07130,1997-04-28 06:00:00,14,1015.9,-0,88,12,20000,14.816,,,260,12.7,15.8,,,,,,,,,wg-a,,,,AAXX 28064 07130 02470 72608 10140 20120 30107 40159 55000 60006 878// 90600 333 10158 20127 60004=
07130,1997-04-28 09:00:00,16,1015.9,0.1,72,11,500,18.52,,,260,,,,,,,,,,,wg-a,,,,AAXX 28094 07130 12500 82610 10160 20110 30108 40159 50001 60006 888// 90900=
07130,1997-04-28 12:00:00,17,1016.7,0.8,68,11,25000,29.632,,,300,,,,,,,,,,,wg-a,,,,AAXX 28124 07130 12675 73016 10170 20110 30116 40167 53008 60006 8652/ 91200=
07130,1997-04-28 15:00:00,17,1015.9,-0.8,59,9,500,29.632,,53.708,290,,,,,,,,,,,wg-a,,,,AAXX 28154 07130 12600 82916 10170 20090 30108 40159 57008 60006 8452/ 91500 333 91029=
07130,1997-04-28 18:00:00,16,1015.7,-0.2,63,9,20000,22.224,,,290,13.6,17.5,,,,,,,,,wg-a,,,,AAXX 28184 07130 12670 /2912 10160 20090 30106 40157 55002 60006 85100 91800 333 10175 20136=
07130,1997-04-28 21:00:00,12,1017.5,1.7,71,7,25000,7.408,,,270,,,,,,,,,,,wg-a,,,,AAXX 28214 07130 12675 /2704 10120 20070 30123 40175 51017 60006 81500 92100=
07130,1997-04-29 03:00:00,12,1017.9,0.2,76,8,25000,14.816,,,300,,,,,,,,,,,wg-a,,,,AAXX 29034 07130 12575 73008 10120 20080 30127 40179 53002 60006 875// 90300=
07130,1997-04-29 06:00:00,11,1019.3,1.4,94,10,12000,14.816,,,300,11.1,15.5,,,,,,,,,wg-a,,,,AAXX 29064 07130 02462 73008 10110 20100 30141 40193 53014 60006 878// 90600 333 10155 20111 60004=
07130,1997-04-29 09:00:00,14,1020.8,1.5,72,9,11000,25.928,,,320,,,,,,,,,,,wg-a,,,,AAXX 29094 07130 12/61 /3214 10140 20090 30156 40208 52015 60006 90900=
07130,1997-04-29 12:00:00,16,1021.1,0.3,55,7,15000,25.928,,,330,,,,,,,,,,,wg-a,,,,AAXX 29124 07130 12665 73314 10160 20070 30159 40211 50003 60006 875// 91200=
07130,1997-04-29 18:00:00,15,1022,0.7,59,7,40000,22.224,,,340,11.2,17.8,,,,,,,,,wg-a,,,,AAXX 29184 07130 12682 23412 10150 20070 30168 40220 53007 60006 82800 91800 333 10178 20112=
07130,1997-04-30 00:00:00,8,1024.1,0.5,93,7,500,7.408,,,280,,,,,,,,,,,wg-a,,,,AAXX 30004 07130 12/00 02804 10080 20070 30188 40241 51005 60006 80000 90000=
07130,1997-04-30 06:00:00,7,1025.7,1.4,100,7,200,7.408,,,310,5,14.7,,,,,,,,45,wg-a,,,,AAXX 30064 07130 02/02 93104 10070 20070 30204 40257 53014 60006 74541 89/// 90600 333 10147 20050 60004=
07130,1997-04-30 12:00:00,20,1026.2,-0.2,43,7,20000,11.112,,,90,,,,,,,,,,1,wg-a,,,,AAXX 30124 07130 12670 30906 10200 20070 30211 40262 58002 60006 70141 83100 91200=
07130,1997-04-30 15:00:00,20,1025.7,-0.5,46,8,500,11.112,,,40,,,,,,,,,,,wg-a,,,,AAXX 30154 07130 12600 20406 10200 20080 30206 40257 56005 60006 82400 91500=
07130,1997-04-30 18:00:00,18,1025.9,0.2,56,9,10000,14.816,,,40,7.2,20.9,,,,,,,,,wg-a,,,,AAXX 30184 07130 12/60 /0408 10180 20090 30208 40259 53002 60006 91800 333 10209 20072=
07130,1997-04-30 21:00:00,13,1026.9,0.9,77,9,35000,11.112,,,30,,,,,,,,,,,wg-a,,,,AAXX 30214 07130 12/81 00306 10130 20090 30217 40269 51009 60006 80000 92100=
07130,1997-05-01 00:00:00,11,1027.5,0.5,82,8,25000,0,,,0,,,,,,,,,,,wg-a,,,,AAXX 01004 07130 12/75 00000 10110 20080 30222 40275 51005 60006 80000 90000=
07130,1997-05-01 03:00:00,10,1027.5,-0,87,8,15000,0,,,0,,,,,,,,,,,wg-a,,,,AAXX 01034 07130 12/65 00000 10100 20080 30222 40275 55000 60006 80000 90300=
07130,1997-05-01 06:00:00,9,1028,0.5,93,8,8000,7.408,,,100,8.4,18.3,,,,,,,,,wg-a,,,,AAXX 01064 07130 02/58 01004 10090 20080 30227 40280 53005 60006 80000 90600 333 10183 20084 60004=
07130,1997-05-01 09:00:00,17,1027.8,-0.1,55,8,12000,14.816,,,130,,,,,,,,,,,wg-a,,,,AAXX 01094 07130 12/62 11308 10170 20080 30226 40278 58001 60006 80001 90900=
07130,1997-05-01 12:00:00,21,1026.4,-1.3,40,7,17000,22.224,,,130,,,,,,,,,,,wg-a,,,,AAXX 01124 07130 12/67 11312 10210 20070 30213 40264 58013 60006 80001 91200=
07130,1997-05-01 15:00:00,23,1025,-1.4,36,7,20000,22.224,,,110,,,,,,,,,,,wg-a,,,,AAXX 01154 07130 12/70 11112 10230 20070 30199 40250 57014 60006 80001 91500=
07130,1997-05-01 18:00:00,21,1024.1,-0.9,40,7,20000,18.52,,,90,9.4,23.2,,,,,,,,,wg-a,,,,AAXX 01184 07130 12/70 00910 10210 20070 30190 40241 56009 60006 80000 91800 333 10232 20094=
07130,1997-05-01 21:00:00,16,1024.8,0.6,59,8,10000,14.816,,,100,,,,,,,,,,,wg-a,,,,AAXX 01214 07130 12/60 01008 10160 20080 30196 40248 53006 60006 80000 92100=
07130,1997-05-02 00:00:00,14,1024.8,0,67,8,10000,7.408,,,100,,,,,,,,,,,wg-a,,,,AAXX 02004 07130 12/60 01004 10140 20080 30196 40248 50000 60006 80000 90000=
07130,1997-05-02 03:00:00,12,1024,-0.8,76,8,10000,11.112,,,100,,,,,,,,,,,wg-a,,,,AAXX 02034 07130 12/60 01006 10120 20080 30188 40240 58008 60006 80000 90300=
07130,1997-05-02 06:00:00,11,1023.9,-0.1,82,8,7000,3.704,,,70,10.3,21.5,,,,,,,,,wg-a,,,,AAXX 02064 07130 02/57 00702 10110 20080 30187 40239 55001 60006 80000 90600 333 10215 20103 60004=
07130,1997-05-02 09:00:00,19,1023,-0.8,46,7,12000,22.224,,,130,,,,,,,,,,,wg-a,,,,AAXX 02094 07130 12/62 01312 10190 20070 30179 40230 57008 60006 80000 90900=
07130,1997-05-02 12:00:00,24,1021.2,-1.7,36,8,20000,22.224,,,110,,,,,,,,,,,wg-a,,,,AAXX 02124 07130 12/70 01112 10240 20080 30162 40212 56017 60006 80000 91200=
07130,1997-05-02 15:00:00,26,1019.2,-2,30,7,500,22.224,,,120,,,,,,,,,,,wg-a,,,,AAXX 02154 07130 12/00 01212 10260 20070 30142 40192 57020 60006 80000 91500=
07130,1997-05-02 18:00:00,25,1018.4,-0.8,34,8,35000,11.112,,,130,11,26.1,,,,,,,,,wg-a,,,,AAXX 02184 07130 12/81 01306 10250 20080 30134 40184 56008 60006 80000 91800 333 10261 20110=
07130,1997-05-02 21:00:00,19,1019,0.5,49,8,500,7.408,,,110,,,,,,,,,,,wg-a,,,,AAXX 02214 07130 12/00 11104 10190 20080 30139 40190 53005 60006 80001 92100=
07130,1997-05-03 00:00:00,15,1018.3,-0.7,59,7,500,3.704,,,90,,,,,,,,,,,wg-a,,,,AAXX 03004 07130 12/00 00902 10150 20070 30132 40183 58007 60006 80000 90000=
07130,1997-05-03 06:00:00,12,1017.2,-0.1,82,9,20000,0,,,0,10.8,24.7,,,,,,,,,wg-a,,,,AAXX 03064 07130 02/70 70000 10120 20090 30120 40172 55001 60006 81042 90600 333 10247 20108 60004=
07130,1997-05-03 09:00:00,18,1018.1,1,64,11,15000,11.112,,,310,,,,,,,,,,60,wg-a,,,,AAXX 03094 07130 02765 73106 10180 20110 30130 40181 51010 61000 76062 8257/ 90900 333 ////=
07130,1997-05-03 12:00:00,21,1017.8,-0.2,64,14,20000,11.112,,,280,,,,,,,,,,1,wg-a,,,,AAXX 03124 07130 02670 /2806 10210 20140 30128 40178 58002 61000 70162 86800 91200 333 6100=
07130,1997-05-03 15:00:00,23,1016.7,-1.1,53,13,25000,18.52,,,260,,,,,,,,,,,wg-a,,,,AAXX 03154 07130 12675 52610 10230 20130 30117 40167 58011 60006 85800 91500=
07130,1997-05-03 18:00:00,20,1016.3,-0.4,64,13,40000,11.112,,,270,11.8,23.4,,,,,,,,,wg-a,,,,AAXX 03184 07130 12682 72706 10200 20130 30113 40163 58004 60006 878// 91800 333 10234 20118=
07130,1997-05-03 21:00:00,15,1017,0.6,88,13,20000,7.408,,,220,,,,,,,,,,,wg-a,,,,AAXX 03214 07130 12/70 12204 10150 20130 30119 40170 53006 60006 80001 92100=
07130,1997-05-04 00:00:00,14,1015.9,-1.2,94,13,15000,14.816,,,220,,,,,,,,,,,wg-a,,,,AAXX 04004 07130 12365 /2208 10140 20130 30107 40159 58012 60006 86500 90000=
07130,1997-05-04 03:00:00,15,1013.3,-2.5,94,14,8000,18.52,,,220,,,,,,,,,,,wg-a,,,,AAXX 04034 07130 12358 82210 10150 20140 30082 40133 56025 60006 885// 90300=
07130,1997-05-04 06:00:00,15,1011.5,-1.8,88,13,7000,18.52,,,210,13.5,20.1,,,,,,,,,wg-a,,,,AAXX 04064 07130 02/57 /2110 10150 20130 30064 40115 56018 60006 90600 333 10201 20135 61000=
07130,1997-05-04 09:00:00,16,1009.8,-1.7,88,14,10000,25.928,,44.448,210,,,,,,,,,,,wg-a,,,,AAXX 04094 07130 12460 82114 10160 20140 30047 40098 56017 60006 8687/ 90900 333 91024=
07130,1997-05-04 12:00:00,16,1008.4,-1.4,94,15,11000,22.224,,,220,,,,1,,,,,,,wg-a,,,,AAXX 04124 07130 02/61 /2212 10160 20150 30033 40084 58014 60016 91200 333 60017=
07130,1997-05-04 15:00:00,20,1005.7,-2.6,64,13,40000,25.928,,,250,,,,,,,,,,,wg-a,,,,AAXX 04154 07130 12582 /2514 10200 20130 30007 40057 58026 60006 85200 91500=
07130,1997-05-04 18:00:00,16,1003.8,-1.9,77,12,40000,22.224,,,220,14.7,19.9,,,,,,,,,wg-a,,,,AAXX 04184 07130 12582 72212 10160 20120 39988 40038 56019 60006 83202 91800 333 10199 20147=
07130,1997-05-05 00:00:00,14,999,-2.6,94,13,20000,18.52,,,210,,,,0,,,,,,21,wg-a,,,,AAXX 05004 07130 02470 82110 10140 20130 39939 49990 58026 60006 72162 8657/ 90000 333 60007=
07130,1997-05-05 03:00:00,13,995.6,-3.4,94,12,10000,18.52,,,200,,,,0,,,,,,61,wg-a,,,,AAXX 05034 07130 12460 82010 10130 20120 39905 49956 58034 60007 76162 8657/ 90300=
07130,1997-05-05 06:00:00,12,994.8,-0.8,100,12,7000,18.52,,,250,12.1,16.4,,,,,,,,61,wg-a,,,,AAXX 05064 07130 02457 82510 10120 20120 39897 49948 55008 61000 76161 885// 90600 333 10164 20121 6007=
07130,1997-05-05 09:00:00,14,994.5,-0.2,88,12,500,22.224,,,230,,,,1,,,,,,3,wg-a,,,,AAXX 05094 07130 12500 52312 10140 20120 39895 49945 58002 60017 70362 85201 90900=
07130,1997-05-05 12:00:00,14,993,-1.5,94,13,7000,25.928,,,210,,,,1,,,,,,61,wg-a,,,,AAXX 05124 07130 02457 82114 10140 20130 39880 49930 58015 60036 76162 878// 91200 333 60017=
07130,1997-05-05 15:00:00,15,991.5,-1.5,88,13,8000,31.484,,,230,,,,2,,,,,,80,wg-a,,,,AAXX 05154 07130 12458 72317 10150 20130 39865 49915 56015 60027 78086 878// 91500=
07130,1997-05-05 18:00:00,15,991.3,-0.2,82,12,20000,22.224,,,240,11.7,17.6,,1,,,,,,15,wg-a,,,,AAXX 05184 07130 02470 72412 10150 20120 39863 49913 55002 60006 71586 86902 91800 333 10176 20117 60017=
07130,1997-05-05 21:00:00,12,992.2,0.8,82,9,35000,7.408,,,260,,,,,,,,,,,wg-a,,,,AAXX 05214 07130 12581 72604 10120 20090 39871 49922 50008 60006 81872 92100=
07130,1997-05-06 00:00:00,10,991.6,-0.6,93,9,35000,3.704,,,240,,,,,,,,,,,wg-a,,,,AAXX 06004 07130 12/81 82402 10100 20090 39865 49916 58006 60006 8807/ 90000=
07130,1997-05-06 03:00:00,10,990.6,-1,93,9,35000,11.112,,,260,,,,,,,,,,,wg-a,,,,AAXX 06034 07130 12681 72606 10100 20090 39855 49906 58010 60006 8157/ 90300=
07130,1997-05-06 06:00:00,7,991.9,1.2,93,6,8000,42.596,,61.116,340,7.4,14.9,,,,,,,,61,wg-a,,,,AAXX 06064 07130 02458 83423 10070 20060 39867 49919 53012 61000 76165 885// 90600 333 10149 20074 6006 91033=
07130,1997-05-06 09:00:00,7,996.8,4.9,87,5,12000,35.188,,61.116,350,,,,,,,,,,21,wg-a,,,,AAXX 06094 07130 02462 73519 10070 20050 39916 49968 51049 61000 72162 83522 90900 333 //// 91033=
07130,1997-05-06 12:00:00,9,1000.3,3.5,66,3,15000,29.632,,,340,,,,,,,,,,16,wg-a,,,,AAXX 06124 07130 02565 73416 10090 20030 39951 40003 51035 61000 71686 86802 91200 333 6100=
07130,1997-05-06 15:00:00,10,1002.2,1.9,53,1,25000,29.632,,,330,,,,0,,,,,,27,wg-a,,,,AAXX 06154 07130 12575 /3316 10100 20010 39970 40022 51019 60007 72787 86900 91500=
07130,1997-05-06 18:00:00,8,1004.7,2.5,61,1,40000,29.632,,,340,6.3,10.5,,,,,,,,80,wg-a,,,,AAXX 06184 07130 02682 63416 10080 20010 39995 40047 51025 61000 78087 84842 91800 333 10105 20063 6100=
07130,1997-05-07 00:00:00,3,1004.5,-1.3,93,2,40000,0,,,0,,,,,,,,,,0,wg-a,,,,AAXX 07004 07130 02682 /0000 10030 20020 39992 40045 58013 61000 700// 81502 90000 333 ////=
07130,1997-05-07 03:00:00,3,1003.1,-1.4,93,2,40000,0,,,0,,,,,,,,,,,wg-a,,,,AAXX 07034 07130 12682 30000 10030 20020 39978 40031 56014 60006 82502 90300=
07130,1997-05-07 06:00:00,3,1003.2,0.1,93,2,20000,3.704,,,330,2.9,7.6,,,,,,,,,wg-a,,,,AAXX 07064 07130 02670 /3302 10030 20020 39979 40032 53001 60006 82232 90600 333 10076 20029 60004=
07130,1997-05-07 09:00:00,8,1003.4,0.3,66,2,500,18.52,,,350,,,,,,,,,,,wg-a,,,,AAXX 07094 07130 12600 43510 10080 20020 39982 40034 53003 60006 83202 90900=
07130,1997-05-07 12:00:00,10,1004.2,0.8,43,-2,25000,18.52,,,10,,,,,,,,,,,wg-a,,,,AAXX 07124 07130 12675 /0110 10100 21020 39990 40042 53008 60006 86900 91200=
07130,1997-05-07 15:00:00,7,1006.3,2.1,81,4,20000,31.484,,51.856,340,,,,0,,,,,,80,wg-a,,,,AAXX 07154 07130 12570 73417 10070 20040 30011 40063 53021 60007 78086 879// 91500 333 91028=
07130,1997-05-07 18:00:00,10,1006.9,0.6,43,-2,500,22.224,,,340,3.2,10.6,,0,,,,,,1,wg-a,,,,AAXX 07184 07130 02600 33412 10100 21020 30017 40069 53006 60006 70186 83200 91800 333 10106 20032 60007=
07130,1997-05-08 00:00:00,5,1008.3,-0.5,81,2,25000,7.408,,,220,,,,,,,,,,,wg-a,,,,AAXX 08004 07130 12675 32204 10050 20020 30030 40083 58005 60006 83200 90000=
07130,1997-05-08 03:00:00,6,1006.3,-2,81,3,15000,14.816,,,230,,,,,,,,,,,wg-a,,,,AAXX 08034 07130 12665 72308 10060 20030 30010 40063 58020 60006 8757/ 90300=
07130,1997-05-08 06:00:00,8,1005.4,-0.8,81,5,20000,14.816,,,240,4.1,9.7,,,,,,,,,wg-a,,,,AAXX 08064 07130 02670 72408 10080 20050 30002 40054 56008 60006 8117/ 90600 333 10097 20041 60004=
07130,1997-05-08 09:00:00,11,1004.5,-0.8,71,6,40000,22.224,,,270,,,,,,,,,,,wg-a,,,,AAXX 08094 07130 12582 72712 10110 20060 39994 40045 56008 60006 85842 90900=
07130,1997-05-08 12:00:00,13,1003.5,-1,67,7,40000,22.224,,,240,,,,,,,,,,,wg-a,,,,AAXX 08124 07130 12582 72412 10130 20070 39984 40035 58010 60006 85832 91200=
07130,1997-05-08 15:00:00,15,1001.4,-2.1,67,9,40000,29.632,,,240,,,,0,,,,,,1,wg-a,,,,AAXX 08154 07130 12582 72416 10150 20090 39963 40014 56021 60007 70162 85802 91500=
07130,1997-05-08 18:00:00,13,999.8,-1.6,77,9,500,22.224,,,250,7.5,14.7,,0,,,,,,15,wg-a,,,,AAXX 08184 07130 02600 /2512 10130 20090 39947 49998 56016 60006 71586 85240 91800 333 10147 20075 60007=
07130,1997-05-08 21:00:00,10,1001.2,1.3,82,7,25000,14.816,,,250,,,,,,,,,,,wg-a,,,,AAXX 08214 07130 12675 42508 10100 20070 39960 40012 53013 60006 84800 92100=
07130,1997-05-09 00:00:00,9,1001.4,0.2,87,7,20000,14.816,,,240,,,,,,,,,,,wg-a,,,,AAXX 09004 07130 12670 /2408 10090 20070 39962 40014 50002 60006 86800 90000=
07130,1997-05-09 03:00:00,8,1001.1,-0.3,87,6,20000,14.816,,,240,,,,,,,,,,,wg-a,,,,AAXX 09034 07130 12770 82408 10080 20060 39959 40011 55003 60006 875// 90300=
07130,1997-05-09 06:00:00,8,1002.3,1.2,87,6,500,14.816,,,260,7.1,12.5,,,,,1,,,,wg-a,,,,AAXX 09064 07130 02500 22608 10080 20060 39971 40023 53012 60006 81840 90600 333 10125 20071 60014=
07130,1997-05-09 12:00:00,15,1004.9,1,55,6,500,22.224,,,290,,,,0,,,,,,25,wg-a,,,,AAXX 09124 07130 02500 /2912 10150 20060 39998 40049 51010 60016 72586 86800 91200 333 60007=
07130,1997-05-09 15:00:00,15,1006.2,1.3,55,6,20000,25.928,,,270,,,,,,,,,,15,wg-a,,,,AAXX 09154 07130 12670 72714 10150 20060 30011 40062 53013 60006 71522 879// 91500=
07130,1997-05-09 18:00:00,13,1007.3,1.1,72,8,20000,14.816,,,260,8.1,17.4,,0,,,,,,15,wg-a,,,,AAXX 09184 07130 02570 52608 10130 20080 30022 40073 51011 60006 71586 85900 91800 333 10174 20081 60007=
07130,1997-05-09 21:00:00,11,1008.8,1.4,76,7,500,14.816,,,240,,,,,,,,,,,wg-a,,,,AAXX 09214 07130 12500 22408 10110 20070 30036 40088 52014 60006 82800 92100=
07130,1997-05-10 00:00:00,9,1009,0.2,87,7,500,14.816,,,200,,,,,,,,,,,wg-a,,,,AAXX 10004 07130 12600 /2008 10090 20070 30038 40090 50002 60006 81500 90000=
07130,1997-05-10 03:00:00,10,1007.8,-1.2,87,8,20000,18.52,,,210,,,,,,,,,,80,wg-a,,,,AAXX 10034 07130 02670 72110 10100 20080 30026 40078 58012 61000 78086 875// 90300 333 ////=
07130,1997-05-10 06:00:00,10,1006.6,-1.2,93,9,9000,22.224,,,190,8.8,13.4,,,,,1,,,15,wg-a,,,,AAXX 10064 07130 02559 71912 10100 20090 30014 40066 56012 60006 71586 81542 90600 333 10134 20088 60014=
07130,1997-05-10 09:00:00,14,1005.8,-0.7,77,10,25000,29.632,,,210,,,,,,,,,,,wg-a,,,,AAXX 10094 07130 12575 82116 10140 20100 30007 40058 58007 60006 878// 90900=
07130,1997-05-10 12:00:00,14,1005.8,-0,82,11,1500,35.188,,,230,,,,1,,,,,,61,wg-a,,,,AAXX 10124 07130 02515 82319 10140 20110 30007 40058 55000 60016 76162 8587/ 91200 333 60017=
07130,1997-05-10 15:00:00,15,1005.6,-0.2,72,10,25000,35.188,,,240,,,,0,,,,,,3,wg-a,,,,AAXX 10154 07130 12575 82419 10150 20100 30005 40056 56002 60007 70386 8627/ 91500=
07130,1997-05-10 18:00:00,11,1006.5,0.8,94,10,8000,14.816,,,250,10.4,16.1,,,,,,,,61,wg-a,,,,AAXX 10184 07130 02458 82508 10110 20100 30013 40065 53008 61000 76186 8682/ 91800 333 10161 20104 6003=
07130,1997-05-10 21:00:00,11,1007.2,0.7,94,10,11000,14.816,,,210,,,,,,,,,,,wg-a,,,,AAXX 10214 07130 32/61 /2108 10110 20100 30020 40072 53007 92100=
07130,1997-05-11 00:00:00,11,1007.5,0.3,94,10,20000,11.112,,,210,,,,,,,,,,1,wg-a,,,,AAXX 11004 07130 12670 42106 10110 20100 30023 40075 53003 60006 70161 84500 90000=
07130,1997-05-11 03:00:00,10,1007.1,-0.4,100,10,20000,11.112,,,200,,,,,,,,,,,wg-a,,,,AAXX 11034 07130 12670 /2006 10100 20100 30019 40071 56004 60006 85500 90300=
07130,1997-05-11 06:00:00,10,1007.6,0.5,93,9,20000,18.52,,,200,9.6,11.1,,,,,4,,,,wg-a,,,,AAXX 11064 07130 02570 32010 10100 20090 30024 40076 53005 60006 82231 90600 333 10111 20096 60044=
07130,1997-05-11 09:00:00,14,1008,0.5,58,6,500,22.224,,,240,,,,,,,,,,,wg-a,,,,AAXX 11094 07130 12500 /2412 10140 20060 30029 40080 52005 60006 85200 90900=
07130,1997-05-11 12:00:00,16,1008.4,0.4,51,6,11000,31.484,,59.264,220,,,,,,,,,,,wg-a,,,,AAXX 11124 07130 12/61 /2217 10160 20060 30033 40084 51004 60006 91200 333 91032=
07130,1997-05-11 18:00:00,13,1011.1,1.4,72,8,500,25.928,,,210,10.3,16.7,,1,,,,,,15,wg-a,,,,AAXX 11184 07130 02500 32114 10130 20080 30059 40111 52014 60006 71582 83900 91800 333 10167 20103 60017=
07130,1997-05-11 21:00:00,11,1014.1,3,76,7,500,14.816,,,240,,,,,,,,,,,wg-a,,,,AAXX 11214 07130 12500 22408 10110 20070 30089 40141 53030 60006 82900 92100=
07130,1997-05-12 00:00:00,8,1015.8,1.6,93,7,500,11.112,,,220,,,,,,,,,,2,wg-a,,,,AAXX 12004 07130 02/00 02206 10080 20070 30105 40158 52016 61000 70286 80000 90000 333 ////=
07130,1997-05-12 03:00:00,7,1016.7,0.9,100,7,500,11.112,,,190,,,,,,,,,,,wg-a,,,,AAXX 12034 07130 12/00 11906 10070 20070 30114 40167 52009 60006 81040 90300=
07130,1997-05-12 06:00:00,8,1018,1.3,100,8,20000,14.816,,,200,7.3,12.8,,,,,,,,25,wg-a,,,,AAXX 12064 07130 02570 22008 10080 20080 30127 40180 53013 61000 72586 82900 90600 333 10128 20073 6006=
07130,1997-05-12 09:00:00,12,1019.6,1.7,82,9,35000,14.816,,,250,,,,0,,,,,,1,wg-a,,,,AAXX 12094 07130 12581 42508 10120 20090 30144 40196 51017 60007 70186 83960 90900=
07130,1997-05-12 10:00:00,16,1019.8,-0,51,6,40000,18.52,,44.448,240,,17.7,,,,,,,,,wg-a,,,,AAXX 12104 07130 32682 /2410 10160 20060 30146 40198 55000 81100 91000 333 10177 91024=
07130,1997-05-12 12:00:00,16,1020,0.5,59,8,35000,22.224,,,240,,,,2,,,,,,25,wg-a,,,,AAXX 12124 07130 02681 /2412 10160 20080 30149 40200 50005 60026 72581 85900 91200 333 60027=
07130,1997-05-12 15:00:00,17,1019.7,-0.3,48,6,40000,22.224,,,230,,,,,,,,,,,wg-a,,,,AAXX 12154 07130 12682 32312 10170 20060 30146 40197 57003 60006 83200 91500=
07130,1997-05-12 18:00:00,16,1019.8,-0,51,6,40000,18.52,,,240,8.4,17.7,,,,,,,,,wg-a,,,,AAXX 12184 07130 12682 /2410 10160 20060 30146 40198 55000 60006 81100 91800 333 10177 20084=
07130,1997-05-12 21:00:00,11,1021.2,1.4,76,7,500,7.408,,,230,,,,,,,,,,,wg-a,,,,AAXX 12214 07130 12/00 02304 10110 20070 30160 40212 53014 60006 80000 92100=
07130,1997-05-13 00:00:00,9,1021.4,0.1,87,7,20000,7.408,,,220,,,,,,,,,,,wg-a,,,,AAXX 13004 07130 12/70 02204 10090 20070 30161 40214 50001 60006 80000 90000=
07130,1997-05-13 03:00:00,8,1020.6,-0.8,93,7,20000,7.408,,,210,,,,,,,,,,,wg-a,,,,AAXX 13034 07130 12/70 02104 10080 20070 30153 40206 58008 60006 80000 90300=
07130,1997-05-13 06:00:00,8,1020.9,0.3,100,8,9000,3.704,,,140,5.9,15.6,,,,,2,,,,wg-a,,,,AAXX 13064 07130 02759 21402 10080 20080 30156 40209 52003 60006 815/2 90600 333 10156 20059 60024=
07130,1997-05-13 09:00:00,15,1021,0.2,72,10,15000,14.816,,,210,,,,,,,,,,,wg-a,,,,AAXX 13094 07130 12565 /2108 10150 20100 30158 40210 53002 60006 85232 90900=
07130,1997-05-13 12:00:00,18,1020,-0.9,49,7,15000,11.112,,,230,,,,,,,,,,,wg-a,,,,AAXX 13124 07130 12665 /2306 10180 20070 30149 40200 58009 60006 85232 91200=
07130,1997-05-13 15:00:00,19,1018.9,-1.1,46,7,500,11.112,,,200,,,,,,,,,,,wg-a,,,,AAXX 13154 07130 12700 52006 10190 20070 30138 40189 58011 60006 83202 91500=
07130,1997-05-13 18:00:00,18,1018.6,-0.3,49,7,40000,11.112,,,260,7.8,19,,,,,,,,,wg-a,,,,AAXX 13184 07130 12782 72606 10180 20070 30135 40186 56003 60006 82202 91800 333 10190 20078=
07130,1997-05-13 21:00:00,14,1020.4,1.7,72,9,40000,11.112,,,360,,,,,,,,,,,wg-a,,,,AAXX 13214 07130 12682 /3606 10140 20090 30152 40204 53017 60006 82502 92100=
07130,1997-05-14 00:00:00,10,1020.8,0.3,93,9,40000,7.408,,,320,,,,,,,,,,,wg-a,,,,AAXX 14004 07130 12/82 03204 10100 20090 30155 40208 50003 60006 80000 90000=
07130,1997-05-14 03:00:00,8,1020.7,-0.1,93,7,40000,3.704,,,290,,,,,,,,,,,wg-a,,,,AAXX 14034 07130 12/82 02902 10080 20070 30154 40207 57001 60006 80000 90300=
07130,1997-05-14 06:00:00,8,1021.8,1.1,100,8,9000,3.704,,,320,6.5,17.7,,,,,,,,12,wg-a,,,,AAXX 14064 07130 02559 /3202 10080 20080 30165 40218 51011 60006 71240 81100 90600 333 10177 20065 60004=
07130,1997-05-14 09:00:00,15,1022,0.3,59,7,40000,3.704,,,20,,,,,,,,,,,wg-a,,,,AAXX 14094 07130 12582 /0202 10150 20070 30168 40220 50003 60006 81800 90900=
07130,1997-05-14 12:00:00,19,1021.1,-0.8,40,5,40000,7.408,,,130,,,,,,,,,,,wg-a,,,,AAXX 14124 07130 12682 41304 10190 20050 30160 40211 58008 60006 84200 91200=
07130,1997-05-14 15:00:00,20,1019.7,-1.4,40,6,40000,7.408,,,170,,,,,,,,,,,wg-a,,,,AAXX 14154 07130 12782 31704 10200 20060 30146 40197 57014 60006 83400 91500=
07130,1997-05-14 18:00:00,19,1019.3,-0.4,52,9,40000,3.704,,,360,7.6,20.8,,,,,,,,,wg-a,,,,AAXX 14184 07130 12782 33602 10190 20090 30142 40193 55004 60006 82240 91800 333 10208 20076=
07130,1997-05-14 21:00:00,15,1019.5,0.1,77,11,15000,11.112,,,30,,,,,,,,,,,wg-a,,,,AAXX 14214 07130 12/65 10306 10150 20110 30143 40195 53001 60006 80001 92100=
07130,1997-05-15 00:00:00,13,1019.1,-0.4,82,10,15000,7.408,,,100,,,,,,,,,,,wg-a,,,,AAXX 15004 07130 12/65 01004 10130 20100 30139 40191 56004 60006 80000 90000=
07130,1997-05-15 03:00:00,11,1017.8,-1.3,94,10,10000,11.112,,,90,,,,,,,,,,,wg-a,,,,AAXX 15034 07130 12/60 40906 10110 20100 30126 40178 56013 60006 80001 90300=
07130,1997-05-15 06:00:00,12,1017.1,-0.7,94,11,7000,11.112,,,90,10.1,19.3,,,,,,,,,wg-a,,,,AAXX 15064 07130 02557 70906 10120 20110 30119 40171 56007 60006 82542 90600 333 10193 20101 60004=
07130,1997-05-15 09:00:00,17,1016.1,-0.9,72,12,12000,18.52,,,100,,,,,,,,,,,wg-a,,,,AAXX 15094 07130 12562 51010 10170 20120 30110 40161 58009 60006 85800 90900=
07130,1997-05-15 12:00:00,20,1015,-1,60,12,25000,14.816,,,100,,,,,,,,,,,wg-a,,,,AAXX 15124 07130 12575 71008 10200 20120 30100 40150 56010 60006 8624/ 91200=
07130,1997-05-15 15:00:00,20,1014.1,-0.9,60,12,15000,14.816,,,100,,,,,,,,,,,wg-a,,,,AAXX 15154 07130 12565 71008 10200 20120 30091 40141 56009 60006 878// 91500=
07130,1997-05-15 18:00:00,19,1014,-0.2,68,13,25000,11.112,,,130,12.3,20.2,,,,,,,,,wg-a,,,,AAXX 15184 07130 12575 /1306 10190 20130 30089 40140 56002 60006 81802 91800 333 10202 20123=
07130,1997-05-15 21:00:00,16,1014.3,0.3,82,13,15000,7.408,,,100,,,,,,,,,,,wg-a,,,,AAXX 15214 07130 12/65 61004 10160 20130 30092 40143 52003 60006 80002 92100=
07130,1997-05-16 00:00:00,13,1013.7,-0.7,94,12,15000,3.704,,,70,,,,,,,,,,,wg-a,,,,AAXX 16004 07130 12/65 40702 10130 20120 30085 40137 56007 60006 80002 90000=
07130,1997-05-16 03:00:00,13,1012.4,-1.2,100,13,8000,3.704,,,60,,,,,,,,,,,wg-a,,,,AAXX 16034 07130 12/58 70602 10130 20130 30073 40124 55012 60006 84082 90300=
07130,1997-05-16 06:00:00,14,1012.2,-0.2,100,14,2000,3.704,,,50,12.4,18.7,,,,,,,,10,wg-a,,,,AAXX 16064 07130 02720 80502 10140 20140 30071 40122 58002 61000 71061 8359/ 90600 333 10187 20124 6002=
07130,1997-05-16 09:00:00,15,1012.3,0.1,100,15,1100,7.408,,,320,,,,5,,,,,,10,wg-a,,,,AAXX 16094 07130 12111 83204 10150 20150 30072 40123 50001 60057 71086 867// 90900=
07130,1997-05-16 12:00:00,19,1011.5,-0.7,83,16,8000,18.52,,,300,,,,,,,,,,1,wg-a,,,,AAXX 16124 07130 02558 83010 10190 20160 30065 40115 56007 60056 70186 878// 91200 333 61000=
07130,1997-05-16 15:00:00,21,1010.5,-1,73,16,9000,7.408,,,50,,,,,,,,,,,wg-a,,,,AAXX 16154 07130 12659 60504 10210 20160 30055 40105 56010 60006 81183 91500=
07130,1997-05-16 18:00:00,21,1010.4,-0.1,73,16,12000,7.408,,,100,13.7,23,,,,,,,,,wg-a,,,,AAXX 16184 07130 12662 /1004 10210 20160 30054 40104 55001 60006 81202 91800 333 10230 20137=
07130,1997-05-16 21:00:00,18,1011.6,1.1,88,16,8000,7.408,,,90,,,,,,,,,,,wg-a,,,,AAXX 16214 07130 12758 /0904 10180 20160 30065 40116 51011 60006 82542 92100=
07130,1997-05-17 00:00:00,15,1011.5,-0.1,100,15,4000,0,,,0,,,,,,,,,,10,wg-a,,,,AAXX 17004 07130 12/40 70000 10150 20150 30064 40115 58001 60006 71022 84042 90000=
07130,1997-05-17 03:00:00,14,1010.1,-1.4,100,14,600,3.704,,,90,,,,,,,,,,41,wg-a,,,,AAXX 17034 07130 12106 70902 10140 20140 30050 40101 58014 60006 74142 84642 90300=
07130,1997-05-17 06:00:00,14,1010.2,0.1,100,14,2500,3.704,,,110,13.3,20.7,,,,,,,,10,wg-a,,,,AAXX 17064 07130 02525 71102 10140 20140 30051 40102 53001 61000 71064 8357/ 90600 333 10207 20133 6007=
07130,1997-05-17 09:00:00,17,1010.6,0.4,94,16,12000,7.408,,,270,,,,0,,,,,,1,wg-a,,,,AAXX 17094 07130 12362 82704 10170 20160 30055 40106 53004 60007 70162 8657/ 90900=
07130,1997-05-17 12:00:00,20,1010.5,0,68,14,15000,14.816,,,210,,,,,,,,,,3,wg-a,,,,AAXX 17124 07130 12465 62108 10200 20140 30055 40105 50000 60016 70362 86800 91200=
07130,1997-05-17 18:00:00,17,1009.9,-0.5,94,16,10000,3.704,,,180,14.1,21.4,,1,,,,,,1,wg-a,,,,AAXX 17184 07130 02460 41802 10170 20160 30048 40099 58005 60006 70198 81840 91800 333 10214 20141 60017=
07130,1997-05-17 21:00:00,15,1011.1,1.2,94,14,10000,11.112,,,240,,,,0,,,,,,17,wg-a,,,,AAXX 17214 07130 12460 /2406 10150 20140 30060 40111 53012 60007 71798 86900 92100=
07130,1997-05-18 00:00:00,13,1011,-0.1,94,12,15000,7.408,,,160,,,,,,,,,,2,wg-a,,,,AAXX 18004 07130 12665 21604 10130 20120 30059 40110 55001 60006 70298 82500 90000=
07130,1997-05-18 03:00:00,12,1010.4,-0.7,100,12,12000,0,,,0,,,,,,,,,,,wg-a,,,,AAXX 18034 07130 12462 70000 10120 20120 30052 40104 56007 60006 875// 90300=
07130,1997-05-18 06:00:00,13,1010.6,0.3,100,13,3500,3.704,,,200,12.1,16.9,,,,,,,,10,wg-a,,,,AAXX 18064 07130 02135 82002 10130 20130 30055 40106 53003 61000 71065 877// 90600 333 10169 20121 6007=
07130,1997-05-18 09:00:00,14,1011.4,0.8,94,13,500,7.408,,,260,,,,1,,,,,,21,wg-a,,,,AAXX 18094 07130 12100 82604 10140 20130 30063 40114 51008 60017 72165 878// 90900=
07130,1997-05-18 12:00:00,18,1011,-0.4,64,11,500,11.112,,,230,,,,,,,,,,3,wg-a,,,,AAXX 18124 07130 12600 62306 10180 20110 30059 40110 58004 60016 70365 86200 91200=
07130,1997-05-18 18:00:00,21,1008.3,-1.2,53,11,35000,14.816,,,150,13,21.4,,,,,,,,,wg-a,,,,AAXX 18184 07130 12681 71508 10210 20110 30033 40083 56012 60006 82202 91800 333 10214 20130=
07130,1997-05-18 21:00:00,18,1008,-0.3,73,13,40000,11.112,,,120,,,,,,,,,,,wg-a,,,,AAXX 18214 07130 12582 71206 10180 20130 30030 40080 56003 60006 85282 92100=
07130,1997-05-19 00:00:00,17,1006.5,-1.6,72,12,40000,11.112,,,120,,,,,,,,,,,wg-a,,,,AAXX 19004 07130 12582 71206 10170 20120 30014 40065 56016 60006 83572 90000=
07130,1997-05-19 03:00:00,16,1004.3,-2.2,82,13,40000,22.224,,,160,,,,1,,,,,,61,wg-a,,,,AAXX 19034 07130 12582 81612 10160 20130 39992 40043 56022 60017 76162 8557/ 90300=
07130,1997-05-19 06:00:00,15,1003.4,-0.9,94,14,12000,14.816,,,150,14.6,20.8,,,,,,,,60,wg-a,,,,AAXX 19064 07130 02262 81508 10150 20140 39983 40034 58009 61000 76062 8557/ 90600 333 10208 20146 6003=
07130,1997-05-19 09:00:00,16,1004.6,1.2,88,14,11000,20.372,,,190,,,,12,,,,,,3,wg-a,,,,AAXX 19094 07130 12/61 71911 10160 20140 39995 40046 51012 60127 70362 878// 90900=
07130,1997-05-19 12:00:00,19,1005.3,0.8,56,10,40000,25.928,,,230,,,,,,,,,,1,wg-a,,,,AAXX 19124 07130 12582 /2314 10190 20100 30003 40053 53008 60126 70162 85200 91200=
07130,1997-05-19 15:00:00,18,1006.3,1,59,10,40000,29.632,,,240,,,,,,,,,,15,wg-a,,,,AAXX 19154 07130 12582 /2416 10180 20100 30013 40063 53010 60006 71511 86900 91500=
07130,1997-05-19 18:00:00,17,1006.2,-0.2,63,10,40000,18.52,,,220,14,20,,,,,,,,,wg-a,,,,AAXX 19184 07130 12582 52210 10170 20100 30011 40062 58002 60006 84830 91800 333 10200 20140=
07130,1997-05-19 21:00:00,14,1006.3,0.1,82,11,40000,3.704,,,150,,,,,,,,,,,wg-a,,,,AAXX 19214 07130 12682 /1502 10140 20110 30012 40063 51001 60006 81500 92100=
07130,1997-05-20 00:00:00,14,1005.6,-0.7,82,11,500,11.112,,,160,,,,,,,,,,,wg-a,,,,AAXX 20004 07130 12500 71606 10140 20110 30005 40056 58007 60006 8353/ 90000=
07130,1997-05-20 03:00:00,13,1004,-1.6,94,12,11000,18.52,,,170,,,,,,,,,,,wg-a,,,,AAXX 20034 07130 12/61 /1710 10130 20120 39989 40040 58016 60006 90300=
07130,1997-05-20 06:00:00,12,1003.9,-0.1,100,12,15000,14.816,,,220,12.3,16.8,,,,,,,,25,wg-a,,,,AAXX 20064 07130 02465 72208 10120 20120 39988 40039 56001 61000 72586 83871 90600 333 10168 20123 6013=
07130,1997-05-20 09:00:00,14,1003.9,0,88,12,15000,22.224,,,220,,,,1,,,,,,80,wg-a,,,,AAXX 20094 07130 12465 72212 10140 20120 39988 40039 50000 60017 78082 8693/ 90900=
07130,1997-05-20 12:00:00,14,1004.8,0.9,82,11,15000,18.52,,,260,,,,2,,,,,,61,wg-a,,,,AAXX 20124 07130 02465 82610 10140 20110 39997 40048 52009 60036 76186 8487/ 91200 333 60027=
07130,1997-05-20 15:00:00,17,1004.7,-0,63,10,20000,22.224,,,250,,,,,,,,,,1,wg-a,,,,AAXX 20154 07130 02570 72512 10170 20100 39997 40047 55000 61000 70162 83272 91500 333 ////=
07130,1997-05-20 18:00:00,15,1006,1.2,72,10,15000,25.928,,46.3,250,12.3,17,,0,,,,,,3,wg-a,,,,AAXX 20184 07130 02365 72514 10150 20100 30009 40060 51012 60006 70362 86770 91800 333 10170 20123 60007 91025=
07130,1997-05-20 21:00:00,13,1007.4,1.4,88,11,15000,14.816,,,250,,,,,,,,,,,wg-a,,,,AAXX 20214 07130 12365 72508 10130 20110 30023 40074 53014 60006 8787/ 92100=
07130,1997-05-21 00:00:00,13,1007.7,0.3,88,11,15000,22.224,,,250,,,,,,,,,,,wg-a,,,,AAXX 21004 07130 12665 72512 10130 20110 30026 40077 53003 60006 8557/ 90000=
07130,1997-05-21 03:00:00,12,1008.1,0.4,94,11,15000,18.52,,,270,,,,0,,,,,,,wg-a,,,,AAXX 21034 07130 12265 /2710 10120 20110 30030 40081 53004 60007 85500 90300=
07130,1997-05-21 06:00:00,12,1009.6,1.4,88,10,20000,18.52,,,280,11.6,15.1,,,,,3,,,,wg-a,,,,AAXX 21064 07130 02470 72810 10120 20100 30044 40096 53014 60006 8683/ 90600 333 10151 20116 60034=
07130,1997-05-21 12:00:00,17,1011.9,1,68,11,25000,18.52,,,280,,,,,,,,,,,wg-a,,,,AAXX 21124 07130 12575 72810 10170 20110 30068 40119 51010 60006 85802 91200=
07130,1997-05-21 15:00:00,16,1012.3,0.4,77,12,25000,18.52,,,320,,,,3,,,,,,80,wg-a,,,,AAXX 21154 07130 12575 63210 10160 20120 30072 40123 51004 60037 78086 85930 91500=
07130,1997-05-21 18:00:00,15,1013.6,1.3,82,12,15000,7.408,,,280,12,18.6,,,,,,,,15,wg-a,,,,AAXX 21184 07130 02565 72804 10150 20120 30085 40136 53013 60006 71586 8697/ 91800 333 10186 20120 61000=
07130,1997-05-21 21:00:00,13,1015.2,1.5,100,13,8000,7.408,,,100,,,,0,,,,,,25,wg-a,,,,AAXX 21214 07130 12558 71004 10130 20130 30100 40152 51015 60007 72522 8697/ 92100=
07130,1997-05-22 00:00:00,13,1015.6,0.4,100,13,8000,7.408,,,180,,,,9,,,,,,25,wg-a,,,,AAXX 22004 07130 02558 71804 10130 20130 30104 40156 50004 60106 72586 879// 90000 333 60097=
07130,1997-05-22 03:00:00,12,1015.4,-0.2,100,12,7000,7.408,,,250,,,,,,,,,,,wg-a,,,,AAXX 22034 07130 12457 72504 10120 20120 30102 40154 57002 60006 8757/ 90300=
07130,1997-05-22 06:00:00,12,1016.1,0.7,100,12,8000,3.704,,,270,11.7,15,,,,,13,,,,wg-a,,,,AAXX 22064 07130 02558 82702 10120 20120 30109 40161 53007 60006 8557/ 90600 333 10150 20117 60134=
07130,1997-05-22 09:00:00,14,1016.6,0.6,88,12,8000,7.408,,,200,,,,,,,,,,,wg-a,,,,AAXX 22094 07130 12458 72004 10140 20120 30115 40166 51006 60006 858// 90900=
07130,1997-05-22 12:00:00,17,1016.6,0,68,11,15000,3.704,,,260,,,,,,,,,,,wg-a,,,,AAXX 22124 07130 12565 72602 10170 20110 30115 40166 50000 60006 838// 91200=
07130,1997-05-22 18:00:00,18,1015.6,-0.2,59,10,25000,7.408,,,210,11.9,18.5,,,,,,,,,wg-a,,,,AAXX 22184 07130 12575 72104 10180 20100 30105 40156 56002 60006 8683/ 91800 333 10185 20119=
07130,1997-05-22 21:00:00,15,1016,0.4,82,12,15000,0,,,0,,,,,,,,,,,wg-a,,,,AAXX 22214 07130 12565 50000 10150 20120 30109 40160 53004 60006 83231 92100=
07130,1997-05-23 00:00:00,13,1015.5,-0.6,94,12,15000,7.408,,,80,,,,,,,,,,,wg-a,,,,AAXX 23004 07130 12/65 70804 10130 20120 30103 40155 58006 60006 80004 90000=
07130,1997-05-23 03:00:00,12,1015.4,-0.1,94,11,12000,7.408,,,110,,,,,,,,,,,wg-a,,,,AAXX 23034 07130 12/62 71104 10120 20110 30102 40154 57001 60006 80002 90300=
07130,1997-05-23 06:00:00,12,1015.8,0.4,94,11,10000,7.408,,,110,11.4,17.7,,,,,,,,,wg-a,,,,AAXX 23064 07130 02/60 /1104 10120 20110 30106 40158 53004 60006 90600 333 10177 20114 60004=
07130,1997-05-23 09:00:00,17,1015.6,-0.1,77,13,11000,18.52,,,100,,,,,,,,,,,wg-a,,,,AAXX 23094 07130 12/61 /1010 10170 20130 30105 40156 55001 60006 90900=
07130,1997-05-23 12:00:00,20,1015.7,0.2,60,12,12000,18.52,,,110,,,,,,,,,,,wg-a,,,,AAXX 23124 07130 12662 /1110 10200 20120 30107 40157 51002 60006 85201 91200=
07130,1997-05-23 15:00:00,20,1015.4,-0.3,56,11,15000,22.224,,,90,,,,,,,,,,,wg-a,,,,AAXX 23154 07130 12665 70912 10200 20110 30104 40154 58003 60006 86801 91500=
07130,1997-05-23 18:00:00,19,1015.4,-0.1,56,10,20000,22.224,,,90,12,21.2,,,,,,,,,wg-a,,,,AAXX 23184 07130 12670 /0912 10190 20100 30103 40154 57001 60006 81102 91800 333 10212 20120=
07130,1997-05-23 21:00:00,16,1017.2,1.8,68,10,500,18.52,,,70,,,,,,,,,,,wg-a,,,,AAXX 23214 07130 12/00 70710 10160 20100 30121 40172 51018 60006 83032 92100=
07130,1997-05-24 00:00:00,13,1018.2,0.9,72,8,20000,22.224,,,70,,,,,,,,,,,wg-a,,,,AAXX 24004 07130 12/70 50712 10130 20080 30130 40182 51009 60006 82032 90000=
07130,1997-05-24 03:00:00,11,1017.9,-0.3,82,8,15000,18.52,,,70,,,,,,,,,,,wg-a,,,,AAXX 24034 07130 12/65 70710 10110 20080 30127 40179 58003 60006 84072 90300=
07130,1997-05-24 06:00:00,11,1018.6,0.7,71,6,10000,22.224,,,70,10.3,19,,,,,,,,,wg-a,,,,AAXX 24064 07130 02/60 70712 10110 20060 30134 40186 52007 60006 80002 90600 333 10190 20103 60004=
07130,1997-05-24 09:00:00,15,1019.3,0.7,63,8,15000,22.224,,,60,,,,,,,,,,,wg-a,,,,AAXX 24094 07130 12/65 50612 10150 20080 30141 40193 53007 60006 80002 90900=
07130,1997-05-24 12:00:00,19,1019.4,0.2,56,10,18000,29.632,,,80,,,,,,,,,,,wg-a,,,,AAXX 24124 07130 12668 70816 10190 20100 30143 40194 52002 60006 81102 91200=
07130,1997-05-24 15:00:00,20,1019.8,0.4,46,8,18000,29.632,,48.152,90,,,,,,,,,,,wg-a,,,,AAXX 24154 07130 12668 70916 10200 20080 30147 40198 50004 60006 81142 91500 333 91026=
07130,1997-05-24 18:00:00,18,1020.5,0.7,56,9,25000,25.928,,,70,10.7,20.6,,,,,,,,,wg-a,,,,AAXX 24184 07130 12/75 70714 10180 20090 30154 40205 51007 60006 82042 91800 333 10206 20107=
07130,1997-05-25 00:00:00,13,1023.3,0.8,62,6,40000,18.52,,,60,,,,,,,,,,,wg-a,,,,AAXX 25004 07130 12/82 00610 10130 20060 30181 40233 51008 60006 80000 90000=
07130,1997-05-25 03:00:00,11,1023.1,-0.3,66,5,40000,14.816,,,50,,,,,,,,,,,wg-a,,,,AAXX 25034 07130 12/82 00508 10110 20050 30178 40231 56003 60006 80000 90300=
07130,1997-05-25 06:00:00,11,1023.5,0.4,66,5,25000,18.52,,,60,9.1,18.3,,,,,,,,,wg-a,,,,AAXX 25064 07130 02/75 50610 10110 20050 30182 40235 53004 60006 80001 90600 333 10183 20091 60004=
07130,1997-05-25 09:00:00,16,1024,0.6,48,5,25000,22.224,,,60,,,,,,,,,,,wg-a,,,,AAXX 25094 07130 12/75 10612 10160 20050 30188 40240 51006 60006 80001 90900=
07130,1997-05-25 12:00:00,21,1022.8,-1.1,38,6,500,25.928,,,80,,,,,,,,,,,wg-a,,,,AAXX 25124 07130 12/00 20814 10210 20060 30177 40228 58011 60006 80001 91200=
07130,1997-05-25 15:00:00,23,1021.6,-1.1,33,6,35000,25.928,,,70,,,,,,,,,,,wg-a,,,,AAXX 25154 07130 12/81 20714 10230 20060 30166 40216 56011 60006 80001 91500=
07130,1997-05-25 18:00:00,21,1021.5,-0.2,35,5,35000,25.928,,,70,10.9,22.9,,,,,,,,,wg-a,,,,AAXX 25184 07130 12/81 10714 10210 20050 30164 40215 56002 60006 80001 91800 333 10229 20109=
07130,1997-05-25 21:00:00,17,1023.2,1.7,42,4,35000,18.52,,,60,,,,,,,,,,,wg-a,,,,AAXX 25214 07130 12/81 00610 10170 20040 30181 40232 52017 60006 80000 92100=
07130,1997-05-26 00:00:00,12,1023.4,0.1,76,8,35000,11.112,,,40,,,,,,,,,,,wg-a,,,,AAXX 26004 07130 12/81 00406 10120 20080 30182 40234 50001 60006 80000 90000=
07130,1997-05-26 06:00:00,12,1023.8,0.4,67,6,14000,7.408,,,70,9.8,21.2,,,,,,,,,wg-a,,,,AAXX 26064 07130 02/64 20704 10120 20060 30186 40238 53004 60006 80001 90600 333 10212 20098 60004=
07130,1997-05-26 09:00:00,19,1023.4,-0.3,49,8,15000,22.224,,,70,,,,,,,,,,,wg-a,,,,AAXX 26094 07130 12/65 40712 10190 20080 30183 40234 56003 60006 80001 90900=
07130,1997-05-26 12:00:00,23,1022.4,-0.9,36,7,20000,22.224,,,100,,,,,,,,,,,wg-a,,,,AAXX 26124 07130 12/70 51012 10230 20070 30174 40224 57009 60006 80001 91200=
07130,1997-05-26 18:00:00,24,1020.4,-1.3,38,9,40000,18.52,,,70,12.3,24.9,,,,,,,,,wg-a,,,,AAXX 26184 07130 12/82 10710 10240 20090 30154 40204 55013 60006 80001 91800 333 10249 20123=
07130,1997-05-26 21:00:00,19,1021.1,0.6,56,10,40000,14.816,,,70,,,,,,,,,,,wg-a,,,,AAXX 26214 07130 12/82 00708 10190 20100 30160 40211 51006 60006 80000 92100=
07130,1997-05-27 00:00:00,15,1021,-0.2,72,10,25000,18.52,,,70,,,,,,,,,,,wg-a,,,,AAXX 27004 07130 12/75 00710 10150 20100 30158 40210 58002 60006 80000 90000=
07130,1997-05-27 03:00:00,13,1020.4,-0.6,77,9,25000,11.112,,,70,,,,,,,,,,,wg-a,,,,AAXX 27034 07130 12/75 00706 10130 20090 30152 40204 58006 60006 80000 90300=
07130,1997-05-27 06:00:00,15,1020.6,0.2,67,9,15000,11.112,,,80,12.6,23.8,,,,,,,,,wg-a,,,,AAXX 27064 07130 02/65 10806 10150 20090 30154 40206 52002 60006 80001 90600 333 10238 20126 60004=
07130,1997-05-27 09:00:00,20,1020.9,0.4,53,10,20000,22.224,,,100,,,,,,,,,,,wg-a,,,,AAXX 27094 07130 12/70 01012 10200 20100 30158 40209 50004 60006 80000 90900=
07130,1997-05-27 12:00:00,24,1019.4,-1.4,47,12,25000,25.928,,,80,,,,,,,,,,,wg-a,,,,AAXX 27124 07130 12/75 00814 10240 20120 30144 40194 58014 60006 80000 91200=
07130,1997-05-27 15:00:00,25,1018.6,-0.8,41,11,500,25.928,,,90,,,,,,,,,,,wg-a,,,,AAXX 27154 07130 12/00 10914 10250 20110 30136 40186 56008 60006 81080 91500=
07130,1997-05-27 18:00:00,23,1018.7,0.1,44,10,40000,18.52,,,70,14.5,25.2,,,,,,,,,wg-a,,,,AAXX 27184 07130 12/82 10710 10230 20100 30137 40187 53001 60006 81080 91800 333 10252 20145=
07130,1997-05-28 00:00:00,14,1021.4,0.6,77,10,500,18.52,,,70,,,,,,,,,,,wg-a,,,,AAXX 28004 07130 12/00 00710 10140 20100 30162 40214 50006 60006 80000 90000=
07130,1997-05-28 03:00:00,12,1022.4,1,76,8,20000,14.816,,,80,,,,,,,,,,,wg-a,,,,AAXX 28034 07130 12/70 00808 10120 20080 30172 40224 53010 60006 80000 90300=
07130,1997-05-28 06:00:00,11,1023.2,0.7,76,7,10000,18.52,,,80,10.1,23.2,,,,,,,,,wg-a,,,,AAXX 28064 07130 02/60 /0810 10110 20070 30179 40232 53007 60006 90600 333 10232 20101 60004=
07130,1997-05-28 09:00:00,16,1023.5,0.4,51,6,15000,29.632,,,80,,,,,,,,,,,wg-a,,,,AAXX 28094 07130 12/65 00816 10160 20060 30183 40235 51004 60006 80000 90900=
07130,1997-05-28 12:00:00,20,1023,-0.4,37,5,25000,29.632,,,90,,,,,,,,,,,wg-a,,,,AAXX 28124 07130 12/75 10916 10200 20050 30179 40230 58004 60006 80001 91200=
07130,1997-05-28 18:00:00,20,1021.7,-0.2,37,5,500,25.928,,,90,10.8,21.9,,,,,,,,,wg-a,,,,AAXX 28184 07130 12/00 10914 10200 20050 30166 40217 55002 60006 80001 91800 333 10219 20108=
07130,1997-05-28 21:00:00,16,1023.5,1.7,51,6,15000,11.112,,,70,,,,,,,,,,,wg-a,,,,AAXX 28214 07130 12/65 10706 10160 20060 30183 40235 53017 60006 80001 92100=
07130,1997-05-29 00:00:00,13,1023.8,0.3,62,6,15000,11.112,,,70,,,,,,,,,,,wg-a,,,,AAXX 29004 07130 12/65 00706 10130 20060 30186 40238 53003 60006 80000 90000=
07130,1997-05-29 03:00:00,12,1023.3,-0.5,71,7,15000,11.112,,,80,,,,,,,,,,,wg-a,,,,AAXX 29034 07130 12/65 00806 10120 20070 30181 40233 57005 60006 80000 90300=
07130,1997-05-29 06:00:00,13,1023.5,0.2,62,6,20000,18.52,,,80,11,20.1,,,,,,,,,wg-a,,,,AAXX 29064 07130 02/70 10810 10130 20060 30183 40235 53002 60006 80001 90600 333 10201 20110 60004=
07130,1997-05-29 09:00:00,18,1023.7,0.3,45,6,25000,22.224,,,100,,,,,,,,,,,wg-a,,,,AAXX 29094 07130 12/75 11012 10180 20060 30186 40237 50003 60006 80001 90900=
07130,1997-05-29 12:00:00,24,1022.5,-1.1,29,5,40000,29.632,,,80,,,,,,,,,,,wg-a,,,,AAXX 29124 07130 12/82 10816 10240 20050 30175 40225 57011 60006 80001 91200=
07130,1997-05-29 15:00:00,26,1021.4,-1.1,23,3,40000,29.632,,,100,,,,,,,,,,,wg-a,,,,AAXX 29154 07130 12/82 11016 10260 20030 30164 40214 57011 60006 80001 91500=
07130,1997-05-29 18:00:00,24,1021,-0.4,29,5,40000,18.52,,,90,12.8,25.9,,,,,,,,,wg-a,,,,AAXX 29184 07130 12/82 10910 10240 20050 30160 40210 55004 60006 80001 91800 333 10259 20128=
07130,1997-05-29 21:00:00,19,1023,1.9,43,6,40000,11.112,,,90,,,,,,,,,,,wg-a,,,,AAXX 29214 07130 12/82 10906 10190 20060 30179 40230 53019 60006 80001 92100=
07130,1997-05-30 00:00:00,16,1022.9,-0.2,59,8,40000,11.112,,,90,,,,,,,,,,,wg-a,,,,AAXX 30004 07130 12/82 10906 10160 20080 30177 40229 58002 60006 80001 90000=
07130,1997-05-30 03:00:00,14,1022.9,-0,67,8,40000,11.112,,,90,,,,,,,,,,,wg-a,,,,AAXX 30034 07130 12/82 60906 10140 20080 30177 40229 55000 60006 80002 90300=
07130,1997-05-30 06:00:00,14,1023.1,0.2,67,8,500,11.112,,,100,13.6,24.3,,,,,,,,,wg-a,,,,AAXX 30064 07130 02/00 61006 10140 20080 30179 40231 52002 60006 80002 90600 333 10243 20136 60004=
07130,1997-05-30 09:00:00,22,1022.5,-0.5,41,8,500,25.928,,,110,,,,,,,,,,,wg-a,,,,AAXX 30094 07130 12/00 61114 10220 20080 30174 40225 58005 60006 80002 90900=
07130,1997-05-30 12:00:00,25,1021.6,-0.8,36,9,35000,25.928,,,100,,,,,,,,,,,wg-a,,,,AAXX 30124 07130 12/81 71014 10250 20090 30166 40216 58008 60006 80002 91200=
07130,1997-05-30 15:00:00,28,1020.2,-1.3,32,10,40000,29.632,,,90,,,,,,,,,,,wg-a,,,,AAXX 30154 07130 12/82 40916 10280 20100 30153 40202 57013 60006 80002 91500=
07130,1997-05-30 18:00:00,26,1019.3,-1,34,9,10000,22.224,,,100,14.2,27.8,,,,,,,,,wg-a,,,,AAXX 30184 07130 12/60 /1012 10260 20090 30143 40193 56010 60006 91800 333 10278 20142=
07130,1997-05-30 21:00:00,22,1019.3,-0,50,11,40000,14.816,,38.892,90,,,,,,,,,,,wg-a,,,,AAXX 30214 07130 12/82 30908 10220 20110 30143 40193 55000 60006 80002 92100 333 91021=
07130,1997-05-31 00:00:00,18,1019.6,0.2,59,10,40000,14.816,,,80,,,,,,,,,,,wg-a,,,,AAXX 31004 07130 12/82 00808 10180 20100 30145 40196 51002 60006 80000 90000=
07130,1997-05-31 03:00:00,15,1018.6,-1,59,7,500,18.52,,,60,,,,,,,,,,,wg-a,,,,AAXX 31034 07130 12/00 10610 10150 20070 30135 40186 58010 60006 80001 90300=
07130,1997-05-31 06:00:00,16,1017.9,-0.7,51,6,35000,22.224,,,70,14.3,25.9,,,,,,,,,wg-a,,,,AAXX 31064 07130 02/81 20712 10160 20060 30128 40179 58007 60006 80001 90600 333 10259 20143 60004=
07130,1997-05-31 09:00:00,21,1016.8,-1,30,3,35000,29.632,,,80,,,,,,,,,,,wg-a,,,,AAXX 31094 07130 12/81 20816 10210 20030 30118 40168 58010 60006 80001 90900=
07130,1997-05-31 12:00:00,25,1015.3,-1.5,19,0,40000,35.188,,,70,,,,,,,,,,,wg-a,,,,AAXX 31124 07130 12/82 20719 10250 20000 30103 40153 58015 60006 80001 91200=
07130,1997-05-31 15:00:00,26,1013.8,-1.4,20,1,50000,31.484,,,90,,,,,,,,,,,wg-a,,,,AAXX 31154 07130 12/84 20917 10260 20010 30089 40138 58014 60006 80001 91500=
07130,1997-05-31 18:00:00,24,1013.7,-0.2,29,5,50000,31.484,,,70,15.8,26.3,,,,,,,,,wg-a,,,,AAXX 31184 07130 12/84 10717 10240 20050 30087 40137 58002 60006 80001 91800 333 10263 20158=
07130,1997-06-01 00:00:00,16,1014.5,-0.4,51,6,500,22.224,,,70,,,,,,,,,,,wg-a,,,,AAXX 01004 07130 12/00 00712 10160 20060 30094 40145 58004 60006 80000 90000=
07130,1997-06-01 03:00:00,13,1013.7,-0.9,51,3,500,25.928,,,60,,,,,,,,,,,wg-a,,,,AAXX 01034 07130 12/00 00614 10130 20030 30085 40137 56009 60006 80000 90300=
07130,1997-06-01 06:00:00,13,1013.7,-0,44,1,50000,29.632,,,60,12.4,23.7,,,,,,,,,wg-a,,,,AAXX 01064 07130 02/84 10616 10130 20010 30085 40137 54000 60006 80002 90600 333 10237 20124 60004=
07130,1997-06-01 09:00:00,17,1013.6,0,34,1,500,35.188,,55.56,80,,,,,,,,,,,wg-a,,,,AAXX 01094 07130 12/00 10819 10170 20010 30085 40136 50000 60006 80002 90900 333 91030=
07130,1997-06-01 12:00:00,20,1012.4,-1.1,24,-1,40000,31.484,,51.856,70,,,,,,,,,,,wg-a,,,,AAXX 01124 07130 12/82 10717 10200 21010 30074 40124 57011 60006 80002 91200 333 91028=
07130,1997-06-01 15:00:00,20,1011.6,-0.8,28,1,50000,35.188,,57.412,70,,,,,,,,,,,wg-a,,,,AAXX 01154 07130 12684 /0719 10200 20010 30066 40116 56008 60006 81102 91500 333 91031=
07130,1997-06-01 18:00:00,17,1011.7,-0,48,6,40000,35.188,,,30,13.1,20.8,,,,,,,,,wg-a,,,,AAXX 01184 07130 12682 /0319 10170 20060 30066 40117 55000 60006 86300 91800 333 10208 20131=
07130,1997-06-01 21:00:00,11,1012.4,0.6,71,6,500,22.224,,,30,,,,,,,,,,,wg-a,,,,AAXX 01214 07130 12600 20312 10110 20060 30072 40124 51006 60006 81501 92100=
07130,1997-06-02 00:00:00,9,1011.4,-1,87,7,500,7.408,,,350,,,,,,,,,,,wg-a,,,,AAXX 02004 07130 12600 /3504 10090 20070 30062 40114 56010 60006 82530 90000=
07130,1997-06-02 06:00:00,10,1009.9,-0.2,82,7,20000,7.408,,,10,7.1,16.8,,,,,,,,,wg-a,,,,AAXX 02064 07130 02770 10104 10100 20070 30047 40099 56002 60006 81502 90600 333 10168 20071 60004=
07130,1997-06-02 09:00:00,16,1010.6,0.8,63,9,20000,3.704,,,150,,,,,,,,,,,wg-a,,,,AAXX 02094 07130 12570 /1502 10160 20090 30055 40106 52008 60006 81100 90900=
07130,1997-06-02 12:00:00,19,1010.6,0.1,43,6,25000,11.112,,,170,,,,,,,,,,,wg-a,,,,AAXX 02124 07130 12675 31706 10190 20060 30056 40106 51001 60006 83200 91200=
07130,1997-06-02 18:00:00,19,1012,0.9,46,7,500,18.52,,,230,10,21.6,,,,,,,,,wg-a,,,,AAXX 02184 07130 12700 12310 10190 20070 30070 40120 53009 60006 81100 91800 333 10216 20100=
07130,1997-06-02 21:00:00,14,1013.8,1.7,67,8,35000,11.112,,,210,,,,,,,,,,,wg-a,,,,AAXX 02214 07130 12/81 12106 10140 20080 30087 40138 53017 60006 80002 92100=
07130,1997-06-03 00:00:00,11,1014.4,0.5,82,8,35000,7.408,,,160,,,,,,,,,,,wg-a,,,,AAXX 03004 07130 12/81 11604 10110 20080 30092 40144 53005 60006 80002 90000=
07130,1997-06-03 03:00:00,9,1014.4,-0,93,8,15000,3.704,,,140,,,,,,,,,,,wg-a,,,,AAXX 03034 07130 12/65 11402 10090 20080 30092 40144 55000 60006 81032 90300=
07130,1997-06-03 06:00:00,10,1015.2,0.8,93,9,6000,7.408,,,220,8,19.1,,,,,,,,,wg-a,,,,AAXX 03064 07130 02656 /2204 10100 20090 30100 40152 52008 60006 81500 90600 333 10191 20080 60004=
07130,1997-06-03 09:00:00,16,1015.8,0.7,59,8,12000,7.408,,,220,,,,,,,,,,,wg-a,,,,AAXX 03094 07130 12562 42204 10160 20080 30107 40158 51007 60006 8/100 90900=
07130,1997-06-03 12:00:00,19,1016.2,0.4,46,7,20000,11.112,,,220,,,,,,,,,,,wg-a,,,,AAXX 03124 07130 12670 32206 10190 20070 30111 40162 51004 60006 83100 91200=
07130,1997-06-03 15:00:00,21,1016.3,0.2,43,8,500,18.52,,,240,,,,,,,,,,,wg-a,,,,AAXX 03154 07130 12700 42410 10210 20080 30113 40163 53002 60006 84100 91500=
07130,1997-06-03 18:00:00,20,1016,-0.4,43,7,40000,7.408,,,230,10.2,20.9,,,,,,,,,wg-a,,,,AAXX 03184 07130 12782 12304 10200 20070 30109 40160 55004 60006 81101 91800 333 10209 20102=
07130,1997-06-03 21:00:00,15,1016.9,0.9,67,9,40000,7.408,,,250,,,,,,,,,,,wg-a,,,,AAXX 03214 07130 12/82 22504 10150 20090 30118 40169 51009 60006 80001 92100=
07130,1997-06-04 00:00:00,12,1017.3,0.3,82,9,500,0,,,0,,,,,,,,,,,wg-a,,,,AAXX 04004 07130 12/00 50000 10120 20090 30121 40173 51003 60006 80002 90000=
07130,1997-06-04 03:00:00,10,1016.3,-1,93,9,500,3.704,,,280,,,,,,,,,,,wg-a,,,,AAXX 04034 07130 12/00 72802 10100 20090 30111 40163 57010 60006 80002 90300=
07130,1997-06-04 06:00:00,11,1015.4,-0.9,94,10,10000,0,,,0,9.1,19.5,,,,,,,,,wg-a,,,,AAXX 04064 07130 02/60 20000 10110 20100 30102 40154 56009 60006 80002 90600 333 10195 20091 60004=
07130,1997-06-04 09:00:00,20,1013.8,-1.4,53,10,15000,11.112,,,110,,,,,,,,,,,wg-a,,,,AAXX 04094 07130 12/65 71106 10200 20100 30088 40138 58014 60006 80002 90900=
07130,1997-06-04 12:00:00,23,1013.1,-0.7,38,8,10000,11.112,,,130,,,,,,,,,,,wg-a,,,,AAXX 04124 07130 12/60 /1306 10230 20080 30081 40131 58007 60006 91200=
07130,1997-06-04 15:00:00,25,1011,-2,34,8,25000,11.112,,,100,,,,,,,,,,,wg-a,,,,AAXX 04154 07130 12775 61006 10250 20080 30061 40110 58020 60006 81102 91500=
07130,1997-06-04 18:00:00,24,1008.7,-2.3,36,8,25000,11.112,,,70,10.9,25.7,,,,,,,,,wg-a,,,,AAXX 04184 07130 12/75 50706 10240 20080 30038 40087 56023 60006 81042 91800 333 10257 20109=
07130,1997-06-04 21:00:00,20,1007.4,-1.4,64,13,20000,14.816,,,30,,,,,,,,,,,wg-a,,,,AAXX 04214 07130 12770 70308 10200 20130 30024 40074 58014 60006 8557/ 92100=
07130,1997-06-05 00:00:00,18,1006,-1.4,77,14,10000,7.408,,,80,,,,1,,,,,,61,wg-a,,,,AAXX 05004 07130 02660 80804 10180 20140 30010 40060 56014 60016 76162 8257/ 90000 333 60017=
07130,1997-06-05 03:00:00,17,1002.7,-3.3,88,15,10000,14.816,,,80,,,,1,,,,,,21,wg-a,,,,AAXX 05034 07130 12760 70808 10170 20150 39977 40027 56033 60017 72162 8557/ 90300=
07130,1997-06-05 06:00:00,18,1001.1,-1.6,83,15,12000,11.112,,,110,16.5,24.4,,,,,2,,,3,wg-a,,,,AAXX 05064 07130 02662 /1106 10180 20150 39961 40011 58016 60006 70362 85532 90600 333 10244 20165 60024=
07130,1997-06-05 12:00:00,21,998.9,-1.1,69,15,500,18.52,,37.04,140,,,,,,,,,,,wg-a,,,,AAXX 05124 07130 12500 71410 10210 20150 39940 49989 56011 60006 875// 91200 333 91020=
07130,1997-06-05 18:00:00,18,1001.8,1.8,77,14,15000,22.224,,,200,16,22.2,,,,,,,,3,wg-a,,,,AAXX 05184 07130 12565 72012 10180 20140 39968 40018 53018 60006 70386 878// 91800 333 10222 20160=
07130,1997-06-05 21:00:00,17,1003.3,1.5,82,14,11000,11.112,,,200,,,,,,,,,,,wg-a,,,,AAXX 05214 07130 12461 72006 10170 20140 39983 40033 51015 60006 875// 92100=
07130,1997-06-06 00:00:00,15,1004,0.6,94,14,10000,3.704,,,170,,,,,,,,,,,wg-a,,,,AAXX 06004 07130 12760 71702 10150 20140 39989 40040 51006 60006 875// 90000=
07130,1997-06-06 03:00:00,15,1003.4,-0.6,94,14,12000,11.112,,,120,,,,,,,,,,,wg-a,,,,AAXX 06034 07130 12662 71206 10150 20140 39983 40034 58006 60006 875// 90300=
07130,1997-06-06 06:00:00,17,1002.8,-0.5,82,14,12000,18.52,,,160,14.5,18.1,,,,,,,,,wg-a,,,,AAXX 06064 07130 02/62 71610 10170 20140 39978 40028 56005 60006 84059 90600 333 10181 20145 60004=
07130,1997-06-06 09:00:00,21,1004.2,1.4,73,16,25000,22.224,,,200,,,,,,,,,,,wg-a,,,,AAXX 06094 07130 12475 82012 10210 20160 39992 40042 51014 60006 82171 90900=
07130,1997-06-06 12:00:00,25,1004.1,0,50,14,35000,29.632,,51.856,180,,,,,,,,,,1,wg-a,,,,AAXX 06124 07130 02581 /1816 10250 20140 39992 40041 50000 61000 70162 82142 91200 333 6100 91028=
07130,1997-06-06 15:00:00,28,1003.1,-0.9,42,14,35000,35.188,,,200,,,,,,,,,,,wg-a,,,,AAXX 06154 07130 12681 42019 10280 20140 39983 40031 56009 60006 81102 91500=
07130,1997-06-06 18:00:00,26,1004.1,0.9,45,13,35000,25.928,,,210,16.7,28,,,,,,,,,wg-a,,,,AAXX 06184 07130 12681 72114 10260 20130 39992 40041 52009 60006 8683/ 91800 333 10280 20167=
07130,1997-06-07 00:00:00,18,1006.9,0.7,100,18,9000,11.112,,,160,,,,5,,,,,,61,wg-a,,,,AAXX 07004 07130 02559 81606 10180 20180 30019 40069 53007 60076 76162 8682/ 90000 333 60057=
07130,1997-06-07 03:00:00,17,1005.2,-1.7,94,16,15000,14.816,,,170,,,,1,,,,,,21,wg-a,,,,AAXX 07034 07130 12765 61708 10170 20160 30002 40052 56017 60017 72162 83570 90300=
07130,1997-06-07 06:00:00,17,1007.2,2,94,16,17000,14.816,,,180,16.7,25.8,,,,,8,,,3,wg-a,,,,AAXX 07064 07130 02467 81808 10170 20160 30022 40072 53020 60006 70362 8587/ 90600 333 10258 20167 60084=
07130,1997-06-07 12:00:00,20,1009,1.5,64,13,15000,29.632,,,240,,,,,,,,,,3,wg-a,,,,AAXX 07124 07130 12465 72416 10200 20130 30040 40090 53015 60006 70362 8697/ 91200=
07130,1997-06-07 15:00:00,23,1008.4,-0.6,57,14,35000,18.52,,,220,,,,,,,,,,3,wg-a,,,,AAXX 07154 07130 02581 /2210 10230 20140 30034 40084 58006 61000 70386 86330 91500 333 ////=
07130,1997-06-07 18:00:00,22,1009,0.6,53,12,40000,14.816,,,260,16.5,23.5,,,,,,,,1,wg-a,,,,AAXX 07184 07130 12582 22608 10220 20120 30040 40090 53006 60006 70186 82330 91800 333 10235 20165=
07130,1997-06-07 21:00:00,18,1010.6,1.5,64,11,40000,11.112,,,210,,,,,,,,,,,wg-a,,,,AAXX 07214 07130 12/82 42106 10180 20110 30055 40106 51015 60006 84030 92100=
07130,1997-06-08 00:00:00,15,1012.1,1.5,82,12,500,14.816,,,180,,,,,,,,,,,wg-a,,,,AAXX 08004 07130 12/00 01808 10150 20120 30070 40121 51015 60006 80000 90000=
07130,1997-06-08 03:00:00,14,1012.1,-0,88,12,500,14.816,,,210,,,,,,,,,,,wg-a,,,,AAXX 08034 07130 12500 /2108 10140 20120 30070 40121 55000 60006 81500 90300=
07130,1997-06-08 06:00:00,16,1013.5,1.4,82,13,20000,18.52,,,200,13.5,21.9,,,,,,,,,wg-a,,,,AAXX 08064 07130 02570 22010 10160 20130 30084 40135 53014 60006 82830 90600 333 10219 20135 60004=
07130,1997-06-08 09:00:00,13,1015.3,1.7,94,12,3000,22.224,,,260,,,,7,,,,,,80,wg-a,,,,AAXX 08094 07130 12530 72612 10130 20120 30101 40153 53017 60077 78096 879// 90900=
07130,1997-06-08 12:00:00,18,1016,0.8,83,15,8000,18.52,,,260,,,,4,,,,,,,wg-a,,,,AAXX 08124 07130 02/58 /2610 10180 20150 30109 40160 53008 60106 91200 333 60047=
07130,1997-06-08 15:00:00,21,1017.1,1.2,56,12,500,25.928,,,240,,,,3,,,,,,1,wg-a,,,,AAXX 08154 07130 12600 32414 10210 20120 30121 40171 51012 60037 70181 83200 91500=
07130,1997-06-08 18:00:00,20,1018.8,1.6,64,13,35000,18.52,,,240,13.1,21.8,,,,,,,,1,wg-a,,,,AAXX 08184 07130 12681 22410 10200 20130 30137 40188 52016 60006 70186 82201 91800 333 10218 20131=
07130,1997-06-09 00:00:00,14,1021.6,0.8,94,13,20000,3.704,,,180,,,,,,,,,,,wg-a,,,,AAXX 09004 07130 12/70 01802 10140 20130 30164 40216 51008 60006 80000 90000=
07130,1997-06-09 03:00:00,13,1021.6,0,100,13,500,3.704,,,230,,,,,,,,,,45,wg-a,,,,AAXX 09034 07130 12/05 92302 10130 20130 30164 40216 50000 60006 74541 89/// 90300=
07130,1997-06-09 06:00:00,13,1022.5,0.9,100,13,200,3.704,,,170,12.6,20,,,,,13,,,45,wg-a,,,,AAXX 09064 07130 02/02 91702 10130 20130 30173 40225 53009 60006 74541 89/// 90600 333 10200 20126 60134=
07130,1997-06-09 09:00:00,16,1023.1,0.7,88,14,8000,7.408,,,110,,,,,,,,,,1,wg-a,,,,AAXX 09094 07130 12358 71104 10160 20140 30180 40231 51007 60006 70142 876// 90900=
07130,1997-06-09 12:00:00,21,1021.6,-1.4,64,14,25000,11.112,,,120,,,,,,,,,,1,wg-a,,,,AAXX 09124 07130 12575 71206 10210 20140 30166 40216 58014 60006 70142 81102 91200=
07130,1997-06-09 15:00:00,23,1020.7,-0.9,50,12,35000,11.112,,,100,,,,,,,,,,,wg-a,,,,AAXX 09154 07130 12/81 61006 10230 20120 30157 40207 56009 60006 82032 91500=
07130,1997-06-09 18:00:00,23,1019.8,-0.9,50,12,35000,14.816,,,100,12.8,23.4,,,,,,,,,wg-a,,,,AAXX 09184 07130 12/81 61008 10230 20120 30148 40198 55009 60006 83032 91800 333 10234 20128=
07130,1997-06-09 21:00:00,20,1019.2,-0.7,64,13,500,14.816,,,80,,,,,,,,,,,wg-a,,,,AAXX 09214 07130 12/00 70808 10200 20130 30141 40192 56007 60006 8705/ 92100=
07130,1997-06-10 00:00:00,18,1017.6,-1.6,73,13,500,11.112,,,90,,,,,,,,,,,wg-a,,,,AAXX 10004 07130 12/00 20906 10180 20130 30125 40176 58016 60006 82030 90000=
07130,1997-06-10 03:00:00,17,1015.1,-2.5,77,13,500,22.224,,,90,,,,,,,,,,,wg-a,,,,AAXX 10034 07130 12/00 60912 10170 20130 30100 40151 58025 60006 86030 90300=
07130,1997-06-10 06:00:00,19,1014.3,-0.8,73,14,20000,18.52,,,90,16.4,23.1,,,,,,,,,wg-a,,,,AAXX 10064 07130 02/70 70910 10190 20140 30092 40143 58008 60006 85072 90600 333 10231 20164 60004=
07130,1997-06-10 09:00:00,20,1012.6,-1.6,68,14,500,18.52,,,120,,,,,,,,,,21,wg-a,,,,AAXX 10094 07130 02/00 81210 10200 20140 30076 40126 58016 61000 72162 8707/ 90900 333 ////=
07130,1997-06-10 12:00:00,20,1011.6,-1,88,18,15000,18.52,,,120,,,,1,,,,,,21,wg-a,,,,AAXX 10124 07130 02/65 81210 10200 20180 30066 40116 58010 60016 72162 8807/ 91200 333 60017=
07130,1997-06-10 15:00:00,23,1008.7,-2.8,73,18,15000,14.816,,,140,,,,,,,,,,,wg-a,,,,AAXX 10154 07130 12/65 71408 10230 20180 30038 40087 56028 60006 8707/ 91500=
07130,1997-06-10 18:00:00,24,1008.2,-0.5,69,18,500,14.816,,,170,18.5,24.2,,,,,,,,,wg-a,,,,AAXX 10184 07130 12500 81708 10240 20180 30033 40082 58005 60006 8587/ 91800 333 10242 20185=
07130,1997-06-10 21:00:00,20,1009,1.1,83,17,20000,11.112,,,220,,,,,,,,,,,wg-a,,,,AAXX 10214 07130 12770 72206 10200 20170 30040 40090 53011 60006 875// 92100=
07130,1997-06-11 00:00:00,17,1008.8,-0.7,94,16,20000,7.408,,,230,,,,,,,,,,,wg-a,,,,AAXX 11004 07130 12/70 62304 10170 20160 30037 40088 58007 60006 86070 90000=
07130,1997-06-11 03:00:00,16,1008.3,-0.5,94,15,20000,3.704,,,340,,,,,,,,,,,wg-a,,,,AAXX 11034 07130 12770 73402 10160 20150 30032 40083 58005 60006 875// 90300=
07130,1997-06-11 06:00:00,16,1008.4,0.1,94,15,11000,7.408,,,100,15.8,23.6,,,,,,,,60,wg-a,,,,AAXX 11064 07130 02561 81004 10160 20150 30033 40084 51001 61000 76062 8487/ 90600 333 10236 20158 6001=
07130,1997-06-11 09:00:00,19,1008.6,0.3,83,16,14000,7.408,,,180,,,,0,,,,,,3,wg-a,,,,AAXX 11094 07130 12464 71804 10190 20160 30036 40086 51003 60007 70362 8387/ 90900=
07130,1997-06-11 12:00:00,18,1009,0.4,88,16,2000,11.112,,,220,,,,4,,,,,,63,wg-a,,,,AAXX 11124 07130 02420 82206 10180 20160 30040 40090 51004 60046 76362 85870 91200 333 60047=
07130,1997-06-11 15:00:00,22,1008.3,-0.7,60,14,15000,25.928,,,230,,,,1,,,,,,3,wg-a,,,,AAXX 11154 07130 12665 /2314 10220 20140 30033 40083 56007 60017 70361 86200 91500=
07130,1997-06-11 18:00:00,19,1008.3,-0,73,14,20000,22.224,,,230,16.2,22.5,,,,,,,,15,wg-a,,,,AAXX 11184 07130 12570 /2312 10190 20140 30033 40083 54000 60006 71561 86300 91800 333 10225 20162=
07130,1997-06-11 21:00:00,17,1009.7,1.3,88,15,20000,14.816,,,220,,,,,,,,,,,wg-a,,,,AAXX 11214 07130 12570 72208 10170 20150 30046 40097 52013 60006 878// 92100=
07130,1997-06-12 00:00:00,16,1009.9,0.2,94,15,15000,11.112,,,220,,,,,,,,,,,wg-a,,,,AAXX 12004 07130 12465 62206 10160 20150 30048 40099 50002 60006 86800 90000=
07130,1997-06-12 03:00:00,16,1009.5,-0.4,94,15,15000,11.112,,,220,,,,,,,,,,25,wg-a,,,,AAXX 12034 07130 02465 72206 10160 20150 30044 40095 56004 61000 72522 873// 90300 333 ////=
07130,1997-06-12 06:00:00,16,1009.8,0.3,94,15,12000,11.112,,,210,15.4,19.5,,,,,5,,,3,wg-a,,,,AAXX 12064 07130 02462 82106 10160 20150 30047 40098 53003 60006 70386 8687/ 90600 333 10195 20154 60054=
07130,1997-06-12 09:00:00,18,1010.4,0.6,88,16,11000,18.52,,,220,,,,,,,,,,,wg-a,,,,AAXX 12094 07130 32/61 /2210 10180 20160 30053 40104 51006 90900=
07130,1997-06-12 12:00:00,21,1009.9,-0.4,64,14,11000,18.52,,,260,,,,,,,,,,,wg-a,,,,AAXX 12124 07130 12/61 /2610 10210 20140 30049 40099 58004 60026 91200=
07130,1997-06-12 15:00:00,21,1009.4,-0.5,60,13,15000,29.632,,,230,,,,,,,,,,,wg-a,,,,AAXX 12154 07130 12665 62316 10210 20130 30044 40094 58005 60006 84242 91500=
07130,1997-06-12 18:00:00,20,1009.4,-0,68,14,35000,18.52,,,230,15.6,21.7,,0,,,,,,,wg-a,,,,AAXX 12184 07130 02581 62310 10200 20140 30044 40094 55000 60006 83830 91800 333 10217 20156 60007=
07130,1997-06-13 00:00:00,16,1009.3,-0.4,94,15,9000,11.112,,,210,,,,,,,,,,,wg-a,,,,AAXX 13004 07130 12359 72106 10160 20150 30042 40093 58004 60006 875// 90000=
07130,1997-06-13 06:00:00,16,1008.1,-0,88,14,15000,11.112,,,210,15.1,19.6,,,,,2,,,,wg-a,,,,AAXX 13064 07130 02465 72106 10160 20140 30030 40081 54000 60006 8684/ 90600 333 10196 20151 60024=
07130,1997-06-13 09:00:00,18,1007.8,-0.2,77,14,25000,14.816,,,220,,,,,,,,,,,wg-a,,,,AAXX 13094 07130 12475 72208 10180 20140 30028 40078 57002 60006 86842 90900=
07130,1997-06-13 12:00:00,18,1007.7,-0.1,77,14,15000,14.816,,,240,,,,0,,,,,,60,wg-a,,,,AAXX 13124 07130 02565 82408 10180 20140 30027 40077 56001 60006 76062 8687/ 91200 333 60007=
07130,1997-06-13 15:00:00,17,1007.2,-0.5,94,16,500,14.816,,,210,,,,1,,,,,,61,wg-a,,,,AAXX 13154 07130 12400 82108 10170 20160 30022 40072 57005 60017 76166 8687/ 91500=
07130,1997-06-13 18:00:00,18,1006.7,-0.5,88,16,20000,11.112,,,240,15.9,19.6,,1,,,,,,1,wg-a,,,,AAXX 13184 07130 02470 82406 10180 20160 30017 40067 56005 60006 70162 8327/ 91800 333 10196 20159 60017=
07130,1997-06-13 21:00:00,16,1007.6,0.8,100,16,20000,7.408,,,230,,,,,,,,,,,wg-a,,,,AAXX 13214 07130 12470 72304 10160 20160 30025 40076 53008 60006 878// 92100=
07130,1997-06-14 00:00:00,14,1008.7,1.1,94,13,15000,11.112,,,320,,,,0,,,,,,,wg-a,,,,AAXX 14004 07130 02265 83206 10140 20130 30036 40087 53011 60016 878// 90000 333 60007=
07130,1997-06-14 03:00:00,13,1009.5,0.8,100,13,12000,7.408,,,290,,,,,,,,,,,wg-a,,,,AAXX 14034 07130 12462 82904 10130 20130 30044 40095 53008 60006 878// 90300=
07130,1997-06-14 06:00:00,14,1011.2,1.7,94,13,12000,11.112,,,250,13.2,17.7,,,,,3,,,,wg-a,,,,AAXX 14064 07130 02562 72506 10140 20130 30061 40112 53017 60006 8687/ 90600 333 10177 20132 60034=
07130,1997-06-14 09:00:00,16,1012.8,1.6,82,13,20000,18.52,,,280,,,,,,,,,,,wg-a,,,,AAXX 14094 07130 12470 72810 10160 20130 30077 40128 53016 60006 878// 90900=
07130,1997-06-14 12:00:00,19,1014.1,1.3,64,12,500,14.816,,,270,,,,,,,,,,15,wg-a,,,,AAXX 14124 07130 12500 72708 10190 20120 30090 40141 51013 60006 71522 878// 91200=
07130,1997-06-14 15:00:00,18,1015.4,1.3,73,13,15000,11.112,,,310,,,,0,,,,,,15,wg-a,,,,AAXX 14154 07130 12565 73106 10180 20130 30103 40154 51013 60007 71586 878// 91500=
07130,1997-06-14 18:00:00,17,1016.3,0.9,72,12,15000,11.112,,,10,13.8,19.3,,,,,,,,15,wg-a,,,,AAXX 14184 07130 12565 60106 10170 20120 30112 40163 52009 60006 71586 86800 91800 333 10193 20138=
07130,1997-06-14 21:00:00,16,1018.2,1.9,88,14,12000,3.704,,,260,,,,0,,,,,,16,wg-a,,,,AAXX 14214 07130 12562 82602 10160 20140 30131 40182 52019 60007 71686 878// 92100=
07130,1997-06-15 00:00:00,14,1018.4,0.1,94,13,15000,3.704,,,200,,,,0,,,,,,1,wg-a,,,,AAXX 15004 07130 02665 32002 10140 20130 30132 40184 50001 60016 70186 83500 90000 333 60007=
07130,1997-06-15 06:00:00,13,1018.6,0.4,100,13,12000,3.704,,,290,12.3,17.3,,,,,1,,,,wg-a,,,,AAXX 15064 07130 02562 62902 10130 20130 30134 40186 53004 60006 85801 90600 333 10173 20123 60014=
07130,1997-06-15 09:00:00,17,1019,0.5,72,12,20000,3.704,,,230,,,,,,,,,,,wg-a,,,,AAXX 15094 07130 12570 62302 10170 20120 30139 40190 51005 60006 84202 90900=
07130,1997-06-15 12:00:00,20,1018.7,-0.3,53,10,500,7.408,,,190,,,,,,,,,,,wg-a,,,,AAXX 15124 07130 12600 71904 10200 20100 30136 40187 58003 60006 86802 91200=
07130,1997-06-15 18:00:00,19,1018.4,0.2,60,11,500,14.816,,,30,13,21.6,,,,,,,,,wg-a,,,,AAXX 15184 07130 12600 70308 10190 20110 30133 40184 53002 60006 878// 91800 333 10216 20130=
07130,1997-06-15 21:00:00,16,1019.4,1,68,10,35000,11.112,,,20,,,,,,,,,,,wg-a,,,,AAXX 15214 07130 12781 70206 10160 20100 30143 40194 53010 60006 875// 92100=
07130,1997-06-16 00:00:00,14,1018.8,-0.7,88,12,500,7.408,,,360,,,,,,,,,,,wg-a,,,,AAXX 16004 07130 12/00 23604 10140 20120 30136 40188 58007 60006 82030 90000=
07130,1997-06-16 03:00:00,13,1017.8,-1,94,12,20000,3.704,,,10,,,,,,,,,,,wg-a,,,,AAXX 16034 07130 12/70 40102 10130 20120 30126 40178 58010 60006 82031 90300=
07130,1997-06-16 06:00:00,14,1017.5,-0.3,94,13,12000,7.408,,,30,12.2,19.1,,,,,,,,,wg-a,,,,AAXX 16064 07130 02862 60304 10140 20130 30123 40175 56003 60006 85082 90600 333 10191 20122 60004=
07130,1997-06-16 09:00:00,19,1017.2,-0.2,73,14,12000,3.704,,,40,,,,,,,,,,,wg-a,,,,AAXX 16094 07130 12862 60402 10190 20140 30121 40172 58002 60006 86070 90900=
07130,1997-06-16 12:00:00,20,1016.1,-1,64,13,20000,11.112,,,320,,,,,,,,,,80,wg-a,,,,AAXX 16124 07130 02670 73206 10200 20130 30111 40161 58010 61000 78022 878// 91200 333 6100=
07130,1997-06-16 18:00:00,16,1016.4,-0.4,82,13,20000,11.112,,,340,14,21.9,,0,,,,,,1,wg-a,,,,AAXX 16184 07130 02570 73406 10160 20130 30113 40164 55004 60006 70198 82842 91800 333 10219 20140 60007=
07130,1997-06-16 21:00:00,15,1017.5,1.1,94,14,10000,3.704,,,340,,,,,,,,,,,wg-a,,,,AAXX 16214 07130 12760 73402 10150 20140 30124 40175 53011 60006 8553/ 92100=
07130,1997-06-17 00:00:00,14,1017.6,-0,94,13,10000,7.408,,,350,,,,,,,,,,,wg-a,,,,AAXX 17004 07130 12760 73504 10140 20130 30124 40176 54000 60006 8353/ 90000=
07130,1997-06-17 03:00:00,14,1017.4,-0.2,100,14,10000,3.704,,,300,,,,,,,,,,,wg-a,,,,AAXX 17034 07130 12560 73002 10140 20140 30122 40174 56002 60006 8483/ 90300=
07130,1997-06-17 06:00:00,14,1018.3,0.9,94,13,2500,11.112,,,360,12.8,16.1,,,,,12,,,10,wg-a,,,,AAXX 17064 07130 02225 73606 10140 20130 30131 40183 53009 60006 71086 875// 90600 333 10161 20128 60124=
07130,1997-06-17 12:00:00,19,1019.5,0.1,64,12,11000,14.816,,,40,,,,,,,,,,,wg-a,,,,AAXX 17124 07130 12561 70408 10190 20120 30144 40195 53001 60006 873// 91200=
07130,1997-06-17 15:00:00,19,1019.6,0.1,68,13,15000,22.224,,,20,,,,0,,,,,,15,wg-a,,,,AAXX 17154 07130 12565 /0212 10190 20130 30145 40196 50001 60007 71586 86300 91500=
07130,1997-06-17 18:00:00,20,1019.4,-0.2,60,12,25000,14.816,,,10,13.7,20.8,,,,,,,,1,wg-a,,,,AAXX 17184 07130 12675 20108 10200 20120 30143 40194 57002 60006 70186 81102 91800 333 10208 20137=
07130,1997-06-18 00:00:00,12,1021.6,0.5,94,11,6000,7.408,,,300,,,,,,,,,,,wg-a,,,,AAXX 18004 07130 12/56 03004 10120 20110 30164 40216 51005 60006 80000 90000=
07130,1997-06-18 06:00:00,10,1020.7,-0.3,100,10,100,0,,,0,9.3,20.2,,,,,,,,45,wg-a,,,,AAXX 18064 07130 02/01 90000 10100 20100 30154 40207 56003 60006 74541 89/// 90600 333 10202 20093 60004=
07130,1997-06-18 09:00:00,16,1020,-0.5,72,11,10000,3.704,,,230,,,,0,,,,,,1,wg-a,,,,AAXX 18094 07130 12/60 12302 10160 20110 30149 40200 58005 60007 70141 81030 90900=
07130,1997-06-18 12:00:00,21,1018.8,-1.1,49,10,20000,3.704,,,260,,,,,,,,,,3,wg-a,,,,AAXX 18124 07130 12570 /2602 10210 20100 30138 40188 58011 60006 70341 81230 91200=
07130,1997-06-18 18:00:00,19,1015.8,-1.1,78,15,9000,3.704,,,230,9.7,23,,,,,,,,25,wg-a,,,,AAXX 18184 07130 02559 /2302 10190 20150 30107 40158 57011 61000 72586 84302 91800 333 10230 20097 6002=
07130,1997-06-18 21:00:00,15,1015.7,-0.1,82,12,9000,7.408,,,360,,,,,,,,,,,wg-a,,,,AAXX 18214 07130 12/59 /3604 10150 20120 30106 40157 55001 60006 82032 92100=
07130,1997-06-19 00:00:00,12,1014.3,-1.5,94,11,10000,7.408,,,300,,,,,,,,,,,wg-a,,,,AAXX 19004 07130 12/60 63004 10120 20110 30091 40143 58015 60006 83032 90000=
07130,1997-06-19 03:00:00,12,1012.4,-1.9,94,11,10000,3.704,,,280,,,,,,,,,,,wg-a,,,,AAXX 19034 07130 12/60 /2802 10120 20110 30072 40124 58019 60006 90300=
07130,1997-06-19 06:00:00,12,1011.3,-1.1,94,11,6000,3.704,,,210,11.9,19.2,,,,,,,,21,wg-a,,,,AAXX 19064 07130 02656 82102 10120 20110 30061 40113 56011 61000 72162 8557/ 90600 333 10192 20119 6003=
07130,1997-06-19 12:00:00,16,1010.3,-0.4,72,11,12000,18.52,,,290,,,,0,,,,,,60,wg-a,,,,AAXX 19124 07130 02462 82910 10160 20110 30052 40103 55004 60006 76062 8587/ 91200 333 60007=
07130,1997-06-19 15:00:00,15,1009.4,-0.9,72,10,20000,25.928,,,260,,,,1,,,,,,1,wg-a,,,,AAXX 19154 07130 12570 82614 10150 20100 30043 40094 58009 60017 70162 8757/ 91500=
07130,1997-06-19 18:00:00,16,1008.4,-1,68,10,35000,22.224,,,240,12.2,18.6,,0,,,,,,1,wg-a,,,,AAXX 19184 07130 02681 72412 10160 20100 30033 40084 58010 60006 70162 8657/ 91800 333 10186 20122 60007=
07130,1997-06-19 21:00:00,14,1008.7,0.3,88,12,20000,11.112,,,250,,,,,,,,,,,wg-a,,,,AAXX 19214 07130 12470 /2506 10140 20120 30036 40087 53003 60006 86800 92100=
07130,1997-06-20 00:00:00,12,1009,0.2,94,11,20000,11.112,,,270,,,,,,,,,,,wg-a,,,,AAXX 20004 07130 12670 /2706 10120 20110 30038 40090 51002 60006 81500 90000=
07130,1997-06-20 03:00:00,10,1008,-1,100,10,15000,7.408,,,220,,,,,,,,,,,wg-a,,,,AAXX 20034 07130 12665 /2204 10100 20100 30028 40080 58010 60006 85502 90300=
07130,1997-06-20 06:00:00,12,1006.8,-1.1,94,11,15000,14.816,,,190,10.3,15.9,,,,,2,,,,wg-a,,,,AAXX 20064 07130 02665 71908 10120 20110 30017 40068 56011 60006 875// 90600 333 10159 20103 60024=
07130,1997-06-20 09:00:00,15,1005.1,-1.7,88,13,10000,22.224,,,200,,,,,,,,,,61,wg-a,,,,AAXX 20094 07130 02460 82012 10150 20130 30000 40051 58017 61000 76162 8687/ 90900 333 ////=
07130,1997-06-20 12:00:00,15,1003.2,-1.9,88,13,10000,25.928,,53.708,220,,,,1,,,,,,21,wg-a,,,,AAXX 20124 07130 02360 82214 10150 20130 39981 40032 56019 60016 72162 868// 91200 333 60017 91029=
07130,1997-06-20 15:00:00,16,1000.2,-2.9,94,15,4500,29.632,,,210,,,,0,,,,,,10,wg-a,,,,AAXX 20154 07130 12245 82116 10160 20150 39952 40002 58029 60007 71062 877// 91500=
07130,1997-06-20 18:00:00,17,999.3,-0.9,82,14,20000,22.224,,,240,12.4,17.3,,1,,,,,,1,wg-a,,,,AAXX 20184 07130 02570 72412 10170 20140 39943 49993 55009 60006 70162 8387/ 91800 333 10173 20124 60017=
07130,1997-06-20 21:00:00,15,999.7,0.3,82,12,15000,14.816,,,210,,,,,,,,,,,wg-a,,,,AAXX 20214 07130 12565 32108 10150 20120 39946 49997 51003 60006 83500 92100=
07130,1997-06-21 00:00:00,14,999.8,0.1,88,12,15000,14.816,,,230,,,,,,,,,,,wg-a,,,,AAXX 21004 07130 12765 42308 10140 20120 39947 49998 53001 60006 845/0 90000=
07130,1997-06-21 03:00:00,13,999.5,-0.3,88,11,500,14.816,,,250,,,,,,,,,,,wg-a,,,,AAXX 21034 07130 12700 12508 10130 20110 39944 49995 56003 60006 81530 90300=
07130,1997-06-21 06:00:00,13,1000.2,0.7,82,10,25000,14.816,,,240,12.3,16.7,,,,,2,,,,wg-a,,,,AAXX 21064 07130 02575 52408 10130 20100 39951 40002 51007 60006 81142 90600 333 10167 20123 60024=
07130,1997-06-21 09:00:00,17,999.9,-0.2,55,8,25000,22.224,,,230,,,,,,,,,,,wg-a,,,,AAXX 21094 07130 12575 72312 10170 20080 39949 49999 58002 60006 8413/ 90900=
07130,1997-06-21 12:00:00,14,999.8,-0.2,88,12,12000,18.52,,,270,,,,3,,,,,,80,wg-a,,,,AAXX 21124 07130 02562 62710 10140 20120 39947 49998 55002 60036 78082 86900 91200 333 60037=
07130,1997-06-21 15:00:00,17,998.9,-0.8,63,10,10000,25.928,,,230,,,,,,,,,,16,wg-a,,,,AAXX 21154 07130 02460 52314 10170 20100 39939 49989 55008 61000 71682 85900 91500 333 ////=
07130,1997-06-21 18:00:00,15,1000,1,77,11,15000,18.52,,,260,13,18.6,,,,,,,,25,wg-a,,,,AAXX 21184 07130 02565 72610 10150 20110 39949 40000 53010 61000 72598 879// 91800 333 10186 20130 6001=
07130,1997-06-21 21:00:00,13,1001.8,1.8,82,10,500,14.816,,,240,,,,,,,,,,1,wg-a,,,,AAXX 21214 07130 02500 32408 10130 20100 39967 40018 53018 61000 70198 83900 92100 333 ////=
07130,1997-06-22 00:00:00,12,1001.9,0.1,94,11,500,14.816,,,230,,,,,,,,,,2,wg-a,,,,AAXX 22004 07130 02600 32308 10120 20110 39968 40019 51001 61000 70298 83500 90000 333 ////=
07130,1997-06-22 03:00:00,10,1001.9,-0,100,10,500,11.112,,,240,,,,,,,,,,,wg-a,,,,AAXX 22034 07130 12/00 12406 10100 20100 39968 40019 55000 60006 81030 90300=
07130,1997-06-22 06:00:00,11,1002.9,1,94,10,25000,14.816,,,260,10,15.2,,,,,4,,,,wg-a,,,,AAXX 22064 07130 02475 22608 10110 20100 39978 40029 53010 60006 82830 90600 333 10152 20100 60044=
07130,1997-06-22 09:00:00,16,1003.9,1,68,10,40000,18.52,,,290,,,,,,,,,,,wg-a,,,,AAXX 22094 07130 12582 52910 10160 20100 39988 40039 53010 60006 84240 90900=
07130,1997-06-22 12:00:00,16,1004.8,0.9,77,12,500,29.632,,,300,,,,0,,,,,,80,wg-a,,,,AAXX 22124 07130 02500 73016 10160 20120 39997 40048 53009 60006 78086 879// 91200 333 60007=
07130,1997-06-22 15:00:00,15,1005.5,0.7,88,13,15000,11.112,,,270,,,,0,,,,,,25,wg-a,,,,AAXX 22154 07130 12565 72706 10150 20130 30004 40055 53007 60007 72586 878// 91500=
07130,1997-06-22 18:00:00,17,1006.8,1.3,72,12,500,22.224,,,290,11.4,18.7,,,,,,,,25,wg-a,,,,AAXX 22184 07130 02600 62912 10170 20120 30017 40068 53013 61000 72582 86800 91800 333 10187 20114 6100=
07130,1997-06-22 21:00:00,15,1009,2.2,82,12,40000,11.112,,,290,,,,,,,,,,,wg-a,,,,AAXX 22214 07130 12682 /2906 10150 20120 30039 40090 53022 60006 86500 92100=
07130,1997-06-23 00:00:00,12,1010.3,1.2,88,10,35000,11.112,,,260,,,,,,,,,,,wg-a,,,,AAXX 23004 07130 12781 22606 10120 20100 30051 40103 51012 60006 82500 90000=
07130,1997-06-23 03:00:00,11,1010.6,0.3,100,11,20000,7.408,,,240,,,,,,,,,,,wg-a,,,,AAXX 23034 07130 12670 32404 10110 20110 30054 40106 52003 60006 83500 90300=
07130,1997-06-23 06:00:00,13,1011.6,1,88,11,8000,14.816,,,290,11,17.2,,,,,1,,,,wg-a,,,,AAXX 23064 07130 02658 /2908 10130 20110 30064 40116 52010 60006 86500 90600 333 10172 20110 60014=
07130,1997-06-23 09:00:00,17,1013,1.5,77,13,15000,18.52,,,290,,,,,,,,,,,wg-a,,,,AAXX 23094 07130 12465 82910 10170 20130 30079 40130 53015 60006 878// 90900=
07130,1997-06-23 12:00:00,15,1014.4,1.4,88,13,8000,29.632,,51.856,310,,,,1,,,,,,80,wg-a,,,,AAXX 23124 07130 02458 83116 10150 20130 30093 40144 53014 60016 78086 878// 91200 333 60017 91028=
07130,1997-06-23 15:00:00,17,1015.4,1,68,11,500,25.928,,,330,,,,1,,,,,,1,wg-a,,,,AAXX 23154 07130 12500 73314 10170 20110 30103 40154 52010 60017 70186 878// 91500=
07130,1997-06-23 18:00:00,16,1016.4,1,68,10,500,18.52,,,340,12.8,17.7,,,,,,,,2,wg-a,,,,AAXX 23184 07130 12500 73410 10160 20100 30113 40164 53010 60006 70286 878// 91800 333 10177 20128=
07130,1997-06-23 21:00:00,15,1017.7,1.2,77,11,500,7.408,,,310,,,,,,,,,,,wg-a,,,,AAXX 23214 07130 12600 83104 10150 20110 30125 40177 53012 60006 885// 92100=
07130,1997-06-24 00:00:00,14,1018.5,0.8,82,11,20000,11.112,,,280,,,,,,,,,,,wg-a,,,,AAXX 24004 07130 12670 82806 10140 20110 30133 40185 51008 60006 885// 90000=
07130,1997-06-24 03:00:00,13,1018.3,-0.2,88,11,20000,11.112,,,290,,,,,,,,,,,wg-a,,,,AAXX 24034 07130 12670 82906 10130 20110 30131 40183 57002 60006 885// 90300=
07130,1997-06-24 06:00:00,13,1019,0.7,88,11,15000,11.112,,,280,12.8,16.2,,,,,2,,,,wg-a,,,,AAXX 24064 07130 02465 82806 10130 20110 30138 40190 53007 60006 888// 90600 333 10162 20128 60024=
07130,1997-06-24 09:00:00,16,1019.6,0.7,72,11,25000,11.112,,,290,,,,,,,,,,,wg-a,,,,AAXX 24094 07130 12575 82906 10160 20110 30145 40196 51007 60006 878// 90900=
07130,1997-06-24 12:00:00,18,1019.2,-0.4,56,9,500,11.112,,,310,,,,,,,,,,,wg-a,,,,AAXX 24124 07130 12600 83106 10180 20090 30141 40192 58004 60006 878// 91200=
07130,1997-06-24 15:00:00,18,1018.4,-0.8,56,9,40000,11.112,,,330,,,,,,,,,,,wg-a,,,,AAXX 24154 07130 12682 73306 10180 20090 30133 40184 58008 60006 878// 91500=
07130,1997-06-24 18:00:00,18,1016.9,-1.5,59,10,500,7.408,,,250,13.2,18.6,,,,,,,,,wg-a,,,,AAXX 24184 07130 12600 72504 10180 20100 30118 40169 58015 60006 86801 91800 333 10186 20132=
07130,1997-06-24 21:00:00,16,1016.4,-0.5,77,12,11000,7.408,,,250,,,,,,,,,,,wg-a,,,,AAXX 24214 07130 12/61 /2504 10160 20120 30113 40164 57005 60006 92100=
07130,1997-06-25 00:00:00,13,1015.3,-1.2,82,10,35000,11.112,,,240,,,,,,,,,,,wg-a,,,,AAXX 25004 07130 12781 82406 10130 20100 30101 40153 58012 60006 8587/ 90000=
07130,1997-06-25 06:00:00,12,1010.6,-1.8,100,12,7000,14.816,,,210,12.3,17.6,,,,,,,,61,wg-a,,,,AAXX 25064 07130 02457 82108 10120 20120 30054 40106 56018 61000 76162 8557/ 90600 333 10176 20123 6001=
07130,1997-06-25 09:00:00,14,1007,-3.5,94,13,6000,25.928,,,200,,,,6,,,,,,60,wg-a,,,,AAXX 25094 07130 12356 82014 10140 20130 30019 40070 58035 60067 76062 8767/ 90900=
07130,1997-06-25 12:00:00,15,1003.8,-3.2,94,14,3000,31.484,,,200,,,,1,,,,,,10,wg-a,,,,AAXX 25124 07130 02230 82017 10150 20140 39987 40038 56032 60066 71065 877// 91200 333 60017=
07130,1997-06-25 15:00:00,18,1001.5,-2.2,77,14,500,18.52,,,270,,,,1,,,,,,1,wg-a,,,,AAXX 25154 07130 12500 72710 10180 20140 39965 40015 56022 60017 70165 878// 91500=
07130,1997-06-25 18:00:00,16,1000.9,-0.6,82,13,500,22.224,,,270,12.3,18.8,,,,,,,,2,wg-a,,,,AAXX 25184 07130 12500 72712 10160 20130 39959 40009 56006 60006 70265 878// 91800 333 10188 20123=
07130,1997-06-25 21:00:00,14,1001.3,0.3,100,14,8000,14.816,,,270,,,,1,,,,,,80,wg-a,,,,AAXX 25214 07130 12458 82708 10140 20140 39962 40013 51003 60017 78086 888// 92100=
07130,1997-06-26 00:00:00,14,1000,-1.3,94,13,15000,18.52,,,240,,,,0,,,,,,2,wg-a,,,,AAXX 26004 07130 02465 82410 10140 20130 39949 40000 58013 60016 70286 878// 90000 333 60007=
07130,1997-06-26 03:00:00,14,997.6,-2.4,94,13,15000,14.816,,,250,,,,,,,,,,,wg-a,,,,AAXX 26034 07130 12465 82508 10140 20130 39925 49976 58024 60006 888// 90300=
07130,1997-06-26 06:00:00,14,997,-0.6,94,13,7000,18.52,,,300,13.4,16.2,,,,,,,,52,wg-a,,,,AAXX 26064 07130 02357 83010 10140 20130 39919 49970 55006 61000 75286 8562/ 90600 333 10162 20134 6009=
07130,1997-06-26 12:00:00,15,996.7,-0.3,77,11,15000,25.928,,,290,,,,,,,,,,1,wg-a,,,,AAXX 26124 07130 12565 82914 10150 20110 39917 49967 58003 60006 70165 8583/ 91200=
07130,1997-06-26 15:00:00,14,996.2,-0.6,88,12,15000,35.188,,,320,,,,1,,,,,,21,wg-a,,,,AAXX 26154 07130 12465 83219 10140 20120 39911 49962 56006 60017 72162 8623/ 91500=
07130,1997-06-26 18:00:00,12,996.2,0,94,11,500,18.52,,,290,11.4,17,,,,,,,,61,wg-a,,,,AAXX 26184 07130 02300 82910 10120 20110 39911 49962 50000 61000 76186 887// 91800 333 10170 20114 6001=
07130,1997-06-26 21:00:00,11,994.8,-1.4,100,11,6000,22.224,,,280,,,,1,,,,,,61,wg-a,,,,AAXX 26214 07130 12256 82812 10110 20110 39897 49948 58014 60017 76162 887// 92100=
07130,1997-06-27 00:00:00,12,994.9,0.1,100,12,12000,7.408,,,340,,,,0,,,,,,1,wg-a,,,,AAXX 27004 07130 02362 83404 10120 20120 39898 49949 53001 60026 70162 8657/ 90000 333 60007=
07130,1997-06-27 03:00:00,13,995.2,0.3,100,13,10000,14.816,,,350,,,,2,,,,,,21,wg-a,,,,AAXX 27034 07130 12360 83508 10130 20130 39901 49952 53003 60027 72122 877// 90300=
07130,1997-06-27 06:00:00,13,996.5,1.3,100,13,3000,14.816,,,350,11.1,13,,,,,,,,60,wg-a,,,,AAXX 27064 07130 02330 83508 10130 20130 39914 49965 53013 61000 76062 875// 90600 333 10130 20111 6016=
07130,1997-06-27 09:00:00,14,997.9,1.4,88,12,12000,18.52,,,330,,,,0,,,,,,3,wg-a,,,,AAXX 27094 07130 12462 83310 10140 20120 39928 49979 51014 60007 70365 878// 90900=
07130,1997-06-27 12:00:00,14,998.9,1,94,13,500,14.816,,,300,,,,0,,,,,,51,wg-a,,,,AAXX 27124 07130 02300 83008 10140 20130 39938 49989 53010 60016 75186 8672/ 91200 333 60007=
07130,1997-06-27 18:00:00,13,1000.2,0.5,100,13,6000,18.52,,,320,12.7,15,,,,,,,,50,wg-a,,,,AAXX 27184 07130 02256 83210 10130 20130 39951 40002 51005 61000 75065 877// 91800 333 10150 20127 6000=
07130,1997-06-27 21:00:00,13,1001.2,1,100,13,3000,11.112,,,270,,,,0,,,,,,51,wg-a,,,,AAXX 27214 07130 12230 82706 10130 20130 39961 40012 53010 60007 75165 877// 92100=
07130,1997-06-28 00:00:00,13,1001.3,0.1,100,13,3000,7.408,,,300,,,,4,,,,,,10,wg-a,,,,AAXX 28004 07130 02230 83004 10130 20130 39962 40013 51001 60046 71065 877// 90000 333 60047=
07130,1997-06-28 06:00:00,13,1002.8,1,100,13,6000,7.408,,,360,12.4,13.4,,,,,8,,,3,wg-a,,,,AAXX 28064 07130 02356 73604 10130 20130 39977 40028 53010 60006 70365 8657/ 90600 333 10134 20124 60084=
07130,1997-06-28 09:00:00,16,1004.3,1.5,77,12,15000,11.112,,,40,,,,,,,,,,,wg-a,,,,AAXX 28094 07130 12565 70406 10160 20120 39992 40043 51015 60006 873// 90900=
07130,1997-06-28 12:00:00,17,1005.4,1.1,72,12,15000,14.816,,,340,,,,,,,,,,15,wg-a,,,,AAXX 28124 07130 12565 73408 10170 20120 30003 40054 53011 60006 71522 873// 91200=
07130,1997-06-28 15:00:00,16,1006.4,1,82,13,15000,14.816,,,10,,,,,,,,,,3,wg-a,,,,AAXX 28154 07130 02465 70108 10160 20130 30013 40064 51010 61000 70362 878// 91500 333 ////=
07130,1997-06-28 18:00:00,16,1006.7,0.3,77,12,15000,11.112,,,10,13.2,19,,,,,,,,3,wg-a,,,,AAXX 28184 07130 12465 40106 10160 20120 30016 40067 53003 60006 70361 8323/ 91800 333 10190 20132=
07130,1997-06-28 21:00:00,14,1008,1.3,82,11,15000,11.112,,,50,,,,,,,,,,,wg-a,,,,AAXX 28214 07130 12/65 50506 10140 20110 30029 40080 53013 60006 85030 92100=
07130,1997-06-29 00:00:00,11,1007.3,-0.8,94,10,15000,7.408,,,320,,,,,,,,,,,wg-a,,,,AAXX 29004 07130 12/65 53204 10110 20100 30021 40073 58008 60006 80001 90000=
07130,1997-06-29 03:00:00,11,1006.4,-0.9,94,10,10000,3.704,,,350,,,,,,,,,,,wg-a,,,,AAXX 29034 07130 12660 /3502 10110 20100 30012 40064 55009 60006 85500 90300=
07130,1997-06-29 06:00:00,12,1006.2,-0.1,94,11,8000,7.408,,,10,10.2,16.2,,,,,,,,,wg-a,,,,AAXX 29064 07130 02458 80104 10120 20110 30011 40062 55001 60006 875// 90600 333 10162 20102 60004=
07130,1997-06-29 09:00:00,14,1005.9,-0.3,94,13,7000,7.408,,,10,,,,0,,,,,,21,wg-a,,,,AAXX 29094 07130 12357 80104 10140 20130 30008 40059 56003 60007 72162 887// 90900=
07130,1997-06-29 12:00:00,15,1005.8,-0.1,94,14,500,18.52,,,360,,,,0,,,,,,61,wg-a,,,,AAXX 29124 07130 02400 83610 10150 20140 30007 40058 56001 60016 76162 885// 91200 333 60007=
07130,1997-06-29 15:00:00,15,1005.4,-0.4,94,14,6000,18.52,,,350,,,,3,,,,,,61,wg-a,,,,AAXX 29154 07130 12356 83510 10150 20140 30003 40054 56004 60037 76162 875// 91500=
07130,1997-06-29 18:00:00,14,1005.9,0.5,94,13,7000,14.816,,,340,12.1,16,,,,,,,,61,wg-a,,,,AAXX 29184 07130 02357 83408 10140 20130 30008 40059 53005 61000 76162 875// 91800 333 10160 20121 6002=
07130,1997-06-29 21:00:00,13,1006.4,0.5,100,13,6000,14.816,,,330,,,,1,,,,,,61,wg-a,,,,AAXX 29214 07130 12256 83308 10130 20130 30013 40064 53005 60017 76166 8772/ 92100=
07130,1997-06-30 00:00:00,13,1006,-0.4,94,12,500,7.408,,,330,,,,,,,,,,1,wg-a,,,,AAXX 30004 07130 02200 73304 10130 20120 30009 40060 57004 60016 70162 875// 90000 333 61000=
07130,1997-06-30 03:00:00,12,1004.9,-1.1,100,12,4000,11.112,,,280,,,,0,,,,,,51,wg-a,,,,AAXX 30034 07130 12240 82806 10120 20120 39998 40049 58011 60007 75165 877// 90300=
07130,1997-06-30 06:00:00,13,1005.1,0.2,100,13,2000,11.112,,,290,12.1,14.5,,,,,,,,10,wg-a,,,,AAXX 30064 07130 02220 82906 10130 20130 30000 40051 53002 61000 71065 887// 90600 333 10145 20121 6008=
07130,1997-06-30 09:00:00,14,1006.1,1,100,14,3500,11.112,,,320,,,,5,,,,,,10,wg-a,,,,AAXX 30094 07130 12235 83206 10140 20140 30010 40061 52010 60057 71066 8357/ 90900=
07130,1997-06-30 12:00:00,16,1007,0.9,82,13,12000,18.52,,,340,,,,,,,,,,1,wg-a,,,,AAXX 30124 07130 02462 83410 10160 20130 30019 40070 51009 60056 70162 8317/ 91200 333 61000=
07130,1997-06-30 15:00:00,16,1007.2,0.2,82,13,9000,18.52,,,320,,,,,,,,,,,wg-a,,,,AAXX 30154 07130 12559 83210 10160 20130 30021 40072 53002 60006 8387/ 91500=
07130,1997-06-30 18:00:00,14,1007.8,0.6,94,13,4000,3.704,,,260,12.9,17.6,,,,,,,,25,wg-a,,,,AAXX 30184 07130 02540 82602 10140 20130 30027 40078 50006 61000 72586 8497/ 91800 333 10176 20129 6007=
07130,1997-06-30 21:00:00,14,1008.3,0.5,94,13,9000,7.408,,,220,,,,,,,,,,,wg-a,,,,AAXX 30214 07130 12559 72204 10140 20130 30032 40083 52005 60006 8587/ 92100=
07130,1997-07-01 00:00:00,13,1008.4,0.1,94,12,10000,7.408,,,300,,,,0,,,,,,25,wg-a,,,,AAXX 01004 07130 02460 73004 10130 20120 30033 40084 53001 60006 72522 8687/ 90000 333 60007=
07130,1997-07-01 03:00:00,11,1008.1,-0.4,94,10,10000,7.408,,,250,,,,,,,,,,,wg-a,,,,AAXX 01034 07130 12460 52504 10110 20100 30029 40081 57004 60006 8457/ 90300=
07130,1997-07-01 06:00:00,11,1008.5,0.4,100,11,12000,11.112,,,250,10.3,14,,,,,12,,,,wg-a,,,,AAXX 01064 07130 02362 72506 10110 20110 30033 40085 53004 60006 8383/ 90600 333 10140 20103 60124=
07130,1997-07-01 09:00:00,13,1008.8,0.4,88,11,14000,7.408,,,230,,,,1,,,,,,25,wg-a,,,,AAXX 01094 07130 12464 72304 10130 20110 30037 40088 50004 60017 72522 8687/ 90900=
07130,1997-07-01 12:00:00,18,1008.1,-0.7,59,10,15000,18.52,,,220,,,,,,,,,,,wg-a,,,,AAXX 01124 07130 12665 72210 10180 20100 30030 40081 56007 60016 878// 91200=
07130,1997-07-01 15:00:00,19,1007.6,-0.4,52,9,14000,18.52,,,230,,,,,,,,,,,wg-a,,,,AAXX 01154 07130 12664 72310 10190 20090 30026 40076 58004 60006 878// 91500=
07130,1997-07-01 18:00:00,17,1007.8,0.1,68,11,500,7.408,,,310,11.3,19.3,,,,,,,,,wg-a,,,,AAXX 01184 07130 12600 53104 10170 20110 30027 40078 52001 60006 85800 91800 333 10193 20113=
07130,1997-07-01 21:00:00,14,1008.8,1,77,10,40000,14.816,,,220,,,,,,,,,,,wg-a,,,,AAXX 01214 07130 12682 52208 10140 20100 30037 40088 53010 60006 84830 92100=
07130,1997-07-02 00:00:00,12,1009,0.1,82,9,40000,7.408,,,220,,,,,,,,,,,wg-a,,,,AAXX 02004 07130 12/82 02204 10120 20090 30038 40090 50001 60006 80000 90000=
07130,1997-07-02 03:00:00,10,1008.7,-0.3,93,9,500,7.408,,,180,,,,,,,,,,,wg-a,,,,AAXX 02034 07130 12600 61804 10100 20090 30035 40087 58003 60006 84801 90300=
07130,1997-07-02 06:00:00,11,1007.9,-0.8,100,11,9000,3.704,,,290,9.7,16.8,,,,,1,,,,wg-a,,,,AAXX 02064 07130 02659 72902 10110 20110 30027 40079 56008 60006 81842 90600 333 10168 20097 60014=
07130,1997-07-02 12:00:00,19,1007.2,-0.6,43,6,35000,22.224,,,250,,,,,,,,,,15,wg-a,,,,AAXX 02124 07130 12581 52512 10190 20060 30022 40072 56006 60006 71522 84903 91200=
07130,1997-07-02 15:00:00,16,1007.9,0.6,63,9,500,25.928,,,240,,,,,,,,,,15,wg-a,,,,AAXX 02154 07130 12500 72414 10160 20090 30028 40079 53006 60006 71522 878// 91500=
07130,1997-07-02 18:00:00,16,1008.8,0.9,63,9,20000,18.52,,,260,10.7,19,,0,,,,,,15,wg-a,,,,AAXX 02184 07130 02670 62610 10160 20090 30037 40088 53009 60006 71586 85802 91800 333 10190 20107 60007=
07130,1997-07-02 21:00:00,13,1011.3,2.4,77,9,20000,11.112,,,250,,,,,,,,,,,wg-a,,,,AAXX 02214 07130 12670 /2506 10130 20090 30061 40113 53024 60006 84802 92100=
07130,1997-07-03 00:00:00,11,1011.7,0.4,87,9,20000,11.112,,,220,,,,,,,,,,,wg-a,,,,AAXX 03004 07130 12770 72206 10110 20090 30065 40117 51004 60006 875// 90000=
07130,1997-07-03 03:00:00,12,1011.5,-0.2,88,10,15000,11.112,,,200,,,,,,,,,,,wg-a,,,,AAXX 03034 07130 12665 72006 10120 20100 30063 40115 57002 60006 875// 90300=
07130,1997-07-03 06:00:00,12,1011.8,0.3,88,10,11000,14.816,,,210,10.6,15.7,,,,,1,,,,wg-a,,,,AAXX 03064 07130 02/61 /2108 10120 20100 30066 40118 53003 60006 90600 333 10157 20106 60014=
07130,1997-07-03 09:00:00,15,1012.6,0.9,67,9,20000,18.52,,,240,,,,,,,,,,,wg-a,,,,AAXX 03094 07130 12570 72410 10150 20090 30075 40126 51009 60006 8587/ 90900=
07130,1997-07-03 12:00:00,14,1013.1,0.5,88,12,15000,14.816,,,240,,,,1,,,,,,25,wg-a,,,,AAXX 03124 07130 02565 72408 10140 20120 30080 40131 53005 60016 72522 8687/ 91200 333 60017=
07130,1997-07-03 15:00:00,16,1013.3,0.2,68,10,15000,18.52,,,240,,,,0,,,,,,16,wg-a,,,,AAXX 03154 07130 12565 72410 10160 20100 30082 40133 52002 60007 71686 8587/ 91500=
07130,1997-07-03 18:00:00,17,1013.2,-0.1,59,9,25000,18.52,,,230,11.8,17.8,,,,,,,,1,wg-a,,,,AAXX 03184 07130 12675 /2310 10170 20090 30081 40132 57001 60006 70186 83872 91800 333 10178 20118=
07130,1997-07-03 21:00:00,15,1014.5,1.3,77,11,25000,11.112,,,210,,,,,,,,,,,wg-a,,,,AAXX 03214 07130 12575 72106 10150 20110 30094 40145 53013 60006 878// 92100=
07130,1997-07-04 00:00:00,13,1015,0.4,94,12,25000,11.112,,,240,,,,,,,,,,,wg-a,,,,AAXX 04004 07130 12475 22406 10130 20120 30098 40150 53004 60006 82500 90000=
07130,1997-07-04 03:00:00,11,1015.4,0.4,100,11,15000,7.408,,,220,,,,0,,,,,,,wg-a,,,,AAXX 04034 07130 12265 52204 10110 20110 30102 40154 51004 60007 82801 90300=
07130,1997-07-04 06:00:00,11,1016.9,1.5,100,11,7000,3.704,,,250,10.6,17.1,,,,,1,,,,wg-a,,,,AAXX 04064 07130 02457 /2502 10110 20110 30117 40169 53015 60006 81130 90600 333 10171 20106 60014=
07130,1997-07-04 09:00:00,16,1017.6,0.8,72,11,17000,11.112,,,280,,,,,,,,,,,wg-a,,,,AAXX 04094 07130 12467 /2806 10160 20110 30125 40176 51008 60006 85130 90900=
07130,1997-07-04 12:00:00,17,1018.4,0.8,68,11,20000,18.52,,,290,,,,,,,,,,15,wg-a,,,,AAXX 04124 07130 12570 72910 10170 20110 30133 40184 51008 60006 71511 878// 91200=
07130,1997-07-04 15:00:00,16,1019.4,1,82,13,17000,11.112,,,290,,,,5,,,,,,80,wg-a,,,,AAXX 04154 07130 12467 72906 10160 20130 30143 40194 53010 60057 78098 879// 91500=
07130,1997-07-04 18:00:00,17,1020.1,0.7,68,11,40000,22.224,,,340,11,18.1,,0,,,,,,1,wg-a,,,,AAXX 04184 07130 02582 /3412 10170 20110 30150 40201 53007 60006 70198 81203 91800 333 10181 20110 60007=
07130,1997-07-04 21:00:00,14,1022.5,2.3,82,11,20000,7.408,,,340,,,,,,,,,,,wg-a,,,,AAXX 04214 07130 12/70 13404 10140 20110 30173 40225 51023 60006 80002 92100=
07130,1997-07-05 00:00:00,11,1023.5,1,100,11,15000,3.704,,,280,,,,,,,,,,,wg-a,,,,AAXX 05004 07130 12/65 02802 10110 20110 30183 40235 51010 60006 80000 90000=
07130,1997-07-05 06:00:00,13,1025.4,1.5,100,13,6000,11.112,,,320,10.6,17.3,,,,,6,,,,wg-a,,,,AAXX 05064 07130 02356 /3206 10130 20130 30202 40254 51015 60006 81130 90600 333 10173 20106 60064=
07130,1997-07-05 09:00:00,17,1026.5,1.1,72,12,20000,18.52,,,330,,,,,,,,,,,wg-a,,,,AAXX 05094 07130 12570 33310 10170 20120 30213 40265 51011 60006 83100 90900=
07130,1997-07-05 12:00:00,20,1027.2,0.8,56,11,40000,14.816,,,340,,,,,,,,,,,wg-a,,,,AAXX 05124 07130 12682 /3408 10200 20110 30221 40272 52008 60006 85100 91200=
07130,1997-07-05 15:00:00,21,1027.3,0.1,53,11,500,14.816,,,350,,,,,,,,,,,wg-a,,,,AAXX 05154 07130 12600 33508 10210 20110 30222 40273 51001 60006 83200 91500=
07130,1997-07-05 18:00:00,20,1028,0.7,56,11,40000,22.224,,,20,13.1,21.3,,,,,,,,,wg-a,,,,AAXX 05184 07130 12/82 00212 10200 20110 30229 40280 53007 60006 80000 91800 333 10213 20131=
07130,1997-07-05 21:00:00,15,1029.9,1.8,77,11,500,11.112,,,20,,,,,,,,,,,wg-a,,,,AAXX 05214 07130 12/00 10206 10150 20110 30247 40299 53018 60006 80001 92100=
07130,1997-07-06 00:00:00,12,1030.8,0.8,88,10,9000,11.112,,,300,,,,,,,,,,,wg-a,,,,AAXX 06004 07130 12/59 13006 10120 20100 30255 40308 51008 60006 80001 90000=
07130,1997-07-06 03:00:00,11,1030.5,-0.3,94,10,900,3.704,,,250,,,,,,,,,,41,wg-a,,,,AAXX 06034 07130 12/09 02502 10110 20100 30252 40305 58003 60006 74140 80000 90300=
07130,1997-07-06 06:00:00,11,1031.2,0.7,100,11,200,0,,,0,9.6,19.8,,,,,,,,,wg-a,,,,AAXX 06064 07130 02/02 /0000 10110 20110 30259 40312 51007 60006 90600 333 10198 20096 60004=
07130,1997-07-06 09:00:00,16,1031.3,0.2,82,13,20000,7.408,,,40,,,,,,,,,,1,wg-a,,,,AAXX 06094 07130 12470 /0404 10160 20130 30261 40313 50002 60006 70141 81100 90900=
07130,1997-07-06 12:00:00,21,1030.5,-0.7,53,11,35000,7.408,,,330,,,,,,,,,,1,wg-a,,,,AAXX 06124 07130 12681 /3304 10210 20110 30254 40305 58007 60006 70141 81100 91200=
07130,1997-07-06 15:00:00,23,1029.6,-0.9,44,10,35000,11.112,,,10,,,,,,,,,,,wg-a,,,,AAXX 06154 07130 12781 10106 10230 20100 30245 40296 57009 60006 81100 91500=
07130,1997-07-06 18:00:00,23,1029.1,-0.5,57,14,40000,18.52,,,30,10.8,24.2,,,,,,,,,wg-a,,,,AAXX 06184 07130 12782 10310 10230 20140 30240 40291 57005 60006 81100 91800 333 10242 20108=
07130,1997-07-06 21:00:00,18,1030,0.9,68,12,500,11.112,,,10,,,,,,,,,,,wg-a,,,,AAXX 06214 07130 12/00 00106 10180 20120 30249 40300 53009 60006 80000 92100=
07130,1997-07-07 00:00:00,14,1029.8,-0.3,88,12,500,7.408,,,350,,,,,,,,,,,wg-a,,,,AAXX 07004 07130 12/00 03504 10140 20120 30246 40298 57003 60006 80000 90000=
07130,1997-07-07 03:00:00,12,1029.5,-0.4,100,12,3000,7.408,,,340,,,,,,,,,,10,wg-a,,,,AAXX 07034 07130 12/30 03404 10120 20120 30242 40295 58004 60006 71000 80000 90300=
07130,1997-07-07 06:00:00,12,1029.6,0.1,100,12,1500,3.704,,,10,11.1,23,,,,,,,,28,wg-a,,,,AAXX 07064 07130 02115 /0102 10120 20120 30243 40296 52001 60006 72841 86600 90600 333 10230 20111 60004=
07130,1997-07-07 09:00:00,19,1028.7,-0.7,73,14,10000,3.704,,,330,,,,,,,,,,,wg-a,,,,AAXX 07094 07130 12/60 /3302 10190 20140 30236 40287 58007 60006 90900=
07130,1997-07-07 12:00:00,25,1027.4,-1.2,47,13,25000,11.112,,,30,,,,,,,,,,,wg-a,,,,AAXX 07124 07130 12675 30306 10250 20130 30224 40274 56012 60006 83100 91200=
07130,1997-07-07 15:00:00,26,1026.1,-1.3,48,14,25000,14.816,,,50,,,,,,,,,,,wg-a,,,,AAXX 07154 07130 12775 50508 10260 20140 30211 40261 58013 60006 85800 91500=
07130,1997-07-07 18:00:00,23,1025.5,-0.6,65,16,500,22.224,,,40,12.1,26,,,,,,,,,wg-a,,,,AAXX 07184 07130 12700 30412 10230 20160 30205 40255 56006 60006 82531 91800 333 10260 20121=
07130,1997-07-07 21:00:00,19,1025.4,-0.2,83,16,500,11.112,,,30,,,,,,,,,,,wg-a,,,,AAXX 07214 07130 12/00 10306 10190 20160 30203 40254 56002 60006 80001 92100=
07130,1997-07-08 00:00:00,17,1025.3,-0.1,94,16,0,3.704,,,330,,,,,,,,,,,wg-a,,,,AAXX 08004 07130 12/// /3302 10170 20160 30202 40253 58001 60006 90000=
07130,1997-07-08 06:00:00,15,1024.5,0.1,100,15,6000,0,,,0,13.8,23.4,,,,,,,,,wg-a,,,,AAXX 08064 07130 02/56 00000 10150 20150 30193 40245 53001 60006 80000 90600 333 10234 20138 60004=
07130,1997-07-08 09:00:00,23,1023.9,-0.4,57,14,13000,14.816,,,100,,,,,,,,,,,wg-a,,,,AAXX 08094 07130 12663 21008 10230 20140 30189 40239 57004 60006 81101 90900=
07130,1997-07-08 12:00:00,26,1022.3,-1.6,48,14,25000,18.52,,,70,,,,,,,,,,,wg-a,,,,AAXX 08124 07130 12675 20710 10260 20140 30173 40223 58016 60006 82100 91200=
07130,1997-07-08 15:00:00,27,1020.7,-1.5,45,14,25000,22.224,,,80,,,,,,,,,,,wg-a,,,,AAXX 08154 07130 12775 30812 10270 20140 30158 40207 58015 60006 83200 91500=
07130,1997-07-08 18:00:00,27,1019.4,-1.3,45,14,35000,18.52,,,90,15.3,27.7,,,,,,,,,wg-a,,,,AAXX 08184 07130 12781 10910 10270 20140 30145 40194 56013 60006 81100 91800 333 10277 20153=
07130,1997-07-08 21:00:00,23,1019.9,0.4,61,15,35000,11.112,,,60,,,,,,,,,,,wg-a,,,,AAXX 08214 07130 12/81 10606 10230 20150 30149 40199 53004 60006 80001 92100=
07130,1997-07-09 00:00:00,20,1019.7,-0.3,78,16,500,11.112,,,70,,,,,,,,,,,wg-a,,,,AAXX 09004 07130 12/00 00706 10200 20160 30146 40197 58003 60006 80000 90000=
07130,1997-07-09 03:00:00,18,1019.1,-0.6,77,14,25000,3.704,,,80,,,,,,,,,,,wg-a,,,,AAXX 09034 07130 12/75 00802 10180 20140 30140 40191 56006 60006 80000 90300=
07130,1997-07-09 06:00:00,17,1019,-0.1,88,15,10000,7.408,,,20,15,26.7,,,,,,,,,wg-a,,,,AAXX 09064 07130 02/60 00204 10170 20150 30139 40190 56001 60006 80000 90600 333 10267 20150 60004=
07130,1997-07-09 12:00:00,25,1016.7,-1.2,47,13,500,22.224,,,70,,,,,,,,,,,wg-a,,,,AAXX 09124 07130 12600 /0712 10250 20130 30117 40167 58012 60006 81100 91200=
07130,1997-07-09 15:00:00,26,1015.4,-1.2,45,13,35000,18.52,,,60,,,,,,,,,,,wg-a,,,,AAXX 09154 07130 12781 20610 10260 20130 30105 40154 56012 60006 82200 91500=
07130,1997-07-09 18:00:00,26,1014.8,-0.6,48,14,25000,22.224,,,70,17.1,27.1,,,,,,,,,wg-a,,,,AAXX 09184 07130 12775 20712 10260 20140 30099 40148 56006 60006 82200 91800 333 10271 20171=
07130,1997-07-10 00:00:00,19,1015.5,0,83,16,20000,11.112,,,40,,,,,,,,,,,wg-a,,,,AAXX 10004 07130 12/70 00406 10190 20160 30104 40155 50000 60006 80000 90000=
07130,1997-07-10 03:00:00,17,1014.8,-0.7,88,15,20000,3.704,,,30,,,,,,,,,,,wg-a,,,,AAXX 10034 07130 12/70 00302 10170 20150 30097 40148 58007 60006 80000 90300=
07130,1997-07-10 06:00:00,16,1014.7,-0.1,94,15,8000,7.408,,,350,15.2,25.6,,,,,,,,,wg-a,,,,AAXX 10064 07130 02758 /3504 10160 20150 30096 40147 55001 60006 85500 90600 333 10256 20152 60004=
07130,1997-07-10 09:00:00,21,1014.1,-0.5,69,15,8000,14.816,,,20,,,,,,,,,,,wg-a,,,,AAXX 10094 07130 12/58 00208 10210 20150 30091 40141 57005 60006 80000 90900=
07130,1997-07-10 12:00:00,23,1014,-0.1,61,15,10000,11.112,,,340,,,,,,,,,,,wg-a,,,,AAXX 10124 07130 12660 /3406 10230 20150 30090 40140 58001 60006 81100 91200=
07130,1997-07-10 15:00:00,25,1013.2,-0.7,50,14,15000,14.816,,,330,,,,,,,,,,,wg-a,,,,AAXX 10154 07130 12665 /3308 10250 20140 30083 40132 57007 60006 81100 91500=
07130,1997-07-10 18:00:00,24,1013.3,0,54,14,15000,14.816,,,360,16.3,25.5,,,,,,,,,wg-a,,,,AAXX 10184 07130 12765 13608 10240 20140 30083 40133 50000 60006 81100 91800 333 10255 20163=
07130,1997-07-11 00:00:00,16,1014.7,-0.1,94,15,3500,7.408,,,310,,,,,,,,,,10,wg-a,,,,AAXX 11004 07130 12435 /3104 10160 20150 30096 40147 57001 60006 71000 81100 90000=
07130,1997-07-11 03:00:00,14,1014.3,-0.4,100,14,2000,3.704,,,290,,,,,,,,,,10,wg-a,,,,AAXX 11034 07130 12420 72902 10140 20140 30092 40143 58004 60006 71011 84502 90300=
07130,1997-07-11 06:00:00,14,1015.1,0.8,100,14,100,7.408,,,330,13.5,24.1,,,,,,,,43,wg-a,,,,AAXX 11064 07130 02/01 93304 10140 20140 30100 40151 51008 60006 74341 89/// 90600 333 10241 20135 60004=
07130,1997-07-11 12:00:00,23,1016,0.1,65,16,10000,7.408,,,320,,,,,,,,,,3,wg-a,,,,AAXX 11124 07130 12460 /3204 10230 20160 30110 40160 51001 60006 70341 81102 91200=
07130,1997-07-11 15:00:00,20,1016,-0,94,19,3500,18.52,,,20,,,,11,,,,,,80,wg-a,,,,AAXX 11154 07130 12335 80210 10200 20190 30110 40160 55000 60117 78098 878// 91500=
07130,1997-07-11 18:00:00,20,1015.9,-0.1,78,16,8000,11.112,,,40,14.1,24.8,,0,,,,,,3,wg-a,,,,AAXX 11184 07130 02558 50406 10200 20160 30109 40159 56001 60006 70398 83301 91800 333 10248 20141 60007=
07130,1997-07-11 21:00:00,18,1017.4,1.4,83,15,14000,7.408,,,60,,,,,,,,,,,wg-a,,,,AAXX 11214 07130 12564 /0604 10180 20150 30123 40174 51014 60006 86500 92100=
07130,1997-07-12 00:00:00,17,1017.2,-0.2,88,15,9000,3.704,,,10,,,,,,,,,,,wg-a,,,,AAXX 12004 07130 12559 60102 10170 20150 30121 40172 58002 60006 86500 90000=
07130,1997-07-12 03:00:00,16,1016.8,-0.4,94,15,8000,3.704,,,40,,,,,,,,,,,wg-a,,,,AAXX 12034 07130 12558 70402 10160 20150 30117 40168 57004 60006 875// 90300=
07130,1997-07-12 06:00:00,16,1017.1,0.3,94,15,4000,3.704,,,270,15.5,20.3,,,,,12,,,10,wg-a,,,,AAXX 12064 07130 02540 /2702 10160 20150 30120 40171 53003 60006 71011 82802 90600 333 10203 20155 60124=
07130,1997-07-12 09:00:00,20,1017,0,68,14,25000,7.408,,,270,,,,,,,,,,,wg-a,,,,AAXX 12094 07130 12575 /2704 10200 20140 30120 40170 50000 60006 85201 90900=
07130,1997-07-12 12:00:00,23,1016.4,-0.6,53,13,40000,7.408,,,280,,,,,,,,,,,wg-a,,,,AAXX 12124 07130 12682 32804 10230 20130 30114 40164 58006 60006 83401 91200=
07130,1997-07-12 15:00:00,23,1016.1,-0.3,61,15,40000,14.816,,,260,,,,,,,,,,,wg-a,,,,AAXX 12154 07130 12682 72608 10230 20150 30111 40161 56003 60006 86801 91500=
07130,1997-07-12 18:00:00,22,1015.8,-0.3,65,15,40000,14.816,,,270,15.9,24.3,,,,,,,,,wg-a,,,,AAXX 12184 07130 12682 72708 10220 20150 30108 40158 55003 60006 86801 91800 333 10243 20159=
07130,1997-07-12 21:00:00,19,1016.8,0.9,78,15,500,7.408,,,280,,,,,,,,,,,wg-a,,,,AAXX 12214 07130 12/00 52804 10190 20150 30117 40168 53009 60006 85031 92100=
07130,1997-07-13 00:00:00,17,1017.1,0.3,88,15,20000,3.704,,,250,,,,,,,,,,60,wg-a,,,,AAXX 13004 07130 02870 /2502 10170 20150 30120 40171 52003 61000 76061 85070 90000 333 6100=
07130,1997-07-13 03:00:00,15,1016.7,-0.4,100,15,20000,3.704,,,210,,,,,,,,,,21,wg-a,,,,AAXX 13034 07130 02870 32102 10150 20150 30116 40167 56004 61000 72161 83030 90300 333 ////=
07130,1997-07-13 06:00:00,16,1017.4,0.7,94,15,8000,7.408,,,190,14.6,22.1,,,,,,,,3,wg-a,,,,AAXX 13064 07130 02558 51904 10160 20150 30123 40174 53007 60006 70361 81231 90600 333 10221 20146 61000=
07130,1997-07-13 09:00:00,21,1017.7,0.4,69,15,15000,3.704,,,280,,,,,,,,,,,wg-a,,,,AAXX 13094 07130 12/65 62802 10210 20150 30127 40177 51004 60006 80002 90900=
07130,1997-07-13 12:00:00,24,1017.5,-0.2,57,15,15000,11.112,,,270,,,,,,,,,,,wg-a,,,,AAXX 13124 07130 12665 62706 10240 20150 30125 40175 56002 60006 84102 91200=
07130,1997-07-13 15:00:00,25,1017.1,-0.4,54,15,10000,11.112,,,230,,,,,,,,,,,wg-a,,,,AAXX 13154 07130 12660 72306 10250 20150 30121 40171 56004 60006 85202 91500=
07130,1997-07-13 18:00:00,24,1017.1,-0,57,15,12000,18.52,,,260,15.8,25.1,,,,,,,,,wg-a,,,,AAXX 13184 07130 12662 /2610 10240 20150 30121 40171 54000 60006 84202 91800 333 10251 20158=
07130,1997-07-13 21:00:00,18,1019.2,2,77,14,40000,11.112,,,10,,,,,,,,,,,wg-a,,,,AAXX 13214 07130 12682 30106 10180 20140 30141 40192 53020 60006 81502 92100=
07130,1997-07-14 00:00:00,16,1020.2,1,88,14,40000,3.704,,,20,,,,,,,,,,,wg-a,,,,AAXX 14004 07130 12/82 30202 10160 20140 30151 40202 51010 60006 80002 90000=
07130,1997-07-14 03:00:00,16,1020.3,0.1,88,14,15000,11.112,,,340,,,,,,,,,,,wg-a,,,,AAXX 14034 07130 12465 73406 10160 20140 30152 40203 53001 60006 875// 90300=
07130,1997-07-14 06:00:00,15,1021.2,0.9,94,14,15000,11.112,,,320,14.9,24.2,,,,,,,,,wg-a,,,,AAXX 14064 07130 02365 23206 10150 20140 30161 40212 52009 60006 81501 90600 333 10242 20149 60004=
07130,1997-07-14 09:00:00,18,1022,0.8,73,13,500,11.112,,,330,,,,,,,,,,,wg-a,,,,AAXX 14094 07130 12500 73306 10180 20130 30169 40220 53008 60006 878// 90900=
07130,1997-07-14 12:00:00,20,1022.2,0.2,64,13,40000,11.112,,,340,,,,,,,,,,,wg-a,,,,AAXX 14124 07130 12582 /3406 10200 20130 30171 40222 50002 60006 85802 91200=
07130,1997-07-14 15:00:00,22,1021.9,-0.2,57,13,40000,11.112,,,30,,,,,,,,,,,wg-a,,,,AAXX 14154 07130 12682 50306 10220 20130 30169 40219 56002 60006 83202 91500=
07130,1997-07-14 18:00:00,20,1023,1,60,12,50000,18.52,,,350,15.3,22.7,,,,,,,,,wg-a,,,,AAXX 14184 07130 12684 43510 10200 20120 30179 40230 53010 60006 81102 91800 333 10227 20153=
07130,1997-07-14 21:00:00,16,1024,0.9,72,11,40000,7.408,,,20,,,,,,,,,,,wg-a,,,,AAXX 14214 07130 12/82 10204 10160 20110 30188 40240 53009 60006 81040 92100=
07130,1997-07-15 00:00:00,13,1024.8,0.8,94,12,500,3.704,,,250,,,,,,,,,,,wg-a,,,,AAXX 15004 07130 12/00 22502 10130 20120 30196 40248 51008 60006 82030 90000=
07130,1997-07-15 03:00:00,12,1024.5,-0.3,100,12,25000,0,,,0,,,,,,,,,,,wg-a,,,,AAXX 15034 07130 12/75 20000 10120 20120 30193 40245 56003 60006 82030 90300=
07130,1997-07-15 06:00:00,13,1024.8,0.3,94,12,35000,7.408,,,220,11.6,19.6,,,,,,,,,wg-a,,,,AAXX 15064 07130 02781 12204 10130 20120 30196 40248 51003 60006 81500 90600 333 10196 20116 60004=
07130,1997-07-15 12:00:00,24,1024,-1,50,13,40000,11.112,,,240,,,,,,,,,,,wg-a,,,,AAXX 15124 07130 12682 72406 10240 20130 30190 40240 56010 60006 878// 91200=
07130,1997-07-15 15:00:00,24,1023.3,-0.7,54,14,11000,7.408,,,280,,,,,,,,,,,wg-a,,,,AAXX 15154 07130 12/61 /2804 10240 20140 30183 40233 56007 60006 91500=
07130,1997-07-15 18:00:00,25,1021.9,-1.4,54,15,40000,3.704,,,220,13.1,24.8,,,,,,,,,wg-a,,,,AAXX 15184 07130 12682 32202 10250 20150 30169 40219 57014 60006 82801 91800 333 10248 20131=
07130,1997-07-15 21:00:00,20,1022.6,0.6,83,17,500,11.112,,,40,,,,,,,,,,,wg-a,,,,AAXX 15214 07130 12600 70406 10200 20170 30175 40226 53006 60006 875// 92100=
07130,1997-07-16 00:00:00,18,1022.6,0,94,17,15000,14.816,,,10,,,,,,,,,,,wg-a,,,,AAXX 16004 07130 12365 70108 10180 20170 30175 40226 50000 60006 876// 90000=
07130,1997-07-16 03:00:00,18,1021.5,-1.1,88,16,1000,14.816,,,30,,,,,,,,,,,wg-a,,,,AAXX 16034 07130 12410 70308 10180 20160 30164 40215 56011 60006 876// 90300=
07130,1997-07-16 06:00:00,17,1021.3,-0.2,88,15,10000,11.112,,,360,16.6,24.5,,,,,,,,20,wg-a,,,,AAXX 16064 07130 02360 73606 10170 20150 30162 40213 56002 61000 72052 875// 90600 333 10245 20166 6100=
07130,1997-07-16 12:00:00,21,1020.3,-1,60,13,15000,14.816,,,10,,,,,,,,,,1,wg-a,,,,AAXX 16124 07130 02565 /0108 10210 20130 30152 40203 58010 61000 70152 85500 91200 333 ////=
07130,1997-07-16 15:00:00,20,1019.5,-0.8,68,14,500,25.928,,,360,,,,,,,,,,,wg-a,,,,AAXX 16154 07130 12500 43614 10200 20140 30144 40195 56008 60006 84500 91500=
07130,1997-07-16 18:00:00,18,1019.1,-0.4,73,13,500,25.928,,,10,16.7,21.5,,,,,,,,,wg-a,,,,AAXX 16184 07130 12500 70114 10180 20130 30140 40191 56004 60006 875// 91800 333 10215 20167=
07130,1997-07-16 21:00:00,17,1019.4,0.3,77,13,500,22.224,,,10,,,,,,,,,,,wg-a,,,,AAXX 16214 07130 12400 80112 10170 20130 30143 40194 53003 60006 885// 92100=
07130,1997-07-17 00:00:00,15,1019.2,-0.2,94,14,25000,18.52,,,350,,,,,,,,,,,wg-a,,,,AAXX 17004 07130 12575 83510 10150 20140 30141 40192 58002 60006 885// 90000=
07130,1997-07-17 03:00:00,15,1017.8,-1.4,94,14,20000,11.112,,,360,,,,,,,,,,,wg-a,,,,AAXX 17034 07130 12470 73606 10150 20140 30127 40178 56014 60006 876// 90300=
07130,1997-07-17 06:00:00,16,1017.8,-0,88,14,12000,14.816,,,350,14.4,17.9,,,,,,,,,wg-a,,,,AAXX 17064 07130 02362 83508 10160 20140 30127 40178 55000 60006 886// 90600 333 10179 20144 61000=
07130,1997-07-17 12:00:00,20,1016.9,-0.4,78,16,40000,18.52,,,310,,,,,,,,,,,wg-a,,,,AAXX 17124 07130 12482 73110 10200 20160 30119 40169 58004 60006 878// 91200=
07130,1997-07-17 15:00:00,22,1015.8,-1.1,65,15,500,29.632,,,350,,,,,,,,,,,wg-a,,,,AAXX 17154 07130 12500 63516 10220 20150 30108 40158 56011 60006 85801 91500=
07130,1997-07-17 18:00:00,20,1016.1,0.3,73,15,40000,18.52,,,330,15.7,22.9,,,,,,,,,wg-a,,,,AAXX 17184 07130 12582 73310 10200 20150 30111 40161 51003 60006 878// 91800 333 10229 20157=
07130,1997-07-18 00:00:00,13,1018.4,0.4,94,12,500,11.112,,,300,,,,,,,,,,,wg-a,,,,AAXX 18004 07130 12500 23006 10130 20120 30132 40184 50004 60006 82500 90000=
07130,1997-07-18 06:00:00,15,1019.8,1.7,77,11,25000,11.112,,,330,10.8,20.1,,,,,,,,,wg-a,,,,AAXX 18064 07130 02675 43306 10150 20110 30146 40198 53017 60006 84501 90600 333 10201 20108 60004=
07130,1997-07-18 09:00:00,17,1020.7,1,72,12,25000,18.52,,,350,,,,,,,,,,,wg-a,,,,AAXX 18094 07130 12575 73510 10170 20120 30156 40207 51010 60006 878// 90900=
07130,1997-07-18 12:00:00,20,1021.1,0.4,60,12,500,18.52,,,350,,,,,,,,,,,wg-a,,,,AAXX 18124 07130 12500 /3510 10200 20120 30160 40211 51004 60006 85200 91200=
07130,1997-07-18 15:00:00,21,1021.2,0.1,56,12,500,22.224,,,350,,,,,,,,,,,wg-a,,,,AAXX 18154 07130 12600 43512 10210 20120 30161 40212 51001 60006 84200 91500=
07130,1997-07-18 18:00:00,20,1022.1,0.9,53,10,35000,18.52,,,350,14.6,21.7,,,,,,,,,wg-a,,,,AAXX 18184 07130 12/81 03510 10200 20100 30170 40221 53009 60006 80000 91800 333 10217 20146=
07130,1997-07-19 00:00:00,13,1023.9,0.1,88,11,10000,7.408,,,280,,,,,,,,,,,wg-a,,,,AAXX 19004 07130 12/60 /2804 10130 20110 30187 40239 50001 60006 90000=
07130,1997-07-19 03:00:00,11,1023.7,-0.2,100,11,15000,11.112,,,290,,,,,,,,,,,wg-a,,,,AAXX 19034 07130 12/65 12906 10110 20110 30185 40237 56002 60006 81030 90300=
07130,1997-07-19 06:00:00,13,1024.6,0.9,100,13,6000,7.408,,,300,11.1,20.1,,,,,,,,,wg-a,,,,AAXX 19064 07130 02/56 /3004 10130 20130 30194 40246 53009 60006 80001 90600 333 10201 20111 60004=
07130,1997-07-19 09:00:00,20,1025.3,0.8,68,14,12000,11.112,,,20,,,,,,,,,,,wg-a,,,,AAXX 19094 07130 12562 /0206 10200 20140 30202 40253 51008 60006 85200 90900=
07130,1997-07-19 12:00:00,23,1025.2,0,50,12,17000,11.112,,,40,,,,,,,,,,,wg-a,,,,AAXX 19124 07130 12667 40406 10230 20120 30202 40252 50000 60006 84200 91200=
07130,1997-07-19 15:00:00,24,1025,-0.2,50,13,25000,7.408,,,30,,,,,,,,,,,wg-a,,,,AAXX 19154 07130 12675 30304 10240 20130 30200 40250 58002 60006 83200 91500=
07130,1997-07-19 18:00:00,23,1024.9,-0.1,61,15,11000,22.224,,,20,12.9,24.8,,,,,,,,,wg-a,,,,AAXX 19184 07130 12/61 /0212 10230 20150 30199 40249 55001 60006 91800 333 10248 20129=
07130,1997-07-19 21:00:00,18,1026.1,1.1,77,14,15000,11.112,,,360,,,,,,,,,,,wg-a,,,,AAXX 19214 07130 12/65 43606 10180 20140 30210 40261 51011 60006 81042 92100=
07130,1997-07-20 00:00:00,15,1026.1,-0.1,88,13,15000,3.704,,,320,,,,,,,,,,,wg-a,,,,AAXX 20004 07130 12/65 63202 10150 20130 30209 40261 58001 60006 80002 90000=
07130,1997-07-20 03:00:00,13,1025.6,-0.5,100,13,15000,3.704,,,330,,,,,,,,,,11,wg-a,,,,AAXX 20034 07130 12/65 /3302 10130 20130 30204 40256 56005 60006 71122 80002 90300=
07130,1997-07-20 06:00:00,12,1025.8,0.2,100,12,500,3.704,,,330,11.8,23,,,,,,,,,wg-a,,,,AAXX 20064 07130 02/00 23302 10120 20120 30206 40258 53002 60006 81042 90600 333 10230 20118 60004=
07130,1997-07-20 09:00:00,21,1025.3,-0.4,53,11,25000,14.816,,,60,,,,,,,,,,,wg-a,,,,AAXX 20094 07130 12/75 30608 10210 20110 30202 40253 58004 60006 80002 90900=
07130,1997-07-20 12:00:00,24,1024.3,-0.9,38,9,35000,14.816,,,70,,,,,,,,,,,wg-a,,,,AAXX 20124 07130 12681 /0708 10240 20090 30193 40243 57009 60006 81102 91200=
07130,1997-07-20 15:00:00,25,1023.1,-1.2,41,11,40000,18.52,,,60,,,,,,,,,,,wg-a,,,,AAXX 20154 07130 12782 60610 10250 20110 30181 40231 56012 60006 82202 91500=
07130,1997-07-20 18:00:00,24,1022.4,-0.7,41,10,40000,18.52,,,50,12.1,26,,,,,,,,,wg-a,,,,AAXX 20184 07130 12782 50510 10240 20100 30174 40224 55007 60006 814/2 91800 333 10260 20121=
07130,1997-07-20 21:00:00,20,1023,0.5,53,10,500,11.112,,,30,,,,,,,,,,,wg-a,,,,AAXX 20214 07130 12/00 70306 10200 20100 30179 40230 53005 60006 80002 92100=
07130,1997-07-21 00:00:00,16,1022.8,-0.2,72,11,15000,11.112,,,20,,,,,,,,,,,wg-a,,,,AAXX 21004 07130 12/65 70206 10160 20110 30177 40228 58002 60006 80002 90000=
07130,1997-07-21 06:00:00,14,1022.9,0.4,88,12,15000,7.408,,,30,12.9,24.4,,,,,,,,,wg-a,,,,AAXX 21064 07130 02/65 30304 10140 20120 30177 40229 53004 60006 80001 90600 333 10244 20129 60004=
07130,1997-07-21 09:00:00,21,1022.3,-0.5,56,12,15000,14.816,,,80,,,,,,,,,,,wg-a,,,,AAXX 21094 07130 12/65 30808 10210 20120 30172 40223 58005 60006 80001 90900=
07130,1997-07-21 12:00:00,24,1021,-1.2,44,11,20000,14.816,,,70,,,,,,,,,,,wg-a,,,,AAXX 21124 07130 12770 30708 10240 20110 30160 40210 57012 60006 82101 91200=
07130,1997-07-21 15:00:00,26,1019.9,-1.1,39,11,20000,22.224,,,80,,,,,,,,,,,wg-a,,,,AAXX 21154 07130 12770 30812 10260 20110 30149 40199 56011 60006 83101 91500=
07130,1997-07-21 18:00:00,25,1018.9,-1,41,11,500,18.52,,,60,14,26.5,,,,,,,,,wg-a,,,,AAXX 21184 07130 12700 50610 10250 20110 30139 40189 56010 60006 81101 91800 333 10265 20140=
07130,1997-07-21 21:00:00,21,1019.9,1,56,12,500,22.224,,,60,,,,,,,,,,,wg-a,,,,AAXX 21214 07130 12/00 30612 10210 20120 30149 40199 53010 60006 80002 92100=
07130,1997-07-22 00:00:00,18,1020.2,0.2,59,10,500,11.112,,,80,,,,,,,,,,,wg-a,,,,AAXX 22004 07130 12/00 10806 10180 20100 30151 40202 50002 60006 80002 90000=
07130,1997-07-22 03:00:00,14,1019.6,-0.7,82,11,500,3.704,,,350,,,,,,,,,,,wg-a,,,,AAXX 22034 07130 12/00 13502 10140 20110 30144 40196 56007 60006 80002 90300=
07130,1997-07-22 06:00:00,13,1019.5,-0.1,94,12,20000,3.704,,,310,12.8,25.1,,,,,,,,,wg-a,,,,AAXX 22064 07130 02/70 13102 10130 20120 30143 40195 56001 60006 80001 90600 333 10251 20128 60004=
07130,1997-07-22 09:00:00,23,1019.3,0,53,13,20000,11.112,,,80,,,,,,,,,,,wg-a,,,,AAXX 22094 07130 12/70 20806 10230 20130 30143 40193 50000 60006 80001 90900=
07130,1997-07-22 12:00:00,26,1018.3,-1,39,11,20000,18.52,,,70,,,,,,,,,,,wg-a,,,,AAXX 22124 07130 12670 40710 10260 20110 30133 40183 58010 60006 83101 91200=
07130,1997-07-22 18:00:00,26,1017.7,-0,37,10,40000,14.816,,,40,13.6,27.5,,,,,,,,,wg-a,,,,AAXX 22184 07130 12782 20408 10260 20100 30127 40177 55000 60006 81401 91800 333 10275 20136=
07130,1997-07-22 21:00:00,21,1018.5,0.8,53,11,40000,14.816,,,40,,,,,,,,,,,wg-a,,,,AAXX 22214 07130 12/82 20408 10210 20110 30135 40185 51008 60006 80001 92100=
07130,1997-07-23 03:00:00,14,1018.5,-0.7,88,12,25000,7.408,,,300,,,,,,,,,,,wg-a,,,,AAXX 23034 07130 12/75 13004 10140 20120 30133 40185 58007 60006 81030 90300=
07130,1997-07-23 06:00:00,14,1019.1,0.6,94,13,10000,7.408,,,310,12.6,25.7,,,,,,,,,wg-a,,,,AAXX 23064 07130 02860 13104 10140 20130 30139 40191 53006 60006 81081 90600 333 10257 20126 60004=
07130,1997-07-23 09:00:00,22,1018.8,-0.1,60,14,15000,7.408,,,360,,,,,,,,,,,wg-a,,,,AAXX 23094 07130 12/65 43604 10220 20140 30138 40188 58001 60006 80001 90900=
07130,1997-07-23 12:00:00,27,1018.4,-0.3,48,15,15000,11.112,,,10,,,,,,,,,,,wg-a,,,,AAXX 23124 07130 12665 50106 10270 20150 30135 40184 58003 60006 81281 91200=
07130,1997-07-23 18:00:00,25,1017.9,0.2,50,14,20000,22.224,,,360,14.1,27.9,,,,,,,,,wg-a,,,,AAXX 23184 07130 12/70 13612 10250 20140 30129 40179 53002 60006 80001 91800 333 10279 20141=
07130,1997-07-24 00:00:00,16,1018.6,-0.5,88,14,10000,7.408,,,360,,,,,,,,,,,wg-a,,,,AAXX 24004 07130 12/60 03604 10160 20140 30135 40186 58005 60006 80000 90000=
07130,1997-07-24 03:00:00,13,1017.6,-1.1,94,12,10000,7.408,,,300,,,,,,,,,,,wg-a,,,,AAXX 24034 07130 12/60 03004 10130 20120 30124 40176 56011 60006 80000 90300=
07130,1997-07-24 06:00:00,13,1018.3,0.7,100,13,1200,7.408,,,300,12.4,24.5,,,,,,,,10,wg-a,,,,AAXX 24064 07130 02/12 73004 10130 20130 30131 40183 51007 60006 71011 80002 90600 333 10245 20124 60004=
07130,1997-07-24 09:00:00,20,1018,-0.2,64,13,8000,3.704,,,320,,,,,,,,,,,wg-a,,,,AAXX 24094 07130 12/58 /3202 10200 20130 30129 40180 56002 60006 90900=
07130,1997-07-24 12:00:00,25,1017.1,-0.8,41,11,20000,18.52,,,250,,,,,,,,,,,wg-a,,,,AAXX 24124 07130 12/70 72510 10250 20110 30121 40171 58008 60006 82038 91200=
07130,1997-07-24 15:00:00,22,1016.5,-0.6,69,16,10000,18.52,,,260,,,,,,,,,,60,wg-a,,,,AAXX 24154 07130 02560 82610 10220 20160 30115 40165 55006 61000 76062 885// 91500 333 ////=
07130,1997-07-24 18:00:00,20,1015.5,-1,88,18,18000,18.52,,,240,13.2,26.2,,0,,,,,,3,wg-a,,,,AAXX 24184 07130 02468 72410 10200 20180 30105 40155 58010 60006 70365 86502 91800 333 10262 20132 60007=
07130,1997-07-25 00:00:00,15,1018.1,1.1,94,14,15000,11.112,,,300,,,,,,,,,,1,wg-a,,,,AAXX 25004 07130 12465 23006 10150 20140 30130 40181 51011 60006 70186 81501 90000=
07130,1997-07-25 06:00:00,15,1017.8,0.1,94,14,10000,11.112,,,240,14,20.9,,,,,,,,,wg-a,,,,AAXX 25064 07130 02560 82406 10150 20140 30127 40178 50001 60006 8177/ 90600 333 10209 20140 60004=
07130,1997-07-25 12:00:00,21,1014.8,-1.7,94,20,20000,18.52,,,240,,,,0,,,,,,1,wg-a,,,,AAXX 25124 07130 02370 82410 10210 20200 30098 40148 56017 60036 70165 855// 91200 333 60007=
07130,1997-07-25 15:00:00,23,1014.8,-0,78,19,500,22.224,,,280,,,,0,,,,,,1,wg-a,,,,AAXX 25154 07130 12500 72812 10230 20190 30098 40148 55000 60007 70186 872// 91500=
07130,1997-07-25 18:00:00,22,1015.8,1,78,18,20000,18.52,,,280,14.9,22.9,,,,,,,,1,wg-a,,,,AAXX 25184 07130 12570 72810 10220 20180 30108 40158 53010 60006 70186 878// 91800 333 10229 20149=
07130,1997-07-25 21:00:00,20,1018.1,2.2,88,18,15000,14.816,,,290,,,,,,,,,,,wg-a,,,,AAXX 25214 07130 12465 72908 10200 20180 30130 40181 53022 60006 878// 92100=
07130,1997-07-26 00:00:00,17,1019.3,1.2,94,16,15000,11.112,,,320,,,,,,,,,,,wg-a,,,,AAXX 26004 07130 12/65 /3206 10170 20160 30142 40193 51012 60006 80000 90000=
07130,1997-07-26 03:00:00,16,1019.6,0.3,94,15,7000,7.408,,,50,,,,,,,,,,,wg-a,,,,AAXX 26034 07130 12157 70504 10160 20150 30145 40196 50003 60006 87600 90300=
07130,1997-07-26 06:00:00,17,1020.5,0.9,94,16,500,3.704,,,170,15.6,21.8,,,,,3,,,,wg-a,,,,AAXX 26064 07130 02200 71702 10170 20160 30154 40205 52009 60006 875// 90600 333 10218 20156 60034=
07130,1997-07-26 09:00:00,20,1020.9,0.4,78,16,25000,14.816,,,220,,,,,,,,,,,wg-a,,,,AAXX 26094 07130 12475 72208 10200 20160 30158 40209 53004 60006 875// 90900=
07130,1997-07-26 12:00:00,23,1020.4,-0.4,73,18,500,14.816,,,240,,,,,,,,,,,wg-a,,,,AAXX 26124 07130 12400 72408 10230 20180 30154 40204 58004 60006 878// 91200=
07130,1997-07-26 18:00:00,23,1019.5,-0,69,17,40000,18.52,,,260,16.5,26,,,,,,,,,wg-a,,,,AAXX 26184 07130 12682 82610 10230 20170 30145 40195 55000 60006 878// 91800 333 10260 20165=
07130,1997-07-26 21:00:00,21,1020.2,0.7,78,17,40000,18.52,,,250,,,,,,,,,,1,wg-a,,,,AAXX 26214 07130 02682 /2510 10210 20170 30152 40202 53007 61000 70182 86800 92100 333 ////=
07130,1997-07-27 00:00:00,20,1020.3,0,88,18,20000,11.112,,,240,,,,,,,,,,3,wg-a,,,,AAXX 27004 07130 02470 82406 10200 20180 30152 40203 50000 61000 70382 885// 90000 333 ////=
07130,1997-07-27 03:00:00,19,1019.9,-0.4,100,19,8000,11.112,,,230,,,,,,,,,,50,wg-a,,,,AAXX 27034 07130 02358 82306 10190 20190 30148 40199 56004 61000 75052 885// 90300 333 ////=
07130,1997-07-27 06:00:00,18,1020.9,1,100,18,15000,3.704,,,330,17.8,23.4,,,,,,,,21,wg-a,,,,AAXX 27064 07130 02465 73302 10180 20180 30158 40209 53010 61000 72165 865// 90600 333 10234 20178 6005=
07130,1997-07-27 09:00:00,19,1022,1.1,83,16,500,11.112,,,360,,,,,,,,,,,wg-a,,,,AAXX 27094 07130 12400 73606 10190 20160 30169 40220 52011 60006 878// 90900=
07130,1997-07-27 12:00:00,23,1021.8,-0.1,57,14,35000,11.112,,,320,,,,,,,,,,,wg-a,,,,AAXX 27124 07130 12581 53206 10230 20140 30168 40218 58001 60006 83841 91200=
07130,1997-07-27 15:00:00,25,1021.9,0.1,54,15,40000,18.52,,,360,,,,,,,,,,,wg-a,,,,AAXX 27154 07130 12682 33610 10250 20150 30169 40219 50001 60006 83201 91500=
07130,1997-07-27 18:00:00,23,1021.8,-0.1,61,15,40000,18.52,,,30,18.1,25.3,,,,,,,,,wg-a,,,,AAXX 27184 07130 12682 /0310 10230 20150 30168 40218 56001 60006 81101 91800 333 10253 20181=
07130,1997-07-27 21:00:00,18,1023.4,1.5,77,14,40000,7.408,,,20,,,,,,,,,,,wg-a,,,,AAXX 27214 07130 12/82 10204 10180 20140 30183 40234 53015 60006 80001 92100=
07130,1997-07-28 00:00:00,15,1023.8,0.3,88,13,500,3.704,,,30,,,,,,,,,,,wg-a,,,,AAXX 28004 07130 12/00 00302 10150 20130 30186 40238 51003 60006 80000 90000=
07130,1997-07-28 03:00:00,12,1023.5,-0.3,94,11,12000,7.408,,,320,,,,,,,,,,,wg-a,,,,AAXX 28034 07130 12/62 03204 10120 20110 30183 40235 56003 60006 80000 90300=
07130,1997-07-28 06:00:00,13,1023.9,0.4,100,13,1500,3.704,,,340,11.1,23,,,,,,,,28,wg-a,,,,AAXX 28064 07130 02115 /3402 10130 20130 30187 40239 53004 60006 72841 81601 90600 333 10230 20111 60004=
07130,1997-07-28 09:00:00,20,1023.8,0,64,13,25000,7.408,,,50,,,,,,,,,,,wg-a,,,,AAXX 28094 07130 12/75 20504 10200 20130 30187 40238 50000 60006 80001 90900=
07130,1997-07-28 12:00:00,25,1023,-0.7,47,13,40000,7.408,,,340,,,,,,,,,,,wg-a,,,,AAXX 28124 07130 12782 33404 10250 20130 30180 40230 58007 60006 81101 91200=
07130,1997-07-28 18:00:00,24,1021.1,-0.5,54,14,40000,22.224,,,40,12.9,27.2,,,,,,,,,wg-a,,,,AAXX 28184 07130 12/82 60412 10240 20140 30161 40211 56005 60006 80002 91800 333 10272 20129=
07130,1997-07-28 21:00:00,19,1022,0.8,73,14,500,11.112,,,30,,,,,,,,,,,wg-a,,,,AAXX 28214 07130 12/00 40306 10190 20140 30169 40220 53008 60006 80002 92100=
07130,1997-07-29 00:00:00,17,1022.2,0.2,88,15,20000,3.704,,,310,,,,,,,,,,,wg-a,,,,AAXX 29004 07130 12/70 33102 10170 20150 30171 40222 51002 60006 80002 90000=
07130,1997-07-29 03:00:00,14,1021.4,-0.9,94,13,20000,3.704,,,340,,,,,,,,,,,wg-a,,,,AAXX 29034 07130 12/70 33402 10140 20130 30162 40214 56009 60006 80002 90300=
07130,1997-07-29 06:00:00,15,1021.5,0.1,88,13,18000,0,,,0,13.5,24.1,,,,,,,,,wg-a,,,,AAXX 29064 07130 02868 50000 10150 20130 30163 40215 53001 60006 83031 90600 333 10241 20135 60004=
07130,1997-07-29 09:00:00,23,1020.9,-0.4,53,13,25000,11.112,,,120,,,,,,,,,,,wg-a,,,,AAXX 29094 07130 12/75 41206 10230 20130 30159 40209 58004 60006 80001 90900=
07130,1997-07-29 12:00:00,28,1020,-0.8,42,14,35000,11.112,,,160,,,,,,,,,,,wg-a,,,,AAXX 29124 07130 12681 21606 10280 20140 30151 40200 58008 60006 82101 91200=
07130,1997-07-29 18:00:00,28,1018,-0.9,48,16,40000,14.816,,,230,14.6,30.4,,,,,,,,,wg-a,,,,AAXX 29184 07130 12782 52308 10280 20160 30131 40180 56009 60006 81202 91800 333 10304 20146=
07130,1997-07-29 21:00:00,23,1019.2,1.1,61,15,40000,11.112,,,230,,,,,,,,,,,wg-a,,,,AAXX 29214 07130 12/82 42306 10230 20150 30142 40192 51011 60006 80002 92100=
07130,1997-07-30 00:00:00,17,1019.7,0.4,82,14,25000,7.408,,,330,,,,,,,,,,,wg-a,,,,AAXX 30004 07130 12/75 23304 10170 20140 30146 40197 51004 60006 80002 90000=
07130,1997-07-30 03:00:00,15,1019.2,-0.5,94,14,20000,3.704,,,290,,,,,,,,,,,wg-a,,,,AAXX 30034 07130 12/70 22902 10150 20140 30141 40192 58005 60006 80002 90300=
07130,1997-07-30 06:00:00,15,1019.8,0.6,94,14,8000,3.704,,,210,14.2,27.9,,,,,,,,,wg-a,,,,AAXX 30064 07130 02/58 /2102 10150 20140 30147 40198 53006 60006 86072 90600 333 10279 20142 60004=
07130,1997-07-30 09:00:00,20,1020.7,0.9,78,16,11000,18.52,,,330,,,,,,,,,,,wg-a,,,,AAXX 30094 07130 12/61 /3310 10200 20160 30156 40207 53009 60006 90900=
07130,1997-07-30 12:00:00,22,1021,0.4,60,14,25000,14.816,,,10,,,,,,,,,,,wg-a,,,,AAXX 30124 07130 12575 /0108 10220 20140 30160 40210 50004 60006 85502 91200=
07130,1997-07-30 15:00:00,24,1021,-0,50,13,40000,18.52,,,350,,,,,,,,,,,wg-a,,,,AAXX 30154 07130 12682 33510 10240 20130 30160 40210 54000 60006 81102 91500=
07130,1997-07-30 18:00:00,20,1021.4,0.3,56,11,40000,22.224,,,10,15.3,23.7,,,,,,,,,wg-a,,,,AAXX 30184 07130 12/82 60112 10200 20110 30163 40214 53003 60006 80002 91800 333 10237 20153=
07130,1997-07-30 21:00:00,17,1022.8,1.4,68,11,40000,11.112,,,10,,,,,,,,,,,wg-a,,,,AAXX 30214 07130 12/82 60106 10170 20110 30177 40228 51014 60006 80002 92100=
07130,1997-07-31 00:00:00,13,1023.1,0.2,88,11,40000,3.704,,,280,,,,,,,,,,,wg-a,,,,AAXX 31004 07130 12/82 22802 10130 20110 30179 40231 53002 60006 80001 90000=
07130,1997-07-31 03:00:00,12,1022.2,-0.9,94,11,20000,7.408,,,300,,,,,,,,,,,wg-a,,,,AAXX 31034 07130 12/70 33004 10120 20110 30170 40222 56009 60006 80001 90300=
07130,1997-07-31 06:00:00,12,1022.5,0.3,100,12,15000,3.704,,,250,11,20,,,,,,,,,wg-a,,,,AAXX 31064 07130 02765 62502 10120 20120 30173 40225 51003 60006 81552 90600 333 10200 20110 60004=
07130,1997-07-31 09:00:00,18,1022.9,0.5,68,12,15000,14.816,,,300,,,,,,,,,,,wg-a,,,,AAXX 31094 07130 12565 73008 10180 20120 30178 40229 50005 60006 83802 90900=
07130,1997-07-31 12:00:00,21,1022.2,-0.7,53,11,15000,14.816,,,320,,,,,,,,,,,wg-a,,,,AAXX 31124 07130 12665 73208 10210 20110 30171 40222 58007 60006 85502 91200=
07130,1997-07-31 18:00:00,20,1020.4,-0.6,64,13,25000,22.224,,,20,12.2,23.2,,,,,,,,,wg-a,,,,AAXX 31184 07130 12/75 70212 10200 20130 30153 40204 56006 60006 81032 91800 333 10232 20122=
07130,1997-07-31 21:00:00,17,1021.1,0.7,77,13,20000,11.112,,,10,,,,,,,,,,,wg-a,,,,AAXX 31214 07130 12/70 60106 10170 20130 30160 40211 53007 60006 82042 92100=
07130,1997-08-01 00:00:00,13,1020.7,-0.5,88,11,15000,7.408,,,310,,,,,,,,,,,wg-a,,,,AAXX 01004 07130 12/65 23104 10130 20110 30155 40207 58005 60006 80002 90000=
07130,1997-08-01 03:00:00,12,1019.2,-1.5,94,11,15000,7.408,,,290,,,,,,,,,,,wg-a,,,,AAXX 01034 07130 12/65 02904 10120 20110 30140 40192 56015 60006 80000 90300=
07130,1997-08-01 06:00:00,13,1019.1,-0.1,94,12,20000,11.112,,,290,11.3,19.9,,,,,,,,,wg-a,,,,AAXX 01064 07130 02570 72906 10130 20120 30139 40191 55001 60006 875// 90600 333 10199 20113 60004=
07130,1997-08-01 09:00:00,18,1019.4,0.4,68,12,500,11.112,,,300,,,,,,,,,,,wg-a,,,,AAXX 01094 07130 12500 73006 10180 20120 30143 40194 50004 60006 875// 90900=
07130,1997-08-01 12:00:00,22,1018.7,-0.6,57,13,500,11.112,,,310,,,,,,,,,,,wg-a,,,,AAXX 01124 07130 12600 23106 10220 20130 30137 40187 58006 60006 82101 91200=
07130,1997-08-01 15:00:00,25,1017.6,-1.1,50,14,500,11.112,,,310,,,,,,,,,,,wg-a,,,,AAXX 01154 07130 12600 /3106 10250 20140 30126 40176 56011 60006 81101 91500=
07130,1997-08-01 18:00:00,24,1017.6,-0,57,15,500,22.224,,,30,13.3,26,,,,,,,,,wg-a,,,,AAXX 01184 07130 12600 20312 10240 20150 30126 40176 55000 60006 82502 91800 333 10260 20133=
07130,1997-08-01 21:00:00,19,1019,1.3,78,15,15000,11.112,,,40,,,,,,,,,,,wg-a,,,,AAXX 01214 07130 12665 40406 10190 20150 30139 40190 53013 60006 84502 92100=
07130,1997-08-02 00:00:00,18,1019.3,0.3,88,16,15000,7.408,,,310,,,,,,,,,,,wg-a,,,,AAXX 02004 07130 12665 83104 10180 20160 30142 40193 51003 60006 885// 90000=
07130,1997-08-02 03:00:00,18,1018.5,-0.8,88,16,15000,0,,,0,,,,,,,,,,,wg-a,,,,AAXX 02034 07130 12465 70000 10180 20160 30134 40185 57008 60006 875// 90300=
07130,1997-08-02 06:00:00,18,1018.8,0.3,88,16,9000,3.704,,,300,17.9,23.6,,,,,,,,,wg-a,,,,AAXX 02064 07130 02359 83002 10180 20160 30137 40188 51003 60006 886// 90600 333 10236 20179 60004=
07130,1997-08-02 09:00:00,19,1019.4,0.6,88,17,9000,3.704,,,340,,,,,,,,,,,wg-a,,,,AAXX 02094 07130 12359 83402 10190 20170 30143 40194 53006 60006 876// 90900=
07130,1997-08-02 12:00:00,22,1018.7,-0.6,83,19,14000,7.408,,,30,,,,,,,,,,1,wg-a,,,,AAXX 02124 07130 02464 70304 10220 20190 30137 40187 58006 61000 70162 875// 91200 333 6100=
07130,1997-08-02 15:00:00,24,1018,-0.7,74,19,35000,7.408,,,20,,,,,,,,,,,wg-a,,,,AAXX 02154 07130 12581 80204 10240 20190 30130 40180 57007 60006 8687/ 91500=
07130,1997-08-02 18:00:00,24,1017.5,-0.5,74,19,20000,7.408,,,30,18.2,24.6,,,,,,,,,wg-a,,,,AAXX 02184 07130 12570 70304 10240 20190 30125 40175 58005 60006 875// 91800 333 10246 20182=
07130,1997-08-02 21:00:00,21,1018,0.5,83,18,15000,11.112,,,40,,,,,,,,,,,wg-a,,,,AAXX 02214 07130 12/65 70406 10210 20180 30130 40180 53005 60006 8707/ 92100=
07130,1997-08-03 00:00:00,20,1017.9,-0.1,88,18,15000,7.408,,,360,,,,,,,,,,,wg-a,,,,AAXX 03004 07130 12665 73604 10200 20180 30129 40179 58001 60006 8257/ 90000=
07130,1997-08-03 03:00:00,19,1017,-1,94,18,15000,7.408,,,10,,,,,,,,,,,wg-a,,,,AAXX 03034 07130 12665 70104 10190 20180 30119 40170 56010 60006 82530 90300=
07130,1997-08-03 06:00:00,18,1016.4,-0.6,100,18,4000,7.408,,,20,18,24,,,,,,,,10,wg-a,,,,AAXX 03064 07130 02640 70204 10180 20180 30113 40164 55006 60006 71022 84531 90600 333 10240 20180 61000=
07130,1997-08-03 09:00:00,22,1016.1,-0.2,83,19,8000,3.704,,,110,,,,,,,,,,,wg-a,,,,AAXX 03094 07130 12758 71102 10220 20190 30111 40161 58002 60006 8553/ 90900=
07130,1997-08-03 12:00:00,28,1015,-1,55,18,25000,7.408,,,110,,,,,,,,,,,wg-a,,,,AAXX 03124 07130 12675 51104 10280 20180 30101 40150 56010 60006 82232 91200=
07130,1997-08-03 15:00:00,30,1013.2,-1.8,43,16,500,11.112,,,190,,,,,,,,,,,wg-a,,,,AAXX 03154 07130 12600 /1906 10300 20160 30083 40132 58018 60006 82231 91500=
07130,1997-08-03 18:00:00,29,1012.7,-0.5,48,17,40000,14.816,,,240,18.2,31.4,,,,,,,,,wg-a,,,,AAXX 03184 07130 12782 22408 10290 20170 30078 40127 56005 60006 81131 91800 333 10314 20182=
07130,1997-08-03 21:00:00,23,1013.7,0.9,61,15,40000,3.704,,,300,,,,,,,,,,,wg-a,,,,AAXX 03214 07130 12/82 33002 10230 20150 30087 40137 52009 60006 83031 92100=
07130,1997-08-04 00:00:00,20,1013.6,-0.1,78,16,20000,3.704,,,250,,,,,,,,,,,wg-a,,,,AAXX 04004 07130 12/70 32502 10200 20160 30086 40136 58001 60006 83032 90000=
07130,1997-08-04 03:00:00,18,1013.3,-0.4,88,16,15000,3.704,,,300,,,,,,,,,,,wg-a,,,,AAXX 04034 07130 12/65 63002 10180 20160 30082 40133 56004 60006 85032 90300=
07130,1997-08-04 06:00:00,17,1013.6,0.3,100,17,8000,0,,,0,17.2,29.3,,,,,,,,,wg-a,,,,AAXX 04064 07130 02/58 30000 10170 20170 30085 40136 51003 60006 83042 90600 333 10293 20172 60004=
07130,1997-08-04 09:00:00,22,1014.4,0.9,73,17,15000,7.408,,,290,,,,,,,,,,,wg-a,,,,AAXX 04094 07130 12/65 22904 10220 20170 30094 40144 53009 60006 82082 90900=
07130,1997-08-04 12:00:00,23,1014.8,0.4,69,17,12000,11.112,,,200,,,,,,,,,,17,wg-a,,,,AAXX 04124 07130 12562 72006 10230 20170 30098 40148 51004 60006 71791 8599/ 91200=
07130,1997-08-04 15:00:00,25,1014.3,-0.4,65,18,15000,11.112,,,180,,,,,,,,,,1,wg-a,,,,AAXX 04154 07130 12665 71806 10250 20180 30094 40143 56004 60006 70192 81583 91500=
07130,1997-08-04 18:00:00,24,1014.4,-0,69,18,20000,7.408,,,190,17.5,24.8,,,,,,,,3,wg-a,,,,AAXX 04184 07130 12670 61904 10240 20180 30094 40144 55000 60006 70398 83583 91800 333 10248 20175=
07130,1997-08-04 21:00:00,21,1015.3,0.9,83,18,12000,3.704,,,230,,,,,,,,,,29,wg-a,,,,AAXX 04214 07130 12/62 72302 10210 20180 30103 40153 53009 60006 72991 85082 92100=
07130,1997-08-05 00:00:00,20,1015.9,0.6,88,18,15000,11.112,,,250,,,,,,,,,,1,wg-a,,,,AAXX 05004 07130 12565 82506 10200 20180 30109 40159 51006 60006 70191 875// 90000=
07130,1997-08-05 03:00:00,19,1015.1,-0.8,94,18,15000,3.704,,,250,,,,,,,,,,,wg-a,,,,AAXX 05034 07130 12565 82502 10190 20180 30101 40151 55008 60006 875// 90300=
07130,1997-08-05 06:00:00,18,1015.4,0.2,100,18,4000,11.112,,,340,18.3,23.6,,,,,,,,10,wg-a,,,,AAXX 05064 07130 02240 83406 10180 20180 30103 40154 53002 60006 71022 876// 90600 333 10236 20183 61000=
07130,1997-08-05 09:00:00,20,1014.9,-0.4,88,18,8000,3.704,,,310,,,,,,,,,,1,wg-a,,,,AAXX 05094 07130 02358 73102 10200 20180 30099 40149 58004 61000 70186 871// 90900 333 ////=
07130,1997-08-05 12:00:00,23,1015.5,0.6,73,18,20000,7.408,,,260,,,,,,,,,,15,wg-a,,,,AAXX 05124 07130 02570 72604 10230 20180 30105 40155 51006 61000 71582 8427/ 91200 333 ////=
07130,1997-08-05 15:00:00,21,1014.7,-0.8,88,19,14000,3.704,,,110,,,,3,,,,,,21,wg-a,,,,AAXX 05154 07130 12364 71102 10210 20190 30097 40147 58008 60037 72162 8487/ 91500=
07130,1997-08-05 18:00:00,23,1013.8,-0.9,73,18,18000,3.704,,,40,18.3,23.6,,,,,,,,2,wg-a,,,,AAXX 05184 07130 12568 70402 10230 20180 30088 40138 56009 60006 70262 81172 91800 333 10236 20183=
07130,1997-08-05 21:00:00,21,1014.5,0.7,94,20,3000,3.704,,,140,,,,3,,,,,,10,wg-a,,,,AAXX 05214 07130 12430 81402 10210 20200 30095 40145 50007 60037 71086 8727/ 92100=
07130,1997-08-06 00:00:00,17,1014.2,-0.4,100,17,3000,7.408,,,280,,,,15,,,,,,10,wg-a,,,,AAXX 06004 07130 02130 82804 10170 20170 30091 40142 58004 60196 71086 877// 90000 333 60157=
07130,1997-08-06 03:00:00,17,1013.2,-1,94,16,12000,0,,,0,,,,0,,,,,,2,wg-a,,,,AAXX 06034 07130 12662 70000 10170 20160 30081 40132 58010 60007 70262 875// 90300=
07130,1997-08-06 06:00:00,17,1013.4,0.2,94,16,14000,3.704,,,270,16.4,23,,,,,22,,,1,wg-a,,,,AAXX 06064 07130 02664 /2702 10170 20160 30083 40134 52002 60006 70162 86500 90600 333 10230 20164 60224=
07130,1997-08-06 09:00:00,20,1013.5,0.2,78,16,15000,7.408,,,310,,,,,,,,,,,wg-a,,,,AAXX 06094 07130 12465 23104 10200 20160 30085 40135 50002 60006 82102 90900=
07130,1997-08-06 12:00:00,25,1013.2,-0.2,54,15,20000,7.408,,,280,,,,,,,,,,,wg-a,,,,AAXX 06124 07130 12670 32804 10250 20150 30083 40132 58002 60006 83130 91200=
07130,1997-08-06 15:00:00,27,1012.3,-0.9,45,14,500,3.704,,,130,,,,,,,,,,,wg-a,,,,AAXX 06154 07130 12600 31302 10270 20140 30074 40123 58009 60006 83201 91500=
07130,1997-08-06 18:00:00,26,1012.1,-0.2,51,15,500,7.408,,,250,16.7,27.6,,,,,,,,,wg-a,,,,AAXX 06184 07130 12600 42504 10260 20150 30072 40121 55002 60006 82202 91800 333 10276 20167=
07130,1997-08-06 21:00:00,23,1013.4,1.2,65,16,25000,7.408,,,90,,,,,,,,,,,wg-a,,,,AAXX 06214 07130 12675 50904 10230 20160 30084 40134 51012 60006 81232 92100=
07130,1997-08-07 00:00:00,21,1013.4,0,73,16,25000,3.704,,,40,,,,,,,,,,,wg-a,,,,AAXX 07004 07130 12675 60402 10210 20160 30084 40134 50000 60006 81132 90000=
07130,1997-08-07 03:00:00,19,1013.3,-0.1,94,18,15000,7.408,,,100,,,,,,,,,,,wg-a,,,,AAXX 07034 07130 12665 /1004 10190 20180 30083 40133 56001 60006 82531 90300=
07130,1997-08-07 06:00:00,20,1013.1,-0.2,88,18,10000,3.704,,,100,18.8,26.3,,,,,,,,,wg-a,,,,AAXX 07064 07130 02760 51002 10200 20180 30081 40131 57002 60006 81192 90600 333 10263 20188 60004=
07130,1997-08-07 09:00:00,24,1013.2,0.1,69,18,25000,7.408,,,110,,,,,,,,,,,wg-a,,,,AAXX 07094 07130 12/75 71104 10240 20180 30082 40132 52001 60006 85092 90900=
07130,1997-08-07 12:00:00,24,1013.5,0.3,69,18,500,7.408,,,160,,,,,,,,,,,wg-a,,,,AAXX 07124 07130 12700 81604 10240 20180 30085 40135 52003 60006 81197 91200=
07130,1997-08-07 15:00:00,26,1012.8,-0.6,54,16,500,11.112,,,70,,,,,,,,,,1,wg-a,,,,AAXX 07154 07130 02700 40706 10260 20160 30079 40128 55006 61000 70161 81831 91500 333 ////=
07130,1997-08-07 18:00:00,25,1013.1,0.3,65,18,500,18.52,,,360,19.6,27.1,,,,,,,,3,wg-a,,,,AAXX 07184 07130 12600 /3610 10250 20180 30082 40131 53003 60006 70361 82962 91800 333 10271 20196=
07130,1997-08-07 21:00:00,21,1014.8,1.6,78,17,8000,7.408,,,350,,,,,,,,,,80,wg-a,,,,AAXX 07214 07130 02658 73504 10210 20170 30098 40148 50016 61000 78098 8596/ 92100 333 ////=
07130,1997-08-08 00:00:00,18,1015.4,0.5,94,17,3500,7.408,,,350,,,,,,,,,,10,wg-a,,,,AAXX 08004 07130 12/35 03504 10180 20170 30103 40154 51005 60006 71098 80000 90000=
07130,1997-08-08 06:00:00,17,1017.1,1.5,100,17,200,7.408,,,10,16.2,24.8,,,,,,,,45,wg-a,,,,AAXX 08064 07130 02/02 90104 10170 20170 30120 40171 52015 60006 74541 89/// 90600 333 10248 20162 60004=
07130,1997-08-08 09:00:00,20,1018,1,88,18,6000,11.112,,,350,,,,,,,,,,1,wg-a,,,,AAXX 08094 07130 12356 /3506 10200 20180 30130 40180 51010 60006 70141 82601 90900=
07130,1997-08-08 12:00:00,27,1017.4,-0.5,62,19,15000,7.408,,,20,,,,,,,,,,3,wg-a,,,,AAXX 08124 07130 12565 /0204 10270 20190 30125 40174 58005 60006 70341 81101 91200=
07130,1997-08-08 15:00:00,30,1016.8,-0.6,49,18,25000,11.112,,,50,,,,,,,,,,,wg-a,,,,AAXX 08154 07130 12775 30506 10300 20180 30119 40168 57006 60006 82201 91500=
07130,1997-08-08 18:00:00,27,1016.9,0.1,58,18,20000,18.52,,,40,16.5,30.3,,,,,,,,,wg-a,,,,AAXX 08184 07130 12/70 00410 10270 20180 30120 40169 53001 60006 80000 91800 333 10303 20165=
07130,1997-08-09 00:00:00,20,1019.3,0.9,83,17,15000,7.408,,,360,,,,,,,,,,,wg-a,,,,AAXX 09004 07130 12/65 03604 10200 20170 30142 40193 51009 60006 80000 90000=
07130,1997-08-09 06:00:00,17,1019.5,0.2,100,17,10000,7.408,,,360,16.7,27.1,,,,,,,,,wg-a,,,,AAXX 09064 07130 02/60 13604 10170 20170 30144 40195 53002 60006 80001 90600 333 10271 20167 60004=
07130,1997-08-09 09:00:00,24,1019.9,0.5,65,17,15000,3.704,,,60,,,,,,,,,,,wg-a,,,,AAXX 09094 07130 12/65 20602 10240 20170 30149 40199 51005 60006 80001 90900=
07130,1997-08-09 12:00:00,29,1018.8,-1,45,16,25000,7.408,,,70,,,,,,,,,,,wg-a,,,,AAXX 09124 07130 12775 50704 10290 20160 30139 40188 57010 60006 81101 91200=
07130,1997-08-09 15:00:00,31,1017.9,-0.9,40,16,500,18.52,,,50,,,,,,,,,,,wg-a,,,,AAXX 09154 07130 12700 60510 10310 20160 30130 40179 58009 60006 81102 91500=
07130,1997-08-09 18:00:00,29,1017,-0.9,52,18,500,18.52,,,40,17.4,31.5,,,,,,,,,wg-a,,,,AAXX 09184 07130 12/00 40410 10290 20180 30121 40170 56009 60006 80002 91800 333 10315 20174=
07130,1997-08-09 21:00:00,23,1017.5,0.4,78,19,500,14.816,,,30,,,,,,,,,,,wg-a,,,,AAXX 09214 07130 12/00 30308 10230 20190 30125 40175 53004 60006 80001 92100=
07130,1997-08-10 00:00:00,21,1017.3,-0.2,73,16,500,3.704,,,60,,,,,,,,,,,wg-a,,,,AAXX 10004 07130 12/00 20602 10210 20160 30123 40173 58002 60006 80001 90000=
07130,1997-08-10 03:00:00,18,1015.6,-1.8,83,15,20000,0,,,0,,,,,,,,,,,wg-a,,,,AAXX 10034 07130 12/70 20000 10180 20150 30105 40156 56018 60006 80001 90300=
07130,1997-08-10 06:00:00,18,1015.4,-0.2,88,16,8000,3.704,,,330,17,29.2,,,,,,,,,wg-a,,,,AAXX 10064 07130 02/58 43302 10180 20160 30103 40154 55002 60006 82031 90600 333 10292 20170 60004=
07130,1997-08-10 09:00:00,25,1013.8,-1.4,65,18,15000,7.408,,,50,,,,,,,,,,,wg-a,,,,AAXX 10094 07130 12/65 60504 10250 20180 30089 40138 58014 60006 83082 90900=
07130,1997-08-10 12:00:00,31,1011.6,-2.1,40,16,15000,18.52,,,110,,,,,,,,,,,wg-a,,,,AAXX 10124 07130 12/65 71110 10310 20160 30068 40116 57021 60006 82082 91200=
07130,1997-08-10 15:00:00,23,1011.6,-0.2,89,21,10000,18.52,,,320,,,,4,,,,,,29,wg-a,,,,AAXX 10154 07130 12660 73210 10230 20210 30066 40116 56002 60047 72992 84983 91500=
07130,1997-08-10 18:00:00,23,1010.7,-0.9,83,20,20000,11.112,,,60,17.4,32.4,,7,,,,,,15,wg-a,,,,AAXX 10184 07130 02570 70606 10230 20200 30057 40107 58009 60006 71596 83983 91800 333 10324 20174 60077=
07130,1997-08-10 21:00:00,21,1012.9,2.2,94,20,500,3.704,,,30,,,,24,,,,,,80,wg-a,,,,AAXX 10214 07130 12200 80302 10210 20200 30079 40129 53022 60247 78098 8498/ 92100=
07130,1997-08-11 00:00:00,20,1011.5,-1.4,100,20,10000,3.704,,,100,,,,0,,,,,,1,wg-a,,,,AAXX 11004 07130 02760 81002 10200 20200 30065 40115 58014 60246 70198 8553/ 90000 333 60007=
07130,1997-08-11 03:00:00,19,1011.7,0.2,100,19,1200,7.408,,,290,,,,,,,,,,40,wg-a,,,,AAXX 11034 07130 12712 82904 10190 20190 30067 40117 51002 60006 74022 8553/ 90300=
07130,1997-08-11 06:00:00,20,1013.1,1.4,100,20,2000,7.408,,,230,18.8,22.7,,,,,,,,10,wg-a,,,,AAXX 11064 07130 02620 82304 10200 20200 30081 40131 53014 61000 71062 8457/ 90600 333 10227 20188 6035=
07130,1997-08-11 09:00:00,20,1015,1.9,94,19,6000,3.704,,,330,,,,1,,,,,,61,wg-a,,,,AAXX 11094 07130 12/56 83302 10200 20190 30100 40150 51019 60017 76166 8707/ 90900=
07130,1997-08-11 12:00:00,22,1016.4,1.4,88,20,9000,14.816,,,310,,,,,,,,,,1,wg-a,,,,AAXX 11124 07130 02459 83108 10220 20200 30114 40164 51014 60016 70162 878// 91200 333 61000=
07130,1997-08-11 15:00:00,24,1017.3,0.9,74,19,20000,11.112,,,320,,,,,,,,,,,wg-a,,,,AAXX 11154 07130 12570 /3206 10240 20190 30123 40173 51009 60006 81202 91500=
07130,1997-08-11 18:00:00,26,1017.9,0.7,58,17,12000,0,,,0,19.3,26.1,,,,,,,,,wg-a,,,,AAXX 11184 07130 12/62 20000 10260 20170 30130 40179 51007 60006 80002 91800 333 10261 20193=
07130,1997-08-11 21:00:00,22,1019.6,1.6,78,18,15000,11.112,,,250,,,,,,,,,,,wg-a,,,,AAXX 11214 07130 12/65 02506 10220 20180 30146 40196 53016 60006 80000 92100=
07130,1997-08-12 00:00:00,19,1020.3,0.6,94,18,15000,3.704,,,240,,,,,,,,,,,wg-a,,,,AAXX 12004 07130 12/65 02402 10190 20180 30152 40203 51006 60006 80000 90000=
07130,1997-08-12 03:00:00,17,1021,0.7,100,17,8000,3.704,,,260,,,,,,,,,,,wg-a,,,,AAXX 12034 07130 12/58 /2602 10170 20170 30159 40210 51007 60006 80001 90300=
07130,1997-08-12 06:00:00,17,1021.7,0.7,100,17,200,3.704,,,30,16.3,25.8,,,,,1,,,45,wg-a,,,,AAXX 12064 07130 02/02 90302 10170 20170 30166 40217 51007 60006 74541 89/// 90600 333 10258 20163 60014=
07130,1997-08-12 09:00:00,19,1022.2,0.5,94,18,8000,3.704,,,340,,,,,,,,,,1,wg-a,,,,AAXX 12094 07130 12258 /3402 10190 20180 30171 40222 51005 60006 70141 82601 90900=
07130,1997-08-12 12:00:00,26,1021.7,-0.4,51,15,25000,3.704,,,330,,,,,,,,,,3,wg-a,,,,AAXX 12124 07130 12575 33302 10260 20150 30167 40217 58004 60006 70341 81181 91200=
07130,1997-08-12 15:00:00,29,1020.5,-1.1,43,15,25000,3.704,,,220,,,,,,,,,,,wg-a,,,,AAXX 12154 07130 12675 42202 10290 20150 30156 40205 58011 60006 81102 91500=
07130,1997-08-12 18:00:00,29,1019.6,-0.9,45,16,25000,7.408,,,50,16.5,29.7,,,,,,,,,wg-a,,,,AAXX 12184 07130 12/75 20504 10290 20160 30147 40196 56009 60006 80002 91800 333 10297 20165=
07130,1997-08-12 21:00:00,24,1020.6,0.9,78,20,9000,7.408,,,20,,,,,,,,,,,wg-a,,,,AAXX 12214 07130 12/59 70204 10240 20200 30156 40206 53009 60006 84072 92100=
07130,1997-08-13 00:00:00,21,1023.3,2.7,78,17,10000,29.632,,,290,,,,,,,,,,,wg-a,,,,AAXX 13004 07130 12560 82916 10210 20170 30183 40233 53027 60006 875// 90000=
07130,1997-08-13 03:00:00,18,1021.2,-2.2,94,17,12000,0,,,0,,,,,,,,,,,wg-a,,,,AAXX 13034 07130 12/62 20000 10180 20170 30161 40212 55022 60006 82030 90300=
07130,1997-08-13 06:00:00,17,1023.1,1.9,100,17,10000,3.704,,,220,17.1,29,,,,,,,,,wg-a,,,,AAXX 13064 07130 02760 32202 10170 20170 30180 40231 51019 60006 82530 90600 333 10290 20171 60004=
07130,1997-08-13 09:00:00,22,1023.6,0.6,73,17,11000,11.112,,,240,,,,,,,,,,,wg-a,,,,AAXX 13094 07130 12/61 /2406 10220 20170 30186 40236 53006 60006 90900=
07130,1997-08-13 12:00:00,25,1023.9,0.3,57,16,40000,11.112,,,290,,,,,,,,,,,wg-a,,,,AAXX 13124 07130 12782 32906 10250 20160 30189 40239 53003 60006 81132 91200=
07130,1997-08-13 18:00:00,24,1024.2,0.5,69,18,500,18.52,,,20,17.4,27.8,,,,,,,,,wg-a,,,,AAXX 13184 07130 12700 10210 10240 20180 30192 40242 53005 60006 81131 91800 333 10278 20174=
07130,1997-08-13 21:00:00,19,1025.5,1.2,78,15,500,7.408,,,340,,,,,,,,,,,wg-a,,,,AAXX 13214 07130 12/00 13404 10190 20150 30204 40255 51012 60006 80001 92100=
07130,1997-08-14 00:00:00,17,1025.8,0.3,88,15,500,3.704,,,310,,,,,,,,,,,wg-a,,,,AAXX 14004 07130 12/00 33102 10170 20150 30207 40258 51003 60006 80002 90000=
07130,1997-08-14 06:00:00,16,1025.5,0.1,100,16,600,7.408,,,10,15.1,24.1,,,,,,,,44,wg-a,,,,AAXX 14064 07130 02506 20104 10160 20160 30203 40255 50001 60006 74440 81502 90600 333 10241 20151 60004=
07130,1997-08-14 09:00:00,21,1024.9,-0.5,73,16,500,7.408,,,70,,,,,,,,,,1,wg-a,,,,AAXX 14094 07130 12/00 50704 10210 20160 30198 40249 58005 60006 70141 80002 90900=
07130,1997-08-14 12:00:00,27,1023.2,-1.6,51,16,500,3.704,,,290,,,,,,,,,,3,wg-a,,,,AAXX 14124 07130 12700 12902 10270 20160 30182 40232 58016 60006 70341 81101 91200=
07130,1997-08-14 15:00:00,28,1021.6,-1.5,48,16,500,7.408,,,30,,,,,,,,,,,wg-a,,,,AAXX 14154 07130 12700 20304 10280 20160 30167 40216 58015 60006 82100 91500=
07130,1997-08-14 18:00:00,25,1021.2,-0.5,65,18,40000,18.52,,,30,15.7,28.5,,,,,,,,,wg-a,,,,AAXX 14184 07130 12782 70310 10250 20180 30162 40212 56005 60006 875// 91800 333 10285 20157=
07130,1997-08-14 21:00:00,22,1021.8,0.6,73,17,20000,11.112,,,360,,,,,,,,,,,wg-a,,,,AAXX 14214 07130 12770 43606 10220 20170 30168 40218 53006 60006 84500 92100=
07130,1997-08-15 00:00:00,20,1021.8,-0.1,88,18,10000,3.704,,,10,,,,,,,,,,,wg-a,,,,AAXX 15004 07130 12/60 /0102 10200 20180 30167 40218 58001 60006 90000=
07130,1997-08-15 03:00:00,18,1021.3,-0.5,94,17,20000,7.408,,,360,,,,,,,,,,,wg-a,,,,AAXX 15034 07130 12/70 03604 10180 20170 30162 40213 58005 60006 80000 90300=
07130,1997-08-15 06:00:00,18,1021.3,-0,88,16,15000,11.112,,,30,17.7,24.9,,,,,,,,,wg-a,,,,AAXX 15064 07130 02765 40306 10180 20160 30162 40213 55000 60006 83532 90600 333 10249 20177 60004=
07130,1997-08-15 12:00:00,29,1020.3,-0.6,48,17,20000,14.816,,,80,,,,,,,,,,,wg-a,,,,AAXX 15124 07130 12770 70808 10290 20170 30154 40203 58006 60006 875// 91200=
07130,1997-08-15 15:00:00,30,1018.8,-1.5,46,17,500,14.816,,,90,,,,,,,,,,,wg-a,,,,AAXX 15154 07130 12700 20908 10300 20170 30139 40188 58015 60006 81102 91500=
07130,1997-08-15 18:00:00,28,1018.2,-0.6,51,17,500,14.816,,,150,18,30.3,,,,,,,,,wg-a,,,,AAXX 15184 07130 12700 31508 10280 20170 30133 40182 58006 60006 82202 91800 333 10303 20180=
07130,1997-08-15 21:00:00,24,1019.1,0.8,65,17,20000,0,,,0,,,,,,,,,,,wg-a,,,,AAXX 15214 07130 12770 20000 10240 20170 30141 40191 53008 60006 82500 92100=
07130,1997-08-16 00:00:00,20,1018.9,-0.2,94,19,15000,0,,,0,,,,,,,,,,,wg-a,,,,AAXX 16004 07130 12765 10000 10200 20190 30139 40189 58002 60006 81500 90000=
07130,1997-08-16 03:00:00,20,1017.5,-1.4,88,18,15000,7.408,,,90,,,,,,,,,,,wg-a,,,,AAXX 16034 07130 12665 /0904 10200 20180 30125 40175 56014 60006 81500 90300=
07130,1997-08-16 06:00:00,19,1017.2,-0.4,88,17,8000,0,,,0,18.6,28.1,,,,,,,,,wg-a,,,,AAXX 16064 07130 02858 /0000 10190 20170 30121 40172 55004 60006 81030 90600 333 10281 20186 60004=
07130,1997-08-16 09:00:00,24,1017.8,0.7,69,18,12000,7.408,,,140,,,,,,,,,,,wg-a,,,,AAXX 16094 07130 12662 41404 10240 20180 30128 40178 51007 60006 83231 90900=
07130,1997-08-16 12:00:00,29,1017,-0.7,55,19,15000,3.704,,,180,,,,,,,,,,,wg-a,,,,AAXX 16124 07130 12765 51802 10290 20190 30121 40170 56007 60006 85200 91200=
07130,1997-08-16 15:00:00,30,1015.6,-1.4,49,18,11000,3.704,,,130,,,,,,,,,,,wg-a,,,,AAXX 16154 07130 12/61 /1302 10300 20180 30107 40156 56014 60006 91500=
07130,1997-08-16 18:00:00,20,1016.3,0.6,100,20,15000,3.704,,,170,18.7,31.1,,50,,,,,,15,wg-a,,,,AAXX 16184 07130 02565 51702 10200 20200 30113 40163 51006 60006 71586 83903 91800 333 10311 20187 60507=
07130,1997-08-16 21:00:00,19,1017.8,1.4,100,19,20000,3.704,,,150,,,,,,,,,,,wg-a,,,,AAXX 16214 07130 12570 51502 10190 20190 30127 40178 51014 60006 81902 92100=
07130,1997-08-17 00:00:00,18,1017.8,0,100,18,15000,3.704,,,50,,,,,,,,,,,wg-a,,,,AAXX 17004 07130 12/65 50502 10180 20180 30127 40178 50000 60006 80002 90000=
07130,1997-08-17 06:00:00,18,1018.3,0.3,100,18,1000,11.112,,,350,16.9,20.3,,,,,50,,,10,wg-a,,,,AAXX 17064 07130 02110 83506 10180 20180 30132 40183 53003 60006 71022 886// 90600 333 10203 20169 60504=
07130,1997-08-17 09:00:00,18,1019.2,0.9,100,18,1500,7.408,,,330,,,,,,,,,,10,wg-a,,,,AAXX 17094 07130 12115 83304 10180 20180 30141 40192 51009 60006 71022 886// 90900=
07130,1997-08-17 12:00:00,21,1019,-0.1,88,19,4000,3.704,,,300,,,,,,,,,,10,wg-a,,,,AAXX 17124 07130 12440 83002 10210 20190 30140 40190 58001 60006 71022 876// 91200=
07130,1997-08-17 15:00:00,23,1018.5,-0.5,78,19,12000,3.704,,,10,,,,,,,,,,,wg-a,,,,AAXX 17154 07130 12562 70102 10230 20190 30135 40185 58005 60006 871// 91500=
07130,1997-08-17 18:00:00,23,1018.4,-0.1,78,19,18000,11.112,,,30,17.4,24.1,,,,,,,,,wg-a,,,,AAXX 17184 07130 12/68 10306 10230 20190 30134 40184 55001 60006 81032 91800 333 10241 20174=
07130,1997-08-17 21:00:00,19,1019.6,1.1,94,18,13000,7.408,,,20,,,,,,,,,,,wg-a,,,,AAXX 17214 07130 12/63 10204 10190 20180 30145 40196 51011 60006 80002 92100=
07130,1997-08-18 00:00:00,18,1019.5,-0.1,100,18,2500,7.408,,,350,,,,,,,,,,10,wg-a,,,,AAXX 18004 07130 12125 83504 10180 20180 30144 40195 56001 60006 71011 886// 90000=
07130,1997-08-18 03:00:00,18,1019,-0.5,100,18,2500,7.408,,,350,,,,0,,,,,,10,wg-a,,,,AAXX 18034 07130 12225 83504 10180 20180 30139 40190 58005 60007 71022 886// 90300=
07130,1997-08-18 06:00:00,17,1018.7,-0.3,100,17,1500,7.408,,,20,17.1,23.3,,,,,,,,10,wg-a,,,,AAXX 18064 07130 02215 /0204 10170 20170 30136 40187 55003 60006 71022 85600 90600 333 10233 20171 60004=
07130,1997-08-18 09:00:00,20,1019.1,0.5,88,18,8000,7.408,,,40,,,,,,,,,,,wg-a,,,,AAXX 18094 07130 12258 30404 10200 20180 30141 40191 52005 60006 83100 90900=
07130,1997-08-18 12:00:00,25,1018.5,-0.6,69,19,500,7.408,,,40,,,,,,,,,,,wg-a,,,,AAXX 18124 07130 12500 30404 10250 20190 30135 40185 58006 60006 82101 91200=
07130,1997-08-18 15:00:00,27,1017.6,-0.8,58,18,500,7.408,,,360,,,,,,,,,,,wg-a,,,,AAXX 18154 07130 12600 53604 10270 20180 30127 40176 58008 60006 83102 91500=
07130,1997-08-18 18:00:00,26,1017,-0.6,61,18,10000,11.112,,,340,17,27,,,,,,,,,wg-a,,,,AAXX 18184 07130 12/60 /3406 10260 20180 30121 40170 56006 60006 91800 333 10270 20170=
07130,1997-08-18 21:00:00,22,1018.1,1,88,20,15000,7.408,,,10,,,,,,,,,,,wg-a,,,,AAXX 18214 07130 12/65 30104 10220 20200 30131 40181 52010 60006 80002 92100=
07130,1997-08-19 00:00:00,22,1017.4,-0.9,78,18,1500,3.704,,,330,,,,,,,,,,2,wg-a,,,,AAXX 19004 07130 12715 83302 10220 20180 30124 40174 58009 60006 70292 90000=
07130,1997-08-19 06:00:00,18,1016.8,0.1,100,18,500,0,,,0,18.2,26,,,,,,,,,wg-a,,,,AAXX 19064 07130 02700 70000 10180 20180 30117 40168 53001 60006 875// 90600 333 10260 20182 60004=
07130,1997-08-19 09:00:00,22,1017.2,0.5,88,20,500,3.704,,,100,,,,,,,,,,,wg-a,,,,AAXX 19094 07130 12/00 71002 10220 20200 30122 40172 53005 60006 8703/ 90900=
07130,1997-08-19 12:00:00,27,1016.6,-0.5,66,20,10000,3.704,,,340,,,,,,,,,,,wg-a,,,,AAXX 19124 07130 12660 73402 10270 20200 30117 40166 58005 60006 81132 91200=
07130,1997-08-19 15:00:00,29,1015.6,-1,55,19,15000,7.408,,,310,,,,,,,,,,,wg-a,,,,AAXX 19154 07130 12765 33104 10290 20190 30107 40156 58010 60006 82231 91500=
07130,1997-08-19 18:00:00,22,1016.1,0.4,78,18,4000,22.224,,,120,18.3,29.3,,,,,,,,80,wg-a,,,,AAXX 19184 07130 02640 71212 10220 20180 30111 40161 53004 61000 78098 8698/ 91800 333 10293 20183 6001=
07130,1997-08-19 21:00:00,21,1016.7,0.6,94,20,20000,7.408,,,170,,,,,,,,,,1,wg-a,,,,AAXX 19214 07130 02670 61704 10210 20200 30117 40167 51006 61000 70198 81263 92100 333 ////=
07130,1997-08-20 00:00:00,21,1016.4,-0.3,94,20,15000,3.704,,,70,,,,,,,,,,3,wg-a,,,,AAXX 20004 07130 02/65 70702 10210 20200 30114 40164 57003 61000 70398 8703/ 90000 333 ////=
07130,1997-08-20 03:00:00,20,1016.4,-0,94,19,4000,3.704,,,230,,,,,,,,,,10,wg-a,,,,AAXX 20034 07130 12/40 32302 10200 20190 30114 40164 55000 60006 71011 83030 90300=
07130,1997-08-20 06:00:00,19,1016.7,0.3,100,19,4000,3.704,,,160,19,23,,,,,1,,,10,wg-a,,,,AAXX 20064 07130 02740 /1602 10190 20190 30117 40167 53003 60006 71041 81531 90600 333 10230 20190 60014=
07130,1997-08-20 09:00:00,25,1017.1,0.5,74,20,9000,3.704,,,180,,,,,,,,,,,wg-a,,,,AAXX 20094 07130 12759 31802 10250 20200 30122 40171 51005 60006 8113/ 90900=
07130,1997-08-20 12:00:00,29,1016.6,-0.5,55,19,20000,3.704,,,120,,,,,,,,,,,wg-a,,,,AAXX 20124 07130 12570 21202 10290 20190 30117 40166 58005 60006 82101 91200=
07130,1997-08-20 15:00:00,31,1015.7,-0.8,46,18,500,7.408,,,40,,,,,,,,,,,wg-a,,,,AAXX 20154 07130 12700 40404 10310 20180 30109 40157 58008 60006 84200 91500=
07130,1997-08-20 18:00:00,30,1015.6,-0.2,49,18,25000,3.704,,,250,19.4,31.4,,,,,,,,,wg-a,,,,AAXX 20184 07130 12775 22502 10300 20180 30107 40156 55002 60006 81280 91800 333 10314 20194=
07130,1997-08-20 21:00:00,23,1017.1,1.4,78,19,500,11.112,,,320,,,,,,,,,,,wg-a,,,,AAXX 20214 07130 12/00 23206 10230 20190 30121 40171 52014 60006 82030 92100=
07130,1997-08-21 00:00:00,19,1017.9,0.7,94,18,20000,7.408,,,300,,,,,,,,,,,wg-a,,,,AAXX 21004 07130 12/70 23004 10190 20180 30128 40179 51007 60006 80002 90000=
07130,1997-08-21 03:00:00,18,1018.1,0.2,94,17,1500,3.704,,,290,,,,,,,,,,10,wg-a,,,,AAXX 21034 07130 12/15 02902 10180 20170 30130 40181 53002 60006 71000 80000 90300=
07130,1997-08-21 06:00:00,17,1019.3,1.2,100,17,2000,7.408,,,300,16.9,30.1,,,,,,,,10,wg-a,,,,AAXX 21064 07130 02/20 33004 10170 20170 30142 40193 53012 60006 71000 80001 90600 333 10301 20169 60004=
07130,1997-08-21 07:00:00,17,1019.3,1.2,100,17,2000,7.408,,,300,16.9,30.1,,,,,,,,10,wg-a,,,,AAXX 21074 07130 12/20 33004 10170 20170 30142 40193 53012 60006 71000 80001 90700 333 10301 20169=
07130,1997-08-21 09:00:00,21,1019.7,0.5,88,19,8000,11.112,,,340,,,,,,,,,,,wg-a,,,,AAXX 21094 07130 12458 43406 10210 20190 30147 40197 53005 60006 84100 90900=
07130,1997-08-21 12:00:00,25,1019.6,-0.1,69,19,15000,7.408,,,310,,,,,,,,,,,wg-a,,,,AAXX 21124 07130 12565 /3104 10250 20190 30146 40196 58001 60006 83100 91200=
07130,1997-08-21 18:00:00,27,1018.7,0.1,66,20,20000,7.408,,,360,17.2,28.3,,,,,,,,,wg-a,,,,AAXX 21184 07130 12770 43604 10270 20200 30138 40187 53001 60006 83201 91800 333 10283 20172=
07130,1997-08-22 00:00:00,18,1021.2,0.2,94,17,20000,7.408,,,20,,,,,,,,,,,wg-a,,,,AAXX 22004 07130 12/70 30204 10180 20170 30161 40212 51002 60006 80002 90000=
07130,1997-08-22 06:00:00,16,1021.9,0.9,100,16,8000,7.408,,,320,15.5,27.1,,,,,,,,,wg-a,,,,AAXX 22064 07130 02/58 33204 10160 20160 30168 40219 53009 60006 83030 90600 333 10271 20155 60004=
07130,1997-08-22 09:00:00,22,1022,0.2,78,18,15000,3.704,,,360,,,,,,,,,,,wg-a,,,,AAXX 22094 07130 12/65 33602 10220 20180 30170 40220 51002 60006 83030 90900=
07130,1997-08-22 12:00:00,26,1021,-1,65,19,20000,7.408,,,330,,,,,,,,,,,wg-a,,,,AAXX 22124 07130 12670 23304 10260 20190 30160 40210 56010 60006 82100 91200=
07130,1997-08-22 15:00:00,29,1019.7,-1.2,48,17,25000,7.408,,,300,,,,,,,,,,,wg-a,,,,AAXX 22154 07130 12675 33004 10290 20170 30148 40197 57012 60006 82130 91500=
07130,1997-08-22 18:00:00,27,1018.9,-0.8,66,20,25000,18.52,,,30,16,29.8,,,,,,,,,wg-a,,,,AAXX 22184 07130 12/75 10310 10270 20200 30140 40189 56008 60006 80002 91800 333 10298 20160=
07130,1997-08-22 21:00:00,22,1019.4,0.4,83,19,20000,7.408,,,10,,,,,,,,,,,wg-a,,,,AAXX 22214 07130 12/70 00104 10220 20190 30144 40194 50004 60006 80000 92100=
07130,1997-08-23 00:00:00,20,1018.5,-0.9,94,19,20000,7.408,,,340,,,,,,,,,,,wg-a,,,,AAXX 23004 07130 12/70 03404 10200 20190 30135 40185 58009 60006 80000 90000=
07130,1997-08-23 03:00:00,19,1017.4,-1.2,100,19,800,7.408,,,350,,,,,,,,,,44,wg-a,,,,AAXX 23034 07130 12108 83504 10190 20190 30123 40174 57012 60006 74441 886// 90300=
07130,1997-08-23 06:00:00,19,1017.1,-0.3,100,19,400,3.704,,,40,18.9,27.2,,,,,,,,43,wg-a,,,,AAXX 23064 07130 02/04 90402 10190 20190 30120 40171 56003 60006 74341 89/// 90600 333 10272 20189 60004=
07130,1997-08-23 09:00:00,21,1016.9,-0.1,94,20,7000,7.408,,,270,,,,,,,,,,1,wg-a,,,,AAXX 23094 07130 12257 72704 10210 20200 30119 40169 57001 60006 70142 876// 90900=
07130,1997-08-23 12:00:00,24,1016.5,-0.4,83,21,11000,14.816,,,210,,,,,,,,,,,wg-a,,,,AAXX 23124 07130 12/61 /2108 10240 20210 30115 40165 58004 60006 91200=
07130,1997-08-23 15:00:00,28,1014.9,-1.5,55,18,500,11.112,,,220,,,,,,,,,,,wg-a,,,,AAXX 23154 07130 12500 /2206 10280 20180 30100 40149 58015 60006 81100 91500=
07130,1997-08-23 18:00:00,28,1014.1,-0.8,45,15,40000,7.408,,,240,19,29.1,,,,,,,,,wg-a,,,,AAXX 23184 07130 12/82 12404 10280 20150 30092 40141 56008 60006 80001 91800 333 10291 20190=
07130,1997-08-23 21:00:00,22,1014.6,0.4,69,16,500,7.408,,,240,,,,,,,,,,,wg-a,,,,AAXX 23214 07130 12/00 12404 10220 20160 30096 40146 53004 60006 80001 92100=
07130,1997-08-24 00:00:00,19,1014.6,-0,94,18,2500,11.112,,,350,,,,,,,,,,10,wg-a,,,,AAXX 24004 07130 12125 73506 10190 20180 30096 40146 55000 60006 71011 876// 90000=
07130,1997-08-24 03:00:00,19,1014.1,-0.5,94,18,6000,3.704,,,180,,,,,,,,,,,wg-a,,,,AAXX 24034 07130 12256 /1802 10190 20180 30091 40141 56005 60006 85600 90300=
07130,1997-08-24 06:00:00,19,1014.5,0.3,94,18,2500,3.704,,,250,18.2,28,,,,,,,,10,wg-a,,,,AAXX 24064 07130 02125 82502 10190 20180 30094 40145 53003 60006 71011 886// 90600 333 10280 20182 60004=
07130,1997-08-24 09:00:00,20,1014.4,-0,94,19,4500,3.704,,,310,,,,,,,,,,10,wg-a,,,,AAXX 24094 07130 12245 /3102 10200 20190 30094 40144 54000 60006 71042 876// 90900=
07130,1997-08-24 12:00:00,26,1013.4,-0.9,65,19,20000,3.704,,,230,,,,,,,,,,3,wg-a,,,,AAXX 24124 07130 12570 72302 10260 20190 30085 40134 58009 60006 70342 8324/ 91200=
07130,1997-08-24 15:00:00,27,1012.3,-1.1,58,18,25000,3.704,,,240,,,,,,,,,,,wg-a,,,,AAXX 24154 07130 12675 72402 10270 20180 30074 40123 58011 60006 8284/ 91500=
07130,1997-08-24 18:00:00,26,1010.8,-1.5,65,19,25000,7.408,,,330,18.4,27.8,,,,,,,,,wg-a,,,,AAXX 24184 07130 12675 53304 10260 20190 30059 40108 56015 60006 82540 91800 333 10278 20184=
07130,1997-08-24 21:00:00,22,1011.3,0.4,83,19,15000,14.816,,,360,,,,,,,,,,21,wg-a,,,,AAXX 24214 07130 02665 /3608 10220 20190 30063 40113 50004 61000 72122 8257/ 92100 333 ////=
07130,1997-08-25 00:00:00,20,1010.6,-0.7,94,19,10000,11.112,,,310,,,,,,,,,,,wg-a,,,,AAXX 25004 07130 12260 83106 10200 20190 30056 40106 56007 60006 886// 90000=
07130,1997-08-25 03:00:00,19,1009.2,-1.4,100,19,7000,11.112,,,350,,,,3,,,,,,29,wg-a,,,,AAXX 25034 07130 12257 83506 10190 20190 30042 40092 56014 60037 72922 8/68/ 90300=
07130,1997-08-25 06:00:00,19,1008.8,-0.4,94,18,7000,11.112,,,10,18.6,26.2,,,,,,,,61,wg-a,,,,AAXX 25064 07130 02257 80106 10190 20180 30038 40088 58004 61000 76186 8577/ 90600 333 10262 20186 6007=
07130,1997-08-25 09:00:00,20,1009.7,0.9,94,19,25000,11.112,,,320,,,,,,,,,,3,wg-a,,,,AAXX 25094 07130 02275 83206 10200 20190 30047 40097 53009 61000 70362 878// 90900 333 ////=
07130,1997-08-25 12:00:00,19,1010.9,1.2,88,17,35000,11.112,,,350,,,,1,,,,,,21,wg-a,,,,AAXX 25124 07130 02581 73506 10190 20170 30059 40109 51012 60016 72162 878// 91200 333 60017=
07130,1997-08-25 15:00:00,21,1011.8,0.9,69,15,40000,22.224,,,340,,,,,,,,,,,wg-a,,,,AAXX 25154 07130 12582 73412 10210 20150 30068 40118 52009 60006 83132 91500=
07130,1997-08-25 18:00:00,20,1012.4,0.6,64,13,50000,14.816,,,20,18.1,21.5,,,,,,,,,wg-a,,,,AAXX 25184 07130 12584 /0208 10200 20130 30074 40124 53006 60006 81102 91800 333 10215 20181=
07130,1997-08-25 21:00:00,16,1014,1.5,88,14,40000,7.408,,,350,,,,,,,,,,,wg-a,,,,AAXX 25214 07130 12/82 03504 10160 20140 30089 40140 51015 60006 80000 92100=
07130,1997-08-26 00:00:00,14,1014.2,0.2,94,13,35000,3.704,,,240,,,,,,,,,,,wg-a,,,,AAXX 26004 07130 12/81 02402 10140 20130 30091 40142 52002 60006 80000 90000=
07130,1997-08-26 03:00:00,13,1013.9,-0.4,100,13,12000,3.704,,,270,,,,,,,,,,,wg-a,,,,AAXX 26034 07130 12/62 12702 10130 20130 30087 40139 56004 60006 80001 90300=
07130,1997-08-26 06:00:00,12,1013.7,-0.2,100,12,8000,3.704,,,320,11.7,20.1,,,,,1,,,,wg-a,,,,AAXX 26064 07130 02/58 73202 10120 20120 30085 40137 56002 60006 82032 90600 333 10201 20117 60014=
07130,1997-08-26 09:00:00,17,1013.6,0,88,15,8000,7.408,,,160,,,,,,,,,,,wg-a,,,,AAXX 26094 07130 12/58 71604 10170 20150 30085 40136 50000 60006 83032 90900=
07130,1997-08-26 12:00:00,21,1012.4,-1.1,69,15,20000,3.704,,,170,,,,,,,,,,,wg-a,,,,AAXX 26124 07130 12570 /1702 10210 20150 30074 40124 58011 60006 81102 91200=
07130,1997-08-26 15:00:00,22,1010.3,-2.1,57,13,500,11.112,,,130,,,,,,,,,,,wg-a,,,,AAXX 26154 07130 12600 71306 10220 20130 30053 40103 58021 60006 81272 91500=
07130,1997-08-26 18:00:00,21,1008.3,-2,56,12,40000,14.816,,,180,12.1,22.4,,,,,,,,,wg-a,,,,AAXX 26184 07130 12782 51808 10210 20120 30033 40083 56020 60006 82530 91800 333 10224 20121=
07130,1997-08-26 21:00:00,19,1006.9,-1.4,60,11,500,14.816,,,210,,,,,,,,,,,wg-a,,,,AAXX 26214 07130 12600 72108 10190 20110 30019 40069 58014 60006 8453/ 92100=
07130,1997-08-27 00:00:00,17,1004.9,-2,82,14,15000,14.816,,,170,,,,,,,,,,,wg-a,,,,AAXX 27004 07130 12565 31708 10170 20140 39999 40049 58020 60006 8310/ 90000=
07130,1997-08-27 06:00:00,17,1001.5,-1.6,94,16,8000,22.224,,,190,16.7,21.4,,,,,,,,61,wg-a,,,,AAXX 27064 07130 02358 81912 10170 20160 39965 40015 56016 61000 76161 8687/ 90600 333 10214 20167 6003=
07130,1997-08-27 09:00:00,18,1000.7,-0.8,100,18,4000,18.52,,,180,,,,2,,,,,,21,wg-a,,,,AAXX 27094 07130 12240 71810 10180 20180 39957 40007 56008 60027 72162 8572/ 90900=
07130,1997-08-27 12:00:00,18,1000.8,0.1,94,17,2500,11.112,,,220,,,,6,,,,,,80,wg-a,,,,AAXX 27124 07130 02425 72206 10180 20170 39958 40008 53001 60086 78098 8697/ 91200 333 60067=
07130,1997-08-27 15:00:00,22,1000.6,-0.1,69,16,40000,22.224,,,230,,,,0,,,,,,1,wg-a,,,,AAXX 27154 07130 12582 52312 10220 20160 39957 40006 58001 60007 70198 84830 91500=
07130,1997-08-27 18:00:00,21,1001.1,0.4,56,12,50000,14.816,,,240,16.9,22.6,,,,,,,,1,wg-a,,,,AAXX 27184 07130 12684 32408 10210 20120 39961 40011 53004 60006 70198 82242 91800 333 10226 20169=
07130,1997-08-27 21:00:00,17,1000.4,-0.7,82,14,20000,11.112,,,190,,,,,,,,,,,wg-a,,,,AAXX 27214 07130 12670 /1906 10170 20140 39954 40004 58007 60006 85842 92100=
07130,1997-08-28 00:00:00,16,999.7,-0.7,88,14,20000,14.816,,,200,,,,,,,,,,,wg-a,,,,AAXX 28004 07130 12670 72008 10160 20140 39947 49997 57007 60006 878// 90000=
07130,1997-08-28 06:00:00,13,1000.4,1.2,94,12,11000,14.816,,,220,13.1,21,,,,,9,,,,wg-a,,,,AAXX 28064 07130 02/61 /2208 10130 20120 39953 40004 53012 60006 90600 333 10210 20131 60094=
07130,1997-08-28 09:00:00,17,1001.3,1,77,13,40000,22.224,,,240,,,,0,,,,,,,wg-a,,,,AAXX 28094 07130 12482 42412 10170 20130 39963 40013 53010 60007 82903 90900=
07130,1997-08-28 12:00:00,17,1002.5,1.2,82,14,9000,29.632,,,250,,,,0,,,,,,61,wg-a,,,,AAXX 28124 07130 02559 72516 10170 20140 39975 40025 53012 60016 76186 8437/ 91200 333 60007=
07130,1997-08-28 15:00:00,19,1004.1,1.6,68,13,10000,31.484,,,260,,,,1,,,,,,15,wg-a,,,,AAXX 28154 07130 12560 52617 10190 20130 39991 40041 51016 60017 71586 83202 91500=
07130,1997-08-28 18:00:00,18,1006.6,2.5,64,11,10000,25.928,,,290,13.2,19.9,,,,,,,,25,wg-a,,,,AAXX 28184 07130 02560 62914 10180 20110 30016 40066 52025 61000 72586 85802 91800 333 10199 20132 ////=
07130,1997-08-28 21:00:00,15,1009.8,3.1,82,12,12000,18.52,,,260,,,,,,,,,,,wg-a,,,,AAXX 28214 07130 12562 72610 10150 20120 30047 40098 51031 60006 878// 92100=
07130,1997-08-29 00:00:00,15,1011.7,1.9,82,12,15000,18.52,,,240,,,,,,,,,,,wg-a,,,,AAXX 29004 07130 12765 72410 10150 20120 30066 40117 51019 60006 875// 90000=
07130,1997-08-29 03:00:00,14,1012.7,1,88,12,15000,14.816,,,240,,,,,,,,,,,wg-a,,,,AAXX 29034 07130 12765 42408 10140 20120 30076 40127 53010 60006 84500 90300=
07130,1997-08-29 06:00:00,14,1014,1.3,88,12,25000,18.52,,,250,13.6,17.6,,,,,1,,,,wg-a,,,,AAXX 29064 07130 02675 42510 10140 20120 30089 40140 53013 60006 84500 90600 333 10176 20136 60014=
07130,1997-08-29 09:00:00,18,1015.5,1.5,73,13,35000,22.224,,,260,,,,,,,,,,,wg-a,,,,AAXX 29094 07130 12581 62612 10180 20130 30104 40155 51015 60006 85801 90900=
07130,1997-08-29 12:00:00,21,1015.7,0.3,53,11,40000,25.928,,,260,,,,,,,,,,,wg-a,,,,AAXX 29124 07130 12682 62614 10210 20110 30107 40157 50003 60006 84832 91200=
07130,1997-08-29 15:00:00,20,1015.7,-0,68,14,40000,25.928,,,240,,,,,,,,,,,wg-a,,,,AAXX 29154 07130 12682 72414 10200 20140 30107 40157 55000 60006 83122 91500=
07130,1997-08-29 18:00:00,17,1014.9,-0.9,88,15,15000,14.816,,,200,13.9,22.1,,,,,,,,61,wg-a,,,,AAXX 29184 07130 02665 72008 10170 20150 30098 40149 58009 61000 76162 8352/ 91800 333 10221 20139 6000=
07130,1997-08-30 00:00:00,18,1010.9,-1.9,100,18,4000,18.52,,,220,,,,3,,,,,,61,wg-a,,,,AAXX 30004 07130 02240 82210 10180 20180 30059 40109 56019 60046 76166 8652/ 90000 333 60037=
07130,1997-08-30 03:00:00,19,1011.3,0.4,100,19,500,22.224,,,250,,,,0,,,,,,51,wg-a,,,,AAXX 30034 07130 12300 82512 10190 20190 30063 40113 53004 60007 75165 875// 90300=
07130,1997-08-30 06:00:00,19,1012.2,0.9,100,19,10000,18.52,,,240,16.3,19,,,,,,,,50,wg-a,,,,AAXX 30064 07130 02360 82410 10190 20190 30072 40122 53009 61000 75065 875// 90600 333 10190 20163 6005=
07130,1997-08-30 09:00:00,20,1013.8,1.6,94,19,4000,18.52,,,240,,,,,,,,,,51,wg-a,,,,AAXX 30094 07130 02340 82410 10200 20190 30088 40138 53016 61000 75152 875// 90900 333 ////=
07130,1997-08-30 12:00:00,20,1015.5,1.7,100,20,3500,18.52,,,260,,,,0,,,,,,51,wg-a,,,,AAXX 30124 07130 02335 82610 10200 20200 30105 40155 53017 60006 75165 875// 91200 333 60007=
07130,1997-08-30 15:00:00,22,1016.3,0.8,83,19,500,18.52,,,250,,,,0,,,,,,25,wg-a,,,,AAXX 30154 07130 12400 /2510 10220 20190 30113 40163 51008 60007 72586 86801 91500=
07130,1997-08-30 18:00:00,21,1015.9,-0.4,83,18,40000,14.816,,,220,18.7,22.3,,,,,,,,3,wg-a,,,,AAXX 30184 07130 32482 72208 10210 20180 30109 40159 56004 70386 85802 91800 333 10223 20187=
07130,1997-08-30 21:00:00,19,1016.3,0.4,88,17,500,14.816,,,190,,,,,,,,,,,wg-a,,,,AAXX 30214 07130 12500 71908 10190 20170 30113 40163 53004 60006 86502 92100=
07130,1997-08-31 00:00:00,19,1015.3,-1.1,88,17,20000,7.408,,,160,,,,,,,,,,,wg-a,,,,AAXX 31004 07130 12570 /1604 10190 20170 30102 40153 58011 60006 86500 90000=
07130,1997-08-31 03:00:00,18,1012.9,-2.4,94,17,20000,7.408,,,130,,,,,,,,,,,wg-a,,,,AAXX 31034 07130 12770 61304 10180 20170 30078 40129 58024 60006 86500 90300=
07130,1997-08-31 06:00:00,18,1010.6,-2.2,94,17,15000,14.816,,,130,17.1,20.7,,,,,1,,,,wg-a,,,,AAXX 31064 07130 02765 51308 10180 20170 30056 40106 56022 60006 82530 90600 333 10207 20171 60014=
07130,1997-08-31 09:00:00,21,1010.5,-0.1,83,18,20000,22.224,,,190,,,,,,,,,,,wg-a,,,,AAXX 31094 07130 12470 51912 10210 20180 30055 40105 58001 60006 84840 90900=
07130,1997-08-31 12:00:00,24,1011.5,1,61,16,25000,25.928,,,240,,,,,,,,,,,wg-a,,,,AAXX 31124 07130 12575 42414 10240 20160 30065 40115 53010 60006 84200 91200=
07130,1997-08-31 15:00:00,24,1012.4,0.9,57,15,35000,29.632,,,240,,,,,,,,,,,wg-a,,,,AAXX 31154 07130 12681 42416 10240 20150 30074 40124 53009 60006 83201 91500=
07130,1997-08-31 18:00:00,20,1014,1.6,64,13,35000,18.52,,,240,17.6,24.3,,,,,,,,,wg-a,,,,AAXX 31184 07130 12581 32410 10200 20130 30090 40140 53016 60006 82202 91800 333 10243 20176=
07130,1997-08-31 21:00:00,16,1016.2,2.1,88,14,500,11.112,,,250,,,,,,,,,,,wg-a,,,,AAXX 31214 07130 12/00 22506 10160 20140 30111 40162 51021 60006 80001 92100=
07130,1997-09-01 00:00:00,14,1017.5,1.2,94,13,15000,7.408,,,260,,,,,,,,,,,wg-a,,,,AAXX 01004 07130 12/65 02604 10140 20130 30123 40175 51012 60006 80000 90000=
07130,1997-09-01 03:00:00,13,1017.7,0.2,100,13,15000,0,,,0,,,,0,,,,,,,wg-a,,,,AAXX 01034 07130 12/65 10000 10130 20130 30125 40177 53002 60007 81030 90300=
07130,1997-09-01 06:00:00,13,1018.9,1.2,94,12,9000,0,,,0,12.4,19.8,,,,,,,,,wg-a,,,,AAXX 01064 07130 02659 /0000 10130 20120 30137 40189 51012 60006 82542 90600 333 10198 20124 60004=
07130,1997-09-01 09:00:00,15,1019.1,0.3,88,13,25000,11.112,,,330,,,,,,,,,,,wg-a,,,,AAXX 01094 07130 12/75 73306 10150 20130 30140 40191 51003 60006 81042 90900=
07130,1997-09-01 12:00:00,20,1019.8,0.7,53,10,40000,3.704,,,200,,,,,,,,,,,wg-a,,,,AAXX 01124 07130 12682 72002 10200 20100 30147 40198 53007 60006 85102 91200=
07130,1997-09-01 15:00:00,21,1018.7,-1,49,10,40000,7.408,,,360,,,,,,,,,,,wg-a,,,,AAXX 01154 07130 12682 43604 10210 20100 30137 40187 56010 60006 83102 91500=
07130,1997-09-01 18:00:00,19,1019.5,0.7,56,10,40000,11.112,,,30,12.4,21.2,,,,,,,,,wg-a,,,,AAXX 01184 07130 12682 20306 10190 20100 30144 40195 52007 60006 81102 91800 333 10212 20124=
07130,1997-09-01 21:00:00,15,1021.2,1.6,82,12,500,3.704,,,350,,,,,,,,,,,wg-a,,,,AAXX 01214 07130 12/00 03502 10150 20120 30160 40212 51016 60006 80000 92100=
07130,1997-09-02 00:00:00,13,1021.7,0.5,94,12,20000,3.704,,,190,,,,,,,,,,,wg-a,,,,AAXX 02004 07130 12/70 01902 10130 20120 30165 40217 53005 60006 80000 90000=
07130,1997-09-02 03:00:00,11,1021.8,0.1,100,11,12000,3.704,,,250,,,,,,,,,,,wg-a,,,,AAXX 02034 07130 32/62 02502 10110 20110 30166 40218 50001 80000 90300=
07130,1997-09-02 06:00:00,11,1022,0.2,100,11,9000,0,,,0,10.3,19.4,,,,,,,,28,wg-a,,,,AAXX 02064 07130 02/59 00000 10110 20110 30168 40220 53002 60006 72840 80000 90600 333 10194 20103 60004=
07130,1997-09-02 09:00:00,17,1022.4,0.5,77,13,15000,3.704,,,180,,,,,,,,,,,wg-a,,,,AAXX 02094 07130 12465 /1802 10170 20130 30173 40224 50005 60006 81101 90900=
07130,1997-09-02 12:00:00,22,1022.9,0.5,50,11,20000,14.816,,,250,,,,,,,,,,,wg-a,,,,AAXX 02124 07130 12670 32508 10220 20110 30178 40229 51005 60006 83101 91200=
07130,1997-09-02 18:00:00,21,1021.7,-0.1,53,11,35000,11.112,,,240,10.3,23.4,,,,,,,,,wg-a,,,,AAXX 02184 07130 12781 12406 10210 20110 30166 40217 56001 60006 81101 91800 333 10234 20103=
07130,1997-09-02 21:00:00,16,1022.6,0.8,77,12,500,7.408,,,240,,,,,,,,,,,wg-a,,,,AAXX 02214 07130 12/00 02404 10160 20120 30174 40226 51008 60006 80000 92100=
07130,1997-09-03 00:00:00,14,1022.3,-0.3,88,12,25000,7.408,,,170,,,,,,,,,,,wg-a,,,,AAXX 03004 07130 12/75 01704 10140 20120 30171 40223 58003 60006 80000 90000=
07130,1997-09-03 03:00:00,13,1021,-1.3,94,12,20000,7.408,,,160,,,,,,,,,,,wg-a,,,,AAXX 03034 07130 12/70 01604 10130 20120 30158 40210 57013 60006 80000 90300=
07130,1997-09-03 06:00:00,12,1020.6,-0.4,100,12,13000,7.408,,,170,11.8,20.7,,,,,,,,,wg-a,,,,AAXX 03064 07130 02/63 21704 10120 20120 30154 40206 56004 60006 81032 90600 333 10207 20118 60004=
07130,1997-09-03 09:00:00,18,1020.5,-0,77,14,500,18.52,,,210,,,,0,,,,,,,wg-a,,,,AAXX 03094 07130 12500 /2110 10180 20140 30154 40205 55000 60007 81132 90900=
07130,1997-09-03 12:00:00,23,1019.1,-1.3,57,14,40000,18.52,,,210,,,,,,,,,,,wg-a,,,,AAXX 03124 07130 12582 /2110 10230 20140 30141 40191 58013 60006 81132 91200=
07130,1997-09-03 18:00:00,20,1017.9,-0.6,73,15,40000,14.816,,,200,12.1,24.3,,,,,,,,,wg-a,,,,AAXX 03184 07130 12682 72008 10200 20150 30129 40179 58006 60006 8254/ 91800 333 10243 20121=
07130,1997-09-03 21:00:00,18,1019.2,1.2,88,16,35000,11.112,,,210,,,,,,,,,,,wg-a,,,,AAXX 03214 07130 12681 /2106 10180 20160 30141 40192 51012 60006 8254/ 92100=
07130,1997-09-04 00:00:00,17,1018.9,-0.3,94,16,15000,11.112,,,170,,,,,,,,,,,wg-a,,,,AAXX 04004 07130 12665 /1706 10170 20160 30138 40189 57003 60006 8154/ 90000=
07130,1997-09-04 03:00:00,17,1018.2,-0.7,100,17,10000,7.408,,,200,,,,,,,,,,,wg-a,,,,AAXX 04034 07130 12360 82004 10170 20170 30131 40182 56007 60006 885// 90300=
07130,1997-09-04 06:00:00,18,1018.4,0.2,94,17,3000,11.112,,,220,17,20.4,,,,,,,,60,wg-a,,,,AAXX 04064 07130 02230 82206 10180 20170 30133 40184 53002 60004 76062 885// 90600 333 10204 20170 61000=
07130,1997-09-04 09:00:00,17,1019.6,1.2,100,17,8000,11.112,,,20,,,,1,,,,,,20,wg-a,,,,AAXX 04094 07130 12258 80206 10170 20170 30145 40196 53012 60017 72065 8552/ 90900=
07130,1997-09-04 12:00:00,17,1020.3,0.7,100,17,6000,18.52,,,350,,,,0,,,,,,61,wg-a,,,,AAXX 04124 07130 02256 83510 10170 20170 30152 40203 51007 60016 76165 875// 91200 333 60007=
07130,1997-09-04 15:00:00,18,1020.3,0,83,15,35000,11.112,,,40,,,,0,,,,,,1,wg-a,,,,AAXX 04154 07130 12481 70406 10180 20150 30152 40203 50000 60007 70162 84502 91500=
07130,1997-09-05 06:00:00,12,1021,-0.3,94,11,500,3.704,,,10,11.6,18.6,,,,,1,,,,wg-a,,,,AAXX 05064 07130 02/00 70102 10120 20110 30158 40210 55003 60006 8705/ 90600 333 10186 20116 60014=
07130,1997-09-05 12:00:00,19,1021.5,0.1,64,12,500,11.112,,,360,,,,,,,,,,,wg-a,,,,AAXX 05124 07130 12500 73606 10190 20120 30164 40215 53001 60006 8483/ 91200=
07130,1997-09-05 15:00:00,18,1021.8,0.3,68,12,500,14.816,,,350,,,,,,,,,,,wg-a,,,,AAXX 05154 07130 12600 73508 10180 20120 30167 40218 51003 60006 8557/ 91500=
07130,1997-09-05 18:00:00,18,1022.2,0.4,68,12,500,7.408,,,10,12.3,19,,,,,,,,,wg-a,,,,AAXX 05184 07130 12600 40104 10180 20120 30171 40222 53004 60006 81830 91800 333 10190 20123=
07130,1997-09-05 21:00:00,15,1023.7,1.4,82,12,25000,7.408,,,10,,,,,,,,,,,wg-a,,,,AAXX 05214 07130 12675 /0104 10150 20120 30185 40237 51014 60006 81500 92100=
07130,1997-09-06 00:00:00,12,1024.7,1,94,11,20000,7.408,,,310,,,,,,,,,,,wg-a,,,,AAXX 06004 07130 12/70 03104 10120 20110 30195 40247 51010 60006 80000 90000=
07130,1997-09-06 03:00:00,10,1025,0.2,100,10,15000,7.408,,,310,,,,,,,,,,11,wg-a,,,,AAXX 06034 07130 12/65 03104 10100 20100 30197 40250 51002 60006 71100 80000 90300=
07130,1997-09-06 06:00:00,9,1025.7,0.7,100,9,10000,3.704,,,220,8.8,17.8,,,,,,,,12,wg-a,,,,AAXX 06064 07130 02560 /2202 10090 20090 30204 40257 53007 60006 71240 81201 90600 333 10178 20088 60004=
07130,1997-09-06 09:00:00,17,1026.7,1.1,77,13,25000,11.112,,,330,,,,0,,,,,,,wg-a,,,,AAXX 06094 07130 12575 33306 10170 20130 30215 40267 51011 60007 83100 90900=
07130,1997-09-06 12:00:00,19,1026.8,0.2,56,10,50000,14.816,,,330,,,,,,,,,,,wg-a,,,,AAXX 06124 07130 12684 43308 10190 20100 30217 40268 51002 60006 84200 91200=
07130,1997-09-06 15:00:00,21,1026.5,-0.3,49,10,50000,14.816,,,350,,,,,,,,,,,wg-a,,,,AAXX 06154 07130 12684 43508 10210 20100 30214 40265 57003 60006 84200 91500=
07130,1997-09-06 18:00:00,18,1026.6,0.1,59,10,50000,14.816,,,10,9.4,21.2,,,,,,,,,wg-a,,,,AAXX 06184 07130 12684 /0108 10180 20100 30215 40266 53001 60006 81101 91800 333 10212 20094=
07130,1997-09-06 21:00:00,14,1027.8,1.1,88,12,45000,3.704,,,360,,,,,,,,,,,wg-a,,,,AAXX 06214 07130 12/83 13602 10140 20120 30226 40278 51011 60006 80001 92100=
07130,1997-09-07 00:00:00,11,1027.9,0,100,11,35000,3.704,,,270,,,,,,,,,,,wg-a,,,,AAXX 07004 07130 12/81 02702 10110 20110 30226 40279 50000 60006 80000 90000=
07130,1997-09-07 03:00:00,10,1027.7,-0.2,100,10,20000,3.704,,,300,,,,,,,,,,,wg-a,,,,AAXX 07034 07130 12/70 03002 10100 20100 30224 40277 57002 60006 80000 90300=
07130,1997-09-07 06:00:00,10,1028.2,0.5,100,10,10000,0,,,0,9.5,18.1,,,,,,,,,wg-a,,,,AAXX 07064 07130 02760 70000 10100 20100 30229 40282 53005 60006 815/1 90600 333 10181 20095 60004=
07130,1997-09-07 09:00:00,16,1029.2,1.1,82,13,25000,11.112,,,340,,,,,,,,,,,wg-a,,,,AAXX 07094 07130 12575 73406 10160 20130 30240 40292 53011 60006 84541 90900=
07130,1997-09-07 12:00:00,19,1028.8,-0.3,73,14,25000,3.704,,,340,,,,,,,,,,,wg-a,,,,AAXX 07124 07130 12575 73402 10190 20140 30237 40288 57003 60006 878// 91200=
07130,1997-09-07 18:00:00,18,1028.6,0.1,77,14,25000,14.816,,,340,10,20.6,,,,,,,,,wg-a,,,,AAXX 07184 07130 12575 /3408 10180 20140 30235 40286 53001 60006 81500 91800 333 10206 20100=
07130,1997-09-07 21:00:00,14,1029.7,1,94,13,20000,3.704,,,290,,,,,,,,,,,wg-a,,,,AAXX 07214 07130 12/70 02902 10140 20130 30245 40297 51010 60006 80000 92100=
07130,1997-09-08 00:00:00,12,1029.9,0.1,100,12,20000,7.408,,,340,,,,,,,,,,,wg-a,,,,AAXX 08004 07130 12/70 03404 10120 20120 30246 40299 51001 60006 80000 90000=
07130,1997-09-08 03:00:00,11,1029.3,-0.6,100,11,1500,3.704,,,290,,,,,,,,,,40,wg-a,,,,AAXX 08034 07130 12815 /2902 10110 20110 30240 40293 58006 60006 74000 81500 90300=
07130,1997-09-08 06:00:00,12,1029.5,0.2,100,12,4500,0,,,0,10.6,18.1,,,,,,,,10,wg-a,,,,AAXX 08064 07130 02545 70000 10120 20120 30242 40295 53002 60006 71041 875// 90600 333 10181 20106 60004=
07130,1997-09-08 09:00:00,15,1029.6,0.2,94,14,6000,3.704,,,290,,,,,,,,,,,wg-a,,,,AAXX 08094 07130 12556 72902 10150 20140 30244 40296 51002 60006 875// 90900=
07130,1997-09-08 12:00:00,19,1028.8,-0.7,73,14,15000,11.112,,,10,,,,,,,,,,,wg-a,,,,AAXX 08124 07130 12565 80106 10190 20140 30237 40288 57007 60006 885// 91200=
07130,1997-09-08 15:00:00,21,1027.7,-1.1,64,14,25000,18.52,,,20,,,,,,,,,,,wg-a,,,,AAXX 08154 07130 12575 /0210 10210 20140 30226 40277 58011 60006 81500 91500=
07130,1997-09-08 18:00:00,19,1027.1,-0.6,68,13,25000,18.52,,,10,11.5,20.8,,,,,,,,,wg-a,,,,AAXX 08184 07130 12/75 10110 10190 20130 30220 40271 56006 60006 80001 91800 333 10208 20115=
07130,1997-09-08 21:00:00,13,1027.6,0.4,94,12,25000,11.112,,,10,,,,,,,,,,,wg-a,,,,AAXX 08214 07130 12/75 00106 10130 20120 30224 40276 51004 60006 80000 92100=
07130,1997-09-09 03:00:00,9,1026.2,-0.8,100,9,3000,3.704,,,320,,,,,,,,,,40,wg-a,,,,AAXX 09034 07130 12/30 03202 10090 20090 30209 40262 57008 60006 74000 80000 90300=
07130,1997-09-09 06:00:00,10,1026.1,-0.1,100,10,6000,0,,,0,9.1,18.4,,,,,,,,1,wg-a,,,,AAXX 09064 07130 02556 70000 10100 20100 30208 40261 55001 60006 70141 875// 90600 333 10184 20091 60004=
07130,1997-09-09 09:00:00,14,1026.4,0.4,94,13,8000,3.704,,,330,,,,,,,,,,,wg-a,,,,AAXX 09094 07130 12458 83302 10140 20130 30212 40264 53004 60006 885// 90900=
07130,1997-09-09 12:00:00,18,1025.6,-0.7,73,13,25000,14.816,,,40,,,,,,,,,,,wg-a,,,,AAXX 09124 07130 12575 80408 10180 20130 30205 40256 58007 60006 885// 91200=
07130,1997-09-09 15:00:00,21,1024.3,-1.3,60,13,25000,22.224,,,40,,,,,,,,,,,wg-a,,,,AAXX 09154 07130 12575 20412 10210 20130 30192 40243 58013 60006 82500 91500=
07130,1997-09-09 18:00:00,18,1023.8,-0.5,77,14,15000,14.816,,,20,10.1,21,,,,,,,,,wg-a,,,,AAXX 09184 07130 12665 40208 10180 20140 30187 40238 56005 60006 83501 91800 333 10210 20101=
07130,1997-09-10 00:00:00,13,1024.8,-0.3,88,11,10000,7.408,,,70,,,,,,,,,,,wg-a,,,,AAXX 10004 07130 12/60 00704 10130 20110 30196 40248 58003 60006 80000 90000=
07130,1997-09-10 03:00:00,10,1024.2,-0.7,93,9,12000,0,,,0,,,,,,,,,,,wg-a,,,,AAXX 10034 07130 32/62 00000 10100 20090 30189 40242 57007 80000 90300=
07130,1997-09-10 06:00:00,10,1023.9,-0.3,93,9,12000,7.408,,,80,9.4,18.3,,,,,,,,,wg-a,,,,AAXX 10064 07130 02/62 10804 10100 20090 30186 40239 55003 60006 80001 90600 333 10183 20094 60004=
07130,1997-09-10 09:00:00,16,1023.7,-0.1,68,10,500,18.52,,,90,,,,,,,,,,,wg-a,,,,AAXX 10094 07130 12/00 10910 10160 20100 30185 40237 58001 60006 80001 90900=
07130,1997-09-10 12:00:00,21,1021.8,-1.8,46,9,500,18.52,,,100,,,,,,,,,,,wg-a,,,,AAXX 10124 07130 12/00 11010 10210 20090 30167 40218 56018 60006 80001 91200=
07130,1997-09-10 15:00:00,24,1019.7,-2,38,9,40000,14.816,,,90,,,,,,,,,,,wg-a,,,,AAXX 10154 07130 12/82 00908 10240 20090 30147 40197 56020 60006 80000 91500=
07130,1997-09-10 18:00:00,21,1017.9,-1.8,46,9,40000,11.112,,,90,10,23.8,,,,,,,,,wg-a,,,,AAXX 10184 07130 12/82 00906 10210 20090 30129 40179 56018 60006 80000 91800 333 10238 20100=
07130,1997-09-11 00:00:00,13,1016.9,-1.1,72,8,20000,7.408,,,140,,,,,,,,,,,wg-a,,,,AAXX 11004 07130 12/70 01404 10130 20080 30117 40169 56011 60006 80000 90000=
07130,1997-09-11 03:00:00,11,1014.7,-2.2,82,8,20000,7.408,,,100,,,,,,,,,,,wg-a,,,,AAXX 11034 07130 12/70 01004 10110 20080 30095 40147 58022 60006 80000 90300=
07130,1997-09-11 06:00:00,10,1013.3,-1.4,87,8,15000,7.408,,,120,10.4,21,,,,,,,,,wg-a,,,,AAXX 11064 07130 02/65 41204 10100 20080 30081 40133 56014 60006 80001 90600 333 10210 20104 60004=
07130,1997-09-11 09:00:00,17,1012.3,-0.9,72,12,15000,11.112,,,210,,,,,,,,,,,wg-a,,,,AAXX 11094 07130 12/65 42106 10170 20120 30072 40123 57009 60006 81041 90900=
07130,1997-09-11 12:00:00,22,1011.3,-0.9,65,15,13000,14.816,,,270,,,,,,,,,,,wg-a,,,,AAXX 11124 07130 12563 42708 10220 20150 30063 40113 58009 60006 83202 91200=
07130,1997-09-11 15:00:00,24,1010.1,-1.1,61,16,20000,18.52,,,230,,,,,,,,,,,wg-a,,,,AAXX 11154 07130 12670 32310 10240 20160 30052 40101 58011 60006 83200 91500=
07130,1997-09-11 18:00:00,20,1010.2,-0,68,14,15000,14.816,,,240,10.4,24.5,,,,,,,,,wg-a,,,,AAXX 11184 07130 12665 /2408 10200 20140 30052 40102 55000 60006 81542 91800 333 10245 20104=
07130,1997-09-11 21:00:00,17,1011,0.7,88,15,12000,7.408,,,250,,,,,,,,,,,wg-a,,,,AAXX 11214 07130 12/62 72504 10170 20150 30059 40110 53007 60006 8703/ 92100=
07130,1997-09-12 00:00:00,17,1011.5,0.5,88,15,9000,3.704,,,340,,,,,,,,,,,wg-a,,,,AAXX 12004 07130 12459 83402 10170 20150 30064 40115 53005 60006 8657/ 90000=
07130,1997-09-12 03:00:00,15,1011.4,-0.1,82,12,15000,7.408,,,260,,,,,,,,,,,wg-a,,,,AAXX 12034 07130 12465 82604 10150 20120 30063 40114 58001 60006 8457/ 90300=
07130,1997-09-12 06:00:00,15,1011.3,-0.1,88,13,15000,11.112,,,210,14.5,20.2,,,,,,,,,wg-a,,,,AAXX 12064 07130 02/65 72106 10150 20130 30062 40113 57001 60006 87020 90600 333 10202 20145 60004=
07130,1997-09-12 09:00:00,16,1011.3,0,88,14,15000,11.112,,,210,,,,,,,,,,,wg-a,,,,AAXX 12094 07130 12665 72106 10160 20140 30062 40113 50000 60006 8657/ 90900=
07130,1997-09-12 12:00:00,18,1010.7,-0.5,88,16,20000,18.52,,,220,,,,0,,,,,,1,wg-a,,,,AAXX 12124 07130 02470 72210 10180 20160 30057 40107 58005 60006 70165 8423/ 91200 333 60007=
07130,1997-09-12 15:00:00,18,1009.8,-0.9,94,17,20000,22.224,,,280,,,,0,,,,,,25,wg-a,,,,AAXX 12154 07130 12670 72812 10180 20170 30048 40098 55009 60007 72522 878// 91500=
07130,1997-09-12 18:00:00,17,1011,1.1,82,14,25000,14.816,,,330,14.5,22,,,,,,,,,wg-a,,,,AAXX 12184 07130 12475 73308 10170 20140 30059 40110 53011 60006 8683/ 91800 333 10220 20145=
07130,1997-09-12 21:00:00,12,1013.6,2.5,94,11,25000,11.112,,,290,,,,,,,,,,,wg-a,,,,AAXX 12214 07130 12/75 02906 10120 20110 30084 40136 51025 60006 80000 92100=
07130,1997-09-13 00:00:00,10,1014.8,1.2,93,9,20000,11.112,,,270,,,,,,,,,,,wg-a,,,,AAXX 13004 07130 12/70 02706 10100 20090 30096 40148 51012 60006 80000 90000=
07130,1997-09-13 03:00:00,9,1015.7,0.8,87,7,15000,7.408,,,280,,,,,,,,,,,wg-a,,,,AAXX 13034 07130 12/65 02804 10090 20070 30104 40157 53008 60006 80000 90300=
07130,1997-09-13 06:00:00,9,1017.2,1.5,93,8,15000,11.112,,,250,7.7,17,,,,,1,,,,wg-a,,,,AAXX 13064 07130 02565 /2506 10090 20080 30119 40172 53015 60006 81800 90600 333 10170 20077 60014=
07130,1997-09-13 09:00:00,14,1019.5,2.4,77,10,40000,18.52,,,320,,,,,,,,,,,wg-a,,,,AAXX 13094 07130 12582 23210 10140 20100 30143 40195 53024 60006 82800 90900=
07130,1997-09-13 12:00:00,17,1021.2,1.8,59,9,40000,29.632,,,360,,,,,,,,,,,wg-a,,,,AAXX 13124 07130 12682 43616 10170 20090 30161 40212 51018 60006 84200 91200=
07130,1997-09-13 15:00:00,18,1021.7,0.5,52,8,40000,18.52,,,10,,,,,,,,,,,wg-a,,,,AAXX 13154 07130 12682 40110 10180 20080 30166 40217 51005 60006 84200 91500=
07130,1997-09-13 18:00:00,15,1023.4,1.6,63,8,40000,14.816,,,20,8.5,18.4,,,,,,,,,wg-a,,,,AAXX 13184 07130 12682 /0208 10150 20080 30182 40234 53016 60006 81200 91800 333 10184 20085=
07130,1997-09-14 00:00:00,8,1025.7,0.2,93,7,25000,7.408,,,290,,,,,,,,,,,wg-a,,,,AAXX 14004 07130 12/75 02904 10080 20070 30204 40257 51002 60006 80000 90000=
07130,1997-09-14 03:00:00,8,1025.8,0.1,93,7,15000,3.704,,,230,,,,,,,,,,,wg-a,,,,AAXX 14034 07130 12/65 62302 10080 20070 30205 40258 51001 60006 80002 90300=
07130,1997-09-14 06:00:00,8,1026.5,0.7,93,7,17000,0,,,0,7.4,15.1,,,,,,,,,wg-a,,,,AAXX 14064 07130 02/67 70000 10080 20070 30212 40265 53007 60006 81031 90600 333 10151 20074 60004=
07130,1997-09-14 12:00:00,18,1027.3,-0.2,49,7,500,7.408,,,80,,,,,,,,,,,wg-a,,,,AAXX 14124 07130 12600 60804 10180 20070 30222 40273 58002 60006 84101 91200=
07130,1997-09-14 18:00:00,17,1025.7,-0.4,55,8,35000,7.408,,,90,7.5,19.9,,,,,,,,,wg-a,,,,AAXX 14184 07130 12/81 00904 10170 20080 30206 40257 56004 60006 80000 91800 333 10199 20075=
07130,1997-09-15 00:00:00,9,1026.2,-0.7,100,9,20000,0,,,0,,,,,,,,,,,wg-a,,,,AAXX 15004 07130 12/70 00000 10090 20090 30209 40262 58007 60006 80000 90000=
07130,1997-09-15 03:00:00,7,1025.7,-0.5,100,7,15000,0,,,0,,,,,,,,,,11,wg-a,,,,AAXX 15034 07130 12/65 00000 10070 20070 30204 40257 56005 60006 71100 80000 90300=
07130,1997-09-15 06:00:00,7,1025.6,-0.1,93,6,2500,3.704,,,140,5.9,17.3,,,,,,,,,wg-a,,,,AAXX 15064 07130 02/25 /1402 10070 20060 30203 40256 55001 60006 90600 333 10173 20059 60004=
07130,1997-09-15 09:00:00,15,1026,0.5,63,8,25000,7.408,,,160,,,,,,,,,,,wg-a,,,,AAXX 15094 07130 12/75 41604 10150 20080 30208 40260 51005 60006 81034 90900=
07130,1997-09-15 12:00:00,20,1024.9,-1,40,6,500,11.112,,,110,,,,,,,,,,,wg-a,,,,AAXX 15124 07130 12/00 41106 10200 20060 30198 40249 58010 60006 81032 91200=
07130,1997-09-15 18:00:00,19,1022.8,-0.7,49,8,500,7.408,,,60,6.3,21.9,,,,,,,,,wg-a,,,,AAXX 15184 07130 12/00 70604 10190 20080 30177 40228 57007 60006 80002 91800 333 10219 20063=
07130,1997-09-15 21:00:00,14,1023.7,0.8,72,9,500,11.112,,,40,,,,,,,,,,,wg-a,,,,AAXX 15214 07130 12/00 70406 10140 20090 30185 40237 51008 60006 80002 92100=
07130,1997-09-16 00:00:00,10,1023.6,-0.2,87,8,500,3.704,,,310,,,,,,,,,,,wg-a,,,,AAXX 16004 07130 12/00 43102 10100 20080 30183 40236 58002 60006 80002 90000=
07130,1997-09-16 03:00:00,8,1022.1,-1.5,93,7,15000,0,,,0,,,,,,,,,,,wg-a,,,,AAXX 16034 07130 12/65 10000 10080 20070 30168 40221 58015 60006 80001 90300=
07130,1997-09-16 06:00:00,6,1021.6,-0.5,100,6,2000,0,,,0,6.4,18.8,,,,,,,,40,wg-a,,,,AAXX 16064 07130 02/20 20000 10060 20060 30163 40216 56005 60006 74040 80002 90600 333 10188 20064 60004=
07130,1997-09-16 09:00:00,16,1021.4,-0.1,68,10,15000,3.704,,,170,,,,,,,,,,,wg-a,,,,AAXX 16094 07130 12/65 51702 10160 20100 30162 40214 58001 60006 80001 90900=
07130,1997-09-16 15:00:00,24,1017.9,-1.4,41,10,500,14.816,,,240,,,,,,,,,,,wg-a,,,,AAXX 16154 07130 12/00 72408 10240 20100 30129 40179 56014 60006 80001 91500=
07130,1997-09-16 18:00:00,22,1018,0.1,41,8,500,7.408,,,230,6.2,24.7,,,,,,,,,wg-a,,,,AAXX 16184 07130 12/00 52304 10220 20080 30130 40180 53001 60006 80002 91800 333 10247 20062=
07130,1997-09-16 21:00:00,15,1019.2,1,72,10,500,0,,,0,,,,,,,,,,,wg-a,,,,AAXX 16214 07130 12/00 50000 10150 20100 30140 40192 52010 60006 80002 92100=
07130,1997-09-17 00:00:00,12,1019.3,0.1,82,9,500,3.704,,,340,,,,,,,,,,,wg-a,,,,AAXX 17004 07130 12/00 63402 10120 20090 30141 40193 52001 60006 80002 90000=
07130,1997-09-17 06:00:00,8,1020.3,0.7,100,8,3000,3.704,,,320,8.1,21.5,,,,,,,,12,wg-a,,,,AAXX 17064 07130 02/30 /3202 10080 20080 30150 40203 53007 60006 71242 80002 90600 333 10215 20081 60004=
07130,1997-09-17 12:00:00,25,1020.9,-0.2,47,13,15000,7.408,,,160,,,,,,,,,,,wg-a,,,,AAXX 17124 07130 12/65 11604 10250 20130 30159 40209 58002 60006 80001 91200=
07130,1997-09-17 15:00:00,27,1019.8,-1,48,15,15000,11.112,,,190,,,,,,,,,,,wg-a,,,,AAXX 17154 07130 12/65 11906 10270 20150 30149 40198 58010 60006 80001 91500=
07130,1997-09-17 18:00:00,26,1020.3,0.4,58,17,10000,3.704,,,250,8.1,27.7,,,,,,,,,wg-a,,,,AAXX 17184 07130 12/60 12502 10260 20170 30153 40203 53004 60006 80001 91800 333 10277 20081=
07130,1997-09-18 00:00:00,17,1021.5,0.1,94,16,7000,0,,,0,,,,,,,,,,,wg-a,,,,AAXX 18004 07130 12/57 00000 10170 20160 30164 40215 53001 60006 80000 90000=
07130,1997-09-18 03:00:00,15,1021.3,-0.3,100,15,1500,3.704,,,80,,,,,,,,,,40,wg-a,,,,AAXX 18034 07130 12/15 00802 10150 20150 30161 40213 58003 60006 74000 80000 90300=
07130,1997-09-18 06:00:00,13,1022,0.7,100,13,200,0,,,0,12.9,25.4,,,,,,,,41,wg-a,,,,AAXX 18064 07130 02/02 /0000 10130 20130 30168 40220 53007 60006 74140 81080 90600 333 10254 20129 60004=
07130,1997-09-18 09:00:00,21,1022.8,0.9,69,15,10000,11.112,,,200,,,,,,,,,,3,wg-a,,,,AAXX 18094 07130 12660 /2006 10210 20150 30177 40228 51009 60006 70340 81100 90900=
07130,1997-09-18 12:00:00,28,1022.1,-0.5,42,14,500,14.816,,,210,,,,,,,,,,1,wg-a,,,,AAXX 18124 07130 12700 12108 10280 20140 30172 40221 58005 60006 70140 81100 91200=
07130,1997-09-18 15:00:00,30,1021.1,-1,35,13,40000,14.816,,,200,,,,,,,,,,,wg-a,,,,AAXX 18154 07130 12/82 12008 10300 20130 30162 40211 56010 60006 81040 91500=
07130,1997-09-18 18:00:00,27,1020.9,-0.3,45,14,40000,3.704,,,190,12.9,30.2,,,,,,,,,wg-a,,,,AAXX 18184 07130 12/82 11902 10270 20140 30159 40209 55003 60006 81080 91800 333 10302 20129=
07130,1997-09-19 00:00:00,16,1021.9,-0.2,100,16,20000,3.704,,,330,,,,,,,,,,,wg-a,,,,AAXX 19004 07130 12/70 03302 10160 20160 30168 40219 57002 60006 80000 90000=
07130,1997-09-19 03:00:00,14,1021.9,-0.1,94,13,12000,3.704,,,290,,,,,,,,,,,wg-a,,,,AAXX 19034 07130 12/62 02902 10140 20130 30167 40219 58001 60006 80000 90300=
07130,1997-09-19 06:00:00,13,1022.2,0.3,100,13,500,3.704,,,170,12.6,26.9,,,,,,,,11,wg-a,,,,AAXX 19064 07130 02/00 /1702 10130 20130 30170 40222 53003 60006 71100 81030 90600 333 10269 20126 60004=
07130,1997-09-19 09:00:00,22,1022.4,0.4,60,14,12000,7.408,,,140,,,,,,,,,,,wg-a,,,,AAXX 19094 07130 12/62 11404 10220 20140 30174 40224 51004 60006 81030 90900=
07130,1997-09-19 12:00:00,29,1021.8,-0.5,37,13,25000,11.112,,,130,,,,,,,,,,,wg-a,,,,AAXX 19124 07130 12/75 11306 10290 20130 30169 40218 58005 60006 81030 91200=
07130,1997-09-19 15:00:00,30,1020.6,-1.2,35,13,25000,11.112,,,110,,,,,,,,,,,wg-a,,,,AAXX 19154 07130 12775 11106 10300 20130 30157 40206 57012 60006 81130 91500=
07130,1997-09-19 18:00:00,26,1020.6,-0.1,54,16,25000,11.112,,,70,12.9,30.2,,,,,,,,,wg-a,,,,AAXX 19184 07130 12775 30706 10260 20160 30156 40206 55001 60006 83200 91800 333 10302 20129=
07130,1997-09-20 00:00:00,20,1021.9,0.3,73,15,25000,11.112,,,110,,,,,,,,,,,wg-a,,,,AAXX 20004 07130 12/75 11106 10200 20150 30168 40219 50003 60006 81030 90000=
07130,1997-09-20 03:00:00,18,1021.5,-0.4,83,15,20000,3.704,,,90,,,,,,,,,,,wg-a,,,,AAXX 20034 07130 12/70 00902 10180 20150 30164 40215 56004 60006 80000 90300=
07130,1997-09-20 06:00:00,17,1022.2,0.7,88,15,4000,7.408,,,40,16.9,26.3,,,,,,,,10,wg-a,,,,AAXX 20064 07130 02/40 20404 10170 20150 30171 40222 53007 60006 71000 82030 90600 333 10263 20169 60004=
07130,1997-09-20 09:00:00,21,1023,0.8,73,16,9000,14.816,,,90,,,,,,,,,,,wg-a,,,,AAXX 20094 07130 12/59 /0908 10210 20160 30179 40230 51008 60006 81030 90900=
07130,1997-09-20 12:00:00,25,1022.3,-0.6,54,15,10000,22.224,,,90,,,,,,,,,,,wg-a,,,,AAXX 20124 07130 12/60 10912 10250 20150 30173 40223 58006 60006 81030 91200=
07130,1997-09-20 18:00:00,23,1021.4,0.1,50,12,15000,14.816,,,90,16.2,26.4,,,,,,,,,wg-a,,,,AAXX 20184 07130 12/65 10908 10230 20120 30164 40214 53001 60006 81080 91800 333 10264 20162=
07130,1997-09-20 21:00:00,19,1022.3,0.8,56,10,15000,14.816,,,100,,,,,,,,,,,wg-a,,,,AAXX 20214 07130 12/65 11008 10190 20100 30172 40223 51008 60006 81030 92100=
07130,1997-09-21 00:00:00,15,1022.6,0.2,63,8,15000,11.112,,,100,,,,,,,,,,,wg-a,,,,AAXX 21004 07130 12/65 11006 10150 20080 30174 40226 51002 60006 81030 90000=
07130,1997-09-21 03:00:00,13,1022.1,-0.5,67,7,20000,7.408,,,90,,,,,,,,,,,wg-a,,,,AAXX 21034 07130 12/70 20904 10130 20070 30169 40221 58005 60006 82030 90300=
07130,1997-09-21 06:00:00,13,1021.8,-0.3,67,7,20000,7.408,,,100,12.5,22.4,,,,,,,,,wg-a,,,,AAXX 21064 07130 02770 61004 10130 20070 30166 40218 55003 60006 82531 90600 333 10224 20125 60004=
07130,1997-09-21 09:00:00,17,1021.9,0.2,55,8,500,11.112,,,110,,,,,,,,,,,wg-a,,,,AAXX 21094 07130 12800 51106 10170 20080 30168 40219 50002 60006 85080 90900=
07130,1997-09-21 12:00:00,23,1021.1,-0.7,38,8,35000,11.112,,,120,,,,,,,,,,,wg-a,,,,AAXX 21124 07130 12/81 11206 10230 20080 30161 40211 58007 60006 81080 91200=
07130,1997-09-21 15:00:00,25,1020.1,-1,30,6,35000,3.704,,,110,,,,,,,,,,,wg-a,,,,AAXX 21154 07130 12/81 31102 10250 20060 30151 40201 56010 60006 83080 91500=
07130,1997-09-21 18:00:00,22,1020.3,0.2,41,8,40000,7.408,,,90,12.6,25.4,,,,,,,,,wg-a,,,,AAXX 21184 07130 12/82 50904 10220 20080 30153 40203 53002 60006 85082 91800 333 10254 20126=
07130,1997-09-21 21:00:00,18,1021.1,0.7,52,8,20000,3.704,,,120,,,,,,,,,,,wg-a,,,,AAXX 21214 07130 12/70 11202 10180 20080 30160 40211 51007 60006 81030 92100=
07130,1997-09-22 00:00:00,15,1021.4,0.2,63,8,20000,7.408,,,70,,,,,,,,,,,wg-a,,,,AAXX 22004 07130 12770 70704 10150 20080 30162 40214 51002 60006 875// 90000=
07130,1997-09-22 03:00:00,15,1020.9,-0.5,59,7,20000,7.408,,,100,,,,,,,,,,,wg-a,,,,AAXX 22034 07130 12/70 51004 10150 20070 30157 40209 58005 60006 85030 90300=
07130,1997-09-22 06:00:00,15,1021.1,0.2,63,8,13000,7.408,,,120,14.2,21.5,,,,,,,,60,wg-a,,,,AAXX 22064 07130 02/63 71204 10150 20080 30159 40211 52002 61000 76061 8707/ 90600 333 10215 20142 6100=
07130,1997-09-22 09:00:00,16,1022,0.9,68,10,12000,7.408,,,120,,,,0,,,,,,3,wg-a,,,,AAXX 22094 07130 12/62 71204 10160 20100 30168 40220 52009 60007 70362 8704/ 90900=
07130,1997-09-22 12:00:00,23,1021.5,-0.3,44,10,13000,7.408,,,140,,,,,,,,,,1,wg-a,,,,AAXX 22124 07130 12/63 61404 10230 20100 30165 40215 58003 60006 70162 86080 91200=
07130,1997-09-22 15:00:00,25,1020.6,-0.9,41,11,25000,7.408,,,110,,,,,,,,,,,wg-a,,,,AAXX 22154 07130 12/75 11104 10250 20110 30156 40206 56009 60006 81080 91500=
07130,1997-09-22 18:00:00,22,1020.5,-0.1,50,11,15000,11.112,,,90,13.7,25.4,,,,,,,,,wg-a,,,,AAXX 22184 07130 12/65 30906 10220 20110 30155 40205 55001 60006 82041 91800 333 10254 20137=
07130,1997-09-22 21:00:00,18,1021.6,1,64,11,15000,7.408,,,60,,,,,,,,,,,wg-a,,,,AAXX 22214 07130 12/65 30604 10180 20110 30165 40216 53010 60006 80001 92100=
07130,1997-09-23 00:00:00,15,1021.8,0.1,77,11,15000,3.704,,,70,,,,,,,,,,,wg-a,,,,AAXX 23004 07130 12/65 00702 10150 20110 30166 40218 50001 60006 80000 90000=
07130,1997-09-23 03:00:00,13,1021.4,-0.4,77,9,15000,3.704,,,110,,,,,,,,,,,wg-a,,,,AAXX 23034 07130 12/65 31102 10130 20090 30162 40214 56004 60006 80001 90300=
07130,1997-09-23 06:00:00,11,1021.8,0.4,87,9,15000,0,,,0,11.4,21.6,,,,,,,,,wg-a,,,,AAXX 23064 07130 02/65 20000 10110 20090 30166 40218 53004 60006 80001 90600 333 10216 20114 60004=
07130,1997-09-23 09:00:00,18,1022.1,0.4,59,10,12000,11.112,,,90,,,,,,,,,,,wg-a,,,,AAXX 23094 07130 12/62 20906 10180 20100 30170 40221 51004 60006 80001 90900=
07130,1997-09-23 12:00:00,24,1021.2,-0.8,38,9,20000,14.816,,,70,,,,,,,,,,,wg-a,,,,AAXX 23124 07130 12/70 10708 10240 20090 30162 40212 58008 60006 80001 91200=
07130,1997-09-23 15:00:00,25,1020.3,-0.9,34,8,25000,18.52,,,70,,,,,,,,,,,wg-a,,,,AAXX 23154 07130 12/75 10710 10250 20080 30153 40203 58009 60006 80001 91500=
07130,1997-09-23 18:00:00,22,1020.5,0.2,50,11,20000,11.112,,,60,11.2,25.1,,,,,,,,,wg-a,,,,AAXX 23184 07130 12/70 10606 10220 20110 30155 40205 53002 60006 80001 91800 333 10251 20112=
07130,1997-09-23 21:00:00,18,1021.6,1,59,10,20000,11.112,,,70,,,,,,,,,,,wg-a,,,,AAXX 23214 07130 12/70 00706 10180 20100 30165 40216 52010 60006 80000 92100=
07130,1997-09-24 00:00:00,14,1021.9,0.2,67,8,20000,3.704,,,100,,,,,,,,,,,wg-a,,,,AAXX 24004 07130 12/70 01002 10140 20080 30167 40219 51002 60006 80000 90000=
07130,1997-09-24 03:00:00,11,1021.9,-0,82,8,20000,0,,,0,,,,,,,,,,,wg-a,,,,AAXX 24034 07130 12/70 00000 10110 20080 30167 40219 55000 60006 80000 90300=
07130,1997-09-24 06:00:00,9,1022.3,0.3,93,8,10000,3.704,,,300,9,21.9,,,,,,,,,wg-a,,,,AAXX 24064 07130 02/60 13002 10090 20080 30170 40223 53003 60006 80001 90600 333 10219 20090 60004=
07130,1997-09-24 12:00:00,25,1021.1,-1,34,8,12000,18.52,,,100,,,,,,,,,,,wg-a,,,,AAXX 24124 07130 12/62 11010 10250 20080 30161 40211 58010 60006 80001 91200=
07130,1997-09-24 15:00:00,26,1019.7,-1.4,30,7,18000,14.816,,,90,,,,,,,,,,,wg-a,,,,AAXX 24154 07130 12/68 30908 10260 20070 30147 40197 56014 60006 80001 91500=
07130,1997-09-24 18:00:00,22,1019.8,0.1,50,11,18000,11.112,,,70,8.8,26.2,,,,,,,,,wg-a,,,,AAXX 24184 07130 12/68 50706 10220 20110 30148 40198 53001 60006 80002 91800 333 10262 20088=
07130,1997-09-24 21:00:00,18,1021.1,1.2,59,10,20000,14.816,,,70,,,,,,,,,,,wg-a,,,,AAXX 24214 07130 12/70 50708 10180 20100 30160 40211 51012 60006 80002 92100=
07130,1997-09-25 00:00:00,15,1021.3,0.1,72,10,20000,7.408,,,90,,,,,,,,,,,wg-a,,,,AAXX 25004 07130 12/70 00904 10150 20100 30161 40213 52001 60006 80000 90000=
07130,1997-09-25 03:00:00,13,1020.9,-0.4,82,10,15000,3.704,,,70,,,,,,,,,,,wg-a,,,,AAXX 25034 07130 12/65 00702 10130 20100 30157 40209 57004 60006 80000 90300=
07130,1997-09-25 06:00:00,10,1021.9,0.9,93,9,7000,3.704,,,320,9.6,21.9,,,,,,,,,wg-a,,,,AAXX 25064 07130 02/57 /3202 10100 20090 30166 40219 52009 60006 80001 90600 333 10219 20096 60004=
07130,1997-09-25 09:00:00,17,1022.5,0.8,68,11,10000,11.112,,,100,,,,,,,,,,,wg-a,,,,AAXX 25094 07130 12/60 11006 10170 20110 30174 40225 51008 60006 80001 90900=
07130,1997-09-25 12:00:00,24,1022.3,-0.1,44,11,14000,11.112,,,70,,,,,,,,,,,wg-a,,,,AAXX 25124 07130 12/64 00706 10240 20110 30173 40223 58001 60006 80000 91200=
07130,1997-09-26 00:00:00,14,1023.3,0,77,10,0,3.704,,,80,,,,,,,,,,,wg-a,,,,AAXX 26004 07130 12/// /0802 10140 20100 30181 40233 50000 60006 90000=
07130,1997-09-26 03:00:00,11,1022.9,-0.4,94,10,15000,3.704,,,330,,,,,,,,,,,wg-a,,,,AAXX 26034 07130 12/65 03302 10110 20100 30177 40229 58004 60006 80000 90300=
07130,1997-09-26 06:00:00,10,1023.2,0.2,93,9,6000,7.408,,,10,9.1,23,,,,,,,,11,wg-a,,,,AAXX 26064 07130 02/56 00104 10100 20090 30179 40232 53002 60006 71100 80000 90600 333 10230 20091 60004=
07130,1997-09-26 09:00:00,16,1023.4,0.3,72,11,10000,7.408,,,20,,,,,,,,,,,wg-a,,,,AAXX 26094 07130 12/60 00204 10160 20110 30182 40234 51003 60006 80000 90900=
07130,1997-09-26 12:00:00,23,1021.6,-1.6,44,10,25000,7.408,,,50,,,,,,,,,,,wg-a,,,,AAXX 26124 07130 12/75 00504 10230 20100 30166 40216 58016 60006 80000 91200=
07130,1997-09-26 18:00:00,21,1019.2,-0.5,64,14,15000,11.112,,,20,9.3,26.4,,,,,,,,,wg-a,,,,AAXX 26184 07130 12/65 20206 10210 20140 30142 40192 56005 60006 80001 91800 333 10264 20093=
07130,1997-09-26 21:00:00,16,1019.4,0.1,88,14,10000,7.408,,,10,,,,,,,,,,,wg-a,,,,AAXX 26214 07130 12/60 20104 10160 20140 30143 40194 53001 60006 80001 92100=
07130,1997-09-27 00:00:00,12,1018.5,-1,100,12,4000,7.408,,,290,,,,,,,,,,10,wg-a,,,,AAXX 27004 07130 12/40 02904 10120 20120 30133 40185 57010 60006 71000 80000 90000=
07130,1997-09-27 03:00:00,10,1017.7,-0.8,100,10,1000,3.704,,,300,,,,,,,,,,10,wg-a,,,,AAXX 27034 07130 32/10 03002 10100 20100 30125 40177 58008 71000 80000 90300=
07130,1997-09-27 06:00:00,8,1017.3,-0.5,100,8,100,3.704,,,300,8.1,20.9,,,,,,,,42,wg-a,,,,AAXX 27064 07130 02/01 23002 10080 20080 30120 40173 56005 60006 74240 80001 90600 333 10209 20081 60004=
07130,1997-09-27 09:00:00,12,1017.4,0.2,100,12,600,7.408,,,310,,,,,,,,,,42,wg-a,,,,AAXX 27094 07130 12/06 43104 10120 20120 30122 40174 51002 60006 74244 80001 90900=
07130,1997-09-27 12:00:00,22,1015.9,-1.3,57,13,12000,7.408,,,340,,,,,,,,,,3,wg-a,,,,AAXX 27124 07130 12/62 63404 10220 20130 30109 40159 58013 60006 70341 80001 91200=
07130,1997-09-27 15:00:00,24,1014.4,-1.5,41,10,14000,7.408,,,340,,,,,,,,,,,wg-a,,,,AAXX 27154 07130 12/64 63404 10240 20100 30094 40144 56015 60006 80002 91500=
07130,1997-09-27 18:00:00,20,1014.8,0.4,73,15,7000,14.816,,,20,7.9,24.9,,,,,,,,,wg-a,,,,AAXX 27184 07130 12/57 30208 10200 20150 30098 40148 53004 60006 81032 91800 333 10249 20079=
07130,1997-09-27 21:00:00,15,1015.1,0.2,94,14,3000,3.704,,,350,,,,,,,,,,10,wg-a,,,,AAXX 27214 07130 12/30 33502 10150 20140 30100 40151 50002 60006 71000 80002 92100=
07130,1997-09-28 00:00:00,13,1015.1,-0.1,100,13,300,3.704,,,310,,,,,,,,,,45,wg-a,,,,AAXX 28004 07130 12/03 93102 10130 20130 30099 40151 58001 60006 74541 89/// 90000=
07130,1997-09-28 03:00:00,14,1015,-0.1,100,14,600,3.704,,,360,,,,,,,,,,43,wg-a,,,,AAXX 28034 07130 32/06 93602 10140 20140 30098 40150 58001 74344 89/// 90300=
07130,1997-09-28 06:00:00,14,1015.1,0.2,100,14,200,7.408,,,10,12.5,20.3,,,,,,,,45,wg-a,,,,AAXX 28064 07130 02/02 90104 10140 20140 30100 40151 53002 60006 74544 89/// 90600 333 10203 20125 60004=
07130,1997-09-28 12:00:00,19,1015.8,-0.3,78,15,7000,7.408,,,20,,,,,,,,,,1,wg-a,,,,AAXX 28124 07130 12/57 00204 10190 20150 30107 40158 56003 60006 70141 80000 91200=
07130,1997-09-28 15:00:00,24,1014.6,-1.1,54,14,9000,3.704,,,30,,,,,,,,,,,wg-a,,,,AAXX 28154 07130 12/59 /0302 10240 20140 30096 40146 56011 60006 80001 91500=
07130,1997-09-28 18:00:00,21,1015.5,0.9,64,14,9000,11.112,,,40,13.5,23.7,,,,,,,,,wg-a,,,,AAXX 28184 07130 12/59 20406 10210 20140 30105 40155 53009 60006 80001 91800 333 10237 20135=
07130,1997-09-28 21:00:00,17,1016.9,1.3,82,14,8000,3.704,,,60,,,,,,,,,,,wg-a,,,,AAXX 28214 07130 12/58 20602 10170 20140 30118 40169 51013 60006 80001 92100=
07130,1997-09-29 00:00:00,13,1017.8,0.8,100,13,1500,3.704,,,360,,,,,,,,,,10,wg-a,,,,AAXX 29004 07130 12/15 03602 10130 20130 30126 40178 53008 60006 71000 80000 90000=
07130,1997-09-29 03:00:00,11,1018.1,0.3,100,11,200,0,,,0,,,,,,,,,,44,wg-a,,,,AAXX 29034 07130 12/02 00000 10110 20110 30129 40181 52003 60006 74440 80000 90300=
07130,1997-09-29 06:00:00,10,1019.9,1.7,100,10,100,3.704,,,340,9.6,20.5,,,,,,,,42,wg-a,,,,AAXX 29064 07130 02/01 93402 10100 20100 30146 40199 53017 60006 74241 8900/ 90600 333 10205 20096 60004=
07130,1997-09-29 09:00:00,13,1021.4,1.6,100,13,3000,7.408,,,340,,,,,,,,,,10,wg-a,,,,AAXX 29094 07130 12/30 /3404 10130 20130 30162 40214 51016 60006 71041 80009 90900=
07130,1997-09-29 12:00:00,26,1021.5,0.3,45,13,10000,3.704,,,110,,,,,,,,,,1,wg-a,,,,AAXX 29124 07130 12/60 41102 10260 20130 30165 40215 53003 60006 70141 80002 91200=
07130,1997-09-29 15:00:00,27,1021.1,-0.3,39,12,25000,3.704,,,300,,,,,,,,,,,wg-a,,,,AAXX 29154 07130 12/75 13002 10270 20120 30162 40211 56003 60006 80002 91500=
07130,1997-09-29 18:00:00,23,1021.8,0.6,53,13,11000,7.408,,,60,9.5,27.6,,,,,,,,,wg-a,,,,AAXX 29184 07130 12/61 50604 10230 20130 30168 40218 53006 60006 80002 91800 333 10276 20095=
07130,1997-09-29 21:00:00,17,1023.2,1.3,77,13,15000,7.408,,,320,,,,,,,,,,,wg-a,,,,AAXX 29214 07130 12/65 03204 10170 20130 30181 40232 51013 60006 80000 92100=
07130,1997-09-30 00:00:00,14,1024,0.7,94,13,12000,3.704,,,330,,,,,,,,,,,wg-a,,,,AAXX 30004 07130 12/62 03302 10140 20130 30188 40240 51007 60006 80000 90000=
07130,1997-09-30 03:00:00,12,1024.3,0.3,100,12,3000,3.704,,,220,,,,,,,,,,10,wg-a,,,,AAXX 30034 07130 12/30 02202 10120 20120 30191 40243 53003 60006 71000 80000 90300=
07130,1997-09-30 06:00:00,11,1025.1,0.7,100,11,100,3.704,,,300,10.5,23.3,,,,,,,,45,wg-a,,,,AAXX 30064 07130 02/01 93002 10110 20110 30198 40251 52007 60006 74541 89/// 90600 333 10233 20105 60004=
07130,1997-09-30 09:00:00,14,1025.6,0.6,100,14,800,3.704,,,330,,,,0,,,,,,42,wg-a,,,,AAXX 30094 07130 12108 /3302 10140 20140 30204 40256 51006 60007 74244 83600 90900=
07130,1997-09-30 12:00:00,24,1024.8,-0.6,54,14,13000,3.704,,,360,,,,,,,,,,2,wg-a,,,,AAXX 30124 07130 12/63 03602 10240 20140 30198 40248 58006 60006 70241 80000 91200=
07130,1997-09-30 15:00:00,27,1023.9,-0.9,39,12,25000,11.112,,,360,,,,,,,,,,,wg-a,,,,AAXX 30154 07130 12/75 03606 10270 20120 30189 40239 58009 60006 80000 91500=
07130,1997-09-30 18:00:00,22,1023.9,-0,60,14,8000,11.112,,,30,10.9,27,,,,,,,,,wg-a,,,,AAXX 30184 07130 12/58 /0306 10220 20140 30189 40239 55000 60006 80001 91800 333 10270 20109=
07130,1997-10-01 00:00:00,13,1024.2,-0.3,88,11,10000,7.408,,,300,,,,,,,,,,,wg-a,,,,AAXX 01004 07130 12/60 03004 10130 20110 30190 40242 57003 60006 80000 90000=
07130,1997-10-01 03:00:00,13,1023.8,-0.4,100,13,100,7.408,,,10,,,,,,,,,,45,wg-a,,,,AAXX 01034 07130 12/01 90104 10130 20130 30186 40238 57004 60006 74541 89/// 90300=
07130,1997-10-01 06:00:00,13,1023.6,-0.2,100,13,400,7.408,,,10,11.2,22.1,,,,,,,,45,wg-a,,,,AAXX 01064 07130 02/04 90104 10130 20130 30184 40236 55002 60006 74541 89/// 90600 333 10221 20112 60004=
07130,1997-10-01 09:00:00,15,1023.8,0.2,94,14,500,11.112,,,10,,,,,,,,,,1,wg-a,,,,AAXX 01094 07130 12200 /0106 10150 20140 30186 40238 53002 60006 70141 81600 90900=
07130,1997-10-01 12:00:00,22,1022.6,-1,57,13,12000,7.408,,,60,,,,,,,,,,2,wg-a,,,,AAXX 01124 07130 12/62 10604 10220 20130 30176 40226 58010 60006 70241 80001 91200=
07130,1997-10-01 15:00:00,25,1020.9,-1.7,47,13,15000,11.112,,,340,,,,,,,,,,,wg-a,,,,AAXX 01154 07130 12/65 13406 10250 20130 30159 40209 56017 60006 80001 91500=
07130,1997-10-01 18:00:00,19,1021.3,0.3,78,15,8000,14.816,,,10,13.2,24.6,,,,,,,,,wg-a,,,,AAXX 01184 07130 12/58 /0108 10190 20150 30162 40213 53003 60006 81101 91800 333 10246 20132=
07130,1997-10-01 21:00:00,16,1021.6,0.3,94,15,8000,7.408,,,350,,,,,,,,,,,wg-a,,,,AAXX 01214 07130 12458 83504 10160 20150 30165 40216 50003 60006 886// 92100=
07130,1997-10-02 00:00:00,17,1020.6,-1,94,16,6000,14.816,,,20,,,,,,,,,,,wg-a,,,,AAXX 02004 07130 12256 80208 10170 20160 30155 40206 58010 60006 886// 90000=
07130,1997-10-02 03:00:00,17,1019.8,-0.8,94,16,9000,11.112,,,10,,,,,,,,,,,wg-a,,,,AAXX 02034 07130 12359 80106 10170 20160 30147 40198 58008 60006 886// 90300=
07130,1997-10-02 06:00:00,17,1019.8,0,94,16,15000,7.408,,,310,15.9,18.7,,,,,,,,,wg-a,,,,AAXX 02064 07130 02465 83104 10170 20160 30147 40198 50000 60006 885// 90600 333 10187 20159 60004=
07130,1997-10-02 12:00:00,18,1020.6,0.2,83,15,12000,11.112,,,10,,,,,,,,,,,wg-a,,,,AAXX 02124 07130 12462 80106 10180 20150 30155 40206 52002 60006 885// 91200=
07130,1997-10-02 15:00:00,20,1019.2,-1.4,68,14,15000,3.704,,,350,,,,,,,,,,,wg-a,,,,AAXX 02154 07130 12565 33502 10200 20140 30141 40192 58014 60006 83500 91500=
07130,1997-10-02 18:00:00,17,1019.9,0.7,77,13,15000,14.816,,,360,16.7,20.1,,,,,,,,,wg-a,,,,AAXX 02184 07130 12565 /3608 10170 20130 30148 40199 51007 60006 81500 91800 333 10201 20167=
07130,1997-10-02 21:00:00,15,1020.5,0.5,88,13,12000,7.408,,,350,,,,,,,,,,,wg-a,,,,AAXX 02214 07130 12/62 03504 10150 20130 30153 40205 52005 60006 80000 92100=
07130,1997-10-03 00:00:00,12,1020.5,0,100,12,8000,0,,,0,,,,,,,,,,,wg-a,,,,AAXX 03004 07130 12/58 00000 10120 20120 30153 40205 50000 60006 80000 90000=
07130,1997-10-03 03:00:00,11,1020.5,0,100,11,700,0,,,0,,,,,,,,,,44,wg-a,,,,AAXX 03034 07130 12/07 00000 10110 20110 30153 40205 50000 60006 74440 80000 90300=
07130,1997-10-03 06:00:00,10,1020.8,0.2,100,10,100,3.704,,,320,9.8,17.1,,,,,,,,41,wg-a,,,,AAXX 03064 07130 02/01 03202 10100 20100 30155 40208 53002 60006 74140 80000 90600 333 10171 20098 60004=
07130,1997-10-03 09:00:00,15,1021.5,0.8,88,13,7000,7.408,,,50,,,,,,,,,,3,wg-a,,,,AAXX 03094 07130 12457 /0504 10150 20130 30163 40215 51008 60006 70341 81100 90900=
07130,1997-10-03 12:00:00,20,1021,-0.4,56,11,13000,14.816,,,40,,,,,,,,,,2,wg-a,,,,AAXX 03124 07130 12/63 00408 10200 20110 30159 40210 58004 60006 70241 80000 91200=
07130,1997-10-03 15:00:00,22,1020.1,-0.8,50,11,15000,14.816,,,40,,,,,,,,,,,wg-a,,,,AAXX 03154 07130 12/65 00408 10220 20110 30151 40201 56008 60006 80000 91500=
07130,1997-10-03 18:00:00,18,1021.1,0.9,77,14,8000,18.52,,,30,9.8,22,,,,,,,,,wg-a,,,,AAXX 03184 07130 12/58 00310 10180 20140 30160 40211 53009 60006 80000 91800 333 10220 20098=
07130,1997-10-03 21:00:00,15,1022.4,1.2,94,14,6000,11.112,,,40,,,,,,,,,,,wg-a,,,,AAXX 03214 07130 12/56 00406 10150 20140 30172 40224 53012 60006 80000 92100=
07130,1997-10-04 00:00:00,13,1022.7,0.3,94,12,7000,7.408,,,20,,,,,,,,,,,wg-a,,,,AAXX 04004 07130 12/57 00204 10130 20120 30175 40227 51003 60006 80000 90000=
07130,1997-10-04 03:00:00,12,1023.1,0.4,94,11,500,3.704,,,30,,,,,,,,,,,wg-a,,,,AAXX 04034 07130 12/00 00302 10120 20110 30179 40231 50004 60006 80000 90300=
07130,1997-10-04 06:00:00,9,1023.5,0.3,100,9,1500,0,,,0,9.1,18.1,,,,,,,,,wg-a,,,,AAXX 04064 07130 02/15 /0000 10090 20090 30182 40235 53003 60006 90600 333 10181 20091 60004=
07130,1997-10-04 09:00:00,13,1024,0.6,100,13,7000,0,,,0,,,,,,,,,,28,wg-a,,,,AAXX 04094 07130 12/57 00000 10130 20130 30188 40240 51006 60006 72840 80000 90900=
07130,1997-10-04 12:00:00,21,1023.2,-0.7,53,11,18000,11.112,,,60,,,,,,,,,,1,wg-a,,,,AAXX 04124 07130 12568 /0606 10210 20110 30181 40232 58007 60006 70140 81100 91200=
07130,1997-10-04 15:00:00,22,1021.4,-1.7,50,11,25000,7.408,,,70,,,,,,,,,,,wg-a,,,,AAXX 04154 07130 12/75 00704 10220 20110 30164 40214 56017 60006 80000 91500=
07130,1997-10-04 18:00:00,19,1021,-0.5,60,11,25000,7.408,,,90,8.6,22.6,,,,,,,,,wg-a,,,,AAXX 04184 07130 12/75 00904 10190 20110 30159 40210 55005 60006 80000 91800 333 10226 20086=
07130,1997-10-04 21:00:00,15,1020.9,-0.2,82,12,15000,11.112,,,40,,,,,,,,,,,wg-a,,,,AAXX 04214 07130 12/65 00406 10150 20120 30157 40209 55002 60006 80000 92100=
07130,1997-10-05 00:00:00,11,1020,-0.9,94,10,12000,0,,,0,,,,,,,,,,,wg-a,,,,AAXX 05004 07130 12/62 00000 10110 20100 30148 40200 58009 60006 80000 90000=
07130,1997-10-05 03:00:00,9,1018.8,-1.3,100,9,3000,0,,,0,,,,,,,,,,40,wg-a,,,,AAXX 05034 07130 32/30 00000 10090 20090 30135 40188 58013 74000 80000 90300=
07130,1997-10-05 06:00:00,7,1017.8,-1,100,7,400,0,,,0,6.8,18.9,,,,,,,,40,wg-a,,,,AAXX 05064 07130 02/04 00000 10070 20070 30125 40178 56010 60006 74040 80000 90600 333 10189 20068 60004=
07130,1997-10-05 09:00:00,13,1017.1,-0.6,88,11,8000,7.408,,,140,,,,,,,,,,2,wg-a,,,,AAXX 05094 07130 12/58 01404 10130 20110 30119 40171 58006 60006 70240 80000 90900=
07130,1997-10-05 11:00:00,22,1015.2,,46,10,18000,11.112,,,130,,,,,,,,,,2,wg-a,,,,AAXX 05114 07130 12/68 01306 10220 20100 30102 40152 60006 70240 80000 91100=
07130,1997-10-05 12:00:00,22,1015.2,-1.7,46,10,18000,11.112,,,120,,,,,,,,,,2,wg-a,,,,AAXX 05124 07130 12/68 01206 10220 20100 30102 40152 58017 60006 70240 80000 91200=
07130,1997-10-05 15:00:00,24,1012.1,-3.1,41,10,25000,11.112,,,140,,,,,,,,,,,wg-a,,,,AAXX 05154 07130 12/75 01406 10240 20100 30071 40121 56031 60006 80000 91500=
07130,1997-10-05 18:00:00,20,1010.8,-1.3,53,10,13000,7.408,,,110,6.4,23.6,,,,,,,,,wg-a,,,,AAXX 05184 07130 12/63 11104 10200 20100 30058 40108 56013 60006 80001 91800 333 10236 20064=
07130,1997-10-05 21:00:00,16,1009.7,-1.2,68,10,15000,7.408,,,140,,,,,,,,,,,wg-a,,,,AAXX 05214 07130 12/65 31404 10160 20100 30046 40097 58012 60006 80001 92100=
07130,1997-10-06 00:00:00,15,1007.5,-2.2,67,9,15000,7.408,,,130,,,,,,,,,,,wg-a,,,,AAXX 06004 07130 12/65 41304 10150 20090 30024 40075 56022 60006 80001 90000=
07130,1997-10-06 03:00:00,14,1004.9,-2.6,72,9,15000,11.112,,,120,,,,,,,,,,,wg-a,,,,AAXX 06034 07130 12/65 21206 10140 20090 39998 40049 58026 60006 80001 90300=
07130,1997-10-06 06:00:00,13,1003.7,-1.2,82,10,9000,11.112,,,140,12.7,19.6,,,,,,,,,wg-a,,,,AAXX 06064 07130 02/59 31406 10130 20100 39986 40037 57012 60006 80001 90600 333 10196 20127 60004=
07130,1997-10-06 09:00:00,17,1003.5,-0.1,94,16,7000,7.408,,,180,,,,0,,,,,,21,wg-a,,,,AAXX 06094 07130 12357 81804 10170 20160 39985 40035 55001 60007 72111 875// 90900=
07130,1997-10-06 12:00:00,21,1003,-0.5,78,17,8000,14.816,,,230,,,,,,,,,,3,wg-a,,,,AAXX 06124 07130 12458 82308 10210 20170 39980 40030 58005 60006 70361 875// 91200=
07130,1997-10-06 15:00:00,21,1002.1,-0.9,83,18,8000,18.52,,,210,,,,0,,,,,,,wg-a,,,,AAXX 06154 07130 12458 72110 10210 20180 39971 40021 58009 60007 878// 91500=
07130,1997-10-06 18:00:00,19,1001.6,-0.5,83,16,9000,22.224,,,230,12.7,21.1,,,,,,,,3,wg-a,,,,AAXX 06184 07130 12559 82312 10190 20160 39966 40016 55005 60006 70362 878// 91800 333 10211 20127=
07130,1997-10-06 21:00:00,18,1001.1,-0.5,94,17,9000,14.816,,,210,,,,,,,,,,,wg-a,,,,AAXX 06214 07130 12459 82108 10180 20170 39961 40011 58005 60006 8687/ 92100=
07130,1997-10-07 00:00:00,17,999.9,-1.2,100,17,8000,18.52,,,210,,,,0,,,,,,1,wg-a,,,,AAXX 07004 07130 02458 82110 10170 20170 39949 49999 58012 60006 70162 8687/ 90000 333 60007=
07130,1997-10-07 06:00:00,14,1000.3,0.2,94,13,6000,14.816,,,220,13.4,19.4,,,,,,,,80,wg-a,,,,AAXX 07064 07130 02356 72208 10140 20130 39952 40003 50002 61000 78086 878// 90600 333 10194 20134 6001=
07130,1997-10-07 12:00:00,20,1003.9,1.4,53,10,35000,29.632,,,250,,,,,,,,,,1,wg-a,,,,AAXX 07124 07130 12681 32516 10200 20100 39989 40039 52014 60026 70186 83101 91200=
07130,1997-10-07 18:00:00,17,1006.9,1.6,63,10,35000,14.816,,,220,13.6,20.1,,,,,,,,,wg-a,,,,AAXX 07184 07130 12681 /2208 10170 20100 30018 40069 53016 60006 81531 91800 333 10201 20136=
07130,1997-10-07 21:00:00,15,1008.1,1.2,88,13,15000,14.816,,,200,,,,,,,,,,61,wg-a,,,,AAXX 07214 07130 02665 82008 10150 20130 30030 40081 51012 61000 76162 875// 92100 333 ////=
07130,1997-10-08 00:00:00,16,1007.6,-0.5,94,15,15000,22.224,,,200,,,,0,,,,,,21,wg-a,,,,AAXX 08004 07130 02465 82012 10160 20150 30025 40076 56005 60006 72162 8653/ 90000 333 60007=
07130,1997-10-08 03:00:00,17,1007.3,-0.2,94,16,8000,22.224,,,220,,,,,,,,,,50,wg-a,,,,AAXX 08034 07130 02258 82212 10170 20160 30023 40073 57002 61000 75052 875// 90300 333 ////=
07130,1997-10-08 06:00:00,17,1007.3,-0,94,16,9000,25.928,,,210,14.9,17.3,,,,,,,,51,wg-a,,,,AAXX 08064 07130 02459 82114 10170 20160 30023 40073 55000 61000 75165 885// 90600 333 10173 20149 6003=
07130,1997-10-08 12:00:00,17,1005.8,-1,100,17,500,38.892,,57.412,210,,,,3,,,,,,60,wg-a,,,,AAXX 08124 07130 02400 82121 10170 20170 30008 40058 56010 60036 76065 888// 91200 333 60037 91031=
07130,1997-10-08 15:00:00,18,1005.6,-0.2,94,17,2000,35.188,,55.56,220,,,,3,,,,,,61,wg-a,,,,AAXX 08154 07130 12420 82219 10180 20170 30006 40056 56002 60037 76166 888// 91500 333 91030=
07130,1997-10-08 18:00:00,18,1006.7,1.1,94,17,4000,29.632,,,230,16.9,18.6,,,,,,,,61,wg-a,,,,AAXX 08184 07130 02340 82316 10180 20170 30017 40067 53011 61000 76166 885// 91800 333 10186 20169 6004=
07130,1997-10-08 21:00:00,18,1007.2,0.5,94,17,7000,29.632,,,230,,,,3,,,,,,61,wg-a,,,,AAXX 08214 07130 12457 82316 10180 20170 30022 40072 53005 60037 76166 875// 92100=
07130,1997-10-09 00:00:00,18,1006.3,-0.9,94,17,6000,35.188,,,230,,,,1,,,,,,61,wg-a,,,,AAXX 09004 07130 02456 82319 10180 20170 30013 40063 56009 60046 76166 877// 90000 333 60017=
07130,1997-10-09 03:00:00,19,1007.1,0.8,94,18,15000,29.632,,,230,,,,0,,,,,,21,wg-a,,,,AAXX 09034 07130 12465 72316 10190 20180 30021 40071 51008 60007 72162 875// 90300=
07130,1997-10-09 06:00:00,18,1008.9,1.8,88,16,9000,18.52,,,240,17.7,19,,,,,15,,,3,wg-a,,,,AAXX 09064 07130 02459 /2410 10180 20160 30039 40089 53018 60006 70361 86200 90600 333 10190 20177 60154=
07130,1997-10-09 09:00:00,19,1011.4,2.5,83,16,15000,18.52,,,240,,,,,,,,,,,wg-a,,,,AAXX 09094 07130 12565 /2410 10190 20160 30064 40114 51025 60006 86200 90900=
07130,1997-10-09 12:00:00,21,1012.6,1.2,69,15,18000,29.632,,,240,,,,,,,,,,,wg-a,,,,AAXX 09124 07130 12568 /2416 10210 20150 30076 40126 51012 60006 86800 91200=
07130,1997-10-09 15:00:00,21,1012.9,0.3,73,16,25000,25.928,,,250,,,,,,,,,,,wg-a,,,,AAXX 09154 07130 12575 52514 10210 20160 30079 40129 53003 60006 85800 91500=
07130,1997-10-09 18:00:00,19,1013.1,0.2,83,16,15000,25.928,,,230,17.7,21.8,,,,,,,,,wg-a,,,,AAXX 09184 07130 12565 72314 10190 20160 30081 40131 52002 60006 8217/ 91800 333 10218 20177=
07130,1997-10-09 21:00:00,19,1012.9,-0.2,88,17,15000,22.224,,,230,,,,,,,,,,,wg-a,,,,AAXX 09214 07130 12465 72312 10190 20170 30079 40129 58002 60006 8552/ 92100=
07130,1997-10-10 00:00:00,18,1011,-1.9,94,17,15000,22.224,,,230,,,,,,,,,,51,wg-a,,,,AAXX 10004 07130 02465 72312 10180 20170 30060 40110 57019 61000 75165 8652/ 90000 333 6100=
07130,1997-10-10 06:00:00,17,1007,-2,94,16,15000,14.816,,,230,16.3,18.9,,,,,,,,21,wg-a,,,,AAXX 10064 07130 02365 82308 10170 20160 30019 40070 56020 61000 72165 877// 90600 333 10189 20163 6001=
07130,1997-10-10 09:00:00,18,1008.6,1.7,94,17,12000,18.52,,,290,,,,,,,,,,1,wg-a,,,,AAXX 10094 07130 02462 72910 10180 20170 30036 40086 51017 61000 70162 875// 90900 333 ////=
07130,1997-10-10 12:00:00,17,1011.3,2.6,82,14,500,18.52,,,340,,,,0,,,,,,21,wg-a,,,,AAXX 10124 07130 02400 73410 10170 20140 30062 40113 51026 60006 72165 87800 91200 333 60007=
07130,1997-10-10 15:00:00,18,1012.6,1.3,64,11,40000,22.224,,,350,,,,,,,,,,,wg-a,,,,AAXX 10154 07130 12682 /3512 10180 20110 30075 40126 53013 60006 81100 91500=
07130,1997-10-10 18:00:00,15,1014.7,2.1,67,9,10000,11.112,,,350,14.5,18.9,,,,,,,,,wg-a,,,,AAXX 10184 07130 12/60 /3506 10150 20090 30096 40147 53021 60006 91800 333 10189 20145=
07130,1997-10-10 21:00:00,11,1016.4,1.6,87,9,500,3.704,,,230,,,,,,,,,,,wg-a,,,,AAXX 10214 07130 12/00 02302 10110 20090 30112 40164 51016 60006 80000 92100=
07130,1997-10-11 00:00:00,10,1016.2,-0.2,93,9,500,3.704,,,290,,,,,,,,,,,wg-a,,,,AAXX 11004 07130 12/00 02902 10100 20090 30110 40162 58002 60006 80000 90000=
07130,1997-10-11 03:00:00,9,1014.9,-1.3,100,9,500,3.704,,,210,,,,,,,,,,,wg-a,,,,AAXX 11034 07130 12/00 02102 10090 20090 30097 40149 58013 60006 80000 90300=
07130,1997-10-11 06:00:00,10,1013.5,-1.4,100,10,15000,11.112,,,200,8.7,14.5,,,,,,,,60,wg-a,,,,AAXX 11064 07130 02565 /2006 10100 20100 30083 40135 57014 61000 76061 85831 90600 333 10145 20087 6000=
07130,1997-10-11 12:00:00,16,1006.7,-3.5,94,15,8000,22.224,,,210,,,,,,,,,,51,wg-a,,,,AAXX 11124 07130 02358 82112 10160 20150 30016 40067 58035 60006 75165 877// 91200 333 61000=
07130,1997-10-11 15:00:00,20,1003.5,-3.1,88,18,500,22.224,,,260,,,,,,,,,,3,wg-a,,,,AAXX 11154 07130 02400 72612 10200 20180 39985 40035 56031 61000 70365 86202 91500 333 ////=
07130,1997-10-11 18:00:00,18,1002.8,-0.7,83,15,15000,18.52,,,250,10.1,20.5,,,,,,,,80,wg-a,,,,AAXX 11184 07130 02565 72510 10180 20150 39978 40028 57007 61000 78086 878// 91800 333 10205 20101 6001=
07130,1997-10-11 21:00:00,15,1003.6,0.7,82,12,25000,22.224,,,280,,,,0,,,,,,1,wg-a,,,,AAXX 11214 07130 12575 22812 10150 20120 39985 40036 53007 60007 70186 82200 92100=
07130,1997-10-12 00:00:00,15,1002.9,-0.7,72,10,15000,29.632,,48.152,270,,,,,,,,,,3,wg-a,,,,AAXX 12004 07130 12565 72716 10150 20100 39978 40029 58007 60006 70386 872// 90000 333 91026=
07130,1997-10-12 03:00:00,14,1002.5,-0.4,82,11,7000,35.188,,53.708,290,,,,,,,,,,,wg-a,,,,AAXX 12034 07130 12457 82919 10140 20110 39974 40025 56004 60006 878// 90300 333 91029=
07130,1997-10-12 06:00:00,14,1006.1,3.6,82,11,12000,42.596,,72.228,330,13.7,17.7,,,,,1,,,,wg-a,,,,AAXX 12064 07130 02462 73323 10140 20110 30010 40061 53036 60006 878// 90600 333 10177 20137 60014 91039=
07130,1997-10-12 09:00:00,12,1013.1,6.9,94,11,10000,25.928,,,360,,,,0,,,,,,3,wg-a,,,,AAXX 12094 07130 12460 73614 10120 20110 30079 40131 51069 60007 70362 8787/ 90900=
07130,1997-10-12 12:00:00,13,1016.1,3,82,10,15000,22.224,,,350,,,,,,,,,,1,wg-a,,,,AAXX 12124 07130 02565 63512 10130 20100 30109 40161 51030 60006 70162 868/0 91200 333 61000=
07130,1997-10-12 18:00:00,11,1018.9,1.6,87,9,20000,14.816,,,340,11.2,15,,,,,,,,25,wg-a,,,,AAXX 12184 07130 02570 /3408 10110 20090 30137 40189 53016 61000 72586 85800 91800 333 10150 20112 6000=
07130,1997-10-12 21:00:00,10,1020.2,1.3,93,9,500,7.408,,,310,,,,,,,,,,3,wg-a,,,,AAXX 12214 07130 02600 73104 10100 20090 30150 40202 51013 61000 70382 878// 92100 333 ////=
07130,1997-10-13 00:00:00,10,1020.8,0.5,93,9,15000,3.704,,,240,,,,0,,,,,,3,wg-a,,,,AAXX 13004 07130 02565 72402 10100 20090 30155 40208 50005 60006 70386 878// 90000 333 60007=
07130,1997-10-13 03:00:00,9,1020.6,-0.2,100,9,500,11.112,,,310,,,,0,,,,,,,wg-a,,,,AAXX 13034 07130 12500 33106 10090 20090 30153 40206 55002 60007 83200 90300=
07130,1997-10-13 06:00:00,8,1020.9,0.3,100,8,500,7.408,,,300,7.9,11.2,,,,,1,,,1,wg-a,,,,AAXX 13064 07130 02500 33004 10080 20080 30156 40209 51003 60006 70186 83800 90600 333 10112 20079 60014=
07130,1997-10-13 09:00:00,12,1021.8,1,82,9,500,18.52,,,310,,,,0,,,,,,1,wg-a,,,,AAXX 13094 07130 12500 /3110 10120 20090 30166 40218 51010 60007 70186 86800 90900=
07130,1997-10-13 12:00:00,14,1021.3,-0.5,63,7,500,25.928,,,320,,,,,,,,,,2,wg-a,,,,AAXX 13124 07130 12500 63214 10140 20070 30161 40213 58005 60006 70286 86830 91200=
07130,1997-10-13 15:00:00,13,1020.9,-0.4,77,9,20000,22.224,,,330,,,,,,,,,,80,wg-a,,,,AAXX 13154 07130 02570 73312 10130 20090 30157 40209 56004 61000 78086 878// 91500 333 ////=
07130,1997-10-13 18:00:00,11,1022,1.1,94,10,10000,14.816,,,350,6.8,14.3,,,,,,,,25,wg-a,,,,AAXX 13184 07130 02560 73508 10110 20100 30168 40220 53011 61000 72586 84802 91800 333 10143 20068 6001=
07130,1997-10-13 21:00:00,9,1024.2,2.1,87,7,20000,11.112,,,20,,,,,,,,,,,wg-a,,,,AAXX 13214 07130 12670 20206 10090 20070 30189 40242 51021 60006 82500 92100=
07130,1997-10-14 00:00:00,8,1025.7,1.5,87,6,15000,3.704,,,30,,,,,,,,,,,wg-a,,,,AAXX 14004 07130 12/65 00302 10080 20060 30204 40257 51015 60006 80000 90000=
07130,1997-10-14 03:00:00,6,1026.6,0.8,93,5,15000,7.408,,,350,,,,,,,,,,,wg-a,,,,AAXX 14034 07130 12765 13504 10060 20050 30212 40266 51008 60006 81500 90300=
07130,1997-10-14 06:00:00,5,1027.6,1,93,4,15000,3.704,,,300,4.4,11,,,,,2,,,,wg-a,,,,AAXX 14064 07130 02/65 23002 10050 20040 30222 40276 53010 60006 80001 90600 333 10110 20044 60024=
07130,1997-10-14 09:00:00,9,1028.8,1.3,81,6,16000,3.704,,,300,,,,,,,,,,,wg-a,,,,AAXX 14094 07130 12666 53002 10090 20060 30235 40288 53013 60006 83501 90900=
07130,1997-10-14 12:00:00,13,1028.3,-0.5,58,5,20000,3.704,,,320,,,,,,,,,,,wg-a,,,,AAXX 14124 07130 12670 73202 10130 20050 30230 40283 58005 60006 85802 91200=
07130,1997-10-14 15:00:00,13,1026.3,-1.9,62,6,20000,14.816,,,300,,,,,,,,,,,wg-a,,,,AAXX 14154 07130 12670 73008 10130 20060 30211 40263 58019 60006 86801 91500=
07130,1997-10-14 18:00:00,12,1025.2,-1.1,71,7,16000,3.704,,,240,3.9,13.9,,,,,,,,,wg-a,,,,AAXX 14184 07130 12866 72402 10120 20070 30200 40252 56011 60006 865/1 91800 333 10139 20039=
07130,1997-10-14 21:00:00,11,1024.8,-0.5,82,8,10000,7.408,,,270,,,,0,,,,,,1,wg-a,,,,AAXX 14214 07130 12/60 72704 10110 20080 30195 40248 58005 60007 70162 8707/ 92100=
07130,1997-10-15 00:00:00,11,1022.6,-2.2,82,8,10000,7.408,,,230,,,,,,,,,,2,wg-a,,,,AAXX 15004 07130 12/60 72304 10110 20080 30173 40226 57022 60006 70262 8707/ 90000=
07130,1997-10-15 03:00:00,9,1020.1,-2.5,100,9,3000,11.112,,,210,,,,3,,,,,,10,wg-a,,,,AAXX 15034 07130 12430 82106 10090 20090 30148 40201 56025 60037 71062 885// 90300=
07130,1997-10-15 06:00:00,11,1016,-4,100,11,8000,14.816,,,240,9.1,11.9,,,,,,,,10,wg-a,,,,AAXX 15064 07130 02258 82408 10110 20110 30108 40160 56040 61000 71065 877// 90600 333 10119 20091 6006=
07130,1997-10-15 09:00:00,14,1014.7,-1.2,100,14,11000,14.816,,,250,,,,,,,,,,,wg-a,,,,AAXX 15094 07130 12/61 /2508 10140 20140 30096 40147 56012 60006 90900=
07130,1997-10-15 12:00:00,17,1013.7,-1,88,15,40000,25.928,,,320,,,,0,,,,,,25,wg-a,,,,AAXX 15124 07130 02482 /3214 10170 20150 30086 40137 58010 60006 72522 86800 91200 333 60007=
07130,1997-10-15 15:00:00,17,1013.5,-0.2,77,13,40000,22.224,,,330,,,,,,,,,,,wg-a,,,,AAXX 15154 07130 12582 63312 10170 20130 30084 40135 56002 60006 86800 91500=
07130,1997-10-15 18:00:00,15,1014,0.5,88,13,25000,14.816,,,320,11.3,18.9,,,,,,,,,wg-a,,,,AAXX 15184 07130 12575 /3208 10150 20130 30089 40140 53005 60006 85802 91800 333 10189 20113=
07130,1997-10-15 21:00:00,14,1014.9,0.9,88,12,20000,14.816,,,310,,,,,,,,,,,wg-a,,,,AAXX 15214 07130 12670 73108 10140 20120 30098 40149 51009 60006 875// 92100=
07130,1997-10-16 00:00:00,11,1015.6,0.6,100,11,20000,7.408,,,290,,,,,,,,,,,wg-a,,,,AAXX 16004 07130 12670 /2904 10110 20110 30104 40156 53006 60006 86530 90000=
07130,1997-10-16 03:00:00,11,1015.2,-0.4,100,11,20000,7.408,,,290,,,,,,,,,,,wg-a,,,,AAXX 16034 07130 12670 /2904 10110 20110 30100 40152 55004 60006 81530 90300=
07130,1997-10-16 06:00:00,11,1015.2,0,100,11,20000,0,,,0,10.9,15.3,,,,,,,,,wg-a,,,,AAXX 16064 07130 02670 70000 10110 20110 30100 40152 50000 60006 85532 90600 333 10153 20109 60004=
07130,1997-10-16 09:00:00,14,1015.7,0.6,94,13,15000,7.408,,,220,,,,,,,,,,,wg-a,,,,AAXX 16094 07130 12265 72204 10140 20130 30106 40157 51006 60006 8557/ 90900=
07130,1997-10-16 12:00:00,15,1015.1,-0.6,100,15,8000,14.816,,,200,,,,1,,,,,,20,wg-a,,,,AAXX 16124 07130 02358 72008 10150 20150 30100 40151 58006 60016 72052 875// 91200 333 60017=
07130,1997-10-16 15:00:00,16,1014.2,-0.9,100,16,500,14.816,,,180,,,,,,,,,,51,wg-a,,,,AAXX 16154 07130 02200 81808 10160 20160 30091 40142 58009 61000 75152 875// 91500 333 ////=
07130,1997-10-16 18:00:00,16,1014.3,0.1,100,16,15000,11.112,,,190,11.2,16.3,,0,,,,,,1,wg-a,,,,AAXX 16184 07130 02465 71906 10160 20160 30092 40143 53001 60006 70152 875// 91800 333 10163 20112 60007=
07130,1997-10-17 00:00:00,15,1013.4,-0.6,100,15,20000,11.112,,,190,,,,,,,,,,,wg-a,,,,AAXX 17004 07130 12270 81906 10150 20150 30083 40134 57006 60006 875// 90000=
07130,1997-10-17 03:00:00,14,1011.9,-1.5,94,13,20000,14.816,,,160,,,,,,,,,,,wg-a,,,,AAXX 17034 07130 12570 /1608 10140 20130 30068 40119 58015 60006 83502 90300=
07130,1997-10-17 06:00:00,13,1011.5,-0.4,88,11,15000,11.112,,,150,12.9,16.1,,,,,1,,,,wg-a,,,,AAXX 17064 07130 02/65 41506 10130 20110 30064 40115 58004 60006 80002 90600 333 10161 20129 60014=
07130,1997-10-17 09:00:00,16,1011.5,-0,77,12,25000,14.816,,,160,,,,,,,,,,,wg-a,,,,AAXX 17094 07130 12/75 31608 10160 20120 30064 40115 54000 60006 81032 90900=
07130,1997-10-17 12:00:00,20,1010,-1.4,60,12,40000,18.52,,,150,,,,,,,,,,,wg-a,,,,AAXX 17124 07130 12/82 21510 10200 20120 30050 40100 58014 60006 80002 91200=
07130,1997-10-17 15:00:00,22,1009.1,-0.9,57,13,40000,18.52,,,150,,,,,,,,,,,wg-a,,,,AAXX 17154 07130 12/82 11510 10220 20130 30041 40091 56009 60006 80002 91500=
07130,1997-10-17 18:00:00,18,1010.2,1.1,73,13,500,11.112,,,140,12.2,21.9,,,,,,,,,wg-a,,,,AAXX 17184 07130 12/00 11406 10180 20130 30052 40102 53011 60006 80001 91800 333 10219 20122=
07130,1997-10-17 21:00:00,15,1011.5,1.2,82,12,20000,14.816,,,140,,,,,,,,,,,wg-a,,,,AAXX 17214 07130 12/70 21408 10150 20120 30064 40115 53012 60006 80001 92100=
07130,1997-10-18 00:00:00,14,1012.5,1,88,12,20000,7.408,,,120,,,,,,,,,,,wg-a,,,,AAXX 18004 07130 12/70 31204 10140 20120 30074 40125 51010 60006 80001 90000=
07130,1997-10-18 03:00:00,13,1013,0.4,94,12,15000,11.112,,,120,,,,,,,,,,,wg-a,,,,AAXX 18034 07130 12/65 61206 10130 20120 30078 40130 51004 60006 80002 90300=
07130,1997-10-18 06:00:00,12,1014.2,1.2,94,11,15000,11.112,,,120,12,18.3,,,,,,,,,wg-a,,,,AAXX 18064 07130 02/65 61206 10120 20110 30090 40142 51012 60006 80002 90600 333 10183 20120 60004=
07130,1997-10-18 09:00:00,16,1015.3,1.2,77,12,20000,11.112,,,140,,,,,,,,,,,wg-a,,,,AAXX 18094 07130 12/70 31406 10160 20120 30102 40153 51012 60006 80002 90900=
07130,1997-10-18 11:00:00,20,1014.3,-1.1,68,14,20000,14.816,,,110,11.7,23.9,,,,,,,,,wg-a,,,,AAXX 18114 07130 12/70 01108 10200 20140 30102 40143 56011 60006 80000 91100 333 10239 20117=
07130,1997-10-18 12:00:00,22,1014.9,-0.3,60,14,500,18.52,,,160,,,,,,,,,,,wg-a,,,,AAXX 18124 07130 12/00 11610 10220 20140 30099 40149 58003 60006 80001 91200=
07130,1997-10-18 15:00:00,24,1014.6,-0.3,57,15,500,18.52,,,140,,,,,,,,,,,wg-a,,,,AAXX 18154 07130 12/00 01410 10240 20150 30096 40146 58003 60006 80000 91500=
07130,1997-10-18 18:00:00,19,1014.3,-0.3,78,15,20000,14.816,,,110,11.7,23.9,,,,,,,,,wg-a,,,,AAXX 18184 07130 12/70 01108 10190 20150 30093 40143 56003 60006 80000 91800 333 10239 20117=
07130,1997-10-18 21:00:00,18,1014.7,0.3,83,15,20000,18.52,,,120,,,,,,,,,,,wg-a,,,,AAXX 18214 07130 12/70 01210 10180 20150 30096 40147 53003 60006 80000 92100=
07130,1997-10-19 00:00:00,17,1014.3,-0.4,88,15,20000,14.816,,,120,,,,,,,,,,,wg-a,,,,AAXX 19004 07130 12/70 51208 10170 20150 30092 40143 57004 60006 85030 90000=
07130,1997-10-19 03:00:00,15,1013.8,-0.5,94,14,25000,11.112,,,120,,,,,,,,,,,wg-a,,,,AAXX 19034 07130 12/75 51206 10150 20140 30087 40138 56005 60006 85030 90300=
07130,1997-10-19 06:00:00,14,1013,-0.8,94,13,20000,11.112,,,120,13.9,19.4,,,,,,,,,wg-a,,,,AAXX 19064 07130 02/70 51206 10140 20130 30079 40130 56008 60006 81042 90600 333 10194 20139 60004=
07130,1997-10-19 09:00:00,15,1014.3,1.3,88,13,20000,11.112,,,120,,,,,,,,,,,wg-a,,,,AAXX 19094 07130 12770 71206 10150 20130 30092 40143 51013 60006 865/2 90900=
07130,1997-10-19 12:00:00,17,1013.9,-0.4,82,14,10000,11.112,,,140,,,,,,,,,,,wg-a,,,,AAXX 19124 07130 12/60 /1406 10170 20140 30088 40139 58004 60006 91200=
07130,1997-10-19 18:00:00,18,1012.8,-0.2,77,14,13000,11.112,,,140,13.6,18.8,,,,,,,,1,wg-a,,,,AAXX 19184 07130 12763 61406 10180 20140 30077 40128 58002 60006 70162 84547 91800 333 10188 20136=
07130,1997-10-20 00:00:00,16,1011.5,-0.8,45,4,12000,7.408,,,110,,,,0,,,,,,21,wg-a,,,,AAXX 20004 07130 02762 81104 10160 20040 30064 40115 58008 60006 72111 8557/ 90000 333 60007=
07130,1997-10-20 03:00:00,16,1010.4,-1.1,100,16,500,14.816,,,110,,,,6,,,,,,61,wg-a,,,,AAXX 20034 07130 12500 81108 10160 20160 30053 40104 58011 60067 76162 8552/ 90300=
07130,1997-10-20 06:00:00,16,1009.2,-1.2,100,16,6000,14.816,,,120,15.6,17.5,,,,,,,,21,wg-a,,,,AAXX 20064 07130 02256 81208 10160 20160 30041 40092 58012 61000 72162 8177/ 90600 333 10175 20156 6018=
07130,1997-10-20 09:00:00,17,1009.4,0.2,100,17,7000,14.816,,,140,,,,,,,,,,21,wg-a,,,,AAXX 20094 07130 32257 81408 10170 20170 30043 40094 52002 72162 887// 90900=
07130,1997-10-20 12:00:00,18,1008.3,-1,94,17,15000,18.52,,,110,,,,,,,,,,1,wg-a,,,,AAXX 20124 07130 12465 81110 10180 20170 30033 40083 58010 60006 70162 8471/ 91200=
07130,1997-10-20 15:00:00,18,1007.6,-0.7,94,17,15000,18.52,,,100,,,,,,,,,,,wg-a,,,,AAXX 20154 07130 12465 81010 10180 20170 30026 40076 57007 60006 8552/ 91500=
07130,1997-10-20 18:00:00,17,1008,0.4,88,15,10000,22.224,,,100,16.1,18.4,,0,,,,,,2,wg-a,,,,AAXX 20184 07130 02760 81012 10170 20150 30030 40080 53004 60006 70262 8352/ 91800 333 10184 20161 60007=
07130,1997-10-20 21:00:00,17,1008.6,0.5,82,14,10000,18.52,,,110,,,,,,,,,,2,wg-a,,,,AAXX 20214 07130 02760 81110 10170 20140 30035 40086 51005 61000 70262 875// 92100 333 ////=
07130,1997-10-21 00:00:00,16,1008.3,-0.3,88,14,10000,22.224,,,100,,,,,,,,,,3,wg-a,,,,AAXX 21004 07130 02460 81012 10160 20140 30032 40083 58003 61000 70362 875// 90000 333 ////=
07130,1997-10-21 03:00:00,15,1008.3,0,88,13,10000,22.224,,,90,,,,,,,,,,,wg-a,,,,AAXX 21034 07130 12460 80912 10150 20130 30032 40083 50000 60006 875// 90300=
07130,1997-10-21 06:00:00,15,1008.7,0.4,88,13,6000,18.52,,,100,14.5,17.3,,,,,,,,,wg-a,,,,AAXX 21064 07130 02456 81010 10150 20130 30036 40087 50004 60006 886// 90600 333 10173 20145 60004=
07130,1997-10-21 09:00:00,14,1010.4,1.7,82,11,6000,18.52,,,110,,,,,,,,,,,wg-a,,,,AAXX 21094 07130 12456 81110 10140 20110 30053 40104 51017 60006 886// 90900=
07130,1997-10-21 12:00:00,14,1011,0.6,88,12,6000,14.816,,,100,,,,,,,,,,,wg-a,,,,AAXX 21124 07130 12456 81008 10140 20120 30059 40110 50006 60006 886// 91200=
07130,1997-10-21 15:00:00,14,1010.7,-0.3,88,12,6000,14.816,,,100,,,,,,,,,,,wg-a,,,,AAXX 21154 07130 12456 81008 10140 20120 30056 40107 55003 60006 885// 91500=
07130,1997-10-21 18:00:00,13,1012.1,1.4,88,11,6000,11.112,,,110,13.3,15.2,,,,,,,,,wg-a,,,,AAXX 21184 07130 12456 81106 10130 20110 30070 40121 53014 60006 885// 91800 333 10152 20133=
07130,1997-10-21 21:00:00,12,1012.2,-0,88,10,8000,14.816,,,120,,,,,,,,,,,wg-a,,,,AAXX 21214 07130 12458 81208 10120 20100 30070 40122 55000 60006 885// 92100=
07130,1997-10-22 00:00:00,12,1011.7,-0.5,88,10,6000,11.112,,,130,,,,,,,,,,,wg-a,,,,AAXX 22004 07130 12356 81306 10120 20100 30065 40117 58005 60006 885// 90000=
07130,1997-10-22 03:00:00,11,1010.6,-1.1,100,11,1500,11.112,,,120,,,,,,,,,,20,wg-a,,,,AAXX 22034 07130 02215 81206 10110 20110 30054 40106 57011 61000 72022 886// 90300 333 ////=
07130,1997-10-22 06:00:00,11,1010.3,-0.3,100,11,800,7.408,,,120,11.2,13.3,,,,,,,,10,wg-a,,,,AAXX 22064 07130 02108 81204 10110 20110 30051 40103 58003 60006 71042 886// 90600 333 10133 20112 60004=
07130,1997-10-22 09:00:00,12,1011.1,0.8,100,12,800,3.704,,,140,,,,,,,,,,10,wg-a,,,,AAXX 22094 07130 02108 81402 10120 20120 30059 40111 53008 61000 71054 886// 90900 333 ////=
07130,1997-10-22 12:00:00,14,1010.4,-0.6,94,13,1800,7.408,,,80,,,,,,,,,,10,wg-a,,,,AAXX 22124 07130 02218 80804 10140 20130 30053 40104 58006 61000 71054 886// 91200 333 ////=
07130,1997-10-22 15:00:00,15,1010.5,0.1,94,14,1800,0,,,0,,,,,,,,,,10,wg-a,,,,AAXX 22154 07130 12218 80000 10150 20140 30054 40105 53001 60006 71022 886// 91500=
07130,1997-10-22 18:00:00,15,1011,0.5,94,14,2500,0,,,0,11.4,14.9,,,,,,,,10,wg-a,,,,AAXX 22184 07130 12425 80000 10150 20140 30059 40110 51005 60006 71022 886// 91800 333 10149 20114=
07130,1997-10-22 21:00:00,14,1011.5,0.5,100,14,1500,7.408,,,100,,,,,,,,,,10,wg-a,,,,AAXX 22214 07130 12215 81004 10140 20140 30064 40115 53005 60006 71022 886// 92100=
07130,1997-10-23 00:00:00,14,1011.8,0.3,94,13,4000,7.408,,,90,,,,,,,,,,10,wg-a,,,,AAXX 23004 07130 12340 80904 10140 20130 30067 40118 52003 60006 71022 886// 90000=
07130,1997-10-23 03:00:00,13,1011.7,-0.1,100,13,3000,7.408,,,100,,,,,,,,,,10,wg-a,,,,AAXX 23034 07130 12230 81004 10130 20130 30066 40117 58001 60006 71022 886// 90300=
07130,1997-10-23 06:00:00,13,1012.1,0.3,94,12,1500,7.408,,,90,12.8,14.7,,,,,,,,10,wg-a,,,,AAXX 23064 07130 02115 80904 10130 20120 30069 40121 53003 60006 71022 886// 90600 333 10147 20128 61000=
07130,1997-10-23 09:00:00,13,1013.2,1.1,94,12,500,7.408,,,70,,,,,,,,,,0,wg-a,,,,AAXX 23094 07130 12400 80704 10130 20120 30080 40132 51011 60006 700// 8/6/9 90900=
07130,1997-10-23 12:00:00,17,1013.2,0.1,63,10,10000,3.704,,,100,,,,,,,,,,,wg-a,,,,AAXX 23124 07130 12560 /1002 10170 20100 30081 40132 50001 60006 81130 91200=
07130,1997-10-23 15:00:00,17,1013.1,-0.1,55,8,12000,14.816,,,30,,,,,,,,,,,wg-a,,,,AAXX 23154 07130 12562 /0308 10170 20080 30080 40131 55001 60006 81100 91500=
07130,1997-10-23 18:00:00,13,1014.8,1.6,72,8,12000,7.408,,,20,12.4,17.3,,,,,,,,,wg-a,,,,AAXX 23184 07130 12/62 10204 10130 20080 30096 40148 53016 60006 81030 91800 333 10173 20124=
07130,1997-10-24 00:00:00,8,1018.7,1.6,81,5,15000,7.408,,,80,,,,,,,,,,,wg-a,,,,AAXX 24004 07130 12/65 00804 10080 20050 30134 40187 51016 60006 80000 90000=
07130,1997-10-24 03:00:00,5,1020.3,1.5,93,4,12000,7.408,,,30,,,,,,,,,,,wg-a,,,,AAXX 24034 07130 12/62 00304 10050 20040 30149 40203 51015 60006 80000 90300=
07130,1997-10-24 06:00:00,5,1022.1,1.8,93,4,8000,7.408,,,40,4.3,12.5,,,,,,,,,wg-a,,,,AAXX 24064 07130 02/58 00404 10050 20040 30167 40221 53018 60006 80000 90600 333 10125 20043 60004=
07130,1997-10-24 09:00:00,10,1023.8,1.8,71,5,10000,14.816,,,100,,,,,,,,,,,wg-a,,,,AAXX 24094 07130 12/60 /1008 10100 20050 30185 40238 52018 60006 90900=
07130,1997-10-24 12:00:00,14,1024.5,0.8,51,4,11000,29.632,,,100,,,,,,,,,,,wg-a,,,,AAXX 24124 07130 12/61 /1016 10140 20040 30193 40245 51008 60006 91200=
07130,1997-10-24 15:00:00,14,1024.4,-0.1,51,4,40000,22.224,,,90,,,,,,,,,,,wg-a,,,,AAXX 24154 07130 12682 40912 10140 20040 30192 40244 55001 60006 84500 91500=
07130,1997-10-24 18:00:00,11,1025.5,1,66,5,500,11.112,,,80,4.9,15,,,,,,,,,wg-a,,,,AAXX 24184 07130 12600 50806 10110 20050 30202 40255 53010 60006 85500 91800 333 10150 20049=
07130,1997-10-24 21:00:00,9,1026.8,1.3,76,5,20000,11.112,,,70,,,,,,,,,,,wg-a,,,,AAXX 24214 07130 12/70 00706 10090 20050 30215 40268 53013 60006 80000 92100=
07130,1997-10-25 00:00:00,7,1027.4,0.5,81,4,20000,7.408,,,60,,,,,,,,,,,wg-a,,,,AAXX 25004 07130 12/70 00604 10070 20040 30220 40274 53005 60006 80000 90000=
07130,1997-10-25 03:00:00,6,1027.2,-0.2,81,3,20000,11.112,,,80,,,,,,,,,,,wg-a,,,,AAXX 25034 07130 12/70 00806 10060 20030 30218 40272 58002 60006 80000 90300=
07130,1997-10-25 06:00:00,5,1027.8,0.6,81,2,20000,11.112,,,80,4.9,11.1,,,,,,,,,wg-a,,,,AAXX 25064 07130 02/70 00806 10050 20020 30224 40278 53006 60006 80000 90600 333 10111 20049 60004=
07130,1997-10-25 09:00:00,9,1028.1,0.4,61,2,20000,14.816,,,100,,,,,,,,,,,wg-a,,,,AAXX 25094 07130 12/70 01008 10090 20020 30228 40281 51004 60006 80000 90900=
07130,1997-10-25 12:00:00,13,1027.6,-0.5,47,2,500,18.52,,,110,,,,,,,,,,,wg-a,,,,AAXX 25124 07130 12/00 01110 10130 20020 30223 40276 58005 60006 80000 91200=
07130,1997-10-25 15:00:00,13,1026.1,-1.4,51,3,500,18.52,,,90,,,,,,,,,,,wg-a,,,,AAXX 25154 07130 12/00 00910 10130 20030 30209 40261 56014 60006 80000 91500=
07130,1997-10-25 18:00:00,10,1026.1,-0.1,66,4,25000,11.112,,,70,4.7,14,,,,,,,,,wg-a,,,,AAXX 25184 07130 12/75 00706 10100 20040 30208 40261 55001 60006 80000 91800 333 10140 20047=
07130,1997-10-25 21:00:00,7,1026,-0.1,81,4,25000,11.112,,,80,,,,,,,,,,,wg-a,,,,AAXX 25214 07130 12/75 00806 10070 20040 30207 40260 56001 60006 80000 92100=
07130,1997-10-26 00:00:00,5,1025.3,-0.8,87,3,25000,7.408,,,80,,,,,,,,,,,wg-a,,,,AAXX 26004 07130 12/75 00804 10050 20030 30199 40253 58008 60006 80000 90000=
07130,1997-10-26 03:00:00,4,1024.3,-1,87,2,25000,3.704,,,90,,,,,,,,,,,wg-a,,,,AAXX 26034 07130 12/75 00902 10040 20020 30189 40243 58010 60006 80000 90300=
07130,1997-10-26 06:00:00,4,1023.4,-0.9,87,2,20000,7.408,,,90,3.1,9.6,,,,,,,,,wg-a,,,,AAXX 26064 07130 02/70 00904 10040 20020 30180 40234 56009 60006 80000 90600 333 10096 20031 60004=
07130,1997-10-26 09:00:00,8,1023.7,0.4,76,4,20000,11.112,,,90,,,,,,,,,,,wg-a,,,,AAXX 26094 07130 12/70 00906 10080 20040 30184 40237 50004 60006 80000 90900=
07130,1997-10-26 12:00:00,14,1022.7,-0.9,51,4,35000,18.52,,,90,,,,,,,,,,,wg-a,,,,AAXX 26124 07130 12/81 00910 10140 20040 30175 40227 58009 60006 80000 91200=
07130,1997-10-26 15:00:00,16,1021,-1.7,48,5,35000,14.816,,,120,,,,,,,,,,,wg-a,,,,AAXX 26154 07130 12/81 11208 10160 20050 30158 40210 56017 60006 80001 91500=
07130,1997-10-26 18:00:00,12,1021.1,0.1,67,6,500,18.52,,,100,3.3,16.2,,,,,,,,,wg-a,,,,AAXX 26184 07130 12/00 11010 10120 20060 30159 40211 53001 60006 80001 91800 333 10162 20033=
07130,1997-10-26 21:00:00,8,1021.2,-0,81,5,20000,11.112,,,90,,,,,,,,,,,wg-a,,,,AAXX 26214 07130 12/70 00906 10080 20050 30159 40212 55000 60006 80000 92100=
07130,1997-10-27 00:00:00,7,1021.1,-0.1,81,4,20000,11.112,,,90,,,,,,,,,,,wg-a,,,,AAXX 27004 07130 12/70 00906 10070 20040 30158 40211 58001 60006 80000 90000=
07130,1997-10-27 03:00:00,6,1020.5,-0.6,87,4,15000,3.704,,,80,,,,,,,,,,,wg-a,,,,AAXX 27034 07130 12/65 00802 10060 20040 30152 40205 58006 60006 80000 90300=
07130,1997-10-27 06:00:00,6,1020.5,-0,87,4,15000,11.112,,,90,5,11.6,,,,,,,,,wg-a,,,,AAXX 27064 07130 02/65 20906 10060 20040 30152 40205 55000 60006 80002 90600 333 10116 20050 60004=
07130,1997-10-27 09:00:00,10,1021,0.5,76,6,15000,14.816,,,100,,,,,,,,,,,wg-a,,,,AAXX 27094 07130 12/65 11008 10100 20060 30157 40210 53005 60006 80001 90900=
07130,1997-10-27 12:00:00,14,1020.5,-0.4,55,5,25000,22.224,,,110,,,,,,,,,,,wg-a,,,,AAXX 27124 07130 12/75 31112 10140 20050 30153 40205 58004 60006 80002 91200=
07130,1997-10-27 18:00:00,12,1020.6,0.9,58,4,25000,18.52,,,90,5.2,15.4,,,,,,,,,wg-a,,,,AAXX 27184 07130 12/75 40910 10120 20040 30154 40206 53009 60006 80002 91800 333 10154 20052=
07130,1997-10-27 21:00:00,10,1021.8,1.1,76,6,500,22.224,,,90,,,,,,,,,,,wg-a,,,,AAXX 27214 07130 12/00 20912 10100 20060 30165 40218 53011 60006 80002 92100=
07130,1997-10-28 00:00:00,8,1022.4,0.6,81,5,25000,18.52,,,90,,,,,,,,,,,wg-a,,,,AAXX 28004 07130 12/75 00910 10080 20050 30171 40224 53006 60006 80000 90000=
07130,1997-10-28 03:00:00,6,1022.7,0.3,75,2,20000,22.224,,,90,,,,,,,,,,,wg-a,,,,AAXX 28034 07130 12/70 00912 10060 20020 30174 40227 53003 60006 80000 90300=
07130,1997-10-28 06:00:00,3,1023.3,0.5,75,-1,20000,22.224,,,90,3.3,11.9,,,,,,,,,wg-a,,,,AAXX 28064 07130 02/70 40912 10030 21010 30179 40233 53005 60006 80002 90600 333 10119 20033 60004=
07130,1997-10-28 09:00:00,4,1025.9,2.6,56,-4,500,22.224,,,90,,,,,,,,,,,wg-a,,,,AAXX 28094 07130 12/00 20912 10040 21040 30205 40259 51026 60006 80002 90900=
07130,1997-10-28 12:00:00,8,1026.1,0.3,39,-5,500,25.928,,,100,,,,,,,,,,,wg-a,,,,AAXX 28124 07130 12/00 11014 10080 21050 30208 40261 50003 60006 80002 91200=
07130,1997-10-28 15:00:00,9,1026.9,0.8,40,-4,500,22.224,,,70,,,,,,,,,,,wg-a,,,,AAXX 28154 07130 12/00 00712 10090 21040 30216 40269 53008 60006 80000 91500=
07130,1997-10-28 18:00:00,6,1028.9,1.9,45,-5,500,11.112,,,70,2.1,9.6,,,,,,,,,wg-a,,,,AAXX 28184 07130 12/00 10706 10060 21050 30235 40289 53019 60006 80002 91800 333 10096 20021=
07130,1997-10-28 21:00:00,4,1031.2,2.3,48,-6,500,14.816,,,70,,,,,,,,,,,wg-a,,,,AAXX 28214 07130 12/00 00708 10040 21060 30258 40312 51023 60006 80000 92100=
07130,1997-10-29 00:00:00,2,1031.8,0.5,51,-7,500,11.112,,,80,,,,,,,,,,,wg-a,,,,AAXX 29004 07130 12/00 00806 10020 21070 30263 40318 50005 60006 80000 90000=
07130,1997-10-29 03:00:00,1,1031.8,0,55,-7,500,11.112,,,90,,,,,,,,,,,wg-a,,,,AAXX 29034 07130 12/00 00906 10010 21070 30263 40318 50000 60006 80000 90300=
07130,1997-10-29 06:00:00,0,1032.6,0.8,59,-7,500,7.408,,,60,0.2,5.8,,,,,,,,,wg-a,,,,AAXX 29064 07130 02/00 00604 10000 21070 30271 40326 52008 60006 80000 90600 333 10058 20002 60004=
07130,1997-10-29 09:00:00,3,1033.6,1,52,-6,500,11.112,,,90,,,,,,,,,,,wg-a,,,,AAXX 29094 07130 12/00 00906 10030 21060 30281 40336 51010 60006 80000 90900=
07130,1997-10-29 12:00:00,10,1032.8,-0.6,32,-6,500,11.112,,,80,,,,,,,,,,,wg-a,,,,AAXX 29124 07130 12/00 00806 10100 21060 30275 40328 58006 60006 80000 91200=
07130,1997-10-29 15:00:00,10,1031.3,-1.5,43,-2,500,14.816,,,30,,,,,,,,,,,wg-a,,,,AAXX 29154 07130 12/00 10308 10100 21020 30260 40313 56015 60006 80001 91500=
07130,1997-10-29 18:00:00,6,1031.6,0.2,56,-2,500,11.112,,,30,-0.8,11.8,,,,,,,,,wg-a,,,,AAXX 29184 07130 12/00 10306 10060 21020 30262 40316 53002 60006 80001 91800 333 10118 21008=
07130,1997-10-29 21:00:00,3,1032.7,1,70,-2,25000,7.408,,,80,,,,,,,,,,,wg-a,,,,AAXX 29214 07130 12/75 00804 10030 21020 30272 40327 51010 60006 80000 92100=
07130,1997-10-30 00:00:00,-1,1032,-0.7,93,-2,20000,0,,,0,,,,,,,,,,,wg-a,,,,AAXX 30004 07130 12/70 00000 11010 21020 30265 40320 58007 60006 80000 90000=
07130,1997-10-30 03:00:00,-3,1031.4,-0.7,100,-3,12000,3.704,,,320,,,,,,,,,,,wg-a,,,,AAXX 30034 07130 12/62 03202 11030 21030 30258 40314 58007 60006 80000 90300=
07130,1997-10-30 06:00:00,-4,1031.5,0.1,100,-4,15000,0,,,0,-3.6,6.3,,,,,,,,,wg-a,,,,AAXX 30064 07130 02/65 10000 11040 21040 30259 40315 50001 60006 80001 90600 333 10063 21036 60004=
07130,1997-10-30 09:00:00,0,1031.8,0.4,93,-1,15000,3.704,,,310,,,,,,,,,,,wg-a,,,,AAXX 30094 07130 12/65 23102 10000 21010 30263 40318 52004 60006 80001 90900=
07130,1997-10-30 12:00:00,12,1029.9,-1.7,30,-5,500,11.112,,,70,,,,,,,,,,,wg-a,,,,AAXX 30124 07130 12/00 50706 10120 21050 30246 40299 58017 60006 80002 91200=
07130,1997-10-30 18:00:00,9,1028.8,0.3,49,-1,10000,11.112,,,10,-4,14.1,,,,,,,,,wg-a,,,,AAXX 30184 07130 12/60 70106 10090 21010 30235 40288 53003 60006 82042 91800 333 10141 21040=
07130,1997-10-30 21:00:00,6,1030.2,1.3,56,-2,15000,7.408,,,30,,,,,,,,,,,wg-a,,,,AAXX 30214 07130 12/65 70304 10060 21020 30248 40302 51013 60006 84042 92100=
07130,1997-10-31 00:00:00,4,1029.7,-0.5,70,-1,15000,3.704,,,10,,,,,,,,,,,wg-a,,,,AAXX 31004 07130 12/65 40102 10040 21010 30243 40297 56005 60006 80002 90000=
07130,1997-10-31 03:00:00,1,1029.3,-0.5,86,-1,15000,11.112,,,340,,,,,,,,,,,wg-a,,,,AAXX 31034 07130 12/65 23406 10010 21010 30238 40293 56005 60006 80002 90300=
07130,1997-10-31 06:00:00,-1,1029.4,0.1,93,-2,10000,3.704,,,290,-0.8,8.7,,,,,,,,,wg-a,,,,AAXX 31064 07130 02/60 12902 11010 21020 30239 40294 51001 60006 80001 90600 333 10087 21008 60004=
07130,1997-10-31 09:00:00,5,1030.2,0.9,75,1,12000,7.408,,,30,,,,,,,,,,,wg-a,,,,AAXX 31094 07130 12/62 10304 10050 20010 30248 40302 51009 60006 80001 90900=
07130,1997-10-31 12:00:00,12,1028.8,-1.3,50,2,15000,14.816,,,30,,,,,,,,,,,wg-a,,,,AAXX 31124 07130 12/65 10308 10120 20020 30235 40288 58013 60006 80002 91200=
07130,1997-10-31 15:00:00,14,1027.3,-1.4,41,1,20000,22.224,,,40,,,,,,,,,,,wg-a,,,,AAXX 31154 07130 12/70 10412 10140 20010 30221 40273 56014 60006 80002 91500=
07130,1997-10-31 18:00:00,10,1027.8,0.4,66,4,15000,11.112,,,30,-0.9,14.2,,,,,,,,,wg-a,,,,AAXX 31184 07130 12/65 00306 10100 20040 30225 40278 53004 60006 80000 91800 333 10142 21009=
07130,1997-11-01 00:00:00,5,1027.2,-0.8,93,4,12000,11.112,,,20,,,,,,,,,,,wg-a,,,,AAXX 01004 07130 12/62 00206 10050 20040 30218 40272 58008 60006 80000 90000=
07130,1997-11-01 03:00:00,5,1025.9,-1.3,93,4,10000,11.112,,,350,,,,,,,,,,,wg-a,,,,AAXX 01034 07130 12/60 63506 10050 20040 30205 40259 56013 60006 86030 90300=
07130,1997-11-01 06:00:00,3,1025,-0.9,100,3,8000,7.408,,,350,3.3,9.4,,,,,,,,,wg-a,,,,AAXX 01064 07130 02/58 73504 10030 20030 30196 40250 56009 60006 8703/ 90600 333 10094 20033 60004=
07130,1997-11-01 09:00:00,7,1025.5,0.6,81,4,9000,11.112,,,60,,,,,,,,,,,wg-a,,,,AAXX 01094 07130 12/59 /0606 10070 20040 30202 40255 52006 60006 81031 90900=
07130,1997-11-01 12:00:00,11,1024.2,-1.3,62,4,12000,11.112,,,50,,,,,,,,,,,wg-a,,,,AAXX 01124 07130 12562 /0506 10110 20040 30189 40242 58013 60006 81100 91200=
07130,1997-11-01 15:00:00,11,1022.2,-1.9,54,2,10000,11.112,,,60,,,,,,,,,,,wg-a,,,,AAXX 01154 07130 12660 20606 10110 20020 30170 40222 56019 60006 81101 91500=
07130,1997-11-01 18:00:00,7,1022.2,-0.1,76,3,6000,3.704,,,90,3.1,11.9,,,,,,,,,wg-a,,,,AAXX 01184 07130 12/56 00902 10070 20030 30169 40222 55001 60006 80000 91800 333 10119 20031=
07130,1997-11-01 21:00:00,4,1022.1,-0.2,81,1,8000,3.704,,,60,,,,,,,,,,,wg-a,,,,AAXX 01214 07130 12/58 00602 10040 20010 30167 40221 56002 60006 80000 92100=
07130,1997-11-02 00:00:00,0,1022,-0.2,100,0,2000,0,,,0,,,,,,,,,,10,wg-a,,,,AAXX 02004 07130 12/20 00000 10000 20000 30165 40220 58002 60006 71000 80000 90000=
07130,1997-11-02 03:00:00,-2,1020.8,-1.2,100,-2,1500,0,,,0,,,,,,,,,,40,wg-a,,,,AAXX 02034 07130 12/15 00000 11020 21020 30153 40208 57012 60006 74000 80000 90300=
07130,1997-11-02 06:00:00,-3,1020.3,-0.5,100,-3,600,0,,,0,-2.7,7.1,,,,,,,,44,wg-a,,,,AAXX 02064 07130 02/06 00000 11030 21030 30148 40203 57005 60006 74440 80000 90600 333 10071 21027 60004=
07130,1997-11-02 12:00:00,11,1018.1,-1.9,54,2,8000,11.112,,,120,,,,,,,,,,2,wg-a,,,,AAXX 02124 07130 12/58 01206 10110 20020 30129 40181 58019 60006 70240 80000 91200=
07130,1997-11-02 15:00:00,12,1016.3,-1.8,50,2,10000,11.112,,,100,,,,,,,,,,,wg-a,,,,AAXX 02154 07130 12/60 01006 10120 20020 30111 40163 57018 60006 80000 91500=
07130,1997-11-02 18:00:00,7,1015.9,-0.5,70,2,6000,7.408,,,80,-3.6,12.6,,,,,,,,,wg-a,,,,AAXX 02184 07130 12/56 00804 10070 20020 30106 40159 55005 60006 80000 91800 333 10126 21036=
07130,1997-11-02 21:00:00,3,1015.6,-0.4,87,1,7000,7.408,,,40,,,,,,,,,,,wg-a,,,,AAXX 02214 07130 12/57 00404 10030 20010 30102 40156 58004 60006 80000 92100=
07130,1997-11-03 00:00:00,2,1014.7,-0.9,87,0,7000,3.704,,,80,,,,,,,,,,,wg-a,,,,AAXX 03004 07130 12/57 00802 10020 20000 30093 40147 58009 60006 80000 90000=
07130,1997-11-03 06:00:00,0,1011.1,-1.8,93,-1,3000,3.704,,,40,-0.4,7.1,,,,,,,,10,wg-a,,,,AAXX 03064 07130 02/30 30402 10000 21010 30057 40111 56018 60006 71000 80001 90600 333 10071 21004 60004=
07130,1997-11-03 09:00:00,5,1010,-1,81,2,500,11.112,,,110,,,,,,,,,,,wg-a,,,,AAXX 03094 07130 12/00 /1106 10050 20020 30047 40100 58010 60006 81030 90900=
07130,1997-11-03 12:00:00,12,1007.9,-2,58,4,8000,18.52,,,110,,,,,,,,,,,wg-a,,,,AAXX 03124 07130 12/58 /1110 10120 20040 30027 40079 58020 60006 81030 91200=
07130,1997-11-03 15:00:00,16,1005.4,-2.4,55,7,10000,14.816,,,110,,,,,,,,,,,wg-a,,,,AAXX 03154 07130 12/60 31108 10160 20070 30003 40054 56024 60006 80001 91500=
07130,1997-11-03 18:00:00,11,1004.9,-0.6,71,6,8000,11.112,,,100,-1.3,15.8,,,,,,,,,wg-a,,,,AAXX 03184 07130 12/58 31006 10110 20060 39997 40049 56006 60006 81031 91800 333 10158 21013=
07130,1997-11-03 21:00:00,10,1003.5,-1.4,82,7,8000,18.52,,,120,,,,,,,,,,,wg-a,,,,AAXX 03214 07130 12/58 /1210 10100 20070 39983 40035 57014 60006 81031 92100=
07130,1997-11-04 00:00:00,10,1002.5,-1,82,7,8000,11.112,,,120,,,,,,,,,,,wg-a,,,,AAXX 04004 07130 12/58 /1206 10100 20070 39973 40025 56010 60006 81031 90000=
07130,1997-11-04 03:00:00,10,1001.5,-1,87,8,8000,11.112,,,130,,,,,,,,,,,wg-a,,,,AAXX 04034 07130 12658 81306 10100 20080 39963 40015 58010 60006 8357/ 90300=
07130,1997-11-04 06:00:00,9,1000.5,-1,100,9,500,11.112,,,130,9.3,10.7,,,,,,,,61,wg-a,,,,AAXX 04064 07130 02400 81306 10090 20090 39953 40005 56010 61000 76162 875// 90600 333 10107 20093 6001=
07130,1997-11-04 12:00:00,17,1000.6,-0.1,82,14,12000,25.928,,,210,,,,,,,,,,1,wg-a,,,,AAXX 04124 07130 12562 /2114 10170 20140 39956 40006 58001 60026 70165 86800 91200=
07130,1997-11-04 15:00:00,16,1000.1,-0.5,82,13,14000,18.52,,,210,,,,0,,,,,,15,wg-a,,,,AAXX 04154 07130 12564 72110 10160 20130 39951 40001 55005 60007 71586 8684/ 91500=
07130,1997-11-04 18:00:00,15,1000.7,0.5,82,12,12000,25.928,,,200,9.4,17.8,,,,,,,,3,wg-a,,,,AAXX 04184 07130 12562 72014 10150 20120 39956 40007 53005 60006 70386 878// 91800 333 10178 20094=
07130,1997-11-04 21:00:00,15,1001.1,0.4,82,12,15000,25.928,,42.596,210,,,,,,,,,,,wg-a,,,,AAXX 04214 07130 12565 42114 10150 20120 39960 40011 53004 60006 8/800 92100 333 91023=
07130,1997-11-05 00:00:00,13,1001.6,0.5,94,12,15000,14.816,,,190,,,,,,,,,,,wg-a,,,,AAXX 05004 07130 12/65 01908 10130 20120 39965 40016 51005 60006 80000 90000=
07130,1997-11-05 03:00:00,13,1000.9,-0.7,88,11,15000,18.52,,,180,,,,,,,,,,,wg-a,,,,AAXX 05034 07130 12565 /1810 10130 20110 39958 40009 58007 60006 82240 90300=
07130,1997-11-05 06:00:00,12,999.9,-1,94,11,15000,18.52,,,190,12,15.1,,,,,2,,,3,wg-a,,,,AAXX 05064 07130 02565 71910 10120 20110 39948 49999 56010 60006 70386 878// 90600 333 10151 20120 60024=
07130,1997-11-05 12:00:00,13,996.9,-2.2,88,11,9000,25.928,,,180,,,,,,,,,,1,wg-a,,,,AAXX 05124 07130 02459 71814 10130 20110 39918 49969 58022 61000 70186 8687/ 91200 333 6100=
07130,1997-11-05 15:00:00,13,994.1,-2.8,100,13,2200,18.52,,,180,,,,4,,,,,,10,wg-a,,,,AAXX 05154 07130 12222 81810 10130 20130 39890 49941 58028 60047 71062 887// 91500=
07130,1997-11-05 18:00:00,12,991.6,-2.5,94,11,6000,18.52,,,180,11.6,13.8,,,,,,,,61,wg-a,,,,AAXX 05184 07130 02456 81810 10120 20110 39865 49916 56025 61000 76162 8372/ 91800 333 10138 20116 6004=
07130,1997-11-05 21:00:00,11,990.5,-1.1,100,11,15000,14.816,,,210,,,,2,,,,,,1,wg-a,,,,AAXX 05214 07130 12365 42108 10110 20110 39854 49905 56011 60027 70161 84200 92100=
07130,1997-11-06 00:00:00,10,989.6,-0.9,100,10,18000,14.816,,,200,,,,,,,,,,1,wg-a,,,,AAXX 06004 07130 12/68 02008 10100 20100 39845 49896 58009 60026 70161 80000 90000=
07130,1997-11-06 03:00:00,9,988.8,-0.8,100,9,18000,11.112,,,210,,,,0,,,,,,,wg-a,,,,AAXX 06034 07130 12768 32106 10090 20090 39837 49888 56008 60007 83500 90300=
07130,1997-11-06 06:00:00,9,988.1,-0.7,100,9,18000,11.112,,,220,8.5,11.9,,,,,10,,,1,wg-a,,,,AAXX 06064 07130 02768 22206 10090 20090 39830 49881 56007 60006 70186 81502 90600 333 10119 20085 60104=
07130,1997-11-06 12:00:00,15,988.2,-1.7,77,11,500,11.112,,,290,,,,,,,,,,,wg-a,,,,AAXX 06124 07130 12500 /2906 10150 20110 39832 49882 58017 60006 82232 91200=
07130,1997-11-06 15:00:00,14,987,-1.2,77,10,35000,11.112,,,300,,,,,,,,,,,wg-a,,,,AAXX 06154 07130 12581 73006 10140 20100 39820 49870 58012 60006 83822 91500=
07130,1997-11-06 18:00:00,13,988.2,1.2,82,10,20000,7.408,,,240,8.4,15.4,,,,,,,,,wg-a,,,,AAXX 06184 07130 12570 /2404 10130 20100 39832 49882 53012 60006 84532 91800 333 10154 20084=
07130,1997-11-06 21:00:00,11,988.9,0.6,87,9,18000,7.408,,,260,,,,,,,,,,,wg-a,,,,AAXX 06214 07130 12/68 82604 10110 20090 39838 49889 51006 60006 80002 92100=
07130,1997-11-07 00:00:00,9,989.7,0.8,93,8,18000,11.112,,,250,,,,0,,,,,,,wg-a,,,,AAXX 07004 07130 02/68 32506 10090 20080 39846 49897 51008 60006 80002 90000 333 60007=
07130,1997-11-07 03:00:00,8,990.8,1.1,100,8,18000,11.112,,,230,,,,,,,,,,,wg-a,,,,AAXX 07034 07130 12668 52306 10080 20080 39857 49908 51011 60006 83502 90300=
07130,1997-11-07 06:00:00,8,992.3,1.5,93,7,18000,11.112,,,220,7.7,12.6,,,,,,,,,wg-a,,,,AAXX 07064 07130 02/68 12206 10080 20070 39872 49923 51015 60006 81030 90600 333 10126 20077 60004=
07130,1997-11-07 09:00:00,10,993.8,1.5,93,9,20000,7.408,,,190,,,,,,,,,,,wg-a,,,,AAXX 07094 07130 12670 51904 10100 20090 39887 49938 53015 60006 84831 90900=
07130,1997-11-07 12:00:00,13,993,-0.7,77,9,500,22.224,,,200,,,,,,,,,,,wg-a,,,,AAXX 07124 07130 12500 72012 10130 20090 39880 49930 58007 60006 82172 91200=
07130,1997-11-07 15:00:00,14,990.7,-2.3,77,10,25000,22.224,,,180,,,,,,,,,,,wg-a,,,,AAXX 07154 07130 12575 71812 10140 20100 39857 49907 58023 60006 82222 91500=
07130,1997-11-07 18:00:00,13,989.1,-1.6,88,11,15000,31.484,,,190,7.5,14.4,,,,,,,,,wg-a,,,,AAXX 07184 07130 12565 81917 10130 20110 39841 49891 56016 60006 878// 91800 333 10144 20075=
07130,1997-11-07 21:00:00,12,989,-0.1,94,11,15000,18.52,,,240,,,,3,,,,,,21,wg-a,,,,AAXX 07214 07130 12465 22410 10120 20110 39840 49890 55001 60037 72161 82700 92100=
07130,1997-11-08 00:00:00,11,991.3,2.2,82,8,15000,18.52,,,240,,,,,,,,,,1,wg-a,,,,AAXX 08004 07130 12/65 02410 10110 20080 39862 49913 51022 60036 70161 80000 90000=
07130,1997-11-08 03:00:00,10,993.6,2.3,87,8,15000,18.52,,,230,,,,,,,,,,,wg-a,,,,AAXX 08034 07130 12765 52310 10100 20080 39885 49936 51023 60006 85500 90300=
07130,1997-11-08 06:00:00,9,996.2,2.6,87,7,20000,14.816,,,240,9.2,13.1,,,,,3,,,,wg-a,,,,AAXX 08064 07130 02470 42408 10090 20070 39911 49962 53026 60006 83802 90600 333 10131 20092 60034=
07130,1997-11-08 09:00:00,11,998.1,1.9,76,7,500,22.224,,,230,,,,,,,,,,,wg-a,,,,AAXX 08094 07130 12500 /2312 10110 20070 39930 49981 52019 60006 81240 90900=
07130,1997-11-08 12:00:00,14,996.5,-1.6,72,9,20000,22.224,,,190,,,,,,,,,,,wg-a,,,,AAXX 08124 07130 12570 71912 10140 20090 39914 49965 58016 60006 85854 91200=
07130,1997-11-08 15:00:00,11,991.5,-5,100,11,6000,25.928,,,190,,,,8,,,,,,63,wg-a,,,,AAXX 08154 07130 12356 81914 10110 20110 39864 49915 58050 60087 76386 8572/ 91500=
07130,1997-11-08 18:00:00,12,990.7,-0.8,88,10,15000,22.224,,,210,8.8,14.3,,1,,,,,,1,wg-a,,,,AAXX 08184 07130 02465 42112 10120 20100 39856 49907 55008 60006 70186 83840 91800 333 10143 20088 60017=
07130,1997-11-08 21:00:00,9,992,1.3,93,8,25000,11.112,,,250,,,,0,,,,,,1,wg-a,,,,AAXX 08214 07130 12675 22506 10090 20080 39869 49920 53013 60007 70186 82200 92100=
07130,1997-11-09 00:00:00,8,992.7,0.6,87,6,25000,14.816,,,190,,,,,,,,,,3,wg-a,,,,AAXX 09004 07130 12575 21908 10080 20060 39875 49927 51006 60016 70386 82200 90000=
07130,1997-11-09 03:00:00,7,993.2,0.5,93,6,25000,11.112,,,220,,,,2,,,,,,,wg-a,,,,AAXX 09034 07130 12575 22206 10070 20060 39880 49932 53005 60027 82200 90300=
07130,1997-11-09 09:00:00,9,992.7,-0.2,87,7,500,25.928,,,190,,,,1,,,,,,,wg-a,,,,AAXX 09094 07130 12500 71914 10090 20070 39876 49927 58002 60017 85802 90900=
07130,1997-11-09 12:00:00,11,988.8,-3.9,82,8,15000,31.484,,53.708,210,,,,0,,,,,,25,wg-a,,,,AAXX 09124 07130 02565 72117 10110 20080 39837 49888 58039 60026 72586 878// 91200 333 60007 91029=
07130,1997-11-09 15:00:00,12,992.6,3.8,71,7,20000,35.188,,55.56,290,,,,,,,,,,15,wg-a,,,,AAXX 09154 07130 12570 42919 10120 20070 39875 49926 53038 60006 71511 83802 91500 333 91030=
07130,1997-11-09 18:00:00,10,995.9,3.3,82,7,500,14.816,,,230,6.7,12.9,,,,,,,,,wg-a,,,,AAXX 09184 07130 12600 /2308 10100 20070 39908 49959 51033 60006 81500 91800 333 10129 20067=
07130,1997-11-09 21:00:00,9,996.9,1,87,7,25000,18.52,,,210,,,,1,,,,,,25,wg-a,,,,AAXX 09214 07130 12575 /2110 10090 20070 39918 49969 51010 60017 72586 86800 92100=
07130,1997-11-10 00:00:00,8,997.6,0.6,93,7,500,14.816,,,220,,,,,,,,,,1,wg-a,,,,AAXX 10004 07130 12500 32208 10080 20070 39924 49976 51006 60016 70186 83230 90000=
07130,1997-11-10 03:00:00,7,996.6,-1,93,6,20000,11.112,,,210,,,,,,,,,,,wg-a,,,,AAXX 10034 07130 12570 72106 10070 20060 39914 49966 58010 60006 878// 90300=
07130,1997-11-10 06:00:00,8,995.6,-1,93,7,20000,14.816,,,200,6.6,9.5,,,,,3,,,2,wg-a,,,,AAXX 10064 07130 02670 72008 10080 20070 39904 49956 56010 60006 70286 878// 90600 333 10095 20066 60034=
07130,1997-11-10 09:00:00,9,995.7,0.1,93,8,20000,18.52,,,200,,,,2,,,,,,25,wg-a,,,,AAXX 10094 07130 12570 42010 10090 20080 39905 49957 50001 60027 72586 82963 90900=
07130,1997-11-10 12:00:00,11,996,0.4,82,8,15000,25.928,,46.3,240,,,,,,,,,,80,wg-a,,,,AAXX 10124 07130 02565 62414 10110 20080 39909 49960 50004 60026 78086 86960 91200 333 61000 91025=
07130,1997-11-10 15:00:00,10,996.1,0.1,82,7,20000,22.224,,,240,,,,,,,,,,80,wg-a,,,,AAXX 10154 07130 02570 42412 10100 20070 39910 49961 53001 61000 78086 84960 91500 333 ////=
07130,1997-11-10 18:00:00,9,996.2,-0,81,6,20000,18.52,,,210,7.3,12.7,,0,,,,,,1,wg-a,,,,AAXX 10184 07130 02570 /2110 10090 20060 39910 49962 55000 60006 70186 81900 91800 333 10127 20073 60007=
07130,1997-11-10 21:00:00,8,995.6,-0.6,87,6,500,14.816,,,200,,,,,,,,,,,wg-a,,,,AAXX 10214 07130 12500 22008 10080 20060 39904 49956 58006 60006 82800 92100=
07130,1997-11-11 00:00:00,7,995.4,-0.2,100,7,8000,11.112,,,230,,,,2,,,,,,61,wg-a,,,,AAXX 11004 07130 02358 82306 10070 20070 39902 49954 57002 60026 76186 878// 90000 333 60027=
07130,1997-11-11 03:00:00,7,994.3,-1.1,100,7,25000,14.816,,,180,,,,2,,,,,,21,wg-a,,,,AAXX 11034 07130 12575 41808 10070 20070 39891 49943 56011 60027 72161 84800 90300=
07130,1997-11-11 06:00:00,7,993.6,-0.7,100,7,25000,14.816,,,190,6.5,8.9,,,,,,,,25,wg-a,,,,AAXX 11064 07130 02575 21908 10070 20070 39884 49936 56007 61000 72586 82800 90600 333 10089 20065 6007=
07130,1997-11-11 12:00:00,12,994.8,0.4,82,9,35000,14.816,,,210,,,,,,,,,,,wg-a,,,,AAXX 11124 07130 12581 62108 10120 20090 39897 49948 50004 60006 84902 91200=
07130,1997-11-11 15:00:00,11,994.6,-0.2,82,8,500,11.112,,,190,,,,,,,,,,,wg-a,,,,AAXX 11154 07130 12500 61906 10110 20080 39895 49946 55002 60006 85902 91500=
07130,1997-11-11 18:00:00,8,995.7,1,93,7,35000,3.704,,,100,5.9,12.9,,,,,,,,,wg-a,,,,AAXX 11184 07130 12581 51002 10080 20070 39905 49957 53010 60006 85902 91800 333 10129 20059=
07130,1997-11-11 21:00:00,6,996.8,1.1,100,6,20000,3.704,,,280,,,,,,,,,,,wg-a,,,,AAXX 11214 07130 12170 42802 10060 20060 39916 49968 53011 60006 84500 92100=
07130,1997-11-12 00:00:00,6,997.7,0.9,100,6,9000,0,,,0,,,,,,,,,,3,wg-a,,,,AAXX 12004 07130 12659 /0000 10060 20060 39925 49977 53009 60006 70341 86600 90000=
07130,1997-11-12 03:00:00,4,998.8,1,100,4,2000,7.408,,,290,,,,,,,,,,10,wg-a,,,,AAXX 12034 07130 12420 72904 10040 20040 39935 49988 52010 60006 71022 875// 90300=
07130,1997-11-12 06:00:00,3,1000.1,1.3,100,3,200,0,,,0,2.9,7.5,,,,,,,,45,wg-a,,,,AAXX 12064 07130 02/02 90000 10030 20030 39948 40001 53013 60006 74541 89/// 90600 333 10075 20029 60004=
07130,1997-11-12 09:00:00,4,1002.3,2.2,100,4,2500,3.704,,,310,,,,,,,,,,28,wg-a,,,,AAXX 12094 07130 12225 /3102 10040 20040 39970 40023 51022 60006 72842 82630 90900=
07130,1997-11-12 12:00:00,11,1002.9,0.7,82,8,20000,3.704,,,310,,,,,,,,,,3,wg-a,,,,AAXX 12124 07130 12570 /3102 10110 20080 39977 40029 51007 60006 70341 81360 91200=
07130,1997-11-12 18:00:00,8,1005,1.3,100,8,15000,7.408,,,150,2.4,13.1,,0,,,,,,1,wg-a,,,,AAXX 12184 07130 02665 21504 10080 20080 39998 40050 51013 60006 70186 82500 91800 333 10131 20024 60007=
07130,1997-11-12 21:00:00,7,1006,1,100,7,500,7.408,,,210,,,,,,,,,,,wg-a,,,,AAXX 12214 07130 12600 /2104 10070 20070 30008 40060 51010 60006 85500 92100=
07130,1997-11-13 00:00:00,5,1006,-0.1,100,5,4000,3.704,,,150,,,,,,,,,,10,wg-a,,,,AAXX 13004 07130 12540 /1502 10050 20050 30007 40060 55001 60006 71011 81100 90000=
07130,1997-11-13 03:00:00,3,1005.6,-0.4,100,3,200,0,,,0,,,,,,,,,,45,wg-a,,,,AAXX 13034 07130 12/02 90000 10030 20030 30003 40056 56004 60006 74541 89/// 90300=
07130,1997-11-13 06:00:00,4,1005,-0.6,100,4,200,3.704,,,160,3,8.4,,,,,1,,,45,wg-a,,,,AAXX 13064 07130 02/02 91602 10040 20040 39997 40050 56006 60006 74541 89/// 90600 333 10084 20030 60014=
07130,1997-11-13 09:00:00,4,1006.2,1.2,100,4,300,3.704,,,170,,,,,,,,,,43,wg-a,,,,AAXX 13094 07130 12/03 91702 10040 20040 30009 40062 53012 60006 74344 89/// 90900=
07130,1997-11-13 12:00:00,12,1005.6,-0.4,82,9,15000,11.112,,,230,,,,,,,,,,3,wg-a,,,,AAXX 13124 07130 12465 32306 10120 20090 30005 40056 58004 60006 70341 81101 91200=
07130,1997-11-13 15:00:00,12,1005.7,0.1,67,6,20000,7.408,,,260,,,,,,,,,,,wg-a,,,,AAXX 13154 07130 12570 /2604 10120 20060 30006 40057 53001 60006 86331 91500=
07130,1997-11-13 18:00:00,8,1007.3,1.5,87,6,20000,3.704,,,240,2.9,12.8,,,,,,,,,wg-a,,,,AAXX 13184 07130 12570 52402 10080 20060 30021 40073 53015 60006 81231 91800 333 10128 20029=
07130,1997-11-13 21:00:00,5,1009.2,1.8,93,4,20000,3.704,,,230,,,,,,,,,,,wg-a,,,,AAXX 13214 07130 12/70 12302 10050 20040 30039 40092 51018 60006 80001 92100=
07130,1997-11-14 00:00:00,4,1010,0.8,100,4,15000,3.704,,,210,,,,,,,,,,11,wg-a,,,,AAXX 14004 07130 12/65 /2102 10040 20040 30047 40100 53008 60006 71111 80001 90000=
07130,1997-11-14 03:00:00,2,1011.1,1,100,2,300,0,,,0,,,,,,,,,,41,wg-a,,,,AAXX 14034 07130 12/03 40000 10020 20020 30057 40111 53010 60006 74141 84030 90300=
07130,1997-11-14 06:00:00,3,1011.6,0.6,100,3,6000,0,,,0,2,8.1,,,,,,,,1,wg-a,,,,AAXX 14064 07130 02556 70000 10030 20030 30063 40116 53006 60006 70141 8253/ 90600 333 10081 20020 60004=
07130,1997-11-14 09:00:00,6,1012.7,1.1,100,6,8000,7.408,,,140,,,,,,,,,,,wg-a,,,,AAXX 14094 07130 12658 /1404 10060 20060 30074 40127 52011 60006 86601 90900=
07130,1997-11-14 12:00:00,13,1012.9,0.3,77,9,20000,22.224,,,190,,,,,,,,,,,wg-a,,,,AAXX 14124 07130 12670 51912 10130 20090 30077 40129 50003 60006 82802 91200=
07130,1997-11-14 15:00:00,14,1012.5,-0.3,82,11,35000,18.52,,,200,,,,,,,,,,,wg-a,,,,AAXX 14154 07130 12581 /2010 10140 20110 30074 40125 58003 60006 85802 91500=
07130,1997-11-14 18:00:00,13,1013.8,1.2,94,12,25000,18.52,,,190,2.8,14.8,,,,,,,,,wg-a,,,,AAXX 14184 07130 12475 81910 10130 20120 30086 40138 51012 60006 875// 91800 333 10148 20028=
07130,1997-11-14 21:00:00,13,1014.2,0.4,94,12,15000,11.112,,,190,,,,,,,,,,,wg-a,,,,AAXX 14214 07130 12365 81906 10130 20120 30090 40142 53004 60006 885// 92100=
07130,1997-11-15 00:00:00,13,1014.4,0.2,100,13,15000,14.816,,,180,,,,,,,,,,,wg-a,,,,AAXX 15004 07130 12265 81808 10130 20130 30092 40144 51002 60006 885// 90000=
07130,1997-11-15 03:00:00,14,1014.4,0.1,100,14,15000,14.816,,,190,,,,1,,,,,,,wg-a,,,,AAXX 15034 07130 12265 81908 10140 20140 30093 40144 50001 60017 885// 90300=
07130,1997-11-15 06:00:00,14,1014.9,0.5,100,14,15000,11.112,,,210,12.9,13.9,,,,,1,,,,wg-a,,,,AAXX 15064 07130 02365 72106 10140 20140 30098 40149 53005 60006 876// 90600 333 10139 20129 60014=
07130,1997-11-15 09:00:00,14,1015.8,0.9,100,14,2000,14.816,,,200,,,,,,,,,,10,wg-a,,,,AAXX 15094 07130 12120 82008 10140 20140 30107 40158 53009 60006 71022 886// 90900=
07130,1997-11-15 12:00:00,15,1015.5,-0.3,100,15,2000,14.816,,,200,,,,0,,,,,,10,wg-a,,,,AAXX 15124 07130 02120 82008 10150 20150 30104 40155 58003 60006 71052 887// 91200 333 60007=
07130,1997-11-15 15:00:00,16,1015.1,-0.4,100,16,9000,11.112,,,210,,,,0,,,,,,1,wg-a,,,,AAXX 15154 07130 12259 82106 10160 20160 30100 40151 55004 60007 70152 877// 91500=
07130,1997-11-15 18:00:00,16,1016.1,1,100,16,6000,14.816,,,220,13.3,15.9,,,,,,,,2,wg-a,,,,AAXX 15184 07130 02256 82208 10160 20160 30110 40161 51010 60006 70252 877// 91800 333 10159 20133 61000=
07130,1997-11-15 21:00:00,15,1016.2,0.1,100,15,6000,14.816,,,230,,,,,,,,,,,wg-a,,,,AAXX 15214 07130 12256 82308 10150 20150 30111 40162 51001 60006 877// 92100=
07130,1997-11-16 00:00:00,15,1016.5,0.3,100,15,6000,7.408,,,180,,,,,,,,,,,wg-a,,,,AAXX 16004 07130 12356 81804 10150 20150 30114 40165 51003 60006 875// 90000=
07130,1997-11-16 03:00:00,14,1015.5,-1,100,14,6000,14.816,,,190,,,,,,,,,,,wg-a,,,,AAXX 16034 07130 12256 81908 10140 20140 30104 40155 58010 60006 875// 90300=
07130,1997-11-16 06:00:00,13,1015.4,-0.2,100,13,6000,11.112,,,160,12.9,15.5,,,,,,,,,wg-a,,,,AAXX 16064 07130 02256 /1606 10130 20130 30102 40154 56002 60006 83541 90600 333 10155 20129 60004=
07130,1997-11-16 09:00:00,13,1015.3,-0.1,82,10,10000,14.816,,,170,,,,,,,,,,,wg-a,,,,AAXX 16094 07130 12860 51708 10130 20100 30101 40153 55001 60006 85032 90900=
07130,1997-11-16 12:00:00,15,1014.3,-0.9,77,11,15000,14.816,,,190,,,,,,,,,,,wg-a,,,,AAXX 16124 07130 12865 71908 10150 20110 30092 40143 58009 60006 8703/ 91200=
07130,1997-11-16 15:00:00,15,1014.1,-0.2,82,12,15000,14.816,,,190,,,,,,,,,,,wg-a,,,,AAXX 16154 07130 12865 71908 10150 20120 30090 40141 55002 60006 8707/ 91500=
07130,1997-11-16 18:00:00,14,1014.6,0.4,88,12,15000,11.112,,,170,12.2,14.9,,,,,,,,,wg-a,,,,AAXX 16184 07130 12565 71706 10140 20120 30094 40146 53004 60006 875// 91800 333 10149 20122=
07130,1997-11-16 21:00:00,13,1014.7,0.1,94,12,8000,11.112,,,170,,,,,,,,,,,wg-a,,,,AAXX 16214 07130 12458 71706 10130 20120 30095 40147 50001 60006 875// 92100=
07130,1997-11-17 00:00:00,13,1014.6,-0.1,100,13,8000,11.112,,,190,,,,,,,,,,,wg-a,,,,AAXX 17004 07130 12258 81906 10130 20130 30094 40146 58001 60006 886// 90000=
07130,1997-11-17 03:00:00,13,1014.3,-0.3,100,13,500,11.112,,,190,,,,,,,,,,,wg-a,,,,AAXX 17034 07130 12200 81906 10130 20130 30091 40143 55003 60006 886// 90300=
07130,1997-11-17 06:00:00,12,1013.7,-0.6,100,12,900,7.408,,,130,11.4,13.5,,,,,,,,42,wg-a,,,,AAXX 17064 07130 02109 91304 10120 20120 30085 40137 56006 60006 74242 896// 90600 333 10135 20114 60004=
07130,1997-11-17 09:00:00,12,1013.1,-0.6,100,12,2000,7.408,,,150,,,,,,,,,,10,wg-a,,,,AAXX 17094 07130 12120 81504 10120 20120 30079 40131 56006 60006 71042 8657/ 90900=
07130,1997-11-17 12:00:00,14,1011,-2,94,13,7000,11.112,,,160,,,,0,,,,,,21,wg-a,,,,AAXX 17124 07130 02457 81606 10140 20130 30059 40110 58020 60006 72142 8157/ 91200 333 60007=
07130,1997-11-17 15:00:00,15,1009.4,-1.6,88,13,8000,14.816,,,140,,,,,,,,,,61,wg-a,,,,AAXX 17154 07130 02758 81408 10150 20130 30043 40094 55016 61000 76122 8557/ 91500 333 ////=
07130,1997-11-17 18:00:00,14,1006.9,-2.5,88,12,8000,14.816,,,140,11.4,15.6,,0,,,,,,1,wg-a,,,,AAXX 17184 07130 02758 71408 10140 20120 30018 40069 58025 60006 70162 8557/ 91800 333 10156 20114 60007=
07130,1997-11-17 21:00:00,15,1004.7,-2.2,82,12,20000,22.224,,,150,,,,,,,,,,,wg-a,,,,AAXX 17214 07130 12770 81512 10150 20120 39996 40047 56022 60006 8557/ 92100=
07130,1997-11-18 00:00:00,14,1002.3,-2.4,88,12,20000,18.52,,,140,,,,,,,,,,,wg-a,,,,AAXX 18004 07130 12770 71410 10140 20120 39972 40023 56024 60006 8253/ 90000=
07130,1997-11-18 06:00:00,13,1001.1,0.3,94,12,15000,18.52,,,170,13.1,14.6,,,,,,,,61,wg-a,,,,AAXX 18064 07130 02665 81710 10130 20120 39960 40011 52003 61000 76162 875// 90600 333 10146 20131 6001=
07130,1997-11-18 09:00:00,13,1002.2,1.1,100,13,6000,22.224,,,170,,,,2,,,,,,61,wg-a,,,,AAXX 18094 07130 12356 81712 10130 20130 39971 40022 51011 60027 76166 877// 90900=
07130,1997-11-18 18:00:00,13,1004.2,0.3,94,12,9000,7.408,,,200,12.5,15.4,,,,,,,,,wg-a,,,,AAXX 18184 07130 12/59 22004 10130 20120 39991 40042 53003 60006 91800 333 10154 20125=
07130,1997-11-19 00:00:00,12,1002.5,-1.1,100,12,7000,11.112,,,180,,,,,,,,,,,wg-a,,,,AAXX 19004 07130 12357 81806 10120 20120 39974 40025 58011 60006 88600 90000=
07130,1997-11-19 06:00:00,12,997.7,-2.1,100,12,10000,25.928,,,180,11.4,12.7,,,,,,,,60,wg-a,,,,AAXX 19064 07130 02460 81814 10120 20120 39923 49977 56021 61000 76062 8657/ 90600 333 10127 20114 6003=
07130,1997-11-19 12:00:00,15,996.8,-0.8,82,12,12000,25.928,,,220,,,,,,,,,,25,wg-a,,,,AAXX 19124 07130 12562 /2214 10150 20120 39918 49968 58008 60046 72561 86200 91200=
07130,1997-11-19 15:00:00,15,995.8,-1,77,11,20000,25.928,,,220,,,,,,,,,,,wg-a,,,,AAXX 19154 07130 12570 /2214 10150 20110 39908 49958 56010 60006 84200 91500=
07130,1997-11-19 18:00:00,13,996.6,0.7,82,10,10000,22.224,,,210,12,16.4,,0,,,,,,1,wg-a,,,,AAXX 19184 07130 02560 /2112 10130 20100 39915 49966 51007 60006 70186 82270 91800 333 10164 20120 60007=
07130,1997-11-19 21:00:00,11,996.1,-0.5,87,9,20000,22.224,,,190,,,,,,,,,,,wg-a,,,,AAXX 19214 07130 12/70 21912 10110 20090 39910 49961 56005 60006 82030 92100=
07130,1997-11-20 03:00:00,12,990.9,-1.7,94,11,20000,29.632,,,210,,,,4,,,,,,61,wg-a,,,,AAXX 20034 07130 12570 72116 10120 20110 39858 49909 56017 60047 76166 8587/ 90300=
07130,1997-11-20 06:00:00,11,992,1.1,87,9,15000,18.52,,,250,10.7,13,,,,,,,,80,wg-a,,,,AAXX 20064 07130 02565 72510 10110 20090 39869 49920 53011 61000 78086 8637/ 90600 333 10130 20107 6011=
07130,1997-11-20 09:00:00,10,994.3,2.3,87,8,25000,22.224,,,240,,,,1,,,,,,3,wg-a,,,,AAXX 20094 07130 12575 62412 10100 20080 39892 49943 51023 60017 70386 84902 90900=
07130,1997-11-20 12:00:00,13,995.5,1.2,77,9,35000,25.928,,,230,,,,,,,,,,2,wg-a,,,,AAXX 20124 07130 12581 /2314 10130 20090 39904 49955 51012 60016 70286 83902 91200=
07130,1997-11-20 15:00:00,12,997.5,2,82,9,35000,18.52,,,250,,,,,,,,,,3,wg-a,,,,AAXX 20154 07130 02581 /2510 10120 20090 39924 49975 53020 61000 70386 85902 91500 333 ////=
07130,1997-11-20 18:00:00,10,1000.1,2.6,87,8,500,11.112,,,240,9.2,13.6,,,,,,,,1,wg-a,,,,AAXX 20184 07130 12500 22406 10100 20080 39950 40001 52026 60006 70186 82202 91800 333 10136 20092=
07130,1997-11-20 21:00:00,9,1002,1.8,87,7,25000,11.112,,,210,,,,,,,,,,,wg-a,,,,AAXX 20214 07130 12/75 02106 10090 20070 39968 40020 51018 60006 80000 92100=
07130,1997-11-21 00:00:00,8,1003.5,1.5,93,7,25000,11.112,,,220,,,,1,,,,,,,wg-a,,,,AAXX 21004 07130 02675 42206 10080 20070 39983 40035 51015 60016 84500 90000 333 60017=
07130,1997-11-21 03:00:00,7,1004,0.5,93,6,10000,7.408,,,190,,,,,,,,,,,wg-a,,,,AAXX 21034 07130 12/60 /1904 10070 20060 39988 40040 53005 60006 90300=
07130,1997-11-21 06:00:00,7,1004.2,0.2,93,6,25000,11.112,,,190,7.2,9.9,,,,,3,,,,wg-a,,,,AAXX 21064 07130 02675 21906 10070 20060 39990 40042 53002 60006 82500 90600 333 10099 20072 60034=
07130,1997-11-21 09:00:00,8,1005.7,1.5,87,6,35000,7.408,,,170,,,,,,,,,,,wg-a,,,,AAXX 21094 07130 12681 31704 10080 20060 30005 40057 53015 60006 81903 90900=
07130,1997-11-21 12:00:00,12,1006.2,0.6,82,9,35000,18.52,,,200,,,,0,,,,,,2,wg-a,,,,AAXX 21124 07130 02581 /2010 10120 20090 30011 40062 50006 60016 70281 81903 91200 333 60007=
07130,1997-11-21 15:00:00,13,1006.3,0.1,72,8,12000,18.52,,,200,,,,,,,,,,15,wg-a,,,,AAXX 21154 07130 12562 42010 10130 20080 30012 40063 53001 60006 71500 84903 91500=
07130,1997-11-21 18:00:00,8,1007.8,1.4,87,6,35000,7.408,,,160,6.3,13,,,,,,,,,wg-a,,,,AAXX 21184 07130 12581 /1604 10080 20060 30026 40078 51014 60006 81200 91800 333 10130 20063=
07130,1997-11-21 21:00:00,7,1008.9,1.1,87,5,15000,11.112,,,170,,,,,,,,,,15,wg-a,,,,AAXX 21214 07130 12665 /1706 10070 20050 30037 40089 51011 60006 71511 85200 92100=
07130,1997-11-22 00:00:00,6,1009.6,0.6,93,5,20000,7.408,,,150,,,,,,,,,,,wg-a,,,,AAXX 22004 07130 12670 /1504 10060 20050 30043 40096 52006 60006 81200 90000=
07130,1997-11-22 03:00:00,5,1010,0.4,100,5,9000,0,,,0,,,,,,,,,,,wg-a,,,,AAXX 22034 07130 12559 /0000 10050 20050 30047 40100 53004 60006 81200 90300=
07130,1997-11-22 06:00:00,5,1010.7,0.7,100,5,12000,7.408,,,180,4,8.2,,,,,,,,,wg-a,,,,AAXX 22064 07130 02562 41804 10050 20050 30054 40107 53007 60006 84800 90600 333 10082 20040 60004=
07130,1997-11-22 09:00:00,7,1012.2,1.5,93,6,12000,7.408,,,120,,,,,,,,,,,wg-a,,,,AAXX 22094 07130 12662 /1204 10070 20060 30069 40122 51015 60006 84930 90900=
07130,1997-11-22 12:00:00,10,1012.7,0.6,76,6,20000,11.112,,,160,,,,,,,,,,,wg-a,,,,AAXX 22124 07130 12670 41606 10100 20060 30075 40127 51006 60006 81961 91200=
07130,1997-11-22 15:00:00,11,1013.4,0.7,82,8,20000,7.408,,,210,,,,,,,,,,,wg-a,,,,AAXX 22154 07130 12670 /2104 10110 20080 30082 40134 51007 60006 85960 91500=
07130,1997-11-22 18:00:00,8,1014.7,1.2,93,7,20000,3.704,,,150,4.7,11,,,,,,,,,wg-a,,,,AAXX 22184 07130 12/70 01502 10080 20070 30094 40147 53012 60006 80000 91800 333 10110 20047=
07130,1997-11-22 21:00:00,5,1016.2,1.5,100,5,300,3.704,,,120,,,,,,,,,,10,wg-a,,,,AAXX 22214 07130 12/03 01202 10050 20050 30109 40162 51015 60006 71040 80000 92100=
07130,1997-11-23 00:00:00,2,1017.5,1.2,100,2,900,3.704,,,100,,,,,,,,,,41,wg-a,,,,AAXX 23004 07130 12/09 01002 10020 20020 30121 40175 53012 60006 74140 80000 90000=
07130,1997-11-23 03:00:00,2,1017.4,-0.1,100,2,200,3.704,,,120,,,,,,,,,,45,wg-a,,,,AAXX 23034 07130 12/02 91202 10020 20020 30120 40174 55001 60006 74544 89/// 90300=
07130,1997-11-23 06:00:00,3,1017.6,0.2,100,3,200,11.112,,,130,1.6,7.5,,,,,,,,45,wg-a,,,,AAXX 23064 07130 02/02 91306 10030 20030 30122 40176 52002 60006 74544 89/// 90600 333 10075 20016 60004=
07130,1997-11-23 12:00:00,9,1017,-1.2,87,7,13000,14.816,,,160,,,,,,,,,,1,wg-a,,,,AAXX 23124 07130 12463 71608 10090 20070 30117 40170 58012 60006 70142 81132 91200=
07130,1997-11-23 15:00:00,10,1015.2,-1.7,87,8,20000,14.816,,,140,,,,,,,,,,,wg-a,,,,AAXX 23154 07130 12470 81408 10100 20080 30100 40152 56017 60006 8117/ 91500=
07130,1997-11-23 18:00:00,8,1015,-0.3,100,8,10000,18.52,,,150,2.5,10,,,,,,,,3,wg-a,,,,AAXX 23184 07130 02360 81510 10080 20080 30097 40150 55003 60006 70362 8377/ 91800 333 10100 20025 61000=
07130,1997-11-23 21:00:00,8,1014.3,-0.7,93,7,15000,18.52,,,150,,,,,,,,,,1,wg-a,,,,AAXX 23214 07130 02565 81510 10080 20070 30090 40143 58007 61000 70152 875// 92100 333 ////=
07130,1997-11-24 00:00:00,8,1013.6,-0.7,87,6,15000,18.52,,,140,,,,,,,,,,2,wg-a,,,,AAXX 24004 07130 02565 81410 10080 20060 30083 40136 58007 61000 70252 875// 90000 333 ////=
07130,1997-11-24 03:00:00,7,1012,-1.6,93,6,15000,18.52,,,140,,,,0,,,,,,,wg-a,,,,AAXX 24034 07130 12565 81410 10070 20060 30067 40120 58016 60007 875// 90300=
07130,1997-11-24 06:00:00,7,1010.1,-1.9,93,6,12000,18.52,,,170,6.7,8.4,,,,,,,,21,wg-a,,,,AAXX 24064 07130 02562 81710 10070 20060 30048 40101 57019 61000 72162 8557/ 90600 333 10084 20067 6002=
07130,1997-11-24 12:00:00,8,1005.7,-2.4,87,6,12000,18.52,,,130,,,,,,,,,,,wg-a,,,,AAXX 24124 07130 12462 /1310 10080 20060 30005 40057 58024 60006 81132 91200=
07130,1997-11-24 15:00:00,9,1002.7,-3,81,6,10000,18.52,,,120,,,,,,,,,,,wg-a,,,,AAXX 24154 07130 12/60 81210 10090 20060 39975 40027 56030 60006 8707/ 91500=
07130,1997-11-24 18:00:00,8,1002.3,-0.4,81,5,15000,18.52,,,130,6.7,9.1,,,,,,,,,wg-a,,,,AAXX 24184 07130 12865 81310 10080 20050 39971 40023 55004 60006 8807/ 91800 333 10091 20067=
07130,1997-11-24 21:00:00,7,1001.9,-0.4,87,5,15000,11.112,,,140,,,,,,,,,,,wg-a,,,,AAXX 24214 07130 12865 81406 10070 20050 39967 40019 55004 60006 8807/ 92100=
07130,1997-11-25 00:00:00,6,1001.2,-0.7,93,5,15000,7.408,,,120,,,,,,,,,,,wg-a,,,,AAXX 25004 07130 12565 /1204 10060 20050 39960 40012 56007 60006 82530 90000=
07130,1997-11-25 03:00:00,8,1000.7,-0.5,100,8,15000,7.408,,,150,,,,,,,,,,60,wg-a,,,,AAXX 25034 07130 02865 81504 10080 20080 39955 40007 56005 61000 76062 88070 90300 333 ////=
07130,1997-11-25 06:00:00,10,1000.4,-0.2,100,10,10000,14.816,,,170,6.2,10.2,,,,,,,,3,wg-a,,,,AAXX 25064 07130 02260 81708 10100 20100 39953 40004 57002 61000 70362 887// 90600 333 10102 20062 6100=
07130,1997-11-25 09:00:00,10,1001.3,0.8,100,10,3500,11.112,,,170,,,,1,,,,,,20,wg-a,,,,AAXX 25094 07130 12235 81706 10100 20100 39961 40013 53008 60017 72052 887// 90900=
07130,1997-11-25 12:00:00,11,1001,-0.2,100,11,4000,11.112,,,160,,,,,,,,,,10,wg-a,,,,AAXX 25124 07130 12140 81606 10110 20110 39959 40010 58002 60016 71052 887// 91200=
07130,1997-11-25 18:00:00,10,1000.4,0.3,100,10,9000,11.112,,,100,9.5,12.8,,,,,,,,,wg-a,,,,AAXX 25184 07130 12559 /1006 10100 20100 39953 40004 51003 60006 83501 91800 333 10128 20095=
07130,1997-11-25 21:00:00,10,1000.6,0.1,93,9,10000,11.112,,,110,,,,,,,,,,,wg-a,,,,AAXX 25214 07130 12/60 81106 10100 20090 39954 40006 53001 60006 84031 92100=
07130,1997-11-26 00:00:00,10,1000.2,-0.4,87,8,15000,11.112,,,90,,,,,,,,,,,wg-a,,,,AAXX 26004 07130 12/65 80906 10100 20080 39950 40002 58004 60006 8707/ 90000=
07130,1997-11-26 03:00:00,9,1000.1,-0.1,93,8,15000,7.408,,,100,,,,,,,,,,,wg-a,,,,AAXX 26034 07130 12/65 71004 10090 20080 39949 40001 57001 60006 8707/ 90300=
07130,1997-11-26 06:00:00,9,1000.6,0.5,87,7,15000,3.704,,,60,8.3,10,,,,,1,,,,wg-a,,,,AAXX 26064 07130 02/65 80602 10090 20070 39954 40006 53005 60006 8707/ 90600 333 10100 20083 60014=
07130,1997-11-26 09:00:00,9,1002.2,1.6,93,8,12000,3.704,,,100,,,,,,,,,,60,wg-a,,,,AAXX 26094 07130 02562 81002 10090 20080 39970 40022 53016 61000 76062 8157/ 90900 333 ////=
07130,1997-11-26 12:00:00,10,1002.6,0.4,87,8,12000,11.112,,,110,,,,0,,,,,,60,wg-a,,,,AAXX 26124 07130 02562 81106 10100 20080 39974 40026 50004 60006 76062 8557/ 91200 333 60007=
07130,1997-11-26 15:00:00,11,1002.6,0.1,87,9,10000,11.112,,,100,,,,,,,,,,3,wg-a,,,,AAXX 26154 07130 02660 81006 10110 20090 39975 40026 53001 61000 70362 8657/ 91500 333 ////=
07130,1997-11-26 18:00:00,11,1003.9,1.2,94,10,10000,7.408,,,130,8.4,11.1,,1,,,,,,1,wg-a,,,,AAXX 26184 07130 02560 71304 10110 20100 39987 40039 51012 60006 70162 878// 91800 333 10111 20084 60017=
07130,1997-11-26 21:00:00,12,1004.6,0.8,94,11,8000,14.816,,,150,,,,,,,,,,,wg-a,,,,AAXX 26214 07130 32/58 /1508 10120 20110 39995 40046 53008 92100=
07130,1997-11-27 00:00:00,12,1005.4,0.8,100,12,4500,7.408,,,280,,,,,,,,,,10,wg-a,,,,AAXX 27004 07130 02245 82804 10120 20120 30003 40054 51008 60006 71086 887// 90000 333 61000=
07130,1997-11-27 03:00:00,10,1007.2,1.7,93,9,4500,11.112,,,280,,,,0,,,,,,10,wg-a,,,,AAXX 27034 07130 12345 82806 10100 20090 30020 40072 51017 60007 71022 857// 90300=
07130,1997-11-27 06:00:00,8,1008.9,1.7,100,8,3000,7.408,,,240,7.9,12.2,,,,,2,,,10,wg-a,,,,AAXX 27064 07130 02530 /2404 10080 20080 30037 40089 53017 60006 71022 85502 90600 333 10122 20079 60024=
07130,1997-11-27 09:00:00,8,1008.9,1.7,100,8,3000,7.408,,,240,,12.2,,,,,2,,,10,wg-a,,,,AAXX 27094 07130 12530 /2404 10080 20080 30037 40089 53017 60024 71022 85502 90900 333 10122=
07130,1997-11-27 12:00:00,12,1011.8,0.7,88,10,20000,11.112,,,230,,,,,,,,,,,wg-a,,,,AAXX 27124 07130 12570 72306 10120 20100 30066 40118 50007 60006 81172 91200=
07130,1997-11-27 15:00:00,13,1011.4,-0.4,77,9,20000,11.112,,,210,,,,,,,,,,,wg-a,,,,AAXX 27154 07130 12570 72106 10130 20090 30062 40114 55004 60006 83871 91500=
07130,1997-11-27 18:00:00,12,1011.2,-0.2,82,9,14000,11.112,,,170,7.7,13.3,,,,,,,,,wg-a,,,,AAXX 27184 07130 12764 71706 10120 20090 30060 40112 58002 60006 875// 91800 333 10133 20077=
07130,1997-11-27 21:00:00,12,1009.7,-1.5,94,11,15000,22.224,,,170,,,,0,,,,,,21,wg-a,,,,AAXX 27214 07130 12465 81712 10120 20110 30045 40097 58015 60007 72162 875// 92100=
07130,1997-11-28 00:00:00,12,1007.9,-1.7,94,11,15000,25.928,,,170,,,,,,,,,,61,wg-a,,,,AAXX 28004 07130 02465 81714 10120 20110 30028 40079 56017 60006 76162 875// 90000 333 61000=
07130,1997-11-28 03:00:00,12,1005.8,-2.1,100,12,8000,25.928,,,200,,,,5,,,,,,61,wg-a,,,,AAXX 28034 07130 12258 82014 10120 20120 30007 40058 56021 60057 76166 877// 90300=
07130,1997-11-28 06:00:00,12,1005.4,-0.4,100,12,18000,18.52,,,240,11.3,12.6,,,,,7,,,1,wg-a,,,,AAXX 28064 07130 02368 /2410 10120 20120 30003 40054 55004 60006 70161 81700 90600 333 10126 20113 60074=
07130,1997-11-28 09:00:00,12,1006.5,1.1,94,11,15000,18.52,,,250,,,,0,,,,,,,wg-a,,,,AAXX 28094 07130 12565 /2510 10120 20110 30014 40065 53011 60007 81240 90900=
07130,1997-11-28 12:00:00,14,1006.2,-0.3,82,11,15000,25.928,,,230,,,,,,,,,,15,wg-a,,,,AAXX 28124 07130 12465 /2314 10140 20110 30011 40062 58003 60006 71511 85801 91200=
07130,1997-11-28 15:00:00,13,1004.7,-1.5,82,10,18000,22.224,,,220,,,,0,,,,,,1,wg-a,,,,AAXX 28154 07130 12568 72212 10130 20100 39996 40047 56015 60007 70186 8684/ 91500=
07130,1997-11-28 18:00:00,11,1004.5,-0.3,94,10,20000,14.816,,,200,10.6,15.2,,,,,,,,25,wg-a,,,,AAXX 28184 07130 02470 42008 10110 20100 39993 40045 58003 61000 72586 84800 91800 333 10152 20106 6001=
07130,1997-11-28 21:00:00,10,1004.6,0.1,100,10,15000,11.112,,,250,,,,1,,,,,,1,wg-a,,,,AAXX 28214 07130 12465 42506 10100 20100 39994 40046 53001 60017 70186 84800 92100=
07130,1997-11-29 00:00:00,11,1006.6,2,94,10,15000,14.816,,,260,,,,,,,,,,3,wg-a,,,,AAXX 29004 07130 12465 /2608 10110 20100 30014 40066 52020 60016 70386 86800 90000=
07130,1997-11-29 03:00:00,9,1007,0.4,100,9,15000,11.112,,,230,,,,,,,,,,,wg-a,,,,AAXX 29034 07130 12465 32306 10090 20090 30018 40070 50004 60006 83200 90300=
07130,1997-11-29 06:00:00,9,1006.9,-0.1,93,8,15000,7.408,,,210,8.5,11.1,,,,,3,,,,wg-a,,,,AAXX 29064 07130 02665 32104 10090 20080 30017 40069 57001 60006 81502 90600 333 10111 20085 60034=
07130,1997-11-29 09:00:00,9,1007.2,0.3,93,8,20000,14.816,,,230,,,,,,,,,,,wg-a,,,,AAXX 29094 07130 12570 52308 10090 20080 30020 40072 51003 60006 84901 90900=
07130,1997-11-29 15:00:00,12,1006.6,-0.1,82,9,500,18.52,,,300,,,,,,,,,,,wg-a,,,,AAXX 29154 07130 12500 73010 10120 20090 30015 40066 55001 60006 85902 91500=
07130,1997-11-29 18:00:00,9,1008.6,1.9,87,7,500,7.408,,,240,8.3,13.6,,,,,,,,,wg-a,,,,AAXX 29184 07130 12500 32404 10090 20070 30034 40086 51019 60006 83802 91800 333 10136 20083=
07130,1997-11-29 21:00:00,9,1009.9,1.3,93,8,25000,18.52,,,290,,,,,,,,,,,wg-a,,,,AAXX 29214 07130 12675 /2910 10090 20080 30047 40099 51013 60006 81500 92100=
07130,1997-11-30 00:00:00,8,1011.1,1.2,93,7,25000,14.816,,,280,,,,,,,,,,,wg-a,,,,AAXX 30004 07130 12775 12808 10080 20070 30059 40111 51012 60006 81500 90000=
07130,1997-11-30 03:00:00,9,1011.7,0.6,93,8,25000,18.52,,,290,,,,,,,,,,,wg-a,,,,AAXX 30034 07130 12675 32910 10090 20080 30065 40117 53006 60006 83500 90300=
07130,1997-11-30 06:00:00,8,1012.1,0.4,93,7,25000,14.816,,,280,7.7,8.9,,,,,,,,80,wg-a,,,,AAXX 30064 07130 02475 /2808 10080 20070 30069 40121 53004 61000 78086 85200 90600 333 10089 20077 6100=
07130,1997-11-30 09:00:00,9,1013.6,1.5,93,8,25000,14.816,,,280,,,,1,,,,,,1,wg-a,,,,AAXX 30094 07130 12475 42808 10090 20080 30084 40136 51015 60017 70186 84800 90900=
07130,1997-11-30 12:00:00,12,1014.5,0.9,88,10,20000,25.928,,,310,,,,,,,,,,3,wg-a,,,,AAXX 30124 07130 12470 53114 10120 20100 30093 40145 51009 60016 70386 85800 91200=
07130,1997-11-30 15:00:00,12,1015.6,1.1,71,7,25000,25.928,,,330,,,,0,,,,,,1,wg-a,,,,AAXX 30154 07130 12575 33314 10120 20070 30104 40156 53011 60007 70186 83800 91500=
07130,1997-11-30 18:00:00,9,1017.4,1.7,93,8,25000,11.112,,,300,8,13,,,,,,,,3,wg-a,,,,AAXX 30184 07130 12575 /3006 10090 20080 30121 40174 52017 60006 70386 86800 91800 333 10130 20080=
07130,1997-11-30 21:00:00,8,1018.5,1.1,100,8,15000,7.408,,,300,,,,0,,,,,,60,wg-a,,,,AAXX 30214 07130 12665 53004 10080 20080 30132 40185 51011 60007 76061 85530 92100=
07130,1997-12-01 00:00:00,8,1019.3,0.8,100,8,15000,0,,,0,,,,,,,,,,2,wg-a,,,,AAXX 01004 07130 02565 70000 10080 20080 30140 40193 53008 60006 70261 8153/ 90000 333 61000=
07130,1997-12-01 03:00:00,7,1018.8,-0.5,100,7,15000,3.704,,,260,,,,,,,,,,,wg-a,,,,AAXX 01034 07130 12665 72602 10070 20070 30135 40188 57005 60006 875// 90300=
07130,1997-12-01 06:00:00,6,1017.6,-1.2,100,6,8000,3.704,,,150,6.3,9.4,,,,,2,,,,wg-a,,,,AAXX 01064 07130 02458 81502 10060 20060 30123 40176 58012 60006 885// 90600 333 10094 20063 60024=
07130,1997-12-01 09:00:00,7,1016.1,-1.5,100,7,3500,11.112,,,160,,,,,,,,,,10,wg-a,,,,AAXX 01094 07130 02635 81606 10070 20070 30108 40161 58015 61000 71062 8657/ 90900 333 ////=
07130,1997-12-01 12:00:00,9,1013.2,-2.8,93,8,7000,11.112,,,160,,,,,,,,,,3,wg-a,,,,AAXX 01124 07130 02457 81606 10090 20080 30080 40132 58028 61000 70362 8687/ 91200 333 6100=
07130,1997-12-01 15:00:00,9,1009.5,-3.7,100,9,2500,11.112,,,150,,,,2,,,,,,61,wg-a,,,,AAXX 01154 07130 12225 81506 10090 20090 30043 40095 58037 60027 76162 8582/ 91500=
07130,1997-12-01 18:00:00,9,1005.5,-4,100,9,2500,25.928,,,190,6.4,9.6,,,,,,,,10,wg-a,,,,AAXX 01184 07130 02225 81914 10090 20090 30003 40055 58040 61000 71065 887// 91800 333 10096 20064 6003=
07130,1997-12-01 21:00:00,10,1001.1,-4.3,100,10,12000,14.816,,,220,,,,0,,,,,,3,wg-a,,,,AAXX 01214 07130 12262 82208 10100 20100 39960 40011 56043 60007 70365 88800 92100=
07130,1997-12-02 00:00:00,9,1001.4,0.2,87,7,15000,29.632,,,340,,,,,,,,,,3,wg-a,,,,AAXX 02004 07130 12465 83416 10090 20070 39962 40014 53002 60006 70365 88600 90000=
07130,1997-12-02 03:00:00,8,1002.7,1.3,87,6,10000,25.928,,,340,,,,,,,,,,61,wg-a,,,,AAXX 02034 07130 02460 83414 10080 20060 39975 40027 53013 61000 76162 88800 90300 333 ////=
07130,1997-12-02 06:00:00,7,1004.1,1.4,93,6,15000,22.224,,,350,6.5,10.9,,,,,,,,61,wg-a,,,,AAXX 02064 07130 02465 73512 10070 20060 39989 40041 53014 61000 76162 86870 90600 333 10109 20065 6006=
07130,1997-12-02 09:00:00,4,1007.5,3.3,100,4,2500,35.188,,57.412,10,,,,2,,,,,,81,wg-a,,,,AAXX 02094 07130 12425 60119 10040 20040 30022 40075 51033 60027 78186 86900 90900 333 91031=
07130,1997-12-02 12:00:00,7,1010,2.5,61,0,40000,35.188,,,350,,,,1,,,,,,3,wg-a,,,,AAXX 02124 07130 02582 43519 10070 20000 30047 40100 51025 60036 70386 84200 91200 333 60017=
07130,1997-12-02 15:00:00,7,1011.3,1.3,57,-1,40000,29.632,,,360,,,,,,,,,,,wg-a,,,,AAXX 02154 07130 12682 33616 10070 21010 30060 40113 53013 60006 83200 91500=
07130,1997-12-02 18:00:00,3,1011.6,0.2,81,0,20000,11.112,,,290,2.4,7.3,,,,,,,,,wg-a,,,,AAXX 02184 07130 12/70 12906 10030 20000 30062 40116 50002 60006 81030 91800 333 10073 20024=
07130,1997-12-02 21:00:00,3,1013.2,1.6,93,2,15000,11.112,,,350,,,,2,,,,,,60,wg-a,,,,AAXX 02214 07130 12465 83506 10030 20020 30078 40132 53016 60027 76086 885// 92100=
07130,1997-12-03 00:00:00,1,1013.9,0.7,100,1,15000,7.408,,,290,,,,,,,,,,21,wg-a,,,,AAXX 03004 07130 12/65 02904 10010 20010 30085 40139 52007 60026 72186 80000 90000=
07130,1997-12-03 03:00:00,2,1014.7,0.8,100,2,15000,11.112,,,340,,,,,,,,,,,wg-a,,,,AAXX 03034 07130 12665 43406 10020 20020 30093 40147 53008 60006 84500 90300=
07130,1997-12-03 06:00:00,3,1015.7,1,93,2,15000,11.112,,,10,-0.1,4.3,,,,,4,,,,wg-a,,,,AAXX 03064 07130 02665 20106 10030 20020 30103 40157 53010 60006 82500 90600 333 10043 21001 60044=
07130,1997-12-03 12:00:00,8,1017.9,0.6,71,3,35000,22.224,,,30,,,,,,,,,,,wg-a,,,,AAXX 03124 07130 12581 50312 10080 20030 30126 40179 50006 60006 85800 91200=
07130,1997-12-03 15:00:00,7,1018,0.1,76,3,35000,14.816,,,40,,,,,,,,,,,wg-a,,,,AAXX 03154 07130 12581 30408 10070 20030 30127 40180 52001 60006 83200 91500=
07130,1997-12-03 18:00:00,2,1018.8,0.7,93,1,25000,7.408,,,340,1.5,7.8,,,,,,,,,wg-a,,,,AAXX 03184 07130 12675 /3404 10020 20010 30134 40188 51007 60006 81500 91800 333 10078 20015=
07130,1997-12-03 21:00:00,1,1019.4,0.6,93,0,20000,3.704,,,320,,,,,,,,,,,wg-a,,,,AAXX 03214 07130 12770 13202 10010 20000 30140 40194 51006 60006 81500 92100=
07130,1997-12-04 00:00:00,-1,1019.7,0.2,100,-1,500,3.704,,,330,,,,,,,,,,12,wg-a,,,,AAXX 04004 07130 12/00 03302 11010 21010 30142 40197 51002 60006 71200 80000 90000=
07130,1997-12-04 03:00:00,-2,1019.8,0.1,100,-2,800,3.704,,,270,,,,,,,,,,41,wg-a,,,,AAXX 04034 07130 12/08 02702 11020 21020 30143 40198 53001 60006 74140 80000 90300=
07130,1997-12-04 06:00:00,-2,1019.8,-0,100,-2,800,3.704,,,290,-2.4,3,,,,,,,,48,wg-a,,,,AAXX 04064 07130 02/08 02902 11020 21020 30143 40198 55000 60006 74840 80000 90600 333 10030 21024 60004=
07130,1997-12-04 09:00:00,-1,1020.3,0.5,100,-1,3000,3.704,,,330,,,,,,,,,,10,wg-a,,,,AAXX 04094 07130 12630 /3302 11010 21010 30148 40203 53005 60006 71041 81502 90900=
07130,1997-12-04 12:00:00,6,1019.7,-0.4,87,4,20000,18.52,,,20,,,,,,,,,,1,wg-a,,,,AAXX 04124 07130 12570 40210 10060 20040 30144 40197 58004 60006 70141 81802 91200=
07130,1997-12-04 15:00:00,6,1019.4,-0.3,81,3,25000,18.52,,,30,,,,,,,,,,1,wg-a,,,,AAXX 04154 07130 02575 /0310 10060 20030 30141 40194 55003 61000 70186 85800 91500 333 ////=
07130,1997-12-04 18:00:00,4,1020.7,1.2,87,2,20000,11.112,,,30,-2.5,7.4,,,,,,,,1,wg-a,,,,AAXX 04184 07130 12670 20306 10040 20020 30153 40207 51012 60006 70186 82500 91800 333 10074 21025=
07130,1997-12-04 21:00:00,4,1022,1.3,70,-1,15000,14.816,,,50,,,,,,,,,,,wg-a,,,,AAXX 04214 07130 12665 20508 10040 21010 30166 40220 51013 60006 82500 92100=
07130,1997-12-05 00:00:00,1,1023.1,1,86,-1,15000,7.408,,,30,,,,,,,,,,,wg-a,,,,AAXX 05004 07130 12/65 00304 10010 21010 30176 40231 50010 60006 80000 90000=
07130,1997-12-05 03:00:00,0,1023.6,0.5,86,-2,15000,11.112,,,10,,,,,,,,,,,wg-a,,,,AAXX 05034 07130 12/65 00106 10000 21020 30181 40236 53005 60006 80000 90300=
07130,1997-12-05 06:00:00,-1,1024.1,0.5,93,-2,12000,11.112,,,40,-1,4.9,,,,,,,,,wg-a,,,,AAXX 05064 07130 02/62 00406 11010 21020 30186 40241 53005 60006 80000 90600 333 10049 21010 61000=
07130,1997-12-05 09:00:00,-1,1025.7,1.6,100,-1,6000,3.704,,,270,,,,,,,,,,,wg-a,,,,AAXX 05094 07130 12/56 22702 11010 21010 30202 40257 53016 60006 80001 90900=
07130,1997-12-05 12:00:00,3,1025.9,0.3,81,0,9000,7.408,,,100,,,,,,,,,,,wg-a,,,,AAXX 05124 07130 12459 /1004 10030 20000 30205 40259 51003 60006 86500 91200=
07130,1997-12-05 15:00:00,4,1025.5,-0.4,81,1,9000,3.704,,,270,,,,,,,,,,,wg-a,,,,AAXX 05154 07130 12459 /2702 10040 20010 30201 40255 55004 60006 81130 91500=
07130,1997-12-05 18:00:00,0,1026.6,1,93,-1,10000,0,,,0,-1.1,4.2,,,,,,,,,wg-a,,,,AAXX 05184 07130 12/60 00000 10000 21010 30211 40266 52010 60006 80000 91800 333 10042 21011=
07130,1997-12-05 21:00:00,-1,1027.2,0.6,93,-2,3000,0,,,0,,,,,,,,,,10,wg-a,,,,AAXX 05214 07130 12/30 00000 11010 21020 30217 40272 53006 60006 71000 80000 92100=
07130,1997-12-06 00:00:00,-3,1027.1,-0.1,100,-3,900,0,,,0,,,,,,,,,,44,wg-a,,,,AAXX 06004 07130 12/09 00000 11030 21030 30216 40271 55001 60006 74440 80000 90000=
07130,1997-12-06 06:00:00,0,1026.2,-0.3,100,0,6000,7.408,,,150,-2.8,0.3,,,,,,,,2,wg-a,,,,AAXX 06064 07130 02756 71504 10000 20000 30207 40262 55003 60006 70241 875// 90600 333 10003 21028 60004=
07130,1997-12-06 09:00:00,-1,1026.1,-0.1,100,-1,4000,7.408,,,150,,,,,,,,,,10,wg-a,,,,AAXX 06094 07130 12/40 01504 11010 21010 30206 40261 56001 60006 71011 80000 90900=
07130,1997-12-06 12:00:00,1,1025.8,-0.3,93,0,2500,7.408,,,170,,,,,,,,,,10,wg-a,,,,AAXX 06124 07130 12225 81704 10010 20000 30203 40258 58003 60006 71011 876// 91200=
07130,1997-12-06 15:00:00,2,1024.3,-1.4,93,1,2500,7.408,,,160,,,,,,,,,,10,wg-a,,,,AAXX 06154 07130 12525 71604 10020 20010 30189 40243 56014 60006 71022 875// 91500=
07130,1997-12-06 18:00:00,2,1024.4,0.1,93,1,2500,7.408,,,140,-0.9,2.6,,,,,,,,10,wg-a,,,,AAXX 06184 07130 12525 71404 10020 20010 30190 40244 53001 60006 71022 875// 91800 333 10026 21009=
07130,1997-12-06 21:00:00,0,1023.4,-1.1,100,0,4000,11.112,,,150,,,,,,,,,,10,wg-a,,,,AAXX 06214 07130 12/40 /1506 10000 20000 30179 40234 57011 60006 71011 80000 92100=
07130,1997-12-07 00:00:00,0,1022.3,-1.1,93,-1,6000,11.112,,,150,,,,,,,,,,,wg-a,,,,AAXX 07004 07130 12/56 01506 10000 21010 30168 40223 58011 60006 80000 90000=
07130,1997-12-07 06:00:00,-1,1017.1,-3.4,100,-1,4000,11.112,,,140,-0.9,2.1,,,,,,,,10,wg-a,,,,AAXX 07064 07130 02/40 01406 11010 21010 30117 40171 57034 60006 71000 80000 90600 333 10021 21009 60004=
07130,1997-12-07 09:00:00,0,1016.9,-0.2,93,-1,500,11.112,,,150,,,,,,,,,,,wg-a,,,,AAXX 07094 07130 12/00 /1506 10000 21010 30115 40169 58002 60006 86051 90900=
07130,1997-12-07 12:00:00,4,1014.3,-2.5,87,2,9000,14.816,,,150,,,,,,,,,,,wg-a,,,,AAXX 07124 07130 12559 /1508 10040 20020 30090 40143 58025 60006 86500 91200=
07130,1997-12-07 15:00:00,6,1011.3,-3,93,5,6000,18.52,,,170,,,,,,,,,,,wg-a,,,,AAXX 07154 07130 12356 81710 10060 20050 30060 40113 56030 60006 886// 91500=
07130,1997-12-07 18:00:00,6,1009.9,-1.4,93,5,3000,22.224,,,170,-0.8,6.6,,,,,,,,10,wg-a,,,,AAXX 07184 07130 02230 81712 10060 20050 30046 40099 58014 61000 71052 887// 91800 333 10066 21008 6100=
07130,1997-12-07 21:00:00,7,1008.5,-1.4,100,7,4500,25.928,,,190,,,,0,,,,,,10,wg-a,,,,AAXX 07214 07130 12245 81914 10070 20070 30032 40085 56014 60007 71052 887// 92100=
07130,1997-12-08 00:00:00,8,1007.7,-0.7,100,8,4500,14.816,,,200,,,,0,,,,,,10,wg-a,,,,AAXX 08004 07130 02245 /2008 10080 20080 30025 40077 55007 60016 71065 85700 90000 333 60007=
07130,1997-12-08 03:00:00,10,1007.2,-0.5,100,10,8000,14.816,,,190,,,,,,,,,,,wg-a,,,,AAXX 08034 07130 12458 /1908 10100 20100 30020 40072 56005 60006 85500 90300=
07130,1997-12-08 06:00:00,11,1006.6,-0.6,94,10,10000,18.52,,,200,5.2,10.6,,,,,1,,,,wg-a,,,,AAXX 08064 07130 02460 32010 10110 20100 30014 40066 57006 60006 83500 90600 333 10106 20052 60014=
07130,1997-12-08 09:00:00,12,1006.6,0.1,94,11,9000,22.224,,,220,,,,,,,,,,15,wg-a,,,,AAXX 08094 07130 12459 62212 10120 20110 30015 40066 53001 60006 71511 86800 90900=
07130,1997-12-08 12:00:00,13,1005,-1.6,88,11,4000,29.632,,,220,,,,,,,,,,15,wg-a,,,,AAXX 08124 07130 02440 72216 10130 20110 39999 40050 58016 61000 71586 878// 91200 333 6100=
07130,1997-12-08 15:00:00,11,1004.3,-0.7,94,10,14000,18.52,,,250,,,,3,,,,,,80,wg-a,,,,AAXX 08154 07130 12464 72510 10110 20100 39992 40043 56007 60037 78086 85802 91500=
07130,1997-12-08 18:00:00,9,1006.8,2.4,100,9,25000,11.112,,,240,9,13.7,,,,,,,,1,wg-a,,,,AAXX 08184 07130 02675 32406 10090 20090 30016 40068 53024 60006 70186 82502 91800 333 10137 20090 61000=
07130,1997-12-08 21:00:00,7,1008.8,2,100,7,25000,11.112,,,230,,,,,,,,,,,wg-a,,,,AAXX 08214 07130 12/75 02306 10070 20070 30036 40088 53020 60006 80000 92100=
07130,1997-12-09 00:00:00,7,1010.1,1.2,100,7,20000,7.408,,,250,,,,,,,,,,,wg-a,,,,AAXX 09004 07130 12770 62504 10070 20070 30048 40101 51012 60006 86500 90000=
07130,1997-12-09 03:00:00,8,1011.4,1.3,93,7,20000,11.112,,,250,,,,,,,,,,,wg-a,,,,AAXX 09034 07130 12770 82506 10080 20070 30061 40114 53013 60006 875// 90300=
07130,1997-12-09 06:00:00,8,1012.3,0.9,93,7,11000,14.816,,,220,5.8,9.1,,,,,4,,,,wg-a,,,,AAXX 09064 07130 02/61 /2208 10080 20070 30070 40123 51009 60006 90600 333 10091 20058 60044=
07130,1997-12-09 09:00:00,8,1014,1.8,100,8,15000,7.408,,,230,,,,,,,,,,,wg-a,,,,AAXX 09094 07130 12465 72304 10080 20080 30088 40140 53018 60006 838// 90900=
07130,1997-12-09 12:00:00,11,1013.4,-0.6,100,11,10000,18.52,,,220,,,,,,,,,,25,wg-a,,,,AAXX 09124 07130 02460 82210 10110 20110 30082 40134 57006 61000 72522 8687/ 91200 333 ////=
07130,1997-12-09 18:00:00,11,1014,0.5,100,11,15000,11.112,,,210,7.5,12.1,,,,,,,,2,wg-a,,,,AAXX 09184 07130 12665 72106 10110 20110 30088 40140 51005 60006 70262 8557/ 91800 333 10121 20075=
07130,1997-12-09 21:00:00,11,1013.2,-0.8,100,11,15000,18.52,,,210,,,,,,,,,,,wg-a,,,,AAXX 09214 07130 12465 72110 10110 20110 30080 40132 57008 60006 8567/ 92100=
07130,1997-12-10 00:00:00,12,1012.1,-1.1,94,11,15000,18.52,,,210,,,,,,,,,,51,wg-a,,,,AAXX 10004 07130 02465 72110 10120 20110 30069 40121 58011 61000 75151 875// 90000 333 6100=
07130,1997-12-10 03:00:00,13,1009.7,-2.3,94,12,10000,25.928,,,210,,,,,,,,,,60,wg-a,,,,AAXX 10034 07130 02460 72114 10130 20120 30046 40097 58023 61000 76065 875// 90300 333 ////=
07130,1997-12-10 06:00:00,13,1007,-2.7,94,12,4000,29.632,,,210,11.1,12.8,,,,,,,,61,wg-a,,,,AAXX 10064 07130 02340 82116 10130 20120 30019 40070 56027 61000 76165 877// 90600 333 10128 20111 6004=
07130,1997-12-10 09:00:00,13,1007.4,0.4,100,13,6000,25.928,,,230,,,,1,,,,,,51,wg-a,,,,AAXX 10094 07130 12256 82314 10130 20130 30023 40074 53004 60017 75165 877// 90900=
07130,1997-12-10 12:00:00,15,1009,1.6,94,14,500,18.52,,,260,,,,,,,,,,3,wg-a,,,,AAXX 10124 07130 02400 72610 10150 20140 30039 40090 51016 60016 70365 875// 91200 333 61000=
07130,1997-12-10 18:00:00,13,1011.8,2,94,12,25000,18.52,,,240,12.6,15.7,,,,,,,,3,wg-a,,,,AAXX 10184 07130 12875 72410 10130 20120 30067 40118 52020 60006 70352 875// 91800 333 10157 20126=
07130,1997-12-10 21:00:00,13,1011.5,-0.3,94,12,20000,14.816,,,220,,,,,,,,,,,wg-a,,,,AAXX 10214 07130 12370 82208 10130 20120 30064 40115 58003 60006 877// 92100=
07130,1997-12-11 00:00:00,14,1010.1,-1.4,100,14,9000,25.928,,,220,,,,1,,,,,,61,wg-a,,,,AAXX 11004 07130 02259 82214 10140 20140 30050 40101 56014 60016 76162 887// 90000 333 60017=
07130,1997-12-11 03:00:00,14,1009.7,-0.4,100,14,9000,18.52,,,240,,,,0,,,,,,21,wg-a,,,,AAXX 11034 07130 12259 82410 10140 20140 30046 40097 55004 60007 72162 887// 90300=
07130,1997-12-11 06:00:00,14,1008.8,-0.9,94,13,20000,18.52,,,240,12.7,14.3,,,,,,,,60,wg-a,,,,AAXX 11064 07130 02370 82410 10140 20130 30037 40088 56009 61000 76062 875// 90600 333 10143 20127 6002=
07130,1997-12-11 12:00:00,14,1008.4,0.1,94,13,20000,25.928,,,250,,,,0,,,,,,1,wg-a,,,,AAXX 11124 07130 02470 82514 10140 20130 30033 40084 50001 60016 70165 8457/ 91200 333 60007=
07130,1997-12-11 15:00:00,14,1008.2,-0.2,82,11,25000,25.928,,44.448,260,,,,,,,,,,,wg-a,,,,AAXX 11154 07130 12575 62614 10140 20110 30031 40082 55002 60006 85830 91500 333 91024=
07130,1997-12-11 18:00:00,11,1010.3,2,87,9,12000,18.52,,,270,11.4,15.4,,,,,,,,,wg-a,,,,AAXX 11184 07130 12562 42710 10110 20090 30051 40103 53020 60006 84800 91800 333 10154 20114=
07130,1997-12-11 21:00:00,10,1013,2.7,87,8,25000,14.816,,,290,,,,,,,,,,,wg-a,,,,AAXX 11214 07130 12375 32908 10100 20080 30078 40130 53027 60006 83800 92100=
07130,1997-12-12 00:00:00,8,1015.3,2.2,93,7,40000,18.52,,,280,,,,,,,,,,,wg-a,,,,AAXX 12004 07130 12/82 02810 10080 20070 30100 40153 53022 60006 80000 90000=
07130,1997-12-12 06:00:00,6,1019.7,2.2,93,5,15000,14.816,,,290,6.2,11.4,,,,,1,,,,wg-a,,,,AAXX 12064 07130 02665 /2908 10060 20050 30144 40197 53022 60006 81500 90600 333 10114 20062 60014=
07130,1997-12-12 12:00:00,12,1024.8,2.1,67,6,20000,22.224,,,360,,,,,,,,,,,wg-a,,,,AAXX 12124 07130 12570 33612 10120 20060 30196 40248 51021 60006 82201 91200=
07130,1997-12-12 18:00:00,6,1029.1,2.4,93,5,20000,3.704,,,270,5.6,11.9,,,,,,,,1,wg-a,,,,AAXX 12184 07130 02/70 12702 10060 20050 30237 40291 51024 60006 70186 80002 91800 333 10119 20056 61000=
07130,1997-12-12 21:00:00,5,1030.3,1.2,93,4,20000,7.408,,,340,,,,,,,,,,,wg-a,,,,AAXX 12214 07130 12670 /3404 10050 20040 30249 40303 53012 60006 82502 92100=
07130,1997-12-13 00:00:00,5,1031.1,0.8,100,5,20000,7.408,,,60,,,,,,,,,,,wg-a,,,,AAXX 13004 07130 12670 70604 10050 20050 30257 40311 52008 60006 84502 90000=
07130,1997-12-13 03:00:00,3,1031.7,0.6,100,3,20000,3.704,,,290,,,,,,,,,,,wg-a,,,,AAXX 13034 07130 12/70 62902 10030 20030 30263 40317 53006 60006 80002 90300=
07130,1997-12-13 06:00:00,2,1032.5,0.7,100,2,15000,0,,,0,2.4,6.4,,,,,,,,,wg-a,,,,AAXX 13064 07130 02665 30000 10020 20020 30270 40325 53007 60006 82502 90600 333 10064 20024 61000=
07130,1997-12-13 09:00:00,3,1034.1,1.6,100,3,9000,0,,,0,,,,,,,,,,1,wg-a,,,,AAXX 13094 07130 12659 /0000 10030 20030 30286 40341 53016 60006 70141 81501 90900=
07130,1997-12-13 15:00:00,11,1033.6,-0.3,54,2,35000,3.704,,,110,,,,,,,,,,,wg-a,,,,AAXX 13154 07130 12681 21102 10110 20020 30283 40336 55003 60006 81102 91500=
07130,1997-12-13 18:00:00,5,1034,0.3,81,2,25000,0,,,0,2.1,11.7,,,,,,,,,wg-a,,,,AAXX 13184 07130 12/75 60000 10050 20020 30286 40340 52003 60006 80002 91800 333 10117 20021=
07130,1997-12-14 00:00:00,3,1033.8,-0.6,100,3,8000,7.408,,,160,,,,,,,,,,,wg-a,,,,AAXX 14004 07130 12/58 /1604 10030 20030 30283 40338 58006 60006 80002 90000=
07130,1997-12-14 03:00:00,3,1033.2,-0.6,93,2,8000,3.704,,,120,,,,,,,,,,,wg-a,,,,AAXX 14034 07130 12/58 71202 10030 20020 30277 40332 58006 60006 86032 90300=
07130,1997-12-14 06:00:00,1,1032,-1.2,100,1,8000,3.704,,,100,1.4,5,,,,,,,,,wg-a,,,,AAXX 14064 07130 02/58 /1002 10010 20010 30265 40320 56012 60006 80002 90600 333 10050 20014 60004=
07130,1997-12-14 09:00:00,2,1031.9,-0.1,100,2,8000,0,,,0,,,,,,,,,,,wg-a,,,,AAXX 14094 07130 12/58 /0000 10020 20020 30264 40319 57001 60006 86030 90900=
07130,1997-12-14 12:00:00,8,1030.3,-1.4,76,4,17000,14.816,,,110,,,,,,,,,,,wg-a,,,,AAXX 14124 07130 12/67 11108 10080 20040 30250 40303 58014 60006 81030 91200=
07130,1997-12-14 15:00:00,9,1028.6,-1.7,66,3,25000,11.112,,,100,,,,,,,,,,,wg-a,,,,AAXX 14154 07130 12/75 01006 10090 20030 30233 40286 56017 60006 80000 91500=
07130,1997-12-14 18:00:00,4,1027.5,-1.2,87,2,20000,7.408,,,70,1.4,9.5,,,,,,,,,wg-a,,,,AAXX 14184 07130 12/70 00704 10040 20020 30221 40275 56012 60006 80000 91800 333 10095 20014=
07130,1997-12-14 21:00:00,4,1027.1,-0.4,87,2,20000,7.408,,,70,,,,,,,,,,,wg-a,,,,AAXX 14214 07130 12/70 00704 10040 20020 30217 40271 57004 60006 80000 92100=
07130,1997-12-15 00:00:00,3,1026.4,-0.7,100,3,20000,11.112,,,40,,,,,,,,,,,wg-a,,,,AAXX 15004 07130 12670 /0406 10030 20030 30210 40264 56007 60006 81500 90000=
07130,1997-12-15 03:00:00,4,1025.8,-0.6,93,3,15000,11.112,,,30,,,,,,,,,,,wg-a,,,,AAXX 15034 07130 12665 /0306 10040 20030 30204 40258 56006 60006 81500 90300=
07130,1997-12-15 06:00:00,3,1025.5,-0.3,93,2,15000,11.112,,,70,1.4,4.4,,,,,,,,,wg-a,,,,AAXX 15064 07130 02665 20706 10030 20020 30201 40255 55003 60006 81530 90600 333 10044 20014 60004=
07130,1997-12-15 09:00:00,3,1026.4,0.9,87,1,15000,14.816,,,30,,,,,,,,,,,wg-a,,,,AAXX 15094 07130 12465 /0308 10030 20010 30210 40264 53009 60006 81100 90900=
07130,1997-12-15 12:00:00,6,1025.6,-0.8,65,0,25000,22.224,,,60,,,,,,,,,,,wg-a,,,,AAXX 15124 07130 12475 /0612 10060 20000 30202 40256 58008 60006 81100 91200=
07130,1997-12-15 15:00:00,4,1024.5,-1.1,75,0,15000,25.928,,,70,,,,,,,,,,,wg-a,,,,AAXX 15154 07130 12565 /0714 10040 20000 30191 40245 55011 60006 85100 91500=
07130,1997-12-15 18:00:00,3,1024.7,0.2,75,-1,15000,18.52,,,50,1.7,5.9,,,,,,,,,wg-a,,,,AAXX 15184 07130 12665 70510 10030 21010 30193 40247 50002 60006 875// 91800 333 10059 20017=
07130,1997-12-15 21:00:00,4,1023.9,-0.8,65,-2,20000,25.928,,,70,,,,,,,,,,,wg-a,,,,AAXX 15214 07130 12570 80714 10040 21020 30185 40239 58008 60006 885// 92100=
07130,1997-12-16 00:00:00,3,1022.2,-1.7,75,-1,20000,22.224,,,60,,,,,,,,,,,wg-a,,,,AAXX 16004 07130 12570 80612 10030 21010 30168 40222 57017 60006 885// 90000=
07130,1997-12-16 03:00:00,3,1019.7,-2.5,75,-1,20000,18.52,,,80,,,,,,,,,,,wg-a,,,,AAXX 16034 07130 12570 80810 10030 21010 30143 40197 58025 60006 885// 90300=
07130,1997-12-16 06:00:00,2,1017,-2.7,69,-3,20000,29.632,,46.3,80,2.4,3.8,,,,,,,,,wg-a,,,,AAXX 16064 07130 02570 80816 10020 21030 30116 40170 56027 60006 885// 90600 333 10038 20024 60004 91025=
07130,1997-12-16 15:00:00,0,1007.9,-3.7,86,-2,2200,25.928,,,90,,,,,,,,,,10,wg-a,,,,AAXX 16154 07130 02222 80914 10000 21020 30025 40079 56037 61000 71076 8552/ 91500 333 ////=
07130,1997-12-16 18:00:00,0,1003.9,-4,86,-2,3500,25.928,,,90,-0.3,2.5,,,,,,,,71,wg-a,,0,,AAXX 16184 07130 02435 80914 10000 21020 39985 40039 56040 61000 77172 8652/ 91800 333 10025 21003 4/9999 6100=
07130,1997-12-16 21:00:00,1,1000.1,-3.7,93,0,500,25.928,,44.448,110,,,,2,,,,,,61,wg-a,,,,AAXX 16214 07130 12400 81114 10010 20000 39948 40001 57037 60027 76177 887// 92100 333 91024=
07130,1997-12-17 00:00:00,1,999,-1.1,100,1,7000,18.52,,,140,,,,1,,,,,,71,wg-a,,,,AAXX 17004 07130 02257 81410 10010 20010 39937 49990 56011 60036 77177 887// 90000 333 60017=
07130,1997-12-17 03:00:00,1,998.1,-0.9,100,1,7000,11.112,,,150,,,,1,,,,,,22,wg-a,,,,AAXX 17034 07130 12157 81506 10010 20010 39928 49981 56009 60017 72272 887// 90300=
07130,1997-12-17 06:00:00,1,997.2,-0.9,100,1,8000,11.112,,,140,-0.5,1.5,,,,,4,,,1,wg-a,,1,,AAXX 17064 07130 02258 81406 10010 20010 39919 49972 58009 60006 70172 885// 90600 333 10015 21005 4/001 60044=
07130,1997-12-17 09:00:00,1,997.9,0.7,100,1,8000,18.52,,,140,,,,,,,,,,,wg-a,,,,AAXX 17094 07130 12258 81410 10010 20010 39926 49979 53007 60006 887// 90900=
07130,1997-12-17 12:00:00,2,996.5,-1.4,100,2,9000,18.52,,,120,,,,,,,,,,,wg-a,,,,AAXX 17124 07130 12259 71210 10020 20020 39912 49965 58014 60006 877// 91200=
07130,1997-12-17 15:00:00,4,993.5,-2.9,100,4,1800,18.52,,,100,,,,,,,,,,10,wg-a,,,,AAXX 17154 07130 12218 81010 10040 20040 39883 49935 56029 60006 71022 887// 91500=
07130,1997-12-17 18:00:00,6,992,-1.5,100,6,8000,18.52,,,130,1.4,6.1,,0,,,,,,,wg-a,,,,AAXX 17184 07130 02258 81310 10060 20060 39868 49920 57015 60006 887// 91800 333 10061 20014 60007=
07130,1997-12-18 00:00:00,10,989.8,-0.8,87,8,20000,14.816,,,130,,,,,,,,,,,wg-a,,,,AAXX 18004 07130 12270 71308 10100 20080 39847 49898 58008 60006 875// 90000=
07130,1997-12-18 06:00:00,11,992.2,2.1,100,11,8000,18.52,,,190,6.1,12.3,,,,,,,,61,wg-a,,,,AAXX 18064 07130 02458 81910 10110 20110 39871 49922 53021 61000 76162 835// 90600 333 10123 20061 6003=
07130,1997-12-18 09:00:00,10,994.1,1.9,100,10,8000,11.112,,,190,,,,1,,,,,,2,wg-a,,,,AAXX 18094 07130 12258 81906 10100 20100 39890 49941 53019 60017 70262 8152/ 90900=
07130,1997-12-18 12:00:00,11,994.7,0.6,100,11,8000,14.816,,,190,,,,,,,,,,1,wg-a,,,,AAXX 18124 07130 12258 81908 10110 20110 39896 49947 50006 60016 70162 875// 91200=
07130,1997-12-18 15:00:00,12,995,0.3,94,11,8000,3.704,,,180,,,,,,,,,,,wg-a,,,,AAXX 18154 07130 12358 81802 10120 20110 39899 49950 52003 60006 875// 91500=
07130,1997-12-18 18:00:00,9,995.6,0.6,100,9,6000,3.704,,,180,9.4,12,,,,,,,,,wg-a,,,,AAXX 18184 07130 12/56 /1802 10090 20090 39905 49956 50006 60006 85050 91800 333 10120 20094=
07130,1997-12-18 21:00:00,8,996.5,0.8,100,8,700,7.408,,,160,,,,,,,,,,44,wg-a,,,,AAXX 18214 07130 12307 81604 10080 20080 39913 49965 53008 60006 74441 886// 92100=
07130,1997-12-19 00:00:00,8,996.6,0.1,100,8,1200,3.704,,,170,,,,,,,,,,10,wg-a,,,,AAXX 19004 07130 12412 71702 10080 20080 39914 49966 50001 60006 71041 876// 90000=
07130,1997-12-19 03:00:00,8,996.9,0.3,100,8,300,7.408,,,140,,,,,,,,,,45,wg-a,,,,AAXX 19034 07130 12/03 91404 10080 20080 39917 49969 52003 60006 74542 89/// 90300=
07130,1997-12-19 06:00:00,7,996.1,-0.8,100,7,400,11.112,,,120,7.2,9.4,,,,,1,,,45,wg-a,,,,AAXX 19064 07130 02/04 91206 10070 20070 39909 49961 55008 60006 74542 89/// 90600 333 10094 20072 60014=
07130,1997-12-19 09:00:00,8,996.5,0.4,100,8,1200,14.816,,,120,,,,,,,,,,10,wg-a,,,,AAXX 19094 07130 12112 81208 10080 20080 39913 49965 53004 60006 71042 886// 90900=
07130,1997-12-19 12:00:00,9,995.9,-0.5,100,9,6000,14.816,,,120,,,,,,,,,,1,wg-a,,,,AAXX 19124 07130 12356 71208 10090 20090 39908 49959 58005 60006 70142 878// 91200=
07130,1997-12-19 15:00:00,12,994.6,-1.3,82,9,15000,14.816,,,150,,,,,,,,,,,wg-a,,,,AAXX 19154 07130 12565 71508 10120 20090 39895 49946 56013 60006 85831 91500=
07130,1997-12-19 18:00:00,10,994.8,0.2,93,9,15000,14.816,,,150,7.4,11.8,,,,,,,,,wg-a,,,,AAXX 19184 07130 12565 41508 10100 20090 39897 49948 50002 60006 83801 91800 333 10118 20074=
07130,1997-12-19 21:00:00,10,995.8,1,93,9,8000,14.816,,,170,,,,2,,,,,,61,wg-a,,,,AAXX 19214 07130 12558 81708 10100 20090 39907 49958 53010 60027 76161 878// 92100=
07130,1997-12-20 00:00:00,8,995.4,-0.5,100,8,15000,11.112,,,160,,,,,,,,,,1,wg-a,,,,AAXX 20004 07130 12/65 01606 10080 20080 39902 49954 56005 60026 70161 80000 90000=
07130,1997-12-20 03:00:00,8,995.6,0.2,93,7,15000,11.112,,,140,,,,,,,,,,,wg-a,,,,AAXX 20034 07130 12665 /1406 10080 20070 39904 49956 52002 60006 81100 90300=
07130,1997-12-20 06:00:00,8,995.3,-0.3,93,7,15000,11.112,,,150,7.3,10.4,,,,,2,,,,wg-a,,,,AAXX 20064 07130 02565 41506 10080 20070 39901 49953 58003 60006 82801 90600 333 10104 20073 60024=
07130,1997-12-20 09:00:00,8,997.1,1.8,93,7,12000,11.112,,,130,,,,,,,,,,,wg-a,,,,AAXX 20094 07130 12462 71306 10080 20070 39919 49971 53018 60006 875// 90900=
07130,1997-12-20 18:00:00,10,1002.5,3.2,93,9,20000,11.112,,,40,7.1,11.6,,,,,,,,,wg-a,,,,AAXX 20184 07130 12570 70406 10100 20090 39973 40025 53032 60006 875// 91800 333 10116 20071=
07130,1997-12-20 21:00:00,9,1005.7,3.2,100,9,15000,11.112,,,20,,,,,,,,,,,wg-a,,,,AAXX 20214 07130 12465 70206 10090 20090 30005 40057 51032 60006 8353/ 92100=
07130,1997-12-21 00:00:00,8,1007.8,2.1,100,8,10000,7.408,,,330,,,,0,,,,,,20,wg-a,,,,AAXX 21004 07130 02460 73304 10080 20080 30026 40078 51021 60006 72051 875// 90000 333 60007=
07130,1997-12-21 03:00:00,8,1009.7,1.9,100,8,10000,11.112,,,320,,,,,,,,,,,wg-a,,,,AAXX 21034 07130 12260 73206 10080 20080 30045 40097 53019 60006 8267/ 90300=
07130,1997-12-21 06:00:00,8,1011.2,1.5,100,8,10000,7.408,,,10,7.9,9.7,,,,,,,,,wg-a,,,,AAXX 21064 07130 02760 80104 10080 20080 30060 40112 52015 60006 8553/ 90600 333 10097 20079 60004=
07130,1997-12-21 09:00:00,6,1013.2,1.9,100,6,600,3.704,,,360,,,,,,,,,,44,wg-a,,,,AAXX 21094 07130 12706 43602 10060 20060 30079 40132 53019 60006 74441 84500 90900=
07130,1997-12-21 12:00:00,11,1013.2,0.1,82,8,15000,7.408,,,110,,,,,,,,,,3,wg-a,,,,AAXX 21124 07130 12465 /1104 10110 20080 30080 40132 50001 60006 70341 81140 91200=
07130,1997-12-21 15:00:00,11,1012.7,-0.5,82,8,15000,3.704,,,140,,,,,,,,,,,wg-a,,,,AAXX 21154 07130 12565 /1402 10110 20080 30075 40127 56005 60006 81100 91500=
07130,1997-12-21 18:00:00,7,1012.9,0.1,93,6,500,7.408,,,160,6.2,11.6,,,,,,,,,wg-a,,,,AAXX 21184 07130 12/00 01604 10070 20060 30076 40129 53001 60006 80000 91800 333 10116 20062=
07130,1997-12-21 21:00:00,7,1013.6,0.7,93,6,500,18.52,,,170,,,,,,,,,,,wg-a,,,,AAXX 21214 07130 12200 81710 10070 20060 30083 40136 52007 60006 876// 92100=
07130,1997-12-22 00:00:00,6,1013.3,-0.3,100,6,500,14.816,,,150,,,,,,,,,,,wg-a,,,,AAXX 22004 07130 12200 81508 10060 20060 30080 40133 55003 60006 876// 90000=
07130,1997-12-22 03:00:00,6,1012,-1.3,100,6,500,14.816,,,120,,,,,,,,,,,wg-a,,,,AAXX 22034 07130 12200 81208 10060 20060 30067 40120 56013 60006 886// 90300=
07130,1997-12-22 06:00:00,6,1010.8,-1.2,93,5,7000,22.224,,,140,5.6,6.8,,,,,,,,,wg-a,,,,AAXX 22064 07130 02357 81412 10060 20050 30055 40108 56012 60006 876// 90600 333 10068 20056 60004=
07130,1997-12-22 09:00:00,6,1011.3,0.5,93,5,8000,18.52,,,140,,,,,,,,,,,wg-a,,,,AAXX 22094 07130 12358 81410 10060 20050 30060 40113 50005 60006 876// 90900=
07130,1997-12-22 12:00:00,7,1011,-0.3,87,5,12000,14.816,,,150,,,,,,,,,,,wg-a,,,,AAXX 22124 07130 12462 81508 10070 20050 30057 40110 58003 60006 8457/ 91200=
07130,1997-12-22 15:00:00,7,1010.1,-0.9,93,6,10000,14.816,,,130,,,,0,,,,,,60,wg-a,,,,AAXX 22154 07130 12460 81308 10070 20060 30048 40101 55009 60007 76062 8157/ 91500=
07130,1997-12-22 18:00:00,6,1011.2,1.1,100,6,6000,11.112,,,140,5.6,7.1,,,,,,,,61,wg-a,,,,AAXX 22184 07130 02256 81406 10060 20060 30059 40112 52011 61000 76162 8557/ 91800 333 10071 20056 6003=
07130,1997-12-22 21:00:00,6,1013.4,2.2,100,6,4000,7.408,,,150,,,,5,,,,,,10,wg-a,,,,AAXX 22214 07130 12340 81504 10060 20060 30081 40134 51022 60057 71066 8672/ 92100=
07130,1997-12-23 00:00:00,6,1015.3,1.9,100,6,3000,3.704,,,190,,,,1,,,,,,10,wg-a,,,,AAXX 23004 07130 02230 81902 10060 20060 30100 40153 52019 60066 71065 887// 90000 333 60017=
07130,1997-12-23 03:00:00,6,1016.5,1.2,100,6,3000,7.408,,,250,,,,,,,,,,10,wg-a,,,,AAXX 23034 07130 12/30 02504 10060 20060 30112 40165 53012 60006 71011 80000 90300=
07130,1997-12-23 06:00:00,7,1018,1.5,100,7,15000,7.408,,,240,4.9,7,,,,,9,,,,wg-a,,,,AAXX 23064 07130 02665 72404 10070 20070 30127 40180 53015 60006 875// 90600 333 10070 20049 60094=
07130,1997-12-23 12:00:00,11,1020.1,-0.2,94,10,15000,18.52,,,200,,,,,,,,,,,wg-a,,,,AAXX 23124 07130 12465 82010 10110 20100 30149 40201 58002 60006 8657/ 91200=
07130,1997-12-23 15:00:00,12,1018.8,-1.3,100,12,9000,22.224,,,210,,,,2,,,,,,51,wg-a,,,,AAXX 23154 07130 12259 82112 10120 20120 30136 40188 55013 60027 75165 875// 91500=
07130,1997-12-23 18:00:00,13,1020.5,1.7,94,12,10000,22.224,,,230,6.9,12.8,,,,,,,,21,wg-a,,,,AAXX 23184 07130 02360 82312 10130 20120 30153 40205 53017 61000 72165 875// 91800 333 10128 20069 6000=
07130,1997-12-23 21:00:00,13,1021.3,0.8,94,12,12000,18.52,,,220,,,,,,,,,,,wg-a,,,,AAXX 23214 07130 12462 82210 10130 20120 30161 40213 52008 60006 875// 92100=
07130,1997-12-24 00:00:00,13,1021.6,0.3,100,13,9000,18.52,,,230,,,,,,,,,,,wg-a,,,,AAXX 24004 07130 12459 82310 10130 20130 30164 40216 52003 60006 875// 90000=
07130,1997-12-24 03:00:00,14,1021.7,0.1,94,13,10000,18.52,,,210,,,,,,,,,,,wg-a,,,,AAXX 24034 07130 12460 82110 10140 20130 30165 40217 50001 60006 875// 90300=
07130,1997-12-24 06:00:00,13,1020.7,-1,94,12,15000,29.632,,,220,12.7,13.7,,,,,2,,,,wg-a,,,,AAXX 24064 07130 02465 82216 10130 20120 30155 40207 58010 60006 875// 90600 333 10137 20127 60024=
07130,1997-12-24 09:00:00,13,1020.4,-0.3,88,11,15000,29.632,,,210,,,,,,,,,,3,wg-a,,,,AAXX 24094 07130 02565 82116 10130 20110 30152 40204 58003 61000 70362 86502 90900 333 ////=
07130,1997-12-24 12:00:00,13,1018.8,-1.6,94,12,8000,35.188,,,210,,,,2,,,,,,61,wg-a,,,,AAXX 24124 07130 02458 82119 10130 20120 30136 40188 58016 60026 76162 8552/ 91200 333 60027=
07130,1997-12-24 15:00:00,12,1016.5,-2.3,100,12,4000,35.188,,,210,,,,6,,,,,,61,wg-a,,,,AAXX 24154 07130 12440 82119 10120 20120 30113 40165 56023 60067 76166 8652/ 91500=
07130,1997-12-24 18:00:00,13,1017.5,1,100,13,10000,22.224,,,230,12.2,13.4,,,,,,,,21,wg-a,,,,AAXX 24184 07130 02560 32312 10130 20130 30123 40175 53010 61000 72165 83500 91800 333 10134 20122 6001=
07130,1997-12-24 21:00:00,12,1019.4,1.9,76,8,20000,14.816,,,240,,,,0,,,,,,,wg-a,,,,AAXX 24214 07130 12670 22408 10120 20080 30142 40194 51019 60007 82500 92100=
07130,1997-12-25 00:00:00,11,1019.4,0,94,10,20000,18.52,,,210,,,,,,,,,,,wg-a,,,,AAXX 25004 07130 12570 /2110 10110 20100 30142 40194 50000 60006 81800 90000=
07130,1997-12-25 06:00:00,13,1013.2,-4.6,100,13,20000,22.224,,,200,9.7,13.2,,,,,,,,60,wg-a,,,,AAXX 25064 07130 02370 72012 10130 20130 30080 40132 58046 61000 76065 877// 90600 333 10132 20097 6009=
07130,1997-12-25 09:00:00,15,1010.7,-2.4,88,13,15000,35.188,,55.56,230,,,,3,,,,,,21,wg-a,,,,AAXX 25094 07130 12465 72319 10150 20130 30056 40107 56024 60037 72162 872// 90900 333 91030=
07130,1997-12-25 12:00:00,14,1008.3,-2.4,94,13,7000,50.004,,79.636,230,,,,0,,,,,,60,wg-a,,,,AAXX 25124 07130 02557 82327 10140 20130 30032 40083 56024 60046 76062 8572/ 91200 333 60007 91043=
07130,1997-12-25 15:00:00,13,1008.3,-0,82,10,9000,35.188,,55.56,240,,,,1,,,,,,25,wg-a,,,,AAXX 25154 07130 12559 72419 10130 20100 30032 40083 55000 60017 72586 852// 91500 333 91030=
07130,1997-12-25 18:00:00,11,1011,2.6,82,8,15000,22.224,,,250,10.3,15.1,,,,,,,,25,wg-a,,,,AAXX 25184 07130 02565 /2512 10110 20080 30058 40110 51026 61000 72586 85202 91800 333 10151 20103 6000=
07130,1997-12-25 21:00:00,10,1011.6,0.6,87,8,25000,25.928,,,230,,,,,,,,,,,wg-a,,,,AAXX 25214 07130 12/75 02314 10100 20080 30064 40116 50006 60006 80000 92100=
07130,1997-12-26 00:00:00,10,1011.1,-0.5,82,7,25000,22.224,,,250,,,,,,,,,,,wg-a,,,,AAXX 26004 07130 12575 42512 10100 20070 30059 40111 58005 60006 83230 90000=
07130,1997-12-26 03:00:00,10,1010.8,-0.3,82,7,25000,22.224,,,240,,,,0,,,,,,25,wg-a,,,,AAXX 26034 07130 12575 32412 10100 20070 30056 40108 58003 60007 72500 83200 90300=
07130,1997-12-26 06:00:00,9,1009.1,-1.7,87,7,20000,18.52,,,230,8.7,11.2,,,,,5,,,1,wg-a,,,,AAXX 26064 07130 02570 /2310 10090 20070 30039 40091 58017 60006 70186 81200 90600 333 10112 20087 60054=
07130,1997-12-26 09:00:00,9,1008.6,-0.5,81,6,20000,25.928,,,250,,,,,,,,,,,wg-a,,,,AAXX 26094 07130 12570 42514 10090 20060 30034 40086 55005 60006 84900 90900=
07130,1997-12-26 12:00:00,12,1008.8,0.2,71,7,15000,29.632,,,270,,,,,,,,,,15,wg-a,,,,AAXX 26124 07130 12565 72716 10120 20070 30036 40088 53002 60006 71511 879// 91200=
07130,1997-12-26 18:00:00,9,1011,1,81,6,11000,14.816,,,260,8.4,12,,,,,,,,,wg-a,,,,AAXX 26184 07130 12/61 /2608 10090 20060 30058 40110 51010 60006 91800 333 10120 20084=
07130,1997-12-26 21:00:00,7,1011.8,0.7,93,6,25000,14.816,,,250,,,,,,,,,,,wg-a,,,,AAXX 26214 07130 12675 42508 10070 20060 30065 40118 52007 60006 84500 92100=
07130,1997-12-27 00:00:00,7,1012.1,0.3,87,5,25000,14.816,,,270,,,,,,,,,,,wg-a,,,,AAXX 27004 07130 12575 /2708 10070 20050 30068 40121 51003 60006 81500 90000=
07130,1997-12-27 03:00:00,7,1012.8,0.7,93,6,25000,18.52,,,290,,,,,,,,,,,wg-a,,,,AAXX 27034 07130 12775 42910 10070 20060 30075 40128 53007 60006 84500 90300=
07130,1997-12-27 06:00:00,6,1013.6,0.8,93,5,11000,11.112,,,270,5.5,8.5,,,,,,,,,wg-a,,,,AAXX 27064 07130 02/61 /2706 10060 20050 30083 40136 53008 60006 90600 333 10085 20055 61000=
07130,1997-12-27 09:00:00,7,1015.3,1.7,87,5,50000,14.816,,,270,,,,,,,,,,,wg-a,,,,AAXX 27094 07130 12584 22708 10070 20050 30100 40153 53017 60006 82900 90900=
07130,1997-12-27 12:00:00,9,1015.7,0.4,81,6,40000,29.632,,,290,,,,,,,,,,14,wg-a,,,,AAXX 27124 07130 12582 32916 10090 20060 30104 40157 50004 60006 71411 83900 91200=
07130,1997-12-27 15:00:00,9,1015.7,0.1,81,6,500,14.816,,,280,,,,,,,,,,15,wg-a,,,,AAXX 27154 07130 12500 32808 10090 20060 30105 40157 53001 60006 71511 83900 91500=
07130,1997-12-27 18:00:00,6,1017.1,1.3,87,4,35000,3.704,,,340,5.6,10.1,,,,,,,,,wg-a,,,,AAXX 27184 07130 12581 /3402 10060 20040 30118 40171 53013 60006 81800 91800 333 10101 20056=
07130,1997-12-27 21:00:00,4,1017.2,-0,93,3,35000,11.112,,,270,,,,,,,,,,,wg-a,,,,AAXX 27214 07130 12/81 02706 10040 20030 30118 40172 55000 60006 80000 92100=
07130,1997-12-28 00:00:00,3,1017.2,0,93,2,35000,7.408,,,270,,,,,,,,,,,wg-a,,,,AAXX 28004 07130 12681 /2704 10030 20020 30118 40172 50000 60006 81100 90000=
07130,1997-12-28 03:00:00,3,1017.2,0,100,3,25000,7.408,,,200,,,,,,,,,,,wg-a,,,,AAXX 28034 07130 12675 42004 10030 20030 30118 40172 50000 60006 81501 90300=
07130,1997-12-28 06:00:00,3,1016.5,-0.7,100,3,25000,3.704,,,180,2.3,5.9,,,,,,,,,wg-a,,,,AAXX 28064 07130 02675 /1802 10030 20030 30111 40165 56007 60006 82531 90600 333 10059 20023 60004=
07130,1997-12-28 09:00:00,3,1016.5,-0,100,3,15000,3.704,,,160,,,,,,,,,,,wg-a,,,,AAXX 28094 07130 12565 /1602 10030 20030 30111 40165 55000 60006 81202 90900=
07130,1997-12-28 12:00:00,7,1015.2,-1.2,87,5,15000,7.408,,,180,,,,,,,,,,,wg-a,,,,AAXX 28124 07130 12465 41804 10070 20050 30099 40152 58012 60006 81632 91200=
07130,1997-12-28 15:00:00,10,1013.5,-1.6,76,6,25000,7.408,,,160,,,,,,,,,,,wg-a,,,,AAXX 28154 07130 12575 /1604 10100 20060 30083 40135 56016 60006 81101 91500=
07130,1997-12-28 18:00:00,6,1013.2,-0.4,93,5,15000,7.408,,,140,2.7,10.1,,,,,,,,,wg-a,,,,AAXX 28184 07130 12/65 01404 10060 20050 30079 40132 56004 60006 80000 91800 333 10101 20027=
07130,1997-12-28 21:00:00,4,1012.6,-0.6,100,4,500,11.112,,,120,,,,,,,,,,,wg-a,,,,AAXX 28214 07130 12/00 01206 10040 20040 30073 40126 57006 60006 80000 92100=
07130,1997-12-29 00:00:00,2,1012.1,-0.6,100,2,800,7.408,,,110,,,,,,,,,,45,wg-a,,,,AAXX 29004 07130 12/08 91104 10020 20020 30067 40121 56006 60006 74541 89/// 90000=
07130,1997-12-29 03:00:00,3,1011.3,-0.7,100,3,300,7.408,,,130,,,,,,,,,,45,wg-a,,,,AAXX 29034 07130 12/03 91304 10030 20030 30060 40113 56007 60006 74544 89/// 90300=
07130,1997-12-29 06:00:00,5,1010.4,-0.9,100,5,700,7.408,,,130,2,5.5,,,,,,,,45,wg-a,,,,AAXX 29064 07130 02/07 91304 10050 20050 30051 40104 56009 60006 74544 89/// 90600 333 10055 20020 60004=
07130,1997-12-29 09:00:00,6,1010.3,-0.1,100,6,3000,14.816,,,150,,,,,,,,,,10,wg-a,,,,AAXX 29094 07130 12230 81508 10060 20060 30050 40103 56001 60006 71042 886// 90900=
07130,1997-12-29 12:00:00,8,1008.9,-1.3,93,7,10000,14.816,,,150,,,,,,,,,,1,wg-a,,,,AAXX 29124 07130 12460 71508 10080 20070 30037 40089 58013 60006 70142 875// 91200=
07130,1997-12-29 15:00:00,9,1007.3,-1.6,81,6,20000,18.52,,,150,,,,,,,,,,,wg-a,,,,AAXX 29154 07130 12770 71510 10090 20060 30021 40073 56016 60006 875// 91500=
07130,1997-12-29 18:00:00,8,1006.9,-0.4,87,6,20000,14.816,,,150,5,8.9,,,,,,,,,wg-a,,,,AAXX 29184 07130 12570 71508 10080 20060 30017 40069 56004 60006 86542 91800 333 10089 20050=
07130,1997-12-30 00:00:00,8,1005.7,-0.7,100,8,12000,18.52,,,180,,,,1,,,,,,61,wg-a,,,,AAXX 30004 07130 02262 81810 10080 20080 30005 40057 58007 60016 76162 875// 90000 333 60017=
07130,1997-12-30 03:00:00,9,1006.1,0.4,100,9,8000,14.816,,,190,,,,1,,,,,,61,wg-a,,,,AAXX 30034 07130 12258 81908 10090 20090 30009 40061 53004 60017 76166 8557/ 90300=
07130,1997-12-30 06:00:00,9,1005.9,-0.2,100,9,4000,14.816,,,180,7.7,9.4,,,,,,,,10,wg-a,,,,AAXX 30064 07130 02240 81808 10090 20090 30007 40059 55002 61000 71065 888// 90600 333 10094 20077 6003=
07130,1997-12-30 09:00:00,9,1006.8,0.9,100,9,1800,14.816,,,200,,,,0,,,,,,10,wg-a,,,,AAXX 30094 07130 12118 82008 10090 20090 30016 40068 53009 60007 71052 887// 90900=
07130,1997-12-30 12:00:00,10,1006.9,0.1,100,10,10000,14.816,,,200,,,,,,,,,,3,wg-a,,,,AAXX 30124 07130 02260 62008 10100 20100 30017 40069 50001 60006 70352 86630 91200 333 61000=
07130,1997-12-30 15:00:00,12,1005.2,-1.6,82,9,15000,18.52,,,210,,,,,,,,,,,wg-a,,,,AAXX 30154 07130 12565 /2110 10120 20090 30001 40052 56016 60006 81800 91500=
07130,1997-12-30 18:00:00,10,1004.7,-0.6,93,9,15000,22.224,,,190,8.6,12.9,,,,,,,,,wg-a,,,,AAXX 30184 07130 12465 71912 10100 20090 39995 40047 58006 60006 8157/ 91800 333 10129 20086=
07130,1997-12-30 21:00:00,10,1003.2,-1.5,93,9,15000,25.928,,,200,,,,,,,,,,60,wg-a,,,,AAXX 30214 07130 02465 72014 10100 20090 39980 40032 58015 61000 76062 8652/ 92100 333 ////=
07130,1997-12-31 00:00:00,10,1001,-2.1,93,9,8000,31.484,,,210,,,,1,,,,,,61,wg-a,,,,AAXX 31004 07130 02458 82117 10100 20090 39959 40010 57021 60016 76162 875// 90000 333 60017=
07130,1997-12-31 06:00:00,9,1003.4,2.2,93,8,15000,14.816,,,300,9.2,10.7,,,,,4,,,1,wg-a,,,,AAXX 31064 07130 02465 33008 10090 20080 39982 40034 53022 60006 70161 83530 90600 333 10107 20092 60044=
07130,1997-12-31 09:00:00,8,1006.9,3.5,87,6,20000,11.112,,,260,,,,,,,,,,,wg-a,,,,AAXX 31094 07130 12/70 62606 10080 20060 30017 40069 53035 60006 82042 90900=
07130,1997-12-31 12:00:00,10,1008.3,1.4,76,6,20000,14.816,,,280,,,,,,,,,,,wg-a,,,,AAXX 31124 07130 12570 22808 10100 20060 30031 40083 50014 60006 81132 91200=
07130,1997-12-31 15:00:00,11,1009.4,1.1,62,4,500,14.816,,,260,,,,,,,,,,,wg-a,,,,AAXX 31154 07130 12600 /2608 10110 20040 30042 40094 53011 60006 81202 91500=
07130,1997-12-31 18:00:00,6,1010.7,1.2,87,4,500,7.408,,,240,6.2,11.5,,,,,,,,,wg-a,,,,AAXX 31184 07130 12500 /2404 10060 20040 30054 40107 51012 60006 81901 91800 333 10115 20062=
07130,1997-12-31 21:00:00,6,1011.7,1,93,5,20000,7.408,,,200,,,,1,,,,,,25,wg-a,,,,AAXX 31214 07130 12570 52004 10060 20050 30064 40117 52010 60017 72586 85800 92100=
