station_id,dh_utc,temperature,pression,pression_variation_3h,humidite,point_de_rosee,visibilite,vent_moyen,vent_rafales,vent_rafales_10min,vent_direction,temperature_min,temperature_max,pluie_1h,pluie_3h,pluie_6h,pluie_12h,pluie_24h,ensoleillement,temperature_sol,temps_omm,source,radiations,neige_au_sol,nebulosite,raw_msg
07790,1996-01-01 00:00:00,7,997.2,0.5,93,6,15000,3.704,,,200,,,,,,,,,,,wg-a,,,,AAXX 01004 07790 12565 32002 10070 20060 39958 49972 51005 60006 83100 90000=
07790,1996-01-01 03:00:00,7,997.6,0.3,87,5,15000,7.408,,,200,,,,,,,,,,,wg-a,,,,AAXX 01034 07790 12565 22004 10070 20050 39961 49976 53003 60006 82100 90300=
07790,1996-01-01 06:00:00,7,998.9,1.3,87,5,15000,11.112,,,280,6.4,8.5,,,,,3,,,,wg-a,,,,AAXX 01064 07790 02565 12806 10070 20050 39974 49989 53013 60006 81100 90600 333 10085 20064 60034=
07790,1996-01-01 09:00:00,13,1000.2,1.4,62,6,0,3.704,,,200,,,,,,,,,,,wg-a,,,,AAXX 01094 07790 12/// /2002 10130 20060 39988 40002 53014 60006 90900=
07790,1996-01-01 12:00:00,16,999.9,-0.3,51,6,50000,7.408,,,60,,,,,,,,,,,wg-a,,,,AAXX 01124 07790 12584 50604 10160 20060 39985 49999 58003 60006 82101 91200=
07790,1996-01-01 15:00:00,15,1000.1,0.2,82,12,20000,7.408,,,120,,,,,,,,,,,wg-a,,,,AAXX 01154 07790 12470 61204 10150 20120 39987 40001 53002 60006 83131 91500=
07790,1996-01-01 18:00:00,12,1000.4,0.3,94,11,11000,3.704,,,230,6.8,17.6,,,,,,,,,wg-a,,,,AAXX 01184 07790 12/61 /2302 10120 20110 39990 40004 53003 60006 91800 333 10176 20068=
07790,1996-01-01 21:00:00,11,999.7,-0.7,94,10,15000,3.704,,,250,,,,,,,,,,,wg-a,,,,AAXX 01214 07790 12465 72502 10110 20100 39983 49997 57007 60006 878// 92100=
07790,1996-01-02 00:00:00,11,999.1,-0.6,87,9,0,11.112,,,210,,,,,,,,,,,wg-a,,,,AAXX 02004 07790 12/// /2106 10110 20090 39977 49991 58006 60016 90000=
07790,1996-01-02 03:00:00,12,1001,1.9,88,10,10000,25.928,,,320,,,,0,,,,,,61,wg-a,,,,AAXX 02034 07790 12560 83214 10120 20100 39996 40010 53019 60007 76162 8687/ 90300=
07790,1996-01-02 06:00:00,13,1002.9,1.9,67,7,15000,18.52,,,20,10.8,13.2,,,,,1,,,1,wg-a,,,,AAXX 02064 07790 02565 70210 10130 20070 30015 40029 53019 60014 70162 8587/ 90600 333 10132 20108 61000=
07790,1996-01-02 09:00:00,14,1003.6,0.7,72,9,15000,7.408,,,170,,,,,,,,,,,wg-a,,,,AAXX 02094 07790 12565 61704 10140 20090 30022 40036 53007 60006 8584/ 90900=
07790,1996-01-02 12:00:00,15,1003.6,0,67,9,15000,7.408,,50.004,150,,,,,,,,,,,wg-a,,,,AAXX 02124 07790 12565 /1504 10150 20090 30022 40036 50000 60006 8534/ 91200 333 91027=
07790,1996-01-02 15:00:00,14,1003.9,0.3,67,8,10000,11.112,,,40,,,,,,,,,,15,wg-a,,,,AAXX 02154 07790 12560 70406 10140 20080 30025 40039 53003 60006 71522 8684/ 91500=
07790,1996-01-02 18:00:00,14,1005.2,1.3,67,8,15000,7.408,,,70,13.2,16.2,,,,,,,,,wg-a,,,,AAXX 02184 07790 12565 /0704 10140 20080 30038 40052 52013 60006 8583/ 91800 333 10162 20132=
07790,1996-01-02 21:00:00,13,1007.3,2.1,72,8,20000,3.704,,,290,,,,,,,,,,,wg-a,,,,AAXX 02214 07790 12470 /2902 10130 20080 30059 40073 51021 60006 85800 92100=
07790,1996-01-03 00:00:00,11,1009.1,1.8,82,8,20000,11.112,,,240,,,,,,,,,,,wg-a,,,,AAXX 03004 07790 12470 62406 10110 20080 30077 40091 51018 60006 86500 90000=
07790,1996-01-03 03:00:00,9,1010.3,1.1,87,7,20000,7.408,,,250,,,,,,,,,,,wg-a,,,,AAXX 03034 07790 12470 42504 10090 20070 30088 40103 52011 60006 84800 90300=
07790,1996-01-03 06:00:00,9,1011.7,1.4,81,6,20000,7.408,,,240,8.6,13.9,,,,,,,,,wg-a,,,,AAXX 03064 07790 02470 72404 10090 20060 30102 40117 51014 60006 875// 90600 333 10139 20086 60004=
07790,1996-01-03 09:00:00,11,1013.7,2,76,7,500,11.112,,,230,,,,,,,,,,,wg-a,,,,AAXX 03094 07790 12500 62306 10110 20070 30122 40137 52020 60006 85801 90900=
07790,1996-01-03 12:00:00,14,1013.3,-0.3,67,8,500,11.112,,,30,,,,,,,,,,,wg-a,,,,AAXX 03124 07790 12500 40306 10140 20080 30119 40133 58003 60006 83801 91200=
07790,1996-01-03 15:00:00,13,1013,-0.3,72,8,500,7.408,,,20,,,,,,,,,,,wg-a,,,,AAXX 03154 07790 12500 40204 10130 20080 30116 40130 57003 60006 84800 91500=
07790,1996-01-03 18:00:00,11,1013.9,0.8,82,8,500,3.704,,,240,8.6,14.5,,,,,,,,,wg-a,,,,AAXX 03184 07790 12500 /2402 10110 20080 30124 40139 53008 60006 86800 91800 333 10145 20086=
07790,1996-01-03 21:00:00,9,1015,1.1,87,7,20000,7.408,,,240,,,,,,,,,,,wg-a,,,,AAXX 03214 07790 12570 72404 10090 20070 30135 40150 51011 60006 8225/ 92100=
07790,1996-01-04 00:00:00,8,1015.2,0.2,87,6,20000,7.408,,,230,,,,,,,,,,,wg-a,,,,AAXX 04004 07790 12570 /2304 10080 20060 30137 40152 51002 60006 81100 90000=
07790,1996-01-04 03:00:00,7,1015,-0.2,93,6,20000,14.816,,,220,,,,0,,,,,,,wg-a,,,,AAXX 04034 07790 12/70 02208 10070 20060 30135 40150 57002 60007 80000 90300=
07790,1996-01-04 06:00:00,7,1015.6,0.6,87,5,20000,14.816,,,230,6.3,10.9,,,,,,,,,wg-a,,,,AAXX 04064 07790 12570 12308 10070 20050 30141 40156 51006 60004 81100 90600 333 10109 20063=
07790,1996-01-04 09:00:00,11,1016.9,1.3,71,6,25000,3.704,,,250,,,,,,,,,,,wg-a,,,,AAXX 04094 07790 12575 32502 10110 20060 30154 40169 53013 60006 81101 90900=
07790,1996-01-04 12:00:00,14,1015.3,,67,8,11000,7.408,,,50,,,,,,,,,,,wg-a,,,,AAXX 04124 07790 12/61 /0504 10140 20080 30139 40153 60006 91200=
07790,1996-01-04 15:00:00,13,1015.2,-0.3,72,8,25000,3.704,,,90,,,,,,,,,,,wg-a,,,,AAXX 04154 07790 12575 40902 10130 20080 30138 40152 56003 60006 84101 91500=
07790,1996-01-04 18:00:00,8,1015,-0.3,93,7,20000,11.112,,,230,5.3,14.4,,,,,,,,,wg-a,,,,AAXX 04184 07790 12570 12306 10080 20070 30135 40150 57003 60006 81101 91800 333 10144 20053=
07790,1996-01-04 21:00:00,8,1014,-1,81,5,20000,14.816,,,220,,,,,,,,,,,wg-a,,,,AAXX 04214 07790 12/70 52208 10080 20050 30125 40140 56010 60006 80001 92100=
07790,1996-01-05 00:00:00,7,1013,-1,81,4,20000,7.408,,,230,,,,,,,,,,,wg-a,,,,AAXX 05004 07790 12/70 72304 10070 20040 30115 40130 58010 60006 80006 90000=
07790,1996-01-05 03:00:00,6,1011.2,-1.8,81,3,20000,11.112,,,240,,,,,,,,,,,wg-a,,,,AAXX 05034 07790 12470 /2406 10060 20030 30097 40112 58018 60006 82546 90300=
07790,1996-01-05 06:00:00,7,1010,-1.2,76,3,20000,11.112,,,230,5.5,8.9,,,,,,,,,wg-a,,,,AAXX 05064 07790 02570 72306 10070 20030 30085 40100 58012 60006 8587/ 90600 333 10089 20055 60004=
07790,1996-01-05 09:00:00,10,1009.6,-0.4,71,5,11000,14.816,,,230,,,,,,,,,,,wg-a,,,,AAXX 05094 07790 12/61 /2308 10100 20050 30081 40096 58004 60006 90900=
07790,1996-01-05 12:00:00,12,1007.8,-1.7,76,8,20000,3.704,,,340,,,,,,,,,,,wg-a,,,,AAXX 05124 07790 12570 83402 10120 20080 30064 40078 58017 60006 8127/ 91200=
07790,1996-01-05 15:00:00,13,1005.6,-2.2,77,9,12000,11.112,,,150,,,,,,,,,,,wg-a,,,,AAXX 05154 07790 12562 71506 10130 20090 30042 40056 56022 60006 8387/ 91500=
07790,1996-01-05 18:00:00,12,1003.6,-2,76,8,15000,18.52,,,150,6.7,12.7,,,,,,,,,wg-a,,,,AAXX 05184 07790 12565 81510 10120 20080 30022 40036 56020 60006 8487/ 91800 333 10127 20067=
07790,1996-01-05 21:00:00,10,1003.1,-0.5,93,9,9000,3.704,,,190,,,,5,,,,,,61,wg-a,,,,AAXX 05214 07790 12559 81902 10100 20090 30017 40031 58005 60057 76162 8687/ 92100=
07790,1996-01-06 00:00:00,11,1000.8,-2.3,94,10,9000,7.408,,,190,,,,1,,,,,,21,wg-a,,,,AAXX 06004 07790 02559 81904 10110 20100 39994 40008 58023 60066 72162 8687/ 90000 333 60017=
07790,1996-01-06 03:00:00,10,999.3,-1.5,93,9,12000,0,,,0,,,,,,,,,,,wg-a,,,,AAXX 06034 07790 12462 80000 10100 20090 39979 49993 58015 60006 8687/ 90300=
07790,1996-01-06 06:00:00,10,998.9,-0.4,93,9,12000,7.408,,,260,9.3,12.4,,0,,,6,,,,wg-a,,,,AAXX 06064 07790 02362 82604 10100 20090 39975 49989 55004 60064 878// 90600 333 10124 20093 60007=
07790,1996-01-06 09:00:00,12,1000.6,1.7,100,12,4000,3.704,,,160,,,,4,,,,,,60,wg-a,,,,AAXX 06094 07790 12240 81602 10120 20120 39992 40006 53017 60047 76062 885// 90900=
07790,1996-01-06 12:00:00,13,1000.8,0.2,94,12,500,14.816,,,140,,,,0,,,,,,60,wg-a,,,,AAXX 06124 07790 02300 81408 10130 20120 39994 40008 52002 60046 76062 885// 91200 333 60007=
07790,1996-01-06 15:00:00,13,1001.6,0.8,88,11,10000,7.408,,,210,,,,,,,,,,1,wg-a,,,,AAXX 06154 07790 02460 72104 10130 20110 30002 40016 53008 61000 70162 82571 91500 333 ////=
07790,1996-01-06 18:00:00,12,1003.8,2.2,94,11,7000,7.408,,,190,9.8,13.9,,0,,,,,,60,wg-a,,,,AAXX 06184 07790 12357 71904 10120 20110 30024 40038 53022 60007 76062 875// 91800 333 10139 20098=
07790,1996-01-06 21:00:00,13,1004.8,1,94,12,7000,14.816,,,150,,,,,,,,,,,wg-a,,,,AAXX 06214 07790 32/57 /1508 10130 20120 30034 40048 50010 92100=
07790,1996-01-07 00:00:00,12,1005.1,0.3,100,12,7000,0,,,0,,,,,,,,,,,wg-a,,,,AAXX 07004 07790 12/57 /0000 10120 20120 30037 40051 50003 60016 90000=
07790,1996-01-07 03:00:00,12,1005.7,0.6,94,11,7000,7.408,,,330,,,,,,,,,,,wg-a,,,,AAXX 07034 07790 32/57 /3304 10120 20110 30043 40057 53006 90300=
07790,1996-01-07 06:00:00,11,1005.4,-0.3,100,11,8000,3.704,,,270,11.1,12.9,,1,,,7,,,21,wg-a,,,,AAXX 07064 07790 02458 82702 10110 20110 30040 40054 55003 60074 72162 8657/ 90600 333 10129 20111 60017=
07790,1996-01-07 09:00:00,12,1004.4,-1,82,9,15000,14.816,,,170,,,,0,,,,,,1,wg-a,,,,AAXX 07094 07790 12465 71708 10120 20090 30030 40044 56010 60007 70162 85842 90900=
07790,1996-01-07 10:00:00,12,1003,0.7,100,12,12000,3.704,,,30,11,14.3,,1,,,,,,2,wg-a,,,,AAXX 07104 07790 12562 70302 10120 20120 30016 40030 53007 60017 70262 84806 91000 333 10143 20110=
07790,1996-01-07 12:00:00,14,1002.6,-1.8,88,12,8000,7.408,,,280,,,,0,,,,,,61,wg-a,,,,AAXX 07124 07790 02458 72804 10140 20120 30012 40026 58018 60016 76162 8687/ 91200 333 60007=
07790,1996-01-07 15:00:00,14,1002.3,-0.3,94,13,12000,7.408,,,310,,,,0,,,,,,21,wg-a,,,,AAXX 07154 07790 12262 73104 10140 20130 30009 40023 55003 60007 72162 8587/ 91500=
07790,1996-01-07 18:00:00,12,1003,0.7,100,12,12000,3.704,,,30,11,14.3,,1,,,,,,2,wg-a,,,,AAXX 07184 07790 12562 70302 10120 20120 30016 40030 53007 60017 70262 84806 91800 333 10143 20110=
07790,1996-01-07 21:00:00,12,1004.9,1.9,88,10,12000,31.484,,,350,,,,,,,,,,,wg-a,,,,AAXX 07214 07790 12462 73517 10120 20100 30035 40049 51019 60006 85806 92100=
07790,1996-01-08 00:00:00,11,1005.8,0.9,82,8,20000,29.632,,53.708,330,,,,,,,,,,,wg-a,,,,AAXX 08004 07790 12570 73316 10110 20080 30044 40058 51009 60006 83572 90000 333 91029=
07790,1996-01-08 03:00:00,11,1007.1,1.3,82,8,500,35.188,,57.412,320,,,,,,,,,,,wg-a,,,,AAXX 08034 07790 12500 /3219 10110 20080 30057 40071 51013 60006 82572 90300 333 91031=
07790,1996-01-08 06:00:00,12,1008.3,1.2,76,8,500,14.816,,57.412,340,10.9,12.4,,,,,2,,,,wg-a,,,,AAXX 08064 07790 02500 53408 10120 20080 30069 40083 53012 60006 8457/ 90600 333 10124 20109 60024 91031=
07790,1996-01-08 09:00:00,13,1010.1,1.8,72,8,25000,3.704,,,110,,,,,,,,,,,wg-a,,,,AAXX 08094 07790 12575 41102 10130 20080 30087 40101 51018 60006 82871 90900=
07790,1996-01-08 12:00:00,17,1011,0.9,48,6,25000,7.408,,,20,,,,,,,,,,,wg-a,,,,AAXX 08124 07790 12575 20204 10170 20060 30096 40110 50009 60006 81201 91200=
07790,1996-01-08 15:00:00,16,1012.9,1.9,63,9,25000,11.112,,,180,,,,,,,,,,,wg-a,,,,AAXX 08154 07790 12575 /1806 10160 20090 30115 40129 53019 60006 81100 91500=
07790,1996-01-08 18:00:00,10,1014.7,1.7,87,8,28000,7.408,,,230,9.5,17.1,,,,,,,,,wg-a,,,,AAXX 08184 07790 12/78 02304 10100 20080 30132 40147 53017 60006 80000 91800 333 10171 20095=
07790,1996-01-08 21:00:00,8,1015.9,1.2,87,6,28000,7.408,,,220,,,,,,,,,,,wg-a,,,,AAXX 08214 07790 12/78 02204 10080 20060 30144 40159 51012 60006 80000 92100=
07790,1996-01-09 00:00:00,7,1016.4,0.5,81,4,35000,3.704,,,260,,,,0,,,,,,,wg-a,,,,AAXX 09004 07790 02/81 02602 10070 20040 30149 40164 51005 60006 80000 90000 333 60007=
07790,1996-01-09 06:00:00,5,1016.5,-0,87,3,35000,11.112,,,240,5.2,9.5,,,,,,,,,wg-a,,,,AAXX 09064 07790 12681 32406 10050 20030 30150 40165 55000 60004 81501 90600 333 10095 20052=
07790,1996-01-09 09:00:00,8,1017.7,1.2,87,6,25000,7.408,,,240,,,,,,,,,,,wg-a,,,,AAXX 09094 07790 12675 52404 10080 20060 30162 40177 52012 60006 82531 90900=
07790,1996-01-09 12:00:00,15,1016.2,-1.4,72,10,25000,22.224,,,150,,,,,,,,,,,wg-a,,,,AAXX 09124 07790 12675 /1512 10150 20100 30148 40162 58014 60006 82531 91200=
07790,1996-01-09 15:00:00,13,1015.3,-0.9,82,10,20000,14.816,,,150,,,,,,,,,,,wg-a,,,,AAXX 09154 07790 12470 61508 10130 20100 30139 40153 56009 60006 84831 91500=
07790,1996-01-09 18:00:00,11,1015.1,-0.3,87,9,20000,14.816,,,140,4.9,15.5,,,,,,,,,wg-a,,,,AAXX 09184 07790 12470 61408 10110 20090 30136 40151 56003 60006 86800 91800 333 10155 20049=
07790,1996-01-09 21:00:00,13,1014.3,-0.7,72,8,28000,22.224,,,150,,,,,,,,,,,wg-a,,,,AAXX 09214 07790 12778 71512 10130 20080 30129 40143 58007 60006 875// 92100=
07790,1996-01-10 00:00:00,13,1013.4,-0.9,82,10,28000,22.224,,,160,,,,,,,,,,,wg-a,,,,AAXX 10004 07790 12478 71612 10130 20100 30120 40134 57009 60006 878// 90000=
07790,1996-01-10 03:00:00,14,1012.5,-0.9,88,12,28000,18.52,,,140,,,,,,,,,,,wg-a,,,,AAXX 10034 07790 12478 71410 10140 20120 30111 40125 58009 60006 878// 90300=
07790,1996-01-10 06:00:00,14,1011.3,-1.2,88,12,20000,31.484,,57.412,120,10.7,14.2,,1,,,1,,,63,wg-a,,,,AAXX 10064 07790 02570 71217 10140 20120 30099 40113 58012 60014 76362 878// 90600 333 10142 20107 60017 91031=
07790,1996-01-10 09:00:00,14,1011.7,0.4,94,13,4500,35.188,,55.56,130,,,,1,,,,,,60,wg-a,,,,AAXX 10094 07790 12245 71319 10140 20130 30103 40117 53004 60017 76062 8657/ 90900 333 91030=
07790,1996-01-10 12:00:00,15,1011,-0.7,94,14,3000,25.928,,64.82,140,,,,1,,,,,,10,wg-a,,,,AAXX 10124 07790 02430 71414 10150 20140 30096 40110 58007 60036 71062 8657/ 91200 333 60017 91035=
07790,1996-01-10 15:00:00,15,1010.6,-0.4,94,14,4500,25.928,,,140,,,,,,,,,,10,wg-a,,,,AAXX 10154 07790 02345 71414 10150 20140 30092 40106 55004 61000 71062 8557/ 91500 333 ////=
07790,1996-01-10 18:00:00,15,1011.3,0.7,88,13,6000,31.484,,53.708,140,13.8,15.3,,1,,,,,,10,wg-a,,,,AAXX 10184 07790 12356 71417 10150 20130 30099 40113 51007 60017 71062 8657/ 91800 333 10153 20138 91029=
07790,1996-01-10 21:00:00,15,1012.3,1,88,13,500,25.928,,57.412,130,,,,,,,,,,60,wg-a,,,,AAXX 10214 07790 02200 71314 10150 20130 30109 40123 53010 61000 76062 8657/ 92100 333 //// 91031=
07790,1996-01-11 00:00:00,15,1012.7,0.4,88,13,12000,18.52,,57.412,160,,,,1,,,,,,21,wg-a,,,,AAXX 11004 07790 02462 71610 10150 20130 30113 40127 50004 60016 72162 865// 90000 333 60017 91031=
07790,1996-01-11 06:00:00,14,1013,0.3,94,13,9000,11.112,,,160,13.4,14.8,,,,,5,,,,wg-a,,,,AAXX 11064 07790 12459 61606 10140 20130 30116 40130 53003 60054 84570 90600 333 10148 20134=
07790,1996-01-11 09:00:00,15,1013.2,0.2,88,13,9000,18.52,,,150,,,,,,,,,,,wg-a,,,,AAXX 11094 07790 12359 81510 10150 20130 30118 40132 50002 60006 83572 90900=
07790,1996-01-11 12:00:00,17,1011.7,-1.5,77,13,0,29.632,,,140,,,,,,,,,,,wg-a,,,,AAXX 11124 07790 12/// /1416 10170 20130 30103 40117 58015 60006 91200=
07790,1996-01-11 15:00:00,15,1011.7,-0,88,13,8000,18.52,,,140,,,,,,,,,,,wg-a,,,,AAXX 11154 07790 12358 61410 10150 20130 30103 40117 55000 60006 8283/ 91500=
07790,1996-01-11 18:00:00,14,1012.1,0.4,94,13,9000,7.408,,,160,13.5,17.3,,,,,,,,,wg-a,,,,AAXX 11184 07790 12559 /1604 10140 20130 30107 40121 51004 60006 82530 91800 333 10173 20135=
07790,1996-01-11 21:00:00,12,1012.1,-0,94,11,8000,3.704,,,170,,,,,,,,,,,wg-a,,,,AAXX 11214 07790 12658 71702 10120 20110 30107 40121 55000 60006 8653/ 92100=
07790,1996-01-12 00:00:00,11,1010.7,-1.4,94,10,7000,7.408,,,280,,,,,,,,,,,wg-a,,,,AAXX 12004 07790 12557 62804 10110 20100 30093 40107 56014 60006 85530 90000=
07790,1996-01-12 03:00:00,10,1009.8,-1,93,9,10000,7.408,,,240,,,,,,,,,,,wg-a,,,,AAXX 12034 07790 12560 72404 10100 20090 30083 40098 57010 60006 875// 90300=
07790,1996-01-12 06:00:00,9,1009.3,-0.5,93,8,11000,7.408,,,220,9,13.8,,,,,,,,,wg-a,,,,AAXX 12064 07790 02/61 /2204 10090 20080 30078 40093 56005 60006 90600 333 10138 20090 60004=
07790,1996-01-12 09:00:00,13,1009.4,0.2,82,10,10000,3.704,,,210,,,,,,,,,,,wg-a,,,,AAXX 12094 07790 12660 72102 10130 20100 30080 40094 53002 60006 84531 90900=
07790,1996-01-12 12:00:00,16,1007.7,-1.7,77,12,11000,22.224,,,120,,,,,,,,,,,wg-a,,,,AAXX 12124 07790 12/61 /1212 10160 20120 30063 40077 58017 60006 91200=
07790,1996-01-12 15:00:00,15,1008.2,0.5,88,13,8000,14.816,,,140,,,,,,,,,,,wg-a,,,,AAXX 12154 07790 12458 71408 10150 20130 30068 40082 53005 60006 8483/ 91500=
07790,1996-01-13 00:00:00,14,1010.8,0.6,88,12,15000,7.408,,,170,,,,,,,,,,,wg-a,,,,AAXX 13004 07790 12465 81704 10140 20120 30094 40108 53006 60006 8457/ 90000=
07790,1996-01-13 03:00:00,14,1011.3,0.5,88,12,15000,11.112,,,120,,,,,,,,,,21,wg-a,,,,AAXX 13034 07790 02465 /1206 10140 20120 30099 40113 51005 61000 72162 83570 90300 333 ////=
07790,1996-01-13 06:00:00,12,1013.3,2,94,11,15000,11.112,,,150,12.3,14.3,,3,,,7,,,80,wg-a,,,,AAXX 13064 07790 02465 81506 10120 20110 30119 40133 53020 60074 78086 85270 90600 333 10143 20123 60037=
07790,1996-01-13 09:00:00,13,1015.1,1.8,88,11,15000,3.704,,,130,,,,2,,,,,,21,wg-a,,,,AAXX 13094 07790 12565 81302 10130 20110 30137 40151 53018 60027 72186 8587/ 90900=
07790,1996-01-13 12:00:00,14,1015.6,0.5,82,11,15000,0,,,0,,,,0,,,,,,1,wg-a,,,,AAXX 13124 07790 02565 80000 10140 20110 30142 40156 51005 60026 70186 878// 91200 333 60007=
07790,1996-01-13 15:00:00,14,1016.2,0.6,88,12,12000,3.704,,,260,,,,,,,,,,,wg-a,,,,AAXX 13154 07790 12462 82602 10140 20120 30148 40162 53006 60006 878// 91500=
07790,1996-01-13 18:00:00,12,1017.1,0.9,94,11,15000,3.704,,,230,11.9,14,,,,,,,,,wg-a,,,,AAXX 13184 07790 32565 82302 10120 20110 30157 40171 52009 878// 91800 333 10140 20119=
07790,1996-01-13 21:00:00,12,1018.2,1,94,11,15000,0,,,0,,,,,,,,,,,wg-a,,,,AAXX 13214 07790 12565 80000 10120 20110 30167 40182 51010 60006 878// 92100=
07790,1996-01-14 00:00:00,11,1018.5,0.3,94,10,15000,7.408,,,230,,,,,,,,,,,wg-a,,,,AAXX 14004 07790 12565 32304 10110 20100 30170 40185 50003 60006 83800 90000=
07790,1996-01-14 03:00:00,10,1018.9,0.4,93,9,15000,7.408,,,250,,,,,,,,,,,wg-a,,,,AAXX 14034 07790 12565 /2504 10100 20090 30174 40189 51004 60006 86800 90300=
07790,1996-01-14 06:00:00,9,1019.4,0.5,93,8,15000,7.408,,,220,9,12.4,,,,,2,,,,wg-a,,,,AAXX 14064 07790 02565 42204 10090 20080 30179 40194 53005 60006 84800 90600 333 10124 20090 60024=
07790,1996-01-14 09:00:00,12,1020.6,1.2,94,11,10000,3.704,,,300,,,,,,,,,,,wg-a,,,,AAXX 14094 07790 12560 33002 10120 20110 30191 40206 53012 60006 81801 90900=
07790,1996-01-14 12:00:00,16,1020.4,-0.1,72,11,10000,7.408,,,130,,,,,,,,,,,wg-a,,,,AAXX 14124 07790 12560 61304 10160 20110 30190 40204 58001 60006 85801 91200=
07790,1996-01-14 15:00:00,15,1020.2,-0.2,82,12,8000,7.408,,,90,,,,,,,,,,,wg-a,,,,AAXX 14154 07790 12558 70904 10150 20120 30188 40202 56002 60006 86801 91500=
07790,1996-01-14 18:00:00,11,1021.7,1.4,94,10,8000,7.408,,,300,8.3,16.1,,,,,,,,,wg-a,,,,AAXX 14184 07790 12558 73004 10110 20100 30202 40217 53014 60006 87800 91800 333 10161 20083=
07790,1996-01-14 21:00:00,9,1022.7,1,93,8,8000,3.704,,,240,,,,,,,,,,,wg-a,,,,AAXX 14214 07790 12/58 /2402 10090 20080 30212 40227 52010 60006 92100=
07790,1996-01-15 00:00:00,8,1022.6,-0.1,100,8,15000,7.408,,,240,,,,,,,,,,,wg-a,,,,AAXX 15004 07790 12665 12404 10080 20080 30211 40226 58001 60006 81500 90000=
07790,1996-01-15 03:00:00,7,1022.8,0.2,93,6,15000,11.112,,,220,,,,0,,,,,,,wg-a,,,,AAXX 15034 07790 12665 /2206 10070 20060 30213 40228 50002 60007 81500 90300=
07790,1996-01-15 06:00:00,8,1023.4,0.6,87,6,15000,7.408,,,240,7.3,11.6,,,,,,,,,wg-a,,,,AAXX 15064 07790 12565 72404 10080 20060 30219 40234 53006 60004 875// 90600 333 10116 20073=
07790,1996-01-15 09:00:00,10,1024.5,1.1,82,7,12000,11.112,,,220,,,,,,,,,,,wg-a,,,,AAXX 15094 07790 12562 72206 10100 20070 30230 40245 53011 60006 875// 90900=
07790,1996-01-15 12:00:00,14,1024.6,0.1,67,8,10000,11.112,,,40,,,,,,,,,,,wg-a,,,,AAXX 15124 07790 12560 70406 10140 20080 30231 40246 50001 60006 875// 91200=
07790,1996-01-15 15:00:00,13,1024.2,-0.4,72,8,15000,7.408,,,350,,,,,,,,,,,wg-a,,,,AAXX 15154 07790 12565 /3504 10130 20080 30227 40242 57004 60006 86500 91500=
07790,1996-01-15 18:00:00,11,1024.9,0.7,82,8,15000,7.408,,,340,7.3,13.9,,,,,,,,,wg-a,,,,AAXX 15184 07790 12665 /3404 10110 20080 30234 40249 51007 60006 85500 91800 333 10139 20073=
07790,1996-01-15 21:00:00,11,1026.1,1.2,66,5,20000,11.112,,,30,,,,,,,,,,,wg-a,,,,AAXX 15214 07790 12570 /0306 10110 20050 30246 40261 52012 60006 86500 92100=
07790,1996-01-16 00:00:00,10,1026.6,0.5,71,5,20000,7.408,,,10,,,,,,,,,,,wg-a,,,,AAXX 16004 07790 12570 /0104 10100 20050 30251 40266 51005 60006 86500 90000=
07790,1996-01-16 03:00:00,7,1026.9,0.3,81,4,20000,7.408,,,300,,,,,,,,,,,wg-a,,,,AAXX 16034 07790 12/70 03004 10070 20040 30254 40269 50003 60006 80000 90300=
07790,1996-01-16 06:00:00,6,1027.3,0.4,81,3,15000,11.112,,,280,6.2,11.4,,,,,,,,,wg-a,,,,AAXX 16064 07790 02565 /2806 10060 20030 30258 40273 53004 60006 81530 90600 333 10114 20062 60004=
07790,1996-01-16 09:00:00,10,1028.4,1.1,57,2,22000,11.112,,,320,,,,,,,,,,,wg-a,,,,AAXX 16094 07790 12/72 03206 10100 20020 30269 40284 51011 60006 80000 90900=
07790,1996-01-16 12:00:00,11,1027.7,-0.7,50,1,28000,14.816,,,360,,,,,,,,,,,wg-a,,,,AAXX 16124 07790 12/78 03608 10110 20010 30262 40277 58007 60006 80000 91200=
07790,1996-01-16 15:00:00,11,1027.1,-0.6,50,1,35000,11.112,,,360,,,,,,,,,,,wg-a,,,,AAXX 16154 07790 12/81 03606 10110 20010 30256 40271 56006 60006 80000 91500=
07790,1996-01-16 18:00:00,5,1027.4,0.3,65,-1,35000,7.408,,,240,5.3,11.6,,,,,,,,,wg-a,,,,AAXX 16184 07790 12/81 02404 10050 21010 30259 40274 52003 60006 80000 91800 333 10116 20053=
07790,1996-01-16 21:00:00,4,1028.3,0.9,70,-1,25000,11.112,,,240,,,,,,,,,,,wg-a,,,,AAXX 16214 07790 12/75 02406 10040 21010 30268 40283 51009 60006 80000 92100=
07790,1996-01-17 00:00:00,3,1028.4,0.1,75,-1,25000,11.112,,,230,,,,,,,,,,,wg-a,,,,AAXX 17004 07790 12/75 02306 10030 21010 30269 40284 50001 60006 80000 90000=
07790,1996-01-17 03:00:00,3,1028,-0.4,75,-1,25000,11.112,,,230,,,,,,,,,,,wg-a,,,,AAXX 17034 07790 12/75 02306 10030 21010 30265 40280 56004 60006 80000 90300=
07790,1996-01-17 06:00:00,2,1028,-0,80,-1,25000,11.112,,,230,2.1,5.4,,,,,,,,,wg-a,,,,AAXX 17064 07790 02/75 02306 10020 21010 30265 40280 55000 60006 80000 90600 333 10054 20021 60004=
07790,1996-01-17 09:00:00,8,1028.4,0.4,61,1,500,7.408,,,220,,,,,,,,,,,wg-a,,,,AAXX 17094 07790 12/00 02204 10080 20010 30269 40284 53004 60006 80000 90900=
07790,1996-01-17 12:00:00,12,1027.5,-0.9,40,-1,500,7.408,,,100,,,,,,,,,,,wg-a,,,,AAXX 17124 07790 12/00 01004 10120 21010 30260 40275 58009 60006 80000 91200=
07790,1996-01-17 15:00:00,12,1026.8,-0.7,44,0,500,3.704,,,90,,,,,,,,,,,wg-a,,,,AAXX 17154 07790 12/00 00902 10120 20000 30253 40268 56007 60006 80000 91500=
07790,1996-01-17 18:00:00,5,1026.9,0.1,75,1,20000,11.112,,,240,1.9,13.6,,,,,,,,,wg-a,,,,AAXX 17184 07790 12/70 02406 10050 20010 30254 40269 50001 60006 80000 91800 333 10136 20019=
07790,1996-01-17 21:00:00,3,1026.6,-0.3,75,-1,500,11.112,,,230,,,,,,,,,,,wg-a,,,,AAXX 17214 07790 12/00 02306 10030 21010 30251 40266 58003 60006 80000 92100=
07790,1996-01-18 00:00:00,1,1026.1,-0.5,75,-3,500,11.112,,,240,,,,,,,,,,,wg-a,,,,AAXX 18004 07790 12/00 02406 10010 21030 30246 40261 56005 60006 80000 90000=
07790,1996-01-18 06:00:00,2,1024.7,-0.7,64,-4,35000,11.112,,,230,1.2,4.9,,,,,,,,,wg-a,,,,AAXX 18064 07790 02/81 02306 10020 21040 30232 40247 56007 60006 80000 90600 333 10049 20012 60004=
07790,1996-01-18 09:00:00,7,1024.9,0.2,49,-3,35000,11.112,,,220,,,,,,,,,,,wg-a,,,,AAXX 18094 07790 12/81 02206 10070 21030 30234 40249 52002 60006 80000 90900=
07790,1996-01-18 12:00:00,13,1023.1,-1.8,54,4,35000,7.408,,,130,,,,,,,,,,,wg-a,,,,AAXX 18124 07790 12/81 01304 10130 20040 30216 40231 58018 60006 80000 91200=
07790,1996-01-18 15:00:00,13,1021.5,-1.6,54,4,25000,14.816,,,140,,,,,,,,,,,wg-a,,,,AAXX 18154 07790 12675 /1408 10130 20040 30200 40215 56016 60006 81100 91500=
07790,1996-01-18 18:00:00,6,1021.4,-0.1,87,4,25000,7.408,,,230,2.1,13.6,,,,,,,,,wg-a,,,,AAXX 18184 07790 12675 /2304 10060 20040 30199 40214 58001 60006 81800 91800 333 10136 20021=
07790,1996-01-18 21:00:00,7,1020.7,-0.7,76,3,20000,18.52,,,230,,,,,,,,,,,wg-a,,,,AAXX 18214 07790 12670 /2310 10070 20030 30192 40207 58007 60006 81800 92100=
07790,1996-01-19 00:00:00,6,1020.6,-0.1,75,2,20000,14.816,,,250,,,,,,,,,,,wg-a,,,,AAXX 19004 07790 12/70 02508 10060 20020 30191 40206 58001 60006 80000 90000=
07790,1996-01-19 03:00:00,5,1019.6,-1,75,1,25000,18.52,,,230,,,,,,,,,,,wg-a,,,,AAXX 19034 07790 12675 22310 10050 20010 30181 40196 58010 60006 82500 90300=
07790,1996-01-19 06:00:00,6,1018.3,-1.3,65,0,25000,25.928,,,240,4.8,7.1,,,,,,,,,wg-a,,,,AAXX 19064 07790 02675 22414 10060 20000 30168 40183 56013 60006 82500 90600 333 10071 20048 60004=
07790,1996-01-19 09:00:00,8,1018.2,-0.1,66,2,25000,14.816,,,230,,,,,,,,,,,wg-a,,,,AAXX 19094 07790 12675 32308 10080 20020 30167 40182 57001 60006 83801 90900=
07790,1996-01-19 12:00:00,14,1016.7,-1.4,44,2,25000,3.704,,,10,,,,,,,,,,,wg-a,,,,AAXX 19124 07790 12675 30102 10140 20020 30153 40167 58014 60006 83801 91200=
07790,1996-01-19 18:00:00,7,1015.3,-0.3,76,3,25000,7.408,,,250,5.1,14.7,,,,,,,,,wg-a,,,,AAXX 19184 07790 12675 22504 10070 20030 30138 40153 56003 60006 82501 91800 333 10147 20051=
07790,1996-01-19 21:00:00,4,1015.5,0.2,87,2,11000,7.408,,,240,,,,,,,,,,,wg-a,,,,AAXX 19214 07790 12/61 /2404 10040 20020 30140 40155 52002 60006 92100=
07790,1996-01-20 00:00:00,6,1014.6,-0.9,75,2,25000,14.816,,,240,,,,,,,,,,,wg-a,,,,AAXX 20004 07790 12675 /2408 10060 20020 30131 40146 58009 60006 81500 90000=
07790,1996-01-20 03:00:00,5,1013.9,-0.7,75,1,25000,14.816,,,240,,,,,,,,,,,wg-a,,,,AAXX 20034 07790 12675 22408 10050 20010 30124 40139 57007 60006 82500 90300=
07790,1996-01-20 06:00:00,5,1013.4,-0.5,75,1,25000,14.816,,,230,3.5,6.6,,,,,,,,,wg-a,,,,AAXX 20064 07790 02675 52308 10050 20010 30119 40134 57005 60006 84530 90600 333 10066 20035 60004=
07790,1996-01-20 09:00:00,8,1013.8,0.4,71,3,25000,14.816,,,230,,,,,,,,,,,wg-a,,,,AAXX 20094 07790 12775 /2308 10080 20030 30123 40138 51004 60006 86500 90900=
07790,1996-01-20 12:00:00,12,1013.1,-0.7,62,5,25000,3.704,,,240,,,,,,,,,,,wg-a,,,,AAXX 20124 07790 12675 72402 10120 20050 30116 40131 58007 60006 8113/ 91200=
07790,1996-01-20 15:00:00,12,1012.9,-0.1,76,8,20000,3.704,,,240,,,,,,,,,,,wg-a,,,,AAXX 20154 07790 12870 82402 10120 20080 30115 40129 56001 60006 8803/ 91500=
07790,1996-01-20 18:00:00,9,1014,1,87,7,25000,3.704,,,250,4.7,12.2,,0,,,,,,2,wg-a,,,,AAXX 20184 07790 12875 82502 10090 20070 30125 40140 53010 60007 70262 8807/ 91800 333 10122 20047=
07790,1996-01-20 21:00:00,8,1015.3,1.3,87,6,25000,7.408,,,220,,,,,,,,,,,wg-a,,,,AAXX 20214 07790 12675 42204 10080 20060 30138 40153 51013 60006 84500 92100=
07790,1996-01-21 00:00:00,7,1015.7,0.4,87,5,25000,7.408,,,230,,,,,,,,,,,wg-a,,,,AAXX 21004 07790 12675 42304 10070 20050 30142 40157 51004 60006 82530 90000=
07790,1996-01-21 03:00:00,6,1016.1,0.4,81,3,25000,11.112,,,240,,,,,,,,,,,wg-a,,,,AAXX 21034 07790 12/75 02406 10060 20030 30146 40161 52004 60006 80000 90300=
07790,1996-01-21 06:00:00,5,1016.4,0.3,87,3,25000,7.408,,,230,4.6,9.2,,,,,,,,,wg-a,,,,AAXX 21064 07790 02575 52304 10050 20030 30149 40164 53003 60006 84501 90600 333 10092 20046 60004=
07790,1996-01-21 09:00:00,8,1017.4,1,81,5,11000,7.408,,,220,,,,,,,,,,,wg-a,,,,AAXX 21094 07790 12/61 /2204 10080 20050 30159 40174 51010 60006 90900=
07790,1996-01-21 12:00:00,15,1016.6,-0.7,67,9,20000,29.632,,,150,,,,,,,,,,,wg-a,,,,AAXX 21124 07790 12570 /1516 10150 20090 30152 40166 58007 60006 82204 91200=
07790,1996-01-21 15:00:00,13,1016.8,0.2,77,9,20000,18.52,,,150,,,,,,,,,,,wg-a,,,,AAXX 21154 07790 12570 61510 10130 20090 30154 40168 53002 60006 82231 91500=
07790,1996-01-21 18:00:00,11,1017.1,0.2,82,8,25000,11.112,,,180,4.7,14.7,,,,,,,,,wg-a,,,,AAXX 21184 07790 12475 41806 10110 20080 30156 40171 53002 60006 82230 91800 333 10147 20047=
07790,1996-01-21 21:00:00,8,1017.5,0.4,87,6,25000,7.408,,,210,,,,,,,,,,,wg-a,,,,AAXX 21214 07790 12575 32104 10080 20060 30160 40175 53004 60006 83200 92100=
07790,1996-01-22 00:00:00,8,1017.5,0.4,87,6,25000,7.408,,,210,,,,,,,,,,,wg-a,,,,AAXX 22004 07790 12575 32104 10080 20060 30160 40175 53004 60006 83200 90000=
07790,1996-01-22 03:00:00,9,1017.4,0,87,7,25000,7.408,,,210,,,,,,,,,,,wg-a,,,,AAXX 22034 07790 12575 22104 10090 20070 30159 40174 50000 60006 82500 90300=
07790,1996-01-22 06:00:00,7,1016.8,-0.6,87,5,25000,7.408,,,200,7.2,11.1,,,,,,,,,wg-a,,,,AAXX 22064 07790 02575 32004 10070 20050 30153 40168 56006 60006 82230 90600 333 10111 20072 60004=
07790,1996-01-22 09:00:00,12,1017,0.2,76,8,18000,22.224,,,150,,,,,,,,,,,wg-a,,,,AAXX 22094 07790 12568 81512 10120 20080 30155 40170 50002 60006 81576 90900=
07790,1996-01-22 12:00:00,15,1015.8,-1.1,67,9,15000,29.632,,,150,,,,,,,,,,,wg-a,,,,AAXX 22124 07790 12465 /1516 10150 20090 30144 40158 58011 60006 86506 91200=
07790,1996-01-22 15:00:00,13,1015.5,-0.3,77,9,15000,14.816,,,150,,,,,,,,,,,wg-a,,,,AAXX 22154 07790 12465 81508 10130 20090 30141 40155 55003 60006 84806 91500=
07790,1996-01-22 18:00:00,12,1015.5,-0,88,10,15000,7.408,,,160,7.1,15.7,,0,,,,,,,wg-a,,,,AAXX 22184 07790 12465 81604 10120 20100 30141 40155 55000 60007 8687/ 91800 333 10157 20071=
07790,1996-01-22 21:00:00,13,1015,-0.5,88,11,25000,31.484,,53.708,140,,,,3,,,,,,21,wg-a,,,,AAXX 22214 07790 12475 81417 10130 20110 30136 40150 55005 60037 72162 8457/ 92100 333 91029=
07790,1996-01-23 00:00:00,13,1014.3,-0.7,94,12,15000,31.484,,48.152,140,,,,2,,,,,,60,wg-a,,,,AAXX 23004 07790 02465 81417 10130 20120 30129 40143 58007 60046 76062 845// 90000 333 60027 91026=
07790,1996-01-23 03:00:00,13,1013.6,-0.7,88,11,25000,29.632,,57.412,150,,,,1,,,,,,21,wg-a,,,,AAXX 23034 07790 12475 81516 10130 20110 30122 40136 55007 60017 72162 865// 90300 333 91031=
07790,1996-01-23 06:00:00,14,1013,-0.6,82,11,22000,31.484,,57.412,140,12,13.7,,,,,5,,,0,wg-a,,,,AAXX 23064 07790 12472 81417 10140 20110 30116 40130 56006 60054 70062 885// 90600 333 10137 20120 91031=
07790,1996-01-23 09:00:00,14,1013.4,0.4,88,12,6000,31.484,,61.116,140,,,,,,,,,,,wg-a,,,,AAXX 23094 07790 12456 71417 10140 20120 30120 40134 53004 60006 8587/ 90900 333 91033=
07790,1996-01-23 12:00:00,15,1011.9,-1.5,88,13,500,31.484,,61.116,140,,,,,,,,,,,wg-a,,,,AAXX 23124 07790 12400 71417 10150 20130 30105 40119 58015 60006 8487/ 91200 333 91033=
07790,1996-01-23 15:00:00,14,1010.6,-1.3,88,12,500,22.224,,53.708,150,,,,,,,,,,1,wg-a,,,,AAXX 23154 07790 02400 71512 10140 20120 30092 40106 56013 61000 70162 8587/ 91500 333 //// 91029=
07790,1996-01-23 18:00:00,13,1010.2,-0.4,88,11,7000,14.816,,53.708,150,12.9,14.9,,0,,,,,,1,wg-a,,,,AAXX 23184 07790 12457 /1508 10130 20110 30088 40102 56004 60007 70162 84870 91800 333 10149 20129 91029=
07790,1996-01-23 21:00:00,11,1009.4,-0.8,87,9,16000,3.704,,,310,,,,,,,,,,,wg-a,,,,AAXX 23214 07790 12666 73102 10110 20090 30080 40094 56008 60006 8387/ 92100=
07790,1996-01-24 00:00:00,10,1007.6,-1.8,93,9,22000,3.704,,,240,,,,,,,,,,,wg-a,,,,AAXX 24004 07790 12672 82402 10100 20090 30062 40076 58018 60006 8457/ 90000=
07790,1996-01-24 03:00:00,10,1006.1,-1.5,93,9,11000,3.704,,,240,,,,,,,,,,,wg-a,,,,AAXX 24034 07790 32/61 /2402 10100 20090 30047 40061 58015 90300=
07790,1996-01-24 06:00:00,12,1005.6,-0.5,76,8,18000,11.112,,,210,10,12.9,,,,,,,,21,wg-a,,,,AAXX 24064 07790 02468 82106 10120 20080 30042 40056 56005 60004 72162 8687/ 90600 333 10129 20100 61000=
07790,1996-01-24 09:00:00,12,1006.8,1.2,82,9,15000,3.704,,,280,,,,,,,,,,,wg-a,,,,AAXX 24094 07790 12465 72802 10120 20090 30054 40068 52012 60006 8327/ 90900=
07790,1996-01-24 12:00:00,13,1006.1,-0.7,82,10,20000,14.816,,,30,,,,,,,,,,,wg-a,,,,AAXX 24124 07790 12570 60308 10130 20100 30047 40061 58007 60006 84830 91200=
07790,1996-01-24 15:00:00,12,1005.7,-0.4,82,9,15000,11.112,,,30,,,,,,,,,,,wg-a,,,,AAXX 24154 07790 12465 70306 10120 20090 30043 40057 56004 60006 878// 91500=
07790,1996-01-24 18:00:00,11,1006,0.3,87,9,15000,3.704,,,240,10.5,13.3,,,,,,,,,wg-a,,,,AAXX 24184 07790 12465 /2402 10110 20090 30046 40060 53003 60006 8583/ 91800 333 10133 20105=
07790,1996-01-24 21:00:00,10,1006.1,0.1,93,9,20000,3.704,,,250,,,,,,,,,,,wg-a,,,,AAXX 24214 07790 12470 72502 10100 20090 30047 40061 53001 60006 875// 92100=
07790,1996-01-25 00:00:00,9,1005.5,-0.7,87,7,20000,3.704,,,230,,,,,,,,,,,wg-a,,,,AAXX 25004 07790 12470 72302 10090 20070 30040 40055 58007 60006 875// 90000=
07790,1996-01-25 03:00:00,9,1004.3,-1.1,93,8,20000,11.112,,,210,,,,0,,,,,,61,wg-a,,,,AAXX 25034 07790 12470 72106 10090 20080 30029 40043 58011 60007 76162 875// 90300=
07790,1996-01-25 06:00:00,8,1004.1,-0.3,93,7,20000,7.408,,,240,8.2,10.6,,0,,,1,,,1,wg-a,,,,AAXX 25064 07790 02470 72404 10080 20070 30026 40041 55003 60014 70162 8457/ 90600 333 10106 20082 60007=
07790,1996-01-25 09:00:00,10,1004.9,0.9,93,9,20000,3.704,,,180,,,,,,,,,,21,wg-a,,,,AAXX 25094 07790 02470 71802 10100 20090 30035 40049 53009 61000 72162 85302 90900 333 ////=
07790,1996-01-25 12:00:00,15,1004.2,-0.7,82,12,25000,11.112,,,110,,,,,,,,,,3,wg-a,,,,AAXX 25124 07790 02475 /1106 10150 20120 30028 40042 58007 61000 70362 83202 91200 333 ////=
07790,1996-01-25 15:00:00,15,1004.3,0.1,77,11,18000,7.408,,,130,,,,,,,,,,,wg-a,,,,AAXX 25154 07790 12468 /1304 10150 20110 30029 40043 53001 60006 83502 91500=
07790,1996-01-25 18:00:00,12,1005.9,1.6,94,11,15000,7.408,,,130,7.9,16.2,,,,,,,,,wg-a,,,,AAXX 25184 07790 32465 /1304 10120 20110 30045 40059 52016 85502 91800 333 10162 20079=
07790,1996-01-25 21:00:00,9,1006.6,0.6,100,9,18000,0,,,0,,,,,,,,,,,wg-a,,,,AAXX 25214 07790 12368 20000 10090 20090 30051 40066 52006 60006 82900 92100=
07790,1996-01-26 00:00:00,8,1006.3,-0.3,93,7,11000,7.408,,,210,,,,,,,,,,,wg-a,,,,AAXX 26004 07790 12/61 /2104 10080 20070 30048 40063 58003 60006 90000=
07790,1996-01-26 03:00:00,7,1005.9,-0.4,100,7,18000,7.408,,,230,,,,0,,,,,,,wg-a,,,,AAXX 26034 07790 12568 32304 10070 20070 30044 40059 58004 60007 83500 90300=
07790,1996-01-26 06:00:00,8,1006.3,0.4,93,7,18000,11.112,,,250,6.6,12.3,,,,,,,,13,wg-a,,,,AAXX 26064 07790 12568 /2506 10080 20070 30048 40063 53004 60004 71311 85900 90600 333 10123 20066=
07790,1996-01-26 09:00:00,13,1007.5,1.3,72,8,10000,11.112,,,230,,,,,,,,,,,wg-a,,,,AAXX 26094 07790 12460 52306 10130 20080 30061 40075 51013 60006 83801 90900=
07790,1996-01-26 12:00:00,15,1006.9,-0.6,67,9,18000,7.408,,,20,,,,,,,,,,,wg-a,,,,AAXX 26124 07790 12468 /0204 10150 20090 30055 40069 58006 60006 8233/ 91200=
07790,1996-01-26 15:00:00,12,1007.1,0.2,94,11,6000,11.112,,,10,,,,2,,,,,,61,wg-a,,,,AAXX 26154 07790 12456 80106 10120 20110 30057 40071 53002 60027 76162 8687/ 91500=
07790,1996-01-26 18:00:00,11,1008.3,1.2,87,9,8000,3.704,,,300,7.8,15.6,,1,,,,,,60,wg-a,,,,AAXX 26184 07790 12558 83002 10110 20090 30072 40083 53012 60017 76062 8637/ 91800 333 10156 20078=
07790,1996-01-26 21:00:00,11,1009.8,1.5,82,8,20000,14.816,,,330,,,,,,,,,,1,wg-a,,,,AAXX 26214 07790 02470 73308 10110 20080 30084 40098 53015 61000 70162 82932 92100 333 ////=
07790,1996-01-27 00:00:00,8,1011.2,1.3,93,7,20000,7.408,,,250,,,,,,,,,,1,wg-a,,,,AAXX 27004 07790 02470 /2504 10080 20070 30097 40112 51013 61000 70161 81500 90000 333 ////=
07790,1996-01-27 03:00:00,7,1011.6,0.4,93,6,20000,14.816,,,240,,,,,,,,,,,wg-a,,,,AAXX 27034 07790 12470 /2408 10070 20060 30101 40116 52004 60006 81500 90300=
07790,1996-01-27 06:00:00,7,1012.6,1,87,5,20000,11.112,,,240,6.7,11.7,,0,,,3,,,,wg-a,,,,AAXX 27064 07790 02470 32406 10070 20050 30111 40126 53010 60034 82501 90600 333 10117 20067 60007=
07790,1996-01-27 09:00:00,11,1014.3,1.7,76,7,25000,14.816,,,230,,,,,,,,,,,wg-a,,,,AAXX 27094 07790 12575 /2308 10110 20070 30128 40143 51017 60006 82806 90900=
07790,1996-01-27 12:00:00,15,1014.1,-0.1,63,8,25000,11.112,,,110,,,,,,,,,,,wg-a,,,,AAXX 27124 07790 12575 /1106 10150 20080 30127 40141 58001 60006 83802 91200=
07790,1996-01-27 15:00:00,15,1013.9,-0.2,67,9,25000,11.112,,,140,,,,,,,,,,,wg-a,,,,AAXX 27154 07790 12575 /1406 10150 20090 30125 40139 55002 60006 83832 91500=
07790,1996-01-27 18:00:00,9,1015.3,1.3,93,8,20000,3.704,,,250,7,15.5,,,,,,,,,wg-a,,,,AAXX 27184 07790 12570 42502 10090 20080 30138 40153 53013 60006 83830 91800 333 10155 20070=
07790,1996-01-27 21:00:00,7,1016,0.7,93,6,18000,3.704,,,230,,,,,,,,,,,wg-a,,,,AAXX 27214 07790 12668 32302 10070 20060 30145 40160 51007 60006 82530 92100=
07790,1996-01-28 00:00:00,7,1015.8,-0.2,93,6,18000,11.112,,,240,,,,,,,,,,,wg-a,,,,AAXX 28004 07790 12568 /2406 10070 20060 30143 40158 58002 60006 85500 90000=
07790,1996-01-28 03:00:00,6,1015.5,-0.3,93,5,18000,7.408,,,220,,,,,,,,,,,wg-a,,,,AAXX 28034 07790 12/68 22204 10060 20050 30140 40155 58003 60006 82030 90300=
07790,1996-01-28 06:00:00,6,1015.2,-0.3,87,4,15000,11.112,,,210,5.3,9.4,,0,,,,,,,wg-a,,,,AAXX 28064 07790 02565 /2106 10060 20040 30137 40152 58003 60004 81532 90600 333 10094 20053 60007=
07790,1996-01-28 09:00:00,10,1015.1,-0.1,82,7,11000,0,,,0,,,,,,,,,,,wg-a,,,,AAXX 28094 07790 12/61 /0000 10100 20070 30136 40151 58001 60006 90900=
07790,1996-01-28 12:00:00,12,1013.9,-1.1,88,10,12000,11.112,,,150,,,,0,,,,,,60,wg-a,,,,AAXX 28124 07790 02562 81506 10120 20100 30125 40139 58011 60016 76061 878// 91200 333 60007=
07790,1996-01-28 15:00:00,13,1012.6,-1.3,88,11,12000,14.816,,,150,,,,0,,,,,,60,wg-a,,,,AAXX 28154 07790 12562 81508 10130 20110 30112 40126 55013 60007 76062 8582/ 91500=
07790,1996-01-28 18:00:00,11,1012.5,-0.1,94,10,15000,14.816,,,180,5.6,12.7,,4,,,,,,61,wg-a,,,,AAXX 28184 07790 12565 81808 10110 20100 30111 40125 55001 60047 76162 878// 91800 333 10127 20056=
07790,1996-01-29 00:00:00,9,1012,-0.6,100,9,9000,3.704,,,210,,,,6,,,,,,21,wg-a,,,,AAXX 29004 07790 02559 82102 10090 20090 30105 40120 56006 60346 72196 888// 90000 333 60067=
07790,1996-01-29 03:00:00,9,1011.7,-0.3,93,8,10000,3.704,,,300,,,,1,,,,,,,wg-a,,,,AAXX 29034 07790 12460 83002 10090 20080 30102 40117 56003 60017 888// 90300=
07790,1996-01-29 06:00:00,12,1010.9,-0.7,88,10,8000,29.632,,50.004,100,8.3,11.6,,8,,,47,,,61,wg-a,,,,AAXX 29064 07790 02458 81016 10120 20100 30095 40109 55007 60474 76162 888// 90600 333 10116 20083 60087 91027=
07790,1996-01-29 09:00:00,12,1011.5,0.6,88,10,8000,22.224,,,90,,,,,,,,,,,wg-a,,,,AAXX 29094 07790 32/58 /0912 10120 20100 30101 40115 50006 90900=
07790,1996-01-29 12:00:00,12,1010.3,-1.2,100,12,2000,22.224,,,90,,,,11,,,,,,61,wg-a,,,,AAXX 29124 07790 02120 80912 10120 20120 30089 40103 58012 60116 76162 8737/ 91200 333 60117=
07790,1996-01-29 15:00:00,13,1010.2,-0.1,94,12,3500,18.52,,,160,,,,4,,,,,,60,wg-a,,,,AAXX 29154 07790 12235 81610 10130 20120 30088 40102 55001 60047 76062 8737/ 91500=
07790,1996-01-29 18:00:00,12,1011.5,1.3,88,10,7000,22.224,,,110,11.4,13.9,,2,,,,,,60,wg-a,,,,AAXX 29184 07790 12457 81112 10120 20100 30101 40115 51013 60027 76062 888// 91800 333 10139 20114=
07790,1996-01-30 00:00:00,12,1011.9,-0.2,76,8,20000,11.112,,,80,,,,,,,,,,1,wg-a,,,,AAXX 30004 07790 12570 80806 10120 20080 30105 40119 57002 60006 70162 878// 90000=
07790,1996-01-30 03:00:00,12,1011.5,-0.4,82,9,20000,7.408,,,40,,,,,,,,,,,wg-a,,,,AAXX 30034 07790 12570 80404 10120 20090 30101 40115 58004 60006 878// 90300=
07790,1996-01-30 06:00:00,11,1011.7,0.2,82,8,20000,14.816,,,20,11,12.7,,,,,17,,,,wg-a,,,,AAXX 30064 07790 12570 70208 10110 20080 30103 40117 53002 60174 878// 90600 333 10127 20110=
07790,1996-01-30 09:00:00,12,1013.1,1.4,76,8,40000,14.816,,,10,,,,,,,,,,,wg-a,,,,AAXX 30094 07790 12482 50108 10120 20080 30117 40131 53014 60006 84830 90900=
07790,1996-01-30 12:00:00,14,1012.2,-0.9,63,7,500,22.224,,,10,,,,,,,,,,,wg-a,,,,AAXX 30124 07790 12500 20112 10140 20070 30108 40122 58009 60006 82200 91200=
07790,1996-01-30 15:00:00,13,1012.2,-0,67,7,20000,18.52,,,10,,,,,,,,,,,wg-a,,,,AAXX 30154 07790 12570 /0110 10130 20070 30108 40122 55000 60006 86870 91500=
07790,1996-01-30 18:00:00,11,1014.2,1.9,66,5,20000,22.224,,,20,10.9,13.8,,,,,,,,,wg-a,,,,AAXX 30184 07790 12570 40212 10110 20050 30127 40142 53019 60006 82830 91800 333 10138 20109=
07790,1996-01-30 21:00:00,9,1016.5,2.3,66,3,20000,22.224,,,20,,,,,,,,,,,wg-a,,,,AAXX 30214 07790 12570 /0212 10090 20030 30150 40165 52023 60006 82530 92100=
07790,1996-01-31 00:00:00,8,1017.2,0.7,53,-1,20000,29.632,,,30,,,,,,,,,,,wg-a,,,,AAXX 31004 07790 12570 50316 10080 21010 30157 40172 51007 60006 85800 90000=
07790,1996-01-31 03:00:00,6,1017.4,0.2,61,-1,20000,22.224,,,20,,,,,,,,,,,wg-a,,,,AAXX 31034 07790 12670 20212 10060 21010 30159 40174 51002 60006 81230 90300=
07790,1996-01-31 06:00:00,6,1017.6,0.2,61,-1,20000,22.224,,,40,5.6,11,,,,,,,,,wg-a,,,,AAXX 31064 07790 02570 50412 10060 21010 30161 40176 53002 60006 85200 90600 333 10110 20056 60004=
07790,1996-01-31 09:00:00,6,1018.8,1.2,56,-2,15000,22.224,,,20,,,,,,,,,,,wg-a,,,,AAXX 31094 07790 12565 40212 10060 21020 30173 40188 51012 60006 84200 90900=
07790,1996-01-31 12:00:00,7,1018.4,-0.4,53,-2,11000,18.52,,,360,,,,,,,,,,,wg-a,,,,AAXX 31124 07790 12/61 /3610 10070 21020 30169 40184 58004 60006 91200=
07790,1996-01-31 15:00:00,7,1018,-0.4,57,-1,11000,14.816,,,20,,,,,,,,,,,wg-a,,,,AAXX 31154 07790 12/61 /0208 10070 21010 30165 40180 55004 60006 91500=
07790,1996-01-31 18:00:00,6,1018.4,0.4,70,1,10000,11.112,,,240,5.6,7.4,,,,,,,,,wg-a,,,,AAXX 31184 07790 12660 72406 10060 20010 30169 40184 52004 60006 82230 91800 333 10074 20056=
07790,1996-01-31 21:00:00,6,1019.4,1,70,1,11000,11.112,,,230,,,,,,,,,,,wg-a,,,,AAXX 31214 07790 12/61 /2306 10060 20010 30179 40194 52010 60006 92100=
07790,1996-02-01 00:00:00,6,1019.7,0.3,87,4,8000,3.704,,,230,,,,,,,,,,,wg-a,,,,AAXX 01004 07790 12/58 /2302 10060 20040 30182 40197 50003 60026 90000=
07790,1996-02-01 03:00:00,7,1019.6,-0.1,93,6,8000,7.408,,,260,,,,3,,,,,,60,wg-a,,,,AAXX 01034 07790 12458 82604 10070 20060 30181 40196 58001 60037 76066 8657/ 90300=
07790,1996-02-01 06:00:00,7,1020.2,0.6,100,7,7000,3.704,,,230,5.6,7.5,,1,,,6,,,63,wg-a,,,,AAXX 01064 07790 02457 82302 10070 20070 30187 40202 53006 60064 76365 8757/ 90600 333 10075 20056 60017=
07790,1996-02-01 09:00:00,10,1020.5,0.3,82,7,12000,18.52,,,120,,,,4,,,,,,21,wg-a,,,,AAXX 01094 07790 12462 81210 10100 20070 30190 40205 51003 60047 72162 885// 90900=
07790,1996-02-01 12:00:00,12,1019.8,-0.7,76,8,12000,22.224,,,130,,,,,,,,,,3,wg-a,,,,AAXX 01124 07790 12462 71312 10120 20080 30183 40198 58007 60046 70362 8217/ 91200=
07790,1996-02-01 15:00:00,11,1018.5,-1.3,87,9,3500,22.224,,,120,,,,1,,,,,,80,wg-a,,,,AAXX 01154 07790 12335 81212 10110 20090 30170 40185 56013 60017 78086 882// 91500=
07790,1996-02-01 21:00:00,12,1016.4,-2.1,94,11,4000,35.188,,55.56,120,,,,12,,,,,,10,wg-a,,,,AAXX 01214 07790 12440 81219 10120 20110 30149 40164 57021 60127 71088 882// 92100 333 91030=
07790,1996-02-02 00:00:00,,1,-9,,,6000,7.408,,,310,,,,,,,,,,,wg-a,,,,AAXX 02004 07790 12/56 53104 1//// 2//// 55090 60006 80004 90000=
07790,1996-02-02 03:00:00,12,1012.3,-2.6,94,11,2800,42.596,,62.968,120,,,,11,,,,,,10,wg-a,,,,AAXX 02034 07790 12328 81223 10120 20110 30109 40123 58026 60117 71088 882// 90300 333 91034=
07790,1996-02-02 06:00:00,13,1011.2,-1.1,94,12,4000,31.484,,75.932,140,10.7,12.6,,6,,,45,,,10,wg-a,,,,AAXX 02064 07790 02240 81417 10130 20120 30098 40112 58011 60454 71088 882// 90600 333 10126 20107 60067 91041=
07790,1996-02-02 09:00:00,13,1011.1,-0.1,94,12,6000,25.928,,53.708,150,,,,2,,,,,,21,wg-a,,,,AAXX 02094 07790 12356 71514 10130 20120 30097 40111 55001 60027 72186 8687/ 90900 333 91029=
07790,1996-02-02 12:00:00,15,1009.6,-1.5,77,11,10000,25.928,,53.708,150,,,,,,,,,,3,wg-a,,,,AAXX 02124 07790 12460 /1514 10150 20110 30082 40096 58015 60026 70386 82882 91200 333 91029=
07790,1996-02-02 15:00:00,14,1008.3,-1.3,82,11,10000,14.816,,,360,,,,,,,,,,3,wg-a,,,,AAXX 02154 07790 02460 /3608 10140 20110 30069 40083 56013 61000 70362 83872 91500 333 ////=
07790,1996-02-02 18:00:00,12,1008.8,0.5,88,10,12000,0,,,0,11.8,15.9,,,,,,,,2,wg-a,,,,AAXX 02184 07790 32462 /0000 10120 20100 30074 40088 53005 70262 83872 91800 333 10159 20118=
07790,1996-02-02 21:00:00,11,1009.1,0.3,94,10,15000,3.704,,,180,,,,,,,,,,,wg-a,,,,AAXX 02214 07790 12465 71802 10110 20100 30077 40091 53003 60006 875// 92100=
07790,1996-02-03 00:00:00,10,1008.3,-0.8,93,9,15000,7.408,,,110,,,,,,,,,,,wg-a,,,,AAXX 03004 07790 12365 71104 10100 20090 30069 40083 56008 60006 8557/ 90000=
07790,1996-02-03 03:00:00,10,1007.6,-0.7,93,9,15000,0,,,0,,,,1,,,,,,21,wg-a,,,,AAXX 03034 07790 12365 70000 10100 20090 30062 40076 58007 60017 72162 8277/ 90300=
07790,1996-02-03 06:00:00,10,1008.6,0.9,87,8,15000,22.224,,,310,9.6,11.8,,,,,3,,,3,wg-a,,,,AAXX 03064 07790 12465 73112 10100 20080 30071 40086 53009 60034 70362 875// 90600 333 10118 20096=
07790,1996-02-03 09:00:00,11,1009.9,1.4,71,6,500,14.816,,,320,,,,,,,,,,,wg-a,,,,AAXX 03094 07790 12500 73208 10110 20060 30085 40099 51014 60006 878// 90900=
07790,1996-02-03 12:00:00,13,1009.7,-0.2,72,8,25000,18.52,,,350,,,,,,,,,,,wg-a,,,,AAXX 03124 07790 12575 63510 10130 20080 30083 40097 58002 60006 86531 91200=
07790,1996-02-03 15:00:00,14,1009,-0.7,72,9,500,11.112,,,150,,,,,,,,,,,wg-a,,,,AAXX 03154 07790 12500 41506 10140 20090 30076 40090 56007 60006 83540 91500=
07790,1996-02-03 18:00:00,11,1009.8,0.8,82,8,500,3.704,,,200,9.7,14.8,,,,,,,,,wg-a,,,,AAXX 03184 07790 12500 32002 10110 20080 30084 40098 53008 60006 83800 91800 333 10148 20097=
07790,1996-02-03 21:00:00,7,1010,0.1,93,6,20000,7.408,,,250,,,,,,,,,,,wg-a,,,,AAXX 03214 07790 12570 22504 10070 20060 30085 40100 52001 60006 82100 92100=
07790,1996-02-04 00:00:00,7,1009,-1,87,5,20000,7.408,,,270,,,,,,,,,,,wg-a,,,,AAXX 04004 07790 12570 52704 10070 20050 30075 40090 58010 60006 82130 90000=
07790,1996-02-04 03:00:00,7,1007.5,-1.5,87,5,20000,11.112,,,240,,,,0,,,,,,,wg-a,,,,AAXX 04034 07790 12670 72406 10070 20050 30060 40075 57015 60007 8253/ 90300=
07790,1996-02-04 06:00:00,6,1006.3,-1.2,87,4,20000,7.408,,,250,6.2,10.8,,,,,,,,,wg-a,,,,AAXX 04064 07790 12570 52504 10060 20040 30048 40063 56012 60004 83801 90600 333 10108 20062=
07790,1996-02-04 09:00:00,10,1006.4,0.1,71,5,40000,7.408,,,250,,,,,,,,,,,wg-a,,,,AAXX 04094 07790 12582 32504 10100 20050 30049 40064 50001 60006 82801 90900=
07790,1996-02-04 12:00:00,16,1004.6,-1.7,51,6,40000,7.408,,,100,,,,,,,,,,,wg-a,,,,AAXX 04124 07790 12582 21004 10160 20060 30032 40046 58017 60006 81202 91200=
07790,1996-02-04 15:00:00,14,1002.9,-1.7,67,8,15000,7.408,,,90,,,,,,,,,,15,wg-a,,,,AAXX 04154 07790 12565 50904 10140 20080 30015 40029 56017 60006 71511 84802 91500=
07790,1996-02-04 18:00:00,10,1003.1,0.2,82,7,15000,7.408,,,220,6.2,16.4,,,,,,,,,wg-a,,,,AAXX 04184 07790 12565 62204 10100 20070 30017 40031 53002 60006 86800 91800 333 10164 20062=
07790,1996-02-05 00:00:00,7,1002.3,-0.8,76,3,25000,22.224,,,240,,,,,,,,,,,wg-a,,,,AAXX 05004 07790 12575 32412 10070 20030 30008 40023 58008 60006 82840 90000=
07790,1996-02-05 03:00:00,8,1000.8,-1.5,57,0,25000,14.816,,,240,,,,,,,,,,,wg-a,,,,AAXX 05034 07790 12575 52408 10080 20000 39993 40008 56015 60006 84840 90300=
07790,1996-02-05 06:00:00,8,999.7,-1.1,42,-4,25000,18.52,,,260,5.9,10,,,,,,,,,wg-a,,,,AAXX 05064 07790 02575 22610 10080 21040 39982 49997 56011 60006 82200 90600 333 10100 20059 60004=
07790,1996-02-05 09:00:00,10,999.6,-0,46,-1,25000,25.928,,53.708,260,,,,,,,,,,,wg-a,,,,AAXX 05094 07790 12575 42614 10100 21010 39982 49996 55000 60006 84800 90900 333 91029=
07790,1996-02-05 12:00:00,11,999,-0.6,47,0,20000,22.224,,53.708,320,,,,,,,,,,,wg-a,,,,AAXX 05124 07790 12570 63212 10110 20000 39976 49990 58006 60006 85801 91200 333 91029=
07790,1996-02-05 15:00:00,9,998.6,-0.4,57,1,20000,22.224,,,350,,,,,,,,,,,wg-a,,,,AAXX 05154 07790 12570 33512 10090 20010 39972 49986 56004 60006 82801 91500=
07790,1996-02-05 18:00:00,8,1000.4,1.7,76,4,20000,29.632,,,360,7.7,11.8,,,,,,,,,wg-a,,,,AAXX 05184 07790 12470 /3616 10080 20040 39989 40004 53017 60006 84930 91800 333 10118 20077=
07790,1996-02-05 21:00:00,7,1001.8,1.4,81,4,10000,18.52,,,320,,,,1,,,,,,21,wg-a,,,,AAXX 05214 07790 12460 83210 10070 20040 30003 40018 51014 60017 72162 8587/ 92100=
07790,1996-02-06 00:00:00,6,1001.1,-0.7,87,4,10000,7.408,,,280,,,,1,,,,,,61,wg-a,,,,AAXX 06004 07790 02460 82804 10060 20040 39996 40011 58007 60036 76162 8587/ 90000 333 60017=
07790,1996-02-06 03:00:00,6,999.9,-1.2,87,4,10000,3.704,,,280,,,,0,,,,,,21,wg-a,,,,AAXX 06034 07790 12460 82802 10060 20040 39984 49999 58012 60007 72162 8587/ 90300=
07790,1996-02-06 06:00:00,5,998.8,-1.1,81,2,10000,11.112,,,310,5.1,8.3,,,,,3,,,1,wg-a,,,,AAXX 06064 07790 12460 /3106 10050 20020 39973 49988 56011 60034 70162 8583/ 90600 333 10083 20051=
07790,1996-02-06 09:00:00,8,997.1,-1.6,53,-1,18000,7.408,,,340,,,,,,,,,,,wg-a,,,,AAXX 06094 07790 12668 23404 10080 21010 39957 49971 58016 60006 81530 90900=
07790,1996-02-06 12:00:00,9,995.1,-2,61,2,25000,14.816,,,60,,,,,,,,,,,wg-a,,,,AAXX 06124 07790 12675 70608 10090 20020 39937 49951 58020 60006 878// 91200=
07790,1996-02-06 15:00:00,8,995,-0.1,53,-1,25000,7.408,,,50,,,,,,,,,,,wg-a,,,,AAXX 06154 07790 12675 70504 10080 21010 39936 49950 55001 60006 874// 91500=
07790,1996-02-06 18:00:00,6,996,0.9,75,2,25000,7.408,,,280,4.9,9.7,,,,,,,,,wg-a,,,,AAXX 06184 07790 12675 72804 10060 20020 39945 49960 53009 60006 8780/ 91800 333 10097 20049=
07790,1996-02-06 21:00:00,5,997.2,1.2,70,0,20000,7.408,,,250,,,,,,,,,,,wg-a,,,,AAXX 06214 07790 12670 72504 10050 20000 39957 49972 52012 60006 8155/ 92100=
07790,1996-02-07 00:00:00,7,998.2,1,66,1,20000,14.816,,,10,,,,,,,,,,,wg-a,,,,AAXX 07004 07790 12570 70108 10070 20010 39967 49982 53010 60006 875// 90000=
07790,1996-02-07 03:00:00,6,998.5,0.3,70,1,20000,3.704,,,270,,,,,,,,,,21,wg-a,,,,AAXX 07034 07790 02570 82702 10060 20010 39970 49985 50003 61000 72162 885// 90300 333 ////=
07790,1996-02-07 06:00:00,6,999.6,1.1,70,1,20000,7.408,,,310,4.6,7.4,,,,,,,,2,wg-a,,,,AAXX 07064 07790 02570 83104 10060 20010 39981 49996 51011 61000 70262 885// 90600 333 10074 20046 ////=
07790,1996-02-07 09:00:00,7,1000.2,0.6,66,1,12000,11.112,,,330,,,,,,,,,,,wg-a,,,,AAXX 07094 07790 12562 73306 10070 20010 39987 40002 51006 60006 878// 90900=
07790,1996-02-07 12:00:00,8,999.2,-1,57,0,18000,7.408,,,40,,,,,,,,,,,wg-a,,,,AAXX 07124 07790 12568 70404 10080 20000 39977 49992 58010 60006 8653/ 91200=
07790,1996-02-07 15:00:00,7,997.8,-1.4,61,0,11000,0,,,0,,,,,,,,,,,wg-a,,,,AAXX 07154 07790 12561 70000 10070 20000 39963 49978 56014 60006 878// 91500=
07790,1996-02-07 18:00:00,6,996.7,-1.1,81,3,8000,3.704,,,250,5.7,7.8,,,,,,,,60,wg-a,,,,AAXX 07184 07790 02558 82502 10060 20030 39952 49967 58011 61000 76062 878// 91800 333 10078 20057 ////=
07790,1996-02-07 21:00:00,5,995,-1.7,93,4,10000,3.704,,,300,,,,0,,,,,,61,wg-a,,,,AAXX 07214 07790 12560 83002 10050 20040 39935 49950 58017 60007 76162 878// 92100=
07790,1996-02-08 00:00:00,5,993.3,-1.7,93,4,10000,7.408,,,330,,,,1,,,,,,21,wg-a,,,,AAXX 08004 07790 02460 83304 10050 20040 39918 49933 56017 60016 72162 878// 90000 333 60017=
07790,1996-02-08 03:00:00,4,992.8,-0.5,93,3,10000,14.816,,,330,,,,1,,,,,,61,wg-a,,,,AAXX 08034 07790 12460 83308 10040 20030 39913 49928 56005 60017 76162 875// 90300=
07790,1996-02-08 06:00:00,4,993.7,0.9,93,3,12000,11.112,,,320,4,5.8,,1,,,3,,,21,wg-a,,,,AAXX 08064 07790 02462 73206 10040 20030 39922 49937 53009 60034 72162 878// 90600 333 10058 20040 60017=
07790,1996-02-08 09:00:00,6,996.1,2.4,81,3,13000,11.112,,,330,,,,,,,,,,,wg-a,,,,AAXX 08094 07790 12563 83306 10060 20030 39946 49961 53024 60006 888// 90900=
07790,1996-02-08 12:00:00,8,997.2,1.2,71,3,11000,18.52,,,340,,,,,,,,,,,wg-a,,,,AAXX 08124 07790 02/61 /3410 10080 20030 39958 49972 51012 61000 91200 333 ////=
07790,1996-02-08 15:00:00,9,998.7,1.5,49,-1,18000,22.224,,61.116,340,,,,,,,,,,,wg-a,,,,AAXX 08154 07790 12568 53412 10090 21010 39973 49987 53015 60006 82801 91500 333 91033=
07790,1996-02-08 18:00:00,7,1001.6,2.8,57,-1,18000,18.52,,61.116,330,4.4,9.1,,,,,,,,,wg-a,,,,AAXX 08184 07790 32568 43310 10070 21010 30001 40016 53028 82801 91800 333 10091 20044 91033=
07790,1996-02-09 00:00:00,8,1006.8,2.5,61,1,20000,7.408,,,330,,,,,,,,,,,wg-a,,,,AAXX 09004 07790 12670 33304 10080 20010 30053 40068 53025 60006 83500 90000=
07790,1996-02-09 03:00:00,6,1009.4,2.6,65,0,20000,11.112,,,310,,,,,,,,,,,wg-a,,,,AAXX 09034 07790 12/70 13106 10060 20000 30079 40094 51026 60006 81030 90300=
07790,1996-02-09 06:00:00,7,1011.2,1.8,49,-3,18000,11.112,,,310,5.4,10.1,,,,,,,,,wg-a,,,,AAXX 09064 07790 02668 13106 10070 21030 30097 40112 53018 60006 81500 90600 333 10101 20054 61000=
07790,1996-02-09 09:00:00,11,1013.6,2.4,37,-3,500,18.52,,,330,,,,,,,,,,,wg-a,,,,AAXX 09094 07790 12600 /3310 10110 21030 30121 40136 51024 60006 81500 90900=
07790,1996-02-09 12:00:00,12,1014.5,0.9,38,-2,500,14.816,,,30,,,,,,,,,,,wg-a,,,,AAXX 09124 07790 12600 /0308 10120 21020 30130 40145 50009 60006 81500 91200=
07790,1996-02-09 15:00:00,11,1015.1,0.6,32,-5,500,3.704,,,80,,,,,,,,,,,wg-a,,,,AAXX 09154 07790 12600 30802 10110 21050 30136 40151 53006 60006 81501 91500=
07790,1996-02-09 18:00:00,5,1016.2,1.1,60,-2,20000,7.408,,,230,5,11.7,,,,,,,,,wg-a,,,,AAXX 09184 07790 12/70 /2304 10050 21020 30147 40162 53011 60006 80000 91800 333 10117 20050=
07790,1996-02-09 21:00:00,4,1017,0.8,65,-2,10000,14.816,,,230,,,,,,,,,,,wg-a,,,,AAXX 09214 07790 12/60 /2308 10040 21020 30155 40170 51008 60006 92100=
07790,1996-02-10 00:00:00,4,1017.2,0.2,65,-2,20000,11.112,,,230,,,,,,,,,,,wg-a,,,,AAXX 10004 07790 12/70 02306 10040 21020 30157 40172 51002 60006 80000 90000=
07790,1996-02-10 03:00:00,4,1016.9,-0.3,60,-3,20000,14.816,,,230,,,,,,,,,,,wg-a,,,,AAXX 10034 07790 12/70 22308 10040 21030 30154 40169 58003 60006 81031 90300=
07790,1996-02-10 06:00:00,5,1016.9,0,56,-3,20000,18.52,,,230,3,5,,,,,,,,,wg-a,,,,AAXX 10064 07790 02/70 22310 10050 21030 30154 40169 50000 60006 81031 90600 333 10050 20030 60004=
07790,1996-02-10 09:00:00,8,1017.6,0.7,49,-2,25000,18.52,,,230,,,,,,,,,,,wg-a,,,,AAXX 10094 07790 12/75 82310 10080 21020 30161 40176 51007 60006 82032 90900=
07790,1996-02-10 12:00:00,13,1017,-0.5,47,2,25000,14.816,,,140,,,,,,,,,,,wg-a,,,,AAXX 10124 07790 12675 71408 10130 20020 30156 40170 58005 60006 81102 91200=
07790,1996-02-10 15:00:00,12,1016.6,-0.5,54,3,25000,18.52,,,150,,,,,,,,,,,wg-a,,,,AAXX 10154 07790 12675 71510 10120 20030 30151 40166 55005 60006 81552 91500=
07790,1996-02-10 18:00:00,9,1017,0.4,71,4,20000,7.408,,,170,4.2,13.6,,,,,,,,,wg-a,,,,AAXX 10184 07790 12570 /1704 10090 20040 30155 40170 51004 60006 81531 91800 333 10136 20042=
07790,1996-02-10 21:00:00,7,1017.6,0.6,76,3,25000,7.408,,,220,,,,,,,,,,,wg-a,,,,AAXX 10214 07790 12575 72204 10070 20030 30161 40176 51006 60006 81572 92100=
07790,1996-02-11 00:00:00,6,1017,-0.6,81,3,25000,11.112,,,230,,,,,,,,,,,wg-a,,,,AAXX 11004 07790 12575 /2306 10060 20030 30155 40170 56006 60006 82532 90000=
07790,1996-02-11 03:00:00,6,1015.9,-1.1,75,2,25000,11.112,,,230,,,,,,,,,,,wg-a,,,,AAXX 11034 07790 12575 22306 10060 20020 30144 40159 58011 60006 81501 90300=
07790,1996-02-11 06:00:00,5,1016.5,0.6,81,2,25000,11.112,,,220,4.6,9.3,,,,,,,,,wg-a,,,,AAXX 11064 07790 02575 /2206 10050 20020 30150 40165 53006 60006 81200 90600 333 10093 20046 60004=
07790,1996-02-11 09:00:00,12,1017.3,0.8,54,3,500,11.112,,,220,,,,,,,,,,,wg-a,,,,AAXX 11094 07790 12500 /2206 10120 20030 30158 40173 52008 60006 81101 90900=
07790,1996-02-11 12:00:00,13,1016.7,-0.5,72,8,500,11.112,,,120,,,,,,,,,,,wg-a,,,,AAXX 11124 07790 12500 61206 10130 20080 30153 40167 58005 60006 82205 91200=
07790,1996-02-11 15:00:00,11,1016.1,-0.7,82,8,15000,11.112,,,150,,,,1,,,,,,80,wg-a,,,,AAXX 11154 07790 12565 71506 10110 20080 30146 40161 55007 60017 78086 86232 91500=
07790,1996-02-11 18:00:00,10,1016.8,0.7,87,8,15000,3.704,,,210,4.8,14.3,,3,,,,,,21,wg-a,,,,AAXX 11184 07790 12565 /2102 10100 20080 30153 40168 53007 60037 72186 84831 91800 333 10143 20048=
07790,1996-02-11 21:00:00,7,1017.4,0.6,93,6,15000,14.816,,,230,,,,,,,,,,13,wg-a,,,,AAXX 11214 07790 12565 52308 10070 20060 30159 40174 51006 60006 71311 85900 92100=
07790,1996-02-12 00:00:00,5,1017.3,-0.1,87,3,15000,11.112,,,230,,,,,,,,,,,wg-a,,,,AAXX 12004 07790 12565 32306 10050 20030 30158 40173 57001 60006 83800 90000=
07790,1996-02-12 03:00:00,6,1016.8,-0.5,87,4,20000,14.816,,,330,,,,0,,,,,,13,wg-a,,,,AAXX 12034 07790 12570 23308 10060 20040 30153 40168 55005 60007 71300 82900 90300=
07790,1996-02-12 06:00:00,6,1016.5,-0.3,75,2,0,11.112,,,220,4.7,9.7,,,,,5,,,,wg-a,,,,AAXX 12064 07790 12/// /2206 10060 20020 30150 40165 55003 60054 90600 333 10097 20047=
07790,1996-02-12 09:00:00,11,1017.4,0.9,58,3,18000,7.408,,,220,,,,,,,,,,,wg-a,,,,AAXX 12094 07790 12568 22204 10110 20030 30159 40174 51009 60006 82230 90900=
07790,1996-02-12 12:00:00,14,1015.7,-1.6,55,5,50000,11.112,,,140,,,,,,,,,,,wg-a,,,,AAXX 12124 07790 12684 41406 10140 20050 30143 40157 58016 60006 84200 91200=
07790,1996-02-12 15:00:00,13,1014,-1.7,58,5,11000,14.816,,,170,,,,,,,,,,,wg-a,,,,AAXX 12154 07790 12561 51708 10130 20050 30126 40140 56017 60006 84231 91500=
07790,1996-02-12 18:00:00,8,1012.7,-1.4,81,5,25000,3.704,,,10,4.7,14.8,,,,,,,,,wg-a,,,,AAXX 12184 07790 12575 /0102 10080 20050 30112 40127 56014 60006 81500 91800 333 10148 20047=
07790,1996-02-12 21:00:00,5,1009.2,-3.5,87,3,25000,7.408,,,300,,,,,,,,,,,wg-a,,,,AAXX 12214 07790 12575 33004 10050 20030 30077 40092 58035 60006 82830 92100=
07790,1996-02-13 00:00:00,6,1005.8,-3.4,87,4,25000,3.704,,,30,,,,,,,,,,,wg-a,,,,AAXX 13004 07790 12575 30302 10060 20040 30043 40058 58034 60006 82830 90000=
07790,1996-02-13 03:00:00,9,1003.2,-2.6,87,7,25000,11.112,,,240,,,,1,,,,,,61,wg-a,,,,AAXX 13034 07790 12475 /2406 10090 20070 30017 40032 58026 60017 76161 85870 90300=
07790,1996-02-13 06:00:00,11,1000.1,-3,43,-1,35000,22.224,,,260,4.7,11.1,,0,,,1,,,1,wg-a,,,,AAXX 13064 07790 02581 /2612 10110 21010 39987 40001 56030 60014 70161 81800 90600 333 10111 20047 60007=
07790,1996-02-13 09:00:00,14,999.7,-0.4,41,1,35000,38.892,,70.376,270,,,,,,,,,,,wg-a,,,,AAXX 13094 07790 12581 22721 10140 20010 39983 49997 55004 60006 82800 90900 333 91038=
07790,1996-02-13 12:00:00,15,998.6,-1.1,33,-1,35000,50.004,,83.34,260,,,,,,,,,,,wg-a,,,,AAXX 13124 07790 12581 /2627 10150 21010 39972 49986 58011 60006 81800 91200 333 91045=
07790,1996-02-13 15:00:00,14,999.9,1.3,38,0,35000,50.004,,77.784,280,,,,,,,,,,,wg-a,,,,AAXX 13154 07790 12581 22827 10140 20000 39985 49999 53013 60006 82800 91500 333 91042=
07790,1996-02-13 18:00:00,13,1000.3,0.4,38,-1,500,42.596,,66.672,260,10.8,15.7,,,,,,,,,wg-a,,,,AAXX 13184 07790 12500 22623 10130 21010 39989 40003 53004 60006 82800 91800 333 10157 20108 91036=
07790,1996-02-13 21:00:00,12,1002.4,2.1,32,-4,25000,18.52,,79.636,330,,,,,,,,,,,wg-a,,,,AAXX 13214 07790 12575 /3310 10120 21040 30010 40024 51021 60006 81500 92100 333 91043=
07790,1996-02-14 00:00:00,10,1003.1,0.7,34,-5,11000,3.704,,,10,,,,,,,,,,,wg-a,,,,AAXX 14004 07790 12/61 /0102 10100 21050 30017 40031 53007 60006 90000=
07790,1996-02-14 03:00:00,4,1003.8,0.6,60,-3,25000,7.408,,,250,,,,,,,,,,,wg-a,,,,AAXX 14034 07790 12/75 02504 10040 21030 30023 40038 51006 60006 80000 90300=
07790,1996-02-14 06:00:00,5,1005.4,1.6,56,-3,25000,3.704,,,200,4,12.8,,,,,,,,,wg-a,,,,AAXX 14064 07790 02575 /2002 10050 21030 30039 40054 53016 60006 81800 90600 333 10128 20040 60004=
07790,1996-02-14 09:00:00,13,1007.2,1.9,33,-3,11000,11.112,,,250,,,,,,,,,,,wg-a,,,,AAXX 14094 07790 12/61 /2506 10130 21030 30058 40072 51019 60006 90900=
07790,1996-02-14 12:00:00,13,1007.2,1.9,33,-3,11000,11.112,,,250,,,,,,,,,,,wg-a,,,,AAXX 14124 07790 12/61 /2506 10130 21030 30058 40072 51019 60006 91200=
07790,1996-02-14 15:00:00,9,1009.9,1.6,81,6,500,14.816,,,120,,,,2,,,,,,80,wg-a,,,,AAXX 14154 07790 12500 71208 10090 20060 30084 40099 53016 60027 78098 8/900 91500=
07790,1996-02-14 18:00:00,6,1012.4,2.5,87,4,10000,24.076,,,230,4.6,14.5,,10,,,,,,60,wg-a,,,,AAXX 14184 07790 12460 82313 10060 20040 30109 40124 51025 60107 76098 889// 91800 333 10145 20046=
07790,1996-02-14 21:00:00,6,1015,2.6,87,4,12000,22.224,,,250,,,,5,,,,,,61,wg-a,,,,AAXX 14214 07790 12262 82512 10060 20040 30135 40150 50026 60057 76186 889// 92100=
07790,1996-02-15 00:00:00,6,1016.3,1.3,93,5,15000,3.704,,,30,,,,1,,,,,,21,wg-a,,,,AAXX 15004 07790 02465 80302 10060 20050 30148 40163 51013 60066 72186 883// 90000 333 60017=
07790,1996-02-15 03:00:00,9,1017.3,1,57,1,15000,24.076,,,40,,,,,,,,,,,wg-a,,,,AAXX 15034 07790 12565 80413 10090 20010 30158 40173 52010 60006 8687/ 90300=
07790,1996-02-15 06:00:00,9,1018.9,1.6,53,0,15000,18.52,,,60,5.5,9.4,,0,,,19,,,60,wg-a,,,,AAXX 15064 07790 02565 80610 10090 20000 30174 40189 53016 60194 76062 8687/ 90600 333 10094 20055 60007=
07790,1996-02-15 09:00:00,7,1021.5,2.6,76,3,20000,11.112,,,290,,,,0,,,,,,60,wg-a,,,,AAXX 15094 07790 12270 82906 10070 20030 30200 40215 51026 60007 76062 878// 90900=
07790,1996-02-15 12:00:00,11,1021.6,0.1,50,1,25000,25.928,,,340,,,,,,,,,,1,wg-a,,,,AAXX 15124 07790 02675 43414 10110 20010 30201 40216 50001 60016 70161 83230 91200 333 61000=
07790,1996-02-15 15:00:00,11,1020.9,-0.7,47,0,25000,25.928,,,360,,,,,,,,,,,wg-a,,,,AAXX 15154 07790 12675 43614 10110 20000 30194 40209 56007 60006 83202 91500=
07790,1996-02-15 18:00:00,9,1021.7,0.8,53,0,25000,18.52,,,360,6.5,11,,,,,,,,,wg-a,,,,AAXX 15184 07790 32675 23610 10090 20000 30202 40217 53008 82202 91800 333 10110 20065=
07790,1996-02-15 21:00:00,8,1022.9,1.2,53,-1,25000,18.52,,,340,,,,,,,,,,,wg-a,,,,AAXX 15214 07790 12575 /3410 10080 21010 30214 40229 51012 60006 81500 92100=
07790,1996-02-16 00:00:00,5,1022.9,-0,70,0,25000,7.408,,,210,,,,,,,,,,,wg-a,,,,AAXX 16004 07790 12/75 02104 10050 20000 30214 40229 55000 60006 80000 90000=
07790,1996-02-16 03:00:00,4,1021.7,-1.2,75,0,25000,14.816,,,200,,,,,,,,,,,wg-a,,,,AAXX 16034 07790 12675 22008 10040 20000 30202 40217 58012 60006 82100 90300=
07790,1996-02-16 06:00:00,4,1021.1,-0.6,75,0,25000,14.816,,,200,3.4,9.7,,,,,,,,,wg-a,,,,AAXX 16064 07790 02575 52008 10040 20000 30196 40211 56006 60006 85500 90600 333 10097 20034 60004=
07790,1996-02-16 09:00:00,10,1021.3,0.2,53,1,20000,7.408,,,200,,,,,,,,,,,wg-a,,,,AAXX 16094 07790 12670 /2004 10100 20010 30198 40213 51002 60006 81100 90900=
07790,1996-02-16 12:00:00,11,1020,-1.3,50,1,20000,11.112,,,350,,,,,,,,,,,wg-a,,,,AAXX 16124 07790 12/70 /3506 10110 20010 30185 40200 58013 60006 80000 91200=
07790,1996-02-16 15:00:00,11,1018.6,-1.4,54,2,20000,14.816,,,350,,,,,,,,,,,wg-a,,,,AAXX 16154 07790 12/70 03508 10110 20020 30171 40186 56014 60006 80000 91500=
07790,1996-02-16 18:00:00,7,1019,0.4,70,2,20000,3.704,,,120,4.3,12.4,,,,,,,,,wg-a,,,,AAXX 16184 07790 12/70 01202 10070 20020 30175 40190 53004 60006 80000 91800 333 10124 20043=
07790,1996-02-16 21:00:00,6,1019.2,0.2,52,-3,10000,18.52,,,200,,,,,,,,,,,wg-a,,,,AAXX 16214 07790 12/60 /2010 10060 21030 30177 40192 50002 60006 92100=
07790,1996-02-17 00:00:00,5,1018.7,-0.5,52,-4,10000,22.224,,,200,,,,,,,,,,,wg-a,,,,AAXX 17004 07790 12/60 /2012 10050 21040 30172 40187 58005 60006 90000=
07790,1996-02-17 03:00:00,5,1017.1,-1.6,48,-5,20000,22.224,,,200,,,,,,,,,,,wg-a,,,,AAXX 17034 07790 12/70 02012 10050 21050 30156 40171 56016 60006 80000 90300=
07790,1996-02-17 06:00:00,5,1015.8,-1.3,45,-6,20000,18.52,,,200,3.8,7.1,,,,,,,,,wg-a,,,,AAXX 17064 07790 02870 /2010 10050 21060 30143 40158 58013 60006 81040 90600 333 10071 20038 60004=
07790,1996-02-17 09:00:00,11,1015.6,-0.2,40,-2,500,0,,,0,,,,,,,,,,,wg-a,,,,AAXX 17094 07790 12600 /0000 10110 21020 30141 40156 55002 60006 81500 90900=
07790,1996-02-17 12:00:00,14,1013.2,-2.3,47,3,500,14.816,,,110,,,,,,,,,,,wg-a,,,,AAXX 17124 07790 12/00 /1108 10140 20030 30118 40132 58023 60006 81040 91200=
07790,1996-02-17 15:00:00,13,1011.4,-1.8,51,3,500,7.408,,,30,,,,,,,,,,,wg-a,,,,AAXX 17154 07790 12/00 /0304 10130 20030 30100 40114 56018 60006 81040 91500=
07790,1996-02-17 18:00:00,8,1012.4,0.9,71,3,500,7.408,,,270,4.2,14.9,,,,,,,,,wg-a,,,,AAXX 17184 07790 12/00 /2704 10080 20030 30109 40124 53009 60006 80000 91800 333 10149 20042=
07790,1996-02-17 21:00:00,7,1015.3,2.9,76,3,500,11.112,,,200,,,,,,,,,,,wg-a,,,,AAXX 17214 07790 12/00 02006 10070 20030 30138 40153 53029 60006 80000 92100=
07790,1996-02-18 00:00:00,6,1016.4,1.1,75,2,500,11.112,,,230,,,,,,,,,,,wg-a,,,,AAXX 18004 07790 12/00 02306 10060 20020 30149 40164 51011 60006 80000 90000=
07790,1996-02-18 03:00:00,5,1016.9,0.5,70,0,500,14.816,,,190,,,,,,,,,,,wg-a,,,,AAXX 18034 07790 12/00 01908 10050 20000 30154 40169 51005 60006 80000 90300=
07790,1996-02-18 06:00:00,6,1016.6,-0.3,52,-3,500,18.52,,,200,5.1,8.7,,,,,,,,,wg-a,,,,AAXX 18064 07790 02/00 02010 10060 21030 30151 40166 55003 60006 80000 90600 333 10087 20051 60004=
07790,1996-02-18 09:00:00,12,1016.7,0.1,40,-1,500,11.112,,,190,,,,,,,,,,,wg-a,,,,AAXX 18094 07790 12/00 11906 10120 21010 30152 40167 50001 60006 80001 90900=
07790,1996-02-18 12:00:00,15,1014.6,-2,44,3,500,29.632,,,120,,,,,,,,,,,wg-a,,,,AAXX 18124 07790 12600 21216 10150 20030 30132 40146 58020 60006 81101 91200=
07790,1996-02-18 15:00:00,14,1011.1,-3.5,67,8,11000,11.112,,,290,,,,,,,,,,,wg-a,,,,AAXX 18154 07790 12561 /2906 10140 20080 30097 40111 56035 60006 83832 91500=
07790,1996-02-18 18:00:00,9,1009.6,-1.6,81,6,15000,3.704,,,210,6,14.9,,,,,,,,,wg-a,,,,AAXX 18184 07790 12565 22102 10090 20060 30081 40096 56016 60006 81101 91800 333 10149 20060=
07790,1996-02-18 21:00:00,6,1008.6,-1,87,4,25000,11.112,,,200,,,,,,,,,,,wg-a,,,,AAXX 18214 07790 12/75 02006 10060 20040 30071 40086 56010 60006 80000 92100=
07790,1996-02-19 00:00:00,5,1006.1,,87,3,25000,7.408,,,200,,,,,,,,,,,wg-a,,,,AAXX 19004 07790 12675 22004 10050 20030 30046 40061 60006 82500 90000=
07790,1996-02-19 03:00:00,5,1002.3,-3.8,87,3,25000,3.704,,,250,,,,,,,,,,,wg-a,,,,AAXX 19034 07790 12675 42502 10050 20030 30008 40023 56038 60006 84500 90300=
07790,1996-02-19 06:00:00,6,999.8,-2.5,87,4,25000,3.704,,,230,4.3,9.1,,,,,,,,,wg-a,,,,AAXX 19064 07790 02575 72302 10060 20040 39983 49998 56025 60006 8457/ 90600 333 10091 20043 60004=
07790,1996-02-19 09:00:00,11,997.5,-2.2,71,6,20000,11.112,,,80,,,,,,,,,,,wg-a,,,,AAXX 19094 07790 12570 70806 10110 20060 39961 49975 58022 60006 8387/ 90900=
07790,1996-02-19 12:00:00,8,996.6,-0.9,81,5,3500,29.632,,57.412,260,,,,1,,,,,,60,wg-a,,,,AAXX 19124 07790 02435 82616 10080 20050 39952 49966 55009 60016 76062 878// 91200 333 60017 91031=
07790,1996-02-19 15:00:00,11,994.9,-1.7,54,2,40000,14.816,,64.82,270,,,,1,,,,,,1,wg-a,,,,AAXX 19154 07790 12482 /2708 10110 20020 39935 49949 55017 60017 70162 83832 91500 333 91035=
07790,1996-02-19 18:00:00,10,996,1.1,43,-2,500,25.928,,64.82,220,6.2,12.2,,,,,,,,1,wg-a,,,,AAXX 19184 07790 32500 32214 10100 21020 39946 49960 53011 70161 8/800 91800 333 10122 20062 91035=
07790,1996-02-19 21:00:00,10,996.8,0.8,40,-3,500,22.224,,,170,,,,,,,,,,,wg-a,,,,AAXX 19214 07790 12500 /1712 10100 21030 39954 49968 53008 60006 81500 92100=
07790,1996-02-20 00:00:00,7,998.1,1.2,53,-2,500,14.816,,,230,,,,,,,,,,,wg-a,,,,AAXX 20004 07790 12/00 02308 10070 21020 39966 49981 53012 60006 80000 90000=
07790,1996-02-20 03:00:00,9,997.3,-0.7,53,0,500,22.224,,,230,,,,,,,,,,13,wg-a,,,,AAXX 20034 07790 12500 /2312 10090 20000 39959 49973 58007 60006 71311 83332 90300=
07790,1996-02-20 06:00:00,7,997.7,0.3,66,1,500,18.52,,,210,6.2,10.6,,,,,2,,,15,wg-a,,,,AAXX 20064 07790 02500 32110 10070 20010 39962 49977 52003 60006 71511 82932 90600 333 10106 20062 60024=
07790,1996-02-20 09:00:00,11,998.2,0.6,54,2,500,3.704,,,150,,,,,,,,,,,wg-a,,,,AAXX 20094 07790 12500 /1502 10110 20020 39968 49982 50006 60006 81333 90900=
07790,1996-02-20 12:00:00,13,998.1,-0.1,51,3,500,14.816,,,330,,,,,,,,,,,wg-a,,,,AAXX 20124 07790 12500 73308 10130 20030 39967 49981 58001 60006 8237/ 91200=
07790,1996-02-20 18:00:00,8,999.5,0.9,76,4,9000,7.408,,,270,6,13.6,,1,,,,,,80,wg-a,,,,AAXX 20184 07790 12559 82704 10080 20040 39980 49995 53009 60017 78096 889// 91800 333 10136 20060=
07790,1996-02-20 21:00:00,7,1000.9,1.4,81,4,25000,14.816,,,170,,,,,,,,,,29,wg-a,,,,AAXX 20214 07790 02575 71708 10070 20040 39994 40009 52014 61000 72996 878// 92100 333 ////=
07790,1996-02-21 00:00:00,4,1001.2,0.3,70,-1,25000,18.52,,,200,,,,,,,,,,0,wg-a,,,,AAXX 21004 07790 02575 /2010 10040 21010 39997 40012 52003 61000 70096 81500 90000 333 ////=
07790,1996-02-21 03:00:00,4,1000.5,-0.7,70,-1,25000,11.112,,,260,,,,,,,,,,13,wg-a,,,,AAXX 21034 07790 12/75 02606 10040 21010 39990 40005 58007 60006 71300 80000 90300=
07790,1996-02-21 06:00:00,5,1001.1,0.6,41,-7,40000,11.112,,,260,3.4,8.3,,,,,1,,,,wg-a,,,,AAXX 21064 07790 12582 22606 10050 21070 39996 40011 53006 60014 81370 90600 333 10083 20034=
07790,1996-02-21 09:00:00,10,1002.5,1.5,32,-6,40000,14.816,,,220,,,,,,,,,,,wg-a,,,,AAXX 21094 07790 12582 22208 10100 21060 30011 40025 51015 60006 82270 90900=
07790,1996-02-21 12:00:00,11,1003.3,0.8,32,-5,45000,11.112,,,30,,,,,,,,,,,wg-a,,,,AAXX 21124 07790 12683 40306 10110 21050 30019 40033 51008 60006 81234 91200=
07790,1996-02-21 15:00:00,8,1003,-0.4,53,-1,20000,18.52,,,280,,,,,,,,,,15,wg-a,,,,AAXX 21154 07790 12570 42810 10080 21010 30015 40030 58004 60006 71500 83901 91500=
07790,1996-02-21 18:00:00,6,1005.4,2.4,49,-4,20000,11.112,,,240,4.5,11.4,,,,,,,,15,wg-a,,,,AAXX 21184 07790 12570 72406 10060 21040 30039 40054 53024 60006 71511 87900 91800 333 10114 20045=
07790,1996-02-21 21:00:00,6,1005.9,0.5,52,-3,25000,7.408,,,230,,,,,,,,,,,wg-a,,,,AAXX 21214 07790 12775 72304 10060 21030 30044 40059 51005 60006 87500 92100=
07790,1996-02-22 00:00:00,5,1006.3,0.4,65,-1,0,3.704,,,340,,,,,,,,,,,wg-a,,,,AAXX 22004 07790 12/// /3402 10050 21010 30048 40063 51004 60006 90000=
07790,1996-02-22 03:00:00,4,1006,-0.3,81,1,11000,11.112,,,310,,,,,,,,,,,wg-a,,,,AAXX 22034 07790 12/61 /3106 10040 20010 30045 40060 55003 60006 90300=
07790,1996-02-22 06:00:00,3,1006.6,0.6,93,2,11000,14.816,,,220,2.1,6.3,,4,,,4,,,,wg-a,,,,AAXX 22064 07790 02/61 /2208 10030 20020 30051 40066 53006 60044 90600 333 10063 20021 60047=
07790,1996-02-22 09:00:00,4,1008.2,1.6,93,3,3000,14.816,,,290,,,,6,,,,,,10,wg-a,,,,AAXX 22094 07790 12430 82908 10040 20030 30067 40082 53016 60067 71062 889// 90900=
07790,1996-02-22 12:00:00,8,1007.8,-0.4,66,2,15000,18.52,,,270,,,,1,,,,,,3,wg-a,,,,AAXX 22124 07790 02465 /2710 10080 20020 30063 40078 58004 60076 70362 86200 91200 333 60017=
07790,1996-02-22 15:00:00,7,1008.2,0.4,70,2,15000,11.112,,,260,,,,2,,,,,,21,wg-a,,,,AAXX 22154 07790 12465 /2606 10070 20020 30067 40082 50004 60027 72162 86800 91500=
07790,1996-02-22 21:00:00,3,1010.9,0.8,81,0,20000,7.408,,,220,,,,,,,,,,2,wg-a,,,,AAXX 22214 07790 02570 32204 10030 20000 30094 40109 53008 61000 70261 82202 92100 333 ////=
07790,1996-02-23 00:00:00,4,1011.7,0.8,75,0,0,11.112,,,210,,,,,,,,,,,wg-a,,,,AAXX 23004 07790 02/// /2106 10040 20000 30102 40117 53008 61000 90000 333 ////=
07790,1996-02-23 03:00:00,3,1011.5,-0.2,93,2,15000,18.52,,,260,,,,1,,,,,,61,wg-a,,,,AAXX 23034 07790 12465 82610 10030 20020 30100 40115 56002 60017 76161 86870 90300=
07790,1996-02-23 06:00:00,3,1011.8,0.3,81,0,15000,11.112,,,210,2.7,5.7,,0,,,10,,,1,wg-a,,,,AAXX 23064 07790 02565 32106 10030 20000 30103 40118 53003 60104 70161 82531 90600 333 10057 20027 60007=
07790,1996-02-23 09:00:00,8,1012.7,0.9,66,2,25000,11.112,,,190,,,,,,,,,,,wg-a,,,,AAXX 23094 07790 12675 31906 10080 20020 30112 40127 51009 60006 81281 90900=
07790,1996-02-23 12:00:00,9,1012.3,-0.4,46,-2,25000,7.408,,,100,,,,,,,,,,,wg-a,,,,AAXX 23124 07790 12575 61004 10090 21020 30108 40123 58004 60006 8583/ 91200=
07790,1996-02-23 15:00:00,10,1011.1,-1.2,50,0,25000,11.112,,,120,,,,,,,,,,,wg-a,,,,AAXX 23154 07790 12575 51206 10100 20000 30096 40111 56012 60006 84830 91500=
07790,1996-02-23 18:00:00,7,1011.7,0.6,70,2,22000,11.112,,,320,2.2,10.8,,,,,,,,,wg-a,,,,AAXX 23184 07790 12672 73206 10070 20020 30102 40117 53006 60006 875// 91800 333 10108 20022=
07790,1996-02-23 21:00:00,5,1012.9,1.2,87,3,7000,11.112,,,320,,,,,,,,,,61,wg-a,,,,AAXX 23214 07790 02357 73206 10050 20030 30114 40129 51012 61000 76162 877// 92100 333 ////=
07790,1996-02-24 00:00:00,4,1013.3,0.4,87,2,12000,7.408,,,280,,,,,,,,,,21,wg-a,,,,AAXX 24004 07790 02462 52804 10040 20020 30118 40133 53004 61000 72162 858/0 90000 333 6100=
07790,1996-02-24 03:00:00,4,1014,0.7,93,3,12000,3.704,,,270,,,,2,,,,,,21,wg-a,,,,AAXX 24034 07790 12462 72702 10040 20030 30125 40140 51007 60027 72162 87800 90300=
07790,1996-02-24 06:00:00,3,1015.2,1.2,93,2,15000,7.408,,,210,2.8,6.9,,,,,2,,,1,wg-a,,,,AAXX 24064 07790 12465 32104 10030 20020 30137 40152 51012 60024 70161 83800 90600 333 10069 20028=
07790,1996-02-24 09:00:00,9,1016.8,1.6,61,2,15000,3.704,,,170,,,,,,,,,,,wg-a,,,,AAXX 24094 07790 12565 21702 10090 20020 30153 40168 51016 60006 82800 90900=
07790,1996-02-24 12:00:00,10,1017.4,0.6,57,2,15000,14.816,,,90,,,,,,,,,,,wg-a,,,,AAXX 24124 07790 12565 30908 10100 20020 30159 40174 50006 60006 83200 91200=
07790,1996-02-24 15:00:00,9,1017,-0.4,57,1,15000,11.112,,,90,,,,,,,,,,,wg-a,,,,AAXX 24154 07790 12565 30906 10090 20010 30155 40170 56004 60006 83500 91500=
07790,1996-02-24 18:00:00,5,1018.2,1.2,87,3,11000,3.704,,,250,2.4,10.2,,,,,,,,,wg-a,,,,AAXX 24184 07790 12561 22502 10050 20030 30167 40182 51012 60006 82530 91800 333 10102 20024=
07790,1996-02-24 21:00:00,4,1019.1,0.9,87,2,15000,7.408,,,190,,,,,,,,,,,wg-a,,,,AAXX 24214 07790 12665 31904 10040 20020 30176 40191 53009 60006 83530 92100=
07790,1996-02-25 00:00:00,6,1019.4,0.3,75,2,15000,11.112,,,200,,,,,,,,,,,wg-a,,,,AAXX 25004 07790 12665 /2006 10060 20020 30179 40194 51003 60006 86500 90000=
07790,1996-02-25 03:00:00,5,1019.4,-0,81,2,15000,7.408,,,180,,,,,,,,,,,wg-a,,,,AAXX 25034 07790 12665 /1804 10050 20020 30179 40194 55000 60006 85500 90300=
07790,1996-02-25 06:00:00,5,1019.4,-0,70,0,15000,18.52,,,200,2.9,6,,,,,,,,,wg-a,,,,AAXX 25064 07790 02565 22010 10050 20000 30179 40194 55000 60006 82800 90600 333 10060 20029 60004=
07790,1996-02-25 09:00:00,11,1020.8,1.4,54,2,500,7.408,,,170,,,,,,,,,,,wg-a,,,,AAXX 25094 07790 12600 /1704 10110 20020 30193 40208 51014 60006 81230 90900=
07790,1996-02-25 12:00:00,14,1019.8,-0.9,47,3,35000,29.632,,,110,,,,,,,,,,,wg-a,,,,AAXX 25124 07790 12681 21116 10140 20030 30184 40198 58009 60006 82800 91200=
07790,1996-02-25 14:00:00,13,1019.5,-0.4,62,6,500,29.632,,,110,,,,,,,,,,,wg-a,,,,AAXX 25144 07790 12500 21116 10130 20060 30180 40195 55004 60006 82800 91400=
07790,1996-02-25 15:00:00,13,1019.5,-0.4,62,6,500,29.632,,,110,,,,,,,,,,,wg-a,,,,AAXX 25154 07790 12500 21116 10130 20060 30180 40195 55004 60006 82800 91500=
07790,1996-02-25 18:00:00,10,1020.8,1.3,87,8,500,11.112,,,150,3.5,14,,0,,,,,,,wg-a,,,,AAXX 25184 07790 12500 71506 10100 20080 30193 40208 53013 60007 878// 91800 333 10140 20035=
07790,1996-02-25 21:00:00,9,1021.1,0.3,93,8,6000,11.112,,,110,,,,7,,,,,,61,wg-a,,,,AAXX 25214 07790 12456 81106 10090 20080 30196 40211 51003 60077 76166 888// 92100=
07790,1996-02-26 00:00:00,9,1020.9,-0.2,93,8,12000,7.408,,,170,,,,1,,,,,,60,wg-a,,,,AAXX 26004 07790 02562 71704 10090 20080 30194 40209 58002 60086 76066 878// 90000 333 60017=
07790,1996-02-26 03:00:00,8,1020.2,-0.7,100,8,15000,3.704,,,160,,,,1,,,,,,21,wg-a,,,,AAXX 26034 07790 12565 /1602 10080 20080 30187 40202 58007 60017 72162 85500 90300=
07790,1996-02-26 06:00:00,11,1019.4,-0.8,76,7,15000,29.632,,,100,7.9,11.5,,,,,9,,,1,wg-a,,,,AAXX 26064 07790 12465 61016 10110 20070 30179 40194 57008 60094 70162 86830 90600 333 10115 20079=
07790,1996-02-26 09:00:00,9,1020,0.6,93,8,2800,7.408,,53.708,110,,,,11,,,,,,63,wg-a,,,,AAXX 26094 07790 12228 71104 10090 20080 30185 40200 53006 60117 76386 85832 90900 333 91029=
07790,1996-02-26 12:00:00,12,1018.5,-1.5,82,9,9000,38.892,,57.412,100,,,,9,,,,,,21,wg-a,,,,AAXX 26124 07790 02459 71021 10120 20090 30170 40185 58015 60206 72186 8583/ 91200 333 60097 91031=
07790,1996-02-26 15:00:00,12,1017.5,-1,76,8,9000,25.928,,61.116,90,,,,,,,,,,,wg-a,,,,AAXX 26154 07790 12559 70914 10120 20080 30160 40175 56010 60006 8483/ 91500 333 91033=
07790,1996-02-26 18:00:00,10,1018.1,0.6,93,9,4000,7.408,,61.116,160,8.7,13,,6,,,,,,63,wg-a,,,,AAXX 26184 07790 12240 71604 10100 20090 30166 40181 53006 60067 76362 8583/ 91800 333 10130 20087 91033=
07790,1996-02-26 21:00:00,10,1017.8,-0.3,87,8,4000,3.704,,,200,,,,9,,,,,,81,wg-a,,,,AAXX 26214 07790 12240 82002 10100 20080 30163 40178 55003 60097 78196 869// 92100=
07790,1996-02-27 00:00:00,12,1017.4,-0.4,82,9,7000,29.632,,50.004,110,,,,2,,,,,,61,wg-a,,,,AAXX 27004 07790 02457 /1116 10120 20090 30159 40174 56004 60116 76196 86800 90000 333 60027 91027=
07790,1996-02-27 03:00:00,13,1016.4,-0.9,72,8,8000,31.484,,,100,,,,,,,,,,60,wg-a,,,,AAXX 27034 07790 02558 71017 10130 20080 30150 40164 57009 61000 76066 8687/ 90300 333 ////=
07790,1996-02-27 06:00:00,12,1017.1,0.6,76,8,3000,25.928,,,90,9.3,12.6,,,,,36,,,3,wg-a,,,,AAXX 27064 07790 02430 /0914 10120 20080 30156 40171 53006 60364 70362 8597/ 90600 333 10126 20093 61000=
07790,1996-02-27 09:00:00,13,1017.8,0.7,72,8,10000,25.928,,,90,,,,,,,,,,,wg-a,,,,AAXX 27094 07790 12560 70914 10130 20080 30163 40178 52007 60006 86801 90900=
07790,1996-02-27 12:00:00,13,1017.3,-0.4,72,8,9000,22.224,,,70,,,,,,,,,,,wg-a,,,,AAXX 27124 07790 12459 70712 10130 20080 30159 40173 58004 60006 85801 91200=
07790,1996-02-27 15:00:00,14,1016.5,-0.8,63,7,11000,14.816,,,100,,,,,,,,,,,wg-a,,,,AAXX 27154 07790 12/61 /1008 10140 20070 30151 40165 56008 60006 91500=
07790,1996-02-27 18:00:00,9,1017.2,0.6,87,7,10000,3.704,,,220,9.1,14.3,,,,,,,,,wg-a,,,,AAXX 27184 07790 12560 /2202 10090 20070 30157 40172 53006 60006 81800 91800 333 10143 20091=
07790,1996-02-27 21:00:00,6,1017.3,0.1,93,5,500,7.408,,,250,,,,,,,,,,,wg-a,,,,AAXX 27214 07790 12500 /2504 10060 20050 30158 40173 53001 60006 81800 92100=
07790,1996-02-28 00:00:00,8,1017.2,-0.1,87,6,11000,7.408,,,290,,,,,,,,,,,wg-a,,,,AAXX 28004 07790 12/61 /2904 10080 20060 30157 40172 55001 60006 90000=
07790,1996-02-28 03:00:00,6,1016.2,-1,93,5,12000,7.408,,,210,,,,,,,,,,,wg-a,,,,AAXX 28034 07790 12762 22104 10060 20050 30147 40162 58010 60006 82500 90300=
07790,1996-02-28 06:00:00,8,1016.4,0.2,81,5,15000,3.704,,,230,5.9,9.3,,,,,,,,,wg-a,,,,AAXX 28064 07790 12565 /2302 10080 20050 30149 40164 53002 60004 85500 90600 333 10093 20059=
07790,1996-02-28 09:00:00,12,1017.2,0.8,62,5,18000,11.112,,,340,,,,,,,,,,,wg-a,,,,AAXX 28094 07790 12668 33406 10120 20050 30157 40172 51008 60006 83800 90900=
07790,1996-02-28 12:00:00,13,1016.9,-0.3,54,4,28000,18.52,,,340,,,,,,,,,,,wg-a,,,,AAXX 28124 07790 12678 33410 10130 20040 30154 40169 58003 60006 81201 91200=
07790,1996-02-28 15:00:00,12,1016.3,-0.6,54,3,40000,18.52,,,330,,,,,,,,,,,wg-a,,,,AAXX 28154 07790 12682 /3310 10120 20030 30148 40163 57006 60006 81200 91500=
07790,1996-02-28 18:00:00,8,1017.1,0.8,61,1,500,7.408,,,220,7.6,12.9,,,,,,,,,wg-a,,,,AAXX 28184 07790 12/00 12204 10080 20010 30156 40171 53008 60006 80001 91800 333 10129 20076=
07790,1996-02-28 21:00:00,6,1017.9,0.8,75,2,20000,7.408,,,220,,,,,,,,,,,wg-a,,,,AAXX 28214 07790 12570 /2204 10060 20020 30164 40179 51008 60006 81501 92100=
07790,1996-02-29 03:00:00,5,1018,0.1,70,0,20000,11.112,,,210,,,,,,,,,,,wg-a,,,,AAXX 29034 07790 12/70 /2106 10050 20000 30165 40180 53001 60006 80000 90300=
07790,1996-02-29 06:00:00,4,1018.8,0.8,75,0,15000,11.112,,,200,4,8,,,,,,,,,wg-a,,,,AAXX 29064 07790 02/65 12006 10040 20000 30173 40188 53008 60006 80001 90600 333 10080 20040 60004=
07790,1996-02-29 09:00:00,12,1019.9,1.1,44,0,12000,14.816,,,340,,,,,,,,,,,wg-a,,,,AAXX 29094 07790 12/62 13408 10120 20000 30184 40199 51011 60006 80001 90900=
07790,1996-02-29 12:00:00,13,1019.4,-0.5,44,1,20000,18.52,,,330,,,,,,,,,,,wg-a,,,,AAXX 29124 07790 12/70 23310 10130 20010 30179 40194 58005 60006 80001 91200=
07790,1996-02-29 15:00:00,13,1018.9,-0.5,44,1,20000,14.816,,,340,,,,,,,,,,,wg-a,,,,AAXX 29154 07790 12/70 23408 10130 20010 30174 40189 56005 60006 80001 91500=
07790,1996-02-29 18:00:00,8,1019,0.1,66,2,20000,11.112,,,230,4,13.7,,,,,,,,,wg-a,,,,AAXX 29184 07790 12/70 02306 10080 20020 30175 40190 53001 60006 80000 91800 333 10137 20040=
07790,1996-02-29 21:00:00,7,1019.6,0.6,49,-3,25000,11.112,,,210,,,,,,,,,,,wg-a,,,,AAXX 29214 07790 12/75 02106 10070 21030 30181 40196 51006 60006 80000 92100=
07790,1996-03-01 00:00:00,6,1019.4,-0.2,49,-4,25000,18.52,,,210,,,,,,,,,,,wg-a,,,,AAXX 01004 07790 12/75 02110 10060 21040 30179 40194 58002 60006 80000 90000=
07790,1996-03-01 03:00:00,6,1018,-1.4,49,-4,25000,18.52,,,200,,,,,,,,,,,wg-a,,,,AAXX 01034 07790 12/75 02010 10060 21040 30165 40180 58014 60006 80000 90300=
07790,1996-03-01 06:00:00,5,1017,-1,48,-5,20000,18.52,,,200,4.3,7.8,,,,,,,,,wg-a,,,,AAXX 01064 07790 02/70 12010 10050 21050 30155 40170 56010 60006 80001 90600 333 10078 20043 60004=
07790,1996-03-01 09:00:00,13,1016.6,-0.4,30,-4,15000,11.112,,,190,,,,,,,,,,,wg-a,,,,AAXX 01094 07790 12/65 01906 10130 21040 30151 40166 58004 60006 80000 90900=
07790,1996-03-01 12:00:00,16,1013.8,-2.7,31,-1,25000,18.52,,,110,,,,,,,,,,,wg-a,,,,AAXX 01124 07790 12/75 11110 10160 21010 30124 40138 58027 60006 80001 91200=
07790,1996-03-01 15:00:00,15,1010.9,-2.9,41,2,25000,14.816,,,100,,,,,,,,,,,wg-a,,,,AAXX 01154 07790 12/75 11008 10150 20020 30095 40109 56029 60006 80001 91500=
07790,1996-03-01 18:00:00,9,1009.7,-1.3,71,4,10000,3.704,,,230,5.4,16.1,,,,,,,,,wg-a,,,,AAXX 01184 07790 12/60 02302 10090 20040 30082 40097 56013 60006 80000 91800 333 10161 20054=
07790,1996-03-01 19:00:00,8,1009.7,-1.3,71,3,10000,3.704,,,230,5.4,16.1,,,,,,,,,wg-a,,,,AAXX 01194 07790 12/60 02302 10080 20030 30082 40097 56013 60006 80000 91900 333 10161 20054=
07790,1996-03-01 21:00:00,6,1008.8,-0.9,75,2,10000,11.112,,,200,,,,,,,,,,,wg-a,,,,AAXX 01214 07790 12/60 /2006 10060 20020 30073 40088 56009 60006 92100=
07790,1996-03-02 00:00:00,5,1008.2,-0.6,81,2,20000,11.112,,,200,,,,,,,,,,,wg-a,,,,AAXX 02004 07790 12570 62006 10050 20020 30067 40082 55006 60006 86500 90000=
07790,1996-03-02 03:00:00,6,1007.6,-0.6,81,3,20000,11.112,,,190,,,,,,,,,,,wg-a,,,,AAXX 02034 07790 12570 /1906 10060 20030 30061 40076 58006 60006 85500 90300=
07790,1996-03-02 06:00:00,7,1009.1,1.5,81,4,7000,7.408,,,210,4.9,8.4,,,,,,,,,wg-a,,,,AAXX 02064 07790 02557 72104 10070 20040 30076 40091 51015 60006 878// 90600 333 10084 20049 60004=
07790,1996-03-02 09:00:00,7,1014,4.9,81,4,8000,11.112,,,200,,,,3,,,,,,60,wg-a,,,,AAXX 02094 07790 12458 /2006 10070 20040 30125 40140 51049 60037 76062 878// 90900=
07790,1996-03-02 12:00:00,11,1013.5,-0.5,35,-4,15000,14.816,,,80,,,,,,,,,,3,wg-a,,,,AAXX 02124 07790 02565 50808 10110 21040 30120 40135 58005 60036 70361 81181 91200 333 61000=
07790,1996-03-02 15:00:00,10,1012.8,-0.7,32,-6,35000,3.704,,,90,,,,,,,,,,,wg-a,,,,AAXX 02154 07790 12681 /0902 10100 21060 30113 40128 56007 60006 81589 91500=
07790,1996-03-02 18:00:00,7,1013.5,0.7,61,0,25000,3.704,,,210,6.5,11.5,,,,,,,,,wg-a,,,,AAXX 02184 07790 32675 62102 10070 20000 30120 40135 53007 81539 91800 333 10115 20065=
07790,1996-03-02 21:00:00,6,1014.2,0.7,61,-1,25000,7.408,,,190,,,,,,,,,,,wg-a,,,,AAXX 02214 07790 12675 /1904 10060 21010 30127 40142 53007 60006 81531 92100=
07790,1996-03-03 00:00:00,5,1014.1,-0.1,60,-2,11000,7.408,,,170,,,,,,,,,,,wg-a,,,,AAXX 03004 07790 12/61 /1704 10050 21020 30126 40141 58001 60006 90000=
07790,1996-03-03 03:00:00,5,1012.8,-1.3,60,-2,25000,7.408,,,180,,,,,,,,,,,wg-a,,,,AAXX 03034 07790 12675 /1804 10050 21020 30113 40128 57013 60006 84830 90300=
07790,1996-03-03 06:00:00,4,1012.5,-0.3,70,-1,25000,11.112,,,190,3.5,6.5,,,,,3,,,,wg-a,,,,AAXX 03064 07790 02675 61906 10040 21010 30110 40125 56003 60006 84881 90600 333 10065 20035 60034=
07790,1996-03-03 09:00:00,10,1012.8,0.3,37,-4,11000,22.224,,,120,,,,,,,,,,,wg-a,,,,AAXX 03094 07790 12/61 /1212 10100 21040 30113 40128 50003 60006 90900=
07790,1996-03-03 12:00:00,11,1011.8,-1,40,-2,20000,18.52,,,130,,,,,,,,,,,wg-a,,,,AAXX 03124 07790 12570 81310 10110 21020 30103 40118 58010 60006 83872 91200=
07790,1996-03-03 15:00:00,8,1011.1,-0.7,61,1,15000,18.52,,,120,,,,,,,,,,,wg-a,,,,AAXX 03154 07790 12565 81210 10080 20010 30096 40111 56007 60006 8387/ 91500=
07790,1996-03-03 18:00:00,6,1012.1,1,81,3,7000,11.112,,,300,3.5,10.7,,,,,,,,60,wg-a,,,,AAXX 03184 07790 02557 83006 10060 20030 30106 40121 53010 61000 76062 8687/ 91800 333 10107 20035 ////=
07790,1996-03-03 21:00:00,5,1012.8,0.7,93,4,7000,14.816,,,300,,,,1,,,,,,61,wg-a,,,,AAXX 03214 07790 12557 73008 10050 20040 30113 40128 52007 60017 76165 8687/ 92100=
07790,1996-03-04 00:00:00,3,1014,1.2,93,2,6000,3.704,,,270,,,,9,,,,,,63,wg-a,,,,AAXX 04004 07790 02356 72702 10030 20020 30125 40140 51012 60106 76365 877// 90000 333 60097=
07790,1996-03-04 03:00:00,3,1013.2,-0.8,93,2,10000,3.704,,,200,,,,6,,,,,,63,wg-a,,,,AAXX 04034 07790 12460 72002 10030 20020 30117 40132 57008 60067 76366 877// 90300=
07790,1996-03-04 06:00:00,3,1013.4,0.2,93,2,6000,3.704,,,210,3.1,5.7,,4,,,20,,,60,wg-a,,,,AAXX 04064 07790 02456 72102 10030 20020 30119 40134 53002 60204 76066 878// 90600 333 10057 20031 60047=
07790,1996-03-04 09:00:00,4,1014.2,0.8,93,3,9000,7.408,,,240,,,,,,,,,,,wg-a,,,,AAXX 04094 07790 32/59 /2404 10040 20030 30127 40142 51008 90900=
07790,1996-03-04 12:00:00,7,1013.6,-0.6,76,3,9000,11.112,,,190,,,,0,,,,,,3,wg-a,,,,AAXX 04124 07790 02459 81906 10070 20030 30121 40136 58006 60046 70362 889// 91200 333 60007=
07790,1996-03-04 15:00:00,8,1012.4,-1.2,49,-2,18000,11.112,,,320,,,,,,,,,,,wg-a,,,,AAXX 04154 07790 12668 43206 10080 21020 30109 40124 56012 60006 81231 91500=
07790,1996-03-04 18:00:00,3,1013.6,1.2,60,-4,500,11.112,,,240,3,8.3,,,,,,,,,wg-a,,,,AAXX 04184 07790 32700 /2406 10030 21040 30121 40136 53012 81500 91800 333 10083 20030=
07790,1996-03-04 21:00:00,3,1015.8,2.2,56,-5,500,14.816,,,210,,,,,,,,,,,wg-a,,,,AAXX 04214 07790 12/00 02108 10030 21050 30143 40158 53022 60006 80000 92100=
07790,1996-03-05 00:00:00,7,1017.7,1.9,53,-2,15000,3.704,,,210,,,,,,,,,,,wg-a,,,,AAXX 05004 07790 12665 52102 10070 21020 30162 40177 53019 60006 85500 90000=
07790,1996-03-05 03:00:00,6,1019.5,1.8,45,-5,15000,18.52,,,10,,,,,,,,,,,wg-a,,,,AAXX 05034 07790 12665 20110 10060 21050 30180 40195 53018 60006 82500 90300=
07790,1996-03-05 06:00:00,1,1021.9,2.4,75,-3,25000,11.112,,,190,1.1,7.2,,,,,4,,,,wg-a,,,,AAXX 05064 07790 02675 31906 10010 21030 30204 40219 51024 60006 83100 90600 333 10072 20011 60044=
07790,1996-03-05 09:00:00,9,1023.8,1.9,43,-3,35000,3.704,,,10,,,,,,,,,,,wg-a,,,,AAXX 05094 07790 12681 20102 10090 21030 30223 40238 51019 60006 82100 90900=
07790,1996-03-05 12:00:00,8,1024.1,0.3,39,-5,35000,11.112,,,30,,,,,,,,,,,wg-a,,,,AAXX 05124 07790 12681 /0306 10080 21050 30226 40241 50003 60006 81100 91200=
07790,1996-03-05 15:00:00,8,1023.1,-1,39,-5,35000,11.112,,,350,,,,,,,,,,,wg-a,,,,AAXX 05154 07790 12/81 03506 10080 21050 30216 40231 57010 60006 80000 91500=
07790,1996-03-05 18:00:00,4,1023.3,0.2,70,-1,10000,7.408,,,200,1.1,9.1,,,,,,,,,wg-a,,,,AAXX 05184 07790 12/60 /2004 10040 21010 30218 40233 53002 60006 91800 333 10091 20011=
07790,1996-03-05 21:00:00,3,1024.1,0.8,70,-2,35000,7.408,,,210,,,,,,,,,,,wg-a,,,,AAXX 05214 07790 12/81 02104 10030 21020 30226 40241 51008 60006 80000 92100=
07790,1996-03-06 00:00:00,3,1024,-0.1,65,-3,35000,18.52,,,200,,,,,,,,,,,wg-a,,,,AAXX 06004 07790 12/81 02010 10030 21030 30225 40240 58001 60006 80000 90000=
07790,1996-03-06 03:00:00,3,1023.1,-0.9,60,-4,25000,18.52,,,200,,,,,,,,,,,wg-a,,,,AAXX 06034 07790 12/75 02010 10030 21040 30216 40231 58009 60006 80000 90300=
07790,1996-03-06 06:00:00,3,1022.9,-0.2,60,-4,25000,22.224,,,200,2.1,4.3,,,,,,,,,wg-a,,,,AAXX 06064 07790 02/75 02012 10030 21040 30214 40229 55002 60006 80000 90600 333 10043 20021 60004=
07790,1996-03-06 09:00:00,10,1022.9,0,37,-4,40000,11.112,,,180,,,,,,,,,,,wg-a,,,,AAXX 06094 07790 12/82 01806 10100 21040 30214 40229 50000 60006 80000 90900=
07790,1996-03-06 12:00:00,12,1020.9,-2,32,-4,40000,18.52,,,110,,,,,,,,,,,wg-a,,,,AAXX 06124 07790 12682 /1110 10120 21040 30194 40209 58020 60006 81200 91200=
07790,1996-03-06 15:00:00,12,1019.1,-1.8,47,1,35000,14.816,,,140,,,,,,,,,,,wg-a,,,,AAXX 06154 07790 12681 /1408 10120 20010 30176 40191 56018 60006 81830 91500=
07790,1996-03-06 18:00:00,7,1018.7,-0.4,70,2,35000,3.704,,,190,2.8,12.8,,,,,,,,,wg-a,,,,AAXX 06184 07790 12681 31902 10070 20020 30172 40187 58004 60006 81830 91800 333 10128 20028=
07790,1996-03-06 21:00:00,4,1017.7,-1,81,1,20000,7.408,,,240,,,,,,,,,,,wg-a,,,,AAXX 06214 07790 12770 12404 10040 20010 30162 40177 57010 60006 81530 92100=
07790,1996-03-07 00:00:00,3,1016.3,-1.4,81,0,20000,11.112,,,230,,,,,,,,,,,wg-a,,,,AAXX 07004 07790 12/70 22306 10030 20000 30148 40163 57014 60006 82030 90000=
07790,1996-03-07 06:00:00,5,1012.9,-1.3,75,1,20000,7.408,,,220,2.3,7.1,,,,,,,,,wg-a,,,,AAXX 07064 07790 02570 72204 10050 20010 30114 40129 56013 60006 8485/ 90600 333 10071 20023 60004=
07790,1996-03-07 09:00:00,9,1012.8,-0.1,71,4,20000,7.408,,,220,,,,,,,,,,60,wg-a,,,,AAXX 07094 07790 02470 82204 10090 20040 30113 40128 58001 61000 76062 8455/ 90900 333 ////=
07790,1996-03-07 12:00:00,7,1013.3,0.5,87,5,3000,3.704,,,220,,,,2,,,,,,80,wg-a,,,,AAXX 07124 07790 02330 82202 10070 20050 30118 40133 51005 60026 78086 888// 91200 333 60027=
07790,1996-03-07 15:00:00,7,1014.3,1,87,5,7000,7.408,,,240,,,,,,,,,,,wg-a,,,,AAXX 07154 07790 32/57 /2404 10070 20050 30128 40143 53010 91500=
07790,1996-03-07 18:00:00,6,1016.1,1.8,93,5,9000,11.112,,,230,5,9.9,,3,,,,,,61,wg-a,,,,AAXX 07184 07790 12559 82306 10060 20050 30146 40161 53018 60037 76186 888// 91800 333 10099 20050=
07790,1996-03-07 21:00:00,6,1017.2,1.1,87,4,25000,11.112,,,230,,,,0,,,,,,21,wg-a,,,,AAXX 07214 07790 12775 /2306 10060 20040 30157 40172 51011 60007 72162 875// 92100=
07790,1996-03-08 00:00:00,6,1017.7,0.5,81,3,11000,7.408,,,230,,,,,,,,,,,wg-a,,,,AAXX 08004 07790 12/61 /2304 10060 20030 30162 40177 53005 60016 90000=
07790,1996-03-08 03:00:00,6,1017.9,0.2,81,3,500,7.408,,,220,,,,,,,,,,,wg-a,,,,AAXX 08034 07790 12700 72204 10060 20030 30164 40179 53002 60006 875// 90300=
07790,1996-03-08 06:00:00,8,1019,1.1,71,3,500,11.112,,,140,5.8,8.8,,,,,8,,,,wg-a,,,,AAXX 08064 07790 12600 81406 10080 20030 30175 40190 53011 60084 8385/ 90600 333 10088 20058=
07790,1996-03-08 09:00:00,10,1020.6,1.6,62,3,25000,14.816,,,80,,,,,,,,,,,wg-a,,,,AAXX 08094 07790 12675 80808 10100 20030 30191 40206 51016 60006 8225/ 90900=
07790,1996-03-08 12:00:00,12,1021.1,0.5,50,2,25000,14.816,,,110,,,,,,,,,,,wg-a,,,,AAXX 08124 07790 12675 /1108 10120 20020 30196 40211 50005 60006 8255/ 91200=
07790,1996-03-08 15:00:00,11,1021,-0.1,50,1,25000,7.408,,,110,,,,,,,,,,,wg-a,,,,AAXX 08154 07790 12675 71104 10110 20010 30195 40210 58001 60006 8453/ 91500=
07790,1996-03-08 18:00:00,10,1021.3,0.3,62,3,25000,7.408,,,220,7.4,12.1,,,,,,,,60,wg-a,,,,AAXX 08184 07790 02575 /2204 10100 20030 30198 40213 53003 61000 76062 83530 91800 333 10121 20074 ////=
07790,1996-03-09 00:00:00,8,1022,0.1,87,6,10000,3.704,,,300,,,,,,,,,,2,wg-a,,,,AAXX 09004 07790 02660 73002 10080 20060 30205 40220 53001 61000 70262 8453/ 90000 333 ////=
07790,1996-03-09 03:00:00,8,1021.7,-0.3,87,6,12000,3.704,,,260,,,,,,,,,,,wg-a,,,,AAXX 09034 07790 12662 72602 10080 20060 30202 40217 58003 60006 8657/ 90300=
07790,1996-03-09 06:00:00,8,1021.9,0.2,76,4,7000,7.408,,,300,7.3,9.5,,,,,,,,,wg-a,,,,AAXX 09064 07790 02657 73004 10080 20040 30204 40219 53002 61000 8657/ 90600 333 10095 20073 ////=
07790,1996-03-09 09:00:00,10,1022.5,0.6,62,3,10000,7.408,,,10,,,,,,,,,,,wg-a,,,,AAXX 09094 07790 32660 80104 10100 20030 30210 40225 51006 8657/ 90900=
07790,1996-03-09 21:00:00,9,1020.4,-0,81,6,10000,3.704,,,270,,,,,,,,,,,wg-a,,,,AAXX 09214 07790 12560 82702 10090 20060 30189 40204 54000 60006 8557/ 92100=
07790,1996-03-10 00:00:00,9,1019.6,-0.8,81,6,11000,3.704,,,210,,,,,,,,,,,wg-a,,,,AAXX 10004 07790 12/61 /2102 10090 20060 30181 40196 57008 60006 90000=
07790,1996-03-10 03:00:00,9,1018.3,-1.3,76,5,8000,14.816,,,30,,,,,,,,,,,wg-a,,,,AAXX 10034 07790 12558 80308 10090 20050 30168 40183 58013 60006 885// 90300=
07790,1996-03-10 06:00:00,9,1017.8,-0.5,71,4,8000,11.112,,,40,8.4,9.7,,,,,,,,20,wg-a,,,,AAXX 10064 07790 02558 80406 10090 20040 30163 40178 55005 61000 72052 885// 90600 333 10097 20084 6100=
07790,1996-03-10 15:00:00,8,1015.7,-1.3,66,2,6000,14.816,,,30,,,,,,,,,,3,wg-a,,,,AAXX 10154 07790 02556 80308 10080 20020 30142 40157 56013 61000 70352 875// 91500 333 ////=
07790,1996-03-10 21:00:00,8,1015.7,-0.1,61,1,8000,14.816,,,10,,,,0,,,,,,21,wg-a,,,,AAXX 10214 07790 12558 80108 10080 20010 30142 40157 56001 60007 72162 8553/ 92100=
07790,1996-03-11 03:00:00,6,1012.8,-1.8,65,0,15000,11.112,,,320,,,,,,,,,,60,wg-a,,,,AAXX 11034 07790 02565 83206 10060 20000 30113 40128 58018 61000 76062 8553/ 90300 333 ////=
07790,1996-03-11 06:00:00,6,1012.7,-0.1,70,1,7000,7.408,,,340,5.5,,,,,,1,,,60,wg-a,,,,AAXX 11064 07790 02557 83404 10060 20010 30112 40127 55001 60014 76062 8657/ 90600 333 10078 20055 61000=
07790,1996-03-11 09:00:00,7,1012.5,-0.2,66,1,8000,7.408,,,220,,,,0,,,,,,60,wg-a,,,,AAXX 11094 07790 12558 72204 10070 20010 30110 40125 56002 60007 76066 8657/ 90900=
07790,1996-03-11 12:00:00,9,1011.8,-0.7,57,1,10000,7.408,,,230,,,,0,,,,,,21,wg-a,,,,AAXX 11124 07790 02460 /2304 10090 20010 30103 40118 58007 60016 72162 8457/ 91200 333 60007=
07790,1996-03-11 21:00:00,3,1010.1,0.1,93,2,11000,7.408,,,240,,,,,,,,,,,wg-a,,,,AAXX 11214 07790 12/61 /2404 10030 20020 30086 40101 51001 60006 92100=
07790,1996-03-12 00:00:00,4,1008.6,-1.5,93,3,20000,11.112,,,230,,,,0,,,,,,,wg-a,,,,AAXX 12004 07790 02570 22306 10040 20030 30071 40086 58015 60006 8250/ 90000 333 60007=
07790,1996-03-12 03:00:00,5,1006.4,-2.2,81,2,20000,18.52,,,240,,,,,,,,,,,wg-a,,,,AAXX 12034 07790 12/70 02410 10050 20020 30049 40064 58022 60006 80000 90300=
07790,1996-03-12 09:00:00,11,1002.6,-2.2,66,5,11000,11.112,,,190,,,,,,,,,,,wg-a,,,,AAXX 12094 07790 12/61 /1906 10110 20050 30012 40026 56022 60006 90900=
07790,1996-03-12 12:00:00,13,1000.6,-2,58,5,20000,11.112,,,80,,,,,,,,,,,wg-a,,,,AAXX 12124 07790 12570 /0806 10130 20050 39992 40006 57020 60006 82201 91200=
07790,1996-03-12 15:00:00,14,999.9,-0.7,51,4,20000,11.112,,,120,,,,,,,,,,,wg-a,,,,AAXX 12154 07790 12570 21206 10140 20040 39985 49999 55007 60006 81201 91500=
07790,1996-03-12 18:00:00,10,1000.9,1,66,4,500,3.704,,,250,3.1,14.1,,,,,,,,,wg-a,,,,AAXX 12184 07790 12600 /2502 10100 20040 39995 40009 53010 60006 81530 91800 333 10141 20031=
07790,1996-03-13 00:00:00,5,1004,1.2,70,0,500,3.704,,,280,,,,,,,,,,,wg-a,,,,AAXX 13004 07790 12/00 02802 10050 20000 30025 40040 51012 60006 80000 90000=
07790,1996-03-13 03:00:00,6,1004.2,0.2,61,-1,500,18.52,,,240,,,,,,,,,,,wg-a,,,,AAXX 13034 07790 12500 32410 10060 21010 30027 40042 52002 60006 81530 90300=
07790,1996-03-13 06:00:00,7,1005,0.8,61,0,20000,11.112,,,240,4.6,9.7,,,,,,,,,wg-a,,,,AAXX 13064 07790 02570 /2406 10070 20000 30035 40050 53008 60006 81530 90600 333 10097 20046 60004=
07790,1996-03-13 09:00:00,13,1005.9,1,62,6,12000,3.704,,,220,,,,,,,,,,,wg-a,,,,AAXX 13094 07790 12662 /2202 10130 20060 30045 40059 51010 60006 81531 90900=
07790,1996-03-13 12:00:00,13,1006.2,0.3,72,8,9000,14.816,,,40,,,,,,,,,,,wg-a,,,,AAXX 13124 07790 12559 50408 10130 20080 30048 40062 50003 60006 8323/ 91200=
07790,1996-03-13 15:00:00,14,1005.3,-0.9,55,5,9000,22.224,,,150,,,,,,,,,,,wg-a,,,,AAXX 13154 07790 12559 61512 10140 20050 30039 40053 56009 60006 83231 91500=
07790,1996-03-13 18:00:00,12,1006.5,1.2,67,6,18000,14.816,,,150,6.8,15,,,,,,,,,wg-a,,,,AAXX 13184 07790 12768 71508 10120 20060 30051 40065 53012 60006 8253/ 91800 333 10150 20068=
07790,1996-03-13 21:00:00,11,1007.2,0.7,71,6,11000,7.408,,,140,,,,,,,,,,,wg-a,,,,AAXX 13214 07790 12/61 /1404 10110 20060 30058 40072 50007 60006 92100=
07790,1996-03-14 00:00:00,12,1007,-0.2,88,10,11000,14.816,,,160,,,,,,,,,,,wg-a,,,,AAXX 14004 07790 12/61 /1608 10120 20100 30056 40070 58002 60006 90000=
07790,1996-03-14 03:00:00,12,1006.7,-0.3,82,9,15000,14.816,,,150,,,,,,,,,,,wg-a,,,,AAXX 14034 07790 12565 81508 10120 20090 30053 40067 58003 60006 8657/ 90300=
07790,1996-03-14 06:00:00,12,1006.7,-0,71,7,12000,11.112,,,160,9.6,12,,,,,,,,,wg-a,,,,AAXX 14064 07790 02562 81606 10120 20070 30053 40067 55000 60006 875// 90600 333 10120 20096 60004=
07790,1996-03-14 09:00:00,12,1007.2,0.5,82,9,9000,14.816,,,170,,,,,,,,,,21,wg-a,,,,AAXX 14094 07790 02559 81708 10120 20090 30058 40072 53005 61000 72162 875// 90900 333 ////=
07790,1996-03-14 12:00:00,13,1007.5,0.3,72,8,12000,22.224,,,150,,,,,,,,,,3,wg-a,,,,AAXX 14124 07790 02562 81512 10130 20080 30061 40075 51003 61000 70362 8687/ 91200 333 ////=
07790,1996-03-14 15:00:00,13,1006.8,-0.7,72,8,12000,14.816,,,160,,,,,,,,,,,wg-a,,,,AAXX 14154 07790 12562 81608 10130 20080 30054 40068 56007 60006 8587/ 91500=
07790,1996-03-14 18:00:00,12,1006.9,0.1,82,9,14000,7.408,,,140,11.9,13.6,,,,,,,,,wg-a,,,,AAXX 14184 07790 32564 81404 10120 20090 30055 40069 53001 8687/ 91800 333 10136 20119=
07790,1996-03-14 21:00:00,11,1007,0.1,87,9,12000,3.704,,,150,,,,,,,,,,51,wg-a,,,,AAXX 14214 07790 02462 81502 10110 20090 30056 40070 50001 61000 75152 888// 92100 333 ////=
07790,1996-03-15 00:00:00,11,1006.1,-0.9,87,9,11000,3.704,,,180,,,,,,,,,,,wg-a,,,,AAXX 15004 07790 02/61 /1802 10110 20090 30047 40061 57009 61000 90000 333 ////=
07790,1996-03-15 03:00:00,12,1004.4,-1.7,88,10,9000,22.224,,,100,,,,0,,,,,,51,wg-a,,,,AAXX 15034 07790 12459 81012 10120 20100 30030 40044 58017 60007 75155 887// 90300=
07790,1996-03-15 06:00:00,12,1003.3,-1.1,88,10,3000,22.224,,,100,10.4,12.4,,6,,,6,,,10,wg-a,,,,AAXX 15064 07790 02/30 /1012 10120 20100 30019 40033 56011 60064 710// 90600 333 10124 20104 60067=
07790,1996-03-15 09:00:00,12,1003.6,0.3,82,9,6000,14.816,,,90,,,,1,,,,,,10,wg-a,,,,AAXX 15094 07790 12656 80908 10120 20090 30022 40036 53003 60017 71066 885// 90900=
07790,1996-03-15 12:00:00,10,1003,-0.6,100,10,3000,11.112,,,350,,,,15,,,,,,63,wg-a,,,,AAXX 15124 07790 02330 83506 10100 20100 30016 40030 58006 60166 76366 8653/ 91200 333 60157=
07790,1996-03-15 18:00:00,11,1001.5,-0.1,94,10,500,14.816,,57.412,30,10,11.8,,10,,,,,,10,wg-a,,,,AAXX 15184 07790 12300 80308 10110 20100 30001 40015 58001 60107 71066 888// 91800 333 10118 20100 91031=
07790,1996-03-15 21:00:00,12,1001.6,0.1,88,10,6000,11.112,,,30,,,,2,,,,,,61,wg-a,,,,AAXX 15214 07790 12356 80306 10120 20100 30002 40016 52001 60027 76166 888// 92100=
07790,1996-03-16 00:00:00,11,1001.1,-0.5,94,10,6000,7.408,,,320,,,,5,,,,,,61,wg-a,,,,AAXX 16004 07790 02356 83204 10110 20100 39997 40011 57005 60066 76166 888// 90000 333 60057=
07790,1996-03-16 03:00:00,10,1000,-1.1,100,10,6000,11.112,,,340,,,,3,,,,,,61,wg-a,,,,AAXX 16034 07790 12356 83406 10100 20100 39986 40000 57011 60037 76166 888// 90300=
07790,1996-03-16 09:00:00,11,1001,0.8,87,9,500,18.52,,,10,,,,,,,,,,,wg-a,,,,AAXX 16094 07790 32/00 /0110 10110 20090 39996 40010 53008 90900=
07790,1996-03-16 15:00:00,11,1001.2,0.1,94,10,11000,11.112,,,340,,,,6,,,,,,21,wg-a,,,,AAXX 16154 07790 12461 73406 10110 20100 39998 40012 52001 60067 72162 8682/ 91500=
07790,1996-03-16 18:00:00,10,1003.1,1.9,93,9,7000,14.816,,,310,9.8,11,,5,,,,,,61,wg-a,,,,AAXX 16184 07790 12457 73108 10100 20090 30017 40031 51019 60057 76162 8682/ 91800 333 10110 20098=
07790,1996-03-16 21:00:00,10,1004.8,1.7,93,9,6000,18.52,,,350,,,,6,,,,,,61,wg-a,,,,AAXX 16214 07790 12356 73510 10100 20090 30034 40048 51017 60067 76166 8682/ 92100=
07790,1996-03-17 00:00:00,10,1005.7,0.9,93,9,12000,22.224,,,10,,,,2,,,,,,61,wg-a,,,,AAXX 17004 07790 02462 70112 10100 20090 30043 40057 53009 60086 76166 8482/ 90000 333 60027=
07790,1996-03-17 03:00:00,10,1006.4,0.7,93,9,8000,25.928,,,10,,,,9,,,,,,63,wg-a,,,,AAXX 17034 07790 12458 70114 10100 20090 30050 40064 51007 60097 76366 8482/ 90300=
07790,1996-03-17 06:00:00,10,1007.4,1,93,9,6000,18.52,,,30,9,10.6,,16,,,50,,,,wg-a,,,,AAXX 17064 07790 02/56 /0310 10100 20090 30060 40074 53010 60504 90600 333 10106 20090 60167=
07790,1996-03-17 09:00:00,10,1009,1.6,100,10,4000,11.112,,,20,,,,6,,,,,,61,wg-a,,,,AAXX 17094 07790 12240 80206 10100 20100 30076 40090 52016 60067 76166 885// 90900=
07790,1996-03-17 12:00:00,11,1009.4,0.4,94,10,20000,14.816,,,350,,,,3,,,,,,21,wg-a,,,,AAXX 17124 07790 02270 83508 10110 20100 30080 40094 51004 60086 72162 885// 91200 333 60037=
07790,1996-03-17 15:00:00,12,1008.9,-0.5,88,10,8000,7.408,,,190,,,,1,,,,,,61,wg-a,,,,AAXX 17154 07790 12458 81904 10120 20100 30075 40089 55005 60017 76162 885// 91500=
07790,1996-03-17 18:00:00,11,1009.9,1,87,9,6000,14.816,,,340,10,12.4,,3,,,,,,61,wg-a,,,,AAXX 17184 07790 12456 83408 10110 20090 30085 40099 53010 60037 76162 888// 91800 333 10124 20100=
07790,1996-03-17 21:00:00,10,1010.9,0.9,93,9,20000,14.816,,,140,,,,4,,,,,,80,wg-a,,,,AAXX 17214 07790 12470 81408 10100 20090 30094 40109 51009 60047 78096 889// 92100=
07790,1996-03-18 00:00:00,9,1011,0.1,93,8,20000,3.704,,,270,,,,0,,,,,,21,wg-a,,,,AAXX 18004 07790 02270 82702 10090 20080 30095 40110 53001 60056 72196 889// 90000 333 60007=
07790,1996-03-18 03:00:00,10,1011,0,93,9,20000,11.112,,,330,,,,0,,,,,,21,wg-a,,,,AAXX 18034 07790 12470 83306 10100 20090 30095 40110 50000 60007 72162 888// 90300=
07790,1996-03-18 06:00:00,10,1011.5,0.5,87,8,20000,7.408,,,320,9.4,10.7,,,,,17,,,2,wg-a,,,,AAXX 18064 07790 02570 83204 10100 20080 30100 40115 53005 60174 70265 888// 90600 333 10107 20094 61000=
07790,1996-03-18 09:00:00,13,1012.6,1.2,77,9,20000,14.816,,,20,,,,,,,,,,,wg-a,,,,AAXX 18094 07790 12570 /0208 10130 20090 30112 40126 51012 60006 83870 90900=
07790,1996-03-18 12:00:00,14,1012.2,-0.4,58,6,20000,14.816,,,30,,,,,,,,,,,wg-a,,,,AAXX 18124 07790 12570 30308 10140 20060 30108 40122 58004 60006 82230 91200=
07790,1996-03-18 15:00:00,14,1011.5,-0.7,67,8,20000,14.816,,,10,,,,,,,,,,,wg-a,,,,AAXX 18154 07790 12570 30108 10140 20080 30101 40115 56007 60006 82230 91500=
07790,1996-03-18 18:00:00,12,1012.2,0.7,76,8,20000,3.704,,,150,10.2,15.4,,,,,,,,,wg-a,,,,AAXX 18184 07790 12570 21502 10120 20080 30108 40122 53007 60006 82400 91800 333 10154 20102=
07790,1996-03-18 21:00:00,10,1013.5,1.2,76,6,20000,3.704,,,230,,,,,,,,,,,wg-a,,,,AAXX 18214 07790 12570 22302 10100 20060 30120 40135 51012 60006 82800 92100=
07790,1996-03-19 00:00:00,9,1013.9,0.4,76,5,20000,14.816,,,240,,,,,,,,,,,wg-a,,,,AAXX 19004 07790 12670 22408 10090 20050 30124 40139 53004 60006 81530 90000=
07790,1996-03-19 03:00:00,10,1013,-0.9,76,6,20000,7.408,,,260,,,,,,,,,,,wg-a,,,,AAXX 19034 07790 12670 /2604 10100 20060 30115 40130 56009 60006 86500 90300=
07790,1996-03-19 06:00:00,10,1013.7,0.7,76,6,7000,29.632,,,320,8.6,12.2,,,,,,,,80,wg-a,,,,AAXX 19064 07790 02557 73216 10100 20060 30122 40137 53007 61000 78098 879// 90600 333 10122 20086 6100=
07790,1996-03-19 09:00:00,14,1013.2,-0.4,58,6,500,25.928,,,250,,,,3,,,,,,1,wg-a,,,,AAXX 19094 07790 12500 32514 10140 20060 30118 40132 56004 60037 70198 82830 90900=
07790,1996-03-19 12:00:00,15,1012.8,-0.4,63,8,500,18.52,,,350,,,,,,,,,,3,wg-a,,,,AAXX 19124 07790 12500 63510 10150 20080 30114 40128 58004 60036 70398 86830 91200=
07790,1996-03-19 18:00:00,10,1012.5,0.1,87,8,15000,3.704,,,170,8.7,16.3,,,,,,,,1,wg-a,,,,AAXX 19184 07790 02565 21702 10100 20080 30110 40125 53001 61000 70186 8/800 91800 333 10163 20087 ////=
07790,1996-03-19 21:00:00,8,1012.9,0.4,87,6,18000,11.112,,,240,,,,,,,,,,,wg-a,,,,AAXX 19214 07790 12/68 02406 10080 20060 30114 40129 51004 60006 80000 92100=
07790,1996-03-20 00:00:00,6,1013.2,0.3,93,5,18000,7.408,,,230,,,,,,,,,,,wg-a,,,,AAXX 20004 07790 12/68 02304 10060 20050 30117 40132 53003 60006 80000 90000=
07790,1996-03-20 03:00:00,7,1012.5,-0.7,81,4,20000,18.52,,,240,,,,,,,,,,,wg-a,,,,AAXX 20034 07790 12/70 02410 10070 20040 30110 40125 56007 60006 80000 90300=
07790,1996-03-20 06:00:00,7,1012.7,0.2,81,4,20000,18.52,,,250,5.8,10.4,,,,,3,,,,wg-a,,,,AAXX 20064 07790 02670 /2510 10070 20040 30112 40127 53002 60006 81501 90600 333 10104 20058 60034=
07790,1996-03-20 09:00:00,14,1013.5,0.9,67,8,25000,3.704,,,210,,,,,,,,,,,wg-a,,,,AAXX 20094 07790 12675 22102 10140 20080 30121 40135 53009 60006 82100 90900=
07790,1996-03-20 12:00:00,14,1013.5,0,67,8,25000,11.112,,,130,,,,,,,,,,,wg-a,,,,AAXX 20124 07790 12575 51306 10140 20080 30121 40135 50000 60006 85800 91200=
07790,1996-03-20 15:00:00,15,1013.2,-0.3,59,7,25000,7.408,,,150,,,,,,,,,,,wg-a,,,,AAXX 20154 07790 12575 51504 10150 20070 30118 40132 58003 60006 85800 91500=
07790,1996-03-20 18:00:00,12,1013.8,0.6,76,8,11000,7.408,,,120,7.4,15.5,,,,,,,,,wg-a,,,,AAXX 20184 07790 12/61 /1204 10120 20080 30124 40138 51006 60006 91800 333 10155 20074=
07790,1996-03-20 21:00:00,9,1014.8,0.9,87,7,20000,7.408,,,210,,,,,,,,,,,wg-a,,,,AAXX 20214 07790 12570 42104 10090 20070 30133 40148 51009 60006 8284/ 92100=
07790,1996-03-21 00:00:00,9,1015.3,0.5,87,7,20000,7.408,,,230,,,,,,,,,,,wg-a,,,,AAXX 21004 07790 12570 52304 10090 20070 30138 40153 51005 60006 8284/ 90000=
07790,1996-03-21 03:00:00,8,1015,-0.3,93,7,20000,7.408,,,240,,,,,,,,,,,wg-a,,,,AAXX 21034 07790 12770 52404 10080 20070 30135 40150 56003 60006 8353/ 90300=
07790,1996-03-21 06:00:00,7,1015.9,0.9,87,5,8000,11.112,,,240,6.9,12.1,,,,,,,,,wg-a,,,,AAXX 21064 07790 02458 42406 10070 20050 30144 40159 53009 60006 82132 90600 333 10121 20069 60004=
07790,1996-03-21 12:00:00,16,1016.5,-0.2,68,10,22000,11.112,,,100,,,,,,,,,,,wg-a,,,,AAXX 21124 07790 12572 31006 10160 20100 30151 40165 56002 60006 81231 91200=
07790,1996-03-21 15:00:00,15,1016.1,-0.4,67,9,25000,7.408,,,100,,,,,,,,,,,wg-a,,,,AAXX 21154 07790 12675 61004 10150 20090 30147 40161 56004 60006 83231 91500=
07790,1996-03-21 18:00:00,13,1016.5,0.4,77,9,18000,0,,,0,7.3,16.6,,,,,,,,,wg-a,,,,AAXX 21184 07790 12568 70000 10130 20090 30151 40165 53004 60006 84831 91800 333 10166 20073=
07790,1996-03-21 21:00:00,9,1017.3,0.7,93,8,28000,7.408,,,240,,,,,,,,,,,wg-a,,,,AAXX 21214 07790 12778 42404 10090 20080 30158 40173 50007 60006 84500 92100=
07790,1996-03-22 00:00:00,8,1017.2,-0.1,93,7,500,7.408,,,240,,,,,,,,,,,wg-a,,,,AAXX 22004 07790 12700 22404 10080 20070 30157 40172 56001 60006 82500 90000=
07790,1996-03-22 06:00:00,9,1017.1,0.5,87,7,11000,7.408,,,220,8,12.8,,,,,,,,,wg-a,,,,AAXX 22064 07790 02/61 /2204 10090 20070 30156 40171 53005 60006 90600 333 10128 20080 60004=
07790,1996-03-22 09:00:00,14,1018.2,1.2,77,10,20000,7.408,,,40,,,,,,,,,,,wg-a,,,,AAXX 22094 07790 12470 50404 10140 20100 30168 40182 51012 60006 82241 90900=
07790,1996-03-22 12:00:00,17,1017.9,-0.3,63,10,20000,14.816,,,120,,,,,,,,,,,wg-a,,,,AAXX 22124 07790 12570 41208 10170 20100 30165 40179 58003 60006 82501 91200=
07790,1996-03-22 15:00:00,15,1017.5,-0.4,67,9,20000,11.112,,,130,,,,,,,,,,,wg-a,,,,AAXX 22154 07790 12570 51306 10150 20090 30161 40175 55004 60006 84842 91500=
07790,1996-03-22 18:00:00,13,1018.3,0.8,82,10,20000,7.408,,,90,8.5,17.1,,,,,,,,,wg-a,,,,AAXX 22184 07790 12470 30904 10130 20100 30169 40183 52008 60006 81801 91800 333 10171 20085=
07790,1996-03-23 00:00:00,9,1019.5,0.2,87,7,11000,7.408,,,250,,,,,,,,,,,wg-a,,,,AAXX 23004 07790 12/61 /2504 10090 20070 30180 40195 53002 60006 90000=
07790,1996-03-23 03:00:00,9,1019.1,-0.4,93,8,20000,7.408,,,250,,,,,,,,,,,wg-a,,,,AAXX 23034 07790 12470 72504 10090 20080 30176 40191 58004 60006 875// 90300=
07790,1996-03-23 06:00:00,10,1019.2,0.1,87,8,11000,7.408,,,230,8.3,13.1,,,,,,,,,wg-a,,,,AAXX 23064 07790 02/61 /2304 10100 20080 30177 40192 53001 60006 90600 333 10131 20083 60004=
07790,1996-03-23 09:00:00,14,1020.4,1.3,77,10,15000,3.704,,,50,,,,,,,,,,,wg-a,,,,AAXX 23094 07790 12465 70502 10140 20100 30190 40204 51013 60006 8687/ 90900=
07790,1996-03-23 12:00:00,15,1020.3,-0.1,77,11,25000,11.112,,,130,,,,,,,,,,,wg-a,,,,AAXX 23124 07790 12475 61306 10150 20110 30189 40203 55001 60006 86830 91200=
07790,1996-03-23 15:00:00,15,1020.2,-0.1,72,10,18000,3.704,,,100,,,,,,,,,,,wg-a,,,,AAXX 23154 07790 12568 71002 10150 20100 30188 40202 56001 60006 8683/ 91500=
07790,1996-03-23 18:00:00,12,1020.9,0.6,88,10,7000,0,,,0,10.2,16.2,,,,,,,,12,wg-a,,,,AAXX 23184 07790 12457 20000 10120 20100 30194 40209 53006 60006 71211 82500 91800 333 10162 20102=
07790,1996-03-23 21:00:00,10,1021.8,0.9,93,9,15000,7.408,,,240,,,,,,,,,,,wg-a,,,,AAXX 23214 07790 12/65 02404 10100 20090 30203 40218 51009 60006 80000 92100=
07790,1996-03-24 00:00:00,8,1022.2,0.4,93,7,10000,7.408,,,240,,,,,,,,,,,wg-a,,,,AAXX 24004 07790 12/60 /2404 10080 20070 30207 40222 51004 60006 90000=
07790,1996-03-24 03:00:00,8,1021.8,-0.4,93,7,15000,7.408,,,250,,,,0,,,,,,,wg-a,,,,AAXX 24034 07790 12565 /2504 10080 20070 30203 40218 58004 60007 81500 90300=
07790,1996-03-24 06:00:00,8,1022.9,1.1,93,7,7000,7.408,,,230,7.2,12.2,,,,,,,,11,wg-a,,,,AAXX 24064 07790 02457 52304 10080 20070 30214 40229 53011 60006 71111 85500 90600 333 10122 20072 60004=
07790,1996-03-24 09:00:00,16,1023.1,0.3,68,10,7000,14.816,,,150,,,,,,,,,,11,wg-a,,,,AAXX 24094 07790 12457 41508 10160 20100 30217 40231 52003 60006 71111 83530 90900=
07790,1996-03-24 12:00:00,16,1022.3,-0.8,68,10,7000,18.52,,,140,,,,,,,,,,,wg-a,,,,AAXX 24124 07790 12557 71410 10160 20100 30209 40223 57008 60006 83511 91200=
07790,1996-03-24 15:00:00,15,1021.2,-1.1,77,11,6000,18.52,,,140,,,,,,,,,,,wg-a,,,,AAXX 24154 07790 12556 71410 10150 20110 30198 40212 57011 60006 875// 91500=
07790,1996-03-24 21:00:00,14,1021.7,-0.3,82,11,15000,7.408,,,150,,,,,,,,,,,wg-a,,,,AAXX 24214 07790 12465 81504 10140 20110 30202 40217 56003 60006 885// 92100=
07790,1996-03-25 00:00:00,13,1021,-0.7,82,10,15000,7.408,,,150,,,,,,,,,,,wg-a,,,,AAXX 25004 07790 12465 71504 10130 20100 30195 40210 58007 60006 875// 90000=
07790,1996-03-25 03:00:00,12,1020.2,-0.8,88,10,15000,0,,,0,,,,,,,,,,,wg-a,,,,AAXX 25034 07790 12465 80000 10120 20100 30187 40202 55008 60006 885// 90300=
07790,1996-03-25 06:00:00,12,1020.3,0.1,94,11,9000,3.704,,,310,11.7,13.9,,,,,,,,,wg-a,,,,AAXX 25064 07790 02459 83102 10120 20110 30188 40203 53001 60006 885// 90600 333 10139 20117 60004=
07790,1996-03-25 09:00:00,16,1019.6,-0.6,77,12,8000,14.816,,,140,,,,,,,,,,,wg-a,,,,AAXX 25094 07790 12458 /1408 10160 20120 30182 40196 58006 60006 84830 90900=
07790,1996-03-25 12:00:00,17,1018.5,-1.1,72,12,10000,18.52,,,140,,,,,,,,,,,wg-a,,,,AAXX 25124 07790 12560 61410 10170 20120 30171 40185 55011 60006 82532 91200=
07790,1996-03-25 15:00:00,16,1017.4,-1.1,82,13,6000,18.52,,,140,,,,,,,,,,,wg-a,,,,AAXX 25154 07790 12556 71410 10160 20130 30160 40174 57011 60006 8653/ 91500=
07790,1996-03-25 18:00:00,14,1016.9,-0.5,94,13,3000,11.112,,,140,12.3,17.5,,,,,,,,10,wg-a,,,,AAXX 25184 07790 12230 71406 10140 20130 30155 40169 58005 60006 71022 878// 91800 333 10175 20123=
07790,1996-03-25 21:00:00,14,1016.9,0,94,13,6000,0,,,0,,,,,,,,,,,wg-a,,,,AAXX 25214 07790 12456 80000 10140 20130 30155 40169 50000 60006 888// 92100=
07790,1996-03-26 00:00:00,12,1015.9,-1,94,11,6000,3.704,,,270,,,,,,,,,,,wg-a,,,,AAXX 26004 07790 12456 82702 10120 20110 30145 40159 56010 60006 888// 90000=
07790,1996-03-26 03:00:00,12,1014.8,-1.2,94,11,9000,3.704,,,260,,,,,,,,,,,wg-a,,,,AAXX 26034 07790 12459 82602 10120 20110 30133 40148 56012 60006 888// 90300=
07790,1996-03-26 06:00:00,12,1014.5,-0.2,88,10,9000,3.704,,,230,11.4,14.1,,,,,,,,,wg-a,,,,AAXX 26064 07790 02459 /2302 10120 20100 30131 40145 55002 60006 878// 90600 333 10141 20114 60004=
07790,1996-03-26 09:00:00,16,1014,-0.5,77,12,6000,3.704,,,130,,,,,,,,,,1,wg-a,,,,AAXX 26094 07790 02456 71302 10160 20120 30126 40140 58005 61000 70152 868// 90900 333 ////=
07790,1996-03-26 12:00:00,15,1012,-2,88,13,3000,18.52,,,140,,,,,,,,,,10,wg-a,,,,AAXX 26124 07790 02230 71410 10150 20130 30106 40120 58020 61000 71065 878// 91200 333 6100=
07790,1996-03-26 15:00:00,15,1010.6,-1.4,94,14,2800,14.816,,,130,,,,0,,,,,,10,wg-a,,,,AAXX 26154 07790 12228 81308 10150 20140 30092 40106 55014 60007 71062 878// 91500=
07790,1996-03-26 18:00:00,14,1009.4,-1.2,94,13,2800,7.408,,,140,12.2,16.1,,2,,,,,,10,wg-a,,,,AAXX 26184 07790 12228 81404 10140 20130 30080 40094 56012 60027 71062 878// 91800 333 10161 20122=
07790,1996-03-26 21:00:00,14,1008.6,-0.8,94,13,3000,11.112,,,150,,,,3,,,,,,10,wg-a,,,,AAXX 26214 07790 12330 81506 10140 20130 30072 40086 58008 60037 71066 8697/ 92100=
07790,1996-03-27 00:00:00,13,1007.1,-1.5,100,13,2000,3.704,,,90,,,,2,,,,,,61,wg-a,,,,AAXX 27004 07790 02220 80902 10130 20130 30057 40071 58015 60066 76166 8697/ 90000 333 60027=
07790,1996-03-27 03:00:00,13,1004.7,-2.4,94,12,3000,11.112,,,330,,,,0,,,,,,21,wg-a,,,,AAXX 27034 07790 12430 83306 10130 20120 30033 40047 56024 60007 72162 8677/ 90300=
07790,1996-03-27 06:00:00,13,1004,-0.7,88,11,6000,22.224,,,360,12.9,13.8,,,,,8,,,3,wg-a,,,,AAXX 27064 07790 12456 83612 10130 20110 30026 40040 57007 60084 70362 8697/ 90600 333 10138 20129=
07790,1996-03-27 09:00:00,15,1003.9,-0.1,77,11,9000,22.224,,,340,,,,,,,,,,,wg-a,,,,AAXX 27094 07790 12559 73412 10150 20110 30025 40039 58001 60006 85832 90900=
07790,1996-03-27 12:00:00,17,1003.5,-0.4,68,11,10000,25.928,,,350,,,,,,,,,,,wg-a,,,,AAXX 27124 07790 12560 73514 10170 20110 30021 40035 58004 60006 85832 91200=
07790,1996-03-27 15:00:00,16,1002.7,-0.8,72,11,10000,25.928,,,310,,,,,,,,,,,wg-a,,,,AAXX 27154 07790 12560 73114 10160 20110 30013 40027 56008 60006 878// 91500=
07790,1996-03-27 18:00:00,14,1003.2,0.5,88,12,10000,7.408,,,160,13.3,17.8,,,,,,,,,wg-a,,,,AAXX 27184 07790 12560 61604 10140 20120 30018 40032 50005 60006 86800 91800 333 10178 20133=
07790,1996-03-27 21:00:00,11,1004.4,1.2,94,10,15000,3.704,,,230,,,,,,,,,,,wg-a,,,,AAXX 27214 07790 12565 22302 10110 20100 30030 40044 51012 60006 82800 92100=
07790,1996-03-28 00:00:00,12,1005,0.6,88,10,15000,3.704,,,100,,,,,,,,,,,wg-a,,,,AAXX 28004 07790 12565 /1002 10120 20100 30036 40050 51006 60006 82830 90000=
07790,1996-03-28 03:00:00,13,1004.7,-0.3,94,12,500,3.704,,,250,,,,,,,,,,21,wg-a,,,,AAXX 28034 07790 02200 /2502 10130 20120 30033 40047 58003 61000 72162 85830 90300 333 ////=
07790,1996-03-28 06:00:00,12,1005,0.3,88,10,500,3.704,,,220,10.8,14.3,,,,,,,,1,wg-a,,,,AAXX 28064 07790 02500 72202 10120 20100 30036 40050 53003 61000 70162 8453/ 90600 333 10143 20108 ////=
07790,1996-03-28 09:00:00,12,1006.3,1.3,82,9,500,14.816,,,140,,,,,,,,,,21,wg-a,,,,AAXX 28094 07790 02400 71408 10120 20090 30049 40063 53013 61000 72162 8693/ 90900 333 ////=
07790,1996-03-28 12:00:00,10,1007.7,1.4,93,9,3500,3.704,,,330,,,,2,,,,,,60,wg-a,,,,AAXX 28124 07790 02235 73302 10100 20090 30063 40077 50014 60026 76062 8693/ 91200 333 60027=
07790,1996-03-28 15:00:00,12,1007.2,-0.5,82,9,7000,7.408,,,80,,,,1,,,,,,21,wg-a,,,,AAXX 28154 07790 12357 70804 10120 20090 30058 40072 55005 60017 72162 8683/ 91500=
07790,1996-03-28 18:00:00,10,1008.3,1,87,8,10000,0,,,0,9.9,12.5,,,,,,,,1,wg-a,,,,AAXX 28184 07790 32460 30000 10100 20080 30068 40083 52010 70161 82530 91800 333 10125 20099=
07790,1996-03-29 00:00:00,9,1009.3,-0.3,87,7,12000,11.112,,,200,,,,,,,,,,,wg-a,,,,AAXX 29004 07790 12862 42006 10090 20070 30078 40093 56003 60006 84030 90000=
07790,1996-03-29 03:00:00,8,1008,-1.3,93,7,12000,11.112,,,230,,,,,,,,,,,wg-a,,,,AAXX 29034 07790 12762 22306 10080 20070 30065 40080 58013 60006 82500 90300=
07790,1996-03-29 06:00:00,7,1008.2,0.2,93,6,15000,7.408,,,220,6.1,10,,,,,3,,,,wg-a,,,,AAXX 29064 07790 02665 32204 10070 20060 30067 40082 53002 60006 83500 90600 333 10100 20061 60034=
07790,1996-03-29 09:00:00,15,1008.9,0.8,51,5,25000,11.112,,,40,,,,,,,,,,,wg-a,,,,AAXX 29094 07790 12675 20406 10150 20050 30075 40089 53008 60006 82200 90900=
07790,1996-03-29 12:00:00,15,1008.8,-0.1,63,8,40000,14.816,,,120,,,,,,,,,,,wg-a,,,,AAXX 29124 07790 12582 41208 10150 20080 30074 40088 58001 60006 83840 91200=
07790,1996-03-29 15:00:00,14,1008.4,-0.4,72,9,500,7.408,,,160,,,,,,,,,,,wg-a,,,,AAXX 29154 07790 12500 51604 10140 20090 30070 40084 56004 60006 85800 91500=
07790,1996-03-29 18:00:00,12,1008.6,0.2,58,4,11000,7.408,,,60,6.9,16,,,,,,,,,wg-a,,,,AAXX 29184 07790 12/61 /0604 10120 20040 30072 40086 53002 60006 91800 333 10160 20069=
07790,1996-03-29 21:00:00,9,1008.9,0.2,81,6,25000,7.408,,,220,,,,,,,,,,,wg-a,,,,AAXX 29214 07790 12/75 /2204 10090 20060 30074 40089 50002 60006 80000 92100=
07790,1996-03-30 00:00:00,7,1008.2,-0.7,87,5,25000,7.408,,,220,,,,,,,,,,,wg-a,,,,AAXX 30004 07790 12/75 02204 10070 20050 30067 40082 57007 60006 80000 90000=
07790,1996-03-30 03:00:00,6,1006.7,-1.5,87,4,25000,11.112,,,220,,,,,,,,,,,wg-a,,,,AAXX 30034 07790 12/75 02206 10060 20040 30052 40067 58015 60006 80000 90300=
07790,1996-03-30 06:00:00,6,1005.8,-0.9,87,4,15000,7.408,,,240,5.6,11.8,,,,,,,,,wg-a,,,,AAXX 30064 07790 02665 22404 10060 20040 30043 40058 56009 60006 81541 90600 333 10118 20056 60004=
07790,1996-03-30 09:00:00,14,1006.2,0.5,67,8,11000,7.408,,,70,,,,,,,,,,,wg-a,,,,AAXX 30094 07790 12/61 /0704 10140 20080 30048 40062 52005 60006 90900=
07790,1996-03-30 12:00:00,15,1005.8,-0.4,59,7,11000,11.112,,,120,,,,,,,,,,,wg-a,,,,AAXX 30124 07790 12/61 /1206 10150 20070 30044 40058 57004 60006 91200=
07790,1996-03-30 15:00:00,14,1005,-0.8,63,7,20000,7.408,,,160,,,,,,,,,,,wg-a,,,,AAXX 30154 07790 12570 61604 10140 20070 30036 40050 56008 60006 86801 91500=
07790,1996-03-30 18:00:00,12,1006,1,71,7,20000,3.704,,,310,6.3,15.9,,,,,,,,,wg-a,,,,AAXX 30184 07790 12570 53102 10120 20070 30046 40060 53010 60006 84801 91800 333 10159 20063=
07790,1996-03-30 21:00:00,8,1007.1,1,87,6,25000,0,,,0,,,,,,,,,,,wg-a,,,,AAXX 30214 07790 12575 20000 10080 20060 30056 40071 52010 60006 81401 92100=
07790,1996-03-31 00:00:00,8,1007.4,0.3,81,5,0,14.816,,,240,,,,,,,,,,,wg-a,,,,AAXX 31004 07790 12/// /2408 10080 20050 30059 40074 52003 60006 90000=
07790,1996-03-31 03:00:00,7,1007.9,0.5,81,4,25000,7.408,,,250,,,,,,,,,,,wg-a,,,,AAXX 31034 07790 12575 32504 10070 20040 30064 40079 53005 60006 82501 90300=
07790,1996-03-31 06:00:00,7,1009.9,2,76,3,20000,7.408,,,220,6.4,11.7,,,,,,,,,wg-a,,,,AAXX 31064 07790 02570 32204 10070 20030 30084 40099 53020 60006 82231 90600 333 10117 20064 60004=
07790,1996-03-31 09:00:00,13,1011.2,1.4,62,6,15000,11.112,,,30,,,,,,,,,,,wg-a,,,,AAXX 31094 07790 12565 20306 10130 20060 30098 40112 52014 60006 82200 90900=
07790,1996-03-31 12:00:00,15,1011.5,0.3,48,4,20000,11.112,,,120,,,,,,,,,,,wg-a,,,,AAXX 31124 07790 12570 /1206 10150 20040 30101 40115 50003 60006 81500 91200=
07790,1996-03-31 15:00:00,14,1010.8,-0.7,63,7,10000,14.816,,,140,,,,,,,,,,,wg-a,,,,AAXX 31154 07790 12560 71408 10140 20070 30094 40108 58007 60006 84531 91500=
07790,1996-03-31 18:00:00,13,1010.8,-0,77,9,8000,0,,,0,7.1,16.2,,,,,,,,,wg-a,,,,AAXX 31184 07790 12558 70000 10130 20090 30094 40108 55000 60006 8553/ 91800 333 10162 20071=
07790,1996-03-31 21:00:00,10,1011.4,0.5,82,7,18000,7.408,,,260,,,,,,,,,,,wg-a,,,,AAXX 31214 07790 12668 72604 10100 20070 30099 40114 50005 60006 8553/ 92100=
07790,1996-04-01 00:00:00,9,1010.8,-0.6,87,7,11000,7.408,,,240,,,,,,,,,,,wg-a,,,,AAXX 01004 07790 12/61 /2404 10090 20070 30093 40108 58006 60006 90000=
07790,1996-04-01 06:00:00,8,1009.9,-0.2,81,5,20000,11.112,,,230,6.8,12.6,,,,,,,,,wg-a,,,,AAXX 01064 07790 02570 72306 10080 20050 30084 40099 58002 60006 84836 90600 333 10126 20068 60004=
07790,1996-04-01 09:00:00,13,1009.3,-0.5,67,7,17000,11.112,,,130,,,,,,,,,,,wg-a,,,,AAXX 01094 07790 12567 81306 10130 20070 30079 40093 58005 60006 84876 90900=
07790,1996-04-01 12:00:00,12,1008,-1.3,82,9,9000,14.816,,,150,,,,1,,,,,,60,wg-a,,,,AAXX 01124 07790 02559 81508 10120 20090 30066 40080 58013 60016 76062 84877 91200 333 60017=
07790,1996-04-01 15:00:00,12,1004.8,,88,10,8000,29.632,,,160,,,,,,,,,,,wg-a,,,,AAXX 01154 07790 32/58 /1616 10120 20100 30034 40048 91500=
07790,1996-04-01 21:00:00,12,1001.5,-1.2,88,10,12000,3.704,,,250,,,,0,,,,,,61,wg-a,,,,AAXX 01214 07790 12362 72502 10120 20100 30001 40015 56012 60007 76162 83877 92100=
07790,1996-04-02 00:00:00,11,999.5,-2,94,10,12000,11.112,,,220,,,,,,,,,,21,wg-a,,,,AAXX 02004 07790 02362 72206 10110 20100 39981 49995 57020 60016 72162 83877 90000 333 61000=
07790,1996-04-02 03:00:00,11,999.2,-0.3,100,11,10000,14.816,,,340,,,,2,,,,,,61,wg-a,,,,AAXX 02034 07790 12460 73408 10110 20110 39978 49992 56003 60027 76162 83877 90300=
07790,1996-04-02 06:00:00,10,998.3,-0.9,93,9,11000,7.408,,,290,10.3,13,,5,,,9,,,,wg-a,,,,AAXX 02064 07790 02/61 /2904 10100 20090 39969 49983 55009 60094 90600 333 10130 20103 60057=
07790,1996-04-02 09:00:00,12,999.5,1.2,94,11,7000,7.408,,,290,,,,1,,,,,,61,wg-a,,,,AAXX 02094 07790 12357 82904 10120 20110 39981 49995 53012 60017 76162 8577/ 90900=
07790,1996-04-02 12:00:00,13,1000,0.5,77,9,12000,22.224,,,340,,,,1,,,,,,1,wg-a,,,,AAXX 02124 07790 02462 73412 10130 20090 39986 40000 53005 60026 70162 8487/ 91200 333 60017=
07790,1996-04-02 15:00:00,14,1000.4,0.4,63,7,15000,31.484,,,350,,,,,,,,,,,wg-a,,,,AAXX 02154 07790 12565 53517 10140 20070 39990 40004 51004 60006 84801 91500=
07790,1996-04-02 18:00:00,11,1001.2,0.8,76,7,11000,3.704,,,150,10.4,14.3,,,,,,,,,wg-a,,,,AAXX 02184 07790 32/61 /1502 10110 20070 39998 40012 53008 91800 333 10143 20104=
07790,1996-04-02 21:00:00,9,1002.7,1.5,93,8,25000,3.704,,,230,,,,,,,,,,,wg-a,,,,AAXX 02214 07790 12575 22302 10090 20080 30013 40027 51015 60006 82500 92100=
07790,1996-04-03 00:00:00,8,1002.5,-0.3,93,7,25000,3.704,,,250,,,,,,,,,,,wg-a,,,,AAXX 03004 07790 12575 22502 10080 20070 30010 40025 58003 60006 82200 90000=
07790,1996-04-03 03:00:00,7,1001.6,-0.9,81,4,25000,11.112,,,240,,,,,,,,,,,wg-a,,,,AAXX 03034 07790 12575 22406 10070 20040 30001 40016 57009 60006 82200 90300=
07790,1996-04-03 06:00:00,9,1001.6,0.1,61,2,11000,25.928,,,250,6.5,11.2,,,,,2,,,,wg-a,,,,AAXX 03064 07790 02/61 /2514 10090 20020 30002 40016 53001 60006 90600 333 10112 20065 60024=
07790,1996-04-03 09:00:00,14,1002.9,1.3,63,7,15000,22.224,,,50,,,,,,,,,,,wg-a,,,,AAXX 03094 07790 12565 50512 10140 20070 30015 40029 53013 60006 83302 90900=
07790,1996-04-03 12:00:00,12,1004.1,1.2,71,7,8000,35.188,,,60,,,,1,,,,,,17,wg-a,,,,AAXX 03124 07790 02558 80619 10120 20070 30027 40041 50012 60016 71798 873// 91200 333 60017=
07790,1996-04-03 15:00:00,8,1006.5,2.3,81,5,6000,18.52,,,250,,,,8,,,,,,80,wg-a,,,,AAXX 03154 07790 12456 72510 10080 20050 30050 40065 51023 60087 78098 879// 91500=
07790,1996-04-03 18:00:00,8,1008.2,1.7,76,4,500,22.224,,,340,7,14.7,,3,,,,,,1,wg-a,,,,AAXX 03184 07790 12500 73412 10080 20040 30067 40082 53017 60037 70198 85801 91800 333 10147 20070=
07790,1996-04-03 21:00:00,6,1010.3,2.1,93,5,9000,14.816,,,250,,,,3,,,,,,61,wg-a,,,,AAXX 03214 07790 12459 72508 10060 20050 30088 40103 51021 60037 76162 8583/ 92100=
07790,1996-04-04 00:00:00,7,1010.3,-0,76,3,15000,14.816,,,260,,,,,,,,,,1,wg-a,,,,AAXX 04004 07790 02565 32608 10070 20030 30088 40103 55000 60036 70161 81530 90000 333 61000=
07790,1996-04-04 03:00:00,8,1010.8,0.5,71,3,15000,14.816,,,310,,,,,,,,,,,wg-a,,,,AAXX 04034 07790 12565 33108 10080 20030 30093 40108 53005 60006 82530 90300=
07790,1996-04-04 06:00:00,9,1011.6,0.8,66,3,10000,11.112,,,310,6.1,8.9,,,,,15,,,,wg-a,,,,AAXX 04064 07790 12560 73106 10090 20030 30101 40116 53008 60154 8453/ 90600 333 10089 20061=
07790,1996-04-04 09:00:00,11,1012.7,1.1,62,4,10000,14.816,,,330,,,,,,,,,,,wg-a,,,,AAXX 04094 07790 12560 83308 10110 20040 30112 40127 53011 60006 8653/ 90900=
07790,1996-04-04 12:00:00,13,1012.5,-0.1,62,6,12000,14.816,,,30,,,,,,,,,,,wg-a,,,,AAXX 04124 07790 12562 30308 10130 20060 30111 40125 58001 60006 83230 91200=
07790,1996-04-04 15:00:00,13,1012.2,-0.3,58,5,15000,11.112,,,30,,,,,,,,,,,wg-a,,,,AAXX 04154 07790 12565 /0306 10130 20050 30108 40122 58003 60006 81200 91500=
07790,1996-04-04 18:00:00,10,1013,0.7,82,7,15000,7.408,,,200,8.7,13.8,,,,,,,,,wg-a,,,,AAXX 04184 07790 12565 /2004 10100 20070 30115 40130 53007 60006 81100 91800 333 10138 20087=
07790,1996-04-04 21:00:00,9,1013.9,0.9,76,5,10000,7.408,,,250,,,,,,,,,,,wg-a,,,,AAXX 04214 07790 12/60 /2504 10090 20050 30124 40139 51009 60006 92100=
07790,1996-04-05 00:00:00,8,1014.1,0.2,81,5,10000,7.408,,,240,,,,,,,,,,,wg-a,,,,AAXX 05004 07790 12/60 /2404 10080 20050 30126 40141 50002 60006 90000=
07790,1996-04-05 03:00:00,8,1013.7,-0.4,71,3,20000,3.704,,,210,,,,,,,,,,,wg-a,,,,AAXX 05034 07790 12/70 22102 10080 20030 30122 40137 55004 60006 82030 90300=
07790,1996-04-05 06:00:00,8,1014.1,0.4,71,3,11000,14.816,,,230,6.6,10.4,,,,,,,,,wg-a,,,,AAXX 05064 07790 02/61 /2308 10080 20030 30126 40141 53004 60006 90600 333 10104 20066 60004=
07790,1996-04-05 09:00:00,14,1014.9,0.9,51,4,25000,7.408,,,80,,,,,,,,,,,wg-a,,,,AAXX 05094 07790 12675 70804 10140 20040 30135 40149 51009 60006 8483/ 90900=
07790,1996-04-05 12:00:00,15,1014.5,-0.4,55,6,25000,11.112,,,60,,,,,,,,,,,wg-a,,,,AAXX 05124 07790 12675 40606 10150 20060 30131 40145 58004 60006 8383/ 91200=
07790,1996-04-05 15:00:00,14,1014.7,0.2,63,7,9000,7.408,,,60,,,,,,,,,,,wg-a,,,,AAXX 05154 07790 12559 70604 10140 20070 30133 40147 51002 60006 8213/ 91500=
07790,1996-04-05 18:00:00,12,1015.3,0.6,76,8,9000,3.704,,,360,7.7,15.2,,,,,,,,,wg-a,,,,AAXX 05184 07790 12659 /3602 10120 20080 30139 40153 53006 60006 81130 91800 333 10152 20077=
07790,1996-04-05 21:00:00,11,1016.2,0.8,87,9,15000,3.704,,,250,,,,,,,,,,,wg-a,,,,AAXX 05214 07790 12665 /2502 10110 20090 30147 40162 51008 60006 81130 92100=
07790,1996-04-06 00:00:00,11,1016.1,-0.1,82,8,15000,3.704,,,240,,,,,,,,,,,wg-a,,,,AAXX 06004 07790 12/65 /2402 10110 20080 30146 40161 58001 60006 86030 90000=
07790,1996-04-06 03:00:00,8,1015.9,-0.2,87,6,15000,7.408,,,230,,,,,,,,,,,wg-a,,,,AAXX 06034 07790 12/65 02304 10080 20060 30144 40159 55002 60006 80000 90300=
07790,1996-04-06 06:00:00,9,1016.5,0.6,81,6,15000,7.408,,,230,7.3,12.3,,,,,,,,,wg-a,,,,AAXX 06064 07790 02565 72304 10090 20060 30150 40165 53006 60006 85831 90600 333 10123 20073 60004=
07790,1996-04-06 09:00:00,14,1017.4,1,63,7,15000,7.408,,,10,,,,,,,,,,,wg-a,,,,AAXX 06094 07790 12565 /0104 10140 20070 30160 40174 53010 60006 85800 90900=
07790,1996-04-06 12:00:00,15,1017.3,-0.1,59,7,17000,11.112,,,20,,,,,,,,,,,wg-a,,,,AAXX 06124 07790 12567 70206 10150 20070 30159 40173 57001 60006 81101 91200=
07790,1996-04-06 15:00:00,15,1016.6,-0.7,59,7,17000,11.112,,,30,,,,,,,,,,,wg-a,,,,AAXX 06154 07790 12567 70306 10150 20070 30152 40166 56007 60006 81101 91500=
07790,1996-04-06 18:00:00,13,1016.9,0.3,72,8,17000,7.408,,,190,8.6,16.2,,,,,,,,,wg-a,,,,AAXX 06184 07790 12567 71904 10130 20080 30155 40169 53003 60006 81401 91800 333 10162 20086=
07790,1996-04-06 21:00:00,10,1017.6,0.6,82,7,18000,7.408,,,210,,,,,,,,,,,wg-a,,,,AAXX 06214 07790 12/68 /2104 10100 20070 30161 40176 51006 60006 80001 92100=
07790,1996-04-07 00:00:00,10,1017.8,0.2,76,6,18000,14.816,,,240,,,,,,,,,,,wg-a,,,,AAXX 07004 07790 12/68 52408 10100 20060 30163 40178 51002 60006 80001 90000=
07790,1996-04-07 03:00:00,8,1017.3,-0.5,81,5,18000,11.112,,,240,,,,,,,,,,,wg-a,,,,AAXX 07034 07790 12/68 32406 10080 20050 30158 40173 58005 60006 80001 90300=
07790,1996-04-07 06:00:00,10,1017.7,0.4,76,6,10000,11.112,,,240,7.7,13.3,,,,,,,,,wg-a,,,,AAXX 07064 07790 02/60 /2406 10100 20060 30162 40177 53004 60006 90600 333 10133 20077 60004=
07790,1996-04-07 09:00:00,17,1018.4,0.8,52,7,25000,3.704,,,190,,,,,,,,,,,wg-a,,,,AAXX 07094 07790 12675 /1902 10170 20070 30170 40184 51008 60006 81132 90900=
07790,1996-04-07 12:00:00,18,1018.4,-0,56,9,11000,11.112,,,90,,,,,,,,,,,wg-a,,,,AAXX 07124 07790 12/61 /0906 10180 20090 30170 40184 55000 60006 91200=
07790,1996-04-07 15:00:00,16,1018,-0.4,63,9,15000,3.704,,,110,,,,,,,,,,,wg-a,,,,AAXX 07154 07790 12665 71102 10160 20090 30166 40180 56004 60006 81102 91500=
07790,1996-04-07 18:00:00,15,1018.2,0.2,67,9,15000,3.704,,,170,9.9,18,,,,,,,,,wg-a,,,,AAXX 07184 07790 12765 /1702 10150 20090 30168 40182 53002 60006 81102 91800 333 10180 20099=
07790,1996-04-07 21:00:00,11,1019.2,0.9,87,9,20000,3.704,,,60,,,,,,,,,,,wg-a,,,,AAXX 07214 07790 12/70 30602 10110 20090 30177 40192 53009 60006 80001 92100=
07790,1996-04-08 00:00:00,10,1019.6,0.4,82,7,20000,11.112,,,240,,,,,,,,,,,wg-a,,,,AAXX 08004 07790 12/70 42406 10100 20070 30181 40196 50004 60006 80001 90000=
07790,1996-04-08 03:00:00,9,1019.2,-0.4,87,7,10000,11.112,,,250,,,,,,,,,,,wg-a,,,,AAXX 08034 07790 12/60 /2506 10090 20070 30177 40192 56004 60006 90300=
07790,1996-04-08 06:00:00,9,1019.9,0.7,81,6,17000,7.408,,,250,8.2,14.5,,,,,,,,,wg-a,,,,AAXX 08064 07790 02/67 42504 10090 20060 30184 40199 53007 60006 84030 90600 333 10145 20082 60004=
07790,1996-04-08 09:00:00,17,1020.7,0.9,59,9,17000,3.704,,,50,,,,,,,,,,,wg-a,,,,AAXX 08094 07790 12/67 70502 10170 20090 30193 40207 51009 60006 85034 90900=
07790,1996-04-08 12:00:00,18,1020.1,-0.6,52,8,17000,11.112,,,30,,,,,,,,,,,wg-a,,,,AAXX 08124 07790 12567 20306 10180 20080 30187 40201 58006 60006 81130 91200=
07790,1996-04-08 15:00:00,18,1019.1,-1,56,9,17000,7.408,,,40,,,,,,,,,,,wg-a,,,,AAXX 08154 07790 12567 20404 10180 20090 30177 40191 58010 60006 81131 91500=
07790,1996-04-08 18:00:00,15,1019.5,0.4,82,12,12000,3.704,,,180,9.2,18.3,,,,,,,,,wg-a,,,,AAXX 08184 07790 12562 41802 10150 20120 30181 40195 53004 60006 81504 91800 333 10183 20092=
07790,1996-04-08 21:00:00,11,1020.2,0.6,87,9,15000,7.408,,,260,,,,,,,,,,,wg-a,,,,AAXX 08214 07790 12/65 42604 10110 20090 30187 40202 51006 60006 80004 92100=
07790,1996-04-09 03:00:00,12,1019.7,-0.8,71,7,15000,11.112,,,230,,,,,,,,,,,wg-a,,,,AAXX 09034 07790 12865 72306 10120 20070 30182 40197 56008 60006 8703/ 90300=
07790,1996-04-09 06:00:00,12,1020.2,0.5,71,7,20000,11.112,,,230,10.5,15.4,,,,,,,,21,wg-a,,,,AAXX 09064 07790 02770 82306 10120 20070 30187 40202 53005 61000 72161 8657/ 90600 333 10154 20105 6100=
07790,1996-04-09 09:00:00,15,1021.2,1.1,82,12,18000,14.816,,,40,,,,,,,,,,,wg-a,,,,AAXX 09094 07790 12768 70408 10150 20120 30198 40212 53011 60006 8557/ 90900=
07790,1996-04-09 12:00:00,15,1021.1,-0.1,82,12,6000,14.816,,,360,,,,0,,,,,,61,wg-a,,,,AAXX 09124 07790 02556 83608 10150 20120 30197 40211 57001 60006 76162 8681/ 91200 333 60007=
07790,1996-04-09 15:00:00,16,1018.8,-2.3,68,10,20000,14.816,,,230,,,,,,,,,,2,wg-a,,,,AAXX 09154 07790 02570 72308 10160 20100 30174 40188 58023 61000 70262 8381/ 91500 333 ////=
07790,1996-04-09 18:00:00,13,1019.4,0.6,77,9,20000,7.408,,,300,12,16.4,,,,,,,,1,wg-a,,,,AAXX 09184 07790 32670 /3004 10130 20090 30180 40194 53006 70162 82501 91800 333 10164 20120=
07790,1996-04-09 21:00:00,11,1019.6,0.1,76,7,20000,14.816,,,250,,,,,,,,,,,wg-a,,,,AAXX 09214 07790 12/70 22508 10110 20070 30181 40196 50001 60006 80001 92100=
07790,1996-04-10 00:00:00,10,1019.5,-0.1,76,6,20000,11.112,,,240,,,,,,,,,,,wg-a,,,,AAXX 10004 07790 12/70 02406 10100 20060 30180 40195 58001 60006 80000 90000=
07790,1996-04-10 03:00:00,9,1018.5,-1,76,5,20000,14.816,,,240,,,,,,,,,,,wg-a,,,,AAXX 10034 07790 12/70 02408 10090 20050 30170 40185 56010 60006 80000 90300=
07790,1996-04-10 06:00:00,10,1018.4,-0.1,71,5,20000,11.112,,,240,9.1,13.4,,,,,,,,,wg-a,,,,AAXX 10064 07790 02/70 02406 10100 20050 30169 40184 55001 60006 80000 90600 333 10134 20091 60004=
07790,1996-04-10 09:00:00,18,1018.3,0,49,7,20000,7.408,,,80,,,,,,,,,,,wg-a,,,,AAXX 10094 07790 12670 /0804 10180 20070 30169 40183 50000 60006 81101 90900=
07790,1996-04-10 12:00:00,19,1017.5,-0.8,52,9,20000,7.408,,,90,,,,,,,,,,,wg-a,,,,AAXX 10124 07790 12670 /0904 10190 20090 30161 40175 57008 60006 81201 91200=
07790,1996-04-10 15:00:00,18,1016.1,-1.4,56,9,20000,11.112,,,120,,,,,,,,,,,wg-a,,,,AAXX 10154 07790 12670 21206 10180 20090 30147 40161 58014 60006 81431 91500=
07790,1996-04-10 18:00:00,15,1015.8,-0.3,72,10,18000,3.704,,,150,10.5,19,,,,,,,,,wg-a,,,,AAXX 10184 07790 12668 /1502 10150 20100 30144 40158 55003 60006 81501 91800 333 10190 20105=
07790,1996-04-10 21:00:00,11,1016.3,0.4,82,8,10000,7.408,,,200,,,,,,,,,,,wg-a,,,,AAXX 10214 07790 12/60 /2004 10110 20080 30148 40163 50004 60006 92100=
07790,1996-04-11 00:00:00,9,1015.6,-0.7,87,7,18000,3.704,,,220,,,,,,,,,,,wg-a,,,,AAXX 11004 07790 12/68 02202 10090 20070 30141 40156 58007 60006 80000 90000=
07790,1996-04-11 03:00:00,8,1014.2,-1.4,87,6,10000,7.408,,,230,,,,,,,,,,,wg-a,,,,AAXX 11034 07790 12/60 /2304 10080 20060 30127 40142 56014 60006 90300=
07790,1996-04-11 06:00:00,9,1013.5,-0.7,81,6,12000,7.408,,,230,7.9,15.1,,,,,,,,,wg-a,,,,AAXX 11064 07790 02/62 32304 10090 20060 30120 40135 56007 60006 81031 90600 333 10151 20079 60004=
07790,1996-04-11 09:00:00,17,1013.1,-0.3,63,10,12000,11.112,,,110,,,,,,,,,,,wg-a,,,,AAXX 11094 07790 12662 71106 10170 20100 30117 40131 58003 60006 84131 90900=
07790,1996-04-11 12:00:00,16,1011.6,-1.5,68,10,12000,11.112,,,60,,,,,,,,,,,wg-a,,,,AAXX 11124 07790 12662 50606 10160 20100 30102 40116 58015 60006 81131 91200=
07790,1996-04-11 15:00:00,16,1009.5,-2.1,68,10,10000,11.112,,,50,,,,,,,,,,,wg-a,,,,AAXX 11154 07790 12560 20506 10160 20100 30081 40095 57021 60006 81230 91500=
07790,1996-04-11 18:00:00,15,1009.3,-0.2,77,11,8000,14.816,,,20,8.5,17.8,,,,,,,,,wg-a,,,,AAXX 11184 07790 12558 40208 10150 20110 30079 40093 56002 60006 84800 91800 333 10178 20085=
07790,1996-04-11 21:00:00,14,1009.7,0.4,77,10,15000,3.704,,,220,,,,,,,,,,,wg-a,,,,AAXX 11214 07790 12565 22202 10140 20100 30083 40097 50004 60006 82100 92100=
07790,1996-04-12 00:00:00,12,1010,0.3,82,9,11000,11.112,,,230,,,,,,,,,,,wg-a,,,,AAXX 12004 07790 12/61 /2306 10120 20090 30086 40100 51003 60006 90000=
07790,1996-04-12 03:00:00,10,1009.3,-0.7,93,9,15000,7.408,,,230,,,,,,,,,,,wg-a,,,,AAXX 12034 07790 12465 /2304 10100 20090 30079 40093 56007 60006 81100 90300=
07790,1996-04-12 06:00:00,10,1010.2,0.8,93,9,500,7.408,,,230,9.3,14.5,,,,,,,,,wg-a,,,,AAXX 12064 07790 02400 /2304 10100 20090 30087 40102 53008 60006 81500 90600 333 10145 20093 60004=
07790,1996-04-12 09:00:00,17,1010.4,0.3,68,11,500,11.112,,,130,,,,,,,,,,,wg-a,,,,AAXX 12094 07790 12400 41306 10170 20110 30090 40104 51003 60006 84800 90900=
07790,1996-04-12 15:00:00,18,1009.3,-0.7,68,12,7000,14.816,,,140,,,,,,,,,,,wg-a,,,,AAXX 12154 07790 12457 /1408 10180 20120 30079 40093 56007 60006 81104 91500=
07790,1996-04-12 18:00:00,15,1009.9,0.6,88,13,500,3.704,,,120,10.2,18.6,,,,,,,,,wg-a,,,,AAXX 12184 07790 12200 71202 10150 20130 30085 40099 53006 60006 81601 91800 333 10186 20102=
07790,1996-04-12 21:00:00,12,1011.2,1.3,88,10,8000,3.704,,,290,,,,,,,,,,,wg-a,,,,AAXX 12214 07790 12258 /2902 10120 20100 30098 40112 52013 60006 81601 92100=
07790,1996-04-13 03:00:00,10,1011.2,-0.7,93,9,500,7.408,,,250,,,,,,,,,,,wg-a,,,,AAXX 13034 07790 12200 /2504 10100 20090 30097 40112 56007 60006 81601 90300=
07790,1996-04-13 06:00:00,11,1011.9,0.7,87,9,3500,11.112,,,230,8.8,15,,,,,,,,10,wg-a,,,,AAXX 13064 07790 12335 72306 10110 20090 30104 40119 53007 60004 71022 876// 90600 333 10150 20088=
07790,1996-04-13 07:00:00,11,1011.9,0.7,87,9,3500,11.112,,,230,8.8,15,,,,,,,,10,wg-a,,,,AAXX 13074 07790 12335 72306 10110 20090 30104 40119 53007 60004 71022 876// 90700 333 10150 20088=
07790,1996-04-13 09:00:00,17,1012,0.2,72,12,7000,11.112,,,110,,,,,,,,,,,wg-a,,,,AAXX 13094 07790 12457 31106 10170 20120 30106 40120 53002 60006 83101 90900=
07790,1996-04-13 12:00:00,17,1011.3,-0.7,72,12,8000,18.52,,,130,,,,,,,,,,,wg-a,,,,AAXX 13124 07790 12458 21310 10170 20120 30099 40113 56007 60006 82101 91200=
07790,1996-04-13 14:00:00,15,1010.5,-0,82,12,4000,7.408,,,140,,18.1,,,,,,,,10,wg-a,,,,AAXX 13144 07790 12440 71404 10150 20120 30091 40105 55000 60006 71011 85601 91400 333 10181=
07790,1996-04-13 15:00:00,18,1010.5,-0.8,68,12,8000,7.408,,,90,,,,,,,,,,,wg-a,,,,AAXX 13154 07790 12458 50904 10180 20120 30091 40105 56008 60006 81134 91500=
07790,1996-04-13 18:00:00,15,1010.5,-0,82,12,4000,7.408,,,140,10.5,18.1,,,,,,,,10,wg-a,,,,AAXX 13184 07790 12440 71404 10150 20120 30091 40105 55000 60006 71011 85601 91800 333 10181 20105=
07790,1996-04-13 21:00:00,14,1011,0.5,88,12,500,3.704,,,230,,,,,,,,,,,wg-a,,,,AAXX 13214 07790 12400 72302 10140 20120 30096 40110 50005 60006 84501 92100=
07790,1996-04-14 00:00:00,13,1010.7,-0.3,88,11,4500,7.408,,,280,,,,,,,,,,10,wg-a,,,,AAXX 14004 07790 12445 72804 10130 20110 30093 40107 57003 60006 71022 86501 90000=
07790,1996-04-14 03:00:00,14,1009.7,-1,88,12,500,3.704,,,230,,,,,,,,,,60,wg-a,,,,AAXX 14034 07790 02400 72302 10140 20120 30083 40097 58010 61000 76062 85531 90300 333 ////=
07790,1996-04-14 06:00:00,13,1010.6,0.9,94,12,4500,22.224,,,340,12.2,15,,2,,,2,,,10,wg-a,,,,AAXX 14064 07790 02345 83412 10130 20120 30092 40106 53009 60024 71065 8683/ 90600 333 10150 20122 60027=
07790,1996-04-14 09:00:00,14,1012.1,1.5,82,11,15000,22.224,,,20,,,,0,,,,,,21,wg-a,,,,AAXX 14094 07790 12465 80212 10140 20110 30107 40121 53015 60007 72162 878// 90900=
07790,1996-04-14 12:00:00,15,1013.1,1,77,11,25000,22.224,,,30,,,,0,,,,,,3,wg-a,,,,AAXX 14124 07790 02475 /0312 10150 20110 30117 40131 53010 60016 70362 85830 91200 333 60007=
07790,1996-04-14 15:00:00,16,1013.2,0.1,48,5,500,11.112,,,360,,,,,,,,,,,wg-a,,,,AAXX 14154 07790 12500 /3606 10160 20050 30118 40132 50001 60006 81800 91500=
07790,1996-04-14 18:00:00,13,1013.9,0.7,58,5,500,7.408,,,250,12.5,15.7,,,,,,,,,wg-a,,,,AAXX 14184 07790 32700 72504 10130 20050 30125 40139 53007 82571 91800 333 10157 20125=
07790,1996-04-14 21:00:00,12,1015.7,1.7,62,5,500,7.408,,,240,,,,,,,,,,,wg-a,,,,AAXX 14214 07790 12700 82404 10120 20050 30142 40157 53017 60006 81501 92100=
07790,1996-04-15 00:00:00,11,1017.1,1.4,71,6,10000,7.408,,,250,,,,,,,,,,,wg-a,,,,AAXX 15004 07790 12/60 /2504 10110 20060 30156 40171 51014 60006 90000=
07790,1996-04-15 03:00:00,9,1017.1,-0,81,6,500,7.408,,,240,,,,,,,,,,,wg-a,,,,AAXX 15034 07790 12600 22404 10090 20060 30156 40171 55000 60006 81501 90300=
07790,1996-04-15 06:00:00,10,1018.1,1,71,5,20000,18.52,,,240,7.9,13.1,,,,,,,,,wg-a,,,,AAXX 15064 07790 02570 /2410 10100 20050 30166 40181 53010 60006 81501 90600 333 10131 20079 60004=
07790,1996-04-15 09:00:00,16,1019.1,1.1,51,6,18000,14.816,,,140,,,,,,,,,,,wg-a,,,,AAXX 15094 07790 12568 /1408 10160 20060 30177 40191 53011 60006 81100 90900=
07790,1996-04-15 12:00:00,18,1018.7,-0.4,45,6,18000,18.52,,,140,,,,,,,,,,,wg-a,,,,AAXX 15124 07790 12568 /1410 10180 20060 30173 40187 58004 60006 81900 91200=
07790,1996-04-15 15:00:00,18,1017.9,-0.8,42,5,25000,18.52,,,150,,,,,,,,,,,wg-a,,,,AAXX 15154 07790 12675 /1510 10180 20050 30165 40179 58008 60006 81200 91500=
07790,1996-04-15 21:00:00,11,1019.4,1.2,62,4,25000,7.408,,,220,,,,,,,,,,,wg-a,,,,AAXX 15214 07790 12575 /2204 10110 20040 30179 40194 51012 60006 81500 92100=
07790,1996-04-16 00:00:00,11,1018.7,-0.7,58,3,25000,11.112,,,230,,,,,,,,,,,wg-a,,,,AAXX 16004 07790 12575 /2306 10110 20030 30172 40187 58007 60006 81500 90000=
07790,1996-04-16 03:00:00,11,1017.6,-1.1,43,-1,25000,7.408,,,160,,,,,,,,,,,wg-a,,,,AAXX 16034 07790 12575 /1604 10110 21010 30161 40176 56011 60006 81500 90300=
07790,1996-04-16 06:00:00,11,1017.6,-0,54,2,500,11.112,,,230,9.5,14.3,,,,,,,,,wg-a,,,,AAXX 16064 07790 02/00 02306 10110 20020 30161 40176 55000 60006 80000 90600 333 10143 20095 60004=
07790,1996-04-16 09:00:00,17,1017.7,0.2,55,8,20000,18.52,,,140,,,,,,,,,,,wg-a,,,,AAXX 16094 07790 12570 11410 10170 20080 30163 40177 53002 60006 81100 90900=
07790,1996-04-16 12:00:00,18,1016.4,-1.3,59,10,500,14.816,,,130,,,,,,,,,,,wg-a,,,,AAXX 16124 07790 12500 /1308 10180 20100 30150 40164 57013 60006 81100 91200=
07790,1996-04-16 15:00:00,18,1015.3,-1.1,52,8,11000,11.112,,,110,,,,,,,,,,,wg-a,,,,AAXX 16154 07790 12/61 /1106 10180 20080 30139 40153 57011 60006 91500=
07790,1996-04-16 18:00:00,14,1014.8,-0.5,77,10,12000,7.408,,,170,11,18.7,,,,,,,,,wg-a,,,,AAXX 16184 07790 12/62 11704 10140 20100 30134 40148 55005 60006 80001 91800 333 10187 20110=
07790,1996-04-16 21:00:00,10,1015.4,0.5,76,6,10000,7.408,,,220,,,,,,,,,,,wg-a,,,,AAXX 16214 07790 12/60 /2204 10100 20060 30139 40154 50005 60006 92100=
07790,1996-04-17 00:00:00,10,1014.8,-0.6,53,1,0,14.816,,,230,,,,,,,,,,,wg-a,,,,AAXX 17004 07790 12/// /2308 10100 20010 30133 40148 58006 60006 90000=
07790,1996-04-17 03:00:00,10,1014.2,-0.6,46,-1,20000,18.52,,,230,,,,,,,,,,,wg-a,,,,AAXX 17034 07790 12/70 12310 10100 21010 30127 40142 56006 60006 80001 90300=
07790,1996-04-17 06:00:00,10,1013.8,-0.4,50,0,25000,14.816,,,230,8,14.3,,,,,,,,,wg-a,,,,AAXX 17064 07790 02/75 22308 10100 20000 30123 40138 56004 60006 80001 90600 333 10143 20080 60004=
07790,1996-04-17 09:00:00,16,1013.6,-0.1,68,10,15000,22.224,,,140,,,,,,,,,,,wg-a,,,,AAXX 17094 07790 12565 /1412 10160 20100 30122 40136 57001 60006 81101 90900=
07790,1996-04-17 12:00:00,17,1012.2,-1.4,55,8,15000,29.632,,,130,,,,,,,,,,,wg-a,,,,AAXX 17124 07790 12565 71316 10170 20080 30108 40122 58014 60006 82208 91200=
07790,1996-04-17 15:00:00,16,1011.4,-0.8,59,8,15000,18.52,,,140,,,,,,,,,,,wg-a,,,,AAXX 17154 07790 12565 71410 10160 20080 30100 40114 56008 60006 81802 91500=
07790,1996-04-17 18:00:00,14,1011.6,0.2,58,6,15000,7.408,,,170,9.8,17.2,,,,,,,,,wg-a,,,,AAXX 17184 07790 12565 /1704 10140 20060 30102 40116 53002 60006 81532 91800 333 10172 20098=
07790,1996-04-17 21:00:00,10,1012.9,1.2,82,7,15000,7.408,,,240,,,,,,,,,,,wg-a,,,,AAXX 17214 07790 12/65 /2404 10100 20070 30114 40129 51012 60006 84031 92100=
07790,1996-04-18 00:00:00,9,1013.8,0.9,71,4,15000,7.408,,,240,,,,,,,,,,,wg-a,,,,AAXX 18004 07790 12/65 22404 10090 20040 30123 40138 51009 60006 82030 90000=
07790,1996-04-18 03:00:00,8,1014.3,0.5,71,3,15000,14.816,,,240,,,,,,,,,,,wg-a,,,,AAXX 18034 07790 12/65 02408 10080 20030 30128 40143 51005 60006 80000 90300=
07790,1996-04-18 15:00:00,19,1016.8,-0.3,40,5,25000,14.816,,,20,,,,,,,,,,,wg-a,,,,AAXX 18154 07790 12575 /0208 10190 20050 30154 40168 57003 60006 81201 91500=
07790,1996-04-18 18:00:00,16,1017.3,0.5,51,6,500,3.704,,,280,10.2,18.7,,,,,,,,,wg-a,,,,AAXX 18184 07790 12/00 /2802 10160 20060 30159 40173 53005 60006 80001 91800 333 10187 20102=
07790,1996-04-18 21:00:00,13,1018.7,1.4,54,4,25000,25.928,,,240,,,,,,,,,,,wg-a,,,,AAXX 18214 07790 12/75 02414 10130 20040 30173 40187 51014 60006 80000 92100=
07790,1996-04-19 00:00:00,13,1019.7,0.9,54,4,25000,22.224,,,240,,,,,,,,,,,wg-a,,,,AAXX 19004 07790 12/75 02412 10130 20040 30182 40197 51009 60006 80000 90000=
07790,1996-04-19 03:00:00,11,1020.2,0.5,58,3,25000,7.408,,,250,,,,,,,,,,,wg-a,,,,AAXX 19034 07790 12/75 02504 10110 20030 30187 40202 53005 60006 80000 90300=
07790,1996-04-19 06:00:00,11,1021.4,1.2,66,5,500,7.408,,,240,9.3,15.6,,,,,,,,,wg-a,,,,AAXX 19064 07790 02/00 02404 10110 20050 30199 40214 53012 60006 80000 90600 333 10156 20093 60004=
07790,1996-04-19 09:00:00,19,1022.1,0.8,46,7,20000,7.408,,,40,,,,,,,,,,,wg-a,,,,AAXX 19094 07790 12/70 00404 10190 20070 30207 40221 51008 60006 80000 90900=
07790,1996-04-19 12:00:00,19,1021.8,-0.3,32,2,25000,11.112,,,30,,,,,,,,,,,wg-a,,,,AAXX 19124 07790 12/75 00306 10190 20020 30204 40218 58003 60006 80000 91200=
07790,1996-04-19 15:00:00,19,1020.7,-1.1,40,5,11000,7.408,,,30,,,,,,,,,,,wg-a,,,,AAXX 19154 07790 12/61 /0304 10190 20050 30193 40207 56011 60006 91500=
07790,1996-04-19 18:00:00,16,1020.4,-0.3,77,12,15000,3.704,,,50,11.2,19.4,,,,,,,,,wg-a,,,,AAXX 19184 07790 12/65 00502 10160 20120 30190 40204 55003 60006 80000 91800 333 10194 20112=
07790,1996-04-19 21:00:00,12,1021.2,0.7,82,9,10000,7.408,,,240,,,,,,,,,,,wg-a,,,,AAXX 19214 07790 12/60 /2404 10120 20090 30197 40212 50007 60006 92100=
07790,1996-04-20 00:00:00,11,1021.7,0.5,66,5,22000,14.816,,,220,,,,,,,,,,,wg-a,,,,AAXX 20004 07790 12/72 02208 10110 20050 30202 40217 52005 60006 80000 90000=
07790,1996-04-20 03:00:00,10,1020.6,-1.1,71,5,22000,11.112,,,230,,,,,,,,,,,wg-a,,,,AAXX 20034 07790 12/72 02306 10100 20050 30191 40206 56011 60006 80000 90300=
07790,1996-04-20 06:00:00,11,1021.4,0.8,66,5,20000,7.408,,,250,9.4,15.7,,,,,,,,,wg-a,,,,AAXX 20064 07790 02/70 02504 10110 20050 30199 40214 53008 60006 80000 90600 333 10157 20094 60004=
07790,1996-04-20 09:00:00,18,1021.6,0.3,59,10,20000,7.408,,,80,,,,,,,,,,,wg-a,,,,AAXX 20094 07790 12/70 00804 10180 20100 30202 40216 52003 60006 80000 90900=
07790,1996-04-20 12:00:00,21,1020.8,-0.8,35,5,10000,11.112,,,100,,,,,,,,,,,wg-a,,,,AAXX 20124 07790 12/60 /1006 10210 20050 30194 40208 58008 60006 91200=
07790,1996-04-20 15:00:00,20,1019.5,-1.3,49,9,20000,11.112,,,100,,,,,,,,,,,wg-a,,,,AAXX 20154 07790 12/70 /1006 10200 20090 30181 40195 58013 60006 80000 91500=
07790,1996-04-20 18:00:00,17,1018.8,-0.7,63,10,10000,3.704,,,90,11.4,21,,,,,,,,,wg-a,,,,AAXX 20184 07790 12/60 /0902 10170 20100 30174 40188 56007 60006 91800 333 10210 20114=
07790,1996-04-20 21:00:00,12,1019.3,0.4,76,8,20000,7.408,,,240,,,,,,,,,,,wg-a,,,,AAXX 20214 07790 12/70 02404 10120 20080 30178 40193 50004 60006 80000 92100=
07790,1996-04-21 00:00:00,10,1019.3,0,76,6,20000,7.408,,,240,,,,,,,,,,,wg-a,,,,AAXX 21004 07790 12/70 02404 10100 20060 30178 40193 50000 60006 80000 90000=
07790,1996-04-21 03:00:00,9,1018.6,-0.7,71,4,20000,7.408,,,240,,,,,,,,,,,wg-a,,,,AAXX 21034 07790 12/70 02404 10090 20040 30171 40186 57007 60006 80000 90300=
07790,1996-04-21 06:00:00,10,1019,0.4,76,6,18000,3.704,,,240,8.3,16.8,,,,,,,,,wg-a,,,,AAXX 21064 07790 02/68 32402 10100 20060 30175 40190 53004 60006 80001 90600 333 10168 20083 60004=
07790,1996-04-21 09:00:00,18,1018.4,-0.5,64,11,15000,29.632,,,140,,,,,,,,,,,wg-a,,,,AAXX 21094 07790 12565 31416 10180 20110 30170 40184 58005 60006 81102 90900=
07790,1996-04-21 12:00:00,19,1018.2,-0.2,60,11,10000,35.188,,51.856,140,,,,,,,,,,,wg-a,,,,AAXX 21124 07790 12660 /1419 10190 20110 30168 40182 58002 60006 81204 91200 333 91028=
07790,1996-04-21 15:00:00,18,1017.7,-0.5,73,13,8000,29.632,,53.708,150,,,,,,,,,,,wg-a,,,,AAXX 21154 07790 12658 /1516 10180 20130 30163 40177 58005 60006 82204 91500 333 91029=
07790,1996-04-21 18:00:00,16,1017.8,0.1,82,13,7000,25.928,,53.708,160,10,19.5,,,,,,,,,wg-a,,,,AAXX 21184 07790 12657 /1614 10160 20130 30164 40178 51001 60006 82234 91800 333 10195 20100 91029=
07790,1996-04-21 21:00:00,14,1018.8,1,82,11,10000,7.408,,,180,,,,,,,,,,,wg-a,,,,AAXX 21214 07790 12660 71804 10140 20110 30174 40188 51010 60006 8123/ 92100=
07790,1996-04-22 03:00:00,11,1018.8,-0.2,82,8,10000,7.408,,,200,,,,,,,,,,,wg-a,,,,AAXX 22034 07790 12/60 42004 10110 20080 30173 40188 58002 60006 84030 90300=
07790,1996-04-22 06:00:00,15,1018.5,-0.2,82,12,7000,29.632,,,150,9.4,15.8,,,,,,,,,wg-a,,,,AAXX 22064 07790 02657 71516 10150 20120 30171 40185 56002 60006 82801 90600 333 10158 20094 60004=
07790,1996-04-22 09:00:00,18,1018.8,0.3,64,11,7000,35.188,,55.56,150,,,,,,,,,,,wg-a,,,,AAXX 22094 07790 12557 /1519 10180 20110 30174 40188 53003 60006 8387/ 90900 333 91030=
07790,1996-04-22 12:00:00,19,1018.5,-0.3,60,11,10000,31.484,,64.82,140,,,,,,,,,,,wg-a,,,,AAXX 22124 07790 12560 /1417 10190 20110 30171 40185 56003 60006 81231 91200 333 91035=
07790,1996-04-22 15:00:00,18,1018.1,-0.4,64,11,9000,31.484,,51.856,140,,,,,,,,,,,wg-a,,,,AAXX 22154 07790 12559 81417 10180 20110 30167 40181 58004 60006 83801 91500 333 91028=
07790,1996-04-22 18:00:00,16,1017.7,-0.4,63,9,8000,35.188,,61.116,150,14.8,19.6,,,,,,,,,wg-a,,,,AAXX 22184 07790 12458 81519 10160 20090 30163 40177 58004 60006 8387/ 91800 333 10196 20148 91033=
07790,1996-04-22 21:00:00,16,1018,0.3,68,10,20000,29.632,,,140,,,,,,,,,,2,wg-a,,,,AAXX 22214 07790 02770 81416 10160 20100 30166 40180 50003 61000 70262 8357/ 92100 333 ////=
07790,1996-04-23 00:00:00,15,1017.3,-0.7,82,12,0,31.484,,,150,,,,,,,,,,,wg-a,,,,AAXX 23004 07790 02/// /1517 10150 20120 30159 40173 58007 61000 90000 333 ////=
07790,1996-04-23 03:00:00,15,1016.3,-1,77,11,18000,31.484,,50.004,150,,,,,,,,,,,wg-a,,,,AAXX 23034 07790 12768 81517 10150 20110 30149 40163 58010 60006 8357/ 90300 333 91027=
07790,1996-04-23 06:00:00,15,1016.9,0.6,82,12,8000,25.928,,,130,15,16.5,,,,,,,,,wg-a,,,,AAXX 23064 07790 02558 41314 10150 20120 30155 40169 53006 61000 81571 90600 333 10165 20150 ////=
07790,1996-04-23 09:00:00,16,1016.8,-0.1,82,13,9000,31.484,,57.412,150,,,,,,,,,,,wg-a,,,,AAXX 23094 07790 12559 /1517 10160 20130 30154 40168 55001 60006 8452/ 90900 333 91031=
07790,1996-04-23 12:00:00,16,1017.1,0.3,88,14,2500,29.632,,61.116,150,,,,0,,,,,,60,wg-a,,,,AAXX 23124 07790 02225 81516 10160 20140 30157 40171 53003 60016 76061 875// 91200 333 60007 91033=
07790,1996-04-23 15:00:00,16,1016.6,-0.5,88,14,2500,25.928,,,150,,,,0,,,,,,10,wg-a,,,,AAXX 23154 07790 12325 81514 10160 20140 30152 40166 55005 60007 71062 8552/ 91500=
07790,1996-04-23 18:00:00,15,1016.7,0.1,94,14,1700,14.816,,,160,14.7,16.3,,7,,,,,,10,wg-a,,,,AAXX 23184 07790 12117 81608 10150 20140 30153 40167 51001 60077 71062 8652/ 91800 333 10163 20147=
07790,1996-04-23 21:00:00,15,1017.5,0.8,94,14,4000,11.112,,,170,,,,,,,,,,10,wg-a,,,,AAXX 23214 07790 32/40 /1706 10150 20140 30161 40175 51008 710// 92100=
07790,1996-04-24 00:00:00,15,1017.6,0.1,88,13,3000,22.224,,,160,,,,,,,,,,10,wg-a,,,,AAXX 24004 07790 02430 71612 10150 20130 30162 40176 50001 60026 71062 8557/ 90000 333 61000=
07790,1996-04-24 03:00:00,14,1016.9,-0.7,94,13,3500,11.112,,,170,,,,,,,,,,10,wg-a,,,,AAXX 24034 07790 12435 71706 10140 20130 30155 40169 58007 60006 71022 8757/ 90300=
07790,1996-04-24 06:00:00,15,1017.6,0.7,88,13,6000,11.112,,,160,14.3,14.9,,,,,10,,,,wg-a,,,,AAXX 24064 07790 12456 81606 10150 20130 30162 40176 53007 60104 875// 90600 333 10149 20143=
07790,1996-04-24 09:00:00,16,1018.3,0.7,88,14,500,14.816,,,160,,,,,,,,,,,wg-a,,,,AAXX 24094 07790 12200 81608 10160 20140 30169 40183 52007 60006 875// 90900=
07790,1996-04-24 12:00:00,17,1018,-0.3,82,14,6000,18.52,,,150,,,,,,,,,,,wg-a,,,,AAXX 24124 07790 12456 71510 10170 20140 30166 40180 57003 60006 8551/ 91200=
07790,1996-04-24 15:00:00,17,1017.7,-0.3,82,14,7000,11.112,,,140,,,,,,,,,,,wg-a,,,,AAXX 24154 07790 12457 81406 10170 20140 30163 40177 58003 60006 8351/ 91500=
07790,1996-04-24 18:00:00,15,1017.9,0.2,94,14,2000,3.704,,,90,14.8,17.5,,2,,,,,,10,wg-a,,,,AAXX 24184 07790 12420 80902 10150 20140 30165 40179 53002 60027 71062 8452/ 91800 333 10175 20148=
07790,1996-04-25 00:00:00,15,1018.1,-0.5,94,14,2200,0,,,0,,,,3,,,,,,60,wg-a,,,,AAXX 25004 07790 02422 80000 10150 20140 30167 40181 58005 60066 76066 8352/ 90000 333 60037=
07790,1996-04-25 03:00:00,14,1017.7,-0.4,100,14,7000,11.112,,,350,,,,1,,,,,,61,wg-a,,,,AAXX 25034 07790 12357 83506 10140 20140 30163 40177 58004 60017 76162 877// 90300=
07790,1996-04-25 06:00:00,14,1018.7,1,94,13,2000,3.704,,,210,13.6,15.4,,5,,,14,,,10,wg-a,,,,AAXX 25064 07790 02220 82102 10140 20130 30173 40187 51010 60144 71062 877// 90600 333 10154 20136 60057=
07790,1996-04-25 09:00:00,13,1019.7,1,94,12,4000,3.704,,,240,,,,5,,,,,,10,wg-a,,,,AAXX 25094 07790 12440 82402 10130 20120 30183 40197 51010 60057 71066 8772/ 90900=
07790,1996-04-25 12:00:00,14,1018.9,-0.8,94,13,500,7.408,,,340,,,,3,,,,,,61,wg-a,,,,AAXX 25124 07790 02400 83404 10140 20130 30175 40189 58008 60086 76166 8277/ 91200 333 60037=
07790,1996-04-25 15:00:00,15,1018.1,-0.8,82,12,12000,7.408,,,20,,,,,,,,,,1,wg-a,,,,AAXX 25154 07790 02562 80204 10150 20120 30167 40181 58008 61000 70162 8217/ 91500 333 ////=
07790,1996-04-25 18:00:00,15,1017.5,-0.6,82,12,18000,7.408,,,330,12.8,15.9,,,,,,,,1,wg-a,,,,AAXX 25184 07790 32568 73304 10150 20120 30161 40175 55006 70162 8113/ 91800 333 10159 20128=
07790,1996-04-25 21:00:00,13,1017.9,0.4,88,11,15000,3.704,,,240,,,,,,,,,,,wg-a,,,,AAXX 25214 07790 12565 /2402 10130 20110 30165 40179 51004 60006 8167/ 92100=
07790,1996-04-26 00:00:00,13,1017.1,-0.8,94,12,15000,3.704,,,240,,,,1,,,,,,21,wg-a,,,,AAXX 26004 07790 02565 72402 10130 20120 30157 40171 56008 60016 72122 8217/ 90000 333 60017=
07790,1996-04-26 03:00:00,13,1015.7,-1.4,94,12,15000,7.408,,,240,,,,1,,,,,,60,wg-a,,,,AAXX 26034 07790 12565 72404 10130 20120 30143 40157 57014 60017 76062 8387/ 90300=
07790,1996-04-26 06:00:00,14,1016.6,0.9,94,13,500,3.704,,,240,12.8,14.8,,6,,,15,,,61,wg-a,,,,AAXX 26064 07790 02600 82402 10140 20130 30152 40166 51009 60154 76162 8587/ 90600 333 10148 20128 60067=
07790,1996-04-26 09:00:00,15,1016.3,-0.3,94,14,6000,7.408,,,350,,,,1,,,,,,20,wg-a,,,,AAXX 26094 07790 12256 83504 10150 20140 30149 40163 58003 60017 72065 8577/ 90900=
07790,1996-04-26 12:00:00,16,1015.8,-0.5,77,12,15000,7.408,,,60,,,,0,,,,,,51,wg-a,,,,AAXX 26124 07790 02565 80604 10160 20120 30144 40158 56005 60016 75165 8173/ 91200 333 60007=
07790,1996-04-26 15:00:00,15,1014.7,-1.1,88,13,10000,0,,,0,,,,1,,,,,,2,wg-a,,,,AAXX 26154 07790 12460 80000 10150 20130 30133 40147 56011 60017 70262 8173/ 91500=
07790,1996-04-26 18:00:00,15,1013.3,-1.4,88,13,8000,3.704,,,310,13.7,16.1,,,,,,,,3,wg-a,,,,AAXX 26184 07790 32358 73102 10150 20130 30119 40133 55014 70362 8177/ 91800 333 10161 20137=
07790,1996-04-26 21:00:00,15,1013.5,0.2,88,13,6000,3.704,,,320,,,,,,,,,,21,wg-a,,,,AAXX 26214 07790 02456 83202 10150 20130 30121 40135 50002 61000 72162 8677/ 92100 333 ////=
07790,1996-04-27 00:00:00,14,1012.2,-1.3,88,12,12000,7.408,,,320,,,,,,,,,,3,wg-a,,,,AAXX 27004 07790 02462 83204 10140 20120 30108 40122 56013 61000 70362 8177/ 90000 333 ////=
07790,1996-04-27 03:00:00,15,1010.8,-1.4,88,13,9000,14.816,,,340,,,,,,,,,,,wg-a,,,,AAXX 27034 07790 12459 83408 10150 20130 30094 40108 57014 60006 8377/ 90300=
07790,1996-04-27 06:00:00,14,1011.1,0.3,88,12,7000,7.408,,,270,13.9,14.9,,,,,1,,,,wg-a,,,,AAXX 27064 07790 12457 82704 10140 20120 30097 40111 52003 60014 8357/ 90600 333 10149 20139=
07790,1996-04-27 09:00:00,16,1011.9,0.8,88,14,6000,3.704,,,260,,,,0,,,,,,51,wg-a,,,,AAXX 27094 07790 12456 82602 10160 20140 30105 40119 51008 60007 75165 8377/ 90900=
07790,1996-04-27 12:00:00,15,1011.5,-0.4,94,14,6000,3.704,,,10,,,,,,,,,,,wg-a,,,,AAXX 27124 07790 12/56 /0102 10150 20140 30101 40115 56004 60016 91200=
07790,1996-04-27 15:00:00,15,1010.6,-0.9,88,13,8000,11.112,,,240,,,,,,,,,,21,wg-a,,,,AAXX 27154 07790 02458 82406 10150 20130 30092 40106 58009 61000 72162 8377/ 91500 333 ////=
07790,1996-04-27 18:00:00,14,1010.9,0.3,94,13,8000,7.408,,,230,14.3,15.9,,,,,,,,,wg-a,,,,AAXX 27184 07790 32/58 /2304 10140 20130 30095 40109 53003 91800 333 10159 20143=
07790,1996-04-27 21:00:00,14,1011.5,0.6,94,13,8000,3.704,,,230,,,,,,,,,,,wg-a,,,,AAXX 27214 07790 12558 82302 10140 20130 30101 40115 51006 60006 8357/ 92100=
07790,1996-04-28 00:00:00,14,1010.7,-0.8,94,13,7000,7.408,,,10,,,,,,,,,,,wg-a,,,,AAXX 28004 07790 12557 80104 10140 20130 30093 40107 58008 60006 8557/ 90000=
07790,1996-04-28 03:00:00,14,1009.4,-1.3,94,13,7000,3.704,,,240,,,,,,,,,,,wg-a,,,,AAXX 28034 07790 12/57 /2402 10140 20130 30080 40094 56013 60006 90300=
07790,1996-04-28 06:00:00,14,1009.5,0.1,100,14,3000,7.408,,,130,13.7,14.4,,,,,,,,10,wg-a,,,,AAXX 28064 07790 02330 81304 10140 20140 30081 40095 53001 61000 71065 8557/ 90600 333 10144 20137 6002=
07790,1996-04-28 09:00:00,15,1009.4,-0.1,94,14,3000,14.816,,,140,,,,2,,,,,,10,wg-a,,,,AAXX 28094 07790 12230 81408 10150 20140 30080 40094 56001 60027 71066 8252/ 90900=
07790,1996-04-28 12:00:00,16,1008.6,-0.8,82,13,8000,11.112,,,140,,,,2,,,,,,60,wg-a,,,,AAXX 28124 07790 02458 81406 10160 20130 30072 40086 58008 60046 76062 8352/ 91200 333 60027=
07790,1996-04-28 15:00:00,17,1007.1,-1.5,77,13,8000,7.408,,,110,,,,,,,,,,21,wg-a,,,,AAXX 28154 07790 02558 81104 10170 20130 30057 40071 58015 61000 72162 8352/ 91500 333 ////=
07790,1996-04-28 18:00:00,15,1007,-0.1,88,13,7000,7.408,,,120,14.2,16.7,,,,,,,,3,wg-a,,,,AAXX 28184 07790 32557 71204 10150 20130 30056 40070 55001 70362 8357/ 91800 333 10167 20142=
07790,1996-04-28 21:00:00,14,1007,0,94,13,12000,0,,,0,,,,,,,,,,,wg-a,,,,AAXX 28214 07790 12462 80000 10140 20130 30056 40070 50000 60006 8567/ 92100=
07790,1996-04-29 00:00:00,14,1006.3,-0.7,94,13,12000,3.704,,,230,,,,,,,,,,,wg-a,,,,AAXX 29004 07790 12662 82302 10140 20130 30049 40063 56007 60006 8557/ 90000=
07790,1996-04-29 03:00:00,13,1004.9,-1.4,94,12,12000,3.704,,,260,,,,,,,,,,,wg-a,,,,AAXX 29034 07790 12862 72602 10130 20120 30035 40049 58014 60006 8707/ 90300=
07790,1996-04-29 06:00:00,14,1005,0.1,94,13,7000,3.704,,,280,12,15,,,,,4,,,,wg-a,,,,AAXX 29064 07790 02657 72802 10140 20130 30036 40050 53001 60006 8553/ 90600 333 10150 20120 60044=
07790,1996-04-29 09:00:00,18,1005.6,0.6,73,13,9000,7.408,,,130,,,,,,,,,,,wg-a,,,,AAXX 29094 07790 12459 /1304 10180 20130 30042 40056 51006 60006 84730 90900=
07790,1996-04-29 12:00:00,18,1005.1,-0.5,68,12,11000,11.112,,,130,,,,,,,,,,,wg-a,,,,AAXX 29124 07790 12/61 /1306 10180 20120 30037 40051 58005 60006 91200=
07790,1996-04-29 15:00:00,16,1004.5,-0.6,82,13,8000,7.408,,,160,,,,,,,,,,,wg-a,,,,AAXX 29154 07790 12458 81604 10160 20130 30031 40045 58006 60006 848// 91500=
07790,1996-04-29 18:00:00,16,1004.7,0.2,82,13,7000,7.408,,,140,13.6,19.7,,,,,,,,,wg-a,,,,AAXX 29184 07790 12457 81404 10160 20130 30033 40047 53002 60006 848// 91800 333 10197 20136=
07790,1996-04-29 21:00:00,14,1005.1,0.4,94,13,12000,0,,,0,,,,,,,,,,,wg-a,,,,AAXX 29214 07790 12862 70000 10140 20130 30037 40051 50004 60006 8703/ 92100=
07790,1996-04-30 00:00:00,12,1004.4,-0.7,94,11,15000,11.112,,,280,,,,,,,,,,,wg-a,,,,AAXX 30004 07790 12865 62806 10120 20110 30030 40044 58007 60006 84031 90000=
07790,1996-04-30 03:00:00,12,1002.9,-1.5,94,11,18000,0,,,0,,,,,,,,,,,wg-a,,,,AAXX 30034 07790 12868 60000 10120 20110 30015 40029 56015 60006 84031 90300=
07790,1996-04-30 06:00:00,14,1002.5,-0.4,94,13,15000,3.704,,,280,11.7,15.6,,,,,,,,,wg-a,,,,AAXX 30064 07790 02465 /2802 10140 20130 30011 40025 56004 60006 83230 90600 333 10156 20117 60004=
07790,1996-04-30 09:00:00,16,1003,0.5,88,14,18000,14.816,,,40,,,,,,,,,,,wg-a,,,,AAXX 30094 07790 12468 80408 10160 20140 30016 40030 52005 60006 878// 90900=
07790,1996-04-30 12:00:00,19,1001.7,-1.3,68,13,18000,18.52,,,30,,,,,,,,,,,wg-a,,,,AAXX 30124 07790 12568 70310 10190 20130 30003 40017 58013 60006 84801 91200=
07790,1996-04-30 15:00:00,20,1000.2,-1.5,60,12,25000,18.52,,,330,,,,,,,,,,,wg-a,,,,AAXX 30154 07790 12575 /3310 10200 20120 39988 40002 56015 60006 82801 91500=
07790,1996-04-30 18:00:00,17,1001,0.8,82,14,25000,7.408,,,130,13.8,20.4,,,,,,,,,wg-a,,,,AAXX 30184 07790 12575 21304 10170 20140 39996 40010 53008 60006 81832 91800 333 10204 20138=
07790,1996-04-30 21:00:00,14,1002,1,82,11,25000,3.704,,,320,,,,,,,,,,,wg-a,,,,AAXX 30214 07790 12475 43202 10140 20110 30006 40020 51010 60006 81501 92100=
07790,1996-05-01 00:00:00,14,1001.9,-0.1,77,10,25000,11.112,,,240,,,,,,,,,,,wg-a,,,,AAXX 01004 07790 12575 72406 10140 20100 30005 40019 56001 60006 81504 90000=
07790,1996-05-01 03:00:00,12,1002.3,0.4,88,10,25000,14.816,,,230,,,,,,,,,,,wg-a,,,,AAXX 01034 07790 12575 32308 10120 20100 30009 40023 51004 60006 81530 90300=
07790,1996-05-01 06:00:00,15,1003.2,0.9,72,10,25000,14.816,,,240,12.1,16.5,,,,,,,,,wg-a,,,,AAXX 01064 07790 02575 52408 10150 20100 30018 40032 53009 60006 81141 90600 333 10165 20121 60004=
07790,1996-05-01 09:00:00,19,1004,0.8,60,11,25000,11.112,,,130,,,,,,,,,,,wg-a,,,,AAXX 01094 07790 12575 21306 10190 20110 30026 40040 53008 60006 82101 90900=
07790,1996-05-01 12:00:00,18,1005.2,1.2,77,14,15000,11.112,,,110,,,,,,,,,,80,wg-a,,,,AAXX 01124 07790 02465 61106 10180 20140 30038 40052 51012 61000 78086 86801 91200 333 6100=
07790,1996-05-01 15:00:00,18,1004.7,-0.5,68,12,12000,7.408,,,70,,,,0,,,,,,17,wg-a,,,,AAXX 01154 07790 12562 /0704 10180 20120 30033 40047 58005 60007 71798 85900 91500=
07790,1996-05-01 18:00:00,16,1005,0.3,82,13,11000,3.704,,,10,14.8,20.2,,,,,,,,,wg-a,,,,AAXX 01184 07790 32/61 /0102 10160 20130 30036 40050 51003 91800 333 10202 20148=
07790,1996-05-01 21:00:00,15,1005.9,0.9,88,13,11000,3.704,,,220,,,,,,,,,,,wg-a,,,,AAXX 01214 07790 32/61 /2202 10150 20130 30045 40059 51009 92100=
07790,1996-05-02 00:00:00,14,1005.5,-0.4,94,13,12000,7.408,,,220,,,,0,,,,,,3,wg-a,,,,AAXX 02004 07790 02462 72204 10140 20130 30041 40055 58004 60016 70396 85931 90000 333 60007=
07790,1996-05-02 03:00:00,11,1004.9,-0.6,94,10,12000,7.408,,,240,,,,0,,,,,,,wg-a,,,,AAXX 02034 07790 12562 /2404 10110 20100 30035 40049 56006 60007 81500 90300=
07790,1996-05-02 06:00:00,14,1005.3,0.4,77,10,10000,7.408,,,210,10.7,16.4,,0,,,2,,,,wg-a,,,,AAXX 02064 07790 02/60 /2104 10140 20100 30039 40053 53004 60024 90600 333 10164 20107 60007=
07790,1996-05-02 09:00:00,21,1005.5,0.2,46,9,11000,18.52,,,170,,,,,,,,,,,wg-a,,,,AAXX 02094 07790 12/61 /1710 10210 20090 30041 40055 50002 60006 90900=
07790,1996-05-02 12:00:00,20,1004.9,-0.6,68,14,20000,25.928,,50.004,160,,,,,,,,,,,wg-a,,,,AAXX 02124 07790 12670 /1614 10200 20140 30035 40049 58006 60006 86800 91200 333 91027=
07790,1996-05-02 15:00:00,19,1004.2,-0.7,73,14,15000,14.816,,,180,,,,0,,,,,,25,wg-a,,,,AAXX 02154 07790 12665 71808 10190 20140 30028 40042 56007 60007 72586 8780/ 91500=
07790,1996-05-02 18:00:00,17,1003.5,-0.7,82,14,20000,7.408,,,210,14.1,21.6,,0,,,,,,2,wg-a,,,,AAXX 02184 07790 12770 72104 10170 20140 30021 40035 58007 60007 70286 875// 91800 333 10216 20141=
07790,1996-05-02 21:00:00,15,1003.8,0.3,77,11,20000,7.408,,,170,,,,0,,,,,,,wg-a,,,,AAXX 02214 07790 12770 71704 10150 20110 30024 40038 53003 60007 875// 92100=
07790,1996-05-03 00:00:00,13,1003.2,-0.6,82,10,20000,7.408,,,210,,,,,,,,,,,wg-a,,,,AAXX 03004 07790 12770 22104 10130 20100 30018 40032 58006 60006 82500 90000=
07790,1996-05-03 03:00:00,13,1002.7,-0.5,72,8,20000,11.112,,,180,,,,0,,,,,,21,wg-a,,,,AAXX 03034 07790 12570 71806 10130 20080 30013 40027 58005 60007 72161 875// 90300=
07790,1996-05-03 06:00:00,15,1003.7,1,51,5,11000,14.816,,,230,12.6,16.8,,,,,1,,,,wg-a,,,,AAXX 03064 07790 12/61 /2308 10150 20050 30023 40037 53010 60014 90600 333 10168 20126=
07790,1996-05-03 09:00:00,19,1005.2,1.5,46,7,60000,14.816,,,100,,,,,,,,,,,wg-a,,,,AAXX 03094 07790 12686 31008 10190 20070 30038 40052 53015 60006 82230 90900=
07790,1996-05-03 12:00:00,20,1007.1,1.9,43,7,60000,14.816,,,100,,,,,,,,,,,wg-a,,,,AAXX 03124 07790 12686 31008 10200 20070 30057 40071 51019 60006 83202 91200=
07790,1996-05-03 15:00:00,19,1007.7,0.6,46,7,50000,11.112,,,80,,,,,,,,,,,wg-a,,,,AAXX 03154 07790 12684 /0806 10190 20070 30063 40077 52006 60006 82232 91500=
07790,1996-05-03 18:00:00,16,1008.5,0.8,63,9,40000,11.112,,,320,14.9,20,,,,,,,,,wg-a,,,,AAXX 03184 07790 12582 /3206 10160 20090 30071 40085 52008 60006 82502 91800 333 10200 20149=
07790,1996-05-03 21:00:00,14,1009.6,1.1,67,8,25000,3.704,,,210,,,,,,,,,,,wg-a,,,,AAXX 03214 07790 12575 /2102 10140 20080 30082 40096 51011 60006 81502 92100=
07790,1996-05-04 00:00:00,12,1010.1,0.5,67,6,25000,11.112,,,220,,,,,,,,,,,wg-a,,,,AAXX 04004 07790 12/75 42206 10120 20060 30087 40101 53005 60006 80001 90000=
07790,1996-05-04 03:00:00,10,1010.8,0.6,71,5,25000,11.112,,,230,,,,,,,,,,,wg-a,,,,AAXX 04034 07790 12/75 22306 10100 20050 30093 40108 52006 60006 80001 90300=
07790,1996-05-04 06:00:00,12,1012,1.3,62,5,18000,11.112,,,230,9.3,15.8,,,,,,,,,wg-a,,,,AAXX 04064 07790 02568 22306 10120 20050 30106 40120 53013 60006 81831 90600 333 10158 20093 60004=
07790,1996-05-04 09:00:00,19,1012.7,0.7,56,10,25000,14.816,,,150,,,,,,,,,,,wg-a,,,,AAXX 04094 07790 12675 /1508 10190 20100 30113 40127 51007 60006 81231 90900=
07790,1996-05-04 12:00:00,19,1013.9,1.2,64,12,20000,14.816,,,80,,,,,,,,,,,wg-a,,,,AAXX 04124 07790 12670 20808 10190 20120 30125 40139 50012 60006 82801 91200=
07790,1996-05-04 15:00:00,19,1013.9,-0,60,11,25000,7.408,,,140,,,,,,,,,,,wg-a,,,,AAXX 04154 07790 12675 51404 10190 20110 30125 40139 54000 60006 85800 91500=
07790,1996-05-04 18:00:00,16,1014.2,0.3,68,10,25000,7.408,,,150,12.4,19.5,,,,,,,,,wg-a,,,,AAXX 04184 07790 12575 /1504 10160 20100 30128 40142 53003 60006 81130 91800 333 10195 20124=
07790,1996-05-04 21:00:00,15,1015,0.8,82,12,40000,3.704,,,220,,,,,,,,,,,wg-a,,,,AAXX 04214 07790 12882 /2202 10150 20120 30136 40150 51008 60006 81030 92100=
07790,1996-05-05 00:00:00,13,1015,0,88,11,40000,3.704,,,230,,,,,,,,,,,wg-a,,,,AAXX 05004 07790 12882 42302 10130 20110 30136 40150 50000 60006 84030 90000=
07790,1996-05-05 03:00:00,11,1014.5,-0.6,94,10,11000,7.408,,,230,,,,,,,,,,,wg-a,,,,AAXX 05034 07790 12/61 /2304 10110 20100 30130 40145 56006 60006 90300=
07790,1996-05-05 06:00:00,13,1014.7,0.3,88,11,40000,3.704,,,250,11,16.4,,,,,,,,,wg-a,,,,AAXX 05064 07790 02482 72502 10130 20110 30133 40147 53003 60006 8397/ 90600 333 10164 20110 60004=
07790,1996-05-05 09:00:00,15,1015.2,0.5,94,14,8000,3.704,,,260,,,,1,,,,,,21,wg-a,,,,AAXX 05094 07790 12458 72602 10150 20140 30138 40152 51005 60017 72162 879// 90900=
07790,1996-05-05 12:00:00,18,1014.3,-0.9,83,15,18000,11.112,,,110,,,,0,,,,,,1,wg-a,,,,AAXX 05124 07790 02568 71106 10180 20150 30129 40143 58009 60016 70162 8587/ 91200 333 60007=
07790,1996-05-05 15:00:00,18,1013,-1.3,77,14,25000,14.816,,,140,,,,,,,,,,,wg-a,,,,AAXX 05154 07790 12475 71408 10180 20140 30116 40130 56013 60006 8325/ 91500=
07790,1996-05-05 18:00:00,16,1012.5,-0.5,82,13,25000,3.704,,,180,13,19.2,,,,,,,,,wg-a,,,,AAXX 05184 07790 32775 /1802 10160 20130 30111 40125 58005 84572 91800 333 10192 20130=
07790,1996-05-05 21:00:00,14,1012.9,0.4,94,13,25000,3.704,,,160,,,,,,,,,,,wg-a,,,,AAXX 05214 07790 12775 /1602 10140 20130 30115 40129 53004 60006 8257/ 92100=
07790,1996-05-06 00:00:00,12,1013,0.1,94,11,25000,7.408,,,240,,,,,,,,,,,wg-a,,,,AAXX 06004 07790 12875 22404 10120 20110 30116 40130 50001 60006 82030 90000=
07790,1996-05-06 03:00:00,12,1012,-1,94,11,25000,3.704,,,280,,,,0,,,,,,,wg-a,,,,AAXX 06034 07790 12/75 /2802 10120 20110 30106 40120 56010 60007 86030 90300=
07790,1996-05-06 06:00:00,16,1012.4,0.4,82,13,35000,7.408,,,280,11.4,16.1,,,,,1,,,,wg-a,,,,AAXX 06064 07790 12/81 /2804 10160 20130 30110 40124 53004 60014 81030 90600 333 10161 20114=
07790,1996-05-06 09:00:00,20,1012.6,0.2,64,13,50000,14.816,,,30,,,,,,,,,,,wg-a,,,,AAXX 06094 07790 12684 /0308 10200 20130 30112 40126 53002 60006 81100 90900=
07790,1996-05-06 12:00:00,21,1011.8,-0.8,56,12,50000,14.816,,,20,,,,,,,,,,,wg-a,,,,AAXX 06124 07790 12684 20208 10210 20120 30104 40118 58008 60006 82130 91200=
07790,1996-05-06 15:00:00,21,1011.1,-0.7,53,11,11000,7.408,,,30,,,,,,,,,,,wg-a,,,,AAXX 06154 07790 12/61 /0304 10210 20110 30097 40111 57007 60006 91500=
07790,1996-05-06 18:00:00,19,1010.8,-0.3,56,10,50000,7.408,,,20,15.6,21.4,,,,,,,,,wg-a,,,,AAXX 06184 07790 12/84 30204 10190 20100 30094 40108 55003 60006 83030 91800 333 10214 20156=
07790,1996-05-06 21:00:00,16,1011.3,0.5,72,11,25000,3.704,,,260,,,,,,,,,,,wg-a,,,,AAXX 06214 07790 12775 42602 10160 20110 30099 40113 53005 60006 84500 92100=
07790,1996-05-07 00:00:00,13,1011,-0.3,88,11,25000,7.408,,,240,,,,,,,,,,,wg-a,,,,AAXX 07004 07790 12/75 02404 10130 20110 30096 40110 58003 60006 80000 90000=
07790,1996-05-07 03:00:00,12,1010.5,-0.5,82,9,25000,3.704,,,280,,,,,,,,,,,wg-a,,,,AAXX 07034 07790 12/75 /2802 10120 20090 30091 40105 56005 60006 80000 90300=
07790,1996-05-07 06:00:00,16,1010.8,0.3,72,11,500,3.704,,,160,11.4,19.3,,,,,,,,,wg-a,,,,AAXX 07064 07790 02500 61602 10160 20110 30094 40108 50003 60006 81531 90600 333 10193 20114 60004=
07790,1996-05-07 09:00:00,22,1011.1,0.3,43,9,20000,0,,,0,,,,,,,,,,,wg-a,,,,AAXX 07094 07790 12570 80000 10220 20090 30097 40111 53003 60006 82131 90900=
07790,1996-05-07 12:00:00,21,1011.2,0.1,53,11,20000,7.408,,,90,,,,,,,,,,,wg-a,,,,AAXX 07124 07790 12570 80904 10210 20110 30098 40112 53001 60006 82131 91200=
07790,1996-05-07 15:00:00,22,1010.8,-0.4,57,13,20000,7.408,,,100,,,,,,,,,,,wg-a,,,,AAXX 07154 07790 12570 21004 10220 20130 30094 40108 58004 60006 81130 91500=
07790,1996-05-07 18:00:00,19,1011.1,0.3,73,14,9000,7.408,,,70,16,22.1,,,,,,,,,wg-a,,,,AAXX 07184 07790 12659 50704 10190 20140 30097 40111 53003 60006 81531 91800 333 10221 20160=
07790,1996-05-07 21:00:00,16,1012.5,1.4,82,13,12000,11.112,,,220,,,,,,,,,,,wg-a,,,,AAXX 07214 07790 12862 /2206 10160 20130 30111 40125 53014 60006 81031 92100=
07790,1996-05-08 00:00:00,17,1012.1,-0.4,77,13,11000,7.408,,,160,,,,,,,,,,,wg-a,,,,AAXX 08004 07790 12/61 /1604 10170 20130 30107 40121 58004 60006 90000=
07790,1996-05-08 03:00:00,14,1012.7,0.6,94,13,3000,7.408,,,210,,,,22,,,,,,61,wg-a,,,,AAXX 08034 07790 12430 82104 10140 20130 30113 40127 50006 60227 76196 8657/ 90300=
07790,1996-05-08 06:00:00,15,1013.1,0.4,100,15,11000,3.704,,,240,14,19,,0,,,22,,,,wg-a,,,,AAXX 08064 07790 02/61 /2402 10150 20150 30117 40131 53004 60224 90600 333 10190 20140 60007=
07790,1996-05-08 09:00:00,19,1012.7,-0.4,73,14,500,3.704,,,210,,,,,,,,,,,wg-a,,,,AAXX 08094 07790 12500 72102 10190 20140 30113 40127 55004 60006 82282 90900=
07790,1996-05-08 12:00:00,16,1014,1.3,94,15,7000,7.408,,,210,,,,4,,,,,,80,wg-a,,,,AAXX 08124 07790 02457 82104 10160 20150 30126 40140 50013 60046 78098 8597/ 91200 333 60047=
07790,1996-05-08 15:00:00,20,1011.6,-2.4,73,15,500,11.112,,,130,,,,1,,,,,,1,wg-a,,,,AAXX 08154 07790 12400 71306 10200 20150 30102 40116 56024 60017 70198 81281 91500=
07790,1996-05-08 18:00:00,17,1011.5,-0.1,88,15,15000,7.408,,,170,15.2,20,,0,,,,,,17,wg-a,,,,AAXX 08184 07790 12365 /1704 10170 20150 30101 40115 58001 60007 71798 85900 91800 333 10200 20152=
07790,1996-05-08 21:00:00,15,1011,-0.5,94,14,20000,3.704,,,160,,,,,,,,,,1,wg-a,,,,AAXX 08214 07790 12570 21602 10150 20140 30096 40110 58005 60006 70191 82800 92100=
07790,1996-05-09 00:00:00,13,1009.8,-1.2,94,12,15000,7.408,,,270,,,,,,,,,,3,wg-a,,,,AAXX 09004 07790 12365 52704 10130 20120 30084 40098 58012 60006 70391 85600 90000=
07790,1996-05-09 03:00:00,13,1008.8,-1,94,12,15000,7.408,,,230,,,,,,,,,,,wg-a,,,,AAXX 09034 07790 12465 52304 10130 20120 30074 40088 56010 60006 85800 90300=
07790,1996-05-09 06:00:00,14,1008,-0.8,94,13,15000,3.704,,,230,12.2,16.7,,,,,5,,,,wg-a,,,,AAXX 09064 07790 02565 72302 10140 20130 30066 40080 56008 60006 83802 90600 333 10167 20122 60054=
07790,1996-05-09 09:00:00,19,1007.4,-0.6,78,15,15000,3.704,,,100,,,,,,,,,,,wg-a,,,,AAXX 09094 07790 12465 /1002 10190 20150 30060 40074 58006 60006 84882 90900=
07790,1996-05-09 12:00:00,18,1006.8,-0.6,88,16,1000,11.112,,,160,,,,2,,,,,,80,wg-a,,,,AAXX 09124 07790 02410 71606 10180 20160 30054 40068 56006 60026 78086 8598/ 91200 333 60027=
07790,1996-05-09 15:00:00,18,1006,-0.8,83,15,10000,3.704,,,110,,,,1,,,,,,2,wg-a,,,,AAXX 09154 07790 12560 71102 10180 20150 30046 40060 58008 60017 70286 8538/ 91500=
07790,1996-05-09 18:00:00,17,1005.6,-0.4,88,15,11000,0,,,0,14.2,19.4,,,,,,,,,wg-a,,,,AAXX 09184 07790 32/61 /0000 10170 20150 30042 40056 55004 91800 333 10194 20142=
07790,1996-05-09 21:00:00,15,1006.2,0.6,94,14,15000,7.408,,,200,,,,,,,,,,,wg-a,,,,AAXX 09214 07790 12565 32004 10150 20140 30048 40062 51006 60006 83800 92100=
07790,1996-05-10 00:00:00,14,1005.7,-0.5,88,12,15000,7.408,,,220,,,,,,,,,,,wg-a,,,,AAXX 10004 07790 12565 32204 10140 20120 30043 40057 58005 60006 83800 90000=
07790,1996-05-10 03:00:00,12,1004.8,-0.9,94,11,11000,7.408,,,230,,,,,,,,,,,wg-a,,,,AAXX 10034 07790 12/61 /2304 10120 20110 30034 40048 56009 60006 90300=
07790,1996-05-10 06:00:00,14,1005,0.2,88,12,20000,11.112,,,230,12.3,17,,,,,3,,,,wg-a,,,,AAXX 10064 07790 02570 /2306 10140 20120 30036 40050 53002 60006 86800 90600 333 10170 20123 60034=
07790,1996-05-10 09:00:00,20,1004.9,-0.1,68,14,20000,11.112,,,110,,,,,,,,,,,wg-a,,,,AAXX 10094 07790 12570 31106 10200 20140 30035 40049 55001 60006 82901 90900=
07790,1996-05-10 12:00:00,19,1004.7,-0.2,73,14,20000,14.816,,,120,,,,,,,,,,,wg-a,,,,AAXX 10124 07790 12470 51208 10190 20140 30033 40047 56002 60006 84960 91200=
07790,1996-05-10 15:00:00,17,1004.3,-0.4,82,14,15000,11.112,,,240,,,,2,,,,,,60,wg-a,,,,AAXX 10154 07790 12465 72406 10170 20140 30029 40043 58004 60027 76086 8386/ 91500=
07790,1996-05-10 18:00:00,16,1004,-0.3,88,14,20000,3.704,,,300,14.3,20.4,,,,,,,,1,wg-a,,,,AAXX 10184 07790 02470 /3002 10160 20140 30026 40040 55003 61000 70186 81172 91800 333 10204 20143 ////=
07790,1996-05-10 21:00:00,15,1005.3,1.3,88,13,20000,3.704,,,240,,,,,,,,,,,wg-a,,,,AAXX 10214 07790 12470 /2402 10150 20130 30039 40053 50013 60006 82170 92100=
07790,1996-05-11 00:00:00,14,1004.6,-0.7,88,12,20000,7.408,,,250,,,,,,,,,,,wg-a,,,,AAXX 11004 07790 12470 42504 10140 20120 30032 40046 58007 60006 81170 90000=
07790,1996-05-11 03:00:00,13,1003.7,-0.9,94,12,20000,7.408,,,240,,,,,,,,,,,wg-a,,,,AAXX 11034 07790 12470 /2404 10130 20120 30023 40037 56009 60006 82270 90300=
07790,1996-05-11 06:00:00,15,1003.4,-0.3,88,13,20000,7.408,,,230,12.8,16.2,,,,,2,,,,wg-a,,,,AAXX 11064 07790 02570 72304 10150 20130 30020 40034 58003 60006 8153/ 90600 333 10162 20128 60024=
07790,1996-05-11 09:00:00,19,1004,0.6,64,12,25000,11.112,,,330,,,,,,,,,,,wg-a,,,,AAXX 11094 07790 12575 73306 10190 20120 30026 40040 51006 60006 81512 90900=
07790,1996-05-11 15:00:00,20,1004,-0,64,13,20000,25.928,,,340,,,,,,,,,,,wg-a,,,,AAXX 11154 07790 12570 73414 10200 20130 30026 40040 55000 60006 82972 91500=
07790,1996-05-11 18:00:00,18,1005.5,1.5,64,11,15000,14.816,,,350,14.6,21.9,,,,,,,,,wg-a,,,,AAXX 11184 07790 12565 73508 10180 20110 30041 40055 53015 60006 83272 91800 333 10219 20146=
07790,1996-05-11 21:00:00,16,1006.6,1.1,88,14,11000,0,,,0,,,,,,,,,,,wg-a,,,,AAXX 11214 07790 12/61 /0000 10160 20140 30052 40066 51011 60006 92100=
07790,1996-05-12 00:00:00,15,1006.7,0.1,88,13,11000,3.704,,,180,,,,,,,,,,,wg-a,,,,AAXX 12004 07790 12/61 /1802 10150 20130 30053 40067 53001 60006 90000=
07790,1996-05-12 03:00:00,14,1006,-0.7,88,12,15000,7.408,,,220,,,,,,,,,,,wg-a,,,,AAXX 12034 07790 12465 72204 10140 20120 30046 40060 56007 60006 878// 90300=
07790,1996-05-12 06:00:00,14,1006.6,0.6,88,12,10000,7.408,,,210,13.4,18.3,,,,,,,,17,wg-a,,,,AAXX 12064 07790 02460 72104 10140 20120 30052 40066 53006 60006 71792 85903 90600 333 10183 20134 60004=
07790,1996-05-12 09:00:00,19,1006,-0.6,73,14,12000,11.112,,,140,,,,,,,,,,3,wg-a,,,,AAXX 12094 07790 12462 71406 10190 20140 30046 40060 58006 60006 70392 8628/ 90900=
07790,1996-05-12 12:00:00,18,1006.2,0.2,73,13,12000,7.408,,,90,,,,,,,,,,17,wg-a,,,,AAXX 12124 07790 02562 80904 10180 20130 30048 40062 53002 61000 71796 8637/ 91200 333 6100=
07790,1996-05-12 15:00:00,15,1006.1,-0.1,94,14,6000,7.408,,,140,,,,,,,,,,,wg-a,,,,AAXX 12154 07790 32/56 /1404 10150 20140 30047 40061 58001 91500=
07790,1996-05-12 18:00:00,15,1007,0.9,88,13,11000,7.408,,,20,14.2,19.6,,,,,,,,,wg-a,,,,AAXX 12184 07790 32/61 /0204 10150 20130 30056 40070 53009 91800 333 10196 20142=
07790,1996-05-12 21:00:00,14,1007.7,0.7,88,12,25000,3.704,,,240,,,,,,,,,,,wg-a,,,,AAXX 12214 07790 12475 72402 10140 20120 30063 40077 53007 60006 8587/ 92100=
07790,1996-05-13 00:00:00,14,1007.4,-0.3,88,12,25000,3.704,,,230,,,,,,,,,,,wg-a,,,,AAXX 13004 07790 12575 72302 10140 20120 30060 40074 58003 60006 8587/ 90000=
07790,1996-05-13 03:00:00,13,1007.5,0.1,94,12,25000,3.704,,,240,,,,,,,,,,,wg-a,,,,AAXX 13034 07790 12575 72402 10130 20120 30061 40075 51001 60006 8387/ 90300=
07790,1996-05-13 06:00:00,15,1008.7,1.2,88,13,25000,3.704,,,230,12.5,15.2,,,,,16,,,,wg-a,,,,AAXX 13064 07790 02575 72302 10150 20130 30073 40087 53012 60006 82852 90600 333 10152 20125 60164=
07790,1996-05-13 12:00:00,19,1010.2,0.3,64,12,500,11.112,,,50,,,,,,,,,,1,wg-a,,,,AAXX 13124 07790 02500 50506 10190 20120 30088 40102 51003 60016 70186 82932 91200 333 61000=
07790,1996-05-13 15:00:00,19,1010,-0.2,68,13,500,11.112,,,40,,,,,,,,,,,wg-a,,,,AAXX 13154 07790 12500 30406 10190 20130 30086 40100 55002 60006 81231 91500=
07790,1996-05-13 18:00:00,17,1011.3,1.3,77,13,25000,7.408,,,20,14.6,19.2,,,,,,,,,wg-a,,,,AAXX 13184 07790 32575 40204 10170 20130 30099 40113 53013 81432 91800 333 10192 20146=
07790,1996-05-13 21:00:00,14,1012,0.7,88,12,25000,7.408,,,180,,,,,,,,,,,wg-a,,,,AAXX 13214 07790 12/75 01804 10140 20120 30106 40120 50007 60006 80000 92100=
07790,1996-05-14 00:00:00,12,1011.9,-0.1,88,10,25000,3.704,,,240,,,,,,,,,,,wg-a,,,,AAXX 14004 07790 12/75 02402 10120 20100 30105 40119 58001 60006 80000 90000=
07790,1996-05-14 03:00:00,12,1011.4,-0.5,88,10,25000,14.816,,,240,,,,,,,,,,,wg-a,,,,AAXX 14034 07790 12/75 02408 10120 20100 30100 40114 58005 60006 80000 90300=
07790,1996-05-14 06:00:00,15,1011.2,-0.2,77,11,500,7.408,,,220,11.4,17.2,,,,,1,,,,wg-a,,,,AAXX 14064 07790 02/00 02204 10150 20110 30098 40112 57002 60006 80000 90600 333 10172 20114 60014=
07790,1996-05-14 12:00:00,21,1010.6,-0.6,56,12,500,14.816,,,110,,,,,,,,,,,wg-a,,,,AAXX 14124 07790 12500 21108 10210 20120 30092 40106 58006 60006 82800 91200=
07790,1996-05-14 15:00:00,20,1010.3,-0.3,60,12,25000,11.112,,,90,,,,,,,,,,,wg-a,,,,AAXX 14154 07790 12575 /0906 10200 20120 30089 40103 56003 60006 85830 91500=
07790,1996-05-14 18:00:00,18,1009.6,-0.7,77,14,11000,7.408,,,150,15,21.5,,,,,,,,,wg-a,,,,AAXX 14184 07790 12561 21504 10180 20140 30082 40096 58007 60006 82500 91800 333 10215 20150=
07790,1996-05-14 21:00:00,15,1010.5,0.9,82,12,11000,7.408,,,240,,,,,,,,,,,wg-a,,,,AAXX 14214 07790 12/61 22404 10150 20120 30091 40105 52009 60006 80001 92100=
07790,1996-05-15 00:00:00,14,1010.1,-0.4,94,13,18000,3.704,,,230,,,,,,,,,,,wg-a,,,,AAXX 15004 07790 12668 72302 10140 20130 30087 40101 58004 60006 8750/ 90000=
07790,1996-05-15 03:00:00,14,1009.5,-0.6,94,13,18000,7.408,,,220,,,,1,,,,,,21,wg-a,,,,AAXX 15034 07790 12468 82204 10140 20130 30081 40095 58006 60017 72162 875// 90300=
07790,1996-05-15 06:00:00,15,1010.3,0.8,88,13,9000,7.408,,,230,13.6,18.4,,,,,1,,,3,wg-a,,,,AAXX 15064 07790 12459 72304 10150 20130 30089 40103 53008 60014 70362 878// 90600 333 10184 20136=
07790,1996-05-15 09:00:00,18,1011.1,0.8,73,13,10000,11.112,,,110,,,,,,,,,,,wg-a,,,,AAXX 15094 07790 12460 71106 10180 20130 30097 40111 51008 60006 878// 90900=
07790,1996-05-15 12:00:00,18,1011.3,0.2,73,13,12000,11.112,,,110,,,,,,,,,,,wg-a,,,,AAXX 15124 07790 12562 71106 10180 20130 30099 40113 53002 60006 878// 91200=
07790,1996-05-15 15:00:00,18,1010.7,-0.6,73,13,12000,3.704,,,120,,,,,,,,,,,wg-a,,,,AAXX 15154 07790 12562 71202 10180 20130 30093 40107 56006 60006 875// 91500=
07790,1996-05-15 18:00:00,17,1010.6,-0.1,82,14,12000,3.704,,,170,14.9,19.9,,,,,,,,,wg-a,,,,AAXX 15184 07790 12562 71702 10170 20140 30092 40106 55001 60006 875// 91800 333 10199 20149=
07790,1996-05-15 21:00:00,14,1011.8,1.2,94,13,12000,3.704,,,260,,,,,,,,,,,wg-a,,,,AAXX 15214 07790 12462 32602 10140 20130 30104 40118 53012 60006 83800 92100=
07790,1996-05-16 00:00:00,13,1011.8,0,94,12,11000,3.704,,,240,,,,,,,,,,,wg-a,,,,AAXX 16004 07790 12/61 /2402 10130 20120 30104 40118 50000 60006 90000=
07790,1996-05-16 03:00:00,13,1012.1,0.3,94,12,15000,3.704,,,250,,,,0,,,,,,,wg-a,,,,AAXX 16034 07790 12565 72502 10130 20120 30107 40121 53003 60007 875// 90300=
07790,1996-05-16 06:00:00,16,1013.5,1.4,82,13,12000,7.408,,,230,12.2,17.2,,,,,,,,,wg-a,,,,AAXX 16064 07790 02462 /2304 10160 20130 30121 40135 51014 60006 86500 90600 333 10172 20122 60004=
07790,1996-05-16 09:00:00,20,1014.1,0.6,68,14,15000,11.112,,,150,,,,,,,,,,,wg-a,,,,AAXX 16094 07790 12465 31506 10200 20140 30127 40141 51006 60006 83500 90900=
07790,1996-05-16 12:00:00,21,1014.2,0.1,69,15,15000,18.52,,,130,,,,,,,,,,,wg-a,,,,AAXX 16124 07790 12565 31310 10210 20150 30128 40142 51001 60006 82530 91200=
07790,1996-05-16 15:00:00,20,1013.9,-0.3,68,14,10000,11.112,,,140,,,,,,,,,,,wg-a,,,,AAXX 16154 07790 12560 41406 10200 20140 30125 40139 58003 60006 84500 91500=
07790,1996-05-16 18:00:00,19,1014,0.1,78,15,10000,7.408,,,150,15.6,21.6,,,,,,,,,wg-a,,,,AAXX 16184 07790 12560 /1504 10190 20150 30126 40140 53001 60006 81500 91800 333 10216 20156=
07790,1996-05-16 21:00:00,15,1014.5,0.5,94,14,10000,7.408,,,230,,,,,,,,,,,wg-a,,,,AAXX 16214 07790 12560 22304 10150 20140 30131 40145 53005 60006 82500 92100=
07790,1996-05-17 00:00:00,14,1014.2,-0.3,94,13,10000,7.408,,,220,,,,,,,,,,,wg-a,,,,AAXX 17004 07790 12560 22204 10140 20130 30128 40142 56003 60006 82500 90000=
07790,1996-05-17 03:00:00,13,1012.9,-1.3,94,12,9000,3.704,,,210,,,,,,,,,,,wg-a,,,,AAXX 17034 07790 12559 /2102 10130 20120 30115 40129 58013 60006 81500 90300=
07790,1996-05-17 06:00:00,15,1014.1,1.2,94,14,8000,3.704,,,240,12,18.7,,,,,,,,,wg-a,,,,AAXX 17064 07790 02458 /2402 10150 20140 30127 40141 51012 60006 81530 90600 333 10187 20120 60004=
07790,1996-05-17 09:00:00,20,1014.1,-0,73,15,10000,25.928,,,150,,,,,,,,,,,wg-a,,,,AAXX 17094 07790 12560 21514 10200 20150 30127 40141 55000 60006 82801 90900=
07790,1996-05-17 12:00:00,21,1013.8,-0.3,69,15,10000,31.484,,,150,,,,,,,,,,,wg-a,,,,AAXX 17124 07790 12560 51517 10210 20150 30124 40138 58003 60006 84801 91200=
07790,1996-05-17 15:00:00,20,1012.6,-1.2,78,16,10000,25.928,,,150,,,,,,,,,,,wg-a,,,,AAXX 17154 07790 12560 /1514 10200 20160 30112 40126 57012 60006 82802 91500=
07790,1996-05-17 18:00:00,19,1012.4,-0.2,83,16,10000,18.52,,,150,15.5,21.4,,,,,,,,,wg-a,,,,AAXX 17184 07790 12560 71510 10190 20160 30110 40124 56002 60006 86802 91800 333 10214 20155=
07790,1996-05-17 21:00:00,18,1012.8,0.4,88,16,20000,11.112,,,180,,,,,,,,,,,wg-a,,,,AAXX 17214 07790 12470 71806 10180 20160 30114 40128 53004 60006 875// 92100=
07790,1996-05-18 00:00:00,17,1012.5,-0.3,88,15,20000,0,,,0,,,,,,,,,,,wg-a,,,,AAXX 18004 07790 12470 30000 10170 20150 30111 40125 56003 60006 83500 90000=
07790,1996-05-18 03:00:00,17,1011.9,-0.6,88,15,15000,7.408,,,330,,,,,,,,,,,wg-a,,,,AAXX 18034 07790 12265 73304 10170 20150 30105 40119 58006 60006 875// 90300=
07790,1996-05-18 06:00:00,17,1012.7,0.8,88,15,8000,0,,,0,15.7,18.6,,,,,,,,,wg-a,,,,AAXX 18064 07790 02458 70000 10170 20150 30113 40127 53008 60006 875// 90600 333 10186 20157 60004=
07790,1996-05-18 09:00:00,20,1012,-0.7,78,16,7000,11.112,,,140,,,,,,,,,,20,wg-a,,,,AAXX 18094 07790 02357 71406 10200 20160 30106 40120 56007 61000 72052 875// 90900 333 ////=
07790,1996-05-18 12:00:00,19,1011.6,-0.4,83,16,8000,14.816,,,140,,,,,,,,,,3,wg-a,,,,AAXX 18124 07790 02358 71408 10190 20160 30102 40116 55004 61000 70352 87500 91200 333 ////=
07790,1996-05-18 15:00:00,20,1011.1,-0.5,83,17,9000,11.112,,,150,,,,,,,,,,,wg-a,,,,AAXX 18154 07790 12559 71506 10200 20170 30097 40111 56005 60006 87500 91500=
07790,1996-05-18 18:00:00,19,1010.5,-0.6,88,17,7000,0,,,0,17.2,20.8,,,,,,,,,wg-a,,,,AAXX 18184 07790 32457 70000 10190 20170 30091 40105 56006 87500 91800 333 10208 20172=
07790,1996-05-18 21:00:00,18,1010.9,0.4,94,17,9000,0,,,0,,,,,,,,,,,wg-a,,,,AAXX 18214 07790 12459 70000 10180 20170 30095 40109 53004 60006 878// 92100=
07790,1996-05-19 00:00:00,15,1011,0.7,94,14,15000,3.704,,,270,,,,,,,,,,,wg-a,,,,AAXX 19004 07790 12465 32702 10150 20140 30096 40110 53007 60006 8/2/3 90000=
07790,1996-05-19 03:00:00,16,1010.2,-0.8,94,15,15000,3.704,,,250,,,,,,,,,,,wg-a,,,,AAXX 19034 07790 12265 72502 10160 20150 30088 40102 57008 60006 878// 90300=
07790,1996-05-19 06:00:00,18,1010.6,0.4,88,16,7000,0,,,0,14.7,18.7,,,,,,,,,wg-a,,,,AAXX 19064 07790 02457 80000 10180 20160 30092 40106 50004 60006 885// 90600 333 10187 20147 61000=
07790,1996-05-19 09:00:00,21,1011.6,1,73,16,10000,3.704,,,70,,,,,,,,,,,wg-a,,,,AAXX 19094 07790 12460 80702 10210 20160 30102 40116 53010 60006 84802 90900=
07790,1996-05-19 12:00:00,20,1012.1,0.5,78,16,8000,11.112,,,150,,,,,,,,,,,wg-a,,,,AAXX 19124 07790 12358 81506 10200 20160 30107 40121 51005 60006 8657/ 91200=
07790,1996-05-19 15:00:00,20,1011.7,-0.4,73,15,8000,3.704,,,10,,,,0,,,,,,60,wg-a,,,,AAXX 19154 07790 12458 80102 10200 20150 30103 40117 56004 60007 76062 8357/ 91500=
07790,1996-05-19 18:00:00,19,1011.5,-0.2,88,17,15000,3.704,,,120,17.6,21.2,,1,,,,,,21,wg-a,,,,AAXX 19184 07790 12365 71202 10190 20170 30101 40115 55002 60017 72162 8587/ 91800 333 10212 20176=
07790,1996-05-19 21:00:00,17,1012.5,1,94,16,500,7.408,,,230,,,,,,,,,,,wg-a,,,,AAXX 19214 07790 12500 72304 10170 20160 30111 40125 53010 60006 8387/ 92100=
07790,1996-05-20 00:00:00,16,1011.7,-0.8,94,15,6000,3.704,,,230,,,,,,,,,,,wg-a,,,,AAXX 20004 07790 12/56 /2302 10160 20150 30103 40117 55008 60006 90000=
07790,1996-05-20 03:00:00,16,1011.3,-0.4,94,15,12000,3.704,,,50,,,,0,,,,,,21,wg-a,,,,AAXX 20034 07790 12562 70502 10160 20150 30099 40113 57004 60007 72162 8587/ 90300=
07790,1996-05-20 06:00:00,17,1011.7,0.4,82,14,20000,7.408,,,180,15.3,18.6,,,,,1,,,1,wg-a,,,,AAXX 20064 07790 12570 31804 10170 20140 30103 40117 53004 60014 70161 83800 90600 333 10186 20153=
07790,1996-05-20 09:00:00,21,1013.6,1.9,69,15,11000,7.408,,,80,,,,,,,,,,,wg-a,,,,AAXX 20094 07790 12/61 /0804 10210 20150 30122 40136 53019 60006 90900=
07790,1996-05-20 12:00:00,20,1014,0.4,64,13,15000,14.816,,,70,,,,0,,,,,,80,wg-a,,,,AAXX 20124 07790 02565 60708 10200 20130 30126 40140 50004 60006 78098 86900 91200 333 60007=
07790,1996-05-20 15:00:00,22,1014.7,0.7,53,12,15000,18.52,,,150,,,,0,,,,,,1,wg-a,,,,AAXX 20154 07790 12565 41510 10220 20120 30133 40147 53007 60007 70198 84803 91500=
07790,1996-05-20 18:00:00,20,1016.7,2,73,15,20000,3.704,,,190,17.2,22.9,,,,,,,,1,wg-a,,,,AAXX 20184 07790 32670 /1902 10200 20150 30153 40167 52020 70198 81100 91800 333 10229 20172=
07790,1996-05-20 21:00:00,16,1018.8,2.1,55,7,20000,11.112,,,260,,,,,,,,,,,wg-a,,,,AAXX 20214 07790 12/70 02606 10160 20070 30174 40188 53021 60006 80000 92100=
07790,1996-05-21 00:00:00,14,1019.9,1.1,47,3,500,18.52,,,250,,,,,,,,,,,wg-a,,,,AAXX 21004 07790 12/00 02510 10140 20030 30185 40199 51011 60006 80000 90000=
07790,1996-05-21 03:00:00,13,1020.5,0.5,51,3,500,25.928,,,250,,,,,,,,,,,wg-a,,,,AAXX 21034 07790 12/00 02514 10130 20030 30190 40205 52005 60006 80000 90300=
07790,1996-05-21 06:00:00,14,1022,1.6,67,8,500,11.112,,,230,12.6,19.5,,,,,,,,,wg-a,,,,AAXX 21064 07790 02500 22306 10140 20080 30206 40220 51016 60006 82801 90600 333 10195 20126 60004=
07790,1996-05-21 09:00:00,20,1022.7,0.7,68,14,500,11.112,,,70,,,,,,,,,,,wg-a,,,,AAXX 21094 07790 12500 20706 10200 20140 30213 40227 51007 60006 82201 90900=
07790,1996-05-21 12:00:00,21,1022.5,-0.2,60,13,500,11.112,,,110,,,,,,,,,,,wg-a,,,,AAXX 21124 07790 12500 41106 10210 20130 30211 40225 58002 60006 82231 91200=
07790,1996-05-21 15:00:00,20,1021.5,-1,68,14,25000,11.112,,,70,,,,,,,,,,,wg-a,,,,AAXX 21154 07790 12675 70706 10200 20140 30201 40215 56010 60006 86801 91500=
07790,1996-05-21 18:00:00,19,1021.3,-0.2,64,12,25000,18.52,,,340,14.3,21.3,,,,,,,,,wg-a,,,,AAXX 21184 07790 12675 63410 10190 20120 30199 40213 55002 60006 85501 91800 333 10213 20143=
07790,1996-05-21 21:00:00,16,1022,0.7,68,10,20000,18.52,,,230,,,,,,,,,,,wg-a,,,,AAXX 21214 07790 12/70 02310 10160 20100 30206 40220 50007 60006 80000 92100=
07790,1996-05-22 00:00:00,14,1021.6,-0.4,63,7,10000,11.112,,,250,,,,,,,,,,,wg-a,,,,AAXX 22004 07790 12/60 /2506 10140 20070 30202 40216 58004 60006 90000=
07790,1996-05-22 03:00:00,14,1020.4,-1.2,55,5,20000,11.112,,,220,,,,,,,,,,,wg-a,,,,AAXX 22034 07790 12/70 12206 10140 20050 30190 40204 56012 60006 81030 90300=
07790,1996-05-22 06:00:00,15,1021.2,0.8,59,7,500,7.408,,,210,11.7,18.6,,,,,,,,,wg-a,,,,AAXX 22064 07790 02500 /2104 10150 20070 30198 40212 52008 60006 81134 90600 333 10186 20117 60004=
07790,1996-05-22 12:00:00,22,1022.3,0.4,50,11,500,14.816,,,110,,,,,,,,,,,wg-a,,,,AAXX 22124 07790 12500 /1108 10220 20110 30209 40223 51004 60006 81200 91200=
07790,1996-05-22 18:00:00,18,1021.8,-0.1,68,12,500,14.816,,,350,15.1,23.1,,,,,,,,,wg-a,,,,AAXX 22184 07790 12500 33508 10180 20120 30204 40218 55001 60006 81231 91800 333 10231 20151=
07790,1996-05-22 21:00:00,15,1023.2,1.4,82,12,11000,3.704,,,190,,,,,,,,,,,wg-a,,,,AAXX 22214 07790 12/61 /1902 10150 20120 30218 40232 53014 60006 92100=
07790,1996-05-23 00:00:00,13,1022.7,-0.6,82,10,10000,14.816,,,250,,,,,,,,,,,wg-a,,,,AAXX 23004 07790 12/60 /2508 10130 20100 30212 40227 58006 60006 90000=
07790,1996-05-23 03:00:00,14,1022.2,-0.4,77,10,500,18.52,,,230,,,,,,,,,,,wg-a,,,,AAXX 23034 07790 12800 /2310 10140 20100 30208 40222 56004 60006 81030 90300=
07790,1996-05-23 06:00:00,16,1022.8,0.6,68,10,20000,11.112,,,220,12.9,18,,,,,,,,,wg-a,,,,AAXX 23064 07790 02/70 32206 10160 20100 30214 40228 53006 60006 80001 90600 333 10180 20129 60004=
07790,1996-05-23 09:00:00,21,1022.9,0.1,69,15,20000,22.224,,,140,,,,,,,,,,,wg-a,,,,AAXX 23094 07790 12570 31412 10210 20150 30215 40229 52001 60006 81101 90900=
07790,1996-05-23 12:00:00,22,1022.8,-0.1,57,13,20000,25.928,,,140,,,,,,,,,,,wg-a,,,,AAXX 23124 07790 12570 51414 10220 20130 30214 40228 58001 60006 82101 91200=
07790,1996-05-23 15:00:00,20,1022,-0.8,68,14,11000,11.112,,,100,,,,,,,,,,,wg-a,,,,AAXX 23154 07790 12/61 /1006 10200 20140 30206 40220 56008 60006 91500=
07790,1996-05-23 18:00:00,19,1021.4,-0.6,68,13,20000,7.408,,,130,16,21.9,,,,,,,,,wg-a,,,,AAXX 23184 07790 12570 21304 10190 20130 30200 40214 56006 60006 81101 91800 333 10219 20160=
07790,1996-05-23 21:00:00,15,1022.2,0.8,88,13,25000,3.704,,,240,,,,,,,,,,,wg-a,,,,AAXX 23214 07790 12/75 02402 10150 20130 30208 40222 53008 60006 80000 92100=
07790,1996-05-24 00:00:00,13,1021.5,-0.8,94,12,25000,7.408,,,240,,,,,,,,,,,wg-a,,,,AAXX 24004 07790 12/75 02404 10130 20120 30200 40215 58008 60006 80000 90000=
07790,1996-05-24 03:00:00,13,1020.9,-0.6,88,11,45000,7.408,,,220,,,,,,,,,,,wg-a,,,,AAXX 24034 07790 12/83 02204 10130 20110 30194 40209 56006 60006 80000 90300=
07790,1996-05-24 06:00:00,16,1021.1,0.3,82,13,11000,3.704,,,230,12.1,19,,,,,,,,,wg-a,,,,AAXX 24064 07790 02/61 /2302 10160 20130 30197 40211 51003 60006 90600 333 10190 20121 60004=
07790,1996-05-24 09:00:00,21,1021,-0.1,64,14,40000,11.112,,,110,,,,,,,,,,,wg-a,,,,AAXX 24094 07790 12582 /1106 10210 20140 30196 40210 56001 60006 81501 90900=
07790,1996-05-24 12:00:00,23,1020.5,-0.5,61,15,40000,11.112,,,120,,,,,,,,,,,wg-a,,,,AAXX 24124 07790 12582 /1206 10230 20150 30191 40205 58005 60006 81530 91200=
07790,1996-05-24 15:00:00,22,1019.4,-1.1,60,14,40000,11.112,,,130,,,,,,,,,,,wg-a,,,,AAXX 24154 07790 12582 /1306 10220 20140 30180 40194 56011 60006 81130 91500=
07790,1996-05-24 18:00:00,20,1018.9,-0.5,68,14,50000,7.408,,,150,15.8,23.1,,,,,,,,,wg-a,,,,AAXX 24184 07790 12584 /1504 10200 20140 30175 40189 56005 60006 81800 91800 333 10231 20158=
07790,1996-05-24 21:00:00,16,1019.2,0.3,88,14,20000,3.704,,,260,,,,,,,,,,,wg-a,,,,AAXX 24214 07790 12/70 02602 10160 20140 30178 40192 52003 60006 80000 92100=
07790,1996-05-25 00:00:00,14,1018.8,-0.4,94,13,10000,7.408,,,210,,,,,,,,,,,wg-a,,,,AAXX 25004 07790 12/60 /2104 10140 20130 30174 40188 58004 60006 90000=
07790,1996-05-25 03:00:00,14,1017.9,-0.9,88,12,10000,7.408,,,250,,,,0,,,,,,,wg-a,,,,AAXX 25034 07790 12/60 02504 10140 20120 30165 40179 56009 60007 80000 90300=
07790,1996-05-25 06:00:00,18,1018.4,0.5,73,13,20000,7.408,,,220,13.5,20,,,,,,,,,wg-a,,,,AAXX 25064 07790 12/70 22204 10180 20130 30170 40184 52005 60004 80001 90600 333 10200 20135=
07790,1996-05-25 09:00:00,22,1018.4,0,60,14,20000,7.408,,,120,,,,,,,,,,,wg-a,,,,AAXX 25094 07790 12570 21204 10220 20140 30170 40184 50000 60006 81101 90900=
07790,1996-05-25 12:00:00,24,1018.3,-0.1,57,15,20000,11.112,,,110,,,,,,,,,,,wg-a,,,,AAXX 25124 07790 12570 /1106 10240 20150 30169 40183 58001 60006 81101 91200=
07790,1996-05-25 15:00:00,24,1017.7,-0.6,57,15,20000,11.112,,,140,,,,,,,,,,,wg-a,,,,AAXX 25154 07790 12570 /1406 10240 20150 30163 40177 58006 60006 81102 91500=
07790,1996-05-25 18:00:00,20,1017.9,0.2,83,17,18000,7.408,,,160,17.7,24.1,,,,,,,,,wg-a,,,,AAXX 25184 07790 12568 71604 10200 20170 30165 40179 53002 60006 81842 91800 333 10241 20177=
07790,1996-05-25 21:00:00,17,1017.6,-0.3,88,15,20000,3.704,,,210,,,,,,,,,,,wg-a,,,,AAXX 25214 07790 12/70 /2102 10170 20150 30162 40176 56003 60006 83032 92100=
07790,1996-05-26 00:00:00,16,1016.7,-0.9,77,12,20000,7.408,,,230,,,,,,,,,,,wg-a,,,,AAXX 26004 07790 12/70 32304 10160 20120 30153 40167 58009 60006 81031 90000=
07790,1996-05-26 03:00:00,15,1015.2,-1.5,77,11,20000,7.408,,,210,,,,,,,,,,,wg-a,,,,AAXX 26034 07790 12/70 62104 10150 20110 30138 40152 56015 60006 80004 90300=
07790,1996-05-26 06:00:00,15,1016.1,0.9,82,12,500,7.408,,,230,13.6,19.8,,,,,,,,,wg-a,,,,AAXX 26064 07790 02400 82304 10150 20120 30147 40161 51009 60006 81142 90600 333 10198 20136 60004=
07790,1996-05-26 09:00:00,20,1016.8,0.7,78,16,11000,3.704,,,120,,,,,,,,,,,wg-a,,,,AAXX 26094 07790 12/61 /1202 10200 20160 30154 40168 53007 60006 90900=
07790,1996-05-26 12:00:00,21,1016.8,0,69,15,25000,7.408,,,120,,,,,,,,,,,wg-a,,,,AAXX 26124 07790 12475 81204 10210 20150 30154 40168 50000 60006 84842 91200=
07790,1996-05-26 15:00:00,23,1016,-0.8,61,15,25000,11.112,,,140,,,,,,,,,,,wg-a,,,,AAXX 26154 07790 12575 41406 10230 20150 30146 40160 56008 60006 83840 91500=
07790,1996-05-26 18:00:00,21,1016.1,0.1,78,17,11000,3.704,,,150,15.2,23.8,,,,,,,,,wg-a,,,,AAXX 26184 07790 12/61 /1502 10210 20170 30147 40161 53001 60006 91800 333 10238 20152=
07790,1996-05-26 21:00:00,16,1016.3,0.2,77,12,25000,3.704,,,160,,,,,,,,,,,wg-a,,,,AAXX 26214 07790 12/75 21602 10160 20120 30149 40163 53002 60006 80001 92100=
07790,1996-05-27 00:00:00,14,1015.8,-0.5,82,11,25000,7.408,,,230,,,,,,,,,,,wg-a,,,,AAXX 27004 07790 12/75 02304 10140 20110 30144 40158 58005 60006 80000 90000=
07790,1996-05-27 03:00:00,13,1015,-0.8,88,11,25000,7.408,,,240,,,,,,,,,,,wg-a,,,,AAXX 27034 07790 12/75 42404 10130 20110 30136 40150 58008 60006 80001 90300=
07790,1996-05-27 06:00:00,17,1014.4,-0.6,77,13,25000,7.408,,,220,13,21.3,,,,,,,,,wg-a,,,,AAXX 27064 07790 02475 /2204 10170 20130 30130 40144 58006 60006 81201 90600 333 10213 20130 60004=
07790,1996-05-27 09:00:00,22,1012.4,-2,73,17,25000,14.816,,,130,,,,,,,,,,,wg-a,,,,AAXX 27094 07790 12475 /1308 10220 20170 30110 40124 58020 60006 82201 90900=
07790,1996-05-27 12:00:00,24,1010.2,-2.2,65,17,18000,14.816,,,140,,,,,,,,,,,wg-a,,,,AAXX 27124 07790 12568 /1408 10240 20170 30088 40102 58022 60006 83241 91200=
07790,1996-05-27 15:00:00,24,1008,-2.2,47,12,18000,14.816,,,140,,,,,,,,,,,wg-a,,,,AAXX 27154 07790 12568 21408 10240 20120 30066 40080 56022 60006 82201 91500=
07790,1996-05-27 18:00:00,24,1005.1,-2.9,36,8,18000,38.892,,66.672,260,17,24.7,,,,,,,,,wg-a,,,,AAXX 27184 07790 12668 22621 10240 20080 30037 40051 58029 60006 81201 91800 333 10247 20170 91036=
07790,1996-05-27 21:00:00,24,1006.7,1.6,29,5,18000,14.816,,,280,,,,,,,,,,,wg-a,,,,AAXX 27214 07790 12668 /2808 10240 20050 30053 40067 51016 60006 81530 92100=
07790,1996-05-28 00:00:00,20,1008.1,1.4,60,12,0,7.408,,,140,,,,,,,,,,,wg-a,,,,AAXX 28004 07790 12/// /1404 10200 20120 30067 40081 50014 60006 90000=
07790,1996-05-28 03:00:00,20,1009.2,1.1,49,9,18000,18.52,,,350,,,,,,,,,,,wg-a,,,,AAXX 28034 07790 12/68 03510 10200 20090 30078 40092 53011 60006 80000 90300=
07790,1996-05-28 06:00:00,22,1010.6,1.4,41,8,25000,18.52,,,270,18.5,24.4,,,,,,,,,wg-a,,,,AAXX 28064 07790 02575 /2710 10220 20080 30092 40106 52014 60006 81500 90600 333 10244 20185 60004=
07790,1996-05-28 09:00:00,26,1011.2,0.6,26,5,50000,18.52,,,320,,,,,,,,,,,wg-a,,,,AAXX 28094 07790 12/84 13210 10260 20050 30098 40112 50006 60006 80001 90900=
07790,1996-05-28 12:00:00,28,1011.2,0,20,3,50000,22.224,,,330,,,,,,,,,,,wg-a,,,,AAXX 28124 07790 12/84 23312 10280 20030 30098 40112 50000 60006 80002 91200=
07790,1996-05-28 15:00:00,27,1010.5,-0.7,24,5,60000,29.632,,48.152,300,,,,,,,,,,,wg-a,,,,AAXX 28154 07790 12/86 33016 10270 20050 30091 40105 58007 60006 80005 91500 333 91026=
07790,1996-05-28 18:00:00,22,1011.8,1.3,41,8,60000,11.112,,57.412,340,21.5,27.8,,,,,,,,,wg-a,,,,AAXX 28184 07790 12/86 63406 10220 20080 30104 40118 53013 60006 80001 91800 333 10278 20215 91031=
07790,1996-05-28 21:00:00,21,1014.2,2.4,30,3,40000,14.816,,,340,,,,,,,,,,,wg-a,,,,AAXX 28214 07790 12/82 53408 10210 20030 30128 40142 53024 60006 80001 92100=
07790,1996-05-29 00:00:00,16,1015.5,1.3,48,5,40000,11.112,,,240,,,,,,,,,,,wg-a,,,,AAXX 29004 07790 12/82 52406 10160 20050 30141 40155 51013 60006 80001 90000=
07790,1996-05-29 03:00:00,14,1015.7,0.2,58,6,40000,7.408,,,230,,,,,,,,,,,wg-a,,,,AAXX 29034 07790 12/82 22304 10140 20060 30143 40157 51002 60006 80001 90300=
07790,1996-05-29 06:00:00,17,1017.7,2,63,10,50000,3.704,,,220,12.7,22.9,,,,,,,,,wg-a,,,,AAXX 29064 07790 02/84 32202 10170 20100 30163 40177 53020 60006 80001 90600 333 10229 20127 60004=
07790,1996-05-29 09:00:00,20,1019.8,2.1,49,9,11000,18.52,,,100,,,,,,,,,,,wg-a,,,,AAXX 29094 07790 12/61 /1010 10200 20090 30184 40198 53021 60006 90900=
07790,1996-05-29 12:00:00,22,1019.4,-0.4,38,7,50000,14.816,,,110,,,,,,,,,,,wg-a,,,,AAXX 29124 07790 12684 21108 10220 20070 30180 40194 58004 60006 81101 91200=
07790,1996-05-29 15:00:00,23,1018.5,-0.9,38,8,40000,3.704,,,130,,,,,,,,,,,wg-a,,,,AAXX 29154 07790 12/82 11302 10230 20080 30171 40185 56009 60006 80001 91500=
07790,1996-05-29 18:00:00,22,1018.4,-0.1,33,5,10000,7.408,,,280,16.8,23.8,,,,,,,,,wg-a,,,,AAXX 29184 07790 12/60 /2804 10220 20050 30170 40184 55001 60006 91800 333 10238 20168=
07790,1996-05-29 21:00:00,15,1020.2,1.8,48,4,500,7.408,,,260,,,,,,,,,,,wg-a,,,,AAXX 29214 07790 12/00 02604 10150 20040 30188 40202 53018 60006 80000 92100=
07790,1996-05-30 00:00:00,13,1021,0.7,54,4,500,11.112,,,240,,,,,,,,,,,wg-a,,,,AAXX 30004 07790 12/00 02406 10130 20040 30195 40210 51007 60006 80000 90000=
07790,1996-05-30 03:00:00,12,1020.6,-0.4,58,4,500,11.112,,,240,,,,,,,,,,,wg-a,,,,AAXX 30034 07790 12/00 02406 10120 20040 30191 40206 55004 60006 80000 90300=
07790,1996-05-30 06:00:00,19,1021.2,0.7,52,9,500,7.408,,,280,11.5,21.9,,,,,,,,,wg-a,,,,AAXX 30064 07790 02/00 02804 10190 20090 30198 40212 53007 60006 80000 90600 333 10219 20115 60004=
07790,1996-05-30 09:00:00,22,1022.1,0.9,41,8,10000,14.816,,,10,,,,,,,,,,,wg-a,,,,AAXX 30094 07790 12/60 /0108 10220 20080 30207 40221 51009 60006 90900=
07790,1996-05-30 12:00:00,23,1021.6,-0.5,41,9,35000,14.816,,,30,,,,,,,,,,,wg-a,,,,AAXX 30124 07790 12/81 00308 10230 20090 30202 40216 58005 60006 80000 91200=
07790,1996-05-30 15:00:00,24,1020.9,-0.7,34,7,35000,7.408,,,40,,,,,,,,,,,wg-a,,,,AAXX 30154 07790 12/81 20404 10240 20070 30195 40209 58007 60006 80001 91500=
07790,1996-05-30 18:00:00,23,1021.3,0.4,41,9,35000,3.704,,,140,18.5,24.7,,,,,,,,,wg-a,,,,AAXX 30184 07790 12/81 11402 10230 20090 30199 40213 53004 60006 80001 91800 333 10247 20185=
07790,1996-05-30 21:00:00,16,1022.2,0.9,68,10,35000,3.704,,,240,,,,,,,,,,,wg-a,,,,AAXX 30214 07790 12/81 02402 10160 20100 30208 40222 52009 60006 80000 92100=
07790,1996-05-31 00:00:00,14,1022.6,0.4,77,10,35000,7.408,,,240,,,,,,,,,,,wg-a,,,,AAXX 31004 07790 12/81 02404 10140 20100 30212 40226 50004 60006 80000 90000=
07790,1996-05-31 03:00:00,13,1022.3,-0.4,82,10,35000,11.112,,,220,,,,,,,,,,,wg-a,,,,AAXX 31034 07790 12/81 12206 10130 20100 30208 40223 55004 60006 80001 90300=
07790,1996-05-31 06:00:00,18,1022.6,0.4,64,11,40000,11.112,,,220,13.2,22.4,,,,,,,,,wg-a,,,,AAXX 31064 07790 02/82 02206 10180 20110 30212 40226 51004 60006 80000 90600 333 10224 20132 60004=
07790,1996-05-31 09:00:00,25,1022.9,0.3,34,8,50000,11.112,,,100,,,,,,,,,,,wg-a,,,,AAXX 31094 07790 12/84 01006 10250 20080 30215 40229 51003 60006 80000 90900=
07790,1996-05-31 12:00:00,24,1023.2,0.3,44,11,40000,11.112,,,90,,,,,,,,,,,wg-a,,,,AAXX 31124 07790 12/82 10906 10240 20110 30218 40232 50003 60006 80001 91200=
07790,1996-05-31 15:00:00,24,1022.6,-0.6,47,12,40000,11.112,,,100,,,,,,,,,,,wg-a,,,,AAXX 31154 07790 12/82 11006 10240 20120 30212 40226 58006 60006 80001 91500=
07790,1996-05-31 18:00:00,21,1022,-0.6,73,16,20000,7.408,,,60,17.9,25.1,,,,,,,,,wg-a,,,,AAXX 31184 07790 12/70 10604 10210 20160 30206 40220 56006 60006 80001 91800 333 10251 20179=
07790,1996-05-31 21:00:00,17,1022.6,0.6,88,15,500,7.408,,,240,,,,,,,,,,,wg-a,,,,AAXX 31214 07790 12/00 22404 10170 20150 30212 40226 51006 60006 80001 92100=
07790,1996-06-01 00:00:00,16,1022.1,-0.5,82,13,500,11.112,,,220,,,,,,,,,,,wg-a,,,,AAXX 01004 07790 12/00 42206 10160 20130 30207 40221 58005 60006 80001 90000=
07790,1996-06-01 03:00:00,15,1021.4,-0.7,82,12,500,7.408,,,230,,,,,,,,,,,wg-a,,,,AAXX 01034 07790 12/00 52304 10150 20120 30200 40214 57007 60006 80001 90300=
07790,1996-06-01 06:00:00,18,1021.5,0.1,77,14,500,7.408,,,250,14.1,21.3,,,,,,,,,wg-a,,,,AAXX 01064 07790 02/00 32504 10180 20140 30201 40215 52001 60006 80002 90600 333 10213 20141 60004=
07790,1996-06-01 09:00:00,23,1021.5,-0,57,14,500,11.112,,,120,,,,,,,,,,,wg-a,,,,AAXX 01094 07790 12500 21206 10230 20140 30201 40215 54000 60006 81502 90900=
07790,1996-06-01 12:00:00,24,1021,-0.5,47,12,50000,14.816,,,130,,,,,,,,,,,wg-a,,,,AAXX 01124 07790 12584 31308 10240 20120 30196 40210 58005 60006 81102 91200=
07790,1996-06-01 15:00:00,23,1020,-1,57,14,50000,14.816,,,140,,,,,,,,,,,wg-a,,,,AAXX 01154 07790 12684 /1408 10230 20140 30186 40200 58010 60006 81501 91500=
07790,1996-06-01 18:00:00,21,1019.2,-0.8,73,16,50000,11.112,,,150,17.8,24.4,,,,,,,,,wg-a,,,,AAXX 01184 07790 12/84 31506 10210 20160 30178 40192 56008 60006 80001 91800 333 10244 20178=
07790,1996-06-01 21:00:00,17,1019.1,-0.1,82,14,500,0,,,0,,,,,,,,,,,wg-a,,,,AAXX 01214 07790 12/00 20000 10170 20140 30177 40191 56001 60006 80001 92100=
07790,1996-06-02 00:00:00,15,1017.9,-1.2,88,13,500,3.704,,,240,,,,,,,,,,,wg-a,,,,AAXX 02004 07790 12/00 52402 10150 20130 30165 40179 58012 60006 80001 90000=
07790,1996-06-02 03:00:00,14,1016.3,-1.6,82,11,500,3.704,,,240,,,,,,,,,,,wg-a,,,,AAXX 02034 07790 12/00 22402 10140 20110 30149 40163 56016 60006 80001 90300=
07790,1996-06-02 06:00:00,17,1016.2,-0.1,88,15,28000,3.704,,,330,13.3,21.1,,,,,,,,,wg-a,,,,AAXX 02064 07790 02578 23302 10170 20150 30148 40162 58001 60006 81101 90600 333 10211 20133 60004=
07790,1996-06-02 09:00:00,22,1015.8,-0.4,69,16,20000,11.112,,,90,,,,,,,,,,,wg-a,,,,AAXX 02094 07790 12470 50906 10220 20160 30144 40158 56004 60006 83801 90900=
07790,1996-06-02 12:00:00,24,1014.8,-1,65,17,18000,14.816,,,130,,,,,,,,,,,wg-a,,,,AAXX 02124 07790 12468 51308 10240 20170 30134 40148 56010 60006 85800 91200=
07790,1996-06-02 15:00:00,23,1013.5,-1.3,69,17,9000,25.928,,,150,,,,,,,,,,,wg-a,,,,AAXX 02154 07790 12459 51514 10230 20170 30121 40135 58013 60006 85800 91500=
07790,1996-06-02 18:00:00,20,1013,-0.5,83,17,8000,22.224,,53.708,150,17.3,24.5,,,,,,,,,wg-a,,,,AAXX 02184 07790 12458 /1512 10200 20170 30116 40130 55005 60006 82802 91800 333 10245 20173 91029=
07790,1996-06-02 21:00:00,19,1013.4,0.4,88,17,18000,0,,,0,,,,,,,,,,,wg-a,,,,AAXX 02214 07790 12468 70000 10190 20170 30120 40134 53004 60006 878// 92100=
07790,1996-06-03 00:00:00,19,1013.3,-0.1,88,17,20000,3.704,,,180,,,,,,,,,,80,wg-a,,,,AAXX 03004 07790 02470 71802 10190 20170 30119 40133 55001 61000 78098 879// 90000 333 6100=
07790,1996-06-03 03:00:00,17,1013,-0.3,94,16,15000,7.408,,,230,,,,14,,,,,,80,wg-a,,,,AAXX 03034 07790 12465 82304 10170 20160 30116 40130 55003 60147 78096 879// 90300=
07790,1996-06-03 06:00:00,17,1014.2,1.2,100,17,2800,0,,,0,16.8,20.2,,4,,,17,,,10,wg-a,,,,AAXX 03064 07790 02228 80000 10170 20170 30128 40142 53012 60174 71096 8687/ 90600 333 10202 20168 60047=
07790,1996-06-03 12:00:00,19,1015.8,1,94,18,3500,14.816,,,160,,,,3,,,,,,10,wg-a,,,,AAXX 03124 07790 02235 81608 10190 20180 30144 40158 53010 60106 71066 8697/ 91200 333 60037=
07790,1996-06-03 15:00:00,21,1015.7,-0.1,78,17,6000,7.408,,,150,,,,,,,,,,,wg-a,,,,AAXX 03154 07790 32/56 /1504 10210 20170 30143 40157 58001 91500=
07790,1996-06-03 21:00:00,17,1017.3,1.5,94,16,15000,3.704,,,280,,,,,,,,,,,wg-a,,,,AAXX 03214 07790 12365 /2802 10170 20160 30159 40173 53015 60006 84830 92100=
07790,1996-06-04 00:00:00,17,1017.8,0.5,94,16,15000,0,,,0,,,,,,,,,,,wg-a,,,,AAXX 04004 07790 12/65 70000 10170 20160 30164 40178 51005 60006 8703/ 90000=
07790,1996-06-04 03:00:00,17,1017.2,-0.6,82,14,500,3.704,,,270,,,,0,,,,,,21,wg-a,,,,AAXX 04034 07790 12/00 72702 10170 20140 30158 40172 58006 60007 72162 8707/ 90300=
07790,1996-06-04 06:00:00,18,1018.3,1.1,77,14,15000,7.408,,,240,16.8,19.6,,,,,10,,,21,wg-a,,,,AAXX 04064 07790 02665 82404 10180 20140 30169 40183 53011 60104 72162 8/57/ 90600 333 10196 20168 61000=
07790,1996-06-04 09:00:00,21,1018.9,0.6,73,16,10000,7.408,,,230,,,,,,,,,,,wg-a,,,,AAXX 04094 07790 12760 82304 10210 20160 30175 40189 53006 60006 8/57/ 90900=
07790,1996-06-04 12:00:00,22,1020.1,1.2,69,16,8000,18.52,,,160,,,,,,,,,,,wg-a,,,,AAXX 04124 07790 02/58 /1610 10220 20160 30187 40201 51012 61000 91200 333 ////=
07790,1996-06-04 15:00:00,20,1020.3,0.2,73,15,12000,11.112,,,210,,,,0,,,,,,21,wg-a,,,,AAXX 04154 07790 12762 82106 10200 20150 30189 40203 50002 60007 72162 8357/ 91500=
07790,1996-06-04 18:00:00,19,1019.5,-0.8,78,15,10000,11.112,,,250,17.5,22.9,,0,,,,,,21,wg-a,,,,AAXX 04184 07790 12760 82506 10190 20150 30181 40195 58008 60007 72162 8557/ 91800 333 10229 20175=
07790,1996-06-04 21:00:00,17,1020.5,1,88,15,12000,7.408,,,250,,,,,,,,,,,wg-a,,,,AAXX 04214 07790 12662 72504 10170 20150 30191 40205 50010 60006 8457/ 92100=
07790,1996-06-05 03:00:00,17,1019.9,-1.2,88,15,15000,7.408,,,260,,,,,,,,,,,wg-a,,,,AAXX 05034 07790 12665 /2604 10170 20150 30185 40199 56012 60006 82570 90300=
07790,1996-06-05 09:00:00,24,1020.5,0.3,54,14,20000,7.408,,,10,,,,,,,,,,,wg-a,,,,AAXX 05094 07790 12/70 /0104 10240 20140 30191 40205 50003 60006 84080 90900=
07790,1996-06-05 12:00:00,25,1020.6,0.1,57,16,18000,11.112,,,30,,,,,,,,,,,wg-a,,,,AAXX 05124 07790 12568 70306 10250 20160 30192 40206 50001 60006 81181 91200=
07790,1996-06-05 15:00:00,25,1020.5,-0.1,65,18,18000,3.704,,,100,,,,,,,,,,,wg-a,,,,AAXX 05154 07790 12568 71002 10250 20180 30191 40205 58001 60006 81132 91500=
07790,1996-06-05 18:00:00,23,1020.2,-0.3,65,16,9000,7.408,,,340,19.5,26.6,,,,,,,,,wg-a,,,,AAXX 05184 07790 12/59 /3404 10230 20160 30188 40202 55003 60006 91800 333 10266 20195=
07790,1996-06-06 00:00:00,18,1020.7,-0.4,83,15,0,7.408,,,240,,,,,,,,,,,wg-a,,,,AAXX 06004 07790 12/// /2404 10180 20150 30193 40207 58004 60006 90000=
07790,1996-06-06 03:00:00,17,1020.5,-0.2,88,15,15000,11.112,,,220,,,,,,,,,,,wg-a,,,,AAXX 06034 07790 12/65 32206 10170 20150 30191 40205 58002 60006 83030 90300=
07790,1996-06-06 06:00:00,20,1021.5,1,78,16,9000,3.704,,,230,17.1,23,,,,,,,,,wg-a,,,,AAXX 06064 07790 02/59 22302 10200 20160 30201 40215 53010 60006 82030 90600 333 10230 20171 60004=
07790,1996-06-06 09:00:00,25,1021.9,0.4,69,19,8000,7.408,,,360,,,,,,,,,,,wg-a,,,,AAXX 06094 07790 12/58 /3604 10250 20190 30205 40219 51004 60006 90900=
07790,1996-06-06 12:00:00,26,1021.5,-0.4,61,18,8000,14.816,,,130,,,,,,,,,,,wg-a,,,,AAXX 06124 07790 12658 21308 10260 20180 30201 40215 58004 60006 8/200 91200=
07790,1996-06-06 15:00:00,27,1021,-0.5,51,16,12000,11.112,,,150,,,,,,,,,,,wg-a,,,,AAXX 06154 07790 12662 41506 10270 20160 30196 40210 58005 60006 81202 91500=
07790,1996-06-06 18:00:00,24,1021.7,0.7,69,18,15000,3.704,,,140,20.1,27.6,,,,,,,,,wg-a,,,,AAXX 06184 07790 12/65 /1402 10240 20180 30203 40217 53007 60006 84032 91800 333 10276 20201=
07790,1996-06-06 21:00:00,20,1021.8,0.1,83,17,12000,7.408,,,260,,,,,,,,,,,wg-a,,,,AAXX 06214 07790 12862 /2604 10200 20170 30204 40218 53001 60006 86070 92100=
07790,1996-06-07 00:00:00,18,1021.5,-0.3,88,16,12000,7.408,,,250,,,,,,,,,,,wg-a,,,,AAXX 07004 07790 12862 22504 10180 20160 30201 40215 57003 60006 82070 90000=
07790,1996-06-07 03:00:00,18,1021.1,-0.4,83,15,15000,7.408,,,240,,,,,,,,,,,wg-a,,,,AAXX 07034 07790 12/65 22404 10180 20150 30197 40211 56004 60006 80001 90300=
07790,1996-06-07 06:00:00,21,1022.1,1,83,18,12000,7.408,,,340,17.8,24,,,,,,,,,wg-a,,,,AAXX 07064 07790 02/62 13404 10210 20180 30207 40221 53010 60006 80001 90600 333 10240 20178 60004=
07790,1996-06-07 09:00:00,25,1022.7,0.6,61,17,12000,7.408,,,20,,,,,,,,,,,wg-a,,,,AAXX 07094 07790 12562 20204 10250 20170 30213 40227 50006 60006 81101 90900=
07790,1996-06-07 12:00:00,26,1022.3,-0.4,58,17,11000,11.112,,,100,,,,,,,,,,,wg-a,,,,AAXX 07124 07790 12/61 /1006 10260 20170 30209 40223 58004 60006 91200=
07790,1996-06-07 15:00:00,27,1022,-0.3,54,17,10000,7.408,,,110,,,,,,,,,,,wg-a,,,,AAXX 07154 07790 12560 21104 10270 20170 30206 40220 56003 60006 82101 91500=
07790,1996-06-07 18:00:00,25,1021.3,-0.7,69,19,10000,7.408,,,90,20.9,26.9,,,,,,,,,wg-a,,,,AAXX 07184 07790 12560 /0904 10250 20190 30199 40213 56007 60006 81101 91800 333 10269 20209=
07790,1996-06-07 21:00:00,20,1022.5,1.2,88,18,12000,3.704,,,230,,,,,,,,,,,wg-a,,,,AAXX 07214 07790 12/62 02302 10200 20180 30211 40225 53012 60006 80000 92100=
07790,1996-06-08 00:00:00,19,1022.2,-0.3,88,17,12000,7.408,,,240,,,,,,,,,,,wg-a,,,,AAXX 08004 07790 12/62 02404 10190 20170 30208 40222 58003 60006 80000 90000=
07790,1996-06-08 03:00:00,18,1021.5,-0.7,88,16,12000,3.704,,,250,,,,,,,,,,,wg-a,,,,AAXX 08034 07790 12/62 02502 10180 20160 30201 40215 56007 60006 80000 90300=
07790,1996-06-08 06:00:00,21,1022.3,0.8,83,18,12000,0,,,0,17.6,24.6,,,,,,,,,wg-a,,,,AAXX 08064 07790 02/62 00000 10210 20180 30209 40223 52008 60006 80000 90600 333 10246 20176 60004=
07790,1996-06-08 09:00:00,25,1022.7,0.4,74,20,8000,7.408,,,90,,,,,,,,,,,wg-a,,,,AAXX 08094 07790 12558 20904 10250 20200 30213 40227 51004 60006 82200 90900=
07790,1996-06-08 12:00:00,26,1022.4,-0.3,61,18,10000,11.112,,,80,,,,,,,,,,,wg-a,,,,AAXX 08124 07790 12560 20806 10260 20180 30210 40224 58003 60006 82200 91200=
07790,1996-06-08 15:00:00,26,1021.2,-1.2,54,16,15000,7.408,,,50,,,,,,,,,,,wg-a,,,,AAXX 08154 07790 12665 20504 10260 20160 30198 40212 58012 60006 82231 91500=
07790,1996-06-08 18:00:00,24,1021,-0.2,65,17,18000,7.408,,,30,21.4,26.5,,,,,,,,,wg-a,,,,AAXX 08184 07790 12/68 20304 10240 20170 30196 40210 55002 60006 80002 91800 333 10265 20214=
07790,1996-06-08 21:00:00,20,1021.6,0.6,88,18,20000,3.704,,,220,,,,,,,,,,,wg-a,,,,AAXX 08214 07790 12/70 02202 10200 20180 30202 40216 53006 60006 80000 92100=
07790,1996-06-09 00:00:00,19,1020.9,-0.7,83,16,20000,3.704,,,210,,,,,,,,,,,wg-a,,,,AAXX 09004 07790 12/70 02102 10190 20160 30195 40209 58007 60006 80000 90000=
07790,1996-06-09 03:00:00,17,1020.6,-0.3,88,15,20000,3.704,,,240,,,,,,,,,,,wg-a,,,,AAXX 09034 07790 12/70 02402 10170 20150 30192 40206 58003 60006 80000 90300=
07790,1996-06-09 06:00:00,22,1020.4,-0.2,73,17,15000,3.704,,,220,17,23.7,,,,,,,,,wg-a,,,,AAXX 09064 07790 02/65 02202 10220 20170 30190 40204 58002 60006 80000 90600 333 10237 20170 60004=
07790,1996-06-09 09:00:00,26,1021,0.6,54,16,11000,11.112,,,40,,,,,,,,,,,wg-a,,,,AAXX 09094 07790 12/61 /0406 10260 20160 30196 40210 52006 60006 90900=
07790,1996-06-09 12:00:00,26,1020.7,-0.3,54,16,12000,11.112,,,30,,,,,,,,,,,wg-a,,,,AAXX 09124 07790 12662 20306 10260 20160 30193 40207 58003 60006 82200 91200=
07790,1996-06-09 15:00:00,25,1020.1,-0.6,65,18,11000,7.408,,,20,,,,,,,,,,,wg-a,,,,AAXX 09154 07790 12/61 /0204 10250 20180 30187 40201 57006 60006 91500=
07790,1996-06-09 18:00:00,25,1019.6,-0.5,69,19,9000,7.408,,,80,21.6,26.3,,,,,,,,,wg-a,,,,AAXX 09184 07790 12/59 /0804 10250 20190 30182 40196 56005 60006 91800 333 10263 20216=
07790,1996-06-09 21:00:00,21,1019.9,0.3,83,18,12000,11.112,,,220,,,,,,,,,,,wg-a,,,,AAXX 09214 07790 12/62 02206 10210 20180 30185 40199 50003 60006 80000 92100=
07790,1996-06-10 00:00:00,19,1020.3,0.4,83,16,12000,7.408,,,260,,,,,,,,,,,wg-a,,,,AAXX 10004 07790 12/62 02604 10190 20160 30189 40203 51004 60006 80000 90000=
07790,1996-06-10 03:00:00,17,1020.1,-0.2,88,15,12000,3.704,,,240,,,,,,,,,,,wg-a,,,,AAXX 10034 07790 12/62 02402 10170 20150 30187 40201 55002 60006 80000 90300=
07790,1996-06-10 06:00:00,22,1020.9,0.8,73,17,25000,3.704,,,10,16.9,24.4,,,,,,,,,wg-a,,,,AAXX 10064 07790 02/75 00102 10220 20170 30195 40209 52008 60006 80000 90600 333 10244 20169 60004=
07790,1996-06-10 09:00:00,27,1021.2,0.3,54,17,25000,11.112,,,90,,,,,,,,,,,wg-a,,,,AAXX 10094 07790 12/75 60906 10270 20170 30198 40212 53003 60006 80002 90900=
07790,1996-06-10 12:00:00,26,1021.1,-0.1,61,18,15000,14.816,,,20,,,,,,,,,,,wg-a,,,,AAXX 10124 07790 12665 /0208 10260 20180 30197 40211 58001 60006 82202 91200=
07790,1996-06-10 15:00:00,26,1020.2,-0.9,61,18,25000,11.112,,,50,,,,,,,,,,,wg-a,,,,AAXX 10154 07790 12675 /0506 10260 20180 30188 40202 58009 60006 82202 91500=
07790,1996-06-10 18:00:00,25,1020.3,0.1,69,19,28000,3.704,,,100,22,26.9,,,,,,,,,wg-a,,,,AAXX 10184 07790 12678 51002 10250 20190 30189 40203 53001 60006 81132 91800 333 10269 20220=
07790,1996-06-10 21:00:00,20,1021,0.7,83,17,12000,3.704,,,270,,,,,,,,,,,wg-a,,,,AAXX 10214 07790 12/62 22702 10200 20170 30196 40210 53007 60006 80001 92100=
07790,1996-06-11 00:00:00,18,1021.3,0.3,88,16,10000,3.704,,,260,,,,,,,,,,,wg-a,,,,AAXX 11004 07790 12/60 /2602 10180 20160 30199 40213 50003 60006 90000=
07790,1996-06-11 03:00:00,18,1020.9,-0.4,77,14,10000,11.112,,,240,,,,,,,,,,,wg-a,,,,AAXX 11034 07790 12/60 /2406 10180 20140 30195 40209 58004 60006 90300=
07790,1996-06-11 06:00:00,22,1022,1.1,65,15,10000,3.704,,,240,16.8,25.3,,,,,,,,,wg-a,,,,AAXX 11064 07790 02/60 /2402 10220 20150 30206 40220 53011 60006 90600 333 10253 20168 60004=
07790,1996-06-11 09:00:00,28,1022.5,0.5,55,18,12000,11.112,,,80,,,,,,,,,,,wg-a,,,,AAXX 11094 07790 12/62 10806 10280 20180 30211 40225 53005 60006 80001 90900=
07790,1996-06-11 12:00:00,28,1022.5,0,42,14,18000,7.408,,,40,,,,,,,,,,,wg-a,,,,AAXX 11124 07790 12668 20404 10280 20140 30211 40225 50000 60006 81101 91200=
07790,1996-06-11 15:00:00,29,1021.2,-1.3,48,17,18000,11.112,,,70,,,,,,,,,,,wg-a,,,,AAXX 11154 07790 12668 /0706 10290 20170 30198 40212 58013 60006 81201 91500=
07790,1996-06-11 18:00:00,27,1021.4,0.2,66,20,18000,3.704,,,170,22.1,30.1,,,,,,,,,wg-a,,,,AAXX 11184 07790 12/68 21702 10270 20200 30200 40214 53002 60006 80001 91800 333 10301 20221=
07790,1996-06-11 21:00:00,22,1022.1,0.7,57,13,18000,14.816,,,240,,,,,,,,,,,wg-a,,,,AAXX 11214 07790 12/68 22408 10220 20130 30207 40221 53007 60006 80001 92100=
07790,1996-06-12 00:00:00,20,1022.1,-0,68,14,18000,3.704,,,280,,,,,,,,,,,wg-a,,,,AAXX 12004 07790 12/68 02802 10200 20140 30207 40221 54000 60006 80000 90000=
07790,1996-06-12 03:00:00,18,1021.5,-0.6,77,14,18000,3.704,,,260,,,,,,,,,,,wg-a,,,,AAXX 12034 07790 12/68 12602 10180 20140 30201 40215 56006 60006 81030 90300=
07790,1996-06-12 06:00:00,23,1022.1,0.6,65,16,10000,3.704,,,280,17.5,27.1,,,,,,,,,wg-a,,,,AAXX 12064 07790 02/60 /2802 10230 20160 30207 40221 52006 60006 90600 333 10271 20175 60004=
07790,1996-06-12 09:00:00,29,1022.3,0.2,55,19,12000,7.408,,,70,,,,,,,,,,,wg-a,,,,AAXX 12094 07790 12/62 00704 10290 20190 30209 40223 52002 60006 80000 90900=
07790,1996-06-12 12:00:00,28,1022.1,-0.2,55,18,10000,7.408,,,40,,,,,,,,,,,wg-a,,,,AAXX 12124 07790 12/60 /0404 10280 20180 30207 40221 58002 60006 91200=
07790,1996-06-12 15:00:00,30,1020.7,-1.4,43,16,12000,14.816,,,40,,,,,,,,,,,wg-a,,,,AAXX 12154 07790 12562 /0408 10300 20160 30193 40207 56014 60006 81101 91500=
07790,1996-06-12 18:00:00,29,1019.6,-1.1,45,16,10000,11.112,,,330,22.8,31.4,,,,,,,,,wg-a,,,,AAXX 12184 07790 12/60 43306 10290 20160 30182 40196 55011 60006 80001 91800 333 10314 20228=
07790,1996-06-12 21:00:00,21,1020.5,0.9,73,16,15000,3.704,,,210,,,,,,,,,,,wg-a,,,,AAXX 12214 07790 12/65 12102 10210 20160 30191 40205 53009 60006 80001 92100=
07790,1996-06-13 03:00:00,18,1019.2,-0.9,73,13,15000,7.408,,,250,,,,,,,,,,,wg-a,,,,AAXX 13034 07790 12/65 12504 10180 20130 30178 40192 56009 60006 80001 90300=
07790,1996-06-13 06:00:00,23,1019.2,-0,73,18,15000,7.408,,,20,17.5,29.1,,,,,,,,,wg-a,,,,AAXX 13064 07790 02/65 00204 10230 20180 30178 40192 54000 60006 80000 90600 333 10291 20175 60004=
07790,1996-06-13 09:00:00,29,1018.9,-0.3,62,21,15000,7.408,,,130,,,,,,,,,,,wg-a,,,,AAXX 13094 07790 12/65 /1304 10290 20210 30175 40189 58003 60006 80001 90900=
07790,1996-06-13 12:00:00,27,1018.5,-0.4,74,22,15000,11.112,,,70,,,,,,,,,,,wg-a,,,,AAXX 13124 07790 12665 40706 10270 20220 30171 40185 58004 60006 81101 91200=
07790,1996-06-13 15:00:00,30,1016.5,-2,62,22,10000,7.408,,,120,,,,,,,,,,,wg-a,,,,AAXX 13154 07790 12560 /1204 10300 20220 30151 40165 57020 60006 81101 91500=
07790,1996-06-13 18:00:00,25,1017.1,0.6,83,22,10000,11.112,,,70,23.2,30,,,,,,,,,wg-a,,,,AAXX 13184 07790 12/60 /0706 10250 20220 30157 40171 52006 60006 81031 91800 333 10300 20232=
07790,1996-06-13 21:00:00,23,1017.3,0.2,89,21,500,3.704,,,210,,,,,,,,,,,wg-a,,,,AAXX 13214 07790 12/00 /2102 10230 20210 30159 40173 53002 60006 83081 92100=
07790,1996-06-14 00:00:00,21,1017.3,0,88,19,500,7.408,,,220,,,,,,,,,,,wg-a,,,,AAXX 14004 07790 12/00 /2204 10210 20190 30159 40173 50000 60006 83081 90000=
07790,1996-06-14 03:00:00,19,1016.8,-0.5,94,18,4000,7.408,,,270,,,,,,,,,,10,wg-a,,,,AAXX 14034 07790 12240 52704 10190 20180 30154 40168 56005 60006 71022 83601 90300=
07790,1996-06-14 06:00:00,22,1018.2,1.4,83,19,500,3.704,,,240,18.9,25.1,,,,,,,,,wg-a,,,,AAXX 14064 07790 02/00 /2402 10220 20190 30168 40182 52014 60006 90600 333 10251 20189 60004=
07790,1996-06-14 09:00:00,27,1018.7,0.5,58,18,0,11.112,,,20,,,,,,,,,,,wg-a,,,,AAXX 14094 07790 12/// 30206 10270 20180 30173 40187 53005 60006 82084 90900=
07790,1996-06-14 12:00:00,27,1019.3,0.6,62,19,10000,25.928,,,10,,,,,,,,,,,wg-a,,,,AAXX 14124 07790 12560 70114 10270 20190 30179 40193 50006 60006 81102 91200=
07790,1996-06-14 15:00:00,27,1018.1,-1.2,51,16,10000,14.816,,,10,,,,,,,,,,,wg-a,,,,AAXX 14154 07790 12560 40108 10270 20160 30167 40181 56012 60006 82941 91500=
07790,1996-06-14 18:00:00,26,1017.8,-0.3,51,15,15000,14.816,,,250,22.3,28,,,,,,,,,wg-a,,,,AAXX 14184 07790 12565 42508 10260 20150 30164 40178 56003 60006 82141 91800 333 10280 20223=
07790,1996-06-14 21:00:00,22,1018.7,0.9,65,15,15000,11.112,,,240,,,,,,,,,,,wg-a,,,,AAXX 14214 07790 12/65 02406 10220 20150 30173 40187 51009 60006 80000 92100=
07790,1996-06-15 00:00:00,20,1019.2,0.5,78,16,15000,11.112,,,230,,,,,,,,,,,wg-a,,,,AAXX 15004 07790 12/65 02306 10200 20160 30178 40192 50005 60006 80000 90000=
07790,1996-06-15 03:00:00,19,1018.7,-0.5,73,14,20000,11.112,,,260,,,,,,,,,,,wg-a,,,,AAXX 15034 07790 12/70 12606 10190 20140 30173 40187 57005 60006 81031 90300=
07790,1996-06-15 06:00:00,23,1019.5,0.8,50,12,10000,7.408,,,170,18.4,26,,,,,,,,,wg-a,,,,AAXX 15064 07790 02/60 /1704 10230 20120 30181 40195 52008 60006 90600 333 10260 20184 60004=
07790,1996-06-15 09:00:00,26,1019.6,0.1,21,2,25000,7.408,,,140,,,,,,,,,,,wg-a,,,,AAXX 15094 07790 12/75 11404 10260 20020 30182 40196 50001 60006 80001 90900=
07790,1996-06-15 12:00:00,26,1019.2,-0.4,30,7,11000,11.112,,,90,,,,,,,,,,,wg-a,,,,AAXX 15124 07790 12/61 /0906 10260 20070 30178 40192 58004 60006 91200=
07790,1996-06-15 15:00:00,27,1018.2,-1,21,3,35000,7.408,,,130,,,,,,,,,,,wg-a,,,,AAXX 15154 07790 12681 /1304 10270 20030 30168 40182 58010 60006 81232 91500=
07790,1996-06-15 18:00:00,26,1017.5,-0.7,39,11,25000,7.408,,,60,22.6,28.5,,,,,,,,,wg-a,,,,AAXX 15184 07790 12/75 20604 10260 20110 30161 40175 55007 60006 81032 91800 333 10285 20226=
07790,1996-06-15 21:00:00,19,1018.4,0.9,64,12,25000,7.408,,,260,,,,,,,,,,,wg-a,,,,AAXX 15214 07790 12/75 22604 10190 20120 30170 40184 53009 60006 81032 92100=
07790,1996-06-16 00:00:00,17,1018,-0.4,63,10,10000,7.408,,,230,,,,,,,,,,,wg-a,,,,AAXX 16004 07790 12/60 /2304 10170 20100 30166 40180 58004 60006 90000=
07790,1996-06-16 03:00:00,16,1017.4,-0.6,68,10,25000,11.112,,,230,,,,,,,,,,,wg-a,,,,AAXX 16034 07790 12/75 22306 10160 20100 30160 40174 56006 60006 82030 90300=
07790,1996-06-16 06:00:00,23,1017.8,0.4,38,8,50000,14.816,,,50,16.3,25.5,,,,,,,,,wg-a,,,,AAXX 16064 07790 02/84 00508 10230 20080 30164 40178 52004 60006 80000 90600 333 10255 20163 60004=
07790,1996-06-16 09:00:00,24,1018.1,0.3,41,10,40000,14.816,,,20,,,,,,,,,,,wg-a,,,,AAXX 16094 07790 12/82 10208 10240 20100 30167 40181 51003 60006 80001 90900=
07790,1996-06-16 12:00:00,25,1017.9,-0.2,34,8,40000,14.816,,,10,,,,,,,,,,,wg-a,,,,AAXX 16124 07790 12582 60108 10250 20080 30165 40179 58002 60006 81901 91200=
07790,1996-06-16 15:00:00,27,1016.5,-1.4,32,9,11000,7.408,,,130,,,,,,,,,,,wg-a,,,,AAXX 16154 07790 12/61 /1304 10270 20090 30151 40165 58014 60006 91500=
07790,1996-06-16 18:00:00,25,1015.4,-1.1,44,12,40000,3.704,,,170,22.7,27.2,,,,,,,,,wg-a,,,,AAXX 16184 07790 12582 71702 10250 20120 30140 40154 56011 60006 81201 91800 333 10272 20227=
07790,1996-06-16 21:00:00,19,1016.4,1,60,11,20000,3.704,,,270,,,,,,,,,,,wg-a,,,,AAXX 16214 07790 12670 /2702 10190 20110 30150 40164 53010 60006 82532 92100=
07790,1996-06-17 00:00:00,17,1017.1,0.7,63,10,20000,7.408,,,230,,,,,,,,,,,wg-a,,,,AAXX 17004 07790 12570 /2304 10170 20100 30157 40171 51007 60006 81532 90000=
07790,1996-06-17 03:00:00,17,1016.9,-0.2,68,11,20000,7.408,,,230,,,,,,,,,,,wg-a,,,,AAXX 17034 07790 12/70 32304 10170 20110 30155 40169 55002 60006 81031 90300=
07790,1996-06-17 06:00:00,18,1018.2,1.3,73,13,25000,7.408,,,220,16.2,24.5,,,,,,,,1,wg-a,,,,AAXX 17064 07790 02575 52204 10180 20130 30168 40182 53013 60006 70191 85800 90600 333 10245 20162 60004=
07790,1996-06-17 09:00:00,25,1018.8,0.6,44,12,11000,7.408,,,120,,,,,,,,,,,wg-a,,,,AAXX 17094 07790 12/61 /1204 10250 20120 30174 40188 51006 60006 90900=
07790,1996-06-17 15:00:00,27,1017.9,-1.1,32,9,40000,11.112,,,90,,,,,,,,,,,wg-a,,,,AAXX 17154 07790 12882 /0906 10270 20090 30165 40179 58011 60006 81030 91500=
07790,1996-06-17 18:00:00,25,1017.9,-0,39,10,40000,7.408,,,160,18.4,27.2,,,,,,,,,wg-a,,,,AAXX 17184 07790 12/82 /1604 10250 20100 30165 40179 55000 60006 80000 91800 333 10272 20184=
07790,1996-06-17 21:00:00,19,1018.3,0.4,60,11,500,3.704,,,240,,,,,,,,,,,wg-a,,,,AAXX 17214 07790 12/00 02402 10190 20110 30169 40183 53004 60006 80000 92100=
07790,1996-06-18 00:00:00,18,1018.2,-0.1,68,12,500,7.408,,,260,,,,,,,,,,,wg-a,,,,AAXX 18004 07790 12/00 02604 10180 20120 30168 40182 58001 60006 80000 90000=
07790,1996-06-18 03:00:00,17,1018,-0.2,68,11,15000,7.408,,,220,,,,,,,,,,,wg-a,,,,AAXX 18034 07790 12/65 12204 10170 20110 30166 40180 55002 60006 81030 90300=
07790,1996-06-18 06:00:00,21,1018.1,0.1,64,14,10000,11.112,,,240,16.8,24.9,,,,,,,,,wg-a,,,,AAXX 18064 07790 02/60 /2406 10210 20140 30167 40181 53001 60006 90600 333 10249 20168 60004=
07790,1996-06-18 09:00:00,27,1017.8,-0.3,39,12,11000,14.816,,,150,,,,,,,,,,,wg-a,,,,AAXX 18094 07790 12/61 /1508 10270 20120 30164 40178 57003 60006 90900=
07790,1996-06-18 12:00:00,27,1017.5,-0.3,45,14,11000,11.112,,,110,,,,,,,,,,,wg-a,,,,AAXX 18124 07790 12/61 /1106 10270 20140 30161 40175 58003 60006 91200=
07790,1996-06-18 15:00:00,27,1016.6,-0.9,48,15,20000,11.112,,,140,,,,,,,,,,,wg-a,,,,AAXX 18154 07790 12570 61406 10270 20150 30152 40166 56009 60006 84801 91500=
07790,1996-06-18 18:00:00,24,1015.3,-1.3,65,17,12000,7.408,,,90,21.4,27.9,,,,,,,,,wg-a,,,,AAXX 18184 07790 12562 20904 10240 20170 30139 40153 56013 60006 81101 91800 333 10279 20214=
07790,1996-06-18 21:00:00,20,1015.8,0.5,78,16,10000,7.408,,,240,,,,,,,,,,,wg-a,,,,AAXX 18214 07790 12/60 32404 10200 20160 30144 40158 53005 60006 80001 92100=
07790,1996-06-19 00:00:00,18,1015.1,-0.7,83,15,10000,11.112,,,230,,,,,,,,,,,wg-a,,,,AAXX 19004 07790 12/60 22306 10180 20150 30137 40151 58007 60006 80001 90000=
07790,1996-06-19 03:00:00,17,1013.9,-1.2,82,14,10000,7.408,,,230,,,,,,,,,,,wg-a,,,,AAXX 19034 07790 12660 22304 10170 20140 30125 40139 56012 60006 81101 90300=
07790,1996-06-19 09:00:00,25,1014.4,0.2,69,19,15000,11.112,,,100,,,,,,,,,,,wg-a,,,,AAXX 19094 07790 12565 21006 10250 20190 30130 40144 50002 60006 82100 90900=
07790,1996-06-19 12:00:00,26,1014,-0.4,61,18,15000,11.112,,,120,,,,,,,,,,,wg-a,,,,AAXX 19124 07790 12465 31206 10260 20180 30126 40140 58004 60006 82130 91200=
07790,1996-06-19 15:00:00,26,1012.9,-1.1,58,17,20000,7.408,,,110,,,,,,,,,,,wg-a,,,,AAXX 19154 07790 12570 /1104 10260 20170 30115 40129 57011 60006 81101 91500=
07790,1996-06-19 18:00:00,24,1012.4,-0.5,74,19,15000,3.704,,,90,19.9,27,,,,,,,,,wg-a,,,,AAXX 19184 07790 12765 20902 10240 20190 30110 40124 56005 60006 81502 91800 333 10270 20199=
07790,1996-06-19 21:00:00,20,1012.7,0.3,88,18,12000,3.704,,,260,,,,,,,,,,,wg-a,,,,AAXX 19214 07790 12/62 12602 10200 20180 30113 40127 53003 60006 80002 92100=
07790,1996-06-20 00:00:00,18,1012.5,-0.2,88,16,12000,7.408,,,230,,,,,,,,,,,wg-a,,,,AAXX 20004 07790 12/62 12304 10180 20160 30111 40125 58002 60006 80001 90000=
07790,1996-06-20 03:00:00,17,1012.3,-0.2,88,15,10000,7.408,,,240,,,,,,,,,,,wg-a,,,,AAXX 20034 07790 12/60 32404 10170 20150 30109 40123 55002 60006 80002 90300=
07790,1996-06-20 06:00:00,22,1011.8,-0.5,69,16,11000,7.408,,,220,17,24.1,,,,,,,,,wg-a,,,,AAXX 20064 07790 02/61 /2204 10220 20160 30104 40118 57005 60006 90600 333 10241 20170 60004=
07790,1996-06-20 09:00:00,27,1012.3,0.5,58,18,12000,14.816,,,140,,,,,,,,,,,wg-a,,,,AAXX 20094 07790 12662 31408 10270 20180 30109 40123 51005 60006 81102 90900=
07790,1996-06-20 12:00:00,27,1011.6,-0.7,62,19,15000,14.816,,,140,,,,,,,,,,,wg-a,,,,AAXX 20124 07790 12565 21408 10270 20190 30102 40116 58007 60006 82100 91200=
07790,1996-06-20 15:00:00,27,1010.9,-0.7,62,19,15000,11.112,,,120,,,,,,,,,,,wg-a,,,,AAXX 20154 07790 12665 41206 10270 20190 30095 40109 58007 60006 82201 91500=
07790,1996-06-20 18:00:00,25,1009.9,-1,79,21,9000,11.112,,,10,21.5,27.8,,,,,,,,,wg-a,,,,AAXX 20184 07790 12659 40106 10250 20210 30085 40099 56010 60006 81201 91800 333 10278 20215=
07790,1996-06-20 21:00:00,22,1011,1.1,88,20,12000,11.112,,,310,,,,,,,,,,,wg-a,,,,AAXX 20214 07790 12/62 /3106 10220 20200 30096 40110 53011 60006 80000 92100=
07790,1996-06-21 00:00:00,20,1010.5,-0.5,88,18,11000,7.408,,,220,,,,,,,,,,,wg-a,,,,AAXX 21004 07790 12/61 /2204 10200 20180 30091 40105 58005 60006 90000=
07790,1996-06-21 03:00:00,19,1009.6,-0.9,88,17,12000,7.408,,,230,,,,,,,,,,,wg-a,,,,AAXX 21034 07790 12/62 /2304 10190 20170 30082 40096 56009 60006 81030 90300=
07790,1996-06-21 06:00:00,22,1009.9,0.3,73,17,12000,11.112,,,230,18.5,24.6,,,,,,,,,wg-a,,,,AAXX 21064 07790 02462 32306 10220 20170 30085 40099 53003 60006 81580 90600 333 10246 20185 60004=
07790,1996-06-21 09:00:00,26,1009.4,-0.5,70,20,15000,14.816,,,110,,,,,,,,,,,wg-a,,,,AAXX 21094 07790 12465 31108 10260 20200 30080 40094 58005 60006 83200 90900=
07790,1996-06-21 12:00:00,28,1008,-1.4,66,21,15000,25.928,,,140,,,,,,,,,,,wg-a,,,,AAXX 21124 07790 12465 21414 10280 20210 30066 40080 58014 60006 82200 91200=
07790,1996-06-21 18:00:00,24,1004.6,-2.6,83,21,500,29.632,,40.744,160,21.9,27.8,,,,,,,,1,wg-a,,,,AAXX 21184 07790 32300 41616 10240 20210 30032 40046 58026 70198 8398/ 91800 333 10278 20219 91022=
07790,1996-06-21 21:00:00,23,1004.7,0.1,89,21,17000,18.52,,57.412,180,,,,,,,,,,,wg-a,,,,AAXX 21214 07790 12/67 /1810 10230 20210 30033 40047 51001 60006 80000 92100 333 91031=
07790,1996-06-22 00:00:00,20,1003.5,-1.2,83,17,18000,3.704,,57.412,170,,,,,,,,,,,wg-a,,,,AAXX 22004 07790 12/68 01702 10200 20170 30021 40035 58012 60006 80000 90000 333 91031=
07790,1996-06-22 03:00:00,20,1003.1,-0.4,88,18,18000,7.408,,,320,,,,0,,,,,,,wg-a,,,,AAXX 22034 07790 12568 33204 10200 20180 30017 40031 56004 60007 83500 90300=
07790,1996-06-22 06:00:00,22,1004.1,1,69,16,10000,7.408,,,340,19.2,23.9,,,,,,,,17,wg-a,,,,AAXX 22064 07790 02460 63404 10220 20160 30027 40041 52010 60004 71798 86900 90600 333 10239 20192 61000=
07790,1996-06-22 09:00:00,24,1003.2,-0.9,38,9,15000,14.816,,,230,,,,,,,,,,3,wg-a,,,,AAXX 22094 07790 12565 62308 10240 20090 30018 40032 56009 60006 70391 84303 90900=
07790,1996-06-22 12:00:00,28,1003.2,0,30,9,25000,22.224,,42.596,230,,,,,,,,,,1,wg-a,,,,AAXX 22124 07790 12675 42312 10280 20090 30018 40032 50000 60006 70191 83302 91200 333 91023=
07790,1996-06-22 15:00:00,25,1004.1,0.9,26,4,20000,22.224,,,190,,,,,,,,,,,wg-a,,,,AAXX 22154 07790 12670 /1912 10250 20040 30027 40041 53009 60006 81101 91500=
07790,1996-06-22 18:00:00,22,1004.3,0.2,29,3,15000,14.816,,,290,21.6,28.1,,,,,,,,,wg-a,,,,AAXX 22184 07790 12665 /2908 10220 20030 30029 40043 53002 60006 81100 91800 333 10281 20216=
07790,1996-06-22 21:00:00,20,1007.2,2.9,32,3,10000,35.188,,66.672,300,,,,,,,,,,,wg-a,,,,AAXX 22214 07790 12/60 /3019 10200 20030 30058 40072 53029 60006 92100 333 91036=
07790,1996-06-23 00:00:00,16,1009.3,2.1,63,9,0,11.112,,,100,,,,0,,,,,,,wg-a,,,,AAXX 23004 07790 02/// /1006 10160 20090 30079 40093 50021 60016 90000 333 60007=
07790,1996-06-23 03:00:00,15,1010.8,1.5,63,8,15000,11.112,,,310,,,,,,,,,,,wg-a,,,,AAXX 23034 07790 12665 /3106 10150 20080 30094 40108 51015 60006 81500 90300=
07790,1996-06-23 06:00:00,20,1012.1,1.3,37,5,11000,7.408,,,210,13.8,21.8,,,,,1,,,,wg-a,,,,AAXX 23064 07790 12/61 /2104 10200 20050 30107 40121 52013 60014 90600 333 10218 20138=
07790,1996-06-23 09:00:00,25,1013.2,1.1,18,-1,500,18.52,,,320,,,,,,,,,,,wg-a,,,,AAXX 23094 07790 12600 /3210 10250 21010 30118 40132 51011 60006 81200 90900=
07790,1996-06-23 12:00:00,24,1014.4,1.2,38,9,500,18.52,,,110,,,,,,,,,,,wg-a,,,,AAXX 23124 07790 12600 21110 10240 20090 30130 40144 51012 60006 82200 91200=
07790,1996-06-23 15:00:00,23,1014.6,0.2,41,9,25000,11.112,,,140,,,,,,,,,,,wg-a,,,,AAXX 23154 07790 12675 61406 10230 20090 30132 40146 51002 60006 85801 91500=
07790,1996-06-23 18:00:00,22,1014.6,-0,38,7,20000,11.112,,,140,,,,,,,,,,,wg-a,,,,AAXX 23184 07790 12670 /1406 10220 20070 30132 40146 55000 60006 81101 91800=
07790,1996-06-23 21:00:00,15,1015.4,0.8,72,10,20000,3.704,,,250,,,,,,,,,,,wg-a,,,,AAXX 23214 07790 12/70 02502 10150 20100 30140 40154 50008 60006 80000 92100=
07790,1996-06-24 00:00:00,17,1015.4,0,72,12,15000,3.704,,,270,,,,,,,,,,,wg-a,,,,AAXX 24004 07790 12665 22702 10170 20120 30140 40154 50000 60006 82500 90000=
07790,1996-06-24 03:00:00,16,1015.5,0.1,72,11,15000,7.408,,,230,,,,,,,,,,,wg-a,,,,AAXX 24034 07790 12565 42304 10160 20110 30141 40155 53001 60006 84500 90300=
07790,1996-06-24 06:00:00,17,1016.1,0.6,72,12,15000,7.408,,,250,14.2,21.9,,,,,,,,60,wg-a,,,,AAXX 24064 07790 02565 62504 10170 20120 30147 40161 52006 61000 76061 86800 90600 333 10219 20142 6100=
07790,1996-06-24 09:00:00,21,1016.7,0.6,60,13,15000,14.816,,,80,,,,0,,,,,,19,wg-a,,,,AAXX 24094 07790 12565 70808 10210 20130 30153 40167 51006 60007 71996 87900 90900=
07790,1996-06-24 12:00:00,21,1016.4,-0.3,64,14,15000,14.816,,,60,,,,,,,,,,29,wg-a,,,,AAXX 24124 07790 12565 70608 10210 20140 30150 40164 58003 60006 72996 86901 91200=
07790,1996-06-24 15:00:00,16,1016.7,0.3,82,13,15000,22.224,,,260,,,,0,,,,,,60,wg-a,,,,AAXX 24154 07790 12565 72612 10160 20130 30153 40167 53003 60007 76062 86970 91500=
07790,1996-06-24 18:00:00,15,1017,0.3,88,13,6000,0,,,0,14.5,22.3,,2,,,,,,60,wg-a,,,,AAXX 24184 07790 12556 80000 10150 20130 30156 40170 50003 60027 76098 879// 91800 333 10223 20145=
07790,1996-06-24 21:00:00,13,1017.6,0.6,94,12,10000,11.112,,,240,,,,7,,,,,,61,wg-a,,,,AAXX 24214 07790 12560 /2406 10130 20120 30162 40176 50006 60077 76196 85900 92100=
07790,1996-06-25 00:00:00,11,1017,-0.7,94,10,18000,7.408,,,220,,,,0,,,,,,21,wg-a,,,,AAXX 25004 07790 02568 32204 10110 20100 30155 40170 56007 60076 72196 81230 90000 333 60007=
07790,1996-06-25 03:00:00,11,1016.6,-0.4,87,9,10000,11.112,,,240,,,,,,,,,,,wg-a,,,,AAXX 25034 07790 12560 22406 10110 20090 30151 40166 55004 60006 81133 90300=
07790,1996-06-25 06:00:00,15,1016.2,-0.3,82,12,15000,7.408,,,220,10.7,15.3,,,,,10,,,,wg-a,,,,AAXX 25064 07790 12565 52204 10150 20120 30148 40162 58003 60104 81283 90600 333 10153 20107=
07790,1996-06-25 09:00:00,20,1016.6,0.4,53,10,15000,11.112,,,40,,,,,,,,,,,wg-a,,,,AAXX 25094 07790 12565 40406 10200 20100 30152 40166 50004 60006 81983 90900=
07790,1996-06-25 12:00:00,21,1015.7,-0.9,56,12,25000,18.52,,,20,,,,,,,,,,,wg-a,,,,AAXX 25124 07790 12575 20210 10210 20120 30143 40157 57009 60006 82902 91200=
07790,1996-06-25 15:00:00,21,1015.6,-0.1,60,13,20000,25.928,,,40,,,,,,,,,,,wg-a,,,,AAXX 25154 07790 12670 40414 10210 20130 30142 40156 55001 60006 84800 91500=
07790,1996-06-25 18:00:00,20,1015.6,-0,60,12,20000,11.112,,,20,14.7,21.8,,,,,,,,,wg-a,,,,AAXX 25184 07790 12670 /0206 10200 20120 30142 40156 55000 60006 81801 91800 333 10218 20147=
07790,1996-06-25 21:00:00,15,1016.3,0.7,77,11,35000,3.704,,,230,,,,,,,,,,,wg-a,,,,AAXX 25214 07790 12581 /2302 10150 20110 30149 40163 52007 60006 81100 92100=
07790,1996-06-26 00:00:00,16,1016.2,-0.1,68,10,35000,14.816,,,250,,,,,,,,,,,wg-a,,,,AAXX 26004 07790 12581 12508 10160 20100 30148 40162 58001 60006 81100 90000=
07790,1996-06-26 03:00:00,15,1015.3,-0.9,72,10,35000,18.52,,,220,,,,,,,,,,13,wg-a,,,,AAXX 26034 07790 12581 /2210 10150 20100 30139 40153 56009 60006 71300 81903 90300=
07790,1996-06-26 06:00:00,17,1015.6,0.3,72,12,35000,3.704,,,260,14.6,20.1,,0,,,,,,60,wg-a,,,,AAXX 26064 07790 02581 72602 10170 20120 30142 40156 53003 60004 76096 83919 90600 333 10201 20146 60007=
07790,1996-06-26 09:00:00,23,1015.6,-0,50,12,25000,11.112,,,210,,,,,,,,,,3,wg-a,,,,AAXX 26094 07790 02575 32106 10230 20120 30142 40156 54000 61000 70361 82201 90900 333 ////=
07790,1996-06-26 12:00:00,22,1016.2,0.6,53,12,11000,14.816,,,120,,,,,,,,,,,wg-a,,,,AAXX 26124 07790 12/61 /1208 10220 20120 30148 40162 53006 60006 91200=
07790,1996-06-26 15:00:00,21,1016.2,0,49,10,500,25.928,,,250,,,,,,,,,,29,wg-a,,,,AAXX 26154 07790 12500 72514 10210 20100 30148 40162 50000 60006 72992 8437/ 91500=
07790,1996-06-26 18:00:00,21,1016.7,0.5,60,13,500,18.52,,,340,16.8,23.8,,,,,,,,1,wg-a,,,,AAXX 26184 07790 32600 /3410 10210 20130 30153 40167 53005 70192 81863 91800 333 10238 20168=
07790,1996-06-26 21:00:00,17,1018.6,1.9,77,13,15000,7.408,,,250,,,,,,,,,,,wg-a,,,,AAXX 26214 07790 12565 /2504 10170 20130 30172 40186 51019 60006 81200 92100=
07790,1996-06-27 00:00:00,15,1018.9,0.3,82,12,15000,14.816,,,240,,,,,,,,,,,wg-a,,,,AAXX 27004 07790 12/65 42408 10150 20120 30175 40189 50003 60006 81032 90000=
07790,1996-06-27 03:00:00,14,1018.6,-0.3,82,11,15000,11.112,,,230,,,,,,,,,,,wg-a,,,,AAXX 27034 07790 12565 /2306 10140 20110 30172 40186 55003 60006 81900 90300=
07790,1996-06-27 06:00:00,19,1019.2,0.6,60,11,20000,14.816,,,250,13.7,21.4,,,,,,,,,wg-a,,,,AAXX 27064 07790 02570 /2508 10190 20110 30178 40192 51006 60006 81801 90600 333 10214 20137 60004=
07790,1996-06-27 09:00:00,23,1020.5,1.3,53,13,500,18.52,,,40,,,,,,,,,,,wg-a,,,,AAXX 27094 07790 12500 20410 10230 20130 30191 40205 51013 60006 81830 90900=
07790,1996-06-27 12:00:00,23,1021.2,0.7,53,13,25000,11.112,,,10,,,,,,,,,,,wg-a,,,,AAXX 27124 07790 12575 20106 10230 20130 30198 40212 50007 60006 81232 91200=
07790,1996-06-27 15:00:00,23,1020.7,-0.5,50,12,500,11.112,,,30,,,,,,,,,,,wg-a,,,,AAXX 27154 07790 12500 30306 10230 20120 30193 40207 58005 60006 81202 91500=
07790,1996-06-27 18:00:00,22,1020.8,0.1,60,14,500,3.704,,,60,18.8,23.6,,,,,,,,,wg-a,,,,AAXX 27184 07790 12500 /0602 10220 20140 30194 40208 53001 60006 81102 91800 333 10236 20188=
07790,1996-06-27 21:00:00,17,1022.3,1.5,77,13,2000,3.704,,,240,,,,,,,,,,,wg-a,,,,AAXX 27214 07790 12/20 /2402 10170 20130 30209 40223 53015 60006 92100=
07790,1996-06-28 00:00:00,16,1022.5,0.2,82,13,10000,11.112,,,220,,,,,,,,,,,wg-a,,,,AAXX 28004 07790 12/60 /2206 10160 20130 30211 40225 50002 60006 90000=
07790,1996-06-28 03:00:00,16,1022.2,-0.3,77,12,10000,18.52,,,240,,,,,,,,,,,wg-a,,,,AAXX 28034 07790 12/60 12410 10160 20120 30208 40222 56003 60006 80001 90300=
07790,1996-06-28 06:00:00,20,1022.8,0.6,56,11,15000,14.816,,,240,15.4,22.6,,,,,,,,,wg-a,,,,AAXX 28064 07790 02/65 02408 10200 20110 30214 40228 53006 60006 80000 90600 333 10226 20154 60004=
07790,1996-06-28 09:00:00,24,1023.2,0.4,57,15,11000,14.816,,,120,,,,,,,,,,,wg-a,,,,AAXX 28094 07790 12/61 /1208 10240 20150 30218 40232 53004 60006 90900=
07790,1996-06-28 12:00:00,25,1022.7,-0.5,57,16,15000,14.816,,,150,,,,,,,,,,,wg-a,,,,AAXX 28124 07790 12665 /1508 10250 20160 30213 40227 58005 60006 82101 91200=
07790,1996-06-28 15:00:00,26,1021.5,-1.2,51,15,11000,14.816,,,130,,,,,,,,,,,wg-a,,,,AAXX 28154 07790 12/61 /1308 10260 20150 30201 40215 58012 60006 91500=
07790,1996-06-28 18:00:00,23,1020.6,-0.9,65,16,15000,3.704,,,130,19.5,25.9,,,,,,,,,wg-a,,,,AAXX 28184 07790 12665 51302 10230 20160 30192 40206 56009 60006 85801 91800 333 10259 20195=
07790,1996-06-28 21:00:00,19,1020.7,0.1,78,15,10000,7.408,,,250,,,,,,,,,,,wg-a,,,,AAXX 28214 07790 12/60 02504 10190 20150 30193 40207 53001 60006 80000 92100=
07790,1996-06-29 00:00:00,17,1020.5,-0.2,82,14,10000,7.408,,,260,,,,,,,,,,,wg-a,,,,AAXX 29004 07790 12/60 02604 10170 20140 30191 40205 58002 60006 80000 90000=
07790,1996-06-29 03:00:00,16,1019.5,-1,82,13,10000,7.408,,,230,,,,,,,,,,,wg-a,,,,AAXX 29034 07790 12/60 02304 10160 20130 30181 40195 56010 60006 80000 90300=
07790,1996-06-29 06:00:00,19,1019.6,0.1,68,13,12000,7.408,,,230,15.4,23.4,,,,,,,,,wg-a,,,,AAXX 29064 07790 02/62 02304 10190 20130 30182 40196 53001 60006 80000 90600 333 10234 20154 60004=
07790,1996-06-29 09:00:00,24,1019.2,-0.4,65,17,15000,11.112,,,100,,,,,,,,,,,wg-a,,,,AAXX 29094 07790 12665 21006 10240 20170 30178 40192 58004 60006 81102 90900=
07790,1996-06-29 12:00:00,26,1018.2,-1,48,14,15000,14.816,,,90,,,,,,,,,,,wg-a,,,,AAXX 29124 07790 12665 /0908 10260 20140 30168 40182 58010 60006 81181 91200=
07790,1996-06-29 15:00:00,26,1016.6,-1.6,37,10,15000,11.112,,,90,,,,,,,,,,,wg-a,,,,AAXX 29154 07790 12665 30906 10260 20100 30152 40166 56016 60006 81102 91500=
07790,1996-06-29 18:00:00,23,1015.5,-1.1,69,17,11000,7.408,,,60,18.9,26.6,,,,,,,,,wg-a,,,,AAXX 29184 07790 12/61 /0604 10230 20170 30141 40155 56011 60006 91800 333 10266 20189=
07790,1996-06-29 21:00:00,19,1015.1,-0.4,83,16,15000,7.408,,,280,,,,,,,,,,,wg-a,,,,AAXX 29214 07790 12465 72804 10190 20160 30137 40151 56004 60006 81632 92100=
07790,1996-06-30 00:00:00,20,1013.4,-1.7,68,14,20000,14.816,,,190,,,,,,,,,,,wg-a,,,,AAXX 30004 07790 12/70 51908 10200 20140 30120 40134 58017 60006 80001 90000=
07790,1996-06-30 03:00:00,18,1012,-1.4,68,12,25000,7.408,,,210,,,,,,,,,,,wg-a,,,,AAXX 30034 07790 12475 52104 10180 20120 30106 40120 58014 60006 81101 90300=
07790,1996-06-30 06:00:00,19,1012.4,0.4,73,14,15000,3.704,,,220,17,23.2,,,,,,,,,wg-a,,,,AAXX 30064 07790 02365 72202 10190 20140 30110 40124 52004 60006 81602 90600 333 10232 20170 60004=
07790,1996-06-30 09:00:00,24,1013.1,0.7,74,19,8000,14.816,,,20,,,,,,,,,,,wg-a,,,,AAXX 30094 07790 12458 70208 10240 20190 30117 40131 51007 60006 83202 90900=
07790,1996-06-30 12:00:00,25,1013.9,0.8,69,19,12000,11.112,,,50,,,,,,,,,,,wg-a,,,,AAXX 30124 07790 12462 40506 10250 20190 30125 40139 51008 60006 83202 91200=
07790,1996-06-30 15:00:00,26,1013,-0.9,48,14,20000,3.704,,,190,,,,,,,,,,,wg-a,,,,AAXX 30154 07790 12570 /1902 10260 20140 30116 40130 56009 60006 81101 91500=
07790,1996-06-30 18:00:00,24,1012.7,-0.3,65,17,20000,14.816,,,70,18.9,26.6,,,,,,,,,wg-a,,,,AAXX 30184 07790 12/70 10708 10240 20170 30113 40127 56003 60006 80001 91800 333 10266 20189=
07790,1996-06-30 21:00:00,20,1014.1,1.4,83,17,20000,7.408,,,230,,,,,,,,,,,wg-a,,,,AAXX 30214 07790 12/70 02304 10200 20170 30127 40141 50014 60006 80000 92100=
07790,1996-07-01 00:00:00,18,1013.6,-0.5,88,16,20000,7.408,,,240,,,,,,,,,,,wg-a,,,,AAXX 01004 07790 12570 /2404 10180 20160 30122 40136 57005 60006 85500 90000=
07790,1996-07-01 03:00:00,19,1012,-1.6,83,16,15000,3.704,,,240,,,,,,,,,,,wg-a,,,,AAXX 01034 07790 12565 72402 10190 20160 30106 40120 58016 60006 875// 90300=
07790,1996-07-01 06:00:00,20,1011.9,-0.1,83,17,15000,3.704,,,220,18.2,24.4,,,,,,,,,wg-a,,,,AAXX 01064 07790 02565 42202 10200 20170 30105 40119 58001 60006 84500 90600 333 10244 20182 60004=
07790,1996-07-01 09:00:00,25,1011.5,-0.4,65,18,15000,14.816,,,140,,,,,,,,,,,wg-a,,,,AAXX 01094 07790 12465 /1408 10250 20180 30101 40115 56004 60006 85500 90900=
07790,1996-07-01 15:00:00,26,1010.5,-0.7,61,18,12000,14.816,,,120,,,,,,,,,,,wg-a,,,,AAXX 01154 07790 12562 /1208 10260 20180 30091 40105 57007 60006 81500 91500=
07790,1996-07-01 18:00:00,23,1010.5,-0,78,19,10000,3.704,,,90,20.2,26.8,,,,,,,,,wg-a,,,,AAXX 01184 07790 12660 30902 10230 20190 30091 40105 55000 60006 91800 333 10268 20202=
07790,1996-07-02 00:00:00,19,1010.7,-0.2,83,16,20000,3.704,,,250,,,,,,,,,,,wg-a,,,,AAXX 02004 07790 12470 22502 10190 20160 30093 40107 58002 60006 82100 90000=
07790,1996-07-02 03:00:00,17,1010,-0.7,88,15,20000,11.112,,,220,,,,,,,,,,,wg-a,,,,AAXX 02034 07790 12570 32206 10170 20150 30086 40100 58007 60006 81540 90300=
07790,1996-07-02 06:00:00,21,1010.7,0.7,69,15,15000,7.408,,,220,17.3,22.9,,,,,,,,,wg-a,,,,AAXX 02064 07790 02465 22204 10210 20150 30093 40107 52007 60006 81170 90600 333 10229 20173 60004=
07790,1996-07-02 09:00:00,25,1011.1,0.4,69,19,12000,7.408,,,80,,,,,,,,,,,wg-a,,,,AAXX 02094 07790 12562 40804 10250 20190 30097 40111 53004 60006 83130 90900=
07790,1996-07-02 12:00:00,25,1010.1,-1,69,19,10000,11.112,,,90,,,,,,,,,,,wg-a,,,,AAXX 02124 07790 12560 70906 10250 20190 30087 40101 58010 60006 82101 91200=
07790,1996-07-02 15:00:00,25,1010.1,0,69,19,10000,11.112,,,150,,,,,,,,,,,wg-a,,,,AAXX 02154 07790 12560 71506 10250 20190 30087 40101 50000 60006 81832 91500=
07790,1996-07-02 18:00:00,24,1009.4,-0.7,74,19,8000,11.112,,,150,20.6,26.4,,,,,,,,,wg-a,,,,AAXX 02184 07790 12458 71506 10240 20190 30080 40094 56007 60006 82809 91800 333 10264 20206=
07790,1996-07-02 21:00:00,20,1009.6,0.2,83,17,10000,11.112,,,350,,,,1,,,,,,29,wg-a,,,,AAXX 02214 07790 12460 63506 10200 20170 30082 40096 53002 60017 72998 83982 92100=
07790,1996-07-03 00:00:00,20,1009.4,-0.2,78,16,15000,3.704,,,110,,,,,,,,,,1,wg-a,,,,AAXX 03004 07790 12765 71102 10200 20160 30080 40094 58002 60016 70198 82982 90000=
07790,1996-07-03 03:00:00,19,1009.7,0.3,73,14,15000,7.408,,,250,,,,,,,,,,,wg-a,,,,AAXX 03034 07790 12665 72504 10190 20140 30083 40097 51003 60006 8598/ 90300=
07790,1996-07-03 06:00:00,21,1010.3,0.6,60,13,50000,11.112,,,250,18.4,23.9,,,,,1,,,,wg-a,,,,AAXX 03064 07790 12584 /2506 10210 20130 30089 40103 53006 60014 81140 90600 333 10239 20184=
07790,1996-07-03 09:00:00,25,1012,1.7,54,15,50000,14.816,,,130,,,,,,,,,,,wg-a,,,,AAXX 03094 07790 12584 /1308 10250 20150 30106 40120 53017 60006 81500 90900=
07790,1996-07-03 12:00:00,26,1013.3,1.3,45,13,40000,18.52,,,150,,,,,,,,,,,wg-a,,,,AAXX 03124 07790 12582 31510 10260 20130 30119 40133 51013 60006 83200 91200=
07790,1996-07-03 15:00:00,26,1014.4,1.1,48,14,35000,29.632,,,350,,,,,,,,,,,wg-a,,,,AAXX 03154 07790 12681 23516 10260 20140 30130 40144 51011 60006 82200 91500=
07790,1996-07-03 18:00:00,24,1015.2,0.8,54,14,35000,7.408,,,180,21.6,27.8,,,,,,,,,wg-a,,,,AAXX 03184 07790 12581 /1804 10240 20140 30138 40152 52008 60006 81500 91800 333 10278 20216=
07790,1996-07-03 21:00:00,19,1016.9,1.7,78,15,500,3.704,,,150,,,,,,,,,,,wg-a,,,,AAXX 03214 07790 12/00 01502 10190 20150 30155 40169 51017 60006 80000 92100=
07790,1996-07-04 00:00:00,18,1017.7,0.8,73,13,0,7.408,,,260,,,,,,,,,,,wg-a,,,,AAXX 04004 07790 12/// /2604 10180 20130 30163 40177 53008 60006 90000=
07790,1996-07-04 03:00:00,16,1017.7,-0,77,12,40000,14.816,,,240,,,,,,,,,,,wg-a,,,,AAXX 04034 07790 12/82 02408 10160 20120 30163 40177 55000 60006 80000 90300=
07790,1996-07-04 06:00:00,20,1018.4,0.7,56,11,40000,14.816,,,220,15.5,24,,,,,,,,,wg-a,,,,AAXX 04064 07790 02/82 02208 10200 20110 30170 40184 52007 60006 80000 90600 333 10240 20155 60004=
07790,1996-07-04 09:00:00,25,1018.8,0.4,61,17,40000,14.816,,,140,,,,,,,,,,,wg-a,,,,AAXX 04094 07790 12682 /1408 10250 20170 30174 40188 51004 60006 81100 90900=
07790,1996-07-04 12:00:00,26,1019.2,0.4,58,17,500,22.224,,,150,,,,,,,,,,,wg-a,,,,AAXX 04124 07790 12600 21512 10260 20170 30178 40192 50004 60006 82100 91200=
07790,1996-07-04 15:00:00,27,1018.9,-0.3,54,17,500,18.52,,,140,,,,,,,,,,,wg-a,,,,AAXX 04154 07790 12600 21410 10270 20170 30175 40189 58003 60006 82800 91500=
07790,1996-07-04 18:00:00,25,1018.7,-0.2,50,14,500,3.704,,,110,19.9,27.2,,,,,,,,,wg-a,,,,AAXX 04184 07790 12600 /1102 10250 20140 30173 40187 56002 60006 81100 91800 333 10272 20199=
07790,1996-07-04 21:00:00,21,1019.4,0.7,83,18,500,7.408,,,320,,,,,,,,,,,wg-a,,,,AAXX 04214 07790 12/00 13204 10210 20180 30180 40194 53007 60006 80001 92100=
07790,1996-07-05 00:00:00,19,1018.2,-1.2,83,16,20000,7.408,,,230,,,,,,,,,,,wg-a,,,,AAXX 05004 07790 12/70 12304 10190 20160 30168 40182 58012 60006 80001 90000=
07790,1996-07-05 03:00:00,17,1017.3,-0.9,94,16,15000,7.408,,,240,,,,,,,,,,,wg-a,,,,AAXX 05034 07790 12/65 12404 10170 20160 30159 40173 56009 60006 80001 90300=
07790,1996-07-05 06:00:00,21,1017.2,-0.1,78,17,20000,3.704,,,210,17.1,24.9,,,,,,,,,wg-a,,,,AAXX 05064 07790 02/70 02102 10210 20170 30158 40172 56001 60006 80000 90600 333 10249 20171 60004=
07790,1996-07-05 09:00:00,25,1016.6,-0.6,65,18,20000,11.112,,,140,,,,,,,,,,,wg-a,,,,AAXX 05094 07790 12570 /1406 10250 20180 30152 40166 58006 60006 81500 90900=
07790,1996-07-05 12:00:00,26,1015.4,-1.2,65,19,20000,18.52,,,130,,,,,,,,,,,wg-a,,,,AAXX 05124 07790 12570 /1310 10260 20190 30140 40154 58012 60006 81500 91200=
07790,1996-07-05 15:00:00,26,1013.7,-1.7,65,19,15000,18.52,,,140,,,,,,,,,,,wg-a,,,,AAXX 05154 07790 12565 21410 10260 20190 30123 40137 58017 60006 82101 91500=
07790,1996-07-05 18:00:00,24,1012.1,-1.6,78,20,12000,11.112,,,140,20.7,26.7,,,,,,,,,wg-a,,,,AAXX 05184 07790 12562 41406 10240 20200 30107 40121 56016 60006 83832 91800 333 10267 20207=
07790,1996-07-05 21:00:00,21,1011.8,-0.3,94,20,18000,3.704,,,210,,,,,,,,,,,wg-a,,,,AAXX 05214 07790 12/68 02102 10210 20200 30104 40118 55003 60006 80000 92100=
07790,1996-07-06 00:00:00,20,1010.4,-1.4,94,19,6000,3.704,,,290,,,,,,,,,,,wg-a,,,,AAXX 06004 07790 12456 72902 10200 20190 30090 40104 57014 60006 875// 90000=
07790,1996-07-06 03:00:00,20,1009.1,-1.3,88,18,20000,7.408,,,220,,,,,,,,,,,wg-a,,,,AAXX 06034 07790 12570 22204 10200 20180 30077 40091 56013 60006 82500 90300=
07790,1996-07-06 06:00:00,22,1009.5,0.4,73,17,11000,7.408,,,220,18.9,23.4,,,,,,,,0,wg-a,,,,AAXX 06064 07790 12761 /2204 10220 20170 30081 40095 53004 60006 700// 81800 90600 333 10234 20189=
07790,1996-07-06 09:00:00,26,1010,0.5,65,19,20000,11.112,,,130,,,,,,,,,,,wg-a,,,,AAXX 06094 07790 12570 /1306 10260 20190 30086 40100 53005 60006 81140 90900=
07790,1996-07-06 12:00:00,28,1009.6,-0.4,58,19,20000,11.112,,,100,,,,,,,,,,,wg-a,,,,AAXX 06124 07790 12670 21006 10280 20190 30082 40096 56004 60006 8/800 91200=
07790,1996-07-06 15:00:00,27,1009.1,-0.5,62,19,500,11.112,,,150,,,,,,,,,,,wg-a,,,,AAXX 06154 07790 12600 31506 10270 20190 30077 40091 56005 60006 83800 91500=
07790,1996-07-06 18:00:00,26,1008.5,-0.6,61,18,500,7.408,,,180,21.9,28.9,,,,,,,,,wg-a,,,,AAXX 06184 07790 12600 31804 10260 20180 30071 40085 56006 60006 83800 91800 333 10289 20219=
07790,1996-07-06 21:00:00,21,1008.2,-0.3,78,17,500,3.704,,,270,,,,,,,,,,,wg-a,,,,AAXX 06214 07790 12600 /2702 10210 20170 30068 40082 58003 60006 81100 92100=
07790,1996-07-07 00:00:00,21,1007.8,-0.4,73,16,25000,3.704,,,130,,,,,,,,,,,wg-a,,,,AAXX 07004 07790 12/75 31302 10210 20160 30064 40078 58004 60006 83030 90000=
07790,1996-07-07 03:00:00,19,1007,-0.8,83,16,20000,3.704,,,200,,,,,,,,,,,wg-a,,,,AAXX 07034 07790 12570 22002 10190 20160 30056 40070 56008 60006 82100 90300=
07790,1996-07-07 06:00:00,22,1007.1,0.1,69,16,12000,3.704,,,220,18.7,25.7,,,,,,,,,wg-a,,,,AAXX 07064 07790 02562 32202 10220 20160 30057 40071 50001 60006 83800 90600 333 10257 20187 60004=
07790,1996-07-07 09:00:00,26,1006.5,-0.6,65,19,12000,14.816,,,100,,,,,,,,,,,wg-a,,,,AAXX 07094 07790 12562 21008 10260 20190 30051 40065 58006 60006 82200 90900=
07790,1996-07-07 12:00:00,27,1005.6,-0.9,66,20,12000,11.112,,,100,,,,,,,,,,,wg-a,,,,AAXX 07124 07790 12562 /1006 10270 20200 30042 40056 58009 60006 81202 91200=
07790,1996-07-07 15:00:00,26,1003.7,-1.9,65,19,15000,14.816,,,100,,,,,,,,,,,wg-a,,,,AAXX 07154 07790 12565 /1008 10260 20190 30023 40037 56019 60006 81200 91500=
07790,1996-07-07 18:00:00,25,1002.7,-1,61,17,10000,7.408,,,120,22.4,27.8,,,,,,,,,wg-a,,,,AAXX 07184 07790 12560 31204 10250 20170 30013 40027 56010 60006 83500 91800 333 10278 20224=
07790,1996-07-07 21:00:00,21,1002.7,-0,78,17,12000,11.112,,,300,,,,,,,,,,,wg-a,,,,AAXX 07214 07790 12562 23006 10210 20170 30013 40027 54000 60006 81502 92100=
07790,1996-07-08 00:00:00,20,1002.7,0,88,18,15000,3.704,,,230,,,,,,,,,,,wg-a,,,,AAXX 08004 07790 12565 22302 10200 20180 30013 40027 50000 60006 81502 90000=
07790,1996-07-08 03:00:00,20,1002.1,-0.6,83,17,12000,3.704,,,150,,,,,,,,,,,wg-a,,,,AAXX 08034 07790 12562 /1502 10200 20170 30007 40021 58006 60006 84502 90300=
07790,1996-07-08 06:00:00,23,1002.5,0.4,36,7,18000,18.52,,,210,19.4,25,,,,,,,,,wg-a,,,,AAXX 08064 07790 02568 22110 10230 20070 30011 40025 50004 60006 82800 90600 333 10250 20194 60004=
07790,1996-07-08 09:00:00,24,1000.4,-2.1,34,7,45000,31.484,,77.784,280,,,,,,,,,,,wg-a,,,,AAXX 08094 07790 12583 22817 10240 20070 39990 40004 58021 60006 82240 90900 333 91042=
07790,1996-07-08 12:00:00,26,1003.5,3.1,34,9,20000,22.224,,83.34,270,,,,,,,,,,,wg-a,,,,AAXX 08124 07790 12570 52712 10260 20090 30021 40035 53031 60006 82262 91200 333 91045=
07790,1996-07-08 15:00:00,25,1007.5,4,34,8,20000,22.224,,57.412,290,,,,,,,,,,,wg-a,,,,AAXX 08154 07790 12670 42912 10250 20080 30061 40075 53040 60006 83842 91500 333 91031=
07790,1996-07-08 18:00:00,22,1007.9,0.4,35,6,12000,35.188,,57.412,260,22.4,26.6,,,,,,,,,wg-a,,,,AAXX 08184 07790 12/62 32619 10220 20060 30065 40079 53004 60006 81082 91800 333 10266 20224 91031=
07790,1996-07-08 21:00:00,20,1011.3,3.4,46,8,15000,22.224,,57.412,260,,,,,,,,,,,wg-a,,,,AAXX 08214 07790 12/65 22612 10200 20080 30099 40113 51034 60006 81042 92100 333 91031=
07790,1996-07-09 00:00:00,18,1012.9,1.6,49,7,15000,11.112,,57.412,250,,,,,,,,,,,wg-a,,,,AAXX 09004 07790 12/65 22506 10180 20070 30115 40129 51016 60006 81042 90000 333 91031=
07790,1996-07-09 03:00:00,18,1014.1,1.2,45,6,40000,18.52,,,230,,,,,,,,,,,wg-a,,,,AAXX 09034 07790 12/82 32310 10180 20060 30127 40141 52012 60006 83040 90300=
07790,1996-07-09 06:00:00,20,1015.7,1.6,43,7,500,14.816,,,230,17,22.4,,,,,,,,,wg-a,,,,AAXX 09064 07790 02600 /2308 10200 20070 30143 40157 53016 60006 81830 90600 333 10224 20170 60004=
07790,1996-07-09 09:00:00,24,1017.3,1.6,41,10,500,18.52,,,60,,,,,,,,,,,wg-a,,,,AAXX 09094 07790 12600 /0610 10240 20100 30159 40173 53016 60006 81230 90900=
07790,1996-07-09 12:00:00,25,1017.6,0.3,39,10,500,14.816,,31.484,40,,,,,,,,,,,wg-a,,,,AAXX 09124 07790 12600 20408 10250 20100 30162 40176 51003 60006 81230 91200 333 91017=
07790,1996-07-09 15:00:00,24,1018,0.4,44,11,40000,18.52,,,60,,,,,,,,,,,wg-a,,,,AAXX 09154 07790 12582 20610 10240 20110 30166 40180 50004 60006 81230 91500=
07790,1996-07-09 18:00:00,24,1018.2,0.2,31,6,40000,3.704,,,160,20.4,25.6,,,,,,,,,wg-a,,,,AAXX 09184 07790 12/82 /1602 10240 20060 30168 40182 51002 60006 80001 91800 333 10256 20204=
07790,1996-07-09 21:00:00,18,1019.3,1.1,37,3,40000,7.408,,,300,,,,,,,,,,,wg-a,,,,AAXX 09214 07790 12/82 03004 10180 20030 30179 40193 51011 60006 80000 92100=
07790,1996-07-10 00:00:00,17,1019.4,0.1,42,4,40000,11.112,,,250,,,,,,,,,,,wg-a,,,,AAXX 10004 07790 12/82 02506 10170 20040 30180 40194 53001 60006 80000 90000=
07790,1996-07-10 03:00:00,17,1018.8,-0.6,39,3,500,14.816,,,230,,,,,,,,,,,wg-a,,,,AAXX 10034 07790 12/00 02308 10170 20030 30174 40188 58006 60006 80000 90300=
07790,1996-07-10 06:00:00,21,1019.5,0.7,33,4,65000,14.816,,,230,15.7,24.2,,,,,,,,,wg-a,,,,AAXX 10064 07790 02/87 12308 10210 20040 30181 40195 53007 60006 80001 90600 333 10242 20157 60004=
07790,1996-07-10 09:00:00,27,1019.2,-0.3,32,9,65000,14.816,,,140,,,,,,,,,,,wg-a,,,,AAXX 10094 07790 12/87 11408 10270 20090 30178 40192 58003 60006 80001 90900=
07790,1996-07-10 12:00:00,27,1018.4,-0.8,28,7,11000,14.816,,,80,,,,,,,,,,,wg-a,,,,AAXX 10124 07790 12/61 /0808 10270 20070 30170 40184 58008 60006 91200=
07790,1996-07-10 15:00:00,27,1017.8,-0.6,37,11,50000,14.816,,,90,,,,,,,,,,,wg-a,,,,AAXX 10154 07790 12584 /0908 10270 20110 30164 40178 58006 60006 81101 91500=
07790,1996-07-10 18:00:00,26,1016.9,-0.9,30,7,50000,7.408,,,160,21,28.2,,,,,,,,,wg-a,,,,AAXX 10184 07790 12/84 31604 10260 20070 30155 40169 56009 60006 80001 91800 333 10282 20210=
07790,1996-07-10 21:00:00,19,1017.6,0.7,56,10,25000,3.704,,,240,,,,,,,,,,,wg-a,,,,AAXX 10214 07790 12/75 32402 10190 20100 30162 40176 53007 60006 80001 92100=
07790,1996-07-11 00:00:00,17,1017.2,-0.4,59,9,20000,11.112,,,230,,,,,,,,,,,wg-a,,,,AAXX 11004 07790 12/70 02306 10170 20090 30158 40172 58004 60006 80000 90000=
07790,1996-07-11 03:00:00,15,1016.2,-1,67,9,25000,11.112,,,230,,,,,,,,,,,wg-a,,,,AAXX 11034 07790 12/75 12306 10150 20090 30148 40162 57010 60006 80001 90300=
07790,1996-07-11 06:00:00,20,1017.3,1.1,60,12,25000,7.408,,,230,15.1,25.4,,,,,,,,,wg-a,,,,AAXX 11064 07790 02/75 02304 10200 20120 30159 40173 52011 60006 80000 90600 333 10254 20151 60004=
07790,1996-07-11 09:00:00,25,1017.3,-0,47,13,35000,14.816,,,90,,,,,,,,,,,wg-a,,,,AAXX 11094 07790 12581 10908 10250 20130 30159 40173 55000 60006 81100 90900=
07790,1996-07-11 12:00:00,27,1017,-0.3,37,11,45000,14.816,,,90,,,,,,,,,,,wg-a,,,,AAXX 11124 07790 12583 /0908 10270 20110 30156 40170 58003 60006 81100 91200=
07790,1996-07-11 15:00:00,28,1016,-1,28,8,45000,7.408,,,130,,,,,,,,,,,wg-a,,,,AAXX 11154 07790 12583 /1304 10280 20080 30146 40160 58010 60006 81200 91500=
07790,1996-07-11 18:00:00,25,1016.5,0.5,50,14,45000,7.408,,,140,20,28.1,,,,,,,,,wg-a,,,,AAXX 11184 07790 12583 /1404 10250 20140 30151 40165 53005 60006 81200 91800 333 10281 20200=
07790,1996-07-11 21:00:00,19,1017.8,1.3,56,10,500,7.408,,,230,,,,,,,,,,,wg-a,,,,AAXX 11214 07790 12/00 /2304 10190 20100 30164 40178 53013 60006 80000 92100=
07790,1996-07-12 00:00:00,18,1017.7,-0.1,59,10,500,7.408,,,230,,,,,,,,,,,wg-a,,,,AAXX 12004 07790 12/00 02304 10180 20100 30163 40177 58001 60006 80000 90000=
07790,1996-07-12 03:00:00,16,1017.5,-0.2,68,10,500,11.112,,,240,,,,,,,,,,,wg-a,,,,AAXX 12034 07790 12/00 12406 10160 20100 30161 40175 55002 60006 80001 90300=
07790,1996-07-12 06:00:00,20,1017.7,0.2,53,10,25000,11.112,,,220,16,24.7,,,,,,,,,wg-a,,,,AAXX 12064 07790 02/75 02206 10200 20100 30163 40177 53002 60006 80000 90600 333 10247 20160 60004=
07790,1996-07-12 09:00:00,26,1018.1,0.4,51,15,500,11.112,,,100,,,,,,,,,,,wg-a,,,,AAXX 12094 07790 12600 /1006 10260 20150 30167 40181 53004 60006 81100 90900=
07790,1996-07-12 12:00:00,27,1017.8,-0.3,54,17,500,14.816,,,100,,,,,,,,,,,wg-a,,,,AAXX 12124 07790 12600 /1008 10270 20170 30164 40178 58003 60006 81100 91200=
07790,1996-07-12 15:00:00,27,1017.6,-0.2,48,15,500,14.816,,,120,,,,,,,,,,,wg-a,,,,AAXX 12154 07790 12600 /1208 10270 20150 30162 40176 58002 60006 81100 91500=
07790,1996-07-12 18:00:00,25,1018.1,0.5,50,14,500,7.408,,,130,19.9,27.8,,,,,,,,,wg-a,,,,AAXX 12184 07790 12600 /1304 10250 20140 30167 40181 53005 60006 81400 91800 333 10278 20199=
07790,1996-07-12 21:00:00,20,1019.2,1.1,68,14,25000,3.704,,,330,,,,,,,,,,,wg-a,,,,AAXX 12214 07790 12/75 03302 10200 20140 30178 40192 53011 60006 80000 92100=
07790,1996-07-13 00:00:00,19,1019.5,0.3,68,13,25000,7.408,,,230,,,,,,,,,,,wg-a,,,,AAXX 13004 07790 12/75 02304 10190 20130 30181 40195 51003 60006 80000 90000=
07790,1996-07-13 03:00:00,17,1019.4,-0.1,72,12,25000,11.112,,,220,,,,,,,,,,,wg-a,,,,AAXX 13034 07790 12575 /2206 10170 20120 30180 40194 55001 60006 81100 90300=
07790,1996-07-13 06:00:00,21,1020.4,1,64,14,25000,11.112,,,230,16.7,25.3,,,,,,,,,wg-a,,,,AAXX 13064 07790 02/75 02306 10210 20140 30190 40204 52010 60006 80000 90600 333 10253 20167 60004=
07790,1996-07-13 09:00:00,27,1021,0.6,45,14,500,11.112,,,160,,,,,,,,,,,wg-a,,,,AAXX 13094 07790 12600 /1606 10270 20140 30196 40210 51006 60006 81100 90900=
07790,1996-07-13 12:00:00,26,1021.1,0.1,58,17,500,11.112,,,20,,,,,,,,,,,wg-a,,,,AAXX 13124 07790 12600 /0206 10260 20170 30197 40211 50001 60006 81200 91200=
07790,1996-07-13 15:00:00,26,1020.6,-0.5,48,14,500,11.112,,,30,,,,,,,,,,,wg-a,,,,AAXX 13154 07790 12600 /0306 10260 20140 30192 40206 57005 60006 81200 91500=
07790,1996-07-13 18:00:00,25,1020.7,0.1,61,17,500,7.408,,,20,20.6,27.7,,,,,,,,,wg-a,,,,AAXX 13184 07790 12600 /0204 10250 20170 30193 40207 53001 60006 81200 91800 333 10277 20206=
07790,1996-07-13 21:00:00,21,1021.7,1,73,16,25000,3.704,,,250,,,,,,,,,,,wg-a,,,,AAXX 13214 07790 12/75 02502 10210 20160 30203 40217 53010 60006 80000 92100=
07790,1996-07-14 00:00:00,19,1022.1,0.4,73,14,25000,3.704,,,250,,,,,,,,,,,wg-a,,,,AAXX 14004 07790 12/75 02502 10190 20140 30207 40221 51004 60006 80000 90000=
07790,1996-07-14 03:00:00,18,1021.7,-0.4,68,12,25000,3.704,,,230,,,,,,,,,,,wg-a,,,,AAXX 14034 07790 12/75 02302 10180 20120 30203 40217 57004 60006 80000 90300=
07790,1996-07-14 06:00:00,23,1022.5,0.8,50,12,500,7.408,,,220,17.6,24.8,,,,,,,,,wg-a,,,,AAXX 14064 07790 02/00 02204 10230 20120 30211 40225 53008 60006 80000 90600 333 10248 20176 60004=
07790,1996-07-14 09:00:00,28,1023,0.5,42,14,500,7.408,,,20,,,,,,,,,,,wg-a,,,,AAXX 14094 07790 12/00 20204 10280 20140 30216 40230 50005 60006 80001 90900=
07790,1996-07-14 12:00:00,31,1022,-1,27,10,500,11.112,,,40,,,,,,,,,,,wg-a,,,,AAXX 14124 07790 12600 20406 10310 20100 30206 40220 58010 60006 81101 91200=
07790,1996-07-14 15:00:00,30,1020.9,-1.1,46,17,500,11.112,,,10,,,,,,,,,,,wg-a,,,,AAXX 14154 07790 12/00 00106 10300 20170 30195 40209 58011 60006 80000 91500=
07790,1996-07-14 18:00:00,29,1019.9,-1,43,15,500,3.704,,,20,23.2,31.4,,,,,,,,,wg-a,,,,AAXX 14184 07790 12/00 00202 10290 20150 30185 40199 56010 60006 80000 91800 333 10314 20232=
07790,1996-07-14 21:00:00,25,1020.2,0.3,47,13,500,11.112,,,240,,,,,,,,,,,wg-a,,,,AAXX 14214 07790 12/00 12406 10250 20130 30188 40202 53003 60006 80001 92100=
07790,1996-07-15 00:00:00,23,1020.2,0,50,12,0,11.112,,,230,,,,,,,,,,,wg-a,,,,AAXX 15004 07790 12/// /2306 10230 20120 30188 40202 50000 60006 90000=
07790,1996-07-15 03:00:00,21,1019.5,-0.7,56,12,500,11.112,,,230,,,,,,,,,,,wg-a,,,,AAXX 15034 07790 12/00 02306 10210 20120 30181 40195 57007 60006 80000 90300=
07790,1996-07-15 06:00:00,25,1020.1,0.6,54,15,20000,7.408,,,200,20.7,28.7,,,,,,,,,wg-a,,,,AAXX 15064 07790 02/70 02004 10250 20150 30187 40201 50006 60006 80000 90600 333 10287 20207 60004=
07790,1996-07-15 09:00:00,28,1020.5,0.4,35,11,20000,11.112,,,20,,,,,,,,,,,wg-a,,,,AAXX 15094 07790 12/70 00206 10280 20110 30191 40205 50004 60006 80000 90900=
07790,1996-07-15 12:00:00,31,1019.5,-1,31,12,25000,7.408,,,70,,,,,,,,,,,wg-a,,,,AAXX 15124 07790 12775 /0704 10310 20120 30181 40195 58010 60006 81100 91200=
07790,1996-07-15 15:00:00,31,1018.4,-1.1,27,10,25000,11.112,,,80,,,,,,,,,,,wg-a,,,,AAXX 15154 07790 12775 /0806 10310 20100 30170 40184 56011 60006 81100 91500=
07790,1996-07-15 18:00:00,27,1018.1,-0.3,54,17,25000,7.408,,,20,25,31.8,,,,,,,,,wg-a,,,,AAXX 15184 07790 12/75 /0204 10270 20170 30167 40181 56003 60006 8//00 91800 333 10318 20250=
07790,1996-07-15 21:00:00,23,1018.7,0.6,61,15,20000,3.704,,,250,,,,,,,,,,,wg-a,,,,AAXX 15214 07790 12/70 02502 10230 20150 30173 40187 50006 60006 80000 92100=
07790,1996-07-16 00:00:00,21,1018.7,0,64,14,15000,11.112,,,260,,,,,,,,,,,wg-a,,,,AAXX 16004 07790 12/65 02606 10210 20140 30173 40187 50000 60006 80000 90000=
07790,1996-07-16 03:00:00,21,1018.2,-0.5,60,13,15000,11.112,,,250,,,,,,,,,,,wg-a,,,,AAXX 16034 07790 12/65 12506 10210 20130 30168 40182 58005 60006 80001 90300=
07790,1996-07-16 06:00:00,25,1018.5,0.3,50,14,12000,7.408,,,230,19.5,26.9,,,,,,,,,wg-a,,,,AAXX 16064 07790 02/62 /2304 10250 20140 30171 40185 50003 60006 80001 90600 333 10269 20195 60004=
07790,1996-07-16 12:00:00,31,1018.8,0,40,16,10000,14.816,,,110,,,,,,,,,,,wg-a,,,,AAXX 16124 07790 12760 /1108 10310 20160 30174 40188 50000 60006 81101 91200=
07790,1996-07-16 15:00:00,30,1018,-0.8,43,16,10000,11.112,,,110,,,,,,,,,,,wg-a,,,,AAXX 16154 07790 12760 /1106 10300 20160 30166 40180 57008 60006 81100 91500=
07790,1996-07-16 18:00:00,28,1016.8,-1.2,51,17,10000,3.704,,,150,24.8,31.8,,,,,,,,,wg-a,,,,AAXX 16184 07790 12/60 01502 10280 20170 30154 40168 56012 60006 80000 91800 333 10318 20248=
07790,1996-07-16 21:00:00,23,1017.8,1,65,16,20000,3.704,,,300,,,,,,,,,,,wg-a,,,,AAXX 16214 07790 12/70 03002 10230 20160 30164 40178 53010 60006 80000 92100=
07790,1996-07-17 00:00:00,21,1017.7,-0.1,73,16,20000,3.704,,,260,,,,,,,,,,,wg-a,,,,AAXX 17004 07790 12/70 02602 10210 20160 30163 40177 58001 60006 80000 90000=
07790,1996-07-17 03:00:00,20,1017.8,0.1,78,16,8000,7.408,,,240,,,,,,,,,,,wg-a,,,,AAXX 17034 07790 12/58 02404 10200 20160 30164 40178 53001 60006 80000 90300=
07790,1996-07-17 09:00:00,28,1017.8,0,58,19,8000,11.112,,,90,,,,,,,,,,,wg-a,,,,AAXX 17094 07790 12658 /0906 10280 20190 30164 40178 50000 60006 81100 90900=
07790,1996-07-17 12:00:00,28,1017.6,-0.2,48,16,10000,11.112,,,50,,,,,,,,,,,wg-a,,,,AAXX 17124 07790 12660 20506 10280 20160 30162 40176 58002 60006 81209 91200=
07790,1996-07-17 15:00:00,28,1016.3,-1.3,55,18,10000,11.112,,,70,,,,,,,,,,,wg-a,,,,AAXX 17154 07790 12660 20706 10280 20180 30149 40163 56013 60006 81230 91500=
07790,1996-07-17 18:00:00,26,1015.7,-0.6,65,19,10000,3.704,,,90,22.7,29.6,,,,,,,,,wg-a,,,,AAXX 17184 07790 12/60 70902 10260 20190 30143 40157 56006 60006 80002 91800 333 10296 20227=
07790,1996-07-17 21:00:00,24,1017,1.3,78,20,10000,3.704,,,240,,,,,,,,,,,wg-a,,,,AAXX 17214 07790 12/60 72402 10240 20200 30156 40170 52013 60006 80001 92100=
07790,1996-07-18 00:00:00,22,1016.8,-0.2,83,19,10000,3.704,,,290,,,,,,,,,,,wg-a,,,,AAXX 18004 07790 12/60 32902 10220 20190 30154 40168 57002 60006 80001 90000=
07790,1996-07-18 03:00:00,21,1016.1,-0.7,88,19,7000,7.408,,,250,,,,,,,,,,,wg-a,,,,AAXX 18034 07790 12557 /2504 10210 20190 30147 40161 56007 60006 81501 90300=
07790,1996-07-18 06:00:00,23,1016.6,0.5,83,20,500,7.408,,,220,20.7,26.1,,,,,,,,,wg-a,,,,AAXX 18064 07790 02400 32204 10230 20200 30152 40166 51005 60006 83500 90600 333 10261 20207 60004=
07790,1996-07-18 09:00:00,27,1016.6,-0,70,21,0,11.112,,,100,,,,,,,,,,,wg-a,,,,AAXX 18094 07790 124// /1006 10270 20210 30152 40166 55000 60006 81100 90900=
07790,1996-07-18 12:00:00,28,1016.6,0,66,21,9000,11.112,,,100,,,,,,,,,,,wg-a,,,,AAXX 18124 07790 12459 31006 10280 20210 30152 40166 50000 60006 83800 91200=
07790,1996-07-18 15:00:00,28,1015.6,-1,62,20,9000,7.408,,,140,,,,,,,,,,,wg-a,,,,AAXX 18154 07790 12459 51404 10280 20200 30142 40156 58010 60006 83830 91500=
07790,1996-07-18 18:00:00,27,1015.1,-0.5,62,19,10000,7.408,,,160,22.9,28.8,,,,,,,,,wg-a,,,,AAXX 18184 07790 12560 21604 10270 20190 30137 40151 56005 60006 81201 91800 333 10288 20229=
07790,1996-07-18 21:00:00,23,1015.9,0.8,78,19,15000,7.408,,,240,,,,,,,,,,,wg-a,,,,AAXX 18214 07790 12/65 /2404 10230 20190 30145 40159 52008 60006 80000 92100=
07790,1996-07-19 00:00:00,22,1016.5,0.6,78,18,8000,11.112,,,220,,,,,,,,,,,wg-a,,,,AAXX 19004 07790 12/58 02206 10220 20180 30151 40165 51006 60006 80000 90000=
07790,1996-07-19 03:00:00,22,1016.1,-0.4,78,18,8000,7.408,,,230,,,,,,,,,,,wg-a,,,,AAXX 19034 07790 12458 /2304 10220 20180 30147 40161 55004 60006 85100 90300=
07790,1996-07-19 06:00:00,22,1016.2,0.1,78,18,500,7.408,,,220,20.8,26.9,,,,,,,,,wg-a,,,,AAXX 19064 07790 02500 72204 10220 20180 30148 40162 53001 60006 875// 90600 333 10269 20208 60004=
07790,1996-07-19 09:00:00,27,1016.1,-0.1,70,21,8000,14.816,,,130,,,,,,,,,,,wg-a,,,,AAXX 19094 07790 12558 61308 10270 20210 30147 40161 58001 60006 86800 90900=
07790,1996-07-19 12:00:00,28,1015.8,-0.3,66,21,8000,14.816,,,130,,,,,,,,,,,wg-a,,,,AAXX 19124 07790 12458 71308 10280 20210 30144 40158 58003 60006 878// 91200=
07790,1996-07-19 15:00:00,28,1014.8,-1,66,21,8000,11.112,,,120,,,,,,,,,,,wg-a,,,,AAXX 19154 07790 12558 /1206 10280 20210 30134 40148 56010 60006 81200 91500=
07790,1996-07-19 18:00:00,25,1015.6,0.8,79,21,8000,14.816,,,30,22.5,29,,,,,,,,,wg-a,,,,AAXX 19184 07790 12658 60308 10250 20210 30142 40156 53008 60006 84830 91800 333 10290 20225=
07790,1996-07-19 21:00:00,23,1016,0.4,83,20,9000,3.704,,,230,,,,,,,,,,,wg-a,,,,AAXX 19214 07790 12759 22302 10230 20200 30146 40160 50004 60006 82500 92100=
07790,1996-07-20 00:00:00,21,1015.8,-0.2,88,19,10000,3.704,,,240,,,,,,,,,,,wg-a,,,,AAXX 20004 07790 12760 22402 10210 20190 30144 40158 58002 60006 82500 90000=
07790,1996-07-20 03:00:00,21,1015.7,-0.1,83,18,10000,7.408,,,230,,,,,,,,,,,wg-a,,,,AAXX 20034 07790 12560 22304 10210 20180 30143 40157 58001 60006 81501 90300=
07790,1996-07-20 09:00:00,27,1016.7,0.7,62,19,6000,14.816,,,110,,,,,,,,,,,wg-a,,,,AAXX 20094 07790 12456 /1108 10270 20190 30153 40167 52007 60006 83281 90900=
07790,1996-07-20 12:00:00,27,1016.4,-0.3,62,19,8000,11.112,,,60,,,,,,,,,,,wg-a,,,,AAXX 20124 07790 12558 40606 10270 20190 30150 40164 58003 60006 83981 91200=
07790,1996-07-20 15:00:00,27,1016.7,0.3,62,19,8000,14.816,,,110,,,,,,,,,,,wg-a,,,,AAXX 20154 07790 12558 /1108 10270 20190 30153 40167 50003 60006 82981 91500=
07790,1996-07-20 18:00:00,25,1017.7,1,74,20,6000,7.408,,,120,22.4,28.2,,,,,,,,,wg-a,,,,AAXX 20184 07790 12556 /1204 10250 20200 30163 40177 53010 60006 82963 91800 333 10282 20224=
07790,1996-07-20 21:00:00,22,1018.3,0.6,83,19,12000,3.704,,,220,,,,,,,,,,,wg-a,,,,AAXX 20214 07790 12562 22202 10220 20190 30169 40183 53006 60006 81231 92100=
07790,1996-07-21 00:00:00,21,1018.5,0.2,83,18,12000,3.704,,,260,,,,,,,,,,,wg-a,,,,AAXX 21004 07790 12562 32602 10210 20180 30171 40185 50002 60006 81231 90000=
07790,1996-07-21 03:00:00,20,1018.6,0.1,88,18,12000,7.408,,,280,,,,0,,,,,,29,wg-a,,,,AAXX 21034 07790 12562 /2804 10200 20180 30172 40186 53001 60007 72996 82931 90300=
07790,1996-07-21 06:00:00,21,1019.4,0.8,83,18,20000,3.704,,,220,19,25,,,,,,,,3,wg-a,,,,AAXX 21064 07790 12470 /2202 10210 20180 30180 40194 51008 60004 70398 81130 90600 333 10250 20190=
07790,1996-07-21 09:00:00,26,1019.6,0.2,48,14,25000,11.112,,,60,,,,,,,,,,,wg-a,,,,AAXX 21094 07790 12675 /0606 10260 20140 30182 40196 50002 60006 81100 90900=
07790,1996-07-21 12:00:00,26,1019.4,-0.2,48,14,25000,18.52,,,20,,,,,,,,,,,wg-a,,,,AAXX 21124 07790 12575 /0210 10260 20140 30180 40194 58002 60006 81900 91200=
07790,1996-07-21 15:00:00,26,1019.2,-0.2,37,10,25000,11.112,,,360,,,,,,,,,,,wg-a,,,,AAXX 21154 07790 12575 23606 10260 20100 30178 40192 58002 60006 81980 91500=
07790,1996-07-21 18:00:00,26,1018.6,-0.6,42,12,50000,7.408,,,10,21.2,26.8,,,,,,,,,wg-a,,,,AAXX 21184 07790 12/84 00104 10260 20120 30172 40186 55006 60006 80000 91800 333 10268 20212=
07790,1996-07-21 21:00:00,20,1019.7,1.1,53,10,20000,7.408,,,230,,,,,,,,,,,wg-a,,,,AAXX 21214 07790 12/70 02304 10200 20100 30183 40197 53011 60006 80000 92100=
07790,1996-07-22 00:00:00,18,1020.2,0.5,56,9,500,7.408,,,230,,,,,,,,,,,wg-a,,,,AAXX 22004 07790 12/00 02304 10180 20090 30188 40202 51005 60006 80000 90000=
07790,1996-07-22 03:00:00,18,1020.4,0.2,68,12,500,3.704,,,220,,,,,,,,,,,wg-a,,,,AAXX 22034 07790 12/00 02202 10180 20120 30190 40204 53002 60006 80000 90300=
07790,1996-07-22 06:00:00,21,1021.4,1,60,13,20000,11.112,,,220,17.6,25.6,,,,,,,,,wg-a,,,,AAXX 22064 07790 02/70 02206 10210 20130 30200 40214 51010 60006 80000 90600 333 10256 20176 60004=
07790,1996-07-22 09:00:00,27,1021.7,0.3,51,16,20000,14.816,,,90,,,,,,,,,,,wg-a,,,,AAXX 22094 07790 12670 /0908 10270 20160 30203 40217 51003 60006 81100 90900=
07790,1996-07-22 12:00:00,27,1021.5,-0.2,45,14,500,11.112,,,110,,,,,,,,,,,wg-a,,,,AAXX 22124 07790 12700 /1106 10270 20140 30201 40215 58002 60006 81200 91200=
07790,1996-07-22 15:00:00,28,1020.9,-0.6,37,12,500,11.112,,,110,,,,,,,,,,,wg-a,,,,AAXX 22154 07790 12700 /1106 10280 20120 30195 40209 58006 60006 81200 91500=
07790,1996-07-22 18:00:00,26,1020.9,-0,42,12,20000,3.704,,,140,21,28.5,,,,,,,,,wg-a,,,,AAXX 22184 07790 12/70 01402 10260 20120 30195 40209 55000 60006 80000 91800 333 10285 20210=
07790,1996-07-22 21:00:00,21,1021.4,0.5,64,14,25000,7.408,,,220,,,,,,,,,,,wg-a,,,,AAXX 22214 07790 12/75 02204 10210 20140 30200 40214 53005 60006 80000 92100=
07790,1996-07-23 00:00:00,20,1022.2,0.8,64,13,0,3.704,,,280,,,,,,,,,,,wg-a,,,,AAXX 23004 07790 12/// /2802 10200 20130 30208 40222 53008 60006 90000=
07790,1996-07-23 03:00:00,18,1021.9,-0.3,73,13,500,7.408,,,230,,,,,,,,,,,wg-a,,,,AAXX 23034 07790 12/00 02304 10180 20130 30205 40219 56003 60006 80000 90300=
07790,1996-07-23 06:00:00,21,1022.3,0.4,64,14,25000,11.112,,,230,18,26.1,,,,,,,,,wg-a,,,,AAXX 23064 07790 02/75 02306 10210 20140 30209 40223 53004 60006 80000 90600 333 10261 20180 60004=
07790,1996-07-23 09:00:00,28,1022,-0.3,35,11,25000,14.816,,,130,,,,,,,,,,,wg-a,,,,AAXX 23094 07790 12/75 01308 10280 20110 30206 40220 58003 60006 80000 90900=
07790,1996-07-23 12:00:00,28,1021.6,-0.4,51,17,20000,11.112,,,110,,,,,,,,,,,wg-a,,,,AAXX 23124 07790 12570 /1106 10280 20170 30202 40216 58004 60006 81100 91200=
07790,1996-07-23 15:00:00,28,1020.6,-1,51,17,16000,14.816,,,120,,,,,,,,,,,wg-a,,,,AAXX 23154 07790 12566 /1208 10280 20170 30192 40206 58010 60006 81101 91500=
07790,1996-07-23 21:00:00,22,1021.2,0,78,18,15000,7.408,,,210,,,,,,,,,,,wg-a,,,,AAXX 23214 07790 12/65 02104 10220 20180 30198 40212 50000 60006 80000 92100=
07790,1996-07-24 00:00:00,20,1020.3,-0.9,78,16,15000,7.408,,,320,,,,,,,,,,,wg-a,,,,AAXX 24004 07790 12/65 03204 10200 20160 30189 40203 55009 60006 80000 90000=
07790,1996-07-24 03:00:00,19,1019.2,-1.1,78,15,15000,3.704,,,270,,,,,,,,,,,wg-a,,,,AAXX 24034 07790 12/65 02702 10190 20150 30178 40192 55011 60006 80000 90300=
07790,1996-07-24 06:00:00,22,1019.5,0.3,60,14,10000,3.704,,,200,18.7,25.9,,,,,,,,,wg-a,,,,AAXX 24064 07790 02/60 /2002 10220 20140 30181 40195 53003 60006 90600 333 10259 20187 60004=
07790,1996-07-24 09:00:00,27,1020,0.5,62,19,12000,11.112,,,100,,,,,,,,,,,wg-a,,,,AAXX 24094 07790 12/62 01006 10270 20190 30186 40200 53005 60006 80000 90900=
07790,1996-07-24 12:00:00,29,1019.3,-0.7,58,20,0,14.816,,,130,,,,,,,,,,,wg-a,,,,AAXX 24124 07790 12/// /1308 10290 20200 30179 40193 58007 60006 91200=
07790,1996-07-24 15:00:00,30,1017.6,-1.7,52,19,11000,14.816,,,140,,,,,,,,,,,wg-a,,,,AAXX 24154 07790 12/61 /1408 10300 20190 30162 40176 58017 60006 91500=
07790,1996-07-24 18:00:00,26,1015.8,-1.8,74,21,12000,11.112,,,160,22.2,29.7,,,,,,,,,wg-a,,,,AAXX 24184 07790 12/62 01606 10260 20210 30144 40158 56018 60006 80000 91800 333 10297 20222=
07790,1996-07-24 21:00:00,23,1015.4,-0.4,83,20,12000,11.112,,,330,,,,,,,,,,,wg-a,,,,AAXX 24214 07790 12/62 03306 10230 20200 30140 40154 58004 60006 80000 92100=
07790,1996-07-25 00:00:00,22,1015.8,0.4,88,20,12000,7.408,,,290,,,,,,,,,,,wg-a,,,,AAXX 25004 07790 12/62 02904 10220 20200 30144 40158 52004 60006 80000 90000=
07790,1996-07-25 03:00:00,20,1014.5,-1.3,83,17,12000,7.408,,,240,,,,,,,,,,,wg-a,,,,AAXX 25034 07790 12562 /2404 10200 20170 30131 40145 55013 60006 81200 90300=
07790,1996-07-25 06:00:00,23,1014.6,0.1,65,16,12000,3.704,,,230,19.4,25.9,,,,,,,,,wg-a,,,,AAXX 25064 07790 02/62 32302 10230 20160 30132 40146 53001 60006 81081 90600 333 10259 20194 60004=
07790,1996-07-25 09:00:00,28,1014.7,0.1,70,22,15000,11.112,,,120,,,,,,,,,,,wg-a,,,,AAXX 25094 07790 12/65 41206 10280 20220 30133 40147 50001 60006 82031 90900=
07790,1996-07-25 12:00:00,28,1014.1,-0.6,62,20,12000,14.816,,,40,,,,,,,,,,,wg-a,,,,AAXX 25124 07790 12562 30408 10280 20200 30127 40141 55006 60006 81181 91200=
07790,1996-07-25 15:00:00,29,1013.8,-0.3,58,20,12000,11.112,,,80,,,,,,,,,,,wg-a,,,,AAXX 25154 07790 12562 30806 10290 20200 30124 40138 56003 60006 81181 91500=
07790,1996-07-25 18:00:00,28,1013,-0.8,58,19,12000,3.704,,,190,22.6,29.5,,,,,,,,,wg-a,,,,AAXX 25184 07790 12/62 21902 10280 20190 30116 40130 58008 60006 81031 91800 333 10295 20226=
07790,1996-07-25 21:00:00,22,1013.6,0.6,69,16,20000,3.704,,,270,,,,,,,,,,,wg-a,,,,AAXX 25214 07790 12/70 02702 10220 20160 30122 40136 53006 60006 80000 92100=
07790,1996-07-26 00:00:00,21,1013.7,0.1,78,17,12000,7.408,,,240,,,,,,,,,,,wg-a,,,,AAXX 26004 07790 12562 42404 10210 20170 30123 40137 50001 60006 84500 90000=
07790,1996-07-26 03:00:00,21,1013.7,-0,78,17,18000,7.408,,,230,,,,,,,,,,,wg-a,,,,AAXX 26034 07790 12568 /2304 10210 20170 30123 40137 55000 60006 84500 90300=
07790,1996-07-26 06:00:00,23,1014.5,0.8,78,19,7000,3.704,,,240,20.7,27.5,,,,,,,,,wg-a,,,,AAXX 26064 07790 02457 72402 10230 20190 30131 40145 51008 60006 878// 90600 333 10275 20207 60004=
07790,1996-07-26 09:00:00,27,1015.1,0.6,70,21,6000,14.816,,,90,,,,,,,,,,,wg-a,,,,AAXX 26094 07790 12/56 /0908 10270 20210 30137 40151 51006 60006 90900=
07790,1996-07-26 12:00:00,30,1014.5,-0.6,62,22,7000,14.816,,,130,,,,,,,,,,,wg-a,,,,AAXX 26124 07790 12457 51308 10300 20220 30131 40145 58006 60006 84830 91200=
07790,1996-07-26 15:00:00,29,1014.5,0,66,22,7000,11.112,,,130,,,,,,,,,,,wg-a,,,,AAXX 26154 07790 12/57 /1306 10290 20220 30131 40145 50000 60006 80001 91500=
07790,1996-07-26 18:00:00,27,1014.3,-0.2,74,22,10000,3.704,,,130,23.2,29.7,,,,,,,,,wg-a,,,,AAXX 26184 07790 12/60 21302 10270 20220 30129 40143 55002 60006 80001 91800 333 10297 20232=
07790,1996-07-26 21:00:00,24,1015.3,1,89,22,7000,7.408,,,160,,,,,,,,,,,wg-a,,,,AAXX 26214 07790 12357 31604 10240 20220 30139 40153 51010 60006 82701 92100=
07790,1996-07-27 00:00:00,23,1015.8,0.5,89,21,8000,7.408,,,180,,,,,,,,,,,wg-a,,,,AAXX 27004 07790 12758 81804 10230 20210 30144 40158 50005 60006 8357/ 90000=
07790,1996-07-27 03:00:00,24,1016,0.2,89,22,8000,3.704,,,180,,,,,,,,,,,wg-a,,,,AAXX 27034 07790 12558 71802 10240 20220 30146 40160 52002 60006 81501 90300=
07790,1996-07-27 06:00:00,24,1016.6,0.6,83,21,8000,14.816,,,150,22.8,27,,,,,,,,3,wg-a,,,,AAXX 27064 07790 02358 71508 10240 20210 30152 40166 53006 61000 70362 81682 90600 333 10270 20228 6100=
07790,1996-07-27 09:00:00,27,1017,0.4,74,22,7000,11.112,,,130,,,,,,,,,,1,wg-a,,,,AAXX 27094 07790 02357 71306 10270 20220 30156 40170 53004 61000 70162 81637 90900 333 ////=
07790,1996-07-27 12:00:00,26,1018.5,1.5,84,23,15000,3.704,,,10,,,,,,,,,,60,wg-a,,,,AAXX 27124 07790 02465 80102 10260 20230 30171 40185 50015 61000 76062 8157/ 91200 333 6100=
07790,1996-07-27 15:00:00,28,1017.1,-1.4,62,20,18000,11.112,,,140,,,,,,,,,,1,wg-a,,,,AAXX 27154 07790 02/68 71406 10280 20200 30157 40171 56014 61000 70162 8707/ 91500 333 ////=
07790,1996-07-27 18:00:00,26,1016.9,-0.2,79,22,18000,0,,,0,24,28.2,,,,,,,,2,wg-a,,,,AAXX 27184 07790 32868 70000 10260 20220 30155 40169 58002 70262 8707/ 91800 333 10282 20240=
07790,1996-07-27 21:00:00,24,1017.1,0.2,83,21,12000,3.704,,,210,,,,,,,,,,,wg-a,,,,AAXX 27214 07790 12662 72102 10240 20210 30157 40171 53002 60006 8757/ 92100=
07790,1996-07-28 00:00:00,22,1016,-1.1,78,18,15000,3.704,,,210,,,,,,,,,,,wg-a,,,,AAXX 28004 07790 12665 /2102 10220 20180 30146 40160 58011 60006 8157/ 90000=
07790,1996-07-28 03:00:00,21,1015.3,-0.7,88,19,15000,0,,,0,,,,,,,,,,,wg-a,,,,AAXX 28034 07790 12665 /0000 10210 20190 30139 40153 56007 60006 8157/ 90300=
07790,1996-07-28 06:00:00,23,1015.9,0.6,78,19,15000,3.704,,,280,19.8,,,,,,,,,,wg-a,,,,AAXX 28064 07790 02765 72802 10230 20190 30145 40159 53006 60006 8557/ 90600 333 20198 61000=
07790,1996-07-28 09:00:00,26,1016.5,0.6,74,21,8000,11.112,,,250,,,,1,,,,,,29,wg-a,,,,AAXX 28094 07790 12558 72506 10260 20210 30151 40165 53006 60017 72998 8393/ 90900=
07790,1996-07-28 12:00:00,30,1016.5,0,43,16,20000,14.816,,,140,,,,,,,,,,1,wg-a,,,,AAXX 28124 07790 12670 71408 10300 20160 30151 40165 50000 60016 70198 84982 91200=
07790,1996-07-28 15:00:00,30,1014.8,-1.7,43,16,20000,14.816,,,110,,,,,,,,,,,wg-a,,,,AAXX 28154 07790 12770 /1108 10300 20160 30134 40148 56017 60006 81230 91500=
07790,1996-07-28 18:00:00,26,1014.8,-0,79,22,20000,7.408,,,100,22.6,31.7,,,,,,,,,wg-a,,,,AAXX 28184 07790 32770 /1004 10260 20220 30134 40148 55000 81109 91800 333 10317 20226=
07790,1996-07-28 21:00:00,24,1015.8,1,78,20,12000,7.408,,,320,,,,,,,,,,,wg-a,,,,AAXX 28214 07790 12462 /3204 10240 20200 30144 40158 52010 60006 81500 92100=
07790,1996-07-29 00:00:00,21,1015.5,-0.3,88,19,12000,7.408,,,240,,,,,,,,,,,wg-a,,,,AAXX 29004 07790 12362 52404 10210 20190 30141 40155 58003 60006 85500 90000=
07790,1996-07-29 03:00:00,22,1014.9,-0.6,83,19,15000,11.112,,,240,,,,,,,,,,,wg-a,,,,AAXX 29034 07790 12465 /2406 10220 20190 30135 40149 56006 60006 81500 90300=
07790,1996-07-29 06:00:00,24,1015.8,0.9,74,19,10000,18.52,,,240,21,26.2,,,,,1,,,,wg-a,,,,AAXX 29064 07790 02/60 /2410 10240 20190 30144 40158 53009 60006 80000 90600 333 10262 20210 60014=
07790,1996-07-29 09:00:00,28,1015.9,0.1,62,20,12000,11.112,,,110,,,,,,,,,,,wg-a,,,,AAXX 29094 07790 12562 /1106 10280 20200 30145 40159 50001 60006 81200 90900=
07790,1996-07-29 12:00:00,30,1015.5,-0.4,55,20,12000,14.816,,,130,,,,,,,,,,,wg-a,,,,AAXX 29124 07790 12562 21308 10300 20200 30141 40155 58004 60006 82200 91200=
07790,1996-07-29 15:00:00,29,1014.5,-1,58,20,11000,14.816,,,130,,,,,,,,,,,wg-a,,,,AAXX 29154 07790 12/61 /1308 10290 20200 30131 40145 58010 60006 91500=
07790,1996-07-29 18:00:00,26,1013.8,-0.7,74,21,8000,7.408,,,140,23.6,30.1,,,,,,,,,wg-a,,,,AAXX 29184 07790 12658 /1404 10260 20210 30124 40138 56007 60006 81400 91800 333 10301 20236=
07790,1996-07-29 21:00:00,23,1013.9,0.1,83,20,10000,3.704,,,240,,,,,,,,,,,wg-a,,,,AAXX 29214 07790 12560 22402 10230 20200 30125 40139 51001 60006 81501 92100=
07790,1996-07-30 00:00:00,22,1013.2,-0.7,83,19,11000,3.704,,,280,,,,,,,,,,,wg-a,,,,AAXX 30004 07790 12/61 /2802 10220 20190 30118 40132 58007 60006 90000=
07790,1996-07-30 03:00:00,21,1011.5,-1.7,78,17,15000,3.704,,,270,,,,,,,,,,,wg-a,,,,AAXX 30034 07790 12/65 32702 10210 20170 30101 40115 56017 60006 80001 90300=
07790,1996-07-30 06:00:00,22,1010.6,-0.9,65,15,18000,14.816,,,230,20.5,26.4,,,,,,,,,wg-a,,,,AAXX 30064 07790 02568 32308 10220 20150 30092 40106 58009 60006 81142 90600 333 10264 20205 60004=
07790,1996-07-30 09:00:00,29,1009.8,-0.8,52,18,18000,14.816,,,140,,,,,,,,,,,wg-a,,,,AAXX 30094 07790 12668 31408 10290 20180 30084 40098 56008 60006 81130 90900=
07790,1996-07-30 12:00:00,27,1010.1,0.3,62,19,18000,7.408,,,40,,,,,,,,,,29,wg-a,,,,AAXX 30124 07790 12668 70404 10270 20190 30087 40101 50003 60006 72991 83902 91200=
07790,1996-07-30 15:00:00,30,1009.6,-0.5,40,15,500,25.928,,,330,,,,,,,,,,1,wg-a,,,,AAXX 30154 07790 12600 33314 10300 20150 30082 40096 58005 60006 70191 81202 91500=
07790,1996-07-30 18:00:00,26,1010.4,0.8,45,13,20000,25.928,,,20,22.2,30,,,,,,,,1,wg-a,,,,AAXX 30184 07790 12/70 /0214 10260 20130 30090 40104 51008 60006 70191 81042 91800 333 10300 20222=
07790,1996-07-30 21:00:00,24,1012,1.6,50,13,25000,18.52,,,350,,,,,,,,,,,wg-a,,,,AAXX 30214 07790 12/75 03510 10240 20130 30106 40120 51016 60006 80000 92100=
07790,1996-07-31 00:00:00,20,1012.3,0.3,64,13,25000,7.408,,,250,,,,,,,,,,,wg-a,,,,AAXX 31004 07790 12/75 02504 10200 20130 30109 40123 52003 60006 80000 90000=
07790,1996-07-31 03:00:00,19,1012.1,-0.2,68,13,500,7.408,,,220,,,,,,,,,,,wg-a,,,,AAXX 31034 07790 12/00 02204 10190 20130 30107 40121 55002 60006 80000 90300=
07790,1996-07-31 06:00:00,23,1013.8,1.7,61,15,20000,7.408,,,230,19,26.2,,,,,,,,,wg-a,,,,AAXX 31064 07790 02/70 02304 10230 20150 30124 40138 53017 60006 80000 90600 333 10262 20190 60004=
07790,1996-07-31 09:00:00,29,1014.7,0.9,40,14,500,11.112,,,360,,,,,,,,,,,wg-a,,,,AAXX 31094 07790 12500 13606 10290 20140 30133 40147 51009 60006 81100 90900=
07790,1996-07-31 12:00:00,28,1015,0.3,51,17,500,22.224,,,20,,,,,,,,,,,wg-a,,,,AAXX 31124 07790 12500 /0212 10280 20170 30136 40150 53003 60006 81100 91200=
07790,1996-07-31 15:00:00,30,1014.5,-0.5,40,15,500,18.52,,,20,,,,,,,,,,,wg-a,,,,AAXX 31154 07790 12500 /0210 10300 20150 30131 40145 57005 60006 81100 91500=
07790,1996-07-31 18:00:00,29,1013.9,-0.6,45,16,10000,11.112,,,10,22.6,30.3,,,,,,,,,wg-a,,,,AAXX 31184 07790 12/60 /0106 10290 20160 30125 40139 56006 60006 91800 333 10303 20226=
07790,1996-07-31 21:00:00,23,1015.3,1.4,57,14,500,3.704,,,240,,,,,,,,,,,wg-a,,,,AAXX 31214 07790 12/00 02402 10230 20140 30139 40153 52014 60006 80000 92100=
07790,1996-08-01 00:00:00,21,1016.2,0.9,60,13,500,11.112,,,230,,,,,,,,,,,wg-a,,,,AAXX 01004 07790 12/00 02306 10210 20130 30148 40162 51009 60006 80000 90000=
07790,1996-08-01 03:00:00,20,1016.2,-0,60,12,500,11.112,,,230,,,,,,,,,,,wg-a,,,,AAXX 01034 07790 12/00 02306 10200 20120 30148 40162 55000 60006 80000 90300=
07790,1996-08-01 04:00:00,24,1017.1,0.9,47,12,500,14.816,,,230,19.9,28.5,,,,,,,,,wg-a,,,,AAXX 01044 07790 02/00 02308 10240 20120 30157 40171 52009 60006 80000 90400 333 10285 20199 60004=
07790,1996-08-01 06:00:00,24,1017.1,0.9,47,12,500,14.816,,,230,19.9,28.5,,,,,,,,,wg-a,,,,AAXX 01064 07790 02/00 02308 10240 20120 30157 40171 52009 60006 80000 90600 333 10285 20199 60004=
07790,1996-08-01 09:00:00,29,1017.9,0.8,40,14,500,11.112,,,40,,,,,,,,,,,wg-a,,,,AAXX 01094 07790 12/00 20406 10290 20140 30165 40179 53008 60006 80001 90900=
07790,1996-08-01 12:00:00,31,1017.4,-0.5,29,11,500,14.816,,,30,,,,,,,,,,,wg-a,,,,AAXX 01124 07790 12500 40308 10310 20110 30160 40174 58005 60006 81104 91200=
07790,1996-08-01 15:00:00,31,1016.9,-0.5,31,12,500,11.112,,,40,,,,,,,,,,,wg-a,,,,AAXX 01154 07790 12500 20406 10310 20120 30155 40169 57005 60006 81101 91500=
07790,1996-08-01 18:00:00,28,1016.7,-0.2,55,18,500,7.408,,,40,23.8,31.3,,,,,,,,,wg-a,,,,AAXX 01184 07790 12/00 10404 10280 20180 30153 40167 56002 60006 80001 91800 333 10313 20238=
07790,1996-08-01 21:00:00,24,1018,1.3,50,13,20000,7.408,,,210,,,,,,,,,,,wg-a,,,,AAXX 01214 07790 12/70 02104 10240 20130 30166 40180 51013 60006 80000 92100=
07790,1996-08-02 00:00:00,22,1018,0,50,11,0,14.816,,,230,,,,,,,,,,,wg-a,,,,AAXX 02004 07790 12/// /2308 10220 20110 30166 40180 50000 60006 90000=
07790,1996-08-02 03:00:00,20,1018,0,60,12,20000,7.408,,,230,,,,,,,,,,,wg-a,,,,AAXX 02034 07790 12/70 12304 10200 20120 30166 40180 50000 60006 80001 90300=
07790,1996-08-02 06:00:00,24,1019.1,1.1,47,12,500,14.816,,,240,19.7,28.2,,,,,,,,,wg-a,,,,AAXX 02064 07790 02/00 12408 10240 20120 30177 40191 53011 60006 80001 90600 333 10282 20197 60004=
07790,1996-08-02 09:00:00,31,1019.5,0.4,31,12,500,11.112,,,130,,,,,,,,,,,wg-a,,,,AAXX 02094 07790 12/00 11306 10310 20120 30181 40195 51004 60006 80001 90900=
07790,1996-08-02 12:00:00,32,1019.4,-0.1,29,12,500,14.816,,,100,,,,,,,,,,,wg-a,,,,AAXX 02124 07790 12500 /1008 10320 20120 30180 40194 58001 60006 81101 91200=
07790,1996-08-02 15:00:00,30,1019,-0.4,46,17,500,7.408,,,90,,,,,,,,,,,wg-a,,,,AAXX 02154 07790 12500 /0904 10300 20170 30176 40190 58004 60006 81201 91500=
07790,1996-08-02 18:00:00,27,1018.4,-0.6,66,20,500,3.704,,,120,24.3,31.9,,,,,,,,,wg-a,,,,AAXX 02184 07790 12/00 01202 10270 20200 30170 40184 55006 60006 80000 91800 333 10319 20243=
07790,1996-08-02 21:00:00,23,1018.8,0.4,73,18,25000,3.704,,,190,,,,,,,,,,,wg-a,,,,AAXX 02214 07790 12/75 01902 10230 20180 30174 40188 50004 60006 80000 92100=
07790,1996-08-03 00:00:00,24,1018.7,-0.1,54,14,25000,7.408,,,210,,,,,,,,,,,wg-a,,,,AAXX 03004 07790 12/75 02104 10240 20140 30173 40187 58001 60006 80000 90000=
07790,1996-08-03 03:00:00,21,1017.7,-1,69,15,25000,7.408,,,210,,,,,,,,,,,wg-a,,,,AAXX 03034 07790 12/75 02104 10210 20150 30163 40177 56010 60006 80000 90300=
07790,1996-08-03 06:00:00,23,1018,0.3,61,15,25000,11.112,,,230,19.8,27.3,,,,,,,,,wg-a,,,,AAXX 03064 07790 02/75 32306 10230 20150 30166 40180 53003 60006 80001 90600 333 10273 20198 60004=
07790,1996-08-03 09:00:00,29,1017.8,-0.2,55,19,25000,11.112,,,90,,,,,,,,,,,wg-a,,,,AAXX 03094 07790 12/75 30906 10290 20190 30164 40178 56002 60006 80001 90900=
07790,1996-08-03 12:00:00,29,1017.5,-0.3,58,20,25000,14.816,,,100,,,,,,,,,,,wg-a,,,,AAXX 03124 07790 12575 31008 10290 20200 30161 40175 58003 60006 81131 91200=
07790,1996-08-03 15:00:00,28,1016.4,-1.1,70,22,15000,14.816,,,50,,,,,,,,,,,wg-a,,,,AAXX 03154 07790 12565 30508 10280 20220 30150 40164 58011 60006 83200 91500=
07790,1996-08-03 18:00:00,26,1015.8,-0.6,79,22,9000,7.408,,,130,22.9,29.6,,,,,,,,,wg-a,,,,AAXX 03184 07790 12/59 01304 10260 20220 30144 40158 56006 60006 80000 91800 333 10296 20229=
07790,1996-08-03 21:00:00,23,1016,0.2,89,21,18000,7.408,,,200,,,,,,,,,,,wg-a,,,,AAXX 03214 07790 12/68 02004 10230 20210 30146 40160 51002 60006 80000 92100=
07790,1996-08-04 00:00:00,22,1015.6,-0.4,83,19,18000,7.408,,,210,,,,,,,,,,,wg-a,,,,AAXX 04004 07790 12/68 02104 10220 20190 30142 40156 58004 60006 80000 90000=
07790,1996-08-04 03:00:00,20,1014.6,-1,83,17,20000,7.408,,,240,,,,,,,,,,,wg-a,,,,AAXX 04034 07790 12/70 02404 10200 20170 30132 40146 58010 60006 80000 90300=
07790,1996-08-04 06:00:00,22,1015.3,0.7,73,17,12000,7.408,,,230,19.4,26.1,,,,,,,,,wg-a,,,,AAXX 04064 07790 02562 62304 10220 20170 30139 40153 53007 60006 84580 90600 333 10261 20194 60004=
07790,1996-08-04 09:00:00,27,1015.4,0.1,70,21,12000,18.52,,,100,,,,,,,,,,,wg-a,,,,AAXX 04094 07790 12562 31010 10270 20210 30140 40154 50001 60006 83200 90900=
07790,1996-08-04 12:00:00,29,1014.9,-0.5,58,20,11000,11.112,,,120,,,,,,,,,,,wg-a,,,,AAXX 04124 07790 12/61 /1206 10290 20200 30135 40149 57005 60006 91200=
07790,1996-08-04 15:00:00,30,1013.9,-1,49,18,12000,11.112,,,100,,,,,,,,,,,wg-a,,,,AAXX 04154 07790 12562 41006 10300 20180 30125 40139 58010 60006 81231 91500=
07790,1996-08-04 18:00:00,27,1013.9,-0,66,20,9000,7.408,,,50,21.8,30.1,,,,,,,,,wg-a,,,,AAXX 04184 07790 12659 20504 10270 20200 30125 40139 55000 60006 81230 91800 333 10301 20218=
07790,1996-08-04 21:00:00,23,1014.8,0.9,78,19,15000,7.408,,,280,,,,,,,,,,,wg-a,,,,AAXX 04214 07790 12/65 02804 10230 20190 30134 40148 51009 60006 80000 92100=
07790,1996-08-05 00:00:00,21,1014.8,-0,83,18,15000,7.408,,,230,,,,,,,,,,,wg-a,,,,AAXX 05004 07790 12/65 02304 10210 20180 30134 40148 55000 60006 80000 90000=
07790,1996-08-05 03:00:00,21,1014.6,-0.2,78,17,20000,11.112,,,220,,,,,,,,,,,wg-a,,,,AAXX 05034 07790 12870 /2206 10210 20170 30132 40146 58002 60006 81030 90300=
07790,1996-08-05 06:00:00,22,1014.9,0.3,73,17,9000,11.112,,,230,20.2,26.8,,,,,,,,,wg-a,,,,AAXX 05064 07790 02559 42306 10220 20170 30135 40149 53003 60006 82801 90600 333 10268 20202 60004=
07790,1996-08-05 09:00:00,28,1015,0.1,62,20,15000,11.112,,,90,,,,,,,,,,,wg-a,,,,AAXX 05094 07790 12565 50906 10280 20200 30136 40150 50001 60006 82283 90900=
07790,1996-08-05 12:00:00,28,1014.8,-0.2,58,19,9000,11.112,,,70,,,,,,,,,,,wg-a,,,,AAXX 05124 07790 12/59 /0706 10280 20190 30134 40148 58002 60006 91200=
07790,1996-08-05 15:00:00,28,1013.6,-1.2,55,18,14000,14.816,,,150,,,,,,,,,,,wg-a,,,,AAXX 05154 07790 12564 31508 10280 20180 30122 40136 56012 60006 81183 91500=
07790,1996-08-05 18:00:00,26,1013.7,0.1,70,20,18000,7.408,,,140,22,29.1,,,,,,,,,wg-a,,,,AAXX 05184 07790 12/68 51404 10260 20200 30123 40137 53001 60006 81032 91800 333 10291 20220=
07790,1996-08-05 21:00:00,22,1014.2,0.5,83,19,12000,7.408,,,230,,,,,,,,,,,wg-a,,,,AAXX 05214 07790 12/62 /2304 10220 20190 30128 40142 50005 60006 81030 92100=
07790,1996-08-06 00:00:00,22,1014,-0.2,83,19,10000,3.704,,,250,,,,,,,,,,,wg-a,,,,AAXX 06004 07790 12/60 /2502 10220 20190 30126 40140 58002 60006 90000=
07790,1996-08-06 03:00:00,20,1013.7,-0.3,83,17,12000,11.112,,,220,,,,,,,,,,,wg-a,,,,AAXX 06034 07790 12/62 12206 10200 20170 30123 40137 58003 60006 80001 90300=
07790,1996-08-06 06:00:00,22,1014.3,0.6,78,18,10000,7.408,,,230,19.8,25.7,,,,,,,,,wg-a,,,,AAXX 06064 07790 02/60 32304 10220 20180 30129 40143 53006 60006 82086 90600 333 10257 20198 60004=
07790,1996-08-06 09:00:00,28,1014.7,0.4,58,19,12000,11.112,,,100,,,,,,,,,,,wg-a,,,,AAXX 06094 07790 12562 31006 10280 20190 30133 40147 51004 60006 82136 90900=
07790,1996-08-06 12:00:00,29,1015.3,0.6,62,21,14000,14.816,,,130,,,,,,,,,,,wg-a,,,,AAXX 06124 07790 12564 21308 10290 20210 30139 40153 51006 60006 82201 91200=
07790,1996-08-06 15:00:00,29,1015.2,-0.1,62,21,14000,11.112,,,110,,,,,,,,,,,wg-a,,,,AAXX 06154 07790 12564 31106 10290 20210 30138 40152 57001 60006 82801 91500=
07790,1996-08-06 18:00:00,26,1014.9,-0.3,74,21,10000,7.408,,,140,21.7,29.4,,,,,,,,,wg-a,,,,AAXX 06184 07790 12/60 21404 10260 20210 30135 40149 55003 60006 82031 91800 333 10294 20217=
07790,1996-08-06 21:00:00,23,1016,1.1,83,20,15000,7.408,,,240,,,,,,,,,,,wg-a,,,,AAXX 06214 07790 12/65 02404 10230 20200 30146 40160 51011 60006 80000 92100=
07790,1996-08-07 00:00:00,22,1016.2,0.2,78,18,15000,7.408,,,230,,,,,,,,,,,wg-a,,,,AAXX 07004 07790 12/65 02304 10220 20180 30148 40162 51002 60006 80000 90000=
07790,1996-08-07 03:00:00,20,1015.9,-0.3,83,17,15000,7.408,,,220,,,,,,,,,,,wg-a,,,,AAXX 07034 07790 12/65 02204 10200 20170 30145 40159 58003 60006 80000 90300=
07790,1996-08-07 06:00:00,23,1016.8,0.9,73,18,12000,7.408,,,230,20,26.2,,,,,,,,,wg-a,,,,AAXX 07064 07790 02862 52304 10230 20180 30154 40168 53009 60006 82032 90600 333 10262 20200 60004=
07790,1996-08-07 09:00:00,29,1016.8,0,62,21,12000,11.112,,,110,,,,,,,,,,,wg-a,,,,AAXX 07094 07790 12562 /1106 10290 20210 30154 40168 50000 60006 81532 90900=
07790,1996-08-07 12:00:00,27,1016.3,-0.5,74,22,10000,11.112,,,130,,,,,,,,,,,wg-a,,,,AAXX 07124 07790 12560 71306 10270 20220 30149 40163 55005 60006 83532 91200=
07790,1996-08-07 15:00:00,29,1015.3,-1,66,22,10000,14.816,,,110,,,,,,,,,,,wg-a,,,,AAXX 07154 07790 12560 /1108 10290 20220 30139 40153 58010 60006 81532 91500=
07790,1996-08-07 18:00:00,26,1015,-0.3,79,22,9000,3.704,,,180,23.3,30.1,,,,,,,,,wg-a,,,,AAXX 07184 07790 12559 71802 10260 20220 30136 40150 55003 60006 82532 91800 333 10301 20233=
07790,1996-08-07 21:00:00,23,1014.9,-0.1,89,21,12000,7.408,,,200,,,,,,,,,,,wg-a,,,,AAXX 07214 07790 12562 /2004 10230 20210 30135 40149 58001 60006 81581 92100=
07790,1996-08-08 00:00:00,23,1014.5,-0.4,78,19,12000,11.112,,,250,,,,,,,,,,,wg-a,,,,AAXX 08004 07790 12862 /2506 10230 20190 30131 40145 58004 60006 81080 90000=
07790,1996-08-08 03:00:00,21,1013.6,-0.9,78,17,10000,7.408,,,290,,,,,,,,,,,wg-a,,,,AAXX 08034 07790 12860 /2904 10210 20170 30122 40136 56009 60006 81080 90300=
07790,1996-08-08 06:00:00,23,1014.1,0.5,73,18,11000,7.408,,,210,19.9,26.1,,,,,,,,,wg-a,,,,AAXX 08064 07790 02/61 /2104 10230 20180 30127 40141 53005 60006 90600 333 10261 20199 60004=
07790,1996-08-08 09:00:00,29,1014.1,-0,55,19,10000,22.224,,,310,,,,,,,,,,,wg-a,,,,AAXX 08094 07790 12560 33112 10290 20190 30127 40141 54000 60006 81290 90900=
07790,1996-08-08 12:00:00,29,1013.2,-0.9,58,20,12000,14.816,,,150,,,,2,,,,,,2,wg-a,,,,AAXX 08124 07790 02562 41508 10290 20200 30118 40132 58009 60026 70296 82281 91200 333 60027=
07790,1996-08-08 15:00:00,26,1013.2,-0,79,22,15000,7.408,,,200,,,,0,,,,,,1,wg-a,,,,AAXX 08154 07790 12565 62004 10260 20220 30118 40132 55000 60007 70161 83930 91500=
07790,1996-08-08 18:00:00,26,1013.1,-0.1,79,22,9000,11.112,,,20,22.6,29.8,,,,,,,,3,wg-a,,,,AAXX 08184 07790 32659 /0206 10260 20220 30117 40131 55001 70361 81530 91800 333 10298 20226=
07790,1996-08-08 21:00:00,23,1014.3,1.2,89,21,15000,7.408,,,230,,,,,,,,,,,wg-a,,,,AAXX 08214 07790 12665 32304 10230 20210 30129 40143 50012 60006 81630 92100=
07790,1996-08-09 00:00:00,23,1013.7,-0.6,83,20,15000,11.112,,,240,,,,,,,,,,,wg-a,,,,AAXX 09004 07790 12/65 02406 10230 20200 30123 40137 58006 60006 80000 90000=
07790,1996-08-09 03:00:00,21,1014,0.3,83,18,15000,3.704,,,240,,,,,,,,,,,wg-a,,,,AAXX 09034 07790 12/65 02402 10210 20180 30126 40140 51003 60006 80000 90300=
07790,1996-08-09 06:00:00,23,1014.3,0.3,73,18,15000,14.816,,,240,20.4,26.1,,,,,2,,,,wg-a,,,,AAXX 09064 07790 02/65 02408 10230 20180 30129 40143 51003 60006 80000 90600 333 10261 20204 60024=
07790,1996-08-09 12:00:00,28,1014.5,-0.2,66,21,12000,11.112,,,50,,,,,,,,,,,wg-a,,,,AAXX 09124 07790 12562 20506 10280 20210 30131 40145 58002 60006 82200 91200=
07790,1996-08-09 18:00:00,26,1013.5,-0.2,70,20,10000,7.408,,,50,23,28.5,,,,,,,,,wg-a,,,,AAXX 09184 07790 12560 /0504 10260 20200 30121 40135 56002 60006 81100 91800 333 10285 20230=
07790,1996-08-09 21:00:00,23,1014.1,0.6,83,20,25000,3.704,,,250,,,,,,,,,,,wg-a,,,,AAXX 09214 07790 12/75 02502 10230 20200 30127 40141 51006 60006 80000 92100=
07790,1996-08-10 00:00:00,,1014,0.2,,,0,14.816,,,220,,,,,,,,,,,wg-a,,,,AAXX 10004 07790 12/// /2208 1//// 2//// 30129 40140 50002 60006 90000=
07790,1996-08-10 03:00:00,21,1013.5,-0.8,78,17,500,11.112,,,230,,,,,,,,,,,wg-a,,,,AAXX 10034 07790 12/00 02306 10210 20170 30121 40135 58008 60006 80000 90300=
07790,1996-08-10 06:00:00,23,1014.2,0.7,69,17,500,11.112,,,240,19.1,26.3,,,,,,,,,wg-a,,,,AAXX 10064 07790 02/00 02406 10230 20170 30128 40142 51007 60006 80000 90600 333 10263 20191 60004=
07790,1996-08-10 09:00:00,28,1014.1,-0.1,58,19,500,11.112,,,110,,,,,,,,,,,wg-a,,,,AAXX 10094 07790 12600 /1106 10280 20190 30127 40141 58001 60006 81100 90900=
07790,1996-08-10 12:00:00,28,1013.8,-0.3,62,20,20000,14.816,,,50,,,,,,,,,,,wg-a,,,,AAXX 10124 07790 12570 /0508 10280 20200 30124 40138 58003 60006 81200 91200=
07790,1996-08-10 15:00:00,28,1012.8,-1,70,22,12000,11.112,,,60,,,,,,,,,,,wg-a,,,,AAXX 10154 07790 12562 /0606 10280 20220 30114 40128 58010 60006 81200 91500=
07790,1996-08-10 18:00:00,26,1012,-0.8,74,21,9000,7.408,,,140,22.9,29,,,,,,,,,wg-a,,,,AAXX 10184 07790 12459 41404 10260 20210 30106 40120 56008 60006 81280 91800 333 10290 20229=
07790,1996-08-10 21:00:00,23,1012.3,0.3,89,21,10000,7.408,,,320,,,,,,,,,,,wg-a,,,,AAXX 10214 07790 12460 23204 10230 20210 30109 40123 53003 60006 81730 92100=
07790,1996-08-11 00:00:00,22,1011.6,-0.7,88,20,7000,3.704,,,240,,,,,,,,,,,wg-a,,,,AAXX 11004 07790 12457 32402 10220 20200 30102 40116 56007 60006 83700 90000=
07790,1996-08-11 03:00:00,21,1010.8,-0.8,88,19,12000,11.112,,,240,,,,,,,,,,,wg-a,,,,AAXX 11034 07790 12/62 02406 10210 20190 30094 40108 58008 60006 80000 90300=
07790,1996-08-11 06:00:00,24,1011.1,0.3,74,19,11000,7.408,,,220,21,26.4,,,,,,,,,wg-a,,,,AAXX 11064 07790 02661 52204 10240 20190 30097 40111 53003 60006 81130 90600 333 10264 20210 60004=
07790,1996-08-11 09:00:00,27,1010.5,-0.6,74,22,10000,14.816,,,140,,,,,,,,,,,wg-a,,,,AAXX 11094 07790 12660 71408 10270 20220 30091 40105 58006 60006 8127/ 90900=
07790,1996-08-11 12:00:00,30,1009.9,-0.6,62,22,16000,18.52,,,140,,,,,,,,,,,wg-a,,,,AAXX 11124 07790 12566 41410 10300 20220 30085 40099 58006 60006 82230 91200=
07790,1996-08-11 15:00:00,29,1008.9,-1,66,22,15000,11.112,,,140,,,,,,,,,,17,wg-a,,,,AAXX 11154 07790 12565 71406 10290 20220 30075 40089 58010 60006 71791 879// 91500=
07790,1996-08-11 18:00:00,26,1008.1,-0.8,79,22,15000,7.408,,,230,23.6,30,,1,,,,,,29,wg-a,,,,AAXX 11184 07790 12565 72304 10260 20220 30067 40081 58008 60017 72998 84902 91800 333 10300 20236=
07790,1996-08-11 21:00:00,24,1009.6,1.5,74,19,11000,11.112,,,70,,,,,,,,,,,wg-a,,,,AAXX 11214 07790 12/61 /0706 10240 20190 30082 40096 51015 60006 92100=
07790,1996-08-12 00:00:00,22,1009.6,0,88,20,12000,7.408,,,230,,,,,,,,,,,wg-a,,,,AAXX 12004 07790 12562 52304 10220 20200 30082 40096 50000 60006 85800 90000=
07790,1996-08-12 03:00:00,20,1008.5,-1.1,88,18,12000,3.704,,,260,,,,,,,,,,,wg-a,,,,AAXX 12034 07790 12562 22602 10200 20180 30071 40085 56011 60006 82200 90300=
07790,1996-08-12 06:00:00,22,1008.8,0.3,78,18,25000,11.112,,,230,19,25.7,,0,,,1,,,,wg-a,,,,AAXX 12064 07790 02575 22306 10220 20180 30074 40088 51003 60014 81141 90600 333 10257 20190 60007=
07790,1996-08-12 09:00:00,27,1009,0.2,58,18,500,14.816,,,110,,,,,,,,,,,wg-a,,,,AAXX 12094 07790 12500 31108 10270 20180 30076 40090 50002 60006 81442 90900=
07790,1996-08-12 12:00:00,27,1008.8,-0.2,70,21,500,18.52,,,140,,,,,,,,,,,wg-a,,,,AAXX 12124 07790 12500 51410 10270 20210 30074 40088 56002 60006 82832 91200=
07790,1996-08-12 15:00:00,28,1008.5,-0.3,66,21,40000,18.52,,,70,,,,,,,,,,,wg-a,,,,AAXX 12154 07790 12582 20710 10280 20210 30071 40085 55003 60006 81830 91500=
07790,1996-08-12 18:00:00,27,1009.1,0.6,54,17,50000,11.112,,,180,21.6,29.3,,,,,,,,,wg-a,,,,AAXX 12184 07790 12684 /1806 10270 20170 30077 40091 53006 60006 81141 91800 333 10293 20216=
07790,1996-08-12 21:00:00,22,1011.1,2,46,10,25000,3.704,,,310,,,,,,,,,,,wg-a,,,,AAXX 12214 07790 12/75 /3102 10220 20100 30097 40111 51020 60006 81040 92100=
07790,1996-08-13 00:00:00,20,1011.1,0,49,9,25000,11.112,,,220,,,,,,,,,,,wg-a,,,,AAXX 13004 07790 12/75 /2206 10200 20090 30097 40111 50000 60006 81030 90000=
07790,1996-08-13 03:00:00,20,1011,-0.1,53,10,25000,7.408,,,220,,,,,,,,,,,wg-a,,,,AAXX 13034 07790 12/75 /2204 10200 20100 30096 40110 58001 60006 80000 90300=
07790,1996-08-13 06:00:00,21,1012,1,60,13,25000,7.408,,,220,18.6,26.7,,,,,,,,,wg-a,,,,AAXX 13064 07790 02575 22204 10210 20130 30106 40120 51010 60006 82800 90600 333 10267 20186 60004=
07790,1996-08-13 09:00:00,26,1012.7,0.7,54,16,500,18.52,,,120,,,,,,,,,,,wg-a,,,,AAXX 13094 07790 12500 41210 10260 20160 30113 40127 51007 60006 84100 90900=
07790,1996-08-13 12:00:00,29,1012.6,-0.1,48,17,500,18.52,,,120,,,,,,,,,,,wg-a,,,,AAXX 13124 07790 12500 61210 10290 20170 30112 40126 55001 60006 84150 91200=
07790,1996-08-13 15:00:00,28,1012.2,-0.4,51,17,500,11.112,,,140,,,,,,,,,,,wg-a,,,,AAXX 13154 07790 12500 51406 10280 20170 30108 40122 58004 60006 84250 91500=
07790,1996-08-13 18:00:00,25,1012.5,0.3,65,18,500,3.704,,,70,20.8,28.9,,,,,,,,,wg-a,,,,AAXX 13184 07790 12500 20702 10250 20180 30111 40125 53003 60006 82830 91800 333 10289 20208=
07790,1996-08-13 21:00:00,21,1013.4,0.9,69,15,500,11.112,,,240,,,,,,,,,,,wg-a,,,,AAXX 13214 07790 12/00 02406 10210 20150 30120 40134 51009 60006 80000 92100=
07790,1996-08-14 00:00:00,21,1013.5,0.1,64,14,10000,11.112,,,230,,,,,,,,,,,wg-a,,,,AAXX 14004 07790 12/60 /2306 10210 20140 30121 40135 52001 60006 90000=
07790,1996-08-14 03:00:00,20,1013.3,-0.2,64,13,500,11.112,,,210,,,,,,,,,,,wg-a,,,,AAXX 14034 07790 12600 /2106 10200 20130 30119 40133 58002 60006 81500 90300=
07790,1996-08-14 06:00:00,21,1013.5,0.2,64,14,20000,11.112,,,230,18.9,25.2,,,,,,,,,wg-a,,,,AAXX 14064 07790 02570 22306 10210 20140 30121 40135 53002 60006 82500 90600 333 10252 20189 60004=
07790,1996-08-14 09:00:00,27,1013.9,0.4,54,17,500,14.816,,,120,,,,,,,,,,,wg-a,,,,AAXX 14094 07790 12500 31208 10270 20170 30125 40139 52004 60006 82201 90900=
07790,1996-08-14 12:00:00,27,1013.4,-0.5,54,17,500,18.52,,,140,,,,,,,,,,,wg-a,,,,AAXX 14124 07790 12600 41410 10270 20170 30120 40134 58005 60006 83501 91200=
07790,1996-08-14 15:00:00,27,1012.8,-0.6,58,18,20000,18.52,,,140,,,,,,,,,,,wg-a,,,,AAXX 14154 07790 12670 41410 10270 20180 30114 40128 58006 60006 81530 91500=
07790,1996-08-14 18:00:00,26,1012.2,-0.6,61,18,20000,3.704,,,150,20.9,27.8,,,,,,,,,wg-a,,,,AAXX 14184 07790 12670 /1502 10260 20180 30108 40122 56006 60006 81500 91800 333 10278 20209=
07790,1996-08-14 21:00:00,22,1013.1,0.9,78,18,25000,3.704,,,260,,,,,,,,,,,wg-a,,,,AAXX 14214 07790 12/75 02602 10220 20180 30117 40131 51009 60006 80000 92100=
07790,1996-08-15 00:00:00,20,1012.5,-0.6,83,17,25000,7.408,,,220,,,,,,,,,,,wg-a,,,,AAXX 15004 07790 12/75 02204 10200 20170 30111 40125 58006 60006 80000 90000=
07790,1996-08-15 03:00:00,19,1011.6,-0.9,83,16,25000,7.408,,,280,,,,,,,,,,,wg-a,,,,AAXX 15034 07790 12/75 02804 10190 20160 30102 40116 58009 60006 80000 90300=
07790,1996-08-15 06:00:00,21,1012.3,0.7,73,16,500,11.112,,,220,18.8,25.5,,,,,,,,,wg-a,,,,AAXX 15064 07790 02500 /2206 10210 20160 30109 40123 51007 60006 81202 90600 333 10255 20188 60004=
07790,1996-08-15 09:00:00,27,1013,0.7,51,16,500,11.112,,,50,,,,,,,,,,,wg-a,,,,AAXX 15094 07790 12/00 /0506 10270 20160 30116 40130 53007 60006 81032 90900=
07790,1996-08-15 12:00:00,27,1013.3,0.3,58,18,500,14.816,,,30,,,,,,,,,,,wg-a,,,,AAXX 15124 07790 12500 /0308 10270 20180 30119 40133 53003 60006 811// 91200=
07790,1996-08-15 15:00:00,26,1012.6,-0.7,61,18,500,11.112,,,50,,,,,,,,,,,wg-a,,,,AAXX 15154 07790 12500 30506 10260 20180 30112 40126 56007 60006 81204 91500=
07790,1996-08-15 18:00:00,25,1013,0.4,65,18,500,3.704,,,130,21.1,27.1,,,,,,,,,wg-a,,,,AAXX 15184 07790 12500 /1302 10250 20180 30116 40130 53004 60006 81402 91800 333 10271 20211=
07790,1996-08-15 21:00:00,22,1014.2,1.2,78,18,500,7.408,,,220,,,,,,,,,,,wg-a,,,,AAXX 15214 07790 12/00 02204 10220 20180 30128 40142 51012 60006 80000 92100=
07790,1996-08-16 00:00:00,20,1014.6,0.4,83,17,500,7.408,,,250,,,,,,,,,,,wg-a,,,,AAXX 16004 07790 12/00 02504 10200 20170 30132 40146 50004 60006 80000 90000=
07790,1996-08-16 03:00:00,19,1015.2,0.6,83,16,500,11.112,,,230,,,,,,,,,,,wg-a,,,,AAXX 16034 07790 12/00 02306 10190 20160 30138 40152 53006 60006 80000 90300=
07790,1996-08-16 06:00:00,21,1015.6,0.4,69,15,20000,11.112,,,220,18.6,25,,,,,,,,,wg-a,,,,AAXX 16064 07790 02/70 02206 10210 20150 30142 40156 53004 60006 80000 90600 333 10250 20186 60004=
07790,1996-08-16 09:00:00,27,1015.7,0.1,42,13,25000,11.112,,,20,,,,,,,,,,,wg-a,,,,AAXX 16094 07790 12575 /0206 10270 20130 30143 40157 52001 60006 81100 90900=
07790,1996-08-16 12:00:00,27,1015.7,-0,58,18,25000,18.52,,,20,,,,,,,,,,,wg-a,,,,AAXX 16124 07790 12575 /0210 10270 20180 30143 40157 55000 60006 81100 91200=
07790,1996-08-16 15:00:00,28,1015.3,-0.4,51,17,25000,11.112,,,90,,,,,,,,,,,wg-a,,,,AAXX 16154 07790 12575 /0906 10280 20170 30139 40153 58004 60006 81200 91500=
07790,1996-08-16 18:00:00,26,1015.1,-0.2,61,18,25000,7.408,,,10,21.1,28.1,,,,,,,,,wg-a,,,,AAXX 16184 07790 12575 /0104 10260 20180 30137 40151 55002 60006 81100 91800 333 10281 20211=
07790,1996-08-16 21:00:00,22,1016.6,1.5,73,17,25000,7.408,,,290,,,,,,,,,,,wg-a,,,,AAXX 16214 07790 12/75 02904 10220 20170 30152 40166 51015 60006 80000 92100=
07790,1996-08-17 00:00:00,20,1017.1,0.5,78,16,25000,7.408,,,230,,,,,,,,,,,wg-a,,,,AAXX 17004 07790 12/75 02304 10200 20160 30157 40171 51005 60006 80000 90000=
07790,1996-08-17 06:00:00,22,1017.1,0.5,65,15,500,11.112,,,230,19,25.7,,,,,,,,,wg-a,,,,AAXX 17064 07790 02/00 02306 10220 20150 30157 40171 53005 60006 80000 90600 333 10257 20190 60004=
07790,1996-08-17 12:00:00,28,1017.2,-0.4,55,18,500,11.112,,,100,,,,,,,,,,,wg-a,,,,AAXX 17124 07790 12600 /1006 10280 20180 30158 40172 58004 60006 81132 91200=
07790,1996-08-17 15:00:00,30,1016.3,-0.9,46,17,500,7.408,,,100,,,,,,,,,,,wg-a,,,,AAXX 17154 07790 12600 /1004 10300 20170 30149 40163 57009 60006 81101 91500=
07790,1996-08-17 18:00:00,26,1016.1,-0.2,65,19,500,3.704,,,100,22,30,,,,,,,,,wg-a,,,,AAXX 17184 07790 12500 31002 10260 20190 30147 40161 55002 60006 82801 91800 333 10300 20220=
07790,1996-08-17 21:00:00,22,1016.4,0.3,78,18,10000,3.704,,,230,,,,,,,,,,,wg-a,,,,AAXX 17214 07790 12/60 /2302 10220 20180 30150 40164 51003 60006 92100=
07790,1996-08-18 00:00:00,21,1016.2,-0.2,78,17,12000,7.408,,,230,,,,,,,,,,,wg-a,,,,AAXX 18004 07790 12/62 02304 10210 20170 30148 40162 58002 60006 80000 90000=
07790,1996-08-18 03:00:00,20,1015.7,-0.5,78,16,12000,7.408,,,240,,,,,,,,,,,wg-a,,,,AAXX 18034 07790 12/62 02404 10200 20160 30143 40157 58005 60006 80000 90300=
07790,1996-08-18 06:00:00,22,1015.4,-0.3,69,16,18000,7.408,,,240,19.4,26.3,,,,,,,,,wg-a,,,,AAXX 18064 07790 02/68 02404 10220 20160 30140 40154 56003 60006 80000 90600 333 10263 20194 60004=
07790,1996-08-18 09:00:00,27,1015.8,0.4,54,17,15000,22.224,,,60,,,,,,,,,,,wg-a,,,,AAXX 18094 07790 12565 /0612 10270 20170 30144 40158 53004 60006 81100 90900=
07790,1996-08-18 12:00:00,28,1015.7,-0.1,66,21,12000,14.816,,,30,,,,,,,,,,,wg-a,,,,AAXX 18124 07790 12662 /0308 10280 20210 30143 40157 55001 60006 81200 91200=
07790,1996-08-18 15:00:00,27,1015,-0.7,66,20,10000,11.112,,,60,,,,,,,,,,,wg-a,,,,AAXX 18154 07790 12560 /0606 10270 20200 30136 40150 56007 60006 81200 91500=
07790,1996-08-18 18:00:00,25,1014.7,-0.3,74,20,9000,11.112,,,50,22.1,29.7,,,,,,,,,wg-a,,,,AAXX 18184 07790 12/59 /0506 10250 20200 30133 40147 55003 60006 91800 333 10297 20221=
07790,1996-08-18 21:00:00,22,1015.3,0.6,83,19,15000,3.704,,,250,,,,,,,,,,,wg-a,,,,AAXX 18214 07790 12/65 02502 10220 20190 30139 40153 50006 60006 80000 92100=
07790,1996-08-19 00:00:00,20,1015.4,0.1,78,16,20000,3.704,,,260,,,,,,,,,,,wg-a,,,,AAXX 19004 07790 12/70 02602 10200 20160 30140 40154 51001 60006 80000 90000=
07790,1996-08-19 03:00:00,19,1015.4,-0,78,15,20000,11.112,,,230,,,,,,,,,,,wg-a,,,,AAXX 19034 07790 12/70 02306 10190 20150 30140 40154 55000 60006 80000 90300=
07790,1996-08-19 06:00:00,21,1015.6,0.2,69,15,12000,7.408,,,230,19.1,25.4,,,,,,,,,wg-a,,,,AAXX 19064 07790 02562 /2304 10210 20150 30142 40156 53002 60006 81100 90600 333 10254 20191 60004=
07790,1996-08-19 09:00:00,27,1016.2,0.6,62,19,25000,11.112,,,70,,,,,,,,,,,wg-a,,,,AAXX 19094 07790 12575 /0706 10270 20190 30148 40162 51006 60006 81100 90900=
07790,1996-08-19 12:00:00,28,1015.9,-0.3,51,17,500,11.112,,,70,,,,,,,,,,,wg-a,,,,AAXX 19124 07790 12500 /0706 10280 20170 30145 40159 58003 60006 81800 91200=
07790,1996-08-19 15:00:00,28,1015.3,-0.6,42,14,500,14.816,,,40,,,,,,,,,,,wg-a,,,,AAXX 19154 07790 12500 /0408 10280 20140 30139 40153 58006 60006 81303 91500=
07790,1996-08-19 18:00:00,26,1014.5,-0.8,54,16,500,7.408,,,40,21.3,28.5,,,,,,,,,wg-a,,,,AAXX 19184 07790 12/00 /0404 10260 20160 30131 40145 56008 60006 81030 91800 333 10285 20213=
07790,1996-08-19 21:00:00,21,1015.6,1.1,64,14,15000,7.408,,,260,,,,,,,,,,,wg-a,,,,AAXX 19214 07790 12/65 02604 10210 20140 30142 40156 51011 60006 80000 92100=
07790,1996-08-20 00:00:00,20,1016,0.4,68,14,15000,7.408,,,240,,,,,,,,,,,wg-a,,,,AAXX 20004 07790 12/65 02404 10200 20140 30146 40160 50004 60006 80000 90000=
07790,1996-08-20 03:00:00,20,1015.3,-0.7,68,14,25000,7.408,,,230,,,,,,,,,,,wg-a,,,,AAXX 20034 07790 12/75 02304 10200 20140 30139 40153 58007 60006 80000 90300=
07790,1996-08-20 06:00:00,22,1015.5,0.2,57,13,20000,11.112,,,230,18.9,25.6,,,,,,,,,wg-a,,,,AAXX 20064 07790 02/70 02306 10220 20130 30141 40155 53002 60006 80000 90600 333 10256 20189 60004=
07790,1996-08-20 09:00:00,27,1016.2,0.7,45,14,500,11.112,,,40,,,,,,,,,,,wg-a,,,,AAXX 20094 07790 12/00 00406 10270 20140 30148 40162 51007 60006 80000 90900=
07790,1996-08-20 12:00:00,28,1016,-0.2,45,15,500,14.816,,,50,,,,,,,,,,,wg-a,,,,AAXX 20124 07790 12600 10508 10280 20150 30146 40160 58002 60006 81100 91200=
07790,1996-08-20 15:00:00,28,1015,-1,37,12,500,11.112,,,20,,,,,,,,,,,wg-a,,,,AAXX 20154 07790 12600 /0206 10280 20120 30136 40150 56010 60006 81100 91500=
07790,1996-08-20 18:00:00,26,1014.1,-0.9,51,15,500,3.704,,,340,21.6,28.7,,,,,,,,,wg-a,,,,AAXX 20184 07790 12600 /3402 10260 20150 30127 40141 56009 60006 81531 91800 333 10287 20216=
07790,1996-08-20 21:00:00,21,1014.9,0.8,60,13,25000,7.408,,,280,,,,,,,,,,,wg-a,,,,AAXX 20214 07790 12/75 /2804 10210 20130 30135 40149 53008 60006 81030 92100=
07790,1996-08-21 00:00:00,20,1015,0.1,60,12,10000,7.408,,,230,,,,,,,,,,,wg-a,,,,AAXX 21004 07790 12/60 /2304 10200 20120 30136 40150 50001 60006 90000=
07790,1996-08-21 03:00:00,19,1014.1,-0.9,68,13,25000,7.408,,,230,,,,,,,,,,,wg-a,,,,AAXX 21034 07790 12/75 02304 10190 20130 30127 40141 58009 60006 80000 90300=
07790,1996-08-21 06:00:00,21,1014.2,0.1,56,12,18000,7.408,,,210,18.3,25.9,,,,,,,,,wg-a,,,,AAXX 21064 07790 02568 /2104 10210 20120 30128 40142 53001 60006 81102 90600 333 10259 20183 60004=
07790,1996-08-21 09:00:00,28,1014.4,0.2,48,16,18000,11.112,,,130,,,,,,,,,,,wg-a,,,,AAXX 21094 07790 12/68 /1306 10280 20160 30130 40144 50002 60006 81030 90900=
07790,1996-08-21 12:00:00,29,1014.2,-0.2,48,17,18000,25.928,,,140,,,,,,,,,,,wg-a,,,,AAXX 21124 07790 12568 21414 10290 20170 30128 40142 58002 60006 81281 91200=
07790,1996-08-21 15:00:00,27,1012.7,-1.5,58,18,18000,29.632,,,140,,,,,,,,,,,wg-a,,,,AAXX 21154 07790 12668 41416 10270 20180 30113 40127 56015 60006 81281 91500=
07790,1996-08-21 18:00:00,26,1011.6,-1.1,65,19,12000,14.816,,,150,21,29.7,,,,,,,,,wg-a,,,,AAXX 21184 07790 12662 41508 10260 20190 30102 40116 56011 60006 81284 91800 333 10297 20210=
07790,1996-08-21 21:00:00,23,1011.8,0.2,78,19,15000,3.704,,,190,,,,,,,,,,,wg-a,,,,AAXX 21214 07790 12865 21902 10230 20190 30104 40118 50002 60006 82080 92100=
07790,1996-08-22 00:00:00,21,1011.3,-0.5,83,18,15000,3.704,,,280,,,,,,,,,,,wg-a,,,,AAXX 22004 07790 12865 /2802 10210 20180 30099 40113 56005 60006 86050 90000=
07790,1996-08-22 03:00:00,21,1008.4,-2.9,60,13,20000,50.004,,59.264,250,,,,,,,,,,18,wg-a,,,,AAXX 22034 07790 02570 72527 10210 20130 30070 40084 58029 61000 71898 8597/ 90300 333 //// 91032=
07790,1996-08-22 06:00:00,21,1011.1,2.7,78,17,11000,7.408,,,270,20.1,25.6,,,,,,,,,wg-a,,,,AAXX 22064 07790 02/61 /2704 10210 20170 30097 40111 51027 61000 90600 333 10256 20201 6100=
07790,1996-08-22 09:00:00,26,1011.5,0.4,58,17,15000,11.112,,,130,,,,,,,,,,,wg-a,,,,AAXX 22094 07790 12565 51306 10260 20170 30101 40115 53004 60006 84202 90900=
07790,1996-08-22 12:00:00,24,1011.4,-0.1,69,18,12000,11.112,,,120,,,,,,,,,,,wg-a,,,,AAXX 22124 07790 12562 71206 10240 20180 30100 40114 55001 60006 86202 91200=
07790,1996-08-22 15:00:00,22,1011,-0.4,83,19,10000,7.408,,,210,,,,13,,,,,,25,wg-a,,,,AAXX 22154 07790 12560 72104 10220 20190 30096 40110 57004 60137 72586 85970 91500=
07790,1996-08-22 18:00:00,22,1010.9,-0.1,78,18,10000,7.408,,,240,20.9,26.4,,,,,,,,3,wg-a,,,,AAXX 22184 07790 32560 /2404 10220 20180 30095 40109 55001 70386 84202 91800 333 10264 20209=
07790,1996-08-22 21:00:00,21,1012.1,1.2,78,17,10000,18.52,,,290,,,,,,,,,,,wg-a,,,,AAXX 22214 07790 12560 32910 10210 20170 30107 40121 51012 60006 83800 92100=
07790,1996-08-23 00:00:00,20,1012.2,0.1,78,16,10000,3.704,,,220,,,,,,,,,,,wg-a,,,,AAXX 23004 07790 12660 /2202 10200 20160 30108 40122 52001 60006 81800 90000=
07790,1996-08-23 03:00:00,18,1011.9,-0.3,83,15,10000,11.112,,,220,,,,,,,,,,,wg-a,,,,AAXX 23034 07790 12660 /2206 10180 20150 30105 40119 58003 60006 81500 90300=
07790,1996-08-23 06:00:00,20,1012,0.1,73,15,15000,14.816,,,240,17.7,22.2,,,,,13,,,,wg-a,,,,AAXX 23064 07790 02565 /2408 10200 20150 30106 40120 53001 60006 81800 90600 333 10222 20177 60134=
07790,1996-08-23 09:00:00,27,1012.7,0.7,54,17,25000,7.408,,,180,,,,,,,,,,,wg-a,,,,AAXX 23094 07790 12575 21804 10270 20170 30113 40127 51007 60006 82200 90900=
07790,1996-08-23 12:00:00,26,1012.9,0.2,61,18,25000,11.112,,,60,,,,,,,,,,,wg-a,,,,AAXX 23124 07790 12575 30606 10260 20180 30115 40129 51002 60006 83200 91200=
07790,1996-08-23 15:00:00,28,1012.5,-0.4,55,18,500,11.112,,,170,,,,,,,,,,,wg-a,,,,AAXX 23154 07790 12500 /1706 10280 20180 30111 40125 58004 60006 81100 91500=
07790,1996-08-23 18:00:00,25,1012.4,-0.1,69,19,500,7.408,,,120,19.8,28.5,,,,,,,,,wg-a,,,,AAXX 23184 07790 12500 /1204 10250 20190 30110 40124 55001 60006 81100 91800 333 10285 20198=
07790,1996-08-23 21:00:00,20,1013.5,1.1,83,17,25000,7.408,,,240,,,,,,,,,,,wg-a,,,,AAXX 23214 07790 12/75 02404 10200 20170 30121 40135 51011 60006 80000 92100=
07790,1996-08-24 00:00:00,20,1012.9,-0.6,78,16,25000,14.816,,,230,,,,,,,,,,,wg-a,,,,AAXX 24004 07790 12/75 02308 10200 20160 30115 40129 58006 60006 80000 90000=
07790,1996-08-24 03:00:00,19,1012.4,-0.5,73,14,25000,7.408,,,220,,,,,,,,,,,wg-a,,,,AAXX 24034 07790 12/75 02204 10190 20140 30110 40124 58005 60006 80000 90300=
07790,1996-08-24 06:00:00,19,1012.4,-0,73,14,10000,11.112,,,220,17.5,24.6,,,,,,,,,wg-a,,,,AAXX 24064 07790 02/60 /2206 10190 20140 30110 40124 55000 60006 90600 333 10246 20175 60004=
07790,1996-08-24 09:00:00,27,1012.4,-0,66,20,18000,22.224,,,140,,,,,,,,,,,wg-a,,,,AAXX 24094 07790 12568 /1412 10270 20200 30110 40124 54000 60006 81100 90900=
07790,1996-08-24 12:00:00,28,1012.1,-0.3,58,19,20000,22.224,,,140,,,,,,,,,,,wg-a,,,,AAXX 24124 07790 12570 31412 10280 20190 30107 40121 58003 60006 83200 91200=
07790,1996-08-24 15:00:00,28,1011.5,-0.6,66,21,20000,14.816,,,160,,,,,,,,,,,wg-a,,,,AAXX 24154 07790 12570 51608 10280 20210 30101 40115 58006 60006 84903 91500=
07790,1996-08-24 18:00:00,24,1010.9,-0.6,78,20,18000,7.408,,,150,19.3,28.2,,,,,,,,,wg-a,,,,AAXX 24184 07790 12568 51504 10240 20200 30095 40109 56006 60006 82263 91800 333 10282 20193=
07790,1996-08-24 21:00:00,22,1011.5,0.6,83,19,18000,3.704,,,240,,,,,,,,,,,wg-a,,,,AAXX 24214 07790 12568 32402 10220 20190 30101 40115 50006 60006 81130 92100=
07790,1996-08-25 00:00:00,21,1011.3,-0.2,83,18,20000,7.408,,,230,,,,,,,,,,,wg-a,,,,AAXX 25004 07790 12/70 02304 10210 20180 30099 40113 58002 60006 80000 90000=
07790,1996-08-25 03:00:00,20,1011.1,-0.2,88,18,20000,11.112,,,220,,,,,,,,,,,wg-a,,,,AAXX 25034 07790 12/70 02206 10200 20180 30097 40111 58002 60006 80000 90300=
07790,1996-08-25 06:00:00,21,1011.8,0.7,78,17,25000,7.408,,,230,19.3,24.4,,,,,,,,,wg-a,,,,AAXX 25064 07790 02575 /2304 10210 20170 30104 40118 53007 60006 81201 90600 333 10244 20193 60004=
07790,1996-08-25 09:00:00,26,1012.8,1,74,21,15000,14.816,,,130,,,,,,,,,,,wg-a,,,,AAXX 25094 07790 12565 61308 10260 20210 30114 40128 51010 60006 85903 90900=
07790,1996-08-25 12:00:00,27,1012.8,-0,66,20,12000,14.816,,,130,,,,3,,,,,,25,wg-a,,,,AAXX 25124 07790 02462 31308 10270 20200 30114 40128 54000 60036 72586 83230 91200 333 60037=
07790,1996-08-25 15:00:00,26,1012.4,-0.4,58,17,15000,14.816,,,60,,,,,,,,,,,wg-a,,,,AAXX 25154 07790 12565 60608 10260 20170 30110 40124 55004 60006 86202 91500=
07790,1996-08-25 18:00:00,25,1012.6,0.2,69,19,25000,3.704,,,160,20.8,28,,,,,,,,,wg-a,,,,AAXX 25184 07790 32575 71602 10250 20190 30112 40126 53002 84234 91800 333 10280 20208=
07790,1996-08-25 21:00:00,22,1013.6,1,69,16,25000,14.816,,,250,,,,,,,,,,,wg-a,,,,AAXX 25214 07790 12575 42508 10220 20160 30122 40136 50010 60006 81532 92100=
07790,1996-08-26 00:00:00,20,1013.9,0.3,60,12,25000,18.52,,,240,,,,,,,,,,,wg-a,,,,AAXX 26004 07790 12575 42410 10200 20120 30125 40139 53003 60006 81502 90000=
07790,1996-08-26 03:00:00,20,1013.9,-0,60,12,25000,18.52,,,250,,,,,,,,,,,wg-a,,,,AAXX 26034 07790 12575 52510 10200 20120 30125 40139 55000 60006 84502 90300=
07790,1996-08-26 06:00:00,21,1015.1,1.2,53,11,25000,18.52,,,240,19.2,24.9,,,,,3,,,,wg-a,,,,AAXX 26064 07790 02575 /2410 10210 20110 30137 40151 53012 60006 85200 90600 333 10249 20192 60034=
07790,1996-08-26 09:00:00,26,1016.1,1,61,18,500,14.816,,,110,,,,,,,,,,,wg-a,,,,AAXX 26094 07790 12500 41108 10260 20180 30147 40161 53010 60006 84200 90900=
07790,1996-08-26 12:00:00,26,1015.9,-0.2,54,16,500,11.112,,,100,,,,,,,,,,,wg-a,,,,AAXX 26124 07790 12500 /1006 10260 20160 30145 40159 58002 60006 85802 91200=
07790,1996-08-26 15:00:00,27,1015.4,-0.5,58,18,500,11.112,,,140,,,,,,,,,,,wg-a,,,,AAXX 26154 07790 12500 51406 10270 20180 30140 40154 57005 60006 85800 91500=
07790,1996-08-26 18:00:00,24,1015.4,-0,74,19,500,3.704,,,170,20.4,27.7,,,,,,,,,wg-a,,,,AAXX 26184 07790 12600 31702 10240 20190 30140 40154 55000 60006 81102 91800 333 10277 20204=
07790,1996-08-26 21:00:00,21,1016.1,0.7,78,17,500,3.704,,,220,,,,,,,,,,,wg-a,,,,AAXX 26214 07790 12/00 02202 10210 20170 30147 40161 50007 60006 80000 92100=
07790,1996-08-27 00:00:00,19,1015.7,-0.4,88,17,500,3.704,,,270,,,,,,,,,,,wg-a,,,,AAXX 27004 07790 12/00 62702 10190 20170 30143 40157 58004 60006 80006 90000=
07790,1996-08-27 03:00:00,18,1015.5,-0.2,88,16,500,11.112,,,230,,,,,,,,,,,wg-a,,,,AAXX 27034 07790 12500 32306 10180 20160 30141 40155 58002 60006 81102 90300=
07790,1996-08-27 06:00:00,20,1015.9,0.4,78,16,25000,11.112,,,220,17.9,24.2,,,,,,,,,wg-a,,,,AAXX 27064 07790 02575 42206 10200 20160 30145 40159 53004 60006 81102 90600 333 10242 20179 60004=
07790,1996-08-27 09:00:00,26,1016.4,0.5,61,18,500,18.52,,,130,,,,,,,,,,,wg-a,,,,AAXX 27094 07790 12500 31310 10260 20180 30150 40164 53005 60006 82201 90900=
07790,1996-08-27 12:00:00,27,1015.5,-0.9,62,19,500,25.928,,,130,,,,,,,,,,,wg-a,,,,AAXX 27124 07790 12500 31314 10270 20190 30141 40155 56009 60006 83801 91200=
07790,1996-08-27 15:00:00,26,1013.7,-1.8,74,21,20000,29.632,,,150,,,,,,,,,,,wg-a,,,,AAXX 27154 07790 12470 61516 10260 20210 30123 40137 56018 60006 86801 91500=
07790,1996-08-27 21:00:00,23,1012.7,-0.1,89,21,15000,7.408,,,340,,,,,,,,,,,wg-a,,,,AAXX 27214 07790 12565 73404 10230 20210 30113 40127 58001 60006 81552 92100=
07790,1996-08-28 00:00:00,21,1012.2,-0.5,88,19,15000,3.704,,,300,,,,,,,,,,,wg-a,,,,AAXX 28004 07790 12565 73002 10210 20190 30108 40122 55005 60006 82572 90000=
07790,1996-08-28 03:00:00,24,1009.8,-2.4,65,17,18000,11.112,,,270,,,,,,,,,,17,wg-a,,,,AAXX 28034 07790 02468 32706 10240 20170 30084 40098 58024 61000 71796 82902 90300 333 ////=
07790,1996-08-28 06:00:00,24,1010,0.2,61,16,18000,7.408,,,270,21.2,24.7,,,,,,,,3,wg-a,,,,AAXX 28064 07790 02568 22704 10240 20160 30086 40100 53002 61000 70396 81261 90600 333 10247 20212 ////=
07790,1996-08-28 09:00:00,28,1010.3,0.3,55,18,18000,14.816,,,140,,,,,,,,,,,wg-a,,,,AAXX 28094 07790 12568 /1408 10280 20180 30089 40103 53003 60006 81201 90900=
07790,1996-08-28 12:00:00,28,1010.7,0.4,58,19,15000,29.632,,,130,,,,,,,,,,,wg-a,,,,AAXX 28124 07790 12465 31316 10280 20190 30093 40107 53004 60006 83200 91200=
07790,1996-08-28 15:00:00,25,1011.4,0.7,69,19,11000,14.816,,,160,,,,,,,,,,,wg-a,,,,AAXX 28154 07790 12/61 /1608 10250 20190 30100 40114 53007 60006 91500=
07790,1996-08-28 18:00:00,23,1011.4,0,83,20,10000,14.816,,,330,23.1,28.3,,,,,,,,,wg-a,,,,AAXX 28184 07790 12560 63308 10230 20200 30100 40114 50000 60006 86800 91800 333 10283 20231=
07790,1996-08-28 21:00:00,21,1012.6,1.2,40,7,15000,11.112,,,270,,,,,,,,,,,wg-a,,,,AAXX 28214 07790 12565 /2706 10210 20070 30112 40126 51012 60006 81200 92100=
07790,1996-08-29 00:00:00,21,1012.8,0.2,38,6,20000,22.224,,,250,,,,,,,,,,,wg-a,,,,AAXX 29004 07790 12570 32512 10210 20060 30114 40128 51002 60006 83500 90000=
07790,1996-08-29 03:00:00,21,1012.3,-0.5,38,6,20000,18.52,,,230,,,,,,,,,,,wg-a,,,,AAXX 29034 07790 12570 22310 10210 20060 30109 40123 58005 60006 82500 90300=
07790,1996-08-29 06:00:00,21,1013.3,1,35,5,20000,14.816,,,220,19.7,23.3,,,,,,,,,wg-a,,,,AAXX 29064 07790 02570 72208 10210 20050 30119 40133 53010 60006 82201 90600 333 10233 20197 60004=
07790,1996-08-29 09:00:00,24,1014.2,0.9,65,17,20000,11.112,,,150,,,,,,,,,,,wg-a,,,,AAXX 29094 07790 12570 71506 10240 20170 30128 40142 51009 60006 85202 90900=
07790,1996-08-29 12:00:00,24,1013.9,-0.3,65,17,20000,11.112,,,140,,,,,,,,,,,wg-a,,,,AAXX 29124 07790 12570 81406 10240 20170 30125 40139 55003 60006 86302 91200=
07790,1996-08-29 15:00:00,25,1013.3,-0.6,61,17,20000,7.408,,,120,,,,,,,,,,,wg-a,,,,AAXX 29154 07790 12570 81204 10250 20170 30119 40133 56006 60006 84252 91500=
07790,1996-08-29 18:00:00,23,1013.6,0.3,61,15,20000,7.408,,,10,21.1,25.4,,,,,,,,,wg-a,,,,AAXX 29184 07790 12570 60104 10230 20150 30122 40136 52003 60006 83201 91800 333 10254 20211=
07790,1996-08-29 21:00:00,21,1014.8,1.2,73,16,20000,0,,,0,,,,,,,,,,,wg-a,,,,AAXX 29214 07790 12470 /0000 10210 20160 30134 40148 51012 60006 85800 92100=
07790,1996-08-30 00:00:00,19,1014.7,-0.1,83,16,20000,7.408,,,260,,,,,,,,,,,wg-a,,,,AAXX 30004 07790 12570 /2604 10190 20160 30133 40147 58001 60006 81550 90000=
07790,1996-08-30 03:00:00,18,1014.3,-0.4,64,11,25000,14.816,,,240,,,,,,,,,,,wg-a,,,,AAXX 30034 07790 12575 22408 10180 20110 30129 40143 56004 60006 81531 90300=
07790,1996-08-30 06:00:00,19,1015,0.7,52,9,40000,14.816,,,240,17.3,22.8,,,,,,,,,wg-a,,,,AAXX 30064 07790 02/82 72408 10190 20090 30136 40150 53007 60006 81032 90600 333 10228 20173 60004=
07790,1996-08-30 09:00:00,25,1015.5,0.5,50,14,40000,11.112,,,110,,,,,,,,,,,wg-a,,,,AAXX 30094 07790 12582 /1106 10250 20140 30141 40155 52005 60006 81282 90900=
07790,1996-08-30 12:00:00,27,1015.6,0.1,48,15,500,14.816,,,110,,,,,,,,,,,wg-a,,,,AAXX 30124 07790 12500 51108 10270 20150 30142 40156 51001 60006 84332 91200=
07790,1996-08-30 15:00:00,24,1015.6,-0,57,15,25000,7.408,,,130,,,,,,,,,,,wg-a,,,,AAXX 30154 07790 12675 71304 10240 20150 30142 40156 55000 60006 86802 91500=
07790,1996-08-30 18:00:00,23,1014.9,-0.7,65,16,25000,7.408,,,160,18.9,26.9,,,,,,,,,wg-a,,,,AAXX 30184 07790 12775 21604 10230 20160 30135 40149 56007 60006 82530 91800 333 10269 20189=
07790,1996-08-30 21:00:00,20,1015.5,0.6,78,16,20000,3.704,,,280,,,,,,,,,,,wg-a,,,,AAXX 30214 07790 12770 72802 10200 20160 30141 40155 50006 60006 8257/ 92100=
07790,1996-08-31 00:00:00,19,1015.8,0.3,83,16,10000,3.704,,,170,,,,1,,,,,,95,wg-a,,,,AAXX 31004 07790 02560 81702 10190 20160 30144 40158 51003 60016 79596 879// 90000 333 60017=
07790,1996-08-31 03:00:00,18,1015,-0.8,68,12,10000,3.704,,,120,,,,0,,,,,,80,wg-a,,,,AAXX 31034 07790 12560 81202 10180 20120 30136 40150 56008 60007 78096 889// 90300=
07790,1996-08-31 06:00:00,18,1015.5,0.5,83,15,11000,3.704,,,190,17.2,22.5,,,,,1,,,,wg-a,,,,AAXX 31064 07790 02/61 /1902 10180 20150 30141 40155 51005 60014 90600 333 10225 20172 61000=
07790,1996-08-31 09:00:00,22,1015.9,0.4,57,13,20000,7.408,,,150,,,,,,,,,,,wg-a,,,,AAXX 31094 07790 12670 /1504 10220 20130 30145 40159 53004 60006 82834 90900=
07790,1996-08-31 12:00:00,24,1015.5,-0.4,54,14,25000,11.112,,,90,,,,,,,,,,,wg-a,,,,AAXX 31124 07790 12575 50906 10240 20140 30141 40155 57004 60006 83834 91200=
07790,1996-08-31 15:00:00,23,1015.4,-0.1,61,15,25000,3.704,,,210,,,,,,,,,,,wg-a,,,,AAXX 31154 07790 12575 /2102 10230 20150 30140 40154 58001 60006 83831 91500=
07790,1996-08-31 18:00:00,22,1015.5,0.1,65,15,25000,7.408,,,200,17.6,24.9,,,,,,,,,wg-a,,,,AAXX 31184 07790 12575 /2004 10220 20150 30141 40155 52001 60006 81531 91800 333 10249 20176=
07790,1996-08-31 21:00:00,19,1016.5,1,73,14,20000,3.704,,,280,,,,,,,,,,,wg-a,,,,AAXX 31214 07790 12570 22802 10190 20140 30151 40165 51010 60006 82500 92100=
07790,1996-09-01 00:00:00,19,1016.5,-0,68,13,20000,7.408,,,220,,,,,,,,,,,wg-a,,,,AAXX 01004 07790 12570 32204 10190 20130 30151 40165 54000 60006 83500 90000=
07790,1996-09-01 03:00:00,18,1016,-0.5,73,13,20000,7.408,,,230,,,,,,,,,,,wg-a,,,,AAXX 01034 07790 12570 32304 10180 20130 30146 40160 57005 60006 81530 90300=
07790,1996-09-01 06:00:00,19,1016.3,0.3,68,13,25000,14.816,,,230,17.5,21.5,,,,,,,,,wg-a,,,,AAXX 01064 07790 02575 22308 10190 20130 30149 40163 53003 60006 81131 90600 333 10215 20175 60004=
07790,1996-09-01 09:00:00,25,1016.7,0.4,50,14,25000,11.112,,,100,,,,,,,,,,,wg-a,,,,AAXX 01094 07790 12575 21006 10250 20140 30153 40167 51004 60006 82201 90900=
07790,1996-09-01 12:00:00,25,1016.2,-0.5,50,14,25000,14.816,,,60,,,,,,,,,,,wg-a,,,,AAXX 01124 07790 12575 20608 10250 20140 30148 40162 58005 60006 82201 91200=
07790,1996-09-01 15:00:00,24,1015.8,-0.4,61,16,10000,7.408,,,170,,,,,,,,,,60,wg-a,,,,AAXX 01154 07790 02560 71704 10240 20160 30144 40158 55004 61000 76061 83332 91500 333 ////=
07790,1996-09-01 18:00:00,21,1014.9,-0.9,73,16,15000,11.112,,,240,19.1,26.5,,,,,,,,1,wg-a,,,,AAXX 01184 07790 02565 /2406 10210 20160 30135 40149 56009 61000 70161 81232 91800 333 10265 20191 ////=
07790,1996-09-01 21:00:00,18,1015,0.1,83,15,20000,7.408,,,230,,,,,,,,,,,wg-a,,,,AAXX 01214 07790 12/70 02304 10180 20150 30136 40150 50001 60006 80000 92100=
07790,1996-09-02 00:00:00,17,1014.6,-0.4,82,14,20000,7.408,,,240,,,,,,,,,,,wg-a,,,,AAXX 02004 07790 12870 22404 10170 20140 30132 40146 58004 60006 82080 90000=
07790,1996-09-02 03:00:00,17,1012.7,-1.9,82,14,20000,7.408,,,230,,,,,,,,,,,wg-a,,,,AAXX 02034 07790 12470 /2304 10170 20140 30113 40127 58019 60006 81180 90300=
07790,1996-09-02 06:00:00,19,1012.6,-0.1,83,16,10000,7.408,,,300,16.6,21.3,,,,,,,,17,wg-a,,,,AAXX 02064 07790 02460 63004 10190 20160 30112 40126 55001 60006 71791 86900 90600 333 10213 20166 61000=
07790,1996-09-02 09:00:00,20,1012.5,-0.1,83,17,6000,25.928,,,350,,,,3,,,,,,17,wg-a,,,,AAXX 02094 07790 12356 /3514 10200 20170 30111 40125 55001 60037 71798 8593/ 90900=
07790,1996-09-02 10:00:00,19,1012.3,,88,17,3000,11.112,,,310,17.9,21.1,,4,,,,,,95,wg-a,,,,AAXX 02104 07790 12430 73106 10190 20170 30109 40123 60047 79596 879// 91000 333 10211 20179=
07790,1996-09-02 12:00:00,20,1011.9,-0.6,83,17,9000,14.816,,,40,,,,0,,,,,,60,wg-a,,,,AAXX 02124 07790 02459 70408 10200 20170 30105 40119 58006 60036 76098 8697/ 91200 333 60007=
07790,1996-09-02 15:00:00,21,1011.1,-0.8,73,16,12000,22.224,,,30,,,,,,,,,,3,wg-a,,,,AAXX 02154 07790 02462 70312 10210 20160 30097 40111 56008 61000 70362 869// 91500 333 ////=
07790,1996-09-02 18:00:00,19,1011.4,0.3,88,17,3000,11.112,,,310,17.9,21.1,,4,,,,,,10,wg-a,,,,AAXX 02184 07790 12430 73106 10190 20170 30100 40114 53003 60047 71096 879// 91800 333 10211 20179=
07790,1996-09-02 21:00:00,18,1012,0.6,88,16,2000,14.816,,,40,,,,14,,,,,,10,wg-a,,,,AAXX 02214 07790 12420 80408 10180 20160 30106 40120 51006 60147 71096 889// 92100=
07790,1996-09-03 00:00:00,16,1011.5,-0.5,94,15,2000,18.52,,,320,,,,31,,,,,,81,wg-a,,,,AAXX 03004 07790 02420 83210 10160 20150 30101 40115 55005 60446 78196 889// 90000 333 60317=
07790,1996-09-03 03:00:00,16,1011,-0.5,94,15,4000,7.408,,,290,,,,,,,,,,10,wg-a,,,,AAXX 03034 07790 32/40 /2904 10160 20150 30096 40110 56005 710// 90300=
07790,1996-09-03 06:00:00,16,1010.6,-0.4,94,15,7000,7.408,,,240,15.5,18.8,,,,,56,,,15,wg-a,,,,AAXX 03064 07790 12557 52404 10160 20150 30092 40106 55004 60564 71596 84963 90600 333 10188 20155=
07790,1996-09-03 09:00:00,21,1011.2,0.6,78,17,10000,18.52,,,90,,,,,,,,,,,wg-a,,,,AAXX 03094 07790 12460 70910 10210 20170 30098 40112 52006 60006 85903 90900=
07790,1996-09-03 12:00:00,21,1011.3,0.1,73,16,4000,11.112,,,120,,,,,,,,,,80,wg-a,,,,AAXX 03124 07790 02440 71206 10210 20160 30099 40113 53001 61000 78086 8596/ 91200 333 6100=
07790,1996-09-03 15:00:00,21,1010.7,-0.6,78,17,15000,3.704,,,250,,,,0,,,,,,3,wg-a,,,,AAXX 03154 07790 12465 72502 10210 20170 30093 40107 56006 60007 70386 84972 91500=
07790,1996-09-03 18:00:00,18,1010,-0.7,94,17,10000,7.408,,,260,15.8,22.4,,1,,,,,,80,wg-a,,,,AAXX 03184 07790 12560 82604 10180 20170 30086 40100 58007 60017 78098 8496/ 91800 333 10224 20158=
07790,1996-09-03 21:00:00,17,1010.8,0.8,94,16,10000,3.704,,,260,,,,,,,,,,1,wg-a,,,,AAXX 03214 07790 02560 /2602 10170 20160 30094 40108 53008 61000 70198 83970 92100 333 ////=
07790,1996-09-04 00:00:00,16,1010.1,-0.7,94,15,12000,11.112,,,250,,,,0,,,,,,1,wg-a,,,,AAXX 04004 07790 02562 42506 10160 20150 30087 40101 58007 60006 70198 83930 90000 333 60007=
07790,1996-09-04 03:00:00,16,1010,-0.1,88,14,12000,3.704,,,270,,,,,,,,,,13,wg-a,,,,AAXX 04034 07790 12562 32702 10160 20140 30086 40100 55001 60006 71300 83900 90300=
07790,1996-09-04 06:00:00,16,1009.4,-0.6,88,14,11000,11.112,,,260,15,18.3,,,,,2,,,,wg-a,,,,AAXX 04064 07790 12/61 /2606 10160 20140 30080 40094 58006 60024 90600 333 10183 20150=
07790,1996-09-04 09:00:00,22,1011.3,1.9,60,14,25000,14.816,,,320,,,,,,,,,,,wg-a,,,,AAXX 04094 07790 12575 /3208 10220 20140 30099 40113 52019 60006 83802 90900=
07790,1996-09-04 12:00:00,24,1011.3,-0,54,14,20000,31.484,,,340,,,,,,,,,,,wg-a,,,,AAXX 04124 07790 12570 43417 10240 20140 30099 40113 55000 60006 82232 91200=
07790,1996-09-04 15:00:00,23,1011,-0.3,53,13,25000,22.224,,50.004,340,,,,,,,,,,,wg-a,,,,AAXX 04154 07790 12575 23412 10230 20130 30096 40110 57003 60006 82800 91500 333 91027=
07790,1996-09-04 18:00:00,21,1011.9,0.9,64,14,11000,14.816,,,320,16,24.4,,,,,,,,,wg-a,,,,AAXX 04184 07790 12/61 /3208 10210 20140 30105 40119 52009 60006 91800 333 10244 20160=
07790,1996-09-04 21:00:00,18,1012.8,0.9,73,13,25000,22.224,,,260,,,,,,,,,,,wg-a,,,,AAXX 04214 07790 12575 /2612 10180 20130 30114 40128 51009 60006 81500 92100=
07790,1996-09-05 00:00:00,18,1012.9,0.1,73,13,25000,22.224,,,250,,,,,,,,,,,wg-a,,,,AAXX 05004 07790 12575 /2512 10180 20130 30115 40129 50001 60006 81500 90000=
07790,1996-09-05 03:00:00,18,1012.2,-0.7,73,13,25000,14.816,,,240,,,,,,,,,,,wg-a,,,,AAXX 05034 07790 12575 /2408 10180 20130 30108 40122 56007 60006 81500 90300=
07790,1996-09-05 06:00:00,19,1012.4,0.2,68,13,35000,18.52,,,230,17.4,20.6,,,,,,,,,wg-a,,,,AAXX 05064 07790 02/81 /2310 10190 20130 30110 40124 53002 60006 80000 90600 333 10206 20174 60004=
07790,1996-09-05 09:00:00,26,1012.1,-0.3,45,13,40000,7.408,,,110,,,,,,,,,,,wg-a,,,,AAXX 05094 07790 12/82 01104 10260 20130 30107 40121 58003 60006 80000 90900=
07790,1996-09-05 12:00:00,27,1011.4,-0.7,42,13,40000,14.816,,,130,,,,,,,,,,,wg-a,,,,AAXX 05124 07790 12582 /1308 10270 20130 30100 40114 58007 60006 81140 91200=
07790,1996-09-05 15:00:00,25,1010,-1.4,50,14,40000,11.112,,,150,,,,,,,,,,,wg-a,,,,AAXX 05154 07790 12582 21506 10250 20140 30086 40100 58014 60006 82400 91500=
07790,1996-09-05 18:00:00,23,1009.7,-0.3,65,16,35000,7.408,,,200,18.8,27.4,,,,,,,,,wg-a,,,,AAXX 05184 07790 12581 /2004 10230 20160 30083 40097 55003 60006 81500 91800 333 10274 20188=
07790,1996-09-05 21:00:00,18,1010.1,0.4,83,15,35000,11.112,,,230,,,,,,,,,,,wg-a,,,,AAXX 05214 07790 12/81 02306 10180 20150 30087 40101 51004 60006 80000 92100=
07790,1996-09-06 00:00:00,17,1010.2,0.1,77,13,0,7.408,,,230,,,,,,,,,,,wg-a,,,,AAXX 06004 07790 12/// /2304 10170 20130 30088 40102 52001 60006 90000=
07790,1996-09-06 03:00:00,16,1009.1,-1.1,82,13,20000,7.408,,,240,,,,,,,,,,,wg-a,,,,AAXX 06034 07790 12/70 02404 10160 20130 30077 40091 56011 60006 80000 90300=
07790,1996-09-06 06:00:00,17,1008.8,-0.3,72,12,10000,11.112,,,220,15.9,22.6,,,,,,,,,wg-a,,,,AAXX 06064 07790 02/60 /2206 10170 20120 30074 40088 55003 60006 90600 333 10226 20159 60004=
07790,1996-09-06 09:00:00,25,1009.4,0.6,57,16,20000,11.112,,,120,,,,,,,,,,,wg-a,,,,AAXX 06094 07790 12570 11206 10250 20160 30080 40094 53006 60006 81100 90900=
07790,1996-09-06 12:00:00,26,1009.7,0.3,54,16,20000,11.112,,,120,,,,,,,,,,,wg-a,,,,AAXX 06124 07790 12570 21206 10260 20160 30083 40097 50003 60006 82200 91200=
07790,1996-09-06 15:00:00,26,1009.2,-0.5,58,17,11000,14.816,,,140,,,,,,,,,,,wg-a,,,,AAXX 06154 07790 12/61 /1408 10260 20170 30078 40092 56005 60006 91500=
07790,1996-09-06 18:00:00,22,1009.6,0.4,73,17,9000,3.704,,,210,17.1,26.6,,,,,,,,,wg-a,,,,AAXX 06184 07790 12559 /2102 10220 20170 30082 40096 51004 60006 81500 91800 333 10266 20171=
07790,1996-09-06 21:00:00,18,1010,0.4,88,16,10000,3.704,,,260,,,,,,,,,,,wg-a,,,,AAXX 06214 07790 12560 /2602 10180 20160 30086 40100 50004 60006 81500 92100=
07790,1996-09-07 03:00:00,17,1007.8,-1.5,88,15,10000,11.112,,,240,,,,,,,,,,,wg-a,,,,AAXX 07034 07790 12/60 02406 10170 20150 30064 40078 56015 60006 80000 90300=
07790,1996-09-07 06:00:00,18,1007.9,0.1,88,16,8000,7.408,,,230,17.1,22.1,,,,,,,,,wg-a,,,,AAXX 07064 07790 02558 52304 10180 20160 30065 40079 53001 60006 85800 90600 333 10221 20171 60004=
07790,1996-09-07 09:00:00,23,1008.7,0.8,69,17,11000,18.52,,,30,,,,,,,,,,,wg-a,,,,AAXX 07094 07790 12/61 /0310 10230 20170 30073 40087 51008 60006 90900=
07790,1996-09-07 12:00:00,21,1010.2,1.5,83,18,8000,11.112,,,200,,,,,,,,,,,wg-a,,,,AAXX 07124 07790 12/58 /2006 10210 20180 30088 40102 53015 60066 91200=
07790,1996-09-07 15:00:00,24,1011.5,1.3,38,9,18000,22.224,,,20,,,,,,,,,,1,wg-a,,,,AAXX 07154 07790 12568 /0212 10240 20090 30101 40115 53013 60006 70191 81201 91500=
07790,1996-09-07 18:00:00,21,1013.3,1.8,43,8,25000,14.816,,,50,17.8,24.2,,,,,,,,1,wg-a,,,,AAXX 07184 07790 32675 /0508 10210 20080 30119 40133 53018 70191 81500 91800 333 10242 20178=
07790,1996-09-07 21:00:00,15,1015,1.7,72,10,25000,11.112,,,220,,,,,,,,,,,wg-a,,,,AAXX 07214 07790 12/75 02206 10150 20100 30136 40150 51017 60006 80000 92100=
07790,1996-09-08 00:00:00,15,1014.6,-0.4,63,8,25000,11.112,,,230,,,,,,,,,,,wg-a,,,,AAXX 08004 07790 12/75 02306 10150 20080 30132 40146 58004 60006 80000 90000=
07790,1996-09-08 03:00:00,15,1013.8,-0.8,55,6,25000,18.52,,,240,,,,,,,,,,,wg-a,,,,AAXX 08034 07790 12/75 02410 10150 20060 30124 40138 58008 60006 80000 90300=
07790,1996-09-08 06:00:00,16,1013.5,-0.3,48,5,60000,18.52,,,240,14.2,21.1,,,,,6,,,,wg-a,,,,AAXX 08064 07790 02/86 02410 10160 20050 30121 40135 56003 60006 80000 90600 333 10211 20142 60064=
07790,1996-09-08 09:00:00,24,1013.8,0.3,18,-2,60000,7.408,,,210,,,,,,,,,,,wg-a,,,,AAXX 08094 07790 12586 12104 10240 21020 30124 40138 53003 60006 81101 90900=
07790,1996-09-08 12:00:00,25,1013.1,-0.7,22,2,11000,14.816,,,110,,,,,,,,,,,wg-a,,,,AAXX 08124 07790 12/61 /1108 10250 20020 30117 40131 58007 60006 91200=
07790,1996-09-08 15:00:00,24,1012.3,-0.8,29,5,11000,11.112,,,150,,,,,,,,,,,wg-a,,,,AAXX 08154 07790 12/61 /1506 10240 20050 30109 40123 57008 60006 91500=
07790,1996-09-08 18:00:00,20,1012.3,-0,49,9,50000,7.408,,,200,15.6,25.5,,,,,,,,,wg-a,,,,AAXX 08184 07790 12684 /2004 10200 20090 30109 40123 54000 60006 81501 91800 333 10255 20156=
07790,1996-09-08 21:00:00,15,1013.1,0.8,72,10,500,7.408,,,240,,,,,,,,,,,wg-a,,,,AAXX 08214 07790 12/00 02404 10150 20100 30117 40131 51008 60006 80000 92100=
07790,1996-09-09 00:00:00,16,1013,-0.1,59,8,500,18.52,,,240,,,,,,,,,,,wg-a,,,,AAXX 09004 07790 12/00 02410 10160 20080 30116 40130 56001 60006 80000 90000=
07790,1996-09-09 03:00:00,15,1012.4,-0.6,59,7,500,14.816,,,230,,,,,,,,,,,wg-a,,,,AAXX 09034 07790 12/00 02308 10150 20070 30110 40124 55006 60006 80000 90300=
07790,1996-09-09 06:00:00,14,1013.3,0.9,67,8,50000,7.408,,,220,13.4,19.7,,,,,,,,,wg-a,,,,AAXX 09064 07790 02584 22204 10140 20080 30119 40133 53009 60006 81202 90600 333 10197 20134 60004=
07790,1996-09-09 09:00:00,23,1014,0.7,44,10,50000,22.224,,,140,,,,,,,,,,,wg-a,,,,AAXX 09094 07790 12584 /1412 10230 20100 30126 40140 53007 60006 81930 90900=
07790,1996-09-09 12:00:00,24,1014,0,38,9,50000,25.928,,,130,,,,,,,,,,,wg-a,,,,AAXX 09124 07790 12584 41314 10240 20090 30126 40140 50000 60006 81904 91200=
07790,1996-09-09 15:00:00,23,1013.4,-0.6,50,12,40000,18.52,,,140,,,,,,,,,,,wg-a,,,,AAXX 09154 07790 12682 /1410 10230 20120 30120 40134 58006 60006 81405 91500=
07790,1996-09-09 18:00:00,19,1013.8,0.4,64,12,500,3.704,,,200,14.4,24.5,,,,,,,,,wg-a,,,,AAXX 09184 07790 12/00 52002 10190 20120 30124 40138 53004 60006 81046 91800 333 10245 20144=
07790,1996-09-09 21:00:00,15,1014.9,1.1,77,11,500,7.408,,,230,,,,,,,,,,,wg-a,,,,AAXX 09214 07790 12/00 /2304 10150 20110 30135 40149 50011 60006 81030 92100=
07790,1996-09-10 00:00:00,14,1015.1,0.2,77,10,500,11.112,,,240,,,,,,,,,,,wg-a,,,,AAXX 10004 07790 12/00 02406 10140 20100 30137 40151 50002 60006 80000 90000=
07790,1996-09-10 03:00:00,14,1014.1,-1,72,9,500,14.816,,,230,,,,,,,,,,,wg-a,,,,AAXX 10034 07790 12/00 02308 10140 20090 30127 40141 56010 60006 80000 90300=
07790,1996-09-10 06:00:00,16,1014.6,0.5,59,8,50000,14.816,,,230,13.4,19.1,,,,,,,,,wg-a,,,,AAXX 10064 07790 02584 /2308 10160 20080 30132 40146 53005 60006 81100 90600 333 10191 20134 60004=
07790,1996-09-10 09:00:00,23,1015.7,1.1,53,13,50000,11.112,,,110,,,,,,,,,,,wg-a,,,,AAXX 10094 07790 12584 /1106 10230 20130 30143 40157 51011 60006 81100 90900=
07790,1996-09-10 12:00:00,25,1015.5,-0.2,50,14,50000,18.52,,,140,,,,,,,,,,,wg-a,,,,AAXX 10124 07790 12684 21410 10250 20140 30141 40155 57002 60006 82200 91200=
07790,1996-09-10 15:00:00,24,1014.4,-1.1,50,13,60000,14.816,,,150,,,,,,,,,,,wg-a,,,,AAXX 10154 07790 12686 31508 10240 20130 30130 40144 57011 60006 81102 91500=
07790,1996-09-10 18:00:00,21,1014.5,0.1,69,15,50000,3.704,,,150,15.5,24.8,,,,,,,,,wg-a,,,,AAXX 10184 07790 12684 /1502 10210 20150 30131 40145 53001 60006 81402 91800 333 10248 20155=
07790,1996-09-11 00:00:00,15,1015.1,-0.2,88,13,25000,7.408,,,230,,,,,,,,,,,wg-a,,,,AAXX 11004 07790 12/75 02304 10150 20130 30137 40151 55002 60006 80000 90000=
07790,1996-09-11 03:00:00,14,1014.5,-0.6,88,12,25000,7.408,,,240,,,,,,,,,,,wg-a,,,,AAXX 11034 07790 12/75 02404 10140 20120 30131 40145 58006 60006 80000 90300=
07790,1996-09-11 06:00:00,15,1014.1,-0.4,82,12,40000,7.408,,,220,13.9,20.5,,,,,,,,,wg-a,,,,AAXX 11064 07790 02582 52204 10150 20120 30127 40141 55004 60006 81531 90600 333 10205 20139 60004=
07790,1996-09-11 09:00:00,23,1013.8,-0.3,61,15,40000,14.816,,,120,,,,,,,,,,,wg-a,,,,AAXX 11094 07790 12582 /1208 10230 20150 30124 40138 58003 60006 81589 90900=
07790,1996-09-11 12:00:00,24,1012.4,-1.4,61,16,40000,22.224,,,140,,,,,,,,,,,wg-a,,,,AAXX 11124 07790 12582 21412 10240 20160 30110 40124 58014 60006 81182 91200=
07790,1996-09-11 15:00:00,24,1011,-1.4,61,16,500,25.928,,,140,,,,,,,,,,,wg-a,,,,AAXX 11154 07790 12500 71414 10240 20160 30096 40110 58014 60006 82284 91500=
07790,1996-09-11 18:00:00,21,1010.2,-0.8,83,18,10000,11.112,,,200,14.9,24.8,,0,,,,,,25,wg-a,,,,AAXX 11184 07790 12560 82006 10210 20180 30088 40102 58008 60007 72586 85832 91800 333 10248 20149=
07790,1996-09-11 21:00:00,20,1009.2,-1,94,19,9000,3.704,,,250,,,,1,,,,,,61,wg-a,,,,AAXX 11214 07790 12259 82502 10200 20190 30078 40092 58010 60017 76162 878// 92100=
07790,1996-09-12 00:00:00,20,1007.6,-1.6,94,19,9000,3.704,,,170,,,,13,,,,,,17,wg-a,,,,AAXX 12004 07790 02259 81702 10200 20190 30062 40076 56016 60146 71796 879// 90000 333 60137=
07790,1996-09-12 03:00:00,20,1005.4,-2.2,94,19,9000,11.112,,,70,,,,19,,,,,,17,wg-a,,,,AAXX 12034 07790 12259 80706 10200 20190 30040 40054 58022 60197 71796 879// 90300=
07790,1996-09-12 06:00:00,20,1004.6,-0.8,94,19,15000,7.408,,,270,19.2,21.3,,,,,34,,,3,wg-a,,,,AAXX 12064 07790 12465 82704 10200 20190 30032 40046 56008 60344 70396 888// 90600 333 10213 20192=
07790,1996-09-12 12:00:00,22,1001,-2.1,88,20,9000,7.408,,,110,,,,0,,,,,,95,wg-a,,,,AAXX 12124 07790 02459 81104 10220 20200 39996 40010 57021 60056 79596 8697/ 91200 333 60007=
07790,1996-09-12 15:00:00,23,999,-2,78,19,15000,22.224,,,10,,,,3,,,,,,29,wg-a,,,,AAXX 12154 07790 12465 /0112 10230 20190 39976 49990 57020 60037 72996 84930 91500=
07790,1996-09-12 18:00:00,21,998.8,-0.2,94,20,20000,11.112,,,190,19.8,23.5,,,,,,,,3,wg-a,,,,AAXX 12184 07790 32570 61906 10210 20200 39974 49988 56002 70396 86830 91800 333 10235 20198=
07790,1996-09-12 21:00:00,19,999,0.2,88,17,15000,11.112,,,270,,,,0,,,,,,21,wg-a,,,,AAXX 12214 07790 12465 82706 10190 20170 39976 49990 50002 60007 72162 889// 92100=
07790,1996-09-13 00:00:00,18,998.2,-0.8,88,16,20000,11.112,,,240,,,,,,,,,,1,wg-a,,,,AAXX 13004 07790 12570 52406 10180 20160 39968 49982 56008 60016 70162 84530 90000=
07790,1996-09-13 03:00:00,19,997.2,-1,78,15,500,14.816,,,310,,,,,,,,,,,wg-a,,,,AAXX 13034 07790 12600 /3108 10190 20150 39958 49972 58010 60006 81530 90300=
07790,1996-09-13 06:00:00,18,998.5,1.3,68,12,500,14.816,,,240,16.5,21.2,,,,,9,,,,wg-a,,,,AAXX 13064 07790 12500 /2408 10180 20120 39971 49985 53013 60094 81800 90600 333 10212 20165=
07790,1996-09-13 09:00:00,24,1000.1,1.6,41,10,500,3.704,,,60,,,,,,,,,,,wg-a,,,,AAXX 13094 07790 12500 /0602 10240 20100 39987 40001 51016 60006 81100 90900=
07790,1996-09-13 12:00:00,25,1000.3,0.2,44,12,500,14.816,,,90,,,,,,,,,,,wg-a,,,,AAXX 13124 07790 12500 20908 10250 20120 39989 40003 50002 60006 82200 91200=
07790,1996-09-13 15:00:00,24,1001.1,0.8,47,12,500,18.52,,,30,,,,,,,,,,,wg-a,,,,AAXX 13154 07790 12500 /0310 10240 20120 39997 40011 53008 60006 83200 91500=
07790,1996-09-13 18:00:00,20,1003.6,2.5,46,8,15000,18.52,,,320,18,26.7,,,,,,,,,wg-a,,,,AAXX 13184 07790 12565 /3210 10200 20080 30022 40036 53025 60006 81800 91800 333 10267 20180=
07790,1996-09-13 21:00:00,19,1006,2.4,46,7,15000,22.224,,,250,,,,,,,,,,,wg-a,,,,AAXX 13214 07790 12565 22512 10190 20070 30046 40060 51024 60006 81130 92100=
07790,1996-09-14 00:00:00,18,1008,2,52,8,0,11.112,,,240,,,,,,,,,,,wg-a,,,,AAXX 14004 07790 12/// /2406 10180 20080 30066 40080 53020 60006 90000=
07790,1996-09-14 03:00:00,17,1009.5,1.5,59,9,500,14.816,,,240,,,,,,,,,,,wg-a,,,,AAXX 14034 07790 12/00 02408 10170 20090 30081 40095 51015 60006 80000 90300=
07790,1996-09-14 06:00:00,16,1011.3,1.8,68,10,40000,11.112,,,230,15.1,19.7,,,,,,,,,wg-a,,,,AAXX 14064 07790 02/82 02306 10160 20100 30099 40113 53018 60006 80000 90600 333 10197 20151 60004=
07790,1996-09-14 09:00:00,24,1013,1.7,36,8,40000,7.408,,,220,,,,,,,,,,,wg-a,,,,AAXX 14094 07790 12/82 12204 10240 20080 30116 40130 52017 60006 80001 90900=
07790,1996-09-14 12:00:00,25,1013.5,0.5,32,7,40000,18.52,,,140,,,,,,,,,,,wg-a,,,,AAXX 14124 07790 12682 /1410 10250 20070 30121 40135 53005 60006 81100 91200=
07790,1996-09-14 15:00:00,25,1013.9,0.4,36,9,40000,14.816,,,130,,,,,,,,,,,wg-a,,,,AAXX 14154 07790 12682 /1308 10250 20090 30125 40139 51004 60006 81100 91500=
07790,1996-09-14 18:00:00,20,1014.3,0.4,60,12,500,3.704,,,280,16,26,,,,,,,,,wg-a,,,,AAXX 14184 07790 12700 22802 10200 20120 30129 40143 53004 60006 82500 91800 333 10260 20160=
07790,1996-09-14 21:00:00,18,1015.4,1.1,73,13,500,7.408,,,310,,,,,,,,,,,wg-a,,,,AAXX 14214 07790 12700 23104 10180 20130 30140 40154 51011 60006 82500 92100=
07790,1996-09-15 00:00:00,20,1015.8,0.4,68,14,11000,11.112,,,330,,,,,,,,,,,wg-a,,,,AAXX 15004 07790 12/61 /3306 10200 20140 30144 40158 53004 60006 90000=
07790,1996-09-15 03:00:00,18,1015.5,-0.3,77,14,500,11.112,,,320,,,,,,,,,,,wg-a,,,,AAXX 15034 07790 12700 /3206 10180 20140 30141 40155 58003 60006 81500 90300=
07790,1996-09-15 06:00:00,19,1015.9,0.4,78,15,500,14.816,,,330,16.7,19.8,,,,,,,,,wg-a,,,,AAXX 15064 07790 02500 33308 10190 20150 30145 40159 53004 60006 83500 90600 333 10198 20167 60004=
07790,1996-09-15 09:00:00,22,1016.7,0.8,57,13,500,22.224,,,20,,,,,,,,,,,wg-a,,,,AAXX 15094 07790 12500 30212 10220 20130 30153 40167 53008 60006 83500 90900=
07790,1996-09-15 12:00:00,22,1016.9,0.2,60,14,500,14.816,,,40,,,,,,,,,,,wg-a,,,,AAXX 15124 07790 12500 20408 10220 20140 30155 40169 51002 60006 82200 91200=
07790,1996-09-15 15:00:00,22,1016.7,-0.2,60,14,500,18.52,,,20,,,,,,,,,,,wg-a,,,,AAXX 15154 07790 12500 20210 10220 20140 30153 40167 55002 60006 82200 91500=
07790,1996-09-15 18:00:00,19,1016.8,0.1,73,14,500,14.816,,,340,19,23.3,,,,,,,,,wg-a,,,,AAXX 15184 07790 12500 33408 10190 20140 30154 40168 53001 60006 83500 91800 333 10233 20190=
07790,1996-09-15 21:00:00,16,1017.7,0.9,82,13,11000,3.704,,,260,,,,,,,,,,,wg-a,,,,AAXX 15214 07790 12/61 /2602 10160 20130 30163 40177 51009 60006 92100=
07790,1996-09-16 00:00:00,15,1017.6,-0.1,82,12,15000,7.408,,,240,,,,,,,,,,,wg-a,,,,AAXX 16004 07790 12665 /2404 10150 20120 30162 40176 58001 60006 81500 90000=
07790,1996-09-16 03:00:00,15,1016.5,-1.1,77,11,11000,14.816,,,240,,,,,,,,,,,wg-a,,,,AAXX 16034 07790 12/61 /2408 10150 20110 30151 40165 56011 60006 90300=
07790,1996-09-16 06:00:00,15,1016.2,-0.3,77,11,35000,14.816,,,240,13.8,19,,,,,,,,,wg-a,,,,AAXX 16064 07790 02581 /2408 10150 20110 30148 40162 56003 60006 81200 90600 333 10190 20138 60004=
07790,1996-09-16 09:00:00,22,1016.7,0.5,57,13,35000,11.112,,,40,,,,,,,,,,,wg-a,,,,AAXX 16094 07790 12581 20406 10220 20130 30153 40167 53005 60006 82200 90900=
07790,1996-09-16 12:00:00,22,1016.9,0.2,60,14,35000,14.816,,,50,,,,,,,,,,,wg-a,,,,AAXX 16124 07790 12581 20508 10220 20140 30155 40169 51002 60006 82200 91200=
07790,1996-09-16 15:00:00,22,1015.8,-1.1,65,15,35000,11.112,,,50,,,,,,,,,,,wg-a,,,,AAXX 16154 07790 12581 20506 10220 20150 30144 40158 56011 60006 82200 91500=
07790,1996-09-16 18:00:00,18,1015.3,-0.5,83,15,20000,7.408,,,210,14.9,22.2,,,,,,,,,wg-a,,,,AAXX 16184 07790 12570 /2104 10180 20150 30139 40153 58005 60006 81400 91800 333 10222 20149=
07790,1996-09-16 21:00:00,16,1016,0.7,88,14,20000,7.408,,,240,,,,,,,,,,,wg-a,,,,AAXX 16214 07790 12570 22404 10160 20140 30146 40160 51007 60006 82400 92100=
07790,1996-09-17 00:00:00,16,1015.5,-0.5,88,14,20000,11.112,,,230,,,,,,,,,,,wg-a,,,,AAXX 17004 07790 12570 22306 10160 20140 30141 40155 58005 60006 82400 90000=
07790,1996-09-17 03:00:00,16,1014.5,-1,82,13,20000,14.816,,,240,,,,,,,,,,,wg-a,,,,AAXX 17034 07790 12/70 02408 10160 20130 30131 40145 56010 60006 80000 90300=
07790,1996-09-17 06:00:00,16,1014,-0.5,82,13,25000,18.52,,,250,15.2,18.3,,,,,,,,,wg-a,,,,AAXX 17064 07790 02575 42510 10160 20130 30126 40140 55005 60006 81231 90600 333 10183 20152 60004=
07790,1996-09-17 09:00:00,22,1013.5,-0.5,65,15,25000,11.112,,,110,,,,,,,,,,,wg-a,,,,AAXX 17094 07790 12575 71106 10220 20150 30121 40135 56005 60006 82201 90900=
07790,1996-09-17 12:00:00,23,1012.8,-0.7,57,14,25000,18.52,,,140,,,,,,,,,,,wg-a,,,,AAXX 17124 07790 12575 71410 10230 20140 30114 40128 57007 60006 82201 91200=
07790,1996-09-17 15:00:00,19,1012,-0.8,88,17,8000,7.408,,,30,,,,,,,,,,,wg-a,,,,AAXX 17154 07790 32/58 /0304 10190 20170 30106 40120 56008 91500=
07790,1996-09-17 18:00:00,19,1011.4,-0.6,88,17,20000,3.704,,,280,16.1,23.7,,,,,,,,1,wg-a,,,,AAXX 17184 07790 32570 82802 10190 20170 30100 40114 56006 70186 85872 91800 333 10237 20161=
07790,1996-09-18 00:00:00,15,1009.7,-1.2,94,14,15000,3.704,,,250,,,,,,,,,,,wg-a,,,,AAXX 18004 07790 12565 22502 10150 20140 30083 40097 58012 60006 81572 90000=
07790,1996-09-18 03:00:00,15,1007.5,-2.2,94,14,20000,7.408,,,250,,,,0,,,,,,,wg-a,,,,AAXX 18034 07790 12570 42504 10150 20140 30061 40075 58022 60007 81572 90300=
07790,1996-09-18 06:00:00,16,1006.4,-1.1,94,15,11000,7.408,,,230,14.5,18.7,,0,,,3,,,,wg-a,,,,AAXX 18064 07790 02/61 /2304 10160 20150 30050 40064 56011 60034 90600 333 10187 20145 60007=
07790,1996-09-18 09:00:00,18,1006.2,-0.2,94,17,2500,11.112,,,130,,,,3,,,,,,95,wg-a,,,,AAXX 18094 07790 12525 81306 10180 20170 30048 40062 56002 60037 79596 8737/ 90900=
07790,1996-09-18 12:00:00,17,1005.8,-0.4,94,16,6000,7.408,,,140,,,,24,,,,,,29,wg-a,,,,AAXX 18124 07790 02556 81404 10170 20160 30044 40058 56004 60276 72996 8597/ 91200 333 60247=
07790,1996-09-18 15:00:00,20,1004.5,-1.3,78,16,15000,3.704,,,170,,,,,,,,,,,wg-a,,,,AAXX 18154 07790 12465 /1702 10200 20160 30031 40045 56013 60006 85860 91500=
07790,1996-09-18 18:00:00,19,1004.4,-0.1,78,15,20000,3.704,,,250,15.6,20.8,,,,,,,,,wg-a,,,,AAXX 18184 07790 32570 72502 10190 20150 30030 40044 55001 83870 91800 333 10208 20156=
07790,1996-09-18 21:00:00,17,1005.3,0.9,94,16,10000,11.112,,,300,,,,2,,,,,,61,wg-a,,,,AAXX 18214 07790 12460 73006 10170 20160 30039 40053 51009 60027 76186 85270 92100=
07790,1996-09-19 00:00:00,18,1005.5,0.2,83,15,12000,11.112,,,300,,,,,,,,,,21,wg-a,,,,AAXX 19004 07790 02462 73006 10180 20150 30041 40055 51002 60026 72186 85270 90000 333 61000=
07790,1996-09-19 03:00:00,16,1005,-0.5,94,15,12000,7.408,,,240,,,,,,,,,,,wg-a,,,,AAXX 19034 07790 12562 52404 10160 20150 30036 40050 56005 60006 85870 90300=
07790,1996-09-19 06:00:00,16,1005.3,0.3,94,15,25000,7.408,,,250,15.5,18.5,,,,,30,,,60,wg-a,,,,AAXX 19064 07790 02475 82504 10160 20150 30039 40053 53003 60304 76061 86801 90600 333 10185 20155 61000=
07790,1996-09-19 09:00:00,18,1006.2,0.9,88,16,20000,14.816,,,120,,,,4,,,,,,25,wg-a,,,,AAXX 19094 07790 12470 71208 10180 20160 30048 40062 51009 60047 72586 8627/ 90900=
07790,1996-09-19 12:00:00,19,1006.2,0,88,17,20000,14.816,,,110,,,,0,,,,,,80,wg-a,,,,AAXX 19124 07790 02370 71108 10190 20170 30048 40062 50000 60046 78086 872// 91200 333 60007=
07790,1996-09-19 15:00:00,19,1005,-1.2,88,17,12000,14.816,,,130,,,,28,,,,,,60,wg-a,,,,AAXX 19154 07790 12362 61308 10190 20170 30036 40050 58012 60287 76086 86900 91500=
07790,1996-09-19 18:00:00,19,1004.5,-0.5,88,17,18000,11.112,,,160,15.9,19.7,,,,,,,,3,wg-a,,,,AAXX 19184 07790 02468 71606 10190 20170 30031 40045 56005 61000 70386 85201 91800 333 10197 20159 ////=
07790,1996-09-19 21:00:00,17,1005.3,0.8,94,16,11000,7.408,,,30,,,,,,,,,,,wg-a,,,,AAXX 19214 07790 32/61 /0304 10170 20160 30039 40053 51008 92100=
07790,1996-09-20 00:00:00,15,1005.1,-0.2,94,14,15000,11.112,,,280,,,,0,,,,,,1,wg-a,,,,AAXX 20004 07790 02565 32806 10150 20140 30037 40051 55002 60036 70196 83800 90000 333 60007=
07790,1996-09-20 03:00:00,14,1004.9,-0.2,94,13,11000,11.112,,,250,,,,,,,,,,,wg-a,,,,AAXX 20034 07790 32/61 /2506 10140 20130 30035 40049 58002 90300=
07790,1996-09-20 06:00:00,16,1005.7,0.8,88,14,15000,11.112,,,250,14.2,18.6,,,,,36,,,15,wg-a,,,,AAXX 20064 07790 12565 72506 10160 20140 30043 40057 53008 60364 71511 86832 90600 333 10186 20142=
07790,1996-09-20 09:00:00,20,1006.7,1,73,15,500,18.52,,,330,,,,,,,,,,,wg-a,,,,AAXX 20094 07790 12500 53310 10200 20150 30053 40067 51010 60006 83234 90900=
07790,1996-09-20 12:00:00,22,1007.1,0.4,69,16,500,18.52,,,50,,,,,,,,,,,wg-a,,,,AAXX 20124 07790 12500 /0510 10220 20160 30057 40071 50004 60006 83831 91200=
07790,1996-09-20 15:00:00,21,1007.4,0.3,69,15,500,3.704,,,30,,,,,,,,,,,wg-a,,,,AAXX 20154 07790 12500 /0302 10210 20150 30060 40074 51003 60006 84881 91500=
07790,1996-09-20 18:00:00,19,1007.7,0.3,83,16,20000,3.704,,,190,15.8,22.2,,,,,,,,,wg-a,,,,AAXX 20184 07790 12570 /1902 10190 20160 30063 40077 50003 60006 83831 91800 333 10222 20158=
07790,1996-09-20 21:00:00,18,1007.8,0.1,88,16,15000,0,,,0,,,,,,,,,,,wg-a,,,,AAXX 20214 07790 12565 /0000 10180 20160 30064 40078 50001 60006 85870 92100=
07790,1996-09-21 00:00:00,18,1005.2,-2.6,88,16,15000,3.704,,,190,,,,,,,,,,,wg-a,,,,AAXX 21004 07790 12565 71902 10180 20160 30038 40052 56026 60006 875// 90000=
07790,1996-09-21 03:00:00,17,1002.9,-2.3,94,16,10000,7.408,,,220,,,,1,,,,,,61,wg-a,,,,AAXX 21034 07790 12560 82204 10170 20160 30015 40029 56023 60017 76162 8657/ 90300=
07790,1996-09-21 06:00:00,17,1002.6,-0.3,88,15,20000,3.704,,,230,16.5,19.4,,1,,,1,,,21,wg-a,,,,AAXX 21064 07790 02570 /2302 10170 20150 30012 40026 55003 60014 72162 84872 90600 333 10194 20165 60017=
07790,1996-09-21 09:00:00,21,1002.9,0.3,69,15,20000,11.112,,,10,,,,,,,,,,,wg-a,,,,AAXX 21094 07790 12570 50106 10210 20150 30015 40029 50003 60006 83903 90900=
07790,1996-09-21 12:00:00,21,1003.1,0.2,83,18,10000,14.816,,,280,,,,1,,,,,,61,wg-a,,,,AAXX 21124 07790 02560 72808 10210 20180 30017 40031 50002 60016 76196 84903 91200 333 60017=
07790,1996-09-21 15:00:00,18,1002.9,-0.2,94,17,7000,7.408,,,290,,,,3,,,,,,61,wg-a,,,,AAXX 21154 07790 12457 72904 10180 20170 30015 40029 56002 60037 76186 84963 91500=
07790,1996-09-21 18:00:00,18,1002.6,-0.3,94,17,15000,3.704,,,200,16.4,22.4,,2,,,,,,60,wg-a,,,,AAXX 21184 07790 12565 72002 10180 20170 30012 40026 56003 60027 76098 84963 91800 333 10224 20164=
07790,1996-09-21 21:00:00,16,1002.9,0.3,94,15,15000,7.408,,,230,,,,,,,,,,1,wg-a,,,,AAXX 21214 07790 02565 /2304 10160 20150 30015 40029 50003 61000 70162 84972 92100 333 ////=
07790,1996-09-22 00:00:00,16,1002.8,-0.1,94,15,20000,7.408,,,250,,,,0,,,,,,1,wg-a,,,,AAXX 22004 07790 02570 42504 10160 20150 30014 40028 55001 60006 70161 83232 90000 333 60007=
07790,1996-09-22 03:00:00,16,1001.2,-1.6,88,14,20000,11.112,,,240,,,,,,,,,,,wg-a,,,,AAXX 22034 07790 12570 22406 10160 20140 39998 40012 56016 60006 82232 90300=
07790,1996-09-22 06:00:00,16,1001.4,0.2,94,15,15000,14.816,,,250,15.8,17.5,,2,,,7,,,29,wg-a,,,,AAXX 22064 07790 02565 82508 10160 20150 30000 40014 50002 60074 72996 8697/ 90600 333 10175 20158 60027=
07790,1996-09-22 09:00:00,21,1000.8,-0.6,73,16,25000,7.408,,,140,,,,,,,,,,,wg-a,,,,AAXX 22094 07790 12575 71404 10210 20160 39994 40008 58006 60006 83832 90900=
07790,1996-09-22 12:00:00,21,1000.8,0,78,17,25000,11.112,,,20,,,,,,,,,,,wg-a,,,,AAXX 22124 07790 12475 70206 10210 20170 39994 40008 50000 60006 8697/ 91200=
07790,1996-09-22 15:00:00,20,1000,-0.8,83,17,20000,11.112,,,360,,,,1,,,,,,1,wg-a,,,,AAXX 22154 07790 12470 73606 10200 20170 39986 40000 58008 60017 70196 8697/ 91500=
07790,1996-09-22 18:00:00,18,1000.2,0.2,77,14,20000,7.408,,,270,16.2,21.3,,,,,,,,1,wg-a,,,,AAXX 22184 07790 32470 72704 10180 20140 39988 40002 53002 70196 84863 91800 333 10213 20162=
07790,1996-09-22 21:00:00,17,1000.5,0.3,77,13,20000,3.704,,,250,,,,,,,,,,,wg-a,,,,AAXX 22214 07790 12470 /2502 10170 20130 39991 40005 50003 60006 83802 92100=
07790,1996-09-23 00:00:00,17,999.7,-0.8,72,12,0,14.816,,,220,,,,,,,,,,,wg-a,,,,AAXX 23004 07790 12/// /2208 10170 20120 39983 49997 56008 60006 90000=
07790,1996-09-23 03:00:00,16,999.5,-0.2,72,11,20000,7.408,,,300,,,,,,,,,,13,wg-a,,,,AAXX 23034 07790 12570 53004 10160 20110 39981 49995 56002 60006 71311 83902 90300=
07790,1996-09-23 06:00:00,17,999.9,0.4,68,11,40000,11.112,,,270,15,18.2,,,,,1,,,,wg-a,,,,AAXX 23064 07790 02582 42706 10170 20110 39985 49999 53004 60006 83802 90600 333 10182 20150 60014=
07790,1996-09-23 09:00:00,22,1000.4,0.5,53,12,45000,3.704,,,170,,,,,,,,,,,wg-a,,,,AAXX 23094 07790 12583 /1702 10220 20120 39990 40004 51005 60006 81840 90900=
07790,1996-09-23 12:00:00,22,1000.1,-0.3,60,14,15000,7.408,,,130,,,,,,,,,,15,wg-a,,,,AAXX 23124 07790 12565 51304 10220 20140 39987 40001 56003 60006 71511 84340 91200=
07790,1996-09-23 15:00:00,22,999.9,-0.2,50,11,500,11.112,,,320,,,,,,,,,,,wg-a,,,,AAXX 23154 07790 12500 23206 10220 20110 39985 49999 55002 60006 82200 91500=
07790,1996-09-23 18:00:00,18,1001.9,2,49,7,20000,18.52,,,250,16.5,22.6,,,,,,,,,wg-a,,,,AAXX 23184 07790 12570 /2510 10180 20070 30005 40019 51020 60006 81240 91800 333 10226 20165=
07790,1996-09-23 21:00:00,16,1003.5,1.6,63,9,20000,11.112,,,20,,,,,,,,,,,wg-a,,,,AAXX 23214 07790 12570 /0206 10160 20090 30021 40035 51016 60006 81140 92100=
07790,1996-09-24 00:00:00,17,1003.9,0.4,55,8,20000,11.112,,,230,,,,,,,,,,,wg-a,,,,AAXX 24004 07790 12570 /2306 10170 20080 30025 40039 53004 60006 81140 90000=
07790,1996-09-24 03:00:00,16,1003.4,-0.5,55,7,25000,18.52,,,220,,,,,,,,,,,wg-a,,,,AAXX 24034 07790 12/75 02210 10160 20070 30020 40034 56005 60006 80000 90300=
07790,1996-09-24 06:00:00,15,1004.6,1.2,67,9,25000,14.816,,,240,13.7,18,,,,,,,,,wg-a,,,,AAXX 24064 07790 02575 /2408 10150 20090 30032 40046 53012 60006 81531 90600 333 10180 20137 60004=
07790,1996-09-24 09:00:00,22,1005.9,1.3,57,13,25000,3.704,,,50,,,,,,,,,,,wg-a,,,,AAXX 24094 07790 12575 /0502 10220 20130 30045 40059 51013 60006 81802 90900=
07790,1996-09-24 12:00:00,23,1006.4,0.5,53,13,25000,14.816,,,100,,,,,,,,,,,wg-a,,,,AAXX 24124 07790 12675 21008 10230 20130 30050 40064 51005 60006 82201 91200=
07790,1996-09-24 15:00:00,21,1006.6,0.2,60,13,25000,7.408,,,70,,,,,,,,,,,wg-a,,,,AAXX 24154 07790 12675 20704 10210 20130 30052 40066 53002 60006 82201 91500=
07790,1996-09-24 18:00:00,17,1008,1.4,82,14,25000,7.408,,,250,14.8,22.9,,,,,,,,,wg-a,,,,AAXX 24184 07790 12575 /2504 10170 20140 30066 40080 53014 60006 81531 91800 333 10229 20148=
07790,1996-09-24 21:00:00,15,1009.7,1.7,63,8,20000,14.816,,,260,,,,,,,,,,,wg-a,,,,AAXX 24214 07790 12670 42608 10150 20080 30083 40097 51017 60006 83530 92100=
07790,1996-09-25 00:00:00,16,1009.7,0,55,7,20000,18.52,,,250,,,,,,,,,,,wg-a,,,,AAXX 25004 07790 12570 /2510 10160 20070 30083 40097 50000 60006 81500 90000=
07790,1996-09-25 03:00:00,14,1009.2,-0.5,63,7,20000,11.112,,,220,,,,,,,,,,,wg-a,,,,AAXX 25034 07790 12570 /2206 10140 20070 30078 40092 56005 60006 81500 90300=
07790,1996-09-25 06:00:00,15,1009.6,0.4,59,7,25000,11.112,,,220,12,17.3,,,,,,,,,wg-a,,,,AAXX 25064 07790 02575 42206 10150 20070 30082 40096 52004 60006 81142 90600 333 10173 20120 60004=
07790,1996-09-25 09:00:00,19,1010.9,1.3,52,9,25000,3.704,,,320,,,,,,,,,,,wg-a,,,,AAXX 25094 07790 12575 /3202 10190 20090 30095 40109 51013 60006 81132 90900=
07790,1996-09-25 12:00:00,20,1011.3,0.4,60,12,25000,3.704,,,140,,,,,,,,,,,wg-a,,,,AAXX 25124 07790 12675 71402 10200 20120 30099 40113 50004 60006 85572 91200=
07790,1996-09-25 15:00:00,19,1010.6,-0.7,68,13,25000,7.408,,,230,,,,0,,,,,,21,wg-a,,,,AAXX 25154 07790 12575 72304 10190 20130 30092 40106 58007 60007 72162 8587/ 91500=
07790,1996-09-25 18:00:00,17,1010.9,0.3,82,14,20000,3.704,,,280,14.9,21.5,,,,,,,,1,wg-a,,,,AAXX 25184 07790 32670 /2802 10170 20140 30095 40109 53003 70162 83571 91800 333 10215 20149=
07790,1996-09-25 21:00:00,14,1011.7,0.8,88,12,20000,7.408,,,250,,,,,,,,,,,wg-a,,,,AAXX 25214 07790 12670 42504 10140 20120 30103 40117 51008 60006 82871 92100=
07790,1996-09-26 00:00:00,14,1012,0.3,82,11,20000,3.704,,,240,,,,,,,,,,,wg-a,,,,AAXX 26004 07790 12670 22402 10140 20110 30106 40120 51003 60006 82571 90000=
07790,1996-09-26 06:00:00,15,1013.2,1.3,72,10,20000,14.816,,,240,12.6,17.1,,,,,,,,,wg-a,,,,AAXX 26064 07790 02570 32408 10150 20100 30118 40132 53013 60006 83973 90600 333 10171 20126 60004=
07790,1996-09-26 09:00:00,21,1014.7,1.5,64,14,20000,11.112,,,30,,,,,,,,,,,wg-a,,,,AAXX 26094 07790 12570 30306 10210 20140 30133 40147 53015 60006 83930 90900=
07790,1996-09-26 12:00:00,20,1014.3,-0.4,78,16,20000,18.52,,,40,,,,,,,,,,,wg-a,,,,AAXX 26124 07790 12570 /0410 10200 20160 30129 40143 57004 60006 86800 91200=
07790,1996-09-26 15:00:00,20,1014.1,-0.2,68,14,20000,18.52,,,20,,,,,,,,,,,wg-a,,,,AAXX 26154 07790 12570 30210 10200 20140 30127 40141 55002 60006 83800 91500=
07790,1996-09-26 18:00:00,17,1015.7,1.6,77,13,20000,7.408,,,320,14.5,21.4,,,,,,,,,wg-a,,,,AAXX 26184 07790 12570 /3204 10170 20130 30143 40157 53016 60006 81200 91800 333 10214 20145=
07790,1996-09-26 21:00:00,15,1017.4,1.7,77,11,20000,11.112,,,250,,,,,,,,,,,wg-a,,,,AAXX 26214 07790 12/70 02506 10150 20110 30160 40174 52017 60006 80000 92100=
07790,1996-09-27 03:00:00,14,1018.1,-0.2,77,10,20000,18.52,,,240,,,,,,,,,,,wg-a,,,,AAXX 27034 07790 12/70 02410 10140 20100 30167 40181 55002 60006 80000 90300=
07790,1996-09-27 06:00:00,14,1018.1,-0,72,9,500,14.816,,,240,13.3,17.2,,,,,,,,,wg-a,,,,AAXX 27064 07790 02/00 02408 10140 20090 30167 40181 55000 60006 80000 90600 333 10172 20133 60004=
07790,1996-09-27 09:00:00,22,1019,0.9,43,9,500,7.408,,,220,,,,,,,,,,,wg-a,,,,AAXX 27094 07790 12/00 22204 10220 20090 30176 40190 51009 60006 80002 90900=
07790,1996-09-27 12:00:00,24,1018,-1,41,10,500,14.816,,,140,,,,,,,,,,,wg-a,,,,AAXX 27124 07790 12700 /1408 10240 20100 30166 40180 56010 60006 81102 91200=
07790,1996-09-27 15:00:00,23,1017.6,-0.4,47,11,20000,11.112,,,150,,,,,,,,,,,wg-a,,,,AAXX 27154 07790 12670 31506 10230 20110 30162 40176 56004 60006 82402 91500=
07790,1996-09-27 21:00:00,15,1017.2,-0.2,82,12,20000,11.112,,,210,,,,,,,,,,,wg-a,,,,AAXX 27214 07790 12/70 22106 10150 20120 30158 40172 58002 60006 82030 92100=
07790,1996-09-28 03:00:00,14,1015.4,-1.3,77,10,20000,14.816,,,220,,,,,,,,,,,wg-a,,,,AAXX 28034 07790 12570 /2208 10140 20100 30140 40154 57013 60006 81100 90300=
07790,1996-09-28 06:00:00,13,1017.7,2.3,88,11,20000,7.408,,,240,12.6,17.1,,,,,,,,,wg-a,,,,AAXX 28064 07790 02670 42404 10130 20110 30163 40177 53023 60006 83501 90600 333 10171 20126 60004=
07790,1996-09-28 12:00:00,23,1020.1,0.4,65,16,25000,11.112,,,20,,,,,,,,,,,wg-a,,,,AAXX 28124 07790 12575 30206 10230 20160 30187 40201 50004 60006 81201 91200=
07790,1996-09-28 15:00:00,22,1020.5,0.4,65,15,25000,14.816,,,360,,,,,,,,,,,wg-a,,,,AAXX 28154 07790 12/75 43608 10220 20150 30191 40205 53004 60006 80001 91500=
07790,1996-09-28 18:00:00,17,1021.8,1.3,72,12,25000,7.408,,,230,13.3,22.9,,,,,,,,,wg-a,,,,AAXX 28184 07790 12/75 12304 10170 20120 30204 40218 51013 60006 80001 91800 333 10229 20133=
07790,1996-09-28 21:00:00,15,1023.5,1.7,72,10,25000,7.408,,,240,,,,,,,,,,,wg-a,,,,AAXX 28214 07790 12/75 12404 10150 20100 30221 40235 51017 60006 80001 92100=
07790,1996-09-29 03:00:00,15,1024.1,-0,77,11,25000,11.112,,,230,,,,,,,,,,,wg-a,,,,AAXX 29034 07790 12/75 42306 10150 20110 30227 40241 55000 60006 80001 90300=
07790,1996-09-29 06:00:00,14,1025,0.8,72,9,18000,11.112,,,230,13.8,17,,,,,,,,,wg-a,,,,AAXX 29064 07790 02/68 62306 10140 20090 30235 40250 53008 60006 80001 90600 333 10170 20138 60004=
07790,1996-09-29 09:00:00,23,1026.1,1.2,50,12,15000,7.408,,,220,,,,,,,,,,,wg-a,,,,AAXX 29094 07790 12/65 62204 10230 20120 30247 40261 51012 60006 80001 90900=
07790,1996-09-29 12:00:00,23,1026,-0.1,61,15,15000,11.112,,,90,,,,,,,,,,,wg-a,,,,AAXX 29124 07790 12665 20906 10230 20150 30246 40260 58001 60006 81101 91200=
07790,1996-09-29 15:00:00,22,1025.1,-0.9,69,16,10000,7.408,,,70,,,,,,,,,,,wg-a,,,,AAXX 29154 07790 12660 /0704 10220 20160 30237 40251 56009 60006 81500 91500=
07790,1996-09-29 18:00:00,19,1025.2,0.1,83,16,12000,7.408,,,230,14.3,24.8,,,,,,,,,wg-a,,,,AAXX 29184 07790 12662 /2304 10190 20160 30238 40252 53001 60006 81500 91800 333 10248 20143=
07790,1996-09-29 21:00:00,18,1025,-0.2,83,15,15000,11.112,,,220,,,,,,,,,,,wg-a,,,,AAXX 29214 07790 12/65 02206 10180 20150 30236 40250 58002 60006 80000 92100=
07790,1996-09-30 00:00:00,15,1024.4,-0.6,94,14,15000,7.408,,,230,,,,,,,,,,,wg-a,,,,AAXX 30004 07790 12/65 02304 10150 20140 30230 40244 56006 60006 80000 90000=
07790,1996-09-30 03:00:00,15,1023,-1.4,88,13,15000,11.112,,,220,,,,,,,,,,,wg-a,,,,AAXX 30034 07790 12/65 02206 10150 20130 30216 40230 58014 60006 80000 90300=
07790,1996-09-30 06:00:00,14,1023.4,0.4,88,12,6000,11.112,,,230,14,18.5,,,,,,,,,wg-a,,,,AAXX 30064 07790 02/56 /2306 10140 20120 30220 40234 53004 60006 90600 333 10185 20140 60004=
07790,1996-09-30 09:00:00,22,1023.8,0.4,73,17,10000,3.704,,,140,,,,,,,,,,,wg-a,,,,AAXX 30094 07790 12560 /1402 10220 20170 30224 40238 51004 60006 86201 90900=
07790,1996-09-30 12:00:00,22,1022.7,-1.1,73,17,12000,11.112,,,110,,,,,,,,,,,wg-a,,,,AAXX 30124 07790 12562 /1106 10220 20170 30213 40227 58011 60006 86200 91200=
07790,1996-09-30 15:00:00,21,1021.3,-1.4,78,17,9000,3.704,,,150,,,,,,,,,,,wg-a,,,,AAXX 30154 07790 12459 81502 10210 20170 30199 40213 58014 60006 8627/ 91500=
07790,1996-09-30 18:00:00,20,1020.9,-0.4,83,17,12000,0,,,0,14.4,22.7,,,,,,,,,wg-a,,,,AAXX 30184 07790 12462 80000 10200 20170 30195 40209 55004 60006 872// 91800 333 10227 20144=
07790,1996-09-30 21:00:00,18,1020.7,-0.2,88,16,10000,0,,,0,,,,,,,,,,,wg-a,,,,AAXX 30214 07790 12460 70000 10180 20160 30193 40207 58002 60006 878// 92100=
07790,1996-10-01 00:00:00,16,1019.4,-1.3,94,15,10000,3.704,,,240,,,,,,,,,,,wg-a,,,,AAXX 01004 07790 12560 42402 10160 20150 30180 40194 58013 60006 84500 90000=
07790,1996-10-01 03:00:00,15,1017.7,-1.7,94,14,10000,3.704,,,210,,,,,,,,,,,wg-a,,,,AAXX 01034 07790 12460 /2102 10150 20140 30163 40177 56017 60006 85500 90300=
07790,1996-10-01 06:00:00,14,1016.8,-0.9,94,13,500,7.408,,,230,13.6,19.7,,,,,,,,12,wg-a,,,,AAXX 01064 07790 02500 22304 10140 20130 30154 40168 56009 60006 71211 82800 90600 333 10197 20136 60004=
07790,1996-10-01 09:00:00,21,1016.8,-0,73,16,11000,18.52,,,130,,,,,,,,,,,wg-a,,,,AAXX 01094 07790 32/61 /1310 10210 20160 30154 40168 54000 90900=
07790,1996-10-01 12:00:00,22,1014.8,-2,73,17,10000,22.224,,,150,,,,,,,,,,,wg-a,,,,AAXX 01124 07790 12560 41512 10220 20170 30134 40148 56020 60006 84200 91200=
07790,1996-10-01 15:00:00,21,1013.8,-1,78,17,10000,22.224,,,150,,,,,,,,,,,wg-a,,,,AAXX 01154 07790 12560 51512 10210 20170 30124 40138 56010 60006 85800 91500=
07790,1996-10-01 21:00:00,16,1013.2,-0.1,88,14,12000,7.408,,,220,,,,,,,,,,,wg-a,,,,AAXX 01214 07790 12562 42204 10160 20140 30118 40132 56001 60006 82801 92100=
07790,1996-10-02 00:00:00,14,1011.8,-1.4,94,13,12000,3.704,,,250,,,,,,,,,,,wg-a,,,,AAXX 02004 07790 12562 72502 10140 20130 30104 40118 56014 60006 82802 90000=
07790,1996-10-02 03:00:00,14,1009.5,-2.3,94,13,12000,7.408,,,260,,,,,,,,,,,wg-a,,,,AAXX 02034 07790 12562 /2604 10140 20130 30081 40095 58023 60006 82802 90300=
07790,1996-10-02 06:00:00,16,1008.5,-1,82,13,20000,18.52,,,250,14.2,19.3,,,,,,,,21,wg-a,,,,AAXX 02064 07790 02470 82510 10160 20130 30071 40085 56010 60004 72161 83572 90600 333 10193 20142 61000=
07790,1996-10-02 09:00:00,21,1008.1,-0.4,46,9,500,14.816,,,220,,,,,,,,,,,wg-a,,,,AAXX 02094 07790 12500 /2208 10210 20090 30067 40081 55004 60006 81170 90900=
07790,1996-10-02 12:00:00,24,1007.4,-0.7,29,5,11000,14.816,,,250,,,,,,,,,,,wg-a,,,,AAXX 02124 07790 12/61 /2508 10240 20050 30060 40074 56007 60006 91200=
07790,1996-10-02 18:00:00,18,1010,2.5,39,4,500,18.52,,,260,15.9,24.6,,,,,,,,,wg-a,,,,AAXX 02184 07790 12500 /2610 10180 20040 30086 40100 52025 60006 81140 91800 333 10246 20159=
07790,1996-10-02 21:00:00,16,1012.2,2.2,48,5,25000,22.224,,,260,,,,,,,,,,,wg-a,,,,AAXX 02214 07790 12575 42612 10160 20050 30108 40122 51022 60006 81530 92100=
07790,1996-10-03 03:00:00,15,1013.8,0.9,59,7,25000,14.816,,,250,,,,,,,,,,13,wg-a,,,,AAXX 03034 07790 12575 /2508 10150 20070 30124 40138 53009 60006 71311 85900 90300=
07790,1996-10-03 06:00:00,15,1015.7,1.9,63,8,20000,7.408,,,220,14.2,17.7,,,,,,,,,wg-a,,,,AAXX 03064 07790 02570 52204 10150 20080 30143 40157 53019 60006 83903 90600 333 10177 20142 60004=
07790,1996-10-03 09:00:00,20,1018.3,2.6,64,13,20000,22.224,,,20,,,,,,,,,,,wg-a,,,,AAXX 03094 07790 12570 40212 10200 20130 30169 40183 51026 60006 83802 90900=
07790,1996-10-03 12:00:00,20,1019,0.7,60,12,25000,22.224,,,20,,,,,,,,,,,wg-a,,,,AAXX 03124 07790 12575 30212 10200 20120 30176 40190 51007 60006 83200 91200=
07790,1996-10-03 15:00:00,20,1019.7,0.7,56,11,40000,22.224,,,10,,,,,,,,,,,wg-a,,,,AAXX 03154 07790 12582 30112 10200 20110 30183 40197 51007 60006 82241 91500=
07790,1996-10-03 21:00:00,17,1021.3,0.8,68,11,15000,18.52,,,20,,,,,,,,,,,wg-a,,,,AAXX 03214 07790 12665 30210 10170 20110 30199 40213 51008 60006 83500 92100=
07790,1996-10-04 00:00:00,15,1021,-0.3,77,11,15000,11.112,,,310,,,,,,,,,,,wg-a,,,,AAXX 04004 07790 12665 /3106 10150 20110 30196 40210 58003 60006 82500 90000=
07790,1996-10-04 03:00:00,16,1019.9,-1.1,72,11,15000,18.52,,,330,,,,,,,,,,,wg-a,,,,AAXX 04034 07790 12665 43310 10160 20110 30185 40199 58011 60006 83530 90300=
07790,1996-10-04 06:00:00,17,1019.7,-0.2,59,9,20000,29.632,,,50,15,18,,,,,,,,,wg-a,,,,AAXX 04064 07790 02570 30516 10170 20090 30183 40197 58002 60006 82805 90600 333 10180 20150 60004=
07790,1996-10-04 09:00:00,19,1019.1,-0.6,60,11,20000,25.928,,,30,,,,,,,,,,,wg-a,,,,AAXX 04094 07790 12670 30314 10190 20110 30177 40191 57006 60006 82205 90900=
07790,1996-10-04 12:00:00,20,1017.2,-1.9,53,10,20000,25.928,,,10,,,,,,,,,,,wg-a,,,,AAXX 04124 07790 12670 40114 10200 20100 30158 40172 58019 60006 83532 91200=
07790,1996-10-04 15:00:00,20,1015.5,-1.7,56,11,20000,25.928,,,20,,,,,,,,,,,wg-a,,,,AAXX 04154 07790 12670 /0214 10200 20110 30141 40155 56017 60006 81132 91500=
07790,1996-10-04 18:00:00,16,1014.2,-1.3,68,10,20000,3.704,,,270,16.1,20.6,,,,,,,,,wg-a,,,,AAXX 04184 07790 12/70 52702 10160 20100 30128 40142 56013 60006 81032 91800 333 10206 20161=
07790,1996-10-04 21:00:00,15,1013.6,-0.6,67,9,20000,11.112,,,260,,,,,,,,,,,wg-a,,,,AAXX 04214 07790 12/70 02606 10150 20090 30122 40136 58006 60006 80000 92100=
07790,1996-10-05 00:00:00,16,1012,-1.6,72,11,20000,11.112,,,260,,,,,,,,,,,wg-a,,,,AAXX 05004 07790 12/70 12606 10160 20110 30106 40120 58016 60006 80001 90000=
07790,1996-10-05 06:00:00,16,1009.6,-0.9,63,9,500,11.112,,,270,14.8,17.6,,,,,,,,,wg-a,,,,AAXX 05064 07790 02500 32706 10160 20090 30082 40096 55009 60006 81531 90600 333 10176 20148 60004=
07790,1996-10-05 09:00:00,21,1009.6,0,46,9,500,18.52,,,320,,,,,,,,,,,wg-a,,,,AAXX 05094 07790 12500 23210 10210 20090 30082 40096 50000 60006 81531 90900=
07790,1996-10-05 12:00:00,21,1008.7,-0.9,53,11,500,29.632,,,340,,,,,,,,,,,wg-a,,,,AAXX 05124 07790 12500 53416 10210 20110 30073 40087 56009 60006 81535 91200=
07790,1996-10-05 15:00:00,20,1007,-1.7,60,12,20000,18.52,,,30,,,,,,,,,,,wg-a,,,,AAXX 05154 07790 12570 /0310 10200 20120 30056 40070 56017 60006 81531 91500=
07790,1996-10-05 21:00:00,15,1007.8,0.3,77,11,15000,11.112,,,250,,,,,,,,,,,wg-a,,,,AAXX 05214 07790 12665 42506 10150 20110 30064 40078 50003 60006 84500 92100=
07790,1996-10-06 00:00:00,14,1007.5,-0.3,77,10,15000,18.52,,,250,,,,,,,,,,,wg-a,,,,AAXX 06004 07790 12665 /2510 10140 20100 30061 40075 57003 60006 81500 90000=
07790,1996-10-06 03:00:00,13,1007,-0.5,77,9,15000,14.816,,,240,,,,,,,,,,,wg-a,,,,AAXX 06034 07790 12665 22408 10130 20090 30056 40070 56005 60006 82500 90300=
07790,1996-10-06 06:00:00,12,1007.9,0.9,76,8,15000,11.112,,,230,12.2,16.2,,,,,,,,,wg-a,,,,AAXX 06064 07790 02665 42306 10120 20080 30065 40079 52009 60006 83501 90600 333 10162 20122 60004=
07790,1996-10-06 09:00:00,20,1009.7,1.8,56,11,15000,3.704,,,120,,,,,,,,,,,wg-a,,,,AAXX 06094 07790 12565 51202 10200 20110 30083 40097 51018 60006 84801 90900=
07790,1996-10-06 12:00:00,20,1010.2,0.5,64,13,11000,14.816,,,90,,,,,,,,,,,wg-a,,,,AAXX 06124 07790 12/61 /0908 10200 20130 30088 40102 51005 60006 91200=
07790,1996-10-06 15:00:00,20,1010.4,0.2,64,13,12000,7.408,,,130,,,,,,,,,,,wg-a,,,,AAXX 06154 07790 12562 71304 10200 20130 30090 40104 52002 60006 86831 91500=
07790,1996-10-06 18:00:00,16,1011.5,1.1,82,13,15000,3.704,,,230,12.3,20.9,,,,,,,,,wg-a,,,,AAXX 06184 07790 12565 /2302 10160 20130 30101 40115 53011 60006 83882 91800 333 10209 20123=
07790,1996-10-06 21:00:00,13,1012.4,0.9,88,11,11000,3.704,,,230,,,,,,,,,,,wg-a,,,,AAXX 06214 07790 12/61 /2302 10130 20110 30110 40124 52009 60006 92100=
07790,1996-10-07 00:00:00,14,1011.8,-0.6,94,13,15000,7.408,,,230,,,,0,,,,,,,wg-a,,,,AAXX 07004 07790 02565 82304 10140 20130 30104 40118 58006 60006 8688/ 90000 333 60007=
07790,1996-10-07 03:00:00,18,1009.6,-2.2,83,15,8000,25.928,,50.004,100,,,,2,,,,,,80,wg-a,,,,AAXX 07034 07790 12558 81014 10180 20150 30082 40096 56022 60027 78096 8688/ 90300 333 91027=
07790,1996-10-07 06:00:00,14,1010.8,1.2,94,13,4000,0,,,0,13.1,17.9,,25,,,27,,,95,wg-a,,,,AAXX 07064 07790 02440 8//// 10140 20130 30094 40108 50012 60274 79596 879// 90600 333 10179 20131 60257=
07790,1996-10-07 09:00:00,17,1011.7,0.9,77,13,9000,0,,,0,,,,1,,,,,,60,wg-a,,,,AAXX 07094 07790 12459 7//// 10170 20130 30103 40117 53009 60017 76096 8597/ 90900=
07790,1996-10-07 12:00:00,19,1010.2,-1.5,78,15,10000,33.336,,53.708,140,,,,,,,,,,21,wg-a,,,,AAXX 07124 07790 02560 71418 10190 20150 30088 40102 58015 60016 72196 8487/ 91200 333 61000 91029=
07790,1996-10-07 15:00:00,18,1009,-1.2,83,15,12000,33.336,,53.708,140,,,,,,,,,,,wg-a,,,,AAXX 07154 07790 12462 /1418 10180 20150 30076 40090 58012 60006 8483/ 91500 333 91029=
07790,1996-10-07 18:00:00,16,1009.3,0.3,82,13,10000,5.556,,53.708,0,14,18.9,,,,,,,,,wg-a,,,,AAXX 07184 07790 32460 7//03 10160 20130 30079 40093 53003 8633/ 91800 333 10189 20140 91029=
07790,1996-10-07 21:00:00,13,1009.8,0.5,94,12,10000,5.556,,,210,,,,1,,,,,,61,wg-a,,,,AAXX 07214 07790 12460 82103 10130 20120 30084 40098 52005 60017 76162 8698/ 92100=
07790,1996-10-08 00:00:00,13,1007.8,-2,100,13,8000,18.52,,,270,,,,4,,,,,,80,wg-a,,,,AAXX 08004 07790 02458 82710 10130 20130 30064 40078 58020 60056 78096 8698/ 90000 333 60047=
07790,1996-10-08 03:00:00,13,1006.7,-1.1,94,12,8000,5.556,,,20,,,,24,,,,,,81,wg-a,,,,AAXX 08034 07790 12558 80203 10130 20120 30053 40067 58011 60247 78199 8698/ 90300=
07790,1996-10-08 06:00:00,13,1006,-0.7,94,12,15000,7.408,,,250,12.5,16,,0,,,29,,,1,wg-a,,,,AAXX 08064 07790 02565 52504 10130 20120 30046 40060 57007 60294 70196 84380 90600 333 10160 20125 60007=
07790,1996-10-08 09:00:00,16,1007.4,1.4,94,15,15000,3.704,,,310,,,,4,,,,,,,wg-a,,,,AAXX 08094 07790 12465 73102 10160 20150 30060 40074 51014 60047 85980 90900=
07790,1996-10-08 15:00:00,20,1007,0.1,73,15,25000,18.52,,,20,,,,,,,,,,,wg-a,,,,AAXX 08154 07790 12575 50210 10200 20150 30056 40070 53001 60006 83831 91500=
07790,1996-10-08 18:00:00,16,1008,1,82,13,15000,11.112,,,290,12.5,20.3,,,,,,,,,wg-a,,,,AAXX 08184 07790 32565 52906 10160 20130 30066 40080 53010 83930 91800 333 10203 20125=
07790,1996-10-08 21:00:00,17,1008.5,0.5,82,14,15000,11.112,,,330,,,,0,,,,,,21,wg-a,,,,AAXX 08214 07790 12565 43306 10170 20140 30071 40085 53005 60007 72161 84800 92100=
07790,1996-10-09 00:00:00,17,1008.8,0.3,88,15,15000,3.704,,,330,,,,3,,,,,,21,wg-a,,,,AAXX 09004 07790 02565 /3302 10170 20150 30074 40088 53003 60036 72161 85800 90000 333 60037=
07790,1996-10-09 03:00:00,17,1008.6,-0.2,88,15,15000,16.668,,,30,,,,1,,,,,,21,wg-a,,,,AAXX 09034 07790 12565 /0309 10170 20150 30072 40086 55002 60017 72122 85900 90300=
07790,1996-10-09 06:00:00,16,1009.5,0.9,88,14,25000,7.408,,,310,15.9,17.8,,,,,8,,,1,wg-a,,,,AAXX 09064 07790 12575 /3104 10160 20140 30081 40095 51009 60084 70162 85831 90600 333 10178 20159=
07790,1996-10-09 09:00:00,21,1011.4,1.9,69,15,25000,22.224,,,300,,,,,,,,,,,wg-a,,,,AAXX 09094 07790 12575 63012 10210 20150 30100 40114 52019 60006 84831 90900=
07790,1996-10-09 12:00:00,22,1011.3,-0.1,60,14,25000,22.224,,,30,,,,,,,,,,,wg-a,,,,AAXX 09124 07790 12575 30312 10220 20140 30099 40113 58001 60006 82831 91200=
07790,1996-10-09 15:00:00,21,1011.2,-0.1,64,14,25000,20.372,,,10,,,,,,,,,,,wg-a,,,,AAXX 09154 07790 12675 40111 10210 20140 30098 40112 55001 60006 82801 91500=
07790,1996-10-09 18:00:00,18,1012.6,1.4,73,13,25000,5.556,,,340,16,22.2,,,,,,,,,wg-a,,,,AAXX 09184 07790 12675 23403 10180 20130 30112 40126 53014 60006 81201 91800 333 10222 20160=
07790,1996-10-10 00:00:00,15,1014.4,0.3,88,13,10000,11.112,,,280,,,,,,,,,,,wg-a,,,,AAXX 10004 07790 12/60 22806 10150 20130 30130 40144 51003 60006 81031 90000=
07790,1996-10-10 06:00:00,15,1014.7,0.6,82,12,8000,9.26,,,260,13.9,18.1,,,,,,,,,wg-a,,,,AAXX 10064 07790 02/58 02605 10150 20120 30133 40147 53006 60006 80000 90600 333 10181 20139 60004=
07790,1996-10-10 09:00:00,21,1016,1.3,64,14,10000,5.556,,,30,,,,,,,,,,,wg-a,,,,AAXX 10094 07790 12660 /0303 10210 20140 30146 40160 51013 60006 81100 90900=
07790,1996-10-10 12:00:00,21,1015.3,-0.7,69,15,10000,12.964,,,30,,,,,,,,,,,wg-a,,,,AAXX 10124 07790 12660 /0307 10210 20150 30139 40153 58007 60006 81130 91200=
07790,1996-10-10 15:00:00,21,1014.8,-0.5,60,13,10000,7.408,,,20,,,,,,,,,,,wg-a,,,,AAXX 10154 07790 12660 /0204 10210 20130 30134 40148 56005 60006 81200 91500=
07790,1996-10-10 18:00:00,17,1015.8,1,82,14,9000,7.408,,,230,14.4,21.4,,,,,,,,,wg-a,,,,AAXX 10184 07790 12659 42304 10170 20140 30144 40158 53010 60006 84800 91800 333 10214 20144=
07790,1996-10-10 21:00:00,16,1016.6,0.8,82,13,9000,7.408,,,250,,,,,,,,,,,wg-a,,,,AAXX 10214 07790 12559 72504 10160 20130 30152 40166 51008 60006 878// 92100=
07790,1996-10-11 00:00:00,18,1016.2,-0.4,77,14,9000,7.408,,,290,,,,,,,,,,,wg-a,,,,AAXX 11004 07790 12559 72904 10180 20140 30148 40162 58004 60006 878// 90000=
07790,1996-10-11 03:00:00,17,1015.9,-0.3,88,15,9000,11.112,,,320,,,,,,,,,,,wg-a,,,,AAXX 11034 07790 12559 73206 10170 20150 30145 40159 56003 60006 878// 90300=
07790,1996-10-11 06:00:00,17,1016.3,0.4,82,14,7000,11.112,,,330,15.4,18.3,,,,,,,,,wg-a,,,,AAXX 11064 07790 02557 73306 10170 20140 30149 40163 53004 60006 84901 90600 333 10183 20154 60004=
07790,1996-10-11 09:00:00,19,1017.9,1.6,73,14,10000,11.112,,,350,,,,,,,,,,,wg-a,,,,AAXX 11094 07790 12560 83506 10190 20140 30165 40179 51016 60006 8483/ 90900=
07790,1996-10-11 12:00:00,19,1017.6,-0.3,68,13,12000,11.112,,,40,,,,,,,,,,,wg-a,,,,AAXX 11124 07790 12562 /0406 10190 20130 30162 40176 58003 60006 8357/ 91200=
07790,1996-10-11 15:00:00,19,1017.6,-0,73,14,9000,7.408,,,130,,,,,,,,,,,wg-a,,,,AAXX 11154 07790 12/59 /1304 10190 20140 30162 40176 55000 60006 91500=
07790,1996-10-11 18:00:00,16,1017.8,0.2,88,14,11000,14.816,,,240,15.4,19.5,,,,,,,,,wg-a,,,,AAXX 11184 07790 12/61 /2408 10160 20140 30164 40178 53002 60006 91800 333 10195 20154=
07790,1996-10-11 21:00:00,16,1018.5,0.7,82,13,12000,7.408,,,210,,,,,,,,,,,wg-a,,,,AAXX 11214 07790 12562 /2104 10160 20130 30171 40185 51007 60006 8153/ 92100=
07790,1996-10-12 00:00:00,13,1018.1,-0.4,94,12,12000,7.408,,,230,,,,,,,,,,,wg-a,,,,AAXX 12004 07790 12662 /2304 10130 20120 30167 40181 56004 60006 85500 90000=
07790,1996-10-12 03:00:00,13,1017.7,-0.4,88,11,12000,7.408,,,240,,,,,,,,,,,wg-a,,,,AAXX 12034 07790 12562 32404 10130 20110 30163 40177 56004 60006 83100 90300=
07790,1996-10-12 06:00:00,13,1018,0.3,94,12,6000,7.408,,,230,12.8,15.9,,,,,,,,11,wg-a,,,,AAXX 12064 07790 02556 /2304 10130 20120 30166 40180 51003 60006 71111 81101 90600 333 10159 20128 60004=
07790,1996-10-12 09:00:00,19,1019.1,1.1,64,12,10000,7.408,,,10,,,,,,,,,,,wg-a,,,,AAXX 12094 07790 12560 /0104 10190 20120 30177 40191 51011 60006 81101 90900=
07790,1996-10-12 12:00:00,20,1018.9,-0.2,60,12,10000,11.112,,,40,,,,,,,,,,,wg-a,,,,AAXX 12124 07790 12560 /0406 10200 20120 30175 40189 58002 60006 81201 91200=
07790,1996-10-12 15:00:00,19,1018.4,-0.5,64,12,10000,3.704,,,130,,,,,,,,,,,wg-a,,,,AAXX 12154 07790 12560 /1302 10190 20120 30170 40184 56005 60006 81230 91500=
07790,1996-10-12 21:00:00,12,1019.4,0.2,94,11,9000,7.408,,,250,,,,,,,,,,,wg-a,,,,AAXX 12214 07790 12759 22504 10120 20110 30179 40194 53002 60006 82500 92100=
07790,1996-10-13 00:00:00,12,1019,-0.4,88,10,10000,7.408,,,230,,,,,,,,,,,wg-a,,,,AAXX 13004 07790 12760 22304 10120 20100 30175 40190 58004 60006 82500 90000=
07790,1996-10-13 03:00:00,11,1018.5,-0.5,94,10,10000,11.112,,,210,,,,,,,,,,,wg-a,,,,AAXX 13034 07790 12/60 02106 10110 20100 30170 40185 58005 60006 80000 90300=
07790,1996-10-13 06:00:00,11,1018,-0.5,94,10,15000,3.704,,,240,10.5,14.4,,,,,,,,,wg-a,,,,AAXX 13064 07790 02565 72402 10110 20100 30165 40180 56005 60006 83232 90600 333 10144 20105 60004=
07790,1996-10-13 09:00:00,16,1017.9,0,100,16,6000,11.112,,,150,,,,5,,,,,,60,wg-a,,,,AAXX 13094 07790 12456 71506 10160 20160 30165 40179 50000 60057 76086 85202 90900=
07790,1996-10-13 12:00:00,19,1016.7,-1.2,83,16,15000,25.928,,,150,,,,0,,,,,,1,wg-a,,,,AAXX 13124 07790 02465 71514 10190 20160 30153 40167 58012 60056 70186 878// 91200 333 60007=
07790,1996-10-13 15:00:00,19,1015.7,-1,83,16,12000,14.816,,,160,,,,,,,,,,,wg-a,,,,AAXX 13154 07790 12462 71608 10190 20160 30143 40157 56010 60006 86202 91500=
07790,1996-10-13 18:00:00,18,1015,-0.7,88,16,18000,11.112,,,150,11.3,19.5,,,,,,,,61,wg-a,,,,AAXX 13184 07790 02468 81506 10180 20160 30136 40150 56007 61000 76162 85807 91800 333 10195 20113 ////=
07790,1996-10-13 21:00:00,16,1014.6,-0.4,94,15,6000,11.112,,,150,,,,21,,,,,,92,wg-a,,,,AAXX 13214 07790 12456 81506 10160 20150 30132 40146 58004 60217 79296 8698/ 92100=
07790,1996-10-14 00:00:00,16,1013.6,-1,94,15,8000,7.408,,,270,,,,0,,,,,,21,wg-a,,,,AAXX 14004 07790 02458 82704 10160 20150 30122 40136 56010 60216 72196 8698/ 90000 333 60007=
07790,1996-10-14 03:00:00,17,1012.7,-0.9,88,15,8000,18.52,,,130,,,,1,,,,,,,wg-a,,,,AAXX 14034 07790 12458 81310 10170 20150 30113 40127 58009 60017 8698/ 90300=
07790,1996-10-14 06:00:00,15,1013.5,0.8,94,14,10000,3.704,,,220,15.2,17.9,,,,,27,,,,wg-a,,,,AAXX 14064 07790 12460 72202 10150 20140 30121 40135 53008 60274 8587/ 90600 333 10179 20152=
07790,1996-10-14 09:00:00,19,1014.2,0.7,83,16,12000,14.816,,,160,,,,,,,,,,,wg-a,,,,AAXX 14094 07790 12562 /1608 10190 20160 30128 40142 50007 60006 83800 90900=
07790,1996-10-14 12:00:00,17,1013.2,-1,94,16,3000,3.704,,,110,,,,1,,,,,,61,wg-a,,,,AAXX 14124 07790 02430 81102 10170 20160 30118 40132 58010 60016 76161 887// 91200 333 60017=
07790,1996-10-14 15:00:00,18,1012.6,-0.6,94,17,7000,7.408,,,160,,,,0,,,,,,2,wg-a,,,,AAXX 14154 07790 12457 81604 10180 20170 30112 40126 56006 60007 70262 887// 91500=
07790,1996-10-14 18:00:00,18,1011.9,-0.7,94,17,7000,11.112,,,140,15.2,19.9,,,,,,,,2,wg-a,,,,AAXX 14184 07790 02457 81406 10180 20170 30105 40119 56007 61000 70262 887// 91800 333 10199 20152 ////=
07790,1996-10-14 21:00:00,19,1010.4,-1.5,94,18,3000,3.704,,,160,,,,,,,,,,,wg-a,,,,AAXX 14214 07790 32/30 /1602 10190 20180 30090 40104 56015 92100=
07790,1996-10-15 00:00:00,19,1009,-1.4,94,18,8000,11.112,,,140,,,,0,,,,,,21,wg-a,,,,AAXX 15004 07790 02458 81406 10190 20180 30076 40090 58014 60016 72162 8677/ 90000 333 60007=
07790,1996-10-15 03:00:00,19,1007,-2,94,18,6000,3.704,,,190,,,,1,,,,,,60,wg-a,,,,AAXX 15034 07790 12456 81902 10190 20180 30056 40070 55020 60017 76062 8677/ 90300=
07790,1996-10-15 06:00:00,18,1005.1,-1.9,100,18,3800,3.704,,,270,18.1,19.2,,3,,,5,,,10,wg-a,,,,AAXX 15064 07790 02438 82702 10180 20180 30037 40051 56019 60054 71062 8697/ 90600 333 10192 20181 60037=
07790,1996-10-15 09:00:00,20,1005,-0.1,88,18,3800,11.112,,,140,,,,,,,,,,10,wg-a,,,,AAXX 15094 07790 02438 81406 10200 20180 30036 40050 55001 61000 71052 8697/ 90900 333 ////=
07790,1996-10-15 12:00:00,18,1003.6,-1.4,100,18,3000,31.484,,53.708,140,,,,10,,,,,,10,wg-a,,,,AAXX 15124 07790 02430 81417 10180 20180 30022 40036 58014 60106 71096 8697/ 91200 333 60107 91029=
07790,1996-10-15 15:00:00,17,1003.7,0.1,94,16,500,22.224,,,150,,,,6,,,,,,29,wg-a,,,,AAXX 15154 07790 12200 81512 10170 20160 30023 40037 50001 60067 72996 8597/ 91500=
07790,1996-10-15 18:00:00,16,1003.5,-0.2,94,15,12000,11.112,,,230,16.1,19.9,,0,,,,,,21,wg-a,,,,AAXX 15184 07790 12562 72306 10160 20150 30021 40035 55002 60007 72196 8497/ 91800 333 10199 20161=
07790,1996-10-15 21:00:00,15,1003,-0.5,94,14,12000,7.408,,,240,,,,,,,,,,,wg-a,,,,AAXX 15214 07790 12562 52404 10150 20140 30016 40030 58005 60006 8497/ 92100=
07790,1996-10-16 00:00:00,14,1002.5,-0.5,88,12,15000,7.408,,,240,,,,,,,,,,,wg-a,,,,AAXX 16004 07790 12665 22404 10140 20120 30011 40025 58005 60006 82500 90000=
07790,1996-10-16 03:00:00,14,1001.7,-0.8,88,12,11000,3.704,,,240,,,,,,,,,,,wg-a,,,,AAXX 16034 07790 12/61 /2402 10140 20120 30003 40017 58008 60006 90300=
07790,1996-10-16 06:00:00,13,1001.4,-0.3,94,12,25000,3.704,,,280,12.4,16.1,,,,,16,,,,wg-a,,,,AAXX 16064 07790 02575 72802 10130 20120 30000 40014 58003 60006 83831 90600 333 10161 20124 60164=
07790,1996-10-16 09:00:00,18,1001.5,0.1,83,15,500,3.704,,,20,,,,,,,,,,,wg-a,,,,AAXX 16094 07790 12400 70202 10180 20150 30001 40015 51001 60006 8227/ 90900=
07790,1996-10-16 12:00:00,18,1001,-0.5,83,15,40000,11.112,,,10,,,,,,,,,,,wg-a,,,,AAXX 16124 07790 12482 70106 10180 20150 39996 40010 58005 60006 8227/ 91200=
07790,1996-10-16 15:00:00,16,1001.1,0.1,82,13,7000,22.224,,,330,,,,1,,,,,,60,wg-a,,,,AAXX 16154 07790 12557 83312 10160 20130 39997 40011 52001 60017 76062 878// 91500=
07790,1996-10-16 18:00:00,15,1001.9,0.8,88,13,500,0,,,0,12.7,18.2,,0,,,,,,2,wg-a,,,,AAXX 16184 07790 12500 80000 10150 20130 30005 40019 53008 60007 70262 878// 91800 333 10182 20127=
07790,1996-10-17 00:00:00,14,1004,0.7,82,11,0,11.112,,,270,,,,,,,,,,,wg-a,,,,AAXX 17004 07790 12/// /2706 10140 20110 30026 40040 51007 60006 90000=
07790,1996-10-17 06:00:00,14,1005.2,0.8,88,12,15000,7.408,,,350,13.4,15.4,,1,,,2,,,21,wg-a,,,,AAXX 17064 07790 02465 73504 10140 20120 30038 40052 53008 60024 72162 878// 90600 333 10154 20134 60017=
07790,1996-10-17 09:00:00,17,1006.7,1.5,77,13,12000,3.704,,,160,,,,,,,,,,21,wg-a,,,,AAXX 17094 07790 02462 71602 10170 20130 30053 40067 51015 61000 72162 86881 90900 333 ////=
07790,1996-10-17 15:00:00,19,1007.5,0.6,68,13,500,7.408,,,130,,,,,,,,,,,wg-a,,,,AAXX 17154 07790 12500 51304 10190 20130 30061 40075 53006 60006 82834 91500=
07790,1996-10-17 18:00:00,14,1008.6,1.1,88,12,500,7.408,,,240,13.6,19.6,,,,,,,,,wg-a,,,,AAXX 17184 07790 32500 /2404 10140 20120 30072 40086 53011 81501 91800 333 10196 20136=
07790,1996-10-18 00:00:00,11,1009.8,0.3,82,8,0,3.704,,,320,,,,,,,,,,,wg-a,,,,AAXX 18004 07790 12/// /3202 10110 20080 30084 40098 52003 60006 90000=
07790,1996-10-18 06:00:00,9,1010.9,1,81,6,40000,3.704,,,50,8.6,13.9,,,,,,,,,wg-a,,,,AAXX 18064 07790 02582 /0502 10090 20060 30094 40109 53010 60006 81130 90600 333 10139 20086 61000=
07790,1996-10-18 09:00:00,18,1012.1,1.3,45,6,40000,3.704,,,120,,,,,,,,,,,wg-a,,,,AAXX 18094 07790 12682 /1202 10180 20060 30107 40121 51013 60006 81101 90900=
07790,1996-10-18 12:00:00,19,1013,0.9,46,7,40000,7.408,,,100,,,,,,,,,,,wg-a,,,,AAXX 18124 07790 12682 31004 10190 20070 30116 40130 51009 60006 83101 91200=
07790,1996-10-18 15:00:00,20,1014.2,1.2,49,9,40000,11.112,,,160,,,,,,,,,,,wg-a,,,,AAXX 18154 07790 12682 21606 10200 20090 30128 40142 53012 60006 82800 91500=
07790,1996-10-18 18:00:00,13,1015.9,1.7,82,10,20000,7.408,,,250,9.2,20.2,,,,,,,,,wg-a,,,,AAXX 18184 07790 12/70 02504 10130 20100 30145 40159 53017 60006 80000 91800 333 10202 20092=
07790,1996-10-19 00:00:00,12,1017.5,0.2,71,7,25000,22.224,,,250,,,,,,,,,,,wg-a,,,,AAXX 19004 07790 12/75 02512 10120 20070 30160 40175 50002 60006 80000 90000=
07790,1996-10-19 03:00:00,11,1016.6,-0.9,71,6,25000,11.112,,,220,,,,,,,,,,,wg-a,,,,AAXX 19034 07790 12875 32206 10110 20060 30151 40166 58009 60006 83030 90300=
07790,1996-10-19 06:00:00,10,1016.5,-0.1,76,6,25000,14.816,,,230,9.8,12.9,,,,,,,,,wg-a,,,,AAXX 19064 07790 02675 /2308 10100 20060 30150 40165 58001 60006 84500 90600 333 10129 20098 60004=
07790,1996-10-19 09:00:00,19,1016.6,0.2,56,10,25000,3.704,,,130,,,,,,,,,,,wg-a,,,,AAXX 19094 07790 12675 41302 10190 20100 30152 40166 53002 60006 82532 90900=
07790,1996-10-19 15:00:00,19,1016.8,0.3,60,11,25000,11.112,,,140,,,,,,,,,,,wg-a,,,,AAXX 19154 07790 12675 31406 10190 20110 30154 40168 53003 60006 81102 91500=
07790,1996-10-19 18:00:00,13,1018.5,1.7,88,11,25000,11.112,,,230,9.9,20.3,,,,,,,,,wg-a,,,,AAXX 19184 07790 12/75 /2306 10130 20110 30171 40185 53017 60006 80000 91800 333 10203 20099=
07790,1996-10-19 21:00:00,12,1019.8,1.2,88,10,25000,14.816,,,220,,,,,,,,,,,wg-a,,,,AAXX 19214 07790 12/75 02208 10120 20100 30183 40198 51012 60006 80000 92100=
07790,1996-10-20 00:00:00,12,1020.5,0.7,76,8,25000,11.112,,,240,,,,,,,,,,,wg-a,,,,AAXX 20004 07790 12/75 02406 10120 20080 30190 40205 53007 60006 80000 90000=
07790,1996-10-20 06:00:00,10,1021.9,1.4,82,7,25000,11.112,,,230,10.1,13.5,,,,,,,,,wg-a,,,,AAXX 20064 07790 02/75 02306 10100 20070 30204 40219 53014 60006 80000 90600 333 10135 20101 60004=
07790,1996-10-20 12:00:00,19,1022.8,-0.3,73,14,25000,14.816,,,30,,,,,,,,,,,wg-a,,,,AAXX 20124 07790 12575 /0308 10190 20140 30214 40228 58003 60006 81100 91200=
07790,1996-10-20 15:00:00,19,1022.3,-0.5,78,15,20000,11.112,,,20,,,,,,,,,,,wg-a,,,,AAXX 20154 07790 12570 /0206 10190 20150 30209 40223 55005 60006 81100 91500=
07790,1996-10-20 18:00:00,14,1022.7,0.4,94,13,20000,7.408,,,240,10.2,19.4,,,,,,,,,wg-a,,,,AAXX 20184 07790 12570 42404 10140 20130 30213 40227 53004 60006 81501 91800 333 10194 20102=
07790,1996-10-20 21:00:00,13,1022.4,-0.4,67,7,20000,14.816,,,220,,,,0,,,,,,,wg-a,,,,AAXX 20214 07790 12/70 22208 10130 20070 30209 40224 58004 60007 80001 92100=
07790,1996-10-21 00:00:00,13,1020.7,-1.7,62,6,20000,14.816,,,230,,,,,,,,,,,wg-a,,,,AAXX 21004 07790 12/70 22308 10130 20060 30192 40207 58017 60006 80001 90000=
07790,1996-10-21 03:00:00,11,1019,-1.7,71,6,20000,11.112,,,240,,,,,,,,,,,wg-a,,,,AAXX 21034 07790 12/70 02406 10110 20060 30175 40190 57017 60006 80000 90300=
07790,1996-10-21 06:00:00,9,1017.8,-1.2,81,6,25000,11.112,,,240,9,14.1,,,,,,,,,wg-a,,,,AAXX 21064 07790 12575 22406 10090 20060 30163 40178 56012 60004 81571 90600 333 10141 20090=
07790,1996-10-21 09:00:00,17,1017.4,-0.3,72,12,20000,3.704,,,240,,,,,,,,,,,wg-a,,,,AAXX 21094 07790 12570 72402 10170 20120 30160 40174 58003 60006 81501 90900=
07790,1996-10-21 12:00:00,19,1016.2,-1.2,78,15,20000,11.112,,,100,,,,,,,,,,,wg-a,,,,AAXX 21124 07790 12570 71006 10190 20150 30148 40162 57012 60006 83401 91200=
07790,1996-10-21 15:00:00,19,1015.3,-0.9,78,15,20000,7.408,,,80,,,,,,,,,,,wg-a,,,,AAXX 21154 07790 12470 70804 10190 20150 30139 40153 56009 60006 875// 91500=
07790,1996-10-21 18:00:00,17,1015.6,0.3,88,15,20000,3.704,,,330,9.1,19.7,,,,,,,,,wg-a,,,,AAXX 21184 07790 12470 /3302 10170 20150 30142 40156 53003 60006 86800 91800 333 10197 20091=
07790,1996-10-21 21:00:00,13,1016.3,0.7,94,12,20000,7.408,,,230,,,,,,,,,,,wg-a,,,,AAXX 21214 07790 12470 52304 10130 20120 30149 40163 51007 60006 84501 92100=
07790,1996-10-22 00:00:00,12,1016.5,0.1,94,11,20000,7.408,,,230,,,,,,,,,,,wg-a,,,,AAXX 22004 07790 12570 32304 10120 20110 30150 40165 51001 60006 82501 90000=
07790,1996-10-22 03:00:00,12,1016.1,-0.4,88,10,20000,11.112,,,230,,,,,,,,,,,wg-a,,,,AAXX 22034 07790 12570 32306 10120 20100 30146 40161 58004 60006 81501 90300=
07790,1996-10-22 06:00:00,11,1016.6,0.5,87,9,11000,7.408,,,250,10.6,16.8,,,,,,,,,wg-a,,,,AAXX 22064 07790 02/61 /2504 10110 20090 30151 40166 53005 60006 90600 333 10168 20106 60004=
07790,1996-10-22 09:00:00,20,1017.8,1.3,73,15,20000,7.408,,,150,,,,0,,,,,,,wg-a,,,,AAXX 22094 07790 12/70 21504 10200 20150 30164 40178 51013 60007 80002 90900=
07790,1996-10-22 12:00:00,22,1017.3,-0.5,69,16,20000,11.112,,,150,,,,,,,,,,,wg-a,,,,AAXX 22124 07790 12570 41506 10220 20160 30159 40173 58005 60006 82502 91200=
07790,1996-10-22 15:00:00,20,1016.7,-0.6,78,16,11000,11.112,,,150,,,,,,,,,,,wg-a,,,,AAXX 22154 07790 12/61 /1506 10200 20160 30153 40167 56006 60006 91500=
07790,1996-10-22 18:00:00,16,1018.5,1.8,94,15,10000,3.704,,,330,10.6,21.6,,,,,,,,,wg-a,,,,AAXX 22184 07790 32560 23302 10160 20150 30171 40185 53018 82500 91800 333 10216 20106=
07790,1996-10-22 21:00:00,14,1018.5,-0,94,13,12000,0,,,0,,,,,,,,,,,wg-a,,,,AAXX 22214 07790 12/62 10000 10140 20130 30171 40185 55000 60006 80001 92100=
07790,1996-10-23 00:00:00,13,1018.8,0.2,94,12,12000,3.704,,,230,,,,,,,,,,,wg-a,,,,AAXX 23004 07790 12/62 02302 10130 20120 30173 40188 50002 60006 80000 90000=
07790,1996-10-23 03:00:00,13,1018.9,0.2,94,12,8000,11.112,,,240,,,,,,,,,,,wg-a,,,,AAXX 23034 07790 12358 /2406 10130 20120 30175 40189 53002 60006 86100 90300=
07790,1996-10-23 06:00:00,11,1020.1,1.1,94,10,15000,7.408,,,240,11.1,15.7,,0,,,,,,,wg-a,,,,AAXX 23064 07790 02465 22404 10110 20100 30186 40201 53011 60004 82600 90600 333 10157 20111 60007=
07790,1996-10-23 12:00:00,21,1020.9,-0.3,69,15,20000,11.112,,,130,,,,,,,,,,,wg-a,,,,AAXX 23124 07790 12570 21306 10210 20150 30200 40209 58003 60006 82100 91200=
07790,1996-10-23 15:00:00,20,1020.7,-0.2,73,15,15000,7.408,,,150,,,,,,,,,,,wg-a,,,,AAXX 23154 07790 12565 /1504 10200 20150 30193 40207 55002 60006 81400 91500=
07790,1996-10-23 18:00:00,15,1022.5,1.8,94,14,15000,7.408,,,230,11,21.8,,,,,,,,,wg-a,,,,AAXX 23184 07790 12565 12304 10150 20140 30211 40225 52018 60006 81501 91800 333 10218 20110=
07790,1996-10-23 21:00:00,13,1023.8,1.2,94,12,18000,0,,,0,,,,,,,,,,,wg-a,,,,AAXX 23214 07790 12/68 00000 10130 20120 30223 40238 53012 60006 80000 92100=
07790,1996-10-24 00:00:00,13,1024.4,0.6,94,12,18000,7.408,,,240,,,,0,,,,,,,wg-a,,,,AAXX 24004 07790 02568 /2404 10130 20120 30229 40244 51006 60006 85200 90000 333 60007=
07790,1996-10-24 03:00:00,13,1024.1,-0.3,94,12,15000,7.408,,,230,,,,,,,,,,,wg-a,,,,AAXX 24034 07790 12465 72304 10130 20120 30226 40241 58003 60006 878// 90300=
07790,1996-10-24 06:00:00,12,1024.1,-0,47,1,15000,3.704,,,260,11.7,14.8,,,,,,,,,wg-a,,,,AAXX 24064 07790 32565 /2602 10120 20010 30226 40241 54000 85500 90600 333 10148 20117=
07790,1996-10-24 09:00:00,19,1024.7,0.7,60,11,15000,7.408,,,140,,,,,,,,,,,wg-a,,,,AAXX 24094 07790 12565 51404 10190 20110 30233 40247 50007 60006 84830 90900=
07790,1996-10-24 12:00:00,20,1023.3,-1.4,56,11,25000,11.112,,,120,,,,,,,,,,,wg-a,,,,AAXX 24124 07790 12675 21206 10200 20110 30219 40233 58014 60006 82500 91200=
07790,1996-10-24 15:00:00,18,1022.4,-0.9,64,11,25000,7.408,,,140,,,,,,,,,,,wg-a,,,,AAXX 24154 07790 12575 41404 10180 20110 30210 40224 56009 60006 84500 91500=
07790,1996-10-24 18:00:00,14,1023,0.6,88,12,20000,7.408,,,240,11.7,20.2,,,,,,,,,wg-a,,,,AAXX 24184 07790 12570 52404 10140 20120 30216 40230 52006 60006 85500 91800 333 10202 20117=
07790,1996-10-24 21:00:00,13,1023.7,0.6,88,11,11000,11.112,,,240,,,,,,,,,,,wg-a,,,,AAXX 24214 07790 12/61 /2406 10130 20110 30222 40237 53006 60006 92100=
07790,1996-10-25 00:00:00,13,1022.5,0.5,88,11,10000,3.704,,,250,,,,,,,,,,,wg-a,,,,AAXX 25004 07790 12/60 /2502 10130 20110 30210 40225 51005 60006 90000=
07790,1996-10-25 03:00:00,12,1023.8,-0.4,94,11,10000,7.408,,,240,,,,,,,,,,,wg-a,,,,AAXX 25034 07790 12560 52404 10120 20110 30223 40238 58004 60006 8550/ 90300=
07790,1996-10-25 06:00:00,12,1024,0.2,94,11,10000,7.408,,,240,11.6,14.3,,,,,,,,,wg-a,,,,AAXX 25064 07790 02560 /2404 10120 20110 30225 40240 52002 60006 86500 90600 333 10143 20116 60004=
07790,1996-10-25 09:00:00,17,1024.3,0.4,72,12,15000,3.704,,,150,,,,,,,,,,,wg-a,,,,AAXX 25094 07790 12565 /1502 10170 20120 30229 40243 51004 60006 86800 90900=
07790,1996-10-25 12:00:00,17,1023.7,-0.6,72,12,15000,3.704,,,160,,,,,,,,,,,wg-a,,,,AAXX 25124 07790 12565 71602 10170 20120 30223 40237 58006 60006 85870 91200=
07790,1996-10-25 18:00:00,15,1024,0.7,88,13,10000,3.704,,,280,12.3,17.9,,,,,,,,,wg-a,,,,AAXX 25184 07790 12760 72802 10150 20130 30226 40240 53007 60006 875// 91800 333 10179 20123=
07790,1996-10-26 00:00:00,14,1025.3,0.2,88,12,11000,7.408,,,240,,,,,,,,,,,wg-a,,,,AAXX 26004 07790 12/61 /2404 10140 20120 30238 40253 52002 60006 90000=
07790,1996-10-26 12:00:00,18,1025.3,-0.6,59,10,12000,7.408,,,110,,,,,,,,,,,wg-a,,,,AAXX 26124 07790 12562 71104 10180 20100 30239 40253 58006 60006 87800 91200=
07790,1996-10-26 15:00:00,18,1024.9,-0.4,64,11,9000,3.704,,,130,,,,,,,,,,,wg-a,,,,AAXX 26154 07790 12659 71302 10180 20110 30235 40249 56004 60006 878// 91500=
07790,1996-10-26 18:00:00,16,1025.6,0.7,82,13,15000,0,,,0,13.2,19.6,,,,,,,,,wg-a,,,,AAXX 26184 07790 12665 70000 10160 20130 30242 40256 53007 60006 878// 91800 333 10196 20132=
07790,1996-10-26 21:00:00,15,1026.2,0.5,82,12,14000,0,,,0,,,,,,,,,,,wg-a,,,,AAXX 26214 07790 12564 70000 10150 20120 30247 40262 51005 60006 878// 92100=
07790,1996-10-27 00:00:00,14,1026,-0.2,88,12,16000,7.408,,,220,,,,,,,,,,,wg-a,,,,AAXX 27004 07790 12566 72204 10140 20120 30245 40260 58002 60006 878// 90000=
07790,1996-10-27 03:00:00,14,1025.6,-0.4,88,12,16000,7.408,,,240,,,,,,,,,,,wg-a,,,,AAXX 27034 07790 12566 72404 10140 20120 30241 40256 56004 60006 878// 90300=
07790,1996-10-27 06:00:00,14,1026,0.4,88,12,7000,3.704,,,220,13.7,15.5,,,,,,,,,wg-a,,,,AAXX 27064 07790 02657 72202 10140 20120 30245 40260 53004 60006 878// 90600 333 10155 20137 60004=
07790,1996-10-27 12:00:00,19,1026,-0.8,60,11,12000,14.816,,,150,,,,,,,,,,,wg-a,,,,AAXX 27124 07790 12662 31508 10190 20110 30246 40260 58008 60006 83500 91200=
07790,1996-10-27 15:00:00,17,1025.3,-0.7,72,12,10000,3.704,,,150,,,,,,,,,,,wg-a,,,,AAXX 27154 07790 12860 /1502 10170 20120 30239 40253 56007 60006 8603/ 91500=
07790,1996-10-27 18:00:00,15,1025.8,0.4,82,12,10000,3.704,,,240,13.7,19.7,,,,,,,,,wg-a,,,,AAXX 27184 07790 12860 /2402 10150 20120 30243 40258 53004 60006 8603/ 91800 333 10197 20137=
07790,1996-10-27 21:00:00,14,1025.4,-0.4,82,11,15000,11.112,,,230,,,,,,,,,,,wg-a,,,,AAXX 27214 07790 12865 22306 10140 20110 30239 40254 56004 60006 8203/ 92100=
07790,1996-10-28 00:00:00,13,1024.7,-0.7,82,10,15000,11.112,,,220,,,,,,,,,,,wg-a,,,,AAXX 28004 07790 12/65 /2206 10130 20100 30232 40247 58007 60006 90000=
07790,1996-10-28 03:00:00,12,1023.5,-1.2,82,9,15000,11.112,,,230,,,,,,,,,,,wg-a,,,,AAXX 28034 07790 12/65 02306 10120 20090 30220 40235 58012 60006 80000 90300=
07790,1996-10-28 06:00:00,12,1022.5,-1,76,8,15000,18.52,,,230,11.3,14.8,,,,,,,,,wg-a,,,,AAXX 28064 07790 02765 /2310 10120 20080 30210 40225 58010 60006 81501 90600 333 10148 20113 60004=
07790,1996-10-28 09:00:00,18,1022.9,0.5,59,10,17000,11.112,,,210,,,,,,,,,,,wg-a,,,,AAXX 28094 07790 12567 22106 10180 20100 30215 40229 51005 60006 81101 90900=
07790,1996-10-28 12:00:00,20,1021.6,-1.3,64,13,10000,14.816,,,150,,,,,,,,,,,wg-a,,,,AAXX 28124 07790 12560 51508 10200 20130 30202 40216 58013 60006 85200 91200=
07790,1996-10-28 15:00:00,19,1020.5,-1.1,73,14,9000,14.816,,,170,,,,,,,,,,,wg-a,,,,AAXX 28154 07790 12559 71708 10190 20140 30191 40205 56011 60006 878// 91500=
07790,1996-10-28 18:00:00,15,1020.6,0.1,94,14,15000,3.704,,,150,11.4,20.8,,,,,,,,,wg-a,,,,AAXX 28184 07790 12865 31502 10150 20140 30192 40206 53001 60006 83500 91800 333 10208 20114=
07790,1996-10-28 21:00:00,13,1020.5,-0.2,88,11,12000,7.408,,,230,,,,,,,,,,,wg-a,,,,AAXX 28214 07790 12762 52304 10130 20110 30190 40205 57002 60006 83530 92100=
07790,1996-10-29 00:00:00,13,1019.2,-1.3,82,10,12000,7.408,,,240,,,,,,,,,,,wg-a,,,,AAXX 29004 07790 12762 /2404 10130 20100 30177 40192 58013 60006 81531 90000=
07790,1996-10-29 03:00:00,12,1017.9,-1.3,82,9,12000,7.408,,,240,,,,,,,,,,,wg-a,,,,AAXX 29034 07790 12762 /2404 10120 20090 30164 40179 58013 60006 81500 90300=
07790,1996-10-29 06:00:00,11,1017,-0.9,87,9,12000,7.408,,,240,11.1,15.4,,,,,,,,,wg-a,,,,AAXX 29064 07790 02/62 22404 10110 20090 30155 40170 56009 60006 82040 90600 333 10154 20111 60004=
07790,1996-10-29 09:00:00,19,1016.7,-0.2,68,13,12000,3.704,,,320,,,,,,,,,,,wg-a,,,,AAXX 29094 07790 12/62 33202 10190 20130 30153 40167 56002 60006 83041 90900=
07790,1996-10-29 12:00:00,21,1014.2,-2.5,69,15,12000,14.816,,,160,,,,,,,,,,,wg-a,,,,AAXX 29124 07790 12/62 71608 10210 20150 30128 40142 58025 60006 87072 91200=
07790,1996-10-29 15:00:00,20,1013,-1.2,64,13,12000,7.408,,,150,,,,,,,,,,,wg-a,,,,AAXX 29154 07790 12/62 71504 10200 20130 30116 40130 56012 60006 87072 91500=
07790,1996-10-29 18:00:00,19,1011.8,-1.2,56,10,12000,11.112,,,150,11.2,21.8,,,,,,,,,wg-a,,,,AAXX 29184 07790 12/62 21506 10190 20100 30104 40118 55012 60006 81072 91800 333 10218 20112=
07790,1996-10-29 21:00:00,16,1011.5,-0.3,63,9,20000,3.704,,,330,,,,,,,,,,,wg-a,,,,AAXX 29214 07790 12770 43302 10160 20090 30101 40115 56003 60006 82530 92100=
07790,1996-10-30 00:00:00,16,1012.6,1.1,51,6,20000,7.408,,,350,,,,,,,,,,,wg-a,,,,AAXX 30004 07790 12/70 23504 10160 20060 30112 40126 51011 60006 82030 90000=
07790,1996-10-30 03:00:00,18,1012.4,-0.2,42,5,20000,11.112,,,260,,,,,,,,,,,wg-a,,,,AAXX 30034 07790 12/70 22606 10180 20050 30110 40124 58002 60006 82030 90300=
07790,1996-10-30 06:00:00,17,1014.8,2.4,45,5,20000,3.704,,,220,14.3,19,,,,,,,,,wg-a,,,,AAXX 30064 07790 02570 /2202 10170 20050 30134 40148 51024 60006 81830 90600 333 10190 20143 60004=
07790,1996-10-30 09:00:00,20,1017.4,2.6,40,6,40000,18.52,,,320,,,,,,,,,,,wg-a,,,,AAXX 30094 07790 12682 /3210 10200 20060 30160 40174 51026 60006 81501 90900=
07790,1996-10-30 12:00:00,22,1017.8,0.4,29,3,40000,22.224,,42.596,340,,,,,,,,,,,wg-a,,,,AAXX 30124 07790 12682 /3412 10220 20030 30164 40178 51004 60006 81501 91200 333 91023=
07790,1996-10-30 15:00:00,20,1019.2,1.4,40,6,40000,22.224,,,320,,,,,,,,,,,wg-a,,,,AAXX 30154 07790 12682 /3212 10200 20060 30178 40192 53014 60006 81500 91500=
07790,1996-10-30 18:00:00,15,1021.6,2.4,41,2,40000,18.52,,,250,14.8,22.2,,,,,,,,,wg-a,,,,AAXX 30184 07790 12/82 02510 10150 20020 30202 40216 51024 60006 80000 91800 333 10222 20148=
07790,1996-10-30 21:00:00,13,1023.6,1.9,54,4,40000,14.816,,,240,,,,,,,,,,,wg-a,,,,AAXX 30214 07790 12/82 02408 10130 20040 30221 40236 53019 60006 80000 92100=
07790,1996-10-31 00:00:00,14,1024.5,0.9,44,2,40000,18.52,,,240,,,,,,,,,,,wg-a,,,,AAXX 31004 07790 12/82 02410 10140 20020 30230 40245 53009 60006 80000 90000=
07790,1996-10-31 03:00:00,11,1024.8,0.3,54,2,40000,18.52,,,240,,,,,,,,,,,wg-a,,,,AAXX 31034 07790 12/82 02410 10110 20020 30233 40248 53003 60006 80000 90300=
07790,1996-10-31 06:00:00,11,1025.4,0.6,54,2,40000,18.52,,,240,10.2,15.3,,,,,,,,,wg-a,,,,AAXX 31064 07790 02/82 22410 10110 20020 30239 40254 52006 60006 80001 90600 333 10153 20102 60004=
07790,1996-10-31 09:00:00,18,1026.4,1.1,42,5,500,11.112,,,230,,,,,,,,,,,wg-a,,,,AAXX 31094 07790 12500 32306 10180 20050 30250 40264 51011 60006 81101 90900=
07790,1996-10-31 12:00:00,21,1025.9,-0.5,60,13,20000,11.112,,,110,,,,,,,,,,,wg-a,,,,AAXX 31124 07790 12670 21106 10210 20130 30245 40259 58005 60006 81101 91200=
07790,1996-10-31 15:00:00,19,1025.5,-0.4,56,10,10000,7.408,,,130,,,,,,,,,,,wg-a,,,,AAXX 31154 07790 12560 21304 10190 20100 30241 40255 56004 60006 81102 91500=
07790,1996-10-31 18:00:00,13,1025.4,-0.2,88,11,12000,3.704,,,240,10.3,21,,,,,,,,,wg-a,,,,AAXX 31184 07790 12/62 32402 10130 20110 30239 40254 56002 60006 80002 91800 333 10210 20103=
07790,1996-10-31 21:00:00,11,1025.8,0.4,94,10,16000,7.408,,,240,,,,,,,,,,,wg-a,,,,AAXX 31214 07790 12466 32404 10110 20100 30243 40258 53004 60006 81502 92100=
07790,1996-11-01 00:00:00,11,1024.5,-1.3,87,9,16000,14.816,,,240,,,,,,,,,,,wg-a,,,,AAXX 01004 07790 12/66 02408 10110 20090 30230 40245 58013 60006 80000 90000=
07790,1996-11-01 03:00:00,11,1023.2,-1.3,82,8,18000,14.816,,,240,,,,,,,,,,,wg-a,,,,AAXX 01034 07790 12568 22408 10110 20080 30217 40232 57013 60006 81501 90300=
07790,1996-11-01 06:00:00,10,1022.5,-0.7,87,8,18000,14.816,,,220,9.8,13.1,,,,,,,,,wg-a,,,,AAXX 01064 07790 02568 /2208 10100 20080 30210 40225 58007 60006 84801 90600 333 10131 20098 60004=
07790,1996-11-01 09:00:00,17,1023.2,0.8,72,12,18000,3.704,,,150,,,,,,,,,,,wg-a,,,,AAXX 01094 07790 12568 31502 10170 20120 30218 40232 52008 60006 83200 90900=
07790,1996-11-01 12:00:00,19,1021.8,-1.4,64,12,18000,14.816,,,130,,,,,,,,,,,wg-a,,,,AAXX 01124 07790 12568 21308 10190 20120 30204 40218 58014 60006 82500 91200=
07790,1996-11-01 15:00:00,18,1022.1,0.3,68,12,18000,7.408,,,130,,,,,,,,,,,wg-a,,,,AAXX 01154 07790 12568 /1304 10180 20120 30207 40221 53003 60006 86500 91500=
07790,1996-11-01 18:00:00,15,1023.7,1.6,82,12,20000,0,,,0,9.7,19.9,,,,,,,,,wg-a,,,,AAXX 01184 07790 12570 /0000 10150 20120 30223 40237 51016 60006 84500 91800 333 10199 20097=
07790,1996-11-01 21:00:00,12,1025.2,1.4,88,10,20000,7.408,,,250,,,,,,,,,,,wg-a,,,,AAXX 01214 07790 12/70 02504 10120 20100 30237 40252 53014 60006 80000 92100=
07790,1996-11-02 00:00:00,11,1025.3,0.1,87,9,20000,11.112,,,240,,,,0,,,,,,,wg-a,,,,AAXX 02004 07790 02/70 02406 10110 20090 30238 40253 53001 60006 80000 90000 333 60007=
07790,1996-11-02 03:00:00,10,1025.9,0.6,87,8,20000,11.112,,,240,,,,,,,,,,,wg-a,,,,AAXX 02034 07790 12/70 02406 10100 20080 30244 40259 52006 60006 80000 90300=
07790,1996-11-02 06:00:00,10,1026,0.1,82,7,20000,11.112,,,230,9.4,14.6,,,,,,,,,wg-a,,,,AAXX 02064 07790 12/70 62306 10100 20070 30245 40260 53001 60004 80004 90600 333 10146 20094=
07790,1996-11-02 09:00:00,17,1027.2,1.3,59,9,25000,7.408,,,210,,,,,,,,,,,wg-a,,,,AAXX 02094 07790 12/75 42104 10170 20090 30258 40272 51013 60006 80004 90900=
07790,1996-11-02 12:00:00,21,1026.4,-0.8,56,12,20000,7.408,,,120,,,,,,,,,,,wg-a,,,,AAXX 02124 07790 12670 11204 10210 20120 30250 40264 58008 60006 81501 91200=
07790,1996-11-02 15:00:00,18,1026.6,0.2,83,15,15000,11.112,,,30,,,,,,,,,,,wg-a,,,,AAXX 02154 07790 12565 /0306 10180 20150 30252 40266 53002 60006 81800 91500=
07790,1996-11-02 18:00:00,13,1027.5,0.8,94,12,12000,3.704,,,240,9.5,20.9,,,,,,,,,wg-a,,,,AAXX 02184 07790 12/62 /2402 10130 20120 30260 40275 53008 60006 80000 91800 333 10209 20095=
07790,1996-11-02 21:00:00,13,1028.3,0.8,88,11,18000,11.112,,,240,,,,,,,,,,,wg-a,,,,AAXX 02214 07790 12468 /2406 10130 20110 30268 40283 53008 60006 81500 92100=
07790,1996-11-03 00:00:00,12,1027.9,-0.4,82,9,20000,14.816,,,210,,,,,,,,,,,wg-a,,,,AAXX 03004 07790 12470 32108 10120 20090 30264 40279 58004 60006 81502 90000=
07790,1996-11-03 03:00:00,12,1027.4,-0.5,71,7,20000,14.816,,,230,,,,,,,,,,,wg-a,,,,AAXX 03034 07790 12470 22308 10120 20070 30259 40274 56005 60006 81630 90300=
07790,1996-11-03 06:00:00,11,1027.6,0.2,71,6,20000,14.816,,,240,10,13.3,,,,,,,,,wg-a,,,,AAXX 03064 07790 02370 /2408 10110 20060 30261 40276 53002 60006 81601 90600 333 10133 20100 60004=
07790,1996-11-03 09:00:00,18,1028.3,0.8,56,9,25000,11.112,,,230,,,,,,,,,,,wg-a,,,,AAXX 03094 07790 12575 /2306 10180 20090 30269 40283 51008 60006 81500 90900=
07790,1996-11-03 12:00:00,20,1027.4,-0.9,73,15,25000,11.112,,,120,,,,,,,,,,,wg-a,,,,AAXX 03124 07790 12575 /1206 10200 20150 30260 40274 58009 60006 81500 91200=
07790,1996-11-03 15:00:00,18,1026.9,-0.5,83,15,25000,7.408,,,120,,,,,,,,,,,wg-a,,,,AAXX 03154 07790 12475 /1204 10180 20150 30255 40269 56005 60006 86500 91500=
07790,1996-11-03 18:00:00,17,1027.1,0.2,82,14,20000,3.704,,,170,10.7,20.8,,,,,,,,,wg-a,,,,AAXX 03184 07790 12470 71702 10170 20140 30257 40271 53002 60006 875// 91800 333 10208 20107=
07790,1996-11-03 21:00:00,16,1027.4,0.3,82,13,25000,3.704,,,220,,,,,,,,,,,wg-a,,,,AAXX 03214 07790 12575 72202 10160 20130 30260 40274 51003 60006 875// 92100=
07790,1996-11-04 00:00:00,15,1026.8,-0.6,88,13,25000,7.408,,,220,,,,,,,,,,,wg-a,,,,AAXX 04004 07790 12575 82204 10150 20130 30254 40268 58006 60006 885// 90000=
07790,1996-11-04 03:00:00,15,1025.8,-1,82,12,25000,7.408,,,240,,,,,,,,,,,wg-a,,,,AAXX 04034 07790 12475 82404 10150 20120 30244 40258 58010 60006 885// 90300=
07790,1996-11-04 06:00:00,14,1025.7,-0.2,82,11,20000,14.816,,,250,14.3,16.5,,,,,,,,,wg-a,,,,AAXX 04064 07790 02470 82508 10140 20110 30242 40257 56002 60006 885// 90600 333 10165 20143 60004=
07790,1996-11-04 09:00:00,17,1026,0.4,68,11,18000,11.112,,,230,,,,,,,,,,,wg-a,,,,AAXX 04094 07790 12568 72306 10170 20110 30246 40260 50004 60006 878// 90900=
07790,1996-11-04 12:00:00,19,1024.8,-1.2,60,11,20000,3.704,,,100,,,,,,,,,,,wg-a,,,,AAXX 04124 07790 12570 71002 10190 20110 30234 40248 58012 60006 878// 91200=
07790,1996-11-04 15:00:00,18,1023.6,-1.2,73,13,15000,0,,,0,,,,,,,,,,,wg-a,,,,AAXX 04154 07790 12565 70000 10180 20130 30222 40236 56012 60006 86501 91500=
07790,1996-11-04 18:00:00,16,1023,-0.6,82,13,20000,3.704,,,210,14.3,18.9,,,,,,,,,wg-a,,,,AAXX 04184 07790 12470 72102 10160 20130 30216 40230 58006 60006 868// 91800 333 10189 20143=
07790,1996-11-04 21:00:00,15,1022.5,-0.5,88,13,20000,3.704,,,210,,,,,,,,,,,wg-a,,,,AAXX 04214 07790 12570 72102 10150 20130 30211 40225 58005 60006 875// 92100=
07790,1996-11-05 00:00:00,12,1021.1,-1.5,94,11,20000,7.408,,,220,,,,,,,,,,,wg-a,,,,AAXX 05004 07790 12570 22204 10120 20110 30196 40211 58015 60006 82500 90000=
07790,1996-11-05 03:00:00,10,1019.7,-1.4,93,9,20000,11.112,,,240,,,,,,,,,,,wg-a,,,,AAXX 05034 07790 12670 32406 10100 20090 30182 40197 56014 60006 83500 90300=
07790,1996-11-05 06:00:00,10,1018.3,-1.4,87,8,20000,7.408,,,280,9.7,16,,0,,,,,,,wg-a,,,,AAXX 05064 07790 02670 32804 10100 20080 30168 40183 56014 60004 83500 90600 333 10160 20097 60007=
07790,1996-11-05 09:00:00,17,1018.2,0,63,10,12000,11.112,,,210,,,,,,,,,,,wg-a,,,,AAXX 05094 07790 12662 /2106 10170 20100 30168 40182 50000 60006 81800 90900=
07790,1996-11-05 12:00:00,19,1016.6,-1.6,68,13,18000,11.112,,,130,,,,,,,,,,,wg-a,,,,AAXX 05124 07790 12668 61306 10190 20130 30152 40166 57016 60006 81236 91200=
07790,1996-11-05 15:00:00,18,1015.8,-0.8,68,12,18000,7.408,,,130,,,,,,,,,,,wg-a,,,,AAXX 05154 07790 12668 /1304 10180 20120 30144 40158 56008 60006 81836 91500=
07790,1996-11-05 18:00:00,14,1016.2,0.4,88,12,18000,3.704,,,300,9.7,20.1,,,,,,,,,wg-a,,,,AAXX 05184 07790 12668 73002 10140 20120 30148 40162 53004 60006 81836 91800 333 10201 20097=
07790,1996-11-05 21:00:00,14,1017.2,1,88,12,25000,7.408,,,250,,,,,,,,,,,wg-a,,,,AAXX 05214 07790 12675 82504 10140 20120 30158 40172 53010 60006 8217/ 92100=
07790,1996-11-06 00:00:00,12,1018,0.7,88,10,25000,0,,,0,,,,,,,,,,,wg-a,,,,AAXX 06004 07790 12/75 00000 10120 20100 30165 40180 51007 60006 80000 90000=
07790,1996-11-06 03:00:00,11,1018.7,0.7,87,9,25000,7.408,,,240,,,,,,,,,,,wg-a,,,,AAXX 06034 07790 12575 /2404 10110 20090 30172 40187 51007 60006 84500 90300=
07790,1996-11-06 06:00:00,13,1020.6,1.9,82,10,25000,7.408,,,240,10.8,15.1,,,,,,,,,wg-a,,,,AAXX 06064 07790 02575 72404 10130 20100 30191 40206 51019 60006 8683/ 90600 333 10151 20108 60004=
07790,1996-11-06 09:00:00,18,1022,1.5,64,11,20000,3.704,,,360,,,,,,,,,,,wg-a,,,,AAXX 06094 07790 12570 23602 10180 20110 30206 40220 51015 60006 82800 90900=
07790,1996-11-06 12:00:00,19,1021.4,-0.6,56,10,25000,14.816,,,20,,,,,,,,,,,wg-a,,,,AAXX 06124 07790 12575 /0208 10190 20100 30200 40214 58006 60006 81200 91200=
07790,1996-11-06 15:00:00,18,1021.1,-0.3,64,11,25000,14.816,,,20,,,,,,,,,,,wg-a,,,,AAXX 06154 07790 12575 /0208 10180 20110 30197 40211 56003 60006 81200 91500=
07790,1996-11-06 18:00:00,15,1022.6,1.5,77,11,11000,3.704,,,230,12.4,19.2,,,,,,,,,wg-a,,,,AAXX 06184 07790 12/61 /2302 10150 20110 30212 40226 53015 60006 91800 333 10192 20124=
07790,1996-11-06 21:00:00,12,1023.5,0.8,88,10,20000,7.408,,,260,,,,,,,,,,,wg-a,,,,AAXX 06214 07790 12670 /2604 10120 20100 30220 40235 53008 60006 81500 92100=
07790,1996-11-07 00:00:00,12,1023.4,-0.1,82,9,20000,18.52,,,260,,,,,,,,,,,wg-a,,,,AAXX 07004 07790 12670 /2610 10120 20090 30219 40234 56001 60006 81500 90000=
07790,1996-11-07 03:00:00,11,1022.8,-0.6,82,8,20000,14.816,,,240,,,,,,,,,,,wg-a,,,,AAXX 07034 07790 12/70 02408 10110 20080 30213 40228 57006 60006 80000 90300=
07790,1996-11-07 06:00:00,11,1022.8,-0,76,7,20000,18.52,,,240,10.4,15.1,,,,,,,,,wg-a,,,,AAXX 07064 07790 02570 /2410 10110 20070 30213 40228 55000 60006 81100 90600 333 10151 20104 60004=
07790,1996-11-07 09:00:00,17,1023.6,0.9,55,8,20000,11.112,,,230,,,,,,,,,,,wg-a,,,,AAXX 07094 07790 12470 /2306 10170 20080 30222 40236 51009 60006 81200 90900=
07790,1996-11-07 12:00:00,19,1022.8,-0.8,52,9,20000,7.408,,,110,,,,,,,,,,,wg-a,,,,AAXX 07124 07790 12570 /1104 10190 20090 30214 40228 58008 60006 81201 91200=
07790,1996-11-07 15:00:00,18,1021.6,-1.2,64,11,18000,7.408,,,130,,,,,,,,,,,wg-a,,,,AAXX 07154 07790 12568 /1304 10180 20110 30202 40216 56012 60006 81801 91500=
07790,1996-11-07 18:00:00,12,1021.6,-0.1,88,10,18000,11.112,,,220,10.4,19.8,,,,,,,,,wg-a,,,,AAXX 07184 07790 12668 /2206 10120 20100 30201 40216 58001 60006 81531 91800 333 10198 20104=
07790,1996-11-07 21:00:00,12,1020.5,-1.1,82,9,20000,11.112,,,220,,,,,,,,,,,wg-a,,,,AAXX 07214 07790 12/70 02206 10120 20090 30190 40205 58011 60006 80000 92100=
07790,1996-11-08 00:00:00,9,1019.9,-0.6,87,7,25000,3.704,,,280,,,,,,,,,,,wg-a,,,,AAXX 08004 07790 12/75 02802 10090 20070 30184 40199 57006 60006 80000 90000=
07790,1996-11-08 03:00:00,9,1018.5,-1.4,87,7,25000,11.112,,,240,,,,,,,,,,,wg-a,,,,AAXX 08034 07790 12/75 02406 10090 20070 30170 40185 56014 60006 80000 90300=
07790,1996-11-08 06:00:00,12,1018.2,-0.3,88,10,25000,7.408,,,230,8.6,12.2,,,,,,,,,wg-a,,,,AAXX 08064 07790 02575 /2304 10120 20100 30167 40182 55003 60006 81100 90600 333 10122 20086 60004=
07790,1996-11-08 09:00:00,19,1020.4,2.3,68,13,500,7.408,,,250,,,,,,,,,,,wg-a,,,,AAXX 08094 07790 12500 /2504 10190 20130 30190 40204 51023 60006 81100 90900=
07790,1996-11-08 12:00:00,19,1021.3,0.9,52,9,40000,14.816,,31.484,310,,,,,,,,,,,wg-a,,,,AAXX 08124 07790 12682 /3108 10190 20090 30199 40213 50009 60006 81500 91200 333 91017=
07790,1996-11-08 15:00:00,18,1021.9,0.6,56,9,40000,14.816,,,360,,,,,,,,,,,wg-a,,,,AAXX 08154 07790 12682 /3608 10180 20090 30205 40219 53006 60006 81500 91500=
07790,1996-11-08 18:00:00,13,1024,2,77,9,25000,0,,,0,10.6,22.3,,,,,,,,,wg-a,,,,AAXX 08184 07790 12/75 00000 10130 20090 30225 40240 53020 60006 80000 91800 333 10223 20106=
07790,1996-11-08 21:00:00,12,1025.5,1.5,82,9,25000,11.112,,,230,,,,,,,,,,,wg-a,,,,AAXX 08214 07790 12/75 02306 10120 20090 30240 40255 53015 60006 80000 92100=
07790,1996-11-09 00:00:00,11,1026.1,0.6,82,8,20000,11.112,,,250,,,,,,,,,,,wg-a,,,,AAXX 09004 07790 12570 42506 10110 20080 30246 40261 52006 60006 84500 90000=
07790,1996-11-09 03:00:00,11,1026.2,0.1,76,7,11000,14.816,,,230,,,,,,,,,,,wg-a,,,,AAXX 09034 07790 12/61 /2308 10110 20070 30247 40262 50001 60006 90300=
07790,1996-11-09 06:00:00,10,1027.2,1,82,7,11000,7.408,,,230,9.7,12.8,,,,,,,,,wg-a,,,,AAXX 09064 07790 02/61 /2304 10100 20070 30257 40272 53010 60006 90600 333 10128 20097 60004=
07790,1996-11-09 09:00:00,13,1028.8,1.6,82,10,20000,7.408,,,240,,,,,,,,,,60,wg-a,,,,AAXX 09094 07790 02570 /2404 10130 20100 30273 40288 51016 61000 76062 86800 90900 333 ////=
07790,1996-11-09 12:00:00,18,1027.7,-1,73,13,20000,3.704,,,120,,,,,,,,,,1,wg-a,,,,AAXX 09124 07790 02570 /1202 10180 20130 30263 40277 58010 61000 70162 85800 91200 333 6100=
07790,1996-11-09 15:00:00,17,1027.1,-0.6,77,13,20000,0,,,0,,,,,,,,,,,wg-a,,,,AAXX 09154 07790 12570 70000 10170 20130 30257 40271 55006 60006 82802 91500=
07790,1996-11-09 18:00:00,13,1027.3,0.1,94,12,20000,7.408,,,230,10,18.5,,,,,,,,,wg-a,,,,AAXX 09184 07790 32570 /2304 10130 20120 30258 40273 53001 82202 91800 333 10185 20100=
07790,1996-11-09 21:00:00,12,1027,-0.3,94,11,20000,7.408,,,240,,,,,,,,,,,wg-a,,,,AAXX 09214 07790 12570 72404 10120 20110 30255 40270 58003 60006 8357/ 92100=
07790,1996-11-10 00:00:00,11,1025.7,-1.3,94,10,12000,7.408,,,240,,,,,,,,,,,wg-a,,,,AAXX 10004 07790 12662 72404 10110 20100 30242 40257 57013 60006 8557/ 90000=
07790,1996-11-10 03:00:00,11,1023.9,-1.8,87,9,15000,7.408,,,220,,,,0,,,,,,,wg-a,,,,AAXX 10034 07790 12/65 /2204 10110 20090 30224 40239 58018 60007 81030 90300=
07790,1996-11-10 06:00:00,10,1023.1,-0.8,93,9,15000,7.408,,,220,10.1,13.2,,,,,,,,,wg-a,,,,AAXX 10064 07790 12665 72204 10100 20090 30216 40231 57008 60004 8253/ 90600 333 10132 20101=
07790,1996-11-10 09:00:00,14,1022.9,-0.2,82,11,20000,3.704,,,170,,,,,,,,,,,wg-a,,,,AAXX 10094 07790 12570 71702 10140 20110 30214 40229 58002 60006 81572 90900=
07790,1996-11-10 12:00:00,18,1020.9,-1.9,59,10,20000,14.816,,,160,,,,,,,,,,,wg-a,,,,AAXX 10124 07790 12570 /1608 10180 20100 30195 40209 58019 60006 82872 91200=
07790,1996-11-10 15:00:00,17,1018.9,-2,72,12,15000,14.816,,,150,,,,,,,,,,,wg-a,,,,AAXX 10154 07790 12565 51508 10170 20120 30175 40189 56020 60006 83872 91500=
07790,1996-11-10 18:00:00,12,1018.7,-0.3,88,10,15000,3.704,,,260,10,18.2,,,,,,,,,wg-a,,,,AAXX 10184 07790 12565 /2602 10120 20100 30172 40187 56003 60006 82872 91800 333 10182 20100=
07790,1996-11-10 21:00:00,12,1018,-0.7,82,9,25000,11.112,,,230,,,,,,,,,,,wg-a,,,,AAXX 10214 07790 12675 22306 10120 20090 30165 40180 57007 60006 82500 92100=
07790,1996-11-11 00:00:00,10,1016.5,-1.5,87,8,25000,7.408,,,240,,,,,,,,,,,wg-a,,,,AAXX 11004 07790 12675 32404 10100 20080 30150 40165 58015 60006 83500 90000=
07790,1996-11-11 03:00:00,9,1013.9,-2.6,87,7,25000,7.408,,,230,,,,,,,,,,,wg-a,,,,AAXX 11034 07790 12575 22304 10090 20070 30124 40139 58026 60006 82500 90300=
07790,1996-11-11 06:00:00,8,1012.9,-1,93,7,25000,7.408,,,220,7.9,12.1,,0,,,,,,,wg-a,,,,AAXX 11064 07790 02575 52204 10080 20070 30114 40129 56010 60004 82571 90600 333 10121 20079 60007=
07790,1996-11-11 09:00:00,15,1012.7,-0.1,72,10,25000,3.704,,,200,,,,,,,,,,,wg-a,,,,AAXX 11094 07790 12575 32002 10150 20100 30113 40127 58001 60006 81501 90900=
07790,1996-11-11 12:00:00,20,1010.7,-2,68,14,20000,14.816,,,170,,,,,,,,,,,wg-a,,,,AAXX 11124 07790 12570 /1708 10200 20140 30093 40107 58020 60006 81504 91200=
07790,1996-11-11 15:00:00,18,1009.3,-1.4,88,16,12000,31.484,,53.708,160,,,,,,,,,,,wg-a,,,,AAXX 11154 07790 12462 71617 10180 20160 30079 40093 56014 60006 81544 91500 333 91029=
07790,1996-11-11 18:00:00,17,1010.1,0.8,88,15,12000,29.632,,53.708,160,8.1,20,,,,,,,,,wg-a,,,,AAXX 11184 07790 12462 71616 10170 20150 30087 40101 52008 60006 83842 91800 333 10200 20081 91029=
07790,1996-11-11 21:00:00,17,1010,-0.1,88,15,11000,22.224,,,160,,,,,,,,,,,wg-a,,,,AAXX 11214 07790 12/61 /1612 10170 20150 30086 40100 55001 60006 92100=
07790,1996-11-12 00:00:00,16,1010,-0,88,14,12000,7.408,,,240,,,,,,,,,,,wg-a,,,,AAXX 12004 07790 12362 72404 10160 20140 30086 40100 55000 60006 85842 90000=
07790,1996-11-12 03:00:00,11,1010,0,94,10,12000,7.408,,,210,,,,,,,,,,,wg-a,,,,AAXX 12034 07790 12462 32104 10110 20100 30086 40100 50000 60006 82842 90300=
07790,1996-11-12 06:00:00,11,1010.2,0.2,94,10,12000,7.408,,,220,10,17.1,,,,,,,,,wg-a,,,,AAXX 12064 07790 02462 62204 10110 20100 30088 40102 51002 60006 82802 90600 333 10171 20100 60004=
07790,1996-11-12 09:00:00,19,1010.7,0.5,73,14,17000,29.632,,50.004,170,,,,,,,,,,,wg-a,,,,AAXX 12094 07790 12467 /1716 10190 20140 30093 40107 51005 60006 81501 90900 333 91027=
07790,1996-11-12 12:00:00,20,1010.6,-0.1,78,16,17000,31.484,,57.412,140,,,,,,,,,,,wg-a,,,,AAXX 12124 07790 12567 /1417 10200 20160 30092 40106 58001 60006 81501 91200 333 91031=
07790,1996-11-12 15:00:00,17,1010.8,0.2,94,16,7000,25.928,,,130,,,,,,,,,,,wg-a,,,,AAXX 12154 07790 12257 31314 10170 20160 30094 40108 53002 60006 83601 91500=
07790,1996-11-12 18:00:00,16,1011,0.2,94,15,7000,22.224,,,160,10.7,20.7,,,,,,,,,wg-a,,,,AAXX 12184 07790 12257 41612 10160 20150 30096 40110 50002 60006 84601 91800 333 10207 20107=
07790,1996-11-12 21:00:00,16,1010.6,-0.4,82,13,10000,18.52,,,160,,,,,,,,,,,wg-a,,,,AAXX 12214 07790 12460 /1610 10160 20130 30092 40106 58004 60006 81601 92100=
07790,1996-11-13 00:00:00,11,1010.6,-0,94,10,10000,11.112,,,230,,,,,,,,,,,wg-a,,,,AAXX 13004 07790 12460 /2306 10110 20100 30092 40106 55000 60006 81601 90000=
07790,1996-11-13 03:00:00,11,1010.5,-0.2,87,9,15000,7.408,,,240,,,,,,,,,,,wg-a,,,,AAXX 13034 07790 12465 22404 10110 20090 30090 40105 58002 60006 82600 90300=
07790,1996-11-13 06:00:00,10,1010,-0.5,93,9,10000,7.408,,,250,9.4,16.1,,0,,,,,,,wg-a,,,,AAXX 13064 07790 02460 72504 10100 20090 30085 40100 56005 60004 875// 90600 333 10161 20094 60007=
07790,1996-11-13 09:00:00,15,1011.1,1.2,94,14,12000,3.704,,,230,,,,,,,,,,,wg-a,,,,AAXX 13094 07790 12462 72302 10150 20140 30097 40111 51012 60006 875// 90900=
07790,1996-11-13 12:00:00,18,1009.9,-1.2,88,16,9000,11.112,,,150,,,,,,,,,,,wg-a,,,,AAXX 13124 07790 12359 81506 10180 20160 30085 40099 58012 60006 86802 91200=
07790,1996-11-13 15:00:00,18,1008.8,-1.1,88,16,6000,11.112,,,150,,,,,,,,,,,wg-a,,,,AAXX 13154 07790 12256 81506 10180 20160 30074 40088 56011 60006 875// 91500=
07790,1996-11-13 18:00:00,16,1008.7,-0.1,94,15,4500,0,,,0,10.1,18.8,,,,,,,,10,wg-a,,,,AAXX 13184 07790 12245 70000 10160 20150 30073 40087 55001 60006 71022 875// 91800 333 10188 20101=
07790,1996-11-13 21:00:00,14,1008.6,-0.1,94,13,8000,3.704,,,220,,,,,,,,,,,wg-a,,,,AAXX 13214 07790 12358 52202 10140 20130 30072 40086 58001 60006 85500 92100=
07790,1996-11-14 00:00:00,12,1008.3,-0.3,94,11,9000,7.408,,,240,,,,,,,,,,,wg-a,,,,AAXX 14004 07790 12459 /2404 10120 20110 30069 40083 56003 60006 86500 90000=
07790,1996-11-14 03:00:00,11,1007.7,-0.6,94,10,9000,7.408,,,230,,,,,,,,,,,wg-a,,,,AAXX 14034 07790 12359 42304 10110 20100 30063 40077 56006 60006 82530 90300=
07790,1996-11-14 06:00:00,11,1008.5,0.8,94,10,12000,3.704,,,240,10.7,16,,,,,,,,11,wg-a,,,,AAXX 14064 07790 02862 /2402 10110 20100 30071 40085 53008 60006 71111 81030 90600 333 10160 20107 60004=
07790,1996-11-14 09:00:00,16,1009.6,1.1,88,14,7000,3.704,,,190,,,,,,,,,,,wg-a,,,,AAXX 14094 07790 12/57 /1902 10160 20140 30082 40096 51011 60006 80002 90900=
07790,1996-11-14 12:00:00,19,1009.5,-0.1,83,16,10000,14.816,,,30,,,,,,,,,,,wg-a,,,,AAXX 14124 07790 12560 /0308 10190 20160 30081 40095 55001 60006 82182 91200=
07790,1996-11-14 15:00:00,18,1010.6,1.1,83,15,11000,3.704,,,50,,,,,,,,,,,wg-a,,,,AAXX 14154 07790 12/61 /0502 10180 20150 30092 40106 53011 60006 91500=
07790,1996-11-14 18:00:00,16,1011.1,0.5,94,15,8000,7.408,,,140,10.6,19.4,,,,,,,,,wg-a,,,,AAXX 14184 07790 12558 71404 10160 20150 30097 40111 52005 60006 878// 91800 333 10194 20106=
07790,1996-11-14 21:00:00,16,1011.9,0.8,88,14,10000,3.704,,,260,,,,,,,,,,,wg-a,,,,AAXX 14214 07790 12460 72602 10160 20140 30105 40119 53008 60006 878// 92100=
07790,1996-11-15 00:00:00,16,1011.7,-0.2,88,14,10000,11.112,,,320,,,,,,,,,,,wg-a,,,,AAXX 15004 07790 12460 73206 10160 20140 30103 40117 56002 60006 875// 90000=
07790,1996-11-15 03:00:00,14,1011.6,-0.1,88,12,15000,7.408,,,10,,,,,,,,,,,wg-a,,,,AAXX 15034 07790 12465 50104 10140 20120 30102 40116 55001 60006 85800 90300=
07790,1996-11-15 06:00:00,14,1011.4,-0.2,88,12,15000,11.112,,,320,13.3,16.9,,,,,,,,,wg-a,,,,AAXX 15064 07790 02565 73206 10140 20120 30100 40114 58002 60006 83831 90600 333 10169 20133 60004=
07790,1996-11-15 09:00:00,16,1014.7,3.3,82,13,20000,7.408,,,20,,,,,,,,,,,wg-a,,,,AAXX 15094 07790 12470 30204 10160 20130 30133 40147 52033 60006 83800 90900=
07790,1996-11-15 12:00:00,19,1015.4,0.7,73,14,500,11.112,,,90,,,,,,,,,,,wg-a,,,,AAXX 15124 07790 12500 40906 10190 20140 30140 40154 51007 60006 82831 91200=
07790,1996-11-15 15:00:00,17,1017.1,1.7,77,13,500,7.408,,,20,,,,,,,,,,,wg-a,,,,AAXX 15154 07790 12400 70204 10170 20130 30157 40171 51017 60006 84802 91500=
07790,1996-11-15 18:00:00,15,1018.3,1.2,88,13,500,3.704,,,280,13.6,19,,,,,,,,,wg-a,,,,AAXX 15184 07790 12400 72802 10150 20130 30169 40183 51012 60006 875// 91800 333 10190 20136=
07790,1996-11-15 20:00:00,15,1018.3,1.2,88,13,500,3.704,,,280,13.6,19,,,,,,,,,wg-a,,,,AAXX 15204 07790 12400 72802 10150 20130 30169 40183 51012 60006 875// 92000 333 10190 20136=
07790,1996-11-15 21:00:00,13,1019,0.7,94,12,20000,3.704,,,230,,,,,,,,,,,wg-a,,,,AAXX 15214 07790 12570 72302 10130 20120 30176 40190 53007 60006 83502 92100=
07790,1996-11-16 00:00:00,13,1018.4,-0.7,88,11,20000,7.408,,,250,,,,0,,,,,,,wg-a,,,,AAXX 16004 07790 02570 72504 10130 20110 30169 40184 58007 60006 82502 90000 333 60007=
07790,1996-11-16 03:00:00,12,1017.5,-0.9,94,11,20000,11.112,,,250,,,,,,,,,,,wg-a,,,,AAXX 16034 07790 12570 52506 10120 20110 30160 40175 58009 60006 83502 90300=
07790,1996-11-16 06:00:00,12,1017.1,-0.4,94,11,20000,7.408,,,250,11.8,15,,,,,,,,,wg-a,,,,AAXX 16064 07790 12470 62504 10120 20110 30156 40171 58004 60004 83502 90600 333 10150 20118=
07790,1996-11-16 09:00:00,15,1017.5,0.5,88,13,17000,7.408,,,230,,,,,,,,,,,wg-a,,,,AAXX 16094 07790 12467 72304 10150 20130 30161 40175 50005 60006 878// 90900=
07790,1996-11-16 12:00:00,20,1015.8,-1.7,78,16,9000,7.408,,,160,,,,,,,,,,,wg-a,,,,AAXX 16124 07790 12359 71604 10200 20160 30144 40158 58017 60006 86802 91200=
07790,1996-11-16 15:00:00,18,1015.1,-0.7,88,16,3500,14.816,,,170,,,,,,,,,,10,wg-a,,,,AAXX 16154 07790 02235 81708 10180 20160 30137 40151 56007 61000 71062 8782/ 91500 333 ////=
07790,1996-11-16 18:00:00,16,1015.7,0.6,94,15,15000,3.704,,,290,12.1,20,,,,,,,,17,wg-a,,,,AAXX 16184 07790 02465 72902 10160 20150 30143 40157 53006 61000 71796 8392/ 91800 333 10200 20121 ////=
07790,1996-11-16 21:00:00,15,1014.8,-0.9,94,14,20000,11.112,,,190,,,,8,,,,,,29,wg-a,,,,AAXX 16214 07790 12270 81906 10150 20140 30134 40148 56009 60087 72996 879// 92100=
07790,1996-11-17 00:00:00,14,1013.9,-0.9,94,13,16000,3.704,,,300,,,,,,,,,,3,wg-a,,,,AAXX 17004 07790 12466 83002 10140 20130 30125 40139 56009 60086 70396 877// 90000=
07790,1996-11-17 03:00:00,13,1012.3,-1.6,94,12,18000,3.704,,,250,,,,,,,,,,13,wg-a,,,,AAXX 17034 07790 12468 72502 10130 20120 30109 40123 56016 60006 71322 879// 90300=
07790,1996-11-17 06:00:00,14,1011.6,-0.7,94,13,14000,7.408,,,250,12.7,16.3,,,,,8,,,,wg-a,,,,AAXX 17064 07790 12464 82504 10140 20130 30102 40116 58007 60084 877// 90600 333 10163 20127=
07790,1996-11-17 09:00:00,15,1011.2,-0.4,94,14,7000,3.704,,,290,,,,0,,,,,,60,wg-a,,,,AAXX 17094 07790 12457 82902 10150 20140 30098 40112 58004 60007 76062 8487/ 90900=
07790,1996-11-17 12:00:00,17,1008.6,-2.6,82,14,8000,14.816,,,190,,,,0,,,,,,21,wg-a,,,,AAXX 17124 07790 02358 71908 10170 20140 30072 40086 58026 60016 72162 85842 91200 333 60007=
07790,1996-11-17 15:00:00,17,1006.1,-2.5,77,13,15000,18.52,,,170,,,,,,,,,,14,wg-a,,,,AAXX 17154 07790 12465 71710 10170 20130 30047 40061 57025 60006 71422 85832 91500=
07790,1996-11-17 18:00:00,15,1005.6,-0.5,94,14,20000,3.704,,,250,13.5,18.2,,,,,,,,,wg-a,,,,AAXX 17184 07790 32570 72502 10150 20140 30042 40056 58005 8387/ 91800 333 10182 20135=
07790,1996-11-17 21:00:00,14,1003.8,-1.8,94,13,18000,3.704,,,170,,,,,,,,,,,wg-a,,,,AAXX 17214 07790 12568 71702 10140 20130 30024 40038 58018 60006 8557/ 92100=
07790,1996-11-18 00:00:00,13,1000.6,-3.2,88,11,10000,25.928,,,340,,,,2,,,,,,62,wg-a,,,,AAXX 18004 07790 02460 83414 10130 20110 39992 40006 56032 60026 76262 875// 90000 333 60027=
07790,1996-11-18 03:00:00,13,999.2,-1.4,82,10,10000,11.112,,,230,,,,0,,,,,,21,wg-a,,,,AAXX 18034 07790 12460 /2306 10130 20100 39978 49992 58014 60007 72162 8457/ 90300=
07790,1996-11-18 06:00:00,9,998.2,-1,87,7,11000,11.112,,,210,8.9,14.9,,,,,2,,,,wg-a,,,,AAXX 18064 07790 12/61 /2106 10090 20070 39968 49982 56010 60024 90600 333 10149 20089=
07790,1996-11-18 09:00:00,14,998.8,0.6,58,6,20000,7.408,,,260,,,,,,,,,,,wg-a,,,,AAXX 18094 07790 12570 62604 10140 20060 39974 49988 53006 60006 84843 90900=
07790,1996-11-18 12:00:00,12,998.3,-0.5,76,8,20000,11.112,,,280,,,,1,,,,,,60,wg-a,,,,AAXX 18124 07790 02470 62806 10120 20080 39969 49983 58005 60016 76061 86903 91200 333 60017=
07790,1996-11-18 15:00:00,15,998.1,-0.2,55,6,20000,7.408,,,250,,,,,,,,,,3,wg-a,,,,AAXX 18154 07790 02570 /2504 10150 20060 39967 49981 58002 61000 70362 83203 91500 333 ////=
07790,1996-11-18 18:00:00,10,999.6,1.5,71,5,20000,11.112,,,210,9,15.4,,,,,,,,3,wg-a,,,,AAXX 18184 07790 32570 32106 10100 20050 39982 49996 53015 70361 81203 91800 333 10154 20090=
07790,1996-11-18 21:00:00,11,1001.4,1.8,62,4,25000,11.112,,,250,,,,,,,,,,,wg-a,,,,AAXX 18214 07790 12575 82506 10110 20040 30000 40014 53018 60006 82203 92100=
07790,1996-11-19 00:00:00,13,1001.9,0.5,47,2,25000,7.408,,,180,,,,,,,,,,,wg-a,,,,AAXX 19004 07790 12/75 81804 10130 20020 30005 40019 53005 60006 80002 90000=
07790,1996-11-19 03:00:00,12,1002,0.1,54,3,25000,11.112,,44.448,310,,,,,,,,,,,wg-a,,,,AAXX 19034 07790 12/75 03106 10120 20030 30006 40020 50001 60006 80000 90300 333 91024=
07790,1996-11-19 06:00:00,9,1003,0.9,66,3,25000,14.816,,,330,8.2,13.3,,,,,1,,,,wg-a,,,,AAXX 19064 07790 02475 33308 10090 20030 30015 40030 53009 60006 81301 90600 333 10133 20082 60014=
07790,1996-11-19 09:00:00,13,1005,2.1,54,4,25000,22.224,,,290,,,,,,,,,,,wg-a,,,,AAXX 19094 07790 12575 22912 10130 20040 30036 40050 51021 60006 81901 90900=
07790,1996-11-19 12:00:00,16,1005.4,0.4,45,4,500,14.816,,,250,,,,,,,,,,,wg-a,,,,AAXX 19124 07790 12500 /2508 10160 20040 30040 40054 51004 60006 81201 91200=
07790,1996-11-19 15:00:00,14,1005.8,0.4,31,-3,11000,18.52,,,270,,,,,,,,,,,wg-a,,,,AAXX 19154 07790 12/61 /2710 10140 21030 30044 40058 53004 60006 91500=
07790,1996-11-19 18:00:00,12,1005.9,0.1,38,-2,11000,18.52,,,250,8.1,17.6,,,,,,,,,wg-a,,,,AAXX 19184 07790 12/61 /2510 10120 21020 30045 40059 50001 60006 91800 333 10176 20081=
07790,1996-11-19 21:00:00,9,1004.9,-1.1,61,2,25000,7.408,,,210,,,,,,,,,,,wg-a,,,,AAXX 19214 07790 12575 /2104 10090 20020 30034 40049 58011 60006 84542 92100=
07790,1996-11-20 00:00:00,10,1001.4,-3.4,62,3,25000,3.704,,,280,,,,,,,,,,,wg-a,,,,AAXX 20004 07790 12575 /2802 10100 20030 30000 40014 58034 60006 84542 90000=
07790,1996-11-20 03:00:00,10,998.2,-3.2,87,8,25000,11.112,,,210,,,,0,,,,,,21,wg-a,,,,AAXX 20034 07790 12575 52106 10100 20080 39968 49982 58032 60007 72162 85800 90300=
07790,1996-11-20 06:00:00,11,998.6,0.4,87,9,12000,22.224,,,340,9.4,12.6,,2,,,3,,,60,wg-a,,,,AAXX 20064 07790 02562 83412 10110 20090 39972 49986 52004 60034 76062 868// 90600 333 10126 20094 60027=
07790,1996-11-20 09:00:00,12,998.9,0.3,62,5,12000,31.484,,57.412,260,,,,0,,,,,,60,wg-a,,,,AAXX 20094 07790 12562 /2617 10120 20050 39975 49989 50003 60007 76066 86801 90900 333 91031=
07790,1996-11-20 12:00:00,16,996,-2.9,45,4,20000,42.596,,66.672,260,,,,0,,,,,,3,wg-a,,,,AAXX 20124 07790 02570 52623 10160 20040 39946 49960 56029 60016 70362 85801 91200 333 60007 91036=
07790,1996-11-20 15:00:00,13,998.4,2.4,54,4,20000,25.928,,64.82,260,,,,,,,,,,,wg-a,,,,AAXX 20154 07790 12570 /2614 10130 20040 39970 49984 52024 60006 86900 91500 333 91035=
07790,1996-11-20 18:00:00,13,998.8,0.4,47,2,11000,31.484,,68.524,280,11,15.6,,,,,,,,,wg-a,,,,AAXX 20184 07790 32/61 /2817 10130 20020 39974 49988 53004 91800 333 10156 20110 91037=
07790,1996-11-20 21:00:00,13,1000.4,1.6,41,0,11000,35.188,,61.116,260,,,,,,,,,,,wg-a,,,,AAXX 20214 07790 12/61 72619 10130 20000 39990 40004 53016 60006 92100 333 91033=
07790,1996-11-21 00:00:00,13,999.6,-0.8,35,-2,20000,42.596,,90.748,270,,,,,,,,,,,wg-a,,,,AAXX 21004 07790 12570 22723 10130 21020 39982 49996 58008 60006 82200 90000 333 91049=
07790,1996-11-21 03:00:00,12,1000.9,1.3,32,-4,20000,50.004,,75.932,270,,,,,,,,,,,wg-a,,,,AAXX 21034 07790 12570 /2727 10120 21040 39995 40009 53013 60006 81200 90300 333 91041=
07790,1996-11-21 06:00:00,12,1003,2.1,30,-5,25000,57.412,,85.192,270,11.8,13.8,,,,,1,,,,wg-a,,,,AAXX 21064 07790 02575 /2731 10120 21050 30016 40030 51021 60006 81200 90600 333 10138 20118 60014 91046=
07790,1996-11-21 09:00:00,15,1004.8,1.8,20,-8,40000,53.708,,79.636,270,,,,,,,,,,,wg-a,,,,AAXX 21094 07790 12582 /2729 10150 21080 30034 40048 51018 60006 81240 90900 333 91043=
07790,1996-11-21 12:00:00,16,1004.6,-0.2,20,-7,60000,50.004,,75.932,270,,,,,,,,,,,wg-a,,,,AAXX 21124 07790 12586 /2727 10160 21070 30032 40046 58002 60006 81241 91200 333 91041=
07790,1996-11-21 15:00:00,15,1007.5,2.9,21,-7,11000,11.112,,,240,,,,,,,,,,,wg-a,,,,AAXX 21154 07790 12/61 /2406 10150 21070 30061 40075 53029 60006 91500=
07790,1996-11-21 18:00:00,12,1009.3,1.8,35,-3,60000,7.408,,94.452,160,11.6,16.3,,,,,,,,,wg-a,,,,AAXX 21184 07790 12686 /1604 10120 21030 30079 40093 53018 60006 81144 91800 333 10163 20116 91051=
07790,1996-11-21 21:00:00,11,1009.7,0.3,47,0,500,7.408,,,250,,,,,,,,,,,wg-a,,,,AAXX 21214 07790 12600 72504 10110 20000 30082 40097 52003 60006 81542 92100=
07790,1996-11-22 00:00:00,10,1008.4,-1.3,57,2,20000,7.408,,,260,,,,,,,,,,,wg-a,,,,AAXX 22004 07790 12670 72604 10100 20020 30069 40084 56013 60006 81542 90000=
07790,1996-11-22 03:00:00,9,1004.8,-3.6,87,7,15000,7.408,,,210,,,,1,,,,,,60,wg-a,,,,AAXX 22034 07790 12565 72104 10090 20070 30033 40048 58036 60017 76062 83542 90300=
07790,1996-11-22 06:00:00,10,1002.1,-2.6,87,8,15000,7.408,,,170,8.7,11.8,,0,,,1,,,13,wg-a,,,,AAXX 22064 07790 02565 41704 10100 20080 30007 40021 55026 60014 71361 83542 90600 333 10118 20087 60007=
07790,1996-11-22 09:00:00,20,1002.1,-0,40,6,40000,25.928,,59.264,280,,,,,,,,,,,wg-a,,,,AAXX 22094 07790 12582 52814 10200 20060 30007 40021 54000 60006 81842 90900 333 91032=
07790,1996-11-22 12:00:00,18,1002.5,0.4,45,6,500,31.484,,64.82,320,,,,,,,,,,,wg-a,,,,AAXX 22124 07790 12500 33217 10180 20060 30011 40025 53004 60006 82202 91200 333 91035=
07790,1996-11-22 15:00:00,13,1006.2,3.7,67,7,500,42.596,,59.264,30,,,,,,,,,,,wg-a,,,,AAXX 22154 07790 12500 40323 10130 20070 30048 40062 53037 60006 84200 91500 333 91032=
07790,1996-11-22 18:00:00,11,1010.3,4.1,66,5,25000,22.224,,42.596,330,10,19.7,,,,,,,,,wg-a,,,,AAXX 22184 07790 12575 33312 10110 20050 30089 40103 53041 60006 83100 91800 333 10197 20100 91023=
07790,1996-11-22 21:00:00,11,1012.5,2.1,58,3,25000,11.112,,50.004,280,,,,,,,,,,,wg-a,,,,AAXX 22214 07790 12575 22806 10110 20030 30110 40125 51021 60006 82100 92100 333 91027=
07790,1996-11-23 00:00:00,8,1013.6,1.1,76,4,25000,3.704,,,210,,,,,,,,,,,wg-a,,,,AAXX 23004 07790 12575 22102 10080 20040 30121 40136 50011 60006 82100 90000=
07790,1996-11-23 03:00:00,6,1013.9,0.3,81,3,25000,14.816,,,240,,,,,,,,,,,wg-a,,,,AAXX 23034 07790 12575 /2408 10060 20030 30124 40139 50003 60006 81100 90300=
07790,1996-11-23 06:00:00,7,1014.7,0.8,70,2,45000,22.224,,,250,5.7,11.5,,,,,,,,,wg-a,,,,AAXX 23064 07790 02583 22512 10070 20020 30132 40147 50008 60006 82130 90600 333 10115 20057 60004=
07790,1996-11-23 09:00:00,11,1015.5,0.8,58,3,25000,14.816,,,240,,,,,,,,,,,wg-a,,,,AAXX 23094 07790 12675 /2408 10110 20030 30140 40155 53008 60006 81570 90900=
07790,1996-11-23 12:00:00,12,1013.9,-1.6,62,5,20000,7.408,,,250,,,,,,,,,,60,wg-a,,,,AAXX 23124 07790 02670 72504 10120 20050 30124 40139 58016 61000 76061 8157/ 91200 333 6100=
07790,1996-11-23 15:00:00,9,1012.4,-1.5,87,7,7000,7.408,,,220,,,,2,,,,,,61,wg-a,,,,AAXX 23154 07790 12557 82204 10090 20070 30109 40124 56015 60027 76166 8587/ 91500=
07790,1996-11-23 18:00:00,8,1012.2,-0.2,93,7,25000,7.408,,,300,6,12.1,,,,,,,,1,wg-a,,,,AAXX 23184 07790 02575 43004 10080 20070 30107 40122 56002 61000 70161 84500 91800 333 10121 20060 ////=
07790,1996-11-23 21:00:00,7,1011.7,-0.5,93,6,25000,11.112,,,220,,,,,,,,,,,wg-a,,,,AAXX 23214 07790 12575 32206 10070 20060 30102 40117 55005 60006 83800 92100=
07790,1996-11-24 00:00:00,11,1010.4,-1.3,50,1,25000,46.3,,64.82,280,,,,,,,,,,,wg-a,,,,AAXX 24004 07790 12575 22825 10110 20010 30089 40104 58013 60006 82800 90000 333 91035=
07790,1996-11-24 03:00:00,10,1013.2,2.8,57,2,25000,18.52,,94.452,340,,,,,,,,,,,wg-a,,,,AAXX 24034 07790 12575 23410 10100 20020 30117 40132 53028 60006 82800 90300 333 91051=
07790,1996-11-24 06:00:00,8,1015.5,2.3,66,2,25000,11.112,,94.452,30,6.7,11.5,,,,,2,,,,wg-a,,,,AAXX 24064 07790 02575 30306 10080 20020 30140 40155 51023 60006 83800 90600 333 10115 20067 60024 91051=
07790,1996-11-24 09:00:00,12,1017.4,1.9,44,0,11000,14.816,,,260,,,,,,,,,,,wg-a,,,,AAXX 24094 07790 12/61 /2608 10120 20000 30159 40174 51019 60006 90900=
07790,1996-11-24 12:00:00,11,1018.7,1.3,37,-3,20000,25.928,,,320,,,,0,,,,,,21,wg-a,,,,AAXX 24124 07790 02570 33214 10110 21030 30172 40187 51013 60006 72161 82871 91200 333 60007=
07790,1996-11-24 15:00:00,11,1020.1,1.4,32,-5,35000,14.816,,,320,,,,,,,,,,,wg-a,,,,AAXX 24154 07790 12581 /3208 10110 21050 30186 40201 53014 60006 81200 91500=
07790,1996-11-24 18:00:00,7,1021.8,1.7,42,-5,25000,11.112,,,290,6.4,12.7,,,,,,,,,wg-a,,,,AAXX 24184 07790 32/75 /2906 10070 21050 30203 40218 51017 81030 91800 333 10127 20064=
07790,1996-11-24 21:00:00,5,1022.4,0.6,52,-4,500,11.112,,,270,,,,,,,,,,,wg-a,,,,AAXX 24214 07790 12/00 22706 10050 21040 30209 40224 52006 60006 80001 92100=
07790,1996-11-25 00:00:00,6,1021.6,-0.8,49,-4,500,11.112,,,240,,,,,,,,,,,wg-a,,,,AAXX 25004 07790 12/00 02406 10060 21040 30201 40216 58008 60006 80000 90000=
07790,1996-11-25 03:00:00,6,1020.4,-1.2,49,-4,500,18.52,,,240,,,,,,,,,,,wg-a,,,,AAXX 25034 07790 12/00 82410 10060 21040 30189 40204 58012 60006 8801/ 90300=
07790,1996-11-25 06:00:00,6,1018.8,-1.6,56,-2,500,14.816,,,250,3.1,6.8,,,,,,,,,wg-a,,,,AAXX 25064 07790 02800 72508 10060 21020 30173 40188 56016 60006 8552/ 90600 333 10068 20031 60004=
07790,1996-11-25 09:00:00,8,1017.3,-1.5,53,-1,500,14.816,,,230,,,,,,,,,,,wg-a,,,,AAXX 25094 07790 12500 82308 10080 21010 30158 40173 58015 60006 85872 90900=
07790,1996-11-25 12:00:00,10,1013.8,-3.5,57,2,20000,7.408,,,240,,,,,,,,,,21,wg-a,,,,AAXX 25124 07790 02570 82404 10100 20020 30123 40138 58035 61000 72162 85832 91200 333 6100=
07790,1996-11-25 15:00:00,9,1010.4,-3.4,87,7,18000,7.408,,,240,,,,1,,,,,,61,wg-a,,,,AAXX 25154 07790 12568 82404 10090 20070 30089 40104 56034 60017 76162 8687/ 91500=
07790,1996-11-25 18:00:00,9,1007.1,-3.3,87,7,11000,7.408,,,250,5.8,10.9,,,,,,,,,wg-a,,,,AAXX 25184 07790 32/61 /2504 10090 20070 30056 40071 56033 91800 333 10109 20058=
07790,1996-11-25 21:00:00,9,1004,-3.1,93,8,12000,7.408,,,240,,,,0,,,,,,61,wg-a,,,,AAXX 25214 07790 12462 82404 10090 20080 30025 40040 57031 60007 76166 8457/ 92100=
07790,1996-11-26 00:00:00,9,1000.1,-3.8,93,8,12000,7.408,,,220,,,,0,,,,,,21,wg-a,,,,AAXX 26004 07790 02462 52204 10090 20080 39987 40001 56038 60016 72162 83230 90000 333 60007=
07790,1996-11-26 03:00:00,10,997.3,-2.8,87,8,20000,14.816,,,200,,,,0,,,,,,21,wg-a,,,,AAXX 26034 07790 12470 42008 10100 20080 39959 49973 58028 60007 72161 84800 90300=
07790,1996-11-26 06:00:00,10,997,-0.3,93,9,15000,11.112,,,60,8.2,11.4,,1,,,3,,,60,wg-a,,,,AAXX 26064 07790 02465 50606 10100 20090 39956 49970 58003 60034 76086 8590/ 90600 333 10114 20082 60017=
07790,1996-11-26 09:00:00,14,997.8,0.8,55,5,20000,25.928,,46.3,250,,,,0,,,,,,21,wg-a,,,,AAXX 26094 07790 12470 22514 10140 20050 39964 49978 50008 60007 72161 82230 90900 333 91025=
07790,1996-11-26 12:00:00,13,997.3,-0.5,54,4,11000,38.892,,59.264,310,,,,,,,,,,,wg-a,,,,AAXX 26124 07790 12/61 /3121 10130 20040 39959 49973 58005 60016 91200 333 91032=
07790,1996-11-26 15:00:00,14,999.2,1.9,44,2,500,14.816,,72.228,20,,,,,,,,,,,wg-a,,,,AAXX 26154 07790 12500 30208 10140 20020 39978 49992 53019 60006 83230 91500 333 91039=
07790,1996-11-26 18:00:00,13,1001.3,2.1,38,-1,20000,14.816,,72.228,340,10.1,15.2,,,,,,,,,wg-a,,,,AAXX 26184 07790 32870 /3408 10130 21010 39999 40013 53021 81030 91800 333 10152 20101 91039=
07790,1996-11-26 21:00:00,10,1003.3,2,46,-1,500,11.112,,,250,,,,,,,,,,,wg-a,,,,AAXX 26214 07790 12/00 02506 10100 21010 30019 40033 53020 60006 80000 92100=
07790,1996-11-27 00:00:00,12,1004.1,0.8,44,0,500,14.816,,,260,,,,,,,,,,,wg-a,,,,AAXX 27004 07790 12/00 02608 10120 20000 30027 40041 51008 60006 80000 90000=
07790,1996-11-27 03:00:00,10,1004.8,0.7,43,-2,500,18.52,,,240,,,,,,,,,,,wg-a,,,,AAXX 27034 07790 12/00 02410 10100 21020 30034 40048 50007 60006 80000 90300=
07790,1996-11-27 06:00:00,8,1006.2,1.3,46,-3,500,22.224,,,250,7.4,12.6,,,,,,,,,wg-a,,,,AAXX 27064 07790 02500 /2512 10080 21030 30047 40062 53013 60006 81800 90600 333 10126 20074 60004=
07790,1996-11-27 09:00:00,12,1007.5,1.4,38,-2,60000,14.816,,,230,,,,,,,,,,,wg-a,,,,AAXX 27094 07790 12586 /2308 10120 21020 30061 40075 51014 60006 81200 90900=
07790,1996-11-27 12:00:00,17,1006.7,-0.8,34,1,60000,22.224,,,150,,,,,,,,,,,wg-a,,,,AAXX 27124 07790 12586 /1512 10170 20010 30053 40067 58008 60006 81200 91200=
07790,1996-11-27 15:00:00,14,1006.1,-0.6,51,4,60000,7.408,,,150,,,,,,,,,,,wg-a,,,,AAXX 27154 07790 12586 31504 10140 20040 30047 40061 58006 60006 81251 91500=
07790,1996-11-27 18:00:00,10,1005.8,-0.3,71,5,500,7.408,,,240,7.5,17.8,,,,,,,,60,wg-a,,,,AAXX 27184 07790 02500 72404 10100 20050 30044 40058 55003 61000 76061 8127/ 91800 333 10178 20075 ////=
07790,1996-11-28 00:00:00,10,1001.1,-3.2,87,8,20000,11.112,,,240,,,,,,,,,,21,wg-a,,,,AAXX 28004 07790 02670 72406 10100 20080 39997 40011 58032 60016 72162 83572 90000 333 61000=
07790,1996-11-28 03:00:00,15,998.3,-2.8,36,0,25000,31.484,,68.524,270,,,,,,,,,,,wg-a,,,,AAXX 28034 07790 12675 22717 10150 20000 39969 49983 56028 60006 81502 90300 333 91037=
07790,1996-11-28 06:00:00,13,997.2,-1.1,44,1,25000,29.632,,68.524,290,9.1,15.7,,,,,1,,,,wg-a,,,,AAXX 28064 07790 12675 /2916 10130 20010 39958 49972 58011 60014 82571 90600 333 10157 20091 91037=
07790,1996-11-28 09:00:00,14,1000.1,2.9,47,3,25000,14.816,,64.82,100,,,,,,,,,,,wg-a,,,,AAXX 28094 07790 12575 31008 10140 20030 39987 40001 52029 60006 82840 90900 333 91035=
07790,1996-11-28 12:00:00,14,1000.4,0.3,55,5,25000,29.632,,64.82,320,,,,,,,,,,15,wg-a,,,,AAXX 28124 07790 12575 53216 10140 20050 39990 40004 51003 60006 71511 85540 91200 333 91035=
07790,1996-11-28 15:00:00,12,1001.1,0.7,62,5,25000,22.224,,,340,,,,,,,,,,,wg-a,,,,AAXX 28154 07790 12575 33412 10120 20050 39997 40011 53007 60006 82840 91500=
07790,1996-11-28 18:00:00,11,1002.8,1.7,58,3,20000,11.112,,,260,11,14.8,,,,,,,,,wg-a,,,,AAXX 28184 07790 12570 /2606 10110 20030 30014 40028 53017 60006 84840 91800 333 10148 20110=
07790,1996-11-28 21:00:00,10,1005.2,2.4,66,4,20000,11.112,,,340,,,,,,,,,,13,wg-a,,,,AAXX 28214 07790 12470 43406 10100 20040 30038 40052 53024 60006 71311 84830 92100=
07790,1996-11-29 00:00:00,8,1008,2.7,87,6,15000,11.112,,,250,,,,4,,,,,,17,wg-a,,,,AAXX 29004 07790 02565 82506 10080 20060 30065 40080 51027 60046 71798 85970 90000 333 60047=
07790,1996-11-29 03:00:00,10,1009.6,1.6,71,5,12000,25.928,,,10,,,,0,,,,,,3,wg-a,,,,AAXX 29034 07790 12562 70114 10100 20050 30081 40096 53016 60007 70392 87800 90300=
07790,1996-11-29 06:00:00,10,1012.3,2.7,62,3,12000,22.224,,,20,7.3,11.1,,,,,4,,,3,wg-a,,,,AAXX 29064 07790 12562 /0212 10100 20030 30108 40123 53027 60044 70392 85870 90600 333 10111 20073=
07790,1996-11-29 09:00:00,11,1015.1,2.8,50,1,50000,25.928,,,50,,,,,,,,,,,wg-a,,,,AAXX 29094 07790 12684 60514 10110 20010 30136 40151 51028 60006 86830 90900=
07790,1996-11-29 12:00:00,12,1015.2,0.1,50,2,50000,14.816,,,30,,,,,,,,,,,wg-a,,,,AAXX 29124 07790 12684 50308 10120 20020 30137 40152 50001 60006 85800 91200=
07790,1996-11-29 15:00:00,11,1014.9,-0.3,54,2,40000,11.112,,,320,,,,,,,,,,,wg-a,,,,AAXX 29154 07790 12682 23206 10110 20020 30134 40149 58003 60006 82101 91500=
07790,1996-11-29 18:00:00,5,1014.6,-0.3,81,2,500,7.408,,,250,5.3,12,,,,,,,,,wg-a,,,,AAXX 29184 07790 12/00 02504 10050 20020 30131 40146 58003 60006 80000 91800 333 10120 20053=
07790,1996-11-29 21:00:00,7,1013.6,-1,66,1,500,11.112,,,220,,,,,,,,,,,wg-a,,,,AAXX 29214 07790 12/00 12206 10070 20010 30121 40136 58010 60006 81031 92100=
07790,1996-11-30 00:00:00,7,1010.6,-3,66,1,12000,11.112,,,210,,,,,,,,,,,wg-a,,,,AAXX 30004 07790 12662 72106 10070 20010 30091 40106 58030 60006 875// 90000=
07790,1996-11-30 03:00:00,8,1006.6,-4,66,2,12000,11.112,,,230,,,,,,,,,,,wg-a,,,,AAXX 30034 07790 12662 72306 10080 20020 30051 40066 58040 60006 878// 90300=
07790,1996-11-30 06:00:00,10,1002.4,-4.1,66,4,12000,14.816,,,200,5,10.1,,,,,,,,,wg-a,,,,AAXX 30064 07790 02662 72008 10100 20040 30010 40024 56041 60006 86802 90600 333 10101 20050 60004=
07790,1996-11-30 09:00:00,12,999.6,-2.8,76,8,500,7.408,,,250,,,,,,,,,,15,wg-a,,,,AAXX 30094 07790 12600 /2504 10120 20080 39982 49996 56028 60006 71522 83842 90900=
07790,1996-11-30 12:00:00,19,996.4,-3.2,46,7,500,18.52,,,230,,,,,,,,,,,wg-a,,,,AAXX 30124 07790 12600 52310 10190 20070 39950 49964 58032 60006 83842 91200=
07790,1996-11-30 15:00:00,17,995.6,-0.8,52,7,10000,35.188,,62.968,290,,,,,,,,,,,wg-a,,,,AAXX 30154 07790 12560 /2919 10170 20070 39942 49956 55008 60006 83942 91500 333 91034=
07790,1996-11-30 18:00:00,13,996.5,0.9,72,8,12000,25.928,,44.448,330,9.4,19.4,,,,,,,,,wg-a,,,,AAXX 30184 07790 12562 53314 10130 20080 39951 49965 53009 60006 83842 91800 333 10194 20094 91024=
07790,1996-11-30 21:00:00,12,998.2,1.7,67,6,12000,31.484,,61.116,310,,,,,,,,,,,wg-a,,,,AAXX 30214 07790 12562 /3117 10120 20060 39968 49982 51017 60006 83842 92100 333 91033=
07790,1996-12-01 00:00:00,11,1001,2.8,62,4,12000,29.632,,61.116,320,,,,,,,,,,,wg-a,,,,AAXX 01004 07790 12562 33216 10110 20040 39996 40010 53028 60006 83800 90000 333 91033=
07790,1996-12-01 03:00:00,11,1003.3,2.3,62,4,15000,22.224,,57.412,330,,,,,,,,,,,wg-a,,,,AAXX 01034 07790 12565 23312 10110 20040 30019 40033 51023 60006 82800 90300 333 91031=
07790,1996-12-01 06:00:00,11,1005,1.7,37,-3,20000,25.928,,57.412,330,10.9,13.5,,,,,,,,,wg-a,,,,AAXX 01064 07790 02570 /3314 10110 21030 30036 40050 53017 60006 81200 90600 333 10135 20109 60004 91031=
07790,1996-12-01 09:00:00,14,1007.1,2.1,41,1,40000,29.632,,44.448,340,,,,,,,,,,,wg-a,,,,AAXX 01094 07790 12582 /3416 10140 20010 30057 40071 52021 60006 81100 90900 333 91024=
07790,1996-12-01 12:00:00,15,1008,0.9,41,2,40000,35.188,,64.82,320,,,,,,,,,,,wg-a,,,,AAXX 01124 07790 12582 /3219 10150 20020 30066 40080 52009 60006 81100 91200 333 91035=
07790,1996-12-01 15:00:00,14,1009,1,31,-3,40000,22.224,,,340,,,,,,,,,,,wg-a,,,,AAXX 01154 07790 12/82 03412 10140 21030 30076 40090 53010 60006 80000 91500=
07790,1996-12-01 18:00:00,11,1011.7,2.6,32,-5,500,14.816,,,320,10.3,15.5,,,,,,,,,wg-a,,,,AAXX 01184 07790 12/00 03208 10110 21050 30102 40117 51026 60006 80000 91800 333 10155 20103=
07790,1996-12-01 21:00:00,9,1013.7,2,43,-3,10000,11.112,,,280,,,,,,,,,,,wg-a,,,,AAXX 01214 07790 12/60 /2806 10090 21030 30122 40137 52020 60006 92100=
07790,1996-12-02 00:00:00,7,1013.9,0.2,49,-3,500,11.112,,,250,,,,,,,,,,,wg-a,,,,AAXX 02004 07790 12/00 32506 10070 21030 30124 40139 53002 60006 80001 90000=
07790,1996-12-02 03:00:00,6,1013.3,-0.6,52,-3,500,14.816,,,240,,,,,,,,,,,wg-a,,,,AAXX 02034 07790 12/00 42408 10060 21030 30118 40133 56006 60006 80001 90300=
07790,1996-12-02 06:00:00,5,1012.6,-0.7,56,-3,500,14.816,,,230,5,11.2,,,,,,,,,wg-a,,,,AAXX 02064 07790 02/00 42308 10050 21030 30111 40126 57007 60006 82031 90600 333 10112 20050 60004=
07790,1996-12-02 09:00:00,10,1011.5,-1.1,43,-2,50000,14.816,,,230,,,,,,,,,,,wg-a,,,,AAXX 02094 07790 12/84 72308 10100 21020 30100 40115 58011 60006 84072 90900=
07790,1996-12-02 12:00:00,13,1007.3,-4.1,41,0,50000,11.112,,,240,,,,,,,,,,,wg-a,,,,AAXX 02124 07790 12/84 72406 10130 20000 30059 40073 58041 60006 83072 91200=
07790,1996-12-02 15:00:00,13,1007.5,0.2,58,5,60000,11.112,,,320,,,,,,,,,,,wg-a,,,,AAXX 02154 07790 12686 73206 10130 20050 30061 40075 53002 60006 81172 91500=
07790,1996-12-02 18:00:00,14,1010.2,2.7,51,4,60000,25.928,,,350,5.4,14.1,,,,,,,,,wg-a,,,,AAXX 02184 07790 12/86 03514 10140 20040 30088 40102 53027 60006 80000 91800 333 10141 20054=
07790,1996-12-02 21:00:00,12,1013.2,2.9,58,4,500,18.52,,,330,,,,,,,,,,,wg-a,,,,AAXX 02214 07790 12/00 03310 10120 20040 30117 40132 51029 60006 80000 92100=
07790,1996-12-03 00:00:00,12,1015.1,1.9,54,3,500,14.816,,,330,,,,,,,,,,,wg-a,,,,AAXX 03004 07790 12/00 13308 10120 20030 30136 40151 51019 60006 80001 90000=
07790,1996-12-03 03:00:00,8,1016,0.9,53,-1,500,11.112,,,250,,,,,,,,,,,wg-a,,,,AAXX 03034 07790 12/00 12506 10080 21010 30145 40160 50009 60006 80001 90300=
07790,1996-12-03 06:00:00,7,1016.6,0.6,49,-3,60000,14.816,,,230,6.4,14.9,,,,,,,,,wg-a,,,,AAXX 03064 07790 02/86 02308 10070 21030 30151 40166 51006 60006 80000 90600 333 10149 20064 60004=
07790,1996-12-03 09:00:00,12,1017.5,0.9,38,-2,60000,18.52,,,240,,,,,,,,,,,wg-a,,,,AAXX 03094 07790 12/86 12410 10120 21020 30160 40175 53009 60006 80002 90900=
07790,1996-12-03 12:00:00,15,1017.1,-0.3,36,0,60000,7.408,,,60,,,,,,,,,,,wg-a,,,,AAXX 03124 07790 12/86 10604 10150 20000 30157 40171 58003 60006 80002 91200=
07790,1996-12-03 15:00:00,15,1016.8,-0.3,48,4,60000,7.408,,,140,,,,,,,,,,,wg-a,,,,AAXX 03154 07790 12/86 01404 10150 20040 30154 40168 56003 60006 80000 91500=
07790,1996-12-03 18:00:00,6,1017.1,0.2,75,2,500,7.408,,,250,5.8,17,,,,,,,,,wg-a,,,,AAXX 03184 07790 12/00 02504 10060 20020 30156 40171 52002 60006 80000 91800 333 10170 20058=
07790,1996-12-03 21:00:00,6,1016.9,-0.2,70,1,20000,11.112,,,230,,,,,,,,,,,wg-a,,,,AAXX 03214 07790 12/70 /2306 10060 20010 30154 40169 58002 60006 81030 92100=
07790,1996-12-04 00:00:00,6,1017.2,0.3,70,1,20000,11.112,,,240,,,,,,,,,,,wg-a,,,,AAXX 04004 07790 12/70 /2406 10060 20010 30157 40172 50003 60006 81030 90000=
07790,1996-12-04 03:00:00,6,1017.3,0.1,70,1,11000,14.816,,,250,,,,,,,,,,,wg-a,,,,AAXX 04034 07790 12/61 /2508 10060 20010 30158 40173 53001 60006 90300=
07790,1996-12-04 06:00:00,6,1017.1,-0.2,70,1,20000,14.816,,,230,5,6.6,,,,,,,,,wg-a,,,,AAXX 04064 07790 02570 /2308 10060 20010 30156 40171 55002 60006 85531 90600 333 10066 20050 60004=
07790,1996-12-04 09:00:00,9,1017.8,0.7,66,3,20000,11.112,,,220,,,,,,,,,,,wg-a,,,,AAXX 04094 07790 12570 /2206 10090 20030 30163 40178 51007 60006 86800 90900=
07790,1996-12-04 12:00:00,15,1016.4,-1.3,59,7,20000,25.928,,,150,,,,,,,,,,,wg-a,,,,AAXX 04124 07790 12570 21514 10150 20070 30150 40164 58013 60006 82840 91200=
07790,1996-12-04 15:00:00,14,1016,-0.4,67,8,20000,25.928,,,150,,,,,,,,,,,wg-a,,,,AAXX 04154 07790 12570 21514 10140 20080 30146 40160 56004 60006 82200 91500=
07790,1996-12-04 18:00:00,8,1016.7,0.6,81,5,20000,7.408,,,240,5.7,15.1,,,,,,,,,wg-a,,,,AAXX 04184 07790 12570 32404 10080 20050 30152 40167 52006 60006 83200 91800 333 10151 20057=
07790,1996-12-04 21:00:00,7,1017.4,0.7,81,4,25000,7.408,,,230,,,,,,,,,,,wg-a,,,,AAXX 04214 07790 12575 22304 10070 20040 30159 40174 51007 60006 82500 92100=
07790,1996-12-05 00:00:00,6,1017.6,0.2,81,3,25000,3.704,,,190,,,,,,,,,,,wg-a,,,,AAXX 05004 07790 12575 21902 10060 20030 30161 40176 52002 60006 82500 90000=
07790,1996-12-05 03:00:00,7,1017.1,-0.5,87,5,25000,3.704,,,200,,,,,,,,,,,wg-a,,,,AAXX 05034 07790 12575 52002 10070 20050 30156 40171 56005 60006 82502 90300=
07790,1996-12-05 06:00:00,6,1017.3,0.2,87,4,25000,7.408,,,220,5.5,8.6,,,,,,,,,wg-a,,,,AAXX 05064 07790 02575 42204 10060 20040 30158 40173 53002 60006 82502 90600 333 10086 20055 60004=
07790,1996-12-05 09:00:00,14,1017.6,0.4,72,9,25000,18.52,,,150,,,,,,,,,,,wg-a,,,,AAXX 05094 07790 12575 31510 10140 20090 30162 40176 51004 60006 82201 90900=
07790,1996-12-05 12:00:00,15,1016.5,-1.1,67,9,20000,25.928,,,150,,,,,,,,,,,wg-a,,,,AAXX 05124 07790 12570 61514 10150 20090 30151 40165 58011 60006 85801 91200=
07790,1996-12-05 15:00:00,14,1015.9,-0.6,67,8,11000,22.224,,,150,,,,,,,,,,,wg-a,,,,AAXX 05154 07790 12/61 /1512 10140 20080 30145 40159 56006 60006 91500=
07790,1996-12-05 18:00:00,13,1016.3,0.4,77,9,20000,18.52,,,160,6.1,15.1,,,,,,,,,wg-a,,,,AAXX 05184 07790 12570 /1610 10130 20090 30149 40163 53004 60006 86800 91800 333 10151 20061=
07790,1996-12-05 21:00:00,13,1016.5,0.2,82,10,11000,14.816,,,160,,,,,,,,,,,wg-a,,,,AAXX 05214 07790 12/61 /1608 10130 20100 30151 40165 51002 60006 92100=
07790,1996-12-06 00:00:00,13,1016.2,-0.3,88,11,15000,14.816,,,150,,,,,,,,,,,wg-a,,,,AAXX 06004 07790 12465 71508 10130 20110 30148 40162 58003 60006 878// 90000=
07790,1996-12-06 03:00:00,14,1016,-0.2,82,11,15000,25.928,,,140,,,,0,,,,,,60,wg-a,,,,AAXX 06034 07790 12465 71414 10140 20110 30146 40160 58002 60007 76062 878// 90300=
07790,1996-12-06 06:00:00,14,1017.1,1.1,82,11,12000,22.224,,,140,12.6,13.8,,,,,,,,3,wg-a,,,,AAXX 06064 07790 02462 71412 10140 20110 30157 40171 53011 60004 70362 875// 90600 333 10138 20126 61000=
07790,1996-12-06 09:00:00,13,1018.6,1.5,94,12,8000,18.52,,,150,,,,,,,,,,,wg-a,,,,AAXX 06094 07790 12258 81510 10130 20120 30172 40186 53015 60006 888// 90900=
07790,1996-12-06 12:00:00,14,1017.9,-0.7,88,12,4000,14.816,,,160,,,,0,,,,,,60,wg-a,,,,AAXX 06124 07790 02240 81608 10140 20120 30165 40179 58007 60016 76062 888// 91200 333 60007=
07790,1996-12-06 15:00:00,13,1018.1,0.2,100,13,4000,18.52,,,150,,,,5,,,,,,10,wg-a,,,,AAXX 06154 07790 12240 81510 10130 20130 30167 40181 53002 60057 71066 888// 91500=
07790,1996-12-06 18:00:00,13,1019,0.9,94,12,10000,11.112,,,160,12.9,14,,1,,,,,,60,wg-a,,,,AAXX 06184 07790 12460 81606 10130 20120 30176 40190 51009 60017 76066 887// 91800 333 10140 20129=
07790,1996-12-06 21:00:00,13,1019.4,0.4,94,12,20000,14.816,,,160,,,,,,,,,,1,wg-a,,,,AAXX 06214 07790 02570 61608 10130 20120 30180 40194 53004 61000 70162 84870 92100 333 ////=
07790,1996-12-07 00:00:00,12,1019.8,0.3,94,11,11000,0,,,0,,,,,,,,,,,wg-a,,,,AAXX 07004 07790 12/61 /0000 10120 20110 30183 40198 50003 60036 90000=
07790,1996-12-07 03:00:00,14,1019.9,0.2,94,13,15000,22.224,,,150,,,,3,,,,,,61,wg-a,,,,AAXX 07034 07790 12265 81512 10140 20130 30185 40199 52002 60037 76166 872// 90300=
07790,1996-12-07 06:00:00,13,1020.4,0.5,94,12,15000,14.816,,,140,12,13.9,,1,,,14,,,60,wg-a,,,,AAXX 07064 07790 02265 81408 10130 20120 30190 40204 53005 60144 76062 872// 90600 333 10139 20120 60017=
07790,1996-12-07 09:00:00,14,1022,1.6,94,13,6000,14.816,,,160,,,,1,,,,,,1,wg-a,,,,AAXX 07094 07790 12456 81608 10140 20130 30206 40220 51016 60017 70162 8727/ 90900=
07790,1996-12-07 12:00:00,15,1021.5,-0.5,88,13,500,18.52,,,150,,,,4,,,,,,21,wg-a,,,,AAXX 07124 07790 02300 81510 10150 20130 30201 40215 58005 60046 72162 882// 91200 333 60047=
07790,1996-12-07 15:00:00,14,1020.9,-0.6,94,13,500,18.52,,,140,,,,,,,,,,,wg-a,,,,AAXX 07154 07790 12300 71410 10140 20130 30195 40209 56006 60006 84202 91500=
07790,1996-12-07 18:00:00,12,1021.5,0.5,100,12,4000,7.408,,,160,12.3,14.8,,,,,,,,10,wg-a,,,,AAXX 07184 07790 32340 71604 10120 20120 30200 40215 53005 71022 84502 91800 333 10148 20123=
07790,1996-12-07 21:00:00,12,1021.8,0.3,94,11,500,7.408,,,170,,,,,,,,,,,wg-a,,,,AAXX 07214 07790 32/00 /1704 10120 20110 30203 40218 51003 92100=
07790,1996-12-08 00:00:00,11,1021.6,-0.2,100,11,2500,3.704,,,210,,,,,,,,,,10,wg-a,,,,AAXX 08004 07790 12425 72102 10110 20110 30201 40216 58002 60006 71022 84202 90000=
07790,1996-12-08 06:00:00,11,1020.5,-0.8,100,11,12000,3.704,,,160,10.5,12.3,,,,,5,,,,wg-a,,,,AAXX 08064 07790 12562 71602 10110 20110 30190 40205 56008 60054 8657/ 90600 333 10123 20105=
07790,1996-12-08 09:00:00,14,1020.9,0.5,88,12,10000,22.224,,,130,,,,,,,,,,,wg-a,,,,AAXX 08094 07790 12460 71312 10140 20120 30195 40209 53005 60006 875// 90900=
07790,1996-12-08 12:00:00,14,1019.7,-1.2,88,12,6000,18.52,,,130,,,,0,,,,,,60,wg-a,,,,AAXX 08124 07790 02456 71310 10140 20120 30183 40197 58012 60006 76062 8757/ 91200 333 60007=
07790,1996-12-08 15:00:00,12,1019.4,-0.4,100,12,500,7.408,,,190,,,,3,,,,,,61,wg-a,,,,AAXX 08154 07790 12400 81904 10120 20120 30179 40194 58004 60037 76166 8657/ 91500=
07790,1996-12-08 18:00:00,12,1019.5,0.1,94,11,8000,18.52,,,140,11.2,14.5,,3,,,,,,63,wg-a,,,,AAXX 08184 07790 12458 81410 10120 20110 30180 40195 52001 60037 76362 8657/ 91800 333 10145 20112=
07790,1996-12-08 21:00:00,13,1019.1,-0.4,88,11,7000,14.816,,,110,,,,3,,,,,,61,wg-a,,,,AAXX 08214 07790 12457 81108 10130 20110 30176 40191 58004 60037 76166 8657/ 92100=
07790,1996-12-09 00:00:00,12,1017.6,-1.5,94,11,6000,11.112,,,120,,,,7,,,,,,61,wg-a,,,,AAXX 09004 07790 02456 81206 10120 20110 30161 40176 58015 60106 76166 8657/ 90000 333 60077=
07790,1996-12-09 03:00:00,12,1015.5,-2.1,88,10,6000,35.188,,57.412,110,,,,9,,,,,,63,wg-a,,,,AAXX 09034 07790 12456 81119 10120 20100 30140 40155 56021 60097 76366 8657/ 90300 333 91031=
07790,1996-12-09 06:00:00,12,1014.3,-1.1,94,11,6000,31.484,,48.152,100,10.8,13.1,,10,,,35,,,61,wg-a,,,,AAXX 09064 07790 02456 81017 10120 20110 30129 40143 55011 60354 76166 8657/ 90600 333 10131 20108 60107 91026=
07790,1996-12-09 09:00:00,14,1015.1,0.8,82,11,9000,38.892,,,120,,,,1,,,,,,,wg-a,,,,AAXX 09094 07790 12/59 /1221 10140 20110 30137 40151 53008 60017 90900=
07790,1996-12-09 12:00:00,14,1014.5,-0.6,94,13,8000,18.52,,,130,,,,0,,,,,,,wg-a,,,,AAXX 09124 07790 02/58 /1310 10140 20130 30131 40145 58006 60016 91200 333 60007=
07790,1996-12-09 15:00:00,14,1014.1,-0.4,88,12,9000,18.52,,53.708,110,,,,1,,,,,,60,wg-a,,,,AAXX 09154 07790 12459 81110 10140 20120 30127 40141 56004 60017 76062 879// 91500 333 91029=
07790,1996-12-09 18:00:00,13,1013.6,-0.5,88,11,6000,11.112,,53.708,110,12.1,14.6,,0,,,,,,60,wg-a,,,,AAXX 09184 07790 12456 81106 10130 20110 30122 40136 55005 60007 76062 889// 91800 333 10146 20121 91029=
07790,1996-12-09 21:00:00,13,1011.5,-2.1,88,11,12000,18.52,,,90,,,,0,,,,,,1,wg-a,,,,AAXX 09214 07790 12462 80910 10130 20110 30101 40115 58021 60007 70162 888// 92100=
07790,1996-12-10 00:00:00,11,1009.8,-1.7,100,11,500,3.704,,,330,,,,12,,,,,,61,wg-a,,,,AAXX 10004 07790 02400 83302 10110 20110 30084 40098 58017 60126 76186 889// 90000 333 60127=
07790,1996-12-10 03:00:00,11,1007.8,-2,100,11,500,3.704,,,220,,,,7,,,,,,61,wg-a,,,,AAXX 10034 07790 12300 82202 10110 20110 30064 40078 56020 60077 76166 888// 90300=
07790,1996-12-10 06:00:00,11,1008.1,0.3,94,10,10000,3.704,,,350,10.4,13.2,,3,,,25,,,1,wg-a,,,,AAXX 10064 07790 02360 83502 10110 20100 30067 40081 53003 60254 70162 8/87/ 90600 333 10132 20104 60037=
07790,1996-12-10 09:00:00,11,1010.4,2.3,100,11,10000,11.112,,,170,,,,,,,,,,,wg-a,,,,AAXX 10094 07790 12460 71706 10110 20110 30090 40104 53023 60006 85870 90900=
07790,1996-12-10 12:00:00,14,1010.2,-0.2,82,11,15000,7.408,,,180,,,,,,,,,,,wg-a,,,,AAXX 10124 07790 12465 61804 10140 20110 30088 40102 58002 60006 85271 91200=
07790,1996-12-10 15:00:00,13,1010.1,-0.1,82,10,25000,3.704,,,170,,,,,,,,,,,wg-a,,,,AAXX 10154 07790 12475 31702 10130 20100 30087 40101 55001 60006 82231 91500=
07790,1996-12-10 18:00:00,10,1011.3,1.1,93,9,11000,0,,,0,9.5,15.1,,,,,,,,,wg-a,,,,AAXX 10184 07790 12/61 /0000 10100 20090 30098 40113 51011 60006 91800 333 10151 20095=
07790,1996-12-10 21:00:00,8,1012.5,1.2,93,7,15000,7.408,,,230,,,,,,,,,,,wg-a,,,,AAXX 10214 07790 12565 32304 10080 20070 30110 40125 53012 60006 83800 92100=
07790,1996-12-11 00:00:00,7,1012.8,0.3,93,6,15000,3.704,,,280,,,,0,,,,,,,wg-a,,,,AAXX 11004 07790 02565 /2802 10070 20060 30113 40128 51003 60006 86800 90000 333 60007=
07790,1996-12-11 03:00:00,8,1012.1,-0.7,93,7,15000,3.704,,,240,,,,,,,,,,,wg-a,,,,AAXX 11034 07790 12565 52402 10080 20070 30106 40121 58007 60006 85800 90300=
07790,1996-12-11 06:00:00,13,1011.6,-0.4,94,12,12000,25.928,,,110,6,13.1,,1,,,2,,,60,wg-a,,,,AAXX 11064 07790 02462 81114 10130 20120 30102 40116 55004 60024 76062 878// 90600 333 10131 20060 60017=
07790,1996-12-11 09:00:00,11,1013.4,1.7,94,10,7000,7.408,,,30,,,,15,,,,,,61,wg-a,,,,AAXX 11094 07790 12357 80304 10110 20100 30119 40134 51017 60157 76166 8797/ 90900=
07790,1996-12-11 12:00:00,15,1012.2,-1.1,82,12,10000,22.224,,,120,,,,,,,,,,1,wg-a,,,,AAXX 11124 07790 02560 /1212 10150 20120 30108 40122 57011 60156 70162 8697/ 91200 333 61000=
07790,1996-12-11 15:00:00,14,1013.1,0.9,77,10,12000,7.408,,,120,,,,,,,,,,,wg-a,,,,AAXX 11154 07790 12562 71204 10140 20100 30117 40131 53009 60006 83972 91500=
07790,1996-12-11 18:00:00,11,1013.9,0.7,94,10,12000,7.408,,,270,10.9,14.8,,1,,,,,,1,wg-a,,,,AAXX 11184 07790 12462 /2704 10110 20100 30124 40139 53007 60017 70162 84570 91800 333 10148 20109=
07790,1996-12-11 21:00:00,10,1015,1.1,100,10,10000,3.704,,,250,,,,1,,,,,,21,wg-a,,,,AAXX 11214 07790 12460 82502 10100 20100 30135 40150 51011 60017 72162 889// 92100=
07790,1996-12-12 00:00:00,10,1015.3,0.3,93,9,11000,7.408,,,250,,,,,,,,,,,wg-a,,,,AAXX 12004 07790 12/61 /2504 10100 20090 30138 40153 50003 60016 90000=
07790,1996-12-12 03:00:00,9,1015.7,0.4,93,8,15000,11.112,,,240,,,,,,,,,,,wg-a,,,,AAXX 12034 07790 12465 32406 10090 20080 30142 40157 52004 60006 83500 90300=
07790,1996-12-12 06:00:00,7,1016.1,0.4,93,6,15000,11.112,,,240,7.1,11.2,,,,,17,,,,wg-a,,,,AAXX 12064 07790 12565 /2406 10070 20060 30146 40161 53004 60174 81530 90600 333 10112 20071=
07790,1996-12-12 09:00:00,11,1016.8,0.7,87,9,15000,11.112,,,220,,,,,,,,,,,wg-a,,,,AAXX 12094 07790 12565 /2206 10110 20090 30153 40168 53007 60006 81504 90900=
07790,1996-12-12 12:00:00,13,1016.1,-0.6,77,9,17000,7.408,,,220,,,,0,,,,,,,wg-a,,,,AAXX 12124 07790 02567 /2204 10130 20090 30147 40161 58006 60006 81534 91200 333 60007=
07790,1996-12-12 15:00:00,13,1015.8,-0.3,82,10,11000,3.704,,,180,,,,,,,,,,,wg-a,,,,AAXX 12154 07790 12/61 /1802 10130 20100 30144 40158 56003 60006 91500=
07790,1996-12-12 18:00:00,11,1015.9,0,94,10,20000,3.704,,,230,7,13.6,,,,,,,,60,wg-a,,,,AAXX 12184 07790 02570 72302 10110 20100 30144 40159 50000 61000 76062 8657/ 91800 333 10136 20070 ////=
07790,1996-12-12 21:00:00,10,1016,0.1,100,10,20000,3.704,,,240,,,,,,,,,,2,wg-a,,,,AAXX 12214 07790 02570 82402 10100 20100 30145 40160 50001 61000 70262 8657/ 92100 333 ////=
07790,1996-12-13 00:00:00,9,1014.7,-1.3,93,8,20000,7.408,,,270,,,,0,,,,,,1,wg-a,,,,AAXX 13004 07790 02570 /2704 10090 20080 30132 40147 58013 60006 70162 85501 90000 333 60007=
07790,1996-12-13 03:00:00,7,1013.5,-1.2,100,7,11000,7.408,,,240,,,,,,,,,,,wg-a,,,,AAXX 13034 07790 12/61 /2404 10070 20070 30120 40135 57012 60006 90300=
07790,1996-12-13 06:00:00,8,1011.3,-2.2,93,7,20000,7.408,,,230,6.9,10.9,,,,,,,,,wg-a,,,,AAXX 13064 07790 02570 72304 10080 20070 30098 40113 56022 60006 8753/ 90600 333 10109 20069 60004=
07790,1996-12-13 09:00:00,10,1009.9,-1.4,93,9,10000,7.408,,,220,,,,,,,,,,,wg-a,,,,AAXX 13094 07790 12560 72204 10100 20090 30084 40099 56014 60006 8557/ 90900=
07790,1996-12-13 12:00:00,12,1005.8,-4,94,11,12000,7.408,,,340,,,,,,,,,,,wg-a,,,,AAXX 13124 07790 12462 73404 10120 20110 30044 40058 58040 60006 8657/ 91200=
07790,1996-12-13 15:00:00,13,1002.9,-2.9,88,11,10000,3.704,,,140,,,,,,,,,,2,wg-a,,,,AAXX 13154 07790 02460 71402 10130 20110 30015 40029 56029 61000 70262 865// 91500 333 ////=
07790,1996-12-13 18:00:00,13,1001.3,-1.6,88,11,12000,3.704,,,130,7.6,12.8,,,,,,,,21,wg-a,,,,AAXX 13184 07790 02762 71302 10130 20110 39999 40013 56016 61000 72162 875// 91800 333 10128 20076 ////=
07790,1996-12-13 21:00:00,13,1001.3,-0,94,12,20000,7.408,,,340,,,,0,,,,,,21,wg-a,,,,AAXX 13214 07790 12670 73404 10130 20120 39999 40013 54000 60007 72162 875// 92100=
07790,1996-12-14 00:00:00,13,999.9,-1.4,94,12,20000,11.112,,,220,,,,2,,,,,,60,wg-a,,,,AAXX 14004 07790 02570 72206 10130 20120 39985 49999 56014 60026 76062 878// 90000 333 60027=
07790,1996-12-14 03:00:00,12,998.1,-1.8,88,10,20000,3.704,,,170,,,,1,,,,,,1,wg-a,,,,AAXX 14034 07790 12/70 31702 10120 20100 39967 49981 56018 60017 70161 8303/ 90300=
07790,1996-12-14 06:00:00,11,997.8,-0.3,94,10,20000,7.408,,,140,11,14.5,,,,,3,,,3,wg-a,,,,AAXX 14064 07790 12570 31404 10110 20100 39964 49978 55003 60034 70361 83830 90600 333 10145 20110=
07790,1996-12-14 09:00:00,12,999.1,1.3,88,10,25000,7.408,,,260,,,,,,,,,,,wg-a,,,,AAXX 14094 07790 12475 62604 10120 20100 39977 49991 53013 60006 82852 90900=
07790,1996-12-14 12:00:00,17,999.3,0.2,77,13,25000,7.408,,,90,,,,,,,,,,,wg-a,,,,AAXX 14124 07790 12575 70904 10170 20130 39979 49993 50002 60006 82282 91200=
07790,1996-12-14 15:00:00,15,1000.2,0.9,88,13,11000,7.408,,,140,,,,,,,,,,,wg-a,,,,AAXX 14154 07790 12/61 /1404 10150 20130 39988 40002 53009 60006 91500=
07790,1996-12-14 18:00:00,13,1001.5,1.3,94,12,10000,3.704,,,320,10,17.4,,,,,,,,,wg-a,,,,AAXX 14184 07790 12360 83202 10130 20120 30001 40015 53013 60006 889// 91800 333 10174 20100=
07790,1996-12-14 21:00:00,12,1003,1.5,100,12,12000,3.704,,,290,,,,,,,,,,,wg-a,,,,AAXX 14214 07790 12462 82902 10120 20120 30016 40030 51015 60006 8597/ 92100=
07790,1996-12-15 00:00:00,11,1004.1,1.1,94,10,4000,3.704,,,290,,,,,,,,,,12,wg-a,,,,AAXX 15004 07790 12540 82902 10110 20100 30027 40041 51011 60006 71222 875// 90000=
07790,1996-12-15 03:00:00,10,1005.4,1.3,93,9,8000,3.704,,,270,,,,,,,,,,,wg-a,,,,AAXX 15034 07790 12458 82702 10100 20090 30040 40054 51013 60006 875// 90300=
07790,1996-12-15 06:00:00,11,1007,1.6,87,9,12000,14.816,,,240,10.1,13,,,,,,,,,wg-a,,,,AAXX 15064 07790 02662 /2408 10110 20090 30056 40070 53016 60006 83530 90600 333 10130 20101 60004=
07790,1996-12-15 09:00:00,14,1009.9,2.9,88,12,15000,7.408,,,230,,,,,,,,,,,wg-a,,,,AAXX 15094 07790 12465 32304 10140 20120 30085 40099 53029 60006 82530 90900=
07790,1996-12-15 12:00:00,16,1010.6,0.7,77,12,15000,14.816,,,30,,,,,,,,,,,wg-a,,,,AAXX 15124 07790 12465 50308 10160 20120 30092 40106 51007 60006 85800 91200=
07790,1996-12-15 15:00:00,14,1011.2,0.6,88,12,15000,11.112,,,30,,,,,,,,,,,wg-a,,,,AAXX 15154 07790 12465 30306 10140 20120 30098 40112 53006 60006 83800 91500=
07790,1996-12-15 18:00:00,11,1013.2,1.9,94,10,20000,7.408,,,200,9.7,15.8,,,,,,,,,wg-a,,,,AAXX 15184 07790 12470 42004 10110 20100 30117 40132 53019 60006 84800 91800 333 10158 20097=
07790,1996-12-15 21:00:00,10,1014.8,1.6,93,9,20000,3.704,,,240,,,,,,,,,,,wg-a,,,,AAXX 15214 07790 12570 32402 10100 20090 30133 40148 51016 60006 83500 92100=
07790,1996-12-16 00:00:00,9,1015.8,1,93,8,20000,7.408,,,250,,,,0,,,,,,,wg-a,,,,AAXX 16004 07790 02570 22504 10090 20080 30143 40158 51010 60006 82500 90000 333 60007=
07790,1996-12-16 03:00:00,8,1016.3,0.5,93,7,15000,11.112,,,240,,,,,,,,,,,wg-a,,,,AAXX 16034 07790 12565 22406 10080 20070 30148 40163 51005 60006 82500 90300=
07790,1996-12-16 06:00:00,8,1016.8,0.5,87,6,11000,11.112,,,230,7.6,11.5,,,,,,,,,wg-a,,,,AAXX 16064 07790 12/61 /2306 10080 20060 30153 40168 53005 60004 90600 333 10115 20076=
07790,1996-12-16 09:00:00,10,1018.6,1.8,87,8,25000,11.112,,,230,,,,0,,,,,,,wg-a,,,,AAXX 16094 07790 12575 72306 10100 20080 30171 40186 53018 60007 87500 90900=
07790,1996-12-16 12:00:00,16,1018,-0.5,72,11,25000,7.408,,,150,,,,,,,,,,,wg-a,,,,AAXX 16124 07790 12475 31504 10160 20110 30166 40180 58005 60006 83800 91200=
07790,1996-12-16 15:00:00,14,1018.2,0.2,82,11,25000,3.704,,,140,,,,,,,,,,,wg-a,,,,AAXX 16154 07790 12475 51402 10140 20110 30168 40182 53002 60006 85400 91500=
07790,1996-12-16 18:00:00,11,1019.3,1,94,10,15000,3.704,,,250,7.3,16.7,,,,,,,,,wg-a,,,,AAXX 16184 07790 32565 72502 10110 20100 30178 40193 53010 875// 91800 333 10167 20073=
07790,1996-12-16 21:00:00,11,1020,0.7,94,10,11000,3.704,,,270,,,,,,,,,,,wg-a,,,,AAXX 16214 07790 12/61 /2702 10110 20100 30185 40200 53007 60006 92100=
07790,1996-12-17 00:00:00,10,1019.5,-0.5,93,9,20000,7.408,,,280,,,,,,,,,,,wg-a,,,,AAXX 17004 07790 12570 52804 10100 20090 30180 40195 58005 60006 85500 90000=
07790,1996-12-17 03:00:00,8,1019.1,-0.4,93,7,20000,7.408,,,250,,,,,,,,,,,wg-a,,,,AAXX 17034 07790 12570 32504 10080 20070 30176 40191 58004 60006 83500 90300=
07790,1996-12-17 06:00:00,7,1018.7,-0.4,93,6,20000,7.408,,,230,7.2,11.2,,,,,,,,,wg-a,,,,AAXX 17064 07790 02470 /2304 10070 20060 30172 40187 56004 60006 81200 90600 333 10112 20072 60004=
07790,1996-12-17 09:00:00,9,1019.7,1,93,8,15000,7.408,,,220,,,,,,,,,,,wg-a,,,,AAXX 17094 07790 12465 /2204 10090 20080 30182 40197 53010 60006 86800 90900=
07790,1996-12-17 12:00:00,14,1018.4,-1.2,72,9,15000,7.408,,,210,,,,,,,,,,,wg-a,,,,AAXX 17124 07790 12465 72104 10140 20090 30170 40184 58012 60006 8583/ 91200=
07790,1996-12-17 15:00:00,14,1017.8,-0.6,82,11,20000,3.704,,,160,,,,,,,,,,,wg-a,,,,AAXX 17154 07790 12570 /1602 10140 20110 30164 40178 56006 60006 84800 91500=
07790,1996-12-17 18:00:00,9,1018.2,0.3,93,8,20000,7.408,,,200,7.2,16.5,,,,,,,,,wg-a,,,,AAXX 17184 07790 12870 22004 10090 20080 30167 40182 53003 60006 82040 91800 333 10165 20072=
07790,1996-12-17 21:00:00,7,1018.3,0.1,93,6,20000,11.112,,,250,,,,0,,,,,,,wg-a,,,,AAXX 17214 07790 12/70 02506 10070 20060 30168 40183 50001 60007 80000 92100=
07790,1996-12-18 00:00:00,9,1017.7,-0.6,87,7,20000,14.816,,,230,,,,,,,,,,,wg-a,,,,AAXX 18004 07790 12/70 02308 10090 20070 30162 40177 58006 60006 80000 90000=
07790,1996-12-18 03:00:00,7,1016.9,-0.8,93,6,20000,11.112,,,240,,,,,,,,,,,wg-a,,,,AAXX 18034 07790 12870 /2406 10070 20060 30154 40169 56008 60006 81030 90300=
07790,1996-12-18 06:00:00,7,1016.4,-0.5,87,5,11000,14.816,,,240,5.8,8.7,,,,,1,,,,wg-a,,,,AAXX 18064 07790 02/61 /2408 10070 20050 30149 40164 55005 60006 90600 333 10087 20058 60014=
07790,1996-12-18 09:00:00,11,1016.4,0,76,7,25000,11.112,,,220,,,,,,,,,,,wg-a,,,,AAXX 18094 07790 12575 /2206 10110 20070 30149 40164 50000 60006 81231 90900=
07790,1996-12-18 12:00:00,17,1014.9,-1.4,63,10,25000,7.408,,,140,,,,,,,,,,,wg-a,,,,AAXX 18124 07790 12575 /1404 10170 20100 30135 40149 58014 60006 81201 91200=
07790,1996-12-18 15:00:00,14,1014,-0.9,72,9,25000,7.408,,,150,,,,,,,,,,,wg-a,,,,AAXX 18154 07790 12575 21504 10140 20090 30126 40140 56009 60006 81431 91500=
07790,1996-12-18 18:00:00,8,1014.3,0.2,93,7,25000,7.408,,,260,6.9,16.7,,,,,,,,,wg-a,,,,AAXX 18184 07790 12575 22604 10080 20070 30128 40143 53002 60006 81431 91800 333 10167 20069=
07790,1996-12-18 21:00:00,6,1014,-0.3,93,5,25000,3.704,,,260,,,,,,,,,,,wg-a,,,,AAXX 18214 07790 12575 /2602 10060 20050 30125 40140 58003 60006 81500 92100=
07790,1996-12-19 00:00:00,7,1013.6,-0.4,93,6,25000,3.704,,,220,,,,,,,,,,,wg-a,,,,AAXX 19004 07790 12575 22202 10070 20060 30121 40136 58004 60006 82500 90000=
07790,1996-12-19 03:00:00,6,1012,-1.6,100,6,25000,7.408,,,240,,,,0,,,,,,,wg-a,,,,AAXX 19034 07790 12475 42404 10060 20060 30105 40120 58016 60007 84600 90300=
07790,1996-12-19 06:00:00,7,1010.8,-1.2,93,6,20000,3.704,,,240,5.9,8.1,,,,,,,,,wg-a,,,,AAXX 19064 07790 02570 52402 10070 20060 30093 40108 58012 60006 82834 90600 333 10081 20059 60004=
07790,1996-12-19 09:00:00,10,1010.7,-0.1,93,9,25000,3.704,,,230,,,,,,,,,,,wg-a,,,,AAXX 19094 07790 12575 72302 10100 20090 30092 40107 57001 60006 83831 90900=
07790,1996-12-19 12:00:00,14,1008,-2.6,82,11,20000,25.928,,,160,,,,,,,,,,60,wg-a,,,,AAXX 19124 07790 02570 81614 10140 20110 30066 40080 58026 61000 76062 84876 91200 333 6100=
07790,1996-12-19 15:00:00,14,1006.4,-1.6,82,11,20000,29.632,,50.004,150,,,,0,,,,,,1,wg-a,,,,AAXX 19154 07790 12570 81516 10140 20110 30050 40064 56016 60007 70162 8487/ 91500 333 91027=
07790,1996-12-19 18:00:00,13,1005.9,-0.5,94,12,17000,14.816,,,150,6.4,14.5,,,,,,,,21,wg-a,,,,AAXX 19184 07790 02467 71508 10130 20120 30045 40059 58005 61000 72162 8587/ 91800 333 10145 20064 6001=
07790,1996-12-19 21:00:00,13,1004,-1.9,94,12,3000,7.408,,,170,,,,1,,,,,,50,wg-a,,,,AAXX 19214 07790 12230 81704 10130 20120 30026 40040 58019 60017 75065 888// 92100=
07790,1996-12-20 00:00:00,12,1002.1,-1.9,100,12,6000,7.408,,,210,,,,0,,,,,,50,wg-a,,,,AAXX 20004 07790 02256 82104 10120 20120 30007 40021 57019 60016 75065 888// 90000 333 60007=
07790,1996-12-20 03:00:00,12,1001.2,-0.9,100,12,12000,11.112,,,210,,,,,,,,,,20,wg-a,,,,AAXX 20034 07790 02362 82106 10120 20120 39998 40012 56009 61000 72052 8487/ 90300 333 ////=
07790,1996-12-20 06:00:00,11,1001,-0.2,94,10,12000,7.408,,,230,10.7,13,,,,,2,,,1,wg-a,,,,AAXX 20064 07790 02562 82304 10110 20100 39996 40010 55002 60006 70152 8327/ 90600 333 10130 20107 60024=
07790,1996-12-20 09:00:00,12,1002.8,1.8,94,11,11000,3.704,,,250,,,,,,,,,,,wg-a,,,,AAXX 20094 07790 12/61 /2502 10120 20110 30014 40028 53018 60006 90900=
07790,1996-12-20 12:00:00,14,1002.8,0,88,12,12000,7.408,,,40,,,,,,,,,,,wg-a,,,,AAXX 20124 07790 12462 50404 10140 20120 30014 40028 50000 60006 84541 91200=
07790,1996-12-20 15:00:00,14,1003.8,1,88,12,12000,7.408,,,150,,,,,,,,,,,wg-a,,,,AAXX 20154 07790 12462 51504 10140 20120 30024 40038 53010 60006 84541 91500=
07790,1996-12-20 18:00:00,11,1005.3,1.5,94,10,12000,7.408,,,210,10,15.5,,0,,,,,,,wg-a,,,,AAXX 20184 07790 02462 42104 10110 20100 30039 40053 53015 60006 83541 91800 333 10155 20100 60007=
07790,1996-12-20 21:00:00,9,1006.4,1,93,8,12000,7.408,,,240,,,,,,,,,,,wg-a,,,,AAXX 20214 07790 12562 /2404 10090 20080 30049 40064 51010 60006 82540 92100=
07790,1996-12-21 00:00:00,9,1007.1,0.7,93,8,0,7.408,,,270,,,,,,,,,,,wg-a,,,,AAXX 21004 07790 12/// /2704 10090 20080 30056 40071 50007 60006 90000=
07790,1996-12-21 03:00:00,8,1007.7,0.6,93,7,12000,11.112,,,240,,,,,,,,,,,wg-a,,,,AAXX 21034 07790 12462 22406 10080 20070 30062 40077 52006 60006 82100 90300=
07790,1996-12-21 06:00:00,7,1008.6,0.9,93,6,12000,11.112,,,240,7.4,10.7,,,,,,,,,wg-a,,,,AAXX 21064 07790 02462 /2406 10070 20060 30071 40086 53009 60006 81100 90600 333 10107 20074 60004=
07790,1996-12-21 09:00:00,13,1010.5,2,77,9,20000,7.408,,,230,,,,0,,,,,,,wg-a,,,,AAXX 21094 07790 12570 42304 10130 20090 30091 40105 53020 60007 81541 90900=
07790,1996-12-21 12:00:00,15,1010.3,-0.2,88,13,20000,3.704,,,90,,,,,,,,,,,wg-a,,,,AAXX 21124 07790 12470 60902 10150 20130 30089 40103 58002 60006 83841 91200=
07790,1996-12-21 15:00:00,15,1010,-0.3,82,12,8000,0,,,0,,,,,,,,,,,wg-a,,,,AAXX 21154 07790 12458 /0000 10150 20120 30086 40100 56003 60006 82542 91500=
07790,1996-12-21 18:00:00,11,1010.4,0.4,100,11,12000,0,,,0,7.4,16.6,,,,,,,,,wg-a,,,,AAXX 21184 07790 12462 /0000 10110 20110 30090 40104 50004 60006 81642 91800 333 10166 20074=
07790,1996-12-21 21:00:00,10,1011,0.5,93,9,11000,0,,,0,,,,,,,,,,,wg-a,,,,AAXX 21214 07790 12361 /0000 10100 20090 30095 40110 50005 60006 84542 92100=
07790,1996-12-22 00:00:00,10,1011.2,0.2,93,9,11000,7.408,,,240,,,,,,,,,,,wg-a,,,,AAXX 22004 07790 12461 72404 10100 20090 30097 40112 50002 60006 878// 90000=
07790,1996-12-22 03:00:00,10,1011.1,-0.1,93,9,11000,7.408,,,250,,,,,,,,,,,wg-a,,,,AAXX 22034 07790 12461 72504 10100 20090 30096 40111 57001 60006 875// 90300=
07790,1996-12-22 06:00:00,11,1011.3,0.2,87,9,11000,11.112,,,220,9.2,11.4,,,,,,,,,wg-a,,,,AAXX 22064 07790 02461 72206 10110 20090 30098 40113 53002 60006 875// 90600 333 10114 20092 60004=
07790,1996-12-22 09:00:00,12,1012.4,1.2,88,10,10000,7.408,,,220,,,,,,,,,,,wg-a,,,,AAXX 22094 07790 12560 82204 10120 20100 30110 40124 53012 60006 8557/ 90900=
07790,1996-12-22 12:00:00,15,1011.5,-0.9,88,13,10000,7.408,,,130,,,,,,,,,,,wg-a,,,,AAXX 22124 07790 12460 /1304 10150 20130 30101 40115 58009 60006 8657/ 91200=
07790,1996-12-22 15:00:00,16,1010.5,-1,82,13,11000,7.408,,,110,,,,,,,,,,,wg-a,,,,AAXX 22154 07790 12/61 /1104 10160 20130 30091 40105 56010 60006 91500=
07790,1996-12-22 18:00:00,13,1010.2,-0.3,94,12,8000,0,,,0,10.5,15.8,,,,,,,,,wg-a,,,,AAXX 22184 07790 12458 70000 10130 20120 30088 40102 56003 60006 8557/ 91800 333 10158 20105=
07790,1996-12-22 21:00:00,10,1009.8,-0.5,93,9,8000,11.112,,,200,,,,,,,,,,,wg-a,,,,AAXX 22214 07790 12/58 02006 10100 20090 30083 40098 58005 60006 80000 92100=
07790,1996-12-23 00:00:00,9,1008.3,-1.5,93,8,6000,11.112,,,240,,,,,,,,,,,wg-a,,,,AAXX 23004 07790 12/56 /2406 10090 20080 30068 40083 58015 60006 90000=
07790,1996-12-23 03:00:00,10,1006.2,-2,93,9,6000,11.112,,,210,,,,0,,,,,,,wg-a,,,,AAXX 23034 07790 12456 /2106 10100 20090 30048 40062 55020 60007 86500 90300=
07790,1996-12-23 06:00:00,10,1003.1,-3.1,93,9,7000,3.704,,,300,8.7,12.7,,,,,1,,,,wg-a,,,,AAXX 23064 07790 02/57 /3002 10100 20090 30017 40031 58031 60006 90600 333 10127 20087 60014=
07790,1996-12-23 09:00:00,11,1002.5,-0.6,100,11,8000,3.704,,,50,,,,,,,,,,3,wg-a,,,,AAXX 23094 07790 02258 40502 10110 20110 30011 40025 56006 61000 70361 84600 90900 333 ////=
07790,1996-12-23 12:00:00,17,1000,-2.5,77,13,10000,7.408,,,90,,,,,,,,,,1,wg-a,,,,AAXX 23124 07790 02460 30904 10170 20130 39986 40000 58025 61000 70161 82502 91200 333 ////=
07790,1996-12-23 15:00:00,14,1000,-0,88,12,15000,11.112,,,360,,,,,,,,,,,wg-a,,,,AAXX 23154 07790 12365 /3606 10140 20120 39986 40000 55000 60006 82642 91500=
07790,1996-12-23 18:00:00,11,1000.5,0.5,94,10,9000,3.704,,,220,8.9,17.3,,,,,,,,,wg-a,,,,AAXX 23184 07790 12559 42202 10110 20100 39991 40005 53005 60006 82542 91800 333 10173 20089=
07790,1996-12-23 21:00:00,11,1000.6,0.1,94,10,10000,7.408,,,240,,,,,,,,,,,wg-a,,,,AAXX 23214 07790 12460 62404 10110 20100 39992 40006 53001 60006 86500 92100=
07790,1996-12-24 00:00:00,10,999.7,-0.9,93,9,11000,7.408,,,230,,,,,,,,,,,wg-a,,,,AAXX 24004 07790 12/61 /2304 10100 20090 39983 49997 58009 60006 90000=
07790,1996-12-24 03:00:00,10,998.6,-1.1,93,9,10000,11.112,,,230,,,,,,,,,,,wg-a,,,,AAXX 24034 07790 12560 /2306 10100 20090 39972 49986 57011 60006 86530 90300=
07790,1996-12-24 06:00:00,10,997.9,-0.7,93,9,10000,3.704,,,230,9.2,11.4,,,,,,,,21,wg-a,,,,AAXX 24064 07790 02260 72302 10100 20090 39965 49979 57007 61000 72161 875// 90600 333 10114 20092 6100=
07790,1996-12-24 09:00:00,11,998.6,0.7,100,11,10000,3.704,,,260,,,,0,,,,,,21,wg-a,,,,AAXX 24094 07790 12460 72602 10110 20110 39972 49986 51007 60007 72162 8353/ 90900=
07790,1996-12-24 12:00:00,13,999.6,1,88,11,6000,11.112,,,250,,,,1,,,,,,62,wg-a,,,,AAXX 24124 07790 02556 72506 10130 20110 39982 49996 51010 60016 76262 8393/ 91200 333 60017=
07790,1996-12-24 15:00:00,14,998.8,-0.8,82,11,35000,0,,,0,,,,2,,,,,,1,wg-a,,,,AAXX 24154 07790 12581 40000 10140 20110 39974 49988 55008 60027 70161 82233 91500=
07790,1996-12-24 18:00:00,10,999.3,0.5,93,9,12000,3.704,,,340,9.5,15,,,,,,,,3,wg-a,,,,AAXX 24184 07790 12562 /3402 10100 20090 39979 49993 51005 60006 70361 83833 91800 333 10150 20095=
07790,1996-12-24 21:00:00,11,998.4,-0.9,94,10,11000,7.408,,,210,,,,,,,,,,,wg-a,,,,AAXX 24214 07790 32/61 /2104 10110 20100 39970 49984 58009 92100=
07790,1996-12-25 00:00:00,9,997.5,-0.9,93,8,12000,3.704,,,230,,,,3,,,,,,21,wg-a,,,,AAXX 25004 07790 02462 72302 10090 20080 39961 49975 58009 60036 72162 81232 90000 333 60037=
07790,1996-12-25 03:00:00,8,996.6,-0.9,93,7,12000,7.408,,,210,,,,,,,,,,,wg-a,,,,AAXX 25034 07790 12462 /2104 10080 20070 39952 49966 58009 60006 81232 90300=
07790,1996-12-25 06:00:00,7,996.7,-0,93,6,12000,11.112,,,250,6.8,11,,,,,7,,,,wg-a,,,,AAXX 25064 07790 02562 32506 10070 20060 39952 49967 55000 60006 81132 90600 333 10110 20068 60074=
07790,1996-12-25 09:00:00,11,997.9,1.3,76,7,25000,11.112,,,320,,,,,,,,,,,wg-a,,,,AAXX 25094 07790 12475 43206 10110 20070 39965 49979 53013 60006 83832 90900=
07790,1996-12-25 12:00:00,14,997.2,-0.7,67,8,500,22.224,,,10,,,,,,,,,,,wg-a,,,,AAXX 25124 07790 12500 40112 10140 20080 39958 49972 58007 60006 82843 91200=
07790,1996-12-25 15:00:00,12,998.8,1.6,71,7,9000,18.52,,40.744,310,,,,,,,,,,15,wg-a,,,,AAXX 25154 07790 12459 73110 10120 20070 39974 49988 53016 60006 71511 879// 91500 333 91022=
07790,1996-12-25 18:00:00,11,1000.4,1.6,87,9,9000,11.112,,,30,6.2,14.9,,,,,,,,61,wg-a,,,,AAXX 25184 07790 02359 70306 10110 20090 39990 40004 51016 61000 76161 879// 91800 333 10149 20062 6000=
07790,1996-12-25 21:00:00,10,1002.1,1.7,87,8,12000,14.816,,,270,,,,3,,,,,,21,wg-a,,,,AAXX 25214 07790 12462 /2708 10100 20080 30007 40021 51017 60037 72162 84870 92100=
07790,1996-12-26 00:00:00,9,1005,2.8,93,8,12000,14.816,,,340,,,,2,,,,,,3,wg-a,,,,AAXX 26004 07790 02462 73408 10090 20080 30035 40050 51028 60056 70362 878// 90000 333 60027=
07790,1996-12-26 03:00:00,9,1008.1,3.1,66,3,12000,25.928,,,30,,,,,,,,,,60,wg-a,,,,AAXX 26034 07790 02462 70314 10090 20030 30066 40081 51031 61000 76062 878// 90300 333 ////=
07790,1996-12-26 06:00:00,8,1010.9,2.8,61,1,12000,25.928,,,30,7.5,10.6,,,,,5,,,,wg-a,,,,AAXX 26064 07790 02562 /0314 10080 20010 30094 40109 51028 60006 83840 90600 333 10106 20075 60054=
07790,1996-12-26 09:00:00,7,1014.8,3.9,49,-3,12000,31.484,,57.412,40,,,,,,,,,,,wg-a,,,,AAXX 26094 07790 12562 /0417 10070 21030 30133 40148 52039 60006 81830 90900 333 91031=
07790,1996-12-26 12:00:00,7,1017.8,3,36,-7,25000,46.3,,55.56,30,,,,,,,,,,,wg-a,,,,AAXX 26124 07790 12675 /0325 10070 21070 30163 40178 51030 60006 81834 91200 333 91030=
07790,1996-12-26 15:00:00,6,1019.5,1.7,36,-8,500,46.3,,75.932,40,,,,,,,,,,,wg-a,,,,AAXX 26154 07790 12/00 /0425 10060 21080 30180 40195 53017 60006 81030 91500 333 91041=
07790,1996-12-26 18:00:00,5,1021.9,2.4,38,-8,25000,42.596,,75.932,40,4.5,7.7,,,,,,,,,wg-a,,,,AAXX 26184 07790 12575 /0423 10050 21080 30204 40219 51024 60006 81530 91800 333 10077 20045 91041=
07790,1996-12-26 21:00:00,3,1023.6,1.7,35,-11,500,42.596,,75.932,40,,,,,,,,,,,wg-a,,,,AAXX 26214 07790 12/00 00423 10030 21110 30221 40236 53017 60006 80000 92100 333 91041=
07790,1996-12-27 00:00:00,2,1025.5,1.9,37,-11,20000,38.892,,75.932,20,,,,,,,,,,,wg-a,,,,AAXX 27004 07790 12570 /0221 10020 21110 30240 40255 51019 60006 81500 90000 333 91041=
07790,1996-12-27 03:00:00,1,1026.3,0.8,40,-11,20000,42.596,,75.932,40,,,,,,,,,,,wg-a,,,,AAXX 27034 07790 12570 /0423 10010 21110 30248 40263 53008 60006 81500 90300 333 91041=
07790,1996-12-27 06:00:00,1,1026.3,-0,34,-13,20000,38.892,,64.82,30,0.9,4.5,,,,,,,,,wg-a,,,,AAXX 27064 07790 02570 /0321 10010 21130 30248 40263 55000 60006 81500 90600 333 10045 20009 60004 91035=
07790,1996-12-27 09:00:00,2,1026.5,0.2,40,-10,20000,38.892,,55.56,40,,,,,,,,,,,wg-a,,,,AAXX 27094 07790 12570 30421 10020 21100 30250 40265 53002 60006 82101 90900 333 91030=
07790,1996-12-27 12:00:00,3,1024.4,-2.1,44,-8,20000,38.892,,75.932,40,,,,,,,,,,,wg-a,,,,AAXX 27124 07790 12570 40421 10030 21080 30229 40244 58021 60006 82101 91200 333 91041=
07790,1996-12-27 15:00:00,3,1023.4,-1,44,-8,20000,18.52,,,10,,,,,,,,,,,wg-a,,,,AAXX 27154 07790 12670 /0110 10030 21080 30219 40234 56010 60006 84501 91500=
07790,1996-12-27 18:00:00,2,1022.9,-0.5,47,-8,20000,18.52,,,40,1.3,3.7,,,,,,,,,wg-a,,,,AAXX 27184 07790 12670 20410 10020 21080 30214 40229 56005 60006 82500 91800 333 10037 20013=
07790,1996-12-27 21:00:00,1,1021.9,-1,64,-5,20000,3.704,,,160,,,,,,,,,,,wg-a,,,,AAXX 27214 07790 12670 41602 10010 21050 30204 40219 58010 60006 84500 92100=
07790,1996-12-28 00:00:00,2,1020,-1.9,55,-6,18000,11.112,,,40,,,,,,,,,,,wg-a,,,,AAXX 28004 07790 12668 /0406 10020 21060 30185 40200 56019 60006 85500 90000=
07790,1996-12-28 03:00:00,1,1018.2,-1.8,69,-4,20000,3.704,,,270,,,,,,,,,,,wg-a,,,,AAXX 28034 07790 12670 /2702 10010 21040 30167 40182 58018 60006 85500 90300=
07790,1996-12-28 06:00:00,1,1017.2,-1,69,-4,12000,7.408,,,240,0.9,2.2,,,,,,,,,wg-a,,,,AAXX 28064 07790 02662 72404 10010 21040 30157 40172 56010 60006 875// 90600 333 10022 20009 60004=
07790,1996-12-28 09:00:00,1,1016.7,-0.5,75,-3,8000,7.408,,,240,,,,,,,,,,22,wg-a,,,,AAXX 28094 07790 02658 82404 10010 21030 30152 40167 56005 61000 72272 885// 90900 333 ////=
07790,1996-12-28 12:00:00,1,1015.3,-1.4,93,0,700,3.704,,,270,,,,0,,,,,,71,wg-a,,,,AAXX 28124 07790 02507 82702 10010 20000 30138 40153 58014 60006 77172 885// 91200 333 60007=
07790,1996-12-28 15:00:00,1,1014,-1.3,93,0,500,7.408,,,80,,,,,,,,,,45,wg-a,,,,AAXX 28154 07790 02/05 90804 10010 20000 30125 40140 56013 61000 74577 89/// 91500 333 ////=
07790,1996-12-28 18:00:00,1,1014,-0,93,0,4000,0,,,0,0.5,1.8,,,,,,,,71,wg-a,,,,AAXX 28184 07790 02340 80000 10010 20000 30125 40140 55000 61000 77174 887// 91800 333 10018 20005 6100=
07790,1996-12-28 21:00:00,0,1013.2,-0.8,100,0,600,0,,,0,,,,0,,,,,,45,wg-a,,,,AAXX 28214 07790 12/06 90000 10000 20000 30117 40132 58008 60007 74577 89/// 92100=
07790,1996-12-29 00:00:00,0,1012.6,-0.6,100,0,1500,3.704,,,330,,,,2,,,,,,10,wg-a,,,,AAXX 29004 07790 02215 83302 10000 20000 30111 40126 58006 60026 71077 877// 90000 333 60027=
07790,1996-12-29 03:00:00,0,1010.9,-1.7,100,0,1300,7.408,,,320,,,,2,,,,,,10,wg-a,,,,AAXX 29034 07790 12213 83204 10000 20000 30094 40109 58017 60027 71077 877// 90300=
07790,1996-12-29 06:00:00,1,1009.1,-1.8,93,0,500,14.816,,,320,0.3,0.9,,,,,5,,,,wg-a,,,,AAXX 29064 07790 02/00 /3208 10010 20000 30076 40091 56018 60006 90600 333 10009 20003 60054=
07790,1996-12-29 09:00:00,2,1008.6,-0.5,87,0,18000,18.52,,,330,,,,3,,,,,,61,wg-a,,,,AAXX 29094 07790 12368 83310 10020 20000 30071 40086 56005 60037 76176 875// 90900=
07790,1996-12-29 12:00:00,2,1007.1,-1.5,87,0,20000,18.52,,,320,,,,3,,,,,,23,wg-a,,,,AAXX 29124 07790 02370 83210 10020 20000 30056 40071 58015 60086 72376 875// 91200 333 60037=
07790,1996-12-29 15:00:00,2,1006.8,-0.3,87,0,10000,18.52,,,340,,,,1,,,,,,,wg-a,,,,AAXX 29154 07790 12560 83410 10020 20000 30053 40068 55003 60017 8657/ 91500=
07790,1996-12-29 18:00:00,3,1006.5,-0.3,75,-1,15000,22.224,,,350,0.8,2.8,,1,,,,,,,wg-a,,7,,AAXX 29184 07790 02565 83512 10030 21010 30050 40065 58003 60006 885// 91800 333 10028 20008 4/007 60017=
07790,1996-12-29 21:00:00,1,1006,-0.5,80,-2,15000,3.704,,,320,,,,1,,,,,,,wg-a,,,,AAXX 29214 07790 12665 53202 10010 21020 30045 40060 56005 60017 85500 92100=
07790,1996-12-30 00:00:00,0,1005,-1,80,-3,15000,7.408,,,310,,,,1,,,,,,,wg-a,,,,AAXX 30004 07790 02665 53104 10000 21030 30035 40050 58010 60016 85500 90000 333 60017=
07790,1996-12-30 03:00:00,-1,1004.4,-0.6,80,-4,15000,22.224,,,250,,,,1,,,,,,,wg-a,,,,AAXX 30034 07790 12665 22512 11010 21040 30029 40044 58006 60017 82500 90300=
07790,1996-12-30 06:00:00,-1,1004.3,-0.1,74,-5,15000,18.52,,,250,-2.2,2.8,,,,,30,,,,wg-a,,4,,AAXX 30064 07790 02665 22510 11010 21050 30028 40043 55001 60006 82500 90600 333 10028 21022 4/004 60304=
07790,1996-12-30 09:00:00,2,1004.2,-0.1,64,-4,17000,14.816,,,240,,,,1,,,,,,,wg-a,,,,AAXX 30094 07790 12667 /2408 10020 21040 30027 40042 58001 60017 81501 90900=
07790,1996-12-30 12:00:00,8,1003.2,-1,53,-1,20000,7.408,,,230,,,,1,,,,,,,wg-a,,,,AAXX 30124 07790 02570 22304 10080 21010 30017 40032 58010 60016 81801 91200 333 60017=
07790,1996-12-30 15:00:00,5,1002.8,-0.4,75,1,20000,3.704,,,230,,,,1,,,,,,,wg-a,,,,AAXX 30154 07790 12570 42302 10050 20010 30013 40028 55004 60017 81804 91500=
07790,1996-12-30 18:00:00,2,1002.7,-0.1,80,-1,20000,22.224,,,250,-1.2,8.8,,,,,,,,,wg-a,,,,AAXX 30184 07790 12570 /2512 10020 21010 30012 40027 56001 60006 81832 91800 333 10088 21012=
07790,1996-12-30 21:00:00,2,1003,0.3,75,-2,11000,22.224,,,250,,,,,,,,,,,wg-a,,,,AAXX 30214 07790 12/61 /2512 10020 21020 30015 40030 52003 60006 92100=
07790,1996-12-31 00:00:00,2,1004,1,69,-3,20000,22.224,,,240,,,,,,,,,,,wg-a,,,,AAXX 31004 07790 12570 /2412 10020 21030 30025 40040 51010 60006 81500 90000=
07790,1996-12-31 03:00:00,2,1005.2,1.2,69,-3,20000,18.52,,,240,,,,,,,,,,,wg-a,,,,AAXX 31034 07790 12570 /2410 10020 21030 30037 40052 53012 60006 81530 90300=
07790,1996-12-31 06:00:00,2,1007,1.8,75,-2,20000,18.52,,,230,0.9,2.6,,,,,,,,,wg-a,,,,AAXX 31064 07790 02570 /2310 10020 21020 30055 40070 53018 60006 8153/ 90600 333 10026 20009 60004=
07790,1996-12-31 09:00:00,4,1008.9,1.9,70,-1,15000,11.112,,,220,,,,,,,,,,,wg-a,,,,AAXX 31094 07790 12565 /2206 10040 21010 30074 40089 52019 60006 86800 90900=
07790,1996-12-31 12:00:00,9,1009.4,0.5,61,2,12000,7.408,,,190,,,,,,,,,,,wg-a,,,,AAXX 31124 07790 12862 /1904 10090 20020 30079 40094 50005 60006 85502 91200=
07790,1996-12-31 15:00:00,7,1008.8,-0.6,76,3,12000,3.704,,,250,,,,,,,,,,,wg-a,,,,AAXX 31154 07790 12662 /2502 10070 20030 30073 40088 56006 60006 83542 91500=
07790,1996-12-31 18:00:00,5,1008,-0.8,87,3,12000,7.408,,,200,1.7,9.5,,,,,,,,,wg-a,,,,AAXX 31184 07790 12562 /2004 10050 20030 30065 40080 58008 60006 8387/ 91800 333 10095 20017=
07790,1996-12-31 21:00:00,5,1007.3,-0.7,93,4,12000,7.408,,,300,,,,,,,,,,,wg-a,,,,AAXX 31214 07790 12562 73004 10050 20040 30058 40073 55007 60006 878// 92100=
