station_id,dh_utc,temperature,pression,pression_variation_3h,humidite,point_de_rosee,visibilite,vent_moyen,vent_rafales,vent_rafales_10min,vent_direction,temperature_min,temperature_max,pluie_1h,pluie_3h,pluie_6h,pluie_12h,pluie_24h,ensoleillement,temperature_sol,temps_omm,source,radiations,neige_au_sol,nebulosite,raw_msg
07790,1997-01-01 00:00:00,5,1006.4,-0.9,93,4,20000,7.408,,,250,,,,,,,,,,,wg-a,,,,AAXX 01004 07790 12570 /2504 10050 20040 30049 40064 58009 60006 83800 90000=
07790,1997-01-01 03:00:00,9,1006.8,0.4,87,7,11000,11.112,,,220,,,,,,,,,,,wg-a,,,,AAXX 01034 07790 32/61 /2206 10090 20070 30053 40068 53004 90300=
07790,1997-01-01 06:00:00,7,1009.2,2.4,100,7,20000,3.704,,,250,4.3,9.3,,,,,,,,60,wg-a,,,,AAXX 01064 07790 02570 72502 10070 20070 30077 40092 53024 61000 76061 855// 90600 333 10093 20043 6001=
07790,1997-01-01 09:00:00,9,1011.8,2.6,93,8,11000,3.704,,,190,,,,,,,,,,,wg-a,,,,AAXX 01094 07790 32/61 /1902 10090 20080 30103 40118 53026 90900=
07790,1997-01-01 12:00:00,12,1013,1.3,82,9,15000,14.816,,,330,,,,,,,,,,3,wg-a,,,,AAXX 01124 07790 02465 53308 10120 20090 30116 40130 51013 61000 70362 84831 91200 333 ////=
07790,1997-01-01 15:00:00,12,1014.4,1.3,82,9,15000,7.408,,,200,,,,,,,,,,,wg-a,,,,AAXX 01154 07790 12465 62004 10120 20090 30129 40144 53013 60006 86801 91500=
07790,1997-01-01 18:00:00,9,1015.7,1.3,93,8,15000,3.704,,,260,6.5,14.4,,,,,,,,,wg-a,,,,AAXX 01184 07790 12465 72602 10090 20080 30142 40157 53013 60006 87600 91800 333 10144 20065=
07790,1997-01-01 21:00:00,9,1016.1,0.4,93,8,11000,7.408,,,260,,,,,,,,,,,wg-a,,,,AAXX 01214 07790 12/61 /2604 10090 20080 30146 40161 51004 60006 92100=
07790,1997-01-02 00:00:00,8,1015.6,-0.5,93,7,15000,3.704,,,260,,,,,,,,,,,wg-a,,,,AAXX 02004 07790 12465 82602 10080 20070 30141 40156 58005 60006 875// 90000=
07790,1997-01-02 03:00:00,8,1014.5,-1.1,93,7,15000,7.408,,,240,,,,,,,,,,,wg-a,,,,AAXX 02034 07790 12465 82404 10080 20070 30130 40145 58011 60006 875// 90300=
07790,1997-01-02 06:00:00,9,1012.9,-1.6,87,7,11000,3.704,,,250,8.1,9.4,,,,,,,,,wg-a,,,,AAXX 02064 07790 02/61 /2502 10090 20070 30114 40129 56016 60006 90600 333 10094 20081 61000=
07790,1997-01-02 09:00:00,10,1012.7,-0.2,93,9,15000,7.408,,,230,,,,,,,,,,,wg-a,,,,AAXX 02094 07790 12465 82304 10100 20090 30112 40127 58002 60006 875// 90900=
07790,1997-01-02 12:00:00,14,1010,-2.6,82,11,15000,3.704,,,100,,,,,,,,,,,wg-a,,,,AAXX 02124 07790 12465 71002 10140 20110 30086 40100 58026 60006 8387/ 91200=
07790,1997-01-02 15:00:00,14,1009.3,-0.7,82,11,15000,3.704,,,80,,,,,,,,,,,wg-a,,,,AAXX 02154 07790 12465 70802 10140 20110 30079 40093 56007 60006 8587/ 91500=
07790,1997-01-02 18:00:00,11,1008.7,-0.6,94,10,15000,7.408,,,160,8.3,14.7,,,,,,,,,wg-a,,,,AAXX 02184 07790 12465 71604 10110 20100 30073 40087 56006 60006 84871 91800 333 10147 20083=
07790,1997-01-02 21:00:00,10,1009.1,0.4,100,10,15000,3.704,,,160,,,,0,,,,,,60,wg-a,,,,AAXX 02214 07790 12565 71602 10100 20100 30077 40091 51004 60007 76062 8357/ 92100=
07790,1997-01-03 00:00:00,10,1008.1,-1.1,93,9,25000,3.704,,,210,,,,1,,,,,,21,wg-a,,,,AAXX 03004 07790 02575 /2102 10100 20090 30066 40081 58011 60016 72162 83572 90000 333 60017=
07790,1997-01-03 03:00:00,8,1007.6,-0.5,100,8,25000,3.704,,,240,,,,,,,,,,,wg-a,,,,AAXX 03034 07790 12575 /2402 10080 20080 30061 40076 56005 60006 83572 90300=
07790,1997-01-03 06:00:00,9,1007.8,0.2,93,8,20000,7.408,,,240,7.9,11.4,,,,,1,,,,wg-a,,,,AAXX 03064 07790 02470 32404 10090 20080 30063 40078 53002 60006 82630 90600 333 10114 20079 60014=
07790,1997-01-03 09:00:00,10,1008.3,0.6,100,10,11000,3.704,,,280,,,,,,,,,,,wg-a,,,,AAXX 03094 07790 32/61 /2802 10100 20100 30069 40083 51006 90900=
07790,1997-01-03 12:00:00,13,1005.8,-2.5,88,11,11000,3.704,,,280,,,,,,,,,,,wg-a,,,,AAXX 03124 07790 12/61 /2802 10130 20110 30044 40058 58025 60006 91200=
07790,1997-01-03 18:00:00,12,1002,-2,88,10,9000,3.704,,,100,7.4,14,,,,,,,,60,wg-a,,,,AAXX 03184 07790 02559 81002 10120 20100 30006 40020 58020 61000 76062 84531 91800 333 10140 20074 6100=
07790,1997-01-03 21:00:00,10,1001,-1,82,7,17000,14.816,,29.632,210,,,,2,,,,,,61,wg-a,,,,AAXX 03214 07790 12567 82108 10100 20070 39996 40010 56010 60027 76162 8687/ 92100 333 91016=
07790,1997-01-04 00:00:00,10,1000.5,-0.5,66,4,17000,7.408,,,200,,,,,,,,,,21,wg-a,,,,AAXX 04004 07790 02567 82004 10100 20040 39991 40005 58005 60026 72162 8697/ 90000 333 61000=
07790,1997-01-04 06:00:00,6,999.8,-0.7,81,3,17000,3.704,,,210,5.9,11.7,,,,,2,,,,wg-a,,,,AAXX 04064 07790 02567 /2102 10060 20030 39983 49998 58007 60006 82932 90600 333 10117 20059 60024=
07790,1997-01-04 09:00:00,8,999.7,-0.1,76,4,500,11.112,,,240,,,,,,,,,,,wg-a,,,,AAXX 04094 07790 12500 72406 10080 20040 39982 49997 58001 60006 82372 90900=
07790,1997-01-04 12:00:00,12,999.1,-0.5,58,4,500,25.928,,,240,,,,,,,,,,1,wg-a,,,,AAXX 04124 07790 02500 /2414 10120 20040 39977 49991 58005 61000 70161 82242 91200 333 6100=
07790,1997-01-04 15:00:00,12,999.9,0.8,67,6,500,3.704,,,170,,,,,,,,,,,wg-a,,,,AAXX 04154 07790 12500 /1702 10120 20060 39985 49999 53008 60006 82842 91500=
07790,1997-01-04 18:00:00,9,1000.6,0.7,71,4,25000,18.52,,,250,5,12.8,,0,,,,,,2,wg-a,,,,AAXX 04184 07790 02475 72510 10090 20040 39992 40006 51007 60006 70286 8687/ 91800 333 10128 20050 60007=
07790,1997-01-04 21:00:00,8,1001.5,0.8,76,4,25000,22.224,,,250,,,,,,,,,,13,wg-a,,,,AAXX 04214 07790 12475 72512 10080 20040 30000 40015 51008 60006 71311 84970 92100=
07790,1997-01-05 00:00:00,7,1003,1.5,76,3,25000,14.816,,50.004,250,,,,,,,,,,25,wg-a,,,,AAXX 05004 07790 02475 52508 10070 20030 30015 40030 51015 61000 72511 84970 90000 333 //// 91027=
07790,1997-01-05 03:00:00,6,1004.8,1.8,87,4,15000,11.112,,,230,,,,1,,,,,,60,wg-a,,,,AAXX 05034 07790 12465 52306 10060 20040 30033 40048 51018 60017 76062 84970 90300=
07790,1997-01-05 06:00:00,5,1005.8,1,87,3,15000,11.112,,,170,4.9,8.5,,,,,1,,,13,wg-a,,,,AAXX 05064 07790 02465 51706 10050 20030 30043 40058 53010 60006 71362 84970 90600 333 10085 20049 60014=
07790,1997-01-05 09:00:00,9,1008.7,2.9,71,4,20000,11.112,,,190,,,,,,,,,,,wg-a,,,,AAXX 05094 07790 12570 21906 10090 20040 30072 40087 53029 60006 82200 90900=
07790,1997-01-05 12:00:00,13,1008.8,0.2,54,4,500,11.112,,,120,,,,,,,,,,,wg-a,,,,AAXX 05124 07790 12500 /1206 10130 20040 30074 40088 50002 60006 81240 91200=
07790,1997-01-05 15:00:00,13,1010.1,1.3,54,4,500,7.408,,,140,,,,,,,,,,,wg-a,,,,AAXX 05154 07790 12500 31404 10130 20040 30087 40101 53013 60006 83801 91500=
07790,1997-01-05 18:00:00,6,1011.2,1,81,3,15000,11.112,,,250,4.8,14.2,,,,,,,,,wg-a,,,,AAXX 05184 07790 12565 22506 10060 20030 30097 40112 51010 60006 82800 91800 333 10142 20048=
07790,1997-01-05 21:00:00,7,1012.3,1.1,61,0,15000,22.224,,,250,,,,,,,,,,,wg-a,,,,AAXX 05214 07790 12565 /2512 10070 20000 30108 40123 51011 60006 81800 92100=
07790,1997-01-06 00:00:00,7,1011.8,-0.5,61,0,15000,22.224,,,250,,,,,,,,,,,wg-a,,,,AAXX 06004 07790 12765 82512 10070 20000 30103 40118 58005 60006 85570 90000=
07790,1997-01-06 03:00:00,7,1011.5,-0.3,66,1,15000,14.816,,,240,,,,,,,,,,,wg-a,,,,AAXX 06034 07790 12665 82408 10070 20010 30100 40115 58003 60006 85570 90300=
07790,1997-01-06 06:00:00,6,1011.1,-0.4,87,4,11000,7.408,,,220,5.5,7.4,,,,,,,,,wg-a,,,,AAXX 06064 07790 02/61 /2204 10060 20040 30096 40111 56004 60006 90600 333 10074 20055 61000=
07790,1997-01-06 09:00:00,7,1011.5,0.4,93,6,15000,3.704,,,200,,,,0,,,,,,21,wg-a,,,,AAXX 06094 07790 12565 72002 10070 20060 30100 40115 52004 60007 72162 8687/ 90900=
07790,1997-01-06 12:00:00,8,1009.6,-1.9,100,8,8000,7.408,,,270,,,,1,,,,,,61,wg-a,,,,AAXX 06124 07790 02458 82704 10080 20080 30081 40096 58019 60026 76162 888// 91200 333 60017=
07790,1997-01-06 15:00:00,9,1008,-1.6,93,8,12000,0,,,0,,,,0,,,,,,21,wg-a,,,,AAXX 06154 07790 12462 80000 10090 20080 30065 40080 56016 60007 72162 888// 91500=
07790,1997-01-06 18:00:00,9,1007.8,-0.2,93,8,12000,7.408,,,240,5.6,9.3,,,,,,,,1,wg-a,,,,AAXX 06184 07790 12462 82404 10090 20080 30063 40078 57002 60006 70162 879// 91800 333 10093 20056=
07790,1997-01-06 21:00:00,8,1008.4,0.6,93,7,12000,7.408,,,240,,,,,,,,,,,wg-a,,,,AAXX 06214 07790 12462 72404 10080 20070 30069 40084 51006 60006 878// 92100=
07790,1997-01-07 00:00:00,8,1008.2,-0.2,87,6,12000,14.816,,,240,,,,,,,,,,,wg-a,,,,AAXX 07004 07790 12462 72408 10080 20060 30067 40082 56002 60006 878// 90000=
07790,1997-01-07 03:00:00,7,1008.6,0.4,87,5,12000,14.816,,,240,,,,,,,,,,,wg-a,,,,AAXX 07034 07790 12462 72408 10070 20050 30071 40086 53004 60006 878// 90300=
07790,1997-01-07 06:00:00,8,1008.5,-0.1,81,5,12000,11.112,,,230,6.7,8.8,,,,,2,,,,wg-a,,,,AAXX 07064 07790 02462 72306 10080 20050 30070 40085 55001 60006 878// 90600 333 10088 20067 60024=
07790,1997-01-07 09:00:00,10,1010,1.5,87,8,15000,14.816,,,340,,,,1,,,,,,61,wg-a,,,,AAXX 07094 07790 12065 73408 10100 20080 30085 40100 53015 60017 76161 8587/ 90900=
07790,1997-01-07 12:00:00,9,1010,0,93,8,500,11.112,,,320,,,,8,,,,,,10,wg-a,,,,AAXX 07124 07790 02400 83206 10090 20080 30085 40100 50000 60096 71061 8487/ 91200 333 60087=
07790,1997-01-07 15:00:00,10,1010.3,0.3,87,8,15000,18.52,,,360,,,,2,,,,,,2,wg-a,,,,AAXX 07154 07790 12565 63610 10100 20080 30088 40103 53003 60027 70262 8487/ 91500=
07790,1997-01-07 18:00:00,10,1011.3,1,82,7,20000,11.112,,,340,7.1,10.4,,,,,,,,1,wg-a,,,,AAXX 07184 07790 12570 /3406 10100 20070 30098 40113 51010 60006 70162 81170 91800 333 10104 20071=
07790,1997-01-07 21:00:00,7,1012.7,1.4,93,6,20000,7.408,,,280,,,,,,,,,,,wg-a,,,,AAXX 07214 07790 12570 22804 10070 20060 30112 40127 53014 60006 82500 92100=
07790,1997-01-08 00:00:00,5,1012.5,-0.2,93,4,25000,3.704,,,270,,,,,,,,,,,wg-a,,,,AAXX 08004 07790 12575 22702 10050 20040 30110 40125 57002 60006 82500 90000=
07790,1997-01-08 03:00:00,5,1012.5,0,87,3,25000,18.52,,,240,,,,,,,,,,,wg-a,,,,AAXX 08034 07790 12575 22410 10050 20030 30110 40125 50000 60006 82500 90300=
07790,1997-01-08 06:00:00,6,1012,-0.5,87,4,25000,18.52,,,240,3.5,10,,,,,11,,,,wg-a,,,,AAXX 08064 07790 02575 42410 10060 20040 30105 40120 56005 60006 82501 90600 333 10100 20035 60114=
07790,1997-01-08 09:00:00,9,1012.4,0.4,81,6,25000,18.52,,,240,,,,,,,,,,,wg-a,,,,AAXX 08094 07790 12575 32410 10090 20060 30109 40124 53004 60006 81801 90900=
07790,1997-01-08 12:00:00,13,1011.1,-1.2,72,8,25000,11.112,,,160,,,,,,,,,,,wg-a,,,,AAXX 08124 07790 12575 51606 10130 20080 30097 40111 58012 60006 81881 91200=
07790,1997-01-08 15:00:00,12,1009.7,-1.4,71,7,15000,7.408,,,120,,,,,,,,,,,wg-a,,,,AAXX 08154 07790 12565 71204 10120 20070 30083 40097 56014 60006 8387/ 91500=
07790,1997-01-08 17:00:00,11,1008.8,-0.9,76,7,15000,11.112,,,170,5.7,13.5,,,,,,,,0,wg-a,,,,AAXX 08174 07790 12565 71706 10110 20070 30074 40088 56009 60006 700// 8387/ 91700 333 10135 20057=
07790,1997-01-08 18:00:00,11,1008.8,-0.9,76,7,15000,11.112,,,170,5.7,13.5,,,,,,,,,wg-a,,,,AAXX 08184 07790 12565 71706 10110 20070 30074 40088 56009 60006 8387/ 91800 333 10135 20057=
07790,1997-01-08 21:00:00,9,1007.4,-1.5,93,8,10000,7.408,,,170,,,,2,,,,,,61,wg-a,,,,AAXX 08214 07790 12560 81704 10090 20080 30059 40074 58015 60027 76162 8487/ 92100=
07790,1997-01-09 00:00:00,8,1005.1,-2.3,93,7,10000,3.704,,,220,,,,2,,,,,,61,wg-a,,,,AAXX 09004 07790 02460 82202 10080 20070 30036 40051 58023 60046 76162 8487/ 90000 333 60027=
07790,1997-01-09 03:00:00,7,1003,-2.1,100,7,10000,3.704,,,240,,,,0,,,,,,61,wg-a,,,,AAXX 09034 07790 12460 82402 10070 20070 30015 40030 58021 60007 76166 8487/ 90300=
07790,1997-01-09 06:00:00,6,1001.6,-1.4,100,6,25000,7.408,,,260,6.1,10.6,,,,,4,,,1,wg-a,,,,AAXX 09064 07790 02575 42604 10060 20060 30001 40016 58014 60006 70161 8257/ 90600 333 10106 20061 60044=
07790,1997-01-09 09:00:00,9,1002.5,1,87,7,18000,3.704,,,270,,,,,,,,,,,wg-a,,,,AAXX 09094 07790 12568 72702 10090 20070 30011 40025 53010 60006 83834 90900=
07790,1997-01-09 12:00:00,12,1002.1,-0.4,82,9,20000,0,,,0,,,,,,,,,,,wg-a,,,,AAXX 09124 07790 12470 70000 10120 20090 30007 40021 58004 60006 81839 91200=
07790,1997-01-09 15:00:00,12,1001.8,-0.3,82,9,12000,7.408,,,10,,,,,,,,,,,wg-a,,,,AAXX 09154 07790 12462 /0104 10120 20090 30004 40018 55003 60006 82831 91500=
07790,1997-01-09 18:00:00,10,1002.7,0.9,93,9,11000,7.408,,,330,6.1,13.9,,,,,,,,,wg-a,,,,AAXX 09184 07790 12/61 /3304 10100 20090 30013 40027 53009 60006 91800 333 10139 20061=
07790,1997-01-09 21:00:00,10,1003.4,0.7,93,9,15000,11.112,,,340,,,,1,,,,,,61,wg-a,,,,AAXX 09214 07790 12465 73406 10100 20090 30020 40034 53007 60017 76161 86530 92100=
07790,1997-01-10 00:00:00,10,1003.8,0.4,87,8,15000,7.408,,,360,,,,0,,,,,,21,wg-a,,,,AAXX 10004 07790 02565 53604 10100 20080 30024 40038 50004 60016 72161 83530 90000 333 60007=
07790,1997-01-10 03:00:00,8,1004.3,0.4,100,8,15000,3.704,,,300,,,,0,,,,,,,wg-a,,,,AAXX 10034 07790 12565 73002 10080 20080 30028 40043 51004 60007 8157/ 90300=
07790,1997-01-10 06:00:00,10,1004.6,0.4,82,7,20000,22.224,,,320,8,10.6,,,,,,,,21,wg-a,,,,AAXX 10064 07790 02570 /3212 10100 20070 30032 40046 53004 61000 72161 84830 90600 333 10106 20080 6001=
07790,1997-01-10 09:00:00,11,1005.9,1.3,66,5,20000,14.816,,,340,,,,,,,,,,,wg-a,,,,AAXX 10094 07790 12570 /3408 10110 20050 30045 40059 53013 60006 83830 90900=
07790,1997-01-10 12:00:00,12,1006,0.1,67,6,20000,14.816,,,340,,,,,,,,,,,wg-a,,,,AAXX 10124 07790 12570 /3408 10120 20060 30046 40060 50001 60006 83830 91200=
07790,1997-01-10 15:00:00,11,1006.5,0.5,76,7,18000,14.816,,,360,,,,,,,,,,,wg-a,,,,AAXX 10154 07790 12568 73608 10110 20070 30051 40065 53005 60006 8487/ 91500=
07790,1997-01-10 18:00:00,9,1008.7,2.1,93,8,15000,14.816,,,330,8.8,12.4,,,,,,,,61,wg-a,,,,AAXX 10184 07790 02465 83308 10090 20080 30072 40087 53021 61000 76162 8587/ 91800 333 10124 20088 6001=
07790,1997-01-10 21:00:00,10,1010.5,1.8,82,7,15000,14.816,,,340,,,,0,,,,,,21,wg-a,,,,AAXX 10214 07790 12465 83408 10100 20070 30090 40105 53018 60007 72162 878// 92100=
07790,1997-01-11 00:00:00,11,1011.6,1.1,76,7,11000,14.816,,,330,,,,,,,,,,,wg-a,,,,AAXX 11004 07790 12/61 /3308 10110 20070 30101 40116 51011 60006 90000=
07790,1997-01-11 03:00:00,11,1012.6,1,76,7,15000,14.816,,,340,,,,,,,,,,,wg-a,,,,AAXX 11034 07790 12465 83408 10110 20070 30111 40126 53010 60006 878// 90300=
07790,1997-01-11 06:00:00,11,1013.4,0.8,76,7,15000,18.52,,,340,8.9,11.6,,,,,1,,,,wg-a,,,,AAXX 11064 07790 02465 83410 10110 20070 30119 40134 53008 60006 878// 90600 333 10116 20089 60014=
07790,1997-01-11 09:00:00,12,1015.2,1.8,76,8,20000,11.112,,,350,,,,,,,,,,,wg-a,,,,AAXX 11094 07790 12570 73506 10120 20080 30137 40152 53018 60006 8483/ 90900=
07790,1997-01-11 12:00:00,13,1014.9,-0.2,67,7,20000,22.224,,,10,,,,,,,,,,,wg-a,,,,AAXX 11124 07790 12570 30112 10130 20070 30135 40149 58002 60006 82542 91200=
07790,1997-01-11 15:00:00,13,1015.2,0.3,72,8,20000,18.52,,,20,,,,,,,,,,,wg-a,,,,AAXX 11154 07790 12570 20210 10130 20080 30138 40152 53003 60006 81502 91500=
07790,1997-01-11 18:00:00,8,1016.5,1.2,81,5,20000,7.408,,,310,8.3,13.5,,,,,,,,,wg-a,,,,AAXX 11184 07790 12570 23104 10080 20050 30150 40165 51012 60006 81540 91800 333 10135 20083=
07790,1997-01-11 21:00:00,7,1018.1,1.6,87,5,18000,11.112,,,290,,,,,,,,,,,wg-a,,,,AAXX 11214 07790 12/68 02906 10070 20050 30166 40181 52016 60006 80000 92100=
07790,1997-01-12 00:00:00,7,1018.6,0.5,81,4,18000,7.408,,,250,,,,,,,,,,,wg-a,,,,AAXX 12004 07790 12768 12504 10070 20040 30171 40186 50005 60006 815/0 90000=
07790,1997-01-12 03:00:00,6,1018.8,0.2,87,4,18000,7.408,,,250,,,,,,,,,,,wg-a,,,,AAXX 12034 07790 12568 42504 10060 20040 30173 40188 51002 60006 82530 90300=
07790,1997-01-12 06:00:00,6,1020,1.2,87,4,18000,7.408,,,220,5.5,9.4,,,,,,,,,wg-a,,,,AAXX 12064 07790 02668 72204 10060 20040 30185 40200 53012 60006 875// 90600 333 10094 20055 60004=
07790,1997-01-12 09:00:00,12,1021.5,1.5,62,5,50000,22.224,,,20,,,,,,,,,,,wg-a,,,,AAXX 12094 07790 12584 /0212 10120 20050 30200 40215 53015 60006 8153/ 90900=
07790,1997-01-12 12:00:00,13,1021.6,0.1,62,6,40000,25.928,,,10,,,,,,,,,,,wg-a,,,,AAXX 12124 07790 12582 30114 10130 20060 30201 40216 50001 60006 8113/ 91200=
07790,1997-01-12 15:00:00,13,1021.2,-0.4,58,5,40000,18.52,,,350,,,,,,,,,,,wg-a,,,,AAXX 12154 07790 12582 /3510 10130 20050 30197 40212 56004 60006 8143/ 91500=
07790,1997-01-12 18:00:00,9,1021.8,0.6,66,3,500,7.408,,,290,6.4,13.5,,,,,,,,,wg-a,,,,AAXX 12184 07790 12/00 02904 10090 20030 30203 40218 53006 60006 80000 91800 333 10135 20064=
07790,1997-01-12 21:00:00,9,1022.3,0.5,66,3,20000,11.112,,,310,,,,,,,,,,,wg-a,,,,AAXX 12214 07790 12/70 03106 10090 20030 30208 40223 53005 60006 80000 92100=
07790,1997-01-13 00:00:00,8,1022.6,0.3,76,4,0,11.112,,,320,,,,,,,,,,,wg-a,,,,AAXX 13004 07790 12/// /3206 10080 20040 30211 40226 53003 60006 90000=
07790,1997-01-13 03:00:00,5,1022.3,-0.3,87,3,20000,11.112,,,250,,,,,,,,,,,wg-a,,,,AAXX 13034 07790 12/70 02506 10050 20030 30208 40223 58003 60006 80000 90300=
07790,1997-01-13 06:00:00,5,1022.4,0.1,81,2,20000,14.816,,,250,4.4,9.6,,,,,,,,,wg-a,,,,AAXX 13064 07790 02/70 02508 10050 20020 30209 40224 53001 60006 80000 90600 333 10096 20044 60004=
07790,1997-01-13 09:00:00,10,1023.8,1.4,71,5,40000,7.408,,,250,,,,,,,,,,,wg-a,,,,AAXX 13094 07790 12/82 02504 10100 20050 30223 40238 53014 60006 80000 90900=
07790,1997-01-13 12:00:00,14,1022.9,-0.9,51,4,40000,18.52,,,10,,,,,,,,,,,wg-a,,,,AAXX 13124 07790 12/82 00110 10140 20040 30214 40229 58009 60006 80000 91200=
07790,1997-01-13 15:00:00,13,1022.4,-0.5,58,5,40000,14.816,,,10,,,,,,,,,,,wg-a,,,,AAXX 13154 07790 12/82 00108 10130 20050 30209 40224 56005 60006 80000 91500=
07790,1997-01-13 18:00:00,8,1022.9,0.5,76,4,500,11.112,,,240,4.4,14.6,,,,,,,,,wg-a,,,,AAXX 13184 07790 12/00 02406 10080 20040 30214 40229 52005 60006 80000 91800 333 10146 20044=
07790,1997-01-13 21:00:00,7,1023.3,0.4,70,2,500,7.408,,,250,,,,,,,,,,,wg-a,,,,AAXX 13214 07790 12/00 02504 10070 20020 30218 40233 50004 60006 80000 92100=
07790,1997-01-14 00:00:00,6,1023.2,-0.1,75,2,500,11.112,,,240,,,,,,,,,,,wg-a,,,,AAXX 14004 07790 12/00 02406 10060 20020 30217 40232 58001 60006 80000 90000=
07790,1997-01-14 03:00:00,5,1023.3,0.1,81,2,500,11.112,,,240,,,,,,,,,,,wg-a,,,,AAXX 14034 07790 12/00 02406 10050 20020 30218 40233 51001 60006 80000 90300=
07790,1997-01-14 06:00:00,4,1023.3,-0,81,1,500,11.112,,,240,3.8,7.9,,,,,,,,,wg-a,,,,AAXX 14064 07790 02/00 02406 10040 20010 30218 40233 55000 60006 80000 90600 333 10079 20038 60004=
07790,1997-01-14 09:00:00,9,1024,0.7,71,4,10000,7.408,,,240,,,,,,,,,,,wg-a,,,,AAXX 14094 07790 12/60 /2404 10090 20040 30225 40240 51007 60006 90900=
07790,1997-01-14 12:00:00,14,1023.7,-0.3,63,7,20000,11.112,,,20,,,,,,,,,,,wg-a,,,,AAXX 14124 07790 12/70 00206 10140 20070 30222 40237 58003 60006 80000 91200=
07790,1997-01-14 15:00:00,13,1023.5,-0.2,58,5,10000,7.408,,,30,,,,,,,,,,,wg-a,,,,AAXX 14154 07790 12/60 /0304 10130 20050 30220 40235 56002 60006 91500=
07790,1997-01-14 18:00:00,7,1024.5,1,87,5,20000,11.112,,,240,3.7,14,,,,,,,,,wg-a,,,,AAXX 14184 07790 12/70 02406 10070 20050 30230 40245 53010 60006 80000 91800 333 10140 20037=
07790,1997-01-15 00:00:00,5,1025.7,0.7,81,2,20000,11.112,,,240,,,,,,,,,,,wg-a,,,,AAXX 15004 07790 12/70 02406 10050 20020 30242 40257 52007 60006 80000 90000=
07790,1997-01-15 06:00:00,5,1025.7,0.2,75,1,20000,11.112,,,230,4.3,7.2,,,,,,,,,wg-a,,,,AAXX 15064 07790 02/70 02306 10050 20010 30242 40257 53002 60006 80000 90600 333 10072 20043 60004=
07790,1997-01-15 09:00:00,10,1026.8,1.1,66,4,500,7.408,,,250,,,,,,,,,,,wg-a,,,,AAXX 15094 07790 12/00 02504 10100 20040 30253 40268 53011 60006 80000 90900=
07790,1997-01-15 12:00:00,16,1025.9,-0.8,55,7,20000,3.704,,,100,,,,,,,,,,,wg-a,,,,AAXX 15124 07790 12/70 01002 10160 20070 30245 40259 58008 60006 80000 91200=
07790,1997-01-15 15:00:00,15,1025.7,-0.3,67,9,12000,3.704,,,120,,,,,,,,,,,wg-a,,,,AAXX 15154 07790 12/62 01202 10150 20090 30242 40257 56003 60006 80000 91500=
07790,1997-01-15 18:00:00,8,1026,0.3,87,6,10000,7.408,,,240,4.6,16.4,,,,,,,,,wg-a,,,,AAXX 15184 07790 12/60 02404 10080 20060 30245 40260 53003 60006 80000 91800 333 10164 20046=
07790,1997-01-15 21:00:00,5,1026,0,93,4,15000,7.408,,,230,,,,,,,,,,11,wg-a,,,,AAXX 15214 07790 12/65 02304 10050 20040 30245 40260 50000 60006 71100 80000 92100=
07790,1997-01-16 00:00:00,5,1026.1,0.1,87,3,10000,7.408,,,240,,,,,,,,,,,wg-a,,,,AAXX 16004 07790 12/60 /2404 10050 20030 30246 40261 51001 60006 90000=
07790,1997-01-16 03:00:00,5,1025.6,-0.5,81,2,15000,11.112,,,230,,,,,,,,,,,wg-a,,,,AAXX 16034 07790 12/65 02306 10050 20020 30241 40256 56005 60006 80000 90300=
07790,1997-01-16 06:00:00,5,1024.9,-0.7,75,1,20000,11.112,,,220,4.4,7.9,,,,,,,,,wg-a,,,,AAXX 16064 07790 02/70 02206 10050 20010 30234 40249 56007 60006 80000 90600 333 10079 20044 60004=
07790,1997-01-16 09:00:00,9,1025.3,0.4,61,2,500,11.112,,,210,,,,,,,,,,4,wg-a,,,,AAXX 16094 07790 12/00 02106 10090 20020 30238 40253 51004 60006 70400 80000 90900=
07790,1997-01-16 12:00:00,15,1024.4,-0.8,67,9,500,14.816,,,130,,,,,,,,,,,wg-a,,,,AAXX 16124 07790 12/00 01308 10150 20090 30230 40244 58008 60006 80000 91200=
07790,1997-01-16 15:00:00,14,1023.7,-0.8,77,10,20000,11.112,,,140,,,,,,,,,,,wg-a,,,,AAXX 16154 07790 12570 /1406 10140 20100 30222 40237 56008 60006 81600 91500=
07790,1997-01-16 18:00:00,8,1024.2,0.5,87,6,12000,7.408,,,220,4.1,15.1,,,,,,,,12,wg-a,,,,AAXX 16184 07790 12462 /2204 10080 20060 30227 40242 53005 60006 71200 81600 91800 333 10151 20041=
07790,1997-01-16 21:00:00,6,1024.4,0.2,93,5,12000,7.408,,,230,,,,,,,,,,,wg-a,,,,AAXX 16214 07790 12/62 02304 10060 20050 30229 40244 51002 60006 80000 92100=
07790,1997-01-17 00:00:00,5,1024.1,-0.3,87,3,12000,11.112,,,230,,,,,,,,,,,wg-a,,,,AAXX 17004 07790 12/62 02306 10050 20030 30226 40241 55003 60006 80000 90000=
07790,1997-01-17 03:00:00,4,1023.9,-0.2,87,2,12000,11.112,,,240,,,,,,,,,,,wg-a,,,,AAXX 17034 07790 12/62 02406 10040 20020 30224 40239 58002 60006 80000 90300=
07790,1997-01-17 06:00:00,4,1023.8,-0.1,81,1,12000,11.112,,,240,3.6,7.4,,,,,,,,,wg-a,,,,AAXX 17064 07790 02662 32406 10040 20010 30223 40238 55001 60006 81501 90600 333 10074 20036 60004=
07790,1997-01-17 09:00:00,9,1024.1,0.3,66,3,20000,7.408,,,220,,,,,,,,,,,wg-a,,,,AAXX 17094 07790 12570 /2204 10090 20030 30226 40241 52003 60006 81100 90900=
07790,1997-01-17 12:00:00,15,1022.7,-1.3,67,9,20000,7.408,,,160,,,,,,,,,,,wg-a,,,,AAXX 17124 07790 12570 31604 10150 20090 30213 40227 58013 60006 83100 91200=
07790,1997-01-17 15:00:00,13,1022,-0.8,82,10,15000,11.112,,,150,,,,,,,,,,,wg-a,,,,AAXX 17154 07790 12465 71506 10130 20100 30205 40220 56008 60006 871// 91500=
07790,1997-01-17 18:00:00,11,1022,-0,87,9,12000,3.704,,,290,3.7,15.6,,,,,,,,,wg-a,,,,AAXX 17184 07790 12462 /2902 10110 20090 30205 40220 55000 60006 86200 91800 333 10156 20037=
07790,1997-01-17 21:00:00,10,1022.4,0.4,93,9,6000,7.408,,,220,,,,1,,,,,,60,wg-a,,,,AAXX 17214 07790 12456 82204 10100 20090 30209 40224 51004 60017 76062 862// 92100=
07790,1997-01-18 00:00:00,9,1022.1,-0.3,100,9,6000,7.408,,,220,,,,,,,,,,,wg-a,,,,AAXX 18004 07790 12/56 /2204 10090 20090 30206 40221 58003 60036 90000=
07790,1997-01-18 03:00:00,8,1021.7,-0.4,100,8,500,7.408,,,240,,,,3,,,,,,60,wg-a,,,,AAXX 18034 07790 12400 82404 10080 20080 30202 40217 57004 60037 76066 8427/ 90300=
07790,1997-01-18 06:00:00,9,1021.9,0.2,93,8,6000,3.704,,,230,8.3,11.2,,,,,,,,60,wg-a,,,,AAXX 18064 07790 02556 82302 10090 20080 30204 40219 53002 61000 76066 8327/ 90600 333 10112 20083 6008=
07790,1997-01-18 09:00:00,9,1022.9,1,93,8,7000,3.704,,,230,,,,1,,,,,,2,wg-a,,,,AAXX 18094 07790 12457 72302 10090 20080 30214 40229 52010 60017 70262 878// 90900=
07790,1997-01-18 12:00:00,14,1021.3,-1.5,77,10,10000,22.224,,,160,,,,0,,,,,,2,wg-a,,,,AAXX 18124 07790 02460 51612 10140 20100 30199 40213 58015 60016 70262 83801 91200 333 60007=
07790,1997-01-18 15:00:00,13,1020.8,-0.6,77,9,11000,22.224,,,160,,,,,,,,,,,wg-a,,,,AAXX 18154 07790 12/61 /1612 10130 20090 30193 40208 56006 60006 91500=
07790,1997-01-18 18:00:00,9,1021.3,0.5,87,7,15000,7.408,,,210,8.1,14.5,,,,,,,,,wg-a,,,,AAXX 18184 07790 12465 /2104 10090 20070 30198 40213 53005 60006 81801 91800 333 10145 20081=
07790,1997-01-18 21:00:00,7,1021.4,0.1,93,6,15000,7.408,,,240,,,,,,,,,,,wg-a,,,,AAXX 18214 07790 12465 /2404 10070 20060 30199 40214 52001 60006 81801 92100=
07790,1997-01-19 00:00:00,7,1020.9,-0.5,93,6,15000,7.408,,,250,,,,,,,,,,,wg-a,,,,AAXX 19004 07790 12465 72504 10070 20060 30194 40209 58005 60006 81854 90000=
07790,1997-01-19 03:00:00,7,1020.3,-0.6,93,6,15000,3.704,,,260,,,,,,,,,,,wg-a,,,,AAXX 19034 07790 12465 82602 10070 20060 30188 40203 56006 60006 8557/ 90300=
07790,1997-01-19 06:00:00,9,1019.4,-0.9,93,8,12000,3.704,,,350,5.9,8.8,,,,,,,,61,wg-a,,,,AAXX 19064 07790 02262 83502 10090 20080 30179 40194 56009 61000 76162 875// 90600 333 10088 20059 6003=
07790,1997-01-19 09:00:00,10,1019.3,-0.1,93,9,10000,14.816,,,220,,,,,,,,,,61,wg-a,,,,AAXX 19094 07790 02460 82208 10100 20090 30178 40193 57001 61000 76162 8587/ 90900 333 ////=
07790,1997-01-19 12:00:00,13,1018,-1.2,82,10,10000,0,,,0,,,,,,,,,,1,wg-a,,,,AAXX 19124 07790 02460 70000 10130 20100 30166 40180 58012 61000 70162 8377/ 91200 333 6100=
07790,1997-01-19 15:00:00,13,1017.6,-0.5,88,11,8000,3.704,,,310,,,,0,,,,,,60,wg-a,,,,AAXX 19154 07790 12458 83102 10130 20110 30161 40176 57005 60007 76062 8377/ 91500=
07790,1997-01-19 18:00:00,11,1017.9,0.3,94,10,15000,7.408,,,300,8.5,13.2,,,,,,,,1,wg-a,,,,AAXX 19184 07790 02465 73004 10110 20100 30164 40179 52003 60006 70162 8457/ 91800 333 10132 20085 61000=
07790,1997-01-19 21:00:00,11,1017.9,-0,94,10,15000,7.408,,,220,,,,,,,,,,,wg-a,,,,AAXX 19214 07790 12465 82204 10110 20100 30164 40179 54000 60006 8657/ 92100=
07790,1997-01-20 00:00:00,10,1017.7,-0.2,93,9,15000,7.408,,,230,,,,,,,,,,,wg-a,,,,AAXX 20004 07790 12465 72304 10100 20090 30162 40177 58002 60006 8457/ 90000=
07790,1997-01-20 03:00:00,9,1016.8,-0.9,93,8,10000,0,,,0,,,,0,,,,,,61,wg-a,,,,AAXX 20034 07790 12460 80000 10090 20080 30153 40168 56009 60007 76162 8657/ 90300=
07790,1997-01-20 06:00:00,9,1016.7,-0.1,93,8,10000,3.704,,,220,8.9,11.6,,,,,,,,1,wg-a,,,,AAXX 20064 07790 02460 72202 10090 20080 30152 40167 57001 60006 70162 8357/ 90600 333 10116 20089 60004=
07790,1997-01-20 09:00:00,11,1017.6,0.9,94,10,12000,3.704,,,260,,,,,,,,,,,wg-a,,,,AAXX 20094 07790 12462 72602 10110 20100 30161 40176 53009 60006 82532 90900=
07790,1997-01-20 12:00:00,16,1017.3,-0.2,77,12,11000,18.52,,,160,,,,,,,,,,,wg-a,,,,AAXX 20124 07790 12/61 /1610 10160 20120 30159 40173 58002 60006 91200=
07790,1997-01-20 15:00:00,14,1018.3,1,94,13,12000,14.816,,,140,,,,,,,,,,,wg-a,,,,AAXX 20154 07790 12562 81408 10140 20130 30169 40183 53010 60006 84572 91500=
07790,1997-01-20 18:00:00,14,1019.9,1.6,94,13,8000,11.112,,,160,8.6,16.2,,,,,,,,,wg-a,,,,AAXX 20184 07790 12558 81606 10140 20130 30185 40199 51016 60006 875// 91800 333 10162 20086=
07790,1997-01-20 21:00:00,14,1021.1,1.2,94,13,500,7.408,,,140,,,,,,,,,,,wg-a,,,,AAXX 20214 07790 12300 81404 10140 20130 30197 40211 53012 60006 875// 92100=
07790,1997-01-21 00:00:00,13,1021.6,0.4,94,12,6000,0,,,0,,,,,,,,,,,wg-a,,,,AAXX 21004 07790 12456 80000 10130 20120 30201 40216 53004 60006 875// 90000=
07790,1997-01-21 03:00:00,12,1022.1,0.5,100,12,7000,7.408,,,350,,,,,,,,,,,wg-a,,,,AAXX 21034 07790 12357 83504 10120 20120 30206 40221 51005 60006 875// 90300=
07790,1997-01-21 06:00:00,12,1023,0.9,94,11,10000,3.704,,,270,11.6,13.7,,,,,,,,,wg-a,,,,AAXX 21064 07790 02360 82702 10120 20110 30215 40230 53009 60006 875// 90600 333 10137 20116 60004=
07790,1997-01-21 09:00:00,13,1024.6,1.6,82,10,12000,7.408,,,220,,,,,,,,,,,wg-a,,,,AAXX 21094 07790 12562 82204 10130 20100 30231 40246 51016 60006 8687/ 90900=
07790,1997-01-21 12:00:00,15,1024.8,0.3,88,13,8000,14.816,,,140,,,,,,,,,,,wg-a,,,,AAXX 21124 07790 12558 71408 10150 20130 30234 40248 50003 60006 878// 91200=
07790,1997-01-21 15:00:00,15,1025.6,0.8,88,13,6000,14.816,,,160,,,,,,,,,,,wg-a,,,,AAXX 21154 07790 12556 71608 10150 20130 30242 40256 53008 60006 878// 91500=
07790,1997-01-21 18:00:00,14,1026.9,1.2,94,13,500,7.408,,,180,11.3,15.6,,,,,,,,,wg-a,,,,AAXX 21184 07790 12200 81804 10140 20130 30254 40269 53012 60006 885// 91800 333 10156 20113=
07790,1997-01-21 21:00:00,14,1027.8,0.9,94,13,500,11.112,,,160,,,,,,,,,,,wg-a,,,,AAXX 21214 07790 12200 81606 10140 20130 30263 40278 51009 60006 885// 92100=
07790,1997-01-22 00:00:00,12,1028.1,0.3,94,11,3500,3.704,,,210,,,,,,,,,,10,wg-a,,,,AAXX 22004 07790 12235 82102 10120 20110 30266 40281 50003 60006 71022 8657/ 90000=
07790,1997-01-22 03:00:00,12,1028.4,0.3,94,11,500,7.408,,,220,,,,,,,,,,,wg-a,,,,AAXX 22034 07790 12100 82204 10120 20110 30269 40284 52003 60006 885// 90300=
07790,1997-01-22 06:00:00,12,1028.4,-0,100,12,7000,7.408,,,230,11,14,,,,,,,,,wg-a,,,,AAXX 22064 07790 02257 72304 10120 20120 30269 40284 55000 60006 875// 90600 333 10140 20110 60004=
07790,1997-01-22 09:00:00,14,1029.3,0.9,88,12,7000,14.816,,,160,,,,,,,,,,,wg-a,,,,AAXX 22094 07790 12/57 /1608 10140 20120 30278 40293 51009 60006 90900=
07790,1997-01-22 12:00:00,15,1028.8,-0.5,82,12,11000,18.52,,,150,,,,,,,,,,,wg-a,,,,AAXX 22124 07790 12/61 /1510 10150 20120 30273 40288 58005 60006 91200=
07790,1997-01-22 15:00:00,14,1028.6,-0.2,88,12,10000,14.816,,,160,,,,,,,,,,,wg-a,,,,AAXX 22154 07790 12560 71608 10140 20120 30271 40286 55002 60006 83832 91500=
07790,1997-01-22 18:00:00,12,1028.3,-0.3,94,11,8000,11.112,,,160,12.1,15.1,,,,,,,,,wg-a,,,,AAXX 22184 07790 12558 51606 10120 20110 30268 40283 56003 60006 82801 91800 333 10151 20121=
07790,1997-01-22 21:00:00,12,1028.3,-0.3,94,11,8000,11.112,,,160,12.1,15.1,,,,,,,,,wg-a,,,,AAXX 22214 07790 12558 51606 10120 20110 30268 40283 56003 60006 82801 92100 333 10151 20121=
07790,1997-01-23 00:00:00,9,1027.4,-0.6,93,8,12000,3.704,,,340,,,,,,,,,,,wg-a,,,,AAXX 23004 07790 12662 /3402 10090 20080 30259 40274 56006 60006 81530 90000=
07790,1997-01-23 03:00:00,12,1027.3,-0.1,88,10,12000,7.408,,,190,,,,0,,,,,,,wg-a,,,,AAXX 23034 07790 12462 21904 10120 20100 30258 40273 57001 60007 81530 90300=
07790,1997-01-23 06:00:00,12,1027.6,0.3,94,11,12000,22.224,,,160,8.6,12.3,,,,,,,,,wg-a,,,,AAXX 23064 07790 02562 /1612 10120 20110 30261 40276 53003 60006 82530 90600 333 10123 20086 60004=
07790,1997-01-23 09:00:00,14,1028.5,0.9,88,12,500,22.224,,,150,,,,0,,,,,,,wg-a,,,,AAXX 23094 07790 12400 51512 10140 20120 30270 40285 51009 60007 85200 90900=
07790,1997-01-23 12:00:00,16,1027.5,-0.9,77,12,7000,25.928,,,150,,,,,,,,,,,wg-a,,,,AAXX 23124 07790 12457 51514 10160 20120 30261 40275 58009 60006 82541 91200=
07790,1997-01-23 18:00:00,13,1026.9,0.3,94,12,7000,25.928,,,160,12.1,15.6,,,,,,,,,wg-a,,,,AAXX 23184 07790 12357 61614 10130 20120 30254 40269 52003 60006 83735 91800 333 10156 20121=
07790,1997-01-23 21:00:00,13,1026.8,-0.1,94,12,10000,22.224,,,160,,,,,,,,,,,wg-a,,,,AAXX 23214 07790 12460 71612 10130 20120 30253 40268 58001 60006 8473/ 92100=
07790,1997-01-24 00:00:00,13,1026.8,0,88,11,10000,18.52,,,150,,,,,,,,,,,wg-a,,,,AAXX 24004 07790 12460 71510 10130 20110 30253 40268 50000 60006 8473/ 90000=
07790,1997-01-24 03:00:00,12,1026.4,-0.4,88,10,6000,7.408,,,180,,,,,,,,,,,wg-a,,,,AAXX 24034 07790 12356 71804 10120 20100 30249 40264 58004 60006 8573/ 90300=
07790,1997-01-24 06:00:00,11,1026.2,-0.2,94,10,8000,7.408,,,180,10.8,13.5,,,,,,,,,wg-a,,,,AAXX 24064 07790 02458 /1804 10110 20100 30247 40262 55002 60006 8583/ 90600 333 10135 20108 60004=
07790,1997-01-24 09:00:00,14,1027.3,1.1,88,12,9000,14.816,,,160,,,,,,,,,,,wg-a,,,,AAXX 24094 07790 12459 /1608 10140 20120 30258 40273 51011 60006 84830 90900=
07790,1997-01-24 12:00:00,16,1026.1,-1.1,77,12,15000,29.632,,,150,,,,,,,,,,,wg-a,,,,AAXX 24124 07790 12565 51516 10160 20120 30247 40261 58011 60006 82131 91200=
07790,1997-01-24 15:00:00,14,1025.4,-0.8,88,12,15000,25.928,,,140,,,,,,,,,,,wg-a,,,,AAXX 24154 07790 12565 51414 10140 20120 30239 40254 56008 60006 82131 91500=
07790,1997-01-24 18:00:00,12,1026.5,1.1,94,11,10000,3.704,,,230,10.3,16.4,,,,,,,,,wg-a,,,,AAXX 24184 07790 12560 /2302 10120 20110 30250 40265 53011 60006 82131 91800 333 10164 20103=
07790,1997-01-25 00:00:00,11,1027.2,-0.3,87,9,12000,7.408,,,220,,,,,,,,,,,wg-a,,,,AAXX 25004 07790 12362 72204 10110 20090 30257 40272 57003 60006 8577/ 90000=
07790,1997-01-25 03:00:00,11,1026.6,-0.6,94,10,8000,3.704,,,240,,,,,,,,,,,wg-a,,,,AAXX 25034 07790 12358 72402 10110 20100 30251 40266 56006 60006 8577/ 90300=
07790,1997-01-25 06:00:00,11,1026.2,-0.4,87,9,10000,3.704,,,230,10,12.1,,,,,,,,1,wg-a,,,,AAXX 25064 07790 02360 72302 10110 20090 30247 40262 56004 60006 70162 8557/ 90600 333 10121 20100 61000=
07790,1997-01-25 09:00:00,12,1026.3,0.1,94,11,7000,0,,,0,,,,,,,,,,,wg-a,,,,AAXX 25094 07790 12457 50000 10120 20110 30248 40263 53001 60006 82750 90900=
07790,1997-01-25 12:00:00,16,1025.1,-1.1,82,13,8000,11.112,,,100,,,,,,,,,,,wg-a,,,,AAXX 25124 07790 12458 /1006 10160 20130 30237 40251 58011 60006 83155 91200=
07790,1997-01-25 15:00:00,14,1023.9,-1.2,94,13,500,7.408,,,20,,,,,,,,,,,wg-a,,,,AAXX 25154 07790 12300 70204 10140 20130 30225 40239 56012 60006 8373/ 91500=
07790,1997-01-25 18:00:00,11,1024,-0,94,10,1000,7.408,,,270,9.7,16.4,,,,,,,,10,wg-a,,,,AAXX 25184 07790 12310 /2704 10110 20100 30225 40240 54000 60006 71022 82730 91800 333 10164 20097=
07790,1997-01-25 21:00:00,10,1023.9,-0.1,93,9,6000,3.704,,,300,,,,,,,,,,11,wg-a,,,,AAXX 25214 07790 12356 /3002 10100 20090 30224 40239 58001 60006 71111 84630 92100=
07790,1997-01-26 00:00:00,8,1023.5,-0.4,93,7,7000,11.112,,,240,,,,,,,,,,11,wg-a,,,,AAXX 26004 07790 12457 42406 10080 20070 30220 40235 58004 60006 71111 82630 90000=
07790,1997-01-26 03:00:00,7,1023,-0.5,93,6,10000,7.408,,,270,,,,,,,,,,,wg-a,,,,AAXX 26034 07790 12460 32704 10070 20060 30215 40230 56005 60006 82530 90300=
07790,1997-01-26 06:00:00,8,1023.2,0.2,87,6,10000,7.408,,,240,7,11,,,,,,,,,wg-a,,,,AAXX 26064 07790 02460 /2404 10080 20060 30217 40232 53002 60006 86530 90600 333 10110 20070 60004=
07790,1997-01-26 09:00:00,10,1024.2,1,82,7,13000,3.704,,,250,,,,,,,,,,,wg-a,,,,AAXX 26094 07790 12463 72502 10100 20070 30227 40242 51010 60006 85801 90900=
07790,1997-01-26 12:00:00,12,1024,-0.2,71,7,13000,11.112,,,20,,,,,,,,,,,wg-a,,,,AAXX 26124 07790 12463 70206 10120 20070 30225 40240 58002 60006 86801 91200=
07790,1997-01-26 15:00:00,12,1023.7,-0.3,71,7,13000,11.112,,,10,,,,,,,,,,,wg-a,,,,AAXX 26154 07790 12463 70106 10120 20070 30222 40237 56003 60006 868// 91500=
07790,1997-01-26 18:00:00,10,1024.4,0.7,82,7,11000,7.408,,,250,7.5,12.4,,,,,,,,,wg-a,,,,AAXX 26184 07790 12/61 /2504 10100 20070 30229 40244 53007 60006 91800 333 10124 20075=
07790,1997-01-26 21:00:00,9,1025.3,0.9,81,6,11000,7.408,,,240,,,,,,,,,,,wg-a,,,,AAXX 26214 07790 12/61 /2404 10090 20060 30238 40253 52009 60006 92100=
07790,1997-01-27 00:00:00,9,1025.3,0,81,6,12000,11.112,,,240,,,,,,,,,,,wg-a,,,,AAXX 27004 07790 12462 82406 10090 20060 30238 40253 50000 60006 8487/ 90000=
07790,1997-01-27 03:00:00,9,1025.5,0.2,81,6,12000,11.112,,,230,,,,,,,,,,,wg-a,,,,AAXX 27034 07790 12462 82306 10090 20060 30240 40255 52002 60006 8487/ 90300=
07790,1997-01-27 06:00:00,8,1025.9,0.4,81,5,12000,14.816,,,240,8,9.7,,,,,,,,,wg-a,,,,AAXX 27064 07790 02562 72408 10080 20050 30244 40259 53004 60006 875// 90600 333 10097 20080 60004=
07790,1997-01-27 09:00:00,9,1027.1,1.2,76,5,15000,7.408,,,240,,,,,,,,,,,wg-a,,,,AAXX 27094 07790 12565 32404 10090 20050 30256 40271 51012 60006 83801 90900=
07790,1997-01-27 12:00:00,13,1026.9,-0.2,72,8,15000,11.112,,,40,,,,,,,,,,,wg-a,,,,AAXX 27124 07790 12565 40406 10130 20080 30254 40269 58002 60006 81204 91200=
07790,1997-01-27 15:00:00,12,1026.8,-0.1,67,6,15000,7.408,,,30,,,,,,,,,,,wg-a,,,,AAXX 27154 07790 12565 70304 10120 20060 30253 40268 55001 60006 84802 91500=
07790,1997-01-27 18:00:00,9,1027.3,0.5,81,6,15000,3.704,,,250,6.9,13.3,,,,,,,,,wg-a,,,,AAXX 27184 07790 12565 /2502 10090 20060 30258 40273 53005 60006 86502 91800 333 10133 20069=
07790,1997-01-27 21:00:00,8,1027.6,0.3,81,5,10000,0,,,0,,,,,,,,,,,wg-a,,,,AAXX 27214 07790 12560 40000 10080 20050 30261 40276 52003 60006 8257/ 92100=
07790,1997-01-28 00:00:00,7,1027.6,-0,87,5,10000,7.408,,,250,,,,,,,,,,,wg-a,,,,AAXX 28004 07790 12560 /2504 10070 20050 30261 40276 55000 60006 84870 90000=
07790,1997-01-28 03:00:00,9,1027.3,-0.3,81,6,8000,7.408,,,240,,,,,,,,,,,wg-a,,,,AAXX 28034 07790 12558 72404 10090 20060 30258 40273 57003 60006 875// 90300=
07790,1997-01-28 06:00:00,8,1027.7,0.4,87,6,8000,7.408,,,240,5.8,9.4,,,,,,,,,wg-a,,,,AAXX 28064 07790 02558 /2404 10080 20060 30262 40277 53004 60006 8457/ 90600 333 10094 20058 60004=
07790,1997-01-28 09:00:00,9,1028.9,1.2,81,6,12000,7.408,,,250,,,,,,,,,,,wg-a,,,,AAXX 28094 07790 12562 72504 10090 20060 30274 40289 51012 60006 86570 90900=
07790,1997-01-28 12:00:00,13,1029.4,0.5,72,8,15000,7.408,,,40,,,,,,,,,,,wg-a,,,,AAXX 28124 07790 12665 70404 10130 20080 30279 40294 50005 60006 86831 91200=
07790,1997-01-28 15:00:00,12,1030,0.6,82,9,15000,3.704,,,310,,,,,,,,,,,wg-a,,,,AAXX 28154 07790 12465 73102 10120 20090 30285 40300 53006 60006 878// 91500=
07790,1997-01-28 18:00:00,11,1031,1,87,9,12000,7.408,,,250,7.9,12.7,,,,,,,,,wg-a,,,,AAXX 28184 07790 12462 72504 10110 20090 30295 40310 51010 60006 878// 91800 333 10127 20079=
07790,1997-01-28 21:00:00,9,1032.2,1.2,87,7,15000,7.408,,,310,,,,,,,,,,,wg-a,,,,AAXX 28214 07790 12465 /3104 10090 20070 30307 40322 53012 60006 85500 92100=
07790,1997-01-29 00:00:00,8,1032.6,0.4,87,6,15000,7.408,,,250,,,,,,,,,,,wg-a,,,,AAXX 29004 07790 12465 12504 10080 20060 30311 40326 50004 60006 81500 90000=
07790,1997-01-29 03:00:00,7,1031.6,-1,93,6,15000,11.112,,,240,,,,,,,,,,,wg-a,,,,AAXX 29034 07790 12/65 02406 10070 20060 30301 40316 58010 60006 80000 90300=
07790,1997-01-29 06:00:00,8,1030.9,-0.7,81,5,15000,14.816,,,230,6.7,11.1,,,,,,,,,wg-a,,,,AAXX 29064 07790 02/65 02308 10080 20050 30294 40309 58007 60006 80000 90600 333 10111 20067 60004=
07790,1997-01-29 09:00:00,12,1032.6,1.7,82,9,15000,7.408,,,240,,,,,,,,,,,wg-a,,,,AAXX 29094 07790 12/65 02404 10120 20090 30311 40326 52017 60006 80000 90900=
07790,1997-01-29 12:00:00,16,1031.4,-1.2,63,9,15000,3.704,,,100,,,,,,,,,,,wg-a,,,,AAXX 29124 07790 12565 21002 10160 20090 30299 40314 58012 60006 82500 91200=
07790,1997-01-29 15:00:00,14,1030.8,-0.6,67,8,15000,3.704,,,60,,,,,,,,,,,wg-a,,,,AAXX 29154 07790 12565 20602 10140 20080 30293 40308 57006 60006 82500 91500=
07790,1997-01-29 18:00:00,9,1031.5,0.7,87,7,12000,7.408,,,250,6,16,,,,,,,,,wg-a,,,,AAXX 29184 07790 12562 /2504 10090 20070 30300 40315 53007 60006 81500 91800 333 10160 20060=
07790,1997-01-29 21:00:00,8,1032.1,0.6,87,6,15000,3.704,,,240,,,,,,,,,,,wg-a,,,,AAXX 29214 07790 12565 /2402 10080 20060 30306 40321 53006 60006 81500 92100=
07790,1997-01-30 00:00:00,8,1032.1,0,87,6,18000,11.112,,,250,,,,,,,,,,,wg-a,,,,AAXX 30004 07790 12/68 02506 10080 20060 30306 40321 50000 60006 80000 90000=
07790,1997-01-30 03:00:00,6,1031.9,-0.2,93,5,18000,14.816,,,240,,,,,,,,,,,wg-a,,,,AAXX 30034 07790 12/68 02408 10060 20050 30304 40319 58002 60006 80000 90300=
07790,1997-01-30 06:00:00,6,1031.2,-0.7,87,4,18000,11.112,,,240,5.6,9.1,,,,,,,,,wg-a,,,,AAXX 30064 07790 02/68 02406 10060 20040 30297 40312 56007 60006 80000 90600 333 10091 20056 60004=
07790,1997-01-30 09:00:00,11,1032.1,0.9,76,7,18000,11.112,,,240,,,,,,,,,,,wg-a,,,,AAXX 30094 07790 12/68 12406 10110 20070 30306 40321 52009 60006 80002 90900=
07790,1997-01-30 12:00:00,13,1031.4,-0.7,67,7,9000,11.112,,,20,,,,,,,,,,,wg-a,,,,AAXX 30124 07790 12559 30206 10130 20070 30299 40314 58007 60006 82102 91200=
07790,1997-01-30 15:00:00,13,1030.1,-1.3,58,5,8000,11.112,,,40,,,,,,,,,,,wg-a,,,,AAXX 30154 07790 12558 20406 10130 20050 30286 40301 56013 60006 81101 91500=
07790,1997-01-30 18:00:00,8,1030.5,0.4,87,6,9000,3.704,,,240,4.2,13.6,,,,,,,,,wg-a,,,,AAXX 30184 07790 12559 22402 10080 20060 30290 40305 53004 60006 81501 91800 333 10136 20042=
07790,1997-01-30 21:00:00,8,1030.4,-0.1,87,6,12000,18.52,,,250,,,,,,,,,,,wg-a,,,,AAXX 30214 07790 12562 22510 10080 20060 30289 40304 57001 60006 81501 92100=
07790,1997-01-31 00:00:00,7,1029.9,-0.5,87,5,12000,18.52,,,250,,,,,,,,,,,wg-a,,,,AAXX 31004 07790 12562 22510 10070 20050 30284 40299 58005 60006 81501 90000=
07790,1997-01-31 03:00:00,6,1029.3,-0.6,87,4,12000,14.816,,,240,,,,,,,,,,,wg-a,,,,AAXX 31034 07790 12562 22408 10060 20040 30278 40293 58006 60006 81501 90300=
07790,1997-01-31 09:00:00,10,1029.6,0.2,71,5,11000,11.112,,,240,,,,,,,,,,,wg-a,,,,AAXX 31094 07790 12/61 /2406 10100 20050 30281 40296 51002 60006 90900=
07790,1997-01-31 12:00:00,15,1027.9,-1.7,48,4,12000,11.112,,,150,,,,,,,,,,,wg-a,,,,AAXX 31124 07790 12562 51506 10150 20040 30264 40279 58017 60006 85800 91200=
07790,1997-01-31 15:00:00,14,1026.6,-1.3,63,7,12000,14.816,,,160,,,,,,,,,,,wg-a,,,,AAXX 31154 07790 12562 /1608 10140 20070 30251 40266 57013 60006 86800 91500=
07790,1997-01-31 18:00:00,10,1026.5,-0.1,82,7,12000,3.704,,,280,5.4,15.9,,,,,,,,,wg-a,,,,AAXX 31184 07790 12662 32802 10100 20070 30250 40265 58001 60006 83500 91800 333 10159 20054=
07790,1997-01-31 21:00:00,7,1026.7,0.2,93,6,12000,7.408,,,250,,,,,,,,,,,wg-a,,,,AAXX 31214 07790 12662 /2504 10070 20060 30252 40267 53002 60006 85500 92100=
07790,1997-02-01 00:00:00,7,1026.3,-0.4,87,5,12000,7.408,,,210,,,,,,,,,,,wg-a,,,,AAXX 01004 07790 12662 32104 10070 20050 30248 40263 56004 60006 83500 90000=
07790,1997-02-01 03:00:00,8,1025.2,-1.1,81,5,12000,18.52,,,250,,,,,,,,,,,wg-a,,,,AAXX 01034 07790 12662 52510 10080 20050 30237 40252 58011 60006 85500 90300=
07790,1997-02-01 06:00:00,7,1025,-0.2,81,4,15000,18.52,,,240,6.7,9.6,,,,,,,,,wg-a,,,,AAXX 01064 07790 02665 32410 10070 20040 30235 40250 57002 60006 83500 90600 333 10096 20067 60004=
07790,1997-02-01 09:00:00,12,1026,1,62,5,15000,11.112,,,240,,,,,,,,,,,wg-a,,,,AAXX 01094 07790 12665 22406 10120 20050 30245 40260 51010 60006 82500 90900=
07790,1997-02-01 15:00:00,13,1024.5,-0.8,77,9,15000,7.408,,,30,,,,,,,,,,,wg-a,,,,AAXX 01154 07790 12565 30304 10130 20090 30230 40245 56008 60006 83300 91500=
07790,1997-02-01 18:00:00,10,1025,0.5,87,8,15000,7.408,,,320,6.6,14.7,,,,,,,,,wg-a,,,,AAXX 01184 07790 12565 /3204 10100 20080 30235 40250 51005 60006 86500 91800 333 10147 20066=
07790,1997-02-01 21:00:00,10,1025.5,0.5,87,8,12000,3.704,,,260,,,,,,,,,,,wg-a,,,,AAXX 01214 07790 12562 62602 10100 20080 30240 40255 53005 60006 86500 92100=
07790,1997-02-02 06:00:00,6,1024.9,-0,87,4,15000,14.816,,,240,5.7,10.4,,,,,,,,,wg-a,,,,AAXX 02064 07790 02565 22408 10060 20040 30234 40249 55000 60006 82500 90600 333 10104 20057 60004=
07790,1997-02-02 09:00:00,12,1025.9,1,67,6,16000,11.112,,,230,,,,,,,,,,,wg-a,,,,AAXX 02094 07790 12566 32306 10120 20060 30244 40259 53010 60006 82830 90900=
07790,1997-02-02 12:00:00,14,1025.8,-0.1,63,7,16000,11.112,,,110,,,,,,,,,,,wg-a,,,,AAXX 02124 07790 12566 51106 10140 20070 30243 40258 58001 60006 83231 91200=
07790,1997-02-02 15:00:00,13,1025.3,-0.5,72,8,16000,3.704,,,30,,,,,,,,,,,wg-a,,,,AAXX 02154 07790 12566 70302 10130 20080 30238 40253 56005 60006 8497/ 91500=
07790,1997-02-02 18:00:00,11,1025.8,0.5,82,8,12000,7.408,,,310,6.1,15.5,,,,,,,,,wg-a,,,,AAXX 02184 07790 12462 73104 10110 20080 30243 40258 53005 60006 8627/ 91800 333 10155 20061=
07790,1997-02-02 21:00:00,10,1026,0.2,82,7,10000,7.408,,,250,,,,,,,,,,,wg-a,,,,AAXX 02214 07790 12560 72504 10100 20070 30245 40260 52002 60006 8657/ 92100=
07790,1997-02-03 00:00:00,9,1025.3,-0.7,87,7,10000,11.112,,,240,,,,,,,,,,,wg-a,,,,AAXX 03004 07790 12560 72406 10090 20070 30238 40253 58007 60006 875// 90000=
07790,1997-02-03 03:00:00,8,1024.9,-0.4,87,6,10000,7.408,,,240,,,,,,,,,,,wg-a,,,,AAXX 03034 07790 12660 /2404 10080 20060 30234 40249 58004 60006 83500 90300=
07790,1997-02-03 06:00:00,7,1024.9,-0,87,5,10000,14.816,,,240,6.8,11.3,,,,,,,,,wg-a,,,,AAXX 03064 07790 02460 /2408 10070 20050 30234 40249 55000 60006 83800 90600 333 10113 20068 60004=
07790,1997-02-03 09:00:00,11,1025.6,0.7,66,5,11000,11.112,,,240,,,,,,,,,,,wg-a,,,,AAXX 03094 07790 12/61 /2406 10110 20050 30241 40256 53007 60006 90900=
07790,1997-02-03 12:00:00,14,1025.3,-0.3,63,7,15000,7.408,,,100,,,,,,,,,,,wg-a,,,,AAXX 03124 07790 12565 41004 10140 20070 30238 40253 58003 60006 84800 91200=
07790,1997-02-03 15:00:00,12,1025,-0.3,76,8,15000,3.704,,,340,,,,,,,,,,,wg-a,,,,AAXX 03154 07790 12565 63402 10120 20080 30235 40250 55003 60006 86800 91500=
07790,1997-02-03 18:00:00,10,1025.8,0.8,87,8,12000,3.704,,,270,6.4,15.3,,,,,,,,,wg-a,,,,AAXX 03184 07790 12562 72702 10100 20080 30243 40258 53008 60006 87800 91800 333 10153 20064=
07790,1997-02-03 21:00:00,8,1026.3,0.5,93,7,18000,7.408,,,280,,,,,,,,,,,wg-a,,,,AAXX 03214 07790 12568 /2804 10080 20070 30248 40263 51005 60006 86800 92100=
07790,1997-02-04 00:00:00,7,1026.4,0.1,87,5,18000,7.408,,,250,,,,,,,,,,,wg-a,,,,AAXX 04004 07790 12/68 02504 10070 20050 30249 40264 50001 60006 80000 90000=
07790,1997-02-04 03:00:00,8,1026.2,-0.2,76,4,25000,18.52,,,240,,,,,,,,,,,wg-a,,,,AAXX 04034 07790 12/75 02410 10080 20040 30247 40262 58002 60006 80000 90300=
07790,1997-02-04 06:00:00,6,1026.4,0.2,81,3,25000,11.112,,,240,5.5,9.6,,,,,,,,,wg-a,,,,AAXX 04064 07790 02675 22406 10060 20030 30249 40264 53002 60006 81530 90600 333 10096 20055 60004=
07790,1997-02-04 09:00:00,11,1027.3,0.9,62,4,12000,14.816,,,240,,,,,,,,,,,wg-a,,,,AAXX 04094 07790 12862 22408 10110 20040 30258 40273 51009 60006 82030 90900=
07790,1997-02-04 12:00:00,15,1026.6,-0.7,63,8,15000,14.816,,,120,,,,,,,,,,,wg-a,,,,AAXX 04124 07790 12665 31208 10150 20080 30251 40266 58007 60006 82830 91200=
07790,1997-02-04 15:00:00,13,1026,-0.6,72,8,15000,7.408,,,120,,,,,,,,,,4,wg-a,,,,AAXX 04154 07790 12565 /1204 10130 20080 30245 40260 56006 60006 70411 86800 91500=
07790,1997-02-04 18:00:00,9,1026.6,0.6,93,8,12000,3.704,,,250,5.6,15.9,,,,,,,,,wg-a,,,,AAXX 04184 07790 12762 32502 10090 20080 30251 40266 53006 60006 82530 91800 333 10159 20056=
07790,1997-02-04 21:00:00,7,1027.2,0.6,93,6,11000,11.112,,,230,,,,,,,,,,,wg-a,,,,AAXX 04214 07790 12/61 /2306 10070 20060 30257 40272 51006 60006 92100=
07790,1997-02-05 00:00:00,6,1027.1,-0.1,87,4,12000,11.112,,,240,,,,,,,,,,,wg-a,,,,AAXX 05004 07790 12662 /2406 10060 20040 30256 40271 56001 60006 81500 90000=
07790,1997-02-05 03:00:00,6,1026.1,-1,87,4,12000,11.112,,,240,,,,,,,,,,,wg-a,,,,AAXX 05034 07790 12662 /2406 10060 20040 30246 40261 58010 60006 81500 90300=
07790,1997-02-05 06:00:00,7,1025.1,-1,81,4,12000,14.816,,,230,5.7,9.2,,,,,,,,,wg-a,,,,AAXX 05064 07790 02562 /2308 10070 20040 30236 40251 56010 60006 86500 90600 333 10092 20057 60004=
07790,1997-02-05 09:00:00,12,1024.8,-0.3,71,7,12000,7.408,,,220,,,,,,,,,,,wg-a,,,,AAXX 05094 07790 12562 22204 10120 20070 30233 40248 56003 60006 82540 90900=
07790,1997-02-05 12:00:00,16,1023.1,-1.6,59,8,20000,11.112,,,140,,,,,,,,,,,wg-a,,,,AAXX 05124 07790 12570 71406 10160 20080 30217 40231 58016 60006 82574 91200=
07790,1997-02-05 15:00:00,14,1020.8,-2.3,77,10,20000,11.112,,,150,,,,,,,,,,,wg-a,,,,AAXX 05154 07790 12570 71506 10140 20100 30194 40208 56023 60006 83576 91500=
07790,1997-02-05 18:00:00,12,1019.6,-1.3,88,10,20000,3.704,,,230,6.9,16.3,,,,,,,,,wg-a,,,,AAXX 05184 07790 12570 72302 10120 20100 30181 40196 58013 60006 8257/ 91800 333 10163 20069=
07790,1997-02-05 21:00:00,10,1018.2,-1.4,93,9,20000,7.408,,,200,,,,,,,,,,,wg-a,,,,AAXX 05214 07790 12470 42004 10100 20090 30167 40182 58014 60006 81530 92100=
07790,1997-02-06 00:00:00,11,1016.8,-1.4,87,9,11000,7.408,,,310,,,,,,,,,,,wg-a,,,,AAXX 06004 07790 12/61 /3104 10110 20090 30153 40168 56014 60006 90000=
07790,1997-02-06 03:00:00,11,1016.6,-0.2,76,7,15000,18.52,,,330,,,,3,,,,,,17,wg-a,,,,AAXX 06034 07790 12465 83310 10110 20070 30151 40166 56002 60037 71796 879// 90300=
07790,1997-02-06 06:00:00,10,1020.5,3.9,93,9,7000,38.892,,75.932,10,9.1,12.6,,,,,,,,61,wg-a,,,,AAXX 06064 07790 02457 80121 10100 20090 30190 40205 53039 61000 76196 8597/ 90600 333 10126 20091 6014 91041=
07790,1997-02-06 09:00:00,12,1025,4.5,67,6,15000,31.484,,,30,,,,1,,,,,,1,wg-a,,,,AAXX 06094 07790 12465 80317 10120 20060 30235 40250 51045 60017 70162 8697/ 90900=
07790,1997-02-06 12:00:00,12,1027.3,2.3,67,6,9000,29.632,,,20,,,,,,,,,,3,wg-a,,,,AAXX 06124 07790 12559 70216 10120 20060 30258 40273 51023 60016 70362 8697/ 91200=
07790,1997-02-06 15:00:00,12,1028.1,0.8,67,6,15000,18.52,,,10,,,,,,,,,,,wg-a,,,,AAXX 06154 07790 12565 70110 10120 20060 30266 40281 53008 60006 8487/ 91500=
07790,1997-02-06 18:00:00,11,1030.4,2.3,71,6,17000,14.816,,,340,9.7,12.5,,,,,,,,,wg-a,,,,AAXX 06184 07790 12567 23408 10110 20060 30289 40304 53023 60006 81430 91800 333 10125 20097=
07790,1997-02-06 21:00:00,9,1031.9,1.5,66,3,17000,14.816,,,320,,,,,,,,,,,wg-a,,,,AAXX 06214 07790 12/67 03208 10090 20030 30304 40319 53015 60006 80000 92100=
07790,1997-02-07 00:00:00,8,1032.5,0.6,71,3,20000,11.112,,,310,,,,,,,,,,,wg-a,,,,AAXX 07004 07790 12/70 03106 10080 20030 30310 40325 51006 60006 80000 90000=
07790,1997-02-07 03:00:00,6,1032.8,0.3,81,3,20000,11.112,,,260,,,,,,,,,,,wg-a,,,,AAXX 07034 07790 12/70 02606 10060 20030 30313 40328 51003 60006 80000 90300=
07790,1997-02-07 06:00:00,4,1033.3,0.5,87,2,20000,11.112,,,250,4.3,10.5,,,,,1,,,,wg-a,,,,AAXX 07064 07790 02/70 02506 10040 20020 30318 40333 53005 60006 80000 90600 333 10105 20043 60014=
07790,1997-02-07 09:00:00,11,1034.7,1.4,58,3,15000,11.112,,,330,,,,,,,,,,,wg-a,,,,AAXX 07094 07790 12/65 03306 10110 20030 30332 40347 51014 60006 80000 90900=
07790,1997-02-07 12:00:00,13,1034,-0.7,51,3,20000,14.816,,,20,,,,,,,,,,,wg-a,,,,AAXX 07124 07790 12/70 00208 10130 20030 30325 40340 58007 60006 80000 91200=
07790,1997-02-07 15:00:00,13,1033.8,-0.2,54,4,20000,11.112,,,30,,,,,,,,,,,wg-a,,,,AAXX 07154 07790 12/70 00306 10130 20040 30323 40338 55002 60006 80000 91500=
07790,1997-02-07 18:00:00,7,1034.3,0.5,81,4,20000,7.408,,,240,4.1,13.3,,,,,,,,,wg-a,,,,AAXX 07184 07790 12/70 02404 10070 20040 30328 40343 53005 60006 80000 91800 333 10133 20041=
07790,1997-02-07 21:00:00,5,1034.2,-0.1,87,3,20000,7.408,,,260,,,,,,,,,,,wg-a,,,,AAXX 07214 07790 12/70 02604 10050 20030 30327 40342 56001 60006 80000 92100=
07790,1997-02-08 00:00:00,5,1034,-0.2,87,3,10000,11.112,,,250,,,,,,,,,,,wg-a,,,,AAXX 08004 07790 12/60 /2506 10050 20030 30325 40340 56002 60006 90000=
07790,1997-02-08 03:00:00,5,1033.5,-0.5,81,2,20000,14.816,,,240,,,,,,,,,,,wg-a,,,,AAXX 08034 07790 12/70 02408 10050 20020 30320 40335 57005 60006 80000 90300=
07790,1997-02-08 06:00:00,5,1033.7,0.2,81,2,20000,14.816,,,240,4.7,7.4,,,,,,,,,wg-a,,,,AAXX 08064 07790 02/70 02408 10050 20020 30322 40337 53002 60006 80000 90600 333 10074 20047 60004=
07790,1997-02-08 09:00:00,11,1034.2,0.5,58,3,25000,14.816,,,240,,,,,,,,,,,wg-a,,,,AAXX 08094 07790 12/75 02408 10110 20030 30327 40342 51005 60006 80000 90900=
07790,1997-02-08 12:00:00,14,1033.4,-0.8,51,4,25000,11.112,,,30,,,,,,,,,,,wg-a,,,,AAXX 08124 07790 12/75 10306 10140 20040 30319 40334 58008 60006 80001 91200=
07790,1997-02-08 15:00:00,14,1032.1,-1.3,58,6,15000,7.408,,,40,,,,,,,,,,,wg-a,,,,AAXX 08154 07790 12/65 10404 10140 20060 30306 40321 56013 60006 80001 91500=
07790,1997-02-08 18:00:00,9,1032.5,0.4,81,6,10000,7.408,,,240,4.7,15.5,,,,,,,,,wg-a,,,,AAXX 08184 07790 12/60 12404 10090 20060 30310 40325 53004 60006 80001 91800 333 10155 20047=
07790,1997-02-08 21:00:00,8,1032.7,0.2,81,5,15000,22.224,,,230,,,,,,,,,,,wg-a,,,,AAXX 08214 07790 12/65 02312 10080 20050 30312 40327 52002 60006 80000 92100=
07790,1997-02-09 00:00:00,7,1032.6,-0.1,70,2,15000,14.816,,,240,,,,,,,,,,,wg-a,,,,AAXX 09004 07790 12/65 02408 10070 20020 30311 40326 58001 60006 80000 90000=
07790,1997-02-09 03:00:00,6,1031.9,-0.7,70,1,15000,25.928,,,240,,,,,,,,,,,wg-a,,,,AAXX 09034 07790 12/65 02414 10060 20010 30304 40319 58007 60006 80000 90300=
07790,1997-02-09 06:00:00,5,1031.8,-0.1,70,0,15000,22.224,,,240,4.6,9.3,,,,,,,,,wg-a,,,,AAXX 09064 07790 02565 12412 10050 20000 30303 40318 55001 60006 81500 90600 333 10093 20046 60004=
07790,1997-02-09 09:00:00,12,1032.5,0.7,54,3,25000,18.52,,,240,,,,,,,,,,,wg-a,,,,AAXX 09094 07790 12675 /2410 10120 20030 30310 40325 50007 60006 81500 90900=
07790,1997-02-09 12:00:00,16,1031.9,-0.6,51,6,25000,7.408,,,120,,,,,,,,,,,wg-a,,,,AAXX 09124 07790 12675 21204 10160 20060 30304 40319 58006 60006 81501 91200=
07790,1997-02-09 15:00:00,15,1031,-0.9,63,8,25000,7.408,,,250,,,,,,,,,,,wg-a,,,,AAXX 09154 07790 12575 32504 10150 20080 30295 40310 56009 60006 83501 91500=
07790,1997-02-09 18:00:00,11,1031.6,0.6,82,8,15000,3.704,,,200,4.9,16.5,,,,,,,,,wg-a,,,,AAXX 09184 07790 12565 /2002 10110 20080 30301 40316 51006 60006 85501 91800 333 10165 20049=
07790,1997-02-09 21:00:00,8,1032.2,0.6,93,7,15000,7.408,,,240,,,,,,,,,,,wg-a,,,,AAXX 09214 07790 12565 /2404 10080 20070 30307 40322 52006 60006 85500 92100=
07790,1997-02-10 00:00:00,7,1031.8,-0.4,87,5,15000,11.112,,,230,,,,,,,,,,,wg-a,,,,AAXX 10004 07790 12565 /2306 10070 20050 30303 40318 56004 60006 81500 90000=
07790,1997-02-10 03:00:00,7,1030.8,-1,87,5,15000,18.52,,,240,,,,0,,,,,,,wg-a,,,,AAXX 10034 07790 12565 /2410 10070 20050 30293 40308 58010 60007 81500 90300=
07790,1997-02-10 06:00:00,7,1030.6,-0.2,87,5,12000,18.52,,,240,6.4,10.6,,,,,,,,,wg-a,,,,AAXX 10064 07790 02662 52410 10070 20050 30291 40306 55002 60006 83502 90600 333 10106 20064 60004=
07790,1997-02-10 09:00:00,11,1031.1,0.5,76,7,12000,14.816,,,240,,,,,,,,,,,wg-a,,,,AAXX 10094 07790 12662 /2408 10110 20070 30296 40311 51005 60006 86500 90900=
07790,1997-02-10 12:00:00,15,1030.3,-0.8,55,6,12000,7.408,,,140,,,,,,,,,,,wg-a,,,,AAXX 10124 07790 12662 61404 10150 20060 30288 40303 58008 60006 84501 91200=
07790,1997-02-10 15:00:00,14,1029.4,-0.9,63,7,12000,7.408,,,170,,,,,,,,,,,wg-a,,,,AAXX 10154 07790 12662 61704 10140 20070 30279 40294 55009 60006 85501 91500=
07790,1997-02-10 18:00:00,12,1029.5,0.1,76,8,12000,3.704,,,180,7.4,16.1,,,,,,,,,wg-a,,,,AAXX 10184 07790 12662 71802 10120 20080 30280 40295 52001 60006 875// 91800 333 10161 20074=
07790,1997-02-10 21:00:00,9,1029.5,-0,87,7,12000,7.408,,,240,,,,,,,,,,,wg-a,,,,AAXX 10214 07790 12662 72404 10090 20070 30280 40295 55000 60006 875// 92100=
07790,1997-02-11 00:00:00,7,1029.6,0.1,87,5,12000,7.408,,,240,,,,,,,,,,,wg-a,,,,AAXX 11004 07790 12662 32404 10070 20050 30281 40296 53001 60006 83500 90000=
07790,1997-02-11 03:00:00,7,1028.3,-1.3,87,5,12000,18.52,,,240,,,,,,,,,,,wg-a,,,,AAXX 11034 07790 12662 32410 10070 20050 30268 40283 57013 60006 83500 90300=
07790,1997-02-11 06:00:00,7,1027.8,-0.5,81,4,12000,14.816,,,240,6.4,12,,,,,,,,,wg-a,,,,AAXX 11064 07790 02662 22408 10070 20040 30263 40278 55005 60006 81531 90600 333 10120 20064 60004=
07790,1997-02-11 09:00:00,12,1028.3,0.5,67,6,15000,3.704,,,220,,,,,,,,,,,wg-a,,,,AAXX 11094 07790 12665 /2202 10120 20060 30268 40283 51005 60006 81542 90900=
07790,1997-02-11 12:00:00,15,1027.4,-0.9,55,6,20000,14.816,,,150,,,,,,,,,,,wg-a,,,,AAXX 11124 07790 12670 /1508 10150 20060 30259 40274 58009 60006 81542 91200=
07790,1997-02-11 15:00:00,15,1026.2,-1.2,63,8,20000,14.816,,,150,,,,,,,,,,,wg-a,,,,AAXX 11154 07790 12670 /1508 10150 20080 30247 40262 56012 60006 81546 91500=
07790,1997-02-11 18:00:00,9,1026.2,-0,87,7,12000,7.408,,,250,5.5,15.9,,,,,,,,,wg-a,,,,AAXX 11184 07790 12562 /2504 10090 20070 30247 40262 55000 60006 81506 91800 333 10159 20055=
07790,1997-02-11 21:00:00,7,1025.9,-0.3,87,5,15000,7.408,,,240,,,,,,,,,,,wg-a,,,,AAXX 11214 07790 12/65 22404 10070 20050 30244 40259 57003 60006 80001 92100=
07790,1997-02-12 00:00:00,7,1025.2,-0.7,87,5,16000,11.112,,,230,,,,,,,,,,,wg-a,,,,AAXX 12004 07790 12/66 02306 10070 20050 30237 40252 57007 60006 80000 90000=
07790,1997-02-12 03:00:00,6,1023.6,-1.6,87,4,16000,7.408,,,230,,,,,,,,,,,wg-a,,,,AAXX 12034 07790 12/66 02304 10060 20040 30221 40236 58016 60006 80000 90300=
07790,1997-02-12 06:00:00,5,1023.5,-0.1,93,4,20000,7.408,,,240,4.7,9.3,,,,,,,,,wg-a,,,,AAXX 12064 07790 02/70 /2404 10050 20040 30220 40235 56001 60006 81031 90600 333 10093 20047 60004=
07790,1997-02-12 09:00:00,13,1023.6,0.1,72,8,10000,3.704,,,220,,,,0,,,,,,,wg-a,,,,AAXX 12094 07790 12560 /2202 10130 20080 30221 40236 50001 60007 81531 90900=
07790,1997-02-12 12:00:00,17,1022,-1.5,63,10,20000,7.408,,,120,,,,,,,,,,,wg-a,,,,AAXX 12124 07790 12570 /1204 10170 20100 30206 40220 58015 60006 81801 91200=
07790,1997-02-12 15:00:00,15,1020.7,-1.3,82,12,20000,7.408,,,100,,,,,,,,,,,wg-a,,,,AAXX 12154 07790 12570 /1004 10150 20120 30193 40207 56013 60006 81552 91500=
07790,1997-02-12 18:00:00,11,1020.4,-0.4,87,9,8000,7.408,,,210,5.1,16.9,,,,,,,,,wg-a,,,,AAXX 12184 07790 12/58 /2104 10110 20090 30189 40204 55004 60006 91800 333 10169 20051=
07790,1997-02-12 21:00:00,8,1020.2,-0.2,87,6,12000,7.408,,,240,,,,,,,,,,,wg-a,,,,AAXX 12214 07790 12662 52404 10080 20060 30187 40202 58002 60006 81542 92100=
07790,1997-02-13 00:00:00,9,1019.2,-1,81,6,12000,7.408,,,230,,,,,,,,,,,wg-a,,,,AAXX 13004 07790 12662 52304 10090 20060 30177 40192 58010 60006 81542 90000=
07790,1997-02-13 03:00:00,6,1016.7,-2.5,87,4,15000,3.704,,,270,,,,,,,,,,,wg-a,,,,AAXX 13034 07790 12665 32702 10060 20040 30152 40167 57025 60006 81542 90300=
07790,1997-02-13 06:00:00,6,1015.6,-1.1,93,5,25000,7.408,,,240,5.1,11.1,,,,,,,,,wg-a,,,,AAXX 13064 07790 02575 22404 10060 20050 30141 40156 58011 60006 81502 90600 333 10111 20051 60004=
07790,1997-02-13 09:00:00,14,1015,-0.5,82,11,25000,11.112,,,160,,,,,,,,,,,wg-a,,,,AAXX 13094 07790 12575 21606 10140 20110 30136 40150 58005 60006 81141 90900=
07790,1997-02-13 12:00:00,16,1012.5,-2.5,72,11,25000,11.112,,,130,,,,,,,,,,,wg-a,,,,AAXX 13124 07790 12475 71306 10160 20110 30111 40125 58025 60006 82842 91200=
07790,1997-02-13 18:00:00,18,1007.8,-1.8,30,0,25000,50.004,,81.488,270,6.4,18.9,,,,,,,,,wg-a,,,,AAXX 13184 07790 12475 72727 10180 20000 30064 40078 56018 60006 82842 91800 333 10189 20064 91044=
07790,1997-02-13 21:00:00,17,1008.2,0.4,23,-4,25000,38.892,,92.6,280,,,,,,,,,,,wg-a,,,,AAXX 13214 07790 12575 /2821 10170 21040 30068 40082 52004 60006 81101 92100 333 91050=
07790,1997-02-14 00:00:00,16,1010.8,2.6,20,-7,25000,22.224,,64.82,260,,,,,,,,,,,wg-a,,,,AAXX 14004 07790 12/75 12612 10160 21070 30094 40108 51026 60006 81040 90000 333 91035=
07790,1997-02-14 03:00:00,12,1011.5,0.7,44,0,25000,35.188,,55.56,310,,,,,,,,,,,wg-a,,,,AAXX 14034 07790 12/75 03119 10120 20000 30101 40115 51007 60006 80000 90300 333 91030=
07790,1997-02-14 06:00:00,11,1011,-0.6,47,0,25000,18.52,,72.228,350,10.6,17.9,,,,,,,,,wg-a,,,,AAXX 14064 07790 02575 53510 10110 20000 30095 40110 58006 60006 81141 90600 333 10179 20106 60004 91039=
07790,1997-02-14 09:00:00,15,1011.4,0.5,44,3,40000,14.816,,,150,,,,,,,,,,,wg-a,,,,AAXX 14094 07790 12682 41508 10150 20030 30100 40114 50005 60006 81141 90900=
07790,1997-02-14 12:00:00,17,1010.6,-0.8,63,10,25000,14.816,,,100,,,,,,,,,,,wg-a,,,,AAXX 14124 07790 12575 51008 10170 20100 30092 40106 58008 60006 83441 91200=
07790,1997-02-14 15:00:00,15,1009.1,-1.5,72,10,20000,11.112,,,120,,,,,,,,,,,wg-a,,,,AAXX 14154 07790 12570 71206 10150 20100 30077 40091 56015 60006 83242 91500=
07790,1997-02-14 18:00:00,13,1008.6,-0.5,88,11,20000,3.704,,,170,8.2,17.6,,,,,,,,,wg-a,,,,AAXX 14184 07790 12570 /1702 10130 20110 30072 40086 55005 60006 83542 91800 333 10176 20082=
07790,1997-02-14 21:00:00,16,1007,-1.6,55,7,500,22.224,,,270,,,,,,,,,,,wg-a,,,,AAXX 14214 07790 12500 52712 10160 20070 30056 40070 56016 60006 83541 92100=
07790,1997-02-15 00:00:00,14,1005.9,-1.1,63,7,500,7.408,,,10,,,,,,,,,,,wg-a,,,,AAXX 15004 07790 12500 30104 10140 20070 30045 40059 58011 60006 82541 90000=
07790,1997-02-15 03:00:00,12,1003.5,-2.4,71,7,11000,14.816,,,230,,,,,,,,,,,wg-a,,,,AAXX 15034 07790 12/61 /2308 10120 20070 30021 40035 58024 60006 90300=
07790,1997-02-15 06:00:00,12,1002.2,-1.3,88,10,15000,14.816,,,20,11.2,16.5,,,,,,,,60,wg-a,,,,AAXX 15064 07790 02565 70208 10120 20100 30008 40022 57013 61000 76061 8687/ 90600 333 10165 20112 6002=
07790,1997-02-15 09:00:00,12,1002.8,0.6,82,9,7000,14.816,,,340,,,,2,,,,,,60,wg-a,,,,AAXX 15094 07790 12557 73408 10120 20090 30014 40028 53006 60027 76086 8587/ 90900=
07790,1997-02-15 12:00:00,14,1001.7,-1.1,72,9,12000,14.816,,,20,,,,0,,,,,,1,wg-a,,,,AAXX 15124 07790 02562 70208 10140 20090 30003 40017 58011 60026 70186 8484/ 91200 333 60007=
07790,1997-02-15 15:00:00,15,1001.9,0.2,67,9,15000,3.704,,,170,,,,,,,,,,,wg-a,,,,AAXX 15154 07790 12565 /1702 10150 20090 30005 40019 53002 60006 82232 91500=
07790,1997-02-15 18:00:00,13,1003.5,1.6,72,8,15000,14.816,,,300,11.8,15,,,,,,,,,wg-a,,,,AAXX 15184 07790 12565 33008 10130 20080 30021 40035 53016 60006 81832 91800 333 10150 20118=
07790,1997-02-15 21:00:00,13,1004.9,1.4,72,8,15000,35.188,,57.412,300,,,,,,,,,,,wg-a,,,,AAXX 15214 07790 12665 /3019 10130 20080 30035 40049 51014 60006 81500 92100 333 91031=
07790,1997-02-16 00:00:00,12,1008.2,3.3,62,5,15000,25.928,,61.116,320,,,,,,,,,,,wg-a,,,,AAXX 16004 07790 12665 /3214 10120 20050 30068 40082 53033 60006 81500 90000 333 91033=
07790,1997-02-16 03:00:00,11,1012.8,4.5,66,5,15000,18.52,,,10,,,,,,,,,,,wg-a,,,,AAXX 16034 07790 12665 /0110 10110 20050 30113 40128 51045 60006 85500 90300=
07790,1997-02-16 06:00:00,11,1015.8,3,62,4,11000,14.816,,,30,9.9,13.3,,,,,2,,,,wg-a,,,,AAXX 16064 07790 02/61 /0308 10110 20040 30143 40158 51030 60006 90600 333 10133 20099 60024=
07790,1997-02-16 09:00:00,11,1019.6,3.8,66,5,500,14.816,,,20,,,,,,,,,,,wg-a,,,,AAXX 16094 07790 12600 70208 10110 20050 30181 40196 51038 60006 875// 90900=
07790,1997-02-16 12:00:00,13,1020.5,0.9,47,2,25000,22.224,,,10,,,,,,,,,,,wg-a,,,,AAXX 16124 07790 12675 20112 10130 20020 30190 40205 50009 60006 82500 91200=
07790,1997-02-16 15:00:00,13,1020.7,0.2,41,0,500,18.52,,,40,,,,,,,,,,,wg-a,,,,AAXX 16154 07790 12600 /0410 10130 20000 30192 40207 53002 60006 81101 91500=
07790,1997-02-16 18:00:00,7,1022.4,1.7,61,0,500,11.112,,,250,7.2,13,,,,,,,,,wg-a,,,,AAXX 16184 07790 12/00 02506 10070 20000 30209 40224 53017 60006 80000 91800 333 10130 20072=
07790,1997-02-16 21:00:00,5,1023.7,1.3,70,0,18000,11.112,,,240,,,,,,,,,,,wg-a,,,,AAXX 16214 07790 12/68 02406 10050 20000 30222 40237 53013 60006 80000 92100=
07790,1997-02-17 00:00:00,4,1023.8,0.1,75,0,18000,11.112,,,240,,,,,,,,,,,wg-a,,,,AAXX 17004 07790 12/68 12406 10040 20000 30223 40238 50001 60006 81030 90000=
07790,1997-02-17 03:00:00,4,1023.7,-0.1,70,-1,18000,11.112,,,220,,,,,,,,,,,wg-a,,,,AAXX 17034 07790 12/68 12206 10040 21010 30222 40237 58001 60006 81030 90300=
07790,1997-02-17 06:00:00,3,1024,0.3,75,-1,12000,11.112,,,230,3.3,7.2,,,,,,,,,wg-a,,,,AAXX 17064 07790 02/62 22306 10030 21010 30225 40240 50003 60006 81031 90600 333 10072 20033 60004=
07790,1997-02-17 09:00:00,10,1025.1,1.1,46,-1,35000,14.816,,,240,,,,,,,,,,,wg-a,,,,AAXX 17094 07790 12781 72408 10100 21010 30236 40251 51011 60006 82532 90900=
07790,1997-02-17 12:00:00,14,1024.3,-0.8,44,2,35000,14.816,,,150,,,,,,,,,,,wg-a,,,,AAXX 17124 07790 12681 /1508 10140 20020 30228 40243 58008 60006 82202 91200=
07790,1997-02-17 15:00:00,13,1023.8,-0.5,51,3,35000,14.816,,,140,,,,,,,,,,,wg-a,,,,AAXX 17154 07790 12681 /1408 10130 20030 30223 40238 56005 60006 86200 91500=
07790,1997-02-17 18:00:00,10,1024.7,0.9,66,4,500,3.704,,,320,3.4,14.4,,,,,,,,,wg-a,,,,AAXX 17184 07790 12600 /3202 10100 20040 30232 40247 53009 60006 85500 91800 333 10144 20034=
07790,1997-02-17 21:00:00,9,1026,1.3,81,6,25000,3.704,,,230,,,,,,,,,,,wg-a,,,,AAXX 17214 07790 12575 72302 10090 20060 30245 40260 53013 60006 875// 92100=
07790,1997-02-18 00:00:00,9,1026,-0,76,5,25000,7.408,,,230,,,,,,,,,,,wg-a,,,,AAXX 18004 07790 12575 72304 10090 20050 30245 40260 55000 60006 875// 90000=
07790,1997-02-18 03:00:00,8,1025.4,-0.6,81,5,25000,7.408,,,240,,,,,,,,,,,wg-a,,,,AAXX 18034 07790 12675 52404 10080 20050 30239 40254 57006 60006 85500 90300=
07790,1997-02-18 06:00:00,7,1025.8,0.4,81,4,25000,11.112,,,240,6,9.6,,,,,,,,,wg-a,,,,AAXX 18064 07790 02675 /2406 10070 20040 30243 40258 53004 60006 81100 90600 333 10096 20060 60004=
07790,1997-02-18 09:00:00,13,1026.8,1,54,4,500,7.408,,,210,,,,,,,,,,,wg-a,,,,AAXX 18094 07790 12600 42104 10130 20040 30253 40268 51010 60006 81504 90900=
07790,1997-02-18 12:00:00,13,1025.6,-1.2,58,5,25000,14.816,,,60,,,,,,,,,,,wg-a,,,,AAXX 18124 07790 12675 70608 10130 20050 30241 40256 58012 60006 81106 91200=
07790,1997-02-18 15:00:00,13,1023.9,-1.7,58,5,25000,14.816,,,140,,,,,,,,,,,wg-a,,,,AAXX 18154 07790 12575 71408 10130 20050 30224 40239 58017 60006 83836 91500=
07790,1997-02-18 18:00:00,10,1024.6,0.7,76,6,25000,7.408,,,240,5.9,14.9,,,,,,,,,wg-a,,,,AAXX 18184 07790 12575 72404 10100 20060 30231 40246 52007 60006 83812 91800 333 10149 20059=
07790,1997-02-18 21:00:00,9,1022.7,-1.9,76,5,20000,11.112,,,190,,,,,,,,,,,wg-a,,,,AAXX 18214 07790 12570 /1906 10090 20050 30212 40227 56019 60006 82802 92100=
07790,1997-02-19 00:00:00,9,1020.5,-2.2,76,5,20000,11.112,,,160,,,,,,,,,,,wg-a,,,,AAXX 19004 07790 12570 41606 10090 20050 30190 40205 58022 60006 82202 90000=
07790,1997-02-19 06:00:00,12,1022.2,1.9,62,5,6000,3.704,,83.34,170,7.9,15,,,,,,,,4,wg-a,,,,AAXX 19064 07790 02556 51702 10120 20050 30207 40222 53019 60006 70411 83832 90600 333 10150 20079 60004 91045=
07790,1997-02-19 09:00:00,15,1025.5,3.3,41,2,25000,25.928,,,340,,,,,,,,,,,wg-a,,,,AAXX 19094 07790 12675 23414 10150 20020 30240 40255 51033 60006 81131 90900=
07790,1997-02-19 12:00:00,16,1025.9,0.5,42,3,25000,22.224,,,30,,,,,,,,,,,wg-a,,,,AAXX 19124 07790 12675 30312 10160 20030 30245 40259 50005 60006 81131 91200=
07790,1997-02-19 15:00:00,15,1026.5,0.5,51,5,10000,14.816,,,20,,,,,,,,,,,wg-a,,,,AAXX 19154 07790 12/60 /0208 10150 20050 30250 40265 53005 60006 91500=
07790,1997-02-19 18:00:00,9,1027.9,1.4,66,3,25000,11.112,,,250,9.3,17.9,,,,,,,,,wg-a,,,,AAXX 19184 07790 12/75 22506 10090 20030 30264 40279 52014 60006 80001 91800 333 10179 20093=
07790,1997-02-19 21:00:00,8,1028.9,1,66,2,25000,7.408,,,230,,,,,,,,,,,wg-a,,,,AAXX 19214 07790 12/75 62304 10080 20020 30274 40289 53010 60006 81038 92100=
07790,1997-02-20 00:00:00,7,1029.1,0.2,76,3,10000,7.408,,,240,,,,,,,,,,,wg-a,,,,AAXX 20004 07790 12/60 /2404 10070 20030 30276 40291 53002 60006 90000=
07790,1997-02-20 03:00:00,8,1026.9,-2.2,66,2,25000,14.816,,,250,,,,,,,,,,,wg-a,,,,AAXX 20034 07790 12/75 32508 10080 20020 30254 40269 58022 60006 81032 90300=
07790,1997-02-20 06:00:00,6,1027.4,0.5,75,2,25000,11.112,,,240,5.7,9.3,,,,,,,,,wg-a,,,,AAXX 20064 07790 02/75 12406 10060 20020 30259 40274 51005 60006 80001 90600 333 10093 20057 60004=
07790,1997-02-20 09:00:00,14,1027.8,0.4,55,5,25000,7.408,,,230,,,,,,,,,,,wg-a,,,,AAXX 20094 07790 12/75 52304 10140 20050 30263 40278 52004 60006 80001 90900=
07790,1997-02-20 12:00:00,16,1027.1,-0.6,48,5,25000,7.408,,,100,,,,,,,,,,,wg-a,,,,AAXX 20124 07790 12/75 61004 10160 20050 30257 40271 58006 60006 80001 91200=
07790,1997-02-20 18:00:00,10,1026.9,0.4,87,8,12000,3.704,,,240,5.5,17,,,,,,,,,wg-a,,,,AAXX 20184 07790 12462 42402 10100 20080 30254 40269 53004 60006 81602 91800 333 10170 20055=
07790,1997-02-20 21:00:00,7,1027.3,0.4,93,6,12000,7.408,,,250,,,,,,,,,,,wg-a,,,,AAXX 20214 07790 12/62 02504 10070 20060 30258 40273 52004 60006 80000 92100=
07790,1997-02-21 00:00:00,6,1027.3,0,93,5,10000,11.112,,,240,,,,,,,,,,,wg-a,,,,AAXX 21004 07790 12/60 /2406 10060 20050 30258 40273 50000 60006 90000=
07790,1997-02-21 03:00:00,5,1027,-0.3,93,4,12000,11.112,,,240,,,,,,,,,,,wg-a,,,,AAXX 21034 07790 12762 /2406 10050 20040 30255 40270 58003 60006 81530 90300=
07790,1997-02-21 06:00:00,6,1028.2,1.2,93,5,10000,14.816,,,240,5.1,9.8,,,,,,,,,wg-a,,,,AAXX 21064 07790 02560 /2408 10060 20050 30267 40282 51012 60006 85500 90600 333 10098 20051 60004=
07790,1997-02-21 12:00:00,14,1029.7,0.2,82,11,15000,11.112,,,70,,,,,,,,,,,wg-a,,,,AAXX 21124 07790 12465 40706 10140 20110 30282 40297 50002 60006 84800 91200=
07790,1997-02-21 15:00:00,15,1029.5,-0.2,77,11,15000,11.112,,,120,,,,,,,,,,,wg-a,,,,AAXX 21154 07790 12565 /1206 10150 20110 30280 40295 55002 60006 84801 91500=
07790,1997-02-21 18:00:00,12,1030.2,0.7,88,10,8000,3.704,,,180,6.1,15.1,,,,,,,,,wg-a,,,,AAXX 21184 07790 12558 /1802 10120 20100 30287 40302 53007 60006 8680/ 91800 333 10151 20061=
07790,1997-02-21 21:00:00,7,1030.9,0.7,93,6,8000,3.704,,,290,,,,,,,,,,,wg-a,,,,AAXX 21214 07790 12/58 02902 10070 20060 30294 40309 52007 60006 80000 92100=
07790,1997-02-22 00:00:00,7,1031.4,0.5,93,6,10000,7.408,,,240,,,,0,,,,,,,wg-a,,,,AAXX 22004 07790 02560 32404 10070 20060 30299 40314 53005 60006 83100 90000 333 60007=
07790,1997-02-22 03:00:00,8,1030.6,-0.8,93,7,12000,11.112,,,230,,,,,,,,,,,wg-a,,,,AAXX 22034 07790 12562 72306 10080 20070 30291 40306 58008 60006 87500 90300=
07790,1997-02-22 06:00:00,8,1031.1,0.5,87,6,11000,11.112,,,230,6.3,11.8,,,,,,,,,wg-a,,,,AAXX 22064 07790 02/61 /2306 10080 20060 30296 40311 50005 60006 90600 333 10118 20063 60004=
07790,1997-02-22 09:00:00,12,1032.2,1.1,82,9,12000,3.704,,,230,,,,,,,,,,,wg-a,,,,AAXX 22094 07790 12462 /2302 10120 20090 30307 40322 51011 60006 85500 90900=
07790,1997-02-22 12:00:00,16,1031.3,-0.9,63,9,14000,18.52,,,150,,,,,,,,,,,wg-a,,,,AAXX 22124 07790 12564 41510 10160 20090 30298 40313 58009 60006 84500 91200=
07790,1997-02-22 15:00:00,14,1030.2,-1.1,77,10,13000,18.52,,,150,,,,,,,,,,,wg-a,,,,AAXX 22154 07790 12563 /1510 10140 20100 30287 40302 57011 60006 86800 91500=
07790,1997-02-22 18:00:00,13,1030.2,-0,82,10,10000,7.408,,,150,7.7,16.1,,,,,,,,,wg-a,,,,AAXX 22184 07790 12660 71504 10130 20100 30287 40302 55000 60006 875// 91800 333 10161 20077=
07790,1997-02-22 21:00:00,12,1029.8,-0.4,88,10,10000,0,,,0,,,,,,,,,,,wg-a,,,,AAXX 22214 07790 12660 70000 10120 20100 30283 40298 56004 60006 875// 92100=
07790,1997-02-23 00:00:00,10,1029.1,-0.7,93,9,10000,3.704,,,200,,,,,,,,,,,wg-a,,,,AAXX 23004 07790 12560 72002 10100 20090 30276 40291 58007 60006 878// 90000=
07790,1997-02-23 03:00:00,8,1027.9,-1.2,93,7,12000,3.704,,,250,,,,,,,,,,,wg-a,,,,AAXX 23034 07790 12662 22502 10080 20070 30264 40279 58012 60006 82500 90300=
07790,1997-02-23 06:00:00,6,1027.1,-0.8,87,4,10000,11.112,,,250,5.8,13.1,,,,,,,,,wg-a,,,,AAXX 23064 07790 02560 42506 10060 20040 30256 40271 58008 60006 84800 90600 333 10131 20058 60004=
07790,1997-02-23 09:00:00,12,1027,-0.1,71,7,15000,3.704,,,220,,,,,,,,,,,wg-a,,,,AAXX 23094 07790 12565 42202 10120 20070 30255 40270 58001 60006 84800 90900=
07790,1997-02-23 12:00:00,15,1025.3,-1.6,63,8,12000,22.224,,,150,,,,,,,,,,,wg-a,,,,AAXX 23124 07790 12562 71512 10150 20080 30239 40253 58016 60006 878// 91200=
07790,1997-02-23 15:00:00,13,1024.1,-1.3,67,7,12000,22.224,,,150,,,,,,,,,,,wg-a,,,,AAXX 23154 07790 12562 81512 10130 20070 30226 40241 56013 60006 888// 91500=
07790,1997-02-23 18:00:00,12,1023.6,-0.5,71,7,15000,11.112,,,170,5.4,15.9,,,,,,,,,wg-a,,,,AAXX 23184 07790 12565 81706 10120 20070 30221 40236 56005 60006 888// 91800 333 10159 20054=
07790,1997-02-23 21:00:00,10,1023.2,-0.4,82,7,18000,3.704,,,260,,,,,,,,,,,wg-a,,,,AAXX 23214 07790 12568 72602 10100 20070 30217 40232 56004 60006 875// 92100=
07790,1997-02-24 00:00:00,10,1022.5,-0.7,82,7,18000,7.408,,,240,,,,,,,,,,,wg-a,,,,AAXX 24004 07790 12568 72404 10100 20070 30210 40225 58007 60006 8551/ 90000=
07790,1997-02-24 06:00:00,8,1020.7,-0.4,87,6,16000,11.112,,,240,7.9,12.3,,,,,,,,,wg-a,,,,AAXX 24064 07790 02666 52406 10080 20060 30192 40207 58004 60006 81530 90600 333 10123 20079 60004=
07790,1997-02-24 09:00:00,14,1021.2,0.5,63,7,12000,7.408,,,330,,,,,,,,,,,wg-a,,,,AAXX 24094 07790 12/62 /3304 10140 20070 30197 40212 50005 60006 81031 90900=
07790,1997-02-24 12:00:00,16,1021,-0.1,59,8,12000,7.408,,,120,,,,,,,,,,,wg-a,,,,AAXX 24124 07790 12562 41204 10160 20080 30196 40210 58001 60006 81831 91200=
07790,1997-02-24 15:00:00,14,1020.8,-0.2,72,9,15000,3.704,,,90,,,,,,,,,,,wg-a,,,,AAXX 24154 07790 12565 70902 10140 20090 30194 40208 55002 60006 8457/ 91500=
07790,1997-02-24 18:00:00,13,1021.7,0.8,77,9,15000,3.704,,,140,8,16.9,,,,,,,,,wg-a,,,,AAXX 24184 07790 12565 81402 10130 20090 30202 40217 51008 60006 8557/ 91800 333 10169 20080=
07790,1997-02-25 00:00:00,8,1023.3,0.4,87,6,10000,11.112,,,230,,,,,,,,,,,wg-a,,,,AAXX 25004 07790 12/60 /2306 10080 20060 30218 40233 53004 60006 90000=
07790,1997-02-25 03:00:00,8,1022.6,-0.7,87,6,15000,14.816,,,230,,,,,,,,,,,wg-a,,,,AAXX 25034 07790 12/65 02308 10080 20060 30211 40226 58007 60006 80000 90300=
07790,1997-02-25 06:00:00,7,1023.2,0.6,87,5,15000,7.408,,,240,6.9,13.2,,,,,,,,,wg-a,,,,AAXX 25064 07790 02/65 32404 10070 20050 30217 40232 53006 60006 80001 90600 333 10132 20069 60004=
07790,1997-02-25 09:00:00,13,1023.9,0.7,72,8,12000,11.112,,,240,,,,,,,,,,,wg-a,,,,AAXX 25094 07790 12/62 62406 10130 20080 30224 40239 50007 60006 82032 90900=
07790,1997-02-25 12:00:00,18,1023.1,-0.7,59,10,12000,11.112,,,100,,,,,,,,,,,wg-a,,,,AAXX 25124 07790 12/62 31006 10180 20100 30217 40231 58007 60006 81042 91200=
07790,1997-02-25 15:00:00,16,1022.3,-0.8,77,12,8000,7.408,,,60,,,,,,,,,,,wg-a,,,,AAXX 25154 07790 12458 60604 10160 20120 30209 40223 58008 60006 83802 91500=
07790,1997-02-25 18:00:00,13,1023.3,0.9,88,11,9000,11.112,,,330,6.9,17.6,,,,,,,,,wg-a,,,,AAXX 25184 07790 12459 /3306 10130 20110 30218 40233 53009 60006 82572 91800 333 10176 20069=
07790,1997-02-25 21:00:00,10,1023.4,0.1,93,9,10000,7.408,,,270,,,,,,,,,,,wg-a,,,,AAXX 25214 07790 12560 32704 10100 20090 30219 40234 53001 60006 81572 92100=
07790,1997-02-26 00:00:00,10,1023,-0.4,93,9,8000,7.408,,,260,,,,0,,,,,,,wg-a,,,,AAXX 26004 07790 02458 42604 10100 20090 30215 40230 58004 60006 83672 90000 333 60007=
07790,1997-02-26 03:00:00,9,1021.5,-1.5,93,8,8000,11.112,,,220,,,,,,,,,,,wg-a,,,,AAXX 26034 07790 12458 32206 10090 20080 30200 40215 58015 60006 82672 90300=
07790,1997-02-26 06:00:00,7,1020.9,-0.6,93,6,12000,0,,,0,6.9,12.5,,,,,,,,11,wg-a,,,,AAXX 26064 07790 02562 20000 10070 20060 30194 40209 56006 60006 71111 81571 90600 333 10125 20069 60004=
07790,1997-02-26 09:00:00,15,1020.3,-0.5,77,11,9000,3.704,,,70,,,,,,,,,,,wg-a,,,,AAXX 26094 07790 12659 /0702 10150 20110 30189 40203 58005 60006 81132 90900=
07790,1997-02-26 12:00:00,17,1018.8,-1.5,72,12,10000,11.112,,,110,,,,,,,,,,,wg-a,,,,AAXX 26124 07790 12560 /1106 10170 20120 30174 40188 58015 60006 81532 91200=
07790,1997-02-26 15:00:00,18,1016.8,-2,73,13,10000,14.816,,,100,,,,,,,,,,,wg-a,,,,AAXX 26154 07790 12560 /1008 10180 20130 30154 40168 56020 60006 81201 91500=
07790,1997-02-26 18:00:00,14,1017.2,0.4,82,11,20000,11.112,,,20,6.7,18.8,,,,,,,,,wg-a,,,,AAXX 26184 07790 12/70 /0206 10140 20110 30158 40172 53004 60006 81030 91800 333 10188 20067=
07790,1997-02-27 00:00:00,17,1016.3,-0.3,23,-4,20000,42.596,,75.932,290,,,,,,,,,,,wg-a,,,,AAXX 27004 07790 12670 /2923 10170 21040 30149 40163 55003 60006 81100 90000 333 91041=
07790,1997-02-27 03:00:00,13,1018.3,1.9,47,2,11000,42.596,,75.932,290,,,,,,,,,,,wg-a,,,,AAXX 27034 07790 12/61 /2923 10130 20020 30168 40183 50019 60006 90300 333 91041=
07790,1997-02-27 06:00:00,13,1020.4,2.1,47,2,20000,46.3,,68.524,300,10.9,19.7,,,,,,,,1,wg-a,,,,AAXX 27064 07790 02570 /3025 10130 20020 30189 40204 51021 60006 70161 82242 90600 333 10197 20109 60004 91037=
07790,1997-02-27 09:00:00,15,1024.1,3.7,33,-1,25000,38.892,,79.636,320,,,,,,,,,,,wg-a,,,,AAXX 27094 07790 12575 23221 10150 21010 30226 40241 53037 60006 81240 90900 333 91043=
07790,1997-02-27 12:00:00,16,1026.5,2.4,31,-1,500,46.3,,64.82,330,,,,,,,,,,,wg-a,,,,AAXX 27124 07790 12600 /3325 10160 21010 30250 40265 51024 60006 81100 91200 333 91035=
07790,1997-02-28 00:00:00,11,1031.8,0.9,40,-2,500,7.408,,53.708,320,,,,,,,,,,,wg-a,,,,AAXX 28004 07790 12/00 03204 10110 21020 30303 40318 51009 60006 80000 90000 333 91029=
07790,1997-02-28 03:00:00,8,1032.1,0.3,53,-1,500,14.816,,,240,,,,,,,,,,,wg-a,,,,AAXX 28034 07790 12/00 02408 10080 21010 30306 40321 53003 60006 80000 90300=
07790,1997-02-28 06:00:00,6,1033.4,1.3,52,-3,25000,14.816,,,230,6.3,14.1,,,,,,,,,wg-a,,,,AAXX 28064 07790 02/75 02308 10060 21030 30319 40334 53013 60006 80000 90600 333 10141 20063 60004=
07790,1997-02-28 09:00:00,15,1034.7,1.3,33,-1,10000,3.704,,,240,,,,,,,,,,,wg-a,,,,AAXX 28094 07790 12/60 /2402 10150 21010 30332 40347 51013 60006 90900=
07790,1997-02-28 12:00:00,16,1034.6,-0.1,25,-4,10000,14.816,,,20,,,,,,,,,,,wg-a,,,,AAXX 28124 07790 12/60 /0208 10160 21040 30331 40346 58001 60006 91200=
07790,1997-02-28 15:00:00,15,1033.2,-1.4,36,0,10000,7.408,,,30,,,,,,,,,,,wg-a,,,,AAXX 28154 07790 12/60 /0304 10150 20000 30317 40332 56014 60006 91500=
07790,1997-02-28 18:00:00,9,1033.5,0.3,53,0,10000,7.408,,,260,5.9,16,,,,,,,,,wg-a,,,,AAXX 28184 07790 12/60 /2604 10090 20000 30320 40335 53003 60006 91800 333 10160 20059=
07790,1997-02-28 21:00:00,8,1033.6,0.1,49,-2,25000,7.408,,,250,,,,,,,,,,,wg-a,,,,AAXX 28214 07790 12/75 42504 10080 21020 30321 40336 53001 60006 80001 92100=
07790,1997-03-01 00:00:00,6,1033.2,-0.4,52,-3,500,11.112,,,250,,,,,,,,,,,wg-a,,,,AAXX 01004 07790 12/00 02506 10060 21030 30317 40332 58004 60006 80000 90000=
07790,1997-03-01 03:00:00,7,1031.5,-1.7,45,-4,500,11.112,,,240,,,,,,,,,,,wg-a,,,,AAXX 01034 07790 12/00 42406 10070 21040 30300 40315 57017 60006 80001 90300=
07790,1997-03-01 06:00:00,6,1031.8,0.3,49,-4,40000,14.816,,,240,5.3,9.3,,,,,,,,,wg-a,,,,AAXX 01064 07790 02/82 22408 10060 21040 30303 40318 52003 60006 80001 90600 333 10093 20053 60004=
07790,1997-03-01 09:00:00,15,1032.2,0.4,55,6,40000,3.704,,,280,,,,,,,,,,,wg-a,,,,AAXX 01094 07790 12/82 32802 10150 20060 30307 40322 50004 60006 80002 90900=
07790,1997-03-01 12:00:00,15,1031.5,-0.7,59,7,40000,14.816,,,30,,,,,,,,,,,wg-a,,,,AAXX 01124 07790 12/82 30308 10150 20070 30300 40315 58007 60006 80002 91200=
07790,1997-03-01 15:00:00,15,1030.4,-1.1,51,5,40000,11.112,,,40,,,,,,,,,,,wg-a,,,,AAXX 01154 07790 12/82 70406 10150 20050 30289 40304 56011 60006 80002 91500=
07790,1997-03-01 18:00:00,11,1030.4,-0,76,7,25000,7.408,,,230,6,15.6,,,,,,,,,wg-a,,,,AAXX 01184 07790 12/75 62304 10110 20070 30289 40304 55000 60006 81072 91800 333 10156 20060=
07790,1997-03-01 21:00:00,11,1030.1,-0.3,58,3,20000,14.816,,,220,,,,,,,,,,,wg-a,,,,AAXX 01214 07790 12/70 /2208 10110 20030 30286 40301 56003 60006 82076 92100=
07790,1997-03-02 00:00:00,9,1029.3,-0.8,57,1,20000,11.112,,,230,,,,,,,,,,,wg-a,,,,AAXX 02004 07790 12/70 /2306 10090 20010 30278 40293 56008 60006 82076 90000=
07790,1997-03-02 03:00:00,9,1028.7,-0.6,57,1,20000,11.112,,,240,,,,,,,,,,,wg-a,,,,AAXX 02034 07790 12/70 62406 10090 20010 30272 40287 58006 60006 82072 90300=
07790,1997-03-02 06:00:00,8,1028.3,-0.4,66,2,20000,11.112,,,250,6.1,11.1,,,,,,,,14,wg-a,,,,AAXX 02064 07790 02770 72506 10080 20020 30268 40283 58004 60006 71411 8117/ 90600 333 10111 20061 60004=
07790,1997-03-02 09:00:00,14,1029.3,1,67,8,20000,3.704,,,70,,,,,,,,,,,wg-a,,,,AAXX 02094 07790 12770 /0702 10140 20080 30278 40293 52010 60006 8587/ 90900=
07790,1997-03-02 12:00:00,16,1028.6,-0.7,63,9,11000,11.112,,,40,,,,,,,,,,,wg-a,,,,AAXX 02124 07790 12/61 /0406 10160 20090 30271 40286 58007 60006 91200=
07790,1997-03-02 15:00:00,16,1027.8,-0.7,68,10,20000,7.408,,,30,,,,,,,,,,,wg-a,,,,AAXX 02154 07790 12/70 20304 10160 20100 30264 40278 56007 60006 80001 91500=
07790,1997-03-02 18:00:00,12,1028.7,0.8,82,9,20000,7.408,,,210,8.4,16.5,,,,,,,,,wg-a,,,,AAXX 02184 07790 12/70 02104 10120 20090 30272 40287 53008 60006 80000 91800 333 10165 20084=
07790,1997-03-02 21:00:00,8,1029.9,1.2,87,6,25000,3.704,,,240,,,,,,,,,,,wg-a,,,,AAXX 02214 07790 12/75 02402 10080 20060 30284 40299 52012 60006 80000 92100=
07790,1997-03-03 00:00:00,6,1030.4,0.5,87,4,25000,7.408,,,230,,,,,,,,,,,wg-a,,,,AAXX 03004 07790 12/75 02304 10060 20040 30289 40304 51005 60006 80000 90000=
07790,1997-03-03 03:00:00,5,1030.5,0.1,87,3,10000,3.704,,,250,,,,,,,,,,,wg-a,,,,AAXX 03034 07790 12/60 /2502 10050 20030 30290 40305 52001 60006 90300=
07790,1997-03-03 06:00:00,6,1031.3,0.8,81,3,10000,11.112,,,240,4.9,11.4,,,,,,,,,wg-a,,,,AAXX 03064 07790 02/60 /2406 10060 20030 30298 40313 53008 60006 90600 333 10114 20049 60004=
07790,1997-03-03 09:00:00,15,1032.3,1,55,6,500,7.408,,,30,,,,,,,,,,,wg-a,,,,AAXX 03094 07790 12/00 00304 10150 20060 30308 40323 52010 60006 80000 90900=
07790,1997-03-03 12:00:00,17,1032.2,0,63,10,20000,3.704,,,100,,,,,,,,,,,wg-a,,,,AAXX 03124 07790 12/70 01002 10170 20100 30308 40322 50000 60006 80000 91200=
07790,1997-03-03 15:00:00,17,1031.8,-0.5,68,11,20000,11.112,,,110,,,,,,,,,,,wg-a,,,,AAXX 03154 07790 12/70 01106 10170 20110 30303 40318 56005 60006 80000 91500=
07790,1997-03-03 18:00:00,12,1032.3,0.5,82,9,15000,7.408,,,230,6.2,17.4,,,,,,,,,wg-a,,,,AAXX 03184 07790 12/65 12304 10120 20090 30308 40323 53005 60006 80001 91800 333 10174 20062=
07790,1997-03-04 00:00:00,8,1032.5,-0.1,87,6,15000,7.408,,,220,,,,0,,,,,,,wg-a,,,,AAXX 04004 07790 02/65 02204 10080 20060 30310 40325 58001 60006 80000 90000 333 60007=
07790,1997-03-04 03:00:00,8,1031.9,-0.6,81,5,15000,14.816,,,230,,,,,,,,,,,wg-a,,,,AAXX 04034 07790 12/65 02308 10080 20050 30304 40319 58006 60006 80000 90300=
07790,1997-03-04 06:00:00,9,1031.8,-0.1,71,4,15000,14.816,,,230,7,11.8,,,,,,,,,wg-a,,,,AAXX 04064 07790 02/65 02308 10090 20040 30303 40318 58001 60006 80000 90600 333 10118 20070 60004=
07790,1997-03-04 09:00:00,16,1032.7,0.9,68,10,10000,3.704,,,140,,,,,,,,,,,wg-a,,,,AAXX 04094 07790 12460 21402 10160 20100 30312 40327 51009 60006 81601 90900=
07790,1997-03-04 12:00:00,17,1032.1,-0.5,72,12,10000,7.408,,,120,,,,,,,,,,,wg-a,,,,AAXX 04124 07790 12460 41204 10170 20120 30307 40321 58005 60006 83102 91200=
07790,1997-03-04 18:00:00,13,1030.9,0.3,88,11,6000,3.704,,,190,8.2,17.1,,,,,,,,,wg-a,,,,AAXX 04184 07790 12456 51902 10130 20110 30294 40309 53003 60006 84602 91800 333 10171 20082=
07790,1997-03-04 21:00:00,12,1030.9,0,88,10,4000,3.704,,,250,,,,,,,,,,10,wg-a,,,,AAXX 04214 07790 12440 72502 10120 20100 30294 40309 50000 60006 71011 876// 92100=
07790,1997-03-05 03:00:00,11,1029.3,-1.1,87,9,4000,11.112,,,230,,,,,,,,,,10,wg-a,,,,AAXX 05034 07790 12440 /2306 10110 20090 30278 40293 56011 60006 71022 86600 90300=
07790,1997-03-05 06:00:00,12,1029.2,-0.1,82,9,500,7.408,,,230,10.8,12.9,,,,,,,,,wg-a,,,,AAXX 05064 07790 02400 72304 10120 20090 30277 40292 58001 60006 876// 90600 333 10129 20108 60004=
07790,1997-03-05 09:00:00,13,1029.2,0,82,10,500,3.704,,,300,,,,,,,,,,,wg-a,,,,AAXX 05094 07790 12400 83002 10130 20100 30277 40292 50000 60006 886// 90900=
07790,1997-03-05 12:00:00,16,1027.9,-1.2,68,10,7000,7.408,,,140,,,,,,,,,,,wg-a,,,,AAXX 05124 07790 12557 /1404 10160 20100 30265 40279 58012 60006 86500 91200=
07790,1997-03-05 15:00:00,15,1026,-1.9,72,10,8000,14.816,,,150,,,,,,,,,,,wg-a,,,,AAXX 05154 07790 12458 81508 10150 20100 30246 40260 56019 60006 888// 91500=
07790,1997-03-05 18:00:00,14,1026,-0.1,82,11,7000,7.408,,,20,11.6,16.7,,,,,,,,,wg-a,,,,AAXX 05184 07790 12457 80204 10140 20110 30245 40260 55001 60006 888// 91800 333 10167 20116=
07790,1997-03-06 00:00:00,12,1024.1,-1,88,10,8000,3.704,,,270,,,,,,,,,,,wg-a,,,,AAXX 06004 07790 12558 82702 10120 20100 30226 40241 57010 60006 888// 90000=
07790,1997-03-06 03:00:00,12,1022.3,-1.8,88,10,6000,3.704,,,260,,,,,,,,,,,wg-a,,,,AAXX 06034 07790 12556 82602 10120 20100 30208 40223 57018 60006 888// 90300=
07790,1997-03-06 06:00:00,11,1022,-0.3,82,8,7000,3.704,,,220,10.6,13.7,,,,,,,,,wg-a,,,,AAXX 06064 07790 02657 /2202 10110 20080 30205 40220 58003 60006 86502 90600 333 10137 20106 60004=
07790,1997-03-06 09:00:00,14,1022.5,0.5,82,11,8000,3.704,,,320,,,,,,,,,,,wg-a,,,,AAXX 06094 07790 12658 73202 10140 20110 30210 40225 53005 60006 87500 90900=
07790,1997-03-06 12:00:00,17,1021.4,-1,59,9,8000,14.816,,,110,,,,,,,,,,,wg-a,,,,AAXX 06124 07790 12/58 /1108 10170 20090 30200 40214 58010 60006 91200=
07790,1997-03-06 15:00:00,15,1021.8,0.4,77,11,8000,11.112,,,110,,,,,,,,,,,wg-a,,,,AAXX 06154 07790 12658 71106 10150 20110 30204 40218 53004 60006 875// 91500=
07790,1997-03-06 18:00:00,13,1023.2,1.3,88,11,7000,11.112,,,10,10.7,17.2,,,,,,,,,wg-a,,,,AAXX 06184 07790 12/57 /0106 10130 20110 30217 40232 53013 60006 91800 333 10172 20107=
07790,1997-03-07 00:00:00,14,1024.5,0.5,63,7,9000,22.224,,,340,,,,,,,,,,1,wg-a,,,,AAXX 07004 07790 02459 83412 10140 20070 30230 40245 53005 61000 70162 878// 90000 333 ////=
07790,1997-03-07 06:00:00,10,1025.6,-0,87,8,8000,11.112,,,300,10.2,13.8,,,,,,,,60,wg-a,,,,AAXX 07064 07790 02558 83006 10100 20080 30241 40256 55000 61000 76062 878// 90600 333 10138 20102 6005=
07790,1997-03-07 12:00:00,16,1026.3,-0.2,59,8,12000,18.52,,,20,,,,,,,,,,1,wg-a,,,,AAXX 07124 07790 02662 /0210 10160 20080 30249 40263 58002 61000 70162 81102 91200 333 ////=
07790,1997-03-07 15:00:00,16,1025.5,-0.8,59,8,12000,11.112,,,10,,,,,,,,,,,wg-a,,,,AAXX 07154 07790 12662 50106 10160 20080 30241 40255 56008 60006 81132 91500=
07790,1997-03-07 18:00:00,14,1026.1,0.5,63,7,12000,7.408,,,260,10.4,16.6,,,,,,,,,wg-a,,,,AAXX 07184 07790 12/62 /2604 10140 20070 30246 40261 53005 60006 86030 91800 333 10166 20104=
07790,1997-03-07 21:00:00,13,1027.4,1.3,67,7,12000,11.112,,,330,,,,,,,,,,,wg-a,,,,AAXX 07214 07790 12/62 /3306 10130 20070 30259 40274 53013 60006 85030 92100=
07790,1997-03-08 00:00:00,9,1027.5,0.1,81,6,0,7.408,,,260,,,,,,,,,,,wg-a,,,,AAXX 08004 07790 12/// /2604 10090 20060 30260 40275 53001 60006 90000=
07790,1997-03-08 03:00:00,8,1027.2,-0.3,81,5,15000,11.112,,,240,,,,,,,,,,,wg-a,,,,AAXX 08034 07790 12/65 42406 10080 20050 30257 40272 58003 60006 84030 90300=
07790,1997-03-08 06:00:00,7,1028,0.8,81,4,15000,11.112,,,250,6.7,14.7,,,,,,,,,wg-a,,,,AAXX 08064 07790 02/65 02506 10070 20040 30265 40280 53008 60006 80000 90600 333 10147 20067 61000=
07790,1997-03-08 09:00:00,15,1029.1,1.1,55,6,25000,14.816,,,20,,,,,,,,,,,wg-a,,,,AAXX 08094 07790 12/75 00208 10150 20060 30276 40291 51011 60006 80000 90900=
07790,1997-03-08 12:00:00,17,1028.7,-0.3,42,4,25000,11.112,,,340,,,,,,,,,,,wg-a,,,,AAXX 08124 07790 12/75 03406 10170 20040 30273 40287 58003 60006 80000 91200=
07790,1997-03-08 15:00:00,18,1027.7,-1,39,4,25000,11.112,,,10,,,,,,,,,,,wg-a,,,,AAXX 08154 07790 12/75 00106 10180 20040 30263 40277 56010 60006 80000 91500=
07790,1997-03-08 18:00:00,15,1027.9,0.1,44,3,15000,14.816,,,330,6.8,17.8,,,,,,,,,wg-a,,,,AAXX 08184 07790 12/65 03308 10150 20030 30264 40279 53001 60006 80000 91800 333 10178 20068=
07790,1997-03-09 00:00:00,9,1030.6,0.7,49,-1,15000,11.112,,,290,,,,,,,,,,,wg-a,,,,AAXX 09004 07790 12/65 02906 10090 21010 30291 40306 53007 60006 80000 90000=
07790,1997-03-09 03:00:00,6,1031,0.4,65,0,10000,11.112,,,250,,,,,,,,,,,wg-a,,,,AAXX 09034 07790 12/60 /2506 10060 20000 30295 40310 53004 60006 90300=
07790,1997-03-09 06:00:00,5,1031.8,0.8,70,0,15000,11.112,,,240,4.6,14.9,,,,,,,,,wg-a,,,,AAXX 09064 07790 02565 /2406 10050 20000 30303 40318 53008 60006 81541 90600 333 10149 20046 60004=
07790,1997-03-09 09:00:00,15,1032.9,1.1,33,-1,25000,7.408,,,140,,,,,,,,,,,wg-a,,,,AAXX 09094 07790 12/75 31404 10150 21010 30314 40329 51011 60006 82042 90900=
07790,1997-03-09 12:00:00,15,1032.5,-0.4,36,0,25000,7.408,,,20,,,,,,,,,,,wg-a,,,,AAXX 09124 07790 12/75 30204 10150 20000 30310 40325 58004 60006 81042 91200=
07790,1997-03-09 15:00:00,16,1031,-1.5,29,-2,20000,11.112,,,340,,,,,,,,,,,wg-a,,,,AAXX 09154 07790 12/70 /3406 10160 21020 30295 40310 56015 60006 81042 91500=
07790,1997-03-09 18:00:00,12,1030.9,-0.1,40,-1,15000,11.112,,,290,4.6,16.1,,,,,,,,,wg-a,,,,AAXX 09184 07790 12/65 62906 10120 21010 30294 40309 55001 60006 82042 91800 333 10161 20046=
07790,1997-03-10 00:00:00,7,1032.4,0.5,66,1,25000,11.112,,,220,,,,,,,,,,,wg-a,,,,AAXX 10004 07790 12/75 02206 10070 20010 30309 40324 52005 60006 80000 90000=
07790,1997-03-10 03:00:00,5,1031.5,-0.9,65,-1,25000,14.816,,,240,,,,,,,,,,,wg-a,,,,AAXX 10034 07790 12/75 02408 10050 21010 30300 40315 56009 60006 80000 90300=
07790,1997-03-10 06:00:00,7,1031.9,0.4,45,-4,10000,14.816,,,230,5.2,12.4,,,,,,,,,wg-a,,,,AAXX 10064 07790 02/60 /2308 10070 21040 30304 40319 53004 60006 90600 333 10124 20052 60004=
07790,1997-03-10 09:00:00,16,1032,0.1,27,-3,25000,3.704,,,280,,,,,,,,,,,wg-a,,,,AAXX 10094 07790 12/75 02802 10160 21030 30305 40320 50001 60006 80000 90900=
07790,1997-03-10 12:00:00,18,1030.4,-1.5,15,-9,10000,7.408,,,360,,,,,,,,,,,wg-a,,,,AAXX 10124 07790 12/60 /3604 10180 21090 30290 40304 58015 60006 91200=
07790,1997-03-10 15:00:00,17,1028.1,-2.3,39,3,25000,14.816,,,20,,,,,,,,,,,wg-a,,,,AAXX 10154 07790 12/75 00208 10170 20030 30267 40281 56023 60006 80000 91500=
07790,1997-03-10 18:00:00,12,1028,-0.2,71,7,25000,7.408,,,310,6.3,18.9,,,,,,,,,wg-a,,,,AAXX 10184 07790 12/75 03104 10120 20070 30265 40280 55002 60006 80000 91800 333 10189 20063=
07790,1997-03-11 00:00:00,7,1028.1,0.1,61,0,25000,11.112,,,240,,,,,,,,,,,wg-a,,,,AAXX 11004 07790 12/75 02406 10070 20000 30266 40281 51001 60006 80000 90000=
07790,1997-03-11 03:00:00,7,1027.6,-0.5,61,0,25000,11.112,,,250,,,,,,,,,,,wg-a,,,,AAXX 11034 07790 12/75 02506 10070 20000 30261 40276 56005 60006 80000 90300=
07790,1997-03-11 06:00:00,9,1028.5,0.9,66,3,20000,7.408,,,270,6.3,11.7,,,,,,,,,wg-a,,,,AAXX 11064 07790 02/70 02704 10090 20030 30270 40285 53009 60006 80000 90600 333 10117 20063 60004=
07790,1997-03-11 09:00:00,15,1029,0.5,55,6,22000,18.52,,,20,,,,,,,,,,,wg-a,,,,AAXX 11094 07790 12/72 00210 10150 20060 30275 40290 53005 60006 80000 90900=
07790,1997-03-11 12:00:00,16,1028.5,-0.5,36,1,20000,18.52,,,360,,,,,,,,,,,wg-a,,,,AAXX 11124 07790 12/70 03610 10160 20010 30270 40285 58005 60006 80000 91200=
07790,1997-03-11 15:00:00,16,1027.6,-0.8,42,3,20000,25.928,,,40,,,,,,,,,,,wg-a,,,,AAXX 11154 07790 12570 10414 10160 20030 30262 40276 56008 60006 81200 91500=
07790,1997-03-11 18:00:00,14,1030.3,2.6,47,3,20000,25.928,,,90,7.9,16.9,,,,,,,,,wg-a,,,,AAXX 11184 07790 12570 20914 10140 20030 30288 40303 53026 60006 82500 91800 333 10169 20079=
07790,1997-03-12 00:00:00,7,1033.5,0.7,57,-1,20000,11.112,,,250,,,,,,,,,,,wg-a,,,,AAXX 12004 07790 12/70 02506 10070 21010 30320 40335 51007 60006 80000 90000=
07790,1997-03-12 03:00:00,6,1033.2,-0.3,61,-1,20000,18.52,,,250,,,,,,,,,,,wg-a,,,,AAXX 12034 07790 12/70 02510 10060 21010 30317 40332 58003 60006 80000 90300=
07790,1997-03-12 06:00:00,4,1032,-1.2,60,-3,500,14.816,,,260,4.1,13.7,,,,,,,,,wg-a,,,,AAXX 12064 07790 02/00 02608 10040 21030 30305 40320 55012 60006 80000 90600 333 10137 20041 60004=
07790,1997-03-12 09:00:00,15,1032.1,0.1,27,-4,500,11.112,,,360,,,,,,,,,,,wg-a,,,,AAXX 12094 07790 12/00 03606 10150 21040 30306 40321 50001 60006 80000 90900=
07790,1997-03-12 12:00:00,15,1030.6,-1.5,39,1,500,14.816,,,30,,,,,,,,,,,wg-a,,,,AAXX 12124 07790 12/00 00308 10150 20010 30291 40306 57015 60006 80000 91200=
07790,1997-03-12 15:00:00,19,1027.9,-2.6,34,3,500,3.704,,,150,,,,,,,,,,,wg-a,,,,AAXX 12154 07790 12/00 01502 10190 20030 30265 40279 56026 60006 80000 91500=
07790,1997-03-12 18:00:00,12,1028.4,0.4,67,6,25000,3.704,,,260,3.6,19.3,,,,,,,,,wg-a,,,,AAXX 12184 07790 12/75 02602 10120 20060 30269 40284 53004 60006 80000 91800 333 10193 20036=
07790,1997-03-13 06:00:00,7,1025.7,-0.3,57,-1,15000,14.816,,,240,4.7,11.8,,,,,,,,,wg-a,,,,AAXX 13064 07790 02/65 02408 10070 21010 30242 40257 56003 60006 80000 90600 333 10118 20047 60004=
07790,1997-03-13 12:00:00,17,1024.5,-1.3,52,7,15000,14.816,,,140,,,,,,,,,,4,wg-a,,,,AAXX 13124 07790 12/65 11408 10170 20070 30231 40245 58013 60006 70400 80001 91200=
07790,1997-03-13 15:00:00,16,1022.7,-1.8,63,9,15000,11.112,,,140,,,,,,,,,,4,wg-a,,,,AAXX 13154 07790 12565 /1406 10160 20090 30213 40227 56018 60006 70400 81501 91500=
07790,1997-03-13 18:00:00,12,1022.7,-0.1,82,9,15000,0,,,0,6.4,17.1,,,,,,,,4,wg-a,,,,AAXX 13184 07790 12565 30000 10120 20090 30212 40227 56001 60006 70400 81501 91800 333 10171 20064=
07790,1997-03-13 21:00:00,8,1023,0.3,93,7,15000,7.408,,,240,,,,,,,,,,,wg-a,,,,AAXX 13214 07790 12565 22404 10080 20070 30215 40230 51003 60006 81501 92100=
07790,1997-03-14 00:00:00,10,1022,-1,82,7,20000,11.112,,,240,,,,,,,,,,,wg-a,,,,AAXX 14004 07790 12570 22406 10100 20070 30205 40220 58010 60006 81501 90000=
07790,1997-03-14 06:00:00,7,1020.7,-0.3,93,6,12000,11.112,,,230,6.2,11.9,,,,,,,,11,wg-a,,,,AAXX 14064 07790 02462 62306 10070 20060 30192 40207 55003 60006 71111 86601 90600 333 10119 20062 60004=
07790,1997-03-14 09:00:00,14,1020.5,-0.1,72,9,10000,0,,,0,,,,,,,,,,,wg-a,,,,AAXX 14094 07790 12560 /0000 10140 20090 30191 40205 58001 60006 81101 90900=
07790,1997-03-14 12:00:00,15,1019.5,-1,72,10,15000,14.816,,,30,,,,,,,,,,,wg-a,,,,AAXX 14124 07790 12565 /0308 10150 20100 30181 40195 58010 60006 81100 91200=
07790,1997-03-14 15:00:00,14,1017.7,-1.8,77,10,15000,7.408,,,30,,,,,,,,,,,wg-a,,,,AAXX 14154 07790 12465 /0304 10140 20100 30163 40177 56018 60006 84101 91500=
07790,1997-03-14 21:00:00,10,1016.6,-0.3,87,8,15000,11.112,,,230,,,,,,,,,,,wg-a,,,,AAXX 14214 07790 12565 42306 10100 20080 30151 40166 58003 60006 83534 92100=
07790,1997-03-15 00:00:00,9,1015.6,-1,93,8,15000,11.112,,,240,,,,,,,,,,,wg-a,,,,AAXX 15004 07790 12465 72406 10090 20080 30141 40156 58010 60006 875// 90000=
07790,1997-03-15 03:00:00,11,1015.5,-0.1,87,9,15000,3.704,,,260,,,,,,,,,,,wg-a,,,,AAXX 15034 07790 12465 72602 10110 20090 30140 40155 55001 60006 875// 90300=
07790,1997-03-15 06:00:00,10,1016.7,1.2,87,8,7000,11.112,,,240,9,12.6,,,,,,,,,wg-a,,,,AAXX 15064 07790 02457 /2406 10100 20080 30152 40167 51012 60006 83581 90600 333 10126 20090 60004=
07790,1997-03-15 09:00:00,14,1018.6,2,77,10,8000,11.112,,,20,,,,,,,,,,,wg-a,,,,AAXX 15094 07790 12558 20206 10140 20100 30172 40186 51020 60006 81101 90900=
07790,1997-03-15 12:00:00,18,1019.3,0.7,49,7,15000,14.816,,,20,,,,,,,,,,,wg-a,,,,AAXX 15124 07790 12565 /0208 10180 20070 30179 40193 51007 60006 81500 91200=
07790,1997-03-15 15:00:00,19,1018.4,-0.9,40,5,12000,7.408,,,320,,,,,,,,,,,wg-a,,,,AAXX 15154 07790 12/62 03204 10190 20050 30170 40184 56009 60006 80000 91500=
07790,1997-03-15 18:00:00,14,1018.8,0.4,55,5,12000,3.704,,,300,9.3,19.4,,,,,,,,,wg-a,,,,AAXX 15184 07790 12/62 03002 10140 20050 30174 40188 53004 60006 80000 91800 333 10194 20093=
07790,1997-03-16 00:00:00,12,1020.7,0.3,54,3,20000,18.52,,,240,,,,,,,,,,,wg-a,,,,AAXX 16004 07790 12/70 02410 10120 20030 30192 40207 51003 60006 80000 90000=
07790,1997-03-16 03:00:00,10,1020.7,0,57,2,15000,14.816,,,240,,,,,,,,,,,wg-a,,,,AAXX 16034 07790 12/65 02408 10100 20020 30192 40207 50000 60006 80000 90300=
07790,1997-03-16 06:00:00,11,1021.4,0.7,54,2,10000,22.224,,,250,9.1,13.8,,,,,,,,,wg-a,,,,AAXX 16064 07790 02/60 02512 10110 20020 30199 40214 53007 60006 80000 90600 333 10138 20091 60004=
07790,1997-03-16 12:00:00,22,1021.8,-0.7,33,5,20000,11.112,,,130,,,,,,,,,,,wg-a,,,,AAXX 16124 07790 12/70 31306 10220 20050 30204 40218 57007 60006 80001 91200=
07790,1997-03-16 18:00:00,15,1021.6,0.3,55,6,15000,3.704,,,220,10.7,22.1,,,,,,,,,wg-a,,,,AAXX 16184 07790 12/65 /2202 10150 20060 30202 40216 53003 60006 80000 91800 333 10221 20107=
07790,1997-03-16 21:00:00,14,1022,0.3,47,3,10000,18.52,,,250,,,,,,,,,,,wg-a,,,,AAXX 16214 07790 12/60 /2510 10140 20030 30205 40220 51003 60006 92100=
07790,1997-03-17 00:00:00,10,1021.4,-0.6,62,3,17000,7.408,,,210,,,,,,,,,,,wg-a,,,,AAXX 17004 07790 12/67 02104 10100 20030 30199 40214 58006 60006 80000 90000=
07790,1997-03-17 03:00:00,11,1020.5,-0.9,87,9,10000,14.816,,,320,,,,,,,,,,,wg-a,,,,AAXX 17034 07790 12/60 /3208 10110 20090 30190 40205 56009 60006 90300=
07790,1997-03-17 06:00:00,7,1020.5,-0,81,4,9000,14.816,,,230,7.2,15.3,,,,,,,,,wg-a,,,,AAXX 17064 07790 02/59 /2308 10070 20040 30190 40205 54000 60006 80001 90600 333 10153 20072 60004=
07790,1997-03-17 09:00:00,18,1020.8,0.4,56,9,9000,3.704,,,90,,,,,,,,,,,wg-a,,,,AAXX 17094 07790 12/59 10902 10180 20090 30194 40208 52004 60006 80001 90900=
07790,1997-03-17 12:00:00,18,1019.5,-1.3,59,10,12000,14.816,,,120,,,,,,,,,,,wg-a,,,,AAXX 17124 07790 12/62 61208 10180 20100 30181 40195 58013 60006 80004 91200=
07790,1997-03-17 15:00:00,17,1018.7,-0.8,68,11,12000,11.112,,,100,,,,,,,,,,,wg-a,,,,AAXX 17154 07790 12562 31006 10170 20110 30173 40187 55008 60006 81504 91500=
07790,1997-03-17 18:00:00,14,1018.9,0.2,82,11,8000,3.704,,,140,7.3,18.4,,,,,,,,,wg-a,,,,AAXX 17184 07790 12/58 21402 10140 20110 30175 40189 53002 60006 81034 91800 333 10184 20073=
07790,1997-03-17 21:00:00,10,1019.6,0.6,93,9,15000,7.408,,,240,,,,,,,,,,,wg-a,,,,AAXX 17214 07790 12/65 12404 10100 20090 30181 40196 50006 60006 80001 92100=
07790,1997-03-18 00:00:00,9,1019.2,-0.4,93,8,15000,7.408,,,240,,,,,,,,,,,wg-a,,,,AAXX 18004 07790 12/65 12404 10090 20080 30177 40192 57004 60006 8/0/1 90000=
07790,1997-03-18 03:00:00,8,1019.2,0,93,7,15000,7.408,,,230,,,,0,,,,,,,wg-a,,,,AAXX 18034 07790 12465 22304 10080 20070 30177 40192 50000 60007 82600 90300=
07790,1997-03-18 06:00:00,7,1019.3,0.1,93,6,9000,11.112,,,230,7.1,13.8,,,,,,,,11,wg-a,,,,AAXX 18064 07790 02459 22306 10070 20060 30178 40193 53001 60006 71100 82600 90600 333 10138 20071 60004=
07790,1997-03-18 09:00:00,16,1019.6,0.4,72,11,9000,11.112,,,150,,,,,,,,,,,wg-a,,,,AAXX 18094 07790 12659 /1506 10160 20110 30182 40196 51004 60006 81100 90900=
07790,1997-03-18 12:00:00,17,1018.6,-1,72,12,8000,14.816,,,130,,,,,,,,,,,wg-a,,,,AAXX 18124 07790 12658 41308 10170 20120 30172 40186 56010 60006 84100 91200=
07790,1997-03-18 18:00:00,15,1015,-1.8,82,12,6000,11.112,,,160,7.1,17.2,,,,,,,,,wg-a,,,,AAXX 18184 07790 12456 81606 10150 20120 30136 40150 56018 60006 886// 91800 333 10172 20071=
07790,1997-03-18 21:00:00,14,1013.9,-1.1,88,12,9000,3.704,,,140,,,,,,,,,,,wg-a,,,,AAXX 18214 07790 12459 81402 10140 20120 30125 40139 57011 60006 886// 92100=
07790,1997-03-19 00:00:00,13,1010.5,-3.4,88,11,9000,3.704,,,240,,,,,,,,,,,wg-a,,,,AAXX 19004 07790 12459 82402 10130 20110 30091 40105 58034 60006 886// 90000=
07790,1997-03-19 03:00:00,10,1006.2,-4.3,93,9,9000,11.112,,,220,,,,,,,,,,,wg-a,,,,AAXX 19034 07790 12459 32206 10100 20090 30048 40062 58043 60006 83600 90300=
07790,1997-03-19 06:00:00,19,1002.2,-4,19,-5,10000,31.484,,,290,9.1,19.1,,,,,,,,,wg-a,,,,AAXX 19064 07790 02560 /2917 10190 21050 30008 40022 56040 60006 81501 90600 333 10191 20091 60004=
07790,1997-03-19 12:00:00,17,1002.4,1.9,34,1,11000,46.3,,72.228,310,,,,,,,,,,,wg-a,,,,AAXX 19124 07790 12/61 /3125 10170 20010 30010 40024 53019 60006 91200 333 91039=
07790,1997-03-19 15:00:00,17,999.1,-3.3,32,0,11000,46.3,,77.784,290,,,,,,,,,,,wg-a,,,,AAXX 19154 07790 12/61 /2925 10170 20000 39977 49991 56033 60006 91500 333 91042=
07790,1997-03-19 18:00:00,15,999.8,0.7,25,-5,15000,11.112,,31.484,210,14.8,19.9,,,,,,,,,wg-a,,,,AAXX 19184 07790 12565 22106 10150 21050 39984 49998 51007 60006 82500 91800 333 10199 20148 91017=
07790,1997-03-19 21:00:00,11,1002.3,2.5,43,-1,0,18.52,,,280,,,,,,,,,,,wg-a,,,,AAXX 19214 07790 126// /2810 10110 21010 30009 40023 51025 60006 81100 92100=
07790,1997-03-20 00:00:00,14,1004.3,2,36,-1,1800,22.224,,,310,,,,,,,,,,,wg-a,,,,AAXX 20004 07790 12618 13112 10140 21010 30029 40043 53020 60006 81100 90000=
07790,1997-03-20 03:00:00,12,1005.4,1.1,54,3,18000,11.112,,,20,,,,,,,,,,,wg-a,,,,AAXX 20034 07790 12/68 10206 10120 20030 30040 40054 51011 60006 81030 90300=
07790,1997-03-20 06:00:00,8,1007,1.5,71,3,11000,11.112,,,280,7.3,15.9,,,,,,,,,wg-a,,,,AAXX 20064 07790 02/61 /2806 10080 20030 30055 40070 53015 60006 90600 333 10159 20073 60004=
07790,1997-03-20 09:00:00,17,1008.6,1.7,29,-1,40000,18.52,,,340,,,,,,,,,,,wg-a,,,,AAXX 20094 07790 12/82 03410 10170 21010 30072 40086 52017 60006 80000 90900=
07790,1997-03-20 12:00:00,19,1009.4,0.8,19,-5,40000,25.928,,40.744,320,,,,,,,,,,,wg-a,,,,AAXX 20124 07790 12682 /3214 10190 21050 30080 40094 53008 60006 81100 91200 333 91022=
07790,1997-03-20 15:00:00,19,1009.2,-0.2,19,-5,60000,14.816,,,30,,,,,,,,,,,wg-a,,,,AAXX 20154 07790 12/86 00308 10190 21050 30078 40092 57002 60006 80000 91500=
07790,1997-03-20 18:00:00,14,1010.1,0.9,55,5,60000,0,,,0,8.1,19.5,,,,,,,,,wg-a,,,,AAXX 20184 07790 12/86 00000 10140 20050 30087 40101 53009 60006 80000 91800 333 10195 20081=
07790,1997-03-20 21:00:00,10,1010.9,0.7,53,1,20000,11.112,,,200,,,,,,,,,,,wg-a,,,,AAXX 20214 07790 12/70 02006 10100 20010 30094 40109 53007 60006 80000 92100=
07790,1997-03-21 00:00:00,10,1011.1,0.2,46,-1,20000,18.52,,,240,,,,,,,,,,,wg-a,,,,AAXX 21004 07790 12/70 02410 10100 21010 30096 40111 50002 60006 80000 90000=
07790,1997-03-21 03:00:00,7,1011.8,0.7,57,-1,20000,11.112,,,250,,,,,,,,,,,wg-a,,,,AAXX 21034 07790 12/70 02506 10070 21010 30103 40118 53007 60006 80000 90300=
07790,1997-03-21 06:00:00,7,1013.9,2.1,76,3,20000,11.112,,,230,6,13.8,,,,,,,,,wg-a,,,,AAXX 21064 07790 02570 32306 10070 20030 30124 40139 52021 60006 83100 90600 333 10138 20060 60004=
07790,1997-03-21 09:00:00,16,1015.1,1.3,63,9,11000,7.408,,,80,,,,,,,,,,,wg-a,,,,AAXX 21094 07790 12/61 /0804 10160 20090 30137 40151 51013 60006 90900=
07790,1997-03-21 12:00:00,16,1015.5,0.4,59,8,35000,14.816,,,60,,,,,,,,,,,wg-a,,,,AAXX 21124 07790 12581 /0608 10160 20080 30141 40155 51004 60006 81100 91200=
07790,1997-03-21 18:00:00,12,1015.2,0.3,82,9,20000,3.704,,,230,7.3,17.2,,,,,,,,,wg-a,,,,AAXX 21184 07790 12570 /2302 10120 20090 30138 40152 53003 60006 81500 91800 333 10172 20073=
07790,1997-03-21 21:00:00,9,1016.2,0.9,87,7,25000,0,,,0,,,,,,,,,,,wg-a,,,,AAXX 21214 07790 12/75 00000 10090 20070 30147 40162 53009 60006 80000 92100=
07790,1997-03-22 00:00:00,8,1016.8,0.6,87,6,25000,7.408,,,260,,,,,,,,,,,wg-a,,,,AAXX 22004 07790 12/75 32604 10080 20060 30153 40168 51006 60006 80002 90000=
07790,1997-03-22 06:00:00,7,1017.8,1.1,87,5,25000,11.112,,,240,7,12.3,,,,,,,,,wg-a,,,,AAXX 22064 07790 02475 /2406 10070 20050 30163 40178 53011 60006 82102 90600 333 10123 20070 60004=
07790,1997-03-22 09:00:00,16,1018.7,1,63,9,20000,7.408,,,40,,,,,,,,,,,wg-a,,,,AAXX 22094 07790 12470 40404 10160 20090 30173 40187 53010 60006 81802 90900=
07790,1997-03-22 12:00:00,17,1018.5,-0.2,59,9,20000,14.816,,,110,,,,,,,,,,,wg-a,,,,AAXX 22124 07790 12470 61108 10170 20090 30171 40185 58002 60006 81804 91200=
07790,1997-03-22 15:00:00,16,1018,-0.5,59,8,20000,14.816,,,130,,,,,,,,,,,wg-a,,,,AAXX 22154 07790 12570 21308 10160 20080 30166 40180 56005 60006 81804 91500=
07790,1997-03-22 18:00:00,13,1017.9,-0.1,77,9,20000,7.408,,,150,7.5,17.4,,,,,,,,,wg-a,,,,AAXX 22184 07790 12/70 /1504 10130 20090 30165 40179 56001 60006 81031 91800 333 10174 20075=
07790,1997-03-22 21:00:00,8,1018.4,0.4,87,6,500,7.408,,,240,,,,,,,,,,,wg-a,,,,AAXX 22214 07790 12/00 02404 10080 20060 30169 40184 53004 60006 80000 92100=
07790,1997-03-23 00:00:00,8,1018.7,0.3,87,6,25000,7.408,,,240,,,,,,,,,,,wg-a,,,,AAXX 23004 07790 12/75 02404 10080 20060 30172 40187 50003 60006 80000 90000=
07790,1997-03-23 03:00:00,7,1018.3,-0.4,87,5,25000,14.816,,,240,,,,,,,,,,,wg-a,,,,AAXX 23034 07790 12/75 02408 10070 20050 30168 40183 58004 60006 80000 90300=
07790,1997-03-23 06:00:00,7,1018.9,0.6,81,4,25000,7.408,,,230,6.8,13.1,,,,,,,,,wg-a,,,,AAXX 23064 07790 02/75 02304 10070 20040 30174 40189 52006 60006 80000 90600 333 10131 20068 60004=
07790,1997-03-23 09:00:00,16,1019.3,0.5,55,7,25000,11.112,,,170,,,,,,,,,,,wg-a,,,,AAXX 23094 07790 12675 /1706 10160 20070 30179 40193 51005 60006 81100 90900=
07790,1997-03-23 12:00:00,18,1017.3,-2,56,9,11000,22.224,,,140,,,,,,,,,,,wg-a,,,,AAXX 23124 07790 12/61 /1412 10180 20090 30159 40173 58020 60006 91200=
07790,1997-03-23 15:00:00,16,1016.2,-1.1,68,10,20000,14.816,,,150,,,,,,,,,,,wg-a,,,,AAXX 23154 07790 12570 71508 10160 20100 30148 40162 56011 60006 85802 91500=
07790,1997-03-23 18:00:00,14,1015.6,-0.6,82,11,20000,7.408,,,140,7.1,18.1,,,,,,,,,wg-a,,,,AAXX 23184 07790 12570 81404 10140 20110 30142 40156 57006 60006 84802 91800 333 10181 20071=
07790,1997-03-23 21:00:00,11,1013.7,-2,87,9,15000,7.408,,,220,,,,,,,,,,,wg-a,,,,AAXX 23214 07790 12565 72204 10110 20090 30122 40137 58020 60006 85802 92100=
07790,1997-03-24 00:00:00,9,1011.1,-2.6,93,8,0,11.112,,,220,,,,,,,,,,,wg-a,,,,AAXX 24004 07790 12/// /2206 10090 20080 30096 40111 58026 60006 90000=
07790,1997-03-24 03:00:00,12,1007.5,-3.5,58,4,15000,11.112,,,200,,,,,,,,,,,wg-a,,,,AAXX 24034 07790 12565 72006 10120 20040 30061 40075 57035 60006 858// 90300=
07790,1997-03-24 06:00:00,12,1004.6,-2.9,67,6,15000,14.816,,,220,9.1,13.8,,,,,,,,,wg-a,,,,AAXX 24064 07790 02565 72208 10120 20060 30032 40046 57029 60006 878// 90600 333 10138 20091 60004=
07790,1997-03-24 12:00:00,14,1003.7,-1.2,72,9,11000,25.928,,,10,,,,,,,,,,,wg-a,,,,AAXX 24124 07790 12/61 /0114 10140 20090 30023 40037 55012 60026 91200=
07790,1997-03-24 15:00:00,12,1004.3,0.6,71,7,25000,18.52,,,350,,,,,,,,,,,wg-a,,,,AAXX 24154 07790 12575 /3510 10120 20070 30029 40043 50006 60006 82800 91500=
07790,1997-03-24 18:00:00,13,1005.9,1.6,62,6,20000,18.52,,,350,10.7,15.9,,,,,,,,,wg-a,,,,AAXX 24184 07790 12570 83510 10130 20060 30045 40059 53016 60006 84230 91800 333 10159 20107=
07790,1997-03-25 03:00:00,12,1008.6,-0.1,71,7,25000,18.52,,,50,,,,,,,,,,,wg-a,,,,AAXX 25034 07790 12575 70510 10120 20070 30072 40086 58001 60006 878// 90300=
07790,1997-03-25 06:00:00,12,1009.9,1.3,67,6,40000,11.112,,,330,11,13,,,,,2,,,,wg-a,,,,AAXX 25064 07790 02582 73306 10120 20060 30085 40099 53013 60006 878// 90600 333 10130 20110 60024=
07790,1997-03-25 09:00:00,13,1011.2,1.3,72,8,40000,22.224,,,10,,,,,,,,,,,wg-a,,,,AAXX 25094 07790 12582 70112 10130 20080 30098 40112 51013 60006 878// 90900=
07790,1997-03-25 12:00:00,15,1011.6,0.4,59,7,500,18.52,,,30,,,,,,,,,,,wg-a,,,,AAXX 25124 07790 12500 30310 10150 20070 30102 40116 51004 60006 83200 91200=
07790,1997-03-25 15:00:00,15,1011,-0.6,63,8,500,14.816,,,10,,,,,,,,,,,wg-a,,,,AAXX 25154 07790 12500 /0108 10150 20080 30096 40110 55006 60006 81230 91500=
07790,1997-03-25 18:00:00,13,1011.8,0.8,67,7,17000,3.704,,,270,11.6,15.7,,,,,,,,,wg-a,,,,AAXX 25184 07790 12567 42702 10130 20070 30104 40118 53008 60006 81850 91800 333 10157 20116=
07790,1997-03-25 21:00:00,11,1013.6,1.7,76,7,20000,3.704,,,260,,,,,,,,,,,wg-a,,,,AAXX 25214 07790 12670 /2602 10110 20070 30121 40136 51017 60006 84550 92100=
07790,1997-03-26 00:00:00,9,1014.6,1,81,6,20000,7.408,,,270,,,,,,,,,,,wg-a,,,,AAXX 26004 07790 12/70 22704 10090 20060 30131 40146 53010 60006 82050 90000=
07790,1997-03-26 06:00:00,11,1016.9,1.9,71,6,20000,7.408,,,270,8.4,12.7,,,,,,,,,wg-a,,,,AAXX 26064 07790 02570 /2704 10110 20060 30154 40169 53019 60006 81100 90600 333 10127 20084 60004=
07790,1997-03-26 09:00:00,14,1018.1,2.1,58,6,12000,18.52,,,20,,,,,,,,,,,wg-a,,,,AAXX 26094 07790 12562 /0210 10140 20060 30167 40181 51021 60006 81200 90900=
07790,1997-03-26 12:00:00,16,1019.6,0.8,51,6,18000,18.52,,,20,,,,,,,,,,,wg-a,,,,AAXX 26124 07790 12568 /0210 10160 20060 30182 40196 51008 60006 81200 91200=
07790,1997-03-26 18:00:00,13,1020.4,1.3,58,5,10000,3.704,,,260,10.7,16.9,,,,,,,,,wg-a,,,,AAXX 26184 07790 12/60 12602 10130 20050 30189 40204 51013 60006 80001 91800 333 10169 20107=
07790,1997-03-26 21:00:00,9,1021.8,1.4,66,3,500,7.408,,,250,,,,,,,,,,,wg-a,,,,AAXX 26214 07790 12/00 02504 10090 20030 30203 40218 53014 60006 80000 92100=
07790,1997-03-27 00:00:00,10,1022.5,0.7,62,3,25000,14.816,,,240,,,,,,,,,,,wg-a,,,,AAXX 27004 07790 12/75 02408 10100 20030 30210 40225 51007 60006 80000 90000=
07790,1997-03-27 03:00:00,9,1022.4,-0.1,66,3,25000,14.816,,,230,,,,,,,,,,,wg-a,,,,AAXX 27034 07790 12/75 02308 10090 20030 30209 40224 55001 60006 80000 90300=
07790,1997-03-27 09:00:00,18,1023.6,0.5,37,3,50000,11.112,,,140,,,,,,,,,,,wg-a,,,,AAXX 27094 07790 12/84 01406 10180 20030 30222 40236 53005 60006 80000 90900=
07790,1997-03-27 12:00:00,19,1023,-0.6,40,5,50000,14.816,,,130,,,,,,,,,,,wg-a,,,,AAXX 27124 07790 12/84 01308 10190 20050 30216 40230 58006 60006 80000 91200=
07790,1997-03-27 15:00:00,19,1022.1,-0.9,43,6,50000,14.816,,,140,,,,,,,,,,,wg-a,,,,AAXX 27154 07790 12/84 01408 10190 20060 30207 40221 57009 60006 80000 91500=
07790,1997-03-27 18:00:00,14,1022.4,0.2,55,5,40000,11.112,,,10,9.6,19.5,,,,,,,,,wg-a,,,,AAXX 27184 07790 12/82 00106 10140 20050 30209 40224 52002 60006 80000 91800 333 10195 20096=
07790,1997-03-27 21:00:00,10,1022.6,0.2,76,6,500,7.408,,,250,,,,,,,,,,,wg-a,,,,AAXX 27214 07790 12/00 02504 10100 20060 30211 40226 50002 60006 80000 92100=
07790,1997-03-28 00:00:00,9,1021.5,-1.1,76,5,500,7.408,,,220,,,,,,,,,,,wg-a,,,,AAXX 28004 07790 12/00 02204 10090 20050 30200 40215 58011 60006 80000 90000=
07790,1997-03-28 03:00:00,9,1019,-2.5,71,4,500,14.816,,,220,,,,,,,,,,,wg-a,,,,AAXX 28034 07790 12/00 02208 10090 20040 30175 40190 58025 60006 80000 90300=
07790,1997-03-28 06:00:00,8,1017.4,-1.6,76,4,12000,11.112,,,220,7.5,14,,,,,,,,,wg-a,,,,AAXX 28064 07790 02/62 02206 10080 20040 30159 40174 56016 60006 80000 90600 333 10140 20075 60004=
07790,1997-03-28 09:00:00,17,1015.1,-2.2,55,8,500,22.224,,,150,,,,,,,,,,,wg-a,,,,AAXX 28094 07790 12500 11512 10170 20080 30137 40151 56022 60006 81100 90900=
07790,1997-03-28 12:00:00,17,1011.6,-3.5,59,9,500,18.52,,,150,,,,,,,,,,,wg-a,,,,AAXX 28124 07790 12500 51510 10170 20090 30102 40116 58035 60006 85830 91200=
07790,1997-03-28 15:00:00,18,1007.1,-4.5,56,9,500,11.112,,,150,,,,,,,,,,,wg-a,,,,AAXX 28154 07790 12500 /1506 10180 20090 30057 40071 57045 60006 81100 91500=
07790,1997-03-28 18:00:00,14,1004.9,-2.2,88,12,500,3.704,,,140,8,18.7,,,,,,,,,wg-a,,,,AAXX 28184 07790 12500 21402 10140 20120 30035 40049 56022 60006 82440 91800 333 10187 20080=
07790,1997-03-28 21:00:00,13,1004.5,-0.4,88,11,11000,3.704,,,150,,,,,,,,,,,wg-a,,,,AAXX 28214 07790 12/61 /1502 10130 20110 30031 40045 55004 60006 92100=
07790,1997-03-29 00:00:00,14,1007,2.5,88,12,12000,35.188,,57.412,10,,,,0,,,,,,61,wg-a,,,,AAXX 29004 07790 02562 70119 10140 20120 30056 40070 53025 60006 76161 8587/ 90000 333 60007 91031=
07790,1997-03-29 03:00:00,13,1008.9,1.9,77,9,12000,22.224,,,20,,,,1,,,,,,2,wg-a,,,,AAXX 29034 07790 12562 40212 10130 20090 30075 40089 53019 60017 70261 83830 90300=
07790,1997-03-29 06:00:00,12,1011.2,2.3,67,6,12000,11.112,,,350,10.9,14.6,,,,,1,,,3,wg-a,,,,AAXX 29064 07790 02562 63506 10120 20060 30098 40112 51023 60006 70361 86300 90600 333 10146 20109 60014=
07790,1997-03-29 09:00:00,15,1012.3,1.1,55,6,25000,25.928,,,30,,,,1,,,,,,3,wg-a,,,,AAXX 29094 07790 12575 20314 10150 20060 30109 40123 51011 60017 70386 82200 90900=
07790,1997-03-29 18:00:00,13,1012.2,0.1,24,-7,25000,18.52,,,310,11.2,16.3,,,,,,,,,wg-a,,,,AAXX 29184 07790 12/75 03110 10130 21070 30108 40122 50001 60006 80000 91800 333 10163 20112=
07790,1997-03-29 21:00:00,12,1013.8,1.5,32,-4,25000,14.816,,,320,,,,,,,,,,,wg-a,,,,AAXX 29214 07790 12/75 03208 10120 21040 30123 40138 51015 60006 80000 92100=
07790,1997-03-30 00:00:00,11,1014.5,0.7,30,-6,25000,14.816,,,330,,,,,,,,,,,wg-a,,,,AAXX 30004 07790 12/75 03308 10110 21060 30130 40145 51007 60006 80000 90000=
07790,1997-03-30 03:00:00,8,1014.3,-0.2,46,-3,25000,11.112,,,260,,,,,,,,,,,wg-a,,,,AAXX 30034 07790 12/75 02606 10080 21030 30128 40143 58002 60006 80000 90300=
07790,1997-03-30 06:00:00,8,1015,0.7,53,-1,40000,7.408,,,260,7.5,12.9,,,,,1,,,,wg-a,,,,AAXX 30064 07790 02/82 /2604 10080 21010 30135 40150 53007 60006 80000 90600 333 10129 20075 60014=
07790,1997-03-30 09:00:00,16,1015.7,0.8,25,-4,40000,18.52,,,330,,,,,,,,,,,wg-a,,,,AAXX 30094 07790 12682 /3310 10160 21040 30143 40157 52008 60006 81100 90900=
07790,1997-03-30 12:00:00,17,1015.1,-0.6,34,1,40000,25.928,,,30,,,,,,,,,,,wg-a,,,,AAXX 30124 07790 12682 /0314 10170 20010 30137 40151 58006 60006 81200 91200=
07790,1997-03-30 15:00:00,16,1015.1,-0,39,2,50000,18.52,,,20,,,,,,,,,,,wg-a,,,,AAXX 30154 07790 12684 /0210 10160 20020 30137 40151 55000 60006 81200 91500=
07790,1997-03-30 18:00:00,13,1016.3,1.1,33,-3,40000,3.704,,,230,7.9,16.9,,,,,,,,,wg-a,,,,AAXX 30184 07790 12/82 02302 10130 21030 30148 40163 53011 60006 80000 91800 333 10169 20079=
07790,1997-03-30 21:00:00,10,1017.7,1.4,34,-5,20000,14.816,,,250,,,,,,,,,,,wg-a,,,,AAXX 30214 07790 12/70 02508 10100 21050 30162 40177 51014 60006 80000 92100=
07790,1997-03-31 00:00:00,7,1020.3,2.6,49,-3,20000,11.112,,,230,,,,,,,,,,,wg-a,,,,AAXX 31004 07790 12670 /2306 10070 21030 30188 40203 51026 60006 81500 90000=
07790,1997-03-31 06:00:00,5,1022.8,1.4,70,0,40000,11.112,,,230,4.3,12.4,,,,,,,,,wg-a,,,,AAXX 31064 07790 02582 /2306 10050 20000 30213 40228 52014 60006 81530 90600 333 10124 20043 60004=
07790,1997-03-31 09:00:00,14,1023.4,0.6,31,-3,40000,14.816,,,130,,,,,,,,,,,wg-a,,,,AAXX 31094 07790 12/82 01308 10140 21030 30219 40234 51006 60006 80000 90900=
07790,1997-03-31 12:00:00,15,1022.2,-1.1,25,-5,40000,14.816,,,30,,,,,,,,,,,wg-a,,,,AAXX 31124 07790 12582 10308 10150 21050 30208 40222 58011 60006 81100 91200=
07790,1997-03-31 18:00:00,12,1019.9,-1.1,50,2,40000,11.112,,,310,5.4,16.7,,,,,,,,,wg-a,,,,AAXX 31184 07790 12/82 03106 10120 20020 30184 40199 58011 60006 80000 91800 333 10167 20054=
07790,1997-03-31 21:00:00,11,1020,0.1,37,-3,500,11.112,,,250,,,,,,,,,,,wg-a,,,,AAXX 31214 07790 12/00 02506 10110 21030 30185 40200 50001 60006 80000 92100=
07790,1997-04-01 00:00:00,9,1020,0,43,-3,500,18.52,,,230,,,,,,,,,,,wg-a,,,,AAXX 01004 07790 12/00 02310 10090 21030 30185 40200 50000 60006 80000 90000=
07790,1997-04-01 03:00:00,10,1018.4,-1.6,40,-3,500,11.112,,,230,,,,,,,,,,,wg-a,,,,AAXX 01034 07790 12/00 /2306 10100 21030 30169 40184 58016 60006 85050 90300=
07790,1997-04-01 06:00:00,9,1019.3,0.9,49,-1,11000,3.704,,,200,8,12,,,,,,,,,wg-a,,,,AAXX 01064 07790 02/61 /2002 10090 21010 30178 40193 53009 60006 90600 333 10120 20080 60004=
07790,1997-04-01 09:00:00,16,1019.2,0,36,1,11000,7.408,,,170,,,,,,,,,,,wg-a,,,,AAXX 01094 07790 12/61 /1704 10160 20010 30178 40192 50000 60006 90900=
07790,1997-04-01 12:00:00,18,1017.8,-1.4,26,-2,500,7.408,,,40,,,,,,,,,,,wg-a,,,,AAXX 01124 07790 12500 40404 10180 21020 30164 40178 58014 60006 82830 91200=
07790,1997-04-01 15:00:00,18,1015.2,-2.6,32,1,500,11.112,,,50,,,,,,,,,,,wg-a,,,,AAXX 01154 07790 12/00 20506 10180 20010 30138 40152 56026 60006 82031 91500=
07790,1997-04-01 18:00:00,14,1014.9,-0.3,77,10,500,7.408,,,310,8.8,19.1,,,,,,,,,wg-a,,,,AAXX 01184 07790 12/00 23104 10140 20100 30135 40149 55003 60006 81031 91800 333 10191 20088=
07790,1997-04-01 21:00:00,11,1015.4,0.4,71,6,25000,7.408,,,260,,,,,,,,,,,wg-a,,,,AAXX 01214 07790 12775 32604 10110 20060 30139 40154 50004 60006 81540 92100=
07790,1997-04-02 00:00:00,12,1016.2,0.8,67,6,25000,7.408,,,220,,,,,,,,,,,wg-a,,,,AAXX 02004 07790 12775 52204 10120 20060 30147 40162 51008 60006 81542 90000=
07790,1997-04-02 03:00:00,11,1016.4,0.2,82,8,25000,7.408,,,330,,,,0,,,,,,21,wg-a,,,,AAXX 02034 07790 12575 /3304 10110 20080 30149 40164 50002 60007 72122 84832 90300=
07790,1997-04-02 06:00:00,12,1017.5,1.1,71,7,25000,3.704,,,150,10.9,13.6,,,,,,,,1,wg-a,,,,AAXX 02064 07790 02575 /1502 10120 20070 30160 40175 53011 60006 70161 81100 90600 333 10136 20109 60004=
07790,1997-04-02 09:00:00,15,1018.4,1,44,3,20000,11.112,,,50,,,,,,,,,,,wg-a,,,,AAXX 02094 07790 12/70 30506 10150 20030 30170 40184 52010 60006 80001 90900=
07790,1997-04-02 12:00:00,17,1017.6,-0.8,25,-3,20000,11.112,,,40,,,,,,,,,,,wg-a,,,,AAXX 02124 07790 12/70 40406 10170 21030 30162 40176 56008 60006 80001 91200=
07790,1997-04-02 21:00:00,11,1016.4,1.3,66,5,15000,7.408,,,220,,,,,,,,,,,wg-a,,,,AAXX 02214 07790 12/65 32204 10110 20050 30149 40164 51013 60006 80001 92100=
07790,1997-04-03 00:00:00,9,1015.9,-0.5,76,5,15000,3.704,,,270,,,,,,,,,,,wg-a,,,,AAXX 03004 07790 12/65 32702 10090 20050 30144 40159 58005 60006 80001 90000=
07790,1997-04-03 03:00:00,8,1015,-0.9,76,4,15000,7.408,,,250,,,,,,,,,,,wg-a,,,,AAXX 03034 07790 12/65 32504 10080 20040 30135 40150 56009 60006 80001 90300=
07790,1997-04-03 06:00:00,11,1014.8,-0.2,58,3,40000,18.52,,,230,7.7,16.5,,,,,,,,,wg-a,,,,AAXX 03064 07790 02/82 02310 10110 20030 30133 40148 55002 60006 80000 90600 333 10165 20077 60004=
07790,1997-04-03 09:00:00,18,1014.2,-0.5,45,6,40000,14.816,,,140,,,,,,,,,,,wg-a,,,,AAXX 03094 07790 12/82 01408 10180 20060 30128 40142 58005 60006 80000 90900=
07790,1997-04-03 12:00:00,20,1012.6,-1.6,40,6,500,18.52,,,130,,,,,,,,,,,wg-a,,,,AAXX 03124 07790 12600 /1310 10200 20060 30112 40126 57016 60006 81100 91200=
07790,1997-04-03 15:00:00,18,1011.2,-1.4,64,11,20000,11.112,,,80,,,,,,,,,,4,wg-a,,,,AAXX 03154 07790 12670 30806 10180 20110 30098 40112 58014 60006 70400 83100 91500=
07790,1997-04-03 18:00:00,15,1010.4,-0.8,72,10,20000,3.704,,,140,11.3,20.3,,,,,,,,4,wg-a,,,,AAXX 03184 07790 12470 /1402 10150 20100 30090 40104 57008 60006 70400 81530 91800 333 10203 20113=
07790,1997-04-04 03:00:00,9,1008.9,-0.9,87,7,20000,11.112,,,230,,,,,,,,,,,wg-a,,,,AAXX 04034 07790 12/70 02306 10090 20070 30074 40089 56009 60006 80000 90300=
07790,1997-04-04 06:00:00,8,1008.5,-0.4,81,5,20000,7.408,,,250,7.5,14.6,,,,,,,,11,wg-a,,,,AAXX 04064 07790 02/70 /2504 10080 20050 30070 40085 55004 60006 71100 80001 90600 333 10146 20075 60004=
07790,1997-04-04 09:00:00,18,1008.4,-0,64,11,16000,7.408,,,130,,,,,,,,,,,wg-a,,,,AAXX 04094 07790 12/66 61304 10180 20110 30070 40084 55000 60006 80002 90900=
07790,1997-04-04 12:00:00,17,1007.5,-0.9,72,12,10000,18.52,,,140,,,,,,,,,,,wg-a,,,,AAXX 04124 07790 12/60 81410 10170 20120 30061 40075 58009 60006 80002 91200=
07790,1997-04-04 15:00:00,18,1005.9,-1.6,68,12,8000,11.112,,,140,,,,,,,,,,,wg-a,,,,AAXX 04154 07790 12/58 /1406 10180 20120 30045 40059 58016 60006 80001 91500=
07790,1997-04-04 18:00:00,14,1007.4,1.5,88,12,8000,3.704,,,120,8.4,18.1,,,,,,,,,wg-a,,,,AAXX 04184 07790 12458 /1202 10140 20120 30060 40074 51015 60006 81501 91800 333 10181 20084=
07790,1997-04-04 21:00:00,10,1010,2.5,93,9,6000,3.704,,,260,,,,,,,,,,,wg-a,,,,AAXX 04214 07790 12/56 02602 10100 20090 30085 40100 53025 60006 80000 92100=
07790,1997-04-05 00:00:00,11,1013.3,3.4,100,11,6000,11.112,,,230,,,,,,,,,,,wg-a,,,,AAXX 05004 07790 12456 72306 10110 20110 30119 40133 53034 60006 87600 90000=
07790,1997-04-05 03:00:00,12,1014.3,1,88,10,12000,3.704,,,150,,,,,,,,,,,wg-a,,,,AAXX 05034 07790 12462 51502 10120 20100 30129 40143 53010 60006 85100 90300=
07790,1997-04-05 06:00:00,11,1017.2,2.8,66,5,500,7.408,,,230,9.4,14.2,,,,,,,,,wg-a,,,,AAXX 05064 07790 02600 72304 10110 20050 30157 40172 52028 60006 81506 90600 333 10142 20094 60004=
07790,1997-04-05 09:00:00,16,1018.5,1.4,42,3,500,7.408,,,110,,,,,,,,,,,wg-a,,,,AAXX 05094 07790 12700 51104 10160 20030 30171 40185 53014 60006 81505 90900=
07790,1997-04-05 12:00:00,18,1017.6,-0.9,42,5,500,11.112,,,110,,,,,,,,,,,wg-a,,,,AAXX 05124 07790 12/00 21106 10180 20050 30162 40176 58009 60006 81042 91200=
07790,1997-04-05 15:00:00,17,1016.4,-1.2,48,6,500,18.52,,,140,,,,,,,,,,,wg-a,,,,AAXX 05154 07790 12/00 21410 10170 20060 30150 40164 56012 60006 80002 91500=
07790,1997-04-05 18:00:00,14,1016.1,-0.3,67,8,25000,7.408,,,180,10.4,17.8,,,,,,,,,wg-a,,,,AAXX 05184 07790 12/75 51804 10140 20080 30147 40161 58003 60006 80005 91800 333 10178 20104=
07790,1997-04-06 00:00:00,8,1014.9,-1,66,2,15000,11.112,,,220,,,,,,,,,,,wg-a,,,,AAXX 06004 07790 12/65 02206 10080 20020 30134 40149 58010 60006 80000 90000=
07790,1997-04-06 03:00:00,7,1012.7,-2.2,70,2,15000,11.112,,,240,,,,,,,,,,,wg-a,,,,AAXX 06034 07790 12/65 02406 10070 20020 30112 40127 56022 60006 80000 90300=
07790,1997-04-06 06:00:00,8,1012.6,-0.1,76,4,11000,11.112,,,230,6.6,13.8,,,,,,,,,wg-a,,,,AAXX 06064 07790 02/61 /2306 10080 20040 30111 40126 56001 60006 90600 333 10138 20066 60004=
07790,1997-04-06 09:00:00,16,1012.9,0.4,72,11,12000,11.112,,,40,,,,,,,,,,,wg-a,,,,AAXX 06094 07790 12562 30406 10160 20110 30115 40129 53004 60006 83200 90900=
07790,1997-04-06 12:00:00,17,1012,-0.9,63,10,11000,11.112,,,60,,,,,,,,,,,wg-a,,,,AAXX 06124 07790 12/61 /0606 10170 20100 30106 40120 56009 60006 91200=
07790,1997-04-06 15:00:00,17,1011,-1,55,8,12000,11.112,,,80,,,,,,,,,,,wg-a,,,,AAXX 06154 07790 12/62 00806 10170 20080 30096 40110 57010 60006 80000 91500=
07790,1997-04-06 18:00:00,14,1011.9,0.9,77,10,12000,7.408,,,30,7.9,17.6,,,,,,,,,wg-a,,,,AAXX 06184 07790 12/62 00304 10140 20100 30105 40119 53009 60006 80000 91800 333 10176 20079=
07790,1997-04-06 21:00:00,10,1013.8,1.8,87,8,20000,7.408,,,240,,,,,,,,,,,wg-a,,,,AAXX 06214 07790 12/70 02404 10100 20080 30123 40138 51018 60006 80000 92100=
07790,1997-04-07 00:00:00,10,1015.2,1.4,87,8,20000,7.408,,,230,,,,,,,,,,,wg-a,,,,AAXX 07004 07790 12/70 /2304 10100 20080 30137 40152 53014 60006 80000 90000=
07790,1997-04-07 03:00:00,10,1016.7,1.5,93,9,16000,7.408,,,260,,,,,,,,,,,wg-a,,,,AAXX 07034 07790 12466 /2604 10100 20090 30152 40167 52015 60006 86500 90300=
07790,1997-04-07 06:00:00,12,1019,2.3,82,9,20000,3.704,,,230,8.8,14.4,,,,,,,,,wg-a,,,,AAXX 07064 07790 02670 52302 10120 20090 30175 40190 53023 60006 82581 90600 333 10144 20088 60004=
07790,1997-04-07 12:00:00,18,1020.8,0,42,5,20000,14.816,,,130,,,,,,,,,,,wg-a,,,,AAXX 07124 07790 12670 /1308 10180 20050 30194 40208 50000 60006 81100 91200=
07790,1997-04-07 18:00:00,15,1021.2,0.9,59,7,500,7.408,,,160,12.1,18.8,,,,,,,,,wg-a,,,,AAXX 07184 07790 12/00 31604 10150 20070 30198 40212 51009 60006 80001 91800 333 10188 20121=
07790,1997-04-07 21:00:00,10,1023.6,2.3,46,-1,500,7.408,,,190,,,,,,,,,,,wg-a,,,,AAXX 07214 07790 12/00 01904 10100 21010 30221 40236 53023 60006 80000 92100=
07790,1997-04-08 00:00:00,12,1027.3,3.7,54,3,20000,14.816,,,150,,,,,,,,,,,wg-a,,,,AAXX 08004 07790 12670 21508 10120 20030 30258 40273 53037 60006 81530 90000=
07790,1997-04-08 03:00:00,10,1028.5,1.2,53,1,20000,14.816,,,130,,,,,,,,,,,wg-a,,,,AAXX 08034 07790 12670 21308 10100 20010 30270 40285 51012 60006 81530 90300=
07790,1997-04-08 06:00:00,11,1029.9,1.4,47,0,40000,22.224,,,140,9,14.6,,,,,,,,,wg-a,,,,AAXX 08064 07790 02682 21412 10110 20000 30284 40299 53014 60006 81501 90600 333 10146 20090 60004=
07790,1997-04-08 09:00:00,14,1029.9,-0,41,1,50000,25.928,,,150,,,,,,,,,,,wg-a,,,,AAXX 08094 07790 12684 /1514 10140 20010 30284 40299 55000 60006 81501 90900=
07790,1997-04-08 12:00:00,14,1029.7,-0.2,38,0,50000,22.224,,,140,,,,,,,,,,,wg-a,,,,AAXX 08124 07790 12684 /1412 10140 20000 30282 40297 58002 60006 81501 91200=
07790,1997-04-08 15:00:00,14,1028.3,-1.4,41,1,50000,18.52,,,130,,,,,,,,,,,wg-a,,,,AAXX 08154 07790 12684 /1310 10140 20010 30268 40283 56014 60006 81501 91500=
07790,1997-04-08 18:00:00,12,1028.3,-0,54,3,50000,7.408,,,190,10.5,14.4,,,,,,,,,wg-a,,,,AAXX 08184 07790 12/84 11904 10120 20030 30268 40283 55000 60006 80001 91800 333 10144 20105=
07790,1997-04-09 00:00:00,5,1030.3,0.9,75,1,15000,7.408,,,240,,,,,,,,,,,wg-a,,,,AAXX 09004 07790 12/65 02404 10050 20010 30288 40303 52009 60006 80000 90000=
07790,1997-04-09 03:00:00,4,1030,-0.3,75,0,10000,7.408,,,230,,,,,,,,,,,wg-a,,,,AAXX 09034 07790 12/60 /2304 10040 20000 30285 40300 56003 60006 90300=
07790,1997-04-09 06:00:00,6,1030.8,0.8,61,-1,20000,7.408,,,210,3.7,11.5,,,,,,,,,wg-a,,,,AAXX 09064 07790 02770 12104 10060 21010 30293 40308 53008 60006 815/0 90600 333 10115 20037 60004=
07790,1997-04-09 09:00:00,15,1031.4,0.6,39,1,25000,22.224,,,140,,,,,,,,,,,wg-a,,,,AAXX 09094 07790 12/75 01412 10150 20010 30299 40314 53006 60006 80000 90900=
07790,1997-04-09 12:00:00,16,1031.8,0.4,48,5,25000,29.632,,,140,,,,,,,,,,,wg-a,,,,AAXX 09124 07790 12/75 01416 10160 20050 30303 40318 51004 60006 80000 91200=
07790,1997-04-09 15:00:00,15,1030.6,-1.2,51,5,25000,25.928,,,140,,,,,,,,,,,wg-a,,,,AAXX 09154 07790 12675 /1414 10150 20050 30291 40306 58012 60006 81100 91500=
07790,1997-04-09 18:00:00,12,1030.5,-0.1,67,6,25000,11.112,,,150,6.1,15.8,,,,,,,,,wg-a,,,,AAXX 09184 07790 12/75 01506 10120 20060 30290 40305 55001 60006 80000 91800 333 10158 20061=
07790,1997-04-09 21:00:00,8,1031.4,0.9,81,5,15000,7.408,,,220,,,,,,,,,,,wg-a,,,,AAXX 09214 07790 12/65 02204 10080 20050 30299 40314 51009 60006 80000 92100=
07790,1997-04-10 00:00:00,6,1031.6,0.2,87,4,15000,7.408,,,220,,,,,,,,,,,wg-a,,,,AAXX 10004 07790 12/65 02204 10060 20040 30301 40316 53002 60006 80000 90000=
07790,1997-04-10 03:00:00,6,1030.5,-1.1,75,2,15000,11.112,,,220,,,,,,,,,,,wg-a,,,,AAXX 10034 07790 12/65 02206 10060 20020 30290 40305 57011 60006 80000 90300=
07790,1997-04-10 06:00:00,7,1030.6,0.1,70,2,20000,11.112,,,220,4.5,12.3,,,,,,,,,wg-a,,,,AAXX 10064 07790 02/70 12206 10070 20020 30291 40306 51001 60006 80001 90600 333 10123 20045 60004=
07790,1997-04-10 09:00:00,16,1030.1,-0.5,51,6,20000,14.816,,,140,,,,,,,,,,,wg-a,,,,AAXX 10094 07790 12/70 21408 10160 20060 30286 40301 56005 60006 80002 90900=
07790,1997-04-10 12:00:00,16,1029.3,-0.7,55,7,11000,22.224,,,140,,,,,,,,,,,wg-a,,,,AAXX 10124 07790 12/61 /1412 10160 20070 30279 40293 58007 60006 91200=
07790,1997-04-10 18:00:00,14,1027.5,-0.2,72,9,12000,7.408,,,170,7,16.9,,,,,,,,,wg-a,,,,AAXX 10184 07790 12/62 01704 10140 20090 30260 40275 56002 60006 80000 91800 333 10169 20070=
07790,1997-04-10 21:00:00,9,1028.4,0.9,81,6,15000,11.112,,,240,,,,,,,,,,,wg-a,,,,AAXX 10214 07790 12/65 02406 10090 20060 30269 40284 51009 60006 80000 92100=
07790,1997-04-11 00:00:00,9,1028.2,-0.2,81,6,15000,11.112,,,220,,,,,,,,,,,wg-a,,,,AAXX 11004 07790 12/65 02206 10090 20060 30267 40282 58002 60006 80000 90000=
07790,1997-04-11 03:00:00,8,1026.8,-1.4,87,6,15000,11.112,,,220,,,,,,,,,,,wg-a,,,,AAXX 11034 07790 12/65 02206 10080 20060 30253 40268 56014 60006 80000 90300=
07790,1997-04-11 09:00:00,16,1024.6,-0.9,63,9,15000,11.112,,,150,,,,,,,,,,,wg-a,,,,AAXX 11094 07790 12565 /1506 10160 20090 30232 40246 58009 60006 81100 90900=
07790,1997-04-11 12:00:00,16,1022.6,-2,63,9,11000,11.112,,,50,,,,,,,,,,,wg-a,,,,AAXX 11124 07790 12/61 /0506 10160 20090 30212 40226 56020 60006 91200=
07790,1997-04-11 18:00:00,14,1016,-3.1,72,9,15000,3.704,,,120,9.4,17.5,,,,,,,,,wg-a,,,,AAXX 11184 07790 12565 61202 10140 20090 30146 40160 56031 60006 85831 91800 333 10175 20094=
07790,1997-04-11 21:00:00,13,1015,-1,77,9,20000,3.704,,,230,,,,,,,,,,,wg-a,,,,AAXX 11214 07790 12570 /2302 10130 20090 30136 40150 58010 60006 86500 92100=
07790,1997-04-12 00:00:00,10,1013.2,-1.9,87,8,20000,7.408,,,240,,,,,,,,,,,wg-a,,,,AAXX 12004 07790 12570 62404 10100 20080 30117 40132 56019 60006 86500 90000=
07790,1997-04-12 03:00:00,11,1011.3,-1.9,87,9,20000,7.408,,,240,,,,,,,,,,,wg-a,,,,AAXX 12034 07790 12570 /2404 10110 20090 30098 40113 56019 60006 86500 90300=
07790,1997-04-12 06:00:00,12,1011.4,0.2,88,10,20000,3.704,,,220,9.9,13.9,,,,,,,,,wg-a,,,,AAXX 12064 07790 02470 82202 10120 20100 30100 40114 53002 60006 85872 90600 333 10139 20099 60004=
07790,1997-04-12 09:00:00,18,1011.8,0.4,59,10,500,3.704,,,180,,,,,,,,,,,wg-a,,,,AAXX 12094 07790 12500 /1802 10180 20100 30104 40118 53004 60006 81100 90900=
07790,1997-04-12 12:00:00,17,1012.2,0.4,59,9,20000,14.816,,,70,,,,,,,,,,,wg-a,,,,AAXX 12124 07790 12570 60708 10170 20090 30108 40122 51004 60006 84834 91200=
07790,1997-04-12 15:00:00,18,1012,-0.2,59,10,500,7.408,,,40,,,,,,,,,,,wg-a,,,,AAXX 12154 07790 12500 20404 10180 20100 30106 40120 58002 60006 82130 91500=
07790,1997-04-12 18:00:00,16,1012.1,0.1,59,8,20000,7.408,,,170,11.5,18,,,,,,,,,wg-a,,,,AAXX 12184 07790 12570 /1704 10160 20080 30107 40121 53001 60006 81100 91800 333 10180 20115=
07790,1997-04-13 00:00:00,8,1015.4,1.3,81,5,25000,11.112,,,240,,,,,,,,,,,wg-a,,,,AAXX 13004 07790 12/75 02406 10080 20050 30139 40154 51013 60006 80000 90000=
07790,1997-04-13 03:00:00,8,1016,0.6,76,4,25000,11.112,,,230,,,,,,,,,,,wg-a,,,,AAXX 13034 07790 12475 /2306 10080 20040 30145 40160 53006 60006 81500 90300=
07790,1997-04-13 06:00:00,9,1017.3,1.3,76,5,500,11.112,,,220,7,15.7,,,,,,,,,wg-a,,,,AAXX 13064 07790 02500 22206 10090 20050 30158 40173 53013 60006 81101 90600 333 10157 20070 60004=
07790,1997-04-13 09:00:00,17,1018.9,1.7,39,3,500,18.52,,,140,,,,,,,,,,,wg-a,,,,AAXX 13094 07790 12500 /1410 10170 20030 30175 40189 53017 60006 81101 90900=
07790,1997-04-13 12:00:00,17,1019,0.1,42,4,500,18.52,,,150,,,,,,,,,,,wg-a,,,,AAXX 13124 07790 12500 /1510 10170 20040 30176 40190 51001 60006 82230 91200=
07790,1997-04-13 18:00:00,14,1018.5,0.1,58,6,25000,3.704,,,180,8.7,17.5,,,,,,,,2,wg-a,,,,AAXX 13184 07790 02675 71802 10140 20060 30171 40185 53001 60006 70261 8357/ 91800 333 10175 20087 61000=
07790,1997-04-13 21:00:00,10,1019.3,0.7,87,8,25000,7.408,,,270,,,,,,,,,,,wg-a,,,,AAXX 13214 07790 12675 52704 10100 20080 30178 40193 51007 60006 8357/ 92100=
07790,1997-04-14 00:00:00,11,1019.3,-0,82,8,15000,7.408,,,230,,,,,,,,,,,wg-a,,,,AAXX 14004 07790 12665 42304 10110 20080 30178 40193 54000 60006 8357/ 90000=
07790,1997-04-14 03:00:00,11,1019.2,-0.1,76,7,15000,11.112,,,230,,,,,,,,,,,wg-a,,,,AAXX 14034 07790 12665 72306 10110 20070 30177 40192 57001 60006 8657/ 90300=
07790,1997-04-14 06:00:00,11,1020.1,0.9,76,7,11000,7.408,,,220,9.4,14.4,,,,,,,,,wg-a,,,,AAXX 14064 07790 02/61 /2204 10110 20070 30186 40201 52009 60006 90600 333 10144 20094 61000=
07790,1997-04-14 09:00:00,17,1020.5,0.5,63,10,11000,14.816,,,120,,,,,,,,,,,wg-a,,,,AAXX 14094 07790 12/61 /1208 10170 20100 30191 40205 51005 60006 90900=
07790,1997-04-14 12:00:00,16,1020.2,-0.3,72,11,20000,18.52,,,120,,,,,,,,,,,wg-a,,,,AAXX 14124 07790 12570 51210 10160 20110 30188 40202 57003 60006 83201 91200=
07790,1997-04-14 15:00:00,16,1019.2,-1,68,10,20000,11.112,,,120,,,,,,,,,,,wg-a,,,,AAXX 14154 07790 12570 41206 10160 20100 30178 40192 58010 60006 84800 91500=
07790,1997-04-14 18:00:00,15,1019.1,-0.1,72,10,10000,7.408,,,150,11.3,18.1,,,,,,,,,wg-a,,,,AAXX 14184 07790 12660 21504 10150 20100 30177 40191 55001 60006 82500 91800 333 10181 20113=
07790,1997-04-14 21:00:00,11,1019.8,0.6,82,8,20000,0,,,120,,,,,,,,,,,wg-a,,,,AAXX 14214 07790 12/70 /12// 10110 20080 30183 40198 51006 60006 92100=
07790,1997-04-15 00:00:00,9,1019.3,-0.5,81,6,25000,3.704,,,250,,,,,,,,,,,wg-a,,,,AAXX 15004 07790 12575 /2502 10090 20060 30178 40193 56005 60006 81500 90000=
07790,1997-04-15 03:00:00,10,1018.3,-1,82,7,25000,14.816,,,230,,,,,,,,,,,wg-a,,,,AAXX 15034 07790 12575 /2308 10100 20070 30168 40183 56010 60006 81500 90300=
07790,1997-04-15 06:00:00,11,1017.5,-0.8,76,7,15000,14.816,,,240,8.3,14.6,,,,,,,,,wg-a,,,,AAXX 15064 07790 02565 22408 10110 20070 30160 40175 56008 60006 81540 90600 333 10146 20083 60004=
07790,1997-04-15 09:00:00,17,1016.1,-1.3,59,9,15000,18.52,,,120,,,,,,,,,,4,wg-a,,,,AAXX 15094 07790 12665 /1210 10170 20090 30147 40161 56013 60006 70400 81100 90900=
07790,1997-04-15 12:00:00,17,1014.8,-1.3,68,11,15000,14.816,,,120,,,,,,,,,,4,wg-a,,,,AAXX 15124 07790 12565 41208 10170 20110 30134 40148 57013 60006 70400 83880 91200=
07790,1997-04-15 15:00:00,17,1013.1,-1.7,59,9,11000,14.816,,,80,,,,,,,,,,,wg-a,,,,AAXX 15154 07790 12/61 /0808 10170 20090 30117 40131 56017 60006 91500=
07790,1997-04-15 18:00:00,15,1012.4,-0.7,72,10,15000,7.408,,,30,11.2,18.7,,,,,,,,4,wg-a,,,,AAXX 15184 07790 12/65 00304 10150 20100 30110 40124 56007 60006 70400 80000 91800 333 10187 20112=
07790,1997-04-15 21:00:00,12,1012.6,0.2,82,9,20000,7.408,,,230,,,,,,,,,,,wg-a,,,,AAXX 15214 07790 12/70 02304 10120 20090 30112 40126 51002 60006 80000 92100=
07790,1997-04-16 00:00:00,10,1012.6,-0.1,87,8,20000,11.112,,,230,,,,,,,,,,,wg-a,,,,AAXX 16004 07790 12/70 02306 10100 20080 30111 40126 58001 60006 80000 90000=
07790,1997-04-16 03:00:00,8,1013.2,0.6,87,6,20000,7.408,,,250,,,,0,,,,,,,wg-a,,,,AAXX 16034 07790 12470 /2504 10080 20060 30117 40132 50006 60007 81600 90300=
07790,1997-04-16 06:00:00,12,1013.7,0.6,76,8,18000,7.408,,,250,8.3,14.6,,,,,,,,4,wg-a,,,,AAXX 16064 07790 02568 72504 10120 20080 30123 40137 53006 60006 70411 8757/ 90600 333 10146 20083 60004=
07790,1997-04-16 09:00:00,15,1013.9,0.2,51,5,11000,14.816,,,140,,,,,,,,,,,wg-a,,,,AAXX 16094 07790 12/61 /1408 10150 20050 30125 40139 53002 60006 90900=
07790,1997-04-16 12:00:00,16,1012.6,-1.3,39,2,11000,22.224,,,130,,,,,,,,,,,wg-a,,,,AAXX 16124 07790 12/61 /1312 10160 20020 30112 40126 56013 60006 91200=
07790,1997-04-16 15:00:00,17,1010.8,-1.8,29,-1,500,14.816,,,150,,,,,,,,,,,wg-a,,,,AAXX 16154 07790 12600 51508 10170 21010 30094 40108 58018 60006 82831 91500=
07790,1997-04-16 18:00:00,14,1010.2,-0.6,55,5,500,11.112,,,140,12.1,17,,,,,,,,,wg-a,,,,AAXX 16184 07790 12400 41406 10140 20050 30088 40102 57006 60006 81604 91800 333 10170 20121=
07790,1997-04-16 21:00:00,10,1013,2.7,71,5,500,3.704,,,290,,,,,,,,,,,wg-a,,,,AAXX 16214 07790 12500 42902 10100 20050 30115 40130 52027 60006 81130 92100=
07790,1997-04-17 00:00:00,12,1015,2,50,2,500,14.816,,,100,,,,,,,,,,,wg-a,,,,AAXX 17004 07790 12500 /1008 10120 20020 30135 40150 51020 60006 83130 90000=
07790,1997-04-17 03:00:00,11,1014.2,-0.8,50,1,500,18.52,,,90,,,,,,,,,,,wg-a,,,,AAXX 17034 07790 12500 70910 10110 20010 30127 40142 57008 60006 86830 90300=
07790,1997-04-17 06:00:00,11,1014.9,0.7,40,-2,500,22.224,,,80,9.6,13.9,,,,,,,,,wg-a,,,,AAXX 17064 07790 02600 70812 10110 21020 30134 40149 51007 60006 8557/ 90600 333 10139 20096 60004=
07790,1997-04-17 09:00:00,11,1016.1,1.2,40,-2,500,11.112,,,50,,,,,,,,,,,wg-a,,,,AAXX 17094 07790 12600 70506 10110 21020 30146 40161 51012 60006 8557/ 90900=
07790,1997-04-17 12:00:00,13,1016.4,0.3,38,-1,500,7.408,,,100,,,,,,,,,,,wg-a,,,,AAXX 17124 07790 12600 71004 10130 21010 30149 40164 50003 60006 8557/ 91200=
07790,1997-04-17 15:00:00,12,1016.3,-0.1,35,-3,500,11.112,,,160,,,,,,,,,,,wg-a,,,,AAXX 17154 07790 12600 /1606 10120 21030 30148 40163 58001 60006 83572 91500=
07790,1997-04-17 18:00:00,11,1016.6,0.3,40,-2,500,7.408,,,180,10.5,13.2,,,,,,,,,wg-a,,,,AAXX 17184 07790 12600 /1804 10110 21020 30151 40166 53003 60006 81572 91800 333 10132 20105=
07790,1997-04-17 21:00:00,7,1018.2,1.6,49,-3,500,7.408,,,240,,,,,,,,,,,wg-a,,,,AAXX 17214 07790 12/00 /2404 10070 21030 30167 40182 51016 60006 81031 92100=
07790,1997-04-18 00:00:00,5,1018.8,0.6,60,-2,500,11.112,,,240,,,,,,,,,,,wg-a,,,,AAXX 18004 07790 12/00 /2406 10050 21020 30173 40188 51006 60006 81030 90000=
07790,1997-04-18 03:00:00,5,1018,-0.8,60,-2,500,11.112,,,230,,,,,,,,,,,wg-a,,,,AAXX 18034 07790 12/00 /2306 10050 21020 30165 40180 58008 60006 81038 90300=
07790,1997-04-18 06:00:00,8,1018.1,0.1,57,0,500,7.408,,,220,4.5,10.9,,,,,,,,,wg-a,,,,AAXX 18064 07790 02500 32204 10080 20000 30166 40181 53001 60006 81531 90600 333 10109 20045 60004=
07790,1997-04-18 12:00:00,13,1017.4,-0.6,54,4,25000,11.112,,,190,,,,,,,,,,,wg-a,,,,AAXX 18124 07790 12675 /1906 10130 20040 30160 40174 58006 60006 86531 91200=
07790,1997-04-18 15:00:00,15,1014.6,-2.8,51,5,25000,25.928,,,140,,,,,,,,,,,wg-a,,,,AAXX 18154 07790 12675 /1414 10150 20050 30132 40146 58028 60006 81501 91500=
07790,1997-04-18 18:00:00,13,1014.2,-0.4,51,3,25000,14.816,,,160,8,16.3,,,,,,,,,wg-a,,,,AAXX 18184 07790 12675 31608 10130 20030 30128 40142 56004 60006 81501 91800 333 10163 20080=
07790,1997-04-18 21:00:00,8,1014.5,0.2,76,4,25000,3.704,,,260,,,,,,,,,,,wg-a,,,,AAXX 18214 07790 12675 42602 10080 20040 30130 40145 50002 60006 81501 92100=
07790,1997-04-19 00:00:00,6,1013.8,-0.7,75,2,25000,7.408,,,230,,,,,,,,,,,wg-a,,,,AAXX 19004 07790 12675 42304 10060 20020 30123 40138 58007 60006 81501 90000=
07790,1997-04-19 03:00:00,5,1012.3,-1.5,75,1,25000,7.408,,,230,,,,,,,,,,,wg-a,,,,AAXX 19034 07790 12675 42304 10050 20010 30108 40123 56015 60006 81501 90300=
07790,1997-04-19 06:00:00,7,1011.7,-0.6,66,1,500,7.408,,,220,4.6,12.5,,,,,,,,,wg-a,,,,AAXX 19064 07790 02/00 52204 10070 20010 30102 40117 55006 60006 81034 90600 333 10125 20046 60004=
07790,1997-04-19 09:00:00,15,1011.3,-0.3,44,3,500,11.112,,,130,,,,,,,,,,,wg-a,,,,AAXX 19094 07790 12600 /1306 10150 20030 30099 40113 56003 60006 81134 90900=
07790,1997-04-19 12:00:00,17,1010.3,-1,52,7,500,25.928,,,140,,,,,,,,,,,wg-a,,,,AAXX 19124 07790 12600 31414 10170 20070 30089 40103 56010 60006 81132 91200=
07790,1997-04-19 15:00:00,17,1008.8,-1.5,55,8,20000,18.52,,,140,,,,,,,,,,,wg-a,,,,AAXX 19154 07790 12670 31410 10170 20080 30074 40088 57015 60006 82232 91500=
07790,1997-04-19 18:00:00,14,1008.1,-0.7,77,10,20000,7.408,,,160,7.4,17.6,,,,,,,,,wg-a,,,,AAXX 19184 07790 12570 /1604 10140 20100 30067 40081 58007 60006 81551 91800 333 10176 20074=
07790,1997-04-19 21:00:00,12,1008.2,0.1,82,9,20000,0,,,0,,,,,,,,,,,wg-a,,,,AAXX 19214 07790 12570 70000 10120 20090 30068 40082 50001 60006 81551 92100=
07790,1997-04-20 00:00:00,12,1007.7,-0.5,82,9,20000,3.704,,,230,,,,,,,,,,,wg-a,,,,AAXX 20004 07790 12570 82302 10120 20090 30063 40077 58005 60006 81551 90000=
07790,1997-04-20 03:00:00,12,1005.3,-2.4,82,9,20000,3.704,,,250,,,,,,,,,,21,wg-a,,,,AAXX 20034 07790 02570 82502 10120 20090 30039 40053 58024 61000 72122 83551 90300 333 ////=
07790,1997-04-20 06:00:00,12,1004.5,-0.8,82,9,15000,3.704,,,220,11.4,14.4,,,,,,,,,wg-a,,,,AAXX 20064 07790 02565 72202 10120 20090 30031 40045 56008 60006 8387/ 90600 333 10144 20114 60004=
07790,1997-04-20 09:00:00,15,1003.6,-0.9,77,11,20000,7.408,,,50,,,,,,,,,,,wg-a,,,,AAXX 20094 07790 12470 70504 10150 20110 30022 40036 56009 60006 8587/ 90900=
07790,1997-04-20 12:00:00,17,1001.7,-1.9,68,11,20000,7.408,,,100,,,,,,,,,,,wg-a,,,,AAXX 20124 07790 12470 81004 10170 20110 30003 40017 56019 60006 84272 91200=
07790,1997-04-20 15:00:00,16,1000.3,-1.4,77,12,20000,3.704,,,130,,,,,,,,,,,wg-a,,,,AAXX 20154 07790 12470 71302 10160 20120 39989 40003 56014 60006 85872 91500=
07790,1997-04-20 18:00:00,15,1000.1,-0.2,82,12,17000,7.408,,,340,12.3,16.7,,,,,,,,,wg-a,,,,AAXX 20184 07790 12567 73404 10150 20120 39987 40001 55002 60006 8687/ 91800 333 10167 20123=
07790,1997-04-20 21:00:00,14,1000.2,0.1,88,12,13000,18.52,,,20,,,,,,,,,,,wg-a,,,,AAXX 20214 07790 12263 70210 10140 20120 39988 40002 50001 60006 8657/ 92100=
07790,1997-04-21 00:00:00,13,1000.3,0.1,82,10,13000,25.928,,,20,,,,,,,,,,,wg-a,,,,AAXX 21004 07790 12463 70214 10130 20100 39989 40003 50001 60006 875// 90000=
07790,1997-04-21 03:00:00,13,999,-1.3,88,11,12000,14.816,,,30,,,,,,,,,,60,wg-a,,,,AAXX 21034 07790 02362 70308 10130 20110 39976 49990 58013 61000 76062 875// 90300 333 ////=
07790,1997-04-21 06:00:00,10,999.5,0.5,87,8,7000,31.484,,53.708,30,9.7,15.1,,,,,,,,63,wg-a,,,,AAXX 21064 07790 02357 70317 10100 20080 39981 49995 53005 61000 76362 875// 90600 333 10151 20097 6008 91029=
07790,1997-04-21 09:00:00,9,998.7,-0.8,93,8,500,29.632,,,10,,,,6,,,,,,63,wg-a,,,,AAXX 21094 07790 12400 70116 10090 20080 39973 49987 56008 60067 76366 875// 90900=
07790,1997-04-21 12:00:00,8,998.2,-0.5,93,7,500,29.632,,,20,,,,,,,,,,,wg-a,,,,AAXX 21124 07790 12/00 /0216 10080 20070 39968 49982 58005 60126 91200=
07790,1997-04-21 15:00:00,8,996.6,-1.6,87,6,500,42.596,,70.376,20,,,,10,,,,,,,wg-a,,,,AAXX 21154 07790 12/00 /0223 10080 20060 39952 49966 55016 60107 91500 333 91038=
07790,1997-04-21 18:00:00,7,996.5,-0.1,93,6,4000,38.892,,75.932,10,7.1,9.7,,,,,,,,10,wg-a,,,,AAXX 21184 07790 02440 70121 10070 20060 39951 49965 55001 61000 71066 875// 91800 333 10097 20071 6007 91041=
07790,1997-04-22 00:00:00,7,997.8,-0.2,87,5,15000,14.816,,64.82,330,,,,4,,,,,,61,wg-a,,,,AAXX 22004 07790 02565 83308 10070 20050 39963 49978 58002 60106 76166 875// 90000 333 60047 91035=
07790,1997-04-22 03:00:00,9,997.1,-0.6,71,4,25000,18.52,,,330,,,,0,,,,,,21,wg-a,,,,AAXX 22034 07790 12575 83310 10090 20040 39957 49971 56006 60007 72162 875// 90300=
07790,1997-04-22 06:00:00,9,998.2,1.1,76,5,15000,14.816,,,320,6.5,9.3,,,,,39,,,2,wg-a,,,,AAXX 22064 07790 02565 83208 10090 20050 39968 49982 53011 60006 70262 8587/ 90600 333 10093 20065 60394=
07790,1997-04-22 09:00:00,11,999.8,1.6,62,4,15000,18.52,,,350,,,,,,,,,,,wg-a,,,,AAXX 22094 07790 12565 /3510 10110 20040 39984 49998 52016 60006 8787/ 90900=
07790,1997-04-22 12:00:00,12,1000.6,0.8,67,6,500,22.224,,,50,,,,,,,,,,,wg-a,,,,AAXX 22124 07790 12600 40512 10120 20060 39992 40006 51008 60006 84200 91200=
07790,1997-04-22 18:00:00,11,1004.4,2.8,62,4,500,3.704,,,290,9.2,13.7,,,,,,,,,wg-a,,,,AAXX 22184 07790 12/00 02902 10110 20040 30030 40044 53028 60006 80000 91800 333 10137 20092=
07790,1997-04-22 21:00:00,7,1008.1,3.6,81,4,500,7.408,,,250,,,,,,,,,,,wg-a,,,,AAXX 22214 07790 12700 /2504 10070 20040 30066 40081 52036 60006 85500 92100=
07790,1997-04-23 00:00:00,8,1010.4,2.3,76,4,20000,3.704,,,220,,,,,,,,,,,wg-a,,,,AAXX 23004 07790 12670 /2202 10080 20040 30089 40104 51023 60006 85500 90000=
07790,1997-04-23 03:00:00,5,1011.7,1.3,87,3,20000,7.408,,,250,,,,,,,,,,,wg-a,,,,AAXX 23034 07790 12670 22504 10050 20030 30102 40117 53013 60006 82500 90300=
07790,1997-04-23 06:00:00,7,1013.8,2.1,81,4,25000,11.112,,,230,5,11,,,,,,,,,wg-a,,,,AAXX 23064 07790 02675 /2306 10070 20040 30123 40138 53021 60006 81500 90600 333 10110 20050 60004=
07790,1997-04-23 09:00:00,14,1015.7,2,47,3,500,11.112,,,110,,,,,,,,,,,wg-a,,,,AAXX 23094 07790 12600 /1106 10140 20030 30143 40157 53020 60006 81530 90900=
07790,1997-04-23 12:00:00,15,1016.2,0.5,48,4,500,11.112,,,90,,,,,,,,,,,wg-a,,,,AAXX 23124 07790 12600 /0906 10150 20040 30148 40162 51005 60006 81200 91200=
07790,1997-04-23 15:00:00,15,1016.6,0.4,27,-4,500,7.408,,,100,,,,,,,,,,,wg-a,,,,AAXX 23154 07790 12/00 /1004 10150 21040 30152 40166 52004 60006 80000 91500=
07790,1997-04-23 18:00:00,13,1017.8,1.1,44,1,500,3.704,,,160,7.1,16.4,,,,,,,,,wg-a,,,,AAXX 23184 07790 12/00 01602 10130 20010 30163 40178 53011 60006 80000 91800 333 10164 20071=
07790,1997-04-23 21:00:00,8,1020.5,2.7,66,2,500,7.408,,,250,,,,,,,,,,,wg-a,,,,AAXX 23214 07790 12/00 02504 10080 20020 30190 40205 51027 60006 80000 92100=
07790,1997-04-24 00:00:00,7,1021.5,1,61,0,500,11.112,,,250,,,,,,,,,,,wg-a,,,,AAXX 24004 07790 12/00 02506 10070 20000 30200 40215 51010 60006 80000 90000=
07790,1997-04-24 03:00:00,6,1022.1,0.6,70,1,500,11.112,,,230,,,,,,,,,,,wg-a,,,,AAXX 24034 07790 12/00 02306 10060 20010 30206 40221 53006 60006 80000 90300=
07790,1997-04-24 06:00:00,8,1023.4,1.3,66,2,25000,7.408,,,220,5.5,13.3,,,,,,,,,wg-a,,,,AAXX 24064 07790 02/75 02204 10080 20020 30219 40234 52013 60006 80000 90600 333 10133 20055 60004=
07790,1997-04-24 09:00:00,15,1024.4,1.1,44,3,500,14.816,,,120,,,,,,,,,,,wg-a,,,,AAXX 24094 07790 12600 /1208 10150 20030 30230 40244 51011 60006 81100 90900=
07790,1997-04-24 12:00:00,17,1024.1,-0.3,39,3,500,11.112,,,130,,,,,,,,,,,wg-a,,,,AAXX 24124 07790 12600 21306 10170 20030 30227 40241 58003 60006 82200 91200=
07790,1997-04-24 18:00:00,14,1023.3,-0.4,51,4,11000,3.704,,,70,8.4,17.1,,,,,,,,,wg-a,,,,AAXX 24184 07790 12/61 /0702 10140 20040 30218 40233 55004 60006 91800 333 10171 20084=
07790,1997-04-24 21:00:00,10,1024,0.7,76,6,500,11.112,,,210,,,,,,,,,,,wg-a,,,,AAXX 24214 07790 12/00 02106 10100 20060 30225 40240 50007 60006 80000 92100=
07790,1997-04-25 00:00:00,8,1023.7,-0.3,87,6,500,14.816,,,250,,,,,,,,,,,wg-a,,,,AAXX 25004 07790 12/00 02508 10080 20060 30222 40237 58003 60006 80000 90000=
07790,1997-04-25 03:00:00,9,1023,-0.7,76,5,500,14.816,,,240,,,,,,,,,,,wg-a,,,,AAXX 25034 07790 12/00 /2408 10090 20050 30215 40230 56007 60006 80000 90300=
07790,1997-04-25 06:00:00,11,1023.5,0.5,62,4,15000,18.52,,,240,8.3,14,,,,,,,,,wg-a,,,,AAXX 25064 07790 02665 /2410 10110 20040 30220 40235 53005 60006 81100 90600 333 10140 20083 60004=
07790,1997-04-25 09:00:00,17,1023.9,0.5,48,6,500,11.112,,,150,,,,,,,,,,,wg-a,,,,AAXX 25094 07790 12/00 01506 10170 20060 30225 40239 50005 60006 80000 90900=
07790,1997-04-25 12:00:00,18,1023,-0.9,52,8,500,18.52,,,120,,,,,,,,,,,wg-a,,,,AAXX 25124 07790 12500 /1210 10180 20080 30216 40230 58009 60006 81200 91200=
07790,1997-04-25 18:00:00,16,1021.2,-0.3,59,8,25000,3.704,,,100,10.8,18.4,,,,,,,,,wg-a,,,,AAXX 25184 07790 12675 31002 10160 20080 30198 40212 57003 60006 81231 91800 333 10184 20108=
07790,1997-04-25 21:00:00,11,1022.2,0.9,82,8,25000,7.408,,,230,,,,,,,,,,,wg-a,,,,AAXX 25214 07790 12/75 02304 10110 20080 30207 40222 51009 60006 80000 92100=
07790,1997-04-26 00:00:00,12,1021.6,-0.6,58,4,25000,14.816,,,210,,,,,,,,,,,wg-a,,,,AAXX 26004 07790 12/75 22108 10120 20040 30201 40216 58006 60006 80002 90000=
07790,1997-04-26 06:00:00,10,1020.3,0.1,66,4,25000,11.112,,,220,8.8,15.5,,,,,,,,,wg-a,,,,AAXX 26064 07790 02/75 62206 10100 20040 30188 40203 53001 60006 80002 90600 333 10155 20088 60004=
07790,1997-04-26 09:00:00,16,1020,-0.2,72,11,20000,18.52,,,140,,,,,,,,,,,wg-a,,,,AAXX 26094 07790 12570 71410 10160 20110 30186 40200 56002 60006 82502 90900=
07790,1997-04-26 12:00:00,18,1018.8,-1.2,68,12,12000,11.112,,,100,,,,,,,,,,,wg-a,,,,AAXX 26124 07790 12462 /1006 10180 20120 30174 40188 58012 60006 83802 91200=
07790,1997-04-26 15:00:00,17,1017.7,-1.1,68,11,12000,11.112,,,50,,,,,,,,,,,wg-a,,,,AAXX 26154 07790 12562 40506 10170 20110 30163 40177 57011 60006 82502 91500=
07790,1997-04-26 18:00:00,15,1017.5,-0.2,77,11,9000,7.408,,,10,10.5,18.2,,,,,,,,,wg-a,,,,AAXX 26184 07790 12559 40104 10150 20110 30161 40175 55002 60006 82582 91800 333 10182 20105=
07790,1997-04-26 21:00:00,13,1018,0.5,82,10,11000,3.704,,,220,,,,,,,,,,,wg-a,,,,AAXX 26214 07790 12/61 /2202 10130 20100 30166 40180 50005 60006 92100=
07790,1997-04-27 00:00:00,12,1016.3,-1.8,76,8,11000,7.408,,,210,,,,,,,,,,,wg-a,,,,AAXX 27004 07790 12/61 /2104 10120 20080 30148 40163 57018 60006 90000=
07790,1997-04-27 03:00:00,12,1013.9,-2.3,82,9,12000,3.704,,,250,,,,,,,,,,,wg-a,,,,AAXX 27034 07790 12562 82502 10120 20090 30125 40139 58023 60006 8357/ 90300=
07790,1997-04-27 06:00:00,12,1012.6,-1.3,82,9,11000,3.704,,,280,11.5,14.7,,,,,,,,,wg-a,,,,AAXX 27064 07790 02/61 /2802 10120 20090 30112 40126 56013 60006 90600 333 10147 20115 60004=
07790,1997-04-27 09:00:00,14,1012,-0.6,88,12,8000,11.112,,,10,,,,0,,,,,,61,wg-a,,,,AAXX 27094 07790 12458 70106 10140 20120 30106 40120 55006 60007 76162 8477/ 90900=
07790,1997-04-27 12:00:00,17,1009.2,-2.8,82,14,15000,18.52,,,160,,,,1,,,,,,21,wg-a,,,,AAXX 27124 07790 02565 /1610 10170 20140 30078 40092 58028 60016 72162 84871 91200 333 60017=
07790,1997-04-27 18:00:00,16,1009.4,0.7,88,14,8000,3.704,,,120,11.6,18.3,,,,,,,,15,wg-a,,,,AAXX 27184 07790 12558 51202 10160 20140 30080 40094 52007 60006 71511 84801 91800 333 10183 20116=
07790,1997-04-27 21:00:00,13,1010.5,1.1,88,11,20000,7.408,,,300,,,,,,,,,,,wg-a,,,,AAXX 27214 07790 12570 33004 10130 20110 30091 40105 52011 60006 83800 92100=
07790,1997-04-28 00:00:00,11,1010.7,0.2,87,9,20000,3.704,,,300,,,,,,,,,,,wg-a,,,,AAXX 28004 07790 12670 33002 10110 20090 30093 40107 53002 60006 81540 90000=
07790,1997-04-28 03:00:00,11,1011.5,0.7,87,9,20000,3.704,,,80,,,,,,,,,,,wg-a,,,,AAXX 28034 07790 12570 /0802 10110 20090 30100 40115 51007 60006 81100 90300=
07790,1997-04-28 06:00:00,16,1013.2,1.8,72,11,20000,11.112,,,40,10.6,16,,,,,2,,,,wg-a,,,,AAXX 28064 07790 02570 20406 10160 20110 30118 40132 53018 60006 81801 90600 333 10160 20106 60024=
07790,1997-04-28 09:00:00,18,1015.5,2.3,59,10,35000,25.928,,,20,,,,,,,,,,,wg-a,,,,AAXX 28094 07790 12581 20214 10180 20100 30141 40155 51023 60006 81141 90900=
07790,1997-04-28 12:00:00,20,1015.3,-0.2,49,9,35000,14.816,,,20,,,,,,,,,,,wg-a,,,,AAXX 28124 07790 12581 /0208 10200 20090 30139 40153 58002 60006 81280 91200=
07790,1997-04-28 15:00:00,19,1015,-0.3,49,8,35000,22.224,,,40,,,,,,,,,,,wg-a,,,,AAXX 28154 07790 12681 30412 10190 20080 30136 40150 58003 60006 81201 91500=
07790,1997-04-28 18:00:00,17,1014.8,-0.2,59,9,500,18.52,,,10,15.9,20.5,,,,,,,,,wg-a,,,,AAXX 28184 07790 12/00 60110 10170 20090 30134 40148 55002 60006 82072 91800 333 10205 20159=
07790,1997-04-28 21:00:00,15,1014.6,-0.2,67,9,500,3.704,,,240,,,,,,,,,,,wg-a,,,,AAXX 28214 07790 12/00 82402 10150 20090 30132 40146 58002 60006 83072 92100=
07790,1997-04-29 03:00:00,11,1009.7,-3.2,87,9,500,7.408,,,240,,,,,,,,,,,wg-a,,,,AAXX 29034 07790 12600 72404 10110 20090 30083 40097 56032 60006 81572 90300=
07790,1997-04-29 06:00:00,14,1007.7,-2,77,10,25000,3.704,,,180,11.1,16.6,,,,,,,,,wg-a,,,,AAXX 29064 07790 02575 /1802 10140 20100 30063 40077 58020 60006 82572 90600 333 10166 20111 60004=
07790,1997-04-29 12:00:00,16,1008.1,-0.2,82,13,8000,18.52,,,80,,,,,,,,,,61,wg-a,,,,AAXX 29124 07790 02458 70810 10160 20130 30067 40081 55002 61000 76161 875// 91200 333 6100=
07790,1997-04-29 18:00:00,17,1008.9,0.2,77,13,500,0,,,0,14.3,18.6,,,,,,,,2,wg-a,,,,AAXX 29184 07790 12500 /0000 10170 20130 30075 40089 53002 60006 70261 81100 91800 333 10186 20143=
07790,1997-04-30 00:00:00,11,1009.7,-0.3,87,9,20000,0,,,0,,,,,,,,,,,wg-a,,,,AAXX 30004 07790 12870 /0000 10110 20090 30083 40097 58003 60006 81030 90000=
07790,1997-04-30 03:00:00,11,1009.5,-0.2,87,9,15000,7.408,,,230,,,,,,,,,,,wg-a,,,,AAXX 30034 07790 12/65 32304 10110 20090 30081 40095 58002 60006 83030 90300=
07790,1997-04-30 06:00:00,12,1011,1.5,94,11,0,7.408,,,240,9.4,17,,0,,,1,,,,wg-a,,,,AAXX 30064 07790 02/// /2404 10120 20110 30096 40110 53015 60014 90600 333 10170 20094 60007=
07790,1997-04-30 09:00:00,18,1012.6,1.6,56,9,20000,22.224,,,20,,,,,,,,,,3,wg-a,,,,AAXX 30094 07790 02670 /0212 10180 20090 30112 40126 53016 61000 70361 81280 90900 333 ////=
07790,1997-04-30 12:00:00,19,1013.7,1.1,52,9,20000,22.224,,,360,,,,,,,,,,2,wg-a,,,,AAXX 30124 07790 02570 43612 10190 20090 30123 40137 51011 61000 70261 81240 91200 333 ////=
07790,1997-04-30 15:00:00,20,1013.9,0.2,40,6,20000,22.224,,,360,,,,,,,,,,,wg-a,,,,AAXX 30154 07790 12570 43612 10200 20060 30125 40139 51002 60006 81201 91500=
07790,1997-04-30 18:00:00,17,1014.2,0.3,52,7,500,7.408,,,280,12.1,20.1,,,,,,,,,wg-a,,,,AAXX 30184 07790 12/00 12804 10170 20070 30128 40142 53003 60006 80001 91800 333 10201 20121=
07790,1997-04-30 21:00:00,14,1016.8,2.6,63,7,500,7.408,,,270,,,,,,,,,,,wg-a,,,,AAXX 30214 07790 12/00 12704 10140 20070 30154 40168 51026 60006 80001 92100=
07790,1997-05-01 00:00:00,13,1018.4,1.5,77,9,500,11.112,,,290,,,,,,,,,,,wg-a,,,,AAXX 01004 07790 12/00 12906 10130 20090 30169 40184 51015 60006 80001 90000=
07790,1997-05-01 03:00:00,13,1018.2,-0.1,67,7,500,11.112,,,240,,,,,,,,,,,wg-a,,,,AAXX 01034 07790 12700 22406 10130 20070 30168 40182 55001 60006 81570 90300=
07790,1997-05-01 06:00:00,16,1020.2,2,59,8,25000,7.408,,,310,12.4,17.2,,,,,,,,,wg-a,,,,AAXX 01064 07790 02675 /3104 10160 20080 30188 40202 52020 60006 81530 90600 333 10172 20124 61000=
07790,1997-05-01 12:00:00,21,1021.2,-0.1,38,6,40000,11.112,,,30,,,,,,,,,,,wg-a,,,,AAXX 01124 07790 12682 30306 10210 20060 30198 40212 57001 60006 81831 91200=
07790,1997-05-01 18:00:00,19,1021.2,0.6,49,8,40000,14.816,,,350,16.2,22.2,,,,,,,,,wg-a,,,,AAXX 01184 07790 12682 /3508 10190 20080 30198 40212 53006 60006 81500 91800 333 10222 20162=
07790,1997-05-01 21:00:00,14,1023.6,2.3,58,6,500,7.408,,,230,,,,,,,,,,,wg-a,,,,AAXX 01214 07790 12800 /2304 10140 20060 30221 40236 51023 60006 81030 92100=
07790,1997-05-02 00:00:00,12,1024,0.4,67,6,500,11.112,,,230,,,,,,,,,,,wg-a,,,,AAXX 02004 07790 12/00 02306 10120 20060 30225 40240 50004 60006 80000 90000=
07790,1997-05-02 03:00:00,11,1024.4,0.4,66,5,500,11.112,,,240,,,,,,,,,,,wg-a,,,,AAXX 02034 07790 12/00 02406 10110 20050 30229 40244 52004 60006 80000 90300=
07790,1997-05-02 06:00:00,13,1025.8,1.4,67,7,500,7.408,,,230,10.5,18.5,,,,,,,,,wg-a,,,,AAXX 02064 07790 02500 12304 10130 20070 30243 40258 52014 60006 81500 90600 333 10185 20105 60004=
07790,1997-05-02 09:00:00,20,1026.5,0.8,46,8,35000,14.816,,,10,,,,,,,,,,,wg-a,,,,AAXX 02094 07790 12581 /0108 10200 20080 30251 40265 53008 60006 81500 90900=
07790,1997-05-02 12:00:00,21,1025.4,-1.1,43,8,35000,11.112,,,20,,,,,,,,,,,wg-a,,,,AAXX 02124 07790 12681 /0206 10210 20080 30240 40254 58011 60006 81100 91200=
07790,1997-05-02 15:00:00,22,1023.7,-1.7,35,6,25000,11.112,,,30,,,,,,,,,,,wg-a,,,,AAXX 02154 07790 12575 /0306 10220 20060 30223 40237 58017 60006 81101 91500=
07790,1997-05-02 18:00:00,19,1023.5,-0.2,43,6,25000,7.408,,,20,13.5,22.2,,,,,,,,,wg-a,,,,AAXX 02184 07790 12/75 00204 10190 20060 30221 40235 55002 60006 80000 91800 333 10222 20135=
07790,1997-05-02 21:00:00,14,1024.5,0.9,63,7,18000,3.704,,,230,,,,,,,,,,,wg-a,,,,AAXX 02214 07790 12/68 12302 10140 20070 30230 40245 51009 60006 80001 92100=
07790,1997-05-03 00:00:00,12,1024.4,-0.1,67,6,18000,7.408,,,210,,,,,,,,,,,wg-a,,,,AAXX 03004 07790 12/68 12104 10120 20060 30229 40244 58001 60006 80001 90000=
07790,1997-05-03 06:00:00,16,1023.1,-0.3,45,4,500,22.224,,,240,9.8,19.4,,,,,,,,,wg-a,,,,AAXX 03064 07790 02/00 12412 10160 20040 30217 40231 56003 60006 80001 90600 333 10194 20098 60004=
07790,1997-05-03 09:00:00,23,1022.9,-0.2,36,7,500,11.112,,,140,,,,,,,,,,,wg-a,,,,AAXX 03094 07790 12/00 11406 10230 20070 30215 40229 56002 60006 80001 90900=
07790,1997-05-03 12:00:00,25,1021.5,-1.4,26,4,500,25.928,,33.336,330,,,,,,,,,,,wg-a,,,,AAXX 03124 07790 12/00 23314 10250 20040 30201 40215 58014 60006 80002 91200 333 91018=
07790,1997-05-03 18:00:00,20,1019.9,-0.5,43,7,500,3.704,,,200,16.3,24.8,,,,,,,,,wg-a,,,,AAXX 03184 07790 12/00 02002 10200 20070 30185 40199 55005 60006 80000 91800 333 10248 20163=
07790,1997-05-03 21:00:00,14,1020.5,0.6,63,7,10000,7.408,,,230,,,,,,,,,,,wg-a,,,,AAXX 03214 07790 12/60 /2304 10140 20070 30191 40205 53006 60006 92100=
07790,1997-05-04 00:00:00,10,1019.8,-0.8,76,6,10000,3.704,,,270,,,,,,,,,,,wg-a,,,,AAXX 04004 07790 12/60 /2702 10100 20060 30183 40198 58008 60006 90000=
07790,1997-05-04 06:00:00,13,1018.3,-0.2,62,6,20000,7.408,,,220,9.9,19.8,,,,,,,,,wg-a,,,,AAXX 04064 07790 02/70 32204 10130 20060 30168 40183 56002 60006 80001 90600 333 10198 20099 60004=
07790,1997-05-04 09:00:00,19,1018.4,0.2,56,10,20000,11.112,,,120,,,,,,,,,,,wg-a,,,,AAXX 04094 07790 12/70 71206 10190 20100 30170 40184 52002 60006 85036 90900=
07790,1997-05-04 12:00:00,20,1017.3,-1.1,46,8,20000,11.112,,,110,,,,,,,,,,,wg-a,,,,AAXX 04124 07790 12870 71106 10200 20080 30159 40173 58011 60006 8707/ 91200=
07790,1997-05-04 15:00:00,21,1016.2,-1.1,43,8,20000,11.112,,,140,,,,,,,,,,,wg-a,,,,AAXX 04154 07790 12/70 41406 10210 20080 30148 40162 58011 60006 83042 91500=
07790,1997-05-04 18:00:00,17,1016,-0.2,72,12,25000,3.704,,,160,13.2,20.9,,,,,,,,,wg-a,,,,AAXX 04184 07790 12/75 /1602 10170 20120 30146 40160 55002 60006 83036 91800 333 10209 20132=
07790,1997-05-04 21:00:00,15,1015.9,-0.1,82,12,11000,1.852,,,0,,,,,,,,,,,wg-a,,,,AAXX 04214 07790 12/61 ///01 10150 20120 30145 40159 58001 60006 92100=
07790,1997-05-05 00:00:00,13,1014.7,-1.2,72,8,15000,7.408,,,240,,,,,,,,,,,wg-a,,,,AAXX 05004 07790 12/65 /2404 10130 20080 30133 40147 58012 60006 82031 90000=
07790,1997-05-05 03:00:00,14,1013,-1.7,77,10,15000,3.704,,,240,,,,,,,,,,,wg-a,,,,AAXX 05034 07790 12665 /2402 10140 20100 30116 40130 56017 60006 83531 90300=
07790,1997-05-05 06:00:00,14,1011.8,-1.2,82,11,12000,3.704,,,240,12.8,17.2,,,,,,,,,wg-a,,,,AAXX 05064 07790 02362 /2402 10140 20110 30104 40118 56012 60006 83881 90600 333 10172 20128 60004=
07790,1997-05-05 09:00:00,18,1010.7,-1.1,73,13,12000,14.816,,,150,,,,,,,,,,,wg-a,,,,AAXX 05094 07790 12462 61508 10180 20130 30093 40107 57011 60006 85581 90900=
07790,1997-05-05 12:00:00,17,1010.4,-0.3,82,14,8000,14.816,,,150,,,,,,,,,,21,wg-a,,,,AAXX 05124 07790 02458 71508 10170 20140 30090 40104 56003 61000 72161 84581 91200 333 6100=
07790,1997-05-05 15:00:00,16,1007,-3.4,88,14,7000,14.816,,,140,,,,0,,,,,,3,wg-a,,,,AAXX 05154 07790 12357 71408 10160 20140 30056 40070 58034 60007 70362 8458/ 91500=
07790,1997-05-05 18:00:00,17,1006.4,-0.6,88,15,6000,7.408,,,160,14,18.4,,,,,,,,50,wg-a,,,,AAXX 05184 07790 02456 /1604 10170 20150 30050 40064 58006 61000 75065 85280 91800 333 10184 20140 6100=
07790,1997-05-05 21:00:00,14,1006,-0.4,94,13,500,7.408,,,260,,,,,,,,,,3,wg-a,,,,AAXX 05214 07790 02400 72604 10140 20130 30046 40060 58004 61000 70352 862// 92100 333 ////=
07790,1997-05-06 00:00:00,13,1004.6,-1.4,94,12,500,7.408,,,230,,,,,,,,,,2,wg-a,,,,AAXX 06004 07790 02400 72304 10130 20120 30032 40046 58014 61000 70252 862// 90000 333 ////=
07790,1997-05-06 06:00:00,14,1001.7,-1.3,94,13,4000,7.408,,,200,11.3,16.7,,,,,,,,10,wg-a,,,,AAXX 06064 07790 02340 72004 10140 20130 30003 40017 56013 61000 71098 8698/ 90600 333 10167 20113 6001=
07790,1997-05-06 09:00:00,19,999.9,-1.8,78,15,6000,3.704,,,20,,,,0,,,,,,1,wg-a,,,,AAXX 06094 07790 12456 60202 10190 20150 39985 49999 58018 60007 70196 8458/ 90900=
07790,1997-05-06 12:00:00,23,997.6,-2.3,65,16,10000,18.52,,37.04,130,,,,,,,,,,3,wg-a,,,,AAXX 06124 07790 12660 51310 10230 20160 39962 49976 57023 60006 70396 83881 91200 333 91020=
07790,1997-05-06 15:00:00,24,998.4,0.8,38,9,12000,38.892,,59.264,260,,,,,,,,,,15,wg-a,,,,AAXX 06154 07790 12562 52621 10240 20090 39970 49984 53008 60006 71522 84982 91500 333 91032=
07790,1997-05-06 18:00:00,19,1000.5,2.1,24,-2,50000,11.112,,29.632,210,13.5,24.1,,,,,,,,,wg-a,,,,AAXX 06184 07790 12784 /2106 10190 21020 39991 40005 53021 60006 81100 91800 333 10241 20135 91016=
07790,1997-05-06 21:00:00,17,1002.2,1.7,32,0,500,11.112,,,270,,,,,,,,,,,wg-a,,,,AAXX 06214 07790 12600 /2706 10170 20000 30008 40022 51017 60006 81500 92100=
07790,1997-05-07 00:00:00,15,1003.9,1.7,44,3,500,11.112,,,260,,,,,,,,,,,wg-a,,,,AAXX 07004 07790 12/00 02606 10150 20030 30025 40039 53017 60006 80000 90000=
07790,1997-05-07 03:00:00,12,1003.8,-0.1,54,3,25000,11.112,,,290,,,,,,,,,,,wg-a,,,,AAXX 07034 07790 12575 32906 10120 20030 30024 40038 56001 60006 81130 90300=
07790,1997-05-07 06:00:00,15,1003.9,0.1,44,3,35000,11.112,,,220,11.2,18.8,,,,,,,,,wg-a,,,,AAXX 07064 07790 02781 52206 10150 20030 30025 40039 53001 60006 83502 90600 333 10188 20112 60004=
07790,1997-05-07 12:00:00,17,1003.8,-0.1,52,7,11000,29.632,,,30,,,,,,,,,,,wg-a,,,,AAXX 07124 07790 12/61 /0316 10170 20070 30024 40038 55001 60006 91200=
07790,1997-05-07 15:00:00,17,1002.5,-1.3,52,7,11000,14.816,,,100,,,,,,,,,,,wg-a,,,,AAXX 07154 07790 32/61 /1008 10170 20070 30011 40025 58013 91500=
07790,1997-05-07 18:00:00,14,1001,-1.5,82,11,25000,11.112,,,150,13.9,20.7,,,,,,,,3,wg-a,,,,AAXX 07184 07790 12575 81506 10140 20110 39996 40010 58015 60006 70362 8487/ 91800 333 10207 20139=
07790,1997-05-07 21:00:00,12,1000.2,-0.8,88,10,10000,3.704,,,190,,,,1,,,,,,60,wg-a,,,,AAXX 07214 07790 12360 81902 10120 20100 39988 40002 58008 60017 76062 8487/ 92100=
07790,1997-05-08 00:00:00,11,998.7,-1.5,87,9,8000,22.224,,,10,,,,3,,,,,,61,wg-a,,,,AAXX 08004 07790 02358 80112 10110 20090 39973 49987 56015 60046 76162 8587/ 90000 333 60037=
07790,1997-05-08 03:00:00,10,998.5,-0.2,82,7,12000,7.408,,,320,,,,0,,,,,,21,wg-a,,,,AAXX 08034 07790 12462 53204 10100 20070 39971 49985 56002 60007 72162 84970 90300=
07790,1997-05-08 06:00:00,10,999.9,1.4,82,7,11000,3.704,,,10,9.2,13.9,,,,,5,,,,wg-a,,,,AAXX 08064 07790 02/61 /0102 10100 20070 39985 49999 53014 60006 90600 333 10139 20092 60054=
07790,1997-05-08 09:00:00,14,1001.3,1.4,67,8,12000,11.112,,,20,,,,,,,,,,,wg-a,,,,AAXX 08094 07790 12562 80206 10140 20080 39999 40013 53014 60006 8483/ 90900=
07790,1997-05-08 12:00:00,16,1002.8,1.5,59,8,12000,11.112,,,110,,,,,,,,,,,wg-a,,,,AAXX 08124 07790 12562 61106 10160 20080 30014 40028 53015 60006 8423/ 91200=
07790,1997-05-08 15:00:00,16,1004.2,1.4,59,8,11000,14.816,,,140,,,,,,,,,,,wg-a,,,,AAXX 08154 07790 12/61 /1408 10160 20080 30028 40042 53014 60006 91500=
07790,1997-05-08 18:00:00,15,1006.6,2.4,55,6,12000,7.408,,,240,10.5,16.5,,,,,,,,,wg-a,,,,AAXX 08184 07790 12562 /2404 10150 20060 30052 40066 53024 60006 81200 91800 333 10165 20105=
07790,1997-05-09 00:00:00,14,1011.4,1.6,47,3,10000,7.408,,,30,,,,,,,,,,,wg-a,,,,AAXX 09004 07790 12/60 /0304 10140 20030 30100 40114 51016 60006 90000=
07790,1997-05-09 03:00:00,11,1012,0.5,58,3,1500,3.704,,,20,,,,,,,,,,,wg-a,,,,AAXX 09034 07790 12615 /0202 10110 20030 30105 40120 53005 60006 81540 90300=
07790,1997-05-09 06:00:00,13,1013.6,1.7,62,6,20000,7.408,,,210,8.8,14.8,,,,,,,,,wg-a,,,,AAXX 09064 07790 02670 /2104 10130 20060 30122 40136 53017 60006 81506 90600 333 10148 20088 60004=
07790,1997-05-09 09:00:00,18,1015,1.4,52,8,500,7.408,,,120,,,,,,,,,,,wg-a,,,,AAXX 09094 07790 12600 51204 10180 20080 30136 40150 52014 60006 83542 90900=
07790,1997-05-09 12:00:00,20,1015.1,0.1,37,5,50000,11.112,,,80,,,,,,,,,,,wg-a,,,,AAXX 09124 07790 12684 50806 10200 20050 30137 40151 53001 60006 84540 91200=
07790,1997-05-09 18:00:00,19,1016,0.2,32,2,500,14.816,,,250,12.7,22.1,,,,,,,,,wg-a,,,,AAXX 09184 07790 12/00 52508 10190 20020 30146 40160 52002 60006 84042 91800 333 10221 20127=
07790,1997-05-09 21:00:00,17,1017.3,1.3,34,1,500,18.52,,,220,,,,,,,,,,,wg-a,,,,AAXX 09214 07790 12/00 32210 10170 20010 30159 40173 53013 60006 83042 92100=
07790,1997-05-10 00:00:00,14,1017.8,0.5,41,1,500,22.224,,,250,,,,,,,,,,,wg-a,,,,AAXX 10004 07790 12/00 32512 10140 20010 30164 40178 51005 60006 83042 90000=
07790,1997-05-10 03:00:00,12,1017.9,-0,54,3,500,7.408,,,220,,,,,,,,,,,wg-a,,,,AAXX 10034 07790 12/00 22204 10120 20030 30164 40179 54000 60006 81042 90300=
07790,1997-05-10 06:00:00,14,1019,1.2,55,5,50000,3.704,,,220,9.7,18.4,,,,,,,,,wg-a,,,,AAXX 10064 07790 02/84 42202 10140 20050 30176 40190 53012 60006 80002 90600 333 10184 20097 60004=
07790,1997-05-10 09:00:00,20,1020,1,35,4,50000,11.112,,,100,,,,,,,,,,,wg-a,,,,AAXX 10094 07790 12684 21006 10200 20040 30186 40200 51010 60006 81131 90900=
07790,1997-05-10 12:00:00,20,1020.4,0.4,56,11,35000,11.112,,,100,,,,,,,,,,,wg-a,,,,AAXX 10124 07790 12681 /1006 10200 20110 30190 40204 52004 60006 81200 91200=
07790,1997-05-10 15:00:00,19,1020.4,0,64,12,35000,18.52,,,150,,,,,,,,,,,wg-a,,,,AAXX 10154 07790 12581 31510 10190 20120 30190 40204 50000 60006 81201 91500=
07790,1997-05-10 18:00:00,16,1020.3,-0.1,82,13,35000,18.52,,,150,13.7,20.2,,,,,,,,,wg-a,,,,AAXX 10184 07790 12581 51510 10160 20130 30189 40203 58001 60006 81134 91800 333 10202 20137=
07790,1997-05-10 21:00:00,14,1020.8,0.5,88,12,10000,7.408,,,190,,,,,,,,,,,wg-a,,,,AAXX 10214 07790 12460 /1904 10140 20120 30194 40208 51005 60006 81532 92100=
07790,1997-05-11 00:00:00,11,1020.3,-0.6,94,10,15000,0,,,0,,,,,,,,,,,wg-a,,,,AAXX 11004 07790 12465 30000 10110 20100 30188 40203 57006 60006 82630 90000=
07790,1997-05-11 03:00:00,10,1020.1,-0.2,93,9,15000,3.704,,,250,,,,,,,,,,,wg-a,,,,AAXX 11034 07790 12465 42502 10100 20090 30186 40201 58002 60006 82531 90300=
07790,1997-05-11 06:00:00,14,1020.1,0.1,82,11,20000,3.704,,,220,9,16.1,,,,,,,,,wg-a,,,,AAXX 11064 07790 02470 72202 10140 20110 30187 40201 53001 60006 83602 90600 333 10161 20090 60004=
07790,1997-05-11 09:00:00,18,1019.9,-0.2,73,13,11000,29.632,,,150,,,,,,,,,,,wg-a,,,,AAXX 11094 07790 12/61 /1516 10180 20130 30185 40199 58002 60006 90900=
07790,1997-05-11 12:00:00,19,1019.2,-0.7,64,12,40000,35.188,,57.412,150,,,,,,,,,,,wg-a,,,,AAXX 11124 07790 12482 /1519 10190 20120 30178 40192 58007 60006 81502 91200 333 91031=
07790,1997-05-11 15:00:00,18,1019.5,0.3,73,13,500,25.928,,61.116,150,,,,,,,,,,,wg-a,,,,AAXX 11154 07790 12400 71514 10180 20130 30181 40195 51003 60006 81532 91500 333 91033=
07790,1997-05-11 18:00:00,17,1019.9,0.4,72,12,25000,18.52,,61.116,160,13.6,19.3,,,,,,,,,wg-a,,,,AAXX 11184 07790 12475 71610 10170 20120 30185 40199 51004 60006 81582 91800 333 10193 20136 91033=
07790,1997-05-11 21:00:00,14,1021.2,1.3,88,12,25000,3.704,,,180,,,,,,,,,,,wg-a,,,,AAXX 11214 07790 12575 71802 10140 20120 30198 40212 51013 60006 82582 92100=
07790,1997-05-12 00:00:00,13,1020.8,-0.5,88,11,25000,3.704,,,220,,,,,,,,,,,wg-a,,,,AAXX 12004 07790 12575 /2202 10130 20110 30193 40208 58005 60006 82572 90000=
07790,1997-05-12 06:00:00,14,1021.3,0.8,88,12,20000,7.408,,,350,11.8,16.5,,,,,,,,,wg-a,,,,AAXX 12064 07790 02570 83504 10140 20120 30199 40213 53008 60006 81572 90600 333 10165 20118 60004=
07790,1997-05-12 09:00:00,19,1022,0.7,68,13,15000,18.52,,,140,,,,,,,,,,,wg-a,,,,AAXX 12094 07790 12565 81410 10190 20130 30206 40220 50007 60006 84172 90900=
07790,1997-05-12 12:00:00,21,1022.4,0.4,49,10,11000,14.816,,,140,,,,,,,,,,,wg-a,,,,AAXX 12124 07790 12/61 /1408 10210 20100 30210 40224 50004 60006 91200=
07790,1997-05-12 15:00:00,20,1021.9,-0.5,53,10,20000,7.408,,,90,,,,,,,,,,,wg-a,,,,AAXX 12154 07790 12570 80904 10200 20100 30205 40219 58005 60006 81802 91500=
07790,1997-05-12 18:00:00,17,1021.9,0,72,12,20000,0,,,0,13.7,22.6,,,,,,,,,wg-a,,,,AAXX 12184 07790 12670 80000 10170 20120 30205 40219 50000 60006 83802 91800 333 10226 20137=
07790,1997-05-12 21:00:00,15,1022.1,0.2,82,12,25000,0,,,0,,,,,,,,,,,wg-a,,,,AAXX 12214 07790 12/75 40000 10150 20120 30207 40221 53002 60006 84070 92100=
07790,1997-05-13 00:00:00,14,1021,-1.1,82,11,0,3.704,,,250,,,,,,,,,,,wg-a,,,,AAXX 13004 07790 12/// /2502 10140 20110 30196 40210 58011 60006 90000=
07790,1997-05-13 03:00:00,13,1020.4,-0.7,82,10,20000,7.408,,,230,,,,,,,,,,,wg-a,,,,AAXX 13034 07790 12670 52304 10130 20100 30189 40204 56007 60006 81570 90300=
07790,1997-05-13 06:00:00,15,1021.4,1.1,82,12,40000,3.704,,,320,12.9,17.3,,,,,,,,,wg-a,,,,AAXX 13064 07790 02/82 /3202 10150 20120 30200 40214 53011 60006 84072 90600 333 10173 20129 60004=
07790,1997-05-13 09:00:00,21,1021.5,0.1,43,8,500,7.408,,,30,,,,,,,,,,,wg-a,,,,AAXX 13094 07790 12/00 /0304 10210 20080 30201 40215 52001 60006 82072 90900=
07790,1997-05-13 12:00:00,23,1020.6,-0.9,41,9,500,7.408,,,90,,,,,,,,,,,wg-a,,,,AAXX 13124 07790 12/00 40904 10230 20090 30192 40206 58009 60006 82082 91200=
07790,1997-05-13 15:00:00,24,1019.2,-1.4,34,7,500,7.408,,,150,,,,,,,,,,,wg-a,,,,AAXX 13154 07790 12/00 31504 10240 20070 30178 40192 56014 60006 81035 91500=
07790,1997-05-13 18:00:00,22,1018.9,-0.3,43,9,500,3.704,,,150,15.5,24.8,,,,,,,,,wg-a,,,,AAXX 13184 07790 12/00 61502 10220 20090 30175 40189 55003 60006 80006 91800 333 10248 20155=
07790,1997-05-13 21:00:00,16,1019.5,0.6,72,11,500,7.408,,,350,,,,,,,,,,,wg-a,,,,AAXX 13214 07790 12/00 43504 10160 20110 30181 40195 52006 60006 80006 92100=
07790,1997-05-14 00:00:00,14,1019.1,-0.4,77,10,500,3.704,,,250,,,,,,,,,,,wg-a,,,,AAXX 14004 07790 12/00 42502 10140 20100 30177 40191 57004 60006 80006 90000=
07790,1997-05-14 03:00:00,13,1019.1,-0.1,77,9,10000,7.408,,,240,,,,,,,,,,,wg-a,,,,AAXX 14034 07790 12/60 /2404 10130 20090 30176 40191 56001 60006 90300=
07790,1997-05-14 06:00:00,16,1019.3,0.3,63,9,20000,3.704,,,220,12.4,22.1,,,,,,,,,wg-a,,,,AAXX 14064 07790 02/70 22202 10160 20090 30179 40193 53003 60006 80001 90600 333 10221 20124 60004=
07790,1997-05-14 09:00:00,24,1018.8,-0.5,38,9,20000,11.112,,,90,,,,,,,,,,,wg-a,,,,AAXX 14094 07790 12/70 60906 10240 20090 30174 40188 56005 60006 80002 90900=
07790,1997-05-14 12:00:00,24,1017.9,-0.9,44,11,20000,7.408,,,100,,,,,,,,,,,wg-a,,,,AAXX 14124 07790 12/70 /1004 10240 20110 30165 40179 56009 60006 80002 91200=
07790,1997-05-14 15:00:00,25,1016.5,-1.4,36,9,20000,11.112,,,130,,,,,,,,,,,wg-a,,,,AAXX 14154 07790 12/70 61306 10250 20090 30151 40165 56014 60006 80002 91500=
07790,1997-05-14 18:00:00,23,1015.9,-0.6,50,12,20000,0,,,0,16.5,26,,,,,,,,,wg-a,,,,AAXX 14184 07790 12/70 60000 10230 20120 30145 40159 57006 60006 80002 91800 333 10260 20165=
07790,1997-05-14 21:00:00,17,1016.7,0.8,72,12,20000,7.408,,,250,,,,,,,,,,,wg-a,,,,AAXX 14214 07790 12/70 32504 10170 20120 30153 40167 51008 60006 80002 92100=
07790,1997-05-15 00:00:00,16,1016.6,-0.1,68,10,20000,7.408,,,250,,,,,,,,,,,wg-a,,,,AAXX 15004 07790 12/70 02504 10160 20100 30152 40166 58001 60006 80000 90000=
07790,1997-05-15 03:00:00,16,1015,-1.6,68,10,20000,7.408,,,240,,,,,,,,,,,wg-a,,,,AAXX 15034 07790 12/70 02404 10160 20100 30136 40150 56016 60006 80000 90300=
07790,1997-05-15 06:00:00,18,1015.6,0.6,64,11,500,7.408,,,210,14.4,23.2,,,,,,,,,wg-a,,,,AAXX 15064 07790 02/00 22104 10180 20110 30142 40156 51006 60006 80001 90600 333 10232 20144 60004=
07790,1997-05-15 09:00:00,24,1015.8,0.2,54,14,500,7.408,,,120,,,,,,,,,,,wg-a,,,,AAXX 15094 07790 12/00 21204 10240 20140 30144 40158 51002 60006 80001 90900=
07790,1997-05-15 12:00:00,26,1015.7,-0.1,30,7,500,14.816,,,130,,,,,,,,,,,wg-a,,,,AAXX 15124 07790 12/00 51308 10260 20070 30143 40157 58001 60006 80001 91200=
07790,1997-05-15 15:00:00,25,1014.6,-1.1,41,11,500,7.408,,,100,,,,,,,,,,,wg-a,,,,AAXX 15154 07790 12/00 31004 10250 20110 30132 40146 56011 60006 80001 91500=
07790,1997-05-15 18:00:00,22,1014.4,-0.2,50,11,500,0,,,0,18.2,26.1,,,,,,,,,wg-a,,,,AAXX 15184 07790 12/00 20000 10220 20110 30130 40144 58002 60006 80001 91800 333 10261 20182=
07790,1997-05-15 21:00:00,17,1015.4,1,68,11,500,7.408,,,230,,,,,,,,,,,wg-a,,,,AAXX 15214 07790 12/00 22304 10170 20110 30140 40154 50010 60006 80001 92100=
07790,1997-05-16 00:00:00,15,1015.4,0,72,10,500,3.704,,,260,,,,,,,,,,,wg-a,,,,AAXX 16004 07790 12/00 22602 10150 20100 30140 40154 50000 60006 80001 90000=
07790,1997-05-16 03:00:00,15,1014.7,-0.7,82,12,500,11.112,,,310,,,,,,,,,,,wg-a,,,,AAXX 16034 07790 12/00 23106 10150 20120 30133 40147 55007 60006 80001 90300=
07790,1997-05-16 06:00:00,19,1015.1,0.4,56,10,500,7.408,,,230,14.2,21.9,,,,,,,,,wg-a,,,,AAXX 16064 07790 02800 62304 10190 20100 30137 40151 53004 60006 81086 90600 333 10219 20142 60004=
07790,1997-05-16 09:00:00,24,1015.4,0.3,44,11,500,11.112,,,50,,,,,,,,,,,wg-a,,,,AAXX 16094 07790 12/00 40506 10240 20110 30140 40154 51003 60006 81036 90900=
07790,1997-05-16 12:00:00,28,1014.8,-0.6,32,10,500,7.408,,,100,,,,,,,,,,,wg-a,,,,AAXX 16124 07790 12600 /1004 10280 20100 30134 40148 58006 60006 81106 91200=
07790,1997-05-16 18:00:00,24,1014.8,0.4,41,10,20000,7.408,,,140,19,27.9,,,,,,,,,wg-a,,,,AAXX 16184 07790 12/70 71404 10240 20100 30134 40148 53004 60006 82036 91800 333 10279 20190=
07790,1997-05-16 21:00:00,21,1016.1,1.3,53,11,20000,11.112,,,210,,,,,,,,,,,wg-a,,,,AAXX 16214 07790 12/70 72106 10210 20110 30147 40161 53013 60006 82036 92100=
07790,1997-05-17 00:00:00,17,1015.8,-0.3,63,10,0,7.408,,,250,,,,,,,,,,,wg-a,,,,AAXX 17004 07790 12/// /2504 10170 20100 30144 40158 58003 60006 90000=
07790,1997-05-17 03:00:00,17,1015.8,-0,72,12,15000,3.704,,,300,,,,,,,,,,,wg-a,,,,AAXX 17034 07790 12/65 73002 10170 20120 30144 40158 54000 60006 85032 90300=
07790,1997-05-17 06:00:00,19,1016.5,0.7,78,15,9000,0,,,0,17.2,23.6,,,,,,,,,wg-a,,,,AAXX 17064 07790 02/59 70000 10190 20150 30151 40165 53007 60006 8607/ 90600 333 10236 20172 60004=
07790,1997-05-17 09:00:00,25,1016.5,0,54,15,20000,7.408,,,130,,,,,,,,,,,wg-a,,,,AAXX 17094 07790 12670 31304 10250 20150 30151 40165 50000 60006 81130 90900=
07790,1997-05-17 12:00:00,25,1016.2,-0.3,44,12,20000,11.112,,,100,,,,,,,,,,,wg-a,,,,AAXX 17124 07790 12670 41006 10250 20120 30148 40162 58003 60006 81235 91200=
07790,1997-05-17 15:00:00,23,1015.6,-0.6,61,15,10000,7.408,,,100,,,,,,,,,,,wg-a,,,,AAXX 17154 07790 12660 51004 10230 20150 30142 40156 56006 60006 82880 91500=
07790,1997-05-17 18:00:00,20,1016.1,0.5,73,15,10000,7.408,,,60,18.7,25.4,,,,,,,,,wg-a,,,,AAXX 17184 07790 12860 40604 10200 20150 30147 40161 53005 60006 82082 91800 333 10254 20187=
07790,1997-05-18 00:00:00,16,1016.3,-0.6,82,13,10000,3.704,,,260,,,,,,,,,,,wg-a,,,,AAXX 18004 07790 12760 /2602 10160 20130 30149 40163 58006 60006 86500 90000=
07790,1997-05-18 03:00:00,17,1015.9,-0.4,72,12,10000,7.408,,,240,,,,,,,,,,,wg-a,,,,AAXX 18034 07790 12760 /2404 10170 20120 30145 40159 58004 60006 82530 90300=
07790,1997-05-18 06:00:00,19,1016.5,0.6,60,11,20000,7.408,,,220,15.1,20.2,,,,,,,,,wg-a,,,,AAXX 18064 07790 02/70 12204 10190 20110 30151 40165 51006 60006 80001 90600 333 10202 20151 60004=
07790,1997-05-18 09:00:00,24,1017,0.5,47,12,20000,14.816,,,140,,,,,,,,,,,wg-a,,,,AAXX 18094 07790 12670 /1408 10240 20120 30156 40170 51005 60006 81200 90900=
07790,1997-05-18 12:00:00,24,1017.1,0.1,54,14,20000,18.52,,,130,,,,,,,,,,,wg-a,,,,AAXX 18124 07790 12670 31310 10240 20140 30157 40171 52001 60006 83200 91200=
07790,1997-05-18 18:00:00,20,1016.1,-0.4,73,15,12000,7.408,,,110,19.1,24.2,,,,,,,,,wg-a,,,,AAXX 18184 07790 12562 31104 10200 20150 30147 40161 55004 60006 82530 91800 333 10242 20191=
07790,1997-05-18 21:00:00,17,1016.6,0.5,82,14,12000,3.704,,,340,,,,,,,,,,,wg-a,,,,AAXX 18214 07790 12562 /3402 10170 20140 30152 40166 52005 60006 81500 92100=
07790,1997-05-19 00:00:00,15,1016.3,-0.3,82,12,10000,7.408,,,250,,,,,,,,,,,wg-a,,,,AAXX 19004 07790 12/60 02504 10150 20120 30149 40163 58003 60006 80000 90000=
07790,1997-05-19 03:00:00,14,1016.4,0.1,88,12,10000,7.408,,,240,,,,,,,,,,,wg-a,,,,AAXX 19034 07790 12460 /2404 10140 20120 30150 40164 53001 60006 85500 90300=
07790,1997-05-19 06:00:00,16,1016.9,0.5,82,13,10000,7.408,,,230,13.5,20.4,,,,,,,,,wg-a,,,,AAXX 19064 07790 02560 32304 10160 20130 30155 40169 53005 60006 83501 90600 333 10204 20135 60004=
07790,1997-05-19 09:00:00,21,1017,0.1,73,16,9000,18.52,,,120,,,,,,,,,,,wg-a,,,,AAXX 19094 07790 12459 31210 10210 20160 30156 40170 51001 60006 90900=
07790,1997-05-19 12:00:00,21,1016.8,-0.2,69,15,9000,18.52,,,130,,,,,,,,,,,wg-a,,,,AAXX 19124 07790 12459 /1310 10210 20150 30154 40168 58002 60006 86800 91200=
07790,1997-05-19 15:00:00,22,1015.4,-1.4,69,16,8000,18.52,,,140,,,,,,,,,,,wg-a,,,,AAXX 19154 07790 12558 51410 10220 20160 30140 40154 56014 60006 82101 91500=
07790,1997-05-19 18:00:00,19,1015,-0.4,83,16,7000,11.112,,,150,16.3,22.3,,,,,,,,,wg-a,,,,AAXX 19184 07790 12457 /1506 10190 20160 30136 40150 55004 60006 85500 91800 333 10223 20163=
07790,1997-05-19 21:00:00,17,1014.8,-0.2,94,16,7000,0,,,0,,,,,,,,,,,wg-a,,,,AAXX 19214 07790 12457 /0000 10170 20160 30134 40148 55002 60006 85500 92100=
07790,1997-05-20 00:00:00,17,1013.5,-1.3,94,16,11000,3.704,,,240,,,,,,,,,,,wg-a,,,,AAXX 20004 07790 12/61 /2402 10170 20160 30121 40135 56013 60006 90000=
07790,1997-05-20 03:00:00,16,1012.8,-0.7,94,15,12000,7.408,,,230,,,,,,,,,,,wg-a,,,,AAXX 20034 07790 12462 32304 10160 20150 30114 40128 55007 60006 81531 90300=
07790,1997-05-20 06:00:00,17,1013.4,0.6,88,15,8000,3.704,,,230,15.4,19.1,,,,,,,,11,wg-a,,,,AAXX 20064 07790 02758 72302 10170 20150 30120 40134 51006 60006 71111 81552 90600 333 10191 20154 60004=
07790,1997-05-20 09:00:00,23,1013.4,-0,65,16,12000,11.112,,,70,,,,,,,,,,,wg-a,,,,AAXX 20094 07790 12862 /0706 10230 20160 30120 40134 55000 60006 84082 90900=
07790,1997-05-20 12:00:00,23,1012.6,-0.8,73,18,9000,7.408,,,90,,,,,,,,,,,wg-a,,,,AAXX 20124 07790 12459 70904 10230 20180 30112 40126 58008 60006 81682 91200=
07790,1997-05-20 15:00:00,23,1010.9,-1.7,73,18,8000,7.408,,,90,,,,,,,,,,,wg-a,,,,AAXX 20154 07790 12458 70904 10230 20180 30095 40109 58017 60006 81682 91500=
07790,1997-05-20 18:00:00,20,1011.4,0.5,88,18,6000,3.704,,,120,16.8,24.3,,,,,,,,,wg-a,,,,AAXX 20184 07790 12456 71202 10200 20180 30100 40114 51005 60006 83680 91800 333 10243 20168=
07790,1997-05-20 21:00:00,18,1011.3,-0.1,94,17,8000,7.408,,,180,,,,,,,,,,,wg-a,,,,AAXX 20214 07790 12458 /1804 10180 20170 30099 40113 56001 60006 81600 92100=
07790,1997-05-21 00:00:00,16,1011,-0.3,94,15,6000,3.704,,,230,,,,0,,,,,,,wg-a,,,,AAXX 21004 07790 02456 32302 10160 20150 30096 40110 57003 60006 83600 90000 333 60007=
07790,1997-05-21 03:00:00,15,1010.8,-0.2,94,14,6000,11.112,,,220,,,,,,,,,,,wg-a,,,,AAXX 21034 07790 12356 /2206 10150 20140 30094 40108 55002 60006 85600 90300=
07790,1997-05-21 06:00:00,17,1011.4,0.6,82,14,10000,3.704,,,230,14.4,20.3,,,,,,,,,wg-a,,,,AAXX 21064 07790 02/60 42302 10170 20140 30100 40114 53006 60006 82081 90600 333 10203 20144 60004=
07790,1997-05-21 09:00:00,22,1011.3,-0.1,65,15,9000,11.112,,,100,,,,,,,,,,,wg-a,,,,AAXX 21094 07790 12459 71006 10220 20150 30099 40113 55001 60006 81184 90900=
07790,1997-05-21 15:00:00,20,1010.5,-1,83,17,9000,7.408,,,10,,,,,,,,,,60,wg-a,,,,AAXX 21154 07790 02459 80104 10200 20170 30091 40105 56010 61000 76062 84876 91500 333 ////=
07790,1997-05-21 18:00:00,18,1010.5,0,73,13,10000,7.408,,,170,17.1,22.8,,,,,,,,1,wg-a,,,,AAXX 21184 07790 02560 /1704 10180 20130 30091 40105 50000 60006 70162 82136 91800 333 10228 20171 61000=
07790,1997-05-21 21:00:00,14,1010.3,,88,12,20000,7.408,,,20,,,,,,,,,,,wg-a,,,,AAXX 21214 07790 12570 /0204 10140 20120 30089 40103 60006 81100 92100=
07790,1997-05-22 00:00:00,18,1009.4,-0.9,52,8,20000,22.224,,,250,,,,,,,,,,,wg-a,,,,AAXX 22004 07790 12570 12512 10180 20080 30080 40094 58009 60006 81100 90000=
07790,1997-05-22 03:00:00,15,1008.8,-0.6,63,8,20000,3.704,,,190,,,,,,,,,,,wg-a,,,,AAXX 22034 07790 12/70 01902 10150 20080 30074 40088 57006 60006 80000 90300=
07790,1997-05-22 06:00:00,21,1009.9,1.1,38,6,50000,14.816,,,280,,21.4,,,,,,,,,wg-a,,,,AAXX 22064 07790 02684 12808 10210 20060 30085 40099 53011 60006 81100 90600 333 10214 61000=
07790,1997-05-22 12:00:00,24,1012.4,1.3,47,12,50000,14.816,,,110,,,,,,,,,,,wg-a,,,,AAXX 22124 07790 12684 /1108 10240 20120 30110 40124 53013 60006 81130 91200=
07790,1997-05-22 18:00:00,21,1013,0.7,46,9,25000,14.816,,,80,20.7,24.9,,,,,,,,,wg-a,,,,AAXX 22184 07790 12675 /0808 10210 20090 30116 40130 53007 60006 81100 91800 333 10249 20207=
07790,1997-05-22 21:00:00,15,1014.7,1.7,67,9,25000,7.408,,,280,,,,,,,,,,,wg-a,,,,AAXX 22214 07790 12/75 02804 10150 20090 30133 40147 51017 60006 80000 92100=
07790,1997-05-23 00:00:00,14,1015.2,0.5,67,8,25000,11.112,,,200,,,,,,,,,,,wg-a,,,,AAXX 23004 07790 12/75 02006 10140 20080 30138 40152 51005 60006 80000 90000=
07790,1997-05-23 03:00:00,13,1015.4,0.2,62,6,20000,11.112,,,230,,,,,,,,,,,wg-a,,,,AAXX 23034 07790 12/70 22306 10130 20060 30140 40154 53002 60006 81031 90300=
07790,1997-05-23 06:00:00,16,1016.3,0.9,59,8,25000,11.112,,,230,12.2,20.7,,,,,,,,,wg-a,,,,AAXX 23064 07790 02575 /2306 10160 20080 30149 40163 52009 60006 81500 90600 333 10207 20122 60004=
07790,1997-05-23 09:00:00,21,1017,0.7,60,13,25000,18.52,,,130,,,,,,,,,,,wg-a,,,,AAXX 23094 07790 12675 21310 10210 20130 30156 40170 53007 60006 82201 90900=
07790,1997-05-23 12:00:00,22,1017.3,0.3,53,12,25000,14.816,,,120,,,,,,,,,,,wg-a,,,,AAXX 23124 07790 12675 31208 10220 20120 30159 40173 50003 60006 83200 91200=
07790,1997-05-23 15:00:00,21,1017,-0.3,56,12,11000,11.112,,,120,,,,,,,,,,,wg-a,,,,AAXX 23154 07790 12/61 /1206 10210 20120 30156 40170 56003 60006 91500=
07790,1997-05-23 18:00:00,20,1016.5,-0.5,68,14,20000,7.408,,,130,16.4,23,,,,,,,,,wg-a,,,,AAXX 23184 07790 12670 /1304 10200 20140 30151 40165 56005 60006 81500 91800 333 10230 20164=
07790,1997-05-24 00:00:00,13,1017,-0.3,82,10,20000,3.704,,,270,,,,,,,,,,,wg-a,,,,AAXX 24004 07790 12/70 02702 10130 20100 30156 40170 57003 60006 80000 90000=
07790,1997-05-24 03:00:00,14,1017.1,0.1,77,10,20000,7.408,,,240,,,,,,,,,,,wg-a,,,,AAXX 24034 07790 12370 32404 10140 20100 30157 40171 52001 60006 83600 90300=
07790,1997-05-24 06:00:00,16,1017.7,0.6,77,12,12000,7.408,,,220,12.8,19.8,,,,,,,,,wg-a,,,,AAXX 24064 07790 02/62 22204 10160 20120 30163 40177 51006 60006 80001 90600 333 10198 20128 60004=
07790,1997-05-24 09:00:00,21,1018.2,0.5,64,14,20000,14.816,,,130,,,,,,,,,,,wg-a,,,,AAXX 24094 07790 12/70 71308 10210 20140 30168 40182 51005 60006 80006 90900=
07790,1997-05-24 12:00:00,22,1018.1,-0.1,60,14,20000,18.52,,,140,,,,,,,,,,,wg-a,,,,AAXX 24124 07790 12570 /1410 10220 20140 30167 40181 57001 60006 81106 91200=
07790,1997-05-24 15:00:00,21,1017.8,-0.3,69,15,12000,14.816,,,120,,,,,,,,,,,wg-a,,,,AAXX 24154 07790 12462 /1208 10210 20150 30164 40178 55003 60006 81806 91500=
07790,1997-05-24 18:00:00,19,1017.5,-0.3,78,15,15000,11.112,,,140,16.5,22.7,,,,,,,,,wg-a,,,,AAXX 24184 07790 12565 /1406 10190 20150 30161 40175 55003 60006 81501 91800 333 10227 20165=
07790,1997-05-24 21:00:00,16,1018,0.5,88,14,15000,3.704,,,250,,,,,,,,,,,wg-a,,,,AAXX 24214 07790 12/65 52502 10160 20140 30166 40180 53005 60006 80001 92100=
07790,1997-05-25 00:00:00,14,1017.6,-0.4,94,13,0,3.704,,,250,,,,,,,,,,,wg-a,,,,AAXX 25004 07790 12/// /2502 10140 20130 30162 40176 58004 60006 90000=
07790,1997-05-25 03:00:00,14,1017.8,0.2,88,12,15000,7.408,,,270,,,,,,,,,,,wg-a,,,,AAXX 25034 07790 12/65 42704 10140 20120 30164 40178 53002 60006 80001 90300=
07790,1997-05-25 06:00:00,17,1018.8,1,82,14,12000,3.704,,,230,13.2,19.3,,,,,,,,,wg-a,,,,AAXX 25064 07790 02562 /2302 10170 20140 30174 40188 50010 60006 81501 90600 333 10193 20132 60004=
07790,1997-05-25 09:00:00,22,1019.7,0.9,65,15,17000,11.112,,,120,,,,,,,,,,,wg-a,,,,AAXX 25094 07790 12/67 51206 10220 20150 30183 40197 53009 60006 80004 90900=
07790,1997-05-25 12:00:00,23,1019.5,-0.2,57,14,17000,11.112,,,150,,,,,,,,,,,wg-a,,,,AAXX 25124 07790 12567 /1506 10230 20140 30181 40195 58002 60006 81134 91200=
07790,1997-05-25 15:00:00,23,1018.7,-0.8,50,12,20000,14.816,,,130,,,,,,,,,,,wg-a,,,,AAXX 25154 07790 12570 /1308 10230 20120 30173 40187 58008 60006 81134 91500=
07790,1997-05-25 18:00:00,20,1018.1,-0.6,78,16,17000,3.704,,,150,17,24.1,,,,,,,,,wg-a,,,,AAXX 25184 07790 12/67 61502 10200 20160 30167 40181 56006 60006 82034 91800 333 10241 20170=
07790,1997-05-25 21:00:00,18,1018.5,0.4,88,16,15000,7.408,,,20,,,,,,,,,,,wg-a,,,,AAXX 25214 07790 12/65 30204 10180 20160 30171 40185 53004 60006 80001 92100=
07790,1997-05-26 00:00:00,17,1018.6,0.1,88,15,15000,7.408,,,250,,,,,,,,,,,wg-a,,,,AAXX 26004 07790 12/65 32504 10170 20150 30172 40186 50001 60006 80001 90000=
07790,1997-05-26 06:00:00,19,1017.8,0.3,68,13,18000,3.704,,,290,14.7,20.3,,,,,,,,,wg-a,,,,AAXX 26064 07790 02/68 12902 10190 20130 30164 40178 53003 60006 80001 90600 333 10203 20147 60004=
07790,1997-05-26 09:00:00,24,1018.3,0.5,38,9,20000,14.816,,,70,,,,,,,,,,,wg-a,,,,AAXX 26094 07790 12/70 00708 10240 20090 30169 40183 53005 60006 80000 90900=
07790,1997-05-26 12:00:00,25,1018.2,-0.1,41,11,20000,11.112,,,120,,,,,,,,,,,wg-a,,,,AAXX 26124 07790 12/70 01206 10250 20110 30168 40182 58001 60006 80000 91200=
07790,1997-05-26 15:00:00,26,1017.2,-1,30,7,20000,11.112,,,120,,,,,,,,,,,wg-a,,,,AAXX 26154 07790 12/70 01206 10260 20070 30158 40172 58010 60006 80000 91500=
07790,1997-05-26 18:00:00,23,1016.6,-0.6,31,5,15000,7.408,,,140,18.9,26.3,,,,,,,,,wg-a,,,,AAXX 26184 07790 12/65 11404 10230 20050 30152 40166 55006 60006 80001 91800 333 10263 20189=
07790,1997-05-26 21:00:00,17,1016.8,0.2,55,8,15000,3.704,,,240,,,,,,,,,,,wg-a,,,,AAXX 26214 07790 12/65 02402 10170 20080 30154 40168 51002 60006 80000 92100=
07790,1997-05-27 00:00:00,16,1016.4,-0.4,63,9,15000,3.704,,,230,,,,,,,,,,,wg-a,,,,AAXX 27004 07790 12/65 02302 10160 20090 30150 40164 58004 60006 80000 90000=
07790,1997-05-27 03:00:00,14,1015.7,-0.7,72,9,15000,3.704,,,250,,,,,,,,,,,wg-a,,,,AAXX 27034 07790 12/65 02502 10140 20090 30143 40157 57007 60006 80000 90300=
07790,1997-05-27 06:00:00,19,1015.1,-0.6,68,13,10000,7.408,,,190,13.6,23.4,,,,,,,,,wg-a,,,,AAXX 27064 07790 02/60 /1904 10190 20130 30137 40151 58006 60006 90600 333 10234 20136 60004=
07790,1997-05-27 09:00:00,24,1015.2,0.1,50,13,15000,7.408,,,80,,,,,,,,,,,wg-a,,,,AAXX 27094 07790 12/65 00804 10240 20130 30138 40152 51001 60006 80000 90900=
07790,1997-05-27 12:00:00,24,1014.7,-0.5,57,15,10000,14.816,,,130,,,,,,,,,,,wg-a,,,,AAXX 27124 07790 12/60 /1308 10240 20150 30133 40147 58005 60006 91200=
07790,1997-05-27 18:00:00,21,1013.4,-0.2,78,17,0,7.408,,,130,19.5,24.8,,,,,,,,,wg-a,,,,AAXX 27184 07790 12/// /1304 10210 20170 30120 40134 56002 60006 91800 333 10248 20195=
07790,1997-05-28 00:00:00,16,1012.6,-1.1,82,13,20000,3.704,,,200,,,,,,,,,,,wg-a,,,,AAXX 28004 07790 12/70 02002 10160 20130 30112 40126 58011 60006 80000 90000=
07790,1997-05-28 03:00:00,15,1011.4,-1.2,88,13,20000,7.408,,,220,,,,,,,,,,,wg-a,,,,AAXX 28034 07790 12/70 02204 10150 20130 30100 40114 58012 60006 80000 90300=
07790,1997-05-28 06:00:00,19,1011,-0.4,73,14,12000,3.704,,,230,14.6,21.3,,,,,,,,,wg-a,,,,AAXX 28064 07790 02562 22302 10190 20140 30096 40110 56004 60006 82500 90600 333 10213 20146 60004=
07790,1997-05-28 09:00:00,23,1010.8,-0.2,69,17,12000,14.816,,,70,,,,,,,,,,,wg-a,,,,AAXX 28094 07790 12562 20708 10230 20170 30094 40108 55002 60006 82500 90900=
07790,1997-05-28 12:00:00,24,1010.7,-0.1,65,17,12000,14.816,,,90,,,,,,,,,,,wg-a,,,,AAXX 28124 07790 12562 /0908 10240 20170 30093 40107 58001 60006 81201 91200=
07790,1997-05-28 18:00:00,22,1012.7,1.5,78,18,25000,11.112,,,10,18.5,24.7,,,,,,,,,wg-a,,,,AAXX 28184 07790 12575 /0106 10220 20180 30113 40127 53015 60006 81100 91800 333 10247 20185=
07790,1997-05-28 21:00:00,20,1016.6,3.9,83,17,25000,0,,,0,,,,,,,,,,,wg-a,,,,AAXX 28214 07790 12575 /0000 10200 20170 30152 40166 53039 60006 81100 92100=
07790,1997-05-29 00:00:00,18,1018.7,2.1,68,12,15000,7.408,,,180,,,,,,,,,,,wg-a,,,,AAXX 29004 07790 12565 11804 10180 20120 30173 40187 51021 60006 81500 90000=
07790,1997-05-29 03:00:00,15,1019.5,0.8,59,7,15000,7.408,,,250,,,,,,,,,,,wg-a,,,,AAXX 29034 07790 12565 /2504 10150 20070 30181 40195 51008 60006 81500 90300=
07790,1997-05-29 06:00:00,19,1021,1.5,46,7,20000,3.704,,,90,13.5,21.7,,,,,,,,,wg-a,,,,AAXX 29064 07790 02570 /0902 10190 20070 30196 40210 53015 60006 81501 90600 333 10217 20135 60004=
07790,1997-05-29 09:00:00,22,1022.1,1.1,35,6,20000,14.816,,,100,,,,,,,,,,,wg-a,,,,AAXX 29094 07790 12/70 21008 10220 20060 30207 40221 51011 60006 82030 90900=
07790,1997-05-29 12:00:00,23,1022,-0.1,29,4,20000,14.816,,,110,,,,,,,,,,,wg-a,,,,AAXX 29124 07790 12/70 01108 10230 20040 30206 40220 58001 60006 80000 91200=
07790,1997-05-29 15:00:00,23,1021.1,-0.9,31,5,20000,7.408,,,120,,,,,,,,,,,wg-a,,,,AAXX 29154 07790 12/70 01204 10230 20050 30197 40211 57009 60006 80000 91500=
07790,1997-05-29 18:00:00,22,1020.5,-0.6,35,6,20000,3.704,,,140,18.7,23.4,,,,,,,,,wg-a,,,,AAXX 29184 07790 12/70 01402 10220 20060 30191 40205 56006 60006 80000 91800 333 10234 20187=
07790,1997-05-29 21:00:00,16,1021.2,0.7,45,4,500,3.704,,,270,,,,,,,,,,,wg-a,,,,AAXX 29214 07790 12/00 02702 10160 20040 30198 40212 53007 60006 80000 92100=
07790,1997-05-30 00:00:00,14,1020.9,-0.4,51,4,500,11.112,,,240,,,,,,,,,,,wg-a,,,,AAXX 30004 07790 12/00 02406 10140 20040 30194 40209 57004 60006 80000 90000=
07790,1997-05-30 03:00:00,12,1020.2,-0.7,62,5,40000,11.112,,,230,,,,,,,,,,,wg-a,,,,AAXX 30034 07790 12/82 12306 10120 20050 30187 40202 58007 60006 80001 90300=
07790,1997-05-30 06:00:00,18,1019.1,-1,37,3,50000,7.408,,,220,12.2,22,,,,,,,,,wg-a,,,,AAXX 30064 07790 02/84 12204 10180 20030 30177 40191 56010 60006 80002 90600 333 10220 20122 60004=
07790,1997-05-30 09:00:00,23,1019,-0.1,47,11,50000,14.816,,,140,,,,,,,,,,,wg-a,,,,AAXX 30094 07790 12/84 21408 10230 20110 30176 40190 58001 60006 80002 90900=
07790,1997-05-30 12:00:00,23,1017.8,-1.2,41,9,50000,18.52,,,140,,,,,,,,,,,wg-a,,,,AAXX 30124 07790 12/84 41410 10230 20090 30164 40178 56012 60006 80005 91200=
07790,1997-05-30 15:00:00,23,1016.8,-1,41,9,40000,18.52,,,140,,,,,,,,,,,wg-a,,,,AAXX 30154 07790 12/82 41410 10230 20090 30154 40168 56010 60006 80005 91500=
07790,1997-05-30 18:00:00,21,1016.3,-0.5,56,12,40000,7.408,,,150,18.3,24,,,,,,,,,wg-a,,,,AAXX 30184 07790 12/82 31504 10210 20120 30149 40163 55005 60006 80005 91800 333 10240 20183=
07790,1997-05-30 21:00:00,16,1016.6,0.3,72,11,500,3.704,,,260,,,,,,,,,,,wg-a,,,,AAXX 30214 07790 12/00 32602 10160 20110 30152 40166 53003 60006 80002 92100=
07790,1997-05-31 00:00:00,14,1016,-0.6,77,10,500,7.408,,,230,,,,,,,,,,,wg-a,,,,AAXX 31004 07790 12/00 32304 10140 20100 30146 40160 58006 60006 80002 90000=
07790,1997-05-31 03:00:00,13,1015.3,-0.7,77,9,500,7.408,,,250,,,,,,,,,,,wg-a,,,,AAXX 31034 07790 12/00 32504 10130 20090 30139 40153 56007 60006 80002 90300=
07790,1997-05-31 06:00:00,16,1,-0.4,63,9,40000,3.704,,,210,12.2,20.6,,,,,,,,,wg-a,,,,AAXX 31064 07790 12/82 62102 10160 20090 56004 60006 80004 90600 333 10206 20122=
07790,1997-05-31 09:00:00,22,1014.5,-0.4,50,11,40000,18.52,,,130,,,,,,,,,,,wg-a,,,,AAXX 31094 07790 12/82 61310 10220 20110 30131 40145 58004 60006 81032 90900=
07790,1997-05-31 12:00:00,23,1013.8,-0.7,53,13,40000,25.928,,,140,,,,,,,,,,,wg-a,,,,AAXX 31124 07790 12/82 61414 10230 20130 30124 40138 57007 60006 81034 91200=
07790,1997-05-31 15:00:00,22,1012.9,-0.9,65,15,40000,25.928,,,140,,,,,,,,,,,wg-a,,,,AAXX 31154 07790 12582 51414 10220 20150 30115 40129 58009 60006 81109 91500=
07790,1997-05-31 18:00:00,21,1,-0.7,69,15,40000,35.188,,,30,11.7,,,,,,,,,,wg-a,,,,AAXX 31184 07790 12/82 /0319 10210 20150 30109 58007 60006 80001 91800 333 20117=
07790,1997-05-31 21:00:00,18,1012.7,0.1,77,14,15000,7.408,,,170,,,,,,,,,,,wg-a,,,,AAXX 31214 07790 12565 41704 10180 20140 30113 40127 52001 60006 81539 92100=
07790,1997-06-01 00:00:00,15,1012,-0.7,88,13,15000,3.704,,,280,,,,,,,,,,,wg-a,,,,AAXX 01004 07790 12565 42802 10150 20130 30106 40120 58007 60006 81539 90000=
07790,1997-06-01 03:00:00,18,1010.1,-1.9,83,15,15000,7.408,,,210,,,,,,,,,,,wg-a,,,,AAXX 01034 07790 12465 72104 10180 20150 30087 40101 56019 60006 868// 90300=
07790,1997-06-01 06:00:00,19,1009.4,-0.7,88,17,6000,25.928,,,160,14.5,19.9,,,,,,,,,wg-a,,,,AAXX 01064 07790 02456 81614 10190 20170 30080 40094 58007 60006 8593/ 90600 333 10199 20145 60004=
07790,1997-06-01 09:00:00,18,1007.6,-1.8,94,17,4000,31.484,,53.708,140,,,,2,,,,,,61,wg-a,,,,AAXX 01094 07790 12440 81417 10180 20170 30062 40076 58018 60027 76162 8573/ 90900 333 91029=
07790,1997-06-01 12:00:00,17,1005.2,-2.4,100,17,0,18.52,,,180,,,,52,,,,,,,wg-a,,,,AAXX 01124 07790 02/// /1810 10170 20170 30038 40052 58024 60546 91200 333 60527=
07790,1997-06-01 15:00:00,18,1006,0.8,88,16,11000,11.112,,,360,,,,,,,,,,,wg-a,,,,AAXX 01154 07790 32/61 /3606 10180 20160 30046 40060 53008 91500=
07790,1997-06-01 18:00:00,17,1007.7,1.7,94,16,10000,7.408,,,300,16.5,19.5,,,,,,,,60,wg-a,,,,AAXX 01184 07790 02460 73004 10170 20160 30063 40077 53017 61000 76098 8593/ 91800 333 10195 20165 6001=
07790,1997-06-01 21:00:00,17,1009.4,1.7,94,16,10000,0,,,0,,,,3,,,,,,17,wg-a,,,,AAXX 01214 07790 12560 70000 10170 20160 30080 40094 51017 60037 71796 8393/ 92100=
07790,1997-06-02 00:00:00,17,1009.9,0.5,88,15,10000,11.112,,,40,,,,1,,,,,,61,wg-a,,,,AAXX 02004 07790 02360 70406 10170 20150 30085 40099 50005 60046 76196 8593/ 90000 333 60017=
07790,1997-06-02 03:00:00,16,1010.3,0.4,94,15,6000,14.816,,,30,,,,4,,,,,,61,wg-a,,,,AAXX 02034 07790 12456 70308 10160 20150 30089 40103 50004 60047 76166 8633/ 90300=
07790,1997-06-02 06:00:00,15,1011.2,0.9,100,15,8000,3.704,,,240,15.3,17.1,,,,,,,,80,wg-a,,,,AAXX 02064 07790 02358 72402 10150 20150 30098 40112 51009 61000 78096 8633/ 90600 333 10171 20153 6080=
07790,1997-06-02 09:00:00,16,1012.7,1.5,94,15,6000,3.704,,,290,,,,8,,,,,,61,wg-a,,,,AAXX 02094 07790 12256 82902 10160 20150 30113 40127 51015 60087 76162 8637/ 90900=
07790,1997-06-02 12:00:00,16,1013.6,0.9,94,15,8000,3.704,,,270,,,,5,,,,,,61,wg-a,,,,AAXX 02124 07790 02258 82702 10160 20150 30122 40136 52009 60136 76162 8637/ 91200 333 60057=
07790,1997-06-02 18:00:00,17,1013.8,0.4,94,16,15000,0,,,0,15.3,17.1,,,,,,,,1,wg-a,,,,AAXX 02184 07790 12265 80000 10170 20160 30124 40138 53004 60006 70196 8637/ 91800 333 10171 20153=
07790,1997-06-02 21:00:00,15,1014.8,1,100,15,11000,3.704,,,290,,,,,,,,,,,wg-a,,,,AAXX 02214 07790 12/61 /2902 10150 20150 30134 40148 51010 60006 92100=
07790,1997-06-03 00:00:00,14,1014.7,-0.1,94,13,15000,7.408,,,250,,,,,,,,,,,wg-a,,,,AAXX 03004 07790 12365 32504 10140 20130 30133 40147 58001 60006 81701 90000=
07790,1997-06-03 03:00:00,14,1014.2,-0.5,94,13,15000,18.52,,,250,,,,0,,,,,,,wg-a,,,,AAXX 03034 07790 12565 /2510 10140 20130 30128 40142 58005 60007 81500 90300=
07790,1997-06-03 06:00:00,17,1015,0.8,88,15,10000,7.408,,,240,12.8,17,,,,,23,,,,wg-a,,,,AAXX 03064 07790 02460 /2404 10170 20150 30136 40150 51008 60006 82532 90600 333 10170 20128 60234=
07790,1997-06-03 09:00:00,21,1015.9,0.9,73,16,15000,11.112,,,120,,,,,,,,,,,wg-a,,,,AAXX 03094 07790 12565 41206 10210 20160 30145 40159 51009 60006 83802 90900=
07790,1997-06-03 12:00:00,22,1016.3,0.4,69,16,15000,11.112,,,100,,,,,,,,,,,wg-a,,,,AAXX 03124 07790 12565 51006 10220 20160 30149 40163 52004 60006 84801 91200=
07790,1997-06-03 15:00:00,22,1016.2,-0.1,69,16,15000,11.112,,,140,,,,,,,,,,,wg-a,,,,AAXX 03154 07790 12565 /1406 10220 20160 30148 40162 58001 60006 86800 91500=
07790,1997-06-03 18:00:00,21,1015.7,-0.5,73,16,15000,7.408,,,150,17,22.7,,,,,,,,,wg-a,,,,AAXX 03184 07790 12565 31504 10210 20160 30143 40157 55005 60006 83870 91800 333 10227 20170=
07790,1997-06-03 21:00:00,17,1016.8,1.1,88,15,11000,3.704,,,340,,,,,,,,,,,wg-a,,,,AAXX 03214 07790 12/61 /3402 10170 20150 30154 40168 53011 60006 92100=
07790,1997-06-04 00:00:00,16,1016.6,-0.2,88,14,15000,7.408,,,250,,,,,,,,,,,wg-a,,,,AAXX 04004 07790 12665 /2504 10160 20140 30152 40166 58002 60006 81500 90000=
07790,1997-06-04 03:00:00,16,1016.3,-0.3,94,15,15000,7.408,,,230,,,,,,,,,,,wg-a,,,,AAXX 04034 07790 12565 /2304 10160 20150 30149 40163 57003 60006 85570 90300=
07790,1997-06-04 06:00:00,18,1016.7,0.4,83,15,15000,3.704,,,220,15.3,20.6,,,,,,,,,wg-a,,,,AAXX 04064 07790 02565 /2202 10180 20150 30153 40167 53004 60006 84501 90600 333 10206 20153 60004=
07790,1997-06-04 09:00:00,22,1016.6,-0.1,60,14,20000,14.816,,,120,,,,,,,,,,,wg-a,,,,AAXX 04094 07790 12570 71208 10220 20140 30152 40166 57001 60006 81501 90900=
07790,1997-06-04 12:00:00,23,1016.6,0,61,15,20000,11.112,,,100,,,,,,,,,,,wg-a,,,,AAXX 04124 07790 12570 /1006 10230 20150 30152 40166 50000 60006 83532 91200=
07790,1997-06-04 15:00:00,21,1016.1,-0.5,78,17,15000,14.816,,,140,,,,,,,,,,,wg-a,,,,AAXX 04154 07790 12465 /1408 10210 20170 30147 40161 55005 60006 83532 91500=
07790,1997-06-04 18:00:00,20,1014.8,-1.3,83,17,9000,7.408,,,160,17.9,23.1,,,,,,,,,wg-a,,,,AAXX 04184 07790 12459 71604 10200 20170 30134 40148 56013 60006 84537 91800 333 10231 20179=
07790,1997-06-04 21:00:00,19,1014.8,-0,88,17,12000,11.112,,,140,,,,,,,,,,,wg-a,,,,AAXX 04214 07790 12462 81406 10190 20170 30134 40148 54000 60006 8657/ 92100=
07790,1997-06-05 00:00:00,19,1012.7,-2.1,83,16,20000,3.704,,,190,,,,,,,,,,,wg-a,,,,AAXX 05004 07790 12570 71902 10190 20160 30113 40127 58021 60006 8457/ 90000=
07790,1997-06-05 03:00:00,19,1011.7,-1,94,18,8000,22.224,,,150,,,,,,,,,,,wg-a,,,,AAXX 05034 07790 12258 71512 10190 20180 30103 40117 55010 60006 8657/ 90300=
07790,1997-06-05 06:00:00,19,1010.6,-1.1,88,17,9000,14.816,,,140,18.2,20,,,,,,,,,wg-a,,,,AAXX 05064 07790 02/59 /1408 10190 20170 30092 40106 56011 60006 90600 333 10200 20182 61000=
07790,1997-06-05 09:00:00,19,1009.4,-1.2,88,17,3000,14.816,,,150,,,,3,,,,,,10,wg-a,,,,AAXX 05094 07790 12230 81508 10190 20170 30080 40094 58012 60037 71062 8677/ 90900=
07790,1997-06-05 12:00:00,18,1009.8,0.4,94,17,7000,7.408,,,150,,,,3,,,,,,21,wg-a,,,,AAXX 05124 07790 02357 81504 10180 20170 30084 40098 51004 60066 72162 8787/ 91200 333 60037=
07790,1997-06-05 18:00:00,19,1009.7,0.6,83,16,9000,7.408,,,350,17.2,19.8,,,,,,,,,wg-a,,,,AAXX 05184 07790 12459 73504 10190 20160 30083 40097 53006 60006 84982 91800 333 10198 20172=
07790,1997-06-06 00:00:00,16,1010.8,0.1,94,15,15000,3.704,,,230,,,,,,,,,,,wg-a,,,,AAXX 06004 07790 12565 42302 10160 20150 30094 40108 50001 60006 82832 90000=
07790,1997-06-06 06:00:00,18,1012.1,1.1,77,14,15000,14.816,,,240,15,18.8,,,,,6,,,,wg-a,,,,AAXX 06064 07790 02565 /2408 10180 20140 30107 40121 53011 60006 83531 90600 333 10188 20150 60064=
07790,1997-06-06 09:00:00,22,1013.4,1.3,65,15,15000,7.408,,,120,,,,,,,,,,,wg-a,,,,AAXX 06094 07790 12565 /1204 10220 20150 30120 40134 53013 60006 85831 90900=
07790,1997-06-06 12:00:00,23,1014.3,0.9,61,15,15000,11.112,,,130,,,,0,,,,,,1,wg-a,,,,AAXX 06124 07790 02565 /1306 10230 20150 30129 40143 51009 60006 70161 84834 91200 333 60007=
07790,1997-06-06 15:00:00,23,1013.9,-0.4,61,15,15000,7.408,,,120,,,,,,,,,,,wg-a,,,,AAXX 06154 07790 12565 61204 10230 20150 30125 40139 55004 60006 86230 91500=
07790,1997-06-06 18:00:00,21,1014.4,0.5,73,16,12000,3.704,,,160,17.6,23.6,,,,,,,,,wg-a,,,,AAXX 06184 07790 12562 /1602 10210 20160 30130 40144 53005 60006 85201 91800 333 10236 20176=
07790,1997-06-06 21:00:00,18,1015.1,0.7,88,16,15000,3.704,,,220,,,,,,,,,,,wg-a,,,,AAXX 06214 07790 12/65 42202 10180 20160 30137 40151 53007 60006 80002 92100=
07790,1997-06-07 00:00:00,16,1015.3,0.2,88,14,17000,7.408,,,230,,,,,,,,,,,wg-a,,,,AAXX 07004 07790 12/67 02304 10160 20140 30139 40153 50002 60006 80000 90000=
07790,1997-06-07 03:00:00,15,1014.8,-0.5,94,14,17000,3.704,,,260,,,,,,,,,,,wg-a,,,,AAXX 07034 07790 12/67 02602 10150 20140 30134 40148 56005 60006 80000 90300=
07790,1997-06-07 06:00:00,19,1015.5,0.7,83,16,15000,3.704,,,350,14.2,20.6,,,,,,,,,wg-a,,,,AAXX 07064 07790 02/65 13502 10190 20160 30141 40155 51007 60006 80002 90600 333 10206 20142 60004=
07790,1997-06-07 09:00:00,23,1015.5,-0,69,17,15000,7.408,,,70,,,,,,,,,,,wg-a,,,,AAXX 07094 07790 12565 20704 10230 20170 30141 40155 54000 60006 81501 90900=
07790,1997-06-07 12:00:00,24,1015.7,0.2,61,16,15000,11.112,,,120,,,,,,,,,,,wg-a,,,,AAXX 07124 07790 12565 41206 10240 20160 30143 40157 50002 60006 82804 91200=
07790,1997-06-07 15:00:00,24,1015.9,0.2,61,16,15000,11.112,,,80,,,,,,,,,,,wg-a,,,,AAXX 07154 07790 12565 50806 10240 20160 30145 40159 53002 60006 82872 91500=
07790,1997-06-07 18:00:00,22,1015.9,0,73,17,15000,7.408,,,110,19.1,25,,,,,,,,,wg-a,,,,AAXX 07184 07790 12565 41104 10220 20170 30145 40159 50000 60006 81542 91800 333 10250 20191=
07790,1997-06-07 21:00:00,19,1016.2,0.3,88,17,20000,0,,,0,,,,,,,,,,,wg-a,,,,AAXX 07214 07790 12570 40000 10190 20170 30148 40162 53003 60006 81542 92100=
07790,1997-06-08 00:00:00,18,1016.4,0.2,88,16,20000,3.704,,,270,,,,,,,,,,,wg-a,,,,AAXX 08004 07790 12570 52702 10180 20160 30150 40164 50002 60006 81532 90000=
07790,1997-06-08 03:00:00,18,1016.3,-0.1,88,16,20000,7.408,,,230,,,,,,,,,,,wg-a,,,,AAXX 08034 07790 12570 42304 10180 20160 30149 40163 55001 60006 81532 90300=
07790,1997-06-08 06:00:00,22,1017.2,0.9,73,17,20000,3.704,,,150,17.3,22.1,,,,,,,,,wg-a,,,,AAXX 08064 07790 02670 51502 10220 20170 30158 40172 53009 60006 82181 90600 333 10221 20173 60004=
07790,1997-06-08 12:00:00,25,1018.6,0.5,57,16,20000,11.112,,,130,,,,,,,,,,,wg-a,,,,AAXX 08124 07790 12570 41306 10250 20160 30172 40186 52005 60006 81131 91200=
07790,1997-06-08 15:00:00,25,1018.6,-0,65,18,16000,11.112,,,130,,,,,,,,,,,wg-a,,,,AAXX 08154 07790 12566 31306 10250 20180 30172 40186 55000 60006 81101 91500=
07790,1997-06-08 18:00:00,23,1019.1,0.5,78,19,7000,7.408,,,130,21.5,26.1,,,,,,,,,wg-a,,,,AAXX 08184 07790 12557 71304 10230 20190 30177 40191 53005 60006 81101 91800 333 10261 20215=
07790,1997-06-09 00:00:00,19,1020.3,0.3,94,18,8000,3.704,,,260,,,,,,,,,,,wg-a,,,,AAXX 09004 07790 12458 52602 10190 20180 30189 40203 50003 60006 85500 90000=
07790,1997-06-09 03:00:00,18,1019.9,-0.4,88,16,8000,11.112,,,210,,,,,,,,,,,wg-a,,,,AAXX 09034 07790 12/58 /2106 10180 20160 30185 40199 57004 60006 80001 90300=
07790,1997-06-09 06:00:00,21,1020.3,0.4,78,17,10000,14.816,,,200,17.3,22.6,,,,,,,,,wg-a,,,,AAXX 09064 07790 02/60 22008 10210 20170 30189 40203 51004 60006 80001 90600 333 10226 20173 60004=
07790,1997-06-09 09:00:00,24,1021.7,1.4,74,19,10000,11.112,,,120,,,,,,,,,,,wg-a,,,,AAXX 09094 07790 12560 /1206 10240 20190 30203 40217 51014 60006 83106 90900=
07790,1997-06-09 12:00:00,25,1021.1,-0.6,74,20,10000,11.112,,,120,,,,,,,,,,,wg-a,,,,AAXX 09124 07790 12460 51206 10250 20200 30197 40211 58006 60006 83802 91200=
07790,1997-06-09 15:00:00,25,1020.5,-0.6,74,20,10000,11.112,,,130,,,,,,,,,,14,wg-a,,,,AAXX 09154 07790 12560 31306 10250 20200 30191 40205 58006 60006 71411 81202 91500=
07790,1997-06-09 18:00:00,23,1019.7,-0.8,78,19,10000,7.408,,,150,20.7,26.2,,,,,,,,,wg-a,,,,AAXX 09184 07790 12460 71504 10230 20190 30183 40197 56008 60006 81606 91800 333 10262 20207=
07790,1997-06-09 21:00:00,21,1019.8,0.1,88,19,10000,3.704,,,150,,,,,,,,,,,wg-a,,,,AAXX 09214 07790 12560 71502 10210 20190 30184 40198 53001 60006 81501 92100=
07790,1997-06-10 00:00:00,19,1019,-0.8,88,17,10000,3.704,,,260,,,,,,,,,,,wg-a,,,,AAXX 10004 07790 12/60 32602 10190 20170 30176 40190 58008 60006 80001 90000=
07790,1997-06-10 06:00:00,20,1018.5,0,94,19,2000,7.408,,,230,17.6,22.9,,,,,,,,10,wg-a,,,,AAXX 10064 07790 02120 42304 10200 20190 30171 40185 50000 60006 71011 84501 90600 333 10229 20176 60004=
07790,1997-06-10 09:00:00,27,1018.3,-0.2,58,18,20000,11.112,,,130,,,,,,,,,,,wg-a,,,,AAXX 10094 07790 12670 21306 10270 20180 30169 40183 58002 60006 82501 90900=
07790,1997-06-10 12:00:00,25,1017.8,-0.5,69,19,17000,14.816,,,120,,,,,,,,,,,wg-a,,,,AAXX 10124 07790 12567 31208 10250 20190 30164 40178 58005 60006 83501 91200=
07790,1997-06-10 18:00:00,24,1015.4,-0.8,65,17,20000,3.704,,,110,19.9,26.7,,,,,,,,,wg-a,,,,AAXX 10184 07790 12570 51102 10240 20170 30140 40154 56008 60006 81584 91800 333 10267 20199=
07790,1997-06-10 21:00:00,21,1015.4,-0,83,18,20000,3.704,,,230,,,,,,,,,,,wg-a,,,,AAXX 10214 07790 12/70 /2302 10210 20180 30140 40154 55000 60006 81031 92100=
07790,1997-06-11 00:00:00,20,1014.5,-0.9,88,18,20000,3.704,,,340,,,,,,,,,,,wg-a,,,,AAXX 11004 07790 12/70 33402 10200 20180 30131 40145 58009 60006 81031 90000=
07790,1997-06-11 03:00:00,19,1014.3,-0.2,88,17,20000,7.408,,,240,,,,,,,,,,,wg-a,,,,AAXX 11034 07790 12/70 32404 10190 20170 30129 40143 55002 60006 81031 90300=
07790,1997-06-11 06:00:00,21,1014,-0.3,73,16,500,7.408,,,180,17.9,23.7,,,,,,,,,wg-a,,,,AAXX 11064 07790 02/00 71804 10210 20160 30126 40140 58003 60006 85084 90600 333 10237 20179 60004=
07790,1997-06-11 09:00:00,26,1014,0,54,16,500,7.408,,,20,,,,,,,,,,,wg-a,,,,AAXX 11094 07790 12/00 50204 10260 20160 30126 40140 50000 60006 81081 90900=
07790,1997-06-11 12:00:00,27,1012.5,-1.5,54,17,500,18.52,,,150,,,,,,,,,,,wg-a,,,,AAXX 11124 07790 12700 /1510 10270 20170 30111 40125 58015 60006 81186 91200=
07790,1997-06-11 18:00:00,24,1011.6,0.1,69,18,500,14.816,,,150,21.3,28.5,,,,,,,,,wg-a,,,,AAXX 11184 07790 12/00 11508 10240 20180 30102 40116 50001 60006 81031 91800 333 10285 20213=
07790,1997-06-11 21:00:00,21,1011.7,0.1,78,17,500,3.704,,,230,,,,,,,,,,,wg-a,,,,AAXX 11214 07790 12/00 12302 10210 20170 30103 40117 50001 60006 80001 92100=
07790,1997-06-12 00:00:00,19,1011.3,-0.4,94,18,500,3.704,,,350,,,,,,,,,,,wg-a,,,,AAXX 12004 07790 12/00 13502 10190 20180 30099 40113 58004 60006 80001 90000=
07790,1997-06-12 03:00:00,18,1010.5,-0.8,88,16,500,3.704,,,260,,,,,,,,,,,wg-a,,,,AAXX 12034 07790 12700 /2602 10180 20160 30091 40105 56008 60006 81504 90300=
07790,1997-06-12 06:00:00,21,1011.4,0.9,94,20,4500,11.112,,,360,17.5,23.7,,,,,,,,10,wg-a,,,,AAXX 12064 07790 02245 73606 10210 20200 30100 40114 52009 60006 71011 85602 90600 333 10237 20175 60004=
07790,1997-06-12 09:00:00,24,1011,-0.4,78,20,10000,14.816,,,80,,,,,,,,,,,wg-a,,,,AAXX 12094 07790 12460 70808 10240 20200 30096 40110 56004 60006 81402 90900=
07790,1997-06-12 12:00:00,25,1010.7,-0.3,69,19,12000,14.816,,,60,,,,,,,,,,,wg-a,,,,AAXX 12124 07790 12462 70608 10250 20190 30093 40107 58003 60006 83502 91200=
07790,1997-06-12 15:00:00,26,1010.1,-0.6,70,20,7000,11.112,,,120,,,,,,,,,,,wg-a,,,,AAXX 12154 07790 12457 71206 10260 20200 30087 40101 56006 60006 83502 91500=
07790,1997-06-12 18:00:00,23,1009.4,-0.7,83,20,8000,7.408,,,140,21.4,25.8,,,,,,,,,wg-a,,,,AAXX 12184 07790 12458 71404 10230 20200 30080 40094 56007 60006 81602 91800 333 10258 20214=
07790,1997-06-12 21:00:00,21,1009.3,-0.1,88,19,10000,0,,,0,,,,,,,,,,,wg-a,,,,AAXX 12214 07790 12560 70000 10210 20190 30079 40093 56001 60006 81102 92100=
07790,1997-06-13 00:00:00,20,1009.6,0.3,88,18,10000,3.704,,,190,,,,,,,,,,,wg-a,,,,AAXX 13004 07790 12560 21902 10200 20180 30082 40096 50003 60006 81102 90000=
07790,1997-06-13 06:00:00,21,1009.7,0.6,94,20,4500,0,,,0,19.4,23.3,,,,,,,,10,wg-a,,,,AAXX 13064 07790 02345 70000 10210 20200 30083 40097 53006 60006 71011 876// 90600 333 10233 20194 60004=
07790,1997-06-13 09:00:00,24,1009.6,-0.1,74,19,7000,7.408,,,140,,,,,,,,,,,wg-a,,,,AAXX 13094 07790 12457 81404 10240 20190 30082 40096 58001 60006 876// 90900=
07790,1997-06-13 12:00:00,25,1009.5,-0.1,69,19,15000,14.816,,,120,,,,,,,,,,,wg-a,,,,AAXX 13124 07790 12565 /1208 10250 20190 30081 40095 58001 60006 81532 91200=
07790,1997-06-13 15:00:00,25,1008.7,-0.8,74,20,9000,7.408,,,150,,,,,,,,,,,wg-a,,,,AAXX 13154 07790 12559 71504 10250 20200 30073 40087 58008 60006 81534 91500=
07790,1997-06-13 18:00:00,24,1008.5,-0.2,78,20,8000,7.408,,,140,21.2,26.7,,,,,,,,,wg-a,,,,AAXX 13184 07790 12558 /1404 10240 20200 30071 40085 57002 60006 81532 91800 333 10267 20212=
07790,1997-06-14 00:00:00,20,1009.5,-0.1,88,18,12000,0,,,0,,,,,,,,,,40,wg-a,,,,AAXX 14004 07790 12262 20000 10200 20180 30081 40095 55001 60006 74011 82600 90000=
07790,1997-06-14 03:00:00,19,1009,-0.5,94,18,6000,3.704,,,280,,,,,,,,,,40,wg-a,,,,AAXX 14034 07790 12156 42802 10190 20180 30076 40090 55005 60006 74000 84600 90300=
07790,1997-06-14 06:00:00,21,1010.1,1.1,94,20,3500,0,,,0,18.8,23.9,,,,,,,,10,wg-a,,,,AAXX 14064 07790 02235 /0000 10210 20200 30087 40101 51011 60006 71011 86600 90600 333 10239 20188 60004=
07790,1997-06-14 09:00:00,25,1010.8,0.7,79,21,7000,7.408,,,100,,,,,,,,,,,wg-a,,,,AAXX 14094 07790 12457 /1004 10250 20210 30094 40108 51007 60006 81100 90900=
07790,1997-06-14 12:00:00,26,1011.5,0.7,70,20,7000,11.112,,,40,,,,,,,,,,,wg-a,,,,AAXX 14124 07790 12457 /0406 10260 20200 30101 40115 50007 60006 85500 91200=
07790,1997-06-14 15:00:00,26,1010.8,-0.7,70,20,7000,7.408,,,120,,,,,,,,,,,wg-a,,,,AAXX 14154 07790 12457 31204 10260 20200 30094 40108 58007 60006 83500 91500=
07790,1997-06-14 18:00:00,25,1010.6,-0.2,79,21,7000,11.112,,,160,21.1,27,,,,,,,,,wg-a,,,,AAXX 14184 07790 12/57 01606 10250 20210 30092 40106 56002 60006 80000 91800 333 10270 20211=
07790,1997-06-14 21:00:00,22,1011.7,1.1,88,20,12000,7.408,,,130,,,,,,,,,,,wg-a,,,,AAXX 14214 07790 12/62 11304 10220 20200 30103 40117 53011 60006 80001 92100=
07790,1997-06-15 00:00:00,20,1012.5,0.8,88,18,15000,7.408,,,240,,,,,,,,,,,wg-a,,,,AAXX 15004 07790 12/65 02404 10200 20180 30111 40125 50008 60006 80000 90000=
07790,1997-06-15 06:00:00,23,1013.1,0.9,65,16,15000,7.408,,,190,18.6,25.2,,,,,,,,,wg-a,,,,AAXX 15064 07790 02/65 11904 10230 20160 30117 40131 51009 60006 80001 90600 333 10252 20186 60004=
07790,1997-06-15 09:00:00,27,1014.2,1.1,62,19,15000,14.816,,,140,,,,,,,,,,,wg-a,,,,AAXX 15094 07790 12565 21408 10270 20190 30128 40142 51011 60006 81101 90900=
07790,1997-06-15 12:00:00,27,1014.9,0.7,58,18,15000,11.112,,,120,,,,,,,,,,,wg-a,,,,AAXX 15124 07790 12565 21206 10270 20180 30135 40149 51007 60006 81231 91200=
07790,1997-06-15 18:00:00,25,1014.6,0.1,79,21,25000,14.816,,,60,22.7,28.7,,,,,,,,,wg-a,,,,AAXX 15184 07790 12/75 20608 10250 20210 30132 40146 53001 60006 81031 91800 333 10287 20227=
07790,1997-06-15 21:00:00,22,1016,1.4,83,19,15000,7.408,,,220,,,,,,,,,,,wg-a,,,,AAXX 15214 07790 12/65 42204 10220 20190 30146 40160 52014 60006 81036 92100=
07790,1997-06-16 00:00:00,19,1016.2,0.2,83,16,0,11.112,,,230,,,,,,,,,,,wg-a,,,,AAXX 16004 07790 12/// /2306 10190 20160 30148 40162 50002 60006 90000=
07790,1997-06-16 03:00:00,19,1015.7,-0.5,68,13,15000,11.112,,,220,,,,,,,,,,,wg-a,,,,AAXX 16034 07790 12/65 42206 10190 20130 30143 40157 55005 60006 81036 90300=
07790,1997-06-16 06:00:00,21,1016.1,0.4,69,15,20000,11.112,,,230,18,24.7,,,,,,,,,wg-a,,,,AAXX 16064 07790 02570 32306 10210 20150 30147 40161 50004 60006 81131 90600 333 10247 20180 60004=
07790,1997-06-16 09:00:00,25,1016.5,0.4,69,19,15000,11.112,,,130,,,,,,,,,,,wg-a,,,,AAXX 16094 07790 12465 31306 10250 20190 30151 40165 53004 60006 83100 90900=
07790,1997-06-16 12:00:00,27,1016.1,-0.4,66,20,15000,14.816,,,150,,,,,,,,,,,wg-a,,,,AAXX 16124 07790 12465 41508 10270 20200 30147 40161 58004 60006 81181 91200=
07790,1997-06-16 15:00:00,26,1014.9,-1.2,65,19,15000,14.816,,,140,,,,,,,,,,,wg-a,,,,AAXX 16154 07790 12565 /1408 10260 20190 30135 40149 58012 60006 81101 91500=
07790,1997-06-16 18:00:00,25,1014.3,-0.6,65,18,15000,7.408,,,130,21.4,27.2,,,,,,,,,wg-a,,,,AAXX 16184 07790 12/65 61304 10250 20180 30129 40143 56006 60006 80002 91800 333 10272 20214=
07790,1997-06-17 00:00:00,21,1014.6,-0.4,83,18,15000,3.704,,,230,,,,,,,,,,,wg-a,,,,AAXX 17004 07790 12565 42302 10210 20180 30132 40146 56004 60006 81502 90000=
07790,1997-06-17 03:00:00,21,1014.1,-0.5,78,17,15000,7.408,,,260,,,,,,,,,,,wg-a,,,,AAXX 17034 07790 12865 62604 10210 20170 30127 40141 55005 60006 84082 90300=
07790,1997-06-17 06:00:00,23,1014.2,0.1,69,17,15000,3.704,,,260,19.9,24.6,,,,,,,,,wg-a,,,,AAXX 17064 07790 02565 22602 10230 20170 30128 40142 53001 60006 81181 90600 333 10246 20199 60004=
07790,1997-06-17 09:00:00,27,1014.2,-0,62,19,15000,7.408,,,140,,,,,,,,,,,wg-a,,,,AAXX 17094 07790 12565 31404 10270 20190 30128 40142 55000 60006 81181 90900=
07790,1997-06-17 12:00:00,28,1014.1,-0.1,58,19,15000,11.112,,,90,,,,,,,,,,,wg-a,,,,AAXX 17124 07790 12565 30906 10280 20190 30127 40141 58001 60006 81232 91200=
07790,1997-06-17 15:00:00,28,1013.7,-0.4,62,20,18000,11.112,,,130,,,,,,,,,,,wg-a,,,,AAXX 17154 07790 12568 21306 10280 20200 30123 40137 58004 60006 81232 91500=
07790,1997-06-17 18:00:00,26,1013.2,-0.5,61,18,18000,7.408,,,120,22.9,28.5,,,,,,,,,wg-a,,,,AAXX 17184 07790 12668 61204 10260 20180 30118 40132 56005 60006 81835 91800 333 10285 20229=
07790,1997-06-18 00:00:00,21,1013.4,-0.9,78,17,18000,11.112,,,240,,,,,,,,,,,wg-a,,,,AAXX 18004 07790 12/68 32406 10210 20170 30120 40134 58009 60006 80001 90000=
07790,1997-06-18 03:00:00,22,1012.2,-1.2,78,18,11000,3.704,,,260,,,,,,,,,,,wg-a,,,,AAXX 18034 07790 12/61 /2602 10220 20180 30108 40122 56012 60006 90300=
07790,1997-06-18 06:00:00,24,1012.4,0.2,78,20,11000,7.408,,,200,20.1,26.1,,,,,,,,,wg-a,,,,AAXX 18064 07790 02/61 /2004 10240 20200 30110 40124 51002 60006 90600 333 10261 20201 60004=
07790,1997-06-18 09:00:00,27,1012.2,-0.2,66,20,12000,7.408,,,140,,,,,,,,,,1,wg-a,,,,AAXX 18094 07790 02562 61404 10270 20200 30108 40122 58002 61000 70162 81381 90900 333 ////=
07790,1997-06-18 12:00:00,29,1011.8,-0.4,52,18,11000,11.112,,,130,,,,,,,,,,,wg-a,,,,AAXX 18124 07790 02/61 /1306 10290 20180 30104 40118 57004 61000 91200 333 ////=
07790,1997-06-18 15:00:00,28,1011.2,-0.6,55,18,12000,7.408,,,130,,,,,,,,,,,wg-a,,,,AAXX 18154 07790 12862 /1304 10280 20180 30098 40112 58006 60006 81082 91500=
07790,1997-06-18 18:00:00,25,1010.8,-0.4,79,21,15000,7.408,,,80,23.6,29.9,,,,,,,,,wg-a,,,,AAXX 18184 07790 12565 /0804 10250 20210 30094 40108 56004 60006 81182 91800 333 10299 20236=
07790,1997-06-18 21:00:00,22,1011.7,0.9,83,19,20000,7.408,,,340,,,,,,,,,,,wg-a,,,,AAXX 18214 07790 12870 /3404 10220 20190 30103 40117 53009 60006 81052 92100=
07790,1997-06-19 00:00:00,21,1010,-1.7,83,18,20000,0,,,0,,,,,,,,,,,wg-a,,,,AAXX 19004 07790 12870 /0000 10210 20180 30086 40100 58017 60006 82052 90000=
07790,1997-06-19 03:00:00,21,1008.2,-1.8,83,18,20000,3.704,,,270,,,,,,,,,,,wg-a,,,,AAXX 19034 07790 12670 62702 10210 20180 30068 40082 58018 60006 84101 90300=
07790,1997-06-19 06:00:00,22,1006.3,-1.9,88,20,8000,7.408,,,340,19.4,25.3,,,,,,,,,wg-a,,,,AAXX 19064 07790 02458 63404 10220 20200 30049 40063 58019 60006 85230 90600 333 10253 20194 61000=
07790,1997-06-19 12:00:00,29,1004,-0.8,35,12,11000,25.928,,,250,,,,,,,,,,,wg-a,,,,AAXX 19124 07790 12/61 /2514 10290 20120 30026 40040 55008 60006 91200=
07790,1997-06-19 15:00:00,26,1004.6,0.6,48,14,10000,29.632,,61.116,320,,,,,,,,,,,wg-a,,,,AAXX 19154 07790 12560 /3216 10260 20140 30032 40046 53006 60006 85330 91500 333 91033=
07790,1997-06-19 18:00:00,25,1005.3,0.7,39,10,25000,18.52,,61.116,270,22.4,29.5,,,,,,,,,wg-a,,,,AAXX 19184 07790 12575 /2710 10250 20100 30039 40053 53007 60006 81231 91800 333 10295 20224 91033=
07790,1997-06-19 21:00:00,23,1006.7,1.4,44,10,20000,14.816,,,240,,,,,,,,,,,wg-a,,,,AAXX 19214 07790 12570 /2408 10230 20100 30053 40067 51014 60006 81252 92100=
07790,1997-06-20 00:00:00,24,1006,-0.7,38,9,25000,22.224,,,240,,,,,,,,,,,wg-a,,,,AAXX 20004 07790 12575 32412 10240 20090 30046 40060 56007 60006 81241 90000=
07790,1997-06-20 03:00:00,20,1005.9,-0.1,49,9,25000,7.408,,,220,,,,,,,,,,,wg-a,,,,AAXX 20034 07790 12575 /2204 10200 20090 30045 40059 55001 60006 81202 90300=
07790,1997-06-20 06:00:00,22,1007,1.1,46,10,40000,3.704,,,220,18.8,24.9,,,,,,,,,wg-a,,,,AAXX 20064 07790 02582 /2202 10220 20100 30056 40070 53011 60006 81242 90600 333 10249 20188 60004=
07790,1997-06-20 09:00:00,27,1007.7,0.7,39,12,40000,18.52,,,90,,,,,,,,,,,wg-a,,,,AAXX 20094 07790 12582 40910 10270 20120 30063 40077 53007 60006 81242 90900=
07790,1997-06-20 12:00:00,28,1008.1,0.4,35,11,25000,22.224,,,120,,,,,,,,,,,wg-a,,,,AAXX 20124 07790 12575 /1212 10280 20110 30067 40081 51004 60006 81202 91200=
07790,1997-06-20 15:00:00,27,1008.5,0.4,42,13,25000,18.52,,,130,,,,,,,,,,,wg-a,,,,AAXX 20154 07790 12575 /1310 10270 20130 30071 40085 53004 60006 82242 91500=
07790,1997-06-20 18:00:00,24,1009.2,0.7,61,16,25000,3.704,,,90,21.9,28.2,,,,,,,,,wg-a,,,,AAXX 20184 07790 12575 30902 10240 20160 30078 40092 52007 60006 81101 91800 333 10282 20219=
07790,1997-06-20 21:00:00,19,1010.7,1.5,73,14,25000,3.704,,,270,,,,,,,,,,,wg-a,,,,AAXX 20214 07790 12775 32702 10190 20140 30093 40107 53015 60006 81531 92100=
07790,1997-06-21 00:00:00,17,1010.9,0.2,77,13,25000,7.408,,,240,,,,,,,,,,,wg-a,,,,AAXX 21004 07790 12/75 12404 10170 20130 30095 40109 51002 60006 80001 90000=
07790,1997-06-21 03:00:00,16,1011.1,0.2,82,13,25000,7.408,,,230,,,,,,,,,,,wg-a,,,,AAXX 21034 07790 12575 12304 10160 20130 30097 40111 53002 60006 81530 90300=
07790,1997-06-21 06:00:00,20,1011.9,0.8,73,15,11000,7.408,,,230,16,24.4,,,,,,,,,wg-a,,,,AAXX 21064 07790 02/61 /2304 10200 20150 30105 40119 53008 60006 90600 333 10244 20160 60004=
07790,1997-06-21 09:00:00,25,1012.1,0.2,61,17,18000,11.112,,,120,,,,,,,,,,,wg-a,,,,AAXX 21094 07790 12568 21206 10250 20170 30107 40121 51002 60006 82200 90900=
07790,1997-06-21 12:00:00,25,1012,-0.1,57,16,18000,11.112,,,130,,,,,,,,,,,wg-a,,,,AAXX 21124 07790 12568 /1306 10250 20160 30106 40120 58001 60006 81801 91200=
07790,1997-06-21 15:00:00,25,1010.7,-1.3,57,16,20000,14.816,,,120,,,,,,,,,,,wg-a,,,,AAXX 21154 07790 12570 /1208 10250 20160 30093 40107 58013 60006 81104 91500=
07790,1997-06-21 18:00:00,23,1009.6,-1.1,83,20,6000,14.816,,,140,20.4,26,,,,,,,,,wg-a,,,,AAXX 21184 07790 12456 71408 10230 20200 30082 40096 58011 60006 85502 91800 333 10260 20204=
07790,1997-06-21 21:00:00,20,1009.3,-0.3,94,19,6000,7.408,,,220,,,,,,,,,,,wg-a,,,,AAXX 21214 07790 12456 52204 10200 20190 30079 40093 58003 60006 83502 92100=
07790,1997-06-22 00:00:00,19,1007.5,-1.8,94,18,7000,0,,,0,,,,,,,,,,,wg-a,,,,AAXX 22004 07790 12457 30000 10190 20180 30061 40075 56018 60006 83500 90000=
07790,1997-06-22 03:00:00,17,1006.1,-1.4,94,16,8000,7.408,,,240,,,,,,,,,,,wg-a,,,,AAXX 22034 07790 12558 22404 10170 20160 30047 40061 58014 60006 82501 90300=
07790,1997-06-22 06:00:00,21,1005.5,-0.6,78,17,10000,3.704,,,220,16.4,22.7,,,,,,,,,wg-a,,,,AAXX 22064 07790 02560 /2202 10210 20170 30041 40055 57006 60006 81500 90600 333 10227 20164 60004=
07790,1997-06-22 09:00:00,25,1005.8,0.3,69,19,10000,7.408,,,10,,,,,,,,,,,wg-a,,,,AAXX 22094 07790 12560 /0104 10250 20190 30044 40058 53003 60006 81502 90900=
07790,1997-06-22 12:00:00,25,1006.6,0.8,74,20,8000,18.52,,,40,,,,,,,,,,,wg-a,,,,AAXX 22124 07790 12558 40410 10250 20200 30052 40066 53008 60006 82502 91200=
07790,1997-06-22 15:00:00,24,1006.3,-0.3,78,20,8000,11.112,,,20,,,,,,,,,,,wg-a,,,,AAXX 22154 07790 12458 /0206 10240 20200 30049 40063 58003 60006 85802 91500=
07790,1997-06-22 18:00:00,24,1006.2,-0.1,74,19,7000,11.112,,,60,20.8,26.1,,,,,,,,,wg-a,,,,AAXX 22184 07790 12557 /0606 10240 20190 30048 40062 55001 60006 83582 91800 333 10261 20208=
07790,1997-06-22 21:00:00,22,1006.8,0.6,83,19,7000,0,,,0,,,,,,,,,,,wg-a,,,,AAXX 22214 07790 12557 70000 10220 20190 30054 40068 51006 60006 83582 92100=
07790,1997-06-23 00:00:00,22,1007.2,0.4,41,8,0,25.928,,,260,,,,,,,,,,,wg-a,,,,AAXX 23004 07790 125// 72614 10220 20080 30058 40072 50004 60006 83582 90000=
07790,1997-06-23 03:00:00,21,1007.1,-0.1,38,6,25000,18.52,,,250,,,,,,,,,,,wg-a,,,,AAXX 23034 07790 12575 /2510 10210 20060 30057 40071 57001 60006 81100 90300=
07790,1997-06-23 06:00:00,23,1007.4,0.3,36,7,60000,11.112,,,160,18.8,24.2,,,,,,,,,wg-a,,,,AAXX 23064 07790 02686 /1606 10230 20070 30060 40074 50003 60006 81100 90600 333 10242 20188 60004=
07790,1997-06-23 09:00:00,28,1007.7,0.3,19,2,60000,11.112,,,180,,,,,,,,,,,wg-a,,,,AAXX 23094 07790 12586 /1806 10280 20020 30063 40077 53003 60006 81140 90900=
07790,1997-06-23 12:00:00,28,1008.7,1,16,0,60000,18.52,,42.596,250,,,,,,,,,,,wg-a,,,,AAXX 23124 07790 12586 /2510 10280 20000 30073 40087 51010 60006 81100 91200 333 91023=
07790,1997-06-23 15:00:00,26,1009.4,0.7,45,13,60000,18.52,,,150,,,,,,,,,,,wg-a,,,,AAXX 23154 07790 12586 /1510 10260 20130 30080 40094 53007 60006 81100 91500=
07790,1997-06-23 18:00:00,24,1010.5,1.1,44,11,60000,7.408,,,180,22.8,29.2,,,,,,,,,wg-a,,,,AAXX 23184 07790 12586 31804 10240 20110 30091 40105 53011 60006 83200 91800 333 10292 20228=
07790,1997-06-24 00:00:00,19,1011.6,-0.1,49,8,60000,7.408,,,280,,,,,,,,,,,wg-a,,,,AAXX 24004 07790 12/86 02804 10190 20080 30102 40116 58001 60006 80000 90000=
07790,1997-06-24 03:00:00,17,1010.9,-0.7,55,8,60000,7.408,,,190,,,,,,,,,,,wg-a,,,,AAXX 24034 07790 12/86 11904 10170 20080 30095 40109 56007 60006 80001 90300=
07790,1997-06-24 06:00:00,20,1011.4,0.5,53,10,40000,3.704,,,190,15.5,24.1,,,,,,,,,wg-a,,,,AAXX 24064 07790 02682 /1902 10200 20100 30100 40114 51005 60006 81100 90600 333 10241 20155 60004=
07790,1997-06-24 09:00:00,24,1011.8,0.4,44,11,50000,11.112,,,80,,,,,,,,,,,wg-a,,,,AAXX 24094 07790 12684 20806 10240 20110 30104 40118 51004 60006 82200 90900=
07790,1997-06-24 12:00:00,25,1011.6,-0.2,41,11,40000,11.112,,,90,,,,,,,,,,,wg-a,,,,AAXX 24124 07790 12682 40906 10250 20110 30102 40116 57002 60006 84800 91200=
07790,1997-06-24 15:00:00,25,1010.2,-1.4,50,14,40000,22.224,,,40,,,,,,,,,,,wg-a,,,,AAXX 24154 07790 12682 30412 10250 20140 30088 40102 58014 60006 83800 91500=
07790,1997-06-24 21:00:00,19,1011.1,1.2,64,12,20000,11.112,,,150,,,,,,,,,,,wg-a,,,,AAXX 24214 07790 12670 /1506 10190 20120 30097 40111 53012 60006 81540 92100=
07790,1997-06-25 00:00:00,18,1011.3,0.2,59,10,20000,7.408,,,220,,,,,,,,,,,wg-a,,,,AAXX 25004 07790 12/70 /2204 10180 20100 30099 40113 51002 60006 81040 90000=
07790,1997-06-25 03:00:00,15,1010.8,-0.5,72,10,20000,7.408,,,240,,,,,,,,,,,wg-a,,,,AAXX 25034 07790 12670 /2404 10150 20100 30094 40108 56005 60006 81530 90300=
07790,1997-06-25 06:00:00,18,1011.4,0.6,68,12,20000,3.704,,,240,14.8,22.7,,,,,,,,,wg-a,,,,AAXX 25064 07790 02470 72402 10180 20120 30100 40114 51006 60006 87800 90600 333 10227 20148 60004=
07790,1997-06-25 09:00:00,23,1011.1,-0.3,65,16,14000,14.816,,,100,,,,,,,,,,,wg-a,,,,AAXX 25094 07790 12564 51008 10230 20160 30097 40111 58003 60006 85200 90900=
07790,1997-06-25 12:00:00,23,1010.7,-0.4,65,16,15000,14.816,,,120,,,,,,,,,,,wg-a,,,,AAXX 25124 07790 12565 61208 10230 20160 30093 40107 58004 60006 86201 91200=
07790,1997-06-25 15:00:00,23,1009.7,-1,65,16,15000,11.112,,,160,,,,,,,,,,21,wg-a,,,,AAXX 25154 07790 02565 71606 10230 20160 30083 40097 58010 61000 72162 87800 91500 333 ////=
07790,1997-06-25 18:00:00,22,1008.8,-0.9,69,16,15000,7.408,,,130,17.9,24,,,,,,,,1,wg-a,,,,AAXX 25184 07790 12565 /1304 10220 20160 30074 40088 56009 60006 70162 83802 91800 333 10240 20179=
07790,1997-06-25 21:00:00,19,1009,0.2,83,16,10000,3.704,,,330,,,,,,,,,,,wg-a,,,,AAXX 25214 07790 12560 /3302 10190 20160 30076 40090 53002 60006 83532 92100=
07790,1997-06-26 00:00:00,19,1008.2,-0.8,78,15,10000,3.704,,,90,,,,,,,,,,,wg-a,,,,AAXX 26004 07790 12560 /0902 10190 20150 30068 40082 58008 60006 82532 90000=
07790,1997-06-26 03:00:00,19,1006.8,-1.4,73,14,10000,7.408,,,210,,,,,,,,,,,wg-a,,,,AAXX 26034 07790 12660 /2104 10190 20140 30054 40068 55014 60006 81572 90300=
07790,1997-06-26 06:00:00,21,1007.1,0.3,69,15,15000,3.704,,,360,17.4,22.3,,,,,,,,,wg-a,,,,AAXX 26064 07790 02465 53602 10210 20150 30057 40071 53003 60006 81282 90600 333 10223 20174 61000=
07790,1997-06-26 12:00:00,23,1005.8,-1,69,17,11000,18.52,,,140,,,,,,,,,,,wg-a,,,,AAXX 26124 07790 12/61 /1410 10230 20170 30044 40058 57010 60006 91200=
07790,1997-06-26 15:00:00,23,1004.1,-1.7,65,16,14000,22.224,,,150,,,,,,,,,,1,wg-a,,,,AAXX 26154 07790 02464 81512 10230 20160 30027 40041 58017 61000 70162 84881 91500 333 ////=
07790,1997-06-26 18:00:00,23,1003.1,-1,65,16,10000,18.52,,,160,21,23.6,,,,,,,,1,wg-a,,,,AAXX 26184 07790 12460 71610 10230 20160 30017 40031 58010 60006 70162 81581 91800 333 10236 20210=
07790,1997-06-26 21:00:00,19,1003.1,-0,83,16,10000,7.408,,,230,,,,,,,,,,,wg-a,,,,AAXX 26214 07790 12460 72304 10190 20160 30017 40031 54000 60006 81581 92100=
07790,1997-06-27 00:00:00,18,1002.3,-0.8,83,15,10000,7.408,,,240,,,,,,,,,,,wg-a,,,,AAXX 27004 07790 12460 72404 10180 20150 30009 40023 56008 60006 82581 90000=
07790,1997-06-27 03:00:00,16,1001.4,-0.9,88,14,10000,7.408,,,260,,,,,,,,,,,wg-a,,,,AAXX 27034 07790 12560 42604 10160 20140 30000 40014 56009 60006 82531 90300=
07790,1997-06-27 06:00:00,20,1001.1,-0.3,73,15,10000,7.408,,,210,15.4,22.5,,,,,,,,,wg-a,,,,AAXX 27064 07790 02/60 /2104 10200 20150 39997 40011 55003 60006 81031 90600 333 10225 20154 61000=
07790,1997-06-27 12:00:00,24,1002.4,1.5,78,20,11000,22.224,,,140,,,,,,,,,,,wg-a,,,,AAXX 27124 07790 12/61 /1412 10240 20200 30010 40024 51015 60006 91200=
07790,1997-06-27 18:00:00,23,1002.3,0.2,83,20,7000,18.52,,,150,20.1,26.3,,,,,,,,,wg-a,,,,AAXX 27184 07790 12557 31510 10230 20200 30009 40023 51002 60006 8284/ 91800 333 10263 20201=
07790,1997-06-28 00:00:00,21,1004.6,0.8,88,19,15000,7.408,,,310,,,,,,,,,,,wg-a,,,,AAXX 28004 07790 12465 73104 10210 20190 30032 40046 51008 60006 876// 90000=
07790,1997-06-28 03:00:00,19,1005.1,0.5,88,17,18000,0,,,0,,,,,,,,,,,wg-a,,,,AAXX 28034 07790 12468 40000 10190 20170 30037 40051 53005 60006 81501 90300=
07790,1997-06-28 06:00:00,22,1006.1,1,78,18,9000,7.408,,,230,18.6,22.8,,,,,,,,,wg-a,,,,AAXX 28064 07790 02559 /2304 10220 20180 30047 40061 51010 60006 85501 90600 333 10228 20186 60004=
07790,1997-06-28 09:00:00,23,1007.3,1.2,78,19,10000,18.52,,,40,,,,,,,,,,,wg-a,,,,AAXX 28094 07790 12560 50410 10230 20190 30059 40073 51012 60006 85800 90900=
07790,1997-06-28 12:00:00,24,1007.6,0.3,69,18,12000,14.816,,,60,,,,,,,,,,,wg-a,,,,AAXX 28124 07790 12562 20608 10240 20180 30062 40076 53003 60006 82500 91200=
07790,1997-06-28 15:00:00,25,1007,-0.6,69,19,11000,3.704,,,50,,,,,,,,,,,wg-a,,,,AAXX 28154 07790 12561 20502 10250 20190 30056 40070 57006 60006 82800 91500=
07790,1997-06-28 18:00:00,24,1006.6,-0.4,78,20,10000,3.704,,,140,21.5,25.1,,,,,,,,,wg-a,,,,AAXX 28184 07790 12560 /1402 10240 20200 30052 40066 55004 60006 81582 91800 333 10251 20215=
07790,1997-06-28 21:00:00,21,1007.3,0.7,88,19,15000,0,,,0,,,,,,,,,,,wg-a,,,,AAXX 28214 07790 12565 70000 10210 20190 30059 40073 50007 60006 81532 92100=
07790,1997-06-29 00:00:00,20,1007.1,-0.2,88,18,15000,7.408,,,230,,,,,,,,,,,wg-a,,,,AAXX 29004 07790 12565 72304 10200 20180 30057 40071 57002 60006 81532 90000=
07790,1997-06-29 03:00:00,20,1006,-1.1,88,18,15000,11.112,,,230,,,,,,,,,,,wg-a,,,,AAXX 29034 07790 12565 72306 10200 20180 30046 40060 58011 60006 81532 90300=
07790,1997-06-29 06:00:00,20,1006.6,0.6,83,17,10000,7.408,,,210,19.5,23.4,,,,,,,,60,wg-a,,,,AAXX 29064 07790 02460 72104 10200 20170 30052 40066 53006 61000 76086 8427/ 90600 333 10234 20195 6003=
07790,1997-06-29 09:00:00,22,1006.2,-0.4,78,18,15000,3.704,,,330,,,,4,,,,,,21,wg-a,,,,AAXX 29094 07790 12565 /3302 10220 20180 30048 40062 58004 60047 72186 8327/ 90900=
07790,1997-06-29 12:00:00,22,1007.4,1.2,83,19,15000,7.408,,,80,,,,1,,,,,,80,wg-a,,,,AAXX 29124 07790 02565 70804 10220 20190 30060 40074 53012 60056 78086 8597/ 91200 333 60017=
07790,1997-06-29 18:00:00,21,1008,0.4,78,17,15000,3.704,,,130,19.1,25,,0,,,,,,1,wg-a,,,,AAXX 29184 07790 02465 51302 10210 20170 30066 40080 53004 60006 70186 85800 91800 333 10250 20191 60007=
07790,1997-06-29 21:00:00,18,1009.4,1.4,52,8,15000,11.112,,,240,,,,,,,,,,,wg-a,,,,AAXX 29214 07790 12465 42406 10180 20080 30080 40094 51014 60006 84800 92100=
07790,1997-06-30 00:00:00,16,1009.7,0.3,63,9,15000,3.704,,,10,,,,,,,,,,,wg-a,,,,AAXX 30004 07790 12465 40102 10160 20090 30083 40097 53003 60006 84800 90000=
07790,1997-06-30 03:00:00,15,1009.5,-0.2,72,10,15000,7.408,,,260,,,,,,,,,,,wg-a,,,,AAXX 30034 07790 12565 72604 10150 20100 30081 40095 57002 60006 86801 90300=
07790,1997-06-30 06:00:00,20,1010.4,0.9,49,9,15000,11.112,,,230,14.7,20.5,,,,,7,,,,wg-a,,,,AAXX 30064 07790 02565 42306 10200 20090 30090 40104 52009 60006 82841 90600 333 10205 20147 60074=
07790,1997-06-30 09:00:00,22,1010.7,0.3,57,13,15000,14.816,,,140,,,,,,,,,,,wg-a,,,,AAXX 30094 07790 12565 /1408 10220 20130 30093 40107 51003 60006 81249 90900=
07790,1997-06-30 12:00:00,24,1011.5,0.8,54,14,11000,18.52,,,130,,,,,,,,,,,wg-a,,,,AAXX 30124 07790 12/61 /1310 10240 20140 30101 40115 51008 60006 91200=
07790,1997-06-30 18:00:00,22,1012,0.2,46,10,50000,3.704,,,120,20.3,24.3,,,,,,,,1,wg-a,,,,AAXX 30184 07790 12684 31202 10220 20100 30106 40120 53002 60006 70186 83801 91800 333 10243 20203=
07790,1997-06-30 21:00:00,18,1012.5,0.5,64,11,40000,11.112,,,220,,,,,,,,,,,wg-a,,,,AAXX 30214 07790 12682 /2206 10180 20110 30111 40125 53005 60006 81101 92100=
07790,1997-07-01 00:00:00,15,1012.6,0.1,67,9,40000,11.112,,,210,,,,,,,,,,,wg-a,,,,AAXX 01004 07790 12/82 02106 10150 20090 30112 40126 52001 60006 80000 90000=
07790,1997-07-01 03:00:00,14,1012.7,0.1,67,8,40000,7.408,,,210,,,,,,,,,,,wg-a,,,,AAXX 01034 07790 12682 /2104 10140 20080 30113 40127 50001 60006 81100 90300=
07790,1997-07-01 06:00:00,20,1013.9,1.2,46,8,50000,11.112,,,220,13.5,22,,,,,,,,,wg-a,,,,AAXX 01064 07790 02684 /2206 10200 20080 30125 40139 51012 60006 81100 90600 333 10220 20135 60004=
07790,1997-07-01 12:00:00,25,1015.3,0.6,50,14,35000,11.112,,,150,,,,,,,,,,,wg-a,,,,AAXX 01124 07790 12581 31506 10250 20140 30139 40153 53006 60006 83201 91200=
07790,1997-07-01 15:00:00,25,1015.2,-0.1,34,8,35000,7.408,,,140,,,,,,,,,,,wg-a,,,,AAXX 01154 07790 12681 61404 10250 20080 30138 40152 56001 60006 86231 91500=
07790,1997-07-01 18:00:00,24,1015.4,0.2,44,11,500,7.408,,,100,20,26,,,,,,,,,wg-a,,,,AAXX 01184 07790 12600 /1004 10240 20110 30140 40154 53002 60006 81830 91800 333 10260 20200=
07790,1997-07-01 21:00:00,18,1016.7,1.3,73,13,11000,7.408,,,250,,,,,,,,,,,wg-a,,,,AAXX 01214 07790 12/61 /2504 10180 20130 30153 40167 53013 60006 92100=
07790,1997-07-02 00:00:00,17,1016.6,-0.1,82,14,20000,7.408,,,260,,,,,,,,,,,wg-a,,,,AAXX 02004 07790 12470 /2604 10170 20140 30152 40166 57001 60006 81500 90000=
07790,1997-07-02 03:00:00,17,1016.5,-0.1,82,14,11000,7.408,,,240,,,,,,,,,,,wg-a,,,,AAXX 02034 07790 12/61 /2404 10170 20140 30151 40165 55001 60006 90300=
07790,1997-07-02 06:00:00,19,1015.9,-0.6,78,15,20000,7.408,,,230,15.9,23.9,,,,,,,,,wg-a,,,,AAXX 02064 07790 02470 42304 10190 20150 30145 40159 56006 60006 81201 90600 333 10239 20159 60004=
07790,1997-07-02 09:00:00,23,1016,0.1,69,17,17000,22.224,,,140,,,,,,,,,,,wg-a,,,,AAXX 02094 07790 12467 71412 10230 20170 30146 40160 50001 60006 82232 90900=
07790,1997-07-02 12:00:00,20,1015.5,-0.5,78,16,17000,29.632,,48.152,160,,,,0,,,,,,60,wg-a,,,,AAXX 02124 07790 02467 81616 10200 20160 30141 40155 58005 60006 76061 8287/ 91200 333 60007 91026=
07790,1997-07-02 15:00:00,23,1016.1,0.6,73,18,17000,18.52,,,150,,,,,,,,,,2,wg-a,,,,AAXX 02154 07790 02467 /1510 10230 20180 30147 40161 51006 61000 70262 82230 91500 333 ////=
07790,1997-07-02 18:00:00,22,1017.2,1.1,78,18,17000,0,,,0,19.3,24.3,,,,,,,,3,wg-a,,,,AAXX 02184 07790 12467 80000 10220 20180 30158 40172 51011 60006 70362 82872 91800 333 10243 20193=
07790,1997-07-02 21:00:00,20,1017.7,0.5,83,17,17000,3.704,,,220,,,,0,,,,,,,wg-a,,,,AAXX 02214 07790 12567 42202 10200 20170 30163 40177 52005 60007 81270 92100=
07790,1997-07-03 00:00:00,19,1017,-0.7,88,17,0,3.704,,,270,,,,,,,,,,,wg-a,,,,AAXX 03004 07790 12/// /2702 10190 20170 30156 40170 56007 60006 90000=
07790,1997-07-03 03:00:00,18,1016.2,-0.8,88,16,9000,3.704,,,160,,,,,,,,,,,wg-a,,,,AAXX 03034 07790 32/59 /1602 10180 20160 30148 40162 58008 90300=
07790,1997-07-03 06:00:00,17,1015.9,-0.3,94,16,15000,14.816,,,280,16.9,22.1,,,,,,,,60,wg-a,,,,AAXX 03064 07790 02665 72808 10170 20160 30145 40159 55003 61000 76098 83982 90600 333 10221 20169 6009=
07790,1997-07-03 12:00:00,24,1015.4,-0.2,65,17,25000,14.816,,,50,,,,,,,,,,1,wg-a,,,,AAXX 03124 07790 02675 /0508 10240 20170 30140 40154 58002 61000 70161 81100 91200 333 ////=
07790,1997-07-03 15:00:00,25,1015.1,-0.3,54,15,25000,11.112,,,30,,,,,,,,,,,wg-a,,,,AAXX 03154 07790 12575 /0306 10250 20150 30137 40151 56003 60006 81100 91500=
07790,1997-07-03 18:00:00,25,1015.4,0.3,50,14,25000,0,,,0,16.9,24.9,,,,,,,,,wg-a,,,,AAXX 03184 07790 12/75 10000 10250 20140 30140 40154 53003 60006 80001 91800 333 10249 20169=
07790,1997-07-03 21:00:00,20,1016.4,1,78,16,25000,3.704,,,320,,,,,,,,,,,wg-a,,,,AAXX 03214 07790 12/75 03202 10200 20160 30150 40164 53010 60006 80000 92100=
07790,1997-07-04 00:00:00,18,1016.9,0.5,83,15,25000,7.408,,,250,,,,,,,,,,,wg-a,,,,AAXX 04004 07790 12/75 02504 10180 20150 30155 40169 51005 60006 80000 90000=
07790,1997-07-04 03:00:00,17,1016.4,-0.5,88,15,25000,7.408,,,230,,,,,,,,,,,wg-a,,,,AAXX 04034 07790 12/75 12304 10170 20150 30150 40164 58005 60006 80001 90300=
07790,1997-07-04 06:00:00,20,1017.4,1,83,17,25000,3.704,,,230,16.9,24.9,,,,,,,,,wg-a,,,,AAXX 04064 07790 02/75 /2302 10200 20170 30160 40174 50010 60006 81080 90600 333 10249 20169 61000=
07790,1997-07-04 09:00:00,25,1018,0.3,54,15,20000,14.816,,,120,,,,,,,,,,,wg-a,,,,AAXX 04094 07790 12570 /1208 10250 20150 30166 40180 53003 60006 81180 90900=
07790,1997-07-04 12:00:00,26,1018.3,-0.2,61,18,15000,12.964,,,120,,,,,,,,,,,wg-a,,,,AAXX 04124 07790 12665 21207 10260 20180 30169 40183 58002 60006 81180 91200=
07790,1997-07-04 15:00:00,25,1017.8,-0.5,57,16,15000,14.816,,,140,,,,,,,,,,,wg-a,,,,AAXX 04154 07790 12565 51408 10250 20160 30164 40178 57005 60006 82380 91500=
07790,1997-07-04 18:00:00,24,1017.2,-0.6,78,20,8000,11.112,,,150,20.3,26.2,,,,,,,,,wg-a,,,,AAXX 04184 07790 12558 /1506 10240 20200 30158 40172 56006 60006 82380 91800 333 10262 20203=
07790,1997-07-04 21:00:00,21,1017.3,0.1,94,20,11000,3.704,,,240,,,,,,,,,,,wg-a,,,,AAXX 04214 07790 12761 32402 10210 20200 30159 40173 53001 60006 82580 92100=
07790,1997-07-05 00:00:00,23,1017.1,-0.2,53,13,11000,14.816,,,290,,,,,,,,,,,wg-a,,,,AAXX 05004 07790 12561 52908 10230 20130 30157 40171 58002 60006 83980 90000=
07790,1997-07-05 06:00:00,23,1016.6,0.3,73,18,40000,3.704,,,100,19.9,23.8,,,,,,,,1,wg-a,,,,AAXX 05064 07790 02582 /1002 10230 20180 30152 40166 51003 60006 70161 81100 90600 333 10238 20199 60004=
07790,1997-07-05 09:00:00,25,1016.3,-0.3,61,17,40000,14.816,,,110,,,,,,,,,,,wg-a,,,,AAXX 05094 07790 12582 31108 10250 20170 30149 40163 58003 60006 83300 90900=
07790,1997-07-05 12:00:00,27,1015.8,-0.5,45,14,40000,14.816,,,100,,,,,,,,,,,wg-a,,,,AAXX 05124 07790 12582 21008 10270 20140 30144 40158 58005 60006 82300 91200=
07790,1997-07-05 15:00:00,25,1015.1,-0.7,54,15,40000,7.408,,,140,,,,,,,,,,,wg-a,,,,AAXX 05154 07790 12582 41404 10250 20150 30137 40151 56007 60006 84800 91500=
07790,1997-07-05 18:00:00,24,1015.4,0.3,38,9,40000,7.408,,,290,23.2,27.2,,,,,,,,,wg-a,,,,AAXX 05184 07790 12582 22904 10240 20090 30140 40154 53003 60006 82200 91800 333 10272 20232=
07790,1997-07-05 21:00:00,21,1016.4,1,40,7,40000,14.816,,,200,,,,,,,,,,,wg-a,,,,AAXX 05214 07790 12582 /2008 10210 20070 30150 40164 53010 60006 81200 92100=
07790,1997-07-06 00:00:00,20,1015.7,-0.7,46,8,40000,11.112,,,150,,,,,,,,,,,wg-a,,,,AAXX 06004 07790 12582 11506 10200 20080 30143 40157 58007 60006 81200 90000=
07790,1997-07-06 03:00:00,17,1015.4,-0.3,55,8,40000,11.112,,,250,,,,,,,,,,,wg-a,,,,AAXX 06034 07790 12582 /2506 10170 20080 30140 40154 56003 60006 81200 90300=
07790,1997-07-06 06:00:00,21,1016.2,0.8,46,9,60000,14.816,,,230,16.5,24.3,,,,,,,,,wg-a,,,,AAXX 06064 07790 02586 /2308 10210 20090 30148 40162 51008 60006 81501 90600 333 10243 20165 60004=
07790,1997-07-06 09:00:00,28,1016.8,0.6,23,5,50000,11.112,,,350,,,,,,,,,,,wg-a,,,,AAXX 06094 07790 12/84 23506 10280 20050 30154 40168 53006 60006 80001 90900=
07790,1997-07-06 12:00:00,26,1017.6,0.8,48,14,50000,14.816,,,120,,,,,,,,,,,wg-a,,,,AAXX 06124 07790 12584 /1208 10260 20140 30162 40176 51008 60006 81101 91200=
07790,1997-07-06 18:00:00,25,1017.4,-0.1,44,12,50000,7.408,,,150,21.2,28.1,,,,,,,,,wg-a,,,,AAXX 06184 07790 12584 11504 10250 20120 30160 40174 57001 60006 81300 91800 333 10281 20212=
07790,1997-07-06 21:00:00,19,1018,0.6,64,12,50000,7.408,,,230,,,,,,,,,,,wg-a,,,,AAXX 06214 07790 12/84 02304 10190 20120 30166 40180 52006 60006 80000 92100=
07790,1997-07-07 00:00:00,16,1017.4,-0.6,68,10,40000,11.112,,,240,,,,,,,,,,,wg-a,,,,AAXX 07004 07790 12/82 02406 10160 20100 30160 40174 56006 60006 80000 90000=
07790,1997-07-07 03:00:00,17,1016.3,-1.1,72,12,40000,11.112,,,250,,,,,,,,,,,wg-a,,,,AAXX 07034 07790 12582 /2506 10170 20120 30149 40163 58011 60006 81500 90300=
07790,1997-07-07 06:00:00,20,1016.1,-0.2,73,15,11000,7.408,,,230,15.6,24.9,,,,,,,,,wg-a,,,,AAXX 07064 07790 02/61 /2304 10200 20150 30147 40161 58002 60006 90600 333 10249 20156 60004=
07790,1997-07-07 09:00:00,23,1015.9,-0.2,73,18,15000,11.112,,,70,,,,,,,,,,,wg-a,,,,AAXX 07094 07790 12465 50706 10230 20180 30145 40159 55002 60006 85800 90900=
07790,1997-07-07 12:00:00,23,1015.9,0,69,17,15000,14.816,,,80,,,,,,,,,,,wg-a,,,,AAXX 07124 07790 12465 40808 10230 20170 30145 40159 50000 60006 84980 91200=
07790,1997-07-07 15:00:00,25,1014.9,-1,50,14,17000,7.408,,,210,,,,,,,,,,,wg-a,,,,AAXX 07154 07790 12567 32104 10250 20140 30135 40149 58010 60006 83980 91500=
07790,1997-07-07 18:00:00,26,1013.8,-1.1,39,11,500,11.112,,,300,20.2,27,,,,,,,,,wg-a,,,,AAXX 07184 07790 12500 /3006 10260 20110 30124 40138 56011 60006 81103 91800 333 10270 20202=
07790,1997-07-07 21:00:00,21,1015.4,1.6,64,14,25000,11.112,,,40,,,,,,,,,,,wg-a,,,,AAXX 07214 07790 12/75 10406 10210 20140 30140 40154 51016 60006 80001 92100=
07790,1997-07-08 00:00:00,16,1015.9,0.5,72,11,25000,3.704,,,260,,,,,,,,,,,wg-a,,,,AAXX 08004 07790 12/75 02602 10160 20110 30145 40159 51005 60006 80000 90000=
07790,1997-07-08 06:00:00,22,1015,-0.2,43,9,500,14.816,,,230,15.9,26.3,,,,,,,,,wg-a,,,,AAXX 08064 07790 02/00 12308 10220 20090 30136 40150 56002 60006 80002 90600 333 10263 20159 60004=
07790,1997-07-08 09:00:00,27,1015.7,0.7,39,12,50000,14.816,,,110,,,,,,,,,,,wg-a,,,,AAXX 08094 07790 12/84 01108 10270 20120 30143 40157 53007 60006 80000 90900=
07790,1997-07-08 12:00:00,28,1015.6,-0.1,25,6,50000,14.816,,,140,,,,,,,,,,,wg-a,,,,AAXX 08124 07790 12684 /1408 10280 20060 30142 40156 58001 60006 81500 91200=
07790,1997-07-08 15:00:00,27,1014.9,-0.7,30,8,50000,14.816,,,120,,,,,,,,,,,wg-a,,,,AAXX 08154 07790 12684 /1208 10270 20080 30135 40149 58007 60006 81500 91500=
07790,1997-07-08 18:00:00,26,1014.5,-0.4,34,9,50000,7.408,,,130,22,28.1,,,,,,,,,wg-a,,,,AAXX 08184 07790 12/84 01304 10260 20090 30131 40145 57004 60006 80000 91800 333 10281 20220=
07790,1997-07-08 21:00:00,19,1015.3,0.8,56,10,50000,7.408,,,250,,,,,,,,,,,wg-a,,,,AAXX 08214 07790 12/84 02504 10190 20100 30139 40153 51008 60006 80000 92100=
07790,1997-07-09 00:00:00,18,1015.2,-0.1,68,12,50000,7.408,,,240,,,,,,,,,,,wg-a,,,,AAXX 09004 07790 12/84 02404 10180 20120 30138 40152 58001 60006 80000 90000=
07790,1997-07-09 03:00:00,17,1014.8,-0.4,72,12,40000,7.408,,,230,,,,,,,,,,,wg-a,,,,AAXX 09034 07790 12582 /2304 10170 20120 30134 40148 57004 60006 81200 90300=
07790,1997-07-09 06:00:00,20,1014.8,0,64,13,25000,11.112,,,220,16.2,25.4,,,,,,,,,wg-a,,,,AAXX 09064 07790 02/75 02206 10200 20130 30134 40148 50000 60006 80000 90600 333 10254 20162 60004=
07790,1997-07-09 12:00:00,26,1015,-0.2,58,17,25000,14.816,,,130,,,,,,,,,,,wg-a,,,,AAXX 09124 07790 12675 31308 10260 20170 30136 40150 58002 60006 81201 91200=
07790,1997-07-09 15:00:00,26,1014.1,-0.9,54,16,25000,11.112,,,140,,,,,,,,,,,wg-a,,,,AAXX 09154 07790 12675 31406 10260 20160 30127 40141 57009 60006 81201 91500=
07790,1997-07-09 18:00:00,24,1013.7,-0.4,65,17,25000,7.408,,,150,20.4,26.3,,,,,,,,,wg-a,,,,AAXX 09184 07790 12675 /1504 10240 20170 30123 40137 56004 60006 81201 91800 333 10263 20204=
07790,1997-07-10 00:00:00,19,1014.2,-0.1,83,16,15000,7.408,,,240,,,,,,,,,,,wg-a,,,,AAXX 10004 07790 12665 /2404 10190 20160 30128 40142 58001 60006 81200 90000=
07790,1997-07-10 03:00:00,18,1013.5,-0.7,83,15,15000,7.408,,,240,,,,,,,,,,,wg-a,,,,AAXX 10034 07790 12/65 32404 10180 20150 30121 40135 56007 60006 80001 90300=
07790,1997-07-10 06:00:00,21,1013.5,-0,78,17,15000,3.704,,,220,17.3,23.9,,,,,,,,,wg-a,,,,AAXX 10064 07790 02/65 32202 10210 20170 30121 40135 55000 60006 80002 90600 333 10239 20173 60004=
07790,1997-07-10 09:00:00,25,1013.3,-0.2,65,18,20000,14.816,,,140,,,,,,,,,,,wg-a,,,,AAXX 10094 07790 12570 31408 10250 20180 30119 40133 58002 60006 81201 90900=
07790,1997-07-10 12:00:00,24,1013.4,0.1,65,17,18000,11.112,,,130,,,,,,,,,,17,wg-a,,,,AAXX 10124 07790 12568 71306 10240 20170 30120 40134 51001 60006 71791 83903 91200=
07790,1997-07-10 18:00:00,24,1012.4,-0.4,69,18,20000,7.408,,,360,20.8,26,,,,,,,,1,wg-a,,,,AAXX 10184 07790 12570 /3604 10240 20180 30110 40124 55004 60006 70198 81231 91800 333 10260 20208=
07790,1997-07-11 00:00:00,19,1012.8,-0.4,83,16,20000,11.112,,,250,,,,,,,,,,,wg-a,,,,AAXX 11004 07790 12/70 02506 10190 20160 30114 40128 57004 60006 80000 90000=
07790,1997-07-11 06:00:00,21,1013.1,0.5,78,17,12000,7.408,,,230,17,24.3,,,,,1,,,,wg-a,,,,AAXX 11064 07790 02462 /2304 10210 20170 30117 40131 51005 60006 81100 90600 333 10243 20170 60014=
07790,1997-07-11 12:00:00,27,1013.6,0.4,54,17,18000,7.408,,,70,,,,,,,,,,,wg-a,,,,AAXX 11124 07790 12568 40704 10270 20170 30122 40136 52004 60006 83332 91200=
07790,1997-07-11 15:00:00,27,1012.6,-1,45,14,18000,22.224,,,240,,,,,,,,,,2,wg-a,,,,AAXX 11154 07790 12568 42412 10270 20140 30112 40126 58010 60006 70290 83331 91500=
07790,1997-07-11 18:00:00,25,1012.4,-0.2,65,18,18000,22.224,,,340,21.3,27.7,,,,,,,,2,wg-a,,,,AAXX 11184 07790 12568 /3412 10250 20180 30110 40124 55002 60006 70290 81100 91800 333 10277 20213=
07790,1997-07-11 21:00:00,21,1013.9,1.5,78,17,18000,3.704,,,260,,,,,,,,,,,wg-a,,,,AAXX 11214 07790 12568 /2602 10210 20170 30125 40139 52015 60006 81100 92100=
07790,1997-07-12 00:00:00,19,1013.8,-0.1,83,16,18000,7.408,,,230,,,,,,,,,,,wg-a,,,,AAXX 12004 07790 12/68 02304 10190 20160 30124 40138 57001 60006 80000 90000=
07790,1997-07-12 03:00:00,18,1014,0.2,83,15,18000,14.816,,,240,,,,,,,,,,,wg-a,,,,AAXX 12034 07790 12/68 12408 10180 20150 30126 40140 53002 60006 80001 90300=
07790,1997-07-12 06:00:00,19,1014.8,0.8,83,16,12000,7.408,,,230,17.4,24.6,,,,,,,,,wg-a,,,,AAXX 12064 07790 02562 42304 10190 20160 30134 40148 53008 60006 82101 90600 333 10246 20174 60004=
07790,1997-07-12 09:00:00,25,1015,0.2,69,19,11000,11.112,,,130,,,,,,,,,,,wg-a,,,,AAXX 12094 07790 12/61 /1306 10250 20190 30136 40150 50002 60006 90900=
07790,1997-07-12 12:00:00,27,1015.3,0.3,62,19,10000,11.112,,,110,,,,,,,,,,,wg-a,,,,AAXX 12124 07790 12560 31106 10270 20190 30139 40153 51003 60006 83200 91200=
07790,1997-07-12 15:00:00,26,1015.1,-0.2,65,19,8000,7.408,,,110,,,,,,,,,,,wg-a,,,,AAXX 12154 07790 12/58 /1104 10260 20190 30137 40151 58002 60006 91500=
07790,1997-07-12 18:00:00,24,1015.3,0.2,74,19,8000,7.408,,,70,19.5,26.7,,,,,,,,,wg-a,,,,AAXX 12184 07790 12558 20704 10240 20190 30139 40153 53002 60006 82200 91800 333 10267 20195=
07790,1997-07-12 21:00:00,21,1016.4,1.1,88,19,10000,0,,,0,,,,,,,,,,,wg-a,,,,AAXX 12214 07790 12460 20000 10210 20190 30150 40164 53011 60006 82800 92100=
07790,1997-07-13 00:00:00,19,1016.6,0.2,94,18,0,3.704,,,280,,,,,,,,,,,wg-a,,,,AAXX 13004 07790 12/// /2802 10190 20180 30152 40166 53002 60006 90000=
07790,1997-07-13 06:00:00,22,1017.3,0.8,73,17,13000,14.816,,,230,18.7,24,,,,,,,,,wg-a,,,,AAXX 13064 07790 02563 /2308 10220 20170 30159 40173 53008 60006 81600 90600 333 10240 20187 60004=
07790,1997-07-13 09:00:00,26,1017.9,0.6,70,20,9000,14.816,,,120,,,,,,,,,,,wg-a,,,,AAXX 13094 07790 12459 31208 10260 20200 30165 40179 52006 60006 83500 90900=
07790,1997-07-13 12:00:00,26,1017.8,-0.1,70,20,8000,14.816,,,110,,,,,,,,,,,wg-a,,,,AAXX 13124 07790 12458 51108 10260 20200 30164 40178 57001 60006 85500 91200=
07790,1997-07-13 15:00:00,26,1017.2,-0.6,70,20,8000,11.112,,,110,,,,,,,,,,,wg-a,,,,AAXX 13154 07790 12558 61106 10260 20200 30158 40172 58006 60006 86600 91500=
07790,1997-07-13 18:00:00,25,1016.7,-0.5,74,20,8000,7.408,,,140,22.3,26.9,,,,,,,,,wg-a,,,,AAXX 13184 07790 12558 31404 10250 20200 30153 40167 55005 60006 83500 91800 333 10269 20223=
07790,1997-07-13 21:00:00,22,1017.6,0.9,88,20,15000,3.704,,,310,,,,,,,,,,,wg-a,,,,AAXX 13214 07790 12665 23102 10220 20200 30162 40176 53009 60006 82500 92100=
07790,1997-07-14 00:00:00,20,1017.8,0.2,88,18,15000,7.408,,,230,,,,,,,,,,,wg-a,,,,AAXX 14004 07790 12665 22304 10200 20180 30164 40178 51002 60006 82500 90000=
07790,1997-07-14 03:00:00,19,1017.7,-0.1,94,18,8000,7.408,,,250,,,,,,,,,,,wg-a,,,,AAXX 14034 07790 12458 22504 10190 20180 30163 40177 56001 60006 82800 90300=
07790,1997-07-14 06:00:00,22,1018.4,0.7,83,19,6000,7.408,,,210,19,24.7,,,,,,,,,wg-a,,,,AAXX 14064 07790 02456 32104 10220 20190 30170 40184 51007 60006 83500 90600 333 10247 20190 60004=
07790,1997-07-14 09:00:00,26,1018.7,0.3,74,21,7000,14.816,,,140,,,,,,,,,,,wg-a,,,,AAXX 14094 07790 12557 21408 10260 20210 30173 40187 53003 60006 82100 90900=
07790,1997-07-14 12:00:00,27,1018.5,-0.2,62,19,10000,18.52,,,140,,,,,,,,,,,wg-a,,,,AAXX 14124 07790 12560 /1410 10270 20190 30171 40185 58002 60006 81200 91200=
07790,1997-07-14 15:00:00,28,1017.5,-1,62,20,9000,18.52,,,150,,,,,,,,,,,wg-a,,,,AAXX 14154 07790 12659 /1510 10280 20200 30161 40175 58010 60006 81100 91500=
07790,1997-07-14 18:00:00,26,1016.7,-0.8,74,21,10000,11.112,,,160,21.9,27.9,,,,,,,,,wg-a,,,,AAXX 14184 07790 12560 41606 10260 20210 30153 40167 56008 60006 81501 91800 333 10279 20219=
07790,1997-07-14 21:00:00,22,1016.7,-0,88,20,18000,11.112,,,140,,,,,,,,,,,wg-a,,,,AAXX 14214 07790 12/68 01406 10220 20200 30153 40167 55000 60006 80000 92100=
07790,1997-07-15 00:00:00,22,1017.6,0.9,69,16,18000,7.408,,,320,,,,,,,,,,,wg-a,,,,AAXX 15004 07790 12/68 03204 10220 20160 30162 40176 50009 60006 80000 90000=
07790,1997-07-15 06:00:00,22,1016.7,0.3,69,16,15000,7.408,,,230,18.5,25.7,,,,,,,,,wg-a,,,,AAXX 15064 07790 02465 /2304 10220 20160 30153 40167 50003 60006 81501 90600 333 10257 20185 60004=
07790,1997-07-15 09:00:00,27,1017.4,0.7,66,20,15000,11.112,,,100,,,,,,,,,,,wg-a,,,,AAXX 15094 07790 12565 21006 10270 20200 30160 40174 53007 60006 82101 90900=
07790,1997-07-15 12:00:00,28,1017,-0.4,66,21,12000,14.816,,,130,,,,,,,,,,,wg-a,,,,AAXX 15124 07790 12562 21308 10280 20210 30156 40170 58004 60006 81102 91200=
07790,1997-07-15 18:00:00,26,1015.6,-0.7,74,21,10000,3.704,,,150,22.3,28.3,,,,,,,,,wg-a,,,,AAXX 15184 07790 12/60 41502 10260 20210 30142 40156 56007 60006 81036 91800 333 10283 20223=
07790,1997-07-15 21:00:00,23,1016.4,0.8,89,21,12000,18.52,,,330,,,,,,,,,,,wg-a,,,,AAXX 15214 07790 12/62 33310 10230 20210 30150 40164 53008 60006 80006 92100=
07790,1997-07-16 00:00:00,20,1016.5,0.1,88,18,12000,7.408,,,220,,,,,,,,,,,wg-a,,,,AAXX 16004 07790 12/62 02204 10200 20180 30151 40165 51001 60006 80000 90000=
07790,1997-07-16 03:00:00,18,1015.9,-0.6,88,16,15000,7.408,,,260,,,,,,,,,,,wg-a,,,,AAXX 16034 07790 12/65 22604 10180 20160 30145 40159 58006 60006 80001 90300=
07790,1997-07-16 06:00:00,23,1016.5,0.6,61,15,10000,7.408,,,240,18.2,26.5,,,,,,,,,wg-a,,,,AAXX 16064 07790 02/60 /2404 10230 20150 30151 40165 53006 60006 90600 333 10265 20182 60004=
07790,1997-07-16 12:00:00,29,1017,0.1,58,20,7000,11.112,,,160,,,,,,,,,,,wg-a,,,,AAXX 16124 07790 12/57 61606 10290 20200 30156 40170 52001 60006 80002 91200=
07790,1997-07-16 15:00:00,28,1014.9,-2.1,62,20,8000,14.816,,,150,,,,,,,,,,,wg-a,,,,AAXX 16154 07790 12/58 /1508 10280 20200 30135 40149 58021 60006 81012 91500=
07790,1997-07-16 18:00:00,27,1014,-0.9,62,19,8000,0,,,0,22.9,29.7,,,,,,,,,wg-a,,,,AAXX 16184 07790 12/58 20000 10270 20190 30126 40140 56009 60006 80002 91800 333 10297 20229=
07790,1997-07-17 00:00:00,21,1014.1,0.2,83,18,15000,3.704,,,150,,,,,,,,,,,wg-a,,,,AAXX 17004 07790 12/65 11502 10210 20180 30127 40141 50002 60006 80002 90000=
07790,1997-07-17 03:00:00,20,1013.3,-0.8,78,16,15000,3.704,,,160,,,,,,,,,,,wg-a,,,,AAXX 17034 07790 12/65 11602 10200 20160 30119 40133 58008 60006 80002 90300=
07790,1997-07-17 06:00:00,22,1012.3,-1,78,18,7000,0,,,0,19.6,27.3,,,,,,,,,wg-a,,,,AAXX 17064 07790 02357 80000 10220 20180 30109 40123 56010 60006 86882 90600 333 10273 20196 60004=
07790,1997-07-17 09:00:00,26,1011.6,-0.7,79,22,6000,18.52,,,150,,,,,,,,,,,wg-a,,,,AAXX 17094 07790 12456 31510 10260 20220 30102 40116 58007 60006 83880 90900=
07790,1997-07-17 12:00:00,28,1010.8,-0.8,66,21,8000,22.224,,,150,,,,,,,,,,,wg-a,,,,AAXX 17124 07790 12558 31512 10280 20210 30094 40108 58008 60006 83100 91200=
07790,1997-07-17 15:00:00,27,1010.4,-0.4,74,22,7000,11.112,,,80,,,,,,,,,,,wg-a,,,,AAXX 17154 07790 12457 30806 10270 20220 30090 40104 58004 60006 83800 91500=
07790,1997-07-17 18:00:00,25,1009.3,-1.1,83,22,6000,14.816,,,20,21.7,28.4,,,,,,,,,wg-a,,,,AAXX 17184 07790 12456 70208 10250 20220 30079 40093 56011 60006 8687/ 91800 333 10284 20217=
07790,1997-07-17 21:00:00,24,1009.3,-0,83,21,10000,3.704,,,200,,,,,,,,,,,wg-a,,,,AAXX 17214 07790 12460 72002 10240 20210 30079 40093 55000 60006 8587/ 92100=
07790,1997-07-18 00:00:00,22,1007.3,-2,88,20,10000,7.408,,,280,,,,,,,,,,,wg-a,,,,AAXX 18004 07790 12460 32804 10220 20200 30059 40073 56020 60006 81202 90000=
07790,1997-07-18 06:00:00,23,1006,0.5,69,17,20000,3.704,,,240,20.2,25.4,,,,,,,,,wg-a,,,,AAXX 18064 07790 02570 /2402 10230 20170 30046 40060 53005 60006 81140 90600 333 10254 20202 60004=
07790,1997-07-18 09:00:00,28,1006,0,55,18,11000,7.408,,,70,,,,,,,,,,,wg-a,,,,AAXX 18094 07790 12/61 /0704 10280 20180 30046 40060 50000 60006 90900=
07790,1997-07-18 12:00:00,27,1006,-0,62,19,11000,18.52,,,140,,,,,,,,,,,wg-a,,,,AAXX 18124 07790 12/61 /1410 10270 20190 30046 40060 55000 60006 91200=
07790,1997-07-18 15:00:00,29,1006.5,0.5,45,16,20000,14.816,,,300,,,,,,,,,,,wg-a,,,,AAXX 18154 07790 12570 /3008 10290 20160 30051 40065 53005 60006 81141 91500=
07790,1997-07-18 18:00:00,27,1007.1,0.6,30,8,11000,29.632,,,270,23.2,30.1,,,,,,,,,wg-a,,,,AAXX 18184 07790 12/61 /2716 10270 20080 30057 40071 53006 60006 91800 333 10301 20232=
07790,1997-07-18 21:00:00,25,1008.5,1.4,30,6,500,14.816,,40.744,290,,,,,,,,,,,wg-a,,,,AAXX 18214 07790 12500 /2908 10250 20060 30071 40085 53014 60006 81140 92100 333 91022=
07790,1997-07-19 00:00:00,24,1008.2,-0.3,34,7,500,18.52,,61.116,270,,,,,,,,,,,wg-a,,,,AAXX 19004 07790 12500 22710 10240 20070 30068 40082 55003 60006 82140 90000 333 91033=
07790,1997-07-19 03:00:00,22,1009.8,1.6,43,9,500,14.816,,,250,,,,,,,,,,,wg-a,,,,AAXX 19034 07790 12/00 /2508 10220 20090 30084 40098 53016 60006 81030 90300=
07790,1997-07-19 06:00:00,25,1011.2,1.4,41,11,500,22.224,,,250,21,26.7,,,,,,,,,wg-a,,,,AAXX 19064 07790 02/00 02512 10250 20110 30098 40112 53014 60006 80000 90600 333 10267 20210 60004=
07790,1997-07-19 09:00:00,28,1012.5,1.3,40,13,500,14.816,,,110,,,,,,,,,,,wg-a,,,,AAXX 19094 07790 12500 /1108 10280 20130 30111 40125 51013 60006 81100 90900=
07790,1997-07-19 12:00:00,29,1012.9,0.4,37,13,500,22.224,,,150,,,,,,,,,,,wg-a,,,,AAXX 19124 07790 12500 /1512 10290 20130 30115 40129 50004 60006 81200 91200=
07790,1997-07-19 15:00:00,28,1012.9,0,42,14,500,14.816,,,130,,,,,,,,,,,wg-a,,,,AAXX 19154 07790 12500 /1308 10280 20140 30115 40129 50000 60006 81202 91500=
07790,1997-07-19 18:00:00,25,1013.4,0.5,54,15,15000,7.408,,,60,24.7,29.1,,,,,,,,,wg-a,,,,AAXX 19184 07790 12/65 /0604 10250 20150 30120 40134 53005 60006 81080 91800 333 10291 20247=
07790,1997-07-19 21:00:00,20,1014.5,1.1,73,15,11000,7.408,,,230,,,,,,,,,,,wg-a,,,,AAXX 19214 07790 12/61 /2304 10200 20150 30131 40145 53011 60006 92100=
07790,1997-07-20 00:00:00,18,1014.8,0.3,73,13,15000,3.704,,,240,,,,,,,,,,,wg-a,,,,AAXX 20004 07790 12/65 02402 10180 20130 30134 40148 51003 60006 80000 90000=
07790,1997-07-20 03:00:00,18,1014.7,-0.1,73,13,20000,7.408,,,230,,,,,,,,,,,wg-a,,,,AAXX 20034 07790 12570 /2304 10180 20130 30133 40147 55001 60006 81280 90300=
07790,1997-07-20 06:00:00,21,1015.6,0.9,64,14,12000,7.408,,,230,17.3,25.1,,,,,,,,,wg-a,,,,AAXX 20064 07790 02562 32304 10210 20140 30142 40156 53009 60006 83200 90600 333 10251 20173 60004=
07790,1997-07-20 09:00:00,25,1016,0.4,65,18,11000,14.816,,,120,,,,,,,,,,,wg-a,,,,AAXX 20094 07790 12/61 /1208 10250 20180 30146 40160 51004 60006 90900=
07790,1997-07-20 12:00:00,26,1015.6,-0.4,54,16,11000,14.816,,,130,,,,,,,,,,,wg-a,,,,AAXX 20124 07790 12/61 /1308 10260 20160 30142 40156 58004 60006 91200=
07790,1997-07-20 15:00:00,26,1015.1,-0.5,58,17,11000,14.816,,,140,,,,,,,,,,,wg-a,,,,AAXX 20154 07790 12/61 /1408 10260 20170 30137 40151 57005 60006 91500=
07790,1997-07-20 18:00:00,24,1014.4,-0.7,69,18,11000,11.112,,,140,20.8,26.7,,,,,,,,,wg-a,,,,AAXX 20184 07790 12/61 /1406 10240 20180 30130 40144 56007 60006 91800 333 10267 20208=
07790,1997-07-20 21:00:00,21,1015.3,0.9,83,18,20000,3.704,,,300,,,,,,,,,,,wg-a,,,,AAXX 20214 07790 12470 43002 10210 20180 30139 40153 53009 60006 81681 92100=
07790,1997-07-21 00:00:00,20,1015,-0.3,83,17,20000,3.704,,,280,,,,,,,,,,,wg-a,,,,AAXX 21004 07790 12/70 02802 10200 20170 30136 40150 58003 60006 80000 90000=
07790,1997-07-21 06:00:00,22,1014.6,0.1,78,18,10000,7.408,,,230,18.4,24.2,,,,,,,,,wg-a,,,,AAXX 21064 07790 02560 22304 10220 20180 30132 40146 50001 60006 82500 90600 333 10242 20184 60004=
07790,1997-07-21 09:00:00,25,1015.4,0.8,61,17,11000,18.52,,,160,,,,,,,,,,,wg-a,,,,AAXX 21094 07790 12/61 /1610 10250 20170 30140 40154 53008 60006 90900=
07790,1997-07-21 12:00:00,26,1015.6,0.2,58,17,12000,18.52,,,120,,,,,,,,,,,wg-a,,,,AAXX 21124 07790 12562 31210 10260 20170 30142 40156 50002 60006 82801 91200=
07790,1997-07-21 15:00:00,26,1015,-0.6,61,18,12000,11.112,,,130,,,,,,,,,,,wg-a,,,,AAXX 21154 07790 12562 21306 10260 20180 30136 40150 56006 60006 81201 91500=
07790,1997-07-21 18:00:00,24,1014.5,-0.5,74,19,9000,7.408,,,150,21.5,26.5,,,,,,,,,wg-a,,,,AAXX 21184 07790 12559 /1504 10240 20190 30131 40145 55005 60006 81201 91800 333 10265 20215=
07790,1997-07-21 21:00:00,20,1016.1,1.6,88,18,16000,3.704,,,270,,,,,,,,,,,wg-a,,,,AAXX 21214 07790 12/66 02702 10200 20180 30147 40161 53016 60006 80000 92100=
07790,1997-07-22 00:00:00,19,1016.3,0.2,88,17,16000,7.408,,,250,,,,,,,,,,,wg-a,,,,AAXX 22004 07790 12/66 02504 10190 20170 30149 40163 50002 60006 80000 90000=
07790,1997-07-22 03:00:00,18,1016.3,-0,88,16,18000,7.408,,,230,,,,,,,,,,,wg-a,,,,AAXX 22034 07790 12/68 02304 10180 20160 30149 40163 55000 60006 80000 90300=
07790,1997-07-22 06:00:00,21,1017.2,0.9,78,17,11000,7.408,,,220,17.5,23.8,,,,,,,,,wg-a,,,,AAXX 22064 07790 02/61 /2204 10210 20170 30158 40172 51009 60006 90600 333 10238 20175 60004=
07790,1997-07-22 09:00:00,25,1018,0.8,65,18,15000,11.112,,,140,,,,,,,,,,,wg-a,,,,AAXX 22094 07790 12565 21406 10250 20180 30166 40180 51008 60006 82100 90900=
07790,1997-07-22 12:00:00,27,1017.8,-0.2,62,19,15000,14.816,,,130,,,,,,,,,,,wg-a,,,,AAXX 22124 07790 12565 31308 10270 20190 30164 40178 58002 60006 82101 91200=
07790,1997-07-22 15:00:00,26,1017.3,-0.5,61,18,11000,14.816,,,130,,,,,,,,,,,wg-a,,,,AAXX 22154 07790 12/61 /1308 10260 20180 30159 40173 57005 60006 91500=
07790,1997-07-22 18:00:00,25,1017.1,-0.2,74,20,15000,3.704,,,130,20.7,26.9,,,,,,,,,wg-a,,,,AAXX 22184 07790 12/65 11302 10250 20200 30157 40171 56002 60006 80001 91800 333 10269 20207=
07790,1997-07-22 21:00:00,22,1017.7,0.6,78,18,15000,3.704,,,260,,,,,,,,,,,wg-a,,,,AAXX 22214 07790 12/65 02602 10220 20180 30163 40177 53006 60006 80000 92100=
07790,1997-07-23 00:00:00,21,1017.6,-0.1,83,18,15000,3.704,,,220,,,,,,,,,,,wg-a,,,,AAXX 23004 07790 12/65 42202 10210 20180 30162 40176 58001 60006 84031 90000=
07790,1997-07-23 03:00:00,19,1017,-0.6,88,17,15000,3.704,,,230,,,,,,,,,,,wg-a,,,,AAXX 23034 07790 12565 /2302 10190 20170 30156 40170 55006 60006 81530 90300=
07790,1997-07-23 06:00:00,22,1017.4,0.4,83,19,15000,3.704,,,210,19.1,24.6,,,,,,,,,wg-a,,,,AAXX 23064 07790 02565 32102 10220 20190 30160 40174 50004 60006 82880 90600 333 10246 20191 60004=
07790,1997-07-23 09:00:00,28,1017.2,-0.2,51,17,25000,18.52,,,130,,,,,,,,,,,wg-a,,,,AAXX 23094 07790 12/75 21310 10280 20170 30158 40172 58002 60006 82080 90900=
07790,1997-07-23 12:00:00,28,1016.7,-0.5,51,17,40000,22.224,,,150,,,,,,,,,,,wg-a,,,,AAXX 23124 07790 12582 41512 10280 20170 30153 40167 58005 60006 81283 91200=
07790,1997-07-23 18:00:00,24,1015.3,-0.4,89,22,10000,11.112,,,150,21.5,29,,,,,,,,,wg-a,,,,AAXX 23184 07790 12560 51506 10240 20220 30139 40153 55004 60006 83583 91800 333 10290 20215=
07790,1997-07-24 00:00:00,23,1015.1,-0.5,89,21,12000,11.112,,,350,,,,,,,,,,,wg-a,,,,AAXX 24004 07790 12462 /3506 10230 20210 30137 40151 56005 60006 85600 90000=
07790,1997-07-24 03:00:00,22,1015.1,-0,88,20,15000,7.408,,,270,,,,,,,,,,,wg-a,,,,AAXX 24034 07790 12465 72704 10220 20200 30137 40151 55000 60006 84532 90300=
07790,1997-07-24 06:00:00,23,1014.1,-1,89,21,7000,3.704,,,20,20.8,24.3,,,,,,,,,wg-a,,,,AAXX 24064 07790 02357 70202 10230 20210 30127 40141 55010 60006 875// 90600 333 10243 20208 60004=
07790,1997-07-24 09:00:00,26,1013.3,-0.8,79,22,8000,3.704,,,100,,,,,,,,,,,wg-a,,,,AAXX 24094 07790 12458 81002 10260 20220 30119 40133 58008 60006 83871 90900=
07790,1997-07-24 12:00:00,29,1013.4,0.1,58,20,15000,11.112,,,110,,,,,,,,,,21,wg-a,,,,AAXX 24124 07790 02665 /1106 10290 20200 30120 40134 53001 61000 72162 81261 91200 333 6100=
07790,1997-07-24 15:00:00,27,1013.1,-0.3,79,23,8000,11.112,,,130,,,,,,,,,,,wg-a,,,,AAXX 24154 07790 12458 81306 10270 20230 30117 40131 55003 60006 8287/ 91500=
07790,1997-07-24 18:00:00,26,1012.1,-1,79,22,6000,18.52,,,10,22.9,29.2,,,,,,,,,wg-a,,,,AAXX 24184 07790 12356 80110 10260 20220 30107 40121 56010 60006 872// 91800 333 10292 20229=
07790,1997-07-24 21:00:00,25,1011.5,-0.6,74,20,11000,14.816,,,10,,,,,,,,,,,wg-a,,,,AAXX 24214 07790 12/61 /0108 10250 20200 30101 40115 55006 60006 92100=
07790,1997-07-25 00:00:00,23,1010.8,-0.7,83,20,15000,3.704,,,240,,,,,,,,,,,wg-a,,,,AAXX 25004 07790 12565 52402 10230 20200 30094 40108 58007 60006 8454/ 90000=
07790,1997-07-25 03:00:00,21,1010.5,-0.3,88,19,20000,7.408,,,260,,,,,,,,,,,wg-a,,,,AAXX 25034 07790 12/70 02604 10210 20190 30091 40105 58003 60006 80000 90300=
07790,1997-07-25 06:00:00,24,1009.8,-0.7,74,19,10000,11.112,,,230,20.7,25.7,,,,,,,,,wg-a,,,,AAXX 25064 07790 02/60 12306 10240 20190 30084 40098 57007 60006 80001 90600 333 10257 20207 61000=
07790,1997-07-25 09:00:00,28,1009.6,-0.2,58,19,15000,11.112,,,140,,,,,,,,,,,wg-a,,,,AAXX 25094 07790 12565 41406 10280 20190 30082 40096 58002 60006 81104 90900=
07790,1997-07-25 12:00:00,29,1009.5,-0.1,58,20,15000,14.816,,,70,,,,,,,,,,,wg-a,,,,AAXX 25124 07790 12565 60708 10290 20200 30081 40095 58001 60006 83804 91200=
07790,1997-07-25 18:00:00,27,1008.3,-0.3,70,21,15000,7.408,,,170,23.8,31.9,,,,,,,,,wg-a,,,,AAXX 25184 07790 12665 /1704 10270 20210 30069 40083 56003 60006 82804 91800 333 10319 20238=
07790,1997-07-25 21:00:00,23,1009.3,1,78,19,20000,3.704,,,210,,,,,,,,,,,wg-a,,,,AAXX 25214 07790 12570 /2102 10230 20190 30079 40093 53010 60006 81100 92100=
07790,1997-07-26 00:00:00,22,1009.4,0.1,65,15,20000,7.408,,,210,,,,,,,,,,,wg-a,,,,AAXX 26004 07790 12/70 02104 10220 20150 30080 40094 51001 60006 80000 90000=
07790,1997-07-26 03:00:00,20,1009.5,0.1,73,15,20000,7.408,,,240,,,,,,,,,,,wg-a,,,,AAXX 26034 07790 12570 /2404 10200 20150 30081 40095 53001 60006 81100 90300=
07790,1997-07-26 06:00:00,23,1010.3,0.8,61,15,12000,7.408,,,210,19.3,26.6,,,,,,,,,wg-a,,,,AAXX 26064 07790 02462 /2104 10230 20150 30089 40103 53008 60006 81500 90600 333 10266 20193 60004=
07790,1997-07-26 09:00:00,27,1010.8,0.5,70,21,9000,11.112,,,120,,,,,,,,,,,wg-a,,,,AAXX 26094 07790 12459 /1206 10270 20210 30094 40108 52005 60006 81500 90900=
07790,1997-07-26 12:00:00,28,1011.5,0.7,66,21,8000,14.816,,,110,,,,,,,,,,,wg-a,,,,AAXX 26124 07790 12558 21108 10280 20210 30101 40115 52007 60006 82100 91200=
07790,1997-07-26 18:00:00,27,1011.7,0.4,66,20,8000,3.704,,,120,22.8,29.1,,,,,,,,,wg-a,,,,AAXX 26184 07790 12/58 01202 10270 20200 30103 40117 53004 60006 80000 91800 333 10291 20228=
07790,1997-07-26 21:00:00,23,1013.4,1.7,83,20,9000,3.704,,,220,,,,,,,,,,,wg-a,,,,AAXX 26214 07790 12/59 02202 10230 20200 30120 40134 51017 60006 80000 92100=
07790,1997-07-27 00:00:00,20,1014.3,0.9,88,18,9000,3.704,,,250,,,,,,,,,,,wg-a,,,,AAXX 27004 07790 12/59 02502 10200 20180 30129 40143 52009 60006 80000 90000=
07790,1997-07-27 03:00:00,20,1014.9,0.6,73,15,9000,7.408,,,230,,,,,,,,,,,wg-a,,,,AAXX 27034 07790 12/59 02304 10200 20150 30135 40149 53006 60006 80000 90300=
07790,1997-07-27 06:00:00,22,1016.1,1.2,73,17,15000,3.704,,,220,19.3,26.9,,,,,,,,,wg-a,,,,AAXX 27064 07790 02/65 42202 10220 20170 30147 40161 53012 60006 80001 90600 333 10269 20193 60004=
07790,1997-07-27 09:00:00,27,1017.3,1.2,62,19,15000,11.112,,,60,,,,,,,,,,,wg-a,,,,AAXX 27094 07790 12/65 40606 10270 20190 30159 40173 51012 60006 80002 90900=
07790,1997-07-27 12:00:00,29,1017.3,0,58,20,15000,11.112,,,110,,,,,,,,,,,wg-a,,,,AAXX 27124 07790 12665 41106 10290 20200 30159 40173 50000 60006 82102 91200=
07790,1997-07-27 15:00:00,29,1016.8,-0.5,62,21,10000,14.816,,,150,,,,,,,,,,,wg-a,,,,AAXX 27154 07790 12660 /1508 10290 20210 30154 40168 58005 60006 81202 91500=
07790,1997-07-27 18:00:00,28,1016.3,-0.5,62,20,8000,3.704,,,130,22.5,29.5,,,,,,,,,wg-a,,,,AAXX 27184 07790 12/58 21302 10280 20200 30149 40163 56005 60006 80002 91800 333 10295 20225=
07790,1997-07-28 00:00:00,23,1017.7,0.2,78,19,8000,3.704,,,230,,,,,,,,,,,wg-a,,,,AAXX 28004 07790 12258 /2302 10230 20190 30163 40177 52002 60006 85502 90000=
07790,1997-07-28 03:00:00,21,1017.6,-0.1,83,18,8000,7.408,,,240,,,,,,,,,,,wg-a,,,,AAXX 28034 07790 12258 32404 10210 20180 30162 40176 55001 60006 83502 90300=
07790,1997-07-28 06:00:00,23,1018.5,0.9,78,19,8000,7.408,,,230,20.6,27.9,,,,,,,,,wg-a,,,,AAXX 28064 07790 02458 /2304 10230 20190 30171 40185 52009 60006 81102 90600 333 10279 20206 60004=
07790,1997-07-28 09:00:00,28,1019,0.5,66,21,10000,7.408,,,100,,,,,,,,,,,wg-a,,,,AAXX 28094 07790 12560 /1004 10280 20210 30176 40190 51005 60006 81281 90900=
07790,1997-07-28 12:00:00,30,1018.7,-0.3,59,21,10000,11.112,,,110,,,,,,,,,,,wg-a,,,,AAXX 28124 07790 12560 /1106 10300 20210 30173 40187 58003 60006 81200 91200=
07790,1997-07-28 15:00:00,28,1018,-0.7,62,20,10000,11.112,,,130,,,,,,,,,,17,wg-a,,,,AAXX 28154 07790 12560 31306 10280 20200 30166 40180 58007 60006 71790 83901 91500=
07790,1997-07-28 18:00:00,28,1017.6,-0.4,66,21,8000,7.408,,,140,23.2,30.2,,,,,,,,1,wg-a,,,,AAXX 28184 07790 12558 21404 10280 20210 30162 40176 56004 60006 70190 81181 91800 333 10302 20232=
07790,1997-07-28 21:00:00,24,1018.2,0.6,83,21,9000,7.408,,,300,,,,,,,,,,,wg-a,,,,AAXX 28214 07790 12/59 23004 10240 20210 30168 40182 53006 60006 81082 92100=
07790,1997-07-29 00:00:00,23,1018.3,0.1,89,21,0,7.408,,,250,,,,,,,,,,,wg-a,,,,AAXX 29004 07790 12/// /2504 10230 20210 30169 40183 52001 60006 90000=
07790,1997-07-29 03:00:00,21,1017.9,-0.4,83,18,9000,7.408,,,210,,,,,,,,,,,wg-a,,,,AAXX 29034 07790 12459 22104 10210 20180 30165 40179 55004 60006 82630 90300=
07790,1997-07-29 06:00:00,24,1018,0.1,83,21,9000,3.704,,,230,20.8,28.3,,,,,,,,,wg-a,,,,AAXX 29064 07790 02459 /2302 10240 20210 30166 40180 52001 60006 81606 90600 333 10283 20208 60004=
07790,1997-07-29 09:00:00,29,1018.3,0.3,55,19,12000,11.112,,,110,,,,,,,,,,,wg-a,,,,AAXX 29094 07790 12662 21106 10290 20190 30169 40183 51003 60006 81101 90900=
07790,1997-07-29 12:00:00,28,1018.2,-0.1,70,22,8000,11.112,,,80,,,,,,,,,,,wg-a,,,,AAXX 29124 07790 12558 /0806 10280 20220 30168 40182 58001 60006 82202 91200=
07790,1997-07-29 15:00:00,29,1016.6,-1.6,58,20,10000,11.112,,,120,,,,,,,,,,,wg-a,,,,AAXX 29154 07790 12560 41206 10290 20200 30152 40166 56016 60006 81202 91500=
07790,1997-07-29 18:00:00,27,1017.2,0.6,70,21,8000,3.704,,,140,24.1,29.8,,,,,,,,,wg-a,,,,AAXX 29184 07790 12558 /1402 10270 20210 30158 40172 53006 60006 81232 91800 333 10298 20241=
07790,1997-07-29 21:00:00,24,1017.8,0.6,83,21,18000,3.704,,,30,,,,,,,,,,,wg-a,,,,AAXX 29214 07790 12568 20302 10240 20210 30164 40178 52006 60006 82500 92100=
07790,1997-07-30 00:00:00,22,1017.6,-0.2,88,20,18000,7.408,,,240,,,,,,,,,,,wg-a,,,,AAXX 30004 07790 12468 22404 10220 20200 30162 40176 58002 60006 82600 90000=
07790,1997-07-30 03:00:00,21,1016.9,-0.7,83,18,18000,7.408,,,240,,,,,,,,,,,wg-a,,,,AAXX 30034 07790 12468 22404 10210 20180 30155 40169 56007 60006 82630 90300=
07790,1997-07-30 06:00:00,24,1017.3,0.4,69,18,15000,3.704,,,210,20.7,26.9,,,,,,,,,wg-a,,,,AAXX 30064 07790 02/65 /2102 10240 20180 30159 40173 51004 60006 81081 90600 333 10269 20207 60004=
07790,1997-07-30 12:00:00,28,1016.8,-0.7,55,18,15000,14.816,,,70,,,,,,,,,,,wg-a,,,,AAXX 30124 07790 12565 20708 10280 20180 30154 40168 57007 60006 8/200 91200=
07790,1997-07-30 18:00:00,27,1015.3,-0.5,66,20,10000,7.408,,,60,23.7,30.3,,,,,,,,,wg-a,,,,AAXX 30184 07790 12560 40604 10270 20200 30139 40153 56005 60006 84230 91800 333 10303 20237=
07790,1997-07-30 21:00:00,24,1016.4,1.1,78,20,10000,3.704,,,240,,,,,,,,,,,wg-a,,,,AAXX 30214 07790 12560 /2402 10240 20200 30150 40164 52011 60006 85500 92100=
07790,1997-07-31 00:00:00,22,1016,-0.4,83,19,40000,7.408,,,230,,,,,,,,,,,wg-a,,,,AAXX 31004 07790 12/82 02304 10220 20190 30146 40160 58004 60006 80000 90000=
07790,1997-07-31 03:00:00,21,1014.9,-1.1,78,17,40000,7.408,,,250,,,,,,,,,,,wg-a,,,,AAXX 31034 07790 12/82 02504 10210 20170 30135 40149 56011 60006 80000 90300=
07790,1997-07-31 06:00:00,23,1015.6,0.7,78,19,10000,3.704,,,270,19.7,27.1,,,,,,,,,wg-a,,,,AAXX 31064 07790 02/60 42702 10230 20190 30142 40156 53007 60006 80001 90600 333 10271 20197 60004=
07790,1997-07-31 09:00:00,29,1015.4,-0.2,58,20,10000,11.112,,,60,,,,,,,,,,,wg-a,,,,AAXX 31094 07790 12/60 40606 10290 20200 30140 40154 58002 60006 80002 90900=
07790,1997-07-31 12:00:00,31,1014.1,-1.3,46,18,15000,11.112,,,130,,,,,,,,,,,wg-a,,,,AAXX 31124 07790 12665 51306 10310 20180 30127 40141 57013 60006 81202 91200=
07790,1997-07-31 15:00:00,30,1012.8,-1.3,49,18,15000,11.112,,,150,,,,,,,,,,,wg-a,,,,AAXX 31154 07790 12665 51506 10300 20180 30114 40128 56013 60006 81282 91500=
07790,1997-07-31 18:00:00,28,1011.4,-1.4,51,17,12000,3.704,,,70,23.4,31.1,,,,,,,,,wg-a,,,,AAXX 31184 07790 12662 /0702 10280 20170 30100 40114 56014 60006 81202 91800 333 10311 20234=
07790,1997-08-01 00:00:00,22,1009.1,-1.7,78,18,12000,7.408,,,220,,,,,,,,,,,wg-a,,,,AAXX 01004 07790 12/62 52204 10220 20180 30077 40091 58017 60006 80002 90000=
07790,1997-08-01 03:00:00,21,1007.5,-1.6,83,18,12000,7.408,,,240,,,,,,,,,,,wg-a,,,,AAXX 01034 07790 12462 52404 10210 20180 30061 40075 58016 60006 82602 90300=
07790,1997-08-01 06:00:00,22,1006.8,-0.7,83,19,8000,3.704,,,250,20.7,27.7,,,,,,,,,wg-a,,,,AAXX 01064 07790 02458 72502 10220 20190 30054 40068 55007 60006 85602 90600 333 10277 20207 60004=
07790,1997-08-01 09:00:00,27,1007,0.2,70,21,8000,14.816,,,30,,,,,,,,,,,wg-a,,,,AAXX 01094 07790 12558 70308 10270 20210 30056 40070 50002 60006 85832 90900=
07790,1997-08-01 12:00:00,28,1006.4,-0.6,62,20,10000,14.816,,,40,,,,,,,,,,,wg-a,,,,AAXX 01124 07790 12460 /0408 10280 20200 30050 40064 58006 60006 82102 91200=
07790,1997-08-01 18:00:00,26,1006.4,0.2,70,20,11000,14.816,,,40,22.3,28.2,,,,,,,,,wg-a,,,,AAXX 01184 07790 12/61 /0408 10260 20200 30050 40064 53002 60006 91800 333 10282 20223=
07790,1997-08-01 21:00:00,25,1009.3,2.9,79,21,12000,7.408,,,340,,,,,,,,,,,wg-a,,,,AAXX 01214 07790 12462 /3404 10250 20210 30079 40093 51029 60006 86100 92100=
07790,1997-08-02 00:00:00,22,1009.9,0.6,88,20,12000,3.704,,,280,,,,,,,,,,,wg-a,,,,AAXX 02004 07790 12/62 02802 10220 20200 30085 40099 51006 60006 80000 90000=
07790,1997-08-02 06:00:00,23,1012.4,1.8,78,19,8000,3.704,,,190,20.7,26.3,,,,,,,,,wg-a,,,,AAXX 02064 07790 02558 71902 10230 20190 30110 40124 53018 60006 865// 90600 333 10263 20207 60004=
07790,1997-08-02 09:00:00,27,1013.7,1.3,51,16,25000,14.816,,,120,,,,,,,,,,,wg-a,,,,AAXX 02094 07790 12675 /1208 10270 20160 30123 40137 53013 60006 81100 90900=
07790,1997-08-02 12:00:00,28,1013.9,0.2,42,14,500,14.816,,,120,,,,,,,,,,4,wg-a,,,,AAXX 02124 07790 12600 /1208 10280 20140 30125 40139 50002 60006 70411 81500 91200=
07790,1997-08-02 15:00:00,29,1013.4,-0.5,37,13,500,11.112,,,120,,,,,,,,,,,wg-a,,,,AAXX 02154 07790 12600 21206 10290 20130 30120 40134 57005 60006 81101 91500=
07790,1997-08-02 18:00:00,27,1013.4,-0,42,13,25000,3.704,,,150,23.5,29.1,,,,,,,,,wg-a,,,,AAXX 02184 07790 12/75 21502 10270 20130 30120 40134 55000 60006 80001 91800 333 10291 20235=
07790,1997-08-02 21:00:00,23,1014.5,1.1,61,15,25000,7.408,,,240,,,,,,,,,,,wg-a,,,,AAXX 02214 07790 12/75 02404 10230 20150 30131 40145 53011 60006 80000 92100=
07790,1997-08-03 00:00:00,21,1015.4,0.9,69,15,25000,7.408,,,240,,,,,,,,,,,wg-a,,,,AAXX 03004 07790 12/75 32404 10210 20150 30140 40154 51009 60006 80001 90000=
07790,1997-08-03 06:00:00,23,1015.7,0.8,65,16,20000,7.408,,,240,20.1,27.3,,,,,,,,,wg-a,,,,AAXX 03064 07790 02/70 /2404 10230 20160 30143 40157 52008 60006 8605/ 90600 333 10273 20201 60004=
07790,1997-08-03 09:00:00,28,1016.6,0.9,45,15,500,14.816,,,140,,,,,,,,,,,wg-a,,,,AAXX 03094 07790 12/00 41408 10280 20150 30152 40166 51009 60006 84050 90900=
07790,1997-08-03 12:00:00,30,1016.7,0.1,43,16,500,18.52,,,150,,,,,,,,,,,wg-a,,,,AAXX 03124 07790 12500 /1510 10300 20160 30153 40167 50001 60006 81250 91200=
07790,1997-08-03 15:00:00,28,1016.4,-0.3,51,17,500,18.52,,,140,,,,,,,,,,,wg-a,,,,AAXX 03154 07790 12500 31410 10280 20170 30150 40164 57003 60006 81250 91500=
07790,1997-08-03 18:00:00,26,1016.4,-0,65,19,500,11.112,,,160,23,30.1,,,,,,,,,wg-a,,,,AAXX 03184 07790 12600 41606 10260 20190 30150 40164 55000 60006 82531 91800 333 10301 20230=
07790,1997-08-03 21:00:00,22,1017.1,0.7,69,16,11000,3.704,,,250,,,,,,,,,,,wg-a,,,,AAXX 03214 07790 12/61 /2502 10220 20160 30157 40171 51007 60006 92100=
07790,1997-08-04 00:00:00,22,1017.3,0.2,73,17,11000,7.408,,,270,,,,,,,,,,,wg-a,,,,AAXX 04004 07790 12/61 /2704 10220 20170 30159 40173 52002 60006 90000=
07790,1997-08-04 03:00:00,23,1016.9,-0.4,65,16,11000,3.704,,,230,,,,,,,,,,,wg-a,,,,AAXX 04034 07790 12/61 /2302 10230 20160 30155 40169 58004 60006 90300=
07790,1997-08-04 06:00:00,24,1017.4,0.5,61,16,18000,7.408,,,230,21.4,26.2,,,,,,,,,wg-a,,,,AAXX 04064 07790 02/68 32304 10240 20160 30160 40174 52005 60006 83031 90600 333 10262 20214 60004=
07790,1997-08-04 09:00:00,28,1017.8,0.4,55,18,18000,11.112,,,70,,,,,,,,,,,wg-a,,,,AAXX 04094 07790 12/68 00706 10280 20180 30164 40178 51004 60006 80000 90900=
07790,1997-08-04 12:00:00,29,1017.8,0,52,18,18000,14.816,,,90,,,,,,,,,,,wg-a,,,,AAXX 04124 07790 12668 /0908 10290 20180 30164 40178 50000 60006 81100 91200=
07790,1997-08-04 15:00:00,29,1017.1,-0.7,45,16,18000,11.112,,,90,,,,,,,,,,,wg-a,,,,AAXX 04154 07790 12668 /0906 10290 20160 30157 40171 56007 60006 81100 91500=
07790,1997-08-04 18:00:00,27,1016.7,-0.4,62,19,18000,7.408,,,130,23.8,29.9,,,,,,,,,wg-a,,,,AAXX 04184 07790 12768 /1304 10270 20190 30153 40167 56004 60006 81500 91800 333 10299 20238=
07790,1997-08-04 21:00:00,23,1017.3,0.6,73,18,20000,3.704,,,230,,,,,,,,,,,wg-a,,,,AAXX 04214 07790 12/70 /2302 10230 20180 30159 40173 51006 60006 80000 92100=
07790,1997-08-05 00:00:00,22,1017.4,0.1,83,19,20000,7.408,,,240,,,,,,,,,,,wg-a,,,,AAXX 05004 07790 12/70 02404 10220 20190 30160 40174 50001 60006 80000 90000=
07790,1997-08-05 03:00:00,21,1016.9,-0.5,78,17,20000,7.408,,,230,,,,,,,,,,,wg-a,,,,AAXX 05034 07790 12/70 02304 10210 20170 30155 40169 58005 60006 80000 90300=
07790,1997-08-05 06:00:00,23,1016.9,-0,69,17,10000,7.408,,,230,20.8,27.3,,,,,,,,,wg-a,,,,AAXX 05064 07790 02460 /2304 10230 20170 30155 40169 55000 60006 82556 90600 333 10273 20208 60004=
07790,1997-08-05 09:00:00,28,1017,0.1,62,20,18000,7.408,,,150,,,,,,,,,,,wg-a,,,,AAXX 05094 07790 12468 /1504 10280 20200 30156 40170 50001 60006 81552 90900=
07790,1997-08-05 12:00:00,29,1016.4,-0.6,62,21,18000,11.112,,,130,,,,,,,,,,,wg-a,,,,AAXX 05124 07790 12468 81306 10290 20210 30150 40164 57006 60006 84840 91200=
07790,1997-08-05 15:00:00,29,1015.4,-1,62,21,18000,11.112,,,140,,,,,,,,,,,wg-a,,,,AAXX 05154 07790 12468 /1406 10290 20210 30140 40154 58010 60006 82840 91500=
07790,1997-08-05 18:00:00,26,1015,-0.4,74,21,18000,3.704,,,160,23.2,29.5,,,,,,,,,wg-a,,,,AAXX 05184 07790 12568 71602 10260 20210 30136 40150 55004 60006 8187/ 91800 333 10295 20232=
07790,1997-08-05 21:00:00,25,1014.9,-0.1,79,21,12000,3.704,,,260,,,,,,,,,,,wg-a,,,,AAXX 05214 07790 12/62 32602 10250 20210 30135 40149 55001 60006 8308/ 92100=
07790,1997-08-06 00:00:00,23,1014.9,0,83,20,15000,7.408,,,250,,,,,,,,,,,wg-a,,,,AAXX 06004 07790 12/65 22504 10230 20200 30135 40149 50000 60006 8208/ 90000=
07790,1997-08-06 03:00:00,22,1013.5,-1.4,78,18,20000,7.408,,,220,,,,,,,,,,,wg-a,,,,AAXX 06034 07790 12/70 32204 10220 20180 30121 40135 57014 60006 83080 90300=
07790,1997-08-06 06:00:00,23,1013.5,-0,78,19,10000,3.704,,,240,21.8,26.4,,,,,,,,,wg-a,,,,AAXX 06064 07790 02560 72402 10230 20190 30121 40135 54000 60006 82280 90600 333 10264 20218 60004=
07790,1997-08-06 09:00:00,26,1013.6,0.1,70,20,9000,7.408,,,160,,,,,,,,,,21,wg-a,,,,AAXX 06094 07790 02459 71604 10260 20200 30122 40136 50001 61000 72162 83280 90900 333 ////=
07790,1997-08-06 12:00:00,22,1013.7,0.1,88,20,6000,18.52,,,360,,,,2,,,,,,80,wg-a,,,,AAXX 06124 07790 02456 73610 10220 20200 30123 40137 52001 60026 78098 8598/ 91200 333 60027=
07790,1997-08-06 15:00:00,25,1013,-0.7,69,19,10000,3.704,,,10,,,,1,,,,,,1,wg-a,,,,AAXX 06154 07790 12460 /0102 10250 20190 30116 40130 58007 60017 70186 83980 91500=
07790,1997-08-06 18:00:00,25,1012.7,-0.3,74,20,12000,7.408,,,60,21.7,27.3,,,,,,,,3,wg-a,,,,AAXX 06184 07790 12562 30604 10250 20200 30113 40127 55003 60006 70386 81280 91800 333 10273 20217=
07790,1997-08-06 21:00:00,21,1014.1,1.4,88,19,17000,7.408,,,240,,,,,,,,,,,wg-a,,,,AAXX 06214 07790 12567 32404 10210 20190 30127 40141 51014 60006 81280 92100=
07790,1997-08-07 00:00:00,20,1014.2,0.1,88,18,17000,11.112,,,240,,,,,,,,,,,wg-a,,,,AAXX 07004 07790 12567 /2406 10200 20180 30128 40142 53001 60006 81600 90000=
07790,1997-08-07 03:00:00,20,1013.4,-0.8,88,18,11000,7.408,,,240,,,,,,,,,,,wg-a,,,,AAXX 07034 07790 12/61 /2404 10200 20180 30120 40134 58008 60006 90300=
07790,1997-08-07 06:00:00,22,1014.4,1,78,18,18000,11.112,,,230,19.3,24.6,,,,,2,,,,wg-a,,,,AAXX 07064 07790 02468 /2306 10220 20180 30130 40144 52010 60006 81201 90600 333 10246 20193 60024=
07790,1997-08-07 09:00:00,27,1015,0.6,62,19,18000,14.816,,,130,,,,,,,,,,,wg-a,,,,AAXX 07094 07790 12568 /1308 10270 20190 30136 40150 53006 60006 81201 90900=
07790,1997-08-07 12:00:00,29,1015.1,0.1,55,19,18000,14.816,,,110,,,,,,,,,,,wg-a,,,,AAXX 07124 07790 12568 31108 10290 20190 30137 40151 50001 60006 82201 91200=
07790,1997-08-07 15:00:00,28,1013.7,-1.4,62,20,18000,14.816,,,150,,,,,,,,,,,wg-a,,,,AAXX 07154 07790 12668 31508 10280 20200 30123 40137 56014 60006 81201 91500=
07790,1997-08-07 18:00:00,26,1014,0.3,70,20,12000,3.704,,,130,21.8,29.7,,,,,,,,,wg-a,,,,AAXX 07184 07790 12562 31302 10260 20200 30126 40140 53003 60006 81131 91800 333 10297 20218=
07790,1997-08-07 21:00:00,23,1015,1,83,20,15000,7.408,,,220,,,,,,,,,,,wg-a,,,,AAXX 07214 07790 12665 22204 10230 20200 30136 40150 53010 60006 81531 92100=
07790,1997-08-08 00:00:00,22,1015.5,0.5,83,19,0,7.408,,,260,,,,,,,,,,,wg-a,,,,AAXX 08004 07790 12/// /2604 10220 20190 30141 40155 51005 60006 90000=
07790,1997-08-08 06:00:00,23,1016.3,0.8,78,19,18000,7.408,,,240,20.2,26.3,,,,,,,,,wg-a,,,,AAXX 08064 07790 02568 /2404 10230 20190 30149 40163 53008 60006 81500 90600 333 10263 20202 60004=
07790,1997-08-08 09:00:00,28,1017.2,0.9,62,20,25000,11.112,,,110,,,,,,,,,,,wg-a,,,,AAXX 08094 07790 12575 /1106 10280 20200 30158 40172 53009 60006 81500 90900=
07790,1997-08-08 12:00:00,29,1016.6,-0.6,58,20,500,18.52,,,150,,,,,,,,,,,wg-a,,,,AAXX 08124 07790 12500 /1510 10290 20200 30152 40166 58006 60006 81100 91200=
07790,1997-08-08 15:00:00,29,1016,-0.6,62,21,500,14.816,,,150,,,,,,,,,,,wg-a,,,,AAXX 08154 07790 12500 /1508 10290 20210 30146 40160 56006 60006 81100 91500=
07790,1997-08-08 18:00:00,27,1015,-1,66,20,25000,7.408,,,150,23.2,29.7,,,,,,,,,wg-a,,,,AAXX 08184 07790 12/75 21504 10270 20200 30136 40150 56010 60006 82082 91800 333 10297 20232=
07790,1997-08-09 00:00:00,22,1015.7,0.2,78,18,25000,0,,,0,,,,,,,,,,,wg-a,,,,AAXX 09004 07790 12/75 00000 10220 20180 30143 40157 50002 60006 80000 90000=
07790,1997-08-09 06:00:00,24,1015.9,0.1,65,17,15000,7.408,,,230,21,27.1,,,,,,,,,wg-a,,,,AAXX 09064 07790 02565 22304 10240 20170 30145 40159 50001 60006 81501 90600 333 10271 20210 60004=
07790,1997-08-09 09:00:00,28,1016.2,0.3,70,22,20000,14.816,,,130,,,,,,,,,,,wg-a,,,,AAXX 09094 07790 12570 /1308 10280 20220 30148 40162 51003 60006 81501 90900=
07790,1997-08-09 12:00:00,30,1015,-1.2,66,23,15000,22.224,,,150,,,,,,,,,,,wg-a,,,,AAXX 09124 07790 12565 /1512 10300 20230 30136 40150 58012 60006 81100 91200=
07790,1997-08-09 15:00:00,30,1014.6,-0.4,66,23,15000,11.112,,,140,,,,,,,,,,,wg-a,,,,AAXX 09154 07790 12/65 01406 10300 20230 30132 40146 55004 60006 80000 91500=
07790,1997-08-09 18:00:00,27,1014.2,-0.4,84,24,9000,7.408,,,140,24,30.7,,,,,,,,,wg-a,,,,AAXX 09184 07790 12/59 01404 10270 20240 30128 40142 56004 60006 80000 91800 333 10307 20240=
07790,1997-08-09 21:00:00,25,1014.7,0.5,94,24,9000,3.704,,,160,,,,,,,,,,,wg-a,,,,AAXX 09214 07790 12259 41602 10250 20240 30133 40147 50005 60006 84500 92100=
07790,1997-08-10 00:00:00,24,1015.4,0.7,89,22,9000,7.408,,,220,,,,,,,,,,,wg-a,,,,AAXX 10004 07790 12359 42204 10240 20220 30140 40154 50007 60006 84500 90000=
07790,1997-08-10 03:00:00,22,1015.2,-0.2,88,20,20000,7.408,,,230,,,,,,,,,,,wg-a,,,,AAXX 10034 07790 12/70 02304 10220 20200 30138 40152 56002 60006 80000 90300=
07790,1997-08-10 06:00:00,24,1015.7,0.5,78,20,12000,3.704,,,230,21.6,26.7,,,,,,,,,wg-a,,,,AAXX 10064 07790 02/62 42302 10240 20200 30143 40157 53005 60006 80004 90600 333 10267 20216 60004=
07790,1997-08-10 09:00:00,29,1015.8,0.1,62,21,20000,11.112,,,100,,,,,,,,,,,wg-a,,,,AAXX 10094 07790 12470 31006 10290 20210 30144 40158 53001 60006 81101 90900=
07790,1997-08-10 12:00:00,31,1015.8,-0,52,20,20000,11.112,,,150,,,,,,,,,,,wg-a,,,,AAXX 10124 07790 12570 /1506 10310 20200 30144 40158 54000 60006 81101 91200=
07790,1997-08-10 15:00:00,31,1014.5,-1.3,46,18,20000,11.112,,,130,,,,,,,,,,,wg-a,,,,AAXX 10154 07790 12670 31306 10310 20180 30131 40145 57013 60006 81104 91500=
07790,1997-08-10 18:00:00,28,1014.6,0.1,66,21,20000,3.704,,,140,23.5,31.3,,,,,,,,,wg-a,,,,AAXX 10184 07790 12/70 51402 10280 20210 30132 40146 50001 60006 80001 91800 333 10313 20235=
07790,1997-08-10 21:00:00,25,1015.9,1.3,74,20,15000,11.112,,,290,,,,,,,,,,,wg-a,,,,AAXX 10214 07790 12/65 42906 10250 20200 30145 40159 53013 60006 82051 92100=
07790,1997-08-11 00:00:00,24,1015.6,-0.3,78,20,15000,7.408,,,250,,,,,,,,,,,wg-a,,,,AAXX 11004 07790 12/65 32504 10240 20200 30142 40156 58003 60006 80001 90000=
07790,1997-08-11 03:00:00,22,1015.6,-0,78,18,15000,3.704,,,270,,,,,,,,,,,wg-a,,,,AAXX 11034 07790 12/65 52702 10220 20180 30142 40156 55000 60006 80001 90300=
07790,1997-08-11 06:00:00,25,1016.4,0.8,69,19,25000,3.704,,,190,22.2,28.1,,,,,,,,,wg-a,,,,AAXX 11064 07790 02675 71902 10250 20190 30150 40164 51008 60006 81581 90600 333 10281 20222 60004=
07790,1997-08-11 09:00:00,29,1017.1,0.7,55,19,25000,14.816,,,110,,,,,,,,,,,wg-a,,,,AAXX 11094 07790 12/75 61108 10290 20190 30157 40171 51007 60006 86071 90900=
07790,1997-08-11 12:00:00,28,1016.8,-0.3,51,17,25000,18.52,,,140,,,,,,,,,,,wg-a,,,,AAXX 11124 07790 12575 71410 10280 20170 30154 40168 58003 60006 82282 91200=
07790,1997-08-11 18:00:00,23,1017.7,0.7,83,20,10000,7.408,,,250,22.9,29.8,,1,,,,,,29,wg-a,,,,AAXX 11184 07790 02560 /2504 10230 20200 30163 40177 50007 60006 72996 8298/ 91800 333 10298 20229 60017=
07790,1997-08-11 21:00:00,21,1017.7,-0,78,17,15000,7.408,,,210,,,,,,,,,,,wg-a,,,,AAXX 11214 07790 12565 42104 10210 20170 30163 40177 55000 60006 81982 92100=
07790,1997-08-12 00:00:00,20,1017.9,0.2,78,16,15000,11.112,,,230,,,,,,,,,,,wg-a,,,,AAXX 12004 07790 12/65 32306 10200 20160 30165 40179 50002 60006 83082 90000=
07790,1997-08-12 03:00:00,21,1017.8,-0.1,78,17,15000,14.816,,,230,,,,,,,,,,,wg-a,,,,AAXX 12034 07790 12/65 32308 10210 20170 30164 40178 58001 60006 83082 90300=
07790,1997-08-12 06:00:00,23,1018.7,0.9,69,17,15000,7.408,,,230,19.8,23.2,,,,,1,,,,wg-a,,,,AAXX 12064 07790 02565 22304 10230 20170 30173 40187 53009 60006 81530 90600 333 10232 20198 60014=
07790,1997-08-12 09:00:00,28,1019.7,1,55,18,17000,14.816,,,20,,,,,,,,,,,wg-a,,,,AAXX 12094 07790 12467 /0208 10280 20180 30183 40197 53010 60006 81240 90900=
07790,1997-08-12 12:00:00,29,1019.6,-0.1,40,14,20000,11.112,,,40,,,,,,,,,,,wg-a,,,,AAXX 12124 07790 12570 /0406 10290 20140 30182 40196 57001 60006 81200 91200=
07790,1997-08-12 15:00:00,31,1019.3,-0.3,33,13,20000,14.816,,,20,,,,,,,,,,,wg-a,,,,AAXX 12154 07790 12570 /0208 10310 20130 30179 40193 58003 60006 81200 91500=
07790,1997-08-12 18:00:00,28,1019.1,-0.2,58,19,15000,11.112,,,20,23.2,30.7,,,,,,,,,wg-a,,,,AAXX 12184 07790 12/65 00206 10280 20190 30177 40191 57002 60006 80000 91800 333 10307 20232=
07790,1997-08-12 21:00:00,23,1019.9,0.8,53,13,25000,7.408,,,250,,,,,,,,,,,wg-a,,,,AAXX 12214 07790 12/75 02504 10230 20130 30185 40199 51008 60006 80000 92100=
07790,1997-08-13 00:00:00,22,1020.5,0.6,57,13,25000,7.408,,,240,,,,,,,,,,,wg-a,,,,AAXX 13004 07790 12/75 02404 10220 20130 30191 40205 51006 60006 80000 90000=
07790,1997-08-13 03:00:00,21,1020.2,-0.3,53,11,25000,11.112,,,230,,,,,,,,,,,wg-a,,,,AAXX 13034 07790 12/75 12306 10210 20110 30188 40202 58003 60006 80001 90300=
07790,1997-08-13 06:00:00,22,1021.2,1,53,12,25000,7.408,,,230,19.7,27.4,,,,,,,,,wg-a,,,,AAXX 13064 07790 02/75 02304 10220 20120 30198 40212 53010 60006 80000 90600 333 10274 20197 60004=
07790,1997-08-13 09:00:00,30,1021,-0.2,35,13,25000,7.408,,,160,,,,,,,,,,,wg-a,,,,AAXX 13094 07790 12/75 /1604 10300 20130 30196 40210 58002 60006 80000 90900=
07790,1997-08-13 12:00:00,32,1020.3,-0.7,23,8,25000,7.408,,,130,,,,,,,,,,,wg-a,,,,AAXX 13124 07790 12/75 11304 10320 20080 30189 40203 57007 60006 81082 91200=
07790,1997-08-13 18:00:00,27,1019.7,-0.2,51,16,25000,7.408,,,20,21.9,32.5,,,,,,,,,wg-a,,,,AAXX 13184 07790 12/75 20204 10270 20160 30183 40197 55002 60006 82082 91800 333 10325 20219=
07790,1997-08-13 21:00:00,22,1020.9,1.2,65,15,25000,7.408,,,290,,,,,,,,,,,wg-a,,,,AAXX 13214 07790 12/75 02904 10220 20150 30195 40209 53012 60006 80000 92100=
07790,1997-08-14 00:00:00,21,1021,0.1,53,11,25000,7.408,,,240,,,,,,,,,,,wg-a,,,,AAXX 14004 07790 12/75 02404 10210 20110 30196 40210 53001 60006 80000 90000=
07790,1997-08-14 06:00:00,22,1021.4,0.7,46,10,25000,11.112,,,230,19.7,27.3,,,,,,,,,wg-a,,,,AAXX 14064 07790 02/75 02306 10220 20100 30200 40214 53007 60006 80000 90600 333 10273 20197 60004=
07790,1997-08-14 09:00:00,30,1021.4,0,25,8,25000,11.112,,,140,,,,,,,,,,,wg-a,,,,AAXX 14094 07790 12/75 01406 10300 20080 30200 40214 50000 60006 80000 90900=
07790,1997-08-14 12:00:00,32,1020.1,-1.3,21,7,500,11.112,,,50,,,,,,,,,,,wg-a,,,,AAXX 14124 07790 12/00 00506 10320 20070 30187 40201 58013 60006 80000 91200=
07790,1997-08-14 15:00:00,32,1019.2,-0.9,24,9,500,7.408,,,120,,,,,,,,,,,wg-a,,,,AAXX 14154 07790 12/00 01204 10320 20090 30178 40192 56009 60006 80000 91500=
07790,1997-08-14 18:00:00,29,1018.4,-0.8,37,13,15000,3.704,,,170,22,32.3,,,,,,,,,wg-a,,,,AAXX 14184 07790 12/65 11702 10290 20130 30170 40184 56008 60006 80001 91800 333 10323 20220=
07790,1997-08-14 21:00:00,22,1019,0.6,46,10,15000,7.408,,,230,,,,,,,,,,,wg-a,,,,AAXX 14214 07790 12/65 12304 10220 20100 30176 40190 50006 60006 80001 92100=
07790,1997-08-15 00:00:00,21,1019.2,0.2,49,10,0,11.112,,,240,,,,,,,,,,,wg-a,,,,AAXX 15004 07790 12/// /2406 10210 20100 30178 40192 50002 60006 90000=
07790,1997-08-15 03:00:00,20,1018.6,-0.6,46,8,15000,11.112,,,230,,,,,,,,,,,wg-a,,,,AAXX 15034 07790 12/65 02306 10200 20080 30172 40186 58006 60006 80000 90300=
07790,1997-08-15 06:00:00,22,1019.1,0.5,43,9,20000,11.112,,,230,19.7,28.7,,,,,,,,,wg-a,,,,AAXX 15064 07790 02/70 02306 10220 20090 30177 40191 53005 60006 80000 90600 333 10287 20197 60004=
07790,1997-08-15 12:00:00,30,1019,-0.3,38,14,25000,11.112,,,80,,,,,,,,,,,wg-a,,,,AAXX 15124 07790 12/75 10806 10300 20140 30176 40190 58003 60006 80001 91200=
07790,1997-08-15 18:00:00,27,1017.5,-0.7,70,21,18000,3.704,,,100,22.2,30.5,,,,,,,,,wg-a,,,,AAXX 15184 07790 12/68 41002 10270 20210 30161 40175 55007 60006 80004 91800 333 10305 20222=
07790,1997-08-15 21:00:00,23,1017.9,0.4,73,18,15000,3.704,,,220,,,,,,,,,,,wg-a,,,,AAXX 15214 07790 12/65 22202 10230 20180 30165 40179 53004 60006 80003 92100=
07790,1997-08-16 00:00:00,22,1017.3,-0.6,73,17,25000,7.408,,,230,,,,,,,,,,,wg-a,,,,AAXX 16004 07790 12/75 02304 10220 20170 30159 40173 56006 60006 80000 90000=
07790,1997-08-16 03:00:00,22,1016.4,-0.9,69,16,25000,11.112,,,230,,,,,,,,,,,wg-a,,,,AAXX 16034 07790 12/75 02306 10220 20160 30150 40164 58009 60006 80000 90300=
07790,1997-08-16 06:00:00,22,1017.6,1.2,69,16,12000,7.408,,,230,20.3,26.8,,,,,,,,,wg-a,,,,AAXX 16064 07790 02562 52304 10220 20160 30162 40176 53012 60006 81533 90600 333 10268 20203 60004=
07790,1997-08-16 09:00:00,27,1017.9,0.3,74,22,12000,11.112,,,50,,,,,,,,,,,wg-a,,,,AAXX 16094 07790 12562 /0506 10270 20220 30165 40179 51003 60006 82132 90900=
07790,1997-08-16 12:00:00,28,1017.4,-0.5,62,20,15000,14.816,,,80,,,,,,,,,,,wg-a,,,,AAXX 16124 07790 12565 30808 10280 20200 30160 40174 58005 60006 82101 91200=
07790,1997-08-16 15:00:00,27,1016.8,-0.6,70,21,15000,7.408,,,80,,,,,,,,,,,wg-a,,,,AAXX 16154 07790 12565 /0804 10270 20210 30154 40168 58006 60006 85800 91500=
07790,1997-08-16 18:00:00,26,1016.8,0,74,21,15000,3.704,,,160,22.1,28.7,,,,,,,,,wg-a,,,,AAXX 16184 07790 12565 31602 10260 20210 30154 40168 50000 60006 82104 91800 333 10287 20221=
07790,1997-08-16 21:00:00,24,1017.1,0.3,78,20,15000,3.704,,,190,,,,,,,,,,,wg-a,,,,AAXX 16214 07790 12565 31902 10240 20200 30157 40171 52003 60006 81184 92100=
07790,1997-08-17 00:00:00,21,1017,-0.1,88,19,15000,3.704,,,250,,,,,,,,,,,wg-a,,,,AAXX 17004 07790 12565 22502 10210 20190 30156 40170 56001 60006 81184 90000=
07790,1997-08-17 03:00:00,21,1016.3,-0.7,83,18,15000,7.408,,,220,,,,,,,,,,,wg-a,,,,AAXX 17034 07790 12565 22204 10210 20180 30149 40163 58007 60006 81184 90300=
07790,1997-08-17 06:00:00,22,1016.6,0.3,78,18,15000,7.408,,,230,19.6,26.2,,,,,,,,,wg-a,,,,AAXX 17064 07790 02465 62304 10220 20180 30152 40166 53003 60006 81350 90600 333 10262 20196 60004=
07790,1997-08-17 09:00:00,27,1017.4,0.8,66,20,10000,14.816,,,20,,,,,,,,,,,wg-a,,,,AAXX 17094 07790 12560 50208 10270 20200 30160 40174 53008 60006 83830 90900=
07790,1997-08-17 12:00:00,27,1016.5,-0.9,66,20,10000,14.816,,,80,,,,,,,,,,17,wg-a,,,,AAXX 17124 07790 12560 60808 10270 20200 30151 40165 57009 60006 71791 84933 91200=
07790,1997-08-17 15:00:00,20,1016.7,0.2,94,19,12000,3.704,,,260,,,,9,,,,,,29,wg-a,,,,AAXX 17154 07790 12462 /2602 10200 20190 30153 40167 52002 60097 72998 84943 91500=
07790,1997-08-17 18:00:00,23,1015.4,-1.3,73,18,20000,11.112,,,230,19.1,28.8,,,,,,,,2,wg-a,,,,AAXX 17184 07790 12570 /2306 10230 20180 30140 40154 56013 60006 70298 81932 91800 333 10288 20191=
07790,1997-08-17 21:00:00,21,1016.9,1.5,83,18,20000,3.704,,,250,,,,,,,,,,,wg-a,,,,AAXX 17214 07790 12670 32502 10210 20180 30155 40169 51015 60006 81101 92100=
07790,1997-08-18 00:00:00,21,1016.4,-0.5,83,18,20000,11.112,,,240,,,,,,,,,,,wg-a,,,,AAXX 18004 07790 12670 32406 10210 20180 30150 40164 58005 60006 81101 90000=
07790,1997-08-18 03:00:00,20,1015.4,-1,83,17,20000,7.408,,,220,,,,,,,,,,,wg-a,,,,AAXX 18034 07790 12670 22204 10200 20170 30140 40154 56010 60006 81101 90300=
07790,1997-08-18 06:00:00,22,1015.8,0.4,78,18,11000,7.408,,,230,19.6,23.4,,,,,9,,,,wg-a,,,,AAXX 18064 07790 02/61 /2304 10220 20180 30144 40158 52004 60006 90600 333 10234 20196 60094=
07790,1997-08-18 09:00:00,27,1016,0.2,62,19,15000,18.52,,,70,,,,,,,,,,,wg-a,,,,AAXX 18094 07790 12565 /0710 10270 20190 30146 40160 53002 60006 81200 90900=
07790,1997-08-18 12:00:00,26,1016.3,0.3,70,20,15000,14.816,,,40,,,,,,,,,,,wg-a,,,,AAXX 18124 07790 12565 30408 10260 20200 30149 40163 50003 60006 83300 91200=
07790,1997-08-18 15:00:00,27,1015.6,-0.7,62,19,15000,11.112,,,110,,,,,,,,,,,wg-a,,,,AAXX 18154 07790 12565 51106 10270 20190 30142 40156 56007 60006 84902 91500=
07790,1997-08-18 18:00:00,25,1015.4,-0.2,74,20,11000,7.408,,,170,21.7,27.4,,,,,,,,,wg-a,,,,AAXX 18184 07790 12/61 /1704 10250 20200 30140 40154 55002 60006 91800 333 10274 20217=
07790,1997-08-18 21:00:00,21,1016.9,1.5,88,19,20000,3.704,,,250,,,,,,,,,,,wg-a,,,,AAXX 18214 07790 12/70 52502 10210 20190 30155 40169 52015 60006 80001 92100=
07790,1997-08-19 00:00:00,20,1016,-0.9,83,17,20000,7.408,,,230,,,,,,,,,,,wg-a,,,,AAXX 19004 07790 12/70 32304 10200 20170 30146 40160 58009 60006 80001 90000=
07790,1997-08-19 03:00:00,19,1015.7,-0.3,78,15,20000,11.112,,,240,,,,,,,,,,,wg-a,,,,AAXX 19034 07790 12/70 32406 10190 20150 30143 40157 56003 60006 80001 90300=
07790,1997-08-19 06:00:00,21,1016,0.3,69,15,25000,11.112,,,230,18.7,25.1,,,,,,,,,wg-a,,,,AAXX 19064 07790 02575 22306 10210 20150 30146 40160 53003 60006 81131 90600 333 10251 20187 60004=
07790,1997-08-19 09:00:00,27,1016.2,0.2,58,18,25000,7.408,,,70,,,,,,,,,,,wg-a,,,,AAXX 19094 07790 12575 /0704 10270 20180 30148 40162 53002 60006 81200 90900=
07790,1997-08-19 12:00:00,27,1016,-0.2,58,18,25000,14.816,,,40,,,,,,,,,,,wg-a,,,,AAXX 19124 07790 12575 30408 10270 20180 30146 40160 58002 60006 81289 91200=
07790,1997-08-19 15:00:00,27,1015.4,-0.6,66,20,25000,11.112,,,30,,,,,,,,,,,wg-a,,,,AAXX 19154 07790 12475 50306 10270 20200 30140 40154 56006 60006 82901 91500=
07790,1997-08-19 18:00:00,26,1015,-0.4,58,17,20000,18.52,,,350,20.6,27.8,,,,,,,,,wg-a,,,,AAXX 19184 07790 12/70 /3510 10260 20170 30136 40150 55004 60006 81031 91800 333 10278 20206=
07790,1997-08-19 21:00:00,23,1016.2,1.2,73,18,20000,7.408,,,220,,,,,,,,,,,wg-a,,,,AAXX 19214 07790 12/70 42204 10230 20180 30148 40162 51012 60006 81032 92100=
07790,1997-08-20 00:00:00,21,1015.6,-0.6,78,17,20000,11.112,,,230,,,,,,,,,,,wg-a,,,,AAXX 20004 07790 12/70 02306 10210 20170 30142 40156 57006 60006 80000 90000=
07790,1997-08-20 03:00:00,20,1015.5,-0.1,78,16,20000,11.112,,,230,,,,,,,,,,,wg-a,,,,AAXX 20034 07790 12/70 52306 10200 20160 30141 40155 58001 60006 83032 90300=
07790,1997-08-20 06:00:00,21,1016.7,1.2,73,16,20000,7.408,,,230,19.5,25.5,,,,,,,,,wg-a,,,,AAXX 20064 07790 02/70 32304 10210 20160 30153 40167 53012 60006 81082 90600 333 10255 20195 60004=
07790,1997-08-20 09:00:00,27,1016.9,0.2,70,21,20000,18.52,,,30,,,,,,,,,,,wg-a,,,,AAXX 20094 07790 12570 20310 10270 20210 30155 40169 53002 60006 82201 90900=
07790,1997-08-20 12:00:00,27,1016.8,-0.1,62,19,25000,14.816,,,20,,,,,,,,,,,wg-a,,,,AAXX 20124 07790 12575 50208 10270 20190 30154 40168 58001 60006 82262 91200=
07790,1997-08-20 15:00:00,28,1016.2,-0.6,45,15,25000,3.704,,,90,,,,,,,,,,,wg-a,,,,AAXX 20154 07790 12675 /0902 10280 20150 30148 40162 56006 60006 81201 91500=
07790,1997-08-20 18:00:00,26,1016.4,0.2,58,17,25000,0,,,0,21.5,28.9,,,,,,,,,wg-a,,,,AAXX 20184 07790 12675 /0000 10260 20170 30150 40164 53002 60006 81200 91800 333 10289 20215=
07790,1997-08-20 21:00:00,22,1017.6,1.2,78,18,25000,7.408,,,230,,,,,,,,,,,wg-a,,,,AAXX 20214 07790 12/75 12304 10220 20180 30162 40176 51012 60006 80001 92100=
07790,1997-08-21 00:00:00,22,1017.9,0.3,73,17,25000,14.816,,,230,,,,,,,,,,,wg-a,,,,AAXX 21004 07790 12/75 12308 10220 20170 30165 40179 52003 60006 80001 90000=
07790,1997-08-21 03:00:00,21,1017.8,-0.1,78,17,25000,11.112,,,240,,,,,,,,,,,wg-a,,,,AAXX 21034 07790 12/75 12406 10210 20170 30164 40178 56001 60006 80001 90300=
07790,1997-08-21 06:00:00,22,1018.9,1.1,73,17,9000,7.408,,,240,20.3,26.3,,,,,,,,,wg-a,,,,AAXX 21064 07790 02/59 42404 10220 20170 30175 40189 52011 60006 8/082 90600 333 10263 20203 60004=
07790,1997-08-21 07:00:00,22,1018.9,1.1,73,17,9000,7.408,,,240,20.3,26.3,,,,,,,,,wg-a,,,,AAXX 21074 07790 02/59 42404 10220 20170 30175 40189 52011 60006 81082 90700 333 10263 20203 60004=
07790,1997-08-21 09:00:00,28,1019.4,0.5,55,18,12000,14.816,,,30,,,,,,,,,,,wg-a,,,,AAXX 21094 07790 12662 40308 10280 20180 30180 40194 51005 60006 81202 90900=
07790,1997-08-21 12:00:00,28,1018.9,-0.5,51,17,20000,18.52,,,20,,,,,,,,,,,wg-a,,,,AAXX 21124 07790 12670 /0210 10280 20170 30175 40189 58005 60006 81282 91200=
07790,1997-08-21 18:00:00,26,1017.9,-0.3,65,19,10000,7.408,,,40,21.5,28.8,,,,,,,,,wg-a,,,,AAXX 21184 07790 12860 /0404 10260 20190 30165 40179 55003 60006 81042 91800 333 10288 20215=
07790,1997-08-22 00:00:00,22,1019.4,-0.4,78,18,18000,7.408,,,240,,,,,,,,,,,wg-a,,,,AAXX 22004 07790 12/68 62404 10220 20180 30180 40194 58004 60006 80002 90000=
07790,1997-08-22 06:00:00,22,1019.8,0.7,78,18,16000,7.408,,,260,19.8,25.7,,,,,,,,,wg-a,,,,AAXX 22064 07790 02566 42604 10220 20180 30184 40198 53007 60006 81171 90600 333 10257 20198 60004=
07790,1997-08-22 09:00:00,26,1020,0.2,51,15,20000,22.224,,,30,,,,,,,,,,,wg-a,,,,AAXX 22094 07790 12570 30312 10260 20150 30186 40200 51002 60006 81271 90900=
07790,1997-08-22 12:00:00,27,1019.2,-0.8,51,16,20000,18.52,,,30,,,,,,,,,,,wg-a,,,,AAXX 22124 07790 12570 20310 10270 20160 30178 40192 58008 60006 82371 91200=
07790,1997-08-22 15:00:00,28,1018.1,-1.1,45,15,20000,18.52,,,350,,,,,,,,,,,wg-a,,,,AAXX 22154 07790 12670 /3510 10280 20150 30167 40181 56011 60006 81200 91500=
07790,1997-08-22 18:00:00,26,1018,-0.1,51,15,20000,7.408,,,300,21.8,28.3,,,,,,,,,wg-a,,,,AAXX 22184 07790 12570 33004 10260 20150 30166 40180 55001 60006 81330 91800 333 10283 20218=
07790,1997-08-22 21:00:00,23,1018.5,0.5,61,15,18000,7.408,,,270,,,,,,,,,,,wg-a,,,,AAXX 22214 07790 12/68 /2704 10230 20150 30171 40185 51005 60006 81030 92100=
07790,1997-08-23 00:00:00,21,1018.4,-0.1,73,16,11000,7.408,,,240,,,,,,,,,,,wg-a,,,,AAXX 23004 07790 12/61 /2404 10210 20160 30170 40184 58001 60006 90000=
07790,1997-08-23 03:00:00,20,1018.2,-0.2,78,16,11000,7.408,,,240,,,,,,,,,,,wg-a,,,,AAXX 23034 07790 12/61 /2404 10200 20160 30168 40182 57002 60006 90300=
07790,1997-08-23 06:00:00,21,1018.4,0.2,78,17,16000,7.408,,,240,19.6,26.2,,,,,,,,,wg-a,,,,AAXX 23064 07790 02/66 /2404 10210 20170 30170 40184 51002 60006 80001 90600 333 10262 20196 60004=
07790,1997-08-23 09:00:00,27,1018.7,0.3,54,17,16000,11.112,,,10,,,,,,,,,,,wg-a,,,,AAXX 23094 07790 12666 /0106 10270 20170 30173 40187 52003 60006 81200 90900=
07790,1997-08-23 12:00:00,30,1017.9,-0.8,31,11,20000,14.816,,,120,,,,,,,,,,,wg-a,,,,AAXX 23124 07790 12670 /1208 10300 20110 30165 40179 58008 60006 81200 91200=
07790,1997-08-23 15:00:00,30,1016.9,-1,33,12,11000,11.112,,,120,,,,,,,,,,,wg-a,,,,AAXX 23154 07790 12/61 /1206 10300 20120 30155 40169 58010 60006 91500=
07790,1997-08-23 18:00:00,26,1016.5,-0.4,48,14,10000,7.408,,,340,21.1,31.1,,,,,,,,,wg-a,,,,AAXX 23184 07790 12/60 23404 10260 20140 30151 40165 56004 60006 80001 91800 333 10311 20211=
07790,1997-08-23 21:00:00,21,1017.1,0.6,56,12,10000,11.112,,,220,,,,,,,,,,,wg-a,,,,AAXX 23214 07790 12/60 02206 10210 20120 30157 40171 50006 60006 80000 92100=
07790,1997-08-24 00:00:00,20,1017.1,-0,60,12,10000,7.408,,,250,,,,,,,,,,,wg-a,,,,AAXX 24004 07790 12/60 02504 10200 20120 30157 40171 54000 60006 80000 90000=
07790,1997-08-24 03:00:00,21,1017,-0.1,53,11,10000,14.816,,,240,,,,,,,,,,,wg-a,,,,AAXX 24034 07790 12/60 02408 10210 20110 30156 40170 55001 60006 80000 90300=
07790,1997-08-24 06:00:00,23,1017.3,0.3,47,11,12000,14.816,,,240,19.6,26.3,,,,,,,,,wg-a,,,,AAXX 24064 07790 02/62 02408 10230 20110 30159 40173 51003 60006 80000 90600 333 10263 20196 60004=
07790,1997-08-24 09:00:00,30,1017.4,0.1,31,11,15000,7.408,,,80,,,,,,,,,,,wg-a,,,,AAXX 24094 07790 12/65 00804 10300 20110 30160 40174 52001 60006 80000 90900=
07790,1997-08-24 12:00:00,28,1017.4,-0,58,19,18000,14.816,,,90,,,,,,,,,,,wg-a,,,,AAXX 24124 07790 12668 /0908 10280 20190 30160 40174 54000 60006 81200 91200=
07790,1997-08-24 15:00:00,28,1016.7,-0.7,58,19,15000,11.112,,,100,,,,,,,,,,,wg-a,,,,AAXX 24154 07790 12665 /1006 10280 20190 30153 40167 56007 60006 81200 91500=
07790,1997-08-24 18:00:00,26,1015.8,-0.9,65,19,15000,3.704,,,130,22.6,30.3,,,,,,,,,wg-a,,,,AAXX 24184 07790 12665 /1302 10260 20190 30144 40158 56009 60006 81100 91800 333 10303 20226=
07790,1997-08-24 21:00:00,22,1015.9,0.1,83,19,12000,3.704,,,300,,,,,,,,,,,wg-a,,,,AAXX 24214 07790 12/62 03002 10220 20190 30145 40159 53001 60006 80000 92100=
07790,1997-08-25 00:00:00,21,1015.7,-0.2,73,16,12000,11.112,,,220,,,,,,,,,,,wg-a,,,,AAXX 25004 07790 12/62 02206 10210 20160 30143 40157 58002 60006 80000 90000=
07790,1997-08-25 03:00:00,20,1014.9,-0.8,68,14,12000,7.408,,,230,,,,,,,,,,,wg-a,,,,AAXX 25034 07790 12/62 02304 10200 20140 30135 40149 56008 60006 80000 90300=
07790,1997-08-25 06:00:00,21,1014.8,-0.1,64,14,15000,7.408,,,230,19.3,25.7,,,,,,,,,wg-a,,,,AAXX 25064 07790 02/65 02304 10210 20140 30134 40148 58001 60006 80000 90600 333 10257 20193 60004=
07790,1997-08-25 09:00:00,28,1014.9,0.1,51,17,15000,11.112,,,120,,,,,,,,,,,wg-a,,,,AAXX 25094 07790 12/65 01206 10280 20170 30135 40149 53001 60006 80000 90900=
07790,1997-08-25 12:00:00,29,1014.3,-0.6,45,16,11000,14.816,,,110,,,,,,,,,,,wg-a,,,,AAXX 25124 07790 12/61 /1108 10290 20160 30129 40143 57006 60006 91200=
07790,1997-08-25 15:00:00,28,1012.9,-1.4,55,18,9000,14.816,,,130,,,,,,,,,,,wg-a,,,,AAXX 25154 07790 12/59 /1308 10280 20180 30115 40129 56014 60006 80000 91500=
07790,1997-08-25 18:00:00,26,1012.3,-0.6,65,19,9000,0,,,0,20.9,29.4,,,,,,,,,wg-a,,,,AAXX 25184 07790 12659 /0000 10260 20190 30109 40123 56006 60006 81501 91800 333 10294 20209=
07790,1997-08-26 00:00:00,20,1012.4,-0.4,78,16,20000,7.408,,,220,,,,,,,,,,,wg-a,,,,AAXX 26004 07790 12/70 02204 10200 20160 30110 40124 58004 60006 80000 90000=
07790,1997-08-26 03:00:00,19,1011.4,-1,78,15,20000,7.408,,,240,,,,,,,,,,,wg-a,,,,AAXX 26034 07790 12/70 32404 10190 20150 30100 40114 56010 60006 80001 90300=
07790,1997-08-26 06:00:00,21,1011.7,0.3,64,14,18000,7.408,,,230,18.9,25.6,,,,,,,,17,wg-a,,,,AAXX 26064 07790 02568 72304 10210 20140 30103 40117 51003 60006 71791 8398/ 90600 333 10256 20189 60004=
07790,1997-08-26 09:00:00,27,1011.7,0,54,17,12000,3.704,,,130,,,,,,,,,,1,wg-a,,,,AAXX 26094 07790 12462 /1302 10270 20170 30103 40117 50000 60006 70192 82380 90900=
07790,1997-08-26 12:00:00,24,1011.5,-0.2,78,20,8000,3.704,,,180,,,,1,,,,,,80,wg-a,,,,AAXX 26124 07790 02558 81802 10240 20200 30101 40115 58002 60016 78098 8298/ 91200 333 60017=
07790,1997-08-26 18:00:00,24,1010.8,-0.4,69,18,12000,3.704,,,140,21,27.6,,,,,,,,1,wg-a,,,,AAXX 26184 07790 12462 51402 10240 20180 30094 40108 55004 60006 70196 83360 91800 333 10276 20210=
07790,1997-08-26 21:00:00,21,1011.1,0.3,88,19,15000,7.408,,,260,,,,,,,,,,,wg-a,,,,AAXX 26214 07790 12/65 22604 10210 20190 30097 40111 53003 60006 82060 92100=
07790,1997-08-27 00:00:00,21,1010.2,-0.9,78,17,11000,14.816,,,250,,,,,,,,,,,wg-a,,,,AAXX 27004 07790 12/61 /2508 10210 20170 30088 40102 58009 60006 90000=
07790,1997-08-27 06:00:00,21,1010.8,0.7,78,17,15000,18.52,,,230,19.3,23.8,,,,,1,,,,wg-a,,,,AAXX 27064 07790 02565 32310 10210 20170 30094 40108 51007 60006 81283 90600 333 10238 20193 60014=
07790,1997-08-27 09:00:00,27,1011.7,0.9,58,18,20000,11.112,,,130,,,,,,,,,,,wg-a,,,,AAXX 27094 07790 12570 31306 10270 20180 30103 40117 53009 60006 82830 90900=
07790,1997-08-27 12:00:00,27,1011.2,-0.5,62,19,20000,14.816,,,110,,,,,,,,,,,wg-a,,,,AAXX 27124 07790 12570 51108 10270 20190 30098 40112 58005 60006 84330 91200=
07790,1997-08-27 15:00:00,26,1011.3,0.1,70,20,20000,7.408,,,130,,,,3,,,,,,3,wg-a,,,,AAXX 27154 07790 12570 /1304 10260 20200 30099 40113 50001 60037 70386 84830 91500=
07790,1997-08-27 18:00:00,24,1011.2,-0.1,83,21,20000,0,,,0,21.2,27.9,,,,,,,,1,wg-a,,,,AAXX 27184 07790 02570 50000 10240 20210 30098 40112 55001 60006 70186 84831 91800 333 10279 20212 61000=
07790,1997-08-27 21:00:00,22,1012.1,0.9,88,20,20000,3.704,,,250,,,,,,,,,,,wg-a,,,,AAXX 27214 07790 12570 32502 10220 20200 30107 40121 51009 60006 83800 92100=
07790,1997-08-28 00:00:00,20,1011.6,-0.5,88,18,20000,7.408,,,250,,,,,,,,,,,wg-a,,,,AAXX 28004 07790 12/70 02504 10200 20180 30102 40116 58005 60006 80000 90000=
07790,1997-08-28 06:00:00,20,1010,-0.5,88,18,15000,7.408,,,230,19,24.2,,,,,4,,,,wg-a,,,,AAXX 28064 07790 02565 32304 10200 20180 30086 40100 57005 60006 81132 90600 333 10242 20190 60044=
07790,1997-08-28 09:00:00,26,1008.8,-1.2,74,21,20000,14.816,,,150,,,,,,,,,,,wg-a,,,,AAXX 28094 07790 12570 /1508 10260 20210 30074 40088 57012 60006 81802 90900=
07790,1997-08-28 12:00:00,29,1007.9,-0.9,62,21,25000,14.816,,,20,,,,,,,,,,,wg-a,,,,AAXX 28124 07790 12575 50208 10290 20210 30065 40079 58009 60006 81232 91200=
07790,1997-08-28 15:00:00,28,1007.7,-0.2,62,20,11000,25.928,,,10,,,,,,,,,,,wg-a,,,,AAXX 28154 07790 12/61 /0114 10280 20200 30063 40077 55002 60006 91500=
07790,1997-08-28 18:00:00,24,1007.8,0.1,61,16,15000,11.112,,40.744,280,20.1,29.9,,0,,,,,,1,wg-a,,,,AAXX 28184 07790 02565 52806 10240 20160 30064 40078 53001 60006 70186 83863 91800 333 10299 20201 60007 91022=
07790,1997-08-28 21:00:00,22,1009.6,1.8,50,11,15000,3.704,,57.412,60,,,,,,,,,,,wg-a,,,,AAXX 28214 07790 12565 40602 10220 20110 30082 40096 53018 60006 83881 92100 333 91031=
07790,1997-08-29 00:00:00,20,1009.3,-0.3,53,10,15000,11.112,,57.412,110,,,,,,,,,,,wg-a,,,,AAXX 29004 07790 12665 21106 10200 20100 30079 40093 56003 60006 81130 90000 333 91031=
07790,1997-08-29 03:00:00,20,1009.2,-0.1,46,8,15000,3.704,,,60,,,,,,,,,,13,wg-a,,,,AAXX 29034 07790 12665 20602 10200 20080 30078 40092 55001 60006 71300 81930 90300=
07790,1997-08-29 06:00:00,22,1010.8,1.6,38,7,25000,3.704,,,70,19.4,24.9,,,,,,,,,wg-a,,,,AAXX 29064 07790 02675 /0702 10220 20070 30094 40108 51016 60006 81240 90600 333 10249 20194 60004=
07790,1997-08-29 09:00:00,26,1012.2,1.4,30,7,25000,11.112,,,140,,,,,,,,,,,wg-a,,,,AAXX 29094 07790 12675 /1406 10260 20070 30108 40122 53014 60006 81200 90900=
07790,1997-08-29 12:00:00,27,1012.5,0.3,32,9,25000,7.408,,,280,,,,,,,,,,,wg-a,,,,AAXX 29124 07790 12575 /2804 10270 20090 30111 40125 53003 60006 81270 91200=
07790,1997-08-29 15:00:00,26,1014.1,1.6,34,9,500,35.188,,,300,,,,,,,,,,,wg-a,,,,AAXX 29154 07790 12500 23019 10260 20090 30127 40141 53016 60006 82202 91500=
07790,1997-08-29 18:00:00,24,1015.1,1,34,7,20000,9.26,,,90,22.2,29,,,,,,,,,wg-a,,,,AAXX 29184 07790 12570 20905 10240 20070 30137 40151 51010 60006 81201 91800 333 10290 20222=
07790,1997-08-30 00:00:00,19,1016.8,0,52,9,500,14.816,,,260,,,,,,,,,,,wg-a,,,,AAXX 30004 07790 12/00 02608 10190 20090 30154 40168 50000 60006 80000 90000=
07790,1997-08-30 03:00:00,20,1016.8,-0,49,9,500,11.112,,,270,,,,,,,,,,,wg-a,,,,AAXX 30034 07790 12/00 02706 10200 20090 30154 40168 55000 60006 80000 90300=
07790,1997-08-30 06:00:00,20,1017.3,,49,9,500,11.112,,,220,,,,,,,,,,,wg-a,,,,AAXX 30064 07790 12/00 /2206 10200 20090 30159 40173 60006 90600=
07790,1997-08-30 09:00:00,26,1017.4,,39,11,500,14.816,,,110,,,,,,,,,,,wg-a,,,,AAXX 30094 07790 32/00 21108 10260 20110 30160 40174 80004 90900=
07790,1997-08-30 12:00:00,27,1017.5,-0.1,39,12,500,18.52,,,140,,,,,,,,,,,wg-a,,,,AAXX 30124 07790 12600 21410 10270 20120 30161 40175 58001 60006 82100 91200=
07790,1997-08-30 15:00:00,26,1017.6,0.1,48,14,500,7.408,,,70,,,,,,,,,,,wg-a,,,,AAXX 30154 07790 12600 30704 10260 20140 30162 40176 53001 60006 83100 91500=
07790,1997-08-30 18:00:00,23,1017.5,-0.1,57,14,500,7.408,,,340,18.7,27.6,,,,,,,,,wg-a,,,,AAXX 30184 07790 12600 13404 10230 20140 30161 40175 55001 60006 81500 91800 333 10276 20187=
07790,1997-08-30 21:00:00,21,1017.7,0.2,69,15,20000,3.704,,,160,,,,,,,,,,,wg-a,,,,AAXX 30214 07790 12/70 01602 10210 20150 30163 40177 50002 60006 80000 92100=
07790,1997-08-31 00:00:00,19,1018,0.3,68,13,20000,3.704,,,220,,,,,,,,,,,wg-a,,,,AAXX 31004 07790 12/70 02202 10190 20130 30166 40180 51003 60006 80000 90000=
07790,1997-08-31 03:00:00,19,1017.9,-0.1,68,13,10000,3.704,,,230,,,,,,,,,,,wg-a,,,,AAXX 31034 07790 12/60 12302 10190 20130 30165 40179 58001 60006 90300=
07790,1997-08-31 06:00:00,20,1018.4,0.5,60,12,10000,5.556,,,230,17.1,23.1,,,,,,,,,wg-a,,,,AAXX 31064 07790 02/60 /2303 10200 20120 30170 40184 52005 60006 90600 333 10231 20171 60004=
07790,1997-08-31 09:00:00,25,1019.1,0.7,61,17,40000,14.816,,,140,,,,,,,,,,,wg-a,,,,AAXX 31094 07790 12/82 01408 10250 20170 30177 40191 53007 60006 80000 90900=
07790,1997-08-31 12:00:00,27,1019.1,-0,58,18,40000,18.52,,,140,,,,,,,,,,,wg-a,,,,AAXX 31124 07790 12682 /1410 10270 20180 30177 40191 55000 60006 81100 91200=
07790,1997-08-31 15:00:00,27,1018.4,-0.7,58,18,40000,18.52,,,150,,,,,,,,,,,wg-a,,,,AAXX 31154 07790 12582 /1510 10270 20180 30170 40184 56007 60006 81100 91500=
07790,1997-08-31 18:00:00,24,1018.2,-0.2,69,18,10000,11.112,,,190,19.9,27.6,,,,,,,,,wg-a,,,,AAXX 31184 07790 12/60 /1906 10240 20180 30168 40182 55002 60006 91800 333 10276 20199=
07790,1997-08-31 21:00:00,20,1018.5,0.3,88,18,20000,7.408,,,300,,,,,,,,,,,wg-a,,,,AAXX 31214 07790 12/70 03004 10200 20180 30171 40185 51003 60006 80000 92100=
07790,1997-09-01 00:00:00,19,1018.9,0.4,88,17,20000,3.704,,,240,,,,,,,,,,,wg-a,,,,AAXX 01004 07790 12/70 02402 10190 20170 30175 40189 51004 60006 80000 90000=
07790,1997-09-01 03:00:00,19,1018.3,-0.6,83,16,20000,3.704,,,270,,,,,,,,,,,wg-a,,,,AAXX 01034 07790 12/70 02702 10190 20160 30169 40183 56006 60006 80000 90300=
07790,1997-09-01 05:00:00,20,1018.6,0.3,83,17,20000,3.704,,,250,18.1,24,,,,,,,,,wg-a,,,,AAXX 01054 07790 02/70 02502 10200 20170 30172 40186 53003 60006 80000 90500 333 10240 20181 60004=
07790,1997-09-01 06:00:00,20,1018.6,0.3,83,17,20000,3.704,,,250,18.1,24,,,,,,,,,wg-a,,,,AAXX 01064 07790 02/70 02502 10200 20170 30172 40186 53003 60006 80000 90600 333 10240 20181 60004=
07790,1997-09-01 09:00:00,27,1018.9,0.3,54,17,500,11.112,,,110,,,,,,,,,,,wg-a,,,,AAXX 01094 07790 12/00 01106 10270 20170 30175 40189 51003 60006 80000 90900=
07790,1997-09-01 12:00:00,29,1018.2,-0.7,45,16,500,14.816,,,130,,,,,,,,,,,wg-a,,,,AAXX 01124 07790 12500 /1308 10290 20160 30168 40182 58007 60006 81100 91200=
07790,1997-09-01 15:00:00,27,1017.5,-0.7,58,18,500,14.816,,,130,,,,,,,,,,,wg-a,,,,AAXX 01154 07790 12500 /1308 10270 20180 30161 40175 58007 60006 81101 91500=
07790,1997-09-01 18:00:00,25,1017.5,-0,57,16,500,3.704,,,150,20,28.7,,,,,,,,,wg-a,,,,AAXX 01184 07790 12/00 31502 10250 20160 30161 40175 55000 60006 81034 91800 333 10287 20200=
07790,1997-09-01 21:00:00,21,1017.8,0.3,83,18,25000,3.704,,,300,,,,,,,,,,,wg-a,,,,AAXX 01214 07790 12/75 43002 10210 20180 30164 40178 52003 60006 81034 92100=
07790,1997-09-02 00:00:00,21,1017.2,-0.6,78,17,25000,7.408,,,230,,,,,,,,,,,wg-a,,,,AAXX 02004 07790 12/75 22304 10210 20170 30158 40172 58006 60006 80002 90000=
07790,1997-09-02 03:00:00,20,1016.7,-0.5,78,16,25000,7.408,,,240,,,,,,,,,,,wg-a,,,,AAXX 02034 07790 12/75 02404 10200 20160 30153 40167 57005 60006 80000 90300=
07790,1997-09-02 06:00:00,21,1017.2,0.5,78,17,35000,7.408,,,210,18.8,24.6,,,,,,,,,wg-a,,,,AAXX 02064 07790 02/81 22104 10210 20170 30158 40172 53005 60006 81081 90600 333 10246 20188 60004=
07790,1997-09-02 09:00:00,28,1017.8,0.6,55,18,35000,7.408,,,130,,,,,,,,,,,wg-a,,,,AAXX 02094 07790 12/81 31304 10280 20180 30164 40178 53006 60006 81081 90900=
07790,1997-09-02 12:00:00,29,1017.2,-0.6,45,16,35000,18.52,,,140,,,,,,,,,,,wg-a,,,,AAXX 02124 07790 12681 41410 10290 20160 30158 40172 56006 60006 81281 91200=
07790,1997-09-02 18:00:00,24,1016.4,-0.4,83,21,25000,3.704,,,130,21.4,29.8,,,,,,,,,wg-a,,,,AAXX 02184 07790 12575 71302 10240 20210 30150 40164 56004 60006 81172 91800 333 10298 20214=
07790,1997-09-02 21:00:00,24,1016.8,0.4,78,20,25000,3.704,,,160,,,,,,,,,,,wg-a,,,,AAXX 02214 07790 12575 71602 10240 20200 30154 40168 51004 60006 81172 92100=
07790,1997-09-03 00:00:00,22,1016.8,0,83,19,25000,3.704,,,260,,,,,,,,,,,wg-a,,,,AAXX 03004 07790 12575 72602 10220 20190 30154 40168 50000 60006 81572 90000=
07790,1997-09-03 03:00:00,22,1016.1,-0.7,78,18,25000,11.112,,,230,,,,,,,,,,,wg-a,,,,AAXX 03034 07790 12575 72306 10220 20180 30147 40161 58007 60006 81572 90300=
07790,1997-09-03 06:00:00,21,1016.3,0.2,78,17,40000,14.816,,,250,20.5,24.3,,,,,,,,,wg-a,,,,AAXX 03064 07790 02582 /2508 10210 20170 30149 40163 53002 60006 81582 90600 333 10243 20205 60004=
07790,1997-09-03 09:00:00,26,1017.3,1,51,15,40000,7.408,,,40,,,,,,,,,,,wg-a,,,,AAXX 03094 07790 12682 /0404 10260 20150 30159 40173 51010 60006 81138 90900=
07790,1997-09-03 12:00:00,27,1016.1,-1.2,54,17,40000,14.816,,,20,,,,,,,,,,,wg-a,,,,AAXX 03124 07790 12682 /0208 10270 20170 30147 40161 58012 60006 81188 91200=
07790,1997-09-03 18:00:00,25,1016.8,0.4,61,17,40000,7.408,,,210,21.1,27,,,,,,,,,wg-a,,,,AAXX 03184 07790 12582 /2104 10250 20170 30154 40168 53004 60006 81832 91800 333 10270 20211=
07790,1997-09-03 21:00:00,22,1017.2,0.4,65,15,35000,7.408,,,240,,,,,,,,,,13,wg-a,,,,AAXX 03214 07790 12581 /2404 10220 20150 30158 40172 51004 60006 71322 81932 92100=
07790,1997-09-04 00:00:00,22,1017,-0.2,73,17,500,11.112,,,300,,,,1,,,,,,1,wg-a,,,,AAXX 04004 07790 02500 43006 10220 20170 30156 40170 58002 60016 70186 81532 90000 333 60017=
07790,1997-09-04 03:00:00,20,1016.4,-0.6,73,15,500,7.408,,,240,,,,,,,,,,,wg-a,,,,AAXX 04034 07790 12500 22404 10200 20150 30150 40164 58006 60006 81532 90300=
07790,1997-09-04 06:00:00,21,1017.1,0.7,69,15,10000,11.112,,,240,19.5,24.9,,,,,1,,,,wg-a,,,,AAXX 04064 07790 02660 /2406 10210 20150 30157 40171 53007 60006 81134 90600 333 10249 20195 60014=
07790,1997-09-04 15:00:00,28,1017.1,-0.7,55,18,12000,7.408,,,110,,,,,,,,,,,wg-a,,,,AAXX 04154 07790 12662 /1104 10280 20180 30157 40171 56007 60006 81102 91500=
07790,1997-09-04 18:00:00,25,1017.4,0.3,79,21,7000,0,,,0,21.2,28.2,,,,,,,,11,wg-a,,,,AAXX 04184 07790 12/57 10000 10250 20210 30160 40174 53003 60006 71100 80001 91800 333 10282 20212=
07790,1997-09-04 21:00:00,21,1018.3,0.9,78,17,15000,3.704,,,260,,,,,,,,,,,wg-a,,,,AAXX 04214 07790 12565 /2602 10210 20170 30169 40183 51009 60006 81500 92100=
07790,1997-09-05 00:00:00,20,1018.9,0.6,68,14,15000,7.408,,,240,,,,,,,,,,,wg-a,,,,AAXX 05004 07790 12465 22404 10200 20140 30175 40189 51006 60006 81602 90000=
07790,1997-09-05 03:00:00,19,1018.6,-0.3,68,13,18000,7.408,,,240,,,,,,,,,,,wg-a,,,,AAXX 05034 07790 12468 /2404 10190 20130 30172 40186 57003 60006 81600 90300=
07790,1997-09-05 06:00:00,21,1019.3,0.7,56,12,25000,11.112,,,230,18.6,24.9,,,,,,,,,wg-a,,,,AAXX 05064 07790 02/75 02306 10210 20120 30179 40193 53007 60006 80000 90600 333 10249 20186 60004=
07790,1997-09-05 09:00:00,28,1020.1,0.8,55,18,20000,11.112,,,140,,,,,,,,,,,wg-a,,,,AAXX 05094 07790 12670 11406 10280 20180 30187 40201 51008 60006 81100 90900=
07790,1997-09-05 12:00:00,30,1019.8,-0.3,49,18,20000,14.816,,,120,,,,,,,,,,,wg-a,,,,AAXX 05124 07790 12670 /1208 10300 20180 30184 40198 55003 60006 81100 91200=
07790,1997-09-05 15:00:00,27,1019.5,-0.3,70,21,15000,7.408,,,110,,,,,,,,,,,wg-a,,,,AAXX 05154 07790 12665 /1104 10270 20210 30181 40195 58003 60006 81100 91500=
07790,1997-09-05 18:00:00,25,1019.5,-0,79,21,9000,3.704,,,150,20.6,30.3,,,,,,,,,wg-a,,,,AAXX 05184 07790 12/59 11502 10250 20210 30181 40195 55000 60006 81030 91800 333 10303 20206=
07790,1997-09-05 21:00:00,21,1020.6,1.1,78,17,15000,3.704,,,300,,,,,,,,,,,wg-a,,,,AAXX 05214 07790 12/65 03002 10210 20170 30192 40206 51011 60006 80000 92100=
07790,1997-09-06 00:00:00,20,1020.4,-0.2,78,16,10000,7.408,,,270,,,,,,,,,,,wg-a,,,,AAXX 06004 07790 12/60 /2704 10200 20160 30190 40204 56002 60006 90000=
07790,1997-09-06 03:00:00,20,1020.5,0.1,83,17,11000,7.408,,,240,,,,,,,,,,,wg-a,,,,AAXX 06034 07790 12/61 /2404 10200 20170 30191 40205 50001 60006 90300=
07790,1997-09-06 06:00:00,21,1020.8,0.3,73,16,10000,7.408,,,230,19.3,25,,,,,,,,11,wg-a,,,,AAXX 06064 07790 02/60 02304 10210 20160 30194 40208 53003 60006 71100 80000 90600 333 10250 20193 60004=
07790,1997-09-06 09:00:00,27,1021.2,0.4,70,21,12000,11.112,,,70,,,,,,,,,,,wg-a,,,,AAXX 06094 07790 12562 /0706 10270 20210 30198 40212 53004 60006 81100 90900=
07790,1997-09-06 12:00:00,27,1021.1,-0.1,70,21,10000,11.112,,,40,,,,,,,,,,,wg-a,,,,AAXX 06124 07790 12560 /0406 10270 20210 30197 40211 58001 60006 81200 91200=
07790,1997-09-06 18:00:00,25,1019.9,-0.2,74,20,6000,3.704,,,110,20.9,28.8,,,,,,,,,wg-a,,,,AAXX 06184 07790 12/56 01102 10250 20200 30185 40199 57002 60006 80000 91800 333 10288 20209=
07790,1997-09-06 21:00:00,21,1020.5,0.6,83,18,18000,3.704,,,270,,,,,,,,,,,wg-a,,,,AAXX 06214 07790 12568 /2702 10210 20180 30191 40205 51006 60006 81500 92100=
07790,1997-09-07 00:00:00,19,1020.4,-0.1,83,16,18000,3.704,,,290,,,,,,,,,,,wg-a,,,,AAXX 07004 07790 12568 /2902 10190 20160 30190 40204 58001 60006 81500 90000=
07790,1997-09-07 03:00:00,20,1020.2,-0.2,73,15,18000,11.112,,,230,,,,,,,,,,,wg-a,,,,AAXX 07034 07790 12568 /2306 10200 20150 30188 40202 56002 60006 81500 90300=
07790,1997-09-07 06:00:00,20,1020.8,0.6,73,15,8000,11.112,,,240,19.1,25.2,,,,,,,,,wg-a,,,,AAXX 07064 07790 02458 /2406 10200 20150 30194 40208 53006 60006 81600 90600 333 10252 20191 60004=
07790,1997-09-07 09:00:00,28,1021,0.2,55,18,10000,7.408,,,100,,,,,,,,,,,wg-a,,,,AAXX 07094 07790 12/60 01004 10280 20180 30196 40210 53002 60006 80000 90900=
07790,1997-09-07 12:00:00,30,1020.6,-0.4,46,17,10000,11.112,,,90,,,,,,,,,,,wg-a,,,,AAXX 07124 07790 12660 /0906 10300 20170 30192 40206 58004 60006 81200 91200=
07790,1997-09-07 15:00:00,28,1019.9,-0.7,55,18,10000,11.112,,,110,,,,,,,,,,,wg-a,,,,AAXX 07154 07790 12660 /1106 10280 20180 30185 40199 58007 60006 81100 91500=
07790,1997-09-07 18:00:00,25,1019.8,-0.1,74,20,9000,0,,,0,20.4,30.3,,,,,,,,,wg-a,,,,AAXX 07184 07790 12/59 /0000 10250 20200 30184 40198 55001 60006 91800 333 10303 20204=
07790,1997-09-07 21:00:00,22,1020.7,0.9,78,18,20000,7.408,,,230,,,,,,,,,,,wg-a,,,,AAXX 07214 07790 12/70 02304 10220 20180 30193 40207 51009 60006 80000 92100=
07790,1997-09-08 00:00:00,20,1020.4,-0.3,78,16,10000,7.408,,,230,,,,,,,,,,,wg-a,,,,AAXX 08004 07790 12/60 /2304 10200 20160 30190 40204 58003 60006 90000=
07790,1997-09-08 03:00:00,20,1020,-0.4,73,15,20000,7.408,,,220,,,,,,,,,,,wg-a,,,,AAXX 08034 07790 12/70 02204 10200 20150 30186 40200 56004 60006 80000 90300=
07790,1997-09-08 06:00:00,21,1020.6,0.6,73,16,15000,7.408,,,250,19.1,25.1,,,,,,,,,wg-a,,,,AAXX 08064 07790 02/65 72504 10210 20160 30192 40206 52006 60006 8705/ 90600 333 10251 20191 60004=
07790,1997-09-08 12:00:00,29,1020.8,-0.4,55,19,20000,18.52,,,30,,,,,,,,,,,wg-a,,,,AAXX 08124 07790 12670 /0310 10290 20190 30194 40208 56004 60006 81230 91200=
07790,1997-09-08 15:00:00,28,1019.9,-0.9,51,17,20000,14.816,,,30,,,,,,,,,,,wg-a,,,,AAXX 08154 07790 12670 /0308 10280 20170 30185 40199 57009 60006 81230 91500=
07790,1997-09-08 18:00:00,26,1018.8,-1.1,51,15,20000,3.704,,,250,20.6,29.2,,,,,,,,,wg-a,,,,AAXX 08184 07790 12/70 02502 10260 20150 30174 40188 56011 60006 80000 91800 333 10292 20206=
07790,1997-09-08 21:00:00,22,1019.3,0.5,60,14,18000,7.408,,,270,,,,,,,,,,,wg-a,,,,AAXX 08214 07790 12/68 02704 10220 20140 30179 40193 50005 60006 80000 92100=
07790,1997-09-09 03:00:00,20,1018,-0.9,73,15,18000,11.112,,,230,,,,,,,,,,,wg-a,,,,AAXX 09034 07790 12/68 12306 10200 20150 30166 40180 56009 60006 80001 90300=
07790,1997-09-09 06:00:00,21,1017.8,-0.2,69,15,18000,7.408,,,230,18.6,25.5,,,,,,,,,wg-a,,,,AAXX 09064 07790 02/68 02304 10210 20150 30164 40178 56002 60006 80000 90600 333 10255 20186 60004=
07790,1997-09-09 09:00:00,29,1018.2,0.4,40,14,15000,7.408,,,120,,,,,,,,,,,wg-a,,,,AAXX 09094 07790 12/65 01204 10290 20140 30168 40182 51004 60006 80000 90900=
07790,1997-09-09 12:00:00,29,1017.2,-1,48,17,20000,11.112,,,100,,,,,,,,,,,wg-a,,,,AAXX 09124 07790 12/70 01006 10290 20170 30158 40172 58010 60006 80000 91200=
07790,1997-09-09 18:00:00,25,1014.5,-0.9,69,19,12000,0,,,0,20.5,29.7,,,,,,,,,wg-a,,,,AAXX 09184 07790 12/62 00000 10250 20190 30131 40145 56009 60006 80000 91800 333 10297 20205=
07790,1997-09-10 00:00:00,20,1014.3,-0.6,83,17,12000,7.408,,,230,,,,,,,,,,,wg-a,,,,AAXX 10004 07790 12/62 02304 10200 20170 30129 40143 56006 60006 80000 90000=
07790,1997-09-10 03:00:00,20,1013,-1.3,78,16,12000,7.408,,,220,,,,,,,,,,,wg-a,,,,AAXX 10034 07790 12/62 02204 10200 20160 30116 40130 58013 60006 80000 90300=
07790,1997-09-10 06:00:00,20,1014.1,1.1,73,15,9000,7.408,,,230,18.8,25.2,,,,,,,,11,wg-a,,,,AAXX 10064 07790 02459 32304 10200 20150 30127 40141 53011 60006 71100 83500 90600 333 10252 20188 60004=
07790,1997-09-10 09:00:00,27,1014.4,0.3,66,20,9000,14.816,,,130,,,,,,,,,,,wg-a,,,,AAXX 10094 07790 12459 /1308 10270 20200 30130 40144 51003 60006 81100 90900=
07790,1997-09-10 12:00:00,28,1014.7,0.3,62,20,8000,14.816,,,100,,,,,,,,,,,wg-a,,,,AAXX 10124 07790 12558 21008 10280 20200 30133 40147 53003 60006 82200 91200=
07790,1997-09-10 18:00:00,25,1014.9,0.5,74,20,6000,3.704,,,80,19.5,28.2,,,,,,,,11,wg-a,,,,AAXX 10184 07790 12456 40802 10250 20200 30135 40149 53005 60006 71111 84500 91800 333 10282 20195=
07790,1997-09-11 00:00:00,22,1016.8,0.7,88,20,7000,3.704,,,260,,,,,,,,,,,wg-a,,,,AAXX 11004 07790 12657 /2602 10220 20200 30154 40168 51007 60006 86500 90000=
07790,1997-09-11 03:00:00,22,1016.7,-0.1,83,19,7000,7.408,,,240,,,,,,,,,,,wg-a,,,,AAXX 11034 07790 12557 /2404 10220 20190 30153 40167 57001 60006 85500 90300=
07790,1997-09-11 06:00:00,21,1017.2,0.5,88,19,10000,7.408,,,260,20.8,24.6,,,,,,,,,wg-a,,,,AAXX 11064 07790 02460 52604 10210 20190 30158 40172 53005 60006 85200 90600 333 10246 20208 60004=
07790,1997-09-11 09:00:00,24,1018.3,1.1,78,20,10000,14.816,,,30,,,,,,,,,,,wg-a,,,,AAXX 11094 07790 12460 70308 10240 20200 30169 40183 51011 60006 87800 90900=
07790,1997-09-11 12:00:00,25,1017.9,-0.4,74,20,18000,14.816,,,80,,,,,,,,,,,wg-a,,,,AAXX 11124 07790 12568 30808 10250 20200 30165 40179 58004 60006 83200 91200=
07790,1997-09-11 15:00:00,25,1017.2,-0.7,74,20,10000,7.408,,,100,,,,,,,,,,,wg-a,,,,AAXX 11154 07790 12560 71004 10250 20200 30158 40172 56007 60006 87800 91500=
07790,1997-09-11 18:00:00,24,1017.1,-0.1,78,20,9000,3.704,,,140,21.2,25.8,,,,,,,,,wg-a,,,,AAXX 11184 07790 12559 81402 10240 20200 30157 40171 55001 60006 85870 91800 333 10258 20212=
07790,1997-09-12 00:00:00,19,1017.2,-0.2,88,17,18000,3.704,,,240,,,,,,,,,,,wg-a,,,,AAXX 12004 07790 12568 /2402 10190 20170 30158 40172 58002 60006 81500 90000=
07790,1997-09-12 03:00:00,19,1016.9,-0.3,88,17,18000,7.408,,,230,,,,,,,,,,,wg-a,,,,AAXX 12034 07790 12468 32304 10190 20170 30155 40169 58003 60006 83600 90300=
07790,1997-09-12 06:00:00,20,1016.9,-0,83,17,10000,7.408,,,230,18.5,24,,,,,,,,,wg-a,,,,AAXX 12064 07790 02460 22304 10200 20170 30155 40169 55000 60006 82200 90600 333 10240 20185 60004=
07790,1997-09-12 09:00:00,26,1017.1,0.2,65,19,12000,7.408,,,150,,,,,,,,,,1,wg-a,,,,AAXX 12094 07790 12562 31504 10260 20190 30157 40171 50002 60006 70190 82832 90900=
07790,1997-09-12 12:00:00,27,1015.9,-1.2,70,21,15000,18.52,,,120,,,,,,,,,,1,wg-a,,,,AAXX 12124 07790 12565 21210 10270 20210 30145 40159 58012 60006 70190 82201 91200=
07790,1997-09-12 18:00:00,24,1014.8,-0.6,83,21,9000,3.704,,,160,19.6,27.8,,,,,,,,1,wg-a,,,,AAXX 12184 07790 02559 21602 10240 20210 30134 40148 56006 61000 70198 82530 91800 333 10278 20196 ////=
07790,1997-09-12 21:00:00,21,1015.4,0.6,88,19,12000,11.112,,,230,,,,,,,,,,,wg-a,,,,AAXX 12214 07790 12/62 02306 10210 20190 30140 40154 51006 60006 80000 92100=
07790,1997-09-13 00:00:00,20,1014.8,-0.6,88,18,15000,3.704,,,240,,,,,,,,,,,wg-a,,,,AAXX 13004 07790 12/65 02402 10200 20180 30134 40148 56006 60006 80000 90000=
07790,1997-09-13 03:00:00,20,1013.7,-1.1,83,17,15000,11.112,,,220,,,,,,,,,,,wg-a,,,,AAXX 13034 07790 12565 /2206 10200 20170 30123 40137 56011 60006 81500 90300=
07790,1997-09-13 06:00:00,19,1013.5,-0.2,83,16,9000,7.408,,,220,18.4,23.8,,,,,11,,,11,wg-a,,,,AAXX 13064 07790 02559 /2204 10190 20160 30121 40135 55002 60006 71100 81500 90600 333 10238 20184 60114=
07790,1997-09-13 09:00:00,26,1014,0.5,74,21,9000,11.112,,,140,,,,,,,,,,,wg-a,,,,AAXX 13094 07790 12/59 /1406 10260 20210 30126 40140 52005 60006 80001 90900=
07790,1997-09-13 12:00:00,27,1012.9,-1.1,74,22,9000,11.112,,,120,,,,,,,,,,,wg-a,,,,AAXX 13124 07790 12559 71206 10270 20220 30115 40129 56011 60006 82282 91200=
07790,1997-09-13 15:00:00,26,1012.1,-0.8,74,21,9000,11.112,,,100,,,,,,,,,,,wg-a,,,,AAXX 13154 07790 12559 /1006 10260 20210 30107 40121 58008 60006 82282 91500=
07790,1997-09-13 18:00:00,25,1011.4,-0.7,79,21,8000,3.704,,,10,18.9,28.1,,,,,,,,,wg-a,,,,AAXX 13184 07790 12558 70102 10250 20210 30100 40114 56007 60006 8158/ 91800 333 10281 20189=
07790,1997-09-14 00:00:00,22,1012,0,83,19,15000,3.704,,,280,,,,,,,,,,,wg-a,,,,AAXX 14004 07790 12565 52802 10220 20190 30106 40120 50000 60006 82531 90000=
07790,1997-09-14 03:00:00,21,1010.9,-1.1,88,19,15000,3.704,,,260,,,,,,,,,,13,wg-a,,,,AAXX 14034 07790 02465 82602 10210 20190 30095 40109 55011 61000 71362 83772 90300 333 ////=
07790,1997-09-14 06:00:00,22,1010.8,-0.1,78,18,11000,7.408,,,240,21.1,24.7,,,,,,,,,wg-a,,,,AAXX 14064 07790 02/61 /2404 10220 20180 30094 40108 56001 60006 90600 333 10247 20211 61000=
07790,1997-09-14 12:00:00,28,1012.6,0.5,51,17,11000,7.408,,,170,,,,,,,,,,,wg-a,,,,AAXX 14124 07790 12/61 /1704 10280 20170 30112 40126 52005 60006 91200=
07790,1997-09-14 15:00:00,26,1013.5,0.9,54,16,20000,11.112,,,160,,,,,,,,,,,wg-a,,,,AAXX 14154 07790 12570 61606 10260 20160 30121 40135 50009 60006 85881 91500=
07790,1997-09-14 18:00:00,23,1015.1,1.6,65,16,11000,3.704,,,310,21.7,29.3,,,,,,,,,wg-a,,,,AAXX 14184 07790 12/61 /3102 10230 20160 30137 40151 53016 60006 91800 333 10293 20217=
07790,1997-09-14 21:00:00,21,1017.5,2.4,64,14,20000,7.408,,,320,,,,,,,,,,,wg-a,,,,AAXX 14214 07790 12670 43204 10210 20140 30161 40175 51024 60006 84540 92100=
07790,1997-09-15 00:00:00,20,1018.2,0.7,73,15,0,7.408,,,260,,,,,,,,,,,wg-a,,,,AAXX 15004 07790 12/// /2604 10200 20150 30168 40182 51007 60006 90000=
07790,1997-09-15 03:00:00,20,1018.7,0.5,78,16,20000,7.408,,,280,,,,,,,,,,,wg-a,,,,AAXX 15034 07790 12570 42804 10200 20160 30173 40187 53005 60006 84800 90300=
07790,1997-09-15 06:00:00,20,1019.8,1.1,73,15,25000,18.52,,,330,18.6,22.7,,,,,,,,25,wg-a,,,,AAXX 15064 07790 02575 73310 10200 20150 30184 40198 51011 61000 72586 878// 90600 333 10227 20186 6100=
07790,1997-09-15 09:00:00,22,1021.9,2.1,60,14,45000,22.224,,,20,,,,0,,,,,,1,wg-a,,,,AAXX 15094 07790 12583 30212 10220 20140 30205 40219 51021 60007 70186 83831 90900=
07790,1997-09-15 12:00:00,24,1022.1,0.2,47,12,45000,18.52,,,20,,,,,,,,,,1,wg-a,,,,AAXX 15124 07790 12583 30210 10240 20120 30207 40221 50002 60006 70186 81101 91200=
07790,1997-09-15 18:00:00,22,1021.3,-0,53,12,500,11.112,,,10,20.3,24.9,,,,,,,,,wg-a,,,,AAXX 15184 07790 12500 /0106 10220 20120 30199 40213 55000 60006 81101 91800 333 10249 20203=
07790,1997-09-15 21:00:00,21,1022.6,1.3,53,11,20000,18.52,,,40,,,,,,,,,,,wg-a,,,,AAXX 15214 07790 12670 20410 10210 20110 30212 40226 51013 60006 81131 92100=
07790,1997-09-16 00:00:00,19,1023,0.4,60,11,11000,11.112,,,20,,,,,,,,,,,wg-a,,,,AAXX 16004 07790 12/61 /0206 10190 20110 30216 40230 51004 60006 90000=
07790,1997-09-16 03:00:00,17,1021.8,-1.2,59,9,20000,3.704,,,280,,,,,,,,,,,wg-a,,,,AAXX 16034 07790 12/70 22802 10170 20090 30204 40218 58012 60006 80001 90300=
07790,1997-09-16 06:00:00,16,1022.6,0.8,68,10,25000,7.408,,,260,16.4,21.8,,,,,,,,,wg-a,,,,AAXX 16064 07790 02675 42604 10160 20100 30212 40226 53008 60006 81131 90600 333 10218 20164 60004=
07790,1997-09-16 15:00:00,23,1021.5,-1,47,11,25000,11.112,,,50,,,,,,,,,,,wg-a,,,,AAXX 16154 07790 12/75 30506 10230 20110 30201 40215 56010 60006 82082 91500=
07790,1997-09-16 18:00:00,19,1021.6,0.1,60,11,25000,7.408,,,270,16.3,23.3,,,,,,,,,wg-a,,,,AAXX 16184 07790 12/75 /2704 10190 20110 30202 40216 52001 60006 81082 91800 333 10233 20163=
07790,1997-09-16 21:00:00,17,1022.2,0.6,63,10,25000,7.408,,,250,,,,,,,,,,,wg-a,,,,AAXX 16214 07790 12/75 /2504 10170 20100 30208 40222 51006 60006 81030 92100=
07790,1997-09-17 00:00:00,16,1022.2,0,68,10,25000,7.408,,,240,,,,,,,,,,,wg-a,,,,AAXX 17004 07790 12/75 /2404 10160 20100 30208 40222 50000 60006 81030 90000=
07790,1997-09-17 06:00:00,15,1022.3,0.5,77,11,500,7.408,,,240,14.5,18.9,,,,,,,,,wg-a,,,,AAXX 17064 07790 02/00 /2404 10150 20110 30209 40223 53005 60006 81031 90600 333 10189 20145 60004=
07790,1997-09-17 12:00:00,23,1022.8,-0.4,50,12,500,11.112,,,10,,,,,,,,,,,wg-a,,,,AAXX 17124 07790 12600 /0106 10230 20120 30214 40228 58004 60006 81101 91200=
07790,1997-09-17 15:00:00,23,1021.9,-0.9,53,13,25000,11.112,,,50,,,,,,,,,,,wg-a,,,,AAXX 17154 07790 12675 /0506 10230 20130 30205 40219 56009 60006 81100 91500=
07790,1997-09-17 18:00:00,20,1022.6,0.7,64,13,20000,3.704,,,270,15.2,23.9,,,,,,,,,wg-a,,,,AAXX 17184 07790 12570 /2702 10200 20130 30212 40226 53007 60006 81500 91800 333 10239 20152=
07790,1997-09-18 00:00:00,15,1023.3,0.1,82,12,20000,7.408,,,240,,,,,,,,,,,wg-a,,,,AAXX 18004 07790 12/70 02404 10150 20120 30219 40233 52001 60006 80000 90000=
07790,1997-09-18 06:00:00,,1025.1,0.7,,,200,3.704,,,210,9.2,20.1,,0,,,,,,42,wg-a,,,,AAXX 18064 07790 02002 22102 1//// 2//// 40251 53007 60004 74240 82630 90600 333 10201 20092 60007=
07790,1997-09-18 09:00:00,25,1022.9,0.2,41,11,500,3.704,,,100,,,,,,,,,,,wg-a,,,,AAXX 18094 07790 12/00 01002 10250 20110 30215 40229 51002 60006 80000 90900=
07790,1997-09-18 12:00:00,26,1022.2,-0.7,48,14,500,11.112,,,110,,,,,,,,,,4,wg-a,,,,AAXX 18124 07790 12/00 11106 10260 20140 30208 40222 58007 60006 70400 80001 91200=
07790,1997-09-18 15:00:00,26,1021,-1.2,51,15,500,7.408,,,110,,,,,,,,,,,wg-a,,,,AAXX 18154 07790 12/00 11104 10260 20150 30196 40210 56012 60006 80002 91500=
07790,1997-09-18 18:00:00,21,1021.2,0.2,69,15,10000,3.704,,,260,16.8,26.7,,,,,,,,,wg-a,,,,AAXX 18184 07790 12/60 22602 10210 20150 30198 40212 53002 60006 80002 91800 333 10267 20168=
07790,1997-09-19 00:00:00,17,1021.6,-0.2,68,11,25000,11.112,,,230,,,,,,,,,,,wg-a,,,,AAXX 19004 07790 12/75 02306 10170 20110 30202 40216 56002 60006 80000 90000=
07790,1997-09-19 03:00:00,17,1021.1,-0.5,68,11,25000,11.112,,,240,,,,,,,,,,,wg-a,,,,AAXX 19034 07790 12/75 02406 10170 20110 30197 40211 55005 60006 80000 90300=
07790,1997-09-19 06:00:00,17,1021.3,0.2,59,9,50000,14.816,,,240,16.1,21.1,,,,,,,,,wg-a,,,,AAXX 19064 07790 02/84 02408 10170 20090 30199 40213 53002 60006 80000 90600 333 10211 20161 60004=
07790,1997-09-19 09:00:00,25,1021.9,0.6,47,13,500,7.408,,,60,,,,,,,,,,,wg-a,,,,AAXX 19094 07790 12/00 00604 10250 20130 30205 40219 51006 60006 80000 90900=
07790,1997-09-19 12:00:00,26,1020.9,-1,51,15,500,14.816,,,120,,,,,,,,,,,wg-a,,,,AAXX 19124 07790 12600 /1208 10260 20150 30195 40209 57010 60006 81100 91200=
07790,1997-09-19 15:00:00,25,1019.8,-1.1,54,15,500,11.112,,,120,,,,,,,,,,,wg-a,,,,AAXX 19154 07790 12/00 01206 10250 20150 30184 40198 56011 60006 80000 91500=
07790,1997-09-19 18:00:00,22,1019.5,-0.3,65,15,500,0,,,0,17.3,26.4,,,,,,,,,wg-a,,,,AAXX 19184 07790 12600 /0000 10220 20150 30181 40195 55003 60006 81500 91800 333 10264 20173=
07790,1997-09-20 00:00:00,17,1019.5,-0.8,88,15,25000,11.112,,,240,,,,,,,,,,,wg-a,,,,AAXX 20004 07790 12/75 02406 10170 20150 30181 40195 58008 60006 80000 90000=
07790,1997-09-20 03:00:00,18,1019,-0.5,77,14,25000,14.816,,,240,,,,,,,,,,,wg-a,,,,AAXX 20034 07790 12/75 02408 10180 20140 30176 40190 58005 60006 80000 90300=
07790,1997-09-20 06:00:00,19,1019.4,0.4,73,14,20000,18.52,,,240,16.4,21.8,,,,,,,,,wg-a,,,,AAXX 20064 07790 02670 72410 10190 20140 30180 40194 53004 60006 86502 90600 333 10218 20164 60004=
07790,1997-09-20 09:00:00,25,1019.8,0.4,54,15,20000,11.112,,,130,,,,,,,,,,,wg-a,,,,AAXX 20094 07790 12670 21306 10250 20150 30184 40198 52004 60006 82100 90900=
07790,1997-09-20 12:00:00,26,1020,0.2,51,15,20000,11.112,,,100,,,,,,,,,,,wg-a,,,,AAXX 20124 07790 12670 21006 10260 20150 30186 40200 51002 60006 82200 91200=
07790,1997-09-20 15:00:00,23,1019.2,-0.8,69,17,20000,11.112,,,50,,,,,,,,,,,wg-a,,,,AAXX 20154 07790 12570 60506 10230 20170 30178 40192 56008 60006 84801 91500=
07790,1997-09-20 18:00:00,22,1019.2,-0,73,17,15000,3.704,,,10,18.5,26,,,,,,,,,wg-a,,,,AAXX 20184 07790 12565 70102 10220 20170 30178 40192 55000 60006 878// 91800 333 10260 20185=
07790,1997-09-20 21:00:00,19,1020.1,0.9,83,16,12000,7.408,,,210,,,,,,,,,,,wg-a,,,,AAXX 20214 07790 12562 32104 10190 20160 30187 40201 52009 60006 83501 92100=
07790,1997-09-21 00:00:00,17,1020.6,0.5,82,14,12000,7.408,,,240,,,,,,,,,,,wg-a,,,,AAXX 21004 07790 12562 32404 10170 20140 30192 40206 52005 60006 83501 90000=
07790,1997-09-21 06:00:00,17,1020,-0,72,12,12000,11.112,,,220,15.9,22.2,,,,,,,,,wg-a,,,,AAXX 21064 07790 02462 22206 10170 20120 30186 40200 55000 60006 81601 90600 333 10222 20159 60004=
07790,1997-09-21 09:00:00,25,1020.6,0.6,54,15,15000,7.408,,,130,,,,,,,,,,,wg-a,,,,AAXX 21094 07790 12565 41304 10250 20150 30192 40206 52006 60006 81103 90900=
07790,1997-09-21 12:00:00,25,1020,-0.6,47,13,20000,18.52,,,130,,,,,,,,,,,wg-a,,,,AAXX 21124 07790 12670 /1310 10250 20130 30186 40200 57006 60006 81502 91200=
07790,1997-09-21 15:00:00,24,1019.4,-0.6,61,16,15000,14.816,,,150,,,,,,,,,,,wg-a,,,,AAXX 21154 07790 12565 /1508 10240 20160 30180 40194 56006 60006 82202 91500=
07790,1997-09-21 18:00:00,22,1019.6,0.2,73,17,12000,3.704,,,140,17,25.6,,,,,,,,,wg-a,,,,AAXX 21184 07790 12562 71402 10220 20170 30182 40196 53002 60006 81236 91800 333 10256 20170=
07790,1997-09-21 21:00:00,19,1020.2,0.6,83,16,12000,7.408,,,230,,,,,,,,,,,wg-a,,,,AAXX 21214 07790 12562 /2304 10190 20160 30188 40202 51006 60006 82236 92100=
07790,1997-09-22 00:00:00,17,1020.1,-0.1,88,15,15000,7.408,,,220,,,,,,,,,,,wg-a,,,,AAXX 22004 07790 12565 32204 10170 20150 30187 40201 58001 60006 81236 90000=
07790,1997-09-22 03:00:00,17,1019.5,-0.6,82,14,10000,7.408,,,230,,,,,,,,,,,wg-a,,,,AAXX 22034 07790 12560 42304 10170 20140 30181 40195 56006 60006 81282 90300=
07790,1997-09-22 06:00:00,17,1019.6,0.1,82,14,12000,7.408,,,230,16.4,21.9,,,,,,,,,wg-a,,,,AAXX 22064 07790 02562 72304 10170 20140 30182 40196 53001 60006 82282 90600 333 10219 20164 60004=
07790,1997-09-22 09:00:00,24,1019.8,0.2,61,16,10000,7.408,,,100,,,,,,,,,,,wg-a,,,,AAXX 22094 07790 12560 71004 10240 20160 30184 40198 50002 60006 81282 90900=
07790,1997-09-22 12:00:00,26,1019.4,-0.4,54,16,15000,11.112,,,100,,,,,,,,,,,wg-a,,,,AAXX 22124 07790 12565 41006 10260 20160 30180 40194 58004 60006 81282 91200=
07790,1997-09-22 15:00:00,25,1018.9,-0.5,57,16,15000,11.112,,,140,,,,,,,,,,,wg-a,,,,AAXX 22154 07790 12565 71406 10250 20160 30175 40189 55005 60006 81282 91500=
07790,1997-09-22 18:00:00,21,1018.7,-0.2,78,17,8000,3.704,,,240,16.7,26.6,,,,,,,,,wg-a,,,,AAXX 22184 07790 12658 62402 10210 20170 30173 40187 55002 60006 81532 91800 333 10266 20167=
07790,1997-09-22 21:00:00,19,1019.2,0.5,78,15,15000,7.408,,,230,,,,,,,,,,,wg-a,,,,AAXX 22214 07790 12665 32304 10190 20150 30178 40192 50005 60006 81130 92100=
07790,1997-09-23 00:00:00,18,1018.3,-0.9,68,12,15000,11.112,,,230,,,,,,,,,,,wg-a,,,,AAXX 23004 07790 12665 /2306 10180 20120 30169 40183 58009 60006 81130 90000=
07790,1997-09-23 03:00:00,19,1017.5,-0.8,73,14,11000,7.408,,,260,,,,,,,,,,,wg-a,,,,AAXX 23034 07790 12/61 /2604 10190 20140 30161 40175 56008 60006 90300=
07790,1997-09-23 06:00:00,19,1017.6,0.1,83,16,8000,7.408,,,260,17.4,21.1,,,,,,,,,wg-a,,,,AAXX 23064 07790 02/58 /2604 10190 20160 30162 40176 53001 60006 90600 333 10211 20174 60004=
07790,1997-09-23 09:00:00,24,1017.8,0.2,57,15,10000,18.52,,,350,,,,,,,,,,,wg-a,,,,AAXX 23094 07790 12560 /3510 10240 20150 30164 40178 51002 60006 81232 90900=
07790,1997-09-23 12:00:00,25,1017.3,-0.5,47,13,15000,18.52,,,30,,,,,,,,,,,wg-a,,,,AAXX 23124 07790 12565 /0310 10250 20130 30159 40173 58005 60006 82231 91200=
07790,1997-09-23 15:00:00,24,1016.4,-0.9,54,14,12000,22.224,,,20,,,,,,,,,,,wg-a,,,,AAXX 23154 07790 12662 /0212 10240 20140 30150 40164 56009 60006 81131 91500=
07790,1997-09-23 18:00:00,21,1016.6,0.2,56,12,12000,7.408,,,280,19.4,24.9,,,,,,,,,wg-a,,,,AAXX 23184 07790 12662 /2804 10210 20120 30152 40166 53002 60006 82131 91800 333 10249 20194=
07790,1997-09-24 00:00:00,19,1016.8,-0.3,64,12,15000,11.112,,,320,,,,,,,,,,,wg-a,,,,AAXX 24004 07790 12/65 43206 10190 20120 30154 40168 58003 60006 82031 90000=
07790,1997-09-24 06:00:00,21,1016.5,0.5,60,13,15000,14.816,,,330,18.6,20.8,,,,,,,,,wg-a,,,,AAXX 24064 07790 02665 73308 10210 20130 30151 40165 53005 60006 84836 90600 333 10208 20186 60004=
07790,1997-09-24 12:00:00,24,1017.1,-0.5,47,12,20000,22.224,,,20,,,,,,,,,,,wg-a,,,,AAXX 24124 07790 12570 80212 10240 20120 30157 40171 58005 60006 81136 91200=
07790,1997-09-24 15:00:00,24,1016.5,-0.6,44,11,20000,18.52,,,20,,,,,,,,,,,wg-a,,,,AAXX 24154 07790 12570 70210 10240 20110 30151 40165 56006 60006 81136 91500=
07790,1997-09-24 18:00:00,21,1016.8,0.3,53,11,20000,11.112,,,270,20.8,24.4,,,,,,,,,wg-a,,,,AAXX 24184 07790 12570 /2706 10210 20110 30154 40168 52003 60006 81531 91800 333 10244 20208=
07790,1997-09-24 21:00:00,18,1018.5,1.7,52,8,20000,7.408,,,320,,,,,,,,,,,wg-a,,,,AAXX 24214 07790 12570 33204 10180 20080 30171 40185 51017 60006 81531 92100=
07790,1997-09-25 00:00:00,17,1019.2,0.7,68,11,20000,11.112,,,240,,,,,,,,,,,wg-a,,,,AAXX 25004 07790 12/70 02406 10170 20110 30178 40192 51007 60006 80000 90000=
07790,1997-09-25 03:00:00,15,1019.3,0.1,72,10,20000,11.112,,,240,,,,,,,,,,,wg-a,,,,AAXX 25034 07790 12/70 02406 10150 20100 30179 40193 53001 60006 80000 90300=
07790,1997-09-25 06:00:00,15,1020.2,0.9,67,9,500,11.112,,,230,14.4,21.4,,,,,,,,,wg-a,,,,AAXX 25064 07790 02/00 12306 10150 20090 30188 40202 53009 60006 80001 90600 333 10214 20144 60004=
07790,1997-09-25 09:00:00,23,1021.2,1,50,12,20000,11.112,,,30,,,,,,,,,,,wg-a,,,,AAXX 25094 07790 12670 /0306 10230 20120 30198 40212 51010 60006 81100 90900=
07790,1997-09-25 12:00:00,24,1020.6,-0.6,44,11,20000,18.52,,,30,,,,,,,,,,,wg-a,,,,AAXX 25124 07790 12/70 00310 10240 20110 30192 40206 58006 60006 80000 91200=
07790,1997-09-25 15:00:00,25,1019.8,-0.8,36,9,10000,14.816,,,360,,,,,,,,,,,wg-a,,,,AAXX 25154 07790 12/60 /3608 10250 20090 30184 40198 56008 60006 91500=
07790,1997-09-26 00:00:00,16,1021,-0.3,68,10,17000,11.112,,,240,,,,,,,,,,,wg-a,,,,AAXX 26004 07790 12/67 02406 10160 20100 30196 40210 58003 60006 80000 90000=
07790,1997-09-26 03:00:00,15,1020.9,-0.1,67,9,17000,11.112,,,250,,,,,,,,,,,wg-a,,,,AAXX 26034 07790 12/67 02506 10150 20090 30195 40209 57001 60006 80000 90300=
07790,1997-09-26 06:00:00,14,1021.3,0.4,72,9,60000,11.112,,,230,13.6,19.6,,,,,,,,,wg-a,,,,AAXX 26064 07790 02/86 02306 10140 20090 30199 40213 53004 60006 80000 90600 333 10196 20136 60004=
07790,1997-09-26 09:00:00,23,1021.6,0.3,47,11,40000,7.408,,,90,,,,,,,,,,,wg-a,,,,AAXX 26094 07790 12/82 00904 10230 20110 30202 40216 51003 60006 80000 90900=
07790,1997-09-26 12:00:00,24,1020.3,-1.3,38,9,40000,18.52,,,10,,,,,,,,,,,wg-a,,,,AAXX 26124 07790 12582 /0110 10240 20090 30189 40203 58013 60006 81100 91200=
07790,1997-09-26 15:00:00,24,1018.8,-1.5,44,11,40000,11.112,,,360,,,,,,,,,,,wg-a,,,,AAXX 26154 07790 12/82 03606 10240 20110 30174 40188 58015 60006 80000 91500=
07790,1997-09-26 18:00:00,19,1018.2,-0.6,52,9,40000,7.408,,,230,14.3,24.5,,,,,,,,,wg-a,,,,AAXX 26184 07790 12/82 02304 10190 20090 30168 40182 56006 60006 80000 91800 333 10245 20143=
07790,1997-09-26 21:00:00,16,1018.2,0,55,7,500,7.408,,,250,,,,,,,,,,,wg-a,,,,AAXX 26214 07790 12/00 02504 10160 20070 30168 40182 50000 60006 80000 92100=
07790,1997-09-27 00:00:00,15,1017.7,-0.5,63,8,500,11.112,,,230,,,,,,,,,,,wg-a,,,,AAXX 27004 07790 12/00 02306 10150 20080 30163 40177 58005 60006 80000 90000=
07790,1997-09-27 03:00:00,15,1016.5,-1.2,67,9,500,11.112,,,240,,,,,,,,,,,wg-a,,,,AAXX 27034 07790 12/00 02406 10150 20090 30151 40165 58012 60006 80000 90300=
07790,1997-09-27 06:00:00,15,1016.5,-0,67,9,500,11.112,,,230,14.4,18.9,,,,,,,,,wg-a,,,,AAXX 27064 07790 02600 /2306 10150 20090 30151 40165 55000 60006 81500 90600 333 10189 20144 60004=
07790,1997-09-27 09:00:00,23,1016.2,-0.3,50,12,500,7.408,,,40,,,,,,,,,,,wg-a,,,,AAXX 27094 07790 12/00 00404 10230 20120 30148 40162 58003 60006 80000 90900=
07790,1997-09-27 12:00:00,24,1015.1,-1.1,44,11,500,11.112,,,90,,,,,,,,,,,wg-a,,,,AAXX 27124 07790 12/00 00906 10240 20110 30137 40151 57011 60006 80000 91200=
07790,1997-09-27 15:00:00,24,1014.3,-0.8,47,12,500,7.408,,,110,,,,,,,,,,,wg-a,,,,AAXX 27154 07790 12/00 01104 10240 20120 30129 40143 57008 60006 80000 91500=
07790,1997-09-27 18:00:00,19,1014.8,0.5,64,12,25000,3.704,,,230,15.2,24.7,,,,,,,,,wg-a,,,,AAXX 27184 07790 12/75 12302 10190 20120 30134 40148 53005 60006 80001 91800 333 10247 20152=
07790,1997-09-27 21:00:00,16,1015,0.2,72,11,25000,11.112,,,220,,,,,,,,,,,wg-a,,,,AAXX 27214 07790 12/75 02206 10160 20110 30136 40150 51002 60006 80000 92100=
07790,1997-09-28 00:00:00,15,1015,-0,77,11,25000,7.408,,,210,,,,,,,,,,,wg-a,,,,AAXX 28004 07790 12/75 02104 10150 20110 30136 40150 55000 60006 80000 90000=
07790,1997-09-28 03:00:00,15,1014.8,-0.2,77,11,20000,7.408,,,250,,,,,,,,,,,wg-a,,,,AAXX 28034 07790 12/70 02504 10150 20110 30134 40148 58002 60006 80000 90300=
07790,1997-09-28 06:00:00,16,1015.2,0.4,72,11,20000,18.52,,,220,14.2,19.1,,,,,,,,,wg-a,,,,AAXX 28064 07790 02570 /2210 10160 20110 30138 40152 53004 60006 81100 90600 333 10191 20142 60004=
07790,1997-09-28 12:00:00,25,1015.8,-0.1,54,15,15000,18.52,,,140,,,,,,,,,,,wg-a,,,,AAXX 28124 07790 12565 /1410 10250 20150 30144 40158 58001 60006 81200 91200=
07790,1997-09-28 15:00:00,24,1015.6,-0.2,57,15,10000,14.816,,,140,,,,,,,,,,,wg-a,,,,AAXX 28154 07790 12560 21408 10240 20150 30142 40156 55002 60006 82800 91500=
07790,1997-09-28 18:00:00,20,1016.4,0.8,73,15,10000,0,,,0,16.3,25.1,,,,,,,,,wg-a,,,,AAXX 28184 07790 12660 /0000 10200 20150 30150 40164 53008 60006 81500 91800 333 10251 20163=
07790,1997-09-28 21:00:00,17,1017.6,1.2,82,14,15000,7.408,,,240,,,,,,,,,,,wg-a,,,,AAXX 28214 07790 12/65 02404 10170 20140 30162 40176 52012 60006 80000 92100=
07790,1997-09-29 00:00:00,16,1017.8,0.2,82,13,15000,7.408,,,230,,,,,,,,,,,wg-a,,,,AAXX 29004 07790 12/65 02304 10160 20130 30164 40178 50002 60006 80000 90000=
07790,1997-09-29 03:00:00,15,1018,0.2,88,13,15000,7.408,,,230,,,,,,,,,,,wg-a,,,,AAXX 29034 07790 12/65 02304 10150 20130 30166 40180 52002 60006 80000 90300=
07790,1997-09-29 06:00:00,16,1018.8,0.8,77,12,14000,11.112,,,220,15.1,20,,,,,,,,,wg-a,,,,AAXX 29064 07790 02264 /2206 10160 20120 30174 40188 53008 60006 81604 90600 333 10200 20151 60004=
07790,1997-09-29 09:00:00,23,1020.1,1.3,69,17,15000,7.408,,,90,,,,,,,,,,,wg-a,,,,AAXX 29094 07790 12465 70904 10230 20170 30187 40201 51013 60006 82501 90900=
07790,1997-09-29 12:00:00,25,1019.8,-0.3,61,17,18000,14.816,,,140,,,,,,,,,,,wg-a,,,,AAXX 29124 07790 12468 /1408 10250 20170 30184 40198 58003 60006 82201 91200=
07790,1997-09-29 15:00:00,24,1019.6,-0.2,65,17,18000,11.112,,,140,,,,,,,,,,,wg-a,,,,AAXX 29154 07790 12468 41406 10240 20170 30182 40196 58002 60006 83501 91500=
07790,1997-09-29 18:00:00,21,1020.2,0.6,78,17,15000,0,,,0,15.8,25.6,,,,,,,,,wg-a,,,,AAXX 29184 07790 12465 /0000 10210 20170 30188 40202 51006 60006 81600 91800 333 10256 20158=
07790,1997-09-29 21:00:00,17,1021.5,1.3,88,15,15000,7.408,,,250,,,,,,,,,,,wg-a,,,,AAXX 29214 07790 12465 /2504 10170 20150 30201 40215 53013 60006 81600 92100=
07790,1997-09-30 00:00:00,16,1022,0.5,82,13,15000,7.408,,,240,,,,,,,,,,,wg-a,,,,AAXX 30004 07790 12465 /2404 10160 20130 30206 40220 51005 60006 81600 90000=
07790,1997-09-30 03:00:00,15,1022,-0,82,12,15000,11.112,,,240,,,,,,,,,,,wg-a,,,,AAXX 30034 07790 12465 /2406 10150 20120 30206 40220 55000 60006 81600 90300=
07790,1997-09-30 06:00:00,15,1022,-0,77,11,15000,11.112,,,220,14.8,20.6,,,,,,,,,wg-a,,,,AAXX 30064 07790 02/65 22206 10150 20110 30206 40220 55000 60006 80001 90600 333 10206 20148 60004=
07790,1997-09-30 09:00:00,25,1022.6,0.6,50,14,20000,7.408,,,150,,,,,,,,,,,wg-a,,,,AAXX 30094 07790 12/70 11504 10250 20140 30212 40226 50006 60006 80001 90900=
07790,1997-09-30 12:00:00,26,1021.6,-1,51,15,20000,14.816,,,140,,,,,,,,,,,wg-a,,,,AAXX 30124 07790 12670 31408 10260 20150 30202 40216 58010 60006 81101 91200=
07790,1997-09-30 15:00:00,25,1020.9,-0.7,61,17,20000,11.112,,,140,,,,,,,,,,,wg-a,,,,AAXX 30154 07790 12/70 31406 10250 20170 30195 40209 57007 60006 80001 91500=
07790,1997-09-30 18:00:00,21,1021.1,0.2,78,17,20000,3.704,,,320,15.3,26.3,,,,,,,,,wg-a,,,,AAXX 30184 07790 12670 /3202 10210 20170 30197 40211 53002 60006 81502 91800 333 10263 20153=
07790,1997-10-01 00:00:00,18,1020.2,-0.4,77,14,20000,3.704,,,260,,,,,,,,,,,wg-a,,,,AAXX 01004 07790 12/70 02602 10180 20140 30188 40202 55004 60006 80000 90000=
07790,1997-10-01 03:00:00,17,1019.2,-1,77,13,20000,7.408,,,200,,,,,,,,,,,wg-a,,,,AAXX 01034 07790 12/70 02004 10170 20130 30178 40192 58010 60006 80000 90300=
07790,1997-10-01 06:00:00,17,1018.6,-0.6,72,12,15000,11.112,,,230,15.7,20.8,,,,,,,,,wg-a,,,,AAXX 01064 07790 02465 32306 10170 20120 30172 40186 55006 60006 81501 90600 333 10208 20157 60004=
07790,1997-10-01 12:00:00,26,1017,-1.6,42,12,15000,14.816,,,110,,,,,,,,,,,wg-a,,,,AAXX 01124 07790 12565 /1108 10260 20120 30156 40170 56016 60006 82501 91200=
07790,1997-10-01 15:00:00,25,1015.8,-1.2,57,16,15000,11.112,,,130,,,,,,,,,,,wg-a,,,,AAXX 01154 07790 12665 /1306 10250 20160 30144 40158 56012 60006 84501 91500=
07790,1997-10-01 18:00:00,22,1015.9,0.1,83,19,11000,7.408,,,190,16.8,26.6,,,,,,,,,wg-a,,,,AAXX 01184 07790 12561 71904 10220 20190 30145 40159 53001 60006 875// 91800 333 10266 20168=
07790,1997-10-01 21:00:00,19,1016,0.1,78,15,15000,3.704,,,200,,,,,,,,,,,wg-a,,,,AAXX 01214 07790 12665 /2002 10190 20150 30146 40160 50001 60006 85500 92100=
07790,1997-10-02 00:00:00,17,1015,-1,82,14,15000,3.704,,,260,,,,,,,,,,,wg-a,,,,AAXX 02004 07790 12765 /2602 10170 20140 30136 40150 56010 60006 85500 90000=
07790,1997-10-02 03:00:00,16,1013.9,-1.1,88,14,10000,11.112,,,230,,,,,,,,,,,wg-a,,,,AAXX 02034 07790 12/60 /2306 10160 20140 30125 40139 56011 60006 90300=
07790,1997-10-02 06:00:00,16,1013.5,-0.4,82,13,20000,11.112,,,230,15.4,22.3,,,,,,,,,wg-a,,,,AAXX 02064 07790 02/70 12306 10160 20130 30121 40135 55004 60006 80001 90600 333 10223 20154 60004=
07790,1997-10-02 09:00:00,24,1013.3,-0.2,65,17,20000,18.52,,,150,,,,,,,,,,,wg-a,,,,AAXX 02094 07790 12670 11510 10240 20170 30119 40133 56002 60006 81101 90900=
07790,1997-10-02 12:00:00,25,1012,-1.3,65,18,20000,22.224,,,140,,,,,,,,,,,wg-a,,,,AAXX 02124 07790 12670 21412 10250 20180 30106 40120 56013 60006 81201 91200=
07790,1997-10-02 15:00:00,24,1011,-1,65,17,15000,14.816,,,140,,,,,,,,,,,wg-a,,,,AAXX 02154 07790 12565 51408 10240 20170 30096 40110 56010 60006 84801 91500=
07790,1997-10-02 18:00:00,21,1010.1,-0.9,78,17,15000,0,,,0,15.9,25.1,,,,,,,,,wg-a,,,,AAXX 02184 07790 12565 /0000 10210 20170 30087 40101 58009 60006 81100 91800 333 10251 20159=
07790,1997-10-03 00:00:00,17,1009.7,-0.7,88,15,18000,11.112,,,220,,,,,,,,,,,wg-a,,,,AAXX 03004 07790 12/68 02206 10170 20150 30083 40097 58007 60006 80000 90000=
07790,1997-10-03 03:00:00,16,1009.1,-0.6,88,14,18000,11.112,,,230,,,,,,,,,,,wg-a,,,,AAXX 03034 07790 12/68 02306 10160 20140 30077 40091 58006 60006 80000 90300=
07790,1997-10-03 06:00:00,18,1009.6,0.5,77,14,11000,11.112,,,230,15.4,20.7,,,,,,,,,wg-a,,,,AAXX 03064 07790 02/61 /2306 10180 20140 30082 40096 53005 60006 90600 333 10207 20154 60004=
07790,1997-10-03 09:00:00,25,1010.6,1,65,18,12000,7.408,,,110,,,,,,,,,,,wg-a,,,,AAXX 03094 07790 12462 31104 10250 20180 30092 40106 51010 60006 83201 90900=
07790,1997-10-03 12:00:00,26,1011.1,0.5,65,19,12000,11.112,,,110,,,,,,,,,,,wg-a,,,,AAXX 03124 07790 12462 31106 10260 20190 30097 40111 52005 60006 81201 91200=
07790,1997-10-03 15:00:00,26,1011.3,0.2,61,18,12000,11.112,,,130,,,,,,,,,,,wg-a,,,,AAXX 03154 07790 12462 /1306 10260 20180 30099 40113 50002 60006 81101 91500=
07790,1997-10-03 18:00:00,21,1012.5,1.2,83,18,12000,3.704,,,340,17.6,26.6,,,,,,,,,wg-a,,,,AAXX 03184 07790 12/62 03402 10210 20180 30111 40125 53012 60006 80000 91800 333 10266 20176=
07790,1997-10-03 21:00:00,17,1014.4,1.9,88,15,15000,7.408,,,260,,,,,,,,,,,wg-a,,,,AAXX 03214 07790 12/65 02604 10170 20150 30130 40144 53019 60006 80000 92100=
07790,1997-10-04 00:00:00,18,1015.5,1.1,77,14,15000,11.112,,,220,,,,,,,,,,,wg-a,,,,AAXX 04004 07790 12/65 02206 10180 20140 30141 40155 52011 60006 80000 90000=
07790,1997-10-04 03:00:00,17,1015.9,0.4,77,13,7000,11.112,,,220,,,,,,,,,,,wg-a,,,,AAXX 04034 07790 12357 /2206 10170 20130 30145 40159 51004 60006 81100 90300=
07790,1997-10-04 06:00:00,16,1016.8,0.9,77,12,12000,7.408,,,220,15.8,20.8,,,,,,,,11,wg-a,,,,AAXX 04064 07790 02/62 02204 10160 20120 30154 40168 53009 60006 71100 80000 90600 333 10208 20158 60004=
07790,1997-10-04 09:00:00,24,1018.4,1.6,74,19,13000,11.112,,,150,,,,,,,,,,,wg-a,,,,AAXX 04094 07790 12663 /1506 10240 20190 30170 40184 51016 60006 81500 90900=
07790,1997-10-04 12:00:00,26,1018.8,0.4,65,19,13000,14.816,,,120,,,,,,,,,,,wg-a,,,,AAXX 04124 07790 12563 21208 10260 20190 30174 40188 50004 60006 82200 91200=
07790,1997-10-04 18:00:00,22,1018.9,0.6,88,20,9000,3.704,,,200,16.4,26.4,,,,,,,,,wg-a,,,,AAXX 04184 07790 12459 32002 10220 20200 30175 40189 50006 60006 83200 91800 333 10264 20164=
07790,1997-10-04 21:00:00,18,1019.4,0.5,94,17,9000,3.704,,,240,,,,,,,,,,,wg-a,,,,AAXX 04214 07790 12459 32402 10180 20170 30180 40194 50005 60006 83200 92100=
07790,1997-10-05 00:00:00,17,1019.5,0.1,88,15,8000,7.408,,,240,,,,0,,,,,,,wg-a,,,,AAXX 05004 07790 02/58 02404 10170 20150 30181 40195 53001 60006 80000 90000 333 60007=
07790,1997-10-05 03:00:00,17,1018.9,-0.6,82,14,8000,11.112,,,220,,,,,,,,,,,wg-a,,,,AAXX 05034 07790 12/58 02206 10170 20140 30175 40189 58006 60006 80000 90300=
07790,1997-10-05 06:00:00,16,1018.9,-0,82,13,12000,7.408,,,220,16.3,21.9,,,,,,,,11,wg-a,,,,AAXX 05064 07790 02462 /2204 10160 20130 30175 40189 55000 60006 71100 81100 90600 333 10219 20163 60004=
07790,1997-10-05 09:00:00,25,1019.3,0.4,65,18,11000,18.52,,,150,,,,,,,,,,,wg-a,,,,AAXX 05094 07790 12/61 /1510 10250 20180 30179 40193 50004 60006 90900=
07790,1997-10-05 12:00:00,25,1018.8,-0.5,69,19,12000,25.928,,,140,,,,,,,,,,,wg-a,,,,AAXX 05124 07790 12562 21414 10250 20190 30174 40188 58005 60006 82200 91200=
07790,1997-10-05 15:00:00,24,1017.3,-1.5,69,18,10000,22.224,,,150,,,,,,,,,,,wg-a,,,,AAXX 05154 07790 12560 21512 10240 20180 30159 40173 57015 60006 82800 91500=
07790,1997-10-05 18:00:00,21,1016.7,-0.6,83,18,18000,7.408,,,170,16.3,25.7,,,,,,,,,wg-a,,,,AAXX 05184 07790 12568 /1704 10210 20180 30153 40167 56006 60006 81500 91800 333 10257 20163=
07790,1997-10-05 21:00:00,18,1017.1,0.4,88,16,12000,7.408,,,230,,,,,,,,,,,wg-a,,,,AAXX 05214 07790 12/62 02304 10180 20160 30157 40171 50004 60006 80000 92100=
07790,1997-10-06 00:00:00,17,1016.6,-0.5,88,15,12000,3.704,,,240,,,,,,,,,,,wg-a,,,,AAXX 06004 07790 12/62 02402 10170 20150 30152 40166 58005 60006 80000 90000=
07790,1997-10-06 03:00:00,16,1015.5,-1.1,88,14,12000,3.704,,,270,,,,,,,,,,,wg-a,,,,AAXX 06034 07790 12562 /2702 10160 20140 30141 40155 58011 60006 81500 90300=
07790,1997-10-06 06:00:00,18,1014.5,-1,100,18,1000,3.704,,,0,15.5,21.4,,,,,,,,81,wg-a,,,,AAXX 06064 07790 02510 8//02 10180 20180 30131 40145 56010 61000 78198 889// 90600 333 10214 20155 6030=
07790,1997-10-06 09:00:00,23,1014.2,-0.3,83,20,500,14.816,,,150,,,,6,,,,,,21,wg-a,,,,AAXX 06094 07790 12400 41508 10230 20200 30128 40142 56003 60067 72196 82933 90900=
07790,1997-10-06 12:00:00,22,1012.8,-1.4,83,19,12000,22.224,,,140,,,,,,,,,,17,wg-a,,,,AAXX 06124 07790 12462 81412 10220 20190 30114 40128 56014 60066 71796 8537/ 91200=
07790,1997-10-06 18:00:00,19,1012.7,-0.4,94,18,12000,3.704,,,180,18.4,25.5,,0,,,,,,2,wg-a,,,,AAXX 06184 07790 02462 81802 10190 20180 30113 40127 58004 60006 70296 869// 91800 333 10255 20184 60007=
07790,1997-10-07 00:00:00,17,1012.1,-1.1,94,16,11000,7.408,,,260,,,,,,,,,,,wg-a,,,,AAXX 07004 07790 12/61 /2604 10170 20160 30107 40121 58011 60006 90000=
07790,1997-10-07 03:00:00,18,1011.6,-0.5,94,17,15000,7.408,,,220,,,,,,,,,,,wg-a,,,,AAXX 07034 07790 12465 /2204 10180 20170 30102 40116 57005 60006 86700 90300=
07790,1997-10-07 06:00:00,18,1011.8,0.2,94,17,11000,7.408,,,240,17.2,19.5,,,,,11,,,,wg-a,,,,AAXX 07064 07790 02/61 /2404 10180 20170 30104 40118 53002 60006 90600 333 10195 20172 60114=
07790,1997-10-07 09:00:00,23,1012.2,0.4,83,20,12000,11.112,,,140,,,,,,,,,,1,wg-a,,,,AAXX 07094 07790 02462 /1406 10230 20200 30108 40122 50004 61000 70152 83532 90900 333 ////=
07790,1997-10-07 12:00:00,24,1011.9,-0.3,78,20,10000,31.484,,,160,,,,,,,,,,3,wg-a,,,,AAXX 07124 07790 02460 /1617 10240 20200 30105 40119 58003 61000 70352 85232 91200 333 ////=
07790,1997-10-07 15:00:00,23,1011.8,-0.1,83,20,9000,18.52,,,150,,,,,,,,,,,wg-a,,,,AAXX 07154 07790 12459 71510 10230 20200 30104 40118 58001 60006 877// 91500=
07790,1997-10-07 18:00:00,23,1012.7,0.9,89,21,10000,11.112,,,150,17.9,24.8,,,,,,,,,wg-a,,,,AAXX 07184 07790 12360 71506 10230 20210 30113 40127 53009 60006 875// 91800 333 10248 20179=
07790,1997-10-07 21:00:00,22,1012.7,0,94,21,15000,7.408,,,330,,,,,,,,,,,wg-a,,,,AAXX 07214 07790 12465 83304 10220 20210 30113 40127 50000 60006 875// 92100=
07790,1997-10-08 00:00:00,20,1013.3,0.6,94,19,15000,7.408,,,250,,,,0,,,,,,,wg-a,,,,AAXX 08004 07790 02665 /2504 10200 20190 30119 40133 50006 60006 81500 90000 333 60007=
07790,1997-10-08 03:00:00,19,1014.1,0.8,94,18,12000,11.112,,,230,,,,,,,,,,17,wg-a,,,,AAXX 08034 07790 12462 22306 10190 20180 30127 40141 51008 60006 71790 8/900 90300=
07790,1997-10-08 06:00:00,19,1014.5,0.4,88,17,18000,3.704,,,270,18.6,22.7,,,,,,,,1,wg-a,,,,AAXX 08064 07790 02/68 12702 10190 20170 30131 40145 53004 60006 70190 80001 90600 333 10227 20186 60004=
07790,1997-10-08 12:00:00,26,1015.9,-0.4,70,20,18000,7.408,,,130,,,,,,,,,,,wg-a,,,,AAXX 08124 07790 12568 21304 10260 20200 30145 40159 58004 60006 82301 91200=
07790,1997-10-08 18:00:00,21,1017,1.2,88,19,18000,3.704,,,220,18.8,26.4,,,,,,,,,wg-a,,,,AAXX 08184 07790 12468 /2202 10210 20190 30156 40170 52012 60006 81100 91800 333 10264 20188=
07790,1997-10-08 21:00:00,20,1017.8,0.8,83,17,18000,11.112,,,230,,,,,,,,,,,wg-a,,,,AAXX 08214 07790 12568 /2306 10200 20170 30164 40178 53008 60006 81100 92100=
07790,1997-10-09 00:00:00,20,1017.7,-0.1,83,17,18000,11.112,,,230,,,,,,,,,,,wg-a,,,,AAXX 09004 07790 12/68 02306 10200 20170 30163 40177 55001 60006 80000 90000=
07790,1997-10-09 03:00:00,19,1017.4,-0.3,83,16,18000,14.816,,,240,,,,,,,,,,,wg-a,,,,AAXX 09034 07790 12568 /2408 10190 20160 30160 40174 57003 60006 81500 90300=
07790,1997-10-09 06:00:00,19,1018.1,0.7,83,16,20000,22.224,,,230,17.9,21.2,,,,,,,,,wg-a,,,,AAXX 09064 07790 02/70 32312 10190 20160 30167 40181 52007 60006 80001 90600 333 10212 20179 60004=
07790,1997-10-09 12:00:00,26,1018.5,-0.5,65,19,20000,11.112,,,150,,,,,,,,,,,wg-a,,,,AAXX 09124 07790 12570 21506 10260 20190 30171 40185 58005 60006 82200 91200=
07790,1997-10-09 15:00:00,24,1018.3,-0.2,74,19,20000,11.112,,,150,,,,,,,,,,,wg-a,,,,AAXX 09154 07790 12570 /1506 10240 20190 30169 40183 58002 60006 84200 91500=
07790,1997-10-09 18:00:00,22,1018.7,0.4,88,20,12000,3.704,,,180,18.8,26.6,,,,,,,,,wg-a,,,,AAXX 09184 07790 12562 /1802 10220 20200 30173 40187 53004 60006 85500 91800 333 10266 20188=
07790,1997-10-09 21:00:00,21,1018.8,0.1,88,19,12000,7.408,,,180,,,,,,,,,,,wg-a,,,,AAXX 09214 07790 12562 /1804 10210 20190 30174 40188 51001 60006 85500 92100=
07790,1997-10-10 00:00:00,19,1018.2,-0.6,88,17,12000,11.112,,,210,,,,,,,,,,,wg-a,,,,AAXX 10004 07790 12562 42106 10190 20170 30168 40182 56006 60006 84500 90000=
07790,1997-10-10 03:00:00,19,1016.8,-1.4,88,17,12000,14.816,,,220,,,,0,,,,,,,wg-a,,,,AAXX 10034 07790 12/62 02208 10190 20170 30154 40168 57014 60007 80000 90300=
07790,1997-10-10 06:00:00,19,1016,-0.8,83,16,15000,14.816,,,220,18.2,22.1,,,,,,,,,wg-a,,,,AAXX 10064 07790 02/65 42208 10190 20160 30146 40160 56008 60006 80002 90600 333 10221 20182 60004=
07790,1997-10-10 09:00:00,24,1015.4,-0.6,74,19,12000,14.816,,,160,,,,,,,,,,,wg-a,,,,AAXX 10094 07790 12/62 81608 10240 20190 30140 40154 58006 60006 81042 90900=
07790,1997-10-10 12:00:00,24,1013.9,-1.5,74,19,9000,11.112,,,140,,,,,,,,,,,wg-a,,,,AAXX 10124 07790 12/59 /1406 10240 20190 30125 40139 58015 60006 91200=
07790,1997-10-10 15:00:00,23,1011.5,-2.4,78,19,9000,11.112,,,160,,,,,,,,,,,wg-a,,,,AAXX 10154 07790 12459 71606 10230 20190 30101 40115 56024 60006 8587/ 91500=
07790,1997-10-10 18:00:00,21,1009.9,-1.6,88,19,15000,0,,,0,18.8,23.9,,,,,,,,,wg-a,,,,AAXX 10184 07790 12865 80000 10210 20190 30085 40099 55016 60006 83042 91800 333 10239 20188=
07790,1997-10-10 21:00:00,19,1008.3,-1.6,88,17,15000,11.112,,,310,,,,,,,,,,,wg-a,,,,AAXX 10214 07790 12565 43106 10190 20170 30069 40083 56016 60006 81541 92100=
07790,1997-10-11 00:00:00,19,1006.7,-1.6,88,17,15000,11.112,,,230,,,,,,,,,,,wg-a,,,,AAXX 11004 07790 12565 32306 10190 20170 30053 40067 56016 60006 81540 90000=
07790,1997-10-11 03:00:00,18,1005.4,-1.3,88,16,500,7.408,,,300,,,,,,,,,,,wg-a,,,,AAXX 11034 07790 12800 /3004 10180 20160 30040 40054 56013 60006 81040 90300=
07790,1997-10-11 06:00:00,22,1005.7,0.3,69,16,500,7.408,,,250,17.8,23.5,,,,,,,,,wg-a,,,,AAXX 11064 07790 02500 /2504 10220 20160 30043 40057 52003 60006 81540 90600 333 10235 20178 60004=
07790,1997-10-11 09:00:00,27,1006.3,0.6,42,13,500,7.408,,,290,,,,,,,,,,,wg-a,,,,AAXX 11094 07790 12500 22904 10270 20130 30049 40063 50006 60006 81101 90900=
07790,1997-10-11 12:00:00,28,1004.7,-1.6,51,17,500,18.52,,,150,,,,,,,,,,,wg-a,,,,AAXX 11124 07790 12500 41510 10280 20170 30033 40047 58016 60006 81101 91200=
07790,1997-10-11 15:00:00,27,1003.9,-0.8,34,10,500,11.112,,,360,,,,,,,,,,,wg-a,,,,AAXX 11154 07790 12500 /3606 10270 20100 30025 40039 56008 60006 81501 91500=
07790,1997-10-11 18:00:00,22,1003.8,-0.1,78,18,500,7.408,,,250,20.5,28.2,,,,,,,,,wg-a,,,,AAXX 11184 07790 12800 /2504 10220 20180 30024 40038 56001 60006 82041 91800 333 10282 20205=
07790,1997-10-11 21:00:00,24,1004.2,0.4,38,9,500,11.112,,,270,,,,,,,,,,,wg-a,,,,AAXX 11214 07790 12/00 22706 10240 20090 30028 40042 51004 60006 82040 92100=
07790,1997-10-12 00:00:00,24,1002.3,-1.9,47,12,500,18.52,,,160,,,,,,,,,,,wg-a,,,,AAXX 12004 07790 12500 31610 10240 20120 30009 40023 56019 60006 81540 90000=
07790,1997-10-12 03:00:00,21,1000,-2.3,69,15,500,7.408,,,70,,,,,,,,,,,wg-a,,,,AAXX 12034 07790 12400 /0704 10210 20150 39986 40000 58023 60006 81500 90300=
07790,1997-10-12 06:00:00,26,997.6,-2.4,37,10,500,29.632,,66.672,270,20.1,26,,,,,,,,,wg-a,,,,AAXX 12064 07790 02500 22716 10260 20100 39962 49976 56024 60006 81441 90600 333 10260 20201 60004 91036=
07790,1997-10-12 09:00:00,28,997.5,-0.1,25,6,50000,38.892,,55.56,280,,,,,,,,,,,wg-a,,,,AAXX 12094 07790 12584 /2821 10280 20060 39961 49975 56001 60006 81141 90900 333 91030=
07790,1997-10-12 12:00:00,29,995.9,-1.5,12,-3,50000,42.596,,51.856,280,,,,,,,,,,,wg-a,,,,AAXX 12124 07790 12584 /2823 10290 21030 39946 49959 58015 60006 81101 91200 333 91028=
07790,1997-10-12 18:00:00,21,999.1,1,43,8,12000,14.816,,59.264,270,21,28.8,,,,,,,,,wg-a,,,,AAXX 12184 07790 12562 /2708 10210 20080 39977 49991 53010 60006 81201 91800 333 10288 20210 91032=
07790,1997-10-12 21:00:00,21,1000.1,1,40,7,11000,31.484,,,250,,,,,,,,,,,wg-a,,,,AAXX 12214 07790 12/61 /2517 10210 20070 39987 40001 53010 60006 92100=
07790,1997-10-13 00:00:00,20,1001.3,1.2,46,8,12000,18.52,,83.34,280,,,,,,,,,,,wg-a,,,,AAXX 13004 07790 12/62 02810 10200 20080 39999 40013 52012 60006 80000 90000 333 91045=
07790,1997-10-13 03:00:00,18,1002.4,1.1,59,10,10000,11.112,,,340,,,,,,,,,,,wg-a,,,,AAXX 13034 07790 12/60 03406 10180 20100 30010 40024 51011 60006 80000 90300=
07790,1997-10-13 06:00:00,17,1002.7,0.3,55,8,50000,14.816,,,280,17,22.4,,,,,,,,,wg-a,,,,AAXX 13064 07790 02584 12808 10170 20080 30013 40027 53003 60006 81800 90600 333 10224 20170 60004=
07790,1997-10-13 09:00:00,23,1004.2,1.5,36,7,500,11.112,,,240,,,,,,,,,,,wg-a,,,,AAXX 13094 07790 12500 32406 10230 20070 30028 40042 51015 60006 82501 90900=
07790,1997-10-13 12:00:00,22,1004.1,-0.1,46,10,25000,18.52,,,50,,,,,,,,,,,wg-a,,,,AAXX 13124 07790 12575 50510 10220 20100 30027 40041 58001 60006 83531 91200=
07790,1997-10-13 15:00:00,20,1003.6,-0.5,53,10,20000,25.928,,,340,,,,,,,,,,21,wg-a,,,,AAXX 13154 07790 02570 73414 10200 20100 30022 40036 55005 61000 72162 85901 91500 333 ////=
07790,1997-10-13 18:00:00,19,1004.2,0.6,52,9,25000,18.52,,,310,17.1,23,,,,,,,,13,wg-a,,,,AAXX 13184 07790 12575 43110 10190 20090 30028 40042 53006 60006 71361 84900 91800 333 10230 20171=
07790,1997-10-13 21:00:00,13,1005.6,1.4,82,10,15000,18.52,,57.412,260,,,,3,,,,,,80,wg-a,,,,AAXX 13214 07790 12365 82610 10130 20100 30042 40056 53014 60037 78098 889// 92100 333 91031=
07790,1997-10-14 00:00:00,13,1005.5,-0.1,88,11,15000,7.408,,57.412,240,,,,3,,,,,,80,wg-a,,,,AAXX 14004 07790 02365 82404 10130 20110 30041 40055 57001 60076 78098 889// 90000 333 60037 91031=
07790,1997-10-14 03:00:00,13,1003.9,-1.6,77,9,20000,25.928,,,260,,,,1,,,,,,21,wg-a,,,,AAXX 14034 07790 12570 82614 10130 20090 30025 40039 58016 60017 72198 889// 90300=
07790,1997-10-14 06:00:00,16,1005,1.1,63,9,40000,22.224,,,30,12.3,18.8,,,,,9,,,17,wg-a,,,,AAXX 14064 07790 02582 80312 10160 20090 30036 40050 51011 60006 71798 86903 90600 333 10188 20123 60094=
07790,1997-10-14 09:00:00,11,1008.1,3.1,87,9,4000,14.816,,50.004,280,,,,17,,,,,,10,wg-a,,,,AAXX 14094 07790 12240 72808 10110 20090 30067 40081 53031 60177 71098 879// 90900 333 91027=
07790,1997-10-14 12:00:00,15,1009,0.9,59,7,500,35.188,,55.56,30,,,,2,,,,,,1,wg-a,,,,AAXX 14124 07790 02400 80319 10150 20070 30076 40090 53009 60186 70198 8597/ 91200 333 60027 91030=
07790,1997-10-14 15:00:00,15,1010.1,1.1,55,6,25000,18.52,,,300,,,,,,,,,,,wg-a,,,,AAXX 14154 07790 12475 83010 10150 20060 30087 40101 53011 60006 8597/ 91500=
07790,1997-10-14 18:00:00,12,1011.8,1.7,67,6,25000,14.816,,,250,10.7,16.9,,,,,,,,13,wg-a,,,,AAXX 14184 07790 02575 /2508 10120 20060 30104 40118 51017 60006 71386 81300 91800 333 10169 20107 61000=
07790,1997-10-14 21:00:00,12,1013.6,1.7,67,6,20000,11.112,,,240,,,,,,,,,,,wg-a,,,,AAXX 14214 07790 12670 22406 10120 20060 30121 40136 52017 60006 82200 92100=
07790,1997-10-15 00:00:00,13,1013.8,0.3,54,4,20000,22.224,,,240,,,,,,,,,,,wg-a,,,,AAXX 15004 07790 12670 /2412 10130 20040 30124 40138 52003 60006 81200 90000=
07790,1997-10-15 03:00:00,11,1013.6,-0.3,62,4,20000,18.52,,,240,,,,,,,,,,,wg-a,,,,AAXX 15034 07790 12670 /2410 10110 20040 30121 40136 55003 60006 81200 90300=
07790,1997-10-15 06:00:00,12,1013.8,0.2,58,4,50000,18.52,,,240,10.3,13.8,,,,,18,,,,wg-a,,,,AAXX 15064 07790 02584 22410 10120 20040 30123 40138 53002 60006 81201 90600 333 10138 20103 60184=
07790,1997-10-15 09:00:00,18,1014.6,0.9,45,6,50000,11.112,,,230,,,,0,,,,,,,wg-a,,,,AAXX 15094 07790 12584 /2306 10180 20060 30132 40146 50009 60007 81104 90900=
07790,1997-10-15 12:00:00,20,1013.4,-1.2,32,3,40000,18.52,,,140,,,,,,,,,,,wg-a,,,,AAXX 15124 07790 12582 /1410 10200 20030 30120 40134 58012 60006 81131 91200=
07790,1997-10-15 18:00:00,16,1011.3,-0.4,63,9,20000,7.408,,,190,11.8,20.8,,,,,,,,,wg-a,,,,AAXX 15184 07790 12570 /1904 10160 20090 30099 40113 55004 60006 83872 91800 333 10208 20118=
07790,1997-10-15 21:00:00,13,1012.2,0.9,77,9,25000,0,,,0,,,,,,,,,,,wg-a,,,,AAXX 15214 07790 12575 20000 10130 20090 30108 40122 51009 60006 81230 92100=
07790,1997-10-16 00:00:00,13,1012.3,0.1,72,8,25000,11.112,,,240,,,,,,,,,,,wg-a,,,,AAXX 16004 07790 12575 32406 10130 20080 30109 40123 53001 60006 82830 90000=
07790,1997-10-16 03:00:00,13,1011.5,-0.8,67,7,25000,14.816,,,240,,,,,,,,,,,wg-a,,,,AAXX 16034 07790 12575 32408 10130 20070 30101 40115 57008 60006 82802 90300=
07790,1997-10-16 06:00:00,13,1012.2,0.7,67,7,18000,18.52,,,250,12,16.4,,,,,,,,,wg-a,,,,AAXX 16064 07790 02568 /2510 10130 20070 30108 40122 53007 60006 82801 90600 333 10164 20120 60004=
07790,1997-10-16 09:00:00,20,1013.3,1.1,53,10,18000,7.408,,,220,,,,,,,,,,,wg-a,,,,AAXX 16094 07790 12568 22204 10200 20100 30119 40133 51011 60006 81801 90900=
07790,1997-10-16 12:00:00,20,1012.9,-0.4,56,11,25000,11.112,,,60,,,,,,,,,,,wg-a,,,,AAXX 16124 07790 12575 /0606 10200 20110 30115 40129 58004 60006 81801 91200=
07790,1997-10-16 15:00:00,19,1013.2,0.3,56,10,25000,11.112,,,10,,,,,,,,,,,wg-a,,,,AAXX 16154 07790 12575 30106 10190 20100 30118 40132 53003 60006 82830 91500=
07790,1997-10-16 18:00:00,16,1014.4,1.2,72,11,25000,3.704,,,250,12.6,20.9,,,,,,,,,wg-a,,,,AAXX 16184 07790 12675 /2502 10160 20110 30130 40144 53012 60006 81500 91800 333 10209 20126=
07790,1997-10-17 00:00:00,13,1016.5,0.6,82,10,500,7.408,,,230,,,,,,,,,,,wg-a,,,,AAXX 17004 07790 12/00 02304 10130 20100 30151 40165 53006 60006 80000 90000=
07790,1997-10-17 03:00:00,14,1016.3,-0.2,77,10,500,14.816,,,250,,,,,,,,,,,wg-a,,,,AAXX 17034 07790 12500 /2508 10140 20100 30149 40163 58002 60006 81500 90300=
07790,1997-10-17 06:00:00,13,1017.8,1.4,77,9,20000,11.112,,,230,12.1,15.9,,,,,,,,,wg-a,,,,AAXX 17064 07790 02570 /2306 10130 20090 30163 40178 53014 60006 81200 90600 333 10159 20121 60004=
07790,1997-10-17 09:00:00,21,1018.7,1,60,13,20000,3.704,,,230,,,,,,,,,,,wg-a,,,,AAXX 17094 07790 12570 /2302 10210 20130 30173 40187 51010 60006 81800 90900=
07790,1997-10-17 12:00:00,22,1019.3,0.6,57,13,500,11.112,,,140,,,,,,,,,,,wg-a,,,,AAXX 17124 07790 12500 /1406 10220 20130 30179 40193 50006 60006 81100 91200=
07790,1997-10-17 15:00:00,21,1019.7,0.4,56,12,500,11.112,,,120,,,,,,,,,,,wg-a,,,,AAXX 17154 07790 12500 /1206 10210 20120 30183 40197 52004 60006 81100 91500=
07790,1997-10-17 18:00:00,16,1021.2,1.5,77,12,500,7.408,,,240,12.5,22.2,,,,,,,,,wg-a,,,,AAXX 17184 07790 12500 /2404 10160 20120 30198 40212 53015 60006 81100 91800 333 10222 20125=
07790,1997-10-17 21:00:00,13,1022.4,1.1,88,11,25000,3.704,,,240,,,,,,,,,,,wg-a,,,,AAXX 17214 07790 12/75 02402 10130 20110 30209 40224 53011 60006 80000 92100=
07790,1997-10-18 00:00:00,13,1023.4,1,82,10,25000,7.408,,,240,,,,,,,,,,,wg-a,,,,AAXX 18004 07790 12575 /2404 10130 20100 30219 40234 51010 60006 81500 90000=
07790,1997-10-18 03:00:00,12,1023.6,0.2,88,10,25000,7.408,,,240,,,,,,,,,,,wg-a,,,,AAXX 18034 07790 12575 /2404 10120 20100 30221 40236 51002 60006 81500 90300=
07790,1997-10-18 06:00:00,12,1024.3,0.7,88,10,18000,11.112,,,230,11.7,15.7,,,,,,,,,wg-a,,,,AAXX 18064 07790 02568 /2306 10120 20100 30228 40243 53007 60006 81830 90600 333 10157 20117 60004=
07790,1997-10-18 09:00:00,21,1025.4,1.2,69,15,25000,7.408,,,130,,,,,,,,,,,wg-a,,,,AAXX 18094 07790 12575 /1304 10210 20150 30240 40254 51012 60006 81801 90900=
07790,1997-10-18 12:00:00,22,1024.9,-0.5,60,14,25000,18.52,,,160,,,,,,,,,,,wg-a,,,,AAXX 18124 07790 12575 21610 10220 20140 30235 40249 58005 60006 82801 91200=
07790,1997-10-18 15:00:00,21,1024.2,-0.7,69,15,500,11.112,,,150,,,,,,,,,,,wg-a,,,,AAXX 18154 07790 12500 /1506 10210 20150 30228 40242 56007 60006 81801 91500=
07790,1997-10-18 18:00:00,16,1024.3,0.1,88,14,20000,3.704,,,250,11.9,22.6,,,,,,,,,wg-a,,,,AAXX 18184 07790 12570 /2502 10160 20140 30229 40243 53001 60006 81531 91800 333 10226 20119=
07790,1997-10-18 21:00:00,14,1024.4,0,94,13,25000,7.408,,,240,,,,,,,,,,,wg-a,,,,AAXX 18214 07790 12/75 12404 10140 20130 30229 40244 50000 60006 80001 92100=
07790,1997-10-19 00:00:00,13,1023.9,-0.5,88,11,25000,11.112,,,230,,,,,,,,,,,wg-a,,,,AAXX 19004 07790 12/75 02306 10130 20110 30224 40239 58005 60006 80000 90000=
07790,1997-10-19 03:00:00,13,1023,-0.9,82,10,25000,11.112,,,230,,,,0,,,,,,,wg-a,,,,AAXX 19034 07790 12/75 02306 10130 20100 30215 40230 57009 60007 80000 90300=
07790,1997-10-19 06:00:00,12,1022.8,-0.2,82,9,25000,11.112,,,230,11.5,16.3,,,,,,,,,wg-a,,,,AAXX 19064 07790 02775 /2306 10120 20090 30213 40228 57002 60006 81501 90600 333 10163 20115 60004=
07790,1997-10-19 09:00:00,20,1022.7,0,46,8,500,11.112,,,200,,,,,,,,,,,wg-a,,,,AAXX 19094 07790 12/00 02006 10200 20080 30213 40227 50000 60006 80000 90900=
07790,1997-10-19 12:00:00,23,1021,-1.7,65,16,11000,14.816,,,140,,,,,,,,,,,wg-a,,,,AAXX 19124 07790 12/61 /1408 10230 20160 30196 40210 58017 60006 91200=
07790,1997-10-19 15:00:00,22,1019.5,-1.5,69,16,35000,11.112,,,150,,,,,,,,,,,wg-a,,,,AAXX 19154 07790 12681 21506 10220 20160 30181 40195 56015 60006 81201 91500=
07790,1997-10-19 18:00:00,18,1019.4,-0.1,83,15,35000,3.704,,,240,11.7,22.9,,,,,,,,,wg-a,,,,AAXX 19184 07790 12/81 /2402 10180 20150 30180 40194 55001 60006 81030 91800 333 10229 20117=
07790,1997-10-19 21:00:00,16,1018.8,-0.6,88,14,35000,11.112,,,240,,,,,,,,,,,wg-a,,,,AAXX 19214 07790 12/81 /2406 10160 20140 30174 40188 58006 60006 81030 92100=
07790,1997-10-20 00:00:00,15,1017.8,-1,88,13,35000,11.112,,,220,,,,,,,,,,,wg-a,,,,AAXX 20004 07790 12/81 /2206 10150 20130 30164 40178 58010 60006 81030 90000=
07790,1997-10-20 03:00:00,15,1016.9,-0.9,82,12,35000,11.112,,,240,,,,,,,,,,,wg-a,,,,AAXX 20034 07790 12/81 32406 10150 20120 30155 40169 58009 60006 83031 90300=
07790,1997-10-20 06:00:00,15,1016.2,-0.7,77,11,35000,14.816,,,240,14.1,17.6,,,,,,,,,wg-a,,,,AAXX 20064 07790 02581 42408 10150 20110 30148 40162 57007 60006 81232 90600 333 10176 20141 60004=
07790,1997-10-20 12:00:00,22,1014,-1.9,69,16,25000,18.52,,,130,,,,,,,,,,,wg-a,,,,AAXX 20124 07790 12575 41310 10220 20160 30126 40140 58019 60006 81232 91200=
07790,1997-10-20 15:00:00,21,1012.9,-1.1,73,16,25000,14.816,,,150,,,,,,,,,,,wg-a,,,,AAXX 20154 07790 12575 71508 10210 20160 30115 40129 56011 60006 81231 91500=
07790,1997-10-20 18:00:00,19,1013,0.1,83,16,25000,0,,,0,14.8,22.9,,,,,,,,,wg-a,,,,AAXX 20184 07790 12775 80000 10190 20160 30116 40130 53001 60006 83521 91800 333 10229 20148=
07790,1997-10-20 21:00:00,17,1011.9,-1.1,88,15,11000,0,,,0,,,,,,,,,,,wg-a,,,,AAXX 20214 07790 12/61 /0000 10170 20150 30105 40119 56011 60006 92100=
07790,1997-10-21 00:00:00,17,1010.2,-1.7,82,14,20000,7.408,,,240,,,,,,,,,,,wg-a,,,,AAXX 21004 07790 12470 /2404 10170 20140 30088 40102 56017 60006 83570 90000=
07790,1997-10-21 03:00:00,16,1009,-1.2,88,14,20000,11.112,,,220,,,,,,,,,,,wg-a,,,,AAXX 21034 07790 12470 /2206 10160 20140 30076 40090 56012 60006 84570 90300=
07790,1997-10-21 06:00:00,16,1008.2,-0.8,88,14,20000,7.408,,,240,15.8,18.9,,,,,,,,,wg-a,,,,AAXX 21064 07790 02470 72404 10160 20140 30068 40082 56008 60006 83572 90600 333 10189 20158 60004=
07790,1997-10-21 09:00:00,20,1008.6,0.4,78,16,12000,3.704,,,330,,,,,,,,,,,wg-a,,,,AAXX 21094 07790 12562 73302 10200 20160 30072 40086 50004 60006 8487/ 90900=
07790,1997-10-21 12:00:00,20,1007.5,-1.1,83,17,25000,7.408,,,130,,,,,,,,,,61,wg-a,,,,AAXX 21124 07790 02575 71304 10200 20170 30061 40075 58011 61000 76162 8187/ 91200 333 6100=
07790,1997-10-21 15:00:00,21,1007.3,-0.2,69,15,500,11.112,,,100,,,,0,,,,,,21,wg-a,,,,AAXX 21154 07790 12500 71006 10210 20150 30059 40073 56002 60007 72162 8387/ 91500=
07790,1997-10-21 18:00:00,19,1008.4,1.1,88,17,25000,11.112,,,350,15.7,21.7,,,,,,,,2,wg-a,,,,AAXX 21184 07790 12475 73506 10190 20170 30070 40084 51011 60006 70262 8487/ 91800 333 10217 20157=
07790,1997-10-21 21:00:00,18,1008.5,0.1,88,16,25000,11.112,,,320,,,,,,,,,,,wg-a,,,,AAXX 21214 07790 12575 83206 10180 20160 30071 40085 53001 60006 8687/ 92100=
07790,1997-10-22 00:00:00,18,1009.3,0.8,88,16,6000,18.52,,,50,,,,13,,,,,,63,wg-a,,,,AAXX 22004 07790 02456 80510 10180 20160 30079 40093 51008 60136 76362 8687/ 90000 333 60137=
07790,1997-10-22 03:00:00,17,1009.5,0.2,94,16,15000,7.408,,,290,,,,6,,,,,,21,wg-a,,,,AAXX 22034 07790 12465 82904 10170 20160 30081 40095 50002 60067 72162 8687/ 90300=
07790,1997-10-22 06:00:00,17,1010,0.5,94,16,20000,7.408,,,280,16.7,18.6,,,,,19,,,2,wg-a,,,,AAXX 22064 07790 02470 /2804 10170 20160 30086 40100 51005 60006 70262 86800 90600 333 10186 20167 60194=
07790,1997-10-22 09:00:00,20,1011.8,1.8,73,15,20000,14.816,,,350,,,,,,,,,,,wg-a,,,,AAXX 22094 07790 12570 /3508 10200 20150 30104 40118 51018 60006 85830 90900=
07790,1997-10-22 12:00:00,20,1010.6,-1.2,68,14,500,14.816,,,10,,,,,,,,,,,wg-a,,,,AAXX 22124 07790 12500 20108 10200 20140 30092 40106 58012 60006 81131 91200=
07790,1997-10-22 18:00:00,18,1010.4,0.5,83,15,25000,3.704,,,240,16.7,20.6,,,,,,,,,wg-a,,,,AAXX 22184 07790 12775 /2402 10180 20150 30090 40104 53005 60006 85504 91800 333 10206 20167=
07790,1997-10-22 21:00:00,17,1010.2,-0.2,88,15,25000,7.408,,,230,,,,,,,,,,,wg-a,,,,AAXX 22214 07790 12675 /2304 10170 20150 30088 40102 57002 60006 84504 92100=
07790,1997-10-23 00:00:00,17,1010.5,0.3,82,14,25000,7.408,,,220,,,,,,,,,,,wg-a,,,,AAXX 23004 07790 12675 52204 10170 20140 30091 40105 50003 60006 84504 90000=
07790,1997-10-23 03:00:00,16,1010,-0.5,88,14,25000,3.704,,,270,,,,,,,,,,,wg-a,,,,AAXX 23034 07790 12675 /2702 10160 20140 30086 40100 56005 60006 81532 90300=
07790,1997-10-23 06:00:00,16,1009.8,-0.2,88,14,25000,7.408,,,240,15.9,17.5,,,,,,,,,wg-a,,,,AAXX 23064 07790 02575 62404 10160 20140 30084 40098 55002 60006 84832 90600 333 10175 20159 60004=
07790,1997-10-23 09:00:00,20,1010.2,0.4,73,15,25000,11.112,,,150,,,,,,,,,,,wg-a,,,,AAXX 23094 07790 12575 71506 10200 20150 30088 40102 50004 60006 8683/ 90900=
07790,1997-10-23 12:00:00,19,1009,-1.2,88,17,15000,14.816,,,160,,,,1,,,,,,61,wg-a,,,,AAXX 23124 07790 02465 81608 10190 20170 30076 40090 58012 60016 76162 8481/ 91200 333 60017=
07790,1997-10-23 15:00:00,19,1007.9,-1.1,83,16,20000,7.408,,,170,,,,0,,,,,,3,wg-a,,,,AAXX 23154 07790 12470 81704 10190 20160 30065 40079 56011 60007 70362 878// 91500=
07790,1997-10-23 18:00:00,17,1007.5,-0.4,94,16,12000,3.704,,,290,16,20.3,,,,,,,,60,wg-a,,,,AAXX 23184 07790 02462 82902 10170 20160 30061 40075 57004 61000 76062 8587/ 91800 333 10203 20160 6004=
07790,1997-10-24 00:00:00,17,1005.8,-0.5,94,16,500,25.928,,,320,,,,37,,,,,,63,wg-a,,,,AAXX 24004 07790 02200 83214 10170 20160 30044 40058 56005 60386 76362 8757/ 90000 333 60377=
07790,1997-10-24 03:00:00,16,1005.8,0,94,15,8000,25.928,,,350,,,,16,,,,,,60,wg-a,,,,AAXX 24034 07790 12258 83514 10160 20150 30044 40058 50000 60167 76066 8757/ 90300=
07790,1997-10-24 06:00:00,17,1006.6,0.8,77,13,18000,14.816,,,330,15.8,17.4,,,,,60,,,1,wg-a,,,,AAXX 24064 07790 02568 73308 10170 20130 30052 40066 51008 60006 70162 875// 90600 333 10174 20158 60604=
07790,1997-10-24 09:00:00,20,1007.3,0.7,68,14,20000,22.224,,,340,,,,,,,,,,,wg-a,,,,AAXX 24094 07790 12570 /3412 10200 20140 30059 40073 50007 60006 82804 90900=
07790,1997-10-24 12:00:00,21,1007.7,0.4,56,12,20000,18.52,,,310,,,,,,,,,,,wg-a,,,,AAXX 24124 07790 12470 33110 10210 20120 30063 40077 50004 60006 82834 91200=
07790,1997-10-24 15:00:00,20,1008.3,0.6,64,13,11000,14.816,,,20,,,,,,,,,,,wg-a,,,,AAXX 24154 07790 12/61 /0208 10200 20130 30069 40083 53006 60006 91500=
07790,1997-10-24 18:00:00,17,1010,1.7,72,12,20000,11.112,,,320,16.5,21.3,,,,,,,,,wg-a,,,,AAXX 24184 07790 12570 /3206 10170 20120 30086 40100 51017 60006 81500 91800 333 10213 20165=
07790,1997-10-24 21:00:00,14,1012.4,2.4,88,12,20000,11.112,,,250,,,,,,,,,,,wg-a,,,,AAXX 24214 07790 12/70 02506 10140 20120 30110 40124 53024 60006 80000 92100=
07790,1997-10-25 00:00:00,17,1014.2,1.8,68,11,20000,3.704,,,310,,,,,,,,,,,wg-a,,,,AAXX 25004 07790 12/70 03102 10170 20110 30128 40142 51018 60006 80000 90000=
07790,1997-10-25 03:00:00,14,1015.8,1.6,77,10,20000,7.408,,,260,,,,,,,,,,,wg-a,,,,AAXX 25034 07790 12/70 02604 10140 20100 30144 40158 51016 60006 80000 90300=
07790,1997-10-25 06:00:00,13,1017.3,1.5,82,10,20000,7.408,,,260,13.1,17.3,,,,,,,,,wg-a,,,,AAXX 25064 07790 02670 42604 10130 20100 30159 40173 51015 60006 84100 90600 333 10173 20131 60004=
07790,1997-10-25 09:00:00,19,1019.1,1.8,56,10,15000,0,,,0,,,,,,,,,,,wg-a,,,,AAXX 25094 07790 12665 20000 10190 20100 30177 40191 51018 60006 82500 90900=
07790,1997-10-25 12:00:00,19,1019,-0.1,56,10,15000,7.408,,,50,,,,,,,,,,,wg-a,,,,AAXX 25124 07790 12565 20504 10190 20100 30176 40190 58001 60006 82200 91200=
07790,1997-10-25 15:00:00,18,1019.2,0.2,52,8,15000,11.112,,,30,,,,,,,,,,,wg-a,,,,AAXX 25154 07790 12/65 00306 10180 20080 30178 40192 53002 60006 80000 91500=
07790,1997-10-25 18:00:00,14,1020.1,0.9,72,9,15000,7.408,,,230,13.1,19.8,,,,,,,,,wg-a,,,,AAXX 25184 07790 12/65 02304 10140 20090 30187 40201 53009 60006 80000 91800 333 10198 20131=
07790,1997-10-25 21:00:00,12,1020.9,0.7,82,9,15000,7.408,,,240,,,,,,,,,,,wg-a,,,,AAXX 25214 07790 12/65 02404 10120 20090 30194 40209 53007 60006 80000 92100=
07790,1997-10-26 00:00:00,11,1020.8,-0.1,87,9,15000,11.112,,,240,,,,,,,,,,,wg-a,,,,AAXX 26004 07790 12/65 02406 10110 20090 30193 40208 57001 60006 80000 90000=
07790,1997-10-26 03:00:00,11,1020.1,-0.7,82,8,15000,11.112,,,240,,,,,,,,,,,wg-a,,,,AAXX 26034 07790 12/65 02406 10110 20080 30186 40201 57007 60006 80000 90300=
07790,1997-10-26 06:00:00,12,1019.9,-0.2,76,8,15000,18.52,,,250,10.9,13.7,,,,,,,,11,wg-a,,,,AAXX 26064 07790 02/65 02510 10120 20080 30184 40199 56002 60006 71100 80000 90600 333 10137 20109 60004=
07790,1997-10-26 09:00:00,18,1020.1,0.3,56,9,12000,11.112,,,230,,,,,,,,,,,wg-a,,,,AAXX 26094 07790 12/62 02306 10180 20090 30187 40201 50003 60006 80000 90900=
07790,1997-10-26 12:00:00,20,1019.1,-1,53,10,11000,11.112,,,150,,,,,,,,,,,wg-a,,,,AAXX 26124 07790 12/61 /1506 10200 20100 30177 40191 58010 60006 91200=
07790,1997-10-26 15:00:00,19,1018.5,-0.6,64,12,10000,11.112,,,160,,,,,,,,,,,wg-a,,,,AAXX 26154 07790 12560 /1606 10190 20120 30171 40185 56006 60006 81100 91500=
07790,1997-10-26 18:00:00,15,1018.7,0.2,88,13,12000,3.704,,,240,11.5,20.7,,,,,,,,,wg-a,,,,AAXX 26184 07790 12562 32402 10150 20130 30173 40187 53002 60006 82530 91800 333 10207 20115=
07790,1997-10-26 21:00:00,15,1018.8,0.1,82,12,12000,7.408,,,220,,,,,,,,,,,wg-a,,,,AAXX 26214 07790 12662 32204 10150 20120 30174 40188 52001 60006 83500 92100=
07790,1997-10-27 00:00:00,12,1018.1,-0.8,94,11,12000,7.408,,,260,,,,,,,,,,,wg-a,,,,AAXX 27004 07790 12662 /2604 10120 20110 30166 40181 57008 60006 81500 90000=
07790,1997-10-27 03:00:00,13,1016.8,-1.2,88,11,12000,18.52,,,240,,,,,,,,,,,wg-a,,,,AAXX 27034 07790 32662 /2410 10130 20110 30154 40168 57012 81500 90300=
07790,1997-10-27 06:00:00,13,1016,-0.8,77,9,12000,18.52,,,240,11.8,15.5,,,,,,,,,wg-a,,,,AAXX 27064 07790 02662 /2410 10130 20090 30146 40160 58008 60006 81501 90600 333 10155 20118 60004=
07790,1997-10-27 09:00:00,19,1015.9,-0.1,60,11,15000,11.112,,,220,,,,,,,,,,,wg-a,,,,AAXX 27094 07790 12565 32206 10190 20110 30145 40159 58001 60006 81251 90900=
07790,1997-10-27 12:00:00,19,1014.7,,73,14,11000,11.112,,,150,,,,,,,,,,,wg-a,,,,AAXX 27124 07790 12/61 71506 10190 20140 30133 40147 60006 91200=
07790,1997-10-27 18:00:00,16,1014.2,0.3,82,13,15000,3.704,,,260,13,20.7,,,,,,,,,wg-a,,,,AAXX 27184 07790 12565 22602 10160 20130 30128 40142 53003 60006 82830 91800 333 10207 20130=
07790,1997-10-27 21:00:00,14,1015.1,0.9,94,13,4000,3.704,,,330,,,,1,,,,,,62,wg-a,,,,AAXX 27214 07790 12440 83302 10140 20130 30137 40151 53009 60017 76261 888// 92100=
07790,1997-10-28 00:00:00,14,1014.2,-0.9,94,13,8000,7.408,,,290,,,,0,,,,,,21,wg-a,,,,AAXX 28004 07790 02558 /2904 10140 20130 30128 40142 56009 60026 72161 86800 90000 333 60007=
07790,1997-10-28 03:00:00,14,1014.4,0.2,94,13,8000,3.704,,,150,,,,1,,,,,,60,wg-a,,,,AAXX 28034 07790 12358 71502 10140 20130 30130 40144 51002 60017 76062 878// 90300=
07790,1997-10-28 06:00:00,13,1015.4,1,88,11,8000,11.112,,,80,13.3,15.2,,,,,10,,,,wg-a,,,,AAXX 28064 07790 02/58 /0806 10130 20110 30140 40154 53010 60006 90600 333 10152 20133 60104=
07790,1997-10-28 12:00:00,12,1018.6,0.6,88,10,9000,0,,,0,,,,5,,,,,,60,wg-a,,,,AAXX 28124 07790 02459 80000 10120 20100 30171 40186 51006 60236 76066 887// 91200 333 60057=
07790,1997-10-28 15:00:00,12,1019.7,1.1,71,7,11000,31.484,,,40,,,,,,,,,,,wg-a,,,,AAXX 28154 07790 32/61 /0417 10120 20070 30182 40197 53011 91500=
07790,1997-10-28 18:00:00,11,1021.7,2,66,5,15000,31.484,,,30,11.4,13.3,,,,,,,,1,wg-a,,,,AAXX 28184 07790 12665 80317 10110 20050 30202 40217 53020 60006 70162 887// 91800 333 10133 20114=
07790,1997-10-28 21:00:00,10,1023.2,1.5,66,4,15000,29.632,,53.708,40,,,,,,,,,,60,wg-a,,,,AAXX 28214 07790 02565 80416 10100 20040 30217 40232 53015 61000 76062 885// 92100 333 //// 91029=
07790,1997-10-29 00:00:00,10,1023.6,0.4,62,3,15000,25.928,,53.708,50,,,,,,,,,,61,wg-a,,,,AAXX 29004 07790 02565 80514 10100 20030 30221 40236 53004 61000 76162 888// 90000 333 6100 91029=
07790,1997-10-29 03:00:00,9,1023.2,-0.4,71,4,15000,31.484,,53.708,50,,,,1,,,,,,61,wg-a,,,,AAXX 29034 07790 12565 80517 10090 20040 30217 40232 58004 60017 76166 888// 90300 333 91029=
07790,1997-10-29 06:00:00,8,1023.5,0.3,71,3,15000,31.484,,53.708,50,8.1,11.4,,,,,,,,61,wg-a,,,,AAXX 29064 07790 02565 80517 10080 20030 30220 40235 52003 61000 76166 888// 90600 333 10114 20081 6025 91029=
07790,1997-10-29 09:00:00,9,1024.3,0.8,57,1,15000,31.484,,57.412,40,,,,0,,,,,,2,wg-a,,,,AAXX 29094 07790 12665 80417 10090 20010 30228 40243 51008 60007 70262 8552/ 90900 333 91031=
07790,1997-10-29 12:00:00,10,1023.1,-1.2,57,2,18000,38.892,,57.412,40,,,,,,,,,,2,wg-a,,,,AAXX 29124 07790 12568 80421 10100 20020 30216 40231 58012 60006 70262 8652/ 91200 333 91031=
07790,1997-10-29 15:00:00,10,1022.3,-0.8,57,2,18000,38.892,,53.708,40,,,,,,,,,,,wg-a,,,,AAXX 29154 07790 12668 /0421 10100 20020 30208 40223 56008 60006 8452/ 91500 333 91029=
07790,1997-10-29 18:00:00,10,1022.3,-0,50,0,11000,35.188,,53.708,40,8.1,10.3,,,,,,,,,wg-a,,,,AAXX 29184 07790 12/61 /0419 10100 20000 30208 40223 55000 60006 91800 333 10103 20081 91029=
07790,1997-10-29 21:00:00,10,1022.1,-0.2,53,1,18000,35.188,,57.412,40,,,,,,,,,,,wg-a,,,,AAXX 29214 07790 12668 80419 10100 20010 30206 40221 58002 60006 8552/ 92100 333 91031=
07790,1997-10-30 00:00:00,11,1021.2,-0.9,54,2,18000,31.484,,57.412,40,,,,,,,,,,,wg-a,,,,AAXX 30004 07790 12668 80417 10110 20020 30197 40212 56009 60006 8552/ 90000 333 91031=
07790,1997-10-30 03:00:00,10,1020.3,-0.9,53,1,18000,31.484,,,30,,,,,,,,,,,wg-a,,,,AAXX 30034 07790 12668 80317 10100 20010 30188 40203 56009 60006 8552/ 90300=
07790,1997-10-30 06:00:00,10,1020,-0.3,57,2,10000,31.484,,,40,9.9,10.6,,,,,,,,,wg-a,,,,AAXX 30064 07790 02660 80417 10100 20020 30185 40200 55003 60006 8552/ 90600 333 10106 20099 60004=
07790,1997-10-30 09:00:00,10,1020.2,0.2,66,4,10000,31.484,,,30,,,,,,,,,,,wg-a,,,,AAXX 30094 07790 12560 /0317 10100 20040 30187 40202 50002 60006 875// 90900=
07790,1997-10-30 12:00:00,10,1019.5,-0.7,71,5,10000,22.224,,,20,,,,1,,,,,,60,wg-a,,,,AAXX 30124 07790 02560 80212 10100 20050 30180 40195 57007 60016 76062 8752/ 91200 333 60017=
07790,1997-10-30 18:00:00,10,1019.7,0.8,76,6,10000,25.928,,,20,9,10.4,,,,,,,,3,wg-a,,,,AAXX 30184 07790 02560 80214 10100 20060 30182 40197 53008 60006 70362 8752/ 91800 333 10104 20090 61000=
07790,1997-10-30 21:00:00,10,1020.3,0.6,87,8,10000,25.928,,,20,,,,1,,,,,,,wg-a,,,,AAXX 30214 07790 12460 80214 10100 20080 30188 40203 53006 60017 8752/ 92100=
07790,1997-10-31 00:00:00,10,1020.4,0.1,82,7,10000,14.816,,,330,,,,0,,,,,,,wg-a,,,,AAXX 31004 07790 02460 83308 10100 20070 30189 40204 53001 60016 8752/ 90000 333 60007=
07790,1997-10-31 03:00:00,11,1020,-0.4,82,8,15000,25.928,,,350,,,,,,,,,,,wg-a,,,,AAXX 31034 07790 12465 83514 10110 20080 30185 40200 55004 60006 885// 90300=
07790,1997-10-31 06:00:00,12,1020.1,0.1,71,7,15000,29.632,,,360,10.1,11.8,,,,,4,,,,wg-a,,,,AAXX 31064 07790 02565 73616 10120 20070 30186 40201 52001 60006 875// 90600 333 10118 20101 60044=
07790,1997-10-31 12:00:00,14,1020,-0.7,63,7,25000,31.484,,,20,,,,,,,,,,,wg-a,,,,AAXX 31124 07790 12575 50217 10140 20070 30186 40200 58007 60006 84801 91200=
07790,1997-10-31 15:00:00,14,1019.2,-0.8,63,7,25000,22.224,,,10,,,,,,,,,,,wg-a,,,,AAXX 31154 07790 12675 /0112 10140 20070 30178 40192 56008 60006 82501 91500=
07790,1997-10-31 18:00:00,12,1019.7,0.4,67,6,25000,11.112,,,310,11.7,14.8,,,,,,,,,wg-a,,,,AAXX 31184 07790 12575 43106 10120 20060 30182 40197 53004 60006 82531 91800 333 10148 20117=
07790,1997-10-31 21:00:00,11,1020.1,0.4,76,7,25000,11.112,,,300,,,,,,,,,,,wg-a,,,,AAXX 31214 07790 12575 /3006 10110 20070 30186 40201 53004 60006 82531 92100=
07790,1997-11-01 00:00:00,12,1019.7,-0.4,71,7,15000,11.112,,,310,,,,,,,,,,,wg-a,,,,AAXX 01004 07790 12565 23106 10120 20070 30182 40197 57004 60006 81531 90000=
07790,1997-11-01 03:00:00,11,1019.3,-0.4,71,6,20000,11.112,,,260,,,,,,,,,,,wg-a,,,,AAXX 01034 07790 12570 32606 10110 20060 30178 40193 56004 60006 81531 90300=
07790,1997-11-01 06:00:00,11,1019.3,0,76,7,20000,11.112,,,280,10.1,12.8,,,,,,,,,wg-a,,,,AAXX 01064 07790 02570 32806 10110 20070 30178 40193 50000 60006 82531 90600 333 10128 20101 60004=
07790,1997-11-01 09:00:00,13,1020.6,1.3,82,10,17000,7.408,,,220,,,,,,,,,,60,wg-a,,,,AAXX 01094 07790 02567 82204 10130 20100 30191 40206 51013 61000 76061 81577 90900 333 ////=
07790,1997-11-01 12:00:00,14,1020,-0.5,82,11,15000,14.816,,,10,,,,0,,,,,,60,wg-a,,,,AAXX 01124 07790 02565 80108 10140 20110 30186 40200 58005 60006 76061 85877 91200 333 60007=
07790,1997-11-01 15:00:00,14,1019.2,-0.8,82,11,15000,14.816,,,10,,,,,,,,,,1,wg-a,,,,AAXX 01154 07790 02565 /0108 10140 20110 30178 40192 56008 61000 70162 84871 91500 333 ////=
07790,1997-11-01 18:00:00,13,1019.5,0.3,88,11,17000,7.408,,,230,11.2,14.8,,,,,,,,3,wg-a,,,,AAXX 01184 07790 12467 /2304 10130 20110 30181 40195 52003 60006 70362 84870 91800 333 10148 20112=
07790,1997-11-01 20:00:00,11,1019.3,-0.3,94,10,15000,7.408,,,230,,,,,,,,,,,wg-a,,,,AAXX 01204 07790 12465 /2304 10110 20100 30178 40193 55003 60006 84870 92000=
07790,1997-11-01 21:00:00,11,1019.3,-0.3,94,10,15000,7.408,,,230,,,,,,,,,,,wg-a,,,,AAXX 01214 07790 12465 42304 10110 20100 30178 40193 55003 60006 84870 92100=
07790,1997-11-02 00:00:00,10,1018.9,-0.4,87,8,15000,11.112,,,260,,,,,,,,,,,wg-a,,,,AAXX 02004 07790 12465 42606 10100 20080 30174 40189 56004 60006 84870 90000=
07790,1997-11-02 03:00:00,11,1017.9,-1,82,8,12000,11.112,,,240,,,,,,,,,,,wg-a,,,,AAXX 02034 07790 12662 42406 10110 20080 30164 40179 58010 60006 84501 90300=
07790,1997-11-02 06:00:00,11,1017.3,-0.6,82,8,12000,14.816,,,240,10,13.2,,,,,,,,,wg-a,,,,AAXX 02064 07790 02562 22408 10110 20080 30158 40173 56006 60006 81831 90600 333 10132 20100 60004=
07790,1997-11-02 12:00:00,18,1016.9,-0.9,64,11,20000,11.112,,,100,,,,,,,,,,,wg-a,,,,AAXX 02124 07790 12570 31006 10180 20110 30155 40169 58009 60006 83201 91200=
07790,1997-11-02 15:00:00,18,1016.2,-0.7,64,11,20000,7.408,,,150,,,,,,,,,,,wg-a,,,,AAXX 02154 07790 12570 /1504 10180 20110 30148 40162 55007 60006 81201 91500=
07790,1997-11-02 18:00:00,12,1016.4,0.1,88,10,20000,11.112,,,240,10.5,18.8,,,,,,,,,wg-a,,,,AAXX 02184 07790 12770 /2406 10120 20100 30149 40164 53001 60006 81500 91800 333 10188 20105=
07790,1997-11-02 21:00:00,11,1016.5,0.1,94,10,20000,11.112,,,240,,,,,,,,,,,wg-a,,,,AAXX 02214 07790 12670 /2406 10110 20100 30150 40165 53001 60006 81500 92100=
07790,1997-11-03 00:00:00,10,1016.3,-0.2,87,8,20000,11.112,,,250,,,,,,,,,,,wg-a,,,,AAXX 03004 07790 12670 /2506 10100 20080 30148 40163 57002 60006 81500 90000=
07790,1997-11-03 03:00:00,10,1015.4,-0.9,87,8,20000,11.112,,,240,,,,0,,,,,,,wg-a,,,,AAXX 03034 07790 12670 /2406 10100 20080 30139 40154 56009 60007 81500 90300=
07790,1997-11-03 06:00:00,9,1015.2,-0.2,87,7,20000,11.112,,,230,8.6,12.2,,,,,,,,,wg-a,,,,AAXX 03064 07790 02670 22306 10090 20070 30137 40152 56002 60006 81501 90600 333 10122 20086 60004=
07790,1997-11-03 09:00:00,17,1015,-0.1,59,9,25000,7.408,,,220,,,,,,,,,,,wg-a,,,,AAXX 03094 07790 12/75 /2204 10170 20090 30136 40150 58001 60006 81031 90900=
07790,1997-11-03 12:00:00,19,1014.1,-0.9,60,11,25000,7.408,,,150,,,,,,,,,,,wg-a,,,,AAXX 03124 07790 12675 21504 10190 20110 30127 40141 58009 60006 81231 91200=
07790,1997-11-03 15:00:00,18,1013.2,-0.9,64,11,25000,11.112,,,150,,,,,,,,,,,wg-a,,,,AAXX 03154 07790 12675 /1506 10180 20110 30118 40132 56009 60006 81200 91500=
07790,1997-11-03 18:00:00,12,1013.6,0.4,88,10,15000,3.704,,,260,8.6,19,,,,,,,,,wg-a,,,,AAXX 03184 07790 12/65 /2602 10120 20100 30122 40136 53004 60006 80000 91800 333 10190 20086=
07790,1997-11-03 21:00:00,11,1013.8,0.1,87,9,15000,7.408,,,220,,,,,,,,,,,wg-a,,,,AAXX 03214 07790 12/65 02204 10110 20090 30123 40138 53001 60006 80000 92100=
07790,1997-11-04 00:00:00,9,1013.5,-0.3,93,8,15000,7.408,,,240,,,,,,,,,,,wg-a,,,,AAXX 04004 07790 12/65 02404 10090 20080 30120 40135 58003 60006 80000 90000=
07790,1997-11-04 03:00:00,8,1013.3,-0.2,93,7,15000,11.112,,,240,,,,0,,,,,,,wg-a,,,,AAXX 04034 07790 12/65 02406 10080 20070 30118 40133 58002 60007 80000 90300=
07790,1997-11-04 06:00:00,7,1013.6,0.3,93,6,10000,11.112,,,240,7.4,12.2,,,,,,,,,wg-a,,,,AAXX 04064 07790 02560 32406 10070 20060 30121 40136 52003 60006 81131 90600 333 10122 20074 60004=
07790,1997-11-04 12:00:00,18,1013.9,-0.5,64,11,15000,14.816,,,140,,,,,,,,,,,wg-a,,,,AAXX 04124 07790 12565 71408 10180 20110 30125 40139 58005 60006 85833 91200=
07790,1997-11-04 15:00:00,17,1013.6,-0.3,72,12,12000,3.704,,,150,,,,,,,,,,,wg-a,,,,AAXX 04154 07790 12562 81502 10170 20120 30122 40136 56003 60006 8483/ 91500=
07790,1997-11-04 18:00:00,15,1014.4,0.8,82,12,10000,3.704,,,230,7.5,18.3,,,,,,,,,wg-a,,,,AAXX 04184 07790 12560 72302 10150 20120 30130 40144 53008 60006 8483/ 91800 333 10183 20075=
07790,1997-11-04 21:00:00,14,1014.4,-0,88,12,12000,7.408,,,250,,,,,,,,,,,wg-a,,,,AAXX 04214 07790 12562 72504 10140 20120 30130 40144 55000 60006 8487/ 92100=
07790,1997-11-05 00:00:00,14,1014,-0.4,88,12,12000,3.704,,,250,,,,,,,,,,,wg-a,,,,AAXX 05004 07790 12562 72502 10140 20120 30126 40140 58004 60006 8487/ 90000=
07790,1997-11-05 03:00:00,13,1013.3,-0.7,94,12,12000,3.704,,,240,,,,,,,,,,,wg-a,,,,AAXX 05034 07790 12562 72402 10130 20120 30119 40133 58007 60006 8487/ 90300=
07790,1997-11-05 06:00:00,14,1013.3,-0,94,13,6000,0,,,0,13.2,14.9,,,,,,,,61,wg-a,,,,AAXX 05064 07790 02456 80000 10140 20130 30119 40133 55000 61000 76165 8/57/ 90600 333 10149 20132 6000=
07790,1997-11-05 09:00:00,15,1013.3,0,100,15,1300,3.704,,,260,,,,7,,,,,,10,wg-a,,,,AAXX 05094 07790 12113 82602 10150 20150 30119 40133 50000 60077 71066 887// 90900=
07790,1997-11-05 12:00:00,17,1011.5,-1.8,94,16,12000,7.408,,,140,,,,0,,,,,,50,wg-a,,,,AAXX 05124 07790 02362 81404 10170 20160 30101 40115 58018 60086 75065 877// 91200 333 60007=
07790,1997-11-05 15:00:00,19,1010.2,-1.3,83,16,11000,3.704,,,180,,,,,,,,,,,wg-a,,,,AAXX 05154 07790 32/61 /1802 10190 20160 30088 40102 56013 91500=
07790,1997-11-05 18:00:00,17,1009.8,-0.4,94,16,15000,3.704,,,220,14.1,19,,,,,,,,1,wg-a,,,,AAXX 05184 07790 12365 82202 10170 20160 30084 40098 56004 60006 70152 84537 91800 333 10190 20141=
07790,1997-11-05 21:00:00,15,1009.5,-0.3,94,14,18000,0,,,0,,,,,,,,,,,wg-a,,,,AAXX 05214 07790 12368 80000 10150 20140 30081 40095 57003 60006 83837 92100=
07790,1997-11-06 00:00:00,15,1008.2,-1.3,94,14,18000,3.704,,,250,,,,,,,,,,,wg-a,,,,AAXX 06004 07790 12268 82502 10150 20140 30068 40082 56013 60006 83877 90000=
07790,1997-11-06 06:00:00,15,1005.1,-1.1,94,14,15000,3.704,,,280,14.5,16.6,,,,,8,,,,wg-a,,,,AAXX 06064 07790 02465 82802 10150 20140 30037 40051 57011 60006 8387/ 90600 333 10166 20145 60084=
07790,1997-11-06 12:00:00,20,1003.5,-1.4,83,17,12000,29.632,,,160,,,,,,,,,,,wg-a,,,,AAXX 06124 07790 12562 71616 10200 20170 30021 40035 58014 60006 8587/ 91200=
07790,1997-11-06 15:00:00,19,1003.4,-0.1,88,17,7000,31.484,,,150,,,,,,,,,,,wg-a,,,,AAXX 06154 07790 12457 71517 10190 20170 30020 40034 58001 60006 8587/ 91500=
07790,1997-11-06 18:00:00,18,1003.6,0.2,94,17,4000,25.928,,,150,14.7,20.7,,,,,,,,21,wg-a,,,,AAXX 06184 07790 02240 71514 10180 20170 30022 40036 53002 61000 72162 8677/ 91800 333 10207 20147 6100=
07790,1997-11-06 21:00:00,19,1003.2,-0.4,88,17,500,14.816,,50.004,170,,,,1,,,,,,61,wg-a,,,,AAXX 06214 07790 12200 81708 10190 20170 30018 40032 58004 60017 76162 8557/ 92100 333 91027=
07790,1997-11-07 00:00:00,17,1002.9,-0.3,88,15,500,7.408,,50.004,170,,,,2,,,,,,21,wg-a,,,,AAXX 07004 07790 02200 81704 10170 20150 30015 40029 58003 60036 72162 8557/ 90000 333 60027 91027=
07790,1997-11-07 03:00:00,17,1003.6,0.7,82,14,6000,7.408,,,290,,,,,,,,,,,wg-a,,,,AAXX 07034 07790 12256 72904 10170 20140 30022 40036 53007 60006 8557/ 90300=
07790,1997-11-07 06:00:00,15,1004.4,0.8,88,13,9000,7.408,,,250,15.2,19,,,,,3,,,,wg-a,,,,AAXX 07064 07790 02259 /2504 10150 20130 30030 40044 51008 60006 84581 90600 333 10190 20152 60034=
07790,1997-11-07 09:00:00,17,1005.6,1.2,72,12,25000,3.704,,,240,,,,,,,,,,,wg-a,,,,AAXX 07094 07790 12575 /2402 10170 20120 30042 40056 50012 60006 82871 90900=
07790,1997-11-07 12:00:00,19,1003.8,-1.8,78,15,20000,3.704,,,130,,,,,,,,,,,wg-a,,,,AAXX 07124 07790 12570 71302 10190 20150 30024 40038 58018 60006 81872 91200=
07790,1997-11-07 18:00:00,16,1003.5,0.3,94,15,10000,0,,,0,14.6,18.8,,,,,,,,61,wg-a,,,,AAXX 07184 07790 02460 80000 10160 20150 30021 40035 53003 61000 76162 8227/ 91800 333 10188 20146 6100=
07790,1997-11-08 00:00:00,13,1002.5,-0.1,94,12,12000,3.704,,,240,,,,,,,,,,1,wg-a,,,,AAXX 08004 07790 12462 32402 10130 20120 30011 40025 55001 60016 70161 82830 90000=
07790,1997-11-08 06:00:00,13,1004.2,1.1,72,8,12000,7.408,,,220,12.7,16.1,,,,,,,,,wg-a,,,,AAXX 08064 07790 02/62 12204 10130 20080 30028 40042 52011 60006 81030 90600 333 10161 20127 60004=
07790,1997-11-08 09:00:00,19,1006.5,2.3,56,10,11000,7.408,,,230,,,,,,,,,,,wg-a,,,,AAXX 08094 07790 12/61 /2304 10190 20100 30051 40065 51023 60006 90900=
07790,1997-11-08 12:00:00,19,1006.3,-0.2,60,11,40000,11.112,,,130,,,,,,,,,,,wg-a,,,,AAXX 08124 07790 12582 71306 10190 20110 30049 40063 58002 60006 8184/ 91200=
07790,1997-11-08 18:00:00,13,1008.4,1.9,82,10,10000,7.408,,,270,12.6,20.6,,,,,,,,,wg-a,,,,AAXX 08184 07790 12/60 /2704 10130 20100 30070 40084 53019 60006 91800 333 10206 20126=
07790,1997-11-08 21:00:00,14,1010.1,1.7,67,8,500,7.408,,,200,,,,,,,,,,,wg-a,,,,AAXX 08214 07790 12/00 02004 10140 20080 30087 40101 53017 60006 80000 92100=
07790,1997-11-09 00:00:00,13,1011.3,1.2,58,5,500,7.408,,,200,,,,,,,,,,,wg-a,,,,AAXX 09004 07790 12/00 02004 10130 20050 30099 40113 51012 60006 80000 90000=
07790,1997-11-09 03:00:00,12,1011.1,-0.2,82,9,500,7.408,,,250,,,,,,,,,,,wg-a,,,,AAXX 09034 07790 12/00 /2504 10120 20090 30097 40111 58002 60006 84031 90300=
07790,1997-11-09 06:00:00,12,1009.5,-1.6,82,9,15000,3.704,,,200,11.7,16,,,,,,,,,wg-a,,,,AAXX 09064 07790 02665 72002 10120 20090 30081 40095 56016 60006 84831 90600 333 10160 20117 60004=
07790,1997-11-09 09:00:00,16,1008.4,-1.1,72,11,20000,7.408,,,170,,,,,,,,,,,wg-a,,,,AAXX 09094 07790 12470 51704 10160 20110 30070 40084 58011 60006 83831 90900=
07790,1997-11-09 12:00:00,19,1006.1,-2.3,56,10,20000,7.408,,,340,,,,,,,,,,,wg-a,,,,AAXX 09124 07790 12570 53404 10190 20100 30047 40061 56023 60006 83831 91200=
07790,1997-11-09 15:00:00,20,1006.4,0.3,64,13,20000,7.408,,,30,,,,,,,,,,,wg-a,,,,AAXX 09154 07790 12670 40304 10200 20130 30050 40064 51003 60006 82833 91500=
07790,1997-11-09 18:00:00,15,1007.9,1.5,55,6,20000,3.704,,,300,11.6,20.5,,,,,,,,,wg-a,,,,AAXX 09184 07790 12670 /3002 10150 20060 30065 40079 53015 60006 81501 91800 333 10205 20116=
07790,1997-11-09 21:00:00,16,1009.7,1.8,45,4,20000,18.52,,,240,,,,,,,,,,,wg-a,,,,AAXX 09214 07790 12670 /2410 10160 20040 30083 40097 53018 60006 81100 92100=
07790,1997-11-10 00:00:00,16,1010,0.3,45,4,20000,14.816,,,270,,,,,,,,,,,wg-a,,,,AAXX 10004 07790 12670 42708 10160 20040 30086 40100 50003 60006 81501 90000=
07790,1997-11-10 03:00:00,15,1009.5,-0.5,48,4,10000,18.52,,,240,,,,,,,,,,,wg-a,,,,AAXX 10034 07790 12660 /2410 10150 20040 30081 40095 56005 60006 81502 90300=
07790,1997-11-10 06:00:00,12,1009.3,-0.2,58,4,20000,14.816,,,230,11.9,16.9,,,,,,,,,wg-a,,,,AAXX 10064 07790 02670 /2308 10120 20040 30079 40093 55002 60006 81502 90600 333 10169 20119 60004=
07790,1997-11-10 12:00:00,21,1008.4,-1.3,40,7,50000,11.112,,,120,,,,,,,,,,,wg-a,,,,AAXX 10124 07790 12584 /1206 10210 20070 30070 40084 58013 60006 81903 91200=
07790,1997-11-10 15:00:00,18,1008.3,-0.1,59,10,60000,7.408,,,10,,,,,,,,,,,wg-a,,,,AAXX 10154 07790 12586 /0104 10180 20100 30069 40083 55001 60006 81230 91500=
07790,1997-11-10 18:00:00,12,1009.2,0.9,71,7,60000,7.408,,,270,12.1,21.5,,,,,,,,,wg-a,,,,AAXX 10184 07790 12586 52704 10120 20070 30078 40092 53009 60006 81233 91800 333 10215 20121=
07790,1997-11-11 00:00:00,12,1008.2,-1,82,9,20000,7.408,,,210,,,,0,,,,,,1,wg-a,,,,AAXX 11004 07790 02570 42104 10120 20090 30068 40082 56010 60016 70161 8127/ 90000 333 60007=
07790,1997-11-11 06:00:00,9,1009.2,0.8,81,6,75000,3.704,,,310,8.7,15.7,,,,,1,,,,wg-a,,,,AAXX 11064 07790 02589 43102 10090 20060 30077 40092 51008 60006 81244 90600 333 10157 20087 60014=
07790,1997-11-11 09:00:00,16,1009.9,0.8,63,9,25000,3.704,,,350,,,,,,,,,,,wg-a,,,,AAXX 11094 07790 12575 73502 10160 20090 30085 40099 51008 60006 84953 90900=
07790,1997-11-11 12:00:00,17,1008.5,-1.4,68,11,25000,14.816,,,220,,,,2,,,,,,1,wg-a,,,,AAXX 11124 07790 02575 62208 10170 20110 30071 40085 58014 60026 70198 83863 91200 333 60027=
07790,1997-11-11 15:00:00,18,1007.2,-1.3,56,9,25000,3.704,,,160,,,,,,,,,,,wg-a,,,,AAXX 11154 07790 12575 41602 10180 20090 30058 40072 56013 60006 81963 91500=
07790,1997-11-11 18:00:00,14,1007.4,0.2,77,10,25000,3.704,,,200,9.2,19.8,,,,,,,,,wg-a,,,,AAXX 11184 07790 12575 /2002 10140 20100 30060 40074 53002 60006 82863 91800 333 10198 20092=
07790,1997-11-11 21:00:00,14,1006.6,-0.8,72,9,25000,11.112,,,220,,,,,,,,,,,wg-a,,,,AAXX 11214 07790 12675 82206 10140 20090 30052 40066 56008 60006 82868 92100=
07790,1997-11-12 00:00:00,13,1004.7,-1.9,88,11,18000,11.112,,,250,,,,1,,,,,,17,wg-a,,,,AAXX 12004 07790 02568 82506 10130 20110 30033 40047 57019 60016 71791 82968 90000 333 60017=
07790,1997-11-12 03:00:00,12,1002.4,-2.3,94,11,18000,7.408,,,260,,,,1,,,,,,29,wg-a,,,,AAXX 12034 07790 12568 82604 10120 20110 30010 40024 56023 60017 72996 8596/ 90300=
07790,1997-11-12 06:00:00,13,1001.2,-1.2,82,10,12000,14.816,,,190,12.1,15.5,,,,,8,,,29,wg-a,,,,AAXX 12064 07790 02562 81908 10130 20100 39998 40012 58012 60006 72996 8696/ 90600 333 10155 20121 60084=
07790,1997-11-12 09:00:00,14,1001.5,0.3,77,10,15000,11.112,,,330,,,,,,,,,,60,wg-a,,,,AAXX 12094 07790 02565 83306 10140 20100 30001 40015 53003 61000 76062 8584/ 90900 333 ////=
07790,1997-11-12 12:00:00,17,1002.7,1.2,68,11,20000,14.816,,,10,,,,,,,,,,2,wg-a,,,,AAXX 12124 07790 02570 60108 10170 20110 30013 40027 51012 61000 70262 83842 91200 333 ////=
07790,1997-11-12 15:00:00,15,1003.1,0.4,67,9,20000,7.408,,,250,,,,,,,,,,,wg-a,,,,AAXX 12154 07790 12570 82504 10150 20090 30017 40031 53004 60006 8287/ 91500=
07790,1997-11-12 18:00:00,13,1004.4,1.3,72,8,20000,14.816,,,270,12.5,17.2,,,,,,,,,wg-a,,,,AAXX 12184 07790 12570 32708 10130 20080 30030 40044 51013 60006 82230 91800 333 10172 20125=
07790,1997-11-13 00:00:00,12,1005,-0.5,58,4,20000,7.408,,,300,,,,,,,,,,,wg-a,,,,AAXX 13004 07790 12570 /3004 10120 20040 30036 40050 58005 60006 82802 90000=
07790,1997-11-13 03:00:00,11,1004.1,-0.9,66,5,20000,7.408,,,210,,,,,,,,,,,wg-a,,,,AAXX 13034 07790 12670 32104 10110 20050 30027 40041 56009 60006 81502 90300=
07790,1997-11-13 06:00:00,9,1003.9,-0.3,71,4,20000,14.816,,,250,8.5,13.5,,,,,,,,,wg-a,,,,AAXX 13064 07790 02570 32508 10090 20040 30024 40039 56003 60006 83802 90600 333 10135 20085 61000=
07790,1997-11-13 09:00:00,15,1003.9,0.1,48,4,60000,7.408,,,240,,,,,,,,,,,wg-a,,,,AAXX 13094 07790 12586 /2404 10150 20040 30025 40039 51001 60006 81203 90900=
07790,1997-11-13 12:00:00,19,1001.9,-2,37,4,60000,3.704,,,160,,,,,,,,,,,wg-a,,,,AAXX 13124 07790 12586 /1602 10190 20040 30005 40019 56020 60006 81200 91200=
07790,1997-11-13 15:00:00,16,1002.7,0.8,51,6,50000,14.816,,,340,,,,,,,,,,,wg-a,,,,AAXX 13154 07790 12584 /3408 10160 20060 30013 40027 53008 60006 81200 91500=
07790,1997-11-13 18:00:00,12,1003.7,1,50,2,50000,18.52,,,240,8.2,19.5,,,,,,,,,wg-a,,,,AAXX 13184 07790 12584 /2410 10120 20020 30023 40037 53010 60006 81400 91800 333 10195 20082=
07790,1997-11-13 21:00:00,12,1004.7,1,47,1,25000,7.408,,,240,,,,,,,,,,,wg-a,,,,AAXX 13214 07790 12575 /2404 10120 20010 30033 40047 53010 60006 81400 92100=
07790,1997-11-14 00:00:00,11,1005.5,0.8,62,4,25000,14.816,,,260,,,,,,,,,,,wg-a,,,,AAXX 14004 07790 12575 /2608 10110 20040 30041 40055 52008 60006 81400 90000=
07790,1997-11-14 03:00:00,8,1006.3,0.7,76,4,25000,7.408,,,260,,,,,,,,,,,wg-a,,,,AAXX 14034 07790 12575 /2604 10080 20040 30048 40063 52007 60006 81400 90300=
07790,1997-11-14 06:00:00,9,1007.3,1,71,4,11000,18.52,,,250,,,,,,,,,,,wg-a,,,,AAXX 14064 07790 12561 22510 10090 20040 30058 40073 51010 60006 82800 90600=
07790,1997-11-14 09:00:00,12,1009.4,2.2,62,5,25000,11.112,,,220,,,,,,,,,,16,wg-a,,,,AAXX 14094 07790 02575 /2206 10120 20050 30080 40094 53022 61000 71661 85800 90900 333 ////=
07790,1997-11-14 12:00:00,15,1009.8,0.4,77,11,25000,14.816,,,30,,,,0,,,,,,21,wg-a,,,,AAXX 14124 07790 02575 /0308 10150 20110 30084 40098 51004 60006 72161 86800 91200 333 60007=
07790,1997-11-14 15:00:00,15,1010.6,0.8,72,10,25000,7.408,,,10,,,,,,,,,,,wg-a,,,,AAXX 14154 07790 12575 /0104 10150 20100 30092 40106 53008 60006 85800 91500=
07790,1997-11-14 18:00:00,12,1012.3,1.7,88,10,25000,11.112,,,240,9.4,15.1,,,,,,,,60,wg-a,,,,AAXX 14184 07790 02575 52406 10120 20100 30109 40123 53017 61000 76062 85800 91800 333 10151 20094 6001=
07790,1997-11-14 21:00:00,11,1014.1,1.7,94,10,25000,11.112,,,250,,,,6,,,,,,60,wg-a,,,,AAXX 14214 07790 12375 72506 10110 20100 30126 40141 51017 60067 76086 8687/ 92100=
07790,1997-11-15 00:00:00,11,1015,0.9,87,9,25000,11.112,,,250,,,,,,,,,,1,wg-a,,,,AAXX 15004 07790 02575 52506 10110 20090 30135 40150 51009 60066 70186 85800 90000 333 61000=
07790,1997-11-15 03:00:00,11,1015.8,0.8,87,9,25000,7.408,,,300,,,,,,,,,,60,wg-a,,,,AAXX 15034 07790 02575 73004 10110 20090 30143 40158 53008 61000 76061 878// 90300 333 ////=
07790,1997-11-15 06:00:00,10,1017,1.2,87,8,40000,11.112,,,230,9.7,11.9,,,,,7,,,3,wg-a,,,,AAXX 15064 07790 02582 /2306 10100 20080 30155 40170 53012 60006 70361 86800 90600 333 10119 20097 60074=
07790,1997-11-15 09:00:00,15,1018.9,2,67,9,500,7.408,,,230,,,,,,,,,,,wg-a,,,,AAXX 15094 07790 12600 22304 10150 20090 30175 40189 51020 60006 82200 90900=
07790,1997-11-15 12:00:00,16,1018.8,-0.1,48,5,500,14.816,,,40,,,,,,,,,,,wg-a,,,,AAXX 15124 07790 12600 20408 10160 20050 30174 40188 58001 60006 81201 91200=
07790,1997-11-15 15:00:00,16,1018.8,-0,51,6,500,11.112,,,360,,,,,,,,,,,wg-a,,,,AAXX 15154 07790 12600 53606 10160 20060 30174 40188 55000 60006 81201 91500=
07790,1997-11-15 18:00:00,10,1020,1.1,76,6,500,11.112,,,240,9.7,16.5,,,,,,,,,wg-a,,,,AAXX 15184 07790 12/00 32406 10100 20060 30185 40200 53011 60006 80002 91800 333 10165 20097=
07790,1997-11-15 21:00:00,9,1020.4,0.4,76,5,500,18.52,,,250,,,,,,,,,,,wg-a,,,,AAXX 15214 07790 12/00 02510 10090 20050 30189 40204 51004 60006 80000 92100=
07790,1997-11-16 00:00:00,9,1020.1,-0.3,71,4,500,18.52,,,250,,,,,,,,,,,wg-a,,,,AAXX 16004 07790 12/00 02510 10090 20040 30186 40201 58003 60006 80000 90000=
07790,1997-11-16 03:00:00,8,1019.2,-0.9,71,3,10000,18.52,,,240,,,,,,,,,,,wg-a,,,,AAXX 16034 07790 12/60 /2410 10080 20030 30177 40192 58009 60006 90300=
07790,1997-11-16 06:00:00,8,1018.3,-0.9,66,2,500,18.52,,,240,7.1,9.7,,,,,,,,,wg-a,,,,AAXX 16064 07790 02500 32410 10080 20020 30168 40183 57009 60006 81542 90600 333 10097 20071 60004=
07790,1997-11-16 09:00:00,11,1017.8,-0.5,62,4,40000,18.52,,,240,,,,,,,,,,,wg-a,,,,AAXX 16094 07790 12582 /2410 10110 20040 30163 40178 58005 60006 81570 90900=
07790,1997-11-16 12:00:00,15,1015.9,-1.8,55,6,35000,3.704,,,230,,,,,,,,,,,wg-a,,,,AAXX 16124 07790 12681 /2302 10150 20060 30145 40159 58018 60006 81570 91200=
07790,1997-11-16 15:00:00,15,1014.3,-1.6,63,8,35000,7.408,,,170,,,,,,,,,,,wg-a,,,,AAXX 16154 07790 12681 61704 10150 20080 30129 40143 56016 60006 83571 91500=
07790,1997-11-16 18:00:00,9,1014.3,-0.1,81,6,20000,11.112,,,210,7.4,15.9,,,,,,,,,wg-a,,,,AAXX 16184 07790 12670 32106 10090 20060 30128 40143 56001 60006 83570 91800 333 10159 20074=
07790,1997-11-16 21:00:00,10,1014.7,0.4,76,6,20000,11.112,,,230,,,,,,,,,,,wg-a,,,,AAXX 16214 07790 12670 22306 10100 20060 30132 40147 53004 60006 81570 92100=
07790,1997-11-17 00:00:00,9,1014.5,-0.2,81,6,20000,11.112,,,240,,,,,,,,,,,wg-a,,,,AAXX 17004 07790 12670 /2406 10090 20060 30130 40145 58002 60006 81570 90000=
07790,1997-11-17 03:00:00,9,1014.3,-0.2,81,6,20000,7.408,,,230,,,,,,,,,,,wg-a,,,,AAXX 17034 07790 12670 /2304 10090 20060 30128 40143 58002 60006 86570 90300=
07790,1997-11-17 06:00:00,8,1014.7,0.4,81,5,20000,7.408,,,240,7.7,11.6,,,,,,,,,wg-a,,,,AAXX 17064 07790 02570 22404 10080 20050 30132 40147 53004 60006 82800 90600 333 10116 20077 60004=
07790,1997-11-17 09:00:00,12,1016.2,1.5,76,8,35000,3.704,,,220,,,,,,,,,,,wg-a,,,,AAXX 17094 07790 12581 72202 10120 20080 30147 40162 51015 60006 818// 90900=
07790,1997-11-17 12:00:00,16,1015,-1.1,51,6,35000,18.52,,,140,,,,,,,,,,,wg-a,,,,AAXX 17124 07790 12581 /1410 10160 20060 30136 40150 57011 60006 83501 91200=
07790,1997-11-17 15:00:00,15,1014.6,-0.4,59,7,35000,7.408,,,190,,,,,,,,,,,wg-a,,,,AAXX 17154 07790 12581 21904 10150 20070 30132 40146 56004 60006 82501 91500=
07790,1997-11-17 18:00:00,9,1015.3,0.6,81,6,20000,11.112,,,250,7.8,16.2,,,,,,,,,wg-a,,,,AAXX 17184 07790 12570 32506 10090 20060 30138 40153 53006 60006 83500 91800 333 10162 20078=
07790,1997-11-18 00:00:00,8,1016.1,0,76,4,25000,7.408,,,280,,,,,,,,,,,wg-a,,,,AAXX 18004 07790 12675 /2804 10080 20040 30146 40161 50000 60006 81500 90000=
07790,1997-11-18 06:00:00,7,1014.8,-0.2,81,4,25000,7.408,,,240,6.6,13,,,,,,,,,wg-a,,,,AAXX 18064 07790 02675 32404 10070 20040 30133 40148 58002 60006 83200 90600 333 10130 20066 60004=
07790,1997-11-18 09:00:00,13,1014.3,-0.4,54,4,25000,7.408,,,240,,,,,,,,,,,wg-a,,,,AAXX 18094 07790 12575 /2404 10130 20040 30129 40143 58004 60006 81200 90900=
07790,1997-11-18 12:00:00,14,1012.1,-2.2,51,4,25000,11.112,,,20,,,,,,,,,,,wg-a,,,,AAXX 18124 07790 12575 /0206 10140 20040 30107 40121 58022 60006 81100 91200=
07790,1997-11-18 15:00:00,13,1009.5,-2.6,54,4,25000,7.408,,,20,,,,,,,,,,,wg-a,,,,AAXX 18154 07790 12/75 00204 10130 20040 30081 40095 58026 60006 80000 91500=
07790,1997-11-18 18:00:00,7,1008.5,-1.1,81,4,20000,7.408,,,240,6.5,15.1,,,,,,,,,wg-a,,,,AAXX 18184 07790 12670 /2404 10070 20040 30070 40085 56011 60006 81500 91800 333 10151 20065=
07790,1997-11-19 00:00:00,10,1006.1,-1.6,66,4,20000,7.408,,,190,,,,,,,,,,,wg-a,,,,AAXX 19004 07790 12570 /1904 10100 20040 30046 40061 57016 60006 82530 90000=
07790,1997-11-19 06:00:00,10,1003.5,-0.9,76,6,12000,7.408,,,240,6.7,10.3,,,,,,,,21,wg-a,,,,AAXX 19064 07790 02562 72404 10100 20060 30021 40035 58009 61000 72162 82530 90600 333 10103 20067 6100=
07790,1997-11-19 09:00:00,11,1003.6,0.1,87,9,4500,7.408,,,300,,,,2,,,,,,61,wg-a,,,,AAXX 19094 07790 12445 83004 10110 20090 30022 40036 50001 60027 761// 885// 90900=
07790,1997-11-19 12:00:00,13,1001.3,-2.3,88,11,4500,35.188,,53.708,100,,,,12,,,,,,61,wg-a,,,,AAXX 19124 07790 02245 81019 10130 20110 39999 40013 58023 60146 76186 888// 91200 333 60127 91029=
07790,1997-11-19 15:00:00,11,1002.4,1.1,94,10,2200,22.224,,61.116,50,,,,19,,,,,,63,wg-a,,,,AAXX 19154 07790 12222 80512 10110 20100 30010 40024 53011 60197 76366 889// 91500 333 91033=
07790,1997-11-19 18:00:00,11,1002.9,0.5,87,9,500,18.52,,61.116,50,9.8,12.9,,,,,,,,61,wg-a,,,,AAXX 19184 07790 02200 80510 10110 20090 30015 40029 51005 61000 76166 889// 91800 333 10129 20098 6004 91033=
07790,1997-11-19 21:00:00,10,1004.3,1.4,87,8,500,31.484,,,20,,,,2,,,,,,61,wg-a,,,,AAXX 19214 07790 12300 80217 10100 20080 30029 40043 53014 60027 76166 887// 92100=
07790,1997-11-20 00:00:00,9,1004.9,0.5,87,7,10000,25.928,,,10,,,,1,,,,,,21,wg-a,,,,AAXX 20004 07790 02460 80114 10090 20070 30034 40049 50005 60036 72162 878// 90000 333 60017=
07790,1997-11-20 03:00:00,9,1005.6,0.7,81,6,10000,18.52,,,340,,,,,,,,,,21,wg-a,,,,AAXX 20034 07790 02460 83410 10090 20060 30041 40056 53007 61000 72122 878// 90300 333 ////=
07790,1997-11-20 06:00:00,9,1006.5,0.9,76,5,15000,18.52,,,330,8.8,10.5,,,,,40,,,,wg-a,,,,AAXX 20064 07790 02565 83310 10090 20050 30050 40065 53009 60006 8687/ 90600 333 10105 20088 60404=
07790,1997-11-20 09:00:00,10,1007.7,1.2,71,5,15000,11.112,,,300,,,,,,,,,,,wg-a,,,,AAXX 20094 07790 12565 83006 10100 20050 30062 40077 51012 60006 877// 90900=
07790,1997-11-20 12:00:00,12,1007.7,0.1,62,5,15000,18.52,,,360,,,,,,,,,,,wg-a,,,,AAXX 20124 07790 12565 /3610 10120 20050 30063 40077 51001 60006 86800 91200=
07790,1997-11-20 15:00:00,12,1007.8,0.1,71,7,15000,22.224,,,360,,,,,,,,,,,wg-a,,,,AAXX 20154 07790 12565 /3612 10120 20070 30064 40078 53001 60006 85800 91500=
07790,1997-11-20 18:00:00,10,1009.3,1.4,82,7,15000,3.704,,,230,9,12.6,,,,,,,,,wg-a,,,,AAXX 20184 07790 12565 /2302 10100 20070 30078 40093 53014 60006 85800 91800 333 10126 20090=
07790,1997-11-20 21:00:00,7,1009.8,0.5,87,5,15000,3.704,,,230,,,,,,,,,,,wg-a,,,,AAXX 20214 07790 12565 82302 10070 20050 30083 40098 50005 60006 885// 92100=
07790,1997-11-21 00:00:00,7,1009.6,-0.2,87,5,18000,3.704,,,290,,,,,,,,,,,wg-a,,,,AAXX 21004 07790 12568 72902 10070 20050 30081 40096 58002 60006 82530 90000=
07790,1997-11-21 03:00:00,9,1009.1,-0.5,81,6,18000,7.408,,,230,,,,,,,,,,,wg-a,,,,AAXX 21034 07790 12568 72304 10090 20060 30076 40091 56005 60006 81530 90300=
07790,1997-11-21 06:00:00,9,1009.8,0.7,87,7,11000,14.816,,,250,6.6,10.1,,,,,,,,,wg-a,,,,AAXX 21064 07790 02/61 /2508 10090 20070 30083 40098 51007 60006 90600 333 10101 20066 60004=
07790,1997-11-21 09:00:00,14,1010.8,1.1,67,8,25000,7.408,,,220,,,,,,,,,,,wg-a,,,,AAXX 21094 07790 12575 32204 10140 20080 30094 40108 51011 60006 82831 90900=
07790,1997-11-21 12:00:00,16,1010.8,0,68,10,25000,11.112,,,130,,,,,,,,,,,wg-a,,,,AAXX 21124 07790 12575 71306 10160 20100 30094 40108 50000 60006 83231 91200=
07790,1997-11-21 15:00:00,15,1010.6,-0.2,77,11,25000,7.408,,,160,,,,,,,,,,,wg-a,,,,AAXX 21154 07790 12575 71604 10150 20110 30092 40106 58002 60006 85201 91500=
07790,1997-11-21 18:00:00,12,1011.3,0.7,88,10,25000,3.704,,,270,9,16.7,,,,,,,,,wg-a,,,,AAXX 21184 07790 12575 72702 10120 20100 30099 40113 53007 60006 86201 91800 333 10167 20090=
07790,1997-11-21 21:00:00,12,1010.8,-0.5,88,10,11000,3.704,,,200,,,,,,,,,,,wg-a,,,,AAXX 21214 07790 12/61 /2002 10120 20100 30094 40108 56005 60006 92100=
07790,1997-11-22 00:00:00,11,1010,-0.8,94,10,500,11.112,,,220,,,,8,,,,,,81,wg-a,,,,AAXX 22004 07790 02500 82206 10110 20100 30086 40100 58008 60086 78198 8694/ 90000 333 60087=
07790,1997-11-22 06:00:00,11,1007.8,-0.7,100,11,7000,3.704,,,290,10.6,11.7,,,,,,,,61,wg-a,,,,AAXX 22064 07790 02357 82902 10110 20110 30064 40078 57007 61000 76198 869// 90600 333 10117 20106 6019=
07790,1997-11-22 09:00:00,13,1007.2,-0.6,82,10,7000,18.52,,,70,,,,8,,,,,,60,wg-a,,,,AAXX 22094 07790 12357 80710 10130 20100 30058 40072 55006 60087 76066 828// 90900=
07790,1997-11-22 12:00:00,12,1006.4,-0.8,94,11,2300,11.112,,,360,,,,7,,,,,,62,wg-a,,,,AAXX 22124 07790 02223 83606 10120 20110 30050 40064 58008 60156 76266 885// 91200 333 60077=
07790,1997-11-22 15:00:00,12,1005.4,-1,94,11,500,14.816,,,20,,,,4,,,,,,60,wg-a,,,,AAXX 22154 07790 12200 80208 10120 20110 30040 40054 56010 60047 76066 885// 91500=
07790,1997-11-22 18:00:00,12,1005.7,0.3,94,11,6000,11.112,,,20,11.4,12.8,,,,,,,,61,wg-a,,,,AAXX 22184 07790 02256 80206 10120 20110 30043 40057 53003 61000 76166 885// 91800 333 10128 20114 6011=
07790,1997-11-23 00:00:00,11,1006.2,-0,94,10,8000,18.52,,,340,,,,8,,,,,,60,wg-a,,,,AAXX 23004 07790 02258 83410 10110 20100 30048 40062 55000 60166 76066 8657/ 90000 333 60087=
07790,1997-11-23 03:00:00,12,1006.4,0.2,88,10,8000,22.224,,,340,,,,1,,,,,,61,wg-a,,,,AAXX 23034 07790 12258 83412 10120 20100 30050 40064 50002 60017 76162 8657/ 90300=
07790,1997-11-23 06:00:00,12,1007.8,1.4,82,9,8000,22.224,,,340,11.1,12.1,,,,,47,,,3,wg-a,,,,AAXX 23064 07790 02258 83412 10120 20090 30064 40078 53014 60006 70362 888// 90600 333 10121 20111 60474=
07790,1997-11-23 12:00:00,14,1009.9,0.7,72,9,18000,29.632,,,340,,,,,,,,,,,wg-a,,,,AAXX 23124 07790 12468 83416 10140 20090 30085 40099 53007 60006 878// 91200=
07790,1997-11-23 15:00:00,13,1010.7,0.8,77,9,18000,25.928,,,340,,,,,,,,,,16,wg-a,,,,AAXX 23154 07790 12468 83414 10130 20090 30093 40107 53008 60006 71622 878// 91500=
07790,1997-11-23 18:00:00,13,1011.6,0.9,77,9,11000,22.224,,,340,11.9,14.4,,,,,,,,,wg-a,,,,AAXX 23184 07790 12/61 /3412 10130 20090 30102 40116 53009 60006 91800 333 10144 20119=
07790,1997-11-23 21:00:00,14,1012.5,0.9,67,8,20000,22.224,,,340,,,,,,,,,,,wg-a,,,,AAXX 23214 07790 12670 43412 10140 20080 30111 40125 53009 60006 84500 92100=
07790,1997-11-24 00:00:00,14,1012.5,-0,58,6,20000,25.928,,,320,,,,,,,,,,,wg-a,,,,AAXX 24004 07790 12670 /3214 10140 20060 30111 40125 54000 60006 85500 90000=
07790,1997-11-24 03:00:00,12,1012.9,0.4,62,5,20000,3.704,,,270,,,,,,,,,,,wg-a,,,,AAXX 24034 07790 12670 32702 10120 20050 30115 40129 50004 60006 83500 90300=
07790,1997-11-24 06:00:00,12,1013.1,0.2,62,5,20000,18.52,,,250,10.6,14,,,,,,,,,wg-a,,,,AAXX 24064 07790 02770 32510 10120 20050 30117 40131 50002 60006 83500 90600 333 10140 20106 61000=
07790,1997-11-24 09:00:00,15,1014.6,1.5,59,7,11000,11.112,,,230,,,,,,,,,,,wg-a,,,,AAXX 24094 07790 12/61 /2306 10150 20070 30132 40146 51015 60006 90900=
07790,1997-11-24 12:00:00,16,1013.6,-1,68,10,25000,14.816,,,30,,,,,,,,,,,wg-a,,,,AAXX 24124 07790 12575 50308 10160 20100 30122 40136 58010 60006 81501 91200=
07790,1997-11-24 15:00:00,15,1013,-0.6,72,10,25000,3.704,,,30,,,,,,,,,,,wg-a,,,,AAXX 24154 07790 12575 80302 10150 20100 30116 40130 56006 60006 81532 91500=
07790,1997-11-24 18:00:00,13,1013.1,0.1,82,10,25000,3.704,,,260,10.7,17.7,,,,,,,,,wg-a,,,,AAXX 24184 07790 12575 82602 10130 20100 30117 40131 52001 60006 81532 91800 333 10177 20107=
07790,1997-11-24 21:00:00,11,1013.1,-0.1,87,9,20000,7.408,,,250,,,,,,,,,,,wg-a,,,,AAXX 24214 07790 12570 82504 10110 20090 30116 40131 56001 60006 84532 92100=
07790,1997-11-25 00:00:00,12,1012.4,-0.6,82,9,20000,14.816,,,250,,,,,,,,,,,wg-a,,,,AAXX 25004 07790 12570 82508 10120 20090 30110 40124 58006 60006 81532 90000=
07790,1997-11-25 03:00:00,12,1011.6,-0.8,82,9,20000,11.112,,,240,,,,,,,,,,,wg-a,,,,AAXX 25034 07790 12570 82406 10120 20090 30102 40116 56008 60006 81532 90300=
07790,1997-11-25 06:00:00,11,1011.4,-0.3,82,8,20000,14.816,,,240,10.9,12.6,,,,,,,,,wg-a,,,,AAXX 25064 07790 02670 62408 10110 20080 30099 40114 55003 60006 84502 90600 333 10126 20109 60004=
07790,1997-11-25 09:00:00,14,1011.4,0.1,72,9,20000,7.408,,,210,,,,,,,,,,,wg-a,,,,AAXX 25094 07790 12570 72104 10140 20090 30100 40114 53001 60006 82534 90900=
07790,1997-11-25 12:00:00,18,1010.5,-0.9,59,10,25000,7.408,,,120,,,,,,,,,,,wg-a,,,,AAXX 25124 07790 12575 /1204 10180 20100 30091 40105 58009 60006 81832 91200=
07790,1997-11-25 18:00:00,11,1010.9,0.4,87,9,25000,3.704,,,240,10.9,18.2,,,,,,,,,wg-a,,,,AAXX 25184 07790 12575 /2402 10110 20090 30095 40109 52004 60006 81500 91800 333 10182 20109=
07790,1997-11-25 21:00:00,8,1011,-0,93,7,25000,7.408,,,250,,,,,,,,,,,wg-a,,,,AAXX 25214 07790 12575 /2504 10080 20070 30095 40110 55000 60006 81500 92100=
07790,1997-11-26 00:00:00,8,1010.3,-0.7,93,7,25000,7.408,,,230,,,,,,,,,,,wg-a,,,,AAXX 26004 07790 12575 /2304 10080 20070 30088 40103 58007 60006 81500 90000=
07790,1997-11-26 03:00:00,7,1010.3,0,93,6,25000,7.408,,,240,,,,0,,,,,,,wg-a,,,,AAXX 26034 07790 12575 /2404 10070 20060 30088 40103 50000 60007 81500 90300=
07790,1997-11-26 06:00:00,7,1010.1,-0.2,93,6,25000,7.408,,,220,6.9,11.4,,,,,,,,,wg-a,,,,AAXX 26064 07790 02575 22204 10070 20060 30086 40101 55002 60006 82501 90600 333 10114 20069 60004=
07790,1997-11-26 09:00:00,10,1010.6,0.5,87,8,11000,3.704,,,240,,,,,,,,,,,wg-a,,,,AAXX 26094 07790 12/61 /2402 10100 20080 30091 40106 53005 60006 90900=
07790,1997-11-26 12:00:00,16,1009.5,-1,72,11,25000,14.816,,,140,,,,,,,,,,,wg-a,,,,AAXX 26124 07790 12575 /1408 10160 20110 30081 40095 58010 60006 85581 91200=
07790,1997-11-26 15:00:00,15,1009.4,-0.1,77,11,20000,7.408,,,160,,,,,,,,,,60,wg-a,,,,AAXX 26154 07790 02570 81604 10150 20110 30080 40094 55001 61000 76062 8657/ 91500 333 ////=
07790,1997-11-26 18:00:00,13,1009.8,0.4,88,11,15000,0,,,0,7,15.9,,,,,,,,61,wg-a,,,,AAXX 26184 07790 02565 80000 10130 20110 30084 40098 52004 61000 76162 8657/ 91800 333 10159 20070 6001=
07790,1997-11-26 21:00:00,12,1010.3,0.5,94,11,15000,0,,,0,,,,1,,,,,,13,wg-a,,,,AAXX 26214 07790 12465 70000 10120 20110 30089 40103 51005 60017 71362 87500 92100=
07790,1997-11-27 00:00:00,16,1010,-0.3,82,13,15000,14.816,,53.708,160,,,,0,,,,,,13,wg-a,,,,AAXX 27004 07790 02465 71608 10160 20130 30086 40100 55003 60026 71362 87900 90000 333 60007 91029=
07790,1997-11-27 03:00:00,12,1010.1,0.1,94,11,800,11.112,,57.412,220,,,,62,,,,,,82,wg-a,,,,AAXX 27034 07790 12208 82206 10120 20110 30087 40101 50001 60627 78296 889// 90300 333 91031=
07790,1997-11-27 06:00:00,12,1011.8,1.7,94,11,2500,7.408,,57.412,310,11.5,16.4,,,,,,,,80,wg-a,,,,AAXX 27064 07790 02225 73104 10120 20110 30104 40118 53017 61000 78096 879// 90600 333 10164 20115 6069 91031=
07790,1997-11-27 09:00:00,13,1013.1,1.3,94,12,12000,3.704,,,250,,,,2,,,,,,60,wg-a,,,,AAXX 27094 07790 12362 82502 10130 20120 30117 40131 52013 60027 76096 889// 90900=
07790,1997-11-27 12:00:00,15,1012.6,-0.5,88,13,15000,3.704,,,40,,,,,,,,,,1,wg-a,,,,AAXX 27124 07790 02465 70402 10150 20130 30112 40126 58005 60026 70198 83532 91200 333 61000=
07790,1997-11-27 15:00:00,16,1013.3,0.7,82,13,12000,3.704,,,40,,,,,,,,,,,wg-a,,,,AAXX 27154 07790 12462 80402 10160 20130 30119 40133 53007 60006 86902 91500=
07790,1997-11-27 18:00:00,14,1014.4,1.1,94,13,15000,0,,,0,11.9,16.2,,0,,,,,,1,wg-a,,,,AAXX 27184 07790 02365 /0000 10140 20130 30130 40144 53011 60006 70186 86500 91800 333 10162 20119 60007=
07790,1997-11-27 21:00:00,11,1015.3,0.8,94,10,15000,3.704,,,230,,,,0,,,,,,,wg-a,,,,AAXX 27214 07790 12465 42302 10110 20100 30138 40153 51008 60007 84630 92100=
07790,1997-11-28 00:00:00,10,1015.6,0.3,93,9,15000,7.408,,,240,,,,,,,,,,,wg-a,,,,AAXX 28004 07790 12465 32404 10100 20090 30141 40156 51003 60006 83830 90000=
07790,1997-11-28 03:00:00,10,1015.2,-0.4,93,9,15000,14.816,,,240,,,,,,,,,,,wg-a,,,,AAXX 28034 07790 12465 32408 10100 20090 30137 40152 56004 60006 83830 90300=
07790,1997-11-28 06:00:00,10,1015.7,0.5,93,9,15000,14.816,,,240,9.5,14.2,,,,,2,,,,wg-a,,,,AAXX 28064 07790 02465 /2408 10100 20090 30142 40157 53005 60006 85800 90600 333 10142 20095 60024=
07790,1997-11-28 12:00:00,18,1015.6,-1.1,73,13,25000,7.408,,,140,,,,,,,,,,,wg-a,,,,AAXX 28124 07790 12575 /1404 10180 20130 30142 40156 58011 60006 81100 91200=
07790,1997-11-28 15:00:00,16,1015.7,0.1,88,14,25000,0,,,0,,,,,,,,,,,wg-a,,,,AAXX 28154 07790 12475 50000 10160 20140 30143 40157 53001 60006 83801 91500=
07790,1997-11-28 18:00:00,13,1016.1,0.4,94,12,20000,3.704,,,270,10,18.8,,,,,,,,,wg-a,,,,AAXX 28184 07790 12470 /2702 10130 20120 30147 40161 53004 60006 85870 91800 333 10188 20100=
07790,1997-11-28 21:00:00,12,1016.4,0.2,94,11,20000,14.816,,,220,,,,,,,,,,,wg-a,,,,AAXX 28214 07790 12470 /2208 10120 20110 30149 40164 50002 60006 85870 92100=
07790,1997-11-29 00:00:00,12,1015.3,-1.1,88,10,20000,11.112,,,240,,,,,,,,,,,wg-a,,,,AAXX 29004 07790 12670 /2406 10120 20100 30138 40153 58011 60006 82570 90000=
07790,1997-11-29 03:00:00,12,1013.9,-1.3,94,11,20000,7.408,,,250,,,,1,,,,,,60,wg-a,,,,AAXX 29034 07790 12670 72504 10120 20110 30125 40139 57013 60017 76062 8257/ 90300=
07790,1997-11-29 06:00:00,12,1013,-0.9,94,11,20000,3.704,,,250,11,12.8,,,,,,,,60,wg-a,,,,AAXX 29064 07790 02670 72502 10120 20110 30116 40130 56009 61000 76062 8257/ 90600 333 10128 20110 6002=
07790,1997-11-29 09:00:00,12,1012,-1,94,11,500,3.704,,,280,,,,2,,,,,,61,wg-a,,,,AAXX 29094 07790 12500 82802 10120 20110 30106 40120 58010 60027 76162 8687/ 90900=
07790,1997-11-29 15:00:00,13,1007.5,-1.5,88,11,20000,11.112,,,340,,,,0,,,,,,1,wg-a,,,,AAXX 29154 07790 12470 83406 10130 20110 30061 40075 56015 60007 70162 8687/ 91500=
07790,1997-11-29 18:00:00,13,1006.7,-0.8,82,10,20000,18.52,,,340,11.6,13.5,,,,,,,,2,wg-a,,,,AAXX 29184 07790 12570 83410 10130 20100 30053 40067 57008 60006 70262 8587/ 91800 333 10135 20116=
07790,1997-11-29 21:00:00,13,1005.6,-1.1,82,10,20000,22.224,,,350,,,,,,,,,,,wg-a,,,,AAXX 29214 07790 12570 /3512 10130 20100 30042 40056 58011 60006 84870 92100=
07790,1997-11-30 00:00:00,13,1004.3,-1.3,77,9,20000,11.112,,,330,,,,0,,,,,,25,wg-a,,,,AAXX 30004 07790 02570 /3306 10130 20090 30029 40043 58013 60016 72522 84870 90000 333 60007=
07790,1997-11-30 03:00:00,13,1003.4,-0.9,82,10,12000,18.52,,,350,,,,0,,,,,,60,wg-a,,,,AAXX 30034 07790 12562 83510 10130 20100 30020 40034 58009 60007 76062 8587/ 90300=
07790,1997-11-30 06:00:00,13,1002.7,-0.7,77,9,12000,22.224,,,330,12.2,13.9,,,,,7,,,2,wg-a,,,,AAXX 30064 07790 02562 73312 10130 20090 30013 40027 56007 60006 70262 8687/ 90600 333 10139 20122 60074=
07790,1997-11-30 09:00:00,15,1002.7,0,59,7,15000,7.408,,,340,,,,,,,,,,,wg-a,,,,AAXX 30094 07790 12565 /3404 10150 20070 30013 40027 50000 60006 82571 90900=
07790,1997-11-30 12:00:00,15,1001.9,-0.8,63,8,20000,31.484,,,310,,,,,,,,,,,wg-a,,,,AAXX 30124 07790 12570 /3117 10150 20080 30005 40019 58008 60006 84572 91200=
07790,1997-11-30 18:00:00,14,1001.6,-0.1,51,4,18000,14.816,,,280,12.9,16.5,,,,,,,,,wg-a,,,,AAXX 30184 07790 12568 22808 10140 20040 30002 40016 57001 60006 81502 91800 333 10165 20129=
07790,1997-11-30 21:00:00,13,1001,-0.6,47,2,18000,11.112,,,230,,,,,,,,,,,wg-a,,,,AAXX 30214 07790 12568 /2306 10130 20020 39996 40010 58006 60006 81500 92100=
07790,1997-12-01 00:00:00,14,1000.5,-0.5,44,2,18000,25.928,,,320,,,,,,,,,,,wg-a,,,,AAXX 01004 07790 12568 /3214 10140 20020 39991 40005 58005 60006 81500 90000=
07790,1997-12-01 03:00:00,14,1000.7,0.2,58,6,20000,25.928,,,310,,,,,,,,,,,wg-a,,,,AAXX 01034 07790 12/70 03114 10140 20060 39993 40007 52002 60006 80000 90300=
07790,1997-12-01 06:00:00,14,1001,0.3,58,6,11000,25.928,,,320,12,15.3,,,,,,,,,wg-a,,,,AAXX 01064 07790 02/61 /3214 10140 20060 39996 40010 52003 60006 90600 333 10153 20120 60004=
07790,1997-12-01 09:00:00,16,1002.9,1.9,48,5,20000,25.928,,,330,,,,,,,,,,,wg-a,,,,AAXX 01094 07790 12570 53314 10160 20050 30015 40029 51019 60006 83841 90900=
07790,1997-12-01 12:00:00,16,1003.2,0.3,55,7,20000,31.484,,50.004,340,,,,,,,,,,,wg-a,,,,AAXX 01124 07790 12570 53417 10160 20070 30018 40032 50003 60006 83841 91200 333 91027=
07790,1997-12-01 15:00:00,15,1004,0.8,55,6,20000,22.224,,,350,,,,,,,,,,,wg-a,,,,AAXX 01154 07790 12570 73512 10150 20060 30026 40040 53008 60006 85841 91500=
07790,1997-12-01 18:00:00,12,1005.5,1.5,67,6,20000,18.52,,,10,12.3,16.8,,,,,,,,,wg-a,,,,AAXX 01184 07790 12570 40110 10120 20060 30041 40055 52015 60006 83841 91800 333 10168 20123=
07790,1997-12-01 21:00:00,13,1006.2,0.7,67,7,20000,14.816,,,350,,,,,,,,,,,wg-a,,,,AAXX 01214 07790 12570 33508 10130 20070 30048 40062 51007 60006 83800 92100=
07790,1997-12-02 00:00:00,10,1005.8,-0.4,76,6,20000,3.704,,,340,,,,,,,,,,,wg-a,,,,AAXX 02004 07790 12570 /3402 10100 20060 30044 40058 58004 60006 81500 90000=
07790,1997-12-02 03:00:00,9,1005.2,-0.7,66,3,20000,14.816,,,230,,,,,,,,,,,wg-a,,,,AAXX 02034 07790 12570 /2308 10090 20030 30037 40052 58007 60006 81500 90300=
07790,1997-12-02 06:00:00,9,1004.5,-0.7,61,2,20000,14.816,,,240,8,13.3,,,,,,,,,wg-a,,,,AAXX 02064 07790 02570 /2408 10090 20020 30030 40045 56007 60006 82832 90600 333 10133 20080 60004=
07790,1997-12-02 15:00:00,11,998.8,-2.5,94,10,9000,7.408,,40.744,230,,,,3,,,,,,17,wg-a,,,,AAXX 02154 07790 12559 72304 10110 20100 39974 49988 56025 60037 71798 8693/ 91500 333 91022=
07790,1997-12-02 18:00:00,10,996.3,-2.5,87,8,15000,11.112,,,210,8.6,16.6,,,,,,,,1,wg-a,,,,AAXX 02184 07790 12565 22106 10100 20080 39949 49963 58025 60006 70198 82800 91800 333 10166 20086=
07790,1997-12-02 21:00:00,11,994.6,-1.7,58,3,25000,7.408,,,300,,,,,,,,,,13,wg-a,,,,AAXX 02214 07790 12575 /3004 10110 20030 39932 49946 58017 60006 71300 81340 92100=
07790,1997-12-03 00:00:00,11,992.6,-2,40,-2,25000,11.112,,,270,,,,,,,,,,,wg-a,,,,AAXX 03004 07790 12575 22706 10110 21020 39912 49926 57020 60006 81540 90000=
07790,1997-12-03 03:00:00,10,991.2,-1.4,43,-2,25000,35.188,,68.524,290,,,,,,,,,,,wg-a,,,,AAXX 03034 07790 12575 22919 10100 21020 39898 49912 56014 60006 81540 90300 333 91037=
07790,1997-12-03 06:00:00,9,991.4,0.2,49,-1,15000,22.224,,70.376,280,7.7,12.6,,,,,3,,,13,wg-a,,,,AAXX 03064 07790 02565 52812 10090 21010 39900 49914 53002 60006 71311 83340 90600 333 10126 20077 60034 91038=
07790,1997-12-03 09:00:00,11,991.9,0.5,47,0,12000,14.816,,,230,,,,1,,,,,,1,wg-a,,,,AAXX 03094 07790 12562 62308 10110 20000 39905 49919 51005 60017 70186 85930 90900=
07790,1997-12-03 12:00:00,12,993.8,1.9,38,-2,12000,29.632,,50.004,300,,,,,,,,,,15,wg-a,,,,AAXX 03124 07790 12562 63016 10120 21020 39924 49938 53019 60016 71586 85930 91200 333 91027=
07790,1997-12-03 15:00:00,11,994.3,0.5,40,-2,12000,35.188,,57.412,240,,,,,,,,,,,wg-a,,,,AAXX 03154 07790 12562 32419 10110 21020 39929 49943 52005 60006 83900 91500 333 91031=
07790,1997-12-03 18:00:00,9,997.5,3.2,46,-2,12000,18.52,,68.524,250,6.1,12.4,,,,,,,,13,wg-a,,,,AAXX 03184 07790 12562 32510 10090 21020 39961 49975 53032 60006 71311 83900 91800 333 10124 20061 91037=
07790,1997-12-04 00:00:00,9,1001.1,1.4,46,-2,18000,25.928,,50.004,250,,,,,,,,,,,wg-a,,,,AAXX 04004 07790 12/68 02514 10090 21020 39996 40011 53014 60006 80000 90000 333 91027=
07790,1997-12-04 03:00:00,7,1003.5,2.4,49,-3,10000,25.928,,,250,,,,,,,,,,,wg-a,,,,AAXX 04034 07790 12/60 /2514 10070 21030 30020 40035 52024 60006 90300=
07790,1997-12-04 06:00:00,7,1005.7,2.2,49,-3,15000,22.224,,,260,6.1,9.4,,,,,1,,,,wg-a,,,,AAXX 04064 07790 02565 12612 10070 21030 30042 40057 53022 60006 81530 90600 333 10094 20061 60014=
07790,1997-12-04 09:00:00,9,1007.7,2,49,-1,15000,18.52,,,250,,,,,,,,,,,wg-a,,,,AAXX 04094 07790 12565 /2510 10090 21010 30062 40077 51020 60006 81204 90900=
07790,1997-12-04 12:00:00,12,1007.9,0.3,62,5,20000,18.52,,,120,,,,,,,,,,,wg-a,,,,AAXX 04124 07790 12570 71210 10120 20050 30065 40079 51003 60006 81882 91200=
07790,1997-12-04 15:00:00,12,1008.2,0.3,71,7,20000,11.112,,,100,,,,,,,,,,,wg-a,,,,AAXX 04154 07790 12570 /1006 10120 20070 30068 40082 53003 60006 85802 91500=
07790,1997-12-04 18:00:00,9,1009.6,1.3,87,7,15000,3.704,,,250,6,14.4,,,,,,,,61,wg-a,,,,AAXX 04184 07790 02565 72502 10090 20070 30081 40096 51013 61000 76162 878// 91800 333 10144 20060 6000=
07790,1997-12-04 21:00:00,7,1010.9,1.3,81,4,15000,11.112,,,220,,,,,,,,,,1,wg-a,,,,AAXX 04214 07790 02765 32206 10070 20040 30094 40109 51013 61000 70161 83500 92100 333 ////=
07790,1997-12-05 00:00:00,6,1011.4,0.5,87,4,20000,11.112,,,230,,,,,,,,,,3,wg-a,,,,AAXX 05004 07790 02770 42306 10060 20040 30099 40114 50005 61000 70361 84500 90000 333 ////=
07790,1997-12-05 06:00:00,7,1011.8,0.2,87,5,6000,7.408,,,300,5.5,8.9,,,,,,,,63,wg-a,,,,AAXX 05064 07790 02456 83004 10070 20050 30103 40118 53002 61000 76361 8557/ 90600 333 10089 20055 6002=
07790,1997-12-05 09:00:00,9,1012.7,0.9,93,8,500,7.408,,,240,,,,2,,,,,,1,wg-a,,,,AAXX 05094 07790 12500 82404 10090 20080 30112 40127 52009 60027 70162 86802 90900=
07790,1997-12-05 12:00:00,13,1011.9,-0.7,62,6,500,7.408,,,50,,,,,,,,,,2,wg-a,,,,AAXX 05124 07790 12500 80504 10130 20060 30105 40119 58007 60026 70262 84832 91200=
07790,1997-12-05 15:00:00,12,1012.2,0.3,71,7,500,7.408,,,360,,,,,,,,,,,wg-a,,,,AAXX 05154 07790 12500 83604 10120 20070 30108 40122 53003 60006 83832 91500=
07790,1997-12-05 18:00:00,12,1013.1,0.9,58,4,500,14.816,,,40,6.6,13.2,,,,,,,,,wg-a,,,,AAXX 05184 07790 12500 80408 10120 20040 30117 40131 51009 60006 85832 91800 333 10132 20066=
07790,1997-12-05 21:00:00,12,1014.3,1.1,62,5,500,14.816,,,40,,,,,,,,,,,wg-a,,,,AAXX 05214 07790 12500 50408 10120 20050 30128 40143 51011 60006 8383/ 92100=
07790,1997-12-06 00:00:00,11,1014.8,0.5,62,4,500,18.52,,,30,,,,,,,,,,,wg-a,,,,AAXX 06004 07790 12500 70310 10110 20040 30133 40148 50005 60006 8683/ 90000=
07790,1997-12-06 03:00:00,11,1014.9,0.1,62,4,500,22.224,,,30,,,,,,,,,,,wg-a,,,,AAXX 06034 07790 12500 70312 10110 20040 30134 40149 52001 60006 8683/ 90300=
07790,1997-12-06 06:00:00,10,1015.2,0.3,62,3,15000,22.224,,,30,10.1,12,,,,,2,,,,wg-a,,,,AAXX 06064 07790 02665 /0312 10100 20030 30137 40152 53003 60006 86800 90600 333 10120 20101 60024=
07790,1997-12-06 12:00:00,12,1016.2,-0.8,40,-1,25000,25.928,,,40,,,,,,,,,,,wg-a,,,,AAXX 06124 07790 12675 /0414 10120 21010 30147 40162 58008 60006 81500 91200=
07790,1997-12-06 15:00:00,11,1016.3,0.1,50,1,25000,18.52,,,360,,,,,,,,,,,wg-a,,,,AAXX 06154 07790 12675 /3610 10110 20010 30148 40163 53001 60006 81100 91500=
07790,1997-12-06 18:00:00,8,1017.5,1.2,61,1,20000,11.112,,,340,7.9,11.7,,,,,,,,,wg-a,,,,AAXX 06184 07790 12670 /3406 10080 20010 30160 40175 53012 60006 81100 91800 333 10117 20079=
07790,1997-12-06 21:00:00,8,1018.6,1.1,49,-2,20000,14.816,,,330,,,,,,,,,,,wg-a,,,,AAXX 06214 07790 12/70 03308 10080 21020 30171 40186 53011 60006 80000 92100=
07790,1997-12-07 00:00:00,4,1018.6,0,70,-1,20000,11.112,,,260,,,,,,,,,,,wg-a,,,,AAXX 07004 07790 12/70 02606 10040 21010 30171 40186 50000 60006 80000 90000=
07790,1997-12-07 06:00:00,3,1018.4,0.3,75,-1,20000,14.816,,,240,3.3,8.6,,,,,,,,,wg-a,,,,AAXX 07064 07790 02670 12408 10030 21010 30169 40184 53003 60006 81500 90600 333 10086 20033 60004=
07790,1997-12-07 12:00:00,12,1018,-1.1,58,4,50000,18.52,,,20,,,,,,,,,,,wg-a,,,,AAXX 07124 07790 12/84 00210 10120 20040 30165 40180 58011 60006 80000 91200=
07790,1997-12-07 15:00:00,11,1016.9,-1.1,58,3,50000,25.928,,,20,,,,,,,,,,,wg-a,,,,AAXX 07154 07790 12/84 00214 10110 20030 30154 40169 56011 60006 80000 91500=
07790,1997-12-07 18:00:00,6,1017.3,0.4,75,2,500,7.408,,,290,3.2,12.3,,,,,,,,,wg-a,,,,AAXX 07184 07790 12/00 02904 10060 20020 30158 40173 53004 60006 80000 91800 333 10123 20032=
07790,1997-12-07 21:00:00,5,1017,-0.3,75,1,500,3.704,,,250,,,,,,,,,,,wg-a,,,,AAXX 07214 07790 12/00 02502 10050 20010 30155 40170 55003 60006 80000 92100=
07790,1997-12-08 00:00:00,6,1016.4,-0.6,70,1,500,14.816,,,250,,,,,,,,,,,wg-a,,,,AAXX 08004 07790 12/00 02508 10060 20010 30149 40164 58006 60006 80000 90000=
07790,1997-12-08 03:00:00,6,1016,-0.4,70,1,15000,18.52,,,240,,,,,,,,,,,wg-a,,,,AAXX 08034 07790 12/65 02410 10060 20010 30145 40160 58004 60006 80000 90300=
07790,1997-12-08 06:00:00,5,1015.7,-0.3,70,0,15000,14.816,,,240,3.7,7.3,,,,,,,,,wg-a,,,,AAXX 08064 07790 02/65 12408 10050 20000 30142 40157 57003 60006 81030 90600 333 10073 20037 60004=
07790,1997-12-08 09:00:00,10,1017,1.3,53,1,15000,11.112,,,240,,,,,,,,,,,wg-a,,,,AAXX 08094 07790 12565 /2406 10100 20010 30155 40170 53013 60006 81100 90900=
07790,1997-12-08 12:00:00,15,1015.2,-1.7,51,5,15000,3.704,,,340,,,,,,,,,,,wg-a,,,,AAXX 08124 07790 12665 23402 10150 20050 30138 40152 58017 60006 81101 91200=
07790,1997-12-08 15:00:00,13,1014.5,-0.7,67,7,15000,0,,,0,,,,,,,,,,,wg-a,,,,AAXX 08154 07790 12665 /0000 10130 20070 30131 40145 55007 60006 81532 91500=
07790,1997-12-08 18:00:00,8,1014.9,0.3,81,5,15000,11.112,,,240,4.9,15.7,,,,,,,,,wg-a,,,,AAXX 08184 07790 12865 42406 10080 20050 30134 40149 53003 60006 81032 91800 333 10157 20049=
07790,1997-12-08 21:00:00,8,1015,0.1,81,5,18000,14.816,,,240,,,,,,,,,,,wg-a,,,,AAXX 08214 07790 12/68 52408 10080 20050 30135 40150 50001 60006 82032 92100=
07790,1997-12-09 00:00:00,8,1014.9,-0.1,81,5,18000,14.816,,,250,,,,,,,,,,,wg-a,,,,AAXX 09004 07790 12/68 /2508 10080 20050 30134 40149 58001 60006 82032 90000=
07790,1997-12-09 03:00:00,8,1014.3,-0.6,81,5,18000,14.816,,,240,,,,,,,,,,,wg-a,,,,AAXX 09034 07790 12668 /2408 10080 20050 30128 40143 58006 60006 82572 90300=
07790,1997-12-09 06:00:00,7,1014.5,0.2,81,4,20000,11.112,,,230,6.7,9.3,,,,,,,,,wg-a,,,,AAXX 09064 07790 02670 32306 10070 20040 30130 40145 53002 60006 81501 90600 333 10093 20067 60004=
07790,1997-12-09 09:00:00,13,1014.9,0.5,62,6,15000,14.816,,,220,,,,,,,,,,,wg-a,,,,AAXX 09094 07790 12665 62208 10130 20060 30135 40149 51005 60006 81184 90900=
07790,1997-12-09 10:00:00,14,1014.3,-0.6,63,7,15000,3.704,,,210,,,,,,,,,,,wg-a,,,,AAXX 09104 07790 12665 72102 10140 20070 30129 40143 58006 60006 81132 91000=
07790,1997-12-09 12:00:00,14,1014.3,-0.6,63,7,15000,3.704,,,210,,,,,,,,,,,wg-a,,,,AAXX 09124 07790 12665 72102 10140 20070 30129 40143 58006 60006 81132 91200=
07790,1997-12-09 18:00:00,9,1016,1.2,81,6,15000,11.112,,,250,7.2,14.7,,,,,,,,,wg-a,,,,AAXX 09184 07790 12765 32506 10090 20060 30145 40160 52012 60006 82501 91800 333 10147 20072=
07790,1997-12-09 21:00:00,9,1016.8,0.8,81,6,15000,18.52,,,250,,,,,,,,,,,wg-a,,,,AAXX 09214 07790 12765 22510 10090 20060 30153 40168 50008 60006 81501 92100=
07790,1997-12-10 00:00:00,8,1017.2,0.4,87,6,15000,14.816,,,240,,,,,,,,,,,wg-a,,,,AAXX 10004 07790 12665 22408 10080 20060 30157 40172 52004 60006 81501 90000=
07790,1997-12-10 06:00:00,9,1019.1,1.4,76,5,15000,18.52,,,250,7.6,9.2,,,,,,,,,wg-a,,,,AAXX 10064 07790 02565 52510 10090 20050 30176 40191 53014 60006 82530 90600 333 10092 20076 60004=
07790,1997-12-10 09:00:00,12,1020.2,1.1,67,6,15000,11.112,,,240,,,,,,,,,,,wg-a,,,,AAXX 10094 07790 12565 22406 10120 20060 30187 40202 53011 60006 81201 90900=
07790,1997-12-10 12:00:00,15,1019.3,-0.8,72,10,12000,11.112,,,30,,,,,,,,,,,wg-a,,,,AAXX 10124 07790 12562 20306 10150 20100 30179 40193 58008 60006 82201 91200=
07790,1997-12-10 18:00:00,11,1020.5,0.7,87,9,10000,7.408,,,240,8.4,15.7,,,,,,,,,wg-a,,,,AAXX 10184 07790 12560 82404 10110 20090 30190 40205 51007 60006 83802 91800 333 10157 20084=
07790,1997-12-10 21:00:00,11,1020.5,0,87,9,18000,11.112,,,240,,,,,,,,,,,wg-a,,,,AAXX 10214 07790 12568 72406 10110 20090 30190 40205 50000 60006 8683/ 92100=
07790,1997-12-11 00:00:00,9,1020.1,-0.4,87,7,18000,11.112,,,250,,,,,,,,,,,wg-a,,,,AAXX 11004 07790 12568 72506 10090 20070 30186 40201 58004 60006 83807 90000=
07790,1997-12-11 03:00:00,9,1019.6,-0.5,87,7,18000,11.112,,,230,,,,,,,,,,,wg-a,,,,AAXX 11034 07790 12668 32306 10090 20070 30181 40196 57005 60006 81807 90300=
07790,1997-12-11 06:00:00,8,1019.7,0.1,87,6,18000,11.112,,,250,8,11,,,,,,,,,wg-a,,,,AAXX 11064 07790 02568 12506 10080 20060 30182 40197 53001 60006 81501 90600 333 10110 20080 60004=
07790,1997-12-11 09:00:00,13,1019.8,0.1,72,8,15000,11.112,,,230,,,,,,,,,,,wg-a,,,,AAXX 11094 07790 12565 42306 10130 20080 30183 40198 50001 60006 82801 90900=
07790,1997-12-11 12:00:00,17,1018.3,-1.4,59,9,15000,11.112,,,130,,,,,,,,,,,wg-a,,,,AAXX 11124 07790 12565 /1306 10170 20090 30169 40183 58014 60006 82802 91200=
07790,1997-12-11 15:00:00,15,1017.3,-1,72,10,12000,3.704,,,170,,,,,,,,,,,wg-a,,,,AAXX 11154 07790 12562 /1702 10150 20100 30159 40173 58010 60006 83802 91500=
07790,1997-12-11 18:00:00,10,1016.6,-0.8,87,8,15000,7.408,,,220,8,17.1,,,,,,,,,wg-a,,,,AAXX 11184 07790 12765 /2204 10100 20080 30151 40166 58008 60006 83542 91800 333 10171 20080=
07790,1997-12-11 21:00:00,8,1015,-1.6,87,6,15000,3.704,,,240,,,,,,,,,,,wg-a,,,,AAXX 11214 07790 12765 52402 10080 20060 30135 40150 57016 60006 83502 92100=
07790,1997-12-12 00:00:00,8,1012.9,-2.1,87,6,15000,3.704,,,220,,,,,,,,,,,wg-a,,,,AAXX 12004 07790 12765 52202 10080 20060 30114 40129 58021 60006 83502 90000=
07790,1997-12-12 06:00:00,10,1009.1,-1.9,87,8,20000,7.408,,,130,6.8,11.4,,,,,,,,,wg-a,,,,AAXX 12064 07790 02670 41304 10100 20080 30076 40091 56019 60006 81540 90600 333 10114 20068 60004=
07790,1997-12-12 09:00:00,13,1007.7,-1.3,88,11,20000,3.704,,,150,,,,,,,,,,,wg-a,,,,AAXX 12094 07790 12670 61502 10130 20110 30063 40077 56013 60006 83541 90900=
07790,1997-12-12 12:00:00,22,1006.5,-1.2,19,-3,20000,25.928,,53.708,210,,,,,,,,,,,wg-a,,,,AAXX 12124 07790 12570 /2114 10220 21030 30051 40065 58012 60006 82541 91200 333 91029=
07790,1997-12-12 18:00:00,16,1009.2,1.2,34,0,20000,11.112,,83.34,330,9.6,22.9,,,,,,,,,wg-a,,,,AAXX 12184 07790 12670 33306 10160 20000 30078 40092 53012 60006 81541 91800 333 10229 20096 91045=
07790,1997-12-12 21:00:00,15,1011.1,1.9,36,0,20000,18.52,,,250,,,,,,,,,,,wg-a,,,,AAXX 12214 07790 12/70 52510 10150 20000 30097 40111 52019 60006 80002 92100=
07790,1997-12-13 00:00:00,16,1011.6,0.5,27,-3,20000,25.928,,,330,,,,,,,,,,,wg-a,,,,AAXX 13004 07790 12/70 13314 10160 21030 30102 40116 51005 60006 80001 90000=
07790,1997-12-13 06:00:00,13,1013.3,0.9,38,-1,50000,7.408,,,150,12.2,16.2,,,,,,,,,wg-a,,,,AAXX 13064 07790 02/84 01504 10130 21010 30119 40133 53009 60006 80000 90600 333 10162 20122 60004=
07790,1997-12-13 09:00:00,16,1015.1,1.8,36,1,50000,22.224,,,320,,,,,,,,,,,wg-a,,,,AAXX 13094 07790 12/84 03212 10160 20010 30137 40151 53018 60006 80000 90900=
07790,1997-12-13 12:00:00,17,1015.4,0.3,36,2,50000,18.52,,,330,,,,,,,,,,,wg-a,,,,AAXX 13124 07790 12684 /3310 10170 20020 30140 40154 50003 60006 81201 91200=
07790,1997-12-13 15:00:00,15,1016.3,0.9,48,4,60000,11.112,,,350,,,,,,,,,,,wg-a,,,,AAXX 13154 07790 12686 /3506 10150 20040 30149 40163 53009 60006 81201 91500=
07790,1997-12-13 18:00:00,9,1018.3,1.9,57,1,60000,11.112,,,220,8.7,17.1,,,,,,,,,wg-a,,,,AAXX 13184 07790 12/86 12206 10090 20010 30168 40183 52019 60006 80001 91800 333 10171 20087=
07790,1997-12-14 00:00:00,7,1020.3,0.9,61,0,500,14.816,,,240,,,,,,,,,,,wg-a,,,,AAXX 14004 07790 12/00 02408 10070 20000 30188 40203 51009 60006 80000 90000=
07790,1997-12-14 03:00:00,7,1020.6,0.3,57,-1,500,14.816,,,240,,,,,,,,,,,wg-a,,,,AAXX 14034 07790 12/00 02408 10070 21010 30191 40206 50003 60006 80000 90300=
07790,1997-12-14 06:00:00,5,1021.4,0.8,65,-1,500,11.112,,,240,5.1,9.9,,,,,,,,,wg-a,,,,AAXX 14064 07790 02/00 02406 10050 21010 30199 40214 53008 60006 80000 90600 333 10099 20051 60004=
07790,1997-12-14 09:00:00,10,1021.8,0.4,53,1,60000,14.816,,,240,,,,,,,,,,,wg-a,,,,AAXX 14094 07790 12/86 02408 10100 20010 30203 40218 51004 60006 80000 90900=
07790,1997-12-14 12:00:00,15,1019.9,-1.8,48,4,11000,7.408,,,20,,,,,,,,,,,wg-a,,,,AAXX 14124 07790 12/61 /0204 10150 20040 30185 40199 58018 60006 91200=
07790,1997-12-14 15:00:00,13,1018.3,-1.7,58,5,10000,7.408,,,30,,,,,,,,,,,wg-a,,,,AAXX 14154 07790 12/60 /0304 10130 20050 30168 40183 56017 60006 91500=
07790,1997-12-14 18:00:00,7,1017.3,-1,76,3,25000,11.112,,,240,5,15.9,,,,,,,,,wg-a,,,,AAXX 14184 07790 12/75 32406 10070 20030 30158 40173 58010 60006 80001 91800 333 10159 20050=
07790,1997-12-14 21:00:00,7,1015.8,-1.5,70,2,25000,11.112,,,240,,,,,,,,,,,wg-a,,,,AAXX 14214 07790 12/75 32406 10070 20020 30143 40158 57015 60006 82031 92100=
07790,1997-12-15 00:00:00,6,1013.8,-2,70,1,25000,14.816,,,240,,,,,,,,,,,wg-a,,,,AAXX 15004 07790 12/75 72408 10060 20010 30123 40138 58020 60006 85031 90000=
07790,1997-12-15 03:00:00,4,1011.6,-2.2,75,0,25000,11.112,,,230,,,,,,,,,,,wg-a,,,,AAXX 15034 07790 12675 32306 10040 20000 30101 40116 58022 60006 83831 90300=
07790,1997-12-15 06:00:00,7,1010.3,-1.3,76,3,25000,7.408,,,360,2.6,7.4,,,,,,,,13,wg-a,,,,AAXX 15064 07790 02575 73604 10070 20030 30088 40103 56013 60006 71311 879// 90600 333 10074 20026 60004=
07790,1997-12-15 09:00:00,5,1011.4,1.1,87,3,500,20.372,,,280,,,,17,,,,,,29,wg-a,,,,AAXX 15094 07790 12400 82811 10050 20030 30099 40114 50011 60177 72998 859// 90900=
07790,1997-12-15 12:00:00,11,1011.4,0,54,2,500,7.408,,,120,,,,1,,,,,,2,wg-a,,,,AAXX 15124 07790 02500 71204 10110 20020 30099 40114 50000 60186 70298 83361 91200 333 60017=
07790,1997-12-15 15:00:00,11,1011.8,0.4,50,1,500,18.52,,,80,,,,,,,,,,,wg-a,,,,AAXX 15154 07790 12500 80810 10110 20010 30103 40118 53004 60006 86903 91500=
07790,1997-12-15 18:00:00,9,1013,1.2,57,1,500,22.224,,,80,4.1,11.3,,,,,,,,,wg-a,,,,AAXX 15184 07790 12500 /0812 10090 20010 30115 40130 53012 60006 83272 91800 333 10113 20041=
07790,1997-12-16 00:00:00,9,1014.8,0.5,53,0,20000,14.816,,,110,,,,,,,,,,,wg-a,,,,AAXX 16004 07790 12570 /1108 10090 20000 30133 40148 51005 60006 81540 90000=
07790,1997-12-16 03:00:00,6,1014.9,0.1,81,3,11000,0,,,0,,,,,,,,,,,wg-a,,,,AAXX 16034 07790 12/61 /0000 10060 20030 30134 40149 50001 60006 90300=
07790,1997-12-16 06:00:00,5,1015.4,0.5,81,2,20000,3.704,,,350,4.3,9.3,,,,,18,,,,wg-a,,,,AAXX 16064 07790 02570 53502 10050 20020 30139 40154 52005 60006 85900 90600 333 10093 20043 60184=
07790,1997-12-16 15:00:00,10,1017.2,-0.3,57,2,20000,22.224,,,100,,,,,,,,,,60,wg-a,,,,AAXX 16154 07790 02470 71012 10100 20020 30157 40172 56003 61000 76062 8527/ 91500 333 ////=
07790,1997-12-16 18:00:00,8,1018.3,1.1,87,6,6000,7.408,,,190,4.6,10.3,,,,,,,,63,wg-a,,,,AAXX 16184 07790 02456 81904 10080 20060 30168 40183 53011 61000 76362 8687/ 91800 333 10103 20046 6006=
07790,1997-12-16 21:00:00,10,1018.2,-0.1,76,6,10000,25.928,,,120,,,,2,,,,,,63,wg-a,,,,AAXX 16214 07790 12460 81214 10100 20060 30167 40182 55001 60027 76366 8687/ 92100=
07790,1997-12-17 00:00:00,10,1018,-0.2,76,6,10000,18.52,,,130,,,,2,,,,,,63,wg-a,,,,AAXX 17004 07790 02460 81310 10100 20060 30165 40180 58002 60046 76366 878// 90000 333 60027=
07790,1997-12-17 03:00:00,9,1017.4,-0.6,93,8,10000,3.704,,,220,,,,2,,,,,,61,wg-a,,,,AAXX 17034 07790 12460 82202 10090 20080 30159 40174 58006 60027 76166 878// 90300=
07790,1997-12-17 06:00:00,10,1016.4,-1,93,9,8000,14.816,,,330,7.3,10.1,,,,,,,,61,wg-a,,,,AAXX 17064 07790 02458 83308 10100 20090 30149 40164 57010 61000 76166 875// 90600 333 10101 20073 6018=
07790,1997-12-17 09:00:00,11,1016.6,0.2,94,10,3000,3.704,,,180,,,,12,,,,,,63,wg-a,,,,AAXX 17094 07790 12230 81802 10110 20100 30151 40166 53002 60127 76366 875// 90900=
07790,1997-12-17 12:00:00,14,1015.3,-1.2,94,13,3000,29.632,,53.708,160,,,,11,,,,,,10,wg-a,,,,AAXX 17124 07790 02230 81616 10140 20130 30139 40153 56012 60236 71066 885// 91200 333 60117 91029=
07790,1997-12-17 18:00:00,14,1016.6,1.2,94,13,6000,18.52,,50.004,170,10,14.5,,,,,,,,60,wg-a,,,,AAXX 17184 07790 02356 71710 10140 20130 30152 40166 53012 61000 76062 875// 91800 333 10145 20100 6001 91027=
07790,1997-12-17 21:00:00,12,1018,1.3,94,11,12000,14.816,,,180,,,,,,,,,,1,wg-a,,,,AAXX 17214 07790 02462 71808 10120 20110 30165 40180 53013 61000 70162 8587/ 92100 333 ////=
07790,1997-12-18 00:00:00,12,1018,-0,88,10,12000,11.112,,,190,,,,,,,,,,1,wg-a,,,,AAXX 18004 07790 02462 71906 10120 20100 30165 40180 55000 61000 70162 8487/ 90000 333 ////=
07790,1997-12-18 03:00:00,10,1017.3,-0.7,93,9,12000,7.408,,,230,,,,,,,,,,,wg-a,,,,AAXX 18034 07790 12462 72304 10100 20090 30158 40173 56007 60006 8387/ 90300=
07790,1997-12-18 06:00:00,14,1016.6,-0.6,88,12,12000,18.52,,,160,10.2,14.1,,,,,27,,,,wg-a,,,,AAXX 18064 07790 02462 71610 10140 20120 30152 40166 55006 60006 8387/ 90600 333 10141 20102 60274=
07790,1997-12-18 09:00:00,14,1016.9,0.3,94,13,9000,22.224,,,170,,,,,,,,,,,wg-a,,,,AAXX 18094 07790 12459 81712 10140 20130 30155 40169 50003 60006 8687/ 90900=
07790,1997-12-18 12:00:00,15,1015,-1.9,88,13,7000,29.632,,50.004,150,,,,1,,,,,,60,wg-a,,,,AAXX 18124 07790 02457 81516 10150 20130 30136 40150 58019 60016 76062 878// 91200 333 60017 91027=
07790,1997-12-18 15:00:00,15,1013.9,-1.1,88,13,8000,22.224,,50.004,160,,,,,,,,,,3,wg-a,,,,AAXX 18154 07790 02358 81612 10150 20130 30125 40139 56011 61000 70362 878// 91500 333 //// 91027=
07790,1997-12-18 18:00:00,15,1013.4,-0.5,88,13,9000,29.632,,50.004,150,13.6,15.1,,0,,,,,,2,wg-a,,,,AAXX 18184 07790 02359 81516 10150 20130 30120 40134 56005 60006 70262 888// 91800 333 10151 20136 60007 91027=
07790,1997-12-18 21:00:00,15,1011.8,-1.6,88,13,10000,31.484,,53.708,150,,,,,,,,,,60,wg-a,,,,AAXX 18214 07790 02360 81517 10150 20130 30104 40118 56016 61000 76062 885// 92100 333 //// 91029=
07790,1997-12-19 00:00:00,14,1011.8,-0,94,13,8000,14.816,,53.708,200,,,,0,,,,,,61,wg-a,,,,AAXX 19004 07790 02358 82008 10140 20130 30104 40118 55000 60006 76162 885// 90000 333 60007 91029=
07790,1997-12-19 03:00:00,14,1009.6,-2.2,88,12,15000,11.112,,,180,,,,1,,,,,,2,wg-a,,,,AAXX 19034 07790 12365 81806 10140 20120 30082 40096 56022 60017 70262 885// 90300=
07790,1997-12-19 06:00:00,13,1009,-0.6,94,12,15000,7.408,,,290,12.4,15.1,,,,,2,,,1,wg-a,,,,AAXX 19064 07790 02265 42904 10130 20120 30076 40090 56006 60006 70161 84500 90600 333 10151 20124 60024=
07790,1997-12-19 09:00:00,14,1010.1,1.1,94,13,10000,7.408,,,160,,,,,,,,,,,wg-a,,,,AAXX 19094 07790 32460 51604 10140 20130 30087 40101 52011 84801 90900=
07790,1997-12-19 12:00:00,16,1008.3,-1.8,88,14,9000,7.408,,,160,,,,,,,,,,,wg-a,,,,AAXX 19124 07790 12/59 /1604 10160 20140 30069 40083 58018 60006 91200=
07790,1997-12-19 15:00:00,15,1007.4,-0.9,88,13,8000,3.704,,,130,,,,,,,,,,,wg-a,,,,AAXX 19154 07790 32458 81302 10150 20130 30060 40074 56009 8587/ 91500=
07790,1997-12-19 18:00:00,14,1006.7,-0.7,94,13,7000,0,,,0,11.3,16.6,,,,,,,,62,wg-a,,,,AAXX 19184 07790 02457 80000 10140 20130 30053 40067 58007 61000 76262 8587/ 91800 333 10166 20113 6001=
07790,1997-12-19 21:00:00,14,1004.3,-2.4,94,13,7000,14.816,,,170,,,,5,,,,,,61,wg-a,,,,AAXX 19214 07790 12257 81708 10140 20130 30029 40043 58024 60057 76166 877// 92100=
07790,1997-12-20 00:00:00,13,1001,-3.3,94,12,15000,14.816,,,150,,,,9,,,,,,21,wg-a,,,,AAXX 20004 07790 02365 81508 10130 20120 39996 40010 58033 60146 72162 877// 90000 333 60097=
07790,1997-12-20 03:00:00,13,999.3,-1.7,82,10,17000,3.704,,,230,,,,,,,,,,,wg-a,,,,AAXX 20034 07790 12367 82302 10130 20100 39979 49993 56017 60006 8557/ 90300=
07790,1997-12-20 06:00:00,11,1000.3,1,82,8,17000,11.112,,,230,10.9,14.6,,,,,15,,,,wg-a,,,,AAXX 20064 07790 02467 22306 10110 20080 39989 40003 53010 60006 82503 90600 333 10146 20109 60154=
07790,1997-12-20 09:00:00,12,1002.6,2.3,88,10,20000,11.112,,,210,,,,,,,,,,,wg-a,,,,AAXX 20094 07790 12470 32106 10120 20100 30012 40026 53023 60006 82283 90900=
07790,1997-12-20 15:00:00,16,1003.2,0.6,77,12,20000,3.704,,,40,,,,,,,,,,,wg-a,,,,AAXX 20154 07790 12570 /0402 10160 20120 30018 40032 53006 60006 81263 91500=
07790,1997-12-20 18:00:00,12,1003.7,0.5,71,7,20000,11.112,,,270,9.6,16.5,,,,,,,,,wg-a,,,,AAXX 20184 07790 12570 /2706 10120 20070 30023 40037 51005 60006 81983 91800 333 10165 20096=
07790,1997-12-20 21:00:00,12,1004.3,0.6,62,5,20000,11.112,,,200,,,,,,,,,,,wg-a,,,,AAXX 20214 07790 12570 42006 10120 20050 30029 40043 51006 60006 81903 92100=
07790,1997-12-21 00:00:00,12,1004.6,0.3,76,8,11000,11.112,,,310,,,,,,,,,,,wg-a,,,,AAXX 21004 07790 12/61 /3106 10120 20080 30032 40046 50003 60006 90000=
07790,1997-12-21 03:00:00,10,1004.9,0.3,71,5,20000,11.112,,,300,,,,,,,,,,13,wg-a,,,,AAXX 21034 07790 12470 /3006 10100 20050 30035 40049 53003 60006 71311 81900 90300=
07790,1997-12-21 06:00:00,11,1006.3,1.4,66,5,500,14.816,,,320,8.6,13.7,,,,,,,,,wg-a,,,,AAXX 21064 07790 02500 33208 10110 20050 30049 40063 53014 60006 81102 90600 333 10137 20086 60004=
07790,1997-12-21 09:00:00,14,1008.2,1.9,58,6,500,18.52,,,340,,,,,,,,,,,wg-a,,,,AAXX 21094 07790 12500 43410 10140 20060 30068 40082 53019 60006 82202 90900=
07790,1997-12-21 12:00:00,16,1007.6,-0.6,51,6,40000,7.408,,,130,,,,,,,,,,,wg-a,,,,AAXX 21124 07790 12582 71304 10160 20060 30062 40076 58006 60006 84832 91200=
07790,1997-12-21 15:00:00,15,1007.9,0.3,63,8,500,3.704,,,90,,,,,,,,,,,wg-a,,,,AAXX 21154 07790 12500 70902 10150 20080 30065 40079 53003 60006 84332 91500=
07790,1997-12-21 18:00:00,9,1008.9,0.9,87,7,25000,7.408,,,290,9.1,17.4,,,,,,,,,wg-a,,,,AAXX 21184 07790 12575 22904 10090 20070 30074 40089 53009 60006 82440 91800 333 10174 20091=
07790,1997-12-21 21:00:00,8,1009.4,0.5,87,6,2500,7.408,,,290,,,,,,,,,,,wg-a,,,,AAXX 21214 07790 12525 /2904 10080 20060 30079 40094 52005 60006 81540 92100=
07790,1997-12-22 00:00:00,10,1009.4,0,71,5,25000,14.816,,,230,,,,,,,,,,,wg-a,,,,AAXX 22004 07790 12575 /2308 10100 20050 30079 40094 50000 60006 81500 90000=
07790,1997-12-22 03:00:00,7,1009.7,0.3,87,5,500,7.408,,,250,,,,,,,,,,,wg-a,,,,AAXX 22034 07790 12/00 02504 10070 20050 30082 40097 50003 60006 80000 90300=
07790,1997-12-22 06:00:00,6,1010.3,0.6,87,4,500,11.112,,,240,5.4,10.1,,,,,,,,,wg-a,,,,AAXX 22064 07790 02400 12406 10060 20040 30088 40103 53006 60006 81100 90600 333 10101 20054 60004=
07790,1997-12-22 09:00:00,12,1012,1.8,67,6,25000,3.704,,,180,,,,,,,,,,,wg-a,,,,AAXX 22094 07790 12575 /1802 10120 20060 30106 40120 51018 60006 81200 90900=
07790,1997-12-22 12:00:00,15,1011.7,-0.3,51,5,25000,7.408,,,50,,,,,,,,,,,wg-a,,,,AAXX 22124 07790 12575 /0504 10150 20050 30103 40117 58003 60006 81200 91200=
07790,1997-12-22 15:00:00,15,1012.8,1.1,63,8,25000,3.704,,,180,,,,,,,,,,,wg-a,,,,AAXX 22154 07790 12575 21802 10150 20080 30114 40128 53011 60006 82800 91500=
07790,1997-12-22 18:00:00,11,1014.2,1.3,82,8,25000,7.408,,,230,5.7,17.2,,,,,,,,,wg-a,,,,AAXX 22184 07790 12575 42304 10110 20080 30127 40142 53013 60006 84800 91800 333 10172 20057=
07790,1997-12-22 21:00:00,9,1015,0.8,87,7,25000,11.112,,,230,,,,,,,,,,,wg-a,,,,AAXX 22214 07790 12575 52306 10090 20070 30135 40150 51008 60006 84501 92100=
07790,1997-12-23 00:00:00,8,1015.3,0.3,87,6,25000,14.816,,,240,,,,,,,,,,,wg-a,,,,AAXX 23004 07790 12575 52408 10080 20060 30138 40153 50003 60006 84101 90000=
07790,1997-12-23 03:00:00,9,1015.8,0.5,76,5,25000,18.52,,,240,,,,,,,,,,,wg-a,,,,AAXX 23034 07790 12575 52410 10090 20050 30143 40158 51005 60006 82531 90300=
07790,1997-12-23 06:00:00,9,1016.5,0.7,76,5,25000,14.816,,,230,8,10.5,,,,,,,,,wg-a,,,,AAXX 23064 07790 02575 /2308 10090 20050 30150 40165 53007 60006 83530 90600 333 10105 20080 60004=
07790,1997-12-23 09:00:00,11,1018.4,1.9,71,6,11000,11.112,,,230,,,,,,,,,,,wg-a,,,,AAXX 23094 07790 12/61 /2306 10110 20060 30169 40184 53019 60006 90900=
07790,1997-12-23 12:00:00,15,1018.2,-0.1,72,10,25000,7.408,,,90,,,,,,,,,,,wg-a,,,,AAXX 23124 07790 12575 70904 10150 20100 30168 40182 58001 60006 8287/ 91200=
07790,1997-12-23 15:00:00,14,1019.2,1,82,11,25000,3.704,,,30,,,,,,,,,,21,wg-a,,,,AAXX 23154 07790 02575 80302 10140 20110 30178 40192 53010 61000 72162 8587/ 91500 333 ////=
07790,1997-12-23 18:00:00,12,1021.2,1.9,94,11,15000,3.704,,,300,9.2,15,,,,,,,,60,wg-a,,,,AAXX 23184 07790 02565 83002 10120 20110 30197 40212 53019 61000 76062 8687/ 91800 333 10150 20092 6100=
07790,1997-12-23 21:00:00,11,1022.8,1.6,94,10,15000,3.704,,,310,,,,1,,,,,,60,wg-a,,,,AAXX 23214 07790 12465 73102 10110 20100 30213 40228 51016 60017 76066 8687/ 92100=
07790,1997-12-24 00:00:00,11,1024.4,1.6,100,11,15000,7.408,,,280,,,,1,,,,,,21,wg-a,,,,AAXX 24004 07790 02465 72804 10110 20110 30229 40244 51016 60026 72162 8653/ 90000 333 60017=
07790,1997-12-24 03:00:00,11,1025.3,0.9,94,10,15000,7.408,,,230,,,,,,,,,,,wg-a,,,,AAXX 24034 07790 12465 72304 10110 20100 30238 40253 51009 60006 875// 90300=
07790,1997-12-24 06:00:00,10,1026.5,1.2,93,9,15000,7.408,,,250,10,12.3,,,,,2,,,,wg-a,,,,AAXX 24064 07790 02565 /2504 10100 20090 30250 40265 53012 60006 86500 90600 333 10123 20100 60024=
07790,1997-12-24 09:00:00,12,1028.4,1.9,88,10,25000,3.704,,,240,,,,,,,,,,,wg-a,,,,AAXX 24094 07790 12475 52402 10120 20100 30269 40284 53019 60006 82801 90900=
07790,1997-12-24 12:00:00,16,1027.8,-0.5,72,11,25000,7.408,,,70,,,,,,,,,,,wg-a,,,,AAXX 24124 07790 12575 40704 10160 20110 30264 40278 58005 60006 82101 91200=
07790,1997-12-24 15:00:00,14,1028,0.1,82,11,25000,3.704,,,30,,,,,,,,,,,wg-a,,,,AAXX 24154 07790 12475 /0302 10140 20110 30265 40280 53001 60006 85801 91500=
07790,1997-12-24 18:00:00,11,1028.7,0.7,94,10,25000,3.704,,,250,9.8,16.7,,,,,,,,,wg-a,,,,AAXX 24184 07790 12675 /2502 10110 20100 30272 40287 52007 60006 85500 91800 333 10167 20098=
07790,1997-12-24 21:00:00,9,1029,0.3,93,8,25000,3.704,,,240,,,,,,,,,,,wg-a,,,,AAXX 24214 07790 12675 32402 10090 20080 30275 40290 51003 60006 83500 92100=
07790,1997-12-25 00:00:00,10,1028.7,-0.3,93,9,25000,11.112,,,250,,,,0,,,,,,,wg-a,,,,AAXX 25004 07790 02575 22506 10100 20090 30272 40287 58003 60006 82500 90000 333 60007=
07790,1997-12-25 06:00:00,7,1027.3,-0.2,93,6,25000,11.112,,,230,6.7,11.4,,,,,,,,,wg-a,,,,AAXX 25064 07790 02575 52306 10070 20060 30258 40273 56002 60006 83501 90600 333 10114 20067 60004=
07790,1997-12-25 09:00:00,10,1028.1,0.8,87,8,11000,11.112,,,230,,,,,,,,,,,wg-a,,,,AAXX 25094 07790 12/61 /2306 10100 20080 30266 40281 51008 60006 90900=
07790,1997-12-25 12:00:00,16,1026.8,-1.2,63,9,25000,3.704,,,100,,,,,,,,,,,wg-a,,,,AAXX 25124 07790 12575 71002 10160 20090 30254 40268 58012 60006 82834 91200=
07790,1997-12-26 00:00:00,8,1022.9,-1.6,87,6,25000,7.408,,,260,,,,,,,,,,,wg-a,,,,AAXX 26004 07790 12575 /2604 10080 20060 30214 40229 56016 60006 82501 90000=
07790,1997-12-26 03:00:00,7,1020.7,-2.2,93,6,25000,7.408,,,260,,,,,,,,,,,wg-a,,,,AAXX 26034 07790 12575 /2604 10070 20060 30192 40207 58022 60006 82501 90300=
07790,1997-12-26 06:00:00,7,1018.4,-2.3,93,6,25000,11.112,,,230,7.2,10,,,,,,,,,wg-a,,,,AAXX 26064 07790 02575 /2306 10070 20060 30169 40184 56023 60006 82502 90600 333 10100 20072 60004=
07790,1997-12-26 09:00:00,9,1017.5,-0.9,87,7,25000,7.408,,,240,,,,,,,,,,,wg-a,,,,AAXX 26094 07790 12575 72404 10090 20070 30160 40175 56009 60006 81572 90900=
07790,1997-12-26 12:00:00,13,1014.4,-3,77,9,25000,3.704,,,210,,,,,,,,,,,wg-a,,,,AAXX 26124 07790 12575 72102 10130 20090 30130 40144 58030 60006 81572 91200=
07790,1997-12-26 18:00:00,11,1011.6,-0.7,87,9,8000,7.408,,,240,7.4,12.7,,,,,,,,60,wg-a,,,,AAXX 26184 07790 02558 82404 10110 20090 30101 40116 56007 61000 76062 83572 91800 333 10127 20074 6000=
07790,1997-12-26 21:00:00,10,1009.1,-2.4,93,9,15000,11.112,,,200,,,,1,,,,,,2,wg-a,,,,AAXX 26214 07790 12565 82006 10100 20090 30077 40091 58024 60017 70262 83572 92100=
07790,1997-12-27 00:00:00,10,1007.3,-1.8,87,8,15000,7.408,,,200,,,,,,,,,,2,wg-a,,,,AAXX 27004 07790 12565 82004 10100 20080 30059 40073 58018 60016 70262 83572 90000=
07790,1997-12-27 03:00:00,10,1006.2,-1.1,76,6,15000,14.816,,,260,,,,,,,,,,,wg-a,,,,AAXX 27034 07790 12565 82608 10100 20060 30048 40062 58011 60006 83572 90300=
07790,1997-12-27 06:00:00,11,1006.1,-0.1,58,3,11000,11.112,,,250,9.3,12.3,,,,,1,,,,wg-a,,,,AAXX 27064 07790 02/61 /2506 10110 20030 30047 40061 56001 60006 90600 333 10123 20093 60014=
07790,1997-12-27 09:00:00,13,1007.5,1.4,54,4,15000,25.928,,,270,,,,,,,,,,,wg-a,,,,AAXX 27094 07790 12565 22714 10130 20040 30061 40075 52014 60006 81804 90900=
07790,1997-12-27 12:00:00,15,1006,-1.5,51,5,500,14.816,,,340,,,,,,,,,,,wg-a,,,,AAXX 27124 07790 12500 33408 10150 20050 30046 40060 57015 60006 81204 91200=
07790,1997-12-27 15:00:00,15,1006.4,0.4,39,1,35000,7.408,,,300,,,,,,,,,,,wg-a,,,,AAXX 27154 07790 12581 23004 10150 20010 30050 40064 53004 60006 81204 91500=
07790,1997-12-27 18:00:00,11,1008.2,1.8,50,1,25000,14.816,,,260,10,15.3,,,,,,,,,wg-a,,,,AAXX 27184 07790 12/75 /2608 10110 20010 30068 40082 53018 60006 8//00 91800 333 10153 20100=
07790,1997-12-27 21:00:00,10,1009.2,0.9,53,1,25000,18.52,,,250,,,,,,,,,,,wg-a,,,,AAXX 27214 07790 12/75 02510 10100 20010 30077 40092 51009 60006 80000 92100=
07790,1997-12-28 00:00:00,9,1009.1,-0.1,57,1,25000,14.816,,,260,,,,,,,,,,,wg-a,,,,AAXX 28004 07790 12/75 02608 10090 20010 30076 40091 57001 60006 80000 90000=
07790,1997-12-28 03:00:00,8,1009.5,0.4,57,0,25000,7.408,,,250,,,,,,,,,,,wg-a,,,,AAXX 28034 07790 12/75 02504 10080 20000 30080 40095 50004 60006 80000 90300=
07790,1997-12-28 06:00:00,5,1010.1,0.6,70,0,25000,14.816,,,230,5.4,11.8,,,,,,,,,wg-a,,,,AAXX 28064 07790 02575 22308 10050 20000 30086 40101 53006 60006 82500 90600 333 10118 20054 60004=
07790,1997-12-28 09:00:00,10,1011.9,1.8,57,2,40000,14.816,,,240,,,,,,,,,,,wg-a,,,,AAXX 28094 07790 12482 22408 10100 20020 30104 40119 52018 60006 82960 90900=
07790,1997-12-28 12:00:00,15,1011,-0.8,51,5,40000,7.408,,,120,,,,,,,,,,,wg-a,,,,AAXX 28124 07790 12682 21204 10150 20050 30096 40110 58008 60006 81263 91200=
07790,1997-12-28 15:00:00,13,1010.8,-0.2,47,2,40000,3.704,,,130,,,,,,,,,,,wg-a,,,,AAXX 28154 07790 12682 21302 10130 20020 30094 40108 55002 60006 81801 91500=
07790,1997-12-28 18:00:00,6,1011.4,0.5,81,3,40000,7.408,,,240,5,15.6,,,,,,,,,wg-a,,,,AAXX 28184 07790 12782 /2404 10060 20030 30099 40114 53005 60006 81501 91800 333 10156 20050=
07790,1997-12-28 21:00:00,7,1011.8,0.4,76,3,25000,14.816,,,260,,,,,,,,,,,wg-a,,,,AAXX 28214 07790 12/75 02608 10070 20030 30103 40118 51004 60006 80000 92100=
07790,1997-12-29 00:00:00,7,1011.8,-0,70,2,25000,14.816,,,270,,,,,,,,,,,wg-a,,,,AAXX 29004 07790 12/75 02708 10070 20020 30103 40118 55000 60006 80000 90000=
07790,1997-12-29 03:00:00,6,1011.7,-0.1,70,1,25000,18.52,,,240,,,,,,,,,,,wg-a,,,,AAXX 29034 07790 12675 22410 10060 20010 30102 40117 58001 60006 82500 90300=
07790,1997-12-29 06:00:00,5,1012.2,0.5,75,1,25000,11.112,,,240,5.3,7.6,,,,,,,,,wg-a,,,,AAXX 29064 07790 02575 52406 10050 20010 30107 40122 53005 60006 85500 90600 333 10076 20053 60004=
07790,1997-12-29 09:00:00,9,1014.2,2,57,1,11000,14.816,,,220,,,,,,,,,,,wg-a,,,,AAXX 29094 07790 12/61 /2208 10090 20010 30127 40142 51020 60006 90900=
07790,1997-12-29 12:00:00,15,1013.2,-0.9,44,3,25000,3.704,,,120,,,,,,,,,,,wg-a,,,,AAXX 29124 07790 12575 /1202 10150 20030 30118 40132 58009 60006 81130 91200=
07790,1997-12-29 15:00:00,13,1013.8,0.6,62,6,25000,3.704,,,130,,,,,,,,,,,wg-a,,,,AAXX 29154 07790 12575 /1302 10130 20060 30124 40138 53006 60006 81100 91500=
07790,1997-12-29 18:00:00,7,1015.2,1.3,87,5,25000,7.408,,,250,5,14.7,,,,,,,,,wg-a,,,,AAXX 29184 07790 12/75 /2504 10070 20050 30137 40152 53013 60006 80000 91800 333 10147 20050=
07790,1997-12-30 00:00:00,5,1017,0.7,81,2,25000,11.112,,,230,,,,,,,,,,,wg-a,,,,AAXX 30004 07790 12/75 02306 10050 20020 30155 40170 51007 60006 80000 90000=
07790,1997-12-30 06:00:00,4,1018.1,0.7,75,0,25000,14.816,,,230,3.9,6.8,,,,,,,,,wg-a,,,,AAXX 30064 07790 02575 32308 10040 20000 30166 40181 53007 60006 81501 90600 333 10068 20039 60004=
07790,1997-12-30 09:00:00,6,1019.7,1.6,70,1,25000,14.816,,,230,,,,,,,,,,,wg-a,,,,AAXX 30094 07790 12675 72308 10060 20010 30182 40197 53016 60006 83502 90900=
07790,1997-12-30 12:00:00,10,1018.3,-1.4,71,5,20000,3.704,,,250,,,,,,,,,,21,wg-a,,,,AAXX 30124 07790 02570 72502 10100 20050 30168 40183 58014 61000 72161 875// 91200 333 6100=
07790,1997-12-30 15:00:00,12,1017.4,-0.9,71,7,20000,3.704,,,210,,,,,,,,,,,wg-a,,,,AAXX 30154 07790 12570 72102 10120 20070 30159 40174 56009 60006 85501 91500=
07790,1997-12-30 18:00:00,10,1018,0.6,82,7,20000,3.704,,,270,3.9,12.4,,,,,,,,,wg-a,,,,AAXX 30184 07790 12570 72702 10100 20070 30165 40180 51006 60006 878// 91800 333 10124 20039=
07790,1997-12-31 00:00:00,8,1017.1,-0.9,87,6,20000,3.704,,,230,,,,,,,,,,,wg-a,,,,AAXX 31004 07790 12570 72302 10080 20060 30156 40171 56009 60006 875// 90000=
07790,1997-12-31 06:00:00,7,1016.6,-0,87,5,15000,3.704,,,260,6.4,9.6,,,,,,,,,wg-a,,,,AAXX 31064 07790 02465 72602 10070 20050 30151 40166 55000 60006 878// 90600 333 10096 20064 61000=
07790,1997-12-31 09:00:00,14,1017.6,1.1,82,11,15000,14.816,,,170,,,,,,,,,,21,wg-a,,,,AAXX 31094 07790 02465 /1708 10140 20110 30162 40176 52011 61000 72162 86800 90900 333 ////=
07790,1997-12-31 12:00:00,14,1015.9,-1.7,94,13,8000,14.816,,,160,,,,0,,,,,,60,wg-a,,,,AAXX 31124 07790 02258 81608 10140 20130 30145 40159 58017 60016 76062 885// 91200 333 60007=
07790,1997-12-31 18:00:00,13,1016.2,0.5,94,12,14000,11.112,,,170,7.2,14.4,,,,,,,,1,wg-a,,,,AAXX 31184 07790 12364 51706 10130 20120 30148 40162 51005 60006 70161 85500 91800 333 10144 20072=
07790,1997-12-31 21:00:00,11,1017,0.7,87,9,12000,7.408,,,220,,,,,,,,,,,wg-a,,,,AAXX 31214 07790 12662 82204 10110 20090 30155 40170 51007 60006 8/570 92100=
