station_id,dh_utc,temperature,pression,pression_variation_3h,humidite,point_de_rosee,visibilite,vent_moyen,vent_rafales,vent_rafales_10min,vent_direction,temperature_min,temperature_max,pluie_1h,pluie_3h,pluie_6h,pluie_12h,pluie_24h,ensoleillement,temperature_sol,temps_omm,source,radiations,neige_au_sol,nebulosite,raw_msg
07790,1998-01-01 00:00:00,8,1017.5,0.5,93,7,11000,3.704,,,220,,,,,,,,,,,wg-a,,,,AAXX 01004 07790 12/61 /2202 10080 20070 30160 40175 51005 60006 90000=
07790,1998-01-01 06:00:00,7,1018.6,0.9,87,5,0,7.408,,,200,6.5,13.3,,,,,1,,,,wg-a,,,,AAXX 01064 07790 12/// /2004 10070 20050 30171 40186 53009 60014 90600 333 10133 20065=
07790,1998-01-01 09:00:00,10,1020.6,2,87,8,15000,7.408,,,220,,,,,,,,,,,wg-a,,,,AAXX 01094 07790 12565 /2204 10100 20080 30191 40206 53020 60006 85831 90900=
07790,1998-01-01 12:00:00,,1,,,,10000,22.224,,,250,,31.9,,,,,,,,,wg-a,,,,AAXX 01124 07790 02560 32512 1//// 2//// 60006 82/1/ 91200 333 10319 61000=
07790,1998-01-01 18:00:00,12,1019.6,0.4,88,10,11000,7.408,,,220,5.9,16.4,,,,,,,,,wg-a,,,,AAXX 01184 07790 12/61 /2204 10120 20100 30181 40196 51004 60006 91800 333 10164 20059=
07790,1998-01-01 21:00:00,8,1019.1,-0.5,93,7,17000,11.112,,,230,,,,0,,,,,,11,wg-a,,,,AAXX 01214 07790 12567 32306 10080 20070 30176 40191 58005 60007 71111 83800 92100=
07790,1998-01-02 00:00:00,10,1017.9,-1.2,82,7,17000,14.816,,,240,,,,,,,,,,,wg-a,,,,AAXX 02004 07790 12567 /2408 10100 20070 30164 40179 58012 60006 81100 90000=
07790,1998-01-02 06:00:00,9,1015.6,-1.2,76,5,17000,22.224,,,240,8.1,11.5,,,,,,,,,wg-a,,,,AAXX 02064 07790 02567 32412 10090 20050 30141 40156 58012 60006 81101 90600 333 10115 20081 60004=
07790,1998-01-02 09:00:00,11,1014.8,-0.8,71,6,20000,14.816,,,230,,,,,,,,,,,wg-a,,,,AAXX 02094 07790 12570 52308 10110 20060 30133 40148 55008 60006 81172 90900=
07790,1998-01-02 12:00:00,17,1012.2,-2.5,55,8,20000,3.704,,,150,,,,,,,,,,,wg-a,,,,AAXX 02124 07790 12570 41502 10170 20080 30108 40122 58025 60006 81142 91200=
07790,1998-01-02 15:00:00,14,1010.5,-1.7,77,10,25000,0,,,0,,,,,,,,,,,wg-a,,,,AAXX 02154 07790 12575 /0000 10140 20100 30091 40105 56017 60006 81142 91500=
07790,1998-01-02 18:00:00,10,1009,-1.6,87,8,12000,3.704,,,250,8.9,17.2,,,,,,,,,wg-a,,,,AAXX 02184 07790 12562 /2502 10100 20080 30075 40090 58016 60006 81141 91800 333 10172 20089=
07790,1998-01-02 21:00:00,11,1006.7,-2.2,82,8,20000,3.704,,,150,,,,,,,,,,21,wg-a,,,,AAXX 02214 07790 02570 /1502 10110 20080 30053 40067 56022 61000 72162 83541 92100 333 ////=
07790,1998-01-03 00:00:00,10,1005.4,-1.3,87,8,20000,11.112,,,240,,,,0,,,,,,3,wg-a,,,,AAXX 03004 07790 02470 72406 10100 20080 30040 40054 56013 60016 70362 8587/ 90000 333 60007=
07790,1998-01-03 03:00:00,10,1006.7,1.3,71,5,20000,11.112,,,260,,,,,,,,,,21,wg-a,,,,AAXX 03034 07790 02570 22606 10100 20050 30053 40067 53013 61000 72161 82200 90300 333 ////=
07790,1998-01-03 06:00:00,10,1009.8,3,76,6,20000,7.408,,,250,9.3,11.4,,,,,,,,1,wg-a,,,,AAXX 03064 07790 02570 /2504 10100 20060 30083 40098 52030 60006 70161 81500 90600 333 10114 20093 60004=
07790,1998-01-03 09:00:00,14,1013.8,4.1,58,6,11000,3.704,,,250,,,,,,,,,,,wg-a,,,,AAXX 03094 07790 12/61 /2502 10140 20060 30124 40138 51041 60006 90900=
07790,1998-01-03 12:00:00,16,1014.5,0.7,55,7,11000,29.632,,,350,,,,,,,,,,,wg-a,,,,AAXX 03124 07790 12/61 /3516 10160 20070 30131 40145 51007 60006 91200=
07790,1998-01-03 15:00:00,15,1015.5,1,59,7,20000,7.408,,,140,,,,,,,,,,,wg-a,,,,AAXX 03154 07790 12570 21404 10150 20070 30141 40155 53010 60006 81502 91500=
07790,1998-01-03 21:00:00,8,1017.2,0.1,87,6,20000,11.112,,,230,,,,,,,,,,,wg-a,,,,AAXX 03214 07790 12570 /2306 10080 20060 30157 40172 50001 60006 81500 92100=
07790,1998-01-04 00:00:00,8,1016.2,-1,87,6,20000,11.112,,,240,,,,,,,,,,,wg-a,,,,AAXX 04004 07790 12570 22406 10080 20060 30147 40162 58010 60006 82501 90000=
07790,1998-01-04 09:00:00,15,1018.6,3.4,77,11,40000,3.704,,,230,,,,,,,,,,,wg-a,,,,AAXX 04094 07790 12482 52302 10150 20110 30172 40186 51034 60006 81101 90900=
07790,1998-01-04 12:00:00,16,1018.5,-0.1,77,12,25000,3.704,,,80,,,,,,,,,,,wg-a,,,,AAXX 04124 07790 12475 70802 10160 20120 30171 40185 58001 60006 81402 91200=
07790,1998-01-04 18:00:00,11,1017.9,0.2,94,10,20000,3.704,,,270,9.3,16.7,,,,,,,,,wg-a,,,,AAXX 04184 07790 12270 82702 10110 20100 30164 40179 53002 60006 81617 91800 333 10167 20093=
07790,1998-01-05 00:00:00,9,1017.2,-0.3,81,6,10000,11.112,,,220,,,,,,,,,,,wg-a,,,,AAXX 05004 07790 12/60 /2206 10090 20060 30157 40172 58003 60006 90000=
07790,1998-01-05 03:00:00,9,1016.1,-1.1,76,5,20000,7.408,,,170,,,,,,,,,,,wg-a,,,,AAXX 05034 07790 32570 /1704 10090 20050 30146 40161 58011 81502 90300=
07790,1998-01-05 06:00:00,11,1016.5,0.4,62,4,500,18.52,,,230,7.5,11.7,,,,,,,,,wg-a,,,,AAXX 05064 07790 02500 /2310 10110 20040 30150 40165 53004 60006 81502 90600 333 10117 20075 60004=
07790,1998-01-05 09:00:00,15,1017.8,1.4,51,5,50000,14.816,,,240,,,,,,,,,,,wg-a,,,,AAXX 05094 07790 12684 72408 10150 20050 30164 40178 53014 60006 81532 90900=
07790,1998-01-05 12:00:00,18,1017.1,-0.7,64,11,50000,11.112,,,110,,,,,,,,,,,wg-a,,,,AAXX 05124 07790 12484 71106 10180 20110 30157 40171 58007 60006 81132 91200=
07790,1998-01-05 15:00:00,16,1017.6,0.5,77,12,25000,7.408,,,40,,,,,,,,,,,wg-a,,,,AAXX 05154 07790 12475 70404 10160 20120 30162 40176 53005 60006 82801 91500=
07790,1998-01-05 21:00:00,12,1018.4,0.6,50,2,500,7.408,,,100,,,,,,,,,,,wg-a,,,,AAXX 05214 07790 12/00 /1004 10120 20020 30169 40184 50006 60006 81040 92100=
07790,1998-01-06 00:00:00,11,1017.7,-0.7,54,2,500,11.112,,,180,,,,,,,,,,,wg-a,,,,AAXX 06004 07790 12/00 01806 10110 20020 30162 40177 58007 60006 80000 90000=
07790,1998-01-06 06:00:00,8,1016.3,-1.2,81,5,500,3.704,,,240,7.7,12.5,,,,,,,,,wg-a,,,,AAXX 06064 07790 02500 52402 10080 20050 30148 40163 55012 60006 82571 90600 333 10125 20077 60004=
07790,1998-01-06 09:00:00,13,1017.8,1.5,54,4,500,3.704,,,190,,,,,,,,,,,wg-a,,,,AAXX 06094 07790 12500 /1902 10130 20040 30163 40178 51015 60006 81131 90900=
07790,1998-01-06 12:00:00,18,1018.3,0.6,59,10,500,7.408,,,90,,,,,,,,,,,wg-a,,,,AAXX 06124 07790 12500 20904 10180 20100 30169 40183 50006 60006 81101 91200=
07790,1998-01-06 18:00:00,10,1019.9,1.1,82,7,500,11.112,,,240,7,18.1,,,,,,,,,wg-a,,,,AAXX 06184 07790 12500 22406 10100 20070 30184 40199 53011 60006 82500 91800 333 10181 20070=
07790,1998-01-07 06:00:00,8,1022.6,0.4,61,1,500,14.816,,,220,6.4,9.5,,,,,,,,,wg-a,,,,AAXX 07064 07790 02/00 02208 10080 20010 30211 40226 53004 60006 80000 90600 333 10095 20064 60004=
07790,1998-01-07 09:00:00,11,1024.3,1.7,58,3,500,14.816,,,240,,,,,,,,,,,wg-a,,,,AAXX 07094 07790 12500 /2408 10110 20030 30228 40243 52017 60006 81201 90900=
07790,1998-01-07 12:00:00,17,1023.9,-0.3,59,9,500,0,,,0,,,,,,,,,,,wg-a,,,,AAXX 07124 07790 12500 40000 10170 20090 30225 40239 58003 60006 82202 91200=
07790,1998-01-07 15:00:00,15,1024.7,0.8,77,11,500,7.408,,,130,,,,,,,,,,,wg-a,,,,AAXX 07154 07790 12500 21304 10150 20110 30233 40247 53008 60006 81802 91500=
07790,1998-01-07 18:00:00,10,1026.5,1.7,87,8,500,7.408,,,230,6.9,17.4,,,,,,,,,wg-a,,,,AAXX 07184 07790 12500 /2304 10100 20080 30250 40265 53017 60006 81500 91800 333 10174 20069=
07790,1998-01-07 21:00:00,8,1027.4,0.9,87,6,20000,11.112,,,240,,,,,,,,,,,wg-a,,,,AAXX 07214 07790 12570 32406 10080 20060 30259 40274 51009 60006 83500 92100=
07790,1998-01-08 00:00:00,8,1028.1,0.7,81,5,20000,11.112,,,240,,,,,,,,,,,wg-a,,,,AAXX 08004 07790 12570 32406 10080 20050 30266 40281 50007 60006 83500 90000=
07790,1998-01-08 03:00:00,8,1028.8,0.7,76,4,500,18.52,,,240,,,,,,,,,,,wg-a,,,,AAXX 08034 07790 12/00 02410 10080 20040 30273 40288 51007 60006 80000 90300=
07790,1998-01-08 06:00:00,8,1029.6,0.8,76,4,500,18.52,,,240,7.4,9.8,,,,,,,,,wg-a,,,,AAXX 08064 07790 02/00 02410 10080 20040 30281 40296 53008 60006 80000 90600 333 10098 20074 60004=
07790,1998-01-08 09:00:00,11,1031.2,1.6,66,5,500,11.112,,,240,,,,,,,,,,,wg-a,,,,AAXX 08094 07790 12500 22406 10110 20050 30297 40312 52016 60006 81831 90900=
07790,1998-01-08 15:00:00,15,1031.1,0.1,72,10,11000,7.408,,,130,,,,,,,,,,,wg-a,,,,AAXX 08154 07790 12/61 /1304 10150 20100 30296 40311 53001 60006 91500=
07790,1998-01-08 18:00:00,11,1032.1,1,87,9,20000,3.704,,,240,7.1,17.1,,,,,,,,,wg-a,,,,AAXX 08184 07790 12570 22402 10110 20090 30306 40321 51010 60006 82800 91800 333 10171 20071=
07790,1998-01-09 00:00:00,8,1033.4,0.2,87,6,11000,11.112,,,240,,,,,,,,,,,wg-a,,,,AAXX 09004 07790 12/61 /2406 10080 20060 30319 40334 50002 60006 90000=
07790,1998-01-09 03:00:00,7,1033.1,-0.3,87,5,20000,14.816,,,240,,,,0,,,,,,,wg-a,,,,AAXX 09034 07790 12/70 02408 10070 20050 30316 40331 58003 60007 80000 90300=
07790,1998-01-09 06:00:00,6,1032.8,-0.3,87,4,20000,18.52,,,240,6,10.8,,,,,,,,,wg-a,,,,AAXX 09064 07790 02570 /2410 10060 20040 30313 40328 56003 60006 81500 90600 333 10108 20060 60004=
07790,1998-01-09 09:00:00,10,1034,1.2,71,5,20000,3.704,,,230,,,,,,,,,,,wg-a,,,,AAXX 09094 07790 12570 /2302 10100 20050 30325 40340 53012 60006 81100 90900=
07790,1998-01-09 12:00:00,16,1033.5,-0.5,59,8,20000,3.704,,,100,,,,,,,,,,,wg-a,,,,AAXX 09124 07790 12570 /1002 10160 20080 30320 40335 58005 60006 81100 91200=
07790,1998-01-09 18:00:00,9,1033.7,0.7,87,7,20000,3.704,,,240,6.3,16.1,,,,,,,,,wg-a,,,,AAXX 09184 07790 12/70 02402 10090 20070 30322 40337 53007 60006 80000 91800 333 10161 20063=
07790,1998-01-10 00:00:00,7,1033.7,-0.3,87,5,20000,11.112,,,230,,,,,,,,,,,wg-a,,,,AAXX 10004 07790 12570 /2306 10070 20050 30322 40337 56003 60006 81500 90000=
07790,1998-01-10 03:00:00,5,1033.3,-0.4,87,3,20000,7.408,,,230,,,,,,,,,,,wg-a,,,,AAXX 10034 07790 12570 /2304 10050 20030 30318 40333 56004 60006 81500 90300=
07790,1998-01-10 06:00:00,6,1032.9,-0.4,81,3,500,11.112,,,230,5.2,8.7,,,,,,,,,wg-a,,,,AAXX 10064 07790 02/00 /2306 10060 20030 30314 40329 55004 60006 80000 90600 333 10087 20052 60004=
07790,1998-01-10 09:00:00,10,1033.5,0.6,66,4,40000,11.112,,,230,,,,,,,,,,,wg-a,,,,AAXX 10094 07790 12582 12306 10100 20040 30320 40335 51006 60006 81100 90900=
07790,1998-01-10 12:00:00,16,1032.7,-0.8,63,9,40000,11.112,,,130,,,,,,,,,,,wg-a,,,,AAXX 10124 07790 12582 11306 10160 20090 30312 40327 58008 60006 81101 91200=
07790,1998-01-10 15:00:00,15,1032.1,-0.6,67,9,40000,7.408,,,140,,,,,,,,,,,wg-a,,,,AAXX 10154 07790 12582 31404 10150 20090 30306 40321 56006 60006 81403 91500=
07790,1998-01-10 18:00:00,8,1031.9,-0.2,93,7,25000,7.408,,,240,5.2,16.4,,,,,,,,,wg-a,,,,AAXX 10184 07790 12475 /2404 10080 20070 30304 40319 56002 60006 81600 91800 333 10164 20052=
07790,1998-01-10 21:00:00,6,1031.9,-0,93,5,25000,7.408,,,230,,,,0,,,,,,,wg-a,,,,AAXX 10214 07790 12/75 02304 10060 20050 30304 40319 54000 60007 80000 92100=
07790,1998-01-11 00:00:00,5,1031.8,-0.1,87,3,25000,11.112,,,230,,,,,,,,,,,wg-a,,,,AAXX 11004 07790 12/75 02306 10050 20030 30303 40318 58001 60006 80000 90000=
07790,1998-01-11 06:00:00,3,1031.1,-0.1,87,1,25000,7.408,,,230,3.2,8,,,,,,,,,wg-a,,,,AAXX 11064 07790 02475 /2304 10030 20010 30296 40311 55001 60006 81500 90600 333 10080 20032 60004=
07790,1998-01-11 12:00:00,14,1030.5,-1,72,9,20000,22.224,,,150,,,,,,,,,,,wg-a,,,,AAXX 11124 07790 12470 41512 10140 20090 30290 40305 58010 60006 84501 91200=
07790,1998-01-11 15:00:00,14,1029.7,-0.8,72,9,20000,18.52,,,150,,,,,,,,,,,wg-a,,,,AAXX 11154 07790 12570 21510 10140 20090 30282 40297 56008 60006 82501 91500=
07790,1998-01-11 18:00:00,8,1029.6,-0.1,87,6,20000,3.704,,,230,3.2,14.3,,,,,,,,,wg-a,,,,AAXX 11184 07790 12570 /2302 10080 20060 30281 40296 56001 60006 81500 91800 333 10143 20032=
07790,1998-01-12 00:00:00,6,1029.8,-0.1,93,5,20000,3.704,,,250,,,,,,,,,,,wg-a,,,,AAXX 12004 07790 12570 62502 10060 20050 30283 40298 58001 60006 86500 90000=
07790,1998-01-12 03:00:00,6,1029,-0.8,93,5,20000,7.408,,,240,,,,,,,,,,,wg-a,,,,AAXX 12034 07790 12570 /2404 10060 20050 30275 40290 58008 60006 86500 90300=
07790,1998-01-12 06:00:00,6,1028.5,-0.5,93,5,20000,7.408,,,240,5.3,7.5,,,,,,,,,wg-a,,,,AAXX 12064 07790 02570 /2404 10060 20050 30270 40285 55005 60006 86500 90600 333 10075 20053 60004=
07790,1998-01-12 09:00:00,8,1028.9,0.4,87,6,20000,3.704,,,230,,,,,,,,,,,wg-a,,,,AAXX 12094 07790 12570 42302 10080 20060 30274 40289 51004 60006 84500 90900=
07790,1998-01-12 12:00:00,15,1026.9,-2,63,8,20000,31.484,,53.708,150,,,,,,,,,,,wg-a,,,,AAXX 12124 07790 12570 31517 10150 20080 30254 40269 58020 60006 82501 91200 333 91029=
07790,1998-01-12 15:00:00,14,1026.2,-0.7,63,7,20000,29.632,,,160,,,,,,,,,,,wg-a,,,,AAXX 12154 07790 12570 61616 10140 20070 30247 40262 56007 60006 82131 91500=
07790,1998-01-12 18:00:00,11,1026.4,0.2,76,7,20000,14.816,,,180,5.2,15.1,,,,,,,,,wg-a,,,,AAXX 12184 07790 12570 61808 10110 20070 30249 40264 53002 60006 82531 91800 333 10151 20052=
07790,1998-01-12 21:00:00,13,1024.9,-1.5,82,10,15000,22.224,,,160,,,,,,,,,,,wg-a,,,,AAXX 12214 07790 12565 71612 10130 20100 30234 40249 58015 60006 875// 92100=
07790,1998-01-13 00:00:00,13,1023.4,-1.5,88,11,15000,22.224,,,170,,,,,,,,,,,wg-a,,,,AAXX 13004 07790 12565 71712 10130 20110 30219 40234 58015 60006 875// 90000=
07790,1998-01-13 09:00:00,14,1021.1,-0.1,88,12,12000,18.52,,,170,,,,,,,,,,1,wg-a,,,,AAXX 13094 07790 02262 71710 10140 20120 30197 40211 56001 61000 70162 878// 90900 333 ////=
07790,1998-01-13 12:00:00,15,1019.6,-1.5,82,12,15000,22.224,,,170,,,,,,,,,,1,wg-a,,,,AAXX 13124 07790 02265 /1712 10150 20120 30182 40196 58015 61000 70162 86800 91200 333 ////=
07790,1998-01-13 15:00:00,14,1018.6,-1,88,12,8000,18.52,,,160,,,,,,,,,,,wg-a,,,,AAXX 13154 07790 12258 71610 10140 20120 30172 40186 56010 60006 85502 91500=
07790,1998-01-13 21:00:00,9,1018,-0.3,93,8,15000,3.704,,,270,,,,,,,,,,,wg-a,,,,AAXX 13214 07790 12465 72702 10090 20080 30165 40180 57003 60006 86832 92100=
07790,1998-01-14 00:00:00,9,1016.9,-1.1,93,8,15000,7.408,,,270,,,,,,,,,,,wg-a,,,,AAXX 14004 07790 12465 72704 10090 20080 30154 40169 58011 60006 86832 90000=
07790,1998-01-14 06:00:00,9,1014.8,-1.2,93,8,15000,7.408,,,230,8.6,12.1,,,,,,,,3,wg-a,,,,AAXX 14064 07790 02465 72304 10090 20080 30133 40148 56012 60006 70362 875// 90600 333 10121 20086 60004=
07790,1998-01-14 09:00:00,12,1015.2,0.4,88,10,8000,0,,,0,,,,,,,,,,,wg-a,,,,AAXX 14094 07790 12458 80000 10120 20100 30137 40152 53004 60006 8/87/ 90900=
07790,1998-01-14 12:00:00,12,1014.4,-0.7,94,11,6000,7.408,,,210,,,,2,,,,,,60,wg-a,,,,AAXX 14124 07790 02456 82104 10120 20110 30130 40144 58007 60026 76062 8357/ 91200 333 60027=
07790,1998-01-14 18:00:00,11,1015.6,1.2,82,8,15000,3.704,,,270,9.4,13.7,,,,,,,,1,wg-a,,,,AAXX 14184 07790 12765 /2702 10110 20080 30141 40156 53012 60006 70161 84500 91800 333 10137 20094=
07790,1998-01-14 21:00:00,10,1017.2,1.6,76,6,17000,18.52,,,260,,,,,,,,,,,wg-a,,,,AAXX 14214 07790 12667 32610 10100 20060 30157 40172 51016 60006 83500 92100=
07790,1998-01-15 00:00:00,8,1018.4,1.2,81,5,17000,11.112,,,230,,,,,,,,,,,wg-a,,,,AAXX 15004 07790 12667 32306 10080 20050 30169 40184 51012 60006 83500 90000=
07790,1998-01-15 03:00:00,9,1019.6,1.2,76,5,17000,7.408,,,260,,,,,,,,,,,wg-a,,,,AAXX 15034 07790 12667 /2604 10090 20050 30181 40196 52012 60006 86500 90300=
07790,1998-01-15 06:00:00,7,1020.8,1.2,81,4,17000,11.112,,,240,6.9,11,,,,,2,,,,wg-a,,,,AAXX 15064 07790 02567 /2406 10070 20040 30193 40208 53012 60006 85500 90600 333 10110 20069 60024=
07790,1998-01-15 09:00:00,10,1022.6,1.8,76,6,500,11.112,,,240,,,,,,,,,,,wg-a,,,,AAXX 15094 07790 12500 42406 10100 20060 30211 40226 53018 60006 82870 90900=
07790,1998-01-15 12:00:00,14,1022.5,-0.1,63,7,500,3.704,,,340,,,,,,,,,,,wg-a,,,,AAXX 15124 07790 12500 33402 10140 20070 30210 40225 58001 60006 83802 91200=
07790,1998-01-15 15:00:00,14,1022.9,0.4,63,7,25000,7.408,,,10,,,,,,,,,,,wg-a,,,,AAXX 15154 07790 12575 20104 10140 20070 30214 40229 53004 60006 82530 91500=
07790,1998-01-15 18:00:00,8,1023.9,1,87,6,20000,7.408,,,230,6.8,14.7,,,,,,,,,wg-a,,,,AAXX 15184 07790 12570 22304 10080 20060 30224 40239 51010 60006 82500 91800 333 10147 20068=
07790,1998-01-15 21:00:00,8,1024.4,0.5,81,5,20000,14.816,,,240,,,,,,,,,,,wg-a,,,,AAXX 15214 07790 12570 /2408 10080 20050 30229 40244 51005 60006 81100 92100=
07790,1998-01-16 00:00:00,8,1024,-0.4,76,4,20000,14.816,,,230,,,,,,,,,,,wg-a,,,,AAXX 16004 07790 12/70 02308 10080 20040 30225 40240 58004 60006 80000 90000=
07790,1998-01-16 03:00:00,6,1023.4,-0.6,81,3,20000,11.112,,,240,,,,,,,,,,,wg-a,,,,AAXX 16034 07790 12/70 02406 10060 20030 30219 40234 58006 60006 80000 90300=
07790,1998-01-16 06:00:00,6,1022.4,-1,81,3,20000,22.224,,,240,4.8,8.3,,,,,,,,,wg-a,,,,AAXX 16064 07790 02570 12412 10060 20030 30209 40224 57010 60006 81100 90600 333 10083 20048 60004=
07790,1998-01-16 09:00:00,10,1022.2,-0.2,66,4,20000,14.816,,,240,,,,,,,,,,,wg-a,,,,AAXX 16094 07790 12570 32408 10100 20040 30207 40222 55002 60006 81102 90900=
07790,1998-01-16 12:00:00,15,1020.3,-1.8,55,6,500,7.408,,,130,,,,,,,,,,,wg-a,,,,AAXX 16124 07790 12500 71304 10150 20060 30189 40203 58018 60006 81204 91200=
07790,1998-01-16 15:00:00,13,1018.4,-2,72,8,20000,3.704,,,150,,,,,,,,,,,wg-a,,,,AAXX 16154 07790 12570 71502 10130 20080 30169 40184 57020 60006 8387/ 91500=
07790,1998-01-16 21:00:00,9,1014.9,-2.1,93,8,8000,7.408,,,220,,,,1,,,,,,60,wg-a,,,,AAXX 16214 07790 12558 82204 10090 20080 30134 40149 58021 60017 76066 8487/ 92100=
07790,1998-01-17 00:00:00,8,1012.3,-2.6,93,7,8000,3.704,,,280,,,,0,,,,,,61,wg-a,,,,AAXX 17004 07790 02558 82802 10080 20070 30108 40123 56026 60016 76162 8487/ 90000 333 60007=
07790,1998-01-17 03:00:00,8,1011,-1.3,87,6,8000,3.704,,,270,,,,,,,,,,3,wg-a,,,,AAXX 17034 07790 02558 72702 10080 20060 30095 40110 55013 61000 70362 8587/ 90300 333 ////=
07790,1998-01-17 06:00:00,10,1011.4,0.4,82,7,8000,11.112,,,350,8.1,10.4,,,,,,,,21,wg-a,,,,AAXX 17064 07790 02558 83506 10100 20070 30099 40114 53004 61000 72162 8587/ 90600 333 10104 20081 6003=
07790,1998-01-17 09:00:00,11,1014.5,3.1,82,8,12000,25.928,,,340,,,,,,,,,,60,wg-a,,,,AAXX 17094 07790 02562 83414 10110 20080 30130 40145 53031 61000 76062 8687/ 90900 333 ////=
07790,1998-01-17 12:00:00,12,1016,1.5,71,7,20000,14.816,,,340,,,,1,,,,,,2,wg-a,,,,AAXX 17124 07790 02570 73408 10120 20070 30145 40160 51015 60016 70286 86871 91200 333 60017=
07790,1998-01-17 21:00:00,9,1022,1.8,71,4,20000,11.112,,,260,,,,,,,,,,,wg-a,,,,AAXX 17214 07790 12570 32606 10090 20040 30205 40220 51018 60006 83800 92100=
07790,1998-01-18 00:00:00,10,1022.5,0.5,57,2,20000,11.112,,,340,,,,,,,,,,,wg-a,,,,AAXX 18004 07790 12/70 03406 10100 20020 30210 40225 51005 60006 80000 90000=
07790,1998-01-18 03:00:00,6,1022.9,0.4,75,2,20000,11.112,,,240,,,,,,,,,,,wg-a,,,,AAXX 18034 07790 12/70 02406 10060 20020 30214 40229 51004 60006 80000 90300=
07790,1998-01-18 06:00:00,5,1023.3,0.4,81,2,40000,14.816,,,240,5.1,12.8,,,,,1,,,,wg-a,,,,AAXX 18064 07790 02/82 02408 10050 20020 30218 40233 52004 60006 80000 90600 333 10128 20051 60014=
07790,1998-01-18 09:00:00,10,1023.1,-0.2,66,4,10000,7.408,,,230,,,,,,,,,,,wg-a,,,,AAXX 18094 07790 12/60 /2304 10100 20040 30216 40231 58002 60006 90900=
07790,1998-01-18 12:00:00,14,1021.6,-1.5,47,3,50000,7.408,,,30,,,,,,,,,,,wg-a,,,,AAXX 18124 07790 12/84 30304 10140 20030 30201 40216 58015 60006 80001 91200=
07790,1998-01-18 15:00:00,13,1020.3,-1.3,54,4,50000,3.704,,,110,,,,,,,,,,,wg-a,,,,AAXX 18154 07790 12684 71102 10130 20040 30188 40203 56013 60006 81502 91500=
07790,1998-01-18 18:00:00,9,1019.7,-0.6,71,4,500,7.408,,,220,4.8,15.1,,,,,,,,,wg-a,,,,AAXX 18184 07790 12500 82204 10090 20040 30182 40197 58006 60006 81552 91800 333 10151 20048=
07790,1998-01-18 21:00:00,8,1017.8,-1.9,76,4,500,3.704,,,240,,,,,,,,,,,wg-a,,,,AAXX 18214 07790 12500 82402 10080 20040 30163 40178 56019 60006 82532 92100=
07790,1998-01-19 00:00:00,7,1015.9,-1.9,76,3,500,7.408,,,240,,,,,,,,,,,wg-a,,,,AAXX 19004 07790 12500 82404 10070 20030 30144 40159 56019 60006 82532 90000=
07790,1998-01-19 03:00:00,7,1012.8,-3.1,76,3,500,11.112,,,220,,,,,,,,,,,wg-a,,,,AAXX 19034 07790 12500 82206 10070 20030 30113 40128 56031 60006 82532 90300=
07790,1998-01-19 06:00:00,8,1009.5,-3.3,71,3,500,3.704,,,230,6.2,9,,,,,,,,,wg-a,,,,AAXX 19064 07790 02500 82302 10080 20030 30080 40095 56033 60006 83532 90600 333 10090 20062 60004=
07790,1998-01-19 09:00:00,11,1006.4,-3,71,6,20000,3.704,,,170,,,,,,,,,,,wg-a,,,,AAXX 19094 07790 12570 81702 10110 20060 30050 40064 56030 60006 8557/ 90900=
07790,1998-01-19 15:00:00,16,1001.1,-2.2,55,7,20000,22.224,,,250,,,,,,,,,,,wg-a,,,,AAXX 19154 07790 12570 72512 10160 20070 39997 40011 55022 60006 8587/ 91500=
07790,1998-01-19 18:00:00,13,998.2,-2.9,72,8,11000,3.704,,,50,8,17.4,,,,,,,,,wg-a,,,,AAXX 19184 07790 12/61 /0502 10130 20080 39968 49982 56029 60006 91800 333 10174 20080=
07790,1998-01-19 21:00:00,13,1000.1,1.9,51,3,18000,14.816,,50.004,310,,,,,,,,,,,wg-a,,,,AAXX 19214 07790 12568 23108 10130 20030 39987 40001 53019 60006 82500 92100 333 91027=
07790,1998-01-20 00:00:00,15,1001.4,1.3,27,-4,20000,29.632,,50.004,320,,,,,,,,,,,wg-a,,,,AAXX 20004 07790 12/70 03216 10150 21040 30000 40014 53013 60006 80000 90000 333 91027=
07790,1998-01-20 03:00:00,10,1001.7,0.3,57,2,20000,14.816,,57.412,250,,,,,,,,,,,wg-a,,,,AAXX 20034 07790 12/70 02508 10100 20020 30003 40017 50003 60006 80000 90300 333 91031=
07790,1998-01-20 06:00:00,12,1000.6,-1.1,40,-1,20000,14.816,,57.412,240,8.6,15.3,,,,,1,,,,wg-a,,,,AAXX 20064 07790 02/70 02408 10120 21010 39992 40006 56011 60006 80000 90600 333 10153 20086 60014 91031=
07790,1998-01-20 09:00:00,14,999.6,-1,38,0,18000,50.004,,68.524,280,,,,,,,,,,,wg-a,,,,AAXX 20094 07790 12668 22827 10140 20000 39982 49996 57010 60006 82200 90900 333 91037=
07790,1998-01-20 12:00:00,12,997.4,-2.2,44,0,18000,38.892,,57.412,310,,,,,,,,,,,wg-a,,,,AAXX 20124 07790 12668 33121 10120 20000 39960 49974 55022 60006 82230 91200 333 91031=
07790,1998-01-20 21:00:00,10,1008.9,1.4,53,1,20000,14.816,,,330,,,,,,,,,,1,wg-a,,,,AAXX 20214 07790 12570 73308 10100 20010 30074 40089 51014 60006 70192 85930 92100=
07790,1998-01-21 00:00:00,9,1009.4,0.5,46,-2,20000,18.52,,,330,,,,,,,,,,1,wg-a,,,,AAXX 21004 07790 12670 23310 10090 21020 30079 40094 53005 60006 70191 82500 90000=
07790,1998-01-21 03:00:00,9,1009.8,0.4,46,-2,20000,14.816,,,330,,,,,,,,,,,wg-a,,,,AAXX 21034 07790 12570 23308 10090 21020 30083 40098 53004 60006 82100 90300=
07790,1998-01-21 06:00:00,8,1011.4,1.6,42,-4,20000,11.112,,,300,7.1,10.3,,,,,9,,,,wg-a,,,,AAXX 21064 07790 02570 33006 10080 21040 30099 40114 53016 60006 81101 90600 333 10103 20071 60094=
07790,1998-01-21 09:00:00,10,1013.4,2,43,-2,60000,11.112,,,330,,,,,,,,,,,wg-a,,,,AAXX 21094 07790 12586 73306 10100 21020 30119 40134 51020 60006 81134 90900=
07790,1998-01-21 12:00:00,13,1013.7,0.4,33,-3,60000,18.52,,,10,,,,,,,,,,,wg-a,,,,AAXX 21124 07790 12586 /0110 10130 21030 30123 40137 50004 60006 81142 91200=
07790,1998-01-21 15:00:00,12,1014.2,0.4,32,-4,60000,22.224,,,350,,,,,,,,,,,wg-a,,,,AAXX 21154 07790 12586 73512 10120 21040 30127 40142 53004 60006 81142 91500=
07790,1998-01-21 21:00:00,12,1015.5,0.3,30,-5,500,18.52,,,30,,,,,,,,,,,wg-a,,,,AAXX 21214 07790 12500 30310 10120 21050 30140 40155 53003 60006 81531 92100=
07790,1998-01-22 00:00:00,6,1015.9,0.4,56,-2,500,11.112,,,240,,,,,,,,,,,wg-a,,,,AAXX 22004 07790 12500 22406 10060 21020 30144 40159 52004 60006 81531 90000=
07790,1998-01-22 03:00:00,10,1016.7,0.8,43,-2,500,14.816,,,20,,,,,,,,,,,wg-a,,,,AAXX 22034 07790 12500 20208 10100 21020 30152 40167 51008 60006 81531 90300=
07790,1998-01-22 06:00:00,5,1016.8,0.1,65,-1,500,11.112,,,250,4.9,11.9,,,,,,,,,wg-a,,,,AAXX 22064 07790 02600 52506 10050 21010 30153 40168 52001 60006 83530 90600 333 10119 20049 60004=
07790,1998-01-22 12:00:00,11,1016.2,-0.6,40,-2,50000,31.484,,,40,,,,,,,,,,,wg-a,,,,AAXX 22124 07790 12784 30417 10110 21020 30147 40162 58006 60006 81530 91200=
07790,1998-01-22 15:00:00,11,1014.9,-1.3,43,-1,50000,14.816,,,360,,,,,,,,,,,wg-a,,,,AAXX 22154 07790 12784 23608 10110 21010 30134 40149 56013 60006 82500 91500=
07790,1998-01-22 18:00:00,7,1015.5,0.6,57,-1,40000,7.408,,,260,4.2,11.4,,,,,,,,,wg-a,,,,AAXX 22184 07790 12782 52604 10070 21010 30140 40155 53006 60006 83530 91800 333 10114 20042=
07790,1998-01-23 03:00:00,9,1016.4,-0.5,57,1,11000,14.816,,,40,,,,,,,,,,,wg-a,,,,AAXX 23034 07790 12/61 /0408 10090 20010 30149 40164 58005 60006 90300=
07790,1998-01-23 06:00:00,9,1016.7,0.3,57,1,500,18.52,,,30,5.3,9.4,,,,,,,,,wg-a,,,,AAXX 23064 07790 02600 80310 10090 20010 30152 40167 53003 60006 8653/ 90600 333 10094 20053 60004=
07790,1998-01-23 09:00:00,9,1017.6,0.9,61,2,11000,22.224,,,70,,,,,,,,,,,wg-a,,,,AAXX 23094 07790 32/61 /0712 10090 20020 30161 40176 53009 90900=
07790,1998-01-23 12:00:00,10,1017.6,0,57,2,40000,18.52,,,30,,,,,,,,,,3,wg-a,,,,AAXX 23124 07790 12582 70310 10100 20020 30161 40176 50000 60006 70362 878// 91200=
07790,1998-01-23 15:00:00,10,1017.2,-0.4,62,3,40000,25.928,,,30,,,,,,,,,,,wg-a,,,,AAXX 23154 07790 12582 80314 10100 20030 30157 40172 56004 60006 888// 91500=
07790,1998-01-23 18:00:00,10,1018,0.8,62,3,500,18.52,,,30,8.6,11,,,,,,,,3,wg-a,,,,AAXX 23184 07790 02500 80310 10100 20030 30165 40180 53008 60006 70362 888// 91800 333 10110 20086 61000=
07790,1998-01-23 21:00:00,8,1018.4,0.4,76,4,500,7.408,,,360,,,,,,,,,,,wg-a,,,,AAXX 23214 07790 12500 83604 10080 20040 30169 40184 51004 60006 888// 92100=
07790,1998-01-24 00:00:00,7,1018,-0.4,76,3,15000,7.408,,,260,,,,,,,,,,,wg-a,,,,AAXX 24004 07790 12565 82604 10070 20030 30165 40180 58004 60006 888// 90000=
07790,1998-01-24 03:00:00,7,1017.2,-0.8,76,3,25000,11.112,,,310,,,,,,,,,,,wg-a,,,,AAXX 24034 07790 12575 83106 10070 20030 30157 40172 58008 60006 888// 90300=
07790,1998-01-24 06:00:00,6,1016.3,-0.9,81,3,25000,11.112,,,250,5.5,9.9,,,,,,,,,wg-a,,,,AAXX 24064 07790 02575 62506 10060 20030 30148 40163 56009 60006 85830 90600 333 10099 20055 60004=
07790,1998-01-24 09:00:00,10,1015.9,-0.4,62,3,25000,11.112,,,360,,,,,,,,,,,wg-a,,,,AAXX 24094 07790 12675 23606 10100 20030 30144 40159 58004 60006 82500 90900=
07790,1998-01-24 12:00:00,11,1014.5,-1.4,58,3,25000,18.52,,,30,,,,,,,,,,,wg-a,,,,AAXX 24124 07790 12675 20310 10110 20030 30130 40145 58014 60006 82500 91200=
07790,1998-01-24 15:00:00,11,1013.2,-1.3,54,2,25000,7.408,,,30,,,,,,,,,,,wg-a,,,,AAXX 24154 07790 12675 /0304 10110 20020 30117 40132 56013 60006 81500 91500=
07790,1998-01-24 18:00:00,6,1013.2,-0,81,3,20000,7.408,,,250,5.1,11.4,,,,,,,,,wg-a,,,,AAXX 24184 07790 12670 /2504 10060 20030 30117 40132 55000 60006 81500 91800 333 10114 20051=
07790,1998-01-24 21:00:00,6,1013,-0.2,75,2,20000,14.816,,,240,,,,,,,,,,,wg-a,,,,AAXX 24214 07790 12/70 02408 10060 20020 30115 40130 58002 60006 80000 92100=
07790,1998-01-25 00:00:00,5,1012.9,-0.1,81,2,20000,11.112,,,250,,,,,,,,,,,wg-a,,,,AAXX 25004 07790 12/70 02506 10050 20020 30114 40129 58001 60006 80000 90000=
07790,1998-01-25 03:00:00,4,1012.9,0,81,1,20000,11.112,,,230,,,,,,,,,,,wg-a,,,,AAXX 25034 07790 12770 42306 10040 20010 30114 40129 50000 60006 84500 90300=
07790,1998-01-25 06:00:00,5,1013.4,0.5,81,2,20000,7.408,,,230,3.4,6.2,,,,,,,,,wg-a,,,,AAXX 25064 07790 02570 /2304 10050 20020 30119 40134 53005 60006 86500 90600 333 10062 20034 60004=
07790,1998-01-25 09:00:00,7,1015.6,2.2,93,6,500,3.704,,,320,,,,2,,,,,,61,wg-a,,,,AAXX 25094 07790 12400 73202 10070 20060 30141 40156 53022 60027 76162 875// 90900=
07790,1998-01-25 12:00:00,9,1016.6,1,87,7,4000,14.816,,,10,,,,1,,,,,,61,wg-a,,,,AAXX 25124 07790 02440 80108 10090 20070 30151 40166 51010 60036 76162 888// 91200 333 60017=
07790,1998-01-25 15:00:00,7,1017.4,0.8,93,6,15000,7.408,,,260,,,,5,,,,,,60,wg-a,,,,AAXX 25154 07790 12465 82604 10070 20060 30159 40174 51008 60057 76066 878// 91500=
07790,1998-01-25 18:00:00,7,1018.7,1.3,93,6,3000,14.816,,,230,5,9.4,,,,,,,,63,wg-a,,,,AAXX 25184 07790 02430 82308 10070 20060 30172 40187 53013 61000 76362 876// 91800 333 10094 20050 6005=
07790,1998-01-25 21:00:00,8,1019.7,1,87,6,11000,11.112,,,320,,,,,,,,,,,wg-a,,,,AAXX 25214 07790 32/61 /3206 10080 20060 30182 40197 53010 92100=
07790,1998-01-26 00:00:00,7,1020.2,0.5,93,6,15000,11.112,,,250,,,,2,,,,,,21,wg-a,,,,AAXX 26004 07790 02465 82506 10070 20060 30187 40202 50005 60026 72162 885// 90000 333 60027=
07790,1998-01-26 03:00:00,8,1020.2,0,87,6,15000,11.112,,,320,,,,,,,,,,,wg-a,,,,AAXX 26034 07790 12465 83206 10080 20060 30187 40202 50000 60006 885// 90300=
07790,1998-01-26 06:00:00,8,1020.3,0.1,81,5,11000,7.408,,,310,7,8.2,,,,,15,,,,wg-a,,,,AAXX 26064 07790 02/61 /3104 10080 20050 30188 40203 53001 60006 90600 333 10082 20070 60154=
07790,1998-01-26 09:00:00,8,1021.1,0.8,76,4,20000,14.816,,,330,,,,,,,,,,21,wg-a,,,,AAXX 26094 07790 02470 73308 10080 20040 30196 40211 51008 61000 72162 87800 90900 333 ////=
07790,1998-01-26 12:00:00,9,1021,-0.1,71,4,20000,18.52,,,360,,,,,,,,,,1,wg-a,,,,AAXX 26124 07790 02570 73610 10090 20040 30195 40210 58001 61000 70162 878// 91200 333 ////=
07790,1998-01-26 15:00:00,9,1020,-1,61,2,20000,11.112,,,20,,,,,,,,,,,wg-a,,,,AAXX 26154 07790 12570 /0206 10090 20020 30185 40200 56010 60006 86800 91500=
07790,1998-01-26 18:00:00,8,1020.2,0.2,61,1,20000,7.408,,,310,7.4,10,,,,,,,,,wg-a,,,,AAXX 26184 07790 12570 /3104 10080 20010 30187 40202 53002 60006 86800 91800 333 10100 20074=
07790,1998-01-26 21:00:00,8,1020.5,0.3,61,1,20000,7.408,,,330,,,,,,,,,,,wg-a,,,,AAXX 26214 07790 12670 73304 10080 20010 30190 40205 51003 60006 875// 92100=
07790,1998-01-27 00:00:00,8,1020.7,0.2,66,2,20000,18.52,,,20,,,,,,,,,,,wg-a,,,,AAXX 27004 07790 12570 70210 10080 20020 30192 40207 50002 60006 875// 90000=
07790,1998-01-27 03:00:00,7,1020.3,-0.4,66,1,20000,14.816,,,20,,,,,,,,,,,wg-a,,,,AAXX 27034 07790 12570 70208 10070 20010 30188 40203 58004 60006 875// 90300=
07790,1998-01-27 06:00:00,5,1020.1,-0.2,70,0,20000,7.408,,,320,4.7,8.1,,,,,,,,,wg-a,,,,AAXX 27064 07790 02470 33204 10050 20000 30186 40201 58002 60006 83500 90600 333 10081 20047 61000=
07790,1998-01-27 09:00:00,6,1020.5,0.4,65,0,20000,11.112,,,320,,,,,,,,,,,wg-a,,,,AAXX 27094 07790 12570 /3206 10060 20000 30190 40205 50004 60006 86500 90900=
07790,1998-01-27 12:00:00,9,1019.7,-0.8,53,0,20000,18.52,,,360,,,,,,,,,,,wg-a,,,,AAXX 27124 07790 12570 /3610 10090 20000 30182 40197 58008 60006 86500 91200=
07790,1998-01-27 15:00:00,8,1018.9,-0.8,49,-2,25000,11.112,,,20,,,,,,,,,,,wg-a,,,,AAXX 27154 07790 12/75 /0206 10080 21020 30174 40189 56008 60006 80000 91500=
07790,1998-01-27 18:00:00,3,1018.7,-0.2,70,-2,25000,11.112,,,260,3.3,9,,,,,,,,,wg-a,,,,AAXX 27184 07790 12675 12606 10030 21020 30172 40187 55002 60006 81500 91800 333 10090 20033=
07790,1998-01-27 21:00:00,2,1018.7,-0,75,-2,18000,14.816,,,250,,,,,,,,,,,wg-a,,,,AAXX 27214 07790 12/68 /2508 10020 21020 30172 40187 55000 60006 80000 92100=
07790,1998-01-28 00:00:00,2,1018.5,-0.2,75,-2,18000,14.816,,,240,,,,,,,,,,,wg-a,,,,AAXX 28004 07790 12/68 02408 10020 21020 30170 40185 58002 60006 80000 90000=
07790,1998-01-28 03:00:00,2,1017.6,-0.9,75,-2,18000,14.816,,,240,,,,,,,,,,,wg-a,,,,AAXX 28034 07790 12/68 02408 10020 21020 30161 40176 58009 60006 80000 90300=
07790,1998-01-28 06:00:00,2,1017.4,-0.2,80,-1,18000,14.816,,,240,1.2,3.2,,,,,,,,,wg-a,,,,AAXX 28064 07790 02568 52408 10020 21010 30159 40174 56002 60006 85500 90600 333 10032 20012 60004=
07790,1998-01-28 12:00:00,10,1017.1,-0.7,62,3,12000,7.408,,,40,,,,,,,,,,,wg-a,,,,AAXX 28124 07790 12562 20404 10100 20030 30156 40171 58007 60006 82500 91200=
07790,1998-01-28 15:00:00,10,1016.6,-0.5,62,3,15000,3.704,,,110,,,,,,,,,,,wg-a,,,,AAXX 28154 07790 12565 21102 10100 20030 30151 40166 56005 60006 82100 91500=
07790,1998-01-28 18:00:00,5,1016.5,-0.1,87,3,12000,7.408,,,250,2.2,10.9,,,,,,,,,wg-a,,,,AAXX 28184 07790 12/62 02504 10050 20030 30150 40165 55001 60006 80000 91800 333 10109 20022=
07790,1998-01-28 21:00:00,3,1016.5,0,93,2,12000,7.408,,,210,,,,,,,,,,,wg-a,,,,AAXX 28214 07790 12/62 02104 10030 20020 30150 40165 50000 60006 80000 92100=
07790,1998-01-29 00:00:00,2,1016.3,-0.2,93,1,10000,11.112,,,220,,,,,,,,,,,wg-a,,,,AAXX 29004 07790 12/60 02206 10020 20010 30148 40163 58002 60006 80000 90000=
07790,1998-01-29 03:00:00,3,1015.7,-0.6,81,0,10000,14.816,,,240,,,,,,,,,,,wg-a,,,,AAXX 29034 07790 12/60 02408 10030 20000 30142 40157 56006 60006 80000 90300=
07790,1998-01-29 06:00:00,3,1015.6,-0.1,75,-1,15000,22.224,,,240,1.7,4.7,,,,,,,,,wg-a,,,,AAXX 29064 07790 02565 12412 10030 21010 30141 40156 55001 60006 81500 90600 333 10047 20017 60004=
07790,1998-01-29 09:00:00,8,1015.9,0.3,57,0,20000,22.224,,,240,,,,,,,,,,,wg-a,,,,AAXX 29094 07790 12/70 12412 10080 20000 30144 40159 51003 60006 81031 90900=
07790,1998-01-29 12:00:00,13,1015.8,0,51,3,11000,11.112,,,140,,,,,,,,,,,wg-a,,,,AAXX 29124 07790 12/61 /1406 10130 20030 30144 40158 50000 60006 91200=
07790,1998-01-29 15:00:00,12,1015.3,-0.5,58,4,20000,11.112,,,140,,,,,,,,,,,wg-a,,,,AAXX 29154 07790 12670 21406 10120 20040 30139 40153 55005 60006 81501 91500=
07790,1998-01-29 18:00:00,8,1016.7,1.3,81,5,20000,3.704,,,210,3,13.5,,,,,,,,,wg-a,,,,AAXX 29184 07790 12570 52102 10080 20050 30152 40167 53013 60006 85500 91800 333 10135 20030=
07790,1998-01-29 21:00:00,5,1017.9,1.2,87,3,11000,11.112,,,240,,,,,,,,,,,wg-a,,,,AAXX 29214 07790 12/61 /2406 10050 20030 30164 40179 52012 60006 92100=
07790,1998-01-30 00:00:00,5,1018.3,0.4,81,2,20000,14.816,,,250,,,,0,,,,,,,wg-a,,,,AAXX 30004 07790 02570 /2508 10050 20020 30168 40183 52004 60006 81500 90000 333 60007=
07790,1998-01-30 03:00:00,5,1018.4,0.1,81,2,18000,11.112,,,240,,,,,,,,,,,wg-a,,,,AAXX 30034 07790 12568 32406 10050 20020 30169 40184 50001 60006 83500 90300=
07790,1998-01-30 06:00:00,5,1018.4,-0,81,2,18000,11.112,,,230,4,7.7,,,,,,,,,wg-a,,,,AAXX 30064 07790 02568 32306 10050 20020 30169 40184 54000 60006 8/500 90600 333 10077 20040 60004=
07790,1998-01-30 09:00:00,10,1019,0.6,66,4,9000,11.112,,,250,,,,,,,,,,,wg-a,,,,AAXX 30094 07790 12559 42506 10100 20040 30175 40190 51006 60006 84800 90900=
07790,1998-01-30 21:00:00,6,1015.3,-0.1,87,4,15000,11.112,,,230,,,,,,,,,,,wg-a,,,,AAXX 30214 07790 12565 22306 10060 20040 30138 40153 55001 60006 82200 92100=
07790,1998-01-31 03:00:00,6,1012.7,-1.8,81,3,15000,14.816,,,240,,,,,,,,,,,wg-a,,,,AAXX 31034 07790 12/65 /2408 10060 20030 30112 40127 58018 60006 81030 90300=
07790,1998-01-31 06:00:00,6,1012,-0.7,81,3,15000,11.112,,,240,4.8,8.9,,,,,,,,,wg-a,,,,AAXX 31064 07790 02465 /2406 10060 20030 30105 40120 58007 60006 86800 90600 333 10089 20048 60004=
07790,1998-01-31 12:00:00,13,1009.8,-2.2,72,8,12000,11.112,,,350,,,,,,,,,,,wg-a,,,,AAXX 31124 07790 12562 /3506 10130 20080 30084 40098 58022 60006 84570 91200=
07790,1998-01-31 15:00:00,12,1007.9,-1.9,82,9,12000,11.112,,,330,,,,,,,,,,60,wg-a,,,,AAXX 31154 07790 02462 83306 10120 20090 30065 40079 56019 61000 76062 8657/ 91500 333 ////=
07790,1998-01-31 18:00:00,12,1007.8,-0.1,88,10,11000,3.704,,,160,5.9,12.9,,,,,,,,,wg-a,,,,AAXX 31184 07790 12/61 /1602 10120 20100 30064 40078 55001 60006 91800 333 10129 20059=
07790,1998-02-01 00:00:00,11,1007.9,0.1,87,9,20000,11.112,,,90,,,,0,,,,,,21,wg-a,,,,AAXX 01004 07790 02470 80906 10110 20090 30065 40079 50001 60036 72162 8657/ 90000 333 60007=
07790,1998-02-01 03:00:00,11,1007.8,-0.1,82,8,18000,11.112,,,30,,,,4,,,,,,21,wg-a,,,,AAXX 01034 07790 12368 80306 10110 20080 30064 40078 58001 60047 72162 875// 90300=
07790,1998-02-01 06:00:00,10,1008.6,0.7,76,6,18000,18.52,,,30,10.1,11.9,,,,,8,,,2,wg-a,,,,AAXX 01064 07790 02368 80310 10100 20060 30071 40086 53007 60006 70262 875// 90600 333 10119 20101 60084=
07790,1998-02-01 09:00:00,10,1009.6,1,71,5,18000,18.52,,,40,,,,,,,,,,,wg-a,,,,AAXX 01094 07790 12568 70410 10100 20050 30081 40096 51010 60006 875// 90900=
07790,1998-02-01 12:00:00,10,1009.9,0.3,66,4,18000,18.52,,,20,,,,,,,,,,,wg-a,,,,AAXX 01124 07790 12568 70210 10100 20040 30084 40099 51003 60006 875// 91200=
07790,1998-02-01 15:00:00,10,1009.9,-0,71,5,18000,18.52,,,10,,,,,,,,,,,wg-a,,,,AAXX 01154 07790 12568 70110 10100 20050 30084 40099 55000 60006 875// 91500=
07790,1998-02-01 18:00:00,7,1011.1,1.2,70,2,18000,11.112,,,310,7,10.5,,,,,,,,,wg-a,,,,AAXX 01184 07790 12568 33106 10070 20020 30096 40111 53012 60006 83800 91800 333 10105 20070=
07790,1998-02-01 21:00:00,5,1011.8,0.7,75,1,18000,7.408,,,270,,,,,,,,,,,wg-a,,,,AAXX 01214 07790 12/68 02704 10050 20010 30103 40118 52007 60006 80000 92100=
07790,1998-02-02 00:00:00,4,1011.9,0.1,81,1,18000,14.816,,,240,,,,,,,,,,,wg-a,,,,AAXX 02004 07790 12/68 02408 10040 20010 30104 40119 50001 60006 80000 90000=
07790,1998-02-02 03:00:00,4,1011.4,-0.5,75,0,15000,7.408,,,270,,,,,,,,,,,wg-a,,,,AAXX 02034 07790 12/65 02704 10040 20000 30099 40114 58005 60006 80000 90300=
07790,1998-02-02 06:00:00,4,1011.3,-0.1,81,1,15000,14.816,,,230,2.3,7.1,,,,,,,,,wg-a,,,,AAXX 02064 07790 02565 /2308 10040 20010 30098 40113 55001 60006 81500 90600 333 10071 20023 60004=
07790,1998-02-02 09:00:00,9,1012.1,0.8,66,3,20000,11.112,,,240,,,,,,,,,,,wg-a,,,,AAXX 02094 07790 12670 /2406 10090 20030 30106 40121 53008 60006 81531 90900=
07790,1998-02-02 12:00:00,14,1010.6,-1.4,47,3,20000,11.112,,,150,,,,,,,,,,,wg-a,,,,AAXX 02124 07790 12670 31506 10140 20030 30092 40106 58014 60006 81501 91200=
07790,1998-02-02 18:00:00,7,1009.8,0.1,87,5,15000,7.408,,,230,3.3,13.8,,,,,,,,,wg-a,,,,AAXX 02184 07790 12665 42304 10070 20050 30083 40098 53001 60006 83532 91800 333 10138 20033=
07790,1998-02-02 21:00:00,5,1009.4,-0.4,87,3,15000,3.704,,,220,,,,,,,,,,,wg-a,,,,AAXX 02214 07790 12665 42202 10050 20030 30079 40094 56004 60006 82532 92100=
07790,1998-02-03 00:00:00,7,1008.7,-0.7,87,5,15000,11.112,,,240,,,,,,,,,,,wg-a,,,,AAXX 03004 07790 12665 72406 10070 20050 30072 40087 56007 60006 81532 90000=
07790,1998-02-03 03:00:00,8,1007.5,-1.2,81,5,15000,7.408,,,230,,,,,,,,,,,wg-a,,,,AAXX 03034 07790 12665 72304 10080 20050 30060 40075 58012 60006 81532 90300=
07790,1998-02-03 06:00:00,7,1006.9,-0.6,93,6,11000,11.112,,,230,5.1,8.3,,,,,1,,,,wg-a,,,,AAXX 03064 07790 02/61 /2306 10070 20060 30054 40069 58006 60006 90600 333 10083 20051 60014=
07790,1998-02-03 09:00:00,10,1006.4,-0.4,87,8,15000,7.408,,,270,,,,0,,,,,,60,wg-a,,,,AAXX 03094 07790 12665 72704 10100 20080 30050 40064 58004 60007 76062 84572 90900=
07790,1998-02-03 12:00:00,13,1004.9,-1.5,77,9,15000,3.704,,,10,,,,0,,,,,,61,wg-a,,,,AAXX 03124 07790 02665 70102 10130 20090 30035 40049 58015 60016 76162 8557/ 91200 333 60007=
07790,1998-02-03 15:00:00,12,1003.4,-1.5,88,10,12000,0,,,0,,,,0,,,,,,61,wg-a,,,,AAXX 03154 07790 12462 70000 10120 20100 30020 40034 56015 60007 76166 875// 91500=
07790,1998-02-03 18:00:00,11,1003.1,-0.3,94,10,3000,11.112,,,320,7.1,12.7,,,,,,,,10,wg-a,,,,AAXX 03184 07790 02330 83206 10110 20100 30017 40031 58003 61000 71066 877// 91800 333 10127 20071 6001=
07790,1998-02-03 21:00:00,11,1002.9,-0.2,100,11,4000,14.816,,,30,,,,6,,,,,,10,wg-a,,,,AAXX 03214 07790 12240 70308 10110 20110 30015 40029 57002 60067 71066 877// 92100=
07790,1998-02-04 00:00:00,11,1002,-0.9,94,10,4000,11.112,,,80,,,,8,,,,,,61,wg-a,,,,AAXX 04004 07790 02240 70806 10110 20100 30006 40020 58009 60146 76166 877// 90000 333 60087=
07790,1998-02-04 03:00:00,11,1000.9,-1.1,,,4000,18.52,,,40,,,,7,,,,,,10,wg-a,,,,AAXX 04034 07790 12240 70410 10110 2//// 39995 40009 56011 60077 71066 877// 90300=
07790,1998-02-04 06:00:00,9,1001.6,0.7,93,8,4500,25.928,,,20,9.2,11.5,,,,,,,,10,wg-a,,,,AAXX 04064 07790 02145 80214 10090 20080 30002 40016 53007 61000 71066 885// 90600 333 10115 20092 6033=
07790,1998-02-04 12:00:00,8,1004.7,1,87,6,4500,29.632,,,20,,,,5,,,,,,61,wg-a,,,,AAXX 04124 07790 02245 80216 10080 20060 30032 40047 51010 60146 76166 885// 91200 333 60057=
07790,1998-02-04 15:00:00,10,1005.7,1,71,5,8000,27.78,,48.152,360,,,,1,,,,,,61,wg-a,,,,AAXX 04154 07790 12458 83615 10100 20050 30042 40057 53010 60017 76166 885// 91500 333 91026=
07790,1998-02-04 18:00:00,9,1007.4,1.7,71,4,15000,29.632,,,30,8.2,10.1,,,,,,,,1,wg-a,,,,AAXX 04184 07790 02565 80316 10090 20040 30059 40074 53017 60006 70162 8657/ 91800 333 10101 20082 61000=
07790,1998-02-05 00:00:00,9,1008.7,-0.3,66,3,20000,7.408,,,330,,,,,,,,,,,wg-a,,,,AAXX 05004 07790 12570 73304 10090 20030 30072 40087 56003 60006 875// 90000=
07790,1998-02-05 03:00:00,8,1009.2,0.5,71,3,20000,12.964,,,330,,,,,,,,,,,wg-a,,,,AAXX 05034 07790 12670 33307 10080 20030 30077 40092 51005 60006 83500 90300=
07790,1998-02-05 06:00:00,5,1010.6,1.4,81,2,20000,7.408,,,280,4.9,10,,,,,14,,,,wg-a,,,,AAXX 05064 07790 02570 42804 10050 20020 30091 40106 53014 60006 81101 90600 333 10100 20049 60144=
07790,1998-02-05 09:00:00,10,1012.7,2.1,53,1,20000,3.704,,,360,,,,,,,,,,,wg-a,,,,AAXX 05094 07790 12/70 33602 10100 20010 30112 40127 51021 60006 80001 90900=
07790,1998-02-05 12:00:00,12,1012.4,-0.2,58,4,20000,18.52,,,40,,,,,,,,,,,wg-a,,,,AAXX 05124 07790 12/70 20410 10120 20040 30110 40124 58002 60006 80001 91200=
07790,1998-02-05 15:00:00,12,1012.2,-0.2,62,5,20000,22.224,,,20,,,,,,,,,,,wg-a,,,,AAXX 05154 07790 12/70 00212 10120 20050 30108 40122 55002 60006 80000 91500=
07790,1998-02-05 18:00:00,9,1014.6,2.3,57,1,20000,3.704,,,320,4.9,12.6,,,,,,,,,wg-a,,,,AAXX 05184 07790 12/70 03202 10090 20010 30131 40146 52023 60006 80000 91800 333 10126 20049=
07790,1998-02-06 00:00:00,5,1017.3,0.9,70,0,20000,18.52,,,240,,,,,,,,,,,wg-a,,,,AAXX 06004 07790 12/70 02410 10050 20000 30158 40173 51009 60006 80000 90000=
07790,1998-02-06 03:00:00,3,1018.1,0.8,75,-1,20000,11.112,,,240,,,,,,,,,,,wg-a,,,,AAXX 06034 07790 12/70 02406 10030 21010 30166 40181 51008 60006 80000 90300=
07790,1998-02-06 06:00:00,3,1018.9,0.8,70,-2,40000,11.112,,,250,2.5,9.2,,,,,,,,,wg-a,,,,AAXX 06064 07790 02/82 02506 10030 21020 30174 40189 53008 60006 80000 90600 333 10092 20025 60004=
07790,1998-02-06 12:00:00,13,1020.6,0,35,-2,500,11.112,,,360,,,,,,,,,,,wg-a,,,,AAXX 06124 07790 12/00 03606 10130 21020 30191 40206 50000 60006 80000 91200=
07790,1998-02-06 15:00:00,13,1020.4,-0.2,38,-1,35000,14.816,,,350,,,,,,,,,,,wg-a,,,,AAXX 06154 07790 12/81 03508 10130 21010 30189 40204 56002 60006 80000 91500=
07790,1998-02-06 18:00:00,7,1021.4,1,49,-3,25000,11.112,,,260,2.5,13.5,,,,,,,,,wg-a,,,,AAXX 06184 07790 12/75 02606 10070 21030 30199 40214 53010 60006 80000 91800 333 10135 20025=
07790,1998-02-06 21:00:00,5,1022.5,1.1,52,-4,25000,11.112,,,240,,,,,,,,,,,wg-a,,,,AAXX 06214 07790 12/75 02406 10050 21040 30210 40225 53011 60006 80000 92100=
07790,1998-02-07 00:00:00,5,1023.2,0.7,48,-5,25000,14.816,,,240,,,,,,,,,,,wg-a,,,,AAXX 07004 07790 12/75 02408 10050 21050 30217 40232 53007 60006 80000 90000=
07790,1998-02-07 03:00:00,4,1023.7,0.5,48,-6,25000,11.112,,,240,,,,,,,,,,,wg-a,,,,AAXX 07034 07790 12/75 02406 10040 21060 30222 40237 51005 60006 80000 90300=
07790,1998-02-07 06:00:00,4,1023.8,0.1,48,-6,25000,14.816,,,230,3.5,6.6,,,,,,,,,wg-a,,,,AAXX 07064 07790 02/75 02308 10040 21060 30223 40238 53001 60006 80000 90600 333 10066 20035 60004=
07790,1998-02-07 09:00:00,11,1025.1,1.3,37,-3,35000,11.112,,,230,,,,,,,,,,,wg-a,,,,AAXX 07094 07790 12/81 02306 10110 21030 30236 40251 51013 60006 80000 90900=
07790,1998-02-07 12:00:00,14,1024.9,-0.2,41,1,35000,11.112,,,40,,,,,,,,,,,wg-a,,,,AAXX 07124 07790 12/81 00406 10140 20010 30234 40249 58002 60006 80000 91200=
07790,1998-02-07 15:00:00,14,1023.9,-1,63,7,35000,14.816,,,150,,,,,,,,,,,wg-a,,,,AAXX 07154 07790 12681 41508 10140 20070 30224 40239 56010 60006 81104 91500=
07790,1998-02-07 18:00:00,8,1023.9,0,81,5,35000,3.704,,,250,3.6,14.8,,,,,,,,,wg-a,,,,AAXX 07184 07790 12/81 32502 10080 20050 30224 40239 50000 60006 82032 91800 333 10148 20036=
07790,1998-02-07 21:00:00,9,1022.8,-1.1,66,3,18000,7.408,,,220,,,,,,,,,,,wg-a,,,,AAXX 07214 07790 12/68 /2204 10090 20030 30213 40228 58011 60006 82032 92100=
07790,1998-02-08 00:00:00,5,1021.6,-1.2,81,2,18000,7.408,,,260,,,,,,,,,,,wg-a,,,,AAXX 08004 07790 12/68 42604 10050 20020 30201 40216 58012 60006 81032 90000=
07790,1998-02-08 03:00:00,4,1020.6,-1,70,-1,18000,11.112,,,230,,,,,,,,,,,wg-a,,,,AAXX 08034 07790 12/68 32306 10040 21010 30191 40206 56010 60006 81031 90300=
07790,1998-02-08 06:00:00,4,1021.8,1.2,75,0,20000,11.112,,,230,3.6,9.8,,,,,,,,,wg-a,,,,AAXX 08064 07790 02670 12306 10040 20000 30203 40218 53012 60006 81501 90600 333 10098 20036 60004=
07790,1998-02-08 12:00:00,14,1024.2,1,63,7,20000,18.52,,,10,,,,,,,,,,,wg-a,,,,AAXX 08124 07790 12570 70110 10140 20070 30227 40242 51010 60006 82804 91200=
07790,1998-02-08 15:00:00,12,1025.2,1,62,5,11000,14.816,,,10,,,,,,,,,,,wg-a,,,,AAXX 08154 07790 12/61 /0108 10120 20050 30237 40252 53010 60006 91500=
07790,1998-02-08 18:00:00,10,1027.7,2.5,57,2,15000,7.408,,,290,3.6,13.9,,,,,,,,,wg-a,,,,AAXX 08184 07790 12/65 32904 10100 20020 30262 40277 53025 60006 80002 91800 333 10139 20036=
07790,1998-02-08 21:00:00,10,1029.6,1.9,57,2,25000,7.408,,,290,,,,,,,,,,,wg-a,,,,AAXX 08214 07790 12/75 12904 10100 20020 30281 40296 52019 60006 80001 92100=
07790,1998-02-09 00:00:00,5,1030.7,1.1,75,1,25000,11.112,,,230,,,,,,,,,,,wg-a,,,,AAXX 09004 07790 12/75 12306 10050 20010 30292 40307 51011 60006 80001 90000=
07790,1998-02-09 03:00:00,4,1030.8,0.1,81,1,15000,11.112,,,240,,,,,,,,,,,wg-a,,,,AAXX 09034 07790 12/65 12406 10040 20010 30293 40308 50001 60006 80001 90300=
07790,1998-02-09 06:00:00,3,1031.3,0.5,75,-1,500,11.112,,,240,2.9,11.3,,,,,,,,,wg-a,,,,AAXX 09064 07790 02/00 02406 10030 21010 30298 40313 53005 60006 80000 90600 333 10113 20029 60004=
07790,1998-02-09 09:00:00,11,1033.1,1.8,50,1,10000,3.704,,,210,,,,,,,,,,,wg-a,,,,AAXX 09094 07790 12/60 /2102 10110 20010 30316 40331 51018 60006 90900=
07790,1998-02-09 12:00:00,14,1032.8,-0.3,28,-4,10000,11.112,,,120,,,,,,,,,,,wg-a,,,,AAXX 09124 07790 12/60 /1206 10140 21040 30313 40328 58003 60006 91200=
07790,1998-02-09 15:00:00,14,1031.8,-1,26,-5,45000,3.704,,,10,,,,,,,,,,,wg-a,,,,AAXX 09154 07790 12/83 10102 10140 21050 30303 40318 55010 60006 80001 91500=
07790,1998-02-09 18:00:00,7,1032.8,1,45,-4,20000,7.408,,,250,2.5,14.9,,,,,,,,,wg-a,,,,AAXX 09184 07790 12/70 02504 10070 21040 30313 40328 53010 60006 80000 91800 333 10149 20025=
07790,1998-02-09 21:00:00,4,1033.3,0.5,56,-4,0,11.112,,,240,,,,,,,,,,,wg-a,,,,AAXX 09214 07790 12/// 02406 10040 21040 30318 40333 51005 60006 80000 92100=
07790,1998-02-10 00:00:00,4,1033.3,0,56,-4,0,11.112,,,240,,,,,,,,,,,wg-a,,,,AAXX 10004 07790 12/// 02406 10040 21040 30318 40333 50000 60006 80000 90000=
07790,1998-02-10 03:00:00,3,1033,-0.3,60,-4,0,11.112,,,230,,,,,,,,,,,wg-a,,,,AAXX 10034 07790 12/// /2306 10030 21040 30315 40330 58003 60006 90300=
07790,1998-02-10 06:00:00,3,1033.4,0.4,65,-3,25000,14.816,,,230,3.2,6.5,,,,,,,,,wg-a,,,,AAXX 10064 07790 02/75 02308 10030 21030 30319 40334 53004 60006 80000 90600 333 10065 20032 60004=
07790,1998-02-10 12:00:00,16,1034,-0.6,45,4,25000,7.408,,,110,,,,,,,,,,,wg-a,,,,AAXX 10124 07790 12/75 21104 10160 20040 30325 40340 58006 60006 80001 91200=
07790,1998-02-10 15:00:00,15,1033.2,-0.8,44,3,25000,7.408,,,100,,,,,,,,,,,wg-a,,,,AAXX 10154 07790 12/75 11004 10150 20030 30317 40332 56008 60006 80001 91500=
07790,1998-02-10 18:00:00,8,1034,0.8,76,4,25000,7.408,,,240,3.3,16.4,,,,,,,,,wg-a,,,,AAXX 10184 07790 12/75 02404 10080 20040 30325 40340 53008 60006 80000 91800 333 10164 20033=
07790,1998-02-10 21:00:00,6,1034.7,0.7,75,2,25000,7.408,,,230,,,,,,,,,,,wg-a,,,,AAXX 10214 07790 12/75 02304 10060 20020 30332 40347 51007 60006 80000 92100=
07790,1998-02-11 00:00:00,5,1035.3,0.6,81,2,25000,11.112,,,230,,,,,,,,,,,wg-a,,,,AAXX 11004 07790 12/75 02306 10050 20020 30338 40353 51006 60006 80000 90000=
07790,1998-02-11 06:00:00,5,1035,-0,75,1,25000,11.112,,,230,4.2,8,,,,,,,,,wg-a,,,,AAXX 11064 07790 02/75 02306 10050 20010 30335 40350 55000 60006 80000 90600 333 10080 20042 60004=
07790,1998-02-11 12:00:00,16,1035,-0.9,51,6,500,7.408,,,120,,,,,,,,,,,wg-a,,,,AAXX 11124 07790 12/00 01204 10160 20060 30335 40350 58009 60006 80000 91200=
07790,1998-02-11 15:00:00,15,1034,-1,55,6,500,7.408,,,140,,,,,,,,,,,wg-a,,,,AAXX 11154 07790 12/00 01404 10150 20060 30325 40340 56010 60006 80000 91500=
07790,1998-02-11 18:00:00,9,1035,1,81,6,10000,3.704,,,260,4.5,16,,,,,,,,,wg-a,,,,AAXX 11184 07790 12/60 /2602 10090 20060 30335 40350 53010 60006 91800 333 10160 20045=
07790,1998-02-12 00:00:00,6,1035.1,0,87,4,20000,7.408,,,230,,,,,,,,,,,wg-a,,,,AAXX 12004 07790 12/70 02304 10060 20040 30336 40351 50000 60006 80000 90000=
07790,1998-02-12 03:00:00,5,1034.5,-0.6,87,3,10000,11.112,,,240,,,,,,,,,,,wg-a,,,,AAXX 12034 07790 12/60 /2406 10050 20030 30330 40345 58006 60006 90300=
07790,1998-02-12 06:00:00,6,1034.4,-0.1,81,3,18000,14.816,,,240,4.9,8.9,,,,,,,,,wg-a,,,,AAXX 12064 07790 02/68 02408 10060 20030 30329 40344 58001 60006 80000 90600 333 10089 20049 60004=
07790,1998-02-12 09:00:00,13,1035.8,1.4,58,5,25000,11.112,,,230,,,,,,,,,,,wg-a,,,,AAXX 12094 07790 12/75 02306 10130 20050 30343 40358 51014 60006 80000 90900=
07790,1998-02-12 12:00:00,16,1034.7,-1.1,63,9,25000,11.112,,,100,,,,,,,,,,,wg-a,,,,AAXX 12124 07790 12/75 01006 10160 20090 30332 40347 58011 60006 80000 91200=
07790,1998-02-12 15:00:00,15,1033.6,-1.1,67,9,25000,7.408,,,100,,,,,,,,,,,wg-a,,,,AAXX 12154 07790 12/75 31004 10150 20090 30321 40336 56011 60006 80001 91500=
07790,1998-02-12 18:00:00,10,1033.8,0.2,87,8,25000,7.408,,,330,5.6,16.4,,,,,,,,,wg-a,,,,AAXX 12184 07790 12375 33304 10100 20080 30323 40338 53002 60006 81701 91800 333 10164 20056=
07790,1998-02-12 21:00:00,7,1034.3,0.5,93,6,18000,7.408,,,240,,,,,,,,,,,wg-a,,,,AAXX 12214 07790 12/68 /2404 10070 20060 30328 40343 51005 60006 80000 92100=
07790,1998-02-13 00:00:00,7,1034,-0.3,87,5,15000,7.408,,,240,,,,,,,,,,,wg-a,,,,AAXX 13004 07790 12565 32404 10070 20050 30325 40340 58003 60006 83500 90000=
07790,1998-02-13 03:00:00,5,1033.5,-0.5,93,4,15000,7.408,,,260,,,,,,,,,,,wg-a,,,,AAXX 13034 07790 12565 22604 10050 20040 30320 40335 55005 60006 82500 90300=
07790,1998-02-13 09:00:00,14,1033.5,0.5,51,4,25000,7.408,,,220,,,,,,,,,,,wg-a,,,,AAXX 13094 07790 12/75 02204 10140 20040 30320 40335 50005 60006 80000 90900=
07790,1998-02-13 12:00:00,16,1032.8,-0.7,55,7,500,11.112,,,50,,,,,,,,,,,wg-a,,,,AAXX 13124 07790 12/00 00506 10160 20070 30313 40328 58007 60006 80000 91200=
07790,1998-02-13 15:00:00,16,1031.7,-1.1,59,8,500,11.112,,,120,,,,,,,,,,,wg-a,,,,AAXX 13154 07790 12/00 01206 10160 20080 30302 40317 56011 60006 80000 91500=
07790,1998-02-13 18:00:00,10,1031.9,0.2,82,7,500,3.704,,,210,4.9,17.8,,,,,,,,,wg-a,,,,AAXX 13184 07790 12200 /2102 10100 20070 30304 40319 53002 60006 81701 91800 333 10178 20049=
07790,1998-02-13 21:00:00,8,1032.6,0.7,81,5,25000,11.112,,,240,,,,,,,,,,,wg-a,,,,AAXX 13214 07790 12/75 02406 10080 20050 30311 40326 52007 60006 80000 92100=
07790,1998-02-14 00:00:00,8,1032.3,-0.3,76,4,25000,7.408,,,110,,,,,,,,,,,wg-a,,,,AAXX 14004 07790 12/75 01104 10080 20040 30308 40323 55003 60006 80000 90000=
07790,1998-02-14 03:00:00,6,1032.3,-0,87,4,25000,11.112,,,240,,,,,,,,,,,wg-a,,,,AAXX 14034 07790 12/75 02406 10060 20040 30308 40323 55000 60006 80000 90300=
07790,1998-02-14 06:00:00,7,1032.3,-0,87,5,25000,18.52,,,230,5.3,9.9,,,,,,,,,wg-a,,,,AAXX 14064 07790 02475 /2310 10070 20050 30308 40323 55000 60006 81600 90600 333 10099 20053 60004=
07790,1998-02-14 09:00:00,13,1033.6,1.3,72,8,20000,7.408,,,230,,,,,,,,,,,wg-a,,,,AAXX 14094 07790 12570 /2304 10130 20080 30321 40336 51013 60006 81500 90900=
07790,1998-02-14 12:00:00,17,1033.1,-0.5,59,9,20000,11.112,,,100,,,,,,,,,,,wg-a,,,,AAXX 14124 07790 12570 /1006 10170 20090 30316 40331 58005 60006 81100 91200=
07790,1998-02-14 15:00:00,14,1032.4,-0.7,77,10,15000,7.408,,,120,,,,,,,,,,,wg-a,,,,AAXX 14154 07790 12565 51204 10140 20100 30309 40324 56007 60006 85500 91500=
07790,1998-02-14 18:00:00,13,1032.9,0.5,82,10,15000,0,,,0,6.3,16.7,,,,,,,,,wg-a,,,,AAXX 14184 07790 12565 /0000 10130 20100 30314 40329 53005 60006 86500 91800 333 10167 20063=
07790,1998-02-14 21:00:00,12,1033.2,0.3,76,8,15000,11.112,,,250,,,,,,,,,,,wg-a,,,,AAXX 14214 07790 12465 /2506 10120 20080 30317 40332 53003 60006 86500 92100=
07790,1998-02-15 00:00:00,10,1032.4,-0.8,82,7,15000,14.816,,,240,,,,,,,,,,,wg-a,,,,AAXX 15004 07790 12565 22408 10100 20070 30309 40324 58008 60006 82500 90000=
07790,1998-02-15 03:00:00,10,1031.2,-1.2,82,7,16000,11.112,,,250,,,,,,,,,,,wg-a,,,,AAXX 15034 07790 12566 /2506 10100 20070 30297 40312 58012 60006 85500 90300=
07790,1998-02-15 06:00:00,10,1030.9,-0.3,76,6,16000,11.112,,,240,9.3,12.8,,,,,,,,,wg-a,,,,AAXX 15064 07790 02566 72406 10100 20060 30294 40309 55003 60006 875// 90600 333 10128 20093 60004=
07790,1998-02-15 09:00:00,12,1031.3,0.4,71,7,8000,14.816,,,240,,,,,,,,,,,wg-a,,,,AAXX 15094 07790 12558 /2408 10120 20070 30298 40313 51004 60006 86800 90900=
07790,1998-02-15 12:00:00,15,1030.5,-0.8,59,7,9000,7.408,,,180,,,,,,,,,,,wg-a,,,,AAXX 15124 07790 12559 71804 10150 20070 30290 40305 58008 60006 878// 91200=
07790,1998-02-15 15:00:00,14,1029.3,-1.2,67,8,11000,3.704,,,100,,,,,,,,,,,wg-a,,,,AAXX 15154 07790 12/61 /1002 10140 20080 30278 40293 56012 60006 91500=
07790,1998-02-15 18:00:00,10,1030.3,1,87,8,8000,3.704,,,320,9.4,15.6,,,,,,,,,wg-a,,,,AAXX 15184 07790 12558 /3202 10100 20080 30288 40303 53010 60006 81500 91800 333 10156 20094=
07790,1998-02-15 21:00:00,7,1031,0.7,87,5,12000,3.704,,,270,,,,,,,,,,,wg-a,,,,AAXX 15214 07790 12662 /2702 10070 20050 30295 40310 53007 60006 81500 92100=
07790,1998-02-16 00:00:00,6,1030.3,-0.7,93,5,12000,0,,,0,,,,,,,,,,,wg-a,,,,AAXX 16004 07790 12/62 00000 10060 20050 30288 40303 57007 60006 80000 90000=
07790,1998-02-16 03:00:00,6,1029.6,-0.7,87,4,12000,7.408,,,260,,,,0,,,,,,,wg-a,,,,AAXX 16034 07790 12/62 02604 10060 20040 30281 40296 56007 60007 80000 90300=
07790,1998-02-16 06:00:00,6,1029.3,-0.3,81,3,500,11.112,,,220,5.5,10.1,,,,,,,,,wg-a,,,,AAXX 16064 07790 02/00 02206 10060 20030 30278 40293 55003 60006 80000 90600 333 10101 20055 60004=
07790,1998-02-16 09:00:00,12,1029.6,0.3,67,6,10000,11.112,,,230,,,,,,,,,,,wg-a,,,,AAXX 16094 07790 12/60 02306 10120 20060 30281 40296 51003 60006 80000 90900=
07790,1998-02-16 12:00:00,16,1028.1,-1.4,63,9,10000,7.408,,,100,,,,,,,,,,,wg-a,,,,AAXX 16124 07790 12/60 01004 10160 20090 30267 40281 58014 60006 80000 91200=
07790,1998-02-16 15:00:00,15,1026.8,-1.4,67,9,8000,7.408,,,120,,,,,,,,,,,wg-a,,,,AAXX 16154 07790 12458 /1204 10150 20090 30253 40268 56014 60006 81100 91500=
07790,1998-02-16 18:00:00,10,1025.8,-1,93,9,10000,7.408,,,220,5.8,16.4,,,,,,,,,wg-a,,,,AAXX 16184 07790 12560 /2204 10100 20090 30243 40258 56010 60006 86700 91800 333 10164 20058=
07790,1998-02-16 21:00:00,8,1024.9,-0.9,93,7,8000,7.408,,,250,,,,,,,,,,,wg-a,,,,AAXX 16214 07790 12558 42504 10080 20070 30234 40249 58009 60006 84500 92100=
07790,1998-02-17 00:00:00,9,1023.1,-1.8,93,8,10000,11.112,,,240,,,,,,,,,,,wg-a,,,,AAXX 17004 07790 12460 /2406 10090 20080 30216 40231 56018 60006 85500 90000=
07790,1998-02-17 03:00:00,10,1021.1,-2,87,8,6000,3.704,,,250,,,,,,,,,,,wg-a,,,,AAXX 17034 07790 12456 72502 10100 20080 30196 40211 58020 60006 87500 90300=
07790,1998-02-17 06:00:00,11,1020.5,-0.6,82,8,7000,0,,,0,7.3,10.9,,,,,,,,,wg-a,,,,AAXX 17064 07790 02457 80000 10110 20080 30190 40205 57006 60006 885// 90600 333 10109 20073 60004=
07790,1998-02-17 09:00:00,14,1021.4,0.9,67,8,8000,3.704,,,230,,,,,,,,,,,wg-a,,,,AAXX 17094 07790 12558 /2302 10140 20080 30199 40214 51009 60006 86500 90900=
07790,1998-02-17 12:00:00,16,1021.8,0.5,59,8,15000,18.52,,,130,,,,,,,,,,,wg-a,,,,AAXX 17124 07790 12565 /1310 10160 20080 30204 40218 50005 60006 81500 91200=
07790,1998-02-17 15:00:00,17,1022.4,0.6,59,9,13000,3.704,,,50,,,,,,,,,,,wg-a,,,,AAXX 17154 07790 12/63 /0502 10170 20090 30210 40224 53006 60006 80000 91500=
07790,1998-02-17 18:00:00,11,1025.4,2.9,87,9,9000,3.704,,,320,10.6,16.8,,,,,,,,,wg-a,,,,AAXX 17184 07790 12/59 03202 10110 20090 30239 40254 53029 60006 80000 91800 333 10168 20106=
07790,1998-02-17 21:00:00,9,1028.1,2.7,81,6,20000,7.408,,,260,,,,,,,,,,,wg-a,,,,AAXX 17214 07790 12/70 02604 10090 20060 30266 40281 51027 60006 80000 92100=
07790,1998-02-18 00:00:00,8,1030,1.9,76,4,20000,11.112,,,240,,,,,,,,,,,wg-a,,,,AAXX 18004 07790 12/70 02406 10080 20040 30285 40300 51019 60006 80000 90000=
07790,1998-02-18 03:00:00,9,1030.5,0.5,71,4,20000,11.112,,,240,,,,,,,,,,,wg-a,,,,AAXX 18034 07790 12/70 02406 10090 20040 30290 40305 53005 60006 80000 90300=
07790,1998-02-18 06:00:00,8,1032.1,1.6,71,3,9000,11.112,,,240,7.5,11.1,,,,,,,,,wg-a,,,,AAXX 18064 07790 02/59 02406 10080 20030 30306 40321 53016 60006 80000 90600 333 10111 20075 60004=
07790,1998-02-18 09:00:00,14,1033.6,1.5,55,5,9000,7.408,,,210,,,,,,,,,,,wg-a,,,,AAXX 18094 07790 12/59 02104 10140 20050 30321 40336 51015 60006 80000 90900=
07790,1998-02-18 12:00:00,19,1033.7,0.2,26,-1,20000,11.112,,,140,,,,,,,,,,,wg-a,,,,AAXX 18124 07790 12/70 01406 10190 21010 30323 40337 50002 60006 80000 91200=
07790,1998-02-18 15:00:00,18,1033.1,-0.6,39,4,25000,7.408,,,90,,,,,,,,,,,wg-a,,,,AAXX 18154 07790 12/75 00904 10180 20040 30317 40331 56006 60006 80000 91500=
07790,1998-02-18 18:00:00,11,1033.7,0.5,62,4,25000,7.408,,,220,7.3,19.2,,,,,,,,,wg-a,,,,AAXX 18184 07790 12/75 02204 10110 20040 30322 40337 53005 60006 80000 91800 333 10192 20073=
07790,1998-02-18 21:00:00,9,1034.3,0.6,66,3,15000,11.112,,,240,,,,,,,,,,,wg-a,,,,AAXX 18214 07790 12/65 02406 10090 20030 30328 40343 51006 60006 80000 92100=
07790,1998-02-19 00:00:00,6,1034.3,-0,75,2,15000,7.408,,,260,,,,,,,,,,,wg-a,,,,AAXX 19004 07790 12/65 02604 10060 20020 30328 40343 55000 60006 80000 90000=
07790,1998-02-19 03:00:00,8,1032.7,-1.6,57,0,15000,11.112,,,240,,,,,,,,,,,wg-a,,,,AAXX 19034 07790 12/65 02406 10080 20000 30312 40327 58016 60006 80000 90300=
07790,1998-02-19 06:00:00,8,1032.2,-0.5,53,-1,15000,11.112,,,220,6.1,10.8,,,,,,,,,wg-a,,,,AAXX 19064 07790 02/65 02206 10080 21010 30307 40322 56005 60006 80000 90600 333 10108 20061 60004=
07790,1998-02-19 09:00:00,15,1032.7,0.5,41,2,15000,7.408,,,220,,,,,,,,,,,wg-a,,,,AAXX 19094 07790 12/65 02204 10150 20020 30312 40327 50005 60006 80000 90900=
07790,1998-02-19 12:00:00,17,1031.6,-1,68,11,15000,11.112,,,100,,,,,,,,,,,wg-a,,,,AAXX 19124 07790 12/65 01006 10170 20110 30302 40316 58010 60006 80000 91200=
07790,1998-02-19 15:00:00,17,1029.9,-1.7,68,11,11000,7.408,,,130,,,,,,,,,,,wg-a,,,,AAXX 19154 07790 12461 /1304 10170 20110 30285 40299 58017 60006 81101 91500=
07790,1998-02-19 18:00:00,11,1030.1,0.1,94,10,8000,3.704,,,250,7.1,17.8,,,,,,,,11,wg-a,,,,AAXX 19184 07790 12458 22502 10110 20100 30286 40301 53001 60006 71100 81701 91800 333 10178 20071=
07790,1998-02-19 21:00:00,7,1029.7,-0.4,93,6,10000,7.408,,,250,,,,,,,,,,11,wg-a,,,,AAXX 19214 07790 12460 /2504 10070 20060 30282 40297 56004 60006 71100 81700 92100=
07790,1998-02-20 00:00:00,6,1028.9,-0.8,81,3,10000,7.408,,,250,,,,0,,,,,,,wg-a,,,,AAXX 20004 07790 02/60 02504 10060 20030 30274 40289 56008 60006 80000 90000 333 60007=
07790,1998-02-20 03:00:00,6,1028.2,-0.7,81,3,15000,11.112,,,230,,,,,,,,,,,wg-a,,,,AAXX 20034 07790 12465 42306 10060 20030 30267 40282 58007 60006 84600 90300=
07790,1998-02-20 06:00:00,6,1028.4,0.2,81,3,15000,11.112,,,230,5,11.2,,,,,,,,,wg-a,,,,AAXX 20064 07790 02465 32306 10060 20030 30269 40284 50002 60006 83500 90600 333 10112 20050 60004=
07790,1998-02-20 09:00:00,13,1029.6,1.2,67,7,10000,3.704,,,240,,,,,,,,,,,wg-a,,,,AAXX 20094 07790 12560 /2402 10130 20070 30281 40296 51012 60006 81801 90900=
07790,1998-02-20 12:00:00,16,1029.1,-0.4,63,9,12000,11.112,,,110,,,,,,,,,,,wg-a,,,,AAXX 20124 07790 12562 21106 10160 20090 30277 40291 58004 60006 82201 91200=
07790,1998-02-20 15:00:00,15,1028.1,-1.1,72,10,12000,11.112,,,130,,,,,,,,,,,wg-a,,,,AAXX 20154 07790 12562 21306 10150 20100 30266 40281 56011 60006 82201 91500=
07790,1998-02-20 18:00:00,13,1028.4,0.3,82,10,8000,0,,,0,5.7,16.4,,,,,,,,,wg-a,,,,AAXX 20184 07790 12558 70000 10130 20100 30269 40284 53003 60006 875// 91800 333 10164 20057=
07790,1998-02-20 21:00:00,12,1028.9,0.5,88,10,11000,3.704,,,260,,,,,,,,,,,wg-a,,,,AAXX 20214 07790 12561 82602 10120 20100 30274 40289 53005 60006 885// 92100=
07790,1998-02-21 00:00:00,11,1028.7,-0.2,87,9,15000,7.408,,,250,,,,,,,,,,,wg-a,,,,AAXX 21004 07790 12465 /2504 10110 20090 30272 40287 57002 60006 85500 90000=
07790,1998-02-21 03:00:00,10,1028.1,-0.6,82,7,18000,18.52,,,250,,,,,,,,,,,wg-a,,,,AAXX 21034 07790 12468 /2510 10100 20070 30266 40281 56006 60006 81600 90300=
07790,1998-02-21 06:00:00,9,1028.5,0.4,81,6,9000,18.52,,,240,8.6,13.2,,,,,,,,11,wg-a,,,,AAXX 21064 07790 02/59 /2410 10090 20060 30270 40285 51004 60006 71111 80001 90600 333 10132 20086 60004=
07790,1998-02-21 09:00:00,14,1029.4,0.9,67,8,12000,11.112,,,230,,,,,,,,,,,wg-a,,,,AAXX 21094 07790 12562 /2306 10140 20080 30279 40294 51009 60006 81100 90900=
07790,1998-02-21 12:00:00,17,1028.8,-0.5,68,11,12000,18.52,,,150,,,,,,,,,,,wg-a,,,,AAXX 21124 07790 12462 41510 10170 20110 30274 40288 58005 60006 82101 91200=
07790,1998-02-21 15:00:00,15,1028.2,-0.7,72,10,8000,18.52,,,150,,,,,,,,,,,wg-a,,,,AAXX 21154 07790 12558 71510 10150 20100 30267 40282 56007 60006 82101 91500=
07790,1998-02-21 18:00:00,11,1028.5,0.3,87,9,8000,0,,,0,8.4,16.6,,,,,,,,,wg-a,,,,AAXX 21184 07790 12458 70000 10110 20090 30270 40285 53003 60006 81101 91800 333 10166 20084=
07790,1998-02-21 21:00:00,9,1028.2,-0.3,93,8,7000,7.408,,,240,,,,,,,,,,,wg-a,,,,AAXX 21214 07790 12457 /2404 10090 20080 30267 40282 57003 60006 86500 92100=
07790,1998-02-22 00:00:00,9,1027.8,-0.4,87,7,12000,7.408,,,210,,,,,,,,,,,wg-a,,,,AAXX 22004 07790 12462 22104 10090 20070 30263 40278 58004 60006 82500 90000=
07790,1998-02-22 03:00:00,7,1026.6,-1.2,93,6,12000,7.408,,,240,,,,,,,,,,,wg-a,,,,AAXX 22034 07790 12462 22404 10070 20060 30251 40266 58012 60006 82500 90300=
07790,1998-02-22 06:00:00,7,1026.2,-0.4,93,6,10000,7.408,,,240,6.9,11.4,,,,,,,,11,wg-a,,,,AAXX 22064 07790 02560 72404 10070 20060 30247 40262 58004 60006 71111 84572 90600 333 10114 20069 60004=
07790,1998-02-22 09:00:00,10,1026.2,0,87,8,6000,3.704,,,220,,,,0,,,,,,11,wg-a,,,,AAXX 22094 07790 12456 72202 10100 20080 30247 40262 50000 60007 71122 82572 90900=
07790,1998-02-22 12:00:00,14,1023.5,-2.7,77,10,7000,22.224,,,140,,,,,,,,,,,wg-a,,,,AAXX 22124 07790 12557 71412 10140 20100 30220 40235 58027 60006 82572 91200=
07790,1998-02-22 15:00:00,15,1022.2,-1.2,77,11,8000,14.816,,,140,,,,,,,,,,,wg-a,,,,AAXX 22154 07790 12458 /1408 10150 20110 30208 40222 57012 60006 82572 91500=
07790,1998-02-22 18:00:00,13,1022.4,0.1,82,10,10000,3.704,,,280,7.5,15.6,,,,,,,,63,wg-a,,,,AAXX 22184 07790 02560 72802 10130 20100 30209 40224 53001 61000 76362 8397/ 91800 333 10156 20075 6000=
07790,1998-02-22 21:00:00,12,1021.1,-1.3,82,9,15000,11.112,,,310,,,,0,,,,,,60,wg-a,,,,AAXX 22214 07790 12565 73106 10120 20090 30196 40211 56013 60007 76062 8487/ 92100=
07790,1998-02-23 00:00:00,11,1019.9,-1.2,71,6,15000,14.816,,,240,,,,,,,,,,13,wg-a,,,,AAXX 23004 07790 02565 32408 10110 20060 30184 40199 57012 60016 71361 8237/ 90000 333 61000=
07790,1998-02-23 03:00:00,10,1019.3,-0.6,71,5,20000,3.704,,,130,,,,,,,,,,,wg-a,,,,AAXX 23034 07790 12570 /1302 10100 20050 30178 40193 56006 60006 8157/ 90300=
07790,1998-02-23 06:00:00,9,1018.9,-0.4,57,1,20000,14.816,,,290,7.9,12.9,,,,,1,,,13,wg-a,,,,AAXX 23064 07790 02570 32908 10090 20010 30174 40189 58004 60006 71300 81373 90600 333 10129 20079 60014=
07790,1998-02-23 09:00:00,11,1020.8,1.9,58,3,20000,7.408,,,210,,,,,,,,,,,wg-a,,,,AAXX 23094 07790 12470 /2104 10110 20030 30193 40208 51019 60006 82872 90900=
07790,1998-02-23 12:00:00,12,1020.5,-0.3,62,5,20000,18.52,,,330,,,,,,,,,,,wg-a,,,,AAXX 23124 07790 12570 73310 10120 20050 30190 40205 58003 60006 8387/ 91200=
07790,1998-02-23 15:00:00,8,1021.3,0.8,87,6,6000,0,,,0,,,,8,,,,,,61,wg-a,,,,AAXX 23154 07790 12256 80000 10080 20060 30198 40213 53008 60087 76186 8577/ 91500=
07790,1998-02-23 18:00:00,8,1021.4,0.1,81,5,10000,14.816,,,260,7.6,12.2,,,,,,,,60,wg-a,,,,AAXX 23184 07790 02460 82608 10080 20050 30199 40214 53001 61000 76086 8287/ 91800 333 10122 20076 6001=
07790,1998-02-23 21:00:00,8,1022.4,1,87,6,20000,11.112,,,270,,,,0,,,,,,2,wg-a,,,,AAXX 23214 07790 12570 82706 10080 20060 30209 40224 53010 60007 70262 8457/ 92100=
07790,1998-02-24 00:00:00,9,1022.9,0.5,93,8,8000,14.816,,,360,,,,5,,,,,,61,wg-a,,,,AAXX 24004 07790 02258 83608 10090 20080 30214 40229 52005 60056 76162 8557/ 90000 333 60057=
07790,1998-02-24 03:00:00,9,1022.3,-0.6,93,8,7000,11.112,,,310,,,,2,,,,,,60,wg-a,,,,AAXX 24034 07790 12357 83106 10090 20080 30208 40223 58006 60027 76066 8657/ 90300=
07790,1998-02-24 06:00:00,10,1023,0.7,87,8,8000,7.408,,,300,7.6,9.8,,,,,,,,21,wg-a,,,,AAXX 24064 07790 02458 83004 10100 20080 30215 40230 51007 61000 72162 8657/ 90600 333 10098 20076 6017=
07790,1998-02-24 09:00:00,13,1024.8,1.8,82,10,8000,14.816,,,10,,,,,,,,,,,wg-a,,,,AAXX 24094 07790 12458 80108 10130 20100 30233 40248 51018 60006 8557/ 90900=
07790,1998-02-24 12:00:00,13,1025.3,0.5,82,10,9000,14.816,,,130,,,,1,,,,,,10,wg-a,,,,AAXX 24124 07790 02459 81308 10130 20100 30238 40253 51005 60016 71086 8687/ 91200 333 60017=
07790,1998-02-24 15:00:00,11,1025.6,0.3,82,8,15000,7.408,,,290,,,,1,,,,,,60,wg-a,,,,AAXX 24154 07790 12465 82904 10110 20080 30241 40256 52003 60017 76062 8687/ 91500=
07790,1998-02-24 18:00:00,9,1027.2,1.6,93,8,7000,7.408,,,270,9.4,13.5,,,,,,,,60,wg-a,,,,AAXX 24184 07790 02457 82704 10090 20080 30257 40272 53016 61000 76062 878// 91800 333 10135 20094 6003=
07790,1998-02-24 21:00:00,8,1027.9,0.7,93,7,15000,3.704,,,260,,,,,,,,,,1,wg-a,,,,AAXX 24214 07790 02465 82602 10080 20070 30264 40279 52007 61000 70162 878// 92100 333 ////=
07790,1998-02-25 00:00:00,7,1028.1,0.2,93,6,15000,7.408,,,250,,,,,,,,,,1,wg-a,,,,AAXX 25004 07790 02465 32504 10070 20060 30266 40281 51002 61000 70161 83500 90000 333 ////=
07790,1998-02-25 03:00:00,6,1027.1,-1,93,5,15000,7.408,,,250,,,,,,,,,,,wg-a,,,,AAXX 25034 07790 12465 22504 10060 20050 30256 40271 56010 60006 82500 90300=
07790,1998-02-25 06:00:00,7,1027.5,0.4,87,5,11000,11.112,,,230,5.9,9.3,,,,,5,,,11,wg-a,,,,AAXX 25064 07790 02461 32306 10070 20050 30260 40275 52004 60006 71100 81572 90600 333 10093 20059 60054=
07790,1998-02-25 09:00:00,14,1028.6,1.1,67,8,10000,11.112,,,230,,,,,,,,,,,wg-a,,,,AAXX 25094 07790 12/60 /2306 10140 20080 30271 40286 51011 60006 81030 90900=
07790,1998-02-25 12:00:00,17,1027.9,-0.6,52,7,12000,11.112,,,350,,,,,,,,,,,wg-a,,,,AAXX 25124 07790 12562 /3506 10170 20070 30265 40279 58006 60006 81100 91200=
07790,1998-02-25 18:00:00,13,1027.7,0.4,62,6,17000,11.112,,,290,6.7,16.8,,,,,,,,,wg-a,,,,AAXX 25184 07790 12/67 /2906 10130 20060 30262 40277 53004 60006 83032 91800 333 10168 20067=
07790,1998-02-25 21:00:00,13,1029.1,1.4,72,8,15000,14.816,,,330,,,,,,,,,,,wg-a,,,,AAXX 25214 07790 12/65 73308 10130 20080 30276 40291 53014 60006 83032 92100=
07790,1998-02-26 00:00:00,11,1030.2,1.1,76,7,15000,3.704,,,330,,,,,,,,,,,wg-a,,,,AAXX 26004 07790 12/65 23302 10110 20070 30287 40302 52011 60006 80001 90000=
07790,1998-02-26 03:00:00,10,1030.1,-0.1,76,6,15000,3.704,,,260,,,,,,,,,,,wg-a,,,,AAXX 26034 07790 12/65 22602 10100 20060 30286 40301 58001 60006 80001 90300=
07790,1998-02-26 06:00:00,7,1030.6,0.5,87,5,40000,7.408,,,260,7.1,13.9,,,,,,,,,wg-a,,,,AAXX 26064 07790 02/82 22604 10070 20050 30291 40306 53005 60006 81031 90600 333 10139 20071 60004=
07790,1998-02-26 09:00:00,14,1031.4,0.8,58,6,40000,14.816,,,50,,,,,,,,,,,wg-a,,,,AAXX 26094 07790 12682 20508 10140 20060 30299 40314 50008 60006 82100 90900=
07790,1998-02-26 12:00:00,15,1031.1,-0.3,55,6,40000,14.816,,,40,,,,,,,,,,,wg-a,,,,AAXX 26124 07790 12682 /0408 10150 20060 30296 40311 58003 60006 81100 91200=
07790,1998-02-26 15:00:00,16,1029.8,-1.3,48,5,500,11.112,,,10,,,,,,,,,,,wg-a,,,,AAXX 26154 07790 12600 /0106 10160 20050 30283 40298 58013 60006 81100 91500=
07790,1998-02-27 00:00:00,9,1029.8,-0.6,66,3,25000,14.816,,,240,,,,,,,,,,,wg-a,,,,AAXX 27004 07790 12/75 02408 10090 20030 30283 40298 56006 60006 80000 90000=
07790,1998-02-27 03:00:00,8,1028.7,-1.1,71,3,25000,18.52,,,240,,,,,,,,,,,wg-a,,,,AAXX 27034 07790 12/75 02410 10080 20030 30272 40287 56011 60006 80000 90300=
07790,1998-02-27 06:00:00,8,1027.9,-0.8,71,3,12000,7.408,,,230,7.1,10.9,,,,,,,,11,wg-a,,,,AAXX 27064 07790 02/62 02304 10080 20030 30264 40279 58008 60006 71100 80000 90600 333 10109 20071 60004=
07790,1998-02-27 09:00:00,15,1028.2,0.3,51,5,15000,11.112,,,240,,,,,,,,,,,wg-a,,,,AAXX 27094 07790 12/65 12406 10150 20050 30267 40282 50003 60006 80001 90900=
07790,1998-02-27 12:00:00,17,1026.6,-1.5,55,8,15000,14.816,,,140,,,,,,,,,,,wg-a,,,,AAXX 27124 07790 12665 /1408 10170 20080 30252 40266 58015 60006 81100 91200=
07790,1998-02-27 15:00:00,17,1024.9,-1.7,52,7,15000,14.816,,,160,,,,,,,,,,,wg-a,,,,AAXX 27154 07790 12665 /1608 10170 20070 30235 40249 56017 60006 81100 91500=
07790,1998-02-27 18:00:00,12,1024.7,-0.3,71,7,15000,3.704,,,260,7.2,18.3,,,,,,,,11,wg-a,,,,AAXX 27184 07790 12/65 02602 10120 20070 30232 40247 56003 60006 71100 80000 91800 333 10183 20072=
07790,1998-02-27 21:00:00,8,1024.3,-0.4,87,6,20000,7.408,,,240,,,,,,,,,,4,wg-a,,,,AAXX 27214 07790 12170 32404 10080 20060 30228 40243 57004 60006 70400 83600 92100=
07790,1998-02-28 00:00:00,8,1022.9,-1.4,81,5,20000,11.112,,,230,,,,,,,,,,,wg-a,,,,AAXX 28004 07790 12/70 02306 10080 20050 30214 40229 56014 60006 80000 90000=
07790,1998-02-28 03:00:00,6,1021.1,-1.8,93,5,20000,11.112,,,230,,,,,,,,,,,wg-a,,,,AAXX 28034 07790 12/70 02306 10060 20050 30196 40211 57018 60006 80000 90300=
07790,1998-02-28 06:00:00,6,1019.8,-1.3,87,4,12000,14.816,,,230,5.9,11.4,,,,,,,,,wg-a,,,,AAXX 28064 07790 02462 22308 10060 20040 30183 40198 57013 60006 82500 90600 333 10114 20059 60004=
07790,1998-02-28 09:00:00,13,1019,-0.8,77,9,12000,3.704,,,280,,,,,,,,,,,wg-a,,,,AAXX 28094 07790 12462 32802 10130 20090 30175 40190 58008 60006 83500 90900=
07790,1998-02-28 12:00:00,15,1017.3,-1.6,72,10,12000,11.112,,,130,,,,,,,,,,,wg-a,,,,AAXX 28124 07790 12562 51306 10150 20100 30159 40173 58016 60006 85500 91200=
07790,1998-02-28 15:00:00,16,1015,-2.3,68,10,11000,11.112,,,130,,,,,,,,,,,wg-a,,,,AAXX 28154 07790 12/61 /1306 10160 20100 30136 40150 56023 60006 91500=
07790,1998-02-28 18:00:00,11,1014.9,-0.2,87,9,15000,0,,,0,6,16.2,,,,,,,,,wg-a,,,,AAXX 28184 07790 12/65 00000 10110 20090 30134 40149 55002 60006 80000 91800 333 10162 20060=
07790,1998-02-28 21:00:00,9,1015.2,0.3,87,7,12000,11.112,,,290,,,,,,,,,,,wg-a,,,,AAXX 28214 07790 12462 22906 10090 20070 30137 40152 50003 60006 82600 92100=
07790,1998-03-01 00:00:00,7,1014.5,-0.7,93,6,12000,11.112,,,220,,,,,,,,,,,wg-a,,,,AAXX 01004 07790 12562 /2206 10070 20060 30130 40145 58007 60006 81500 90000=
07790,1998-03-01 03:00:00,8,1013.7,-0.8,87,6,12000,11.112,,,240,,,,0,,,,,,,wg-a,,,,AAXX 01034 07790 12462 22406 10080 20060 30122 40137 58008 60007 82600 90300=
07790,1998-03-01 06:00:00,6,1013.6,-0.1,93,5,15000,11.112,,,220,6,11.3,,,,,,,,,wg-a,,,,AAXX 01064 07790 02565 22206 10060 20050 30121 40136 58001 60006 81541 90600 333 10113 20060 60004=
07790,1998-03-01 09:00:00,15,1014.9,1.4,72,10,15000,3.704,,,70,,,,,,,,,,,wg-a,,,,AAXX 01094 07790 12565 30702 10150 20100 30135 40149 51014 60006 83240 90900=
07790,1998-03-01 12:00:00,17,1015,0.1,59,9,15000,14.816,,,140,,,,,,,,,,,wg-a,,,,AAXX 01124 07790 12565 31408 10170 20090 30136 40150 50001 60006 83541 91200=
07790,1998-03-01 15:00:00,16,1015.1,0.1,55,7,15000,11.112,,,140,,,,,,,,,,,wg-a,,,,AAXX 01154 07790 12565 51406 10160 20070 30137 40151 53001 60006 84541 91500=
07790,1998-03-01 18:00:00,12,1016.7,1.5,71,7,15000,3.704,,,120,6.4,16.8,,,,,,,,,wg-a,,,,AAXX 01184 07790 12565 21202 10120 20070 30152 40167 53015 60006 81501 91800 333 10168 20064=
07790,1998-03-01 21:00:00,9,1017.7,1,81,6,15000,11.112,,,240,,,,,,,,,,,wg-a,,,,AAXX 01214 07790 12/65 02406 10090 20060 30162 40177 51010 60006 80000 92100=
07790,1998-03-02 00:00:00,9,1018.3,0.6,76,5,15000,14.816,,,220,,,,,,,,,,,wg-a,,,,AAXX 02004 07790 12/65 02208 10090 20050 30168 40183 51006 60006 80000 90000=
07790,1998-03-02 03:00:00,6,1018.7,0.4,87,4,11000,11.112,,,240,,,,,,,,,,,wg-a,,,,AAXX 02034 07790 12/61 /2406 10060 20040 30172 40187 51004 60006 90300=
07790,1998-03-02 06:00:00,6,1020.4,1.7,87,4,12000,11.112,,,230,6,11.6,,,,,,,,,wg-a,,,,AAXX 02064 07790 02562 22306 10060 20040 30189 40204 53017 60006 82500 90600 333 10116 20060 60004=
07790,1998-03-02 09:00:00,12,1022.3,1.9,76,8,11000,3.704,,,200,,,,,,,,,,,wg-a,,,,AAXX 02094 07790 12/61 /2002 10120 20080 30208 40223 51019 60006 90900=
07790,1998-03-02 15:00:00,16,1022.1,-0.2,55,7,15000,11.112,,,120,,,,,,,,,,,wg-a,,,,AAXX 02154 07790 12665 51206 10160 20070 30207 40221 55002 60006 85500 91500=
07790,1998-03-02 18:00:00,11,1023,0.8,82,8,15000,3.704,,,290,6.1,16.6,,,,,,,,,wg-a,,,,AAXX 02184 07790 12665 32902 10110 20080 30215 40230 53008 60006 82501 91800 333 10166 20061=
07790,1998-03-02 21:00:00,8,1024.5,1.5,87,6,15000,3.704,,,280,,,,,,,,,,,wg-a,,,,AAXX 02214 07790 12565 22802 10080 20060 30230 40245 53015 60006 82500 92100=
07790,1998-03-03 00:00:00,8,1025.2,0.7,87,6,15000,7.408,,,230,,,,,,,,,,,wg-a,,,,AAXX 03004 07790 12565 22304 10080 20060 30237 40252 52007 60006 82500 90000=
07790,1998-03-03 03:00:00,8,1025,-0.2,87,6,15000,14.816,,,240,,,,0,,,,,,,wg-a,,,,AAXX 03034 07790 12665 /2408 10080 20060 30235 40250 57002 60007 81500 90300=
07790,1998-03-03 06:00:00,8,1026.1,1.1,81,5,15000,18.52,,,250,7.4,11,,,,,,,,,wg-a,,,,AAXX 03064 07790 02565 22510 10080 20050 30246 40261 53011 60006 82500 90600 333 10110 20074 60004=
07790,1998-03-03 09:00:00,15,1027.6,1.5,63,8,20000,7.408,,,230,,,,,,,,,,,wg-a,,,,AAXX 03094 07790 12570 22304 10150 20080 30261 40276 52015 60006 82201 90900=
07790,1998-03-03 12:00:00,16,1027.4,-0.1,68,10,20000,18.52,,,110,,,,,,,,,,,wg-a,,,,AAXX 03124 07790 12470 31110 10160 20100 30260 40274 58001 60006 83201 91200=
07790,1998-03-03 15:00:00,14,1027.5,-0,77,10,15000,11.112,,,150,,,,,,,,,,,wg-a,,,,AAXX 03154 07790 12565 71506 10140 20100 30260 40275 55000 60006 878// 91500=
07790,1998-03-03 18:00:00,13,1028.1,0.6,82,10,20000,3.704,,,100,8.3,16.4,,,,,,,,,wg-a,,,,AAXX 03184 07790 12570 81002 10130 20100 30266 40281 53006 60006 878// 91800 333 10164 20083=
07790,1998-03-03 21:00:00,10,1028.1,0,87,8,20000,3.704,,,260,,,,,,,,,,,wg-a,,,,AAXX 03214 07790 12770 42602 10100 20080 30266 40281 50000 60006 84800 92100=
07790,1998-03-04 00:00:00,8,1028.5,0.4,93,7,20000,7.408,,,240,,,,,,,,,,,wg-a,,,,AAXX 04004 07790 12770 42404 10080 20070 30270 40285 53004 60006 84800 90000=
07790,1998-03-04 03:00:00,8,1027.3,-1.2,87,6,20000,11.112,,,240,,,,,,,,,,,wg-a,,,,AAXX 04034 07790 12770 /2406 10080 20060 30258 40273 58012 60006 81500 90300=
07790,1998-03-04 06:00:00,9,1027.3,0,81,6,10000,11.112,,,230,7.7,13.3,,,,,,,,,wg-a,,,,AAXX 04064 07790 02560 72306 10090 20060 30258 40273 50000 60006 84502 90600 333 10133 20077 60004=
07790,1998-03-04 09:00:00,14,1027.9,0.6,72,9,12000,7.408,,,240,,,,,,,,,,,wg-a,,,,AAXX 04094 07790 12562 72404 10140 20090 30264 40279 50006 60006 82532 90900=
07790,1998-03-04 12:00:00,16,1026.9,-0.9,63,9,15000,11.112,,,110,,,,,,,,,,,wg-a,,,,AAXX 04124 07790 12565 71106 10160 20090 30255 40269 58009 60006 83532 91200=
07790,1998-03-04 15:00:00,15,1025.5,-1.5,72,10,12000,7.408,,,130,,,,,,,,,,,wg-a,,,,AAXX 04154 07790 12562 71304 10150 20100 30240 40255 56015 60006 86572 91500=
07790,1998-03-04 18:00:00,13,1025.3,-0.2,82,10,9000,0,,,0,8.3,16.5,,,,,,,,11,wg-a,,,,AAXX 04184 07790 12459 80000 10130 20100 30238 40253 55002 60006 71122 875// 91800 333 10165 20083=
07790,1998-03-04 21:00:00,10,1024.7,-0.6,93,9,10000,3.704,,,250,,,,,,,,,,,wg-a,,,,AAXX 04214 07790 12560 /2502 10100 20090 30232 40247 56006 60006 85500 92100=
07790,1998-03-05 00:00:00,9,1023.3,-1.4,93,8,10000,7.408,,,220,,,,,,,,,,,wg-a,,,,AAXX 05004 07790 12560 42204 10090 20080 30218 40233 58014 60006 82501 90000=
07790,1998-03-05 03:00:00,8,1021.4,-1.9,93,7,10000,7.408,,,250,,,,,,,,,,,wg-a,,,,AAXX 05034 07790 12560 /2504 10080 20070 30199 40214 58019 60006 81501 90300=
07790,1998-03-05 06:00:00,7,1020.1,-1.3,93,6,9000,7.408,,,220,6.7,13.4,,,,,,,,11,wg-a,,,,AAXX 05064 07790 02559 42204 10070 20060 30186 40201 56013 60006 71100 81202 90600 333 10134 20067 60004=
07790,1998-03-05 09:00:00,14,1019.7,-0.3,82,11,9000,3.704,,,100,,,,,,,,,,11,wg-a,,,,AAXX 05094 07790 12/59 71002 10140 20110 30183 40197 58003 60006 71111 80004 90900=
07790,1998-03-05 12:00:00,18,1018.3,-1.4,64,11,10000,7.408,,,80,,,,,,,,,,,wg-a,,,,AAXX 05124 07790 12/60 60804 10180 20110 30169 40183 56014 60006 82032 91200=
07790,1998-03-05 15:00:00,16,1017.6,-0.7,72,11,10000,7.408,,,20,,,,,,,,,,,wg-a,,,,AAXX 05154 07790 12/60 60204 10160 20110 30162 40176 55007 60006 82032 91500=
07790,1998-03-05 18:00:00,14,1019.3,1.7,72,9,10000,7.408,,,100,7.2,18.5,,,,,,,,,wg-a,,,,AAXX 05184 07790 12560 /1004 10140 20090 30179 40193 53017 60006 81801 91800 333 10185 20072=
07790,1998-03-05 21:00:00,15,1022.5,3.1,36,0,10000,22.224,,,350,,,,,,,,,,,wg-a,,,,AAXX 05214 07790 12560 /3512 10150 20000 30210 40225 51031 60006 81501 92100=
07790,1998-03-06 00:00:00,11,1024.7,2.2,58,3,18000,7.408,,,270,,,,,,,,,,,wg-a,,,,AAXX 06004 07790 12/68 02704 10110 20030 30232 40247 53022 60006 80000 90000=
07790,1998-03-06 03:00:00,8,1025.3,0.6,57,0,18000,11.112,,,230,,,,,,,,,,,wg-a,,,,AAXX 06034 07790 12/68 02306 10080 20000 30238 40253 51006 60006 80000 90300=
07790,1998-03-06 06:00:00,7,1026.1,0.8,57,-1,25000,14.816,,,230,7,16.6,,,,,,,,,wg-a,,,,AAXX 06064 07790 02/75 42308 10070 21010 30246 40261 53008 60006 82041 90600 333 10166 20070 60004=
07790,1998-03-06 09:00:00,16,1027.8,1.8,48,5,500,0,,,0,,,,,,,,,,,wg-a,,,,AAXX 06094 07790 12/00 10000 10160 20050 30264 40278 51018 60006 80001 90900=
07790,1998-03-06 12:00:00,17,1027,-0.8,45,5,500,18.52,,,140,,,,,,,,,,,wg-a,,,,AAXX 06124 07790 12500 21410 10170 20050 30256 40270 58008 60006 81101 91200=
07790,1998-03-06 15:00:00,16,1025.8,-1.2,55,7,500,14.816,,,140,,,,,,,,,,,wg-a,,,,AAXX 06154 07790 12/00 71408 10160 20070 30244 40258 58012 60006 80006 91500=
07790,1998-03-06 18:00:00,12,1025.7,-0.2,88,10,500,3.704,,,320,7.3,17.4,,,,,,,,,wg-a,,,,AAXX 06184 07790 12500 43202 10120 20100 30242 40257 55002 60006 81401 91800 333 10174 20073=
07790,1998-03-06 21:00:00,9,1025.5,-0.2,93,8,500,11.112,,,230,,,,,,,,,,,wg-a,,,,AAXX 06214 07790 12/00 32306 10090 20080 30240 40255 58002 60006 80001 92100=
07790,1998-03-07 00:00:00,8,1025.3,-0.2,87,6,500,7.408,,,240,,,,,,,,,,,wg-a,,,,AAXX 07004 07790 12/00 32404 10080 20060 30238 40253 56002 60006 80001 90000=
07790,1998-03-07 03:00:00,7,1023.9,-1.4,87,5,500,11.112,,,240,,,,,,,,,,,wg-a,,,,AAXX 07034 07790 12400 /2406 10070 20050 30224 40239 58014 60006 81600 90300=
07790,1998-03-07 06:00:00,6,1023.2,-0.7,87,4,18000,11.112,,,240,6.4,12.3,,,,,,,,11,wg-a,,,,AAXX 07064 07790 02468 22406 10060 20040 30217 40232 56007 60006 71100 81601 90600 333 10123 20064 60004=
07790,1998-03-07 12:00:00,17,1020.9,-1.7,63,10,18000,14.816,,,120,,,,,,,,,,,wg-a,,,,AAXX 07124 07790 12568 21208 10170 20100 30195 40209 58017 60006 81532 91200=
07790,1998-03-07 15:00:00,16,1018.8,-2.1,68,10,35000,7.408,,,120,,,,,,,,,,,wg-a,,,,AAXX 07154 07790 12581 21204 10160 20100 30174 40188 56021 60006 81532 91500=
07790,1998-03-07 18:00:00,13,1017.8,-1,88,11,9000,3.704,,,190,6.2,17.8,,,,,,,,,wg-a,,,,AAXX 07184 07790 12559 31902 10130 20110 30164 40178 56010 60006 81532 91800 333 10178 20062=
07790,1998-03-07 21:00:00,12,1016.3,-1.6,88,10,18000,7.408,,,220,,,,,,,,,,,wg-a,,,,AAXX 07214 07790 12568 22204 10120 20100 30148 40163 56016 60006 81502 92100=
07790,1998-03-08 00:00:00,11,1014.9,-1.4,87,9,20000,7.408,,,240,,,,,,,,,,,wg-a,,,,AAXX 08004 07790 12570 /2404 10110 20090 30134 40149 56014 60006 81502 90000=
07790,1998-03-08 03:00:00,11,1012.8,-2.1,87,9,25000,7.408,,,220,,,,,,,,,,,wg-a,,,,AAXX 08034 07790 12575 32204 10110 20090 30113 40128 56021 60006 81502 90300=
07790,1998-03-08 06:00:00,9,1012,-0.8,81,6,25000,7.408,,,290,8.7,13.1,,,,,,,,,wg-a,,,,AAXX 08064 07790 02475 42904 10090 20060 30105 40120 56008 60006 81142 90600 333 10131 20087 60004=
07790,1998-03-08 09:00:00,17,1011.7,-0.2,63,10,11000,14.816,,,160,,,,,,,,,,,wg-a,,,,AAXX 08094 07790 12/61 /1608 10170 20100 30103 40117 58002 60006 90900=
07790,1998-03-08 12:00:00,18,1010.6,-1.1,56,9,20000,18.52,,,140,,,,,,,,,,,wg-a,,,,AAXX 08124 07790 12570 41410 10180 20090 30092 40106 58011 60006 81142 91200=
07790,1998-03-08 15:00:00,16,1007.1,-3.5,68,10,20000,14.816,,,120,,,,,,,,,,,wg-a,,,,AAXX 08154 07790 12570 71208 10160 20100 30057 40071 58035 60006 8184/ 91500=
07790,1998-03-08 18:00:00,18,1005.3,-1.8,45,6,20000,25.928,,61.116,270,8.7,19.7,,,,,,,,,wg-a,,,,AAXX 08184 07790 12570 42714 10180 20060 30039 40053 55018 60006 81502 91800 333 10197 20087 91033=
07790,1998-03-08 21:00:00,18,1002.9,-2.4,45,6,20000,46.3,,62.968,300,,,,,,,,,,,wg-a,,,,AAXX 08214 07790 12570 43025 10180 20060 30015 40029 58024 60006 81541 92100 333 91034=
07790,1998-03-09 03:00:00,15,1000.3,1.8,48,4,20000,14.816,,37.04,310,,,,,,,,,,,wg-a,,,,AAXX 09034 07790 12570 33108 10150 20040 39989 40003 53018 60006 81541 90300 333 91020=
07790,1998-03-09 06:00:00,13,1001.6,1.3,62,6,20000,18.52,,103.712,340,13,18.5,,,,,,,,,wg-a,,,,AAXX 09064 07790 02570 53410 10130 20060 30002 40016 51013 60006 82541 90600 333 10185 20130 60004 91056=
07790,1998-03-09 09:00:00,15,1004,2.4,59,7,11000,3.704,,,150,,,,,,,,,,,wg-a,,,,AAXX 09094 07790 12/61 /1502 10150 20070 30026 40040 51024 60006 90900=
07790,1998-03-09 12:00:00,18,1005.1,1.1,45,6,20000,18.52,,,30,,,,,,,,,,,wg-a,,,,AAXX 09124 07790 12670 50310 10180 20060 30037 40051 51011 60006 84830 91200=
07790,1998-03-09 18:00:00,14,1007.5,2.1,72,9,20000,14.816,,,50,13.1,17.9,,,,,,,,,wg-a,,,,AAXX 09184 07790 12670 /0508 10140 20090 30061 40075 53021 60006 81231 91800 333 10179 20131=
07790,1998-03-09 21:00:00,11,1009.1,1.6,76,7,15000,7.408,,,300,,,,,,,,,,,wg-a,,,,AAXX 09214 07790 12565 /3004 10110 20070 30077 40091 53016 60006 81531 92100=
07790,1998-03-10 00:00:00,8,1013.8,4.6,93,7,0,7.408,,,310,,,,,,,,,,,wg-a,,,,AAXX 10004 07790 12/// /3104 10080 20070 30123 40138 51046 60096 90000=
07790,1998-03-10 03:00:00,9,1019.5,5.7,46,-2,20000,35.188,,,30,,,,3,,,,,,21,wg-a,,,,AAXX 10034 07790 12570 80319 10090 21020 30180 40195 51057 60037 72198 8193/ 90300=
07790,1998-03-10 06:00:00,8,1022.5,3,36,-6,20000,42.596,,59.264,40,7.5,13.5,,,,,12,,,2,wg-a,,,,AAXX 10064 07790 02570 20423 10080 21060 30210 40225 52030 60006 70298 82500 90600 333 10135 20075 60124 91032=
07790,1998-03-10 09:00:00,8,1025.4,2.9,36,-6,60000,35.188,,75.932,40,,,,,,,,,,,wg-a,,,,AAXX 10094 07790 12586 /0419 10080 21060 30239 40254 51029 60006 81200 90900 333 91041=
07790,1998-03-10 12:00:00,10,1026.3,0.9,32,-6,60000,25.928,,75.932,20,,,,,,,,,,,wg-a,,,,AAXX 10124 07790 12586 /0214 10100 21060 30248 40263 50009 60006 81200 91200 333 91041=
07790,1998-03-10 15:00:00,10,1024.9,-1.4,32,-6,60000,18.52,,,360,,,,,,,,,,,wg-a,,,,AAXX 10154 07790 12586 /3610 10100 21060 30234 40249 56014 60006 81100 91500=
07790,1998-03-10 18:00:00,8,1025.9,1,31,-8,40000,18.52,,,290,7.5,10.7,,,,,,,,,wg-a,,,,AAXX 10184 07790 12/82 02910 10080 21080 30244 40259 53010 60006 80000 91800 333 10107 20075=
07790,1998-03-10 21:00:00,5,1025.4,-0.5,35,-9,25000,14.816,,,240,,,,,,,,,,,wg-a,,,,AAXX 10214 07790 12/75 02408 10050 21090 30239 40254 56005 60006 80000 92100=
07790,1998-03-11 00:00:00,4,1023.7,-1.7,32,-11,25000,14.816,,,250,,,,,,,,,,,wg-a,,,,AAXX 11004 07790 12/75 02508 10040 21110 30222 40237 56017 60006 80000 90000=
07790,1998-03-11 03:00:00,4,1021.6,-2.1,38,-9,25000,22.224,,,240,,,,,,,,,,,wg-a,,,,AAXX 11034 07790 12/75 32412 10040 21090 30201 40216 58021 60006 80001 90300=
07790,1998-03-11 06:00:00,4,1020,-1.6,41,-8,500,18.52,,,230,2.9,7.9,,,,,,,,,wg-a,,,,AAXX 11064 07790 02600 /2310 10040 21080 30185 40200 58016 60006 81101 90600 333 10079 20029 60004=
07790,1998-03-11 09:00:00,8,1018.1,-1.9,39,-5,500,7.408,,,230,,,,,,,,,,,wg-a,,,,AAXX 11094 07790 12700 72304 10080 21050 30166 40181 56019 60006 84572 90900=
07790,1998-03-11 12:00:00,12,1016.2,-1.9,32,-4,500,3.704,,,250,,,,,,,,,,,wg-a,,,,AAXX 11124 07790 12500 72502 10120 21040 30147 40162 56019 60006 8557/ 91200=
07790,1998-03-11 15:00:00,12,1012.3,-3.8,47,1,25000,14.816,,,140,,,,,,,,,,,wg-a,,,,AAXX 11154 07790 12575 71408 10120 20010 30109 40123 56038 60006 8481/ 91500=
07790,1998-03-11 18:00:00,10,1010.7,-1.7,66,4,15000,0,,,0,3.6,12.2,,,,,,,,,wg-a,,,,AAXX 11184 07790 12565 70000 10100 20040 30092 40107 56017 60006 8587/ 91800 333 10122 20036=
07790,1998-03-11 21:00:00,9,1009.7,-1,76,5,15000,7.408,,,220,,,,,,,,,,,wg-a,,,,AAXX 11214 07790 12665 82204 10090 20050 30082 40097 56010 60006 8357/ 92100=
07790,1998-03-12 00:00:00,8,1008.9,-0.8,76,4,15000,14.816,,,240,,,,,,,,,,,wg-a,,,,AAXX 12004 07790 12665 82408 10080 20040 30074 40089 56008 60006 8357/ 90000=
07790,1998-03-12 03:00:00,8,1007.6,-1.3,76,4,15000,7.408,,,240,,,,,,,,,,,wg-a,,,,AAXX 12034 07790 12665 72404 10080 20040 30061 40076 58013 60006 8357/ 90300=
07790,1998-03-12 06:00:00,8,1008.1,0.5,81,5,15000,7.408,,,280,6.9,9.9,,,,,,,,,wg-a,,,,AAXX 12064 07790 02565 72804 10080 20050 30066 40081 53005 60006 8587/ 90600 333 10099 20069 60004=
07790,1998-03-12 09:00:00,9,1010,1.9,93,8,500,31.484,,,60,,,,14,,,,,,61,wg-a,,,,AAXX 12094 07790 12300 80617 10090 20080 30085 40100 53019 60147 76186 878// 90900=
07790,1998-03-12 12:00:00,9,1011.4,1.4,81,6,15000,29.632,,,30,,,,3,,,,,,60,wg-a,,,,AAXX 12124 07790 02465 80316 10090 20060 30099 40114 50014 60176 76086 8687/ 91200 333 60037=
07790,1998-03-12 15:00:00,8,1011.9,0.5,87,6,8000,22.224,,,10,,,,0,,,,,,60,wg-a,,,,AAXX 12154 07790 12258 80112 10080 20060 30104 40119 53005 60007 76062 872// 91500=
07790,1998-03-12 18:00:00,8,1013.6,1.7,87,6,9000,14.816,,,340,7.4,9.8,,,,,,,,60,wg-a,,,,AAXX 12184 07790 02259 83408 10080 20060 30121 40136 53017 61000 76062 872// 91800 333 10098 20074 6001=
07790,1998-03-12 21:00:00,8,1014.6,1,93,7,4500,18.52,,,10,,,,,,,,,,60,wg-a,,,,AAXX 12214 07790 02445 80110 10080 20070 30131 40146 51010 61000 76066 872// 92100 333 ////=
07790,1998-03-13 00:00:00,8,1015.3,0.7,87,6,4500,22.224,,,50,,,,,,,,,,,wg-a,,,,AAXX 13004 07790 12/45 /0512 10080 20060 30138 40153 53007 60056 90000=
07790,1998-03-13 03:00:00,8,1015.7,0.4,93,7,3000,25.928,,,30,,,,11,,,,,,61,wg-a,,,,AAXX 13034 07790 12430 80314 10080 20070 30142 40157 50004 60117 76166 875// 90300=
07790,1998-03-13 06:00:00,9,1017.1,1.4,87,7,500,25.928,,,40,7.5,8.8,,,,,,,,60,wg-a,,,,AAXX 13064 07790 02400 80414 10090 20070 30156 40171 53014 61000 76066 875// 90600 333 10088 20075 6041=
07790,1998-03-13 09:00:00,10,1018.7,1.6,76,6,15000,18.52,,,20,,,,0,,,,,,21,wg-a,,,,AAXX 13094 07790 12465 70210 10100 20060 30172 40187 51016 60007 72162 875// 90900=
07790,1998-03-13 12:00:00,11,1019.3,0.6,71,6,17000,18.52,,,10,,,,,,,,,,1,wg-a,,,,AAXX 13124 07790 12567 70110 10110 20060 30178 40193 50006 60006 70162 878// 91200=
07790,1998-03-13 15:00:00,12,1018.9,-0.4,58,4,17000,11.112,,,60,,,,,,,,,,,wg-a,,,,AAXX 13154 07790 12567 70606 10120 20040 30174 40189 56004 60006 8487/ 91500=
07790,1998-03-13 18:00:00,11,1019.9,1,76,7,20000,7.408,,,240,8.5,12.6,,,,,,,,3,wg-a,,,,AAXX 13184 07790 02570 72404 10110 20070 30184 40199 53010 60006 70362 878// 91800 333 10126 20085 61000=
07790,1998-03-13 21:00:00,8,1020.9,1,81,5,20000,7.408,,,250,,,,,,,,,,,wg-a,,,,AAXX 13214 07790 12770 42504 10080 20050 30194 40209 51010 60006 81530 92100=
07790,1998-03-14 00:00:00,7,1021.8,0.9,81,4,20000,11.112,,,240,,,,,,,,,,,wg-a,,,,AAXX 14004 07790 12/70 02406 10070 20040 30203 40218 52009 60006 80000 90000=
07790,1998-03-14 03:00:00,7,1021.2,-0.6,81,4,20000,14.816,,,240,,,,,,,,,,,wg-a,,,,AAXX 14034 07790 12/70 02408 10070 20040 30197 40212 58006 60006 80000 90300=
07790,1998-03-14 06:00:00,6,1022,0.8,81,3,20000,18.52,,,240,6.1,10.7,,,,,,,,,wg-a,,,,AAXX 14064 07790 02570 /2410 10060 20030 30205 40220 51008 60006 81101 90600 333 10107 20061 60004=
07790,1998-03-14 09:00:00,14,1022.1,0.1,58,6,25000,3.704,,,200,,,,,,,,,,,wg-a,,,,AAXX 14094 07790 12575 /2002 10140 20060 30206 40221 50001 60006 81101 90900=
07790,1998-03-14 12:00:00,14,1021.3,-0.7,58,6,500,11.112,,,40,,,,,,,,,,,wg-a,,,,AAXX 14124 07790 12500 /0406 10140 20060 30199 40213 58007 60006 81200 91200=
07790,1998-03-14 15:00:00,14,1019.1,-2.2,55,5,500,7.408,,,50,,,,,,,,,,,wg-a,,,,AAXX 14154 07790 12500 /0504 10140 20050 30177 40191 57022 60006 81100 91500=
07790,1998-03-14 18:00:00,10,1019.2,-0,82,7,500,3.704,,,260,6.1,14.5,,,,,,,,,wg-a,,,,AAXX 14184 07790 12/00 02602 10100 20070 30177 40192 55000 60006 80000 91800 333 10145 20061=
07790,1998-03-14 21:00:00,8,1019,-0.2,81,5,20000,7.408,,,240,,,,,,,,,,,wg-a,,,,AAXX 14214 07790 12/70 02404 10080 20050 30175 40190 58002 60006 80000 92100=
07790,1998-03-15 00:00:00,8,1018.3,-0.7,71,3,20000,22.224,,,230,,,,0,,,,,,,wg-a,,,,AAXX 15004 07790 02/70 02312 10080 20030 30168 40183 58007 60006 80000 90000 333 60007=
07790,1998-03-15 03:00:00,7,1017.2,-1.1,70,2,20000,14.816,,,240,,,,,,,,,,,wg-a,,,,AAXX 15034 07790 12/70 02408 10070 20020 30157 40172 58011 60006 80000 90300=
07790,1998-03-15 06:00:00,7,1016.5,-0.7,57,-1,20000,11.112,,,210,5.9,10.4,,,,,,,,,wg-a,,,,AAXX 15064 07790 02/70 02106 10070 21010 30150 40165 57007 60006 80000 90600 333 10104 20059 60004=
07790,1998-03-15 09:00:00,14,1017.9,1.5,63,7,25000,7.408,,,10,,,,,,,,,,,wg-a,,,,AAXX 15094 07790 12/75 00104 10140 20070 30165 40179 53015 60006 80000 90900=
07790,1998-03-15 12:00:00,15,1018,0.1,59,7,500,7.408,,,50,,,,,,,,,,,wg-a,,,,AAXX 15124 07790 12500 /0504 10150 20070 30166 40180 50001 60006 81100 91200=
07790,1998-03-15 15:00:00,15,1017.4,-0.6,63,8,15000,7.408,,,20,,,,,,,,,,,wg-a,,,,AAXX 15154 07790 12/65 70204 10150 20080 30160 40174 56006 60006 80004 91500=
07790,1998-03-15 18:00:00,13,1017.1,-0.3,77,9,9000,3.704,,,280,7,16.4,,,,,,,,,wg-a,,,,AAXX 15184 07790 12/59 82802 10130 20090 30157 40171 57003 60006 80004 91800 333 10164 20070=
07790,1998-03-15 21:00:00,11,1017.1,-0.1,54,2,15000,11.112,,,250,,,,,,,,,,,wg-a,,,,AAXX 15214 07790 12/65 22506 10110 20020 30156 40171 55001 60006 82030 92100=
07790,1998-03-16 00:00:00,10,1018.1,,62,3,10000,14.816,,,240,,,,,,,,,,,wg-a,,,,AAXX 16004 07790 12/60 /2408 10100 20030 30166 40181 60006 90000=
07790,1998-03-16 06:00:00,7,1018.5,0.7,70,2,20000,14.816,,,240,6.8,14.4,,,,,,,,,wg-a,,,,AAXX 16064 07790 02/70 02408 10070 20020 30170 40185 51007 60006 80000 90600 333 10144 20068 60004=
07790,1998-03-16 09:00:00,17,1019.6,1.2,36,2,500,3.704,,,210,,,,,,,,,,,wg-a,,,,AAXX 16094 07790 12/00 02102 10170 20020 30182 40196 51012 60006 80000 90900=
07790,1998-03-16 12:00:00,17,1019.3,-0.3,52,7,500,11.112,,,110,,,,,,,,,,,wg-a,,,,AAXX 16124 07790 12/00 01106 10170 20070 30179 40193 56003 60006 80000 91200=
07790,1998-03-16 15:00:00,17,1019.1,-0.2,55,8,500,7.408,,,130,,,,,,,,,,,wg-a,,,,AAXX 16154 07790 12/00 01304 10170 20080 30177 40191 55002 60006 80000 91500=
07790,1998-03-16 18:00:00,13,1019.2,-0,67,7,15000,3.704,,,300,7.4,17.7,,,,,,,,,wg-a,,,,AAXX 16184 07790 12/65 03002 10130 20070 30177 40192 55000 60006 80000 91800 333 10177 20074=
07790,1998-03-16 21:00:00,10,1020.7,1.5,66,4,20000,7.408,,,230,,,,,,,,,,,wg-a,,,,AAXX 16214 07790 12/70 02304 10100 20040 30192 40207 51015 60006 80000 92100=
07790,1998-03-17 00:00:00,10,1021.5,0.8,57,2,15000,7.408,,,240,,,,,,,,,,,wg-a,,,,AAXX 17004 07790 12/65 12404 10100 20020 30200 40215 53008 60006 80001 90000=
07790,1998-03-17 03:00:00,10,1020.5,-1,53,1,15000,14.816,,,220,,,,,,,,,,,wg-a,,,,AAXX 17034 07790 12/65 12208 10100 20010 30190 40205 55010 60006 80001 90300=
07790,1998-03-17 06:00:00,7,1021.4,0.9,66,1,18000,7.408,,,240,6.9,12.9,,,,,,,,,wg-a,,,,AAXX 17064 07790 02/68 02404 10070 20010 30199 40214 51009 60006 80000 90600 333 10129 20069 60004=
07790,1998-03-17 09:00:00,15,1022.2,0.9,67,9,25000,11.112,,,360,,,,,,,,,,,wg-a,,,,AAXX 17094 07790 12/75 03606 10150 20090 30208 40222 51009 60006 80000 90900=
07790,1998-03-17 12:00:00,16,1021.3,-0.9,59,8,20000,3.704,,,100,,,,,,,,,,,wg-a,,,,AAXX 17124 07790 12470 /1002 10160 20080 30199 40213 58009 60006 81600 91200=
07790,1998-03-17 15:00:00,16,1020.2,-1.1,72,11,12000,11.112,,,100,,,,,,,,,,,wg-a,,,,AAXX 17154 07790 12462 /1006 10160 20110 30188 40202 57011 60006 81100 91500=
07790,1998-03-17 18:00:00,13,1020.2,-0.1,88,11,12000,3.704,,,190,7.1,17.2,,,,,,,,,wg-a,,,,AAXX 17184 07790 12562 21902 10130 20110 30187 40202 58001 60006 82500 91800 333 10172 20071=
07790,1998-03-17 21:00:00,10,1020.5,0.3,93,9,17000,3.704,,,270,,,,,,,,,,,wg-a,,,,AAXX 17214 07790 12/67 02702 10100 20090 30190 40205 53003 60006 80000 92100=
07790,1998-03-18 00:00:00,8,1021.7,1.2,93,7,0,3.704,,,250,,,,,,,,,,,wg-a,,,,AAXX 18004 07790 12/// /2502 10080 20070 30202 40217 53012 60006 90000=
07790,1998-03-18 03:00:00,9,1022.9,1.2,93,8,12000,7.408,,,260,,,,,,,,,,,wg-a,,,,AAXX 18034 07790 12562 /2604 10090 20080 30214 40229 53012 60006 85500 90300=
07790,1998-03-18 06:00:00,9,1024.8,1.9,87,7,8000,7.408,,,240,7.7,13.2,,,,,,,,11,wg-a,,,,AAXX 18064 07790 02/58 02404 10090 20070 30233 40248 53019 60006 71111 80000 90600 333 10132 20077 60004=
07790,1998-03-18 09:00:00,16,1026.9,2.2,77,12,20000,3.704,,,40,,,,,,,,,,,wg-a,,,,AAXX 18094 07790 12/70 00402 10160 20120 30255 40269 52022 60006 80000 90900=
07790,1998-03-18 12:00:00,19,1027.6,0.7,43,6,500,14.816,,,120,,,,,,,,,,,wg-a,,,,AAXX 18124 07790 12/00 01208 10190 20060 30262 40276 50007 60006 80000 91200=
07790,1998-03-18 15:00:00,20,1027,-0.6,24,-1,500,14.816,,,150,,,,,,,,,,,wg-a,,,,AAXX 18154 07790 12/00 01508 10200 21010 30256 40270 57006 60006 80000 91500=
07790,1998-03-18 18:00:00,14,1028.1,1,63,7,500,0,,,0,8.5,19.6,,,,,,,,,wg-a,,,,AAXX 18184 07790 12/00 00000 10140 20070 30266 40281 53010 60006 80000 91800 333 10196 20085=
07790,1998-03-18 21:00:00,11,1028.9,0.8,62,4,20000,14.816,,,230,,,,,,,,,,,wg-a,,,,AAXX 18214 07790 12/70 02308 10110 20040 30274 40289 53008 60006 80000 92100=
07790,1998-03-19 00:00:00,10,1029.2,0.3,66,4,20000,18.52,,,240,,,,,,,,,,,wg-a,,,,AAXX 19004 07790 12/70 02410 10100 20040 30277 40292 50003 60006 80000 90000=
07790,1998-03-19 03:00:00,9,1028.5,-0.7,71,4,20000,14.816,,,240,,,,,,,,,,,wg-a,,,,AAXX 19034 07790 12/70 02408 10090 20040 30270 40285 57007 60006 80000 90300=
07790,1998-03-19 06:00:00,10,1027.9,-0.6,62,3,25000,14.816,,,230,8.3,13.6,,,,,,,,,wg-a,,,,AAXX 19064 07790 02/75 12308 10100 20030 30264 40279 58006 60006 81031 90600 333 10136 20083 60004=
07790,1998-03-19 09:00:00,16,1026.7,-1.1,68,10,12000,11.112,,,30,,,,,,,,,,,wg-a,,,,AAXX 19094 07790 12/62 70306 10160 20100 30253 40267 58011 60006 81034 90900=
07790,1998-03-19 12:00:00,16,1025.2,-1.5,68,10,18000,11.112,,,70,,,,,,,,,,,wg-a,,,,AAXX 19124 07790 12568 /0706 10160 20100 30238 40252 58015 60006 81101 91200=
07790,1998-03-19 15:00:00,16,1025,-0.2,68,10,11000,18.52,,,20,,,,,,,,,,,wg-a,,,,AAXX 19154 07790 12/61 /0210 10160 20100 30236 40250 55002 60006 91500=
07790,1998-03-19 18:00:00,13,1025.2,0.1,77,9,9000,0,,,0,10,16.8,,,,,,,,,wg-a,,,,AAXX 19184 07790 12/59 /0000 10130 20090 30237 40252 53001 60006 80000 91800 333 10168 20100=
07790,1998-03-19 21:00:00,11,1026.2,1,82,8,10000,7.408,,,230,,,,,,,,,,,wg-a,,,,AAXX 19214 07790 12460 /2304 10110 20080 30247 40262 50010 60006 83500 92100=
07790,1998-03-20 00:00:00,9,1027.1,0.9,87,7,10000,3.704,,,270,,,,,,,,,,,wg-a,,,,AAXX 20004 07790 12460 32702 10090 20070 30256 40271 51009 60006 83500 90000=
07790,1998-03-20 03:00:00,8,1026.4,-0.7,93,7,10000,7.408,,,250,,,,,,,,,,,wg-a,,,,AAXX 20034 07790 12560 32504 10080 20070 30249 40264 56007 60006 83300 90300=
07790,1998-03-20 06:00:00,8,1026.4,0,93,7,9000,11.112,,,240,7.8,12.6,,,,,,,,11,wg-a,,,,AAXX 20064 07790 02559 52406 10080 20070 30249 40264 50000 60006 71111 85501 90600 333 10126 20078 60004=
07790,1998-03-20 09:00:00,15,1025.9,-0.5,55,6,12000,11.112,,,150,,,,,,,,,,,wg-a,,,,AAXX 20094 07790 12562 11506 10150 20060 30244 40259 58005 60006 81100 90900=
07790,1998-03-20 12:00:00,16,1024.6,-1.2,55,7,15000,11.112,,,120,,,,,,,,,,,wg-a,,,,AAXX 20124 07790 12565 21206 10160 20070 30232 40246 58012 60006 82200 91200=
07790,1998-03-20 15:00:00,15,1022.2,-2.4,59,7,15000,14.816,,,160,,,,,,,,,,,wg-a,,,,AAXX 20154 07790 12565 /1608 10150 20070 30208 40222 56024 60006 81200 91500=
07790,1998-03-20 18:00:00,13,1021.7,-0.6,72,8,8000,3.704,,,150,7.8,16.2,,,,,,,,,wg-a,,,,AAXX 20184 07790 12558 /1502 10130 20080 30202 40217 55006 60006 81500 91800 333 10162 20078=
07790,1998-03-20 21:00:00,11,1021.4,-0.3,76,7,10000,3.704,,,210,,,,,,,,,,,wg-a,,,,AAXX 20214 07790 12560 22102 10110 20070 30199 40214 56003 60006 82500 92100=
07790,1998-03-21 00:00:00,11,1020.1,-1.3,76,7,12000,18.52,,,240,,,,,,,,,,,wg-a,,,,AAXX 21004 07790 12/62 02410 10110 20070 30186 40201 58013 60006 80000 90000=
07790,1998-03-21 03:00:00,9,1018.4,-1.7,81,6,15000,22.224,,,230,,,,,,,,,,,wg-a,,,,AAXX 21034 07790 12/65 02312 10090 20060 30169 40184 58017 60006 80000 90300=
07790,1998-03-21 06:00:00,8,1017.6,-0.8,81,5,20000,18.52,,,230,7.7,12.5,,,,,,,,,wg-a,,,,AAXX 21064 07790 02/70 /2310 10080 20050 30161 40176 58008 60006 80000 90600 333 10125 20077 60004=
07790,1998-03-21 09:00:00,16,1017,-0.5,48,5,20000,3.704,,,230,,,,,,,,,,,wg-a,,,,AAXX 21094 07790 12/70 02302 10160 20050 30156 40170 58005 60006 80000 90900=
07790,1998-03-21 12:00:00,17,1016.7,-0.3,52,7,20000,11.112,,,140,,,,,,,,,,,wg-a,,,,AAXX 21124 07790 12570 /1406 10170 20070 30153 40167 56003 60006 81100 91200=
07790,1998-03-21 18:00:00,13,1019.3,2.6,67,7,9000,25.928,,,110,8.1,17.6,,,,,,,,,wg-a,,,,AAXX 21184 07790 12459 61114 10130 20070 30178 40193 53026 60006 86800 91800 333 10176 20081=
07790,1998-03-21 21:00:00,10,1024.6,5.3,53,1,12000,18.52,,,130,,,,1,,,,,,1,wg-a,,,,AAXX 21214 07790 12562 81310 10100 20010 30231 40246 51053 60017 70162 878// 92100=
07790,1998-03-22 00:00:00,8,1026.9,2.3,46,-3,12000,18.52,,,130,,,,,,,,,,1,wg-a,,,,AAXX 22004 07790 12562 /1310 10080 21030 30254 40269 51023 60016 70161 81100 90000=
07790,1998-03-22 03:00:00,7,1026.4,-0.5,49,-3,12000,3.704,,,150,,,,,,,,,,,wg-a,,,,AAXX 22034 07790 12562 /1502 10070 21030 30249 40264 58005 60006 81100 90300=
07790,1998-03-22 06:00:00,7,1026.8,0.4,49,-3,11000,11.112,,,180,5.2,13,,,,,1,,,,wg-a,,,,AAXX 22064 07790 02/61 /1806 10070 21030 30253 40268 52004 60006 90600 333 10130 20052 60014=
07790,1998-03-22 12:00:00,10,1026.5,-0.8,37,-4,12000,18.52,,,160,,,,,,,,,,,wg-a,,,,AAXX 22124 07790 12662 /1610 10100 21040 30250 40265 58008 60006 86530 91200=
07790,1998-03-22 15:00:00,9,1025.5,-1,43,-3,18000,7.408,,,170,,,,,,,,,,,wg-a,,,,AAXX 22154 07790 12668 71704 10090 21030 30240 40255 56010 60006 875// 91500=
07790,1998-03-22 18:00:00,8,1026.1,0.6,53,-1,18000,3.704,,,230,7.4,10.4,,,,,,,,,wg-a,,,,AAXX 22184 07790 12668 72302 10080 21010 30246 40261 53006 60006 875// 91800 333 10104 20074=
07790,1998-03-22 21:00:00,7,1026.5,0.4,57,-1,18000,14.816,,,240,,,,,,,,,,,wg-a,,,,AAXX 22214 07790 12668 /2408 10070 21010 30250 40265 50004 60006 85500 92100=
07790,1998-03-23 00:00:00,6,1026.6,0.1,65,0,18000,11.112,,,270,,,,,,,,,,,wg-a,,,,AAXX 23004 07790 12668 /2706 10060 20000 30251 40266 51001 60006 85500 90000=
07790,1998-03-23 03:00:00,7,1026.1,-0.5,61,0,18000,11.112,,,220,,,,,,,,,,,wg-a,,,,AAXX 23034 07790 12668 /2206 10070 20000 30246 40261 58005 60006 86500 90300=
07790,1998-03-23 06:00:00,6,1025.8,-0.3,65,0,20000,7.408,,,210,5,7.7,,,,,,,,,wg-a,,,,AAXX 23064 07790 02670 /2104 10060 20000 30243 40258 55003 60006 86500 90600 333 10077 20050 60004=
07790,1998-03-23 09:00:00,13,1025.6,-0.2,44,1,500,14.816,,,150,,,,,,,,,,,wg-a,,,,AAXX 23094 07790 12500 41508 10130 20010 30241 40256 58002 60006 81281 90900=
07790,1998-03-23 12:00:00,11,1024.5,-1.1,71,6,25000,29.632,,,150,,,,,,,,,,,wg-a,,,,AAXX 23124 07790 12575 81516 10110 20060 30230 40245 58011 60006 8388/ 91200=
07790,1998-03-23 15:00:00,10,1022.5,-2,76,6,20000,3.704,,,210,,,,1,,,,,,21,wg-a,,,,AAXX 23154 07790 12570 72102 10100 20060 30210 40225 58020 60017 72162 8498/ 91500=
07790,1998-03-23 18:00:00,10,1021.3,-1.2,76,6,9000,3.704,,,210,5.9,13.3,,,,,,,,,wg-a,,,,AAXX 23184 07790 12/59 /2102 10100 20060 30198 40213 56012 60006 91800 333 10133 20059=
07790,1998-03-23 21:00:00,8,1020.5,-0.8,87,6,16000,3.704,,,320,,,,,,,,,,,wg-a,,,,AAXX 23214 07790 12566 73202 10080 20060 30190 40205 56008 60006 8587/ 92100=
07790,1998-03-24 00:00:00,9,1018.1,-2.4,81,6,16000,14.816,,,230,,,,0,,,,,,3,wg-a,,,,AAXX 24004 07790 02566 82308 10090 20060 30166 40181 58024 60006 70386 8587/ 90000 333 60007=
07790,1998-03-24 03:00:00,8,1016.2,-1.9,87,6,7000,25.928,,,320,,,,1,,,,,,61,wg-a,,,,AAXX 24034 07790 12457 83214 10080 20060 30147 40162 56019 60017 76162 868// 90300=
07790,1998-03-24 06:00:00,7,1014.1,-2.1,87,5,8000,25.928,,,350,6.8,10.1,,,,,,,,61,wg-a,,,,AAXX 24064 07790 02458 83514 10070 20050 30126 40141 56021 61000 76162 878// 90600 333 10101 20068 6004=
07790,1998-03-24 09:00:00,7,1013.9,-0.2,81,4,15000,29.632,,,340,,,,3,,,,,,60,wg-a,,,,AAXX 24094 07790 12465 83416 10070 20040 30124 40139 58002 60037 76062 878// 90900=
07790,1998-03-24 12:00:00,6,1013.5,-0.4,87,4,500,35.188,,57.412,360,,,,1,,,,,,61,wg-a,,,,AAXX 24124 07790 02400 83619 10060 20040 30120 40135 56004 60046 76186 878// 91200 333 60017 91031=
07790,1998-03-24 15:00:00,7,1014.2,0.7,81,4,3000,42.596,,62.968,20,,,,7,,,,,,61,wg-a,,,,AAXX 24154 07790 12430 80223 10070 20040 30127 40142 53007 60077 76166 888// 91500 333 91034=
07790,1998-03-24 18:00:00,8,1017,2.8,61,1,12000,61.116,,79.636,20,6,8.4,,0,,,,,,1,wg-a,,,,AAXX 24184 07790 02562 80233 10080 20010 30155 40170 53028 60006 70162 85871 91800 333 10084 20060 60007 91043=
07790,1998-03-24 21:00:00,9,1019.9,2.9,46,-2,15000,53.708,,70.376,20,,,,,,,,,,,wg-a,,,,AAXX 24214 07790 12565 80229 10090 21020 30184 40199 52029 60006 85871 92100 333 91038=
07790,1998-03-25 00:00:00,9,1021.5,1.6,43,-3,15000,38.892,,87.044,20,,,,,,,,,,,wg-a,,,,AAXX 25004 07790 12565 50221 10090 21030 30200 40215 51016 60006 84871 90000 333 91047=
07790,1998-03-25 03:00:00,8,1020.8,-0.7,39,-5,11000,35.188,,,40,,,,,,,,,,,wg-a,,,,AAXX 25034 07790 12/61 /0419 10080 21050 30193 40208 58007 60006 90300=
07790,1998-03-25 06:00:00,8,1022.5,1.7,49,-2,20000,31.484,,,20,7.2,9.2,,,,,11,,,,wg-a,,,,AAXX 25064 07790 02570 /0217 10080 21020 30210 40225 52017 60006 81500 90600 333 10092 20072 60114=
07790,1998-03-25 09:00:00,9,1023.4,0.9,40,-4,25000,31.484,,57.412,40,,,,,,,,,,,wg-a,,,,AAXX 25094 07790 12575 /0417 10090 21040 30219 40234 50009 60006 81100 90900 333 91031=
07790,1998-03-25 12:00:00,11,1023,-0.4,43,-1,25000,29.632,,57.412,30,,,,,,,,,,,wg-a,,,,AAXX 25124 07790 12575 30316 10110 21010 30215 40230 58004 60006 83300 91200 333 91031=
07790,1998-03-25 15:00:00,11,1022.8,-0.2,40,-2,20000,29.632,,50.004,20,,,,,,,,,,,wg-a,,,,AAXX 25154 07790 12570 30216 10110 21020 30213 40228 56002 60006 83200 91500 333 91027=
07790,1998-03-25 18:00:00,9,1023.9,1.1,31,-7,20000,31.484,,50.004,20,7.5,11,,,,,,,,,wg-a,,,,AAXX 25184 07790 12/70 /0217 10090 21070 30224 40239 53011 60006 80000 91800 333 10110 20075 91027=
07790,1998-03-25 21:00:00,8,1025.4,1.5,42,-4,18000,18.52,,57.412,40,,,,,,,,,,,wg-a,,,,AAXX 25214 07790 12/68 00410 10080 21040 30239 40254 51015 60006 80000 92100 333 91031=
07790,1998-03-26 00:00:00,6,1025,-0.4,52,-3,18000,18.52,,57.412,30,,,,,,,,,,,wg-a,,,,AAXX 26004 07790 12/68 00310 10060 21030 30235 40250 58004 60006 80000 90000 333 91031=
07790,1998-03-26 03:00:00,7,1023.7,-1.3,53,-2,18000,18.52,,,40,,,,,,,,,,,wg-a,,,,AAXX 26034 07790 12/68 00410 10070 21020 30222 40237 58013 60006 80000 90300=
07790,1998-03-26 06:00:00,4,1023.5,-0.2,70,-1,12000,7.408,,,230,3.4,8.8,,,,,,,,,wg-a,,,,AAXX 26064 07790 02562 42304 10040 21010 30220 40235 56002 60006 84500 90600 333 10088 20034 60004=
07790,1998-03-26 09:00:00,11,1023.1,-0.4,50,1,15000,7.408,,,60,,,,,,,,,,,wg-a,,,,AAXX 26094 07790 12665 /0604 10110 20010 30216 40231 58004 60006 81500 90900=
07790,1998-03-26 12:00:00,11,1021.3,-1.8,58,3,15000,18.52,,,40,,,,,,,,,,,wg-a,,,,AAXX 26124 07790 12/65 00410 10110 20030 30198 40213 56018 60006 80000 91200=
07790,1998-03-26 15:00:00,12,1019.8,-1.5,54,3,10000,22.224,,,30,,,,,,,,,,,wg-a,,,,AAXX 26154 07790 12/60 /0312 10120 20030 30183 40198 56015 60006 91500=
07790,1998-03-26 18:00:00,10,1019.8,-0,57,2,15000,14.816,,,360,3.6,13,,,,,,,,,wg-a,,,,AAXX 26184 07790 12/65 03608 10100 20020 30183 40198 55000 60006 80000 91800 333 10130 20036=
07790,1998-03-27 00:00:00,4,1021.3,0.3,75,0,20000,3.704,,,230,,,,,,,,,,,wg-a,,,,AAXX 27004 07790 12/70 02302 10040 20000 30198 40213 51003 60006 80000 90000=
07790,1998-03-27 03:00:00,5,1020.5,-0.8,70,0,20000,14.816,,,250,,,,,,,,,,,wg-a,,,,AAXX 27034 07790 12/70 02508 10050 20000 30190 40205 58008 60006 80000 90300=
07790,1998-03-27 06:00:00,5,1021,0.5,75,1,12000,3.704,,,210,3.4,9.7,,,,,,,,,wg-a,,,,AAXX 27064 07790 02562 52102 10050 20010 30195 40210 53005 60006 81534 90600 333 10097 20034 60004=
07790,1998-03-27 09:00:00,12,1022,1,54,3,15000,11.112,,,40,,,,,,,,,,,wg-a,,,,AAXX 27094 07790 12565 /0406 10120 20030 30205 40220 53010 60006 81104 90900=
07790,1998-03-27 12:00:00,13,1021.3,-0.7,47,2,15000,11.112,,,50,,,,,,,,,,,wg-a,,,,AAXX 27124 07790 12565 50506 10130 20020 30198 40213 58007 60006 81104 91200=
07790,1998-03-27 15:00:00,14,1020.4,-0.9,47,3,15000,11.112,,,30,,,,,,,,,,,wg-a,,,,AAXX 27154 07790 12/65 30306 10140 20030 30189 40204 56009 60006 80001 91500=
07790,1998-03-27 18:00:00,10,1020.3,-0.1,71,5,18000,7.408,,,260,4.8,13.8,,,,,,,,,wg-a,,,,AAXX 27184 07790 12/68 52604 10100 20050 30188 40203 57001 60006 80001 91800 333 10138 20048=
07790,1998-03-27 21:00:00,7,1021.7,1.4,76,3,18000,11.112,,,260,,,,,,,,,,,wg-a,,,,AAXX 27214 07790 12/68 32606 10070 20030 30202 40217 53014 60006 80001 92100=
07790,1998-03-28 00:00:00,6,1022,0.3,70,1,18000,7.408,,,260,,,,,,,,,,,wg-a,,,,AAXX 28004 07790 12/68 02604 10060 20010 30205 40220 51003 60006 80000 90000=
07790,1998-03-28 06:00:00,5,1022,0.7,70,0,18000,11.112,,,230,4.6,10,,,,,,,,,wg-a,,,,AAXX 28064 07790 02/68 32306 10050 20000 30205 40220 53007 60006 80002 90600 333 10100 20046 60004=
07790,1998-03-28 09:00:00,17,1022.2,0.3,32,0,18000,7.408,,,220,,,,,,,,,,,wg-a,,,,AAXX 28094 07790 12/68 12204 10170 20000 30208 40222 53003 60006 80002 90900=
07790,1998-03-28 12:00:00,16,1021.7,-0.5,45,4,18000,7.408,,,30,,,,,,,,,,,wg-a,,,,AAXX 28124 07790 12/68 20304 10160 20040 30203 40217 58005 60006 80001 91200=
07790,1998-03-28 18:00:00,13,1019.7,-0.2,62,6,18000,3.704,,,140,5.4,17.3,,,,,,,,,wg-a,,,,AAXX 28184 07790 12/68 51402 10130 20060 30182 40197 56002 60006 80002 91800 333 10173 20054=
07790,1998-03-28 21:00:00,9,1019.6,-0.1,76,5,20000,7.408,,,250,,,,,,,,,,,wg-a,,,,AAXX 28214 07790 12/70 42504 10090 20050 30181 40196 58001 60006 80002 92100=
07790,1998-03-29 00:00:00,9,1019.4,-0.2,81,6,20000,7.408,,,230,,,,,,,,,,,wg-a,,,,AAXX 29004 07790 12/70 62304 10090 20060 30179 40194 58002 60006 80002 90000=
07790,1998-03-29 03:00:00,8,1018.1,-1.3,81,5,20000,11.112,,,240,,,,,,,,,,,wg-a,,,,AAXX 29034 07790 12/70 32406 10080 20050 30166 40181 58013 60006 80002 90300=
07790,1998-03-29 06:00:00,7,1017.6,-0.5,87,5,12000,7.408,,,230,6.7,13.1,,,,,,,,11,wg-a,,,,AAXX 29064 07790 02/62 72304 10070 20050 30161 40176 55005 60006 71111 80004 90600 333 10131 20067 60004=
07790,1998-03-29 09:00:00,15,1017.6,0.1,59,7,25000,14.816,,,100,,,,,,,,,,,wg-a,,,,AAXX 29094 07790 12/75 41008 10150 20070 30162 40176 53001 60006 80001 90900=
07790,1998-03-29 12:00:00,17,1017,-0.6,42,4,25000,14.816,,,120,,,,,,,,,,,wg-a,,,,AAXX 29124 07790 12/75 21208 10170 20040 30156 40170 58006 60006 80001 91200=
07790,1998-03-29 15:00:00,16,1015.8,-1.2,63,9,20000,18.52,,,150,,,,,,,,,,,wg-a,,,,AAXX 29154 07790 12570 31510 10160 20090 30144 40158 58012 60006 81501 91500=
07790,1998-03-29 18:00:00,13,1015.6,-0.2,72,8,20000,11.112,,,160,7.3,17.2,,,,,,,,,wg-a,,,,AAXX 29184 07790 12570 /1606 10130 20080 30142 40156 55002 60006 81504 91800 333 10172 20073=
07790,1998-03-29 21:00:00,8,1016,0.3,87,6,20000,3.704,,,290,,,,,,,,,,,wg-a,,,,AAXX 29214 07790 12/70 52902 10080 20060 30145 40160 50003 60006 80001 92100=
07790,1998-03-30 00:00:00,7,1016.6,0.6,93,6,20000,3.704,,,340,,,,,,,,,,,wg-a,,,,AAXX 30004 07790 12/70 23402 10070 20060 30151 40166 53006 60006 80001 90000=
07790,1998-03-30 15:00:00,16,1017.1,-0.8,72,11,11000,25.928,,,150,,,,,,,,,,,wg-a,,,,AAXX 30154 07790 12561 31514 10160 20110 30157 40171 58008 60006 83501 91500=
07790,1998-03-30 18:00:00,14,1017.8,0.7,77,10,7000,11.112,,,150,5.2,16.5,,,,,,,,,wg-a,,,,AAXX 30184 07790 12557 21506 10140 20100 30164 40178 53007 60006 81501 91800 333 10165 20052=
07790,1998-03-30 21:00:00,11,1019.9,2,87,9,12000,3.704,,,260,,,,,,,,,,,wg-a,,,,AAXX 30214 07790 12462 42602 10110 20090 30184 40199 51020 60006 84500 92100=
07790,1998-03-31 00:00:00,8,1020,0.1,93,7,12000,3.704,,,220,,,,,,,,,,,wg-a,,,,AAXX 31004 07790 12462 /2202 10080 20070 30185 40200 52001 60006 81500 90000=
07790,1998-03-31 03:00:00,7,1019.6,-0.4,93,6,12000,7.408,,,250,,,,,,,,,,,wg-a,,,,AAXX 31034 07790 12/62 02504 10070 20060 30181 40196 55004 60006 80000 90300=
07790,1998-03-31 06:00:00,8,1019.7,0.1,87,6,20000,7.408,,,220,6.8,13.5,,,,,,,,,wg-a,,,,AAXX 31064 07790 02/70 /2204 10080 20060 30182 40197 51001 60006 80000 90600 333 10135 20068 60004=
07790,1998-03-31 09:00:00,16,1020.5,0.9,72,11,20000,11.112,,,120,,,,,,,,,,,wg-a,,,,AAXX 31094 07790 12570 /1206 10160 20110 30191 40205 52009 60006 81100 90900=
07790,1998-03-31 12:00:00,18,1019.7,-0.8,68,12,20000,11.112,,,130,,,,,,,,,,,wg-a,,,,AAXX 31124 07790 12570 /1306 10180 20120 30183 40197 58008 60006 81101 91200=
07790,1998-03-31 15:00:00,18,1018.6,-1.1,68,12,20000,11.112,,,130,,,,,,,,,,,wg-a,,,,AAXX 31154 07790 12570 21306 10180 20120 30172 40186 56011 60006 81501 91500=
07790,1998-03-31 18:00:00,14,1018.5,-0.1,88,12,12000,0,,,0,7.8,18.3,,,,,,,,,wg-a,,,,AAXX 31184 07790 12662 /0000 10140 20120 30171 40185 56001 60006 81500 91800 333 10183 20078=
07790,1998-03-31 21:00:00,12,1019.4,0.8,82,9,18000,11.112,,,210,,,,,,,,,,,wg-a,,,,AAXX 31214 07790 12/68 02106 10120 20090 30179 40194 51008 60006 80000 92100=
07790,1998-04-01 00:00:00,9,1019.6,0.2,81,6,18000,7.408,,,250,,,,,,,,,,,wg-a,,,,AAXX 01004 07790 12/68 02504 10090 20060 30181 40196 51002 60006 80000 90000=
07790,1998-04-01 03:00:00,9,1018.7,-0.9,81,6,12000,11.112,,,230,,,,,,,,,,,wg-a,,,,AAXX 01034 07790 12/62 02306 10090 20060 30172 40187 57009 60006 80000 90300=
07790,1998-04-01 06:00:00,9,1019,0.3,81,6,20000,11.112,,,210,7.9,14.3,,,,,,,,,wg-a,,,,AAXX 01064 07790 02/70 /2106 10090 20060 30175 40190 53003 60006 80001 90600 333 10143 20079 60004=
07790,1998-04-01 09:00:00,17,1018.7,-0.2,63,10,10000,3.704,,,120,,,,,,,,,,,wg-a,,,,AAXX 01094 07790 12/60 /1202 10170 20100 30173 40187 58002 60006 90900=
07790,1998-04-01 12:00:00,19,1017.6,-1.1,64,12,15000,22.224,,,160,,,,,,,,,,,wg-a,,,,AAXX 01124 07790 12565 41612 10190 20120 30162 40176 56011 60006 81201 91200=
07790,1998-04-01 15:00:00,16,1016.7,-0.9,77,12,10000,18.52,,,150,,,,,,,,,,,wg-a,,,,AAXX 01154 07790 12560 71510 10160 20120 30153 40167 56009 60006 81242 91500=
07790,1998-04-01 18:00:00,15,1017,0.3,82,12,11000,3.704,,,130,9.3,19,,,,,,,,,wg-a,,,,AAXX 01184 07790 12/61 /1302 10150 20120 30156 40170 53003 60006 91800 333 10190 20093=
07790,1998-04-01 21:00:00,12,1017.6,0.5,94,11,12000,7.408,,,280,,,,,,,,,,,wg-a,,,,AAXX 01214 07790 12662 72804 10120 20110 30161 40176 50005 60006 8457/ 92100=
07790,1998-04-02 00:00:00,11,1016.9,-0.7,87,9,12000,3.704,,,240,,,,,,,,,,,wg-a,,,,AAXX 02004 07790 12662 /2402 10110 20090 30154 40169 58007 60006 83570 90000=
07790,1998-04-02 03:00:00,11,1015.5,-1.4,87,9,12000,7.408,,,230,,,,,,,,,,,wg-a,,,,AAXX 02034 07790 12462 /2304 10110 20090 30140 40155 58014 60006 83870 90300=
07790,1998-04-02 06:00:00,11,1015.5,-0,87,9,12000,3.704,,,210,9.3,14.6,,,,,,,,,wg-a,,,,AAXX 02064 07790 02462 /2102 10110 20090 30140 40155 55000 60006 85870 90600 333 10146 20093 60004=
07790,1998-04-02 09:00:00,17,1015.5,0.1,68,11,15000,11.112,,,120,,,,,,,,,,,wg-a,,,,AAXX 02094 07790 12565 51206 10170 20110 30141 40155 50001 60006 82831 90900=
07790,1998-04-02 12:00:00,18,1015.1,-0.4,64,11,15000,11.112,,,120,,,,,,,,,,,wg-a,,,,AAXX 02124 07790 12565 51206 10180 20110 30137 40151 58004 60006 83201 91200=
07790,1998-04-02 15:00:00,17,1013.8,-1.3,72,12,15000,11.112,,,150,,,,,,,,,,,wg-a,,,,AAXX 02154 07790 12565 61506 10170 20120 30124 40138 56013 60006 82231 91500=
07790,1998-04-02 18:00:00,14,1013,-0.8,88,12,6000,3.704,,,150,10.7,18.4,,,,,,,,11,wg-a,,,,AAXX 02184 07790 12756 /1502 10140 20120 30116 40130 58008 60006 71122 82532 91800 333 10184 20107=
07790,1998-04-02 21:00:00,12,1013,0,94,11,10000,3.704,,,280,,,,,,,,,,,wg-a,,,,AAXX 02214 07790 12560 /2802 10120 20110 30116 40130 50000 60006 82532 92100=
07790,1998-04-03 00:00:00,11,1012.4,-0.7,94,10,10000,3.704,,,300,,,,0,,,,,,,wg-a,,,,AAXX 03004 07790 02560 23002 10110 20100 30109 40124 56007 60006 81530 90000 333 60007=
07790,1998-04-03 03:00:00,9,1011.5,-0.9,93,8,10000,11.112,,,230,,,,,,,,,,,wg-a,,,,AAXX 03034 07790 12260 32306 10090 20080 30100 40115 58009 60006 81630 90300=
07790,1998-04-03 06:00:00,10,1011.9,0.4,87,8,6000,3.704,,,240,8.4,14.4,,,,,,,,11,wg-a,,,,AAXX 03064 07790 02556 32402 10100 20080 30104 40119 53004 60006 71100 81531 90600 333 10144 20084 60004=
07790,1998-04-03 09:00:00,17,1013.6,1.8,72,12,9000,11.112,,,70,,,,,,,,,,,wg-a,,,,AAXX 03094 07790 12/59 /0706 10170 20120 30122 40136 53018 60006 81031 90900=
07790,1998-04-03 12:00:00,18,1013.6,0,77,14,12000,11.112,,,40,,,,,,,,,,,wg-a,,,,AAXX 03124 07790 12662 40406 10180 20140 30122 40136 50000 60006 82231 91200=
07790,1998-04-03 15:00:00,18,1013.1,-0.5,83,15,10000,11.112,,,20,,,,,,,,,,,wg-a,,,,AAXX 03154 07790 12660 /0206 10180 20150 30117 40131 58005 60006 82231 91500=
07790,1998-04-03 18:00:00,15,1012.7,-0.4,88,13,6000,14.816,,,350,9.5,18.8,,,,,,,,,wg-a,,,,AAXX 03184 07790 12356 23508 10150 20130 30113 40127 57004 60006 82601 91800 333 10188 20095=
07790,1998-04-03 21:00:00,13,1013.1,0.4,94,12,10000,3.704,,,280,,,,,,,,,,,wg-a,,,,AAXX 03214 07790 12360 22802 10130 20120 30117 40131 50004 60006 82600 92100=
07790,1998-04-04 00:00:00,11,1012.5,-0.7,94,10,9000,7.408,,,260,,,,,,,,,,,wg-a,,,,AAXX 04004 07790 12359 42604 10110 20100 30110 40125 58007 60006 84600 90000=
07790,1998-04-04 03:00:00,10,1011.5,-1,93,9,8000,7.408,,,250,,,,0,,,,,,,wg-a,,,,AAXX 04034 07790 12358 72504 10100 20090 30100 40115 58010 60007 876// 90300=
07790,1998-04-04 06:00:00,12,1011.5,0.1,94,11,500,3.704,,,220,10.1,15,,,,,,,,,wg-a,,,,AAXX 04064 07790 02300 72202 10120 20110 30101 40115 53001 60006 876// 90600 333 10150 20101 60004=
07790,1998-04-04 09:00:00,15,1011.7,0.2,82,12,7000,3.704,,,40,,,,,,,,,,,wg-a,,,,AAXX 04094 07790 12457 80402 10150 20120 30103 40117 50002 60006 886// 90900=
07790,1998-04-04 12:00:00,18,1010.2,-1.5,73,13,7000,11.112,,,120,,,,,,,,,,,wg-a,,,,AAXX 04124 07790 12457 71206 10180 20130 30088 40102 58015 60006 85502 91200=
07790,1998-04-04 15:00:00,17,1009.5,-0.7,82,14,7000,11.112,,,120,,,,,,,,,,,wg-a,,,,AAXX 04154 07790 12457 71206 10170 20140 30081 40095 56007 60006 84532 91500=
07790,1998-04-04 18:00:00,15,1009.6,0.1,88,13,6000,7.408,,,360,12.2,18.5,,,,,,,,,wg-a,,,,AAXX 04184 07790 12456 73604 10150 20130 30082 40096 52001 60006 84602 91800 333 10185 20122=
07790,1998-04-04 21:00:00,14,1010.9,1.3,88,12,7000,3.704,,,310,,,,,,,,,,,wg-a,,,,AAXX 04214 07790 12/57 /3102 10140 20120 30095 40109 51013 60006 92100=
07790,1998-04-05 00:00:00,12,1011.1,0.2,94,11,11000,3.704,,,320,,,,,,,,,,,wg-a,,,,AAXX 05004 07790 12/61 /3202 10120 20110 30097 40111 53002 60006 90000=
07790,1998-04-05 03:00:00,14,1011,-0.1,88,12,7000,7.408,,,280,,,,,,,,,,,wg-a,,,,AAXX 05034 07790 12/57 /2804 10140 20120 30096 40110 57001 60006 90300=
07790,1998-04-05 06:00:00,11,1011.3,0.3,94,10,10000,3.704,,,270,11.2,15.4,,,,,,,,,wg-a,,,,AAXX 05064 07790 02560 62702 10110 20100 30099 40113 51003 60006 81542 90600 333 10154 20112 60004=
07790,1998-04-05 09:00:00,16,1012.5,1.2,82,13,10000,11.112,,,340,,,,,,,,,,,wg-a,,,,AAXX 05094 07790 12460 /3406 10160 20130 30111 40125 50012 60006 82542 90900=
07790,1998-04-05 12:00:00,17,1012.3,-0.2,82,14,9000,14.816,,,350,,,,,,,,,,,wg-a,,,,AAXX 05124 07790 12459 73508 10170 20140 30109 40123 58002 60006 81542 91200=
07790,1998-04-05 15:00:00,16,1011.7,-0.6,88,14,7000,11.112,,,360,,,,,,,,,,,wg-a,,,,AAXX 05154 07790 12357 73606 10160 20140 30103 40117 57006 60006 85542 91500=
07790,1998-04-06 03:00:00,10,1011.4,-0.8,93,9,18000,0,,,0,,,,,,,,,,,wg-a,,,,AAXX 06034 07790 12/68 30000 10100 20090 30099 40114 57008 60006 80001 90300=
07790,1998-04-06 06:00:00,13,1011.4,0.1,58,5,25000,14.816,,,220,9.9,15.1,,,,,,,,,wg-a,,,,AAXX 06064 07790 02575 /2208 10130 20050 30100 40114 52001 60006 81500 90600 333 10151 20099 60004=
07790,1998-04-06 09:00:00,18,1013,1.6,49,7,25000,11.112,,,130,,,,,,,,,,,wg-a,,,,AAXX 06094 07790 12575 21306 10180 20070 30116 40130 51016 60006 81101 90900=
07790,1998-04-06 12:00:00,18,1014.1,1.1,56,9,25000,18.52,,,100,,,,,,,,,,,wg-a,,,,AAXX 06124 07790 12575 /1010 10180 20090 30127 40141 51011 60006 81141 91200=
07790,1998-04-06 15:00:00,18,1014,-0.1,49,7,25000,11.112,,,90,,,,,,,,,,,wg-a,,,,AAXX 06154 07790 12575 /0906 10180 20070 30126 40140 55001 60006 81101 91500=
07790,1998-04-06 18:00:00,15,1014.7,0.7,72,10,25000,7.408,,,190,13.1,19.6,,,,,,,,,wg-a,,,,AAXX 06184 07790 12575 /1904 10150 20100 30133 40147 53007 60006 81101 91800 333 10196 20131=
07790,1998-04-06 21:00:00,13,1015,0.3,47,2,25000,11.112,,,190,,,,,,,,,,,wg-a,,,,AAXX 06214 07790 12/75 /1906 10130 20020 30136 40150 50003 60006 81031 92100=
07790,1998-04-07 00:00:00,12,1015.1,0,62,5,25000,7.408,,,210,,,,,,,,,,,wg-a,,,,AAXX 07004 07790 12475 72104 10120 20050 30136 40151 50000 60006 82602 90000=
07790,1998-04-07 03:00:00,11,1013.5,-1.6,82,8,25000,3.704,,,260,,,,,,,,,,,wg-a,,,,AAXX 07034 07790 12475 /2602 10110 20080 30120 40135 58016 60006 81601 90300=
07790,1998-04-07 06:00:00,11,1012.8,-0.7,82,8,12000,7.408,,,230,8.9,15.1,,,,,,,,,wg-a,,,,AAXX 07064 07790 02462 52304 10110 20080 30113 40128 55007 60006 83801 90600 333 10151 20089 60004=
07790,1998-04-07 12:00:00,18,1009.7,-2.5,59,10,15000,14.816,,,330,,,,,,,,,,,wg-a,,,,AAXX 07124 07790 12565 /3308 10180 20100 30083 40097 58025 60006 81201 91200=
07790,1998-04-07 15:00:00,18,1007.5,-2.2,59,10,20000,18.52,,,20,,,,,,,,,,,wg-a,,,,AAXX 07154 07790 12570 50210 10180 20100 30061 40075 56022 60006 84831 91500=
07790,1998-04-07 18:00:00,16,1007.5,-0,77,12,15000,11.112,,,20,10.6,19.1,,,,,,,,,wg-a,,,,AAXX 07184 07790 12565 /0206 10160 20120 30061 40075 55000 60006 86800 91800 333 10191 20106=
07790,1998-04-07 21:00:00,15,1008.6,1.1,77,11,15000,7.408,,,300,,,,,,,,,,,wg-a,,,,AAXX 07214 07790 12665 73004 10150 20110 30072 40086 51011 60006 875// 92100=
07790,1998-04-08 00:00:00,13,1009,0.4,82,10,11000,7.408,,,240,,,,,,,,,,,wg-a,,,,AAXX 08004 07790 12/61 /2404 10130 20100 30076 40090 50004 60006 90000=
07790,1998-04-08 03:00:00,12,1008.3,-0.7,82,9,15000,7.408,,,240,,,,,,,,,,,wg-a,,,,AAXX 08034 07790 12665 22404 10120 20090 30069 40083 56007 60006 82530 90300=
07790,1998-04-08 06:00:00,12,1008.3,0,88,10,20000,7.408,,,220,10.9,16.1,,,,,,,,,wg-a,,,,AAXX 08064 07790 02670 72204 10120 20100 30069 40083 50000 60006 81131 90600 333 10161 20109 60004=
07790,1998-04-08 09:00:00,16,1008.8,0.5,72,11,20000,11.112,,,150,,,,,,,,,,,wg-a,,,,AAXX 08094 07790 12670 71506 10160 20110 30074 40088 53005 60006 8587/ 90900=
07790,1998-04-08 12:00:00,16,1008.2,-0.6,77,12,20000,0,,,0,,,,,,,,,,,wg-a,,,,AAXX 08124 07790 12570 70000 10160 20120 30068 40082 58006 60006 8587/ 91200=
07790,1998-04-08 15:00:00,16,1007,-1.2,82,13,11000,7.408,,,130,,,,,,,,,,,wg-a,,,,AAXX 08154 07790 32/61 /1304 10160 20130 30056 40070 57012 91500=
07790,1998-04-08 18:00:00,13,1006.6,-0.4,94,12,8000,7.408,,,190,12.1,16.9,,,,,,,,61,wg-a,,,,AAXX 08184 07790 02458 81904 10130 20120 30052 40066 58004 61000 76162 8587/ 91800 333 10169 20121 6003=
07790,1998-04-08 21:00:00,12,1006.5,-0.1,88,10,12000,3.704,,,240,,,,0,,,,,,1,wg-a,,,,AAXX 08214 07790 12462 82402 10120 20100 30051 40065 56001 60007 70162 8382/ 92100=
07790,1998-04-09 00:00:00,11,1005.2,-1.3,87,9,12000,3.704,,,310,,,,,,,,,,2,wg-a,,,,AAXX 09004 07790 12462 83102 10110 20090 30038 40052 56013 60006 70262 8382/ 90000=
07790,1998-04-09 03:00:00,11,1004,-1.2,87,9,15000,7.408,,,190,,,,,,,,,,,wg-a,,,,AAXX 09034 07790 12565 71904 10110 20090 30026 40040 56012 60006 8382/ 90300=
07790,1998-04-09 06:00:00,11,1003.9,-0.1,76,7,15000,18.52,,,250,10.3,13.5,,,,,4,,,,wg-a,,,,AAXX 09064 07790 02565 /2510 10110 20070 30025 40039 55001 60006 83872 90600 333 10135 20103 60044=
07790,1998-04-09 09:00:00,15,1005,1.1,55,6,35000,0,,,0,,,,,,,,,,,wg-a,,,,AAXX 09094 07790 12581 /0000 10150 20060 30036 40050 51011 60006 82872 90900=
07790,1998-04-09 12:00:00,17,1004.9,-0.1,55,8,35000,18.52,,,110,,,,,,,,,,,wg-a,,,,AAXX 09124 07790 12681 /1110 10170 20080 30035 40049 55001 60006 82202 91200=
07790,1998-04-09 15:00:00,17,1004.4,-0.5,55,8,500,11.112,,,100,,,,,,,,,,,wg-a,,,,AAXX 09154 07790 12500 31006 10170 20080 30030 40044 58005 60006 83200 91500=
07790,1998-04-09 18:00:00,14,1004.7,0.3,72,9,500,0,,,0,10.5,17.8,,,,,,,,,wg-a,,,,AAXX 09184 07790 12600 20000 10140 20090 30033 40047 53003 60006 82500 91800 333 10178 20105=
07790,1998-04-09 21:00:00,10,1005.3,0.6,76,6,500,7.408,,,240,,,,,,,,,,,wg-a,,,,AAXX 09214 07790 12/00 02404 10100 20060 30039 40053 50006 60006 80000 92100=
07790,1998-04-10 00:00:00,8,1004.2,-1.2,81,5,500,7.408,,,220,,,,,,,,,,,wg-a,,,,AAXX 10004 07790 12/00 42204 10080 20050 30027 40042 58012 60006 80001 90000=
07790,1998-04-10 03:00:00,9,1002.6,-1.5,81,6,500,7.408,,,240,,,,,,,,,,,wg-a,,,,AAXX 10034 07790 12600 /2404 10090 20060 30012 40026 56015 60006 84572 90300=
07790,1998-04-10 06:00:00,13,1000.8,-1.8,77,9,15000,14.816,,,130,7.6,13.5,,,,,,,,,wg-a,,,,AAXX 10064 07790 02565 71308 10130 20090 39994 40008 56018 60006 85572 90600 333 10135 20076 60004=
07790,1998-04-10 09:00:00,14,1000.7,-0.1,72,9,11000,18.52,,,180,,,,,,,,,,,wg-a,,,,AAXX 10094 07790 32/61 /1810 10140 20090 39993 40007 55001 90900=
07790,1998-04-10 12:00:00,16,999.5,-1.2,55,7,25000,22.224,,,170,,,,,,,,,,1,wg-a,,,,AAXX 10124 07790 02575 /1712 10160 20070 39981 49995 56012 61000 70162 84872 91200 333 ////=
07790,1998-04-10 15:00:00,17,999,-0.5,55,8,25000,7.408,,53.708,220,,,,0,,,,,,1,wg-a,,,,AAXX 10154 07790 12575 /2204 10170 20080 39976 49990 58005 60007 70162 83872 91500 333 91029=
07790,1998-04-10 18:00:00,11,1000.6,1.6,82,8,15000,11.112,,,190,11,16.9,,3,,,,,,1,wg-a,,,,AAXX 10184 07790 02565 51906 10110 20080 39992 40006 51016 60006 70186 82572 91800 333 10169 20110 60037=
07790,1998-04-10 21:00:00,11,1003,2.4,58,3,20000,14.816,,,240,,,,,,,,,,,wg-a,,,,AAXX 10214 07790 12570 22408 10110 20030 30016 40030 51024 60006 82800 92100=
07790,1998-04-11 00:00:00,9,1003.6,0.5,66,3,20000,3.704,,,200,,,,,,,,,,,wg-a,,,,AAXX 11004 07790 12570 22002 10090 20030 30021 40036 51005 60006 82800 90000=
07790,1998-04-11 03:00:00,7,1003.1,-0.5,81,4,20000,7.408,,,240,,,,,,,,,,,wg-a,,,,AAXX 11034 07790 12570 42404 10070 20040 30016 40031 58005 60006 82830 90300=
07790,1998-04-11 06:00:00,9,1003.2,0.1,71,4,11000,7.408,,,210,6,11.7,,,,,3,,,,wg-a,,,,AAXX 11064 07790 02/61 /2104 10090 20040 30017 40032 50001 60006 90600 333 10117 20060 60034=
07790,1998-04-11 09:00:00,15,1002.7,-0.4,63,8,20000,14.816,,,180,,,,,,,,,,,wg-a,,,,AAXX 11094 07790 12570 41808 10150 20080 30013 40027 57004 60006 83840 90900=
07790,1998-04-11 12:00:00,15,1002.7,0,48,4,20000,18.52,,64.82,270,,,,1,,,,,,25,wg-a,,,,AAXX 11124 07790 02570 52710 10150 20040 30013 40027 50000 60016 72587 8394/ 91200 333 60017 91035=
07790,1998-04-11 18:00:00,11,1003.7,1.5,54,2,20000,22.224,,,250,8.7,16.1,,,,,,,,,wg-a,,,,AAXX 11184 07790 12570 /2512 10110 20020 30023 40037 53015 60006 83942 91800 333 10161 20087=
07790,1998-04-12 00:00:00,9,1004.5,-0.2,53,0,20000,18.52,,,270,,,,,,,,,,,wg-a,,,,AAXX 12004 07790 12570 62710 10090 20000 30030 40045 58002 60006 83372 90000=
07790,1998-04-12 03:00:00,6,1003.8,-0.7,81,3,20000,14.816,,,260,,,,1,,,,,,21,wg-a,,,,AAXX 12034 07790 12570 52608 10060 20030 30023 40038 58007 60017 72162 83870 90300=
07790,1998-04-12 06:00:00,7,1005.7,1.9,81,4,500,18.52,,,250,5.8,11,,,,,,,,91,wg-a,,,,AAXX 12064 07790 02500 72510 10070 20040 30042 40057 53019 61000 79198 8697/ 90600 333 10110 20058 6004=
07790,1998-04-12 09:00:00,11,1005.8,0.2,66,5,15000,11.112,,,170,,,,0,,,,,,1,wg-a,,,,AAXX 12094 07790 12565 51706 10110 20050 30044 40058 53002 60007 70162 82873 90900=
07790,1998-04-12 12:00:00,14,1005.5,-0.3,47,3,500,14.816,,,80,,,,,,,,,,1,wg-a,,,,AAXX 12124 07790 12600 50808 10140 20030 30041 40055 55003 60016 70161 83263 91200=
07790,1998-04-12 15:00:00,15,1005.8,0.3,36,0,500,14.816,,,240,,,,,,,,,,,wg-a,,,,AAXX 12154 07790 12600 52408 10150 20000 30044 40058 51003 60006 82863 91500=
07790,1998-04-12 18:00:00,10,1006.9,1,53,1,500,14.816,,53.708,220,6.1,16.1,,,,,,,,,wg-a,,,,AAXX 12184 07790 12500 /2208 10100 20010 30054 40069 52010 60006 83863 91800 333 10161 20061 91029=
07790,1998-04-12 21:00:00,10,1007.9,1,50,0,25000,18.52,,,250,,,,,,,,,,,wg-a,,,,AAXX 12214 07790 12875 82510 10100 20000 30064 40079 51010 60006 85042 92100=
07790,1998-04-13 00:00:00,4,1005.8,,100,4,10000,7.408,,,170,,,,,,,,,,3,wg-a,,,,AAXX 13004 07790 12560 71704 10040 20040 30062 40058 60006 70362 872// 90000=
07790,1998-04-13 03:00:00,10,1006.8,-0.7,46,-1,25000,25.928,,37.04,260,,,,,,,,,,,wg-a,,,,AAXX 13034 07790 12575 /2614 10100 21010 30053 40068 58007 60006 81202 90300 333 91020=
07790,1998-04-13 06:00:00,9,1008,1.2,57,1,25000,22.224,,64.82,260,8.6,10.9,,,,,,,,16,wg-a,,,,AAXX 13064 07790 02575 42612 10090 20010 30065 40080 53012 61000 71686 84940 90600 333 10109 20086 6000 91035=
07790,1998-04-13 09:00:00,15,1008.1,0.2,29,-3,25000,29.632,,,260,,,,,,,,,,2,wg-a,,,,AAXX 13094 07790 02575 /2616 10150 21030 30067 40081 53002 61000 70286 81200 90900 333 ////=
07790,1998-04-13 12:00:00,14,1008.1,-0,36,-1,25000,29.632,,68.524,250,,,,,,,,,,2,wg-a,,,,AAXX 13124 07790 02575 52516 10140 21010 30067 40081 55000 61000 70286 84940 91200 333 //// 91037=
07790,1998-04-13 15:00:00,8,1007.8,-0.4,76,4,1200,22.224,,50.004,260,,,,0,,,,,,80,wg-a,,,,AAXX 13154 07790 12512 72612 10080 20040 30063 40078 58004 60007 78086 8795/ 91500 333 91027=
07790,1998-04-13 18:00:00,9,1006.1,-1.7,53,0,20000,14.816,,50.004,270,8.1,15.7,,,,,,,,2,wg-a,,,,AAXX 13184 07790 02570 /2708 10090 20000 30046 40061 56017 60006 70286 84942 91800 333 10157 20081 61000 91027=
07790,1998-04-13 21:00:00,8,1006.4,0.3,49,-2,500,14.816,,,250,,,,,,,,,,,wg-a,,,,AAXX 13214 07790 12400 /2508 10080 21020 30049 40064 50003 60006 81140 92100=
07790,1998-04-14 00:00:00,8,1006.7,0.3,53,-1,20000,14.816,,,240,,,,,,,,,,25,wg-a,,,,AAXX 14004 07790 02470 72408 10080 21010 30052 40067 50003 61000 72586 84940 90000 333 6100=
07790,1998-04-14 03:00:00,5,1006.9,0.2,75,1,25000,3.704,,,290,,,,0,,,,,,1,wg-a,,,,AAXX 14034 07790 12575 /2902 10050 20010 30054 40069 51002 60007 70186 81200 90300=
07790,1998-04-14 06:00:00,8,1008.2,1.3,49,-2,40000,3.704,,,100,3.6,9.4,,,,,1,,,2,wg-a,,,,AAXX 14064 07790 02582 /1002 10080 21020 30067 40082 53013 60006 70286 81200 90600 333 10094 20036 60014=
07790,1998-04-14 09:00:00,14,1009.9,1.8,23,-7,11000,18.52,,,240,,,,,,,,,,,wg-a,,,,AAXX 14094 07790 12/61 /2410 10140 21070 30085 40099 51018 60006 90900=
07790,1998-04-14 12:00:00,15,1010.9,1,31,-2,40000,22.224,,,100,,,,,,,,,,,wg-a,,,,AAXX 14124 07790 12582 /1012 10150 21020 30095 40109 51010 60006 82242 91200=
07790,1998-04-14 15:00:00,14,1011.5,0.6,41,1,40000,14.816,,,100,,,,,,,,,,,wg-a,,,,AAXX 14154 07790 12582 21008 10140 20010 30101 40115 53006 60006 81271 91500=
07790,1998-04-14 18:00:00,12,1012.2,0.6,44,0,40000,3.704,,,110,7.8,15.6,,,,,,,,,wg-a,,,,AAXX 14184 07790 12582 /1102 10120 20000 30107 40122 53006 60006 81271 91800 333 10156 20078=
07790,1998-04-14 21:00:00,7,1013.8,1.6,66,1,11000,7.408,,,250,,,,,,,,,,,wg-a,,,,AAXX 14214 07790 12/61 /2504 10070 20010 30123 40138 51016 60006 92100=
07790,1998-04-15 00:00:00,6,1013.4,-0.4,70,1,15000,11.112,,,240,,,,,,,,,,,wg-a,,,,AAXX 15004 07790 12665 /2406 10060 20010 30119 40134 58004 60006 81501 90000=
07790,1998-04-15 03:00:00,7,1011.6,-1.8,61,0,15000,11.112,,,210,,,,,,,,,,,wg-a,,,,AAXX 15034 07790 12665 /2106 10070 20000 30101 40116 56018 60006 81501 90300=
07790,1998-04-15 06:00:00,9,1011.1,-0.5,61,2,15000,3.704,,,230,6,11.8,,,,,,,,,wg-a,,,,AAXX 15064 07790 02665 82302 10090 20020 30096 40111 56005 60006 84541 90600 333 10118 20060 60004=
07790,1998-04-15 09:00:00,15,1010.6,-0.4,59,7,15000,31.484,,53.708,170,,,,,,,,,,,wg-a,,,,AAXX 15094 07790 12565 81717 10150 20070 30092 40106 57004 60006 8487/ 90900 333 91029=
07790,1998-04-15 12:00:00,15,1009.2,-1.4,63,8,12000,38.892,,64.82,170,,,,,,,,,,,wg-a,,,,AAXX 15124 07790 12562 /1721 10150 20080 30078 40092 58014 60006 84872 91200 333 91035=
07790,1998-04-15 15:00:00,15,1007,-2.2,72,10,10000,31.484,,61.116,160,,,,,,,,,,,wg-a,,,,AAXX 15154 07790 12460 71617 10150 20100 30056 40070 58022 60006 875// 91500 333 91033=
07790,1998-04-15 18:00:00,12,1005.3,-1.7,94,11,4000,3.704,,61.116,110,8.5,15.6,,,,,,,,60,wg-a,,,,AAXX 15184 07790 02240 81102 10120 20110 30039 40053 58017 61000 76062 885// 91800 333 10156 20085 6000 91033=
07790,1998-04-15 21:00:00,12,1003.4,-1.9,94,11,4000,7.408,,,210,,,,3,,,,,,61,wg-a,,,,AAXX 15214 07790 12240 82104 10120 20110 30020 40034 58019 60037 76166 885// 92100=
07790,1998-04-16 00:00:00,12,1001.1,-2.3,94,11,15000,3.704,,,170,,,,0,,,,,,60,wg-a,,,,AAXX 16004 07790 02265 81702 10120 20110 39997 40011 56023 60036 76066 8557/ 90000 333 60007=
07790,1998-04-16 06:00:00,12,1001.8,1,71,7,50000,3.704,,,220,10.1,12.3,,,,,3,,,1,wg-a,,,,AAXX 16064 07790 02584 22202 10120 20070 30004 40018 51010 60006 70161 82200 90600 333 10123 20101 60034=
07790,1998-04-16 09:00:00,17,1002.6,0.8,45,5,50000,18.52,,,110,,,,,,,,,,,wg-a,,,,AAXX 16094 07790 12684 41110 10170 20050 30012 40026 51008 60006 83241 90900=
07790,1998-04-16 12:00:00,17,1002.3,-0.3,52,7,50000,18.52,,,80,,,,,,,,,,,wg-a,,,,AAXX 16124 07790 12684 /0810 10170 20070 30009 40023 58003 60006 84542 91200=
07790,1998-04-16 15:00:00,17,1000.9,-1.4,34,1,50000,22.224,,,270,,,,,,,,,,,wg-a,,,,AAXX 16154 07790 12684 82712 10170 20010 39995 40009 56014 60006 82543 91500=
07790,1998-04-16 18:00:00,14,1001.1,0.2,41,1,50000,18.52,,,260,11.6,18.6,,,,,,,,,wg-a,,,,AAXX 16184 07790 12684 82610 10140 20010 39997 40011 50002 60006 81542 91800 333 10186 20116=
07790,1998-04-16 21:00:00,13,1001,-0.1,47,2,11000,3.704,,,120,,,,,,,,,,,wg-a,,,,AAXX 16214 07790 12/61 /1202 10130 20020 39996 40010 58001 60006 92100=
07790,1998-04-17 00:00:00,11,998.5,-2.5,66,5,40000,7.408,,50.004,250,,,,,,,,,,60,wg-a,,,,AAXX 17004 07790 02682 82504 10110 20050 39971 49985 58025 61000 76062 81542 90000 333 6100 91027=
07790,1998-04-17 03:00:00,11,995.3,-3.2,71,6,40000,3.704,,,110,,,,,,,,,,1,wg-a,,,,AAXX 17034 07790 02682 31102 10110 20060 39939 49953 56032 61000 70161 81540 90300 333 ////=
07790,1998-04-17 06:00:00,10,994.3,-1,82,7,40000,7.408,,,330,9.1,14,,,,,,,,3,wg-a,,,,AAXX 17064 07790 02682 33304 10100 20070 39929 49943 56010 60006 70361 83540 90600 333 10140 20091 61000=
07790,1998-04-17 09:00:00,18,995,0.7,49,7,40000,18.52,,,90,,,,,,,,,,,wg-a,,,,AAXX 17094 07790 12682 40910 10180 20070 39936 49950 53007 60006 83540 90900=
07790,1998-04-17 12:00:00,19,995.9,0.9,46,7,40000,14.816,,,130,,,,,,,,,,,wg-a,,,,AAXX 17124 07790 12682 51308 10190 20070 39945 49959 51009 60006 85840 91200=
07790,1998-04-17 15:00:00,17,995.6,-0.3,55,8,40000,14.816,,,100,,,,,,,,,,,wg-a,,,,AAXX 17154 07790 12682 61008 10170 20080 39942 49956 55003 60006 85840 91500=
07790,1998-04-17 18:00:00,15,996.2,0.6,63,8,40000,3.704,,,200,10.5,20,,,,,,,,,wg-a,,,,AAXX 17184 07790 12682 32002 10150 20080 39948 49962 51006 60006 81540 91800 333 10200 20105=
07790,1998-04-18 00:00:00,12,997.1,-0.5,50,2,40000,25.928,,,250,,,,,,,,,,,wg-a,,,,AAXX 18004 07790 12682 32514 10120 20020 39957 49971 58005 60006 81540 90000=
07790,1998-04-18 09:00:00,15,998,0.9,48,4,40000,11.112,,,50,,,,,,,,,,,wg-a,,,,AAXX 18094 07790 12682 /0506 10150 20040 39966 49980 53009 60006 85540 90900=
07790,1998-04-18 12:00:00,17,999.2,1.2,45,5,40000,14.816,,,150,,,,,,,,,,,wg-a,,,,AAXX 18124 07790 12682 21508 10170 20050 39978 49992 53012 60006 82541 91200=
07790,1998-04-18 15:00:00,16,1000.3,1.1,51,6,40000,11.112,,,160,,,,,,,,,,,wg-a,,,,AAXX 18154 07790 12682 41606 10160 20060 39989 40003 51011 60006 83241 91500=
07790,1998-04-18 18:00:00,13,1001.7,1.4,44,1,40000,18.52,,,260,10.7,16.9,,,,,,,,,wg-a,,,,AAXX 18184 07790 12682 52610 10130 20010 30003 40017 53014 60006 82542 91800 333 10169 20107=
07790,1998-04-18 21:00:00,11,1004,2.3,54,2,20000,7.408,,,90,,,,,,,,,,,wg-a,,,,AAXX 18214 07790 12670 30904 10110 20020 30026 40040 51023 60006 81542 92100=
07790,1998-04-19 00:00:00,12,1005.2,1.2,40,-1,25000,14.816,,,270,,,,,,,,,,,wg-a,,,,AAXX 19004 07790 12/75 02708 10120 21010 30038 40052 51012 60006 80000 90000=
07790,1998-04-19 03:00:00,11,1005.9,0.7,47,0,25000,22.224,,,280,,,,,,,,,,,wg-a,,,,AAXX 19034 07790 12575 /2812 10110 20000 30045 40059 53007 60006 81500 90300=
07790,1998-04-19 06:00:00,13,1007.5,1.6,44,1,25000,11.112,,,250,8.9,13.1,,,,,,,,,wg-a,,,,AAXX 19064 07790 02675 /2506 10130 20010 30061 40075 53016 60006 81540 90600 333 10131 20089 60004=
07790,1998-04-19 09:00:00,16,1009,1.5,42,3,25000,14.816,,,100,,,,,,,,,,,wg-a,,,,AAXX 19094 07790 12675 /1008 10160 20030 30076 40090 53015 60006 81100 90900=
07790,1998-04-19 12:00:00,16,1009.4,0.4,39,2,25000,18.52,,,120,,,,,,,,,,,wg-a,,,,AAXX 19124 07790 12675 31210 10160 20020 30080 40094 51004 60006 83140 91200=
07790,1998-04-19 15:00:00,17,1010.1,0.7,42,4,25000,14.816,,,110,,,,,,,,,,,wg-a,,,,AAXX 19154 07790 12675 51108 10170 20040 30087 40101 53007 60006 84801 91500=
07790,1998-04-19 18:00:00,14,1011.9,1.8,55,5,25000,3.704,,,270,12.6,17.4,,,,,,,,,wg-a,,,,AAXX 19184 07790 12675 22702 10140 20050 30105 40119 53018 60006 81801 91800 333 10174 20126=
07790,1998-04-19 21:00:00,11,1014,2,54,2,11000,11.112,,,230,,,,,,,,,,,wg-a,,,,AAXX 19214 07790 12/61 /2306 10110 20020 30125 40140 51020 60006 92100=
07790,1998-04-20 00:00:00,11,1014.7,0.7,50,1,20000,18.52,,,250,,,,,,,,,,,wg-a,,,,AAXX 20004 07790 12670 /2510 10110 20010 30132 40147 50007 60006 81500 90000=
07790,1998-04-20 03:00:00,9,1015.5,0.8,57,1,20000,18.52,,,240,,,,,,,,,,,wg-a,,,,AAXX 20034 07790 12670 /2410 10090 20010 30140 40155 53008 60006 81500 90300=
07790,1998-04-20 06:00:00,10,1017.4,1.9,57,2,20000,11.112,,,240,7.4,13.8,,,,,,,,,wg-a,,,,AAXX 20064 07790 02570 /2406 10100 20020 30159 40174 53019 60006 81100 90600 333 10138 20074 60004=
07790,1998-04-20 09:00:00,16,1019.2,1.9,59,8,500,22.224,,,140,,,,,,,,,,,wg-a,,,,AAXX 20094 07790 12500 21412 10160 20080 30178 40192 51019 60006 82200 90900=
07790,1998-04-20 12:00:00,17,1019.7,0.5,59,9,500,18.52,,,140,,,,,,,,,,,wg-a,,,,AAXX 20124 07790 12500 21410 10170 20090 30183 40197 51005 60006 82201 91200=
07790,1998-04-20 15:00:00,16,1019.7,0,59,8,500,14.816,,,150,,,,,,,,,,,wg-a,,,,AAXX 20154 07790 12500 41508 10160 20080 30183 40197 50000 60006 84800 91500=
07790,1998-04-20 18:00:00,14,1020.1,0.4,67,8,500,3.704,,,140,10.2,17.8,,,,,,,,,wg-a,,,,AAXX 20184 07790 12600 31402 10140 20080 30187 40201 52004 60006 83500 91800 333 10178 20102=
07790,1998-04-20 21:00:00,10,1021.1,0.9,82,7,500,7.408,,,260,,,,,,,,,,,wg-a,,,,AAXX 20214 07790 12/00 02604 10100 20070 30196 40211 51009 60006 80000 92100=
07790,1998-04-21 00:00:00,10,1021,-0.1,76,6,500,14.816,,,240,,,,,,,,,,,wg-a,,,,AAXX 21004 07790 12/00 02408 10100 20060 30195 40210 58001 60006 80000 90000=
07790,1998-04-21 03:00:00,8,1020.8,-0.2,81,5,500,11.112,,,240,,,,,,,,,,,wg-a,,,,AAXX 21034 07790 12/00 02406 10080 20050 30193 40208 56002 60006 80000 90300=
07790,1998-04-21 06:00:00,10,1021.1,0.3,76,6,40000,7.408,,,230,7.5,14.3,,,,,,,,,wg-a,,,,AAXX 21064 07790 02/82 02304 10100 20060 30196 40211 53003 60006 80000 90600 333 10143 20075 60004=
07790,1998-04-21 09:00:00,17,1021.3,0.3,55,8,40000,14.816,,,120,,,,,,,,,,,wg-a,,,,AAXX 21094 07790 12682 11208 10170 20080 30199 40213 53003 60006 81101 90900=
07790,1998-04-21 12:00:00,18,1021,-0.3,49,7,40000,18.52,,,140,,,,,,,,,,,wg-a,,,,AAXX 21124 07790 12682 /1410 10180 20070 30196 40210 55003 60006 81101 91200=
07790,1998-04-21 15:00:00,17,1019.7,-1.3,63,10,11000,14.816,,,130,,,,,,,,,,,wg-a,,,,AAXX 21154 07790 12/61 /1308 10170 20100 30183 40197 58013 60006 91500=
07790,1998-04-21 18:00:00,15,1019.4,-0.3,77,11,25000,7.408,,,120,10.3,18.4,,,,,,,,,wg-a,,,,AAXX 21184 07790 12/75 11204 10150 20110 30180 40194 56003 60006 80001 91800 333 10184 20103=
07790,1998-04-21 21:00:00,11,1019.5,0,87,9,25000,3.704,,,260,,,,,,,,,,,wg-a,,,,AAXX 21214 07790 12/75 02602 10110 20090 30180 40195 50000 60006 80000 92100=
07790,1998-04-22 00:00:00,9,1018.7,-0.8,87,7,25000,7.408,,,240,,,,,,,,,,,wg-a,,,,AAXX 22004 07790 12/75 02404 10090 20070 30172 40187 58008 60006 80000 90000=
07790,1998-04-22 03:00:00,8,1017.9,-0.8,87,6,25000,7.408,,,230,,,,,,,,,,,wg-a,,,,AAXX 22034 07790 12/75 02304 10080 20060 30164 40179 56008 60006 80000 90300=
07790,1998-04-22 06:00:00,10,1017.1,-0.8,82,7,25000,3.704,,,250,7.5,14.7,,,,,,,,,wg-a,,,,AAXX 22064 07790 02475 /2502 10100 20070 30156 40171 56008 60006 81601 90600 333 10147 20075 60004=
07790,1998-04-22 09:00:00,17,1017,0,68,11,25000,18.52,,,150,,,,,,,,,,,wg-a,,,,AAXX 22094 07790 12475 31510 10170 20110 30156 40170 50000 60006 81801 90900=
07790,1998-04-22 12:00:00,18,1015.5,-1.5,52,8,25000,22.224,,,140,,,,,,,,,,,wg-a,,,,AAXX 22124 07790 12575 /1412 10180 20080 30141 40155 58015 60006 81101 91200=
07790,1998-04-22 15:00:00,17,1013.3,-2.2,72,12,25000,25.928,,,140,,,,,,,,,,,wg-a,,,,AAXX 22154 07790 12575 /1414 10170 20120 30119 40133 58022 60006 81102 91500=
07790,1998-04-22 18:00:00,15,1013,-0.3,82,12,20000,7.408,,,160,9.8,19,,,,,,,,,wg-a,,,,AAXX 22184 07790 12670 /1604 10150 20120 30116 40130 55003 60006 82502 91800 333 10190 20098=
07790,1998-04-22 21:00:00,13,1013.5,0.5,88,11,20000,7.408,,,140,,,,,,,,,,,wg-a,,,,AAXX 22214 07790 12470 81404 10130 20110 30121 40135 51005 60006 82502 92100=
07790,1998-04-23 00:00:00,12,1013.6,0.1,94,11,20000,3.704,,,330,,,,,,,,,,,wg-a,,,,AAXX 23004 07790 12570 83302 10120 20110 30122 40136 50001 60006 82102 90000=
07790,1998-04-23 03:00:00,12,1012.9,-0.7,88,10,20000,3.704,,,260,,,,,,,,,,,wg-a,,,,AAXX 23034 07790 12470 82602 10120 20100 30115 40129 56007 60006 82602 90300=
07790,1998-04-23 06:00:00,12,1013.2,0.3,88,10,11000,3.704,,,240,11,14.5,,,,,,,,,wg-a,,,,AAXX 23064 07790 02/61 /2402 10120 20100 30118 40132 53003 60006 90600 333 10145 20110 60004=
07790,1998-04-23 09:00:00,19,1013.6,0.4,52,9,11000,3.704,,25.928,100,,,,,,,,,,,wg-a,,,,AAXX 23094 07790 12/61 /1002 10190 20090 30122 40136 53004 60006 90900 333 91014=
07790,1998-04-23 12:00:00,19,1013.7,0.1,49,8,500,14.816,,,40,,,,,,,,,,,wg-a,,,,AAXX 23124 07790 12/00 /0408 10190 20080 30123 40137 53001 60006 82042 91200=
07790,1998-04-23 15:00:00,20,1013.3,-0.4,53,10,20000,11.112,,,20,,,,,,,,,,,wg-a,,,,AAXX 23154 07790 12/70 40206 10200 20100 30119 40133 56004 60006 80002 91500=
07790,1998-04-23 18:00:00,18,1013.8,0.5,59,10,12000,7.408,,,360,11.6,20.2,,,,,,,,,wg-a,,,,AAXX 23184 07790 12662 /3604 10180 20100 30124 40138 53005 60006 82542 91800 333 10202 20116=
07790,1998-04-23 21:00:00,15,1015.4,1.6,67,9,20000,7.408,,,260,,,,,,,,,,,wg-a,,,,AAXX 23214 07790 12/70 22604 10150 20090 30140 40154 51016 60006 81042 92100=
07790,1998-04-24 00:00:00,13,1015.8,0.4,72,8,0,11.112,,,230,,,,,,,,,,,wg-a,,,,AAXX 24004 07790 12/// /2306 10130 20080 30144 40158 50004 60006 90000=
07790,1998-04-24 03:00:00,11,1015.8,-0.1,82,8,20000,7.408,,,230,,,,,,,,,,,wg-a,,,,AAXX 24034 07790 12470 /2304 10110 20080 30143 40158 55001 60006 81600 90300=
07790,1998-04-24 06:00:00,13,1017,1.3,72,8,20000,7.408,,,240,11.1,17.6,,,,,,,,,wg-a,,,,AAXX 24064 07790 02570 /2404 10130 20080 30156 40170 53013 60006 81101 90600 333 10176 20111 60004=
07790,1998-04-24 09:00:00,19,1018.1,1.1,46,7,25000,14.816,,,30,,,,,,,,,,,wg-a,,,,AAXX 24094 07790 12675 20308 10190 20070 30167 40181 53011 60006 81101 90900=
07790,1998-04-24 12:00:00,20,1017.6,-0.5,43,7,25000,14.816,,,50,,,,,,,,,,,wg-a,,,,AAXX 24124 07790 12675 20508 10200 20070 30162 40176 58005 60006 81201 91200=
07790,1998-04-24 18:00:00,18,1017.2,0.2,52,8,25000,3.704,,,70,11.1,21,,,,,,,,,wg-a,,,,AAXX 24184 07790 12/75 30702 10180 20080 30158 40172 53002 60006 80001 91800 333 10210 20111=
07790,1998-04-25 00:00:00,11,1018.1,-0.3,71,6,15000,0,,,0,,,,,,,,,,,wg-a,,,,AAXX 25004 07790 12/65 00000 10110 20060 30166 40181 58003 60006 80000 90000=
07790,1998-04-25 06:00:00,13,1019.2,0.9,67,7,15000,7.408,,,230,10,18.2,,,,,,,,,wg-a,,,,AAXX 25064 07790 02/65 22304 10130 20070 30177 40192 53009 60006 80002 90600 333 10182 20100 60004=
07790,1998-04-25 12:00:00,22,1019.4,0.3,43,9,8000,11.112,,,110,,,,,,,,,,,wg-a,,,,AAXX 25124 07790 12/58 31106 10220 20090 30180 40194 51003 60006 80002 91200=
07790,1998-04-25 18:00:00,18,1018.6,-0.3,52,8,10000,3.704,,,100,13.1,22.3,,,,,,,,,wg-a,,,,AAXX 25184 07790 12/60 01002 10180 20080 30172 40186 55003 60006 80000 91800 333 10223 20131=
07790,1998-04-26 00:00:00,12,1018.4,-0.7,88,10,15000,3.704,,,250,,,,,,,,,,,wg-a,,,,AAXX 26004 07790 12/65 02502 10120 20100 30169 40184 58007 60006 80000 90000=
07790,1998-04-26 06:00:00,13,1016.9,-0.3,82,10,25000,3.704,,,240,10.2,17.6,,,,,,,,,wg-a,,,,AAXX 26064 07790 02/75 22402 10130 20100 30154 40169 55003 60006 80001 90600 333 10176 20102 60004=
07790,1998-04-26 12:00:00,19,1014.4,-1.7,64,12,15000,11.112,,,80,,,,,,,,,,,wg-a,,,,AAXX 26124 07790 12565 40806 10190 20120 30130 40144 58017 60006 83101 91200=
07790,1998-04-26 18:00:00,16,1010.1,-1.9,88,14,8000,3.704,,,50,12.7,19.9,,,,,,,,,wg-a,,,,AAXX 26184 07790 12458 /0502 10160 20140 30087 40101 58019 60006 84501 91800 333 10199 20127=
07790,1998-04-27 00:00:00,14,1007.5,-1.4,88,12,8000,11.112,,,180,,,,,,,,,,,wg-a,,,,AAXX 27004 07790 12458 /1806 10140 20120 30061 40075 58014 60006 82501 90000=
07790,1998-04-27 06:00:00,15,1004.4,-1,77,11,12000,14.816,,,150,13.5,16.4,,,,,,,,,wg-a,,,,AAXX 27064 07790 02562 41508 10150 20110 30030 40044 56010 60006 82501 90600 333 10164 20135 60004=
07790,1998-04-27 09:00:00,19,1004.1,-0.3,68,13,15000,18.52,,,160,,,,,,,,,,,wg-a,,,,AAXX 27094 07790 12565 51610 10190 20130 30027 40041 57003 60006 85532 90900=
07790,1998-04-27 12:00:00,20,1003.9,-0.2,68,14,15000,18.52,,,30,,,,,,,,,,,wg-a,,,,AAXX 27124 07790 12465 70310 10200 20140 30025 40039 56002 60006 86532 91200=
07790,1998-04-27 18:00:00,16,1004.4,1.3,63,9,20000,22.224,,,340,15.2,20.2,,,,,,,,,wg-a,,,,AAXX 27184 07790 12570 83412 10160 20090 30030 40044 51013 60006 85587 91800 333 10202 20152=
07790,1998-04-27 21:00:00,14,1005.7,1.3,63,7,20000,18.52,,,330,,,,,,,,,,,wg-a,,,,AAXX 27214 07790 12570 /3310 10140 20070 30043 40057 51013 60006 83530 92100=
07790,1998-04-28 00:00:00,12,1005.8,0.1,58,4,20000,7.408,,,310,,,,,,,,,,,wg-a,,,,AAXX 28004 07790 12570 23104 10120 20040 30044 40058 53001 60006 82530 90000=
07790,1998-04-28 03:00:00,11,1004.7,-1.1,58,3,20000,14.816,,,250,,,,,,,,,,,wg-a,,,,AAXX 28034 07790 12/70 /2508 10110 20030 30033 40047 56011 60006 80000 90300=
07790,1998-04-28 06:00:00,13,1004.8,0.1,67,7,20000,3.704,,,240,9.7,15.6,,,,,,,,,wg-a,,,,AAXX 28064 07790 02570 /2402 10130 20070 30034 40048 53001 60006 81101 90600 333 10156 20097 60004=
07790,1998-04-28 09:00:00,18,1005.2,0.4,45,6,500,14.816,,,120,,,,,,,,,,,wg-a,,,,AAXX 28094 07790 12600 21208 10180 20060 30038 40052 52004 60006 81102 90900=
07790,1998-04-28 12:00:00,19,1005.4,0.2,52,9,500,22.224,,,110,,,,,,,,,,,wg-a,,,,AAXX 28124 07790 12600 41112 10190 20090 30040 40054 50002 60006 82304 91200=
07790,1998-04-28 15:00:00,16,1005.6,0.2,68,10,20000,7.408,,,90,,,,0,,,,,,29,wg-a,,,,AAXX 28154 07790 12670 40904 10160 20100 30042 40056 53002 60007 72998 83304 91500=
07790,1998-04-28 18:00:00,14,1006,0.4,77,10,20000,3.704,,,270,13.4,19.2,,,,,,,,1,wg-a,,,,AAXX 28184 07790 12670 22702 10140 20100 30046 40060 51004 60006 70198 82500 91800 333 10192 20134=
07790,1998-04-28 21:00:00,12,1007.2,1.2,58,4,20000,14.816,,,290,,,,,,,,,,,wg-a,,,,AAXX 28214 07790 12670 /2908 10120 20040 30058 40072 51012 60006 81530 92100=
07790,1998-04-29 00:00:00,12,1007.3,0.1,58,4,20000,11.112,,,220,,,,,,,,,,,wg-a,,,,AAXX 29004 07790 12670 /2206 10120 20040 30059 40073 50001 60006 82534 90000=
07790,1998-04-29 03:00:00,11,1007.4,0.1,62,4,11000,14.816,,,240,,,,,,,,,,,wg-a,,,,AAXX 29034 07790 12/61 /2408 10110 20040 30060 40074 53001 60006 90300=
07790,1998-04-29 06:00:00,13,1007.6,0.2,54,4,25000,11.112,,,210,10.1,14,,,,,1,,,,wg-a,,,,AAXX 29064 07790 02575 /2106 10130 20040 30062 40076 53002 60006 81100 90600 333 10140 20101 60014=
07790,1998-04-29 09:00:00,18,1008.1,0.5,39,4,500,22.224,,,160,,,,,,,,,,,wg-a,,,,AAXX 29094 07790 12500 21612 10180 20040 30067 40081 53005 60006 81101 90900=
07790,1998-04-29 12:00:00,19,1008.6,0.5,46,7,40000,31.484,,,140,,,,,,,,,,,wg-a,,,,AAXX 29124 07790 12582 21417 10190 20070 30072 40086 51005 60006 81101 91200=
07790,1998-04-29 18:00:00,14,1008.1,0.1,77,10,12000,14.816,,53.708,160,12.9,19.6,,,,,,,,61,wg-a,,,,AAXX 29184 07790 02562 81608 10140 20100 30067 40081 53001 61000 76161 8587/ 91800 333 10196 20129 6001 91029=
07790,1998-04-29 21:00:00,14,1008.6,0.5,72,9,20000,11.112,,,160,,,,,,,,,,1,wg-a,,,,AAXX 29214 07790 02570 81606 10140 20090 30072 40086 50005 61000 70162 8357/ 92100 333 ////=
07790,1998-04-30 00:00:00,14,1006.6,-2,94,13,3500,29.632,,,150,,,,4,,,,,,63,wg-a,,,,AAXX 30004 07790 02335 81516 10140 20130 30052 40066 58020 60046 76362 8657/ 90000 333 60047=
07790,1998-04-30 03:00:00,14,1005.4,-1.2,88,12,15000,22.224,,61.116,160,,,,4,,,,,,60,wg-a,,,,AAXX 30034 07790 12365 81612 10140 20120 30040 40054 56012 60047 76086 8297/ 90300 333 91033=
07790,1998-04-30 06:00:00,14,1004.5,-0.9,88,12,500,11.112,,61.116,160,13.1,14.7,,,,,,,,60,wg-a,,,,AAXX 30064 07790 02400 81606 10140 20120 30031 40045 58009 61000 76086 889// 90600 333 10147 20131 6008 91033=
07790,1998-04-30 09:00:00,14,1005.5,1,94,13,500,7.408,,,160,,,,9,,,,,,81,wg-a,,,,AAXX 30094 07790 12300 81604 10140 20130 30041 40055 53010 60097 78198 889// 90900=
07790,1998-04-30 12:00:00,17,1005.9,0.4,77,13,11000,14.816,,,100,,,,,,,,,,,wg-a,,,,AAXX 30124 07790 12/61 /1008 10170 20130 30045 40059 53004 60106 91200=
07790,1998-04-30 15:00:00,16,1007.1,1.2,82,13,12000,7.408,,,80,,,,0,,,,,,21,wg-a,,,,AAXX 30154 07790 12562 70804 10160 20130 30057 40071 53012 60007 72162 8397/ 91500=
07790,1998-04-30 18:00:00,14,1008.6,1.5,88,12,15000,7.408,,,350,13.4,18.1,,0,,,,,,1,wg-a,,,,AAXX 30184 07790 02565 33504 10140 20120 30072 40086 53015 60006 70186 83800 91800 333 10181 20134 60007=
07790,1998-04-30 21:00:00,11,1010.5,1.9,94,10,15000,7.408,,,230,,,,,,,,,,,wg-a,,,,AAXX 30214 07790 12565 /2304 10110 20100 30091 40105 51019 60006 81801 92100=
07790,1998-05-01 00:00:00,11,1010.6,0.1,94,10,15000,3.704,,,220,,,,,,,,,,,wg-a,,,,AAXX 01004 07790 12565 72202 10110 20100 30092 40106 50001 60006 8587/ 90000=
07790,1998-05-01 03:00:00,11,1010.4,-0.2,94,10,15000,7.408,,,250,,,,0,,,,,,13,wg-a,,,,AAXX 01034 07790 12465 72504 10110 20100 30090 40104 55002 60007 71311 8587/ 90300=
07790,1998-05-01 06:00:00,13,1010.9,0.5,82,10,18000,7.408,,,230,10.2,14.5,,,,,11,,,,wg-a,,,,AAXX 01064 07790 02568 62304 10130 20100 30095 40109 53005 60006 82233 90600 333 10145 20102 60114=
07790,1998-05-01 09:00:00,16,1011.7,0.8,82,13,18000,14.816,,,40,,,,,,,,,,,wg-a,,,,AAXX 01094 07790 12568 70408 10160 20130 30103 40117 51008 60006 82303 90900=
07790,1998-05-01 12:00:00,14,1011.9,0.2,94,13,6000,14.816,,,360,,,,4,,,,,,10,wg-a,,,,AAXX 01124 07790 02356 83608 10140 20130 30105 40119 51002 60046 71098 8/300 91200 333 60047=
07790,1998-05-01 15:00:00,14,1011.5,-0.4,82,11,10000,3.704,,,200,,,,14,,,,,,25,wg-a,,,,AAXX 01154 07790 12460 72002 10140 20110 30101 40115 58004 60147 72598 8597/ 91500=
07790,1998-05-01 18:00:00,14,1010.8,-0.7,82,11,15000,3.704,,,40,12.3,16.5,,,,,,,,2,wg-a,,,,AAXX 01184 07790 12465 /0402 10140 20110 30094 40108 58007 60006 70298 84970 91800 333 10165 20123=
07790,1998-05-01 21:00:00,12,1012.1,1.3,88,10,15000,7.408,,,220,,,,,,,,,,,wg-a,,,,AAXX 01214 07790 12565 32204 10120 20100 30107 40121 51013 60006 82570 92100=
07790,1998-05-02 00:00:00,10,1011.9,-0.3,93,9,15000,18.52,,,240,,,,,,,,,,13,wg-a,,,,AAXX 02004 07790 12565 22410 10100 20090 30104 40119 58003 60006 71311 81370 90000=
07790,1998-05-02 03:00:00,9,1011.3,-0.6,87,7,15000,7.408,,,270,,,,,,,,,,,wg-a,,,,AAXX 02034 07790 12565 22704 10090 20070 30098 40113 56006 60006 81870 90300=
07790,1998-05-02 06:00:00,12,1012.6,1.4,82,9,25000,7.408,,,240,7.8,14.1,,,,,19,,,,wg-a,,,,AAXX 02064 07790 02575 /2404 10120 20090 30112 40126 53014 60006 81200 90600 333 10141 20078 60194=
07790,1998-05-02 09:00:00,17,1013,0.4,68,11,25000,11.112,,,100,,,,,,,,,,,wg-a,,,,AAXX 02094 07790 12575 51006 10170 20110 30116 40130 53004 60006 82202 90900=
07790,1998-05-02 12:00:00,18,1012.5,-0.5,64,11,11000,7.408,,,120,,,,,,,,,,,wg-a,,,,AAXX 02124 07790 12/61 /1204 10180 20110 30111 40125 58005 60006 91200=
07790,1998-05-02 18:00:00,15,1010,-1.5,82,12,25000,3.704,,,150,11.9,18.7,,,,,,,,,wg-a,,,,AAXX 02184 07790 12575 71502 10150 20120 30086 40100 56015 60006 81232 91800 333 10187 20119=
07790,1998-05-02 21:00:00,12,1010.4,0.4,88,10,20000,3.704,,,240,,,,,,,,,,,wg-a,,,,AAXX 02214 07790 12/70 /2402 10120 20100 30090 40104 50004 60006 81032 92100=
07790,1998-05-03 03:00:00,9,1006.5,-2.2,87,7,20000,3.704,,,240,,,,0,,,,,,,wg-a,,,,AAXX 03034 07790 12570 32402 10090 20070 30050 40065 57022 60007 81502 90300=
07790,1998-05-03 06:00:00,12,1004.2,-2.2,76,8,20000,11.112,,,240,8.7,15.1,,,,,,,,,wg-a,,,,AAXX 03064 07790 02570 /2406 10120 20080 30028 40042 56022 60006 81150 90600 333 10151 20087 60004=
07790,1998-05-03 09:00:00,17,1002.9,-1.3,59,9,20000,14.816,,,360,,,,,,,,,,,wg-a,,,,AAXX 03094 07790 12/70 83608 10170 20090 30015 40029 58013 60006 84055 90900=
07790,1998-05-03 12:00:00,19,1000.2,-2.7,60,11,20000,22.224,,,10,,,,,,,,,,,wg-a,,,,AAXX 03124 07790 12770 /0112 10190 20110 39988 40002 58027 60006 83555 91200=
07790,1998-05-03 15:00:00,18,997.8,-2.4,68,12,20000,25.928,,,360,,,,,,,,,,,wg-a,,,,AAXX 03154 07790 12670 83614 10180 20120 39964 49978 56024 60006 81535 91500=
07790,1998-05-03 18:00:00,16,996.2,-1.6,82,13,20000,29.632,,,350,12.3,20.1,,,,,,,,61,wg-a,,,,AAXX 03184 07790 02570 83516 10160 20130 39948 49962 56016 61000 76162 8587/ 91800 333 10201 20123 6000=
07790,1998-05-03 21:00:00,16,995.9,-0.3,72,11,15000,29.632,,,350,,,,0,,,,,,1,wg-a,,,,AAXX 03214 07790 12565 73516 10160 20110 39945 49959 58003 60007 70162 8587/ 92100=
07790,1998-05-04 00:00:00,14,994.8,-1.1,88,12,15000,22.224,,,340,,,,3,,,,,,61,wg-a,,,,AAXX 04004 07790 02565 73412 10140 20120 39934 49948 58011 60036 76162 8587/ 90000 333 60037=
07790,1998-05-04 03:00:00,14,994.5,-0.3,88,12,9000,14.816,,,330,,,,2,,,,,,61,wg-a,,,,AAXX 04034 07790 12559 73308 10140 20120 39931 49945 55003 60027 76166 8657/ 90300=
07790,1998-05-04 06:00:00,14,995.2,0.7,94,13,9000,7.408,,,300,13.3,16.6,,,,,,,,61,wg-a,,,,AAXX 04064 07790 02459 83004 10140 20130 39938 49952 53007 61000 76166 8657/ 90600 333 10166 20133 6009=
07790,1998-05-04 09:00:00,15,995.8,0.6,82,12,9000,18.52,,,350,,,,,,,,,,3,wg-a,,,,AAXX 04094 07790 02459 83510 10150 20120 39944 49958 53006 61000 70362 8687/ 90900 333 ////=
07790,1998-05-04 12:00:00,18,997,1.2,59,10,15000,7.408,,,280,,,,,,,,,,1,wg-a,,,,AAXX 04124 07790 02565 82804 10180 20100 39956 49970 51012 61000 70162 8653/ 91200 333 ////=
07790,1998-05-04 15:00:00,19,998,1,56,10,15000,18.52,,,320,,,,,,,,,,,wg-a,,,,AAXX 04154 07790 12665 83210 10190 20100 39966 49980 53010 60006 86542 91500=
07790,1998-05-04 18:00:00,17,999.6,1.6,59,9,15000,11.112,,,360,13.6,19.8,,,,,,,,21,wg-a,,,,AAXX 04184 07790 02565 83606 10170 20090 39982 49996 51016 61000 72162 8557/ 91800 333 10198 20136 6100=
07790,1998-05-04 21:00:00,17,1001.4,1.8,63,10,15000,18.52,,,10,,,,,,,,,,60,wg-a,,,,AAXX 04214 07790 02565 80110 10170 20100 30000 40014 51018 61000 76062 8657/ 92100 333 ////=
07790,1998-05-05 00:00:00,16,1001.6,0.2,63,9,15000,3.704,,,50,,,,0,,,,,,21,wg-a,,,,AAXX 05004 07790 02565 80502 10160 20090 30002 40016 53002 60006 72162 8657/ 90000 333 60007=
07790,1998-05-05 03:00:00,15,1001.8,0.2,72,10,15000,14.816,,,200,,,,,,,,,,,wg-a,,,,AAXX 05034 07790 12565 82008 10150 20100 30004 40018 51002 60006 8657/ 90300=
07790,1998-05-05 06:00:00,15,1003.2,1.4,82,12,15000,3.704,,,280,14.3,17.8,,,,,,,,,wg-a,,,,AAXX 05064 07790 02765 82802 10150 20120 30018 40032 53014 60006 8657/ 90600 333 10178 20143 60004=
07790,1998-05-05 09:00:00,18,1004.4,1.2,64,11,15000,11.112,,,70,,,,,,,,,,,wg-a,,,,AAXX 05094 07790 12565 /0706 10180 20110 30030 40044 52012 60006 81132 90900=
07790,1998-05-05 12:00:00,19,1005.6,1.2,64,12,15000,11.112,,,80,,,,,,,,,,,wg-a,,,,AAXX 05124 07790 12565 70806 10190 20120 30042 40056 52012 60006 81282 91200=
07790,1998-05-05 15:00:00,19,1005.3,-0.3,60,11,12000,11.112,,,30,,,,,,,,,,,wg-a,,,,AAXX 05154 07790 12562 70306 10190 20110 30039 40053 58003 60006 81282 91500=
07790,1998-05-05 18:00:00,17,1006.3,1,77,13,10000,3.704,,,50,15.1,19.9,,,,,,,,,wg-a,,,,AAXX 05184 07790 12560 /0502 10170 20130 30049 40063 53010 60006 81402 91800 333 10199 20151=
07790,1998-05-05 21:00:00,13,1007.8,1.5,88,11,16000,7.408,,,230,,,,,,,,,,,wg-a,,,,AAXX 05214 07790 12566 42304 10130 20110 30064 40078 51015 60006 81502 92100=
07790,1998-05-06 00:00:00,11,1008.6,0.8,87,9,15000,7.408,,,240,,,,0,,,,,,,wg-a,,,,AAXX 06004 07790 02/65 32404 10110 20090 30072 40086 51008 60006 80001 90000 333 60007=
07790,1998-05-06 03:00:00,11,1008.8,0.2,94,10,10000,11.112,,,240,,,,,,,,,,,wg-a,,,,AAXX 06034 07790 12460 /2406 10110 20100 30074 40088 53002 60006 85500 90300=
07790,1998-05-06 06:00:00,13,1010.5,1.7,82,10,12000,11.112,,,210,10.6,16.7,,,,,,,,,wg-a,,,,AAXX 06064 07790 02462 22106 10130 20100 30091 40105 53017 60006 81501 90600 333 10167 20106 60004=
07790,1998-05-06 09:00:00,19,1011.6,1.1,68,13,12000,11.112,,,100,,,,,,,,,,,wg-a,,,,AAXX 06094 07790 12562 /1006 10190 20130 30102 40116 52011 60006 81100 90900=
07790,1998-05-06 12:00:00,20,1012.3,0.7,64,13,12000,11.112,,,110,,,,,,,,,,,wg-a,,,,AAXX 06124 07790 12462 /1106 10200 20130 30109 40123 50007 60006 81800 91200=
07790,1998-05-06 15:00:00,20,1012.8,0.5,60,12,8000,14.816,,,140,,,,,,,,,,,wg-a,,,,AAXX 06154 07790 12458 /1408 10200 20120 30114 40128 51005 60006 81803 91500=
07790,1998-05-06 18:00:00,17,1013.7,0.9,77,13,7000,3.704,,,150,13.3,20.2,,,,,,,,,wg-a,,,,AAXX 06184 07790 12557 31502 10170 20130 30123 40137 53009 60006 81531 91800 333 10202 20133=
07790,1998-05-06 21:00:00,14,1015.9,2.2,94,13,10000,3.704,,,240,,,,,,,,,,,wg-a,,,,AAXX 06214 07790 12560 /2402 10140 20130 30145 40159 51022 60006 81530 92100=
07790,1998-05-07 00:00:00,12,1017,1,94,11,7000,7.408,,,240,,,,,,,,,,,wg-a,,,,AAXX 07004 07790 12357 42404 10120 20110 30155 40170 51010 60006 84600 90000=
07790,1998-05-07 03:00:00,11,1017.5,0.5,94,10,8000,7.408,,,240,,,,,,,,,,,wg-a,,,,AAXX 07034 07790 12/58 02404 10110 20100 30160 40175 53005 60006 80000 90300=
07790,1998-05-07 06:00:00,14,1019.6,2.2,88,12,8000,3.704,,,230,10.6,17.3,,,,,,,,,wg-a,,,,AAXX 07064 07790 02558 22302 10140 20120 30182 40196 53022 60006 82130 90600 333 10173 20106 60004=
07790,1998-05-07 09:00:00,18,1021.2,1.6,77,14,12000,11.112,,,80,,,,,,,,,,,wg-a,,,,AAXX 07094 07790 12462 30806 10180 20140 30198 40212 51016 60006 83200 90900=
07790,1998-05-07 12:00:00,20,1021.9,0.7,68,14,12000,7.408,,,70,,,,,,,,,,,wg-a,,,,AAXX 07124 07790 12462 20704 10200 20140 30205 40219 51007 60006 82200 91200=
07790,1998-05-07 15:00:00,20,1022,0.1,68,14,15000,7.408,,,120,,,,,,,,,,,wg-a,,,,AAXX 07154 07790 12565 /1204 10200 20140 30206 40220 53001 60006 81200 91500=
07790,1998-05-07 18:00:00,18,1022.8,0.8,77,14,15000,3.704,,,130,13.6,20.4,,,,,,,,,wg-a,,,,AAXX 07184 07790 12565 /1302 10180 20140 30214 40228 53008 60006 81100 91800 333 10204 20136=
07790,1998-05-07 21:00:00,14,1024.7,1.8,94,13,15000,3.704,,,240,,,,,,,,,,,wg-a,,,,AAXX 07214 07790 12/65 02402 10140 20130 30232 40247 51018 60006 80000 92100=
07790,1998-05-08 00:00:00,13,1025.5,0.8,88,11,15000,7.408,,,240,,,,,,,,,,,wg-a,,,,AAXX 08004 07790 12/65 02404 10130 20110 30240 40255 51008 60006 80000 90000=
07790,1998-05-08 03:00:00,12,1025.8,0.3,88,10,15000,7.408,,,230,,,,,,,,,,,wg-a,,,,AAXX 08034 07790 12265 /2304 10120 20100 30243 40258 52003 60006 81500 90300=
07790,1998-05-08 06:00:00,15,1026.7,1,88,13,10000,3.704,,,250,11.6,18.2,,,,,,,,,wg-a,,,,AAXX 08064 07790 02/60 02502 10150 20130 30253 40267 53010 60006 80000 90600 333 10182 20116 60004=
07790,1998-05-08 09:00:00,19,1027.6,0.9,68,13,15000,11.112,,,30,,,,,,,,,,,wg-a,,,,AAXX 08094 07790 12565 /0306 10190 20130 30262 40276 51009 60006 81100 90900=
07790,1998-05-08 12:00:00,20,1027.3,-0.3,60,12,15000,11.112,,,50,,,,,,,,,,,wg-a,,,,AAXX 08124 07790 12565 /0506 10200 20120 30259 40273 58003 60006 81100 91200=
07790,1998-05-08 15:00:00,22,1026.3,-1,53,12,20000,7.408,,,110,,,,,,,,,,,wg-a,,,,AAXX 08154 07790 12570 /1104 10220 20120 30249 40263 58010 60006 81100 91500=
07790,1998-05-08 18:00:00,19,1026.2,-0.1,68,13,20000,7.408,,,110,15.3,22.6,,,,,,,,,wg-a,,,,AAXX 08184 07790 12/70 01104 10190 20130 30248 40262 55001 60006 80000 91800 333 10226 20153=
07790,1998-05-08 21:00:00,14,1027.5,1.2,88,12,18000,3.704,,,260,,,,,,,,,,,wg-a,,,,AAXX 08214 07790 12/68 02602 10140 20120 30260 40275 51012 60006 80000 92100=
07790,1998-05-09 00:00:00,13,1027.1,-0.4,77,9,20000,7.408,,,250,,,,,,,,,,,wg-a,,,,AAXX 09004 07790 12570 /2504 10130 20090 30256 40271 58004 60006 81500 90000=
07790,1998-05-09 03:00:00,12,1026.1,-1,82,9,18000,7.408,,,250,,,,,,,,,,,wg-a,,,,AAXX 09034 07790 12268 /2504 10120 20090 30246 40261 57010 60006 81600 90300=
07790,1998-05-09 06:00:00,15,1026.2,0.2,77,11,15000,3.704,,,230,11.7,19.1,,,,,,,,,wg-a,,,,AAXX 09064 07790 02/65 02302 10150 20110 30248 40262 53002 60006 80000 90600 333 10191 20117 60004=
07790,1998-05-09 09:00:00,22,1025.9,-0.3,43,9,18000,7.408,,,50,,,,,,,,,,,wg-a,,,,AAXX 09094 07790 12/68 10504 10220 20090 30245 40259 56003 60006 80001 90900=
07790,1998-05-09 12:00:00,25,1024.5,-1.4,24,3,18000,11.112,,,40,,,,,,,,,,,wg-a,,,,AAXX 09124 07790 12568 30406 10250 20030 30231 40245 58014 60006 81101 91200=
07790,1998-05-09 15:00:00,23,1023.1,-1.4,53,13,9000,11.112,,,30,,,,,,,,,,,wg-a,,,,AAXX 09154 07790 12/59 20306 10230 20130 30217 40231 58014 60006 80001 91500=
07790,1998-05-09 18:00:00,21,1021.8,-1.3,60,13,9000,3.704,,,140,15.4,25.2,,,,,,,,,wg-a,,,,AAXX 09184 07790 12/59 /1402 10210 20130 30204 40218 56013 60006 80001 91800 333 10252 20154=
07790,1998-05-10 00:00:00,13,1021.6,-0.7,72,8,15000,3.704,,,310,,,,,,,,,,,wg-a,,,,AAXX 10004 07790 12/65 03102 10130 20080 30201 40216 58007 60006 80000 90000=
07790,1998-05-10 03:00:00,13,1020.7,-0.9,82,10,15000,7.408,,,240,,,,,,,,,,,wg-a,,,,AAXX 10034 07790 12/65 02404 10130 20100 30192 40207 56009 60006 80000 90300=
07790,1998-05-10 06:00:00,18,1020.4,-0.2,52,8,12000,14.816,,,230,12.2,20.8,,,,,,,,,wg-a,,,,AAXX 10064 07790 02/62 02308 10180 20080 30190 40204 55002 60006 80000 90600 333 10208 20122 60004=
07790,1998-05-10 09:00:00,24,1020,-0.4,44,11,20000,11.112,,,20,,,,,,,,,,,wg-a,,,,AAXX 10094 07790 12/70 00206 10240 20110 30186 40200 58004 60006 80000 90900=
07790,1998-05-10 12:00:00,24,1018.7,-1.3,54,14,20000,11.112,,,350,,,,,,,,,,,wg-a,,,,AAXX 10124 07790 12/70 03506 10240 20140 30173 40187 57013 60006 80000 91200=
07790,1998-05-10 15:00:00,27,1016.8,-1.9,32,9,20000,11.112,,,20,,,,,,,,,,,wg-a,,,,AAXX 10154 07790 12/70 00206 10270 20090 30154 40168 56019 60006 80000 91500=
07790,1998-05-10 18:00:00,23,1016.1,-0.7,53,13,10000,3.704,,,140,17.9,27,,,,,,,,,wg-a,,,,AAXX 10184 07790 12/60 /1402 10230 20130 30147 40161 56007 60006 91800 333 10270 20179=
07790,1998-05-10 21:00:00,19,1016.5,0.4,56,10,15000,14.816,,,240,,,,,,,,,,,wg-a,,,,AAXX 10214 07790 12/65 02408 10190 20100 30151 40165 50004 60006 80000 92100=
07790,1998-05-11 00:00:00,16,1016.4,-0.1,68,10,15000,7.408,,,250,,,,,,,,,,,wg-a,,,,AAXX 11004 07790 12/65 02504 10160 20100 30150 40164 58001 60006 80000 90000=
07790,1998-05-11 03:00:00,16,1016.1,-0.3,63,9,10000,7.408,,,240,,,,,,,,,,,wg-a,,,,AAXX 11034 07790 12/60 02404 10160 20090 30147 40161 55003 60006 80000 90300=
07790,1998-05-11 06:00:00,18,1016.8,0.7,68,12,15000,7.408,,,250,14.9,23.4,,,,,,,,,wg-a,,,,AAXX 11064 07790 02/65 02504 10180 20120 30154 40168 53007 60006 80000 90600 333 10234 20149 60004=
07790,1998-05-11 09:00:00,25,1017.5,0.7,44,12,15000,3.704,,,60,,,,,,,,,,,wg-a,,,,AAXX 11094 07790 12/65 00602 10250 20120 30161 40175 51007 60006 80000 90900=
07790,1998-05-11 12:00:00,27,1016.7,-0.8,37,11,20000,7.408,,,60,,,,,,,,,,,wg-a,,,,AAXX 11124 07790 12570 /0604 10270 20110 30153 40167 58008 60006 81101 91200=
07790,1998-05-11 15:00:00,27,1015.9,-0.8,39,12,20000,7.408,,,110,,,,,,,,,,,wg-a,,,,AAXX 11154 07790 12/70 11104 10270 20120 30145 40159 58008 60006 80001 91500=
07790,1998-05-11 18:00:00,23,1015.6,-0.3,61,15,10000,3.704,,,130,18.2,27.1,,,,,,,,,wg-a,,,,AAXX 11184 07790 12/60 /1302 10230 20150 30142 40156 55003 60006 91800 333 10271 20182=
07790,1998-05-11 21:00:00,17,1017,1.4,77,13,20000,3.704,,,280,,,,,,,,,,,wg-a,,,,AAXX 11214 07790 12/70 02802 10170 20130 30156 40170 52014 60006 80000 92100=
07790,1998-05-12 00:00:00,16,1017.1,0.1,68,10,20000,11.112,,,230,,,,,,,,,,,wg-a,,,,AAXX 12004 07790 12/70 02306 10160 20100 30157 40171 50001 60006 80000 90000=
07790,1998-05-12 03:00:00,16,1017,-0.1,59,8,20000,7.408,,,250,,,,,,,,,,,wg-a,,,,AAXX 12034 07790 12/70 02504 10160 20080 30156 40170 55001 60006 80000 90300=
07790,1998-05-12 06:00:00,19,1017.3,0.3,56,10,20000,11.112,,,230,15.7,23,,,,,,,,,wg-a,,,,AAXX 12064 07790 02/70 12306 10190 20100 30159 40173 53003 60006 80001 90600 333 10230 20157 60004=
07790,1998-05-12 09:00:00,26,1018.1,0.8,39,11,20000,7.408,,,90,,,,,,,,,,,wg-a,,,,AAXX 12094 07790 12/70 40904 10260 20110 30167 40181 51008 60006 80001 90900=
07790,1998-05-12 12:00:00,26,1018.2,0.1,48,14,20000,7.408,,,100,,,,,,,,,,,wg-a,,,,AAXX 12124 07790 12/70 41004 10260 20140 30168 40182 51001 60006 80001 91200=
07790,1998-05-12 15:00:00,26,1017.2,-1,48,14,20000,7.408,,,100,,,,,,,,,,,wg-a,,,,AAXX 12154 07790 12/70 31004 10260 20140 30158 40172 56010 60006 80001 91500=
07790,1998-05-12 18:00:00,23,1017.2,-0,65,16,20000,0,,,0,19.3,26.7,,,,,,,,,wg-a,,,,AAXX 12184 07790 12/70 40000 10230 20160 30158 40172 55000 60006 80001 91800 333 10267 20193=
07790,1998-05-13 00:00:00,16,1018.7,0,82,13,20000,3.704,,,250,,,,,,,,,,,wg-a,,,,AAXX 13004 07790 12/70 22502 10160 20130 30173 40187 50000 60006 80001 90000=
07790,1998-05-13 03:00:00,17,1018.4,-0.3,68,11,20000,11.112,,,220,,,,,,,,,,,wg-a,,,,AAXX 13034 07790 12/70 32206 10170 20110 30170 40184 58003 60006 80001 90300=
07790,1998-05-13 06:00:00,20,1018.7,0.3,60,12,15000,11.112,,,230,15,23.2,,,,,,,,,wg-a,,,,AAXX 13064 07790 02/65 52306 10200 20120 30173 40187 51003 60006 80004 90600 333 10232 20150 60004=
07790,1998-05-13 09:00:00,25,1019.2,0.5,50,14,15000,11.112,,,40,,,,,,,,,,,wg-a,,,,AAXX 13094 07790 12/65 60406 10250 20140 30178 40192 52005 60006 80004 90900=
07790,1998-05-13 12:00:00,26,1018.8,-0.4,45,13,11000,11.112,,,50,,,,,,,,,,,wg-a,,,,AAXX 13124 07790 12/61 /0506 10260 20130 30174 40188 58004 60006 91200=
07790,1998-05-13 15:00:00,26,1017.5,-1.3,42,12,15000,11.112,,,30,,,,,,,,,,,wg-a,,,,AAXX 13154 07790 12665 60306 10260 20120 30161 40175 56013 60006 81104 91500=
07790,1998-05-13 18:00:00,23,1017.4,-0.1,50,12,13000,3.704,,,50,19.8,27,,,,,,,,,wg-a,,,,AAXX 13184 07790 12/63 40502 10230 20120 30160 40174 55001 60006 80004 91800 333 10270 20198=
07790,1998-05-13 21:00:00,18,1017.4,-0,73,13,12000,3.704,,,230,,,,,,,,,,,wg-a,,,,AAXX 13214 07790 12/62 02302 10180 20130 30160 40174 54000 60006 80000 92100=
07790,1998-05-14 00:00:00,16,1016.7,-0.7,77,12,12000,7.408,,,280,,,,,,,,,,,wg-a,,,,AAXX 14004 07790 12/62 02804 10160 20120 30153 40167 56007 60006 80000 90000=
07790,1998-05-14 03:00:00,17,1015.6,-1.1,63,10,12000,14.816,,,230,,,,,,,,,,,wg-a,,,,AAXX 14034 07790 12/62 02308 10170 20100 30142 40156 56011 60006 80000 90300=
07790,1998-05-14 06:00:00,18,1016.1,0.5,73,13,12000,3.704,,,230,15.3,23.1,,,,,,,,,wg-a,,,,AAXX 14064 07790 02/62 02302 10180 20130 30147 40161 52005 60006 80000 90600 333 10231 20153 60004=
07790,1998-05-14 09:00:00,23,1016.2,0.1,61,15,10000,14.816,,,120,,,,,,,,,,,wg-a,,,,AAXX 14094 07790 12/60 /1208 10230 20150 30148 40162 53001 60006 90900=
07790,1998-05-14 12:00:00,23,1015.2,-1,69,17,7000,14.816,,,140,,,,,,,,,,,wg-a,,,,AAXX 14124 07790 12/57 /1408 10230 20170 30138 40152 58010 60006 91200=
07790,1998-05-14 15:00:00,22,1014.1,-1.1,73,17,8000,11.112,,,140,,,,,,,,,,,wg-a,,,,AAXX 14154 07790 12558 31406 10220 20170 30127 40141 56011 60006 81101 91500=
07790,1998-05-14 18:00:00,20,1013.9,-0.2,83,17,7000,7.408,,,140,18.5,24.7,,,,,,,,,wg-a,,,,AAXX 14184 07790 12/57 31404 10200 20170 30125 40139 55002 60006 80001 91800 333 10247 20185=
07790,1998-05-14 21:00:00,18,1014.8,0.9,88,16,500,3.704,,,270,,,,,,,,,,,wg-a,,,,AAXX 14214 07790 12/00 /2702 10180 20160 30134 40148 53009 60006 92100=
07790,1998-05-15 00:00:00,15,1014.1,-0.7,88,13,6000,7.408,,,240,,,,,,,,,,,wg-a,,,,AAXX 15004 07790 12/56 32404 10150 20130 30127 40141 56007 60006 80001 90000=
07790,1998-05-15 03:00:00,14,1013.4,-0.7,82,11,9000,7.408,,,330,,,,0,,,,,,,wg-a,,,,AAXX 15034 07790 12/59 33304 10140 20110 30120 40134 56007 60007 80001 90300=
07790,1998-05-15 06:00:00,19,1013.2,-0.2,68,13,10000,7.408,,,300,13.4,19.9,,,,,,,,11,wg-a,,,,AAXX 15064 07790 02/60 33004 10190 20130 30118 40132 55002 60006 71100 80001 90600 333 10199 20134 60004=
07790,1998-05-15 09:00:00,22,1013.1,-0.1,65,15,9000,14.816,,,20,,,,,,,,,,,wg-a,,,,AAXX 15094 07790 12/59 50208 10220 20150 30117 40131 58001 60006 83032 90900=
07790,1998-05-15 12:00:00,23,1011.7,-1.4,65,16,8000,18.52,,,30,,,,,,,,,,,wg-a,,,,AAXX 15124 07790 12558 70310 10230 20160 30103 40117 58014 60006 81232 91200=
07790,1998-05-15 15:00:00,24,1009.9,-1.8,47,12,8000,7.408,,,80,,,,,,,,,,,wg-a,,,,AAXX 15154 07790 12558 /0804 10240 20120 30085 40099 58018 60006 81281 91500=
07790,1998-05-15 18:00:00,21,1010.5,0.6,73,16,6000,3.704,,,110,19,24.5,,,,,,,,,wg-a,,,,AAXX 15184 07790 12556 71102 10210 20160 30091 40105 53006 60006 8118/ 91800 333 10245 20190=
07790,1998-05-15 21:00:00,17,1010.7,0.2,88,15,12000,7.408,,,330,,,,,,,,,,,wg-a,,,,AAXX 15214 07790 12562 /3304 10170 20150 30093 40107 53002 60006 81230 92100=
07790,1998-05-16 03:00:00,15,1010.3,0.3,82,12,15000,7.408,,,240,,,,,,,,,,,wg-a,,,,AAXX 16034 07790 12/65 12404 10150 20120 30089 40103 52003 60006 81030 90300=
07790,1998-05-16 06:00:00,18,1010.6,0.3,77,14,9000,7.408,,,250,13.8,21.1,,,,,,,,,wg-a,,,,AAXX 16064 07790 02/59 72504 10180 20140 30092 40106 53003 60006 85082 90600 333 10211 20138 60004=
07790,1998-05-16 09:00:00,21,1011.7,1.1,56,12,18000,18.52,,,30,,,,,,,,,,,wg-a,,,,AAXX 16094 07790 12568 80310 10210 20120 30103 40117 53011 60006 82282 90900=
07790,1998-05-16 12:00:00,20,1012.1,0.4,60,12,25000,18.52,,,30,,,,,,,,,,,wg-a,,,,AAXX 16124 07790 12575 70310 10200 20120 30107 40121 50004 60006 8128/ 91200=
07790,1998-05-16 15:00:00,19,1012.2,0.1,64,12,25000,7.408,,,330,,,,,,,,,,60,wg-a,,,,AAXX 16154 07790 02575 83304 10190 20120 30108 40122 53001 61000 76061 8157/ 91500 333 ////=
07790,1998-05-16 18:00:00,18,1011.7,-0.5,59,10,25000,7.408,,,260,17.9,21.7,,,,,,,,2,wg-a,,,,AAXX 16184 07790 02875 /2604 10180 20100 30103 40117 55005 60006 70261 86080 91800 333 10217 20179 61000=
07790,1998-05-16 21:00:00,15,1013.1,1.4,77,11,25000,7.408,,,230,,,,,,,,,,,wg-a,,,,AAXX 16214 07790 12875 /2304 10150 20110 30117 40131 51014 60006 81080 92100=
07790,1998-05-17 00:00:00,13,1012.7,-0.4,82,10,25000,7.408,,,240,,,,,,,,,,,wg-a,,,,AAXX 17004 07790 12/75 02404 10130 20100 30113 40127 58004 60006 80000 90000=
07790,1998-05-17 03:00:00,12,1012.4,-0.3,82,9,25000,11.112,,,250,,,,,,,,,,,wg-a,,,,AAXX 17034 07790 12875 22506 10120 20090 30110 40124 57003 60006 82030 90300=
07790,1998-05-17 06:00:00,17,1012.6,0.2,55,8,18000,11.112,,,340,11.6,18.3,,,,,,,,,wg-a,,,,AAXX 17064 07790 02568 23406 10170 20080 30112 40126 53002 60006 81231 90600 333 10183 20116 61000=
07790,1998-05-17 09:00:00,19,1013.1,0.5,43,6,10000,7.408,,,80,,,,,,,,,,,wg-a,,,,AAXX 17094 07790 12/60 /0804 10190 20060 30117 40131 51005 60006 90900=
07790,1998-05-17 12:00:00,21,1012.7,-0.4,46,9,20000,11.112,,,100,,,,,,,,,,,wg-a,,,,AAXX 17124 07790 12570 /1006 10210 20090 30113 40127 58004 60006 81200 91200=
07790,1998-05-17 15:00:00,20,1013.6,0.9,53,10,20000,25.928,,,40,,,,,,,,,,,wg-a,,,,AAXX 17154 07790 12570 20414 10200 20100 30122 40136 53009 60006 81231 91500=
07790,1998-05-17 18:00:00,18,1014.3,0.7,59,10,12000,7.408,,,320,17,21.2,,,,,,,,,wg-a,,,,AAXX 17184 07790 12662 63204 10180 20100 30129 40143 51007 60006 81132 91800 333 10212 20170=
07790,1998-05-17 21:00:00,16,1016.8,2.5,59,8,25000,7.408,,,270,,,,,,,,,,,wg-a,,,,AAXX 17214 07790 12675 32704 10160 20080 30154 40168 51025 60006 81582 92100=
07790,1998-05-18 00:00:00,16,1017.6,0.8,51,6,15000,14.816,,,20,,,,,,,,,,,wg-a,,,,AAXX 18004 07790 12665 /0208 10160 20060 30162 40176 50008 60006 82582 90000=
07790,1998-05-18 03:00:00,12,1017.8,0.1,71,7,15000,7.408,,,250,,,,,,,,,,,wg-a,,,,AAXX 18034 07790 12/65 12504 10120 20070 30163 40178 53001 60006 80001 90300=
07790,1998-05-18 06:00:00,16,1019.1,1.4,59,8,25000,7.408,,,250,11,17.7,,,,,,,,,wg-a,,,,AAXX 18064 07790 02/75 12504 10160 20080 30177 40191 52014 60006 80001 90600 333 10177 20110 60004=
07790,1998-05-18 09:00:00,20,1019.1,0,43,7,25000,7.408,,,80,,,,,,,,,,,wg-a,,,,AAXX 18094 07790 12575 /0804 10200 20070 30177 40191 50000 60006 81101 90900=
07790,1998-05-18 12:00:00,20,1019,-0.1,46,8,25000,18.52,,,40,,,,,,,,,,,wg-a,,,,AAXX 18124 07790 12575 /0410 10200 20080 30176 40190 56001 60006 81100 91200=
07790,1998-05-18 15:00:00,22,1018.8,-0.2,33,5,25000,14.816,,,40,,,,,,,,,,,wg-a,,,,AAXX 18154 07790 12575 /0408 10220 20050 30174 40188 57002 60006 81203 91500=
07790,1998-05-18 18:00:00,20,1019.3,0.5,56,11,25000,3.704,,,160,15.9,22.2,,,,,,,,,wg-a,,,,AAXX 18184 07790 12575 /1602 10200 20110 30179 40193 53005 60006 81100 91800 333 10222 20159=
07790,1998-05-18 21:00:00,14,1021,1.7,67,8,25000,7.408,,,220,,,,,,,,,,,wg-a,,,,AAXX 18214 07790 12/75 02204 10140 20080 30196 40210 53017 60006 80000 92100=
07790,1998-05-19 00:00:00,12,1021.3,0.2,62,5,25000,11.112,,,230,,,,,,,,,,,wg-a,,,,AAXX 19004 07790 12/75 02306 10120 20050 30198 40213 50002 60006 80000 90000=
07790,1998-05-19 03:00:00,14,1020.4,-0.9,47,3,25000,18.52,,,240,,,,,,,,,,,wg-a,,,,AAXX 19034 07790 12575 /2410 10140 20030 30189 40204 56009 60006 81500 90300=
07790,1998-05-19 06:00:00,16,1020.3,-0,51,6,20000,11.112,,,250,12.2,19.4,,,,,,,,,wg-a,,,,AAXX 19064 07790 02670 /2506 10160 20060 30189 40203 54000 60006 81500 90600 333 10194 20122 60004=
07790,1998-05-19 09:00:00,22,1020,-0.3,38,7,20000,7.408,,,140,,,,,,,,,,,wg-a,,,,AAXX 19094 07790 12670 11404 10220 20070 30186 40200 58003 60006 81100 90900=
07790,1998-05-19 12:00:00,22,1019.6,-0.4,38,7,25000,11.112,,,100,,,,,,,,,,,wg-a,,,,AAXX 19124 07790 12675 /1006 10220 20070 30182 40196 58004 60006 81100 91200=
07790,1998-05-19 15:00:00,22,1018.6,-1,50,11,25000,11.112,,,130,,,,,,,,,,,wg-a,,,,AAXX 19154 07790 12675 /1306 10220 20110 30172 40186 58010 60006 81200 91500=
07790,1998-05-19 18:00:00,20,1018,-0.6,53,10,25000,3.704,,,160,16.4,23.2,,,,,,,,,wg-a,,,,AAXX 19184 07790 12875 /1602 10200 20100 30166 40180 56006 60006 81030 91800 333 10232 20164=
07790,1998-05-19 21:00:00,16,1019.3,1.3,63,9,20000,11.112,,,230,,,,,,,,,,,wg-a,,,,AAXX 19214 07790 12/70 02306 10160 20090 30179 40193 53013 60006 80000 92100=
07790,1998-05-20 00:00:00,14,1019.1,-0.2,58,6,25000,18.52,,,230,,,,,,,,,,,wg-a,,,,AAXX 20004 07790 12/75 02310 10140 20060 30177 40191 57002 60006 80000 90000=
07790,1998-05-20 03:00:00,14,1018.3,-0.8,55,5,25000,14.816,,,240,,,,,,,,,,,wg-a,,,,AAXX 20034 07790 12/75 02408 10140 20050 30169 40183 58008 60006 80000 90300=
07790,1998-05-20 06:00:00,17,1018.4,0.1,48,6,10000,11.112,,,240,12,20.3,,,,,,,,,wg-a,,,,AAXX 20064 07790 02/60 /2406 10170 20060 30170 40184 53001 60006 90600 333 10203 20120 60004=
07790,1998-05-20 09:00:00,22,1018,-0.4,50,11,25000,14.816,,,80,,,,,,,,,,,wg-a,,,,AAXX 20094 07790 12675 10808 10220 20110 30166 40180 55004 60006 81101 90900=
07790,1998-05-20 12:00:00,23,1017.5,-0.5,53,13,25000,11.112,,,100,,,,,,,,,,,wg-a,,,,AAXX 20124 07790 12675 31006 10230 20130 30161 40175 58005 60006 81103 91200=
07790,1998-05-20 15:00:00,23,1016.8,-0.7,53,13,25000,11.112,,,120,,,,,,,,,,,wg-a,,,,AAXX 20154 07790 12675 /1206 10230 20130 30154 40168 58007 60006 81103 91500=
07790,1998-05-20 18:00:00,20,1016.5,-0.3,73,15,25000,3.704,,,170,16.9,23.1,,,,,,,,,wg-a,,,,AAXX 20184 07790 12/75 61702 10200 20150 30151 40165 55003 60006 80001 91800 333 10231 20169=
07790,1998-05-20 21:00:00,15,1017.4,0.9,82,12,15000,3.704,,,190,,,,,,,,,,,wg-a,,,,AAXX 20214 07790 12/65 01902 10150 20120 30160 40174 53009 60006 80000 92100=
07790,1998-05-21 00:00:00,15,1016.7,-0.7,55,6,15000,14.816,,,240,,,,,,,,,,,wg-a,,,,AAXX 21004 07790 12/65 32408 10150 20060 30153 40167 57007 60006 80001 90000=
07790,1998-05-21 03:00:00,14,1016.2,-0.5,55,5,15000,11.112,,,230,,,,,,,,,,,wg-a,,,,AAXX 21034 07790 12665 22306 10140 20050 30148 40162 56005 60006 82501 90300=
07790,1998-05-21 06:00:00,17,1016.9,0.7,45,5,25000,11.112,,,220,13.8,19.7,,,,,,,,,wg-a,,,,AAXX 21064 07790 02675 22206 10170 20050 30155 40169 53007 60006 81530 90600 333 10197 20138 60004=
07790,1998-05-21 09:00:00,22,1017.3,0.4,53,12,25000,14.816,,,120,,,,,,,,,,,wg-a,,,,AAXX 21094 07790 12675 /1208 10220 20120 30159 40173 53004 60006 81101 90900=
07790,1998-05-21 12:00:00,24,1016.8,-0.5,38,9,25000,11.112,,,120,,,,,,,,,,,wg-a,,,,AAXX 21124 07790 12675 /1206 10240 20090 30154 40168 58005 60006 81101 91200=
07790,1998-05-21 15:00:00,23,1016.3,-0.5,50,12,25000,14.816,,,100,,,,,,,,,,,wg-a,,,,AAXX 21154 07790 12575 /1008 10230 20120 30149 40163 56005 60006 81201 91500=
07790,1998-05-21 18:00:00,21,1015.5,-0.8,56,12,25000,7.408,,,150,16.7,24.1,,,,,,,,,wg-a,,,,AAXX 21184 07790 12675 /1504 10210 20120 30141 40155 57008 60006 81101 91800 333 10241 20167=
07790,1998-05-21 21:00:00,16,1015.9,0.4,77,12,25000,7.408,,,240,,,,,,,,,,,wg-a,,,,AAXX 21214 07790 12/75 02404 10160 20120 30145 40159 50004 60006 80000 92100=
07790,1998-05-22 00:00:00,15,1015.2,-0.7,67,9,25000,7.408,,,230,,,,,,,,,,,wg-a,,,,AAXX 22004 07790 12/75 02304 10150 20090 30138 40152 58007 60006 80000 90000=
07790,1998-05-22 03:00:00,12,1014.7,-0.5,76,8,25000,7.408,,,260,,,,,,,,,,,wg-a,,,,AAXX 22034 07790 12/75 12604 10120 20080 30133 40147 55005 60006 80001 90300=
07790,1998-05-22 06:00:00,16,1014.7,-0,59,8,25000,7.408,,,220,12.2,20.6,,,,,,,,,wg-a,,,,AAXX 22064 07790 02875 12204 10160 20080 30133 40147 55000 60006 81040 90600 333 10206 20122 60004=
07790,1998-05-22 09:00:00,21,1014.5,-0.2,69,15,25000,14.816,,,150,,,,,,,,,,,wg-a,,,,AAXX 22094 07790 12575 /1508 10210 20150 30131 40145 55002 60006 81100 90900=
07790,1998-05-22 12:00:00,23,1013.9,-0.6,44,10,25000,14.816,,,130,,,,,,,,,,,wg-a,,,,AAXX 22124 07790 12575 /1308 10230 20100 30125 40139 58006 60006 81800 91200=
07790,1998-05-22 15:00:00,22,1012.5,-1.4,50,11,25000,11.112,,,110,,,,,,,,,,,wg-a,,,,AAXX 22154 07790 12675 /1106 10220 20110 30111 40125 56014 60006 81200 91500=
07790,1998-05-22 18:00:00,20,1012.1,-0.4,64,13,25000,7.408,,,50,16.2,22.8,,,,,,,,,wg-a,,,,AAXX 22184 07790 12/75 00504 10200 20130 30107 40121 56004 60006 80000 91800 333 10228 20162=
07790,1998-05-22 21:00:00,16,1013.1,1,77,12,25000,3.704,,,260,,,,,,,,,,,wg-a,,,,AAXX 22214 07790 12/75 02602 10160 20120 30117 40131 51010 60006 80000 92100=
07790,1998-05-23 00:00:00,14,1012.7,-0.4,82,11,25000,7.408,,,250,,,,,,,,,,,wg-a,,,,AAXX 23004 07790 12/75 02504 10140 20110 30113 40127 58004 60006 80000 90000=
07790,1998-05-23 06:00:00,17,1012.8,0.4,82,14,15000,7.408,,,220,13.5,20.1,,,,,,,,,wg-a,,,,AAXX 23064 07790 02465 32204 10170 20140 30114 40128 53004 60006 82830 90600 333 10201 20135 60004=
07790,1998-05-23 09:00:00,22,1012.6,-0.2,69,16,15000,14.816,,,70,,,,,,,,,,,wg-a,,,,AAXX 23094 07790 12565 20708 10220 20160 30112 40126 58002 60006 82200 90900=
07790,1998-05-23 12:00:00,22,1012.7,0.1,65,15,13000,11.112,,,70,,,,,,,,,,,wg-a,,,,AAXX 23124 07790 12563 20706 10220 20150 30113 40127 50001 60006 82280 91200=
07790,1998-05-23 15:00:00,23,1011.5,-1.2,61,15,15000,7.408,,,110,,,,,,,,,,,wg-a,,,,AAXX 23154 07790 12565 21104 10230 20150 30101 40115 57012 60006 82801 91500=
07790,1998-05-23 18:00:00,20,1010.8,-0.7,78,16,8000,7.408,,,150,16.8,22.9,,,,,,,,,wg-a,,,,AAXX 23184 07790 12558 41504 10200 20160 30094 40108 56007 60006 8/500 91800 333 10229 20168=
07790,1998-05-23 21:00:00,17,1011.9,1.1,88,15,8000,3.704,,,220,,,,,,,,,,,wg-a,,,,AAXX 23214 07790 12558 52202 10170 20150 30105 40119 53011 60006 84531 92100=
07790,1998-05-24 00:00:00,16,1011.5,-0.4,88,14,6000,7.408,,,230,,,,,,,,,,,wg-a,,,,AAXX 24004 07790 12556 32304 10160 20140 30101 40115 58004 60006 83500 90000=
07790,1998-05-24 03:00:00,17,1010.1,-1.4,82,14,8000,3.704,,,250,,,,,,,,,,,wg-a,,,,AAXX 24034 07790 12558 42502 10170 20140 30087 40101 56014 60006 84500 90300=
07790,1998-05-24 06:00:00,19,1010.1,-0,78,15,6000,3.704,,,240,15.5,20.3,,,,,,,,,wg-a,,,,AAXX 24064 07790 02456 52402 10190 20150 30087 40101 55000 60006 85202 90600 333 10203 20155 60004=
07790,1998-05-24 09:00:00,22,1010,-0.1,65,15,9000,11.112,,,120,,,,,,,,,,,wg-a,,,,AAXX 24094 07790 12459 41206 10220 20150 30086 40100 56001 60006 84900 90900=
07790,1998-05-24 12:00:00,22,1009.1,-0.9,69,16,8000,14.816,,,110,,,,,,,,,,,wg-a,,,,AAXX 24124 07790 12458 81108 10220 20160 30077 40091 56009 60006 85901 91200=
07790,1998-05-24 15:00:00,21,1008.1,-1,73,16,7000,7.408,,,130,,,,,,,,,,21,wg-a,,,,AAXX 24154 07790 02457 81304 10210 20160 30067 40081 58010 61000 72162 8498/ 91500 333 ////=
07790,1998-05-24 18:00:00,20,1007.3,-0.8,78,16,9000,7.408,,,150,18.5,22.8,,,,,,,,3,wg-a,,,,AAXX 24184 07790 12459 71504 10200 20160 30059 40073 56008 60006 70362 81252 91800 333 10228 20185=
07790,1998-05-24 21:00:00,19,1008,0.7,83,16,9000,3.704,,,310,,,,,,,,,,,wg-a,,,,AAXX 24214 07790 12459 /3102 10190 20160 30066 40080 53007 60006 84532 92100=
07790,1998-05-25 00:00:00,17,1007.4,-0.6,88,15,9000,7.408,,,260,,,,,,,,,,,wg-a,,,,AAXX 25004 07790 12459 72604 10170 20150 30060 40074 58006 60006 84532 90000=
07790,1998-05-25 03:00:00,16,1006.1,-1.3,88,14,9000,3.704,,,230,,,,,,,,,,,wg-a,,,,AAXX 25034 07790 12559 72302 10160 20140 30047 40061 56013 60006 84532 90300=
07790,1998-05-25 06:00:00,18,1006.2,0.1,77,14,15000,3.704,,,300,16,20,,,,,,,,,wg-a,,,,AAXX 25064 07790 02565 73002 10180 20140 30048 40062 52001 60006 878// 90600 333 10200 20160 61000=
07790,1998-05-25 09:00:00,21,1006.6,0.4,64,14,15000,18.52,,,30,,,,,,,,,,,wg-a,,,,AAXX 25094 07790 12565 40310 10210 20140 30052 40066 51004 60006 84880 90900=
07790,1998-05-25 12:00:00,22,1006.3,-0.3,65,15,15000,25.928,,,30,,,,,,,,,,,wg-a,,,,AAXX 25124 07790 12565 20314 10220 20150 30049 40063 58003 60006 82382 91200=
07790,1998-05-25 15:00:00,21,1006,-0.3,64,14,15000,7.408,,,30,,,,,,,,,,,wg-a,,,,AAXX 25154 07790 12465 40304 10210 20140 30046 40060 57003 60006 84880 91500=
07790,1998-05-25 18:00:00,20,1006.2,0.2,73,15,8000,3.704,,,170,18.3,22.3,,,,,,,,,wg-a,,,,AAXX 25184 07790 12558 /1702 10200 20150 30048 40062 51002 60006 81100 91800 333 10223 20183=
07790,1998-05-25 21:00:00,18,1007.9,1.7,68,12,15000,11.112,,,300,,,,,,,,,,,wg-a,,,,AAXX 25214 07790 12565 /3006 10180 20120 30065 40079 53017 60006 81100 92100=
07790,1998-05-26 00:00:00,16,1008.1,0.2,72,11,15000,3.704,,,90,,,,,,,,,,,wg-a,,,,AAXX 26004 07790 12565 /0902 10160 20110 30067 40081 51002 60006 81100 90000=
07790,1998-05-26 03:00:00,15,1008,-0.1,77,11,15000,14.816,,,240,,,,,,,,,,,wg-a,,,,AAXX 26034 07790 12565 /2408 10150 20110 30066 40080 58001 60006 81100 90300=
07790,1998-05-26 06:00:00,18,1008.6,0.6,59,10,15000,14.816,,,230,13.1,19.9,,,,,,,,,wg-a,,,,AAXX 26064 07790 02865 22308 10180 20100 30072 40086 53006 60006 82080 90600 333 10199 20131 60004=
07790,1998-05-26 09:00:00,22,1009.5,0.9,57,13,25000,18.52,,,140,,,,,,,,,,,wg-a,,,,AAXX 26094 07790 12675 /1410 10220 20130 30081 40095 53009 60006 81130 90900=
07790,1998-05-26 12:00:00,23,1010,0.5,57,14,25000,22.224,,,150,,,,,,,,,,,wg-a,,,,AAXX 26124 07790 12575 41512 10230 20140 30086 40100 51005 60006 84800 91200=
07790,1998-05-26 15:00:00,23,1009.9,-0.1,53,13,25000,11.112,,,120,,,,,,,,,,,wg-a,,,,AAXX 26154 07790 12675 21206 10230 20130 30085 40099 55001 60006 82880 91500=
07790,1998-05-26 18:00:00,21,1010.5,0.6,69,15,25000,3.704,,,120,18.1,23.8,,,,,,,,,wg-a,,,,AAXX 26184 07790 12675 /1202 10210 20150 30091 40105 53006 60006 81800 91800 333 10238 20181=
07790,1998-05-26 21:00:00,16,1012,1.5,72,11,12000,7.408,,,220,,,,,,,,,,,wg-a,,,,AAXX 26214 07790 12662 /2204 10160 20110 30106 40120 53015 60006 81140 92100=
07790,1998-05-27 00:00:00,16,1012,0,63,9,12000,14.816,,,210,,,,,,,,,,,wg-a,,,,AAXX 27004 07790 12/62 02108 10160 20090 30106 40120 50000 60006 80000 90000=
07790,1998-05-27 03:00:00,14,1012,-0,67,8,17000,11.112,,,220,,,,,,,,,,,wg-a,,,,AAXX 27034 07790 12667 /2206 10140 20080 30106 40120 55000 60006 81500 90300=
07790,1998-05-27 06:00:00,17,1012.8,0.8,59,9,25000,7.408,,,210,13.6,20.8,,,,,,,,,wg-a,,,,AAXX 27064 07790 02575 12104 10170 20090 30114 40128 53008 60006 81530 90600 333 10208 20136 60004=
07790,1998-05-27 09:00:00,22,1013.3,0.5,57,13,25000,18.52,,,140,,,,,,,,,,,wg-a,,,,AAXX 27094 07790 12575 /1410 10220 20130 30119 40133 52005 60006 83880 90900=
07790,1998-05-27 12:00:00,21,1013.7,0.4,73,16,9000,11.112,,,120,,,,,,,,,,,wg-a,,,,AAXX 27124 07790 12459 71206 10210 20160 30123 40137 52004 60006 8588/ 91200=
07790,1998-05-27 15:00:00,21,1012.2,-1.5,73,16,10000,11.112,,,140,,,,,,,,,,,wg-a,,,,AAXX 27154 07790 12460 61406 10210 20160 30108 40122 57015 60006 84884 91500=
07790,1998-05-27 18:00:00,20,1011.8,-0.4,60,12,9000,18.52,,,160,17.4,22.8,,,,,,,,1,wg-a,,,,AAXX 27184 07790 02459 /1610 10200 20120 30104 40118 55004 60006 70161 82882 91800 333 10228 20174 61000=
07790,1998-05-27 21:00:00,17,1012.8,1,82,14,12000,3.704,,,340,,,,,,,,,,,wg-a,,,,AAXX 27214 07790 12562 /3402 10170 20140 30114 40128 53010 60006 81884 92100=
07790,1998-05-28 00:00:00,17,1012.4,-0.4,82,14,0,7.408,,,200,,,,,,,,,,,wg-a,,,,AAXX 28004 07790 12/// /2004 10170 20140 30110 40124 57004 60006 90000=
07790,1998-05-28 03:00:00,17,1010.8,-1.6,88,15,11000,11.112,,,190,,,,,,,,,,,wg-a,,,,AAXX 28034 07790 32/61 /1906 10170 20150 30094 40108 55016 90300=
07790,1998-05-28 06:00:00,18,1011,0.2,94,17,4000,11.112,,,150,15.9,20.1,,,,,,,,60,wg-a,,,,AAXX 28064 07790 02440 81506 10180 20170 30096 40110 51002 61000 76086 8587/ 90600 333 10201 20159 6002=
07790,1998-05-28 09:00:00,18,1011,0,94,17,500,18.52,,,150,,,,29,,,,,,60,wg-a,,,,AAXX 28094 07790 12200 81510 10180 20170 30096 40110 50000 60297 76096 8587/ 90900=
07790,1998-05-28 12:00:00,20,1010.4,-0.6,78,16,7000,22.224,,,150,,,,1,,,,,,1,wg-a,,,,AAXX 28124 07790 02457 71512 10200 20160 30090 40104 58006 60306 70198 8487/ 91200 333 60017=
07790,1998-05-28 15:00:00,20,1009.4,-1,73,15,7000,14.816,,,150,,,,,,,,,,,wg-a,,,,AAXX 28154 07790 12557 71508 10200 20150 30080 40094 58010 60006 8387/ 91500=
07790,1998-05-28 18:00:00,18,1009.8,0.4,88,16,500,0,,,0,16.6,20.8,,,,,,,,61,wg-a,,,,AAXX 28184 07790 02500 80000 10180 20160 30084 40098 53004 61000 76198 8387/ 91800 333 10208 20166 6005=
07790,1998-05-28 21:00:00,17,1009.9,0.1,88,15,9000,7.408,,,200,,,,4,,,,,,21,wg-a,,,,AAXX 28214 07790 12459 82004 10170 20150 30085 40099 51001 60047 72162 8487/ 92100=
07790,1998-05-29 00:00:00,15,1010.2,0.3,94,14,25000,3.704,,,270,,,,,,,,,,3,wg-a,,,,AAXX 29004 07790 12575 82702 10150 20140 30088 40102 53003 60046 70362 8357/ 90000=
07790,1998-05-29 03:00:00,15,1009.7,-0.5,94,14,20000,11.112,,,240,,,,,,,,,,,wg-a,,,,AAXX 29034 07790 12570 /2406 10150 20140 30083 40097 58005 60006 82570 90300=
07790,1998-05-29 06:00:00,17,1010.9,1.2,88,15,20000,7.408,,,270,14.5,17.7,,,,,39,,,,wg-a,,,,AAXX 29064 07790 02570 22704 10170 20150 30095 40109 51012 60006 82800 90600 333 10177 20145 60394=
07790,1998-05-29 09:00:00,22,1011.7,0.8,60,14,20000,11.112,,,120,,,,,,,,,,,wg-a,,,,AAXX 29094 07790 12570 31206 10220 20140 30103 40117 51008 60006 83100 90900=
07790,1998-05-29 12:00:00,21,1012.7,1,69,15,11000,11.112,,,100,,,,,,,,,,,wg-a,,,,AAXX 29124 07790 12/61 /1006 10210 20150 30113 40127 51010 60006 91200=
07790,1998-05-29 15:00:00,19,1013.1,0.4,83,16,10000,11.112,,,310,,,,8,,,,,,25,wg-a,,,,AAXX 29154 07790 12560 73106 10190 20160 30117 40131 51004 60087 72586 84963 91500=
07790,1998-05-29 18:00:00,19,1013.3,0.2,78,15,20000,11.112,,,350,17.4,22.1,,,,,,,,2,wg-a,,,,AAXX 29184 07790 12570 53506 10190 20150 30119 40133 53002 60006 70286 8483/ 91800 333 10221 20174=
07790,1998-05-29 21:00:00,17,1015,1.7,82,14,20000,3.704,,,200,,,,,,,,,,,wg-a,,,,AAXX 29214 07790 12570 32002 10170 20140 30136 40150 53017 60006 8180/ 92100=
07790,1998-05-30 00:00:00,16,1015.2,0.2,82,13,20000,14.816,,,240,,,,,,,,,,,wg-a,,,,AAXX 30004 07790 12570 /2408 10160 20130 30138 40152 51002 60006 8110/ 90000=
07790,1998-05-30 03:00:00,14,1014.9,-0.3,82,11,20000,7.408,,,230,,,,,,,,,,,wg-a,,,,AAXX 30034 07790 12570 /2304 10140 20110 30135 40149 56003 60006 81100 90300=
07790,1998-05-30 06:00:00,17,1015.6,0.7,72,12,18000,11.112,,,230,13,19,,,,,8,,,,wg-a,,,,AAXX 30064 07790 02568 42306 10170 20120 30142 40156 53007 60006 84200 90600 333 10190 20130 60084=
07790,1998-05-30 09:00:00,21,1016.2,0.6,69,15,18000,18.52,,,130,,,,,,,,,,,wg-a,,,,AAXX 30094 07790 12568 61310 10210 20150 30148 40162 51006 60006 84231 90900=
07790,1998-05-30 12:00:00,21,1016.4,0.2,73,16,15000,18.52,,,130,,,,,,,,,,,wg-a,,,,AAXX 30124 07790 12465 71310 10210 20160 30150 40164 51002 60006 8687/ 91200=
07790,1998-05-30 15:00:00,20,1016.4,0,78,16,15000,11.112,,,150,,,,,,,,,,,wg-a,,,,AAXX 30154 07790 12465 71506 10200 20160 30150 40164 50000 60006 8627/ 91500=
07790,1998-05-30 18:00:00,20,1015.7,-0.7,78,16,9000,7.408,,,130,16.5,21.7,,,,,,,,,wg-a,,,,AAXX 30184 07790 12459 /1304 10200 20160 30143 40157 56007 60006 84270 91800 333 10217 20165=
07790,1998-05-30 21:00:00,16,1016.5,0.8,94,15,9000,3.704,,,200,,,,,,,,,,,wg-a,,,,AAXX 30214 07790 12559 22002 10160 20150 30151 40165 51008 60006 82500 92100=
07790,1998-05-31 00:00:00,15,1016.3,-0.2,94,14,9000,7.408,,,240,,,,,,,,,,,wg-a,,,,AAXX 31004 07790 12559 22404 10150 20140 30149 40163 58002 60006 82500 90000=
07790,1998-05-31 03:00:00,14,1015.9,-0.4,88,12,9000,11.112,,,240,,,,,,,,,,,wg-a,,,,AAXX 31034 07790 12459 42406 10140 20120 30145 40159 56004 60006 84500 90300=
07790,1998-05-31 06:00:00,16,1016.4,0.5,88,14,8000,7.408,,,220,13.5,19.6,,,,,,,,,wg-a,,,,AAXX 31064 07790 02458 /2204 10160 20140 30150 40164 53005 60006 85170 90600 333 10196 20135 60004=
07790,1998-05-31 09:00:00,20,1016.5,0.1,78,16,7000,7.408,,,130,,,,,,,,,,,wg-a,,,,AAXX 31094 07790 12457 71304 10200 20160 30151 40165 50001 60006 8487/ 90900=
07790,1998-05-31 12:00:00,21,1015.6,-0.9,78,17,7000,11.112,,,160,,,,,,,,,,,wg-a,,,,AAXX 31124 07790 12457 71606 10210 20170 30142 40156 58009 60006 8387/ 91200=
07790,1998-05-31 15:00:00,22,1015.7,0.1,69,16,9000,11.112,,,20,,,,,,,,,,,wg-a,,,,AAXX 31154 07790 12459 /0206 10220 20160 30143 40157 53001 60006 83232 91500=
07790,1998-05-31 18:00:00,20,1016.2,0.5,78,16,7000,11.112,,,350,16.2,22.5,,,,,,,,,wg-a,,,,AAXX 31184 07790 12557 /3506 10200 20160 30148 40162 51005 60006 81232 91800 333 10225 20162=
07790,1998-05-31 21:00:00,18,1017.3,1.1,88,16,10000,3.704,,,270,,,,,,,,,,,wg-a,,,,AAXX 31214 07790 12560 52702 10180 20160 30159 40173 51011 60006 83832 92100=
07790,1998-06-01 00:00:00,16,1016.9,-0.4,88,14,10000,11.112,,,230,,,,,,,,,,,wg-a,,,,AAXX 01004 07790 12560 52306 10160 20140 30155 40169 56004 60006 83832 90000=
07790,1998-06-01 03:00:00,14,1016.5,-0.4,88,12,12000,7.408,,,240,,,,0,,,,,,,wg-a,,,,AAXX 01034 07790 12562 /2404 10140 20120 30151 40165 57004 60007 81531 90300=
07790,1998-06-01 06:00:00,18,1017.4,0.9,77,14,15000,7.408,,,230,13.8,20.2,,,,,,,,,wg-a,,,,AAXX 01064 07790 02/65 /2304 10180 20140 30160 40174 53009 60006 81031 90600 333 10202 20138 60004=
07790,1998-06-01 09:00:00,22,1018.1,0.7,73,17,16000,11.112,,,80,,,,,,,,,,,wg-a,,,,AAXX 01094 07790 12466 /0806 10220 20170 30167 40181 51007 60006 82201 90900=
07790,1998-06-01 12:00:00,24,1017.9,-0.2,57,15,18000,11.112,,,100,,,,,,,,,,,wg-a,,,,AAXX 01124 07790 12568 41006 10240 20150 30165 40179 58002 60006 82231 91200=
07790,1998-06-01 15:00:00,23,1017.6,-0.3,65,16,18000,7.408,,,110,,,,,,,,,,,wg-a,,,,AAXX 01154 07790 12668 71104 10230 20160 30162 40176 57003 60006 8227/ 91500=
07790,1998-06-01 18:00:00,21,1017.6,-0,73,16,15000,11.112,,,150,17.7,23.7,,,,,,,,,wg-a,,,,AAXX 01184 07790 12565 51506 10210 20160 30162 40176 55000 60006 81101 91800 333 10237 20177=
07790,1998-06-02 00:00:00,16,1017.4,-0.7,88,14,15000,7.408,,,250,,,,,,,,,,,wg-a,,,,AAXX 02004 07790 12/65 02504 10160 20140 30160 40174 58007 60006 80000 90000=
07790,1998-06-02 03:00:00,15,1016.9,-0.5,88,13,15000,7.408,,,240,,,,,,,,,,,wg-a,,,,AAXX 02034 07790 12/65 12404 10150 20130 30155 40169 56005 60006 80001 90300=
07790,1998-06-02 06:00:00,18,1017.8,0.9,83,15,8000,7.408,,,230,14.4,20.9,,,,,,,,,wg-a,,,,AAXX 02064 07790 02458 52304 10180 20150 30164 40178 51009 60006 81505 90600 333 10209 20144 60004=
07790,1998-06-02 09:00:00,22,1018.2,0.4,78,18,9000,11.112,,,150,,,,,,,,,,,wg-a,,,,AAXX 02094 07790 12/59 /1506 10220 20180 30168 40182 51004 60006 90900=
07790,1998-06-02 12:00:00,24,1017.4,-0.8,65,17,9000,18.52,,,140,,,,,,,,,,,wg-a,,,,AAXX 02124 07790 12559 71410 10240 20170 30160 40174 58008 60006 82802 91200=
07790,1998-06-02 15:00:00,23,1017,-0.4,69,17,10000,11.112,,,140,,,,,,,,,,,wg-a,,,,AAXX 02154 07790 12560 71406 10230 20170 30156 40170 58004 60006 82802 91500=
07790,1998-06-02 18:00:00,21,1017.1,0.1,83,18,10000,11.112,,,150,18,24,,,,,,,,,wg-a,,,,AAXX 02184 07790 12/60 41506 10210 20180 30157 40171 53001 60006 80002 91800 333 10240 20180=
07790,1998-06-02 21:00:00,19,1016.8,-0.3,94,18,4000,7.408,,,160,,,,,,,,,,,wg-a,,,,AAXX 02214 07790 12/40 /1604 10190 20180 30154 40168 57003 60006 80002 92100=
07790,1998-06-03 00:00:00,18,1016.1,-0.7,94,17,4000,3.704,,,190,,,,,,,,,,,wg-a,,,,AAXX 03004 07790 12340 /1902 10180 20170 30147 40161 58007 60006 84602 90000=
07790,1998-06-03 03:00:00,17,1015.1,-1,94,16,4000,3.704,,,230,,,,,,,,,,,wg-a,,,,AAXX 03034 07790 12340 42302 10170 20160 30137 40151 57010 60006 84600 90300=
07790,1998-06-03 06:00:00,19,1016.5,1.4,94,18,500,3.704,,,180,15.9,20.9,,,,,,,,,wg-a,,,,AAXX 03064 07790 02300 /1802 10190 20180 30151 40165 52014 60006 83631 90600 333 10209 20159 60004=
07790,1998-06-03 09:00:00,23,1017,0.5,73,18,9000,7.408,,,120,,,,,,,,,,,wg-a,,,,AAXX 03094 07790 12459 31204 10230 20180 30156 40170 51005 60006 83601 90900=
07790,1998-06-03 12:00:00,24,1016.3,-0.7,74,19,8000,7.408,,,150,,,,,,,,,,,wg-a,,,,AAXX 03124 07790 12458 71504 10240 20190 30149 40163 58007 60006 86801 91200=
07790,1998-06-03 15:00:00,23,1016.2,-0.1,78,19,8000,7.408,,,170,,,,,,,,,,,wg-a,,,,AAXX 03154 07790 12458 71704 10230 20190 30148 40162 58001 60006 84983 91500=
07790,1998-06-03 18:00:00,22,1015.8,-0.4,83,19,8000,3.704,,,150,19.2,24.5,,,,,,,,,wg-a,,,,AAXX 03184 07790 12458 /1502 10220 20190 30144 40158 58004 60006 83183 91800 333 10245 20192=
07790,1998-06-03 21:00:00,20,1016.2,0.4,88,18,9000,3.704,,,270,,,,,,,,,,,wg-a,,,,AAXX 03214 07790 12759 32702 10200 20180 30148 40162 53004 60006 81502 92100=
07790,1998-06-04 00:00:00,17,1015.9,-0.3,94,16,15000,3.704,,,250,,,,,,,,,,,wg-a,,,,AAXX 04004 07790 12/65 02502 10170 20160 30145 40159 58003 60006 80000 90000=
07790,1998-06-04 03:00:00,18,1016.1,0.2,94,17,12000,7.408,,,250,,,,,,,,,,,wg-a,,,,AAXX 04034 07790 12362 /2504 10180 20170 30147 40161 50002 60006 86600 90300=
07790,1998-06-04 06:00:00,20,1017.1,1,88,18,12000,3.704,,,250,16.6,21.8,,,,,,,,,wg-a,,,,AAXX 04064 07790 02562 72502 10200 20180 30157 40171 53010 60006 81684 90600 333 10218 20166 60004=
07790,1998-06-04 09:00:00,24,1016.8,-0.3,78,20,12000,7.408,,,80,,,,,,,,,,,wg-a,,,,AAXX 04094 07790 12462 /0804 10240 20200 30154 40168 58003 60006 81682 90900=
07790,1998-06-04 12:00:00,25,1016.7,-0.1,74,20,9000,11.112,,,140,,,,,,,,,,,wg-a,,,,AAXX 04124 07790 12459 71406 10250 20200 30153 40167 58001 60006 83282 91200=
07790,1998-06-04 15:00:00,23,1016.8,0.1,83,20,9000,7.408,,,140,,,,,,,,,,,wg-a,,,,AAXX 04154 07790 12459 71404 10230 20200 30154 40168 53001 60006 8398/ 91500=
07790,1998-06-04 18:00:00,23,1016.4,-0.4,83,20,8000,11.112,,,140,20,27.2,,,,,,,,,wg-a,,,,AAXX 04184 07790 12358 71406 10230 20200 30150 40164 56004 60006 82682 91800 333 10272 20200=
07790,1998-06-04 21:00:00,21,1017.1,0.7,94,20,11000,3.704,,,140,,,,,,,,,,,wg-a,,,,AAXX 04214 07790 12/61 /1402 10210 20200 30157 40171 51007 60006 92100=
07790,1998-06-05 00:00:00,20,1016.7,-0.4,94,19,0,3.704,,,310,,,,,,,,,,,wg-a,,,,AAXX 05004 07790 12/// /3102 10200 20190 30153 40167 58004 60006 90000=
07790,1998-06-05 03:00:00,19,1016.7,-0,94,18,11000,3.704,,,230,,,,,,,,,,,wg-a,,,,AAXX 05034 07790 12/61 /2302 10190 20180 30153 40167 54000 60006 90300=
07790,1998-06-05 06:00:00,21,1017.2,0.5,83,18,7000,3.704,,,190,18.6,23.2,,,,,,,,,wg-a,,,,AAXX 05064 07790 02257 21902 10210 20180 30158 40172 50005 60006 82531 90600 333 10232 20186 60004=
07790,1998-06-05 09:00:00,28,1017,-0.2,45,15,10000,29.632,,,160,,,,,,,,,,,wg-a,,,,AAXX 05094 07790 12/60 01616 10280 20150 30156 40170 58002 60006 80000 90900=
07790,1998-06-05 12:00:00,30,1016.6,-0.4,31,11,10000,25.928,,,140,,,,,,,,,,,wg-a,,,,AAXX 05124 07790 12/60 01414 10300 20110 30152 40166 58004 60006 80000 91200=
07790,1998-06-05 15:00:00,27,1016.7,0.1,54,17,10000,18.52,,,150,,,,,,,,,,,wg-a,,,,AAXX 05154 07790 12/60 01510 10270 20170 30153 40167 50001 60006 80000 91500=
07790,1998-06-05 18:00:00,25,1016,-0.7,61,17,12000,3.704,,,160,20.5,30.1,,,,,,,,,wg-a,,,,AAXX 05184 07790 12/62 11602 10250 20170 30146 40160 56007 60006 80001 91800 333 10301 20205=
07790,1998-06-05 21:00:00,22,1017.2,1.2,60,14,20000,3.704,,,160,,,,,,,,,,,wg-a,,,,AAXX 05214 07790 12/70 01602 10220 20140 30158 40172 51012 60006 80000 92100=
07790,1998-06-06 00:00:00,18,1016.4,-0.8,77,14,20000,3.704,,,240,,,,,,,,,,,wg-a,,,,AAXX 06004 07790 12/70 02402 10180 20140 30150 40164 58008 60006 80000 90000=
07790,1998-06-06 03:00:00,18,1015.4,-1,83,15,20000,3.704,,,320,,,,,,,,,,,wg-a,,,,AAXX 06034 07790 12/70 23202 10180 20150 30140 40154 57010 60006 80001 90300=
07790,1998-06-06 06:00:00,21,1016,0.6,78,17,15000,3.704,,,200,16.6,24.8,,,,,,,,,wg-a,,,,AAXX 06064 07790 02/65 72002 10210 20170 30146 40160 53006 60006 80004 90600 333 10248 20166 60004=
07790,1998-06-06 09:00:00,26,1016.1,0.1,61,18,17000,18.52,,,140,,,,,,,,,,,wg-a,,,,AAXX 06094 07790 12/67 /1410 10260 20180 30147 40161 53001 60006 81089 90900=
07790,1998-06-06 12:00:00,27,1015.6,-0.5,54,17,10000,18.52,,,150,,,,,,,,,,,wg-a,,,,AAXX 06124 07790 12/60 /1510 10270 20170 30142 40156 58005 60006 91200=
07790,1998-06-06 15:00:00,25,1015.3,-0.3,74,20,17000,11.112,,,140,,,,,,,,,,,wg-a,,,,AAXX 06154 07790 12767 81406 10250 20200 30139 40153 56003 60006 85887 91500=
07790,1998-06-06 18:00:00,23,1015,-0.3,83,20,8000,7.408,,,110,21.2,27.2,,,,,,,,,wg-a,,,,AAXX 06184 07790 12458 81104 10230 20200 30136 40150 55003 60006 8167/ 91800 333 10272 20212=
07790,1998-06-06 21:00:00,21,1015.5,0.5,88,19,10000,3.704,,,280,,,,,,,,,,,wg-a,,,,AAXX 06214 07790 12460 22802 10210 20190 30141 40155 51005 60006 81631 92100=
07790,1998-06-07 00:00:00,20,1015.2,-0.3,88,18,10000,7.408,,,250,,,,,,,,,,,wg-a,,,,AAXX 07004 07790 12460 /2504 10200 20180 30138 40152 58003 60006 82631 90000=
07790,1998-06-07 03:00:00,21,1014.2,-1,78,17,10000,7.408,,,190,,,,,,,,,,,wg-a,,,,AAXX 07034 07790 12460 71904 10210 20170 30128 40142 56010 60006 8587/ 90300=
07790,1998-06-07 06:00:00,22,1014.9,0.7,88,20,6000,14.816,,,20,19.3,23,,,,,,,,,wg-a,,,,AAXX 07064 07790 02556 70208 10220 20200 30135 40149 51007 60006 82571 90600 333 10230 20193 60004=
07790,1998-06-07 09:00:00,24,1015.6,0.7,78,20,9000,14.816,,,110,,,,,,,,,,,wg-a,,,,AAXX 07094 07790 12/59 /1108 10240 20200 30142 40156 51007 60006 90900=
07790,1998-06-07 12:00:00,25,1015.2,-0.4,74,20,12000,14.816,,,100,,,,,,,,,,,wg-a,,,,AAXX 07124 07790 12462 51008 10250 20200 30138 40152 58004 60006 84201 91200=
07790,1998-06-07 15:00:00,24,1014.6,-0.6,74,19,12000,11.112,,,20,,,,,,,,,,,wg-a,,,,AAXX 07154 07790 12462 50206 10240 20190 30132 40146 58006 60006 84230 91500=
07790,1998-06-07 18:00:00,23,1014.6,-0,69,17,11000,14.816,,,340,21.8,25.5,,,,,,,,,wg-a,,,,AAXX 07184 07790 12/61 /3408 10230 20170 30132 40146 55000 60006 91800 333 10255 20218=
07790,1998-06-07 21:00:00,21,1015.3,0.7,83,18,14000,11.112,,,250,,,,,,,,,,,wg-a,,,,AAXX 07214 07790 12564 /2506 10210 20180 30139 40153 51007 60006 85800 92100=
07790,1998-06-08 00:00:00,20,1015.4,0.1,83,17,14000,11.112,,,220,,,,,,,,,,,wg-a,,,,AAXX 08004 07790 12564 /2206 10200 20170 30140 40154 50001 60006 81530 90000=
07790,1998-06-08 03:00:00,19,1015,-0.4,83,16,14000,11.112,,,240,,,,,,,,,,,wg-a,,,,AAXX 08034 07790 12664 /2406 10190 20160 30136 40150 55004 60006 81500 90300=
07790,1998-06-08 06:00:00,21,1015.6,0.6,73,16,20000,7.408,,,200,18.5,23,,,,,,,,,wg-a,,,,AAXX 08064 07790 02/70 02004 10210 20160 30142 40156 52006 60006 80000 90600 333 10230 20185 60004=
07790,1998-06-08 09:00:00,25,1016.1,0.5,69,19,18000,18.52,,,150,,,,,,,,,,,wg-a,,,,AAXX 08094 07790 12568 21510 10250 20190 30147 40161 52005 60006 82200 90900=
07790,1998-06-08 12:00:00,25,1016.4,0.3,69,19,18000,11.112,,,120,,,,,,,,,,,wg-a,,,,AAXX 08124 07790 12468 51206 10250 20190 30150 40164 51003 60006 84301 91200=
07790,1998-06-08 15:00:00,25,1016.2,-0.2,50,14,18000,14.816,,,340,,,,,,,,,,,wg-a,,,,AAXX 08154 07790 12768 43408 10250 20140 30148 40162 58002 60006 81431 91500=
07790,1998-06-08 18:00:00,23,1016,-0.2,61,15,10000,11.112,,,360,21.3,25.9,,,,,,,,,wg-a,,,,AAXX 08184 07790 12660 33606 10230 20150 30146 40160 55002 60006 81831 91800 333 10259 20213=
07790,1998-06-08 21:00:00,19,1016.9,0.9,78,15,15000,11.112,,,240,,,,,,,,,,,wg-a,,,,AAXX 08214 07790 12665 32406 10190 20150 30155 40169 53009 60006 81501 92100=
07790,1998-06-09 03:00:00,17,1016.6,-0.7,82,14,15000,14.816,,,240,,,,,,,,,,,wg-a,,,,AAXX 09034 07790 12/65 42408 10170 20140 30152 40166 57007 60006 80001 90300=
07790,1998-06-09 06:00:00,20,1016.8,0.2,68,14,15000,11.112,,,230,17.2,23.4,,,,,,,,,wg-a,,,,AAXX 09064 07790 02/65 72306 10200 20140 30154 40168 52002 60006 80001 90600 333 10234 20172 60004=
07790,1998-06-09 09:00:00,24,1016.8,0,65,17,15000,14.816,,,110,,,,,,,,,,,wg-a,,,,AAXX 09094 07790 12665 /1108 10240 20170 30154 40168 50000 60006 82131 90900=
07790,1998-06-09 12:00:00,24,1016.3,-0.5,69,18,15000,11.112,,,130,,,,,,,,,,,wg-a,,,,AAXX 09124 07790 12565 /1306 10240 20180 30149 40163 58005 60006 83131 91200=
07790,1998-06-09 15:00:00,24,1014.9,-1.4,69,18,15000,11.112,,,100,,,,,,,,,,,wg-a,,,,AAXX 09154 07790 12565 /1006 10240 20180 30135 40149 58014 60006 84131 91500=
07790,1998-06-09 18:00:00,22,1013.9,-1,78,18,15000,0,,,0,19.6,24.7,,,,,,,,,wg-a,,,,AAXX 09184 07790 12565 /0000 10220 20180 30125 40139 56010 60006 86501 91800 333 10247 20196=
07790,1998-06-09 21:00:00,19,1014.6,0.7,88,17,7000,3.704,,,320,,,,,,,,,,,wg-a,,,,AAXX 09214 07790 12457 23202 10190 20170 30132 40146 53007 60006 82531 92100=
07790,1998-06-10 00:00:00,18,1013.8,-0.8,94,17,9000,11.112,,,240,,,,,,,,,,,wg-a,,,,AAXX 10004 07790 12/59 /2406 10180 20170 30124 40138 58008 60006 90000=
07790,1998-06-10 03:00:00,16,1012.7,-1.1,88,14,12000,0,,,0,,,,,,,,,,,wg-a,,,,AAXX 10034 07790 12662 /0000 10160 20140 30113 40127 56011 60006 81101 90300=
07790,1998-06-10 06:00:00,20,1012.3,-0.4,78,16,15000,7.408,,,230,14.8,22.2,,,,,,,,,wg-a,,,,AAXX 10064 07790 02565 12304 10200 20160 30109 40123 55004 60006 81501 90600 333 10222 20148 60004=
07790,1998-06-10 09:00:00,24,1012,-0.3,69,18,15000,11.112,,,120,,,,,,,,,,,wg-a,,,,AAXX 10094 07790 12465 21206 10240 20180 30106 40120 58003 60006 82201 90900=
07790,1998-06-10 12:00:00,24,1011.4,-0.6,69,18,12000,11.112,,,90,,,,,,,,,,,wg-a,,,,AAXX 10124 07790 12562 40906 10240 20180 30100 40114 58006 60006 83201 91200=
07790,1998-06-10 15:00:00,23,1009.6,-1.8,73,18,10000,11.112,,,130,,,,,,,,,,,wg-a,,,,AAXX 10154 07790 12560 51306 10230 20180 30082 40096 56018 60006 85501 91500=
07790,1998-06-10 18:00:00,23,1008.7,-0.9,73,18,9000,7.408,,,130,19.7,24.5,,,,,,,,,wg-a,,,,AAXX 10184 07790 12559 71304 10230 20180 30073 40087 55009 60006 86531 91800 333 10245 20197=
07790,1998-06-10 21:00:00,21,1009.5,0.8,83,18,15000,14.816,,,350,,,,,,,,,,,wg-a,,,,AAXX 10214 07790 12565 73508 10210 20180 30081 40095 51008 60006 875// 92100=
07790,1998-06-11 00:00:00,20,1007.9,-1.6,88,18,0,7.408,,,270,,,,,,,,,,,wg-a,,,,AAXX 11004 07790 12/// /2704 10200 20180 30065 40079 56016 60006 90000=
07790,1998-06-11 03:00:00,20,1005,-2.9,94,19,12000,0,,,0,,,,2,,,,,,21,wg-a,,,,AAXX 11034 07790 12462 80000 10200 20190 30036 40050 56029 60027 72162 8687/ 90300=
07790,1998-06-11 06:00:00,19,1004.6,-0.4,94,18,15000,3.704,,,330,18.7,22.5,,,,,2,,,1,wg-a,,,,AAXX 11064 07790 02565 73302 10190 20180 30032 40046 55004 60006 70162 83872 90600 333 10225 20187 60024=
07790,1998-06-11 09:00:00,25,1004,-0.6,65,18,25000,14.816,,,100,,,,,,,,,,,wg-a,,,,AAXX 11094 07790 12575 31008 10250 20180 30026 40040 58006 60006 83240 90900=
07790,1998-06-11 12:00:00,27,1003.5,-0.5,42,13,500,18.52,,,120,,,,,,,,,,,wg-a,,,,AAXX 11124 07790 12600 /1210 10270 20130 30021 40035 58005 60006 81200 91200=
07790,1998-06-11 15:00:00,26,1003.1,-0.4,26,5,500,25.928,,,250,,,,,,,,,,,wg-a,,,,AAXX 11154 07790 12600 /2514 10260 20050 30017 40031 56004 60006 81200 91500=
07790,1998-06-11 18:00:00,23,1003.4,0.3,31,5,60000,25.928,,,260,19.3,27.6,,,,,,,,,wg-a,,,,AAXX 11184 07790 12686 /2614 10230 20050 30020 40034 53003 60006 81100 91800 333 10276 20193=
07790,1998-06-11 21:00:00,19,1005,1.6,37,4,500,3.704,,,220,,,,,,,,,,,wg-a,,,,AAXX 11214 07790 12600 /2202 10190 20040 30036 40050 53016 60006 81140 92100=
07790,1998-06-12 00:00:00,19,1004.5,-0.5,37,4,25000,14.816,,31.484,230,,,,,,,,,,,wg-a,,,,AAXX 12004 07790 12675 /2308 10190 20040 30031 40045 58005 60006 81140 90000 333 91017=
07790,1998-06-12 03:00:00,17,1003.3,-1.2,45,5,15000,25.928,,53.708,300,,,,,,,,,,,wg-a,,,,AAXX 12034 07790 12565 23014 10170 20050 30019 40033 57012 60006 82140 90300 333 91029=
07790,1998-06-12 06:00:00,18,1003.3,-0,42,5,500,14.816,,75.932,360,16,22.4,,,,,,,,,wg-a,,,,AAXX 12064 07790 02500 23608 10180 20050 30019 40033 55000 60006 82240 90600 333 10224 20160 60004 91041=
07790,1998-06-12 09:00:00,20,1005.2,1.9,40,6,25000,14.816,,,260,,,,,,,,,,,wg-a,,,,AAXX 12094 07790 12575 82608 10200 20060 30038 40052 53019 60006 86903 90900=
07790,1998-06-12 12:00:00,17,1006.9,1.7,63,10,20000,7.408,,,60,,,,2,,,,,,25,wg-a,,,,AAXX 12124 07790 02570 /0604 10170 20100 30055 40069 50017 60026 72598 85900 91200 333 60027=
07790,1998-06-12 15:00:00,21,1007.3,0.4,35,5,15000,29.632,,,330,,,,,,,,,,15,wg-a,,,,AAXX 12154 07790 12565 /3316 10210 20050 30059 40073 53004 60006 71522 86900 91500=
07790,1998-06-12 18:00:00,22,1007.3,-0,27,2,40000,29.632,,50.004,290,14.9,22.8,,,,,,,,,wg-a,,,,AAXX 12184 07790 12582 32916 10220 20020 30059 40073 55000 60006 83200 91800 333 10228 20149 91027=
07790,1998-06-12 21:00:00,19,1009.9,2.6,37,4,25000,18.52,,57.412,340,,,,,,,,,,,wg-a,,,,AAXX 12214 07790 12575 33410 10190 20040 30085 40099 51026 60006 83800 92100 333 91031=
07790,1998-06-13 00:00:00,17,1011.4,1.5,48,6,25000,7.408,,57.412,290,,,,,,,,,,,wg-a,,,,AAXX 13004 07790 12675 22904 10170 20060 30100 40114 51015 60006 82500 90000 333 91031=
07790,1998-06-13 03:00:00,16,1011.5,0.1,48,5,25000,11.112,,,90,,,,,,,,,,,wg-a,,,,AAXX 13034 07790 12675 20906 10160 20050 30101 40115 53001 60006 82500 90300=
07790,1998-06-13 06:00:00,20,1012.3,0.8,49,9,35000,11.112,,,260,14.8,21.8,,,,,2,,,,wg-a,,,,AAXX 13064 07790 02581 /2606 10200 20090 30109 40123 53008 60006 81500 90600 333 10218 20148 60024=
07790,1998-06-13 12:00:00,23,1013.7,0.8,50,12,50000,14.816,,,140,,,,,,,,,,,wg-a,,,,AAXX 13124 07790 12684 /1408 10230 20120 30123 40137 51008 60006 81200 91200=
07790,1998-06-13 15:00:00,21,1014,0.3,49,10,50000,14.816,,,50,,,,,,,,,,,wg-a,,,,AAXX 13154 07790 12684 30508 10210 20100 30126 40140 53003 60006 83800 91500=
07790,1998-06-13 18:00:00,21,1014.1,0.1,49,10,50000,18.52,,,330,19.5,23.5,,,,,,,,,wg-a,,,,AAXX 13184 07790 12684 23310 10210 20100 30127 40141 53001 60006 82800 91800 333 10235 20195=
07790,1998-06-13 21:00:00,17,1014.8,0.7,55,8,500,7.408,,,220,,,,,,,,,,,wg-a,,,,AAXX 13214 07790 12500 /2204 10170 20080 30134 40148 53007 60006 81100 92100=
07790,1998-06-14 00:00:00,16,1015,0.2,48,5,500,14.816,,,250,,,,,,,,,,,wg-a,,,,AAXX 14004 07790 12/00 02508 10160 20050 30136 40150 50002 60006 80000 90000=
07790,1998-06-14 03:00:00,15,1014.4,-0.6,55,6,500,14.816,,,240,,,,,,,,,,,wg-a,,,,AAXX 14034 07790 12500 22408 10150 20060 30130 40144 56006 60006 81201 90300=
07790,1998-06-14 06:00:00,17,1014.5,0.1,52,7,40000,7.408,,,210,14.1,20.6,,,,,,,,,wg-a,,,,AAXX 14064 07790 02582 22104 10170 20070 30131 40145 52001 60006 81101 90600 333 10206 20141 60004=
07790,1998-06-14 09:00:00,21,1014.8,0.3,53,11,40000,22.224,,,140,,,,,,,,,,,wg-a,,,,AAXX 14094 07790 12682 31412 10210 20110 30134 40148 53003 60006 83200 90900=
07790,1998-06-14 12:00:00,22,1015,0.2,53,12,11000,18.52,,,120,,,,,,,,,,,wg-a,,,,AAXX 14124 07790 12661 /1210 10220 20120 30136 40150 53002 60006 85500 91200=
07790,1998-06-14 15:00:00,22,1014.8,-0.2,53,12,40000,11.112,,,90,,,,,,,,,,,wg-a,,,,AAXX 14154 07790 12582 40906 10220 20120 30134 40148 56002 60006 84800 91500=
07790,1998-06-14 18:00:00,21,1014.7,-0.1,56,12,40000,7.408,,,190,17.4,23.1,,,,,,,,,wg-a,,,,AAXX 14184 07790 12682 51904 10210 20120 30133 40147 55001 60006 81531 91800 333 10231 20174=
07790,1998-06-15 00:00:00,15,1015.7,-0.1,82,12,20000,7.408,,,250,,,,,,,,,,,wg-a,,,,AAXX 15004 07790 12670 22504 10150 20120 30143 40157 58001 60006 81530 90000=
07790,1998-06-15 03:00:00,15,1015.5,-0.2,82,12,20000,7.408,,,230,,,,,,,,,,,wg-a,,,,AAXX 15034 07790 12670 52304 10150 20120 30141 40155 55002 60006 81531 90300=
07790,1998-06-15 06:00:00,19,1015.5,0,73,14,18000,3.704,,,230,14.5,21.2,,,,,,,,,wg-a,,,,AAXX 15064 07790 02468 /2302 10190 20140 30141 40155 50000 60006 84801 90600 333 10212 20145 60004=
07790,1998-06-15 09:00:00,21,1016.2,0.7,73,16,15000,11.112,,,180,,,,,,,,,,,wg-a,,,,AAXX 15094 07790 12465 71806 10210 20160 30148 40162 53007 60006 84831 90900=
07790,1998-06-15 12:00:00,21,1016.2,-0,73,16,15000,14.816,,,160,,,,,,,,,,,wg-a,,,,AAXX 15124 07790 12565 81608 10210 20160 30148 40162 55000 60006 8483/ 91200=
07790,1998-06-15 15:00:00,21,1016.2,0,73,16,15000,11.112,,,170,,,,,,,,,,3,wg-a,,,,AAXX 15154 07790 02465 81706 10210 20160 30148 40162 50000 61000 70362 8487/ 91500 333 ////=
07790,1998-06-15 18:00:00,21,1015.8,-0.4,73,16,20000,7.408,,,140,18.6,22.2,,,,,,,,3,wg-a,,,,AAXX 15184 07790 12470 51404 10210 20160 30144 40158 55004 60006 70361 82632 91800 333 10222 20186=
07790,1998-06-15 21:00:00,19,1016.7,0.9,78,15,20000,3.704,,,310,,,,,,,,,,,wg-a,,,,AAXX 15214 07790 12670 /3102 10190 20150 30153 40167 53009 60006 81530 92100=
07790,1998-06-16 00:00:00,19,1016.8,0.1,73,14,15000,18.52,,,340,,,,,,,,,,,wg-a,,,,AAXX 16004 07790 12665 73410 10190 20140 30154 40168 50001 60006 8357/ 90000=
07790,1998-06-16 03:00:00,18,1016,-0.8,77,14,25000,7.408,,,230,,,,,,,,,,,wg-a,,,,AAXX 16034 07790 12675 /2304 10180 20140 30146 40160 56008 60006 8157/ 90300=
07790,1998-06-16 06:00:00,20,1016.7,0.7,60,12,25000,3.704,,,260,16.4,21,,,,,,,,,wg-a,,,,AAXX 16064 07790 02475 22602 10200 20120 30153 40167 52007 60006 81130 90600 333 10210 20164 61000=
07790,1998-06-16 09:00:00,24,1017.7,1,57,15,25000,11.112,,,100,,,,,,,,,,,wg-a,,,,AAXX 16094 07790 12475 /1006 10240 20150 30163 40177 52010 60006 81200 90900=
07790,1998-06-16 12:00:00,24,1018.2,0.5,65,17,25000,14.816,,,80,,,,,,,,,,,wg-a,,,,AAXX 16124 07790 12575 20808 10240 20170 30168 40182 50005 60006 82200 91200=
07790,1998-06-16 15:00:00,22,1018.3,0.1,69,16,25000,11.112,,,70,,,,,,,,,,60,wg-a,,,,AAXX 16154 07790 02475 50706 10220 20160 30169 40183 52001 61000 76061 8/800 91500 333 ////=
07790,1998-06-16 18:00:00,21,1018.9,0.6,60,13,25000,11.112,,,20,19.6,24.4,,,,,,,,1,wg-a,,,,AAXX 16184 07790 02475 40206 10210 20130 30175 40189 53006 60006 70161 8/800 91800 333 10244 20196 61000=
07790,1998-06-16 21:00:00,17,1019.6,0.7,77,13,25000,7.408,,,230,,,,,,,,,,,wg-a,,,,AAXX 16214 07790 12675 22304 10170 20130 30182 40196 52007 60006 81530 92100=
07790,1998-06-17 00:00:00,17,1019.9,0.3,48,6,500,18.52,,,250,,,,,,,,,,,wg-a,,,,AAXX 17004 07790 12/00 02510 10170 20060 30185 40199 52003 60006 80000 90000=
07790,1998-06-17 03:00:00,17,1019.7,-0.2,39,3,500,11.112,,,220,,,,,,,,,,,wg-a,,,,AAXX 17034 07790 12400 /2206 10170 20030 30183 40197 56002 60006 81100 90300=
07790,1998-06-17 06:00:00,16,1021.3,1.6,59,8,25000,7.408,,,230,13.7,20.7,,,,,,,,,wg-a,,,,AAXX 17064 07790 02575 32304 10160 20080 30199 40213 51016 60006 83800 90600 333 10207 20137 61000=
07790,1998-06-17 09:00:00,23,1021.8,0.5,65,16,25000,11.112,,,130,,,,,,,,,,,wg-a,,,,AAXX 17094 07790 12575 /1306 10230 20160 30204 40218 53005 60006 81200 90900=
07790,1998-06-17 12:00:00,22,1022.1,0.3,69,16,25000,14.816,,,70,,,,,,,,,,,wg-a,,,,AAXX 17124 07790 12575 30708 10220 20160 30207 40221 50003 60006 83200 91200=
07790,1998-06-17 15:00:00,22,1021.9,-0.2,69,16,25000,11.112,,,90,,,,,,,,,,,wg-a,,,,AAXX 17154 07790 12575 40906 10220 20160 30205 40219 57002 60006 82201 91500=
07790,1998-06-17 18:00:00,21,1021.8,-0.1,73,16,20000,11.112,,,100,16.3,23.1,,,,,,,,,wg-a,,,,AAXX 17184 07790 12670 21006 10210 20160 30204 40218 55001 60006 81501 91800 333 10231 20163=
07790,1998-06-17 21:00:00,18,1023.1,1.3,83,15,15000,3.704,,,90,,,,,,,,,,,wg-a,,,,AAXX 17214 07790 12665 /0902 10180 20150 30217 40231 51013 60006 81500 92100=
07790,1998-06-18 00:00:00,15,1023.4,0.3,88,13,0,7.408,,,270,,,,,,,,,,,wg-a,,,,AAXX 18004 07790 12/// /2704 10150 20130 30220 40234 52003 60006 90000=
07790,1998-06-18 03:00:00,14,1023.2,-0.2,82,11,12000,11.112,,,240,,,,,,,,,,,wg-a,,,,AAXX 18034 07790 12/62 12406 10140 20110 30218 40232 57002 60006 80001 90300=
07790,1998-06-18 06:00:00,19,1023.7,0.5,60,11,18000,11.112,,,230,14,21.4,,,,,,,,,wg-a,,,,AAXX 18064 07790 02/68 12306 10190 20110 30223 40237 51005 60006 80001 90600 333 10214 20140 60004=
07790,1998-06-18 09:00:00,24,1024,0.3,54,14,18000,11.112,,,90,,,,,,,,,,,wg-a,,,,AAXX 18094 07790 12568 /0906 10240 20140 30226 40240 51003 60006 81201 90900=
07790,1998-06-18 12:00:00,23,1024.3,0.3,57,14,500,11.112,,,80,,,,,,,,,,,wg-a,,,,AAXX 18124 07790 12500 20806 10230 20140 30229 40243 52003 60006 81201 91200=
07790,1998-06-18 15:00:00,23,1023.6,-0.7,61,15,500,11.112,,,40,,,,,,,,,,,wg-a,,,,AAXX 18154 07790 12600 /0406 10230 20150 30222 40236 56007 60006 81201 91500=
07790,1998-06-18 18:00:00,22,1022.6,-1,65,15,25000,3.704,,,110,18.5,24.6,,,,,,,,,wg-a,,,,AAXX 18184 07790 12575 /1102 10220 20150 30212 40226 58010 60006 82632 91800 333 10246 20185=
07790,1998-06-18 21:00:00,18,1023.7,1.1,77,14,11000,7.408,,,240,,,,,,,,,,,wg-a,,,,AAXX 18214 07790 12/61 /2404 10180 20140 30223 40237 51011 60006 92100=
07790,1998-06-19 00:00:00,17,1023.2,-0.5,77,13,12000,7.408,,,250,,,,,,,,,,,wg-a,,,,AAXX 19004 07790 12562 /2504 10170 20130 30218 40232 57005 60006 81601 90000=
07790,1998-06-19 03:00:00,15,1022.6,-0.6,82,12,12000,7.408,,,230,,,,,,,,,,,wg-a,,,,AAXX 19034 07790 12562 /2304 10150 20120 30212 40226 58006 60006 81601 90300=
07790,1998-06-19 06:00:00,20,1023,0.4,68,14,500,3.704,,,220,14.9,22.4,,,,,,,,,wg-a,,,,AAXX 19064 07790 02/00 12202 10200 20140 30216 40230 51004 60006 80001 90600 333 10224 20149 60004=
07790,1998-06-19 09:00:00,23,1023.4,0.4,61,15,500,11.112,,,80,,,,,,,,,,,wg-a,,,,AAXX 19094 07790 12/00 00806 10230 20150 30220 40234 53004 60006 80000 90900=
07790,1998-06-19 12:00:00,24,1023.3,-0.1,61,16,500,14.816,,,50,,,,,,,,,,,wg-a,,,,AAXX 19124 07790 12500 /0508 10240 20160 30219 40233 58001 60006 81101 91200=
07790,1998-06-19 15:00:00,24,1022.6,-0.7,54,14,500,11.112,,,60,,,,,,,,,,,wg-a,,,,AAXX 19154 07790 12500 20606 10240 20140 30212 40226 57007 60006 81101 91500=
07790,1998-06-19 18:00:00,23,1022.5,-0.1,61,15,500,7.408,,,50,19.6,24.6,,,,,,,,,wg-a,,,,AAXX 19184 07790 12/00 20504 10230 20150 30211 40225 55001 60006 80001 91800 333 10246 20196=
07790,1998-06-19 21:00:00,18,1023.3,0.8,83,15,500,7.408,,,240,,,,,,,,,,,wg-a,,,,AAXX 19214 07790 12/00 22404 10180 20150 30219 40233 53008 60006 80001 92100=
07790,1998-06-20 00:00:00,17,1023.8,0.5,82,14,500,7.408,,,240,,,,,,,,,,,wg-a,,,,AAXX 20004 07790 12/00 02404 10170 20140 30224 40238 50005 60006 80000 90000=
07790,1998-06-20 03:00:00,16,1023.3,-0.5,82,13,500,7.408,,,240,,,,,,,,,,,wg-a,,,,AAXX 20034 07790 12/00 12404 10160 20130 30219 40233 56005 60006 80001 90300=
07790,1998-06-20 06:00:00,21,1024.6,1.3,83,18,500,7.408,,,360,14.8,22.8,,,,,,,,,wg-a,,,,AAXX 20064 07790 02/00 23604 10210 20180 30232 40246 52013 60006 80001 90600 333 10228 20148 60004=
07790,1998-06-20 09:00:00,25,1025.3,0.7,61,17,11000,7.408,,,80,,,,,,,,,,,wg-a,,,,AAXX 20094 07790 12/61 /0804 10250 20170 30239 40253 51007 60006 90900=
07790,1998-06-20 12:00:00,27,1025.3,0,45,14,500,11.112,,,100,,,,,,,,,,,wg-a,,,,AAXX 20124 07790 12600 31006 10270 20140 30239 40253 50000 60006 81101 91200=
07790,1998-06-20 15:00:00,27,1024.9,-0.4,42,13,500,7.408,,,90,,,,,,,,,,,wg-a,,,,AAXX 20154 07790 12/00 30904 10270 20130 30235 40249 56004 60006 80001 91500=
07790,1998-06-20 18:00:00,25,1024.8,-0.1,61,17,500,7.408,,,90,21,27.5,,,,,,,,,wg-a,,,,AAXX 20184 07790 12/00 30904 10250 20170 30234 40248 55001 60006 80001 91800 333 10275 20210=
07790,1998-06-20 21:00:00,20,1025.5,0.7,78,16,12000,3.704,,,260,,,,,,,,,,,wg-a,,,,AAXX 20214 07790 12/62 02602 10200 20160 30241 40255 53007 60006 80000 92100=
07790,1998-06-21 00:00:00,18,1025.4,-0.1,83,15,0,7.408,,,240,,,,,,,,,,,wg-a,,,,AAXX 21004 07790 12/// /2404 10180 20150 30240 40254 56001 60006 90000=
07790,1998-06-21 03:00:00,18,1024.8,-0.6,83,15,12000,7.408,,,250,,,,,,,,,,,wg-a,,,,AAXX 21034 07790 12/62 22504 10180 20150 30234 40248 58006 60006 80001 90300=
07790,1998-06-21 06:00:00,22,1025.2,0.4,78,18,12000,0,,,0,17,24.5,,,,,,,,,wg-a,,,,AAXX 21064 07790 02/62 10000 10220 20180 30238 40252 53004 60006 80004 90600 333 10245 20170 60004=
07790,1998-06-21 09:00:00,25,1025.4,0.2,57,16,8000,11.112,,,70,,,,,,,,,,,wg-a,,,,AAXX 21094 07790 12458 20706 10250 20160 30240 40254 51002 60006 82500 90900=
07790,1998-06-21 12:00:00,26,1025.2,-0.2,51,15,9000,11.112,,,80,,,,,,,,,,,wg-a,,,,AAXX 21124 07790 12/59 00806 10260 20150 30238 40252 58002 60006 80000 91200=
07790,1998-06-21 15:00:00,26,1024.4,-0.8,54,16,12000,11.112,,,70,,,,,,,,,,,wg-a,,,,AAXX 21154 07790 12/62 00706 10260 20160 30230 40244 58008 60006 80000 91500=
07790,1998-06-21 18:00:00,25,1024.1,-0.3,54,15,12000,7.408,,,110,22.2,26.6,,,,,,,,,wg-a,,,,AAXX 21184 07790 12/62 01104 10250 20150 30227 40241 56003 60006 80000 91800 333 10266 20222=
07790,1998-06-21 21:00:00,20,1024.7,0.6,78,16,7000,3.704,,,220,,,,,,,,,,,wg-a,,,,AAXX 21214 07790 12257 /2202 10200 20160 30233 40247 53006 60006 81600 92100=
07790,1998-06-22 00:00:00,18,1024,-0.7,77,14,10000,11.112,,,220,,,,,,,,,,,wg-a,,,,AAXX 22004 07790 12260 /2206 10180 20140 30226 40240 58007 60006 81600 90000=
07790,1998-06-22 03:00:00,18,1022.7,-1.5,64,11,8000,18.52,,,210,,,,,,,,,,,wg-a,,,,AAXX 22034 07790 12258 /2110 10180 20110 30213 40227 56015 60006 81600 90300=
07790,1998-06-22 06:00:00,21,1022.7,-0,53,11,20000,7.408,,,210,16.6,24,,,,,,,,,wg-a,,,,AAXX 22064 07790 02/70 22104 10210 20110 30213 40227 54000 60006 80001 90600 333 10240 20166 60004=
07790,1998-06-22 09:00:00,27,1022.4,-0.3,48,15,8000,11.112,,,150,,,,,,,,,,,wg-a,,,,AAXX 22094 07790 12/58 21506 10270 20150 30210 40224 58003 60006 81031 90900=
07790,1998-06-22 12:00:00,28,1021.8,-0.6,37,12,12000,18.52,,,140,,,,,,,,,,,wg-a,,,,AAXX 22124 07790 12/62 11410 10280 20120 30204 40218 57006 60006 80001 91200=
07790,1998-06-22 15:00:00,27,1020.7,-1.1,42,13,12000,18.52,,,130,,,,,,,,,,,wg-a,,,,AAXX 22154 07790 12/62 31310 10270 20130 30193 40207 57011 60006 80001 91500=
07790,1998-06-22 18:00:00,24,1020.2,-0.5,65,17,25000,11.112,,,40,21.1,28.8,,,,,,,,,wg-a,,,,AAXX 22184 07790 12/75 10406 10240 20170 30188 40202 56005 60006 80001 91800 333 10288 20211=
07790,1998-06-22 21:00:00,21,1020,-0.2,73,16,15000,3.704,,,250,,,,,,,,,,,wg-a,,,,AAXX 22214 07790 12/65 52502 10210 20160 30186 40200 56002 60006 80004 92100=
07790,1998-06-23 00:00:00,20,1019.1,-0.9,83,17,17000,7.408,,,230,,,,,,,,,,,wg-a,,,,AAXX 23004 07790 12/67 62304 10200 20170 30177 40191 58009 60006 83032 90000=
07790,1998-06-23 03:00:00,18,1018.2,-0.9,88,16,17000,7.408,,,240,,,,,,,,,,,wg-a,,,,AAXX 23034 07790 12/67 62404 10180 20160 30168 40182 56009 60006 83032 90300=
07790,1998-06-23 06:00:00,20,1017.9,-0.3,78,16,15000,3.704,,,290,18.1,24.3,,,,,,,,,wg-a,,,,AAXX 23064 07790 02665 /2902 10200 20160 30165 40179 58003 60006 81282 90600 333 10243 20181 60004=
07790,1998-06-23 09:00:00,26,1017.2,-0.7,54,16,20000,7.408,,,80,,,,,,,,,,,wg-a,,,,AAXX 23094 07790 12/70 30804 10260 20160 30158 40172 58007 60006 81082 90900=
07790,1998-06-23 12:00:00,27,1017,-0.2,62,19,20000,11.112,,,110,,,,,,,,,,,wg-a,,,,AAXX 23124 07790 12670 /1106 10270 20190 30156 40170 58002 60006 81102 91200=
07790,1998-06-23 15:00:00,28,1015.8,-1.2,45,15,20000,11.112,,,150,,,,,,,,,,,wg-a,,,,AAXX 23154 07790 12570 31506 10280 20150 30144 40158 58012 60006 81032 91500=
07790,1998-06-23 18:00:00,25,1015.3,-0.5,65,18,12000,7.408,,,120,20.3,27.9,,,,,,,,,wg-a,,,,AAXX 23184 07790 12/62 01204 10250 20180 30139 40153 56005 60006 80000 91800 333 10279 20203=
07790,1998-06-23 21:00:00,21,1015.8,0.5,78,17,9000,3.704,,,270,,,,,,,,,,,wg-a,,,,AAXX 23214 07790 12/59 02702 10210 20170 30144 40158 52005 60006 80000 92100=
07790,1998-06-24 00:00:00,20,1015.1,-0.7,88,18,9000,7.408,,,240,,,,,,,,,,,wg-a,,,,AAXX 24004 07790 12/59 02404 10200 20180 30137 40151 58007 60006 80000 90000=
07790,1998-06-24 03:00:00,20,1014.4,-0.7,88,18,8000,7.408,,,250,,,,,,,,,,,wg-a,,,,AAXX 24034 07790 12458 32504 10200 20180 30130 40144 58007 60006 83801 90300=
07790,1998-06-24 06:00:00,22,1014.6,0.2,83,19,8000,3.704,,,210,19,25.4,,,,,,,,,wg-a,,,,AAXX 24064 07790 02458 62102 10220 20190 30132 40146 53002 60006 86500 90600 333 10254 20190 60004=
07790,1998-06-24 09:00:00,25,1014.2,-0.4,74,20,8000,11.112,,,80,,,,,,,,,,,wg-a,,,,AAXX 24094 07790 12558 20806 10250 20200 30128 40142 55004 60006 82200 90900=
07790,1998-06-24 12:00:00,26,1013.9,-0.3,70,20,8000,11.112,,,100,,,,,,,,,,,wg-a,,,,AAXX 24124 07790 12458 31006 10260 20200 30125 40139 58003 60006 83200 91200=
07790,1998-06-24 15:00:00,26,1012.8,-1.1,65,19,8000,7.408,,,110,,,,,,,,,,,wg-a,,,,AAXX 24154 07790 12458 21104 10260 20190 30114 40128 56011 60006 81231 91500=
07790,1998-06-24 18:00:00,25,1012.4,-0.4,74,20,8000,3.704,,,120,21.6,26.9,,,,,,,,,wg-a,,,,AAXX 24184 07790 12/58 /1202 10250 20200 30110 40124 56004 60006 81030 91800 333 10269 20216=
07790,1998-06-24 21:00:00,21,1013.2,0.8,78,17,6000,7.408,,,220,,,,,,,,,,,wg-a,,,,AAXX 24214 07790 12456 /2204 10210 20170 30118 40132 53008 60006 81600 92100=
07790,1998-06-25 00:00:00,18,1013.3,0.1,88,16,8000,3.704,,,260,,,,,,,,,,,wg-a,,,,AAXX 25004 07790 12458 /2602 10180 20160 30119 40133 50001 60006 81600 90000=
07790,1998-06-25 03:00:00,18,1013,-0.3,83,15,8000,7.408,,,230,,,,,,,,,,,wg-a,,,,AAXX 25034 07790 12458 22304 10180 20150 30116 40130 57003 60006 82200 90300=
07790,1998-06-25 06:00:00,22,1013.7,0.7,78,18,7000,3.704,,,220,17.6,25,,,,,,,,,wg-a,,,,AAXX 25064 07790 02457 /2202 10220 20180 30123 40137 51007 60006 81201 90600 333 10250 20176 60004=
07790,1998-06-25 09:00:00,25,1014.1,0.4,69,19,15000,11.112,,,60,,,,,,,,,,,wg-a,,,,AAXX 25094 07790 12465 20606 10250 20190 30127 40141 53004 60006 82201 90900=
07790,1998-06-25 12:00:00,26,1013.9,-0.2,65,19,8000,11.112,,,90,,,,,,,,,,,wg-a,,,,AAXX 25124 07790 12458 30906 10260 20190 30125 40139 58002 60006 83200 91200=
07790,1998-06-25 15:00:00,26,1013.4,-0.5,65,19,9000,11.112,,,120,,,,,,,,,,,wg-a,,,,AAXX 25154 07790 12559 21206 10260 20190 30120 40134 58005 60006 82200 91500=
07790,1998-06-25 18:00:00,25,1013.1,-0.3,69,19,9000,7.408,,,150,21.8,26.9,,,,,,,,,wg-a,,,,AAXX 25184 07790 12459 /1504 10250 20190 30117 40131 55003 60006 81500 91800 333 10269 20218=
07790,1998-06-25 21:00:00,21,1014.6,1.5,83,18,12000,3.704,,,280,,,,,,,,,,,wg-a,,,,AAXX 25214 07790 12/62 02802 10210 20180 30132 40146 53015 60006 80000 92100=
07790,1998-06-26 00:00:00,20,1015,0.4,88,18,12000,3.704,,,250,,,,,,,,,,,wg-a,,,,AAXX 26004 07790 12/62 02502 10200 20180 30136 40150 50004 60006 80000 90000=
07790,1998-06-26 03:00:00,19,1014.8,-0.2,88,17,9000,7.408,,,230,,,,,,,,,,,wg-a,,,,AAXX 26034 07790 12/59 02304 10190 20170 30134 40148 56002 60006 80000 90300=
07790,1998-06-26 06:00:00,22,1015.7,0.9,78,18,8000,7.408,,,230,18.4,24.6,,,,,,,,,wg-a,,,,AAXX 26064 07790 02458 /2304 10220 20180 30143 40157 51009 60006 81100 90600 333 10246 20184 60004=
07790,1998-06-26 09:00:00,27,1016.4,0.7,66,20,8000,11.112,,,130,,,,,,,,,,,wg-a,,,,AAXX 26094 07790 12458 21306 10270 20200 30150 40164 51007 60006 82100 90900=
07790,1998-06-26 12:00:00,27,1016.3,-0.1,70,21,6000,14.816,,,140,,,,,,,,,,,wg-a,,,,AAXX 26124 07790 12456 21408 10270 20210 30149 40163 58001 60006 82200 91200=
07790,1998-06-26 15:00:00,28,1015.8,-0.5,62,20,8000,14.816,,,140,,,,,,,,,,,wg-a,,,,AAXX 26154 07790 12458 /1408 10280 20200 30144 40158 57005 60006 81200 91500=
07790,1998-06-26 18:00:00,25,1015.4,-0.4,79,21,9000,11.112,,,140,21.8,28.1,,,,,,,,,wg-a,,,,AAXX 26184 07790 12/59 31406 10250 20210 30140 40154 56004 60006 80002 91800 333 10281 20218=
07790,1998-06-26 21:00:00,23,1016.2,0.8,83,20,3000,3.704,,,300,,,,,,,,,,4,wg-a,,,,AAXX 26214 07790 12/30 /3002 10230 20200 30148 40162 52008 60006 70400 80001 92100=
07790,1998-06-27 00:00:00,21,1015.8,-0.4,88,19,3000,7.408,,,220,,,,,,,,,,4,wg-a,,,,AAXX 27004 07790 12/30 /2204 10210 20190 30144 40158 58004 60006 70400 80001 90000=
07790,1998-06-27 03:00:00,21,1015.6,-0.2,88,19,4000,11.112,,,210,,,,,,,,,,,wg-a,,,,AAXX 27034 07790 12/40 02106 10210 20190 30142 40156 55002 60006 80000 90300=
07790,1998-06-27 06:00:00,23,1015.9,0.3,83,20,6000,3.704,,,220,20.4,25.1,,,,,,,,,wg-a,,,,AAXX 27064 07790 02/56 02202 10230 20200 30145 40159 51003 60006 80000 90600 333 10251 20204 60004=
07790,1998-06-27 09:00:00,27,1015.9,0,62,19,8000,14.816,,,140,,,,,,,,,,,wg-a,,,,AAXX 27094 07790 12/58 01408 10270 20190 30145 40159 50000 60006 80000 90900=
07790,1998-06-27 12:00:00,28,1016.1,0.2,55,18,8000,18.52,,,140,,,,,,,,,,,wg-a,,,,AAXX 27124 07790 12658 41410 10280 20180 30147 40161 50002 60006 81101 91200=
07790,1998-06-27 15:00:00,27,1015.8,-0.3,66,20,10000,18.52,,,140,,,,,,,,,,,wg-a,,,,AAXX 27154 07790 12/60 01410 10270 20200 30144 40158 58003 60006 80000 91500=
07790,1998-06-27 18:00:00,26,1015,-0.8,74,21,9000,11.112,,,150,23.2,28.5,,,,,,,,,wg-a,,,,AAXX 27184 07790 12/59 01506 10260 20210 30136 40150 55008 60006 80000 91800 333 10285 20232=
07790,1998-06-27 21:00:00,23,1015.9,0.9,89,21,7000,3.704,,,220,,,,,,,,,,11,wg-a,,,,AAXX 27214 07790 12/57 02202 10230 20210 30145 40159 53009 60006 71100 80000 92100=
07790,1998-06-28 00:00:00,20,1015.7,-0.2,88,18,7000,0,,,0,,,,,,,,,,11,wg-a,,,,AAXX 28004 07790 12/57 00000 10200 20180 30143 40157 55002 60006 71100 80000 90000=
07790,1998-06-28 03:00:00,19,1015.6,-0.1,88,17,7000,7.408,,,230,,,,,,,,,,11,wg-a,,,,AAXX 28034 07790 12257 22304 10190 20170 30142 40156 55001 60006 71100 82600 90300=
07790,1998-06-28 06:00:00,23,1016.3,0.7,73,18,7000,7.408,,,230,19.1,25.6,,,,,,,,,wg-a,,,,AAXX 28064 07790 02457 /2304 10230 20180 30149 40163 53007 60006 81600 90600 333 10256 20191 60004=
07790,1998-06-28 09:00:00,27,1016.9,0.6,70,21,8000,11.112,,,130,,,,,,,,,,,wg-a,,,,AAXX 28094 07790 12558 /1306 10270 20210 30155 40169 52006 60006 81100 90900=
07790,1998-06-28 12:00:00,28,1016.7,-0.2,66,21,8000,11.112,,,120,,,,,,,,,,,wg-a,,,,AAXX 28124 07790 12558 31206 10280 20210 30153 40167 58002 60006 83100 91200=
07790,1998-06-28 18:00:00,26,1015.7,-0.5,79,22,9000,7.408,,,150,23,28.9,,,,,,,,,wg-a,,,,AAXX 28184 07790 12559 /1504 10260 20220 30143 40157 55005 60006 81100 91800 333 10289 20230=
07790,1998-06-28 21:00:00,23,1016.3,0.6,89,21,9000,0,,,0,,,,,,,,,,,wg-a,,,,AAXX 28214 07790 12/59 00000 10230 20210 30149 40163 52006 60006 80000 92100=
07790,1998-06-29 00:00:00,21,1016.2,-0.1,94,20,9000,3.704,,,270,,,,,,,,,,,wg-a,,,,AAXX 29004 07790 12/59 02702 10210 20200 30148 40162 58001 60006 80000 90000=
07790,1998-06-29 06:00:00,23,1016.6,0.7,73,18,8000,7.408,,,230,20,25.9,,,,,,,,,wg-a,,,,AAXX 29064 07790 02/58 02304 10230 20180 30152 40166 53007 60006 80000 90600 333 10259 20200 60004=
07790,1998-06-29 09:00:00,28,1016.7,0.1,66,21,9000,11.112,,,130,,,,,,,,,,,wg-a,,,,AAXX 29094 07790 12/59 01306 10280 20210 30153 40167 52001 60006 80000 90900=
07790,1998-06-29 12:00:00,29,1016.3,-0.4,66,22,8000,11.112,,,120,,,,,,,,,,,wg-a,,,,AAXX 29124 07790 12/58 01206 10290 20220 30149 40163 58004 60006 80000 91200=
07790,1998-06-29 15:00:00,29,1015.8,-0.5,62,21,6000,14.816,,,160,,,,,,,,,,,wg-a,,,,AAXX 29154 07790 12/56 01608 10290 20210 30144 40158 58005 60006 80000 91500=
07790,1998-06-29 18:00:00,28,1015.3,-0.5,70,22,500,7.408,,,140,23.1,29.3,,,,,,,,,wg-a,,,,AAXX 29184 07790 12/00 01404 10280 20220 30139 40153 55005 60006 80000 91800 333 10293 20231=
07790,1998-06-29 21:00:00,23,1016.3,1,83,20,15000,0,,,0,,,,,,,,,,,wg-a,,,,AAXX 29214 07790 12/65 00000 10230 20200 30149 40163 53010 60006 80000 92100=
07790,1998-06-30 00:00:00,21,1015.3,-1,88,19,15000,7.408,,,270,,,,,,,,,,,wg-a,,,,AAXX 30004 07790 12/65 02704 10210 20190 30139 40153 56010 60006 80000 90000=
07790,1998-06-30 03:00:00,20,1014.2,-1.1,83,17,8000,3.704,,,260,,,,,,,,,,,wg-a,,,,AAXX 30034 07790 12/58 02602 10200 20170 30128 40142 58011 60006 80000 90300=
07790,1998-06-30 06:00:00,24,1015,0.8,78,20,7000,7.408,,,220,20.1,27.8,,,,,,,,,wg-a,,,,AAXX 30064 07790 02457 32204 10240 20200 30136 40150 51008 60006 81602 90600 333 10278 20201 60004=
07790,1998-06-30 09:00:00,27,1013.9,-1.1,74,22,6000,14.816,,,120,,,,,,,,,,,wg-a,,,,AAXX 30094 07790 12456 /1208 10270 20220 30125 40139 56011 60006 81632 90900=
07790,1998-06-30 12:00:00,29,1013.6,-0.3,66,22,6000,14.816,,,120,,,,,,,,,,,wg-a,,,,AAXX 30124 07790 12556 21208 10290 20220 30122 40136 55003 60006 81201 91200=
07790,1998-06-30 15:00:00,29,1012.5,-1.1,58,20,8000,14.816,,,150,,,,,,,,,,,wg-a,,,,AAXX 30154 07790 12558 /1508 10290 20200 30111 40125 58011 60006 81200 91500=
07790,1998-06-30 18:00:00,28,1012,-0.5,62,20,15000,7.408,,,120,24,29.4,,,,,,,,,wg-a,,,,AAXX 30184 07790 12/65 01204 10280 20200 30106 40120 56005 60006 80000 91800 333 10294 20240=
07790,1998-06-30 21:00:00,24,1013.1,1.1,83,21,12000,7.408,,,300,,,,,,,,,,,wg-a,,,,AAXX 30214 07790 12862 /3004 10240 20210 30117 40131 51011 60006 81030 92100=
07790,1998-07-01 00:00:00,22,1012.3,-0.8,88,20,0,3.704,,,250,,,,,,,,,,,wg-a,,,,AAXX 01004 07790 12/// /2502 10220 20200 30109 40123 58008 60006 90000=
07790,1998-07-01 03:00:00,22,1011.4,-0.9,88,20,9000,7.408,,,220,,,,,,,,,,,wg-a,,,,AAXX 01034 07790 12459 32204 10220 20200 30100 40114 58009 60006 83600 90300=
07790,1998-07-01 06:00:00,24,1011.8,0.4,83,21,8000,3.704,,,250,21.6,28.1,,,,,,,,,wg-a,,,,AAXX 01064 07790 02458 /2502 10240 20210 30104 40118 50004 60006 81530 90600 333 10281 20216 60004=
07790,1998-07-01 09:00:00,28,1011.4,-0.4,70,22,8000,14.816,,,140,,,,,,,,,,,wg-a,,,,AAXX 01094 07790 12/58 /1408 10280 20220 30100 40114 58004 60006 90900=
07790,1998-07-01 12:00:00,27,1009.6,-1.8,79,23,8000,18.52,,,140,,,,,,,,,,,wg-a,,,,AAXX 01124 07790 12458 /1410 10270 20230 30082 40096 58018 60006 84880 91200=
07790,1998-07-01 15:00:00,29,1006.8,-2.7,74,24,8000,7.408,,,50,,,,,,,,,,,wg-a,,,,AAXX 01154 07790 12558 20504 10290 20240 30055 40068 58027 60006 82500 91500=
07790,1998-07-01 18:00:00,27,1007,0.1,74,22,8000,18.52,,,360,24.3,29.8,,,,,,,,,wg-a,,,,AAXX 01184 07790 12558 33610 10270 20220 30056 40070 52001 60006 81580 91800 333 10298 20243=
07790,1998-07-01 21:00:00,25,1009.2,2.2,89,23,10000,14.816,,,360,,,,,,,,,,,wg-a,,,,AAXX 01214 07790 12260 23608 10250 20230 30078 40092 53022 60006 82500 92100=
07790,1998-07-02 00:00:00,25,1009.4,0.2,83,22,12000,7.408,,,340,,,,,,,,,,,wg-a,,,,AAXX 02004 07790 12462 43404 10250 20220 30080 40094 53002 60006 84500 90000=
07790,1998-07-02 03:00:00,23,1008.6,-0.8,89,21,18000,3.704,,,250,,,,,,,,,,,wg-a,,,,AAXX 02034 07790 12468 /2502 10230 20210 30072 40086 55008 60006 85500 90300=
07790,1998-07-02 06:00:00,26,1009.8,1.2,79,22,8000,7.408,,,220,22.8,27,,,,,,,,,wg-a,,,,AAXX 02064 07790 02458 /2204 10260 20220 30084 40098 51012 60006 81500 90600 333 10270 20228 60004=
07790,1998-07-02 09:00:00,29,1010.5,0.7,62,21,15000,18.52,,,140,,,,,,,,,,,wg-a,,,,AAXX 02094 07790 12465 /1410 10290 20210 30091 40105 51007 60006 81100 90900=
07790,1998-07-02 12:00:00,30,1011,0.5,59,21,11000,25.928,,,150,,,,,,,,,,,wg-a,,,,AAXX 02124 07790 12/61 /1514 10300 20210 30096 40110 51005 60006 91200=
07790,1998-07-02 18:00:00,29,1010.9,-0.1,55,19,8000,7.408,,,130,25.6,31.1,,,,,,,,,wg-a,,,,AAXX 02184 07790 12/58 01304 10290 20190 30095 40109 55001 60006 80000 91800 333 10311 20256=
07790,1998-07-03 00:00:00,21,1010.9,-0.1,78,17,8000,11.112,,,290,,,,,,,,,,,wg-a,,,,AAXX 03004 07790 12258 42906 10210 20170 30095 40109 56001 60006 84500 90000=
07790,1998-07-03 03:00:00,20,1010.7,-0.2,78,16,12000,11.112,,,240,,,,,,,,,,,wg-a,,,,AAXX 03034 07790 12462 32406 10200 20160 30093 40107 58002 60006 83500 90300=
07790,1998-07-03 06:00:00,24,1011.6,0.9,65,17,10000,7.408,,,200,19.3,28.8,,,,,,,,,wg-a,,,,AAXX 03064 07790 02/60 02004 10240 20170 30102 40116 53009 60006 80000 90600 333 10288 20193 60004=
07790,1998-07-03 09:00:00,28,1012.7,1.1,62,20,12000,11.112,,,90,,,,,,,,,,,wg-a,,,,AAXX 03094 07790 12562 /0906 10280 20200 30113 40127 52011 60006 81500 90900=
07790,1998-07-03 12:00:00,27,1013,0.3,70,21,9000,14.816,,,110,,,,,,,,,,,wg-a,,,,AAXX 03124 07790 12559 31108 10270 20210 30116 40130 50003 60006 83500 91200=
07790,1998-07-03 15:00:00,28,1011.9,-1.1,66,21,8000,14.816,,,140,,,,,,,,,,,wg-a,,,,AAXX 03154 07790 12558 /1408 10280 20210 30105 40119 58011 60006 81500 91500=
07790,1998-07-03 18:00:00,26,1011.6,-0.3,74,21,10000,7.408,,,140,24.3,28.7,,,,,,,,,wg-a,,,,AAXX 03184 07790 12/60 01404 10260 20210 30102 40116 55003 60006 80000 91800 333 10287 20243=
07790,1998-07-03 21:00:00,23,1013.2,1.6,89,21,15000,7.408,,,100,,,,,,,,,,,wg-a,,,,AAXX 03214 07790 12/65 01004 10230 20210 30118 40132 53016 60006 80000 92100=
07790,1998-07-04 00:00:00,22,1013.5,0.3,53,12,15000,11.112,,,320,,,,,,,,,,,wg-a,,,,AAXX 04004 07790 12/65 03206 10220 20120 30121 40135 51003 60006 80000 90000=
07790,1998-07-04 03:00:00,23,1013.3,-0.2,50,12,500,14.816,,,300,,,,,,,,,,,wg-a,,,,AAXX 04034 07790 12/00 03008 10230 20120 30119 40133 58002 60006 80000 90300=
07790,1998-07-04 06:00:00,23,1013.9,0.6,50,12,500,7.408,,,210,19.4,26.2,,,,,,,,,wg-a,,,,AAXX 04064 07790 02/00 02104 10230 20120 30125 40139 53006 60006 80000 90600 333 10262 20194 60004=
07790,1998-07-04 09:00:00,27,1015.7,1.8,48,15,500,18.52,,,140,,,,,,,,,,,wg-a,,,,AAXX 04094 07790 12/00 01410 10270 20150 30143 40157 53018 60006 80000 90900=
07790,1998-07-04 12:00:00,29,1016,0.3,43,15,500,18.52,,,150,,,,,,,,,,,wg-a,,,,AAXX 04124 07790 12600 /1510 10290 20150 30146 40160 50003 60006 81200 91200=
07790,1998-07-04 15:00:00,28,1015.4,-0.6,55,18,500,14.816,,,140,,,,,,,,,,,wg-a,,,,AAXX 04154 07790 12600 /1408 10280 20180 30140 40154 57006 60006 81200 91500=
07790,1998-07-04 18:00:00,26,1015.2,-0.2,61,18,500,7.408,,,140,23.4,29.6,,,,,,,,,wg-a,,,,AAXX 04184 07790 12600 /1404 10260 20180 30138 40152 56002 60006 81100 91800 333 10296 20234=
07790,1998-07-04 21:00:00,21,1015.8,0.6,78,17,500,7.408,,,230,,,,,,,,,,,wg-a,,,,AAXX 04214 07790 12/00 02304 10210 20170 30144 40158 52006 60006 80000 92100=
07790,1998-07-05 00:00:00,21,1015.4,-0.4,64,14,500,7.408,,,220,,,,,,,,,,,wg-a,,,,AAXX 05004 07790 12/00 02204 10210 20140 30140 40154 57004 60006 80000 90000=
07790,1998-07-05 03:00:00,19,1014.2,-1.2,64,12,500,11.112,,,230,,,,,,,,,,,wg-a,,,,AAXX 05034 07790 12/00 12306 10190 20120 30128 40142 57012 60006 80001 90300=
07790,1998-07-05 06:00:00,22,1013.7,-0.5,57,13,500,7.408,,,230,18,26.1,,,,,,,,,wg-a,,,,AAXX 05064 07790 02/00 02304 10220 20130 30123 40137 56005 60006 80000 90600 333 10261 20180 60004=
07790,1998-07-05 09:00:00,27,1014.1,0.4,54,17,25000,7.408,,,100,,,,,,,,,,,wg-a,,,,AAXX 05094 07790 12575 11004 10270 20170 30127 40141 53004 60006 81100 90900=
07790,1998-07-05 12:00:00,26,1013.8,-0.3,65,19,25000,14.816,,,40,,,,,,,,,,,wg-a,,,,AAXX 05124 07790 12575 20408 10260 20190 30124 40138 58003 60006 82200 91200=
07790,1998-07-05 15:00:00,26,1013.5,-0.3,65,19,12000,11.112,,,50,,,,,,,,,,,wg-a,,,,AAXX 05154 07790 12662 /0506 10260 20190 30121 40135 55003 60006 81100 91500=
07790,1998-07-05 18:00:00,25,1012.8,-0.7,74,20,4000,7.408,,,130,22.3,27.6,,,,,,,,10,wg-a,,,,AAXX 05184 07790 12540 /1304 10250 20200 30114 40128 56007 60006 71000 81100 91800 333 10276 20223=
07790,1998-07-05 21:00:00,22,1013.6,0.8,88,20,8000,7.408,,,190,,,,,,,,,,,wg-a,,,,AAXX 05214 07790 12/58 01904 10220 20200 30122 40136 51008 60006 80000 92100=
07790,1998-07-06 00:00:00,20,1013.4,-0.2,83,17,18000,7.408,,,270,,,,,,,,,,,wg-a,,,,AAXX 06004 07790 12/68 02704 10200 20170 30120 40134 58002 60006 80000 90000=
07790,1998-07-06 03:00:00,19,1012.8,-0.6,83,16,10000,7.408,,,250,,,,,,,,,,,wg-a,,,,AAXX 06034 07790 12/60 /2504 10190 20160 30114 40128 57006 60006 90300=
07790,1998-07-06 06:00:00,22,1012.7,-0.1,78,18,12000,3.704,,,220,18.6,25,,,,,,,,,wg-a,,,,AAXX 06064 07790 02462 /2202 10220 20180 30113 40127 56001 60006 86500 90600 333 10250 20186 60004=
07790,1998-07-06 09:00:00,27,1012.8,0.1,66,20,15000,14.816,,,120,,,,,,,,,,,wg-a,,,,AAXX 06094 07790 12465 21208 10270 20200 30114 40128 50001 60006 82800 90900=
07790,1998-07-06 12:00:00,27,1012.2,-0.6,66,20,15000,11.112,,,70,,,,,,,,,,,wg-a,,,,AAXX 06124 07790 12565 /0706 10270 20200 30108 40122 58006 60006 81200 91200=
07790,1998-07-06 15:00:00,28,1011.2,-1,55,18,15000,18.52,,,40,,,,,,,,,,,wg-a,,,,AAXX 06154 07790 12565 /0410 10280 20180 30098 40112 58010 60006 81100 91500=
07790,1998-07-06 18:00:00,25,1010.9,-0.3,74,20,12000,7.408,,,90,22.5,28,,,,,,,,,wg-a,,,,AAXX 06184 07790 12662 /0904 10250 20200 30095 40109 57003 60006 81500 91800 333 10280 20225=
07790,1998-07-06 21:00:00,22,1012,1.1,83,19,15000,3.704,,,220,,,,,,,,,,,wg-a,,,,AAXX 06214 07790 12565 /2202 10220 20190 30106 40120 52011 60006 81500 92100=
07790,1998-07-07 00:00:00,20,1011.2,-0.8,88,18,15000,7.408,,,230,,,,,,,,,,,wg-a,,,,AAXX 07004 07790 12565 /2304 10200 20180 30098 40112 58008 60006 81500 90000=
07790,1998-07-07 03:00:00,19,1010,-1.2,88,17,15000,7.408,,,230,,,,,,,,,,,wg-a,,,,AAXX 07034 07790 12565 /2304 10190 20170 30086 40100 58012 60006 81500 90300=
07790,1998-07-07 06:00:00,22,1010.7,0.7,78,18,15000,11.112,,,230,18.9,25.2,,,,,,,,,wg-a,,,,AAXX 07064 07790 02465 72306 10220 20180 30093 40107 50007 60006 878// 90600 333 10252 20189 60004=
07790,1998-07-07 09:00:00,26,1009.1,-1.6,70,20,10000,18.52,,,130,,,,,,,,,,,wg-a,,,,AAXX 07094 07790 12460 61310 10260 20200 30077 40091 58016 60006 86830 90900=
07790,1998-07-07 12:00:00,27,1006.7,-2.4,62,19,10000,18.52,,,140,,,,,,,,,,,wg-a,,,,AAXX 07124 07790 12460 51410 10270 20190 30053 40067 58024 60006 84830 91200=
07790,1998-07-07 15:00:00,26,1003.9,-2.8,65,19,11000,18.52,,,140,,,,,,,,,,,wg-a,,,,AAXX 07154 07790 12461 /1410 10260 20190 30025 40039 56028 60006 85830 91500=
07790,1998-07-07 18:00:00,25,1002.5,-1.4,74,20,10000,11.112,,,140,21.5,27.6,,,,,,,,,wg-a,,,,AAXX 07184 07790 12460 41406 10250 20200 30011 40025 56014 60006 82830 91800 333 10276 20215=
07790,1998-07-07 21:00:00,23,1002.1,-0.4,57,14,12000,18.52,,,10,,,,,,,,,,,wg-a,,,,AAXX 07214 07790 12/62 20110 10230 20140 30007 40021 56004 60006 81031 92100=
07790,1998-07-08 00:00:00,22,1001.9,-0.2,60,14,15000,7.408,,,160,,,,,,,,,,,wg-a,,,,AAXX 08004 07790 12/65 01604 10220 20140 30005 40019 58002 60006 80000 90000=
07790,1998-07-08 03:00:00,21,1000.9,-1,60,13,15000,11.112,,,270,,,,,,,,,,,wg-a,,,,AAXX 08034 07790 12/65 02706 10210 20130 39995 40009 56010 60006 80000 90300=
07790,1998-07-08 06:00:00,24,1002.3,1.4,47,12,25000,3.704,,,150,19.7,24.8,,,,,,,,,wg-a,,,,AAXX 08064 07790 02575 /1502 10240 20120 30009 40023 52014 60006 81100 90600 333 10248 20197 60004=
07790,1998-07-08 09:00:00,28,1003.6,1.3,42,14,25000,11.112,,,180,,,,,,,,,,,wg-a,,,,AAXX 08094 07790 12675 /1806 10280 20140 30022 40036 53013 60006 81100 90900=
07790,1998-07-08 12:00:00,29,1004.4,0.8,35,12,25000,22.224,,,330,,,,,,,,,,,wg-a,,,,AAXX 08124 07790 12675 /3312 10290 20120 30030 40044 51008 60006 81200 91200=
07790,1998-07-08 15:00:00,29,1004.4,-0,37,13,40000,29.632,,,320,,,,,,,,,,,wg-a,,,,AAXX 08154 07790 12682 /3216 10290 20130 30030 40044 54000 60006 81200 91500=
07790,1998-07-08 18:00:00,27,1005.8,1.4,32,9,35000,18.52,,,310,24.3,29.9,,,,,,,,,wg-a,,,,AAXX 08184 07790 12681 /3110 10270 20090 30044 40058 51014 60006 81101 91800 333 10299 20243=
07790,1998-07-08 21:00:00,24,1007.1,1.3,36,8,25000,3.704,,,120,,,,,,,,,,,wg-a,,,,AAXX 08214 07790 12/75 /1202 10240 20080 30057 40071 53013 60006 81030 92100=
07790,1998-07-09 00:00:00,22,1008.5,1.4,35,6,0,11.112,,,230,,,,,,,,,,,wg-a,,,,AAXX 09004 07790 12/// /2306 10220 20060 30071 40085 53014 60006 90000=
07790,1998-07-09 03:00:00,20,1009.1,0.6,40,6,25000,14.816,,,230,,,,,,,,,,,wg-a,,,,AAXX 09034 07790 12/75 02308 10200 20060 30077 40091 53006 60006 80000 90300=
07790,1998-07-09 06:00:00,23,1010.5,1.4,36,7,25000,7.408,,,240,18,26.4,,,,,,,,,wg-a,,,,AAXX 09064 07790 02/75 02404 10230 20070 30091 40105 53014 60006 80000 90600 333 10264 20180 60004=
07790,1998-07-09 09:00:00,27,1012.1,1.6,48,15,500,11.112,,,100,,,,,,,,,,,wg-a,,,,AAXX 09094 07790 12500 11006 10270 20150 30107 40121 51016 60006 81100 90900=
07790,1998-07-09 12:00:00,27,1012.8,0.7,45,14,25000,14.816,,,140,,,,,,,,,,,wg-a,,,,AAXX 09124 07790 12575 /1408 10270 20140 30114 40128 50007 60006 81100 91200=
07790,1998-07-09 15:00:00,28,1012.8,0,40,13,35000,18.52,,,140,,,,,,,,,,,wg-a,,,,AAXX 09154 07790 12581 21410 10280 20130 30114 40128 50000 60006 81101 91500=
07790,1998-07-09 18:00:00,26,1012.8,-0,42,12,35000,7.408,,,160,22.8,28.4,,,,,,,,,wg-a,,,,AAXX 09184 07790 12481 21604 10260 20120 30114 40128 55000 60006 81630 91800 333 10284 20228=
07790,1998-07-09 21:00:00,21,1014,1.2,60,13,18000,7.408,,,240,,,,,,,,,,,wg-a,,,,AAXX 09214 07790 12/68 02404 10210 20130 30126 40140 53012 60006 80000 92100=
07790,1998-07-10 00:00:00,18,1013.7,-0.3,68,12,18000,3.704,,,280,,,,,,,,,,,wg-a,,,,AAXX 10004 07790 12/68 02802 10180 20120 30123 40137 58003 60006 80000 90000=
07790,1998-07-10 03:00:00,18,1013.1,-0.6,68,12,18000,7.408,,,240,,,,,,,,,,,wg-a,,,,AAXX 10034 07790 12/68 12404 10180 20120 30117 40131 58006 60006 80001 90300=
07790,1998-07-10 06:00:00,23,1013.4,0.3,73,18,20000,11.112,,,340,17.6,26.1,,,,,,,,,wg-a,,,,AAXX 10064 07790 02470 23406 10230 20180 30120 40134 51003 60006 82100 90600 333 10261 20176 60004=
07790,1998-07-10 09:00:00,26,1014.1,0.7,61,18,20000,25.928,,,20,,,,,,,,,,,wg-a,,,,AAXX 10094 07790 12570 /0214 10260 20180 30127 40141 53007 60006 81100 90900=
07790,1998-07-10 12:00:00,25,1014.1,0,69,19,20000,22.224,,,20,,,,,,,,,,,wg-a,,,,AAXX 10124 07790 12570 20212 10250 20190 30127 40141 50000 60006 82100 91200=
07790,1998-07-10 15:00:00,26,1013.6,-0.5,61,18,17000,14.816,,,40,,,,,,,,,,,wg-a,,,,AAXX 10154 07790 12567 /0408 10260 20180 30122 40136 55005 60006 81100 91500=
07790,1998-07-10 18:00:00,25,1013.6,-0,65,18,17000,11.112,,,90,22.7,26.3,,,,,,,,,wg-a,,,,AAXX 10184 07790 12567 /0906 10250 20180 30122 40136 55000 60006 81100 91800 333 10263 20227=
07790,1998-07-10 21:00:00,23,1014.6,1,78,19,10000,3.704,,,180,,,,,,,,,,,wg-a,,,,AAXX 10214 07790 12460 41802 10230 20190 30132 40146 52010 60006 84500 92100=
07790,1998-07-11 00:00:00,20,1014.6,0,88,18,10000,7.408,,,250,,,,,,,,,,,wg-a,,,,AAXX 11004 07790 12460 32504 10200 20180 30132 40146 50000 60006 83500 90000=
07790,1998-07-11 03:00:00,20,1014,-0.6,83,17,10000,7.408,,,250,,,,,,,,,,,wg-a,,,,AAXX 11034 07790 12460 32504 10200 20170 30126 40140 55006 60006 83500 90300=
07790,1998-07-11 06:00:00,23,1014.2,0.2,73,18,8000,7.408,,,230,18.9,25,,,,,,,,11,wg-a,,,,AAXX 11064 07790 02458 /2304 10230 20180 30128 40142 53002 60006 71100 81500 90600 333 10250 20189 60004=
07790,1998-07-11 09:00:00,26,1014.2,-0,61,18,8000,11.112,,,120,,,,,,,,,,,wg-a,,,,AAXX 11094 07790 12458 21206 10260 20180 30128 40142 54000 60006 82101 90900=
07790,1998-07-11 12:00:00,27,1014,-0.2,66,20,8000,14.816,,,100,,,,,,,,,,,wg-a,,,,AAXX 11124 07790 12458 31008 10270 20200 30126 40140 58002 60006 82201 91200=
07790,1998-07-11 15:00:00,26,1013.6,-0.4,70,20,9000,11.112,,,40,,,,,,,,,,,wg-a,,,,AAXX 11154 07790 12559 60406 10260 20200 30122 40136 55004 60006 81231 91500=
07790,1998-07-11 18:00:00,25,1013.4,-0.2,69,19,8000,14.816,,,20,22.6,27.6,,,,,,,,,wg-a,,,,AAXX 11184 07790 12558 /0208 10250 20190 30120 40134 55002 60006 81232 91800 333 10276 20226=
07790,1998-07-11 21:00:00,22,1014.6,1.2,78,18,18000,3.704,,,260,,,,,,,,,,,wg-a,,,,AAXX 11214 07790 12568 32602 10220 20180 30132 40146 53012 60006 82501 92100=
07790,1998-07-12 00:00:00,22,1014.7,0.1,83,19,15000,3.704,,,250,,,,,,,,,,,wg-a,,,,AAXX 12004 07790 12565 72502 10220 20190 30133 40147 52001 60006 875// 90000=
07790,1998-07-12 03:00:00,22,1013.9,-0.8,78,18,20000,7.408,,,240,,,,,,,,,,,wg-a,,,,AAXX 12034 07790 12470 72404 10220 20180 30125 40139 56008 60006 875// 90300=
07790,1998-07-12 06:00:00,23,1013.9,-0,73,18,12000,3.704,,,220,21,24.7,,,,,,,,,wg-a,,,,AAXX 12064 07790 02462 72202 10230 20180 30125 40139 55000 60006 878// 90600 333 10247 20210 60004=
07790,1998-07-12 09:00:00,27,1014.1,0.2,58,18,20000,14.816,,,150,,,,,,,,,,,wg-a,,,,AAXX 12094 07790 12570 61508 10270 20180 30127 40141 50002 60006 82204 90900=
07790,1998-07-12 12:00:00,28,1014.4,0.3,58,19,18000,14.816,,,130,,,,,,,,,,,wg-a,,,,AAXX 12124 07790 12568 71308 10280 20190 30130 40144 52003 60006 83801 91200=
07790,1998-07-12 15:00:00,26,1014.2,-0.2,65,19,15000,7.408,,,130,,,,,,,,,,,wg-a,,,,AAXX 12154 07790 12565 71304 10260 20190 30128 40142 58002 60006 878// 91500=
07790,1998-07-12 18:00:00,26,1013.7,-0.5,58,17,11000,3.704,,,80,22.6,28,,,,,,,,,wg-a,,,,AAXX 12184 07790 12/61 /0802 10260 20170 30123 40137 56005 60006 91800 333 10280 20226=
07790,1998-07-12 21:00:00,23,1015.1,1.4,78,19,20000,3.704,,,320,,,,,,,,,,,wg-a,,,,AAXX 12214 07790 12670 23202 10230 20190 30137 40151 53014 60006 82500 92100=
07790,1998-07-13 00:00:00,22,1015.1,0,83,19,20000,3.704,,,250,,,,,,,,,,,wg-a,,,,AAXX 13004 07790 12470 /2502 10220 20190 30137 40151 50000 60006 86500 90000=
07790,1998-07-13 06:00:00,22,1014.8,0.3,83,19,12000,3.704,,,260,21.5,25.9,,,,,,,,,wg-a,,,,AAXX 13064 07790 02562 52602 10220 20190 30134 40148 50003 60006 85200 90600 333 10259 20215 60004=
07790,1998-07-13 09:00:00,26,1015.1,0.3,65,19,11000,14.816,,,80,,,,,,,,,,,wg-a,,,,AAXX 13094 07790 12461 30808 10260 20190 30137 40151 53003 60006 83200 90900=
07790,1998-07-13 12:00:00,26,1014,-1.1,65,19,11000,11.112,,,100,,,,,,,,,,,wg-a,,,,AAXX 13124 07790 12561 /1006 10260 20190 30126 40140 58011 60006 86500 91200=
07790,1998-07-13 15:00:00,26,1012.9,-1.1,65,19,11000,11.112,,,120,,,,,,,,,,,wg-a,,,,AAXX 13154 07790 12561 /1206 10260 20190 30115 40129 56011 60006 86500 91500=
07790,1998-07-13 18:00:00,25,1012,-0.9,69,19,10000,7.408,,,140,22.1,26.7,,,,,,,,,wg-a,,,,AAXX 13184 07790 12560 71404 10250 20190 30106 40120 56009 60006 875// 91800 333 10267 20221=
07790,1998-07-13 21:00:00,22,1011.8,-0.2,83,19,15000,3.704,,,320,,,,,,,,,,,wg-a,,,,AAXX 13214 07790 12465 /3202 10220 20190 30104 40118 55002 60006 82502 92100=
07790,1998-07-14 00:00:00,20,1010.6,-1.2,88,18,15000,3.704,,,310,,,,,,,,,,,wg-a,,,,AAXX 14004 07790 12465 73102 10200 20180 30092 40106 57012 60006 81632 90000=
07790,1998-07-14 03:00:00,20,1009.6,-1,88,18,15000,7.408,,,230,,,,,,,,,,,wg-a,,,,AAXX 14034 07790 12465 72304 10200 20180 30082 40096 58010 60006 81632 90300=
07790,1998-07-14 06:00:00,22,1009.6,0,78,18,9000,11.112,,,220,19.7,24.6,,,,,,,,,wg-a,,,,AAXX 14064 07790 02559 82206 10220 20180 30082 40096 50000 60006 83532 90600 333 10246 20197 60004=
07790,1998-07-14 09:00:00,23,1010.1,0.5,83,20,7000,7.408,,,170,,,,,,,,,,21,wg-a,,,,AAXX 14094 07790 02457 81704 10230 20200 30087 40101 51005 61000 72162 8457/ 90900 333 ////=
07790,1998-07-14 12:00:00,25,1008.8,-1.3,74,20,8000,11.112,,,150,,,,,,,,,,2,wg-a,,,,AAXX 14124 07790 02458 71506 10250 20200 30074 40088 58013 61000 70262 8487/ 91200 333 ////=
07790,1998-07-14 15:00:00,27,1008.3,-0.5,62,19,9000,11.112,,,120,,,,,,,,,,,wg-a,,,,AAXX 14154 07790 12559 /1206 10270 20190 30069 40083 58005 60006 83282 91500=
07790,1998-07-14 18:00:00,25,1008.4,0.1,69,19,15000,7.408,,,100,22.5,26.8,,,,,,,,,wg-a,,,,AAXX 14184 07790 12565 61004 10250 20190 30070 40084 53001 60006 82280 91800 333 10268 20225=
07790,1998-07-14 21:00:00,20,1008.7,0.3,88,18,20000,0,,,0,,,,,,,,,,,wg-a,,,,AAXX 14214 07790 12/70 00000 10200 20180 30073 40087 53003 60006 80000 92100=
07790,1998-07-15 00:00:00,19,1009.7,1,83,16,20000,7.408,,,260,,,,,,,,,,,wg-a,,,,AAXX 15004 07790 12470 /2604 10190 20160 30083 40097 51010 60006 85200 90000=
07790,1998-07-15 03:00:00,22,1010.4,0.7,73,17,20000,18.52,,,30,,,,,,,,,,,wg-a,,,,AAXX 15034 07790 12570 70310 10220 20170 30090 40104 51007 60006 872// 90300=
07790,1998-07-15 06:00:00,23,1011,0.6,65,16,25000,11.112,,,330,18.6,24.8,,,,,,,,,wg-a,,,,AAXX 15064 07790 02675 53306 10230 20160 30096 40110 53006 60006 84831 90600 333 10248 20186 61000=
07790,1998-07-15 09:00:00,25,1012,1,54,15,35000,11.112,,,30,,,,,,,,,,,wg-a,,,,AAXX 15094 07790 12681 /0306 10250 20150 30106 40120 51010 60006 81231 90900=
07790,1998-07-15 12:00:00,26,1012.3,0.3,51,15,35000,22.224,,,20,,,,,,,,,,,wg-a,,,,AAXX 15124 07790 12681 /0212 10260 20150 30109 40123 51003 60006 81200 91200=
07790,1998-07-15 15:00:00,27,1012.3,0,42,13,35000,18.52,,,20,,,,,,,,,,,wg-a,,,,AAXX 15154 07790 12681 30210 10270 20130 30109 40123 50000 60006 81201 91500=
07790,1998-07-15 18:00:00,25,1012.5,0.2,50,14,20000,25.928,,,350,23.1,27.1,,,,,,,,,wg-a,,,,AAXX 15184 07790 12570 /3514 10250 20140 30111 40125 53002 60006 81500 91800 333 10271 20231=
07790,1998-07-15 21:00:00,21,1014.4,1.9,56,12,20000,14.816,,,260,,,,,,,,,,,wg-a,,,,AAXX 15214 07790 12/70 02608 10210 20120 30130 40144 51019 60006 80000 92100=
07790,1998-07-16 00:00:00,20,1015.1,0.7,64,13,20000,18.52,,,240,,,,,,,,,,,wg-a,,,,AAXX 16004 07790 12/70 02410 10200 20130 30137 40151 50007 60006 80000 90000=
07790,1998-07-16 03:00:00,20,1015,-0.1,64,13,20000,14.816,,,240,,,,,,,,,,,wg-a,,,,AAXX 16034 07790 12/70 02408 10200 20130 30136 40150 58001 60006 80000 90300=
07790,1998-07-16 06:00:00,23,1015.8,0.8,53,13,20000,7.408,,,230,18.2,25.2,,,,,,,,,wg-a,,,,AAXX 16064 07790 02/70 02304 10230 20130 30144 40158 53008 60006 80000 90600 333 10252 20182 60004=
07790,1998-07-16 09:00:00,27,1016.5,0.7,42,13,500,14.816,,,130,,,,,,,,,,,wg-a,,,,AAXX 16094 07790 12600 /1308 10270 20130 30151 40165 51007 60006 81100 90900=
07790,1998-07-16 12:00:00,27,1016.8,0.3,48,15,40000,14.816,,,100,,,,,,,,,,,wg-a,,,,AAXX 16124 07790 12682 /1008 10270 20150 30154 40168 50003 60006 81200 91200=
07790,1998-07-16 15:00:00,27,1016,-0.8,51,16,40000,14.816,,,100,,,,,,,,,,,wg-a,,,,AAXX 16154 07790 12682 /1008 10270 20160 30146 40160 58008 60006 81200 91500=
07790,1998-07-16 18:00:00,25,1015.4,-0.6,65,18,500,7.408,,,100,22.6,27.8,,,,,,,,,wg-a,,,,AAXX 16184 07790 12600 /1004 10250 20180 30140 40154 57006 60006 81500 91800 333 10278 20226=
07790,1998-07-16 21:00:00,21,1015.8,0.4,78,17,20000,3.704,,,260,,,,,,,,,,,wg-a,,,,AAXX 16214 07790 12/70 02602 10210 20170 30144 40158 53004 60006 80000 92100=
07790,1998-07-17 00:00:00,20,1015.5,-0.3,73,15,20000,14.816,,,230,,,,,,,,,,,wg-a,,,,AAXX 17004 07790 12/70 02308 10200 20150 30141 40155 58003 60006 80000 90000=
07790,1998-07-17 03:00:00,20,1014.5,-1,49,9,20000,11.112,,,230,,,,,,,,,,,wg-a,,,,AAXX 17034 07790 12/70 02306 10200 20090 30131 40145 56010 60006 80000 90300=
07790,1998-07-17 06:00:00,21,1014.8,0.3,49,10,20000,7.408,,,220,18.8,24.7,,,,,,,,,wg-a,,,,AAXX 17064 07790 02670 /2204 10210 20100 30134 40148 51003 60006 81500 90600 333 10247 20188 60004=
07790,1998-07-17 09:00:00,26,1015.5,0.7,58,17,20000,18.52,,,120,,,,,,,,,,,wg-a,,,,AAXX 17094 07790 12570 /1210 10260 20170 30141 40155 53007 60006 81500 90900=
07790,1998-07-17 12:00:00,28,1015.3,-0.2,51,17,11000,14.816,,,120,,,,,,,,,,,wg-a,,,,AAXX 17124 07790 12/61 /1208 10280 20170 30139 40153 58002 60006 91200=
07790,1998-07-17 15:00:00,27,1015.2,-0.1,62,19,15000,11.112,,,130,,,,,,,,,,,wg-a,,,,AAXX 17154 07790 12565 /1306 10270 20190 30138 40152 58001 60006 81100 91500=
07790,1998-07-17 18:00:00,26,1015,-0.2,65,19,15000,7.408,,,60,21.2,28,,,,,,,,,wg-a,,,,AAXX 17184 07790 12/65 00604 10260 20190 30136 40150 55002 60006 80000 91800 333 10280 20212=
07790,1998-07-17 21:00:00,22,1016.2,1.2,83,19,20000,7.408,,,220,,,,,,,,,,,wg-a,,,,AAXX 17214 07790 12/70 02204 10220 20190 30148 40162 51012 60006 80000 92100=
07790,1998-07-18 00:00:00,20,1016.3,0.1,83,17,20000,3.704,,,240,,,,,,,,,,,wg-a,,,,AAXX 18004 07790 12570 22402 10200 20170 30149 40163 52001 60006 82500 90000=
07790,1998-07-18 03:00:00,21,1015.9,-0.4,78,17,20000,3.704,,,250,,,,,,,,,,,wg-a,,,,AAXX 18034 07790 12470 /2502 10210 20170 30145 40159 56004 60006 85500 90300=
07790,1998-07-18 06:00:00,23,1016.6,0.7,78,19,8000,3.704,,,220,19.5,25.5,,,,,,,,,wg-a,,,,AAXX 18064 07790 02458 /2202 10230 20190 30152 40166 51007 60006 81800 90600 333 10255 20195 60004=
07790,1998-07-18 09:00:00,26,1017.1,0.5,70,20,12000,18.52,,,130,,,,,,,,,,,wg-a,,,,AAXX 18094 07790 12462 /1310 10260 20200 30157 40171 53005 60006 85800 90900=
07790,1998-07-18 12:00:00,27,1017.1,-0,58,18,18000,18.52,,,140,,,,,,,,,,,wg-a,,,,AAXX 18124 07790 12468 71410 10270 20180 30157 40171 54000 60006 85830 91200=
07790,1998-07-18 15:00:00,27,1016.6,-0.5,58,18,25000,18.52,,,160,,,,,,,,,,,wg-a,,,,AAXX 18154 07790 12575 /1610 10270 20180 30152 40166 58005 60006 81830 91500=
07790,1998-07-18 18:00:00,26,1016.5,-0.1,65,19,15000,7.408,,,140,23.2,27.8,,,,,,,,,wg-a,,,,AAXX 18184 07790 12/65 01404 10260 20190 30151 40165 55001 60006 80000 91800 333 10278 20232=
07790,1998-07-18 21:00:00,21,1017.4,0.9,78,17,15000,3.704,,,220,,,,,,,,,,,wg-a,,,,AAXX 18214 07790 12/65 02202 10210 20170 30160 40174 50009 60006 80000 92100=
07790,1998-07-19 00:00:00,19,1017,-0.4,78,15,15000,3.704,,,260,,,,,,,,,,,wg-a,,,,AAXX 19004 07790 12/65 02602 10190 20150 30156 40170 58004 60006 80000 90000=
07790,1998-07-19 03:00:00,19,1017.2,0.2,88,17,15000,7.408,,,270,,,,,,,,,,,wg-a,,,,AAXX 19034 07790 12565 22704 10190 20170 30158 40172 51002 60006 82500 90300=
07790,1998-07-19 06:00:00,22,1018.1,0.9,83,19,7000,3.704,,,230,18.7,25.5,,,,,,,,,wg-a,,,,AAXX 19064 07790 02457 32302 10220 20190 30167 40181 53009 60006 83500 90600 333 10255 20187 60004=
07790,1998-07-19 09:00:00,27,1018.6,0.5,66,20,8000,11.112,,,120,,,,,,,,,,,wg-a,,,,AAXX 19094 07790 12558 /1206 10270 20200 30172 40186 52005 60006 81100 90900=
07790,1998-07-19 12:00:00,28,1018.5,-0.1,62,20,12000,14.816,,,110,,,,,,,,,,,wg-a,,,,AAXX 19124 07790 12662 /1108 10280 20200 30171 40185 58001 60006 81100 91200=
07790,1998-07-19 15:00:00,29,1018,-0.5,55,19,12000,11.112,,,140,,,,,,,,,,,wg-a,,,,AAXX 19154 07790 12/62 01406 10290 20190 30166 40180 58005 60006 80000 91500=
07790,1998-07-19 18:00:00,26,1017.8,-0.2,74,21,0,7.408,,,150,22.4,28.8,,,,,,,,,wg-a,,,,AAXX 19184 07790 12/// /1504 10260 20210 30164 40178 55002 60006 91800 333 10288 20224=
07790,1998-07-19 21:00:00,23,1018.7,0.9,89,21,15000,3.704,,,230,,,,,,,,,,,wg-a,,,,AAXX 19214 07790 12/65 02302 10230 20210 30173 40187 51009 60006 80000 92100=
07790,1998-07-20 00:00:00,21,1018.7,0,83,18,15000,7.408,,,220,,,,,,,,,,,wg-a,,,,AAXX 20004 07790 12/65 02204 10210 20180 30173 40187 50000 60006 80000 90000=
07790,1998-07-20 03:00:00,20,1017.9,-0.8,83,17,15000,7.408,,,230,,,,,,,,,,,wg-a,,,,AAXX 20034 07790 12/65 02304 10200 20170 30165 40179 57008 60006 80000 90300=
07790,1998-07-20 06:00:00,23,1018.5,0.6,73,18,12000,3.704,,,220,19.2,26,,,,,,,,,wg-a,,,,AAXX 20064 07790 02/62 12202 10230 20180 30171 40185 51006 60006 80001 90600 333 10260 20192 60004=
07790,1998-07-20 09:00:00,29,1018.2,-0.3,62,21,10000,7.408,,,130,,,,,,,,,,,wg-a,,,,AAXX 20094 07790 12/60 /1304 10290 20210 30168 40182 58003 60006 90900=
07790,1998-07-20 12:00:00,29,1017.5,-0.7,66,22,12000,14.816,,,130,,,,,,,,,,,wg-a,,,,AAXX 20124 07790 12/62 01308 10290 20220 30161 40175 57007 60006 80000 91200=
07790,1998-07-20 15:00:00,30,1016.5,-1,49,18,20000,11.112,,,140,,,,,,,,,,,wg-a,,,,AAXX 20154 07790 12/70 11406 10300 20180 30151 40165 57010 60006 80001 91500=
07790,1998-07-20 18:00:00,28,1015.4,-1.1,66,21,20000,3.704,,,90,23,30.7,,,,,,,,,wg-a,,,,AAXX 20184 07790 12/70 00902 10280 20210 30140 40154 56011 60006 80000 91800 333 10307 20230=
07790,1998-07-20 21:00:00,23,1015.5,0.1,73,18,500,3.704,,,220,,,,,,,,,,,wg-a,,,,AAXX 20214 07790 12/00 02202 10230 20180 30141 40155 53001 60006 80000 92100=
07790,1998-07-21 00:00:00,20,1014.9,-0.6,83,17,500,3.704,,,240,,,,,,,,,,,wg-a,,,,AAXX 21004 07790 12/00 02402 10200 20170 30135 40149 58006 60006 80000 90000=
07790,1998-07-21 03:00:00,19,1014.4,-0.5,73,14,500,7.408,,,240,,,,,,,,,,,wg-a,,,,AAXX 21034 07790 12/00 02404 10190 20140 30130 40144 55005 60006 80000 90300=
07790,1998-07-21 06:00:00,23,1014.8,0.4,57,14,25000,3.704,,,200,18.7,27.5,,,,,,,,,wg-a,,,,AAXX 21064 07790 02/75 02002 10230 20140 30134 40148 52004 60006 80000 90600 333 10275 20187 60004=
07790,1998-07-21 09:00:00,30,1014.6,-0.2,55,20,25000,14.816,,,150,,,,,,,,,,,wg-a,,,,AAXX 21094 07790 12/75 01508 10300 20200 30132 40146 58002 60006 80000 90900=
07790,1998-07-21 12:00:00,31,1014.1,-0.5,43,17,25000,31.484,,,150,,,,,,,,,,,wg-a,,,,AAXX 21124 07790 12/75 01517 10310 20170 30127 40141 56005 60006 80000 91200=
07790,1998-07-21 15:00:00,29,1013.7,-0.4,55,19,25000,22.224,,53.708,150,,,,,,,,,,,wg-a,,,,AAXX 21154 07790 12/75 01512 10290 20190 30123 40137 58004 60006 80000 91500 333 91029=
07790,1998-07-21 18:00:00,28,1013.7,-0,62,20,25000,7.408,,53.708,160,23.1,30.8,,,,,,,,,wg-a,,,,AAXX 21184 07790 12/75 01604 10280 20200 30123 40137 55000 60006 80000 91800 333 10308 20231 91029=
07790,1998-07-21 21:00:00,23,1014.7,1,78,19,20000,3.704,,,240,,,,,,,,,,,wg-a,,,,AAXX 21214 07790 12/70 12402 10230 20190 30133 40147 51010 60006 80002 92100=
07790,1998-07-22 00:00:00,21,1014.7,-0,73,16,20000,3.704,,,220,,,,,,,,,,,wg-a,,,,AAXX 22004 07790 12/70 12202 10210 20160 30133 40147 55000 60006 80002 90000=
07790,1998-07-22 03:00:00,19,1014.7,-0,68,13,20000,7.408,,,230,,,,,,,,,,,wg-a,,,,AAXX 22034 07790 12370 /2304 10190 20130 30133 40147 55000 60006 81602 90300=
07790,1998-07-22 06:00:00,22,1015.3,0.6,65,15,25000,7.408,,,230,18.9,28,,,,,,,,,wg-a,,,,AAXX 22064 07790 02/75 32304 10220 20150 30139 40153 51006 60006 81032 90600 333 10280 20189 60004=
07790,1998-07-22 09:00:00,28,1015.6,0.3,62,20,25000,14.816,,,160,,,,,,,,,,,wg-a,,,,AAXX 22094 07790 12/75 21608 10280 20200 30142 40156 51003 60006 80002 90900=
07790,1998-07-22 12:00:00,29,1015.4,-0.2,58,20,500,18.52,,,120,,,,,,,,,,,wg-a,,,,AAXX 22124 07790 12600 /1210 10290 20200 30140 40154 58002 60006 81100 91200=
07790,1998-07-22 15:00:00,29,1015,-0.4,66,22,500,14.816,,,130,,,,,,,,,,,wg-a,,,,AAXX 22154 07790 12600 /1308 10290 20220 30136 40150 57004 60006 81101 91500=
07790,1998-07-22 18:00:00,26,1015,-0,84,23,500,11.112,,,150,22.4,29.4,,,,,,,,,wg-a,,,,AAXX 22184 07790 12/00 01506 10260 20230 30136 40150 55000 60006 80000 91800 333 10294 20224=
07790,1998-07-22 21:00:00,24,1015.1,0.1,89,22,20000,3.704,,,250,,,,,,,,,,,wg-a,,,,AAXX 22214 07790 12/70 02502 10240 20220 30137 40151 53001 60006 80000 92100=
07790,1998-07-23 00:00:00,24,1015.6,0.5,89,22,10000,7.408,,,300,,,,,,,,,,,wg-a,,,,AAXX 23004 07790 12260 43004 10240 20220 30142 40156 51005 60006 84600 90000=
07790,1998-07-23 03:00:00,21,1014.6,-1,88,19,10000,3.704,,,230,,,,,,,,,,,wg-a,,,,AAXX 23034 07790 12560 /2302 10210 20190 30132 40146 56010 60006 81100 90300=
07790,1998-07-23 06:00:00,23,1015.6,1,89,21,7000,7.408,,,240,19.7,26.2,,,,,,,,,wg-a,,,,AAXX 23064 07790 02257 /2404 10230 20210 30142 40156 53010 60006 82600 90600 333 10262 20197 60004=
07790,1998-07-23 09:00:00,27,1015.7,0.1,70,21,10000,11.112,,,50,,,,,,,,,,,wg-a,,,,AAXX 23094 07790 12/60 /0506 10270 20210 30143 40157 53001 60006 80000 90900=
07790,1998-07-23 12:00:00,30,1015.1,-0.6,55,20,12000,11.112,,,80,,,,,,,,,,,wg-a,,,,AAXX 23124 07790 12662 /0806 10300 20200 30137 40151 58006 60006 81100 91200=
07790,1998-07-23 15:00:00,31,1014.6,-0.5,40,16,12000,11.112,,,120,,,,,,,,,,,wg-a,,,,AAXX 23154 07790 12662 /1206 10310 20160 30132 40146 58005 60006 81100 91500=
07790,1998-07-23 18:00:00,27,1014.6,-0,70,21,12000,7.408,,,140,23.4,31.6,,,,,,,,,wg-a,,,,AAXX 23184 07790 12/62 01404 10270 20210 30132 40146 55000 60006 80000 91800 333 10316 20234=
07790,1998-07-23 21:00:00,23,1015.4,0.8,78,19,20000,0,,,0,,,,,,,,,,,wg-a,,,,AAXX 23214 07790 12/70 00000 10230 20190 30140 40154 51008 60006 80000 92100=
07790,1998-07-24 00:00:00,24,1014.9,-0.5,69,18,20000,11.112,,,170,,,,,,,,,,,wg-a,,,,AAXX 24004 07790 12/70 01706 10240 20180 30135 40149 56005 60006 80000 90000=
07790,1998-07-24 03:00:00,22,1014.5,-0.4,53,12,15000,7.408,,,230,,,,,,,,,,,wg-a,,,,AAXX 24034 07790 12465 12304 10220 20120 30131 40145 55004 60006 81500 90300=
07790,1998-07-24 06:00:00,24,1014.6,0.1,57,15,15000,7.408,,,220,20.6,27.2,,,,,,,,,wg-a,,,,AAXX 24064 07790 02/65 02204 10240 20150 30132 40146 51001 60006 80000 90600 333 10272 20206 60004=
07790,1998-07-24 09:00:00,29,1014.6,-0,55,19,10000,14.816,,,150,,,,,,,,,,,wg-a,,,,AAXX 24094 07790 12/60 01508 10290 20190 30132 40146 55000 60006 80000 90900=
07790,1998-07-24 12:00:00,31,1014.5,-0.1,55,21,10000,14.816,,,110,,,,,,,,,,,wg-a,,,,AAXX 24124 07790 12/60 01108 10310 20210 30131 40145 58001 60006 80000 91200=
07790,1998-07-24 15:00:00,31,1014.2,-0.3,52,20,10000,11.112,,,100,,,,,,,,,,,wg-a,,,,AAXX 24154 07790 12/60 01006 10310 20200 30128 40142 58003 60006 80000 91500=
07790,1998-07-24 18:00:00,28,1014,-0.2,70,22,10000,11.112,,,20,24,31.8,,,,,,,,,wg-a,,,,AAXX 24184 07790 12/60 00206 10280 20220 30126 40140 55002 60006 80000 91800 333 10318 20240=
07790,1998-07-24 21:00:00,24,1014.6,0.6,83,21,13000,3.704,,,240,,,,,,,,,,,wg-a,,,,AAXX 24214 07790 12/63 02402 10240 20210 30132 40146 52006 60006 80000 92100=
07790,1998-07-25 00:00:00,21,1013.7,-0.9,88,19,15000,3.704,,,230,,,,,,,,,,,wg-a,,,,AAXX 25004 07790 12/65 02302 10210 20190 30123 40137 57009 60006 80000 90000=
07790,1998-07-25 03:00:00,21,1013.2,-0.5,78,17,15000,7.408,,,260,,,,,,,,,,,wg-a,,,,AAXX 25034 07790 12/65 02604 10210 20170 30118 40132 58005 60006 80000 90300=
07790,1998-07-25 06:00:00,25,1013.7,0.5,83,22,10000,7.408,,,320,20.5,27.7,,,,,,,,,wg-a,,,,AAXX 25064 07790 02/60 03204 10250 20220 30123 40137 53005 60006 80000 90600 333 10277 20205 60004=
07790,1998-07-25 09:00:00,28,1014.1,0.4,70,22,11000,11.112,,,50,,,,,,,,,,,wg-a,,,,AAXX 25094 07790 12/61 /0506 10280 20220 30127 40141 51004 60006 90900=
07790,1998-07-25 12:00:00,29,1013.9,-0.2,62,21,13000,11.112,,,50,,,,,,,,,,,wg-a,,,,AAXX 25124 07790 12/63 00506 10290 20210 30125 40139 58002 60006 80000 91200=
07790,1998-07-25 15:00:00,30,1013.5,-0.4,62,22,11000,7.408,,,130,,,,,,,,,,,wg-a,,,,AAXX 25154 07790 12/61 /1304 10300 20220 30121 40135 58004 60006 80000 91500=
07790,1998-07-25 18:00:00,28,1013.1,-0.4,70,22,11000,3.704,,,100,23.9,30.2,,,,,,,,,wg-a,,,,AAXX 25184 07790 12/61 01002 10280 20220 30117 40131 55004 60006 80000 91800 333 10302 20239=
07790,1998-07-25 21:00:00,25,1013.9,0.8,83,22,10000,7.408,,,320,,,,,,,,,,,wg-a,,,,AAXX 25214 07790 12/60 03204 10250 20220 30125 40139 52008 60006 80000 92100=
07790,1998-07-26 00:00:00,23,1013.9,0,89,21,8000,7.408,,,240,,,,,,,,,,,wg-a,,,,AAXX 26004 07790 12/58 02404 10230 20210 30125 40139 50000 60006 80000 90000=
07790,1998-07-26 03:00:00,22,1014.1,0.2,88,20,7000,3.704,,,300,,,,,,,,,,,wg-a,,,,AAXX 26034 07790 12/57 03002 10220 20200 30127 40141 53002 60006 80000 90300=
07790,1998-07-26 06:00:00,25,1013.9,-0.2,74,20,8000,11.112,,,230,21.7,27.8,,,,,,,,11,wg-a,,,,AAXX 26064 07790 02458 12306 10250 20200 30125 40139 58002 60006 71100 81600 90600 333 10278 20217 60004=
07790,1998-07-26 09:00:00,30,1014.1,0.2,59,21,9000,7.408,,,110,,,,,,,,,,,wg-a,,,,AAXX 26094 07790 12559 11104 10300 20210 30127 40141 51002 60006 81100 90900=
07790,1998-07-26 12:00:00,30,1014,-0.1,62,22,9000,14.816,,,130,,,,,,,,,,,wg-a,,,,AAXX 26124 07790 12559 /1308 10300 20220 30126 40140 58001 60006 81100 91200=
07790,1998-07-26 15:00:00,30,1013.3,-0.7,59,21,8000,14.816,,,140,,,,,,,,,,,wg-a,,,,AAXX 26154 07790 12/58 01408 10300 20210 30119 40133 56007 60006 80000 91500=
07790,1998-07-26 18:00:00,28,1013.1,-0.2,79,24,7000,7.408,,,130,24.9,31.2,,,,,,,,,wg-a,,,,AAXX 26184 07790 12/57 01304 10280 20240 30117 40131 58002 60006 80000 91800 333 10312 20249=
07790,1998-07-26 21:00:00,26,1014.2,1.1,84,23,10000,7.408,,,10,,,,,,,,,,,wg-a,,,,AAXX 26214 07790 12/60 00104 10260 20230 30128 40142 53011 60006 80000 92100=
07790,1998-07-27 00:00:00,24,1014.5,0.3,89,22,0,3.704,,,250,,,,,,,,,,,wg-a,,,,AAXX 27004 07790 12/// /2502 10240 20220 30131 40145 50003 60006 90000=
07790,1998-07-27 03:00:00,22,1013,-1.5,88,20,6000,7.408,,,230,,,,,,,,,,,wg-a,,,,AAXX 27034 07790 12456 22304 10220 20200 30116 40130 58015 60006 82600 90300=
07790,1998-07-27 06:00:00,25,1012.8,-0.2,74,20,8000,7.408,,,210,21.8,27.9,,,,,,,,,wg-a,,,,AAXX 27064 07790 02458 /2104 10250 20200 30114 40128 55002 60006 81600 90600 333 10279 20218 60004=
07790,1998-07-27 09:00:00,29,1012.5,-0.3,70,23,10000,14.816,,,140,,,,,,,,,,,wg-a,,,,AAXX 27094 07790 12560 11408 10290 20230 30111 40125 58003 60006 81100 90900=
07790,1998-07-27 12:00:00,30,1012,-0.5,62,22,10000,22.224,,,140,,,,,,,,,,,wg-a,,,,AAXX 27124 07790 12560 /1412 10300 20220 30106 40120 55005 60006 81100 91200=
07790,1998-07-27 15:00:00,29,1011.2,-0.8,66,22,11000,18.52,,,140,,,,,,,,,,,wg-a,,,,AAXX 27154 07790 12561 /1410 10290 20220 30098 40112 58008 60006 81100 91500=
07790,1998-07-27 18:00:00,28,1010.5,-0.7,79,24,8000,7.408,,,130,24.6,30.9,,,,,,,,,wg-a,,,,AAXX 27184 07790 12558 /1304 10280 20240 30091 40105 56007 60006 81100 91800 333 10309 20246=
07790,1998-07-27 21:00:00,26,1010.1,-0.4,89,24,8000,0,,,0,,,,,,,,,,,wg-a,,,,AAXX 27214 07790 12658 /0000 10260 20240 30087 40101 56004 60006 81580 92100=
07790,1998-07-28 00:00:00,25,1009.6,-0.5,89,23,8000,7.408,,,310,,,,,,,,,,,wg-a,,,,AAXX 28004 07790 12658 73104 10250 20230 30082 40096 58005 60006 8357/ 90000=
07790,1998-07-28 03:00:00,24,1008.6,-1,78,20,8000,7.408,,,300,,,,,,,,,,,wg-a,,,,AAXX 28034 07790 12658 /3004 10240 20200 30072 40086 56010 60006 82582 90300=
07790,1998-07-28 06:00:00,26,1008.4,-0.2,65,19,9000,3.704,,,230,22.7,27.5,,,,,,,,,wg-a,,,,AAXX 28064 07790 02459 /2302 10260 20190 30070 40084 58002 60006 81500 90600 333 10275 20227 60004=
07790,1998-07-28 09:00:00,30,1008.1,-0.2,55,20,12000,14.816,,,110,,,,,,,,,,,wg-a,,,,AAXX 28094 07790 12562 41108 10300 20200 30068 40081 58002 60006 81204 90900=
07790,1998-07-28 12:00:00,29,1008.1,-0.1,66,22,10000,18.52,,,130,,,,,,,,,,,wg-a,,,,AAXX 28124 07790 12560 81310 10290 20220 30067 40081 58001 60006 8683/ 91200=
07790,1998-07-28 15:00:00,29,1007.3,-0.8,45,16,10000,18.52,,,20,,,,,,,,,,,wg-a,,,,AAXX 28154 07790 12460 /0210 10290 20160 30059 40073 58008 60006 8283/ 91500=
07790,1998-07-28 18:00:00,28,1006.9,-0.4,42,14,20000,18.52,,,340,25.5,30.6,,,,,,,,,wg-a,,,,AAXX 28184 07790 12670 /3410 10280 20140 30055 40069 55004 60006 81594 91800 333 10306 20255=
07790,1998-07-28 21:00:00,25,1007.5,0.6,50,14,20000,7.408,,,350,,,,,,,,,,,wg-a,,,,AAXX 28214 07790 12670 23504 10250 20140 30061 40075 53006 60006 81571 92100=
07790,1998-07-29 00:00:00,23,1007.7,0.2,50,12,20000,7.408,,,220,,,,,,,,,,,wg-a,,,,AAXX 29004 07790 12670 /2204 10230 20120 30063 40077 51002 60006 81571 90000=
07790,1998-07-29 03:00:00,23,1007.4,-0.3,50,12,20000,11.112,,,220,,,,,,,,,,,wg-a,,,,AAXX 29034 07790 12/70 02206 10230 20120 30060 40074 55003 60006 80000 90300=
07790,1998-07-29 06:00:00,25,1008.7,1.3,47,13,500,11.112,,,210,21.5,27.9,,,,,,,,,wg-a,,,,AAXX 29064 07790 02/00 02106 10250 20130 30073 40087 53013 60006 80000 90600 333 10279 20215 60004=
07790,1998-07-29 09:00:00,28,1010,1.3,51,17,500,14.816,,,80,,,,,,,,,,,wg-a,,,,AAXX 29094 07790 12600 /0808 10280 20170 30086 40100 51013 60006 81100 90900=
07790,1998-07-29 12:00:00,29,1010.1,0.1,52,18,500,11.112,,,90,,,,,,,,,,,wg-a,,,,AAXX 29124 07790 12600 /0906 10290 20180 30087 40101 51001 60006 81100 91200=
07790,1998-07-29 15:00:00,29,1010.1,0,52,18,500,7.408,,,120,,,,,,,,,,,wg-a,,,,AAXX 29154 07790 12600 21204 10290 20180 30087 40101 50000 60006 82100 91500=
07790,1998-07-29 18:00:00,27,1010.1,-0,66,20,500,7.408,,,140,24.7,29.9,,,,,,,,,wg-a,,,,AAXX 29184 07790 12/00 /1404 10270 20200 30087 40101 55000 60006 80000 91800 333 10299 20247=
07790,1998-07-29 21:00:00,23,1011.4,1.3,78,19,25000,0,,,0,,,,,,,,,,,wg-a,,,,AAXX 29214 07790 12/75 00000 10230 20190 30100 40114 53013 60006 80000 92100=
07790,1998-07-30 00:00:00,23,1011.5,0.1,69,17,25000,7.408,,,230,,,,,,,,,,,wg-a,,,,AAXX 30004 07790 12/75 02304 10230 20170 30101 40115 50001 60006 80000 90000=
07790,1998-07-30 03:00:00,21,1011.8,0.3,78,17,25000,7.408,,,220,,,,,,,,,,,wg-a,,,,AAXX 30034 07790 12/75 02204 10210 20170 30104 40118 53003 60006 80000 90300=
07790,1998-07-30 06:00:00,24,1012.5,0.7,69,18,11000,7.408,,,220,20.4,27.2,,,,,,,,,wg-a,,,,AAXX 30064 07790 02/61 /2204 10240 20180 30111 40125 53007 60006 90600 333 10272 20204 60004=
07790,1998-07-30 09:00:00,28,1013,0.5,62,20,20000,11.112,,,120,,,,,,,,,,,wg-a,,,,AAXX 30094 07790 12570 /1206 10280 20200 30116 40130 51005 60006 81100 90900=
07790,1998-07-30 12:00:00,29,1013,0,58,20,20000,11.112,,,100,,,,,,,,,,,wg-a,,,,AAXX 30124 07790 12570 /1006 10290 20200 30116 40130 50000 60006 81100 91200=
07790,1998-07-30 15:00:00,29,1012.4,-0.6,58,20,20000,11.112,,,100,,,,,,,,,,,wg-a,,,,AAXX 30154 07790 12570 /1006 10290 20200 30110 40124 58006 60006 81100 91500=
07790,1998-07-30 18:00:00,27,1012.4,-0,70,21,20000,7.408,,,120,23.7,29.6,,,,,,,,,wg-a,,,,AAXX 30184 07790 12670 /1204 10270 20210 30110 40124 55000 60006 81500 91800 333 10296 20237=
07790,1998-07-30 21:00:00,25,1013.3,0.9,79,21,18000,3.704,,,340,,,,,,,,,,,wg-a,,,,AAXX 30214 07790 12/68 13402 10250 20210 30119 40133 51009 60006 81030 92100=
07790,1998-07-31 00:00:00,23,1013.2,-0.1,83,20,18000,3.704,,,210,,,,,,,,,,,wg-a,,,,AAXX 31004 07790 12/68 02102 10230 20200 30118 40132 58001 60006 80000 90000=
07790,1998-07-31 03:00:00,22,1013.1,-0.1,83,19,18000,7.408,,,220,,,,,,,,,,,wg-a,,,,AAXX 31034 07790 12668 12204 10220 20190 30117 40131 56001 60006 81500 90300=
07790,1998-07-31 06:00:00,24,1014,0.9,69,18,10000,7.408,,,230,21.1,27.3,,,,,,,,,wg-a,,,,AAXX 31064 07790 02460 22304 10240 20180 30126 40140 51009 60006 82530 90600 333 10273 20211 60004=
07790,1998-07-31 09:00:00,28,1014.7,0.7,62,20,18000,14.816,,,120,,,,,,,,,,,wg-a,,,,AAXX 31094 07790 12568 /1208 10280 20200 30133 40147 52007 60006 81500 90900=
07790,1998-07-31 12:00:00,29,1014.4,-0.3,55,19,18000,14.816,,,110,,,,,,,,,,,wg-a,,,,AAXX 31124 07790 12568 21108 10290 20190 30130 40144 58003 60006 82500 91200=
07790,1998-07-31 15:00:00,29,1014.1,-0.3,58,20,10000,11.112,,,120,,,,,,,,,,,wg-a,,,,AAXX 31154 07790 12560 /1206 10290 20200 30127 40141 56003 60006 81500 91500=
07790,1998-07-31 18:00:00,27,1014,-0.1,70,21,10000,7.408,,,100,24.1,29.4,,,,,,,,,wg-a,,,,AAXX 31184 07790 12460 /1004 10270 20210 30126 40140 55001 60006 81600 91800 333 10294 20241=
07790,1998-07-31 21:00:00,24,1015.1,1.1,83,21,12000,3.704,,,250,,,,,,,,,,,wg-a,,,,AAXX 31214 07790 12562 /2502 10240 20210 30137 40151 51011 60006 81100 92100=
07790,1998-08-01 00:00:00,22,1014.5,-0.6,88,20,12000,11.112,,,300,,,,,,,,,,,wg-a,,,,AAXX 01004 07790 12562 33006 10220 20200 30131 40145 55006 60006 81130 90000=
07790,1998-08-01 03:00:00,22,1013.4,-1.1,88,20,12000,11.112,,,210,,,,,,,,,,,wg-a,,,,AAXX 01034 07790 12/62 02106 10220 20200 30120 40134 56011 60006 80000 90300=
07790,1998-08-01 06:00:00,24,1013.4,0,78,20,12000,3.704,,,230,21.3,26.8,,,,,,,,,wg-a,,,,AAXX 01064 07790 02/62 72302 10240 20200 30120 40134 50000 60006 82081 90600 333 10268 20213 60004=
07790,1998-08-01 09:00:00,27,1013.8,0.4,74,22,10000,14.816,,,140,,,,,,,,,,,wg-a,,,,AAXX 01094 07790 12460 71408 10270 20220 30124 40138 53004 60006 8227/ 90900=
07790,1998-08-01 12:00:00,29,1013.1,-0.7,66,22,9000,22.224,,,140,,,,,,,,,,,wg-a,,,,AAXX 01124 07790 12559 31412 10290 20220 30117 40131 56007 60006 81289 91200=
07790,1998-08-01 15:00:00,28,1012.5,-0.6,66,21,12000,22.224,,,130,,,,,,,,,,,wg-a,,,,AAXX 01154 07790 12462 21312 10280 20210 30111 40125 55006 60006 82801 91500=
07790,1998-08-01 18:00:00,26,1010.8,-1.7,79,22,10000,11.112,,,100,23.9,29.8,,,,,,,,3,wg-a,,,,AAXX 01184 07790 02560 71006 10260 20220 30094 40108 58017 60006 70361 82182 91800 333 10298 20239 61000=
07790,1998-08-01 21:00:00,25,1012.1,1.3,83,22,10000,11.112,,,170,,,,,,,,,,13,wg-a,,,,AAXX 01214 07790 12560 71706 10250 20220 30107 40121 50013 60006 71322 8538/ 92100=
07790,1998-08-02 00:00:00,24,1012.5,0.4,74,19,10000,3.704,,,230,,,,,,,,,,,wg-a,,,,AAXX 02004 07790 12660 22302 10240 20190 30111 40125 50004 60006 82100 90000=
07790,1998-08-02 03:00:00,21,1012.9,0.4,73,16,15000,11.112,,,220,,,,,,,,,,,wg-a,,,,AAXX 02034 07790 12665 /2206 10210 20160 30115 40129 51004 60006 81100 90300=
07790,1998-08-02 06:00:00,24,1013.8,0.9,69,18,12000,3.704,,,240,20.5,26.4,,,,,,,,,wg-a,,,,AAXX 02064 07790 02562 /2402 10240 20180 30124 40138 51009 60006 81530 90600 333 10264 20205 61000=
07790,1998-08-02 09:00:00,29,1014.7,0.9,66,22,12000,14.816,,,100,,,,,,,,,,,wg-a,,,,AAXX 02094 07790 12562 41008 10290 20220 30133 40147 52009 60006 84800 90900=
07790,1998-08-02 12:00:00,28,1014.8,0.1,70,22,9000,11.112,,,110,,,,,,,,,,,wg-a,,,,AAXX 02124 07790 12559 /1106 10280 20220 30134 40148 52001 60006 86801 91200=
07790,1998-08-02 15:00:00,28,1014.8,-0,74,23,9000,11.112,,,160,,,,,,,,,,,wg-a,,,,AAXX 02154 07790 12359 71606 10280 20230 30134 40148 55000 60006 8683/ 91500=
07790,1998-08-02 18:00:00,27,1014.6,-0.2,74,22,12000,7.408,,,150,24,29.5,,,,,,,,,wg-a,,,,AAXX 02184 07790 12562 81504 10270 20220 30132 40146 58002 60006 8588/ 91800 333 10295 20240=
07790,1998-08-02 21:00:00,25,1015.7,1.1,89,23,14000,3.704,,,150,,,,,,,,,,,wg-a,,,,AAXX 02214 07790 12464 71502 10250 20230 30143 40157 50011 60006 8588/ 92100=
07790,1998-08-03 00:00:00,24,1015.7,-0,89,22,14000,3.704,,,210,,,,,,,,,,,wg-a,,,,AAXX 03004 07790 12464 /2102 10240 20220 30143 40157 54000 60006 84880 90000=
07790,1998-08-03 03:00:00,26,1016.2,0.5,74,21,12000,18.52,,,360,,,,,,,,,,17,wg-a,,,,AAXX 03034 07790 12462 73610 10260 20210 30148 40162 50005 60006 71792 86970 90300=
07790,1998-08-03 06:00:00,25,1015.9,-0.3,79,21,12000,7.408,,,320,23.1,26.7,,,,,,,,1,wg-a,,,,AAXX 03064 07790 02462 /3204 10250 20210 30145 40159 58003 60006 70192 83870 90600 333 10267 20231 60004=
07790,1998-08-03 09:00:00,27,1015.9,0,66,20,12000,18.52,,,30,,,,,,,,,,,wg-a,,,,AAXX 03094 07790 12462 70310 10270 20200 30145 40159 50000 60006 8287/ 90900=
07790,1998-08-03 12:00:00,27,1015.4,-0.5,74,22,9000,11.112,,,70,,,,,,,,,,,wg-a,,,,AAXX 03124 07790 12559 70706 10270 20220 30140 40154 58005 60006 8587/ 91200=
07790,1998-08-03 15:00:00,28,1015.6,0.2,74,23,8000,14.816,,,130,,,,,,,,,,,wg-a,,,,AAXX 03154 07790 12458 71308 10280 20230 30142 40156 53002 60006 84870 91500=
07790,1998-08-03 18:00:00,26,1016.1,0.5,79,22,8000,14.816,,,10,25,29.5,,,,,,,,1,wg-a,,,,AAXX 03184 07790 02458 70108 10260 20220 30147 40161 53005 60006 70198 8597/ 91800 333 10295 20250 61000=
07790,1998-08-03 21:00:00,24,1017.1,1,89,22,8000,11.112,,,350,,,,,,,,,,,wg-a,,,,AAXX 03214 07790 12458 73506 10240 20220 30157 40171 53010 60006 8487/ 92100=
07790,1998-08-04 00:00:00,23,1016.9,-0.2,73,18,8000,3.704,,,50,,,,,,,,,,,wg-a,,,,AAXX 04004 07790 12458 70502 10230 20180 30155 40169 58002 60006 8487/ 90000=
07790,1998-08-04 03:00:00,22,1018.1,1.2,83,19,12000,11.112,,,280,,,,1,,,,,,80,wg-a,,,,AAXX 04034 07790 12462 82806 10220 20190 30167 40181 53012 60017 78098 8497/ 90300=
07790,1998-08-04 06:00:00,20,1018,-0.1,94,19,4500,7.408,,,30,20.2,26.1,,,,,,,,61,wg-a,,,,AAXX 04064 07790 02445 80304 10200 20190 30166 40180 58001 61000 76198 8592/ 90600 333 10261 20202 6013=
07790,1998-08-04 09:00:00,24,1019.3,1.3,74,19,10000,14.816,,,340,,,,1,,,,,,21,wg-a,,,,AAXX 04094 07790 12460 73408 10240 20190 30179 40193 51013 60017 72162 878// 90900=
07790,1998-08-04 12:00:00,26,1019.1,-0.2,61,18,20000,14.816,,,20,,,,,,,,,,1,wg-a,,,,AAXX 04124 07790 12570 50208 10260 20180 30177 40191 55002 60016 70162 83832 91200=
07790,1998-08-04 15:00:00,26,1018.4,-0.7,58,17,20000,11.112,,,350,,,,,,,,,,,wg-a,,,,AAXX 04154 07790 12570 33506 10260 20170 30170 40184 58007 60006 81432 91500=
07790,1998-08-04 18:00:00,25,1017.9,-0.5,61,17,25000,7.408,,,240,20.3,27.1,,,,,,,,,wg-a,,,,AAXX 04184 07790 12575 /2404 10250 20170 30165 40179 58005 60006 81532 91800 333 10271 20203=
07790,1998-08-05 00:00:00,23,1017,-1.5,61,15,25000,14.816,,,240,,,,,,,,,,,wg-a,,,,AAXX 05004 07790 12575 72408 10230 20150 30156 40170 56015 60006 81530 90000=
07790,1998-08-05 03:00:00,21,1015,-2,73,16,25000,7.408,,,270,,,,,,,,,,,wg-a,,,,AAXX 05034 07790 12675 32704 10210 20160 30136 40150 58020 60006 81530 90300=
07790,1998-08-05 06:00:00,24,1014.9,-0.1,57,15,50000,11.112,,,240,21.1,24.9,,,,,1,,,,wg-a,,,,AAXX 05064 07790 02/84 62406 10240 20150 30135 40149 58001 60006 86082 90600 333 10249 20211 60014=
07790,1998-08-05 09:00:00,29,1015.7,0.8,43,15,40000,11.112,,,50,,,,,,,,,,,wg-a,,,,AAXX 05094 07790 12/82 70506 10290 20150 30143 40157 53008 60006 85082 90900=
07790,1998-08-05 12:00:00,29,1015.4,-0.3,52,18,500,14.816,,,20,,,,,,,,,,29,wg-a,,,,AAXX 05124 07790 12600 70208 10290 20180 30140 40154 58003 60006 72991 82382 91200=
07790,1998-08-05 15:00:00,28,1014.5,-0.9,62,20,20000,11.112,,,340,,,,0,,,,,,17,wg-a,,,,AAXX 05154 07790 12670 73406 10280 20200 30131 40145 58009 60007 71798 83382 91500=
07790,1998-08-05 18:00:00,21,1017.5,3,88,19,500,38.892,,64.82,90,20.5,30.3,,,,,,,,16,wg-a,,,,AAXX 05184 07790 02405 80921 10210 20190 30161 40175 53030 61000 71698 889// 91800 333 10303 20205 6013 91035=
07790,1998-08-05 21:00:00,23,1015.7,-1.8,69,17,17000,22.224,,,250,,,,9,,,,,,80,wg-a,,,,AAXX 05214 07790 12467 82512 10230 20170 30143 40157 58018 60097 78099 889// 92100=
07790,1998-08-06 00:00:00,22,1016.7,1,78,18,17000,7.408,,,250,,,,,,,,,,1,wg-a,,,,AAXX 06004 07790 02567 /2504 10220 20180 30153 40167 51010 60096 70198 83830 90000 333 61000=
07790,1998-08-06 03:00:00,24,1017.2,0.5,69,18,17000,11.112,,,310,,,,,,,,,,,wg-a,,,,AAXX 06034 07790 12567 /3106 10240 20180 30158 40172 51005 60006 85800 90300=
07790,1998-08-06 06:00:00,26,1018.6,1.4,65,19,20000,18.52,,,340,20.2,25.5,,,,,23,,,,wg-a,,,,AAXX 06064 07790 02670 23410 10260 20190 30172 40186 53014 60006 81542 90600 333 10255 20202 60234=
07790,1998-08-06 09:00:00,28,1019,0.4,55,18,20000,22.224,,,20,,,,,,,,,,,wg-a,,,,AAXX 06094 07790 12/70 30212 10280 20180 30176 40190 50004 60006 80002 90900=
07790,1998-08-06 12:00:00,29,1018.2,-0.8,52,18,25000,22.224,,,340,,,,,,,,,,,wg-a,,,,AAXX 06124 07790 12/75 53412 10290 20180 30168 40182 55008 60006 80002 91200=
07790,1998-08-06 15:00:00,31,1016.9,-1.3,38,15,25000,25.928,,,360,,,,,,,,,,,wg-a,,,,AAXX 06154 07790 12/75 43614 10310 20150 30155 40169 58013 60006 80002 91500=
07790,1998-08-06 18:00:00,29,1016.7,-0.2,43,15,25000,11.112,,,340,25.5,31.3,,,,,,,,,wg-a,,,,AAXX 06184 07790 12/75 23406 10290 20150 30153 40167 55002 60006 80002 91800 333 10313 20255=
07790,1998-08-06 21:00:00,25,1017.5,0.8,50,14,25000,7.408,,,310,,,,,,,,,,,wg-a,,,,AAXX 06214 07790 12/75 03104 10250 20140 30161 40175 50008 60006 80000 92100=
07790,1998-08-07 00:00:00,23,1017.5,0,57,14,25000,11.112,,,320,,,,,,,,,,,wg-a,,,,AAXX 07004 07790 12/75 03206 10230 20140 30161 40175 50000 60006 80000 90000=
07790,1998-08-07 03:00:00,21,1017.1,-0.4,69,15,25000,7.408,,,250,,,,,,,,,,,wg-a,,,,AAXX 07034 07790 12/75 02504 10210 20150 30157 40171 57004 60006 80000 90300=
07790,1998-08-07 06:00:00,23,1017.6,0.5,65,16,20000,7.408,,,230,19.9,29,,,,,,,,,wg-a,,,,AAXX 07064 07790 02/70 02304 10230 20160 30162 40176 53005 60006 80000 90600 333 10290 20199 60004=
07790,1998-08-07 09:00:00,28,1018.6,1,48,16,25000,14.816,,,20,,,,,,,,,,,wg-a,,,,AAXX 07094 07790 12/75 00208 10280 20160 30172 40186 52010 60006 80000 90900=
07790,1998-08-07 12:00:00,29,1018.1,-0.5,40,14,500,14.816,,,30,,,,,,,,,,,wg-a,,,,AAXX 07124 07790 12/00 00308 10290 20140 30167 40181 57005 60006 80000 91200=
07790,1998-08-07 15:00:00,29,1017.5,-0.6,37,13,500,7.408,,,50,,,,,,,,,,,wg-a,,,,AAXX 07154 07790 12/00 00504 10290 20130 30161 40175 58006 60006 80000 91500=
07790,1998-08-07 18:00:00,27,1016.8,-0.7,58,18,15000,7.408,,,20,22.6,29.7,,,,,,,,,wg-a,,,,AAXX 07184 07790 12/65 00204 10270 20180 30154 40168 55007 60006 80000 91800 333 10297 20226=
07790,1998-08-07 21:00:00,24,1017.7,0.9,65,17,15000,7.408,,,220,,,,,,,,,,,wg-a,,,,AAXX 07214 07790 12/65 02204 10240 20170 30163 40177 51009 60006 80000 92100=
07790,1998-08-08 00:00:00,23,1017.7,-0,65,16,15000,11.112,,,230,,,,,,,,,,,wg-a,,,,AAXX 08004 07790 12/65 02306 10230 20160 30163 40177 54000 60006 80000 90000=
07790,1998-08-08 03:00:00,23,1016.7,-1,65,16,15000,14.816,,,250,,,,,,,,,,,wg-a,,,,AAXX 08034 07790 12/65 02508 10230 20160 30153 40167 55010 60006 80000 90300=
07790,1998-08-08 09:00:00,29,1017.9,0.7,45,16,25000,11.112,,,40,,,,,,,,,,,wg-a,,,,AAXX 08094 07790 12/75 00406 10290 20160 30165 40179 53007 60006 80000 90900=
07790,1998-08-08 12:00:00,32,1017,-0.9,36,15,20000,11.112,,,130,,,,,,,,,,,wg-a,,,,AAXX 08124 07790 12/70 31306 10320 20150 30156 40170 58009 60006 80001 91200=
07790,1998-08-08 15:00:00,30,1016.4,-0.6,46,17,20000,11.112,,,130,,,,,,,,,,,wg-a,,,,AAXX 08154 07790 12/70 51306 10300 20170 30150 40164 58006 60006 80001 91500=
07790,1998-08-08 18:00:00,27,1015.8,-0.6,70,21,20000,3.704,,,170,24.5,32.2,,,,,,,,,wg-a,,,,AAXX 08184 07790 12/70 /1702 10270 20210 30144 40158 56006 60006 80002 91800 333 10322 20245=
07790,1998-08-08 21:00:00,23,1016.7,0.9,65,16,15000,3.704,,,280,,,,,,,,,,,wg-a,,,,AAXX 08214 07790 12/65 42802 10230 20160 30153 40167 50009 60006 80002 92100=
07790,1998-08-09 00:00:00,22,1017,0.3,73,17,15000,7.408,,,240,,,,,,,,,,,wg-a,,,,AAXX 09004 07790 12365 52404 10220 20170 30156 40170 50003 60006 84602 90000=
07790,1998-08-09 03:00:00,22,1016.3,-0.7,60,14,15000,7.408,,,250,,,,,,,,,,,wg-a,,,,AAXX 09034 07790 12/65 32504 10220 20140 30149 40163 56007 60006 80002 90300=
07790,1998-08-09 06:00:00,24,1016.1,-0.2,54,14,25000,14.816,,,240,21,27.2,,,,,,,,,wg-a,,,,AAXX 09064 07790 02/75 32408 10240 20140 30147 40161 57002 60006 80001 90600 333 10272 20210 60004=
07790,1998-08-09 09:00:00,30,1016.3,0.2,38,14,25000,11.112,,,80,,,,,,,,,,,wg-a,,,,AAXX 09094 07790 12/75 30806 10300 20140 30149 40163 53002 60006 80001 90900=
07790,1998-08-09 12:00:00,31,1016.3,0,46,18,25000,11.112,,,110,,,,,,,,,,,wg-a,,,,AAXX 09124 07790 12/75 41106 10310 20180 30149 40163 50000 60006 80001 91200=
07790,1998-08-09 15:00:00,31,1015.4,-0.9,46,18,25000,11.112,,,130,,,,,,,,,,,wg-a,,,,AAXX 09154 07790 12/75 31306 10310 20180 30140 40154 58009 60006 80001 91500=
07790,1998-08-09 18:00:00,28,1015,-0.4,62,20,25000,3.704,,,110,24.4,31.9,,,,,,,,,wg-a,,,,AAXX 09184 07790 12/75 51102 10280 20200 30136 40150 55004 60006 80002 91800 333 10319 20244=
07790,1998-08-09 21:00:00,23,1015.7,0.7,73,18,25000,3.704,,,250,,,,,,,,,,,wg-a,,,,AAXX 09214 07790 12/75 32502 10230 20180 30143 40157 52007 60006 80001 92100=
07790,1998-08-10 00:00:00,22,1016.4,0.7,69,16,25000,7.408,,,230,,,,,,,,,,,wg-a,,,,AAXX 10004 07790 12/75 02304 10220 20160 30150 40164 51007 60006 80000 90000=
07790,1998-08-10 03:00:00,21,1016.5,0.1,64,14,25000,11.112,,,230,,,,,,,,,,,wg-a,,,,AAXX 10034 07790 12/75 02306 10210 20140 30151 40165 53001 60006 80000 90300=
07790,1998-08-10 06:00:00,24,1017.6,1.1,50,13,9000,11.112,,,230,19.7,28,,,,,,,,,wg-a,,,,AAXX 10064 07790 02/59 12306 10240 20130 30162 40176 53011 60006 80001 90600 333 10280 20197 60004=
07790,1998-08-10 09:00:00,29,1018.2,0.6,58,20,15000,11.112,,,120,,,,,,,,,,,wg-a,,,,AAXX 10094 07790 12/65 11206 10290 20200 30168 40182 53006 60006 80001 90900=
07790,1998-08-10 12:00:00,30,1018.4,0.2,55,20,18000,11.112,,,90,,,,,,,,,,,wg-a,,,,AAXX 10124 07790 12/68 00906 10300 20200 30170 40184 51002 60006 80000 91200=
07790,1998-08-10 15:00:00,30,1017.7,-0.7,55,20,18000,7.408,,,130,,,,,,,,,,,wg-a,,,,AAXX 10154 07790 12/68 01304 10300 20200 30163 40177 56007 60006 80000 91500=
07790,1998-08-10 18:00:00,28,1017.3,-0.4,70,22,18000,3.704,,,170,24.3,30.9,,,,,,,,,wg-a,,,,AAXX 10184 07790 12768 11702 10280 20220 30159 40173 57004 60006 815/0 91800 333 10309 20243=
07790,1998-08-10 21:00:00,23,1017.9,0.6,83,20,17000,3.704,,,100,,,,,,,,,,,wg-a,,,,AAXX 10214 07790 12/67 01002 10230 20200 30165 40179 51006 60006 80000 92100=
07790,1998-08-11 00:00:00,23,1018.2,0.3,53,13,17000,7.408,,,190,,,,,,,,,,,wg-a,,,,AAXX 11004 07790 12/67 01904 10230 20130 30168 40182 50003 60006 80000 90000=
07790,1998-08-11 03:00:00,21,1018,-0.2,64,14,17000,7.408,,,250,,,,,,,,,,,wg-a,,,,AAXX 11034 07790 12/67 02504 10210 20140 30166 40180 57002 60006 80000 90300=
07790,1998-08-11 06:00:00,22,1018.5,0.5,69,16,10000,3.704,,,300,19.3,27.5,,,,,,,,,wg-a,,,,AAXX 11064 07790 02/60 /3002 10220 20160 30171 40185 53005 60006 90600 333 10275 20193 60004=
07790,1998-08-11 09:00:00,28,1019,0.5,66,21,10000,11.112,,,70,,,,,,,,,,,wg-a,,,,AAXX 11094 07790 12/60 /0706 10280 20210 30176 40190 51005 60006 90900=
07790,1998-08-11 12:00:00,30,1018.5,-0.5,52,19,20000,11.112,,,50,,,,,,,,,,,wg-a,,,,AAXX 11124 07790 12/70 00506 10300 20190 30171 40185 58005 60006 80000 91200=
07790,1998-08-11 15:00:00,31,1017.7,-0.8,49,19,10000,7.408,,,120,,,,,,,,,,,wg-a,,,,AAXX 11154 07790 12/60 /1204 10310 20190 30163 40177 56008 60006 91500=
07790,1998-08-11 18:00:00,29,1017.1,-0.6,62,21,10000,7.408,,,150,21.9,32.2,,,,,,,,,wg-a,,,,AAXX 11184 07790 12/60 /1504 10290 20210 30157 40171 56006 60006 91800 333 10322 20219=
07790,1998-08-11 21:00:00,24,1017.3,0.2,69,18,20000,7.408,,,250,,,,,,,,,,,wg-a,,,,AAXX 11214 07790 12/70 02504 10240 20180 30159 40173 50002 60006 80000 92100=
07790,1998-08-12 00:00:00,25,1017.5,0.2,69,19,20000,7.408,,,180,,,,,,,,,,,wg-a,,,,AAXX 12004 07790 12/70 01804 10250 20190 30161 40175 53002 60006 80000 90000=
07790,1998-08-12 03:00:00,23,1016.5,-1,53,13,20000,14.816,,,220,,,,,,,,,,,wg-a,,,,AAXX 12034 07790 12/70 02208 10230 20130 30151 40165 58010 60006 80000 90300=
07790,1998-08-12 06:00:00,25,1016.3,-0.2,50,14,15000,7.408,,,240,20.2,28.7,,,,,,,,,wg-a,,,,AAXX 12064 07790 02/65 02404 10250 20140 30149 40163 58002 60006 80000 90600 333 10287 20202 60004=
07790,1998-08-12 09:00:00,29,1016.8,0.5,62,21,15000,7.408,,,90,,,,,,,,,,,wg-a,,,,AAXX 12094 07790 12/65 00904 10290 20210 30154 40168 51005 60006 80000 90900=
07790,1998-08-12 12:00:00,30,1016.1,-0.7,55,20,15000,14.816,,,30,,,,,,,,,,,wg-a,,,,AAXX 12124 07790 12665 /0308 10300 20200 30147 40161 58007 60006 81101 91200=
07790,1998-08-12 18:00:00,28,1013.8,-0.6,74,23,20000,7.408,,,160,24.6,30.5,,,,,,,,,wg-a,,,,AAXX 12184 07790 12/70 31604 10280 20230 30124 40138 55006 60006 80001 91800 333 10305 20246=
07790,1998-08-12 21:00:00,24,1013.9,0.1,78,20,25000,3.704,,,230,,,,,,,,,,,wg-a,,,,AAXX 12214 07790 12/75 02302 10240 20200 30125 40139 50001 60006 80000 92100=
07790,1998-08-13 00:00:00,24,1013.8,-0.1,83,21,25000,7.408,,,320,,,,,,,,,,,wg-a,,,,AAXX 13004 07790 12/75 03204 10240 20210 30124 40138 55001 60006 80000 90000=
07790,1998-08-13 03:00:00,22,1012.6,-1.2,65,15,25000,7.408,,,240,,,,,,,,,,,wg-a,,,,AAXX 13034 07790 12/75 02404 10220 20150 30112 40126 58012 60006 80000 90300=
07790,1998-08-13 06:00:00,24,1012.5,-0.1,69,18,25000,3.704,,,270,22.1,27.6,,,,,,,,,wg-a,,,,AAXX 13064 07790 02/75 02702 10240 20180 30111 40125 55001 60006 80000 90600 333 10276 20221 60004=
07790,1998-08-13 09:00:00,29,1012.8,0.3,62,21,25000,11.112,,,150,,,,,,,,,,,wg-a,,,,AAXX 13094 07790 12/75 01506 10290 20210 30114 40128 53003 60006 80000 90900=
07790,1998-08-13 12:00:00,30,1012,-0.8,62,22,15000,11.112,,,130,,,,,,,,,,,wg-a,,,,AAXX 13124 07790 12665 11306 10300 20220 30106 40120 58008 60006 81100 91200=
07790,1998-08-13 15:00:00,29,1011.2,-0.8,66,22,12000,7.408,,,90,,,,,,,,,,,wg-a,,,,AAXX 13154 07790 12562 /0904 10290 20220 30098 40112 58008 60006 81100 91500=
07790,1998-08-13 18:00:00,26,1010.4,-0.8,79,22,8000,7.408,,,90,23.8,31,,,,,,,,,wg-a,,,,AAXX 13184 07790 12/58 00904 10260 20220 30090 40104 57008 60006 80000 91800 333 10310 20238=
07790,1998-08-13 21:00:00,23,1011.1,0.7,89,21,8000,7.408,,,240,,,,,,,,,,,wg-a,,,,AAXX 13214 07790 12/58 02404 10230 20210 30097 40111 51007 60006 80000 92100=
07790,1998-08-14 00:00:00,22,1010.8,-0.3,88,20,7000,7.408,,,240,,,,,,,,,,,wg-a,,,,AAXX 14004 07790 12357 /2404 10220 20200 30094 40108 57003 60006 85600 90000=
07790,1998-08-14 03:00:00,22,1010.4,-0.4,83,19,6000,7.408,,,230,,,,,,,,,,,wg-a,,,,AAXX 14034 07790 12456 /2304 10220 20190 30090 40104 56004 60006 86600 90300=
07790,1998-08-14 06:00:00,23,1010.7,0.3,83,20,4000,3.704,,,230,21.6,26.2,,,,,,,,10,wg-a,,,,AAXX 14064 07790 02440 32302 10230 20200 30093 40107 53003 60006 71011 83600 90600 333 10262 20216 60004=
07790,1998-08-14 09:00:00,28,1011.3,0.6,70,22,12000,11.112,,,100,,,,,,,,,,,wg-a,,,,AAXX 14094 07790 12462 31006 10280 20220 30099 40113 53006 60006 83100 90900=
07790,1998-08-14 12:00:00,29,1011.4,0.1,66,22,12000,14.816,,,120,,,,,,,,,,,wg-a,,,,AAXX 14124 07790 12562 /1208 10290 20220 30100 40114 51001 60006 81100 91200=
07790,1998-08-14 15:00:00,27,1011.3,-0.1,79,23,12000,7.408,,,160,,,,,,,,,,1,wg-a,,,,AAXX 14154 07790 12562 41604 10270 20230 30099 40113 58001 60006 70190 82963 91500=
07790,1998-08-15 03:00:00,21,1014.2,0.5,83,18,7000,7.408,,,240,,,,,,,,,,,wg-a,,,,AAXX 15034 07790 12457 32404 10210 20180 30128 40142 51005 60006 83500 90300=
07790,1998-08-15 06:00:00,23,1015,0.8,78,19,7000,3.704,,,240,20.3,26,,,,,,,,,wg-a,,,,AAXX 15064 07790 02557 /2402 10230 20190 30136 40150 53008 60006 81500 90600 333 10260 20203 60004=
07790,1998-08-15 09:00:00,28,1016,1,70,22,8000,11.112,,,80,,,,,,,,,,,wg-a,,,,AAXX 15094 07790 12558 20806 10280 20220 30146 40160 51010 60006 82100 90900=
07790,1998-08-15 12:00:00,29,1016.2,0.2,70,23,8000,11.112,,,90,,,,,,,,,,,wg-a,,,,AAXX 15124 07790 12458 20906 10290 20230 30148 40162 51002 60006 82100 91200=
07790,1998-08-15 15:00:00,27,1015.7,-0.5,84,24,15000,11.112,,,140,,,,,,,,,,17,wg-a,,,,AAXX 15154 07790 02565 /1406 10270 20240 30143 40157 58005 61000 71796 81923 91500 333 ////=
07790,1998-08-15 18:00:00,27,1016,0.3,79,23,12000,3.704,,,160,22.5,29.5,,,,,,,,1,wg-a,,,,AAXX 15184 07790 02/62 01602 10270 20230 30146 40160 53003 60006 70196 80000 91800 333 10295 20225 61000=
07790,1998-08-16 15:00:00,30,1018,-1.2,66,23,0,11.112,,,120,,,,,,,,,,,wg-a,,,,AAXX 16154 07790 125// /1206 10300 20230 30166 40180 58012 60006 81130 91500=
07790,1998-08-16 21:00:00,26,1017.9,-0.4,65,19,25000,11.112,,,230,,,,,,,,,,,wg-a,,,,AAXX 16214 07790 12/75 02306 10260 20190 30165 40179 58004 60006 80000 92100=
07790,1998-08-17 00:00:00,23,1017.8,-0.1,78,19,25000,3.704,,,260,,,,,,,,,,,wg-a,,,,AAXX 17004 07790 12/75 02602 10230 20190 30164 40178 58001 60006 80000 90000=
07790,1998-08-17 03:00:00,22,1017,-0.8,78,18,25000,7.408,,,230,,,,,,,,,,,wg-a,,,,AAXX 17034 07790 12/75 02304 10220 20180 30156 40170 57008 60006 80000 90300=
07790,1998-08-17 06:00:00,23,1017.2,0.2,69,17,12000,7.408,,,250,21.5,27.7,,,,,,,,,wg-a,,,,AAXX 17064 07790 02662 /2504 10230 20170 30158 40172 53002 60006 82582 90600 333 10277 20215 60004=
07790,1998-08-17 09:00:00,28,1017.7,0.5,66,21,15000,11.112,,,110,,,,,,,,,,,wg-a,,,,AAXX 17094 07790 12665 21106 10280 20210 30163 40177 53005 60006 81180 90900=
07790,1998-08-17 12:00:00,28,1017.2,-0.5,74,23,10000,14.816,,,60,,,,,,,,,,,wg-a,,,,AAXX 17124 07790 12460 30608 10280 20230 30158 40172 58005 60006 83130 91200=
07790,1998-08-17 15:00:00,27,1016.1,-1.1,74,22,9000,14.816,,,80,,,,,,,,,,,wg-a,,,,AAXX 17154 07790 12559 20808 10270 20220 30147 40161 55011 60006 82100 91500=
07790,1998-08-17 18:00:00,27,1015,-1.1,74,22,9000,3.704,,,170,23.4,29.2,,,,,,,,,wg-a,,,,AAXX 17184 07790 12559 /1702 10270 20220 30136 40150 55011 60006 81100 91800 333 10292 20234=
07790,1998-08-17 21:00:00,24,1015.7,0.7,89,22,12000,7.408,,,160,,,,,,,,,,,wg-a,,,,AAXX 17214 07790 12/62 01604 10240 20220 30143 40157 50007 60006 80000 92100=
07790,1998-08-18 00:00:00,23,1015,-0.7,83,20,12000,3.704,,,220,,,,,,,,,,,wg-a,,,,AAXX 18004 07790 12/62 02202 10230 20200 30136 40150 58007 60006 80000 90000=
07790,1998-08-18 03:00:00,24,1014.4,-0.6,74,19,20000,14.816,,,220,,,,,,,,,,,wg-a,,,,AAXX 18034 07790 12/70 02208 10240 20190 30130 40144 58006 60006 80000 90300=
07790,1998-08-18 06:00:00,24,1015,0.6,69,18,12000,3.704,,,210,22,26.6,,,,,,,,,wg-a,,,,AAXX 18064 07790 02462 32102 10240 20180 30136 40150 53006 60006 81601 90600 333 10266 20220 60004=
07790,1998-08-18 09:00:00,27,1015.1,0.1,79,23,12000,14.816,,,140,,,,,,,,,,,wg-a,,,,AAXX 18094 07790 12662 71408 10270 20230 30137 40151 50001 60006 81182 90900=
07790,1998-08-18 12:00:00,27,1014.6,-0.5,79,23,8000,7.408,,,110,,,,,,,,,,,wg-a,,,,AAXX 18124 07790 12558 71104 10270 20230 30132 40146 58005 60006 84882 91200=
07790,1998-08-18 15:00:00,27,1013.5,-1.1,79,23,8000,11.112,,,150,,,,,,,,,,60,wg-a,,,,AAXX 18154 07790 02558 71506 10270 20230 30121 40135 56011 61000 76062 8588/ 91500 333 ////=
07790,1998-08-18 18:00:00,26,1013.5,-0,84,23,8000,0,,,0,23.6,27.9,,,,,,,,2,wg-a,,,,AAXX 18184 07790 02558 70000 10260 20230 30121 40135 55000 60006 70262 8687/ 91800 333 10279 20236 61000=
07790,1998-08-18 21:00:00,23,1013.3,-0.2,73,18,20000,11.112,,,240,,,,0,,,,,,1,wg-a,,,,AAXX 18214 07790 12470 72406 10230 20180 30119 40133 58002 60007 70198 8697/ 92100=
07790,1998-08-19 00:00:00,23,1013.4,0.1,78,19,20000,11.112,,,230,,,,,,,,,,1,wg-a,,,,AAXX 19004 07790 12570 32306 10230 20190 30120 40134 50001 60016 70198 82270 90000=
07790,1998-08-19 03:00:00,21,1013.4,-0,88,19,20000,7.408,,,240,,,,,,,,,,,wg-a,,,,AAXX 19034 07790 12570 22404 10210 20190 30120 40134 55000 60006 82270 90300=
07790,1998-08-19 06:00:00,23,1013.8,0.4,78,19,15000,11.112,,,240,20.9,26,,,,,,,,,wg-a,,,,AAXX 19064 07790 02565 /2406 10230 20190 30124 40138 53004 60006 81540 90600 333 10260 20209 60004=
07790,1998-08-19 09:00:00,29,1014.3,0.5,55,19,15000,11.112,,,160,,,,,,,,,,,wg-a,,,,AAXX 19094 07790 12565 21606 10290 20190 30129 40143 51005 60006 81201 90900=
07790,1998-08-19 12:00:00,29,1014.5,0.2,62,21,8000,14.816,,,130,,,,,,,,,,,wg-a,,,,AAXX 19124 07790 12558 21308 10290 20210 30131 40145 51002 60006 82300 91200=
07790,1998-08-19 15:00:00,28,1014.1,-0.4,62,20,10000,14.816,,,160,,,,,,,,,,21,wg-a,,,,AAXX 19154 07790 02560 31608 10280 20200 30127 40141 57004 61000 72161 83900 91500 333 ////=
07790,1998-08-19 18:00:00,26,1014.6,0.5,74,21,7000,3.704,,,160,23.1,29.5,,,,,,,,2,wg-a,,,,AAXX 19184 07790 12557 /1602 10260 20210 30132 40146 53005 60006 70261 81400 91800 333 10295 20231=
07790,1998-08-19 21:00:00,23,1015.8,1.2,83,20,15000,3.704,,,260,,,,,,,,,,,wg-a,,,,AAXX 19214 07790 12/65 02602 10230 20200 30144 40158 52012 60006 80000 92100=
07790,1998-08-20 00:00:00,22,1015.2,-0.6,83,19,15000,14.816,,,230,,,,,,,,,,,wg-a,,,,AAXX 20004 07790 12/65 02308 10220 20190 30138 40152 56006 60006 80000 90000=
07790,1998-08-20 03:00:00,21,1015.3,0.1,83,18,15000,7.408,,,220,,,,,,,,,,,wg-a,,,,AAXX 20034 07790 12/65 02204 10210 20180 30139 40153 52001 60006 80000 90300=
07790,1998-08-20 06:00:00,23,1015.3,-0,78,19,25000,7.408,,,230,20.6,25.7,,,,,,,,,wg-a,,,,AAXX 20064 07790 02/75 /2304 10230 20190 30139 40153 55000 60006 81031 90600 333 10257 20206 61000=
07790,1998-08-20 09:00:00,28,1016.2,0.9,51,17,20000,11.112,,,30,,,,,,,,,,,wg-a,,,,AAXX 20094 07790 12670 20306 10280 20170 30148 40162 51009 60006 81102 90900=
07790,1998-08-20 12:00:00,29,1015.5,-0.7,52,18,20000,18.52,,,30,,,,,,,,,,,wg-a,,,,AAXX 20124 07790 12670 /0310 10290 20180 30141 40155 57007 60006 81201 91200=
07790,1998-08-20 15:00:00,27,1014.9,-0.6,51,16,20000,18.52,,,230,,,,,,,,,,29,wg-a,,,,AAXX 20154 07790 12570 /2310 10270 20160 30135 40149 58006 60006 72992 81973 91500=
07790,1998-08-20 18:00:00,27,1013.9,-1,66,20,18000,3.704,,,120,22.7,29.1,,,,,,,,1,wg-a,,,,AAXX 20184 07790 12568 21202 10270 20200 30125 40139 56010 60006 70191 81132 91800 333 10291 20227=
07790,1998-08-20 21:00:00,23,1015.2,1.3,69,17,15000,11.112,,,230,,,,,,,,,,,wg-a,,,,AAXX 20214 07790 12565 /2306 10230 20170 30138 40152 50013 60006 81100 92100=
07790,1998-08-21 00:00:00,22,1014.4,-0.8,78,18,15000,11.112,,,240,,,,,,,,,,,wg-a,,,,AAXX 21004 07790 12565 /2406 10220 20180 30130 40144 56008 60006 81100 90000=
07790,1998-08-21 03:00:00,21,1013.3,-1.1,73,16,15000,11.112,,,230,,,,,,,,,,,wg-a,,,,AAXX 21034 07790 12/65 02306 10210 20160 30119 40133 58011 60006 80000 90300=
07790,1998-08-21 06:00:00,22,1013.4,0.1,65,15,18000,11.112,,,220,20.2,26.5,,,,,,,,,wg-a,,,,AAXX 21064 07790 02468 /2206 10220 20150 30120 40134 53001 60006 81540 90600 333 10265 20202 60004=
07790,1998-08-21 09:00:00,28,1013.5,0.1,55,18,20000,18.52,,,150,,,,,,,,,,,wg-a,,,,AAXX 21094 07790 12570 /1510 10280 20180 30121 40135 53001 60006 81200 90900=
07790,1998-08-21 12:00:00,29,1012.8,-0.7,58,20,25000,22.224,,,140,,,,,,,,,,,wg-a,,,,AAXX 21124 07790 12575 31412 10290 20200 30114 40128 58007 60006 81201 91200=
07790,1998-08-21 15:00:00,28,1011.9,-0.9,62,20,25000,14.816,,,120,,,,,,,,,,,wg-a,,,,AAXX 21154 07790 12575 /1208 10280 20200 30105 40119 56009 60006 81101 91500=
07790,1998-08-21 18:00:00,27,1010.6,-1.3,62,19,25000,7.408,,,150,21.5,29.1,,,,,,,,,wg-a,,,,AAXX 21184 07790 12675 61504 10270 20190 30092 40106 58013 60006 81102 91800 333 10291 20215=
07790,1998-08-21 21:00:00,24,1011.5,0.9,57,15,20000,11.112,,,220,,,,,,,,,,,wg-a,,,,AAXX 21214 07790 12/70 32206 10240 20150 30101 40115 50009 60006 82042 92100=
07790,1998-08-22 00:00:00,23,1010.7,-0.8,50,12,20000,11.112,,,230,,,,,,,,,,,wg-a,,,,AAXX 22004 07790 12/70 02306 10230 20120 30093 40107 56008 60006 80000 90000=
07790,1998-08-22 03:00:00,20,1009.2,-1.5,64,13,20000,7.408,,,250,,,,,,,,,,,wg-a,,,,AAXX 22034 07790 12670 /2504 10200 20130 30078 40092 56015 60006 81500 90300=
07790,1998-08-22 06:00:00,22,1009.3,0.1,57,13,20000,3.704,,,240,19.1,27,,,,,,,,,wg-a,,,,AAXX 22064 07790 02570 22402 10220 20130 30079 40093 53001 60006 81101 90600 333 10270 20191 60004=
07790,1998-08-22 09:00:00,29,1009.5,0.2,45,16,20000,25.928,,,30,,,,,,,,,,,wg-a,,,,AAXX 22094 07790 12570 30314 10290 20160 30081 40095 51002 60006 81801 90900=
07790,1998-08-22 12:00:00,29,1009.4,-0.1,55,19,20000,14.816,,,110,,,,,,,,,,,wg-a,,,,AAXX 22124 07790 12570 21108 10290 20190 30080 40094 58001 60006 82201 91200=
07790,1998-08-22 15:00:00,29,1008.7,-0.7,55,19,20000,14.816,,,150,,,,,,,,,,,wg-a,,,,AAXX 22154 07790 12570 41508 10290 20190 30073 40087 56007 60006 81202 91500=
07790,1998-08-22 18:00:00,27,1008.2,-0.5,58,18,12000,3.704,,,170,21.4,29.7,,,,,,,,,wg-a,,,,AAXX 22184 07790 12/62 11702 10270 20180 30068 40082 56005 60006 80001 91800 333 10297 20214=
07790,1998-08-22 21:00:00,24,1008.5,0.3,69,18,25000,7.408,,,210,,,,,,,,,,,wg-a,,,,AAXX 22214 07790 12/75 02104 10240 20180 30071 40085 50003 60006 80000 92100=
07790,1998-08-23 00:00:00,22,1007.7,-0.8,69,16,25000,14.816,,,270,,,,,,,,,,,wg-a,,,,AAXX 23004 07790 12575 /2708 10220 20160 30063 40077 56008 60006 81100 90000=
07790,1998-08-23 03:00:00,21,1007.4,-0.3,69,15,25000,7.408,,,240,,,,,,,,,,,wg-a,,,,AAXX 23034 07790 12/75 02404 10210 20150 30060 40074 58003 60006 80000 90300=
07790,1998-08-23 06:00:00,23,1008.6,1.2,65,16,25000,7.408,,,220,20.1,26.9,,,,,,,,,wg-a,,,,AAXX 23064 07790 02575 /2204 10230 20160 30072 40086 52012 60006 81102 90600 333 10269 20201 60004=
07790,1998-08-23 09:00:00,28,1010.6,2,66,21,500,14.816,,,140,,,,,,,,,,,wg-a,,,,AAXX 23094 07790 12500 31408 10280 20210 30092 40106 52020 60006 83201 90900=
07790,1998-08-23 12:00:00,29,1011,0.4,66,22,500,18.52,,,140,,,,,,,,,,,wg-a,,,,AAXX 23124 07790 12500 21410 10290 20220 30096 40110 53004 60006 82802 91200=
07790,1998-08-23 15:00:00,29,1010.9,-0.1,66,22,500,11.112,,,120,,,,,,,,,,,wg-a,,,,AAXX 23154 07790 12500 /1206 10290 20220 30095 40109 58001 60006 81802 91500=
07790,1998-08-23 18:00:00,27,1010.9,-0,70,21,20000,3.704,,,160,23,29.8,,,,,,,,,wg-a,,,,AAXX 23184 07790 12/70 01602 10270 20210 30095 40109 55000 60006 80000 91800 333 10298 20230=
07790,1998-08-23 21:00:00,24,1012.4,1.5,78,20,15000,7.408,,,240,,,,,,,,,,,wg-a,,,,AAXX 23214 07790 12/65 12404 10240 20200 30110 40124 51015 60006 81030 92100=
07790,1998-08-24 00:00:00,22,1012.6,0.2,88,20,15000,3.704,,,250,,,,,,,,,,,wg-a,,,,AAXX 24004 07790 12765 /2502 10220 20200 30112 40126 50002 60006 81500 90000=
07790,1998-08-24 03:00:00,21,1012.2,-0.4,88,19,15000,7.408,,,240,,,,,,,,,,,wg-a,,,,AAXX 24034 07790 12465 32404 10210 20190 30108 40122 57004 60006 83500 90300=
07790,1998-08-24 06:00:00,23,1012.2,-0,78,19,15000,7.408,,,220,20.8,27,,,,,,,,,wg-a,,,,AAXX 24064 07790 02465 /2204 10230 20190 30108 40122 55000 60006 81100 90600 333 10270 20208 60004=
07790,1998-08-24 09:00:00,28,1011.7,-0.5,70,22,20000,14.816,,,130,,,,,,,,,,,wg-a,,,,AAXX 24094 07790 12470 31308 10280 20220 30103 40117 56005 60006 83100 90900=
07790,1998-08-24 12:00:00,30,1011.4,-0.3,62,22,20000,14.816,,,110,,,,,,,,,,,wg-a,,,,AAXX 24124 07790 12470 21108 10300 20220 30100 40114 58003 60006 82200 91200=
07790,1998-08-24 15:00:00,29,1010.6,-0.8,66,22,20000,11.112,,,100,,,,,,,,,,,wg-a,,,,AAXX 24154 07790 12570 21006 10290 20220 30092 40106 58008 60006 82201 91500=
07790,1998-08-24 18:00:00,26,1009.3,-1.3,79,22,12000,3.704,,,160,22.5,29.8,,,,,,,,,wg-a,,,,AAXX 24184 07790 12562 31602 10260 20220 30079 40093 56013 60006 81149 91800 333 10298 20225=
07790,1998-08-24 21:00:00,23,1009.7,0.4,83,20,15000,7.408,,,210,,,,,,,,,,,wg-a,,,,AAXX 24214 07790 12665 42104 10230 20200 30083 40097 50004 60006 81540 92100=
07790,1998-08-25 00:00:00,22,1009.8,0.1,73,17,15000,3.704,,,250,,,,,,,,,,,wg-a,,,,AAXX 25004 07790 12/65 22502 10220 20170 30084 40098 51001 60006 82040 90000=
07790,1998-08-25 03:00:00,20,1009.7,-0.1,73,15,15000,11.112,,,240,,,,,,,,,,,wg-a,,,,AAXX 25034 07790 12/65 /2406 10200 20150 30083 40097 58001 60006 81040 90300=
07790,1998-08-25 06:00:00,23,1011.3,1.6,73,18,25000,3.704,,,250,19.9,26.5,,,,,,,,,wg-a,,,,AAXX 25064 07790 02475 22502 10230 20180 30099 40113 53016 60006 82200 90600 333 10265 20199 60004=
07790,1998-08-25 09:00:00,28,1012.9,1.6,70,22,25000,14.816,,,120,,,,,,,,,,,wg-a,,,,AAXX 25094 07790 12475 31208 10280 20220 30115 40129 52016 60006 83200 90900=
07790,1998-08-25 12:00:00,28,1013.6,0.7,62,20,25000,11.112,,,100,,,,,,,,,,,wg-a,,,,AAXX 25124 07790 12575 31006 10280 20200 30122 40136 51007 60006 83200 91200=
07790,1998-08-25 15:00:00,29,1013,-0.6,58,20,25000,11.112,,,100,,,,,,,,,,,wg-a,,,,AAXX 25154 07790 12575 21006 10290 20200 30116 40130 56006 60006 82800 91500=
07790,1998-08-25 18:00:00,27,1013,-0,70,21,25000,7.408,,,110,22.6,29.8,,,,,,,,,wg-a,,,,AAXX 25184 07790 12575 /1104 10270 20210 30116 40130 55000 60006 81500 91800 333 10298 20226=
07790,1998-08-25 21:00:00,22,1014.7,1.7,83,19,25000,3.704,,,240,,,,,,,,,,,wg-a,,,,AAXX 25214 07790 12/75 02402 10220 20190 30133 40147 51017 60006 80000 92100=
07790,1998-08-26 00:00:00,22,1015,0.3,69,16,25000,18.52,,,250,,,,,,,,,,,wg-a,,,,AAXX 26004 07790 12/75 02510 10220 20160 30136 40150 50003 60006 80000 90000=
07790,1998-08-26 03:00:00,21,1014.7,-0.3,69,15,25000,7.408,,,240,,,,,,,,,,,wg-a,,,,AAXX 26034 07790 12/75 02404 10210 20150 30133 40147 58003 60006 80000 90300=
07790,1998-08-26 06:00:00,23,1015.3,0.6,65,16,20000,14.816,,,230,19.6,26.6,,,,,,,,,wg-a,,,,AAXX 26064 07790 02/70 12308 10230 20160 30139 40153 53006 60006 81030 90600 333 10266 20196 60004=
07790,1998-08-26 09:00:00,28,1015.5,0.2,55,18,20000,14.816,,,110,,,,,,,,,,,wg-a,,,,AAXX 26094 07790 12670 /1108 10280 20180 30141 40155 53002 60006 81100 90900=
07790,1998-08-26 12:00:00,29,1014.7,-0.8,55,19,20000,11.112,,,100,,,,,,,,,,,wg-a,,,,AAXX 26124 07790 12670 /1006 10290 20190 30133 40147 58008 60006 81200 91200=
07790,1998-08-26 15:00:00,26,1013.4,-1.3,74,21,11000,7.408,,,80,,,,,,,,,,,wg-a,,,,AAXX 26154 07790 12/61 /0804 10260 20210 30120 40134 58013 60006 91500=
07790,1998-08-26 18:00:00,25,1012.2,-1.2,79,21,20000,7.408,,,60,22.6,28.9,,,,,,,,,wg-a,,,,AAXX 26184 07790 12570 40604 10250 20210 30108 40122 56012 60006 83801 91800 333 10289 20226=
07790,1998-08-26 21:00:00,22,1012.4,0.2,88,20,20000,7.408,,,240,,,,,,,,,,,wg-a,,,,AAXX 26214 07790 12570 22404 10220 20200 30110 40124 50002 60006 82500 92100=
07790,1998-08-27 00:00:00,21,1012,-0.4,88,19,20000,7.408,,,240,,,,,,,,,,,wg-a,,,,AAXX 27004 07790 12/70 02404 10210 20190 30106 40120 58004 60006 80000 90000=
07790,1998-08-27 03:00:00,20,1010.6,-1.4,83,17,20000,11.112,,,230,,,,,,,,,,,wg-a,,,,AAXX 27034 07790 12570 /2306 10200 20170 30092 40106 57014 60006 81500 90300=
07790,1998-08-27 06:00:00,21,1010.6,-0,78,17,20000,7.408,,,230,19.1,25.2,,,,,,,,,wg-a,,,,AAXX 27064 07790 02570 22304 10210 20170 30092 40106 55000 60006 81501 90600 333 10252 20191 60004=
07790,1998-08-27 09:00:00,28,1010.4,-0.2,62,20,20000,11.112,,,130,,,,,,,,,,,wg-a,,,,AAXX 27094 07790 12570 /1306 10280 20200 30090 40104 56002 60006 82582 90900=
07790,1998-08-27 12:00:00,28,1009,-1.4,66,21,20000,11.112,,,140,,,,,,,,,,,wg-a,,,,AAXX 27124 07790 12570 31406 10280 20210 30076 40090 58014 60006 83200 91200=
07790,1998-08-27 15:00:00,28,1007.7,-1.3,66,21,15000,14.816,,,140,,,,,,,,,,,wg-a,,,,AAXX 27154 07790 12565 21408 10280 20210 30063 40077 56013 60006 82200 91500=
07790,1998-08-27 18:00:00,25,1006.2,-1.5,79,21,7000,7.408,,,160,20.7,28.5,,,,,,,,,wg-a,,,,AAXX 27184 07790 12557 51604 10250 20210 30048 40062 56015 60006 81532 91800 333 10285 20207=
07790,1998-08-27 21:00:00,22,1005.8,-0.4,83,19,15000,7.408,,,230,,,,,,,,,,,wg-a,,,,AAXX 27214 07790 12565 22304 10220 20190 30044 40058 58004 60006 81601 92100=
07790,1998-08-28 00:00:00,20,1004.6,-1.2,83,17,15000,7.408,,,240,,,,,,,,,,,wg-a,,,,AAXX 28004 07790 12/65 32404 10200 20170 30032 40046 58012 60006 81031 90000=
07790,1998-08-28 03:00:00,21,1003.7,-0.9,78,17,15000,7.408,,,230,,,,,,,,,,,wg-a,,,,AAXX 28034 07790 12465 72304 10210 20170 30023 40037 56009 60006 85601 90300=
07790,1998-08-28 06:00:00,23,1003.7,-0,78,19,8000,7.408,,,220,19.8,25.3,,,,,,,,,wg-a,,,,AAXX 28064 07790 02558 /2204 10230 20190 30023 40037 55000 60006 83231 90600 333 10253 20198 60004=
07790,1998-08-28 09:00:00,27,1004.9,1.2,54,17,18000,29.632,,,20,,,,,,,,,,,wg-a,,,,AAXX 28094 07790 12568 60216 10270 20170 30035 40049 53012 60006 82314 90900=
07790,1998-08-28 12:00:00,23,1006.8,1.9,65,16,11000,38.892,,,20,,,,,,,,,,,wg-a,,,,AAXX 28124 07790 12/61 /0221 10230 20160 30054 40068 53019 60006 91200=
07790,1998-08-28 15:00:00,22,1008.1,1.3,65,15,15000,35.188,,64.82,10,,,,,,,,,,,wg-a,,,,AAXX 28154 07790 12565 70119 10220 20150 30067 40081 53013 60006 8426/ 91500 333 91035=
07790,1998-08-28 18:00:00,21,1009.1,1,60,13,15000,25.928,,64.82,350,21.3,27.8,,,,,,,,,wg-a,,,,AAXX 28184 07790 12565 43514 10210 20130 30077 40091 51010 60006 83260 91800 333 10278 20213 91035=
07790,1998-08-28 21:00:00,19,1010.9,1.8,64,12,500,11.112,,,310,,,,,,,,,,,wg-a,,,,AAXX 28214 07790 12700 33106 10190 20120 30095 40109 51018 60006 82630 92100=
07790,1998-08-29 00:00:00,19,1011.7,0.8,60,11,500,14.816,,,330,,,,,,,,,,,wg-a,,,,AAXX 29004 07790 12/00 03308 10190 20110 30103 40117 51008 60006 80000 90000=
07790,1998-08-29 03:00:00,17,1012,0.3,55,8,10000,3.704,,,210,,,,,,,,,,,wg-a,,,,AAXX 29034 07790 12/60 /2102 10170 20080 30106 40120 51003 60006 90300=
07790,1998-08-29 06:00:00,18,1013.3,1.3,59,10,60000,11.112,,,230,16,21.3,,,,,,,,,wg-a,,,,AAXX 29064 07790 02586 /2306 10180 20100 30119 40133 53013 60006 81100 90600 333 10213 20160 60004=
07790,1998-08-29 09:00:00,23,1014.1,0.8,41,9,50000,18.52,,,50,,,,,,,,,,,wg-a,,,,AAXX 29094 07790 12584 /0510 10230 20090 30127 40141 53008 60006 81400 90900=
07790,1998-08-29 12:00:00,24,1014.1,0,41,10,50000,18.52,,,30,,,,,,,,,,,wg-a,,,,AAXX 29124 07790 12684 /0310 10240 20100 30127 40141 50000 60006 81500 91200=
07790,1998-08-29 15:00:00,24,1014,-0.1,44,11,50000,18.52,,,30,,,,,,,,,,,wg-a,,,,AAXX 29154 07790 12684 /0310 10240 20110 30126 40140 58001 60006 81500 91500=
07790,1998-08-29 18:00:00,21,1014.6,0.6,56,12,50000,7.408,,,310,18.2,24.2,,,,,,,,,wg-a,,,,AAXX 29184 07790 12/84 03104 10210 20120 30132 40146 53006 60006 80000 91800 333 10242 20182=
07790,1998-08-29 21:00:00,18,1016.2,1.6,68,12,25000,7.408,,,230,,,,,,,,,,,wg-a,,,,AAXX 29214 07790 12/75 02304 10180 20120 30148 40162 51016 60006 80000 92100=
07790,1998-08-30 00:00:00,17,1016.6,0.4,68,11,25000,11.112,,,230,,,,,,,,,,,wg-a,,,,AAXX 30004 07790 12/75 02306 10170 20110 30152 40166 50004 60006 80000 90000=
07790,1998-08-30 03:00:00,16,1017,0.4,72,11,25000,11.112,,,230,,,,,,,,,,,wg-a,,,,AAXX 30034 07790 12/75 02306 10160 20110 30156 40170 53004 60006 80000 90300=
07790,1998-08-30 06:00:00,17,1017.8,0.8,68,11,25000,7.408,,,230,15.5,21.4,,,,,,,,,wg-a,,,,AAXX 30064 07790 02675 22304 10170 20110 30164 40178 53008 60006 81501 90600 333 10214 20155 60004=
07790,1998-08-30 09:00:00,24,1018.6,0.8,50,13,25000,11.112,,,110,,,,,,,,,,,wg-a,,,,AAXX 30094 07790 12675 31106 10240 20130 30172 40186 53008 60006 82201 90900=
07790,1998-08-30 12:00:00,25,1018,-0.6,47,13,11000,14.816,,,120,,,,,,,,,,,wg-a,,,,AAXX 30124 07790 12/61 /1208 10250 20130 30166 40180 58006 60006 91200=
07790,1998-08-30 15:00:00,25,1017.5,-0.5,41,11,25000,11.112,,,150,,,,,,,,,,,wg-a,,,,AAXX 30154 07790 12675 51506 10250 20110 30161 40175 55005 60006 85500 91500=
07790,1998-08-30 18:00:00,23,1017.1,-0.4,57,14,25000,3.704,,,190,17.4,25.8,,,,,,,,,wg-a,,,,AAXX 30184 07790 12675 /1902 10230 20140 30157 40171 57004 60006 85530 91800 333 10258 20174=
07790,1998-08-30 21:00:00,19,1017.8,0.7,64,12,18000,3.704,,,260,,,,,,,,,,,wg-a,,,,AAXX 30214 07790 12/68 02602 10190 20120 30164 40178 51007 60006 80000 92100=
07790,1998-08-31 00:00:00,17,1017.2,-0.6,72,12,18000,11.112,,,250,,,,,,,,,,,wg-a,,,,AAXX 31004 07790 12/68 02506 10170 20120 30158 40172 58006 60006 80000 90000=
07790,1998-08-31 03:00:00,18,1016.7,-0.5,68,12,18000,14.816,,,240,,,,,,,,,,,wg-a,,,,AAXX 31034 07790 12/68 02408 10180 20120 30153 40167 56005 60006 80000 90300=
07790,1998-08-31 06:00:00,19,1017.1,0.4,60,11,25000,14.816,,,240,16.3,22.8,,,,,,,,,wg-a,,,,AAXX 31064 07790 02/75 02408 10190 20110 30157 40171 53004 60006 80000 90600 333 10228 20163 60004=
07790,1998-08-31 09:00:00,25,1017.7,0.6,50,14,25000,18.52,,,130,,,,,,,,,,,wg-a,,,,AAXX 31094 07790 12575 11310 10250 20140 30163 40177 53006 60006 81100 90900=
07790,1998-08-31 12:00:00,26,1017,-0.7,51,15,25000,22.224,,,150,,,,,,,,,,,wg-a,,,,AAXX 31124 07790 12575 41512 10260 20150 30156 40170 56007 60006 81201 91200=
07790,1998-08-31 15:00:00,26,1016.2,-0.8,54,16,25000,22.224,,,160,,,,,,,,,,,wg-a,,,,AAXX 31154 07790 12575 21612 10260 20160 30148 40162 56008 60006 81231 91500=
07790,1998-08-31 18:00:00,23,1016.1,-0.1,73,18,16000,7.408,,,140,19.4,26.8,,,,,,,,,wg-a,,,,AAXX 31184 07790 12/66 31404 10230 20180 30147 40161 56001 60006 82031 91800 333 10268 20194=
07790,1998-08-31 21:00:00,20,1016.7,0.6,78,16,20000,7.408,,,210,,,,,,,,,,,wg-a,,,,AAXX 31214 07790 12870 /2104 10200 20160 30153 40167 51006 60006 81030 92100=
07790,1998-09-01 00:00:00,20,1016.7,0,73,15,20000,7.408,,,220,,,,,,,,,,,wg-a,,,,AAXX 01004 07790 12/70 02204 10200 20150 30153 40167 50000 60006 80000 90000=
07790,1998-09-01 03:00:00,20,1016.6,-0.1,73,15,20000,11.112,,,230,,,,,,,,,,,wg-a,,,,AAXX 01034 07790 12/70 02306 10200 20150 30152 40166 56001 60006 80000 90300=
07790,1998-09-01 06:00:00,21,1017.5,0.9,69,15,11000,7.408,,,240,19.5,23.1,,,,,,,,,wg-a,,,,AAXX 01064 07790 02/61 /2404 10210 20150 30161 40175 51009 60006 90600 333 10231 20195 60004=
07790,1998-09-01 09:00:00,26,1018.4,0.9,70,20,15000,18.52,,,140,,,,,,,,,,,wg-a,,,,AAXX 01094 07790 12565 21410 10260 20200 30170 40184 51009 60006 81132 90900=
07790,1998-09-01 12:00:00,27,1018.4,-0,66,20,15000,29.632,,,140,,,,,,,,,,,wg-a,,,,AAXX 01124 07790 12465 31416 10270 20200 30170 40184 55000 60006 81202 91200=
07790,1998-09-01 15:00:00,26,1017.6,-0.8,74,21,15000,25.928,,,140,,,,,,,,,,,wg-a,,,,AAXX 01154 07790 12465 51414 10260 20210 30162 40176 57008 60006 83802 91500=
07790,1998-09-01 18:00:00,24,1017.6,-0,78,20,15000,18.52,,,170,20.6,27.3,,,,,,,,,wg-a,,,,AAXX 01184 07790 12565 31710 10240 20200 30162 40176 55000 60006 81502 91800 333 10273 20206=
07790,1998-09-01 21:00:00,22,1018.3,0.7,83,19,18000,11.112,,,170,,,,,,,,,,,wg-a,,,,AAXX 01214 07790 12568 31706 10220 20190 30169 40183 51007 60006 82501 92100=
07790,1998-09-02 00:00:00,20,1017.9,-0.4,88,18,18000,7.408,,,230,,,,,,,,,,,wg-a,,,,AAXX 02004 07790 12568 32304 10200 20180 30165 40179 58004 60006 82501 90000=
07790,1998-09-02 06:00:00,19,1018,-0,100,19,0,3.704,,,280,18.2,23.9,,,,,,,,,wg-a,,,,AAXX 02064 07790 02/// /2802 10190 20190 30166 40180 55000 60006 90600 333 10239 20182 60004=
07790,1998-09-02 09:00:00,27,1017.9,-0.1,70,21,17000,25.928,,,150,,,,,,,,,,,wg-a,,,,AAXX 02094 07790 12567 21514 10270 20210 30165 40179 57001 60006 82201 90900=
07790,1998-09-02 12:00:00,26,1017.3,-0.6,74,21,17000,31.484,,,150,,,,,,,,,,,wg-a,,,,AAXX 02124 07790 12467 /1517 10260 20210 30159 40173 56006 60006 84801 91200=
07790,1998-09-02 18:00:00,24,1015.9,-0.2,89,22,10000,14.816,,57.412,170,19.4,27.2,,,,,,,,,wg-a,,,,AAXX 02184 07790 12460 /1708 10240 20220 30145 40159 56002 60006 81600 91800 333 10272 20194 91031=
07790,1998-09-02 21:00:00,23,1016.3,0.4,89,21,10000,7.408,,,190,,,,,,,,,,,wg-a,,,,AAXX 02214 07790 12460 21904 10230 20210 30149 40163 50004 60006 82600 92100=
07790,1998-09-03 00:00:00,21,1015.8,-0.5,88,19,10000,3.704,,,230,,,,,,,,,,,wg-a,,,,AAXX 03004 07790 12460 22302 10210 20190 30144 40158 58005 60006 82600 90000=
07790,1998-09-03 03:00:00,20,1015,-0.8,88,18,10000,7.408,,,240,,,,,,,,,,,wg-a,,,,AAXX 03034 07790 12460 32404 10200 20180 30136 40150 56008 60006 83600 90300=
07790,1998-09-03 06:00:00,21,1015.2,0.2,88,19,9000,3.704,,,240,19.4,24.2,,,,,,,,,wg-a,,,,AAXX 03064 07790 02459 72402 10210 20190 30138 40152 53002 60006 85602 90600 333 10242 20194 60004=
07790,1998-09-03 09:00:00,28,1015.4,0.2,74,23,14000,14.816,,,150,,,,,,,,,,,wg-a,,,,AAXX 03094 07790 12464 /1508 10280 20230 30140 40154 53002 60006 82102 90900=
07790,1998-09-03 12:00:00,28,1014.4,-1,74,23,12000,18.52,,,150,,,,,,,,,,,wg-a,,,,AAXX 03124 07790 12462 81510 10280 20230 30130 40144 58010 60006 84202 91200=
07790,1998-09-03 15:00:00,27,1013.5,-0.9,79,23,12000,11.112,,,150,,,,,,,,,,,wg-a,,,,AAXX 03154 07790 12462 /1506 10270 20230 30121 40135 56009 60006 84902 91500=
07790,1998-09-03 18:00:00,25,1013.4,-0.1,89,23,9000,3.704,,,170,21,28.5,,,,,,,,,wg-a,,,,AAXX 03184 07790 12459 21702 10250 20230 30120 40134 56001 60006 81602 91800 333 10285 20210=
07790,1998-09-04 00:00:00,21,1013.8,-0.4,94,20,15000,7.408,,,250,,,,,,,,,,,wg-a,,,,AAXX 04004 07790 12/65 22504 10210 20200 30124 40138 58004 60006 80001 90000=
07790,1998-09-04 03:00:00,21,1013.2,-0.6,88,19,15000,7.408,,,220,,,,,,,,,,,wg-a,,,,AAXX 04034 07790 12/65 22204 10210 20190 30118 40132 58006 60006 80002 90300=
07790,1998-09-04 06:00:00,22,1013.1,-0.1,83,19,8000,7.408,,,220,20.5,25.1,,,,,,,,,wg-a,,,,AAXX 04064 07790 02558 /2204 10220 20190 30117 40131 57001 60006 81502 90600 333 10251 20205 60004=
07790,1998-09-04 09:00:00,28,1013.6,0.5,70,22,8000,11.112,,,120,,,,,,,,,,,wg-a,,,,AAXX 04094 07790 12558 21206 10280 20220 30122 40136 53005 60006 81202 90900=
07790,1998-09-04 12:00:00,28,1012.9,-0.7,74,23,8000,14.816,,,110,,,,,,,,,,,wg-a,,,,AAXX 04124 07790 12558 61108 10280 20230 30115 40129 57007 60006 83202 91200=
07790,1998-09-04 15:00:00,27,1011.7,-1.2,74,22,8000,7.408,,,100,,,,,,,,,,,wg-a,,,,AAXX 04154 07790 12558 /1004 10270 20220 30103 40117 57012 60006 83202 91500=
07790,1998-09-04 18:00:00,25,1011,-0.7,83,22,6000,3.704,,,160,21.7,29.2,,,,,,,,,wg-a,,,,AAXX 04184 07790 12456 51602 10250 20220 30096 40110 55007 60006 84502 91800 333 10292 20217=
07790,1998-09-04 21:00:00,24,1010.9,-0.1,89,22,12000,3.704,,,190,,,,,,,,,,,wg-a,,,,AAXX 04214 07790 12462 71902 10240 20220 30095 40109 58001 60006 83502 92100=
07790,1998-09-05 00:00:00,22,1009.3,-1.6,88,20,12000,3.704,,,280,,,,,,,,,,,wg-a,,,,AAXX 05004 07790 12462 72802 10220 20200 30079 40093 58016 60006 83502 90000=
07790,1998-09-05 03:00:00,21,1007.5,-1.8,88,19,12000,7.408,,,230,,,,,,,,,,,wg-a,,,,AAXX 05034 07790 12562 72304 10210 20190 30061 40075 56018 60006 83502 90300=
07790,1998-09-05 06:00:00,22,1006.5,-1,83,19,8000,11.112,,,200,21.2,25,,,,,,,,11,wg-a,,,,AAXX 05064 07790 02458 82006 10220 20190 30051 40065 58010 60006 71111 84802 90600 333 10250 20212 60004=
07790,1998-09-05 09:00:00,29,1004.9,-1.5,52,18,10000,11.112,,,160,,,,,,,,,,,wg-a,,,,AAXX 05094 07790 12560 71606 10290 20180 30036 40049 57015 60006 82282 90900=
07790,1998-09-05 12:00:00,32,1004.7,-0.2,28,11,20000,11.112,,,90,,,,,,,,,,,wg-a,,,,AAXX 05124 07790 12570 /0906 10320 20110 30034 40047 56002 60006 81232 91200=
07790,1998-09-05 15:00:00,31,1005.1,0.4,19,5,25000,29.632,,,330,,,,,,,,,,,wg-a,,,,AAXX 05154 07790 12675 23316 10310 20050 30038 40051 52004 60006 81202 91500=
07790,1998-09-05 18:00:00,27,1006.3,1.1,28,7,500,29.632,,,310,21.5,34.3,,,,,,,,,wg-a,,,,AAXX 05184 07790 12/00 23116 10270 20070 30049 40063 51011 60006 80002 91800 333 10343 20215=
07790,1998-09-05 21:00:00,25,1008.3,2,34,8,20000,14.816,,57.412,240,,,,,,,,,,,wg-a,,,,AAXX 05214 07790 12/70 12408 10250 20080 30069 40083 51020 60006 80001 92100 333 91031=
07790,1998-09-06 00:00:00,21,1008.5,0.2,43,8,0,7.408,,,260,,,,,,,,,,,wg-a,,,,AAXX 06004 07790 12/// /2604 10210 20080 30071 40085 53002 60006 90000=
07790,1998-09-06 03:00:00,20,1008.9,0.4,53,10,10000,7.408,,,260,,,,,,,,,,,wg-a,,,,AAXX 06034 07790 12/60 /2604 10200 20100 30075 40089 53004 60006 90300=
07790,1998-09-06 06:00:00,22,1009.9,1,43,9,40000,7.408,,,240,19.7,26.7,,,,,,,,,wg-a,,,,AAXX 06064 07790 02/82 22404 10220 20090 30085 40099 53010 60006 80001 90600 333 10267 20197 60004=
07790,1998-09-06 09:00:00,27,1010.9,1,48,15,40000,14.816,,,120,,,,,,,,,,,wg-a,,,,AAXX 06094 07790 12582 /1208 10270 20150 30095 40109 51010 60006 81202 90900=
07790,1998-09-06 12:00:00,27,1011,0.1,54,17,40000,18.52,,,130,,,,,,,,,,,wg-a,,,,AAXX 06124 07790 12682 /1310 10270 20170 30096 40110 51001 60006 81200 91200=
07790,1998-09-06 15:00:00,27,1010.7,-0.3,58,18,40000,14.816,,,120,,,,,,,,,,,wg-a,,,,AAXX 06154 07790 12582 21208 10270 20180 30093 40107 58003 60006 82800 91500=
07790,1998-09-06 18:00:00,24,1010.3,-0.4,78,20,500,3.704,,,90,21.6,27.8,,,,,,,,,wg-a,,,,AAXX 06184 07790 12500 /0902 10240 20200 30089 40103 55004 60006 81400 91800 333 10278 20216=
07790,1998-09-06 21:00:00,20,1011.1,0.8,83,17,25000,11.112,,,240,,,,,,,,,,,wg-a,,,,AAXX 06214 07790 12/75 12406 10200 20170 30097 40111 51008 60006 81030 92100=
07790,1998-09-07 00:00:00,20,1010.8,-0.3,64,13,10000,7.408,,,260,,,,,,,,,,,wg-a,,,,AAXX 07004 07790 12/60 /2604 10200 20130 30094 40108 58003 60006 90000=
07790,1998-09-07 03:00:00,19,1009.8,-1,64,12,25000,11.112,,,240,,,,,,,,,,,wg-a,,,,AAXX 07034 07790 12/75 52406 10190 20120 30084 40098 58010 60006 81034 90300=
07790,1998-09-07 06:00:00,20,1010.1,0.3,60,12,15000,11.112,,,220,18.6,23.9,,,,,,,,,wg-a,,,,AAXX 07064 07790 02665 42206 10200 20120 30087 40101 53003 60006 81532 90600 333 10239 20186 60004=
07790,1998-09-07 09:00:00,25,1010.3,0.2,65,18,15000,18.52,,,140,,,,,,,,,,,wg-a,,,,AAXX 07094 07790 12665 71410 10250 20180 30089 40103 50002 60006 81536 90900=
07790,1998-09-07 12:00:00,25,1008.9,-1.4,69,19,15000,25.928,,,150,,,,,,,,,,,wg-a,,,,AAXX 07124 07790 12565 71514 10250 20190 30075 40089 56014 60006 83536 91200=
07790,1998-09-07 15:00:00,24,1008.1,-0.8,69,18,15000,14.816,,,130,,,,,,,,,,,wg-a,,,,AAXX 07154 07790 12565 81308 10240 20180 30067 40081 57008 60006 83537 91500=
07790,1998-09-07 18:00:00,23,1007.6,-0.5,73,18,13000,3.704,,,180,19.7,26.2,,,,,,,,,wg-a,,,,AAXX 07184 07790 12563 81802 10230 20180 30062 40076 56005 60006 85536 91800 333 10262 20197=
07790,1998-09-07 21:00:00,21,1008.2,0.6,88,19,13000,3.704,,,290,,,,,,,,,,60,wg-a,,,,AAXX 07214 07790 02563 82902 10210 20190 30068 40082 53006 61000 76062 83936 92100 333 ////=
07790,1998-09-08 00:00:00,20,1006.9,-1.3,88,18,13000,7.408,,,230,,,,,,,,,,2,wg-a,,,,AAXX 08004 07790 02663 82304 10200 20180 30055 40069 58013 61000 70262 83536 90000 333 6100=
07790,1998-09-08 03:00:00,19,1005.6,-1.3,94,18,13000,7.408,,,240,,,,,,,,,,,wg-a,,,,AAXX 08034 07790 12463 72404 10190 20180 30042 40056 56013 60006 8593/ 90300=
07790,1998-09-08 06:00:00,20,1005.7,0.1,83,17,12000,3.704,,,220,19,23.4,,,,,,,,1,wg-a,,,,AAXX 08064 07790 02562 /2202 10200 20170 30043 40057 53001 60006 70192 84302 90600 333 10234 20190 61000=
07790,1998-09-08 09:00:00,22,1008.2,2.5,83,19,20000,11.112,,,110,,,,,,,,,,,wg-a,,,,AAXX 08094 07790 12570 /1106 10220 20190 30068 40082 51025 60006 83802 90900=
07790,1998-09-08 12:00:00,25,1007.7,-0.5,65,18,20000,14.816,,,60,,,,,,,,,,,wg-a,,,,AAXX 08124 07790 12570 30608 10250 20180 30063 40077 55005 60006 82801 91200=
07790,1998-09-08 15:00:00,26,1008.8,1.1,58,17,25000,29.632,,,20,,,,,,,,,,,wg-a,,,,AAXX 08154 07790 12575 /0216 10260 20170 30074 40088 52011 60006 81200 91500=
07790,1998-09-08 18:00:00,24,1010.1,1.3,61,16,25000,14.816,,,330,19.9,27,,,,,,,,,wg-a,,,,AAXX 08184 07790 12575 /3308 10240 20160 30087 40101 53013 60006 81100 91800 333 10270 20199=
07790,1998-09-08 21:00:00,22,1012.3,2.2,65,15,25000,14.816,,,240,,,,,,,,,,,wg-a,,,,AAXX 08214 07790 12575 /2408 10220 20150 30109 40123 51022 60006 81100 92100=
07790,1998-09-09 00:00:00,21,1012.7,0.4,73,16,25000,14.816,,,240,,,,,,,,,,,wg-a,,,,AAXX 09004 07790 12575 /2408 10210 20160 30113 40127 50004 60006 81100 90000=
07790,1998-09-09 03:00:00,20,1013.4,0.7,73,15,25000,14.816,,,230,,,,,,,,,,,wg-a,,,,AAXX 09034 07790 12/75 02308 10200 20150 30120 40134 53007 60006 80000 90300=
07790,1998-09-09 06:00:00,20,1014.4,1,68,14,10000,11.112,,,240,17.5,23.5,,,,,,,,,wg-a,,,,AAXX 09064 07790 02/60 /2406 10200 20140 30130 40144 53010 60006 90600 333 10235 20175 60004=
07790,1998-09-09 09:00:00,25,1015.5,1.1,61,17,25000,11.112,,,60,,,,,,,,,,,wg-a,,,,AAXX 09094 07790 12575 10606 10250 20170 30141 40155 53011 60006 81101 90900=
07790,1998-09-09 12:00:00,26,1015.1,-0.4,58,17,500,11.112,,,30,,,,,,,,,,,wg-a,,,,AAXX 09124 07790 12500 /0306 10260 20170 30137 40151 58004 60006 81101 91200=
07790,1998-09-09 15:00:00,26,1014.6,-0.5,65,19,11000,11.112,,,40,,,,,,,,,,,wg-a,,,,AAXX 09154 07790 12/61 /0406 10260 20190 30132 40146 56005 60006 91500=
07790,1998-09-09 18:00:00,24,1014.4,-0.2,69,18,500,7.408,,,220,19.9,26.5,,,,,,,,,wg-a,,,,AAXX 09184 07790 12/00 /2204 10240 20180 30130 40144 56002 60006 80001 91800 333 10265 20199=
07790,1998-09-09 21:00:00,21,1015.5,1.1,78,17,500,14.816,,,210,,,,,,,,,,,wg-a,,,,AAXX 09214 07790 12/00 02108 10210 20170 30141 40155 51011 60006 80000 92100=
07790,1998-09-10 00:00:00,18,1015.7,0.2,88,16,500,3.704,,,250,,,,,,,,,,,wg-a,,,,AAXX 10004 07790 12/00 02502 10180 20160 30143 40157 50002 60006 80000 90000=
07790,1998-09-10 03:00:00,19,1014.9,-0.8,73,14,500,11.112,,,230,,,,,,,,,,,wg-a,,,,AAXX 10034 07790 12/00 02306 10190 20140 30135 40149 58008 60006 80000 90300=
07790,1998-09-10 06:00:00,19,1015.4,0.5,78,15,500,11.112,,,230,17.6,23.6,,,,,,,,,wg-a,,,,AAXX 10064 07790 02/00 02306 10190 20150 30140 40154 53005 60006 80000 90600 333 10236 20176 60004=
07790,1998-09-10 09:00:00,27,1015.6,0.2,54,17,500,11.112,,,100,,,,,,,,,,,wg-a,,,,AAXX 10094 07790 12/00 01006 10270 20170 30142 40156 53002 60006 80000 90900=
07790,1998-09-10 12:00:00,28,1015,-0.6,55,18,500,11.112,,,70,,,,,,,,,,,wg-a,,,,AAXX 10124 07790 12600 /0706 10280 20180 30136 40150 58006 60006 81200 91200=
07790,1998-09-10 15:00:00,27,1013.6,-1.4,66,20,15000,14.816,,,140,,,,,,,,,,,wg-a,,,,AAXX 10154 07790 12565 /1408 10270 20200 30122 40136 56014 60006 81500 91500=
07790,1998-09-10 18:00:00,24,1013.2,-0.4,83,21,15000,0,,,0,19,28.3,,,,,,,,,wg-a,,,,AAXX 10184 07790 12565 30000 10240 20210 30118 40132 56004 60006 81502 91800 333 10283 20190=
07790,1998-09-10 21:00:00,21,1013.4,0.2,88,19,15000,3.704,,,190,,,,,,,,,,,wg-a,,,,AAXX 10214 07790 12/65 01902 10210 20190 30120 40134 51002 60006 80000 92100=
07790,1998-09-11 00:00:00,20,1012.4,-1,83,17,15000,3.704,,,240,,,,,,,,,,,wg-a,,,,AAXX 11004 07790 12/65 02402 10200 20170 30110 40124 58010 60006 80000 90000=
07790,1998-09-11 03:00:00,19,1011.1,-1.3,83,16,15000,3.704,,,220,,,,,,,,,,,wg-a,,,,AAXX 11034 07790 12/65 02202 10190 20160 30097 40111 56013 60006 80000 90300=
07790,1998-09-11 06:00:00,20,1010.5,-0.6,78,16,15000,11.112,,,240,19,24.3,,,,,,,,11,wg-a,,,,AAXX 11064 07790 02/65 42406 10200 20160 30091 40105 56006 60006 71100 80001 90600 333 10243 20190 60004=
07790,1998-09-11 09:00:00,25,1010.5,-0,65,18,12000,14.816,,,170,,,,,,,,,,,wg-a,,,,AAXX 11094 07790 12562 81708 10250 20180 30091 40105 55000 60006 82572 90900=
07790,1998-09-11 12:00:00,25,1008.9,-1.6,74,20,12000,11.112,,,140,,,,,,,,,,21,wg-a,,,,AAXX 11124 07790 02462 81406 10250 20200 30075 40089 58016 61000 72161 82572 91200 333 6100=
07790,1998-09-11 15:00:00,26,1006.6,-2.3,65,19,12000,0,,,0,,,,,,,,,,2,wg-a,,,,AAXX 11154 07790 02462 70000 10260 20190 30052 40066 58023 61000 70262 85572 91500 333 ////=
07790,1998-09-11 18:00:00,24,1004.4,-2.2,74,19,12000,0,,,0,19.6,25.9,,,,,,,,2,wg-a,,,,AAXX 11184 07790 12562 70000 10240 20190 30030 40044 56022 60006 70262 84872 91800 333 10259 20196=
07790,1998-09-11 21:00:00,21,1002.5,-1.9,88,19,18000,3.704,,,220,,,,,,,,,,,wg-a,,,,AAXX 11214 07790 12468 82202 10210 20190 30011 40025 58019 60006 83972 92100=
07790,1998-09-12 00:00:00,23,999.3,-3.2,65,16,16000,25.928,,,340,,,,,,,,,,15,wg-a,,,,AAXX 12004 07790 12466 83414 10230 20160 39979 49993 56032 60006 71522 83972 90000=
07790,1998-09-12 03:00:00,19,997.2,-2.1,83,16,20000,14.816,,50.004,230,,,,8,,,,,,17,wg-a,,,,AAXX 12034 07790 12470 82308 10190 20160 39958 49972 58021 60087 71798 8297/ 90300 333 91027=
07790,1998-09-12 06:00:00,19,996.8,-0.4,73,14,25000,18.52,,50.004,280,18.3,23.5,,,,,8,,,1,wg-a,,,,AAXX 12064 07790 02575 72810 10190 20140 39954 49968 55004 60006 70198 82242 90600 333 10235 20183 60084 91027=
07790,1998-09-12 09:00:00,21,996.1,-0.7,60,13,25000,22.224,,,230,,,,,,,,,,,wg-a,,,,AAXX 12094 07790 12575 72312 10210 20130 39947 49961 58007 60006 82242 90900=
07790,1998-09-12 12:00:00,22,995.1,-1,38,7,500,11.112,,,280,,,,,,,,,,,wg-a,,,,AAXX 12124 07790 12500 72806 10220 20070 39937 49951 55010 60006 82242 91200=
07790,1998-09-12 15:00:00,24,993.7,-1.4,29,5,500,25.928,,64.82,240,,,,,,,,,,,wg-a,,,,AAXX 12154 07790 12500 42414 10240 20050 39923 49937 56014 60006 81541 91500 333 91035=
07790,1998-09-12 18:00:00,20,993.5,-0.2,43,7,15000,31.484,,62.968,250,19.3,24.7,,,,,,,,13,wg-a,,,,AAXX 12184 07790 12565 52517 10200 20070 39921 49935 55002 60006 71311 83941 91800 333 10247 20193 91034=
07790,1998-09-12 21:00:00,20,996.2,2.7,43,7,15000,22.224,,42.596,320,,,,,,,,,,1,wg-a,,,,AAXX 12214 07790 12565 43212 10200 20070 39948 49962 51027 60006 70191 81941 92100 333 91023=
07790,1998-09-13 00:00:00,19,994.7,-1.5,43,6,15000,35.188,,81.488,260,,,,,,,,,,1,wg-a,,,,AAXX 13004 07790 12/65 22619 10190 20060 39933 49947 58015 60006 70191 81041 90000 333 91044=
07790,1998-09-13 03:00:00,20,994.8,0.1,40,6,15000,38.892,,62.968,280,,,,,,,,,,13,wg-a,,,,AAXX 13034 07790 12565 22821 10200 20060 39934 49948 53001 60006 71300 81941 90300 333 91034=
07790,1998-09-13 06:00:00,21,995.4,0.6,49,10,17000,25.928,,94.452,270,18.6,21,,,,,,,,,wg-a,,,,AAXX 13064 07790 02567 32714 10210 20100 39940 49954 50006 60006 82241 90600 333 10210 20186 60004 91051=
07790,1998-09-13 09:00:00,24,995.4,0,44,11,15000,29.632,,68.524,260,,,,,,,,,,,wg-a,,,,AAXX 13094 07790 12565 42616 10240 20110 39940 49954 50000 60006 83240 90900 333 91037=
07790,1998-09-13 12:00:00,25,994.6,-0.8,36,9,500,22.224,,46.3,330,,,,,,,,,,,wg-a,,,,AAXX 13124 07790 12500 53312 10250 20090 39932 49946 56008 60006 83241 91200 333 91025=
07790,1998-09-13 15:00:00,24,995.1,0.5,15,-4,500,25.928,,79.636,240,,,,,,,,,,,wg-a,,,,AAXX 13154 07790 12500 /2414 10240 21040 39937 49951 53005 60006 82241 91500 333 91043=
07790,1998-09-13 18:00:00,21,996.1,1,21,-2,11000,50.004,,62.968,280,20.1,26.7,,,,,,,,,wg-a,,,,AAXX 13184 07790 12/61 /2827 10210 21020 39947 49961 53010 60006 91800 333 10267 20201 91034=
07790,1998-09-13 21:00:00,19,997.4,1.3,37,4,500,42.596,,57.412,280,,,,,,,,,,,wg-a,,,,AAXX 13214 07790 12500 22823 10190 20040 39960 49974 50013 60006 82500 92100 333 91031=
07790,1998-09-14 00:00:00,17,998.5,1.1,42,4,500,38.892,,74.08,310,,,,,,,,,,,wg-a,,,,AAXX 14004 07790 12500 23121 10170 20040 39971 49985 53011 60006 82500 90000 333 91040=
07790,1998-09-14 03:00:00,17,998.3,-0.2,45,5,500,18.52,,50.004,80,,,,,,,,,,,wg-a,,,,AAXX 14034 07790 12500 /0810 10170 20050 39969 49983 56002 60006 81500 90300 333 91027=
07790,1998-09-14 06:00:00,17,1000.8,2.5,42,4,40000,3.704,,87.044,350,15.7,20.7,,,,,,,,,wg-a,,,,AAXX 14064 07790 02582 /3502 10170 20040 39994 40008 52025 60006 81200 90600 333 10207 20157 60004 91047=
07790,1998-09-14 09:00:00,22,1001.3,0.5,25,1,35000,7.408,,,260,,,,,,,,,,,wg-a,,,,AAXX 14094 07790 12581 /2604 10220 20010 39999 40013 52005 60006 81202 90900=
07790,1998-09-14 12:00:00,23,1001.8,0.5,27,3,35000,22.224,,,110,,,,,,,,,,,wg-a,,,,AAXX 14124 07790 12581 /1112 10230 20030 30004 40018 53005 60006 81200 91200=
07790,1998-09-14 15:00:00,23,1002.5,0.7,27,3,25000,11.112,,,210,,,,,,,,,,,wg-a,,,,AAXX 14154 07790 12575 22106 10230 20030 30011 40025 53007 60006 82200 91500=
07790,1998-09-14 18:00:00,19,1004.1,1.6,34,3,25000,18.52,,,290,16.6,23.9,,,,,,,,,wg-a,,,,AAXX 14184 07790 12575 /2910 10190 20030 30027 40041 51016 60006 81500 91800 333 10239 20166=
07790,1998-09-14 21:00:00,19,1005.8,1.7,32,2,25000,29.632,,53.708,250,,,,,,,,,,,wg-a,,,,AAXX 14214 07790 12575 /2516 10190 20020 30044 40058 53017 60006 81500 92100 333 91029=
07790,1998-09-15 00:00:00,19,1006.9,1.1,32,2,25000,35.188,,57.412,270,,,,,,,,,,,wg-a,,,,AAXX 15004 07790 12/75 02719 10190 20020 30055 40069 51011 60006 80000 90000 333 91031=
07790,1998-09-15 06:00:00,18,1008.6,1.3,39,4,25000,18.52,,61.116,280,17.5,19.7,,,,,,,,,wg-a,,,,AAXX 15064 07790 02575 22810 10180 20040 30072 40086 53013 60006 81102 90600 333 10197 20175 60004 91033=
07790,1998-09-15 09:00:00,22,1009.8,1.2,38,7,500,22.224,,50.004,340,,,,,,,,,,,wg-a,,,,AAXX 15094 07790 12500 43412 10220 20070 30084 40098 53012 60006 81202 90900 333 91027=
07790,1998-09-15 12:00:00,23,1010.4,0.6,41,9,35000,18.52,,50.004,20,,,,,,,,,,,wg-a,,,,AAXX 15124 07790 12581 20210 10230 20090 30090 40104 51006 60006 82200 91200 333 91027=
07790,1998-09-15 15:00:00,21,1010.7,0.3,46,9,35000,7.408,,,40,,,,,,,,,,,wg-a,,,,AAXX 15154 07790 12581 30404 10210 20090 30093 40107 53003 60006 83500 91500=
07790,1998-09-15 18:00:00,18,1011.9,1.2,64,11,35000,3.704,,,300,18,22.8,,,,,,,,,wg-a,,,,AAXX 15184 07790 12581 13002 10180 20110 30105 40119 53012 60006 81500 91800 333 10228 20180=
07790,1998-09-16 00:00:00,16,1012.9,-0.2,59,8,35000,18.52,,,240,,,,,,,,,,,wg-a,,,,AAXX 16004 07790 12581 22410 10160 20080 30115 40129 58002 60006 82500 90000=
07790,1998-09-16 06:00:00,14,1012.6,0.1,63,7,35000,7.408,,,240,12.8,18.4,,,,,,,,,wg-a,,,,AAXX 16064 07790 02581 /2404 10140 20070 30112 40126 53001 60006 81500 90600 333 10184 20128 60004=
07790,1998-09-16 09:00:00,22,1012.5,-0.1,57,13,35000,18.52,,,130,,,,,,,,,,,wg-a,,,,AAXX 16094 07790 12581 31310 10220 20130 30111 40125 57001 60006 81101 90900=
07790,1998-09-16 18:00:00,20,1009.5,-0.4,73,15,35000,7.408,,,200,13.6,23.6,,,,,,,,,wg-a,,,,AAXX 16184 07790 12581 22004 10200 20150 30081 40095 55004 60006 82100 91800 333 10236 20136=
07790,1998-09-17 00:00:00,16,1008,-1.3,77,12,20000,7.408,,,220,,,,,,,,,,,wg-a,,,,AAXX 17004 07790 12570 /2204 10160 20120 30066 40080 57013 60006 81500 90000=
07790,1998-09-17 03:00:00,14,1006.6,-1.4,82,11,20000,7.408,,,240,,,,,,,,,,,wg-a,,,,AAXX 17034 07790 12570 /2404 10140 20110 30052 40066 58014 60006 81500 90300=
07790,1998-09-17 06:00:00,15,1006.4,-0.2,77,11,20000,7.408,,,220,13.5,19.9,,,,,,,,,wg-a,,,,AAXX 17064 07790 02570 /2204 10150 20110 30050 40064 55002 60006 81201 90600 333 10199 20135 60004=
07790,1998-09-17 09:00:00,24,1007.2,0.8,47,12,20000,7.408,,,180,,,,,,,,,,,wg-a,,,,AAXX 17094 07790 12570 /1804 10240 20120 30058 40072 51008 60006 81272 90900=
07790,1998-09-17 12:00:00,23,1007.4,0.2,61,15,20000,14.816,,,90,,,,,,,,,,,wg-a,,,,AAXX 17124 07790 12570 40908 10230 20150 30060 40074 50002 60006 82801 91200=
07790,1998-09-17 15:00:00,22,1007.7,0.3,69,16,20000,11.112,,,100,,,,,,,,,,,wg-a,,,,AAXX 17154 07790 12570 61006 10220 20160 30063 40077 53003 60006 85801 91500=
07790,1998-09-17 18:00:00,20,1008.9,1.2,64,13,20000,3.704,,,40,15.3,24.9,,,,,,,,,wg-a,,,,AAXX 17184 07790 12570 20402 10200 20130 30075 40089 53012 60006 82500 91800 333 10249 20153=
07790,1998-09-17 21:00:00,16,1011.1,2.2,88,14,20000,3.704,,,240,,,,,,,,,,,wg-a,,,,AAXX 17214 07790 12/70 02402 10160 20140 30097 40111 51022 60006 80000 92100=
07790,1998-09-18 00:00:00,16,1012.7,1.6,77,12,20000,7.408,,,230,,,,,,,,,,,wg-a,,,,AAXX 18004 07790 12/70 02304 10160 20120 30113 40127 51016 60006 80000 90000=
07790,1998-09-18 06:00:00,16,1014.9,1.7,68,10,500,7.408,,,230,14.6,19.9,,,,,,,,,wg-a,,,,AAXX 18064 07790 02500 /2304 10160 20100 30135 40149 53017 60006 81100 90600 333 10199 20146 60004=
07790,1998-09-18 09:00:00,23,1016.8,1.9,61,15,500,11.112,,,30,,,,,,,,,,,wg-a,,,,AAXX 18094 07790 12500 10306 10230 20150 30154 40168 51019 60006 81100 90900=
07790,1998-09-18 12:00:00,23,1017.3,0.5,65,16,500,11.112,,,80,,,,,,,,,,,wg-a,,,,AAXX 18124 07790 12500 /0806 10230 20160 30159 40173 51005 60006 81100 91200=
07790,1998-09-18 15:00:00,23,1017.7,0.4,61,15,500,7.408,,,30,,,,,,,,,,,wg-a,,,,AAXX 18154 07790 12500 /0304 10230 20150 30163 40177 53004 60006 81200 91500=
07790,1998-09-18 18:00:00,20,1018.7,1,83,17,500,3.704,,,260,15.6,24.4,,,,,,,,4,wg-a,,,,AAXX 18184 07790 12/00 /2602 10200 20170 30173 40187 53010 60006 70400 80000 91800 333 10244 20156=
07790,1998-09-18 21:00:00,16,1020.9,2.2,82,13,500,7.408,,,260,,,,,,,,,,,wg-a,,,,AAXX 18214 07790 12/00 02604 10160 20130 30195 40209 52022 60006 80000 92100=
07790,1998-09-19 00:00:00,16,1021.6,0.7,68,10,500,7.408,,,240,,,,,,,,,,,wg-a,,,,AAXX 19004 07790 12/00 02404 10160 20100 30202 40216 52007 60006 80000 90000=
07790,1998-09-19 03:00:00,15,1021.8,0.2,67,9,500,11.112,,,230,,,,,,,,,,,wg-a,,,,AAXX 19034 07790 12/00 02306 10150 20090 30204 40218 51002 60006 80000 90300=
07790,1998-09-19 06:00:00,15,1022.8,1,59,7,500,11.112,,,230,14.3,20,,,,,,,,,wg-a,,,,AAXX 19064 07790 02/00 02306 10150 20070 30214 40228 53010 60006 80000 90600 333 10200 20143 60004=
07790,1998-09-19 09:00:00,24,1024.2,1.4,61,16,500,11.112,,,100,,,,,,,,,,,wg-a,,,,AAXX 19094 07790 12500 11006 10240 20160 30228 40242 53014 60006 81100 90900=
07790,1998-09-19 12:00:00,25,1024.6,0.4,47,13,50000,14.816,,,130,,,,,,,,,,,wg-a,,,,AAXX 19124 07790 12584 21308 10250 20130 30232 40246 50004 60006 82200 91200=
07790,1998-09-19 15:00:00,24,1023.7,-0.9,41,10,50000,11.112,,,140,,,,,,,,,,,wg-a,,,,AAXX 19154 07790 12584 /1406 10240 20100 30223 40237 57009 60006 81200 91500=
07790,1998-09-19 18:00:00,19,1023.7,-0,60,11,500,3.704,,,250,15.2,25.1,,,,,,,,,wg-a,,,,AAXX 19184 07790 12/00 02502 10190 20110 30223 40237 54000 60006 80000 91800 333 10251 20152=
07790,1998-09-19 21:00:00,16,1024.5,0.8,59,8,500,7.408,,,230,,,,,,,,,,,wg-a,,,,AAXX 19214 07790 12/00 02304 10160 20080 30231 40245 52008 60006 80000 92100=
07790,1998-09-20 00:00:00,15,1025.4,0.8,67,9,500,11.112,,,240,,,,,,,,,,,wg-a,,,,AAXX 20004 07790 12/00 02406 10150 20090 30239 40254 51008 60006 80000 90000=
07790,1998-09-20 03:00:00,14,1025.4,-0,77,10,500,7.408,,,240,,,,,,,,,,,wg-a,,,,AAXX 20034 07790 12/00 02404 10140 20100 30239 40254 55000 60006 80000 90300=
07790,1998-09-20 06:00:00,14,1025.9,0.5,77,10,500,7.408,,,230,13.2,19.1,,,,,,,,,wg-a,,,,AAXX 20064 07790 02/00 02304 10140 20100 30244 40259 53005 60006 80000 90600 333 10191 20132 60004=
07790,1998-09-20 09:00:00,23,1026.1,0.3,47,11,10000,11.112,,,140,,,,,,,,,,,wg-a,,,,AAXX 20094 07790 12/60 /1406 10230 20110 30247 40261 53003 60006 90900=
07790,1998-09-20 12:00:00,22,1025.4,-0.7,46,10,500,11.112,,,70,,,,,,,,,,,wg-a,,,,AAXX 20124 07790 12500 /0706 10220 20100 30240 40254 58007 60006 81100 91200=
07790,1998-09-20 15:00:00,23,1023.8,-1.6,36,7,25000,18.52,,,10,,,,,,,,,,,wg-a,,,,AAXX 20154 07790 12575 /0110 10230 20070 30224 40238 56016 60006 81101 91500=
07790,1998-09-20 18:00:00,18,1023.7,-0.1,49,7,25000,3.704,,,260,14.1,24,,,,,,,,,wg-a,,,,AAXX 20184 07790 12/75 12602 10180 20070 30223 40237 55001 60006 80001 91800 333 10240 20141=
07790,1998-09-20 21:00:00,16,1024.7,1,68,10,20000,7.408,,,250,,,,,,,,,,,wg-a,,,,AAXX 20214 07790 12/70 02504 10160 20100 30233 40247 51010 60006 80000 92100=
07790,1998-09-21 00:00:00,16,1024.3,-0.4,68,10,20000,7.408,,,260,,,,,,,,,,,wg-a,,,,AAXX 21004 07790 12/70 02604 10160 20100 30229 40243 56004 60006 80000 90000=
07790,1998-09-21 03:00:00,15,1023.6,-0.7,67,9,20000,11.112,,,230,,,,,,,,,,,wg-a,,,,AAXX 21034 07790 12670 /2306 10150 20090 30222 40236 56007 60006 81500 90300=
07790,1998-09-21 06:00:00,18,1023.8,0.2,59,10,15000,7.408,,,240,14.7,19.8,,,,,,,,,wg-a,,,,AAXX 21064 07790 02565 72404 10180 20100 30224 40238 53002 60006 83832 90600 333 10198 20147 60004=
07790,1998-09-21 09:00:00,22,1023.7,-0.1,46,10,15000,25.928,,,50,,,,,,,,,,,wg-a,,,,AAXX 21094 07790 12665 /0514 10220 20100 30223 40237 58001 60006 81232 90900=
07790,1998-09-21 12:00:00,23,1022.5,-1.2,41,9,15000,18.52,,,30,,,,,,,,,,,wg-a,,,,AAXX 21124 07790 12665 /0310 10230 20090 30211 40225 57012 60006 82202 91200=
07790,1998-09-21 15:00:00,22,1021,-1.5,46,10,15000,11.112,,,20,,,,,,,,,,,wg-a,,,,AAXX 21154 07790 12665 30206 10220 20100 30196 40210 58015 60006 81202 91500=
07790,1998-09-21 18:00:00,19,1020.8,-0.2,56,10,15000,3.704,,,280,16.7,23.2,,,,,,,,,wg-a,,,,AAXX 21184 07790 12/65 22802 10190 20100 30194 40208 55002 60006 80002 91800 333 10232 20167=
07790,1998-09-21 21:00:00,17,1021.2,0.4,59,9,15000,7.408,,,240,,,,,,,,,,,wg-a,,,,AAXX 21214 07790 12/65 22404 10170 20090 30198 40212 51004 60006 80002 92100=
07790,1998-09-22 00:00:00,16,1020.9,-0.3,68,10,15000,11.112,,,240,,,,,,,,,,,wg-a,,,,AAXX 22004 07790 12/65 02406 10160 20100 30195 40209 56003 60006 80000 90000=
07790,1998-09-22 03:00:00,16,1020,-0.9,72,11,15000,11.112,,,230,,,,,,,,,,,wg-a,,,,AAXX 22034 07790 12665 /2306 10160 20110 30186 40200 56009 60006 85500 90300=
07790,1998-09-22 06:00:00,15,1019.9,-0.1,77,11,20000,7.408,,,240,13.9,19.2,,,,,,,,,wg-a,,,,AAXX 22064 07790 02/70 02404 10150 20110 30185 40199 55001 60006 80000 90600 333 10192 20139 60004=
07790,1998-09-22 09:00:00,21,1020.6,0.7,56,12,20000,11.112,,,40,,,,,,,,,,,wg-a,,,,AAXX 22094 07790 12670 /0406 10210 20120 30192 40206 51007 60006 81100 90900=
07790,1998-09-22 12:00:00,23,1020.2,-0.4,53,13,20000,11.112,,,120,,,,,,,,,,,wg-a,,,,AAXX 22124 07790 12570 31206 10230 20130 30188 40202 58004 60006 83200 91200=
07790,1998-09-22 15:00:00,22,1019.2,-1,57,13,20000,7.408,,,90,,,,,,,,,,,wg-a,,,,AAXX 22154 07790 12570 20904 10220 20130 30178 40192 56010 60006 82200 91500=
07790,1998-09-22 18:00:00,18,1019.3,0.1,77,14,20000,3.704,,,270,14.5,23.2,,,,,,,,,wg-a,,,,AAXX 22184 07790 12/70 /2702 10180 20140 30179 40193 52001 60006 81030 91800 333 10232 20145=
07790,1998-09-22 21:00:00,16,1019.8,0.5,82,13,20000,7.408,,,240,,,,,,,,,,,wg-a,,,,AAXX 22214 07790 12/70 02404 10160 20130 30184 40198 51005 60006 80000 92100=
07790,1998-09-23 00:00:00,14,1019.1,-0.7,88,12,20000,7.408,,,230,,,,,,,,,,,wg-a,,,,AAXX 23004 07790 12/70 02304 10140 20120 30177 40191 58007 60006 80000 90000=
07790,1998-09-23 03:00:00,14,1018.6,-0.5,82,11,20000,11.112,,,230,,,,,,,,,,,wg-a,,,,AAXX 23034 07790 12/70 02306 10140 20110 30172 40186 56005 60006 80000 90300=
07790,1998-09-23 06:00:00,15,1019.3,0.7,77,11,20000,7.408,,,240,13.8,18,,,,,,,,11,wg-a,,,,AAXX 23064 07790 02/70 /2404 10150 20110 30179 40193 53007 60006 71100 80001 90600 333 10180 20138 60004=
07790,1998-09-23 09:00:00,23,1020.2,0.9,57,14,20000,7.408,,,100,,,,,,,,,,,wg-a,,,,AAXX 23094 07790 12570 /1004 10230 20140 30188 40202 51009 60006 81200 90900=
07790,1998-09-23 12:00:00,24,1019.9,-0.3,54,14,20000,11.112,,,130,,,,,,,,,,,wg-a,,,,AAXX 23124 07790 12570 21306 10240 20140 30185 40199 58003 60006 82200 91200=
07790,1998-09-23 15:00:00,23,1019.4,-0.5,53,13,20000,11.112,,,130,,,,,,,,,,,wg-a,,,,AAXX 23154 07790 12570 21306 10230 20130 30180 40194 56005 60006 82800 91500=
07790,1998-09-23 18:00:00,18,1019.4,-0,77,14,18000,3.704,,,250,14.5,23.9,,,,,,,,,wg-a,,,,AAXX 23184 07790 12568 /2502 10180 20140 30180 40194 54000 60006 81501 91800 333 10239 20145=
07790,1998-09-23 21:00:00,15,1020,0.6,88,13,18000,7.408,,,240,,,,,,,,,,,wg-a,,,,AAXX 23214 07790 12568 /2404 10150 20130 30186 40200 51006 60006 81500 92100=
07790,1998-09-24 00:00:00,14,1019.7,-0.3,82,11,18000,11.112,,,240,,,,,,,,,,,wg-a,,,,AAXX 24004 07790 12/68 02406 10140 20110 30183 40197 56003 60006 80000 90000=
07790,1998-09-24 03:00:00,13,1019.2,-0.5,82,10,18000,11.112,,,240,,,,,,,,,,,wg-a,,,,AAXX 24034 07790 12/68 02406 10130 20100 30178 40192 58005 60006 80000 90300=
07790,1998-09-24 06:00:00,14,1019.6,0.4,82,11,13000,7.408,,,220,12.9,18.2,,,,,,,,11,wg-a,,,,AAXX 24064 07790 02463 72204 10140 20110 30182 40196 53004 60006 71111 81532 90600 333 10182 20129 60004=
07790,1998-09-24 09:00:00,22,1020.2,0.6,60,14,20000,14.816,,,140,,,,,,,,,,,wg-a,,,,AAXX 24094 07790 12470 /1408 10220 20140 30188 40202 51006 60006 81502 90900=
07790,1998-09-24 12:00:00,22,1019.3,-0.9,73,17,15000,25.928,,,140,,,,,,,,,,,wg-a,,,,AAXX 24124 07790 12565 71414 10220 20170 30179 40193 56009 60006 81132 91200=
07790,1998-09-24 15:00:00,22,1018.2,-1.1,65,15,9000,18.52,,,150,,,,,,,,,,,wg-a,,,,AAXX 24154 07790 12559 71510 10220 20150 30168 40182 58011 60006 81838 91500=
07790,1998-09-24 18:00:00,20,1017.3,-0.9,83,17,8000,3.704,,,160,14,23,,,,,,,,,wg-a,,,,AAXX 24184 07790 12458 81602 10200 20170 30159 40173 56009 60006 8685/ 91800 333 10230 20140=
07790,1998-09-24 21:00:00,18,1017.6,0.3,88,16,12000,3.704,,,230,,,,2,,,,,,80,wg-a,,,,AAXX 24214 07790 12462 82302 10180 20160 30162 40176 50003 60027 78086 8585/ 92100=
07790,1998-09-25 00:00:00,17,1016.8,-0.8,100,17,2000,18.52,,,280,,,,50,,,,,,63,wg-a,,,,AAXX 25004 07790 02220 82810 10170 20170 30154 40168 56008 60516 76362 889// 90000 333 60507=
07790,1998-09-25 03:00:00,18,1014.9,-1.9,94,17,4500,35.188,,,360,,,,11,,,,,,60,wg-a,,,,AAXX 25034 07790 12345 83619 10180 20170 30135 40149 56019 60117 76066 879// 90300=
07790,1998-09-25 06:00:00,19,1014.1,-0.8,94,18,4000,14.816,,,30,16.6,20.5,,,,,,,,60,wg-a,,,,AAXX 25064 07790 02240 80308 10190 20180 30127 40141 56008 61000 76062 8687/ 90600 333 10205 20166 6066=
07790,1998-09-25 09:00:00,21,1014.3,0.2,83,18,15000,11.112,,,330,,,,,,,,,,1,wg-a,,,,AAXX 25094 07790 02465 53306 10210 20180 30129 40143 50002 61000 70162 84230 90900 333 ////=
07790,1998-09-25 12:00:00,23,1013.9,-0.4,73,18,18000,7.408,,,100,,,,,,,,,,3,wg-a,,,,AAXX 25124 07790 02468 /1004 10230 20180 30125 40139 56004 61000 70361 85830 91200 333 ////=
07790,1998-09-25 15:00:00,21,1013.9,-0,88,19,9000,14.816,,,20,,,,,,,,,,,wg-a,,,,AAXX 25154 07790 12359 /0208 10210 20190 30125 40139 55000 60006 84870 91500=
07790,1998-09-25 18:00:00,21,1014.6,0.7,83,18,18000,7.408,,,20,18.1,23.4,,,,,,,,,wg-a,,,,AAXX 25184 07790 12468 70204 10210 20180 30132 40146 53007 60006 878// 91800 333 10234 20181=
07790,1998-09-25 21:00:00,19,1015.3,0.7,94,18,15000,3.704,,,220,,,,,,,,,,,wg-a,,,,AAXX 25214 07790 12465 72202 10190 20180 30139 40153 53007 60006 878// 92100=
07790,1998-09-26 00:00:00,20,1015.1,-0.2,88,18,15000,3.704,,,240,,,,,,,,,,,wg-a,,,,AAXX 26004 07790 12465 72402 10200 20180 30137 40151 58002 60006 878// 90000=
07790,1998-09-26 03:00:00,19,1014.2,-0.9,94,18,15000,7.408,,,260,,,,,,,,,,,wg-a,,,,AAXX 26034 07790 12465 52604 10190 20180 30128 40142 58009 60006 85800 90300=
07790,1998-09-26 06:00:00,18,1013.9,-0.3,94,17,8000,3.704,,,240,18.3,20.5,,,,,,,,,wg-a,,,,AAXX 26064 07790 02458 72402 10180 20170 30125 40139 57003 60006 875// 90600 333 10205 20183 61000=
07790,1998-09-26 09:00:00,23,1013,-0.9,78,19,10000,22.224,,,130,,,,,,,,,,,wg-a,,,,AAXX 26094 07790 12460 61312 10230 20190 30116 40130 58009 60006 82881 90900=
07790,1998-09-26 12:00:00,24,1011.1,-1.9,74,19,12000,31.484,,44.448,160,,,,,,,,,,,wg-a,,,,AAXX 26124 07790 12562 71617 10240 20190 30097 40111 58019 60006 82881 91200 333 91024=
07790,1998-09-26 15:00:00,22,1010.5,-0.6,88,20,8000,18.52,,57.412,160,,,,6,,,,,,80,wg-a,,,,AAXX 26154 07790 12558 71610 10220 20200 30091 40105 56006 60067 78098 85982 91500 333 91031=
07790,1998-09-26 18:00:00,21,1009.8,-0.7,94,20,6000,7.408,,,210,18.3,24.3,,3,,,,,,,wg-a,,,,AAXX 26184 07790 02/56 /2104 10210 20200 30084 40098 55007 60006 91800 333 10243 20183 60037=
07790,1998-09-26 21:00:00,20,1010.1,0.3,94,19,7000,7.408,,,260,,,,,,,,,,,wg-a,,,,AAXX 26214 07790 12457 72604 10200 20190 30087 40101 50003 60006 82572 92100=
07790,1998-09-27 00:00:00,20,1010.3,0.2,94,19,7000,3.704,,,290,,,,,,,,,,,wg-a,,,,AAXX 27004 07790 12357 72902 10200 20190 30089 40103 51002 60006 83572 90000=
07790,1998-09-27 03:00:00,19,1008.3,-2,94,18,12000,7.408,,,250,,,,,,,,,,,wg-a,,,,AAXX 27034 07790 12362 72504 10190 20180 30069 40083 58020 60006 84502 90300=
07790,1998-09-27 06:00:00,18,1008.7,0.4,100,18,8000,11.112,,,220,18.4,21.1,,,,,,,,80,wg-a,,,,AAXX 27064 07790 02458 82206 10180 20180 30073 40087 53004 61000 78096 8597/ 90600 333 10211 20184 6012=
07790,1998-09-27 09:00:00,19,1009.5,0.8,94,18,9000,11.112,,,340,,,,,,,,,,,wg-a,,,,AAXX 27094 07790 32/59 /3406 10190 20180 30081 40095 53008 90900=
07790,1998-09-27 12:00:00,23,1007.5,-2,78,19,11000,7.408,,,20,,,,,,,,,,,wg-a,,,,AAXX 27124 07790 12/61 /0204 10230 20190 30061 40075 58020 60026 91200=
07790,1998-09-27 15:00:00,21,1008.5,1,64,14,18000,14.816,,,340,,,,0,,,,,,21,wg-a,,,,AAXX 27154 07790 12468 /3408 10210 20140 30071 40085 53010 60007 72162 83232 91500=
07790,1998-09-27 18:00:00,18,1007.7,-0.8,83,15,25000,7.408,,,190,18,23.1,,0,,,,,,1,wg-a,,,,AAXX 27184 07790 02575 21904 10180 20150 30063 40077 55008 60006 70161 8/900 91800 333 10231 20180 60007=
07790,1998-09-27 21:00:00,15,1008.2,0.5,94,14,25000,3.704,,,310,,,,,,,,,,,wg-a,,,,AAXX 27214 07790 12/75 03102 10150 20140 30068 40082 50005 60006 80000 92100=
07790,1998-09-28 00:00:00,15,1007.5,-0.7,88,13,25000,11.112,,,200,,,,,,,,,,,wg-a,,,,AAXX 28004 07790 12575 /2006 10150 20130 30061 40075 58007 60006 81100 90000=
07790,1998-09-28 03:00:00,16,1006.6,-0.9,77,12,25000,3.704,,,220,,,,,,,,,,,wg-a,,,,AAXX 28034 07790 12/75 02202 10160 20120 30052 40066 58009 60006 80000 90300=
07790,1998-09-28 06:00:00,15,1006.8,0.2,82,12,25000,7.408,,,260,13.6,18,,,,,3,,,,wg-a,,,,AAXX 28064 07790 02575 22604 10150 20120 30054 40068 53002 60006 82201 90600 333 10180 20136 60034=
07790,1998-09-28 09:00:00,23,1007.5,0.7,57,14,25000,7.408,,,180,,,,,,,,,,,wg-a,,,,AAXX 28094 07790 12575 21804 10230 20140 30061 40075 50007 60006 82230 90900=
07790,1998-09-28 12:00:00,24,1006.6,-0.9,54,14,25000,18.52,,,120,,,,,,,,,,,wg-a,,,,AAXX 28124 07790 12575 31210 10240 20140 30052 40066 58009 60006 8/200 91200=
07790,1998-09-28 15:00:00,23,1006.2,-0.4,61,15,25000,11.112,,,120,,,,,,,,,,,wg-a,,,,AAXX 28154 07790 12575 31206 10230 20150 30048 40062 55004 60006 8/200 91500=
07790,1998-09-28 18:00:00,20,1007.3,1.1,60,12,40000,3.704,,,210,14.5,24.8,,,,,,,,,wg-a,,,,AAXX 28184 07790 12582 /2102 10200 20120 30059 40073 53011 60006 81200 91800 333 10248 20145=
07790,1998-09-28 21:00:00,17,1008.2,0.9,63,10,500,11.112,,,200,,,,,,,,,,,wg-a,,,,AAXX 28214 07790 12/00 02006 10170 20100 30068 40082 51009 60006 80000 92100=
07790,1998-09-29 00:00:00,17,1008.2,0,59,9,500,11.112,,,260,,,,,,,,,,,wg-a,,,,AAXX 29004 07790 12/00 02606 10170 20090 30068 40082 50000 60006 80000 90000=
07790,1998-09-29 03:00:00,14,1008.3,0.1,77,10,500,7.408,,,240,,,,,,,,,,,wg-a,,,,AAXX 29034 07790 12/00 02404 10140 20100 30069 40083 53001 60006 80000 90300=
07790,1998-09-29 06:00:00,15,1008.6,0.3,72,10,11000,7.408,,,220,13.6,19.5,,,,,,,,,wg-a,,,,AAXX 29064 07790 02/61 /2204 10150 20100 30072 40086 53003 60006 90600 333 10195 20136 60004=
07790,1998-09-29 09:00:00,22,1009.9,1.3,65,15,500,7.408,,,140,,,,,,,,,,,wg-a,,,,AAXX 29094 07790 12500 21404 10220 20150 30085 40099 53013 60006 81101 90900=
07790,1998-09-29 12:00:00,23,1009.7,-0.2,69,17,500,11.112,,,100,,,,,,,,,,,wg-a,,,,AAXX 29124 07790 12500 31006 10230 20170 30083 40097 58002 60006 83200 91200=
07790,1998-09-29 15:00:00,22,1009.6,-0.1,73,17,500,11.112,,,120,,,,,,,,,,,wg-a,,,,AAXX 29154 07790 12500 31206 10220 20170 30082 40096 55001 60006 83300 91500=
07790,1998-09-29 18:00:00,19,1010.6,1,88,17,500,0,,,0,14.5,23.3,,,,,,,,,wg-a,,,,AAXX 29184 07790 12500 20000 10190 20170 30092 40106 53010 60006 82500 91800 333 10233 20145=
07790,1998-09-29 21:00:00,18,1011.7,1.1,88,16,500,7.408,,,220,,,,,,,,,,,wg-a,,,,AAXX 29214 07790 12500 72204 10180 20160 30103 40117 51011 60006 82530 92100=
07790,1998-09-30 00:00:00,17,1011.3,-0.4,82,14,0,7.408,,,270,,,,,,,,,,,wg-a,,,,AAXX 30004 07790 12/// /2704 10170 20140 30099 40113 56004 60006 90000=
07790,1998-09-30 03:00:00,16,1010.4,-0.9,82,13,18000,7.408,,,240,,,,,,,,,,,wg-a,,,,AAXX 30034 07790 12568 52404 10160 20130 30090 40104 57009 60006 82530 90300=
07790,1998-09-30 06:00:00,16,1010.2,-0.2,77,12,500,7.408,,,230,15.3,18.6,,,,,,,,,wg-a,,,,AAXX 30064 07790 02600 72304 10160 20120 30088 40102 57002 60006 8157/ 90600 333 10186 20153 60004=
07790,1998-09-30 09:00:00,22,1009.4,-0.8,73,17,500,14.816,,,160,,,,0,,,,,,,wg-a,,,,AAXX 30094 07790 12500 /1608 10220 20170 30080 40094 58008 60007 81572 90900=
07790,1998-09-30 12:00:00,24,1007.8,-1.6,65,17,500,31.484,,61.116,170,,,,,,,,,,,wg-a,,,,AAXX 30124 07790 12500 41717 10240 20170 30064 40078 56016 60006 81830 91200 333 91033=
07790,1998-09-30 15:00:00,22,1006.6,-1.2,78,18,18000,25.928,,57.412,160,,,,,,,,,,,wg-a,,,,AAXX 30154 07790 12568 61614 10220 20180 30052 40066 56012 60006 83850 91500 333 91031=
07790,1998-09-30 18:00:00,20,1006.1,-0.5,94,19,12000,7.408,,57.412,310,15.9,24.2,,,,,,,,61,wg-a,,,,AAXX 30184 07790 02462 83104 10200 20190 30047 40061 58005 61000 76161 8327/ 91800 333 10242 20159 6100 91031=
07790,1998-09-30 21:00:00,19,1006.3,0.2,94,18,18000,3.704,,,140,,,,1,,,,,,1,wg-a,,,,AAXX 30214 07790 12568 41402 10190 20180 30049 40063 52002 60017 70161 8327/ 92100=
07790,1998-10-01 00:00:00,18,1006.1,-0.2,94,17,18000,7.408,,,230,,,,0,,,,,,1,wg-a,,,,AAXX 01004 07790 02568 22304 10180 20170 30047 40061 58002 60016 70161 82500 90000 333 60007=
07790,1998-10-01 03:00:00,18,1005.9,-0.2,88,16,18000,7.408,,,190,,,,,,,,,,,wg-a,,,,AAXX 01034 07790 12568 21904 10180 20160 30045 40059 55002 60006 82500 90300=
07790,1998-10-01 06:00:00,17,1007,1.1,88,15,500,3.704,,,260,16.9,20.4,,,,,1,,,,wg-a,,,,AAXX 01064 07790 02500 42602 10170 20150 30056 40070 53011 60006 81880 90600 333 10204 20169 60014=
07790,1998-10-01 09:00:00,23,1007.8,0.8,73,18,40000,18.52,,,110,,,,,,,,,,,wg-a,,,,AAXX 01094 07790 12582 31110 10230 20180 30064 40078 52008 60006 82180 90900=
07790,1998-10-01 12:00:00,22,1007.9,0.1,57,13,40000,7.408,,,150,,,,,,,,,,,wg-a,,,,AAXX 01124 07790 12482 71504 10220 20130 30065 40079 50001 60006 83361 91200=
07790,1998-10-01 18:00:00,19,1007.7,-0.4,73,14,25000,0,,,0,17.1,23.6,,,,,,,,1,wg-a,,,,AAXX 01184 07790 02575 70000 10190 20140 30063 40077 56004 60006 70162 81271 91800 333 10236 20171 61000=
07790,1998-10-01 21:00:00,15,1008.1,0.4,77,11,11000,11.112,,,230,,,,,,,,,,,wg-a,,,,AAXX 01214 07790 12/61 /2306 10150 20110 30067 40081 53004 60006 92100=
07790,1998-10-02 00:00:00,15,1007.7,-0.4,72,10,20000,14.816,,,240,,,,,,,,,,,wg-a,,,,AAXX 02004 07790 12570 52408 10150 20100 30063 40077 55004 60006 82571 90000=
07790,1998-10-02 03:00:00,15,1006.6,-1.1,67,9,20000,14.816,,,230,,,,,,,,,,,wg-a,,,,AAXX 02034 07790 12/70 02308 10150 20090 30052 40066 58011 60006 80000 90300=
07790,1998-10-02 06:00:00,13,1007.2,0.6,77,9,35000,7.408,,,230,12.8,18.5,,,,,,,,,wg-a,,,,AAXX 02064 07790 02581 /2304 10130 20090 30058 40072 53006 60006 81100 90600 333 10185 20128 61000=
07790,1998-10-02 09:00:00,22,1008.4,1.2,60,14,35000,11.112,,,160,,,,,,,,,,,wg-a,,,,AAXX 02094 07790 12581 21606 10220 20140 30070 40084 51012 60006 81230 90900=
07790,1998-10-02 12:00:00,19,1007.8,-0.6,64,12,500,14.816,,,170,,,,0,,,,,,95,wg-a,,,,AAXX 02124 07790 02500 51708 10190 20120 30064 40078 58006 60006 79598 85300 91200 333 60007=
07790,1998-10-02 15:00:00,17,1007.8,0,88,15,9000,11.112,,,240,,,,2,,,,,,17,wg-a,,,,AAXX 02154 07790 12559 72406 10170 20150 30064 40078 50000 60027 71798 873// 91500=
07790,1998-10-02 18:00:00,15,1008,0.2,94,14,20000,3.704,,,280,13.2,22.3,,2,,,,,,13,wg-a,,,,AAXX 02184 07790 02570 82802 10150 20140 30066 40080 52002 60006 71398 85932 91800 333 10223 20132 60027=
07790,1998-10-02 21:00:00,14,1007.9,-0.1,94,13,20000,3.704,,,250,,,,,,,,,,1,wg-a,,,,AAXX 02214 07790 02570 32502 10140 20130 30065 40079 58001 61000 70161 81230 92100 333 ////=
07790,1998-10-03 00:00:00,15,1007.5,-0.4,82,12,20000,14.816,,,240,,,,,,,,,,3,wg-a,,,,AAXX 03004 07790 02570 72408 10150 20120 30061 40075 55004 61000 70361 879// 90000 333 ////=
07790,1998-10-03 03:00:00,15,1006.4,-1.1,82,12,20000,11.112,,,230,,,,,,,,,,17,wg-a,,,,AAXX 03034 07790 12570 82306 10150 20120 30050 40064 56011 60006 71792 889// 90300=
07790,1998-10-03 06:00:00,14,1007,0.6,88,12,20000,7.408,,,230,13.7,15.5,,,,,4,,,29,wg-a,,,,AAXX 03064 07790 02570 82304 10140 20120 30056 40070 53006 60006 72992 8397/ 90600 333 10155 20137 60044=
07790,1998-10-03 09:00:00,18,1007.2,0.2,73,13,20000,3.704,,,260,,,,,,,,,,,wg-a,,,,AAXX 03094 07790 12570 72602 10180 20130 30058 40072 51002 60006 82873 90900=
07790,1998-10-03 12:00:00,21,1007.1,-0.1,64,14,20000,11.112,,,110,,,,,,,,,,,wg-a,,,,AAXX 03124 07790 12570 /1106 10210 20140 30057 40071 58001 60006 84901 91200=
07790,1998-10-03 15:00:00,19,1007.1,-0,73,14,20000,11.112,,,160,,,,,,,,,,,wg-a,,,,AAXX 03154 07790 12570 31606 10190 20140 30057 40071 54000 60006 83800 91500=
07790,1998-10-03 18:00:00,17,1008.3,1.2,82,14,20000,3.704,,,230,14.2,20.9,,,,,,,,,wg-a,,,,AAXX 03184 07790 12570 32302 10170 20140 30069 40083 53012 60006 83200 91800 333 10209 20142=
07790,1998-10-03 21:00:00,14,1009.1,0.8,94,13,20000,7.408,,,230,,,,,,,,,,,wg-a,,,,AAXX 03214 07790 12570 /2304 10140 20130 30077 40091 50008 60006 81200 92100=
07790,1998-10-04 00:00:00,14,1008.5,-0.6,88,12,20000,11.112,,,220,,,,,,,,,,,wg-a,,,,AAXX 04004 07790 12/70 02206 10140 20120 30071 40085 58006 60006 80000 90000=
07790,1998-10-04 03:00:00,13,1007.3,-1.2,82,10,20000,14.816,,,220,,,,,,,,,,,wg-a,,,,AAXX 04034 07790 12/70 /2208 10130 20100 30059 40073 58012 60006 81030 90300=
07790,1998-10-04 06:00:00,12,1007.2,-0.1,82,9,20000,7.408,,,240,11.4,17.3,,,,,,,,,wg-a,,,,AAXX 04064 07790 02570 52404 10120 20090 30058 40072 58001 60006 81281 90600 333 10173 20114 60004=
07790,1998-10-04 09:00:00,18,1008.3,1.1,64,11,20000,3.704,,,240,,,,,,,,,,,wg-a,,,,AAXX 04094 07790 12570 72402 10180 20110 30069 40083 51011 60006 81282 90900=
07790,1998-10-04 12:00:00,19,1008.1,-0.2,73,14,20000,3.704,,,160,,,,,,,,,,,wg-a,,,,AAXX 04124 07790 12570 71602 10190 20140 30067 40081 58002 60006 82872 91200=
07790,1998-10-04 15:00:00,19,1007.4,-0.7,78,15,20000,7.408,,,190,,,,,,,,,,21,wg-a,,,,AAXX 04154 07790 02770 71904 10190 20150 30060 40074 58007 61000 72162 81572 91500 333 ////=
07790,1998-10-04 18:00:00,17,1007.1,-0.3,88,15,0,3.704,,,260,12.2,19.1,,,,,,,,,wg-a,,,,AAXX 04184 07790 32/// /2602 10170 20150 30057 40071 55003 91800 333 10191 20122=
07790,1998-10-04 21:00:00,16,1007,-0.1,88,14,15000,7.408,,,260,,,,1,,,,,,1,wg-a,,,,AAXX 04214 07790 12565 72604 10160 20140 30056 40070 58001 60017 70162 8657/ 92100=
07790,1998-10-05 00:00:00,15,1005.5,-1.5,94,14,12000,3.704,,,240,,,,0,,,,,,60,wg-a,,,,AAXX 05004 07790 02562 72402 10150 20140 30041 40055 56015 60016 76062 8657/ 90000 333 60007=
07790,1998-10-05 03:00:00,15,1003.9,-1.6,94,14,12000,3.704,,,230,,,,0,,,,,,21,wg-a,,,,AAXX 05034 07790 12462 72302 10150 20140 30025 40039 56016 60007 72162 8657/ 90300=
07790,1998-10-05 06:00:00,15,1003.2,-0.7,94,14,12000,7.408,,,210,14.8,17.2,,,,,,,,60,wg-a,,,,AAXX 05064 07790 02462 72104 10150 20140 30018 40032 55007 61000 76062 869// 90600 333 10172 20148 6002=
07790,1998-10-05 09:00:00,22,1003.3,0.1,65,15,18000,18.52,,,240,,,,,,,,,,1,wg-a,,,,AAXX 05094 07790 02568 42410 10220 20150 30019 40033 53001 61000 70161 83930 90900 333 ////=
07790,1998-10-05 12:00:00,23,1004.2,0.9,61,15,18000,3.704,,,110,,,,,,,,,,1,wg-a,,,,AAXX 05124 07790 02568 31102 10230 20150 30028 40042 52009 61000 70161 82830 91200 333 ////=
07790,1998-10-05 15:00:00,21,1004.8,0.6,78,17,18000,18.52,,,350,,,,,,,,,,,wg-a,,,,AAXX 05154 07790 12568 73510 10210 20170 30034 40048 53006 60006 85830 91500=
07790,1998-10-05 18:00:00,19,1005.6,0.8,83,16,18000,3.704,,,280,15.2,24.2,,,,,,,,,wg-a,,,,AAXX 05184 07790 12568 72802 10190 20160 30042 40056 53008 60006 86830 91800 333 10242 20152=
07790,1998-10-05 21:00:00,17,1006.4,0.8,88,15,15000,3.704,,,210,,,,,,,,,,,wg-a,,,,AAXX 05214 07790 12565 /2102 10170 20150 30050 40064 53008 60006 83881 92100=
07790,1998-10-06 00:00:00,17,1006,-0.4,88,15,15000,11.112,,,200,,,,0,,,,,,,wg-a,,,,AAXX 06004 07790 02565 72006 10170 20150 30046 40060 56004 60006 83881 90000 333 60007=
07790,1998-10-06 03:00:00,18,1005.5,-0.5,88,16,10000,7.408,,,150,,,,1,,,,,,61,wg-a,,,,AAXX 06034 07790 12560 81504 10180 20160 30041 40055 56005 60017 76162 8587/ 90300=
07790,1998-10-06 06:00:00,18,1006.2,0.7,88,16,10000,18.52,,,180,16.2,18.6,,,,,,,,21,wg-a,,,,AAXX 06064 07790 02460 81810 10180 20160 30048 40062 51007 61000 72162 8557/ 90600 333 10186 20162 6001=
07790,1998-10-06 09:00:00,21,1008.7,2.5,73,16,15000,11.112,,,360,,,,,,,,,,,wg-a,,,,AAXX 06094 07790 12465 73606 10210 20160 30073 40087 53025 60006 82272 90900=
07790,1998-10-06 12:00:00,20,1009.3,0.6,83,17,15000,3.704,,,310,,,,1,,,,,,21,wg-a,,,,AAXX 06124 07790 02465 73102 10200 20170 30079 40093 50006 60016 72162 8427/ 91200 333 60017=
07790,1998-10-06 18:00:00,18,1010.4,0.5,94,17,15000,0,,,0,17.7,20.8,,,,,,,,60,wg-a,,,,AAXX 06184 07790 02465 80000 10180 20170 30090 40104 53005 61000 76062 8387/ 91800 333 10208 20177 6002=
07790,1998-10-06 21:00:00,16,1010.3,-0.1,100,16,15000,3.704,,,260,,,,,,,,,,1,wg-a,,,,AAXX 06214 07790 02565 72602 10160 20160 30089 40103 58001 61000 70162 8257/ 92100 333 ////=
07790,1998-10-07 00:00:00,16,1010.1,-0.2,100,16,15000,11.112,,,230,,,,2,,,,,,60,wg-a,,,,AAXX 07004 07790 02565 72306 10160 20160 30087 40101 58002 60026 76062 8457/ 90000 333 60027=
07790,1998-10-07 03:00:00,15,1007.7,-2.4,94,14,15000,11.112,,,240,,,,0,,,,,,1,wg-a,,,,AAXX 07034 07790 12565 /2406 10150 20140 30063 40077 56024 60007 70162 82572 90300=
07790,1998-10-07 06:00:00,14,1008.3,0.6,94,13,25000,11.112,,,240,13.3,17.7,,,,,5,,,1,wg-a,,,,AAXX 07064 07790 02575 22406 10140 20130 30069 40083 52006 60006 70161 81572 90600 333 10177 20133 60054=
07790,1998-10-07 09:00:00,22,1008.5,0.2,57,13,11000,3.704,,,160,,,,,,,,,,,wg-a,,,,AAXX 07094 07790 12/61 /1602 10220 20130 30071 40085 50002 60006 90900=
07790,1998-10-07 12:00:00,20,1008.2,-0.3,73,15,18000,7.408,,,100,,,,0,,,,,,21,wg-a,,,,AAXX 07124 07790 02568 71004 10200 20150 30068 40082 58003 60006 72161 86931 91200 333 60007=
07790,1998-10-07 18:00:00,15,1011,1.3,94,14,0,0,,,0,,,,,,,,,,,wg-a,,,,AAXX 07184 07790 12/// ///// 10150 20140 30096 40110 53013 60006 91800=
07790,1998-10-07 21:00:00,14,1011.1,0.1,94,13,15000,7.408,,,220,,,,,,,,,,2,wg-a,,,,AAXX 07214 07790 02465 82204 10140 20130 30097 40111 53001 61000 70296 8257/ 92100 333 ////=
07790,1998-10-08 00:00:00,14,1010.5,-0.6,94,13,15000,0,,,0,,,,,,,,,,2,wg-a,,,,AAXX 08004 07790 02465 30000 10140 20130 30091 40105 58006 61000 70296 8153/ 90000 333 ////=
07790,1998-10-08 03:00:00,12,1010.5,0,100,12,15000,7.408,,,240,,,,0,,,,,,,wg-a,,,,AAXX 08034 07790 12465 /2404 10120 20120 30091 40105 50000 60007 81532 90300=
07790,1998-10-08 06:00:00,13,1010.9,0.4,88,11,20000,11.112,,,250,11.9,14.6,,,,,36,,,,wg-a,,,,AAXX 08064 07790 02470 32506 10130 20110 30095 40109 53004 60006 81231 90600 333 10146 20119 60364=
07790,1998-10-08 09:00:00,19,1012.7,1.8,73,14,20000,1.852,,,330,,,,,,,,,,,wg-a,,,,AAXX 08094 07790 12470 33301 10190 20140 30113 40127 51018 60006 83200 90900=
07790,1998-10-08 12:00:00,21,1013.5,0.8,60,13,20000,11.112,,,140,,,,,,,,,,,wg-a,,,,AAXX 08124 07790 12470 31406 10210 20130 30121 40135 50008 60006 83901 91200=
07790,1998-10-08 15:00:00,18,1015.1,1.6,77,14,20000,14.816,,,350,,,,0,,,,,,1,wg-a,,,,AAXX 08154 07790 12570 /3508 10180 20140 30137 40151 53016 60007 70186 85900 91500=
07790,1998-10-08 18:00:00,15,1016.7,1.6,82,12,20000,3.704,,,270,12.8,21.8,,,,,,,,2,wg-a,,,,AAXX 08184 07790 12670 /2702 10150 20120 30153 40167 53016 60006 70286 81200 91800 333 10218 20128=
07790,1998-10-08 21:00:00,14,1018.3,1.6,88,12,18000,7.408,,,230,,,,,,,,,,,wg-a,,,,AAXX 08214 07790 12568 22304 10140 20120 30169 40183 51016 60006 82800 92100=
07790,1998-10-09 00:00:00,13,1018.7,0.4,94,12,11000,11.112,,,240,,,,,,,,,,,wg-a,,,,AAXX 09004 07790 12/61 /2406 10130 20120 30173 40187 51004 60006 90000=
07790,1998-10-09 03:00:00,14,1018.9,0.2,72,9,11000,18.52,,,240,,,,,,,,,,,wg-a,,,,AAXX 09034 07790 12/61 /2410 10140 20090 30175 40189 53002 60006 90300=
07790,1998-10-09 06:00:00,13,1019.8,0.8,72,8,500,22.224,,,240,13,14.9,,,,,,,,,wg-a,,,,AAXX 09064 07790 02400 /2412 10130 20080 30183 40198 53008 60006 81900 90600 333 10149 20130 60004=
07790,1998-10-09 12:00:00,22,1020.8,-0.5,60,14,500,14.816,,,150,,,,,,,,,,,wg-a,,,,AAXX 09124 07790 12500 41508 10220 20140 30194 40208 58005 60006 82201 91200=
07790,1998-10-09 15:00:00,18,1020.5,-0.3,77,14,18000,11.112,,,310,,,,,,,,,,60,wg-a,,,,AAXX 09154 07790 02568 73106 10180 20140 30191 40205 56003 61000 76061 8497/ 91500 333 ////=
07790,1998-10-09 18:00:00,16,1020.8,0.3,88,14,15000,7.408,,,230,13.1,22.3,,,,,,,,61,wg-a,,,,AAXX 09184 07790 02565 72304 10160 20140 30194 40208 53003 61000 76161 8687/ 91800 333 10223 20131 6002=
07790,1998-10-09 21:00:00,14,1021.1,0.3,94,13,15000,7.408,,,220,,,,,,,,,,1,wg-a,,,,AAXX 09214 07790 02565 52204 10140 20130 30197 40211 53003 61000 70162 83870 92100 333 ////=
07790,1998-10-10 00:00:00,14,1021,-0.1,88,12,15000,11.112,,,250,,,,,,,,,,1,wg-a,,,,AAXX 10004 07790 02565 32506 10140 20120 30196 40210 58001 61000 70161 81270 90000 333 ////=
07790,1998-10-10 03:00:00,12,1020.4,-0.7,94,11,15000,3.704,,,280,,,,,,,,,,,wg-a,,,,AAXX 10034 07790 12565 /2802 10120 20110 30189 40204 58007 60006 81200 90300=
07790,1998-10-10 06:00:00,13,1020.6,0.2,88,11,20000,11.112,,,230,11.6,15.5,,,,,2,,,,wg-a,,,,AAXX 10064 07790 02570 /2306 10130 20110 30191 40206 53002 60006 81200 90600 333 10155 20116 60024=
07790,1998-10-10 09:00:00,20,1021.7,1.2,56,11,20000,7.408,,,210,,,,,,,,,,,wg-a,,,,AAXX 10094 07790 12570 /2104 10200 20110 30203 40217 51012 60006 81800 90900=
07790,1998-10-10 12:00:00,21,1021.2,-0.5,60,13,20000,14.816,,,100,,,,,,,,,,,wg-a,,,,AAXX 10124 07790 12570 31008 10210 20130 30198 40212 58005 60006 82802 91200=
07790,1998-10-10 15:00:00,19,1020.3,-0.9,60,11,20000,7.408,,,140,,,,,,,,,,,wg-a,,,,AAXX 10154 07790 12570 61404 10190 20110 30189 40203 56009 60006 85802 91500=
07790,1998-10-10 18:00:00,17,1020.2,-0.1,82,14,20000,0,,,0,12.5,21.6,,,,,,,,,wg-a,,,,AAXX 10184 07790 12570 70000 10170 20140 30188 40202 55001 60006 86802 91800 333 10216 20125=
07790,1998-10-10 21:00:00,15,1020.1,-0.1,88,13,25000,11.112,,,250,,,,,,,,,,,wg-a,,,,AAXX 10214 07790 12675 32506 10150 20130 30187 40201 55001 60006 82501 92100=
07790,1998-10-11 00:00:00,12,1020.3,0.1,94,11,25000,7.408,,,240,,,,,,,,,,,wg-a,,,,AAXX 11004 07790 12575 22404 10120 20110 30188 40203 53001 60006 81501 90000=
07790,1998-10-11 03:00:00,11,1019,-1.3,94,10,25000,11.112,,,260,,,,,,,,,,,wg-a,,,,AAXX 11034 07790 12575 22606 10110 20100 30175 40190 58013 60006 81501 90300=
07790,1998-10-11 06:00:00,11,1018.3,-0.7,87,9,25000,7.408,,,230,10.2,17.1,,,,,,,,,wg-a,,,,AAXX 11064 07790 02575 /2304 10110 20090 30168 40183 56007 60006 81800 90600 333 10171 20102 60004=
07790,1998-10-11 09:00:00,20,1018.9,0.7,56,11,25000,7.408,,,200,,,,0,,,,,,,wg-a,,,,AAXX 11094 07790 12575 /2004 10200 20110 30175 40189 50007 60007 81800 90900=
07790,1998-10-11 12:00:00,20,1017.2,-1.7,64,13,25000,14.816,,,140,,,,,,,,,,,wg-a,,,,AAXX 11124 07790 12575 51408 10200 20130 30158 40172 58017 60006 85200 91200=
07790,1998-10-11 15:00:00,19,1015.9,-1.3,68,13,25000,7.408,,,160,,,,,,,,,,,wg-a,,,,AAXX 11154 07790 12575 /1604 10190 20130 30145 40159 58013 60006 85270 91500=
07790,1998-10-11 18:00:00,16,1014.9,-1,82,13,20000,3.704,,,260,10.6,21.1,,,,,,,,,wg-a,,,,AAXX 11184 07790 12570 /2602 10160 20130 30135 40149 56010 60006 81800 91800 333 10211 20106=
07790,1998-10-11 21:00:00,13,1014.1,-0.8,94,12,20000,7.408,,,240,,,,,,,,,,,wg-a,,,,AAXX 11214 07790 12570 /2404 10130 20120 30127 40141 58008 60006 81800 92100=
07790,1998-10-12 00:00:00,13,1012.6,-1.5,88,11,20000,11.112,,,240,,,,,,,,,,,wg-a,,,,AAXX 12004 07790 12570 /2406 10130 20110 30112 40126 58015 60006 81130 90000=
07790,1998-10-12 03:00:00,14,1011.4,-1.2,82,11,20000,7.408,,,240,,,,,,,,,,,wg-a,,,,AAXX 12034 07790 12570 /2404 10140 20110 30100 40114 56012 60006 81134 90300=
07790,1998-10-12 06:00:00,13,1010.8,-0.6,94,12,20000,7.408,,,270,12.5,15.9,,,,,,,,,wg-a,,,,AAXX 12064 07790 02570 /2704 10130 20120 30094 40108 55006 60006 82150 90600 333 10159 20125 60004=
07790,1998-10-12 09:00:00,20,1010.7,-0.1,68,14,20000,11.112,,,120,,,,,,,,,,,wg-a,,,,AAXX 12094 07790 12570 /1206 10200 20140 30093 40107 58001 60006 81100 90900=
07790,1998-10-12 12:00:00,21,1009.5,-1.2,60,13,20000,11.112,,,110,,,,,,,,,,,wg-a,,,,AAXX 12124 07790 12570 21106 10210 20130 30081 40095 58012 60006 82100 91200=
07790,1998-10-12 15:00:00,20,1008.5,-1,68,14,20000,7.408,,,140,,,,,,,,,,,wg-a,,,,AAXX 12154 07790 12570 /1404 10200 20140 30071 40085 56010 60006 86800 91500=
07790,1998-10-12 18:00:00,18,1008.5,-0,83,15,20000,3.704,,,190,13.1,21.5,,,,,,,,,wg-a,,,,AAXX 12184 07790 12570 /1902 10180 20150 30071 40085 55000 60006 86800 91800 333 10215 20131=
07790,1998-10-12 21:00:00,14,1010,1.5,88,12,20000,7.408,,,230,,,,,,,,,,,wg-a,,,,AAXX 12214 07790 12/70 02304 10140 20120 30086 40100 52015 60006 80000 92100=
07790,1998-10-13 00:00:00,13,1011.1,1.1,94,12,20000,11.112,,,240,,,,,,,,,,,wg-a,,,,AAXX 13004 07790 12/70 02406 10130 20120 30097 40111 51011 60006 80000 90000=
07790,1998-10-13 03:00:00,14,1012.3,1.2,82,11,20000,7.408,,,230,,,,,,,,,,,wg-a,,,,AAXX 13034 07790 12/70 02304 10140 20110 30109 40123 53012 60006 80000 90300=
07790,1998-10-13 06:00:00,14,1014.7,2.4,67,8,20000,7.408,,,250,11.6,17.5,,,,,,,,,wg-a,,,,AAXX 13064 07790 02/70 /2504 10140 20080 30133 40147 53024 60006 80000 90600 333 10175 20116 60004=
07790,1998-10-13 09:00:00,21,1017.7,3,40,7,35000,22.224,,,20,,,,,,,,,,,wg-a,,,,AAXX 13094 07790 12/81 00212 10210 20070 30163 40177 51030 60006 80000 90900=
07790,1998-10-13 12:00:00,21,1018.6,0.9,43,8,35000,14.816,,,40,,,,,,,,,,,wg-a,,,,AAXX 13124 07790 12/81 /0408 10210 20080 30172 40186 51009 60006 80001 91200=
07790,1998-10-13 15:00:00,20,1019.1,0.5,40,6,35000,7.408,,,70,,,,,,,,,,,wg-a,,,,AAXX 13154 07790 12/81 00704 10200 20060 30177 40191 53005 60006 80000 91500=
07790,1998-10-13 18:00:00,14,1021,1.9,72,9,25000,7.408,,,250,13.2,21.3,,,,,,,,,wg-a,,,,AAXX 13184 07790 12/75 02504 10140 20090 30196 40210 53019 60006 80000 91800 333 10213 20132=
07790,1998-10-13 21:00:00,12,1022.2,1.1,67,6,25000,11.112,,,240,,,,,,,,,,,wg-a,,,,AAXX 13214 07790 12/75 02406 10120 20060 30207 40222 53011 60006 80000 92100=
07790,1998-10-14 00:00:00,13,1022.9,0.7,51,3,25000,14.816,,,240,,,,,,,,,,,wg-a,,,,AAXX 14004 07790 12/75 02408 10130 20030 30214 40229 51007 60006 80000 90000=
07790,1998-10-14 03:00:00,12,1022.7,-0.2,54,3,25000,18.52,,,250,,,,,,,,,,,wg-a,,,,AAXX 14034 07790 12/75 02510 10120 20030 30212 40227 57002 60006 80000 90300=
07790,1998-10-14 06:00:00,12,1023.3,0.6,54,3,25000,18.52,,,240,11.5,14.1,,,,,,,,,wg-a,,,,AAXX 14064 07790 02/75 12410 10120 20030 30218 40233 52006 60006 80001 90600 333 10141 20115 60004=
07790,1998-10-14 09:00:00,20,1024.1,0.9,37,5,25000,14.816,,,190,,,,,,,,,,,wg-a,,,,AAXX 14094 07790 12/75 01908 10200 20050 30227 40241 51009 60006 80000 90900=
07790,1998-10-14 12:00:00,22,1023.8,-0.3,33,5,60000,7.408,,,90,,,,,,,,,,,wg-a,,,,AAXX 14124 07790 12/86 00904 10220 20050 30224 40238 58003 60006 80000 91200=
07790,1998-10-14 15:00:00,21,1023.3,-0.5,43,8,60000,7.408,,,80,,,,,,,,,,,wg-a,,,,AAXX 14154 07790 12/86 00804 10210 20080 30219 40233 56005 60006 80000 91500=
07790,1998-10-14 18:00:00,15,1024.7,1.4,77,11,50000,7.408,,,260,12.1,22.5,,,,,,,,,wg-a,,,,AAXX 14184 07790 12/84 02604 10150 20110 30233 40247 53014 60006 80000 91800 333 10225 20121=
07790,1998-10-14 21:00:00,13,1025,0.2,82,10,10000,11.112,,,240,,,,,,,,,,,wg-a,,,,AAXX 14214 07790 12/60 /2406 10130 20100 30235 40250 53002 60006 92100=
07790,1998-10-15 00:00:00,12,1024.9,-0.1,82,9,25000,11.112,,,240,,,,,,,,,,,wg-a,,,,AAXX 15004 07790 12/75 02406 10120 20090 30234 40249 55001 60006 80000 90000=
07790,1998-10-15 03:00:00,12,1024,-0.9,82,9,25000,11.112,,,230,,,,,,,,,,,wg-a,,,,AAXX 15034 07790 12/75 02306 10120 20090 30225 40240 58009 60006 80000 90300=
07790,1998-10-15 06:00:00,11,1024,-0,87,9,0,7.408,,,240,11,15,,,,,,,,,wg-a,,,,AAXX 15064 07790 02/// /2404 10110 20090 30225 40240 55000 60006 90600 333 10150 20110 60004=
07790,1998-10-15 12:00:00,20,1023.3,-1.1,68,14,0,11.112,,,100,,,,,,,,,,,wg-a,,,,AAXX 15124 07790 12/// /1006 10200 20140 30219 40233 58011 60006 91200=
07790,1998-10-15 18:00:00,18,1022.9,0.6,83,15,20000,3.704,,,200,11.3,21.6,,,,,,,,,wg-a,,,,AAXX 15184 07790 12570 82002 10180 20150 30215 40229 53006 60006 875// 91800 333 10216 20113=
07790,1998-10-15 21:00:00,16,1023.2,0.3,88,14,20000,3.704,,,340,,,,,,,,,,,wg-a,,,,AAXX 15214 07790 12570 63402 10160 20140 30218 40232 53003 60006 86500 92100=
07790,1998-10-16 00:00:00,16,1023.2,0,94,15,18000,7.408,,,250,,,,,,,,,,,wg-a,,,,AAXX 16004 07790 12568 72504 10160 20150 30218 40232 50000 60006 8/500 90000=
07790,1998-10-16 03:00:00,15,1022.5,-0.7,88,13,18000,7.408,,,230,,,,,,,,,,,wg-a,,,,AAXX 16034 07790 12568 /2304 10150 20130 30211 40225 56007 60006 86500 90300=
07790,1998-10-16 06:00:00,14,1022.8,0.3,88,12,15000,11.112,,,240,13.6,18.1,,,,,,,,,wg-a,,,,AAXX 16064 07790 02565 52406 10140 20120 30214 40228 52003 60006 82801 90600 333 10181 20136 60004=
07790,1998-10-16 09:00:00,21,1023.8,1,60,13,20000,3.704,,,190,,,,,,,,,,,wg-a,,,,AAXX 16094 07790 12570 /1902 10210 20130 30224 40238 51010 60006 81202 90900=
07790,1998-10-16 12:00:00,22,1022.9,-0.9,65,15,20000,11.112,,,110,,,,,,,,,,,wg-a,,,,AAXX 16124 07790 12570 /1106 10220 20150 30215 40229 58009 60006 82202 91200=
07790,1998-10-16 15:00:00,20,1022.2,-0.7,83,17,12000,11.112,,,130,,,,,,,,,,,wg-a,,,,AAXX 16154 07790 12462 71306 10200 20170 30208 40222 58007 60006 85802 91500=
07790,1998-10-16 18:00:00,17,1022.4,0.2,88,15,12000,3.704,,,260,14.1,22.6,,,,,,,,,wg-a,,,,AAXX 16184 07790 12462 52602 10170 20150 30210 40224 53002 60006 83502 91800 333 10226 20141=
07790,1998-10-16 21:00:00,15,1022.5,0.1,94,14,12000,0,,,0,,,,,,,,,,,wg-a,,,,AAXX 16214 07790 12362 30000 10150 20140 30211 40225 51001 60006 81602 92100=
07790,1998-10-17 00:00:00,14,1022,-0.5,94,13,12000,7.408,,,240,,,,0,,,,,,,wg-a,,,,AAXX 17004 07790 02362 /2404 10140 20130 30206 40220 58005 60006 81602 90000 333 60007=
07790,1998-10-17 03:00:00,13,1021.3,-0.8,94,12,12000,7.408,,,220,,,,,,,,,,,wg-a,,,,AAXX 17034 07790 12462 32204 10130 20120 30198 40213 58008 60006 81602 90300=
07790,1998-10-17 06:00:00,13,1021.2,-0.1,94,12,12000,7.408,,,240,12.9,16.6,,,,,,,,11,wg-a,,,,AAXX 17064 07790 02462 52404 10130 20120 30197 40212 58001 60006 71111 82604 90600 333 10166 20129 60004=
07790,1998-10-17 09:00:00,19,1021.2,0.1,83,16,7000,0,,,0,,,,,,,,,,,wg-a,,,,AAXX 17094 07790 12/57 /0000 10190 20160 30198 40212 50001 60006 90900=
07790,1998-10-17 12:00:00,21,1020,-1.2,78,17,9000,18.52,,,150,,,,,,,,,,,wg-a,,,,AAXX 17124 07790 12559 71510 10210 20170 30186 40200 58012 60006 83832 91200=
07790,1998-10-17 15:00:00,20,1018.9,-1.1,83,17,9000,18.52,,,160,,,,,,,,,,,wg-a,,,,AAXX 17154 07790 12559 71610 10200 20170 30175 40189 56011 60006 84532 91500=
07790,1998-10-17 18:00:00,18,1018.8,-0.1,94,17,9000,0,,,0,12.9,21.3,,,,,,,,,wg-a,,,,AAXX 17184 07790 12459 30000 10180 20170 30174 40188 55001 60006 83532 91800 333 10213 20129=
07790,1998-10-17 21:00:00,15,1018.7,-0.1,94,14,10000,7.408,,,240,,,,0,,,,,,,wg-a,,,,AAXX 17214 07790 12560 22404 10150 20140 30173 40187 57001 60007 82500 92100=
07790,1998-10-18 00:00:00,14,1018.3,-0.4,94,13,12000,7.408,,,240,,,,,,,,,,,wg-a,,,,AAXX 18004 07790 12562 /2404 10140 20130 30169 40183 55004 60006 81500 90000=
07790,1998-10-18 03:00:00,14,1017.4,-0.9,88,12,12000,11.112,,,230,,,,,,,,,,,wg-a,,,,AAXX 18034 07790 12562 /2306 10140 20120 30160 40174 58009 60006 81500 90300=
07790,1998-10-18 06:00:00,14,1017.1,-0.3,88,12,12000,11.112,,,230,13.5,17.7,,,,,,,,,wg-a,,,,AAXX 18064 07790 02562 32306 10140 20120 30157 40171 55003 60006 81532 90600 333 10177 20135 60004=
07790,1998-10-18 09:00:00,20,1017.6,0.5,83,17,12000,0,,,0,,,,,,,,,,,wg-a,,,,AAXX 18094 07790 12562 70000 10200 20170 30162 40176 53005 60006 81502 90900=
07790,1998-10-18 12:00:00,21,1016.5,-1.1,73,16,12000,14.816,,,60,,,,0,,,,,,,wg-a,,,,AAXX 18124 07790 02562 70608 10210 20160 30151 40165 58011 60006 81232 91200 333 60007=
07790,1998-10-18 15:00:00,20,1015.5,-1,83,17,12000,11.112,,,40,,,,,,,,,,,wg-a,,,,AAXX 18154 07790 12562 50406 10200 20170 30141 40155 56010 60006 81232 91500=
07790,1998-10-18 18:00:00,17,1015.3,-0.2,88,15,10000,3.704,,,240,13.9,21.7,,,,,,,,,wg-a,,,,AAXX 18184 07790 12560 22402 10170 20150 30139 40153 56002 60006 81202 91800 333 10217 20139=
07790,1998-10-18 21:00:00,16,1015.3,0,88,14,4000,7.408,,,240,,,,,,,,,,10,wg-a,,,,AAXX 18214 07790 12540 /2404 10160 20140 30139 40153 50000 60006 71011 85500 92100=
07790,1998-10-19 00:00:00,14,1014.4,-0.9,94,13,0,7.408,,,240,,,,,,,,,,,wg-a,,,,AAXX 19004 07790 12/// /2404 10140 20130 30130 40144 58009 60006 90000=
07790,1998-10-19 03:00:00,14,1012.5,-1.9,94,13,4000,7.408,,,250,,,,,,,,,,10,wg-a,,,,AAXX 19034 07790 12540 /2504 10140 20130 30111 40125 56019 60006 71022 83504 90300=
07790,1998-10-19 06:00:00,15,1010.7,-1.8,94,14,6000,7.408,,,240,13.9,16.5,,,,,,,,,wg-a,,,,AAXX 19064 07790 02456 72404 10150 20140 30093 40107 58018 60006 83532 90600 333 10165 20139 60004=
07790,1998-10-19 09:00:00,19,1010.5,-0.2,78,15,10000,3.704,,,180,,,,,,,,,,,wg-a,,,,AAXX 19094 07790 12460 71802 10190 20150 30091 40105 58002 60006 83532 90900=
07790,1998-10-19 12:00:00,19,1009.7,-0.8,83,16,9000,7.408,,,190,,,,0,,,,,,21,wg-a,,,,AAXX 19124 07790 02459 81904 10190 20160 30083 40097 56008 60006 72162 8357/ 91200 333 60007=
07790,1998-10-19 15:00:00,19,1008.6,-1.1,78,15,11000,18.52,,,360,,,,,,,,,,,wg-a,,,,AAXX 19154 07790 12/61 /3610 10190 20150 30072 40086 55011 60006 91500=
07790,1998-10-19 18:00:00,18,1009.3,0.7,77,14,17000,14.816,,,330,14.7,20.3,,,,,,,,,wg-a,,,,AAXX 19184 07790 12467 73308 10180 20140 30079 40093 53007 60006 8587/ 91800 333 10203 20147=
07790,1998-10-19 21:00:00,18,1010.3,1,73,13,25000,14.816,,,270,,,,,,,,,,,wg-a,,,,AAXX 19214 07790 12575 72708 10180 20130 30089 40103 53010 60006 8387/ 92100=
07790,1998-10-20 00:00:00,16,1010.7,0.4,82,13,25000,3.704,,,40,,,,,,,,,,,wg-a,,,,AAXX 20004 07790 12575 70402 10160 20130 30093 40107 51004 60006 8587/ 90000=
07790,1998-10-20 03:00:00,17,1010.4,-0.3,72,12,25000,11.112,,,360,,,,,,,,,,,wg-a,,,,AAXX 20034 07790 12575 /3606 10170 20120 30090 40104 55003 60006 8257/ 90300=
07790,1998-10-20 06:00:00,17,1011.3,0.9,68,11,20000,7.408,,,250,15.4,18.1,,,,,,,,,wg-a,,,,AAXX 20064 07790 02570 32504 10170 20110 30099 40113 53009 60006 81572 90600 333 10181 20154 60004=
07790,1998-10-20 09:00:00,20,1014.1,2.8,68,14,25000,22.224,,,350,,,,,,,,,,,wg-a,,,,AAXX 20094 07790 12475 33512 10200 20140 30127 40141 51028 60006 83800 90900=
07790,1998-10-20 12:00:00,20,1015.2,1.1,68,14,25000,25.928,,,20,,,,,,,,,,25,wg-a,,,,AAXX 20124 07790 02575 30214 10200 20140 30138 40152 50011 61000 72586 83800 91200 333 6100=
07790,1998-10-20 15:00:00,20,1017,1.8,60,12,35000,22.224,,,330,,,,,,,,,,,wg-a,,,,AAXX 20154 07790 12581 33312 10200 20120 30156 40170 53018 60006 83800 91500=
07790,1998-10-20 18:00:00,17,1019.2,2.2,68,11,35000,11.112,,,320,16.5,20.9,,,,,,,,,wg-a,,,,AAXX 20184 07790 12/81 03206 10170 20110 30178 40192 53022 60006 80000 91800 333 10209 20165=
07790,1998-10-20 21:00:00,13,1022.4,3.1,82,10,35000,11.112,,,250,,,,,,,,,,,wg-a,,,,AAXX 20214 07790 12/81 02506 10130 20100 30209 40224 53031 60006 80000 92100=
07790,1998-10-21 00:00:00,12,1024,1.6,88,10,35000,11.112,,,240,,,,,,,,,,,wg-a,,,,AAXX 21004 07790 12/81 02406 10120 20100 30225 40240 52016 60006 80000 90000=
07790,1998-10-21 03:00:00,11,1024.5,0.5,87,9,35000,7.408,,,260,,,,,,,,,,,wg-a,,,,AAXX 21034 07790 12/81 02604 10110 20090 30230 40245 53005 60006 80000 90300=
07790,1998-10-21 06:00:00,11,1025.7,1.2,82,8,500,11.112,,,250,10.9,16.7,,,,,,,,,wg-a,,,,AAXX 21064 07790 02600 32506 10110 20080 30242 40257 51012 60006 81501 90600 333 10167 20109 61000=
07790,1998-10-21 09:00:00,18,1027.4,1.8,56,9,500,11.112,,,340,,,,,,,,,,,wg-a,,,,AAXX 21094 07790 12/00 13406 10180 20090 30260 40274 52018 60006 80004 90900=
07790,1998-10-21 12:00:00,19,1027.4,-0,43,6,500,14.816,,,30,,,,,,,,,,,wg-a,,,,AAXX 21124 07790 12/00 20308 10190 20060 30260 40274 54000 60006 80002 91200=
07790,1998-10-21 15:00:00,19,1027.8,0.4,49,8,500,11.112,,,20,,,,,,,,,,,wg-a,,,,AAXX 21154 07790 12/00 40206 10190 20080 30264 40278 53004 60006 80004 91500=
07790,1998-10-21 18:00:00,13,1028.7,0.8,77,9,10000,11.112,,,230,10.9,19.3,,,,,,,,,wg-a,,,,AAXX 21184 07790 12/60 /2306 10130 20090 30272 40287 53008 60006 91800 333 10193 20109=
07790,1998-10-21 21:00:00,12,1029.4,0.7,71,7,18000,7.408,,,250,,,,,,,,,,,wg-a,,,,AAXX 21214 07790 12/68 32504 10120 20070 30279 40294 53007 60006 81034 92100=
07790,1998-10-22 00:00:00,13,1029.2,-0.2,67,7,18000,18.52,,,240,,,,,,,,,,,wg-a,,,,AAXX 22004 07790 12/68 02410 10130 20070 30277 40292 58002 60006 80000 90000=
07790,1998-10-22 06:00:00,11,1029.7,0.8,71,6,50000,14.816,,,230,11.1,13.4,,,,,,,,,wg-a,,,,AAXX 22064 07790 02/84 12308 10110 20060 30282 40297 51008 60006 80001 90600 333 10134 20111 60004=
07790,1998-10-22 09:00:00,19,1030.7,1.1,46,7,50000,11.112,,,210,,,,,,,,,,,wg-a,,,,AAXX 22094 07790 12/84 12106 10190 20070 30293 40307 51011 60006 80001 90900=
07790,1998-10-22 12:00:00,21,1030.2,-0.5,38,6,50000,11.112,,,110,,,,,,,,,,,wg-a,,,,AAXX 22124 07790 12584 /1106 10210 20060 30288 40302 58005 60006 81100 91200=
07790,1998-10-22 15:00:00,19,1029.5,-0.7,56,10,50000,7.408,,,100,,,,,,,,,,,wg-a,,,,AAXX 22154 07790 12584 /1004 10190 20100 30281 40295 56007 60006 81101 91500=
07790,1998-10-22 18:00:00,14,1030.4,0.8,77,10,11000,7.408,,,240,10.9,21.4,,,,,,,,,wg-a,,,,AAXX 22184 07790 12/61 /2404 10140 20100 30289 40304 53008 60006 91800 333 10214 20109=
07790,1998-10-22 21:00:00,12,1030.4,-0,82,9,500,11.112,,,240,,,,,,,,,,,wg-a,,,,AAXX 22214 07790 12700 /2406 10120 20090 30289 40304 54000 60006 81500 92100=
07790,1998-10-23 00:00:00,13,1029.9,-0.5,77,9,500,14.816,,,240,,,,,,,,,,,wg-a,,,,AAXX 23004 07790 12700 /2408 10130 20090 30284 40299 58005 60006 81500 90000=
07790,1998-10-23 01:00:00,12,1028,-0.5,76,8,500,22.224,,,250,,,,,,,,,,,wg-a,,,,AAXX 23014 07790 12600 /2512 10120 20080 30265 40280 57005 60006 81501 90100=
07790,1998-10-23 03:00:00,13,1028.5,-1.4,77,9,500,14.816,,,240,,,,,,,,,,,wg-a,,,,AAXX 23034 07790 12700 /2408 10130 20090 30270 40285 56014 60006 81500 90300=
07790,1998-10-23 06:00:00,12,1028,-0.5,76,8,500,22.224,,,250,11.5,14,,,,,,,,,wg-a,,,,AAXX 23064 07790 02600 /2512 10120 20080 30265 40280 57005 60006 81501 90600 333 10140 20115 60004=
07790,1998-10-23 09:00:00,19,1027.8,-0.1,52,9,40000,11.112,,,230,,,,,,,,,,,wg-a,,,,AAXX 23094 07790 12682 /2306 10190 20090 30264 40278 58001 60006 81101 90900=
07790,1998-10-23 10:00:00,13,1029.9,-0.5,77,9,500,11.112,,,230,,,,,,,,,,,wg-a,,,,AAXX 23104 07790 12700 /2306 10130 20090 30284 40299 58005 60006 81500 91000=
07790,1998-10-23 12:00:00,22,1026.2,-1.6,46,10,40000,14.816,,,140,,,,,,,,,,,wg-a,,,,AAXX 23124 07790 12682 31408 10220 20100 30248 40262 58016 60006 83101 91200=
07790,1998-10-23 15:00:00,19,1024.8,-1.4,64,12,500,11.112,,,120,,,,,,,,,,,wg-a,,,,AAXX 23154 07790 12500 /1206 10190 20120 30234 40248 56014 60006 85501 91500=
07790,1998-10-23 18:00:00,16,1024,-0.8,77,12,25000,7.408,,,220,11.9,22.5,,,,,,,,,wg-a,,,,AAXX 23184 07790 12575 /2204 10160 20120 30226 40240 56008 60006 84501 91800 333 10225 20119=
07790,1998-10-23 21:00:00,13,1023.3,-0.8,82,10,20000,7.408,,,210,,,,,,,,,,,wg-a,,,,AAXX 23214 07790 12670 22104 10130 20100 30218 40233 58008 60006 82500 92100=
07790,1998-10-24 00:00:00,14,1021.3,-2,77,10,20000,11.112,,,240,,,,,,,,,,,wg-a,,,,AAXX 24004 07790 12670 32406 10140 20100 30198 40213 58020 60006 81501 90000=
07790,1998-10-24 03:00:00,13,1018.2,-3,82,10,20000,11.112,,,220,,,,,,,,,,,wg-a,,,,AAXX 24034 07790 12670 22206 10130 20100 30168 40182 56030 60006 81501 90300=
07790,1998-10-24 06:00:00,11,1017.4,-0.9,87,9,8000,3.704,,,250,11.2,15.7,,,,,,,,11,wg-a,,,,AAXX 24064 07790 02558 62502 10110 20090 30159 40174 55009 60006 71111 81532 90600 333 10157 20112 60004=
07790,1998-10-24 09:00:00,20,1016.5,-0.8,64,13,12000,14.816,,,190,,,,,,,,,,,wg-a,,,,AAXX 24094 07790 12562 41908 10200 20130 30151 40165 58008 60006 82534 90900=
07790,1998-10-24 12:00:00,22,1014.9,-1.6,65,15,25000,18.52,,,140,,,,,,,,,,,wg-a,,,,AAXX 24124 07790 12575 41410 10220 20150 30135 40149 58016 60006 81502 91200=
07790,1998-10-24 15:00:00,21,1014.6,-0.3,64,14,25000,7.408,,,160,,,,,,,,,,,wg-a,,,,AAXX 24154 07790 12575 21604 10210 20140 30132 40146 56003 60006 81502 91500=
07790,1998-10-24 18:00:00,17,1014.5,-0.1,72,12,25000,7.408,,,110,11.5,23.1,,,,,,,,,wg-a,,,,AAXX 24184 07790 12675 /1104 10170 20120 30131 40145 55001 60006 81531 91800 333 10231 20115=
07790,1998-10-24 21:00:00,14,1013.9,-0.6,82,11,25000,11.112,,,230,,,,,,,,,,,wg-a,,,,AAXX 24214 07790 12675 /2306 10140 20110 30125 40139 57006 60006 81531 92100=
07790,1998-10-25 00:00:00,13,1012.6,-1.3,82,10,0,11.112,,,230,,,,,,,,,,,wg-a,,,,AAXX 25004 07790 12/// /2306 10130 20100 30112 40126 58013 60006 90000=
07790,1998-10-25 06:00:00,13,1007,-2.7,72,8,12000,11.112,,,220,12.2,16.9,,,,,,,,,wg-a,,,,AAXX 25064 07790 02662 72206 10130 20080 30056 40070 56027 60006 81534 90600 333 10169 20122 60004=
07790,1998-10-25 09:00:00,17,1004.5,-2.5,77,13,500,3.704,,,250,,,,,,,,,,,wg-a,,,,AAXX 25094 07790 12600 72502 10170 20130 30031 40045 58025 60006 81544 90900=
07790,1998-10-25 12:00:00,24,1002.3,-2.2,57,15,500,14.816,,,180,,,,,,,,,,,wg-a,,,,AAXX 25124 07790 12600 /1808 10240 20150 30009 40023 56022 60006 81544 91200=
07790,1998-10-25 15:00:00,26,1002.1,-0.2,23,3,500,31.484,,70.376,270,,,,,,,,,,,wg-a,,,,AAXX 25154 07790 12600 /2717 10260 20030 30007 40021 58002 60006 81544 91500 333 91038=
07790,1998-10-25 18:00:00,25,1001.8,-0.3,28,5,500,25.928,,59.264,260,12.9,29.1,,,,,,,,,wg-a,,,,AAXX 25184 07790 12600 72614 10250 20050 30004 40018 55003 60006 81542 91800 333 10291 20129 91032=
07790,1998-10-25 21:00:00,21,1002.2,0.4,30,3,500,42.596,,83.34,270,,,,,,,,,,,wg-a,,,,AAXX 25214 07790 12600 72723 10210 20030 30008 40022 50004 60006 81542 92100 333 91045=
07790,1998-10-26 00:00:00,19,1005.3,3.1,37,4,500,11.112,,90.748,190,,,,,,,,,,,wg-a,,,,AAXX 26004 07790 12600 /1906 10190 20040 30039 40053 51031 60006 81500 90000 333 91049=
07790,1998-10-26 03:00:00,18,1006.1,0.8,49,7,11000,25.928,,,290,,,,,,,,,,,wg-a,,,,AAXX 26034 07790 12/61 /2914 10180 20070 30047 40061 51008 60006 90300=
07790,1998-10-26 06:00:00,16,1007.5,1.4,51,6,500,22.224,,68.524,310,15.6,25.5,,,,,,,,,wg-a,,,,AAXX 26064 07790 02600 /3112 10160 20060 30061 40075 53014 60006 81540 90600 333 10255 20156 60004 91037=
07790,1998-10-26 09:00:00,20,1008.8,1.3,37,5,25000,11.112,,53.708,280,,,,,,,,,,,wg-a,,,,AAXX 26094 07790 12575 /2806 10200 20050 30074 40088 51013 60006 81200 90900 333 91029=
07790,1998-10-26 12:00:00,21,1009.9,1.1,38,6,35000,25.928,,53.708,320,,,,,,,,,,,wg-a,,,,AAXX 26124 07790 12581 /3214 10210 20060 30085 40099 53011 60006 81200 91200 333 91029=
07790,1998-10-26 15:00:00,20,1012.3,2.4,35,4,35000,25.928,,,320,,,,,,,,,,,wg-a,,,,AAXX 26154 07790 12581 /3214 10200 20040 30109 40123 53024 60006 81300 91500=
07790,1998-10-26 18:00:00,16,1013.7,1.4,59,8,25000,29.632,,,310,15.7,20.9,,,,,,,,,wg-a,,,,AAXX 26184 07790 12/75 /3116 10160 20080 30123 40137 53014 60006 80000 91800 333 10209 20157=
07790,1998-10-27 00:00:00,17,1014,-0.6,52,7,500,7.408,,,190,,,,,,,,,,,wg-a,,,,AAXX 27004 07790 12500 21904 10170 20070 30126 40140 55006 60006 82500 90000=
07790,1998-10-27 03:00:00,16,1015.1,1.1,45,4,11000,11.112,,,120,,,,,,,,,,,wg-a,,,,AAXX 27034 07790 12/61 /1206 10160 20040 30137 40151 53011 60006 90300=
07790,1998-10-27 06:00:00,17,1018.5,3.4,42,4,500,18.52,,,310,12.5,17.9,,,,,,,,,wg-a,,,,AAXX 27064 07790 02500 /3110 10170 20040 30171 40185 51034 60006 81500 90600 333 10179 20125 60004=
07790,1998-10-27 09:00:00,20,1022.1,3.6,35,4,35000,22.224,,,340,,,,,,,,,,,wg-a,,,,AAXX 27094 07790 12581 /3412 10200 20040 30207 40221 51036 60006 81500 90900=
07790,1998-10-27 12:00:00,21,1022.8,0.7,46,9,500,18.52,,,120,,,,,,,,,,,wg-a,,,,AAXX 27124 07790 12/00 /1210 10210 20090 30214 40228 53007 60006 80000 91200=
07790,1998-10-27 15:00:00,20,1023.4,0.6,53,10,500,14.816,,,150,,,,,,,,,,,wg-a,,,,AAXX 27154 07790 12/00 01508 10200 20100 30220 40234 53006 60006 80000 91500=
07790,1998-10-27 18:00:00,14,1024.2,0.7,77,10,15000,7.408,,,220,14.2,21.7,,,,,,,,,wg-a,,,,AAXX 27184 07790 12/65 /2204 10140 20100 30227 40242 53007 60006 81030 91800 333 10217 20142=
07790,1998-10-27 21:00:00,12,1025.1,0.9,76,8,20000,11.112,,,280,,,,,,,,,,,wg-a,,,,AAXX 27214 07790 12/70 12806 10120 20080 30236 40251 53009 60006 81030 92100=
07790,1998-10-28 00:00:00,12,1025.1,-0,71,7,20000,11.112,,,220,,,,,,,,,,,wg-a,,,,AAXX 28004 07790 12/70 32206 10120 20070 30236 40251 55000 60006 83030 90000=
07790,1998-10-28 03:00:00,12,1023.8,-1.3,67,6,20000,11.112,,,220,,,,,,,,,,,wg-a,,,,AAXX 28034 07790 12/70 /2206 10120 20060 30223 40238 57013 60006 81040 90300=
07790,1998-10-28 06:00:00,10,1024.2,0.4,76,6,500,11.112,,,240,9.7,14.3,,,,,,,,,wg-a,,,,AAXX 28064 07790 02500 52406 10100 20060 30227 40242 53004 60006 81141 90600 333 10143 20097 60004=
07790,1998-10-28 09:00:00,20,1022.9,-1.2,60,12,500,14.816,,,160,,,,,,,,,,,wg-a,,,,AAXX 28094 07790 12/00 21608 10200 20120 30215 40229 58012 60006 81041 90900=
07790,1998-10-28 12:00:00,21,1022,-0.9,64,14,500,11.112,,,140,,,,,,,,,,,wg-a,,,,AAXX 28124 07790 12500 51406 10210 20140 30206 40220 58009 60006 81541 91200=
07790,1998-10-28 18:00:00,15,1021.6,0.7,88,13,20000,7.408,,,250,9.8,21.4,,,,,,,,,wg-a,,,,AAXX 28184 07790 12/70 /2504 10150 20130 30202 40216 52007 60006 81040 91800 333 10214 20098=
07790,1998-10-28 21:00:00,13,1021.7,-0,88,11,25000,7.408,,,240,,,,,,,,,,,wg-a,,,,AAXX 28214 07790 12/75 02404 10130 20110 30202 40217 54000 60006 80000 92100=
07790,1998-10-29 00:00:00,13,1021,-0.7,88,11,25000,11.112,,,250,,,,,,,,,,,wg-a,,,,AAXX 29004 07790 12/75 02506 10130 20110 30195 40210 56007 60006 80000 90000=
07790,1998-10-29 06:00:00,11,1018.2,-1.4,82,8,25000,18.52,,,220,11,15.2,,,,,,,,,wg-a,,,,AAXX 29064 07790 02675 22210 10110 20080 30167 40182 58014 60006 81201 90600 333 10152 20110 60004=
07790,1998-10-29 09:00:00,20,1019,0.9,83,17,20000,11.112,,,20,,,,,,,,,,,wg-a,,,,AAXX 29094 07790 12570 /0206 10200 20170 30176 40190 50009 60006 81801 90900=
07790,1998-10-29 12:00:00,23,1016.7,-2.3,65,16,25000,11.112,,,140,,,,,,,,,,,wg-a,,,,AAXX 29124 07790 12575 /1406 10230 20160 30153 40167 58023 60006 81101 91200=
07790,1998-10-29 18:00:00,24,1013.7,-0.6,36,8,25000,22.224,,,290,10.4,25.2,,,,,,,,,wg-a,,,,AAXX 29184 07790 12675 22912 10240 20080 30123 40137 58006 60006 81141 91800 333 10252 20104=
07790,1998-10-29 21:00:00,19,1016.1,2.4,56,10,25000,31.484,,,10,,,,,,,,,,,wg-a,,,,AAXX 29214 07790 12675 /0117 10190 20100 30147 40161 51024 60006 81541 92100=
07790,1998-10-30 00:00:00,18,1016.6,0.5,49,7,25000,29.632,,64.82,250,,,,,,,,,,,wg-a,,,,AAXX 30004 07790 12675 /2516 10180 20070 30152 40166 50005 60006 81501 90000 333 91035=
07790,1998-10-30 06:00:00,14,1017.6,0.2,67,8,25000,18.52,,50.004,240,11.5,25.5,,,,,,,,,wg-a,,,,AAXX 30064 07790 02/75 42410 10140 20080 30162 40176 51002 60006 81032 90600 333 10255 20115 60004 91027=
07790,1998-10-30 12:00:00,21,1016.4,-1.7,53,11,500,14.816,,,130,,,,,,,,,,,wg-a,,,,AAXX 30124 07790 12600 /1308 10210 20110 30150 40164 58017 60006 81102 91200=
07790,1998-10-30 15:00:00,18,1015.4,-1,39,4,500,14.816,,,340,,,,,,,,,,,wg-a,,,,AAXX 30154 07790 12500 53408 10180 20040 30140 40154 56010 60006 83502 91500=
07790,1998-10-30 18:00:00,17,1014.8,-0.6,36,2,500,11.112,,,270,13.8,21.4,,,,,,,,,wg-a,,,,AAXX 30184 07790 12600 /2706 10170 20020 30134 40148 55006 60006 81542 91800 333 10214 20138=
07790,1998-10-30 21:00:00,15,1015.3,0.5,51,5,500,3.704,,,330,,,,,,,,,,,wg-a,,,,AAXX 30214 07790 12600 23302 10150 20050 30139 40153 53005 60006 81540 92100=
07790,1998-10-31 00:00:00,15,1014.7,-0.6,55,6,500,18.52,,,280,,,,,,,,,,,wg-a,,,,AAXX 31004 07790 12/00 32810 10150 20060 30133 40147 58006 60006 81041 90000=
07790,1998-10-31 03:00:00,12,1014.5,-0.3,62,5,500,22.224,,,250,,,,,,,,,,,wg-a,,,,AAXX 31034 07790 12/00 02512 10120 20050 30130 40145 57003 60006 80000 90300=
07790,1998-10-31 06:00:00,11,1014.9,0.4,62,4,500,14.816,,,240,10.3,16.8,,,,,,,,,wg-a,,,,AAXX 31064 07790 02/00 32408 10110 20040 30134 40149 51004 60006 80001 90600 333 10168 20103 60004=
07790,1998-10-31 09:00:00,16,1016.4,1.6,59,8,25000,7.408,,,230,,,,,,,,,,,wg-a,,,,AAXX 31094 07790 12575 /2304 10160 20080 30150 40164 51016 60006 81101 90900=
07790,1998-10-31 12:00:00,19,1015.3,-1.1,60,11,25000,11.112,,,140,,,,,,,,,,,wg-a,,,,AAXX 31124 07790 12675 71406 10190 20110 30139 40153 58011 60006 81502 91200=
07790,1998-10-31 15:00:00,18,1014.4,-0.9,68,12,18000,7.408,,,150,,,,,,,,,,,wg-a,,,,AAXX 31154 07790 12568 /1504 10180 20120 30130 40144 56009 60006 83801 91500=
07790,1998-10-31 18:00:00,13,1014.8,0.4,88,11,20000,7.408,,,230,10.5,19.1,,,,,,,,,wg-a,,,,AAXX 31184 07790 12570 /2304 10130 20110 30134 40148 53004 60006 82501 91800 333 10191 20105=
07790,1998-10-31 21:00:00,11,1014.5,-0.4,94,10,7000,3.704,,,250,,,,,,,,,,,wg-a,,,,AAXX 31214 07790 12557 /2502 10110 20100 30130 40145 56004 60006 81530 92100=
07790,1998-11-01 00:00:00,10,1013,-1.5,87,8,7000,11.112,,,240,,,,,,,,,,,wg-a,,,,AAXX 01004 07790 12/57 02406 10100 20080 30115 40130 58015 60006 80000 90000=
07790,1998-11-01 03:00:00,10,1011,-2,87,8,9000,11.112,,,230,,,,,,,,,,,wg-a,,,,AAXX 01034 07790 12/59 22306 10100 20080 30095 40110 57020 60006 82030 90300=
07790,1998-11-01 06:00:00,10,1009.4,-1.6,82,7,6000,11.112,,,230,9.4,13,,,,,,,,,wg-a,,,,AAXX 01064 07790 02/56 32306 10100 20070 30079 40094 56016 60006 82034 90600 333 10130 20094 60004=
07790,1998-11-01 09:00:00,16,1007.7,-1.6,68,10,500,11.112,,,180,,,,,,,,,,,wg-a,,,,AAXX 01094 07790 12500 71806 10160 20100 30063 40077 58016 60006 81142 90900=
07790,1998-11-01 12:00:00,23,1005.4,-2.3,57,14,500,3.704,,,230,,,,,,,,,,,wg-a,,,,AAXX 01124 07790 12500 42302 10230 20140 30040 40054 58023 60006 81142 91200=
07790,1998-11-01 15:00:00,23,1004.6,-0.8,44,10,500,14.816,,,290,,,,,,,,,,,wg-a,,,,AAXX 01154 07790 12500 22908 10230 20100 30032 40046 56008 60006 81541 91500=
07790,1998-11-02 00:00:00,15,1006.4,-0.1,72,10,500,11.112,,,190,,,,,,,,,,,wg-a,,,,AAXX 02004 07790 12600 /1906 10150 20100 30050 40064 55001 60006 81540 90000=
07790,1998-11-02 03:00:00,12,1006.4,-0,94,11,500,7.408,,,260,,,,,,,,,,,wg-a,,,,AAXX 02034 07790 12/00 02604 10120 20110 30050 40064 55000 60006 80000 90300=
07790,1998-11-02 06:00:00,11,1007.2,0.8,87,9,25000,3.704,,,270,10.9,19.5,,,,,,,,,wg-a,,,,AAXX 02064 07790 02575 /2702 10110 20090 30058 40072 53008 60006 81801 90600 333 10195 20109 60004=
07790,1998-11-02 09:00:00,21,1009.2,2,49,10,25000,7.408,,,160,,,,,,,,,,,wg-a,,,,AAXX 02094 07790 12575 /1604 10210 20100 30078 40092 51020 60006 81801 90900=
07790,1998-11-02 12:00:00,21,1009.2,0,64,14,25000,11.112,,,120,,,,,,,,,,,wg-a,,,,AAXX 02124 07790 12575 /1206 10210 20140 30078 40092 50000 60006 81100 91200=
07790,1998-11-02 15:00:00,19,1009.3,0.1,83,16,20000,7.408,,,130,,,,,,,,,,,wg-a,,,,AAXX 02154 07790 12570 /1304 10190 20160 30079 40093 53001 60006 82201 91500=
07790,1998-11-02 18:00:00,16,1009.4,0.1,88,14,15000,3.704,,,260,11,21.5,,,,,,,,,wg-a,,,,AAXX 02184 07790 12565 72602 10160 20140 30080 40094 53001 60006 82242 91800 333 10215 20110=
07790,1998-11-02 21:00:00,15,1009.8,0.4,88,13,15000,7.408,,,230,,,,,,,,,,,wg-a,,,,AAXX 02214 07790 12765 72304 10150 20130 30084 40098 51004 60006 85502 92100=
07790,1998-11-03 00:00:00,16,1009.3,-0.5,88,14,15000,7.408,,,200,,,,,,,,,,,wg-a,,,,AAXX 03004 07790 12765 72004 10160 20140 30079 40093 58005 60006 835/2 90000=
07790,1998-11-03 03:00:00,14,1008.4,-0.9,82,11,15000,11.112,,,230,,,,,,,,,,,wg-a,,,,AAXX 03034 07790 12765 52306 10140 20110 30070 40084 58009 60006 82502 90300=
07790,1998-11-03 06:00:00,13,1008.8,0.4,82,10,15000,14.816,,,230,13.2,17,,,,,,,,,wg-a,,,,AAXX 03064 07790 02/65 /2308 10130 20100 30074 40088 51004 60006 81041 90600 333 10170 20132 60004=
07790,1998-11-03 09:00:00,20,1009.3,0.5,64,13,25000,14.816,,,170,,,,,,,,,,,wg-a,,,,AAXX 03094 07790 12575 71708 10200 20130 30079 40093 51005 60006 82174 90900=
07790,1998-11-03 12:00:00,20,1007,-2.3,64,13,25000,0,,,0,,,,,,,,,,,wg-a,,,,AAXX 03124 07790 12575 70000 10200 20130 30056 40070 58023 60006 82272 91200=
07790,1998-11-03 15:00:00,20,1006,-1,68,14,25000,7.408,,,10,,,,,,,,,,,wg-a,,,,AAXX 03154 07790 12575 70104 10200 20140 30046 40060 55010 60006 8487/ 91500=
07790,1998-11-03 18:00:00,18,1006.5,0.5,77,14,17000,3.704,,,190,13,21.3,,,,,,,,60,wg-a,,,,AAXX 03184 07790 02567 71902 10180 20140 30051 40065 53005 61000 76062 8687/ 91800 333 10213 20130 6100=
07790,1998-11-03 21:00:00,17,1006.5,0,88,15,20000,7.408,,,220,,,,0,,,,,,3,wg-a,,,,AAXX 03214 07790 12670 72204 10170 20150 30051 40065 50000 60007 70362 82572 92100=
07790,1998-11-04 00:00:00,16,1006.2,-0.3,94,15,20000,7.408,,,250,,,,1,,,,,,60,wg-a,,,,AAXX 04004 07790 02670 72504 10160 20150 30048 40062 58003 60016 76062 8257/ 90000 333 60017=
07790,1998-11-04 03:00:00,16,1005.1,-1.1,94,15,11000,7.408,,,260,,,,,,,,,,,wg-a,,,,AAXX 04034 07790 32/61 /2604 10160 20150 30037 40051 56011 90300=
07790,1998-11-04 06:00:00,14,1004.1,-1,100,14,20000,3.704,,,340,14.3,19,,,,,1,,,2,wg-a,,,,AAXX 04064 07790 02570 43402 10140 20140 30027 40041 55010 60006 70261 81171 90600 333 10190 20143 60014=
07790,1998-11-04 12:00:00,21,1004,-0.6,73,16,20000,14.816,,,10,,,,,,,,,,,wg-a,,,,AAXX 04124 07790 12570 30108 10210 20160 30026 40040 58006 60006 81101 91200=
07790,1998-11-04 15:00:00,20,1004.3,0.3,78,16,20000,11.112,,,160,,,,0,,,,,,3,wg-a,,,,AAXX 04154 07790 12570 /1606 10200 20160 30029 40043 53003 60007 70386 83201 91500=
07790,1998-11-04 18:00:00,16,1005.9,1.6,88,14,15000,7.408,,,290,14.1,21.7,,,,,,,,2,wg-a,,,,AAXX 04184 07790 12565 42904 10160 20140 30045 40059 51016 60006 70286 83801 91800 333 10217 20141=
07790,1998-11-04 21:00:00,17,1007.4,1.5,88,15,9000,3.704,,,260,,,,,,,,,,,wg-a,,,,AAXX 04214 07790 12559 72602 10170 20150 30060 40074 51015 60006 85530 92100=
07790,1998-11-05 00:00:00,16,1008.3,0.9,94,15,9000,3.704,,,290,,,,1,,,,,,,wg-a,,,,AAXX 05004 07790 02559 72902 10160 20150 30069 40083 53009 60016 8553/ 90000 333 60017=
07790,1998-11-05 03:00:00,18,1009.3,1,59,10,9000,11.112,,,260,,,,,,,,,,,wg-a,,,,AAXX 05034 07790 12559 /2606 10180 20100 30079 40093 53010 60006 8483/ 90300=
07790,1998-11-05 06:00:00,16,1010.4,1.1,72,11,12000,3.704,,,180,15.9,18,,,,,1,,,,wg-a,,,,AAXX 05064 07790 02562 71802 10160 20110 30090 40104 53011 60006 8487/ 90600 333 10180 20159 60014=
07790,1998-11-05 09:00:00,17,1013.1,2.7,63,10,25000,7.408,,,230,,,,,,,,,,,wg-a,,,,AAXX 05094 07790 12575 /2304 10170 20100 30117 40131 51027 60006 8287/ 90900=
07790,1998-11-05 12:00:00,18,1014,0.9,56,9,25000,7.408,,,360,,,,,,,,,,,wg-a,,,,AAXX 05124 07790 12675 /3604 10180 20090 30126 40140 50009 60006 8157/ 91200=
07790,1998-11-05 15:00:00,18,1016,2,64,11,25000,3.704,,,140,,,,,,,,,,,wg-a,,,,AAXX 05154 07790 12675 /1402 10180 20110 30146 40160 53020 60006 8157/ 91500=
07790,1998-11-05 18:00:00,15,1017.7,1.7,77,11,25000,7.408,,,180,14.8,19.2,,,,,,,,,wg-a,,,,AAXX 05184 07790 12675 51804 10150 20110 30163 40177 53017 60006 82572 91800 333 10192 20148=
07790,1998-11-05 21:00:00,15,1019.3,1.6,82,12,25000,3.704,,,170,,,,,,,,,,,wg-a,,,,AAXX 05214 07790 12575 71702 10150 20120 30179 40193 51016 60006 8557/ 92100=
07790,1998-11-06 00:00:00,15,1020.4,1.1,82,12,25000,7.408,,,320,,,,,,,,,,,wg-a,,,,AAXX 06004 07790 12575 73204 10150 20120 30190 40204 51011 60006 8557/ 90000=
07790,1998-11-06 03:00:00,14,1020.4,-0,82,11,25000,7.408,,,290,,,,,,,,,,,wg-a,,,,AAXX 06034 07790 12575 72904 10140 20110 30190 40204 55000 60006 8357/ 90300=
07790,1998-11-06 06:00:00,14,1020.6,0.2,82,11,500,7.408,,,260,13.1,16.2,,,,,,,,,wg-a,,,,AAXX 06064 07790 02600 /2604 10140 20110 30192 40206 53002 60006 84570 90600 333 10162 20131 60004=
07790,1998-11-06 09:00:00,16,1021.5,0.9,77,12,500,7.408,,,230,,,,,,,,,,,wg-a,,,,AAXX 06094 07790 12600 /2304 10160 20120 30201 40215 50009 60006 83831 90900=
07790,1998-11-06 12:00:00,18,1020.7,-0.8,68,12,500,14.816,,,20,,,,,,,,,,,wg-a,,,,AAXX 06124 07790 12500 30208 10180 20120 30193 40207 58008 60006 82230 91200=
07790,1998-11-06 15:00:00,17,1020.7,-0,63,10,500,11.112,,,20,,,,,,,,,,,wg-a,,,,AAXX 06154 07790 12400 40206 10170 20100 30193 40207 55000 60006 84830 91500=
07790,1998-11-06 18:00:00,13,1021.6,0.8,77,9,20000,3.704,,,260,12.6,18.4,,,,,,,,,wg-a,,,,AAXX 06184 07790 12570 /2602 10130 20090 30201 40216 53008 60006 81810 91800 333 10184 20126=
07790,1998-11-06 21:00:00,10,1022.4,0.8,82,7,20000,7.408,,,250,,,,,,,,,,,wg-a,,,,AAXX 06214 07790 12/70 02504 10100 20070 30209 40224 53008 60006 80000 92100=
07790,1998-11-07 00:00:00,11,1022.8,0.4,76,7,20000,7.408,,,270,,,,,,,,,,,wg-a,,,,AAXX 07004 07790 12/70 02704 10110 20070 30213 40228 52004 60006 80000 90000=
07790,1998-11-07 03:00:00,10,1022.9,0.1,76,6,20000,18.52,,,260,,,,,,,,,,,wg-a,,,,AAXX 07034 07790 12/70 02610 10100 20060 30214 40229 51001 60006 80000 90300=
07790,1998-11-07 06:00:00,11,1023.8,0.9,71,6,20000,18.52,,,240,7.6,12.5,,,,,,,,,wg-a,,,,AAXX 07064 07790 02570 /2410 10110 20060 30223 40238 51009 60006 81100 90600 333 10125 20076 60004=
07790,1998-11-07 09:00:00,17,1025,1.3,48,6,20000,11.112,,,230,,,,,,,,,,,wg-a,,,,AAXX 07094 07790 12570 /2306 10170 20060 30236 40250 51013 60006 81100 90900=
07790,1998-11-07 12:00:00,16,1025.6,0.6,59,8,20000,18.52,,,10,,,,,,,,,,,wg-a,,,,AAXX 07124 07790 12570 30110 10160 20080 30242 40256 50006 60006 83100 91200=
07790,1998-11-07 15:00:00,16,1026.4,0.8,51,6,20000,14.816,,,10,,,,,,,,,,,wg-a,,,,AAXX 07154 07790 12/70 /0108 10160 20060 30250 40264 53008 60006 80000 91500=
07790,1998-11-07 18:00:00,11,1027.6,1.1,66,5,20000,11.112,,,260,10.4,17,,,,,,,,,wg-a,,,,AAXX 07184 07790 12/70 02606 10110 20050 30261 40276 53011 60006 80000 91800 333 10170 20104=
07790,1998-11-07 21:00:00,10,1028.8,1.2,76,6,18000,11.112,,,240,,,,,,,,,,,wg-a,,,,AAXX 07214 07790 12668 /2406 10100 20060 30273 40288 53012 60006 81500 92100=
07790,1998-11-08 00:00:00,8,1029.2,0.4,81,5,11000,11.112,,,240,,,,,,,,,,,wg-a,,,,AAXX 08004 07790 12/61 /2406 10080 20050 30277 40292 51004 60006 90000=
07790,1998-11-08 03:00:00,7,1028.9,-0.3,87,5,18000,11.112,,,240,,,,,,,,,,,wg-a,,,,AAXX 08034 07790 12/68 02406 10070 20050 30274 40289 56003 60006 80000 90300=
07790,1998-11-08 06:00:00,6,1029.2,0.3,81,3,10000,11.112,,,230,6.2,10.5,,,,,,,,,wg-a,,,,AAXX 08064 07790 02660 /2306 10060 20030 30277 40292 52003 60006 81500 90600 333 10105 20062 60004=
07790,1998-11-08 09:00:00,15,1030,0.8,48,4,500,11.112,,,230,,,,,,,,,,,wg-a,,,,AAXX 08094 07790 12/00 02306 10150 20040 30285 40300 51008 60006 80000 90900=
07790,1998-11-08 12:00:00,16,1029.4,-0.6,51,6,500,7.408,,,50,,,,,,,,,,,wg-a,,,,AAXX 08124 07790 12/00 00504 10160 20060 30279 40294 58006 60006 80000 91200=
07790,1998-11-08 15:00:00,16,1028.2,-1.1,55,7,500,7.408,,,130,,,,,,,,,,,wg-a,,,,AAXX 08154 07790 12/00 11304 10160 20070 30268 40282 57011 60006 80001 91500=
07790,1998-11-08 18:00:00,10,1029.2,0.9,82,7,20000,7.408,,,240,6.1,16.9,,,,,,,,,wg-a,,,,AAXX 08184 07790 12/70 12404 10100 20070 30277 40292 53009 60006 80001 91800 333 10169 20061=
07790,1998-11-08 21:00:00,11,1028.4,-0.8,76,7,20000,11.112,,,230,,,,,,,,,,,wg-a,,,,AAXX 08214 07790 12/70 02306 10110 20070 30269 40284 55008 60006 80000 92100=
07790,1998-11-09 00:00:00,8,1028.2,-0.2,81,5,20000,11.112,,,230,,,,,,,,,,,wg-a,,,,AAXX 09004 07790 12/70 42306 10080 20050 30267 40282 58002 60006 80001 90000=
07790,1998-11-09 03:00:00,8,1026.6,-1.6,71,3,20000,14.816,,,240,,,,,,,,,,,wg-a,,,,AAXX 09034 07790 12/70 22408 10080 20030 30251 40266 57016 60006 80001 90300=
07790,1998-11-09 06:00:00,7,1026.4,-0.2,70,2,20000,11.112,,,230,6.6,11.2,,,,,,,,,wg-a,,,,AAXX 09064 07790 02670 22306 10070 20020 30249 40264 58002 60006 81501 90600 333 10112 20066 60004=
07790,1998-11-09 09:00:00,15,1026.8,0.4,51,5,20000,7.408,,,220,,,,,,,,,,,wg-a,,,,AAXX 09094 07790 12670 22204 10150 20050 30253 40268 51004 60006 81531 90900=
07790,1998-11-09 12:00:00,19,1025.4,-1.3,49,8,20000,3.704,,,180,,,,,,,,,,,wg-a,,,,AAXX 09124 07790 12670 /1802 10190 20080 30240 40254 58013 60006 81501 91200=
07790,1998-11-09 15:00:00,17,1024.4,-1,59,9,20000,11.112,,,150,,,,,,,,,,,wg-a,,,,AAXX 09154 07790 12670 21506 10170 20090 30230 40244 56010 60006 81501 91500=
07790,1998-11-09 18:00:00,11,1024.6,0.1,82,8,20000,7.408,,,230,6.4,19,,,,,,,,,wg-a,,,,AAXX 09184 07790 12670 22304 10110 20080 30231 40246 53001 60006 81501 91800 333 10190 20064=
07790,1998-11-10 00:00:00,10,1022.9,-1.3,82,7,20000,11.112,,,220,,,,,,,,,,,wg-a,,,,AAXX 10004 07790 12670 /2206 10100 20070 30214 40229 58013 60006 81500 90000=
07790,1998-11-10 03:00:00,9,1021.5,-1.4,81,6,20000,7.408,,,240,,,,,,,,,,,wg-a,,,,AAXX 10034 07790 12670 /2404 10090 20060 30200 40215 56014 60006 81500 90300=
07790,1998-11-10 06:00:00,9,1020.5,-1,81,6,20000,7.408,,,230,8.3,10.9,,,,,,,,,wg-a,,,,AAXX 10064 07790 02670 32304 10090 20060 30190 40205 57010 60006 82570 90600 333 10109 20083 60004=
07790,1998-11-10 09:00:00,15,1019.9,-0.5,72,10,20000,3.704,,,350,,,,,,,,,,,wg-a,,,,AAXX 10094 07790 12/70 /3502 10150 20100 30185 40199 58005 60006 81032 90900=
07790,1998-11-10 12:00:00,17,1017.5,-2.4,59,9,20000,7.408,,,160,,,,,,,,,,,wg-a,,,,AAXX 10124 07790 12670 /1604 10170 20090 30161 40175 58024 60006 81532 91200=
07790,1998-11-10 15:00:00,16,1015,-2.5,72,11,20000,3.704,,,170,,,,,,,,,,,wg-a,,,,AAXX 10154 07790 12670 71702 10160 20110 30136 40150 56025 60006 82573 91500=
07790,1998-11-10 18:00:00,13,1013.3,-1.7,88,11,12000,0,,,0,8.3,17.2,,,,,,,,21,wg-a,,,,AAXX 10184 07790 02662 /0000 10130 20110 30119 40133 57017 61000 72165 8457/ 91800 333 10172 20083 6100=
07790,1998-11-10 21:00:00,13,1011.4,-1.9,88,11,17000,3.704,,,210,,,,,,,,,,,wg-a,,,,AAXX 10214 07790 12667 42102 10130 20110 30100 40114 58019 60006 8357/ 92100=
07790,1998-11-11 00:00:00,11,1010,-1.4,94,10,17000,7.408,,,320,,,,,,,,,,,wg-a,,,,AAXX 11004 07790 12/67 /3204 10110 20100 30086 40100 56014 60006 81040 90000=
07790,1998-11-11 03:00:00,13,1008.6,-1.4,72,8,17000,14.816,,,250,,,,,,,,,,,wg-a,,,,AAXX 11034 07790 12767 /2508 10130 20080 30072 40086 58014 60006 81500 90300=
07790,1998-11-11 06:00:00,15,1009.2,0.6,72,10,17000,14.816,,,320,10.1,16.1,,,,,,,,17,wg-a,,,,AAXX 11064 07790 02567 /3208 10150 20100 30078 40092 53006 60006 71791 86900 90600 333 10161 20101 61000=
07790,1998-11-11 09:00:00,16,1011.6,2.4,72,11,12000,18.52,,,40,,,,,,,,,,16,wg-a,,,,AAXX 11094 07790 02562 70410 10160 20110 30102 40116 51024 61000 71696 85970 90900 333 ////=
07790,1998-11-11 12:00:00,16,1011.5,-0.1,77,12,12000,11.112,,,340,,,,1,,,,,,21,wg-a,,,,AAXX 11124 07790 02562 /3406 10160 20120 30101 40115 58001 60016 72198 86800 91200 333 60017=
07790,1998-11-11 15:00:00,16,1012.3,0.8,68,10,12000,14.816,,,320,,,,,,,,,,,wg-a,,,,AAXX 11154 07790 12562 43208 10160 20100 30109 40123 53008 60006 83870 91500=
07790,1998-11-11 18:00:00,15,1014.3,2,67,9,12000,11.112,,,300,14.2,17.2,,,,,,,,,wg-a,,,,AAXX 11184 07790 12562 43006 10150 20090 30129 40143 51020 60006 83870 91800 333 10172 20142=
07790,1998-11-11 21:00:00,11,1014.8,0.4,82,8,12000,7.408,,,260,,,,,,,,,,,wg-a,,,,AAXX 11214 07790 12562 /2604 10110 20080 30133 40148 53004 60006 85800 92100=
07790,1998-11-12 00:00:00,10,1014.7,-0.1,87,8,12000,7.408,,,240,,,,,,,,,,,wg-a,,,,AAXX 12004 07790 12562 42404 10100 20080 30132 40147 58001 60006 84800 90000=
07790,1998-11-12 03:00:00,9,1013.4,-1.3,87,7,20000,11.112,,,240,,,,,,,,,,,wg-a,,,,AAXX 12034 07790 12670 22406 10090 20070 30119 40134 58013 60006 82500 90300=
07790,1998-11-12 06:00:00,9,1013.3,-0.1,81,6,20000,7.408,,,240,8,14.6,,,,,1,,,,wg-a,,,,AAXX 12064 07790 02670 62404 10090 20060 30118 40133 57001 60006 83502 90600 333 10146 20080 60014=
07790,1998-11-12 12:00:00,15,1012,-1.6,67,9,9000,11.112,,,140,,,,,,,,,,,wg-a,,,,AAXX 12124 07790 12559 81406 10150 20090 30106 40120 58016 60006 86506 91200=
07790,1998-11-12 15:00:00,14,1010.5,-1.5,77,10,11000,11.112,,,190,,,,,,,,,,,wg-a,,,,AAXX 12154 07790 12/61 /1906 10140 20100 30091 40105 56015 60006 91500=
07790,1998-11-12 18:00:00,12,1010.6,0.1,88,10,10000,18.52,,,350,8.5,15.4,,,,,,,,50,wg-a,,,,AAXX 12184 07790 02560 /3510 10120 20100 30092 40106 53001 61000 75052 85570 91800 333 10154 20085 6100=
07790,1998-11-12 21:00:00,11,1010.4,-0.2,87,9,15000,7.408,,,270,,,,0,,,,,,2,wg-a,,,,AAXX 12214 07790 12465 72704 10110 20090 30090 40104 57002 60007 70252 8387/ 92100=
07790,1998-11-13 00:00:00,9,1009.3,-1.2,93,8,15000,7.408,,,240,,,,,,,,,,13,wg-a,,,,AAXX 13004 07790 12565 52404 10090 20080 30078 40093 56012 60006 71352 83960 90000=
07790,1998-11-13 03:00:00,9,1010.1,0.8,87,7,15000,14.816,,,340,,,,1,,,,,,60,wg-a,,,,AAXX 13034 07790 12565 73408 10090 20070 30086 40101 53008 60017 76096 8597/ 90300=
07790,1998-11-13 06:00:00,9,1011.3,1.2,93,8,15000,7.408,,,250,8.8,11.9,,,,,,,,20,wg-a,,,,AAXX 13064 07790 02465 /2504 10090 20080 30098 40113 53012 61000 72096 86800 90600 333 10119 20088 6002=
07790,1998-11-13 09:00:00,13,1012.4,1.2,67,7,25000,18.52,,,350,,,,,,,,,,,wg-a,,,,AAXX 13094 07790 12575 23510 10130 20070 30110 40124 53012 60006 82230 90900=
07790,1998-11-13 12:00:00,13,1011.5,-0.9,62,6,500,14.816,,,30,,,,,,,,,,,wg-a,,,,AAXX 13124 07790 12500 70308 10130 20060 30101 40115 58009 60006 878// 91200=
07790,1998-11-13 15:00:00,9,1011.3,1.2,93,8,15000,7.408,,,250,8.8,11.9,,1,,,2,,,20,wg-a,,,,AAXX 13154 07790 02465 62504 10090 20080 30098 40113 53012 60024 72096 86800 91500 333 10119 20088 60017=
07790,1998-11-13 18:00:00,10,1011.9,1.3,82,7,25000,3.704,,,270,8.3,14.1,,,,,,,,,wg-a,,,,AAXX 13184 07790 12575 72702 10100 20070 30104 40119 53013 60006 81134 91800 333 10141 20083=
07790,1998-11-13 21:00:00,9,1010.7,-1.2,81,6,25000,11.112,,,250,,,,,,,,,,,wg-a,,,,AAXX 13214 07790 12675 82506 10090 20060 30092 40107 56012 60006 82552 92100=
07790,1998-11-14 00:00:00,10,1009.9,-0.8,76,6,11000,11.112,,,220,,,,,,,,,,,wg-a,,,,AAXX 14004 07790 12/61 /2206 10100 20060 30084 40099 58008 60006 90000=
07790,1998-11-14 03:00:00,10,1008.8,-1.1,82,7,25000,11.112,,,240,,,,,,,,,,20,wg-a,,,,AAXX 14034 07790 02675 82406 10100 20070 30073 40088 58011 61000 72052 8667/ 90300 333 ////=
07790,1998-11-14 06:00:00,10,1008.3,-0.5,87,8,18000,3.704,,,260,8.2,10.5,,,,,,,,2,wg-a,,,,AAXX 14064 07790 02668 82602 10100 20080 30068 40083 56005 60006 70252 8567/ 90600 333 10105 20082 61000=
07790,1998-11-14 09:00:00,12,1008,-0.2,76,8,18000,7.408,,,240,,,,,,,,,,,wg-a,,,,AAXX 14094 07790 12568 72404 10120 20080 30066 40080 58002 60006 8687/ 90900=
07790,1998-11-14 12:00:00,15,1006.7,-1.3,72,10,18000,11.112,,,360,,,,,,,,,,,wg-a,,,,AAXX 14124 07790 12568 /3606 10150 20100 30053 40067 58013 60006 85870 91200=
07790,1998-11-14 15:00:00,15,1005.4,-1.3,72,10,18000,3.704,,,210,,,,,,,,,,,wg-a,,,,AAXX 14154 07790 12568 72102 10150 20100 30040 40054 55013 60006 8387/ 91500=
07790,1998-11-14 18:00:00,11,1005.1,-0.3,87,9,18000,7.408,,,220,9.9,15.7,,,,,,,,,wg-a,,,,AAXX 14184 07790 12568 52204 10110 20090 30037 40051 55003 60006 83840 91800 333 10157 20099=
07790,1998-11-14 21:00:00,18,1003.9,-1.2,24,-3,20000,38.892,,55.56,270,,,,,,,,,,,wg-a,,,,AAXX 14214 07790 12570 32721 10180 21030 30025 40039 58012 60006 81540 92100 333 91030=
07790,1998-11-15 00:00:00,16,1003.9,-0,27,-3,20000,46.3,,81.488,270,,,,,,,,,,,wg-a,,,,AAXX 15004 07790 12570 22725 10160 21030 30025 40039 55000 60006 81540 90000 333 91044=
07790,1998-11-15 03:00:00,14,1004.7,0.8,33,-2,11000,46.3,,66.672,270,,,,,,,,,,,wg-a,,,,AAXX 15034 07790 12/61 /2725 10140 21020 30033 40047 50008 60006 90300 333 91036=
07790,1998-11-15 06:00:00,13,1007.7,3,41,0,20000,11.112,,94.452,290,10.8,17.7,,,,,,,,,wg-a,,,,AAXX 15064 07790 02570 12906 10130 20000 30063 40077 51030 60006 81500 90600 333 10177 20108 60004 91051=
07790,1998-11-15 09:00:00,16,1009.4,1.7,34,0,20000,7.408,,,350,,,,,,,,,,,wg-a,,,,AAXX 15094 07790 12570 /3504 10160 20000 30080 40094 53017 60006 81500 90900=
07790,1998-11-15 12:00:00,19,1009.5,0.1,30,1,20000,3.704,,,90,,,,,,,,,,,wg-a,,,,AAXX 15124 07790 12670 /0902 10190 20010 30081 40095 50001 60006 81500 91200=
07790,1998-11-15 15:00:00,16,1010.4,0.9,48,5,20000,11.112,,,70,,,,,,,,,,,wg-a,,,,AAXX 15154 07790 12670 /0706 10160 20050 30090 40104 53009 60006 81500 91500=
07790,1998-11-15 21:00:00,12,1014.2,1.6,40,-1,20000,7.408,,,240,,,,,,,,,,,wg-a,,,,AAXX 15214 07790 12/70 02404 10120 21010 30127 40142 53016 60006 80000 92100=
07790,1998-11-16 00:00:00,9,1015,0.8,53,0,20000,18.52,,,250,,,,,,,,,,,wg-a,,,,AAXX 16004 07790 12/70 02510 10090 20000 30135 40150 53008 60006 80000 90000=
07790,1998-11-16 03:00:00,9,1015.2,0.2,49,-1,20000,14.816,,,250,,,,,,,,,,,wg-a,,,,AAXX 16034 07790 12/70 02508 10090 21010 30137 40152 50002 60006 80000 90300=
07790,1998-11-16 06:00:00,8,1015.8,0.6,49,-2,25000,25.928,,,250,7.5,13.4,,,,,,,,,wg-a,,,,AAXX 16064 07790 02575 12514 10080 21020 30143 40158 53006 60006 81200 90600 333 10134 20075 60004=
07790,1998-11-16 09:00:00,14,1015.9,0.2,38,0,35000,18.52,,,240,,,,,,,,,,,wg-a,,,,AAXX 16094 07790 12581 /2410 10140 20000 30145 40159 50002 60006 81100 90900=
07790,1998-11-16 12:00:00,16,1014.6,-1.3,42,3,35000,7.408,,,70,,,,,,,,,,,wg-a,,,,AAXX 16124 07790 12581 /0704 10160 20030 30132 40146 58013 60006 81800 91200=
07790,1998-11-16 15:00:00,16,1013.5,-1.1,34,0,35000,7.408,,,100,,,,,,,,,,,wg-a,,,,AAXX 16154 07790 12581 /1004 10160 20000 30121 40135 56011 60006 81800 91500=
07790,1998-11-16 18:00:00,12,1014.5,0.9,32,-4,35000,14.816,,,270,7.8,18.3,,,,,,,,,wg-a,,,,AAXX 16184 07790 12581 /2708 10120 21040 30130 40145 51009 60006 81501 91800 333 10183 20078=
07790,1998-11-17 00:00:00,12,1016.9,0.7,50,2,0,18.52,,,300,,,,,,,,,,,wg-a,,,,AAXX 17004 07790 12/// /3010 10120 20020 30154 40169 51007 60006 90000=
07790,1998-11-17 03:00:00,10,1017.9,1,50,0,35000,3.704,,,90,,,,,,,,,,,wg-a,,,,AAXX 17034 07790 12681 /0902 10100 20000 30164 40179 51010 60006 81500 90300=
07790,1998-11-17 06:00:00,8,1019.1,1.2,53,-1,35000,11.112,,,260,8,12.9,,,,,,,,,wg-a,,,,AAXX 17064 07790 02681 /2606 10080 21010 30176 40191 51012 60006 81500 90600 333 10129 20080 60004=
07790,1998-11-17 09:00:00,14,1020.3,1.2,33,-2,60000,11.112,,,310,,,,,,,,,,,wg-a,,,,AAXX 17094 07790 12686 /3106 10140 21020 30188 40203 51012 60006 81100 90900=
07790,1998-11-17 12:00:00,15,1019.4,-0.8,31,-2,60000,11.112,,,40,,,,,,,,,,,wg-a,,,,AAXX 17124 07790 12686 /0406 10150 21020 30180 40194 58008 60006 81100 91200=
07790,1998-11-17 15:00:00,15,1018.9,-0.5,36,0,60000,7.408,,,140,,,,,,,,,,,wg-a,,,,AAXX 17154 07790 12686 31404 10150 20000 30175 40189 56005 60006 83200 91500=
07790,1998-11-17 18:00:00,8,1019.5,0.5,71,3,40000,7.408,,,240,7.9,16.2,,,,,,,,,wg-a,,,,AAXX 17184 07790 12/82 02404 10080 20030 30180 40195 53005 60006 80000 91800 333 10162 20079=
07790,1998-11-17 21:00:00,8,1019.6,0.1,57,0,40000,22.224,,,250,,,,,,,,,,,wg-a,,,,AAXX 17214 07790 12/82 02512 10080 20000 30181 40196 52001 60006 80000 92100=
07790,1998-11-18 00:00:00,6,1019.6,0,65,0,40000,11.112,,,230,,,,,,,,,,,wg-a,,,,AAXX 18004 07790 12/82 02306 10060 20000 30181 40196 50000 60006 80000 90000=
07790,1998-11-18 03:00:00,5,1018.7,-0.9,70,0,500,14.816,,,240,,,,,,,,,,,wg-a,,,,AAXX 18034 07790 12600 32408 10050 20000 30172 40187 56009 60006 83500 90300=
07790,1998-11-18 06:00:00,5,1018.4,-0.3,75,1,25000,11.112,,,230,4.3,8.4,,,,,,,,,wg-a,,,,AAXX 18064 07790 02575 42306 10050 20010 30169 40184 55003 60006 81204 90600 333 10084 20043 60004=
07790,1998-11-18 09:00:00,9,1018.8,0.4,66,3,18000,11.112,,,210,,,,,,,,,,,wg-a,,,,AAXX 18094 07790 12568 72106 10090 20030 30173 40188 52004 60006 85802 90900=
07790,1998-11-18 12:00:00,11,1018.7,-0.1,76,7,15000,11.112,,,230,,,,,,,,,,60,wg-a,,,,AAXX 18124 07790 02565 72306 10110 20070 30172 40187 58001 61000 76061 878// 91200 333 6100=
07790,1998-11-18 15:00:00,11,1018.3,-0.4,82,8,15000,7.408,,,350,,,,0,,,,,,1,wg-a,,,,AAXX 18154 07790 12565 73504 10110 20080 30168 40183 56004 60007 70162 85802 91500=
07790,1998-11-18 18:00:00,9,1018.3,-0,93,8,9000,18.52,,,300,4.5,11.7,,,,,,,,61,wg-a,,,,AAXX 18184 07790 02459 83010 10090 20080 30168 40183 54000 61000 76162 878// 91800 333 10117 20045 6003=
07790,1998-11-18 21:00:00,9,1018.5,0.2,93,8,10000,7.408,,,340,,,,6,,,,,,61,wg-a,,,,AAXX 18214 07790 12460 73404 10090 20080 30170 40185 50002 60067 76166 875// 92100=
07790,1998-11-19 00:00:00,9,1017.8,-0.7,93,8,10000,7.408,,,270,,,,1,,,,,,61,wg-a,,,,AAXX 19004 07790 02460 72704 10090 20080 30163 40178 58007 60086 76166 875// 90000 333 60017=
07790,1998-11-19 03:00:00,10,1016.7,-1.1,93,9,8000,14.816,,,50,,,,12,,,,,,63,wg-a,,,,AAXX 19034 07790 12458 70508 10100 20090 30152 40167 56011 60127 76366 875// 90300=
07790,1998-11-19 06:00:00,9,1016.9,0.2,93,8,10000,7.408,,,250,8.7,10,,,,,,,,61,wg-a,,,,AAXX 19064 07790 02460 72504 10090 20080 30154 40169 53002 61000 76166 875// 90600 333 10100 20087 6025=
07790,1998-11-19 09:00:00,10,1017.2,0.3,82,7,500,7.408,,,270,,,,,,,,,,21,wg-a,,,,AAXX 19094 07790 02500 82704 10100 20070 30157 40172 50003 61000 72162 875// 90900 333 ////=
07790,1998-11-19 12:00:00,12,1016.3,-0.9,62,5,500,22.224,,,10,,,,,,,,,,1,wg-a,,,,AAXX 19124 07790 02500 70112 10120 20050 30148 40163 58009 61000 70162 8453/ 91200 333 ////=
07790,1998-11-19 15:00:00,11,1015.6,-0.7,58,3,500,14.816,,,340,,,,,,,,,,,wg-a,,,,AAXX 19154 07790 12500 53408 10110 20030 30141 40156 56007 60006 84130 91500=
07790,1998-11-19 18:00:00,10,1016.5,0.9,57,2,20000,22.224,,,20,8.6,12.4,,,,,,,,,wg-a,,,,AAXX 19184 07790 12670 40212 10100 20020 30150 40165 53009 60006 84130 91800 333 10124 20086=
07790,1998-11-19 21:00:00,9,1017.4,0.9,66,3,500,22.224,,,20,,,,,,,,,,,wg-a,,,,AAXX 19214 07790 12500 /0212 10090 20030 30159 40174 53009 60006 85500 92100=
07790,1998-11-20 00:00:00,10,1017.7,0.3,53,1,20000,29.632,,,40,,,,,,,,,,,wg-a,,,,AAXX 20004 07790 12570 30416 10100 20010 30162 40177 51003 60006 83500 90000=
07790,1998-11-20 03:00:00,9,1018.2,0.5,53,0,20000,25.928,,,50,,,,,,,,,,,wg-a,,,,AAXX 20034 07790 12570 /0514 10090 20000 30167 40182 51005 60006 81500 90300=
07790,1998-11-20 04:00:00,9,1018.8,,57,1,20000,29.632,,,40,,,,,,,,,,,wg-a,,,,AAXX 20044 07790 12570 30416 10090 20010 30162 40188 60006 90400=
07790,1998-11-20 06:00:00,8,1019.5,1.3,53,-1,40000,18.52,,,20,7.3,9.8,,,,,,,,,wg-a,,,,AAXX 20064 07790 02582 /0210 10080 21010 30180 40195 53013 60006 81500 90600 333 10098 20073 61000=
07790,1998-11-20 09:00:00,10,1021.2,1.7,37,-4,500,35.188,,,50,,,,,,,,,,,wg-a,,,,AAXX 20094 07790 12500 30519 10100 21040 30197 40212 51017 60006 83500 90900=
07790,1998-11-20 12:00:00,9,1020.9,-0.3,40,-4,500,31.484,,53.708,40,,,,,,,,,,,wg-a,,,,AAXX 20124 07790 12600 40417 10090 21040 30194 40209 58003 60006 83230 91200 333 91029=
07790,1998-11-20 15:00:00,9,1020.5,-0.4,37,-5,25000,25.928,,,30,,,,,,,,,,,wg-a,,,,AAXX 20154 07790 12675 /0314 10090 21050 30190 40205 55004 60006 86200 91500=
07790,1998-11-20 18:00:00,8,1021.6,1.1,34,-7,25000,31.484,,,50,7,9.8,,,,,,,,,wg-a,,,,AAXX 20184 07790 12675 /0517 10080 21070 30201 40216 53011 60006 86500 91800 333 10098 20070=
07790,1998-11-20 21:00:00,7,1023.4,1.8,36,-7,25000,31.484,,,30,,,,,,,,,,,wg-a,,,,AAXX 20214 07790 12675 /0317 10070 21070 30219 40234 51018 60006 86800 92100=
07790,1998-11-21 00:00:00,7,1023.9,0.5,42,-5,25000,31.484,,,30,,,,,,,,,,,wg-a,,,,AAXX 21004 07790 12675 70317 10070 21050 30224 40239 51005 60006 878// 90000=
07790,1998-11-21 06:00:00,6,1023.9,0.7,36,-8,25000,42.596,,64.82,50,5.8,8,,,,,,,,,wg-a,,,,AAXX 21064 07790 02675 /0523 10060 21080 30224 40239 53007 60006 86800 90600 333 10080 20058 60004 91035=
07790,1998-11-21 09:00:00,6,1024.4,0.5,42,-6,35000,42.596,,61.116,40,,,,,,,,,,,wg-a,,,,AAXX 21094 07790 12681 /0423 10060 21060 30229 40244 51005 60006 85800 90900 333 91033=
07790,1998-11-21 12:00:00,6,1023.1,-1.3,42,-6,35000,42.596,,68.524,30,,,,,,,,,,,wg-a,,,,AAXX 21124 07790 12681 /0323 10060 21060 30216 40231 58013 60006 85800 91200 333 91037=
07790,1998-11-21 15:00:00,6,1022.4,-0.7,49,-4,35000,31.484,,,40,,,,,,,,,,,wg-a,,,,AAXX 21154 07790 12681 /0417 10060 21040 30209 40224 55007 60006 85500 91500=
07790,1998-11-21 18:00:00,6,1023.1,0.7,45,-5,20000,35.188,,,40,5.2,6.4,,,,,,,,1,wg-a,,,,AAXX 21184 07790 02570 70419 10060 21050 30216 40231 53007 60006 70176 87500 91800 333 10064 20052 61000=
07790,1998-11-21 21:00:00,6,1023.1,0,49,-4,20000,29.632,,,30,,,,,,,,,,,wg-a,,,,AAXX 21214 07790 12570 /0316 10060 21040 30216 40231 50000 60006 86500 92100=
07790,1998-11-22 00:00:00,6,1022.4,-0.7,52,-3,20000,31.484,,,60,,,,,,,,,,,wg-a,,,,AAXX 22004 07790 12570 70617 10060 21030 30209 40224 58007 60006 875// 90000=
07790,1998-11-22 03:00:00,6,1023.1,0.7,45,-5,20000,27.78,,,40,5.2,6.4,,,,,,,,1,wg-a,,,,AAXX 22034 07790 02570 70415 10060 21050 30200 40231 53007 61000 70176 87500 90300 333 10064 20052 ////=
07790,1998-11-22 06:00:00,6,1021.2,-0.3,61,-1,20000,22.224,,,50,5,5.9,,,,,,,,,wg-a,,,,AAXX 22064 07790 02570 70512 10060 21010 30197 40212 55003 60006 875// 90600 333 10059 20050 61000=
07790,1998-11-22 09:00:00,6,1022,0.8,65,0,10000,31.484,,,40,,,,,,,,,,,wg-a,,,,AAXX 22094 07790 12560 /0417 10060 20000 30205 40220 53008 60006 86800 90900=
07790,1998-11-22 12:00:00,7,1020.1,-1.9,57,-1,10000,29.632,,,20,,,,,,,,,,,wg-a,,,,AAXX 22124 07790 12560 70216 10070 21010 30186 40201 58019 60006 87800 91200=
07790,1998-11-22 15:00:00,8,1019.3,-0.8,53,-1,10000,25.928,,,20,,,,,,,,,,,wg-a,,,,AAXX 22154 07790 12560 70214 10080 21010 30178 40193 56008 60006 87300 91500=
07790,1998-11-22 18:00:00,7,1018.4,-0.9,61,0,15000,22.224,,,360,5.6,7.7,,,,,,,,,wg-a,,,,AAXX 22184 07790 12565 /3612 10070 20000 30169 40184 58009 60006 85800 91800 333 10077 20056=
07790,1998-11-23 00:00:00,8,1016.5,-1.1,53,-1,15000,11.112,,,310,,,,,,,,,,,wg-a,,,,AAXX 23004 07790 12565 83106 10080 21010 30150 40165 56011 60006 878// 90000=
07790,1998-11-23 03:00:00,8,1015.2,-1.3,57,0,15000,14.816,,,360,,,,,,,,,,,wg-a,,,,AAXX 23034 07790 12565 83608 10080 20000 30137 40152 58013 60006 8/800 90300=
07790,1998-11-23 06:00:00,8,1014.5,-0.7,57,0,20000,18.52,,,310,6.8,8,,,,,,,,,wg-a,,,,AAXX 23064 07790 02570 73110 10080 20000 30130 40145 58007 60006 878// 90600 333 10080 20068 60004=
07790,1998-11-23 09:00:00,9,1015.1,0.6,57,1,500,18.52,,,330,,,,,,,,,,,wg-a,,,,AAXX 23094 07790 12600 73310 10090 20010 30136 40151 50006 60006 875// 90900=
07790,1998-11-23 12:00:00,11,1013.9,-1.2,47,0,500,29.632,,57.412,340,,,,,,,,,,,wg-a,,,,AAXX 23124 07790 12600 /3416 10110 20000 30124 40139 58012 60006 84500 91200 333 91031=
07790,1998-11-23 15:00:00,10,1013.4,-0.5,43,-2,11000,18.52,,,320,,,,,,,,,,,wg-a,,,,AAXX 23154 07790 12/61 /3210 10100 21020 30119 40134 56005 60006 91500=
07790,1998-11-23 18:00:00,9,1013.6,0.2,49,-1,25000,14.816,,61.116,290,7.1,11.1,,,,,,,,,wg-a,,,,AAXX 23184 07790 12675 /2908 10090 21010 30121 40136 53002 60006 85500 91800 333 10111 20071 91033=
07790,1998-11-23 21:00:00,8,1013.8,0.2,53,-1,25000,18.52,,,280,,,,,,,,,,,wg-a,,,,AAXX 23214 07790 12675 /2810 10080 21010 30123 40138 53002 60006 85500 92100=
07790,1998-11-24 00:00:00,7,1013.9,0.1,57,-1,11000,22.224,,,250,,,,,,,,,,,wg-a,,,,AAXX 24004 07790 12/61 /2512 10070 21010 30124 40139 50001 60006 90000=
07790,1998-11-24 03:00:00,7,1014,0.1,57,-1,18000,22.224,,,250,,,,,,,,,,,wg-a,,,,AAXX 24034 07790 12768 /2512 10070 21010 30125 40140 53001 60006 83570 90300=
07790,1998-11-24 06:00:00,8,1014.3,0.3,53,-1,11000,22.224,,,250,6.2,9,,,,,,,,,wg-a,,,,AAXX 24064 07790 02/61 /2512 10080 21010 30128 40143 53003 60006 90600 333 10090 20062 60004=
07790,1998-11-24 09:00:00,8,1015.8,1.5,61,1,12000,11.112,,,230,,,,,,,,,,,wg-a,,,,AAXX 24094 07790 12762 82306 10080 20010 30143 40158 53015 60006 8557/ 90900=
07790,1998-11-24 12:00:00,10,1015.6,-0.2,66,4,12000,3.704,,,210,,,,,,,,,,,wg-a,,,,AAXX 24124 07790 12562 82102 10100 20040 30141 40156 58002 60006 8587/ 91200=
07790,1998-11-24 15:00:00,10,1016,0.4,62,3,12000,3.704,,,250,,,,,,,,,,,wg-a,,,,AAXX 24154 07790 12562 82502 10100 20030 30145 40160 53004 60006 8587/ 91500=
07790,1998-11-24 18:00:00,8,1017,1,87,6,10000,0,,,0,7,10.6,,,,,,,,61,wg-a,,,,AAXX 24184 07790 02560 80000 10080 20060 30155 40170 51010 61000 76162 8687/ 91800 333 10106 20070 6000=
07790,1998-11-24 21:00:00,8,1017.8,0.8,81,5,15000,3.704,,,240,,,,,,,,,,1,wg-a,,,,AAXX 24214 07790 02565 82402 10080 20050 30163 40178 51008 61000 70162 8687/ 92100 333 ////=
07790,1998-11-25 00:00:00,8,1017.7,-0.1,81,5,15000,7.408,,,230,,,,,,,,,,1,wg-a,,,,AAXX 25004 07790 02465 82304 10080 20050 30162 40177 58001 61000 70162 8687/ 90000 333 ////=
07790,1998-11-25 03:00:00,8,1017,-0.7,76,4,15000,14.816,,,240,,,,,,,,,,,wg-a,,,,AAXX 25034 07790 12465 82408 10080 20040 30155 40170 58007 60006 8587/ 90300=
07790,1998-11-25 06:00:00,9,1017,-0,66,3,15000,7.408,,,250,7.6,9.2,,,,,,,,,wg-a,,,,AAXX 25064 07790 02565 82504 10090 20030 30155 40170 55000 60006 8687/ 90600 333 10092 20076 60004=
07790,1998-11-25 09:00:00,10,1017.3,0.3,71,5,17000,7.408,,,240,,,,,,,,,,,wg-a,,,,AAXX 25094 07790 12567 72404 10100 20050 30158 40173 51003 60006 8587/ 90900=
07790,1998-11-25 12:00:00,12,1016,-1.3,67,6,15000,3.704,,,60,,,,,,,,,,,wg-a,,,,AAXX 25124 07790 12565 70602 10120 20060 30145 40160 58013 60006 848// 91200=
07790,1998-11-25 15:00:00,12,1015,-1,67,6,15000,0,,,0,,,,,,,,,,,wg-a,,,,AAXX 25154 07790 12565 70000 10120 20060 30135 40150 56010 60006 878// 91500=
07790,1998-11-25 18:00:00,10,1015.1,0.1,82,7,15000,3.704,,,260,8.4,13.1,,,,,,,,61,wg-a,,,,AAXX 25184 07790 02565 82602 10100 20070 30136 40151 50001 61000 76162 878// 91800 333 10131 20084 6100=
07790,1998-11-25 21:00:00,9,1014.7,-0.4,93,8,15000,3.704,,,250,,,,1,,,,,,61,wg-a,,,,AAXX 25214 07790 12565 82502 10090 20080 30132 40147 58004 60017 76166 878// 92100=
07790,1998-11-26 00:00:00,9,1013.8,-0.9,93,8,15000,3.704,,,260,,,,1,,,,,,61,wg-a,,,,AAXX 26004 07790 02565 82602 10090 20080 30123 40138 56009 60016 76166 878// 90000 333 60017=
07790,1998-11-26 03:00:00,8,1012.5,-1.3,100,8,7000,3.704,,,240,,,,2,,,,,,61,wg-a,,,,AAXX 26034 07790 12357 82402 10080 20080 30110 40125 57013 60027 76166 875// 90300=
07790,1998-11-26 06:00:00,9,1012,-0.5,93,8,7000,0,,,0,8.2,9.9,,,,,,,,61,wg-a,,,,AAXX 26064 07790 02257 80000 10090 20080 30105 40120 55005 61000 76166 875// 90600 333 10099 20082 6007=
07790,1998-11-26 09:00:00,10,1012.9,0.9,93,9,6000,11.112,,,300,,,,1,,,,,,60,wg-a,,,,AAXX 26094 07790 12456 83006 10100 20090 30114 40129 53009 60017 76066 875// 90900=
07790,1998-11-26 12:00:00,11,1012.9,0,87,9,12000,3.704,,,280,,,,1,,,,,,21,wg-a,,,,AAXX 26124 07790 02362 82802 10110 20090 30114 40129 50000 60026 72162 878// 91200 333 60017=
07790,1998-11-26 15:00:00,11,1013.6,0.7,82,8,15000,3.704,,,330,,,,,,,,,,,wg-a,,,,AAXX 26154 07790 12565 /3302 10110 20080 30121 40136 53007 60006 86800 91500=
07790,1998-11-26 18:00:00,8,1015.4,1.8,93,7,12000,7.408,,,240,7.7,12.8,,,,,,,,,wg-a,,,,AAXX 26184 07790 12562 /2404 10080 20070 30139 40154 51018 60006 84800 91800 333 10128 20077=
07790,1998-11-26 21:00:00,9,1016.6,1.2,87,7,12000,7.408,,,240,,,,,,,,,,21,wg-a,,,,AAXX 26214 07790 02562 72404 10090 20070 30151 40166 51012 61000 72161 875// 92100 333 ////=
07790,1998-11-27 00:00:00,10,1016.6,0,93,9,12000,7.408,,,260,,,,,,,,,,3,wg-a,,,,AAXX 27004 07790 02562 72604 10100 20090 30151 40166 50000 61000 70361 875// 90000 333 ////=
07790,1998-11-27 03:00:00,8,1016,-0.6,87,6,12000,7.408,,,230,,,,,,,,,,,wg-a,,,,AAXX 27034 07790 12562 72304 10080 20060 30145 40160 58006 60006 875// 90300=
07790,1998-11-27 06:00:00,9,1015.8,-0.2,81,6,12000,14.816,,,240,7.5,10.2,,,,,2,,,,wg-a,,,,AAXX 27064 07790 02562 72408 10090 20060 30143 40158 57002 60006 875// 90600 333 10102 20075 60024=
07790,1998-11-27 09:00:00,9,1015.6,-0.2,81,6,20000,14.816,,,240,,,,,,,,,,,wg-a,,,,AAXX 27094 07790 12570 /2408 10090 20060 30141 40156 58002 60006 83870 90900=
07790,1998-11-27 12:00:00,13,1013.9,-1.6,72,8,20000,11.112,,,40,,,,,,,,,,,wg-a,,,,AAXX 27124 07790 12570 70406 10130 20080 30125 40139 58016 60006 83870 91200=
07790,1998-11-27 15:00:00,13,1013,-0.9,72,8,20000,11.112,,,10,,,,,,,,,,,wg-a,,,,AAXX 27154 07790 12570 50106 10130 20080 30116 40130 56009 60006 84570 91500=
07790,1998-11-27 18:00:00,9,1013,-0.1,81,6,20000,7.408,,,250,8.1,13.7,,,,,,,,,wg-a,,,,AAXX 27184 07790 12570 32504 10090 20060 30115 40130 58001 60006 83500 91800 333 10137 20081=
07790,1998-11-27 21:00:00,8,1012.7,-0.3,87,6,20000,7.408,,,270,,,,,,,,,,,wg-a,,,,AAXX 27214 07790 12670 42704 10080 20060 30112 40127 56003 60006 84500 92100=
07790,1998-11-28 00:00:00,11,1013,0.3,71,6,20000,25.928,,,30,,,,,,,,,,,wg-a,,,,AAXX 28004 07790 12570 /0314 10110 20060 30115 40130 53003 60006 85500 90000=
07790,1998-11-28 03:00:00,10,1013.1,0.1,76,6,20000,29.632,,,40,,,,,,,,,,,wg-a,,,,AAXX 28034 07790 12570 70416 10100 20060 30116 40131 50001 60006 875// 90300=
07790,1998-11-28 06:00:00,10,1014.1,1,71,5,20000,35.188,,,30,7.2,10.9,,,,,,,,2,wg-a,,,,AAXX 28064 07790 02570 70319 10100 20050 30126 40141 53010 60006 70262 878// 90600 333 10109 20072 60004=
07790,1998-11-28 12:00:00,12,1015.2,-0.4,62,5,40000,29.632,,,20,,,,,,,,,,1,wg-a,,,,AAXX 28124 07790 02582 /0216 10120 20050 30137 40152 58004 61000 70162 86800 91200 333 ////=
07790,1998-11-28 15:00:00,12,1015,-0.2,62,5,40000,14.816,,,360,,,,,,,,,,,wg-a,,,,AAXX 28154 07790 12682 23608 10120 20050 30135 40150 56002 60006 82200 91500=
07790,1998-11-28 18:00:00,8,1015.5,0.5,76,4,500,7.408,,,260,7.3,12.6,,,,,,,,,wg-a,,,,AAXX 28184 07790 12500 /2604 10080 20040 30140 40155 51005 60006 81500 91800 333 10126 20073=
07790,1998-11-29 00:00:00,9,1013.9,-1.1,66,3,500,7.408,,,270,,,,,,,,,,,wg-a,,,,AAXX 29004 07790 12500 /2704 10090 20030 30124 40139 58011 60006 81500 90000=
07790,1998-11-29 03:00:00,8,1012.7,-1.2,71,3,500,7.408,,,350,,,,,,,,,,,wg-a,,,,AAXX 29034 07790 12500 /3504 10080 20030 30112 40127 57012 60006 81530 90300=
07790,1998-11-29 06:00:00,6,1011.7,-1,75,2,500,7.408,,,260,5.7,10.3,,,,,,,,,wg-a,,,,AAXX 29064 07790 02500 /2604 10060 20020 30102 40117 57010 60006 81504 90600 333 10103 20057 61000=
07790,1998-11-29 09:00:00,10,1011.7,-0,62,3,50000,18.52,,,240,,,,,,,,,,,wg-a,,,,AAXX 29094 07790 12684 /2410 10100 20030 30102 40117 54000 60006 81502 90900=
07790,1998-11-29 12:00:00,14,1009.7,-1.9,51,4,40000,11.112,,,120,,,,,,,,,,,wg-a,,,,AAXX 29124 07790 12582 71206 10140 20040 30083 40097 58019 60006 82202 91200=
07790,1998-11-29 15:00:00,13,1009.1,-0.6,58,5,40000,11.112,,,150,,,,,,,,,,,wg-a,,,,AAXX 29154 07790 12582 71506 10130 20050 30077 40091 56006 60006 83802 91500=
07790,1998-11-29 18:00:00,7,1009.5,0.3,87,5,11000,7.408,,,250,5.4,15.7,,,,,,,,,wg-a,,,,AAXX 29184 07790 12/61 /2504 10070 20050 30080 40095 51003 60006 91800 333 10157 20054=
07790,1998-11-29 21:00:00,8,1010,0.5,81,5,25000,3.704,,,260,,,,,,,,,,,wg-a,,,,AAXX 29214 07790 12575 72602 10080 20050 30085 40100 51005 60006 875// 92100=
07790,1998-11-30 00:00:00,7,1009.9,-0.1,87,5,25000,3.704,,,260,,,,,,,,,,,wg-a,,,,AAXX 30004 07790 12575 52602 10070 20050 30084 40099 58001 60006 85500 90000=
07790,1998-11-30 03:00:00,9,1009.9,-0,76,5,25000,7.408,,,360,,,,,,,,,,,wg-a,,,,AAXX 30034 07790 12575 63604 10090 20050 30084 40099 55000 60006 86500 90300=
07790,1998-11-30 06:00:00,9,1009.9,-0,81,6,15000,11.112,,,250,6.8,9.2,,,,,,,,60,wg-a,,,,AAXX 30064 07790 02565 72506 10090 20060 30084 40099 55000 61000 76062 875// 90600 333 10092 20068 6100=
07790,1998-11-30 09:00:00,9,1010.7,0.8,93,8,15000,3.704,,,260,,,,1,,,,,,21,wg-a,,,,AAXX 30094 07790 12565 82602 10090 20080 30092 40107 51008 60017 72162 8322/ 90900=
07790,1998-11-30 12:00:00,11,1010.1,-0.5,82,8,8000,7.408,,,30,,,,2,,,,,,61,wg-a,,,,AAXX 30124 07790 02558 80304 10110 20080 30087 40101 58005 60036 76162 8522/ 91200 333 60027=
07790,1998-11-30 15:00:00,10,1010.1,-0.1,87,8,6000,7.408,,,70,,,,6,,,,,,61,wg-a,,,,AAXX 30154 07790 12456 80704 10100 20080 30086 40101 55001 60067 76166 8682/ 91500=
07790,1998-11-30 18:00:00,11,1010.2,0.2,82,8,8000,31.484,,61.116,70,8.4,11.4,,,,,,,,61,wg-a,,,,AAXX 30184 07790 02458 80717 10110 20080 30088 40102 51002 61000 76166 878// 91800 333 10114 20084 6004 91033=
07790,1998-11-30 21:00:00,11,1011,0.8,87,9,15000,38.892,,64.82,90,,,,1,,,,,,29,wg-a,,,,AAXX 30214 07790 12365 80921 10110 20090 30096 40110 53008 60017 72996 889// 92100 333 91035=
07790,1998-12-01 00:00:00,11,1012.5,1.4,87,9,9000,29.632,,64.82,90,,,,1,,,,,,61,wg-a,,,,AAXX 01004 07790 02459 80916 10110 20090 30110 40125 52014 60026 76196 889// 90000 333 60017 91035=
07790,1998-12-01 03:00:00,12,1013,0.6,76,8,18000,25.928,,50.004,70,,,,0,,,,,,2,wg-a,,,,AAXX 01034 07790 12468 80714 10120 20080 30116 40130 51006 60007 70262 889// 90300 333 91027=
07790,1998-12-01 06:00:00,12,1013.9,0.9,76,8,18000,29.632,,50.004,80,10.5,12,,,,,16,,,2,wg-a,,,,AAXX 01064 07790 02268 80816 10120 20080 30125 40139 53009 60006 70262 879// 90600 333 10120 20105 60164 91027=
07790,1998-12-01 12:00:00,12,1016.6,0.1,71,7,20000,29.632,,50.004,50,,,,,,,,,,,wg-a,,,,AAXX 01124 07790 12570 70516 10120 20070 30151 40166 50001 60006 86872 91200 333 91027=
07790,1998-12-01 15:00:00,11,1017,0.4,76,7,20000,22.224,,,30,,,,,,,,,,,wg-a,,,,AAXX 01154 07790 12570 70312 10110 20070 30155 40170 53004 60006 878// 91500=
07790,1998-12-01 18:00:00,11,1017.8,0.8,71,6,12000,14.816,,,40,10.9,12.6,,,,,,,,,wg-a,,,,AAXX 01184 07790 12562 70408 10110 20060 30163 40178 53008 60006 878// 91800 333 10126 20109=
07790,1998-12-01 21:00:00,11,1018.8,1,71,6,12000,11.112,,,30,,,,,,,,,,,wg-a,,,,AAXX 01214 07790 12562 80306 10110 20060 30173 40188 51010 60006 888// 92100=
07790,1998-12-02 00:00:00,9,1019,0.2,81,6,10000,7.408,,,330,,,,,,,,,,,wg-a,,,,AAXX 02004 07790 12560 83304 10090 20060 30175 40190 50002 60006 888// 90000=
07790,1998-12-02 03:00:00,9,1019.2,0.2,87,7,10000,3.704,,,230,,,,,,,,,,,wg-a,,,,AAXX 02034 07790 12360 82302 10090 20070 30177 40192 50002 60006 888// 90300=
07790,1998-12-02 06:00:00,10,1019.9,0.7,76,6,15000,11.112,,,20,9,11,,,,,,,,,wg-a,,,,AAXX 02064 07790 02465 /0206 10100 20060 30184 40199 53007 60006 878// 90600 333 10110 20090 60004=
07790,1998-12-02 09:00:00,11,1021.3,1.4,62,4,20000,14.816,,,30,,,,,,,,,,,wg-a,,,,AAXX 02094 07790 12570 70308 10110 20040 30198 40213 51014 60006 84131 90900=
07790,1998-12-02 12:00:00,12,1021,-0.3,67,6,20000,14.816,,,20,,,,,,,,,,,wg-a,,,,AAXX 02124 07790 12570 70208 10120 20060 30195 40210 58003 60006 86831 91200=
07790,1998-12-02 15:00:00,11,1020.6,-0.4,71,6,20000,11.112,,,350,,,,,,,,,,,wg-a,,,,AAXX 02154 07790 12570 83506 10110 20060 30191 40206 56004 60006 888// 91500=
07790,1998-12-02 18:00:00,10,1020.8,0.2,82,7,20000,0,,,0,9.6,11.9,,,,,,,,60,wg-a,,,,AAXX 02184 07790 02570 80000 10100 20070 30193 40208 53002 61000 76062 888// 91800 333 10119 20096 6100=
07790,1998-12-02 21:00:00,9,1020.8,-0,93,8,6000,3.704,,,250,,,,2,,,,,,60,wg-a,,,,AAXX 02214 07790 12256 72502 10090 20080 30193 40208 54000 60027 76062 875// 92100=
07790,1998-12-03 00:00:00,9,1019.9,-0.9,93,8,10000,7.408,,,240,,,,0,,,,,,21,wg-a,,,,AAXX 03004 07790 02260 72404 10090 20080 30184 40199 58009 60026 72162 875// 90000 333 60007=
07790,1998-12-03 03:00:00,10,1018.3,-1.6,93,9,6000,14.816,,,70,,,,2,,,,,,60,wg-a,,,,AAXX 03034 07790 12356 70708 10100 20090 30168 40183 56016 60027 76062 875// 90300=
07790,1998-12-03 06:00:00,11,1016.9,-1.4,94,10,6000,25.928,,,110,8.9,11.5,,,,,,,,17,wg-a,,,,AAXX 03064 07790 02456 71114 10110 20100 30154 40169 56014 61000 71796 879// 90600 333 10115 20089 6017=
07790,1998-12-03 09:00:00,13,1016,-0.8,82,10,18000,25.928,,,120,,,,4,,,,,,21,wg-a,,,,AAXX 03094 07790 12468 81214 10130 20100 30146 40160 58008 60047 72196 8597/ 90900=
07790,1998-12-03 12:00:00,13,1013.6,-2.4,72,8,20000,22.224,,,130,,,,,,,,,,1,wg-a,,,,AAXX 03124 07790 12570 81312 10130 20080 30122 40136 58024 60046 70196 84572 91200=
07790,1998-12-03 15:00:00,13,1010.9,-2.7,72,8,20000,7.408,,,200,,,,,,,,,,,wg-a,,,,AAXX 03154 07790 12570 82004 10130 20080 30095 40109 57027 60006 8657/ 91500=
07790,1998-12-03 21:00:00,12,1004.3,-3.7,82,9,6000,11.112,,,280,,,,2,,,,,,61,wg-a,,,,AAXX 03214 07790 12456 82806 10120 20090 30029 40043 58037 60027 76196 889// 92100=
07790,1998-12-04 00:00:00,12,999,-5.3,82,9,6000,29.632,,,50,,,,3,,,,,,80,wg-a,,,,AAXX 04004 07790 02456 80516 10120 20090 39976 49990 58053 60056 78096 889// 90000 333 60037=
07790,1998-12-04 03:00:00,11,996.1,-2.9,94,10,6000,35.188,,,50,,,,16,,,,,,63,wg-a,,,,AAXX 04034 07790 12456 80519 10110 20100 39947 49961 58029 60167 76396 885// 90300=
07790,1998-12-04 06:00:00,12,994,-2.1,82,9,12000,22.224,,,160,10.1,12.4,,,,,33,,,1,wg-a,,,,AAXX 04064 07790 02462 71612 10120 20090 39926 49940 55021 60006 70196 878// 90600 333 10124 20101 60334=
07790,1998-12-04 12:00:00,12,994.9,-0.7,94,11,1500,18.52,,,340,,,,9,,,,,,61,wg-a,,,,AAXX 04124 07790 02415 73410 10120 20110 39935 49949 57007 60096 76162 878// 91200 333 60097=
07790,1998-12-04 15:00:00,12,996.1,1.2,82,9,15000,18.52,,,340,,,,0,,,,,,25,wg-a,,,,AAXX 04154 07790 12465 73410 10120 20090 39947 49961 53012 60007 72586 878// 91500=
07790,1998-12-04 18:00:00,11,998.4,2.3,82,8,15000,18.52,,,320,10.8,12.4,,,,,,,,1,wg-a,,,,AAXX 04184 07790 12465 73210 10110 20080 39970 49984 53023 60006 70186 878// 91800 333 10124 20108=
07790,1998-12-04 21:00:00,12,999.8,1.4,54,3,25000,7.408,,,300,,,,,,,,,,,wg-a,,,,AAXX 04214 07790 12475 /3004 10120 20030 39984 49998 53014 60006 81250 92100=
07790,1998-12-05 00:00:00,8,1000.9,1,76,4,25000,7.408,,,180,,,,,,,,,,,wg-a,,,,AAXX 05004 07790 12475 /1804 10080 20040 39994 40009 51010 60006 81530 90000=
07790,1998-12-05 03:00:00,9,1001.5,0.7,66,3,20000,18.52,,,300,,,,,,,,,,,wg-a,,,,AAXX 05034 07790 12470 /3010 10090 20030 30001 40015 50007 60006 81200 90300=
07790,1998-12-05 06:00:00,9,1002.9,1.3,61,2,25000,18.52,,,320,6.3,13.3,,,,,10,,,,wg-a,,,,AAXX 05064 07790 02575 /3210 10090 20020 30014 40029 53013 60006 81501 90600 333 10133 20063 60104=
07790,1998-12-05 09:00:00,11,1005.2,2.4,54,2,25000,14.816,,,260,,,,,,,,,,,wg-a,,,,AAXX 05094 07790 12575 /2608 10110 20020 30038 40052 53024 60006 81500 90900=
07790,1998-12-05 12:00:00,12,1005.6,0.4,54,3,25000,14.816,,,330,,,,,,,,,,,wg-a,,,,AAXX 05124 07790 12575 /3308 10120 20030 30042 40056 50004 60006 81530 91200=
07790,1998-12-05 15:00:00,11,1006.2,0.6,62,4,25000,22.224,,,330,,,,,,,,,,,wg-a,,,,AAXX 05154 07790 12675 /3312 10110 20040 30048 40062 53006 60006 81530 91500=
07790,1998-12-05 18:00:00,10,1008.6,2.3,62,3,20000,11.112,,,290,6.5,13.9,,,,,,,,,wg-a,,,,AAXX 05184 07790 12670 22906 10100 20030 30071 40086 51023 60006 81530 91800 333 10139 20065=
07790,1998-12-05 21:00:00,10,1010.4,1.8,57,2,20000,11.112,,,250,,,,,,,,,,,wg-a,,,,AAXX 05214 07790 12670 42506 10100 20020 30089 40104 51018 60006 81530 92100=
07790,1998-12-06 00:00:00,8,1012.3,1.9,57,0,20000,7.408,,,290,,,,,,,,,,,wg-a,,,,AAXX 06004 07790 12670 42904 10080 20000 30108 40123 51019 60006 81530 90000=
07790,1998-12-06 03:00:00,6,1013.2,0.9,65,0,20000,14.816,,,240,,,,,,,,,,,wg-a,,,,AAXX 06034 07790 12670 42408 10060 20000 30117 40132 52009 60006 81530 90300=
07790,1998-12-06 06:00:00,7,1013,-0.2,66,1,20000,14.816,,,240,5.2,10.2,,,,,,,,,wg-a,,,,AAXX 06064 07790 02670 /2408 10070 20010 30115 40130 56002 60006 81530 90600 333 10102 20052 60004=
07790,1998-12-06 09:00:00,8,1013.5,0.5,71,3,20000,3.704,,,340,,,,,,,,,,,wg-a,,,,AAXX 06094 07790 12670 63402 10080 20030 30120 40135 51005 60006 86800 90900=
07790,1998-12-06 12:00:00,12,1013.1,-0.4,47,1,20000,25.928,,,350,,,,,,,,,,,wg-a,,,,AAXX 06124 07790 12670 /3514 10120 20010 30116 40131 55004 60006 81800 91200=
07790,1998-12-06 15:00:00,11,1013.9,0.8,43,-1,20000,25.928,,,300,,,,,,,,,,,wg-a,,,,AAXX 06154 07790 12570 /3014 10110 21010 30124 40139 53008 60006 81800 91500=
07790,1998-12-06 18:00:00,8,1016.5,2.6,81,5,500,25.928,,,60,6.5,12.7,,,,,,,,60,wg-a,,,,AAXX 06184 07790 02500 60614 10080 20050 30150 40165 53026 61000 76061 86500 91800 333 10127 20065 6000=
07790,1998-12-06 21:00:00,5,1018.2,1.7,93,4,12000,14.816,,,270,,,,5,,,,,,1,wg-a,,,,AAXX 06214 07790 12562 32708 10050 20040 30167 40182 51017 60057 70161 83800 92100=
07790,1998-12-07 00:00:00,4,1018.6,0.4,81,1,12000,18.52,,,250,,,,,,,,,,1,wg-a,,,,AAXX 07004 07790 12562 /2510 10040 20010 30171 40186 50004 60056 70161 81800 90000=
07790,1998-12-07 03:00:00,4,1019.2,0.6,81,1,12000,11.112,,,240,,,,,,,,,,,wg-a,,,,AAXX 07034 07790 12562 /2406 10040 20010 30177 40192 51006 60006 85800 90300=
07790,1998-12-07 06:00:00,3,1020.1,0.9,75,-1,20000,14.816,,,250,3.2,8.3,,,,,5,,,,wg-a,,,,AAXX 07064 07790 02570 32508 10030 21010 30186 40201 53009 60006 83800 90600 333 10083 20032 60054=
07790,1998-12-07 09:00:00,9,1022,1.9,40,-4,40000,11.112,,,320,,,,,,,,,,,wg-a,,,,AAXX 07094 07790 12582 63206 10090 21040 30205 40220 52019 60006 86841 90900=
07790,1998-12-07 12:00:00,9,1021.8,-0.2,29,-8,40000,18.52,,,360,,,,,,,,,,,wg-a,,,,AAXX 07124 07790 12582 /3610 10090 21080 30203 40218 58002 60006 84840 91200=
07790,1998-12-07 15:00:00,8,1021.8,-0,31,-8,11000,25.928,,,350,,,,,,,,,,,wg-a,,,,AAXX 07154 07790 12/61 /3514 10080 21080 30203 40218 55000 60006 91500=
07790,1998-12-07 18:00:00,4,1023.1,1.3,41,-8,40000,11.112,,,280,2.2,10,,,,,,,,,wg-a,,,,AAXX 07184 07790 12/82 02806 10040 21080 30216 40231 53013 60006 80000 91800 333 10100 20022=
07790,1998-12-07 21:00:00,4,1024,0.9,38,-9,500,7.408,,,250,,,,,,,,,,,wg-a,,,,AAXX 07214 07790 12/00 02504 10040 21090 30225 40240 53009 60006 80000 92100=
07790,1998-12-08 00:00:00,3,1024.1,0.1,52,-6,500,11.112,,,240,,,,,,,,,,,wg-a,,,,AAXX 08004 07790 12600 32406 10030 21060 30226 40241 50001 60006 83500 90000=
07790,1998-12-08 03:00:00,3,1024.6,0.5,56,-5,500,11.112,,,230,,,,,,,,,,,wg-a,,,,AAXX 08034 07790 12600 22306 10030 21050 30231 40246 52005 60006 82500 90300=
07790,1998-12-08 06:00:00,2,1025.7,1.1,55,-6,500,18.52,,,230,2,6.4,,,,,,,,,wg-a,,,,AAXX 08064 07790 02600 /2310 10020 21060 30242 40257 53011 60006 81500 90600 333 10064 20020 60004=
07790,1998-12-08 09:00:00,8,1027.6,1.9,42,-4,40000,11.112,,,230,,,,,,,,,,,wg-a,,,,AAXX 08094 07790 12582 /2306 10080 21040 30261 40276 53019 60006 81500 90900=
07790,1998-12-08 12:00:00,12,1027.2,-0.4,24,-8,40000,7.408,,,100,,,,,,,,,,,wg-a,,,,AAXX 08124 07790 12582 /1004 10120 21080 30257 40272 58004 60006 81100 91200=
07790,1998-12-08 18:00:00,3,1028.5,1.3,65,-3,25000,11.112,,,230,1.7,12.1,,,,,,,,11,wg-a,,,,AAXX 08184 07790 12/75 02306 10030 21030 30270 40285 52013 60006 71100 80000 91800 333 10121 20017=
07790,1998-12-08 21:00:00,4,1029.1,0.6,56,-4,25000,18.52,,,250,,,,,,,,,,,wg-a,,,,AAXX 08214 07790 12/75 02510 10040 21040 30276 40291 53006 60006 80000 92100=
07790,1998-12-09 00:00:00,4,1029.6,0.5,52,-5,25000,22.224,,,250,,,,,,,,,,,wg-a,,,,AAXX 09004 07790 12/75 02512 10040 21050 30281 40296 51005 60006 80000 90000=
07790,1998-12-09 03:00:00,5,1028.7,-0.9,48,-5,25000,22.224,,,240,,,,,,,,,,,wg-a,,,,AAXX 09034 07790 12/75 02412 10050 21050 30272 40287 58009 60006 80000 90300=
07790,1998-12-09 06:00:00,4,1028.3,-0.4,48,-6,25000,22.224,,,250,2.6,5.1,,,,,,,,,wg-a,,,,AAXX 09064 07790 02/75 02512 10040 21060 30268 40283 55004 60006 80000 90600 333 10051 20026 60004=
07790,1998-12-09 09:00:00,8,1029.4,1.1,39,-5,20000,22.224,,,220,,,,,,,,,,,wg-a,,,,AAXX 09094 07790 12670 12212 10080 21050 30279 40294 53011 60006 81500 90900=
07790,1998-12-09 12:00:00,13,1028.4,-1,35,-2,25000,14.816,,,170,,,,,,,,,,,wg-a,,,,AAXX 09124 07790 12675 41708 10130 21020 30269 40284 58010 60006 81104 91200=
07790,1998-12-09 15:00:00,10,1028.6,0.2,57,2,500,11.112,,,160,,,,,,,,,,,wg-a,,,,AAXX 09154 07790 12600 51606 10100 20020 30271 40286 53002 60006 81104 91500=
07790,1998-12-09 18:00:00,4,1028.6,-0,87,2,500,3.704,,,260,3.9,13.3,,,,,,,,,wg-a,,,,AAXX 09184 07790 12/00 22602 10040 20020 30271 40286 55000 60006 81034 91800 333 10133 20039=
07790,1998-12-09 21:00:00,5,1028.4,-0.2,81,2,25000,3.704,,,240,,,,,,,,,,,wg-a,,,,AAXX 09214 07790 12/75 /2402 10050 20020 30269 40284 55002 60006 83034 92100=
07790,1998-12-10 00:00:00,7,1026.9,-1.5,76,3,25000,3.704,,,260,,,,,,,,,,,wg-a,,,,AAXX 10004 07790 12675 /2602 10070 20030 30254 40269 58015 60006 82534 90000=
07790,1998-12-10 03:00:00,6,1025.6,-1.3,81,3,25000,7.408,,,230,,,,,,,,,,,wg-a,,,,AAXX 10034 07790 12575 72304 10060 20030 30241 40256 58013 60006 8553/ 90300=
07790,1998-12-10 06:00:00,8,1024.1,-1.5,71,3,25000,11.112,,,250,4,7.6,,,,,,,,,wg-a,,,,AAXX 10064 07790 02575 72506 10080 20030 30226 40241 56015 60006 8453/ 90600 333 10076 20040 60004=
07790,1998-12-10 09:00:00,9,1024.2,0.1,71,4,25000,7.408,,,240,,,,,,,,,,,wg-a,,,,AAXX 10094 07790 12575 82404 10090 20040 30227 40242 53001 60006 8287/ 90900=
07790,1998-12-10 12:00:00,11,1022.4,-1.8,66,5,25000,11.112,,,360,,,,,,,,,,3,wg-a,,,,AAXX 10124 07790 02575 83606 10110 20050 30209 40224 58018 61000 70362 8387/ 91200 333 6100=
07790,1998-12-10 15:00:00,11,1021.4,-1,76,7,14000,7.408,,,220,,,,,,,,,,1,wg-a,,,,AAXX 10154 07790 02564 /2204 10110 20070 30199 40214 56010 61000 70162 85830 91500 333 ////=
07790,1998-12-10 18:00:00,7,1021.3,-0.1,87,5,20000,11.112,,,230,6.2,11.3,,,,,,,,2,wg-a,,,,AAXX 10184 07790 12570 22306 10070 20050 30198 40213 58001 60006 70261 82830 91800 333 10113 20062=
07790,1998-12-10 21:00:00,8,1020.8,-0.5,81,5,20000,14.816,,,230,,,,,,,,,,,wg-a,,,,AAXX 10214 07790 12570 /2308 10080 20050 30193 40208 55005 60006 85800 92100=
07790,1998-12-11 00:00:00,7,1019.7,-1.1,81,4,20000,18.52,,,210,,,,,,,,,,,wg-a,,,,AAXX 11004 07790 12570 42110 10070 20040 30182 40197 56011 60006 82830 90000=
07790,1998-12-11 03:00:00,5,1018.8,-0.9,87,3,11000,14.816,,,220,,,,,,,,,,,wg-a,,,,AAXX 11034 07790 12/61 /2208 10050 20030 30173 40188 57009 60006 90300=
07790,1998-12-11 06:00:00,7,1017.9,-0.9,87,5,11000,14.816,,,220,5.2,8.4,,,,,,,,,wg-a,,,,AAXX 11064 07790 02/61 /2208 10070 20050 30164 40179 57009 60006 90600 333 10084 20052 61000=
07790,1998-12-11 09:00:00,8,1016.8,-1.1,93,7,10000,7.408,,,220,,,,1,,,,,,21,wg-a,,,,AAXX 11094 07790 12560 72204 10080 20070 30153 40168 58011 60017 72162 8587/ 90900=
07790,1998-12-11 12:00:00,11,1014.1,-2.7,82,8,16000,3.704,,,280,,,,,,,,,,3,wg-a,,,,AAXX 11124 07790 12566 82802 10110 20080 30126 40141 58027 60016 70362 8687/ 91200=
07790,1998-12-11 18:00:00,11,1014.8,1.7,82,8,25000,18.52,,,360,7,12.9,,1,,,,,,29,wg-a,,,,AAXX 11184 07790 02475 83610 10110 20080 30133 40148 51017 60006 72998 879// 91800 333 10129 20070 60017=
07790,1998-12-11 21:00:00,10,1017.1,2.3,93,9,10000,29.632,,,10,,,,,,,,,,61,wg-a,,,,AAXX 11214 07790 02460 80116 10100 20090 30156 40171 53023 61000 76162 878// 92100 333 ////=
07790,1998-12-12 00:00:00,11,1019.3,2.2,71,6,10000,25.928,,,350,,,,0,,,,,,2,wg-a,,,,AAXX 12004 07790 02460 83514 10110 20060 30178 40193 51022 60006 70262 878// 90000 333 60007=
07790,1998-12-12 03:00:00,10,1021.2,1.9,76,6,10000,14.816,,,350,,,,,,,,,,,wg-a,,,,AAXX 12034 07790 12460 /3508 10100 20060 30197 40212 53019 60006 86800 90300=
07790,1998-12-12 06:00:00,8,1023,1.8,76,4,12000,11.112,,,300,7.8,11,,,,,3,,,,wg-a,,,,AAXX 12064 07790 02562 /3006 10080 20040 30215 40230 53018 60006 85800 90600 333 10110 20078 60034=
07790,1998-12-12 09:00:00,11,1025.3,2.3,71,6,12000,14.816,,,350,,,,,,,,,,,wg-a,,,,AAXX 12094 07790 12562 33508 10110 20060 30238 40253 51023 60006 83500 90900=
07790,1998-12-12 12:00:00,13,1024.9,-0.4,67,7,25000,18.52,,,350,,,,,,,,,,,wg-a,,,,AAXX 12124 07790 12575 /3510 10130 20070 30234 40249 58004 60006 81531 91200=
07790,1998-12-12 15:00:00,12,1025.4,0.5,71,7,25000,14.816,,,10,,,,,,,,,,,wg-a,,,,AAXX 12154 07790 12/75 10108 10120 20070 30239 40254 53005 60006 81031 91500=
07790,1998-12-12 18:00:00,7,1026.7,1.3,87,5,25000,7.408,,,250,7.4,13.8,,,,,,,,,wg-a,,,,AAXX 12184 07790 12/75 32504 10070 20050 30252 40267 53013 60006 81031 91800 333 10138 20074=
07790,1998-12-12 21:00:00,7,1028,1.3,81,4,25000,7.408,,,300,,,,,,,,,,,wg-a,,,,AAXX 12214 07790 12575 33004 10070 20040 30265 40280 51013 60006 81531 92100=
07790,1998-12-13 00:00:00,7,1028.3,0.3,81,4,25000,11.112,,,240,,,,,,,,,,,wg-a,,,,AAXX 13004 07790 12575 /2406 10070 20040 30268 40283 50003 60006 81531 90000=
07790,1998-12-13 06:00:00,7,1028.4,0.4,76,3,25000,14.816,,,250,5.9,8.1,,,,,,,,,wg-a,,,,AAXX 13064 07790 02575 22508 10070 20030 30269 40284 53004 60006 81530 90600 333 10081 20059 60004=
07790,1998-12-13 09:00:00,12,1030,1.6,67,6,25000,3.704,,,250,,,,,,,,,,,wg-a,,,,AAXX 13094 07790 12475 62502 10120 20060 30285 40300 53016 60006 81532 90900=
07790,1998-12-13 12:00:00,14,1029.6,-0.4,63,7,25000,7.408,,,70,,,,,,,,,,,wg-a,,,,AAXX 13124 07790 12/75 70704 10140 20070 30281 40296 58004 60006 85032 91200=
07790,1998-12-13 15:00:00,13,1029.2,-0.4,77,9,25000,3.704,,,100,,,,,,,,,,,wg-a,,,,AAXX 13154 07790 12/75 /1002 10130 20090 30277 40292 55004 60006 83032 91500=
07790,1998-12-13 18:00:00,7,1030,0.8,93,6,12000,3.704,,,270,6.5,15.5,,,,,,,,,wg-a,,,,AAXX 13184 07790 12/62 /2702 10070 20060 30285 40300 53008 60006 81032 91800 333 10155 20065=
07790,1998-12-13 21:00:00,6,1030.9,0.9,93,5,15000,3.704,,,270,,,,,,,,,,,wg-a,,,,AAXX 13214 07790 12/65 /2702 10060 20050 30294 40309 53009 60006 81032 92100=
07790,1998-12-14 00:00:00,7,1030.6,-0.3,87,5,15000,7.408,,,250,,,,0,,,,,,,wg-a,,,,AAXX 14004 07790 02565 /2504 10070 20050 30291 40306 58003 60006 81532 90000 333 60007=
07790,1998-12-14 03:00:00,7,1030.3,-0.3,87,5,15000,11.112,,,240,,,,,,,,,,,wg-a,,,,AAXX 14034 07790 12565 72406 10070 20050 30288 40303 55003 60006 81532 90300=
07790,1998-12-14 06:00:00,9,1029.1,-1.2,71,4,15000,22.224,,,240,6.2,9.3,,,,,,,,,wg-a,,,,AAXX 14064 07790 02465 72412 10090 20040 30276 40291 58012 60006 81532 90600 333 10093 20062 60004=
07790,1998-12-14 09:00:00,9,1030.2,1.1,81,6,10000,11.112,,,240,,,,,,,,,,,wg-a,,,,AAXX 14094 07790 12560 72406 10090 20060 30287 40302 52011 60006 81532 90900=
07790,1998-12-14 12:00:00,13,1028.5,-1.7,82,10,15000,3.704,,,180,,,,,,,,,,,wg-a,,,,AAXX 14124 07790 12465 /1802 10130 20100 30270 40285 58017 60006 82532 91200=
07790,1998-12-14 15:00:00,12,1027.6,-0.9,88,10,15000,7.408,,,190,,,,,,,,,,,wg-a,,,,AAXX 14154 07790 12465 71904 10120 20100 30261 40276 58009 60006 82832 91500=
07790,1998-12-14 18:00:00,9,1027.8,0.2,87,7,8000,7.408,,,270,6.8,13.3,,,,,,,,,wg-a,,,,AAXX 14184 07790 12458 /2704 10090 20070 30263 40278 53002 60006 81832 91800 333 10133 20068=
07790,1998-12-15 00:00:00,8,1027.6,0.2,87,6,20000,7.408,,,240,,,,,,,,,,,wg-a,,,,AAXX 15004 07790 12570 72404 10080 20060 30261 40276 52002 60006 8387/ 90000=
07790,1998-12-15 06:00:00,6,1027.8,0.6,93,5,20000,11.112,,,230,5.6,8.5,,,,,,,,,wg-a,,,,AAXX 15064 07790 02570 22306 10060 20050 30263 40278 53006 60006 82500 90600 333 10085 20056 60004=
07790,1998-12-15 09:00:00,10,1028.7,0.9,82,7,20000,11.112,,,240,,,,0,,,,,,,wg-a,,,,AAXX 15094 07790 12570 22406 10100 20070 30272 40287 53009 60007 81501 90900=
07790,1998-12-15 12:00:00,14,1028.2,-0.5,72,9,20000,7.408,,,50,,,,,,,,,,,wg-a,,,,AAXX 15124 07790 12570 20504 10140 20090 30267 40282 58005 60006 81101 91200=
07790,1998-12-15 15:00:00,14,1027.4,-0.8,77,10,10000,7.408,,,110,,,,,,,,,,,wg-a,,,,AAXX 15154 07790 12/60 /1104 10140 20100 30259 40274 55008 60006 91500=
07790,1998-12-15 18:00:00,9,1028.2,0.8,93,8,12000,7.408,,,210,5.4,15.4,,,,,,,,,wg-a,,,,AAXX 15184 07790 12462 /2104 10090 20080 30267 40282 50008 60006 84600 91800 333 10154 20054=
07790,1998-12-15 21:00:00,6,1028.6,0.4,93,5,12000,7.408,,,270,,,,,,,,,,,wg-a,,,,AAXX 15214 07790 12462 32704 10060 20050 30271 40286 53004 60006 83600 92100=
07790,1998-12-16 00:00:00,7,1028.5,-0.1,87,5,12000,7.408,,,240,,,,,,,,,,,wg-a,,,,AAXX 16004 07790 12462 /2404 10070 20050 30270 40285 58001 60006 85600 90000=
07790,1998-12-16 03:00:00,7,1027.7,-0.8,87,5,12000,18.52,,,240,,,,,,,,,,,wg-a,,,,AAXX 16034 07790 12462 /2410 10070 20050 30262 40277 58008 60006 81600 90300=
07790,1998-12-16 06:00:00,6,1026.7,-1,93,5,12000,18.52,,,250,5.8,9.4,,,,,,,,,wg-a,,,,AAXX 16064 07790 02462 22510 10060 20050 30252 40267 56010 60006 82600 90600 333 10094 20058 60004=
07790,1998-12-16 09:00:00,8,1027.6,0.9,87,6,12000,14.816,,,230,,,,,,,,,,,wg-a,,,,AAXX 16094 07790 12462 72308 10080 20060 30261 40276 53009 60006 876// 90900=
07790,1998-12-16 12:00:00,14,1025.7,-1.9,67,8,20000,11.112,,,160,,,,,,,,,,,wg-a,,,,AAXX 16124 07790 12470 /1606 10140 20080 30242 40257 58019 60006 81600 91200=
07790,1998-12-16 15:00:00,12,1026,0.3,82,9,20000,3.704,,,150,,,,,,,,,,,wg-a,,,,AAXX 16154 07790 12470 /1502 10120 20090 30245 40260 53003 60006 86600 91500=
07790,1998-12-16 18:00:00,9,1026.8,0.8,87,7,15000,3.704,,,230,5.6,14.4,,,,,,,,,wg-a,,,,AAXX 16184 07790 12465 42302 10090 20070 30253 40268 52008 60006 84600 91800 333 10144 20056=
07790,1998-12-16 21:00:00,8,1028,1.2,93,7,20000,7.408,,,250,,,,,,,,,,,wg-a,,,,AAXX 16214 07790 12470 /2504 10080 20070 30265 40280 51012 60006 84500 92100=
07790,1998-12-17 00:00:00,6,1027.6,-0.4,93,5,20000,11.112,,,230,,,,,,,,,,,wg-a,,,,AAXX 17004 07790 12470 /2306 10060 20050 30261 40276 56004 60006 81500 90000=
07790,1998-12-17 03:00:00,6,1027,-0.6,87,4,18000,11.112,,,230,,,,0,,,,,,,wg-a,,,,AAXX 17034 07790 12468 42306 10060 20040 30255 40270 58006 60007 81501 90300=
07790,1998-12-17 06:00:00,5,1027.3,0.3,93,4,15000,11.112,,,230,5.3,9.3,,,,,,,,,wg-a,,,,AAXX 17064 07790 02465 /2306 10050 20040 30258 40273 53003 60006 81501 90600 333 10093 20053 60004=
07790,1998-12-17 12:00:00,16,1027.7,-0.8,63,9,12000,3.704,,,40,,,,,,,,,,,wg-a,,,,AAXX 17124 07790 12562 20402 10160 20090 30262 40277 58008 60006 81101 91200=
07790,1998-12-17 18:00:00,8,1029.6,1,93,7,6000,7.408,,,140,5.1,15.8,,,,,,,,,wg-a,,,,AAXX 17184 07790 12656 /1404 10080 20070 30281 40296 52010 60006 81500 91800 333 10158 20051=
07790,1998-12-17 21:00:00,7,1029,-0.6,93,6,7000,11.112,,,250,,,,,,,,,,,wg-a,,,,AAXX 17214 07790 12/57 02506 10070 20060 30275 40290 58006 60006 80000 92100=
07790,1998-12-18 00:00:00,6,1028.7,-0.3,81,3,7000,11.112,,,240,,,,,,,,,,,wg-a,,,,AAXX 18004 07790 12/57 /2406 10060 20030 30272 40287 58003 60006 90000=
07790,1998-12-18 03:00:00,6,1027.9,-0.8,75,2,8000,11.112,,,230,,,,,,,,,,,wg-a,,,,AAXX 18034 07790 12/58 02306 10060 20020 30264 40279 56008 60006 80000 90300=
07790,1998-12-18 06:00:00,6,1028.1,0.2,70,1,12000,11.112,,,230,4.9,8.7,,,,,,,,,wg-a,,,,AAXX 18064 07790 02/62 12306 10060 20010 30266 40281 53002 60006 80001 90600 333 10087 20049 60004=
07790,1998-12-18 09:00:00,10,1028.8,0.7,57,2,500,7.408,,,230,,,,,,,,,,,wg-a,,,,AAXX 18094 07790 12/00 42304 10100 20020 30273 40288 53007 60006 80001 90900=
07790,1998-12-18 12:00:00,17,1026.6,-2.1,34,1,500,11.112,,,130,,,,,,,,,,,wg-a,,,,AAXX 18124 07790 12/00 51306 10170 20010 30252 40266 58021 60006 80001 91200=
07790,1998-12-18 15:00:00,15,1025.9,-0.8,55,6,500,7.408,,,150,,,,,,,,,,,wg-a,,,,AAXX 18154 07790 12/00 31504 10150 20060 30244 40259 55008 60006 80001 91500=
07790,1998-12-18 18:00:00,8,1025.5,-0.4,76,4,15000,11.112,,,230,4.9,17.4,,,,,,,,,wg-a,,,,AAXX 18184 07790 12/65 12306 10080 20040 30240 40255 58004 60006 80001 91800 333 10174 20049=
07790,1998-12-18 21:00:00,8,1025,-0.5,76,4,20000,22.224,,,240,,,,,,,,,,,wg-a,,,,AAXX 18214 07790 12/70 02412 10080 20040 30235 40250 58005 60006 80000 92100=
07790,1998-12-19 00:00:00,8,1023.6,-1.4,66,2,20000,25.928,,,240,,,,,,,,,,,wg-a,,,,AAXX 19004 07790 12/70 02414 10080 20020 30221 40236 56014 60006 80000 90000=
07790,1998-12-19 03:00:00,8,1021.9,-1.7,61,1,20000,22.224,,,250,,,,,,,,,,,wg-a,,,,AAXX 19034 07790 12/70 02512 10080 20010 30204 40219 58017 60006 80000 90300=
07790,1998-12-19 06:00:00,6,1020.8,-1.1,65,0,20000,18.52,,,230,5.3,8.6,,,,,,,,,wg-a,,,,AAXX 19064 07790 02/70 02310 10060 20000 30193 40208 56011 60006 80000 90600 333 10086 20053 60004=
07790,1998-12-19 09:00:00,10,1020.1,-0.7,57,2,20000,11.112,,,230,,,,,,,,,,,wg-a,,,,AAXX 19094 07790 12570 /2306 10100 20020 30186 40201 58007 60006 81100 90900=
07790,1998-12-19 12:00:00,15,1017.1,-2.9,55,6,20000,7.408,,,130,,,,,,,,,,,wg-a,,,,AAXX 19124 07790 12570 /1304 10150 20060 30157 40171 58029 60006 81200 91200=
07790,1998-12-19 15:00:00,14,1015.5,-1.6,67,8,20000,3.704,,,100,,,,,,,,,,,wg-a,,,,AAXX 19154 07790 12570 /1002 10140 20080 30141 40155 56016 60006 81200 91500=
07790,1998-12-19 18:00:00,8,1014.5,-1.1,93,7,20000,7.408,,,240,4.6,15.7,,,,,,,,,wg-a,,,,AAXX 19184 07790 12570 32404 10080 20070 30130 40145 56011 60006 83500 91800 333 10157 20046=
07790,1998-12-19 21:00:00,8,1013.7,-0.8,87,6,20000,7.408,,,240,,,,,,,,,,,wg-a,,,,AAXX 19214 07790 12570 72404 10080 20060 30122 40137 57008 60006 82572 92100=
07790,1998-12-20 00:00:00,7,1012.4,-1.3,87,5,20000,11.112,,,230,,,,,,,,,,,wg-a,,,,AAXX 20004 07790 12570 72306 10070 20050 30109 40124 58013 60006 81572 90000=
07790,1998-12-20 03:00:00,6,1011.3,-1.1,87,4,20000,11.112,,,250,,,,,,,,,,,wg-a,,,,AAXX 20034 07790 12570 72506 10060 20040 30098 40113 56011 60006 81572 90300=
07790,1998-12-20 06:00:00,7,1009.5,-1.8,81,4,20000,11.112,,,240,6.1,8.2,,,,,,,,,wg-a,,,,AAXX 20064 07790 02570 /2406 10070 20040 30080 40095 56018 60006 81532 90600 333 10082 20061 60004=
07790,1998-12-20 09:00:00,9,1008.6,-0.9,76,5,20000,11.112,,,230,,,,,,,,,,11,wg-a,,,,AAXX 20094 07790 12570 32306 10090 20050 30071 40086 58009 60006 71111 81232 90900=
07790,1998-12-20 12:00:00,13,1006.2,-2.3,72,8,20000,11.112,,,130,,,,,,,,,,,wg-a,,,,AAXX 20124 07790 12570 61306 10130 20080 30048 40062 58023 60006 81202 91200=
07790,1998-12-20 15:00:00,12,1004,-2.2,82,9,10000,3.704,,,220,,,,,,,,,,,wg-a,,,,AAXX 20154 07790 12460 82202 10120 20090 30026 40040 58022 60006 83832 91500=
07790,1998-12-20 18:00:00,10,1001.1,-2.9,82,7,7000,7.408,,,190,5.9,14.4,,,,,,,,,wg-a,,,,AAXX 20184 07790 12457 81904 10100 20070 39997 40011 56029 60006 8487/ 91800 333 10144 20059=
07790,1998-12-20 21:00:00,9,998.5,-2.6,87,7,10000,7.408,,,200,,,,1,,,,,,21,wg-a,,,,AAXX 20214 07790 12560 82004 10090 20070 39971 49985 57026 60017 72162 8587/ 92100=
07790,1998-12-21 00:00:00,8,996.3,-2.2,87,6,10000,11.112,,,280,,,,0,,,,,,3,wg-a,,,,AAXX 21004 07790 02560 82806 10080 20060 39949 49963 57022 60026 70362 8597/ 90000 333 60007=
07790,1998-12-21 06:00:00,9,994.5,-0.4,71,4,15000,11.112,,,240,7.4,10.2,,,,,2,,,,wg-a,,,,AAXX 21064 07790 02565 72406 10090 20040 39931 49945 57004 60006 8557/ 90600 333 10102 20074 60024=
07790,1998-12-21 09:00:00,11,996.3,1.8,71,6,15000,14.816,,,250,,,,,,,,,,,wg-a,,,,AAXX 21094 07790 12565 /2508 10110 20060 39949 49963 53018 60006 84832 90900=
07790,1998-12-21 12:00:00,8,998.6,2.3,93,7,3000,14.816,,,310,,,,7,,,,,,63,wg-a,,,,AAXX 21124 07790 02530 83108 10080 20070 39972 49986 53023 60076 76362 888// 91200 333 60077=
07790,1998-12-21 15:00:00,9,1002.1,3.5,93,8,3000,35.188,,57.412,10,,,,4,,,,,,60,wg-a,,,,AAXX 21154 07790 12430 80119 10090 20080 30007 40021 53035 60047 76062 887// 91500 333 91031=
07790,1998-12-21 18:00:00,9,1007.4,5.2,81,6,8000,31.484,,57.412,10,7.9,13.8,,,,,,,,60,wg-a,,,,AAXX 21184 07790 02458 80117 10090 20060 30059 40074 53052 61000 76062 887// 91800 333 10138 20079 6005 91031=
07790,1998-12-21 21:00:00,10,1011.1,3.7,66,4,15000,14.816,,64.82,350,,,,0,,,,,,21,wg-a,,,,AAXX 21214 07790 12465 83508 10100 20040 30096 40111 53037 60007 72162 885// 92100 333 91035=
07790,1998-12-22 00:00:00,11,1012.8,1.7,54,2,15000,29.632,,64.82,50,,,,,,,,,,1,wg-a,,,,AAXX 22004 07790 12465 80516 10110 20020 30113 40128 51017 60016 70162 885// 90000 333 91035=
07790,1998-12-22 06:00:00,9,1017.7,2.5,53,0,15000,29.632,,,50,8.7,11.2,,,,,17,,,,wg-a,,,,AAXX 22064 07790 02465 70516 10090 20000 30162 40177 51025 60006 875// 90600 333 10112 20087 60174=
07790,1998-12-22 09:00:00,9,1020.8,3.1,43,-3,500,35.188,,,40,,,,,,,,,,,wg-a,,,,AAXX 22094 07790 12600 /0419 10090 21030 30193 40208 51031 60006 81100 90900=
07790,1998-12-22 12:00:00,9,1021.1,0.3,43,-3,50000,22.224,,,30,,,,,,,,,,,wg-a,,,,AAXX 22124 07790 12684 /0312 10090 21030 30196 40211 51003 60006 81100 91200=
07790,1998-12-22 15:00:00,9,1022.1,1,40,-4,50000,14.816,,,20,,,,,,,,,,,wg-a,,,,AAXX 22154 07790 12/84 00208 10090 21040 30206 40221 53010 60006 80000 91500=
07790,1998-12-22 18:00:00,4,1023,0.9,60,-3,45000,11.112,,,250,3.9,9.9,,,,,,,,,wg-a,,,,AAXX 22184 07790 12/83 02506 10040 21030 30215 40230 53009 60006 80000 91800 333 10099 20039=
07790,1998-12-22 21:00:00,3,1024.5,1.5,70,-2,500,7.408,,,230,,,,,,,,,,,wg-a,,,,AAXX 22214 07790 12/00 02304 10030 21020 30230 40245 53015 60006 80000 92100=
07790,1998-12-23 00:00:00,1,1025.4,0.9,80,-2,500,11.112,,,250,,,,,,,,,,,wg-a,,,,AAXX 23004 07790 12/00 02506 10010 21020 30239 40254 51009 60006 80000 90000=
07790,1998-12-23 03:00:00,1,1026,0.6,80,-2,10000,11.112,,,240,,,,,,,,,,,wg-a,,,,AAXX 23034 07790 12/60 /2406 10010 21020 30245 40260 50006 60006 90300=
07790,1998-12-23 06:00:00,1,1027,1,80,-2,500,11.112,,,240,0.7,4.1,,,,,,,,,wg-a,,,,AAXX 23064 07790 02/00 02406 10010 21020 30255 40270 53010 60006 80000 90600 333 10041 20007 60004=
07790,1998-12-23 09:00:00,6,1028.2,1.2,56,-2,500,7.408,,,220,,,,,,,,,,,wg-a,,,,AAXX 23094 07790 12/00 02204 10060 21020 30267 40282 53012 60006 80000 90900=
07790,1998-12-23 12:00:00,11,1027.2,-1,43,-1,500,11.112,,,120,,,,,,,,,,,wg-a,,,,AAXX 23124 07790 12/00 01206 10110 21010 30257 40272 58010 60006 80000 91200=
07790,1998-12-23 15:00:00,9,1026.9,-0.3,49,-1,500,3.704,,,80,,,,,,,,,,,wg-a,,,,AAXX 23154 07790 12/00 20802 10090 21010 30254 40269 55003 60006 80002 91500=
07790,1998-12-23 18:00:00,3,1027.1,0.2,81,0,500,11.112,,,240,0.9,11.2,,,,,,,,,wg-a,,,,AAXX 23184 07790 12/00 02406 10030 20000 30256 40271 53002 60006 80000 91800 333 10112 20009=
07790,1998-12-23 21:00:00,3,1027.4,0.3,75,-1,500,14.816,,,240,,,,,,,,,,0,wg-a,,,,AAXX 23214 07790 32600 22408 10030 21010 30259 40274 51003 700// 82500 92100=
07790,1998-12-24 00:00:00,3,1027,-0.4,75,-1,500,14.816,,,240,,,,,,,,,,0,wg-a,,,,AAXX 24004 07790 32600 32408 10030 21010 30255 40270 58004 700// 83500 90000=
07790,1998-12-24 03:00:00,4,1026,-1,65,-2,11000,14.816,,,240,,,,,,,,,,,wg-a,,,,AAXX 24034 07790 32/61 /2408 10040 21020 30245 40260 58010 90300=
07790,1998-12-24 06:00:00,3,1025.7,-0.3,75,-1,25000,14.816,,,240,2.5,4.4,,,,,,,,0,wg-a,,,,AAXX 24064 07790 12675 52408 10030 21010 30242 40257 56003 60004 700// 82501 90600 333 10044 20025=
07790,1998-12-24 12:00:00,11,1024,-1.9,54,2,20000,14.816,,,150,,,,,,,,,,0,wg-a,,,,AAXX 24124 07790 32670 71508 10110 20020 30225 40240 58019 700// 81532 91200=
07790,1998-12-24 15:00:00,10,1023.5,-0.5,66,4,10000,7.408,,,180,,,,,,,,,,0,wg-a,,,,AAXX 24154 07790 32660 81804 10100 20040 30220 40235 55005 700// 84572 91500=
07790,1998-12-24 18:00:00,7,1023.5,-0,81,4,10000,3.704,,,280,3.3,11.6,,,,,,,,0,wg-a,,,,AAXX 24184 07790 32660 82802 10070 20040 30220 40235 55000 700// 8557/ 91800 333 10116 20033=
07790,1998-12-24 21:00:00,7,1023.9,0.4,76,3,10000,7.408,,,220,,,,,,,,,,0,wg-a,,,,AAXX 24214 07790 32660 82204 10070 20030 30224 40239 52004 700// 885// 92100=
07790,1998-12-25 00:00:00,6,1024.3,0.4,81,3,10000,7.408,,,250,,,,,,,,,,0,wg-a,,,,AAXX 25004 07790 32660 82504 10060 20030 30228 40243 51004 700// 885// 90000=
07790,1998-12-25 03:00:00,6,1025.3,1,81,3,10000,7.408,,,250,,,,,,,,,,0,wg-a,,,,AAXX 25034 07790 32660 82504 10060 20030 30238 40253 53010 700// 885// 90300=
07790,1998-12-25 06:00:00,4,1026.4,1.1,93,3,15000,7.408,,,240,3.6,7.1,,,,,,,,0,wg-a,,,,AAXX 25064 07790 12565 /2404 10040 20030 30249 40264 53011 60004 700// 8383/ 90600 333 10071 20036=
07790,1998-12-25 09:00:00,6,1028.5,2.1,93,5,12000,11.112,,,250,,,,1,,,,,,60,wg-a,,,,AAXX 25094 07790 12462 82506 10060 20050 30270 40285 53021 60017 76062 875// 90900=
07790,1998-12-25 12:00:00,8,1028,-0.5,93,7,8000,3.704,,,240,,,,1,,,,,,61,wg-a,,,,AAXX 25124 07790 12458 82402 10080 20070 30265 40280 58005 60017 76162 878// 91200=
07790,1998-12-25 15:00:00,10,1028.4,0.4,87,8,12000,7.408,,,360,,,,,,,,,,1,wg-a,,,,AAXX 25154 07790 02462 /3604 10100 20080 30269 40284 53004 61000 70162 85800 91500 333 ////=
07790,1998-12-25 18:00:00,7,1028.9,0.5,93,6,12000,7.408,,,250,4.4,9.9,,,,,,,,1,wg-a,,,,AAXX 25184 07790 32462 /2504 10070 20060 30274 40289 52005 70161 85800 91800 333 10099 20044=
07790,1998-12-25 21:00:00,5,1029.3,0.4,93,4,15000,11.112,,,240,,,,,,,,,,11,wg-a,,,,AAXX 25214 07790 12465 22406 10050 20040 30278 40293 53004 60006 71111 82600 92100=
07790,1998-12-26 00:00:00,6,1029.2,-0.1,81,3,15000,14.816,,,240,,,,0,,,,,,11,wg-a,,,,AAXX 26004 07790 02465 /2408 10060 20030 30277 40292 58001 60006 71111 81600 90000 333 60007=
07790,1998-12-26 03:00:00,5,1028.9,-0.3,87,3,15000,18.52,,,250,,,,,,,,,,11,wg-a,,,,AAXX 26034 07790 12465 /2510 10050 20030 30274 40289 56003 60006 71100 81600 90300=
07790,1998-12-26 06:00:00,5,1028.8,-0.1,81,2,15000,22.224,,,240,4.6,7,,,,,2,,,,wg-a,,,,AAXX 26064 07790 02565 /2412 10050 20020 30273 40288 55001 60006 81100 90600 333 10070 20046 60024=
07790,1998-12-26 09:00:00,9,1030.1,1.3,66,3,25000,22.224,,,250,,,,,,,,,,,wg-a,,,,AAXX 26094 07790 12575 /2512 10090 20030 30286 40301 53013 60006 81101 90900=
07790,1998-12-26 12:00:00,15,1029,-1.1,51,5,25000,3.704,,,120,,,,,,,,,,,wg-a,,,,AAXX 26124 07790 12575 21202 10150 20050 30275 40290 58011 60006 82501 91200=
07790,1998-12-26 15:00:00,12,1028.5,-0.5,71,7,25000,7.408,,,170,,,,,,,,,,,wg-a,,,,AAXX 26154 07790 12575 41704 10120 20070 30270 40285 55005 60006 82501 91500=
07790,1998-12-26 18:00:00,9,1029,0.5,87,7,25000,7.408,,,220,4.9,14.7,,,,,,,,,wg-a,,,,AAXX 26184 07790 12575 52204 10090 20070 30275 40290 50005 60006 84501 91800 333 10147 20049=
07790,1998-12-26 21:00:00,6,1029,-0,93,5,11000,7.408,,,250,,,,,,,,,,,wg-a,,,,AAXX 26214 07790 12/61 /2504 10060 20050 30275 40290 54000 60006 92100=
07790,1998-12-27 00:00:00,7,1028.2,-0.8,87,5,15000,14.816,,,240,,,,,,,,,,11,wg-a,,,,AAXX 27004 07790 12565 /2408 10070 20050 30267 40282 58008 60006 71122 83501 90000=
07790,1998-12-27 03:00:00,7,1026.7,-1.5,81,4,15000,18.52,,,240,,,,,,,,,,,wg-a,,,,AAXX 27034 07790 12565 22410 10070 20040 30252 40267 58015 60006 82500 90300=
07790,1998-12-27 06:00:00,5,1026.6,-0.1,87,3,15000,11.112,,,250,5.2,8.9,,,,,,,,,wg-a,,,,AAXX 27064 07790 02/65 22506 10050 20030 30251 40266 56001 60006 80002 90600 333 10089 20052 60004=
07790,1998-12-27 09:00:00,9,1027.2,0.6,71,4,15000,11.112,,,230,,,,,,,,,,,wg-a,,,,AAXX 27094 07790 12565 42306 10090 20040 30257 40272 53006 60006 81532 90900=
07790,1998-12-27 12:00:00,15,1025.5,-1.7,55,6,15000,11.112,,,170,,,,,,,,,,,wg-a,,,,AAXX 27124 07790 12565 31706 10150 20060 30240 40255 58017 60006 82502 91200=
07790,1998-12-27 15:00:00,13,1024.8,-0.7,67,7,15000,7.408,,,170,,,,,,,,,,,wg-a,,,,AAXX 27154 07790 12565 31704 10130 20070 30233 40248 56007 60006 82502 91500=
07790,1998-12-27 18:00:00,7,1025.1,0.3,93,6,15000,7.408,,,230,4.7,14.9,,,,,,,,,wg-a,,,,AAXX 27184 07790 12565 32304 10070 20060 30236 40251 50003 60006 82502 91800 333 10149 20047=
07790,1998-12-27 21:00:00,6,1025,-0.1,87,4,15000,11.112,,,240,,,,,,,,,,,wg-a,,,,AAXX 27214 07790 12/65 /2406 10060 20040 30235 40250 58001 60006 80000 92100=
07790,1998-12-28 00:00:00,8,1024.3,-0.7,76,4,10000,14.816,,,240,,,,,,,,,,,wg-a,,,,AAXX 28004 07790 12/60 /2408 10080 20040 30228 40243 58007 60006 90000=
07790,1998-12-28 03:00:00,5,1023.7,-0.6,87,3,15000,7.408,,,220,,,,,,,,,,,wg-a,,,,AAXX 28034 07790 12/65 02204 10050 20030 30222 40237 57006 60006 80000 90300=
07790,1998-12-28 06:00:00,5,1023.9,0.2,81,2,18000,11.112,,,240,4.6,7.9,,,,,,,,,wg-a,,,,AAXX 28064 07790 02568 /2406 10050 20020 30224 40239 53002 60006 81500 90600 333 10079 20046 60004=
07790,1998-12-28 09:00:00,6,1024.3,0.4,81,3,18000,14.816,,,220,,,,,,,,,,,wg-a,,,,AAXX 28094 07790 12568 62208 10060 20030 30228 40243 53004 60006 81289 90900=
07790,1998-12-28 12:00:00,12,1022.8,-1.5,58,4,20000,3.704,,,210,,,,,,,,,,,wg-a,,,,AAXX 28124 07790 12570 72102 10120 20040 30213 40228 58015 60006 8257/ 91200=
07790,1998-12-28 18:00:00,8,1022,-0,87,6,18000,7.408,,,250,4.4,12.7,,,,,,,,,wg-a,,,,AAXX 28184 07790 12568 /2504 10080 20060 30205 40220 55000 60006 82570 91800 333 10127 20044=
07790,1998-12-28 21:00:00,6,1021.6,-0.4,87,4,20000,3.704,,,230,,,,,,,,,,,wg-a,,,,AAXX 28214 07790 12570 32302 10060 20040 30201 40216 56004 60006 81531 92100=
07790,1998-12-29 00:00:00,6,1021.3,-0.3,93,5,20000,7.408,,,240,,,,,,,,,,,wg-a,,,,AAXX 29004 07790 12570 72404 10060 20050 30198 40213 58003 60006 85501 90000=
07790,1998-12-29 03:00:00,8,1020.6,-0.7,81,5,20000,7.408,,,220,,,,,,,,,,,wg-a,,,,AAXX 29034 07790 12570 72204 10080 20050 30191 40206 58007 60006 8157/ 90300=
07790,1998-12-29 06:00:00,8,1020.6,-0,87,6,20000,7.408,,,260,5.4,8.5,,,,,,,,,wg-a,,,,AAXX 29064 07790 02570 82604 10080 20060 30191 40206 55000 60006 885// 90600 333 10085 20054 60004=
07790,1998-12-29 09:00:00,9,1021.5,0.9,81,6,7000,3.704,,,230,,,,,,,,,,,wg-a,,,,AAXX 29094 07790 12557 72302 10090 20060 30200 40215 53009 60006 8557/ 90900=
07790,1998-12-29 12:00:00,12,1020.5,-1,82,9,8000,3.704,,,90,,,,,,,,,,,wg-a,,,,AAXX 29124 07790 12558 70902 10120 20090 30190 40205 58010 60006 8657/ 91200=
07790,1998-12-29 15:00:00,11,1020.2,-0.3,87,9,8000,7.408,,,160,,,,1,,,,,,60,wg-a,,,,AAXX 29154 07790 12458 81604 10110 20090 30187 40202 55003 60017 76062 885// 91500=
07790,1998-12-29 18:00:00,9,1020.2,-0,100,9,500,7.408,,,230,7.6,12.9,,0,,,,,,1,wg-a,,,,AAXX 29184 07790 02500 82304 10090 20090 30187 40202 55000 60006 70162 885// 91800 333 10129 20076 60007=
07790,1998-12-29 21:00:00,9,1020.5,0.3,87,7,16000,7.408,,,230,,,,,,,,,,0,wg-a,,,,AAXX 29214 07790 32566 82304 10090 20070 30190 40205 51003 700// 888// 92100=
07790,1998-12-30 00:00:00,8,1020.3,-0.2,93,7,20000,7.408,,,260,,,,,,,,,,0,wg-a,,,,AAXX 30004 07790 32570 82604 10080 20070 30188 40203 58002 700// 888// 90000=
07790,1998-12-30 03:00:00,8,1019.9,-0.4,93,7,20000,3.704,,,230,,,,,,,,,,0,wg-a,,,,AAXX 30034 07790 32470 82302 10080 20070 30184 40199 58004 700// 888// 90300=
07790,1998-12-30 06:00:00,8,1020.1,0.2,93,7,18000,3.704,,,60,7.9,9.4,,,,,1,,,0,wg-a,,,,AAXX 30064 07790 12468 80602 10080 20070 30186 40201 53002 60014 700// 888// 90600 333 10094 20079=
07790,1998-12-30 09:00:00,9,1021.1,1,93,8,12000,3.704,,,280,,,,,,,,,,0,wg-a,,,,AAXX 30094 07790 32562 72802 10090 20080 30196 40211 53010 700// 878// 90900=
07790,1998-12-30 12:00:00,13,1020.3,-0.8,77,9,15000,7.408,,,130,,,,,,,,,,0,wg-a,,,,AAXX 30124 07790 32565 /1304 10130 20090 30188 40203 58008 700// 85830 91200=
07790,1998-12-30 15:00:00,12,1020.2,-0.1,82,9,15000,18.52,,,110,,,,,,,,,,60,wg-a,,,,AAXX 30154 07790 02565 81110 10120 20090 30187 40202 55001 61000 76062 878// 91500 333 ////=
07790,1998-12-30 18:00:00,9,1020.8,0.6,93,8,18000,7.408,,,310,7.7,14.3,,7,,,,,,21,wg-a,,,,AAXX 30184 07790 12468 83104 10090 20080 30193 40208 53006 60077 72186 878// 91800 333 10143 20077=
07790,1998-12-30 21:00:00,9,1020.9,0.1,100,9,6000,0,,,0,,,,5,,,,,,61,wg-a,,,,AAXX 30214 07790 12256 80000 10090 20090 30194 40209 50001 60057 76186 888// 92100=
07790,1998-12-31 00:00:00,8,1021,0.1,100,8,4000,3.704,,,40,,,,1,,,,,,61,wg-a,,,,AAXX 31004 07790 12240 80402 10080 20080 30195 40210 50001 60017 76186 885// 90000=
07790,1998-12-31 03:00:00,8,1019.7,-1.3,100,8,12000,0,,,0,,,,1,,,,,,21,wg-a,,,,AAXX 31034 07790 12262 /0000 10080 20080 30182 40197 58013 60017 72162 86500 90300=
07790,1998-12-31 06:00:00,9,1019,-0.7,93,8,7000,3.704,,,340,7.7,9.4,,7,,,21,,,80,wg-a,,,,AAXX 31064 07790 02257 83402 10090 20080 30175 40190 56007 60214 78086 888// 90600 333 10094 20077 60077=
07790,1998-12-31 12:00:00,14,1017.1,-1.7,88,12,6000,31.484,,61.116,150,,,,0,,,,,,25,wg-a,,,,AAXX 31124 07790 12456 81517 10140 20120 30157 40171 58017 60007 72586 8687/ 91200 333 91033=
07790,1998-12-31 18:00:00,14,1015.7,-0.3,82,11,10000,42.596,,59.264,150,8.7,14.1,,3,,,,,,1,wg-a,,,,AAXX 31184 07790 12460 71523 10140 20110 30143 40157 57003 60037 70186 85870 91800 333 10141 20087 91032=
07790,1998-12-31 21:00:00,12,1015.4,-0.3,94,11,9000,22.224,,61.116,170,,,,2,,,,,,60,wg-a,,,,AAXX 31214 07790 12459 81712 10120 20110 30140 40154 56003 60027 76062 878// 92100 333 91033=
