station_id,dh_utc,temperature,pression,pression_variation_3h,humidite,point_de_rosee,visibilite,vent_moyen,vent_rafales,vent_rafales_10min,vent_direction,temperature_min,temperature_max,pluie_1h,pluie_3h,pluie_6h,pluie_12h,pluie_24h,ensoleillement,temperature_sol,temps_omm,source,radiations,neige_au_sol,nebulosite,raw_msg
07207,1996-01-01 00:00:00,11,998.2,-0.9,100,11,8000,18.52,,,190,,,,,,,,,,,wg-a,,,,AAXX 01004 07207 12558 51910 10110 20110 39931 49982 58009 60006 84202 90000=
07207,1996-01-01 06:00:00,11,994.1,-2.5,100,11,1500,18.52,,,120,10.7,11.5,,,,,,,,10,wg-a,,,,AAXX 01064 07207 32315 81210 10110 20110 39890 49941 56025 71022 886// 90600 333 10115 20107=
07207,1996-01-01 12:00:00,10,992,-1.2,100,10,10000,29.632,,,100,,,,,,,,,,2,wg-a,,,,AAXX 01124 07207 12360 81016 10100 20100 39869 49920 58012 60026 70262 887// 91200=
07207,1996-01-01 18:00:00,9,991.5,0.9,100,9,3000,35.188,,68.524,50,9.3,10.7,,5,,,,,,63,wg-a,,,,AAXX 01184 07207 12330 80519 10090 20090 39864 49915 53009 60057 76362 887// 91800 333 10107 20093 91037=
07207,1996-01-02 00:00:00,9,1000.3,4.6,100,9,8000,29.632,,,350,,,,,,,,,,3,wg-a,,,,AAXX 02004 07207 12558 73516 10090 20090 39951 40003 53046 60016 70362 84230 90000=
07207,1996-01-02 06:00:00,10,1008.8,3.8,100,10,8000,25.928,,53.708,320,9,10.5,,0,,,,,,20,wg-a,,,,AAXX 02064 07207 12858 33214 10100 20100 30036 40088 53038 60007 72052 83030 90600 333 10105 20090 91029=
07207,1996-01-02 12:00:00,12,1015.9,3.1,94,11,12000,14.816,,50.004,300,,,,,,,,,,,wg-a,,,,AAXX 02124 07207 12562 23008 10120 20110 30107 40159 51031 60006 82200 91200 333 91027=
07207,1996-01-02 18:00:00,11,1018.7,1.6,94,10,15000,11.112,,,270,10.2,12.4,,,,,,,,,wg-a,,,,AAXX 02184 07207 12/65 32706 10110 20100 30135 40187 53016 60006 80001 91800 333 10124 20102=
07207,1996-01-03 00:00:00,10,1019.2,-0.5,100,10,8000,7.408,,,140,,,,,,,,,,,wg-a,,,,AAXX 03004 07207 12558 11404 10100 20100 30140 40192 58005 60006 81100 90000=
07207,1996-01-03 06:00:00,9,1018.4,-0.3,100,9,1200,29.632,,,140,9.3,10.7,,0,,,,,,10,wg-a,,,,AAXX 03064 07207 12312 81416 10090 20090 30131 40184 55003 60007 71011 886// 90600 333 10107 20093=
07207,1996-01-03 18:00:00,9,1015.9,-0.3,93,8,12000,29.632,,68.524,120,8.5,9.7,,,,,,,,,wg-a,,,,AAXX 03184 07207 12862 71216 10090 20080 30106 40159 55003 60006 84032 91800 333 10097 20085 91037=
07207,1996-01-04 00:00:00,9,1012.4,-2.8,93,8,8000,29.632,,68.524,130,,,,,,,,,,,wg-a,,,,AAXX 04004 07207 12658 71316 10090 20080 30072 40124 57028 60006 87500 90000 333 91037=
07207,1996-01-04 06:00:00,9,1006.1,-3.6,93,8,18000,31.484,,64.82,140,8.1,9.4,,,,,,,,,wg-a,,,,AAXX 04064 07207 12568 51417 10090 20080 30009 40061 56036 60006 82231 90600 333 10094 20081 91035=
07207,1996-01-04 12:00:00,13,1002.7,-1.3,88,11,12000,35.188,,72.228,180,,,,0,,,,,,50,wg-a,,,,AAXX 04124 07207 02562 81819 10130 20110 39976 40027 56013 60006 75052 8672/ 91200 333 60007 91039=
07207,1996-01-04 18:00:00,11,1003.4,1.2,100,11,15000,18.52,,,220,9.3,13.4,,,,,,,,2,wg-a,,,,AAXX 04184 07207 32865 42210 10110 20110 39983 40034 51012 70251 82032 91800 333 10134 20093=
07207,1996-01-05 00:00:00,11,1000.1,-2.2,100,11,8000,31.484,,,150,,,,,,,,,,,wg-a,,,,AAXX 05004 07207 12558 21517 10110 20110 39950 40001 58022 60006 82200 90000=
07207,1996-01-05 06:00:00,11,995.4,-1.7,100,11,10000,31.484,,57.412,150,9.3,11.6,,,,,,,,28,wg-a,,,,AAXX 05064 07207 32760 81517 10110 20110 39903 49954 56017 72811 885// 90600 333 10116 20093 91031=
07207,1996-01-05 12:00:00,11,997.2,1.2,82,8,18000,29.632,,,270,,,,0,,,,,,,wg-a,,,,AAXX 05124 07207 02568 72716 10110 20080 39921 49972 51012 60006 83206 91200 333 60007=
07207,1996-01-05 18:00:00,11,999.1,0.7,87,9,15000,18.52,,53.708,240,10.5,12.3,,,,,,,,,wg-a,,,,AAXX 05184 07207 32565 52410 10110 20090 39940 49991 51007 83260 91800 333 10123 20105 91029=
07207,1996-01-06 00:00:00,11,997,-2.2,82,8,12000,29.632,,,190,,,,,,,,,,,wg-a,,,,AAXX 06004 07207 12/62 31916 10110 20080 39919 49970 58022 60006 80002 90000=
07207,1996-01-06 06:00:00,11,989.7,-4.4,87,9,10000,64.82,,83.34,160,10.5,11.4,,,,,,,,,wg-a,,,,AAXX 06064 07207 12560 61635 10110 20090 39846 49897 58044 60006 82272 90600 333 10114 20105 91045=
07207,1996-01-06 12:00:00,11,984.5,-2.4,100,11,6000,57.412,,103.712,180,,,,1,,,,,,60,wg-a,,,,AAXX 06124 07207 02456 81831 10110 20110 39795 49845 56024 60016 76062 887// 91200 333 60017 91056=
07207,1996-01-06 18:00:00,13,981.8,-0.2,88,11,10000,38.892,,79.636,200,10,12.8,,,,,,,,1,wg-a,,,,AAXX 06184 07207 32560 52021 10130 20110 39768 49818 56002 70162 83260 91800 333 10128 20100 91043=
07207,1996-01-07 00:00:00,12,984.7,1.9,82,9,8000,50.004,,90.748,240,,,,2,,,,,,2,wg-a,,,,AAXX 07004 07207 02558 62427 10120 20090 39797 49847 53019 60026 70282 83262 90000 333 60027 91049=
07207,1996-01-07 06:00:00,12,990.2,3,82,9,15000,35.188,,72.228,250,10.8,13.1,,,,,,,,,wg-a,,,,AAXX 07064 07207 32565 62519 10120 20090 39851 49902 51030 84202 90600 333 10131 20108 91039=
07207,1996-01-07 12:00:00,11,996.3,2.7,82,8,12000,29.632,,,250,,,,,,,,,,,wg-a,,,,AAXX 07124 07207 12462 72516 10110 20080 39912 49963 51027 60006 83932 91200=
07207,1996-01-07 18:00:00,11,1000.6,3.1,82,8,10000,25.928,,,280,10.3,12.2,,0,,,,,,15,wg-a,,,,AAXX 07184 07207 12560 62814 10110 20080 39955 40006 53031 60007 71582 85960 91800 333 10122 20103=
07207,1996-01-08 00:00:00,12,1004.3,0.6,88,10,8000,29.632,,64.82,220,,,,,,,,,,,wg-a,,,,AAXX 08004 07207 12858 72216 10120 20100 39992 40043 50006 60006 87030 90000 333 91035=
07207,1996-01-08 06:00:00,13,1002,-0.9,77,9,20000,35.188,,,180,10.6,12.6,,,,,,,,1,wg-a,,,,AAXX 08064 07207 32670 61819 10130 20090 39969 40020 58009 70162 84530 90600 333 10126 20106=
07207,1996-01-08 12:00:00,12,997.9,-1.9,88,10,10000,50.004,,,150,,,,,,,,,,,wg-a,,,,AAXX 08124 07207 12660 81527 10120 20100 39928 49979 58019 60006 885// 91200=
07207,1996-01-08 18:00:00,12,995.9,-0.1,94,11,6000,50.004,,94.452,180,11.6,13,,2,,,,,,61,wg-a,,,,AAXX 08184 07207 12656 81827 10120 20110 39908 49959 58001 60027 76162 885// 91800 333 10130 20116 91051=
07207,1996-01-09 00:00:00,12,994.3,-0.4,94,11,6000,35.188,,83.34,180,,,,3,,,,,,60,wg-a,,,,AAXX 09004 07207 02456 81819 10120 20110 39892 49943 58004 60046 76062 887// 90000 333 60037 91045=
07207,1996-01-09 06:00:00,12,995.3,0.9,94,11,12000,35.188,,,210,11.3,12.5,,,,,,,,2,wg-a,,,,AAXX 09064 07207 32462 62119 10120 20110 39902 49953 53009 70262 85731 90600 333 10125 20113=
07207,1996-01-09 12:00:00,13,998.2,1.3,82,10,15000,42.596,,,200,,,,,,,,,,,wg-a,,,,AAXX 09124 07207 12565 42023 10130 20100 39931 49982 51013 60006 83830 91200=
07207,1996-01-09 18:00:00,12,1001.4,2.4,88,10,10000,25.928,,90.748,220,9.9,12.9,,,,,,,,,wg-a,,,,AAXX 09184 07207 32560 52214 10120 20100 39963 40014 52024 83270 91800 333 10129 20099 91049=
07207,1996-01-10 00:00:00,11,1003.2,0.6,94,10,12000,25.928,,,220,,,,,,,,,,,wg-a,,,,AAXX 10004 07207 12562 32214 10110 20100 39981 40032 51006 60006 83200 90000=
07207,1996-01-10 06:00:00,11,1004,0.2,87,9,12000,14.816,,,260,10.7,11.5,,,,,,,,,wg-a,,,,AAXX 10064 07207 12562 22608 10110 20090 39988 40040 51002 60006 82200 90600 333 10115 20107=
07207,1996-01-10 12:00:00,12,1006.1,0.1,76,8,15000,7.408,,,290,,,,,,,,,,,wg-a,,,,AAXX 10124 07207 12565 42904 10120 20080 30010 40061 53001 60006 83231 91200=
07207,1996-01-11 00:00:00,11,1002.6,-3,76,7,16000,35.188,,,190,,,,,,,,,,,wg-a,,,,AAXX 11004 07207 12566 61919 10110 20070 39974 40026 58030 60006 84260 90000=
07207,1996-01-11 06:00:00,10,1,,87,8,7000,64.82,,,180,9.7,11,,,,,,,,62,wg-a,,,,AAXX 11064 07207 32557 81835 10100 20080 76262 888// 90600 333 10110 20097=
07207,1996-01-11 12:00:00,12,1,,88,10,75000,46.3,,96.304,220,,,,4,,,,,,21,wg-a,,,,AAXX 11124 07207 02489 72225 10120 20100 60066 72162 84770 91200 333 60047 91052=
07207,1996-01-11 18:00:00,11,1,,82,8,15000,42.596,,75.932,210,9.5,12.3,,1,,,,,,25,wg-a,,,,AAXX 11184 07207 12465 62123 10110 20080 60017 72582 84960 91800 333 10123 20095 91041=
07207,1996-01-12 06:00:00,12,1,,82,9,15000,38.892,,72.228,230,11,12.1,,,,,,,,,wg-a,,,,AAXX 12064 07207 12565 52321 10120 20090 60006 85200 90600 333 10121 20110 91039=
07207,1996-01-12 12:00:00,12,1,,82,9,15000,38.892,,68.524,240,,,,,,,,,,,wg-a,,,,AAXX 12124 07207 12565 42421 10120 20090 60006 83231 91200 333 91037=
07207,1996-01-12 18:00:00,11,1,,87,9,8000,35.188,,64.82,260,11,12.2,,,,,,,,,wg-a,,,,AAXX 12184 07207 12558 62619 10110 20090 60006 85331 91800 333 10122 20110 91035=
07207,1996-01-13 00:00:00,11,1,,94,10,8000,31.484,,53.708,260,,,,,,,,,,,wg-a,,,,AAXX 13004 07207 12558 62617 10110 20100 60006 84230 90000 333 91029=
07207,1996-01-13 06:00:00,11,1,,82,8,12000,25.928,,,240,10.7,11.5,,,,,,,,,wg-a,,,,AAXX 13064 07207 12562 32414 10110 20080 60006 83230 90600 333 10115 20107=
07207,1996-01-13 12:00:00,12,1,,82,9,12000,35.188,,64.82,200,,,,,,,,,,2,wg-a,,,,AAXX 13124 07207 12562 62019 10120 20090 60006 70281 84221 91200 333 91035=
07207,1996-01-13 18:00:00,12,1,,76,8,8000,50.004,,68.524,180,9.8,12.1,,,,,,,,,wg-a,,,,AAXX 13184 07207 32558 71827 10120 20080 8772/ 91800 333 10121 20098 91037=
07207,1996-01-14 06:00:00,12,1,,88,10,10000,42.596,,64.82,160,11,11.7,,,,,,,,,wg-a,,,,AAXX 14064 07207 12660 81623 10120 20100 60006 885// 90600 333 10117 20110 91035=
07207,1996-01-14 12:00:00,12,1,,88,10,9000,42.596,,72.228,150,,,,,,,,,,,wg-a,,,,AAXX 14124 07207 12659 71523 10120 20100 60006 8557/ 91200 333 91039=
07207,1996-01-14 18:00:00,12,1,,88,10,8000,35.188,,,150,11.3,12.4,,,,,,,,,wg-a,,,,AAXX 14184 07207 12658 81519 10120 20100 60006 885// 91800 333 10124 20113=
07207,1996-01-15 00:00:00,11,1,,100,11,12000,22.224,,,140,,,,,,,,,,,wg-a,,,,AAXX 15004 07207 12662 81412 10110 20110 60006 885// 90000=
07207,1996-01-15 06:00:00,11,1,,94,10,6000,14.816,,,110,10.7,11.7,,,,,,,,,wg-a,,,,AAXX 15064 07207 12656 81108 10110 20100 60006 885// 90600 333 10117 20107=
07207,1996-01-15 12:00:00,11,1,,94,10,6000,18.52,,,100,,,,,,,,,,,wg-a,,,,AAXX 15124 07207 12656 71010 10110 20100 60006 875// 91200=
07207,1996-01-15 18:00:00,11,1,,87,9,6000,22.224,,,90,10.1,11,,,,,,,,,wg-a,,,,AAXX 15184 07207 12856 60912 10110 20090 60006 84031 91800 333 10110 20101=
07207,1996-01-16 00:00:00,10,1,,93,9,10000,14.816,,,90,,,,0,,,,,,,wg-a,,,,AAXX 16004 07207 02860 20908 10100 20090 60006 82030 90000 333 60007=
07207,1996-01-16 06:00:00,10,1,,93,9,4000,14.816,,,100,9,10.9,,,,,,,,,wg-a,,,,AAXX 16064 07207 32/40 31008 10100 20090 80001 90600 333 10109 20090=
07207,1996-01-16 12:00:00,12,1,,88,10,10000,14.816,,,100,,,,,,,,,,,wg-a,,,,AAXX 16124 07207 12/60 21008 10120 20100 60006 80001 91200=
07207,1996-01-16 18:00:00,11,1,,87,9,4000,18.52,,,100,9.3,12.1,,,,,,,,,wg-a,,,,AAXX 16184 07207 12/40 31010 10110 20090 60006 80002 91800 333 10121 20093=
07207,1996-01-17 00:00:00,9,1,,100,9,500,11.112,,,110,,,,0,,,,,,45,wg-a,,,,AAXX 17004 07207 02/05 91106 10090 20090 60006 74540 89/// 90000 333 60007=
07207,1996-01-17 06:00:00,7,1,,100,7,500,14.816,,,90,7.3,10.5,,,,,,,,45,wg-a,,,,AAXX 17064 07207 32/00 90908 10070 20070 74540 89/// 90600 333 10105 20073=
07207,1996-01-17 12:00:00,8,1,,100,8,800,25.928,,,100,,,,,,,,,,42,wg-a,,,,AAXX 17124 07207 12408 81014 10080 20080 60006 74241 886// 91200=
07207,1996-01-17 18:00:00,9,1,,100,9,3000,18.52,,,120,6.4,9.3,,,,,,,,10,wg-a,,,,AAXX 17184 07207 32430 81210 10090 20090 71042 886// 91800 333 10093 20064=
07207,1996-01-18 00:00:00,8,1,,100,8,6000,29.632,,,100,,,,,,,,,,3,wg-a,,,,AAXX 18004 07207 12456 81016 10080 20080 60006 70341 88600 90000=
07207,1996-01-18 06:00:00,9,1,,93,8,7000,22.224,,,120,7.8,9.3,,,,,,,,,wg-a,,,,AAXX 18064 07207 12457 81212 10090 20080 60006 886// 90600 333 10093 20078=
07207,1996-01-18 12:00:00,12,1,,94,11,10000,18.52,,53.708,170,,,,,,,,,,,wg-a,,,,AAXX 18124 07207 12560 61710 10120 20110 60006 86800 91200 333 91029=
07207,1996-01-18 18:00:00,11,1,,94,10,8000,14.816,,,200,8.9,12.9,,,,,,,,,wg-a,,,,AAXX 18184 07207 12658 82008 10110 20100 60006 885// 91800 333 10129 20089=
07207,1996-01-19 00:00:00,11,1,,94,10,10000,14.816,,,160,,,,,,,,,,,wg-a,,,,AAXX 19004 07207 12560 11608 10110 20100 60006 81200 90000=
07207,1996-01-19 06:00:00,11,1,,100,11,6000,22.224,,,160,10.2,11.4,,,,,,,,28,wg-a,,,,AAXX 19064 07207 32456 81612 10110 20110 72841 88600 90600 333 10114 20102=
07207,1996-01-19 12:00:00,11,1,,94,10,0,29.632,,,150,,,,,,,,,,,wg-a,,,,AAXX 19124 07207 12/// /1516 10110 20100 60006 91200=
07207,1996-01-19 18:00:00,10,1,,93,9,10000,31.484,,53.708,150,10.1,11.2,,,,,,,,,wg-a,,,,AAXX 19184 07207 12460 81517 10100 20090 60006 887// 91800 333 10112 20101 91029=
07207,1996-01-20 00:00:00,11,1,,94,10,8000,29.632,,53.708,150,,,,,,,,,,,wg-a,,,,AAXX 20004 07207 12458 81516 10110 20100 60006 887// 90000 333 91029=
07207,1996-01-20 06:00:00,10,1,,100,10,3000,22.224,,,120,9.9,10.9,,0,,,,,,,wg-a,,,,AAXX 20064 07207 12430 81212 10100 20100 60007 886// 90600 333 10109 20099=
07207,1996-01-20 12:00:00,10,1000.6,,93,9,15000,22.224,,61.116,200,,,,5,,,,,,29,wg-a,,,,AAXX 20124 07207 12465 72012 10100 20090 39955 40006 60057 72998 8679/ 91200 333 91033=
07207,1996-01-20 18:00:00,11,1000.8,0.5,87,9,20000,29.632,,,150,8.7,11.4,,,,,,,,,wg-a,,,,AAXX 20184 07207 32570 51516 10110 20090 39957 40008 53005 84202 91800 333 10114 20087=
07207,1996-01-21 00:00:00,10,1002.5,0.3,82,7,8000,31.484,,61.116,120,,,,,,,,,,,wg-a,,,,AAXX 21004 07207 12558 21217 10100 20070 39973 40025 51003 60006 82200 90000 333 91033=
07207,1996-01-21 06:00:00,7,1003,0.2,93,6,500,38.892,,61.116,100,7.1,11.2,,,,,,,,,wg-a,,,,AAXX 21064 07207 12600 41021 10070 20060 39978 40030 53002 60006 82101 90600 333 10112 20071 91033=
07207,1996-01-21 12:00:00,9,1002.7,-0.5,81,6,10000,35.188,,72.228,110,,,,,,,,,,,wg-a,,,,AAXX 21124 07207 12860 71119 10090 20060 39975 40027 58005 60006 8707/ 91200 333 91039=
07207,1996-01-21 18:00:00,9,1002.5,0.5,81,6,7000,38.892,,79.636,100,6,9.3,,,,,,,,,wg-a,,,,AAXX 21184 07207 12857 71021 10090 20060 39973 40025 53005 60006 8707/ 91800 333 10093 20060 91043=
07207,1996-01-22 00:00:00,9,1000.9,-0.8,81,6,8000,35.188,,79.636,100,,,,,,,,,,,wg-a,,,,AAXX 22004 07207 12858 81019 10090 20060 39957 40009 58008 60006 8807/ 90000 333 91043=
07207,1996-01-22 06:00:00,9,997.8,-1.5,81,6,8000,35.188,,61.116,90,8.5,9.5,,,,,,,,,wg-a,,,,AAXX 22064 07207 12/58 70919 10090 20060 39926 49978 58015 60006 8702/ 90600 333 10095 20085 91033=
07207,1996-01-22 12:00:00,9,996,-1.5,93,8,10000,29.632,,72.228,110,,,,1,,,,,,60,wg-a,,,,AAXX 22124 07207 02460 81116 10090 20080 39909 49960 58015 60016 76062 887// 91200 333 60017 91039=
07207,1996-01-22 18:00:00,9,999.1,1.1,93,8,15000,29.632,,64.82,120,8.7,10.2,,0,,,,,,1,wg-a,,,,AAXX 22184 07207 12565 41216 10090 20080 39939 49991 53011 60007 70161 8223/ 91800 333 10102 20087 91035=
07207,1996-01-23 00:00:00,9,999.3,-0.5,93,8,10000,18.52,,57.412,100,,,,,,,,,,,wg-a,,,,AAXX 23004 07207 12560 61010 10090 20080 39941 49993 58005 60006 84230 90000 333 91031=
07207,1996-01-23 06:00:00,7,996.1,-2,100,7,10000,22.224,,,50,6.5,9.9,,,,,,,,,wg-a,,,,AAXX 23064 07207 32560 20512 10070 20070 39909 49961 56020 82230 90600 333 10099 20065=
07207,1996-01-23 12:00:00,8,992.8,-2.2,100,8,4000,29.632,,,40,,,,0,,,,,,60,wg-a,,,,AAXX 23124 07207 02440 80416 10080 20080 39876 49928 58022 60016 76011 887// 91200 333 60007=
07207,1996-01-23 18:00:00,8,992.7,1,100,8,7000,18.52,,,10,7.3,8,,1,,,,,,21,wg-a,,,,AAXX 23184 07207 12657 80110 10080 20080 39876 49927 53010 60017 72162 885// 91800 333 10080 20073=
07207,1996-01-24 00:00:00,8,995.2,0.9,100,8,6000,18.52,,,320,,,,2,,,,,,61,wg-a,,,,AAXX 24004 07207 02456 83210 10080 20080 39900 49952 53009 60026 76162 887// 90000 333 60027=
07207,1996-01-24 06:00:00,7,996.6,0.9,100,7,8000,3.704,,,350,7.3,8.4,,0,,,,,,2,wg-a,,,,AAXX 24064 07207 12658 63502 10070 20070 39914 49966 53009 60007 70262 86500 90600 333 10084 20073=
07207,1996-01-24 12:00:00,11,999.8,1.4,82,8,18000,11.112,,,220,,,,,,,,,,,wg-a,,,,AAXX 24124 07207 12568 62206 10110 20080 39947 49998 50014 60006 86800 91200=
07207,1996-01-24 18:00:00,10,1001.3,1.1,87,8,25000,11.112,,,130,7.1,11.5,,,,,,,,,wg-a,,,,AAXX 24184 07207 12575 61306 10100 20080 39961 40013 52011 60006 86800 91800 333 10115 20071=
07207,1996-01-25 00:00:00,10,1001.9,-0.1,87,8,20000,11.112,,,110,,,,,,,,,,,wg-a,,,,AAXX 25004 07207 12570 31106 10100 20080 39967 40019 58001 60006 83200 90000=
07207,1996-01-25 12:00:00,5,1002.4,0.5,100,5,1500,29.632,,,100,,,,,,,,,,10,wg-a,,,,AAXX 25124 07207 12415 81016 10050 20050 39971 40024 51005 60006 71022 886// 91200=
07207,1996-01-25 18:00:00,4,1004.4,1.6,100,4,2500,18.52,,,70,3.9,6.8,,,,,,,,10,wg-a,,,,AAXX 25184 07207 12425 80710 10040 20040 39991 40044 52016 60006 71022 886// 91800 333 10068 20039=
07207,1996-01-26 00:00:00,3,1006.7,0.9,100,3,2000,22.224,,,80,,,,,,,,,,10,wg-a,,,,AAXX 26004 07207 12420 80812 10030 20030 30014 40067 51009 60006 71022 886// 90000=
07207,1996-01-26 06:00:00,2,1007.9,0.6,93,1,6000,18.52,,,60,2.3,4.3,,,,,,,,,wg-a,,,,AAXX 26064 07207 12556 80610 10020 20010 30026 40079 53006 60006 886// 90600 333 10043 20023=
07207,1996-01-26 12:00:00,1,1010,0.5,93,0,3000,25.928,,,60,,,,,,,,,,,wg-a,,,,AAXX 26124 07207 12530 80614 10010 20000 30046 40100 50005 60006 886// 91200=
07207,1996-01-26 18:00:00,1,1010.3,0.9,80,-2,500,38.892,,,50,0.6,2.3,,,,,,,,,wg-a,,,,AAXX 26184 07207 12500 80521 10010 21020 30049 40103 52009 60006 886// 91800 333 10023 20006=
07207,1996-01-27 06:00:00,-1,1010.9,-0.1,80,-4,8000,31.484,,64.82,70,-0.5,0.6,,,,,,,,,wg-a,,,,AAXX 27064 07207 12558 30717 11010 21040 30055 40109 56001 60006 82230 90600 333 10006 21005 91035=
07207,1996-01-27 12:00:00,1,1010.2,-1.3,80,-2,6000,31.484,,,80,,,,,,,,,,,wg-a,,,,AAXX 27124 07207 12556 70817 10010 21020 30048 40102 58013 60006 8323/ 91200=
07207,1996-01-27 18:00:00,2,1009.5,0.7,100,2,1500,25.928,,,90,-0.6,2,,,,,,,,10,wg-a,,,,AAXX 27184 07207 12415 80914 10020 20020 30041 40095 53007 60006 71022 886// 91800 333 10020 21006=
07207,1996-01-28 00:00:00,4,1008.4,-0.1,100,4,8000,42.596,,64.82,100,,,,,,,,,,,wg-a,,,,AAXX 28004 07207 12558 41023 10040 20040 30031 40084 57001 60006 82230 90000 333 91035=
07207,1996-01-28 06:00:00,4,1005.5,-0.9,100,4,500,38.892,,64.82,90,2,4.6,,,,,,,,,wg-a,,,,AAXX 28064 07207 12500 30921 10040 20040 30002 40055 56009 60006 82230 90600 333 10046 20020 91035=
07207,1996-01-28 12:00:00,6,1004.5,-0.8,93,5,6000,46.3,,72.228,80,,,,,,,,,,,wg-a,,,,AAXX 28124 07207 12656 80825 10060 20050 39993 40045 58008 60006 885// 91200 333 91039=
07207,1996-01-28 18:00:00,7,1004.3,0.8,87,5,8000,38.892,,68.524,80,4.1,8.6,,,,,,,,,wg-a,,,,AAXX 28184 07207 12658 70821 10070 20050 39991 40043 53008 60006 875// 91800 333 10086 20041 91037=
07207,1996-01-29 00:00:00,5,1006.2,0.9,93,4,8000,38.892,,57.412,70,,,,,,,,,,,wg-a,,,,AAXX 29004 07207 12658 80721 10050 20040 30009 40062 51009 60006 885// 90000 333 91031=
07207,1996-01-29 06:00:00,5,1006.9,0.6,93,4,2500,29.632,,57.412,90,4.3,7,,,,,,,,10,wg-a,,,,AAXX 29064 07207 12425 80916 10050 20040 30016 40069 53006 60006 71022 886// 90600 333 10070 20043 91031=
07207,1996-01-29 12:00:00,5,1009.5,0.9,93,4,3000,29.632,,,90,,,,,,,,,,,wg-a,,,,AAXX 29124 07207 12430 80916 10050 20040 30042 40095 51009 60006 886// 91200=
07207,1996-01-29 18:00:00,5,1011.2,1.3,87,3,3500,31.484,,,80,4.2,5.9,,,,,,,,,wg-a,,,,AAXX 29184 07207 12835 60817 10050 20030 30059 40112 53013 60006 84032 91800 333 10059 20042=
07207,1996-01-30 00:00:00,4,1013.7,1.2,93,3,8000,29.632,,,60,,,,,,,,,,,wg-a,,,,AAXX 30004 07207 12858 30616 10040 20030 30084 40137 50012 60006 83030 90000=
07207,1996-01-30 06:00:00,4,1015,0.8,93,3,3000,31.484,,,60,3.5,4.5,,,,,,,,,wg-a,,,,AAXX 30064 07207 12/30 00617 10040 20030 30097 40150 53008 60006 80000 90600 333 10045 20035=
07207,1996-01-30 12:00:00,7,1017.6,0.9,93,6,3000,25.928,,,70,,,,,,,,,,,wg-a,,,,AAXX 30124 07207 12730 70714 10070 20060 30123 40176 51009 60006 86531 91200=
07207,1996-01-30 18:00:00,8,1017.7,0.4,87,6,2500,31.484,,,70,3.8,8.8,,,,,,,,10,wg-a,,,,AAXX 30184 07207 12825 70717 10080 20060 30124 40177 52004 60006 71022 8703/ 91800 333 10088 20038=
07207,1996-01-31 00:00:00,6,1018.7,0.6,81,3,4000,29.632,,,100,,,,,,,,,,,wg-a,,,,AAXX 31004 07207 12840 51016 10060 20030 30134 40187 53006 60006 8503/ 90000=
07207,1996-01-31 06:00:00,2,1017.2,-0.7,93,1,8000,35.188,,57.412,90,2.2,8.1,,,,,,,,,wg-a,,,,AAXX 31064 07207 12858 20919 10020 20010 30118 40172 55007 60006 82030 90600 333 10081 20022 91031=
07207,1996-01-31 12:00:00,3,1016.8,-0.8,87,1,2500,31.484,,,80,,,,,,,,,,10,wg-a,,,,AAXX 31124 07207 12425 70817 10030 20010 30114 40168 58008 60006 71041 87600 91200=
07207,1996-01-31 18:00:00,2,1014.5,-0.6,87,0,3000,25.928,,57.412,80,1.8,4.1,,,,,,,,10,wg-a,,,,AAXX 31184 07207 12530 10814 10020 20000 30091 40145 57006 60006 71040 81100 91800 333 10041 20018 91031=
07207,1996-02-01 00:00:00,1,1012.5,-1.5,86,-1,4000,22.224,,,90,,,,,,,,,,2,wg-a,,,,AAXX 01004 07207 12440 80912 10010 21010 30071 40125 56015 60006 70241 886// 90000=
07207,1996-02-01 06:00:00,2,1010.5,-1.1,87,0,500,14.816,,,70,0.7,2.9,,,,,,,,,wg-a,,,,AAXX 01064 07207 12400 80708 10020 20000 30051 40105 56011 60006 886// 90600 333 10029 20007=
07207,1996-02-01 12:00:00,7,1010.3,0.2,93,6,12000,25.928,,50.004,110,,,,,,,,,,2,wg-a,,,,AAXX 01124 07207 12462 81114 10070 20060 30050 40103 50002 60006 70242 886// 91200 333 91027=
07207,1996-02-01 18:00:00,7,1010.2,0.7,81,4,7000,22.224,,,90,2.2,8.5,,,,,,,,,wg-a,,,,AAXX 01184 07207 12/57 00912 10070 20040 30049 40102 53007 60006 80000 91800 333 10085 20022=
07207,1996-02-02 00:00:00,4,1010.2,-0.3,87,2,8000,25.928,,,60,,,,,,,,,,,wg-a,,,,AAXX 02004 07207 12/58 00614 10040 20020 30049 40102 58003 60006 80000 90000=
07207,1996-02-02 06:00:00,3,1009.7,0.2,93,2,6000,25.928,,,60,2.7,7.2,,,,,,,,,wg-a,,,,AAXX 02064 07207 12/56 00614 10030 20020 30044 40097 53002 60006 80000 90600 333 10072 20027=
07207,1996-02-02 12:00:00,7,1011,0.7,76,3,10000,25.928,,,70,,,,,,,,,,,wg-a,,,,AAXX 02124 07207 12/60 20714 10070 20030 30057 40110 50007 60006 80002 91200=
07207,1996-02-02 18:00:00,7,1012.1,1.3,76,3,9000,25.928,,,50,2.7,8.5,,,,,,,,,wg-a,,,,AAXX 02184 07207 12859 50514 10070 20030 30068 40121 53013 60006 85030 91800 333 10085 20027=
07207,1996-02-03 00:00:00,4,1014.6,0.7,93,3,8000,29.632,,,50,,,,,,,,,,,wg-a,,,,AAXX 03004 07207 12858 60516 10040 20030 30093 40146 52007 60006 86030 90000=
07207,1996-02-03 06:00:00,3,1015.3,0.7,93,2,3000,25.928,,,70,3,6.7,,,,,,,,,wg-a,,,,AAXX 03064 07207 12/30 00714 10030 20020 30099 40153 53007 60006 80000 90600 333 10067 20030=
07207,1996-02-03 12:00:00,4,1016.7,0,93,3,3500,22.224,,,70,,,,,,,,,,2,wg-a,,,,AAXX 03124 07207 12435 60712 10040 20030 30114 40167 50000 60006 70241 86600 91200=
07207,1996-02-03 18:00:00,3,1017.3,1,75,-1,4000,22.224,,,30,1.7,5,,,,,,,,,wg-a,,,,AAXX 03184 07207 12440 70312 10030 21010 30119 40173 53010 60006 876// 91800 333 10050 20017=
07207,1996-02-04 00:00:00,4,1018.3,0.4,75,0,4000,25.928,,,60,,,,,,,,,,,wg-a,,,,AAXX 04004 07207 12440 80614 10040 20000 30129 40183 53004 60006 886// 90000=
07207,1996-02-04 06:00:00,3,1019.1,0.9,81,0,500,11.112,,,40,1.7,3.7,,,,,,,,,wg-a,,,,AAXX 04064 07207 12500 80406 10030 20000 30137 40191 53009 60006 886// 90600 333 10037 20017=
07207,1996-02-04 12:00:00,5,1020.2,0.5,60,-2,0,18.52,,,50,,,,,,,,,,,wg-a,,,,AAXX 04124 07207 12/// /0510 10050 21020 30149 40202 50005 60006 91200=
07207,1996-02-04 18:00:00,3,1020,0.5,75,-1,18000,11.112,,,20,2.2,5.9,,,,,,,,,wg-a,,,,AAXX 04184 07207 12668 70206 10030 21010 30146 40200 53005 60006 8553/ 91800 333 10059 20022=
07207,1996-02-05 00:00:00,2,1018.8,-0.8,75,-2,8000,7.408,,,90,,,,,,,,,,,wg-a,,,,AAXX 05004 07207 12858 30904 10020 21020 30134 40188 58008 60006 83030 90000=
07207,1996-02-05 06:00:00,5,1014.3,-2.4,70,0,10000,31.484,,,150,0.5,4.6,,,,,,,,,wg-a,,,,AAXX 05064 07207 12660 71517 10050 20000 30090 40143 56024 60006 875// 90600 333 10046 20005=
07207,1996-02-05 12:00:00,7,1007.9,-4.3,81,4,12000,53.708,,72.228,160,,,,,,,,,,,wg-a,,,,AAXX 05124 07207 12462 81629 10070 20040 30026 40079 58043 60006 887// 91200 333 91039=
07207,1996-02-05 18:00:00,8,996.6,-4.8,93,7,6000,68.524,,96.304,170,4.5,7.8,,5,,,,,,63,wg-a,,,,AAXX 05184 07207 12456 81737 10080 20070 39914 49966 56048 60057 76362 887// 91800 333 10078 20045 91052=
07207,1996-02-06 00:00:00,6,989.2,-3.1,100,6,500,11.112,,103.712,60,,,,1,,,,,,21,wg-a,,,,AAXX 06004 07207 02400 80606 10060 20060 39840 49892 58031 60146 72162 887// 90000 333 60017 91056=
07207,1996-02-06 06:00:00,6,989.5,2,93,5,6000,29.632,,64.82,330,4.8,8.8,,2,,,,,,21,wg-a,,,,AAXX 06064 07207 12456 83316 10060 20050 39843 49895 51020 60027 72162 8/72/ 90600 333 10088 20048 91035=
07207,1996-02-06 12:00:00,8,996.7,3.7,76,4,10000,53.708,,100.008,320,,,,,,,,,,1,wg-a,,,,AAXX 06124 07207 12560 53229 10080 20040 39915 49967 51037 60016 70162 84230 91200 333 91054=
07207,1996-02-06 18:00:00,7,1004.8,3.8,66,1,10000,46.3,,96.304,320,5.7,9,,,,,,,,,wg-a,,,,AAXX 06184 07207 32560 43225 10070 20010 39996 40048 53038 83230 91800 333 10090 20057 91052=
07207,1996-02-07 00:00:00,8,1005.8,-0.6,66,2,15000,14.816,,64.82,290,,,,,,,,,,,wg-a,,,,AAXX 07004 07207 12565 52908 10080 20020 30006 40058 58006 60006 82230 90000 333 91035=
07207,1996-02-07 06:00:00,7,993,-8.3,93,6,3000,50.004,,,170,,,,,,,,,,63,wg-a,,,,AAXX 07064 07207 32430 81727 10070 20060 39878 49930 57083 76362 887// 90600=
07207,1996-02-07 12:00:00,10,985.8,-0.7,71,5,7000,79.636,,118.528,280,,,,,,,,,,2,wg-a,,,,AAXX 07124 07207 12357 72843 10100 20050 39807 49858 58007 60136 70286 87600 91200 333 91064=
07207,1996-02-07 18:00:00,7,990.8,8.2,81,4,2500,87.044,,,330,6.7,11.1,,0,,,,,,25,wg-a,,,,AAXX 07184 07207 12325 73347 10070 20040 39856 49908 53082 60007 72582 879// 91800 333 10111 20067=
07207,1996-02-08 00:00:00,6,1009.6,6.6,75,2,6000,38.892,,122.232,320,,,,,,,,,,,wg-a,,,,AAXX 08004 07207 12456 73221 10060 20020 30043 40096 51066 60006 879// 90000 333 91066=
07207,1996-02-08 06:00:00,7,1016.6,4,76,3,15000,38.892,,83.34,320,5.1,7.5,,,,,,,,,wg-a,,,,AAXX 08064 07207 12565 33221 10070 20030 30113 40166 51040 60006 83200 90600 333 10075 20051 91045=
07207,1996-02-08 12:00:00,10,1021.1,1.3,62,3,25000,25.928,,64.82,320,,,,,,,,,,,wg-a,,,,AAXX 08124 07207 12575 23214 10100 20030 30158 40211 51013 60006 82200 91200 333 91035=
07207,1996-02-08 18:00:00,8,1021.6,0.4,76,4,15000,18.52,,,240,6.5,10.3,,,,,,,,15,wg-a,,,,AAXX 08184 07207 12465 52410 10080 20040 30163 40216 50004 60006 71511 84901 91800 333 10103 20065=
07207,1996-02-09 00:00:00,9,1018.5,-1.9,71,4,18000,29.632,,,210,,,,,,,,,,,wg-a,,,,AAXX 09004 07207 12568 32116 10090 20040 30132 40185 58019 60006 83200 90000=
07207,1996-02-09 06:00:00,10,1012.5,-2.8,71,5,12000,46.3,,,200,8.4,10.1,,,,,,,,,wg-a,,,,AAXX 09064 07207 12662 82025 10100 20050 30073 40125 56028 60006 8557/ 90600 333 10101 20084=
07207,1996-02-09 12:00:00,10,1007.7,-2.7,93,9,4000,57.412,,75.932,200,,,,2,,,,,,63,wg-a,,,,AAXX 09124 07207 02340 82031 10100 20090 30025 40077 57027 60026 76362 887// 91200 333 60027 91041=
07207,1996-02-09 18:00:00,10,1007.6,1,71,5,7000,31.484,,75.932,270,8.5,10.7,,,,,,,,2,wg-a,,,,AAXX 09184 07207 32557 72717 10100 20050 30024 40076 53010 70262 878// 91800 333 10107 20085 91041=
07207,1996-02-10 00:00:00,8,1009.5,0.9,81,5,10000,25.928,,83.34,280,,,,0,,,,,,,wg-a,,,,AAXX 10004 07207 02660 52814 10080 20050 30043 40095 51009 60016 85500 90000 333 60007 91045=
07207,1996-02-10 06:00:00,7,1010,0.3,70,2,8000,38.892,,83.34,280,6.6,9.8,,0,,,,,,81,wg-a,,,,AAXX 10064 07207 12458 72821 10070 20020 30047 40100 53003 60007 78182 878// 90600 333 10098 20066 91045=
07207,1996-02-10 12:00:00,9,1011.7,0.4,76,5,12000,22.224,,72.228,290,,,,,,,,,,15,wg-a,,,,AAXX 10124 07207 02462 62912 10090 20050 30065 40117 50004 60016 71582 86360 91200 333 61000 91039=
07207,1996-02-10 18:00:00,9,1012.9,1.2,81,6,15000,31.484,,68.524,290,7.2,10,,,,,,,,2,wg-a,,,,AAXX 10184 07207 32465 62917 10090 20060 30077 40129 53012 70282 86360 91800 333 10100 20072 91037=
07207,1996-02-11 00:00:00,7,1014.6,1.1,87,5,10000,18.52,,75.932,290,,,,0,,,,,,25,wg-a,,,,AAXX 11004 07207 02460 42910 10070 20050 30093 40146 51011 60016 72582 84300 90000 333 60007 91041=
07207,1996-02-11 06:00:00,8,1015.7,1.2,87,6,18000,22.224,,72.228,290,6.7,8.8,,1,,,,,,2,wg-a,,,,AAXX 11064 07207 12568 32912 10080 20060 30104 40157 51012 60017 70281 82230 90600 333 10088 20067 91039=
07207,1996-02-11 12:00:00,10,1017.5,0.4,87,8,12000,29.632,,68.524,280,,,,2,,,,,,2,wg-a,,,,AAXX 11124 07207 02462 72816 10100 20080 30123 40175 50004 60096 70281 86330 91200 333 60027 91037=
07207,1996-02-11 18:00:00,10,1017.3,0.2,87,8,20000,25.928,,57.412,280,5.8,11.2,,,,,,,,,wg-a,,,,AAXX 11184 07207 32470 62814 10100 20080 30121 40173 53002 85330 91800 333 10112 20058 91031=
07207,1996-02-12 00:00:00,10,1012.5,-3.3,93,9,12000,31.484,,57.412,250,,,,0,,,,,,,wg-a,,,,AAXX 12004 07207 02662 72517 10100 20090 30073 40125 58033 60006 875// 90000 333 60007 91031=
07207,1996-02-12 06:00:00,11,1002.9,-4.6,100,11,500,61.116,,90.748,260,9.8,11.2,,1,,,,,,2,wg-a,,,,AAXX 12064 07207 12700 82633 10110 20110 39978 40029 56046 60017 70282 885// 90600 333 10112 20098 91049=
07207,1996-02-12 12:00:00,10,1004.2,1.3,76,6,12000,35.188,,90.748,300,,,,0,,,,,,25,wg-a,,,,AAXX 12124 07207 02462 63019 10100 20060 39990 40042 51013 60026 72562 84331 91200 333 60007 91049=
07207,1996-02-12 18:00:00,10,1005,1.9,82,7,10000,38.892,,100.008,300,9.2,11.3,,,,,,,,,wg-a,,,,AAXX 12184 07207 32560 53021 10100 20070 39998 40050 53019 84202 91800 333 10113 20092 91054=
07207,1996-02-13 06:00:00,8,1011.6,1.7,71,3,15000,29.632,,68.524,340,7.7,10.3,,,,,,,,1,wg-a,,,,AAXX 13064 07207 32/65 23416 10080 20030 30063 40116 53017 70181 80001 90600 333 10103 20077 91037=
07207,1996-02-13 12:00:00,9,1014.6,1,61,2,25000,22.224,,,360,,,,,,,,,,,wg-a,,,,AAXX 13124 07207 12675 23612 10090 20020 30093 40146 51010 60006 82101 91200=
07207,1996-02-13 18:00:00,6,1018.1,2.9,81,3,15000,14.816,,,30,5.5,10.5,,,,,,,,,wg-a,,,,AAXX 13184 07207 12665 60308 10060 20030 30128 40181 53029 60006 85501 91800 333 10105 20055=
07207,1996-02-14 00:00:00,5,1024,2.6,81,2,15000,25.928,,,40,,,,,,,,,,,wg-a,,,,AAXX 14004 07207 12665 10414 10050 20020 30186 40240 52026 60006 81100 90000=
07207,1996-02-14 06:00:00,4,1027.5,1.7,75,0,15000,31.484,,53.708,40,4,6,,,,,,,,,wg-a,,,,AAXX 14064 07207 12565 20417 10040 20000 30221 40275 52017 60006 82130 90600 333 10060 20040 91029=
07207,1996-02-14 12:00:00,6,1031.4,0.7,61,-1,25000,38.892,,96.304,40,,,,,,,,,,,wg-a,,,,AAXX 14124 07207 12575 50421 10060 21010 30260 40314 50007 60006 85200 91200 333 91052=
07207,1996-02-14 18:00:00,5,1034,1.9,65,-1,20000,29.632,,57.412,40,3.9,7.2,,,,,,,,,wg-a,,,,AAXX 14184 07207 12670 70416 10050 21010 30286 40340 53019 60006 875// 91800 333 10072 20039 91031=
07207,1996-02-15 00:00:00,4,1037,1.1,65,-2,20000,31.484,,,50,,,,,,,,,,,wg-a,,,,AAXX 15004 07207 12/70 00517 10040 21020 30315 40370 53011 60006 80000 90000=
07207,1996-02-15 06:00:00,2,1038,0.6,75,-2,20000,11.112,,53.708,30,1.6,5,,,,,,,,,wg-a,,,,AAXX 15064 07207 12870 20306 10020 21020 30325 40380 50006 60006 81031 90600 333 10050 20016 91029=
07207,1996-02-15 12:00:00,5,1039.3,0,60,-2,20000,25.928,,,60,,,,,,,,,,,wg-a,,,,AAXX 15124 07207 12670 70614 10050 21020 30338 40393 50000 60006 875// 91200=
07207,1996-02-15 18:00:00,5,1037.6,0.2,70,0,18000,18.52,,,30,1.3,6.8,,,,,,,,,wg-a,,,,AAXX 15184 07207 12668 50310 10050 20000 30321 40376 53002 60006 84202 91800 333 10068 20013=
07207,1996-02-16 00:00:00,4,1037.6,-0.1,75,0,15000,11.112,,,10,,,,,,,,,,,wg-a,,,,AAXX 16004 07207 12665 10106 10040 20000 30321 40376 56001 60006 81100 90000=
07207,1996-02-16 06:00:00,6,1035.2,-0.6,87,4,20000,14.816,,,330,3.1,6.1,,,,,,,,,wg-a,,,,AAXX 16064 07207 12870 43308 10060 20040 30298 40352 58006 60006 84030 90600 333 10061 20031=
07207,1996-02-16 12:00:00,10,1034.7,-0.6,76,6,25000,25.928,,,320,,,,,,,,,,,wg-a,,,,AAXX 16124 07207 12675 83214 10100 20060 30294 40347 58006 60006 885// 91200=
07207,1996-02-16 18:00:00,10,1032.9,0.1,87,8,18000,22.224,,,320,6.1,10.6,,,,,,,,,wg-a,,,,AAXX 16184 07207 12668 83212 10100 20080 30276 40329 53001 60006 885// 91800 333 10106 20061=
07207,1996-02-17 00:00:00,9,1032.4,-0.4,81,6,15000,29.632,,,320,,,,,,,,,,,wg-a,,,,AAXX 17004 07207 12565 23216 10090 20060 30271 40324 58004 60006 82200 90000=
07207,1996-02-17 06:00:00,8,1031.4,0.1,87,6,18000,25.928,,53.708,350,8.1,10,,,,,,,,,wg-a,,,,AAXX 17064 07207 12/68 33514 10080 20060 30261 40314 51001 60006 80001 90600 333 10100 20081 91029=
07207,1996-02-17 12:00:00,10,1032,-0.3,71,5,17000,25.928,,,320,,,,,,,,,,,wg-a,,,,AAXX 17124 07207 12667 63214 10100 20050 30267 40320 58003 60006 85201 91200=
07207,1996-02-17 18:00:00,9,1029.5,-0.8,71,4,18000,25.928,,,290,7.5,11,,,,,,,,,wg-a,,,,AAXX 17184 07207 12668 72914 10090 20040 30242 40295 58008 60006 875// 91800 333 10110 20075=
07207,1996-02-18 00:00:00,9,1025.6,-2.4,81,6,18000,29.632,,,260,,,,,,,,,,,wg-a,,,,AAXX 18004 07207 12668 82616 10090 20060 30203 40256 58024 60006 885// 90000=
07207,1996-02-18 06:00:00,9,1017.4,-4.1,93,8,10000,38.892,,72.228,270,8.8,9.6,,,,,,,,,wg-a,,,,AAXX 18064 07207 12460 82721 10090 20080 30121 40174 56041 60006 887// 90600 333 10096 20088 91039=
07207,1996-02-18 12:00:00,10,1011.4,-1.4,82,7,9000,31.484,,96.304,310,,,,3,,,,,,20,wg-a,,,,AAXX 18124 07207 02459 83117 10100 20070 30062 40114 56014 60036 72085 887// 91200 333 60037 91052=
07207,1996-02-18 18:00:00,7,1006.8,-1.9,87,5,8000,50.004,,90.748,310,6.1,10.6,,0,,,,,,25,wg-a,,,,AAXX 18184 07207 12458 73127 10070 20050 30016 40068 55019 60007 72582 877// 91800 333 10106 20061 91049=
07207,1996-02-19 06:00:00,7,1000.1,0.9,87,5,10000,31.484,,90.748,350,5.1,8.9,,1,,,,,,25,wg-a,,,,AAXX 19064 07207 12460 63517 10070 20050 39949 40001 53009 60017 72582 86700 90600 333 10089 20051 91049=
07207,1996-02-19 12:00:00,4,1009.3,4.2,70,-1,15000,53.708,,87.044,20,,,,,,,,,,,wg-a,,,,AAXX 19124 07207 12565 70229 10040 21010 30040 40093 51042 60006 872// 91200 333 91047=
07207,1996-02-19 18:00:00,3,1013.8,2.5,60,-4,20000,31.484,,79.636,20,2.8,6.8,,,,,,,,26,wg-a,,,,AAXX 19184 07207 02570 50217 10030 21040 30084 40138 53025 61000 72682 85200 91800 333 10068 20028 //// 91043=
07207,1996-02-20 00:00:00,1,1015.1,-0.3,93,0,15000,31.484,,57.412,20,,,,,,,,,,85,wg-a,,,,AAXX 20004 07207 02465 60217 10010 20000 30097 40151 55003 61000 78511 86300 90000 333 6100 91031=
07207,1996-02-20 06:00:00,0,1015.9,0.3,93,-1,15000,31.484,,72.228,10,-0.9,3.4,,,,,,,,70,wg-a,,,,AAXX 20064 07207 02565 50117 10000 21010 30105 40159 53003 61000 77081 85200 90600 333 10034 21009 //// 91039=
07207,1996-02-20 12:00:00,3,1019.1,2.2,65,-3,15000,53.708,,94.452,30,,,,,,,,,,22,wg-a,,,,AAXX 20124 07207 02565 60329 10030 21030 30137 40191 51022 61000 72272 86200 91200 333 6100 91051=
07207,1996-02-20 18:00:00,1,1021.7,1.5,69,-4,15000,46.3,,83.34,20,-0.1,3.7,,,,,,,,26,wg-a,,,,AAXX 20184 07207 02565 80225 10010 21040 30163 40217 51015 61000 72687 888// 91800 333 10037 21001 //// 91045=
07207,1996-02-21 00:00:00,2,1022.6,-0.3,69,-3,12000,61.116,,87.044,20,,,,,,,,,,,wg-a,,,,AAXX 21004 07207 12562 80233 10020 21030 30172 40226 58003 60006 888// 90000 333 91047=
07207,1996-02-21 06:00:00,1,1023.3,0.8,80,-2,8000,38.892,,83.34,20,0.9,1.7,,,,,,,,,wg-a,,,,AAXX 21064 07207 12558 80221 10010 21020 30178 40233 53008 60006 88200 90600 333 10017 20009 91045=
07207,1996-02-21 12:00:00,2,1025.5,0.6,75,-2,8000,35.188,,68.524,30,,,,,,,,,,15,wg-a,,,,AAXX 21124 07207 12558 60319 10020 21020 30200 40255 50006 60006 71582 86200 91200 333 91037=
07207,1996-02-21 18:00:00,2,1026.7,1.7,60,-5,15000,31.484,,57.412,30,0.3,3.7,,,,,,,,15,wg-a,,,,AAXX 21184 07207 12565 60317 10020 21050 30212 40267 53017 60006 71522 86200 91800 333 10037 20003 91031=
07207,1996-02-22 00:00:00,-1,1028.5,0.2,80,-4,18000,14.816,,53.708,20,,,,,,,,,,,wg-a,,,,AAXX 22004 07207 12568 30208 11010 21040 30230 40285 53002 60006 83200 90000 333 91029=
07207,1996-02-22 06:00:00,3,1027.1,-0.8,75,-1,18000,18.52,,,300,-0.5,3.3,,,,,,,,,wg-a,,,,AAXX 22064 07207 12868 73010 10030 21010 30217 40271 56008 60006 85032 90600 333 10033 21005=
07207,1996-02-22 12:00:00,7,1024.7,-1.5,81,4,16000,29.632,,50.004,280,,,,1,,,,,,60,wg-a,,,,AAXX 22124 07207 02666 82816 10070 20040 30194 40247 58015 60016 76062 885// 91200 333 60017 91027=
07207,1996-02-22 18:00:00,9,1020.5,-0.8,93,8,18000,29.632,,64.82,310,2.8,9.3,,3,,,,,,21,wg-a,,,,AAXX 22184 07207 12668 73116 10090 20080 30152 40205 56008 60037 72162 8553/ 91800 333 10093 20028 91035=
07207,1996-02-23 00:00:00,6,1020.4,-0.1,75,2,18000,22.224,,61.116,340,,,,,,,,,,,wg-a,,,,AAXX 23004 07207 12568 53412 10060 20020 30151 40204 58001 60006 83230 90000 333 91033=
07207,1996-02-23 06:00:00,6,1018.8,-0.5,81,3,25000,7.408,,,340,5.3,9.2,,,,,,,,,wg-a,,,,AAXX 23064 07207 32875 53404 10060 20030 30135 40188 58005 84032 90600 333 10092 20053=
07207,1996-02-23 12:00:00,9,1018.1,-0.7,76,5,25000,22.224,,,220,,,,,,,,,,,wg-a,,,,AAXX 23124 07207 12575 62212 10090 20050 30128 40181 57007 60006 82231 91200=
07207,1996-02-23 18:00:00,10,1015.5,-0.7,93,9,25000,25.928,,,260,5.9,10.2,,,,,,,,,wg-a,,,,AAXX 23184 07207 12575 72614 10100 20090 30103 40155 56007 60006 878// 91800 333 10102 20059=
07207,1996-02-24 00:00:00,10,1012.9,-1.6,93,9,20000,31.484,,,240,,,,0,,,,,,,wg-a,,,,AAXX 24004 07207 02570 62417 10100 20090 30077 40129 58016 60006 86800 90000 333 60007=
07207,1996-02-24 06:00:00,10,1008.3,-2.3,87,8,10000,42.596,,72.228,240,8.9,10.2,,0,,,,,,2,wg-a,,,,AAXX 24064 07207 12560 62423 10100 20080 30031 40083 56023 60007 70262 86800 90600 333 10102 20089 91039=
07207,1996-02-24 12:00:00,11,1005.7,-1.2,87,9,10000,50.004,,83.34,240,,,,0,,,,,,62,wg-a,,,,AAXX 24124 07207 02460 82427 10110 20090 30005 40057 58012 60016 76286 8572/ 91200 333 60007 91045=
07207,1996-02-24 18:00:00,9,1003.2,-0.3,100,9,8000,31.484,,94.452,250,8.7,10.9,,6,,,,,,63,wg-a,,,,AAXX 24184 07207 12458 82517 10090 20090 39980 40032 56003 60067 76362 8572/ 91800 333 10109 20087 91051=
07207,1996-02-25 00:00:00,10,1002.2,-0.2,93,9,8000,31.484,,,240,,,,1,,,,,,21,wg-a,,,,AAXX 25004 07207 02458 82417 10100 20090 39970 40022 56002 60036 72162 8572/ 90000 333 60017=
07207,1996-02-25 06:00:00,11,998.5,-2,87,9,8000,50.004,,75.932,220,9.2,10.7,,0,,,,,,,wg-a,,,,AAXX 25064 07207 12458 82227 10110 20090 39934 49985 56020 60007 887// 90600 333 10107 20092 91041=
07207,1996-02-25 12:00:00,10,999.6,0.9,87,8,10000,42.596,,94.452,220,,,,1,,,,,,2,wg-a,,,,AAXX 25124 07207 02460 82223 10100 20080 39944 49996 50009 60026 70262 8/72/ 91200 333 60017 91051=
07207,1996-02-25 18:00:00,9,1002,1.8,76,5,20000,14.816,,72.228,270,7.3,10.7,,1,,,,,,2,wg-a,,,,AAXX 25184 07207 12570 72708 10090 20050 39968 40020 53018 60017 70262 878// 91800 333 10107 20073 91039=
07207,1996-02-26 00:00:00,7,1004.9,1.2,76,3,10000,11.112,,,10,,,,,,,,,,2,wg-a,,,,AAXX 26004 07207 12660 70106 10070 20030 39997 40049 53012 60016 70262 875// 90000=
07207,1996-02-26 06:00:00,6,1007.8,1.4,87,4,10000,7.408,,,320,5.1,8.9,,1,,,,,,,wg-a,,,,AAXX 26064 07207 12560 63204 10060 20040 30025 40078 53014 60017 8/800 90600 333 10089 20051=
07207,1996-02-26 12:00:00,11,1011.9,1.8,62,4,25000,7.408,,,280,,,,,,,,,,,wg-a,,,,AAXX 26124 07207 12475 52804 10110 20040 30067 40119 52018 60006 83302 91200=
07207,1996-02-26 18:00:00,8,1013.9,1.5,71,3,500,11.112,,,250,6.3,11.1,,,,,,,,,wg-a,,,,AAXX 26184 07207 12400 42506 10080 20030 30086 40139 53015 60006 83331 91800 333 10111 20063=
07207,1996-02-27 00:00:00,7,1016.4,0.9,76,3,25000,7.408,,,240,,,,,,,,,,,wg-a,,,,AAXX 27004 07207 12575 22404 10070 20030 30111 40164 52009 60006 82230 90000=
07207,1996-02-27 06:00:00,7,1017.1,0.5,81,4,20000,7.408,,,140,5,8.1,,,,,,,,,wg-a,,,,AAXX 27064 07207 12570 21404 10070 20040 30118 40171 53005 60006 82230 90600 333 10081 20050=
07207,1996-02-27 12:00:00,9,1018.7,0.6,76,5,25000,25.928,,,160,,,,,,,,,,,wg-a,,,,AAXX 27124 07207 12475 41614 10090 20050 30134 40187 51006 60006 83302 91200=
07207,1996-02-27 18:00:00,8,1018.6,0.6,81,5,25000,25.928,,,150,5.3,10.4,,,,,,,,,wg-a,,,,AAXX 27184 07207 12575 41514 10080 20050 30133 40186 53006 60006 83203 91800 333 10104 20053=
07207,1996-02-28 00:00:00,8,1019.9,0.4,76,4,25000,22.224,,,120,,,,,,,,,,,wg-a,,,,AAXX 28004 07207 12/75 31212 10080 20040 30146 40199 53004 60006 83031 90000=
07207,1996-02-28 06:00:00,5,1021.1,1,93,4,20000,14.816,,,90,4.8,8.6,,,,,,,,,wg-a,,,,AAXX 28064 07207 12/70 20908 10050 20040 30157 40211 53010 60006 82030 90600 333 10086 20048=
07207,1996-02-28 12:00:00,9,1023.9,0.9,66,3,12000,29.632,,50.004,80,,,,,,,,,,,wg-a,,,,AAXX 28124 07207 12/62 00816 10090 20030 30186 40239 51009 60006 80000 91200 333 91027=
07207,1996-02-28 18:00:00,8,1025.5,1.4,71,3,18000,25.928,,,60,4.6,10,,,,,,,,,wg-a,,,,AAXX 28184 07207 12568 40614 10080 20030 30202 40255 53014 60006 82231 91800 333 10100 20046=
07207,1996-02-29 06:00:00,6,1028.2,0.3,81,3,12000,29.632,,,50,4.1,7.7,,,,,,,,,wg-a,,,,AAXX 29064 07207 12462 80516 10060 20030 30228 40282 52003 60006 886// 90600 333 10077 20041=
07207,1996-02-29 12:00:00,5,1030.2,0.7,93,4,6000,22.224,,,70,,,,,,,,,,,wg-a,,,,AAXX 29124 07207 12456 80712 10050 20040 30248 40302 51007 60006 886// 91200=
07207,1996-02-29 18:00:00,6,1031,1,87,4,500,11.112,,,60,5.2,7.6,,,,,,,,,wg-a,,,,AAXX 29184 07207 12400 60606 10060 20040 30256 40310 53010 60006 86600 91800 333 10076 20052=
07207,1996-03-01 00:00:00,5,1032.9,0.9,87,3,6000,25.928,,50.004,40,,,,,,,,,,,wg-a,,,,AAXX 01004 07207 12/56 00414 10050 20030 30275 40329 51009 60006 80000 90000 333 91027=
07207,1996-03-01 06:00:00,5,1033.6,0.6,75,1,12000,25.928,,,50,4.3,6.2,,,,,,,,,wg-a,,,,AAXX 01064 07207 12862 30514 10050 20010 30282 40336 53006 60006 83030 90600 333 10062 20043=
07207,1996-03-01 12:00:00,10,1034.2,-1,71,5,20000,22.224,,,40,,,,,,,,,,,wg-a,,,,AAXX 01124 07207 12/70 10412 10100 20050 30289 40342 58010 60006 81030 91200=
07207,1996-03-01 18:00:00,9,1032.1,-0.6,81,6,15000,11.112,,,20,4.3,11.9,,,,,,,,,wg-a,,,,AAXX 01184 07207 12465 80206 10090 20060 30268 40321 55006 60006 886// 91800 333 10119 20043=
07207,1996-03-02 00:00:00,7,1030.9,-0.7,81,4,8000,14.816,,,20,,,,,,,,,,,wg-a,,,,AAXX 02004 07207 12458 80208 10070 20040 30255 40309 58007 60006 886// 90000=
07207,1996-03-02 06:00:00,6,1028.7,-0.5,87,4,10000,22.224,,,30,6,9.4,,,,,,,,,wg-a,,,,AAXX 02064 07207 12460 80312 10060 20040 30233 40287 56005 60006 886// 90600 333 10094 20060=
07207,1996-03-02 12:00:00,8,1028.2,-0.8,81,5,6000,25.928,,,40,,,,,,,,,,,wg-a,,,,AAXX 02124 07207 12456 80414 10080 20050 30229 40282 58008 60006 886// 91200=
07207,1996-03-02 18:00:00,6,1026.7,0.3,70,1,20000,31.484,,53.708,40,6.1,9.7,,,,,,,,,wg-a,,,,AAXX 02184 07207 12570 50417 10060 20010 30213 40267 53003 60006 8/200 91800 333 10097 20061 91029=
07207,1996-03-03 00:00:00,4,1026.1,-0.9,81,1,20000,11.112,,,50,,,,,,,,,,,wg-a,,,,AAXX 03004 07207 12570 30506 10040 20010 30207 40261 58009 60006 83200 90000=
07207,1996-03-03 06:00:00,6,1022.8,-1.3,93,5,10000,11.112,,,320,3.3,6.1,,,,,,,,,wg-a,,,,AAXX 03064 07207 12460 83206 10060 20050 30175 40228 56013 60006 887// 90600 333 10061 20033=
07207,1996-03-03 12:00:00,9,1022.6,0,93,8,12000,7.408,,,170,,,,,,,,,,,wg-a,,,,AAXX 03124 07207 12662 71704 10090 20080 30173 40226 50000 60016 875// 91200=
07207,1996-03-03 18:00:00,7,1022.4,0.4,87,5,6000,22.224,,,30,6.1,8.8,,,,,,,,,wg-a,,,,AAXX 03184 07207 32456 80312 10070 20050 30171 40224 53004 886// 91800 333 10088 20061=
07207,1996-03-04 00:00:00,7,1023.2,0.3,87,5,8000,18.52,,,20,,,,,,,,,,,wg-a,,,,AAXX 04004 07207 12658 80210 10070 20050 30179 40232 53003 60006 885// 90000=
07207,1996-03-04 06:00:00,5,1023.2,0.5,81,2,12000,22.224,,,40,5.3,7.3,,,,,,,,2,wg-a,,,,AAXX 04064 07207 32662 80412 10050 20020 30178 40232 53005 70252 8653/ 90600 333 10073 20053=
07207,1996-03-04 12:00:00,7,1025.1,0.7,70,2,12000,18.52,,,60,,,,,,,,,,,wg-a,,,,AAXX 04124 07207 12662 80610 10070 20020 30198 40251 51007 60006 885// 91200=
07207,1996-03-04 18:00:00,8,1025.1,0.6,76,4,12000,18.52,,,20,4.9,8.4,,,,,,,,,wg-a,,,,AAXX 04184 07207 12662 70210 10080 20040 30198 40251 53006 60006 875// 91800 333 10084 20049=
07207,1996-03-05 00:00:00,6,1026.9,0.3,75,2,12000,22.224,,,20,,,,,,,,,,,wg-a,,,,AAXX 05004 07207 12662 80212 10060 20020 30215 40269 51003 60006 885// 90000=
07207,1996-03-05 06:00:00,7,1027.8,0.5,66,1,15000,11.112,,,100,5.7,7.5,,,,,,,,,wg-a,,,,AAXX 05064 07207 12665 81006 10070 20010 30224 40278 53005 60006 885// 90600 333 10075 20057=
07207,1996-03-05 12:00:00,7,1029.5,0.4,70,2,10000,14.816,,,40,,,,,,,,,,,wg-a,,,,AAXX 05124 07207 12660 80408 10070 20020 30241 40295 52004 60006 885// 91200=
07207,1996-03-05 18:00:00,7,1028.7,0.4,76,3,8000,14.816,,,20,6,7.9,,,,,,,,,wg-a,,,,AAXX 05184 07207 12658 80208 10070 20030 30233 40287 53004 60006 885// 91800 333 10079 20060=
07207,1996-03-06 00:00:00,6,1028.6,-0.4,81,3,6000,18.52,,,50,,,,,,,,,,,wg-a,,,,AAXX 06004 07207 12656 80510 10060 20030 30232 40286 58004 60006 885// 90000=
07207,1996-03-06 06:00:00,6,1027.5,-0.4,75,2,8000,22.224,,,70,5.7,6.8,,,,,,,,,wg-a,,,,AAXX 06064 07207 12658 80712 10060 20020 30221 40275 58004 60006 885// 90600 333 10068 20057=
07207,1996-03-06 12:00:00,5,1026.2,-0.9,70,0,20000,29.632,,50.004,80,,,,,,,,,,,wg-a,,,,AAXX 06124 07207 12670 80816 10050 20000 30208 40262 58009 60006 885// 91200 333 91027=
07207,1996-03-06 18:00:00,5,1023.8,-0.5,70,0,20000,25.928,,,80,5.1,6.7,,,,,,,,,wg-a,,,,AAXX 06184 07207 12670 70814 10050 20000 30184 40238 56005 60006 875// 91800 333 10067 20051=
07207,1996-03-07 00:00:00,5,1022.6,-1,70,0,15000,25.928,,61.116,90,,,,,,,,,,,wg-a,,,,AAXX 07004 07207 12665 80914 10050 20000 30172 40226 58010 60006 885// 90000 333 91033=
07207,1996-03-07 06:00:00,4,1019.3,-1.4,87,2,15000,14.816,,,30,2.9,5.3,,,,,,,,,wg-a,,,,AAXX 07064 07207 12665 70308 10040 20020 30139 40193 57014 60006 875// 90600 333 10053 20029=
07207,1996-03-07 12:00:00,7,1016.4,-1.6,70,2,15000,25.928,,,50,,,,,,,,,,,wg-a,,,,AAXX 07124 07207 12565 70514 10070 20020 30111 40164 58016 60006 875// 91200=
07207,1996-03-07 18:00:00,5,1013.6,-0.6,70,0,20000,29.632,,,30,3.9,8.2,,,,,,,,,wg-a,,,,AAXX 07184 07207 12570 70316 10050 20000 30083 40136 55006 60006 878// 91800 333 10082 20039=
07207,1996-03-08 00:00:00,1,1012.8,-0.7,86,-1,15000,7.408,,,20,,,,,,,,,,,wg-a,,,,AAXX 08004 07207 12665 70204 10010 21010 30074 40128 56007 60006 875// 90000=
07207,1996-03-08 06:00:00,3,1011.7,-0.2,93,2,15000,14.816,,,110,0.6,5.1,,,,,,,,,wg-a,,,,AAXX 08064 07207 12465 61108 10030 20020 30064 40117 57002 60006 85720 90600 333 10051 20006=
07207,1996-03-08 12:00:00,7,1013.4,0.7,81,4,25000,18.52,,,160,,,,,,,,,,,wg-a,,,,AAXX 08124 07207 12575 41610 10070 20040 30081 40134 53007 60006 84200 91200=
07207,1996-03-08 18:00:00,8,1014.1,0.8,71,3,25000,11.112,,,230,1.4,9,,,,,,,,27,wg-a,,,,AAXX 08184 07207 02575 62306 10080 20030 30088 40141 53008 61000 72711 85230 91800 333 10090 20014 ////=
07207,1996-03-09 00:00:00,7,1015,0.2,81,4,18000,11.112,,,150,,,,,,,,,,,wg-a,,,,AAXX 09004 07207 12568 31506 10070 20040 30097 40150 53002 60006 83200 90000=
07207,1996-03-09 06:00:00,4,1014.1,-0.7,100,4,2000,18.52,,,70,2.7,7.7,,,,,,,,10,wg-a,,,,AAXX 09064 07207 12/20 00710 10040 20040 30088 40141 56007 60006 71000 80000 90600 333 10077 20027=
07207,1996-03-09 12:00:00,9,1013.7,-0.6,93,8,8000,14.816,,,120,,,,,,,,,,,wg-a,,,,AAXX 09124 07207 12458 81208 10090 20080 30085 40137 57006 60006 886// 91200=
07207,1996-03-09 18:00:00,9,1015.1,1.3,93,8,10000,18.52,,,120,3.7,10.3,,,,,,,,,wg-a,,,,AAXX 09184 07207 12860 21210 10090 20080 30099 40151 53013 60006 82080 91800 333 10103 20037=
07207,1996-03-10 00:00:00,11,1017.7,1.3,76,7,12000,22.224,,,110,,,,,,,,,,,wg-a,,,,AAXX 10004 07207 12862 21112 10110 20070 30125 40177 51013 60006 82030 90000=
07207,1996-03-10 06:00:00,7,1020.7,1.5,87,5,10000,22.224,,,60,6.6,11.6,,,,,,,,,wg-a,,,,AAXX 10064 07207 12/60 40612 10070 20050 30154 40207 51015 60006 80002 90600 333 10116 20066=
07207,1996-03-10 12:00:00,13,1023,0.7,58,5,10000,29.632,,,50,,,,,,,,,,,wg-a,,,,AAXX 10124 07207 12/60 30516 10130 20050 30178 40230 51007 60006 80001 91200=
07207,1996-03-10 18:00:00,12,1022.7,-0.1,62,5,9000,11.112,,,10,6.6,15,,,,,,,,,wg-a,,,,AAXX 10184 07207 12/59 00106 10120 20050 30175 40227 55001 60006 80000 91800 333 10150 20066=
07207,1996-03-11 06:00:00,3,1022.7,-0.3,93,2,1800,7.408,,,20,1.5,11.4,,,,,,,,10,wg-a,,,,AAXX 11064 07207 12/18 30204 10030 20020 30173 40227 55003 60006 71000 80001 90600 333 10114 20015=
07207,1996-03-11 12:00:00,7,1021.3,-1.1,66,1,3000,11.112,,,100,,,,,,,,,,,wg-a,,,,AAXX 11124 07207 12/30 31006 10070 20010 30160 40213 58011 60006 80001 91200=
07207,1996-03-12 00:00:00,4,1014.6,-1.7,81,1,8000,3.704,,,120,,,,,,,,,,,wg-a,,,,AAXX 12004 07207 12/58 51202 10040 20010 30093 40146 58017 60006 80002 90000=
07207,1996-03-12 06:00:00,7,1009.5,-2.1,81,4,6000,14.816,,,120,3.3,6.9,,,,,,,,,wg-a,,,,AAXX 12064 07207 12/56 61208 10070 20040 30042 40095 56021 60006 80002 90600 333 10069 20033=
07207,1996-03-12 12:00:00,8,1007.2,-1.5,66,2,6000,22.224,,,150,,,,,,,,,,,wg-a,,,,AAXX 12124 07207 12/56 71512 10080 20020 30020 40072 57015 60006 80002 91200=
07207,1996-03-12 18:00:00,8,1002.9,-1.5,66,2,8000,11.112,,,130,6.5,8.7,,,,,,,,,wg-a,,,,AAXX 12184 07207 12/58 81306 10080 20020 39977 40029 56015 60006 80002 91800 333 10087 20065=
07207,1996-03-13 00:00:00,6,1000.7,-0.8,70,1,6000,31.484,,64.82,110,,,,,,,,,,,wg-a,,,,AAXX 13004 07207 12856 81117 10060 20010 39955 40007 58008 60006 86032 90000 333 91035=
07207,1996-03-13 06:00:00,5,998.7,-0.8,60,-2,18000,42.596,,,100,4.4,8.1,,,,,,,,,wg-a,,,,AAXX 13064 07207 12668 61023 10050 21020 39934 49987 56008 60006 8653/ 90600 333 10081 20044=
07207,1996-03-13 12:00:00,7,997.7,-0.7,53,-2,15000,38.892,,68.524,100,,,,,,,,,,,wg-a,,,,AAXX 13124 07207 12865 61021 10070 21020 39925 49977 57007 60006 86030 91200 333 91037=
07207,1996-03-13 18:00:00,8,996.8,0.3,61,1,12000,29.632,,61.116,90,3.5,8.9,,,,,,,,,wg-a,,,,AAXX 13184 07207 12862 70916 10080 20010 39916 49968 53003 60006 87030 91800 333 10089 20035 91033=
07207,1996-03-14 00:00:00,8,997.1,-0.3,76,4,8000,31.484,,,120,,,,,,,,,,,wg-a,,,,AAXX 14004 07207 12858 51217 10080 20040 39919 49971 58003 60006 85030 90000=
07207,1996-03-14 06:00:00,9,997.2,0.3,100,9,4000,18.52,,53.708,120,7.5,9.3,,,,,,,,,wg-a,,,,AAXX 14064 07207 12840 61210 10090 20090 39921 49972 53003 60006 86030 90600 333 10093 20075 91029=
07207,1996-03-14 12:00:00,11,999.8,1.4,94,10,2000,7.408,,,260,,,,,,,,,,10,wg-a,,,,AAXX 14124 07207 12420 82604 10110 20100 39947 49998 53014 60006 71042 886// 91200=
07207,1996-03-14 18:00:00,9,1002.9,1.4,81,6,4000,18.52,,,290,8.3,11.7,,,,,,,,1,wg-a,,,,AAXX 14184 07207 12840 32910 10090 20060 39977 40029 53014 60006 70141 83031 91800 333 10117 20083=
07207,1996-03-15 00:00:00,8,1004.9,0.5,87,6,15000,18.52,,,330,,,,,,,,,,,wg-a,,,,AAXX 15004 07207 12865 33310 10080 20060 39997 40049 52005 60006 83030 90000=
07207,1996-03-15 06:00:00,6,1005.4,0.3,93,5,8000,11.112,,,50,4.1,8.9,,,,,,,,,wg-a,,,,AAXX 15064 07207 12858 30506 10060 20050 30001 40054 53003 60006 83030 90600 333 10089 20041=
07207,1996-03-15 12:00:00,10,1006.4,0.3,76,6,10000,14.816,,,140,,,,,,,,,,,wg-a,,,,AAXX 15124 07207 12560 31408 10100 20060 30012 40064 51003 60006 82201 91200=
07207,1996-03-15 18:00:00,9,1006.3,0.6,93,8,15000,25.928,,,160,5,10.7,,,,,,,,,wg-a,,,,AAXX 15184 07207 12565 21614 10090 20080 30011 40063 53006 60006 81230 91800 333 10107 20050=
07207,1996-03-16 00:00:00,8,1007.6,0.9,81,5,12000,25.928,,,280,,,,,,,,,,,wg-a,,,,AAXX 16004 07207 12562 32814 10080 20050 30024 40076 51009 60006 82230 90000=
07207,1996-03-16 06:00:00,8,1009.5,1.2,81,5,15000,22.224,,,290,7.7,9.2,,,,,,,,,wg-a,,,,AAXX 16064 07207 12565 62912 10080 20050 30043 40095 53012 60006 85230 90600 333 10092 20077=
07207,1996-03-16 12:00:00,10,1013.2,1.4,71,5,18000,22.224,,,300,,,,,,,,,,,wg-a,,,,AAXX 16124 07207 12568 43012 10100 20050 30080 40132 51014 60006 8323/ 91200=
07207,1996-03-16 18:00:00,9,1015.8,1.7,61,2,25000,22.224,,,290,6.8,10.8,,,,,,,,,wg-a,,,,AAXX 16184 07207 12575 12912 10090 20020 30105 40158 52017 60006 81100 91800 333 10108 20068=
07207,1996-03-17 00:00:00,9,1016.8,0.2,76,5,20000,14.816,,,240,,,,,,,,,,,wg-a,,,,AAXX 17004 07207 12570 22408 10090 20050 30115 40168 51002 60006 82100 90000=
07207,1996-03-17 06:00:00,9,1016.1,-0,87,7,20000,18.52,,,200,8,9.3,,,,,,,,,wg-a,,,,AAXX 17064 07207 12570 32010 10090 20070 30109 40161 55000 60006 83230 90600 333 10093 20080=
07207,1996-03-17 12:00:00,11,1016.2,-0.2,82,8,25000,22.224,,,180,,,,,,,,,,,wg-a,,,,AAXX 17124 07207 12575 51812 10110 20080 30110 40162 58002 60006 82232 91200=
07207,1996-03-17 18:00:00,8,1015.6,0.1,93,7,15000,25.928,,,240,8.2,11.7,,,,,,,,15,wg-a,,,,AAXX 17184 07207 12465 82414 10080 20070 30103 40156 53001 60006 71522 887// 91800 333 10117 20082=
07207,1996-03-18 00:00:00,8,1015.4,-0.1,93,7,15000,18.52,,61.116,180,,,,,,,,,,,wg-a,,,,AAXX 18004 07207 12565 11810 10080 20070 30101 40154 57001 60006 81200 90000 333 91033=
07207,1996-03-18 06:00:00,9,1015.5,0.7,93,8,25000,14.816,,,200,7.8,9.3,,,,,,,,,wg-a,,,,AAXX 18064 07207 12475 52008 10090 20080 30103 40155 53007 60006 85900 90600 333 10093 20078=
07207,1996-03-18 12:00:00,12,1016.7,0.3,76,8,25000,11.112,,,210,,,,,,,,,,,wg-a,,,,AAXX 18124 07207 12575 22106 10120 20080 30115 40167 51003 60006 82230 91200=
07207,1996-03-18 18:00:00,10,1016.3,-0.1,87,8,25000,11.112,,,150,8.5,12.6,,,,,,,,,wg-a,,,,AAXX 18184 07207 12575 41506 10100 20080 30111 40163 57001 60006 81232 91800 333 10126 20085=
07207,1996-03-19 00:00:00,9,1016.1,-0.6,93,8,15000,7.408,,,110,,,,,,,,,,,wg-a,,,,AAXX 19004 07207 12565 41104 10090 20080 30108 40161 58006 60006 82630 90000=
07207,1996-03-19 06:00:00,6,1013.7,-1,100,6,500,18.52,,,90,6.1,9.8,,,,,,,,,wg-a,,,,AAXX 19064 07207 12/00 30910 10060 20060 30084 40137 56010 60006 80001 90600 333 10098 20061=
07207,1996-03-19 12:00:00,11,1011,-1.6,66,5,18000,25.928,,,110,,,,,,,,,,,wg-a,,,,AAXX 19124 07207 12/68 51114 10110 20050 30058 40110 58016 60006 80002 91200=
07207,1996-03-19 18:00:00,12,1006.8,-1.8,58,4,18000,31.484,,,100,6.3,12.7,,,,,,,,,wg-a,,,,AAXX 19184 07207 32868 81017 10120 20040 30017 40068 56018 88020 91800 333 10127 20063=
07207,1996-03-20 00:00:00,10,1004,-1.1,82,7,10000,29.632,,72.228,120,,,,,,,,,,,wg-a,,,,AAXX 20004 07207 32860 81216 10100 20070 39988 40040 58011 8807/ 90000 333 91039=
07207,1996-03-20 06:00:00,11,1003.3,0.4,82,8,15000,31.484,,,220,9.1,12.4,,,,,,,,,wg-a,,,,AAXX 20064 07207 32565 72217 10110 20080 39981 40033 53004 878// 90600 333 10124 20091=
07207,1996-03-20 12:00:00,12,1004.7,0.3,82,9,15000,38.892,,61.116,220,,,,,,,,,,,wg-a,,,,AAXX 20124 07207 32865 32221 10120 20090 39996 40047 53003 82031 91200 333 91033=
07207,1996-03-21 00:00:00,11,1003.7,-1.5,94,10,8000,61.116,,,210,,,,,,,,,,95,wg-a,,,,AAXX 21004 07207 32458 82133 10110 20100 39985 40037 58015 79596 887// 90000=
07207,1996-03-21 06:00:00,10,1005.6,1.1,87,8,12000,38.892,,72.228,260,8.5,10.5,,,,,,,,1,wg-a,,,,AAXX 21064 07207 32562 32621 10100 20080 30004 40056 53011 70196 82230 90600 333 10105 20085 91039=
07207,1996-03-21 18:00:00,10,1012.7,1.1,100,10,10000,18.52,,,260,9.6,11.5,,,,,,,,,wg-a,,,,AAXX 21184 07207 32560 52610 10100 20100 30075 40127 53011 82211 91800 333 10115 20096=
07207,1996-03-22 00:00:00,10,1014.2,0.7,93,9,10000,14.816,,,220,,,,0,,,,,,60,wg-a,,,,AAXX 22004 07207 02460 82208 10100 20090 30090 40142 53007 60016 76062 887// 90000 333 60007=
07207,1996-03-22 06:00:00,11,1013.2,0.5,100,11,12000,25.928,,,220,8.5,10.9,,,,,,,,2,wg-a,,,,AAXX 22064 07207 32462 82214 10110 20110 30080 40132 53005 70262 887// 90600 333 10109 20085=
07207,1996-03-22 12:00:00,12,1015.3,1,94,11,10000,18.52,,,250,,,,,,,,,,,wg-a,,,,AAXX 22124 07207 12660 72510 10120 20110 30101 40153 51010 60006 87500 91200=
07207,1996-03-22 18:00:00,12,1015.7,0.1,94,11,8000,7.408,,,130,10.9,12.8,,,,,,,,,wg-a,,,,AAXX 22184 07207 12/58 41304 10120 20110 30105 40157 50001 60006 84020 91800 333 10128 20109=
07207,1996-03-23 00:00:00,10,1016.2,-0,100,10,4000,14.816,,,100,,,,0,,,,,,,wg-a,,,,AAXX 23004 07207 02/40 41008 10100 20100 30110 40162 55000 60006 80001 90000 333 60007=
07207,1996-03-23 06:00:00,10,1014,-0.7,100,10,500,25.928,,,90,9.5,11.5,,,,,,,,46,wg-a,,,,AAXX 23064 07207 32/05 30914 10100 20100 30088 40140 55007 74640 80001 90600 333 10115 20095=
07207,1996-03-23 12:00:00,15,1013.5,-0.6,77,11,8000,22.224,,,110,,,,,,,,,,,wg-a,,,,AAXX 23124 07207 12858 61112 10150 20110 30084 40135 55006 60006 85052 91200=
07207,1996-03-23 18:00:00,14,1012.2,-0.1,77,10,8000,18.52,,,120,9.6,15.6,,,,,,,,,wg-a,,,,AAXX 23184 07207 12/58 61210 10140 20100 30071 40122 56001 60006 80002 91800 333 10156 20096=
07207,1996-03-24 00:00:00,14,1012.7,-0.2,67,8,8000,18.52,,,110,,,,,,,,,,,wg-a,,,,AAXX 24004 07207 12/58 51110 10140 20080 30076 40127 57002 60006 80002 90000=
07207,1996-03-24 06:00:00,12,1012.1,-0.3,82,9,10000,22.224,,,110,11.5,15.5,,,,,,,,,wg-a,,,,AAXX 24064 07207 12/60 41112 10120 20090 30069 40121 57003 60006 83031 90600 333 10155 20115=
07207,1996-03-24 12:00:00,12,1012.8,0.8,82,9,10000,29.632,,57.412,120,,,,,,,,,,,wg-a,,,,AAXX 24124 07207 12560 61216 10120 20090 30076 40128 50008 60006 84280 91200 333 91031=
07207,1996-03-25 00:00:00,12,1011.9,0.3,94,11,12000,18.52,,,170,,,,1,,,,,,61,wg-a,,,,AAXX 25004 07207 02862 71710 10120 20110 30067 40119 50003 60016 76162 8709/ 90000 333 60017=
07207,1996-03-25 06:00:00,11,1012.3,1.2,100,11,8000,22.224,,,280,10.8,13.9,,,,,,,,1,wg-a,,,,AAXX 25064 07207 32858 32812 10110 20110 30071 40123 53012 70161 83030 90600 333 10139 20108=
07207,1996-03-25 12:00:00,12,1015.2,1.4,100,12,12000,22.224,,,220,,,,,,,,,,,wg-a,,,,AAXX 25124 07207 12562 32212 10120 20120 30100 40152 53014 60006 83130 91200=
07207,1996-03-25 18:00:00,12,1014.9,0.1,94,11,12000,7.408,,,120,10.7,13.6,,,,,,,,,wg-a,,,,AAXX 25184 07207 12862 41204 10120 20110 30097 40149 53001 60006 82052 91800 333 10136 20107=
07207,1996-03-26 00:00:00,11,1013.8,-0.9,100,11,12000,14.816,,,60,,,,,,,,,,,wg-a,,,,AAXX 26004 07207 12862 60608 10110 20110 30086 40138 58009 60006 86050 90000=
07207,1996-03-26 06:00:00,11,1013,0.4,94,10,8000,3.704,,,120,9.9,11.8,,1,,,,,,61,wg-a,,,,AAXX 26064 07207 12458 81202 10110 20100 30078 40130 53004 60017 76122 887// 90600 333 10118 20099=
07207,1996-03-26 12:00:00,13,1013,-0.2,94,12,12000,14.816,,,80,,,,1,,,,,,21,wg-a,,,,AAXX 26124 07207 02462 70808 10130 20120 30078 40130 55002 60086 72162 8572/ 91200 333 60017=
07207,1996-03-26 18:00:00,11,1013,0.1,100,11,8000,3.704,,,190,10.4,13.3,,,,,,,,,wg-a,,,,AAXX 26184 07207 32658 71902 10110 20110 30078 40130 53001 8753/ 91800 333 10133 20104=
07207,1996-03-27 00:00:00,9,1014.2,0.3,93,8,6000,29.632,,,70,,,,0,,,,,,,wg-a,,,,AAXX 27004 07207 02656 80716 10090 20080 30090 40142 50003 60016 885// 90000 333 60007=
07207,1996-03-27 06:00:00,6,1015.8,1.5,93,5,2000,42.596,,,70,5.6,11.2,,,,,,,,10,wg-a,,,,AAXX 27064 07207 32420 70723 10060 20050 30105 40158 53015 71022 876// 90600 333 10112 20056=
07207,1996-03-27 12:00:00,7,1019.3,1.7,81,4,6000,31.484,,64.82,80,,,,,,,,,,,wg-a,,,,AAXX 27124 07207 12456 80817 10070 20040 30140 40193 51017 60006 886// 91200 333 91035=
07207,1996-03-27 18:00:00,8,1020,0.7,76,4,8000,18.52,,,70,5,8.7,,,,,,,,,wg-a,,,,AAXX 27184 07207 12658 10710 10080 20040 30147 40200 51007 60006 81101 91800 333 10087 20050=
07207,1996-03-28 00:00:00,4,1021.4,0.1,81,1,8000,18.52,,,70,,,,,,,,,,,wg-a,,,,AAXX 28004 07207 12/58 00710 10040 20010 30160 40214 50001 60006 80000 90000=
07207,1996-03-28 06:00:00,4,1020.7,-0.2,75,0,16000,11.112,,,100,2,7.8,,,,,,,,,wg-a,,,,AAXX 28064 07207 12/66 21006 10040 20000 30153 40207 55002 60006 80001 90600 333 10078 20020=
07207,1996-03-28 12:00:00,9,1021,0,66,3,15000,11.112,,,290,,,,,,,,,,,wg-a,,,,AAXX 28124 07207 12665 52906 10090 20030 30157 40210 50000 60006 85200 91200=
07207,1996-03-28 18:00:00,8,1019.7,-0.1,81,5,12000,22.224,,,290,3.7,10.1,,,,,,,,,wg-a,,,,AAXX 28184 07207 12662 12912 10080 20050 30144 40197 55001 60006 81100 91800 333 10101 20037=
07207,1996-03-29 06:00:00,4,1019.9,-0.3,81,1,18000,3.704,,,30,2.4,8.5,,,,,,,,,wg-a,,,,AAXX 29064 07207 12668 20302 10040 20010 30145 40199 56003 60006 82101 90600 333 10085 20024=
07207,1996-03-29 12:00:00,10,1019.5,-0.6,66,4,16000,11.112,,,160,,,,,,,,,,,wg-a,,,,AAXX 29124 07207 12666 31606 10100 20040 30142 40195 58006 60006 83200 91200=
07207,1996-03-29 18:00:00,9,1016.6,-1.1,66,3,20000,3.704,,,250,3.8,10.1,,,,,,,,,wg-a,,,,AAXX 29184 07207 12/70 12502 10090 20030 30113 40166 56011 60006 80001 91800 333 10101 20038=
07207,1996-03-30 00:00:00,7,1016.3,-0.5,66,1,12000,11.112,,,80,,,,,,,,,,,wg-a,,,,AAXX 30004 07207 12662 70806 10070 20010 30110 40163 56005 60006 875// 90000=
07207,1996-03-30 06:00:00,4,1016.5,0.8,81,1,20000,18.52,,,70,4.1,8.9,,,,,,,,,wg-a,,,,AAXX 30064 07207 12/70 00710 10040 20010 30111 40165 53008 60006 80000 90600 333 10089 20041=
07207,1996-03-30 12:00:00,10,1017.7,0.9,50,0,20000,25.928,,,80,,,,,,,,,,,wg-a,,,,AAXX 30124 07207 12670 10814 10100 20000 30125 40177 53009 60006 81130 91200=
07207,1996-03-30 18:00:00,9,1018.3,0.2,57,1,15000,14.816,,,90,4,11,,,,,,,,,wg-a,,,,AAXX 30184 07207 12665 10908 10090 20010 30130 40183 53002 60006 81100 91800 333 10110 20040=
07207,1996-03-31 00:00:00,8,1019,0.3,66,2,18000,22.224,,,120,,,,,,,,,,,wg-a,,,,AAXX 31004 07207 12/68 01212 10080 20020 30137 40190 51003 60006 80000 90000=
07207,1996-03-31 06:00:00,7,1016.6,-0.8,61,0,20000,22.224,,,120,6.9,8.8,,,,,,,,,wg-a,,,,AAXX 31064 07207 12/70 31212 10070 20000 30113 40166 56008 60006 83030 90600 333 10088 20069=
07207,1996-03-31 12:00:00,7,1015.3,-1,76,3,16000,29.632,,,150,,,,0,,,,,,,wg-a,,,,AAXX 31124 07207 02466 81516 10070 20030 30100 40153 58010 60016 8672/ 91200 333 60007=
07207,1996-03-31 18:00:00,8,1010.6,-2.4,71,3,15000,22.224,,,110,6.1,8,,,,,,,,2,wg-a,,,,AAXX 31184 07207 32665 71112 10080 20030 30053 40106 58024 70262 8553/ 91800 333 10080 20061=
07207,1996-04-01 00:00:00,8,1007.1,-2.6,61,1,12000,31.484,,50.004,100,,,,,,,,,,,wg-a,,,,AAXX 01004 07207 12662 81017 10080 20010 30019 40071 58026 60006 885// 90000 333 91027=
07207,1996-04-01 06:00:00,6,1005,-0.4,65,0,0,31.484,,,90,5.5,8.5,,0,,,,,,,wg-a,,,,AAXX 01064 07207 12/// /0917 10060 20000 39997 40050 55004 60007 90600 333 10085 20055=
07207,1996-04-01 12:00:00,7,1006.4,1,61,0,15000,42.596,,68.524,60,,,,,,,,,,,wg-a,,,,AAXX 01124 07207 12865 70623 10070 20000 30012 40064 51010 60006 85032 91200 333 91037=
07207,1996-04-01 18:00:00,8,1009.1,1.9,53,-1,18000,25.928,,61.116,40,5.5,9.5,,,,,,,,,wg-a,,,,AAXX 01184 07207 12668 50414 10080 21010 30039 40091 53019 60006 84202 91800 333 10095 20055 91033=
07207,1996-04-02 00:00:00,4,1015.8,2.4,75,0,15000,25.928,,,40,,,,,,,,,,,wg-a,,,,AAXX 02004 07207 12665 10414 10040 20000 30104 40158 51024 60006 81100 90000=
07207,1996-04-02 12:00:00,7,1022.9,1.2,53,-2,20000,25.928,,,40,,,,,,,,,,,wg-a,,,,AAXX 02124 07207 12670 40414 10070 21020 30176 40229 51012 60006 84100 91200=
07207,1996-04-02 18:00:00,7,1023.9,1.1,42,-5,25000,25.928,,,20,3.6,9.4,,,,,,,,,wg-a,,,,AAXX 02184 07207 12675 10214 10070 21050 30186 40239 53011 60006 81100 91800 333 10094 20036=
07207,1996-04-03 00:00:00,3,1026.8,0.7,70,-2,18000,18.52,,,50,,,,,,,,,,,wg-a,,,,AAXX 03004 07207 12/68 00510 10030 21020 30214 40268 52007 60006 80000 90000=
07207,1996-04-03 06:00:00,2,1027.5,0.5,75,-2,20000,11.112,,,40,0.5,6.9,,,,,,,,,wg-a,,,,AAXX 03064 07207 12/70 00406 10020 21020 30220 40275 52005 60006 80000 90600 333 10069 20005=
07207,1996-04-03 12:00:00,9,1028,-0.3,61,2,0,18.52,,,70,,,,,,,,,,,wg-a,,,,AAXX 03124 07207 12/// /0710 10090 20020 30227 40280 57003 60006 91200=
07207,1996-04-03 18:00:00,8,1027.6,-0.2,57,0,20000,3.704,,,160,1.7,10.3,,,,,,,,,wg-a,,,,AAXX 03184 07207 12570 11602 10080 20000 30223 40276 55002 60006 811// 91800 333 10103 20017=
07207,1996-04-04 00:00:00,4,1029.4,0.2,75,0,20000,18.52,,,70,,,,,,,,,,,wg-a,,,,AAXX 04004 07207 12670 10710 10040 20000 30240 40294 50002 60006 811// 90000=
07207,1996-04-04 06:00:00,4,1028,-0.7,75,0,6000,22.224,,,90,3.3,7.9,,,,,,,,,wg-a,,,,AAXX 04064 07207 12/56 00912 10040 20000 30226 40280 55007 60006 80000 90600 333 10079 20033=
07207,1996-04-04 12:00:00,8,1026.2,-1.5,46,-3,7000,18.52,,,120,,,,,,,,,,,wg-a,,,,AAXX 04124 07207 12/57 01210 10080 21030 30209 40262 58015 60006 80000 91200=
07207,1996-04-04 18:00:00,8,1022.4,-1.7,61,1,7000,7.408,,,90,3.8,9.4,,,,,,,,,wg-a,,,,AAXX 04184 07207 12/57 60904 10080 20010 30171 40224 58017 60006 80004 91800 333 10094 20038=
07207,1996-04-05 00:00:00,6,1020.6,-1.1,75,2,10000,22.224,,,60,,,,,,,,,,,wg-a,,,,AAXX 05004 07207 12/60 50612 10060 20020 30153 40206 58011 60006 80001 90000=
07207,1996-04-05 06:00:00,5,1018.7,-0.5,70,0,7000,25.928,,,100,4.5,8,,,,,,,,,wg-a,,,,AAXX 05064 07207 12/57 11014 10050 20000 30134 40187 57005 60006 80001 90600 333 10080 20045=
07207,1996-04-05 12:00:00,9,1016.7,-1.4,61,2,8000,25.928,,53.708,90,,,,,,,,,,,wg-a,,,,AAXX 05124 07207 12558 10914 10090 20020 30114 40167 57014 60006 81100 91200 333 91029=
07207,1996-04-05 18:00:00,8,1015.6,0.2,71,3,8000,22.224,,50.004,100,5.1,9.8,,,,,,,,,wg-a,,,,AAXX 05184 07207 12358 81012 10080 20030 30103 40156 53002 60006 886// 91800 333 10098 20051 91027=
07207,1996-04-06 00:00:00,6,1016.5,-0.1,70,1,8000,14.816,,,70,,,,,,,,,,,wg-a,,,,AAXX 06004 07207 12358 80708 10060 20010 30112 40165 58001 60006 886// 90000=
07207,1996-04-06 06:00:00,4,1016.3,0.4,87,2,500,18.52,,,40,2.8,8.1,,,,,,,,,wg-a,,,,AAXX 06064 07207 12800 60410 10040 20020 30109 40163 53004 60006 84032 90600 333 10081 20028=
07207,1996-04-06 12:00:00,11,1017.6,0.5,58,3,7000,3.704,,,360,,,,,,,,,,,wg-a,,,,AAXX 06124 07207 12557 73602 10110 20030 30124 40176 53005 60006 87100 91200=
07207,1996-04-06 18:00:00,9,1018.7,0.6,71,4,500,18.52,,,350,3.5,11.4,,,,,,,,,wg-a,,,,AAXX 06184 07207 12300 83510 10090 20040 30134 40187 53006 60006 88600 91800 333 10114 20035=
07207,1996-04-07 00:00:00,8,1020.4,0.3,81,5,6000,3.704,,,10,,,,,,,,,,,wg-a,,,,AAXX 07004 07207 12356 80102 10080 20050 30151 40204 51003 60006 88600 90000=
07207,1996-04-07 06:00:00,7,1021.6,0.8,93,6,1500,7.408,,,20,7.3,8.8,,,,,,,,10,wg-a,,,,AAXX 07064 07207 12315 80204 10070 20060 30163 40216 53008 60006 71022 886// 90600 333 10088 20073=
07207,1996-04-07 12:00:00,10,1024.3,0.9,82,7,3000,7.408,,,300,,,,,,,,,,,wg-a,,,,AAXX 07124 07207 12430 83004 10100 20070 30190 40243 51009 60006 886// 91200=
07207,1996-04-07 18:00:00,10,1025.5,1.1,82,7,4000,11.112,,,330,7.2,10.5,,,,,,,,,wg-a,,,,AAXX 07184 07207 12440 83306 10100 20070 30202 40255 53011 60006 886// 91800 333 10105 20072=
07207,1996-04-08 00:00:00,10,1027.6,1,93,9,4000,11.112,,,350,,,,,,,,,,,wg-a,,,,AAXX 08004 07207 12440 83506 10100 20090 30223 40276 51010 60006 886// 90000=
07207,1996-04-08 06:00:00,9,1028.4,1,100,9,3000,3.704,,,310,9.1,9.7,,,,,,,,10,wg-a,,,,AAXX 08064 07207 12430 83102 10090 20090 30231 40284 53010 60006 71022 886// 90600 333 10097 20091=
07207,1996-04-08 12:00:00,12,1030.1,-0.1,88,10,0,3.704,,,230,,,,,,,,,,,wg-a,,,,AAXX 08124 07207 12/// /2302 10120 20100 30248 40301 58001 60006 91200=
07207,1996-04-08 18:00:00,11,1029.9,-0,82,8,500,3.704,,,300,,13.3,,,,,,,,,wg-a,,,,AAXX 08184 07207 12500 33002 10110 20080 30246 40299 55000 60006 83101 91800 333 10133=
07207,1996-04-09 06:00:00,7,1027.2,-0.8,93,6,4000,11.112,,,80,6.4,11.3,,,,,,,,,wg-a,,,,AAXX 09064 07207 12/40 00806 10070 20060 30219 40272 56008 60006 80000 90600 333 10113 20064=
07207,1996-04-09 12:00:00,12,1026.6,-0.5,82,9,4000,18.52,,,150,,,,,,,,,,,wg-a,,,,AAXX 09124 07207 12/40 01510 10120 20090 30213 40266 58005 60006 80000 91200=
07207,1996-04-09 18:00:00,11,1023.7,-1.1,87,9,500,7.408,,,170,7,12.5,,,,,,,,,wg-a,,,,AAXX 09184 07207 12/00 21704 10110 20090 30184 40237 57011 60006 80001 91800 333 10125 20070=
07207,1996-04-10 00:00:00,11,1021.6,-1.5,87,9,6000,18.52,,,200,,,,,,,,,,,wg-a,,,,AAXX 10004 07207 12656 62010 10110 20090 30164 40216 56015 60006 86500 90000=
07207,1996-04-10 06:00:00,10,1018.4,-1.3,100,10,100,18.52,,,190,9.8,10.7,,6,,,,,,51,wg-a,,,,AAXX 10064 07207 12001 81910 10100 20100 30132 40184 56013 60067 75154 886// 90600 333 10107 20098=
07207,1996-04-10 12:00:00,11,1019.1,0.3,100,11,10000,22.224,,,290,,,,,,,,,,28,wg-a,,,,AAXX 10124 07207 12660 82912 10110 20110 30139 40191 51003 60016 72854 885// 91200=
07207,1996-04-10 18:00:00,11,1019.2,0.1,94,10,20000,25.928,,,290,10.5,13,,,,,,,,,wg-a,,,,AAXX 10184 07207 32670 52914 10110 20100 30140 40192 53001 81102 91800 333 10130 20105=
07207,1996-04-11 00:00:00,9,1019.8,-0,93,8,15000,11.112,,,350,,,,,,,,,,,wg-a,,,,AAXX 11004 07207 12665 43506 10090 20080 30145 40198 54000 60006 82102 90000=
07207,1996-04-11 06:00:00,7,1019,0.1,100,7,20000,7.408,,,80,6.4,11.1,,,,,,,,,wg-a,,,,AAXX 11064 07207 12/70 60804 10070 20070 30137 40190 53001 60006 84031 90600 333 10111 20064=
07207,1996-04-11 12:00:00,11,1018.8,-0.2,87,9,12000,7.408,,,120,,,,,,,,,,,wg-a,,,,AAXX 11124 07207 12662 71204 10110 20090 30136 40188 58002 60006 8653/ 91200=
07207,1996-04-11 18:00:00,10,1016.8,-0.6,93,9,12000,7.408,,,280,7.1,11.7,,,,,,,,,wg-a,,,,AAXX 11184 07207 12/62 72804 10100 20090 30116 40168 58006 60006 85032 91800 333 10117 20071=
07207,1996-04-12 00:00:00,9,1016.1,-0.6,100,9,10000,7.408,,,40,,,,0,,,,,,2,wg-a,,,,AAXX 12004 07207 02560 80404 10090 20090 30109 40161 58006 60006 70282 881// 90000 333 60007=
07207,1996-04-12 06:00:00,10,1015.1,0.1,93,9,10000,7.408,,,70,8.9,9.9,,,,,,,,,wg-a,,,,AAXX 12064 07207 32/60 70704 10100 20090 30099 40151 53001 86031 90600 333 10099 20089=
07207,1996-04-12 12:00:00,13,1014.6,-0.2,88,11,6000,7.408,,,150,,,,,,,,,,,wg-a,,,,AAXX 12124 07207 12/56 61504 10130 20110 30094 40146 58002 60006 86032 91200=
07207,1996-04-12 18:00:00,12,1013.8,-0.4,82,9,8000,7.408,,,310,9.5,14.4,,,,,,,,,wg-a,,,,AAXX 12184 07207 12/58 63104 10120 20090 30086 40138 55004 60006 84031 91800 333 10144 20095=
07207,1996-04-13 00:00:00,11,1014.6,0,94,10,8000,11.112,,,320,,,,,,,,,,,wg-a,,,,AAXX 13004 07207 12/58 83206 10110 20100 30094 40146 50000 60006 88020 90000=
07207,1996-04-13 06:00:00,11,1015,0.6,100,11,4000,14.816,,,280,10.4,11.8,,0,,,,,,,wg-a,,,,AAXX 13064 07207 12440 82808 10110 20110 30098 40150 53006 60007 887// 90600 333 10118 20104=
07207,1996-04-13 12:00:00,12,1017.1,0.6,100,12,10000,11.112,,,290,,,,1,,,,,,1,wg-a,,,,AAXX 13124 07207 02460 72906 10120 20120 30119 40171 50006 60016 70152 86752 91200 333 60017=
07207,1996-04-13 18:00:00,11,1017.7,0.5,94,10,12000,14.816,,,300,10.8,13.2,,,,,,,,,wg-a,,,,AAXX 13184 07207 32862 53008 10110 20100 30125 40177 51005 83031 91800 333 10132 20108=
07207,1996-04-14 00:00:00,8,1020.4,1.1,100,8,10000,18.52,,,30,,,,,,,,,,,wg-a,,,,AAXX 14004 07207 12860 30310 10080 20080 30151 40204 53011 60006 83031 90000=
07207,1996-04-14 06:00:00,8,1021.3,1.1,100,8,4000,11.112,,,20,7.4,11.3,,,,,,,,,wg-a,,,,AAXX 14064 07207 12440 70206 10080 20080 30160 40213 53011 60006 877// 90600 333 10113 20074=
07207,1996-04-14 12:00:00,11,1023.3,0.6,87,9,6000,11.112,,,280,,,,,,,,,,,wg-a,,,,AAXX 14124 07207 12856 82806 10110 20090 30181 40233 50006 60006 86058 91200=
07207,1996-04-14 18:00:00,11,1023.6,0.3,100,11,500,11.112,,,270,7.9,11.8,,1,,,,,,2,wg-a,,,,AAXX 14184 07207 12400 82706 10110 20110 30184 40236 53003 60017 70252 887// 91800 333 10118 20079=
07207,1996-04-15 00:00:00,11,1025.1,0.2,100,11,3000,7.408,,,280,,,,,,,,,,,wg-a,,,,AAXX 15004 07207 12430 82804 10110 20110 30198 40251 51002 60016 886// 90000=
07207,1996-04-15 06:00:00,11,1024.7,0.1,100,11,200,3.704,,,300,10.9,11.5,,,,,,,,45,wg-a,,,,AAXX 15064 07207 32/02 93002 10110 20110 30195 40247 53001 74542 89/// 90600 333 10115 20109=
07207,1996-04-15 12:00:00,12,1026.1,0.3,100,12,300,7.408,,,230,,,,,,,,,,45,wg-a,,,,AAXX 15124 07207 12/03 92304 10120 20120 30209 40261 50003 60006 74544 89/// 91200=
07207,1996-04-15 18:00:00,13,1024.2,-0.9,94,12,12000,0,,,0,11.3,14.9,,,,,,,,,wg-a,,,,AAXX 15184 07207 32462 60000 10130 20120 30190 40242 56009 83631 91800 333 10149 20113=
07207,1996-04-16 00:00:00,10,1021.4,-2.4,100,10,3000,11.112,,,140,,,,,,,,,,,wg-a,,,,AAXX 16004 07207 12430 81406 10100 20100 30161 40214 58024 60006 886// 90000=
07207,1996-04-16 06:00:00,10,1015.9,-2,100,10,600,14.816,,,120,9.6,12.8,,,,,,,,42,wg-a,,,,AAXX 16064 07207 32206 71208 10100 20100 30107 40159 56020 74242 86630 90600 333 10128 20096=
07207,1996-04-16 12:00:00,12,1011.8,-2.2,88,10,12000,22.224,,,150,,,,,,,,,,3,wg-a,,,,AAXX 16124 07207 12462 81512 10120 20100 30066 40118 58022 60006 70342 85632 91200=
07207,1996-04-16 18:00:00,12,1008.5,-1.5,100,12,6000,29.632,,,290,10.4,13.1,,2,,,,,,2,wg-a,,,,AAXX 16184 07207 12856 82916 10120 20120 30033 40085 55015 60027 70282 8809/ 91800 333 10131 20104=
07207,1996-04-17 00:00:00,11,1010.8,0.6,87,9,6000,31.484,,,290,,,,,,,,,,,wg-a,,,,AAXX 17004 07207 12856 62917 10110 20090 30056 40108 50006 60006 8609/ 90000=
07207,1996-04-17 06:00:00,10,1013.5,1.9,87,8,16000,18.52,,61.116,300,10.1,11.8,,,,,,,,15,wg-a,,,,AAXX 17064 07207 12466 53010 10100 20080 30083 40135 53019 60006 71511 84360 90600 333 10118 20101 91033=
07207,1996-04-17 12:00:00,13,1017,1.5,82,10,20000,25.928,,53.708,280,,,,,,,,,,,wg-a,,,,AAXX 17124 07207 12570 22814 10130 20100 30118 40170 51015 60006 82200 91200 333 91029=
07207,1996-04-17 18:00:00,12,1019.1,1.3,88,10,20000,22.224,,,290,9.8,13.4,,,,,,,,,wg-a,,,,AAXX 17184 07207 32570 32912 10120 20100 30139 40191 51013 82201 91800 333 10134 20098=
07207,1996-04-18 00:00:00,11,1020.3,0.2,94,10,10000,14.816,,,250,,,,,,,,,,,wg-a,,,,AAXX 18004 07207 12560 32508 10110 20100 30151 40203 50002 60006 83200 90000=
07207,1996-04-18 06:00:00,11,1019.2,-0.4,94,10,20000,25.928,,,220,10.6,11.8,,,,,,,,,wg-a,,,,AAXX 18064 07207 12670 62214 10110 20100 30140 40192 55004 60006 82132 90600 333 10118 20106=
07207,1996-04-18 12:00:00,13,1019.1,-0.5,88,11,20000,25.928,,,200,,,,,,,,,,,wg-a,,,,AAXX 18124 07207 12670 62014 10130 20110 30139 40191 58005 60006 83132 91200=
07207,1996-04-18 18:00:00,12,1017.9,-0.6,94,11,20000,22.224,,,210,11,13.6,,,,,,,,,wg-a,,,,AAXX 18184 07207 12570 62112 10120 20110 30127 40179 58006 60006 82232 91800 333 10136 20110=
07207,1996-04-19 00:00:00,11,1017.9,-0.3,100,11,10000,22.224,,,190,,,,,,,,,,,wg-a,,,,AAXX 19004 07207 12560 61912 10110 20110 30127 40179 56003 60006 8223/ 90000=
07207,1996-04-19 06:00:00,11,1016.7,-0.3,100,11,18000,18.52,,,170,10.7,11.9,,,,,,,,,wg-a,,,,AAXX 19064 07207 12468 61710 10110 20110 30115 40167 55003 60006 84632 90600 333 10119 20107=
07207,1996-04-19 12:00:00,14,1015.7,-0.9,82,11,20000,11.112,,,120,,,,,,,,,,,wg-a,,,,AAXX 19124 07207 12670 61206 10140 20110 30105 40157 58009 60006 82102 91200=
07207,1996-04-19 18:00:00,14,1012,-1.5,67,8,25000,14.816,,,120,11,14.7,,,,,,,,,wg-a,,,,AAXX 19184 07207 12575 71208 10140 20080 30069 40120 58015 60006 85202 91800 333 10147 20110=
07207,1996-04-20 00:00:00,13,1010.5,-0.5,77,9,18000,7.408,,,140,,,,,,,,,,,wg-a,,,,AAXX 20004 07207 12568 31404 10130 20090 30054 40105 58005 60006 82202 90000=
07207,1996-04-20 06:00:00,14,1008,-1.2,82,11,25000,11.112,,,120,11,13.8,,,,,,,,,wg-a,,,,AAXX 20064 07207 12575 71206 10140 20110 30029 40080 55012 60006 8429/ 90600 333 10138 20110=
07207,1996-04-20 12:00:00,12,1008,-0.5,100,12,6000,22.224,,,140,,,,0,,,,,,,wg-a,,,,AAXX 20124 07207 02456 81412 10120 20120 30029 40080 56005 60006 8679/ 91200 333 60007=
07207,1996-04-20 18:00:00,13,1006.8,-1,94,12,1000,11.112,,,130,12.1,14.3,,,,,,,,28,wg-a,,,,AAXX 20184 07207 32410 61306 10130 20120 30017 40068 58010 72882 8463/ 91800 333 10143 20121=
07207,1996-04-21 00:00:00,14,1003.9,-1.9,67,8,15000,22.224,,,110,,,,,,,,,,2,wg-a,,,,AAXX 21004 07207 12865 21112 10140 20080 39988 40039 57019 60006 70241 82030 90000=
07207,1996-04-21 06:00:00,13,1000.7,-0.7,88,11,15000,38.892,,,170,11.8,14,,,,,,,,,wg-a,,,,AAXX 21064 07207 12565 51721 10130 20110 39956 40007 55007 60006 84201 90600 333 10140 20118=
07207,1996-04-21 12:00:00,14,1003.1,1.9,88,12,10000,22.224,,,210,,,,,,,,,,,wg-a,,,,AAXX 21124 07207 12560 72112 10140 20120 39980 40031 51019 60006 8223/ 91200=
07207,1996-04-21 18:00:00,12,1006.8,1.6,88,10,20000,22.224,,,230,12.1,14.4,,,,,,,,,wg-a,,,,AAXX 21184 07207 32570 72312 10120 20100 30017 40068 51016 8423/ 91800 333 10144 20121=
07207,1996-04-22 00:00:00,11,1008.5,0.6,100,11,10000,14.816,,,170,,,,,,,,,,,wg-a,,,,AAXX 22004 07207 12860 71708 10110 20110 30033 40085 52006 60006 87070 90000=
07207,1996-04-22 06:00:00,11,1005.8,-1.5,100,11,8000,7.408,,,100,10.6,12.4,,,,,,,,,wg-a,,,,AAXX 22064 07207 32458 81004 10110 20110 30006 40058 56015 8/72/ 90600 333 10124 20106=
07207,1996-04-22 12:00:00,11,1002.8,-2.1,100,11,15000,18.52,,,80,,,,,,,,,,61,wg-a,,,,AAXX 22124 07207 32465 80810 10110 20110 39977 40028 57021 76162 8/72/ 91200=
07207,1996-04-22 18:00:00,12,999.8,-1.1,100,12,4000,18.52,,,180,10.4,12.4,,2,,,,,,21,wg-a,,,,AAXX 22184 07207 12440 81810 10120 20120 39947 49998 55011 60027 72162 887// 91800 333 10124 20104=
07207,1996-04-23 00:00:00,11,1002.3,1.2,94,10,10000,29.632,,,260,,,,,,,,,,,wg-a,,,,AAXX 23004 07207 12460 82616 10110 20100 39972 40023 52012 60006 887// 90000=
07207,1996-04-23 06:00:00,9,1007.5,2.6,93,8,12000,25.928,,,290,9.1,12,,0,,,,,,2,wg-a,,,,AAXX 23064 07207 12462 72914 10090 20080 30023 40075 53026 60007 70282 877// 90600 333 10120 20091=
07207,1996-04-23 12:00:00,12,1011.6,1.3,82,9,25000,25.928,,,240,,,,,,,,,,,wg-a,,,,AAXX 23124 07207 12575 52414 10120 20090 30064 40116 51013 60006 84231 91200=
07207,1996-04-23 18:00:00,11,1014,1.2,82,8,25000,25.928,,,220,9,12.8,,,,,,,,,wg-a,,,,AAXX 23184 07207 12475 62214 10110 20080 30088 40140 52012 60006 85931 91800 333 10128 20090=
07207,1996-04-24 00:00:00,11,1016.9,1.1,82,8,12000,18.52,,,260,,,,,,,,,,,wg-a,,,,AAXX 24004 07207 12862 32610 10110 20080 30117 40169 52011 60006 8309/ 90000=
07207,1996-04-24 06:00:00,11,1019,1.6,82,8,25000,14.816,,,300,10.1,11.3,,,,,,,,,wg-a,,,,AAXX 24064 07207 32575 43008 10110 20080 30138 40190 53016 83231 90600 333 10113 20101=
07207,1996-04-24 12:00:00,13,1023.1,1.6,72,8,500,14.816,,,280,,,,0,,,,,,2,wg-a,,,,AAXX 24124 07207 02500 42808 10130 20080 30179 40231 51016 60006 70280 84200 91200 333 60007=
07207,1996-04-24 18:00:00,12,1024.9,0.9,71,7,500,14.816,,,300,10.4,14,,,,,,,,,wg-a,,,,AAXX 24184 07207 32500 23008 10120 20070 30197 40249 52009 82201 91800 333 10140 20104=
07207,1996-04-25 00:00:00,8,1027.6,0.6,93,7,18000,11.112,,,10,,,,,,,,,,,wg-a,,,,AAXX 25004 07207 12568 10106 10080 20070 30223 40276 51006 60006 81200 90000=
07207,1996-04-25 06:00:00,9,1028.4,0.9,93,8,500,11.112,,,40,6.1,12.3,,,,,,,,,wg-a,,,,AAXX 25064 07207 12500 30406 10090 20080 30231 40284 53009 60006 83200 90600 333 10123 20061=
07207,1996-04-25 12:00:00,12,1029,-0.6,71,7,500,14.816,,,290,,,,,,,,,,,wg-a,,,,AAXX 25124 07207 12500 32908 10120 20070 30237 40290 58006 60006 82231 91200=
07207,1996-04-25 18:00:00,12,1027.7,-0.8,76,8,500,14.816,,,300,8.7,14.2,,,,,,,,,wg-a,,,,AAXX 25184 07207 12/00 23008 10120 20080 30225 40277 56008 60006 82030 91800 333 10142 20087=
07207,1996-04-26 00:00:00,9,1027.2,-0.4,81,6,20000,22.224,,,60,,,,,,,,,,,wg-a,,,,AAXX 26004 07207 12570 10612 10090 20060 30219 40272 57004 60006 81100 90000=
07207,1996-04-26 06:00:00,8,1025,-0.5,93,7,25000,14.816,,,70,7.3,12.4,,,,,,,,,wg-a,,,,AAXX 26064 07207 12/75 00708 10080 20070 30197 40250 55005 60006 80000 90600 333 10124 20073=
07207,1996-04-26 12:00:00,15,1023.7,-1.5,51,5,25000,14.816,,,80,,,,,,,,,,,wg-a,,,,AAXX 26124 07207 12/75 20808 10150 20050 30185 40237 58015 60006 80001 91200=
07207,1996-04-26 18:00:00,13,1019.8,-1.5,72,8,25000,22.224,,,330,8.3,16.2,,,,,,,,,wg-a,,,,AAXX 26184 07207 12/75 13312 10130 20080 30146 40198 57015 60006 80001 91800 333 10162 20083=
07207,1996-04-27 00:00:00,9,1019.3,-0.9,93,8,25000,22.224,,,40,,,,,,,,,,,wg-a,,,,AAXX 27004 07207 12875 10412 10090 20080 30140 40193 58009 60006 81030 90000=
07207,1996-04-27 06:00:00,9,1017,-0.6,93,8,8000,29.632,,,40,8.6,12.7,,,,,,,,,wg-a,,,,AAXX 27064 07207 12/58 30416 10090 20080 30117 40170 56006 60006 83031 90600 333 10127 20086=
07207,1996-04-27 12:00:00,18,1015.2,-1.1,59,10,10000,22.224,,,50,,,,,,,,,,,wg-a,,,,AAXX 27124 07207 12/60 50512 10180 20100 30101 40152 58011 60006 83031 91200=
07207,1996-04-27 18:00:00,16,1013.2,-0.3,68,10,10000,18.52,,,10,9.1,19.6,,,,,,,,,wg-a,,,,AAXX 27184 07207 12/60 80110 10160 20100 30081 40132 56003 60006 85031 91800 333 10196 20091=
07207,1996-04-28 00:00:00,12,1013.6,-0.5,82,9,10000,25.928,,,40,,,,,,,,,,,wg-a,,,,AAXX 28004 07207 12/60 70414 10120 20090 30084 40136 58005 60006 82031 90000=
07207,1996-04-28 06:00:00,11,1012.5,-0,76,7,15000,31.484,,,40,11,15.6,,,,,,,,,wg-a,,,,AAXX 28064 07207 12565 60417 10110 20070 30073 40125 55000 60006 83233 90600 333 10156 20110=
07207,1996-04-28 12:00:00,18,1012.2,-0.2,59,10,15000,31.484,,,50,,,,,,,,,,,wg-a,,,,AAXX 28124 07207 12/65 80517 10180 20100 30071 40122 58002 60006 80007 91200=
07207,1996-04-28 18:00:00,16,1010.9,-0.3,63,9,25000,31.484,,,20,11.4,19.2,,,,,,,,,wg-a,,,,AAXX 28184 07207 12/75 50217 10160 20090 30058 40109 58003 60006 82031 91800 333 10192 20114=
07207,1996-04-29 00:00:00,9,1012.7,0.2,87,7,0,22.224,,,30,,,,,,,,,,,wg-a,,,,AAXX 29004 07207 12/// /0312 10090 20070 30075 40127 50002 60006 90000=
07207,1996-04-29 06:00:00,9,1011.6,0.1,81,6,20000,31.484,,,20,8,15.5,,,,,,,,,wg-a,,,,AAXX 29064 07207 12/70 30217 10090 20060 30064 40116 53001 60006 80001 90600 333 10155 20080=
07207,1996-04-29 12:00:00,15,1011.1,-1,48,4,25000,14.816,,,350,,,,,,,,,,,wg-a,,,,AAXX 29124 07207 12575 33508 10150 20040 30060 40111 58010 60006 82101 91200=
07207,1996-04-29 18:00:00,12,1008.8,-1,82,9,25000,22.224,,,310,8.5,15.4,,,,,,,,,wg-a,,,,AAXX 29184 07207 12575 53112 10120 20090 30036 40088 57010 60006 81102 91800 333 10154 20085=
07207,1996-04-30 00:00:00,12,1008.8,-1,82,9,25000,22.224,,,310,,15.4,,,,,,,,,wg-a,,,,AAXX 30004 07207 12575 53112 10120 20090 30036 40088 57010 60006 81102 90000 333 10154=
07207,1996-04-30 06:00:00,8,1007.7,-0.4,87,6,25000,7.408,,,20,5.1,12.1,,,,,,,,,wg-a,,,,AAXX 30064 07207 12475 60204 10080 20060 30025 40077 55004 60006 85901 90600 333 10121 20051=
07207,1996-04-30 12:00:00,12,1006.3,-0.9,62,5,25000,11.112,,,250,,,,,,,,,,,wg-a,,,,AAXX 30124 07207 12575 42506 10120 20050 30011 40063 58009 60006 82252 91200=
07207,1996-04-30 18:00:00,11,1003.2,-1.2,76,7,25000,25.928,,,280,8.1,12.4,,,,,,,,,wg-a,,,,AAXX 30184 07207 12575 62814 10110 20070 39981 40032 56012 60006 83231 91800 333 10124 20081=
07207,1996-05-01 00:00:00,11,1000.3,-1.7,76,7,20000,29.632,,,230,,,,,,,,,,,wg-a,,,,AAXX 01004 07207 12570 62316 10110 20070 39952 40003 58017 60006 85230 90000=
07207,1996-05-01 06:00:00,11,996,-1.5,82,8,20000,38.892,,61.116,210,9.6,11.3,,2,,,,,,25,wg-a,,,,AAXX 01064 07207 12470 82121 10110 20080 39909 49960 56015 60027 72582 8472/ 90600 333 10113 20096 91033=
07207,1996-05-01 12:00:00,11,994.2,-1.2,87,9,15000,42.596,,68.524,200,,,,1,,,,,,2,wg-a,,,,AAXX 01124 07207 02565 72023 10110 20090 39891 49942 58012 60016 70282 83722 91200 333 60017 91037=
07207,1996-05-01 18:00:00,11,991.3,-0.9,82,8,10000,31.484,,,210,9.2,12.2,,3,,,,,,2,wg-a,,,,AAXX 01184 07207 12460 82117 10110 20080 39862 49913 55009 60037 70262 887// 91800 333 10122 20092=
07207,1996-05-02 00:00:00,10,990.7,-0.4,82,7,20000,25.928,,,240,,,,1,,,,,,25,wg-a,,,,AAXX 02004 07207 02470 62414 10100 20070 39856 49907 57004 60056 72582 86300 90000 333 60017=
07207,1996-05-02 06:00:00,9,989.6,-0.5,87,7,20000,35.188,,53.708,210,8.8,10.6,,0,,,,,,80,wg-a,,,,AAXX 02064 07207 12470 72119 10090 20070 39845 49896 56005 60007 78082 879// 90600 333 10106 20088 91029=
07207,1996-05-02 12:00:00,10,990.7,1,93,9,20000,29.632,,,100,,,,2,,,,,,21,wg-a,,,,AAXX 02124 07207 02470 81016 10100 20090 39856 49907 53010 60046 72182 877// 91200 333 60027=
07207,1996-05-02 18:00:00,9,994.5,2.1,93,8,20000,29.632,,,20,8.7,12.4,,3,,,,,,61,wg-a,,,,AAXX 02184 07207 12470 70216 10090 20080 39894 49945 51021 60037 76162 867// 91800 333 10124 20087=
07207,1996-05-03 00:00:00,9,999.6,2,93,8,20000,25.928,,,360,,,,,,,,,,,wg-a,,,,AAXX 03004 07207 02570 33614 10090 20080 39944 49996 51020 61000 83100 90000 333 ////=
07207,1996-05-03 06:00:00,9,1002.4,1.5,93,8,8000,29.632,,,350,7.9,9.7,,,,,,,,,wg-a,,,,AAXX 03064 07207 32558 63516 10090 20080 39972 40024 52015 84230 90600 333 10097 20079=
07207,1996-05-03 12:00:00,12,1006.4,1.7,71,7,20000,25.928,,,20,,,,,,,,,,,wg-a,,,,AAXX 03124 07207 12570 60214 10120 20070 30013 40064 51017 60006 83230 91200=
07207,1996-05-03 18:00:00,11,1009.3,1.5,71,6,25000,18.52,,,30,9,13.1,,,,,,,,,wg-a,,,,AAXX 03184 07207 12575 70310 10110 20060 30041 40093 53015 60006 83260 91800 333 10131 20090=
07207,1996-05-04 00:00:00,8,1012.2,1,87,6,20000,14.816,,,80,,,,,,,,,,,wg-a,,,,AAXX 04004 07207 12670 80808 10080 20060 30070 40122 51010 60006 885// 90000=
07207,1996-05-04 06:00:00,9,1013.9,1.1,87,7,15000,11.112,,,100,8,10.6,,,,,,,,,wg-a,,,,AAXX 04064 07207 12765 61006 10090 20070 30087 40139 53011 60006 85530 90600 333 10106 20080=
07207,1996-05-04 12:00:00,12,1015.8,0.7,76,8,15000,18.52,,,140,,,,,,,,,,,wg-a,,,,AAXX 04124 07207 12665 51410 10120 20080 30106 40158 50007 60006 83102 91200=
07207,1996-05-04 18:00:00,13,1015.9,-0.1,58,5,25000,18.52,,,90,8.3,13.6,,,,,,,,,wg-a,,,,AAXX 04184 07207 12575 20910 10130 20050 30107 40159 55001 60006 81231 91800 333 10136 20083=
07207,1996-05-05 00:00:00,9,1017.1,0.4,76,5,20000,22.224,,,90,,,,,,,,,,,wg-a,,,,AAXX 05004 07207 12570 30912 10090 20050 30118 40171 52004 60006 82231 90000=
07207,1996-05-05 06:00:00,8,1016.3,-0.3,76,4,20000,29.632,,,60,7.2,12.6,,,,,,,,,wg-a,,,,AAXX 05064 07207 12870 60616 10080 20040 30110 40163 55003 60006 86030 90600 333 10126 20072=
07207,1996-05-05 12:00:00,13,1014.5,-1.4,58,5,25000,38.892,,57.412,70,,,,,,,,,,,wg-a,,,,AAXX 05124 07207 12875 30721 10130 20050 30093 40145 58014 60006 81031 91200 333 91031=
07207,1996-05-05 18:00:00,15,1011.5,-1.3,59,7,25000,31.484,,,60,8.2,15.5,,,,,,,,,wg-a,,,,AAXX 05184 07207 12/75 10617 10150 20070 30064 40115 57013 60006 80001 91800 333 10155 20082=
07207,1996-05-06 00:00:00,11,1010.4,-0.8,71,6,20000,38.892,,,60,,,,,,,,,,,wg-a,,,,AAXX 06004 07207 12870 20621 10110 20060 30052 40104 58008 60006 82032 90000=
07207,1996-05-06 06:00:00,8,1008.4,-0.5,81,5,10000,57.412,,79.636,60,7.7,14.5,,1,,,,,,25,wg-a,,,,AAXX 06064 07207 12660 80631 10080 20050 30032 40084 56005 60017 72511 885// 90600 333 10145 20077 91043=
07207,1996-05-06 12:00:00,10,1008.6,-0.8,82,7,12000,50.004,,87.044,70,,,,0,,,,,,2,wg-a,,,,AAXX 06124 07207 02862 80727 10100 20070 30034 40086 58008 60026 70282 8802/ 91200 333 60007 91047=
07207,1996-05-06 18:00:00,10,1007.1,-0.4,93,9,12000,50.004,,83.34,60,7.3,10.5,,1,,,,,,25,wg-a,,,,AAXX 06184 07207 12562 80627 10100 20090 30019 40071 58004 60017 72582 886// 91800 333 10105 20073 91045=
07207,1996-05-07 00:00:00,10,1007.6,0.4,87,8,8000,42.596,,79.636,70,,,,0,,,,,,2,wg-a,,,,AAXX 07004 07207 02558 80723 10100 20080 30024 40076 53004 60006 70282 886// 90000 333 60007 91043=
07207,1996-05-07 06:00:00,9,1006.9,0.2,93,8,500,42.596,,79.636,60,8.8,10.1,,0,,,,,,2,wg-a,,,,AAXX 07064 07207 12400 80623 10090 20080 30017 40069 52002 60007 70282 887// 90600 333 10101 20088 91043=
07207,1996-05-07 12:00:00,12,1007.4,-0.2,88,10,500,38.892,,64.82,40,,,,0,,,,,,2,wg-a,,,,AAXX 07124 07207 02400 80421 10120 20100 30022 40074 58002 60016 70262 887// 91200 333 60007 91035=
07207,1996-05-07 18:00:00,13,1008.4,0.7,82,10,8000,31.484,,,30,8.9,13.2,,,,,,,,2,wg-a,,,,AAXX 07184 07207 32458 70317 10130 20100 30033 40084 53007 70262 877// 91800 333 10132 20089=
07207,1996-05-08 00:00:00,11,1011.1,1,87,9,8000,35.188,,,40,,,,,,,,,,,wg-a,,,,AAXX 08004 07207 12458 80419 10110 20090 30059 40111 53010 60006 887// 90000=
07207,1996-05-08 06:00:00,10,1013.5,1.3,93,9,6000,35.188,,61.116,40,9.2,12.7,,2,,,,,,2,wg-a,,,,AAXX 08064 07207 12456 70419 10100 20090 30083 40135 53013 60027 70262 877// 90600 333 10127 20092 91033=
07207,1996-05-08 12:00:00,11,1015.9,0.6,87,9,10000,42.596,,64.82,40,,,,,,,,,,,wg-a,,,,AAXX 08124 07207 12460 80423 10110 20090 30107 40159 53006 60006 887// 91200 333 91035=
07207,1996-05-08 18:00:00,11,1017.1,0.7,82,8,15000,42.596,,75.932,50,9.5,13.2,,,,,,,,,wg-a,,,,AAXX 08184 07207 32465 80523 10110 20080 30119 40171 53007 887// 91800 333 10132 20095 91041=
07207,1996-05-09 00:00:00,8,1019.5,0.5,81,5,10000,35.188,,72.228,40,,,,,,,,,,,wg-a,,,,AAXX 09004 07207 12460 70419 10080 20050 30142 40195 50005 60006 877// 90000 333 91039=
07207,1996-05-09 06:00:00,7,1019.6,0.7,87,5,18000,35.188,,64.82,40,6.5,10.8,,,,,,,,,wg-a,,,,AAXX 09064 07207 12668 50419 10070 20050 30143 40196 51007 60006 82102 90600 333 10108 20065 91035=
07207,1996-05-09 12:00:00,13,1018,-1.2,58,5,20000,42.596,,94.452,40,,,,,,,,,,,wg-a,,,,AAXX 09124 07207 12/70 50423 10130 20050 30128 40180 58012 60006 80002 91200 333 91051=
07207,1996-05-09 18:00:00,11,1016.5,-0.8,62,4,25000,42.596,,64.82,40,7,13.9,,,,,,,,,wg-a,,,,AAXX 09184 07207 12675 30423 10110 20040 30113 40165 56008 60006 81102 91800 333 10139 20070 91035=
07207,1996-05-10 00:00:00,7,1016.7,-0.6,76,3,20000,38.892,,64.82,50,,,,,,,,,,,wg-a,,,,AAXX 10004 07207 12670 40521 10070 20030 30114 40167 58006 60006 82102 90000 333 91035=
07207,1996-05-10 06:00:00,7,1014.9,-0.7,76,3,20000,42.596,,64.82,50,5.8,10.8,,,,,,,,,wg-a,,,,AAXX 10064 07207 12570 70523 10070 20030 30096 40149 56007 60006 872// 90600 333 10108 20058 91035=
07207,1996-05-10 12:00:00,12,1014,-0.7,58,4,25000,29.632,,,50,,,,,,,,,,,wg-a,,,,AAXX 10124 07207 12675 30516 10120 20040 30088 40140 58007 60006 82101 91200=
07207,1996-05-10 18:00:00,11,1012.5,-0,66,5,25000,29.632,,50.004,30,6.5,13.5,,,,,,,,,wg-a,,,,AAXX 10184 07207 12575 50316 10110 20050 30073 40125 55000 60006 83231 91800 333 10135 20065 91027=
07207,1996-05-11 00:00:00,8,1013.6,-0.4,76,4,0,31.484,,,50,,,,,,,,,,,wg-a,,,,AAXX 11004 07207 12/// /0517 10080 20040 30083 40136 58004 60006 90000=
07207,1996-05-11 06:00:00,7,1013.7,0.5,87,5,15000,29.632,,,50,6.5,10.7,,,,,,,,,wg-a,,,,AAXX 11064 07207 12565 50516 10070 20050 30084 40137 53005 60006 82231 90600 333 10107 20065=
07207,1996-05-11 12:00:00,13,1014.7,0.4,58,5,18000,22.224,,,60,,,,,,,,,,,wg-a,,,,AAXX 11124 07207 12668 30612 10130 20050 30095 40147 51004 60006 81130 91200=
07207,1996-05-11 18:00:00,11,1016.1,1.3,66,5,25000,14.816,,,60,6.9,13.5,,,,,,,,,wg-a,,,,AAXX 11184 07207 12675 70608 10110 20050 30109 40161 53013 60006 85530 91800 333 10135 20069=
07207,1996-05-12 00:00:00,5,1019.1,0.8,93,4,20000,22.224,,,30,,,,,,,,,,1,wg-a,,,,AAXX 12004 07207 12670 10312 10050 20040 30138 40191 51008 60036 70181 811// 90000=
07207,1996-05-12 06:00:00,7,1021.5,1.7,93,6,18000,14.816,,,30,4.4,10.9,,,,,,,,,wg-a,,,,AAXX 12064 07207 32/68 00308 10070 20060 30162 40215 53017 80000 90600 333 10109 20044=
07207,1996-05-12 12:00:00,12,1023.9,0.9,62,5,20000,18.52,,,280,,,,,,,,,,,wg-a,,,,AAXX 12124 07207 12670 12810 10120 20050 30187 40239 52009 60006 81100 91200=
07207,1996-05-12 18:00:00,12,1025.1,0.8,67,6,20000,22.224,,,310,7.2,12.8,,,,,,,,,wg-a,,,,AAXX 12184 07207 12670 23112 10120 20060 30199 40251 51008 60006 81130 91800 333 10128 20072=
07207,1996-05-13 00:00:00,8,1026.9,0.3,81,5,20000,18.52,,,40,,,,,,,,,,,wg-a,,,,AAXX 13004 07207 12670 10410 10080 20050 30216 40269 51003 60006 81100 90000=
07207,1996-05-13 06:00:00,8,1027.2,0.5,93,7,20000,14.816,,,80,6.2,11.7,,,,,,,,,wg-a,,,,AAXX 13064 07207 12670 50808 10080 20070 30219 40272 53005 60006 82102 90600 333 10117 20062=
07207,1996-05-13 12:00:00,13,1026.5,-1,62,6,25000,11.112,,,160,,,,,,,,,,,wg-a,,,,AAXX 13124 07207 12675 51606 10130 20060 30213 40265 58010 60006 81102 91200=
07207,1996-05-13 18:00:00,13,1024.2,-1,62,6,25000,18.52,,,320,8.3,14.3,,,,,,,,,wg-a,,,,AAXX 13184 07207 12/75 33210 10130 20060 30190 40242 56010 60006 80002 91800 333 10143 20083=
07207,1996-05-14 00:00:00,10,1023.4,-0.9,82,7,20000,22.224,,,50,,,,,,,,,,,wg-a,,,,AAXX 14004 07207 12670 10512 10100 20070 30181 40234 57009 60006 81100 90000=
07207,1996-05-14 06:00:00,10,1020.9,-0.8,76,6,10000,29.632,,,70,8.6,12.6,,,,,,,,,wg-a,,,,AAXX 14064 07207 12/60 50716 10100 20060 30156 40209 56008 60006 80002 90600 333 10126 20086=
07207,1996-05-14 12:00:00,15,1018.4,-2.1,51,5,11000,25.928,,,60,,,,,,,,,,,wg-a,,,,AAXX 14124 07207 12/61 00614 10150 20050 30132 40184 58021 60006 80000 91200=
07207,1996-05-14 18:00:00,13,1016.2,-0.6,67,7,15000,31.484,,,50,9.8,17.2,,,,,,,,,wg-a,,,,AAXX 14184 07207 12865 60517 10130 20070 30110 40162 58006 60006 82032 91800 333 10172 20098=
07207,1996-05-15 00:00:00,11,1016,-0.5,82,8,15000,25.928,,,50,,,,,,,,,,,wg-a,,,,AAXX 15004 07207 12/65 60514 10110 20080 30108 40160 56005 60006 80002 90000=
07207,1996-05-15 06:00:00,11,1014.7,-0.3,87,9,500,25.928,,,60,9.9,12.5,,,,,,,,,wg-a,,,,AAXX 15064 07207 12400 80614 10110 20090 30095 40147 55003 60006 886// 90600 333 10125 20099=
07207,1996-05-15 12:00:00,13,1013.9,-0.9,88,11,8000,31.484,,,60,,,,,,,,,,,wg-a,,,,AAXX 15124 07207 12458 80617 10130 20110 30087 40139 58009 60006 886// 91200=
07207,1996-05-15 18:00:00,14,1011.6,-1,77,10,9000,31.484,,,80,10.5,15.4,,,,,,,,,wg-a,,,,AAXX 15184 07207 12659 80817 10140 20100 30065 40116 57010 60006 885// 91800 333 10154 20105=
07207,1996-05-16 00:00:00,10,1010.6,-2,82,7,10000,42.596,,68.524,80,,,,,,,,,,,wg-a,,,,AAXX 16004 07207 12660 60823 10100 20070 30054 40106 58020 60006 86500 90000 333 91037=
07207,1996-05-16 06:00:00,10,1006.2,-4.4,87,8,6000,53.708,,83.34,70,9.7,13.6,,0,,,,,,2,wg-a,,,,AAXX 16064 07207 12456 80729 10100 20080 30010 40062 56044 60007 70262 8572/ 90600 333 10136 20097 91045=
07207,1996-05-16 12:00:00,10,1006.3,-0.5,93,9,500,29.632,,68.524,80,,,,,,,,,,2,wg-a,,,,AAXX 16124 07207 12400 80816 10100 20090 30011 40063 56005 60076 70296 88700 91200 333 91037=
07207,1996-05-16 18:00:00,9,1005.5,-0.6,100,9,500,14.816,,,60,8.8,10.7,,,,,,,,,wg-a,,,,AAXX 16184 07207 32400 80608 10090 20090 30003 40055 56006 887// 91800 333 10107 20088=
07207,1996-05-17 00:00:00,8,1005.7,-0.6,100,8,6000,14.816,,,40,,,,0,,,,,,2,wg-a,,,,AAXX 17004 07207 02456 80408 10080 20080 30005 40057 58006 60016 70262 887// 90000 333 60007=
07207,1996-05-17 06:00:00,8,1004.9,-0.6,100,8,500,14.816,,,20,8,9.4,,,,,,,,,wg-a,,,,AAXX 17064 07207 32400 80208 10080 20080 39997 40049 58006 887// 90600 333 10094 20080=
07207,1996-05-17 12:00:00,10,1004.8,0.2,93,9,8000,14.816,,,70,,,,1,,,,,,50,wg-a,,,,AAXX 17124 07207 02458 80708 10100 20090 39996 40048 50002 60016 75052 885// 91200 333 60017=
07207,1996-05-17 18:00:00,10,1003.4,-0.7,100,10,7000,11.112,,,30,8.3,11,,,,,,,,60,wg-a,,,,AAXX 17184 07207 32457 80306 10100 20100 39982 40034 55007 76062 887// 91800 333 10110 20083=
07207,1996-05-18 00:00:00,9,1001.4,-1.2,100,9,500,18.52,,,40,,,,1,,,,,,60,wg-a,,,,AAXX 18004 07207 02400 80410 10090 20090 39962 40014 58012 60036 76062 887// 90000 333 60017=
07207,1996-05-18 06:00:00,10,999,-0.6,100,10,2000,14.816,,,50,9.2,10.4,,,,,,,,10,wg-a,,,,AAXX 18064 07207 32420 80508 10100 20100 39939 49990 56006 71062 886// 90600 333 10104 20092=
07207,1996-05-18 12:00:00,13,996.6,-1.9,100,13,2500,29.632,,,70,,,,0,,,,,,10,wg-a,,,,AAXX 18124 07207 02425 80716 10130 20130 39915 49966 58019 60016 71062 886// 91200 333 60007=
07207,1996-05-18 18:00:00,10,995.3,1.8,93,9,8000,38.892,,103.712,290,9.6,14.5,,6,,,,,,2,wg-a,,,,AAXX 18184 07207 12558 72921 10100 20090 39902 49953 53018 60067 70262 877// 91800 333 10145 20096 91056=
07207,1996-05-19 00:00:00,9,1002.8,2.3,76,5,15000,38.892,,94.452,290,,,,,,,,,,,wg-a,,,,AAXX 19004 07207 12565 52921 10090 20050 39976 40028 51023 60006 85200 90000 333 91051=
07207,1996-05-19 06:00:00,10,1003.7,0.4,76,6,15000,31.484,,,260,7.8,10,,,,,,,,15,wg-a,,,,AAXX 19064 07207 12465 62617 10100 20060 39985 40037 53004 60006 71522 85901 90600 333 10100 20078=
07207,1996-05-19 12:00:00,11,1006.9,1.4,71,6,25000,14.816,,50.004,240,,,,0,,,,,,1,wg-a,,,,AAXX 19124 07207 02575 52408 10110 20060 30017 40069 51014 60006 70182 83231 91200 333 60007 91027=
07207,1996-05-19 18:00:00,12,1008.8,1.2,71,7,25000,7.408,,,220,8.8,12.5,,0,,,,,,1,wg-a,,,,AAXX 19184 07207 12575 42204 10120 20070 30036 40088 52012 60007 70181 83261 91800 333 10125 20088=
07207,1996-05-20 00:00:00,11,1011.2,0.6,82,8,20000,14.816,,,250,,,,,,,,,,2,wg-a,,,,AAXX 20004 07207 12570 72508 10110 20080 30060 40112 53006 60006 70281 878// 90000=
07207,1996-05-20 06:00:00,11,1014.5,1.6,87,9,20000,7.408,,,300,9.5,11.6,,,,,,,,,wg-a,,,,AAXX 20064 07207 32470 63004 10110 20090 30093 40145 53016 85331 90600 333 10116 20095=
07207,1996-05-20 12:00:00,13,1017.5,0.9,67,7,500,11.112,,,260,,,,,,,,,,,wg-a,,,,AAXX 20124 07207 12500 42606 10130 20070 30123 40175 51009 60006 82201 91200=
07207,1996-05-20 18:00:00,13,1018.5,0.4,67,7,500,18.52,,,250,10.9,13.8,,,,,,,,,wg-a,,,,AAXX 20184 07207 12500 32510 10130 20070 30133 40185 51004 60006 83200 91800 333 10138 20109=
07207,1996-05-21 00:00:00,11,1018.8,-0.2,87,9,20000,35.188,,,230,,,,0,,,,,,80,wg-a,,,,AAXX 21004 07207 02470 62319 10110 20090 30136 40188 56002 60006 78011 86200 90000 333 60007=
07207,1996-05-21 06:00:00,11,1021.2,1.6,76,7,25000,29.632,,53.708,290,10.1,12.6,,,,,,,,2,wg-a,,,,AAXX 21064 07207 32575 62916 10110 20070 30160 40212 53016 70262 85260 90600 333 10126 20101 91029=
07207,1996-05-21 12:00:00,13,1025.1,1.9,72,8,500,29.632,,,280,,,,,,,,,,,wg-a,,,,AAXX 21124 07207 12500 42816 10130 20080 30199 40251 51019 60006 83201 91200=
07207,1996-05-21 18:00:00,13,1026.5,0.4,72,8,500,22.224,,,280,11.1,13.8,,,,,,,,,wg-a,,,,AAXX 21184 07207 12500 42812 10130 20080 30213 40265 51004 60006 82201 91800 333 10138 20111=
07207,1996-05-22 00:00:00,12,1026.4,-1.1,82,9,20000,25.928,,,220,,,,,,,,,,,wg-a,,,,AAXX 22004 07207 12570 32214 10120 20090 30212 40264 56011 60006 82230 90000=
07207,1996-05-22 06:00:00,12,1023.6,-1.1,88,10,20000,35.188,,,220,11.7,12.6,,,,,,,,,wg-a,,,,AAXX 22064 07207 12570 82219 10120 20100 30184 40236 56011 60006 85232 90600 333 10126 20117=
07207,1996-05-22 12:00:00,12,1021.9,-1.2,94,11,12000,46.3,,61.116,220,,,,2,,,,,,,wg-a,,,,AAXX 22124 07207 02562 82225 10120 20110 30167 40219 58012 60026 887// 91200 333 60027 91033=
07207,1996-05-22 18:00:00,13,1019.6,-0.4,100,13,4000,42.596,,,260,11.5,12.9,,1,,,,,,2,wg-a,,,,AAXX 22184 07207 12440 82623 10130 20130 30144 40196 56004 60017 70262 887// 91800 333 10129 20115=
07207,1996-05-23 00:00:00,13,1021,0.2,100,13,4000,31.484,,61.116,270,,,,,,,,,,2,wg-a,,,,AAXX 23004 07207 12440 82717 10130 20130 30158 40210 52002 60006 70262 887// 90000 333 91033=
07207,1996-05-23 06:00:00,13,1021.8,0.8,100,13,500,31.484,,,260,12.4,12.8,,,,,,,,2,wg-a,,,,AAXX 23064 07207 32400 82617 10130 20130 30166 40218 53008 70262 887// 90600 333 10128 20124=
07207,1996-05-23 12:00:00,14,1022.5,0,94,13,12000,22.224,,,240,,,,,,,,,,,wg-a,,,,AAXX 23124 07207 12662 72412 10140 20130 30173 40225 50000 60006 875// 91200=
07207,1996-05-23 18:00:00,13,1020.5,-1.2,94,12,15000,14.816,,,240,12.5,14,,,,,,,,,wg-a,,,,AAXX 23184 07207 12665 82408 10130 20120 30153 40205 56012 60006 885// 91800 333 10140 20125=
07207,1996-05-24 00:00:00,12,1018.6,-1.1,94,11,10000,22.224,,,230,,,,,,,,,,,wg-a,,,,AAXX 24004 07207 12660 82312 10120 20110 30134 40186 58011 60006 885// 90000=
07207,1996-05-24 06:00:00,12,1015.9,-0.6,94,11,22000,25.928,,,240,12.1,12.9,,,,,,,,,wg-a,,,,AAXX 24064 07207 12772 62414 10120 20110 30107 40159 56006 60006 84532 90600 333 10129 20121=
07207,1996-05-24 12:00:00,14,1014.7,-0.8,88,12,18000,29.632,,,220,,,,,,,,,,,wg-a,,,,AAXX 24124 07207 12768 72216 10140 20120 30095 40147 58008 60006 8353/ 91200=
07207,1996-05-24 18:00:00,13,1012.5,-1,100,13,8000,38.892,,,240,12.4,14.3,,,,,,,,,wg-a,,,,AAXX 24184 07207 12758 82421 10130 20130 30074 40125 58010 60006 885// 91800 333 10143 20124=
07207,1996-05-25 00:00:00,13,1012.8,-0.2,100,13,8000,25.928,,61.116,250,,,,,,,,,,,wg-a,,,,AAXX 25004 07207 12758 82514 10130 20130 30076 40128 57002 60006 885// 90000 333 91033=
07207,1996-05-25 06:00:00,12,1012,-0.2,100,12,8000,18.52,,,250,12.3,13.4,,3,,,,,,61,wg-a,,,,AAXX 25064 07207 12458 82510 10120 20120 30068 40120 56002 60037 76162 885// 90600 333 10134 20123=
07207,1996-05-25 12:00:00,13,1012,-0.3,100,13,1800,7.408,,,250,,,,3,,,,,,54,wg-a,,,,AAXX 25124 07207 02418 82504 10130 20130 30069 40120 56003 60066 75462 885// 91200 333 60037=
07207,1996-05-25 18:00:00,13,1014.6,1.8,100,13,10000,14.816,,,290,11.4,13.6,,,,,,,,1,wg-a,,,,AAXX 25184 07207 32460 72908 10130 20130 30094 40146 51018 70152 8653/ 91800 333 10136 20114=
07207,1996-05-26 00:00:00,12,1018.2,1.2,100,12,500,18.52,,,280,,,,,,,,,,,wg-a,,,,AAXX 26004 07207 12400 82810 10120 20120 30130 40182 51012 60006 855// 90000=
07207,1996-05-26 06:00:00,12,1019.3,1.1,100,12,15000,25.928,,,270,12,13.4,,,,,,,,,wg-a,,,,AAXX 26064 07207 12665 82714 10120 20120 30141 40193 51011 60006 885// 90600 333 10134 20120=
07207,1996-05-26 12:00:00,13,1019,-0.7,100,13,4000,31.484,,53.708,240,,,,,,,,,,,wg-a,,,,AAXX 26124 07207 12440 82417 10130 20130 30138 40190 58007 60006 887// 91200 333 91029=
07207,1996-05-26 18:00:00,13,1018.4,-0.3,100,13,3000,31.484,,,270,12.1,13.5,,,,,,,,,wg-a,,,,AAXX 26184 07207 12430 82717 10130 20130 30132 40184 57003 60006 887// 91800 333 10135 20121=
07207,1996-05-27 00:00:00,13,1018.2,-0.5,94,12,500,31.484,,,270,,,,,,,,,,,wg-a,,,,AAXX 27004 07207 12400 82717 10130 20120 30130 40182 56005 60006 887// 90000=
07207,1996-05-27 06:00:00,12,1018.8,1,94,11,10000,42.596,,75.932,290,12,13.1,,,,,,,,,wg-a,,,,AAXX 27064 07207 12660 82923 10120 20110 30136 40188 53010 60006 885// 90600 333 10131 20120 91041=
07207,1996-05-27 12:00:00,14,1021.8,1.3,88,12,20000,31.484,,75.932,290,,,,,,,,,,,wg-a,,,,AAXX 27124 07207 12770 52917 10140 20120 30166 40218 53013 60006 84502 91200 333 91041=
07207,1996-05-27 18:00:00,12,1023.8,1.2,94,11,15000,22.224,,53.708,290,11.9,14.3,,,,,,,,,wg-a,,,,AAXX 27184 07207 32765 72912 10120 20110 30186 40238 51012 875// 91800 333 10143 20119 91029=
07207,1996-05-28 00:00:00,12,1026.7,1.4,100,12,10000,14.816,,,320,,,,,,,,,,,wg-a,,,,AAXX 28004 07207 12760 83208 10120 20120 30215 40267 51014 60006 885// 90000=
07207,1996-05-28 06:00:00,12,1027.1,0.8,94,11,18000,3.704,,,330,11.5,12.5,,,,,,,,,wg-a,,,,AAXX 28064 07207 12768 73302 10120 20110 30219 40271 52008 60006 875// 90600 333 10125 20115=
07207,1996-05-28 12:00:00,15,1027.8,0.1,77,11,25000,7.408,,,230,,,,,,,,,,,wg-a,,,,AAXX 28124 07207 12575 62304 10150 20110 30226 40278 50001 60006 83230 91200=
07207,1996-05-28 18:00:00,14,1025.9,-1.1,77,10,500,11.112,,,250,12.1,15.5,,,,,,,,,wg-a,,,,AAXX 28184 07207 12600 52506 10140 20100 30207 40259 57011 60006 83130 91800 333 10155 20121=
07207,1996-05-29 00:00:00,13,1025.2,-0.9,88,11,20000,3.704,,,270,,,,,,,,,,,wg-a,,,,AAXX 29004 07207 12670 72702 10130 20110 30200 40252 58009 60006 87500 90000=
07207,1996-05-29 06:00:00,13,1024.3,0.3,94,12,20000,7.408,,,150,12.3,14.2,,,,,,,,,wg-a,,,,AAXX 29064 07207 12670 71504 10130 20120 30191 40243 53003 60006 875// 90600 333 10142 20123=
07207,1996-05-29 18:00:00,17,1021.3,-1.2,72,12,500,7.408,,,290,13,17.6,,,,,,,,,wg-a,,,,AAXX 29184 07207 12600 12904 10170 20120 30162 40213 56012 60006 81101 91800 333 10176 20130=
07207,1996-05-30 00:00:00,13,1018.9,-1.7,94,12,15000,7.408,,,90,,,,,,,,,,,wg-a,,,,AAXX 30004 07207 12665 10904 10130 20120 30137 40189 58017 60006 81100 90000=
07207,1996-05-30 06:00:00,16,1015.4,-1.1,88,14,15000,22.224,,,120,11.2,16.8,,,,,,,,,wg-a,,,,AAXX 30064 07207 12/65 21212 10160 20140 30103 40154 56011 60006 80001 90600 333 10168 20112=
07207,1996-05-30 12:00:00,18,1013.7,-1,77,14,20000,22.224,,,130,,,,,,,,,,,wg-a,,,,AAXX 30124 07207 12/70 31312 10180 20140 30086 40137 56010 60006 80002 91200=
07207,1996-05-30 18:00:00,14,1014.8,1.5,94,13,15000,29.632,,,290,14.3,18.5,,,,,,,,,wg-a,,,,AAXX 30184 07207 12665 82916 10140 20130 30097 40148 53015 60006 885// 91800 333 10185 20143=
07207,1996-05-31 00:00:00,14,1019,2.1,94,13,10000,25.928,,,270,,,,,,,,,,,wg-a,,,,AAXX 31004 07207 12660 82714 10140 20130 30138 40190 51021 60006 885// 90000=
07207,1996-05-31 06:00:00,13,1022.3,2,88,11,12000,18.52,,,290,12.9,14.4,,,,,,,,,wg-a,,,,AAXX 31064 07207 12562 72910 10130 20110 30171 40223 51020 60006 878// 90600 333 10144 20129=
07207,1996-05-31 12:00:00,15,1025.2,1.1,77,11,18000,18.52,,,290,,,,,,,,,,,wg-a,,,,AAXX 31124 07207 12668 72910 10150 20110 30200 40252 51011 60006 8553/ 91200=
07207,1996-05-31 18:00:00,14,1024.8,-0.1,77,10,18000,22.224,,,280,13.1,15.1,,,,,,,,,wg-a,,,,AAXX 31184 07207 12568 42812 10140 20100 30196 40248 56001 60006 8323/ 91800 333 10151 20131=
07207,1996-06-01 00:00:00,13,1025.4,-0.1,82,10,12000,18.52,,,280,,,,,,,,,,,wg-a,,,,AAXX 01004 07207 12562 32810 10130 20100 30202 40254 58001 60006 83200 90000=
07207,1996-06-01 06:00:00,13,1024.8,0.4,82,10,20000,25.928,,,280,12.2,14.1,,,,,,,,,wg-a,,,,AAXX 01064 07207 12570 52814 10130 20100 30196 40248 51004 60006 84201 90600 333 10141 20122=
07207,1996-06-01 12:00:00,15,1025.2,-0.1,72,10,25000,22.224,,,290,,,,,,,,,,,wg-a,,,,AAXX 01124 07207 12575 42912 10150 20100 30200 40252 58001 60006 82231 91200=
07207,1996-06-01 18:00:00,13,1023.7,-0.9,77,9,25000,18.52,,,270,12.2,15.2,,0,,,,,,,wg-a,,,,AAXX 01184 07207 12575 72710 10130 20090 30185 40237 58009 60007 83232 91800 333 10152 20122=
07207,1996-06-02 00:00:00,11,1021.5,-1.3,76,7,15000,7.408,,,310,,,,,,,,,,,wg-a,,,,AAXX 02004 07207 12565 33104 10110 20070 30163 40215 58013 60006 83200 90000=
07207,1996-06-02 06:00:00,11,1019.6,-0.4,87,9,18000,7.408,,,50,9.3,13.3,,,,,,,,,wg-a,,,,AAXX 02064 07207 12568 70504 10110 20090 30144 40196 55004 60006 84232 90600 333 10133 20093=
07207,1996-06-02 12:00:00,15,1019.8,0,72,10,25000,14.816,,,280,,,,,,,,,,,wg-a,,,,AAXX 02124 07207 12575 32808 10150 20100 30146 40198 50000 60006 82231 91200=
07207,1996-06-02 18:00:00,14,1020.3,0.7,72,9,500,25.928,,,320,11,15.3,,,,,,,,,wg-a,,,,AAXX 02184 07207 12500 43214 10140 20090 30151 40203 52007 60006 82230 91800 333 10153 20110=
07207,1996-06-03 00:00:00,9,1022.4,0.2,81,6,18000,18.52,,,40,,,,,,,,,,,wg-a,,,,AAXX 03004 07207 12868 20410 10090 20060 30171 40224 50002 60006 82030 90000=
07207,1996-06-03 06:00:00,11,1023.9,1,82,8,25000,11.112,,,70,7.8,14.2,,,,,,,,,wg-a,,,,AAXX 03064 07207 12/75 00706 10110 20080 30187 40239 53010 60006 80000 90600 333 10142 20078=
07207,1996-06-03 12:00:00,16,1025.2,0.2,68,10,25000,14.816,,,210,,,,,,,,,,,wg-a,,,,AAXX 03124 07207 12875 62108 10160 20100 30200 40252 50002 60006 86030 91200=
07207,1996-06-04 00:00:00,14,1026.5,0.2,94,13,18000,11.112,,,250,,,,,,,,,,,wg-a,,,,AAXX 04004 07207 12868 62506 10140 20130 30213 40265 50002 60006 86030 90000=
07207,1996-06-04 06:00:00,14,1027.7,1.2,94,13,20000,3.704,,,230,13,14.9,,,,,,,,,wg-a,,,,AAXX 04064 07207 12670 62302 10140 20130 30225 40277 53012 60006 86500 90600 333 10149 20130=
07207,1996-06-04 12:00:00,18,1028,-0.1,77,14,500,11.112,,,150,,,,,,,,,,,wg-a,,,,AAXX 04124 07207 12500 21506 10180 20140 30229 40280 58001 60006 82230 91200=
07207,1996-06-04 18:00:00,17,1026.2,-1,77,13,500,7.408,,,310,13.9,18.4,,,,,,,,,wg-a,,,,AAXX 04184 07207 12500 23104 10170 20130 30211 40262 58010 60006 81101 91800 333 10184 20139=
07207,1996-06-05 00:00:00,15,1024.5,-1.4,67,9,20000,25.928,,,60,,,,,,,,,,,wg-a,,,,AAXX 05004 07207 12/70 00614 10150 20090 30193 40245 58014 60006 80000 90000=
07207,1996-06-05 06:00:00,18,1023,-0.3,68,12,20000,22.224,,,110,13.2,18.4,,,,,,,,,wg-a,,,,AAXX 05064 07207 12670 21112 10180 20120 30179 40230 56003 60006 82100 90600 333 10184 20132=
07207,1996-06-05 12:00:00,22,1022.1,-0.4,60,14,15000,14.816,,,110,,,,,,,,,,,wg-a,,,,AAXX 05124 07207 12/65 11108 10220 20140 30171 40221 58004 60006 80001 91200=
07207,1996-06-05 18:00:00,24,1019.7,-1.2,50,13,15000,3.704,,,160,17.8,24.9,,,,,,,,,wg-a,,,,AAXX 05184 07207 12/65 31602 10240 20130 30147 40197 56012 60006 80002 91800 333 10249 20178=
07207,1996-06-06 00:00:00,17,1018.7,-1.2,77,13,18000,22.224,,,30,,,,,,,,,,,wg-a,,,,AAXX 06004 07207 12/68 10312 10170 20130 30136 40187 58012 60006 80001 90000=
07207,1996-06-06 06:00:00,20,1017.1,-0.1,73,15,12000,18.52,,,110,16.3,24.3,,,,,,,,,wg-a,,,,AAXX 06064 07207 12/62 41110 10200 20150 30120 40171 56001 60006 80002 90600 333 10243 20163=
07207,1996-06-06 12:00:00,20,1017.1,-0.4,83,17,11000,18.52,,,120,,,,,,,,,,,wg-a,,,,AAXX 06124 07207 12/61 31210 10200 20170 30121 40171 58004 60006 80002 91200=
07207,1996-06-06 18:00:00,18,1016.2,-0.5,94,17,6000,14.816,,,120,18,20.9,,,,,,,,,wg-a,,,,AAXX 06184 07207 12/56 01208 10180 20170 30111 40162 58005 60006 80000 91800 333 10209 20180=
07207,1996-06-07 00:00:00,15,1016.1,-0.2,100,15,300,11.112,,,120,,,,0,,,,,,45,wg-a,,,,AAXX 07004 07207 02/03 91206 10150 20150 30110 40161 58002 60006 74540 89/// 90000 333 60007=
07207,1996-06-07 06:00:00,19,1013.8,-0.9,83,16,16000,18.52,,,110,13.6,19.3,,,,,,,,2,wg-a,,,,AAXX 07064 07207 32566 11110 10190 20160 30088 40138 56009 70240 81200 90600 333 10193 20136=
07207,1996-06-07 12:00:00,17,1013.8,-0.2,94,16,0,31.484,,,160,,,,,,,,,,,wg-a,,,,AAXX 07124 07207 12/// /1617 10170 20160 30087 40138 56002 60006 91200=
07207,1996-06-07 18:00:00,16,1013.7,-0.2,100,16,800,14.816,,,210,15.6,19.6,,,,,,,,47,wg-a,,,,AAXX 07184 07207 12/08 92108 10160 20160 30086 40137 58002 60006 74742 89/// 91800 333 10196 20156=
07207,1996-06-08 00:00:00,16,1017.5,2.1,100,16,2000,25.928,,57.412,280,,,,1,,,,,,2,wg-a,,,,AAXX 08004 07207 02420 82814 10160 20160 30124 40175 51021 60016 70284 889// 90000 333 60017 91031=
07207,1996-06-08 06:00:00,13,1020.7,2.9,88,11,18000,22.224,,,340,12.6,16.1,,0,,,,,,25,wg-a,,,,AAXX 08064 07207 12668 83412 10130 20110 30155 40207 51029 60007 72582 885// 90600 333 10161 20126=
07207,1996-06-08 12:00:00,18,1023.4,1.5,73,13,25000,11.112,,,360,,,,,,,,,,,wg-a,,,,AAXX 08124 07207 12575 73606 10180 20130 30183 40234 51015 60006 85504 91200=
07207,1996-06-08 18:00:00,16,1023.8,-0.1,77,12,25000,14.816,,,290,13,17.8,,,,,,,,,wg-a,,,,AAXX 08184 07207 12/75 12908 10160 20120 30186 40238 57001 60006 80001 91800 333 10178 20130=
07207,1996-06-09 00:00:00,12,1024,-0.2,88,10,20000,3.704,,,310,,,,,,,,,,,wg-a,,,,AAXX 09004 07207 12/70 03102 10120 20100 30188 40240 58002 60006 80000 90000=
07207,1996-06-09 06:00:00,14,1023,-0,88,12,25000,3.704,,,150,11.4,16,,,,,,,,,wg-a,,,,AAXX 09064 07207 12875 31502 10140 20120 30178 40230 55000 60006 83051 90600 333 10160 20114=
07207,1996-06-09 12:00:00,18,1022.9,0,77,14,25000,7.408,,,190,,,,,,,,,,,wg-a,,,,AAXX 09124 07207 12575 31904 10180 20140 30178 40229 50000 60006 81102 91200=
07207,1996-06-09 18:00:00,17,1021.2,-1,77,13,500,11.112,,,290,14.4,19,,,,,,,,,wg-a,,,,AAXX 09184 07207 12/00 02906 10170 20130 30161 40212 57010 60006 80000 91800 333 10190 20144=
07207,1996-06-10 00:00:00,16,1021.3,-0.5,77,12,20000,14.816,,,280,,,,,,,,,,,wg-a,,,,AAXX 10004 07207 12870 62808 10160 20120 30162 40213 57005 60006 84032 90000=
07207,1996-06-10 06:00:00,16,1021.8,0.6,88,14,25000,14.816,,,270,14.8,17.4,,,,,,,,,wg-a,,,,AAXX 10064 07207 12575 62708 10160 20140 30167 40218 52006 60006 82202 90600 333 10174 20148=
07207,1996-06-10 12:00:00,18,1023.1,0.4,88,16,0,11.112,,,260,,,,,,,,,,,wg-a,,,,AAXX 10124 07207 12/// /2606 10180 20160 30180 40231 50004 60006 91200=
07207,1996-06-10 18:00:00,18,1023,-0.2,88,16,15000,11.112,,,280,15.6,19.4,,,,,,,,,wg-a,,,,AAXX 10184 07207 12565 52806 10180 20160 30179 40230 55002 60006 83206 91800 333 10194 20156=
07207,1996-06-11 00:00:00,15,1024.4,-0.1,100,15,20000,11.112,,,280,,,,,,,,,,,wg-a,,,,AAXX 11004 07207 12570 32806 10150 20150 30192 40244 58001 60006 82201 90000=
07207,1996-06-11 06:00:00,15,1024.8,0.5,100,15,12000,7.408,,,140,14.4,18.2,,0,,,,,,,wg-a,,,,AAXX 11064 07207 12/62 01404 10150 20150 30196 40248 53005 60007 80000 90600 333 10182 20144=
07207,1996-06-11 12:00:00,18,1026.2,0.5,88,16,0,14.816,,,230,,,,,,,,,,,wg-a,,,,AAXX 11124 07207 12/// /2308 10180 20160 30211 40262 50005 60006 91200=
07207,1996-06-11 18:00:00,18,1026.2,-0.1,88,16,15000,14.816,,,270,15.4,18.9,,,,,,,,,wg-a,,,,AAXX 11184 07207 12565 52708 10180 20160 30211 40262 55001 60006 85200 91800 333 10189 20154=
07207,1996-06-12 00:00:00,16,1028.2,0.5,100,16,15000,14.816,,,280,,,,,,,,,,,wg-a,,,,AAXX 12004 07207 12665 82808 10160 20160 30230 40282 50005 60006 885// 90000=
07207,1996-06-12 06:00:00,16,1029.9,1.6,100,16,15000,14.816,,,340,15.4,17.8,,0,,,,,,,wg-a,,,,AAXX 12064 07207 12665 73408 10160 20160 30247 40299 53016 60007 875// 90600 333 10178 20154=
07207,1996-06-12 12:00:00,19,1031.7,0.7,68,13,20000,18.52,,,330,,,,,,,,,,,wg-a,,,,AAXX 12124 07207 12570 23310 10190 20130 30266 40317 51007 60006 82100 91200=
07207,1996-06-12 18:00:00,20,1031.1,-0.1,60,12,25000,22.224,,,40,16,21.8,,,,,,,,,wg-a,,,,AAXX 12184 07207 12575 10412 10200 20120 30260 40311 55001 60006 81100 91800 333 10218 20160=
07207,1996-06-13 00:00:00,13,1033.3,0.7,77,9,20000,25.928,,,40,,,,,,,,,,,wg-a,,,,AAXX 13004 07207 12/70 00414 10130 20090 30280 40333 51007 60006 80000 90000=
07207,1996-06-13 06:00:00,14,1032.8,-0,77,10,25000,29.632,,,60,12.3,20.4,,,,,,,,,wg-a,,,,AAXX 13064 07207 12/75 00616 10140 20100 30276 40328 55000 60006 80000 90600 333 10204 20123=
07207,1996-06-13 12:00:00,20,1032.1,-0.5,60,12,0,29.632,,,80,,,,,,,,,,,wg-a,,,,AAXX 13124 07207 12/// /0816 10200 20120 30270 40321 58005 60006 91200=
07207,1996-06-13 18:00:00,22,1029.2,-1.2,53,12,25000,18.52,,,60,13.8,22.8,,,,,,,,,wg-a,,,,AAXX 13184 07207 12/75 00610 10220 20120 30241 40292 56012 60006 80000 91800 333 10228 20138=
07207,1996-06-14 00:00:00,16,1029.6,-0.3,82,13,20000,31.484,,,60,,,,,,,,,,,wg-a,,,,AAXX 14004 07207 12/70 00617 10160 20130 30244 40296 58003 60006 80000 90000=
07207,1996-06-14 06:00:00,15,1029.3,0.3,77,11,15000,31.484,,,70,14.1,21.9,,,,,,,,,wg-a,,,,AAXX 14064 07207 12/65 10717 10150 20110 30241 40293 52003 60006 80001 90600 333 10219 20141=
07207,1996-06-14 12:00:00,22,1027.9,-0.9,50,11,20000,31.484,,,80,,,,,,,,,,,wg-a,,,,AAXX 14124 07207 12/70 30817 10220 20110 30228 40279 58009 60006 80001 91200=
07207,1996-06-14 18:00:00,23,1024.8,-1,47,11,20000,25.928,,53.708,80,15.1,24.2,,,,,,,,,wg-a,,,,AAXX 14184 07207 12/70 20814 10230 20110 30198 40248 56010 60006 80001 91800 333 10242 20151 91029=
07207,1996-06-15 00:00:00,16,1025.4,-0.2,82,13,20000,31.484,,,60,,,,,,,,,,,wg-a,,,,AAXX 15004 07207 12/70 10617 10160 20130 30202 40254 58002 60006 80001 90000=
07207,1996-06-15 06:00:00,16,1023.8,-0.5,72,11,20000,35.188,,,70,14.5,22.4,,,,,,,,,wg-a,,,,AAXX 15064 07207 12/70 30719 10160 20110 30186 40238 58005 60006 80001 90600 333 10224 20145=
07207,1996-06-15 12:00:00,23,1022.8,-0.8,50,12,22000,35.188,,,80,,,,,,,,,,,wg-a,,,,AAXX 15124 07207 12/72 40819 10230 20120 30178 40228 58008 60006 80001 91200=
07207,1996-06-15 18:00:00,24,1020.8,-1,50,13,500,29.632,,57.412,70,15.9,25.8,,,,,,,,,wg-a,,,,AAXX 15184 07207 12/00 50716 10240 20130 30158 40208 56010 60006 80001 91800 333 10258 20159 91031=
07207,1996-06-16 00:00:00,18,1021.7,0.3,68,12,20000,35.188,,,60,,,,,,,,,,,wg-a,,,,AAXX 16004 07207 12/70 20619 10180 20120 30166 40217 51003 60006 80001 90000=
07207,1996-06-16 06:00:00,17,1020.9,-0.2,72,12,20000,35.188,,,70,16.3,24,,,,,,,,,wg-a,,,,AAXX 16064 07207 12/70 10719 10170 20120 30158 40209 55002 60006 80001 90600 333 10240 20163=
07207,1996-06-16 12:00:00,25,1020.9,0,41,11,25000,35.188,,,80,,,,,,,,,,,wg-a,,,,AAXX 16124 07207 12/75 30819 10250 20110 30159 40209 50000 60006 80001 91200=
07207,1996-06-16 18:00:00,26,1019,-1,37,10,500,22.224,,,80,17.3,27.4,,,,,,,,,wg-a,,,,AAXX 16184 07207 12/00 30812 10260 20100 30140 40190 56010 60006 80001 91800 333 10274 20173=
07207,1996-06-17 00:00:00,20,1019.4,-0.4,56,11,20000,29.632,,,70,,,,,,,,,,,wg-a,,,,AAXX 17004 07207 12/70 10716 10200 20110 30143 40194 56004 60006 80001 90000=
07207,1996-06-17 06:00:00,19,1019.3,0.3,60,11,25000,25.928,,,90,16.5,25.7,,,,,,,,,wg-a,,,,AAXX 17064 07207 12/75 40914 10190 20110 30142 40193 53003 60006 83031 90600 333 10257 20165=
07207,1996-06-17 12:00:00,25,1019,-0.5,50,14,25000,7.408,,,120,,,,,,,,,,,wg-a,,,,AAXX 17124 07207 12/75 51204 10250 20140 30140 40190 58005 60006 80004 91200=
07207,1996-06-17 18:00:00,25,1017.7,-0.7,44,12,500,7.408,,,310,18.9,25.7,,,,,,,,,wg-a,,,,AAXX 17184 07207 12/00 53104 10250 20120 30127 40177 57007 60006 80001 91800 333 10257 20189=
07207,1996-06-18 00:00:00,18,1017.8,-0.2,64,11,20000,22.224,,,10,,,,,,,,,,,wg-a,,,,AAXX 18004 07207 12/70 20112 10180 20110 30127 40178 56002 60006 80001 90000=
07207,1996-06-18 06:00:00,19,1016.8,-0.2,73,14,20000,14.816,,,80,16.5,24.5,,,,,,,,,wg-a,,,,AAXX 18064 07207 12/70 00808 10190 20140 30117 40168 56002 60006 80000 90600 333 10245 20165=
07207,1996-06-18 12:00:00,23,1017.3,0.3,69,17,20000,7.408,,,150,,,,,,,,,,,wg-a,,,,AAXX 18124 07207 12/70 21504 10230 20170 30123 40173 53003 60006 80001 91200=
07207,1996-06-18 18:00:00,22,1015.6,-1.2,73,17,12000,11.112,,,310,19.4,24.2,,,,,,,,,wg-a,,,,AAXX 18184 07207 12/62 23106 10220 20170 30106 40156 56012 60006 80001 91800 333 10242 20194=
07207,1996-06-19 00:00:00,18,1015.5,-0,94,17,12000,3.704,,,260,,,,,,,,,,,wg-a,,,,AAXX 19004 07207 12/62 42602 10180 20170 30104 40155 55000 60006 80001 90000=
07207,1996-06-19 12:00:00,18,1014.7,-0,88,16,10000,25.928,,,280,,,,,,,,,,,wg-a,,,,AAXX 19124 07207 12660 72814 10180 20160 30096 40147 55000 60006 8528/ 91200=
07207,1996-06-19 18:00:00,17,1013,-1.1,88,15,20000,22.224,,,280,16.4,20.2,,,,,,,,,wg-a,,,,AAXX 19184 07207 12670 82812 10170 20150 30079 40130 56011 60006 8529/ 91800 333 10202 20164=
07207,1996-06-20 00:00:00,16,1012.8,-0.7,88,14,15000,25.928,,,290,,,,,,,,,,,wg-a,,,,AAXX 20004 07207 12665 42914 10160 20140 30077 40128 55007 60006 8329/ 90000=
07207,1996-06-20 06:00:00,16,1011.6,0,82,13,25000,22.224,,,260,15.9,17.4,,,,,,,,,wg-a,,0,,AAXX 20064 07207 12575 62612 10160 20130 30065 40116 50000 60006 86200 90600 333 10174 20159 4/000=
07207,1996-06-20 12:00:00,19,1011.7,0,73,14,500,11.112,,,230,,,,,,,,,,,wg-a,,,,AAXX 20124 07207 12500 52306 10190 20140 30067 40117 50000 60006 84260 91200=
07207,1996-06-20 18:00:00,18,1010.3,-1,77,14,500,14.816,,,260,16.1,19.2,,,,,,,,,wg-a,,0,,AAXX 20184 07207 12500 62608 10180 20140 30053 40103 56010 60006 84260 91800 333 10192 20161 4/000=
07207,1996-06-21 00:00:00,16,1010,-0.8,82,13,0,11.112,,,320,,,,,,,,,,,wg-a,,,,AAXX 21004 07207 12/// /3206 10160 20130 30049 40100 58008 60006 90000=
07207,1996-06-21 06:00:00,15,1009.1,0.3,88,13,25000,18.52,,,30,13,18.3,,,,,,,,,wg-a,,0,,AAXX 21064 07207 12575 60310 10150 20130 30040 40091 53003 60006 84260 90600 333 10183 20130 4/000=
07207,1996-06-21 12:00:00,19,1010,-0.3,73,14,500,18.52,,,310,,,,,,,,,,,wg-a,,,,AAXX 21124 07207 12500 33110 10190 20140 30050 40100 58003 60006 82260 91200=
07207,1996-06-21 18:00:00,18,1011.8,1.3,59,10,20000,18.52,,,330,14.7,20.2,,0,,,,,,2,wg-a,,,,AAXX 21184 07207 12570 63310 10180 20100 30067 40118 53013 60007 70281 86800 91800 333 10202 20147=
07207,1996-06-22 00:00:00,13,1016.7,2,82,10,20000,18.52,,,10,,,,,,,,,,,wg-a,,,,AAXX 22004 07207 12570 20110 10130 20100 30115 40167 51020 60006 82200 90000=
07207,1996-06-22 06:00:00,13,1019.9,1.8,82,10,20000,11.112,,,10,9.6,18.3,,,,,,,,,wg-a,,,,AAXX 22064 07207 12570 30106 10130 20100 30147 40199 53018 60006 83200 90600 333 10183 20096=
07207,1996-06-22 12:00:00,18,1022.8,1.1,52,8,500,22.224,,,320,,,,,,,,,,,wg-a,,,,AAXX 22124 07207 12500 33212 10180 20080 30177 40228 51011 60006 82230 91200=
07207,1996-06-22 18:00:00,17,1023.2,0.1,68,11,25000,29.632,,50.004,310,13.2,18.9,,,,,,,,,wg-a,,,,AAXX 22184 07207 12575 33116 10170 20110 30181 40232 53001 60006 82231 91800 333 10189 20132 91027=
07207,1996-06-23 00:00:00,11,1025.4,0.4,76,7,20000,18.52,,,20,,,,,,,,,,,wg-a,,,,AAXX 23004 07207 12670 10210 10110 20070 30201 40254 51004 60006 81100 90000=
07207,1996-06-23 06:00:00,13,1025.4,0.3,72,8,25000,14.816,,,20,9.9,17.1,,,,,,,,,wg-a,,,,AAXX 23064 07207 12575 50208 10130 20080 30202 40254 53003 60006 84231 90600 333 10171 20099=
07207,1996-06-23 12:00:00,19,1027,0.2,46,7,25000,14.816,,,70,,,,,,,,,,,wg-a,,,,AAXX 23124 07207 12575 30708 10190 20070 30219 40270 50002 60006 81131 91200=
07207,1996-06-23 18:00:00,18,1027.1,0.4,64,11,25000,18.52,,,310,12.5,19.7,,,,,,,,,wg-a,,,,AAXX 23184 07207 12675 23110 10180 20110 30220 40271 51004 60006 82100 91800 333 10197 20125=
07207,1996-06-24 00:00:00,12,1029.2,0.9,82,9,20000,22.224,,,30,,,,,,,,,,,wg-a,,,,AAXX 24004 07207 12/70 00312 10120 20090 30239 40292 51009 60006 80000 90000=
07207,1996-06-24 06:00:00,13,1029.3,0.2,88,11,15000,18.52,,,40,9.8,17.7,,,,,,,,,wg-a,,,,AAXX 24064 07207 12/65 50410 10130 20110 30241 40293 51002 60006 80002 90600 333 10177 20098=
07207,1996-06-24 12:00:00,18,1029.9,-0.2,68,12,20000,14.816,,,280,,,,,,,,,,,wg-a,,,,AAXX 24124 07207 12570 72808 10180 20120 30247 40299 58002 60006 82202 91200=
07207,1996-06-24 18:00:00,17,1028.2,-0.9,77,13,20000,18.52,,,300,13.3,18.2,,,,,,,,,wg-a,,,,AAXX 24184 07207 12/70 63010 10170 20130 30230 40282 58009 60006 80002 91800 333 10182 20133=
07207,1996-06-25 00:00:00,14,1028.7,0.1,82,11,20000,22.224,,,40,,,,,,,,,,,wg-a,,,,AAXX 25004 07207 12570 50412 10140 20110 30235 40287 50001 60006 81202 90000=
07207,1996-06-25 06:00:00,14,1028.9,0.3,88,12,18000,11.112,,,50,11.8,17.1,,,,,,,,,wg-a,,,,AAXX 25064 07207 12/68 50506 10140 20120 30237 40289 53003 60006 80002 90600 333 10171 20118=
07207,1996-06-25 12:00:00,18,1028.2,-0.6,73,13,18000,14.816,,,290,,,,,,,,,,,wg-a,,,,AAXX 25124 07207 12568 52908 10180 20130 30231 40282 58006 60006 82102 91200=
07207,1996-06-25 18:00:00,18,1026.3,-0.9,77,14,15000,18.52,,,300,14.4,19.6,,,,,,,,,wg-a,,,,AAXX 25184 07207 12/65 33010 10180 20140 30212 40263 56009 60006 80002 91800 333 10196 20144=
07207,1996-06-26 00:00:00,14,1026.3,-0,88,12,15000,14.816,,,10,,,,,,,,,,,wg-a,,,,AAXX 26004 07207 12/65 20108 10140 20120 30211 40263 55000 60006 80002 90000=
07207,1996-06-26 06:00:00,13,1025.7,-0.1,82,10,15000,11.112,,,10,12,18.1,,,,,,,,,wg-a,,,,AAXX 26064 07207 12665 80106 10130 20100 30205 40257 55001 60006 885// 90600 333 10181 20120=
07207,1996-06-26 12:00:00,17,1026.1,-0,63,10,18000,14.816,,,280,,,,,,,,,,,wg-a,,,,AAXX 26124 07207 12668 82808 10170 20100 30209 40261 55000 60006 885// 91200=
07207,1996-06-26 18:00:00,17,1025.3,-0.6,88,15,20000,11.112,,,300,13.4,18.9,,,,,,,,,wg-a,,,,AAXX 26184 07207 12570 63006 10170 20150 30202 40253 56006 60006 82132 91800 333 10189 20134=
07207,1996-06-27 00:00:00,17,1026,0.1,94,16,0,22.224,,,330,,,,,,,,,,,wg-a,,,,AAXX 27004 07207 12/// /3312 10170 20160 30209 40260 50001 60006 90000=
07207,1996-06-27 06:00:00,17,1026,0.1,94,16,18000,22.224,,,330,,,,,,,,,,,wg-a,,,,AAXX 27064 07207 12668 83312 10170 20160 30209 40260 50001 60006 88500 90600=
07207,1996-06-27 12:00:00,18,1027,0.5,94,17,20000,14.816,,,280,,,,,,,,,,,wg-a,,,,AAXX 27124 07207 12570 82808 10180 20170 30219 40270 51005 60006 885// 91200=
07207,1996-06-27 18:00:00,18,1025.4,-0.8,88,16,25000,14.816,,,290,16.4,20.3,,,,,,,,,wg-a,,,,AAXX 27184 07207 12675 72908 10180 20160 30203 40254 56008 60006 875// 91800 333 10203 20164=
07207,1996-06-28 00:00:00,17,1024.7,-0.9,94,16,0,11.112,,,270,,,,,,,,,,,wg-a,,,,AAXX 28004 07207 12/// /2706 10170 20160 30196 40247 58009 60006 90000=
07207,1996-06-28 06:00:00,16,1023.4,0.2,94,15,20000,0,,,0,15.1,18,,,,,,,,,wg-a,,,,AAXX 28064 07207 12570 60000 10160 20150 30183 40234 51002 60006 85230 90600 333 10180 20151=
07207,1996-06-28 12:00:00,19,1022.7,-0.5,78,15,25000,18.52,,,270,,,,,,,,,,,wg-a,,,,AAXX 28124 07207 12575 72710 10190 20150 30176 40227 58005 60006 83230 91200=
07207,1996-06-28 18:00:00,17,1020.1,-1.5,94,16,8000,29.632,,,260,16.3,19.4,,,,,,,,,wg-a,,,,AAXX 28184 07207 12458 82616 10170 20160 30150 40201 58015 60006 886// 91800 333 10194 20163=
07207,1996-06-29 00:00:00,16,1021,0.8,77,12,12000,25.928,,50.004,320,,,,,,,,,,2,wg-a,,,,AAXX 29004 07207 12562 83214 10160 20120 30159 40210 51008 60006 70252 888// 90000 333 91027=
07207,1996-06-29 06:00:00,15,1022.5,1.6,82,12,0,22.224,,,320,15,17,,,,,,,,,wg-a,,,,AAXX 29064 07207 32/// /3212 10150 20120 30173 40225 53016 90600 333 10170 20150=
07207,1996-06-29 12:00:00,18,1023.9,0.4,64,11,25000,22.224,,61.116,310,,,,,,,,,,,wg-a,,,,AAXX 29124 07207 12575 53112 10180 20110 30188 40239 50004 60006 84230 91200 333 91033=
07207,1996-06-29 18:00:00,17,1023.8,-0.1,72,12,25000,22.224,,57.412,300,15,18.7,,,,,,,,,wg-a,,,,AAXX 29184 07207 12/75 03012 10170 20120 30187 40238 56001 60006 80000 91800 333 10187 20150 91031=
07207,1996-06-30 00:00:00,14,1025,0,82,11,20000,22.224,,,330,,,,,,,,,,,wg-a,,,,AAXX 30004 07207 12570 43312 10140 20110 30198 40250 50000 60006 84200 90000=
07207,1996-06-30 06:00:00,15,1023.1,-0.5,82,12,18000,14.816,,,300,14.2,16.7,,,,,,,,,wg-a,,,,AAXX 30064 07207 12768 73008 10150 20120 30179 40231 58005 60006 875// 90600 333 10167 20142=
07207,1996-06-30 12:00:00,17,1021.4,-0.9,77,13,25000,25.928,,,270,,,,,,,,,,,wg-a,,,,AAXX 30124 07207 12575 72714 10170 20130 30163 40214 57009 60006 8583/ 91200=
07207,1996-06-30 18:00:00,16,1018.4,-1.6,94,15,10000,25.928,,,290,15,17.4,,,,,,,,20,wg-a,,,,AAXX 30184 07207 02460 82914 10160 20150 30133 40184 56016 61000 72052 887// 91800 333 10174 20150 ////=
07207,1996-07-01 00:00:00,15,1016.9,-0.9,82,12,15000,18.52,,,310,,,,,,,,,,,wg-a,,,,AAXX 01004 07207 12565 43110 10150 20120 30118 40169 58009 60006 841// 90000=
07207,1996-07-01 06:00:00,14,1014.9,-0.7,88,12,20000,18.52,,,320,14.1,16,,,,,,,,15,wg-a,,,,AAXX 01064 07207 32570 73210 10140 20120 30098 40149 56007 71522 878// 90600 333 10160 20141=
07207,1996-07-01 12:00:00,18,1014.8,-0.2,59,10,20000,22.224,,,300,,,,,,,,,,2,wg-a,,,,AAXX 01124 07207 12570 63012 10180 20100 30097 40148 58002 60016 70282 83260 91200=
07207,1996-07-01 18:00:00,16,1014.6,-0.1,68,10,25000,25.928,,,300,13.3,17.6,,,,,,,,,wg-a,,,,AAXX 01184 07207 32575 63014 10160 20100 30095 40146 58001 83231 91800 333 10176 20133=
07207,1996-07-02 00:00:00,14,1014.8,-0.5,77,10,12000,18.52,,,310,,,,,,,,,,,wg-a,,,,AAXX 02004 07207 12662 73110 10140 20100 30097 40148 56005 60006 87500 90000=
07207,1996-07-02 06:00:00,14,1014.3,0.6,82,11,20000,14.816,,,320,14.1,15.7,,,,,,,,,wg-a,,,,AAXX 02064 07207 12570 73208 10140 20110 30092 40143 53006 60006 8683/ 90600 333 10157 20141=
07207,1996-07-02 12:00:00,18,1015,0,64,11,25000,14.816,,,290,,,,,,,,,,15,wg-a,,,,AAXX 02124 07207 12575 72908 10180 20110 30099 40150 50000 60006 71522 8323/ 91200=
07207,1996-07-02 18:00:00,17,1013.9,-1.1,77,13,500,11.112,,,250,14.4,18.5,,,,,,,,,wg-a,,,,AAXX 02184 07207 12500 42506 10170 20130 30088 40139 56011 60006 82261 91800 333 10185 20144=
07207,1996-07-03 00:00:00,16,1011.5,-1.8,82,13,20000,25.928,,,190,,,,,,,,,,,wg-a,,,,AAXX 03004 07207 12570 61914 10160 20130 30064 40115 58018 60006 8/800 90000=
07207,1996-07-03 06:00:00,17,1008.4,-0.4,88,15,15000,35.188,,57.412,270,14.3,17.1,,,,,,,,28,wg-a,,,,AAXX 03064 07207 32565 72719 10170 20150 30033 40084 56004 72864 8623/ 90600 333 10171 20143 91031=
07207,1996-07-03 12:00:00,16,1009.4,0.6,100,16,12000,22.224,,,250,,,,2,,,,,,15,wg-a,,,,AAXX 03124 07207 02562 82512 10160 20160 30043 40094 53006 60026 71582 8426/ 91200 333 60027=
07207,1996-07-03 18:00:00,16,1008.8,-0.9,100,16,3000,22.224,,,240,15,17.5,,6,,,,,,50,wg-a,,,,AAXX 03184 07207 12230 82412 10160 20160 30037 40088 58009 60067 75062 887// 91800 333 10175 20150=
07207,1996-07-04 00:00:00,16,1010.3,1.8,94,15,12000,35.188,,,280,,,,,,,,,,50,wg-a,,,,AAXX 04004 07207 02362 82819 10160 20150 30052 40103 53018 60026 75052 887// 90000 333 61000=
07207,1996-07-04 06:00:00,15,1012.2,1,82,12,16000,25.928,,,270,14.5,16.6,,,,,,,,20,wg-a,,,,AAXX 04064 07207 02766 72714 10150 20120 30071 40122 53010 61000 72054 8653/ 90600 333 10166 20145 ////=
07207,1996-07-04 12:00:00,16,1013.9,0.5,88,14,20000,14.816,,,250,,,,,,,,,,,wg-a,,,,AAXX 04124 07207 12570 72508 10160 20140 30088 40139 51005 60006 8527/ 91200=
07207,1996-07-04 18:00:00,14,1013.4,-0.6,77,10,9000,11.112,,,280,14.2,17.8,,1,,,,,,60,wg-a,,,,AAXX 04184 07207 12459 82806 10140 20100 30083 40134 58006 60017 76062 887// 91800 333 10178 20142=
07207,1996-07-05 00:00:00,14,1011.5,-1.3,94,13,15000,7.408,,,40,,,,,,,,,,,wg-a,,,,AAXX 05004 07207 12865 80404 10140 20130 30064 40115 58013 60016 8807/ 90000=
07207,1996-07-05 06:00:00,13,1010.8,0.5,94,12,20000,14.816,,,350,12.7,14.4,,0,,,,,,2,wg-a,,,,AAXX 05064 07207 12770 83508 10130 20120 30057 40108 53005 60007 70262 8657/ 90600 333 10144 20127=
07207,1996-07-05 12:00:00,16,1012.2,0.7,82,13,500,14.816,,,290,,,,,,,,,,,wg-a,,,,AAXX 05124 07207 12500 72908 10160 20130 30071 40122 53007 60006 8587/ 91200=
07207,1996-07-05 18:00:00,15,1012.3,0.2,77,11,500,18.52,,,300,13,18,,,,,,,,,wg-a,,,,AAXX 05184 07207 12500 73010 10150 20110 30072 40123 53002 60006 8427/ 91800 333 10180 20130=
07207,1996-07-06 00:00:00,13,1013.9,0.7,77,9,0,22.224,,,320,,,,,,,,,,,wg-a,,,,AAXX 06004 07207 12/// /3212 10130 20090 30087 40139 52007 60006 90000=
07207,1996-07-06 06:00:00,14,1014.4,0.6,77,10,500,14.816,,,310,12.6,15.2,,,,,,,,,wg-a,,,,AAXX 06064 07207 12500 53108 10140 20100 30092 40144 52006 60006 84232 90600 333 10152 20126=
07207,1996-07-06 12:00:00,15,1014.1,-0.3,67,9,500,18.52,,,280,,,,,,,,,,15,wg-a,,,,AAXX 06124 07207 12500 72810 10150 20090 30090 40141 58003 60006 71522 85270 91200=
07207,1996-07-06 18:00:00,14,1011.8,-1.8,82,11,25000,18.52,,,260,13.6,17.2,,,,,,,,15,wg-a,,,,AAXX 06184 07207 12575 72610 10140 20110 30067 40118 58018 60006 71522 8523/ 91800 333 10172 20136=
07207,1996-07-07 00:00:00,11,1009.8,-1.3,94,10,20000,14.816,,,20,,,,,,,,,,,wg-a,,,,AAXX 07004 07207 12570 70208 10110 20100 30046 40098 56013 60006 8523/ 90000=
07207,1996-07-07 06:00:00,12,1008.2,-0.2,88,10,500,18.52,,,20,11.2,14.1,,,,,,,,,wg-a,,,,AAXX 07064 07207 12500 60210 10120 20100 30030 40082 55002 60006 83230 90600 333 10141 20112=
07207,1996-07-07 12:00:00,17,1010.1,1.5,63,10,500,31.484,,,330,,,,,,,,,,,wg-a,,,,AAXX 07124 07207 12500 43317 10170 20100 30050 40101 53015 60006 84230 91200=
07207,1996-07-07 18:00:00,18,1013.7,2.1,49,7,35000,29.632,,,350,11.6,18.6,,,,,,,,,wg-a,,,,AAXX 07184 07207 12581 23516 10180 20070 30086 40137 53021 60006 82200 91800 333 10186 20116=
07207,1996-07-08 00:00:00,13,1019.3,1.8,88,11,500,25.928,,,340,,,,,,,,,,,wg-a,,,,AAXX 08004 07207 12500 23414 10130 20110 30141 40193 51018 60006 82200 90000=
07207,1996-07-08 06:00:00,14,1022.4,2.1,88,12,500,25.928,,,340,12.7,18.1,,,,,,,,,wg-a,,,,AAXX 08064 07207 12500 33414 10140 20120 30172 40224 53021 60006 82231 90600 333 10181 20127=
07207,1996-07-08 12:00:00,17,1026.1,1.4,82,14,500,22.224,,,290,,,,,,,,,,,wg-a,,,,AAXX 08124 07207 12500 32912 10170 20140 30210 40261 52014 60006 82231 91200=
07207,1996-07-08 18:00:00,16,1027.1,0.4,82,13,500,25.928,,,290,13.7,17.5,,,,,,,,,wg-a,,,,AAXX 08184 07207 12500 32914 10160 20130 30219 40271 53004 60006 82101 91800 333 10175 20137=
07207,1996-07-09 00:00:00,14,1029.2,0.8,82,11,25000,18.52,,,340,,,,,,,,,,,wg-a,,,,AAXX 09004 07207 12575 33410 10140 20110 30240 40292 52008 60006 81101 90000=
07207,1996-07-09 06:00:00,14,1029.3,0.3,94,13,500,0,,,0,11.5,16.1,,,,,,,,,wg-a,,,,AAXX 09064 07207 12500 30000 10140 20130 30241 40293 53003 60006 83230 90600 333 10161 20115=
07207,1996-07-09 12:00:00,16,1029.8,0,88,14,20000,18.52,,,270,,,,,,,,,,,wg-a,,,,AAXX 09124 07207 12670 72710 10160 20140 30246 40298 50000 60006 875// 91200=
07207,1996-07-09 18:00:00,16,1028.4,-0.7,94,15,20000,18.52,,,290,14.4,17.4,,,,,,,,,wg-a,,,,AAXX 09184 07207 12670 82910 10160 20150 30232 40284 56007 60006 885// 91800 333 10174 20144=
07207,1996-07-10 00:00:00,16,1028.9,0.2,88,14,10000,14.816,,,330,,,,,,,,,,,wg-a,,,,AAXX 10004 07207 12660 73308 10160 20140 30237 40289 51002 60006 875// 90000=
07207,1996-07-10 06:00:00,15,1028.9,0.3,94,14,12000,18.52,,,330,14.6,16,,,,,,,,,wg-a,,,,AAXX 10064 07207 12662 83310 10150 20140 30237 40289 53003 60006 885// 90600 333 10160 20146=
07207,1996-07-10 12:00:00,19,1028.6,-0.6,83,16,15000,25.928,,,320,,,,,,,,,,,wg-a,,,,AAXX 10124 07207 12765 73214 10190 20160 30235 40286 58006 60006 865// 91200=
07207,1996-07-10 18:00:00,19,1027.3,-1,83,16,3000,14.816,,,310,15.2,19.2,,,,,,,,28,wg-a,,,,AAXX 10184 07207 12/30 03108 10190 20160 30222 40273 57010 60006 72811 80000 91800 333 10192 20152=
07207,1996-07-11 00:00:00,15,1027.8,0,94,14,15000,14.816,,,20,,,,,,,,,,,wg-a,,,,AAXX 11004 07207 12/65 00208 10150 20140 30226 40278 50000 60006 80000 90000=
07207,1996-07-11 06:00:00,14,1027,0.3,100,14,200,18.52,,,350,13.2,18.5,,,,,,,,47,wg-a,,,,AAXX 11064 07207 12/02 93510 10140 20140 30218 40270 53003 60006 74711 89/// 90600 333 10185 20132=
07207,1996-07-11 12:00:00,17,1026.2,-0.6,82,14,17000,18.52,,,280,,,,,,,,,,,wg-a,,,,AAXX 11124 07207 12867 42810 10170 20140 30211 40262 58006 60006 8406/ 91200=
07207,1996-07-11 18:00:00,18,1024,-0.8,83,15,25000,18.52,,,310,13.5,18.4,,,,,,,,,wg-a,,,,AAXX 11184 07207 32/75 13110 10180 20150 30189 40240 56008 80001 91800 333 10184 20135=
07207,1996-07-12 00:00:00,14,1024.2,-0.2,88,12,25000,18.52,,,20,,,,,,,,,,,wg-a,,,,AAXX 12004 07207 12/75 20210 10140 20120 30190 40242 58002 60006 80001 90000=
07207,1996-07-12 06:00:00,13,1023.7,-0.1,94,12,500,7.408,,,350,11.9,17.8,,,,,,,,,wg-a,,,,AAXX 12064 07207 12/00 53504 10130 20120 30185 40237 56001 60006 85030 90600 333 10178 20119=
07207,1996-07-12 12:00:00,18,1023.7,-0.5,73,13,25000,14.816,,,290,,,,,,,,,,,wg-a,,,,AAXX 12124 07207 12675 62908 10180 20130 30186 40237 56005 60006 81235 91200=
07207,1996-07-12 18:00:00,17,1023.1,-0.2,82,14,25000,14.816,,,300,13.3,18.9,,,,,,,,,wg-a,,,,AAXX 12184 07207 12775 73008 10170 20140 30180 40231 57002 60006 82531 91800 333 10189 20133=
07207,1996-07-13 00:00:00,16,1023.6,-0.2,94,15,9000,18.52,,,320,,,,,,,,,,40,wg-a,,,,AAXX 13004 07207 12459 83210 10160 20150 30184 40236 56002 60006 74022 857// 90000=
07207,1996-07-13 06:00:00,16,1023.7,0.8,100,16,20000,14.816,,,340,15.2,16.5,,,,,,,,2,wg-a,,,,AAXX 13064 07207 12670 73408 10160 20160 30185 40237 53008 60006 70242 855// 90600 333 10165 20152=
07207,1996-07-13 12:00:00,19,1025.6,1,83,16,500,14.816,,,290,,,,,,,,,,,wg-a,,,,AAXX 13124 07207 12600 42908 10190 20160 30205 40256 53010 60006 83531 91200=
07207,1996-07-13 18:00:00,18,1025.5,-0.2,77,14,500,11.112,,,300,15.8,19.5,,,,,,,,,wg-a,,,,AAXX 13184 07207 12/00 23006 10180 20140 30204 40255 55002 60006 8203/ 91800 333 10195 20158=
07207,1996-07-14 00:00:00,15,1026.2,0.3,94,14,500,18.52,,,350,,,,,,,,,,,wg-a,,,,AAXX 14004 07207 12/00 13510 10150 20140 30210 40262 50003 60006 8103/ 90000=
07207,1996-07-14 06:00:00,16,1027.2,0.8,100,16,8000,14.816,,,40,13.5,18,,,,,,,,,wg-a,,,,AAXX 14064 07207 12/58 30408 10160 20160 30220 40272 53008 60006 80001 90600 333 10180 20135=
07207,1996-07-14 12:00:00,20,1027.9,-0.1,83,17,15000,7.408,,,240,,,,,,,,,,,wg-a,,,,AAXX 14124 07207 12565 32404 10200 20170 30228 40279 57001 60006 81105 91200=
07207,1996-07-14 18:00:00,20,1026.6,-0.8,78,16,18000,22.224,,,330,15.7,21.7,,,,,,,,,wg-a,,,,AAXX 14184 07207 32/68 13312 10200 20160 30215 40266 56008 80001 91800 333 10217 20157=
07207,1996-07-15 00:00:00,18,1026.2,-0.3,88,16,15000,31.484,,,50,,,,,,,,,,,wg-a,,,,AAXX 15004 07207 12/65 10517 10180 20160 30211 40262 58003 60006 80001 90000=
07207,1996-07-15 06:00:00,17,1026.4,0.4,94,16,15000,29.632,,,50,15.7,19.4,,,,,,,,,wg-a,,,,AAXX 15064 07207 12/65 20516 10170 20160 30213 40264 51004 60006 80001 90600 333 10194 20157=
07207,1996-07-15 12:00:00,24,1025.9,-0.5,69,18,18000,31.484,,,50,,,,,,,,,,,wg-a,,,,AAXX 15124 07207 12/68 10517 10240 20180 30209 40259 58005 60006 80001 91200=
07207,1996-07-15 18:00:00,26,1024.3,-0.9,58,17,0,14.816,,,20,16.7,26.4,,,,,,,,,wg-a,,,,AAXX 15184 07207 12/// /0208 10260 20170 30193 40243 57009 60006 91800 333 10264 20167=
07207,1996-07-16 00:00:00,19,1025.2,0.2,88,17,12000,35.188,,50.004,50,,,,,,,,,,,wg-a,,,,AAXX 16004 07207 12862 30519 10190 20170 30201 40252 50002 60006 83060 90000 333 91027=
07207,1996-07-16 06:00:00,17,1025.2,0.3,82,14,12000,35.188,,,60,16.8,25.8,,,,,,,,,wg-a,,,,AAXX 16064 07207 12/62 00619 10170 20140 30201 40252 51003 60006 80000 90600 333 10258 20168=
07207,1996-07-16 12:00:00,24,1024.7,-0.9,47,12,15000,35.188,,,80,,,,,,,,,,,wg-a,,,,AAXX 16124 07207 12/65 00819 10240 20120 30197 40247 56009 60006 80000 91200=
07207,1996-07-16 18:00:00,25,1022.1,-1,41,11,500,22.224,,,70,17,27.2,,,,,,,,,wg-a,,,,AAXX 16184 07207 12/00 10712 10250 20110 30171 40221 56010 60006 80001 91800 333 10272 20170=
07207,1996-07-17 00:00:00,17,1023.1,0.1,82,14,25000,35.188,,,50,,,,,,,,,,,wg-a,,,,AAXX 17004 07207 12/75 10519 10170 20140 30180 40231 50001 60006 80001 90000=
07207,1996-07-17 06:00:00,16,1022.9,-0,72,11,500,31.484,,,50,15.4,25.1,,,,,,,,,wg-a,,,,AAXX 17064 07207 12/00 20517 10160 20110 30178 40229 55000 60006 80001 90600 333 10251 20154=
07207,1996-07-17 12:00:00,25,1022.3,-0.6,36,9,500,29.632,,,80,,,,,,,,,,,wg-a,,,,AAXX 17124 07207 12/00 20816 10250 20090 30173 40223 58006 60006 80001 91200=
07207,1996-07-17 18:00:00,26,1020.5,-0.7,34,9,500,18.52,,53.708,70,16.2,27.5,,,,,,,,,wg-a,,,,AAXX 17184 07207 12/00 10710 10260 20090 30155 40205 55007 60006 80001 91800 333 10275 20162 91029=
07207,1996-07-18 00:00:00,18,1022.2,0.7,77,14,20000,31.484,,,50,,,,,,,,,,,wg-a,,,,AAXX 18004 07207 12/70 10517 10180 20140 30171 40222 53007 60006 80001 90000=
07207,1996-07-18 06:00:00,18,1022.6,0.4,64,11,35000,29.632,,,70,16.5,26.1,,,,,,,,,wg-a,,,,AAXX 18064 07207 12/81 30716 10180 20110 30175 40226 53004 60006 80001 90600 333 10261 20165=
07207,1996-07-18 12:00:00,26,1022.8,-0.1,37,10,35000,25.928,,,90,,,,,,,,,,,wg-a,,,,AAXX 18124 07207 12/81 30914 10260 20100 30178 40228 58001 60006 80001 91200=
07207,1996-07-18 18:00:00,22,1022,-0.4,57,13,500,18.52,,,330,17.4,27.6,,,,,,,,,wg-a,,,,AAXX 18184 07207 12/00 03310 10220 20130 30170 40220 56004 60006 80000 91800 333 10276 20174=
07207,1996-07-19 00:00:00,19,1022.9,0.3,68,13,25000,25.928,,,50,,,,,,,,,,,wg-a,,,,AAXX 19004 07207 12/75 20514 10190 20130 30178 40229 53003 60006 80001 90000=
07207,1996-07-19 06:00:00,18,1023.2,0.4,56,9,500,25.928,,,100,16.7,22.3,,,,,,,,,wg-a,,,,AAXX 19064 07207 12800 41014 10180 20090 30181 40232 53004 60006 82031 90600 333 10223 20167=
07207,1996-07-19 12:00:00,24,1023.3,-3,44,11,25000,11.112,,,120,,,,,,,,,,,wg-a,,,,AAXX 19124 07207 12/75 41206 10240 20110 30183 40233 58030 60006 80002 91200=
07207,1996-07-19 18:00:00,24,1022.4,-0.4,41,10,25000,11.112,,,320,18.3,25.6,,,,,,,,,wg-a,,,,AAXX 19184 07207 12/75 23206 10240 20100 30174 40224 56004 60006 80001 91800 333 10256 20183=
07207,1996-07-20 00:00:00,18,1022.1,-0.4,68,12,25000,22.224,,,30,,,,,,,,,,,wg-a,,,,AAXX 20004 07207 12/75 20312 10180 20120 30170 40221 56004 60006 80001 90000=
07207,1996-07-20 06:00:00,19,1022.2,0.5,68,13,20000,22.224,,,70,17.6,24,,,,,,,,,wg-a,,,,AAXX 20064 07207 12/70 40712 10190 20130 30171 40222 53005 60006 80002 90600 333 10240 20176=
07207,1996-07-20 12:00:00,24,1022.9,0.2,44,11,0,11.112,,,120,,,,,,,,,,,wg-a,,,,AAXX 20124 07207 12/// /1206 10240 20110 30179 40229 51002 60006 91200=
07207,1996-07-20 18:00:00,24,1022.2,-0.6,47,12,18000,18.52,,,340,18.9,25.3,,,,,,,,,wg-a,,,,AAXX 20184 07207 12/68 03410 10240 20120 30172 40222 56006 60006 80000 91800 333 10253 20189=
07207,1996-07-21 00:00:00,20,1022,-0.6,43,7,15000,29.632,,,40,,,,,,,,,,,wg-a,,,,AAXX 21004 07207 12/65 00416 10200 20070 30169 40220 56006 60006 80000 90000=
07207,1996-07-21 06:00:00,19,1021.5,0.5,73,14,15000,18.52,,,70,17.7,23.7,,,,,,,,,wg-a,,,,AAXX 21064 07207 12/65 20710 10190 20140 30164 40215 53005 60006 80001 90600 333 10237 20177=
07207,1996-07-21 12:00:00,23,1021.1,-0.3,53,13,15000,11.112,,,120,,,,,,,,,,,wg-a,,,,AAXX 21124 07207 12/65 01206 10230 20130 30161 40211 56003 60006 80000 91200=
07207,1996-07-21 18:00:00,26,1018.6,-1.3,37,10,20000,7.408,,,300,19,26.7,,,,,,,,,wg-a,,,,AAXX 21184 07207 12/70 03004 10260 20100 30136 40186 56013 60006 80000 91800 333 10267 20190=
07207,1996-07-22 00:00:00,20,1016.9,-1.2,46,8,20000,18.52,,,30,,,,,,,,,,,wg-a,,,,AAXX 22004 07207 12/70 20310 10200 20080 30118 40169 58012 60006 80001 90000=
07207,1996-07-22 06:00:00,21,1015.2,-0.9,56,12,500,25.928,,,100,18.7,25.7,,,,,,,,,wg-a,,,,AAXX 22064 07207 12/00 01014 10210 20120 30102 40152 58009 60006 80000 90600 333 10257 20187=
07207,1996-07-22 12:00:00,23,1013.8,-0.8,61,15,35000,18.52,,,120,,,,,,,,,,,wg-a,,,,AAXX 22124 07207 12/81 01210 10230 20150 30088 40138 56008 60006 80000 91200=
07207,1996-07-22 18:00:00,23,1011.7,-1,73,18,18000,7.408,,,240,21,24.4,,,,,,,,,wg-a,,,,AAXX 22184 07207 12/68 02404 10230 20180 30067 40117 56010 60006 80000 91800 333 10244 20210=
07207,1996-07-23 00:00:00,19,1013.3,0.9,88,17,12000,18.52,,,310,,,,,,,,,,,wg-a,,,,AAXX 23004 07207 12/62 03110 10190 20170 30083 40133 53009 60006 80000 90000=
07207,1996-07-23 06:00:00,17,1015.1,1.1,94,16,15000,22.224,,,310,16.6,22.6,,,,,,,,,wg-a,,,,AAXX 23064 07207 12565 73112 10170 20160 30100 40151 52011 60006 86204 90600 333 10226 20166=
07207,1996-07-23 12:00:00,20,1016.6,0.7,73,15,25000,22.224,,,280,,,,,,,,,,,wg-a,,,,AAXX 23124 07207 12575 32812 10200 20150 30116 40166 51007 60006 81201 91200=
07207,1996-07-23 18:00:00,19,1017.4,0.4,78,15,25000,22.224,,,290,17.1,21.3,,,,,,,,,wg-a,,,,AAXX 23184 07207 12575 32912 10190 20150 30123 40174 53004 60006 82252 91800 333 10213 20171=
07207,1996-07-24 00:00:00,17,1018.6,0.3,88,15,20000,25.928,,,340,,,,,,,,,,,wg-a,,,,AAXX 24004 07207 12570 13414 10170 20150 30135 40186 53003 60006 81200 90000=
07207,1996-07-24 06:00:00,15,1019.9,1.1,94,14,20000,18.52,,,350,14.2,19.1,,,,,,,,,wg-a,,,,AAXX 24064 07207 12770 53510 10150 20140 30148 40199 53011 60006 85500 90600 333 10191 20142=
07207,1996-07-24 12:00:00,19,1021,0.1,78,15,20000,14.816,,,310,,,,,,,,,,,wg-a,,,,AAXX 24124 07207 12670 53108 10190 20150 30159 40210 50001 60006 83202 91200=
07207,1996-07-24 18:00:00,20,1020.5,-0.3,78,16,20000,14.816,,,310,15.1,21.2,,,,,,,,,wg-a,,,,AAXX 24184 07207 12670 43108 10200 20160 30154 40205 56003 60006 82202 91800 333 10212 20151=
07207,1996-07-25 00:00:00,15,1022.4,0.5,82,12,25000,25.928,,,30,,,,,,,,,,,wg-a,,,,AAXX 25004 07207 12575 30314 10150 20120 30172 40224 50005 60006 81101 90000=
07207,1996-07-25 06:00:00,15,1022.8,-0.1,88,13,25000,14.816,,,40,13.4,19.8,,,,,,,,,wg-a,,,,AAXX 25064 07207 12/75 40408 10150 20130 30176 40228 55001 60006 80002 90600 333 10198 20134=
07207,1996-07-25 12:00:00,23,1022.5,-0.1,50,12,500,22.224,,,80,,,,,,,,,,,wg-a,,,,AAXX 25124 07207 12/00 40812 10230 20120 30175 40225 58001 60006 80002 91200=
07207,1996-07-25 18:00:00,20,1019.5,-1.5,73,15,500,22.224,,,330,15.3,24.8,,,,,,,,,wg-a,,,,AAXX 25184 07207 12/00 53312 10200 20150 30144 40195 56015 60006 80002 91800 333 10248 20153=
07207,1996-07-26 00:00:00,17,1020.8,-0.6,72,12,25000,31.484,,,40,,,,,,,,,,,wg-a,,,,AAXX 26004 07207 12/75 30417 10170 20120 30157 40208 58006 60006 80002 90000=
07207,1996-07-26 06:00:00,17,1021.1,0.4,77,13,20000,29.632,,,50,15.2,21,,,,,,,,,wg-a,,,,AAXX 26064 07207 12/70 60516 10170 20130 30160 40211 53004 60006 80002 90600 333 10210 20152=
07207,1996-07-26 12:00:00,24,1021.1,-0.8,50,13,15000,25.928,,,30,,,,,,,,,,,wg-a,,,,AAXX 26124 07207 12/65 60314 10240 20130 30161 40211 58008 60006 80002 91200=
07207,1996-07-27 00:00:00,17,1021.3,-0.3,72,12,12000,25.928,,,30,,,,,,,,,,,wg-a,,,,AAXX 27004 07207 12862 20314 10170 20120 30162 40213 56003 60006 81031 90000=
07207,1996-07-27 06:00:00,16,1021.8,0.6,94,15,500,25.928,,,350,14.6,24.4,,,,,,,,,wg-a,,,,AAXX 27064 07207 12400 83514 10160 20150 30167 40218 53006 60006 886// 90600 333 10244 20146=
07207,1996-07-27 12:00:00,20,1022.4,-0.4,83,17,25000,22.224,,,310,,,,,,,,,,,wg-a,,,,AAXX 27124 07207 12575 63112 10200 20170 30173 40224 56004 60006 83202 91200=
07207,1996-07-27 18:00:00,19,1021.1,-0.7,83,16,25000,18.52,,,300,15.5,20.9,,,,,,,,,wg-a,,,,AAXX 27184 07207 12575 53010 10190 20160 30160 40211 57007 60006 82202 91800 333 10209 20155=
07207,1996-07-28 00:00:00,16,1022.3,0.1,88,14,20000,14.816,,,10,,,,,,,,,,,wg-a,,,,AAXX 28004 07207 12/70 20108 10160 20140 30172 40223 50001 60006 80002 90000=
07207,1996-07-28 06:00:00,16,1022,0.4,94,15,500,14.816,,,340,13.4,19.1,,,,,,,,,wg-a,,,,AAXX 28064 07207 12800 33408 10160 20150 30169 40220 53004 60006 81031 90600 333 10191 20134=
07207,1996-07-28 12:00:00,19,1022.2,0.2,88,17,25000,11.112,,,230,,,,,,,,,,,wg-a,,,,AAXX 28124 07207 12575 72306 10190 20170 30171 40222 50002 60006 8525/ 91200=
07207,1996-07-28 18:00:00,19,1019.8,-1.1,88,17,25000,7.408,,,250,16.4,20.5,,,,,,,,,wg-a,,,,AAXX 28184 07207 12675 72504 10190 20170 30147 40198 58011 60006 875// 91800 333 10205 20164=
07207,1996-07-29 00:00:00,18,1018.7,-1,94,17,20000,18.52,,,220,,,,,,,,,,,wg-a,,,,AAXX 29004 07207 12670 72210 10180 20170 30136 40187 57010 60006 87500 90000=
07207,1996-07-29 06:00:00,17,1017.5,0.3,100,17,18000,14.816,,,260,16.9,18.9,,0,,,,,,21,wg-a,,,,AAXX 29064 07207 12568 72608 10170 20170 30124 40175 53003 60007 72122 878// 90600 333 10189 20169=
07207,1996-07-29 12:00:00,21,1017.9,0.3,73,16,25000,18.52,,,280,,,,,,,,,,,wg-a,,,,AAXX 29124 07207 12575 52810 10210 20160 30129 40179 50003 60006 85800 91200=
07207,1996-07-29 18:00:00,19,1018,-0.2,83,16,25000,22.224,,,280,17.3,21.6,,,,,,,,,wg-a,,,,AAXX 29184 07207 12575 62812 10190 20160 30129 40180 55002 60006 86200 91800 333 10216 20173=
07207,1996-07-30 00:00:00,18,1019.3,0.4,94,17,15000,14.816,,,300,,,,,,,,,,,wg-a,,,,AAXX 30004 07207 12565 73008 10180 20170 30142 40193 50004 60006 87200 90000=
07207,1996-07-30 06:00:00,18,1020.1,0.6,94,17,15000,14.816,,,320,17.5,19.4,,,,,,,,,wg-a,,,,AAXX 30064 07207 12765 73208 10180 20170 30150 40201 53006 60006 875// 90600 333 10194 20175=
07207,1996-07-30 12:00:00,20,1022,0.8,78,16,18000,11.112,,,290,,,,,,,,,,,wg-a,,,,AAXX 30124 07207 12668 72906 10200 20160 30169 40220 52008 60006 878// 91200=
07207,1996-07-30 18:00:00,18,1021.7,-0.5,77,14,20000,11.112,,,300,17.5,20.2,,,,,,,,,wg-a,,,,AAXX 30184 07207 12670 73006 10180 20140 30166 40217 56005 60006 84230 91800 333 10202 20175=
07207,1996-07-31 00:00:00,16,1021.4,-0.7,82,13,20000,11.112,,,280,,,,,,,,,,,wg-a,,,,AAXX 31004 07207 12670 12806 10160 20130 30163 40214 58007 60006 81200 90000=
07207,1996-07-31 06:00:00,18,1020.2,-0,77,14,20000,14.816,,,280,16,17.5,,,,,,,,,wg-a,,,,AAXX 31064 07207 12570 72808 10180 20140 30151 40202 55000 60006 878// 90600 333 10175 20160=
07207,1996-07-31 12:00:00,20,1020.7,0.2,73,15,500,18.52,,,250,,,,,,,,,,,wg-a,,,,AAXX 31124 07207 12500 62510 10200 20150 30156 40207 53002 60006 84230 91200=
07207,1996-07-31 18:00:00,19,1019.5,-0.6,83,16,500,14.816,,,270,17.5,20.3,,,,,,,,,wg-a,,,,AAXX 31184 07207 12500 62708 10190 20160 30144 40195 56006 60006 84231 91800 333 10203 20175=
07207,1996-08-01 00:00:00,18,1019.2,-0.5,94,17,18000,11.112,,,340,,,,,,,,,,,wg-a,,,,AAXX 01004 07207 12568 83406 10180 20170 30141 40192 58005 60006 88200 90000=
07207,1996-08-01 06:00:00,17,1019.4,1,77,13,20000,14.816,,,350,16.1,19.1,,,,,,,,2,wg-a,,,,AAXX 01064 07207 32670 73508 10170 20130 30143 40194 51010 70282 875// 90600 333 10191 20161=
07207,1996-08-01 12:00:00,21,1020.5,0.2,56,12,500,14.816,,,280,,,,,,,,,,,wg-a,,,,AAXX 01124 07207 12500 42808 10210 20120 30154 40205 52002 60006 82230 91200=
07207,1996-08-01 18:00:00,19,1021.1,0.1,73,14,25000,18.52,,,300,16.6,21.2,,,,,,,,,wg-a,,,,AAXX 01184 07207 12575 63010 10190 20140 30160 40211 51001 60006 86230 91800 333 10212 20166=
07207,1996-08-02 00:00:00,16,1022.9,0.6,88,14,20000,18.52,,,10,,,,,,,,,,,wg-a,,,,AAXX 02004 07207 12/70 60110 10160 20140 30178 40229 51006 60006 85031 90000=
07207,1996-08-02 06:00:00,15,1024.8,1.1,94,14,500,11.112,,,10,13.3,18.6,,,,,,,,,wg-a,,,,AAXX 02064 07207 12500 30106 10150 20140 30196 40248 53011 60006 82230 90600 333 10186 20133=
07207,1996-08-02 12:00:00,20,1026.2,0.6,68,14,35000,18.52,,,290,,,,,,,,,,,wg-a,,,,AAXX 02124 07207 12681 32910 10200 20140 30211 40262 51006 60006 83200 91200=
07207,1996-08-02 18:00:00,19,1025.8,-0.1,73,14,500,22.224,,,320,14.9,20.3,,,,,,,,,wg-a,,,,AAXX 02184 07207 12600 13212 10190 20140 30207 40258 57001 60006 81200 91800 333 10203 20149=
07207,1996-08-03 00:00:00,13,1027.9,0.9,88,11,20000,14.816,,,30,,,,,,,,,,,wg-a,,,,AAXX 03004 07207 12/70 00308 10130 20110 30227 40279 51009 60006 80000 90000=
07207,1996-08-03 06:00:00,13,1028.2,0.6,94,12,25000,14.816,,,40,10.7,19.2,,,,,,,,,wg-a,,,,AAXX 03064 07207 12675 20408 10130 20120 30230 40282 53006 60006 82100 90600 333 10192 20107=
07207,1996-08-03 12:00:00,21,1027.3,-0.6,49,10,35000,7.408,,,50,,,,,,,,,,,wg-a,,,,AAXX 03124 07207 12681 10504 10210 20100 30222 40273 58006 60006 81200 91200=
07207,1996-08-03 18:00:00,19,1024.9,-1.3,73,14,500,25.928,,,330,12.5,21.9,,,,,,,,,wg-a,,,,AAXX 03184 07207 12/00 03314 10190 20140 30198 40249 56013 60006 80000 91800 333 10219 20125=
07207,1996-08-04 00:00:00,17,1023.1,-1.1,77,13,18000,35.188,,,50,,,,,,,,,,,wg-a,,,,AAXX 04004 07207 12/68 00519 10170 20130 30180 40231 58011 60006 80000 90000=
07207,1996-08-04 06:00:00,16,1020.3,-1,77,12,25000,22.224,,,90,14.9,18.7,,,,,,,,,wg-a,,,,AAXX 04064 07207 12/75 40912 10160 20120 30152 40203 56010 60006 80002 90600 333 10187 20149=
07207,1996-08-04 12:00:00,24,1017.4,-1.8,38,9,25000,25.928,,,100,,,,,,,,,,,wg-a,,,,AAXX 04124 07207 12/75 61014 10240 20090 30124 40174 58018 60006 81084 91200=
07207,1996-08-04 18:00:00,25,1014.4,-1.4,34,8,20000,14.816,,,60,16.4,27,,,,,,,,,wg-a,,,,AAXX 04184 07207 12/70 60608 10250 20080 30094 40144 56014 60006 84094 91800 333 10270 20164=
07207,1996-08-05 00:00:00,19,1012.7,-1,60,11,20000,22.224,,,80,,,,,,,,,,,wg-a,,,,AAXX 05004 07207 12/70 00812 10190 20110 30077 40127 58010 60006 80000 90000=
07207,1996-08-05 06:00:00,18,1010.5,-0.4,73,13,12000,11.112,,,130,17.8,25.3,,,,,,,,,wg-a,,,,AAXX 05064 07207 12/62 71306 10180 20130 30055 40105 55004 60006 8702/ 90600 333 10253 20178=
07207,1996-08-05 12:00:00,21,1011.1,0.6,78,17,10000,3.704,,,150,,,,,,,,,,21,wg-a,,,,AAXX 05124 07207 02660 71502 10210 20170 30061 40111 50006 60016 72162 8723/ 91200 333 61000=
07207,1996-08-05 18:00:00,19,1011.3,0.1,83,16,20000,18.52,,,260,17.3,20.9,,,,,,,,,wg-a,,,,AAXX 05184 07207 32670 52610 10190 20160 30063 40113 53001 83230 91800 333 10209 20173=
07207,1996-08-06 00:00:00,17,1010.9,-0.7,100,17,15000,7.408,,,240,,,,,,,,,,,wg-a,,,,AAXX 06004 07207 12665 32404 10170 20170 30058 40109 58007 60006 81240 90000=
07207,1996-08-06 06:00:00,16,1012.2,1.1,88,14,15000,25.928,,,330,16.1,18.6,,1,,,,,,20,wg-a,,,,AAXX 06064 07207 12865 63314 10160 20140 30071 40122 53011 60017 72062 86070 90600 333 10186 20161=
07207,1996-08-06 12:00:00,19,1015.8,1.5,56,10,25000,25.928,,,300,,,,,,,,,,,wg-a,,,,AAXX 06124 07207 12575 33014 10190 20100 30107 40158 52015 60006 81231 91200=
07207,1996-08-06 18:00:00,17,1018,1.1,68,11,25000,22.224,,50.004,300,16.1,18.8,,,,,,,,,wg-a,,,,AAXX 06184 07207 12875 33012 10170 20110 30129 40180 52011 60006 82031 91800 333 10188 20161 91027=
07207,1996-08-07 00:00:00,14,1020.6,1,72,9,25000,18.52,,,350,,,,,,,,,,,wg-a,,,,AAXX 07004 07207 12875 23510 10140 20090 30154 40206 51010 60006 82031 90000=
07207,1996-08-07 06:00:00,13,1021.5,0.8,88,11,25000,11.112,,,10,12,17.2,,,,,,,,,wg-a,,,,AAXX 07064 07207 12675 40106 10130 20110 30163 40215 52008 60006 82102 90600 333 10172 20120=
07207,1996-08-07 12:00:00,19,1021.7,-0.1,60,11,500,18.52,,,280,,,,,,,,,,,wg-a,,,,AAXX 07124 07207 12600 42810 10190 20110 30166 40217 58001 60006 83102 91200=
07207,1996-08-07 18:00:00,18,1019.7,-0.9,68,12,500,14.816,,,290,13.4,19.5,,,,,,,,,wg-a,,,,AAXX 07184 07207 12/00 42908 10180 20120 30146 40197 56009 60006 80001 91800 333 10195 20134=
07207,1996-08-08 00:00:00,14,1018.3,-1.5,88,12,20000,18.52,,,70,,,,,,,,,,,wg-a,,,,AAXX 08004 07207 12/70 20710 10140 20120 30131 40183 58015 60006 80001 90000=
07207,1996-08-08 06:00:00,15,1016.5,-0.8,82,12,25000,11.112,,,120,12.5,17.8,,,,,,,,,wg-a,,,,AAXX 08064 07207 12/75 61206 10150 20120 30114 40165 56008 60006 83032 90600 333 10178 20125=
07207,1996-08-08 12:00:00,19,1016.8,0.1,73,14,500,11.112,,,250,,,,,,,,,,,wg-a,,,,AAXX 08124 07207 12/00 52506 10190 20140 30117 40168 53001 60006 82032 91200=
07207,1996-08-08 18:00:00,18,1015.7,-0.4,73,13,500,18.52,,,220,15.1,20.2,,,,,,,,,wg-a,,,,AAXX 08184 07207 12/00 62210 10180 20130 30106 40157 58004 60006 85032 91800 333 10202 20151=
07207,1996-08-09 00:00:00,18,1015,-0.7,88,16,15000,18.52,,,230,,,,,,,,,,,wg-a,,,,AAXX 09004 07207 12865 62310 10180 20160 30099 40150 56007 60006 86032 90000=
07207,1996-08-09 06:00:00,18,1012.5,-1,100,18,8000,35.188,,,220,17.9,18.8,,1,,,,,,60,wg-a,,,,AAXX 09064 07207 12458 82219 10180 20180 30074 40125 56010 60017 76062 887// 90600 333 10188 20179=
07207,1996-08-09 12:00:00,20,1012.5,-0.1,88,18,12000,29.632,,61.116,230,,,,1,,,,,,2,wg-a,,,,AAXX 09124 07207 02462 72316 10200 20180 30075 40125 57001 60016 70262 877// 91200 333 60017 91033=
07207,1996-08-09 18:00:00,19,1011.1,-0.3,88,17,15000,29.632,,,240,17.8,20.6,,,,,,,,,wg-a,,,,AAXX 09184 07207 32565 72416 10190 20170 30061 40111 58003 8322/ 91800 333 10206 20178=
07207,1996-08-10 00:00:00,,1009.6,-1.5,,,12000,31.484,,,220,,,,0,,,,,,21,wg-a,,,,AAXX 10004 07207 02562 72217 1//// 2//// 30046 40096 58015 60016 72162 8422/ 90000 333 60007=
07207,1996-08-10 06:00:00,17,1008.6,0.7,94,16,25000,7.408,,64.82,290,15.7,19,,4,,,,,,21,wg-a,,,,AAXX 10064 07207 12475 72904 10170 20160 30035 40086 53007 60047 72162 877// 90600 333 10190 20157 91035=
07207,1996-08-10 12:00:00,18,1009.8,0.1,83,15,25000,22.224,,,250,,,,,,,,,,,wg-a,,,,AAXX 10124 07207 12575 62512 10180 20150 30048 40098 53001 60006 8323/ 91200=
07207,1996-08-10 18:00:00,17,1008.1,-1.3,88,15,12000,31.484,,61.116,250,16.5,19.9,,1,,,,,,3,wg-a,,,,AAXX 10184 07207 12462 72517 10170 20150 30031 40081 58013 60017 70362 877// 91800 333 10199 20165 91033=
07207,1996-08-11 00:00:00,17,1007.3,0.1,88,15,12000,29.632,,79.636,280,,,,,,,,,,1,wg-a,,,,AAXX 11004 07207 12562 42816 10170 20150 30023 40073 53001 60026 70161 84200 90000 333 91043=
07207,1996-08-11 06:00:00,17,1006.8,0.3,77,13,25000,31.484,,57.412,280,16.2,17.4,,,,,,,,,wg-a,,,,AAXX 11064 07207 32575 52817 10170 20130 30017 40068 53003 85200 90600 333 10174 20162 91031=
07207,1996-08-11 12:00:00,18,1009.1,1.3,77,14,15000,35.188,,64.82,290,,,,,,,,,,1,wg-a,,,,AAXX 11124 07207 12565 32919 10180 20140 30041 40091 51013 60006 70181 83200 91200 333 91035=
07207,1996-08-11 18:00:00,17,1010.9,1,82,14,20000,25.928,,61.116,300,15,18.6,,,,,,,,,wg-a,,,,AAXX 11184 07207 32570 33014 10170 20140 30058 40109 53010 83200 91800 333 10186 20150 91033=
07207,1996-08-12 00:00:00,15,1013.6,1,88,13,15000,25.928,,,320,,,,,,,,,,,wg-a,,,,AAXX 12004 07207 12565 33214 10150 20130 30085 40136 51010 60006 83200 90000=
07207,1996-08-12 06:00:00,16,1014.8,1.2,88,14,22000,25.928,,,320,14.9,17.3,,,,,,,,,wg-a,,,,AAXX 12064 07207 12572 63214 10160 20140 30097 40148 53012 60006 85230 90600 333 10173 20149=
07207,1996-08-12 12:00:00,19,1016.2,0.8,78,15,25000,25.928,,,290,,,,,,,,,,,wg-a,,,,AAXX 12124 07207 12575 42914 10190 20150 30111 40162 51008 60006 84200 91200=
07207,1996-08-12 18:00:00,17,1015.9,-0.1,94,16,18000,22.224,,,290,15.5,19.3,,,,,,,,,wg-a,,,,AAXX 12184 07207 12/68 62912 10170 20160 30108 40159 55001 60006 86030 91800 333 10193 20155=
07207,1996-08-13 00:00:00,15,1017.6,0.3,94,14,10000,11.112,,,350,,,,,,,,,,,wg-a,,,,AAXX 13004 07207 12/60 03506 10150 20140 30125 40176 51003 60006 80000 90000=
07207,1996-08-13 06:00:00,14,1017.9,0.5,100,14,6000,11.112,,,330,13.2,17,,0,,,,,,,wg-a,,,,AAXX 13064 07207 12456 83306 10140 20140 30127 40179 53005 60007 886// 90600 333 10170 20132=
07207,1996-08-13 12:00:00,19,1019.1,0.3,78,15,10000,14.816,,,280,,,,,,,,,,,wg-a,,,,AAXX 13124 07207 12560 52808 10190 20150 30140 40191 53003 60006 84101 91200=
07207,1996-08-13 18:00:00,18,1018.5,-0.3,88,16,10000,14.816,,,320,14.1,19.9,,,,,,,,,wg-a,,,,AAXX 13184 07207 12/60 03208 10180 20160 30134 40185 55003 60006 80000 91800 333 10199 20141=
07207,1996-08-14 00:00:00,16,1019.5,0.2,94,15,10000,22.224,,,50,,,,,,,,,,,wg-a,,,,AAXX 14004 07207 12/60 00512 10160 20150 30144 40195 50002 60006 80000 90000=
07207,1996-08-14 06:00:00,15,1019.4,0.3,94,14,6000,14.816,,,40,13.8,18.2,,,,,,,,,wg-a,,,,AAXX 14064 07207 12/56 30408 10150 20140 30143 40194 53003 60006 80001 90600 333 10182 20138=
07207,1996-08-14 12:00:00,20,1020.6,-0,73,15,10000,11.112,,,290,,,,,,,,,,,wg-a,,,,AAXX 14124 07207 12660 12906 10200 20150 30155 40206 55000 60006 81100 91200=
07207,1996-08-14 18:00:00,20,1019.1,-0.4,68,14,15000,22.224,,,320,14.8,21.1,,,,,,,,,wg-a,,,,AAXX 14184 07207 12/65 03212 10200 20140 30140 40191 58004 60006 80000 91800 333 10211 20148=
07207,1996-08-15 00:00:00,16,1020.2,0.5,88,14,10000,25.928,,,40,,,,,,,,,,,wg-a,,,,AAXX 15004 07207 12/60 00414 10160 20140 30151 40202 50005 60006 80000 90000=
07207,1996-08-15 06:00:00,16,1020.1,0.5,94,15,8000,25.928,,,60,15,19.7,,,,,,,,,wg-a,,,,AAXX 15064 07207 12/58 00614 10160 20150 30150 40201 53005 60006 80000 90600 333 10197 20150=
07207,1996-08-15 12:00:00,22,1021.4,0.5,69,16,6000,11.112,,,110,,,,,,,,,,,wg-a,,,,AAXX 15124 07207 12/56 01106 10220 20160 30164 40214 51005 60006 80000 91200=
07207,1996-08-15 18:00:00,21,1020.1,-0.7,78,17,6000,7.408,,,320,15.9,22.6,,,,,,,,,wg-a,,,,AAXX 15184 07207 12/56 03204 10210 20170 30151 40201 56007 60006 80000 91800 333 10226 20159=
07207,1996-08-16 00:00:00,18,1020.7,-0.1,83,15,500,18.52,,,40,,,,,,,,,,,wg-a,,,,AAXX 16004 07207 12/00 00410 10180 20150 30156 40207 56001 60006 80000 90000=
07207,1996-08-16 06:00:00,19,1020.9,0.6,73,14,8000,14.816,,,110,17.1,21.1,,,,,,,,,wg-a,,,,AAXX 16064 07207 12558 41108 10190 20140 30158 40209 53006 60006 84200 90600 333 10211 20171=
07207,1996-08-16 12:00:00,23,1021.4,0.1,57,14,10000,11.112,,,120,,,,,,,,,,,wg-a,,,,AAXX 16124 07207 12/60 01206 10230 20140 30164 40214 50001 60006 80000 91200=
07207,1996-08-16 18:00:00,23,1020.4,-0.2,61,15,15000,18.52,,,340,19,25.1,,,,,,,,,wg-a,,,,AAXX 16184 07207 12/65 03410 10230 20150 30154 40204 55002 60006 80000 91800 333 10251 20190=
07207,1996-08-17 00:00:00,18,1020.9,-0.3,77,14,10000,22.224,,,30,,,,,,,,,,,wg-a,,,,AAXX 17004 07207 12/60 00312 10180 20140 30158 40209 56003 60006 80000 90000=
07207,1996-08-17 06:00:00,18,1020.8,0.4,77,14,15000,14.816,,,90,16.6,22.6,,,,,,,,,wg-a,,,,AAXX 17064 07207 12/65 00908 10180 20140 30157 40208 53004 60006 80000 90600 333 10226 20166=
07207,1996-08-17 12:00:00,22,1021.3,-0.1,69,16,12000,14.816,,,130,,,,,,,,,,,wg-a,,,,AAXX 17124 07207 12/62 01308 10220 20160 30163 40213 58001 60006 80000 91200=
07207,1996-08-17 18:00:00,23,1019.7,-0.6,61,15,15000,7.408,,,250,17.9,24.5,,,,,,,,,wg-a,,,,AAXX 17184 07207 12/65 02504 10230 20150 30147 40197 57006 60006 80000 91800 333 10245 20179=
07207,1996-08-18 00:00:00,18,1019.4,-0.5,73,13,10000,14.816,,,80,,,,,,,,,,,wg-a,,,,AAXX 18004 07207 12/60 00808 10180 20130 30143 40194 58005 60006 80000 90000=
07207,1996-08-18 06:00:00,20,1018.1,-0.3,68,14,15000,22.224,,,110,17.9,23.2,,,,,,,,,wg-a,,,,AAXX 18064 07207 12/65 21112 10200 20140 30130 40181 55003 60006 80001 90600 333 10232 20179=
07207,1996-08-18 12:00:00,24,1017.7,-0.7,57,15,20000,22.224,,,120,,,,,,,,,,,wg-a,,,,AAXX 18124 07207 12670 41212 10240 20150 30127 40177 58007 60006 83230 91200=
07207,1996-08-18 18:00:00,24,1015.1,-1.6,44,11,18000,7.408,,,280,19.6,25.6,,,,,,,,,wg-a,,,,AAXX 18184 07207 12/68 32804 10240 20110 30101 40151 56016 60006 83080 91800 333 10256 20196=
07207,1996-08-19 00:00:00,19,1014,-0.9,64,12,10000,14.816,,,20,,,,,,,,,,,wg-a,,,,AAXX 19004 07207 12/60 00208 10190 20120 30090 40140 58009 60006 80000 90000=
07207,1996-08-19 12:00:00,23,1012.8,-0.4,61,15,12000,18.52,,,20,,,,,,,,,,,wg-a,,,,AAXX 19124 07207 12/62 70210 10230 20150 30078 40128 58004 60006 8709/ 91200=
07207,1996-08-19 18:00:00,18,1012.5,-0.4,100,18,7000,29.632,,,320,18.3,24.7,,,,,,,,,wg-a,,,,AAXX 19184 07207 12/57 73216 10180 20180 30075 40125 56004 60006 8709/ 91800 333 10247 20183=
07207,1996-08-20 00:00:00,17,1013.7,0.1,100,17,7000,11.112,,,330,,,,,,,,,,20,wg-a,,,,AAXX 20004 07207 02/57 33306 10170 20170 30086 40137 52001 60036 72096 83080 90000 333 61000=
07207,1996-08-20 06:00:00,16,1013.7,0.3,100,16,500,11.112,,,310,16.3,18.8,,,,,,,,,wg-a,,,,AAXX 20064 07207 32400 83106 10160 20160 30086 40137 53003 886// 90600 333 10188 20163=
07207,1996-08-20 12:00:00,20,1014.6,0.8,83,17,20000,18.52,,,280,,,,,,,,,,,wg-a,,,,AAXX 20124 07207 12570 52810 10200 20170 30096 40146 51008 60006 84230 91200=
07207,1996-08-20 18:00:00,19,1014.5,-0,83,16,500,18.52,,,290,16.4,20.8,,,,,,,,,wg-a,,,,AAXX 20184 07207 12500 42910 10190 20160 30094 40145 54000 60006 82201 91800 333 10208 20164=
07207,1996-08-21 00:00:00,17,1015.4,0.4,88,15,20000,11.112,,,310,,,,,,,,,,,wg-a,,,,AAXX 21004 07207 12570 23106 10170 20150 30103 40154 50004 60006 81201 90000=
07207,1996-08-21 06:00:00,15,1014.3,-0.2,100,15,18000,3.704,,,110,13.7,18.6,,0,,,,,,,wg-a,,,,AAXX 21064 07207 12568 61102 10150 20150 30092 40143 56002 60007 83231 90600 333 10186 20137=
07207,1996-08-21 12:00:00,20,1015.3,0.1,73,15,25000,14.816,,,280,,,,,,,,,,,wg-a,,,,AAXX 21124 07207 12575 52808 10200 20150 30103 40153 53001 60006 83231 91200=
07207,1996-08-21 18:00:00,18,1015.4,-0.2,73,13,500,25.928,,,290,15.4,20.9,,,,,,,,,wg-a,,,,AAXX 21184 07207 12500 52914 10180 20130 30103 40154 55002 60006 82301 91800 333 10209 20154=
07207,1996-08-22 00:00:00,16,1016.5,0,82,13,18000,7.408,,,290,,,,,,,,,,,wg-a,,,,AAXX 22004 07207 12568 52904 10160 20130 30114 40165 50000 60006 81501 90000=
07207,1996-08-22 06:00:00,17,1014.9,-0.8,77,13,25000,14.816,,,190,14.6,17.7,,,,,,,,,wg-a,,,,AAXX 22064 07207 12575 41908 10170 20130 30098 40149 56008 60006 83201 90600 333 10177 20146=
07207,1996-08-22 12:00:00,20,1013.6,-0.6,73,15,35000,35.188,,,210,,,,,,,,,,,wg-a,,,,AAXX 22124 07207 12581 52119 10200 20150 30086 40136 57006 60006 84230 91200=
07207,1996-08-22 18:00:00,18,1011,-1.2,94,17,6000,35.188,,68.524,210,17.1,20.4,,1,,,,,,21,wg-a,,,,AAXX 22184 07207 12456 82119 10180 20170 30060 40110 56012 60017 72122 887// 91800 333 10204 20171 91037=
07207,1996-08-23 00:00:00,18,1008.2,-1.7,100,18,500,35.188,,,220,,,,3,,,,,,2,wg-a,,,,AAXX 23004 07207 02400 82219 10180 20180 30032 40082 58017 60046 70262 887// 90000 333 60037=
07207,1996-08-23 06:00:00,17,1008.7,3.3,77,13,18000,38.892,,83.34,290,16.2,18.8,,,,,,,,1,wg-a,,,,AAXX 23064 07207 32568 52921 10170 20130 30036 40087 53033 70162 85200 90600 333 10188 20162 91045=
07207,1996-08-23 12:00:00,18,1010.8,0.7,77,14,20000,35.188,,61.116,260,,,,,,,,,,,wg-a,,,,AAXX 23124 07207 12570 52619 10180 20140 30058 40108 51007 60006 85200 91200 333 91033=
07207,1996-08-23 18:00:00,18,1010.9,-0.5,77,14,15000,38.892,,72.228,260,16.1,19.1,,1,,,,,,2,wg-a,,,,AAXX 23184 07207 12565 62621 10180 20140 30058 40109 56005 60017 70262 85230 91800 333 10191 20161 91039=
07207,1996-08-24 00:00:00,17,1011,-0.5,82,14,0,35.188,,,260,,,,0,,,,,,,wg-a,,,,AAXX 24004 07207 02/// /2619 10170 20140 30059 40110 58005 60016 90000 333 60007=
07207,1996-08-24 06:00:00,16,1010.2,0.3,88,14,20000,29.632,,68.524,280,14.8,17.8,,3,,,,,,2,wg-a,,,,AAXX 24064 07207 12570 72816 10160 20140 30051 40102 53003 60037 70262 877// 90600 333 10178 20148 91037=
07207,1996-08-24 12:00:00,19,1012.6,0.7,73,14,20000,31.484,,57.412,280,,,,,,,,,,,wg-a,,,,AAXX 24124 07207 12470 52817 10190 20140 30076 40126 51007 60006 85300 91200 333 91031=
07207,1996-08-24 18:00:00,17,1013.6,0.6,82,14,25000,31.484,,50.004,280,16,19,,,,,,,,,wg-a,,,,AAXX 24184 07207 12475 52817 10170 20140 30085 40136 52006 60006 84330 91800 333 10190 20160 91027=
07207,1996-08-25 00:00:00,17,1014.6,-0.1,82,14,12000,29.632,,53.708,280,,,,1,,,,,,2,wg-a,,,,AAXX 25004 07207 02462 62816 10170 20140 30095 40146 58001 60016 70282 86300 90000 333 60017 91029=
07207,1996-08-25 06:00:00,16,1014.5,0.3,77,12,25000,25.928,,,290,15.6,17,,,,,,,,,wg-a,,,,AAXX 25064 07207 32575 42914 10160 20120 30094 40145 53003 82231 90600 333 10170 20156=
07207,1996-08-25 12:00:00,19,1015.5,0,60,11,25000,18.52,,,280,,,,,,,,,,,wg-a,,,,AAXX 25124 07207 12575 42810 10190 20110 30104 40155 50000 60006 83230 91200=
07207,1996-08-25 18:00:00,17,1015.3,-0.1,68,11,500,18.52,,,280,15.8,19.4,,,,,,,,,wg-a,,,,AAXX 25184 07207 12500 42810 10170 20110 30102 40153 56001 60006 82230 91800 333 10194 20158=
07207,1996-08-26 00:00:00,15,1016,-0.3,82,12,18000,14.816,,,310,,,,,,,,,,,wg-a,,,,AAXX 26004 07207 12568 23108 10150 20120 30109 40160 56003 60006 82230 90000=
07207,1996-08-26 06:00:00,15,1016.5,0.6,82,12,0,7.408,,,330,13.3,16.8,,,,,,,,,wg-a,,,,AAXX 26064 07207 12/// /3304 10150 20120 30114 40165 53006 60006 90600 333 10168 20133=
07207,1996-08-26 12:00:00,19,1017.8,0.3,68,13,500,14.816,,,280,,,,,,,,,,,wg-a,,,,AAXX 26124 07207 12500 32808 10190 20130 30127 40178 51003 60006 83200 91200=
07207,1996-08-26 18:00:00,17,1017.6,0.1,77,13,500,18.52,,,290,14.5,19.6,,,,,,,,,wg-a,,,,AAXX 26184 07207 12500 42910 10170 20130 30125 40176 53001 60006 83234 91800 333 10196 20145=
07207,1996-08-27 00:00:00,15,1018.4,0.1,77,11,12000,22.224,,,340,,,,,,,,,,,wg-a,,,,AAXX 27004 07207 12762 73412 10150 20110 30133 40184 52001 60006 8750/ 90000=
07207,1996-08-27 06:00:00,14,1018.4,0.2,88,12,20000,11.112,,,340,13.8,16.7,,,,,,,,,wg-a,,,,AAXX 27064 07207 12470 63406 10140 20120 30132 40184 53002 60006 86300 90600 333 10167 20138=
07207,1996-08-27 12:00:00,18,1019.5,0.4,64,11,500,22.224,,,290,,,,,,,,,,,wg-a,,,,AAXX 27124 07207 12500 52912 10180 20110 30144 40195 51004 60006 84231 91200=
07207,1996-08-28 00:00:00,14,1021.6,0.5,88,12,15000,18.52,,,340,,,,,,,,,,,wg-a,,,,AAXX 28004 07207 12565 23410 10140 20120 30164 40216 51005 60006 82100 90000=
07207,1996-08-28 06:00:00,15,1021.2,0.2,82,12,18000,22.224,,,330,13.4,16.9,,,,,,,,,wg-a,,,,AAXX 28064 07207 12568 43312 10150 20120 30160 40212 53002 60006 84200 90600 333 10169 20134=
07207,1996-08-28 12:00:00,19,1021.3,-0.4,73,14,500,18.52,,,290,,,,,,,,,,,wg-a,,,,AAXX 28124 07207 12500 32910 10190 20140 30162 40213 58004 60006 83200 91200=
07207,1996-08-28 18:00:00,18,1020.4,-0,77,14,20000,25.928,,,320,14.7,18.8,,,,,,,,,wg-a,,,,AAXX 28184 07207 12570 43214 10180 20140 30153 40204 54000 60006 84330 91800 333 10188 20147=
07207,1996-08-29 00:00:00,15,1021.6,-0.1,88,13,15000,22.224,,,330,,,,,,,,,,,wg-a,,,,AAXX 29004 07207 12665 43312 10150 20130 30164 40216 55001 60006 84200 90000=
07207,1996-08-29 06:00:00,14,1020.2,-0.5,88,12,15000,25.928,,,330,14,17.6,,,,,,,,,wg-a,,,,AAXX 29064 07207 12565 53314 10140 20120 30150 40202 56005 60006 84330 90600 333 10176 20140=
07207,1996-08-29 12:00:00,18,1020.7,0,73,13,500,18.52,,,290,,,,,,,,,,,wg-a,,,,AAXX 29124 07207 12500 52910 10180 20130 30156 40207 50000 60006 83331 91200=
07207,1996-08-29 18:00:00,17,1020.3,0.2,72,12,500,25.928,,,310,14.4,19,,,,,,,,,wg-a,,,,AAXX 29184 07207 12500 53114 10170 20120 30152 40203 50002 60006 82332 91800 333 10190 20144=
07207,1996-08-30 00:00:00,13,1022.3,0.3,77,9,15000,18.52,,50.004,350,,,,,,,,,,,wg-a,,,,AAXX 30004 07207 12565 53510 10130 20090 30171 40223 51003 60006 84201 90000 333 91027=
07207,1996-08-30 06:00:00,12,1023.3,0.9,82,9,25000,14.816,,,350,11.6,16.8,,,,,,,,,wg-a,,,,AAXX 30064 07207 12575 43508 10120 20090 30181 40233 53009 60006 83230 90600 333 10168 20116=
07207,1996-08-30 12:00:00,18,1024.9,0.5,68,12,500,14.816,,,280,,,,,,,,,,,wg-a,,,,AAXX 30124 07207 12600 72808 10180 20120 30198 40249 51005 60006 8445/ 91200=
07207,1996-08-30 18:00:00,18,1025.2,-0,77,14,500,14.816,,,320,12,18.8,,,,,,,,,wg-a,,,,AAXX 30184 07207 12800 53208 10180 20140 30201 40252 54000 60006 85051 91800 333 10188 20120=
07207,1996-08-31 00:00:00,14,1027.4,0.6,88,12,12000,22.224,,,20,,,,,,,,,,,wg-a,,,,AAXX 31004 07207 12562 50212 10140 20120 30222 40274 51006 60006 82110 90000=
07207,1996-08-31 06:00:00,12,1027.9,0.7,100,12,25000,18.52,,,20,11.7,17.6,,,,,,,,,wg-a,,,,AAXX 31064 07207 12575 30210 10120 20120 30227 40279 53007 60006 82231 90600 333 10176 20117=
07207,1996-08-31 12:00:00,20,1028.5,-0.3,60,12,35000,14.816,,,360,,,,,,,,,,,wg-a,,,,AAXX 31124 07207 12581 53608 10200 20120 30234 40285 58003 60006 83331 91200=
07207,1996-08-31 18:00:00,18,1028.1,-0,73,13,500,18.52,,,330,12.4,20.3,,,,,,,,,wg-a,,,,AAXX 31184 07207 12/00 63310 10180 20130 30230 40281 55000 60006 80005 91800 333 10203 20124=
07207,1996-09-01 00:00:00,12,1029.3,-0.3,82,9,12000,11.112,,,20,,,,,,,,,,,wg-a,,,,AAXX 01004 07207 12862 50206 10120 20090 30240 40293 58003 60006 81041 90000=
07207,1996-09-01 06:00:00,11,1029.3,0.3,94,10,18000,18.52,,,10,9.7,17.6,,,,,,,,,wg-a,,,,AAXX 01064 07207 12/68 70110 10110 20100 30240 40293 53003 60006 8702/ 90600 333 10176 20097=
07207,1996-09-01 12:00:00,20,1028.3,-0.9,60,12,25000,22.224,,,30,,,,,,,,,,,wg-a,,,,AAXX 01124 07207 12575 70312 10200 20120 30232 40283 58009 60006 8115/ 91200=
07207,1996-09-01 18:00:00,18,1026.7,-0.2,73,13,20000,14.816,,,330,10.8,21.8,,,,,,,,,wg-a,,,,AAXX 01184 07207 12/70 33308 10180 20130 30216 40267 58002 60006 81031 91800 333 10218 20108=
07207,1996-09-02 00:00:00,14,1027.3,-0.2,88,12,12000,25.928,,,40,,,,,,,,,,,wg-a,,,,AAXX 02004 07207 12/62 00414 10140 20120 30221 40273 57002 60006 80000 90000=
07207,1996-09-02 06:00:00,13,1026.8,-0,94,12,20000,18.52,,,70,12.2,17.8,,,,,,,,,wg-a,,,,AAXX 02064 07207 12/70 10710 10130 20120 30216 40268 55000 60006 81030 90600 333 10178 20122=
07207,1996-09-02 12:00:00,19,1026.5,-0.8,60,11,35000,3.704,,,140,,,,,,,,,,,wg-a,,,,AAXX 02124 07207 12/81 11402 10190 20110 30214 40265 58008 60006 81030 91200=
07207,1996-09-02 18:00:00,18,1024.1,-1.1,64,11,500,22.224,,,350,13.2,21,,,,,,,,,wg-a,,,,AAXX 02184 07207 12/00 03512 10180 20110 30190 40241 58011 60006 80000 91800 333 10210 20132=
07207,1996-09-03 00:00:00,14,1024.5,-0.2,88,12,12000,25.928,,,40,,,,,,,,,,,wg-a,,,,AAXX 03004 07207 12/62 00414 10140 20120 30193 40245 58002 60006 80000 90000=
07207,1996-09-03 06:00:00,13,1022.5,-0.7,88,11,10000,25.928,,,50,12.7,17.5,,,,,,,,,wg-a,,,,AAXX 03064 07207 12860 20514 10130 20110 30173 40225 56007 60006 82030 90600 333 10175 20127=
07207,1996-09-03 12:00:00,21,1021.2,-1.3,49,10,12000,22.224,,,40,,,,,,,,,,,wg-a,,,,AAXX 03124 07207 12562 10412 10210 20100 30161 40212 58013 60006 81100 91200=
07207,1996-09-03 18:00:00,19,1018.7,-0.4,64,12,10000,18.52,,,50,13.1,22.2,,,,,,,,,wg-a,,,,AAXX 03184 07207 12560 30510 10190 20120 30136 40187 55004 60006 81130 91800 333 10222 20131=
07207,1996-09-04 00:00:00,16,1019.2,-0.2,77,12,10000,31.484,,,50,,,,,,,,,,,wg-a,,,,AAXX 04004 07207 12560 10517 10160 20120 30141 40192 58002 60006 81100 90000=
07207,1996-09-04 06:00:00,15,1018.3,-0.1,77,11,0,29.632,,,50,14.5,19,,,,,,,,,wg-a,,,,AAXX 04064 07207 12/// /0516 10150 20110 30131 40183 55001 60006 90600 333 10190 20145=
07207,1996-09-04 12:00:00,23,1017.4,-0.8,50,12,10000,25.928,,,50,,,,,,,,,,,wg-a,,,,AAXX 04124 07207 12/60 00514 10230 20120 30124 40174 58008 60006 80000 91200=
07207,1996-09-04 18:00:00,22,1015.2,-0.8,57,13,12000,18.52,,,60,14.6,25.7,,,,,,,,,wg-a,,,,AAXX 04184 07207 12/62 00610 10220 20130 30102 40152 56008 60006 80000 91800 333 10257 20146=
07207,1996-09-05 00:00:00,17,1016.5,0.1,82,14,0,35.188,,,50,,,,,,,,,,,wg-a,,,,AAXX 05004 07207 12/// /0519 10170 20140 30114 40165 52001 60006 90000=
07207,1996-09-05 06:00:00,17,1016.5,0.1,82,14,0,35.188,,,50,,,,,,,,,,,wg-a,,,,AAXX 05064 07207 12/// /0519 10170 20140 30114 40165 52001 60006 90600=
07207,1996-09-05 12:00:00,21,1017.9,0.1,69,15,500,18.52,,,80,,,,,,,,,,,wg-a,,,,AAXX 05124 07207 12/00 00810 10210 20150 30129 40179 50001 60006 80000 91200=
07207,1996-09-05 18:00:00,20,1017,-0.1,73,15,500,7.408,,,330,15.4,22.9,,,,,,,,,wg-a,,,,AAXX 05184 07207 12/00 03304 10200 20150 30119 40170 55001 60006 80000 91800 333 10229 20154=
07207,1996-09-06 00:00:00,16,1018.3,0.2,82,13,500,25.928,,,50,,,,,,,,,,,wg-a,,,,AAXX 06004 07207 12/00 00514 10160 20130 30132 40183 51002 60006 80000 90000=
07207,1996-09-06 06:00:00,15,1019,0.7,82,12,10000,22.224,,,80,14.5,19.5,,,,,,,,,wg-a,,,,AAXX 06064 07207 12/60 00812 10150 20120 30138 40190 53007 60006 80000 90600 333 10195 20145=
07207,1996-09-06 12:00:00,20,1019.7,0,64,13,10000,14.816,,,120,,,,,,,,,,,wg-a,,,,AAXX 06124 07207 12/60 01208 10200 20130 30146 40197 50000 60006 80000 91200=
07207,1996-09-06 18:00:00,20,1018.9,-0,68,14,12000,11.112,,,340,14.6,22.2,,,,,,,,,wg-a,,,,AAXX 06184 07207 12/62 03406 10200 20140 30138 40189 55000 60006 80000 91800 333 10222 20146=
07207,1996-09-07 00:00:00,16,1020.1,0.1,82,13,500,25.928,,,40,,,,,,,,,,,wg-a,,,,AAXX 07004 07207 12/00 00414 10160 20130 30150 40201 52001 60006 80000 90000=
07207,1996-09-07 06:00:00,15,1020.6,0.7,72,10,0,22.224,,,90,13.9,19.4,,,,,,,,,wg-a,,,,AAXX 07064 07207 12/// /0912 10150 20100 30154 40206 53007 60006 90600 333 10194 20139=
07207,1996-09-07 12:00:00,21,1022.2,0.5,49,10,15000,14.816,,,120,,,,,,,,,,,wg-a,,,,AAXX 07124 07207 12/65 01208 10210 20100 30171 40222 52005 60006 80000 91200=
07207,1996-09-07 18:00:00,20,1021.3,-0.2,40,6,15000,11.112,,,70,14.7,23.1,,,,,,,,,wg-a,,,,AAXX 07184 07207 12/65 10706 10200 20060 30162 40213 56002 60006 80001 91800 333 10231 20147=
07207,1996-09-08 00:00:00,15,1022.6,0.4,88,13,10000,29.632,,,50,,,,,,,,,,,wg-a,,,,AAXX 08004 07207 12/60 00516 10150 20130 30174 40226 53004 60006 80000 90000=
07207,1996-09-08 06:00:00,13,1022.4,0.2,72,8,20000,22.224,,,60,13.3,20.1,,,,,,,,,wg-a,,,,AAXX 08064 07207 12/70 10612 10130 20080 30172 40224 53002 60006 81040 90600 333 10201 20133=
07207,1996-09-08 12:00:00,20,1022.6,-0.9,43,7,18000,29.632,,50.004,50,,,,,,,,,,,wg-a,,,,AAXX 08124 07207 12868 40516 10200 20070 30175 40226 58009 60006 82054 91200 333 91027=
07207,1996-09-08 18:00:00,18,1021.5,-0,42,5,20000,25.928,,57.412,50,13.5,21,,,,,,,,,wg-a,,,,AAXX 08184 07207 12/70 40514 10180 20050 30164 40215 55000 60006 80004 91800 333 10210 20135 91031=
07207,1996-09-09 00:00:00,14,1023.5,0.9,72,9,10000,31.484,,53.708,50,,,,,,,,,,,wg-a,,,,AAXX 09004 07207 12/60 00517 10140 20090 30183 40235 52009 60006 80000 90000 333 91029=
07207,1996-09-09 06:00:00,13,1023.9,0.5,82,10,0,18.52,,,30,11.8,17.9,,,,,,,,,wg-a,,,,AAXX 09064 07207 12/// /0310 10130 20100 30187 40239 53005 60006 90600 333 10179 20118=
07207,1996-09-09 12:00:00,19,1023.6,-0.5,60,11,25000,31.484,,,40,,,,,,,,,,,wg-a,,,,AAXX 09124 07207 12675 50417 10190 20110 30185 40236 55005 60006 85240 91200=
07207,1996-09-09 18:00:00,18,1021.8,-0.1,68,12,25000,29.632,,57.412,30,13.1,20.9,,,,,,,,,wg-a,,,,AAXX 09184 07207 12575 20316 10180 20120 30167 40218 55001 60006 82200 91800 333 10209 20131 91031=
07207,1996-09-10 00:00:00,14,1023.4,0.2,88,12,0,31.484,,,50,,,,,,,,,,,wg-a,,,,AAXX 10004 07207 12/// /0517 10140 20120 30182 40234 50002 60006 90000=
07207,1996-09-10 06:00:00,14,1022.6,-0,82,11,25000,25.928,,,60,13.5,17.9,,,,,,,,,wg-a,,,,AAXX 10064 07207 12/75 20614 10140 20110 30174 40226 55000 60006 80001 90600 333 10179 20135=
07207,1996-09-10 12:00:00,18,1022,-1.1,64,11,500,31.484,,,50,,,,,,,,,,,wg-a,,,,AAXX 10124 07207 12400 50517 10180 20110 30169 40220 58011 60006 83304 91200=
07207,1996-09-10 18:00:00,17,1020.2,-0.4,63,10,25000,22.224,,,30,13.4,20.2,,,,,,,,,wg-a,,,,AAXX 10184 07207 12/75 50312 10170 20100 30151 40202 56004 60006 80005 91800 333 10202 20134=
07207,1996-09-11 00:00:00,14,1020.5,-0.5,77,10,12000,29.632,,,60,,,,,,,,,,,wg-a,,,,AAXX 11004 07207 12/62 20616 10140 20100 30153 40205 58005 60006 80001 90000=
07207,1996-09-11 06:00:00,14,1019.1,-0.6,82,11,15000,25.928,,,60,13.8,16.9,,,,,,,,,wg-a,,,,AAXX 11064 07207 12/65 80614 10140 20110 30139 40191 55006 60006 88050 90600 333 10169 20138=
07207,1996-09-11 12:00:00,19,1018.1,-1,56,10,500,14.816,,,70,,,,,,,,,,,wg-a,,,,AAXX 11124 07207 12500 40708 10190 20100 30130 40181 58010 60006 83230 91200=
07207,1996-09-11 18:00:00,17,1016.2,-0.8,59,9,10000,22.224,,,30,13.9,20.2,,,,,,,,,wg-a,,,,AAXX 11184 07207 12/60 80312 10170 20090 30111 40162 56008 60006 8805/ 91800 333 10202 20139=
07207,1996-09-12 00:00:00,13,1016,-0.5,82,10,10000,22.224,,,40,,,,,,,,,,,wg-a,,,,AAXX 12004 07207 12/60 00412 10130 20100 30108 40160 58005 60006 80000 90000=
07207,1996-09-12 06:00:00,11,1015.2,-0.2,94,10,12000,22.224,,,20,10.5,16.7,,,,,,,,,wg-a,,,,AAXX 12064 07207 12/62 30212 10110 20100 30100 40152 55002 60006 80004 90600 333 10167 20105=
07207,1996-09-12 12:00:00,17,1014.8,-0.4,77,13,20000,25.928,,,330,,,,,,,,,,,wg-a,,,,AAXX 12124 07207 12870 63314 10170 20130 30097 40148 58004 60006 85051 91200=
07207,1996-09-12 18:00:00,16,1014.7,-0.1,77,12,18000,22.224,,,330,10.9,18.3,,,,,,,,,wg-a,,,,AAXX 12184 07207 12/68 73312 10160 20120 30096 40147 55001 60006 8705/ 91800 333 10183 20109=
07207,1996-09-13 00:00:00,13,1016.9,0.6,94,12,10000,18.52,,,10,,,,,,,,,,,wg-a,,,,AAXX 13004 07207 12/60 00110 10130 20120 30117 40169 52006 60006 80000 90000=
07207,1996-09-13 06:00:00,11,1017.7,0.7,100,11,12000,18.52,,,10,10.8,16.3,,,,,,,,,wg-a,,,,AAXX 13064 07207 12562 20110 10110 20110 30125 40177 53007 60006 81140 90600 333 10163 20108=
07207,1996-09-13 12:00:00,18,1019.9,0.8,52,8,20000,14.816,,,40,,,,,,,,,,,wg-a,,,,AAXX 13124 07207 12570 10408 10180 20080 30148 40199 51008 60006 81200 91200=
07207,1996-09-13 18:00:00,16,1020.2,0.9,72,11,20000,22.224,,,330,10.9,18.9,,,,,,,,,wg-a,,,,AAXX 13184 07207 12/70 03312 10160 20110 30151 40202 52009 60006 80000 91800 333 10189 20109=
07207,1996-09-14 00:00:00,12,1022.4,0.5,76,8,10000,22.224,,,60,,,,,,,,,,,wg-a,,,,AAXX 14004 07207 12/60 00612 10120 20080 30172 40224 51005 60006 80000 90000=
07207,1996-09-14 06:00:00,10,1023.5,0.6,87,8,25000,14.816,,,90,9.6,16,,,,,,,,,wg-a,,,,AAXX 14064 07207 12/75 10908 10100 20080 30182 40235 52006 60006 80001 90600 333 10160 20096=
07207,1996-09-14 12:00:00,17,1024.8,0.3,63,10,500,14.816,,,140,,,,,,,,,,,wg-a,,,,AAXX 14124 07207 12500 31408 10170 20100 30196 40248 50003 60006 81201 91200=
07207,1996-09-14 18:00:00,16,1023.3,-0.4,59,8,500,14.816,,,330,10.4,18.3,,,,,,,,,wg-a,,,,AAXX 14184 07207 12/00 33308 10160 20080 30181 40233 56004 60006 80001 91800 333 10183 20104=
07207,1996-09-15 00:00:00,13,1024,0.1,82,10,10000,25.928,,,50,,,,,,,,,,,wg-a,,,,AAXX 15004 07207 12/60 00514 10130 20100 30188 40240 51001 60006 80000 90000=
07207,1996-09-15 06:00:00,11,1023.5,-0.1,87,9,20000,18.52,,,80,10.4,15.6,,,,,,,,,wg-a,,,,AAXX 15064 07207 12/70 00810 10110 20090 30182 40235 55001 60006 80000 90600 333 10156 20104=
07207,1996-09-15 12:00:00,18,1023.6,-0.5,64,11,35000,11.112,,,130,,,,,,,,,,,wg-a,,,,AAXX 15124 07207 12581 11306 10180 20110 30185 40236 58005 60006 81100 91200=
07207,1996-09-16 12:00:00,17,1017.2,-1.8,63,10,25000,18.52,,53.708,110,,,,,,,,,,,wg-a,,,,AAXX 16124 07207 12/75 01110 10170 20100 30121 40172 58018 60006 80000 91200 333 91029=
07207,1996-09-16 18:00:00,17,1013.3,-1.5,68,11,20000,11.112,,,120,14.1,20.3,,,,,,,,,wg-a,,,,AAXX 16184 07207 12/70 21206 10170 20110 30082 40133 56015 60006 80001 91800 333 10203 20141=
07207,1996-09-17 00:00:00,16,1011.3,-1.3,55,7,15000,29.632,,,90,,,,,,,,,,,wg-a,,,,AAXX 17004 07207 12/65 10916 10160 20070 30062 40113 56013 60006 80001 90000=
07207,1996-09-17 06:00:00,13,1010.2,-0.3,77,9,20000,22.224,,,80,12.2,18.3,,,,,,,,,wg-a,,,,AAXX 17064 07207 12/70 40812 10130 20090 30050 40102 55003 60006 80004 90600 333 10183 20122=
07207,1996-09-17 12:00:00,20,1009.9,-0.6,,,20000,22.224,,,80,,,,,,,,,,,wg-a,,,,AAXX 17124 07207 12/70 40812 10200 2//// 30049 40099 56006 60006 80001 91200=
07207,1996-09-17 18:00:00,16,1009.9,0.2,82,13,15000,11.112,,,300,12.6,20.2,,,,,,,,,wg-a,,,,AAXX 17184 07207 12/65 13006 10160 20130 30048 40099 53002 60006 80001 91800 333 10202 20126=
07207,1996-09-18 00:00:00,14,1008.1,-1.1,94,13,12000,3.704,,,320,,,,,,,,,,,wg-a,,,,AAXX 18004 07207 12/62 03202 10140 20130 30030 40081 56011 60006 80000 90000=
07207,1996-09-18 06:00:00,14,1005.2,-1,100,14,6000,22.224,,,100,12,16.2,,,,,,,,,wg-a,,,,AAXX 18064 07207 12/56 61012 10140 20140 30001 40052 55010 60006 84034 90600 333 10162 20120=
07207,1996-09-18 12:00:00,15,1003.8,-1.3,94,14,500,31.484,,,100,,,,,,,,,,,wg-a,,,,AAXX 18124 07207 12400 81017 10150 20140 39987 40038 56013 60006 887// 91200=
07207,1996-09-18 18:00:00,15,1003,0.2,100,15,12000,22.224,,,80,13.6,15.3,,3,,,,,,61,wg-a,,,,AAXX 18184 07207 12662 80812 10150 20150 39979 40030 53002 60037 76162 887// 91800 333 10153 20136=
07207,1996-09-19 00:00:00,12,1004.5,0.6,94,11,0,25.928,,,70,,,,,,,,,,,wg-a,,,,AAXX 19004 07207 12/// /0714 10120 20110 39994 40045 51006 60016 90000=
07207,1996-09-19 06:00:00,12,1004.5,0.6,94,11,10000,25.928,,,70,,,,0,,,,,,21,wg-a,,,,AAXX 19064 07207 02/60 00714 10120 20110 39994 40045 51006 60016 72111 80000 90600 333 60007=
07207,1996-09-19 12:00:00,16,1005.5,-0.3,63,9,12000,31.484,,,360,,,,,,,,,,,wg-a,,,,AAXX 19124 07207 12462 53617 10160 20090 30004 40055 56003 60006 85300 91200=
07207,1996-09-19 18:00:00,14,1005.9,0.9,72,9,12000,11.112,,,10,10.3,17,,,,,,,,,wg-a,,,,AAXX 19184 07207 12462 50106 10140 20090 30008 40059 53009 60006 82340 91800 333 10170 20103=
07207,1996-09-20 00:00:00,12,1005.6,-0.4,88,10,10000,18.52,,,340,,,,,,,,,,,wg-a,,,,AAXX 20004 07207 12/60 03410 10120 20100 30005 40056 58004 60006 80000 90000=
07207,1996-09-20 06:00:00,10,1003.6,-0.6,93,9,12000,11.112,,,360,9.7,13.7,,,,,,,,,wg-a,,,,AAXX 20064 07207 12562 33606 10100 20090 39984 40036 55006 60006 81230 90600 333 10137 20097=
07207,1996-09-20 12:00:00,16,1003.6,-0.2,68,10,15000,7.408,,,150,,,,,,,,,,,wg-a,,,,AAXX 20124 07207 12565 61504 10160 20100 39985 40036 58002 60006 85232 91200=
07207,1996-09-20 18:00:00,13,1002.5,-0.5,77,9,20000,11.112,,,90,9.4,16.5,,,,,,,,,wg-a,,,,AAXX 20184 07207 12870 60906 10130 20090 39974 40025 58005 60006 83034 91800 333 10165 20094=
07207,1996-09-21 00:00:00,14,1001.3,-0.9,88,12,0,25.928,,,70,,,,,,,,,,,wg-a,,,,AAXX 21004 07207 12/// /0714 10140 20120 39962 40013 58009 60006 90000=
07207,1996-09-21 06:00:00,12,1001.4,0.8,94,11,10000,25.928,,,40,11.1,13.7,,,,,,,,,wg-a,,,,AAXX 21064 07207 12/60 60414 10120 20110 39963 40014 53008 60006 8607/ 90600 333 10137 20111=
07207,1996-09-21 12:00:00,17,1003.5,0.7,63,10,10000,29.632,,,40,,,,,,,,,,,wg-a,,,,AAXX 21124 07207 12/60 60416 10170 20100 39985 40035 51007 60006 84205 91200=
07207,1996-09-21 18:00:00,16,1006.3,2.1,63,9,15000,18.52,,,30,12.2,19.5,,,,,,,,,wg-a,,,,AAXX 21184 07207 12865 60310 10160 20090 30012 40063 53021 60006 83034 91800 333 10195 20122=
07207,1996-09-22 00:00:00,12,1009.8,1.2,88,10,12000,22.224,,,30,,,,,,,,,,,wg-a,,,,AAXX 22004 07207 12/62 00312 10120 20100 30046 40098 51012 60006 80000 90000=
07207,1996-09-22 06:00:00,11,1011.6,1,94,10,10000,18.52,,,10,10.6,15.9,,,,,,,,,wg-a,,,,AAXX 22064 07207 12/60 30110 10110 20100 30064 40116 53010 60006 83030 90600 333 10159 20106=
07207,1996-09-22 12:00:00,16,1012.5,-0.1,68,10,15000,14.816,,,300,,,,,,,,,,,wg-a,,,,AAXX 22124 07207 12/65 43008 10160 20100 30074 40125 58001 60006 84260 91200=
07207,1996-09-22 18:00:00,15,1012.8,0.3,77,11,8000,7.408,,,310,11,17.4,,,,,,,,,wg-a,,,,AAXX 22184 07207 12658 73104 10150 20110 30077 40128 53003 60006 87460 91800 333 10174 20110=
07207,1996-09-23 00:00:00,10,1012.9,-0.5,93,9,10000,14.816,,,40,,,,,,,,,,,wg-a,,,,AAXX 23004 07207 12/60 00408 10100 20090 30077 40129 58005 60006 80000 90000=
07207,1996-09-23 06:00:00,11,1011.6,-0.4,94,10,10000,11.112,,,90,9.2,15.1,,,,,,,,,wg-a,,,,AAXX 23064 07207 12/60 50906 10110 20100 30064 40116 56004 60006 83044 90600 333 10151 20092=
07207,1996-09-23 12:00:00,15,1011.7,-0.7,82,12,12000,11.112,,,140,,,,,,,,,,,wg-a,,,,AAXX 23124 07207 12662 81406 10150 20120 30066 40117 56007 60006 88500 91200=
07207,1996-09-23 18:00:00,15,1011.9,0.6,72,10,15000,7.408,,,240,10.8,16,,,,,,,,,wg-a,,,,AAXX 23184 07207 12665 82404 10150 20100 30068 40119 53006 60006 887// 91800 333 10160 20108=
07207,1996-09-24 00:00:00,12,1012.7,-0,82,9,0,11.112,,,40,,,,,,,,,,,wg-a,,,,AAXX 24004 07207 12/// /0406 10120 20090 30075 40127 54000 60006 90000=
07207,1996-09-24 06:00:00,12,1013.1,0.8,100,12,7000,11.112,,,100,10.4,14.8,,,,,,,,,wg-a,,,,AAXX 24064 07207 12/57 31006 10120 20120 30079 40131 53008 60006 82031 90600 333 10148 20104=
07207,1996-09-24 12:00:00,17,1013.4,-0.3,77,13,10000,14.816,,,200,,,,,,,,,,,wg-a,,,,AAXX 24124 07207 12660 72008 10170 20130 30083 40134 58003 60006 875// 91200=
07207,1996-09-24 18:00:00,16,1012.1,-0,82,13,18000,18.52,,,280,12.1,17.8,,,,,,,,2,wg-a,,,,AAXX 24184 07207 32468 72810 10160 20130 30070 40121 55000 70282 8753/ 91800 333 10178 20121=
07207,1996-09-25 00:00:00,14,1009.2,-1.6,94,13,12000,3.704,,53.708,230,,,,3,,,,,,25,wg-a,,,,AAXX 25004 07207 02462 82302 10140 20130 30041 40092 58016 60036 72522 8850/ 90000 333 60037 91029=
07207,1996-09-25 06:00:00,14,1007.8,-0.3,94,13,8000,25.928,,50.004,240,13.4,15.8,,2,,,,,,81,wg-a,,,,AAXX 25064 07207 12458 72414 10140 20130 30027 40078 55003 60027 78182 87900 90600 333 10158 20134 91027=
07207,1996-09-25 12:00:00,17,1011.5,2.5,77,13,500,22.224,,,310,,,,,,,,,,2,wg-a,,,,AAXX 25124 07207 12500 23112 10170 20130 30064 40115 51025 60036 70282 82230 91200=
07207,1996-09-25 18:00:00,15,1015.3,2.4,88,13,20000,22.224,,,310,13.3,17.7,,,,,,,,,wg-a,,,,AAXX 25184 07207 32570 43112 10150 20130 30102 40153 53024 81204 91800 333 10177 20133=
07207,1996-09-26 00:00:00,15,1018.3,0.9,94,14,10000,11.112,,,290,,,,,,,,,,,wg-a,,,,AAXX 26004 07207 12560 72906 10150 20140 30132 40183 51009 60006 8135/ 90000=
07207,1996-09-26 06:00:00,16,1018,-0.4,88,14,20000,18.52,,,230,14.6,15.7,,,,,,,,,wg-a,,,,AAXX 26064 07207 12570 22310 10160 20140 30129 40180 55004 60006 82200 90600 333 10157 20146=
07207,1996-09-26 12:00:00,16,1017.2,-0.6,94,15,8000,29.632,,,210,,,,3,,,,,,63,wg-a,,,,AAXX 26124 07207 02458 82116 10160 20150 30121 40172 56006 60036 76361 887// 91200 333 60037=
07207,1996-09-26 18:00:00,17,1013.3,-1.9,100,17,500,25.928,,,230,14.5,17.2,,8,,,,,,65,wg-a,,,,AAXX 26184 07207 12405 82314 10170 20170 30082 40133 56019 60087 76562 887// 91800 333 10172 20145=
07207,1996-09-27 00:00:00,16,1015,0.9,100,16,10000,25.928,,,270,,,,,,,,,,2,wg-a,,,,AAXX 27004 07207 12560 72714 10160 20160 30099 40150 51009 60026 70262 877// 90000=
07207,1996-09-27 06:00:00,16,1015.9,0.6,94,15,10000,29.632,,,270,15.8,17,,,,,,,,,wg-a,,,,AAXX 27064 07207 32660 72716 10160 20150 30108 40159 53006 875// 90600 333 10170 20158=
07207,1996-09-27 12:00:00,17,1019.2,1.5,88,15,15000,31.484,,57.412,290,,,,,,,,,,3,wg-a,,,,AAXX 27124 07207 12665 62917 10170 20150 30141 40192 53015 60016 70381 86300 91200 333 91031=
07207,1996-09-27 18:00:00,15,1023.4,2.2,88,13,18000,22.224,,53.708,290,15,17.5,,,,,,,,,wg-a,,,,AAXX 27184 07207 32568 32912 10150 20130 30182 40234 53022 83101 91800 333 10175 20150 91029=
07207,1996-09-28 00:00:00,15,1025.7,0.7,88,13,12000,14.816,,,280,,,,,,,,,,,wg-a,,,,AAXX 28004 07207 12562 52808 10150 20130 30205 40257 51007 60006 84204 90000=
07207,1996-09-28 06:00:00,14,1026.2,-0.2,94,13,10000,0,,,0,13.3,15.4,,,,,,,,,wg-a,,,,AAXX 28064 07207 12560 60000 10140 20130 30210 40262 58002 60006 8423/ 90600 333 10154 20133=
07207,1996-09-28 12:00:00,17,1027.3,-0.5,77,13,25000,14.816,,,190,,,,,,,,,,,wg-a,,,,AAXX 28124 07207 12575 61908 10170 20130 30221 40273 58005 60006 81204 91200=
07207,1996-09-28 18:00:00,16,1025.8,-0.9,82,13,25000,14.816,,,220,13.4,18.1,,,,,,,,,wg-a,,,,AAXX 28184 07207 12575 62208 10160 20130 30206 40258 58009 60006 82231 91800 333 10181 20134=
07207,1996-09-29 00:00:00,16,1025.3,-0.8,88,14,15000,25.928,,,240,,,,,,,,,,,wg-a,,,,AAXX 29004 07207 12565 52414 10160 20140 30201 40253 56008 60006 83201 90000=
07207,1996-09-29 06:00:00,16,1023.8,0.1,94,15,12000,22.224,,,250,15.3,16.1,,,,,,,,,wg-a,,,,AAXX 29064 07207 12562 32512 10160 20150 30187 40238 53001 60006 83200 90600 333 10161 20153=
07207,1996-09-29 12:00:00,17,1024.7,-0.2,94,16,20000,22.224,,,240,,,,,,,,,,,wg-a,,,,AAXX 29124 07207 12570 62412 10170 20160 30196 40247 58002 60006 81250 91200=
07207,1996-09-29 18:00:00,16,1022.6,-0.6,100,16,15000,31.484,,,260,15.9,17.5,,,,,,,,,wg-a,,,,AAXX 29184 07207 12765 82617 10160 20160 30175 40226 56006 60006 885// 91800 333 10175 20159=
07207,1996-09-30 00:00:00,16,1020.5,-1.5,100,16,10000,22.224,,,240,,,,,,,,,,,wg-a,,,,AAXX 30004 07207 12760 82412 10160 20160 30154 40205 57015 60006 885// 90000=
07207,1996-09-30 06:00:00,16,1016.4,-1.8,100,16,500,29.632,,,220,16,16.5,,0,,,,,,50,wg-a,,,,AAXX 30064 07207 12400 82216 10160 20160 30113 40164 58018 60007 75052 887// 90600 333 10165 20160=
07207,1996-09-30 12:00:00,17,1012,-2.7,100,17,10000,35.188,,,220,,,,,,,,,,20,wg-a,,,,AAXX 30124 07207 02460 82219 10170 20170 30069 40120 58027 60016 72052 886// 91200 333 61000=
07207,1996-09-30 18:00:00,14,1007.8,-0.9,100,14,8000,18.52,,,30,13.8,17.2,,2,,,,,,21,wg-a,,,,AAXX 30184 07207 12458 80310 10140 20140 30027 40078 58009 60027 72152 887// 91800 333 10172 20138=
07207,1996-10-01 00:00:00,12,1008.2,-0.4,94,11,10000,22.224,,,30,,,,1,,,,,,61,wg-a,,,,AAXX 01004 07207 02460 80312 10120 20110 30030 40082 57004 60016 76162 887// 90000 333 60017=
07207,1996-10-01 06:00:00,12,1010.7,1.7,94,11,15000,22.224,,,350,11.5,14,,1,,,,,,21,wg-a,,,,AAXX 01064 07207 12565 53512 10120 20110 30055 40107 53017 60017 72162 82130 90600 333 10140 20115=
07207,1996-10-01 12:00:00,16,1015.2,2,72,11,25000,18.52,,,310,,,,,,,,,,,wg-a,,,,AAXX 01124 07207 12575 53110 10160 20110 30101 40152 51020 60006 83203 91200=
07207,1996-10-01 18:00:00,14,1016.7,1,77,10,20000,29.632,,53.708,290,11.7,16.5,,,,,,,,,wg-a,,,,AAXX 01184 07207 12570 52916 10140 20100 30116 40167 53010 60006 85360 91800 333 10165 20117 91029=
07207,1996-10-02 00:00:00,14,1012.2,-4.3,100,14,8000,53.708,,79.636,260,,,,6,,,,,,81,wg-a,,,,AAXX 02004 07207 02358 82629 10140 20140 30071 40122 58043 60066 78182 88700 90000 333 60067 91043=
07207,1996-10-02 06:00:00,14,1014.3,1.7,82,11,15000,31.484,,79.636,340,12.8,15,,,,,,,,2,wg-a,,,,AAXX 02064 07207 32565 53417 10140 20110 30091 40143 51017 70282 85700 90600 333 10150 20128 91043=
07207,1996-10-02 12:00:00,16,1020,2.6,77,12,25000,31.484,,57.412,330,,,,,,,,,,,wg-a,,,,AAXX 02124 07207 12575 43317 10160 20120 30149 40200 51026 60006 84200 91200 333 91031=
07207,1996-10-02 18:00:00,15,1024.6,2.2,88,13,20000,7.408,,,230,13.2,18.7,,,,,,,,,wg-a,,,,AAXX 02184 07207 12570 32304 10150 20130 30194 40246 52022 60006 83200 91800 333 10187 20132=
07207,1996-10-03 00:00:00,12,1027.7,0.8,94,11,12000,18.52,,,80,,,,,,,,,,,wg-a,,,,AAXX 03004 07207 12/62 00810 10120 20110 30225 40277 50008 60006 80000 90000=
07207,1996-10-03 06:00:00,15,1027.5,0.1,94,14,20000,11.112,,,250,12.1,15.1,,,,,,,,,wg-a,,,,AAXX 03064 07207 12570 32506 10150 20140 30223 40275 53001 60006 82230 90600 333 10151 20121=
07207,1996-10-03 12:00:00,16,1028.4,-0.7,77,12,25000,18.52,,,250,,,,,,,,,,,wg-a,,,,AAXX 03124 07207 12575 52510 10160 20120 30232 40284 56007 60006 85201 91200=
07207,1996-10-03 18:00:00,16,1026.6,-0.2,72,11,15000,25.928,,,280,13.3,16.9,,,,,,,,,wg-a,,,,AAXX 03184 07207 12665 82814 10160 20110 30214 40266 56002 60006 88500 91800 333 10169 20133=
07207,1996-10-04 00:00:00,16,1024.5,-1.2,88,14,0,31.484,,,260,,,,,,,,,,,wg-a,,,,AAXX 04004 07207 12/// /2617 10160 20140 30193 40245 58012 60006 90000=
07207,1996-10-04 06:00:00,13,1024.2,1.3,94,12,15000,14.816,,61.116,340,11.8,15.8,,1,,,,,,1,wg-a,,,,AAXX 04064 07207 12465 53408 10130 20120 30190 40242 51013 60017 70162 85700 90600 333 10158 20118 91033=
07207,1996-10-04 12:00:00,16,1024.3,-0.8,68,10,25000,22.224,,,290,,,,,,,,,,,wg-a,,,,AAXX 04124 07207 12575 32912 10160 20100 30191 40243 58008 60006 83230 91200=
07207,1996-10-04 18:00:00,13,1022,-1,82,10,15000,25.928,,,330,11.9,16.3,,,,,,,,,wg-a,,,,AAXX 04184 07207 12565 73314 10130 20100 30168 40220 56010 60006 87230 91800 333 10163 20119=
07207,1996-10-05 00:00:00,13,1020,-1.2,82,10,12000,31.484,,61.116,310,,,,0,,,,,,2,wg-a,,,,AAXX 05004 07207 02562 33117 10130 20100 30148 40200 58012 60006 70262 8324/ 90000 333 60007 91033=
07207,1996-10-05 06:00:00,12,1020.6,0.7,76,8,20000,31.484,,,340,12.1,14.5,,,,,,,,,wg-a,,,,AAXX 05064 07207 32570 33417 10120 20080 30154 40206 53007 8320/ 90600 333 10145 20121=
07207,1996-10-05 12:00:00,15,1022.4,0.1,67,9,25000,25.928,,53.708,330,,,,,,,,,,,wg-a,,,,AAXX 05124 07207 12575 53314 10150 20090 30172 40224 53001 60006 83230 91200 333 91029=
07207,1996-10-05 18:00:00,12,1024.1,1.7,76,8,15000,31.484,,53.708,20,12.2,15.6,,,,,,,,,wg-a,,,,AAXX 05184 07207 12565 60217 10120 20080 30189 40241 53017 60006 84330 91800 333 10156 20122 91029=
07207,1996-10-06 00:00:00,11,1025.9,0.4,82,8,0,18.52,,,10,,,,,,,,,,,wg-a,,,,AAXX 06004 07207 12/// /0110 10110 20080 30206 40259 51004 60006 90000=
07207,1996-10-06 06:00:00,12,1025.8,0.3,88,10,20000,18.52,,,20,10.5,12.3,,,,,,,,,wg-a,,,,AAXX 06064 07207 12/70 70210 10120 20100 30206 40258 53003 60006 8705/ 90600 333 10123 20105=
07207,1996-10-06 12:00:00,13,1026.8,0,82,10,0,18.52,,,30,,,,,,,,,,,wg-a,,,,AAXX 06124 07207 12/// /0310 10130 20100 30216 40268 50000 60006 91200=
07207,1996-10-06 18:00:00,12,1025.9,-0.2,94,11,15000,7.408,,,10,11.4,13.3,,1,,,,,,2,wg-a,,,,AAXX 06184 07207 12565 80104 10120 20110 30207 40259 55002 60017 70262 8117/ 91800 333 10133 20114=
07207,1996-10-07 00:00:00,12,1025.7,-0.5,100,12,10000,3.704,,,330,,,,1,,,,,,2,wg-a,,,,AAXX 07004 07207 02560 83302 10120 20120 30205 40257 58005 60026 70262 8117/ 90000 333 60017=
07207,1996-10-07 06:00:00,12,1024,-0.1,100,12,0,3.704,,,30,11.4,12.3,,,,,,,,,wg-a,,,,AAXX 07064 07207 32/// /0302 10120 20120 30188 40240 57001 90600 333 10123 20114=
07207,1996-10-07 12:00:00,14,1024.3,-0.3,94,13,18000,7.408,,,360,,,,3,,,,,,1,wg-a,,,,AAXX 07124 07207 02468 83604 10140 20130 30191 40243 58003 60046 70162 8123/ 91200 333 60037=
07207,1996-10-07 18:00:00,14,1023.4,0.2,94,13,15000,14.816,,,330,12.1,14.4,,,,,,,,2,wg-a,,,,AAXX 07184 07207 32565 83308 10140 20130 30182 40234 53002 70262 8122/ 91800 333 10144 20121=
07207,1996-10-08 00:00:00,14,1023.8,-0.2,94,13,15000,11.112,,,350,,,,,,,,,,,wg-a,,,,AAXX 08004 07207 12565 83506 10140 20130 30186 40238 58002 60006 8122/ 90000=
07207,1996-10-08 06:00:00,13,1023.7,0.6,94,12,18000,11.112,,,340,12.4,14.2,,,,,,,,,wg-a,,,,AAXX 08064 07207 12568 83406 10130 20120 30185 40237 53006 60006 888// 90600 333 10142 20124=
07207,1996-10-08 12:00:00,15,1024.4,-0.1,88,13,25000,11.112,,,320,,,,,,,,,,,wg-a,,,,AAXX 08124 07207 12575 73206 10150 20130 30192 40244 55001 60006 872// 91200=
07207,1996-10-08 18:00:00,14,1023.7,-0,94,13,25000,11.112,,,310,12.7,15.3,,,,,,,,,wg-a,,,,AAXX 08184 07207 12575 73106 10140 20130 30185 40237 55000 60006 873// 91800 333 10153 20127=
07207,1996-10-09 00:00:00,15,1023.4,-0.6,88,13,15000,7.408,,,280,,,,,,,,,,,wg-a,,,,AAXX 09004 07207 12665 82804 10150 20130 30182 40234 58006 60006 885// 90000=
07207,1996-10-09 06:00:00,13,1022.7,0.1,100,13,10000,7.408,,,10,13.3,14.6,,0,,,,,,2,wg-a,,,,AAXX 09064 07207 12460 80104 10130 20130 30175 40227 53001 60007 70262 887// 90600 333 10146 20133=
07207,1996-10-09 12:00:00,15,1024.2,0.3,72,10,20000,22.224,,,350,,,,,,,,,,2,wg-a,,,,AAXX 09124 07207 12570 73512 10150 20100 30190 40242 51003 60016 70262 875// 91200=
07207,1996-10-09 18:00:00,12,1024.7,1.1,76,8,20000,14.816,,,20,11.9,16.2,,,,,,,,,wg-a,,,,AAXX 09184 07207 32570 50208 10120 20080 30195 40247 53011 82230 91800 333 10162 20119=
07207,1996-10-10 00:00:00,12,1026,-0.3,88,10,15000,14.816,,,10,,,,,,,,,,,wg-a,,,,AAXX 10004 07207 12665 50108 10120 20100 30208 40260 57003 60006 85500 90000=
07207,1996-10-10 06:00:00,12,1025.6,0.2,100,12,0,7.408,,,30,9.6,12.5,,,,,,,,,wg-a,,,,AAXX 10064 07207 12/// /0304 10120 20120 30204 40256 53002 60006 90600 333 10125 20096=
07207,1996-10-10 12:00:00,17,1026,-0.5,68,11,500,14.816,,,50,,,,,,,,,,,wg-a,,,,AAXX 10124 07207 12500 60508 10170 20110 30208 40260 58005 60006 81250 91200=
07207,1996-10-10 18:00:00,13,1024.8,-0.2,88,11,20000,11.112,,,350,12.1,17.3,,,,,,,,,wg-a,,,,AAXX 10184 07207 12570 43506 10130 20110 30196 40248 56002 60006 81231 91800 333 10173 20121=
07207,1996-10-11 00:00:00,12,1023.6,-1.5,94,11,12000,14.816,,,70,,,,,,,,,,,wg-a,,,,AAXX 11004 07207 12/62 00708 10120 20110 30184 40236 56015 60006 80000 90000=
07207,1996-10-11 06:00:00,12,1021.6,-0.4,94,11,10000,7.408,,,110,10.9,13.2,,,,,,,,,wg-a,,,,AAXX 11064 07207 32/60 21104 10120 20110 30164 40216 57004 80001 90600 333 10132 20109=
07207,1996-10-11 12:00:00,14,1020.4,-0.9,88,12,10000,11.112,,,150,,,,,,,,,,,wg-a,,,,AAXX 11124 07207 12560 61506 10140 20120 30152 40204 58009 60006 86201 91200=
07207,1996-10-11 18:00:00,13,1017.2,-1.2,88,11,12000,14.816,,,170,12,14.9,,,,,,,,,wg-a,,,,AAXX 11184 07207 12562 51708 10130 20110 30120 40172 57012 60006 85230 91800 333 10149 20120=
07207,1996-10-12 06:00:00,15,1011.3,-1.4,88,13,25000,22.224,,,180,12.2,14.6,,,,,,,,,wg-a,,,,AAXX 12064 07207 12475 61812 10150 20130 30062 40113 56014 60006 86700 90600 333 10146 20122=
07207,1996-10-12 12:00:00,17,1009.7,-1.2,82,14,25000,25.928,,,170,,,,,,,,,,,wg-a,,,,AAXX 12124 07207 12675 71714 10170 20140 30046 40097 58012 60006 875// 91200=
07207,1996-10-12 18:00:00,16,1006.1,-1.9,94,15,8000,35.188,,,150,14.6,17.2,,,,,,,,,wg-a,,,,AAXX 12184 07207 12558 71519 10160 20150 30010 40061 56019 60006 878// 91800 333 10172 20146=
07207,1996-10-13 00:00:00,16,1002.8,-2.5,94,15,10000,38.892,,,160,,,,,,,,,,,wg-a,,,,AAXX 13004 07207 12/60 01621 10160 20150 39978 40028 56025 60006 80000 90000=
07207,1996-10-13 06:00:00,16,998.8,-1.3,94,15,7000,50.004,,72.228,160,15.4,16.3,,,,,,,,,wg-a,,,,AAXX 13064 07207 32857 21627 10160 20150 39938 49988 56013 82030 90600 333 10163 20154 91039=
07207,1996-10-13 12:00:00,17,998.1,-0.3,88,15,6000,53.708,,,160,,,,,,,,,,,wg-a,,,,AAXX 13124 07207 12/56 41629 10170 20150 39931 49981 57003 60006 80002 91200=
07207,1996-10-13 18:00:00,17,998,0.1,82,14,7000,42.596,,,160,16,17.6,,,,,,,,,wg-a,,,,AAXX 13184 07207 12857 71623 10170 20140 39930 49980 53001 60006 8707/ 91800 333 10176 20160=
07207,1996-10-14 00:00:00,17,998.4,0.2,88,15,6000,42.596,,,160,,,,0,,,,,,2,wg-a,,,,AAXX 14004 07207 02/56 81623 10170 20150 39934 49984 50002 60016 70262 8802/ 90000 333 60007=
07207,1996-10-14 06:00:00,16,998.6,0.9,94,15,7000,35.188,,,160,16.1,17.5,,,,,,,,,wg-a,,,,AAXX 14064 07207 32457 81619 10160 20150 39936 49986 53009 887// 90600 333 10175 20161=
07207,1996-10-14 12:00:00,15,1001.7,0.5,94,14,7000,22.224,,,230,,,,1,,,,,,81,wg-a,,,,AAXX 14124 07207 02457 62312 10150 20140 39966 40017 51005 60016 78182 86730 91200 333 60017=
07207,1996-10-14 18:00:00,15,1004.2,2,88,13,15000,22.224,,,300,14.5,17,,0,,,,,,2,wg-a,,,,AAXX 14184 07207 12465 73012 10150 20130 39991 40042 53020 60007 70262 877// 91800 333 10170 20145=
07207,1996-10-15 00:00:00,14,1007.5,1.3,82,11,10000,31.484,,50.004,280,,,,,,,,,,2,wg-a,,,,AAXX 15004 07207 12560 22817 10140 20110 30024 40075 51013 60016 70262 82200 90000 333 91027=
07207,1996-10-15 06:00:00,15,1009.5,1,72,10,0,29.632,,,270,13.3,14.6,,,,,,,,,wg-a,,,,AAXX 15064 07207 32/// /2716 10150 20100 30044 40095 51010 90600 333 10146 20133=
07207,1996-10-15 12:00:00,15,1012.5,1.7,63,8,25000,25.928,,72.228,300,,,,,,,,,,25,wg-a,,,,AAXX 15124 07207 02575 53014 10150 20080 30074 40125 51017 60016 72581 851// 91200 333 61000 91039=
07207,1996-10-15 18:00:00,14,1014.5,0.8,67,8,15000,31.484,,,280,12.6,15.4,,,,,,,,,wg-a,,,,AAXX 15184 07207 32565 52817 10140 20080 30093 40145 53008 85300 91800 333 10154 20126=
07207,1996-10-16 00:00:00,13,1013.9,-0.7,77,9,0,22.224,,,260,,,,0,,,,,,,wg-a,,,,AAXX 16004 07207 02/// /2612 10130 20090 30087 40139 58007 60016 90000 333 60007=
07207,1996-10-16 06:00:00,11,1012,-0.3,94,10,8000,31.484,,61.116,280,11.4,14,,3,,,,,,81,wg-a,,,,AAXX 16064 07207 12458 72817 10110 20100 30068 40120 55003 60037 78111 877// 90600 333 10140 20114 91033=
07207,1996-10-16 12:00:00,15,1011.4,-0.4,67,9,25000,22.224,,,260,,,,,,,,,,2,wg-a,,,,AAXX 16124 07207 12575 52612 10150 20090 30063 40114 57004 60016 70282 84230 91200=
07207,1996-10-16 18:00:00,14,1009.7,-0.5,72,9,18000,29.632,,50.004,260,11.4,15.4,,,,,,,,,wg-a,,,,AAXX 16184 07207 32468 72616 10140 20090 30046 40097 56005 85730 91800 333 10154 20114 91027=
07207,1996-10-17 00:00:00,12,1009.6,0.4,76,8,12000,22.224,,,300,,,,2,,,,,,1,wg-a,,,,AAXX 17004 07207 02562 33012 10120 20080 30044 40096 51004 60036 70192 83200 90000 333 60027=
07207,1996-10-17 06:00:00,12,1010.2,0.5,76,8,20000,18.52,,,290,9.2,13.8,,0,,,,,,,wg-a,,,,AAXX 17064 07207 12570 42910 10120 20080 30050 40102 51005 60007 84200 90600 333 10138 20092=
07207,1996-10-17 12:00:00,15,1011.6,0.3,72,10,25000,11.112,,,280,,,,,,,,,,,wg-a,,,,AAXX 17124 07207 12575 42806 10150 20100 30065 40116 50003 60006 84200 91200=
07207,1996-10-17 18:00:00,13,1011.8,0.2,62,6,18000,14.816,,,220,11.5,15.8,,,,,,,,,wg-a,,,,AAXX 17184 07207 12568 42208 10130 20060 30066 40118 53002 60006 84230 91800 333 10158 20115=
07207,1996-10-18 00:00:00,14,1010.3,-1.1,88,12,15000,35.188,,,180,,,,,,,,,,,wg-a,,,,AAXX 18004 07207 12565 41819 10140 20120 30052 40103 58011 60006 84230 90000=
07207,1996-10-18 06:00:00,15,1007.9,-1,100,15,15000,25.928,,61.116,270,13.2,15.4,,1,,,,,,3,wg-a,,,,AAXX 18064 07207 12465 72714 10150 20150 30028 40079 55010 60017 70361 877// 90600 333 10154 20132 91033=
07207,1996-10-18 12:00:00,16,1012.3,1.3,82,13,15000,25.928,,,270,,,,,,,,,,2,wg-a,,,,AAXX 18124 07207 12565 32714 10160 20130 30072 40123 51013 60006 70261 83205 91200=
07207,1996-10-18 18:00:00,16,1013.6,1.2,94,15,10000,38.892,,,260,15,16.4,,,,,,,,2,wg-a,,,,AAXX 18184 07207 12660 82621 10160 20150 30085 40136 52012 60006 70262 88500 91800 333 10164 20150=
07207,1996-10-19 00:00:00,15,1017.9,2.4,82,12,10000,35.188,,,290,,,,,,,,,,,wg-a,,,,AAXX 19004 07207 12560 52919 10150 20120 30128 40179 51024 60006 85230 90000=
07207,1996-10-19 06:00:00,15,1021.8,2,82,12,10000,25.928,,53.708,290,14.6,15.9,,,,,,,,,wg-a,,,,AAXX 19064 07207 12/60 42914 10150 20120 30166 40218 52020 60006 84030 90600 333 10159 20146 91029=
07207,1996-10-19 12:00:00,17,1026.3,1.4,82,14,15000,18.52,,,280,,,,,,,,,,,wg-a,,,,AAXX 19124 07207 12665 22810 10170 20140 30212 40263 51014 60006 82230 91200=
07207,1996-10-19 18:00:00,15,1027.5,0.6,94,14,12000,18.52,,,220,14.7,17.2,,,,,,,,,wg-a,,,,AAXX 19184 07207 12662 52210 10150 20140 30223 40275 53006 60006 81150 91800 333 10172 20147=
07207,1996-10-20 00:00:00,15,1027.4,-0.5,94,14,12000,22.224,,,220,,,,,,,,,,2,wg-a,,,,AAXX 20004 07207 12562 52212 10150 20140 30222 40274 58005 60006 70262 85100 90000=
07207,1996-10-20 06:00:00,15,1025.2,-0.5,94,14,10000,18.52,,,210,14.7,15,,,,,,,,,wg-a,,,,AAXX 20064 07207 12/60 32110 10150 20140 30200 40252 55005 60006 83040 90600 333 10150 20147=
07207,1996-10-20 12:00:00,16,1024,-0.7,94,15,10000,29.632,,,220,,,,,,,,,,,wg-a,,,,AAXX 20124 07207 12860 82216 10160 20150 30189 40240 56007 60006 8807/ 91200=
07207,1996-10-20 18:00:00,16,1022.5,-0.1,100,16,500,31.484,,,240,14.7,16.1,,,,,,,,20,wg-a,,,,AAXX 20184 07207 02800 82417 10160 20160 30174 40225 55001 61000 72052 8807/ 91800 333 10161 20147 ////=
07207,1996-10-21 00:00:00,16,1022.5,-0.1,100,16,400,31.484,,,260,,,,0,,,,,,52,wg-a,,,,AAXX 21004 07207 02304 82617 10160 20160 30174 40225 57001 60016 75252 887// 90000 333 60007=
07207,1996-10-21 06:00:00,15,1023.6,1,100,15,200,14.816,,,310,15.3,16.5,,0,,,,,,47,wg-a,,,,AAXX 21064 07207 12/02 93108 10150 20150 30184 40236 52010 60007 74754 89/// 90600 333 10165 20153=
07207,1996-10-21 12:00:00,17,1025.1,0.3,100,17,25000,11.112,,,240,,,,,,,,,,,wg-a,,,,AAXX 21124 07207 12575 72406 10170 20170 30200 40251 50003 60006 828// 91200=
07207,1996-10-21 18:00:00,15,1024.9,0.4,100,15,20000,3.704,,,180,15.1,17.5,,,,,,,,,wg-a,,,,AAXX 21184 07207 12670 71802 10150 20150 30197 40249 53004 60006 8/500 91800 333 10175 20151=
07207,1996-10-22 00:00:00,15,1024.3,-0.6,100,15,200,7.408,,,120,,,,,,,,,,,wg-a,,,,AAXX 22004 07207 12202 81204 10150 20150 30191 40243 58006 60006 886// 90000=
07207,1996-10-22 06:00:00,15,1023.4,0.2,100,15,4000,11.112,,,140,14.7,15.4,,0,,,,,,53,wg-a,,,,AAXX 22064 07207 12340 81406 10150 20150 30182 40234 53002 60007 75352 887// 90600 333 10154 20147=
07207,1996-10-22 12:00:00,14,1022.6,-1.2,100,14,200,14.816,,,120,,,,,,,,,,47,wg-a,,,,AAXX 22124 07207 12/02 91208 10140 20140 30174 40226 58012 60006 74754 89/// 91200=
07207,1996-10-22 18:00:00,14,1020.6,-0,100,14,3000,7.408,,,110,13.6,15.2,,,,,,,,28,wg-a,,,,AAXX 22184 07207 32430 51104 10140 20140 30154 40206 55000 72811 85600 91800 333 10152 20136=
07207,1996-10-23 00:00:00,15,1018.8,-0.9,88,13,15000,18.52,,,110,,,,,,,,,,,wg-a,,,,AAXX 23004 07207 12/65 01110 10150 20130 30137 40188 58009 60006 80000 90000=
07207,1996-10-23 06:00:00,13,1017.5,-0.1,94,12,15000,22.224,,,100,12.9,16.2,,,,,,,,,wg-a,,,,AAXX 23064 07207 12/65 01012 10130 20120 30123 40175 55001 60006 80000 90600 333 10162 20129=
07207,1996-10-23 12:00:00,17,1,,77,13,15000,11.112,,,100,,,,,,,,,,,wg-a,,,,AAXX 23124 07207 12/65 21006 10170 20130 60006 82030 91200=
07207,1996-10-23 18:00:00,15,1017.9,1.4,94,14,10000,3.704,,,130,12.2,17,,,,,,,,,wg-a,,,,AAXX 23184 07207 12/60 31302 10150 20140 30128 40179 51014 60006 80004 91800 333 10170 20122=
07207,1996-10-24 00:00:00,15,1017.8,0.4,100,15,8000,7.408,,,160,,,,,,,,,,,wg-a,,,,AAXX 24004 07207 12/58 71604 10150 20150 30127 40178 53004 60006 8701/ 90000=
07207,1996-10-24 06:00:00,15,1017.3,-0.4,100,15,10000,14.816,,,120,14.3,15.3,,0,,,,,,,wg-a,,,,AAXX 24064 07207 12/60 71208 10150 20150 30122 40173 56004 60007 8707/ 90600 333 10153 20143=
07207,1996-10-24 12:00:00,16,1016.7,-0.7,100,16,4000,18.52,,,190,,,,,,,,,,,wg-a,,,,AAXX 24124 07207 12/40 81910 10160 20160 30116 40167 55007 60006 8807/ 91200=
07207,1996-10-24 18:00:00,15,1015.2,-0.6,100,15,4000,18.52,,,120,15.1,16.3,,0,,,,,,20,wg-a,,,,AAXX 24184 07207 12/40 71210 10150 20150 30101 40152 58006 60007 72052 8707/ 91800 333 10163 20151=
07207,1996-10-25 00:00:00,16,1016.6,0.5,94,15,8000,22.224,,,240,,,,1,,,,,,3,wg-a,,,,AAXX 25004 07207 02/58 72412 10160 20150 30115 40166 51005 60026 70362 8707/ 90000 333 60017=
07207,1996-10-25 06:00:00,15,1018.3,1.1,88,13,15000,29.632,,,240,14.4,16,,1,,,,,,,wg-a,,,,AAXX 25064 07207 12765 72416 10150 20130 30132 40183 53011 60017 875// 90600 333 10160 20144=
07207,1996-10-25 12:00:00,16,1021.5,1.2,72,11,500,29.632,,57.412,250,,,,,,,,,,,wg-a,,,,AAXX 25124 07207 12600 22516 10160 20110 30164 40215 52012 60006 82200 91200 333 91031=
07207,1996-10-25 18:00:00,15,1022.5,0.7,82,12,18000,35.188,,64.82,240,14,15.9,,,,,,,,,wg-a,,,,AAXX 25184 07207 12568 52419 10150 20120 30173 40225 53007 60006 82234 91800 333 10159 20140 91035=
07207,1996-10-26 00:00:00,14,1023.2,0.7,88,12,12000,31.484,,72.228,260,,,,3,,,,,,21,wg-a,,,,AAXX 26004 07207 02/62 52617 10140 20120 30180 40232 51007 60036 72162 8503/ 90000 333 60037 91039=
07207,1996-10-26 06:00:00,14,1024.9,1.1,88,12,15000,18.52,,,280,13.6,15.6,,,,,,,,,wg-a,,,,AAXX 26064 07207 32565 52810 10140 20120 30197 40249 53011 83230 90600 333 10156 20136=
07207,1996-10-26 12:00:00,15,1026.3,-0.1,82,12,25000,14.816,,,230,,,,,,,,,,,wg-a,,,,AAXX 26124 07207 12/75 72308 10150 20120 30211 40263 58001 60006 8707/ 91200=
07207,1996-10-26 18:00:00,15,1025.2,-0.4,94,14,18000,25.928,,,210,13.8,15.8,,,,,,,,,wg-a,,,,AAXX 26184 07207 12468 82114 10150 20140 30200 40252 58004 60006 8361/ 91800 333 10158 20138=
07207,1996-10-27 00:00:00,15,1023.4,-1,100,15,12000,29.632,,,220,,,,,,,,,,,wg-a,,,,AAXX 27004 07207 12/62 72216 10150 20150 30182 40234 58010 60006 8707/ 90000=
07207,1996-10-27 06:00:00,15,1021.4,-0.5,94,14,12000,29.632,,,230,15,15.3,,,,,,,,,wg-a,,,,AAXX 27064 07207 12662 82316 10150 20140 30162 40214 57005 60006 885// 90600 333 10153 20150=
07207,1996-10-27 12:00:00,16,1020.7,-0.7,88,14,25000,35.188,,,240,,,,,,,,,,,wg-a,,,,AAXX 27124 07207 12675 72419 10160 20140 30156 40207 58007 60006 875// 91200=
07207,1996-10-27 18:00:00,15,1018.3,-1,94,14,20000,29.632,,,230,15,16,,,,,,,,,wg-a,,,,AAXX 27184 07207 12670 62316 10150 20140 30132 40183 58010 60006 85231 91800 333 10160 20150=
07207,1996-10-28 00:00:00,15,1015.4,-2.2,88,13,12000,42.596,,,220,,,,,,,,,,,wg-a,,,,AAXX 28004 07207 12562 62223 10150 20130 30103 40154 58022 60006 84230 90000=
07207,1996-10-28 06:00:00,16,1011.6,-1.6,94,15,18000,38.892,,79.636,250,14.2,15.6,,0,,,,,,20,wg-a,,,,AAXX 28064 07207 12468 82521 10160 20150 30065 40116 55016 60007 72052 887// 90600 333 10156 20142 91043=
07207,1996-10-28 12:00:00,16,1011.5,-0.2,68,10,20000,42.596,,,270,,,,,,,,,,1,wg-a,,,,AAXX 28124 07207 02870 42723 10160 20100 30064 40115 58002 60016 70181 84050 91200 333 61000=
07207,1996-10-28 18:00:00,15,1010.4,-0.3,72,10,18000,53.708,,87.044,260,14.9,16.5,,,,,,,,,wg-a,,,,AAXX 28184 07207 32568 52629 10150 20100 30053 40104 56003 84231 91800 333 10165 20149 91047=
07207,1996-10-29 00:00:00,14,1011.9,1,72,9,10000,64.82,,94.452,280,,,,0,,,,,,,wg-a,,,,AAXX 29004 07207 02560 32835 10140 20090 30068 40119 53010 60016 83200 90000 333 60007 91051=
07207,1996-10-29 06:00:00,13,1016,3,77,9,15000,35.188,,94.452,310,12.7,15,,0,,,,,,,wg-a,,,,AAXX 29064 07207 12565 53119 10130 20090 30108 40160 52030 60007 85200 90600 333 10150 20127 91051=
07207,1996-10-29 12:00:00,14,1021.9,2.3,58,6,20000,35.188,,79.636,330,,,,,,,,,,,wg-a,,,,AAXX 29124 07207 12570 43319 10140 20060 30167 40219 51023 60006 84200 91200 333 91043=
07207,1996-10-29 18:00:00,11,1026.2,2.7,62,4,15000,22.224,,50.004,360,10.6,14.1,,,,,,,,,wg-a,,,,AAXX 29184 07207 12565 53612 10110 20040 30209 40262 53027 60006 85200 91800 333 10141 20106 91027=
07207,1996-10-30 00:00:00,11,1029.9,0.8,58,3,10000,14.816,,,350,,,,,,,,,,,wg-a,,,,AAXX 30004 07207 12560 73508 10110 20030 30246 40299 53008 60006 87200 90000=
07207,1996-10-30 06:00:00,9,1030.8,0.5,66,3,20000,7.408,,,360,8.6,11,,,,,,,,,wg-a,,,,AAXX 30064 07207 12570 63604 10090 20030 30255 40308 53005 60006 83230 90600 333 10110 20086=
07207,1996-10-30 12:00:00,14,1032,-0.1,51,4,25000,7.408,,,210,,,,,,,,,,,wg-a,,,,AAXX 30124 07207 12575 52104 10140 20040 30267 40320 58001 60006 85200 91200=
07207,1996-10-30 18:00:00,11,1030.6,0,66,5,18000,11.112,,,180,8.6,13.9,,,,,,,,,wg-a,,,,AAXX 30184 07207 12568 51806 10110 20050 30253 40306 50000 60006 83230 91800 333 10139 20086=
07207,1996-10-31 00:00:00,13,1027.8,-1.6,67,7,15000,29.632,,,230,,,,,,,,,,,wg-a,,,,AAXX 31004 07207 12565 82316 10130 20070 30226 40278 56016 60006 8/230 90000=
07207,1996-10-31 06:00:00,14,1024.7,-1.6,77,10,20000,35.188,,,220,11,13.9,,,,,,,,,wg-a,,,,AAXX 31064 07207 12570 62219 10140 20100 30195 40247 56016 60006 83230 90600 333 10139 20110=
07207,1996-10-31 12:00:00,15,1023.5,-0.9,94,14,7000,29.632,,61.116,240,,,,,,,,,,21,wg-a,,,,AAXX 31124 07207 02457 82416 10150 20140 30183 40235 58009 60016 72165 887// 91200 333 61000 91033=
07207,1996-10-31 18:00:00,15,1024,1.2,94,14,8000,38.892,,72.228,280,13.1,15.6,,1,,,,,,2,wg-a,,,,AAXX 31184 07207 12458 82821 10150 20140 30188 40240 53012 60017 70262 887// 91800 333 10156 20131 91039=
07207,1996-11-01 00:00:00,15,1026.8,1.4,94,14,6000,29.632,,61.116,280,,,,,,,,,,,wg-a,,,,AAXX 01004 07207 12456 82816 10150 20140 30216 40268 51014 60006 887// 90000 333 91033=
07207,1996-11-01 06:00:00,14,1029.5,1.8,100,14,10000,22.224,,53.708,290,13.6,15,,0,,,,,,,wg-a,,,,AAXX 01064 07207 12460 82912 10140 20140 30243 40295 51018 60007 887// 90600 333 10150 20136 91029=
07207,1996-11-01 12:00:00,15,1031.6,-0.2,88,13,20000,18.52,,,280,,,,,,,,,,,wg-a,,,,AAXX 01124 07207 12670 82810 10150 20130 30264 40316 58002 60006 885// 91200=
07207,1996-11-01 18:00:00,15,1031.8,0.5,94,14,0,14.816,,,260,13.8,15.4,,,,,,,,,wg-a,,,,AAXX 01184 07207 12/// /2608 10150 20140 30266 40318 53005 60006 91800 333 10154 20138=
07207,1996-11-02 00:00:00,15,1031.5,-0.5,94,14,15000,14.816,,,240,,,,,,,,,,,wg-a,,,,AAXX 02004 07207 12665 82408 10150 20140 30263 40315 57005 60006 885// 90000=
07207,1996-11-02 06:00:00,15,1030.6,-0.3,82,12,20000,22.224,,,260,14.4,15.1,,,,,,,,,wg-a,,,,AAXX 02064 07207 12470 82612 10150 20120 30254 40306 55003 60006 886// 90600 333 10151 20144=
07207,1996-11-02 12:00:00,15,1030.7,-0.3,88,13,25000,22.224,,,220,,,,,,,,,,,wg-a,,,,AAXX 02124 07207 12675 82212 10150 20130 30255 40307 58003 60006 885// 91200=
07207,1996-11-02 18:00:00,15,1029.7,-0.1,82,12,15000,25.928,,,220,14.7,15.1,,,,,,,,,wg-a,,,,AAXX 02184 07207 12665 82214 10150 20120 30245 40297 55001 60006 885// 91800 333 10151 20147=
07207,1996-11-03 00:00:00,14,1028.7,-0.6,88,12,12000,22.224,,,250,,,,,,,,,,,wg-a,,,,AAXX 03004 07207 12662 82512 10140 20120 30235 40287 56006 60006 885// 90000=
07207,1996-11-03 06:00:00,14,1025.8,-1.5,88,12,15000,29.632,,,240,14.1,14.7,,,,,,,,,wg-a,,,,AAXX 03064 07207 12865 42416 10140 20120 30206 40258 56015 60006 81031 90600 333 10147 20141=
07207,1996-11-03 12:00:00,15,1025.5,-1,94,14,10000,31.484,,50.004,240,,,,,,,,,,,wg-a,,,,AAXX 03124 07207 12660 82417 10150 20140 30203 40255 58010 60006 885// 91200 333 91027=
07207,1996-11-03 18:00:00,15,1022.6,-1.3,100,15,6000,31.484,,,240,14.2,15.5,,,,,,,,2,wg-a,,,,AAXX 03184 07207 12456 82417 10150 20150 30174 40226 56013 60006 70252 886// 91800 333 10155 20142=
07207,1996-11-04 00:00:00,15,1017.4,-3.2,100,15,6000,53.708,,,210,,,,,,,,,,2,wg-a,,,,AAXX 04004 07207 12456 82129 10150 20150 30123 40174 58032 60006 70252 887// 90000=
07207,1996-11-04 06:00:00,15,1,,100,15,500,53.708,,83.34,220,14.7,15.4,,1,,,,,,2,wg-a,,,,AAXX 04064 07207 12400 82229 10150 20150 60017 70252 887// 90600 333 10154 20147 91045=
07207,1996-11-04 12:00:00,15,1007.1,-2.3,100,15,8000,42.596,,83.34,240,,,,5,,,,,,64,wg-a,,,,AAXX 04124 07207 02458 82423 10150 20150 30020 40071 58023 60136 76462 887// 91200 333 60057 91045=
07207,1996-11-04 18:00:00,14,1006.1,-0.1,82,11,10000,42.596,,79.636,260,14.3,15.4,,,,,,,,2,wg-a,,,,AAXX 04184 07207 32560 62623 10140 20110 30010 40061 55001 70262 84730 91800 333 10154 20143 91043=
07207,1996-11-05 00:00:00,13,1010.3,2.2,82,10,0,50.004,,,280,,,,,,,,,,,wg-a,,,,AAXX 05004 07207 12/// /2827 10130 20100 30052 40103 51022 60016 90000=
07207,1996-11-05 06:00:00,13,1016,3.5,72,8,15000,35.188,,75.932,320,11.4,14.4,,,,,,,,,wg-a,,,,AAXX 05064 07207 32565 33219 10130 20080 30108 40160 51035 83200 90600 333 10144 20114 91041=
07207,1996-11-05 12:00:00,14,1022,1.9,67,8,20000,18.52,,64.82,300,,,,,,,,,,,wg-a,,,,AAXX 05124 07207 12570 23010 10140 20080 30168 40220 51019 60006 82204 91200 333 91035=
07207,1996-11-05 18:00:00,13,1022.8,0.6,77,9,20000,25.928,,,250,12,14.4,,,,,,,,,wg-a,,,,AAXX 05184 07207 12570 52514 10130 20090 30176 40228 53006 60006 85200 91800 333 10144 20120=
07207,1996-11-06 00:00:00,15,1020.3,-1.5,88,13,12000,38.892,,61.116,250,,,,,,,,,,,wg-a,,,,AAXX 06004 07207 12662 82521 10150 20130 30151 40203 58015 60006 885// 90000 333 91033=
07207,1996-11-06 06:00:00,15,1017.1,-1.6,100,15,15000,42.596,,68.524,240,13.3,15.3,,,,,,,,,wg-a,,,,AAXX 06064 07207 12565 82423 10150 20150 30120 40171 58016 60006 888// 90600 333 10153 20133 91037=
07207,1996-11-06 12:00:00,15,1016.4,-0.7,100,15,4000,46.3,,72.228,250,,,,1,,,,,,20,wg-a,,,,AAXX 06124 07207 02440 82525 10150 20150 30113 40164 58007 60016 72052 887// 91200 333 60017 91039=
07207,1996-11-06 18:00:00,13,1017.5,-0,100,13,10000,29.632,,72.228,250,11.8,15.6,,0,,,,,,20,wg-a,,,,AAXX 06184 07207 12460 82516 10130 20130 30123 40175 55000 60007 72052 887// 91800 333 10156 20118 91039=
07207,1996-11-07 00:00:00,14,1015.9,-1.1,94,13,8000,35.188,,64.82,270,,,,0,,,,,,20,wg-a,,,,AAXX 07004 07207 02458 82719 10140 20130 30107 40159 56011 60016 72052 887// 90000 333 60007 91035=
07207,1996-11-07 06:00:00,13,1014.4,0.1,94,12,8000,42.596,,64.82,280,11.6,14.1,,6,,,,,,21,wg-a,,,,AAXX 07064 07207 12458 82823 10130 20120 30092 40144 53001 60067 72162 887// 90600 333 10141 20116 91035=
07207,1996-11-07 12:00:00,14,1019,2,72,9,20000,50.004,,90.748,290,,,,,,,,,,21,wg-a,,,,AAXX 07124 07207 02570 52927 10140 20090 30138 40190 51020 60016 72162 84201 91200 333 61000 91049=
07207,1996-11-07 18:00:00,13,1022.9,2.1,77,9,15000,29.632,,68.524,290,11.2,14.5,,1,,,,,,25,wg-a,,,,AAXX 07184 07207 12565 42916 10130 20090 30177 40229 53021 60017 72582 84200 91800 333 10145 20112 91037=
07207,1996-11-08 00:00:00,13,1026,1.1,72,8,10000,29.632,,61.116,290,,,,0,,,,,,2,wg-a,,,,AAXX 08004 07207 02560 22916 10130 20080 30208 40260 51011 60006 70280 82200 90000 333 60007 91033=
07207,1996-11-08 06:00:00,12,1027.1,0.5,71,7,20000,25.928,,53.708,280,10.8,13.1,,,,,,,,,wg-a,,,,AAXX 08064 07207 32570 32814 10120 20070 30219 40271 51005 83200 90600 333 10131 20108 91029=
07207,1996-11-08 12:00:00,13,1029.3,0.6,72,8,500,29.632,,,270,,,,,,,,,,,wg-a,,,,AAXX 08124 07207 12500 42716 10130 20080 30241 40293 50006 60006 83230 91200=
07207,1996-11-08 18:00:00,13,1029.7,0.5,72,8,25000,18.52,,,270,12.3,14.4,,,,,,,,,wg-a,,,,AAXX 08184 07207 12575 32710 10130 20080 30245 40297 51005 60006 81204 91800 333 10144 20123=
07207,1996-11-09 00:00:00,13,1030.9,0.3,77,9,15000,22.224,,,280,,,,,,,,,,,wg-a,,,,AAXX 09004 07207 12565 22812 10130 20090 30256 40309 50003 60006 82200 90000=
07207,1996-11-09 06:00:00,12,1030.3,-0,82,9,20000,14.816,,,280,12.3,13.2,,,,,,,,,wg-a,,,,AAXX 09064 07207 12670 32808 10120 20090 30250 40303 54000 60006 82230 90600 333 10132 20123=
07207,1996-11-09 12:00:00,14,1029.4,-1.1,67,8,35000,11.112,,,250,,,,,,,,,,,wg-a,,,,AAXX 09124 07207 12681 52506 10140 20080 30242 40294 58011 60006 84204 91200=
07207,1996-11-09 18:00:00,13,1025.7,-1.6,72,8,25000,18.52,,,220,11.8,14.5,,,,,,,,,wg-a,,,,AAXX 09184 07207 12675 32210 10130 20080 30205 40257 58016 60006 83200 91800 333 10145 20118=
07207,1996-11-10 00:00:00,13,1020.3,-3.5,82,10,15000,29.632,,,230,,,,,,,,,,,wg-a,,,,AAXX 10004 07207 12665 72316 10130 20100 30151 40203 58035 60006 878// 90000=
07207,1996-11-10 06:00:00,10,1013.4,-2.9,93,9,10000,7.408,,61.116,290,9.4,13.6,,18,,,,,,63,wg-a,,,,AAXX 10064 07207 12660 82904 10100 20090 30082 40134 58029 60187 76362 885// 90600 333 10136 20094 91033=
07207,1996-11-10 12:00:00,11,1011.3,-1.1,82,8,500,18.52,,,360,,,,,,,,,,2,wg-a,,,,AAXX 10124 07207 12500 63610 10110 20080 30061 40113 58011 60016 70282 85230 91200=
07207,1996-11-10 18:00:00,9,1007.6,-1.6,76,5,20000,3.704,,,40,8.5,11.4,,,,,,,,,wg-a,,,,AAXX 10184 07207 32770 80402 10090 20050 30024 40076 58016 888// 91800 333 10114 20085=
07207,1996-11-11 00:00:00,11,1000.4,-3.9,76,7,15000,18.52,,,110,,,,,,,,,,,wg-a,,,,AAXX 11004 07207 12565 71110 10110 20070 39953 40004 56039 60006 878// 90000=
07207,1996-11-11 06:00:00,9,992.6,-3.3,87,7,15000,18.52,,57.412,120,7.2,10.6,,4,,,,,,21,wg-a,,,,AAXX 11064 07207 12665 81210 10090 20070 39875 49926 56033 60047 72186 885// 90600 333 10106 20072 91031=
07207,1996-11-11 12:00:00,9,989.2,-2,81,6,25000,38.892,,,70,,,,,,,,,,,wg-a,,,,AAXX 11124 07207 12575 80721 10090 20060 39841 49892 58020 60006 8682/ 91200=
07207,1996-11-11 18:00:00,7,990.3,1.1,93,6,0,35.188,,,40,7.2,9.3,,1,,,,,,,wg-a,,,,AAXX 11184 07207 12/// /0419 10070 20060 39852 49903 53011 60017 91800 333 10093 20072=
07207,1996-11-12 00:00:00,8,992.4,0.7,87,6,10000,29.632,,53.708,20,,,,,,,,,,,wg-a,,,,AAXX 12004 07207 02660 70216 10080 20060 39872 49924 50007 61000 875// 90000 333 //// 91029=
07207,1996-11-12 06:00:00,8,993.7,1,93,7,20000,22.224,,,20,7,8.3,,,,,,,,,wg-a,,,,AAXX 12064 07207 32670 70212 10080 20070 39886 49937 53010 875// 90600 333 10083 20070=
07207,1996-11-12 12:00:00,10,998.2,2.3,93,9,18000,18.52,,,50,,,,0,,,,,,,wg-a,,,,AAXX 12124 07207 02668 80510 10100 20090 39931 49982 53023 60006 885// 91200 333 60007=
07207,1996-11-12 18:00:00,10,1003.6,3.4,87,8,18000,35.188,,,30,8.3,12,,,,,,,,,wg-a,,,,AAXX 12184 07207 32668 80319 10100 20080 39984 40036 52034 885// 91800 333 10120 20083=
07207,1996-11-13 00:00:00,9,1009,2.8,87,7,12000,31.484,,61.116,20,,,,,,,,,,,wg-a,,,,AAXX 13004 07207 12562 30217 10090 20070 30038 40090 53028 60006 83200 90000 333 91033=
07207,1996-11-13 06:00:00,9,1013.1,2.3,81,6,12000,31.484,,61.116,30,8.5,10.2,,,,,,,,,wg-a,,,,AAXX 13064 07207 12/62 50317 10090 20060 30079 40131 51023 60006 85050 90600 333 10102 20085 91033=
07207,1996-11-13 12:00:00,10,1017.7,1.8,62,3,25000,29.632,,61.116,30,,,,,,,,,,,wg-a,,,,AAXX 13124 07207 12575 40316 10100 20030 30125 40177 51018 60006 84200 91200 333 91033=
07207,1996-11-13 18:00:00,8,1020.1,1.8,66,2,15000,22.224,,,40,7.4,11.1,,,,,,,,,wg-a,,,,AAXX 13184 07207 12/65 20412 10080 20020 30148 40201 53018 60006 82040 91800 333 10111 20074=
07207,1996-11-14 00:00:00,6,1022.4,0.7,87,4,15000,18.52,,,40,,,,,,,,,,,wg-a,,,,AAXX 14004 07207 12565 20410 10060 20040 30170 40224 53007 60006 82200 90000=
07207,1996-11-14 06:00:00,5,1022.5,0.3,93,4,12000,18.52,,,30,4.8,7.7,,,,,,,,,wg-a,,,,AAXX 14064 07207 12562 10310 10050 20040 30171 40225 53003 60006 81100 90600 333 10077 20048=
07207,1996-11-14 12:00:00,10,1023.6,-0.2,76,6,25000,18.52,,,70,,,,,,,,,,,wg-a,,,,AAXX 14124 07207 12675 30710 10100 20060 30183 40236 58002 60006 83100 91200=
07207,1996-11-14 18:00:00,7,1023.7,0.5,76,3,18000,18.52,,,70,4.6,10.4,,,,,,,,,wg-a,,,,AAXX 14184 07207 12668 50710 10070 20030 30184 40237 53005 60006 85360 91800 333 10104 20046=
07207,1996-11-15 00:00:00,4,1023.5,-0.5,93,3,15000,14.816,,,30,,,,,,,,,,,wg-a,,,,AAXX 15004 07207 12565 20308 10040 20030 30181 40235 56005 60006 82200 90000=
07207,1996-11-15 06:00:00,5,1021.5,-0.9,87,3,15000,14.816,,,10,3.4,7.4,,,,,,,,,wg-a,,,,AAXX 15064 07207 12/65 20108 10050 20030 30161 40215 56009 60006 82030 90600 333 10074 20034=
07207,1996-11-15 12:00:00,8,1020.9,-1,66,2,25000,29.632,,,30,,,,,,,,,,,wg-a,,,,AAXX 15124 07207 12675 50316 10080 20020 30156 40209 58010 60006 8325/ 91200=
07207,1996-11-15 18:00:00,6,1021.2,1.2,65,0,14000,29.632,,50.004,70,3.9,8.8,,,,,,,,,wg-a,,,,AAXX 15184 07207 12/64 60716 10060 20000 30159 40212 51012 60006 86030 91800 333 10088 20039 91027=
07207,1996-11-16 00:00:00,5,1022.9,0.3,81,2,10000,18.52,,50.004,80,,,,,,,,,,,wg-a,,,,AAXX 16004 07207 12560 30810 10050 20020 30175 40229 51003 60006 83250 90000 333 91027=
07207,1996-11-16 06:00:00,5,1023.2,0.4,87,3,8000,18.52,,,50,4.3,6.2,,,,,,,,,wg-a,,,,AAXX 16064 07207 12658 80510 10050 20030 30178 40232 53004 60006 885// 90600 333 10062 20043=
07207,1996-11-16 12:00:00,7,1023.5,-0.3,76,3,15000,25.928,,,70,,,,,,,,,,,wg-a,,,,AAXX 16124 07207 12/65 70714 10070 20030 30182 40235 58003 60006 87040 91200=
07207,1996-11-16 18:00:00,5,1022.9,0.2,87,3,8000,7.408,,,40,3.9,7.6,,,,,,,,,wg-a,,,,AAXX 16184 07207 12/58 80404 10050 20030 30175 40229 51002 60006 88050 91800 333 10076 20039=
07207,1996-11-17 00:00:00,5,1021.7,-0.5,93,4,10000,3.704,,,60,,,,,,,,,,,wg-a,,,,AAXX 17004 07207 12360 30602 10050 20040 30163 40217 55005 60006 83600 90000=
07207,1996-11-17 06:00:00,4,1016.3,-3.1,93,3,8000,11.112,,,20,2.9,5.2,,,,,,,,,wg-a,,,,AAXX 17064 07207 12/58 00206 10040 20030 30109 40163 56031 60006 80000 90600 333 10052 20029=
07207,1996-11-17 12:00:00,10,1012.9,-2.8,87,8,15000,11.112,,,160,,,,,,,,,,,wg-a,,,,AAXX 17124 07207 12665 81606 10100 20080 30077 40129 58028 60006 88500 91200=
07207,1996-11-17 18:00:00,9,1010.2,-0,93,8,12000,22.224,,,360,3.5,11.2,,,,,,,,1,wg-a,,,,AAXX 17184 07207 32/62 73612 10090 20080 30050 40102 55000 70182 8705/ 91800 333 10112 20035=
07207,1996-11-18 00:00:00,7,1012.5,1.1,70,2,0,29.632,,,10,,,,,,,,,,,wg-a,,,,AAXX 18004 07207 12/// /0116 10070 20020 30072 40125 51011 60006 90000=
07207,1996-11-18 06:00:00,7,1013.2,0.5,70,2,20000,29.632,,,340,6.1,8.7,,,,,,,,,wg-a,,,,AAXX 18064 07207 12/70 23416 10070 20020 30079 40132 53005 60006 82040 90600 333 10087 20061=
07207,1996-11-18 12:00:00,9,1013.8,-0.2,66,3,500,29.632,,,330,,,,,,,,,,,wg-a,,,,AAXX 18124 07207 12600 43316 10090 20030 30086 40138 58002 60006 84200 91200=
07207,1996-11-18 18:00:00,7,1012.9,-0.6,70,2,0,7.408,,,310,6.4,9.3,,,,,,,,,wg-a,,,,AAXX 18184 07207 12/// /3104 10070 20020 30076 40129 58006 60006 91800 333 10093 20064=
07207,1996-11-19 00:00:00,10,1006,-4.9,76,6,12000,42.596,,61.116,220,,,,,,,,,,,wg-a,,,,AAXX 19004 07207 12662 52223 10100 20060 30008 40060 58049 60006 85200 90000 333 91033=
07207,1996-11-19 06:00:00,13,984.4,-12,100,13,4000,83.34,,125.936,220,7.1,12.6,,12,,,,,,81,wg-a,,,,AAXX 19064 07207 12540 82245 10130 20130 39794 49844 56120 60127 78182 889// 90600 333 10126 20071 91068=
07207,1996-11-19 12:00:00,11,982,-1.5,66,5,18000,61.116,,111.12,270,,,,2,,,,,,2,wg-a,,,,AAXX 19124 07207 02568 72733 10110 20050 39770 49820 58015 60026 70282 84954 91200 333 60027 91060=
07207,1996-11-19 18:00:00,10,980.5,1.2,82,7,0,79.636,,,290,7.2,13.3,,1,,,,,,,wg-a,,,,AAXX 19184 07207 12/// /2943 10100 20070 39754 49805 53012 60017 91800 333 10133 20072=
07207,1996-11-20 00:00:00,9,984.7,2.6,81,6,6000,61.116,,125.936,300,,,,1,,,,,,2,wg-a,,,,AAXX 20004 07207 02456 73033 10090 20060 39796 49847 53026 60016 70282 879// 90000 333 60017 91068=
07207,1996-11-20 06:00:00,9,991.4,3.3,76,5,15000,46.3,,107.416,310,7,10.6,,1,,,,,,81,wg-a,,,,AAXX 20064 07207 12565 33125 10090 20050 39863 49914 53033 60017 78182 83900 90600 333 10106 20070 91058=
07207,1996-11-20 12:00:00,10,1000.4,4,62,3,18000,42.596,,96.304,330,,,,0,,,,,,25,wg-a,,,,AAXX 20124 07207 02668 53323 10100 20030 39952 40004 53040 60016 72582 85400 91200 333 60007 91052=
07207,1996-11-20 18:00:00,9,1006.1,2.8,53,0,20000,38.892,,90.748,340,7.4,10.7,,,,,,,,1,wg-a,,,,AAXX 20184 07207 32570 33421 10090 20000 30009 40061 53028 70182 83200 91800 333 10107 20074 91049=
07207,1996-11-21 00:00:00,9,1009.3,0.9,57,1,15000,25.928,,64.82,10,,,,,,,,,,,wg-a,,,,AAXX 21004 07207 12565 50114 10090 20010 30041 40093 53009 60006 85200 90000 333 91035=
07207,1996-11-21 06:00:00,7,1011.1,0.6,57,-1,20000,18.52,,50.004,50,7.1,8.8,,,,,,,,,wg-a,,,,AAXX 21064 07207 12/70 00510 10070 21010 30058 40111 51006 60006 80000 90600 333 10088 20071 91027=
07207,1996-11-21 12:00:00,8,1008.6,-3,61,1,25000,14.816,,,80,,,,,,,,,,,wg-a,,,,AAXX 21124 07207 12675 80808 10080 20010 30034 40086 58030 60006 8117/ 91200=
07207,1996-11-21 18:00:00,4,1005.5,-0.8,93,3,6000,31.484,,,100,4.3,8.9,,2,,,,,,61,wg-a,,,,AAXX 21184 07207 12456 81017 10040 20030 30002 40055 55008 60027 76162 887// 91800 333 10089 20043=
07207,1996-11-22 00:00:00,3,1013,3.6,93,2,10000,11.112,,,10,,,,,,,,,,1,wg-a,,,,AAXX 22004 07207 12560 30106 10030 20020 30076 40130 51036 60016 70161 83200 90000=
07207,1996-11-22 06:00:00,3,1016.6,1.6,100,3,15000,7.408,,,60,2,4.5,,0,,,,,,,wg-a,,,,AAXX 22064 07207 12/65 00604 10030 20030 30112 40166 53016 60007 80000 90600 333 10045 20020=
07207,1996-11-22 12:00:00,9,1015.7,-1.2,66,3,500,18.52,,,190,,,,,,,,,,,wg-a,,,,AAXX 22124 07207 12600 71910 10090 20030 30104 40157 58012 60006 8511/ 91200=
07207,1996-11-22 18:00:00,10,1012.5,-1.5,66,4,25000,29.632,,,200,2.5,9.9,,,,,,,,,wg-a,,,,AAXX 22184 07207 12675 72016 10100 20040 30073 40125 56015 60006 875// 91800 333 10099 20025=
07207,1996-11-23 00:00:00,9,1011.9,0.4,87,7,10000,25.928,,,340,,,,8,,,,,,21,wg-a,,,,AAXX 23004 07207 02460 73414 10090 20070 30067 40119 53004 60096 72162 875// 90000 333 60087=
07207,1996-11-23 06:00:00,9,1014,1.1,76,5,20000,35.188,,,330,5.8,10.2,,0,,,,,,,wg-a,,,,AAXX 23064 07207 12570 33319 10090 20050 30088 40140 53011 60007 83200 90600 333 10102 20058=
07207,1996-11-23 12:00:00,9,1019.4,2.1,71,4,35000,31.484,,57.412,330,,,,,,,,,,,wg-a,,,,AAXX 23124 07207 12581 33317 10090 20040 30141 40194 51021 60006 83301 91200 333 91031=
07207,1996-11-23 18:00:00,9,1023.4,2.4,61,2,20000,29.632,,50.004,330,7.5,9.6,,,,,,,,,wg-a,,,,AAXX 23184 07207 12570 53316 10090 20020 30181 40234 51024 60006 85300 91800 333 10096 20075 91027=
07207,1996-11-24 00:00:00,6,1026.9,1.5,70,1,15000,14.816,,,350,,,,,,,,,,,wg-a,,,,AAXX 24004 07207 12565 23508 10060 20010 30215 40269 53015 60006 81201 90000=
07207,1996-11-24 06:00:00,8,1026.3,-0.4,76,4,20000,7.408,,,190,4,8.5,,,,,,,,,wg-a,,,,AAXX 24064 07207 12670 51904 10080 20040 30210 40263 55004 60006 81254 90600 333 10085 20040=
07207,1996-11-24 12:00:00,11,1022,-3.5,71,6,500,38.892,,,210,,,,,,,,,,,wg-a,,,,AAXX 24124 07207 12600 82121 10110 20060 30168 40220 58035 60006 885// 91200=
07207,1996-11-24 18:00:00,12,1015.6,-3,76,8,18000,46.3,,72.228,230,7.8,12.1,,,,,,,,,wg-a,,,,AAXX 24184 07207 12668 82325 10120 20080 30104 40156 58030 60006 885// 91800 333 10121 20078 91039=
07207,1996-11-25 00:00:00,13,1008.2,-3.7,100,13,2000,53.708,,87.044,260,,,,7,,,,,,21,wg-a,,,,AAXX 25004 07207 02420 82629 10130 20130 30031 40082 56037 60156 72162 887// 90000 333 60077 91047=
07207,1996-11-25 06:00:00,12,1006.4,0.3,94,11,10000,22.224,,75.932,310,10.7,13.2,,0,,,,,,21,wg-a,,,,AAXX 25064 07207 12660 83112 10120 20110 30013 40064 53003 60007 72162 885// 90600 333 10132 20107 91041=
07207,1996-11-25 12:00:00,12,1005.6,-0.8,88,10,12000,35.188,,64.82,280,,,,,,,,,,,wg-a,,,,AAXX 25124 07207 12562 72819 10120 20100 30005 40056 58008 60006 8777/ 91200 333 91035=
07207,1996-11-25 18:00:00,11,1006,1.7,82,8,10000,35.188,,72.228,320,10.5,13.2,,3,,,,,,1,wg-a,,,,AAXX 25184 07207 12560 43219 10110 20080 30008 40060 53017 60037 70161 83730 91800 333 10132 20105 91039=
07207,1996-11-26 00:00:00,10,1011.4,2.7,87,8,12000,29.632,,72.228,330,,,,,,,,,,,wg-a,,,,AAXX 26004 07207 12562 33316 10100 20080 30062 40114 53027 60006 83200 90000 333 91039=
07207,1996-11-26 06:00:00,8,1015.2,2,81,5,15000,18.52,,,10,7.5,11.2,,,,,,,,,wg-a,,,,AAXX 26064 07207 12565 30110 10080 20050 30099 40152 51020 60006 82230 90600 333 10112 20075=
07207,1996-11-26 12:00:00,10,1016.9,0.3,71,5,20000,0,,,0,,,,,,,,,,,wg-a,,,,AAXX 26124 07207 12/70 80000 10100 20050 30117 40169 50003 60006 8802/ 91200=
07207,1996-11-26 18:00:00,10,1014.9,-1.1,76,6,15000,14.816,,,150,6.5,10.3,,,,,,,,,wg-a,,,,AAXX 26184 07207 12665 81508 10100 20060 30097 40149 58011 60006 8353/ 91800 333 10103 20065=
07207,1996-11-27 00:00:00,10,1012.2,-2.7,100,10,10000,31.484,,,150,,,,2,,,,,,21,wg-a,,,,AAXX 27004 07207 02360 81517 10100 20100 30070 40122 57027 60046 72162 887// 90000 333 60027=
07207,1996-11-27 06:00:00,13,1004.3,-4.2,100,13,2500,31.484,,,270,8.8,13,,2,,,,,,51,wg-a,,,,AAXX 27064 07207 12325 82717 10130 20130 39992 40043 57042 60027 75152 887// 90600 333 10130 20088=
07207,1996-11-27 12:00:00,12,1004.7,0.9,76,8,15000,42.596,,75.932,290,,,,,,,,,,2,wg-a,,,,AAXX 27124 07207 12665 62923 10120 20080 39996 40047 50009 60016 70252 8485/ 91200 333 91041=
07207,1996-11-27 18:00:00,10,1005.8,0.3,87,8,10000,53.708,,94.452,290,9.8,13,,0,,,,,,,wg-a,,,,AAXX 27184 07207 12660 82929 10100 20080 30006 40058 50003 60007 885// 91800 333 10130 20098 91051=
07207,1996-11-28 00:00:00,6,1017.5,4.4,87,4,12000,18.52,,90.748,360,,,,,,,,,,,wg-a,,,,AAXX 28004 07207 12662 83610 10060 20040 30122 40175 51044 60006 885// 90000 333 91049=
07207,1996-11-28 06:00:00,7,1021.4,2.1,81,4,20000,14.816,,,360,5.1,10.9,,,,,,,,,wg-a,,,,AAXX 28064 07207 12670 33608 10070 20040 30161 40214 53021 60006 81130 90600 333 10109 20051=
07207,1996-11-28 12:00:00,10,1024.3,1,71,5,0,14.816,,,340,,,,,,,,,,,wg-a,,,,AAXX 28124 07207 12/// /3408 10100 20050 30190 40243 51010 60006 91200=
07207,1996-11-28 18:00:00,10,1024.6,0.5,71,5,20000,18.52,,,310,5.9,10.2,,,,,,,,,wg-a,,,,AAXX 28184 07207 12/70 33110 10100 20050 30193 40246 51005 60006 83030 91800 333 10102 20059=
07207,1996-11-29 00:00:00,11,1022.7,-1.4,76,7,12000,29.632,,,270,,,,,,,,,,,wg-a,,,,AAXX 29004 07207 12662 82716 10110 20070 30175 40227 58014 60006 8/230 90000=
07207,1996-11-29 06:00:00,12,1017,-2.4,94,11,12000,50.004,,90.748,280,9.6,12.5,,,,,,,,,wg-a,,,,AAXX 29064 07207 32662 82827 10120 20110 30118 40170 56024 885// 90600 333 10125 20096 91049=
07207,1996-11-29 12:00:00,13,1015.7,-0.6,88,11,15000,42.596,,83.34,280,,,,,,,,,,,wg-a,,,,AAXX 29124 07207 12665 82823 10130 20110 30105 40157 58006 60006 885// 91200 333 91045=
07207,1996-11-29 18:00:00,13,1012.5,-0.5,100,13,500,46.3,,75.932,280,12,12.8,,,,,,,,51,wg-a,,,,AAXX 29184 07207 02400 82825 10130 20130 30073 40125 55005 61000 75152 887// 91800 333 10128 20120 //// 91041=
07207,1996-11-30 00:00:00,12,1012.3,-0,100,12,500,31.484,,75.932,290,,,,0,,,,,,51,wg-a,,,,AAXX 30004 07207 02400 82917 10120 20120 30071 40123 55000 60016 75162 887// 90000 333 60007 91041=
07207,1996-11-30 06:00:00,13,1012.3,-0.1,94,12,10000,31.484,,72.228,310,12.3,12.8,,,,,,,,20,wg-a,,,,AAXX 30064 07207 02460 83117 10130 20120 30071 40123 55001 61000 72052 887// 90600 333 10128 20123 //// 91039=
07207,1996-11-30 12:00:00,13,1014.1,0.5,100,13,10000,29.632,,61.116,310,,,,,,,,,,,wg-a,,,,AAXX 30124 07207 12660 73116 10130 20130 30089 40141 51005 60006 878// 91200 333 91033=
07207,1996-11-30 18:00:00,12,1017.9,3.1,100,12,6000,29.632,,64.82,320,12.1,13.3,,0,,,,,,2,wg-a,,,,AAXX 30184 07207 12456 83216 10120 20120 30127 40179 53031 60007 70252 887// 91800 333 10133 20121 91035=
07207,1996-12-01 00:00:00,11,1022.5,1.8,94,10,8000,14.816,,,340,,,,,,,,,,,wg-a,,,,AAXX 01004 07207 12658 83408 10110 20100 30173 40225 53018 60006 885// 90000=
07207,1996-12-01 06:00:00,12,1023.6,0.2,100,12,12000,18.52,,,280,11.2,12.3,,,,,,,,,wg-a,,,,AAXX 01064 07207 12462 82810 10120 20120 30184 40236 51002 60006 887// 90600 333 10123 20112=
07207,1996-12-01 12:00:00,13,1022.4,-1.2,100,13,500,31.484,,,270,,,,1,,,,,,52,wg-a,,,,AAXX 01124 07207 02400 82717 10130 20130 30172 40224 58012 60016 75252 887// 91200 333 60017=
07207,1996-12-01 18:00:00,12,1022.2,0.8,94,11,15000,29.632,,,310,11.8,12.8,,,,,,,,2,wg-a,,,,AAXX 01184 07207 32665 73116 10120 20110 30170 40222 53008 70252 875// 91800 333 10128 20118=
07207,1996-12-02 00:00:00,12,1023.7,0.5,82,9,15000,29.632,,61.116,310,,,,,,,,,,,wg-a,,,,AAXX 02004 07207 12665 63116 10120 20090 30185 40237 50005 60006 86400 90000 333 91033=
07207,1996-12-02 06:00:00,10,1026.1,1.3,71,5,15000,31.484,,64.82,320,9.9,12,,,,,,,,,wg-a,,,,AAXX 02064 07207 12665 63217 10100 20050 30208 40261 53013 60006 86500 90600 333 10120 20099 91035=
07207,1996-12-02 12:00:00,11,1026.6,-0.6,71,6,20000,25.928,,61.116,310,,,,,,,,,,,wg-a,,,,AAXX 02124 07207 12670 63114 10110 20060 30213 40266 58006 60006 84430 91200 333 91033=
07207,1996-12-02 18:00:00,11,1025,-0.3,82,8,12000,22.224,,,290,10.1,12.1,,,,,,,,,wg-a,,,,AAXX 02184 07207 12662 82912 10110 20080 30197 40250 55003 60006 885// 91800 333 10121 20101=
07207,1996-12-03 00:00:00,12,1019.5,-3.3,76,8,10000,35.188,,,240,,,,,,,,,,,wg-a,,,,AAXX 03004 07207 12660 82419 10120 20080 30143 40195 56033 60006 885// 90000=
07207,1996-12-03 06:00:00,12,1010.9,-4.4,94,11,10000,50.004,,75.932,230,11.2,12.2,,0,,,,,,,wg-a,,,,AAXX 03064 07207 12660 82327 10120 20110 30057 40109 58044 60007 885// 90600 333 10122 20112 91041=
07207,1996-12-03 12:00:00,12,1003.2,-4,100,12,3000,53.708,,90.748,230,,,,2,,,,,,63,wg-a,,,,AAXX 03124 07207 02430 82329 10120 20120 39981 40032 58040 60026 76362 887// 91200 333 60027 91049=
07207,1996-12-03 18:00:00,10,1001.5,0.2,87,8,8000,25.928,,87.044,290,9.7,12.8,,3,,,,,,60,wg-a,,,,AAXX 03184 07207 12458 82914 10100 20080 39963 40015 53002 60037 76062 887// 91800 333 10128 20097 91047=
07207,1996-12-04 00:00:00,10,1003.5,1,66,4,10000,25.928,,50.004,290,,,,,,,,,,1,wg-a,,,,AAXX 04004 07207 12660 62914 10100 20040 39983 40035 51010 60016 70162 86500 90000 333 91027=
07207,1996-12-04 06:00:00,9,1004.8,0.7,66,3,15000,18.52,,,260,9.2,10.2,,,,,,,,,wg-a,,,,AAXX 04064 07207 32565 62610 10090 20030 39996 40048 53007 86200 90600 333 10102 20092=
07207,1996-12-04 18:00:00,7,1008.5,1.3,76,3,12000,3.704,,,100,7,10.1,,,,,,,,,wg-a,,,,AAXX 04184 07207 32562 61002 10070 20030 30032 40085 51013 86300 91800 333 10101 20070=
07207,1996-12-05 00:00:00,7,1011,0.8,70,2,12000,7.408,,,20,,,,,,,,,,,wg-a,,,,AAXX 05004 07207 12562 10204 10070 20020 30057 40110 51008 60006 81200 90000=
07207,1996-12-05 06:00:00,6,1012.3,0.4,93,5,20000,7.408,,,100,5.3,7.5,,,,,,,,,wg-a,,,,AAXX 05064 07207 12870 21004 10060 20050 30070 40123 53004 60006 82030 90600 333 10075 20053=
07207,1996-12-05 12:00:00,11,1013.9,0.4,76,7,25000,7.408,,,130,,,,,,,,,,,wg-a,,,,AAXX 05124 07207 12575 41304 10110 20070 30087 40139 50004 60006 83204 91200=
07207,1996-12-05 18:00:00,5,1014.8,1.5,100,5,15000,14.816,,,40,4.8,11.3,,,,,,,,,wg-a,,,,AAXX 05184 07207 12565 20408 10050 20050 30095 40148 51015 60006 82200 91800 333 10113 20048=
07207,1996-12-06 00:00:00,6,1015.1,-0.1,93,5,10000,18.52,,,30,,,,,,,,,,,wg-a,,,,AAXX 06004 07207 12560 20310 10060 20050 30098 40151 58001 60006 81230 90000=
07207,1996-12-06 06:00:00,6,1014.2,-0.3,81,3,15000,29.632,,,30,4.4,6.4,,,,,,,,,wg-a,,,,AAXX 06064 07207 12665 70316 10060 20030 30089 40142 55003 60006 875// 90600 333 10064 20044=
07207,1996-12-06 12:00:00,8,1014.7,-0.2,76,4,15000,25.928,,57.412,30,,,,,,,,,,,wg-a,,,,AAXX 06124 07207 12/65 80314 10080 20040 30094 40147 58002 60006 8802/ 91200 333 91031=
07207,1996-12-06 18:00:00,7,1016.8,1.9,93,6,6000,18.52,,,30,6,8.2,,3,,,,,,60,wg-a,,,,AAXX 06184 07207 12456 80310 10070 20060 30115 40168 51019 60037 76062 887// 91800 333 10082 20060=
07207,1996-12-07 00:00:00,7,1018.8,0.8,100,7,500,11.112,,,70,,,,,,,,,,,wg-a,,,,AAXX 07004 07207 02400 80706 10070 20070 30135 40188 51008 61000 886// 90000 333 ////=
07207,1996-12-07 06:00:00,7,1019.9,0.5,100,7,4000,7.408,,,30,6.7,7.3,,,,,,,,,wg-a,,,,AAXX 07064 07207 32440 80304 10070 20070 30146 40199 53005 886// 90600 333 10073 20067=
07207,1996-12-07 12:00:00,8,1021.7,-0.2,100,8,4000,22.224,,,50,,,,,,,,,,,wg-a,,,,AAXX 07124 07207 12440 80512 10080 20080 30164 40217 58002 60006 886// 91200=
07207,1996-12-07 18:00:00,7,1022.8,1.8,100,7,4000,25.928,,,80,7.3,9,,,,,,,,,wg-a,,,,AAXX 07184 07207 12/40 30814 10070 20070 30175 40228 53018 60006 83030 91800 333 10090 20073=
07207,1996-12-08 06:00:00,6,1023.8,-0.5,100,6,2000,7.408,,,50,5.7,7.4,,,,,,,,28,wg-a,,,,AAXX 08064 07207 12420 20504 10060 20060 30184 40238 56005 60006 72841 82600 90600 333 10074 20057=
07207,1996-12-08 12:00:00,10,1023.7,-0.8,82,7,8000,18.52,,,60,,,,0,,,,,,,wg-a,,,,AAXX 08124 07207 02/58 20610 10100 20070 30184 40237 58008 60006 82030 91200 333 60007=
07207,1996-12-08 18:00:00,7,1022.7,-0.2,87,5,10000,18.52,,,20,5.2,10.9,,,,,,,,,wg-a,,,,AAXX 08184 07207 32/60 00210 10070 20050 30174 40227 57002 80000 91800 333 10109 20052=
07207,1996-12-09 00:00:00,5,1022.6,-0.1,100,5,8000,11.112,,,60,,,,,,,,,,,wg-a,,,,AAXX 09004 07207 12/58 00606 10050 20050 30172 40226 58001 60006 80000 90000=
07207,1996-12-09 06:00:00,4,1021.1,-0.3,100,4,4000,14.816,,,90,4.2,8.2,,,,,,,,,wg-a,,,,AAXX 09064 07207 12440 80908 10040 20040 30157 40211 56003 60006 886// 90600 333 10082 20042=
07207,1996-12-09 12:00:00,4,1020.2,-0.9,93,3,6000,14.816,,,50,,,,,,,,,,,wg-a,,,,AAXX 09124 07207 12456 80508 10040 20030 30148 40202 58009 60006 886// 91200=
07207,1996-12-09 18:00:00,5,1018,-0.5,93,4,500,14.816,,,50,3.5,5.5,,,,,,,,,wg-a,,,,AAXX 09184 07207 12400 80508 10050 20040 30127 40180 56005 60006 886// 91800 333 10055 20035=
07207,1996-12-10 00:00:00,2,1017.4,-0.6,100,2,4000,11.112,,,90,,,,,,,,,,,wg-a,,,,AAXX 10004 07207 12440 80906 10020 20020 30120 40174 56006 60006 886// 90000=
07207,1996-12-10 06:00:00,2,1015.1,-0.4,100,2,6000,22.224,,,90,1.3,5.4,,,,,,,,,wg-a,,,,AAXX 10064 07207 12456 80912 10020 20020 30097 40151 58004 60006 886// 90600 333 10054 20013=
07207,1996-12-10 12:00:00,2,1015.2,-0.3,93,1,500,22.224,,,90,,,,,,,,,,,wg-a,,,,AAXX 10124 07207 12400 80912 10020 20010 30098 40152 58003 60006 886// 91200=
07207,1996-12-10 18:00:00,3,1014.4,0.9,93,2,4000,18.52,,,90,1.3,3.2,,,,,,,,,wg-a,,,,AAXX 10184 07207 12440 80910 10030 20020 30090 40144 50009 60006 886// 91800 333 10032 20013=
07207,1996-12-11 00:00:00,6,1014,-0.2,100,6,4000,25.928,,,100,,,,,,,,,,,wg-a,,,,AAXX 11004 07207 12440 81014 10060 20060 30087 40140 55002 60006 886// 90000=
07207,1996-12-11 06:00:00,5,1012.6,-1.1,100,5,4000,25.928,,,90,3.2,7.5,,,,,,,,,wg-a,,,,AAXX 11064 07207 12440 80914 10050 20050 30073 40126 57011 60006 886// 90600 333 10075 20032=
07207,1996-12-11 12:00:00,4,1011.6,-0.9,100,4,8000,31.484,,,90,,,,,,,,,,,wg-a,,,,AAXX 11124 07207 12458 70917 10040 20040 30063 40116 56009 60006 876// 91200=
07207,1996-12-11 18:00:00,4,1009.1,-1.3,100,4,4000,31.484,,,90,3.2,4.7,,,,,,,,,wg-a,,,,AAXX 11184 07207 12440 80917 10040 20040 30038 40091 55013 60006 886// 91800 333 10047 20032=
07207,1996-12-12 00:00:00,4,1008,-0.4,100,4,4000,29.632,,,100,,,,,,,,,,,wg-a,,,,AAXX 12004 07207 12440 81016 10040 20040 30027 40080 58004 60006 88600 90000=
07207,1996-12-12 06:00:00,5,1006.9,-0.4,100,5,4000,29.632,,,100,3.2,5.3,,1,,,,,,61,wg-a,,,,AAXX 12064 07207 12440 81016 10050 20050 30016 40069 56004 60017 76162 887// 90600 333 10053 20032=
07207,1996-12-12 12:00:00,7,1006.5,-0.7,100,7,4000,25.928,,,70,,,,1,,,,,,21,wg-a,,,,AAXX 12124 07207 02440 80714 10070 20070 30013 40065 58007 60036 72162 887// 91200 333 60017=
07207,1996-12-12 18:00:00,7,1005,-0.5,100,7,1500,18.52,,,70,5.1,7.4,,,,,,,,10,wg-a,,,,AAXX 12184 07207 32415 80710 10070 20070 39998 40050 56005 71052 886// 91800 333 10074 20051=
07207,1996-12-13 00:00:00,8,1004,-0.7,100,8,1000,11.112,,,60,,,,,,,,,,10,wg-a,,,,AAXX 13004 07207 12410 80606 10080 20080 39988 40040 58007 60006 71022 886// 90000=
07207,1996-12-13 06:00:00,8,1002,-0.6,100,8,600,18.52,,,70,7.2,9.2,,,,,,,,45,wg-a,,,,AAXX 13064 07207 12/06 90710 10080 20080 39968 40020 56006 60006 74542 89/// 90600 333 10092 20072=
07207,1996-12-13 12:00:00,7,1001.6,0,100,7,3000,14.816,,,80,,,,0,,,,,,2,wg-a,,,,AAXX 13124 07207 02330 80808 10070 20070 39964 40016 50000 60016 70242 886// 91200 333 60007=
07207,1996-12-13 18:00:00,7,1001.3,0.4,100,7,4000,31.484,,,50,6.5,7.5,,1,,,,,,21,wg-a,,,,AAXX 13184 07207 12440 80517 10070 20070 39961 40013 53004 60017 72162 887// 91800 333 10075 20065=
07207,1996-12-14 06:00:00,4,1008.6,2.7,87,2,10000,31.484,,50.004,50,3.6,6.7,,,,,,,,,wg-a,,,,AAXX 14064 07207 12560 30517 10040 20020 30033 40086 53027 60006 83200 90600 333 10067 20036 91027=
07207,1996-12-14 12:00:00,6,1013.2,1.9,65,0,500,22.224,,,70,,,,,,,,,,,wg-a,,,,AAXX 14124 07207 12/00 20712 10060 20000 30079 40132 51019 60006 80001 91200=
07207,1996-12-14 18:00:00,3,1016.3,1.6,70,-2,25000,11.112,,,30,2,6.5,,,,,,,,,wg-a,,,,AAXX 14184 07207 12575 30306 10030 21020 30109 40163 51016 60006 82201 91800 333 10065 20020=
07207,1996-12-15 00:00:00,4,1018,0.6,65,-2,20000,14.816,,,50,,,,,,,,,,,wg-a,,,,AAXX 15004 07207 12570 20508 10040 21020 30126 40180 51006 60006 82200 90000=
07207,1996-12-15 06:00:00,4,1018.3,0.2,70,-1,15000,7.408,,,90,1.9,4.7,,,,,,,,,wg-a,,,,AAXX 15064 07207 12565 20904 10040 21010 30129 40183 53002 60006 82200 90600 333 10047 20019=
07207,1996-12-15 12:00:00,8,1018.8,0,61,1,500,11.112,,,140,,,,,,,,,,,wg-a,,,,AAXX 15124 07207 12/00 01406 10080 20010 30135 40188 50000 60006 80000 91200=
07207,1996-12-15 18:00:00,3,1018.3,0,81,0,500,14.816,,,80,2.5,8.7,,,,,,,,,wg-a,,,,AAXX 15184 07207 12/00 20808 10030 20000 30129 40183 50000 60006 80001 91800 333 10087 20025=
07207,1996-12-16 00:00:00,6,1016.2,-1.5,70,1,20000,25.928,,50.004,120,,,,,,,,,,,wg-a,,,,AAXX 16004 07207 12570 21214 10060 20010 30109 40162 57015 60006 82200 90000 333 91027=
07207,1996-12-16 06:00:00,5,1013.5,-1.4,87,3,16000,14.816,,57.412,120,3.2,6,,,,,,,,,wg-a,,,,AAXX 16064 07207 12466 81208 10050 20030 30082 40135 56014 60006 886// 90600 333 10060 20032 91031=
07207,1996-12-16 12:00:00,10,1011.3,-1.3,76,6,10000,18.52,,,180,,,,,,,,,,,wg-a,,,,AAXX 16124 07207 12660 81810 10100 20060 30061 40113 58013 60006 885// 91200=
07207,1996-12-16 18:00:00,10,1009.5,-0,93,9,8000,35.188,,,150,4.9,10.6,,,,,,,,,wg-a,,,,AAXX 16184 07207 12458 81519 10100 20090 30043 40095 55000 60006 887// 91800 333 10106 20049=
07207,1996-12-17 00:00:00,12,1008.3,-0.9,94,11,0,31.484,,,180,,,,,,,,,,,wg-a,,,,AAXX 17004 07207 12/// /1817 10120 20110 30032 40083 58009 60006 90000=
07207,1996-12-17 06:00:00,13,1007.7,0.1,100,13,18000,31.484,,,240,9.6,12.9,,,,,,,,2,wg-a,,,,AAXX 17064 07207 32468 72417 10130 20130 30026 40077 53001 70262 877// 90600 333 10129 20096=
07207,1996-12-17 12:00:00,13,1009,-0.1,94,12,20000,22.224,,,170,,,,,,,,,,,wg-a,,,,AAXX 17124 07207 12570 71712 10130 20120 30039 40090 58001 60006 878// 91200=
07207,1996-12-17 18:00:00,12,1007.8,-0.5,94,11,10000,29.632,,,140,11.4,13.5,,,,,,,,,wg-a,,,,AAXX 17184 07207 12660 51416 10120 20110 30026 40078 56005 60006 85501 91800 333 10135 20114=
07207,1996-12-18 00:00:00,12,1005.9,-1.2,94,11,8000,22.224,,,120,,,,,,,,,,,wg-a,,,,AAXX 18004 07207 12658 51212 10120 20110 30008 40059 58012 60006 85500 90000=
07207,1996-12-18 06:00:00,12,1002.9,-1.6,94,11,8000,22.224,,,140,11.2,12.2,,,,,,,,,wg-a,,,,AAXX 18064 07207 12658 81412 10120 20110 39978 40029 56016 60006 885// 90600 333 10122 20112=
07207,1996-12-18 12:00:00,12,1001.7,-1.1,100,12,2000,3.704,,,120,,,,9,,,,,,61,wg-a,,,,AAXX 18124 07207 02420 81202 10120 20120 39966 40017 58011 60106 76162 887// 91200 333 60097=
07207,1996-12-18 18:00:00,12,1002,0.4,100,12,300,7.408,,,280,11.2,12.7,,1,,,,,,47,wg-a,,,,AAXX 18184 07207 12/03 92804 10120 20120 39969 40020 51004 60017 74762 89/// 91800 333 10127 20112=
07207,1996-12-19 00:00:00,12,1001.8,-0.4,100,12,500,3.704,,,210,,,,,,,,,,47,wg-a,,,,AAXX 19004 07207 12/05 92102 10120 20120 39967 40018 58004 60006 74764 89/// 90000=
07207,1996-12-19 06:00:00,10,999.7,-1.5,100,10,0,11.112,,,60,10.2,11.9,,,,,,,,,wg-a,,,,AAXX 19064 07207 32/// /0606 10100 20100 39946 49997 57015 90600 333 10119 20102=
07207,1996-12-19 12:00:00,11,999,-0.8,100,11,6000,11.112,,,110,,,,8,,,,,,20,wg-a,,,,AAXX 19124 07207 02256 81106 10110 20110 39939 49990 58008 60086 72065 887// 91200 333 60087=
07207,1996-12-19 18:00:00,11,998.2,0.8,100,11,10000,18.52,,,260,,,,,,,,,,2,wg-a,,,,AAXX 19184 07207 32/60 72610 10110 20110 39931 49982 51008 70262 8703/ 91800=
07207,1996-12-20 00:00:00,11,998.1,-0.2,94,10,12000,14.816,,,270,,,,,,,,,,,wg-a,,,,AAXX 20004 07207 12562 22708 10110 20100 39930 49981 56002 60006 82200 90000=
07207,1996-12-20 06:00:00,10,997.2,-0.5,93,9,20000,18.52,,,160,10.2,11.4,,,,,,,,,wg-a,,,,AAXX 20064 07207 12/70 01610 10100 20090 39921 49972 55005 60006 80000 90600 333 10114 20102=
07207,1996-12-20 12:00:00,9,998.9,0,93,8,12000,22.224,,,120,,,,,,,,,,,wg-a,,,,AAXX 20124 07207 12662 81212 10090 20080 39937 49989 50000 60006 885// 91200=
07207,1996-12-20 18:00:00,10,998.8,0.3,93,9,10000,25.928,,,100,8.4,10.6,,,,,,,,,wg-a,,,,AAXX 20184 07207 12460 81014 10100 20090 39937 49988 53003 60006 886// 91800 333 10106 20084=
07207,1996-12-21 06:00:00,8,998.5,-0.1,93,7,15000,38.892,,57.412,80,7.7,9.9,,,,,,,,,wg-a,,,,AAXX 21064 07207 12/65 00821 10080 20070 39933 49985 56001 60006 80000 90600 333 10099 20077 91031=
07207,1996-12-21 12:00:00,9,999.7,0.3,93,8,6000,35.188,,72.228,80,,,,1,,,,,,2,wg-a,,,,AAXX 21124 07207 02456 80819 10090 20080 39945 49997 50003 60016 70261 887// 91200 333 60017 91039=
07207,1996-12-21 18:00:00,8,999.7,0.6,100,8,0,38.892,,,80,7.7,8.6,,2,,,,,,,wg-a,,,,AAXX 21184 07207 12/// /0821 10080 20080 39945 49997 50006 60027 91800 333 10086 20077=
07207,1996-12-22 00:00:00,8,1001.9,1.1,100,8,500,31.484,,57.412,90,,,,,,,,,,2,wg-a,,,,AAXX 22004 07207 12400 80917 10080 20080 39967 40019 50011 60016 70262 886// 90000 333 91031=
07207,1996-12-22 06:00:00,7,1001.5,-0.7,100,7,600,35.188,,53.708,70,6.8,8.3,,,,,,,,45,wg-a,,,,AAXX 22064 07207 32/06 90719 10070 20070 39963 40015 56007 74542 89/// 90600 333 10083 20068 91029=
07207,1996-12-22 12:00:00,7,1001.7,-1.2,100,7,2000,35.188,,61.116,70,,,,0,,,,,,21,wg-a,,,,AAXX 22124 07207 02320 80719 10070 20070 39965 40017 58012 60006 72162 887// 91200 333 60007 91033=
07207,1996-12-22 18:00:00,8,1000,-0.3,100,8,0,31.484,,,80,6.5,7.5,,1,,,,,,,wg-a,,,,AAXX 22184 07207 12/// /0817 10080 20080 39948 40000 55003 60017 91800 333 10075 20065=
07207,1996-12-23 00:00:00,8,998.9,-0.6,100,8,500,29.632,,,70,,,,,,,,,,51,wg-a,,,,AAXX 23004 07207 02405 80716 10080 20080 39937 49989 57006 61000 75152 886// 90000 333 6100=
07207,1996-12-23 06:00:00,7,997.6,-0.8,100,7,1000,22.224,,,70,7.3,8,,,,,,,,51,wg-a,,,,AAXX 23064 07207 02210 80712 10070 20070 39924 49976 56008 61000 75152 887// 90600 333 10080 20073 ////=
07207,1996-12-23 12:00:00,7,998.1,0.2,100,7,2000,25.928,,,60,,,,,,,,,,51,wg-a,,,,AAXX 23124 07207 02320 80614 10070 20070 39929 49981 50002 61000 75165 887// 91200 333 6100=
07207,1996-12-23 18:00:00,6,998.2,0.5,100,6,2000,31.484,,,70,6,7.4,,0,,,,,,60,wg-a,,,,AAXX 23184 07207 12320 80717 10060 20060 39930 49982 50005 60007 76065 887// 91800 333 10074 20060=
07207,1996-12-24 00:00:00,4,998.2,0.4,93,3,3000,46.3,,,70,,,,1,,,,,,25,wg-a,,,,AAXX 24004 07207 02430 80725 10040 20030 39929 49982 51004 60036 72562 887// 90000 333 60017=
07207,1996-12-24 06:00:00,1,998.1,-0,93,0,4000,42.596,,68.524,70,0.8,6.1,,0,,,,,,2,wg-a,,,,AAXX 24064 07207 12440 80723 10010 20000 39928 49981 55000 60007 70262 887// 90600 333 10061 20008 91037=
07207,1996-12-24 12:00:00,1,999.9,0.4,86,-1,6000,31.484,,61.116,60,,,,,,,,,,,wg-a,,,,AAXX 24124 07207 12456 80617 10010 21010 39946 49999 50004 60006 886// 91200 333 91033=
07207,1996-12-24 18:00:00,1,1003.3,2.2,86,-1,6000,14.816,,,40,0.4,1.2,,,,,,,,,wg-a,,,,AAXX 24184 07207 12556 80408 10010 21010 39980 40033 53022 60006 885// 91800 333 10012 20004=
07207,1996-12-25 00:00:00,1,1007.7,2.2,93,0,3000,11.112,,,30,,,,,,,,,,,wg-a,,,,AAXX 25004 07207 12430 80306 10010 20000 30023 40077 51022 60006 886// 90000=
07207,1996-12-25 06:00:00,1,1011,1.5,100,1,4000,11.112,,,40,0.6,1.4,,,,,,,,,wg-a,,,,AAXX 25064 07207 12440 80406 10010 20010 30056 40110 51015 60006 886// 90600 333 10014 20006=
07207,1996-12-25 12:00:00,2,1017.4,3.4,87,0,500,22.224,,,50,,,,0,,,,,,2,wg-a,,,,AAXX 25124 07207 02400 80512 10020 20000 30120 40174 51034 60016 70272 887// 91200 333 60007=
07207,1996-12-25 18:00:00,3,1023.5,4,48,-7,20000,25.928,,,40,0.6,3.9,,,,,,,,,wg-a,,,,AAXX 25184 07207 32/70 00414 10030 21070 30181 40235 51040 80000 91800 333 10039 20006=
07207,1996-12-26 00:00:00,2,1028.9,2.3,69,-3,15000,18.52,,61.116,70,,,,,,,,,,,wg-a,,,,AAXX 26004 07207 12/65 00710 10020 21030 30234 40289 51023 60006 80000 90000 333 91033=
07207,1996-12-26 12:00:00,2,1035.8,0.7,75,-2,20000,25.928,,,80,,,,,,,,,,,wg-a,,,,AAXX 26124 07207 12/70 30814 10020 21020 30303 40358 50007 60006 80004 91200=
07207,1996-12-26 18:00:00,1,1036.3,0.1,64,-5,20000,25.928,,,90,-0.4,2.5,,,,,,,,,wg-a,,,,AAXX 26184 07207 12/70 10914 10010 21050 30308 40363 50001 60006 80001 91800 333 10025 21004=
07207,1996-12-27 00:00:00,0,1034.7,-1.7,80,-3,12000,31.484,,,100,,,,,,,,,,,wg-a,,,,AAXX 27004 07207 12862 51017 10000 21030 30292 40347 56017 60006 85050 90000=
07207,1996-12-27 06:00:00,-1,1030.7,,86,-3,18000,22.224,,,70,,,,,,,,,,,wg-a,,,,AAXX 27064 07207 32/68 60712 11010 21030 30252 40307 80004 90600=
07207,1996-12-27 12:00:00,2,1027.4,-2.2,69,-3,15000,18.52,,,80,,,,,,,,,,,wg-a,,,,AAXX 27124 07207 12865 40810 10020 21030 30219 40274 58022 60006 83031 91200=
07207,1996-12-27 18:00:00,1,1024.2,-1.3,59,-6,12000,22.224,,,60,-1.9,2,,,,,,,,,wg-a,,,,AAXX 27184 07207 12862 20612 10010 21060 30187 40242 56013 60006 82030 91800 333 10020 21019=
07207,1996-12-28 00:00:00,-1,1022.3,-1.5,86,-3,8000,11.112,,,30,,,,,,,,,,,wg-a,,,,AAXX 28004 07207 12858 10306 11010 21030 30168 40223 56015 60006 81030 90000=
07207,1996-12-28 06:00:00,3,1020.1,-0.8,87,1,15000,11.112,,,20,-0.7,3.4,,,,,,,,,wg-a,,,,AAXX 28064 07207 12665 80206 10030 20010 30147 40201 56008 60006 885// 90600 333 10034 21007=
07207,1996-12-28 12:00:00,2,1019.4,-0.7,75,-2,18000,35.188,,61.116,60,,,,,,,,,,,wg-a,,,,AAXX 28124 07207 12568 50619 10020 21020 30140 40194 58007 60006 85500 91200 333 91033=
07207,1996-12-28 18:00:00,0,1019.2,0.7,47,-10,20000,31.484,,,70,-0.1,4,,,,,,,,,wg-a,,,,AAXX 28184 07207 12570 20717 10000 21100 30137 40192 51007 60006 82200 91800 333 10040 21001=
07207,1996-12-29 00:00:00,-4,1019.2,-0.1,68,-9,12000,35.188,,,80,,,,,,,,,,,wg-a,,,,AAXX 29004 07207 12562 20819 11040 21090 30137 40192 58001 60006 82200 90000=
07207,1996-12-29 06:00:00,-6,1017.5,-1.3,79,-9,20000,31.484,,,80,-5.9,0,,,,,,,,,wg-a,,,,AAXX 29064 07207 12570 10817 11060 21090 30119 40175 56013 60006 81200 90600 333 10000 21059=
07207,1996-12-29 12:00:00,-3,1017.5,-0.3,68,-8,18000,35.188,,68.524,90,,,,,,,,,,,wg-a,,,,AAXX 29124 07207 12568 30919 11030 21080 30120 40175 58003 60006 83200 91200 333 91037=
07207,1996-12-29 18:00:00,-2,1016.6,0.2,63,-8,20000,31.484,,61.116,80,-5.7,-1.4,,,,,,,,,wg-a,,,,AAXX 29184 07207 12570 20817 11020 21080 30111 40166 50002 60006 82200 91800 333 11014 21057 91033=
07207,1996-12-30 00:00:00,-2,1015.4,-0.6,63,-8,15000,25.928,,,80,,,,,,,,,,,wg-a,,,,AAXX 30004 07207 12565 20814 11020 21080 30099 40154 56006 60006 82200 90000=
07207,1996-12-30 06:00:00,0,1012.2,-1.9,64,-6,20000,11.112,,,20,-2.9,-0.1,,,,,,,,,wg-a,,,,AAXX 30064 07207 12670 70206 10000 21060 30068 40122 56019 60006 875// 90600 333 11001 21029=
07207,1996-12-30 12:00:00,5,1009.9,-1,87,3,20000,18.52,,,20,,,,,,,,,,,wg-a,,,,AAXX 30124 07207 12670 50210 10050 20030 30046 40099 58010 60006 85500 91200=
07207,1996-12-30 18:00:00,2,1009.5,0.2,75,-2,18000,14.816,,,60,-0.4,5.5,,,,,,,,,wg-a,,,,AAXX 30184 07207 12668 70608 10020 21020 30041 40095 50002 60006 875// 91800 333 10055 21004=
07207,1996-12-31 00:00:00,-1,1009.8,0,86,-3,15000,14.816,,,80,,,,,,,,,,,wg-a,,,,AAXX 31004 07207 12565 20808 11010 21030 30044 40098 50000 60006 82200 90000=
07207,1996-12-31 06:00:00,-1,1010.1,0.1,74,-5,25000,14.816,,,90,-1.4,2.1,,,,,,,,,wg-a,,,,AAXX 31064 07207 12575 20908 11010 21050 30047 40101 53001 60006 82100 90600 333 10021 21014=
07207,1996-12-31 12:00:00,1,1011,0.1,75,-3,25000,25.928,,,80,,,,,,,,,,,wg-a,,,,AAXX 31124 07207 12575 30814 10010 21030 30056 40110 50001 60006 83200 91200=
07207,1996-12-31 18:00:00,0,1012.5,1.1,64,-6,20000,29.632,,53.708,60,-2.1,1.4,,,,,,,,,wg-a,,,,AAXX 31184 07207 12670 60616 10000 21060 30071 40125 52011 60006 86500 91800 333 10014 21021 91029=
